<?xml version="1.0" encoding="UTF-8"?>
<osm generator="osmapis" version="0.6">
	<node id="-817150" lat="63.9462055544" lon="11.4242444508">
		<tag k="name" v="Limarka" />
		<tag k="place" v="locality" />
		<tag k="ssr:stedsnr" v="22884" />
	</node>
	<node id="-823293" lat="63.9622194461" lon="11.693794446">
		<tag k="name" v="Brandseggmyra" />
		<tag k="natural" v="wetland" />
		<tag k="ssr:stedsnr" v="878434" />
	</node>
	<node id="-821243" lat="64.1954111073" lon="11.7790055515">
		<tag k="name" v="Spjøtmyra" />
		<tag k="natural" v="wetland" />
		<tag k="ssr:stedsnr" v="211763" />
	</node>
	<node id="-819194" lat="64.0111722255" lon="11.5063944418">
		<tag k="name" v="Furuskogen" />
		<tag k="place" v="locality" />
		<tag k="ssr:stedsnr" v="149909" />
	</node>
	<node id="-817145" lat="63.9756888862" lon="11.5766694458">
		<tag k="name" v="Sognan" />
		<tag k="natural" v="wetland" />
		<tag k="ssr:stedsnr" v="453916" />
	</node>
	<node id="-817144" lat="64.1625111074" lon="11.5963472282">
		<tag k="name" v="Kleivmyra" />
		<tag k="natural" v="wetland" />
		<tag k="ssr:stedsnr" v="655081" />
	</node>
	<node id="-823286" lat="64.1223416678" lon="11.2097000013">
		<tag k="name" v="Storbruengmyra" />
		<tag k="natural" v="wetland" />
		<tag k="ssr:stedsnr" v="888622" />
	</node>
	<node id="-819189" lat="64.1640638856" lon="11.7459694516">
		<tag k="historic" v="shieling" />
		<tag k="name" v="Grøtseteren" />
		<tag k="place" v="locality" />
		<tag k="ssr:stedsnr" v="939035" />
	</node>
	<node id="-823294" lat="64.1656444403" lon="11.8059416568">
		<tag k="name" v="Noemsmyra" />
		<tag k="natural" v="wetland" />
		<tag k="ssr:stedsnr" v="681445" />
	</node>
	<node id="-823282" lat="64.1145500035" lon="11.2744027844">
		<tag k="name" v="Raudmyra" />
		<tag k="natural" v="wetland" />
		<tag k="ssr:stedsnr" v="386199" />
	</node>
	<node id="-817137" lat="63.9811638883" lon="11.5953444436">
		<tag k="name" v="Vestermyran" />
		<tag k="natural" v="wetland" />
		<tag k="ssr:stedsnr" v="453915" />
	</node>
	<node id="-823277" lat="64.0611444427" lon="11.7678916631">
		<tag k="name" v="Skansmyra" />
		<tag k="natural" v="wetland" />
		<tag k="ssr:stedsnr" v="837999" />
	</node>
	<node id="-821228" lat="64.0819250036" lon="11.4287972296">
		<tag k="name" v="Skramdalsmyra" />
		<tag k="natural" v="wetland" />
		<tag k="ssr:stedsnr" v="568605" />
	</node>
	<node id="-819176" lat="64.1497944412" lon="11.6899027827">
		<tag k="name" v="Smedmyra" />
		<tag k="natural" v="wetland" />
		<tag k="ssr:stedsnr" v="817204" />
	</node>
	<node id="-819175" lat="64.0041333324" lon="11.7186444432">
		<tag k="name" v="Vintermyra" />
		<tag k="natural" v="wetland" />
		<tag k="ssr:stedsnr" v="514296" />
	</node>
	<node id="-819174" lat="63.9448055581" lon="11.4967888911">
		<tag k="loc_name" v="Bjønnabettet" />
		<tag k="name" v="Bjørnabettet" />
		<tag k="place" v="locality" />
		<tag k="ssr:stedsnr" v="326915" />
	</node>
	<node id="-821221" lat="64.021011115" lon="11.9775222198">
		<tag k="name" v="Giskåsslettet" />
		<tag k="natural" v="wetland" />
		<tag k="ssr:stedsnr" v="594472" />
	</node>
	<node id="-819171" lat="63.9618694476" lon="11.9164111133">
		<tag k="name" v="Hesjemyra" />
		<tag k="natural" v="wetland" />
		<tag k="ssr:stedsnr" v="109465" />
	</node>
	<node id="-819167" lat="64.0827555541" lon="11.5443027725">
		<tag k="name" v="Rotningmyra" />
		<tag k="natural" v="wetland" />
		<tag k="ssr:stedsnr" v="256242" />
	</node>
	<node id="-821213" lat="64.1853444461" lon="11.8351555612">
		<tag k="name" v="Soldagsmyra" />
		<tag k="natural" v="wetland" />
		<tag k="ssr:stedsnr" v="211745" />
	</node>
	<node id="-817116" lat="63.9783749997" lon="12.1002333344">
		<tag k="alt_name" v="Floan" />
		<tag k="name" v="Floin" />
		<tag k="natural" v="wetland" />
		<tag k="ssr:stedsnr" v="377423" />
	</node>
	<node id="-823259" lat="64.0620527778" lon="11.8081555629">
		<tag k="name" v="Tostenjøtin" />
		<tag k="place" v="locality" />
		<tag k="ssr:stedsnr" v="837995" />
	</node>
	<node id="-823258" lat="63.9885833375" lon="11.705769436">
		<tag k="alt_name" v="Lauvåsmyra" />
		<tag k="name" v="Lauåsmyra" />
		<tag k="natural" v="wetland" />
		<tag k="ssr:stedsnr" v="14959" />
	</node>
	<node id="-819160" lat="64.1680111101" lon="11.7734055592">
		<tag k="name" v="Stormyra" />
		<tag k="natural" v="wetland" />
		<tag k="ssr:stedsnr" v="149903" />
	</node>
	<node id="-819157" lat="64.0395111097" lon="11.7819194378">
		<tag k="name" v="Fiskløysmyra" />
		<tag k="natural" v="wetland" />
		<tag k="ssr:stedsnr" v="593968" />
	</node>
	<node id="-817103" lat="64.138763887" lon="11.3835888786">
		<tag k="name" v="Monsenget" />
		<tag k="natural" v="wetland" />
		<tag k="ssr:stedsnr" v="593452" />
	</node>
	<node id="-819150" lat="64.0037555585" lon="11.8379527773">
		<tag k="landuse" v="meadow" />
		<tag k="name" v="Tolenget" />
		<tag k="ssr:stedsnr" v="939056" />
	</node>
	<node id="-817099" lat="64.052347222" lon="11.2975250031">
		<tag k="name" v="Geilmyra" />
		<tag k="natural" v="wetland" />
		<tag k="ssr:stedsnr" v="872127" />
	</node>
	<node id="-819145" lat="63.9980611067" lon="11.7848861121">
		<tag k="name" v="Stormyra" />
		<tag k="natural" v="wetland" />
		<tag k="ssr:stedsnr" v="939058" />
	</node>
	<node id="-821191" lat="64.1056499972" lon="11.7611749981">
		<tag k="name" v="Bjørdalsmyra" />
		<tag k="natural" v="wetland" />
		<tag k="ssr:stedsnr" v="696153" />
	</node>
	<node id="-817094" lat="64.0060833319" lon="11.6452055515">
		<tag k="name" v="Kjerkbakken" />
		<tag k="place" v="locality" />
		<tag k="ssr:stedsnr" v="878444" />
	</node>
	<node id="-823234" lat="64.1745583311" lon="11.669799994">
		<tag k="name" v="Kivillaunenget" />
		<tag k="natural" v="wetland" />
		<tag k="ssr:stedsnr" v="898131" />
	</node>
	<node id="-819137" lat="64.0602888925" lon="11.7313611132">
		<tag k="name" v="Natsjøenget" />
		<tag k="place" v="locality" />
		<tag k="ssr:stedsnr" v="514281" />
	</node>
	<node id="-821237" lat="64.1631666635" lon="11.4156833367">
		<tag k="name" v="Utvikenget" />
		<tag k="natural" v="wetland" />
		<tag k="ssr:stedsnr" v="411732" />
	</node>
	<node id="-817083" lat="64.0261611115" lon="11.7595888824">
		<tag k="name" v="Fokkmyra" />
		<tag k="natural" v="wetland" />
		<tag k="ssr:stedsnr" v="878448" />
	</node>
	<node id="-817082" lat="64.1989583372" lon="11.8898666647">
		<tag k="name" v="Årbogmyra" />
		<tag k="natural" v="wetland" />
		<tag k="ssr:stedsnr" v="756779" />
	</node>
	<node id="-823224" lat="63.9823722252" lon="11.6599222323">
		<tag k="alt_name" v="Nesimyra" />
		<tag k="name" v="Nessingmyra" />
		<tag k="natural" v="wetland" />
		<tag k="ssr:stedsnr" v="14954" />
	</node>
	<node id="-823218" lat="64.0329694419" lon="11.6289583247">
		<tag k="name" v="Fuglåsmyra" />
		<tag k="natural" v="wetland" />
		<tag k="ssr:stedsnr" v="332493" />
	</node>
	<node id="-819368" lat="64.1278999973" lon="11.2286055495">
		<tag k="name" v="Jåddåenget" />
		<tag k="natural" v="wetland" />
		<tag k="ssr:stedsnr" v="524595" />
	</node>
	<node id="-823215" lat="64.0878027814" lon="11.782158325">
		<tag k="name" v="Stumyra" />
		<tag k="natural" v="wetland" />
		<tag k="ssr:stedsnr" v="959809" />
	</node>
	<node id="-817070" lat="64.0446833364" lon="11.2732861057">
		<tag k="name" v="Langmyra" />
		<tag k="natural" v="wetland" />
		<tag k="ssr:stedsnr" v="569227" />
	</node>
	<node id="-821162" lat="64.1971750031" lon="11.8963916723">
		<tag k="name" v="Marenmyra" />
		<tag k="natural" v="wetland" />
		<tag k="ssr:stedsnr" v="574810" />
	</node>
	<node id="-823208" lat="63.9871861133" lon="11.5869500008">
		<tag k="name" v="Strukstadmyra" />
		<tag k="natural" v="wetland" />
		<tag k="ssr:stedsnr" v="14947" />
	</node>
	<node id="-819110" lat="64.1533722196" lon="11.8058500027">
		<tag k="name" v="Småmyran" />
		<tag k="natural" v="wetland" />
		<tag k="ssr:stedsnr" v="393047" />
	</node>
	<node id="-819185" lat="64.1572527736" lon="11.5286444402">
		<tag k="name" v="Hatlinghusenget" />
		<tag k="natural" v="wetland" />
		<tag k="ssr:stedsnr" v="143633" />
	</node>
	<node id="-823204" lat="64.1552305551" lon="11.4838833414">
		<tag k="landuse" v="meadow" />
		<tag k="name" v="Tessemenget" />
		<tag k="ssr:stedsnr" v="84547" />
	</node>
	<node id="-823203" lat="64.201608331" lon="11.9064305477">
		<tag k="name" v="Hamptjønnmyra" />
		<tag k="natural" v="wetland" />
		<tag k="ssr:stedsnr" v="48815" />
	</node>
	<node id="-817056" lat="63.9663166661" lon="11.4106277716">
		<tag k="name" v="Vistamyra" />
		<tag k="natural" v="wetland" />
		<tag k="ssr:stedsnr" v="22865" />
	</node>
	<node id="-823199" lat="64.1510472214" lon="11.6847305622">
		<tag k="name" v="Kjerkmyra" />
		<tag k="natural" v="wetland" />
		<tag k="ssr:stedsnr" v="635178" />
	</node>
	<node id="-819100" lat="63.9786249969" lon="11.4712972315">
		<tag k="name" v="Stigemsmarka" />
		<tag k="place" v="locality" />
		<tag k="ssr:stedsnr" v="326885" />
	</node>
	<node id="-823195" lat="64.2130388921" lon="11.9410888967">
		<tag k="name" v="Langmyra" />
		<tag k="natural" v="wetland" />
		<tag k="ssr:stedsnr" v="48813" />
	</node>
	<node id="-817048" lat="64.0375916688" lon="11.2540555558">
		<tag k="name" v="Hammermyra" />
		<tag k="natural" v="wetland" />
		<tag k="ssr:stedsnr" v="569233" />
	</node>
	<node id="-819095" lat="64.1391166645" lon="11.4054888935">
		<tag k="name" v="Oppheimtømtet" />
		<tag k="place" v="locality" />
		<tag k="ssr:stedsnr" v="41336" />
	</node>
	<node id="-823190" lat="63.9162777814" lon="11.4688222314">
		<tag k="name" v="Melgårdsmyra" />
		<tag k="natural" v="wetland" />
		<tag k="ssr:stedsnr" v="265990" />
	</node>
	<node id="-821141" lat="64.1623888858" lon="11.359830562">
		<tag k="name" v="Hjellengmyra" />
		<tag k="natural" v="wetland" />
		<tag k="ssr:stedsnr" v="351696" />
	</node>
	<node id="-823188" lat="63.9320722206" lon="11.6404694497">
		<tag k="name" v="Hesjemyra" />
		<tag k="natural" v="wetland" />
		<tag k="ssr:stedsnr" v="878380" />
	</node>
	<node id="-817043" lat="64.1856250002" lon="11.8400666754">
		<tag k="name" v="Soldagsmyra" />
		<tag k="natural" v="wetland" />
		<tag k="ssr:stedsnr" v="453886" />
	</node>
	<node id="-817042" lat="63.9854416709" lon="11.6550833347">
		<tag k="name" v="Bjørnamyra" />
		<tag k="natural" v="wetland" />
		<tag k="ssr:stedsnr" v="256967" />
	</node>
	<node id="-817038" lat="64.0080055595" lon="12.1758472205">
		<tag k="name" v="Gammelslåtten" />
		<tag k="natural" v="wetland" />
		<tag k="ssr:stedsnr" v="412292" />
	</node>
	<node id="-819085" lat="63.970927782" lon="11.4442722167">
		<tag k="name" v="Holtaunmyra" />
		<tag k="natural" v="wetland" />
		<tag k="ssr:stedsnr" v="326882" />
	</node>
	<node id="-819084" lat="64.0025138846" lon="11.8796305562">
		<tag k="name" v="Vålamyra" />
		<tag k="natural" v="wetland" />
		<tag k="ssr:stedsnr" v="28057" />
	</node>
	<node id="-821131" lat="64.0575472233" lon="11.2962194345">
		<tag k="name" v="Sandmyra" />
		<tag k="natural" v="wetland" />
		<tag k="ssr:stedsnr" v="22230" />
	</node>
	<node id="-821122" lat="64.1473944404" lon="11.4755361042">
		<tag k="landuse" v="meadow" />
		<tag k="name" v="Storenget" />
		<tag k="ssr:stedsnr" v="751549" />
	</node>
	<node id="-817025" lat="64.0605611135" lon="11.4358222229">
		<tag k="name" v="Merkesmyra" />
		<tag k="natural" v="wetland" />
		<tag k="ssr:stedsnr" v="933926" />
	</node>
	<node id="-821120" lat="63.9145833377" lon="11.7367527783">
		<tag k="historic" v="shieling" />
		<tag k="name" v="Skeisvollen" />
		<tag k="place" v="locality" />
		<tag k="ssr:stedsnr" v="594534" />
	</node>
	<node id="-821118" lat="64.1595333352" lon="11.8008972302">
		<tag k="name" v="Vallemsgjøta" />
		<tag k="natural" v="wetland" />
		<tag k="ssr:stedsnr" v="211838" />
	</node>
	<node id="-823162" lat="63.9188722192" lon="11.4524972212">
		<tag k="landuse" v="meadow" />
		<tag k="name" v="Sekkenget" />
		<tag k="ssr:stedsnr" v="811993" />
	</node>
	<node id="-817017" lat="64.2023250021" lon="11.6441499943">
		<tag k="name" v="Giltmyrin" />
		<tag k="natural" v="wetland" />
		<tag k="ssr:stedsnr" v="898173" />
	</node>
	<node id="-823160" lat="64.1812416675" lon="11.7323416737">
		<tag k="name" v="Fjellengmyra" />
		<tag k="natural" v="wetland" />
		<tag k="ssr:stedsnr" v="352199" />
	</node>
	<node id="-820884" lat="64.1745333288" lon="11.5807666725">
		<tag k="name" v="Øverenget" />
		<tag k="natural" v="wetland" />
		<tag k="ssr:stedsnr" v="170084" />
	</node>
	<node id="-817013" lat="64.3099888904" lon="11.9012499972">
		<tag k="historic" v="shieling" />
		<tag k="name" v="Borgseteren" />
		<tag k="place" v="locality" />
		<tag k="ssr:stedsnr" v="741676" />
	</node>
	<node id="-819057" lat="64.0423916673" lon="11.6920805552">
		<tag k="name" v="Bjørnamyra" />
		<tag k="natural" v="wetland" />
		<tag k="ssr:stedsnr" v="514252" />
	</node>
	<node id="-821103" lat="64.0469722211" lon="11.4179166756">
		<tag k="name" v="Kleivmyra" />
		<tag k="natural" v="wetland" />
		<tag k="ssr:stedsnr" v="508625" />
	</node>
	<node id="-819053" lat="64.1661500027" lon="11.7225277796">
		<tag k="name" v="Stormyra" />
		<tag k="natural" v="wetland" />
		<tag k="ssr:stedsnr" v="939027" />
	</node>
	<node id="-819052" lat="64.0533694481" lon="11.8720388918">
		<tag k="name" v="Litlvesterenget" />
		<tag k="natural" v="wetland" />
		<tag k="ssr:stedsnr" v="776986" />
	</node>
	<node id="-819050" lat="64.0499722247" lon="12.0180222224">
		<tag k="name" v="Dansarsteinen" />
		<tag k="natural" v="stone" />
		<tag k="ssr:stedsnr" v="838513" />
	</node>
	<node id="-823144" lat="64.1967944473" lon="11.7226555498">
		<tag k="name" v="Nordhauganenget" />
		<tag k="natural" v="wetland" />
		<tag k="ssr:stedsnr" v="352198" />
	</node>
	<node id="-823143" lat="63.9321166709" lon="11.4949194533">
		<tag k="name" v="Skeifeltet" />
		<tag k="place" v="locality" />
		<tag k="ssr:stedsnr" v="265976" />
	</node>
	<node id="-819046" lat="63.8962972214" lon="11.50720833">
		<tag k="name" v="Håggån" />
		<tag k="place" v="locality" />
		<tag k="ssr:stedsnr" v="629553" />
	</node>
	<node id="-817126" lat="63.9472916638" lon="12.0882750054">
		<tag k="name" v="Brentmyran" />
		<tag k="natural" v="wetland" />
		<tag k="ssr:stedsnr" v="378500" />
	</node>
	<node id="-819033" lat="64.0881027797" lon="11.3720416734">
		<tag k="name" v="Litlmarka" />
		<tag k="place" v="locality" />
		<tag k="ssr:stedsnr" v="326867" />
	</node>
	<node id="-820196" lat="63.9787972214" lon="11.7321361163">
		<tag k="name" v="Høgåsmyra" />
		<tag k="natural" v="wetland" />
		<tag k="ssr:stedsnr" v="169920" />
	</node>
	<node id="-819030" lat="63.9647416688" lon="12.0759250045">
		<tag k="alt_name" v="Grindmyrfloan" />
		<tag k="name" v="Grindmyrfloin" />
		<tag k="natural" v="wetland" />
		<tag k="ssr:stedsnr" v="655542" />
	</node>
	<node id="-819029" lat="63.9750083312" lon="11.7494805573">
		<tag k="name" v="Vasslætta" />
		<tag k="natural" v="wetland" />
		<tag k="ssr:stedsnr" v="290916" />
	</node>
	<node id="-821076" lat="64.1590722206" lon="11.7206055581">
		<tag k="name" v="Hevilmyra" />
		<tag k="natural" v="wetland" />
		<tag k="ssr:stedsnr" v="332019" />
	</node>
	<node id="-823123" lat="63.8989583316" lon="11.4823972185">
		<tag k="name" v="Andstadmyra" />
		<tag k="natural" v="wetland" />
		<tag k="ssr:stedsnr" v="22788" />
	</node>
	<node id="-821072" lat="63.9832472229" lon="11.5943777738">
		<tag k="name" v="Etternonsmyran" />
		<tag k="natural" v="wetland" />
		<tag k="ssr:stedsnr" v="514897" />
	</node>
	<node id="-819019" lat="64.0937305589" lon="11.6470222151">
		<tag k="name" v="Dymyra" />
		<tag k="natural" v="wetland" />
		<tag k="ssr:stedsnr" v="574267" />
	</node>
	<node id="-821956" lat="64.156855552" lon="11.2996777857">
		<tag k="name" v="Langmyra" />
		<tag k="natural" v="wetland" />
		<tag k="ssr:stedsnr" v="508756" />
	</node>
	<node id="-822924" lat="64.1123916659" lon="11.7910555546">
		<tag k="name" v="Ramstadmyra" />
		<tag k="natural" v="wetland" />
		<tag k="ssr:stedsnr" v="959745" />
	</node>
	<node id="-819013" lat="64.1552805556" lon="11.7184194446">
		<tag k="name" v="Stjernmyra" />
		<tag k="natural" v="wetland" />
		<tag k="ssr:stedsnr" v="817189" />
	</node>
	<node id="-823104" lat="64.1516638879" lon="11.7518749902">
		<tag k="name" v="Raudmyra" />
		<tag k="natural" v="wetland" />
		<tag k="ssr:stedsnr" v="635148" />
	</node>
	<node id="-823103" lat="63.9965055527" lon="11.8199083371">
		<tag k="name" v="Fjellmyra" />
		<tag k="natural" v="wetland" />
		<tag k="ssr:stedsnr" v="89065" />
	</node>
	<node id="-819002" lat="63.9881750039" lon="11.9655888845">
		<tag k="name" v="Sørmomyra" />
		<tag k="natural" v="wetland" />
		<tag k="ssr:stedsnr" v="290910" />
	</node>
	<node id="-818997" lat="64.1157111084" lon="11.7960000048">
		<tag k="name" v="Raudmyra" />
		<tag k="natural" v="wetland" />
		<tag k="ssr:stedsnr" v="272779" />
	</node>
	<node id="-818992" lat="64.1566777753" lon="11.9485944437">
		<tag k="name" v="Nordmarka" />
		<tag k="place" v="locality" />
		<tag k="ssr:stedsnr" v="14234" />
	</node>
	<node id="-822578" lat="64.0175638886" lon="12.0962583371">
		<tag k="name" v="Raudmyra" />
		<tag k="natural" v="wetland" />
		<tag k="ssr:stedsnr" v="716298" />
	</node>
	<node id="-821032" lat="64.0726027804" lon="11.7599111129">
		<tag k="name" v="Stakkmyra" />
		<tag k="natural" v="wetland" />
		<tag k="ssr:stedsnr" v="756173" />
	</node>
	<node id="-823260" lat="64.1391249964" lon="11.4098444541">
		<tag k="name" v="Guruhalla" />
		<tag k="natural" v="wetland" />
		<tag k="ssr:stedsnr" v="196788" />
	</node>
	<node id="-822364" lat="64.0979972202" lon="11.4086444475">
		<tag k="name" v="Kvarvingsmyran" />
		<tag k="natural" v="wetland" />
		<tag k="ssr:stedsnr" v="22579" />
	</node>
	<node id="-818978" lat="64.1276472209" lon="11.7828083386">
		<tag k="name" v="Torvmyra" />
		<tag k="natural" v="wetland" />
		<tag k="ssr:stedsnr" v="272788" />
	</node>
	<node id="-821211" lat="64.0599777786" lon="11.7866500066">
		<tag k="name" v="Sognmyra" />
		<tag k="natural" v="wetland" />
		<tag k="ssr:stedsnr" v="715968" />
	</node>
	<node id="-822917" lat="64.0947861068" lon="11.5596694493">
		<tag k="name" v="Litlvatnet" />
		<tag k="natural" v="wetland" />
		<tag k="ssr:stedsnr" v="933749" />
	</node>
	<node id="-818972" lat="63.9833527775" lon="11.5339083363">
		<tag k="name" v="Bonmyra" />
		<tag k="natural" v="wetland" />
		<tag k="ssr:stedsnr" v="924964" />
	</node>
	<node id="-823060" lat="63.9574305542" lon="11.7536527682">
		<tag k="name" v="Åksjømyra" />
		<tag k="natural" v="wetland" />
		<tag k="ssr:stedsnr" v="594905" />
	</node>
	<node id="-821613" lat="63.9098416684" lon="11.7513944457">
		<tag k="name" v="Moaslettet" />
		<tag k="natural" v="wetland" />
		<tag k="ssr:stedsnr" v="777571" />
	</node>
	<node id="-818951" lat="64.1882027781" lon="11.7805722168">
		<tag k="name" v="Kjellmyrin" />
		<tag k="natural" v="wetland" />
		<tag k="ssr:stedsnr" v="635751" />
	</node>
	<node id="-823046" lat="64.1234555539" lon="11.2834583238">
		<tag k="name" v="Kartmyra" />
		<tag k="natural" v="wetland" />
		<tag k="ssr:stedsnr" v="22764" />
	</node>
	<node id="-820996" lat="64.0446222207" lon="11.9034916669">
		<tag k="name" v="Snøplogmyra" />
		<tag k="natural" v="wetland" />
		<tag k="ssr:stedsnr" v="715938" />
	</node>
	<node id="-818946" lat="64.1578722211" lon="11.7339750097">
		<tag k="name" v="Svenningmyra" />
		<tag k="natural" v="wetland" />
		<tag k="ssr:stedsnr" v="28028" />
	</node>
	<node id="-823041" lat="63.9880666699" lon="11.8156638989">
		<tag k="name" v="Storbekkmyra" />
		<tag k="natural" v="wetland" />
		<tag k="ssr:stedsnr" v="89056" />
	</node>
	<node id="-823040" lat="64.168180556" lon="11.5793555489">
		<tag k="name" v="Vesterengmyra" />
		<tag k="natural" v="wetland" />
		<tag k="ssr:stedsnr" v="898083" />
	</node>
	<node id="-823038" lat="64.12549722" lon="11.4354777731">
		<tag k="name" v="Raudmyra" />
		<tag k="natural" v="wetland" />
		<tag k="ssr:stedsnr" v="447479" />
	</node>
	<node id="-821205" lat="64.0270111093" lon="11.701488885">
		<tag k="name" v="Kvitmyra" />
		<tag k="natural" v="wetland" />
		<tag k="ssr:stedsnr" v="135102" />
	</node>
	<node id="-818938" lat="63.9821138903" lon="11.6244388972">
		<tag k="name" v="Spennmyra" />
		<tag k="natural" v="wetland" />
		<tag k="ssr:stedsnr" v="878923" />
	</node>
	<node id="-820985" lat="64.0650222238" lon="11.3814861064">
		<tag k="name" v="Øvre Buamyra" />
		<tag k="natural" v="wetland" />
		<tag k="ssr:stedsnr" v="83924" />
	</node>
	<node id="-818936" lat="64.1196361131" lon="11.5404000079">
		<tag k="name" v="Skeismyra" />
		<tag k="natural" v="wetland" />
		<tag k="ssr:stedsnr" v="872696" />
	</node>
	<node id="-818931" lat="64.1212583326" lon="11.5525083249">
		<tag k="name" v="Åsenget" />
		<tag k="natural" v="wetland" />
		<tag k="ssr:stedsnr" v="872698" />
	</node>
	<node id="-818930" lat="64.1970916685" lon="11.7525888862">
		<tag k="landuse" v="meadow" />
		<tag k="name" v="Vesterenget" />
		<tag k="ssr:stedsnr" v="352728" />
	</node>
	<node id="-820976" lat="64.0523833303" lon="11.5357916699">
		<tag k="name" v="Orrhanemyra" />
		<tag k="natural" v="wetland" />
		<tag k="ssr:stedsnr" v="134013" />
	</node>
	<node id="-823021" lat="64.1195916671" lon="11.290799997">
		<tag k="name" v="Størresmyra" />
		<tag k="natural" v="wetland" />
		<tag k="ssr:stedsnr" v="933774" />
	</node>
	<node id="-818923" lat="64.0365583369" lon="11.8208972321">
		<tag k="name" v="Storslettet" />
		<tag k="natural" v="wetland" />
		<tag k="ssr:stedsnr" v="533985" />
	</node>
	<node id="-823013" lat="63.9966472203" lon="11.661944451">
		<tag k="name" v="Stormyra" />
		<tag k="natural" v="wetland" />
		<tag k="ssr:stedsnr" v="149259" />
	</node>
	<node id="-818912" lat="63.9205777759" lon="11.4919944472">
		<tag k="name" v="Gurosletta" />
		<tag k="place" v="locality" />
		<tag k="ssr:stedsnr" v="690999" />
	</node>
	<node id="-823005" lat="64.2158750039" lon="11.7637583425">
		<tag k="name" v="Nordengan" />
		<tag k="natural" v="wetland" />
		<tag k="ssr:stedsnr" v="352161" />
	</node>
	<node id="-819834" lat="64.2116138913" lon="11.9105027712">
		<tag k="name" v="Stormyra" />
		<tag k="natural" v="wetland" />
		<tag k="ssr:stedsnr" v="898816" />
	</node>
	<node id="-820175" lat="64.1627750015" lon="11.6042694537">
		<tag k="name" v="Stakkenget" />
		<tag k="natural" v="wetland" />
		<tag k="ssr:stedsnr" v="48065" />
	</node>
	<node id="-819492" lat="64.0030777781" lon="11.7549499913">
		<tag k="name" v="Brennmånmyra" />
		<tag k="natural" v="wetland" />
		<tag k="ssr:stedsnr" v="817277" />
	</node>
	<node id="-818900" lat="64.0260166685" lon="11.6090388989">
		<tag k="name" v="Stormyra" />
		<tag k="natural" v="wetland" />
		<tag k="ssr:stedsnr" v="439038" />
	</node>
	<node id="-823246" lat="64.0654833354" lon="11.7918999926">
		<tag k="name" v="Storraudmyra" />
		<tag k="natural" v="wetland" />
		<tag k="ssr:stedsnr" v="837998" />
	</node>
	<node id="-822994" lat="64.2104944463" lon="11.8291277732">
		<tag k="name" v="Heggesengan" />
		<tag k="natural" v="wetland" />
		<tag k="ssr:stedsnr" v="412185" />
	</node>
	<node id="-822993" lat="64.0029583302" lon="11.734094449">
		<tag k="name" v="Badstumyra" />
		<tag k="natural" v="wetland" />
		<tag k="ssr:stedsnr" v="149255" />
	</node>
	<node id="-818896" lat="64.0585638933" lon="11.5703472205">
		<tag k="name" v="Grønmyra" />
		<tag k="natural" v="wetland" />
		<tag k="ssr:stedsnr" v="499038" />
	</node>
	<node id="-820942" lat="64.0413750041" lon="11.9153638841">
		<tag k="historic" v="shieling" />
		<tag k="name" v="Fossemssetran" />
		<tag k="old_name" v="Fossemseteren" />
		<tag k="place" v="locality" />
		<tag k="ssr:stedsnr" v="559635" />
	</node>
	<node id="-820939" lat="64.1383027795" lon="11.1864833297">
		<tag k="historic" v="shieling" />
		<tag k="name" v="Sagstuvollen" />
		<tag k="place" v="locality" />
		<tag k="ssr:stedsnr" v="160587" />
	</node>
	<node id="-822983" lat="64.0159277742" lon="11.8080333373">
		<tag k="name" v="Klokkarbogen" />
		<tag k="place" v="locality" />
		<tag k="ssr:stedsnr" v="742658" />
	</node>
	<node id="-818884" lat="63.899949996" lon="11.4962250042">
		<tag k="name" v="Øset" />
		<tag k="natural" v="wetland" />
		<tag k="ssr:stedsnr" v="750938" />
	</node>
	<node id="-818882" lat="64.1915527805" lon="11.4904972235">
		<tag k="name" v="Austvikenget" />
		<tag k="natural" v="wetland" />
		<tag k="ssr:stedsnr" v="958770" />
	</node>
	<node id="-822977" lat="63.9434972186" lon="11.4492972158">
		<tag k="name" v="Leinsmyra" />
		<tag k="natural" v="wetland" />
		<tag k="ssr:stedsnr" v="479508" />
	</node>
	<node id="-822973" lat="64.1472611087" lon="11.6006999911">
		<tag k="name" v="Småengan" />
		<tag k="natural" v="wetland" />
		<tag k="ssr:stedsnr" v="392433" />
	</node>
	<node id="-822971" lat="63.9701833342" lon="11.7425861198">
		<tag k="name" v="Granshølet" />
		<tag k="natural" v="wetland" />
		<tag k="ssr:stedsnr" v="837924" />
	</node>
	<node id="-822969" lat="63.9875138893" lon="11.6221916715">
		<tag k="name" v="Elsemyra" />
		<tag k="natural" v="wetland" />
		<tag k="ssr:stedsnr" v="559973" />
	</node>
	<node id="-822968" lat="64.0941694417" lon="11.8081361147">
		<tag k="name" v="Bermyra" />
		<tag k="natural" v="wetland" />
		<tag k="ssr:stedsnr" v="48754" />
	</node>
	<node id="-818868" lat="63.9500527805" lon="11.7245527766">
		<tag k="name" v="Aunslettet" />
		<tag k="natural" v="wetland" />
		<tag k="ssr:stedsnr" v="290890" />
	</node>
	<node id="-818612" lat="64.0538555525" lon="11.5396027803">
		<tag k="name" v="Byaslættmyran" />
		<tag k="natural" v="wetland" />
		<tag k="ssr:stedsnr" v="264745" />
	</node>
	<node id="-820912" lat="64.1782388847" lon="11.6108305575">
		<tag k="name" v="Vanderåsenget" />
		<tag k="natural" v="wetland" />
		<tag k="ssr:stedsnr" v="170087" />
	</node>
	<node id="-818863" lat="63.9909305539" lon="11.5610583374">
		<tag k="alt_name" v="Kittilmyra" />
		<tag k="name" v="Kitilmyra" />
		<tag k="natural" v="wetland" />
		<tag k="ssr:stedsnr" v="924948" />
	</node>
	<node id="-818861" lat="64.1328499958" lon="11.2861722317">
		<tag k="name" v="Kartmyra" />
		<tag k="natural" v="wetland" />
		<tag k="ssr:stedsnr" v="386771" />
	</node>
	<node id="-818855" lat="64.2028916656" lon="11.9921416607">
		<tag k="name" v="Småvollan" />
		<tag k="place" v="locality" />
		<tag k="ssr:stedsnr" v="392998" />
	</node>
	<node id="-818854" lat="64.0125138855" lon="11.8119194353">
		<tag k="name" v="Saksenget" />
		<tag k="place" v="locality" />
		<tag k="ssr:stedsnr" v="28007" />
	</node>
	<node id="-820899" lat="63.9647583305" lon="11.4103416677">
		<tag k="name" v="Vistamyra" />
		<tag k="natural" v="wetland" />
		<tag k="ssr:stedsnr" v="83896" />
	</node>
	<node id="-818850" lat="63.9442333293" lon="11.711086119">
		<tag k="name" v="Okstadslettet" />
		<tag k="natural" v="wetland" />
		<tag k="ssr:stedsnr" v="776916" />
	</node>
	<node id="-822945" lat="64.0068722244" lon="11.7281833281">
		<tag k="name" v="Brentmyra" />
		<tag k="natural" v="wetland" />
		<tag k="ssr:stedsnr" v="392423" />
	</node>
	<node id="-822944" lat="64.0991861086" lon="11.7811749928">
		<tag k="name" v="Gøllemyra" />
		<tag k="natural" v="wetland" />
		<tag k="ssr:stedsnr" v="959741" />
	</node>
	<node id="-822940" lat="64.1054472245" lon="11.7825000021">
		<tag k="name" v="Langmyra" />
		<tag k="natural" v="wetland" />
		<tag k="ssr:stedsnr" v="959742" />
	</node>
	<node id="-822939" lat="64.0770583362" lon="11.5721638933">
		<tag k="historic" v="shieling" />
		<tag k="name" v="Råmåseteren" />
		<tag k="place" v="locality" />
		<tag k="ssr:stedsnr" v="392425" />
	</node>
	<node id="-820890" lat="64.0486222258" lon="11.5596416685">
		<tag k="name" v="Merkesmyra" />
		<tag k="natural" v="wetland" />
		<tag k="ssr:stedsnr" v="28514" />
	</node>
	<node id="-820889" lat="63.9989277766" lon="11.9320138891">
		<tag k="name" v="Johanmyra" />
		<tag k="natural" v="wetland" />
		<tag k="ssr:stedsnr" v="715893" />
	</node>
	<node id="-820888" lat="64.0827916629" lon="11.7556083422">
		<tag k="name" v="Klæbumarka" />
		<tag k="place" v="locality" />
		<tag k="ssr:stedsnr" v="742324" />
	</node>
	<node id="-820885" lat="64.0549916704" lon="11.5731027862">
		<tag k="name" v="Torvmyra" />
		<tag k="natural" v="wetland" />
		<tag k="ssr:stedsnr" v="28508" />
	</node>
	<node id="-822932" lat="64.1591138892" lon="11.7283083239">
		<tag k="name" v="Snurumyra" />
		<tag k="natural" v="wetland" />
		<tag k="ssr:stedsnr" v="89027" />
	</node>
	<node id="-820882" lat="64.0198416658" lon="11.8506777821">
		<tag k="name" v="Tonerimyra" />
		<tag k="natural" v="wetland" />
		<tag k="ssr:stedsnr" v="696071" />
	</node>
	<node id="-822928" lat="64.1260249987" lon="11.2902916707">
		<tag k="name" v="Bjørnamyra" />
		<tag k="natural" v="wetland" />
		<tag k="ssr:stedsnr" v="933788" />
	</node>
	<node id="-819222" lat="63.9588666627" lon="11.4151750017">
		<tag k="name" v="Lånklendingan" />
		<tag k="place" v="locality" />
		<tag k="ssr:stedsnr" v="326912" />
	</node>
	<node id="-822925" lat="64.0316111128" lon="12.0662000035">
		<tag k="name" v="Storneset" />
		<tag k="place" v="locality" />
		<tag k="ssr:stedsnr" v="438663" />
	</node>
	<node id="-818828" lat="64.0948166677" lon="11.5264138882">
		<tag k="name" v="Litlmyrenget" />
		<tag k="place" v="locality" />
		<tag k="ssr:stedsnr" v="872665" />
	</node>
	<node id="-822922" lat="64.0653222185" lon="11.5501499935">
		<tag k="name" v="Slættet" />
		<tag k="natural" v="wetland" />
		<tag k="ssr:stedsnr" v="22728" />
	</node>
	<node id="-820873" lat="64.052411115" lon="11.7933027839">
		<tag k="name" v="Småmyran" />
		<tag k="natural" v="wetland" />
		<tag k="ssr:stedsnr" v="472997" />
	</node>
	<node id="-818824" lat="64.188663888" lon="11.4921861016">
		<tag k="name" v="Rasmusmyran" />
		<tag k="natural" v="wetland" />
		<tag k="ssr:stedsnr" v="47747" />
	</node>
	<node id="-818821" lat="64.1474888894" lon="11.7149694544">
		<tag k="name" v="Åmyran" />
		<tag k="natural" v="wetland" />
		<tag k="ssr:stedsnr" v="514197" />
	</node>
	<node id="-822913" lat="64.1089861071" lon="11.5062722217">
		<tag k="name" v="Hælskomyra" />
		<tag k="natural" v="wetland" />
		<tag k="ssr:stedsnr" v="933750" />
	</node>
	<node id="-820863" lat="64.1422583374" lon="11.4577416717">
		<tag k="landuse" v="meadow" />
		<tag k="name" v="Litlenget" />
		<tag k="ssr:stedsnr" v="691498" />
	</node>
	<node id="-820501" lat="64.1663999977" lon="11.4336916693">
		<tag k="name" v="Vestvikenget" />
		<tag k="natural" v="wetland" />
		<tag k="ssr:stedsnr" v="775735" />
	</node>
	<node id="-822908" lat="64.1898944481" lon="11.7460250078">
		<tag k="landuse" v="meadow" />
		<tag k="name" v="Rønningsenget" />
		<tag k="ssr:stedsnr" v="48734" />
	</node>
	<node id="-818808" lat="63.9799972195" lon="11.5173583256">
		<tag k="name" v="Limyra" />
		<tag k="natural" v="wetland" />
		<tag k="ssr:stedsnr" v="932655" />
	</node>
	<node id="-821524" lat="64.1816305595" lon="11.7070305648">
		<tag k="name" v="Buenget" />
		<tag k="natural" v="wetland" />
		<tag k="ssr:stedsnr" v="170240" />
	</node>
	<node id="-820851" lat="64.0430416637" lon="11.2694944424">
		<tag k="name" v="Tuvmyra" />
		<tag k="natural" v="wetland" />
		<tag k="ssr:stedsnr" v="873218" />
	</node>
	<node id="-818802" lat="64.0013138911" lon="11.9245333343">
		<tag k="name" v="Hundmyra" />
		<tag k="natural" v="wetland" />
		<tag k="ssr:stedsnr" v="230876" />
	</node>
	<node id="-821181" lat="64.1681472196" lon="11.7596111047">
		<tag k="name" v="Holbekkmyra" />
		<tag k="natural" v="wetland" />
		<tag k="ssr:stedsnr" v="210102" />
	</node>
	<node id="-822892" lat="64.0717444463" lon="11.3823055543">
		<tag k="name" v="Bergmyra" />
		<tag k="natural" v="wetland" />
		<tag k="ssr:stedsnr" v="265918" />
	</node>
	<node id="-818795" lat="64.0326277779" lon="11.875277782">
		<tag k="name" v="Svartåsmyra" />
		<tag k="natural" v="wetland" />
		<tag k="ssr:stedsnr" v="290874" />
	</node>
	<node id="-822886" lat="64.0479944486" lon="11.8260555487">
		<tag k="name" v="Kristjanslettet" />
		<tag k="natural" v="wetland" />
		<tag k="ssr:stedsnr" v="837902" />
	</node>
	<node id="-818788" lat="64.1287666709" lon="11.2948666585">
		<tag k="name" v="Gullholet" />
		<tag k="place" v="locality" />
		<tag k="ssr:stedsnr" v="386732" />
	</node>
	<node id="-818786" lat="64.17020833" lon="11.7670305478">
		<tag k="name" v="Vesterenget" />
		<tag k="natural" v="wetland" />
		<tag k="ssr:stedsnr" v="817107" />
	</node>
	<node id="-818785" lat="64.05240278" lon="11.4584555636">
		<tag k="name" v="Malsenget" />
		<tag k="natural" v="wetland" />
		<tag k="ssr:stedsnr" v="690943" />
	</node>
	<node id="-818782" lat="63.8849916646" lon="11.4580916748">
		<tag k="name" v="Koaunmyra" />
		<tag k="natural" v="wetland" />
		<tag k="ssr:stedsnr" v="326800" />
	</node>
	<node id="-822877" lat="64.0461499993" lon="11.7871055521">
		<tag k="name" v="Ramstadmyra" />
		<tag k="natural" v="wetland" />
		<tag k="ssr:stedsnr" v="837901" />
	</node>
	<node id="-822874" lat="64.1849222206" lon="11.7672611189">
		<tag k="name" v="Torvmyra" />
		<tag k="natural" v="wetland" />
		<tag k="ssr:stedsnr" v="959724" />
	</node>
	<node id="-820825" lat="64.0341416661" lon="11.606977773">
		<tag k="name" v="Merkesmyra" />
		<tag k="natural" v="wetland" />
		<tag k="ssr:stedsnr" v="939522" />
	</node>
	<node id="-822870" lat="64.1131416671" lon="11.5105027715">
		<tag k="name" v="Stamnmyra" />
		<tag k="natural" v="wetland" />
		<tag k="ssr:stedsnr" v="22715" />
	</node>
	<node id="-818771" lat="64.0609444419" lon="11.5647527762">
		<tag k="name" v="Langmyra" />
		<tag k="natural" v="wetland" />
		<tag k="ssr:stedsnr" v="386731" />
	</node>
	<node id="-822865" lat="63.9294111113" lon="12.0317249906">
		<tag k="name" v="Stormyra" />
		<tag k="natural" v="wetland" />
		<tag k="ssr:stedsnr" v="13802" />
	</node>
	<node id="-820815" lat="63.9682694458" lon="11.4603166675">
		<tag k="name" v="Husmannsmarka" />
		<tag k="place" v="locality" />
		<tag k="ssr:stedsnr" v="265377" />
	</node>
	<node id="-818764" lat="64.0581194473" lon="11.4237499909">
		<tag k="name" v="Dragbakkmyra" />
		<tag k="natural" v="wetland" />
		<tag k="ssr:stedsnr" v="750910" />
	</node>
	<node id="-818762" lat="64.056905556" lon="11.5325888852">
		<tag k="name" v="Stamnmyra" />
		<tag k="natural" v="wetland" />
		<tag k="ssr:stedsnr" v="386730" />
	</node>
	<node id="-818761" lat="64.1520361114" lon="11.7004583369">
		<tag k="name" v="Tømmermyra" />
		<tag k="natural" v="wetland" />
		<tag k="ssr:stedsnr" v="574198" />
	</node>
	<node id="-822853" lat="64.0196388865" lon="11.7770499987">
		<tag k="name" v="Fåmyra" />
		<tag k="natural" v="wetland" />
		<tag k="ssr:stedsnr" v="89004" />
	</node>
	<node id="-820799" lat="64.1945944404" lon="11.8061749909">
		<tag k="name" v="Fremmerenget" />
		<tag k="natural" v="wetland" />
		<tag k="ssr:stedsnr" v="514764" />
	</node>
	<node id="-822846" lat="64.0257194412" lon="11.71803612">
		<tag k="name" v="Kålhågåmyra" />
		<tag k="natural" v="wetland" />
		<tag k="ssr:stedsnr" v="392394" />
	</node>
	<node id="-822842" lat="64.2022861087" lon="11.9691472214">
		<tag k="name" v="Øverlangmyra" />
		<tag k="natural" v="wetland" />
		<tag k="ssr:stedsnr" v="29000" />
	</node>
	<node id="-818741" lat="64.150408336" lon="11.9979194492">
		<tag k="name" v="Skyttarmyra" />
		<tag k="natural" v="wetland" />
		<tag k="ssr:stedsnr" v="559282" />
	</node>
	<node id="-822836" lat="64.2024194484" lon="11.9590694509">
		<tag k="name" v="Okstjønnmyra" />
		<tag k="natural" v="wetland" />
		<tag k="ssr:stedsnr" v="291838" />
	</node>
	<node id="-818735" lat="64.0027638924" lon="11.8976138907">
		<tag k="name" v="Hesjmyra" />
		<tag k="natural" v="wetland" />
		<tag k="ssr:stedsnr" v="290859" />
	</node>
	<node id="-820782" lat="63.9869000034" lon="11.9349472224">
		<tag k="name" v="Svarvalloken" />
		<tag k="natural" v="wetland" />
		<tag k="ssr:stedsnr" v="715895" />
	</node>
	<node id="-822829" lat="64.0026805542" lon="12.1019861151">
		<tag k="name" v="Lustadmyra" />
		<tag k="natural" v="wetland" />
		<tag k="ssr:stedsnr" v="230287" />
	</node>
	<node id="-818731" lat="64.1310027766" lon="11.3538249972">
		<tag k="name" v="Storskardmyra" />
		<tag k="natural" v="wetland" />
		<tag k="ssr:stedsnr" v="326788" />
	</node>
	<node id="-818730" lat="64.1239055519" lon="11.3692416582">
		<tag k="name" v="Stormyra" />
		<tag k="natural" v="wetland" />
		<tag k="ssr:stedsnr" v="326789" />
	</node>
	<node id="-822825" lat="63.9843055577" lon="11.639255555">
		<tag k="name" v="Flokkamyra" />
		<tag k="natural" v="wetland" />
		<tag k="ssr:stedsnr" v="392371" />
	</node>
	<node id="-822821" lat="64.1256083324" lon="11.5619694341">
		<tag k="name" v="Jotarmen" />
		<tag k="natural" v="wetland" />
		<tag k="ssr:stedsnr" v="933718" />
	</node>
	<node id="-822820" lat="64.1254583346" lon="11.5539499956">
		<tag k="name" v="Stakkenget" />
		<tag k="natural" v="wetland" />
		<tag k="ssr:stedsnr" v="933719" />
	</node>
	<node id="-820144" lat="64.1713777739" lon="11.5542027788">
		<tag k="name" v="Emingsenget" />
		<tag k="natural" v="wetland" />
		<tag k="ssr:stedsnr" v="48060" />
	</node>
	<node id="-819461" lat="64.2381722256" lon="11.6806555605">
		<tag k="name" v="Djupmarka" />
		<tag k="place" v="locality" />
		<tag k="ssr:stedsnr" v="378899" />
	</node>
	<node id="-818715" lat="64.0469805532" lon="11.4668000043">
		<tag k="alt_name" v="Østbymyra" />
		<tag k="name" v="Austbymyra" />
		<tag k="natural" v="wetland" />
		<tag k="ssr:stedsnr" v="196020" />
	</node>
	<node id="-820760" lat="64.1406833312" lon="11.6467555653">
		<tag k="name" v="Grindbergsmyra" />
		<tag k="natural" v="wetland" />
		<tag k="ssr:stedsnr" v="453213" />
	</node>
	<node id="-818436" lat="64.0753722263" lon="11.804677769">
		<tag k="name" v="Furumyra" />
		<tag k="natural" v="wetland" />
		<tag k="ssr:stedsnr" v="230785" />
	</node>
	<node id="-820755" lat="64.0503722197" lon="11.5264277845">
		<tag k="name" v="Jernblæstermyra" />
		<tag k="natural" v="wetland" />
		<tag k="ssr:stedsnr" v="681005" />
	</node>
	<node id="-822488" lat="64.1296416683" lon="11.2620916703">
		<tag k="landuse" v="meadow" />
		<tag k="name" v="Andreasenget" />
		<tag k="ssr:stedsnr" v="265780" />
	</node>
	<node id="-818703" lat="64.147266666" lon="11.4483583283">
		<tag k="landuse" v="meadow" />
		<tag k="name" v="Røseggenget" />
		<tag k="ssr:stedsnr" v="812549" />
	</node>
	<node id="-818702" lat="63.8907361075" lon="11.4966527755">
		<tag k="name" v="Holtmarka" />
		<tag k="place" v="locality" />
		<tag k="ssr:stedsnr" v="690948" />
	</node>
	<node id="-818699" lat="63.8930888918" lon="11.4375888965">
		<tag k="name" v="Kvernåkeren" />
		<tag k="place" v="locality" />
		<tag k="ssr:stedsnr" v="598429" />
	</node>
	<node id="-818698" lat="63.9686472178" lon="12.0808888971">
		<tag k="name" v="Djupmyra" />
		<tag k="natural" v="wetland" />
		<tag k="ssr:stedsnr" v="352684" />
	</node>
	<node id="-821176" lat="64.0634999982" lon="11.6821111007">
		<tag k="name" v="Indbrynsmyra" />
		<tag k="natural" v="wetland" />
		<tag k="ssr:stedsnr" v="453314" />
	</node>
	<node id="-819291" lat="64.0167805556" lon="11.8919555519">
		<tag k="alt_name" v="Giskåsmyra" />
		<tag k="name" v="Giskåsmyran" />
		<tag k="natural" v="wetland" />
		<tag k="ssr:stedsnr" v="939063" />
	</node>
	<node id="-820140" lat="63.9444888924" lon="11.7274527773">
		<tag k="name" v="Myrsloslettet" />
		<tag k="natural" v="wetland" />
		<tag k="ssr:stedsnr" v="898917" />
	</node>
	<node id="-818433" lat="64.1684333293" lon="11.7863250083">
		<tag k="name" v="Austerbjørnamyra" />
		<tag k="natural" v="wetland" />
		<tag k="ssr:stedsnr" v="392889" />
	</node>
	<node id="-822787" lat="63.9755972261" lon="11.6347277751">
		<tag k="name" v="Fåmyra" />
		<tag k="natural" v="wetland" />
		<tag k="ssr:stedsnr" v="392375" />
	</node>
	<node id="-818689" lat="64.1373111072" lon="11.3944305642">
		<tag k="name" v="Dammyra" />
		<tag k="natural" v="wetland" />
		<tag k="ssr:stedsnr" v="143505" />
	</node>
	<node id="-818686" lat="64.1193722246" lon="11.4296722147">
		<tag k="name" v="Stølmyra" />
		<tag k="natural" v="wetland" />
		<tag k="ssr:stedsnr" v="143506" />
	</node>
	<node id="-818684" lat="64.0452555549" lon="11.8814500048">
		<tag k="name" v="Klæbusetermyra" />
		<tag k="natural" v="wetland" />
		<tag k="ssr:stedsnr" v="533919" />
	</node>
	<node id="-820730" lat="64.1232583336" lon="11.3782361121">
		<tag k="name" v="Dekkelmyra" />
		<tag k="natural" v="wetland" />
		<tag k="ssr:stedsnr" v="568483" />
	</node>
	<node id="-820728" lat="63.9228666651" lon="12.0243527687">
		<tag k="alt_name" v="Overreinslettet" />
		<tag k="name" v="Ovreinsslættet" />
		<tag k="place" v="locality" />
		<tag k="ssr:stedsnr" v="897492" />
	</node>
	<node id="-820723" lat="63.9565916637" lon="11.7426833419">
		<tag k="name" v="Trettmyra" />
		<tag k="natural" v="wetland" />
		<tag k="ssr:stedsnr" v="655913" />
	</node>
	<node id="-822184" lat="63.8951611148" lon="11.4327833388">
		<tag k="name" v="Vollan" />
		<tag k="place" v="locality" />
		<tag k="ssr:stedsnr" v="508809" />
	</node>
	<node id="-818665" lat="64.1928777747" lon="11.8336194358">
		<tag k="name" v="Middagsmyra" />
		<tag k="natural" v="wetland" />
		<tag k="ssr:stedsnr" v="149794" />
	</node>
	<node id="-818664" lat="64.1251472264" lon="11.4989944482">
		<tag k="name" v="Svartdalsmyra" />
		<tag k="natural" v="wetland" />
		<tag k="ssr:stedsnr" v="872584" />
	</node>
	<node id="-818663" lat="64.1211388854" lon="11.2465833402">
		<tag k="name" v="Øvre Bjørnamyra" />
		<tag k="natural" v="wetland" />
		<tag k="ssr:stedsnr" v="326779" />
	</node>
	<node id="-822758" lat="64.1726277807" lon="11.6445416668">
		<tag k="name" v="Knedalsenget" />
		<tag k="natural" v="wetland" />
		<tag k="ssr:stedsnr" v="412115" />
	</node>
	<node id="-820709" lat="64.0588833343" lon="11.5637722162">
		<tag k="name" v="Stormyra" />
		<tag k="natural" v="wetland" />
		<tag k="ssr:stedsnr" v="689708" />
	</node>
	<node id="-817062" lat="64.0089222251" lon="11.5604916631">
		<tag k="name" v="Raudmyra" />
		<tag k="natural" v="wetland" />
		<tag k="ssr:stedsnr" v="453883" />
	</node>
	<node id="-822754" lat="64.01394167" lon="12.1280805614">
		<tag k="name" v="Bjønnamyra" />
		<tag k="natural" v="wetland" />
		<tag k="ssr:stedsnr" v="230269" />
	</node>
	<node id="-818656" lat="64.0797138919" lon="11.572725">
		<tag k="name" v="Homyra" />
		<tag k="natural" v="wetland" />
		<tag k="ssr:stedsnr" v="14173" />
	</node>
	<node id="-822751" lat="63.9320222258" lon="11.6736222237">
		<tag k="name" v="Bilstadslættet" />
		<tag k="place" v="locality" />
		<tag k="ssr:stedsnr" v="392357" />
	</node>
	<node id="-821156" lat="64.153538893" lon="11.7347500002">
		<tag k="name" v="Tørrvollmyra" />
		<tag k="natural" v="wetland" />
		<tag k="ssr:stedsnr" v="756166" />
	</node>
	<node id="-820693" lat="64.0717694403" lon="11.2964166635">
		<tag k="name" v="Brekkmyra" />
		<tag k="natural" v="wetland" />
		<tag k="ssr:stedsnr" v="933127" />
	</node>
	<node id="-822080" lat="64.1724166669" lon="11.6062638987">
		<tag k="name" v="Petterslettet" />
		<tag k="natural" v="wetland" />
		<tag k="ssr:stedsnr" v="533185" />
	</node>
	<node id="-820688" lat="64.1277888907" lon="11.573830547">
		<tag k="name" v="Stamvassmyra" />
		<tag k="natural" v="wetland" />
		<tag k="ssr:stedsnr" v="939436" />
	</node>
	<node id="-822733" lat="64.1747555547" lon="11.6330333251">
		<tag k="name" v="Grønnesenget" />
		<tag k="natural" v="wetland" />
		<tag k="ssr:stedsnr" v="412120" />
	</node>
	<node id="-818636" lat="64.0542555514" lon="11.4298333287">
		<tag k="name" v="Raudmyra" />
		<tag k="natural" v="wetland" />
		<tag k="ssr:stedsnr" v="750901" />
	</node>
	<node id="-822860" lat="64.2117231539" lon="11.9414995982">
		<tag k="name" v="Kringlåtmyra" />
		<tag k="natural" v="wetland" />
		<tag k="ssr:stedsnr" v="291834" />
	</node>
	<node id="-818630" lat="64.051952775" lon="11.4126111211">
		<tag k="name" v="Stormyra" />
		<tag k="natural" v="wetland" />
		<tag k="ssr:stedsnr" v="750895" />
	</node>
	<node id="-820673" lat="64.0091361129" lon="12.0647416686">
		<tag k="name" v="Dalenget" />
		<tag k="natural" v="wetland" />
		<tag k="ssr:stedsnr" v="291309" />
	</node>
	<node id="-820669" lat="63.9018527789" lon="11.4399805622">
		<tag k="name" v="Rambergsmyra" />
		<tag k="natural" v="wetland" />
		<tag k="ssr:stedsnr" v="629992" />
	</node>
	<node id="-818618" lat="63.9541027737" lon="11.4552888928">
		<tag k="name" v="Stallsmyra" />
		<tag k="natural" v="wetland" />
		<tag k="ssr:stedsnr" v="750890" />
	</node>
	<node id="-820665" lat="64.1026972217" lon="11.7478999941">
		<tag k="name" v="Gustrønningen" />
		<tag k="place" v="locality" />
		<tag k="ssr:stedsnr" v="453183" />
	</node>
	<node id="-822708" lat="64.0582944447" lon="11.5747027811">
		<tag k="name" v="Anemyra" />
		<tag k="natural" v="wetland" />
		<tag k="ssr:stedsnr" v="210500" />
	</node>
	<node id="-820658" lat="63.9672499975" lon="11.8675222266">
		<tag k="name" v="Slåttamyra" />
		<tag k="natural" v="wetland" />
		<tag k="ssr:stedsnr" v="696020" />
	</node>
	<node id="-818609" lat="64.0843222194" lon="11.762497217">
		<tag k="name" v="Kjerkmyra" />
		<tag k="natural" v="wetland" />
		<tag k="ssr:stedsnr" v="574162" />
	</node>
	<node id="-818606" lat="64.0602111149" lon="11.284138899">
		<tag k="name" v="Trøamyra" />
		<tag k="natural" v="wetland" />
		<tag k="ssr:stedsnr" v="83234" />
	</node>
	<node id="-818603" lat="64.1607611146" lon="11.3210250006">
		<tag k="name" v="Nerenget" />
		<tag k="natural" v="wetland" />
		<tag k="ssr:stedsnr" v="958726" />
	</node>
	<node id="-822696" lat="63.9828694422" lon="12.0924444391">
		<tag k="name" v="Ivermyra" />
		<tag k="natural" v="wetland" />
		<tag k="ssr:stedsnr" v="48671" />
	</node>
	<node id="-818597" lat="63.9421750002" lon="11.5159777875">
		<tag k="name" v="Hofstadmyra" />
		<tag k="natural" v="wetland" />
		<tag k="ssr:stedsnr" v="924928" />
	</node>
	<node id="-822690" lat="64.0037222219" lon="12.1643555466">
		<tag k="name" v="Svennslettet" />
		<tag k="natural" v="wetland" />
		<tag k="ssr:stedsnr" v="716321" />
	</node>
	<node id="-820641" lat="64.1331694429" lon="11.2125805517">
		<tag k="name" v="Raudmyra" />
		<tag k="natural" v="wetland" />
		<tag k="ssr:stedsnr" v="38668" />
	</node>
	<node id="-818587" lat="64.1377305579" lon="11.9718944531">
		<tag k="historic" v="shieling" />
		<tag k="name" v="Hobotnseteren" />
		<tag k="place" v="locality" />
		<tag k="ssr:stedsnr" v="392925" />
	</node>
	<node id="-822681" lat="63.9005138865" lon="11.4361361111">
		<tag k="name" v="Rambergsmyra" />
		<tag k="natural" v="wetland" />
		<tag k="ssr:stedsnr" v="265826" />
	</node>
	<node id="-818583" lat="64.1807305548" lon="11.8330916711">
		<tag k="name" v="Busetmyra" />
		<tag k="natural" v="wetland" />
		<tag k="ssr:stedsnr" v="149780" />
	</node>
	<node id="-822677" lat="63.9016888859" lon="11.4459361022">
		<tag k="name" v="Gjermstadkåret" />
		<tag k="place" v="locality" />
		<tag k="ssr:stedsnr" v="568996" />
	</node>
	<node id="-822676" lat="63.8826499996" lon="11.4861694403">
		<tag k="name" v="Setermarka" />
		<tag k="place" v="locality" />
		<tag k="ssr:stedsnr" v="265824" />
	</node>
	<node id="-820625" lat="64.045283331" lon="11.2642638903">
		<tag k="name" v="Stavermyra" />
		<tag k="natural" v="wetland" />
		<tag k="ssr:stedsnr" v="387245" />
	</node>
	<node id="-822671" lat="64.1606444439" lon="11.753966658">
		<tag k="name" v="Krokmyrin" />
		<tag k="natural" v="wetland" />
		<tag k="ssr:stedsnr" v="635017" />
	</node>
	<node id="-817047" lat="64.1405999968" lon="11.5776444394">
		<tag k="historic" v="shieling" />
		<tag k="name" v="Forfonseteren" />
		<tag k="place" v="locality" />
		<tag k="ssr:stedsnr" v="878473" />
	</node>
	<node id="-820616" lat="64.0544527813" lon="11.4416611067">
		<tag k="name" v="Lomtjønnmyra" />
		<tag k="natural" v="wetland" />
		<tag k="ssr:stedsnr" v="629954" />
	</node>
	<node id="-820613" lat="64.1430611154" lon="11.6276138846">
		<tag k="name" v="Bakkamyra" />
		<tag k="natural" v="wetland" />
		<tag k="ssr:stedsnr" v="939411" />
	</node>
	<node id="-820611" lat="64.1815499962" lon="11.6424111169">
		<tag k="name" v="Nergrindbergsenget" />
		<tag k="natural" v="wetland" />
		<tag k="ssr:stedsnr" v="959174" />
	</node>
	<node id="-822658" lat="63.9804138885" lon="11.6044583382">
		<tag k="name" v="Larsmyra" />
		<tag k="natural" v="wetland" />
		<tag k="ssr:stedsnr" v="28940" />
	</node>
	<node id="-822657" lat="64.1453555543" lon="11.707241674">
		<tag k="name" v="Eikmyra" />
		<tag k="natural" v="wetland" />
		<tag k="ssr:stedsnr" v="149160" />
	</node>
	<node id="-818560" lat="63.9431888887" lon="12.0800277812">
		<tag k="name" v="Stormyra" />
		<tag k="natural" v="wetland" />
		<tag k="ssr:stedsnr" v="898520" />
	</node>
	<node id="-820607" lat="64.0065138929" lon="12.1486083307">
		<tag k="name" v="Torenget" />
		<tag k="natural" v="wetland" />
		<tag k="ssr:stedsnr" v="291296" />
	</node>
	<node id="-821736" lat="63.9429861084" lon="11.6429500049">
		<tag k="name" v="Korsbakkmyra" />
		<tag k="natural" v="wetland" />
		<tag k="ssr:stedsnr" v="756357" />
	</node>
	<node id="-818553" lat="63.9475472239" lon="11.4189361214">
		<tag k="name" v="Laukmyra" />
		<tag k="natural" v="wetland" />
		<tag k="ssr:stedsnr" v="750873" />
	</node>
	<node id="-818552" lat="64.1194249975" lon="11.7534333246">
		<tag k="name" v="Diket" />
		<tag k="natural" v="wetland" />
		<tag k="ssr:stedsnr" v="514119" />
	</node>
	<node id="-818551" lat="64.1634305516" lon="11.5832805584">
		<tag k="name" v="Kaukheimmyra" />
		<tag k="natural" v="wetland" />
		<tag k="ssr:stedsnr" v="351078" />
	</node>
	<node id="-818550" lat="64.1238305549" lon="11.8074277771">
		<tag k="historic" v="shieling" />
		<tag k="name" v="Tiltnesseteren" />
		<tag k="place" v="locality" />
		<tag k="ssr:stedsnr" v="575795" />
	</node>
	<node id="-822645" lat="63.9888083301" lon="11.6028000006">
		<tag k="name" v="Strugstadmyra" />
		<tag k="natural" v="wetland" />
		<tag k="ssr:stedsnr" v="696511" />
	</node>
	<node id="-820596" lat="64.115302779" lon="11.7810694512">
		<tag k="name" v="Ramstadenget" />
		<tag k="place" v="locality" />
		<tag k="ssr:stedsnr" v="454825" />
	</node>
	<node id="-820798" lat="64.1061888848" lon="11.7557499992">
		<tag k="name" v="Stormyra" />
		<tag k="natural" v="wetland" />
		<tag k="ssr:stedsnr" v="756136" />
	</node>
	<node id="-819091" lat="64.1955166688" lon="11.8328777743">
		<tag k="name" v="Brannan" />
		<tag k="place" v="locality" />
		<tag k="ssr:stedsnr" v="635760" />
	</node>
	<node id="-822640" lat="64.1937472266" lon="11.7401861019">
		<tag k="name" v="Sørhauganenget" />
		<tag k="natural" v="wetland" />
		<tag k="ssr:stedsnr" v="230224" />
	</node>
	<node id="-820590" lat="64.1871333333" lon="11.6917722286">
		<tag k="name" v="Taraldenget" />
		<tag k="natural" v="wetland" />
		<tag k="ssr:stedsnr" v="48173" />
	</node>
	<node id="-818540" lat="64.1494388898" lon="11.4007722266">
		<tag k="name" v="Kvarvingsenget" />
		<tag k="natural" v="wetland" />
		<tag k="ssr:stedsnr" v="169506" />
	</node>
	<node id="-819431" lat="63.9025416623" lon="11.4248888903">
		<tag k="name" v="Smolmarka" />
		<tag k="place" v="locality" />
		<tag k="ssr:stedsnr" v="326985" />
	</node>
	<node id="-818534" lat="64.2085111084" lon="11.9257944389">
		<tag k="name" v="Småstakkengan" />
		<tag k="place" v="locality" />
		<tag k="ssr:stedsnr" v="230800" />
	</node>
	<node id="-818532" lat="64.1445361113" lon="11.4076777675">
		<tag k="name" v="Mjendremsenget" />
		<tag k="natural" v="wetland" />
		<tag k="ssr:stedsnr" v="169504" />
	</node>
	<node id="-822623" lat="64.1560250039" lon="11.7087388886">
		<tag k="name" v="Oksmyra" />
		<tag k="natural" v="wetland" />
		<tag k="ssr:stedsnr" v="149157" />
	</node>
	<node id="-820573" lat="64.217523874" lon="11.8345754083">
		<tag k="name" v="Øksnesengan" />
		<tag k="natural" v="wetland" />
		<tag k="ssr:stedsnr" v="109809" />
	</node>
	<node id="-819770" lat="64.0672000011" lon="11.4045083263">
		<tag k="name" v="Slættet" />
		<tag k="natural" v="wetland" />
		<tag k="ssr:stedsnr" v="872916" />
	</node>
	<node id="-822618" lat="64.1140361121" lon="11.2593138919">
		<tag k="name" v="Kvernhusmyra" />
		<tag k="natural" v="wetland" />
		<tag k="ssr:stedsnr" v="690226" />
	</node>
	<node id="-818520" lat="64.145577774" lon="11.3841805482">
		<tag k="name" v="Solbergenget" />
		<tag k="natural" v="wetland" />
		<tag k="ssr:stedsnr" v="169508" />
	</node>
	<node id="-822614" lat="64.1214444408" lon="11.804041656">
		<tag k="name" v="Myrbuenget" />
		<tag k="natural" v="wetland" />
		<tag k="ssr:stedsnr" v="150779" />
	</node>
	<node id="-822613" lat="64.1882416708" lon="11.6326722185">
		<tag k="name" v="Storfokkfonna" />
		<tag k="place" v="locality" />
		<tag k="ssr:stedsnr" v="412065" />
	</node>
	<node id="-821134" lat="64.1496555539" lon="11.7136555486">
		<tag k="name" v="Storfinnmyra" />
		<tag k="natural" v="wetland" />
		<tag k="ssr:stedsnr" v="756160" />
	</node>
	<node id="-818509" lat="64.1693194426" lon="11.5439194515">
		<tag k="name" v="Lundsenget" />
		<tag k="natural" v="wetland" />
		<tag k="ssr:stedsnr" v="351070" />
	</node>
	<node id="-820556" lat="64.2042805526" lon="11.6761694513">
		<tag k="name" v="Vakkermyrin" />
		<tag k="natural" v="wetland" />
		<tag k="ssr:stedsnr" v="48167" />
	</node>
	<node id="-820552" lat="64.2108277736" lon="11.7643305539">
		<tag k="name" v="Grimhølet" />
		<tag k="natural" v="wetland" />
		<tag k="ssr:stedsnr" v="959187" />
	</node>
	<node id="-822599" lat="64.0655694473" lon="11.3682472315">
		<tag k="name" v="Stormyra" />
		<tag k="natural" v="wetland" />
		<tag k="ssr:stedsnr" v="750207" />
	</node>
	<node id="-820550" lat="63.9790833361" lon="11.7221388854">
		<tag k="name" v="Treskogbergmyra" />
		<tag k="natural" v="wetland" />
		<tag k="ssr:stedsnr" v="472917" />
	</node>
	<node id="-820449" lat="64.1219583353" lon="11.2667833347">
		<tag k="name" v="Åenget" />
		<tag k="natural" v="wetland" />
		<tag k="ssr:stedsnr" v="83777" />
	</node>
	<node id="-822593" lat="64.0589805545" lon="11.2820861204">
		<tag k="name" v="Kringelmyra" />
		<tag k="natural" v="wetland" />
		<tag k="ssr:stedsnr" v="750202" />
	</node>
	<node id="-822837" lat="64.0606444436" lon="11.5020777832">
		<tag k="name" v="Nesja" />
		<tag k="natural" v="wetland" />
		<tag k="ssr:stedsnr" v="811912" />
	</node>
	<node id="-820540" lat="64.0653722186" lon="11.3330611159">
		<tag k="name" v="Stormyra" />
		<tag k="natural" v="wetland" />
		<tag k="ssr:stedsnr" v="265253" />
	</node>
	<node id="-822587" lat="63.9698722182" lon="11.9217666737">
		<tag k="name" v="Vintervegmyra" />
		<tag k="natural" v="wetland" />
		<tag k="ssr:stedsnr" v="939938" />
	</node>
	<node id="-820788" lat="64.0412444461" lon="11.5052750016">
		<tag k="name" v="Hakkmyra" />
		<tag k="natural" v="wetland" />
		<tag k="ssr:stedsnr" v="939515" />
	</node>
	<node id="-822582" lat="64.0625250014" lon="11.3791916584">
		<tag k="name" v="Nedre Buamyra" />
		<tag k="natural" v="wetland" />
		<tag k="ssr:stedsnr" v="508930" />
	</node>
	<node id="-820533" lat="63.9697388888" lon="11.775441665">
		<tag k="historic" v="shieling" />
		<tag k="name" v="Abrahamvollen" />
		<tag k="place" v="locality" />
		<tag k="ssr:stedsnr" v="196330" />
	</node>
	<node id="-820532" lat="64.1625555583" lon="11.3272722256">
		<tag k="name" v="Åsenget" />
		<tag k="natural" v="wetland" />
		<tag k="ssr:stedsnr" v="229710" />
	</node>
	<node id="-822579" lat="64.05361111" lon="11.28446389">
		<tag k="name" v="Tennesmyra" />
		<tag k="natural" v="wetland" />
		<tag k="ssr:stedsnr" v="750204" />
	</node>
	<node id="-818482" lat="64.0794194462" lon="11.30176112">
		<tag k="name" v="Skardmarka" />
		<tag k="place" v="locality" />
		<tag k="ssr:stedsnr" v="750828" />
	</node>
	<node id="-822577" lat="64.1771805544" lon="11.6236722246">
		<tag k="name" v="Gustenget" />
		<tag k="natural" v="wetland" />
		<tag k="ssr:stedsnr" v="412071" />
	</node>
	<node id="-822576" lat="64.3028500013" lon="11.9283138837">
		<tag k="historic" v="shieling" />
		<tag k="name" v="Heggesseteren" />
		<tag k="place" v="locality" />
		<tag k="ssr:stedsnr" v="438600" />
	</node>
	<node id="-818479" lat="64.1795083323" lon="11.6201055474">
		<tag k="name" v="Langhammerenget" />
		<tag k="natural" v="wetland" />
		<tag k="ssr:stedsnr" v="351076" />
	</node>
	<node id="-822570" lat="64.1180194459" lon="11.2832194452">
		<tag k="name" v="Stormyra" />
		<tag k="natural" v="wetland" />
		<tag k="ssr:stedsnr" v="265800" />
	</node>
	<node id="-820103" lat="63.9359888895" lon="12.0796805517">
		<tag k="name" v="Stormyra" />
		<tag k="natural" v="wetland" />
		<tag k="ssr:stedsnr" v="14415" />
	</node>
	<node id="-822568" lat="63.9416888892" lon="11.4100555507">
		<tag k="name" v="Mæresmyra" />
		<tag k="natural" v="wetland" />
		<tag k="ssr:stedsnr" v="568964" />
	</node>
	<node id="-822566" lat="64.121875004" lon="11.2778472288">
		<tag k="name" v="Tjønnmyra" />
		<tag k="natural" v="wetland" />
		<tag k="ssr:stedsnr" v="265799" />
	</node>
	<node id="-822562" lat="64.1641388883" lon="11.3493666719">
		<tag k="name" v="Øverenget" />
		<tag k="natural" v="wetland" />
		<tag k="ssr:stedsnr" v="108702" />
	</node>
	<node id="-818465" lat="63.894388888" lon="11.4290111038">
		<tag k="name" v="Langdansen" />
		<tag k="place" v="locality" />
		<tag k="ssr:stedsnr" v="204781" />
	</node>
	<node id="-820511" lat="63.9738888875" lon="11.6959166678">
		<tag k="name" v="Kvitbørsmyra" />
		<tag k="natural" v="wetland" />
		<tag k="ssr:stedsnr" v="939383" />
	</node>
	<node id="-820510" lat="64.1196277819" lon="11.3574111171">
		<tag k="name" v="Raudmyra" />
		<tag k="natural" v="wetland" />
		<tag k="ssr:stedsnr" v="83794" />
	</node>
	<node id="-818460" lat="63.9726833323" lon="11.6051472258">
		<tag k="name" v="Svartbergmyra" />
		<tag k="natural" v="wetland" />
		<tag k="ssr:stedsnr" v="392891" />
	</node>
	<node id="-820504" lat="63.9107444472" lon="11.4458472222">
		<tag k="name" v="Halltjønna" />
		<tag k="place" v="locality" />
		<tag k="ssr:stedsnr" v="143994" />
	</node>
	<node id="-820503" lat="64.1215777793" lon="11.714372216">
		<tag k="name" v="Føttan" />
		<tag k="place" v="locality" />
		<tag k="ssr:stedsnr" v="453141" />
	</node>
	<node id="-822550" lat="64.0366861093" lon="11.4945916758">
		<tag k="name" v="Høgsveet" />
		<tag k="place" v="locality" />
		<tag k="ssr:stedsnr" v="28920" />
	</node>
	<node id="-822549" lat="63.9855194473" lon="11.5853805605">
		<tag k="name" v="Stormyra" />
		<tag k="natural" v="wetland" />
		<tag k="ssr:stedsnr" v="939909" />
	</node>
	<node id="-822547" lat="64.1534388855" lon="11.7264611157">
		<tag k="name" v="Korsmyra" />
		<tag k="natural" v="wetland" />
		<tag k="ssr:stedsnr" v="878200" />
	</node>
	<node id="-822546" lat="64.1968861087" lon="11.9056027709">
		<tag k="name" v="Saursstormyra" />
		<tag k="natural" v="wetland" />
		<tag k="ssr:stedsnr" v="939910" />
	</node>
	<node id="-818448" lat="63.979394442" lon="11.5857805554">
		<tag k="name" v="Rørmyra" />
		<tag k="natural" v="wetland" />
		<tag k="ssr:stedsnr" v="332889" />
	</node>
	<node id="-822543" lat="64.1547527757" lon="11.6961277697">
		<tag k="name" v="Langmyra" />
		<tag k="natural" v="wetland" />
		<tag k="ssr:stedsnr" v="878203" />
	</node>
	<node id="-818444" lat="64.1297999982" lon="11.8306222285">
		<tag k="name" v="Langmyra" />
		<tag k="natural" v="wetland" />
		<tag k="ssr:stedsnr" v="211030" />
	</node>
	<node id="-820490" lat="64.1282888847" lon="11.2573750064">
		<tag k="name" v="Hesjmyra" />
		<tag k="natural" v="wetland" />
		<tag k="ssr:stedsnr" v="83780" />
	</node>
	<node id="-822532" lat="63.9620833313" lon="11.4531444396">
		<tag k="name" v="Oksmyra" />
		<tag k="natural" v="wetland" />
		<tag k="ssr:stedsnr" v="508913" />
	</node>
	<node id="-822529" lat="64.1919722183" lon="11.725858327">
		<tag k="name" v="Hoaenget" />
		<tag k="natural" v="wetland" />
		<tag k="ssr:stedsnr" v="776231" />
	</node>
	<node id="-820480" lat="64.1510111148" lon="11.4854638852">
		<tag k="landuse" v="meadow" />
		<tag k="name" v="Moaenget" />
		<tag k="ssr:stedsnr" v="448555" />
	</node>
	<node id="-820368" lat="63.9855944403" lon="12.0626111184">
		<tag k="name" v="Erikslettet" />
		<tag k="natural" v="wetland" />
		<tag k="ssr:stedsnr" v="777281" />
	</node>
	<node id="-822523" lat="64.0826111099" lon="11.3758250041">
		<tag k="name" v="Kvernhusmyra" />
		<tag k="natural" v="wetland" />
		<tag k="ssr:stedsnr" v="22612" />
	</node>
	<node id="-822143" lat="64.1996277783" lon="11.8263416637">
		<tag k="name" v="Bermyrin" />
		<tag k="natural" v="wetland" />
		<tag k="ssr:stedsnr" v="28833" />
	</node>
	<node id="-819754" lat="64.0694888878" lon="11.7600333381">
		<tag k="name" v="Solnesmyra" />
		<tag k="natural" v="wetland" />
		<tag k="ssr:stedsnr" v="271284" />
	</node>
	<node id="-820471" lat="63.984619441" lon="11.524608323">
		<tag k="name" v="Breimyra" />
		<tag k="natural" v="wetland" />
		<tag k="ssr:stedsnr" v="689650" />
	</node>
	<node id="-818422" lat="64.1698666645" lon="11.7606722195">
		<tag k="name" v="Kringlåtmyra" />
		<tag k="natural" v="wetland" />
		<tag k="ssr:stedsnr" v="574105" />
	</node>
	<node id="-818418" lat="63.9923444446" lon="11.5395083239">
		<tag k="name" v="Borgmyra" />
		<tag k="natural" v="wetland" />
		<tag k="ssr:stedsnr" v="89513" />
	</node>
	<node id="-822513" lat="64.1869333312" lon="11.7688194405">
		<tag k="name" v="Litlbrumarka" />
		<tag k="place" v="locality" />
		<tag k="ssr:stedsnr" v="291754" />
	</node>
	<node id="-818416" lat="64.124858335" lon="11.3796166754">
		<tag k="name" v="Dammamyra" />
		<tag k="natural" v="wetland" />
		<tag k="ssr:stedsnr" v="872545" />
	</node>
	<node id="-822511" lat="64.1573472221" lon="11.9598722223">
		<tag k="name" v="Kjerrmyra" />
		<tag k="natural" v="wetland" />
		<tag k="ssr:stedsnr" v="28914" />
	</node>
	<node id="-819276" lat="63.8909138887" lon="11.6519888944">
		<tag k="name" v="Kalsetslættet" />
		<tag k="place" v="locality" />
		<tag k="ssr:stedsnr" v="454457" />
	</node>
	<node id="-820452" lat="64.012933331" lon="12.1216583431">
		<tag k="name" v="Langmyra" />
		<tag k="natural" v="wetland" />
		<tag k="ssr:stedsnr" v="594285" />
	</node>
	<node id="-818401" lat="64.1827611084" lon="11.8204083345">
		<tag k="name" v="Malgjøta" />
		<tag k="natural" v="wetland" />
		<tag k="ssr:stedsnr" v="878782" />
	</node>
	<node id="-819344" lat="63.927013892" lon="11.9862166587">
		<tag k="name" v="Bruemsslættet" />
		<tag k="natural" v="wetland" />
		<tag k="ssr:stedsnr" v="838581" />
	</node>
	<node id="-818398" lat="63.9521472181" lon="11.8589055558">
		<tag k="name" v="Holmmyra" />
		<tag k="natural" v="wetland" />
		<tag k="ssr:stedsnr" v="620370" />
	</node>
	<node id="-818394" lat="64.1568805568" lon="11.9858194458">
		<tag k="name" v="Bakmyran" />
		<tag k="natural" v="wetland" />
		<tag k="ssr:stedsnr" v="74442" />
	</node>
	<node id="-818392" lat="63.9654583313" lon="11.4913249967">
		<tag k="name" v="Bruemsmyra" />
		<tag k="natural" v="wetland" />
		<tag k="ssr:stedsnr" v="924871" />
	</node>
	<node id="-822485" lat="64.2083000012" lon="11.998305547">
		<tag k="name" v="Flåttamyra" />
		<tag k="natural" v="wetland" />
		<tag k="ssr:stedsnr" v="271978" />
	</node>
	<node id="-820433" lat="64.0428222232" lon="11.8669972237">
		<tag k="name" v="Heggnesmyra" />
		<tag k="natural" v="wetland" />
		<tag k="ssr:stedsnr" v="472894" />
	</node>
	<node id="-821624" lat="64.0672972193" lon="11.5196944342">
		<tag k="name" v="Køytmyra" />
		<tag k="natural" v="wetland" />
		<tag k="ssr:stedsnr" v="568734" />
	</node>
	<node id="-822136" lat="64.0473611132" lon="11.3068277827">
		<tag k="name" v="Dammyra" />
		<tag k="natural" v="wetland" />
		<tag k="ssr:stedsnr" v="84240" />
	</node>
	<node id="-822478" lat="63.9478972218" lon="12.1050527715">
		<tag k="name" v="Øverslettet" />
		<tag k="natural" v="wetland" />
		<tag k="ssr:stedsnr" v="413569" />
	</node>
	<node id="-818381" lat="64.1027166678" lon="11.8612333354">
		<tag k="name" v="Reipan" />
		<tag k="natural" v="wetland" />
		<tag k="ssr:stedsnr" v="230770" />
	</node>
	<node id="-820428" lat="64.0379499967" lon="11.8616416695">
		<tag k="name" v="Sør Heggnesmyra" />
		<tag k="natural" v="wetland" />
		<tag k="ssr:stedsnr" v="472893" />
	</node>
	<node id="-818378" lat="64.0219277742" lon="11.8163250086">
		<tag k="name" v="Smedenget" />
		<tag k="natural" v="wetland" />
		<tag k="ssr:stedsnr" v="817010" />
	</node>
	<node id="-822470" lat="64.1921722247" lon="11.8851444445">
		<tag k="name" v="Lomtjønnmyra" />
		<tag k="natural" v="wetland" />
		<tag k="ssr:stedsnr" v="28906" />
	</node>
	<node id="-820421" lat="64.059291666" lon="11.4318583233">
		<tag k="name" v="Langmyra" />
		<tag k="natural" v="wetland" />
		<tag k="ssr:stedsnr" v="629928" />
	</node>
	<node id="-822134" lat="64.0187027802" lon="11.8213499946">
		<tag k="alt_name" v="Saksengmyra" />
		<tag k="name" v="Møytlamyra" />
		<tag k="natural" v="wetland" />
		<tag k="ssr:stedsnr" v="499598" />
	</node>
	<node id="-822466" lat="63.9822472233" lon="11.5698083351">
		<tag k="name" v="Kleivmyra" />
		<tag k="natural" v="wetland" />
		<tag k="ssr:stedsnr" v="939915" />
	</node>
	<node id="-818369" lat="64.1629249975" lon="11.7872416565">
		<tag k="name" v="Bumyra" />
		<tag k="natural" v="wetland" />
		<tag k="ssr:stedsnr" v="392878" />
	</node>
	<node id="-818366" lat="63.9950694429" lon="12.1203972161">
		<tag k="name" v="Tømmermyra" />
		<tag k="natural" v="wetland" />
		<tag k="ssr:stedsnr" v="838334" />
	</node>
	<node id="-823157" lat="64.0487861133" lon="11.3034722124">
		<tag k="name" v="Liamyra" />
		<tag k="natural" v="wetland" />
		<tag k="ssr:stedsnr" v="326222" />
	</node>
	<node id="-822456" lat="64.1522388917" lon="11.7991222168">
		<tag k="name" v="Vallemsberga" />
		<tag k="place" v="locality" />
		<tag k="ssr:stedsnr" v="818037" />
	</node>
	<node id="-822454" lat="64.1406861078" lon="11.443419438">
		<tag k="landuse" v="meadow" />
		<tag k="name" v="Haugaengan" />
		<tag k="ssr:stedsnr" v="933644" />
	</node>
	<node id="-818357" lat="64.1114611084" lon="11.8629055497">
		<tag k="name" v="Tonmyra" />
		<tag k="natural" v="wetland" />
		<tag k="ssr:stedsnr" v="230763" />
	</node>
	<node id="-818356" lat="64.0818444446" lon="11.3835944514">
		<tag k="name" v="Åsmyra" />
		<tag k="natural" v="wetland" />
		<tag k="ssr:stedsnr" v="386620" />
	</node>
	<node id="-822443" lat="64.1308972185" lon="11.2207750032">
		<tag k="loc_name" v="Sørholmen" />
		<tag k="name" v="Pålenget" />
		<tag k="natural" v="wetland" />
		<tag k="ssr:stedsnr" v="766671" />
	</node>
	<node id="-818346" lat="63.8915388893" lon="11.5158666715">
		<tag k="name" v="Finnmyra" />
		<tag k="natural" v="wetland" />
		<tag k="ssr:stedsnr" v="932514" />
	</node>
	<node id="-820390" lat="64.0415305525" lon="11.3178444469">
		<tag k="name" v="Nepsvemyra" />
		<tag k="natural" v="wetland" />
		<tag k="ssr:stedsnr" v="811205" />
	</node>
	<node id="-823153" lat="64.1960527786" lon="11.7116805569">
		<tag k="name" v="Øvergrindbergsenget" />
		<tag k="natural" v="wetland" />
		<tag k="ssr:stedsnr" v="352197" />
	</node>
	<node id="-818338" lat="63.8821222229" lon="11.5682555646">
		<tag k="name" v="Stormyra" />
		<tag k="natural" v="wetland" />
		<tag k="ssr:stedsnr" v="332867" />
	</node>
	<node id="-822811" lat="64.0641444455" lon="11.8041194535">
		<tag k="name" v="Arnfinnenget" />
		<tag k="natural" v="wetland" />
		<tag k="ssr:stedsnr" v="897994" />
	</node>
	<node id="-820384" lat="64.1224666696" lon="11.5803138802">
		<tag k="name" v="Forfontrøa" />
		<tag k="place" v="locality" />
		<tag k="ssr:stedsnr" v="271480" />
	</node>
	<node id="-822430" lat="64.1071361088" lon="11.6858972169">
		<tag k="name" v="Limåsmyra" />
		<tag k="natural" v="wetland" />
		<tag k="ssr:stedsnr" v="392266" />
	</node>
	<node id="-818332" lat="63.9821583345" lon="12.0528388966">
		<tag k="name" v="Langkloppmyra" />
		<tag k="natural" v="wetland" />
		<tag k="ssr:stedsnr" v="74433" />
	</node>
	<node id="-820379" lat="64.1615166673" lon="11.6411916719">
		<tag k="name" v="Stormyra" />
		<tag k="natural" v="wetland" />
		<tag k="ssr:stedsnr" v="48121" />
	</node>
	<node id="-822416" lat="63.9286750008" lon="12.0007249907">
		<tag k="name" v="Høgmyra" />
		<tag k="natural" v="wetland" />
		<tag k="ssr:stedsnr" v="924465" />
	</node>
	<node id="-818319" lat="64.1306388899" lon="11.4841916636">
		<tag k="name" v="Durmålmyra" />
		<tag k="natural" v="wetland" />
		<tag k="ssr:stedsnr" v="932525" />
	</node>
	<node id="-818317" lat="64.2071111136" lon="11.9182388815">
		<tag k="name" v="Åssetermyra" />
		<tag k="natural" v="wetland" />
		<tag k="ssr:stedsnr" v="776809" />
	</node>
	<node id="-822412" lat="64.1887944412" lon="11.7275527746">
		<tag k="name" v="Austerflekstadenget" />
		<tag k="natural" v="wetland" />
		<tag k="ssr:stedsnr" v="716237" />
	</node>
	<node id="-820360" lat="64.1957527779" lon="11.7616249966">
		<tag k="name" v="Gravamyra" />
		<tag k="natural" v="wetland" />
		<tag k="ssr:stedsnr" v="291236" />
	</node>
	<node id="-822124" lat="63.9720222189" lon="12.0867138902">
		<tag k="name" v="Johannesfloan" />
		<tag k="natural" v="wetland" />
		<tag k="ssr:stedsnr" v="594675" />
	</node>
	<node id="-822406" lat="64.1966166707" lon="11.7063083243">
		<tag k="name" v="Austerflekstadenget" />
		<tag k="natural" v="wetland" />
		<tag k="ssr:stedsnr" v="716239" />
	</node>
	<node id="-822465" lat="64.0907638847" lon="11.7239194515">
		<tag k="name" v="Åsmyra" />
		<tag k="natural" v="wetland" />
		<tag k="ssr:stedsnr" v="149122" />
	</node>
	<node id="-822404" lat="64.0648361092" lon="11.5420472255">
		<tag k="name" v="Maritmyra" />
		<tag k="natural" v="wetland" />
		<tag k="ssr:stedsnr" v="265772" />
	</node>
	<node id="-818304" lat="64.1545638933" lon="11.2960666618">
		<tag k="name" v="Kaukarmyra" />
		<tag k="natural" v="wetland" />
		<tag k="ssr:stedsnr" v="204733" />
	</node>
	<node id="-820349" lat="64.0560361112" lon="11.3682194513">
		<tag k="name" v="Bjørkmyra" />
		<tag k="natural" v="wetland" />
		<tag k="ssr:stedsnr" v="811228" />
	</node>
	<node id="-818300" lat="64.0151277762" lon="12.1489333269">
		<tag k="name" v="Storåsenget" />
		<tag k="natural" v="wetland" />
		<tag k="ssr:stedsnr" v="109256" />
	</node>
	<node id="-818299" lat="64.2056888928" lon="11.9478694492">
		<tag k="name" v="Sjursmyra" />
		<tag k="natural" v="wetland" />
		<tag k="ssr:stedsnr" v="776805" />
	</node>
	<node id="-820344" lat="64.175797222" lon="11.6897722194">
		<tag k="name" v="Murstakkenget" />
		<tag k="natural" v="wetland" />
		<tag k="ssr:stedsnr" v="959140" />
	</node>
	<node id="-820339" lat="64.1664499959" lon="11.6953888864">
		<tag k="name" v="Gorrmyra" />
		<tag k="natural" v="wetland" />
		<tag k="ssr:stedsnr" v="959141" />
	</node>
	<node id="-818290" lat="64.1506722195" lon="11.3051083363">
		<tag k="name" v="Spisskjeggmyra" />
		<tag k="natural" v="wetland" />
		<tag k="ssr:stedsnr" v="204735" />
	</node>
	<node id="-818289" lat="64.20256667" lon="11.9502222137">
		<tag k="name" v="Tjønnmyra" />
		<tag k="natural" v="wetland" />
		<tag k="ssr:stedsnr" v="776808" />
	</node>
	<node id="-818285" lat="64.1202250035" lon="11.2623527697">
		<tag k="name" v="Maurbærmyra" />
		<tag k="natural" v="wetland" />
		<tag k="ssr:stedsnr" v="690801" />
	</node>
	<node id="-820329" lat="64.1711916683" lon="11.6518138884">
		<tag k="name" v="Stakkenget" />
		<tag k="natural" v="wetland" />
		<tag k="ssr:stedsnr" v="48114" />
	</node>
	<node id="-822376" lat="64.1061277749" lon="11.4187166715">
		<tag k="name" v="Finnkollmyra" />
		<tag k="natural" v="wetland" />
		<tag k="ssr:stedsnr" v="22578" />
	</node>
	<node id="-822374" lat="64.0513888925" lon="11.5083527819">
		<tag k="name" v="Langmyra" />
		<tag k="natural" v="wetland" />
		<tag k="ssr:stedsnr" v="628720" />
	</node>
	<node id="-818277" lat="64.1177194448" lon="11.2610388925">
		<tag k="name" v="Såggåstadmyra" />
		<tag k="natural" v="wetland" />
		<tag k="ssr:stedsnr" v="690800" />
	</node>
	<node id="-821094" lat="64.0982166631" lon="11.4623888941">
		<tag k="name" v="Røseggmyra" />
		<tag k="natural" v="wetland" />
		<tag k="ssr:stedsnr" v="378142" />
	</node>
	<node id="-818269" lat="64.1046555578" lon="11.7891166681">
		<tag k="name" v="Iverdalmyra" />
		<tag k="natural" v="wetland" />
		<tag k="ssr:stedsnr" v="230736" />
	</node>
	<node id="-820316" lat="64.1422472199" lon="11.6173444438">
		<tag k="historic" v="shieling" />
		<tag k="name" v="Fivesseteren" />
		<tag k="place" v="locality" />
		<tag k="ssr:stedsnr" v="271462" />
	</node>
	<node id="-822363" lat="64.1060999971" lon="11.7116055561">
		<tag k="name" v="Åsmyra" />
		<tag k="natural" v="wetland" />
		<tag k="ssr:stedsnr" v="878178" />
	</node>
	<node id="-818266" lat="64.0552472248" lon="11.5180527681">
		<tag k="name" v="Valdskiftmyra" />
		<tag k="natural" v="wetland" />
		<tag k="ssr:stedsnr" v="204718" />
	</node>
	<node id="-819727" lat="64.0960750011" lon="11.9109444465">
		<tag k="name" v="Bjørdalenget" />
		<tag k="natural" v="wetland" />
		<tag k="ssr:stedsnr" v="412937" />
	</node>
	<node id="-818263" lat="64.0528694416" lon="11.9859111097">
		<tag k="name" v="Eggsteinen" />
		<tag k="natural" v="stone" />
		<tag k="ssr:stedsnr" v="898447" />
	</node>
	<node id="-818260" lat="63.8869444433" lon="11.4898999952">
		<tag k="name" v="Storslættet" />
		<tag k="natural" v="wetland" />
		<tag k="ssr:stedsnr" v="750778" />
	</node>
	<node id="-818259" lat="64.0572638909" lon="11.5211416654">
		<tag k="name" v="Litlstakkenget" />
		<tag k="natural" v="wetland" />
		<tag k="ssr:stedsnr" v="204720" />
	</node>
	<node id="-818257" lat="64.1199972229" lon="11.2779944404">
		<tag k="name" v="Kjetlingmyra" />
		<tag k="natural" v="wetland" />
		<tag k="ssr:stedsnr" v="690794" />
	</node>
	<node id="-819384" lat="64.1304305541" lon="11.2504111083">
		<tag k="name" v="Søråsmyra" />
		<tag k="natural" v="wetland" />
		<tag k="ssr:stedsnr" v="872794" />
	</node>
	<node id="-822350" lat="63.9841861106" lon="11.7000361118">
		<tag k="name" v="Sagmyra" />
		<tag k="natural" v="wetland" />
		<tag k="ssr:stedsnr" v="897901" />
	</node>
	<node id="-820299" lat="64.1146249968" lon="11.2521333247">
		<tag k="name" v="Oppskoltermyra" />
		<tag k="natural" v="wetland" />
		<tag k="ssr:stedsnr" v="811188" />
	</node>
	<node id="-818250" lat="64.1857694447" lon="11.852569454">
		<tag k="name" v="Aunmyrin" />
		<tag k="natural" v="wetland" />
		<tag k="ssr:stedsnr" v="332858" />
	</node>
	<node id="-822342" lat="64.109480553" lon="11.4987361163">
		<tag k="name" v="Tjokkmyra" />
		<tag k="natural" v="wetland" />
		<tag k="ssr:stedsnr" v="22572" />
	</node>
	<node id="-822340" lat="64.1885166676" lon="11.7009583345">
		<tag k="landuse" v="meadow" />
		<tag k="name" v="Knesenget" />
		<tag k="ssr:stedsnr" v="776191" />
	</node>
	<node id="-822453" lat="64.2106083338" lon="11.9163499904">
		<tag k="name" v="Langmyrin" />
		<tag k="natural" v="wetland" />
		<tag k="ssr:stedsnr" v="534829" />
	</node>
	<node id="-822794" lat="64.1592750007" lon="11.6495444457">
		<tag k="name" v="Brugjøta" />
		<tag k="natural" v="wetland" />
		<tag k="ssr:stedsnr" v="412136" />
	</node>
	<node id="-822452" lat="64.1067333349" lon="11.8290638845">
		<tag k="name" v="Hyllmyra" />
		<tag k="natural" v="wetland" />
		<tag k="ssr:stedsnr" v="594747" />
	</node>
	<node id="-818226" lat="64.0705500039" lon="11.5008944545">
		<tag k="name" v="Oksåsmarka" />
		<tag k="place" v="locality" />
		<tag k="ssr:stedsnr" v="447910" />
	</node>
	<node id="-818225" lat="64.082130554" lon="11.4493666751">
		<tag k="name" v="Vassmyra" />
		<tag k="natural" v="wetland" />
		<tag k="ssr:stedsnr" v="326644" />
	</node>
	<node id="-818221" lat="64.028955557" lon="11.5107666755">
		<tag k="name" v="Bommamyra" />
		<tag k="natural" v="wetland" />
		<tag k="ssr:stedsnr" v="332835" />
	</node>
	<node id="-822312" lat="64.0782833351" lon="11.5842305596">
		<tag k="name" v="Stamnmyran" />
		<tag k="natural" v="wetland" />
		<tag k="ssr:stedsnr" v="210413" />
	</node>
	<node id="-822310" lat="64.1992666684" lon="11.6869083236">
		<tag k="name" v="Helvetet" />
		<tag k="natural" v="wetland" />
		<tag k="ssr:stedsnr" v="776187" />
	</node>
	<node id="-822307" lat="64.1905527804" lon="11.6835583368">
		<tag k="name" v="Guinenget" />
		<tag k="natural" v="wetland" />
		<tag k="ssr:stedsnr" v="716213" />
	</node>
	<node id="-820258" lat="64.0067083321" lon="11.6354777695">
		<tag k="name" v="Aunmyra" />
		<tag k="natural" v="wetland" />
		<tag k="ssr:stedsnr" v="271429" />
	</node>
	<node id="-818208" lat="63.9844111105" lon="12.0864777761">
		<tag k="name" v="Merkesmyra" />
		<tag k="natural" v="wetland" />
		<tag k="ssr:stedsnr" v="838324" />
	</node>
	<node id="-822303" lat="64.1439916705" lon="11.2659194359">
		<tag k="name" v="Holtamyra" />
		<tag k="natural" v="wetland" />
		<tag k="ssr:stedsnr" v="811732" />
	</node>
	<node id="-822301" lat="64.0125749997" lon="12.2528055589">
		<tag k="name" v="Geitakløvmyra" />
		<tag k="natural" v="wetland" />
		<tag k="ssr:stedsnr" v="473349" />
	</node>
	<node id="-822299" lat="64.1903694443" lon="11.648155546">
		<tag k="name" v="Hallanenget" />
		<tag k="natural" v="wetland" />
		<tag k="ssr:stedsnr" v="716215" />
	</node>
	<node id="-822298" lat="64.0719055556" lon="11.3769111075">
		<tag k="name" v="Holbekkmyra" />
		<tag k="natural" v="wetland" />
		<tag k="ssr:stedsnr" v="568916" />
	</node>
	<node id="-819201" lat="64.0089055553" lon="11.5543916758">
		<tag k="name" v="Tranamarka" />
		<tag k="place" v="locality" />
		<tag k="ssr:stedsnr" v="149908" />
	</node>
	<node id="-820248" lat="64.0102184062" lon="12.0883636627">
		<tag k="name" v="Vintermyra" />
		<tag k="natural" v="wetland" />
		<tag k="ssr:stedsnr" v="777273" />
	</node>
	<node id="-821764" lat="64.055794449" lon="11.4466472173">
		<tag k="name" v="Raudmyra" />
		<tag k="natural" v="wetland" />
		<tag k="ssr:stedsnr" v="508946" />
	</node>
	<node id="-820246" lat="64.0202805576" lon="11.709261114">
		<tag k="name" v="Bomskottmyra" />
		<tag k="natural" v="wetland" />
		<tag k="ssr:stedsnr" v="271440" />
	</node>
	<node id="-820245" lat="64.0653499982" lon="11.4949583377">
		<tag k="name" v="Nordmarka" />
		<tag k="place" v="locality" />
		<tag k="ssr:stedsnr" v="143916" />
	</node>
	<node id="-822292" lat="64.0549944426" lon="11.3942833315">
		<tag k="name" v="Dymyra" />
		<tag k="natural" v="wetland" />
		<tag k="ssr:stedsnr" v="568918" />
	</node>
	<node id="-822290" lat="64.0980861148" lon="11.8073666767">
		<tag k="name" v="Dekelmyra" />
		<tag k="natural" v="wetland" />
		<tag k="ssr:stedsnr" v="594734" />
	</node>
	<node id="-820739" lat="64.0606694481" lon="11.7937444432">
		<tag k="name" v="Eliasenget" />
		<tag k="natural" v="wetland" />
		<tag k="ssr:stedsnr" v="472970" />
	</node>
	<node id="-818192" lat="64.0623472232" lon="11.5302722322">
		<tag k="name" v="Portmyra" />
		<tag k="natural" v="wetland" />
		<tag k="ssr:stedsnr" v="204711" />
	</node>
	<node id="-820239" lat="64.1795250025" lon="11.6085055537">
		<tag k="name" v="Sellisenget" />
		<tag k="natural" v="wetland" />
		<tag k="ssr:stedsnr" v="48081" />
	</node>
	<node id="-820236" lat="63.973547221" lon="11.6502888908">
		<tag k="name" v="Elisvemyra" />
		<tag k="natural" v="wetland" />
		<tag k="ssr:stedsnr" v="271420" />
	</node>
	<node id="-818187" lat="63.9715805521" lon="11.5709722288">
		<tag k="name" v="Pungmyra" />
		<tag k="natural" v="wetland" />
		<tag k="ssr:stedsnr" v="332843" />
	</node>
	<node id="-820234" lat="64.1933777797" lon="11.7507916766">
		<tag k="name" v="Nodalenget" />
		<tag k="natural" v="wetland" />
		<tag k="ssr:stedsnr" v="594223" />
	</node>
	<node id="-822280" lat="64.165722219" lon="12.0026638965">
		<tag k="name" v="Stormyra" />
		<tag k="natural" v="wetland" />
		<tag k="ssr:stedsnr" v="817990" />
	</node>
	<node id="-822785" lat="63.9632111083" lon="12.0438166764">
		<tag k="name" v="Høgslettet" />
		<tag k="natural" v="wetland" />
		<tag k="ssr:stedsnr" v="959684" />
	</node>
	<node id="-820227" lat="64.0051527752" lon="11.8139694476">
		<tag k="name" v="Håmmårsmyra" />
		<tag k="natural" v="wetland" />
		<tag k="ssr:stedsnr" v="620662" />
	</node>
	<node id="-818178" lat="64.1285222259" lon="11.2096861093">
		<tag k="name" v="Langmyra" />
		<tag k="natural" v="wetland" />
		<tag k="ssr:stedsnr" v="99670" />
	</node>
	<node id="-818177" lat="64.1154972213" lon="11.5037555607">
		<tag k="name" v="Fjellmyra" />
		<tag k="natural" v="wetland" />
		<tag k="ssr:stedsnr" v="386559" />
	</node>
	<node id="-821077" lat="64.0169333306" lon="11.7874333347">
		<tag k="alt_name" v="Finstadmyra" />
		<tag k="name" v="Finnstadmyra" />
		<tag k="natural" v="wetland" />
		<tag k="ssr:stedsnr" v="256639" />
	</node>
	<node id="-820215" lat="64.1793444487" lon="11.747247217">
		<tag k="name" v="Bossmyra" />
		<tag k="natural" v="wetland" />
		<tag k="ssr:stedsnr" v="594227" />
	</node>
	<node id="-822262" lat="64.032269447" lon="12.0702638927">
		<tag k="name" v="Stormyra" />
		<tag k="natural" v="wetland" />
		<tag k="ssr:stedsnr" v="196616" />
	</node>
	<node id="-822259" lat="64.2399027764" lon="11.6902000017">
		<tag k="name" v="Krokan" />
		<tag k="natural" v="wetland" />
		<tag k="ssr:stedsnr" v="716228" />
	</node>
	<node id="-818162" lat="63.9506166682" lon="12.0958861186">
		<tag k="name" v="Langdrolet" />
		<tag k="natural" v="wetland" />
		<tag k="ssr:stedsnr" v="352543" />
	</node>
	<node id="-820209" lat="64.0078555516" lon="11.7054361131">
		<tag k="name" v="Limrisenget" />
		<tag k="place" v="locality" />
		<tag k="ssr:stedsnr" v="271427" />
	</node>
	<node id="-818159" lat="64.1280055583" lon="11.2612916676">
		<tag k="name" v="Åengmyra" />
		<tag k="natural" v="wetland" />
		<tag k="ssr:stedsnr" v="750754" />
	</node>
	<node id="-820206" lat="64.1304472219" lon="11.1803361008">
		<tag k="name" v="Langmyra" />
		<tag k="natural" v="wetland" />
		<tag k="ssr:stedsnr" v="281681" />
	</node>
	<node id="-822252" lat="64.0213361083" lon="11.9998083239">
		<tag k="alt_name" v="Litl-Roktseteren" />
		<tag k="historic" v="shieling" />
		<tag k="name" v="Litlroktsetran" />
		<tag k="place" v="locality" />
		<tag k="ssr:stedsnr" v="196618" />
	</node>
	<node id="-818153" lat="64.1585916645" lon="11.7415333371">
		<tag k="name" v="Stokkgjøtin" />
		<tag k="natural" v="wetland" />
		<tag k="ssr:stedsnr" v="514027" />
	</node>
	<node id="-820199" lat="64.1077138887" lon="11.8509333412">
		<tag k="name" v="Korsbrumyra" />
		<tag k="natural" v="wetland" />
		<tag k="ssr:stedsnr" v="655785" />
	</node>
	<node id="-822244" lat="64.1693333293" lon="11.6394138831">
		<tag k="name" v="Dammyra" />
		<tag k="natural" v="wetland" />
		<tag k="ssr:stedsnr" v="230138" />
	</node>
	<node id="-818147" lat="64.0577250033" lon="11.4261222299">
		<tag k="name" v="Postmyra" />
		<tag k="natural" v="wetland" />
		<tag k="ssr:stedsnr" v="447898" />
	</node>
	<node id="-822242" lat="64.1255027756" lon="11.8844305462">
		<tag k="name" v="Permyra" />
		<tag k="natural" v="wetland" />
		<tag k="ssr:stedsnr" v="681264" />
	</node>
	<node id="-818145" lat="64.1248999981" lon="11.2660861097">
		<tag k="name" v="Torvmyra" />
		<tag k="natural" v="wetland" />
		<tag k="ssr:stedsnr" v="750749" />
	</node>
	<node id="-820192" lat="64.1605416689" lon="11.6321555546">
		<tag k="name" v="Stordalsmyra" />
		<tag k="natural" v="wetland" />
		<tag k="ssr:stedsnr" v="48073" />
	</node>
	<node id="-818143" lat="64.0827555563" lon="11.5589722156">
		<tag k="name" v="Heggen" />
		<tag k="place" v="locality" />
		<tag k="ssr:stedsnr" v="264628" />
	</node>
	<node id="-822233" lat="64.1347833351" lon="11.2181138903">
		<tag k="name" v="Jakobmyra" />
		<tag k="natural" v="wetland" />
		<tag k="ssr:stedsnr" v="706620" />
	</node>
	<node id="-820182" lat="64.0001749977" lon="11.8333111171">
		<tag k="landuse" v="meadow" />
		<tag k="name" v="Rutlenget" />
		<tag k="ssr:stedsnr" v="453049" />
	</node>
	<node id="-818133" lat="64.129697218" lon="11.3601611067">
		<tag k="landuse" v="meadow" />
		<tag k="name" v="Seterenget" />
		<tag k="ssr:stedsnr" v="750769" />
	</node>
	<node id="-820180" lat="64.0719027763" lon="11.5792333286">
		<tag k="landuse" v="quarry" />
		<tag k="name" v="Skrattåsgruva" />
		<tag k="ssr:stedsnr" v="817480" />
	</node>
	<node id="-820046" lat="64.13491389" lon="11.613744441">
		<tag k="name" v="Beretmyra" />
		<tag k="natural" v="wetland" />
		<tag k="ssr:stedsnr" v="817418" />
	</node>
	<node id="-822226" lat="64.1896805541" lon="11.8380499948">
		<tag k="name" v="Soldagsmarka" />
		<tag k="place" v="locality" />
		<tag k="ssr:stedsnr" v="271916" />
	</node>
	<node id="-819363" lat="63.9866138933" lon="11.9283777717">
		<tag k="name" v="Lokmyra" />
		<tag k="natural" v="wetland" />
		<tag k="ssr:stedsnr" v="958905" />
	</node>
	<node id="-820176" lat="64.0615249966" lon="11.3481333379">
		<tag k="name" v="Tjurrubrennmyra" />
		<tag k="natural" v="wetland" />
		<tag k="ssr:stedsnr" v="508237" />
	</node>
	<node id="-818127" lat="64.18007778" lon="11.7269083305">
		<tag k="name" v="Setermyra" />
		<tag k="natural" v="wetland" />
		<tag k="ssr:stedsnr" v="109217" />
	</node>
	<node id="-819290" lat="64.0531694399" lon="11.8496666703">
		<tag k="name" v="Hatlingenget" />
		<tag k="natural" v="wetland" />
		<tag k="ssr:stedsnr" v="290984" />
	</node>
	<node id="-818124" lat="64.1822805538" lon="11.7531583255">
		<tag k="name" v="Nesjan" />
		<tag k="natural" v="wetland" />
		<tag k="ssr:stedsnr" v="110752" />
	</node>
	<node id="-818123" lat="64.0146833321" lon="12.1629999918">
		<tag k="name" v="Kjøråsslettet" />
		<tag k="natural" v="wetland" />
		<tag k="ssr:stedsnr" v="838306" />
	</node>
	<node id="-818121" lat="64.1201750015" lon="11.2706527757">
		<tag k="name" v="Svartholet" />
		<tag k="place" v="locality" />
		<tag k="ssr:stedsnr" v="690786" />
	</node>
	<node id="-818120" lat="64.0109722188" lon="12.110244441">
		<tag k="name" v="Geilmyra" />
		<tag k="natural" v="wetland" />
		<tag k="ssr:stedsnr" v="838307" />
	</node>
	<node id="-818119" lat="64.1961333367" lon="11.82526389">
		<tag k="name" v="Småengan" />
		<tag k="natural" v="wetland" />
		<tag k="ssr:stedsnr" v="392826" />
	</node>
	<node id="-822433" lat="64.1430055568" lon="11.9473694546">
		<tag k="name" v="Bølmyra" />
		<tag k="natural" v="wetland" />
		<tag k="ssr:stedsnr" v="681276" />
	</node>
	<node id="-820164" lat="64.0996861146" lon="11.7951222234">
		<tag k="name" v="Føllmyra" />
		<tag k="natural" v="wetland" />
		<tag k="ssr:stedsnr" v="838769" />
	</node>
	<node id="-823115" lat="64.04201389" lon="11.8099972267">
		<tag k="name" v="Kokkåsslettet" />
		<tag k="natural" v="wetland" />
		<tag k="ssr:stedsnr" v="837984" />
	</node>
	<node id="-818112" lat="64.162686114" lon="11.3958749977">
		<tag k="name" v="Lomtjønnmyra" />
		<tag k="natural" v="wetland" />
		<tag k="ssr:stedsnr" v="290698" />
	</node>
	<node id="-818111" lat="64.0393833291" lon="11.407905559">
		<tag k="name" v="Jenshusmyra" />
		<tag k="natural" v="wetland" />
		<tag k="ssr:stedsnr" v="326613" />
	</node>
	<node id="-820971" lat="64.0609888878" lon="11.5185944373">
		<tag k="name" v="Mortensengmyra" />
		<tag k="natural" v="wetland" />
		<tag k="ssr:stedsnr" v="681050" />
	</node>
	<node id="-820153" lat="63.9701611127" lon="11.9171527802">
		<tag k="name" v="Linfåmyra" />
		<tag k="natural" v="wetland" />
		<tag k="ssr:stedsnr" v="89928" />
	</node>
	<node id="-820152" lat="64.0108111133" lon="12.1294083235">
		<tag k="name" v="Litlårenget" />
		<tag k="place" v="locality" />
		<tag k="ssr:stedsnr" v="534268" />
	</node>
	<node id="-820146" lat="63.9881833354" lon="11.7933000013">
		<tag k="name" v="Sjurslættet" />
		<tag k="natural" v="wetland" />
		<tag k="ssr:stedsnr" v="453057" />
	</node>
	<node id="-818096" lat="64.077094444" lon="11.3946194434">
		<tag k="name" v="Middagsmyra" />
		<tag k="natural" v="wetland" />
		<tag k="ssr:stedsnr" v="386550" />
	</node>
	<node id="-818095" lat="64.1578194463" lon="11.6309250039">
		<tag k="historic" v="shieling" />
		<tag k="name" v="Nordbygdseteren" />
		<tag k="place" v="locality" />
		<tag k="ssr:stedsnr" v="89436" />
	</node>
	<node id="-822190" lat="64.1246916668" lon="11.5582805494">
		<tag k="name" v="Spongmyra" />
		<tag k="natural" v="wetland" />
		<tag k="ssr:stedsnr" v="265716" />
	</node>
	<node id="-822189" lat="63.9731444414" lon="11.5912749958">
		<tag k="name" v="Solåsmyra" />
		<tag k="natural" v="wetland" />
		<tag k="ssr:stedsnr" v="620995" />
	</node>
	<node id="-818092" lat="64.1995083353" lon="11.7812527774">
		<tag k="name" v="Nordbuenget" />
		<tag k="natural" v="wetland" />
		<tag k="ssr:stedsnr" v="392831" />
	</node>
	<node id="-821063" lat="64.1700805552" lon="11.563088899">
		<tag k="name" v="Skeisenget" />
		<tag k="natural" v="wetland" />
		<tag k="ssr:stedsnr" v="170128" />
	</node>
	<node id="-823289" lat="64.1214749972" lon="11.7563249935">
		<tag k="name" v="Raudmyra" />
		<tag k="natural" v="wetland" />
		<tag k="ssr:stedsnr" v="89129" />
	</node>
	<node id="-819470" lat="63.9434694418" lon="11.437563881">
		<tag k="name" v="Nordengsmyra" />
		<tag k="natural" v="wetland" />
		<tag k="ssr:stedsnr" v="326980" />
	</node>
	<node id="-820134" lat="63.9788388912" lon="11.6713027755">
		<tag k="name" v="Årengmyra" />
		<tag k="natural" v="wetland" />
		<tag k="ssr:stedsnr" v="681975" />
	</node>
	<node id="-822181" lat="64.021961109" lon="11.903311121">
		<tag k="name" v="Grønslettet" />
		<tag k="natural" v="wetland" />
		<tag k="ssr:stedsnr" v="897851" />
	</node>
	<node id="-818084" lat="64.1536833374" lon="11.302461107">
		<tag k="name" v="Vassmyra" />
		<tag k="natural" v="wetland" />
		<tag k="ssr:stedsnr" v="690776" />
	</node>
	<node id="-820038" lat="64.1498805512" lon="11.5223444478">
		<tag k="name" v="Litlvollen" />
		<tag k="natural" v="wetland" />
		<tag k="ssr:stedsnr" v="83636" />
	</node>
	<node id="-818079" lat="64.1487833288" lon="11.2998666759">
		<tag k="name" v="Øverdummelmyra" />
		<tag k="natural" v="wetland" />
		<tag k="ssr:stedsnr" v="690773" />
	</node>
	<node id="-819354" lat="63.9856527802" lon="11.7432611115">
		<tag k="name" v="Olaslættet" />
		<tag k="natural" v="wetland" />
		<tag k="ssr:stedsnr" v="211272" />
	</node>
	<node id="-822166" lat="64.016497218" lon="11.693425009">
		<tag k="name" v="Hesthågåmyra" />
		<tag k="natural" v="wetland" />
		<tag k="ssr:stedsnr" v="210379" />
	</node>
	<node id="-818068" lat="64.183780558" lon="11.7597305593">
		<tag k="name" v="Bjønnberget" />
		<tag k="place" v="locality" />
		<tag k="ssr:stedsnr" v="838273" />
	</node>
	<node id="-818066" lat="63.8987305532" lon="11.4754583279">
		<tag k="name" v="Stormyra" />
		<tag k="natural" v="wetland" />
		<tag k="ssr:stedsnr" v="14076" />
	</node>
	<node id="-818061" lat="64.0895694465" lon="11.5807027877">
		<tag k="name" v="Holamyra" />
		<tag k="natural" v="wetland" />
		<tag k="ssr:stedsnr" v="635516" />
	</node>
	<node id="-818058" lat="63.9655472252" lon="11.8839750041">
		<tag k="name" v="Tjurutjellmyra" />
		<tag k="natural" v="wetland" />
		<tag k="ssr:stedsnr" v="574015" />
	</node>
	<node id="-818055" lat="64.15986667" lon="11.994766675">
		<tag k="historic" v="shieling" />
		<tag k="name" v="Valøyseteren" />
		<tag k="place" v="locality" />
		<tag k="ssr:stedsnr" v="696989" />
	</node>
	<node id="-822150" lat="64.0580138913" lon="11.506261118">
		<tag k="name" v="Skuggdalsenget" />
		<tag k="natural" v="wetland" />
		<tag k="ssr:stedsnr" v="811711" />
	</node>
	<node id="-820099" lat="63.9796305565" lon="11.9046194432">
		<tag k="name" v="Litlmarkmyra" />
		<tag k="natural" v="wetland" />
		<tag k="ssr:stedsnr" v="89918" />
	</node>
	<node id="-822146" lat="64.1480583343" lon="11.4925277788">
		<tag k="landuse" v="meadow" />
		<tag k="name" v="Perenget" />
		<tag k="ssr:stedsnr" v="933559" />
	</node>
	<node id="-820097" lat="63.9792944404" lon="11.8999111074">
		<tag k="name" v="Kringelmyra" />
		<tag k="natural" v="wetland" />
		<tag k="ssr:stedsnr" v="89917" />
	</node>
	<node id="-820095" lat="64.0425583342" lon="11.2648000024">
		<tag k="name" v="Raudmyra" />
		<tag k="natural" v="wetland" />
		<tag k="ssr:stedsnr" v="205224" />
	</node>
	<node id="-820092" lat="63.9172305592" lon="11.4313527701">
		<tag k="name" v="Leira" />
		<tag k="place" v="locality" />
		<tag k="ssr:stedsnr" v="872985" />
	</node>
	<node id="-818042" lat="64.0652194438" lon="11.5630638894">
		<tag k="name" v="Langmyra" />
		<tag k="natural" v="wetland" />
		<tag k="ssr:stedsnr" v="750720" />
	</node>
	<node id="-822137" lat="64.1541555599" lon="11.5015027793">
		<tag k="landuse" v="meadow" />
		<tag k="name" v="Oksåsenget" />
		<tag k="ssr:stedsnr" v="933561" />
	</node>
	<node id="-818040" lat="63.9556805518" lon="11.950827778">
		<tag k="fixme" v="multiple name tags, choose one and add the other to alt_name" />
		<tag k="name" v="Langmyra;Solåsmyra" />
		<tag k="natural" v="wetland" />
		<tag k="ssr:stedsnr" v="74389" />
	</node>
	<node id="-818038" lat="64.0096694422" lon="11.7424944439">
		<tag k="name" v="Torvmyra" />
		<tag k="natural" v="wetland" />
		<tag k="ssr:stedsnr" v="89425" />
	</node>
	<node id="-818037" lat="64.0218527767" lon="12.0767555636">
		<tag k="name" v="Trestakkmyra" />
		<tag k="natural" v="wetland" />
		<tag k="ssr:stedsnr" v="655285" />
	</node>
	<node id="-818036" lat="63.9884972203" lon="12.0929944395">
		<tag k="name" v="Kveldsetmyra" />
		<tag k="natural" v="wetland" />
		<tag k="ssr:stedsnr" v="655283" />
	</node>
	<node id="-820083" lat="64.0479583297" lon="11.5355638985">
		<tag k="name" v="Langmyra" />
		<tag k="natural" v="wetland" />
		<tag k="ssr:stedsnr" v="514518" />
	</node>
	<node id="-822128" lat="63.9168722257" lon="11.6623472227">
		<tag k="name" v="Langmyra" />
		<tag k="natural" v="wetland" />
		<tag k="ssr:stedsnr" v="210372" />
	</node>
	<node id="-818031" lat="63.9716861099" lon="11.87901111">
		<tag k="name" v="Bjørnamyra" />
		<tag k="natural" v="wetland" />
		<tag k="ssr:stedsnr" v="574022" />
	</node>
	<node id="-818028" lat="64.0126111076" lon="11.8339388941">
		<tag k="alt_name" v="Saksengmyra" />
		<tag k="name" v="Saksengmyran" />
		<tag k="natural" v="wetland" />
		<tag k="ssr:stedsnr" v="135668" />
	</node>
	<node id="-822122" lat="64.1609388876" lon="11.3343916734">
		<tag k="name" v="Ner - Svenskmyra" />
		<tag k="natural" v="wetland" />
		<tag k="ssr:stedsnr" v="837707" />
	</node>
	<node id="-818104" lat="64.1559388852" lon="11.4647805476">
		<tag k="landuse" v="meadow" />
		<tag k="name" v="Joholet" />
		<tag k="ssr:stedsnr" v="569528" />
	</node>
	<node id="-822117" lat="64.1313972214" lon="11.3428416688">
		<tag k="name" v="Stormyra" />
		<tag k="natural" v="wetland" />
		<tag k="ssr:stedsnr" v="508797" />
	</node>
	<node id="-822115" lat="64.1319416656" lon="11.9203444497">
		<tag k="name" v="Bjørnamyra" />
		<tag k="natural" v="wetland" />
		<tag k="ssr:stedsnr" v="817932" />
	</node>
	<node id="-818015" lat="64.0837416635" lon="11.4034805653">
		<tag k="name" v="Raudmyra" />
		<tag k="natural" v="wetland" />
		<tag k="ssr:stedsnr" v="326590" />
	</node>
	<node id="-820062" lat="64.1636888919" lon="11.7676138943">
		<tag k="name" v="Småmyrin" />
		<tag k="natural" v="wetland" />
		<tag k="ssr:stedsnr" v="453032" />
	</node>
	<node id="-818011" lat="63.9855055546" lon="11.830527786">
		<tag k="name" v="Stormyra" />
		<tag k="natural" v="wetland" />
		<tag k="ssr:stedsnr" v="757039" />
	</node>
	<node id="-820367" lat="64.1710750003" lon="11.5938611019">
		<tag k="name" v="Dalenget" />
		<tag k="natural" v="wetland" />
		<tag k="ssr:stedsnr" v="48118" />
	</node>
	<node id="-822830" lat="63.9536361125" lon="11.4862999903">
		<tag k="name" v="Stinnmyra" />
		<tag k="natural" v="wetland" />
		<tag k="ssr:stedsnr" v="265900" />
	</node>
	<node id="-820053" lat="63.9707611157" lon="11.8665749924">
		<tag k="name" v="Hestmyra" />
		<tag k="natural" v="wetland" />
		<tag k="ssr:stedsnr" v="256391" />
	</node>
	<node id="-822101" lat="64.1595027779" lon="11.9679111025">
		<tag k="name" v="Kjerrrmyra" />
		<tag k="natural" v="wetland" />
		<tag k="ssr:stedsnr" v="211988" />
	</node>
	<node id="-818002" lat="63.9526611128" lon="11.5595000026">
		<tag k="name" v="Båggåmyra" />
		<tag k="natural" v="wetland" />
		<tag k="ssr:stedsnr" v="438900" />
	</node>
	<node id="-818001" lat="64.1131138908" lon="11.5069527781">
		<tag k="name" v="Rolimyra" />
		<tag k="natural" v="wetland" />
		<tag k="ssr:stedsnr" v="690756" />
	</node>
	<node id="-818000" lat="64.0828000037" lon="11.5525055586">
		<tag k="name" v="Slåttmyra" />
		<tag k="natural" v="wetland" />
		<tag k="ssr:stedsnr" v="810652" />
	</node>
	<node id="-819312" lat="63.8871111155" lon="11.6474861168">
		<tag k="name" v="Bremsetslættet" />
		<tag k="place" v="locality" />
		<tag k="ssr:stedsnr" v="757337" />
	</node>
	<node id="-822094" lat="64.1508861097" lon="11.6699083384">
		<tag k="name" v="Gjerstadmyran" />
		<tag k="natural" v="wetland" />
		<tag k="ssr:stedsnr" v="332180" />
	</node>
	<node id="-822093" lat="64.1585027779" lon="12.0143305477">
		<tag k="name" v="Kartgjøta" />
		<tag k="natural" v="wetland" />
		<tag k="ssr:stedsnr" v="211990" />
	</node>
	<node id="-817996" lat="64.0201999968" lon="11.8064000058">
		<tag k="name" v="Smedengmyra" />
		<tag k="natural" v="wetland" />
		<tag k="ssr:stedsnr" v="574003" />
	</node>
	<node id="-817995" lat="64.1811388929" lon="11.694691675">
		<tag k="name" v="Nergjerstadenget" />
		<tag k="natural" v="wetland" />
		<tag k="ssr:stedsnr" v="109196" />
	</node>
	<node id="-822087" lat="64.1861972265" lon="11.8325666658">
		<tag k="name" v="Soldagsmarka" />
		<tag k="place" v="locality" />
		<tag k="ssr:stedsnr" v="28822" />
	</node>
	<node id="-817990" lat="64.0263666701" lon="11.7500777779">
		<tag k="name" v="Småmyran" />
		<tag k="natural" v="wetland" />
		<tag k="ssr:stedsnr" v="89419" />
	</node>
	<node id="-820035" lat="64.1436166654" lon="11.3840388861">
		<tag k="name" v="Kollfurumyra" />
		<tag k="natural" v="wetland" />
		<tag k="ssr:stedsnr" v="75793" />
	</node>
	<node id="-817984" lat="64.1645611073" lon="12.0088361126">
		<tag k="name" v="Eliasmyra" />
		<tag k="natural" v="wetland" />
		<tag k="ssr:stedsnr" v="863453" />
	</node>
	<node id="-820031" lat="64.1869388868" lon="11.9369555526">
		<tag k="name" v="Markatrøa" />
		<tag k="place" v="locality" />
		<tag k="ssr:stedsnr" v="89892" />
	</node>
	<node id="-820030" lat="63.9823166635" lon="12.0520833363">
		<tag k="name" v="Tomsåsmyran" />
		<tag k="natural" v="wetland" />
		<tag k="ssr:stedsnr" v="109670" />
	</node>
	<node id="-817980" lat="64.1115166687" lon="11.4946611188">
		<tag k="name" v="Skotrømyra" />
		<tag k="natural" v="wetland" />
		<tag k="ssr:stedsnr" v="326598" />
	</node>
	<node id="-820026" lat="64.0242999983" lon="11.7286611038">
		<tag k="name" v="Tangeråsmyra" />
		<tag k="natural" v="wetland" />
		<tag k="ssr:stedsnr" v="620624" />
	</node>
	<node id="-820022" lat="63.9683967762" lon="12.090208842">
		<tag k="name" v="Langenget" />
		<tag k="place" v="locality" />
		<tag k="ssr:stedsnr" v="109668" />
	</node>
	<node id="-817971" lat="64.0255805552" lon="11.7940583366">
		<tag k="name" v="Steinmyra" />
		<tag k="natural" v="wetland" />
		<tag k="ssr:stedsnr" v="574008" />
	</node>
	<node id="-822065" lat="64.1896222218" lon="11.7802000023">
		<tag k="name" v="Langmyra" />
		<tag k="natural" v="wetland" />
		<tag k="ssr:stedsnr" v="28818" />
	</node>
	<node id="-820014" lat="64.1621250036" lon="11.9692638803">
		<tag k="name" v="Litlmyra" />
		<tag k="natural" v="wetland" />
		<tag k="ssr:stedsnr" v="635987" />
	</node>
	<node id="-822061" lat="64.095238889" lon="11.6780805569">
		<tag k="name" v="Krikmyra" />
		<tag k="natural" v="wetland" />
		<tag k="ssr:stedsnr" v="392174" />
	</node>
	<node id="-817960" lat="63.9192555546" lon="11.5392472187">
		<tag k="name" v="Kantmyra" />
		<tag k="natural" v="wetland" />
		<tag k="ssr:stedsnr" v="507692" />
	</node>
	<node id="-820017" lat="64.1771777762" lon="11.6872916733">
		<tag k="name" v="Vakkerstakkenget" />
		<tag k="natural" v="wetland" />
		<tag k="ssr:stedsnr" v="291159" />
	</node>
	<node id="-817956" lat="64.120094443" lon="11.820341674">
		<tag k="name" v="Nordfjellmyra" />
		<tag k="natural" v="wetland" />
		<tag k="ssr:stedsnr" v="332793" />
	</node>
	<node id="-820358" lat="64.1248805542" lon="11.2011444391">
		<tag k="name" v="Perenget" />
		<tag k="natural" v="wetland" />
		<tag k="ssr:stedsnr" v="949591" />
	</node>
	<node id="-817954" lat="63.9792138931" lon="11.5501722136">
		<tag k="name" v="Langmyra" />
		<tag k="natural" v="wetland" />
		<tag k="ssr:stedsnr" v="204659" />
	</node>
	<node id="-817953" lat="64.191205556" lon="11.7637250051">
		<tag k="name" v="Brupusten" />
		<tag k="natural" v="wetland" />
		<tag k="ssr:stedsnr" v="716758" />
	</node>
	<node id="-822046" lat="64.2464500032" lon="11.655180564">
		<tag k="name" v="Korsmyra" />
		<tag k="natural" v="wetland" />
		<tag k="ssr:stedsnr" v="560893" />
	</node>
	<node id="-817948" lat="64.1240027789" lon="11.5468027756">
		<tag k="name" v="Hoenget" />
		<tag k="natural" v="wetland" />
		<tag k="ssr:stedsnr" v="204648" />
	</node>
	<node id="-822042" lat="63.9807555594" lon="11.5811805649">
		<tag k="name" v="Seterengsmyra" />
		<tag k="natural" v="wetland" />
		<tag k="ssr:stedsnr" v="817938" />
	</node>
	<node id="-819992" lat="64.1215388897" lon="11.221202785">
		<tag k="name" v="Klauvengan" />
		<tag k="natural" v="wetland" />
		<tag k="ssr:stedsnr" v="584671" />
	</node>
	<node id="-822034" lat="64.0075250008" lon="11.6859888957">
		<tag k="fixme" v="multiple name tags, choose one and add the other to alt_name" />
		<tag k="name" v="Brandseggmyran;Stormyra" />
		<tag k="natural" v="wetland" />
		<tag k="ssr:stedsnr" v="559819" />
	</node>
	<node id="-819984" lat="64.0495722239" lon="11.6968388991">
		<tag k="name" v="Langmyra" />
		<tag k="natural" v="wetland" />
		<tag k="ssr:stedsnr" v="939265" />
	</node>
	<node id="-819672" lat="64.0129472197" lon="11.7088472266">
		<tag k="name" v="Stormyra" />
		<tag k="natural" v="wetland" />
		<tag k="ssr:stedsnr" v="574423" />
	</node>
	<node id="-820013" lat="63.9883638855" lon="11.7560249898">
		<tag k="name" v="Kvilsteinen" />
		<tag k="natural" v="stone" />
		<tag k="ssr:stedsnr" v="28283" />
	</node>
	<node id="-819980" lat="64.0572416651" lon="11.7432500055">
		<tag k="name" v="Kartmyra" />
		<tag k="natural" v="wetland" />
		<tag k="ssr:stedsnr" v="28273" />
	</node>
	<node id="-822020" lat="64.0103416632" lon="11.5857388834">
		<tag k="name" v="Bruåsmyra" />
		<tag k="natural" v="wetland" />
		<tag k="ssr:stedsnr" v="924403" />
	</node>
	<node id="-819969" lat="63.9289638848" lon="11.4787583346">
		<tag k="name" v="Dalemsmyra" />
		<tag k="natural" v="wetland" />
		<tag k="ssr:stedsnr" v="872978" />
	</node>
	<node id="-822400" lat="64.1664194479" lon="11.781583331">
		<tag k="name" v="Bjørnamyra" />
		<tag k="natural" v="wetland" />
		<tag k="ssr:stedsnr" v="28889" />
	</node>
	<node id="-822013" lat="64.1911111099" lon="11.634188893">
		<tag k="name" v="Andfinenget" />
		<tag k="natural" v="wetland" />
		<tag k="ssr:stedsnr" v="776115" />
	</node>
	<node id="-822012" lat="64.1973833292" lon="11.8228722266">
		<tag k="name" v="Eskilmyra" />
		<tag k="natural" v="wetland" />
		<tag k="ssr:stedsnr" v="939779" />
	</node>
	<node id="-819961" lat="64.052483332" lon="11.3305249909">
		<tag k="name" v="Våttåmyran" />
		<tag k="natural" v="wetland" />
		<tag k="ssr:stedsnr" v="568243" />
	</node>
	<node id="-819960" lat="64.0762722202" lon="11.3711472193">
		<tag k="name" v="Vargmyra" />
		<tag k="natural" v="wetland" />
		<tag k="ssr:stedsnr" v="143835" />
	</node>
	<node id="-819959" lat="64.070669444" lon="11.8051527778">
		<tag k="name" v="Finn-Sivertslettet" />
		<tag k="natural" v="wetland" />
		<tag k="ssr:stedsnr" v="412996" />
	</node>
	<node id="-822005" lat="64.0508861097" lon="11.3224333257">
		<tag k="name" v="Hallsteinmyra" />
		<tag k="natural" v="wetland" />
		<tag k="ssr:stedsnr" v="447186" />
	</node>
	<node id="-819805" lat="63.9833916661" lon="12.0700749932">
		<tag k="name" v="Storfloan" />
		<tag k="natural" v="wetland" />
		<tag k="ssr:stedsnr" v="655689" />
	</node>
	<node id="-819953" lat="64.0600055514" lon="11.2953166586">
		<tag k="name" v="Postmyra" />
		<tag k="natural" v="wetland" />
		<tag k="ssr:stedsnr" v="568245" />
	</node>
	<node id="-819949" lat="64.0755611113" lon="11.3651388983">
		<tag k="name" v="Kippersmyra" />
		<tag k="natural" v="wetland" />
		<tag k="ssr:stedsnr" v="143836" />
	</node>
	<node id="-817900" lat="64.0194583361" lon="12.1020916585">
		<tag k="name" v="Sirimyra" />
		<tag k="natural" v="wetland" />
		<tag k="ssr:stedsnr" v="655277" />
	</node>
	<node id="-821995" lat="64.0934305558" lon="11.6794555543">
		<tag k="name" v="Fabakkmyra" />
		<tag k="natural" v="wetland" />
		<tag k="ssr:stedsnr" v="392171" />
	</node>
	<node id="-823079" lat="64.0264944456" lon="11.5183722308">
		<tag k="name" v="Rismyra" />
		<tag k="natural" v="wetland" />
		<tag k="ssr:stedsnr" v="620073" />
	</node>
	<node id="-821992" lat="64.1916166653" lon="11.8044972263">
		<tag k="name" v="Bertilgjøta" />
		<tag k="natural" v="wetland" />
		<tag k="ssr:stedsnr" v="939772" />
	</node>
	<node id="-821991" lat="63.8934138905" lon="11.6906944352">
		<tag k="historic" v="shieling" />
		<tag k="name" v="Lorvikvollen" />
		<tag k="place" v="locality" />
		<tag k="ssr:stedsnr" v="696347" />
	</node>
	<node id="-817893" lat="64.1331055599" lon="11.3796916596">
		<tag k="name" v="Breislættet" />
		<tag k="natural" v="wetland" />
		<tag k="ssr:stedsnr" v="386484" />
	</node>
	<node id="-821987" lat="64.1654388904" lon="11.5430250027">
		<tag k="name" v="Dalenget" />
		<tag k="natural" v="wetland" />
		<tag k="ssr:stedsnr" v="230077" />
	</node>
	<node id="-817890" lat="63.9731166684" lon="11.6593250098">
		<tag k="name" v="Fjesemmyra" />
		<tag k="natural" v="wetland" />
		<tag k="ssr:stedsnr" v="89395" />
	</node>
	<node id="-817889" lat="64.1921555529" lon="11.7845638837">
		<tag k="name" v="Melan" />
		<tag k="place" v="locality" />
		<tag k="ssr:stedsnr" v="332762" />
	</node>
	<node id="-817884" lat="64.0455361117" lon="11.5242194387">
		<tag k="name" v="Kvamslangmyra" />
		<tag k="natural" v="wetland" />
		<tag k="ssr:stedsnr" v="635498" />
	</node>
	<node id="-822052" lat="63.9844916695" lon="11.5749750074">
		<tag k="name" v="Gråtarmyra" />
		<tag k="natural" v="wetland" />
		<tag k="ssr:stedsnr" v="817935" />
	</node>
	<node id="-817876" lat="64.1935388867" lon="11.7172083236">
		<tag k="name" v="Hoaenget" />
		<tag k="natural" v="wetland" />
		<tag k="ssr:stedsnr" v="838253" />
	</node>
	<node id="-821971" lat="64.1087861155" lon="11.2660527794">
		<tag k="name" v="Melmyra" />
		<tag k="natural" v="wetland" />
		<tag k="ssr:stedsnr" v="447170" />
	</node>
	<node id="-822051" lat="64.0733333296" lon="11.5685083239">
		<tag k="name" v="Korsmyra" />
		<tag k="natural" v="wetland" />
		<tag k="ssr:stedsnr" v="265683" />
	</node>
	<node id="-819913" lat="64.1640194439" lon="11.7708750065">
		<tag k="name" v="Småmyrin" />
		<tag k="natural" v="wetland" />
		<tag k="ssr:stedsnr" v="89867" />
	</node>
	<node id="-821960" lat="63.9509194457" lon="11.7341916568">
		<tag k="name" v="Aunmyran" />
		<tag k="natural" v="wetland" />
		<tag k="ssr:stedsnr" v="351907" />
	</node>
	<node id="-822732" lat="64.1763111113" lon="11.5838250026">
		<tag k="name" v="Eldråsenget" />
		<tag k="natural" v="wetland" />
		<tag k="ssr:stedsnr" v="412121" />
	</node>
	<node id="-819909" lat="64.0701305522" lon="11.4640416728">
		<tag k="name" v="Stormyra" />
		<tag k="natural" v="wetland" />
		<tag k="ssr:stedsnr" v="872936" />
	</node>
	<node id="-819908" lat="64.1751861127" lon="11.6610805602">
		<tag k="name" v="Kivillaunenget" />
		<tag k="natural" v="wetland" />
		<tag k="ssr:stedsnr" v="291131" />
	</node>
	<node id="-819906" lat="63.9757277814" lon="11.6638083412">
		<tag k="name" v="Stormyra" />
		<tag k="natural" v="wetland" />
		<tag k="ssr:stedsnr" v="378982" />
	</node>
	<node id="-817854" lat="63.9753277784" lon="11.5553638928">
		<tag k="name" v="Litlslåttamyra" />
		<tag k="natural" v="wetland" />
		<tag k="ssr:stedsnr" v="750670" />
	</node>
	<node id="-819901" lat="64.1701083309" lon="11.4494166605">
		<tag k="name" v="Tessemenget" />
		<tag k="natural" v="wetland" />
		<tag k="ssr:stedsnr" v="472736" />
	</node>
	<node id="-817852" lat="63.9948361096" lon="12.0936888799">
		<tag k="name" v="Tangøra" />
		<tag k="place" v="locality" />
		<tag k="ssr:stedsnr" v="863412" />
	</node>
	<node id="-819899" lat="64.1742138934" lon="11.6451499916">
		<tag k="name" v="Hoaenget" />
		<tag k="natural" v="wetland" />
		<tag k="ssr:stedsnr" v="594137" />
	</node>
	<node id="-817849" lat="64.1410444481" lon="11.3888583407">
		<tag k="name" v="Svartesmyran" />
		<tag k="natural" v="wetland" />
		<tag k="ssr:stedsnr" v="958521" />
	</node>
	<node id="-817847" lat="64.0302888922" lon="11.5482583407">
		<tag k="name" v="Helgesmarka" />
		<tag k="place" v="locality" />
		<tag k="ssr:stedsnr" v="257105" />
	</node>
	<node id="-818047" lat="63.9895416661" lon="12.10381945">
		<tag k="name" v="Nordslettet" />
		<tag k="natural" v="wetland" />
		<tag k="ssr:stedsnr" v="655286" />
	</node>
	<node id="-819893" lat="64.1781083344" lon="11.6698805529">
		<tag k="name" v="Langhammeraunenget" />
		<tag k="natural" v="wetland" />
		<tag k="ssr:stedsnr" v="594138" />
	</node>
	<node id="-819315" lat="64.1655250014" lon="11.5530388814">
		<tag k="name" v="Klokkarenget" />
		<tag k="natural" v="wetland" />
		<tag k="ssr:stedsnr" v="534068" />
	</node>
	<node id="-819888" lat="64.1692944459" lon="11.4393805552">
		<tag k="name" v="Vikenget" />
		<tag k="natural" v="wetland" />
		<tag k="ssr:stedsnr" v="472734" />
	</node>
	<node id="-819887" lat="64.2231527745" lon="11.6532277716">
		<tag k="name" v="Hølbekkmyrin" />
		<tag k="natural" v="wetland" />
		<tag k="ssr:stedsnr" v="534190" />
	</node>
	<node id="-819883" lat="64.1653333366" lon="11.8006861157">
		<tag k="name" v="Småbuengan" />
		<tag k="natural" v="wetland" />
		<tag k="ssr:stedsnr" v="89861" />
	</node>
	<node id="-819996" lat="64.134813888" lon="11.3732194423">
		<tag k="name" v="Hestgeilen" />
		<tag k="natural" v="wetland" />
		<tag k="ssr:stedsnr" v="629775" />
	</node>
	<node id="-817830" lat="64.0643333307" lon="11.4047750003">
		<tag k="name" v="Storvardmyra" />
		<tag k="natural" v="wetland" />
		<tag k="ssr:stedsnr" v="14041" />
	</node>
	<node id="-819876" lat="64.1654111096" lon="11.7919138804">
		<tag k="name" v="Langmyra" />
		<tag k="natural" v="wetland" />
		<tag k="ssr:stedsnr" v="89859" />
	</node>
	<node id="-821923" lat="64.0034277784" lon="11.7601888882">
		<tag k="name" v="Vargmyra" />
		<tag k="natural" v="wetland" />
		<tag k="ssr:stedsnr" v="210306" />
	</node>
	<node id="-817823" lat="64.1140333365" lon="11.2774749958">
		<tag k="name" v="Glenna" />
		<tag k="natural" v="wetland" />
		<tag k="ssr:stedsnr" v="629194" />
	</node>
	<node id="-819869" lat="64.0238722247" lon="11.7477444531">
		<tag k="name" v="Karimyran" />
		<tag k="natural" v="wetland" />
		<tag k="ssr:stedsnr" v="817396" />
	</node>
	<node id="-819866" lat="64.1187277747" lon="11.2515499939">
		<tag k="name" v="Finnkjukholmyra" />
		<tag k="natural" v="wetland" />
		<tag k="ssr:stedsnr" v="629763" />
	</node>
	<node id="-817817" lat="63.9379083343" lon="11.9918333313">
		<tag k="name" v="Drevlamyra" />
		<tag k="natural" v="wetland" />
		<tag k="ssr:stedsnr" v="412482" />
	</node>
	<node id="-821912" lat="64.0880583353" lon="11.5099611107">
		<tag k="name" v="Saursaunmyra" />
		<tag k="natural" v="wetland" />
		<tag k="ssr:stedsnr" v="135224" />
	</node>
	<node id="-821911" lat="64.1467694405" lon="11.3204972264">
		<tag k="name" v="Lauvåsmyra" />
		<tag k="natural" v="wetland" />
		<tag k="ssr:stedsnr" v="108546" />
	</node>
	<node id="-819310" lat="64.1673499974" lon="11.5527666758">
		<tag k="name" v="Nordsemsenget" />
		<tag k="natural" v="wetland" />
		<tag k="ssr:stedsnr" v="534067" />
	</node>
	<node id="-821905" lat="64.0387222265" lon="11.8453583305">
		<tag k="name" v="Stormyra" />
		<tag k="natural" v="wetland" />
		<tag k="ssr:stedsnr" v="351893" />
	</node>
	<node id="-821904" lat="63.9904194435" lon="11.8508916767">
		<tag k="name" v="Raudmyra" />
		<tag k="natural" v="wetland" />
		<tag k="ssr:stedsnr" v="878048" />
	</node>
	<node id="-817801" lat="63.9638277787" lon="11.5611750006">
		<tag k="name" v="Raudmyra" />
		<tag k="natural" v="wetland" />
		<tag k="ssr:stedsnr" v="742886" />
	</node>
	<node id="-819665" lat="64.1245166622" lon="11.2490777819">
		<tag k="name" v="Nedre Bjørnamyra" />
		<tag k="natural" v="wetland" />
		<tag k="ssr:stedsnr" v="143752" />
	</node>
	<node id="-821890" lat="63.9369611138" lon="11.9816166739">
		<tag k="name" v="Kjesbuslettet" />
		<tag k="place" v="locality" />
		<tag k="ssr:stedsnr" v="48486" />
	</node>
	<node id="-821696" lat="64.1053861118" lon="11.4902166619">
		<tag k="name" v="Kråkmyra" />
		<tag k="natural" v="wetland" />
		<tag k="ssr:stedsnr" v="265578" />
	</node>
	<node id="-821885" lat="64.0832805589" lon="11.7427583412">
		<tag k="name" v="Litlmarka" />
		<tag k="place" v="locality" />
		<tag k="ssr:stedsnr" v="332129" />
	</node>
	<node id="-821884" lat="63.9348638878" lon="12.0235138856">
		<tag k="name" v="Kolåsslettet" />
		<tag k="place" v="locality" />
		<tag k="ssr:stedsnr" v="48487" />
	</node>
	<node id="-817786" lat="64.0753233846" lon="11.7970711664">
		<tag k="name" v="Setermyra" />
		<tag k="natural" v="wetland" />
		<tag k="ssr:stedsnr" v="473819" />
	</node>
	<node id="-821879" lat="63.9775972188" lon="11.6870583328">
		<tag k="name" v="Hesjemyra" />
		<tag k="natural" v="wetland" />
		<tag k="ssr:stedsnr" v="756363" />
	</node>
	<node id="-817773" lat="64.0181083312" lon="11.589241666">
		<tag k="name" v="Stormyra" />
		<tag k="natural" v="wetland" />
		<tag k="ssr:stedsnr" v="924773" />
	</node>
	<node id="-821865" lat="64.1820833367" lon="11.8127416624">
		<tag k="name" v="Rossmyra" />
		<tag k="natural" v="wetland" />
		<tag k="ssr:stedsnr" v="939763" />
	</node>
	<node id="-819323" lat="63.9771999987" lon="12.0641000025">
		<tag k="name" v="Slåmyra" />
		<tag k="natural" v="wetland" />
		<tag k="ssr:stedsnr" v="898693" />
	</node>
	<node id="-821860" lat="63.9899583343" lon="11.6235277765">
		<tag k="name" v="Åsmyra" />
		<tag k="natural" v="wetland" />
		<tag k="ssr:stedsnr" v="317960" />
	</node>
	<node id="-821853" lat="64.008355559" lon="11.9179277828">
		<tag k="name" v="Sengstumyra" />
		<tag k="natural" v="wetland" />
		<tag k="ssr:stedsnr" v="351881" />
	</node>
	<node id="-821914" lat="64.0038305582" lon="12.1460750006">
		<tag k="name" v="Vassmyra" />
		<tag k="natural" v="wetland" />
		<tag k="ssr:stedsnr" v="170330" />
	</node>
	<node id="-819801" lat="64.0497166664" lon="11.4587666632">
		<tag k="name" v="Spjølkmyra" />
		<tag k="natural" v="wetland" />
		<tag k="ssr:stedsnr" v="635929" />
	</node>
	<node id="-817749" lat="63.9519527747" lon="12.0798833343">
		<tag k="name" v="Naustmyra" />
		<tag k="natural" v="wetland" />
		<tag k="ssr:stedsnr" v="863390" />
	</node>
	<node id="-819981" lat="63.9749666694" lon="12.0971944506">
		<tag k="name" v="Årenget" />
		<tag k="place" v="locality" />
		<tag k="ssr:stedsnr" v="109657" />
	</node>
	<node id="-821836" lat="63.9802999973" lon="11.5487194411">
		<tag k="name" v="Langmyra" />
		<tag k="natural" v="wetland" />
		<tag k="ssr:stedsnr" v="620954" />
	</node>
	<node id="-819786" lat="63.973208332" lon="12.0332888804">
		<tag k="name" v="Langmyra" />
		<tag k="natural" v="wetland" />
		<tag k="ssr:stedsnr" v="229520" />
	</node>
	<node id="-821833" lat="64.1412250029" lon="11.5525277755">
		<tag k="name" v="Stamnesmyra" />
		<tag k="natural" v="wetland" />
		<tag k="ssr:stedsnr" v="811628" />
	</node>
	<node id="-821827" lat="64.0704638864" lon="11.5286555535">
		<tag k="name" v="Hestmyra" />
		<tag k="natural" v="wetland" />
		<tag k="ssr:stedsnr" v="508738" />
	</node>
	<node id="-820822" lat="64.0538666662" lon="11.3785472307">
		<tag k="name" v="Olmyra" />
		<tag k="natural" v="wetland" />
		<tag k="ssr:stedsnr" v="83928" />
	</node>
	<node id="-820074" lat="64.1634000039" lon="11.7283138966">
		<tag k="historic" v="shieling" />
		<tag k="name" v="Grøtseteren" />
		<tag k="place" v="locality" />
		<tag k="ssr:stedsnr" v="453029" />
	</node>
	<node id="-817726" lat="63.8902083306" lon="11.6433277843">
		<tag k="name" v="Benjaminsteinen" />
		<tag k="natural" v="stone" />
		<tag k="ssr:stedsnr" v="272433" />
	</node>
	<node id="-817724" lat="64.0813944487" lon="11.4180583439">
		<tag k="name" v="Stormyra" />
		<tag k="natural" v="wetland" />
		<tag k="ssr:stedsnr" v="204586" />
	</node>
	<node id="-817723" lat="63.8991250022" lon="11.681519439">
		<tag k="name" v="Litl-varden" />
		<tag k="natural" v="stone" />
		<tag k="ssr:stedsnr" v="272432" />
	</node>
	<node id="-821818" lat="64.0230611069" lon="11.4566000099">
		<tag k="name" v="Eggemarka" />
		<tag k="place" v="locality" />
		<tag k="ssr:stedsnr" v="864059" />
	</node>
	<node id="-821816" lat="63.962938888" lon="11.9070249953">
		<tag k="name" v="Raudmyra" />
		<tag k="natural" v="wetland" />
		<tag k="ssr:stedsnr" v="574946" />
	</node>
	<node id="-817719" lat="63.9632916648" lon="11.9563944467">
		<tag k="name" v="Solåsmyra" />
		<tag k="natural" v="wetland" />
		<tag k="ssr:stedsnr" v="696927" />
	</node>
	<node id="-819765" lat="64.1133166641" lon="11.5039444392">
		<tag k="name" v="Rolimyra" />
		<tag k="natural" v="wetland" />
		<tag k="ssr:stedsnr" v="83562" />
	</node>
	<node id="-817716" lat="63.9093666661" lon="11.53289445">
		<tag k="name" v="Rognmarka" />
		<tag k="place" v="locality" />
		<tag k="ssr:stedsnr" v="567670" />
	</node>
	<node id="-817708" lat="63.9459722239" lon="11.6513777837">
		<tag k="name" v="Finngjardet" />
		<tag k="natural" v="wetland" />
		<tag k="ssr:stedsnr" v="756955" />
	</node>
	<node id="-821802" lat="63.91423333" lon="11.5392583291">
		<tag k="name" v="Raudmyra" />
		<tag k="natural" v="wetland" />
		<tag k="ssr:stedsnr" v="22672" />
	</node>
	<node id="-819753" lat="64.1613027768" lon="11.6923500081">
		<tag k="name" v="Geitakløyvmyra" />
		<tag k="natural" v="wetland" />
		<tag k="ssr:stedsnr" v="534154" />
	</node>
	<node id="-821800" lat="63.9683638919" lon="12.1641583292">
		<tag k="name" v="Isbekkenget" />
		<tag k="place" v="locality" />
		<tag k="ssr:stedsnr" v="48687" />
	</node>
	<node id="-821799" lat="63.8854583314" lon="11.6372055593">
		<tag k="name" v="Lauvmyra" />
		<tag k="natural" v="wetland" />
		<tag k="ssr:stedsnr" v="332332" />
	</node>
	<node id="-821681" lat="64.1515222225" lon="12.0131388849">
		<tag k="name" v="Slettesmyra" />
		<tag k="natural" v="wetland" />
		<tag k="ssr:stedsnr" v="574927" />
	</node>
	<node id="-821796" lat="64.0017777749" lon="11.804280555">
		<tag k="name" v="Elgmyra" />
		<tag k="natural" v="wetland" />
		<tag k="ssr:stedsnr" v="635044" />
	</node>
	<node id="-820998" lat="64.0539111145" lon="11.476350006">
		<tag k="name" v="Rungstadmyra" />
		<tag k="natural" v="wetland" />
		<tag k="ssr:stedsnr" v="377004" />
	</node>
	<node id="-817697" lat="64.1358250015" lon="11.6099611196">
		<tag k="name" v="Stokkmyra" />
		<tag k="natural" v="wetland" />
		<tag k="ssr:stedsnr" v="635413" />
	</node>
	<node id="-821789" lat="63.8773222253" lon="11.4638083372">
		<tag k="name" v="Leiet" />
		<tag k="place" v="locality" />
		<tag k="ssr:stedsnr" v="508970" />
	</node>
	<node id="-821788" lat="64.1126361081" lon="11.2537138788">
		<tag k="name" v="Bustadmyra" />
		<tag k="natural" v="wetland" />
		<tag k="ssr:stedsnr" v="690237" />
	</node>
	<node id="-821787" lat="64.1738250017" lon="11.642711112">
		<tag k="name" v="Hoatrømyra" />
		<tag k="natural" v="wetland" />
		<tag k="ssr:stedsnr" v="412111" />
	</node>
	<node id="-819738" lat="64.1009972255" lon="11.8469888914">
		<tag k="name" v="Breineset" />
		<tag k="natural" v="wetland" />
		<tag k="ssr:stedsnr" v="898792" />
	</node>
	<node id="-821782" lat="64.0807194441" lon="11.560313885">
		<tag k="name" v="Saursmyra" />
		<tag k="natural" v="wetland" />
		<tag k="ssr:stedsnr" v="933684" />
	</node>
	<node id="-817685" lat="64.2037861199" lon="11.9272681128">
		<tag k="name" v="Skråmyra" />
		<tag k="natural" v="wetland" />
		<tag k="ssr:stedsnr" v="170850" />
	</node>
	<node id="-821780" lat="64.0359027815" lon="11.7933861135">
		<tag k="name" v="Storsteinmyra" />
		<tag k="natural" v="wetland" />
		<tag k="ssr:stedsnr" v="897963" />
	</node>
	<node id="-822702" lat="64.0468027807" lon="11.270361113">
		<tag k="name" v="Grønmyra" />
		<tag k="natural" v="wetland" />
		<tag k="ssr:stedsnr" v="204182" />
	</node>
	<node id="-821778" lat="64.1112694445" lon="11.668177788">
		<tag k="name" v="Stormyra" />
		<tag k="natural" v="wetland" />
		<tag k="ssr:stedsnr" v="878248" />
	</node>
	<node id="-822964" lat="64.1805861076" lon="11.7955416759">
		<tag k="name" v="Livassmyra" />
		<tag k="natural" v="wetland" />
		<tag k="ssr:stedsnr" v="453793" />
	</node>
	<node id="-821775" lat="64.1681444418" lon="11.6483611142">
		<tag k="name" v="Langgjøta" />
		<tag k="natural" v="wetland" />
		<tag k="ssr:stedsnr" v="412108" />
	</node>
	<node id="-817678" lat="64.1830666631" lon="11.9096333409">
		<tag k="name" v="Skeistrøa" />
		<tag k="place" v="locality" />
		<tag k="ssr:stedsnr" v="756924" />
	</node>
	<node id="-821771" lat="64.0662361068" lon="11.344252777">
		<tag k="name" v="Langmyra" />
		<tag k="natural" v="wetland" />
		<tag k="ssr:stedsnr" v="204200" />
	</node>
	<node id="-822359" lat="64.1314694427" lon="11.4700777684">
		<tag k="name" v="Kjerringgjøtmyra" />
		<tag k="natural" v="wetland" />
		<tag k="ssr:stedsnr" v="82544" />
	</node>
	<node id="-819628" lat="63.9870583374" lon="11.8948916713">
		<tag k="name" v="Digerenget" />
		<tag k="place" v="locality" />
		<tag k="ssr:stedsnr" v="412904" />
	</node>
	<node id="-817670" lat="64.075736112" lon="11.4499444495">
		<tag k="name" v="Gulungholet" />
		<tag k="natural" v="wetland" />
		<tag k="ssr:stedsnr" v="750608" />
	</node>
	<node id="-817669" lat="63.9449666692" lon="11.4402166573">
		<tag k="name" v="Ålbergsmyra" />
		<tag k="natural" v="wetland" />
		<tag k="ssr:stedsnr" v="499928" />
	</node>
	<node id="-817668" lat="64.1515388898" lon="11.2568777814">
		<tag k="name" v="Aunmyrån" />
		<tag k="natural" v="wetland" />
		<tag k="ssr:stedsnr" v="924753" />
	</node>
	<node id="-819711" lat="64.1229527811" lon="11.3555333436">
		<tag k="name" v="Litlkartmyra" />
		<tag k="natural" v="wetland" />
		<tag k="ssr:stedsnr" v="143767" />
	</node>
	<node id="-821758" lat="64.2011222187" lon="11.9736666691">
		<tag k="name" v="Litlstakkenget" />
		<tag k="natural" v="wetland" />
		<tag k="ssr:stedsnr" v="939970" />
	</node>
	<node id="-819707" lat="64.14982222" lon="11.4617611118">
		<tag k="landuse" v="meadow" />
		<tag k="name" v="Sotbergsenget" />
		<tag k="ssr:stedsnr" v="23576" />
	</node>
	<node id="-819967" lat="64.1927472228" lon="11.8458638919">
		<tag k="name" v="Kasperrønningen" />
		<tag k="place" v="locality" />
		<tag k="ssr:stedsnr" v="89883" />
	</node>
	<node id="-817654" lat="64.1471611099" lon="11.7338138952">
		<tag k="alt_name" v="Langmyra" />
		<tag k="name" v="Lyngmyra" />
		<tag k="natural" v="wetland" />
		<tag k="ssr:stedsnr" v="317280" />
	</node>
	<node id="-821749" lat="64.207780551" lon="11.9615111198">
		<tag k="name" v="Øver-Okstjønnmyra" />
		<tag k="natural" v="wetland" />
		<tag k="ssr:stedsnr" v="594814" />
	</node>
	<node id="-821748" lat="63.9608166676" lon="11.6657277732">
		<tag k="name" v="Trettarmyra" />
		<tag k="natural" v="wetland" />
		<tag k="ssr:stedsnr" v="28958" />
	</node>
	<node id="-821747" lat="63.9752575108" lon="12.065205145">
		<tag k="name" v="Høabrumyra" />
		<tag k="natural" v="wetland" />
		<tag k="ssr:stedsnr" v="48674" />
	</node>
	<node id="-817649" lat="64.0367750028" lon="11.3210444371">
		<tag k="name" v="Sjømarka" />
		<tag k="place" v="locality" />
		<tag k="ssr:stedsnr" v="803083" />
	</node>
	<node id="-821774" lat="64.0488916624" lon="11.836416657">
		<tag k="name" v="Skeissetermyran" />
		<tag k="natural" v="wetland" />
		<tag k="ssr:stedsnr" v="742608" />
	</node>
	<node id="-817640" lat="64.1315138917" lon="11.9096277779">
		<tag k="name" v="Brumyra" />
		<tag k="natural" v="wetland" />
		<tag k="ssr:stedsnr" v="696902" />
	</node>
	<node id="-821735" lat="64.13316389" lon="11.9248749945">
		<tag k="name" v="Tjurumyra" />
		<tag k="natural" v="wetland" />
		<tag k="ssr:stedsnr" v="574937" />
	</node>
	<node id="-821734" lat="64.1608249985" lon="11.7329722165">
		<tag k="name" v="Tjurublakkmyra" />
		<tag k="natural" v="wetland" />
		<tag k="ssr:stedsnr" v="878028" />
	</node>
	<node id="-822353" lat="64.145572224" lon="12.0262361204">
		<tag k="name" v="Storstakkenget" />
		<tag k="natural" v="wetland" />
		<tag k="ssr:stedsnr" v="939891" />
	</node>
	<node id="-821732" lat="64.0154638864" lon="11.9795055607">
		<tag k="name" v="Ambromyra" />
		<tag k="natural" v="wetland" />
		<tag k="ssr:stedsnr" v="48448" />
	</node>
	<node id="-819683" lat="64.1557916701" lon="11.4086138896">
		<tag k="name" v="Skjevikenget" />
		<tag k="natural" v="wetland" />
		<tag k="ssr:stedsnr" v="229496" />
	</node>
	<node id="-817634" lat="64.0836694449" lon="11.5120527806">
		<tag k="name" v="Oksåsmyra" />
		<tag k="natural" v="wetland" />
		<tag k="ssr:stedsnr" v="750626" />
	</node>
	<node id="-817632" lat="64.0983583324" lon="11.7765277833">
		<tag k="name" v="Liamyra" />
		<tag k="natural" v="wetland" />
		<tag k="ssr:stedsnr" v="473764" />
	</node>
	<node id="-821726" lat="64.1847527764" lon="11.689466674">
		<tag k="name" v="Bakkenget" />
		<tag k="natural" v="wetland" />
		<tag k="ssr:stedsnr" v="473214" />
	</node>
	<node id="-819675" lat="63.9182166677" lon="11.5483416581">
		<tag k="name" v="Stormyra" />
		<tag k="natural" v="wetland" />
		<tag k="ssr:stedsnr" v="629712" />
	</node>
	<node id="-819673" lat="64.0099333317" lon="11.7071638961">
		<tag k="name" v="Neset" />
		<tag k="place" v="locality" />
		<tag k="ssr:stedsnr" v="14341" />
	</node>
	<node id="-817624" lat="64.0525416642" lon="11.6678999923">
		<tag k="name" v="Middagsmyra" />
		<tag k="natural" v="wetland" />
		<tag k="ssr:stedsnr" v="89309" />
	</node>
	<node id="-817623" lat="64.1069027785" lon="11.7993611014">
		<tag k="name" v="Styggmarkmyra" />
		<tag k="natural" v="wetland" />
		<tag k="ssr:stedsnr" v="473767" />
	</node>
	<node id="-817620" lat="63.9607166652" lon="12.2657416657">
		<tag k="name" v="Lågvassfloin" />
		<tag k="natural" v="wetland" />
		<tag k="ssr:stedsnr" v="716660" />
	</node>
	<node id="-821715" lat="64.122899996" lon="11.2554194539">
		<tag k="name" v="Setermyra" />
		<tag k="natural" v="wetland" />
		<tag k="ssr:stedsnr" v="568763" />
	</node>
	<node id="-817617" lat="63.966488889" lon="11.6445388856">
		<tag k="name" v="Elimyra" />
		<tag k="natural" v="wetland" />
		<tag k="ssr:stedsnr" v="13996" />
	</node>
	<node id="-821712" lat="64.028669442" lon="12.0177944424">
		<tag k="name" v="Hollåsslettet" />
		<tag k="natural" v="wetland" />
		<tag k="ssr:stedsnr" v="959466" />
	</node>
	<node id="-820750" lat="64.1309916709" lon="11.8307666675">
		<tag k="name" v="Rognåsmyra" />
		<tag k="natural" v="wetland" />
		<tag k="ssr:stedsnr" v="696043" />
	</node>
	<node id="-820642" lat="63.9563777755" lon="12.0142138808">
		<tag k="name" v="Bruemsslættet" />
		<tag k="natural" v="wetland" />
		<tag k="ssr:stedsnr" v="196348" />
	</node>
	<node id="-820127" lat="63.9763666694" lon="11.5659750074">
		<tag k="name" v="Storslåttamyra" />
		<tag k="natural" v="wetland" />
		<tag k="ssr:stedsnr" v="446703" />
	</node>
	<node id="-819655" lat="64.1557527811" lon="11.607147217">
		<tag k="name" v="Gåsbroddmyra" />
		<tag k="natural" v="wetland" />
		<tag k="ssr:stedsnr" v="514424" />
	</node>
	<node id="-817605" lat="64.1306249991" lon="11.2717249994">
		<tag k="name" v="Hestmarka" />
		<tag k="place" v="locality" />
		<tag k="ssr:stedsnr" v="447723" />
	</node>
	<node id="-820364" lat="63.9285194489" lon="12.028577773">
		<tag k="name" v="Risbergslettet" />
		<tag k="place" v="locality" />
		<tag k="ssr:stedsnr" v="411513" />
	</node>
	<node id="-817603" lat="63.9979222255" lon="11.6753333437">
		<tag k="name" v="Seljemyra" />
		<tag k="natural" v="wetland" />
		<tag k="ssr:stedsnr" v="635387" />
	</node>
	<node id="-817600" lat="64.168238893" lon="11.6631472211">
		<tag k="name" v="Tjurugøtmyra" />
		<tag k="natural" v="wetland" />
		<tag k="ssr:stedsnr" v="655171" />
	</node>
	<node id="-817598" lat="64.0744527737" lon="11.4057111176">
		<tag k="name" v="Langmyra" />
		<tag k="natural" v="wetland" />
		<tag k="ssr:stedsnr" v="690611" />
	</node>
	<node id="-817597" lat="64.0104888924" lon="11.753063898">
		<tag k="name" v="Moan" />
		<tag k="place" v="locality" />
		<tag k="ssr:stedsnr" v="635385" />
	</node>
	<node id="-822346" lat="64.1086388859" lon="11.8145277798">
		<tag k="name" v="Sørfjellmyra" />
		<tag k="natural" v="wetland" />
		<tag k="ssr:stedsnr" v="594746" />
	</node>
	<node id="-819641" lat="63.8901194486" lon="11.5551472255">
		<tag k="name" v="Ståggåmyra" />
		<tag k="natural" v="wetland" />
		<tag k="ssr:stedsnr" v="83521" />
	</node>
	<node id="-817591" lat="64.1457694434" lon="11.2956388956">
		<tag k="name" v="Storkleivmyra" />
		<tag k="natural" v="wetland" />
		<tag k="ssr:stedsnr" v="447728" />
	</node>
	<node id="-819638" lat="64.1687611086" lon="11.6143083421">
		<tag k="name" v="Vargmyra" />
		<tag k="natural" v="wetland" />
		<tag k="ssr:stedsnr" v="897178" />
	</node>
	<node id="-819636" lat="64.1529861135" lon="11.7417472221">
		<tag k="name" v="Slåttdalsmyra" />
		<tag k="natural" v="wetland" />
		<tag k="ssr:stedsnr" v="28188" />
	</node>
	<node id="-821682" lat="63.9337111149" lon="11.7471527746">
		<tag k="name" v="Verkerslettet" />
		<tag k="natural" v="wetland" />
		<tag k="ssr:stedsnr" v="291565" />
	</node>
	<node id="-817585" lat="64.0659861111" lon="11.3693000069">
		<tag k="name" v="Langmyr" />
		<tag k="natural" v="wetland" />
		<tag k="ssr:stedsnr" v="257056" />
	</node>
	<node id="-817584" lat="64.1781694464" lon="11.6603999945">
		<tag k="name" v="Austeråssveenget" />
		<tag k="natural" v="wetland" />
		<tag k="ssr:stedsnr" v="838169" />
	</node>
	<node id="-821679" lat="64.1513055581" lon="11.4755416626">
		<tag k="landuse" v="meadow" />
		<tag k="name" v="Brattbergsenget" />
		<tag k="ssr:stedsnr" v="387556" />
	</node>
	<node id="-817582" lat="64.0551166713" lon="11.7876111059">
		<tag k="name" v="Setermyra" />
		<tag k="natural" v="wetland" />
		<tag k="ssr:stedsnr" v="49000" />
	</node>
	<node id="-821677" lat="64.1687694448" lon="11.5567777836">
		<tag k="name" v="Snevesenget" />
		<tag k="natural" v="wetland" />
		<tag k="ssr:stedsnr" v="716072" />
	</node>
	<node id="-821158" lat="64.1758750024" lon="11.7082416701">
		<tag k="name" v="Storgjøta" />
		<tag k="natural" v="wetland" />
		<tag k="ssr:stedsnr" v="210096" />
	</node>
	<node id="-822249" lat="64.1237888886" lon="11.47657501">
		<tag k="name" v="Torvmyra" />
		<tag k="natural" v="wetland" />
		<tag k="ssr:stedsnr" v="933587" />
	</node>
	<node id="-817573" lat="64.107536113" lon="11.4933833335">
		<tag k="name" v="Dalmyra" />
		<tag k="natural" v="wetland" />
		<tag k="ssr:stedsnr" v="690604" />
	</node>
	<node id="-821667" lat="63.872802781" lon="11.5340638891">
		<tag k="name" v="Flåmyran" />
		<tag k="natural" v="wetland" />
		<tag k="ssr:stedsnr" v="378168" />
	</node>
	<node id="-821665" lat="63.9694944454" lon="11.9466277701">
		<tag k="name" v="Skjølågrindmyra" />
		<tag k="natural" v="wetland" />
		<tag k="ssr:stedsnr" v="924357" />
	</node>
	<node id="-819615" lat="64.1724833299" lon="11.5862555537">
		<tag k="name" v="Byaenget" />
		<tag k="natural" v="wetland" />
		<tag k="ssr:stedsnr" v="594086" />
	</node>
	<node id="-817691" lat="64.0126972262" lon="12.1934000031">
		<tag k="name" v="Myrbermyra" />
		<tag k="natural" v="wetland" />
		<tag k="ssr:stedsnr" v="898312" />
	</node>
	<node id="-819608" lat="64.1945027781" lon="11.7873861024">
		<tag k="historic" v="shieling" />
		<tag k="name" v="Setervollen" />
		<tag k="place" v="locality" />
		<tag k="ssr:stedsnr" v="89797" />
	</node>
	<node id="-821645" lat="64.2168638927" lon="11.9569138878">
		<tag k="name" v="Dekkelmyra" />
		<tag k="natural" v="wetland" />
		<tag k="ssr:stedsnr" v="351832" />
	</node>
	<node id="-821642" lat="63.9645916661" lon="11.8803083319">
		<tag k="name" v="Middagsmyran" />
		<tag k="natural" v="wetland" />
		<tag k="ssr:stedsnr" v="878013" />
	</node>
	<node id="-819592" lat="63.924763891" lon="11.4985416709">
		<tag k="name" v="Stormyra" />
		<tag k="natural" v="wetland" />
		<tag k="ssr:stedsnr" v="386969" />
	</node>
	<node id="-817537" lat="64.0641833325" lon="11.7988166747">
		<tag k="name" v="Starrmyra" />
		<tag k="natural" v="wetland" />
		<tag k="ssr:stedsnr" v="48992" />
	</node>
	<node id="-819582" lat="64.0421527759" lon="11.6973916618">
		<tag k="name" v="Sognan" />
		<tag k="place" v="locality" />
		<tag k="ssr:stedsnr" v="964947" />
	</node>
	<node id="-819580" lat="64.2027666658" lon="11.9842527787">
		<tag k="name" v="Nerlangmyra" />
		<tag k="natural" v="wetland" />
		<tag k="ssr:stedsnr" v="149998" />
	</node>
	<node id="-817529" lat="63.9852583288" lon="12.0938805611">
		<tag k="name" v="Stormyra" />
		<tag k="natural" v="wetland" />
		<tag k="ssr:stedsnr" v="898293" />
	</node>
	<node id="-819576" lat="63.9537444435" lon="11.7584138871">
		<tag k="name" v="Bruemsslættet" />
		<tag k="natural" v="wetland" />
		<tag k="ssr:stedsnr" v="412893" />
	</node>
	<node id="-819570" lat="64.1941027746" lon="11.8002416608">
		<tag k="name" v="Fremmerbuhalsen" />
		<tag k="natural" v="wetland" />
		<tag k="ssr:stedsnr" v="89794" />
	</node>
	<node id="-817521" lat="64.1668138927" lon="11.5119361155">
		<tag k="name" v="Melhusenget" />
		<tag k="natural" v="wetland" />
		<tag k="ssr:stedsnr" v="109068" />
	</node>
	<node id="-819944" lat="64.0699611088" lon="11.7903111028">
		<tag k="name" v="Skjelmyra" />
		<tag k="natural" v="wetland" />
		<tag k="ssr:stedsnr" v="412994" />
	</node>
	<node id="-820285" lat="64.2512249985" lon="11.6684999979">
		<tag k="name" v="Storspøttmyra" />
		<tag k="natural" v="wetland" />
		<tag k="ssr:stedsnr" v="864866" />
	</node>
	<node id="-819564" lat="64.1219722195" lon="11.8116527685">
		<tag k="name" v="Setermyra" />
		<tag k="natural" v="wetland" />
		<tag k="ssr:stedsnr" v="29804" />
	</node>
	<node id="-819561" lat="64.053441665" lon="11.5306861141">
		<tag k="name" v="Tjønnmyra" />
		<tag k="natural" v="wetland" />
		<tag k="ssr:stedsnr" v="143726" />
	</node>
	<node id="-821308" lat="64.1243777778" lon="11.8458305636">
		<tag k="name" v="Tjurubekkmyra" />
		<tag k="natural" v="wetland" />
		<tag k="ssr:stedsnr" v="211776" />
	</node>
	<node id="-817510" lat="64.1635583323" lon="11.5099722321">
		<tag k="name" v="Oksåsenget" />
		<tag k="natural" v="wetland" />
		<tag k="ssr:stedsnr" v="109066" />
	</node>
	<node id="-817509" lat="63.8788500036" lon="11.4610361031">
		<tag k="name" v="Bergaunmyra" />
		<tag k="natural" v="wetland" />
		<tag k="ssr:stedsnr" v="559075" />
	</node>
	<node id="-817507" lat="63.9525777742" lon="11.8383555451">
		<tag k="name" v="Skarhaugmyra" />
		<tag k="natural" v="wetland" />
		<tag k="ssr:stedsnr" v="230544" />
	</node>
	<node id="-819553" lat="64.1659222225" lon="11.5335805635">
		<tag k="name" v="Vesterskeisenget" />
		<tag k="natural" v="wetland" />
		<tag k="ssr:stedsnr" v="594075" />
	</node>
	<node id="-817503" lat="64.0519750043" lon="11.7648222184">
		<tag k="name" v="Kammyra" />
		<tag k="natural" v="wetland" />
		<tag k="ssr:stedsnr" v="89274" />
	</node>
	<node id="-821589" lat="64.1708638861" lon="11.7814555534">
		<tag k="name" v="Austerenget" />
		<tag k="natural" v="wetland" />
		<tag k="ssr:stedsnr" v="574900" />
	</node>
	<node id="-819539" lat="64.0949472212" lon="11.5483972302">
		<tag k="name" v="Raudmyra" />
		<tag k="natural" v="wetland" />
		<tag k="ssr:stedsnr" v="629652" />
	</node>
	<node id="-817490" lat="64.2106027736" lon="11.9873916763">
		<tag k="historic" v="shieling" />
		<tag k="name" v="Heggeseteren" />
		<tag k="place" v="locality" />
		<tag k="ssr:stedsnr" v="453995" />
	</node>
	<node id="-817690" lat="64.0418694487" lon="11.2486833433">
		<tag k="name" v="Husmyra" />
		<tag k="natural" v="wetland" />
		<tag k="ssr:stedsnr" v="266235" />
	</node>
	<node id="-819535" lat="63.9127999989" lon="11.4436444448">
		<tag k="name" v="Leirvollan" />
		<tag k="place" v="locality" />
		<tag k="ssr:stedsnr" v="326999" />
	</node>
	<node id="-819533" lat="63.9643972265" lon="11.8463833307">
		<tag k="name" v="Sjumilsmyra" />
		<tag k="natural" v="wetland" />
		<tag k="ssr:stedsnr" v="803391" />
	</node>
	<node id="-819532" lat="64.1801722204" lon="11.4638722297">
		<tag k="name" v="Rennenget" />
		<tag k="natural" v="wetland" />
		<tag k="ssr:stedsnr" v="169748" />
	</node>
	<node id="-817480" lat="64.1231861109" lon="11.2377972177">
		<tag k="name" v="Tjønnmyra" />
		<tag k="natural" v="wetland" />
		<tag k="ssr:stedsnr" v="645616" />
	</node>
	<node id="-819526" lat="64.1626333377" lon="11.6117083357">
		<tag k="name" v="Kaukheimmyra" />
		<tag k="natural" v="wetland" />
		<tag k="ssr:stedsnr" v="837067" />
	</node>
	<node id="-819937" lat="63.9703694484" lon="11.6068194544">
		<tag k="name" v="Langmyra" />
		<tag k="natural" v="wetland" />
		<tag k="ssr:stedsnr" v="89869" />
	</node>
	<node id="-819524" lat="64.1346805557" lon="11.3942527709">
		<tag k="name" v="Kleivmyra" />
		<tag k="natural" v="wetland" />
		<tag k="ssr:stedsnr" v="83495" />
	</node>
	<node id="-819254" lat="63.9824916645" lon="11.6297750033">
		<tag k="name" v="Spongamyra" />
		<tag k="natural" v="wetland" />
		<tag k="ssr:stedsnr" v="149926" />
	</node>
	<node id="-821568" lat="64.1977555578" lon="11.8077555457">
		<tag k="name" v="Nordenget" />
		<tag k="natural" v="wetland" />
		<tag k="ssr:stedsnr" v="817818" />
	</node>
	<node id="-821567" lat="64.14366667" lon="11.6066499906">
		<tag k="historic" v="shieling" />
		<tag k="name" v="Knesseteren" />
		<tag k="place" v="locality" />
		<tag k="ssr:stedsnr" v="453431" />
	</node>
	<node id="-819764" lat="64.1942222262" lon="11.6342888945">
		<tag k="name" v="Giltmyra" />
		<tag k="natural" v="wetland" />
		<tag k="ssr:stedsnr" v="594123" />
	</node>
	<node id="-819594" lat="64.1412277782" lon="11.9608861037">
		<tag k="historic" v="shieling" />
		<tag k="name" v="Varghaugseteren" />
		<tag k="place" v="locality" />
		<tag k="ssr:stedsnr" v="635878" />
	</node>
	<node id="-819512" lat="64.1140083327" lon="11.5147000046">
		<tag k="name" v="Melhusmyran" />
		<tag k="natural" v="wetland" />
		<tag k="ssr:stedsnr" v="143713" />
	</node>
	<node id="-817462" lat="64.0540444408" lon="11.3233055468">
		<tag k="name" v="Hallsteinmyra" />
		<tag k="natural" v="wetland" />
		<tag k="ssr:stedsnr" v="872247" />
	</node>
	<node id="-817460" lat="63.958311113" lon="11.8543194473">
		<tag k="name" v="Pålåsmyra" />
		<tag k="natural" v="wetland" />
		<tag k="ssr:stedsnr" v="230543" />
	</node>
	<node id="-822664" lat="64.0451583366" lon="11.3232777769">
		<tag k="name" v="Rossmyra" />
		<tag k="natural" v="wetland" />
		<tag k="ssr:stedsnr" v="204178" />
	</node>
	<node id="-819500" lat="63.9153138864" lon="11.64011666">
		<tag k="name" v="Bjørnhusmyra" />
		<tag k="natural" v="wetland" />
		<tag k="ssr:stedsnr" v="514375" />
	</node>
	<node id="-817567" lat="64.1670666666" lon="11.8290916653">
		<tag k="name" v="Kringlåtmyra" />
		<tag k="natural" v="wetland" />
		<tag k="ssr:stedsnr" v="696865" />
	</node>
	<node id="-819493" lat="63.9433027809" lon="12.1003194381">
		<tag k="name" v="Grøtslettet" />
		<tag k="natural" v="wetland" />
		<tag k="ssr:stedsnr" v="838594" />
	</node>
	<node id="-817444" lat="64.1246333323" lon="11.4809111155">
		<tag k="name" v="Stormyra" />
		<tag k="natural" v="wetland" />
		<tag k="ssr:stedsnr" v="690595" />
	</node>
	<node id="-817440" lat="64.0243194452" lon="12.1351194521">
		<tag k="name" v="Stormyra" />
		<tag k="natural" v="wetland" />
		<tag k="ssr:stedsnr" v="898277" />
	</node>
	<node id="-819486" lat="63.944522226" lon="11.8859527685">
		<tag k="name" v="Tjuruholet" />
		<tag k="place" v="locality" />
		<tag k="ssr:stedsnr" v="109541" />
	</node>
	<node id="-821532" lat="64.1521194399" lon="11.677825006">
		<tag k="name" v="Skarillmyra" />
		<tag k="natural" v="wetland" />
		<tag k="ssr:stedsnr" v="210212" />
	</node>
	<node id="-817432" lat="64.0836638883" lon="11.8505111182">
		<tag k="name" v="Fikshusmyra" />
		<tag k="natural" v="wetland" />
		<tag k="ssr:stedsnr" v="48967" />
	</node>
	<node id="-821525" lat="64.1342055519" lon="11.6175388881">
		<tag k="name" v="Homyra" />
		<tag k="natural" v="wetland" />
		<tag k="ssr:stedsnr" v="453419" />
	</node>
	<node id="-817428" lat="63.8764749976" lon="11.5887861037">
		<tag k="name" v="Stormyra" />
		<tag k="natural" v="wetland" />
		<tag k="ssr:stedsnr" v="447683" />
	</node>
	<node id="-817427" lat="63.9887305568" lon="11.5465611121">
		<tag k="name" v="Hestmyra" />
		<tag k="natural" v="wetland" />
		<tag k="ssr:stedsnr" v="149482" />
	</node>
	<node id="-817422" lat="63.9378500024" lon="11.4309944537">
		<tag k="name" v="Prestgårdsskogen" />
		<tag k="place" v="locality" />
		<tag k="ssr:stedsnr" v="22968" />
	</node>
	<node id="-820269" lat="64.1070388849" lon="11.8097888812">
		<tag k="name" v="Stakkmyra" />
		<tag k="natural" v="wetland" />
		<tag k="ssr:stedsnr" v="109724" />
	</node>
	<node id="-819464" lat="64.135191668" lon="11.9062861022">
		<tag k="historic" v="shieling" />
		<tag k="name" v="Klingvollen" />
		<tag k="place" v="locality" />
		<tag k="ssr:stedsnr" v="635872" />
	</node>
	<node id="-819244" lat="64.0553166623" lon="11.781044443">
		<tag k="name" v="Stormyra" />
		<tag k="natural" v="wetland" />
		<tag k="ssr:stedsnr" v="594000" />
	</node>
	<node id="-821509" lat="64.2101361096" lon="11.9927333302">
		<tag k="name" v="Vassmyra" />
		<tag k="natural" v="wetland" />
		<tag k="ssr:stedsnr" v="514970" />
	</node>
	<node id="-821506" lat="64.133841667" lon="11.3611861042">
		<tag k="name" v="Langmyra" />
		<tag k="natural" v="wetland" />
		<tag k="ssr:stedsnr" v="568773" />
	</node>
	<node id="-821505" lat="64.1164972244" lon="11.7463222194">
		<tag k="name" v="Fuglmyra" />
		<tag k="natural" v="wetland" />
		<tag k="ssr:stedsnr" v="392117" />
	</node>
	<node id="-823336" lat="64.1458777754" lon="11.3772638855">
		<tag k="name" v="Vellaenget" />
		<tag k="natural" v="wetland" />
		<tag k="ssr:stedsnr" v="533505" />
	</node>
	<node id="-821501" lat="64.0548194424" lon="11.6502999964">
		<tag k="name" v="Stormyra" />
		<tag k="natural" v="wetland" />
		<tag k="ssr:stedsnr" v="696296" />
	</node>
	<node id="-819450" lat="63.9329222248" lon="11.6924833292">
		<tag k="alt_name" v="Henningslettet" />
		<tag k="name" v="Henningslættet" />
		<tag k="place" v="locality" />
		<tag k="ssr:stedsnr" v="514364" />
	</node>
	<node id="-820305" lat="64.1550777815" lon="11.596166667">
		<tag k="name" v="Vollagjøtin" />
		<tag k="natural" v="wetland" />
		<tag k="ssr:stedsnr" v="271447" />
	</node>
	<node id="-819446" lat="64.0409888881" lon="11.8410083368">
		<tag k="name" v="Skjefteslættet" />
		<tag k="natural" v="wetland" />
		<tag k="ssr:stedsnr" v="958920" />
	</node>
	<node id="-821492" lat="64.1250277734" lon="11.3639777832">
		<tag k="name" v="Storkartmyra" />
		<tag k="natural" v="wetland" />
		<tag k="ssr:stedsnr" v="568776" />
	</node>
	<node id="-821491" lat="64.195680553" lon="11.8096333369">
		<tag k="name" v="Bugjøta" />
		<tag k="natural" v="wetland" />
		<tag k="ssr:stedsnr" v="271833" />
	</node>
	<node id="-817393" lat="64.0376361125" lon="11.7153277877">
		<tag k="name" v="Kvennamyra" />
		<tag k="natural" v="wetland" />
		<tag k="ssr:stedsnr" v="89244" />
	</node>
	<node id="-819439" lat="63.959774999" lon="11.8447638872">
		<tag k="name" v="Gammelsetermyra" />
		<tag k="natural" v="wetland" />
		<tag k="ssr:stedsnr" v="838607" />
	</node>
	<node id="-821484" lat="63.9667333296" lon="11.9326083232">
		<tag k="name" v="Stakkstongmyra" />
		<tag k="natural" v="wetland" />
		<tag k="ssr:stedsnr" v="211915" />
	</node>
	<node id="-819433" lat="64.1481916621" lon="11.6516916764">
		<tag k="historic" v="shieling" />
		<tag k="name" v="Åsseteren" />
		<tag k="place" v="locality" />
		<tag k="ssr:stedsnr" v="271222" />
	</node>
	<node id="-822995" lat="64.1467361133" lon="11.3072888933">
		<tag k="name" v="Broddmyra" />
		<tag k="natural" v="wetland" />
		<tag k="ssr:stedsnr" v="22751" />
	</node>
	<node id="-821478" lat="64.1849833363" lon="11.6456111161">
		<tag k="name" v="Hoaenget" />
		<tag k="natural" v="wetland" />
		<tag k="ssr:stedsnr" v="473208" />
	</node>
	<node id="-817873" lat="64.1109666647" lon="11.5642611188">
		<tag k="name" v="Skeismyra" />
		<tag k="natural" v="wetland" />
		<tag k="ssr:stedsnr" v="750707" />
	</node>
	<node id="-821472" lat="64.1679444408" lon="11.5875527802">
		<tag k="name" v="Dalenget" />
		<tag k="natural" v="wetland" />
		<tag k="ssr:stedsnr" v="776078" />
	</node>
	<node id="-817374" lat="64.0179083293" lon="11.5751444381">
		<tag k="name" v="Brumyra" />
		<tag k="natural" v="wetland" />
		<tag k="ssr:stedsnr" v="878532" />
	</node>
	<node id="-817373" lat="64.0896277819" lon="11.7974388957">
		<tag k="name" v="Brannåsmyran" />
		<tag k="natural" v="wetland" />
		<tag k="ssr:stedsnr" v="864383" />
	</node>
	<node id="-819420" lat="63.8977666633" lon="11.543166668">
		<tag k="name" v="Raudmyra" />
		<tag k="natural" v="wetland" />
		<tag k="ssr:stedsnr" v="446537" />
	</node>
	<node id="-821467" lat="64.1012138861" lon="11.4547027704">
		<tag k="name" v="Svarvasmoen" />
		<tag k="place" v="locality" />
		<tag k="ssr:stedsnr" v="508606" />
	</node>
	<node id="-817369" lat="64.1272750034" lon="11.4827027692">
		<tag k="name" v="Stormyrdalen" />
		<tag k="natural" v="wetland" />
		<tag k="ssr:stedsnr" v="750545" />
	</node>
	<node id="-817366" lat="64.0452805515" lon="11.2564750059">
		<tag k="name" v="Breimyra" />
		<tag k="natural" v="wetland" />
		<tag k="ssr:stedsnr" v="559031" />
	</node>
	<node id="-820601" lat="64.0518083295" lon="11.2787888958">
		<tag k="name" v="Tennesmyra" />
		<tag k="natural" v="wetland" />
		<tag k="ssr:stedsnr" v="135011" />
	</node>
	<node id="-817364" lat="64.1802444487" lon="11.5815583348">
		<tag k="name" v="Eldråsenget" />
		<tag k="natural" v="wetland" />
		<tag k="ssr:stedsnr" v="655136" />
	</node>
	<node id="-817361" lat="64.128041669" lon="11.4801611108">
		<tag k="name" v="Tjønnmyra" />
		<tag k="natural" v="wetland" />
		<tag k="ssr:stedsnr" v="750547" />
	</node>
	<node id="-817528" lat="64.1648000032" lon="11.5110972222">
		<tag k="name" v="Ulvenenget" />
		<tag k="natural" v="wetland" />
		<tag k="ssr:stedsnr" v="109065" />
	</node>
	<node id="-821449" lat="63.9987305569" lon="11.6418555644">
		<tag k="name" v="Brumyra" />
		<tag k="natural" v="wetland" />
		<tag k="ssr:stedsnr" v="453386" />
	</node>
	<node id="-821447" lat="64.1271861123" lon="11.2405805478">
		<tag k="name" v="Finnkollmyra" />
		<tag k="natural" v="wetland" />
		<tag k="ssr:stedsnr" v="463627" />
	</node>
	<node id="-819396" lat="63.9825583298" lon="12.1293472126">
		<tag k="name" v="Vargmyra" />
		<tag k="natural" v="wetland" />
		<tag k="ssr:stedsnr" v="898711" />
	</node>
	<node id="-817345" lat="64.1883583325" lon="11.7641222148">
		<tag k="name" v="Langmyra" />
		<tag k="natural" v="wetland" />
		<tag k="ssr:stedsnr" v="170760" />
	</node>
	<node id="-819718" lat="63.9134138849" lon="11.4649638918">
		<tag k="name" v="Måssåvollen" />
		<tag k="place" v="locality" />
		<tag k="ssr:stedsnr" v="386997" />
	</node>
	<node id="-817342" lat="63.9711055525" lon="11.8072000029">
		<tag k="name" v="Håmmårslettet" />
		<tag k="place" v="locality" />
		<tag k="ssr:stedsnr" v="716588" />
	</node>
	<node id="-820597" lat="64.2024249967" lon="11.8297944495">
		<tag k="name" v="Svalmyra" />
		<tag k="natural" v="wetland" />
		<tag k="ssr:stedsnr" v="48178" />
	</node>
	<node id="-819387" lat="63.9225083318" lon="11.5245222169">
		<tag k="name" v="Tanemsmarka" />
		<tag k="place" v="locality" />
		<tag k="ssr:stedsnr" v="143690" />
	</node>
	<node id="-820255" lat="64.2179944443" lon="11.9654500003">
		<tag k="name" v="Stormyra" />
		<tag k="natural" v="wetland" />
		<tag k="ssr:stedsnr" v="655823" />
	</node>
	<node id="-821432" lat="63.960494448" lon="12.0890388809">
		<tag k="name" v="Hansmyra" />
		<tag k="natural" v="wetland" />
		<tag k="ssr:stedsnr" v="594513" />
	</node>
	<node id="-819382" lat="63.9883555601" lon="11.9409777735">
		<tag k="name" v="Rikjesmyra" />
		<tag k="natural" v="wetland" />
		<tag k="ssr:stedsnr" v="412866" />
	</node>
	<node id="-819380" lat="64.1579333318" lon="11.5583722252">
		<tag k="name" v="Stumyra" />
		<tag k="natural" v="wetland" />
		<tag k="ssr:stedsnr" v="629638" />
	</node>
	<node id="-821278" lat="64.0894777772" lon="11.5532444487">
		<tag k="name" v="Svartåsmyra" />
		<tag k="natural" v="wetland" />
		<tag k="ssr:stedsnr" v="568622" />
	</node>
	<node id="-821426" lat="63.9802416641" lon="11.8505666597">
		<tag k="name" v="Grøndyet" />
		<tag k="natural" v="wetland" />
		<tag k="ssr:stedsnr" v="392018" />
	</node>
	<node id="-817327" lat="64.0610277733" lon="11.4692750074">
		<tag k="name" v="Drættmyra" />
		<tag k="natural" v="wetland" />
		<tag k="ssr:stedsnr" v="22936" />
	</node>
	<node id="-819374" lat="63.9895166625" lon="11.7098916692">
		<tag k="name" v="Kormyra" />
		<tag k="natural" v="wetland" />
		<tag k="ssr:stedsnr" v="817270" />
	</node>
	<node id="-817325" lat="63.9533055592" lon="12.083983329">
		<tag k="name" v="Vasslettet" />
		<tag k="natural" v="wetland" />
		<tag k="ssr:stedsnr" v="716561" />
	</node>
	<node id="-821416" lat="64.0659138893" lon="11.7821027804">
		<tag k="name" v="Blæsetermyra" />
		<tag k="natural" v="wetland" />
		<tag k="ssr:stedsnr" v="109999" />
	</node>
	<node id="-822641" lat="64.1978000027" lon="11.7328833363">
		<tag k="name" v="Neråssveenget" />
		<tag k="natural" v="wetland" />
		<tag k="ssr:stedsnr" v="230223" />
	</node>
	<node id="-821411" lat="64.0400000012" lon="11.454836103">
		<tag k="name" v="Sveet" />
		<tag k="place" v="locality" />
		<tag k="ssr:stedsnr" v="514871" />
	</node>
	<node id="-821410" lat="64.1932138928" lon="11.8826777874">
		<tag k="name" v="Korpmyra" />
		<tag k="natural" v="wetland" />
		<tag k="ssr:stedsnr" v="817780" />
	</node>
	<node id="-819358" lat="64.1751888917" lon="11.8019583384">
		<tag k="name" v="Skattesmyråsen" />
		<tag k="natural" v="wetland" />
		<tag k="ssr:stedsnr" v="635846" />
	</node>
	<node id="-820250" lat="64.0541222242" lon="11.4169722296">
		<tag k="name" v="Vargmyra" />
		<tag k="natural" v="wetland" />
		<tag k="ssr:stedsnr" v="143911" />
	</node>
	<node id="-821402" lat="63.9829694473" lon="11.5608416765">
		<tag k="name" v="Gåsmyra" />
		<tag k="natural" v="wetland" />
		<tag k="ssr:stedsnr" v="385714" />
	</node>
	<node id="-822240" lat="63.9832388857" lon="11.7085805496">
		<tag k="name" v="Gustmyrin" />
		<tag k="natural" v="wetland" />
		<tag k="ssr:stedsnr" v="897874" />
	</node>
	<node id="-819352" lat="64.1161972258" lon="11.705858329">
		<tag k="landuse" v="meadow" />
		<tag k="name" v="Gustenget" />
		<tag k="ssr:stedsnr" v="28114" />
	</node>
	<node id="-821399" lat="63.9617388873" lon="12.0282638847">
		<tag k="name" v="Merkesmyra" />
		<tag k="natural" v="wetland" />
		<tag k="ssr:stedsnr" v="594499" />
	</node>
	<node id="-819350" lat="64.1581472265" lon="11.4168749984">
		<tag k="name" v="Kvamsengenget" />
		<tag k="natural" v="wetland" />
		<tag k="ssr:stedsnr" v="775473" />
	</node>
	<node id="-819348" lat="64.0326444426" lon="11.7271027852">
		<tag k="alt_name" v="Ølsetmyra" />
		<tag k="name" v="Kvitmyra" />
		<tag k="natural" v="wetland" />
		<tag k="ssr:stedsnr" v="863662" />
	</node>
	<node id="-817296" lat="63.93899167" lon="11.6483722159">
		<tag k="name" v="Langmyra" />
		<tag k="natural" v="wetland" />
		<tag k="ssr:stedsnr" v="272312" />
	</node>
	<node id="-821391" lat="64.1722888846" lon="11.7708166659">
		<tag k="historic" v="shieling" />
		<tag k="name" v="Brunstadseteren" />
		<tag k="place" v="locality" />
		<tag k="ssr:stedsnr" v="514851" />
	</node>
	<node id="-821389" lat="64.0532416698" lon="11.7791444476">
		<tag k="name" v="Erikmyra" />
		<tag k="natural" v="wetland" />
		<tag k="ssr:stedsnr" v="109996" />
	</node>
	<node id="-819338" lat="64.1739277749" lon="11.8087166597">
		<tag k="name" v="Skattesmyra" />
		<tag k="natural" v="wetland" />
		<tag k="ssr:stedsnr" v="635839" />
	</node>
	<node id="-819648" lat="63.973530555" lon="11.8823888807">
		<tag k="name" v="Hårråmyra" />
		<tag k="natural" v="wetland" />
		<tag k="ssr:stedsnr" v="14340" />
	</node>
	<node id="-819335" lat="64.0638833353" lon="11.7739750087">
		<tag k="name" v="Buvegmyra" />
		<tag k="natural" v="wetland" />
		<tag k="ssr:stedsnr" v="230998" />
	</node>
	<node id="-821381" lat="64.1807916699" lon="11.8650111105">
		<tag k="name" v="Øksnesmyra" />
		<tag k="natural" v="wetland" />
		<tag k="ssr:stedsnr" v="514860" />
	</node>
	<node id="-821380" lat="64.1449111131" lon="11.6561472199">
		<tag k="name" v="Gunhildsmyra" />
		<tag k="natural" v="wetland" />
		<tag k="ssr:stedsnr" v="696196" />
	</node>
	<node id="-817283" lat="64.1258000018" lon="11.7710583295">
		<tag k="name" v="Marksteinmyra" />
		<tag k="natural" v="wetland" />
		<tag k="ssr:stedsnr" v="696815" />
	</node>
	<node id="-821378" lat="63.884688891" lon="11.5256083278">
		<tag k="name" v="Stormyra" />
		<tag k="natural" v="wetland" />
		<tag k="ssr:stedsnr" v="508588" />
	</node>
	<node id="-821373" lat="63.9577277793" lon="11.4860805565">
		<tag k="name" v="Øysteråsmyra" />
		<tag k="natural" v="wetland" />
		<tag k="ssr:stedsnr" v="317881" />
	</node>
	<node id="-817275" lat="64.0515361123" lon="11.4690888892">
		<tag k="name" v="Følmyra" />
		<tag k="natural" v="wetland" />
		<tag k="ssr:stedsnr" v="22918" />
	</node>
	<node id="-821368" lat="64.058375004" lon="11.8418888862">
		<tag k="name" v="Storinnbrynsmyra" />
		<tag k="natural" v="wetland" />
		<tag k="ssr:stedsnr" v="924286" />
	</node>
	<node id="-821365" lat="64.1466750028" lon="11.4560750038">
		<tag k="landuse" v="meadow" />
		<tag k="name" v="Holmfetenget" />
		<tag k="ssr:stedsnr" v="508562" />
	</node>
	<node id="-817267" lat="64.1614750002" lon="11.6850999943">
		<tag k="name" v="Bjønnhola" />
		<tag k="place" v="locality" />
		<tag k="ssr:stedsnr" v="898229" />
	</node>
	<node id="-821360" lat="63.8984888856" lon="11.6490138851">
		<tag k="name" v="Hundkjerka" />
		<tag k="natural" v="stone" />
		<tag k="ssr:stedsnr" v="150448" />
	</node>
	<node id="-817262" lat="63.958649998" lon="11.6582472269">
		<tag k="name" v="Geitakløyvmyra" />
		<tag k="natural" v="wetland" />
		<tag k="ssr:stedsnr" v="453939" />
	</node>
	<node id="-821357" lat="64.079669446" lon="11.7429444488">
		<tag k="name" v="Pålmyra" />
		<tag k="natural" v="wetland" />
		<tag k="ssr:stedsnr" v="210150" />
	</node>
	<node id="-819304" lat="63.9822638873" lon="11.4522916697">
		<tag k="name" v="Annfinnmyra" />
		<tag k="natural" v="wetland" />
		<tag k="ssr:stedsnr" v="386882" />
	</node>
	<node id="-817254" lat="64.0661944428" lon="11.3769055626">
		<tag k="name" v="Vargmyra" />
		<tag k="natural" v="wetland" />
		<tag k="ssr:stedsnr" v="22912" />
	</node>
	<node id="-822289" lat="64.1587722218" lon="11.9960722145">
		<tag k="name" v="Setermyra" />
		<tag k="natural" v="wetland" />
		<tag k="ssr:stedsnr" v="817992" />
	</node>
	<node id="-817252" lat="64.0164861125" lon="12.2568416679">
		<tag k="name" v="Stormyra" />
		<tag k="natural" v="wetland" />
		<tag k="ssr:stedsnr" v="352307" />
	</node>
	<node id="-820240" lat="64.1132777776" lon="11.5757250082">
		<tag k="name" v="Semsmyra" />
		<tag k="natural" v="wetland" />
		<tag k="ssr:stedsnr" v="817505" />
	</node>
	<node id="-821340" lat="64.1792888883" lon="11.6354638859">
		<tag k="name" v="Hallanenget" />
		<tag k="natural" v="wetland" />
		<tag k="ssr:stedsnr" v="473103" />
	</node>
	<node id="-817243" lat="64.1848833292" lon="11.6612444426">
		<tag k="name" v="Gjerstadengan" />
		<tag k="natural" v="wetland" />
		<tag k="ssr:stedsnr" v="898188" />
	</node>
	<node id="-821338" lat="64.0346805579" lon="11.8055583311">
		<tag k="name" v="Setermyra" />
		<tag k="natural" v="wetland" />
		<tag k="ssr:stedsnr" v="715972" />
	</node>
	<node id="-817241" lat="64.0565444406" lon="11.4357749955">
		<tag k="name" v="Stakkmyra" />
		<tag k="natural" v="wetland" />
		<tag k="ssr:stedsnr" v="22909" />
	</node>
	<node id="-821334" lat="64.0515194408" lon="11.9262416596">
		<tag k="name" v="Tjønnmyran" />
		<tag k="natural" v="wetland" />
		<tag k="ssr:stedsnr" v="924284" />
	</node>
	<node id="-821333" lat="64.0873972227" lon="11.6958166694">
		<tag k="name" v="Leinsdyenget" />
		<tag k="place" v="locality" />
		<tag k="ssr:stedsnr" v="210144" />
	</node>
	<node id="-819284" lat="63.9703249963" lon="11.9021055574">
		<tag k="name" v="Harramyra" />
		<tag k="natural" v="wetland" />
		<tag k="ssr:stedsnr" v="149935" />
	</node>
	<node id="-821329" lat="63.9613111115" lon="12.0586333376">
		<tag k="name" v="Sagmyrin" />
		<tag k="natural" v="wetland" />
		<tag k="ssr:stedsnr" v="534551" />
	</node>
	<node id="-819280" lat="64.101036115" lon="11.6975777746">
		<tag k="name" v="Stokkmyra" />
		<tag k="natural" v="wetland" />
		<tag k="ssr:stedsnr" v="211255" />
	</node>
	<node id="-819277" lat="63.9621694481" lon="11.6435194477">
		<tag k="name" v="Okstadmyra" />
		<tag k="natural" v="wetland" />
		<tag k="ssr:stedsnr" v="135868" />
	</node>
	<node id="-821324" lat="64.1174944459" lon="11.8376055577">
		<tag k="historic" v="shieling" />
		<tag k="name" v="Åsseteren" />
		<tag k="place" v="locality" />
		<tag k="ssr:stedsnr" v="211772" />
	</node>
	<node id="-817227" lat="64.1675222212" lon="11.5217444428">
		<tag k="name" v="Følingenget" />
		<tag k="natural" v="wetland" />
		<tag k="ssr:stedsnr" v="838077" />
	</node>
	<node id="-819274" lat="64.0606749963" lon="11.8157222316">
		<tag k="name" v="Hundtjønnenget" />
		<tag k="place" v="locality" />
		<tag k="ssr:stedsnr" v="593993" />
	</node>
	<node id="-819895" lat="64.1649083306" lon="11.6108138815">
		<tag k="name" v="Korsmyra" />
		<tag k="natural" v="wetland" />
		<tag k="ssr:stedsnr" v="837176" />
	</node>
	<node id="-819271" lat="64.0668527767" lon="11.7911749966">
		<tag k="name" v="Krokhesjjan" />
		<tag k="natural" v="wetland" />
		<tag k="ssr:stedsnr" v="593994" />
	</node>
	<node id="-821318" lat="63.9661749979" lon="11.5456999989">
		<tag k="name" v="Ryggamyra" />
		<tag k="natural" v="wetland" />
		<tag k="ssr:stedsnr" v="317858" />
	</node>
	<node id="-819269" lat="64.1343222257" lon="11.2001972282">
		<tag k="name" v="Mikkelenget" />
		<tag k="natural" v="wetland" />
		<tag k="ssr:stedsnr" v="524573" />
	</node>
	<node id="-819264" lat="64.1283277768" lon="11.9397611172">
		<tag k="historic" v="shieling" />
		<tag k="name" v="Erikseteren" />
		<tag k="place" v="locality" />
		<tag k="ssr:stedsnr" v="149928" />
	</node>
	<node id="-823356" lat="63.9715611148" lon="11.6206861125">
		<tag k="name" v="Årengsmyra" />
		<tag k="natural" v="wetland" />
		<tag k="ssr:stedsnr" v="453873" />
	</node>
	<node id="-817210" lat="64.0799611117" lon="11.5571194424">
		<tag k="name" v="Seterenget" />
		<tag k="natural" v="wetland" />
		<tag k="ssr:stedsnr" v="447626" />
	</node>
	<node id="-821305" lat="64.0355388849" lon="11.6973888835">
		<tag k="name" v="Teigen" />
		<tag k="place" v="locality" />
		<tag k="ssr:stedsnr" v="756226" />
	</node>
	<node id="-823352" lat="63.9709472183" lon="11.5986916709">
		<tag k="name" v="Dølenget" />
		<tag k="place" v="locality" />
		<tag k="ssr:stedsnr" v="453872" />
	</node>
	<node id="-823351" lat="64.0079277805" lon="12.1168861179">
		<tag k="name" v="Rundmyra" />
		<tag k="natural" v="wetland" />
		<tag k="ssr:stedsnr" v="352256" />
	</node>
	<node id="-823350" lat="64.0179083376" lon="12.1129750045">
		<tag k="name" v="Kleivtjønnmyra" />
		<tag k="natural" v="wetland" />
		<tag k="ssr:stedsnr" v="352258" />
	</node>
	<node id="-819252" lat="64.1758111128" lon="11.8413472191">
		<tag k="name" v="Rønningan" />
		<tag k="place" v="locality" />
		<tag k="ssr:stedsnr" v="635819" />
	</node>
	<node id="-823347" lat="63.9734805539" lon="11.6105750063">
		<tag k="name" v="Furubergmyra" />
		<tag k="natural" v="wetland" />
		<tag k="ssr:stedsnr" v="453876" />
	</node>
	<node id="-821297" lat="64.0444305568" lon="11.5129222146">
		<tag k="name" v="Tjurrumyra" />
		<tag k="natural" v="wetland" />
		<tag k="ssr:stedsnr" v="681101" />
	</node>
	<node id="-823341" lat="64.049475002" lon="11.3103194378">
		<tag k="name" v="Stormyra" />
		<tag k="natural" v="wetland" />
		<tag k="ssr:stedsnr" v="386223" />
	</node>
	<node id="-823340" lat="63.9983111088" lon="11.5542444351">
		<tag k="name" v="Storaunet" />
		<tag k="place" v="locality" />
		<tag k="ssr:stedsnr" v="392530" />
	</node>
	<node id="-823339" lat="63.9897194454" lon="11.5335555485">
		<tag k="name" v="Slåttamyra" />
		<tag k="natural" v="wetland" />
		<tag k="ssr:stedsnr" v="392531" />
	</node>
	<node id="-817197" lat="64.1828555582" lon="11.6709694461">
		<tag k="name" v="Persgardsenget" />
		<tag k="natural" v="wetland" />
		<tag k="ssr:stedsnr" v="898187" />
	</node>
	<node id="-821287" lat="64.1561833341" lon="11.739697215">
		<tag k="name" v="Stokkgjøtin" />
		<tag k="natural" v="wetland" />
		<tag k="ssr:stedsnr" v="696175" />
	</node>
	<node id="-821286" lat="64.1511361068" lon="11.5232138969">
		<tag k="name" v="Erikslættet" />
		<tag k="natural" v="wetland" />
		<tag k="ssr:stedsnr" v="568619" />
	</node>
	<node id="-817189" lat="64.151980551" lon="11.6058333423">
		<tag k="name" v="Raudmyra" />
		<tag k="natural" v="wetland" />
		<tag k="ssr:stedsnr" v="149410" />
	</node>
	<node id="-823331" lat="64.0503750036" lon="11.4282055534">
		<tag k="name" v="Kringelmyra" />
		<tag k="natural" v="wetland" />
		<tag k="ssr:stedsnr" v="447571" />
	</node>
	<node id="-821282" lat="64.199541671" lon="11.790261118">
		<tag k="name" v="Selengmyrin" />
		<tag k="natural" v="wetland" />
		<tag k="ssr:stedsnr" v="574831" />
	</node>
	<node id="-821280" lat="63.9930916707" lon="11.9039833386">
		<tag k="name" v="Bergan" />
		<tag k="place" v="locality" />
		<tag k="ssr:stedsnr" v="742388" />
	</node>
	<node id="-823327" lat="64.1285861085" lon="11.2064222166">
		<tag k="name" v="Joenget" />
		<tag k="natural" v="wetland" />
		<tag k="ssr:stedsnr" v="888607" />
	</node>
	<node id="-817182" lat="63.9502027818" lon="11.4669333282">
		<tag k="name" v="Plassamyra" />
		<tag k="natural" v="wetland" />
		<tag k="ssr:stedsnr" v="22897" />
	</node>
	<node id="-823325" lat="63.9911777756" lon="12.1591472122">
		<tag k="name" v="Smedsetermyra" />
		<tag k="natural" v="wetland" />
		<tag k="ssr:stedsnr" v="412276" />
	</node>
	<node id="-817175" lat="64.1988777741" lon="11.8046055652">
		<tag k="historic" v="shieling" />
		<tag k="name" v="Setervollen" />
		<tag k="place" v="locality" />
		<tag k="ssr:stedsnr" v="756815" />
	</node>
	<node id="-821270" lat="64.1337111145" lon="11.4150027706">
		<tag k="name" v="Litlenget" />
		<tag k="natural" v="wetland" />
		<tag k="ssr:stedsnr" v="508556" />
	</node>
	<node id="-819221" lat="63.9884499986" lon="11.73978333">
		<tag k="name" v="Busttjønnmyra" />
		<tag k="natural" v="wetland" />
		<tag k="ssr:stedsnr" v="574295" />
	</node>
	<node id="-819217" lat="64.0173666708" lon="11.6521833402">
		<tag k="name" v="Stormyra" />
		<tag k="natural" v="wetland" />
		<tag k="ssr:stedsnr" v="377763" />
	</node>
	<node id="-822616" lat="64.1715555576" lon="11.5989555581">
		<tag k="name" v="Moaenget" />
		<tag k="natural" v="wetland" />
		<tag k="ssr:stedsnr" v="290194" />
	</node>
	<node id="-823310" lat="64.1131916627" lon="11.4964999919">
		<tag k="name" v="Rostadmyra" />
		<tag k="natural" v="wetland" />
		<tag k="ssr:stedsnr" v="447552" />
	</node>
	<node id="-823309" lat="63.9696138931" lon="11.4740583313">
		<tag k="name" v="Helvetesmyra" />
		<tag k="natural" v="wetland" />
		<tag k="ssr:stedsnr" v="933906" />
	</node>
	<node id="-819619" lat="64.1545888905" lon="11.2895277867">
		<tag k="name" v="Geilmyra" />
		<tag k="natural" v="wetland" />
		<tag k="ssr:stedsnr" v="143740" />
	</node>
	<node id="-819210" lat="64.0931194407" lon="11.5490722124">
		<tag k="name" v="Raudmyra" />
		<tag k="natural" v="wetland" />
		<tag k="ssr:stedsnr" v="143644" />
	</node>
	<node id="-823305" lat="64.0687583329" lon="11.2880083319">
		<tag k="name" v="Brekkaunet" />
		<tag k="place" v="locality" />
		<tag k="ssr:stedsnr" v="872125" />
	</node>
	<node id="-821256" lat="64.1799722252" lon="11.8079500094">
		<tag k="name" v="Småmyrin" />
		<tag k="natural" v="wetland" />
		<tag k="ssr:stedsnr" v="574813" />
	</node>
	<node id="-819207" lat="63.9540527739" lon="11.4132361029">
		<tag k="name" v="Mæresmyra" />
		<tag k="natural" v="wetland" />
		<tag k="ssr:stedsnr" v="326909" />
	</node>
	<node id="-820225" lat="63.9789250045" lon="11.5574027717">
		<tag k="name" v="Vargmyra" />
		<tag k="natural" v="wetland" />
		<tag k="ssr:stedsnr" v="83701" />
	</node>
	<node id="-823299" lat="64.0486638908" lon="12.0738333387">
		<tag k="name" v="Sjuttuholmyra" />
		<tag k="natural" v="wetland" />
		<tag k="ssr:stedsnr" v="716494" />
	</node>
	<node id="-821931" lat="64.0563972222" lon="11.6589999941">
		<tag k="name" v="Pempillen" />
		<tag k="natural" v="wetland" />
		<tag k="ssr:stedsnr" v="210317" />
	</node>
</osm>
