<?xml version="1.0" encoding="UTF-8"?>
<osm generator="osmapis" version="0.6">
	<node id="-823802" lat="63.8947111154" lon="11.3591416675">
		<tag k="name" v="Hestvika" />
		<tag k="natural" v="bay" />
		<tag k="ssr:stedsnr" v="690159" />
	</node>
	<node id="-819705" lat="64.003902776" lon="11.491805546">
		<tag k="name" v="Figgja" />
		<tag k="natural" v="cape" />
		<tag k="ssr:stedsnr" v="317379" />
	</node>
	<node id="-823791" lat="63.9162583326" lon="11.3687722265">
		<tag k="name" v="Våsetbukta" />
		<tag k="natural" v="bay" />
		<tag k="ssr:stedsnr" v="690126" />
	</node>
	<node id="-823268" lat="64.1104194407" lon="11.3421749943">
		<tag k="name" v="Låtra" />
		<tag k="natural" v="cape" />
		<tag k="ssr:stedsnr" v="378183" />
	</node>
	<node id="-819706" lat="64.0358777814" lon="11.3367000099">
		<tag k="name" v="Øystersjøholmen" />
		<tag k="place" v="islet" />
		<tag k="ssr:stedsnr" v="14104" />
	</node>
	<node id="-823766" lat="63.9069777782" lon="11.3614444363">
		<tag k="name" v="Landvikbukta" />
		<tag k="natural" v="bay" />
		<tag k="ssr:stedsnr" v="690121" />
	</node>
	<node id="-820692" lat="63.9019000036" lon="11.3522722325">
		<tag k="fixme" v="consider seamark:type=rock or natural=shoal" />
		<tag k="name" v="Blindskjæret" />
		<tag k="place" v="islet" />
		<tag k="ssr:stedsnr" v="772154" />
	</node>
	<node id="-821201" lat="63.9299555527" lon="11.3680861035">
		<tag k="name" v="Naustlandet" />
		<tag k="natural" v="cape" />
		<tag k="ssr:stedsnr" v="924013" />
	</node>
	<node id="-824778" lat="64.018502777" lon="11.2584749973">
		<tag k="name" v="Fjordgrunnen" />
		<tag k="natural" v="shoal" />
		<tag k="place" v="locality" />
		<tag k="ssr:stedsnr" v="773195" />
	</node>
	<node id="-823234" lat="64.0344666625" lon="11.3129833321">
		<tag k="name" v="Bråttåtangen" />
		<tag k="natural" v="cape" />
		<tag k="ssr:stedsnr" v="690233" />
	</node>
	<node id="-819132" lat="64.0144027774" lon="11.4333055633">
		<tag k="name" v="Skåtangen" />
		<tag k="natural" v="cape" />
		<tag k="ssr:stedsnr" v="803069" />
	</node>
	<node id="-819643" lat="63.9731583328" lon="11.4102611158">
		<tag k="name" v="Frøsetvågen" />
		<tag k="natural" v="bay" />
		<tag k="ssr:stedsnr" v="439987" />
	</node>
	<node id="-819124" lat="64.0323055552" lon="11.2809500101">
		<tag k="name" v="Skjeviksundet" />
		<tag k="natural" v="strait" />
		<tag k="ssr:stedsnr" v="955155" />
	</node>
	<node id="-820138" lat="63.9215138909" lon="11.3681277696">
		<tag k="name" v="Tønnelandet" />
		<tag k="natural" v="beach" />
		<tag k="place" v="locality" />
		<tag k="ssr:stedsnr" v="499006" />
	</node>
	<node id="-822692" lat="63.9124098965" lon="11.3725936361">
		<tag k="name" v="Jomfruneset" />
		<tag k="natural" v="cape" />
		<tag k="ssr:stedsnr" v="348447" />
	</node>
	<node id="-822086" lat="64.0734555574" lon="11.6334972184">
		<tag k="name" v="Forsetholmen" />
		<tag k="place" v="islet" />
		<tag k="ssr:stedsnr" v="939408" />
	</node>
	<node id="-823713" lat="63.916208333" lon="11.3757583287">
		<tag k="name" v="Våsetbukta" />
		<tag k="natural" v="bay" />
		<tag k="ssr:stedsnr" v="74015" />
	</node>
	<node id="-819616" lat="63.9724305544" lon="11.3765416615">
		<tag k="name" v="Kroksvågen" />
		<tag k="natural" v="bay" />
		<tag k="ssr:stedsnr" v="439988" />
	</node>
	<node id="-823195" lat="64.0224888886" lon="11.3104833246">
		<tag k="fixme" v="consider seamark:type=rock or natural=shoal" />
		<tag k="name" v="Fjordskjæret" />
		<tag k="place" v="islet" />
		<tag k="ssr:stedsnr" v="711151" />
	</node>
	<node id="-819610" lat="64.106258335" lon="11.3396500032">
		<tag k="bay" v="fjord" />
		<tag k="name" v="Hjellbotn" />
		<tag k="natural" v="bay" />
		<tag k="ssr:stedsnr" v="257151" />
	</node>
	<node id="-820087" lat="64.0251083377" lon="11.4315972294">
		<tag k="name" v="Lundleiret" />
		<tag k="natural" v="shoal" />
		<tag k="place" v="locality" />
		<tag k="ssr:stedsnr" v="690924" />
	</node>
	<node id="-822646" lat="64.0224499962" lon="11.258580558">
		<tag k="name" v="Hammartangflua" />
		<tag k="place" v="locality" />
		<tag k="seamark:type" v="rock" />
		<tag k="ssr:stedsnr" v="591151" />
	</node>
	<node id="-820455" lat="64.0147416627" lon="11.4446333322">
		<tag k="name" v="Paradisbukta" />
		<tag k="natural" v="bay" />
		<tag k="ssr:stedsnr" v="499055" />
	</node>
	<node id="-820454" lat="64.090236107" lon="11.3257861148">
		<tag k="name" v="Utvikøra" />
		<tag k="natural" v="beach" />
		<tag k="place" v="locality" />
		<tag k="ssr:stedsnr" v="326856" />
	</node>
	<node id="-824162" lat="64.0121083288" lon="11.4542388931">
		<tag k="name" v="Steinvika" />
		<tag k="natural" v="bay" />
		<tag k="ssr:stedsnr" v="28955" />
	</node>
	<node id="-818529" lat="63.9691194465" lon="11.3762694436">
		<tag k="name" v="Langåsleiret" />
		<tag k="natural" v="shoal" />
		<tag k="place" v="locality" />
		<tag k="ssr:stedsnr" v="22867" />
	</node>
	<node id="-824665" lat="64.0195583334" lon="11.3776583379">
		<tag k="name" v="Armodshylla" />
		<tag k="natural" v="cape" />
		<tag k="ssr:stedsnr" v="530169" />
	</node>
	<node id="-820563" lat="64.0325888918" lon="11.3070972275">
		<tag k="name" v="Skarrholmen" />
		<tag k="place" v="islet" />
		<tag k="ssr:stedsnr" v="196075" />
	</node>
	<node id="-821585" lat="63.9465194464" lon="11.3817638854">
		<tag k="name" v="Lønnemsleira" />
		<tag k="natural" v="shoal" />
		<tag k="place" v="locality" />
		<tag k="ssr:stedsnr" v="143883" />
	</node>
	<node id="-819532" lat="63.9848444406" lon="11.4230944515">
		<tag k="name" v="Ålegrunnen" />
		<tag k="natural" v="shoal" />
		<tag k="place" v="locality" />
		<tag k="ssr:stedsnr" v="955264" />
	</node>
	<node id="-820041" lat="63.9740833323" lon="11.4070749983">
		<tag k="name" v="Tjeldberget" />
		<tag k="place" v="islet" />
		<tag k="ssr:stedsnr" v="750854" />
	</node>
	<node id="-823622" lat="63.9727166669" lon="11.4095111042">
		<tag k="name" v="Holleiret" />
		<tag k="natural" v="shoal" />
		<tag k="place" v="locality" />
		<tag k="ssr:stedsnr" v="568865" />
	</node>
	<node id="-818498" lat="64.0713694449" lon="11.2707166577">
		<tag k="name" v="Holmfetbukta" />
		<tag k="natural" v="bay" />
		<tag k="ssr:stedsnr" v="386245" />
	</node>
	<node id="-824625" lat="64.0196499969" lon="11.4002722189">
		<tag k="alt_name" v="Loaskjæret" />
		<tag k="fixme" v="consider seamark:type=rock or natural=shoal" />
		<tag k="name" v="Gylta" />
		<tag k="place" v="islet" />
		<tag k="ssr:stedsnr" v="620088" />
	</node>
	<node id="-824617" lat="63.9163472249" lon="11.3759138871">
		<tag k="name" v="Våsetleiret" />
		<tag k="natural" v="shoal" />
		<tag k="place" v="locality" />
		<tag k="ssr:stedsnr" v="265981" />
	</node>
	<node id="-818472" lat="64.0393777804" lon="11.3176055477">
		<tag k="name" v="Strandsveet" />
		<tag k="natural" v="beach" />
		<tag k="place" v="locality" />
		<tag k="ssr:stedsnr" v="227150" />
	</node>
	<node id="-822055" lat="64.1125111072" lon="11.3589472218">
		<tag k="name" v="Strandabukta" />
		<tag k="natural" v="bay" />
		<tag k="ssr:stedsnr" v="924161" />
	</node>
	<node id="-824614" lat="64.0374916669" lon="11.312319451">
		<tag k="name" v="Einbukta" />
		<tag k="natural" v="bay" />
		<tag k="ssr:stedsnr" v="773165" />
	</node>
	<node id="-819997" lat="64.0111861148" lon="11.4643555481">
		<tag k="name" v="Bogatangen" />
		<tag k="natural" v="cape" />
		<tag k="ssr:stedsnr" v="620408" />
	</node>
	<node id="-819993" lat="64.0310749978" lon="11.2881194359">
		<tag k="name" v="Aspøya" />
		<tag k="place" v="islet" />
		<tag k="ssr:stedsnr" v="23275" />
	</node>
	<node id="-818961" lat="64.0578888858" lon="11.2312805639">
		<tag k="fixme" v="consider seamark:type=rock or natural=shoal" />
		<tag k="name" v="Bartnesskjæret" />
		<tag k="place" v="islet" />
		<tag k="ssr:stedsnr" v="453992" />
	</node>
	<node id="-821008" lat="63.8980194479" lon="11.3524361134">
		<tag k="name" v="Fagerneset" />
		<tag k="natural" v="cape" />
		<tag k="ssr:stedsnr" v="652419" />
	</node>
	<node id="-823053" lat="64.1088694428" lon="11.3646555471">
		<tag k="name" v="Kråkneset" />
		<tag k="natural" v="cape" />
		<tag k="ssr:stedsnr" v="135176" />
	</node>
	<node id="-823564" lat="64.0167027782" lon="11.4705333259">
		<tag k="name" v="Bogen" />
		<tag k="natural" v="bay" />
		<tag k="ssr:stedsnr" v="75063" />
	</node>
	<node id="-821510" lat="64.0328888898" lon="11.3174861033">
		<tag k="name" v="Fuglvika" />
		<tag k="natural" v="bay" />
		<tag k="ssr:stedsnr" v="508215" />
	</node>
	<node id="-821509" lat="64.0309027738" lon="11.3421055553">
		<tag k="name" v="Einvågen" />
		<tag k="natural" v="bay" />
		<tag k="ssr:stedsnr" v="348148" />
	</node>
	<node id="-818940" lat="64.0695972197" lon="11.2694138859">
		<tag k="name" v="Holmfetbukta" />
		<tag k="natural" v="bay" />
		<tag k="ssr:stedsnr" v="620214" />
	</node>
	<node id="-823527" lat="64.0302555584" lon="11.2866111096">
		<tag k="name" v="Aspøya" />
		<tag k="place" v="islet" />
		<tag k="ssr:stedsnr" v="75057" />
	</node>
	<node id="-820966" lat="64.0460111076" lon="11.2312499922">
		<tag k="name" v="Hylltangen" />
		<tag k="natural" v="cape" />
		<tag k="ssr:stedsnr" v="149982" />
	</node>
	<node id="-824548" lat="64.0384388869" lon="11.314636107">
		<tag k="name" v="Elnbukta" />
		<tag k="natural" v="bay" />
		<tag k="ssr:stedsnr" v="326201" />
	</node>
	<node id="-823005" lat="64.0119249978" lon="11.404555561">
		<tag k="name" v="Loagrunnan" />
		<tag k="natural" v="shoal" />
		<tag k="place" v="locality" />
		<tag k="ssr:stedsnr" v="591259" />
	</node>
	<node id="-822997" lat="63.9823861141" lon="11.3585805529">
		<tag k="name" v="Geitolgrunnen" />
		<tag k="natural" v="shoal" />
		<tag k="place" v="locality" />
		<tag k="ssr:stedsnr" v="288256" />
	</node>
	<node id="-821458" lat="64.018938885" lon="11.3525388962">
		<tag k="name" v="Hoøya" />
		<tag k="place" v="island" />
		<tag k="ssr:stedsnr" v="924062" />
	</node>
	<node id="-820942" lat="64.027263893" lon="11.3568416694">
		<tag k="name" v="Kalvøya" />
		<tag k="place" v="island" />
		<tag k="ssr:stedsnr" v="742065" />
	</node>
	<node id="-821447" lat="64.153633333" lon="11.2445694527">
		<tag k="name" v="Bjørkneset" />
		<tag k="natural" v="cape" />
		<tag k="ssr:stedsnr" v="143842" />
	</node>
	<node id="-819898" lat="63.9784444476" lon="11.4004944416">
		<tag k="fixme" v="consider seamark:type=rock or natural=shoal" />
		<tag k="name" v="Hyllskjæret" />
		<tag k="place" v="islet" />
		<tag k="ssr:stedsnr" v="895242" />
	</node>
	<node id="-820919" lat="64.0273027744" lon="11.3623388912">
		<tag k="name" v="Sørvika" />
		<tag k="natural" v="bay" />
		<tag k="ssr:stedsnr" v="629662" />
	</node>
	<node id="-818718" lat="63.896233331" lon="11.3728000073">
		<tag k="name" v="Storhaugen" />
		<tag k="natural" v="cape" />
		<tag k="ssr:stedsnr" v="470418" />
	</node>
	<node id="-818973" lat="64.0264694482" lon="11.4372027831">
		<tag k="alt_name" v="Lundleiret" />
		<tag k="name" v="Lundleira" />
		<tag k="natural" v="beach" />
		<tag k="place" v="locality" />
		<tag k="ssr:stedsnr" v="803063" />
	</node>
	<node id="-820907" lat="63.8941916686" lon="11.3519916631">
		<tag k="alt_name" v="Håven" />
		<tag k="name" v="Hoven" />
		<tag k="natural" v="cape" />
		<tag k="ssr:stedsnr" v="438079" />
	</node>
	<node id="-819399" lat="64.0343277814" lon="11.3303222212">
		<tag k="name" v="Brennholmen" />
		<tag k="natural" v="cape" />
		<tag k="ssr:stedsnr" v="257122" />
	</node>
	<node id="-820898" lat="64.0191888889" lon="11.3704305627">
		<tag k="name" v="Naustbukta" />
		<tag k="natural" v="bay" />
		<tag k="ssr:stedsnr" v="742072" />
	</node>
	<node id="-822429" lat="64.0187500016" lon="11.4171444447">
		<tag k="fixme" v="consider seamark:type=rock or natural=shoal" />
		<tag k="name" v="Gluggen" />
		<tag k="place" v="islet" />
		<tag k="ssr:stedsnr" v="135071" />
	</node>
	<node id="-823964" lat="64.0159333321" lon="11.3409833259">
		<tag k="name" v="Hoøytangen" />
		<tag k="natural" v="cape" />
		<tag k="ssr:stedsnr" v="204132" />
	</node>
	<node id="-821908" lat="64.0374416663" lon="11.3409166711">
		<tag k="name" v="Visetbukta" />
		<tag k="natural" v="bay" />
		<tag k="ssr:stedsnr" v="265219" />
	</node>
	<node id="-820371" lat="64.0178250024" lon="11.3746111108">
		<tag k="name" v="Hylltangen" />
		<tag k="natural" v="cape" />
		<tag k="ssr:stedsnr" v="439054" />
	</node>
	<node id="-823438" lat="64.0827194474" lon="11.2891666718">
		<tag k="name" v="Beitstadsundet" />
		<tag k="natural" v="strait" />
		<tag k="ssr:stedsnr" v="377175" />
	</node>
	<node id="-820861" lat="64.0368138926" lon="11.2348694514">
		<tag k="alt_name" v="Ronesbukta" />
		<tag k="name" v="Sør-Ronesbukta" />
		<tag k="natural" v="bay" />
		<tag k="ssr:stedsnr" v="712164" />
	</node>
	<node id="-818437" lat="64.0007655945" lon="11.2621858886">
		<tag k="bay" v="fjord" />
		<tag k="name" v="Beitstadfjorden" />
		<tag k="natural" v="bay" />
		<tag k="ssr:stedsnr" v="803613" />
	</node>
	<node id="-822389" lat="64.0203250007" lon="11.4446833237">
		<tag k="name" v="Fuglvika" />
		<tag k="natural" v="bay" />
		<tag k="ssr:stedsnr" v="135063" />
	</node>
	<node id="-818804" lat="64.0356944439" lon="11.3426416578">
		<tag k="name" v="Visettangen" />
		<tag k="natural" v="cape" />
		<tag k="ssr:stedsnr" v="872230" />
	</node>
	<node id="-822384" lat="64.0054361108" lon="11.4854805483">
		<tag k="name" v="Markustangen" />
		<tag k="natural" v="shoal" />
		<tag k="place" v="locality" />
		<tag k="ssr:stedsnr" v="469703" />
	</node>
	<node id="-823916" lat="64.0286055521" lon="11.3579944509">
		<tag k="name" v="Nordvika" />
		<tag k="natural" v="bay" />
		<tag k="ssr:stedsnr" v="204130" />
	</node>
	<node id="-823913" lat="64.0182416677" lon="11.3564861039">
		<tag k="name" v="Stubukta" />
		<tag k="natural" v="bay" />
		<tag k="ssr:stedsnr" v="204129" />
	</node>
	<node id="-821351" lat="64.0249166628" lon="11.3754000009">
		<tag k="name" v="Hoøyvågen" />
		<tag k="natural" v="bay" />
		<tag k="ssr:stedsnr" v="924056" />
	</node>
	<node id="-821349" lat="64.0362694481" lon="11.3609972175">
		<tag k="name" v="Håmmårsholmen" />
		<tag k="place" v="islet" />
		<tag k="ssr:stedsnr" v="568212" />
	</node>
	<node id="-818761" lat="64.0258111133" lon="11.3459722262">
		<tag k="fixme" v="consider seamark:type=rock or natural=shoal" />
		<tag k="name" v="Purka" />
		<tag k="place" v="islet" />
		<tag k="ssr:stedsnr" v="872185" />
	</node>
	<node id="-821309" lat="64.0976833365" lon="11.362961104">
		<tag k="name" v="Svennsvika" />
		<tag k="natural" v="bay" />
		<tag k="ssr:stedsnr" v="143801" />
	</node>
	<node id="-819247" lat="64.0363444422" lon="11.361644445">
		<tag k="name" v="Hammarholmen" />
		<tag k="place" v="islet" />
		<tag k="ssr:stedsnr" v="803116" />
	</node>
	<node id="-819757" lat="64.0257111091" lon="11.3530666641">
		<tag k="name" v="Kuppulbukta" />
		<tag k="natural" v="bay" />
		<tag k="ssr:stedsnr" v="83159" />
	</node>
	<node id="-821278" lat="64.0217722184" lon="11.2682944492">
		<tag k="alt_name" v="Hammergrunnen" />
		<tag k="name" v="Fjordgrunnen" />
		<tag k="natural" v="shoal" />
		<tag k="place" v="locality" />
		<tag k="ssr:stedsnr" v="286162" />
	</node>
	<node id="-823045" lat="64.0022222187" lon="11.4607611146">
		<tag k="fixme" v="consider seamark:type=rock or natural=shoal" />
		<tag k="name" v="Raudskjæret" />
		<tag k="place" v="islet" />
		<tag k="ssr:stedsnr" v="514921" />
	</node>
	<node id="-819733" lat="64.1117166658" lon="11.3058527679">
		<tag k="name" v="Hjellosen" />
		<tag k="natural" v="bay" />
		<tag k="ssr:stedsnr" v="803181" />
	</node>
	<node id="-821267" lat="63.9095250023" lon="11.3596138986">
		<tag k="name" v="Bulungsneset" />
		<tag k="natural" v="cape" />
		<tag k="ssr:stedsnr" v="742114" />
	</node>
	<node id="-822287" lat="64.0324666678" lon="11.2955388977">
		<tag k="name" v="Langøya" />
		<tag k="place" v="islet" />
		<tag k="ssr:stedsnr" v="378054" />
	</node>
	<node id="-819212" lat="64.0055444454" lon="11.3366222217">
		<tag k="bay" v="fjord" />
		<tag k="name" v="Steinkjerfjorden" />
		<tag k="natural" v="bay" />
		<tag k="ssr:stedsnr" v="627560" />
	</node>
</osm>
