<?xml version="1.0" encoding="UTF-8"?>
<osm generator="osmapis" version="0.6">
	<node id="-819195" lat="64.2200694467" lon="11.9382666709">
		<tag k="name" v="Stordeklet" />
		<tag k="natural" v="water" />
		<tag k="ssr:stedsnr" v="958836" />
	</node>
	<node id="-821241" lat="64.1273027811" lon="11.4940277882">
		<tag k="name" v="Litlaunvatnet" />
		<tag k="natural" v="water" />
		<tag k="ssr:stedsnr" v="871537" />
		<tag k="water" v="lake" />
	</node>
	<node id="-823288" lat="63.9103138887" lon="11.6829000092">
		<tag k="name" v="Johannestjønna" />
		<tag k="natural" v="water" />
		<tag k="ssr:stedsnr" v="149349" />
	</node>
	<node id="-823287" lat="64.0240194403" lon="12.1178249907">
		<tag k="name" v="Litltjønna" />
		<tag k="natural" v="water" />
		<tag k="ssr:stedsnr" v="352252" />
	</node>
	<node id="-817141" lat="64.0026666637" lon="12.1284583381">
		<tag k="name" v="Nordvaltangen" />
		<tag k="natural" v="cape" />
		<tag k="ssr:stedsnr" v="352296" />
	</node>
	<node id="-821235" lat="64.0296833347" lon="12.2130305481">
		<tag k="name" v="Råtjønnbekken" />
		<tag k="ssr:stedsnr" v="777469" />
		<tag k="waterway" v="stream" />
	</node>
	<node id="-823281" lat="64.1277111084" lon="11.2130583243">
		<tag k="name" v="Perengbekken" />
		<tag k="ssr:stedsnr" v="402692" />
		<tag k="waterway" v="stream" />
	</node>
	<node id="-817135" lat="63.8973762532" lon="11.6681993044">
		<tag k="name" v="Olatjønna" />
		<tag k="natural" v="water" />
		<tag k="ssr:stedsnr" v="976083" />
	</node>
	<node id="-819180" lat="64.0469416709" lon="11.498366664">
		<tag k="name" v="Fjellbekken" />
		<tag k="ssr:stedsnr" v="149912" />
		<tag k="waterway" v="stream" />
	</node>
	<node id="-817131" lat="64.1503583357" lon="11.4972833275">
		<tag k="name" v="Brennbekken" />
		<tag k="ssr:stedsnr" v="742765" />
		<tag k="waterway" v="stream" />
	</node>
	<node id="-821225" lat="64.1715138885" lon="11.8521972144">
		<tag k="name" v="Brasettangen" />
		<tag k="natural" v="cape" />
		<tag k="ssr:stedsnr" v="514819" />
	</node>
	<node id="-817128" lat="63.8799527823" lon="11.6071027729">
		<tag k="name" v="Nestangen" />
		<tag k="natural" v="cape" />
		<tag k="ssr:stedsnr" v="453895" />
	</node>
	<node id="-822268" lat="64.1541388886" lon="11.609488888">
		<tag k="name" v="Finnhustjønna" />
		<tag k="natural" v="water" />
		<tag k="ssr:stedsnr" v="559849" />
	</node>
	<node id="-819172" lat="64.0173527763" lon="11.6788750083">
		<tag k="name" v="Brandseggfossen" />
		<tag k="natural" v="waterfall" />
		<tag k="ssr:stedsnr" v="560423" />
	</node>
	<node id="-821218" lat="64.2206388896" lon="11.5848833432">
		<tag k="name" v="Raudmyrtjønna" />
		<tag k="natural" v="water" />
		<tag k="ssr:stedsnr" v="74908" />
	</node>
	<node id="-819168" lat="64.1747638916" lon="11.3691361181">
		<tag k="name" v="Gåslona" />
		<tag k="natural" v="water" />
		<tag k="ssr:stedsnr" v="135850" />
	</node>
	<node id="-821214" lat="64.1774833346" lon="11.3925944521">
		<tag k="name" v="Honburutjønna" />
		<tag k="natural" v="water" />
		<tag k="ssr:stedsnr" v="351728" />
	</node>
	<node id="-819165" lat="64.2889555534" lon="11.8679861126">
		<tag k="name" v="Litlsandtjønna" />
		<tag k="natural" v="water" />
		<tag k="ssr:stedsnr" v="863635" />
	</node>
	<node id="-817115" lat="63.9823083327" lon="11.4752861027">
		<tag k="name" v="Sandbekken" />
		<tag k="ssr:stedsnr" v="22878" />
		<tag k="waterway" v="stream" />
	</node>
	<node id="-817114" lat="64.2968000041" lon="11.8342250014">
		<tag k="name" v="Brunstadvatnet" />
		<tag k="natural" v="water" />
		<tag k="ssr:stedsnr" v="741671" />
	</node>
	<node id="-821208" lat="64.0463250003" lon="11.5862249991">
		<tag k="name" v="Trappneset" />
		<tag k="natural" v="cape" />
		<tag k="ssr:stedsnr" v="377025" />
	</node>
	<node id="-817111" lat="64.0169805569" lon="12.0747500077">
		<tag k="name" v="Svarttjønna" />
		<tag k="natural" v="water" />
		<tag k="ssr:stedsnr" v="924654" />
	</node>
	<node id="-817110" lat="64.020863888" lon="11.949063899">
		<tag k="name" v="Lomtjønnin" />
		<tag k="natural" v="water" />
		<tag k="ssr:stedsnr" v="48881" />
	</node>
	<node id="-819156" lat="64.2251416684" lon="11.8284972152">
		<tag k="name" v="Sølvskideklet" />
		<tag k="natural" v="water" />
		<tag k="ssr:stedsnr" v="412802" />
	</node>
	<node id="-819155" lat="64.0539277801" lon="12.0353416573">
		<tag k="name" v="Meldalsbekken" />
		<tag k="ssr:stedsnr" v="838537" />
		<tag k="waterway" v="stream" />
	</node>
	<node id="-819153" lat="63.9620916625" lon="11.3793194478">
		<tag k="name" v="Langåstjønna" />
		<tag k="natural" v="water" />
		<tag k="ssr:stedsnr" v="326900" />
	</node>
	<node id="-817102" lat="64.1460972243" lon="12.0166527802">
		<tag k="name" v="Deklet" />
		<tag k="natural" v="water" />
		<tag k="ssr:stedsnr" v="453897" />
	</node>
	<node id="-822165" lat="64.013608337" lon="11.9497861125">
		<tag k="name" v="Hesttjønnin" />
		<tag k="natural" v="water" />
		<tag k="ssr:stedsnr" v="897853" />
	</node>
	<node id="-819148" lat="64.2266750042" lon="11.673191664">
		<tag k="name" v="Hølbekken" />
		<tag k="ssr:stedsnr" v="351224" />
		<tag k="waterway" v="stream" />
	</node>
	<node id="-823241" lat="64.0094583351" lon="12.0403972175">
		<tag k="name" v="Vinterstøbekken" />
		<tag k="ssr:stedsnr" v="412254" />
		<tag k="waterway" v="stream" />
	</node>
	<node id="-819142" lat="64.0868583375" lon="11.7361027749">
		<tag k="name" v="Dalbekken" />
		<tag k="ssr:stedsnr" v="803348" />
		<tag k="waterway" v="stream" />
	</node>
	<node id="-821189" lat="64.0556666704" lon="11.6362055563">
		<tag k="name" v="Aksnesbekken" />
		<tag k="ssr:stedsnr" v="453311" />
		<tag k="waterway" v="stream" />
	</node>
	<node id="-823236" lat="64.1925611114" lon="11.7063277733">
		<tag k="name" v="Knesengbekken" />
		<tag k="ssr:stedsnr" v="352224" />
		<tag k="waterway" v="stream" />
	</node>
	<node id="-820647" lat="63.973144441" lon="11.8409527805">
		<tag k="name" v="Svarttjønna" />
		<tag k="natural" v="water" />
		<tag k="ssr:stedsnr" v="696017" />
	</node>
	<node id="-817089" lat="64.1576777806" lon="11.5798999943">
		<tag k="name" v="Bjørndalsbekken" />
		<tag k="ssr:stedsnr" v="149394" />
		<tag k="waterway" v="stream" />
	</node>
	<node id="-817088" lat="64.0581555544" lon="11.7231638931">
		<tag k="name" v="Natsjøbekken" />
		<tag k="ssr:stedsnr" v="635244" />
		<tag k="waterway" v="stream" />
	</node>
	<node id="-819134" lat="64.128750001" lon="11.1924555601">
		<tag k="name" v="Erikbekken" />
		<tag k="ssr:stedsnr" v="863629" />
		<tag k="waterway" v="stream" />
	</node>
	<node id="-823285" lat="64.1593527794" lon="11.822075006">
		<tag k="name" v="Mesundbukta" />
		<tag k="natural" v="bay" />
		<tag k="ssr:stedsnr" v="681444" />
	</node>
	<node id="-823228" lat="64.1386944456" lon="11.5998333321">
		<tag k="name" v="Midtertjønna" />
		<tag k="natural" v="water" />
		<tag k="ssr:stedsnr" v="439766" />
	</node>
	<node id="-817081" lat="64.1069305558" lon="12.0179833235">
		<tag k="name" v="Storelva" />
		<tag k="ssr:stedsnr" v="230443" />
		<tag k="waterway" v="river" />
	</node>
	<node id="-817080" lat="63.9879166684" lon="12.1234166658">
		<tag k="name" v="Storhola" />
		<tag k="ssr:stedsnr" v="352284" />
		<tag k="waterway" v="stream" />
	</node>
	<node id="-823222" lat="64.0325888892" lon="12.1359444384">
		<tag k="name" v="Austerengbekken" />
		<tag k="ssr:stedsnr" v="716475" />
		<tag k="waterway" v="stream" />
	</node>
	<node id="-820553" lat="63.9593972224" lon="11.6382138986">
		<tag k="name" v="Døla" />
		<tag k="ssr:stedsnr" v="863874" />
		<tag k="waterway" v="river" />
	</node>
	<node id="-819124" lat="64.0626138875" lon="11.6226750051">
		<tag k="name" v="Fossemvatnet" />
		<tag k="natural" v="water" />
		<tag k="ssr:stedsnr" v="742022" />
		<tag k="water" v="lake" />
	</node>
	<node id="-819123" lat="64.1771444429" lon="11.7722527765">
		<tag k="name" v="Vikatangen" />
		<tag k="natural" v="cape" />
		<tag k="ssr:stedsnr" v="149899" />
	</node>
	<node id="-819122" lat="64.050633335" lon="12.0352555572">
		<tag k="name" v="Seterbekken" />
		<tag k="ssr:stedsnr" v="838536" />
		<tag k="waterway" v="stream" />
	</node>
	<node id="-821169" lat="64.0756944427" lon="11.5002111054">
		<tag k="name" v="Oksåselva" />
		<tag k="ssr:stedsnr" v="568592" />
		<tag k="waterway" v="stream" />
	</node>
	<node id="-821167" lat="64.1535388891" lon="11.4829222199">
		<tag k="name" v="Tessemengbekken" />
		<tag k="ssr:stedsnr" v="691570" />
		<tag k="waterway" v="stream" />
	</node>
	<node id="-821166" lat="64.1803944486" lon="11.7858222306">
		<tag k="name" v="Breiåa" />
		<tag k="ssr:stedsnr" v="211743" />
		<tag k="waterway" v="river" />
	</node>
	<node id="-823212" lat="63.9654944429" lon="12.1993777787">
		<tag k="name" v="Hammertjønna" />
		<tag k="natural" v="water" />
		<tag k="ssr:stedsnr" v="170640" />
	</node>
	<node id="-819113" lat="64.3115861102" lon="11.9188833261">
		<tag k="name" v="Trekvisla" />
		<tag k="natural" v="water" />
		<tag k="ssr:stedsnr" v="75648" />
		<tag k="water" v="lake" />
	</node>
	<node id="-821160" lat="64.1952166702" lon="11.4746472176">
		<tag k="name" v="Fiskløysa" />
		<tag k="natural" v="water" />
		<tag k="ssr:stedsnr" v="620831" />
	</node>
	<node id="-821916" lat="64.141344442" lon="11.643241674">
		<tag k="fixme" v="multiple name tags, choose one and add the other to alt_name" />
		<tag k="name" v="Knedalsbekken;Knedalselva" />
		<tag k="ssr:stedsnr" v="14722" />
		<tag k="waterway" v="stream" />
	</node>
	<node id="-817061" lat="63.9366555523" lon="11.898952784">
		<tag k="name" v="Olatjønna" />
		<tag k="natural" v="water" />
		<tag k="ssr:stedsnr" v="378491" />
	</node>
	<node id="-821915" lat="63.9893777753" lon="12.1992555571">
		<tag k="name" v="Nekolaitjønna" />
		<tag k="natural" v="water" />
		<tag k="ssr:stedsnr" v="924391" />
	</node>
	<node id="-820033" lat="64.1002972235" lon="11.88148333">
		<tag k="name" v="Studalstjønna" />
		<tag k="natural" v="water" />
		<tag k="ssr:stedsnr" v="472772" />
	</node>
	<node id="-817053" lat="64.0054245689" lon="12.122023627">
		<tag k="name" v="Lustadelvtangen" />
		<tag k="natural" v="cape" />
		<tag k="ssr:stedsnr" v="412283" />
	</node>
	<node id="-821147" lat="64.0415388916" lon="11.7322111088">
		<tag k="fixme" v="multiple name tags, choose one and add the other to alt_name" />
		<tag k="name" v="Augla;Storaugla" />
		<tag k="ssr:stedsnr" v="14589" />
		<tag k="waterway" v="stream" />
	</node>
	<node id="-819098" lat="64.2439250042" lon="11.7911583407">
		<tag k="name" v="Purktjønna" />
		<tag k="natural" v="water" />
		<tag k="ssr:stedsnr" v="560400" />
	</node>
	<node id="-823279" lat="63.8997944451" lon="11.6878000071">
		<tag k="name" v="Holmtjønna" />
		<tag k="natural" v="water" />
		<tag k="ssr:stedsnr" v="149341" />
	</node>
	<node id="-823191" lat="64.1261805543" lon="11.7006833333">
		<tag k="name" v="Hølen" />
		<tag k="natural" v="shoal" />
		<tag k="place" v="locality" />
		<tag k="ssr:stedsnr" v="89098" />
	</node>
	<node id="-819093" lat="63.9723249963" lon="11.8551083411">
		<tag k="name" v="Andfinnfossen" />
		<tag k="natural" v="waterfall" />
		<tag k="ssr:stedsnr" v="939016" />
	</node>
	<node id="-817044" lat="64.2098277742" lon="11.5186777737">
		<tag k="name" v="Kjølbekksundet" />
		<tag k="natural" v="strait" />
		<tag k="ssr:stedsnr" v="196825" />
	</node>
	<node id="-821139" lat="64.0736722231" lon="11.8456805519">
		<tag k="name" v="Koltjønnbekken" />
		<tag k="ssr:stedsnr" v="109935" />
		<tag k="waterway" v="stream" />
	</node>
	<node id="-821138" lat="63.9972444461" lon="11.7411305516">
		<tag k="name" v="Grøttjønnbekken" />
		<tag k="ssr:stedsnr" v="453298" />
		<tag k="waterway" v="stream" />
	</node>
	<node id="-821137" lat="63.9233250038" lon="11.9010416669">
		<tag k="name" v="Lauvvatnet" />
		<tag k="natural" v="water" />
		<tag k="ssr:stedsnr" v="499411" />
		<tag k="water" v="lake" />
	</node>
	<node id="-819088" lat="64.08217222" lon="11.3747611069">
		<tag k="name" v="Kvernhusbekken" />
		<tag k="ssr:stedsnr" v="143616" />
		<tag k="waterway" v="stream" />
	</node>
	<node id="-823183" lat="63.9409055549" lon="12.0385861083">
		<tag k="name" v="Mokkavatnet" />
		<tag k="natural" v="water" />
		<tag k="ssr:stedsnr" v="135456" />
		<tag k="water" v="lake" />
	</node>
	<node id="-823181" lat="63.9963777747" lon="12.0107638906">
		<tag k="name" v="Badstudalstjønna" />
		<tag k="natural" v="water" />
		<tag k="ssr:stedsnr" v="412225" />
	</node>
	<node id="-821132" lat="64.16943333" lon="11.7236055525">
		<tag k="name" v="Grønneset" />
		<tag k="natural" v="cape" />
		<tag k="ssr:stedsnr" v="696106" />
	</node>
	<node id="-819522" lat="64.0840583332" lon="11.8811416624">
		<tag k="name" v="Lomdiklet" />
		<tag k="natural" v="water" />
		<tag k="ssr:stedsnr" v="257382" />
	</node>
	<node id="-821130" lat="64.0238777802" lon="12.0121916615">
		<tag k="name" v="Tauskjerringbekken" />
		<tag k="ssr:stedsnr" v="534500" />
		<tag k="waterway" v="stream" />
	</node>
	<node id="-819081" lat="64.2032972216" lon="11.7015833367">
		<tag k="name" v="Hjarttjønna" />
		<tag k="natural" v="water" />
		<tag k="ssr:stedsnr" v="351222" />
	</node>
	<node id="-817032" lat="64.1873166678" lon="11.7724805607">
		<tag k="fixme" v="multiple name tags, choose one and add the other to alt_name" />
		<tag k="name" v="Nollsåa;Skogelva" />
		<tag k="ssr:stedsnr" v="681464" />
		<tag k="waterway" v="stream" />
	</node>
	<node id="-823175" lat="64.0772388916" lon="11.7628888944">
		<tag k="name" v="Hekkelfossen" />
		<tag k="natural" v="waterfall" />
		<tag k="ssr:stedsnr" v="635170" />
	</node>
	<node id="-819078" lat="64.1769722264" lon="11.7566138948">
		<tag k="name" v="Skogholmen" />
		<tag k="natural" v="cape" />
		<tag k="ssr:stedsnr" v="271136" />
	</node>
	<node id="-823172" lat="64.2111138902" lon="11.9557722138">
		<tag k="name" v="Havda" />
		<tag k="natural" v="strait" />
		<tag k="ssr:stedsnr" v="48807" />
	</node>
	<node id="-821123" lat="64.2243500016" lon="11.75232501">
		<tag k="name" v="Tverråa" />
		<tag k="ssr:stedsnr" v="620809" />
		<tag k="waterway" v="river" />
	</node>
	<node id="-819074" lat="63.9768777761" lon="11.929711116">
		<tag k="name" v="Moafossen" />
		<tag k="natural" v="waterfall" />
		<tag k="ssr:stedsnr" v="878927" />
	</node>
	<node id="-821227" lat="64.1048638895" lon="11.8745333399">
		<tag k="name" v="Storøya" />
		<tag k="place" v="island" />
		<tag k="ssr:stedsnr" v="715949" />
	</node>
	<node id="-819072" lat="64.023313885" lon="11.5193666724">
		<tag k="name" v="Kutåholmen" />
		<tag k="place" v="islet" />
		<tag k="ssr:stedsnr" v="149882" />
	</node>
	<node id="-823166" lat="64.1868444406" lon="11.4322805456">
		<tag k="name" v="Skjærsjøen" />
		<tag k="natural" v="water" />
		<tag k="ssr:stedsnr" v="499783" />
		<tag k="water" v="lake" />
	</node>
	<node id="-821909" lat="63.9190722224" lon="11.9220916665">
		<tag k="name" v="Litl-Lauva" />
		<tag k="ssr:stedsnr" v="959480" />
		<tag k="waterway" v="stream" />
	</node>
	<node id="-819066" lat="63.9103916623" lon="11.4439277765">
		<tag k="name" v="Leirelva" />
		<tag k="ssr:stedsnr" v="750985" />
		<tag k="waterway" v="stream" />
	</node>
	<node id="-817010" lat="64.155100004" lon="11.4660611046">
		<tag k="name" v="Bergtjønnin" />
		<tag k="natural" v="water" />
		<tag k="ssr:stedsnr" v="84603" />
	</node>
	<node id="-821105" lat="64.3076083348" lon="11.8844277689">
		<tag k="name" v="Hanstjønna" />
		<tag k="natural" v="water" />
		<tag k="ssr:stedsnr" v="802656" />
	</node>
	<node id="-823152" lat="63.9210222243" lon="11.4118694509">
		<tag k="name" v="Kåbergselva" />
		<tag k="ssr:stedsnr" v="265978" />
		<tag k="waterway" v="stream" />
	</node>
	<node id="-821224" lat="63.9937416653" lon="12.314663895">
		<tag k="name" v="Setertjønna" />
		<tag k="natural" v="water" />
		<tag k="ssr:stedsnr" v="803682" />
	</node>
	<node id="-823149" lat="64.2319444423" lon="11.788011117">
		<tag k="name" v="Flekstadtjønna" />
		<tag k="natural" v="water" />
		<tag k="ssr:stedsnr" v="681418" />
	</node>
	<node id="-817004" lat="64.1850833349" lon="11.973408339">
		<tag k="name" v="Fårholmen" />
		<tag k="place" v="islet" />
		<tag k="ssr:stedsnr" v="802542" />
	</node>
	<node id="-819051" lat="64.1862299897" lon="11.4789268883">
		<tag k="name" v="Litlbleia" />
		<tag k="natural" v="water" />
		<tag k="ssr:stedsnr" v="378839" />
	</node>
	<node id="-821098" lat="64.123363885" lon="11.6675277848">
		<tag k="name" v="Ormtangen" />
		<tag k="natural" v="cape" />
		<tag k="ssr:stedsnr" v="135150" />
	</node>
	<node id="-819049" lat="64.124944447" lon="11.4476277698">
		<tag k="name" v="Berghølen" />
		<tag k="ssr:stedsnr" v="629554" />
		<tag k="waterway" v="river" />
	</node>
	<node id="-823142" lat="64.0381583372" lon="11.8425166691">
		<tag k="name" v="Kattjønna" />
		<tag k="natural" v="water" />
		<tag k="ssr:stedsnr" v="924616" />
	</node>
	<node id="-821092" lat="63.9107500026" lon="11.8878111201">
		<tag k="name" v="Økstjønna" />
		<tag k="natural" v="water" />
		<tag k="ssr:stedsnr" v="742412" />
	</node>
	<node id="-821250" lat="64.1133333293" lon="12.0240055585">
		<tag k="name" v="Lystjønnbekken" />
		<tag k="ssr:stedsnr" v="777472" />
		<tag k="waterway" v="stream" />
	</node>
	<node id="-821089" lat="64.141705554" lon="11.464402783">
		<tag k="name" v="Perbekken" />
		<tag k="ssr:stedsnr" v="508629" />
		<tag k="waterway" v="stream" />
	</node>
	<node id="-819040" lat="64.0608305547" lon="12.1359499907">
		<tag k="name" v="Holsingsela" />
		<tag k="natural" v="water" />
		<tag k="ssr:stedsnr" v="838519" />
		<tag k="water" v="lake" />
	</node>
	<node id="-821086" lat="64.1539722182" lon="11.6992500086">
		<tag k="name" v="Langmyrbekken" />
		<tag k="ssr:stedsnr" v="210198" />
		<tag k="waterway" v="stream" />
	</node>
	<node id="-819037" lat="64.1647222233" lon="11.7666249945">
		<tag k="name" v="Svarttjønnbekken" />
		<tag k="ssr:stedsnr" v="939030" />
		<tag k="waterway" v="stream" />
	</node>
	<node id="-816988" lat="64.0100722224" lon="12.2744611185">
		<tag k="name" v="Gåstjønnbekken" />
		<tag k="ssr:stedsnr" v="291352" />
		<tag k="waterway" v="stream" />
	</node>
	<node id="-816987" lat="64.0564527817" lon="12.0240694546">
		<tag k="name" v="Hjarttjønna" />
		<tag k="natural" v="water" />
		<tag k="ssr:stedsnr" v="742289" />
	</node>
	<node id="-816984" lat="64.204072221" lon="11.7528083338">
		<tag k="name" v="Strømstaddalsbekken" />
		<tag k="ssr:stedsnr" v="959219" />
		<tag k="waterway" v="stream" />
	</node>
	<node id="-819031" lat="63.9537114157" lon="12.3074007433">
		<tag k="name" v="Skjækerosen" />
		<tag k="natural" v="bay" />
		<tag k="ssr:stedsnr" v="898660" />
	</node>
	<node id="-823124" lat="64.0685583348" lon="11.7981444535">
		<tag k="name" v="Kutjønna" />
		<tag k="natural" v="water" />
		<tag k="ssr:stedsnr" v="837985" />
	</node>
	<node id="-819024" lat="64.2639055569" lon="11.9348305592">
		<tag k="name" v="Butjønnlandet" />
		<tag k="natural" v="cape" />
		<tag k="ssr:stedsnr" v="412784" />
	</node>
	<node id="-819023" lat="63.9837194411" lon="11.8484499923">
		<tag k="name" v="Lomtjønna" />
		<tag k="natural" v="water" />
		<tag k="ssr:stedsnr" v="939020" />
	</node>
	<node id="-823118" lat="63.9430000028" lon="12.16276945">
		<tag k="name" v="Langtjønnin" />
		<tag k="natural" v="water" />
		<tag k="ssr:stedsnr" v="473554" />
	</node>
	<node id="-821069" lat="64.1287555577" lon="11.5649861089">
		<tag k="name" v="Okstjønna" />
		<tag k="natural" v="water" />
		<tag k="ssr:stedsnr" v="568667" />
	</node>
	<node id="-820183" lat="64.1007472267" lon="11.8271222242">
		<tag k="name" v="Sylldalsbekken" />
		<tag k="ssr:stedsnr" v="838774" />
		<tag k="waterway" v="stream" />
	</node>
	<node id="-819017" lat="64.1481527748" lon="11.7682555464">
		<tag k="name" v="Moabekken" />
		<tag k="ssr:stedsnr" v="817191" />
		<tag k="waterway" v="stream" />
	</node>
	<node id="-819016" lat="63.9399138877" lon="11.5533361118">
		<tag k="name" v="Skjelja" />
		<tag k="ssr:stedsnr" v="872717" />
		<tag k="waterway" v="stream" />
	</node>
	<node id="-823184" lat="63.9807972177" lon="11.8286472266">
		<tag k="name" v="Håmmårtjønna" />
		<tag k="natural" v="water" />
		<tag k="ssr:stedsnr" v="681409" />
	</node>
	<node id="-821059" lat="63.8952333304" lon="11.496405556">
		<tag k="alt_name" v="Berstadvatnet" />
		<tag k="name" v="Bergstadvatnet" />
		<tag k="natural" v="water" />
		<tag k="ssr:stedsnr" v="681069" />
		<tag k="water" v="lake" />
	</node>
	<node id="-819010" lat="64.1474833377" lon="11.9008388914">
		<tag k="name" v="Vardetangen" />
		<tag k="natural" v="cape" />
		<tag k="ssr:stedsnr" v="393041" />
	</node>
	<node id="-819009" lat="64.0704277795" lon="11.9425250032">
		<tag k="name" v="Larsheimelva" />
		<tag k="ssr:stedsnr" v="803328" />
		<tag k="waterway" v="stream" />
	</node>
	<node id="-821056" lat="63.9439722264" lon="11.7814805631">
		<tag k="name" v="Tømmeråstjønna" />
		<tag k="natural" v="water" />
		<tag k="ssr:stedsnr" v="499406" />
	</node>
	<node id="-823264" lat="63.922108331" lon="11.8394416727">
		<tag k="name" v="Svartvatnet" />
		<tag k="natural" v="water" />
		<tag k="ssr:stedsnr" v="135469" />
	</node>
	<node id="-823101" lat="63.9589138905" lon="12.1514083348">
		<tag k="name" v="Badstutjønnin" />
		<tag k="natural" v="water" />
		<tag k="ssr:stedsnr" v="681396" />
	</node>
	<node id="-819004" lat="63.9238361113" lon="11.7361055649">
		<tag k="name" v="Ystadtjønna" />
		<tag k="natural" v="water" />
		<tag k="ssr:stedsnr" v="620469" />
	</node>
	<node id="-819001" lat="64.0409222177" lon="12.1737333409">
		<tag k="name" v="Setertjønnin" />
		<tag k="natural" v="water" />
		<tag k="ssr:stedsnr" v="109419" />
	</node>
	<node id="-819508" lat="64.2010611147" lon="11.899800002">
		<tag k="name" v="Lekksjøbekken" />
		<tag k="ssr:stedsnr" v="89776" />
		<tag k="waterway" v="stream" />
	</node>
	<node id="-823094" lat="64.1402166661" lon="11.3758166698">
		<tag k="name" v="Kordalsbekken" />
		<tag k="ssr:stedsnr" v="933811" />
		<tag k="waterway" v="stream" />
	</node>
	<node id="-823092" lat="64.079755552" lon="11.7773611139">
		<tag k="name" v="Storneset" />
		<tag k="natural" v="cape" />
		<tag k="ssr:stedsnr" v="48784" />
	</node>
	<node id="-818993" lat="64.1342944477" lon="11.319008326">
		<tag k="name" v="Gladsevatnet" />
		<tag k="natural" v="water" />
		<tag k="ssr:stedsnr" v="378829" />
	</node>
	<node id="-821040" lat="64.1664250036" lon="11.8711444533">
		<tag k="name" v="Øksnesøya" />
		<tag k="place" v="island" />
		<tag k="ssr:stedsnr" v="196410" />
	</node>
	<node id="-823087" lat="63.9493222219" lon="11.7377555479">
		<tag k="alt_name" v="Aunvatnet" />
		<tag k="name" v="Aunvatna" />
		<tag k="natural" v="water" />
		<tag k="ssr:stedsnr" v="681394" />
	</node>
	<node id="-820864" lat="64.0030777778" lon="11.7826416666">
		<tag k="name" v="Talsengbekken" />
		<tag k="ssr:stedsnr" v="696069" />
		<tag k="waterway" v="stream" />
	</node>
	<node id="-818989" lat="64.0808194445" lon="11.792427768">
		<tag k="name" v="Margaretfossen" />
		<tag k="natural" v="waterfall" />
		<tag k="ssr:stedsnr" v="412760" />
	</node>
	<node id="-821034" lat="63.9772083362" lon="11.7050805456">
		<tag k="name" v="Skjennfossen" />
		<tag k="natural" v="waterfall" />
		<tag k="ssr:stedsnr" v="109918" />
	</node>
	<node id="-821027" lat="64.0726416635" lon="11.5537361164">
		<tag k="name" v="Langvatnet" />
		<tag k="natural" v="water" />
		<tag k="ssr:stedsnr" v="681041" />
	</node>
	<node id="-823072" lat="64.1547305555" lon="11.3059472157">
		<tag k="name" v="Storaunvatnet" />
		<tag k="natural" v="water" />
		<tag k="ssr:stedsnr" v="196755" />
	</node>
	<node id="-823071" lat="64.11948889" lon="11.2575750077">
		<tag k="name" v="Stordalsbekken" />
		<tag k="ssr:stedsnr" v="22772" />
		<tag k="waterway" v="stream" />
	</node>
	<node id="-818974" lat="63.9953583339" lon="11.9340055472">
		<tag k="name" v="Johanbekken" />
		<tag k="ssr:stedsnr" v="290914" />
		<tag k="waterway" v="stream" />
	</node>
	<node id="-823069" lat="63.9656944441" lon="11.7107000055">
		<tag k="name" v="Litltjønna" />
		<tag k="natural" v="water" />
		<tag k="ssr:stedsnr" v="654944" />
	</node>
	<node id="-823068" lat="64.2091583319" lon="11.5950166612">
		<tag k="name" v="Larstangen" />
		<tag k="natural" v="bay" />
		<tag k="ssr:stedsnr" v="169046" />
	</node>
	<node id="-820186" lat="64.0147194423" lon="12.1385999953">
		<tag k="name" v="Liatjønnbekken" />
		<tag k="ssr:stedsnr" v="534260" />
		<tag k="waterway" v="stream" />
	</node>
	<node id="-821017" lat="64.1329833349" lon="11.6885249979">
		<tag k="name" v="Aunelva" />
		<tag k="ssr:stedsnr" v="696104" />
		<tag k="waterway" v="river" />
	</node>
	<node id="-821016" lat="64.104024999" lon="12.0063583313">
		<tag k="name" v="Reintjønna" />
		<tag k="natural" v="water" />
		<tag k="ssr:stedsnr" v="742344" />
	</node>
	<node id="-820454" lat="64.099513885" lon="12.1346333336">
		<tag k="name" v="Gåstjønna" />
		<tag k="natural" v="water" />
		<tag k="ssr:stedsnr" v="499306" />
	</node>
	<node id="-823061" lat="64.1325416646" lon="11.8569388948">
		<tag k="name" v="Godhamnbekken" />
		<tag k="ssr:stedsnr" v="453813" />
		<tag k="waterway" v="stream" />
	</node>
	<node id="-821012" lat="64.0448222229" lon="11.7921027805">
		<tag k="alt_name" v="Fiskløysa" />
		<tag k="name" v="Fiskløysan, l" />
		<tag k="natural" v="water" />
		<tag k="ssr:stedsnr" v="559643" />
		<tag k="water" v="lake" />
	</node>
	<node id="-823059" lat="63.9592361151" lon="12.1838333284">
		<tag k="name" v="Heimtjønna" />
		<tag k="natural" v="water" />
		<tag k="ssr:stedsnr" v="378412" />
	</node>
	<node id="-821010" lat="64.056216663" lon="11.4679638896">
		<tag k="name" v="Vassaunvatnet" />
		<tag k="natural" v="water" />
		<tag k="ssr:stedsnr" v="377006" />
	</node>
	<node id="-823055" lat="63.9584499968" lon="12.2081416706">
		<tag k="name" v="Stortjønnin" />
		<tag k="natural" v="water" />
		<tag k="ssr:stedsnr" v="378413" />
		<tag k="water" v="lake" />
	</node>
	<node id="-823053" lat="64.2696027736" lon="11.9251305611">
		<tag k="name" v="Ytter-Bangsjøen" />
		<tag k="natural" v="water" />
		<tag k="ssr:stedsnr" v="924595" />
		<tag k="water" v="lake" />
	</node>
	<node id="-823052" lat="63.9878138863" lon="11.7765027776">
		<tag k="name" v="Skjennbekken" />
		<tag k="ssr:stedsnr" v="89053" />
		<tag k="waterway" v="stream" />
	</node>
	<node id="-823050" lat="64.0631333318" lon="11.6410083258">
		<tag k="name" v="Fornesbukta" />
		<tag k="natural" v="bay" />
		<tag k="ssr:stedsnr" v="149279" />
	</node>
	<node id="-818953" lat="64.0185694417" lon="11.9032333346">
		<tag k="name" v="Kvernabekken" />
		<tag k="ssr:stedsnr" v="135815" />
		<tag k="waterway" v="stream" />
	</node>
	<node id="-818952" lat="63.9779083287" lon="12.176194454">
		<tag k="name" v="Merkesbekken" />
		<tag k="ssr:stedsnr" v="898632" />
		<tag k="waterway" v="stream" />
	</node>
	<node id="-823047" lat="64.0398138916" lon="11.6271083338">
		<tag k="fixme" v="multiple name tags, choose one and add the other to alt_name" />
		<tag k="name" v="Rådsbekken;Skjevlobekken" />
		<tag k="ssr:stedsnr" v="317086" />
		<tag k="waterway" v="stream" />
	</node>
	<node id="-818950" lat="64.1357055597" lon="11.3222555586">
		<tag k="name" v="Sandbekken" />
		<tag k="ssr:stedsnr" v="386775" />
		<tag k="waterway" v="stream" />
	</node>
	<node id="-821206" lat="64.1890027808" lon="11.8184055655">
		<tag k="name" v="Kvernhusbekken" />
		<tag k="ssr:stedsnr" v="211747" />
		<tag k="waterway" v="stream" />
	</node>
	<node id="-818945" lat="64.1168472182" lon="11.9631166679">
		<tag k="name" v="Vesterbotn" />
		<tag k="natural" v="bay" />
		<tag k="ssr:stedsnr" v="878921" />
	</node>
	<node id="-818944" lat="64.1482388918" lon="11.4574972326">
		<tag k="name" v="Øvre Holmfettjønna" />
		<tag k="natural" v="water" />
		<tag k="ssr:stedsnr" v="266585" />
	</node>
	<node id="-818943" lat="64.1338694419" lon="11.3342694514">
		<tag k="name" v="Ådalsbekken" />
		<tag k="ssr:stedsnr" v="386777" />
		<tag k="waterway" v="stream" />
	</node>
	<node id="-818941" lat="63.9303722228" lon="12.003783331">
		<tag k="name" v="Langtjønna" />
		<tag k="natural" v="water" />
		<tag k="ssr:stedsnr" v="620476" />
	</node>
	<node id="-823036" lat="63.9782277809" lon="12.2696138913">
		<tag k="name" v="Lågvatnet" />
		<tag k="natural" v="water" />
		<tag k="ssr:stedsnr" v="438679" />
	</node>
	<node id="-818939" lat="64.1589805566" lon="11.7537027755">
		<tag k="name" v="Okstjønna" />
		<tag k="natural" v="water" />
		<tag k="ssr:stedsnr" v="28027" />
	</node>
	<node id="-821204" lat="64.1846027777" lon="11.9577833432">
		<tag k="name" v="Nestangen" />
		<tag k="natural" v="cape" />
		<tag k="ssr:stedsnr" v="13512" />
	</node>
	<node id="-819497" lat="64.2277194422" lon="11.5643833265">
		<tag k="name" v="Bergtjønnin" />
		<tag k="natural" v="water" />
		<tag k="ssr:stedsnr" v="594063" />
	</node>
	<node id="-823027" lat="64.0386527759" lon="11.5832611072">
		<tag k="name" v="Reinsvatnet" />
		<tag k="natural" v="water" />
		<tag k="ssr:stedsnr" v="317090" />
		<tag k="water" v="lake" />
	</node>
	<node id="-823251" lat="63.9846694412" lon="11.6821472133">
		<tag k="name" v="Kvernhusfossen" />
		<tag k="natural" v="waterfall" />
		<tag k="ssr:stedsnr" v="878396" />
	</node>
	<node id="-818925" lat="64.1389027817" lon="11.4360083259">
		<tag k="name" v="Kvernhusbekken" />
		<tag k="ssr:stedsnr" v="629524" />
		<tag k="waterway" v="stream" />
	</node>
	<node id="-818130" lat="63.9491805596" lon="11.8800444523">
		<tag k="name" v="Raudfossen" />
		<tag k="natural" v="waterfall" />
		<tag k="ssr:stedsnr" v="412556" />
	</node>
	<node id="-818922" lat="63.9679888861" lon="11.8783666587">
		<tag k="name" v="Flisbekken" />
		<tag k="ssr:stedsnr" v="28022" />
		<tag k="waterway" v="stream" />
	</node>
	<node id="-818920" lat="63.92754167" lon="11.8127250063">
		<tag k="alt_name" v="Langvatnet, vestre" />
		<tag k="fixme" v="multiple name tags, choose one and add the other to alt_name" />
		<tag k="name" v="Langvatnet;Vestre Langvatnet" />
		<tag k="natural" v="water" />
		<tag k="ssr:stedsnr" v="620472" />
	</node>
	<node id="-823015" lat="64.19644444" lon="11.67816389">
		<tag k="name" v="Dalengtjønna" />
		<tag k="natural" v="water" />
		<tag k="ssr:stedsnr" v="412178" />
	</node>
	<node id="-818913" lat="64.1184611128" lon="11.4388750013">
		<tag k="name" v="Stibekken" />
		<tag k="ssr:stedsnr" v="629519" />
		<tag k="waterway" v="stream" />
	</node>
	<node id="-820960" lat="64.2560416652" lon="11.7168083363">
		<tag k="name" v="Bjørtjønna" />
		<tag k="natural" v="water" />
		<tag k="ssr:stedsnr" v="317815" />
	</node>
	<node id="-821925" lat="64.2459222234" lon="11.6499138847">
		<tag k="name" v="Rognvassbekken" />
		<tag k="ssr:stedsnr" v="716127" />
		<tag k="waterway" v="river" />
	</node>
	<node id="-818906" lat="63.9305638911" lon="11.6034444425">
		<tag k="name" v="Fossbekken" />
		<tag k="ssr:stedsnr" v="878917" />
		<tag k="waterway" v="stream" />
	</node>
	<node id="-823001" lat="64.1446388863" lon="11.2482138885">
		<tag k="name" v="Linåa" />
		<tag k="ssr:stedsnr" v="933779" />
		<tag k="waterway" v="river" />
	</node>
	<node id="-820951" lat="64.1050083323" lon="11.6335111015">
		<tag k="name" v="Landøya" />
		<tag k="place" v="islet" />
		<tag k="ssr:stedsnr" v="28530" />
	</node>
	<node id="-818899" lat="63.977080553" lon="11.7107527821">
		<tag k="name" v="Damtjønnbekken" />
		<tag k="ssr:stedsnr" v="593902" />
		<tag k="waterway" v="stream" />
	</node>
	<node id="-818898" lat="64.2144861133" lon="11.994786104">
		<tag k="name" v="Seterelva" />
		<tag k="ssr:stedsnr" v="392995" />
		<tag k="waterway" v="river" />
	</node>
	<node id="-818897" lat="64.1363916646" lon="11.594005561">
		<tag k="name" v="Litltjønna" />
		<tag k="natural" v="water" />
		<tag k="ssr:stedsnr" v="681766" />
	</node>
	<node id="-820944" lat="64.0290916637" lon="11.4633583278">
		<tag k="name" v="Lundelva" />
		<tag k="ssr:stedsnr" v="378045" />
		<tag k="waterway" v="stream" />
	</node>
	<node id="-822989" lat="64.1614944486" lon="11.5887388965">
		<tag k="name" v="Bjønnadalsbekken" />
		<tag k="ssr:stedsnr" v="464053" />
		<tag k="waterway" v="stream" />
	</node>
	<node id="-818892" lat="64.1998805529" lon="11.9995611035">
		<tag k="name" v="Sandvikbukta" />
		<tag k="natural" v="bay" />
		<tag k="ssr:stedsnr" v="392996" />
	</node>
	<node id="-820935" lat="64.0155500027" lon="12.1599611133">
		<tag k="name" v="Kjøråsøvja" />
		<tag k="natural" v="water" />
		<tag k="ssr:stedsnr" v="48250" />
	</node>
	<node id="-820930" lat="63.9868944412" lon="11.7984305513">
		<tag k="name" v="Østre Sjurslættbekken" />
		<tag k="ssr:stedsnr" v="696062" />
		<tag k="waterway" v="stream" />
	</node>
	<node id="-818880" lat="64.0641333324" lon="11.2721055643">
		<tag k="name" v="Brandsåsvatnet" />
		<tag k="natural" v="water" />
		<tag k="ssr:stedsnr" v="499039" />
	</node>
	<node id="-822975" lat="64.1797555553" lon="11.6935916589">
		<tag k="name" v="Nesjan" />
		<tag k="natural" v="cape" />
		<tag k="ssr:stedsnr" v="352167" />
	</node>
	<node id="-822970" lat="64.200591668" lon="11.6415611183">
		<tag k="name" v="Åssveseterbekken" />
		<tag k="ssr:stedsnr" v="352169" />
		<tag k="waterway" v="stream" />
	</node>
	<node id="-818873" lat="64.0513472212" lon="12.0313361076">
		<tag k="name" v="Setertjønna" />
		<tag k="natural" v="water" />
		<tag k="ssr:stedsnr" v="655480" />
	</node>
	<node id="-822967" lat="64.2106944448" lon="11.7001972154">
		<tag k="name" v="Langtjønna" />
		<tag k="natural" v="water" />
		<tag k="ssr:stedsnr" v="256890" />
	</node>
	<node id="-818870" lat="64.0631333352" lon="11.8302805462">
		<tag k="name" v="Kalddeklet" />
		<tag k="natural" v="water" />
		<tag k="ssr:stedsnr" v="533973" />
	</node>
	<node id="-818869" lat="64.1405194456" lon="11.475652769">
		<tag k="name" v="Sagbekken" />
		<tag k="ssr:stedsnr" v="266579" />
		<tag k="waterway" v="stream" />
	</node>
	<node id="-818865" lat="64.0513305546" lon="11.7974388857">
		<tag k="name" v="Hundtjønna" />
		<tag k="natural" v="water" />
		<tag k="ssr:stedsnr" v="533972" />
	</node>
	<node id="-820910" lat="64.0668138884" lon="11.8984138888">
		<tag k="name" v="Nordgardsneset" />
		<tag k="natural" v="cape" />
		<tag k="ssr:stedsnr" v="742307" />
	</node>
	<node id="-820908" lat="64.1300999974" lon="11.5039972175">
		<tag k="name" v="Storaunvatnet" />
		<tag k="natural" v="water" />
		<tag k="ssr:stedsnr" v="568522" />
		<tag k="water" v="lake" />
	</node>
	<node id="-822953" lat="64.0845999968" lon="11.7120499972">
		<tag k="name" v="Dybekken" />
		<tag k="ssr:stedsnr" v="635134" />
		<tag k="waterway" v="stream" />
	</node>
	<node id="-818856" lat="64.0195250045" lon="11.7847888869">
		<tag k="name" v="Holbekken" />
		<tag k="ssr:stedsnr" v="28004" />
		<tag k="waterway" v="stream" />
	</node>
	<node id="-822949" lat="64.0200111096" lon="11.9812277689">
		<tag k="name" v="Ambrobekken" />
		<tag k="ssr:stedsnr" v="473500" />
		<tag k="waterway" v="stream" />
	</node>
	<node id="-820900" lat="64.0046333328" lon="11.6180305595">
		<tag k="name" v="Ogna" />
		<tag k="ssr:stedsnr" v="499371" />
		<tag k="waterway" v="river" />
	</node>
	<node id="-823238" lat="64.1060916641" lon="11.6352527853">
		<tag k="name" v="Penghaugen" />
		<tag k="natural" v="cape" />
		<tag k="ssr:stedsnr" v="317120" />
	</node>
	<node id="-820898" lat="63.9493833322" lon="11.7546611055">
		<tag k="name" v="Svarttjønnbekken" />
		<tag k="ssr:stedsnr" v="838932" />
		<tag k="waterway" v="stream" />
	</node>
	<node id="-819483" lat="64.0519694418" lon="12.0201777794">
		<tag k="alt_name" v="Stamntjønna" />
		<tag k="name" v="Stamtjønna" />
		<tag k="natural" v="water" />
		<tag k="ssr:stedsnr" v="256301" />
	</node>
	<node id="-822943" lat="64.2074583297" lon="11.5822805519">
		<tag k="name" v="Lauvtangen" />
		<tag k="natural" v="cape" />
		<tag k="ssr:stedsnr" v="898048" />
	</node>
	<node id="-818846" lat="63.9426527743" lon="12.0657499934">
		<tag k="name" v="Svarttangen" />
		<tag k="natural" v="cape" />
		<tag k="ssr:stedsnr" v="620459" />
	</node>
	<node id="-822309" lat="64.1295027821" lon="11.7940444391">
		<tag k="name" v="Tiltnesbukta" />
		<tag k="natural" v="bay" />
		<tag k="ssr:stedsnr" v="879798" />
	</node>
	<node id="-818841" lat="64.0203444407" lon="11.7735138868">
		<tag k="name" v="Kvernabekken" />
		<tag k="ssr:stedsnr" v="28001" />
		<tag k="waterway" v="stream" />
	</node>
	<node id="-822936" lat="64.0124444415" lon="12.1780916585">
		<tag k="alt_name" v="Holmlonet" />
		<tag k="name" v="Holmlunet" />
		<tag k="place" v="locality" />
		<tag k="ssr:stedsnr" v="742667" />
	</node>
	<node id="-818838" lat="64.0674333364" lon="11.6784166658">
		<tag k="name" v="Forneselva" />
		<tag k="ssr:stedsnr" v="196036" />
		<tag k="waterway" v="stream" />
	</node>
	<node id="-822930" lat="64.0359055546" lon="12.10678889">
		<tag k="name" v="Svensktjønna" />
		<tag k="natural" v="water" />
		<tag k="ssr:stedsnr" v="438664" />
	</node>
	<node id="-822929" lat="63.9726472238" lon="11.7276083379">
		<tag k="name" v="Damtjønna" />
		<tag k="natural" v="water" />
		<tag k="ssr:stedsnr" v="135413" />
	</node>
	<node id="-817658" lat="64.1496194486" lon="11.9174444456">
		<tag k="name" v="Valløya" />
		<tag k="place" v="island" />
		<tag k="ssr:stedsnr" v="317282" />
	</node>
	<node id="-820874" lat="64.1071527749" lon="11.876900006">
		<tag k="name" v="Raudsjøen" />
		<tag k="natural" v="water" />
		<tag k="ssr:stedsnr" v="924229" />
		<tag k="water" v="lake" />
	</node>
	<node id="-818825" lat="64.1549527748" lon="11.3057805646">
		<tag k="name" v="Aunvatnet" />
		<tag k="natural" v="water" />
		<tag k="ssr:stedsnr" v="386744" />
		<tag k="water" v="lake" />
	</node>
	<node id="-822920" lat="64.0544388861" lon="11.9702166569">
		<tag k="name" v="Granåsbekken" />
		<tag k="ssr:stedsnr" v="473486" />
		<tag k="waterway" v="stream" />
	</node>
	<node id="-822918" lat="63.8786249974" lon="11.4765388803">
		<tag k="name" v="Vådalsvatnet" />
		<tag k="natural" v="water" />
		<tag k="ssr:stedsnr" v="317065" />
		<tag k="water" v="lake" />
	</node>
	<node id="-822209" lat="63.9693194477" lon="12.0571166599">
		<tag k="name" v="Hyllvadbekken" />
		<tag k="ssr:stedsnr" v="777708" />
		<tag k="waterway" v="stream" />
	</node>
	<node id="-822154" lat="64.0410277807" lon="12.1439666658">
		<tag k="name" v="Heveltjønna" />
		<tag k="natural" v="water" />
		<tag k="ssr:stedsnr" v="413502" />
	</node>
	<node id="-818676" lat="64.1117916703" lon="11.8480472161">
		<tag k="alt_name" v="Tosttjønna" />
		<tag k="name" v="Tosstjønna" />
		<tag k="natural" v="water" />
		<tag k="ssr:stedsnr" v="803263" />
	</node>
	<node id="-820865" lat="63.9465111127" lon="11.7458638915">
		<tag k="name" v="Krokåsbekken" />
		<tag k="ssr:stedsnr" v="838925" />
		<tag k="waterway" v="stream" />
	</node>
	<node id="-818816" lat="63.9338916632" lon="11.6347499899">
		<tag k="name" v="Fossbekken" />
		<tag k="ssr:stedsnr" v="499031" />
		<tag k="waterway" v="stream" />
	</node>
	<node id="-820860" lat="63.9887249962" lon="11.9819499939">
		<tag k="name" v="Hyttfossen" />
		<tag k="natural" v="waterfall" />
		<tag k="ssr:stedsnr" v="196379" />
	</node>
	<node id="-818794" lat="64.1565166685" lon="11.570263898">
		<tag k="name" v="Kvernabekken" />
		<tag k="ssr:stedsnr" v="872661" />
		<tag k="waterway" v="stream" />
	</node>
	<node id="-820856" lat="63.897358336" lon="11.6315972241">
		<tag k="name" v="Strandabekken" />
		<tag k="ssr:stedsnr" v="879430" />
		<tag k="waterway" v="stream" />
	</node>
	<node id="-818807" lat="64.0106916652" lon="11.8989499932">
		<tag k="name" v="Kusåsbekken" />
		<tag k="ssr:stedsnr" v="230875" />
		<tag k="waterway" v="stream" />
	</node>
	<node id="-820854" lat="64.0040999981" lon="11.5693250085">
		<tag k="name" v="Fosslibekken" />
		<tag k="ssr:stedsnr" v="939504" />
		<tag k="waterway" v="stream" />
	</node>
	<node id="-823230" lat="63.9188863138" lon="11.8680146125">
		<tag k="name" v="Sandtjønna" />
		<tag k="natural" v="water" />
		<tag k="old_name" v="Malivatnet" />
		<tag k="ssr:stedsnr" v="135468" />
	</node>
	<node id="-822896" lat="63.9573999971" lon="11.6758750065">
		<tag k="name" v="Tjuvdalsbekken" />
		<tag k="ssr:stedsnr" v="256868" />
		<tag k="waterway" v="stream" />
	</node>
	<node id="-822891" lat="64.2544499962" lon="11.9175222227">
		<tag k="name" v="Litl-Stavervatnet" />
		<tag k="natural" v="water" />
		<tag k="ssr:stedsnr" v="108799" />
	</node>
	<node id="-822890" lat="63.9194361121" lon="12.0446750081">
		<tag k="name" v="Merratjønnbekken" />
		<tag k="ssr:stedsnr" v="959707" />
		<tag k="waterway" v="stream" />
	</node>
	<node id="-818792" lat="64.0104472187" lon="11.5277333239">
		<tag k="name" v="Evindeligbekken" />
		<tag k="ssr:stedsnr" v="878898" />
		<tag k="waterway" v="stream" />
	</node>
	<node id="-820156" lat="63.9947333309" lon="11.9673305616">
		<tag k="alt_name" v="Nord-Rokta" />
		<tag k="name" v="Rokta" />
		<tag k="ssr:stedsnr" v="499256" />
		<tag k="waterway" v="river" />
	</node>
	<node id="-820836" lat="64.1445749992" lon="11.4993111134">
		<tag k="name" v="Brennbekken" />
		<tag k="ssr:stedsnr" v="448626" />
		<tag k="waterway" v="stream" />
	</node>
	<node id="-818784" lat="64.0331194473" lon="12.0857666658">
		<tag k="name" v="Storkroktjønna" />
		<tag k="natural" v="water" />
		<tag k="ssr:stedsnr" v="655460" />
	</node>
	<node id="-821198" lat="63.9497083297" lon="11.950252776">
		<tag k="name" v="Solåsbekken" />
		<tag k="ssr:stedsnr" v="534508" />
		<tag k="waterway" v="stream" />
	</node>
	<node id="-820828" lat="64.117058329" lon="11.9782777825">
		<tag k="alt_name" v="Hytteøya;Høttøya" />
		<tag k="name" v="Hyttøya" />
		<tag k="place" v="islet" />
		<tag k="ssr:stedsnr" v="924236" />
	</node>
	<node id="-820826" lat="64.0914666659" lon="11.8521472181">
		<tag k="name" v="Storhenningen" />
		<tag k="natural" v="water" />
		<tag k="ssr:stedsnr" v="742333" />
	</node>
	<node id="-822873" lat="63.9633611141" lon="11.9625916758">
		<tag k="name" v="Fånetta" />
		<tag k="ssr:stedsnr" v="681373" />
		<tag k="waterway" v="stream" />
	</node>
	<node id="-818773" lat="64.1442722218" lon="12.0155055653">
		<tag k="name" v="Revtjønna" />
		<tag k="natural" v="water" />
		<tag k="ssr:stedsnr" v="559277" />
	</node>
	<node id="-820820" lat="64.0320583365" lon="11.5868333273">
		<tag k="name" v="Settenbekken" />
		<tag k="ssr:stedsnr" v="939523" />
		<tag k="waterway" v="stream" />
	</node>
	<node id="-818770" lat="64.1721638877" lon="11.8560833343">
		<tag k="name" v="Litløya" />
		<tag k="place" v="island" />
		<tag k="ssr:stedsnr" v="878872" />
	</node>
	<node id="-818769" lat="64.04526111" lon="12.1570916706">
		<tag k="name" v="Rundtjønna" />
		<tag k="natural" v="water" />
		<tag k="ssr:stedsnr" v="655457" />
	</node>
	<node id="-818765" lat="63.9759000031" lon="12.0938277877">
		<tag k="name" v="Holbekken" />
		<tag k="ssr:stedsnr" v="352692" />
		<tag k="waterway" v="stream" />
	</node>
	<node id="-820811" lat="64.0023222221" lon="12.1090138817">
		<tag k="name" v="Gammelnausttangen" />
		<tag k="natural" v="cape" />
		<tag k="ssr:stedsnr" v="959272" />
	</node>
	<node id="-818760" lat="63.9586444436" lon="12.361108335">
		<tag k="alt_name" v="Strugstadbekken, yt" />
		<tag k="name" v="Ytre Strugstadbekken" />
		<tag k="ssr:stedsnr" v="377694" />
		<tag k="waterway" v="stream" />
	</node>
	<node id="-822855" lat="63.918727779" lon="11.6834000097">
		<tag k="name" v="Hyllbekken" />
		<tag k="ssr:stedsnr" v="392383" />
		<tag k="waterway" v="stream" />
	</node>
	<node id="-822854" lat="63.9590861143" lon="11.764472216">
		<tag k="name" v="Åksjøen" />
		<tag k="natural" v="water" />
		<tag k="ssr:stedsnr" v="135397" />
		<tag k="water" v="lake" />
	</node>
	<node id="-822851" lat="64.2608611154" lon="11.9322611086">
		<tag k="name" v="Butjønnbekken" />
		<tag k="ssr:stedsnr" v="108796" />
		<tag k="waterway" v="stream" />
	</node>
	<node id="-818752" lat="63.9556694448" lon="11.7244250017">
		<tag k="name" v="Linbekken" />
		<tag k="ssr:stedsnr" v="716915" />
		<tag k="waterway" v="stream" />
	</node>
	<node id="-818750" lat="64.0859972238" lon="11.9222638922">
		<tag k="name" v="Svarttjønnbekken" />
		<tag k="ssr:stedsnr" v="533948" />
		<tag k="waterway" v="stream" />
	</node>
	<node id="-818749" lat="63.9968111116" lon="11.8709027857">
		<tag k="name" v="Hyllbekken" />
		<tag k="ssr:stedsnr" v="271056" />
		<tag k="waterway" v="stream" />
	</node>
	<node id="-818746" lat="63.8733277809" lon="11.527022224">
		<tag k="name" v="Sølvbekken" />
		<tag k="ssr:stedsnr" v="143526" />
		<tag k="waterway" v="stream" />
	</node>
	<node id="-817076" lat="64.1946833358" lon="11.4205472326">
		<tag k="name" v="Kvennåelva" />
		<tag k="ssr:stedsnr" v="593458" />
		<tag k="waterway" v="river" />
	</node>
	<node id="-822838" lat="63.9592888923" lon="11.5425777857">
		<tag k="name" v="Figgja" />
		<tag k="ssr:stedsnr" v="256861" />
		<tag k="waterway" v="river" />
	</node>
	<node id="-821674" lat="63.9349666666" lon="12.0507000064">
		<tag k="name" v="Hauktangen" />
		<tag k="natural" v="cape" />
		<tag k="ssr:stedsnr" v="742442" />
	</node>
	<node id="-818739" lat="64.1144305579" lon="12.0064527778">
		<tag k="name" v="Storøya" />
		<tag k="place" v="islet" />
		<tag k="ssr:stedsnr" v="803273" />
	</node>
	<node id="-820781" lat="64.0255416631" lon="12.070138889">
		<tag k="name" v="Svarttjønnbekken" />
		<tag k="ssr:stedsnr" v="48261" />
		<tag k="waterway" v="stream" />
	</node>
	<node id="-821940" lat="63.9971666667" lon="12.0193138959">
		<tag k="name" v="Badstudalsbukta" />
		<tag k="natural" v="bay" />
		<tag k="ssr:stedsnr" v="473265" />
	</node>
	<node id="-818729" lat="63.9490555514" lon="11.8888750072">
		<tag k="name" v="Raudfosstjønna" />
		<tag k="natural" v="water" />
		<tag k="ssr:stedsnr" v="898583" />
	</node>
	<node id="-818728" lat="64.0556194412" lon="11.342922228">
		<tag k="name" v="Lomtjønna" />
		<tag k="natural" v="water" />
		<tag k="ssr:stedsnr" v="499012" />
	</node>
	<node id="-818723" lat="64.0071527774" lon="12.0043888844">
		<tag k="name" v="Presttjønna" />
		<tag k="natural" v="water" />
		<tag k="ssr:stedsnr" v="655471" />
	</node>
	<node id="-820769" lat="64.1403888927" lon="11.7790055538">
		<tag k="name" v="Måsskjæra" />
		<tag k="place" v="islet" />
		<tag k="ssr:stedsnr" v="696050" />
	</node>
	<node id="-822814" lat="64.1122388844" lon="11.6962250033">
		<tag k="name" v="Geilvollbekken" />
		<tag k="ssr:stedsnr" v="149215" />
		<tag k="waterway" v="stream" />
	</node>
	<node id="-818714" lat="64.3257833307" lon="11.9225194475">
		<tag k="name" v="Setertjønna" />
		<tag k="natural" v="water" />
		<tag k="ssr:stedsnr" v="864628" />
	</node>
	<node id="-818536" lat="63.9259444398" lon="12.0364333425">
		<tag k="name" v="Litlfjorden" />
		<tag k="natural" v="bay" />
		<tag k="ssr:stedsnr" v="898527" />
	</node>
	<node id="-822805" lat="63.9567888902" lon="12.1837583389">
		<tag k="name" v="Løvertholet" />
		<tag k="natural" v="water" />
		<tag k="ssr:stedsnr" v="413655" />
	</node>
	<node id="-818708" lat="64.1368694461" lon="11.881394439">
		<tag k="name" v="Grønvika" />
		<tag k="natural" v="bay" />
		<tag k="ssr:stedsnr" v="559270" />
	</node>
	<node id="-820753" lat="64.2190277745" lon="11.5744444347">
		<tag k="name" v="Sandtjønna" />
		<tag k="natural" v="water" />
		<tag k="ssr:stedsnr" v="863908" />
	</node>
	<node id="-818704" lat="64.1300754661" lon="11.999055519">
		<tag k="name" v="Godtjønnin" />
		<tag k="natural" v="water" />
		<tag k="ssr:stedsnr" v="559272" />
	</node>
	<node id="-820748" lat="64.1240833332" lon="11.3872944407">
		<tag k="name" v="Vestre Kleivabekken" />
		<tag k="ssr:stedsnr" v="568479" />
		<tag k="waterway" v="stream" />
	</node>
	<node id="-820740" lat="63.9846388918" lon="12.008913893">
		<tag k="name" v="Havda" />
		<tag k="ssr:stedsnr" v="499355" />
		<tag k="waterway" v="river" />
	</node>
	<node id="-822783" lat="64.1054833305" lon="11.8445444515">
		<tag k="name" v="Tosttjønnbekken" />
		<tag k="ssr:stedsnr" v="108777" />
		<tag k="waterway" v="stream" />
	</node>
	<node id="-820734" lat="64.0685055561" lon="11.5396166759">
		<tag k="name" v="Litlstamnen" />
		<tag k="natural" v="water" />
		<tag k="ssr:stedsnr" v="135032" />
	</node>
	<node id="-822781" lat="64.0787111078" lon="11.8210083304">
		<tag k="alt_name" v="Selan, nedre" />
		<tag k="fixme" v="multiple name tags, choose one and add the other to alt_name" />
		<tag k="name" v="Kvennsela;Nedre Selan" />
		<tag k="natural" v="water" />
		<tag k="ssr:stedsnr" v="681340" />
	</node>
	<node id="-820732" lat="64.1317944475" lon="11.7097722184">
		<tag k="name" v="Hauganøra" />
		<tag k="place" v="locality" />
		<tag k="ssr:stedsnr" v="756100" />
	</node>
	<node id="-818681" lat="64.0164111153" lon="11.4875999992">
		<tag k="name" v="Steinkjerelva" />
		<tag k="ssr:stedsnr" v="392952" />
		<tag k="waterway" v="river" />
	</node>
	<node id="-821844" lat="64.1742972201" lon="11.7598111039">
		<tag k="name" v="Grønspolen" />
		<tag k="natural" v="cape" />
		<tag k="ssr:stedsnr" v="392122" />
	</node>
	<node id="-822772" lat="63.9934777788" lon="11.7298444355">
		<tag k="name" v="Brunbekken" />
		<tag k="ssr:stedsnr" v="878290" />
		<tag k="waterway" v="stream" />
	</node>
	<node id="-820719" lat="64.1517944408" lon="11.7465194508">
		<tag k="name" v="Lomtjønna" />
		<tag k="natural" v="water" />
		<tag k="ssr:stedsnr" v="453191" />
	</node>
	<node id="-818670" lat="63.9740027792" lon="11.9494861093">
		<tag k="name" v="Svartbekken" />
		<tag k="ssr:stedsnr" v="392949" />
		<tag k="waterway" v="stream" />
	</node>
	<node id="-820717" lat="64.1408416696" lon="11.7715638843">
		<tag k="name" v="Bertiløya" />
		<tag k="place" v="islet" />
		<tag k="ssr:stedsnr" v="742276" />
	</node>
	<node id="-820716" lat="63.8917999967" lon="11.6683861034">
		<tag k="name" v="Lomtjønna" />
		<tag k="natural" v="water" />
		<tag k="ssr:stedsnr" v="297302" />
	</node>
	<node id="-822759" lat="64.1363111127" lon="11.7195944486">
		<tag k="name" v="Flekstadbukta" />
		<tag k="natural" v="bay" />
		<tag k="ssr:stedsnr" v="635080" />
	</node>
	<node id="-818662" lat="64.0488833371" lon="11.5448805565">
		<tag k="name" v="Svarttjønna" />
		<tag k="natural" v="water" />
		<tag k="ssr:stedsnr" v="499008" />
	</node>
	<node id="-820706" lat="64.0410666644" lon="11.4104722159">
		<tag k="name" v="Vassaunbekken" />
		<tag k="ssr:stedsnr" v="135020" />
		<tag k="waterway" v="stream" />
	</node>
	<node id="-818655" lat="63.9177499996" lon="11.7057305527">
		<tag k="name" v="Litl-Hosetbekken" />
		<tag k="ssr:stedsnr" v="898543" />
		<tag k="waterway" v="stream" />
	</node>
	<node id="-822750" lat="63.9534527809" lon="12.3255861213">
		<tag k="name" v="Løbekken" />
		<tag k="ssr:stedsnr" v="196702" />
		<tag k="waterway" v="stream" />
	</node>
	<node id="-822749" lat="64.0251722241" lon="12.1791527873">
		<tag k="name" v="Ol-Jonasbekken" />
		<tag k="ssr:stedsnr" v="716348" />
		<tag k="waterway" v="stream" />
	</node>
	<node id="-820700" lat="64.2414277778" lon="11.8649777831">
		<tag k="name" v="Svarttjønna" />
		<tag k="natural" v="water" />
		<tag k="ssr:stedsnr" v="499350" />
	</node>
	<node id="-822747" lat="63.9523277763" lon="12.2244027781">
		<tag k="name" v="Finntjønna" />
		<tag k="natural" v="water" />
		<tag k="ssr:stedsnr" v="196697" />
	</node>
	<node id="-822745" lat="64.1542777774" lon="11.8261888936">
		<tag k="name" v="Buøya" />
		<tag k="place" v="islet" />
		<tag k="ssr:stedsnr" v="377298" />
	</node>
	<node id="-818648" lat="64.1117583336" lon="12.0093194505">
		<tag k="name" v="Storelvtangen" />
		<tag k="natural" v="cape" />
		<tag k="ssr:stedsnr" v="655449" />
	</node>
	<node id="-820694" lat="64.067111115" lon="11.7985388987">
		<tag k="name" v="Svarttjønna" />
		<tag k="natural" v="water" />
		<tag k="ssr:stedsnr" v="472961" />
	</node>
	<node id="-822740" lat="63.9277416666" lon="11.4073611142">
		<tag k="name" v="Hamremselva" />
		<tag k="ssr:stedsnr" v="508984" />
		<tag k="waterway" v="river" />
	</node>
	<node id="-822739" lat="64.2434166641" lon="11.6757972281">
		<tag k="name" v="Urdbekken" />
		<tag k="ssr:stedsnr" v="14863" />
		<tag k="waterway" v="stream" />
	</node>
	<node id="-818642" lat="63.9198555522" lon="11.941858331">
		<tag k="name" v="Litlrundtjønna" />
		<tag k="natural" v="water" />
		<tag k="ssr:stedsnr" v="317435" />
	</node>
	<node id="-820689" lat="63.9667027802" lon="12.0200472124">
		<tag k="name" v="Bjørbekken" />
		<tag k="ssr:stedsnr" v="196359" />
		<tag k="waterway" v="stream" />
	</node>
	<node id="-822736" lat="64.1562277797" lon="11.9396777783">
		<tag k="name" v="Hestnestangen" />
		<tag k="natural" v="cape" />
		<tag k="ssr:stedsnr" v="377299" />
	</node>
	<node id="-822729" lat="64.2896694422" lon="11.8535500094">
		<tag k="name" v="Kalvtjønna" />
		<tag k="natural" v="water" />
		<tag k="ssr:stedsnr" v="438632" />
	</node>
	<node id="-818631" lat="64.216880558" lon="11.872580561">
		<tag k="name" v="Litl-Tosttjønna" />
		<tag k="natural" v="water" />
		<tag k="ssr:stedsnr" v="290818" />
	</node>
	<node id="-822726" lat="63.9031861081" lon="11.6844527864">
		<tag k="name" v="Bergtjønna" />
		<tag k="natural" v="water" />
		<tag k="ssr:stedsnr" v="332351" />
	</node>
	<node id="-822725" lat="63.9724694435" lon="12.0763638869">
		<tag k="name" v="Høafossen" />
		<tag k="natural" v="waterfall" />
		<tag k="ssr:stedsnr" v="959699" />
	</node>
	<node id="-818628" lat="64.0284388853" lon="12.0654361205">
		<tag k="name" v="Sagbekken" />
		<tag k="ssr:stedsnr" v="655444" />
		<tag k="waterway" v="stream" />
	</node>
	<node id="-822723" lat="64.0089111132" lon="12.1634361053">
		<tag k="name" v="Gaulstadelva" />
		<tag k="ssr:stedsnr" v="439679" />
		<tag k="waterway" v="river" />
	</node>
	<node id="-822722" lat="64.0089555577" lon="12.1357166655">
		<tag k="name" v="Sela" />
		<tag k="natural" v="bay" />
		<tag k="ssr:stedsnr" v="230252" />
	</node>
	<node id="-822721" lat="64.0651666665" lon="11.5737611084">
		<tag k="name" v="Hundlovatnet" />
		<tag k="natural" v="water" />
		<tag k="ssr:stedsnr" v="317031" />
	</node>
	<node id="-818624" lat="64.0368361122" lon="12.0621416712">
		<tag k="name" v="Sagbekksela" />
		<tag k="natural" v="water" />
		<tag k="ssr:stedsnr" v="655445" />
		<tag k="water" v="lake" />
	</node>
	<node id="-822719" lat="63.9274666694" lon="11.6615111055">
		<tag k="name" v="Stamdalstjønna" />
		<tag k="natural" v="water" />
		<tag k="ssr:stedsnr" v="317030" />
	</node>
	<node id="-818622" lat="64.1937222227" lon="11.9080472277">
		<tag k="name" v="Hyllbekken" />
		<tag k="ssr:stedsnr" v="392935" />
		<tag k="waterway" v="stream" />
	</node>
	<node id="-820667" lat="64.1566555532" lon="11.7547694435">
		<tag k="name" v="Kutjønna" />
		<tag k="natural" v="water" />
		<tag k="ssr:stedsnr" v="742283" />
	</node>
	<node id="-822714" lat="64.0575305592" lon="11.3145111026">
		<tag k="name" v="Liavatnet" />
		<tag k="natural" v="water" />
		<tag k="ssr:stedsnr" v="620011" />
	</node>
	<node id="-820661" lat="64.0076805513" lon="12.1244861173">
		<tag k="name" v="Litlfjorden" />
		<tag k="natural" v="bay" />
		<tag k="ssr:stedsnr" v="74822" />
	</node>
	<node id="-820659" lat="64.0916888922" lon="11.8750138841">
		<tag k="alt_name" v="Stor-Fiskløysan" />
		<tag k="name" v="Fiskløysan" />
		<tag k="natural" v="water" />
		<tag k="ssr:stedsnr" v="439339" />
	</node>
	<node id="-820657" lat="63.9971527752" lon="12.0496638855">
		<tag k="name" v="Storholmen" />
		<tag k="place" v="islet" />
		<tag k="ssr:stedsnr" v="291306" />
	</node>
	<node id="-818669" lat="64.2764833301" lon="11.7676944403">
		<tag k="name" v="Hattjønnin" />
		<tag k="natural" v="water" />
		<tag k="ssr:stedsnr" v="351116" />
	</node>
	<node id="-822856" lat="64.0924077052" lon="11.9882116127">
		<tag k="name" v="Langseterdalsbekken" />
		<tag k="ssr:stedsnr" v="473476" />
		<tag k="waterway" v="stream" />
	</node>
	<node id="-819951" lat="63.9479777735" lon="12.0762833327">
		<tag k="name" v="Storbekkenset" />
		<tag k="natural" v="cape" />
		<tag k="ssr:stedsnr" v="109651" />
	</node>
	<node id="-822699" lat="64.1766944431" lon="11.438255548">
		<tag k="name" v="Pungen" />
		<tag k="natural" v="water" />
		<tag k="ssr:stedsnr" v="108735" />
	</node>
	<node id="-818602" lat="64.1204000033" lon="11.9553750079">
		<tag k="alt_name" v="Svartjønnin" />
		<tag k="name" v="Svarttjønnin" />
		<tag k="natural" v="water" />
		<tag k="ssr:stedsnr" v="803265" />
	</node>
	<node id="-822697" lat="64.013605553" lon="11.7744944341">
		<tag k="name" v="Langengtjønna" />
		<tag k="natural" v="water" />
		<tag k="ssr:stedsnr" v="635051" />
	</node>
	<node id="-818600" lat="63.9917833326" lon="12.2100222139">
		<tag k="name" v="Mormortjønna" />
		<tag k="natural" v="water" />
		<tag k="ssr:stedsnr" v="109333" />
	</node>
	<node id="-822695" lat="64.0705750025" lon="11.8823944411">
		<tag k="name" v="Hatlingvatnet" />
		<tag k="natural" v="water" />
		<tag k="ssr:stedsnr" v="378340" />
		<tag k="water" v="lake" />
	</node>
	<node id="-822694" lat="64.1659694452" lon="11.6067111078">
		<tag k="name" v="Moavatnet" />
		<tag k="natural" v="water" />
		<tag k="ssr:stedsnr" v="256833" />
	</node>
	<node id="-822171" lat="63.9377555586" lon="12.1035000066">
		<tag k="name" v="Håmmårsbekken" />
		<tag k="ssr:stedsnr" v="594689" />
		<tag k="waterway" v="stream" />
	</node>
	<node id="-820640" lat="63.9914888864" lon="12.0705194363">
		<tag k="name" v="Buabukta" />
		<tag k="natural" v="bay" />
		<tag k="ssr:stedsnr" v="291314" />
	</node>
	<node id="-818591" lat="63.9995305548" lon="12.2196972142">
		<tag k="name" v="Oddbekken" />
		<tag k="ssr:stedsnr" v="109323" />
		<tag k="waterway" v="stream" />
	</node>
	<node id="-818589" lat="63.9425749959" lon="11.7245805562">
		<tag k="name" v="Myrslotjønna" />
		<tag k="natural" v="water" />
		<tag k="ssr:stedsnr" v="317426" />
	</node>
	<node id="-820636" lat="63.9952777798" lon="11.5568888797">
		<tag k="name" v="Fosslibekken" />
		<tag k="ssr:stedsnr" v="271538" />
		<tag k="waterway" v="stream" />
	</node>
	<node id="-822682" lat="64.043286107" lon="11.3437055499">
		<tag k="name" v="Visetelva" />
		<tag k="ssr:stedsnr" v="204175" />
		<tag k="waterway" v="stream" />
	</node>
	<node id="-818585" lat="63.9748999961" lon="11.8623972172">
		<tag k="name" v="Lauva" />
		<tag k="ssr:stedsnr" v="620402" />
		<tag k="waterway" v="river" />
	</node>
	<node id="-818584" lat="63.9664583371" lon="12.3467111122">
		<tag k="name" v="Strugstadbukta" />
		<tag k="natural" v="bay" />
		<tag k="ssr:stedsnr" v="352646" />
	</node>
	<node id="-818582" lat="64.0890111086" lon="11.3351249993">
		<tag k="name" v="Utvikelva" />
		<tag k="ssr:stedsnr" v="690884" />
		<tag k="waterway" v="stream" />
	</node>
	<node id="-817049" lat="64.1657388889" lon="11.6822388929">
		<tag k="name" v="Vesterdalvatnet" />
		<tag k="natural" v="water" />
		<tag k="ssr:stedsnr" v="499818" />
	</node>
	<node id="-818580" lat="63.9571527776" lon="12.0547666738">
		<tag k="name" v="Grindmyrbekken" />
		<tag k="ssr:stedsnr" v="898525" />
		<tag k="waterway" v="stream" />
	</node>
	<node id="-820627" lat="64.1385138891" lon="11.865530555">
		<tag k="name" v="Godhamnan" />
		<tag k="natural" v="cape" />
		<tag k="ssr:stedsnr" v="742259" />
	</node>
	<node id="-818577" lat="64.1988722205" lon="11.8615388974">
		<tag k="name" v="Litlelva" />
		<tag k="ssr:stedsnr" v="149778" />
		<tag k="waterway" v="river" />
	</node>
	<node id="-822670" lat="64.0557722181" lon="11.343061111">
		<tag k="name" v="Lomtjønna" />
		<tag k="natural" v="water" />
		<tag k="ssr:stedsnr" v="750196" />
	</node>
	<node id="-822669" lat="64.166338892" lon="11.6644611046">
		<tag k="name" v="Sagbekken" />
		<tag k="ssr:stedsnr" v="230230" />
		<tag k="waterway" v="stream" />
	</node>
	<node id="-817681" lat="63.9542305551" lon="12.1884444467">
		<tag k="name" v="Godfisktjønna" />
		<tag k="natural" v="water" />
		<tag k="ssr:stedsnr" v="716655" />
	</node>
	<node id="-818569" lat="64.1807527771" lon="11.7477916644">
		<tag k="alt_name" v="Brela" />
		<tag k="name" v="Bræla" />
		<tag k="old_name" v="Breia" />
		<tag k="ssr:stedsnr" v="317430" />
		<tag k="waterway" v="stream" />
	</node>
	<node id="-822663" lat="64.2203527787" lon="11.5525861062">
		<tag k="name" v="Setertjønna" />
		<tag k="natural" v="water" />
		<tag k="ssr:stedsnr" v="803916" />
	</node>
	<node id="-818566" lat="64.088055554" lon="11.5064916746">
		<tag k="name" v="Oksåsbekken" />
		<tag k="ssr:stedsnr" v="803239" />
		<tag k="waterway" v="stream" />
	</node>
	<node id="-822660" lat="64.0087222237" lon="12.1657805485">
		<tag k="name" v="Damlonet" />
		<tag k="natural" v="water" />
		<tag k="ssr:stedsnr" v="716287" />
		<tag k="water" v="lake" />
	</node>
	<node id="-818563" lat="64.0106722234" lon="12.227599994">
		<tag k="name" v="Kvinandtjønna" />
		<tag k="natural" v="water" />
		<tag k="ssr:stedsnr" v="109319" />
	</node>
	<node id="-823189" lat="64.2935194457" lon="11.8397388979">
		<tag k="name" v="Vakkervatna" />
		<tag k="natural" v="water" />
		<tag k="ssr:stedsnr" v="924605" />
	</node>
	<node id="-822652" lat="64.1409333338" lon="11.9583361021">
		<tag k="name" v="Bøla" />
		<tag k="ssr:stedsnr" v="377275" />
		<tag k="waterway" v="river" />
	</node>
	<node id="-822651" lat="64.2563194481" lon="11.7607444347">
		<tag k="name" v="Spøttjønnbekken" />
		<tag k="ssr:stedsnr" v="412087" />
		<tag k="waterway" v="stream" />
	</node>
	<node id="-819775" lat="64.2261833317" lon="11.9160944415">
		<tag k="name" v="Litlelva" />
		<tag k="ssr:stedsnr" v="169807" />
		<tag k="waterway" v="stream" />
	</node>
	<node id="-820599" lat="64.0188472244" lon="12.1609805609">
		<tag k="name" v="Lustadelva" />
		<tag k="ssr:stedsnr" v="560660" />
		<tag k="waterway" v="river" />
	</node>
	<node id="-822644" lat="63.979183337" lon="11.8676527764">
		<tag k="name" v="Kvernhusfossen" />
		<tag k="natural" v="waterfall" />
		<tag k="ssr:stedsnr" v="635011" />
	</node>
	<node id="-818546" lat="63.9724166646" lon="11.4912611198">
		<tag k="name" v="Litlfløra" />
		<tag k="ssr:stedsnr" v="690898" />
		<tag k="waterway" v="stream" />
	</node>
	<node id="-820593" lat="64.0223222215" lon="11.8564055467">
		<tag k="name" v="Lomtjønna" />
		<tag k="natural" v="water" />
		<tag k="ssr:stedsnr" v="560661" />
	</node>
	<node id="-818543" lat="64.154269442" lon="11.3940055646">
		<tag k="name" v="Kvinnvasselva" />
		<tag k="ssr:stedsnr" v="169514" />
		<tag k="waterway" v="river" />
	</node>
	<node id="-818542" lat="64.2075361108" lon="11.8583138833">
		<tag k="name" v="Litlelva" />
		<tag k="ssr:stedsnr" v="229211" />
		<tag k="waterway" v="stream" />
	</node>
	<node id="-821821" lat="63.990644441" lon="11.64592499">
		<tag k="name" v="Skvallfossen" />
		<tag k="natural" v="waterfall" />
		<tag k="ssr:stedsnr" v="756378" />
	</node>
	<node id="-822634" lat="64.0857611082" lon="11.5317500061">
		<tag k="name" v="Skjetndalsbekken" />
		<tag k="ssr:stedsnr" v="22639" />
		<tag k="waterway" v="stream" />
	</node>
	<node id="-820584" lat="64.0186222196" lon="12.2251277729">
		<tag k="name" v="Finntjønna" />
		<tag k="natural" v="water" />
		<tag k="ssr:stedsnr" v="594325" />
	</node>
	<node id="-820583" lat="64.1300166673" lon="11.959355564">
		<tag k="name" v="Drivsvatnet" />
		<tag k="natural" v="water" />
		<tag k="ssr:stedsnr" v="742255" />
	</node>
	<node id="-820580" lat="64.2035027764" lon="11.8646527822">
		<tag k="name" v="Skarillbekken" />
		<tag k="ssr:stedsnr" v="48175" />
		<tag k="waterway" v="stream" />
	</node>
	<node id="-822627" lat="64.06773889" lon="11.8213333296">
		<tag k="name" v="Reintjønna" />
		<tag k="natural" v="water" />
		<tag k="ssr:stedsnr" v="681320" />
	</node>
	<node id="-818530" lat="64.1073444425" lon="11.8965999901">
		<tag k="name" v="Småvatna" />
		<tag k="natural" v="water" />
		<tag k="ssr:stedsnr" v="559241" />
	</node>
	<node id="-818529" lat="63.9424277753" lon="11.9031416692">
		<tag k="alt_name" v="Grønlibekken" />
		<tag k="name" v="Grønliheibekken" />
		<tag k="ssr:stedsnr" v="317420" />
		<tag k="waterway" v="stream" />
	</node>
	<node id="-820576" lat="64.2068027743" lon="11.8093499925">
		<tag k="alt_name" v="Løstjønna" />
		<tag k="name" v="Lystjønna" />
		<tag k="natural" v="water" />
		<tag k="ssr:stedsnr" v="499335" />
	</node>
	<node id="-817040" lat="63.9933805563" lon="12.0491694395">
		<tag k="name" v="Tomsåsholmen" />
		<tag k="place" v="islet" />
		<tag k="ssr:stedsnr" v="352268" />
	</node>
	<node id="-820794" lat="64.0520944422" lon="11.8078361177">
		<tag k="alt_name" v="Fiskløysa;Inner-Fiskløysa" />
		<tag k="name" v="Fiskløysan, store" />
		<tag k="natural" v="water" />
		<tag k="ssr:stedsnr" v="559641" />
		<tag k="water" v="lake" />
	</node>
	<node id="-820570" lat="64.1322305555" lon="11.7502083356">
		<tag k="name" v="Klingøya" />
		<tag k="place" v="islet" />
		<tag k="ssr:stedsnr" v="742252" />
	</node>
	<node id="-818518" lat="64.1122749977" lon="11.5856166606">
		<tag k="name" v="Langhåmmårbukta" />
		<tag k="natural" v="bay" />
		<tag k="ssr:stedsnr" v="89534" />
	</node>
	<node id="-818517" lat="64.1733805595" lon="11.7196888822">
		<tag k="name" v="Sagbekken" />
		<tag k="ssr:stedsnr" v="514106" />
		<tag k="waterway" v="stream" />
	</node>
	<node id="-820564" lat="64.2052166632" lon="11.9560305508">
		<tag k="name" v="Okstjønna" />
		<tag k="natural" v="water" />
		<tag k="ssr:stedsnr" v="13423" />
	</node>
	<node id="-821193" lat="64.1105666633" lon="11.9819138812">
		<tag k="name" v="Seterelva" />
		<tag k="ssr:stedsnr" v="594452" />
		<tag k="waterway" v="river" />
	</node>
	<node id="-818512" lat="64.2093916682" lon="11.6880722144">
		<tag k="name" v="Svarttjønna" />
		<tag k="natural" v="water" />
		<tag k="ssr:stedsnr" v="924889" />
	</node>
	<node id="-820109" lat="64.1147277743" lon="11.66489167">
		<tag k="name" v="Markabukta" />
		<tag k="natural" v="bay" />
		<tag k="ssr:stedsnr" v="742165" />
	</node>
	<node id="-822603" lat="64.1456777761" lon="11.9266388829">
		<tag k="name" v="Storøra" />
		<tag k="place" v="locality" />
		<tag k="ssr:stedsnr" v="939933" />
	</node>
	<node id="-818505" lat="64.0950666686" lon="11.6345972133">
		<tag k="name" v="Døsvika" />
		<tag k="natural" v="bay" />
		<tag k="ssr:stedsnr" v="803224" />
	</node>
	<node id="-820551" lat="64.1889611085" lon="11.462841661">
		<tag k="name" v="Bleia" />
		<tag k="natural" v="water" />
		<tag k="ssr:stedsnr" v="317747" />
		<tag k="water" v="lake" />
	</node>
	<node id="-818501" lat="64.1009416678" lon="11.5869527772">
		<tag k="name" v="Tangen" />
		<tag k="natural" v="cape" />
		<tag k="ssr:stedsnr" v="89537" />
	</node>
	<node id="-819228" lat="64.1313916706" lon="11.6448194445">
		<tag k="name" v="Knedalsbukta" />
		<tag k="natural" v="bay" />
		<tag k="ssr:stedsnr" v="28088" />
	</node>
	<node id="-820547" lat="64.2083611136" lon="11.7668944424">
		<tag k="name" v="Litlavunna" />
		<tag k="natural" v="water" />
		<tag k="ssr:stedsnr" v="959189" />
	</node>
	<node id="-822591" lat="64.11168889" lon="11.2497111034">
		<tag k="name" v="Geilbekken" />
		<tag k="ssr:stedsnr" v="690218" />
		<tag k="waterway" v="stream" />
	</node>
	<node id="-822590" lat="64.1788611073" lon="11.5199722175">
		<tag k="name" v="Snøkulten" />
		<tag k="natural" v="water" />
		<tag k="ssr:stedsnr" v="412070" />
	</node>
	<node id="-818493" lat="64.2103138863" lon="11.6563555644">
		<tag k="name" v="Holmtjønna" />
		<tag k="natural" v="water" />
		<tag k="ssr:stedsnr" v="924891" />
	</node>
	<node id="-820539" lat="64.2119305537" lon="12.0044138796">
		<tag k="name" v="Bjørnsjøen" />
		<tag k="natural" v="water" />
		<tag k="ssr:stedsnr" v="499324" />
	</node>
	<node id="-820537" lat="64.2132722264" lon="11.8567861105">
		<tag k="alt_name" v="Tosttjønna" />
		<tag k="name" v="Tosketjønna" />
		<tag k="natural" v="water" />
		<tag k="ssr:stedsnr" v="499325" />
	</node>
	<node id="-820536" lat="64.2214805534" lon="11.9424499924">
		<tag k="name" v="Stordeklet" />
		<tag k="natural" v="water" />
		<tag k="ssr:stedsnr" v="715814" />
	</node>
	<node id="-818487" lat="64.0332250012" lon="12.171480557">
		<tag k="name" v="Breibekktjønna" />
		<tag k="natural" v="water" />
		<tag k="ssr:stedsnr" v="377648" />
	</node>
	<node id="-820531" lat="64.1359111112" lon="11.5827111102">
		<tag k="name" v="Kalvtjønna" />
		<tag k="natural" v="water" />
		<tag k="ssr:stedsnr" v="28424" />
	</node>
	<node id="-818478" lat="64.2029222234" lon="11.9364027792">
		<tag k="name" v="Litlkvitesttjønna" />
		<tag k="natural" v="water" />
		<tag k="ssr:stedsnr" v="290791" />
	</node>
	<node id="-822571" lat="64.2778277772" lon="11.8534416573">
		<tag k="name" v="Breifossen" />
		<tag k="natural" v="waterfall" />
		<tag k="ssr:stedsnr" v="329157" />
	</node>
	<node id="-820522" lat="64.1298388881" lon="11.3263305601">
		<tag k="name" v="Ådalselva" />
		<tag k="ssr:stedsnr" v="83790" />
		<tag k="waterway" v="river" />
	</node>
	<node id="-820520" lat="64.1172694464" lon="11.9968749914">
		<tag k="name" v="Øyingen" />
		<tag k="natural" v="water" />
		<tag k="ssr:stedsnr" v="742240" />
		<tag k="water" v="lake" />
	</node>
	<node id="-820518" lat="64.081505552" lon="11.7810555541">
		<tag k="name" v="Borktangbekken" />
		<tag k="ssr:stedsnr" v="838828" />
		<tag k="waterway" v="stream" />
	</node>
	<node id="-820516" lat="64.1197333367" lon="11.3510250098">
		<tag k="name" v="Nesjbekken" />
		<tag k="ssr:stedsnr" v="83789" />
		<tag k="waterway" v="stream" />
	</node>
	<node id="-818464" lat="63.9882388932" lon="12.1129027874">
		<tag k="name" v="Linfåa" />
		<tag k="natural" v="water" />
		<tag k="ssr:stedsnr" v="109296" />
	</node>
	<node id="-820710" lat="64.2255638924" lon="11.9320444412">
		<tag k="alt_name" v="Fiskløysa" />
		<tag k="name" v="Fiskløysvatnet" />
		<tag k="natural" v="water" />
		<tag k="ssr:stedsnr" v="13443" />
	</node>
	<node id="-822553" lat="64.1493388861" lon="11.7251083334">
		<tag k="name" v="Slåttdalsbekken" />
		<tag k="ssr:stedsnr" v="878198" />
		<tag k="waterway" v="stream" />
	</node>
	<node id="-818453" lat="64.155205557" lon="11.5092444444">
		<tag k="name" v="Oksåsbekken" />
		<tag k="ssr:stedsnr" v="386631" />
		<tag k="waterway" v="stream" />
	</node>
	<node id="-818451" lat="63.9724583302" lon="11.6248888845">
		<tag k="name" v="Storbekken" />
		<tag k="ssr:stedsnr" v="392893" />
		<tag k="waterway" v="stream" />
	</node>
	<node id="-822544" lat="64.0293027791" lon="12.1199444544">
		<tag k="name" v="Damtjønna" />
		<tag k="natural" v="water" />
		<tag k="ssr:stedsnr" v="439645" />
	</node>
	<node id="-822542" lat="64.1976444463" lon="11.4483472176">
		<tag k="name" v="Svarttjønna" />
		<tag k="natural" v="water" />
		<tag k="ssr:stedsnr" v="256813" />
	</node>
	<node id="-818445" lat="64.2140138897" lon="11.6253638856">
		<tag k="name" v="Søndagstjønna" />
		<tag k="natural" v="water" />
		<tag k="ssr:stedsnr" v="351055" />
	</node>
	<node id="-818442" lat="63.919680559" lon="11.5058388814">
		<tag k="name" v="Skjelja" />
		<tag k="ssr:stedsnr" v="326699" />
		<tag k="waterway" v="stream" />
	</node>
	<node id="-818441" lat="64.1313972232" lon="11.8081638962">
		<tag k="name" v="Hansbukta" />
		<tag k="natural" v="bay" />
		<tag k="ssr:stedsnr" v="211033" />
	</node>
	<node id="-819824" lat="63.9462805531" lon="11.4103861096">
		<tag k="name" v="Holbekken" />
		<tag k="ssr:stedsnr" v="872900" />
		<tag k="waterway" v="stream" />
	</node>
	<node id="-821121" lat="63.9174527812" lon="11.8974833267">
		<tag k="name" v="Leinssetertjønna" />
		<tag k="natural" v="water" />
		<tag k="ssr:stedsnr" v="291515" />
	</node>
	<node id="-818434" lat="64.259236112" lon="11.7735583358">
		<tag k="name" v="Spøttjønna" />
		<tag k="natural" v="water" />
		<tag k="ssr:stedsnr" v="863523" />
	</node>
	<node id="-822527" lat="64.115669442" lon="11.3507861053">
		<tag k="name" v="Strandabekken" />
		<tag k="ssr:stedsnr" v="811786" />
		<tag k="waterway" v="stream" />
	</node>
	<node id="-820478" lat="63.9266972197" lon="12.0476166602">
		<tag k="name" v="Litlfjorden" />
		<tag k="natural" v="bay" />
		<tag k="ssr:stedsnr" v="74793" />
	</node>
	<node id="-820476" lat="64.1038666651" lon="11.8532944434">
		<tag k="name" v="Kvernatjønna" />
		<tag k="natural" v="water" />
		<tag k="ssr:stedsnr" v="742235" />
	</node>
	<node id="-820474" lat="63.9961472263" lon="12.0652805487">
		<tag k="name" v="Orrhanetangen" />
		<tag k="natural" v="cape" />
		<tag k="ssr:stedsnr" v="594302" />
	</node>
	<node id="-820469" lat="64.0847159115" lon="11.8011414311">
		<tag k="name" v="Tolbertjønna" />
		<tag k="natural" v="water" />
		<tag k="ssr:stedsnr" v="109782" />
	</node>
	<node id="-822515" lat="64.2128916675" lon="11.5810277801">
		<tag k="name" v="Merraholbukta" />
		<tag k="natural" v="bay" />
		<tag k="ssr:stedsnr" v="412058" />
	</node>
	<node id="-822514" lat="63.9471472211" lon="11.4516527844">
		<tag k="name" v="Ålbergstjønna" />
		<tag k="natural" v="water" />
		<tag k="ssr:stedsnr" v="508914" />
	</node>
	<node id="-820462" lat="64.0810750014" lon="11.635122215">
		<tag k="name" v="Sundet" />
		<tag k="natural" v="strait" />
		<tag k="ssr:stedsnr" v="438238" />
	</node>
	<node id="-819410" lat="63.9201333349" lon="11.8246333428">
		<tag k="name" v="Brigertjønna" />
		<tag k="natural" v="water" />
		<tag k="ssr:stedsnr" v="655602" />
	</node>
	<node id="-818406" lat="64.246213893" lon="11.9434416634">
		<tag k="name" v="Litlbutjønna" />
		<tag k="natural" v="water" />
		<tag k="ssr:stedsnr" v="620386" />
	</node>
	<node id="-822501" lat="64.2285861078" lon="11.9529222204">
		<tag k="name" v="Svarttjønna" />
		<tag k="natural" v="water" />
		<tag k="ssr:stedsnr" v="837821" />
	</node>
	<node id="-818404" lat="64.0397888923" lon="11.8908972153">
		<tag k="name" v="Tjønnbekken" />
		<tag k="ssr:stedsnr" v="377639" />
		<tag k="waterway" v="stream" />
	</node>
	<node id="-822496" lat="64.085372224" lon="11.442713898">
		<tag k="name" v="Blåbærhaugbekken" />
		<tag k="ssr:stedsnr" v="22610" />
		<tag k="waterway" v="stream" />
	</node>
	<node id="-818399" lat="64.026519447" lon="12.0872444517">
		<tag k="name" v="Litlkroktjønna" />
		<tag k="natural" v="water" />
		<tag k="ssr:stedsnr" v="109276" />
	</node>
	<node id="-822493" lat="63.9475083358" lon="12.0558416619">
		<tag k="name" v="Haldorberget" />
		<tag k="natural" v="cape" />
		<tag k="ssr:stedsnr" v="413572" />
	</node>
	<node id="-818396" lat="64.0781722258" lon="11.7730194416">
		<tag k="name" v="Killingholmen" />
		<tag k="place" v="islet" />
		<tag k="ssr:stedsnr" v="230767" />
	</node>
	<node id="-822491" lat="64.3029166654" lon="11.8645361199">
		<tag k="name" v="Storsandtjønna" />
		<tag k="natural" v="water" />
		<tag k="ssr:stedsnr" v="195607" />
	</node>
	<node id="-820440" lat="63.9311361082" lon="11.8397222156">
		<tag k="name" v="Svartbekken" />
		<tag k="ssr:stedsnr" v="257543" />
		<tag k="waterway" v="stream" />
	</node>
	<node id="-818391" lat="64.1940416704" lon="11.8840888953">
		<tag k="name" v="Korptjønna" />
		<tag k="natural" v="water" />
		<tag k="ssr:stedsnr" v="878781" />
	</node>
	<node id="-822484" lat="64.0125111131" lon="12.2150916671">
		<tag k="name" v="Vintertjønna" />
		<tag k="natural" v="water" />
		<tag k="ssr:stedsnr" v="196653" />
	</node>
	<node id="-822819" lat="64.1087861103" lon="11.8675749998">
		<tag k="name" v="Tonbukta" />
		<tag k="natural" v="bay" />
		<tag k="ssr:stedsnr" v="108780" />
	</node>
	<node id="-822480" lat="64.2927666689" lon="11.8696249914">
		<tag k="name" v="Sandtjønnbekken" />
		<tag k="ssr:stedsnr" v="438581" />
		<tag k="waterway" v="stream" />
	</node>
	<node id="-820571" lat="64.1091500025" lon="11.7151472309">
		<tag k="name" v="Kjølpåsbekken" />
		<tag k="ssr:stedsnr" v="453177" />
		<tag k="waterway" v="stream" />
	</node>
	<node id="-820430" lat="64.167780557" lon="11.4997166623">
		<tag k="name" v="Myrkløyva" />
		<tag k="natural" v="water" />
		<tag k="ssr:stedsnr" v="863850" />
	</node>
	<node id="-822477" lat="64.0743944421" lon="11.498374997">
		<tag k="name" v="Svenningbekken" />
		<tag k="ssr:stedsnr" v="933652" />
		<tag k="waterway" v="stream" />
	</node>
	<node id="-822475" lat="63.9684250034" lon="11.4962583297">
		<tag k="name" v="Fløra" />
		<tag k="ssr:stedsnr" v="508897" />
		<tag k="waterway" v="stream" />
	</node>
	<node id="-820425" lat="64.0004388929" lon="12.0257972144">
		<tag k="name" v="Kvitsandbukta" />
		<tag k="natural" v="bay" />
		<tag k="ssr:stedsnr" v="291265" />
	</node>
	<node id="-822471" lat="64.1176000035" lon="11.4149666584">
		<tag k="name" v="Moldelva" />
		<tag k="ssr:stedsnr" v="802824" />
		<tag k="waterway" v="river" />
	</node>
	<node id="-820422" lat="64.1088611137" lon="11.644469441">
		<tag k="name" v="Mensøya" />
		<tag k="place" v="island" />
		<tag k="ssr:stedsnr" v="924149" />
	</node>
	<node id="-818373" lat="64.0887083371" lon="11.4606388972">
		<tag k="name" v="Heltuvelva" />
		<tag k="ssr:stedsnr" v="386614" />
		<tag k="waterway" v="stream" />
	</node>
	<node id="-818371" lat="64.146125002" lon="11.9596916648">
		<tag k="name" v="Holbekken" />
		<tag k="ssr:stedsnr" v="332875" />
		<tag k="waterway" v="stream" />
	</node>
	<node id="-818368" lat="64.0221750033" lon="12.1603638877">
		<tag k="name" v="Breibekken" />
		<tag k="ssr:stedsnr" v="109271" />
		<tag k="waterway" v="stream" />
	</node>
	<node id="-818367" lat="64.1683555532" lon="12.0016083305">
		<tag k="name" v="Tjønna" />
		<tag k="natural" v="bay" />
		<tag k="ssr:stedsnr" v="74436" />
	</node>
	<node id="-818363" lat="64.2168750001" lon="11.6197305559">
		<tag k="name" v="Berettjønna" />
		<tag k="natural" v="water" />
		<tag k="ssr:stedsnr" v="351054" />
	</node>
	<node id="-820410" lat="64.2405749999" lon="11.7048666725">
		<tag k="name" v="Korptjønna" />
		<tag k="natural" v="water" />
		<tag k="ssr:stedsnr" v="864887" />
	</node>
	<node id="-820405" lat="64.1725805565" lon="11.7296777701">
		<tag k="name" v="Brelneset" />
		<tag k="natural" v="cape" />
		<tag k="ssr:stedsnr" v="453114" />
	</node>
	<node id="-818355" lat="64.0444444426" lon="11.9721999915">
		<tag k="name" v="Skartjønnin" />
		<tag k="natural" v="water" />
		<tag k="ssr:stedsnr" v="898471" />
	</node>
	<node id="-820402" lat="64.1720944427" lon="11.6689555543">
		<tag k="name" v="Austerseterbekken" />
		<tag k="ssr:stedsnr" v="291245" />
		<tag k="waterway" v="stream" />
	</node>
	<node id="-822445" lat="64.1895611074" lon="11.9617055505">
		<tag k="name" v="Klauvgardholmen" />
		<tag k="place" v="islet" />
		<tag k="ssr:stedsnr" v="939881" />
	</node>
	<node id="-821106" lat="64.0568777813" lon="11.2640972155">
		<tag k="name" v="Kvernhusbekken" />
		<tag k="ssr:stedsnr" v="864008" />
		<tag k="waterway" v="stream" />
	</node>
	<node id="-822440" lat="63.8795583365" lon="11.4801777735">
		<tag k="name" v="Vådalsvatnet" />
		<tag k="natural" v="water" />
		<tag k="ssr:stedsnr" v="811763" />
		<tag k="water" v="lake" />
	</node>
	<node id="-820391" lat="64.0848166643" lon="11.4515388883">
		<tag k="name" v="Lundavatnet" />
		<tag k="natural" v="water" />
		<tag k="ssr:stedsnr" v="438233" />
	</node>
	<node id="-818342" lat="64.185411109" lon="11.8058611135">
		<tag k="name" v="Liavatnet" />
		<tag k="natural" v="water" />
		<tag k="ssr:stedsnr" v="863492" />
		<tag k="water" v="lake" />
	</node>
	<node id="-820388" lat="63.8760055524" lon="11.4760694511">
		<tag k="name" v="Svarttangen" />
		<tag k="natural" v="cape" />
		<tag k="ssr:stedsnr" v="143952" />
	</node>
	<node id="-822435" lat="64.2221583304" lon="11.6271749925">
		<tag k="name" v="Berettjønnbekken" />
		<tag k="ssr:stedsnr" v="958054" />
		<tag k="waterway" v="stream" />
	</node>
	<node id="-822434" lat="64.1416194441" lon="12.0311777726">
		<tag k="alt_name" v="Lauvhaugbekken" />
		<tag k="name" v="Heggesbekken" />
		<tag k="ssr:stedsnr" v="681278" />
		<tag k="waterway" v="stream" />
	</node>
	<node id="-818334" lat="64.1648250012" lon="11.8409055581">
		<tag k="name" v="Bruraskjæret" />
		<tag k="place" v="islet" />
		<tag k="ssr:stedsnr" v="392866" />
	</node>
	<node id="-822429" lat="64.2936361106" lon="11.9511750043">
		<tag k="name" v="Midterbogna" />
		<tag k="natural" v="strait" />
		<tag k="ssr:stedsnr" v="594753" />
	</node>
	<node id="-822427" lat="63.9255027785" lon="11.9712888904">
		<tag k="name" v="Storrundtjønna" />
		<tag k="natural" v="water" />
		<tag k="ssr:stedsnr" v="924464" />
	</node>
	<node id="-818330" lat="64.0049833349" lon="11.5855722196">
		<tag k="name" v="Bruemfossen" />
		<tag k="natural" v="waterfall" />
		<tag k="ssr:stedsnr" v="317384" />
	</node>
	<node id="-819055" lat="64.1114583379" lon="11.6511972157">
		<tag k="name" v="Aksneset" />
		<tag k="natural" v="cape" />
		<tag k="ssr:stedsnr" v="574259" />
	</node>
	<node id="-822424" lat="64.0845027741" lon="11.7199583388">
		<tag k="alt_name" v="Skjerveselva" />
		<tag k="name" v="Litlelva" />
		<tag k="ssr:stedsnr" v="878162" />
		<tag k="waterway" v="river" />
	</node>
	<node id="-822423" lat="64.1194138889" lon="11.7393027696">
		<tag k="name" v="Gørdalbekken" />
		<tag k="ssr:stedsnr" v="149111" />
		<tag k="waterway" v="stream" />
	</node>
	<node id="-818326" lat="64.2214944471" lon="11.9632388993">
		<tag k="name" v="Svarttjønna" />
		<tag k="natural" v="water" />
		<tag k="ssr:stedsnr" v="533835" />
	</node>
	<node id="-820373" lat="64.1305333316" lon="11.5051027749">
		<tag k="name" v="Rostadaunvatna" />
		<tag k="natural" v="water" />
		<tag k="ssr:stedsnr" v="74778" />
	</node>
	<node id="-818323" lat="64.0094277747" lon="11.7853666682">
		<tag k="name" v="Talsengtjønna" />
		<tag k="natural" v="water" />
		<tag k="ssr:stedsnr" v="514073" />
	</node>
	<node id="-822417" lat="64.0734666707" lon="12.1202277759">
		<tag k="name" v="Brannåa" />
		<tag k="ssr:stedsnr" v="256792" />
		<tag k="waterway" v="river" />
	</node>
	<node id="-822414" lat="64.1913111151" lon="11.7326916676">
		<tag k="name" v="Olknuttjønna" />
		<tag k="natural" v="water" />
		<tag k="ssr:stedsnr" v="924466" />
	</node>
	<node id="-821101" lat="63.9178861102" lon="11.9014277725">
		<tag k="name" v="Leinsbekken" />
		<tag k="ssr:stedsnr" v="419315" />
		<tag k="waterway" v="stream" />
	</node>
	<node id="-818316" lat="64.26435" lon="11.7856833292">
		<tag k="name" v="Spøtta" />
		<tag k="ssr:stedsnr" v="716831" />
		<tag k="waterway" v="stream" />
	</node>
	<node id="-822411" lat="64.1196805578" lon="11.5979305646">
		<tag k="name" v="Auntangen" />
		<tag k="natural" v="cape" />
		<tag k="ssr:stedsnr" v="210441" />
	</node>
	<node id="-818313" lat="64.0843222258" lon="11.412819441">
		<tag k="name" v="Prisringvatnet" />
		<tag k="natural" v="water" />
		<tag k="ssr:stedsnr" v="803207" />
	</node>
	<node id="-822405" lat="63.9987555577" lon="12.1393916631">
		<tag k="name" v="Litlfjorden" />
		<tag k="natural" v="bay" />
		<tag k="ssr:stedsnr" v="135316" />
	</node>
	<node id="-821114" lat="64.1775805562" lon="11.8547361089">
		<tag k="name" v="Dalabekken" />
		<tag k="ssr:stedsnr" v="211841" />
		<tag k="waterway" v="stream" />
	</node>
	<node id="-822401" lat="64.0320805518" lon="11.5203500034">
		<tag k="name" v="Byaelva" />
		<tag k="ssr:stedsnr" v="75109" />
		<tag k="waterway" v="river" />
	</node>
	<node id="-822464" lat="64.2151222182" lon="11.6461777795">
		<tag k="name" v="Kvamstjønna" />
		<tag k="natural" v="water" />
		<tag k="ssr:stedsnr" v="803905" />
	</node>
	<node id="-818301" lat="64.2127333311" lon="11.9574916671">
		<tag k="name" v="Neset" />
		<tag k="natural" v="cape" />
		<tag k="ssr:stedsnr" v="593768" />
	</node>
	<node id="-821182" lat="64.2532833346" lon="11.9029583311">
		<tag k="alt_name" v="Stavertjønna" />
		<tag k="name" v="Stor-Stavervatnet" />
		<tag k="natural" v="water" />
		<tag k="ssr:stedsnr" v="499424" />
	</node>
	<node id="-822463" lat="64.0535472255" lon="12.1435083253">
		<tag k="name" v="Flåtjønna" />
		<tag k="natural" v="water" />
		<tag k="ssr:stedsnr" v="681298" />
	</node>
	<node id="-820756" lat="64.0084444405" lon="12.1272527834">
		<tag k="name" v="Tronget" />
		<tag k="natural" v="strait" />
		<tag k="ssr:stedsnr" v="959238" />
	</node>
	<node id="-822389" lat="63.9840305509" lon="12.1693666763">
		<tag k="name" v="Smedseterbekken" />
		<tag k="ssr:stedsnr" v="291715" />
		<tag k="waterway" v="stream" />
	</node>
	<node id="-819204" lat="64.0795666676" lon="12.0237666595">
		<tag k="name" v="Larsheimtjønnin" />
		<tag k="natural" v="water" />
		<tag k="ssr:stedsnr" v="14263" />
	</node>
	<node id="-820336" lat="63.999238888" lon="12.2026972237">
		<tag k="name" v="Langtjønna" />
		<tag k="natural" v="water" />
		<tag k="ssr:stedsnr" v="196299" />
	</node>
	<node id="-822120" lat="63.9601333292" lon="12.3334805569">
		<tag k="name" v="Kinnarodden" />
		<tag k="natural" v="cape" />
		<tag k="ssr:stedsnr" v="291656" />
	</node>
	<node id="-822380" lat="64.1922194447" lon="11.7446888929">
		<tag k="name" v="Olknut-bekken" />
		<tag k="ssr:stedsnr" v="716257" />
		<tag k="waterway" v="stream" />
	</node>
	<node id="-820331" lat="64.1361555521" lon="11.7310222153">
		<tag k="name" v="Kvamsøra" />
		<tag k="natural" v="cape" />
		<tag k="ssr:stedsnr" v="453104" />
	</node>
	<node id="-822375" lat="64.0009916668" lon="11.9118444441">
		<tag k="name" v="Hyllbekken" />
		<tag k="ssr:stedsnr" v="499633" />
		<tag k="waterway" v="stream" />
	</node>
	<node id="-820326" lat="64.0889027756" lon="11.8304138797">
		<tag k="name" v="Blautbotnen" />
		<tag k="natural" v="water" />
		<tag k="ssr:stedsnr" v="499293" />
	</node>
	<node id="-822373" lat="64.1506555529" lon="11.2458333299">
		<tag k="name" v="Ferja" />
		<tag k="ssr:stedsnr" v="508872" />
		<tag k="waterway" v="river" />
	</node>
	<node id="-822371" lat="64.100908334" lon="11.8745972298">
		<tag k="name" v="Jakobtjønna" />
		<tag k="natural" v="water" />
		<tag k="ssr:stedsnr" v="837789" />
	</node>
	<node id="-818274" lat="63.9422749967" lon="12.1490277773">
		<tag k="name" v="Nekolaitjønna" />
		<tag k="natural" v="water" />
		<tag k="ssr:stedsnr" v="864541" />
	</node>
	<node id="-820320" lat="63.9983861078" lon="11.9697999997">
		<tag k="name" v="Fuldalsfossen" />
		<tag k="natural" v="waterfall" />
		<tag k="ssr:stedsnr" v="196302" />
	</node>
	<node id="-822800" lat="64.0318416642" lon="12.1039583256">
		<tag k="name" v="Sagbekken" />
		<tag k="ssr:stedsnr" v="742629" />
		<tag k="waterway" v="stream" />
	</node>
	<node id="-818270" lat="63.9281972201" lon="12.0713750059">
		<tag k="name" v="Andorvatnet" />
		<tag k="natural" v="water" />
		<tag k="ssr:stedsnr" v="75508" />
	</node>
	<node id="-820317" lat="64.1415083306" lon="11.6092055564">
		<tag k="name" v="Seterbekken" />
		<tag k="ssr:stedsnr" v="271463" />
		<tag k="waterway" v="stream" />
	</node>
	<node id="-820314" lat="63.9545777768" lon="11.7456694495">
		<tag k="name" v="Lomtjønna" />
		<tag k="natural" v="water" />
		<tag k="ssr:stedsnr" v="898931" />
	</node>
	<node id="-822361" lat="64.1753888859" lon="11.8802638809">
		<tag k="name" v="Olstangen" />
		<tag k="natural" v="cape" />
		<tag k="ssr:stedsnr" v="28882" />
	</node>
	<node id="-820312" lat="64.079980552" lon="11.8147111105">
		<tag k="name" v="Kvernafossen" />
		<tag k="natural" v="waterfall" />
		<tag k="ssr:stedsnr" v="499276" />
	</node>
	<node id="-820306" lat="64.1443777751" lon="11.3576722117">
		<tag k="name" v="Storengbekken" />
		<tag k="ssr:stedsnr" v="351505" />
		<tag k="waterway" v="stream" />
	</node>
	<node id="-822352" lat="63.9611833294" lon="12.2141888791">
		<tag k="name" v="Nordengosen" />
		<tag k="natural" v="bay" />
		<tag k="ssr:stedsnr" v="48594" />
	</node>
	<node id="-820303" lat="63.9496055514" lon="12.0272305529">
		<tag k="name" v="Storfjorden" />
		<tag k="natural" v="bay" />
		<tag k="ssr:stedsnr" v="256437" />
	</node>
	<node id="-818254" lat="63.9318333317" lon="11.9376027748">
		<tag k="name" v="Krokvatna" />
		<tag k="natural" v="water" />
		<tag k="ssr:stedsnr" v="864537" />
	</node>
	<node id="-822687" lat="63.9261111084" lon="11.9525027852">
		<tag k="name" v="Litlkroktjønna" />
		<tag k="natural" v="water" />
		<tag k="ssr:stedsnr" v="170504" />
	</node>
	<node id="-818252" lat="63.8726194448" lon="11.5090611043">
		<tag k="name" v="Stubbsetertjønna" />
		<tag k="natural" v="water" />
		<tag k="ssr:stedsnr" v="803178" />
	</node>
	<node id="-817335" lat="63.9216833319" lon="11.7090888981">
		<tag k="name" v="Hosetbekken" />
		<tag k="ssr:stedsnr" v="48934" />
		<tag k="waterway" v="stream" />
	</node>
	<node id="-818248" lat="64.3002916681" lon="11.8216777743">
		<tag k="name" v="Bergtjønnbekken" />
		<tag k="ssr:stedsnr" v="134640" />
		<tag k="waterway" v="stream" />
	</node>
	<node id="-818247" lat="63.9528138877" lon="12.3040777686">
		<tag k="name" v="Skjækerdammen" />
		<tag k="ssr:stedsnr" v="135704" />
		<tag k="waterway" v="dam" />
	</node>
	<node id="-820294" lat="64.0627722227" lon="11.8135499958">
		<tag k="name" v="Hundtjønna" />
		<tag k="natural" v="water" />
		<tag k="ssr:stedsnr" v="196292" />
	</node>
	<node id="-822339" lat="64.019911108" lon="11.5048416714">
		<tag k="name" v="Steinkjerelva" />
		<tag k="ssr:stedsnr" v="939853" />
		<tag k="waterway" v="river" />
	</node>
	<node id="-820290" lat="64.1562388864" lon="11.3402277791">
		<tag k="name" v="Bjønnsengbekken" />
		<tag k="ssr:stedsnr" v="411508" />
		<tag k="waterway" v="stream" />
	</node>
	<node id="-820288" lat="63.9424361151" lon="11.9992777855">
		<tag k="name" v="Kissbertjønna" />
		<tag k="natural" v="water" />
		<tag k="ssr:stedsnr" v="256432" />
	</node>
	<node id="-818239" lat="64.0939805599" lon="11.8824916655">
		<tag k="name" v="Rørtjønna" />
		<tag k="natural" v="water" />
		<tag k="ssr:stedsnr" v="593733" />
	</node>
	<node id="-822334" lat="64.1923833341" lon="11.440080552">
		<tag k="name" v="Majortjønna" />
		<tag k="natural" v="water" />
		<tag k="ssr:stedsnr" v="654753" />
	</node>
	<node id="-818236" lat="64.0916416626" lon="11.8685527793">
		<tag k="name" v="Litl-Fiskløysa" />
		<tag k="natural" v="water" />
		<tag k="ssr:stedsnr" v="593734" />
	</node>
	<node id="-818232" lat="64.051188888" lon="11.547316674">
		<tag k="name" v="Oksholet" />
		<tag k="natural" v="water" />
		<tag k="ssr:stedsnr" v="204713" />
	</node>
	<node id="-818231" lat="64.1472583364" lon="11.7813944444">
		<tag k="name" v="Hælsbukta" />
		<tag k="natural" v="bay" />
		<tag k="ssr:stedsnr" v="514043" />
	</node>
	<node id="-818230" lat="64.0162833335" lon="12.017122219">
		<tag k="name" v="Ner-Dompen" />
		<tag k="natural" v="waterfall" />
		<tag k="ssr:stedsnr" v="898467" />
	</node>
	<node id="-822325" lat="64.1263388912" lon="11.9183194361">
		<tag k="name" v="Korsfossen" />
		<tag k="natural" v="waterfall" />
		<tag k="ssr:stedsnr" v="271939" />
	</node>
	<node id="-818227" lat="64.1059583303" lon="11.8700861053">
		<tag k="name" v="Litløya" />
		<tag k="place" v="islet" />
		<tag k="ssr:stedsnr" v="593736" />
	</node>
	<node id="-820273" lat="64.0616361105" lon="11.7431416746">
		<tag k="name" v="Nattsjøen" />
		<tag k="natural" v="water" />
		<tag k="ssr:stedsnr" v="196289" />
	</node>
	<node id="-822319" lat="64.1321999985" lon="11.7813527815">
		<tag k="name" v="Sagtangen" />
		<tag k="natural" v="cape" />
		<tag k="ssr:stedsnr" v="681258" />
	</node>
	<node id="-820267" lat="64.0766694464" lon="11.755002779">
		<tag k="name" v="Hatlingelva" />
		<tag k="ssr:stedsnr" v="499271" />
		<tag k="waterway" v="river" />
	</node>
	<node id="-820266" lat="64.0772361126" lon="11.856952773">
		<tag k="name" v="Hatlingdammen" />
		<tag k="ssr:stedsnr" v="169938" />
		<tag k="waterway" v="dam" />
	</node>
	<node id="-818215" lat="63.9224166642" lon="11.7290055465">
		<tag k="name" v="Hystadtjønnin" />
		<tag k="natural" v="water" />
		<tag k="ssr:stedsnr" v="352566" />
	</node>
	<node id="-818213" lat="64.0925277745" lon="11.8190444441">
		<tag k="name" v="Svarttjønna" />
		<tag k="natural" v="water" />
		<tag k="ssr:stedsnr" v="776784" />
	</node>
	<node id="-818212" lat="64.0112027754" lon="11.9769583271">
		<tag k="name" v="Kroken" />
		<tag k="place" v="locality" />
		<tag k="ssr:stedsnr" v="378702" />
	</node>
	<node id="-818210" lat="63.9909944443" lon="11.7903944363">
		<tag k="name" v="Vestre Sjurslættbekken" />
		<tag k="ssr:stedsnr" v="574056" />
		<tag k="waterway" v="stream" />
	</node>
	<node id="-822302" lat="64.0831527824" lon="11.3015805475">
		<tag k="name" v="Brurabekken" />
		<tag k="ssr:stedsnr" v="508863" />
		<tag k="waterway" v="stream" />
	</node>
	<node id="-822300" lat="64.1656416683" lon="11.8401722215">
		<tag k="name" v="Rørkasttangen" />
		<tag k="natural" v="cape" />
		<tag k="ssr:stedsnr" v="939850" />
	</node>
	<node id="-818203" lat="64.0072555537" lon="12.0892944532">
		<tag k="name" v="Vika" />
		<tag k="natural" v="bay" />
		<tag k="ssr:stedsnr" v="378705" />
	</node>
	<node id="-818199" lat="64.1175083293" lon="11.3502694464">
		<tag k="name" v="Strandabekken" />
		<tag k="ssr:stedsnr" v="690807" />
		<tag k="waterway" v="stream" />
	</node>
	<node id="-820244" lat="64.0831166626" lon="11.9004777696">
		<tag k="name" v="Åsvasselva" />
		<tag k="ssr:stedsnr" v="499275" />
		<tag k="waterway" v="stream" />
	</node>
	<node id="-820238" lat="64.0103666625" lon="12.087797228">
		<tag k="name" v="Vikabekken" />
		<tag k="ssr:stedsnr" v="777270" />
		<tag k="waterway" v="stream" />
	</node>
	<node id="-822283" lat="64.0198694443" lon="11.9909444439">
		<tag k="name" v="Slettbekken" />
		<tag k="ssr:stedsnr" v="196619" />
		<tag k="waterway" v="stream" />
	</node>
	<node id="-822279" lat="64.0037694425" lon="12.1573000076">
		<tag k="name" v="Krokbekken" />
		<tag k="ssr:stedsnr" v="473326" />
		<tag k="waterway" v="stream" />
	</node>
	<node id="-821283" lat="63.9132305576" lon="11.7705388799">
		<tag k="name" v="Bulderåstjønna" />
		<tag k="natural" v="water" />
		<tag k="ssr:stedsnr" v="439440" />
	</node>
	<node id="-818180" lat="64.1466583343" lon="11.4629833346">
		<tag k="name" v="Nedre Holmfettjønna" />
		<tag k="natural" v="water" />
		<tag k="ssr:stedsnr" v="326633" />
	</node>
	<node id="-820777" lat="63.9800861103" lon="12.011411116">
		<tag k="name" v="Småbrufossen" />
		<tag k="natural" v="waterfall" />
		<tag k="ssr:stedsnr" v="499367" />
	</node>
	<node id="-822273" lat="64.2415083295" lon="11.7647250027">
		<tag k="name" v="Purktjønnbekken" />
		<tag k="ssr:stedsnr" v="776197" />
		<tag k="waterway" v="stream" />
	</node>
	<node id="-820224" lat="64.173844443" lon="11.4887944354">
		<tag k="name" v="Litlmyrkleiva" />
		<tag k="natural" v="water" />
		<tag k="ssr:stedsnr" v="411469" />
	</node>
	<node id="-820221" lat="64.1342638898" lon="11.2334444393">
		<tag k="name" v="Linåa" />
		<tag k="ssr:stedsnr" v="281671" />
		<tag k="waterway" v="stream" />
	</node>
	<node id="-818172" lat="64.0872499962" lon="11.8542194477">
		<tag k="name" v="Litlhenningen" />
		<tag k="natural" v="water" />
		<tag k="ssr:stedsnr" v="620339" />
	</node>
	<node id="-820735" lat="64.1271999959" lon="11.7034111108">
		<tag k="name" v="Hølen" />
		<tag k="natural" v="shoal" />
		<tag k="place" v="locality" />
		<tag k="ssr:stedsnr" v="756099" />
	</node>
	<node id="-822264" lat="64.1353583324" lon="12.0011694431">
		<tag k="name" v="Sagstutjønna" />
		<tag k="natural" v="water" />
		<tag k="ssr:stedsnr" v="271927" />
	</node>
	<node id="-822263" lat="64.2103166701" lon="11.7140638905">
		<tag k="name" v="Telemarktjønna" />
		<tag k="natural" v="water" />
		<tag k="ssr:stedsnr" v="716232" />
	</node>
	<node id="-817389" lat="64.2462611095" lon="11.7094944362">
		<tag k="name" v="Kroptjønnbekken" />
		<tag k="ssr:stedsnr" v="655121" />
		<tag k="waterway" v="stream" />
	</node>
	<node id="-819369" lat="64.1486222186" lon="11.4216499987">
		<tag k="name" v="Klunglitjønna" />
		<tag k="natural" v="water" />
		<tag k="ssr:stedsnr" v="775480" />
	</node>
	<node id="-818164" lat="64.1080166625" lon="11.8707249998">
		<tag k="name" v="Tontangen" />
		<tag k="natural" v="cape" />
		<tag k="ssr:stedsnr" v="533797" />
	</node>
	<node id="-820211" lat="64.1863805556" lon="11.7661694414">
		<tag k="name" v="Litlbrubekken" />
		<tag k="ssr:stedsnr" v="109709" />
		<tag k="waterway" v="stream" />
	</node>
	<node id="-820208" lat="64.261652778" lon="11.8514388968">
		<tag k="name" v="Svarttjønna" />
		<tag k="natural" v="water" />
		<tag k="ssr:stedsnr" v="803508" />
	</node>
	<node id="-820392" lat="64.1168416627" lon="11.5807277708">
		<tag k="name" v="Forfonelva" />
		<tag k="ssr:stedsnr" v="271481" />
		<tag k="waterway" v="river" />
	</node>
	<node id="-818158" lat="64.0261138875" lon="11.7382833402">
		<tag k="name" v="Litlaugla" />
		<tag k="ssr:stedsnr" v="681647" />
		<tag k="waterway" v="stream" />
	</node>
	<node id="-818157" lat="64.0538861112" lon="11.5441083426">
		<tag k="name" v="Lauvåstjønna" />
		<tag k="natural" v="water" />
		<tag k="ssr:stedsnr" v="507725" />
	</node>
	<node id="-820202" lat="64.1243888881" lon="11.7136777778">
		<tag k="name" v="Klingholmen" />
		<tag k="place" v="islet" />
		<tag k="ssr:stedsnr" v="74749" />
	</node>
	<node id="-820200" lat="64.1181805589" lon="11.2062833305">
		<tag k="name" v="Seterbekken" />
		<tag k="ssr:stedsnr" v="281679" />
		<tag k="waterway" v="stream" />
	</node>
	<node id="-818151" lat="64.0186111094" lon="12.149066658">
		<tag k="name" v="Meistjønnbekken" />
		<tag k="ssr:stedsnr" v="838297" />
		<tag k="waterway" v="stream" />
	</node>
	<node id="-821177" lat="64.1163750037" lon="11.9915888992">
		<tag k="name" v="Osøya" />
		<tag k="place" v="island" />
		<tag k="ssr:stedsnr" v="594456" />
	</node>
	<node id="-819813" lat="63.8938000043" lon="11.6541083417">
		<tag k="name" v="Strandatjønna" />
		<tag k="natural" v="water" />
		<tag k="ssr:stedsnr" v="514466" />
		<tag k="water" v="pond" />
	</node>
	<node id="-822243" lat="64.0018805522" lon="12.1265277679">
		<tag k="name" v="Nordvalen" />
		<tag k="natural" v="shoal" />
		<tag k="place" v="locality" />
		<tag k="ssr:stedsnr" v="473336" />
	</node>
	<node id="-818144" lat="64.0556194428" lon="11.5364722213">
		<tag k="name" v="Asplangvatnet" />
		<tag k="natural" v="water" />
		<tag k="ssr:stedsnr" v="690766" />
		<tag k="water" v="lake" />
	</node>
	<node id="-820048" lat="64.0934027741" lon="11.8548027759">
		<tag k="name" v="Malenaholet" />
		<tag k="natural" v="water" />
		<tag k="ssr:stedsnr" v="472774" />
	</node>
	<node id="-820187" lat="64.2010777782" lon="11.580991665">
		<tag k="name" v="Gilttangen" />
		<tag k="natural" v="cape" />
		<tag k="ssr:stedsnr" v="48068" />
	</node>
	<node id="-822234" lat="63.994236112" lon="12.0993222276">
		<tag k="name" v="Leirbekkbukta" />
		<tag k="natural" v="bay" />
		<tag k="ssr:stedsnr" v="473315" />
	</node>
	<node id="-818137" lat="64.1794638899" lon="11.9114555469">
		<tag k="name" v="Støatangen" />
		<tag k="natural" v="cape" />
		<tag k="ssr:stedsnr" v="863464" />
	</node>
	<node id="-818340" lat="64.1088916673" lon="11.6317999924">
		<tag k="name" v="Merraholmen" />
		<tag k="place" v="islet" />
		<tag k="ssr:stedsnr" v="14120" />
	</node>
	<node id="-819705" lat="63.9970027782" lon="12.1174027874">
		<tag k="alt_name" v="Valtangen, søre" />
		<tag k="name" v="Sørvaltangen" />
		<tag k="natural" v="cape" />
		<tag k="ssr:stedsnr" v="256323" />
	</node>
	<node id="-818131" lat="64.0192722245" lon="12.1380527845">
		<tag k="name" v="Liatjønna" />
		<tag k="natural" v="water" />
		<tag k="ssr:stedsnr" v="378682" />
	</node>
	<node id="-823154" lat="64.1311888913" lon="11.5801000029">
		<tag k="name" v="Stamvatnet" />
		<tag k="natural" v="water" />
		<tag k="ssr:stedsnr" v="499768" />
	</node>
	<node id="-822225" lat="64.1330718185" lon="11.5620149745">
		<tag k="name" v="Finntjønna" />
		<tag k="natural" v="water" />
		<tag k="ssr:stedsnr" v="265710" />
	</node>
	<node id="-822224" lat="63.9380944412" lon="12.1678694344">
		<tag k="name" v="Langtjønna" />
		<tag k="natural" v="water" />
		<tag k="ssr:stedsnr" v="777711" />
	</node>
	<node id="-819704" lat="64.1723777819" lon="11.3712277825">
		<tag k="name" v="Svarttjønnbekken" />
		<tag k="ssr:stedsnr" v="472686" />
		<tag k="waterway" v="stream" />
	</node>
	<node id="-822220" lat="64.1713305514" lon="11.8305833258">
		<tag k="name" v="Nødalsbukta" />
		<tag k="natural" v="bay" />
		<tag k="ssr:stedsnr" v="924436" />
	</node>
	<node id="-820170" lat="64.0601861156" lon="11.9350638829">
		<tag k="name" v="Lysåa" />
		<tag k="ssr:stedsnr" v="499255" />
		<tag k="waterway" v="stream" />
	</node>
	<node id="-822216" lat="64.0373222221" lon="12.0691416621">
		<tag k="name" v="Myrtjønna" />
		<tag k="natural" v="water" />
		<tag k="ssr:stedsnr" v="413506" />
	</node>
	<node id="-820163" lat="63.968219443" lon="11.4224888879">
		<tag k="name" v="Lænnbekken" />
		<tag k="ssr:stedsnr" v="667475" />
		<tag k="waterway" v="stream" />
	</node>
	<node id="-818113" lat="64.1253055586" lon="12.0256055568">
		<tag k="name" v="Råtjønnbekken" />
		<tag k="ssr:stedsnr" v="898444" />
		<tag k="waterway" v="stream" />
	</node>
	<node id="-818108" lat="63.9778861114" lon="11.9758833326">
		<tag k="name" v="Elgtjønna" />
		<tag k="natural" v="water" />
		<tag k="ssr:stedsnr" v="352533" />
	</node>
	<node id="-820630" lat="64.0214111066" lon="12.1862972292">
		<tag k="name" v="Daltjønna" />
		<tag k="natural" v="water" />
		<tag k="ssr:stedsnr" v="560658" />
	</node>
	<node id="-822202" lat="64.1215000043" lon="11.5128749994">
		<tag k="name" v="Melhustjønna" />
		<tag k="natural" v="water" />
		<tag k="ssr:stedsnr" v="14767" />
	</node>
	<node id="-822201" lat="64.0340999969" lon="12.1219749903">
		<tag k="name" v="Fiskløysa" />
		<tag k="natural" v="water" />
		<tag k="ssr:stedsnr" v="196606" />
	</node>
	<node id="-818103" lat="64.0324777779" lon="12.1023694413">
		<tag k="name" v="Sagfossen" />
		<tag k="natural" v="waterfall" />
		<tag k="ssr:stedsnr" v="898434" />
	</node>
	<node id="-820147" lat="64.1734944454" lon="11.8531416576">
		<tag k="alt_name" v="Brasetbukta" />
		<tag k="name" v="Brassetbukta" />
		<tag k="natural" v="bay" />
		<tag k="ssr:stedsnr" v="256405" />
	</node>
	<node id="-820040" lat="63.9448361127" lon="12.0477111062">
		<tag k="name" v="Storholmen" />
		<tag k="place" v="islet" />
		<tag k="ssr:stedsnr" v="14406" />
	</node>
	<node id="-819402" lat="64.1173916697" lon="11.2659861118">
		<tag k="name" v="Nesjan" />
		<tag k="ssr:stedsnr" v="872788" />
		<tag k="waterway" v="river" />
	</node>
	<node id="-822188" lat="63.9546944407" lon="11.422769448">
		<tag k="name" v="Lånkbekken" />
		<tag k="ssr:stedsnr" v="568887" />
		<tag k="waterway" v="stream" />
	</node>
	<node id="-822187" lat="64.0161361101" lon="11.7213944517">
		<tag k="name" v="Kolåsneset" />
		<tag k="natural" v="cape" />
		<tag k="ssr:stedsnr" v="696404" />
	</node>
	<node id="-818090" lat="64.0883666636" lon="11.9420805557">
		<tag k="name" v="Svarttjønnin" />
		<tag k="natural" v="water" />
		<tag k="ssr:stedsnr" v="620342" />
	</node>
	<node id="-818086" lat="64.174333335" lon="11.7442944429">
		<tag k="name" v="Skogvatnet" />
		<tag k="natural" v="water" />
		<tag k="ssr:stedsnr" v="863472" />
		<tag k="water" v="lake" />
	</node>
	<node id="-820133" lat="63.9306305581" lon="12.0701611151">
		<tag k="name" v="Hauktjønna" />
		<tag k="natural" v="water" />
		<tag k="ssr:stedsnr" v="838740" />
	</node>
	<node id="-820179" lat="64.1168472252" lon="11.5484027696">
		<tag k="name" v="Emingsbekken" />
		<tag k="ssr:stedsnr" v="83681" />
		<tag k="waterway" v="stream" />
	</node>
	<node id="-821311" lat="64.1774777736" lon="11.8813527789">
		<tag k="name" v="Ryggabukta" />
		<tag k="natural" v="bay" />
		<tag k="ssr:stedsnr" v="514822" />
	</node>
	<node id="-818075" lat="64.1050694451" lon="11.5734055623">
		<tag k="name" v="Semsbukta" />
		<tag k="natural" v="bay" />
		<tag k="ssr:stedsnr" v="257138" />
	</node>
	<node id="-821743" lat="64.080850003" lon="11.9303694382">
		<tag k="name" v="Langseterelva" />
		<tag k="ssr:stedsnr" v="681333" />
		<tag k="waterway" v="stream" />
	</node>
	<node id="-822167" lat="63.9594472231" lon="11.8808972201">
		<tag k="name" v="Eksingtjønna" />
		<tag k="natural" v="water" />
		<tag k="ssr:stedsnr" v="48549" />
	</node>
	<node id="-818069" lat="64.0789499984" lon="11.5931000095">
		<tag k="name" v="Stamnvassbekken" />
		<tag k="ssr:stedsnr" v="89432" />
		<tag k="waterway" v="stream" />
	</node>
	<node id="-820116" lat="63.9799499991" lon="12.0423972289">
		<tag k="name" v="Langmyrsela" />
		<tag k="natural" v="water" />
		<tag k="ssr:stedsnr" v="838735" />
		<tag k="water" v="lake" />
	</node>
	<node id="-820115" lat="63.9230305545" lon="12.0800750038">
		<tag k="name" v="Litl-Langdalsbekken" />
		<tag k="ssr:stedsnr" v="109684" />
		<tag k="waterway" v="stream" />
	</node>
	<node id="-820114" lat="63.9817249973" lon="12.0066000074">
		<tag k="name" v="Havdkløftet" />
		<tag k="place" v="locality" />
		<tag k="ssr:stedsnr" v="256396" />
	</node>
	<node id="-822159" lat="64.1960277783" lon="11.6030472175">
		<tag k="name" v="Rørdalsbukta" />
		<tag k="natural" v="bay" />
		<tag k="ssr:stedsnr" v="559831" />
	</node>
	<node id="-818062" lat="64.2291111126" lon="11.6876555597">
		<tag k="name" v="Litlgrønlivatnet" />
		<tag k="natural" v="water" />
		<tag k="ssr:stedsnr" v="438908" />
		<tag k="water" v="lake" />
	</node>
	<node id="-822157" lat="64.1974583354" lon="11.5704027799">
		<tag k="name" v="Fivestjønna" />
		<tag k="natural" v="water" />
		<tag k="ssr:stedsnr" v="559832" />
	</node>
	<node id="-818060" lat="64.1058361145" lon="11.6483083395">
		<tag k="name" v="Nordengbukta" />
		<tag k="natural" v="bay" />
		<tag k="ssr:stedsnr" v="257140" />
	</node>
	<node id="-822947" lat="64.1953055567" lon="11.515177769">
		<tag k="name" v="Råvåtjønnbekken" />
		<tag k="ssr:stedsnr" v="898058" />
		<tag k="waterway" v="stream" />
	</node>
	<node id="-820105" lat="64.214205551" lon="11.640797226">
		<tag k="name" v="Mårnsoltjønna" />
		<tag k="natural" v="water" />
		<tag k="ssr:stedsnr" v="594206" />
	</node>
	<node id="-822081" lat="64.116758337" lon="11.5251249929">
		<tag k="name" v="Melhusbekken" />
		<tag k="ssr:stedsnr" v="811669" />
		<tag k="waterway" v="stream" />
	</node>
	<node id="-818051" lat="64.1138583376" lon="11.5745888863">
		<tag k="alt_name" v="Langhåmmårelva" />
		<tag k="name" v="Semselva" />
		<tag k="ssr:stedsnr" v="559159" />
		<tag k="waterway" v="stream" />
	</node>
	<node id="-818048" lat="63.9747694477" lon="11.8629250092">
		<tag k="name" v="Harramyrholman" />
		<tag k="place" v="island" />
		<tag k="ssr:stedsnr" v="514005" />
	</node>
	<node id="-820093" lat="63.9722388878" lon="11.4458222217">
		<tag k="name" v="Holtauntjønna" />
		<tag k="natural" v="water" />
		<tag k="ssr:stedsnr" v="143876" />
	</node>
	<node id="-818021" lat="64.2033055564" lon="11.5291111172">
		<tag k="name" v="Gilten" />
		<tag k="natural" v="water" />
		<tag k="ssr:stedsnr" v="924822" />
		<tag k="water" v="lake" />
	</node>
	<node id="-819552" lat="64.2417666631" lon="11.6082916751">
		<tag k="name" v="Ragnhildtjønna" />
		<tag k="natural" v="water" />
		<tag k="ssr:stedsnr" v="291047" />
	</node>
	<node id="-822133" lat="64.1121416673" lon="12.0488999916">
		<tag k="name" v="Øvre Løstjønnin" />
		<tag k="natural" v="water" />
		<tag k="ssr:stedsnr" v="681248" />
	</node>
	<node id="-822130" lat="64.0364333317" lon="11.9643583278">
		<tag k="name" v="Vardtjønna" />
		<tag k="natural" v="water" />
		<tag k="ssr:stedsnr" v="351961" />
	</node>
	<node id="-820080" lat="64.1333109363" lon="11.5628023348">
		<tag k="fixme" v="multiple name tags, choose one and add the other to alt_name" />
		<tag k="name" v="Skeistjønna;Finntjønna" />
		<tag k="natural" v="water" />
		<tag k="ssr:stedsnr" v="863785" />
	</node>
	<node id="-820079" lat="63.9701694437" lon="12.1581277798">
		<tag k="name" v="Isbekken" />
		<tag k="ssr:stedsnr" v="109677" />
		<tag k="waterway" v="stream" />
	</node>
	<node id="-820075" lat="63.9861500028" lon="11.9283999919">
		<tag k="name" v="Loktjønna" />
		<tag k="natural" v="water" />
		<tag k="ssr:stedsnr" v="256394" />
	</node>
	<node id="-818025" lat="63.9493388874" lon="11.8601805644">
		<tag k="name" v="Svartbekken" />
		<tag k="ssr:stedsnr" v="412547" />
		<tag k="waterway" v="stream" />
	</node>
	<node id="-818024" lat="64.172594447" lon="11.3807138992">
		<tag k="name" v="Svarttjønna" />
		<tag k="natural" v="water" />
		<tag k="ssr:stedsnr" v="776720" />
	</node>
	<node id="-818022" lat="63.9097555548" lon="11.8070083257">
		<tag k="name" v="Høgmannselva" />
		<tag k="ssr:stedsnr" v="75471" />
		<tag k="waterway" v="stream" />
	</node>
	<node id="-820069" lat="63.9776750038" lon="12.1288833395">
		<tag k="name" v="Småslettbekken" />
		<tag k="ssr:stedsnr" v="838747" />
		<tag k="waterway" v="stream" />
	</node>
	<node id="-820068" lat="64.1476007443" lon="11.4600854661">
		<tag k="name" v="Holmfettjønna" />
		<tag k="natural" v="water" />
		<tag k="ssr:stedsnr" v="75796" />
	</node>
	<node id="-818019" lat="64.0666000006" lon="11.567441659">
		<tag k="name" v="Markavatna" />
		<tag k="natural" v="water" />
		<tag k="ssr:stedsnr" v="750719" />
	</node>
	<node id="-822114" lat="63.9667083316" lon="11.7520749902">
		<tag k="name" v="Svartåstjønnin" />
		<tag k="natural" v="water" />
		<tag k="ssr:stedsnr" v="351942" />
	</node>
	<node id="-822113" lat="64.1675833295" lon="11.8371583317">
		<tag k="name" v="Kråkskjæret" />
		<tag k="natural" v="cape" />
		<tag k="ssr:stedsnr" v="271891" />
	</node>
	<node id="-820063" lat="63.9479888911" lon="11.919649998">
		<tag k="name" v="Tuddurlibekken" />
		<tag k="ssr:stedsnr" v="14410" />
		<tag k="waterway" v="stream" />
	</node>
	<node id="-820061" lat="64.1298000012" lon="11.1975111182">
		<tag k="name" v="Bjønnadalsbekken" />
		<tag k="ssr:stedsnr" v="827682" />
		<tag k="waterway" v="stream" />
	</node>
	<node id="-817107" lat="64.0064166627" lon="11.9767388904">
		<tag k="name" v="Storøra" />
		<tag k="natural" v="beach" />
		<tag k="ssr:stedsnr" v="716512" />
	</node>
	<node id="-822102" lat="64.1703861075" lon="11.6913944352">
		<tag k="name" v="Seterbekken" />
		<tag k="ssr:stedsnr" v="716173" />
		<tag k="waterway" v="stream" />
	</node>
	<node id="-822100" lat="64.131788893" lon="11.825166672">
		<tag k="name" v="Storfossen" />
		<tag k="natural" v="waterfall" />
		<tag k="ssr:stedsnr" v="575026" />
	</node>
	<node id="-821172" lat="64.1549777822" lon="11.5021722247">
		<tag k="name" v="Oksåstjønna" />
		<tag k="natural" v="water" />
		<tag k="ssr:stedsnr" v="691572" />
	</node>
	<node id="-822090" lat="64.1312416701" lon="11.7880833318">
		<tag k="name" v="Oldertangen" />
		<tag k="natural" v="cape" />
		<tag k="ssr:stedsnr" v="575028" />
	</node>
	<node id="-820023" lat="64.096669443" lon="11.7819611113">
		<tag k="name" v="Litelelva" />
		<tag k="ssr:stedsnr" v="655743" />
		<tag k="waterway" v="stream" />
	</node>
	<node id="-817992" lat="63.973975001" lon="12.1152638946">
		<tag k="name" v="Jensbekken" />
		<tag k="ssr:stedsnr" v="230682" />
		<tag k="waterway" v="stream" />
	</node>
	<node id="-817991" lat="64.1044722236" lon="11.8004138877">
		<tag k="name" v="Tjurudalsbekken" />
		<tag k="ssr:stedsnr" v="716764" />
		<tag k="waterway" v="stream" />
	</node>
	<node id="-822085" lat="64.182305557" lon="11.5863777682">
		<tag k="name" v="Litldalsvatnet" />
		<tag k="natural" v="water" />
		<tag k="ssr:stedsnr" v="803828" />
	</node>
	<node id="-818315" lat="64.0143194408" lon="12.2038499895">
		<tag k="name" v="Trollfossen" />
		<tag k="natural" v="waterfall" />
		<tag k="ssr:stedsnr" v="681688" />
	</node>
	<node id="-822079" lat="64.0111472239" lon="12.0739222178">
		<tag k="name" v="Kattjønna" />
		<tag k="natural" v="water" />
		<tag k="ssr:stedsnr" v="473299" />
	</node>
	<node id="-822077" lat="64.0239666622" lon="11.5075611175">
		<tag k="name" v="Steinkjerholmen" />
		<tag k="place" v="islet" />
		<tag k="ssr:stedsnr" v="271896" />
	</node>
	<node id="-820028" lat="64.0302055578" lon="11.8258027758">
		<tag k="name" v="Bårdsbekken" />
		<tag k="ssr:stedsnr" v="169875" />
		<tag k="waterway" v="stream" />
	</node>
	<node id="-822075" lat="63.9176249958" lon="12.0113750012">
		<tag k="name" v="Hærvoltjønnbekken" />
		<tag k="ssr:stedsnr" v="924427" />
		<tag k="waterway" v="stream" />
	</node>
	<node id="-817978" lat="63.974341666" lon="12.1000166612">
		<tag k="name" v="Kvennhuselva" />
		<tag k="ssr:stedsnr" v="230672" />
		<tag k="waterway" v="river" />
	</node>
	<node id="-820025" lat="63.9944972215" lon="11.9917055501">
		<tag k="name" v="Badstubekken" />
		<tag k="ssr:stedsnr" v="802401" />
		<tag k="waterway" v="stream" />
	</node>
	<node id="-820024" lat="63.9441222183" lon="12.0928500095">
		<tag k="name" v="Storbekken" />
		<tag k="ssr:stedsnr" v="14403" />
		<tag k="waterway" v="stream" />
	</node>
	<node id="-817975" lat="63.9581972233" lon="12.1232333347">
		<tag k="name" v="Badstubekken" />
		<tag k="ssr:stedsnr" v="741837" />
		<tag k="waterway" v="stream" />
	</node>
	<node id="-817972" lat="64.002577774" lon="12.0863527753">
		<tag k="name" v="Lustadtangen" />
		<tag k="natural" v="cape" />
		<tag k="ssr:stedsnr" v="655294" />
	</node>
	<node id="-820019" lat="63.9914555584" lon="12.0415611178">
		<tag k="name" v="Tomsåstjønnin" />
		<tag k="natural" v="water" />
		<tag k="ssr:stedsnr" v="256386" />
	</node>
	<node id="-818034" lat="63.8733444451" lon="11.4995222127">
		<tag k="name" v="Myrbekken" />
		<tag k="ssr:stedsnr" v="690738" />
		<tag k="waterway" v="stream" />
	</node>
	<node id="-817968" lat="64.0398499987" lon="11.9071916609">
		<tag k="name" v="Fossemsseterbekken" />
		<tag k="ssr:stedsnr" v="681634" />
		<tag k="waterway" v="stream" />
	</node>
	<node id="-822062" lat="64.1338472212" lon="11.6835694524">
		<tag k="name" v="Hoabekken" />
		<tag k="ssr:stedsnr" v="878107" />
		<tag k="waterway" v="stream" />
	</node>
	<node id="-817965" lat="64.1640333352" lon="11.9798805522">
		<tag k="name" v="Bukta" />
		<tag k="natural" v="bay" />
		<tag k="ssr:stedsnr" v="863456" />
	</node>
	<node id="-822066" lat="64.1904833376" lon="11.9688361074">
		<tag k="name" v="Klauvgardholman" />
		<tag k="place" v="islet" />
		<tag k="ssr:stedsnr" v="211985" />
	</node>
	<node id="-817961" lat="64.017808337" lon="11.7179250046">
		<tag k="alt_name" v="Overreinfossen" />
		<tag k="name" v="Ovreinfossen" />
		<tag k="natural" v="waterfall" />
		<tag k="ssr:stedsnr" v="782751" />
	</node>
	<node id="-822055" lat="63.9813083303" lon="11.7022833357">
		<tag k="name" v="Seterfossen" />
		<tag k="natural" v="waterfall" />
		<tag k="ssr:stedsnr" v="351939" />
	</node>
	<node id="-817957" lat="64.2085527783" lon="11.5290333329">
		<tag k="name" v="Storøya" />
		<tag k="place" v="island" />
		<tag k="ssr:stedsnr" v="742916" />
	</node>
	<node id="-820003" lat="64.1806499972" lon="11.9238888916">
		<tag k="name" v="Kjerkolbukta" />
		<tag k="natural" v="bay" />
		<tag k="ssr:stedsnr" v="89891" />
	</node>
	<node id="-822050" lat="64.204794449" lon="11.5416527695">
		<tag k="name" v="Mefjordsgrunnen" />
		<tag k="place" v="locality" />
		<tag k="ssr:stedsnr" v="803834" />
	</node>
	<node id="-822049" lat="64.165008334" lon="11.9021388939">
		<tag k="name" v="Hjartøya" />
		<tag k="place" v="islet" />
		<tag k="ssr:stedsnr" v="924424" />
	</node>
	<node id="-817951" lat="63.9691194417" lon="12.0655777738">
		<tag k="name" v="Merkesbekken" />
		<tag k="ssr:stedsnr" v="716730" />
		<tag k="waterway" v="stream" />
	</node>
	<node id="-819997" lat="64.0472249991" lon="11.5131638826">
		<tag k="name" v="Steinsengbekken" />
		<tag k="ssr:stedsnr" v="514514" />
		<tag k="waterway" v="stream" />
	</node>
	<node id="-822043" lat="64.0265277764" lon="11.5853944414">
		<tag k="name" v="Setnvatnet" />
		<tag k="natural" v="water" />
		<tag k="ssr:stedsnr" v="75049" />
	</node>
	<node id="-817946" lat="64.1328694483" lon="11.8426583288">
		<tag k="name" v="Brattåsbekken" />
		<tag k="ssr:stedsnr" v="332778" />
		<tag k="waterway" v="stream" />
	</node>
	<node id="-817945" lat="63.9277361141" lon="11.7509083355">
		<tag k="name" v="Lomtjønna" />
		<tag k="natural" v="water" />
		<tag k="ssr:stedsnr" v="412519" />
	</node>
	<node id="-817944" lat="64.0659138896" lon="11.854577783">
		<tag k="name" v="Koltjønna" />
		<tag k="natural" v="water" />
		<tag k="ssr:stedsnr" v="620308" />
	</node>
	<node id="-822038" lat="63.9308166646" lon="12.0881583305">
		<tag k="name" v="Andorvassbekken" />
		<tag k="ssr:stedsnr" v="534733" />
		<tag k="waterway" v="stream" />
	</node>
	<node id="-820696" lat="64.3045555515" lon="11.9510305458">
		<tag k="name" v="Svartsautjønna" />
		<tag k="natural" v="water" />
		<tag k="ssr:stedsnr" v="559594" />
	</node>
	<node id="-821037" lat="64.1200833376" lon="11.7424555636">
		<tag k="name" v="Kalltrøbekken" />
		<tag k="ssr:stedsnr" v="696118" />
		<tag k="waterway" v="stream" />
	</node>
	<node id="-819979" lat="64.190361111" lon="11.8769222264">
		<tag k="name" v="Lomtjønna" />
		<tag k="natural" v="water" />
		<tag k="ssr:stedsnr" v="559471" />
	</node>
	<node id="-817930" lat="64.1307972246" lon="11.5066944435">
		<tag k="name" v="Storaunvatnet" />
		<tag k="natural" v="water" />
		<tag k="ssr:stedsnr" v="204641" />
		<tag k="water" v="lake" />
	</node>
	<node id="-822024" lat="64.1455666625" lon="11.5723694506">
		<tag k="name" v="Lomtjønna" />
		<tag k="natural" v="water" />
		<tag k="ssr:stedsnr" v="756403" />
	</node>
	<node id="-819973" lat="64.1182416693" lon="11.5941416668">
		<tag k="name" v="Aunbukta" />
		<tag k="natural" v="bay" />
		<tag k="ssr:stedsnr" v="438159" />
	</node>
	<node id="-822015" lat="64.189066666" lon="11.6152916619">
		<tag k="name" v="Oksåsengtjønna" />
		<tag k="natural" v="water" />
		<tag k="ssr:stedsnr" v="230083" />
	</node>
	<node id="-822009" lat="63.9757638896" lon="11.9156555544">
		<tag k="alt_name" v="Høttfossen" />
		<tag k="name" v="Hyttfossen" />
		<tag k="natural" v="waterfall" />
		<tag k="ssr:stedsnr" v="924406" />
	</node>
	<node id="-821510" lat="64.1137222205" lon="11.7195416714">
		<tag k="name" v="Nordgardsbekken" />
		<tag k="ssr:stedsnr" v="378181" />
		<tag k="waterway" v="stream" />
	</node>
	<node id="-817910" lat="64.1336638845" lon="11.536194443">
		<tag k="name" v="Bjørktjønna" />
		<tag k="natural" v="water" />
		<tag k="ssr:stedsnr" v="204646" />
		<tag k="water" v="lake" />
	</node>
	<node id="-817908" lat="64.0860416665" lon="11.5078166581">
		<tag k="name" v="Oksåselva" />
		<tag k="ssr:stedsnr" v="507656" />
		<tag k="waterway" v="stream" />
	</node>
	<node id="-822942" lat="64.1221111125" lon="11.349044445">
		<tag k="name" v="Hjelltjønna" />
		<tag k="natural" v="water" />
		<tag k="ssr:stedsnr" v="933783" />
	</node>
	<node id="-822002" lat="64.018833335" lon="12.1499972152">
		<tag k="name" v="Meistjønna" />
		<tag k="natural" v="water" />
		<tag k="ssr:stedsnr" v="473273" />
	</node>
	<node id="-822001" lat="64.1564472187" lon="11.5622583352">
		<tag k="name" v="Tvåråsbekken" />
		<tag k="ssr:stedsnr" v="265669" />
		<tag k="waterway" v="stream" />
	</node>
	<node id="-822000" lat="64.1542527786" lon="11.5574499926">
		<tag k="name" v="Sagbekken" />
		<tag k="ssr:stedsnr" v="265668" />
		<tag k="waterway" v="stream" />
	</node>
	<node id="-820555" lat="64.0704638905" lon="11.3426472141">
		<tag k="name" v="Morkvedbekken" />
		<tag k="ssr:stedsnr" v="265250" />
		<tag k="waterway" v="stream" />
	</node>
	<node id="-821998" lat="64.1304916659" lon="11.2638333317">
		<tag k="name" v="Størvollelva" />
		<tag k="ssr:stedsnr" v="508769" />
		<tag k="waterway" v="river" />
	</node>
	<node id="-821996" lat="63.9782833296" lon="12.0979999973">
		<tag k="name" v="Kattjønnin" />
		<tag k="natural" v="water" />
		<tag k="ssr:stedsnr" v="534717" />
	</node>
	<node id="-819943" lat="64.0087027735" lon="12.2553499962">
		<tag k="name" v="Sottjønnin" />
		<tag k="natural" v="water" />
		<tag k="ssr:stedsnr" v="377890" />
	</node>
	<node id="-821989" lat="63.9810000033" lon="11.8749416601">
		<tag k="name" v="Sagfossen" />
		<tag k="natural" v="waterfall" />
		<tag k="ssr:stedsnr" v="149012" />
	</node>
	<node id="-819939" lat="64.0600750035" lon="11.9227499993">
		<tag k="alt_name" v="Granåsbekken" />
		<tag k="name" v="Gråtåsbekken" />
		<tag k="ssr:stedsnr" v="802384" />
		<tag k="waterway" v="stream" />
	</node>
	<node id="-821985" lat="64.0750805528" lon="11.5804222254">
		<tag k="name" v="Stamvatnet" />
		<tag k="natural" v="water" />
		<tag k="ssr:stedsnr" v="681207" />
	</node>
	<node id="-821982" lat="63.991858336" lon="12.2851305516">
		<tag k="name" v="Tverrbekken" />
		<tag k="ssr:stedsnr" v="170352" />
		<tag k="waterway" v="stream" />
	</node>
	<node id="-817880" lat="64.15873333" lon="11.3121222212">
		<tag k="name" v="Nerengbekken" />
		<tag k="ssr:stedsnr" v="47512" />
		<tag k="waterway" v="stream" />
	</node>
	<node id="-817879" lat="64.0611999975" lon="11.7916944367">
		<tag k="alt_name" v="Austervatnet" />
		<tag k="name" v="Øystervatnet" />
		<tag k="natural" v="water" />
		<tag k="ssr:stedsnr" v="620313" />
	</node>
	<node id="-821973" lat="64.08251111" lon="11.4622805654">
		<tag k="name" v="Gulungbekken" />
		<tag k="ssr:stedsnr" v="265645" />
		<tag k="waterway" v="stream" />
	</node>
	<node id="-819515" lat="64.0186583324" lon="11.8916777676">
		<tag k="name" v="Lotjønna" />
		<tag k="natural" v="water" />
		<tag k="ssr:stedsnr" v="75711" />
	</node>
	<node id="-821967" lat="64.1880388917" lon="11.720983335">
		<tag k="name" v="Perkalltjønna" />
		<tag k="natural" v="water" />
		<tag k="ssr:stedsnr" v="473254" />
	</node>
	<node id="-819916" lat="63.9796444424" lon="12.1258055556">
		<tag k="name" v="Skrapdalsbekken" />
		<tag k="ssr:stedsnr" v="655715" />
		<tag k="waterway" v="stream" />
	</node>
	<node id="-821963" lat="64.0379416686" lon="11.4837083252">
		<tag k="name" v="Selesbekken" />
		<tag k="ssr:stedsnr" v="817921" />
		<tag k="waterway" v="stream" />
	</node>
	<node id="-819914" lat="64.1346249962" lon="11.8591833371">
		<tag k="name" v="Godhamnbekken" />
		<tag k="ssr:stedsnr" v="13308" />
		<tag k="waterway" v="stream" />
	</node>
	<node id="-820343" lat="64.0729861114" lon="11.8838527798">
		<tag k="name" v="Steikartangen" />
		<tag k="natural" v="cape" />
		<tag k="ssr:stedsnr" v="169960" />
	</node>
	<node id="-819258" lat="63.9915805566" lon="12.3011694411">
		<tag k="name" v="Seterbekken" />
		<tag k="ssr:stedsnr" v="864713" />
		<tag k="waterway" v="stream" />
	</node>
	<node id="-817863" lat="64.3014444462" lon="11.835858331">
		<tag k="name" v="Bergtjønna" />
		<tag k="natural" v="water" />
		<tag k="ssr:stedsnr" v="681594" />
	</node>
	<node id="-820001" lat="64.1711999994" lon="11.7734000061">
		<tag k="alt_name" v="Litlvatnet" />
		<tag k="name" v="Brunstadvatnet" />
		<tag k="natural" v="water" />
		<tag k="ssr:stedsnr" v="14397" />
	</node>
	<node id="-821952" lat="64.2565083302" lon="11.9376194357">
		<tag k="name" v="Butjønna" />
		<tag k="natural" v="water" />
		<tag k="ssr:stedsnr" v="438503" />
	</node>
	<node id="-821951" lat="63.9016138886" lon="11.4961361153">
		<tag k="name" v="Buåstjønna" />
		<tag k="natural" v="water" />
		<tag k="ssr:stedsnr" v="864096" />
	</node>
	<node id="-819902" lat="64.0122805583" lon="11.7543749916">
		<tag k="name" v="Sela" />
		<tag k="place" v="locality" />
		<tag k="ssr:stedsnr" v="211402" />
	</node>
	<node id="-817850" lat="64.1839472213" lon="11.6840500035">
		<tag k="name" v="Koppvatnet" />
		<tag k="natural" v="water" />
		<tag k="ssr:stedsnr" v="838226" />
	</node>
	<node id="-821945" lat="63.9785583295" lon="12.0480499979">
		<tag k="name" v="Mokkaelva" />
		<tag k="ssr:stedsnr" v="924408" />
		<tag k="waterway" v="river" />
	</node>
	<node id="-821944" lat="64.179891668" lon="11.8927166579">
		<tag k="name" v="Ryggabukta" />
		<tag k="natural" v="bay" />
		<tag k="ssr:stedsnr" v="817912" />
	</node>
	<node id="-819892" lat="64.0749111124" lon="11.7496555561">
		<tag k="name" v="Klæbuelva" />
		<tag k="ssr:stedsnr" v="635981" />
		<tag k="waterway" v="stream" />
	</node>
	<node id="-823070" lat="63.9238500041" lon="11.4111583241">
		<tag k="name" v="Leirelva" />
		<tag k="ssr:stedsnr" v="265971" />
		<tag k="waterway" v="river" />
	</node>
	<node id="-821938" lat="64.1143305575" lon="11.8967916598">
		<tag k="name" v="Raudsjøbekken" />
		<tag k="ssr:stedsnr" v="939785" />
		<tag k="waterway" v="stream" />
	</node>
	<node id="-817836" lat="64.091983331" lon="11.5120194492">
		<tag k="name" v="Lømselva" />
		<tag k="ssr:stedsnr" v="204619" />
		<tag k="waterway" v="stream" />
	</node>
	<node id="-819882" lat="64.165338885" lon="11.8397499905">
		<tag k="name" v="Aunvolltangen" />
		<tag k="natural" v="cape" />
		<tag k="ssr:stedsnr" v="14376" />
	</node>
	<node id="-822727" lat="63.9504944471" lon="11.552724999">
		<tag k="name" v="Skjelja" />
		<tag k="ssr:stedsnr" v="933732" />
		<tag k="waterway" v="river" />
	</node>
	<node id="-819880" lat="64.1165416648" lon="12.0349944482">
		<tag k="name" v="Raudsteinbekken" />
		<tag k="ssr:stedsnr" v="499202" />
		<tag k="waterway" v="stream" />
	</node>
	<node id="-821020" lat="64.1701277781" lon="11.3995083375">
		<tag k="name" v="Kviksåsvatnet" />
		<tag k="natural" v="water" />
		<tag k="ssr:stedsnr" v="317837" />
	</node>
	<node id="-819878" lat="64.1547555562" lon="11.4915694419">
		<tag k="name" v="Heltuvengbekken" />
		<tag k="ssr:stedsnr" v="23626" />
		<tag k="waterway" v="stream" />
	</node>
	<node id="-817829" lat="63.9123638921" lon="11.6462833311">
		<tag k="name" v="Tjønnbekkdalen" />
		<tag k="ssr:stedsnr" v="89377" />
		<tag k="waterway" v="stream" />
	</node>
	<node id="-821924" lat="64.2182583318" lon="11.6367499955">
		<tag k="name" v="Småtjønnin" />
		<tag k="natural" v="water" />
		<tag k="ssr:stedsnr" v="230056" />
	</node>
	<node id="-817826" lat="64.1721083296" lon="11.4285361134">
		<tag k="name" v="Jenshusvatnet" />
		<tag k="natural" v="water" />
		<tag k="ssr:stedsnr" v="742871" />
	</node>
	<node id="-817822" lat="64.1122499959" lon="11.2618694413">
		<tag k="name" v="Nesjielva" />
		<tag k="ssr:stedsnr" v="629193" />
		<tag k="waterway" v="stream" />
	</node>
	<node id="-817820" lat="64.0286444412" lon="11.8716749952">
		<tag k="name" v="Svartbekken" />
		<tag k="ssr:stedsnr" v="135634" />
		<tag k="waterway" v="stream" />
	</node>
	<node id="-817819" lat="63.9923638916" lon="11.747080546">
		<tag k="name" v="Grøttjønna" />
		<tag k="natural" v="water" />
		<tag k="ssr:stedsnr" v="317303" />
	</node>
	<node id="-820335" lat="64.088247225" lon="11.6989722269">
		<tag k="name" v="Øysterdyen" />
		<tag k="natural" v="water" />
		<tag k="ssr:stedsnr" v="742231" />
		<tag k="water" v="lake" />
	</node>
	<node id="-817815" lat="64.02633056" lon="12.0875166699">
		<tag k="name" v="Kroktjønnin" />
		<tag k="natural" v="water" />
		<tag k="ssr:stedsnr" v="135629" />
	</node>
	<node id="-817813" lat="64.1827750017" lon="11.5449055511">
		<tag k="name" v="Fiskløysa" />
		<tag k="natural" v="water" />
		<tag k="ssr:stedsnr" v="924798" />
	</node>
	<node id="-820771" lat="64.156477781" lon="11.7706555511">
		<tag k="name" v="Klingabekken" />
		<tag k="ssr:stedsnr" v="438304" />
		<tag k="waterway" v="stream" />
	</node>
	<node id="-821907" lat="63.9815694467" lon="11.9711250037">
		<tag k="name" v="Rundtjønna" />
		<tag k="natural" v="water" />
		<tag k="ssr:stedsnr" v="48488" />
	</node>
	<node id="-820675" lat="64.2237944411" lon="11.7190888843">
		<tag k="name" v="Grønlitjønna" />
		<tag k="natural" v="water" />
		<tag k="ssr:stedsnr" v="13435" />
	</node>
	<node id="-817808" lat="63.9988472247" lon="11.8064111126">
		<tag k="name" v="Storbekken" />
		<tag k="ssr:stedsnr" v="317302" />
		<tag k="waterway" v="stream" />
	</node>
	<node id="-819853" lat="64.0710638926" lon="11.8786277799">
		<tag k="name" v="Synåstangen" />
		<tag k="natural" v="cape" />
		<tag k="ssr:stedsnr" v="412954" />
	</node>
	<node id="-821899" lat="64.077227781" lon="11.5109805481">
		<tag k="name" v="Kjerringbekken" />
		<tag k="ssr:stedsnr" v="811625" />
		<tag k="waterway" v="stream" />
	</node>
	<node id="-821356" lat="64.0485352647" lon="12.1098452087">
		<tag k="name" v="Fisktjønnin" />
		<tag k="natural" v="water" />
		<tag k="ssr:stedsnr" v="256611" />
	</node>
	<node id="-817795" lat="63.9251249973" lon="11.7040361043">
		<tag k="name" v="Henningvatnet" />
		<tag k="natural" v="water" />
		<tag k="ssr:stedsnr" v="802053" />
		<tag k="water" v="lake" />
	</node>
	<node id="-819842" lat="64.1200555511" lon="11.6063944528">
		<tag k="name" v="Knesbukta" />
		<tag k="natural" v="bay" />
		<tag k="ssr:stedsnr" v="574461" />
	</node>
	<node id="-819841" lat="64.1312027816" lon="11.7433444441">
		<tag k="name" v="Solnestangen" />
		<tag k="natural" v="cape" />
		<tag k="ssr:stedsnr" v="13297" />
	</node>
	<node id="-821887" lat="64.1380111112" lon="11.6290249978">
		<tag k="name" v="Fivestjønna" />
		<tag k="natural" v="water" />
		<tag k="ssr:stedsnr" v="14718" />
	</node>
	<node id="-819838" lat="63.9829500015" lon="11.9924555603">
		<tag k="name" v="Furudalstjønna" />
		<tag k="natural" v="water" />
		<tag k="ssr:stedsnr" v="803448" />
	</node>
	<node id="-817789" lat="64.0207027737" lon="11.5195472174">
		<tag k="name" v="Midjoholmen" />
		<tag k="place" v="islet" />
		<tag k="ssr:stedsnr" v="210881" />
	</node>
	<node id="-817788" lat="64.189969448" lon="11.5021472227">
		<tag k="name" v="Råvåtjønna" />
		<tag k="natural" v="water" />
		<tag k="ssr:stedsnr" v="924797" />
	</node>
	<node id="-821880" lat="64.1365888873" lon="11.5073527785">
		<tag k="name" v="Kvernabekken" />
		<tag k="ssr:stedsnr" v="559796" />
		<tag k="waterway" v="stream" />
	</node>
	<node id="-821878" lat="64.0838499964" lon="11.3982055483">
		<tag k="name" v="Tessemelva" />
		<tag k="ssr:stedsnr" v="811617" />
		<tag k="waterway" v="river" />
	</node>
	<node id="-821876" lat="64.1749861083" lon="11.8425722189">
		<tag k="name" v="Rabekken" />
		<tag k="ssr:stedsnr" v="817880" />
		<tag k="waterway" v="stream" />
	</node>
	<node id="-820670" lat="64.2075444413" lon="11.566699997">
		<tag k="name" v="Hesttangen" />
		<tag k="natural" v="cape" />
		<tag k="ssr:stedsnr" v="74821" />
	</node>
	<node id="-821011" lat="63.9134972189" lon="11.9883527709">
		<tag k="name" v="Hærvoltjønna" />
		<tag k="natural" v="water" />
		<tag k="ssr:stedsnr" v="196412" />
	</node>
	<node id="-820447" lat="64.1889305528" lon="11.7072500067">
		<tag k="name" v="Grindbergsengbekken" />
		<tag k="ssr:stedsnr" v="291259" />
		<tag k="waterway" v="stream" />
	</node>
	<node id="-817775" lat="63.95774722" lon="12.2178027835">
		<tag k="name" v="Koitangen" />
		<tag k="natural" v="cape" />
		<tag k="ssr:stedsnr" v="230616" />
	</node>
	<node id="-817774" lat="63.9547583342" lon="12.3101638824">
		<tag k="name" v="Skiftesholmen" />
		<tag k="place" v="islet" />
		<tag k="ssr:stedsnr" v="716680" />
	</node>
	<node id="-821869" lat="64.2931361115" lon="11.8790888961">
		<tag k="name" v="Stuttjønna" />
		<tag k="natural" v="water" />
		<tag k="ssr:stedsnr" v="499540" />
	</node>
	<node id="-817768" lat="64.1434694447" lon="11.8022833396">
		<tag k="name" v="Langøya" />
		<tag k="place" v="island" />
		<tag k="ssr:stedsnr" v="620272" />
	</node>
	<node id="-819644" lat="63.9405916696" lon="12.1726722294">
		<tag k="name" v="Småtjønnin" />
		<tag k="natural" v="water" />
		<tag k="ssr:stedsnr" v="560509" />
	</node>
	<node id="-821862" lat="64.1298555525" lon="11.7380305636">
		<tag k="name" v="Moatangen" />
		<tag k="natural" v="cape" />
		<tag k="ssr:stedsnr" v="332107" />
	</node>
	<node id="-817765" lat="64.2283916713" lon="11.6446888811">
		<tag k="name" v="Rognvasselva" />
		<tag k="natural" v="water" />
		<tag k="ssr:stedsnr" v="655216" />
		<tag k="water" v="lake" />
	</node>
	<node id="-817764" lat="63.9952111153" lon="12.065947215">
		<tag k="name" v="Småholmtangen" />
		<tag k="natural" v="cape" />
		<tag k="ssr:stedsnr" v="74344" />
	</node>
	<node id="-819836" lat="64.1405249976" lon="11.6069333381">
		<tag k="name" v="Setertjønna" />
		<tag k="natural" v="water" />
		<tag k="ssr:stedsnr" v="864789" />
	</node>
	<node id="-819806" lat="64.1065416633" lon="11.8180749914">
		<tag k="name" v="Brennelva" />
		<tag k="ssr:stedsnr" v="499196" />
		<tag k="waterway" v="river" />
	</node>
	<node id="-817755" lat="63.9736416624" lon="11.9207333245">
		<tag k="name" v="Sagfossen" />
		<tag k="natural" v="waterfall" />
		<tag k="ssr:stedsnr" v="696917" />
	</node>
	<node id="-821007" lat="63.9765583314" lon="12.0264472159">
		<tag k="name" v="Svarvarfossen" />
		<tag k="natural" v="waterfall" />
		<tag k="ssr:stedsnr" v="742358" />
	</node>
	<node id="-817750" lat="63.9954777799" lon="11.6355194471">
		<tag k="alt_name" v="Rølla" />
		<tag k="name" v="Røla" />
		<tag k="ssr:stedsnr" v="499949" />
		<tag k="waterway" v="river" />
	</node>
	<node id="-817748" lat="63.9699944463" lon="12.3514194364">
		<tag k="name" v="Loråsbukta" />
		<tag k="natural" v="bay" />
		<tag k="ssr:stedsnr" v="716676" />
	</node>
	<node id="-821843" lat="64.1335777799" lon="11.8781527796">
		<tag k="name" v="Sagbekken" />
		<tag k="ssr:stedsnr" v="271836" />
		<tag k="waterway" v="stream" />
	</node>
	<node id="-821842" lat="64.1213805527" lon="11.4926472273">
		<tag k="name" v="Kolbergselva" />
		<tag k="ssr:stedsnr" v="803803" />
		<tag k="waterway" v="stream" />
	</node>
	<node id="-820323" lat="64.1647000008" lon="11.6804222168">
		<tag k="name" v="Tåsmåsneset" />
		<tag k="natural" v="cape" />
		<tag k="ssr:stedsnr" v="291239" />
	</node>
	<node id="-819792" lat="63.9569638861" lon="12.3401305576">
		<tag k="name" v="Løbekken" />
		<tag k="ssr:stedsnr" v="838681" />
		<tag k="waterway" v="stream" />
	</node>
	<node id="-817740" lat="64.069233331" lon="11.5534444509">
		<tag k="name" v="Storstamnen" />
		<tag k="natural" v="water" />
		<tag k="ssr:stedsnr" v="14025" />
	</node>
	<node id="-821834" lat="63.9527999974" lon="12.2096750025">
		<tag k="name" v="Langtangen" />
		<tag k="natural" v="cape" />
		<tag k="ssr:stedsnr" v="594622" />
	</node>
	<node id="-817737" lat="63.9555000011" lon="12.0962499999">
		<tag k="name" v="Vinterbekken" />
		<tag k="ssr:stedsnr" v="863391" />
		<tag k="waterway" v="stream" />
	</node>
	<node id="-821832" lat="64.1123250012" lon="11.4997638985">
		<tag k="name" v="Rostadbekken" />
		<tag k="ssr:stedsnr" v="377149" />
		<tag k="waterway" v="stream" />
	</node>
	<node id="-821004" lat="63.9945944479" lon="12.1062944498">
		<tag k="name" v="Trubekkbukta" />
		<tag k="natural" v="bay" />
		<tag k="ssr:stedsnr" v="48280" />
	</node>
	<node id="-819779" lat="64.1492694441" lon="11.3118194392">
		<tag k="name" v="Nesjan" />
		<tag k="natural" v="cape" />
		<tag k="ssr:stedsnr" v="229523" />
	</node>
	<node id="-821823" lat="64.1618861108" lon="11.9744750044">
		<tag k="name" v="Vestgardsbekken" />
		<tag k="ssr:stedsnr" v="514985" />
		<tag k="waterway" v="stream" />
	</node>
	<node id="-821822" lat="63.9268972238" lon="11.8628583354">
		<tag k="name" v="Lamtjønna" />
		<tag k="natural" v="water" />
		<tag k="ssr:stedsnr" v="291598" />
	</node>
	<node id="-819773" lat="63.9782305575" lon="12.3323555612">
		<tag k="name" v="Johanbukta" />
		<tag k="natural" v="bay" />
		<tag k="ssr:stedsnr" v="838678" />
	</node>
	<node id="-817753" lat="64.0575833295" lon="11.4953083334">
		<tag k="name" v="Rungstadvatnet" />
		<tag k="natural" v="water" />
		<tag k="ssr:stedsnr" v="14028" />
	</node>
	<node id="-817722" lat="63.9336694462" lon="11.665555558">
		<tag k="name" v="Bilstadtjønna" />
		<tag k="natural" v="water" />
		<tag k="ssr:stedsnr" v="89344" />
	</node>
	<node id="-817721" lat="64.0046055587" lon="11.5545833247">
		<tag k="name" v="Sandbekken" />
		<tag k="ssr:stedsnr" v="499937" />
		<tag k="waterway" v="stream" />
	</node>
	<node id="-819768" lat="64.2609138904" lon="11.7491166697">
		<tag k="name" v="Bjønnåsbekken" />
		<tag k="ssr:stedsnr" v="291096" />
		<tag k="waterway" v="stream" />
	</node>
	<node id="-819767" lat="64.1416999977" lon="11.3096666588">
		<tag k="name" v="Geitlibekken" />
		<tag k="ssr:stedsnr" v="229514" />
		<tag k="waterway" v="stream" />
	</node>
	<node id="-821811" lat="64.0722722182" lon="11.5547388817">
		<tag k="name" v="Langvatnet" />
		<tag k="natural" v="water" />
		<tag k="ssr:stedsnr" v="871690" />
	</node>
	<node id="-819761" lat="64.0020388856" lon="11.7610111138">
		<tag k="name" v="Bjørnåsbekken" />
		<tag k="ssr:stedsnr" v="271299" />
		<tag k="waterway" v="stream" />
	</node>
	<node id="-819758" lat="64.1602916623" lon="11.6027944454">
		<tag k="name" v="Skrelbekken" />
		<tag k="ssr:stedsnr" v="837114" />
		<tag k="waterway" v="stream" />
	</node>
	<node id="-821797" lat="64.0804083368" lon="11.9536138964">
		<tag k="name" v="Gunnartjønna" />
		<tag k="natural" v="water" />
		<tag k="ssr:stedsnr" v="378345" />
	</node>
	<node id="-821795" lat="64.2130305511" lon="11.8177583417">
		<tag k="name" v="Olsbekken" />
		<tag k="ssr:stedsnr" v="594826" />
		<tag k="waterway" v="stream" />
	</node>
	<node id="-821794" lat="64.233947225" lon="11.7116055623">
		<tag k="name" v="Ormtjønna" />
		<tag k="natural" v="water" />
		<tag k="ssr:stedsnr" v="14857" />
	</node>
	<node id="-821792" lat="64.0719916625" lon="12.0939277735">
		<tag k="name" v="Storbekken" />
		<tag k="ssr:stedsnr" v="681324" />
		<tag k="waterway" v="stream" />
	</node>
	<node id="-817695" lat="64.0489972267" lon="11.6992916655">
		<tag k="name" v="Elibekken" />
		<tag k="ssr:stedsnr" v="14013" />
		<tag k="waterway" v="stream" />
	</node>
	<node id="-820207" lat="63.983866664" lon="11.998558331">
		<tag k="name" v="Krokvuddu" />
		<tag k="natural" v="water" />
		<tag k="ssr:stedsnr" v="777236" />
		<tag k="water" v="lake" />
	</node>
	<node id="-821786" lat="64.1143583315" lon="11.6517833407">
		<tag k="name" v="Digersanden" />
		<tag k="natural" v="beach" />
		<tag k="ssr:stedsnr" v="878244" />
	</node>
	<node id="-817689" lat="64.2845638872" lon="11.841255546">
		<tag k="name" v="Brunstadsæla" />
		<tag k="natural" v="water" />
		<tag k="ssr:stedsnr" v="135605" />
	</node>
	<node id="-817688" lat="63.9652499983" lon="12.3454444406">
		<tag k="name" v="Verdalsholmen" />
		<tag k="place" v="islet" />
		<tag k="ssr:stedsnr" v="776631" />
	</node>
	<node id="-821783" lat="64.0615000019" lon="11.2604833307">
		<tag k="name" v="Kvernhusbekken" />
		<tag k="ssr:stedsnr" v="326109" />
		<tag k="waterway" v="stream" />
	</node>
	<node id="-820313" lat="63.9457999982" lon="11.9494222136">
		<tag k="alt_name" v="Nedre Solåstjønna" />
		<tag k="name" v="Solåstjønna" />
		<tag k="natural" v="water" />
		<tag k="ssr:stedsnr" v="256435" />
	</node>
	<node id="-817684" lat="64.1547833329" lon="11.6344305581">
		<tag k="name" v="Lomtjønna" />
		<tag k="natural" v="water" />
		<tag k="ssr:stedsnr" v="635410" />
	</node>
	<node id="-820995" lat="64.1147944487" lon="11.9072138916">
		<tag k="name" v="Skavdalsvatnet" />
		<tag k="natural" v="water" />
		<tag k="ssr:stedsnr" v="924232" />
	</node>
	<node id="-817676" lat="64.1411388887" lon="11.7606527705">
		<tag k="name" v="Grøtøya" />
		<tag k="place" v="islet" />
		<tag k="ssr:stedsnr" v="317275" />
	</node>
	<node id="-820752" lat="63.9871250001" lon="12.143480548">
		<tag k="name" v="Håmmårstjønna" />
		<tag k="natural" v="water" />
		<tag k="ssr:stedsnr" v="499356" />
	</node>
	<node id="-821770" lat="63.9578249966" lon="11.8963611203">
		<tag k="name" v="Gammelseterbekken" />
		<tag k="ssr:stedsnr" v="170515" />
		<tag k="waterway" v="stream" />
	</node>
	<node id="-819729" lat="63.9637277777" lon="11.7043416651">
		<tag k="name" v="Fjesmetjønna" />
		<tag k="natural" v="water" />
		<tag k="ssr:stedsnr" v="681901" />
	</node>
	<node id="-821768" lat="63.9753500041" lon="12.1403583382">
		<tag k="name" v="Damtjønna" />
		<tag k="natural" v="water" />
		<tag k="ssr:stedsnr" v="135360" />
	</node>
	<node id="-821767" lat="64.0238972194" lon="12.2446583391">
		<tag k="name" v="Pikhaugtjønna" />
		<tag k="natural" v="water" />
		<tag k="ssr:stedsnr" v="776298" />
	</node>
	<node id="-819456" lat="64.0429499996" lon="11.8725305562">
		<tag k="name" v="Holbekken" />
		<tag k="ssr:stedsnr" v="412878" />
		<tag k="waterway" v="stream" />
	</node>
	<node id="-819713" lat="64.1380472246" lon="11.7965055643">
		<tag k="name" v="Dursmålholmen" />
		<tag k="place" v="islet" />
		<tag k="ssr:stedsnr" v="150028" />
	</node>
	<node id="-821759" lat="63.8990749975" lon="11.6878666565">
		<tag k="name" v="Holmtjønna" />
		<tag k="natural" v="water" />
		<tag k="ssr:stedsnr" v="74089" />
	</node>
	<node id="-819709" lat="63.9819222223" lon="12.2860138912">
		<tag k="name" v="Seterbekken" />
		<tag k="ssr:stedsnr" v="109588" />
		<tag k="waterway" v="stream" />
	</node>
	<node id="-817578" lat="64.0978222205" lon="11.4020472287">
		<tag k="name" v="Kvarvingselva" />
		<tag k="ssr:stedsnr" v="204539" />
		<tag k="waterway" v="stream" />
	</node>
	<node id="-820869" lat="64.0174444457" lon="12.1027666722">
		<tag k="name" v="Kvalptjønna" />
		<tag k="natural" v="water" />
		<tag k="ssr:stedsnr" v="959251" />
	</node>
	<node id="-821753" lat="64.2333111089" lon="11.5827249907">
		<tag k="name" v="Langvatnet" />
		<tag k="natural" v="water" />
		<tag k="ssr:stedsnr" v="257914" />
	</node>
	<node id="-821752" lat="64.1398277785" lon="11.9629111128">
		<tag k="name" v="Råtjønna" />
		<tag k="natural" v="water" />
		<tag k="ssr:stedsnr" v="377277" />
	</node>
	<node id="-817652" lat="64.2451416627" lon="11.827425001">
		<tag k="name" v="Skurvtjønna" />
		<tag k="natural" v="water" />
		<tag k="ssr:stedsnr" v="864448" />
	</node>
	<node id="-819699" lat="63.9825388879" lon="12.1789833318">
		<tag k="name" v="Lortholet" />
		<tag k="natural" v="water" />
		<tag k="ssr:stedsnr" v="838658" />
	</node>
	<node id="-819698" lat="64.099947222" lon="11.6381694373">
		<tag k="name" v="Retlobukta" />
		<tag k="natural" v="bay" />
		<tag k="ssr:stedsnr" v="271271" />
	</node>
	<node id="-817648" lat="64.2022944464" lon="11.8919249939">
		<tag k="name" v="Borgelva" />
		<tag k="ssr:stedsnr" v="863382" />
		<tag k="waterway" v="river" />
	</node>
	<node id="-817647" lat="64.1655694431" lon="11.3763555471">
		<tag k="name" v="Kvinnvatnet" />
		<tag k="natural" v="water" />
		<tag k="ssr:stedsnr" v="742853" />
	</node>
	<node id="-821742" lat="63.9292722241" lon="11.7505361101">
		<tag k="name" v="Lomtjønna" />
		<tag k="natural" v="water" />
		<tag k="ssr:stedsnr" v="291569" />
	</node>
	<node id="-823037" lat="64.2236138923" lon="11.8054027759">
		<tag k="alt_name" v="Stor-Avunna" />
		<tag k="name" v="Avunna" />
		<tag k="natural" v="water" />
		<tag k="ssr:stedsnr" v="681399" />
	</node>
	<node id="-817644" lat="64.2431000014" lon="11.8482249914">
		<tag k="alt_name" v="Holbekken" />
		<tag k="name" v="Hølbekken" />
		<tag k="ssr:stedsnr" v="864447" />
		<tag k="waterway" v="stream" />
	</node>
	<node id="-821739" lat="64.1257888899" lon="11.6643750084">
		<tag k="name" v="Grønnestangen" />
		<tag k="natural" v="cape" />
		<tag k="ssr:stedsnr" v="332078" />
	</node>
	<node id="-817641" lat="64.2399000028" lon="11.9019027749">
		<tag k="name" v="Raudsteinbekken" />
		<tag k="ssr:stedsnr" v="864449" />
		<tag k="waterway" v="stream" />
	</node>
	<node id="-819688" lat="63.9756749963" lon="11.8260500025">
		<tag k="name" v="Lomtjønna" />
		<tag k="natural" v="water" />
		<tag k="ssr:stedsnr" v="803439" />
	</node>
	<node id="-819685" lat="64.0552861089" lon="12.0666500068">
		<tag k="name" v="Finnvollbekken" />
		<tag k="ssr:stedsnr" v="802357" />
		<tag k="waterway" v="stream" />
	</node>
	<node id="-819684" lat="64.1078833337" lon="11.6537472146">
		<tag k="name" v="Føttabekken" />
		<tag k="ssr:stedsnr" v="271268" />
		<tag k="waterway" v="stream" />
	</node>
	<node id="-819682" lat="63.9493499997" lon="12.1910305523">
		<tag k="name" v="Yttertjønna" />
		<tag k="natural" v="water" />
		<tag k="ssr:stedsnr" v="109583" />
	</node>
	<node id="-817633" lat="64.1219555582" lon="11.6006749985">
		<tag k="name" v="Stor-Aunbekken" />
		<tag k="ssr:stedsnr" v="635424" />
		<tag k="waterway" v="stream" />
	</node>
	<node id="-819523" lat="63.9650638853" lon="12.109508342">
		<tag k="name" v="Svartåstjønna" />
		<tag k="natural" v="water" />
		<tag k="ssr:stedsnr" v="14319" />
	</node>
	<node id="-821724" lat="64.1697666651" lon="11.7130194388">
		<tag k="name" v="Sørelva" />
		<tag k="ssr:stedsnr" v="332089" />
		<tag k="waterway" v="river" />
	</node>
	<node id="-820614" lat="64.1208249981" lon="11.5897611075">
		<tag k="name" v="Aunbekken" />
		<tag k="ssr:stedsnr" v="28450" />
		<tag k="waterway" v="stream" />
	</node>
	<node id="-817626" lat="64.0109222253" lon="12.21413612">
		<tag k="name" v="Skjellibekken" />
		<tag k="ssr:stedsnr" v="898317" />
		<tag k="waterway" v="stream" />
	</node>
	<node id="-817625" lat="63.9497250022" lon="11.7904194499">
		<tag k="name" v="Musperslettjønna" />
		<tag k="natural" v="water" />
		<tag k="ssr:stedsnr" v="230576" />
	</node>
	<node id="-820989" lat="64.1162750023" lon="11.7884888803">
		<tag k="name" v="Ramstadvatnet" />
		<tag k="natural" v="water" />
		<tag k="ssr:stedsnr" v="924234" />
	</node>
	<node id="-821716" lat="63.9346638866" lon="11.7103611075">
		<tag k="name" v="Storbutjønnbekken" />
		<tag k="ssr:stedsnr" v="291575" />
		<tag k="waterway" v="stream" />
	</node>
	<node id="-817619" lat="64.0066250008" lon="11.6232111074">
		<tag k="name" v="Risbergholmen" />
		<tag k="place" v="islet" />
		<tag k="ssr:stedsnr" v="864445" />
	</node>
	<node id="-817616" lat="64.203694447" lon="11.9162916758">
		<tag k="name" v="Leksjøbekken" />
		<tag k="ssr:stedsnr" v="863381" />
		<tag k="waterway" v="stream" />
	</node>
	<node id="-817615" lat="64.0589249997" lon="11.6735333349">
		<tag k="name" v="Myrbekken" />
		<tag k="ssr:stedsnr" v="89313" />
		<tag k="waterway" v="stream" />
	</node>
	<node id="-819662" lat="63.9773722204" lon="11.4334777787">
		<tag k="name" v="Frøsetbekken" />
		<tag k="ssr:stedsnr" v="872888" />
		<tag k="waterway" v="stream" />
	</node>
	<node id="-821709" lat="64.0611333343" lon="11.7776638865">
		<tag k="alt_name" v="Stamnvatnet" />
		<tag k="name" v="Stamvatnet" />
		<tag k="natural" v="water" />
		<tag k="ssr:stedsnr" v="741375" />
	</node>
	<node id="-821705" lat="63.9480138871" lon="12.070788898">
		<tag k="name" v="Naustbukta" />
		<tag k="natural" v="bay" />
		<tag k="ssr:stedsnr" v="742452" />
	</node>
	<node id="-821703" lat="64.1295138919" lon="11.3905861121">
		<tag k="name" v="Øystre Kleivabekken" />
		<tag k="ssr:stedsnr" v="387546" />
		<tag k="waterway" v="stream" />
	</node>
	<node id="-821698" lat="63.9455666659" lon="12.0132138894">
		<tag k="name" v="Vinterstøa" />
		<tag k="natural" v="bay" />
		<tag k="ssr:stedsnr" v="742449" />
	</node>
	<node id="-821693" lat="64.1462499967" lon="11.552655565">
		<tag k="name" v="Sagbekken" />
		<tag k="ssr:stedsnr" v="508685" />
		<tag k="waterway" v="stream" />
	</node>
	<node id="-821692" lat="64.0498166674" lon="12.0166583315">
		<tag k="name" v="Ekkotjønna" />
		<tag k="natural" v="water" />
		<tag k="ssr:stedsnr" v="959437" />
	</node>
	<node id="-817868" lat="63.9437611104" lon="11.6329055653">
		<tag k="name" v="Sandbekken" />
		<tag k="ssr:stedsnr" v="89389" />
		<tag k="waterway" v="stream" />
	</node>
	<node id="-821690" lat="64.1395111119" lon="12.0014222129">
		<tag k="name" v="Kvaksbolslættjønna" />
		<tag k="natural" v="water" />
		<tag k="ssr:stedsnr" v="574924" />
	</node>
	<node id="-817593" lat="64.0982972268" lon="11.5144777723">
		<tag k="name" v="Lømsen" />
		<tag k="natural" v="water" />
		<tag k="ssr:stedsnr" v="560145" />
		<tag k="water" v="lake" />
	</node>
	<node id="-822004" lat="64.0095000026" lon="11.8705138875">
		<tag k="name" v="Risbekken" />
		<tag k="ssr:stedsnr" v="878062" />
		<tag k="waterway" v="stream" />
	</node>
	<node id="-819491" lat="63.9663027751" lon="11.7240916755">
		<tag k="name" v="Løssiholman" />
		<tag k="natural" v="cape" />
		<tag k="ssr:stedsnr" v="412887" />
	</node>
	<node id="-820979" lat="64.0591749967" lon="11.5490194445">
		<tag k="name" v="Svartvatnet" />
		<tag k="natural" v="water" />
		<tag k="ssr:stedsnr" v="681053" />
	</node>
	<node id="-819632" lat="64.0179194449" lon="11.6699555514">
		<tag k="name" v="Fossemfossen" />
		<tag k="natural" v="waterfall" />
		<tag k="ssr:stedsnr" v="574404" />
	</node>
	<node id="-817583" lat="64.1956777747" lon="11.5685972137">
		<tag k="name" v="Fivestjønnin" />
		<tag k="natural" v="water" />
		<tag k="ssr:stedsnr" v="109078" />
	</node>
	<node id="-821678" lat="64.1600361126" lon="11.7018111056">
		<tag k="name" v="Kalvtjønna" />
		<tag k="natural" v="water" />
		<tag k="ssr:stedsnr" v="559759" />
	</node>
	<node id="-821676" lat="64.1979166643" lon="11.5629444449">
		<tag k="name" v="Fivestjønnbekken" />
		<tag k="ssr:stedsnr" v="716068" />
		<tag k="waterway" v="stream" />
	</node>
	<node id="-819626" lat="64.2401250002" lon="11.6165638795">
		<tag k="name" v="Malentjønnin" />
		<tag k="natural" v="water" />
		<tag k="ssr:stedsnr" v="681887" />
	</node>
	<node id="-819625" lat="63.9618111125" lon="12.1950388883">
		<tag k="name" v="Damtjønna" />
		<tag k="natural" v="water" />
		<tag k="ssr:stedsnr" v="803413" />
	</node>
	<node id="-821672" lat="63.9103305577" lon="11.7447083349">
		<tag k="name" v="Moatjønna" />
		<tag k="natural" v="water" />
		<tag k="ssr:stedsnr" v="291563" />
	</node>
	<node id="-817574" lat="64.1057999966" lon="11.5741694426">
		<tag k="name" v="Semsbukta" />
		<tag k="natural" v="bay" />
		<tag k="ssr:stedsnr" v="149514" />
	</node>
	<node id="-821669" lat="63.9829611083" lon="12.2395111019">
		<tag k="name" v="Kultjønna" />
		<tag k="natural" v="water" />
		<tag k="ssr:stedsnr" v="534648" />
	</node>
	<node id="-821668" lat="63.9552638857" lon="12.2187749941">
		<tag k="name" v="Stortjønna" />
		<tag k="natural" v="water" />
		<tag k="ssr:stedsnr" v="256676" />
	</node>
	<node id="-817571" lat="64.1840333377" lon="11.5305916699">
		<tag k="name" v="Dalsetertjønna" />
		<tag k="natural" v="water" />
		<tag k="ssr:stedsnr" v="109076" />
	</node>
	<node id="-818613" lat="64.1264805521" lon="12.0187111209">
		<tag k="name" v="Lauvhaugbukta" />
		<tag k="natural" v="bay" />
		<tag k="ssr:stedsnr" v="559257" />
	</node>
	<node id="-817568" lat="64.1719027782" lon="11.6791888957">
		<tag k="name" v="Bjønnåa" />
		<tag k="ssr:stedsnr" v="655163" />
		<tag k="waterway" v="stream" />
	</node>
	<node id="-817320" lat="64.1770527763" lon="11.7872277807">
		<tag k="name" v="Vikatjønna" />
		<tag k="natural" v="water" />
		<tag k="ssr:stedsnr" v="377455" />
	</node>
	<node id="-819613" lat="64.2028166633" lon="12.0100777679">
		<tag k="name" v="Reinsvika" />
		<tag k="natural" v="bay" />
		<tag k="ssr:stedsnr" v="150000" />
	</node>
	<node id="-819611" lat="64.0295222195" lon="11.7566361183">
		<tag k="name" v="Moabekken" />
		<tag k="ssr:stedsnr" v="271264" />
		<tag k="waterway" v="stream" />
	</node>
	<node id="-817562" lat="63.975905552" lon="12.2106999951">
		<tag k="fixme" v="multiple name tags, choose one and add the other to alt_name" />
		<tag k="name" v="Rabbtjønnin;Småtjønnin" />
		<tag k="natural" v="water" />
		<tag k="ssr:stedsnr" v="75387" />
	</node>
	<node id="-822348" lat="64.1664388853" lon="11.6996861066">
		<tag k="name" v="Kalvtjønnbekken" />
		<tag k="ssr:stedsnr" v="776217" />
		<tag k="waterway" v="stream" />
	</node>
	<node id="-821656" lat="64.2259277809" lon="11.5760333248">
		<tag k="name" v="Munktjønna" />
		<tag k="natural" v="water" />
		<tag k="ssr:stedsnr" v="776057" />
	</node>
	<node id="-819605" lat="63.9085555575" lon="11.6531722304">
		<tag k="fixme" v="multiple name tags, choose one and add the other to alt_name" />
		<tag k="name" v="Hjelmtjønna;Hjelmsettjønna" />
		<tag k="natural" v="water" />
		<tag k="ssr:stedsnr" v="742083" />
	</node>
	<node id="-819604" lat="64.1079444421" lon="11.7954000049">
		<tag k="name" v="Kattadalsbekken" />
		<tag k="ssr:stedsnr" v="898758" />
		<tag k="waterway" v="stream" />
	</node>
	<node id="-821650" lat="64.0469083321" lon="12.101891667">
		<tag k="name" v="Småfisktjønna" />
		<tag k="natural" v="water" />
		<tag k="ssr:stedsnr" v="959446" />
	</node>
	<node id="-819599" lat="63.9822750038" lon="12.0067777804">
		<tag k="name" v="Havdøra" />
		<tag k="place" v="locality" />
		<tag k="ssr:stedsnr" v="775506" />
	</node>
	<node id="-817550" lat="64.1221138932" lon="11.801325007">
		<tag k="name" v="Tiltneselva" />
		<tag k="ssr:stedsnr" v="317250" />
		<tag k="waterway" v="stream" />
	</node>
	<node id="-821644" lat="64.1823861073" lon="11.736722223">
		<tag k="name" v="Hattbekken" />
		<tag k="ssr:stedsnr" v="170271" />
		<tag k="waterway" v="stream" />
	</node>
	<node id="-817547" lat="64.0713027765" lon="11.5479500094">
		<tag k="name" v="Finntjønna" />
		<tag k="natural" v="water" />
		<tag k="ssr:stedsnr" v="447707" />
	</node>
	<node id="-822248" lat="64.181330554" lon="11.4809777779">
		<tag k="name" v="Myrkleivbekken" />
		<tag k="ssr:stedsnr" v="654759" />
		<tag k="waterway" v="stream" />
	</node>
	<node id="-817731" lat="64.0726166665" lon="11.5582527692">
		<tag k="name" v="Merkestjønna" />
		<tag k="natural" v="water" />
		<tag k="ssr:stedsnr" v="690678" />
	</node>
	<node id="-821482" lat="63.9269638878" lon="11.7572194374">
		<tag k="name" v="Blanktjønnin" />
		<tag k="natural" v="water" />
		<tag k="ssr:stedsnr" v="291573" />
	</node>
	<node id="-819590" lat="63.8737638885" lon="11.4958444517">
		<tag k="name" v="Bjørbekken" />
		<tag k="ssr:stedsnr" v="439152" />
		<tag k="waterway" v="stream" />
	</node>
	<node id="-820991" lat="64.0680361134" lon="11.6367388918">
		<tag k="name" v="Fornestangen" />
		<tag k="natural" v="cape" />
		<tag k="ssr:stedsnr" v="681030" />
	</node>
	<node id="-822678" lat="64.0313944466" lon="12.0077750016">
		<tag k="name" v="Tauskjerringbekken" />
		<tag k="ssr:stedsnr" v="170499" />
		<tag k="waterway" v="stream" />
	</node>
	<node id="-821634" lat="64.0962027819" lon="11.4892416622">
		<tag k="name" v="Røseggelva" />
		<tag k="ssr:stedsnr" v="265574" />
		<tag k="waterway" v="stream" />
	</node>
	<node id="-821633" lat="64.173077774" lon="11.7735055454">
		<tag k="name" v="Litlvasselva" />
		<tag k="ssr:stedsnr" v="574911" />
		<tag k="waterway" v="river" />
	</node>
	<node id="-819584" lat="63.9909944402" lon="11.9651833322">
		<tag k="alt_name" v="Sør-Rokta" />
		<tag k="name" v="Sørrokta" />
		<tag k="ssr:stedsnr" v="559400" />
		<tag k="waterway" v="river" />
	</node>
	<node id="-819583" lat="63.9822472218" lon="11.7437583352">
		<tag k="name" v="Koltjønna" />
		<tag k="natural" v="water" />
		<tag k="ssr:stedsnr" v="803420" />
	</node>
	<node id="-821630" lat="64.1329583377" lon="11.6306055606">
		<tag k="name" v="Olasvebekken" />
		<tag k="ssr:stedsnr" v="453441" />
		<tag k="waterway" v="stream" />
	</node>
	<node id="-817542" lat="64.217688893" lon="11.6944444386">
		<tag k="name" v="Storgrønlivatnet" />
		<tag k="natural" v="water" />
		<tag k="ssr:stedsnr" v="196909" />
		<tag k="water" v="lake" />
	</node>
	<node id="-822335" lat="63.9904944416" lon="12.250958339">
		<tag k="name" v="Vakkerlitjønnin" />
		<tag k="natural" v="water" />
		<tag k="ssr:stedsnr" v="499620" />
	</node>
	<node id="-820628" lat="64.1364638911" lon="11.8379027753">
		<tag k="name" v="Tangen" />
		<tag k="natural" v="cape" />
		<tag k="ssr:stedsnr" v="74815" />
	</node>
	<node id="-821622" lat="63.9528750041" lon="11.7493472189">
		<tag k="name" v="Åksjøbekken" />
		<tag k="ssr:stedsnr" v="357813" />
		<tag k="waterway" v="stream" />
	</node>
	<node id="-821621" lat="64.1995222213" lon="11.5518555619">
		<tag k="name" v="Giltseterbukta" />
		<tag k="natural" v="bay" />
		<tag k="ssr:stedsnr" v="716082" />
	</node>
	<node id="-817524" lat="64.2052885231" lon="11.5902663869">
		<tag k="name" v="Kaukartangen" />
		<tag k="natural" v="cape" />
		<tag k="ssr:stedsnr" v="196904" />
	</node>
	<node id="-819383" lat="64.055433333" lon="11.3744305564">
		<tag k="name" v="Visetelva" />
		<tag k="ssr:stedsnr" v="386909" />
		<tag k="waterway" v="stream" />
	</node>
	<node id="-817520" lat="63.9889805597" lon="12.118227786">
		<tag k="name" v="Turbekken" />
		<tag k="ssr:stedsnr" v="898296" />
		<tag k="waterway" v="stream" />
	</node>
	<node id="-819566" lat="63.9729666626" lon="11.6534555541">
		<tag k="name" v="Brennbekken" />
		<tag k="ssr:stedsnr" v="514387" />
		<tag k="waterway" v="stream" />
	</node>
	<node id="-819563" lat="63.8765694405" lon="11.485980551">
		<tag k="name" v="Bjørbekken" />
		<tag k="ssr:stedsnr" v="386956" />
		<tag k="waterway" v="stream" />
	</node>
	<node id="-817514" lat="63.9985638892" lon="12.1198722239">
		<tag k="name" v="Sørvalen" />
		<tag k="natural" v="shoal" />
		<tag k="place" v="locality" />
		<tag k="ssr:stedsnr" v="898298" />
	</node>
	<node id="-819560" lat="64.1104388847" lon="11.7050166659">
		<tag k="name" v="Skjevlobekken" />
		<tag k="ssr:stedsnr" v="28166" />
		<tag k="waterway" v="stream" />
	</node>
	<node id="-819558" lat="63.9945222217" lon="12.1023972153">
		<tag k="name" v="Nausttangen" />
		<tag k="natural" v="cape" />
		<tag k="ssr:stedsnr" v="803414" />
	</node>
	<node id="-822673" lat="64.2112111109" lon="11.867833325">
		<tag k="name" v="Hevildeklet" />
		<tag k="natural" v="water" />
		<tag k="ssr:stedsnr" v="290208" />
	</node>
	<node id="-819555" lat="64.1353972209" lon="11.2548138828">
		<tag k="name" v="Grodalsbekken" />
		<tag k="ssr:stedsnr" v="143729" />
		<tag k="waterway" v="stream" />
	</node>
	<node id="-817506" lat="64.1725527773" lon="11.8268166638">
		<tag k="name" v="Teingalneset" />
		<tag k="natural" v="cape" />
		<tag k="ssr:stedsnr" v="756906" />
	</node>
	<node id="-822724" lat="64.0320555526" lon="12.2346944349">
		<tag k="name" v="Råtjønnin" />
		<tag k="natural" v="water" />
		<tag k="ssr:stedsnr" v="438620" />
	</node>
	<node id="-821600" lat="64.1246666675" lon="11.5275361074">
		<tag k="name" v="Svarttjønna" />
		<tag k="natural" v="water" />
		<tag k="ssr:stedsnr" v="871645" />
	</node>
	<node id="-819941" lat="63.9933722217" lon="12.0904388987">
		<tag k="name" v="Tangen" />
		<tag k="natural" v="cape" />
		<tag k="ssr:stedsnr" v="256374" />
	</node>
	<node id="-819547" lat="64.0778638902" lon="11.3292999903">
		<tag k="name" v="Morkvedbekken" />
		<tag k="ssr:stedsnr" v="872863" />
		<tag k="waterway" v="stream" />
	</node>
	<node id="-817498" lat="63.9126055566" lon="11.6505638822">
		<tag k="name" v="Krokbekkdalen" />
		<tag k="ssr:stedsnr" v="635361" />
		<tag k="waterway" v="stream" />
	</node>
	<node id="-817497" lat="64.0484750032" lon="11.5299777878">
		<tag k="name" v="Svarttjønnbekken" />
		<tag k="ssr:stedsnr" v="878561" />
		<tag k="waterway" v="stream" />
	</node>
	<node id="-821592" lat="64.0044666707" lon="12.214963896">
		<tag k="name" v="Skjellivatnet" />
		<tag k="natural" v="water" />
		<tag k="ssr:stedsnr" v="257733" />
	</node>
	<node id="-819543" lat="63.9538722226" lon="11.868975007">
		<tag k="name" v="Storbekken" />
		<tag k="ssr:stedsnr" v="838630" />
		<tag k="waterway" v="stream" />
	</node>
	<node id="-819542" lat="63.9029638856" lon="11.668472221">
		<tag k="name" v="Vardtjønna" />
		<tag k="natural" v="water" />
		<tag k="ssr:stedsnr" v="514370" />
	</node>
	<node id="-819541" lat="63.9944416661" lon="12.1968638962">
		<tag k="name" v="Franktjønna" />
		<tag k="natural" v="water" />
		<tag k="ssr:stedsnr" v="803417" />
	</node>
	<node id="-819540" lat="64.1802055521" lon="11.9088555563">
		<tag k="name" v="Olsbukta" />
		<tag k="natural" v="bay" />
		<tag k="ssr:stedsnr" v="635864" />
	</node>
	<node id="-821584" lat="64.2129583293" lon="11.6324972247">
		<tag k="name" v="Prekstoltjønna" />
		<tag k="natural" v="water" />
		<tag k="ssr:stedsnr" v="716049" />
	</node>
	<node id="-822328" lat="64.1778805517" lon="11.8112361153">
		<tag k="alt_name" v="Nødalelva" />
		<tag k="name" v="Nødalselva" />
		<tag k="ssr:stedsnr" v="924452" />
		<tag k="waterway" v="stream" />
	</node>
	<node id="-819534" lat="64.029972226" lon="11.8374583346">
		<tag k="name" v="Kvennafossen" />
		<tag k="natural" v="waterfall" />
		<tag k="ssr:stedsnr" v="412885" />
	</node>
	<node id="-817485" lat="63.9756055545" lon="11.6565277825">
		<tag k="name" v="Sandbekken" />
		<tag k="ssr:stedsnr" v="635358" />
		<tag k="waterway" v="stream" />
	</node>
	<node id="-820295" lat="64.2338861118" lon="11.8037638883">
		<tag k="name" v="Havstjønna" />
		<tag k="natural" v="water" />
		<tag k="ssr:stedsnr" v="802451" />
	</node>
	<node id="-821578" lat="63.9792749971" lon="11.9600861188">
		<tag k="name" v="Grastjønna" />
		<tag k="natural" v="water" />
		<tag k="ssr:stedsnr" v="534624" />
	</node>
	<node id="-821577" lat="64.2155944471" lon="11.7143250084">
		<tag k="name" v="Purktjønna" />
		<tag k="natural" v="water" />
		<tag k="ssr:stedsnr" v="620893" />
	</node>
	<node id="-819528" lat="63.902377777" lon="11.6481305584">
		<tag k="name" v="Litltjønna" />
		<tag k="natural" v="water" />
		<tag k="ssr:stedsnr" v="574377" />
	</node>
	<node id="-821638" lat="64.1772027787" lon="11.8152638878">
		<tag k="name" v="Nødalfossen" />
		<tag k="natural" v="waterfall" />
		<tag k="ssr:stedsnr" v="574910" />
	</node>
	<node id="-817477" lat="64.0649138847" lon="11.3152111024">
		<tag k="name" v="Rennbekken" />
		<tag k="ssr:stedsnr" v="872243" />
		<tag k="waterway" v="stream" />
	</node>
	<node id="-822326" lat="64.0399694446" lon="11.8546611024">
		<tag k="name" v="Heggnesdammen" />
		<tag k="ssr:stedsnr" v="897868" />
		<tag k="waterway" v="dam" />
	</node>
	<node id="-821570" lat="64.1845055573" lon="11.5108611141">
		<tag k="name" v="Skeissetertjønna" />
		<tag k="natural" v="water" />
		<tag k="ssr:stedsnr" v="560825" />
	</node>
	<node id="-819520" lat="63.9796388851" lon="12.0132249994">
		<tag k="name" v="Tomsåssela" />
		<tag k="natural" v="water" />
		<tag k="old_name" v="Tomsås-sela" />
		<tag k="ssr:stedsnr" v="532515" />
		<tag k="water" v="lake" />
	</node>
	<node id="-817471" lat="64.1571388913" lon="11.8627833341">
		<tag k="name" v="Mefjordsskjæret" />
		<tag k="place" v="islet" />
		<tag k="ssr:stedsnr" v="756866" />
	</node>
	<node id="-819518" lat="64.0687361072" lon="11.5192777776">
		<tag k="name" v="Svenningbekken" />
		<tag k="ssr:stedsnr" v="143722" />
		<tag k="waterway" v="stream" />
	</node>
	<node id="-817469" lat="64.1128416704" lon="12.0290666722">
		<tag k="name" v="Nedre Løstjønnin" />
		<tag k="natural" v="water" />
		<tag k="ssr:stedsnr" v="317244" />
	</node>
	<node id="-821563" lat="63.940883335" lon="11.8217416583">
		<tag k="name" v="Myrbekken" />
		<tag k="ssr:stedsnr" v="742441" />
		<tag k="waterway" v="stream" />
	</node>
	<node id="-817464" lat="64.147813891" lon="11.9105249962">
		<tag k="name" v="Olabukta" />
		<tag k="natural" v="bay" />
		<tag k="ssr:stedsnr" v="74290" />
	</node>
	<node id="-821559" lat="64.0131333339" lon="11.7959611016">
		<tag k="name" v="Storengtjønna" />
		<tag k="natural" v="water" />
		<tag k="ssr:stedsnr" v="256652" />
	</node>
	<node id="-817461" lat="64.1102583378" lon="11.5523611054">
		<tag k="name" v="Semselva" />
		<tag k="ssr:stedsnr" v="447702" />
		<tag k="waterway" v="river" />
	</node>
	<node id="-821556" lat="63.9088444424" lon="11.500755547">
		<tag k="name" v="Skjelja" />
		<tag k="ssr:stedsnr" v="568696" />
		<tag k="waterway" v="stream" />
	</node>
	<node id="-819505" lat="64.2151249969" lon="11.5342611069">
		<tag k="name" v="Lomtjønna" />
		<tag k="natural" v="water" />
		<tag k="ssr:stedsnr" v="594062" />
	</node>
	<node id="-819502" lat="63.898566665" lon="11.7075944504">
		<tag k="name" v="Fisknestjønna" />
		<tag k="natural" v="water" />
		<tag k="ssr:stedsnr" v="742067" />
	</node>
	<node id="-819517" lat="64.0457916657" lon="11.4994694427">
		<tag k="name" v="Steinsengbekken" />
		<tag k="ssr:stedsnr" v="635860" />
		<tag k="waterway" v="stream" />
	</node>
	<node id="-818567" lat="64.0000999993" lon="12.2548916622">
		<tag k="name" v="Rognåstjønna" />
		<tag k="natural" v="water" />
		<tag k="ssr:stedsnr" v="109321" />
	</node>
	<node id="-817448" lat="64.0845388912" lon="11.4283694472">
		<tag k="name" v="Vesterhusvatnet" />
		<tag k="natural" v="water" />
		<tag k="ssr:stedsnr" v="317229" />
	</node>
	<node id="-817415" lat="63.9282083369" lon="11.395666676">
		<tag k="name" v="Mæreselva" />
		<tag k="ssr:stedsnr" v="22967" />
		<tag k="waterway" v="stream" />
	</node>
	<node id="-817446" lat="64.0270138854" lon="12.0735361198">
		<tag k="name" v="Firkantipøla" />
		<tag k="natural" v="water" />
		<tag k="ssr:stedsnr" v="898278" />
	</node>
	<node id="-821541" lat="64.1441972198" lon="11.921475004">
		<tag k="name" v="Litløya" />
		<tag k="place" v="island" />
		<tag k="ssr:stedsnr" v="514908" />
	</node>
	<node id="-822662" lat="63.982580553" lon="11.8962722125">
		<tag k="name" v="Storholmen" />
		<tag k="place" v="islet" />
		<tag k="ssr:stedsnr" v="28945" />
	</node>
	<node id="-821533" lat="63.9155666698" lon="11.735913887">
		<tag k="name" v="Skeistjønna" />
		<tag k="natural" v="water" />
		<tag k="ssr:stedsnr" v="777574" />
	</node>
	<node id="-817435" lat="64.0987222252" lon="11.8337277746">
		<tag k="name" v="Blautbotenbekken" />
		<tag k="ssr:stedsnr" v="48966" />
		<tag k="waterway" v="stream" />
	</node>
	<node id="-821527" lat="64.0193333327" lon="11.5248194503">
		<tag k="name" v="Midjoøra" />
		<tag k="natural" v="shoal" />
		<tag k="place" v="locality" />
		<tag k="ssr:stedsnr" v="574892" />
	</node>
	<node id="-820953" lat="64.1297583321" lon="11.6985388855">
		<tag k="name" v="Putten" />
		<tag k="place" v="locality" />
		<tag k="ssr:stedsnr" v="696094" />
	</node>
	<node id="-821523" lat="64.1716944452" lon="11.8569250069">
		<tag k="name" v="Holmen" />
		<tag k="place" v="islet" />
		<tag k="ssr:stedsnr" v="211851" />
	</node>
	<node id="-822659" lat="64.1306361156" lon="11.9643361019">
		<tag k="name" v="Godtjønnbekken" />
		<tag k="ssr:stedsnr" v="28941" />
		<tag k="waterway" v="stream" />
	</node>
	<node id="-821520" lat="64.0535249956" lon="11.7918083361">
		<tag k="name" v="Setervatnet" />
		<tag k="natural" v="water" />
		<tag k="ssr:stedsnr" v="802679" />
	</node>
	<node id="-819471" lat="64.1647111142" lon="11.4820666681">
		<tag k="name" v="Tvillingtjønnin" />
		<tag k="natural" v="water" />
		<tag k="ssr:stedsnr" v="169735" />
	</node>
	<node id="-819245" lat="64.1067750018" lon="12.0432555552">
		<tag k="alt_name" v="Langvatnet, nedre" />
		<tag k="name" v="Nedre Langvatnet" />
		<tag k="natural" v="water" />
		<tag k="ssr:stedsnr" v="559355" />
	</node>
	<node id="-821516" lat="64.1027027812" lon="11.6234111196">
		<tag k="name" v="Bygla" />
		<tag k="place" v="islet" />
		<tag k="ssr:stedsnr" v="681130" />
	</node>
	<node id="-817418" lat="64.1318833372" lon="11.4414138904">
		<tag k="name" v="Kvernbekken" />
		<tag k="ssr:stedsnr" v="204508" />
		<tag k="waterway" v="stream" />
	</node>
	<node id="-817811" lat="64.0487944443" lon="12.0038833243">
		<tag k="name" v="Krutjønna" />
		<tag k="natural" v="water" />
		<tag k="ssr:stedsnr" v="352463" />
	</node>
	<node id="-817416" lat="64.0715138908" lon="11.6563277861">
		<tag k="name" v="Bergsbukta" />
		<tag k="natural" v="bay" />
		<tag k="ssr:stedsnr" v="803026" />
	</node>
	<node id="-821511" lat="63.9676111154" lon="12.3472277716">
		<tag k="name" v="Reinsskinntangen" />
		<tag k="natural" v="cape" />
		<tag k="ssr:stedsnr" v="534668" />
	</node>
	<node id="-817414" lat="64.0779638874" lon="11.8369916703">
		<tag k="alt_name" v="Selan øvre;Sagsela" />
		<tag k="fixme" v="multiple name tags, choose one and add the other to alt_name" />
		<tag k="name" v="Sagfosselan;Øvre Selan" />
		<tag k="natural" v="water" />
		<tag k="ssr:stedsnr" v="75355" />
	</node>
	<node id="-819585" lat="64.0089222176" lon="12.1132472309">
		<tag k="name" v="Kvernabekken" />
		<tag k="ssr:stedsnr" v="75722" />
		<tag k="waterway" v="stream" />
	</node>
	<node id="-821508" lat="63.9825861098" lon="11.8905972225">
		<tag k="name" v="Kjesbuhølen" />
		<tag k="place" v="locality" />
		<tag k="ssr:stedsnr" v="878015" />
	</node>
	<node id="-821504" lat="63.9837388873" lon="12.0038138956">
		<tag k="name" v="Havdtjønna" />
		<tag k="natural" v="water" />
		<tag k="ssr:stedsnr" v="959450" />
	</node>
	<node id="-817407" lat="63.8837583337" lon="11.505566665">
		<tag k="name" v="Holttjønna" />
		<tag k="natural" v="water" />
		<tag k="ssr:stedsnr" v="204498" />
	</node>
	<node id="-821502" lat="64.1439000043" lon="11.9288749951">
		<tag k="name" v="Bølbukta" />
		<tag k="natural" v="bay" />
		<tag k="ssr:stedsnr" v="211911" />
	</node>
	<node id="-819452" lat="64.1380722257" lon="11.8813333418">
		<tag k="name" v="Grønviktangen" />
		<tag k="natural" v="cape" />
		<tag k="ssr:stedsnr" v="879041" />
	</node>
	<node id="-819451" lat="64.0570888928" lon="11.5402722262">
		<tag k="name" v="Aspsetervatnet" />
		<tag k="natural" v="water" />
		<tag k="ssr:stedsnr" v="143700" />
		<tag k="water" v="lake" />
	</node>
	<node id="-821498" lat="64.2021138852" lon="12.0109555545">
		<tag k="name" v="Reinsviktangen" />
		<tag k="natural" v="cape" />
		<tag k="ssr:stedsnr" v="438474" />
	</node>
	<node id="-817395" lat="64.093933336" lon="12.0818888873">
		<tag k="alt_name" v="Langvatnet, øvre" />
		<tag k="name" v="Øvre Langvatnet" />
		<tag k="natural" v="water" />
		<tag k="ssr:stedsnr" v="864388" />
	</node>
	<node id="-819440" lat="64.1310222179" lon="11.9270416666">
		<tag k="name" v="Skavdalsbekken" />
		<tag k="ssr:stedsnr" v="802320" />
		<tag k="waterway" v="stream" />
	</node>
	<node id="-817390" lat="64.2021888893" lon="11.8215944535">
		<tag k="name" v="Trekvisla" />
		<tag k="natural" v="water" />
		<tag k="ssr:stedsnr" v="377477" />
	</node>
	<node id="-819437" lat="63.9813527785" lon="12.0080861026">
		<tag k="name" v="Gammelsagfossen" />
		<tag k="natural" v="waterfall" />
		<tag k="ssr:stedsnr" v="715535" />
	</node>
	<node id="-819434" lat="63.9672027801" lon="11.9977222301">
		<tag k="name" v="Furudalsbekken" />
		<tag k="ssr:stedsnr" v="14307" />
		<tag k="waterway" v="stream" />
	</node>
	<node id="-820263" lat="64.1312694432" lon="11.5397555587">
		<tag k="name" v="Lomtjønna" />
		<tag k="natural" v="water" />
		<tag k="ssr:stedsnr" v="689623" />
	</node>
	<node id="-822720" lat="64.0422722193" lon="11.6896277684">
		<tag k="name" v="Gravåstjønna" />
		<tag k="natural" v="water" />
		<tag k="ssr:stedsnr" v="74100" />
	</node>
	<node id="-820604" lat="64.121649998" lon="12.0135611175">
		<tag k="name" v="Kveldvedtangen" />
		<tag k="natural" v="cape" />
		<tag k="ssr:stedsnr" v="438267" />
	</node>
	<node id="-819428" lat="64.1562444463" lon="11.6397611141">
		<tag k="name" v="Lomtjønnbekken" />
		<tag k="ssr:stedsnr" v="271209" />
		<tag k="waterway" v="stream" />
	</node>
	<node id="-822121" lat="64.2108833354" lon="11.9247166726">
		<tag k="name" v="Merkesbekken" />
		<tag k="ssr:stedsnr" v="803830" />
		<tag k="waterway" v="stream" />
	</node>
	<node id="-817377" lat="63.9543527822" lon="12.0700638827">
		<tag k="name" v="Lomtjønna" />
		<tag k="natural" v="water" />
		<tag k="ssr:stedsnr" v="716574" />
	</node>
	<node id="-817375" lat="63.9668222207" lon="12.1242861166">
		<tag k="name" v="Gruvtjønna" />
		<tag k="natural" v="water" />
		<tag k="ssr:stedsnr" v="473712" />
	</node>
	<node id="-819422" lat="64.0188972237" lon="11.9115472162">
		<tag k="name" v="Heidalsbekken" />
		<tag k="ssr:stedsnr" v="412862" />
		<tag k="waterway" v="stream" />
	</node>
	<node id="-821469" lat="64.0171472246" lon="12.0260638963">
		<tag k="name" v="Øver-Dompen" />
		<tag k="natural" v="waterfall" />
		<tag k="ssr:stedsnr" v="291502" />
	</node>
	<node id="-821468" lat="63.9430361097" lon="12.1482444397">
		<tag k="name" v="Magnustjønnin" />
		<tag k="natural" v="water" />
		<tag k="ssr:stedsnr" v="594523" />
	</node>
	<node id="-819419" lat="63.8916916657" lon="11.4922583244">
		<tag k="name" v="Slættelva" />
		<tag k="ssr:stedsnr" v="872800" />
		<tag k="waterway" v="river" />
	</node>
	<node id="-819418" lat="64.2175305559" lon="11.6313277762">
		<tag k="name" v="Purktjønna" />
		<tag k="natural" v="water" />
		<tag k="ssr:stedsnr" v="837042" />
	</node>
	<node id="-821458" lat="63.9392583327" lon="11.7092166679">
		<tag k="name" v="Myrslobekken" />
		<tag k="ssr:stedsnr" v="534584" />
		<tag k="waterway" v="stream" />
	</node>
	<node id="-821457" lat="63.9996444432" lon="11.6853194343">
		<tag k="name" v="Sikjesbekken" />
		<tag k="ssr:stedsnr" v="453388" />
		<tag k="waterway" v="stream" />
	</node>
	<node id="-817358" lat="64.0771833371" lon="11.8260194435">
		<tag k="name" v="Sagfossen" />
		<tag k="natural" v="waterfall" />
		<tag k="ssr:stedsnr" v="75346" />
	</node>
	<node id="-819405" lat="64.0763555522" lon="11.736538887">
		<tag k="name" v="Laupsfossen" />
		<tag k="natural" v="waterfall" />
		<tag k="ssr:stedsnr" v="271214" />
	</node>
	<node id="-821452" lat="64.0320916677" lon="11.89540555">
		<tag k="name" v="Giskåstjønna" />
		<tag k="natural" v="water" />
		<tag k="ssr:stedsnr" v="256629" />
	</node>
	<node id="-821450" lat="64.2094611122" lon="11.6086805526">
		<tag k="name" v="Svarttjønna" />
		<tag k="natural" v="water" />
		<tag k="ssr:stedsnr" v="716036" />
	</node>
	<node id="-817351" lat="64.1875999979" lon="11.9653138905">
		<tag k="name" v="Langøya" />
		<tag k="place" v="islet" />
		<tag k="ssr:stedsnr" v="377461" />
	</node>
	<node id="-817350" lat="64.1810027801" lon="11.685877771">
		<tag k="name" v="Tverråa" />
		<tag k="ssr:stedsnr" v="439846" />
		<tag k="waterway" v="stream" />
	</node>
	<node id="-817349" lat="64.1363527824" lon="11.4858083255">
		<tag k="name" v="Sørneset" />
		<tag k="ssr:stedsnr" v="750536" />
		<tag k="waterway" v="river" />
	</node>
	<node id="-821444" lat="63.8837166671" lon="11.5453944439">
		<tag k="name" v="Tellelva" />
		<tag k="ssr:stedsnr" v="811524" />
		<tag k="waterway" v="river" />
	</node>
	<node id="-821442" lat="64.0343500034" lon="12.0823194373">
		<tag k="name" v="Feitfisktjønna" />
		<tag k="natural" v="water" />
		<tag k="ssr:stedsnr" v="291490" />
	</node>
	<node id="-819392" lat="64.2076583359" lon="11.6205249966">
		<tag k="name" v="Bustadtjønna" />
		<tag k="natural" v="water" />
		<tag k="ssr:stedsnr" v="594039" />
	</node>
	<node id="-819390" lat="64.0070583336" lon="12.004783329">
		<tag k="name" v="Finntjønnin" />
		<tag k="natural" v="water" />
		<tag k="ssr:stedsnr" v="864718" />
	</node>
	<node id="-821437" lat="64.1468861122" lon="11.6584111165">
		<tag k="name" v="Grindbergstjønna" />
		<tag k="natural" v="water" />
		<tag k="ssr:stedsnr" v="560782" />
	</node>
	<node id="-817340" lat="64.0909972267" lon="11.6622722232">
		<tag k="name" v="Vesterdyen" />
		<tag k="natural" v="water" />
		<tag k="ssr:stedsnr" v="317213" />
		<tag k="water" v="lake" />
	</node>
	<node id="-817339" lat="64.0026138875" lon="11.591375005">
		<tag k="name" v="Bruemsholmen" />
		<tag k="place" v="islet" />
		<tag k="ssr:stedsnr" v="878544" />
	</node>
	<node id="-821434" lat="64.1626333323" lon="11.7401361195">
		<tag k="name" v="Svarttjønna" />
		<tag k="natural" v="water" />
		<tag k="ssr:stedsnr" v="742400" />
	</node>
	<node id="-821620" lat="64.1238250003" lon="11.9976250011">
		<tag k="name" v="Godtjønntangen" />
		<tag k="natural" v="cape" />
		<tag k="ssr:stedsnr" v="48422" />
	</node>
	<node id="-821429" lat="64.1310944466" lon="11.454891672">
		<tag k="name" v="Skoganeset" />
		<tag k="ssr:stedsnr" v="508596" />
		<tag k="waterway" v="river" />
	</node>
	<node id="-820254" lat="64.0041527766" lon="12.0906638925">
		<tag k="name" v="Lomtjønna" />
		<tag k="natural" v="water" />
		<tag k="ssr:stedsnr" v="777271" />
	</node>
	<node id="-819378" lat="63.9768249972" lon="12.1654277768">
		<tag k="name" v="Kvernhuselva" />
		<tag k="ssr:stedsnr" v="803385" />
		<tag k="waterway" v="stream" />
	</node>
	<node id="-821425" lat="64.0135333299" lon="12.1513500039">
		<tag k="name" v="Årengtjønna" />
		<tag k="natural" v="water" />
		<tag k="ssr:stedsnr" v="14633" />
	</node>
	<node id="-821627" lat="64.1866611091" lon="11.8803138812">
		<tag k="name" v="Nastadfossen" />
		<tag k="natural" v="waterfall" />
		<tag k="ssr:stedsnr" v="574915" />
	</node>
	<node id="-821423" lat="64.1829500027" lon="11.9445361197">
		<tag k="name" v="Forskottbukta" />
		<tag k="natural" v="bay" />
		<tag k="ssr:stedsnr" v="514866" />
	</node>
	<node id="-817467" lat="63.9808972247" lon="12.0114333297">
		<tag k="name" v="Klopploken" />
		<tag k="natural" v="water" />
		<tag k="ssr:stedsnr" v="653526" />
	</node>
	<node id="-819372" lat="63.9887666702" lon="11.4840055495">
		<tag k="name" v="Djupsvebekken" />
		<tag k="ssr:stedsnr" v="149950" />
		<tag k="waterway" v="stream" />
	</node>
	<node id="-821417" lat="63.9477388897" lon="11.939433342">
		<tag k="name" v="Øvre Solåstjønna" />
		<tag k="natural" v="water" />
		<tag k="ssr:stedsnr" v="439467" />
	</node>
	<node id="-820672" lat="64.2004722216" lon="11.7145333362">
		<tag k="name" v="Litlvestertjønna" />
		<tag k="natural" v="water" />
		<tag k="ssr:stedsnr" v="959213" />
	</node>
	<node id="-820252" lat="64.0385805524" lon="11.617655554">
		<tag k="name" v="Skjevlobekken" />
		<tag k="ssr:stedsnr" v="817503" />
		<tag k="waterway" v="stream" />
	</node>
	<node id="-819364" lat="64.2120583296" lon="11.5500277796">
		<tag k="name" v="Stordalsbukta" />
		<tag k="natural" v="bay" />
		<tag k="ssr:stedsnr" v="837054" />
	</node>
	<node id="-819568" lat="64.0525555543" lon="11.5191444436">
		<tag k="name" v="Snevessetervatnet" />
		<tag k="natural" v="water" />
		<tag k="ssr:stedsnr" v="924005" />
	</node>
	<node id="-819357" lat="63.9164944402" lon="11.5215222131">
		<tag k="name" v="Rogntjønna" />
		<tag k="natural" v="water" />
		<tag k="ssr:stedsnr" v="143679" />
	</node>
	<node id="-820467" lat="63.972200002" lon="11.7373777859">
		<tag k="name" v="Setertjønna" />
		<tag k="natural" v="water" />
		<tag k="ssr:stedsnr" v="499317" />
	</node>
	<node id="-817305" lat="63.9335083366" lon="11.7294361057">
		<tag k="name" v="Storbutjønna" />
		<tag k="natural" v="water" />
		<tag k="ssr:stedsnr" v="681487" />
	</node>
	<node id="-820535" lat="64.0145777765" lon="12.1878499921">
		<tag k="name" v="Bjønnlonet" />
		<tag k="natural" v="water" />
		<tag k="ssr:stedsnr" v="594312" />
		<tag k="water" v="lake" />
	</node>
	<node id="-817299" lat="64.199316669" lon="11.9963499947">
		<tag k="name" v="Kråkvika" />
		<tag k="natural" v="bay" />
		<tag k="ssr:stedsnr" v="681486" />
	</node>
	<node id="-821392" lat="64.2648611096" lon="11.8124805639">
		<tag k="name" v="Gåstjønna" />
		<tag k="natural" v="water" />
		<tag k="ssr:stedsnr" v="196471" />
	</node>
	<node id="-819343" lat="64.0598277792" lon="11.4164944522">
		<tag k="name" v="Lomtjønna" />
		<tag k="natural" v="water" />
		<tag k="ssr:stedsnr" v="386898" />
	</node>
	<node id="-819341" lat="63.9860055582" lon="11.7069638874">
		<tag k="name" v="Lauvåsbekken" />
		<tag k="ssr:stedsnr" v="817269" />
		<tag k="waterway" v="stream" />
	</node>
	<node id="-817290" lat="64.2135500029" lon="11.593747224">
		<tag k="name" v="Bøverdalsbukta" />
		<tag k="natural" v="bay" />
		<tag k="ssr:stedsnr" v="222502" />
	</node>
	<node id="-819223" lat="63.9989777781" lon="12.0775166706">
		<tag k="name" v="Lustadvatnet" />
		<tag k="natural" v="water" />
		<tag k="ssr:stedsnr" v="14264" />
		<tag k="water" v="lake" />
	</node>
	<node id="-819336" lat="64.1283722239" lon="11.755936107">
		<tag k="name" v="Håbotsbukta" />
		<tag k="natural" v="bay" />
		<tag k="ssr:stedsnr" v="802304" />
	</node>
	<node id="-821382" lat="64.1219583364" lon="11.3977638955">
		<tag k="name" v="Deibekken" />
		<tag k="ssr:stedsnr" v="811492" />
		<tag k="waterway" v="stream" />
	</node>
	<node id="-819329" lat="64.2144027772" lon="11.6395888799">
		<tag k="name" v="Mårnsoltjønna" />
		<tag k="natural" v="water" />
		<tag k="ssr:stedsnr" v="837047" />
	</node>
	<node id="-817279" lat="64.0119722211" lon="12.2353222138">
		<tag k="name" v="Sotbekken" />
		<tag k="ssr:stedsnr" v="352316" />
		<tag k="waterway" v="stream" />
	</node>
	<node id="-817278" lat="63.9214416629" lon="11.7606250026">
		<tag k="name" v="Heggstadtjønna" />
		<tag k="natural" v="water" />
		<tag k="ssr:stedsnr" v="378522" />
	</node>
	<node id="-819784" lat="63.9401555588" lon="11.5538500078">
		<tag k="name" v="Skilja" />
		<tag k="ssr:stedsnr" v="924043" />
		<tag k="waterway" v="stream" />
	</node>
	<node id="-819443" lat="64.2823472233" lon="11.8915861074">
		<tag k="name" v="Skåvåtjønna" />
		<tag k="natural" v="water" />
		<tag k="ssr:stedsnr" v="74625" />
	</node>
	<node id="-819562" lat="64.1209194454" lon="11.9632083372">
		<tag k="name" v="Nordbotnet" />
		<tag k="natural" v="bay" />
		<tag k="ssr:stedsnr" v="635897" />
	</node>
	<node id="-821557" lat="64.1646694442" lon="11.8043666716">
		<tag k="name" v="Myrbekken" />
		<tag k="ssr:stedsnr" v="211854" />
		<tag k="waterway" v="river" />
	</node>
	<node id="-819320" lat="64.2085749995" lon="12.0086055555">
		<tag k="name" v="Heggesbekken" />
		<tag k="ssr:stedsnr" v="559361" />
		<tag k="waterway" v="stream" />
	</node>
	<node id="-819511" lat="64.1586249978" lon="11.4471500058">
		<tag k="name" v="Endrebergstjønna" />
		<tag k="natural" v="water" />
		<tag k="ssr:stedsnr" v="681867" />
	</node>
	<node id="-819317" lat="64.1513722203" lon="11.502419437">
		<tag k="name" v="Oksåsbekken" />
		<tag k="ssr:stedsnr" v="629595" />
		<tag k="waterway" v="stream" />
	</node>
	<node id="-821364" lat="64.0137166684" lon="12.0188888917">
		<tag k="name" v="Dumpholtjønna" />
		<tag k="natural" v="water" />
		<tag k="ssr:stedsnr" v="14619" />
	</node>
	<node id="-817265" lat="64.0879277758" lon="12.0675555572">
		<tag k="name" v="Fagertjønna" />
		<tag k="natural" v="water" />
		<tag k="ssr:stedsnr" v="864376" />
	</node>
	<node id="-817264" lat="64.0180472182" lon="12.2169472314">
		<tag k="name" v="Klomptjønna" />
		<tag k="natural" v="water" />
		<tag k="ssr:stedsnr" v="352325" />
	</node>
	<node id="-821359" lat="64.063477777" lon="11.8689916638">
		<tag k="name" v="Høgåsbekken" />
		<tag k="ssr:stedsnr" v="715976" />
		<tag k="waterway" v="stream" />
	</node>
	<node id="-817260" lat="64.008158335" lon="12.2037277796">
		<tag k="name" v="Flattjønna" />
		<tag k="natural" v="water" />
		<tag k="ssr:stedsnr" v="352326" />
	</node>
	<node id="-821174" lat="64.0261805584" lon="12.2348222271">
		<tag k="name" v="Blekktjønna" />
		<tag k="natural" v="water" />
		<tag k="ssr:stedsnr" v="48304" />
	</node>
	<node id="-819305" lat="64.0908361105" lon="11.8984499956">
		<tag k="name" v="Åsvatnet" />
		<tag k="natural" v="water" />
		<tag k="ssr:stedsnr" v="14279" />
		<tag k="water" v="lake" />
	</node>
	<node id="-821420" lat="64.1236027754" lon="11.4180972202">
		<tag k="name" v="Håggåbekken" />
		<tag k="ssr:stedsnr" v="811481" />
		<tag k="waterway" v="stream" />
	</node>
	<node id="-819302" lat="64.023372219" lon="12.2098083342">
		<tag k="name" v="Bladtjønna" />
		<tag k="natural" v="water" />
		<tag k="ssr:stedsnr" v="864703" />
	</node>
	<node id="-821265" lat="64.1493194471" lon="11.4870861021">
		<tag k="name" v="Oppdalsbekken" />
		<tag k="ssr:stedsnr" v="691569" />
		<tag k="waterway" v="stream" />
	</node>
	<node id="-819300" lat="64.1493333329" lon="11.9262111111">
		<tag k="name" v="Kjerringtangen" />
		<tag k="natural" v="cape" />
		<tag k="ssr:stedsnr" v="149932" />
	</node>
	<node id="-821488" lat="64.2044250028" lon="11.6384972265">
		<tag k="name" v="Holmtjønnbekken" />
		<tag k="ssr:stedsnr" v="776060" />
		<tag k="waterway" v="stream" />
	</node>
	<node id="-819978" lat="64.1267027817" lon="11.5121527714">
		<tag k="name" v="Rostadvatnet" />
		<tag k="natural" v="water" />
		<tag k="ssr:stedsnr" v="863773" />
	</node>
	<node id="-822653" lat="63.978063886" lon="11.9335861184">
		<tag k="name" v="Moasela" />
		<tag k="natural" v="water" />
		<tag k="ssr:stedsnr" v="939925" />
		<tag k="water" v="lake" />
	</node>
	<node id="-819294" lat="64.0853861129" lon="12.0350083367">
		<tag k="name" v="Langsetertjønnin" />
		<tag k="natural" v="water" />
		<tag k="ssr:stedsnr" v="803351" />
	</node>
	<node id="-821605" lat="64.0577277746" lon="11.6459638941">
		<tag k="name" v="Strandabekken" />
		<tag k="ssr:stedsnr" v="756288" />
		<tag k="waterway" v="stream" />
	</node>
	<node id="-820922" lat="63.9887055586" lon="11.8258277851">
		<tag k="name" v="Rutlbekken" />
		<tag k="ssr:stedsnr" v="742310" />
		<tag k="waterway" v="stream" />
	</node>
	<node id="-822988" lat="64.1486777741" lon="11.8039638881">
		<tag k="name" v="Småøyin" />
		<tag k="place" v="island" />
		<tag k="ssr:stedsnr" v="29040" />
	</node>
	<node id="-821335" lat="64.1107222215" lon="12.0185777814">
		<tag k="name" v="Storelvtjønna" />
		<tag k="natural" v="water" />
		<tag k="ssr:stedsnr" v="291470" />
	</node>
	<node id="-817238" lat="63.9230750017" lon="11.9452138983">
		<tag k="alt_name" v="Inder Langvatnet" />
		<tag k="name" v="Langvatnet" />
		<tag k="natural" v="water" />
		<tag k="ssr:stedsnr" v="378516" />
		<tag k="water" v="lake" />
	</node>
	<node id="-817235" lat="63.9661055545" lon="12.3196333233">
		<tag k="name" v="Gaddbukta" />
		<tag k="natural" v="bay" />
		<tag k="ssr:stedsnr" v="473653" />
	</node>
	<node id="-821327" lat="63.9636333299" lon="12.1767111046">
		<tag k="name" v="Isbekktjønna" />
		<tag k="natural" v="water" />
		<tag k="ssr:stedsnr" v="438390" />
	</node>
	<node id="-817230" lat="63.9240611154" lon="11.8268861023">
		<tag k="name" v="Bjørntjønna" />
		<tag k="natural" v="water" />
		<tag k="ssr:stedsnr" v="378513" />
	</node>
	<node id="-821325" lat="64.2247333305" lon="11.8359833431">
		<tag k="name" v="Vengstadtjønna" />
		<tag k="natural" v="water" />
		<tag k="ssr:stedsnr" v="195417" />
	</node>
	<node id="-817226" lat="64.1901388867" lon="11.5876888965">
		<tag k="name" v="Rørdalsbekken" />
		<tag k="ssr:stedsnr" v="655073" />
		<tag k="waterway" v="stream" />
	</node>
	<node id="-817225" lat="63.9488055586" lon="11.8957972163">
		<tag k="name" v="Saubjørntjønna" />
		<tag k="natural" v="water" />
		<tag k="ssr:stedsnr" v="681470" />
	</node>
	<node id="-822625" lat="64.092975003" lon="11.8296027799">
		<tag k="name" v="Lomdekelet" />
		<tag k="natural" v="water" />
		<tag k="ssr:stedsnr" v="594786" />
	</node>
	<node id="-819268" lat="63.9721305522" lon="11.9350472228">
		<tag k="name" v="Lomtjønna" />
		<tag k="natural" v="water" />
		<tag k="ssr:stedsnr" v="560426" />
	</node>
	<node id="-821314" lat="64.0396611082" lon="11.9689138861">
		<tag k="name" v="Austertjønna" />
		<tag k="natural" v="water" />
		<tag k="ssr:stedsnr" v="594475" />
	</node>
	<node id="-821057" lat="63.9910305539" lon="11.9610972255">
		<tag k="name" v="Roktkløftet" />
		<tag k="natural" v="strait" />
		<tag k="ssr:stedsnr" v="109916" />
	</node>
	<node id="-817504" lat="64.1165888856" lon="11.8828888938">
		<tag k="name" v="Fiskløysa" />
		<tag k="natural" v="water" />
		<tag k="ssr:stedsnr" v="317241" />
	</node>
	<node id="-823355" lat="64.1899500027" lon="11.4068888904">
		<tag k="name" v="Seterbukta" />
		<tag k="natural" v="bay" />
		<tag k="ssr:stedsnr" v="533497" />
	</node>
	<node id="-821306" lat="64.0211666699" lon="11.8189194476">
		<tag k="name" v="Møytla" />
		<tag k="ssr:stedsnr" v="559678" />
		<tag k="waterway" v="river" />
	</node>
	<node id="-821964" lat="64.0432166703" lon="11.8286083355">
		<tag k="name" v="Storbekken" />
		<tag k="ssr:stedsnr" v="719220" />
		<tag k="waterway" v="stream" />
	</node>
	<node id="-819884" lat="64.1939305561" lon="11.6578055559">
		<tag k="name" v="Rossåstjønnin" />
		<tag k="natural" v="water" />
		<tag k="ssr:stedsnr" v="534193" />
	</node>
	<node id="-821303" lat="64.1293083373" lon="11.4032111172">
		<tag k="name" v="Svartesbekken" />
		<tag k="ssr:stedsnr" v="508550" />
		<tag k="waterway" v="stream" />
	</node>
	<node id="-819209" lat="64.0858055534" lon="11.5123222132">
		<tag k="name" v="Saursaunelva" />
		<tag k="ssr:stedsnr" v="143645" />
		<tag k="waterway" v="stream" />
	</node>
	<node id="-817202" lat="64.1970166663" lon="11.7977611084">
		<tag k="name" v="Svarttjønna" />
		<tag k="natural" v="water" />
		<tag k="ssr:stedsnr" v="696768" />
	</node>
	<node id="-823345" lat="64.1282694445" lon="12.008475003">
		<tag k="name" v="Litlgodtjønna" />
		<tag k="natural" v="water" />
		<tag k="ssr:stedsnr" v="716485" />
	</node>
	<node id="-821295" lat="64.1616111133" lon="11.8354638793">
		<tag k="name" v="Pålholmen" />
		<tag k="place" v="islet" />
		<tag k="ssr:stedsnr" v="514829" />
	</node>
	<node id="-823342" lat="64.2147638918" lon="11.9722444411">
		<tag k="alt_name" v="Lekksjøen" />
		<tag k="name" v="Leksjøen" />
		<tag k="natural" v="water" />
		<tag k="ssr:stedsnr" v="134432" />
		<tag k="water" v="lake" />
	</node>
	<node id="-821293" lat="64.0165361078" lon="12.0217138831">
		<tag k="name" v="Domphølet" />
		<tag k="place" v="locality" />
		<tag k="ssr:stedsnr" v="777505" />
	</node>
	<node id="-817196" lat="64.0395472187" lon="11.8216694452">
		<tag k="name" v="Merkesbekken" />
		<tag k="ssr:stedsnr" v="48900" />
		<tag k="waterway" v="stream" />
	</node>
	<node id="-817195" lat="64.2285833321" lon="11.6243416659">
		<tag k="name" v="Rognvatnet" />
		<tag k="natural" v="water" />
		<tag k="ssr:stedsnr" v="13921" />
		<tag k="water" v="lake" />
	</node>
	<node id="-819242" lat="64.1895555527" lon="11.9452861189">
		<tag k="name" v="Ørabukta" />
		<tag k="natural" v="bay" />
		<tag k="ssr:stedsnr" v="149918" />
	</node>
	<node id="-817159" lat="64.2315694423" lon="11.8909027829">
		<tag k="name" v="Nordsjøen" />
		<tag k="natural" v="water" />
		<tag k="ssr:stedsnr" v="134449" />
		<tag k="water" v="lake" />
	</node>
	<node id="-819240" lat="63.8968444455" lon="11.5164416569">
		<tag k="name" v="Dyrstadtjønna" />
		<tag k="natural" v="water" />
		<tag k="ssr:stedsnr" v="196099" />
	</node>
	<node id="-822961" lat="64.0256416693" lon="11.7776555502">
		<tag k="name" v="Kvernabekken" />
		<tag k="ssr:stedsnr" v="438658" />
		<tag k="waterway" v="stream" />
	</node>
	<node id="-819379" lat="63.8853250009" lon="11.3898972148">
		<tag k="name" v="Lorvikelva" />
		<tag k="ssr:stedsnr" v="872811" />
		<tag k="waterway" v="stream" />
	</node>
	<node id="-817186" lat="64.0980666636" lon="11.5897027751">
		<tag k="name" v="Dalsbukta" />
		<tag k="natural" v="bay" />
		<tag k="ssr:stedsnr" v="392573" />
	</node>
	<node id="-819233" lat="63.892483333" lon="11.6245944343">
		<tag k="name" v="Kaldsetbekken" />
		<tag k="ssr:stedsnr" v="149922" />
		<tag k="waterway" v="stream" />
	</node>
	<node id="-820634" lat="64.2532305547" lon="11.6981555652">
		<tag k="name" v="Bjørtjønnbekken" />
		<tag k="ssr:stedsnr" v="75891" />
		<tag k="waterway" v="stream" />
	</node>
	<node id="-823326" lat="64.1302888847" lon="11.7695555456">
		<tag k="name" v="Austerøra" />
		<tag k="natural" v="beach" />
		<tag k="ssr:stedsnr" v="90802" />
	</node>
	<node id="-821277" lat="63.9321611067" lon="11.9360666667">
		<tag k="name" v="Storkroktjønna" />
		<tag k="natural" v="water" />
		<tag k="ssr:stedsnr" v="594483" />
	</node>
	<node id="-823324" lat="64.0227916636" lon="12.0191722157">
		<tag k="name" v="Hollåsslættbekken" />
		<tag k="ssr:stedsnr" v="924636" />
		<tag k="waterway" v="stream" />
	</node>
	<node id="-821275" lat="64.2028388926" lon="11.9434722288">
		<tag k="name" v="Kvitestjønna" />
		<tag k="natural" v="water" />
		<tag k="ssr:stedsnr" v="438382" />
	</node>
	<node id="-821281" lat="63.9761055587" lon="11.7085111067">
		<tag k="name" v="Røla" />
		<tag k="ssr:stedsnr" v="75990" />
		<tag k="waterway" v="stream" />
	</node>
	<node id="-819224" lat="63.9059472226" lon="11.7687361196">
		<tag k="name" v="Bulderåsbekken" />
		<tag k="ssr:stedsnr" v="904663" />
		<tag k="waterway" v="stream" />
	</node>
	<node id="-821271" lat="64.0725750035" lon="11.8723388793">
		<tag k="name" v="Vinterbukta" />
		<tag k="natural" v="bay" />
		<tag k="ssr:stedsnr" v="109966" />
	</node>
	<node id="-819545" lat="64.2085277797" lon="11.5428000043">
		<tag k="name" v="Litløya" />
		<tag k="place" v="islet" />
		<tag k="ssr:stedsnr" v="377821" />
	</node>
	<node id="-823316" lat="64.0161499968" lon="12.0335916649">
		<tag k="name" v="Ingemartjønna" />
		<tag k="natural" v="water" />
		<tag k="ssr:stedsnr" v="716503" />
	</node>
	<node id="-823313" lat="63.9111388906" lon="11.6632361211">
		<tag k="name" v="Bjørntjønna" />
		<tag k="natural" v="water" />
		<tag k="ssr:stedsnr" v="149352" />
	</node>
	<node id="-817167" lat="64.1414000031" lon="11.4166805653">
		<tag k="name" v="Ulstadengbekken" />
		<tag k="ssr:stedsnr" v="593464" />
		<tag k="waterway" v="stream" />
	</node>
	<node id="-817166" lat="64.153388891" lon="11.4082250059">
		<tag k="name" v="Skjevikbekken" />
		<tag k="ssr:stedsnr" v="593465" />
		<tag k="waterway" v="stream" />
	</node>
	<node id="-817163" lat="64.1955222189" lon="11.9300083283">
		<tag k="name" v="Sjursengbekken" />
		<tag k="ssr:stedsnr" v="453913" />
		<tag k="waterway" v="stream" />
	</node>
	<node id="-823306" lat="63.9550722253" lon="11.8194972292">
		<tag k="name" v="Tollstadseterbekken" />
		<tag k="ssr:stedsnr" v="377394" />
		<tag k="waterway" v="stream" />
	</node>
	<node id="-821257" lat="64.128077775" lon="11.736122228">
		<tag k="name" v="Solnesbukta" />
		<tag k="natural" v="bay" />
		<tag k="ssr:stedsnr" v="210123" />
	</node>
	<node id="-822366" lat="64.0262194463" lon="12.1912444352">
		<tag k="name" v="Råtjønnbekken" />
		<tag k="ssr:stedsnr" v="473358" />
		<tag k="waterway" v="stream" />
	</node>
	<node id="-819720" lat="64.1452666636" lon="11.9396333248">
		<tag k="name" v="Haldopøla" />
		<tag k="place" v="locality" />
		<tag k="ssr:stedsnr" v="635907" />
	</node>
	<node id="-819206" lat="63.9871277748" lon="11.7546722278">
		<tag k="name" v="Kvilsteintjønnin" />
		<tag k="natural" v="water" />
		<tag k="ssr:stedsnr" v="514290" />
	</node>
	<node id="-823300" lat="63.9573444425" lon="11.7656083384">
		<tag k="name" v="Tjuvtangen" />
		<tag k="natural" v="cape" />
		<tag k="ssr:stedsnr" v="473599" />
	</node>
	<node id="-817155" lat="64.0497749955" lon="12.1177083429">
		<tag k="name" v="Storfisktjønna" />
		<tag k="natural" v="water" />
		<tag k="ssr:stedsnr" v="230453" />
	</node>
	<node id="-817154" lat="64.1775361145" lon="11.5062361166">
		<tag k="name" v="Ulventjønna" />
		<tag k="natural" v="water" />
		<tag k="ssr:stedsnr" v="499838" />
	</node>
</osm>
