<?xml version="1.0" encoding="UTF-8"?>
<osm generator="osmapis" version="0.6">
	<node id="-823232" lat="64.0294694419" lon="11.655930555">
		<tag k="amenity" v="community_centre" />
		<tag k="name" v="Gildevangen" />
		<tag k="ssr:stedsnr" v="635212" />
	</node>
	<node id="-817151" lat="64.0867055349" lon="11.3284266581">
		<tag k="amenity" v="place_of_worship" />
		<tag k="denomination" v="lutheran" />
		<tag k="name" v="Beitstad kirke" />
		<tag k="religion" v="christian" />
		<tag k="ssr:stedsnr" v="317179" />
	</node>
	<node id="-822654" lat="63.9339555566" lon="11.3948972157">
		<tag k="alt_name" v="Mære" />
		<tag k="amenity" v="place_of_worship" />
		<tag k="denomination" v="lutheran" />
		<tag k="name" v="Mære kirke" />
		<tag k="religion" v="christian" />
		<tag k="ssr:stedsnr" v="317018" />
	</node>
	<node id="-817468" lat="64.0200529478" lon="11.631293782">
		<tag k="alt_name" v="Ogndal" />
		<tag k="amenity" v="place_of_worship" />
		<tag k="denomination" v="lutheran" />
		<tag k="name" v="Skei kirke" />
		<tag k="religion" v="christian" />
		<tag k="ssr:stedsnr" v="418391" />
	</node>
	<node id="-819903" lat="64.0538888882" lon="11.4508722264">
		<tag k="name" v="Gjevranslottet" />
		<tag k="ssr:stedsnr" v="872947" />
		<tag k="tourism" v="attraction" />
	</node>
	<node id="-823348" lat="64.1033196196" lon="11.5447922268">
		<tag k="amenity" v="place_of_worship" />
		<tag k="denomination" v="lutheran" />
		<tag k="name" v="Følling kirke" />
		<tag k="religion" v="christian" />
		<tag k="ssr:stedsnr" v="620125" />
	</node>
	<node id="-821566" lat="64.1390174478" lon="11.7397872716">
		<tag k="amenity" v="place_of_worship" />
		<tag k="denomination" v="lutheran" />
		<tag k="name" v="Kvam kirke" />
		<tag k="religion" v="christian" />
		<tag k="ssr:stedsnr" v="741353" />
	</node>
	<node id="-822959" lat="64.0233190015" lon="11.4746536409">
		<tag k="amenity" v="place_of_worship" />
		<tag k="denomination" v="lutheran" />
		<tag k="name" v="Egge kirke" />
		<tag k="religion" v="christian" />
		<tag k="ssr:stedsnr" v="620070" />
	</node>
	<node id="-822668" lat="64.1461472218" lon="11.9377722175">
		<tag k="name" v="Bølbakken" />
		<tag k="place" v="locality" />
		<tag k="ssr:stedsnr" v="28946" />
	</node>
	<node id="-819810" lat="64.0728512138" lon="11.6816254713">
		<tag k="amenity" v="place_of_worship" />
		<tag k="denomination" v="lutheran" />
		<tag k="name" v="For kyrkje" />
		<tag k="religion" v="christian" />
		<tag k="ssr:stedsnr" v="924026" />
	</node>
	<node id="-821258" lat="64.0888833336" lon="11.6777472285">
		<tag k="name" v="Dybrekka" />
		<tag k="place" v="locality" />
		<tag k="ssr:stedsnr" v="696142" />
	</node>
	<node id="-819964" lat="64.061230557" lon="11.3715999903">
		<tag k="name" v="Elnslottet" />
		<tag k="place" v="locality" />
		<tag k="ssr:stedsnr" v="568242" />
	</node>
	<node id="-819173" lat="63.9720121393" lon="11.9187153317">
		<tag k="alt_name" v="Bodom" />
		<tag k="amenity" v="place_of_worship" />
		<tag k="denomination" v="lutheran" />
		<tag k="name" v="Bodom kapell" />
		<tag k="religion" v="christian" />
		<tag k="ssr:stedsnr" v="560424" />
	</node>
	<node id="-817474" lat="63.952442395" lon="11.623959148">
		<tag k="amenity" v="place_of_worship" />
		<tag k="denomination" v="lutheran" />
		<tag k="name" v="Henning kirke" />
		<tag k="religion" v="christian" />
		<tag k="ssr:stedsnr" v="499898" />
	</node>
	<node id="-823361" lat="63.9416524021" lon="11.4817641722">
		<tag k="name" v="Gløshaugen" />
		<tag k="ssr:stedsnr" v="987295" />
		<tag k="tourism" v="viewpoint" />
	</node>
</osm>
