<?xml version="1.0" encoding="UTF-8"?>
<osm generator="osmapis" version="0.6">
	<node id="-821246" lat="64.0182527743" lon="11.4902694357">
		<tag k="bridge" v="yes" />
		<tag k="layer" v="1" />
		<tag k="name" v="Damsagundergangen" />
		<tag k="ssr:stedsnr" v="46705" />
	</node>
	<node id="-818683" lat="64.1950861131" lon="11.7834722265">
		<tag k="ford" v="yes" />
		<tag k="name" v="Ådalsvadet" />
		<tag k="place" v="locality" />
		<tag k="ssr:stedsnr" v="149797" />
	</node>
	<node id="-820691" lat="64.1173861149" lon="11.5840916649">
		<tag k="bridge" v="yes" />
		<tag k="layer" v="1" />
		<tag k="name" v="Aunbuktbrua" />
		<tag k="ssr:stedsnr" v="652695" />
	</node>
	<node id="-817008" lat="64.0812972247" lon="11.8799750003">
		<tag k="highway" v="path" />
		<tag k="name" v="Nordgardskleiva" />
		<tag k="ssr:stedsnr" v="108942" />
	</node>
	<node id="-822895" lat="64.0284285478" lon="11.5076300495">
		<tag k="bridge" v="yes" />
		<tag k="layer" v="1" />
		<tag k="name" v="Heggesengbrua" />
		<tag k="ssr:stedsnr" v="531749" />
	</node>
	<node id="-821230" lat="64.0306388876" lon="11.4737916622">
		<tag k="bridge" v="yes" />
		<tag k="layer" v="1" />
		<tag k="name" v="Eggemarkundergangen" />
		<tag k="ssr:stedsnr" v="46704" />
	</node>
	<node id="-818797" lat="64.1402055601" lon="11.3392138844">
		<tag k="highway" v="path" />
		<tag k="name" v="Brattkleiva" />
		<tag k="ssr:stedsnr" v="472502" />
	</node>
	<node id="-818921" lat="64.0177805546" lon="11.4898888824">
		<tag k="bridge" v="yes" />
		<tag k="layer" v="1" />
		<tag k="name" v="Skippergateundergangen" />
		<tag k="ssr:stedsnr" v="713760" />
	</node>
	<node id="-819559" lat="64.1178916693" lon="11.9135972327">
		<tag k="highway" v="path" />
		<tag k="name" v="Tjurumurstigen" />
		<tag k="ssr:stedsnr" v="635896" />
	</node>
	<node id="-818790" lat="64.1399416632" lon="11.3459027797">
		<tag k="highway" v="path" />
		<tag k="name" v="Finnstukleiva" />
		<tag k="ssr:stedsnr" v="472500" />
	</node>
	<node id="-822368" lat="63.9832555546" lon="12.2130472182">
		<tag k="man_made" v="cairn" />
		<tag k="name" v="Talbomstøtta" />
		<tag k="place" v="locality" />
		<tag k="ssr:stedsnr" v="48596" />
	</node>
	<node id="-823261" lat="64.0212944446" lon="11.7008638839">
		<tag k="bridge" v="yes" />
		<tag k="layer" v="1" />
		<tag k="name" v="Litlauglbrua" />
		<tag k="ssr:stedsnr" v="228765" />
	</node>
	<node id="-822489" lat="64.0895722193" lon="11.8898138858">
		<tag k="highway" v="path" />
		<tag k="name" v="Åskleiva" />
		<tag k="ssr:stedsnr" v="897931" />
	</node>
	<node id="-817367" lat="64.0365388895" lon="11.4759166615">
		<tag k="bridge" v="yes" />
		<tag k="layer" v="1" />
		<tag k="name" v="Østbyfossbrua" />
		<tag k="ssr:stedsnr" v="410728" />
	</node>
	<node id="-822996" lat="64.0402527743" lon="11.4863722174">
		<tag k="bridge" v="yes" />
		<tag k="layer" v="1" />
		<tag k="name" v="Sellibekkbrua" />
		<tag k="ssr:stedsnr" v="774745" />
	</node>
	<node id="-822099" lat="64.0106361115" lon="12.0730027783">
		<tag k="highway" v="path" />
		<tag k="name" v="Høgbakkan" />
		<tag k="ssr:stedsnr" v="473297" />
	</node>
	<node id="-822097" lat="64.1589861079" lon="11.6538722121">
		<tag k="highway" v="path" />
		<tag k="name" v="Gjerstadstigen" />
		<tag k="ssr:stedsnr" v="716168" />
	</node>
	<node id="-821456" lat="64.1357555549" lon="11.8339555516">
		<tag k="bridge" v="yes" />
		<tag k="layer" v="1" />
		<tag k="name" v="Tiltnesbrua" />
		<tag k="ssr:stedsnr" v="46768" />
	</node>
	<node id="-820047" lat="64.1372222229" lon="11.9438277701">
		<tag k="highway" v="path" />
		<tag k="name" v="Korsslettstigen" />
		<tag k="ssr:stedsnr" v="89902" />
	</node>
	<node id="-822861" lat="64.0711083349" lon="11.5110472133">
		<tag k="bridge" v="yes" />
		<tag k="layer" v="1" />
		<tag k="name" v="Svenningbrua" />
		<tag k="ssr:stedsnr" v="774736" />
	</node>
	<node id="-817100" lat="64.1365500013" lon="11.9144249918">
		<tag k="name" v="Valøy" />
		<tag k="railway" v="station" />
		<tag k="ssr:stedsnr" v="863273" />
		<tag k="train" v="yes" />
	</node>
	<node id="-817482" lat="64.1218083356" lon="11.3195083417">
		<tag k="bridge" v="yes" />
		<tag k="layer" v="1" />
		<tag k="name" v="Bostadbrua" />
		<tag k="ssr:stedsnr" v="956768" />
	</node>
	<node id="-817097" lat="64.0153194443" lon="11.9489833306">
		<tag k="highway" v="path" />
		<tag k="name" v="Rosigardbakken" />
		<tag k="ssr:stedsnr" v="48879" />
	</node>
	<node id="-820172" lat="63.999047221" lon="11.9087388896">
		<tag k="highway" v="path" />
		<tag k="name" v="Steinkleiva" />
		<tag k="ssr:stedsnr" v="169914" />
	</node>
	<node id="-821446" lat="63.8871805555" lon="11.5744805594">
		<tag k="bridge" v="yes" />
		<tag k="layer" v="1" />
		<tag k="name" v="Rødtellbrua" />
		<tag k="ssr:stedsnr" v="46766" />
	</node>
	<node id="-821953" lat="64.0208416655" lon="11.4911583308">
		<tag k="bridge" v="yes" />
		<tag k="layer" v="1" />
		<tag k="name" v="Nordsidleirundergangen" />
		<tag k="ssr:stedsnr" v="471650" />
	</node>
	<node id="-820159" lat="63.9478527799" lon="11.6714138821">
		<tag k="bridge" v="yes" />
		<tag k="layer" v="1" />
		<tag k="name" v="Sponga" />
		<tag k="ssr:stedsnr" v="271411" />
	</node>
	<node id="-817212" lat="64.045213885" lon="11.8033249917">
		<tag k="highway" v="path" />
		<tag k="name" v="Seterkleiva" />
		<tag k="ssr:stedsnr" v="48903" />
	</node>
	<node id="-820154" lat="64.0127583345" lon="11.4848055588">
		<tag k="man_made" v="quay" />
		<tag k="name" v="Elvehamna" />
		<tag k="place" v="locality" />
		<tag k="ssr:stedsnr" v="895667" />
	</node>
	<node id="-822329" lat="64.1285611134" lon="11.9189638889">
		<tag k="junction" v="yes" />
		<tag k="name" v="Korsen" />
		<tag k="place" v="locality" />
		<tag k="ssr:stedsnr" v="271940" />
	</node>
	<node id="-818999" lat="63.9120527752" lon="11.4396277749">
		<tag k="bridge" v="yes" />
		<tag k="layer" v="1" />
		<tag k="name" v="Leirbrua" />
		<tag k="ssr:stedsnr" v="713751" />
	</node>
	<node id="-819121" lat="64.0680250004" lon="11.8333249943">
		<tag k="ford" v="yes" />
		<tag k="name" v="Reintjønnvadet" />
		<tag k="place" v="locality" />
		<tag k="ssr:stedsnr" v="593976" />
	</node>
	<node id="-819293" lat="64.1200972266" lon="11.7335638891">
		<tag k="name" v="Stod" />
		<tag k="railway" v="halt" />
		<tag k="ssr:stedsnr" v="256263" />
		<tag k="train" v="yes" />
	</node>
	<node id="-818860" lat="64.2765611127" lon="11.405111101">
		<tag k="bridge" v="yes" />
		<tag k="layer" v="1" />
		<tag k="name" v="Kvarvingsbrua" />
		<tag k="ssr:stedsnr" v="107771" />
	</node>
	<node id="-820778" lat="64.1399583333" lon="11.7385444466">
		<tag k="bridge" v="yes" />
		<tag k="layer" v="1" />
		<tag k="name" v="Kvamsbrua" />
		<tag k="ssr:stedsnr" v="835763" />
	</node>
	<node id="-820393" lat="64.1668972219" lon="11.6555777749">
		<tag k="fixme" v="consider highway=path" />
		<tag k="highway" v="track" />
		<tag k="name" v="Pålvelta" />
		<tag k="ssr:stedsnr" v="48125" />
	</node>
	<node id="-820261" lat="64.0224305549" lon="11.6850916705">
		<tag k="bridge" v="yes" />
		<tag k="layer" v="1" />
		<tag k="name" v="Storauglbrua" />
		<tag k="ssr:stedsnr" v="895706" />
	</node>
	<node id="-819808" lat="64.0185805546" lon="11.492855557">
		<tag k="bridge" v="yes" />
		<tag k="layer" v="1" />
		<tag k="name" v="Bogavegbrua" />
		<tag k="ssr:stedsnr" v="349750" />
	</node>
	<node id="-818160" lat="64.1291694419" lon="11.2278472191">
		<tag k="ford" v="yes" />
		<tag k="name" v="Esplingvadet" />
		<tag k="place" v="locality" />
		<tag k="ssr:stedsnr" v="99673" />
	</node>
	<node id="-819101" lat="64.1218333342" lon="11.3196333246">
		<tag k="bridge" v="yes" />
		<tag k="layer" v="1" />
		<tag k="name" v="Bostadgangbrua" />
		<tag k="ssr:stedsnr" v="713780" />
	</node>
	<node id="-818840" lat="63.9706611092" lon="12.1470833419">
		<tag k="highway" v="path" />
		<tag k="name" v="Vårkleiva" />
		<tag k="ssr:stedsnr" v="352705" />
	</node>
	<node id="-821142" lat="64.0142749989" lon="12.0010111034">
		<tag k="bridge" v="yes" />
		<tag k="layer" v="1" />
		<tag k="name" v="Hestbrua" />
		<tag k="ssr:stedsnr" v="534497" />
	</node>
	<node id="-819733" lat="64.1611527806" lon="11.5954194439">
		<tag k="highway" v="path" />
		<tag k="name" v="Vassbukleiva" />
		<tag k="ssr:stedsnr" v="837116" />
	</node>
	<node id="-821652" lat="64.1855277821" lon="11.7406444424">
		<tag k="highway" v="path" />
		<tag k="name" v="Raffelvegen" />
		<tag k="ssr:stedsnr" v="170268" />
	</node>
	<node id="-820498" lat="64.139641671" lon="11.2855305607">
		<tag k="bridge" v="yes" />
		<tag k="layer" v="1" />
		<tag k="name" v="Osbrua" />
		<tag k="ssr:stedsnr" v="895731" />
	</node>
	<node id="-820355" lat="63.9947388915" lon="11.9762777844">
		<tag k="highway" v="path" />
		<tag k="name" v="Nordfjellstigen" />
		<tag k="ssr:stedsnr" v="594260" />
	</node>
	<node id="-820878" lat="64.0464055569" lon="11.4920472209">
		<tag k="bridge" v="yes" />
		<tag k="layer" v="1" />
		<tag k="name" v="Fjellbekkbrua" />
		<tag k="ssr:stedsnr" v="289754" />
	</node>
	<node id="-818697" lat="64.086322224" lon="11.3088416744">
		<tag k="name" v="Juldagsvika" />
		<tag k="place" v="locality" />
		<tag k="ssr:stedsnr" v="204847" />
	</node>
	<node id="-821932" lat="63.9761999976" lon="12.041413898">
		<tag k="bridge" v="yes" />
		<tag k="layer" v="1" />
		<tag k="name" v="Sponget" />
		<tag k="ssr:stedsnr" v="534708" />
	</node>
	<node id="-821379" lat="64.0475027749" lon="11.4931416716">
		<tag k="bridge" v="yes" />
		<tag k="layer" v="1" />
		<tag k="name" v="Rungstadbekkbrua" />
		<tag k="ssr:stedsnr" v="46738" />
	</node>
</osm>
