<?xml version="1.0" encoding="UTF-8"?>
<<<<<<< HEAD
<osm version="0.6" generator="osmapis">
	<node lat="68.43091431998702" lon="14.633291227595882" id="-10269">
		<tag k="name" v="Mølleplass" />
		<tag k="place" v="locality" />
		<tag k="ssr:stedsnr" v="100123" />
	</node>
	<node lat="68.351730552597" lon="14.973766675732982" id="-10712">
		<tag k="name" v="Trollholmsundet" />
		<tag k="place" v="locality" />
		<tag k="ssr:stedsnr" v="380406" />
	</node>
	<node lat="68.66775555406667" lon="14.94829722830475" id="-11114">
		<tag k="alt_name" v="Ytre Eidsfjord;Grønning" />
		<tag k="amenity" v="place_of_worship" />
		<tag k="denomination" v="lutheran" />
		<tag k="name" v="Grønning kirke" />
		<tag k="religion" v="christian" />
		<tag k="ssr:stedsnr" v="624727" />
	</node>
	<node lat="68.49523611369784" lon="14.806036103178464" id="-11258">
=======
<osm generator="osmapis" version="0.6">
	<node id="-196410" lat="68.4952361137" lon="14.8060361032">
>>>>>>> e1d4bc35ff8a6074a6f2e91616a996b547c36f15
		<tag k="name" v="Norsk Fiskeindustrimuseum" />
		<tag k="ssr:stedsnr" v="702610" />
		<tag k="tourism" v="attraction" />
	</node>
<<<<<<< HEAD
	<node lat="68.50298333085624" lon="14.797019448122462" id="-11526">
		<tag k="amenity" v="place_of_worship" />
		<tag k="denomination" v="lutheran" />
		<tag k="name" v="Melbu kirke" />
		<tag k="religion" v="christian" />
		<tag k="ssr:stedsnr" v="935156" />
	</node>
	<node lat="68.5871361100018" lon="14.976075011531124" id="-11795">
		<tag k="amenity" v="community_centre" />
		<tag k="name" v="Råvoll" />
		<tag k="ssr:stedsnr" v="78563" />
	</node>
	<node lat="68.54076100320353" lon="14.990338233727629" id="-12361">
=======
	<node id="-197687" lat="68.3517305526" lon="14.9737666757">
		<tag k="name" v="Trollholmsundet" />
		<tag k="place" v="locality" />
		<tag k="ssr:stedsnr" v="380406" />
	</node>
	<node id="-198646" lat="68.5334486314" lon="15.1983727562">
>>>>>>> e1d4bc35ff8a6074a6f2e91616a996b547c36f15
		<tag k="amenity" v="place_of_worship" />
		<tag k="denomination" v="lutheran" />
		<tag k="name" v="Hadsel kirke" />
		<tag k="religion" v="christian" />
<<<<<<< HEAD
		<tag k="ssr:stedsnr" v="382976" />
	</node>
	<node lat="68.53344863143288" lon="15.198372756214765" id="-13305">
=======
		<tag k="ssr:stedsnr" v="982139" />
	</node>
	<node id="-195601" lat="68.43091432" lon="14.6332912276">
		<tag k="name" v="Mølleplass" />
		<tag k="place" v="locality" />
		<tag k="ssr:stedsnr" v="100123" />
	</node>
	<node id="-197143" lat="68.58713611" lon="14.9760750115">
		<tag k="amenity" v="community_centre" />
		<tag k="name" v="Råvoll" />
		<tag k="ssr:stedsnr" v="78563" />
	</node>
	<node id="-196839" lat="68.5029833309" lon="14.7970194481">
>>>>>>> e1d4bc35ff8a6074a6f2e91616a996b547c36f15
		<tag k="amenity" v="place_of_worship" />
		<tag k="denomination" v="lutheran" />
		<tag k="name" v="Innlandet kirke" />
		<tag k="religion" v="christian" />
		<tag k="ssr:stedsnr" v="982139" />
	</node>
	<node id="-197766" lat="68.5407610032" lon="14.9903382337">
		<tag k="amenity" v="place_of_worship" />
		<tag k="denomination" v="lutheran" />
		<tag k="name" v="Hadsel kirke" />
		<tag k="religion" v="christian" />
		<tag k="ssr:stedsnr" v="382976" />
	</node>
	<node id="-198134" lat="68.6677555541" lon="14.9482972283">
		<tag k="amenity" v="place_of_worship" />
		<tag k="denomination" v="lutheran" />
		<tag k="fixme" v="multiple name tags, choose one and add the other to alt_name" />
		<tag k="name" v="Grønning;Ytre Eidsfjord" />
		<tag k="religion" v="christian" />
		<tag k="ssr:stedsnr" v="624727" />
	</node>
</osm>
