<?xml version="1.0" encoding="UTF-8"?>
<<<<<<< HEAD
<osm version="0.6" generator="osmapis">
	<node lat="68.55623055707413" lon="14.847497233151993" id="-10357">
		<tag k="fixme" v="consider highway=path" />
		<tag k="highway" v="track" />
		<tag k="name" v="Skogsveg" />
		<tag k="ssr:stedsnr" v="163279" />
	</node>
	<node lat="68.51273055969178" lon="14.820350004884281" id="-10742">
=======
<osm generator="osmapis" version="0.6">
	<node id="-196094" lat="68.567211109" lon="15.3457388803">
		<tag k="ford" v="yes" />
		<tag k="name" v="Breivadet" />
		<tag k="place" v="locality" />
		<tag k="ssr:stedsnr" v="362122" />
	</node>
	<node id="-196844" lat="68.6440277757" lon="14.8217777819">
		<tag k="fixme" v="verify maritime location" />
		<tag k="mooring" v="yes" />
		<tag k="name" v="Lillefoldnaustet" />
		<tag k="place" v="locality" />
		<tag k="ssr:stedsnr" v="844709" />
	</node>
	<node id="-196574" lat="68.5745222207" lon="14.7397833305">
		<tag k="highway" v="path" />
		<tag k="name" v="Mollvegen" />
		<tag k="ssr:stedsnr" v="889028" />
	</node>
	<node id="-196573" lat="68.5767638891" lon="14.7227805503">
		<tag k="highway" v="path" />
		<tag k="name" v="Brakkvegen" />
		<tag k="ssr:stedsnr" v="889002" />
	</node>
	<node id="-195803" lat="68.5916888924" lon="14.9412305536">
		<tag k="highway" v="path" />
		<tag k="name" v="Breilivegen" />
		<tag k="ssr:stedsnr" v="285687" />
	</node>
	<node id="-197817" lat="68.5681861117" lon="14.8666416787">
		<tag k="junction" v="yes" />
		<tag k="name" v="Svingan" />
		<tag k="place" v="locality" />
		<tag k="ssr:stedsnr" v="404279" />
	</node>
	<node id="-198484" lat="68.6425972226" lon="14.8175555496">
		<tag k="fixme" v="verify maritime location" />
		<tag k="mooring" v="yes" />
		<tag k="name" v="Foldnaustan" />
		<tag k="place" v="locality" />
		<tag k="ssr:stedsnr" v="831704" />
	</node>
	<node id="-196878" lat="68.5726666639" lon="14.6596222304">
		<tag k="highway" v="path" />
		<tag k="name" v="Stasjonsvegen" />
		<tag k="ssr:stedsnr" v="950047" />
	</node>
	<node id="-198329" lat="68.4054833338" lon="15.1319861043">
		<tag k="highway" v="path" />
		<tag k="name" v="Skjellvegen" />
		<tag k="ssr:stedsnr" v="784027" />
	</node>
	<node id="-196535" lat="68.6309944482" lon="15.1870222286">
		<tag k="ford" v="yes" />
		<tag k="name" v="Vadet" />
		<tag k="place" v="locality" />
		<tag k="ssr:stedsnr" v="642845" />
	</node>
	<node id="-196531" lat="68.5069250015" lon="14.9025222171">
		<tag k="highway" v="path" />
		<tag k="name" v="Nystien" />
		<tag k="ssr:stedsnr" v="640816" />
	</node>
	<node id="-196403" lat="68.5991833372" lon="14.9889805657">
		<tag k="highway" v="path" />
		<tag k="name" v="Rekstret" />
		<tag k="ssr:stedsnr" v="701281" />
	</node>
	<node id="-196649" lat="68.6485388933" lon="14.9300555458">
>>>>>>> e1d4bc35ff8a6074a6f2e91616a996b547c36f15
		<tag k="fixme" v="consider highway=path" />
		<tag k="highway" v="track" />
		<tag k="name" v="Tømmervegen" />
		<tag k="ssr:stedsnr" v="397677" />
	</node>
<<<<<<< HEAD
	<node lat="68.54553333313704" lon="14.948563892440655" id="-10750">
=======
	<node id="-197797" lat="68.5455333331" lon="14.9485638924">
>>>>>>> e1d4bc35ff8a6074a6f2e91616a996b547c36f15
		<tag k="highway" v="path" />
		<tag k="name" v="Størheivegen" />
		<tag k="ssr:stedsnr" v="398377" />
	</node>
<<<<<<< HEAD
	<node lat="68.56818611168286" lon="14.866641678675338" id="-10764">
		<tag k="junction" v="yes" />
		<tag k="name" v="Svingan" />
		<tag k="place" v="locality" />
		<tag k="ssr:stedsnr" v="404279" />
	</node>
	<node lat="68.56066388621413" lon="14.617391656365054" id="-10838">
		<tag k="highway" v="path" />
		<tag k="name" v="Gammelvegen" />
		<tag k="ssr:stedsnr" v="464165" />
	</node>
	<node lat="68.64211666675673" lon="14.870802787480535" id="-11006">
=======
	<node id="-197794" lat="68.5464638896" lon="15.2185194469">
		<tag k="highway" v="path" />
		<tag k="name" v="Høghaugvegen" />
		<tag k="ssr:stedsnr" v="398253" />
	</node>
	<node id="-198425" lat="68.5807388899" lon="15.01989445">
		<tag k="aeroway" v="aerodrome" />
		<tag k="alt_name" v="Skagen" />
		<tag k="name" v="Stokmarknes lufthavn, Skagen" />
		<tag k="old_name" v="Stokmarknes lufthavn" />
		<tag k="ssr:stedsnr" v="822243" />
	</node>
	<node id="-198044" lat="68.5708027769" lon="14.7195916674">
		<tag k="highway" v="path" />
		<tag k="name" v="Vintervegen" />
		<tag k="ssr:stedsnr" v="585022" />
	</node>
	<node id="-197785" lat="68.6197361083" lon="15.1557999893">
		<tag k="highway" v="path" />
		<tag k="name" v="Hestvegen" />
		<tag k="ssr:stedsnr" v="397775" />
	</node>
	<node id="-197781" lat="68.5127305597" lon="14.8203500049">
		<tag k="fixme" v="consider highway=path" />
		<tag k="highway" v="track" />
		<tag k="name" v="Tømmervegen" />
		<tag k="ssr:stedsnr" v="397677" />
	</node>
	<node id="-197905" lat="68.6421166668" lon="14.8708027875">
>>>>>>> e1d4bc35ff8a6074a6f2e91616a996b547c36f15
		<tag k="highway" v="path" />
		<tag k="name" v="Bustien" />
		<tag k="ssr:stedsnr" v="540667" />
	</node>
<<<<<<< HEAD
	<node lat="68.57080277685705" lon="14.719591667383428" id="-11035">
=======
	<node id="-195598" lat="68.5472833314" lon="14.9571027709">
		<tag k="fixme" v="consider highway=path" />
		<tag k="highway" v="track" />
		<tag k="name" v="Kjerkvegen" />
		<tag k="ssr:stedsnr" v="95369" />
	</node>
	<node id="-196493" lat="68.6221916655" lon="14.9003916756">
>>>>>>> e1d4bc35ff8a6074a6f2e91616a996b547c36f15
		<tag k="highway" v="path" />
		<tag k="name" v="Vintervegen" />
		<tag k="ssr:stedsnr" v="585022" />
	</node>
<<<<<<< HEAD
	<node lat="68.50692500151274" lon="14.902522217106204" id="-11128">
=======
	<node id="-198027" lat="68.5473666626" lon="15.2147027732">
>>>>>>> e1d4bc35ff8a6074a6f2e91616a996b547c36f15
		<tag k="highway" v="path" />
		<tag k="name" v="Nystien" />
		<tag k="ssr:stedsnr" v="640816" />
	</node>
<<<<<<< HEAD
	<node lat="68.5991833371761" lon="14.98898056573362" id="-11252">
=======
	<node id="-196230" lat="68.5606638862" lon="14.6173916564">
>>>>>>> e1d4bc35ff8a6074a6f2e91616a996b547c36f15
		<tag k="highway" v="path" />
		<tag k="name" v="Rekstret" />
		<tag k="ssr:stedsnr" v="701281" />
	</node>
<<<<<<< HEAD
	<node lat="68.64853889332882" lon="14.930055545752406" id="-11347">
=======
	<node id="-197380" lat="68.5562305571" lon="14.8474972332">
>>>>>>> e1d4bc35ff8a6074a6f2e91616a996b547c36f15
		<tag k="fixme" v="consider highway=path" />
		<tag k="highway" v="track" />
		<tag k="name" v="Setervegen" />
		<tag k="ssr:stedsnr" v="905581" />
	</node>
<<<<<<< HEAD
	<node lat="68.6425972226441" lon="14.817555549602414" id="-11423">
		<tag k="fixme" v="verify maritime location" />
		<tag k="mooring" v="yes" />
		<tag k="name" v="Foldnaustan" />
		<tag k="place" v="locality" />
		<tag k="ssr:stedsnr" v="831704" />
	</node>
	<node lat="68.64402777574537" lon="14.821777781857069" id="-11432">
		<tag k="fixme" v="verify maritime location" />
		<tag k="mooring" v="yes" />
		<tag k="name" v="Lillefoldnaustet" />
		<tag k="place" v="locality" />
		<tag k="ssr:stedsnr" v="844709" />
	</node>
	<node lat="68.57676388912306" lon="14.72278055031495" id="-11527">
=======
	<node id="-196866" lat="68.5541500035" lon="15.2240750087">
>>>>>>> e1d4bc35ff8a6074a6f2e91616a996b547c36f15
		<tag k="highway" v="path" />
		<tag k="name" v="Brakkvegen" />
		<tag k="ssr:stedsnr" v="889002" />
	</node>
<<<<<<< HEAD
	<node lat="68.60976944542837" lon="15.063386109276184" id="-11558">
=======
	<node id="-196737" lat="68.6097694454" lon="15.0633861093">
>>>>>>> e1d4bc35ff8a6074a6f2e91616a996b547c36f15
		<tag k="ford" v="yes" />
		<tag k="name" v="Hestvadet" />
		<tag k="place" v="locality" />
		<tag k="ssr:stedsnr" v="927008" />
	</node>
<<<<<<< HEAD
	<node lat="68.54728333140238" lon="14.957102770896856" id="-11825">
		<tag k="fixme" v="consider highway=path" />
		<tag k="highway" v="track" />
		<tag k="name" v="Kjerkvegen" />
		<tag k="ssr:stedsnr" v="95369" />
	</node>
	<node lat="68.5916888924265" lon="14.941230553619775" id="-12154">
		<tag k="highway" v="path" />
		<tag k="name" v="Breilivegen" />
		<tag k="ssr:stedsnr" v="285687" />
	</node>
	<node lat="68.5672111090382" lon="15.345738880311295" id="-12297">
		<tag k="ford" v="yes" />
		<tag k="name" v="Breivadet" />
		<tag k="place" v="locality" />
		<tag k="ssr:stedsnr" v="362122" />
	</node>
	<node lat="68.61973610829847" lon="15.15579998926522" id="-12377">
		<tag k="highway" v="path" />
		<tag k="name" v="Hestvegen" />
		<tag k="ssr:stedsnr" v="397775" />
	</node>
	<node lat="68.54646388956914" lon="15.218519446916924" id="-12380">
		<tag k="highway" v="path" />
		<tag k="name" v="Høghaugvegen" />
		<tag k="ssr:stedsnr" v="398253" />
	</node>
	<node lat="68.5473666625717" lon="15.214702773164374" id="-12703">
		<tag k="highway" v="path" />
		<tag k="name" v="Platvegen" />
		<tag k="ssr:stedsnr" v="580225" />
	</node>
	<node lat="68.62219166547429" lon="14.90039167562928" id="-12725">
		<tag k="highway" v="path" />
		<tag k="name" v="Fevegen" />
		<tag k="ssr:stedsnr" v="587730" />
	</node>
	<node lat="68.63099444820116" lon="15.187022228584299" id="-12810">
		<tag k="ford" v="yes" />
		<tag k="name" v="Vadet" />
		<tag k="place" v="locality" />
		<tag k="ssr:stedsnr" v="642845" />
	</node>
	<node lat="68.4054833337919" lon="15.13198610427335" id="-12961">
		<tag k="highway" v="path" />
		<tag k="name" v="Skjellvegen" />
		<tag k="ssr:stedsnr" v="784027" />
	</node>
	<node lat="68.58073888991986" lon="15.019894449962138" id="-13067">
		<tag k="aeroway" v="aerodrome" />
		<tag k="alt_name" v="Skagen" />
		<tag k="name" v="Stokmarknes lufthavn, Skagen" />
		<tag k="old_name" v="Stokmarknes lufthavn" />
		<tag k="ssr:stedsnr" v="822243" />
	</node>
	<node lat="68.57452222073579" lon="14.73978333048612" id="-13226">
		<tag k="highway" v="path" />
		<tag k="name" v="Mollvegen" />
		<tag k="ssr:stedsnr" v="889028" />
	</node>
	<node lat="68.5541500034845" lon="15.224075008748034" id="-13246">
		<tag k="highway" v="path" />
		<tag k="name" v="Vintervegen" />
		<tag k="ssr:stedsnr" v="945246" />
	</node>
	<node lat="68.57266666387797" lon="14.659622230421313" id="-13267">
		<tag k="highway" v="path" />
		<tag k="name" v="Stasjonsvegen" />
		<tag k="ssr:stedsnr" v="950047" />
	</node>
	<node lat="68.58601090063715" lon="14.910017006128749" id="-13358">
		<tag k="name" v="Sjyveien" />
		<tag k="railway" v="halt" />
		<tag k="ssr:stedsnr" v="1082099" />
		<tag k="train" v="yes" />
	</node>
	<node lat="68.5857132308786" lon="14.91117869295871" id="-13359">
		<tag k="name" v="Sjyveien" />
		<tag k="railway" v="halt" />
		<tag k="ssr:stedsnr" v="1082101" />
		<tag k="train" v="yes" />
	</node>
=======
>>>>>>> e1d4bc35ff8a6074a6f2e91616a996b547c36f15
</osm>
