<?xml version="1.0" encoding="UTF-8"?>
<<<<<<< HEAD
<osm version="0.6" generator="osmapis">
	<node lat="68.41215833614669" lon="14.563491662727857" id="-10143">
		<tag k="name" v="Snellsteinen" />
		<tag k="natural" v="stone" />
		<tag k="ssr:stedsnr" v="26624" />
	</node>
	<node lat="68.51128055315696" lon="14.807994437045872" id="-10145">
		<tag k="name" v="Øverslåtten" />
		<tag k="place" v="locality" />
		<tag k="ssr:stedsnr" v="33719" />
	</node>
	<node lat="68.54451666877434" lon="14.996155545770275" id="-10149">
		<tag k="name" v="Tajorda" />
		<tag k="place" v="locality" />
		<tag k="ssr:stedsnr" v="34374" />
	</node>
	<node lat="68.57795555780503" lon="14.727599995085773" id="-10155">
		<tag k="name" v="Rundstein" />
		<tag k="natural" v="stone" />
		<tag k="ssr:stedsnr" v="39004" />
	</node>
	<node lat="68.46407222304707" lon="15.147536110731265" id="-10169">
		<tag k="name" v="Juvikmyra" />
		<tag k="natural" v="wetland" />
		<tag k="ssr:stedsnr" v="40975" />
	</node>
	<node lat="68.55827500353256" lon="14.71435554469866" id="-10178">
		<tag k="landuse" v="quarry" />
		<tag k="name" v="Grushola" />
		<tag k="ssr:stedsnr" v="237440" />
	</node>
	<node lat="68.55196111124785" lon="14.640894439298688" id="-10179">
		<tag k="name" v="Hestbakkuran" />
		<tag k="natural" v="scree" />
		<tag k="ssr:stedsnr" v="237447" />
	</node>
	<node lat="68.44741111548845" lon="15.078227771688551" id="-10186">
		<tag k="name" v="Storvasskogen" />
		<tag k="place" v="locality" />
		<tag k="ssr:stedsnr" v="237622" />
	</node>
	<node lat="68.53975278073732" lon="14.772308331464659" id="-10252">
		<tag k="name" v="Steinteigen" />
		<tag k="natural" v="scree" />
		<tag k="ssr:stedsnr" v="93204" />
	</node>
	<node lat="68.53219722232285" lon="14.850449989642081" id="-10275">
		<tag k="name" v="Anders skomakermyra" />
		<tag k="natural" v="wetland" />
		<tag k="ssr:stedsnr" v="101310" />
	</node>
	<node lat="68.557019447037" lon="14.802000006446224" id="-10282">
		<tag k="name" v="Slottet" />
		<tag k="natural" v="stone" />
		<tag k="ssr:stedsnr" v="102335" />
	</node>
	<node lat="68.635063891089" lon="14.826102786094827" id="-10288">
		<tag k="name" v="Malarsteinen" />
		<tag k="natural" v="stone" />
		<tag k="ssr:stedsnr" v="116675" />
	</node>
	<node lat="68.37759444234293" lon="14.607877778335466" id="-10311">
		<tag k="name" v="Ånesmyran" />
		<tag k="natural" v="wetland" />
		<tag k="ssr:stedsnr" v="138445" />
	</node>
	<node lat="68.53454999552163" lon="14.958669448820567" id="-10330">
		<tag k="name" v="Stormyra" />
		<tag k="natural" v="wetland" />
		<tag k="ssr:stedsnr" v="155410" />
	</node>
	<node lat="68.49692778025327" lon="14.731483336782567" id="-10333">
		<tag k="name" v="Stormyran" />
		<tag k="natural" v="wetland" />
		<tag k="ssr:stedsnr" v="155715" />
	</node>
	<node lat="68.53404444190527" lon="15.20599723084299" id="-10349">
		<tag k="name" v="Banmyra" />
		<tag k="natural" v="wetland" />
		<tag k="ssr:stedsnr" v="260416" />
	</node>
	<node lat="68.66473333255414" lon="14.948327771044776" id="-10363">
		<tag k="name" v="Langmyra" />
		<tag k="natural" v="wetland" />
		<tag k="ssr:stedsnr" v="163717" />
	</node>
	<node lat="68.60048888899772" lon="14.868936111505318" id="-10371">
		<tag k="name" v="Holmsnesmyran" />
		<tag k="natural" v="wetland" />
		<tag k="ssr:stedsnr" v="259589" />
	</node>
	<node lat="68.62116666756224" lon="15.102527772462935" id="-10377">
		<tag k="alt_name" v="Deskmyran" />
		<tag k="name" v="Diskmyran" />
		<tag k="natural" v="wetland" />
		<tag k="ssr:stedsnr" v="260036" />
	</node>
	<node lat="68.59013055188375" lon="14.913402764689483" id="-10458">
		<tag k="name" v="Rødmyra" />
		<tag k="natural" v="wetland" />
		<tag k="ssr:stedsnr" v="216110" />
	</node>
	<node lat="68.56306944809135" lon="15.211966675500756" id="-10459">
		<tag k="name" v="Mølnbogen" />
		<tag k="place" v="locality" />
		<tag k="ssr:stedsnr" v="216298" />
	</node>
	<node lat="68.53893055474066" lon="15.292372218907857" id="-10462">
		<tag k="name" v="Rundura" />
		<tag k="natural" v="scree" />
		<tag k="ssr:stedsnr" v="216832" />
	</node>
	<node lat="68.42612777364101" lon="15.165444438290416" id="-10478">
		<tag k="name" v="Ivarmyra" />
		<tag k="natural" v="wetland" />
		<tag k="ssr:stedsnr" v="222983" />
	</node>
	<node lat="68.45792778081322" lon="15.061911106209958" id="-10485">
		<tag k="name" v="Halssteinen" />
		<tag k="natural" v="stone" />
		<tag k="ssr:stedsnr" v="237635" />
	</node>
	<node lat="68.43245833651565" lon="14.809816669255921" id="-10494">
		<tag k="name" v="Bømyra" />
=======
<osm generator="osmapis" version="0.6">
	<node id="-196716" lat="68.4276944438" lon="14.7082277742">
		<tag k="name" v="Nystykkjan" />
		<tag k="place" v="locality" />
		<tag k="ssr:stedsnr" v="767067" />
	</node>
	<node id="-197628" lat="68.6556027808" lon="14.9501472251">
		<tag k="name" v="Morfar" />
		<tag k="natural" v="scree" />
		<tag k="ssr:stedsnr" v="343549" />
	</node>
	<node id="-195578" lat="68.445566663" lon="14.9275611024">
		<tag k="name" v="Småvatnan" />
>>>>>>> e1d4bc35ff8a6074a6f2e91616a996b547c36f15
		<tag k="natural" v="wetland" />
		<tag k="ssr:stedsnr" v="238425" />
	</node>
<<<<<<< HEAD
	<node lat="68.43351388509456" lon="14.784380562220754" id="-10495">
=======
	<node id="-195577" lat="68.4335138851" lon="14.7843805622">
>>>>>>> e1d4bc35ff8a6074a6f2e91616a996b547c36f15
		<tag k="name" v="Hessandmyra" />
		<tag k="natural" v="wetland" />
		<tag k="ssr:stedsnr" v="238435" />
	</node>
<<<<<<< HEAD
	<node lat="68.44556666302918" lon="14.927561102444642" id="-10496">
		<tag k="name" v="Småvatnan" />
=======
	<node id="-196600" lat="68.5072333334" lon="15.2629388848">
		<tag k="name" v="Knausmyran" />
>>>>>>> e1d4bc35ff8a6074a6f2e91616a996b547c36f15
		<tag k="natural" v="wetland" />
		<tag k="ssr:stedsnr" v="238443" />
	</node>
<<<<<<< HEAD
	<node lat="68.42731111271692" lon="14.644233325881121" id="-10506">
		<tag k="name" v="Flatmyran" />
		<tag k="natural" v="wetland" />
		<tag k="ssr:stedsnr" v="259359" />
	</node>
	<node lat="68.61148055847886" lon="15.08985556579119" id="-10515">
		<tag k="alt_name" v="Seljemyra" />
		<tag k="name" v="Seljmyra" />
=======
	<node id="-196599" lat="68.5145527748" lon="15.2504972111">
		<tag k="name" v="Mellamyra" />
		<tag k="natural" v="wetland" />
		<tag k="ssr:stedsnr" v="890053" />
	</node>
	<node id="-197621" lat="68.4207666626" lon="14.5832055515">
		<tag k="name" v="Mersteinen" />
		<tag k="natural" v="stone" />
		<tag k="ssr:stedsnr" v="343160" />
	</node>
	<node id="-196595" lat="68.3577055531" lon="15.1086777657">
		<tag k="name" v="Vassmyran" />
>>>>>>> e1d4bc35ff8a6074a6f2e91616a996b547c36f15
		<tag k="natural" v="wetland" />
		<tag k="ssr:stedsnr" v="260004" />
	</node>
<<<<<<< HEAD
	<node lat="68.5580166622079" lon="14.938786121835626" id="-10539">
		<tag k="name" v="Hadselmyran" />
=======
	<node id="-198642" lat="68.4059722191" lon="14.6703277748">
		<tag k="name" v="Dalmyra" />
>>>>>>> e1d4bc35ff8a6074a6f2e91616a996b547c36f15
		<tag k="natural" v="wetland" />
		<tag k="ssr:stedsnr" v="458055" />
	</node>
<<<<<<< HEAD
	<node lat="68.50903055752457" lon="14.90722779024425" id="-10544">
		<tag k="name" v="Eintindmyra" />
		<tag k="natural" v="wetland" />
		<tag k="ssr:stedsnr" v="458833" />
	</node>
	<node lat="68.53411666752598" lon="15.199747215547463" id="-10559">
		<tag k="name" v="Rogsteinan" />
		<tag k="natural" v="stone" />
		<tag k="ssr:stedsnr" v="277221" />
	</node>
	<node lat="68.55042222152326" lon="14.642363899884185" id="-10593">
		<tag k="name" v="Plogsteinan" />
=======
	<node id="-198129" lat="68.6423583312" lon="14.859483336">
		<tag k="name" v="Kvitskredmyra" />
		<tag k="natural" v="wetland" />
		<tag k="ssr:stedsnr" v="624554" />
	</node>
	<node id="-197616" lat="68.5694111102" lon="14.7417555619">
		<tag k="name" v="Storura" />
		<tag k="natural" v="scree" />
		<tag k="ssr:stedsnr" v="343019" />
	</node>
	<node id="-195567" lat="68.4579277808" lon="15.0619111062">
		<tag k="name" v="Halssteinen" />
		<tag k="natural" v="stone" />
		<tag k="ssr:stedsnr" v="237635" />
	</node>
	<node id="-197614" lat="68.4328416686" lon="14.6645000045">
		<tag k="name" v="Bonsteinskogen" />
		<tag k="place" v="locality" />
		<tag k="ssr:stedsnr" v="342112" />
	</node>
	<node id="-195565" lat="68.4474111155" lon="15.0782277717">
		<tag k="name" v="Storvasskogen" />
		<tag k="place" v="locality" />
		<tag k="ssr:stedsnr" v="237622" />
	</node>
	<node id="-197612" lat="68.5853138936" lon="14.6940333241">
		<tag k="name" v="Plogsteinen" />
>>>>>>> e1d4bc35ff8a6074a6f2e91616a996b547c36f15
		<tag k="natural" v="stone" />
		<tag k="ssr:stedsnr" v="298403" />
	</node>
<<<<<<< HEAD
	<node lat="68.50806111535005" lon="14.782616667013388" id="-10606">
		<tag k="name" v="Ølaslåtten" />
=======
	<node id="-197098" lat="68.5607305575" lon="15.2591249902">
		<tag k="name" v="Bestefarsslåtta" />
>>>>>>> e1d4bc35ff8a6074a6f2e91616a996b547c36f15
		<tag k="place" v="locality" />
		<tag k="ssr:stedsnr" v="465302" />
	</node>
<<<<<<< HEAD
	<node lat="68.55548055745199" lon="15.24845278321183" id="-10637">
		<tag k="name" v="Reingjerdmyran" />
=======
	<node id="-196585" lat="68.5860166708" lon="14.6810666748">
		<tag k="name" v="Plassen" />
>>>>>>> e1d4bc35ff8a6074a6f2e91616a996b547c36f15
		<tag k="natural" v="wetland" />
		<tag k="ssr:stedsnr" v="321083" />
	</node>
<<<<<<< HEAD
	<node lat="68.55183611110208" lon="14.947019446910248" id="-10651">
		<tag k="alt_name" v="Klamyra" />
		<tag k="name" v="Klavmyra" />
=======
	<node id="-197608" lat="68.5746083355" lon="14.6409249999">
		<tag k="name" v="Jerpvollmyran" />
>>>>>>> e1d4bc35ff8a6074a6f2e91616a996b547c36f15
		<tag k="natural" v="wetland" />
		<tag k="ssr:stedsnr" v="321889" />
	</node>
<<<<<<< HEAD
	<node lat="68.60105832987853" lon="14.880386110306926" id="-10655">
		<tag k="name" v="Tjønnesskogen" />
		<tag k="place" v="locality" />
		<tag k="ssr:stedsnr" v="337143" />
	</node>
	<node lat="68.56822777989099" lon="15.293286122180579" id="-10662">
		<tag k="name" v="Vedhøggan" />
=======
	<node id="-198117" lat="68.5687972262" lon="15.2167916675">
		<tag k="name" v="Kvitnesmyra" />
		<tag k="natural" v="wetland" />
		<tag k="ssr:stedsnr" v="624079" />
	</node>
	<node id="-197092" lat="68.5457944446" lon="14.7337694493">
		<tag k="name" v="Seljeskogen" />
>>>>>>> e1d4bc35ff8a6074a6f2e91616a996b547c36f15
		<tag k="place" v="locality" />
		<tag k="ssr:stedsnr" v="337917" />
	</node>
<<<<<<< HEAD
	<node lat="68.57430555323674" lon="15.26666111934723" id="-10663">
		<tag k="name" v="Kvitsteinen" />
		<tag k="natural" v="stone" />
		<tag k="ssr:stedsnr" v="337922" />
	</node>
	<node lat="68.43284166864758" lon="14.66450000446459" id="-10669">
		<tag k="name" v="Bonsteinskogen" />
		<tag k="place" v="locality" />
		<tag k="ssr:stedsnr" v="342112" />
	</node>
	<node lat="68.44039444273204" lon="15.035991672924215" id="-10685">
		<tag k="name" v="Finnskarura" />
=======
	<node id="-195552" lat="68.5519611112" lon="14.6408944393">
		<tag k="name" v="Hestbakkuran" />
>>>>>>> e1d4bc35ff8a6074a6f2e91616a996b547c36f15
		<tag k="natural" v="scree" />
		<tag k="ssr:stedsnr" v="358601" />
	</node>
<<<<<<< HEAD
	<node lat="68.61357499850112" lon="15.050938887283117" id="-10722">
		<tag k="name" v="Dalmyra" />
		<tag k="natural" v="wetland" />
		<tag k="ssr:stedsnr" v="381007" />
	</node>
	<node lat="68.62371111099706" lon="15.13273055646561" id="-10745">
		<tag k="name" v="Gårdsfjellmyra" />
		<tag k="natural" v="wetland" />
		<tag k="ssr:stedsnr" v="397796" />
	</node>
	<node lat="68.5531250003897" lon="14.802155566017422" id="-10772">
		<tag k="name" v="Øverstjorda" />
=======
	<node id="-195551" lat="68.5582750035" lon="14.7143555447">
		<tag k="landuse" v="quarry" />
		<tag k="name" v="Grushola" />
		<tag k="ssr:stedsnr" v="237440" />
	</node>
	<node id="-196061" lat="68.5219194434" lon="14.7124055623">
		<tag k="name" v="Sandgåtta" />
>>>>>>> e1d4bc35ff8a6074a6f2e91616a996b547c36f15
		<tag k="place" v="locality" />
		<tag k="ssr:stedsnr" v="406304" />
	</node>
<<<<<<< HEAD
	<node lat="68.59830833026172" lon="14.900669439092965" id="-10774">
		<tag k="name" v="Mølnskogen" />
		<tag k="place" v="locality" />
		<tag k="ssr:stedsnr" v="406704" />
	</node>
	<node lat="68.51271110958936" lon="14.796083332647887" id="-10832">
		<tag k="name" v="Seteråsmyra" />
		<tag k="natural" v="wetland" />
		<tag k="ssr:stedsnr" v="459663" />
	</node>
	<node lat="68.5688499970834" lon="14.789216655698757" id="-10843">
		<tag k="name" v="Vassmyra" />
=======
	<node id="-197596" lat="68.5682277799" lon="15.2932861222">
		<tag k="name" v="Vedhøggan" />
		<tag k="place" v="locality" />
		<tag k="ssr:stedsnr" v="337917" />
	</node>
	<node id="-198619" lat="68.3623333366" lon="15.09117779">
		<tag k="name" v="Skjålimyra" />
>>>>>>> e1d4bc35ff8a6074a6f2e91616a996b547c36f15
		<tag k="natural" v="wetland" />
		<tag k="ssr:stedsnr" v="465313" />
	</node>
<<<<<<< HEAD
	<node lat="68.53445555965583" lon="14.895955563791375" id="-10846">
		<tag k="name" v="Kvitmyra" />
=======
	<node id="-198618" lat="68.4043027811" lon="15.1284500085">
		<tag k="name" v="Sivertmyra" />
>>>>>>> e1d4bc35ff8a6074a6f2e91616a996b547c36f15
		<tag k="natural" v="wetland" />
		<tag k="ssr:stedsnr" v="465325" />
	</node>
<<<<<<< HEAD
	<node lat="68.56044166529023" lon="14.842613881448038" id="-10855">
		<tag k="name" v="Skoningsteinan" />
		<tag k="natural" v="scree" />
		<tag k="ssr:stedsnr" v="466320" />
	</node>
	<node lat="68.46088055269378" lon="15.214269435537187" id="-10972">
		<tag k="name" v="Skjåmarka" />
=======
	<node id="-196568" lat="68.508127777" lon="14.7825583311">
		<tag k="name" v="Olaslåtten" />
>>>>>>> e1d4bc35ff8a6074a6f2e91616a996b547c36f15
		<tag k="place" v="locality" />
		<tag k="ssr:stedsnr" v="525862" />
	</node>
<<<<<<< HEAD
	<node lat="68.57803332960069" lon="14.721244452305802" id="-11033">
		<tag k="name" v="Lilleelvsteinen" />
=======
	<node id="-197079" lat="68.6550055588" lon="14.8721333251">
		<tag k="name" v="Kristmyra" />
		<tag k="natural" v="wetland" />
		<tag k="ssr:stedsnr" v="42692" />
	</node>
	<node id="-197075" lat="68.623283331" lon="14.8718222321">
		<tag k="name" v="Melkarsteinen" />
>>>>>>> e1d4bc35ff8a6074a6f2e91616a996b547c36f15
		<tag k="natural" v="stone" />
		<tag k="ssr:stedsnr" v="585004" />
	</node>
<<<<<<< HEAD
	<node lat="68.50523889284403" lon="15.291747220499621" id="-11040">
		<tag k="name" v="Agura" />
=======
	<node id="-198051" lat="68.5052388928" lon="15.2917472205">
		<tag k="name" v="Agura" />
		<tag k="natural" v="scree" />
		<tag k="ssr:stedsnr" v="586047" />
	</node>
	<node id="-197072" lat="68.5463861145" lon="14.7919972128">
		<tag k="name" v="Motinduran" />
>>>>>>> e1d4bc35ff8a6074a6f2e91616a996b547c36f15
		<tag k="natural" v="scree" />
		<tag k="ssr:stedsnr" v="586047" />
	</node>
<<<<<<< HEAD
	<node lat="68.55136388428207" lon="14.757938894953826" id="-11052">
		<tag k="name" v="Finnkjerksteinen" />
		<tag k="natural" v="stone" />
		<tag k="ssr:stedsnr" v="601409" />
	</node>
	<node lat="68.44772221918944" lon="14.973461105860856" id="-11057">
		<tag k="name" v="Kjerringsteinen" />
=======
	<node id="-195576" lat="68.4324583365" lon="14.8098166693">
		<tag k="name" v="Bømyra" />
		<tag k="natural" v="wetland" />
		<tag k="ssr:stedsnr" v="238425" />
	</node>
	<node id="-195532" lat="68.4334888932" lon="14.7292138874">
		<tag k="name" v="Arnesmyra" />
		<tag k="natural" v="wetland" />
		<tag k="ssr:stedsnr" v="39053" />
	</node>
	<node id="-196514" lat="68.4361833336" lon="15.047883344">
		<tag k="name" v="Stordalsmyra" />
		<tag k="natural" v="wetland" />
		<tag k="ssr:stedsnr" v="722613" />
	</node>
	<node id="-195530" lat="68.5822944461" lon="14.6955472247">
		<tag k="name" v="Dragnesskogen" />
		<tag k="place" v="locality" />
		<tag k="ssr:stedsnr" v="39026" />
	</node>
	<node id="-195527" lat="68.5779555578" lon="14.7275999951">
		<tag k="name" v="Rundstein" />
>>>>>>> e1d4bc35ff8a6074a6f2e91616a996b547c36f15
		<tag k="natural" v="stone" />
		<tag k="ssr:stedsnr" v="601551" />
	</node>
<<<<<<< HEAD
	<node lat="68.45420833357011" lon="15.01403056389931" id="-11060">
		<tag k="name" v="Jurhaugkjerringa" />
=======
	<node id="-197281" lat="68.4020750027" lon="14.5871999931">
		<tag k="name" v="Kviskeruran" />
		<tag k="natural" v="scree" />
		<tag k="ssr:stedsnr" v="138330" />
	</node>
	<node id="-195524" lat="68.4121583361" lon="14.5634916627">
		<tag k="name" v="Snellsteinen" />
>>>>>>> e1d4bc35ff8a6074a6f2e91616a996b547c36f15
		<tag k="natural" v="stone" />
		<tag k="ssr:stedsnr" v="601566" />
	</node>
<<<<<<< HEAD
	<node lat="68.53202499640733" lon="15.254916665790624" id="-11091">
		<tag k="name" v="Myrsteinen" />
		<tag k="natural" v="stone" />
		<tag k="ssr:stedsnr" v="702851" />
	</node>
	<node lat="68.6277444419664" lon="15.118694432714973" id="-11130">
		<tag k="name" v="Bukksteinen" />
		<tag k="natural" v="stone" />
		<tag k="ssr:stedsnr" v="640793" />
	</node>
	<node lat="68.56880833115086" lon="14.728322223418235" id="-11133">
		<tag k="name" v="Kløvsteinen" />
		<tag k="natural" v="stone" />
		<tag k="ssr:stedsnr" v="646012" />
	</node>
	<node lat="68.41287222600636" lon="15.172752777263273" id="-11139">
=======
	<node id="-196547" lat="68.5535611137" lon="14.6293499884">
		<tag k="name" v="Kleivsteinan" />
		<tag k="natural" v="stone" />
		<tag k="ssr:stedsnr" v="662464" />
	</node>
	<node id="-196031" lat="68.5344555597" lon="14.8959555638">
		<tag k="name" v="Kvitmyra" />
		<tag k="natural" v="wetland" />
		<tag k="ssr:stedsnr" v="465325" />
	</node>
	<node id="-195518" lat="68.65561389" lon="14.8671083401">
		<tag k="name" v="Kilmyra" />
		<tag k="natural" v="wetland" />
		<tag k="ssr:stedsnr" v="224682" />
	</node>
	<node id="-195516" lat="68.6269333295" lon="14.8714805474">
		<tag k="name" v="Limyra" />
		<tag k="natural" v="wetland" />
		<tag k="ssr:stedsnr" v="224673" />
	</node>
	<node id="-196538" lat="68.412872226" lon="15.1727527773">
>>>>>>> e1d4bc35ff8a6074a6f2e91616a996b547c36f15
		<tag k="name" v="Stormyra" />
		<tag k="natural" v="wetland" />
		<tag k="ssr:stedsnr" v="646919" />
	</node>
<<<<<<< HEAD
	<node lat="68.57225833060679" lon="14.731936105209915" id="-11148">
		<tag k="name" v="Nebbsteinmyra" />
		<tag k="natural" v="wetland" />
		<tag k="ssr:stedsnr" v="707011" />
	</node>
	<node lat="68.5725055547617" lon="14.73450834207527" id="-11149">
		<tag k="name" v="Nebbsteinen" />
		<tag k="natural" v="stone" />
		<tag k="ssr:stedsnr" v="707015" />
	</node>
	<node lat="68.42984999997698" lon="14.737058341957757" id="-11152">
		<tag k="name" v="Trastmarka" />
=======
	<node id="-198073" lat="68.4477222192" lon="14.9734611059">
		<tag k="name" v="Kjerringsteinen" />
		<tag k="natural" v="stone" />
		<tag k="ssr:stedsnr" v="601551" />
	</node>
	<node id="-198065" lat="68.6414583311" lon="14.8169750003">
		<tag k="name" v="Foldmyra" />
>>>>>>> e1d4bc35ff8a6074a6f2e91616a996b547c36f15
		<tag k="natural" v="wetland" />
		<tag k="ssr:stedsnr" v="707089" />
	</node>
<<<<<<< HEAD
	<node lat="68.50322533369172" lon="15.276169900974024" id="-11175">
		<tag k="name" v="Olleren" />
		<tag k="natural" v="scree" />
		<tag k="ssr:stedsnr" v="708080" />
	</node>
	<node lat="68.40829721999356" lon="15.181458341747065" id="-11181">
		<tag k="name" v="Kjerkura" />
		<tag k="natural" v="scree" />
		<tag k="ssr:stedsnr" v="708916" />
	</node>
	<node lat="68.45983333031226" lon="15.251111098720282" id="-11187">
		<tag k="name" v="Storåmyran" />
		<tag k="natural" v="wetland" />
		<tag k="ssr:stedsnr" v="708844" />
	</node>
	<node lat="68.51455277480257" lon="15.250497211083257" id="-11200">
		<tag k="name" v="Mellamyra" />
		<tag k="natural" v="wetland" />
		<tag k="ssr:stedsnr" v="890053" />
	</node>
	<node lat="68.50723333343824" lon="15.262938884783944" id="-11201">
		<tag k="name" v="Knausmyran" />
=======
	<node id="-197038" lat="68.5445166688" lon="14.9961555458">
		<tag k="name" v="Tajorda" />
		<tag k="place" v="locality" />
		<tag k="ssr:stedsnr" v="34374" />
	</node>
	<node id="-198572" lat="68.459980553" lon="15.0638888909">
		<tag k="name" v="Myrlandsmyra" />
		<tag k="natural" v="wetland" />
		<tag k="ssr:stedsnr" v="867708" />
	</node>
	<node id="-197033" lat="68.5332083357" lon="15.2122055608">
		<tag k="name" v="Olasteinen" />
		<tag k="natural" v="stone" />
		<tag k="ssr:stedsnr" v="34245" />
	</node>
	<node id="-196519" lat="68.5588083333" lon="14.65004999">
		<tag k="name" v="Storura" />
		<tag k="natural" v="scree" />
		<tag k="ssr:stedsnr" v="723462" />
	</node>
	<node id="-197542" lat="68.5554805575" lon="15.2484527832">
		<tag k="name" v="Reingjerdmyran" />
>>>>>>> e1d4bc35ff8a6074a6f2e91616a996b547c36f15
		<tag k="natural" v="wetland" />
		<tag k="ssr:stedsnr" v="890066" />
	</node>
<<<<<<< HEAD
	<node lat="68.52936944697582" lon="14.869049993517267" id="-11246">
		<tag k="name" v="Flatåsmyra" />
		<tag k="natural" v="wetland" />
		<tag k="ssr:stedsnr" v="685991" />
	</node>
	<node lat="68.4188222205622" lon="14.62551110098019" id="-11263">
		<tag k="name" v="Gråsteinskogen" />
		<tag k="place" v="locality" />
		<tag k="ssr:stedsnr" v="707076" />
	</node>
	<node lat="68.42089444505207" lon="14.584983332226779" id="-11266">
		<tag k="name" v="Merksteinmyra" />
=======
	<node id="-195491" lat="68.6199250022" lon="14.8653777694">
		<tag k="name" v="Kruksteinan" />
		<tag k="natural" v="stone" />
		<tag k="ssr:stedsnr" v="224276" />
	</node>
	<node id="-196002" lat="68.5127111096" lon="14.7960833326">
		<tag k="name" v="Seteråsmyra" />
>>>>>>> e1d4bc35ff8a6074a6f2e91616a996b547c36f15
		<tag k="natural" v="wetland" />
		<tag k="ssr:stedsnr" v="707219" />
	</node>
<<<<<<< HEAD
	<node lat="68.58092777650114" lon="14.664625004898626" id="-11268">
		<tag k="name" v="Sisselmyra" />
=======
	<node id="-196507" lat="68.4530194439" lon="15.0725861217">
		<tag k="name" v="Borkhellaren" />
		<tag k="natural" v="stone" />
		<tag k="ssr:stedsnr" v="601590" />
	</node>
	<node id="-198560" lat="68.6334305576" lon="14.8913833266">
		<tag k="name" v="Kallsnesmyra" />
>>>>>>> e1d4bc35ff8a6074a6f2e91616a996b547c36f15
		<tag k="natural" v="wetland" />
		<tag k="ssr:stedsnr" v="707105" />
	</node>
<<<<<<< HEAD
	<node lat="68.43618333357794" lon="15.047883344047152" id="-11288">
		<tag k="name" v="Stordalsmyra" />
		<tag k="natural" v="wetland" />
		<tag k="ssr:stedsnr" v="722613" />
	</node>
	<node lat="68.4247555601803" lon="15.19070554932325" id="-11327">
		<tag k="name" v="Kongsmarka - Gonga" />
		<tag k="name:no" v="Kongsmarka" />
		<tag k="name:se" v="Gonga" />
=======
	<node id="-197022" lat="68.5112805532" lon="14.807994437">
		<tag k="name" v="Øverslåtten" />
>>>>>>> e1d4bc35ff8a6074a6f2e91616a996b547c36f15
		<tag k="place" v="locality" />
		<tag k="ssr:stedsnr" v="745806" />
	</node>
<<<<<<< HEAD
	<node lat="68.62390277583042" lon="15.118308327006217" id="-11356">
		<tag k="name" v="Aftersteinen" />
		<tag k="natural" v="stone" />
		<tag k="ssr:stedsnr" v="761808" />
	</node>
	<node lat="68.56393888567747" lon="14.805688898770422" id="-11378">
		<tag k="name" v="Rønnkulen" />
		<tag k="natural" v="scree" />
		<tag k="ssr:stedsnr" v="770272" />
	</node>
	<node lat="68.56665000157653" lon="15.325769449205072" id="-11391">
		<tag k="name" v="Leirdammen" />
=======
	<node id="-195995" lat="68.5290777782" lon="15.2972805596">
		<tag k="name" v="Blåsteinen" />
		<tag k="natural" v="stone" />
		<tag k="ssr:stedsnr" v="277846" />
	</node>
	<node id="-198042" lat="68.5780333296" lon="14.7212444523">
		<tag k="name" v="Lilleelvsteinen" />
		<tag k="natural" v="stone" />
		<tag k="ssr:stedsnr" v="585004" />
	</node>
	<node id="-195481" lat="68.4261277736" lon="15.1654444383">
		<tag k="name" v="Ivarmyra" />
>>>>>>> e1d4bc35ff8a6074a6f2e91616a996b547c36f15
		<tag k="natural" v="wetland" />
		<tag k="ssr:stedsnr" v="787110" />
	</node>
<<<<<<< HEAD
	<node lat="68.5498583306467" lon="14.930716663788719" id="-11397">
		<tag k="name" v="Trolldalsmyra" />
		<tag k="natural" v="wetland" />
		<tag k="ssr:stedsnr" v="823009" />
	</node>
	<node lat="68.51706666318236" lon="14.830272229318254" id="-11403">
		<tag k="name" v="Goalåsmyra" />
		<tag k="natural" v="wetland" />
		<tag k="ssr:stedsnr" v="823566" />
	</node>
	<node lat="68.42155833427772" lon="14.58028610356495" id="-11440">
		<tag k="name" v="Myran" />
=======
	<node id="-196504" lat="68.4542083336" lon="15.0140305639">
		<tag k="name" v="Jurhaugkjerringa" />
		<tag k="natural" v="stone" />
		<tag k="ssr:stedsnr" v="601566" />
	</node>
	<node id="-197273" lat="68.5605249995" lon="15.2401972295">
		<tag k="name" v="Svartvassmyran" />
		<tag k="natural" v="wetland" />
		<tag k="ssr:stedsnr" v="138123" />
	</node>
	<node id="-196497" lat="68.5513638843" lon="14.757938895">
		<tag k="name" v="Finnkjerksteinen" />
		<tag k="natural" v="stone" />
		<tag k="ssr:stedsnr" v="601409" />
	</node>
	<node id="-195981" lat="68.5090305575" lon="14.9072277902">
		<tag k="name" v="Eintindmyra" />
>>>>>>> e1d4bc35ff8a6074a6f2e91616a996b547c36f15
		<tag k="natural" v="wetland" />
		<tag k="ssr:stedsnr" v="927383" />
	</node>
<<<<<<< HEAD
	<node lat="68.644066670759" lon="14.833266676557217" id="-11476">
		<tag k="name" v="Stormyra" />
		<tag k="natural" v="wetland" />
		<tag k="ssr:stedsnr" v="928518" />
	</node>
	<node lat="68.5860166708309" lon="14.681066674840503" id="-11531">
		<tag k="name" v="Plassen" />
=======
	<node id="-196484" lat="68.4190416695" lon="14.6234833439">
		<tag k="name" v="Gråsteinen" />
		<tag k="natural" v="stone" />
		<tag k="ssr:stedsnr" v="585081" />
	</node>
	<node id="-197506" lat="68.6358222245" lon="15.1537361017">
		<tag k="alt_name" v="Stillelvmyra" />
		<tag k="name" v="Stillemyra" />
>>>>>>> e1d4bc35ff8a6074a6f2e91616a996b547c36f15
		<tag k="natural" v="wetland" />
		<tag k="ssr:stedsnr" v="889117" />
	</node>
<<<<<<< HEAD
	<node lat="68.35770555305618" lon="15.10867776571698" id="-11539">
		<tag k="name" v="Vassmyran" />
=======
	<node id="-195967" lat="68.5580166622" lon="14.9387861218">
		<tag k="name" v="Hadselmyran" />
>>>>>>> e1d4bc35ff8a6074a6f2e91616a996b547c36f15
		<tag k="natural" v="wetland" />
		<tag k="ssr:stedsnr" v="889999" />
	</node>
<<<<<<< HEAD
	<node lat="68.56396111440738" lon="15.239105550755362" id="-11561">
		<tag k="name" v="Bjørnåsmyran" />
=======
	<node id="-197496" lat="68.4964777745" lon="15.3384472096">
		<tag k="name" v="Grunnvikmyran" />
>>>>>>> e1d4bc35ff8a6074a6f2e91616a996b547c36f15
		<tag k="natural" v="wetland" />
		<tag k="ssr:stedsnr" v="927124" />
	</node>
<<<<<<< HEAD
	<node lat="68.39439166616587" lon="15.149347229833275" id="-11575">
		<tag k="name" v="Dalmyran" />
		<tag k="natural" v="wetland" />
		<tag k="ssr:stedsnr" v="927862" />
	</node>
	<node lat="68.57374722309895" lon="15.25245000046005" id="-11589">
		<tag k="name" v="Finnkjerka" />
		<tag k="natural" v="stone" />
		<tag k="ssr:stedsnr" v="944920" />
	</node>
	<node lat="68.4354638932818" lon="14.652711105393557" id="-11593">
		<tag k="name" v="Haksteinen" />
		<tag k="natural" v="stone" />
		<tag k="ssr:stedsnr" v="950151" />
	</node>
	<node lat="68.57156944200688" lon="14.804422216584266" id="-11599">
		<tag k="name" v="Karlslåtta" />
		<tag k="place" v="locality" />
		<tag k="ssr:stedsnr" v="950312" />
	</node>
	<node lat="68.4043027811051" lon="15.128450008450397" id="-11610">
		<tag k="name" v="Sivertmyra" />
=======
	<node id="-196740" lat="68.5639611144" lon="15.2391055508">
		<tag k="name" v="Bjørnåsmyran" />
		<tag k="natural" v="wetland" />
		<tag k="ssr:stedsnr" v="927124" />
	</node>
	<node id="-196468" lat="68.40829722" lon="15.1814583417">
		<tag k="name" v="Kjerkura" />
		<tag k="natural" v="scree" />
		<tag k="ssr:stedsnr" v="708916" />
	</node>
	<node id="-196464" lat="68.4598333303" lon="15.2511110987">
		<tag k="name" v="Storåmyran" />
		<tag k="natural" v="wetland" />
		<tag k="ssr:stedsnr" v="708844" />
	</node>
	<node id="-198511" lat="68.6657861088" lon="15.0359611011">
		<tag k="alt_name" v="Drågtjørnmyra" />
		<tag k="name" v="Drågtjønnmyra" />
>>>>>>> e1d4bc35ff8a6074a6f2e91616a996b547c36f15
		<tag k="natural" v="wetland" />
		<tag k="ssr:stedsnr" v="950932" />
	</node>
<<<<<<< HEAD
	<node lat="68.62196666545448" lon="15.117627776067181" id="-11703">
		<tag k="name" v="Lamsteinan" />
=======
	<node id="-198510" lat="68.459169444" lon="15.0153277738">
		<tag k="name" v="Nattmålsteinen" />
>>>>>>> e1d4bc35ff8a6074a6f2e91616a996b547c36f15
		<tag k="natural" v="stone" />
		<tag k="ssr:stedsnr" v="33795" />
	</node>
<<<<<<< HEAD
	<node lat="68.53320833572916" lon="15.212205560819017" id="-11708">
		<tag k="name" v="Olasteinen" />
		<tag k="natural" v="stone" />
		<tag k="ssr:stedsnr" v="34245" />
	</node>
	<node lat="68.5822944460878" lon="14.695547224661821" id="-11720">
		<tag k="name" v="Dragnesskogen" />
		<tag k="place" v="locality" />
		<tag k="ssr:stedsnr" v="39026" />
	</node>
	<node lat="68.43348889315239" lon="14.729213887352255" id="-11725">
		<tag k="name" v="Arnesmyra" />
=======
	<node id="-197479" lat="68.5901305519" lon="14.9134027647">
		<tag k="name" v="Rødmyra" />
>>>>>>> e1d4bc35ff8a6074a6f2e91616a996b547c36f15
		<tag k="natural" v="wetland" />
		<tag k="ssr:stedsnr" v="39053" />
	</node>
<<<<<<< HEAD
	<node lat="68.54638611454975" lon="14.791997212823876" id="-11741">
		<tag k="name" v="Motinduran" />
		<tag k="natural" v="scree" />
		<tag k="ssr:stedsnr" v="42287" />
	</node>
	<node lat="68.65500555876447" lon="14.872133325084741" id="-11744">
		<tag k="name" v="Kristmyra" />
		<tag k="natural" v="wetland" />
		<tag k="ssr:stedsnr" v="42692" />
	</node>
	<node lat="68.62328333104622" lon="14.87182223212788" id="-11747">
		<tag k="name" v="Melkarsteinen" />
		<tag k="natural" v="stone" />
		<tag k="ssr:stedsnr" v="42658" />
	</node>
	<node lat="68.5457944445613" lon="14.733769449302178" id="-11752">
		<tag k="name" v="Seljeskogen" />
		<tag k="place" v="locality" />
		<tag k="ssr:stedsnr" v="56460" />
	</node>
	<node lat="68.56073055748324" lon="15.259124990214424" id="-11760">
		<tag k="name" v="Bestefarsslåtta" />
		<tag k="place" v="locality" />
		<tag k="ssr:stedsnr" v="59032" />
	</node>
	<node lat="68.35842777507358" lon="14.811330548616796" id="-11764">
		<tag k="name" v="Blåskavlen" />
		<tag k="natural" v="glacier" />
		<tag k="ssr:stedsnr" v="78475" />
	</node>
	<node lat="68.53109444504895" lon="15.28427778033269" id="-11789">
		<tag k="name" v="Kaljordmyran" />
		<tag k="natural" v="wetland" />
		<tag k="ssr:stedsnr" v="78376" />
	</node>
	<node lat="68.53481944658563" lon="15.272925003376901" id="-11790">
		<tag k="name" v="Hennesmyran" />
		<tag k="natural" v="wetland" />
		<tag k="ssr:stedsnr" v="78381" />
	</node>
	<node lat="68.51905000026234" lon="14.784438889207962" id="-11809">
		<tag k="alt_name" v="Galdermyra" />
		<tag k="name" v="Galdermyran" />
=======
	<node id="-196454" lat="68.5036972187" lon="15.2761499904">
		<tag k="name" v="Olleren" />
		<tag k="natural" v="scree" />
		<tag k="ssr:stedsnr" v="708080" />
	</node>
	<node id="-198498" lat="68.4566222236" lon="14.8903833448">
		<tag k="name" v="Risakssteinen" />
		<tag k="natural" v="stone" />
		<tag k="ssr:stedsnr" v="845455" />
	</node>
	<node id="-197984" lat="68.6175055567" lon="14.9584749922">
		<tag k="name" v="Slåttene" />
		<tag k="place" v="locality" />
		<tag k="ssr:stedsnr" v="563617" />
	</node>
	<node id="-198495" lat="68.4563027818" lon="15.0663499923">
		<tag k="name" v="Hulderkjerken" />
		<tag k="natural" v="scree" />
		<tag k="ssr:stedsnr" v="844634" />
	</node>
	<node id="-196440" lat="68.4208944451" lon="14.5849833322">
		<tag k="name" v="Merksteinmyra" />
		<tag k="natural" v="wetland" />
		<tag k="ssr:stedsnr" v="707219" />
	</node>
	<node id="-196431" lat="68.42985" lon="14.737058342">
		<tag k="name" v="Trastmarka" />
>>>>>>> e1d4bc35ff8a6074a6f2e91616a996b547c36f15
		<tag k="natural" v="wetland" />
		<tag k="ssr:stedsnr" v="78973" />
	</node>
<<<<<<< HEAD
	<node lat="68.54567777864197" lon="14.989755561030941" id="-11824">
		<tag k="name" v="Tajordåsen" />
=======
	<node id="-196429" lat="68.4188222206" lon="14.625511101">
		<tag k="name" v="Gråsteinskogen" />
>>>>>>> e1d4bc35ff8a6074a6f2e91616a996b547c36f15
		<tag k="place" v="locality" />
		<tag k="ssr:stedsnr" v="95365" />
	</node>
<<<<<<< HEAD
	<node lat="68.53059722611083" lon="15.297638884322035" id="-11828">
		<tag k="name" v="Gjetarsteinen" />
=======
	<node id="-196423" lat="68.5725055548" lon="14.7345083421">
		<tag k="name" v="Nebbsteinen" />
>>>>>>> e1d4bc35ff8a6074a6f2e91616a996b547c36f15
		<tag k="natural" v="stone" />
		<tag k="ssr:stedsnr" v="95826" />
	</node>
<<<<<<< HEAD
	<node lat="68.53643888478767" lon="15.261672223224584" id="-11831">
		<tag k="name" v="Storjorda" />
		<tag k="place" v="locality" />
		<tag k="ssr:stedsnr" v="95843" />
	</node>
	<node lat="68.56932221869" lon="14.65206943212191" id="-11834">
		<tag k="name" v="Vassmyra" />
=======
	<node id="-196422" lat="68.5722583306" lon="14.7319361052">
		<tag k="name" v="Nebbsteinmyra" />
>>>>>>> e1d4bc35ff8a6074a6f2e91616a996b547c36f15
		<tag k="natural" v="wetland" />
		<tag k="ssr:stedsnr" v="100043" />
	</node>
<<<<<<< HEAD
	<node lat="68.42214444582939" lon="14.624286100904943" id="-11835">
		<tag k="name" v="Bekksteinen" />
		<tag k="natural" v="stone" />
		<tag k="ssr:stedsnr" v="100057" />
	</node>
	<node lat="68.65438889320292" lon="14.980061108887867" id="-11840">
		<tag k="name" v="Abelonsteinen" />
=======
	<node id="-198468" lat="68.476791663" lon="15.2906722329">
		<tag k="name" v="Slåttå" />
		<tag k="place" v="locality" />
		<tag k="ssr:stedsnr" v="829861" />
	</node>
	<node id="-197174" lat="68.5190500003" lon="14.7844388892">
		<tag k="alt_name" v="Galdermyra" />
		<tag k="name" v="Galdermyran" />
		<tag k="natural" v="wetland" />
		<tag k="ssr:stedsnr" v="78973" />
	</node>
	<node id="-198624" lat="68.628491664" lon="14.905750004">
		<tag k="name" v="Frammerslåtten" />
		<tag k="place" v="locality" />
		<tag k="ssr:stedsnr" v="952670" />
	</node>
	<node id="-196414" lat="68.5320249964" lon="15.2549166658">
		<tag k="name" v="Myrsteinen" />
>>>>>>> e1d4bc35ff8a6074a6f2e91616a996b547c36f15
		<tag k="natural" v="stone" />
		<tag k="ssr:stedsnr" v="101555" />
	</node>
<<<<<<< HEAD
	<node lat="68.57116944238136" lon="14.824513886038668" id="-11843">
		<tag k="name" v="Skjulsteinan" />
=======
	<node id="-196925" lat="68.5723888861" lon="14.7402972305">
		<tag k="name" v="Melkarsteinen" />
>>>>>>> e1d4bc35ff8a6074a6f2e91616a996b547c36f15
		<tag k="natural" v="stone" />
		<tag k="ssr:stedsnr" v="101301" />
	</node>
<<<<<<< HEAD
	<node lat="68.43110000022537" lon="14.895311115154238" id="-11858">
		<tag k="name" v="Troppsteinen" />
		<tag k="natural" v="stone" />
		<tag k="ssr:stedsnr" v="116329" />
	</node>
	<node lat="68.38256110734066" lon="14.696986108123744" id="-11868">
=======
	<node id="-197258" lat="68.3825611073" lon="14.6969861081">
>>>>>>> e1d4bc35ff8a6074a6f2e91616a996b547c36f15
		<tag k="name" v="Stauran" />
		<tag k="natural" v="scree" />
		<tag k="ssr:stedsnr" v="120147" />
	</node>
<<<<<<< HEAD
	<node lat="68.40957500137549" lon="14.701883323790788" id="-11871">
		<tag k="name" v="Øra" />
		<tag k="place" v="locality" />
		<tag k="ssr:stedsnr" v="120165" />
	</node>
	<node lat="68.60349444713611" lon="15.078916660086414" id="-11873">
		<tag k="name" v="Skjellmyra" />
=======
	<node id="-198562" lat="68.6402555592" lon="14.8751944392">
		<tag k="name" v="Langmarka" />
		<tag k="place" v="locality" />
		<tag k="ssr:stedsnr" v="867564" />
	</node>
	<node id="-196913" lat="68.6440666708" lon="14.8332666766">
		<tag k="name" v="Stormyra" />
>>>>>>> e1d4bc35ff8a6074a6f2e91616a996b547c36f15
		<tag k="natural" v="wetland" />
		<tag k="ssr:stedsnr" v="138061" />
	</node>
<<<<<<< HEAD
	<node lat="68.56052499953147" lon="15.240197229515342" id="-11876">
		<tag k="name" v="Svartvassmyran" />
		<tag k="natural" v="wetland" />
		<tag k="ssr:stedsnr" v="138123" />
	</node>
	<node lat="68.42099444170458" lon="14.603030547932768" id="-11884">
		<tag k="alt_name" v="Breidmyra" />
		<tag k="name" v="Breimyra" />
=======
	<node id="-197597" lat="68.5743055532" lon="15.2666611193">
		<tag k="name" v="Kvitsteinen" />
		<tag k="natural" v="stone" />
		<tag k="ssr:stedsnr" v="337922" />
	</node>
	<node id="-195548" lat="68.464072223" lon="15.1475361107">
		<tag k="name" v="Juvikmyra" />
		<tag k="natural" v="wetland" />
		<tag k="ssr:stedsnr" v="40975" />
	</node>
	<node id="-195878" lat="68.4387388886" lon="14.9063444509">
		<tag k="alt_name" v="Golsteinan" />
		<tag k="name" v="Golsteinen" />
		<tag k="natural" v="stone" />
		<tag k="ssr:stedsnr" v="441361" />
	</node>
	<node id="-198435" lat="68.5498583306" lon="14.9307166638">
		<tag k="name" v="Trolldalsmyra" />
>>>>>>> e1d4bc35ff8a6074a6f2e91616a996b547c36f15
		<tag k="natural" v="wetland" />
		<tag k="ssr:stedsnr" v="138386" />
	</node>
<<<<<<< HEAD
	<node lat="68.40207500273641" lon="14.587199993079471" id="-11890">
		<tag k="name" v="Kviskeruran" />
		<tag k="natural" v="scree" />
		<tag k="ssr:stedsnr" v="138330" />
	</node>
	<node lat="68.51184999765711" lon="15.245941667517036" id="-11938">
		<tag k="name" v="Resdikmyran" />
=======
	<node id="-198434" lat="68.6205944437" lon="15.1184972332">
		<tag k="name" v="Hallarsteinen" />
		<tag k="natural" v="stone" />
		<tag k="ssr:stedsnr" v="822796" />
	</node>
	<node id="-196895" lat="68.5239666669" lon="14.873169442">
		<tag k="name" v="Laurasletta" />
>>>>>>> e1d4bc35ff8a6074a6f2e91616a996b547c36f15
		<tag k="natural" v="wetland" />
		<tag k="ssr:stedsnr" v="161066" />
	</node>
<<<<<<< HEAD
	<node lat="68.42349166815919" lon="14.620388891305579" id="-11939">
		<tag k="name" v="Elvjorda" />
		<tag k="place" v="locality" />
		<tag k="ssr:stedsnr" v="161072" />
	</node>
	<node lat="68.51022778211234" lon="14.817916667391579" id="-11956">
		<tag k="name" v="Svartskogen" />
		<tag k="place" v="locality" />
		<tag k="ssr:stedsnr" v="161310" />
	</node>
	<node lat="68.56946944573451" lon="14.828008335591226" id="-11958">
		<tag k="name" v="Springsteinen" />
		<tag k="natural" v="stone" />
		<tag k="ssr:stedsnr" v="161315" />
	</node>
	<node lat="68.56965555876623" lon="14.827319445187598" id="-11959">
		<tag k="name" v="Refsjorda" />
=======
	<node id="-196892" lat="68.571569442" lon="14.8044222166">
		<tag k="name" v="Karlslåtta" />
>>>>>>> e1d4bc35ff8a6074a6f2e91616a996b547c36f15
		<tag k="place" v="locality" />
		<tag k="ssr:stedsnr" v="161316" />
	</node>
<<<<<<< HEAD
	<node lat="68.63891944317994" lon="14.80058611295928" id="-11971">
		<tag k="name" v="Skagmyran" />
=======
	<node id="-196891" lat="68.4142444458" lon="14.555266672">
		<tag k="name" v="Øltynnmyra" />
>>>>>>> e1d4bc35ff8a6074a6f2e91616a996b547c36f15
		<tag k="natural" v="wetland" />
		<tag k="ssr:stedsnr" v="163743" />
	</node>
<<<<<<< HEAD
	<node lat="68.64449722224057" lon="14.875933325193097" id="-11982">
		<tag k="name" v="Vassbakkmyra" />
		<tag k="natural" v="wetland" />
		<tag k="ssr:stedsnr" v="176670" />
	</node>
	<node lat="68.60063611473561" lon="14.977894438163833" id="-12058">
		<tag k="name" v="Matskapmyra" />
		<tag k="natural" v="wetland" />
		<tag k="ssr:stedsnr" v="216200" />
	</node>
	<node lat="68.56574721784332" lon="15.273725000131662" id="-12073">
=======
	<node id="-197487" lat="68.5630694481" lon="15.2119666755">
		<tag k="name" v="Mølnbogen" />
		<tag k="place" v="locality" />
		<tag k="ssr:stedsnr" v="216298" />
	</node>
	<node id="-197764" lat="68.5487166643" lon="14.8390444455">
		<tag k="name" v="Jakobsurda" />
		<tag k="natural" v="scree" />
		<tag k="ssr:stedsnr" v="382897" />
	</node>
	<node id="-195861" lat="68.5657472178" lon="15.2737250001">
>>>>>>> e1d4bc35ff8a6074a6f2e91616a996b547c36f15
		<tag k="name" v="Ressteinen" />
		<tag k="natural" v="stone" />
		<tag k="ssr:stedsnr" v="216912" />
	</node>
<<<<<<< HEAD
	<node lat="68.41061666918111" lon="15.167450002914851" id="-12086">
		<tag k="name" v="Ramnbergura" />
		<tag k="natural" v="scree" />
		<tag k="ssr:stedsnr" v="222999" />
	</node>
	<node lat="68.61992500223755" lon="14.865377769363954" id="-12098">
		<tag k="name" v="Kruksteinan" />
=======
	<node id="-196884" lat="68.4354638933" lon="14.6527111054">
		<tag k="name" v="Haksteinen" />
>>>>>>> e1d4bc35ff8a6074a6f2e91616a996b547c36f15
		<tag k="natural" v="stone" />
		<tag k="ssr:stedsnr" v="224276" />
	</node>
<<<<<<< HEAD
	<node lat="68.62693332950113" lon="14.871480547390366" id="-12104">
		<tag k="name" v="Limyra" />
		<tag k="natural" v="wetland" />
		<tag k="ssr:stedsnr" v="224673" />
	</node>
	<node lat="68.65561388997581" lon="14.86710834006394" id="-12108">
		<tag k="name" v="Kilmyra" />
		<tag k="natural" v="wetland" />
		<tag k="ssr:stedsnr" v="224682" />
	</node>
	<node lat="68.52907777819155" lon="15.297280559556516" id="-12121">
		<tag k="name" v="Blåsteinen" />
		<tag k="natural" v="stone" />
		<tag k="ssr:stedsnr" v="277846" />
	</node>
	<node lat="68.63060277592227" lon="15.17035555174142" id="-12123">
		<tag k="name" v="Tortenbakkmyra" />
=======
	<node id="-195859" lat="68.5389305547" lon="15.2923722189">
		<tag k="name" v="Rundura" />
		<tag k="natural" v="scree" />
		<tag k="ssr:stedsnr" v="216832" />
	</node>
	<node id="-196515" lat="68.4322527808" lon="14.9856416578">
		<tag k="name" v="Selskogan" />
		<tag k="place" v="locality" />
		<tag k="ssr:stedsnr" v="722622" />
	</node>
	<node id="-197392" lat="68.6444972222" lon="14.8759333252">
		<tag k="name" v="Vassbakkmyra" />
>>>>>>> e1d4bc35ff8a6074a6f2e91616a996b547c36f15
		<tag k="natural" v="wetland" />
		<tag k="ssr:stedsnr" v="278938" />
	</node>
<<<<<<< HEAD
	<node lat="68.46309444631788" lon="15.125391656843485" id="-12143">
		<tag k="name" v="Kasperplassen" />
		<tag k="place" v="locality" />
		<tag k="ssr:stedsnr" v="283983" />
	</node>
	<node lat="68.41061388948016" lon="15.180308345192579" id="-12149">
		<tag k="name" v="Lomstjønnmyra" />
=======
	<node id="-196877" lat="68.5741111154" lon="14.6557972247">
		<tag k="landuse" v="meadow" />
		<tag k="name" v="Vassjorda" />
		<tag k="ssr:stedsnr" v="950044" />
	</node>
	<node id="-195852" lat="68.6492833365" lon="14.9120860998">
		<tag k="name" v="Høljan" />
>>>>>>> e1d4bc35ff8a6074a6f2e91616a996b547c36f15
		<tag k="natural" v="wetland" />
		<tag k="ssr:stedsnr" v="283933" />
	</node>
<<<<<<< HEAD
	<node lat="68.55189444042949" lon="14.630013881476557" id="-12162">
		<tag k="name" v="Lesteinan" />
		<tag k="natural" v="stone" />
		<tag k="ssr:stedsnr" v="298432" />
	</node>
	<node lat="68.44388611042305" lon="15.001852782761112" id="-12166">
		<tag k="name" v="Langteigen" />
		<tag k="place" v="locality" />
		<tag k="ssr:stedsnr" v="298559" />
	</node>
	<node lat="68.44873611244729" lon="15.030588880429278" id="-12168">
=======
	<node id="-195850" lat="68.4487361124" lon="15.0305888804">
>>>>>>> e1d4bc35ff8a6074a6f2e91616a996b547c36f15
		<tag k="name" v="Slåtta" />
		<tag k="place" v="locality" />
		<tag k="ssr:stedsnr" v="298569" />
	</node>
<<<<<<< HEAD
	<node lat="68.64928333647227" lon="14.91208609983159" id="-12169">
		<tag k="name" v="Høljan" />
		<tag k="natural" v="wetland" />
		<tag k="ssr:stedsnr" v="298665" />
	</node>
	<node lat="68.4964777745038" lon="15.338447209642728" id="-12173">
		<tag k="name" v="Grunnvikmyran" />
=======
	<node id="-195848" lat="68.4438861104" lon="15.0018527828">
		<tag k="name" v="Langteigen" />
		<tag k="place" v="locality" />
		<tag k="ssr:stedsnr" v="298559" />
	</node>
	<node id="-198407" lat="68.5188305538" lon="14.8188750037">
		<tag k="name" v="Stengmyra" />
>>>>>>> e1d4bc35ff8a6074a6f2e91616a996b547c36f15
		<tag k="natural" v="wetland" />
		<tag k="ssr:stedsnr" v="302051" />
	</node>
<<<<<<< HEAD
	<node lat="68.6358222244619" lon="15.15373610174826" id="-12178">
		<tag k="alt_name" v="Stillelvmyra" />
		<tag k="name" v="Stillemyra" />
=======
	<node id="-196870" lat="68.3654472215" lon="15.1187527741">
		<tag k="name" v="Kvannkjosmyran" />
>>>>>>> e1d4bc35ff8a6074a6f2e91616a996b547c36f15
		<tag k="natural" v="wetland" />
		<tag k="ssr:stedsnr" v="320251" />
	</node>
<<<<<<< HEAD
	<node lat="68.40123055461163" lon="15.11112499227524" id="-12198">
		<tag k="name" v="Raftøra" />
		<tag k="place" v="locality" />
		<tag k="ssr:stedsnr" v="320856" />
	</node>
	<node lat="68.52191944343471" lon="14.712405562264735" id="-12225">
		<tag k="name" v="Sandgåtta" />
		<tag k="place" v="locality" />
		<tag k="ssr:stedsnr" v="336252" />
	</node>
	<node lat="68.51077500252349" lon="14.788122233951038" id="-12230">
		<tag k="name" v="Trastmarka" />
		<tag k="place" v="locality" />
		<tag k="ssr:stedsnr" v="337662" />
	</node>
	<node lat="68.57460833549288" lon="14.640924999947872" id="-12247">
		<tag k="name" v="Jerpvollmyran" />
		<tag k="natural" v="wetland" />
		<tag k="ssr:stedsnr" v="342035" />
	</node>
	<node lat="68.58531389364583" lon="14.694033324090226" id="-12249">
		<tag k="name" v="Plogsteinen" />
		<tag k="natural" v="stone" />
		<tag k="ssr:stedsnr" v="342072" />
	</node>
	<node lat="68.56941111016422" lon="14.741755561869448" id="-12250">
		<tag k="name" v="Storura" />
		<tag k="natural" v="scree" />
		<tag k="ssr:stedsnr" v="343019" />
	</node>
	<node lat="68.4207666626254" lon="14.583205551503097" id="-12254">
		<tag k="name" v="Mersteinen" />
		<tag k="natural" v="stone" />
		<tag k="ssr:stedsnr" v="343160" />
	</node>
	<node lat="68.65560278078426" lon="14.950147225132934" id="-12261">
		<tag k="name" v="Morfar" />
		<tag k="natural" v="scree" />
		<tag k="ssr:stedsnr" v="343549" />
	</node>
	<node lat="68.4614194472498" lon="15.181886103137328" id="-12263">
		<tag k="name" v="Stormyra" />
=======
	<node id="-197381" lat="68.6389194432" lon="14.800586113">
		<tag k="name" v="Skagmyran" />
		<tag k="natural" v="wetland" />
		<tag k="ssr:stedsnr" v="163743" />
	</node>
	<node id="-197026" lat="68.6219666655" lon="15.1176277761">
		<tag k="name" v="Lamsteinan" />
		<tag k="natural" v="stone" />
		<tag k="ssr:stedsnr" v="33795" />
	</node>
	<node id="-195843" lat="68.5518944404" lon="14.6300138815">
		<tag k="name" v="Lesteinan" />
		<tag k="natural" v="stone" />
		<tag k="ssr:stedsnr" v="298432" />
	</node>
	<node id="-195842" lat="68.5504222215" lon="14.6423638999">
		<tag k="name" v="Plogsteinan" />
		<tag k="natural" v="stone" />
		<tag k="ssr:stedsnr" v="298403" />
	</node>
	<node id="-196865" lat="68.5737472231" lon="15.2524500005">
		<tag k="name" v="Finnkjerka" />
		<tag k="natural" v="stone" />
		<tag k="ssr:stedsnr" v="944920" />
	</node>
	<node id="-197886" lat="68.4608805527" lon="15.2142694355">
		<tag k="name" v="Skjåmarka" />
		<tag k="place" v="locality" />
		<tag k="ssr:stedsnr" v="525862" />
	</node>
	<node id="-198397" lat="68.5689694449" lon="14.7176027823">
		<tag k="name" v="Fabrikkmyran" />
>>>>>>> e1d4bc35ff8a6074a6f2e91616a996b547c36f15
		<tag k="natural" v="wetland" />
		<tag k="ssr:stedsnr" v="343895" />
	</node>
<<<<<<< HEAD
	<node lat="68.64934722006335" lon="14.933375009945628" id="-12272">
		<tag k="name" v="Høgmyran" />
=======
	<node id="-197880" lat="68.5255750021" lon="14.8455250067">
		<tag k="name" v="Vardheimyra" />
>>>>>>> e1d4bc35ff8a6074a6f2e91616a996b547c36f15
		<tag k="natural" v="wetland" />
		<tag k="ssr:stedsnr" v="358580" />
	</node>
<<<<<<< HEAD
	<node lat="68.6472583328842" lon="14.939461119598231" id="-12273">
		<tag k="name" v="Lillejorda" />
=======
	<node id="-197879" lat="68.567402778" lon="14.7996749943">
		<tag k="name" v="Småstykkan" />
>>>>>>> e1d4bc35ff8a6074a6f2e91616a996b547c36f15
		<tag k="place" v="locality" />
		<tag k="ssr:stedsnr" v="358584" />
	</node>
<<<<<<< HEAD
	<node lat="68.43461944764012" lon="14.982861109431678" id="-12276">
		<tag k="name" v="Meraftesmyra" />
		<tag k="natural" v="wetland" />
		<tag k="ssr:stedsnr" v="358628" />
	</node>
	<node lat="68.45941944127954" lon="15.05644998954164" id="-12278">
		<tag k="name" v="Kovsteinen" />
=======
	<node id="-197874" lat="68.5785500032" lon="14.7026388862">
		<tag k="name" v="Plogsteinen" />
>>>>>>> e1d4bc35ff8a6074a6f2e91616a996b547c36f15
		<tag k="natural" v="stone" />
		<tag k="ssr:stedsnr" v="358632" />
	</node>
<<<<<<< HEAD
	<node lat="68.46089167067926" lon="15.052449993191576" id="-12279">
		<tag k="name" v="Ura" />
		<tag k="natural" v="scree" />
		<tag k="ssr:stedsnr" v="358634" />
	</node>
	<node lat="68.42957222083398" lon="14.892805555441978" id="-12284">
		<tag k="name" v="Sælbotsura" />
		<tag k="natural" v="scree" />
		<tag k="ssr:stedsnr" v="359382" />
	</node>
	<node lat="68.37844999756507" lon="14.587144435395876" id="-12328">
		<tag k="name" v="Mølnhaugmyran" />
=======
	<node id="-197133" lat="68.5348194466" lon="15.2729250034">
		<tag k="name" v="Hennesmyran" />
>>>>>>> e1d4bc35ff8a6074a6f2e91616a996b547c36f15
		<tag k="natural" v="wetland" />
		<tag k="ssr:stedsnr" v="381452" />
	</node>
<<<<<<< HEAD
	<node lat="68.54871666426753" lon="14.839044445457723" id="-12360">
		<tag k="name" v="Jakobsurda" />
		<tag k="natural" v="scree" />
		<tag k="ssr:stedsnr" v="382897" />
	</node>
	<node lat="68.52197222060228" lon="14.853575006602147" id="-12385">
		<tag k="name" v="Finnsteinen" />
		<tag k="natural" v="stone" />
		<tag k="ssr:stedsnr" v="398568" />
	</node>
	<node lat="68.53367222577783" lon="15.271347219104609" id="-12388">
		<tag k="name" v="Storkvilsteinen" />
		<tag k="natural" v="stone" />
		<tag k="ssr:stedsnr" v="398838" />
	</node>
	<node lat="68.57760833039264" lon="14.777994455259655" id="-12393">
		<tag k="landuse" v="meadow" />
		<tag k="name" v="Danieljorda" />
		<tag k="ssr:stedsnr" v="403026" />
	</node>
	<node lat="68.42238889195856" lon="14.593897211710631" id="-12401">
		<tag k="name" v="Høljen" />
		<tag k="natural" v="stone" />
		<tag k="ssr:stedsnr" v="404166" />
	</node>
	<node lat="68.46134999613626" lon="15.094699994938535" id="-12418">
		<tag k="name" v="Stabbmyra" />
=======
	<node id="-196842" lat="68.4125583309" lon="14.5686222176">
		<tag k="name" v="Ulykkesmyra" />
		<tag k="natural" v="wetland" />
		<tag k="ssr:stedsnr" v="936641" />
	</node>
	<node id="-198439" lat="68.5363138883" lon="14.9573361004">
		<tag k="name" v="Grønnsletta" />
		<tag k="place" v="locality" />
		<tag k="ssr:stedsnr" v="823399" />
	</node>
	<node id="-197862" lat="68.5356111101" lon="15.2183444525">
		<tag k="name" v="Kjelddiket" />
		<tag k="natural" v="wetland" />
		<tag k="ssr:stedsnr" v="520258" />
	</node>
	<node id="-196835" lat="68.5170666632" lon="14.8302722293">
		<tag k="name" v="Goalåsmyra" />
>>>>>>> e1d4bc35ff8a6074a6f2e91616a996b547c36f15
		<tag k="natural" v="wetland" />
		<tag k="ssr:stedsnr" v="404974" />
	</node>
<<<<<<< HEAD
	<node lat="68.44619722366879" lon="14.940338878295192" id="-12426">
		<tag k="name" v="Stråmyra" />
=======
	<node id="-195809" lat="68.4614194472" lon="15.1818861031">
		<tag k="name" v="Stormyra" />
>>>>>>> e1d4bc35ff8a6074a6f2e91616a996b547c36f15
		<tag k="natural" v="wetland" />
		<tag k="ssr:stedsnr" v="419577" />
	</node>
<<<<<<< HEAD
	<node lat="68.44608889112263" lon="14.965949997147991" id="-12427">
		<tag k="name" v="Skjellet" />
		<tag k="natural" v="stone" />
		<tag k="ssr:stedsnr" v="419583" />
	</node>
	<node lat="68.43873888858116" lon="14.90634445085815" id="-12445">
		<tag k="alt_name" v="Golsteinan" />
		<tag k="name" v="Golsteinen" />
		<tag k="natural" v="stone" />
		<tag k="ssr:stedsnr" v="441361" />
	</node>
	<node lat="68.41419722305928" lon="14.571244456311383" id="-12502">
		<tag k="name" v="Rabben" />
		<tag k="place" v="locality" />
		<tag k="ssr:stedsnr" v="502251" />
	</node>
	<node lat="68.4260305594026" lon="14.810380558155035" id="-12509">
		<tag k="name" v="Myran" />
		<tag k="natural" v="wetland" />
		<tag k="ssr:stedsnr" v="502340" />
	</node>
	<node lat="68.52442500442392" lon="14.792713880059383" id="-12541">
		<tag k="alt_name" v="Kvanntolimyran" />
		<tag k="name" v="Kvanntolimyra" />
=======
	<node id="-196506" lat="68.4554305588" lon="15.0473388962">
		<tag k="name" v="Naustura" />
		<tag k="natural" v="scree" />
		<tag k="ssr:stedsnr" v="601580" />
	</node>
	<node id="-197536" lat="68.4012305546" lon="15.1111249923">
		<tag k="name" v="Raftøra" />
		<tag k="place" v="locality" />
		<tag k="ssr:stedsnr" v="320856" />
	</node>
	<node id="-197334" lat="68.4969277803" lon="14.7314833368">
		<tag k="name" v="Stormyran" />
		<tag k="natural" v="wetland" />
		<tag k="ssr:stedsnr" v="155715" />
	</node>
	<node id="-197330" lat="68.5345499955" lon="14.9586694488">
		<tag k="name" v="Stormyra" />
>>>>>>> e1d4bc35ff8a6074a6f2e91616a996b547c36f15
		<tag k="natural" v="wetland" />
		<tag k="ssr:stedsnr" v="503933" />
	</node>
<<<<<<< HEAD
	<node lat="68.60397500105324" lon="14.999672227772544" id="-12552">
		<tag k="name" v="Lian" />
		<tag k="natural" v="scree" />
		<tag k="ssr:stedsnr" v="519245" />
	</node>
	<node lat="68.61446666439564" lon="15.122419450717045" id="-12558">
		<tag k="name" v="Stormyra" />
		<tag k="natural" v="wetland" />
		<tag k="ssr:stedsnr" v="519791" />
	</node>
	<node lat="68.53561111013364" lon="15.218344452467699" id="-12562">
		<tag k="name" v="Kjelddiket" />
=======
	<node id="-195793" lat="68.4630944463" lon="15.1253916568">
		<tag k="name" v="Kasperplassen" />
		<tag k="place" v="locality" />
		<tag k="ssr:stedsnr" v="283983" />
	</node>
	<node id="-195790" lat="68.4106138895" lon="15.1803083452">
		<tag k="name" v="Lomstjønnmyra" />
		<tag k="natural" v="wetland" />
		<tag k="ssr:stedsnr" v="283933" />
	</node>
	<node id="-197835" lat="68.4460888911" lon="14.9659499971">
		<tag k="name" v="Skjellet" />
		<tag k="natural" v="stone" />
		<tag k="ssr:stedsnr" v="419583" />
	</node>
	<node id="-197834" lat="68.4461972237" lon="14.9403388783">
		<tag k="name" v="Stråmyra" />
>>>>>>> e1d4bc35ff8a6074a6f2e91616a996b547c36f15
		<tag k="natural" v="wetland" />
		<tag k="ssr:stedsnr" v="520258" />
	</node>
<<<<<<< HEAD
	<node lat="68.57855000322088" lon="14.702638886245946" id="-12571">
		<tag k="name" v="Plogsteinen" />
=======
	<node id="-198342" lat="68.3887972177" lon="14.7251972289">
		<tag k="name" v="Bukkesteinen" />
>>>>>>> e1d4bc35ff8a6074a6f2e91616a996b547c36f15
		<tag k="natural" v="stone" />
		<tag k="ssr:stedsnr" v="525049" />
	</node>
<<<<<<< HEAD
	<node lat="68.56740277795333" lon="14.799674994343544" id="-12577">
		<tag k="name" v="Småstykkan" />
		<tag k="place" v="locality" />
		<tag k="ssr:stedsnr" v="525321" />
	</node>
	<node lat="68.52557500214989" lon="14.8455250066636" id="-12578">
		<tag k="name" v="Vardheimyra" />
=======
	<node id="-198340" lat="68.5666500016" lon="15.3257694492">
		<tag k="name" v="Leirdammen" />
>>>>>>> e1d4bc35ff8a6074a6f2e91616a996b547c36f15
		<tag k="natural" v="wetland" />
		<tag k="ssr:stedsnr" v="525329" />
	</node>
<<<<<<< HEAD
	<node lat="68.47486388630884" lon="15.296241657833676" id="-12581">
		<tag k="name" v="Myran" />
		<tag k="natural" v="wetland" />
		<tag k="ssr:stedsnr" v="526866" />
	</node>
	<node lat="68.61750555671681" lon="14.958474992226188" id="-12670">
		<tag k="name" v="Slåttene" />
=======
	<node id="-197579" lat="68.6010583299" lon="14.8803861103">
		<tag k="name" v="Tjønnesskogen" />
		<tag k="place" v="locality" />
		<tag k="ssr:stedsnr" v="337143" />
	</node>
	<node id="-197578" lat="68.5107750025" lon="14.788122234">
		<tag k="name" v="Trastmarka" />
		<tag k="place" v="locality" />
		<tag k="ssr:stedsnr" v="337662" />
	</node>
	<node id="-198328" lat="68.4069027776" lon="15.1417111155">
		<tag k="name" v="Trettstykket" />
>>>>>>> e1d4bc35ff8a6074a6f2e91616a996b547c36f15
		<tag k="place" v="locality" />
		<tag k="ssr:stedsnr" v="563617" />
	</node>
<<<<<<< HEAD
	<node lat="68.41904166946004" lon="14.623483343911294" id="-12711">
		<tag k="name" v="Gråsteinen" />
		<tag k="natural" v="stone" />
		<tag k="ssr:stedsnr" v="585081" />
	</node>
	<node lat="68.64145833112465" lon="14.816975000298806" id="-12731">
		<tag k="name" v="Foldmyra" />
=======
	<node id="-196790" lat="68.3943916662" lon="15.1493472298">
		<tag k="name" v="Dalmyran" />
>>>>>>> e1d4bc35ff8a6074a6f2e91616a996b547c36f15
		<tag k="natural" v="wetland" />
		<tag k="ssr:stedsnr" v="600634" />
	</node>
<<<<<<< HEAD
	<node lat="68.45543055878481" lon="15.047338896229887" id="-12739">
		<tag k="name" v="Naustura" />
		<tag k="natural" v="scree" />
		<tag k="ssr:stedsnr" v="601580" />
	</node>
	<node lat="68.45301944392807" lon="15.072586121652101" id="-12740">
		<tag k="name" v="Borkhellaren" />
		<tag k="natural" v="stone" />
		<tag k="ssr:stedsnr" v="601590" />
	</node>
	<node lat="68.56879722615386" lon="15.21679166749872" id="-12762">
		<tag k="name" v="Kvitnesmyra" />
		<tag k="natural" v="wetland" />
		<tag k="ssr:stedsnr" v="624079" />
	</node>
	<node lat="68.64235833121442" lon="14.859483336018155" id="-12777">
		<tag k="name" v="Kvitskredmyra" />
=======
	<node id="-195757" lat="68.6647333326" lon="14.948327771">
		<tag k="name" v="Langmyra" />
		<tag k="natural" v="wetland" />
		<tag k="ssr:stedsnr" v="163717" />
	</node>
	<node id="-197804" lat="68.5336722258" lon="15.2713472191">
		<tag k="name" v="Storkvilsteinen" />
		<tag k="natural" v="stone" />
		<tag k="ssr:stedsnr" v="398838" />
	</node>
	<node id="-197289" lat="68.3775944423" lon="14.6078777783">
		<tag k="name" v="Ånesmyran" />
>>>>>>> e1d4bc35ff8a6074a6f2e91616a996b547c36f15
		<tag k="natural" v="wetland" />
		<tag k="ssr:stedsnr" v="624554" />
	</node>
<<<<<<< HEAD
	<node lat="68.59197500315564" lon="14.979280564699405" id="-12795">
		<tag k="name" v="Domsteinan" />
=======
	<node id="-197800" lat="68.5219722206" lon="14.8535750066">
		<tag k="name" v="Finnsteinen" />
>>>>>>> e1d4bc35ff8a6074a6f2e91616a996b547c36f15
		<tag k="natural" v="stone" />
		<tag k="ssr:stedsnr" v="640249" />
	</node>
<<<<<<< HEAD
	<node lat="68.50581111207548" lon="14.806949988293885" id="-12798">
		<tag k="name" v="Grishusmyra" />
		<tag k="natural" v="wetland" />
		<tag k="ssr:stedsnr" v="640659" />
	</node>
	<node lat="68.50492500164317" lon="14.742702777515651" id="-12802">
		<tag k="name" v="Vollan" />
		<tag k="place" v="locality" />
		<tag k="ssr:stedsnr" v="640719" />
	</node>
	<node lat="68.4466499962377" lon="15.051002771972762" id="-12840">
		<tag k="name" v="Brennmyra" />
=======
	<node id="-197286" lat="68.4209944417" lon="14.6030305479">
		<tag k="alt_name" v="Breidmyra" />
		<tag k="name" v="Breimyra" />
>>>>>>> e1d4bc35ff8a6074a6f2e91616a996b547c36f15
		<tag k="natural" v="wetland" />
		<tag k="ssr:stedsnr" v="661562" />
	</node>
<<<<<<< HEAD
	<node lat="68.55356111365377" lon="14.629349988413127" id="-12852">
		<tag k="name" v="Kleivsteinan" />
		<tag k="natural" v="stone" />
		<tag k="ssr:stedsnr" v="662464" />
	</node>
	<node lat="68.40768055905014" lon="14.701447220076759" id="-12854">
		<tag k="name" v="Orklaven" />
		<tag k="place" v="locality" />
		<tag k="ssr:stedsnr" v="666162" />
	</node>
	<node lat="68.43225278077558" lon="14.985641657785154" id="-12858">
		<tag k="name" v="Selskogan" />
=======
	<node id="-196375" lat="68.529369447" lon="14.8690499935">
		<tag k="name" v="Flatåsmyra" />
		<tag k="natural" v="wetland" />
		<tag k="ssr:stedsnr" v="685991" />
	</node>
	<node id="-195746" lat="68.5696555588" lon="14.8273194452">
		<tag k="name" v="Refsjorda" />
		<tag k="place" v="locality" />
		<tag k="ssr:stedsnr" v="161316" />
	</node>
	<node id="-195745" lat="68.5694694457" lon="14.8280083356">
		<tag k="name" v="Springsteinen" />
		<tag k="natural" v="stone" />
		<tag k="ssr:stedsnr" v="161315" />
	</node>
	<node id="-195743" lat="68.5102277821" lon="14.8179166674">
		<tag k="name" v="Svartskogen" />
>>>>>>> e1d4bc35ff8a6074a6f2e91616a996b547c36f15
		<tag k="place" v="locality" />
		<tag k="ssr:stedsnr" v="722622" />
	</node>
<<<<<<< HEAD
	<node lat="68.55880833331412" lon="14.65004998998029" id="-12864">
		<tag k="name" v="Storura" />
		<tag k="natural" v="scree" />
		<tag k="ssr:stedsnr" v="723462" />
	</node>
	<node lat="68.44694999893993" lon="14.951747214325193" id="-12878">
		<tag k="name" v="Hamnmyra" />
=======
	<node id="-196765" lat="68.4215583343" lon="14.5802861036">
		<tag k="name" v="Myran" />
		<tag k="natural" v="wetland" />
		<tag k="ssr:stedsnr" v="927383" />
	</node>
	<node id="-197890" lat="68.4748638863" lon="15.2962416578">
		<tag k="name" v="Myran" />
		<tag k="natural" v="wetland" />
		<tag k="ssr:stedsnr" v="526866" />
	</node>
	<node id="-197787" lat="68.623711111" lon="15.1327305565">
		<tag k="name" v="Gårdsfjellmyra" />
>>>>>>> e1d4bc35ff8a6074a6f2e91616a996b547c36f15
		<tag k="natural" v="wetland" />
		<tag k="ssr:stedsnr" v="745349" />
	</node>
<<<<<<< HEAD
	<node lat="68.43487777916496" lon="14.665130561942801" id="-12880">
		<tag k="name" v="Bonsteinen" />
		<tag k="natural" v="stone" />
		<tag k="ssr:stedsnr" v="745359" />
	</node>
	<node lat="68.60216389201186" lon="14.982558339073547" id="-12910">
		<tag k="name" v="Hestbergmyra" />
=======
	<node id="-195738" lat="68.4234916682" lon="14.6203888913">
		<tag k="name" v="Elvjorda" />
		<tag k="place" v="locality" />
		<tag k="ssr:stedsnr" v="161072" />
	</node>
	<node id="-195737" lat="68.5118499977" lon="15.2459416675">
		<tag k="name" v="Resdikmyran" />
>>>>>>> e1d4bc35ff8a6074a6f2e91616a996b547c36f15
		<tag k="natural" v="wetland" />
		<tag k="ssr:stedsnr" v="761268" />
	</node>
<<<<<<< HEAD
	<node lat="68.4326527733911" lon="14.673838896537461" id="-12920">
		<tag k="name" v="Nettviksteinen" />
		<tag k="natural" v="stone" />
		<tag k="ssr:stedsnr" v="767056" />
	</node>
	<node lat="68.42352222612482" lon="14.630452767498241" id="-12922">
		<tag k="name" v="Grøtterømyra" />
=======
	<node id="-196245" lat="68.5604416653" lon="14.8426138814">
		<tag k="name" v="Skoningsteinan" />
		<tag k="natural" v="scree" />
		<tag k="ssr:stedsnr" v="466320" />
	</node>
	<node id="-197268" lat="68.6034944471" lon="15.0789166601">
		<tag k="name" v="Skjellmyra" />
>>>>>>> e1d4bc35ff8a6074a6f2e91616a996b547c36f15
		<tag k="natural" v="wetland" />
		<tag k="ssr:stedsnr" v="767065" />
	</node>
<<<<<<< HEAD
	<node lat="68.42769444377551" lon="14.708227774233142" id="-12923">
		<tag k="name" v="Nystykkjan" />
		<tag k="place" v="locality" />
		<tag k="ssr:stedsnr" v="767067" />
	</node>
	<node lat="68.43161389216436" lon="14.747322228987999" id="-12926">
		<tag k="name" v="Jonsteinmyra" />
=======
	<node id="-197486" lat="68.6006361147" lon="14.9778944382">
		<tag k="name" v="Matskapmyra" />
		<tag k="natural" v="wetland" />
		<tag k="ssr:stedsnr" v="216200" />
	</node>
	<node id="-195730" lat="68.6306027759" lon="15.1703555517">
		<tag k="name" v="Tortenbakkmyra" />
>>>>>>> e1d4bc35ff8a6074a6f2e91616a996b547c36f15
		<tag k="natural" v="wetland" />
		<tag k="ssr:stedsnr" v="767073" />
	</node>
<<<<<<< HEAD
	<node lat="68.4069027775903" lon="15.141711115497076" id="-12960">
		<tag k="name" v="Trettstykket" />
=======
	<node id="-197261" lat="68.4095750014" lon="14.7018833238">
		<tag k="name" v="Øra" />
>>>>>>> e1d4bc35ff8a6074a6f2e91616a996b547c36f15
		<tag k="place" v="locality" />
		<tag k="ssr:stedsnr" v="784026" />
	</node>
<<<<<<< HEAD
	<node lat="68.38879721769324" lon="14.725197228941182" id="-12976">
		<tag k="name" v="Bukkesteinen" />
		<tag k="natural" v="stone" />
		<tag k="ssr:stedsnr" v="787145" />
	</node>
	<node lat="68.53631388833766" lon="14.957336100429629" id="-12977">
		<tag k="name" v="Grønnsletta" />
		<tag k="place" v="locality" />
		<tag k="ssr:stedsnr" v="823399" />
	</node>
	<node lat="68.5689694449367" lon="14.717602782268235" id="-13040">
		<tag k="name" v="Fabrikkmyran" />
		<tag k="natural" v="wetland" />
		<tag k="ssr:stedsnr" v="806920" />
	</node>
	<node lat="68.51883055377671" lon="14.818875003746921" id="-13048">
		<tag k="name" v="Stengmyra" />
		<tag k="natural" v="wetland" />
		<tag k="ssr:stedsnr" v="806963" />
	</node>
	<node lat="68.60359999822755" lon="14.976458328591802" id="-13068">
		<tag k="name" v="Ragmyra" />
		<tag k="natural" v="wetland" />
		<tag k="ssr:stedsnr" v="822256" />
	</node>
	<node lat="68.6205944437121" lon="15.118497233153336" id="-13075">
		<tag k="name" v="Hallarsteinen" />
=======
	<node id="-196234" lat="68.5080611154" lon="14.782616667">
		<tag k="name" v="Ølaslåtten" />
		<tag k="place" v="locality" />
		<tag k="ssr:stedsnr" v="465302" />
	</node>
	<node id="-198423" lat="68.6035999982" lon="14.9764583286">
		<tag k="name" v="Ragmyra" />
		<tag k="natural" v="wetland" />
		<tag k="ssr:stedsnr" v="822256" />
	</node>
	<node id="-195692" lat="68.4311000002" lon="14.8953111152">
		<tag k="name" v="Troppsteinen" />
		<tag k="natural" v="stone" />
		<tag k="ssr:stedsnr" v="116329" />
	</node>
	<node id="-195716" lat="68.5341166675" lon="15.1997472155">
		<tag k="name" v="Rogsteinan" />
		<tag k="natural" v="stone" />
		<tag k="ssr:stedsnr" v="277221" />
	</node>
	<node id="-197251" lat="68.6350638911" lon="14.8261027861">
		<tag k="name" v="Malarsteinen" />
		<tag k="natural" v="stone" />
		<tag k="ssr:stedsnr" v="116675" />
	</node>
	<node id="-196226" lat="68.4076805591" lon="14.7014472201">
		<tag k="name" v="Orklaven" />
		<tag k="place" v="locality" />
		<tag k="ssr:stedsnr" v="666162" />
	</node>
	<node id="-198272" lat="68.6239027758" lon="15.118308327">
		<tag k="name" v="Aftersteinen" />
		<tag k="natural" v="stone" />
		<tag k="ssr:stedsnr" v="761808" />
	</node>
	<node id="-197223" lat="68.5711694424" lon="14.824513886">
		<tag k="name" v="Skjulsteinan" />
		<tag k="natural" v="stone" />
		<tag k="ssr:stedsnr" v="101301" />
	</node>
	<node id="-197653" lat="68.4346194476" lon="14.9828611094">
		<tag k="name" v="Meraftesmyra" />
		<tag k="natural" v="wetland" />
		<tag k="ssr:stedsnr" v="358628" />
	</node>
	<node id="-197237" lat="68.557019447" lon="14.8020000064">
		<tag k="name" v="Slottet" />
>>>>>>> e1d4bc35ff8a6074a6f2e91616a996b547c36f15
		<tag k="natural" v="stone" />
		<tag k="ssr:stedsnr" v="822796" />
	</node>
<<<<<<< HEAD
	<node lat="68.47679166296476" lon="15.290672232863965" id="-13096">
		<tag k="name" v="Slåttå" />
		<tag k="place" v="locality" />
		<tag k="ssr:stedsnr" v="829861" />
	</node>
	<node lat="68.45630278176363" lon="15.066349992254114" id="-13107">
		<tag k="name" v="Hulderkjerken" />
=======
	<node id="-196724" lat="68.5639388857" lon="14.8056888988">
		<tag k="name" v="Rønnkulen" />
>>>>>>> e1d4bc35ff8a6074a6f2e91616a996b547c36f15
		<tag k="natural" v="scree" />
		<tag k="ssr:stedsnr" v="844634" />
	</node>
<<<<<<< HEAD
	<node lat="68.45662222362579" lon="14.890383344754637" id="-13111">
		<tag k="name" v="Risakssteinen" />
		<tag k="natural" v="stone" />
		<tag k="ssr:stedsnr" v="845455" />
	</node>
	<node lat="68.45916944397958" lon="15.015327773818276" id="-13119">
		<tag k="name" v="Nattmålsteinen" />
		<tag k="natural" v="stone" />
		<tag k="ssr:stedsnr" v="866142" />
	</node>
	<node lat="68.6657861088468" lon="15.035961101149732" id="-13120">
		<tag k="alt_name" v="Drågtjørnmyra" />
		<tag k="name" v="Drågtjønnmyra" />
		<tag k="natural" v="wetland" />
		<tag k="ssr:stedsnr" v="866151" />
	</node>
	<node lat="68.63343055764726" lon="14.891383326591795" id="-13181">
		<tag k="name" v="Kallsnesmyra" />
=======
	<node id="-196211" lat="68.4466499962" lon="15.051002772">
		<tag k="name" v="Brennmyra" />
		<tag k="natural" v="wetland" />
		<tag k="ssr:stedsnr" v="661562" />
	</node>
	<node id="-196627" lat="68.5809277765" lon="14.6646250049">
		<tag k="name" v="Sisselmyra" />
		<tag k="natural" v="wetland" />
		<tag k="ssr:stedsnr" v="707105" />
	</node>
	<node id="-196719" lat="68.4316138922" lon="14.747322229">
		<tag k="name" v="Jonsteinmyra" />
>>>>>>> e1d4bc35ff8a6074a6f2e91616a996b547c36f15
		<tag k="natural" v="wetland" />
		<tag k="ssr:stedsnr" v="867534" />
	</node>
<<<<<<< HEAD
	<node lat="68.64025555924333" lon="14.875194439193576" id="-13183">
		<tag k="name" v="Langmarka" />
		<tag k="place" v="locality" />
		<tag k="ssr:stedsnr" v="867564" />
	</node>
	<node lat="68.45998055301484" lon="15.063888890916068" id="-13193">
		<tag k="name" v="Myrlandsmyra" />
		<tag k="natural" v="wetland" />
		<tag k="ssr:stedsnr" v="867708" />
	</node>
	<node lat="68.41424444584904" lon="14.555266671955684" id="-13206">
		<tag k="name" v="Øltynnmyra" />
=======
	<node id="-197228" lat="68.6543888932" lon="14.9800611089">
		<tag k="name" v="Abelonsteinen" />
		<tag k="natural" v="stone" />
		<tag k="ssr:stedsnr" v="101555" />
	</node>
	<node id="-196715" lat="68.4235222261" lon="14.6304527675">
		<tag k="name" v="Grøtterømyra" />
		<tag k="natural" v="wetland" />
		<tag k="ssr:stedsnr" v="767065" />
	</node>
	<node id="-196714" lat="68.4326527734" lon="14.6738388965">
		<tag k="name" v="Nettviksteinen" />
		<tag k="natural" v="stone" />
		<tag k="ssr:stedsnr" v="767056" />
	</node>
	<node id="-197225" lat="68.5321972223" lon="14.8504499896">
		<tag k="name" v="Anders skomakermyra" />
>>>>>>> e1d4bc35ff8a6074a6f2e91616a996b547c36f15
		<tag k="natural" v="wetland" />
		<tag k="ssr:stedsnr" v="874109" />
	</node>
<<<<<<< HEAD
	<node lat="68.50812777698455" lon="14.782558331106381" id="-13220">
		<tag k="name" v="Olaslåtten" />
=======
	<node id="-198247" lat="68.4247555602" lon="15.1907055493">
		<tag k="name" v="Kongsmarka - Gonga" />
		<tag k="name:no" v="Kongsmarka" />
		<tag k="name:se" v="Gonga" />
>>>>>>> e1d4bc35ff8a6074a6f2e91616a996b547c36f15
		<tag k="place" v="locality" />
		<tag k="ssr:stedsnr" v="884632" />
	</node>
<<<<<<< HEAD
	<node lat="68.41255833086385" lon="14.568622217629063" id="-13235">
		<tag k="name" v="Ulykkesmyra" />
=======
	<node id="-196710" lat="68.602163892" lon="14.9825583391">
		<tag k="name" v="Hestbergmyra" />
>>>>>>> e1d4bc35ff8a6074a6f2e91616a996b547c36f15
		<tag k="natural" v="wetland" />
		<tag k="ssr:stedsnr" v="936641" />
	</node>
<<<<<<< HEAD
	<node lat="68.36544722146473" lon="15.118752774095118" id="-13258">
		<tag k="name" v="Kvannkjosmyran" />
		<tag k="natural" v="wetland" />
		<tag k="ssr:stedsnr" v="949991" />
	</node>
	<node lat="68.57238888606787" lon="14.740297230531477" id="-13260">
		<tag k="name" v="Melkarsteinen" />
		<tag k="natural" v="stone" />
		<tag k="ssr:stedsnr" v="950028" />
	</node>
	<node lat="68.5741111153938" lon="14.655797224700404" id="-13266">
		<tag k="landuse" v="meadow" />
		<tag k="name" v="Vassjorda" />
		<tag k="ssr:stedsnr" v="950044" />
	</node>
	<node lat="68.52396666686825" lon="14.873169441953813" id="-13273">
		<tag k="name" v="Laurasletta" />
		<tag k="natural" v="wetland" />
		<tag k="ssr:stedsnr" v="950327" />
	</node>
	<node lat="68.36233333662655" lon="15.09117778997186" id="-13278">
		<tag k="name" v="Skjålimyra" />
		<tag k="natural" v="wetland" />
		<tag k="ssr:stedsnr" v="950945" />
	</node>
	<node lat="68.62849166401827" lon="14.905750003990775" id="-13283">
		<tag k="name" v="Frammerslåtten" />
		<tag k="place" v="locality" />
		<tag k="ssr:stedsnr" v="952670" />
	</node>
	<node lat="68.40597221914572" lon="14.670327774842862" id="-13301">
		<tag k="name" v="Dalmyra" />
		<tag k="natural" v="wetland" />
		<tag k="ssr:stedsnr" v="969181" />
=======
	<node id="-197137" lat="68.3584277751" lon="14.8113305486">
		<tag k="name" v="Blåskavlen" />
		<tag k="natural" v="glacier" />
		<tag k="ssr:stedsnr" v="78475" />
	</node>
	<node id="-197727" lat="68.3784499976" lon="14.5871444354">
		<tag k="name" v="Mølnhaugmyran" />
		<tag k="natural" v="wetland" />
		<tag k="ssr:stedsnr" v="381452" />
	</node>
	<node id="-197214" lat="68.5693222187" lon="14.6520694321">
		<tag k="name" v="Vassmyra" />
		<tag k="natural" v="wetland" />
		<tag k="ssr:stedsnr" v="100043" />
	</node>
	<node id="-197566" lat="68.5518361111" lon="14.9470194469">
		<tag k="alt_name" v="Klamyra" />
		<tag k="name" v="Klavmyra" />
		<tag k="natural" v="wetland" />
		<tag k="ssr:stedsnr" v="321889" />
	</node>
	<node id="-197211" lat="68.5364388848" lon="15.2616722232">
		<tag k="name" v="Storjorda" />
		<tag k="place" v="locality" />
		<tag k="ssr:stedsnr" v="95843" />
	</node>
	<node id="-196186" lat="68.5983083303" lon="14.9006694391">
		<tag k="name" v="Mølnskogen" />
		<tag k="place" v="locality" />
		<tag k="ssr:stedsnr" v="406704" />
	</node>
	<node id="-196184" lat="68.5531250004" lon="14.802155566">
		<tag k="name" v="Øverstjorda" />
		<tag k="place" v="locality" />
		<tag k="ssr:stedsnr" v="406304" />
	</node>
	<node id="-198230" lat="68.4469499989" lon="14.9517472143">
		<tag k="name" v="Hamnmyra" />
		<tag k="natural" v="wetland" />
		<tag k="ssr:stedsnr" v="745349" />
	</node>
	<node id="-197646" lat="68.4403944427" lon="15.0359916729">
		<tag k="name" v="Finnskarura" />
		<tag k="natural" v="scree" />
		<tag k="ssr:stedsnr" v="358601" />
	</node>
	<node id="-196177" lat="68.4613499961" lon="15.0946999949">
		<tag k="name" v="Stabbmyra" />
		<tag k="natural" v="wetland" />
		<tag k="ssr:stedsnr" v="404974" />
	</node>
	<node id="-197645" lat="68.6472583329" lon="14.9394611196">
		<tag k="name" v="Lillejorda" />
		<tag k="place" v="locality" />
		<tag k="ssr:stedsnr" v="358584" />
	</node>
	<node id="-196171" lat="68.422388892" lon="14.5938972117">
		<tag k="name" v="Høljen" />
		<tag k="natural" v="stone" />
		<tag k="ssr:stedsnr" v="404166" />
>>>>>>> e1d4bc35ff8a6074a6f2e91616a996b547c36f15
	</node>
	<node id="-197132" lat="68.531094445" lon="15.2842777803">
		<tag k="name" v="Kaljordmyran" />
		<tag k="natural" v="wetland" />
		<tag k="ssr:stedsnr" v="78376" />
	</node>
	<node id="-198179" lat="68.5688083312" lon="14.7283222234">
		<tag k="name" v="Kløvsteinen" />
		<tag k="natural" v="stone" />
		<tag k="ssr:stedsnr" v="646012" />
	</node>
	<node id="-197701" lat="68.6135749985" lon="15.0509388873">
		<tag k="name" v="Dalmyra" />
		<tag k="natural" v="wetland" />
		<tag k="ssr:stedsnr" v="381007" />
	</node>
	<node id="-196675" lat="68.4348777792" lon="14.6651305619">
		<tag k="name" v="Bonsteinen" />
		<tag k="natural" v="stone" />
		<tag k="ssr:stedsnr" v="745359" />
	</node>
	<node id="-197185" lat="68.5397527807" lon="14.7723083315">
		<tag k="name" v="Steinteigen" />
		<tag k="natural" v="scree" />
		<tag k="ssr:stedsnr" v="93204" />
	</node>
	<node id="-195648" lat="68.5340444419" lon="15.2059972308">
		<tag k="name" v="Banmyra" />
		<tag k="natural" v="wetland" />
		<tag k="ssr:stedsnr" v="260416" />
	</node>
	<node id="-196201" lat="68.6039750011" lon="14.9996722278">
		<tag k="name" v="Lian" />
		<tag k="natural" v="scree" />
		<tag k="ssr:stedsnr" v="519245" />
	</node>
	<node id="-195639" lat="68.6211666676" lon="15.1025277725">
		<tag k="alt_name" v="Deskmyran" />
		<tag k="name" v="Diskmyran" />
		<tag k="natural" v="wetland" />
		<tag k="ssr:stedsnr" v="260036" />
	</node>
	<node id="-196150" lat="68.5244250044" lon="14.7927138801">
		<tag k="alt_name" v="Kvanntolimyran" />
		<tag k="name" v="Kvanntolimyra" />
		<tag k="natural" v="wetland" />
		<tag k="ssr:stedsnr" v="503933" />
	</node>
	<node id="-195635" lat="68.6114805585" lon="15.0898555658">
		<tag k="alt_name" v="Seljemyra" />
		<tag k="name" v="Seljmyra" />
		<tag k="natural" v="wetland" />
		<tag k="ssr:stedsnr" v="260004" />
	</node>
	<node id="-196028" lat="68.5688499971" lon="14.7892166557">
		<tag k="name" v="Vassmyra" />
		<tag k="natural" v="wetland" />
		<tag k="ssr:stedsnr" v="465313" />
	</node>
	<node id="-196163" lat="68.5776083304" lon="14.7779944553">
		<tag k="landuse" v="meadow" />
		<tag k="name" v="Danieljorda" />
		<tag k="ssr:stedsnr" v="403026" />
	</node>
	<node id="-197673" lat="68.6144666644" lon="15.1224194507">
		<tag k="name" v="Stormyra" />
		<tag k="natural" v="wetland" />
		<tag k="ssr:stedsnr" v="519791" />
	</node>
	<node id="-195619" lat="68.600488889" lon="14.8689361115">
		<tag k="name" v="Holmsnesmyran" />
		<tag k="natural" v="wetland" />
		<tag k="ssr:stedsnr" v="259589" />
	</node>
	<node id="-195616" lat="68.4273111127" lon="14.6442333259">
		<tag k="name" v="Flatmyran" />
		<tag k="natural" v="wetland" />
		<tag k="ssr:stedsnr" v="259359" />
	</node>
	<node id="-197659" lat="68.4295722208" lon="14.8928055554">
		<tag k="name" v="Sælbotsura" />
		<tag k="natural" v="scree" />
		<tag k="ssr:stedsnr" v="359382" />
	</node>
	<node id="-198170" lat="68.627744442" lon="15.1186944327">
		<tag k="name" v="Bukksteinen" />
		<tag k="natural" v="stone" />
		<tag k="ssr:stedsnr" v="640793" />
	</node>
	<node id="-197656" lat="68.4608916707" lon="15.0524499932">
		<tag k="name" v="Ura" />
		<tag k="natural" v="scree" />
		<tag k="ssr:stedsnr" v="358634" />
	</node>
	<node id="-197655" lat="68.4594194413" lon="15.0564499895">
		<tag k="name" v="Kovsteinen" />
		<tag k="natural" v="stone" />
		<tag k="ssr:stedsnr" v="358632" />
	</node>
	<node id="-198165" lat="68.5049250016" lon="14.7427027775">
		<tag k="name" v="Vollan" />
		<tag k="place" v="locality" />
		<tag k="ssr:stedsnr" v="640719" />
	</node>
	<node id="-198164" lat="68.5058111121" lon="14.8069499883">
		<tag k="name" v="Grishusmyra" />
		<tag k="natural" v="wetland" />
		<tag k="ssr:stedsnr" v="640659" />
	</node>
	<node id="-195603" lat="68.4221444458" lon="14.6242861009">
		<tag k="name" v="Bekksteinen" />
		<tag k="natural" v="stone" />
		<tag k="ssr:stedsnr" v="100057" />
	</node>
	<node id="-196113" lat="68.4141972231" lon="14.5712444563">
		<tag k="name" v="Rabben" />
		<tag k="place" v="locality" />
		<tag k="ssr:stedsnr" v="502251" />
	</node>
	<node id="-198158" lat="68.5919750032" lon="14.9792805647">
		<tag k="name" v="Domsteinan" />
		<tag k="natural" v="stone" />
		<tag k="ssr:stedsnr" v="640249" />
	</node>
	<node id="-195597" lat="68.5456777786" lon="14.989755561">
		<tag k="name" v="Tajordåsen" />
		<tag k="place" v="locality" />
		<tag k="ssr:stedsnr" v="95365" />
	</node>
	<node id="-197644" lat="68.6493472201" lon="14.9333750099">
		<tag k="name" v="Høgmyran" />
		<tag k="natural" v="wetland" />
		<tag k="ssr:stedsnr" v="358580" />
	</node>
	<node id="-196107" lat="68.4260305594" lon="14.8103805582">
		<tag k="name" v="Myran" />
		<tag k="natural" v="wetland" />
		<tag k="ssr:stedsnr" v="502340" />
	</node>
	<node id="-197206" lat="68.5305972261" lon="15.2976388843">
		<tag k="name" v="Gjetarsteinen" />
		<tag k="natural" v="stone" />
		<tag k="ssr:stedsnr" v="95826" />
	</node>
	<node id="-195483" lat="68.4106166692" lon="15.1674500029">
		<tag k="name" v="Ramnbergura" />
		<tag k="natural" v="scree" />
		<tag k="ssr:stedsnr" v="222999" />
	</node>
</osm>
