<?xml version="1.0" encoding="UTF-8"?>
<osm generator="osmapis" version="0.6">
	<node id="-22527" lat="68.5064638879" lon="15.2838638769">
		<tag k="name" v="Rullklubben" />
		<tag k="natural" v="cape" />
		<tag k="ssr:stedsnr" v="829072" />
	</node>
	<node id="-20477" lat="68.403625004" lon="14.8377750123">
		<tag k="name" v="Brettvika" />
		<tag k="natural" v="bay" />
		<tag k="ssr:stedsnr" v="562239" />
	</node>
	<node id="-22524" lat="68.5174777817" lon="15.2621527819">
		<tag k="name" v="Åkervika" />
		<tag k="natural" v="bay" />
		<tag k="ssr:stedsnr" v="829055" />
	</node>
	<node id="-22523" lat="68.5143416658" lon="15.2417861201">
		<tag k="name" v="Ramnklubbvika" />
		<tag k="natural" v="bay" />
		<tag k="ssr:stedsnr" v="829054" />
	</node>
	<node id="-20473" lat="68.4997083343" lon="14.8896888978">
		<tag k="name" v="Sporviksanden" />
		<tag k="natural" v="bay" />
		<tag k="ssr:stedsnr" v="701842" />
	</node>
	<node id="-22520" lat="68.5784555523" lon="14.7559055464">
		<tag k="name" v="Rekstadvika" />
		<tag k="natural" v="bay" />
		<tag k="ssr:stedsnr" v="829024" />
	</node>
	<node id="-22518" lat="68.5781500034" lon="14.7254861098">
		<tag k="fixme" v="consider seamark:type=rock or natural=shoal" />
		<tag k="name" v="Kvalbaken" />
		<tag k="place" v="islet" />
		<tag k="ssr:stedsnr" v="829017" />
	</node>
	<node id="-22516" lat="68.4467916681" lon="14.9858527785">
		<tag k="name" v="Storøya" />
		<tag k="place" v="islet" />
		<tag k="ssr:stedsnr" v="828583" />
	</node>
	<node id="-22515" lat="68.5877833377" lon="14.6903916674">
		<tag k="name" v="Slettvika" />
		<tag k="natural" v="bay" />
		<tag k="ssr:stedsnr" v="828072" />
	</node>
	<node id="-22514" lat="68.4341861086" lon="14.7583638993">
		<tag k="name" v="Storviknesstranden" />
		<tag k="natural" v="beach" />
		<tag k="place" v="locality" />
		<tag k="ssr:stedsnr" v="828056" />
	</node>
	<node id="-22512" lat="68.4293000014" lon="14.6789333239">
		<tag k="name" v="Gullfarnes" />
		<tag k="natural" v="cape" />
		<tag k="ssr:stedsnr" v="828049" />
	</node>
	<node id="-20462" lat="68.5742333292" lon="14.8676666717">
		<tag k="name" v="Vikran" />
		<tag k="natural" v="beach" />
		<tag k="place" v="locality" />
		<tag k="ssr:stedsnr" v="701107" />
	</node>
	<node id="-22509" lat="68.5737722267" lon="15.2160249991">
		<tag k="name" v="Kartnesbukta" />
		<tag k="natural" v="bay" />
		<tag k="ssr:stedsnr" v="823897" />
	</node>
	<node id="-20460" lat="68.6008805554" lon="14.8480083275">
		<tag k="name" v="Gjøvikbukta" />
		<tag k="natural" v="bay" />
		<tag k="ssr:stedsnr" v="701156" />
	</node>
	<node id="-20455" lat="68.5441944454" lon="15.1902444364">
		<tag k="name" v="Kjempvika" />
		<tag k="natural" v="bay" />
		<tag k="ssr:stedsnr" v="544029" />
	</node>
	<node id="-20454" lat="68.5033722185" lon="15.3495805576">
		<tag k="name" v="Klubben" />
		<tag k="natural" v="cape" />
		<tag k="ssr:stedsnr" v="544025" />
	</node>
	<node id="-20452" lat="68.5690750006" lon="15.3276444381">
		<tag k="name" v="Paradisbukta" />
		<tag k="natural" v="bay" />
		<tag k="ssr:stedsnr" v="544012" />
	</node>
	<node id="-22496" lat="68.5051361134" lon="14.7120305611">
		<tag k="name" v="Vaksholmen" />
		<tag k="place" v="islet" />
		<tag k="ssr:stedsnr" v="822724" />
	</node>
	<node id="-19792" lat="68.5005138896" lon="14.8150611211">
		<tag k="name" v="Torodden" />
		<tag k="natural" v="cape" />
		<tag k="ssr:stedsnr" v="277743" />
	</node>
	<node id="-20437" lat="68.5341250035" lon="14.5571611156">
		<tag k="name" v="Lysbåen" />
		<tag k="natural" v="shoal" />
		<tag k="place" v="locality" />
		<tag k="ssr:stedsnr" v="685973" />
	</node>
	<node id="-22483" lat="68.5478305578" lon="14.5531500049">
		<tag k="name" v="Litlværodden" />
		<tag k="place" v="islet" />
		<tag k="ssr:stedsnr" v="807879" />
	</node>
	<node id="-20434" lat="68.5138944438" lon="14.6652527892">
		<tag k="alt_name" v="Ånstadøya;Ånstadøyan" />
		<tag k="name" v="Ånnstadøya" />
		<tag k="place" v="island" />
		<tag k="ssr:stedsnr" v="685934" />
	</node>
	<node id="-20433" lat="68.5696194422" lon="14.9930833285">
		<tag k="name" v="Sandøya" />
		<tag k="place" v="islet" />
		<tag k="ssr:stedsnr" v="685931" />
	</node>
	<node id="-22480" lat="68.6190361091" lon="14.8167166651">
		<tag k="name" v="Rasmusneset" />
		<tag k="natural" v="cape" />
		<tag k="ssr:stedsnr" v="807492" />
	</node>
	<node id="-22479" lat="68.5343249961" lon="14.5438666634">
		<tag k="alt_name" v="Silstadskjeran" />
		<tag k="fixme" v="consider seamark:type=rock or natural=shoal" />
		<tag k="name" v="Silstøskjeran" />
		<tag k="place" v="islet" />
		<tag k="ssr:stedsnr" v="807976" />
	</node>
	<node id="-22476" lat="68.3431583372" lon="15.0200472321">
		<tag k="alt_name" v="Hysskjeret" />
		<tag k="fixme" v="consider seamark:type=rock or natural=shoal" />
		<tag k="name" v="Hysskjeran" />
		<tag k="place" v="islet" />
		<tag k="ssr:stedsnr" v="806993" />
	</node>
	<node id="-20427" lat="68.5365416693" lon="14.5120527807">
		<tag k="name" v="Hella" />
		<tag k="natural" v="shoal" />
		<tag k="place" v="locality" />
		<tag k="ssr:stedsnr" v="685890" />
	</node>
	<node id="-22474" lat="68.6308583313" lon="14.7606388993">
		<tag k="alt_name" v="Store Harparen" />
		<tag k="name" v="Harparen" />
		<tag k="place" v="islet" />
		<tag k="ssr:stedsnr" v="807533" />
	</node>
	<node id="-20425" lat="68.56152222" lon="14.9712666597">
		<tag k="alt_name" v="Andvågskjeran" />
		<tag k="name" v="Hestøyholman" />
		<tag k="place" v="islet" />
		<tag k="ssr:stedsnr" v="685882" />
	</node>
	<node id="-22470" lat="68.5043083366" lon="14.704669436">
		<tag k="name" v="Oterholmen" />
		<tag k="place" v="islet" />
		<tag k="ssr:stedsnr" v="806955" />
	</node>
	<node id="-22468" lat="68.5139194467" lon="14.5340777837">
		<tag k="name" v="Nordflua" />
		<tag k="natural" v="shoal" />
		<tag k="place" v="locality" />
		<tag k="ssr:stedsnr" v="806947" />
	</node>
	<node id="-22467" lat="68.5697277749" lon="14.8904055425">
		<tag k="name" v="Tømmervika" />
		<tag k="natural" v="bay" />
		<tag k="ssr:stedsnr" v="806941" />
	</node>
	<node id="-22463" lat="68.5771111113" lon="15.0039250099">
		<tag k="alt_name" v="Fruskjeret" />
		<tag k="name" v="Frubåen" />
		<tag k="natural" v="shoal" />
		<tag k="place" v="locality" />
		<tag k="ssr:stedsnr" v="806924" />
	</node>
	<node id="-20413" lat="68.631633331" lon="14.7885833414">
		<tag k="name" v="Skagklubben" />
		<tag k="natural" v="cape" />
		<tag k="ssr:stedsnr" v="685538" />
	</node>
	<node id="-22459" lat="68.3986083309" lon="15.0922583338">
		<tag k="name" v="Fallneset" />
		<tag k="natural" v="cape" />
		<tag k="ssr:stedsnr" v="806865" />
	</node>
	<node id="-22458" lat="68.3947666622" lon="15.1065194472">
		<tag k="name" v="Langnesodden" />
		<tag k="natural" v="cape" />
		<tag k="ssr:stedsnr" v="806864" />
	</node>
	<node id="-20409" lat="68.6219555574" lon="14.9406833308">
		<tag k="alt_name" v="Langøy" />
		<tag k="name" v="Langøya" />
		<tag k="place" v="island" />
		<tag k="ssr:stedsnr" v="685470" />
	</node>
	<node id="-22456" lat="68.4252388888" lon="15.1552027831">
		<tag k="name" v="Nordneset" />
		<tag k="natural" v="cape" />
		<tag k="ssr:stedsnr" v="806790" />
	</node>
	<node id="-22455" lat="68.4666527802" lon="15.2611555467">
		<tag k="name" v="Storåbukta" />
		<tag k="natural" v="bay" />
		<tag k="ssr:stedsnr" v="806760" />
	</node>
	<node id="-20405" lat="68.5194777759" lon="15.2499638971">
		<tag k="name" v="Storholmen" />
		<tag k="place" v="islet" />
		<tag k="ssr:stedsnr" v="685350" />
	</node>
	<node id="-20404" lat="68.6110027823" lon="15.1311055465">
		<tag k="name" v="Nesodden" />
		<tag k="natural" v="cape" />
		<tag k="ssr:stedsnr" v="685200" />
	</node>
	<node id="-20402" lat="68.5452555558" lon="15.0514388927">
		<tag k="fixme" v="consider seamark:type=rock or natural=shoal" />
		<tag k="name" v="Gjævaskjeran" />
		<tag k="place" v="islet" />
		<tag k="ssr:stedsnr" v="685096" />
	</node>
	<node id="-22449" lat="68.6157472199" lon="14.8275305601">
		<tag k="name" v="Hovden" />
		<tag k="place" v="islet" />
		<tag k="ssr:stedsnr" v="806622" />
	</node>
	<node id="-20399" lat="68.3989972255" lon="14.565058346">
		<tag k="name" v="Langneset" />
		<tag k="natural" v="cape" />
		<tag k="ssr:stedsnr" v="685063" />
	</node>
	<node id="-22446" lat="68.6159583327" lon="14.8234499998">
		<tag k="name" v="Klubben" />
		<tag k="natural" v="cape" />
		<tag k="ssr:stedsnr" v="806599" />
	</node>
	<node id="-22445" lat="68.5866083318" lon="14.7138888816">
		<tag k="name" v="Breivikrevet" />
		<tag k="natural" v="shoal" />
		<tag k="place" v="locality" />
		<tag k="ssr:stedsnr" v="806552" />
	</node>
	<node id="-20395" lat="68.4518805564" lon="15.0388416685">
		<tag k="name" v="Myrlandsfjorden" />
		<tag k="natural" v="bay" />
		<tag k="ssr:stedsnr" v="684691" />
	</node>
	<node id="-22442" lat="68.638377778" lon="14.7767305509">
		<tag k="name" v="Lyngøya" />
		<tag k="place" v="island" />
		<tag k="ssr:stedsnr" v="806537" />
	</node>
	<node id="-22440" lat="68.4632555568" lon="15.1028361066">
		<tag k="alt_name" v="Bjønnneset" />
		<tag k="name" v="Bjørnneset" />
		<tag k="natural" v="cape" />
		<tag k="ssr:stedsnr" v="807043" />
	</node>
	<node id="-20391" lat="68.6021861141" lon="14.7964305451">
		<tag k="fixme" v="consider seamark:type=rock or natural=shoal" />
		<tag k="name" v="Lutskjeret" />
		<tag k="place" v="islet" />
		<tag k="ssr:stedsnr" v="684579" />
	</node>
	<node id="-20390" lat="68.5941194447" lon="14.8334166772">
		<tag k="fixme" v="multiple name tags, choose one and add the other to alt_name" />
		<tag k="name" v="Klubben;Øyklubben" />
		<tag k="place" v="islet" />
		<tag k="ssr:stedsnr" v="684567" />
	</node>
	<node id="-22437" lat="68.5354138858" lon="14.2715027653">
		<tag k="bay" v="fjord" />
		<tag k="name" v="Vesterålsfjorden" />
		<tag k="natural" v="bay" />
		<tag k="ssr:stedsnr" v="806335" />
	</node>
	<node id="-22436" lat="68.5022083336" lon="14.4124111184">
		<tag k="name" v="Fløgrunnen" />
		<tag k="natural" v="shoal" />
		<tag k="place" v="locality" />
		<tag k="ssr:stedsnr" v="806334" />
	</node>
	<node id="-22435" lat="68.4364388875" lon="14.8425972295">
		<tag k="alt_name" v="Bulatholmen" />
		<tag k="name" v="Bullatholmen" />
		<tag k="place" v="islet" />
		<tag k="ssr:stedsnr" v="806323" />
	</node>
	<node id="-22434" lat="68.4224583322" lon="14.8389416549">
		<tag k="name" v="Brannholmen" />
		<tag k="place" v="islet" />
		<tag k="ssr:stedsnr" v="806319" />
	</node>
	<node id="-20384" lat="68.3865583315" lon="14.5873611043">
		<tag k="name" v="Buholmen" />
		<tag k="place" v="islet" />
		<tag k="ssr:stedsnr" v="684456" />
	</node>
	<node id="-20383" lat="68.3877472238" lon="14.7144805578">
		<tag k="name" v="Melkarneset" />
		<tag k="natural" v="cape" />
		<tag k="ssr:stedsnr" v="684454" />
	</node>
	<node id="-22430" lat="68.4056583341" lon="14.7041999938">
		<tag k="alt_name" v="Lunneset" />
		<tag k="name" v="Lundneset" />
		<tag k="natural" v="cape" />
		<tag k="ssr:stedsnr" v="806277" />
	</node>
	<node id="-22427" lat="68.5787555536" lon="15.032802768">
		<tag k="name" v="Sjurodden" />
		<tag k="natural" v="cape" />
		<tag k="ssr:stedsnr" v="806078" />
	</node>
	<node id="-22426" lat="68.5669194456" lon="15.2057388876">
		<tag k="name" v="Bukta" />
		<tag k="natural" v="bay" />
		<tag k="ssr:stedsnr" v="806070" />
	</node>
	<node id="-20377" lat="68.4694166674" lon="15.1054333444">
		<tag k="fixme" v="consider seamark:type=rock or natural=shoal" />
		<tag k="name" v="Stabben" />
		<tag k="place" v="islet" />
		<tag k="ssr:stedsnr" v="684729" />
	</node>
	<node id="-22424" lat="68.6012527741" lon="15.1892944475">
		<tag k="name" v="Gjerstadrevet" />
		<tag k="natural" v="shoal" />
		<tag k="place" v="locality" />
		<tag k="ssr:stedsnr" v="806061" />
	</node>
	<node id="-22422" lat="68.6147055572" lon="15.2220166648">
		<tag k="name" v="Matskallen" />
		<tag k="natural" v="shoal" />
		<tag k="place" v="locality" />
		<tag k="ssr:stedsnr" v="806019" />
	</node>
	<node id="-20373" lat="68.2446999987" lon="14.4882222285">
		<tag k="alt_name" v="Aust-Vågøy" />
		<tag k="name" v="Austvågøya" />
		<tag k="place" v="island" />
		<tag k="ssr:stedsnr" v="684377" />
	</node>
	<node id="-20372" lat="68.4228777778" lon="14.5532444336">
		<tag k="fixme" v="multiple name tags, choose one and add the other to alt_name" />
		<tag k="name" v="Kløvningan;Lillekløvningen" />
		<tag k="natural" v="cape" />
		<tag k="ssr:stedsnr" v="684370" />
	</node>
	<node id="-22417" lat="68.4852083317" lon="14.7434666716">
		<tag k="fixme" v="consider seamark:type=rock or natural=shoal" />
		<tag k="name" v="Skarvsteinen" />
		<tag k="place" v="islet" />
		<tag k="ssr:stedsnr" v="805137" />
	</node>
	<node id="-22416" lat="68.4947305524" lon="14.73659723">
		<tag k="fixme" v="multiple name tags, choose one and add the other to alt_name" />
		<tag k="name" v="Indrehaugnesan;Ytre Haugnesodden" />
		<tag k="natural" v="cape" />
		<tag k="ssr:stedsnr" v="805131" />
	</node>
	<node id="-20120" lat="68.4572416651" lon="15.0478777678">
		<tag k="name" v="Elveneset" />
		<tag k="natural" v="cape" />
		<tag k="ssr:stedsnr" v="479612" />
	</node>
	<node id="-22414" lat="68.441733332" lon="14.7480388803">
		<tag k="name" v="Kråkøya" />
		<tag k="place" v="island" />
		<tag k="ssr:stedsnr" v="805316" />
	</node>
	<node id="-22413" lat="68.4447555558" lon="14.978877774">
		<tag k="name" v="Falkfjordhamn" />
		<tag k="natural" v="bay" />
		<tag k="ssr:stedsnr" v="805299" />
	</node>
	<node id="-20364" lat="68.3941027787" lon="14.5595555509">
		<tag k="name" v="Storholmen" />
		<tag k="place" v="islet" />
		<tag k="ssr:stedsnr" v="684301" />
	</node>
	<node id="-22411" lat="68.405386115" lon="14.697313883">
		<tag k="bay" v="fjord" />
		<tag k="name" v="Morfjorden" />
		<tag k="natural" v="bay" />
		<tag k="ssr:stedsnr" v="805289" />
	</node>
	<node id="-20361" lat="68.4151611085" lon="14.70607501">
		<tag k="name" v="Buneset" />
		<tag k="natural" v="cape" />
		<tag k="ssr:stedsnr" v="684277" />
	</node>
	<node id="-22406" lat="68.3870500006" lon="14.7107194424">
		<tag k="name" v="Hellbogen" />
		<tag k="natural" v="bay" />
		<tag k="ssr:stedsnr" v="787140" />
	</node>
	<node id="-20357" lat="68.4112888844" lon="14.543683339">
		<tag k="name" v="Naustvika" />
		<tag k="natural" v="bay" />
		<tag k="ssr:stedsnr" v="684263" />
	</node>
	<node id="-22404" lat="68.4971861087" lon="15.347283328">
		<tag k="name" v="Sørbotnneset" />
		<tag k="natural" v="cape" />
		<tag k="ssr:stedsnr" v="787043" />
	</node>
	<node id="-20118" lat="68.4364972232" lon="14.9983416697">
		<tag k="name" v="Stakkbukta" />
		<tag k="natural" v="bay" />
		<tag k="ssr:stedsnr" v="479582" />
	</node>
	<node id="-20354" lat="68.462038885" lon="15.0031500077">
		<tag k="fixme" v="consider seamark:type=rock or natural=shoal" />
		<tag k="name" v="Skarvsteinen" />
		<tag k="place" v="islet" />
		<tag k="ssr:stedsnr" v="684188" />
	</node>
	<node id="-20591" lat="68.4306027789" lon="14.8450277757">
		<tag k="fixme" v="multiple name tags, choose one and add the other to alt_name" />
		<tag k="name" v="Skjørholmen;Øya" />
		<tag k="place" v="islet" />
		<tag k="ssr:stedsnr" v="623322" />
	</node>
	<node id="-22397" lat="68.4337638856" lon="14.7912277737">
		<tag k="name" v="Hessand" />
		<tag k="natural" v="bay" />
		<tag k="ssr:stedsnr" v="784430" />
	</node>
	<node id="-22396" lat="68.4295444445" lon="14.8262666754">
		<tag k="name" v="Hankjelvika" />
		<tag k="natural" v="bay" />
		<tag k="ssr:stedsnr" v="784425" />
	</node>
	<node id="-22395" lat="68.4942444448" lon="14.8245722265">
		<tag k="name" v="Nonsholmen" />
		<tag k="place" v="islet" />
		<tag k="ssr:stedsnr" v="784405" />
	</node>
	<node id="-20344" lat="68.5902388915" lon="14.8435055451">
		<tag k="fixme" v="consider seamark:type=rock or natural=shoal" />
		<tag k="name" v="Vågskjeran" />
		<tag k="place" v="islet" />
		<tag k="ssr:stedsnr" v="503533" />
	</node>
	<node id="-22391" lat="68.6504194482" lon="14.8363222277">
		<tag k="name" v="Hammarringkluten" />
		<tag k="natural" v="cape" />
		<tag k="ssr:stedsnr" v="783677" />
	</node>
	<node id="-22390" lat="68.6506666675" lon="14.8733638858">
		<tag k="name" v="Vedstøholmen" />
		<tag k="place" v="islet" />
		<tag k="ssr:stedsnr" v="783668" />
	</node>
	<node id="-20341" lat="68.4466194436" lon="15.1711555606">
		<tag k="fixme" v="multiple name tags, choose one and add the other to alt_name; consider seamark:type=rock or natural=shoal" />
		<tag k="name" v="Nålaugeholmen;Nålauget" />
		<tag k="place" v="islet" />
		<tag k="ssr:stedsnr" v="502807" />
	</node>
	<node id="-22388" lat="68.4570500017" lon="15.0218638807">
		<tag k="name" v="Lilleøya" />
		<tag k="natural" v="cape" />
		<tag k="ssr:stedsnr" v="783610" />
	</node>
	<node id="-20339" lat="68.4805833358" lon="15.200066657">
		<tag k="name" v="Brottøyneset" />
		<tag k="natural" v="cape" />
		<tag k="ssr:stedsnr" v="502663" />
	</node>
	<node id="-20337" lat="68.4655277786" lon="15.1448111118">
		<tag k="name" v="Ytterjuvikneset" />
		<tag k="natural" v="cape" />
		<tag k="ssr:stedsnr" v="502747" />
	</node>
	<node id="-20336" lat="68.4728250041" lon="15.1575805664">
		<tag k="name" v="Hestvika" />
		<tag k="natural" v="bay" />
		<tag k="ssr:stedsnr" v="502745" />
	</node>
	<node id="-22383" lat="68.412825004" lon="14.5212694351">
		<tag k="fixme" v="consider seamark:type=rock or natural=shoal" />
		<tag k="name" v="Kuven" />
		<tag k="place" v="islet" />
		<tag k="ssr:stedsnr" v="772363" />
	</node>
	<node id="-20333" lat="68.4529916694" lon="15.1948472304">
		<tag k="name" v="Steinbakkneset" />
		<tag k="natural" v="cape" />
		<tag k="ssr:stedsnr" v="502725" />
	</node>
	<node id="-20329" lat="68.3932499955" lon="14.8803833412">
		<tag k="name" v="Austpollen" />
		<tag k="natural" v="bay" />
		<tag k="ssr:stedsnr" v="502264" />
	</node>
	<node id="-20328" lat="68.4146249955" lon="14.8689500056">
		<tag k="name" v="Gårdsneset" />
		<tag k="natural" v="cape" />
		<tag k="ssr:stedsnr" v="502260" />
	</node>
	<node id="-22374" lat="68.4893222201" lon="15.1901250053">
		<tag k="name" v="Ersholmvika" />
		<tag k="natural" v="bay" />
		<tag k="ssr:stedsnr" v="768927" />
	</node>
	<node id="-20325" lat="68.4409222182" lon="14.5140111014">
		<tag k="name" v="Storskallen" />
		<tag k="natural" v="shoal" />
		<tag k="place" v="locality" />
		<tag k="ssr:stedsnr" v="502321" />
	</node>
	<node id="-22372" lat="68.4688027751" lon="15.1901722151">
		<tag k="name" v="Hanøyvika" />
		<tag k="natural" v="bay" />
		<tag k="ssr:stedsnr" v="768884" />
	</node>
	<node id="-22369" lat="68.4691861113" lon="15.2459666712">
		<tag k="name" v="Håkjerringvika" />
		<tag k="natural" v="bay" />
		<tag k="ssr:stedsnr" v="768868" />
	</node>
	<node id="-20320" lat="68.4864555596" lon="14.7514611124">
		<tag k="name" v="Haugkleppan" />
		<tag k="place" v="islet" />
		<tag k="ssr:stedsnr" v="502151" />
	</node>
	<node id="-20319" lat="68.4622583311" lon="14.9592416735">
		<tag k="name" v="Langsanden" />
		<tag k="natural" v="bay" />
		<tag k="ssr:stedsnr" v="502147" />
	</node>
	<node id="-20318" lat="68.497525004" lon="14.4702249944">
		<tag k="name" v="Indrehavbåen" />
		<tag k="natural" v="shoal" />
		<tag k="place" v="locality" />
		<tag k="ssr:stedsnr" v="502130" />
	</node>
	<node id="-22364" lat="68.5121527738" lon="15.2362083379">
		<tag k="name" v="Nordbogen" />
		<tag k="natural" v="bay" />
		<tag k="ssr:stedsnr" v="768819" />
	</node>
	<node id="-20315" lat="68.4467833361" lon="14.925238887">
		<tag k="name" v="Mølnsanden" />
		<tag k="natural" v="beach" />
		<tag k="place" v="locality" />
		<tag k="ssr:stedsnr" v="480405" />
	</node>
	<node id="-20111" lat="68.6567222243" lon="14.877169453">
		<tag k="name" v="Sildgarnklubben" />
		<tag k="natural" v="cape" />
		<tag k="ssr:stedsnr" v="466768" />
	</node>
	<node id="-22357" lat="68.5642333373" lon="14.6130889012">
		<tag k="name" v="Nesodden" />
		<tag k="natural" v="cape" />
		<tag k="ssr:stedsnr" v="768156" />
	</node>
	<node id="-22352" lat="68.584580551" lon="14.6668777841">
		<tag k="name" v="Susselneset" />
		<tag k="natural" v="cape" />
		<tag k="ssr:stedsnr" v="767085" />
	</node>
	<node id="-22351" lat="68.4207611118" lon="14.6986666551">
		<tag k="name" v="Tjeldholmen" />
		<tag k="place" v="islet" />
		<tag k="ssr:stedsnr" v="767077" />
	</node>
	<node id="-22350" lat="68.5578972187" lon="14.9932333382">
		<tag k="name" v="Hadselhamn" />
		<tag k="natural" v="bay" />
		<tag k="ssr:stedsnr" v="764643" />
	</node>
	<node id="-22349" lat="68.488950003" lon="15.2364055665">
		<tag k="name" v="Sommersetgrunnen" />
		<tag k="natural" v="shoal" />
		<tag k="place" v="locality" />
		<tag k="ssr:stedsnr" v="764437" />
	</node>
	<node id="-22348" lat="68.4147444421" lon="15.1250499964">
		<tag k="name" v="Strømhella" />
		<tag k="natural" v="beach" />
		<tag k="place" v="locality" />
		<tag k="ssr:stedsnr" v="764396" />
	</node>
	<node id="-22347" lat="68.3429055536" lon="14.9906027766">
		<tag k="fixme" v="consider seamark:type=rock or natural=shoal" />
		<tag k="name" v="Brakøyskjeran" />
		<tag k="place" v="islet" />
		<tag k="ssr:stedsnr" v="764222" />
	</node>
	<node id="-22346" lat="68.3450750025" lon="15.0144472286">
		<tag k="name" v="Buholmen" />
		<tag k="place" v="islet" />
		<tag k="ssr:stedsnr" v="764221" />
	</node>
	<node id="-19767" lat="68.4595611104" lon="14.9404749904">
		<tag k="fixme" v="consider seamark:type=rock or natural=shoal" />
		<tag k="name" v="Oteren" />
		<tag k="place" v="islet" />
		<tag k="ssr:stedsnr" v="137149" />
	</node>
	<node id="-20296" lat="68.5645277759" lon="14.6120527659">
		<tag k="name" v="Tangvika" />
		<tag k="natural" v="bay" />
		<tag k="ssr:stedsnr" v="464167" />
	</node>
	<node id="-22340" lat="68.4983166628" lon="14.8825944391">
		<tag k="name" v="Yttervassvikneset" />
		<tag k="natural" v="cape" />
		<tag k="ssr:stedsnr" v="761849" />
	</node>
	<node id="-22339" lat="68.4976861145" lon="14.885652785">
		<tag k="name" v="Innervassvikneset" />
		<tag k="natural" v="cape" />
		<tag k="ssr:stedsnr" v="761848" />
	</node>
	<node id="-20289" lat="68.4316361092" lon="14.8366111167">
		<tag k="name" v="Skjerholmen" />
		<tag k="natural" v="cape" />
		<tag k="ssr:stedsnr" v="662377" />
	</node>
	<node id="-20288" lat="68.4276333325" lon="14.8764388898">
		<tag k="name" v="Floktsundet" />
		<tag k="natural" v="strait" />
		<tag k="ssr:stedsnr" v="662347" />
	</node>
	<node id="-20287" lat="68.5196666641" lon="15.2489388834">
		<tag k="name" v="Lonkanholman" />
		<tag k="place" v="islet" />
		<tag k="ssr:stedsnr" v="662339" />
	</node>
	<node id="-20283" lat="68.635466666" lon="14.8165805455">
		<tag k="name" v="Lilleholmen" />
		<tag k="place" v="islet" />
		<tag k="ssr:stedsnr" v="661622" />
	</node>
	<node id="-20281" lat="68.4630472266" lon="15.0674416707">
		<tag k="name" v="Stranda" />
		<tag k="natural" v="beach" />
		<tag k="place" v="locality" />
		<tag k="ssr:stedsnr" v="661577" />
	</node>
	<node id="-22327" lat="68.5804638899" lon="15.0154805649">
		<tag k="name" v="Ytterstranda" />
		<tag k="natural" v="beach" />
		<tag k="place" v="locality" />
		<tag k="ssr:stedsnr" v="761248" />
	</node>
	<node id="-22326" lat="68.587258331" lon="14.9488222272">
		<tag k="name" v="Storholmen" />
		<tag k="place" v="islet" />
		<tag k="ssr:stedsnr" v="761246" />
	</node>
	<node id="-22324" lat="68.504438886" lon="14.6302750046">
		<tag k="name" v="Grunnskallen" />
		<tag k="natural" v="shoal" />
		<tag k="place" v="locality" />
		<tag k="ssr:stedsnr" v="746961" />
	</node>
	<node id="-22323" lat="68.5705777784" lon="14.974125006">
		<tag k="fixme" v="consider seamark:type=rock or natural=shoal" />
		<tag k="name" v="Storskjeret" />
		<tag k="place" v="islet" />
		<tag k="ssr:stedsnr" v="746926" />
	</node>
	<node id="-20273" lat="68.4447833323" lon="15.1981916563">
		<tag k="name" v="Storvika" />
		<tag k="natural" v="bay" />
		<tag k="ssr:stedsnr" v="441810" />
	</node>
	<node id="-22318" lat="68.5152111086" lon="15.1781361126">
		<tag k="name" v="Vadholmen" />
		<tag k="place" v="islet" />
		<tag k="ssr:stedsnr" v="746388" />
	</node>
	<node id="-22317" lat="68.5246083324" lon="14.645024989">
		<tag k="name" v="Talgskjerfluan" />
		<tag k="natural" v="shoal" />
		<tag k="place" v="locality" />
		<tag k="ssr:stedsnr" v="745990" />
	</node>
	<node id="-22316" lat="68.4022916632" lon="15.1063583258">
		<tag k="name" v="Raftsundet - Ráktanuorri" />
		<tag k="name:no" v="Raftsundet" />
		<tag k="name:se" v="Ráktanuorri" />
		<tag k="natural" v="strait" />
		<tag k="ssr:stedsnr" v="745889" />
	</node>
	<node id="-22311" lat="68.4710194418" lon="15.119966664">
		<tag k="fixme" v="consider seamark:type=rock or natural=shoal" />
		<tag k="name" v="Svartskjeret" />
		<tag k="place" v="islet" />
		<tag k="ssr:stedsnr" v="745779" />
	</node>
	<node id="-22310" lat="68.4845944491" lon="15.1373722113">
		<tag k="name" v="Hestvikodden" />
		<tag k="natural" v="cape" />
		<tag k="ssr:stedsnr" v="745630" />
	</node>
	<node id="-22309" lat="68.6156722187" lon="14.8335277732">
		<tag k="alt_name" v="Indrevågen" />
		<tag k="name" v="Innervågen" />
		<tag k="natural" v="bay" />
		<tag k="ssr:stedsnr" v="745618" />
	</node>
	<node id="-22302" lat="68.6547305523" lon="14.8731194426">
		<tag k="alt_name:no" v="Kvalsøy" />
		<tag k="loc_name:se" v="Gulsi" />
		<tag k="name" v="Kvalsøya" />
		<tag k="name:no" v="Kvalsøya" />
		<tag k="place" v="islet" />
		<tag k="ssr:stedsnr" v="745750" />
	</node>
	<node id="-20247" lat="68.475172219" lon="15.2892833373">
		<tag k="name" v="Slåttnesvika" />
		<tag k="natural" v="bay" />
		<tag k="ssr:stedsnr" v="404862" />
	</node>
	<node id="-22293" lat="68.416111108" lon="14.8687305516">
		<tag k="name" v="Sløverhamn" />
		<tag k="natural" v="bay" />
		<tag k="ssr:stedsnr" v="745313" />
	</node>
	<node id="-20243" lat="68.4683916697" lon="15.1622138933">
		<tag k="name" v="Trongjuvika" />
		<tag k="natural" v="bay" />
		<tag k="ssr:stedsnr" v="404976" />
	</node>
	<node id="-22288" lat="68.4604027744" lon="14.962586107">
		<tag k="alt_name" v="Sæingsneset" />
		<tag k="name" v="Sædingsneset" />
		<tag k="natural" v="cape" />
		<tag k="ssr:stedsnr" v="745186" />
	</node>
	<node id="-22287" lat="68.5993777736" lon="15.2828472157">
		<tag k="name" v="Fiskholman" />
		<tag k="place" v="islet" />
		<tag k="ssr:stedsnr" v="745050" />
	</node>
	<node id="-20238" lat="68.4337805531" lon="14.5976916743">
		<tag k="fixme" v="consider seamark:type=rock or natural=shoal" />
		<tag k="name" v="Follvikskjeran" />
		<tag k="place" v="islet" />
		<tag k="ssr:stedsnr" v="404214" />
	</node>
	<node id="-20237" lat="68.5473611086" lon="14.6204583278">
		<tag k="name" v="Nordre Børholmen" />
		<tag k="place" v="islet" />
		<tag k="ssr:stedsnr" v="404172" />
	</node>
	<node id="-22284" lat="68.5462388898" lon="15.0246444393">
		<tag k="fixme" v="consider seamark:type=rock or natural=shoal" />
		<tag k="name" v="Trollskjeret" />
		<tag k="place" v="islet" />
		<tag k="ssr:stedsnr" v="745125" />
	</node>
	<node id="-22281" lat="68.4910944463" lon="14.5184166637">
		<tag k="name" v="Hekkelskallan" />
		<tag k="natural" v="shoal" />
		<tag k="place" v="locality" />
		<tag k="ssr:stedsnr" v="744131" />
	</node>
	<node id="-20498" lat="68.4335694426" lon="14.7730944323">
		<tag k="name" v="Vedvika" />
		<tag k="natural" v="bay" />
		<tag k="ssr:stedsnr" v="707094" />
	</node>
	<node id="-22278" lat="68.6632250019" lon="14.9234333436">
		<tag k="name" v="Kjørstadvågen" />
		<tag k="natural" v="strait" />
		<tag k="ssr:stedsnr" v="648720" />
	</node>
	<node id="-20097" lat="68.6624222209" lon="14.9645861029">
		<tag k="name" v="Torvneset" />
		<tag k="natural" v="cape" />
		<tag k="ssr:stedsnr" v="465537" />
	</node>
	<node id="-22273" lat="68.4738388866" lon="15.1675999931">
		<tag k="name" v="Koven" />
		<tag k="natural" v="bay" />
		<tag k="ssr:stedsnr" v="647849" />
	</node>
	<node id="-20223" lat="68.4551194402" lon="14.9297499937">
		<tag k="name" v="Vedøyskjeret" />
		<tag k="natural" v="cape" />
		<tag k="ssr:stedsnr" v="562315" />
	</node>
	<node id="-22269" lat="68.5054027771" lon="15.2330083281">
		<tag k="name" v="Kufiskholmen" />
		<tag k="place" v="islet" />
		<tag k="ssr:stedsnr" v="647820" />
	</node>
	<node id="-22268" lat="68.3932944423" lon="15.1056833432">
		<tag k="name" v="Langnesvika" />
		<tag k="natural" v="bay" />
		<tag k="ssr:stedsnr" v="646994" />
	</node>
	<node id="-22267" lat="68.4205999972" lon="15.1470111221">
		<tag k="name" v="Sørvågen" />
		<tag k="natural" v="bay" />
		<tag k="ssr:stedsnr" v="646988" />
	</node>
	<node id="-20217" lat="68.5094277796" lon="14.7102194533">
		<tag k="alt_name" v="Ångstadvika" />
		<tag k="name" v="Ongstadvika" />
		<tag k="natural" v="bay" />
		<tag k="ssr:stedsnr" v="503943" />
	</node>
	<node id="-22262" lat="68.4377333294" lon="14.6122999927">
		<tag k="fixme" v="consider seamark:type=rock or natural=shoal" />
		<tag k="name" v="Langfallet" />
		<tag k="place" v="islet" />
		<tag k="ssr:stedsnr" v="646212" />
	</node>
	<node id="-22259" lat="68.5511916641" lon="14.6201999985">
		<tag k="fixme" v="consider seamark:type=rock or natural=shoal" />
		<tag k="name" v="Kufisksteinen" />
		<tag k="place" v="islet" />
		<tag k="ssr:stedsnr" v="646172" />
	</node>
	<node id="-22258" lat="68.5662500038" lon="14.6163388914">
		<tag k="name" v="Furvika" />
		<tag k="natural" v="bay" />
		<tag k="ssr:stedsnr" v="646159" />
	</node>
	<node id="-20435" lat="68.5042499979" lon="14.9102555557">
		<tag k="name" v="Sporviksanden" />
		<tag k="natural" v="beach" />
		<tag k="place" v="locality" />
		<tag k="ssr:stedsnr" v="685955" />
	</node>
	<node id="-20208" lat="68.5588666667" lon="14.9885861131">
		<tag k="name" v="Feneset" />
		<tag k="natural" v="cape" />
		<tag k="ssr:stedsnr" v="503838" />
	</node>
	<node id="-20207" lat="68.662452781" lon="14.9705722177">
		<tag k="alt_name" v="Slottnesbogen" />
		<tag k="name" v="Slåttnesbugen" />
		<tag k="natural" v="bay" />
		<tag k="ssr:stedsnr" v="503680" />
	</node>
	<node id="-20204" lat="68.6174666623" lon="14.8261166672">
		<tag k="fixme" v="multiple name tags, choose one and add the other to alt_name" />
		<tag k="name" v="Kallsnesvågen;Yttervågen" />
		<tag k="natural" v="bay" />
		<tag k="ssr:stedsnr" v="503575" />
	</node>
	<node id="-22251" lat="68.5842388903" lon="14.6998416642">
		<tag k="fixme" v="consider seamark:type=rock or natural=shoal" />
		<tag k="name" v="Laksholmen" />
		<tag k="place" v="islet" />
		<tag k="ssr:stedsnr" v="646032" />
	</node>
	<node id="-20202" lat="68.5056722187" lon="15.1891611077">
		<tag k="name" v="Sandøya" />
		<tag k="place" v="island" />
		<tag k="ssr:stedsnr" v="503405" />
	</node>
	<node id="-20197" lat="68.5033833317" lon="15.3020916727">
		<tag k="alt_name" v="Bjønneset" />
		<tag k="name" v="Bjørnneset" />
		<tag k="natural" v="cape" />
		<tag k="ssr:stedsnr" v="503181" />
	</node>
	<node id="-20196" lat="68.5142166679" lon="15.2348111198">
		<tag k="name" v="Ramnklubben" />
		<tag k="natural" v="cape" />
		<tag k="ssr:stedsnr" v="503180" />
	</node>
	<node id="-22242" lat="68.4572777819" lon="14.8284472146">
		<tag k="name" v="Segelsteinskallen" />
		<tag k="natural" v="shoal" />
		<tag k="place" v="locality" />
		<tag k="ssr:stedsnr" v="642722" />
	</node>
	<node id="-20432" lat="68.5623749998" lon="14.5957166733">
		<tag k="name" v="Naustbåen" />
		<tag k="natural" v="shoal" />
		<tag k="place" v="locality" />
		<tag k="ssr:stedsnr" v="685930" />
	</node>
	<node id="-20188" lat="68.49097778" lon="15.1766722229">
		<tag k="name" v="Nordvikneset" />
		<tag k="natural" v="cape" />
		<tag k="ssr:stedsnr" v="502639" />
	</node>
	<node id="-20187" lat="68.6078527745" lon="14.802730565">
		<tag k="name" v="Vikholmen" />
		<tag k="place" v="islet" />
		<tag k="ssr:stedsnr" v="502596" />
	</node>
	<node id="-20431" lat="68.5777861068" lon="14.7842000018">
		<tag k="name" v="Flatsetvågen" />
		<tag k="natural" v="bay" />
		<tag k="ssr:stedsnr" v="685909" />
	</node>
	<node id="-22231" lat="68.4983750019" lon="14.7627944548">
		<tag k="name" v="Hersandbukta" />
		<tag k="natural" v="bay" />
		<tag k="ssr:stedsnr" v="640743" />
	</node>
	<node id="-19747" lat="68.5034555545" lon="14.4517666621">
		<tag k="alt_name" v="Havbåen, yt" />
		<tag k="name" v="Ytre Havbåen" />
		<tag k="natural" v="shoal" />
		<tag k="place" v="locality" />
		<tag k="ssr:stedsnr" v="260972" />
	</node>
	<node id="-20175" lat="68.3407500048" lon="14.9591027691">
		<tag k="name" v="Vasskråa" />
		<tag k="natural" v="bay" />
		<tag k="ssr:stedsnr" v="502375" />
	</node>
	<node id="-20174" lat="68.4279222248" lon="14.5862194551">
		<tag k="name" v="Jekta" />
		<tag k="natural" v="bay" />
		<tag k="ssr:stedsnr" v="502366" />
	</node>
	<node id="-20173" lat="68.4346111098" lon="14.786344447">
		<tag k="alt_name" v="Hessandneset" />
		<tag k="name" v="Hestsandneset" />
		<tag k="natural" v="cape" />
		<tag k="ssr:stedsnr" v="502357" />
	</node>
	<node id="-20170" lat="68.4405472194" lon="14.7196444356">
		<tag k="fixme" v="multiple name tags, choose one and add the other to alt_name" />
		<tag k="name" v="Holmen;Litlholmen" />
		<tag k="place" v="islet" />
		<tag k="ssr:stedsnr" v="502336" />
	</node>
	<node id="-20169" lat="68.6190472229" lon="15.1783722291">
		<tag k="alt_name" v="Kobbvågen" />
		<tag k="name" v="Kobbogen" />
		<tag k="natural" v="bay" />
		<tag k="ssr:stedsnr" v="502025" />
	</node>
	<node id="-20168" lat="68.6236333324" lon="15.1927500083">
		<tag k="name" v="Fuglneset" />
		<tag k="natural" v="cape" />
		<tag k="ssr:stedsnr" v="502024" />
	</node>
	<node id="-20428" lat="68.5388611132" lon="14.5055916754">
		<tag k="name" v="Jarnsteinskallen" />
		<tag k="natural" v="shoal" />
		<tag k="place" v="locality" />
		<tag k="ssr:stedsnr" v="685892" />
	</node>
	<node id="-20165" lat="68.5411527743" lon="15.0558194487">
		<tag k="name" v="Gjæva" />
		<tag k="place" v="island" />
		<tag k="ssr:stedsnr" v="502096" />
	</node>
	<node id="-22212" lat="68.5182888855" lon="14.5184083281">
		<tag k="name" v="Holmflua" />
		<tag k="natural" v="shoal" />
		<tag k="place" v="locality" />
		<tag k="ssr:stedsnr" v="624941" />
	</node>
	<node id="-22211" lat="68.5705055547" lon="14.8420055474">
		<tag k="fixme" v="multiple name tags, choose one and add the other to alt_name" />
		<tag k="name" v="Bergvikbogen;Bervika;Bervikbugen" />
		<tag k="natural" v="bay" />
		<tag k="ssr:stedsnr" v="624926" />
	</node>
	<node id="-20162" lat="68.612955553" lon="14.7668583344">
		<tag k="alt_name" v="Skjærvøya, store" />
		<tag k="name" v="Store Skjærvøya" />
		<tag k="place" v="island" />
		<tag k="ssr:stedsnr" v="381620" />
	</node>
	<node id="-22206" lat="68.5644527792" lon="14.6145305458">
		<tag k="name" v="Finnsæterneset" />
		<tag k="natural" v="cape" />
		<tag k="ssr:stedsnr" v="624901" />
	</node>
	<node id="-22205" lat="68.5673027787" lon="14.6104861194">
		<tag k="alt_name" v="Furen" />
		<tag k="fixme" v="consider seamark:type=rock or natural=shoal" />
		<tag k="name" v="Furene" />
		<tag k="place" v="islet" />
		<tag k="ssr:stedsnr" v="624900" />
	</node>
	<node id="-22202" lat="68.5421944424" lon="14.6452611213">
		<tag k="alt_name" v="Bjørnklubben" />
		<tag k="name" v="Bjørnklubban" />
		<tag k="natural" v="cape" />
		<tag k="ssr:stedsnr" v="624891" />
	</node>
	<node id="-22200" lat="68.5045305527" lon="14.7290722235">
		<tag k="name" v="Ongstadneset" />
		<tag k="natural" v="cape" />
		<tag k="ssr:stedsnr" v="624962" />
	</node>
	<node id="-22198" lat="68.6566333333" lon="14.8681444446">
		<tag k="name" v="Kvalbaken" />
		<tag k="natural" v="bay" />
		<tag k="ssr:stedsnr" v="624707" />
	</node>
	<node id="-22196" lat="68.5873166627" lon="14.8376694323">
		<tag k="name" v="Kistholmen" />
		<tag k="place" v="islet" />
		<tag k="ssr:stedsnr" v="624565" />
	</node>
	<node id="-20147" lat="68.6602750014" lon="14.9199472163">
		<tag k="name" v="Årlauken" />
		<tag k="natural" v="cape" />
		<tag k="ssr:stedsnr" v="345711" />
	</node>
	<node id="-22191" lat="68.5103638912" lon="15.2795361011">
		<tag k="fixme" v="multiple name tags, choose one and add the other to alt_name" />
		<tag k="name" v="Risholmen;Riskholmen" />
		<tag k="place" v="islet" />
		<tag k="ssr:stedsnr" v="624402" />
	</node>
	<node id="-22187" lat="68.5575222207" lon="15.2116944389">
		<tag k="name" v="Djupbukta" />
		<tag k="natural" v="bay" />
		<tag k="ssr:stedsnr" v="624129" />
	</node>
	<node id="-22185" lat="68.5410361146" lon="15.1891166575">
		<tag k="name" v="Grindvika" />
		<tag k="natural" v="bay" />
		<tag k="ssr:stedsnr" v="624119" />
	</node>
	<node id="-20134" lat="68.4549472184" lon="14.7066305454">
		<tag k="fixme" v="consider seamark:type=rock or natural=shoal" />
		<tag k="name" v="Flesbøen" />
		<tag k="place" v="islet" />
		<tag k="ssr:stedsnr" v="484118" />
	</node>
	<node id="-22181" lat="68.4631055583" lon="15.0768888844">
		<tag k="name" v="Langneset" />
		<tag k="natural" v="cape" />
		<tag k="ssr:stedsnr" v="624055" />
	</node>
	<node id="-22180" lat="68.3385861098" lon="15.0375527773">
		<tag k="name" v="Litlbukta" />
		<tag k="natural" v="bay" />
		<tag k="ssr:stedsnr" v="623958" />
	</node>
	<node id="-20130" lat="68.5585305568" lon="14.9648083319">
		<tag k="name" v="Andvågholmen" />
		<tag k="place" v="islet" />
		<tag k="ssr:stedsnr" v="337480" />
	</node>
	<node id="-22177" lat="68.3974472252" lon="15.0872777752">
		<tag k="name" v="Fallvika" />
		<tag k="natural" v="bay" />
		<tag k="ssr:stedsnr" v="623874" />
	</node>
	<node id="-22176" lat="68.3975638918" lon="15.1190166683">
		<tag k="name" v="Raftvågen" />
		<tag k="natural" v="bay" />
		<tag k="ssr:stedsnr" v="623872" />
	</node>
	<node id="-22172" lat="68.4727333301" lon="15.2836694489">
		<tag k="name" v="Tangen" />
		<tag k="natural" v="cape" />
		<tag k="ssr:stedsnr" v="623757" />
	</node>
	<node id="-20122" lat="68.4340638924" lon="14.7946638818">
		<tag k="name" v="Hessandrevet" />
		<tag k="natural" v="cape" />
		<tag k="ssr:stedsnr" v="480380" />
	</node>
	<node id="-20121" lat="68.434372227" lon="14.8120416557">
		<tag k="name" v="Hellsundbergan" />
		<tag k="natural" v="cape" />
		<tag k="ssr:stedsnr" v="480379" />
	</node>
	<node id="-22168" lat="68.4632583347" lon="15.3227583249">
		<tag k="name" v="Svartskardvika" />
		<tag k="natural" v="bay" />
		<tag k="ssr:stedsnr" v="623714" />
	</node>
	<node id="-22166" lat="68.4900888873" lon="15.242724989">
		<tag k="alt_name" v="Sommarset, l;Litle Sommarset" />
		<tag k="name" v="Lillesommarset" />
		<tag k="natural" v="cape" />
		<tag k="ssr:stedsnr" v="623655" />
	</node>
	<node id="-22165" lat="68.4988833367" lon="15.35960834">
		<tag k="name" v="Langneset" />
		<tag k="natural" v="cape" />
		<tag k="ssr:stedsnr" v="623645" />
	</node>
	<node id="-22161" lat="68.5982250014" lon="14.8356805681">
		<tag k="name" v="Langholmen" />
		<tag k="place" v="islet" />
		<tag k="ssr:stedsnr" v="623594" />
	</node>
	<node id="-22160" lat="68.3607083346" lon="14.9885000101">
		<tag k="fixme" v="consider seamark:type=rock or natural=shoal" />
		<tag k="name" v="Trollfjordskjeret" />
		<tag k="place" v="islet" />
		<tag k="ssr:stedsnr" v="623483" />
	</node>
	<node id="-22159" lat="68.3906916679" lon="14.5867500068">
		<tag k="name" v="Lappneset" />
		<tag k="natural" v="cape" />
		<tag k="ssr:stedsnr" v="623476" />
	</node>
	<node id="-20109" lat="68.6556444485" lon="14.8629472248">
		<tag k="name" v="Kråknesodden" />
		<tag k="natural" v="cape" />
		<tag k="ssr:stedsnr" v="466750" />
	</node>
	<node id="-20108" lat="68.6535805566" lon="14.8494194443">
		<tag k="name" v="Sildgarnklubben" />
		<tag k="natural" v="cape" />
		<tag k="ssr:stedsnr" v="466749" />
	</node>
	<node id="-20107" lat="68.6537694429" lon="14.8422055508">
		<tag k="name" v="Vottnesodden" />
		<tag k="natural" v="cape" />
		<tag k="ssr:stedsnr" v="466748" />
	</node>
	<node id="-22153" lat="68.4404388882" lon="14.7236333259">
		<tag k="name" v="Strønstadvågen" />
		<tag k="natural" v="bay" />
		<tag k="ssr:stedsnr" v="623332" />
	</node>
	<node id="-20104" lat="68.4592111141" lon="15.2010249907">
		<tag k="name" v="Seinesvika" />
		<tag k="natural" v="bay" />
		<tag k="ssr:stedsnr" v="465889" />
	</node>
	<node id="-20103" lat="68.4673250046" lon="15.1947749918">
		<tag k="fixme" v="consider seamark:type=rock or natural=shoal" />
		<tag k="name" v="Flathella" />
		<tag k="place" v="islet" />
		<tag k="ssr:stedsnr" v="465884" />
	</node>
	<node id="-20101" lat="68.4720305579" lon="15.1819472136">
		<tag k="name" v="Hanøyvalen" />
		<tag k="place" v="locality" />
		<tag k="ssr:stedsnr" v="465846" />
	</node>
	<node id="-22145" lat="68.4591694444" lon="15.0015389009">
		<tag k="alt_name" v="Tenndraget;Teindraget" />
		<tag k="fixme" v="consider seamark:type=rock or natural=shoal" />
		<tag k="name" v="Terndraget" />
		<tag k="place" v="islet" />
		<tag k="ssr:stedsnr" v="623201" />
	</node>
	<node id="-22144" lat="68.4499083304" lon="14.955649988">
		<tag k="alt_name" v="Bjønnesvika" />
		<tag k="name" v="Bjørnnesvika" />
		<tag k="natural" v="bay" />
		<tag k="ssr:stedsnr" v="623194" />
	</node>
	<node id="-22143" lat="68.4990500017" lon="14.7227333388">
		<tag k="name" v="Valbukta" />
		<tag k="natural" v="bay" />
		<tag k="ssr:stedsnr" v="623162" />
	</node>
	<node id="-22142" lat="68.5781583326" lon="15.2269166786">
		<tag k="fixme" v="consider seamark:type=rock or natural=shoal" />
		<tag k="name" v="Vesterskjeret" />
		<tag k="place" v="islet" />
		<tag k="ssr:stedsnr" v="623103" />
	</node>
	<node id="-19706" lat="68.4919555579" lon="15.2146611153">
		<tag k="alt_name" v="Vedøy" />
		<tag k="name" v="Vedøya" />
		<tag k="place" v="island" />
		<tag k="ssr:stedsnr" v="260074" />
	</node>
	<node id="-20087" lat="68.5731361125" lon="14.879344435">
		<tag k="name" v="Lappvika" />
		<tag k="natural" v="bay" />
		<tag k="ssr:stedsnr" v="464281" />
	</node>
	<node id="-20085" lat="68.5550805542" lon="14.6156222201">
		<tag k="name" v="Hamna" />
		<tag k="natural" v="bay" />
		<tag k="ssr:stedsnr" v="464185" />
	</node>
	<node id="-20084" lat="68.6730083322" lon="15.0306749929">
		<tag k="name" v="Høyholmen" />
		<tag k="place" v="islet" />
		<tag k="ssr:stedsnr" v="462536" />
	</node>
	<node id="-20083" lat="68.5749916622" lon="14.8255861221">
		<tag k="name" v="Kugrunnen" />
		<tag k="natural" v="shoal" />
		<tag k="place" v="locality" />
		<tag k="ssr:stedsnr" v="461742" />
	</node>
	<node id="-20082" lat="68.4961583375" lon="14.8379277689">
		<tag k="name" v="Kollbeinskallen" />
		<tag k="natural" v="shoal" />
		<tag k="place" v="locality" />
		<tag k="ssr:stedsnr" v="461694" />
	</node>
	<node id="-20081" lat="68.4997416694" lon="14.8148972139">
		<tag k="name" v="Valholmen" />
		<tag k="place" v="islet" />
		<tag k="ssr:stedsnr" v="461693" />
	</node>
	<node id="-20080" lat="68.56388889" lon="15.0024750094">
		<tag k="name" v="Nordre Risøygrunnen" />
		<tag k="natural" v="shoal" />
		<tag k="place" v="locality" />
		<tag k="ssr:stedsnr" v="461692" />
	</node>
	<node id="-20079" lat="68.4822805574" lon="15.2278583344">
		<tag k="name" v="Mefjordgrunnen" />
		<tag k="natural" v="shoal" />
		<tag k="place" v="locality" />
		<tag k="ssr:stedsnr" v="461433" />
	</node>
	<node id="-20078" lat="68.5027527768" lon="15.3075861147">
		<tag k="fixme" v="consider seamark:type=rock or natural=shoal" />
		<tag k="name" v="Kvalbaken" />
		<tag k="place" v="islet" />
		<tag k="ssr:stedsnr" v="461318" />
	</node>
	<node id="-20075" lat="68.5417555569" lon="14.6208722302">
		<tag k="fixme" v="consider seamark:type=rock or natural=shoal" />
		<tag k="name" v="Utbjørgskutan" />
		<tag k="place" v="islet" />
		<tag k="ssr:stedsnr" v="279616" />
	</node>
	<node id="-22121" lat="68.4959833379" lon="14.4639194377">
		<tag k="name" v="Havbåen" />
		<tag k="place" v="locality" />
		<tag k="seamark:type" v="rock" />
		<tag k="ssr:stedsnr" v="586973" />
	</node>
	<node id="-20071" lat="68.5012083324" lon="14.8119555463">
		<tag k="name" v="Jon-Larsaberget" />
		<tag k="natural" v="cape" />
		<tag k="ssr:stedsnr" v="459732" />
	</node>
	<node id="-20070" lat="68.5014499985" lon="14.7173111167">
		<tag k="name" v="Mopollen" />
		<tag k="natural" v="bay" />
		<tag k="ssr:stedsnr" v="459716" />
	</node>
	<node id="-20064" lat="68.5289777756" lon="14.6746388987">
		<tag k="name" v="Sandholmen" />
		<tag k="place" v="islet" />
		<tag k="ssr:stedsnr" v="459275" />
	</node>
	<node id="-22111" lat="68.5825722224" lon="14.6997638997">
		<tag k="name" v="Stranda" />
		<tag k="natural" v="beach" />
		<tag k="place" v="locality" />
		<tag k="ssr:stedsnr" v="585047" />
	</node>
	<node id="-22108" lat="68.5777166637" lon="14.7407277867">
		<tag k="name" v="Sandviknesodden" />
		<tag k="natural" v="cape" />
		<tag k="ssr:stedsnr" v="585015" />
	</node>
	<node id="-22105" lat="68.5686722206" lon="14.6244166614">
		<tag k="name" v="Gregusvika" />
		<tag k="natural" v="bay" />
		<tag k="ssr:stedsnr" v="585156" />
	</node>
	<node id="-22103" lat="68.4964527741" lon="14.4599472116">
		<tag k="name" v="Langfallet" />
		<tag k="natural" v="shoal" />
		<tag k="place" v="locality" />
		<tag k="ssr:stedsnr" v="581929" />
	</node>
	<node id="-22102" lat="68.4793333377" lon="15.0453111123">
		<tag k="name" v="Storskallen" />
		<tag k="natural" v="shoal" />
		<tag k="place" v="locality" />
		<tag k="ssr:stedsnr" v="581780" />
	</node>
	<node id="-20053" lat="68.5761722233" lon="15.2226916665">
		<tag k="name" v="Vestersjyen" />
		<tag k="natural" v="beach" />
		<tag k="place" v="locality" />
		<tag k="ssr:stedsnr" v="458940" />
	</node>
	<node id="-20865" lat="68.44906389" lon="14.901536123">
		<tag k="name" v="Valbukta" />
		<tag k="natural" v="bay" />
		<tag k="ssr:stedsnr" v="928005" />
	</node>
	<node id="-22091" lat="68.5350750002" lon="15.1784972161">
		<tag k="name" v="Sørskagbukta" />
		<tag k="natural" v="bay" />
		<tag k="ssr:stedsnr" v="580218" />
	</node>
	<node id="-20139" lat="68.400013885" lon="14.7077305587">
		<tag k="name" v="Sommarstindodden" />
		<tag k="natural" v="cape" />
		<tag k="ssr:stedsnr" v="484129" />
	</node>
	<node id="-22085" lat="68.5921361078" lon="14.8508111208">
		<tag k="name" v="Skjånesodden" />
		<tag k="natural" v="cape" />
		<tag k="ssr:stedsnr" v="579141" />
	</node>
	<node id="-20034" lat="68.6010972194" lon="14.8290166742">
		<tag k="fixme" v="consider seamark:type=rock or natural=shoal" />
		<tag k="name" v="Svartskjeret" />
		<tag k="place" v="islet" />
		<tag k="ssr:stedsnr" v="458166" />
	</node>
	<node id="-20031" lat="68.5591611071" lon="14.9338472307">
		<tag k="name" v="Hjellberget" />
		<tag k="natural" v="cape" />
		<tag k="ssr:stedsnr" v="458053" />
	</node>
	<node id="-20483" lat="68.5062888922" lon="15.2404527668">
		<tag k="name" v="Bogstrandholmen" />
		<tag k="place" v="islet" />
		<tag k="ssr:stedsnr" v="563402" />
	</node>
	<node id="-20028" lat="68.4853750025" lon="15.1458194418">
		<tag k="name" v="Brottøyvågen" />
		<tag k="natural" v="bay" />
		<tag k="ssr:stedsnr" v="260650" />
	</node>
	<node id="-22074" lat="68.5098361072" lon="14.929113878">
		<tag k="name" v="Sjøneset" />
		<tag k="natural" v="cape" />
		<tag k="ssr:stedsnr" v="564198" />
	</node>
	<node id="-20024" lat="68.4948611147" lon="15.2350027836">
		<tag k="name" v="Helgeneshamn" />
		<tag k="natural" v="bay" />
		<tag k="ssr:stedsnr" v="260644" />
	</node>
	<node id="-20023" lat="68.5682916704" lon="15.0264555553">
		<tag k="name" v="Langsundet" />
		<tag k="natural" v="strait" />
		<tag k="ssr:stedsnr" v="260125" />
	</node>
	<node id="-22070" lat="68.5202277796" lon="14.6577277702">
		<tag k="name" v="Seisteinen" />
		<tag k="natural" v="shoal" />
		<tag k="place" v="locality" />
		<tag k="ssr:stedsnr" v="563990" />
	</node>
	<node id="-22069" lat="68.5175555553" lon="14.9403722202">
		<tag k="name" v="Tangneset" />
		<tag k="natural" v="cape" />
		<tag k="ssr:stedsnr" v="563974" />
	</node>
	<node id="-20019" lat="68.4174083304" lon="14.5235555465">
		<tag k="name" v="Hovden" />
		<tag k="natural" v="shoal" />
		<tag k="place" v="locality" />
		<tag k="ssr:stedsnr" v="259319" />
	</node>
	<node id="-22066" lat="68.5801416655" lon="14.7877861221">
		<tag k="fixme" v="multiple name tags, choose one and add the other to alt_name; consider seamark:type=rock or natural=shoal" />
		<tag k="name" v="Flatsetskjeran;Tennholmen" />
		<tag k="place" v="islet" />
		<tag k="ssr:stedsnr" v="563942" />
	</node>
	<node id="-20017" lat="68.4569916626" lon="14.93472501">
		<tag k="fixme" v="consider seamark:type=rock or natural=shoal" />
		<tag k="name" v="Ternskjeret" />
		<tag k="place" v="islet" />
		<tag k="ssr:stedsnr" v="259168" />
	</node>
	<node id="-20016" lat="68.4522805561" lon="14.9959249956">
		<tag k="alt_name" v="Nipeneset" />
		<tag k="fixme" v="multiple name tags, choose one and add the other to alt_name" />
		<tag k="name" v="Nepparneset;Nippneset" />
		<tag k="natural" v="cape" />
		<tag k="ssr:stedsnr" v="259162" />
	</node>
	<node id="-22063" lat="68.5524222246" lon="14.6169916573">
		<tag k="alt_name" v="Taenneset" />
		<tag k="name" v="Taneset" />
		<tag k="natural" v="cape" />
		<tag k="ssr:stedsnr" v="563910" />
	</node>
	<node id="-22056" lat="68.4610361091" lon="15.2043361189">
		<tag k="name" v="Djuphamn" />
		<tag k="natural" v="bay" />
		<tag k="ssr:stedsnr" v="563730" />
	</node>
	<node id="-22054" lat="68.4652583312" lon="15.1242305431">
		<tag k="name" v="Kvitholmen" />
		<tag k="place" v="islet" />
		<tag k="ssr:stedsnr" v="563716" />
	</node>
	<node id="-22053" lat="68.4852250013" lon="15.0804749996">
		<tag k="name" v="Kvannholman" />
		<tag k="place" v="islet" />
		<tag k="ssr:stedsnr" v="563639" />
	</node>
	<node id="-22052" lat="68.5016166659" lon="15.3258833253">
		<tag k="bay" v="fjord" />
		<tag k="name" v="Lonkanfjorden - Luŋkavuotna" />
		<tag k="name:no" v="Lonkanfjorden" />
		<tag k="name:se" v="Luŋkavuotna" />
		<tag k="natural" v="bay" />
		<tag k="ssr:stedsnr" v="563632" />
	</node>
	<node id="-22051" lat="68.4988611097" lon="15.3315166558">
		<tag k="name" v="Grunnvikklubben" />
		<tag k="natural" v="cape" />
		<tag k="ssr:stedsnr" v="563629" />
	</node>
	<node id="-20002" lat="68.5410249999" lon="14.5935000068">
		<tag k="name" v="Kjeøya" />
		<tag k="place" v="islet" />
		<tag k="ssr:stedsnr" v="443873" />
	</node>
	<node id="-20001" lat="68.5518138883" lon="14.5513805473">
		<tag k="fixme" v="consider seamark:type=rock or natural=shoal" />
		<tag k="name" v="Leiven" />
		<tag k="place" v="islet" />
		<tag k="ssr:stedsnr" v="443868" />
	</node>
	<node id="-22048" lat="68.6127694436" lon="14.7501638899">
		<tag k="fixme" v="consider seamark:type=rock or natural=shoal" />
		<tag k="name" v="Leiskjeret" />
		<tag k="place" v="islet" />
		<tag k="ssr:stedsnr" v="563599" />
	</node>
	<node id="-19999" lat="68.5738888932" lon="14.954591671">
		<tag k="name" v="Klubben" />
		<tag k="natural" v="cape" />
		<tag k="ssr:stedsnr" v="443210" />
	</node>
	<node id="-19998" lat="68.5274416654" lon="14.6568388899">
		<tag k="alt_name" v="Talgskjæran" />
		<tag k="fixme" v="consider seamark:type=rock or natural=shoal" />
		<tag k="name" v="Talgskjeran" />
		<tag k="place" v="islet" />
		<tag k="ssr:stedsnr" v="442987" />
	</node>
	<node id="-19991" lat="68.5573555572" lon="14.9956083308">
		<tag k="name" v="Hadselhamnen" />
		<tag k="natural" v="beach" />
		<tag k="place" v="locality" />
		<tag k="ssr:stedsnr" v="442903" />
	</node>
	<node id="-19988" lat="68.4697833361" lon="15.3086277807">
		<tag k="name" v="Grindøya" />
		<tag k="natural" v="cape" />
		<tag k="ssr:stedsnr" v="442778" />
	</node>
	<node id="-20398" lat="68.3548111119" lon="15.0675361144">
		<tag k="alt_name" v="Tennfjord" />
		<tag k="name" v="Tennfjorden" />
		<tag k="natural" v="bay" />
		<tag k="ssr:stedsnr" v="684884" />
	</node>
	<node id="-19985" lat="68.6583333354" lon="14.8836611098">
		<tag k="alt_name" v="Kvalsøyskrean" />
		<tag k="name" v="Kvalsøykredan" />
		<tag k="place" v="islet" />
		<tag k="ssr:stedsnr" v="442745" />
	</node>
	<node id="-22031" lat="68.4165555561" lon="14.6860749933">
		<tag k="name" v="Kjerksanden" />
		<tag k="natural" v="beach" />
		<tag k="place" v="locality" />
		<tag k="ssr:stedsnr" v="563267" />
	</node>
	<node id="-19980" lat="68.4578583306" lon="15.1899583373">
		<tag k="name" v="Gunnarbåten" />
		<tag k="place" v="islet" />
		<tag k="ssr:stedsnr" v="442701" />
	</node>
	<node id="-19714" lat="68.5331388904" lon="15.1783194392">
		<tag k="name" v="Sørskaga" />
		<tag k="natural" v="cape" />
		<tag k="ssr:stedsnr" v="260417" />
	</node>
	<node id="-19692" lat="68.423172222" lon="15.1492694461">
		<tag k="name" v="Tengelfjordholmen" />
		<tag k="place" v="islet" />
		<tag k="ssr:stedsnr" v="259780" />
	</node>
	<node id="-19974" lat="68.6377388867" lon="14.7626333226">
		<tag k="name" v="Lyngøyfallet" />
		<tag k="natural" v="shoal" />
		<tag k="place" v="locality" />
		<tag k="ssr:stedsnr" v="442552" />
	</node>
	<node id="-22019" lat="68.3946666648" lon="14.8960944364">
		<tag k="name" v="Storvikneset" />
		<tag k="natural" v="cape" />
		<tag k="ssr:stedsnr" v="563059" />
	</node>
	<node id="-22018" lat="68.4952527792" lon="15.2303138824">
		<tag k="name" v="Hamnneset" />
		<tag k="natural" v="cape" />
		<tag k="ssr:stedsnr" v="563036" />
	</node>
	<node id="-19968" lat="68.5240277814" lon="15.2335805661">
		<tag k="bay" v="fjord" />
		<tag k="name" v="Hanøyvika" />
		<tag k="natural" v="bay" />
		<tag k="ssr:stedsnr" v="442405" />
	</node>
	<node id="-22015" lat="68.3402027799" lon="15.0183361025">
		<tag k="name" v="Skipholmen" />
		<tag k="place" v="islet" />
		<tag k="ssr:stedsnr" v="562991" />
	</node>
	<node id="-19964" lat="68.4288091735" lon="14.861970161">
		<tag k="name" v="Årnøya" />
		<tag k="place" v="island" />
		<tag k="ssr:stedsnr" v="442358" />
	</node>
	<node id="-20394" lat="68.4629749981" lon="15.0692277724">
		<tag k="name" v="Myrlandstranda" />
		<tag k="natural" v="beach" />
		<tag k="place" v="locality" />
		<tag k="ssr:stedsnr" v="684680" />
	</node>
	<node id="-22010" lat="68.4682555546" lon="15.3314444486">
		<tag k="bay" v="fjord" />
		<tag k="name" v="Ytterfjorden" />
		<tag k="natural" v="bay" />
		<tag k="ssr:stedsnr" v="562728" />
	</node>
	<node id="-22009" lat="68.4705722218" lon="15.317744443">
		<tag k="name" v="Strandneset" />
		<tag k="natural" v="cape" />
		<tag k="ssr:stedsnr" v="562727" />
	</node>
	<node id="-22008" lat="68.4680222234" lon="15.2506166714">
		<tag k="name" v="Storåneset" />
		<tag k="natural" v="cape" />
		<tag k="ssr:stedsnr" v="562721" />
	</node>
	<node id="-22007" lat="68.4691555512" lon="15.2081694475">
		<tag k="name" v="Bjørnholmen" />
		<tag k="place" v="islet" />
		<tag k="ssr:stedsnr" v="562709" />
	</node>
	<node id="-22006" lat="68.4702166711" lon="15.1799472171">
		<tag k="name" v="Hanøyvågen" />
		<tag k="natural" v="bay" />
		<tag k="ssr:stedsnr" v="562707" />
	</node>
	<node id="-19956" lat="68.3763444404" lon="15.0044027735">
		<tag k="bay" v="fjord" />
		<tag k="name" v="Grunnfjorden" />
		<tag k="natural" v="bay" />
		<tag k="ssr:stedsnr" v="442082" />
	</node>
	<node id="-19952" lat="68.3498444405" lon="15.0290638881">
		<tag k="alt_name" v="Gårdsholmen" />
		<tag k="name" v="Ulvøyholmen" />
		<tag k="place" v="islet" />
		<tag k="ssr:stedsnr" v="441892" />
	</node>
	<node id="-19950" lat="68.4756972202" lon="15.2866055504">
		<tag k="name" v="Slåttneset" />
		<tag k="natural" v="cape" />
		<tag k="ssr:stedsnr" v="441660" />
	</node>
	<node id="-19949" lat="68.4877999986" lon="15.2025416743">
		<tag k="name" v="Vitjet" />
		<tag k="natural" v="strait" />
		<tag k="ssr:stedsnr" v="441651" />
	</node>
	<node id="-21995" lat="68.4159638871" lon="14.5343555624">
		<tag k="name" v="Basaneset" />
		<tag k="natural" v="cape" />
		<tag k="ssr:stedsnr" v="562339" />
	</node>
	<node id="-19945" lat="68.5999500041" lon="14.843919454">
		<tag k="alt_name" v="Lotran" />
		<tag k="fixme" v="consider seamark:type=rock or natural=shoal" />
		<tag k="name" v="Låtran" />
		<tag k="place" v="islet" />
		<tag k="ssr:stedsnr" v="441607" />
	</node>
	<node id="-21992" lat="68.4311750015" lon="14.7038666581">
		<tag k="name" v="Mila" />
		<tag k="natural" v="cape" />
		<tag k="ssr:stedsnr" v="562308" />
	</node>
	<node id="-21991" lat="68.4351749987" lon="14.6041999954">
		<tag k="name" v="Korsodden" />
		<tag k="natural" v="cape" />
		<tag k="ssr:stedsnr" v="562292" />
	</node>
	<node id="-19942" lat="68.4384027747" lon="14.7914777734">
		<tag k="alt_name" v="Røyrholmen" />
		<tag k="name" v="Rørholmen" />
		<tag k="place" v="islet" />
		<tag k="ssr:stedsnr" v="441344" />
	</node>
	<node id="-19940" lat="68.4481305553" lon="14.9299666676">
		<tag k="name" v="Ivarsholmen" />
		<tag k="natural" v="cape" />
		<tag k="ssr:stedsnr" v="441338" />
	</node>
	<node id="-19939" lat="68.4485416692" lon="14.9860944567">
		<tag k="alt_name" v="Tjonken" />
		<tag k="name" v="Tjunken" />
		<tag k="place" v="islet" />
		<tag k="ssr:stedsnr" v="441334" />
	</node>
	<node id="-21986" lat="68.3986944402" lon="14.8464444517">
		<tag k="name" v="Brettvikholmen" />
		<tag k="place" v="islet" />
		<tag k="ssr:stedsnr" v="562259" />
	</node>
	<node id="-19937" lat="68.4002055558" lon="14.829999996">
		<tag k="name" v="Jenslibukta" />
		<tag k="natural" v="bay" />
		<tag k="ssr:stedsnr" v="441272" />
	</node>
	<node id="-19935" lat="68.455138888" lon="14.7128277872">
		<tag k="fixme" v="multiple name tags, choose one and add the other to alt_name" />
		<tag k="name" v="Flesa;Stor Flesa" />
		<tag k="place" v="islet" />
		<tag k="ssr:stedsnr" v="441183" />
	</node>
	<node id="-21982" lat="68.3651583322" lon="15.0423638925">
		<tag k="name" v="Øyneset" />
		<tag k="natural" v="cape" />
		<tag k="ssr:stedsnr" v="562882" />
	</node>
	<node id="-19933" lat="68.4959416647" lon="14.896672217">
		<tag k="name" v="Vassvikflua" />
		<tag k="place" v="locality" />
		<tag k="seamark:type" v="rock" />
		<tag k="ssr:stedsnr" v="441165" />
	</node>
	<node id="-21980" lat="68.4583583372" lon="14.9006249962">
		<tag k="name" v="Korsneset" />
		<tag k="natural" v="cape" />
		<tag k="ssr:stedsnr" v="562145" />
	</node>
	<node id="-19931" lat="68.4789444429" lon="15.0000000097">
		<tag k="name" v="Hoholmen" />
		<tag k="place" v="islet" />
		<tag k="ssr:stedsnr" v="441156" />
	</node>
	<node id="-19929" lat="68.3357972228" lon="14.9574250008">
		<tag k="name" v="Braksetsteinen" />
		<tag k="place" v="locality" />
		<tag k="seamark:type" v="rock" />
		<tag k="ssr:stedsnr" v="218404" />
	</node>
	<node id="-19928" lat="68.5636166656" lon="15.207938882">
		<tag k="name" v="Møllenbogen" />
		<tag k="natural" v="bay" />
		<tag k="ssr:stedsnr" v="218318" />
	</node>
	<node id="-21974" lat="68.4554944413" lon="14.9253083283">
		<tag k="name" v="Vedøygrunnen" />
		<tag k="natural" v="shoal" />
		<tag k="place" v="locality" />
		<tag k="ssr:stedsnr" v="541437" />
	</node>
	<node id="-21972" lat="68.4158722245" lon="14.870558332">
		<tag k="name" v="Vassvika" />
		<tag k="natural" v="bay" />
		<tag k="ssr:stedsnr" v="541381" />
	</node>
	<node id="-21963" lat="68.6162722236" lon="14.8331555621">
		<tag k="name" v="Draget" />
		<tag k="natural" v="cape" />
		<tag k="ssr:stedsnr" v="527701" />
	</node>
	<node id="-21958" lat="68.6185027757" lon="14.8592638866">
		<tag k="name" v="Julnatta" />
		<tag k="natural" v="beach" />
		<tag k="place" v="locality" />
		<tag k="ssr:stedsnr" v="527276" />
	</node>
	<node id="-21957" lat="68.6290972248" lon="14.81493612">
		<tag k="name" v="Vardviksjøen" />
		<tag k="natural" v="bay" />
		<tag k="ssr:stedsnr" v="527271" />
	</node>
	<node id="-19702" lat="68.6150472248" lon="15.1761555573">
		<tag k="alt_name" v="Breidneset" />
		<tag k="name" v="Breineset" />
		<tag k="natural" v="cape" />
		<tag k="ssr:stedsnr" v="260021" />
	</node>
	<node id="-19900" lat="68.4226055573" lon="14.8576805538">
		<tag k="name" v="Storvika" />
		<tag k="natural" v="bay" />
		<tag k="ssr:stedsnr" v="298325" />
	</node>
	<node id="-19898" lat="68.5107499993" lon="14.6484694533">
		<tag k="name" v="Øydragan" />
		<tag k="place" v="islet" />
		<tag k="ssr:stedsnr" v="200962" />
	</node>
	<node id="-21943" lat="68.5838333312" lon="14.6650472336">
		<tag k="name" v="Skjellvika" />
		<tag k="natural" v="bay" />
		<tag k="ssr:stedsnr" v="525101" />
	</node>
	<node id="-19893" lat="68.5337138917" lon="14.6690972348">
		<tag k="name" v="Langneset" />
		<tag k="natural" v="cape" />
		<tag k="ssr:stedsnr" v="200204" />
	</node>
	<node id="-19892" lat="68.495200001" lon="14.7285694374">
		<tag k="name" v="Haugøya" />
		<tag k="place" v="island" />
		<tag k="ssr:stedsnr" v="200005" />
	</node>
	<node id="-19891" lat="68.4471527757" lon="15.2005500062">
		<tag k="name" v="Olavika" />
		<tag k="natural" v="bay" />
		<tag k="ssr:stedsnr" v="199813" />
	</node>
	<node id="-19888" lat="68.4713611127" lon="15.1952500097">
		<tag k="name" v="Trollholmen" />
		<tag k="place" v="islet" />
		<tag k="ssr:stedsnr" v="199745" />
	</node>
	<node id="-21935" lat="68.5401916621" lon="15.0049972275">
		<tag k="name" v="Klokkergrunnen" />
		<tag k="natural" v="shoal" />
		<tag k="place" v="locality" />
		<tag k="ssr:stedsnr" v="521663" />
	</node>
	<node id="-19884" lat="68.4868416652" lon="15.1513250015">
		<tag k="name" v="Bukkhamnodden" />
		<tag k="natural" v="cape" />
		<tag k="ssr:stedsnr" v="199652" />
	</node>
	<node id="-19883" lat="68.6144583289" lon="14.8677166718">
		<tag k="name" v="Litlårnesan" />
		<tag k="natural" v="cape" />
		<tag k="ssr:stedsnr" v="199640" />
	</node>
	<node id="-19880" lat="68.4318972231" lon="14.6772138808">
		<tag k="name" v="Avløysa" />
		<tag k="place" v="islet" />
		<tag k="ssr:stedsnr" v="199327" />
	</node>
	<node id="-21926" lat="68.5764722226" lon="15.2831111194">
		<tag k="fixme" v="consider seamark:type=rock or natural=shoal" />
		<tag k="name" v="Kufisksteinen" />
		<tag k="place" v="islet" />
		<tag k="ssr:stedsnr" v="519937" />
	</node>
	<node id="-21925" lat="68.5713222194" lon="15.3095472294">
		<tag k="name" v="Stornesbukta" />
		<tag k="natural" v="bay" />
		<tag k="ssr:stedsnr" v="519924" />
	</node>
	<node id="-19872" lat="68.6182416707" lon="15.2038166571">
		<tag k="fixme" v="consider seamark:type=rock or natural=shoal" />
		<tag k="name" v="Kvalbaken" />
		<tag k="place" v="islet" />
		<tag k="ssr:stedsnr" v="337761" />
	</node>
	<node id="-20378" lat="68.4667916673" lon="15.2068777769">
		<tag k="name" v="Gunnarskjåen" />
		<tag k="place" v="islet" />
		<tag k="ssr:stedsnr" v="684734" />
	</node>
	<node id="-19865" lat="68.5141416652" lon="14.5130277671">
		<tag k="name" v="Ulvøyholman" />
		<tag k="place" v="islet" />
		<tag k="ssr:stedsnr" v="181373" />
	</node>
	<node id="-19860" lat="68.4649388927" lon="15.1406083418">
		<tag k="name" v="Ytterbukta" />
		<tag k="natural" v="bay" />
		<tag k="ssr:stedsnr" v="283989" />
	</node>
	<node id="-21907" lat="68.4555027805" lon="14.8794083307">
		<tag k="name" v="Jomfrusundet" />
		<tag k="natural" v="strait" />
		<tag k="ssr:stedsnr" v="420454" />
	</node>
	<node id="-20376" lat="68.4733111081" lon="15.1367777681">
		<tag k="name" v="Andholmen" />
		<tag k="place" v="islet" />
		<tag k="ssr:stedsnr" v="684727" />
	</node>
	<node id="-21897" lat="68.633613892" lon="14.7882888898">
		<tag k="name" v="Slåttvika" />
		<tag k="natural" v="bay" />
		<tag k="ssr:stedsnr" v="406743" />
	</node>
	<node id="-19848" lat="68.5052027751" lon="15.2277972116">
		<tag k="name" v="Vollneset" />
		<tag k="natural" v="cape" />
		<tag k="ssr:stedsnr" v="283801" />
	</node>
	<node id="-19847" lat="68.4141138913" lon="14.5362694438">
		<tag k="name" v="Bukkerønna" />
		<tag k="natural" v="cape" />
		<tag k="ssr:stedsnr" v="283753" />
	</node>
	<node id="-21893" lat="68.4670944405" lon="15.2703833385">
		<tag k="name" v="Melkarvika" />
		<tag k="natural" v="bay" />
		<tag k="ssr:stedsnr" v="404848" />
	</node>
	<node id="-21892" lat="68.4670833349" lon="15.2658888806">
		<tag k="name" v="Stegneset" />
		<tag k="natural" v="cape" />
		<tag k="ssr:stedsnr" v="404842" />
	</node>
	<node id="-20374" lat="68.4351999993" lon="14.6068583344">
		<tag k="name" v="Korset" />
		<tag k="natural" v="cape" />
		<tag k="ssr:stedsnr" v="509674" />
	</node>
	<node id="-21890" lat="68.4815583352" lon="15.2032277677">
		<tag k="name" v="Kufeskvika" />
		<tag k="natural" v="bay" />
		<tag k="ssr:stedsnr" v="404828" />
	</node>
	<node id="-21887" lat="68.6689083359" lon="14.9708333386">
		<tag k="name" v="Lilleodden" />
		<tag k="natural" v="cape" />
		<tag k="ssr:stedsnr" v="404532" />
	</node>
	<node id="-19838" lat="68.5677694473" lon="14.8432999906">
		<tag k="name" v="Bergvikstranden" />
		<tag k="natural" v="beach" />
		<tag k="place" v="locality" />
		<tag k="ssr:stedsnr" v="283243" />
	</node>
	<node id="-19837" lat="68.4342944438" lon="14.6104805442">
		<tag k="name" v="Langstranda" />
		<tag k="natural" v="beach" />
		<tag k="place" v="locality" />
		<tag k="ssr:stedsnr" v="283190" />
	</node>
	<node id="-21881" lat="68.5512388904" lon="14.613311103">
		<tag k="name" v="Tanesodden" />
		<tag k="natural" v="cape" />
		<tag k="ssr:stedsnr" v="404178" />
	</node>
	<node id="-21879" lat="68.5029888926" lon="14.6695472208">
		<tag k="name" v="Storkleholmen" />
		<tag k="place" v="islet" />
		<tag k="ssr:stedsnr" v="403082" />
	</node>
	<node id="-19830" lat="68.5183972263" lon="15.2471638858">
		<tag k="name" v="Sørholmen" />
		<tag k="place" v="islet" />
		<tag k="ssr:stedsnr" v="283038" />
	</node>
	<node id="-21875" lat="68.500497219" lon="15.1634222192">
		<tag k="name" v="Båen" />
		<tag k="natural" v="shoal" />
		<tag k="place" v="locality" />
		<tag k="ssr:stedsnr" v="401293" />
	</node>
	<node id="-21874" lat="68.6261583344" lon="14.7871055548">
		<tag k="name" v="Meneln" />
		<tag k="natural" v="shoal" />
		<tag k="place" v="locality" />
		<tag k="ssr:stedsnr" v="400694" />
	</node>
	<node id="-21873" lat="68.4162833324" lon="15.1288111163">
		<tag k="name" v="Vassneset" />
		<tag k="natural" v="cape" />
		<tag k="ssr:stedsnr" v="400451" />
	</node>
	<node id="-21872" lat="68.4825444427" lon="15.2102472178">
		<tag k="fixme" v="consider seamark:type=rock or natural=shoal" />
		<tag k="name" v="Tennskjeret" />
		<tag k="place" v="islet" />
		<tag k="ssr:stedsnr" v="400446" />
	</node>
	<node id="-21871" lat="68.4995277752" lon="15.3011111143">
		<tag k="name" v="Svartdalsneset" />
		<tag k="natural" v="cape" />
		<tag k="ssr:stedsnr" v="400392" />
	</node>
	<node id="-21870" lat="68.3395194446" lon="15.0442805506">
		<tag k="name" v="Finnkjerksanden" />
		<tag k="natural" v="bay" />
		<tag k="ssr:stedsnr" v="400237" />
	</node>
	<node id="-20573" lat="68.4617777815" lon="15.0170361236">
		<tag k="fixme" v="consider seamark:type=rock or natural=shoal" />
		<tag k="name" v="Bryggsteinen" />
		<tag k="place" v="islet" />
		<tag k="ssr:stedsnr" v="601599" />
	</node>
	<node id="-19959" lat="68.5887694405" lon="15.060208324">
		<tag k="name" v="Skagbukta" />
		<tag k="natural" v="bay" />
		<tag k="ssr:stedsnr" v="442104" />
	</node>
	<node id="-20026" lat="68.6731611069" lon="14.993322226">
		<tag k="name" v="Stretarneset" />
		<tag k="natural" v="cape" />
		<tag k="ssr:stedsnr" v="260646" />
	</node>
	<node id="-21848" lat="68.5107583351" lon="14.7241638856">
		<tag k="name" v="Gårdsholmen" />
		<tag k="natural" v="cape" />
		<tag k="ssr:stedsnr" v="397714" />
	</node>
	<node id="-19798" lat="68.4095555551" lon="15.1197611103">
		<tag k="name" v="Trangstrømmen" />
		<tag k="natural" v="strait" />
		<tag k="ssr:stedsnr" v="279389" />
	</node>
	<node id="-19797" lat="68.5200638904" lon="15.2600527744">
		<tag k="name" v="Lonkanneset" />
		<tag k="natural" v="cape" />
		<tag k="ssr:stedsnr" v="279315" />
	</node>
	<node id="-19796" lat="68.5041944423" lon="14.6962333401">
		<tag k="name" v="Nikodemusflua" />
		<tag k="place" v="locality" />
		<tag k="seamark:type" v="rock" />
		<tag k="ssr:stedsnr" v="278943" />
	</node>
	<node id="-19794" lat="68.4954055571" lon="15.3545888999">
		<tag k="name" v="Sørbotn" />
		<tag k="natural" v="bay" />
		<tag k="ssr:stedsnr" v="278433" />
	</node>
	<node id="-21840" lat="68.6043388853" lon="14.8733333403">
		<tag k="name" v="Tjønneset" />
		<tag k="natural" v="cape" />
		<tag k="ssr:stedsnr" v="397167" />
	</node>
	<node id="-21837" lat="68.571061108" lon="14.9208222124">
		<tag k="name" v="Badebukta" />
		<tag k="natural" v="bay" />
		<tag k="ssr:stedsnr" v="397113" />
	</node>
	<node id="-19787" lat="68.5703611086" lon="14.9109361189">
		<tag k="fixme" v="multiple name tags, choose one and add the other to alt_name" />
		<tag k="name" v="Bukkholmen;Nordnes" />
		<tag k="natural" v="cape" />
		<tag k="ssr:stedsnr" v="155108" />
	</node>
	<node id="-19786" lat="68.5721222263" lon="14.8845083362">
		<tag k="name" v="Tømmervikodden" />
		<tag k="natural" v="cape" />
		<tag k="ssr:stedsnr" v="155104" />
	</node>
	<node id="-19783" lat="68.5457972179" lon="15.1905194534">
		<tag k="fixme" v="consider seamark:type=rock or natural=shoal" />
		<tag k="name" v="Påløya" />
		<tag k="place" v="islet" />
		<tag k="ssr:stedsnr" v="277235" />
	</node>
	<node id="-20022" lat="68.4738250042" lon="15.1899222288">
		<tag k="name" v="Hanøya" />
		<tag k="natural" v="cape" />
		<tag k="ssr:stedsnr" v="259724" />
	</node>
	<node id="-21826" lat="68.574447226" lon="15.2993666582">
		<tag k="name" v="Storneset" />
		<tag k="natural" v="cape" />
		<tag k="ssr:stedsnr" v="382206" />
	</node>
	<node id="-19773" lat="68.5959333362" lon="14.8451416752">
		<tag k="name" v="Solskinnsvika" />
		<tag k="natural" v="bay" />
		<tag k="ssr:stedsnr" v="276178" />
	</node>
	<node id="-21819" lat="68.561911109" lon="14.9116194553">
		<tag k="name" v="Sykehusbukta" />
		<tag k="natural" v="bay" />
		<tag k="ssr:stedsnr" v="381937" />
	</node>
	<node id="-21818" lat="68.3730916702" lon="15.0490916765">
		<tag k="name" v="Halsklubben" />
		<tag k="natural" v="cape" />
		<tag k="ssr:stedsnr" v="381935" />
	</node>
	<node id="-21817" lat="68.5699750016" lon="14.6076805665">
		<tag k="name" v="Furbåen" />
		<tag k="natural" v="shoal" />
		<tag k="place" v="locality" />
		<tag k="ssr:stedsnr" v="381929" />
	</node>
	<node id="-19768" lat="68.3627500001" lon="14.9894527681">
		<tag k="name" v="Trollfjordneset" />
		<tag k="natural" v="cape" />
		<tag k="ssr:stedsnr" v="137463" />
	</node>
	<node id="-21815" lat="68.5588166641" lon="14.9730361042">
		<tag k="name" v="Hestøya" />
		<tag k="place" v="islet" />
		<tag k="ssr:stedsnr" v="381906" />
	</node>
	<node id="-19766" lat="68.496313893" lon="14.7575527672">
		<tag k="fixme" v="multiple name tags, choose one and add the other to alt_name" />
		<tag k="name" v="Indre Haugnesodden;Ytrehaugnesan" />
		<tag k="natural" v="cape" />
		<tag k="ssr:stedsnr" v="137130" />
	</node>
	<node id="-19764" lat="68.4944194482" lon="14.8225916794">
		<tag k="name" v="Nonsholman" />
		<tag k="place" v="islet" />
		<tag k="ssr:stedsnr" v="137126" />
	</node>
	<node id="-19763" lat="68.4662472204" lon="14.9531999876">
		<tag k="alt_name" v="Røropskjeret" />
		<tag k="fixme" v="consider seamark:type=rock or natural=shoal" />
		<tag k="name" v="Røroppskjeret" />
		<tag k="place" v="islet" />
		<tag k="ssr:stedsnr" v="137122" />
	</node>
	<node id="-19762" lat="68.533636112" lon="14.5071138807">
		<tag k="name" v="Holken" />
		<tag k="place" v="islet" />
		<tag k="ssr:stedsnr" v="261980" />
	</node>
	<node id="-19758" lat="68.4330361088" lon="14.8564194412">
		<tag k="fixme" v="consider seamark:type=rock or natural=shoal" />
		<tag k="name" v="Segelskjeran" />
		<tag k="place" v="islet" />
		<tag k="ssr:stedsnr" v="116346" />
	</node>
	<node id="-21804" lat="68.4665527748" lon="15.3223833435">
		<tag k="name" v="Kalvøya" />
		<tag k="place" v="islet" />
		<tag k="ssr:stedsnr" v="381784" />
	</node>
	<node id="-20018" lat="68.4268333342" lon="14.5158333424">
		<tag k="name" v="Barsgrunnen" />
		<tag k="natural" v="shoal" />
		<tag k="place" v="locality" />
		<tag k="ssr:stedsnr" v="259317" />
	</node>
	<node id="-21802" lat="68.4681416678" lon="15.2179000084">
		<tag k="name" v="Sørvika" />
		<tag k="natural" v="bay" />
		<tag k="ssr:stedsnr" v="381777" />
	</node>
	<node id="-19753" lat="68.5492527765" lon="15.0005638802">
		<tag k="name" v="Hadselsjøen" />
		<tag k="natural" v="beach" />
		<tag k="place" v="locality" />
		<tag k="ssr:stedsnr" v="261853" />
	</node>
	<node id="-21799" lat="68.5823972178" lon="14.659400003">
		<tag k="name" v="Klubben" />
		<tag k="place" v="islet" />
		<tag k="ssr:stedsnr" v="381589" />
	</node>
	<node id="-21797" lat="68.5806083371" lon="14.7054111149">
		<tag k="alt_name" v="Breidvika, yt;Ytre Breidvika" />
		<tag k="name" v="Ytter Breivika" />
		<tag k="natural" v="bay" />
		<tag k="ssr:stedsnr" v="381569" />
	</node>
	<node id="-21796" lat="68.5787361073" lon="14.7279638877">
		<tag k="alt_name" v="Breidvika, in;Indre Breidvika" />
		<tag k="name" v="Inner Breivika" />
		<tag k="natural" v="bay" />
		<tag k="ssr:stedsnr" v="381567" />
	</node>
	<node id="-21795" lat="68.5864055565" lon="14.8684500008">
		<tag k="name" v="Finnholmen" />
		<tag k="place" v="islet" />
		<tag k="ssr:stedsnr" v="381557" />
	</node>
	<node id="-21794" lat="68.6358138847" lon="14.7843583289">
		<tag k="alt_name" v="Skogholmen" />
		<tag k="name" v="Skagholmen" />
		<tag k="place" v="islet" />
		<tag k="ssr:stedsnr" v="381535" />
	</node>
	<node id="-19745" lat="68.5140749979" lon="14.5139611125">
		<tag k="alt_name" v="Ulvøyholman, l" />
		<tag k="name" v="Litle Ulvøyholman" />
		<tag k="place" v="islet" />
		<tag k="ssr:stedsnr" v="260964" />
	</node>
	<node id="-19743" lat="68.5636472206" lon="14.6156722167">
		<tag k="name" v="Lenvika" />
		<tag k="natural" v="bay" />
		<tag k="ssr:stedsnr" v="260960" />
	</node>
	<node id="-21790" lat="68.3378138925" lon="14.9616194503">
		<tag k="name" v="Braksetholmen" />
		<tag k="place" v="islet" />
		<tag k="ssr:stedsnr" v="381421" />
	</node>
	<node id="-19741" lat="68.5816833336" lon="14.9252277857">
		<tag k="name" v="Hovsrevet" />
		<tag k="natural" v="shoal" />
		<tag k="place" v="locality" />
		<tag k="ssr:stedsnr" v="260953" />
	</node>
	<node id="-21788" lat="68.5138416711" lon="15.280702776">
		<tag k="name" v="Purkholmen" />
		<tag k="place" v="islet" />
		<tag k="ssr:stedsnr" v="381402" />
	</node>
	<node id="-19739" lat="68.5792000014" lon="14.7949083311">
		<tag k="name" v="Silsanden" />
		<tag k="natural" v="cape" />
		<tag k="ssr:stedsnr" v="260947" />
	</node>
	<node id="-21786" lat="68.5362916642" lon="15.1780305487">
		<tag k="alt_name" v="Hennesskaga" />
		<tag k="name" v="Nordskaga" />
		<tag k="natural" v="cape" />
		<tag k="ssr:stedsnr" v="381395" />
	</node>
	<node id="-20356" lat="68.3792916651" lon="14.5792722129">
		<tag k="name" v="Mølnbukta" />
		<tag k="natural" v="bay" />
		<tag k="ssr:stedsnr" v="684437" />
	</node>
	<node id="-19734" lat="68.5608138882" lon="14.9284166733">
		<tag k="alt_name" v="Børøya, l;Litle Børøya" />
		<tag k="name" v="Lillebørøya" />
		<tag k="place" v="islet" />
		<tag k="ssr:stedsnr" v="260923" />
	</node>
	<node id="-21781" lat="68.520883332" lon="15.2509583291">
		<tag k="name" v="Nordholmen" />
		<tag k="place" v="islet" />
		<tag k="ssr:stedsnr" v="381384" />
	</node>
	<node id="-20843" lat="68.465091669" lon="15.3563777679">
		<tag k="name" v="Austneset" />
		<tag k="natural" v="cape" />
		<tag k="ssr:stedsnr" v="927704" />
	</node>
	<node id="-19725" lat="68.4648361146" lon="15.3161500097">
		<tag k="name" v="Finnen" />
		<tag k="natural" v="cape" />
		<tag k="ssr:stedsnr" v="260726" />
	</node>
	<node id="-19723" lat="68.5874249999" lon="14.695527784">
		<tag k="alt_name" v="Dragneset" />
		<tag k="name" v="Dragnesodden" />
		<tag k="natural" v="cape" />
		<tag k="ssr:stedsnr" v="260600" />
	</node>
	<node id="-19722" lat="68.5903055589" lon="14.8148416654">
		<tag k="name" v="Øyskallan" />
		<tag k="natural" v="shoal" />
		<tag k="place" v="locality" />
		<tag k="ssr:stedsnr" v="260588" />
	</node>
	<node id="-19721" lat="68.5834166677" lon="14.8953833382">
		<tag k="name" v="Sandholmen" />
		<tag k="place" v="islet" />
		<tag k="ssr:stedsnr" v="260583" />
	</node>
	<node id="-19720" lat="68.6420888865" lon="14.7967222282">
		<tag k="alt_name" v="Sjurdsholmen;Sjurholmen" />
		<tag k="name" v="Sjursholmen" />
		<tag k="place" v="islet" />
		<tag k="ssr:stedsnr" v="260572" />
	</node>
	<node id="-19718" lat="68.6345555525" lon="14.8126277873">
		<tag k="name" v="Fleinnesvika" />
		<tag k="natural" v="bay" />
		<tag k="ssr:stedsnr" v="260562" />
	</node>
	<node id="-21765" lat="68.613247218" lon="15.1407500071">
		<tag k="name" v="Gryttingsbukta" />
		<tag k="natural" v="bay" />
		<tag k="ssr:stedsnr" v="381005" />
	</node>
	<node id="-21762" lat="68.4304611093" lon="15.1519055527">
		<tag k="name" v="Nordholmen" />
		<tag k="place" v="islet" />
		<tag k="ssr:stedsnr" v="380803" />
	</node>
	<node id="-21761" lat="68.434325003" lon="15.1658694543">
		<tag k="name" v="Åsneset" />
		<tag k="natural" v="cape" />
		<tag k="ssr:stedsnr" v="380802" />
	</node>
	<node id="-19712" lat="68.5292527775" lon="15.1579027724">
		<tag k="name" v="Skagskallen" />
		<tag k="natural" v="shoal" />
		<tag k="place" v="locality" />
		<tag k="ssr:stedsnr" v="260414" />
	</node>
	<node id="-21757" lat="68.4849333321" lon="15.2086583299">
		<tag k="alt_name" v="Vitjøya" />
		<tag k="name" v="Vitjholmen" />
		<tag k="place" v="islet" />
		<tag k="ssr:stedsnr" v="380680" />
	</node>
	<node id="-19707" lat="68.6020388931" lon="15.0971861053">
		<tag k="alt_name" v="Dranglan" />
		<tag k="name" v="Dranglen" />
		<tag k="natural" v="cape" />
		<tag k="ssr:stedsnr" v="260078" />
	</node>
	<node id="-21754" lat="68.6056111136" lon="14.8533277839">
		<tag k="alt_name" v="Årnesan" />
		<tag k="name" v="Årneset" />
		<tag k="natural" v="cape" />
		<tag k="ssr:stedsnr" v="380649" />
	</node>
	<node id="-21753" lat="68.6028499995" lon="14.8451416616">
		<tag k="fixme" v="consider seamark:type=rock or natural=shoal" />
		<tag k="name" v="Gjøvikskjeran" />
		<tag k="place" v="islet" />
		<tag k="ssr:stedsnr" v="380645" />
	</node>
	<node id="-21751" lat="68.3603916627" lon="15.0278472111">
		<tag k="name" v="Ulvøya" />
		<tag k="place" v="island" />
		<tag k="ssr:stedsnr" v="380405" />
	</node>
	<node id="-21750" lat="68.447319442" lon="14.8088138996">
		<tag k="name" v="Grøttøya" />
		<tag k="place" v="island" />
		<tag k="ssr:stedsnr" v="380355" />
	</node>
	<node id="-21747" lat="68.4351944484" lon="14.7571500083">
		<tag k="name" v="Storvikneset" />
		<tag k="natural" v="cape" />
		<tag k="ssr:stedsnr" v="380318" />
	</node>
	<node id="-21746" lat="68.4323249957" lon="14.5974722319">
		<tag k="alt_name" v="Føllvika" />
		<tag k="name" v="Følvika" />
		<tag k="natural" v="bay" />
		<tag k="ssr:stedsnr" v="380312" />
	</node>
	<node id="-21745" lat="68.4358750033" lon="14.7238722213">
		<tag k="name" v="Vågen" />
		<tag k="natural" v="bay" />
		<tag k="ssr:stedsnr" v="380310" />
	</node>
	<node id="-19696" lat="68.3585583305" lon="15.03884723">
		<tag k="name" v="Sandbogen" />
		<tag k="natural" v="bay" />
		<tag k="ssr:stedsnr" v="259890" />
	</node>
	<node id="-21743" lat="68.4552666659" lon="14.8460111099">
		<tag k="name" v="Medskallen" />
		<tag k="natural" v="shoal" />
		<tag k="place" v="locality" />
		<tag k="ssr:stedsnr" v="380182" />
	</node>
	<node id="-21742" lat="68.455527774" lon="14.9433416685">
		<tag k="name" v="Vedøya" />
		<tag k="place" v="island" />
		<tag k="ssr:stedsnr" v="380172" />
	</node>
	<node id="-21741" lat="68.4925055558" lon="14.7225611163">
		<tag k="fixme" v="multiple name tags, choose one and add the other to alt_name" />
		<tag k="name" v="Haugneset;Røvingen" />
		<tag k="natural" v="cape" />
		<tag k="ssr:stedsnr" v="380169" />
	</node>
	<node id="-21740" lat="68.4574583356" lon="14.8816694373">
		<tag k="name" v="Stornesvika" />
		<tag k="natural" v="bay" />
		<tag k="ssr:stedsnr" v="380164" />
	</node>
	<node id="-21739" lat="68.4666749972" lon="14.9372249869">
		<tag k="name" v="Øyskallen" />
		<tag k="natural" v="shoal" />
		<tag k="place" v="locality" />
		<tag k="ssr:stedsnr" v="380158" />
	</node>
	<node id="-19687" lat="68.4730583294" lon="15.2602444507">
		<tag k="alt_name" v="Kjiholman" />
		<tag k="name" v="Kjeholmen" />
		<tag k="place" v="islet" />
		<tag k="ssr:stedsnr" v="259736" />
	</node>
	<node id="-19686" lat="68.472547223" lon="15.2475166609">
		<tag k="name" v="Laukholmen" />
		<tag k="place" v="islet" />
		<tag k="ssr:stedsnr" v="259734" />
	</node>
	<node id="-19685" lat="68.4828138907" lon="15.1720194513">
		<tag k="alt_name" v="Brottøy" />
		<tag k="name" v="Brottøya" />
		<tag k="place" v="island" />
		<tag k="ssr:stedsnr" v="259627" />
	</node>
	<node id="-21731" lat="68.456175001" lon="14.8800166776">
		<tag k="name" v="Lillevika" />
		<tag k="natural" v="bay" />
		<tag k="ssr:stedsnr" v="359442" />
	</node>
	<node id="-19682" lat="68.4214999996" lon="14.5485611158">
		<tag k="name" v="Gjevvika" />
		<tag k="natural" v="bay" />
		<tag k="ssr:stedsnr" v="259365" />
	</node>
	<node id="-19680" lat="68.4353861077" lon="14.8918999911">
		<tag k="name" v="Stranda" />
		<tag k="natural" v="beach" />
		<tag k="place" v="locality" />
		<tag k="ssr:stedsnr" v="259355" />
	</node>
	<node id="-19679" lat="68.4639444432" lon="14.938977769">
		<tag k="name" v="Slåttøyklubben" />
		<tag k="natural" v="cape" />
		<tag k="ssr:stedsnr" v="259145" />
	</node>
	<node id="-19678" lat="68.4452277752" lon="14.8837805588">
		<tag k="name" v="Svartgalten" />
		<tag k="natural" v="cape" />
		<tag k="ssr:stedsnr" v="259332" />
	</node>
	<node id="-19676" lat="68.3934944447" lon="14.8355000114">
		<tag k="name" v="Budalsneset" />
		<tag k="natural" v="cape" />
		<tag k="ssr:stedsnr" v="259261" />
	</node>
	<node id="-21723" lat="68.4262527778" lon="14.8639694463">
		<tag k="name" v="Finnvika" />
		<tag k="natural" v="bay" />
		<tag k="ssr:stedsnr" v="359379" />
	</node>
	<node id="-19671" lat="68.4738833298" lon="15.1764666609">
		<tag k="name" v="Leirvika" />
		<tag k="natural" v="bay" />
		<tag k="ssr:stedsnr" v="101857" />
	</node>
	<node id="-19670" lat="68.5791500047" lon="14.7786194369">
		<tag k="name" v="Smørhola" />
		<tag k="natural" v="bay" />
		<tag k="ssr:stedsnr" v="100465" />
	</node>
	<node id="-19669" lat="68.5695750012" lon="14.9064861109">
		<tag k="name" v="Plassen" />
		<tag k="natural" v="beach" />
		<tag k="place" v="locality" />
		<tag k="ssr:stedsnr" v="100256" />
	</node>
	<node id="-19664" lat="68.6142111108" lon="14.73497499">
		<tag k="name" v="Leifallan" />
		<tag k="natural" v="shoal" />
		<tag k="place" v="locality" />
		<tag k="ssr:stedsnr" v="98773" />
	</node>
	<node id="-21708" lat="68.6570472219" lon="14.8661138816">
		<tag k="name" v="Kilholmen" />
		<tag k="place" v="islet" />
		<tag k="ssr:stedsnr" v="345695" />
	</node>
	<node id="-19659" lat="68.3926305537" lon="14.5525027837">
		<tag k="bay" v="fjord" />
		<tag k="name" v="Grunnførfjorden" />
		<tag k="natural" v="bay" />
		<tag k="ssr:stedsnr" v="78278" />
	</node>
	<node id="-19658" lat="68.8047194465" lon="15.4171888779">
		<tag k="bay" v="fjord" />
		<tag k="name" v="Sortlandsundet - Suorttánuorri" />
		<tag k="name:no" v="Sortlandsundet" />
		<tag k="name:se" v="Suorttánuorri" />
		<tag k="natural" v="bay" />
		<tag k="ssr:stedsnr" v="78270" />
	</node>
	<node id="-20343" lat="68.6378750012" lon="14.7973999948">
		<tag k="fixme" v="multiple name tags, choose one and add the other to alt_name" />
		<tag k="name" v="Skaga;Fleinnesskaga" />
		<tag k="natural" v="cape" />
		<tag k="ssr:stedsnr" v="503527" />
	</node>
	<node id="-21703" lat="68.671158331" lon="15.0342694509">
		<tag k="name" v="Sørbogneset" />
		<tag k="natural" v="cape" />
		<tag k="ssr:stedsnr" v="343977" />
	</node>
	<node id="-20342" lat="68.6754333289" lon="15.0254833436">
		<tag k="bay" v="fjord" />
		<tag k="name" v="Ytterfjorden" />
		<tag k="natural" v="bay" />
		<tag k="ssr:stedsnr" v="503119" />
	</node>
	<node id="-21697" lat="68.4894666644" lon="15.1638805505">
		<tag k="name" v="Langneset" />
		<tag k="natural" v="cape" />
		<tag k="ssr:stedsnr" v="343926" />
	</node>
	<node id="-21692" lat="68.6704694475" lon="14.978936124">
		<tag k="name" v="Otervalen" />
		<tag k="natural" v="bay" />
		<tag k="ssr:stedsnr" v="343542" />
	</node>
	<node id="-21689" lat="68.4249111155" lon="14.5698499905">
		<tag k="name" v="Storkløvningen" />
		<tag k="natural" v="cape" />
		<tag k="ssr:stedsnr" v="343191" />
	</node>
	<node id="-19639" lat="68.4301000022" lon="14.8335027673">
		<tag k="name" v="Hongvika" />
		<tag k="natural" v="bay" />
		<tag k="ssr:stedsnr" v="238414" />
	</node>
	<node id="-19638" lat="68.417438886" lon="14.8387111065">
		<tag k="name" v="Hattnesbogen" />
		<tag k="natural" v="bay" />
		<tag k="ssr:stedsnr" v="238410" />
	</node>
	<node id="-21685" lat="68.5161861112" lon="15.2438611156">
		<tag k="name" v="Rundsteinvika" />
		<tag k="natural" v="bay" />
		<tag k="ssr:stedsnr" v="343051" />
	</node>
	<node id="-19636" lat="68.4279749963" lon="14.8550611221">
		<tag k="name" v="Kveldvika" />
		<tag k="natural" v="bay" />
		<tag k="ssr:stedsnr" v="238398" />
	</node>
	<node id="-21682" lat="68.5787972226" lon="14.7756027889">
		<tag k="name" v="Storvikodden" />
		<tag k="natural" v="cape" />
		<tag k="ssr:stedsnr" v="343024" />
	</node>
	<node id="-19633" lat="68.5805111106" lon="15.046716668">
		<tag k="name" v="Skagodden" />
		<tag k="natural" v="cape" />
		<tag k="ssr:stedsnr" v="237644" />
	</node>
	<node id="-20567" lat="68.4506111146" lon="15.0317138831">
		<tag k="name" v="Kjerringvika" />
		<tag k="natural" v="bay" />
		<tag k="ssr:stedsnr" v="601552" />
	</node>
	<node id="-21678" lat="68.4368583318" lon="14.6219944393">
		<tag k="fixme" v="consider seamark:type=rock or natural=shoal" />
		<tag k="name" v="Leiskjeret" />
		<tag k="place" v="islet" />
		<tag k="ssr:stedsnr" v="342101" />
	</node>
	<node id="-19628" lat="68.4481055589" lon="15.0350777841">
		<tag k="name" v="Tjønna" />
		<tag k="natural" v="bay" />
		<tag k="ssr:stedsnr" v="237600" />
	</node>
	<node id="-21675" lat="68.422741669" lon="14.6830472319">
		<tag k="name" v="Tangen" />
		<tag k="natural" v="cape" />
		<tag k="ssr:stedsnr" v="342053" />
	</node>
	<node id="-19626" lat="68.4587444476" lon="15.0285777834">
		<tag k="fixme" v="consider seamark:type=rock or natural=shoal" />
		<tag k="name" v="Flynnersteinen" />
		<tag k="place" v="islet" />
		<tag k="ssr:stedsnr" v="55572" />
	</node>
	<node id="-21671" lat="68.5512277779" lon="14.6171111183">
		<tag k="name" v="Stormolvika" />
		<tag k="natural" v="bay" />
		<tag k="ssr:stedsnr" v="343165" />
	</node>
	<node id="-21669" lat="68.4470388851" lon="14.8846000042">
		<tag k="fixme" v="consider seamark:type=rock or natural=shoal" />
		<tag k="name" v="Galten" />
		<tag k="place" v="islet" />
		<tag k="ssr:stedsnr" v="339718" />
	</node>
	<node id="-21668" lat="68.4251777739" lon="15.143724994">
		<tag k="name" v="Skallen" />
		<tag k="natural" v="shoal" />
		<tag k="place" v="locality" />
		<tag k="ssr:stedsnr" v="339431" />
	</node>
	<node id="-21666" lat="68.3684222235" lon="15.0574638798">
		<tag k="name" v="Rognholman" />
		<tag k="place" v="islet" />
		<tag k="ssr:stedsnr" v="339249" />
	</node>
	<node id="-20112" lat="68.6322416712" lon="14.7960222182">
		<tag k="name" v="Tangneset" />
		<tag k="natural" v="cape" />
		<tag k="ssr:stedsnr" v="466776" />
	</node>
	<node id="-21659" lat="68.5512694482" lon="15.2268416781">
		<tag k="name" v="Slettåsen" />
		<tag k="natural" v="beach" />
		<tag k="place" v="locality" />
		<tag k="ssr:stedsnr" v="337906" />
	</node>
	<node id="-19610" lat="68.4994277814" lon="15.2966611013">
		<tag k="name" v="Langvågen" />
		<tag k="natural" v="bay" />
		<tag k="ssr:stedsnr" v="40861" />
	</node>
	<node id="-19771" lat="68.4816944436" lon="15.0651222255">
		<tag k="name" v="Jaktflua" />
		<tag k="natural" v="shoal" />
		<tag k="place" v="locality" />
		<tag k="ssr:stedsnr" v="138663" />
	</node>
	<node id="-19607" lat="68.6679666708" lon="14.9673138943">
		<tag k="fixme" v="consider seamark:type=rock or natural=shoal" />
		<tag k="name" v="Hella" />
		<tag k="place" v="islet" />
		<tag k="ssr:stedsnr" v="40552" />
	</node>
	<node id="-21654" lat="68.4956388852" lon="14.7638555632">
		<tag k="name" v="Mannbeinholmen" />
		<tag k="natural" v="cape" />
		<tag k="ssr:stedsnr" v="337720" />
	</node>
	<node id="-19605" lat="68.4251277779" lon="14.5627777662">
		<tag k="name" v="Simonsvika" />
		<tag k="natural" v="bay" />
		<tag k="ssr:stedsnr" v="40223" />
	</node>
	<node id="-21650" lat="68.501474999" lon="14.8328305446">
		<tag k="name" v="Erikodden" />
		<tag k="natural" v="cape" />
		<tag k="ssr:stedsnr" v="337634" />
	</node>
	<node id="-19600" lat="68.4344166704" lon="14.6672805482">
		<tag k="name" v="Fiskvika" />
		<tag k="natural" v="bay" />
		<tag k="ssr:stedsnr" v="39109" />
	</node>
	<node id="-19599" lat="68.5132916649" lon="14.6871833238">
		<tag k="name" v="Ongstadlangskjeret" />
		<tag k="place" v="islet" />
		<tag k="ssr:stedsnr" v="39066" />
	</node>
	<node id="-19598" lat="68.4341055562" lon="14.7646527707">
		<tag k="name" v="Medvika" />
		<tag k="natural" v="bay" />
		<tag k="ssr:stedsnr" v="39061" />
	</node>
	<node id="-19591" lat="68.5102000037" lon="14.4675666631">
		<tag k="name" v="Breigrunnen" />
		<tag k="natural" v="shoal" />
		<tag k="place" v="locality" />
		<tag k="ssr:stedsnr" v="36917" />
	</node>
	<node id="-21638" lat="68.5052471147" lon="14.666509687">
		<tag k="name" v="Kleholman" />
		<tag k="place" v="islet" />
		<tag k="ssr:stedsnr" v="321950" />
	</node>
	<node id="-19649" lat="68.4473055549" lon="14.7165611037">
		<tag k="fixme" v="consider seamark:type=rock or natural=shoal" />
		<tag k="name" v="Langbøen" />
		<tag k="place" v="islet" />
		<tag k="ssr:stedsnr" v="241134" />
	</node>
	<node id="-21636" lat="68.570568977" lon="14.9306555482">
		<tag k="loc_name:se" v="Bierá" />
		<tag k="name" v="Børøya" />
		<tag k="name:no" v="Børøya" />
		<tag k="place" v="island" />
		<tag k="ssr:stedsnr" v="321921" />
	</node>
	<node id="-19586" lat="68.6527861101" lon="14.8894000046">
		<tag k="name" v="Marenbakken" />
		<tag k="natural" v="bay" />
		<tag k="ssr:stedsnr" v="224717" />
	</node>
	<node id="-21629" lat="68.5486249999" lon="14.6225361047">
		<tag k="name" v="Tavika" />
		<tag k="natural" v="bay" />
		<tag k="ssr:stedsnr" v="321874" />
	</node>
	<node id="-21626" lat="68.5042777768" lon="14.9352833261">
		<tag k="fixme" v="consider seamark:type=rock or natural=shoal" />
		<tag k="name" v="Innbjørgskjeret" />
		<tag k="place" v="islet" />
		<tag k="ssr:stedsnr" v="321767" />
	</node>
	<node id="-21625" lat="68.6688861142" lon="14.9481944396">
		<tag k="name" v="Grønningnakken" />
		<tag k="natural" v="cape" />
		<tag k="ssr:stedsnr" v="321703" />
	</node>
	<node id="-19574" lat="68.4420527816" lon="15.1940444381">
		<tag k="alt_name" v="Grindvik" />
		<tag k="name" v="Grindvika" />
		<tag k="natural" v="bay" />
		<tag k="ssr:stedsnr" v="17817" />
	</node>
	<node id="-21621" lat="68.6047916663" lon="14.745549994">
		<tag k="name" v="Skjervøyfallan" />
		<tag k="natural" v="shoal" />
		<tag k="place" v="locality" />
		<tag k="ssr:stedsnr" v="321561" />
	</node>
	<node id="-21620" lat="68.5825527822" lon="14.8805499998">
		<tag k="alt_name" v="Tennholmen" />
		<tag k="name" v="Ternholmen" />
		<tag k="place" v="islet" />
		<tag k="ssr:stedsnr" v="321533" />
	</node>
	<node id="-21617" lat="68.6343444404" lon="14.7681277856">
		<tag k="name" v="Stabben" />
		<tag k="natural" v="shoal" />
		<tag k="place" v="locality" />
		<tag k="ssr:stedsnr" v="321512" />
	</node>
	<node id="-21616" lat="68.6206916661" lon="14.7402083315">
		<tag k="name" v="Djupfallet" />
		<tag k="natural" v="shoal" />
		<tag k="place" v="locality" />
		<tag k="ssr:stedsnr" v="321493" />
	</node>
	<node id="-21615" lat="68.6214388882" lon="14.7559444555">
		<tag k="fixme" v="consider seamark:type=rock or natural=shoal" />
		<tag k="name" v="Toskjeran" />
		<tag k="place" v="islet" />
		<tag k="ssr:stedsnr" v="321490" />
	</node>
	<node id="-19562" lat="68.5208027748" lon="15.2048055519">
		<tag k="fixme" v="multiple name tags, choose one and add the other to alt_name" />
		<tag k="name" v="Bollen;Bollholmen" />
		<tag k="place" v="islet" />
		<tag k="ssr:stedsnr" v="17409" />
	</node>
	<node id="-19561" lat="68.4486166667" lon="14.820558332">
		<tag k="name" v="Klubban" />
		<tag k="place" v="islet" />
		<tag k="ssr:stedsnr" v="17202" />
	</node>
	<node id="-21608" lat="68.512136108" lon="15.2346194348">
		<tag k="name" v="Nordbogholmen" />
		<tag k="place" v="islet" />
		<tag k="ssr:stedsnr" v="321372" />
	</node>
	<node id="-19644" lat="68.4552166695" lon="14.8592555504">
		<tag k="name" v="Lille Hattholmen" />
		<tag k="place" v="islet" />
		<tag k="ssr:stedsnr" v="238457" />
	</node>
	<node id="-21605" lat="68.4602833345" lon="15.046300002">
		<tag k="name" v="Nesodden" />
		<tag k="natural" v="cape" />
		<tag k="ssr:stedsnr" v="321032" />
	</node>
	<node id="-21604" lat="68.465791665" lon="15.3722944424">
		<tag k="bay" v="fjord" />
		<tag k="name" v="Innerfjorden" />
		<tag k="natural" v="bay" />
		<tag k="ssr:stedsnr" v="321030" />
	</node>
	<node id="-20326" lat="68.4359749965" lon="14.4666694407">
		<tag k="name" v="Huldsetskallen" />
		<tag k="natural" v="shoal" />
		<tag k="place" v="locality" />
		<tag k="ssr:stedsnr" v="502328" />
	</node>
	<node id="-19553" lat="68.4315305524" lon="14.6728083313">
		<tag k="name" v="Nettvika" />
		<tag k="natural" v="bay" />
		<tag k="ssr:stedsnr" v="17353" />
	</node>
	<node id="-21597" lat="68.4200472229" lon="15.1432555564">
		<tag k="name" v="Osneset" />
		<tag k="natural" v="cape" />
		<tag k="ssr:stedsnr" v="320780" />
	</node>
	<node id="-21594" lat="68.5512805544" lon="15.1956972267">
		<tag k="name" v="Auneodden" />
		<tag k="natural" v="cape" />
		<tag k="ssr:stedsnr" v="321112" />
	</node>
	<node id="-20324" lat="68.4406000003" lon="14.768977777">
		<tag k="name" v="Strønstadvika" />
		<tag k="natural" v="bay" />
		<tag k="ssr:stedsnr" v="502317" />
	</node>
	<node id="-21589" lat="68.4547083367" lon="15.0286694491">
		<tag k="name" v="Laksneset" />
		<tag k="natural" v="cape" />
		<tag k="ssr:stedsnr" v="320702" />
	</node>
	<node id="-19539" lat="68.4864555593" lon="15.1940111007">
		<tag k="name" v="Skipøystranda" />
		<tag k="natural" v="beach" />
		<tag k="place" v="locality" />
		<tag k="ssr:stedsnr" v="222900" />
	</node>
	<node id="-19538" lat="68.4906555563" lon="15.184491666">
		<tag k="name" v="Nordvika" />
		<tag k="natural" v="bay" />
		<tag k="ssr:stedsnr" v="222899" />
	</node>
	<node id="-21585" lat="68.4756083317" lon="15.212747213">
		<tag k="name" v="Raftsundholmen" />
		<tag k="place" v="islet" />
		<tag k="ssr:stedsnr" v="320632" />
	</node>
	<node id="-21584" lat="68.4782138881" lon="15.1292111003">
		<tag k="name" v="Lamholmen" />
		<tag k="place" v="islet" />
		<tag k="ssr:stedsnr" v="320630" />
	</node>
	<node id="-21582" lat="68.5970305538" lon="14.8260027866">
		<tag k="name" v="Holmsnesøya" />
		<tag k="place" v="island" />
		<tag k="ssr:stedsnr" v="320568" />
	</node>
	<node id="-19529" lat="68.468672219" lon="15.1856055518">
		<tag k="name" v="Ringvika" />
		<tag k="natural" v="bay" />
		<tag k="ssr:stedsnr" v="222816" />
	</node>
	<node id="-21575" lat="68.4370527777" lon="14.6560750068">
		<tag k="name" v="Hakksteinneset" />
		<tag k="natural" v="cape" />
		<tag k="ssr:stedsnr" v="320330" />
	</node>
	<node id="-19525" lat="68.6673805591" lon="14.9569694382">
		<tag k="name" v="Kleivnes" />
		<tag k="natural" v="cape" />
		<tag k="ssr:stedsnr" v="222501" />
	</node>
	<node id="-21572" lat="68.4154916681" lon="14.8450333304">
		<tag k="name" v="Hattneset" />
		<tag k="natural" v="cape" />
		<tag k="ssr:stedsnr" v="320281" />
	</node>
	<node id="-19523" lat="68.427569446" lon="14.5847388831">
		<tag k="name" v="Gjeltstranda" />
		<tag k="natural" v="beach" />
		<tag k="place" v="locality" />
		<tag k="ssr:stedsnr" v="222180" />
	</node>
	<node id="-19522" lat="68.550991668" lon="14.6081444373">
		<tag k="fixme" v="consider seamark:type=rock or natural=shoal" />
		<tag k="name" v="Tanesskjeret" />
		<tag k="place" v="islet" />
		<tag k="ssr:stedsnr" v="222149" />
	</node>
	<node id="-21569" lat="68.4564666628" lon="14.7079055658">
		<tag k="alt_name" v="Lilleflæsa" />
		<tag k="fixme" v="consider seamark:type=rock or natural=shoal" />
		<tag k="name" v="Litlflesa" />
		<tag k="place" v="islet" />
		<tag k="ssr:stedsnr" v="320183" />
	</node>
	<node id="-21568" lat="68.4534500028" lon="14.7696499909">
		<tag k="alt_name" v="Stor Seløya" />
		<tag k="fixme" v="multiple name tags, choose one and add the other to alt_name" />
		<tag k="name" v="Seløya;Storseløya" />
		<tag k="place" v="island" />
		<tag k="ssr:stedsnr" v="320176" />
	</node>
	<node id="-21567" lat="68.4472138918" lon="14.9367055587">
		<tag k="name" v="Elvbukta" />
		<tag k="natural" v="bay" />
		<tag k="ssr:stedsnr" v="320174" />
	</node>
	<node id="-19637" lat="68.425550003" lon="14.8414305638">
		<tag k="name" v="Hundneset" />
		<tag k="natural" v="cape" />
		<tag k="ssr:stedsnr" v="238409" />
	</node>
	<node id="-19516" lat="68.5791861108" lon="14.6504694378">
		<tag k="fixme" v="consider seamark:type=rock or natural=shoal" />
		<tag k="name" v="Teiganbøen" />
		<tag k="place" v="islet" />
		<tag k="ssr:stedsnr" v="221028" />
	</node>
	<node id="-21562" lat="68.4080861082" lon="14.7063610995">
		<tag k="name" v="Oteråa" />
		<tag k="natural" v="bay" />
		<tag k="ssr:stedsnr" v="302187" />
	</node>
	<node id="-19513" lat="68.5665333303" lon="14.9968361076">
		<tag k="name" v="Robsamgrunnen" />
		<tag k="natural" v="shoal" />
		<tag k="place" v="locality" />
		<tag k="ssr:stedsnr" v="218625" />
	</node>
	<node id="-21558" lat="68.500625002" lon="14.8378972311">
		<tag k="name" v="Hestneset" />
		<tag k="natural" v="cape" />
		<tag k="ssr:stedsnr" v="216601" />
	</node>
	<node id="-21548" lat="68.5233499962" lon="14.689344432">
		<tag k="name" v="Buneset" />
		<tag k="place" v="islet" />
		<tag k="ssr:stedsnr" v="216258" />
	</node>
	<node id="-21538" lat="68.5420416691" lon="14.5423305512">
		<tag k="name" v="Kjerringøya" />
		<tag k="place" v="islet" />
		<tag k="ssr:stedsnr" v="200885" />
	</node>
	<node id="-21535" lat="68.6245805591" lon="14.7617361153">
		<tag k="name" v="Svartbarden" />
		<tag k="natural" v="shoal" />
		<tag k="place" v="locality" />
		<tag k="ssr:stedsnr" v="200548" />
	</node>
	<node id="-19971" lat="68.3816611084" lon="14.8115805618">
		<tag k="bay" v="fjord" />
		<tag k="name" v="Higravfjorden" />
		<tag k="natural" v="bay" />
		<tag k="ssr:stedsnr" v="442498" />
	</node>
	<node id="-21519" lat="68.4743444406" lon="15.2457055508">
		<tag k="bay" v="fjord" />
		<tag k="name" v="Ingelsfjorden - Gáivuotna" />
		<tag k="name:no" v="Ingelsfjorden" />
		<tag k="name:se" v="Gáivuotna" />
		<tag k="natural" v="bay" />
		<tag k="ssr:stedsnr" v="199667" />
	</node>
	<node id="-21518" lat="68.4874277775" lon="15.1562416567">
		<tag k="name" v="Bukkhamn" />
		<tag k="natural" v="bay" />
		<tag k="ssr:stedsnr" v="199659" />
	</node>
	<node id="-21515" lat="68.5784444446" lon="14.7737666575">
		<tag k="name" v="Storvika" />
		<tag k="natural" v="bay" />
		<tag k="ssr:stedsnr" v="199915" />
	</node>
	<node id="-21512" lat="68.4681444456" lon="15.1486861106">
		<tag k="name" v="Juvika" />
		<tag k="natural" v="bay" />
		<tag k="ssr:stedsnr" v="199752" />
	</node>
	<node id="-21511" lat="68.4861444417" lon="15.1993111132">
		<tag k="name" v="Skipøya" />
		<tag k="place" v="islet" />
		<tag k="ssr:stedsnr" v="199655" />
	</node>
	<node id="-21508" lat="68.5881777782" lon="14.9537805533">
		<tag k="fixme" v="multiple name tags, choose one and add the other to alt_name" />
		<tag k="name" v="Bogen;Råbugen" />
		<tag k="natural" v="bay" />
		<tag k="ssr:stedsnr" v="199579" />
	</node>
	<node id="-21507" lat="68.5874750043" lon="14.846161114">
		<tag k="name" v="Silsandholmen" />
		<tag k="place" v="islet" />
		<tag k="ssr:stedsnr" v="199566" />
	</node>
	<node id="-21505" lat="68.3577500038" lon="14.9801583325">
		<tag k="name" v="Djuphamnen" />
		<tag k="natural" v="bay" />
		<tag k="ssr:stedsnr" v="199395" />
	</node>
	<node id="-20561" lat="68.6343222221" lon="14.8043666745">
		<tag k="name" v="Svartvika" />
		<tag k="natural" v="bay" />
		<tag k="ssr:stedsnr" v="588746" />
	</node>
	<node id="-21493" lat="68.3450250037" lon="15.0004499973">
		<tag k="name" v="Smedvika" />
		<tag k="natural" v="bay" />
		<tag k="ssr:stedsnr" v="199388" />
	</node>
	<node id="-21489" lat="68.4331194442" lon="14.8057138866">
		<tag k="name" v="Rødsandbukta" />
		<tag k="natural" v="bay" />
		<tag k="ssr:stedsnr" v="199367" />
	</node>
	<node id="-21488" lat="68.4326250012" lon="14.8577861198">
		<tag k="fixme" v="consider seamark:type=rock or natural=shoal" />
		<tag k="name" v="Seglsteinen" />
		<tag k="place" v="islet" />
		<tag k="ssr:stedsnr" v="199366" />
	</node>
	<node id="-21483" lat="68.4517055534" lon="14.8867500022">
		<tag k="name" v="Svartberget" />
		<tag k="natural" v="cape" />
		<tag k="ssr:stedsnr" v="199193" />
	</node>
	<node id="-21482" lat="68.4068916692" lon="14.6769389005">
		<tag k="name" v="Krokelvstranda" />
		<tag k="natural" v="beach" />
		<tag k="place" v="locality" />
		<tag k="ssr:stedsnr" v="199290" />
	</node>
	<node id="-21476" lat="68.4729250007" lon="14.7654694524">
		<tag k="bay" v="fjord" />
		<tag k="name" v="Hadselfjorden" />
		<tag k="natural" v="bay" />
		<tag k="ssr:stedsnr" v="198146" />
	</node>
	<node id="-21475" lat="68.4984138928" lon="14.4579527839">
		<tag k="name" v="Ytrehavbåen" />
		<tag k="natural" v="shoal" />
		<tag k="place" v="locality" />
		<tag k="ssr:stedsnr" v="198126" />
	</node>
	<node id="-21471" lat="68.4982722206" lon="15.3335861128">
		<tag k="name" v="Grunnvika" />
		<tag k="natural" v="bay" />
		<tag k="ssr:stedsnr" v="180035" />
	</node>
	<node id="-21470" lat="68.4268527783" lon="14.8439555658">
		<tag k="fixme" v="consider seamark:type=rock or natural=shoal" />
		<tag k="name" v="Langskjeret" />
		<tag k="place" v="islet" />
		<tag k="ssr:stedsnr" v="177396" />
	</node>
	<node id="-21469" lat="68.4264638919" lon="14.8400111">
		<tag k="name" v="Torvhaugbukta" />
		<tag k="natural" v="bay" />
		<tag k="ssr:stedsnr" v="177388" />
	</node>
	<node id="-20303" lat="68.4384111147" lon="15.1845055567">
		<tag k="name" v="Djuphamn" />
		<tag k="natural" v="bay" />
		<tag k="ssr:stedsnr" v="465924" />
	</node>
	<node id="-20302" lat="68.4940694483" lon="15.2363861013">
		<tag k="name" v="Hamnholmen" />
		<tag k="place" v="islet" />
		<tag k="ssr:stedsnr" v="465919" />
	</node>
	<node id="-20588" lat="68.3983611085" lon="14.6815138762">
		<tag k="name" v="Haugbukta" />
		<tag k="natural" v="bay" />
		<tag k="ssr:stedsnr" v="623305" />
	</node>
	<node id="-21454" lat="68.6333138921" lon="14.8174361045">
		<tag k="name" v="Storholmen" />
		<tag k="place" v="islet" />
		<tag k="ssr:stedsnr" v="176649" />
	</node>
	<node id="-21452" lat="68.5775361093" lon="15.0258583292">
		<tag k="name" v="Langøysundet" />
		<tag k="natural" v="strait" />
		<tag k="ssr:stedsnr" v="176605" />
	</node>
	<node id="-21451" lat="68.4586888928" lon="15.0456861227">
		<tag k="fixme" v="consider seamark:type=rock or natural=shoal" />
		<tag k="name" v="Rundsteinen" />
		<tag k="place" v="islet" />
		<tag k="ssr:stedsnr" v="176591" />
	</node>
	<node id="-21450" lat="68.4560999953" lon="15.0213750105">
		<tag k="name" v="Lilleøysundet" />
		<tag k="natural" v="strait" />
		<tag k="ssr:stedsnr" v="176585" />
	</node>
	<node id="-21449" lat="68.4373666654" lon="15.0000972124">
		<tag k="name" v="Osen" />
		<tag k="natural" v="bay" />
		<tag k="ssr:stedsnr" v="176560" />
	</node>
	<node id="-20300" lat="68.5880305577" lon="15.0582194455">
		<tag k="name" v="Nordstranda" />
		<tag k="natural" v="beach" />
		<tag k="place" v="locality" />
		<tag k="ssr:stedsnr" v="465523" />
	</node>
	<node id="-21437" lat="68.4700611105" lon="15.1789750092">
		<tag k="name" v="Oppsåttet" />
		<tag k="natural" v="bay" />
		<tag k="ssr:stedsnr" v="161816" />
	</node>
	<node id="-20298" lat="68.5400527738" lon="14.6492388878">
		<tag k="name" v="Bendikkholmen" />
		<tag k="place" v="islet" />
		<tag k="ssr:stedsnr" v="464174" />
	</node>
	<node id="-21434" lat="68.6610249988" lon="14.9655750028">
		<tag k="name" v="Båtneset" />
		<tag k="natural" v="cape" />
		<tag k="ssr:stedsnr" v="161513" />
	</node>
	<node id="-21428" lat="68.5532722221" lon="14.6121749931">
		<tag k="name" v="Finnhammaren" />
		<tag k="place" v="islet" />
		<tag k="ssr:stedsnr" v="161192" />
	</node>
	<node id="-21427" lat="68.5520583304" lon="14.6234194438">
		<tag k="name" v="Kollvika" />
		<tag k="natural" v="bay" />
		<tag k="ssr:stedsnr" v="161187" />
	</node>
	<node id="-21419" lat="68.5734472261" lon="14.6303472308">
		<tag k="name" v="Svartbarden" />
		<tag k="place" v="islet" />
		<tag k="ssr:stedsnr" v="161031" />
	</node>
	<node id="-21416" lat="68.4195777774" lon="14.6838222251">
		<tag k="name" v="Lindbergtangen" />
		<tag k="natural" v="cape" />
		<tag k="ssr:stedsnr" v="161083" />
	</node>
	<node id="-21415" lat="68.5345833303" lon="14.5768916612">
		<tag k="name" v="Kobbeskjerflua" />
		<tag k="natural" v="shoal" />
		<tag k="place" v="locality" />
		<tag k="ssr:stedsnr" v="157911" />
	</node>
	<node id="-21414" lat="68.5273777742" lon="14.528508333">
		<tag k="name" v="Langskallen" />
		<tag k="natural" v="shoal" />
		<tag k="place" v="locality" />
		<tag k="ssr:stedsnr" v="157906" />
	</node>
	<node id="-21412" lat="68.4967499982" lon="15.2187416667">
		<tag k="name" v="Vedøygrunnen" />
		<tag k="natural" v="shoal" />
		<tag k="place" v="locality" />
		<tag k="ssr:stedsnr" v="157394" />
	</node>
	<node id="-21411" lat="68.4930361125" lon="15.1883222142">
		<tag k="alt_name" v="Ersholman" />
		<tag k="name" v="Ersholmen" />
		<tag k="place" v="islet" />
		<tag k="ssr:stedsnr" v="157390" />
	</node>
	<node id="-21410" lat="68.3262611111" lon="14.928522221">
		<tag k="name" v="Rørhopskallen" />
		<tag k="natural" v="shoal" />
		<tag k="place" v="locality" />
		<tag k="ssr:stedsnr" v="157360" />
	</node>
	<node id="-21406" lat="68.5733083303" lon="15.208161098">
		<tag k="name" v="Kartneset" />
		<tag k="natural" v="cape" />
		<tag k="ssr:stedsnr" v="155898" />
	</node>
	<node id="-21394" lat="68.5402944478" lon="14.6590333239">
		<tag k="name" v="Naustneset" />
		<tag k="natural" v="cape" />
		<tag k="ssr:stedsnr" v="155323" />
	</node>
	<node id="-21388" lat="68.5634444404" lon="14.930319435">
		<tag k="loc_name:se" v="Bieranuorri" />
		<tag k="name" v="Børøysundet" />
		<tag k="name:no" v="Børøysundet" />
		<tag k="natural" v="strait" />
		<tag k="ssr:stedsnr" v="139869" />
	</node>
	<node id="-21382" lat="68.5038666656" lon="14.6571749906">
		<tag k="name" v="Joskallen" />
		<tag k="natural" v="shoal" />
		<tag k="place" v="locality" />
		<tag k="ssr:stedsnr" v="138955" />
	</node>
	<node id="-21381" lat="68.5114666663" lon="14.5039500026">
		<tag k="fixme" v="consider seamark:type=rock or natural=shoal" />
		<tag k="name" v="Tuvskjeran" />
		<tag k="place" v="islet" />
		<tag k="ssr:stedsnr" v="138946" />
	</node>
	<node id="-21380" lat="68.5106500009" lon="14.5236527808">
		<tag k="name" v="Sørflua" />
		<tag k="natural" v="shoal" />
		<tag k="place" v="locality" />
		<tag k="ssr:stedsnr" v="138942" />
	</node>
	<node id="-21375" lat="68.3781083375" lon="15.0584416674">
		<tag k="name" v="Ramnklubben" />
		<tag k="natural" v="cape" />
		<tag k="ssr:stedsnr" v="138824" />
	</node>
	<node id="-21369" lat="68.4722166697" lon="15.207488901">
		<tag k="name" v="Seiholmen" />
		<tag k="place" v="islet" />
		<tag k="ssr:stedsnr" v="138753" />
	</node>
	<node id="-21363" lat="68.6126555557" lon="14.7984360998">
		<tag k="alt_name" v="Kalsnesøya" />
		<tag k="name" v="Kallsnesøya" />
		<tag k="place" v="island" />
		<tag k="ssr:stedsnr" v="138612" />
	</node>
	<node id="-21361" lat="68.6028749972" lon="14.8526499939">
		<tag k="name" v="Årnesbukta" />
		<tag k="natural" v="bay" />
		<tag k="ssr:stedsnr" v="138608" />
	</node>
	<node id="-21360" lat="68.5834055512" lon="14.9986111189">
		<tag k="alt_name" v="Hankaneset" />
		<tag k="name" v="Hakaneset" />
		<tag k="natural" v="cape" />
		<tag k="ssr:stedsnr" v="138581" />
	</node>
	<node id="-20626" lat="68.5762416676" lon="14.6364833442">
		<tag k="alt_name" v="Langnesodden" />
		<tag k="name" v="Langneset" />
		<tag k="natural" v="cape" />
		<tag k="ssr:stedsnr" v="685206" />
	</node>
	<node id="-21353" lat="68.3505000011" lon="14.9772694567">
		<tag k="name" v="Trollholmen" />
		<tag k="place" v="islet" />
		<tag k="ssr:stedsnr" v="138404" />
	</node>
	<node id="-21347" lat="68.434824996" lon="14.6090777795">
		<tag k="name" v="Ytrevågen" />
		<tag k="natural" v="bay" />
		<tag k="ssr:stedsnr" v="138341" />
	</node>
	<node id="-21344" lat="68.4024749974" lon="14.8670416599">
		<tag k="name" v="Stigholmen" />
		<tag k="place" v="islet" />
		<tag k="ssr:stedsnr" v="138313" />
	</node>
	<node id="-21343" lat="68.3846361159" lon="14.8266027703">
		<tag k="fixme" v="consider seamark:type=rock or natural=shoal" />
		<tag k="name" v="Plyten" />
		<tag k="place" v="islet" />
		<tag k="ssr:stedsnr" v="138311" />
	</node>
	<node id="-21324" lat="68.4131027744" lon="14.7031527742">
		<tag k="name" v="Orsundet" />
		<tag k="natural" v="bay" />
		<tag k="ssr:stedsnr" v="120161" />
	</node>
	<node id="-20279" lat="68.4598555554" lon="15.0401722131">
		<tag k="name" v="Ålen" />
		<tag k="natural" v="shoal" />
		<tag k="place" v="locality" />
		<tag k="ssr:stedsnr" v="661568" />
	</node>
	<node id="-21318" lat="68.6496361145" lon="14.8634249956">
		<tag k="name" v="Vikan" />
		<tag k="natural" v="bay" />
		<tag k="ssr:stedsnr" v="116688" />
	</node>
	<node id="-21317" lat="68.6490138911" lon="14.8305249919">
		<tag k="name" v="Tjønnbogen" />
		<tag k="natural" v="bay" />
		<tag k="ssr:stedsnr" v="116687" />
	</node>
	<node id="-20278" lat="68.4610416691" lon="15.0288250026">
		<tag k="name" v="Flynnerbotnen" />
		<tag k="natural" v="shoal" />
		<tag k="place" v="locality" />
		<tag k="ssr:stedsnr" v="661567" />
	</node>
	<node id="-21314" lat="68.4624166679" lon="15.0537472192">
		<tag k="name" v="Hestleirodden" />
		<tag k="natural" v="cape" />
		<tag k="ssr:stedsnr" v="116631" />
	</node>
	<node id="-21313" lat="68.4447555553" lon="14.9831722278">
		<tag k="name" v="Hamnvalen" />
		<tag k="natural" v="strait" />
		<tag k="ssr:stedsnr" v="116579" />
	</node>
	<node id="-21312" lat="68.4553749995" lon="15.0034416677">
		<tag k="name" v="Salttynna" />
		<tag k="natural" v="shoal" />
		<tag k="place" v="locality" />
		<tag k="ssr:stedsnr" v="116578" />
	</node>
	<node id="-21311" lat="68.4482166697" lon="14.9853638899">
		<tag k="name" v="Silsanden" />
		<tag k="natural" v="strait" />
		<tag k="ssr:stedsnr" v="116576" />
	</node>
	<node id="-21309" lat="68.4931694459" lon="14.4405444407">
		<tag k="name" v="Sundsfallet" />
		<tag k="natural" v="shoal" />
		<tag k="place" v="locality" />
		<tag k="ssr:stedsnr" v="105513" />
	</node>
	<node id="-19755" lat="68.4329611078" lon="14.8628305501">
		<tag k="name" v="Grindvika" />
		<tag k="natural" v="bay" />
		<tag k="ssr:stedsnr" v="116326" />
	</node>
	<node id="-21304" lat="68.6166194463" lon="14.8294916594">
		<tag k="name" v="Tendringtofta" />
		<tag k="natural" v="bay" />
		<tag k="ssr:stedsnr" v="102325" />
	</node>
	<node id="-19934" lat="68.4555000036" lon="14.779511121">
		<tag k="name" v="Erikdraget" />
		<tag k="place" v="islet" />
		<tag k="ssr:stedsnr" v="441182" />
	</node>
	<node id="-21292" lat="68.6706138915" lon="14.9753888971">
		<tag k="name" v="Sauvardholmen" />
		<tag k="place" v="islet" />
		<tag k="ssr:stedsnr" v="101544" />
	</node>
	<node id="-21289" lat="68.4588111136" lon="14.8896666618">
		<tag k="name" v="Sengstrandklubben" />
		<tag k="natural" v="cape" />
		<tag k="ssr:stedsnr" v="101308" />
	</node>
	<node id="-19932" lat="68.4869444472" lon="14.6296777836">
		<tag k="name" v="Pinbotnen" />
		<tag k="natural" v="shoal" />
		<tag k="place" v="locality" />
		<tag k="ssr:stedsnr" v="441163" />
	</node>
	<node id="-21286" lat="68.4090472249" lon="14.5572916658">
		<tag k="name" v="Stranda" />
		<tag k="natural" v="beach" />
		<tag k="place" v="locality" />
		<tag k="ssr:stedsnr" v="101166" />
	</node>
	<node id="-19590" lat="68.4554527743" lon="14.792541661">
		<tag k="name" v="Faldan" />
		<tag k="natural" v="shoal" />
		<tag k="place" v="locality" />
		<tag k="ssr:stedsnr" v="229319" />
	</node>
	<node id="-21282" lat="68.5474250003" lon="14.6164166623">
		<tag k="name" v="Søndre Børholmen" />
		<tag k="place" v="islet" />
		<tag k="ssr:stedsnr" v="100160" />
	</node>
	<node id="-21278" lat="68.6333277818" lon="14.798127768">
		<tag k="name" v="Skogstrand" />
		<tag k="natural" v="beach" />
		<tag k="place" v="locality" />
		<tag k="ssr:stedsnr" v="96677" />
	</node>
	<node id="-21277" lat="68.4584416671" lon="14.8760250032">
		<tag k="name" v="Hamfatet" />
		<tag k="natural" v="shoal" />
		<tag k="place" v="locality" />
		<tag k="ssr:stedsnr" v="96731" />
	</node>
	<node id="-21275" lat="68.5306833354" lon="15.2452444397">
		<tag k="name" v="Steingardneset" />
		<tag k="natural" v="cape" />
		<tag k="ssr:stedsnr" v="95840" />
	</node>
	<node id="-19588" lat="68.6411055582" lon="14.7926444399">
		<tag k="name" v="Trollvika" />
		<tag k="natural" v="bay" />
		<tag k="ssr:stedsnr" v="224741" />
	</node>
	<node id="-19735" lat="68.553474998" lon="14.5441694508">
		<tag k="name" v="Hysskallen" />
		<tag k="natural" v="shoal" />
		<tag k="place" v="locality" />
		<tag k="ssr:stedsnr" v="260929" />
	</node>
	<node id="-21262" lat="68.5140111072" lon="14.7133499886">
		<tag k="name" v="Ongstadsjyen" />
		<tag k="natural" v="beach" />
		<tag k="place" v="locality" />
		<tag k="ssr:stedsnr" v="94749" />
	</node>
	<node id="-21260" lat="68.49923611" lon="14.8462861225">
		<tag k="name" v="Hattvikholmen" />
		<tag k="place" v="islet" />
		<tag k="ssr:stedsnr" v="94677" />
	</node>
	<node id="-21258" lat="68.5722416649" lon="14.9572361128">
		<tag k="name" v="Klubbvika" />
		<tag k="natural" v="bay" />
		<tag k="ssr:stedsnr" v="94263" />
	</node>
	<node id="-21257" lat="68.5870666697" lon="14.9536666696">
		<tag k="name" v="Lilleholmen" />
		<tag k="place" v="islet" />
		<tag k="ssr:stedsnr" v="94260" />
	</node>
	<node id="-20268" lat="68.5438277769" lon="14.645077783">
		<tag k="name" v="Bogsanden" />
		<tag k="natural" v="bay" />
		<tag k="ssr:stedsnr" v="519322" />
	</node>
	<node id="-21254" lat="68.5738361156" lon="14.9389388778">
		<tag k="name" v="Skjellvika" />
		<tag k="natural" v="bay" />
		<tag k="ssr:stedsnr" v="94120" />
	</node>
	<node id="-21247" lat="68.5460500035" lon="14.6360388875">
		<tag k="name" v="Utbjørgneset" />
		<tag k="natural" v="cape" />
		<tag k="ssr:stedsnr" v="79884" />
	</node>
	<node id="-21246" lat="68.539761111" lon="14.6475055581">
		<tag k="name" v="Hoklandsholmen" />
		<tag k="place" v="islet" />
		<tag k="ssr:stedsnr" v="79881" />
	</node>
	<node id="-21245" lat="68.6654694459" lon="14.9290416582">
		<tag k="fixme" v="multiple name tags, choose one and add the other to alt_name" />
		<tag k="name" v="Innerholmen;Nordholmen" />
		<tag k="place" v="islet" />
		<tag k="ssr:stedsnr" v="79693" />
	</node>
	<node id="-21240" lat="68.5273111139" lon="14.6740277687">
		<tag k="name" v="Hestneset" />
		<tag k="natural" v="cape" />
		<tag k="ssr:stedsnr" v="78983" />
	</node>
	<node id="-21238" lat="68.5042416703" lon="14.4690083447">
		<tag k="name" v="Litlbakkflua" />
		<tag k="natural" v="shoal" />
		<tag k="place" v="locality" />
		<tag k="ssr:stedsnr" v="78968" />
	</node>
	<node id="-21237" lat="68.5003083357" lon="14.683491671">
		<tag k="alt_name" v="Kløvningan" />
		<tag k="name" v="Klemningan" />
		<tag k="place" v="islet" />
		<tag k="ssr:stedsnr" v="78965" />
	</node>
	<node id="-21232" lat="68.5154694414" lon="14.6424861168">
		<tag k="name" v="Øyskallen" />
		<tag k="natural" v="shoal" />
		<tag k="place" v="locality" />
		<tag k="ssr:stedsnr" v="78951" />
	</node>
	<node id="-21231" lat="68.5557694418" lon="14.6155194521">
		<tag k="name" v="Storravika" />
		<tag k="natural" v="bay" />
		<tag k="ssr:stedsnr" v="78949" />
	</node>
	<node id="-21228" lat="68.5778888891" lon="14.9214666724">
		<tag k="name" v="Langøysundet" />
		<tag k="natural" v="strait" />
		<tag k="ssr:stedsnr" v="78934" />
	</node>
	<node id="-21224" lat="68.3863166667" lon="15.0919055626">
		<tag k="name" v="Svineset" />
		<tag k="natural" v="cape" />
		<tag k="ssr:stedsnr" v="78852" />
	</node>
	<node id="-21219" lat="68.4266249974" lon="15.1609166777">
		<tag k="name" v="Ivarvika" />
		<tag k="natural" v="bay" />
		<tag k="ssr:stedsnr" v="78762" />
	</node>
	<node id="-21214" lat="68.6483138844" lon="14.8278972278">
		<tag k="name" v="Sildgarnklubben" />
		<tag k="natural" v="cape" />
		<tag k="ssr:stedsnr" v="78708" />
	</node>
	<node id="-20261" lat="68.5680333322" lon="15.3284888943">
		<tag k="name" v="Langneset" />
		<tag k="natural" v="cape" />
		<tag k="ssr:stedsnr" v="423016" />
	</node>
	<node id="-21212" lat="68.6519555516" lon="14.8812083245">
		<tag k="alt_name" v="Kvalsøybugen" />
		<tag k="name" v="Kvalsøybogen" />
		<tag k="natural" v="bay" />
		<tag k="ssr:stedsnr" v="78705" />
	</node>
	<node id="-19578" lat="68.64316111" lon="14.8116999912">
		<tag k="name" v="Follnaustan" />
		<tag k="natural" v="cape" />
		<tag k="ssr:stedsnr" v="18518" />
	</node>
	<node id="-21210" lat="68.4951111137" lon="15.2213222114">
		<tag k="name" v="Vedøysundet" />
		<tag k="natural" v="strait" />
		<tag k="ssr:stedsnr" v="78610" />
	</node>
	<node id="-21205" lat="68.6284500024" lon="14.7675944483">
		<tag k="name" v="Litlharparen" />
		<tag k="place" v="islet" />
		<tag k="ssr:stedsnr" v="78529" />
	</node>
	<node id="-21195" lat="68.4254388856" lon="14.8818861207">
		<tag k="name" v="Kolvikberget" />
		<tag k="natural" v="cape" />
		<tag k="ssr:stedsnr" v="78351" />
	</node>
	<node id="-21194" lat="68.4227416688" lon="14.8404999885">
		<tag k="name" v="Årnøysundet" />
		<tag k="natural" v="strait" />
		<tag k="ssr:stedsnr" v="78346" />
	</node>
	<node id="-21185" lat="68.5788833329" lon="15.2971444375">
		<tag k="alt_name" v="Fiskfjorden" />
		<tag k="bay" v="fjord" />
		<tag k="name" v="Fiskefjorden" />
		<tag k="natural" v="bay" />
		<tag k="ssr:stedsnr" v="78090" />
	</node>
	<node id="-21179" lat="68.3580416652" lon="15.065697227">
		<tag k="alt_name" v="Tennstrandnes" />
		<tag k="name" v="Tennstrandneset" />
		<tag k="natural" v="cape" />
		<tag k="ssr:stedsnr" v="77885" />
	</node>
	<node id="-21175" lat="68.4853388917" lon="15.2126194456">
		<tag k="name" v="Brattholmen" />
		<tag k="place" v="islet" />
		<tag k="ssr:stedsnr" v="77657" />
	</node>
	<node id="-21173" lat="68.4988805539" lon="14.8849222205">
		<tag k="name" v="Vassvikodden" />
		<tag k="natural" v="cape" />
		<tag k="ssr:stedsnr" v="77174" />
	</node>
	<node id="-21172" lat="68.4975277788" lon="14.817408333">
		<tag k="fixme" v="multiple name tags, choose one and add the other to alt_name" />
		<tag k="name" v="Gullstadholmen;Gulstadøya" />
		<tag k="place" v="islet" />
		<tag k="ssr:stedsnr" v="77169" />
	</node>
	<node id="-21171" lat="68.4582500033" lon="14.8820555684">
		<tag k="name" v="Storneset" />
		<tag k="natural" v="cape" />
		<tag k="ssr:stedsnr" v="77164" />
	</node>
	<node id="-20787" lat="68.612955553" lon="14.7668583344">
		<tag k="name" v="Skjærvøyan" />
		<tag k="place" v="islet" />
		<tag k="ssr:stedsnr" v="768296" />
	</node>
	<node id="-21169" lat="68.3962583373" lon="14.8676055681">
		<tag k="name" v="Austavindsneset" />
		<tag k="natural" v="cape" />
		<tag k="ssr:stedsnr" v="77285" />
	</node>
	<node id="-21165" lat="68.4407055587" lon="14.7284222263">
		<tag k="name" v="Leinan" />
		<tag k="place" v="islet" />
		<tag k="ssr:stedsnr" v="59125" />
	</node>
	<node id="-19754" lat="68.5371694413" lon="14.5178833308">
		<tag k="name" v="Ollarsaskallen" />
		<tag k="natural" v="shoal" />
		<tag k="place" v="locality" />
		<tag k="ssr:stedsnr" v="261857" />
	</node>
	<node id="-19567" lat="68.6496833331" lon="14.8355888819">
		<tag k="name" v="Håkjerringvika" />
		<tag k="natural" v="bay" />
		<tag k="ssr:stedsnr" v="17737" />
	</node>
	<node id="-20054" lat="68.5745666661" lon="15.2209944367">
		<tag k="name" v="Jensodden" />
		<tag k="natural" v="cape" />
		<tag k="ssr:stedsnr" v="458942" />
	</node>
	<node id="-21143" lat="68.664827781" lon="14.9341916697">
		<tag k="name" v="Lilleholmen" />
		<tag k="natural" v="cape" />
		<tag k="ssr:stedsnr" v="42687" />
	</node>
	<node id="-21139" lat="68.6193388881" lon="14.8147472106">
		<tag k="name" v="Vikkerbukta" />
		<tag k="natural" v="bay" />
		<tag k="ssr:stedsnr" v="42656" />
	</node>
	<node id="-21133" lat="68.4791638887" lon="15.1601666693">
		<tag k="name" v="Mølnosen" />
		<tag k="natural" v="bay" />
		<tag k="ssr:stedsnr" v="40988" />
	</node>
	<node id="-21131" lat="68.4699222211" lon="15.2400888826">
		<tag k="name" v="Rørvika" />
		<tag k="natural" v="bay" />
		<tag k="ssr:stedsnr" v="40889" />
	</node>
	<node id="-21127" lat="68.5688222233" lon="14.6196055452">
		<tag k="name" v="Karlstadberget" />
		<tag k="place" v="islet" />
		<tag k="ssr:stedsnr" v="40195" />
	</node>
	<node id="-21115" lat="68.5825166688" lon="14.6611666614">
		<tag k="fixme" v="consider seamark:type=rock or natural=shoal" />
		<tag k="name" v="Småskjeran" />
		<tag k="place" v="islet" />
		<tag k="ssr:stedsnr" v="39073" />
	</node>
	<node id="-21114" lat="68.593783336" lon="14.8384027709">
		<tag k="name" v="Øybåen" />
		<tag k="natural" v="shoal" />
		<tag k="place" v="locality" />
		<tag k="ssr:stedsnr" v="36677" />
	</node>
	<node id="-21113" lat="68.5614638858" lon="15.0246638798">
		<tag k="name" v="Risøyskallen" />
		<tag k="natural" v="shoal" />
		<tag k="place" v="locality" />
		<tag k="ssr:stedsnr" v="36626" />
	</node>
	<node id="-21111" lat="68.5864527735" lon="14.6692305524">
		<tag k="alt_name" v="Andslettbøen" />
		<tag k="name" v="Andslettbåen" />
		<tag k="natural" v="shoal" />
		<tag k="place" v="locality" />
		<tag k="ssr:stedsnr" v="36442" />
	</node>
	<node id="-19560" lat="68.4556207656" lon="14.8610045946">
		<tag k="name" v="Hattholman" />
		<tag k="place" v="islet" />
		<tag k="ssr:stedsnr" v="17201" />
	</node>
	<node id="-21089" lat="68.6228305594" lon="15.194622219">
		<tag k="fixme" v="consider seamark:type=rock or natural=shoal" />
		<tag k="name" v="Kobbsteinan" />
		<tag k="place" v="islet" />
		<tag k="ssr:stedsnr" v="33780" />
	</node>
	<node id="-21081" lat="68.5040999974" lon="14.7131083283">
		<tag k="alt_name" v="Finnhamn" />
		<tag k="name" v="Finnhamnen" />
		<tag k="natural" v="bay" />
		<tag k="ssr:stedsnr" v="18958" />
	</node>
	<node id="-21447" lat="68.6413111091" lon="14.7978611087">
		<tag k="name" v="Sjurholmbukta" />
		<tag k="natural" v="bay" />
		<tag k="ssr:stedsnr" v="163750" />
	</node>
	<node id="-21070" lat="68.5170055566" lon="14.5177500108">
		<tag k="alt_name" v="Ulvøyholman, store" />
		<tag k="name" v="Store Ulvøyholman" />
		<tag k="place" v="islet" />
		<tag k="ssr:stedsnr" v="18933" />
	</node>
	<node id="-21060" lat="68.5014444484" lon="15.2144833237">
		<tag k="name" v="Steinholmen" />
		<tag k="place" v="islet" />
		<tag k="ssr:stedsnr" v="18381" />
	</node>
	<node id="-21059" lat="68.509624998" lon="15.2356694559">
		<tag k="name" v="Ingeborgneset" />
		<tag k="natural" v="cape" />
		<tag k="ssr:stedsnr" v="18380" />
	</node>
	<node id="-21056" lat="68.4172888895" lon="14.8669527796">
		<tag k="name" v="Hamnneset" />
		<tag k="natural" v="cape" />
		<tag k="ssr:stedsnr" v="18011" />
	</node>
	<node id="-21053" lat="68.5262861074" lon="14.5604055543">
		<tag k="alt_name" v="Eirsøkskjeret" />
		<tag k="fixme" v="consider seamark:type=rock or natural=shoal" />
		<tag k="name" v="Esauskjeret" />
		<tag k="place" v="islet" />
		<tag k="ssr:stedsnr" v="17989" />
	</node>
	<node id="-21049" lat="68.3680972253" lon="15.0276722116">
		<tag k="name" v="Svartsundet" />
		<tag k="natural" v="strait" />
		<tag k="ssr:stedsnr" v="17945" />
	</node>
	<node id="-21048" lat="68.6701194476" lon="15.036705553">
		<tag k="name" v="Sørbogen" />
		<tag k="natural" v="bay" />
		<tag k="ssr:stedsnr" v="18198" />
	</node>
	<node id="-21046" lat="68.5766944424" lon="14.8351416752">
		<tag k="fixme" v="multiple name tags, choose one and add the other to alt_name; consider seamark:type=rock or natural=shoal" />
		<tag k="name" v="Bergvikskjeran;Bervikskjeran" />
		<tag k="place" v="islet" />
		<tag k="ssr:stedsnr" v="17938" />
	</node>
	<node id="-21044" lat="68.4761472217" lon="15.1850083344">
		<tag k="name" v="Hanøysundet" />
		<tag k="natural" v="strait" />
		<tag k="ssr:stedsnr" v="17685" />
	</node>
	<node id="-21043" lat="68.4787500016" lon="15.2668583297">
		<tag k="name" v="Kråa" />
		<tag k="natural" v="bay" />
		<tag k="ssr:stedsnr" v="17684" />
	</node>
	<node id="-21039" lat="68.607544444" lon="14.8713472278">
		<tag k="alt_name" v="Vikbotn" />
		<tag k="name" v="Vikbotnen" />
		<tag k="natural" v="bay" />
		<tag k="ssr:stedsnr" v="17626" />
	</node>
	<node id="-21038" lat="68.5944499975" lon="14.779541671">
		<tag k="fixme" v="consider seamark:type=rock or natural=shoal" />
		<tag k="name" v="Klubba" />
		<tag k="place" v="islet" />
		<tag k="ssr:stedsnr" v="17594" />
	</node>
	<node id="-21037" lat="68.5970361105" lon="14.8416583324">
		<tag k="name" v="Pålsholmen" />
		<tag k="place" v="islet" />
		<tag k="ssr:stedsnr" v="17591" />
	</node>
	<node id="-21033" lat="68.5742527777" lon="14.8738666621">
		<tag k="name" v="Bjørnneset" />
		<tag k="natural" v="cape" />
		<tag k="old_name" v="Bjørnnesset" />
		<tag k="ssr:stedsnr" v="18199" />
	</node>
	<node id="-21027" lat="68.4720916676" lon="15.2282444552">
		<tag k="name" v="Sandøya" />
		<tag k="place" v="islet" />
		<tag k="ssr:stedsnr" v="17770" />
	</node>
	<node id="-21026" lat="68.4709444482" lon="15.156152778">
		<tag k="alt_name" v="Juvikodden" />
		<tag k="name" v="Juvikneset" />
		<tag k="natural" v="cape" />
		<tag k="ssr:stedsnr" v="17766" />
	</node>
	<node id="-21023" lat="68.4628416651" lon="14.9544944337">
		<tag k="name" v="Bugen" />
		<tag k="natural" v="bay" />
		<tag k="ssr:stedsnr" v="17187" />
	</node>
	<node id="-21019" lat="68.4316916678" lon="14.830102789">
		<tag k="name" v="Fiskebølvika" />
		<tag k="natural" v="bay" />
		<tag k="ssr:stedsnr" v="17394" />
	</node>
	<node id="-21015" lat="68.4212138917" lon="14.6959083256">
		<tag k="fixme" v="consider seamark:type=rock or natural=shoal" />
		<tag k="name" v="Skarvskjeran" />
		<tag k="place" v="islet" />
		<tag k="ssr:stedsnr" v="17375" />
	</node>
	<node id="-21014" lat="68.4413444421" lon="14.7578110985">
		<tag k="fixme" v="consider seamark:type=rock or natural=shoal" />
		<tag k="name" v="Stabban" />
		<tag k="place" v="islet" />
		<tag k="ssr:stedsnr" v="17371" />
	</node>
	<node id="-21013" lat="68.4403555566" lon="14.8812222121">
		<tag k="name" v="Floholman" />
		<tag k="place" v="islet" />
		<tag k="ssr:stedsnr" v="17370" />
	</node>
	<node id="-21012" lat="68.4438888856" lon="14.5754027712">
		<tag k="name" v="Helgøya" />
		<tag k="natural" v="shoal" />
		<tag k="place" v="locality" />
		<tag k="ssr:stedsnr" v="17366" />
	</node>
	<node id="-21011" lat="68.4457611152" lon="14.9817750102">
		<tag k="name" v="Lilleøya" />
		<tag k="place" v="islet" />
		<tag k="ssr:stedsnr" v="17358" />
	</node>
	<node id="-21010" lat="68.5788333361" lon="15.2310444376">
		<tag k="name" v="Kvitnesklubben" />
		<tag k="natural" v="cape" />
		<tag k="ssr:stedsnr" v="17099" />
	</node>
	<node id="-21002" lat="68.4957138908" lon="14.7834638964">
		<tag k="name" v="Siløya" />
		<tag k="place" v="island" />
		<tag k="ssr:stedsnr" v="16147" />
	</node>
	<node id="-21001" lat="68.495011113" lon="14.8065666607">
		<tag k="name" v="Svinøya" />
		<tag k="place" v="islet" />
		<tag k="ssr:stedsnr" v="16146" />
	</node>
	<node id="-20995" lat="68.4621638896" lon="15.0146194437">
		<tag k="name" v="Øyklubben" />
		<tag k="place" v="islet" />
		<tag k="ssr:stedsnr" v="965618" />
	</node>
	<node id="-20992" lat="68.4233388902" lon="15.1539250067">
		<tag k="name" v="Nordvågen" />
		<tag k="natural" v="bay" />
		<tag k="ssr:stedsnr" v="950989" />
	</node>
	<node id="-20991" lat="68.4836361089" lon="15.1343972242">
		<tag k="name" v="Hestvika" />
		<tag k="natural" v="bay" />
		<tag k="ssr:stedsnr" v="950984" />
	</node>
	<node id="-19541" lat="68.4998388909" lon="15.221802772">
		<tag k="name" v="Keila" />
		<tag k="natural" v="bay" />
		<tag k="ssr:stedsnr" v="222908" />
	</node>
	<node id="-20986" lat="68.6327027824" lon="14.7583166622">
		<tag k="name" v="Harparleia" />
		<tag k="natural" v="strait" />
		<tag k="ssr:stedsnr" v="947758" />
	</node>
	<node id="-20985" lat="68.446147224" lon="14.8684111114">
		<tag k="name" v="Roa" />
		<tag k="natural" v="shoal" />
		<tag k="place" v="locality" />
		<tag k="ssr:stedsnr" v="946721" />
	</node>
	<node id="-20979" lat="68.6683138859" lon="14.9539860979">
		<tag k="name" v="Grønningbukta" />
		<tag k="natural" v="bay" />
		<tag k="ssr:stedsnr" v="928706" />
	</node>
	<node id="-20977" lat="68.4509916632" lon="15.0472055519">
		<tag k="name" v="Vika" />
		<tag k="natural" v="bay" />
		<tag k="ssr:stedsnr" v="905613" />
	</node>
	<node id="-20974" lat="68.5068249977" lon="14.6681472315">
		<tag k="name" v="Lillekleholmen" />
		<tag k="place" v="islet" />
		<tag k="ssr:stedsnr" v="889108" />
	</node>
	<node id="-20973" lat="68.5120777741" lon="15.2793111147">
		<tag k="fixme" v="consider seamark:type=rock or natural=shoal" />
		<tag k="name" v="Tennskjeret" />
		<tag k="place" v="islet" />
		<tag k="ssr:stedsnr" v="886308" />
	</node>
	<node id="-20972" lat="68.658224998" lon="14.8694555602">
		<tag k="fixme" v="consider seamark:type=rock or natural=shoal" />
		<tag k="name" v="Kvalbaken" />
		<tag k="place" v="islet" />
		<tag k="ssr:stedsnr" v="885676" />
	</node>
	<node id="-20971" lat="68.530755554" lon="15.2553749964">
		<tag k="name" v="Leirbogen" />
		<tag k="natural" v="beach" />
		<tag k="place" v="locality" />
		<tag k="ssr:stedsnr" v="884822" />
	</node>
	<node id="-20968" lat="68.5372444421" lon="15.1818583248">
		<tag k="name" v="Nordskagbukta" />
		<tag k="natural" v="bay" />
		<tag k="ssr:stedsnr" v="884220" />
	</node>
	<node id="-19537" lat="68.4724194467" lon="15.230666671">
		<tag k="name" v="Sandholman" />
		<tag k="place" v="islet" />
		<tag k="ssr:stedsnr" v="222861" />
	</node>
	<node id="-20964" lat="68.6142833324" lon="15.1699333255">
		<tag k="name" v="Stranda" />
		<tag k="natural" v="beach" />
		<tag k="place" v="locality" />
		<tag k="ssr:stedsnr" v="883824" />
	</node>
	<node id="-19878" lat="68.4465499974" lon="14.9853611004">
		<tag k="name" v="Falkfjordøya" />
		<tag k="place" v="islet" />
		<tag k="ssr:stedsnr" v="199318" />
	</node>
	<node id="-20219" lat="68.5365250001" lon="14.6666750073">
		<tag k="name" v="Hoklandsvika" />
		<tag k="natural" v="bay" />
		<tag k="ssr:stedsnr" v="503961" />
	</node>
	<node id="-19877" lat="68.3983916695" lon="14.574427772">
		<tag k="name" v="Bøgene" />
		<tag k="natural" v="bay" />
		<tag k="ssr:stedsnr" v="199306" />
	</node>
	<node id="-20955" lat="68.5801138898" lon="14.7947305555">
		<tag k="fixme" v="consider seamark:type=rock or natural=shoal" />
		<tag k="name" v="Silsandskjeran" />
		<tag k="place" v="islet" />
		<tag k="ssr:stedsnr" v="950304" />
	</node>
	<node id="-20954" lat="68.5537999992" lon="14.6119194415">
		<tag k="name" v="Øvre Geitholmen" />
		<tag k="place" v="islet" />
		<tag k="ssr:stedsnr" v="950202" />
	</node>
	<node id="-20953" lat="68.5549083304" lon="14.60998889">
		<tag k="fixme" v="consider seamark:type=rock or natural=shoal" />
		<tag k="name" v="Hoven" />
		<tag k="place" v="islet" />
		<tag k="ssr:stedsnr" v="950201" />
	</node>
	<node id="-20951" lat="68.5472666676" lon="14.6066166609">
		<tag k="fixme" v="consider seamark:type=rock or natural=shoal" />
		<tag k="name" v="Børholmskjeret" />
		<tag k="place" v="islet" />
		<tag k="ssr:stedsnr" v="950195" />
	</node>
	<node id="-20950" lat="68.4296138916" lon="14.5956194535">
		<tag k="name" v="Svartberget" />
		<tag k="natural" v="cape" />
		<tag k="ssr:stedsnr" v="950215" />
	</node>
	<node id="-20941" lat="68.5812777763" lon="14.7027999994">
		<tag k="name" v="Bogen" />
		<tag k="natural" v="bay" />
		<tag k="ssr:stedsnr" v="950040" />
	</node>
	<node id="-20940" lat="68.5765277803" lon="14.6407944435">
		<tag k="name" v="Langnesvika" />
		<tag k="natural" v="bay" />
		<tag k="ssr:stedsnr" v="950038" />
	</node>
	<node id="-20934" lat="68.5725861084" lon="15.3257333298">
		<tag k="alt_name" v="Valheimneset;Valbergneset" />
		<tag k="name" v="Vallbeinneset" />
		<tag k="natural" v="cape" />
		<tag k="ssr:stedsnr" v="867118" />
	</node>
	<node id="-20933" lat="68.6696888849" lon="14.9715722238">
		<tag k="name" v="Kuneset" />
		<tag k="natural" v="cape" />
		<tag k="ssr:stedsnr" v="946677" />
	</node>
	<node id="-20932" lat="68.5691694432" lon="14.9170583443">
		<tag k="name" v="Bukkholmgrunnen" />
		<tag k="natural" v="shoal" />
		<tag k="place" v="locality" />
		<tag k="ssr:stedsnr" v="946244" />
	</node>
	<node id="-20925" lat="68.4988777786" lon="14.8811944328">
		<tag k="name" v="Djuphamn" />
		<tag k="natural" v="bay" />
		<tag k="ssr:stedsnr" v="944827" />
	</node>
	<node id="-20917" lat="68.559161109" lon="14.9498305456">
		<tag k="name" v="Slettbukta" />
		<tag k="natural" v="bay" />
		<tag k="ssr:stedsnr" v="944510" />
	</node>
	<node id="-21769" lat="68.6138166646" lon="15.181000001">
		<tag k="alt_name" v="Lotterskjeret;Lotteskjeret" />
		<tag k="fixme" v="consider seamark:type=rock or natural=shoal" />
		<tag k="name" v="Låterskjeret" />
		<tag k="place" v="islet" />
		<tag k="ssr:stedsnr" v="381018" />
	</node>
	<node id="-20910" lat="68.4279138903" lon="14.8464360996">
		<tag k="fixme" v="consider seamark:type=rock or natural=shoal" />
		<tag k="name" v="Skarvskjeret" />
		<tag k="place" v="islet" />
		<tag k="ssr:stedsnr" v="845418" />
	</node>
	<node id="-20210" lat="68.543438891" lon="14.5242888916">
		<tag k="name" v="Værsoddbåen" />
		<tag k="natural" v="shoal" />
		<tag k="place" v="locality" />
		<tag k="ssr:stedsnr" v="503850" />
	</node>
	<node id="-21155" lat="68.4568833364" lon="14.9059027813">
		<tag k="name" v="Nesodden" />
		<tag k="natural" v="cape" />
		<tag k="ssr:stedsnr" v="56439" />
	</node>
	<node id="-19527" lat="68.5032194435" lon="15.2368500018">
		<tag k="name" v="Bakkstranda" />
		<tag k="natural" v="beach" />
		<tag k="place" v="locality" />
		<tag k="ssr:stedsnr" v="222782" />
	</node>
	<node id="-20903" lat="68.4364888927" lon="14.6088833308">
		<tag k="fixme" v="consider seamark:type=rock or natural=shoal" />
		<tag k="name" v="Seiskjeret" />
		<tag k="place" v="islet" />
		<tag k="ssr:stedsnr" v="934663" />
	</node>
	<node id="-20209" lat="68.5511388884" lon="14.9989416766">
		<tag k="name" v="Stranda" />
		<tag k="natural" v="beach" />
		<tag k="place" v="locality" />
		<tag k="ssr:stedsnr" v="503848" />
	</node>
	<node id="-20897" lat="68.5306055583" lon="14.9889583244">
		<tag k="alt_name" v="Vangsodden;Vangodden" />
		<tag k="name" v="Vangneset" />
		<tag k="natural" v="cape" />
		<tag k="ssr:stedsnr" v="928993" />
	</node>
	<node id="-20896" lat="68.5235749963" lon="14.6704694533">
		<tag k="name" v="Arklubben" />
		<tag k="place" v="islet" />
		<tag k="ssr:stedsnr" v="928990" />
	</node>
	<node id="-20895" lat="68.5201000028" lon="14.6780333444">
		<tag k="fixme" v="consider seamark:type=rock or natural=shoal" />
		<tag k="name" v="Langskjeret" />
		<tag k="place" v="islet" />
		<tag k="ssr:stedsnr" v="928989" />
	</node>
	<node id="-20893" lat="68.5372638902" lon="14.6009916718">
		<tag k="name" v="Kjeøybanken" />
		<tag k="natural" v="shoal" />
		<tag k="place" v="locality" />
		<tag k="ssr:stedsnr" v="928891" />
	</node>
	<node id="-20892" lat="68.5009111092" lon="14.7078638975">
		<tag k="name" v="Tjuvholmen" />
		<tag k="place" v="islet" />
		<tag k="ssr:stedsnr" v="928964" />
	</node>
	<node id="-20889" lat="68.5523277807" lon="14.5792500065">
		<tag k="name" v="Leivsgrunnen" />
		<tag k="natural" v="shoal" />
		<tag k="place" v="locality" />
		<tag k="ssr:stedsnr" v="928884" />
	</node>
	<node id="-20888" lat="68.5575888884" lon="15.0056388892">
		<tag k="name" v="Risøya" />
		<tag k="place" v="island" />
		<tag k="ssr:stedsnr" v="928879" />
	</node>
	<node id="-19524" lat="68.5771416624" lon="14.7713999953">
		<tag k="name" v="Menteodden" />
		<tag k="natural" v="cape" />
		<tag k="ssr:stedsnr" v="222457" />
	</node>
	<node id="-20884" lat="68.6626138915" lon="14.9200138884">
		<tag k="alt_name" v="Ytreholmen" />
		<tag k="name" v="Ytterholmen" />
		<tag k="place" v="islet" />
		<tag k="ssr:stedsnr" v="928677" />
	</node>
	<node id="-21768" lat="68.4110777789" lon="14.5315583289">
		<tag k="name" v="Revet" />
		<tag k="natural" v="cape" />
		<tag k="ssr:stedsnr" v="381010" />
	</node>
	<node id="-20879" lat="68.6114499977" lon="14.7487388824">
		<tag k="alt_name" v="Riva" />
		<tag k="name" v="Riven" />
		<tag k="natural" v="shoal" />
		<tag k="place" v="locality" />
		<tag k="ssr:stedsnr" v="928577" />
	</node>
	<node id="-20878" lat="68.6192250011" lon="14.7528583308">
		<tag k="fixme" v="consider seamark:type=rock or natural=shoal" />
		<tag k="name" v="Flatskjeret" />
		<tag k="place" v="islet" />
		<tag k="ssr:stedsnr" v="928490" />
	</node>
	<node id="-19521" lat="68.5076138876" lon="15.2822388978">
		<tag k="name" v="Ørnneset" />
		<tag k="natural" v="cape" />
		<tag k="ssr:stedsnr" v="222050" />
	</node>
	<node id="-20203" lat="68.5087555517" lon="15.1831972283">
		<tag k="fixme" v="consider seamark:type=rock or natural=shoal" />
		<tag k="name" v="Sandøyskjeran" />
		<tag k="place" v="islet" />
		<tag k="ssr:stedsnr" v="503406" />
	</node>
	<node id="-20864" lat="68.436166663" lon="14.7190999921">
		<tag k="name" v="Valbukta" />
		<tag k="natural" v="bay" />
		<tag k="ssr:stedsnr" v="928004" />
	</node>
	<node id="-20544" lat="68.6164416682" lon="14.8318999971">
		<tag k="name" v="Lillehavet" />
		<tag k="natural" v="bay" />
		<tag k="ssr:stedsnr" v="709691" />
	</node>
	<node id="-20862" lat="68.4689277773" lon="14.3307472274">
		<tag k="name" v="Strandgrunnen" />
		<tag k="natural" v="shoal" />
		<tag k="place" v="locality" />
		<tag k="ssr:stedsnr" v="927961" />
	</node>
	<node id="-20883" lat="68.648349998" lon="14.8307249964">
		<tag k="name" v="Tjønnbogtjønnes" />
		<tag k="natural" v="cape" />
		<tag k="ssr:stedsnr" v="928659" />
	</node>
	<node id="-20848" lat="68.4678194446" lon="15.3502777861">
		<tag k="name" v="Høgfjellneset" />
		<tag k="natural" v="cape" />
		<tag k="ssr:stedsnr" v="927757" />
	</node>
	<node id="-20847" lat="68.4683083685" lon="15.29913572">
		<tag k="name" v="Ingelsfjordneset" />
		<tag k="natural" v="cape" />
		<tag k="ssr:stedsnr" v="927753" />
	</node>
	<node id="-20845" lat="68.4717944405" lon="15.2873111133">
		<tag k="name" v="Nesøya" />
		<tag k="place" v="island" />
		<tag k="ssr:stedsnr" v="927739" />
	</node>
	<node id="-20211" lat="68.5387888919" lon="14.5790305511">
		<tag k="fixme" v="consider seamark:type=rock or natural=shoal" />
		<tag k="name" v="Kobbskjeran" />
		<tag k="place" v="islet" />
		<tag k="ssr:stedsnr" v="503851" />
	</node>
	<node id="-20842" lat="68.4760333343" lon="15.0954555494">
		<tag k="name" v="Kjerkeflua" />
		<tag k="natural" v="shoal" />
		<tag k="place" v="locality" />
		<tag k="ssr:stedsnr" v="927646" />
	</node>
	<node id="-20840" lat="68.498799998" lon="15.2210833229">
		<tag k="name" v="Slettneset" />
		<tag k="natural" v="cape" />
		<tag k="ssr:stedsnr" v="927623" />
	</node>
	<node id="-20837" lat="68.4504361111" lon="14.8669499895">
		<tag k="name" v="Holdøyskallen" />
		<tag k="natural" v="shoal" />
		<tag k="place" v="locality" />
		<tag k="ssr:stedsnr" v="805160" />
	</node>
	<node id="-20836" lat="68.4102611092" lon="14.8693333414">
		<tag k="name" v="Sløverholman" />
		<tag k="place" v="islet" />
		<tag k="ssr:stedsnr" v="805227" />
	</node>
	<node id="-20829" lat="68.4345500019" lon="14.7951805466">
		<tag k="fixme" v="consider seamark:type=rock or natural=shoal" />
		<tag k="name" v="Hestsandrevet" />
		<tag k="place" v="islet" />
		<tag k="ssr:stedsnr" v="927379" />
	</node>
	<node id="-20827" lat="68.4260888906" lon="14.8853888997">
		<tag k="alt_name" v="Kollvika" />
		<tag k="name" v="Kolvika" />
		<tag k="natural" v="bay" />
		<tag k="ssr:stedsnr" v="927372" />
	</node>
	<node id="-20825" lat="68.4391305556" lon="14.831997227">
		<tag k="name" v="Kalvøya" />
		<tag k="place" v="island" />
		<tag k="ssr:stedsnr" v="927357" />
	</node>
	<node id="-20824" lat="68.437200002" lon="14.7652555454">
		<tag k="name" v="Kistholmen" />
		<tag k="place" v="islet" />
		<tag k="ssr:stedsnr" v="927340" />
	</node>
	<node id="-20821" lat="68.3961111079" lon="14.8617777723">
		<tag k="name" v="Vedholmen" />
		<tag k="place" v="islet" />
		<tag k="ssr:stedsnr" v="927303" />
	</node>
	<node id="-20461" lat="68.5656388914" lon="14.9141388787">
		<tag k="name" v="Ranværingsneset" />
		<tag k="natural" v="cape" />
		<tag k="ssr:stedsnr" v="701106" />
	</node>
	<node id="-20813" lat="68.4488472251" lon="14.7369833453">
		<tag k="alt_name" v="Engøyholmen" />
		<tag k="name" v="Engøyholman" />
		<tag k="place" v="islet" />
		<tag k="ssr:stedsnr" v="927195" />
	</node>
	<node id="-20812" lat="68.4562250048" lon="14.7654249906">
		<tag k="fixme" v="multiple name tags, choose one and add the other to alt_name; consider seamark:type=rock or natural=shoal" />
		<tag k="name" v="Kalven;Seløykalven" />
		<tag k="place" v="islet" />
		<tag k="ssr:stedsnr" v="927192" />
	</node>
	<node id="-20809" lat="68.5432296735" lon="14.8255731938">
		<tag k="alt_name:no" v="Hadseløy" />
		<tag k="loc_name:se" v="Ulbi" />
		<tag k="name" v="Hadseløya" />
		<tag k="name:no" v="Hadseløya" />
		<tag k="place" v="island" />
		<tag k="ssr:stedsnr" v="927176" />
	</node>
	<node id="-20808" lat="68.4570305558" lon="14.9067055622">
		<tag k="name" v="Nesodden" />
		<tag k="natural" v="cape" />
		<tag k="ssr:stedsnr" v="927170" />
	</node>
	<node id="-20807" lat="68.4988166675" lon="14.6792388963">
		<tag k="name" v="Bortreklemningen" />
		<tag k="place" v="islet" />
		<tag k="ssr:stedsnr" v="927150" />
	</node>
	<node id="-20806" lat="68.4959361095" lon="14.5115333275">
		<tag k="name" v="Hekkelen" />
		<tag k="natural" v="shoal" />
		<tag k="place" v="locality" />
		<tag k="ssr:stedsnr" v="927149" />
	</node>
	<node id="-20801" lat="68.4022888848" lon="14.7047805446">
		<tag k="name" v="Morfjordneset" />
		<tag k="natural" v="cape" />
		<tag k="ssr:stedsnr" v="787153" />
	</node>
	<node id="-20795" lat="68.5773333371" lon="14.7431611021">
		<tag k="name" v="Sandvika" />
		<tag k="natural" v="bay" />
		<tag k="ssr:stedsnr" v="928541" />
	</node>
	<node id="-20792" lat="68.586933337" lon="14.8659527902">
		<tag k="name" v="Skjelvågan" />
		<tag k="natural" v="bay" />
		<tag k="ssr:stedsnr" v="928530" />
	</node>
	<node id="-20791" lat="68.5831611126" lon="14.9118944379">
		<tag k="name" v="Sandnesodden" />
		<tag k="natural" v="cape" />
		<tag k="ssr:stedsnr" v="928527" />
	</node>
	<node id="-19697" lat="68.3643833331" lon="15.0202666694">
		<tag k="name" v="Tjobotnen" />
		<tag k="natural" v="bay" />
		<tag k="ssr:stedsnr" v="259916" />
	</node>
	<node id="-20531" lat="68.4720277763" lon="15.2480000023">
		<tag k="name" v="Laukholman" />
		<tag k="place" v="islet" />
		<tag k="ssr:stedsnr" v="708860" />
	</node>
	<node id="-20782" lat="68.4365750003" lon="14.7307138955">
		<tag k="name" v="Yttersjøen" />
		<tag k="natural" v="bay" />
		<tag k="ssr:stedsnr" v="767068" />
	</node>
	<node id="-20530" lat="68.4687194423" lon="15.2210083247">
		<tag k="name" v="Hattvika" />
		<tag k="natural" v="bay" />
		<tag k="ssr:stedsnr" v="708857" />
	</node>
	<node id="-20778" lat="68.6037944425" lon="14.7705388992">
		<tag k="name" v="Stabban" />
		<tag k="natural" v="shoal" />
		<tag k="place" v="locality" />
		<tag k="ssr:stedsnr" v="765803" />
	</node>
	<node id="-20777" lat="68.525294449" lon="14.5049055446">
		<tag k="fixme" v="consider seamark:type=rock or natural=shoal" />
		<tag k="name" v="Flesa" />
		<tag k="place" v="islet" />
		<tag k="ssr:stedsnr" v="764920" />
	</node>
	<node id="-19514" lat="68.6175333296" lon="14.7501722227">
		<tag k="name" v="Flatskjerflua" />
		<tag k="natural" v="shoal" />
		<tag k="place" v="locality" />
		<tag k="ssr:stedsnr" v="219868" />
	</node>
	<node id="-20772" lat="68.5853527741" lon="14.9928749899">
		<tag k="name" v="Bitterstadstranda" />
		<tag k="natural" v="beach" />
		<tag k="place" v="locality" />
		<tag k="ssr:stedsnr" v="761256" />
	</node>
	<node id="-20768" lat="68.4280722196" lon="14.82545">
		<tag k="name" v="Pollen" />
		<tag k="natural" v="bay" />
		<tag k="ssr:stedsnr" v="909242" />
	</node>
	<node id="-20766" lat="68.4405222216" lon="14.7543944341">
		<tag k="name" v="Nesodden" />
		<tag k="natural" v="cape" />
		<tag k="ssr:stedsnr" v="909096" />
	</node>
	<node id="-20762" lat="68.5734416627" lon="15.3242999913">
		<tag k="fixme" v="consider seamark:type=rock or natural=shoal" />
		<tag k="name" v="Smørsteinen" />
		<tag k="place" v="islet" />
		<tag k="ssr:stedsnr" v="909011" />
	</node>
	<node id="-20760" lat="68.5718972229" lon="14.8552639">
		<tag k="fixme" v="multiple name tags, choose one and add the other to alt_name" />
		<tag k="name" v="Bergvikodden;Mangsteinodden" />
		<tag k="natural" v="cape" />
		<tag k="ssr:stedsnr" v="746917" />
	</node>
	<node id="-20759" lat="68.6643138885" lon="14.8934805572">
		<tag k="bay" v="fjord" />
		<tag k="loc_name:se" v="Nuorrevuotna" />
		<tag k="name" v="Eidsfjorden" />
		<tag k="name:no" v="Eidsfjorden" />
		<tag k="natural" v="bay" />
		<tag k="ssr:stedsnr" v="746604" />
	</node>
	<node id="-20185" lat="68.5965555564" lon="14.8115694553">
		<tag k="alt_name" v="Hestarflua" />
		<tag k="name" v="Hesttarflua" />
		<tag k="natural" v="shoal" />
		<tag k="place" v="locality" />
		<tag k="ssr:stedsnr" v="502572" />
	</node>
	<node id="-20756" lat="68.349458335" lon="15.0543250116">
		<tag k="name" v="Nordramvika" />
		<tag k="natural" v="bay" />
		<tag k="ssr:stedsnr" v="745906" />
	</node>
	<node id="-20755" lat="68.3554805529" lon="15.0618361197">
		<tag k="name" v="Tennfjordholmen" />
		<tag k="place" v="islet" />
		<tag k="ssr:stedsnr" v="745904" />
	</node>
	<node id="-20754" lat="68.3547777749" lon="15.0338888994">
		<tag k="name" v="Buholmen" />
		<tag k="natural" v="cape" />
		<tag k="ssr:stedsnr" v="745903" />
	</node>
	<node id="-20753" lat="68.4797555548" lon="15.2554861095">
		<tag k="name" v="Sommarsetholman" />
		<tag k="place" v="islet" />
		<tag k="ssr:stedsnr" v="745655" />
	</node>
	<node id="-20746" lat="68.3627499994" lon="14.9360750026">
		<tag k="bay" v="fjord" />
		<tag k="name" v="Trollfjorden" />
		<tag k="natural" v="bay" />
		<tag k="ssr:stedsnr" v="745461" />
	</node>
	<node id="-20183" lat="68.383474997" lon="14.8055999928">
		<tag k="name" v="Kinnarvika" />
		<tag k="natural" v="bay" />
		<tag k="ssr:stedsnr" v="502442" />
	</node>
	<node id="-20744" lat="68.5774166659" lon="14.6492222339">
		<tag k="fixme" v="multiple name tags, choose one and add the other to alt_name" />
		<tag k="name" v="Elvvika;Tægvika" />
		<tag k="natural" v="bay" />
		<tag k="ssr:stedsnr" v="745567" />
	</node>
	<node id="-20743" lat="68.4164722191" lon="14.8586916561">
		<tag k="bay" v="fjord" />
		<tag k="name" v="Sløverfjorden" />
		<tag k="natural" v="bay" />
		<tag k="ssr:stedsnr" v="745377" />
	</node>
	<node id="-20742" lat="68.4383611115" lon="14.8176666713">
		<tag k="name" v="Rundholmen" />
		<tag k="place" v="islet" />
		<tag k="ssr:stedsnr" v="745371" />
	</node>
	<node id="-20741" lat="68.444555559" lon="14.7401055543">
		<tag k="name" v="Engøya" />
		<tag k="place" v="island" />
		<tag k="ssr:stedsnr" v="745361" />
	</node>
	<node id="-20739" lat="68.4362916673" lon="14.8122944326">
		<tag k="alt_name" v="Hellesundholman" />
		<tag k="name" v="Hellsundholman" />
		<tag k="place" v="islet" />
		<tag k="ssr:stedsnr" v="745354" />
	</node>
	<node id="-20738" lat="68.412769442" lon="14.6928555526">
		<tag k="alt_name" v="Øra" />
		<tag k="name" v="Øyra" />
		<tag k="natural" v="cape" />
		<tag k="ssr:stedsnr" v="745304" />
	</node>
	<node id="-20736" lat="68.34263611" lon="15.0014999967">
		<tag k="name" v="Brakøya" />
		<tag k="place" v="island" />
		<tag k="ssr:stedsnr" v="745412" />
	</node>
	<node id="-20735" lat="68.3410527734" lon="15.0101500097">
		<tag k="name" v="Brattholmen" />
		<tag k="place" v="islet" />
		<tag k="ssr:stedsnr" v="745411" />
	</node>
	<node id="-20734" lat="68.523730552" lon="15.2102916718">
		<tag k="name" v="Hennesholman" />
		<tag k="place" v="islet" />
		<tag k="ssr:stedsnr" v="745409" />
	</node>
	<node id="-20733" lat="68.4085777745" lon="14.5595888844">
		<tag k="name" v="Gråsteinbukta" />
		<tag k="natural" v="bay" />
		<tag k="ssr:stedsnr" v="745277" />
	</node>
	<node id="-20731" lat="68.4481805587" lon="14.7198416593">
		<tag k="alt_name" v="Langbøholmen" />
		<tag k="name" v="Langbåholmen" />
		<tag k="place" v="islet" />
		<tag k="ssr:stedsnr" v="745225" />
	</node>
	<node id="-20730" lat="68.4496" lon="14.8351388979">
		<tag k="fixme" v="consider seamark:type=rock or natural=shoal" />
		<tag k="name" v="Kråka" />
		<tag k="place" v="islet" />
		<tag k="ssr:stedsnr" v="745223" />
	</node>
	<node id="-20729" lat="68.4491416691" lon="14.7733777758">
		<tag k="alt_name" v="Lilleseløya" />
		<tag k="name" v="Litlseløya" />
		<tag k="place" v="island" />
		<tag k="ssr:stedsnr" v="745213" />
	</node>
	<node id="-20728" lat="68.4535555523" lon="14.8849527881">
		<tag k="name" v="Kvalvika" />
		<tag k="natural" v="bay" />
		<tag k="ssr:stedsnr" v="745208" />
	</node>
	<node id="-20727" lat="68.4552055527" lon="14.8913666644">
		<tag k="alt_name" v="Holdøy" />
		<tag k="name" v="Holdøya" />
		<tag k="place" v="island" />
		<tag k="ssr:stedsnr" v="745207" />
	</node>
	<node id="-20725" lat="68.5785416704" lon="15.0608694362">
		<tag k="name" v="Skagskallen" />
		<tag k="natural" v="shoal" />
		<tag k="place" v="locality" />
		<tag k="ssr:stedsnr" v="745105" />
	</node>
	<node id="-20723" lat="68.4920916639" lon="14.7302083372">
		<tag k="alt_name" v="Kartvikholmene" />
		<tag k="name" v="Kartvikholmen" />
		<tag k="place" v="islet" />
		<tag k="ssr:stedsnr" v="744129" />
	</node>
	<node id="-20722" lat="68.4976861106" lon="14.747436119">
		<tag k="name" v="Haugvågen" />
		<tag k="natural" v="bay" />
		<tag k="ssr:stedsnr" v="744113" />
	</node>
	<node id="-20721" lat="68.4625944475" lon="15.059849991">
		<tag k="name" v="Steinneset" />
		<tag k="natural" v="cape" />
		<tag k="ssr:stedsnr" v="905652" />
	</node>
	<node id="-20717" lat="68.4483222181" lon="15.038638889">
		<tag k="name" v="Steinholmen" />
		<tag k="place" v="islet" />
		<tag k="ssr:stedsnr" v="905595" />
	</node>
	<node id="-20713" lat="68.4493472261" lon="14.779399993">
		<tag k="fixme" v="consider seamark:type=rock or natural=shoal" />
		<tag k="name" v="Rundskjeran" />
		<tag k="place" v="islet" />
		<tag k="ssr:stedsnr" v="905433" />
	</node>
	<node id="-20712" lat="68.4274194452" lon="14.8670083257">
		<tag k="name" v="Skarvika" />
		<tag k="natural" v="bay" />
		<tag k="ssr:stedsnr" v="905342" />
	</node>
	<node id="-20711" lat="68.4491138922" lon="14.9015194437">
		<tag k="name" v="Holdøyvalen" />
		<tag k="natural" v="strait" />
		<tag k="ssr:stedsnr" v="905422" />
	</node>
	<node id="-20710" lat="68.4313722232" lon="14.8230361133">
		<tag k="name" v="Skjåneset" />
		<tag k="natural" v="cape" />
		<tag k="ssr:stedsnr" v="905384" />
	</node>
	<node id="-20709" lat="68.427408337" lon="14.8428305565">
		<tag k="fixme" v="consider seamark:type=rock or natural=shoal" />
		<tag k="name" v="Kortskjeret" />
		<tag k="place" v="islet" />
		<tag k="ssr:stedsnr" v="905379" />
	</node>
	<node id="-20702" lat="68.4551777804" lon="14.8652333449">
		<tag k="name" v="Store Hattholmen" />
		<tag k="place" v="islet" />
		<tag k="ssr:stedsnr" v="723416" />
	</node>
	<node id="-20700" lat="68.4202333293" lon="14.8349138892">
		<tag k="name" v="Kallvika" />
		<tag k="natural" v="bay" />
		<tag k="ssr:stedsnr" v="723379" />
	</node>
	<node id="-20698" lat="68.4268527781" lon="14.8650361232">
		<tag k="name" v="Mellaskarvika" />
		<tag k="natural" v="bay" />
		<tag k="ssr:stedsnr" v="723356" />
	</node>
	<node id="-20697" lat="68.4251444482" lon="14.8835416581">
		<tag k="name" v="Stranda" />
		<tag k="natural" v="beach" />
		<tag k="place" v="locality" />
		<tag k="ssr:stedsnr" v="723355" />
	</node>
	<node id="-20694" lat="68.6177722254" lon="14.8556333284">
		<tag k="name" v="Skagbogodden" />
		<tag k="natural" v="cape" />
		<tag k="ssr:stedsnr" v="709303" />
	</node>
	<node id="-20691" lat="68.6576694411" lon="14.87278333">
		<tag k="name" v="Skansen" />
		<tag k="natural" v="cape" />
		<tag k="ssr:stedsnr" v="891768" />
	</node>
	<node id="-20684" lat="68.4773138889" lon="15.1535833289">
		<tag k="name" v="Krøkebærholmen" />
		<tag k="natural" v="cape" />
		<tag k="ssr:stedsnr" v="890988" />
	</node>
	<node id="-20682" lat="68.4695194452" lon="15.1976999952">
		<tag k="fixme" v="consider seamark:type=rock or natural=shoal" />
		<tag k="name" v="Kjuklingan" />
		<tag k="place" v="islet" />
		<tag k="ssr:stedsnr" v="890889" />
	</node>
	<node id="-20680" lat="68.4987500032" lon="15.2942305521">
		<tag k="name" v="Kvanntovika" />
		<tag k="natural" v="bay" />
		<tag k="ssr:stedsnr" v="890862" />
	</node>
	<node id="-20672" lat="68.5247277792" lon="14.9622944395">
		<tag k="name" v="Martaholmen" />
		<tag k="place" v="islet" />
		<tag k="ssr:stedsnr" v="702377" />
	</node>
	<node id="-19778" lat="68.5583944413" lon="14.9597722107">
		<tag k="name" v="Andvågen" />
		<tag k="natural" v="bay" />
		<tag k="ssr:stedsnr" v="276545" />
	</node>
	<node id="-20657" lat="68.5547749986" lon="14.6144027858">
		<tag k="name" v="Ytre Geitholmen" />
		<tag k="place" v="islet" />
		<tag k="ssr:stedsnr" v="889183" />
	</node>
	<node id="-20652" lat="68.564838892" lon="14.6108972268">
		<tag k="name" v="Tangvikodden" />
		<tag k="place" v="islet" />
		<tag k="ssr:stedsnr" v="889160" />
	</node>
	<node id="-19826" lat="68.5804111132" lon="14.658327784">
		<tag k="name" v="Kongsteiganklubben" />
		<tag k="natural" v="cape" />
		<tag k="ssr:stedsnr" v="282091" />
	</node>
	<node id="-22698" lat="68.4460194417" lon="14.9835111207">
		<tag k="name" v="Makkleira" />
		<tag k="natural" v="strait" />
		<tag k="ssr:stedsnr" v="965593" />
	</node>
	<node id="-20167" lat="68.4486361147" lon="14.9610916736">
		<tag k="alt_name" v="Hamnneset" />
		<tag k="name" v="Hamnnesodden" />
		<tag k="natural" v="cape" />
		<tag k="ssr:stedsnr" v="502158" />
	</node>
	<node id="-20647" lat="68.4193166664" lon="14.7020499899">
		<tag k="name" v="Finnholmen" />
		<tag k="place" v="islet" />
		<tag k="ssr:stedsnr" v="889101" />
	</node>
	<node id="-22694" lat="68.6642861077" lon="14.930350002">
		<tag k="name" v="Valen" />
		<tag k="natural" v="strait" />
		<tag k="ssr:stedsnr" v="952716" />
	</node>
	<node id="-22692" lat="68.6522583325" lon="14.8562972159">
		<tag k="name" v="Vottnesvågen" />
		<tag k="natural" v="bay" />
		<tag k="ssr:stedsnr" v="952690" />
	</node>
	<node id="-20637" lat="68.5010666646" lon="14.4279999935">
		<tag k="name" v="Kjerringgrunnen" />
		<tag k="natural" v="shoal" />
		<tag k="place" v="locality" />
		<tag k="ssr:stedsnr" v="886918" />
	</node>
	<node id="-20636" lat="68.3686361076" lon="15.0143416559">
		<tag k="name" v="Kobbsteinan" />
		<tag k="place" v="locality" />
		<tag k="seamark:type" v="rock" />
		<tag k="ssr:stedsnr" v="886473" />
	</node>
	<node id="-20635" lat="68.6533972186" lon="14.8364472117">
		<tag k="fixme" v="multiple name tags, choose one and add the other to alt_name; consider seamark:type=rock or natural=shoal" />
		<tag k="name" v="Votten;Vottskjeret" />
		<tag k="place" v="islet" />
		<tag k="ssr:stedsnr" v="885679" />
	</node>
	<node id="-22682" lat="68.4762833354" lon="15.1416333296">
		<tag k="name" v="Reinvikneset" />
		<tag k="natural" v="cape" />
		<tag k="ssr:stedsnr" v="950972" />
	</node>
	<node id="-19823" lat="68.5116166666" lon="15.1749499919">
		<tag k="name" v="Einsteinen" />
		<tag k="place" v="locality" />
		<tag k="seamark:type" v="rock" />
		<tag k="ssr:stedsnr" v="280259" />
	</node>
	<node id="-22680" lat="68.469036112" lon="15.2732860997">
		<tag k="name" v="Skarvskjerneset" />
		<tag k="natural" v="cape" />
		<tag k="ssr:stedsnr" v="950836" />
	</node>
	<node id="-20630" lat="68.6634388871" lon="14.9165138902">
		<tag k="name" v="Langholmen" />
		<tag k="place" v="islet" />
		<tag k="ssr:stedsnr" v="685709" />
	</node>
	<node id="-22676" lat="68.4757499987" lon="15.1930138951">
		<tag k="name" v="Karivika" />
		<tag k="natural" v="bay" />
		<tag k="ssr:stedsnr" v="950808" />
	</node>
	<node id="-22674" lat="68.4170194458" lon="14.533044437">
		<tag k="name" v="Langbukken" />
		<tag k="natural" v="cape" />
		<tag k="ssr:stedsnr" v="950730" />
	</node>
	<node id="-20623" lat="68.6128861109" lon="15.1472861187">
		<tag k="name" v="Gjerstadodden" />
		<tag k="natural" v="cape" />
		<tag k="ssr:stedsnr" v="883838" />
	</node>
	<node id="-20620" lat="68.6118944467" lon="15.1671083461">
		<tag k="alt_name" v="Holmen" />
		<tag k="name" v="Gjerstadholmen" />
		<tag k="place" v="islet" />
		<tag k="ssr:stedsnr" v="684012" />
	</node>
	<node id="-20618" lat="68.6050305573" lon="14.850838879">
		<tag k="name" v="Daumannsvika" />
		<tag k="natural" v="bay" />
		<tag k="ssr:stedsnr" v="883162" />
	</node>
	<node id="-22665" lat="68.5320305548" lon="14.5181444434">
		<tag k="name" v="Steinen" />
		<tag k="natural" v="shoal" />
		<tag k="place" v="locality" />
		<tag k="ssr:stedsnr" v="868961" />
	</node>
	<node id="-20615" lat="68.5874333322" lon="14.9405166676">
		<tag k="name" v="Lundneset" />
		<tag k="natural" v="cape" />
		<tag k="ssr:stedsnr" v="883117" />
	</node>
	<node id="-22657" lat="68.5213194461" lon="14.6054444458">
		<tag k="name" v="Hektorskallen" />
		<tag k="natural" v="shoal" />
		<tag k="place" v="locality" />
		<tag k="ssr:stedsnr" v="867990" />
	</node>
	<node id="-22656" lat="68.5262277798" lon="14.6767777817">
		<tag k="name" v="Slåttvika" />
		<tag k="natural" v="bay" />
		<tag k="ssr:stedsnr" v="867984" />
	</node>
	<node id="-20605" lat="68.4783416639" lon="15.271102766">
		<tag k="name" v="Langbakktangen" />
		<tag k="natural" v="cape" />
		<tag k="ssr:stedsnr" v="647862" />
	</node>
	<node id="-22652" lat="68.577027776" lon="14.854666662">
		<tag k="name" v="Lysskallen" />
		<tag k="natural" v="shoal" />
		<tag k="place" v="locality" />
		<tag k="ssr:stedsnr" v="867932" />
	</node>
	<node id="-22649" lat="68.5452277807" lon="14.5289805636">
		<tag k="name" v="Storværodden" />
		<tag k="place" v="islet" />
		<tag k="ssr:stedsnr" v="867900" />
	</node>
	<node id="-22648" lat="68.558780559" lon="14.9577388937">
		<tag k="alt_name" v="Bruodden" />
		<tag k="name" v="Brurodden" />
		<tag k="natural" v="cape" />
		<tag k="ssr:stedsnr" v="867897" />
	</node>
	<node id="-22643" lat="68.6540222238" lon="14.9019000022">
		<tag k="alt_name" v="Stibukta" />
		<tag k="name" v="Stigbukta" />
		<tag k="natural" v="bay" />
		<tag k="ssr:stedsnr" v="867741" />
	</node>
	<node id="-22639" lat="68.4579388889" lon="15.0285777774">
		<tag k="alt_name" v="Lilledraget" />
		<tag k="fixme" v="consider seamark:type=rock or natural=shoal" />
		<tag k="name" v="Litldraget" />
		<tag k="place" v="islet" />
		<tag k="ssr:stedsnr" v="867711" />
	</node>
	<node id="-20590" lat="68.4462888878" lon="14.996927786">
		<tag k="name" v="Floholmen" />
		<tag k="place" v="islet" />
		<tag k="ssr:stedsnr" v="623315" />
	</node>
	<node id="-20589" lat="68.4361527738" lon="14.7475083259">
		<tag k="name" v="Flaget" />
		<tag k="natural" v="bay" />
		<tag k="ssr:stedsnr" v="623311" />
	</node>
	<node id="-22636" lat="68.4634361078" lon="15.1136749925">
		<tag k="name" v="Skavika" />
		<tag k="natural" v="bay" />
		<tag k="ssr:stedsnr" v="867707" />
	</node>
	<node id="-22635" lat="68.4975388893" lon="15.3137027881">
		<tag k="name" v="Svartdalsbukta" />
		<tag k="natural" v="bay" />
		<tag k="ssr:stedsnr" v="867640" />
	</node>
	<node id="-22634" lat="68.6753055565" lon="15.0068999937">
		<tag k="alt_name" v="Faksholman" />
		<tag k="name" v="Faksholmen" />
		<tag k="place" v="islet" />
		<tag k="ssr:stedsnr" v="867633" />
	</node>
	<node id="-22633" lat="68.6142444484" lon="14.7803861044">
		<tag k="alt_name" v="Skjærvøya, l" />
		<tag k="name" v="Litle Skjærvøya" />
		<tag k="place" v="island" />
		<tag k="ssr:stedsnr" v="867616" />
	</node>
	<node id="-22632" lat="68.606013888" lon="14.7167944541">
		<tag k="name" v="Djupskallen" />
		<tag k="natural" v="shoal" />
		<tag k="place" v="locality" />
		<tag k="ssr:stedsnr" v="867611" />
	</node>
	<node id="-22631" lat="68.587255555" lon="14.9571694453">
		<tag k="alt_name" v="Bogneset" />
		<tag k="name" v="Bugneset" />
		<tag k="natural" v="cape" />
		<tag k="ssr:stedsnr" v="867590" />
	</node>
	<node id="-22629" lat="68.874052779" lon="15.5807444388">
		<tag k="alt_name:no" v="Hinnøy" />
		<tag k="name" v="Hinnøya - Iinnasuolu" />
		<tag k="name:no" v="Hinnøya" />
		<tag k="name:se" v="Iinnasuolu" />
		<tag k="place" v="island" />
		<tag k="ssr:stedsnr" v="867568" />
	</node>
	<node id="-22621" lat="68.3792916673" lon="15.0106027878">
		<tag k="name" v="Kobbosen" />
		<tag k="natural" v="bay" />
		<tag k="ssr:stedsnr" v="867453" />
	</node>
	<node id="-22619" lat="68.5031472231" lon="15.3174944346">
		<tag k="name" v="Høystakkneset" />
		<tag k="natural" v="cape" />
		<tag k="ssr:stedsnr" v="867429" />
	</node>
	<node id="-22615" lat="68.4236194417" lon="14.8809194498">
		<tag k="name" v="Vardvika" />
		<tag k="natural" v="bay" />
		<tag k="ssr:stedsnr" v="867374" />
	</node>
	<node id="-20566" lat="68.4283055573" lon="14.8436777686">
		<tag k="fixme" v="consider seamark:type=rock or natural=shoal" />
		<tag k="name" v="Oddskjeret" />
		<tag k="place" v="islet" />
		<tag k="ssr:stedsnr" v="601371" />
	</node>
	<node id="-22609" lat="68.6004166678" lon="15.0954333389">
		<tag k="alt_name" v="Haukenesholmen" />
		<tag k="name" v="Hauknesholmen" />
		<tag k="place" v="islet" />
		<tag k="ssr:stedsnr" v="867048" />
	</node>
	<node id="-20152" lat="68.4313527766" lon="14.8726388953">
		<tag k="name" v="Vassvika" />
		<tag k="natural" v="bay" />
		<tag k="ssr:stedsnr" v="359371" />
	</node>
	<node id="-22606" lat="68.4348888914" lon="14.7093527893">
		<tag k="name" v="Korsneset" />
		<tag k="natural" v="cape" />
		<tag k="ssr:stedsnr" v="867011" />
	</node>
	<node id="-20493" lat="68.5792222219" lon="14.712911112">
		<tag k="name" v="Leirbogen" />
		<tag k="natural" v="bay" />
		<tag k="ssr:stedsnr" v="707060" />
	</node>
	<node id="-22603" lat="68.4346694467" lon="15.17118888">
		<tag k="name" v="Makkvika" />
		<tag k="natural" v="bay" />
		<tag k="ssr:stedsnr" v="866769" />
	</node>
	<node id="-20552" lat="68.4690055588" lon="15.2141249988">
		<tag k="fixme" v="consider seamark:type=rock or natural=shoal" />
		<tag k="name" v="Tennskjeret" />
		<tag k="place" v="islet" />
		<tag k="ssr:stedsnr" v="586869" />
	</node>
	<node id="-22598" lat="68.4887611138" lon="15.2161944391">
		<tag k="name" v="Vedøyholmen" />
		<tag k="place" v="islet" />
		<tag k="ssr:stedsnr" v="866623" />
	</node>
	<node id="-22596" lat="68.5939999993" lon="14.8209777831">
		<tag k="fixme" v="consider seamark:type=rock or natural=shoal" />
		<tag k="name" v="Øyskjeran" />
		<tag k="place" v="islet" />
		<tag k="ssr:stedsnr" v="866558" />
	</node>
	<node id="-20547" lat="68.4126638916" lon="15.1254527809">
		<tag k="name" v="Trongstraumen - Ráktastrávvi" />
		<tag k="name:no" v="Trongstraumen" />
		<tag k="name:se" v="Ráktastrávvi" />
		<tag k="natural" v="strait" />
		<tag k="ssr:stedsnr" v="709917" />
	</node>
	<node id="-20546" lat="68.6555805591" lon="14.8833305601">
		<tag k="name" v="Bjørnvika" />
		<tag k="natural" v="bay" />
		<tag k="ssr:stedsnr" v="709717" />
	</node>
	<node id="-22593" lat="68.4377944472" lon="14.7220333318">
		<tag k="fixme" v="multiple name tags, choose one and add the other to alt_name" />
		<tag k="name" v="Holmen;Storholmen" />
		<tag k="place" v="islet" />
		<tag k="ssr:stedsnr" v="866318" />
	</node>
	<node id="-22592" lat="68.4555527771" lon="14.9496055573">
		<tag k="name" v="Jorda" />
		<tag k="natural" v="bay" />
		<tag k="ssr:stedsnr" v="866309" />
	</node>
	<node id="-22590" lat="68.4470277819" lon="14.9584111048">
		<tag k="name" v="Holdøyhamn" />
		<tag k="natural" v="bay" />
		<tag k="ssr:stedsnr" v="866293" />
	</node>
	<node id="-22589" lat="68.4419138908" lon="14.9938305539">
		<tag k="bay" v="fjord" />
		<tag k="name" v="Falkfjorden" />
		<tag k="natural" v="bay" />
		<tag k="ssr:stedsnr" v="866286" />
	</node>
	<node id="-22588" lat="68.4348777744" lon="14.6187611201">
		<tag k="fixme" v="multiple name tags, choose one and add the other to alt_name" />
		<tag k="name" v="Indrevågen;Vågen" />
		<tag k="natural" v="bay" />
		<tag k="ssr:stedsnr" v="866285" />
	</node>
	<node id="-20539" lat="68.4699694413" lon="15.1529472313">
		<tag k="name" v="Gammelosten" />
		<tag k="natural" v="cape" />
		<tag k="ssr:stedsnr" v="708980" />
	</node>
	<node id="-20538" lat="68.6751805598" lon="15.0194416706">
		<tag k="name" v="Pollholmen" />
		<tag k="place" v="islet" />
		<tag k="ssr:stedsnr" v="708967" />
	</node>
	<node id="-20148" lat="68.4378777756" lon="14.6487499895">
		<tag k="fixme" v="consider seamark:type=rock or natural=shoal" />
		<tag k="name" v="Oterflesa" />
		<tag k="place" v="islet" />
		<tag k="ssr:stedsnr" v="347353" />
	</node>
	<node id="-22582" lat="68.4494555535" lon="14.694213894">
		<tag k="name" v="Breidgrunnen" />
		<tag k="natural" v="shoal" />
		<tag k="place" v="locality" />
		<tag k="ssr:stedsnr" v="866169" />
	</node>
	<node id="-22581" lat="68.4628861124" lon="14.9572361105">
		<tag k="name" v="Slåttøya" />
		<tag k="place" v="island" />
		<tag k="ssr:stedsnr" v="866168" />
	</node>
	<node id="-22580" lat="68.4599027746" lon="15.0195722148">
		<tag k="name" v="Myrlandsøya" />
		<tag k="place" v="island" />
		<tag k="ssr:stedsnr" v="866167" />
	</node>
	<node id="-22579" lat="68.4497888861" lon="14.9504777862">
		<tag k="alt_name" v="Bjønnesodden" />
		<tag k="name" v="Bjørnneset" />
		<tag k="natural" v="cape" />
		<tag k="ssr:stedsnr" v="866165" />
	</node>
	<node id="-22578" lat="68.4499944418" lon="14.8901250016">
		<tag k="name" v="Kvalneset" />
		<tag k="natural" v="cape" />
		<tag k="ssr:stedsnr" v="866162" />
	</node>
	<node id="-22577" lat="68.4474722252" lon="14.9772166568">
		<tag k="name" v="Hamnneset" />
		<tag k="natural" v="cape" />
		<tag k="old_name" v="Hamnnakken" />
		<tag k="ssr:stedsnr" v="866160" />
	</node>
	<node id="-20526" lat="68.4825305553" lon="15.2061916743">
		<tag k="name" v="Andershellarholmen" />
		<tag k="place" v="islet" />
		<tag k="ssr:stedsnr" v="708826" />
	</node>
	<node id="-20525" lat="68.4730972206" lon="15.1828833281">
		<tag k="name" v="Fjøsvika" />
		<tag k="natural" v="bay" />
		<tag k="ssr:stedsnr" v="708823" />
	</node>
	<node id="-20486" lat="68.3654083332" lon="15.0002416685">
		<tag k="name" v="Elvikgrunnen" />
		<tag k="natural" v="shoal" />
		<tag k="place" v="locality" />
		<tag k="ssr:stedsnr" v="704458" />
	</node>
	<node id="-22562" lat="68.4450888846" lon="14.8786361126">
		<tag k="fixme" v="consider seamark:type=rock or natural=shoal" />
		<tag k="name" v="Galtflua" />
		<tag k="place" v="islet" />
		<tag k="ssr:stedsnr" v="845450" />
	</node>
	<node id="-20513" lat="68.657402777" lon="14.9713666725">
		<tag k="name" v="Elveneset" />
		<tag k="natural" v="cape" />
		<tag k="ssr:stedsnr" v="707552" />
	</node>
	<node id="-22574" lat="68.4636500042" lon="14.9597222233">
		<tag k="name" v="Håkjerringneset" />
		<tag k="natural" v="cape" />
		<tag k="ssr:stedsnr" v="866135" />
	</node>
	<node id="-22554" lat="68.4489222195" lon="15.0360777862">
		<tag k="name" v="Gressholmen" />
		<tag k="place" v="islet" />
		<tag k="ssr:stedsnr" v="844596" />
	</node>
	<node id="-20504" lat="68.5582416683" lon="14.6086333357">
		<tag k="fixme" v="consider seamark:type=rock or natural=shoal" />
		<tag k="name" v="Krøplingen" />
		<tag k="place" v="islet" />
		<tag k="ssr:stedsnr" v="707203" />
	</node>
	<node id="-22551" lat="68.4382055573" lon="14.6557166646">
		<tag k="name" v="Kobbåen" />
		<tag k="natural" v="shoal" />
		<tag k="place" v="locality" />
		<tag k="ssr:stedsnr" v="833362" />
	</node>
	<node id="-20502" lat="68.5669750029" lon="14.6199805576">
		<tag k="name" v="Slettvika" />
		<tag k="natural" v="bay" />
		<tag k="ssr:stedsnr" v="707179" />
	</node>
	<node id="-20501" lat="68.5680305578" lon="14.6190555539">
		<tag k="name" v="Karlstadvågen" />
		<tag k="natural" v="bay" />
		<tag k="ssr:stedsnr" v="707177" />
	</node>
	<node id="-22546" lat="68.6569749972" lon="14.9081666544">
		<tag k="fixme" v="consider seamark:type=rock or natural=shoal" />
		<tag k="name" v="Moskjeret" />
		<tag k="place" v="islet" />
		<tag k="ssr:stedsnr" v="831682" />
	</node>
	<node id="-20497" lat="68.4355138858" lon="14.7513999964">
		<tag k="name" v="Strønstadbukta" />
		<tag k="natural" v="bay" />
		<tag k="ssr:stedsnr" v="707090" />
	</node>
	<node id="-22542" lat="68.6171000029" lon="14.866719439">
		<tag k="name" v="Ossanden" />
		<tag k="natural" v="beach" />
		<tag k="place" v="locality" />
		<tag k="ssr:stedsnr" v="831275" />
	</node>
	<node id="-22541" lat="68.6172250032" lon="14.8431250072">
		<tag k="name" v="Jonsmågen" />
		<tag k="natural" v="beach" />
		<tag k="place" v="locality" />
		<tag k="ssr:stedsnr" v="831270" />
	</node>
	<node id="-20489" lat="68.5776194433" lon="14.7360194481">
		<tag k="name" v="Åkervik" />
		<tag k="natural" v="bay" />
		<tag k="ssr:stedsnr" v="707018" />
	</node>
	<node id="-22535" lat="68.4720388865" lon="15.154866667">
		<tag k="name" v="Innerjuvikneset" />
		<tag k="natural" v="cape" />
		<tag k="ssr:stedsnr" v="829977" />
	</node>
	<node id="-22534" lat="68.4618500007" lon="15.190480564">
		<tag k="name" v="Larsvika" />
		<tag k="natural" v="bay" />
		<tag k="ssr:stedsnr" v="829874" />
	</node>
	<node id="-20485" lat="68.4765944446" lon="15.1753888915">
		<tag k="name" v="Hanøyholmen" />
		<tag k="place" v="islet" />
		<tag k="ssr:stedsnr" v="704417" />
	</node>
	<node id="-20484" lat="68.5021972249" lon="15.1499860997">
		<tag k="name" v="Båeskolten" />
		<tag k="natural" v="shoal" />
		<tag k="place" v="locality" />
		<tag k="ssr:stedsnr" v="704294" />
	</node>
	<node id="-22531" lat="68.5134138848" lon="15.2316722213">
		<tag k="name" v="Thodevika" />
		<tag k="natural" v="bay" />
		<tag k="ssr:stedsnr" v="829796" />
	</node>
	<node id="-22529" lat="68.5675027798" lon="14.8458027844">
		<tag k="name" v="Mangsteinodden" />
		<tag k="natural" v="cape" />
		<tag k="ssr:stedsnr" v="829284" />
	</node>
</osm>
