<?xml version="1.0" encoding="UTF-8"?>
<<<<<<< HEAD
<osm version="0.6" generator="osmapis">
	<node lat="68.37416110862823" lon="14.93193332129663" id="-10120">
		<tag k="loc_name" v="Jarsteinvatnet" />
		<tag k="name" v="Botnvatnet" />
		<tag k="natural" v="water" />
		<tag k="ssr:stedsnr" v="17500" />
		<tag k="water" v="lake" />
	</node>
	<node lat="68.59044444327819" lon="15.00296111285606" id="-10122">
		<tag k="alt_name" v="Lomstjørna" />
		<tag k="name" v="Lomstjønna" />
		<tag k="natural" v="water" />
		<tag k="ssr:stedsnr" v="17603" />
	</node>
	<node lat="68.65217500372657" lon="14.93065277973288" id="-10126">
		<tag k="name" v="Kjørstadelva" />
		<tag k="ssr:stedsnr" v="17732" />
		<tag k="waterway" v="river" />
	</node>
	<node lat="68.43102222369161" lon="15.191244452655347" id="-10129">
		<tag k="name" v="Storvatnet" />
		<tag k="natural" v="water" />
		<tag k="ssr:stedsnr" v="17806" />
		<tag k="water" v="lake" />
	</node>
	<node lat="68.432974996932" lon="15.108725009973687" id="-10131">
		<tag k="name" v="Isvatnet" />
		<tag k="natural" v="water" />
		<tag k="ssr:stedsnr" v="17815" />
	</node>
	<node lat="68.52851944152759" lon="14.770327770991374" id="-10134">
		<tag k="fixme" v="multiple name tags, choose one and add the other to alt_name" />
		<tag k="loc_name" v="Ongstadstorvatnet" />
		<tag k="name" v="Storongstadvatnet;Storvatnet" />
		<tag k="natural" v="water" />
		<tag k="ssr:stedsnr" v="17960" />
	</node>
	<node lat="68.5549361087031" lon="15.377511102025625" id="-10136">
		<tag k="alt_name" v="Fiskfjordvatnet, andre;Andre Fiskfjordvatnet" />
		<tag k="fixme" v="multiple name tags, choose one and add the other to alt_name" />
		<tag k="name" v="Fiskfjordvatnet;Andre Fiskefjordvatn" />
		<tag k="natural" v="water" />
		<tag k="ssr:stedsnr" v="18114" />
		<tag k="water" v="lake" />
	</node>
	<node lat="68.55753333341829" lon="15.345663894826131" id="-10137">
		<tag k="alt_name" v="Tjørnelva" />
		<tag k="name" v="Tjønnelva" />
		<tag k="ssr:stedsnr" v="18119" />
		<tag k="waterway" v="stream" />
	</node>
	<node lat="68.51346388475578" lon="15.356927781198488" id="-10140">
		<tag k="name" v="Åselva" />
		<tag k="ssr:stedsnr" v="18348" />
		<tag k="waterway" v="stream" />
	</node>
	<node lat="68.64107778080381" lon="14.95856944692804" id="-10166">
		<tag k="name" v="Selneset" />
		<tag k="natural" v="cape" />
		<tag k="ssr:stedsnr" v="40561" />
	</node>
	<node lat="68.46043333042368" lon="15.122911120228208" id="-10170">
		<tag k="name" v="Kvitholmelva" />
		<tag k="ssr:stedsnr" v="40977" />
		<tag k="waterway" v="stream" />
	</node>
	<node lat="68.54947777400388" lon="14.761194441990735" id="-10189">
		<tag k="name" v="Finnkjerkelva" />
		<tag k="ssr:stedsnr" v="238462" />
		<tag k="waterway" v="stream" />
	</node>
	<node lat="68.53433333032362" lon="15.330738896526483" id="-10208">
		<tag k="name" v="Vassneset" />
		<tag k="natural" v="cape" />
		<tag k="ssr:stedsnr" v="241013" />
	</node>
	<node lat="68.5363166675789" lon="15.31703056557547" id="-10210">
		<tag k="name" v="Storneset" />
		<tag k="natural" v="cape" />
		<tag k="ssr:stedsnr" v="241017" />
	</node>
	<node lat="68.38410833104108" lon="14.721386104913673" id="-10211">
		<tag k="name" v="Holmen" />
		<tag k="natural" v="water" />
		<tag k="ssr:stedsnr" v="241139" />
		<tag k="water" v="lake" />
	</node>
	<node lat="68.41218055110474" lon="14.689233344135454" id="-10213">
		<tag k="name" v="Valtjønna" />
		<tag k="natural" v="water" />
		<tag k="ssr:stedsnr" v="241151" />
	</node>
	<node lat="68.60882221837912" lon="15.078469448731674" id="-10225">
		<tag k="alt_name" v="Haukeneselva" />
		<tag k="name" v="Haukneselva" />
		<tag k="ssr:stedsnr" v="78050" />
		<tag k="waterway" v="river" />
	</node>
	<node lat="68.5021472189877" lon="15.257938877712139" id="-10229">
		<tag k="name" v="Storvatnet" />
		<tag k="natural" v="water" />
		<tag k="ssr:stedsnr" v="78412" />
	</node>
	<node lat="68.62855833459878" lon="14.932599993022965" id="-10232">
		<tag k="fixme" v="multiple name tags, choose one and add the other to alt_name" />
		<tag k="name" v="Kvannkista;Kvannkistvatnet" />
		<tag k="natural" v="water" />
		<tag k="ssr:stedsnr" v="78506" />
	</node>
	<node lat="68.63911110925368" lon="14.95808054357852" id="-10233">
		<tag k="name" v="Kjørstadvatnet" />
		<tag k="natural" v="water" />
		<tag k="ssr:stedsnr" v="78545" />
	</node>
	<node lat="68.61260277548489" lon="15.097061105007187" id="-10261">
		<tag k="name" v="Storfossen" />
		<tag k="natural" v="waterfall" />
		<tag k="ssr:stedsnr" v="94825" />
	</node>
	<node lat="68.57018332962369" lon="15.285716672129622" id="-10263">
		<tag k="name" v="Kvanntoelva" />
		<tag k="ssr:stedsnr" v="94951" />
		<tag k="waterway" v="stream" />
	</node>
	<node lat="68.4312055526584" lon="14.62091667677806" id="-10268">
		<tag k="name" v="Mortjønna" />
		<tag k="natural" v="water" />
		<tag k="ssr:stedsnr" v="100119" />
		<tag k="water" v="pond" />
	</node>
	<node lat="68.50371110903038" lon="15.249669441921897" id="-10273">
		<tag k="name" v="Mølnelva" />
		<tag k="ssr:stedsnr" v="101060" />
		<tag k="waterway" v="stream" />
	</node>
	<node lat="68.48082500353753" lon="15.176861121510148" id="-10276">
		<tag k="name" v="Lauklivatnet" />
		<tag k="natural" v="water" />
		<tag k="ssr:stedsnr" v="101865" />
	</node>
	<node lat="68.62311111123262" lon="14.881066674788062" id="-10283">
		<tag k="name" v="Lillereinbrekka" />
		<tag k="natural" v="cape" />
		<tag k="ssr:stedsnr" v="102744" />
	</node>
	<node lat="68.446880554745" lon="15.077347220644896" id="-10287">
		<tag k="name" v="Storvasselva" />
		<tag k="ssr:stedsnr" v="116610" />
		<tag k="waterway" v="stream" />
	</node>
	<node lat="68.40493333339636" lon="14.56445834456717" id="-10307">
		<tag k="name" v="Kreelva" />
		<tag k="ssr:stedsnr" v="138291" />
		<tag k="waterway" v="stream" />
	</node>
	<node lat="68.37398055197183" lon="14.60098609976297" id="-10312">
		<tag k="name" v="Litlvatnet" />
		<tag k="natural" v="water" />
		<tag k="ssr:stedsnr" v="138494" />
	</node>
	<node lat="68.6051305591894" lon="14.89855279073928" id="-10314">
		<tag k="alt_name" v="Kvannosbekken" />
		<tag k="name" v="Kvannrasbekken" />
		<tag k="ssr:stedsnr" v="138610" />
		<tag k="waterway" v="stream" />
	</node>
	<node lat="68.38844444233943" lon="15.147008326181595" id="-10317">
		<tag k="name" v="Raftelva" />
		<tag k="ssr:stedsnr" v="138841" />
		<tag k="waterway" v="stream" />
	</node>
	<node lat="68.53241666235878" lon="14.746880555699917" id="-10325">
		<tag k="name" v="Stillelva" />
		<tag k="ssr:stedsnr" v="138993" />
		<tag k="waterway" v="river" />
	</node>
	<node lat="68.55880278031812" lon="15.215666675035669" id="-10337">
		<tag k="name" v="Mølnelva" />
		<tag k="ssr:stedsnr" v="156301" />
		<tag k="waterway" v="stream" />
	</node>
	<node lat="68.55819722538727" lon="14.79823888986923" id="-10353">
		<tag k="name" v="Slottneset" />
		<tag k="natural" v="cape" />
		<tag k="ssr:stedsnr" v="163266" />
	</node>
	<node lat="68.4347916657792" lon="15.242600003633708" id="-10369">
		<tag k="name" v="Tverrelvvatnan" />
		<tag k="natural" v="water" />
		<tag k="ssr:stedsnr" v="259787" />
	</node>
	<node lat="68.64212500287606" lon="15.138005548294743" id="-10381">
		<tag k="name" v="Litlevatnet" />
		<tag k="natural" v="water" />
		<tag k="ssr:stedsnr" v="260291" />
	</node>
	<node lat="68.46363055842434" lon="15.161813888380935" id="-10391">
		<tag k="name" v="Juvikvatnet" />
		<tag k="natural" v="water" />
		<tag k="ssr:stedsnr" v="260720" />
	</node>
	<node lat="68.6194722264602" lon="14.932150001458835" id="-10408">
		<tag k="name" v="Tromslåttelva" />
		<tag k="ssr:stedsnr" v="261524" />
		<tag k="waterway" v="stream" />
	</node>
	<node lat="68.62328611320017" lon="14.996444434441594" id="-10409">
		<tag k="name" v="Tjørna" />
		<tag k="natural" v="water" />
		<tag k="ssr:stedsnr" v="261526" />
	</node>
	<node lat="68.40865277968318" lon="14.674208322298142" id="-10415">
		<tag k="name" v="Krokelva" />
		<tag k="ssr:stedsnr" v="180168" />
		<tag k="waterway" v="stream" />
	</node>
	<node lat="68.60991944445406" lon="15.02024722888594" id="-10419">
		<tag k="name" v="Dalvatnet" />
		<tag k="natural" v="water" />
		<tag k="ssr:stedsnr" v="199006" />
	</node>
	<node lat="68.43162499648331" lon="14.987983339241163" id="-10428">
		<tag k="fixme" v="multiple name tags, choose one and add the other to alt_name" />
		<tag k="name" v="Seljeskogtjørna;Selskogtjønna" />
		<tag k="natural" v="water" />
		<tag k="ssr:stedsnr" v="199377" />
	</node>
	<node lat="68.64425833378509" lon="15.122455544901642" id="-10429">
		<tag k="name" v="Forsvatnet" />
		<tag k="natural" v="water" />
		<tag k="ssr:stedsnr" v="199276" />
	</node>
	<node lat="68.48573055785137" lon="15.177266656085655" id="-10439">
		<tag k="name" v="Hestvatnet" />
		<tag k="natural" v="water" />
		<tag k="ssr:stedsnr" v="199657" />
	</node>
	<node lat="68.39072222191373" lon="14.651230555666682" id="-10449">
		<tag k="name" v="Storvatnet" />
		<tag k="natural" v="water" />
		<tag k="ssr:stedsnr" v="200055" />
		<tag k="water" v="lake" />
	</node>
	<node lat="68.57109999655307" lon="14.656749987723602" id="-10455">
		<tag k="alt_name" v="Teiganvatnet" />
		<tag k="name" v="Teigvatnet" />
		<tag k="natural" v="water" />
		<tag k="ssr:stedsnr" v="200901" />
	</node>
	<node lat="68.57273333775447" lon="14.750180544394363" id="-10469">
		<tag k="name" v="Lillevatnet" />
		<tag k="natural" v="water" />
		<tag k="ssr:stedsnr" v="222025" />
	</node>
	<node lat="68.41671944734917" lon="15.16564444540296" id="-10477">
		<tag k="name" v="Tengelfjordelva" />
		<tag k="ssr:stedsnr" v="222978" />
		<tag k="waterway" v="stream" />
	</node>
	<node lat="68.445694444092" lon="14.936583326336303" id="-10488">
		<tag k="name" v="Elven" />
		<tag k="ssr:stedsnr" v="237592" />
		<tag k="waterway" v="stream" />
	</node>
	<node lat="68.44406944181308" lon="14.934027788967613" id="-10504">
		<tag k="name" v="Rennarelvvatnet" />
		<tag k="natural" v="water" />
		<tag k="ssr:stedsnr" v="259327" />
	</node>
	<node lat="68.354358329582" lon="15.02328888915126" id="-10514">
		<tag k="name" v="Ulvøyvatnet" />
		<tag k="natural" v="water" />
		<tag k="ssr:stedsnr" v="259879" />
	</node>
	<node lat="68.6132388858367" lon="15.098272212985474" id="-10518">
		<tag k="name" v="Gryttingselva" />
		<tag k="ssr:stedsnr" v="260001" />
		<tag k="waterway" v="river" />
	</node>
	<node lat="68.43305277814972" lon="14.667374998732656" id="-10571">
		<tag k="name" v="Bonsteintjønna" />
		<tag k="natural" v="water" />
		<tag k="ssr:stedsnr" v="282126" />
	</node>
	<node lat="68.64373055975331" lon="14.951330560667426" id="-10609">
		<tag k="name" v="Gomotofta" />
		<tag k="natural" v="cape" />
		<tag k="ssr:stedsnr" v="465553" />
	</node>
	<node lat="68.4971000032916" lon="15.277952774823104" id="-10610">
		<tag k="name" v="Småelvan" />
		<tag k="ssr:stedsnr" v="465859" />
		<tag k="waterway" v="stream" />
	</node>
	<node lat="68.62194721941854" lon="14.897738879696147" id="-10617">
		<tag k="name" v="Røsandbekken" />
		<tag k="ssr:stedsnr" v="466730" />
		<tag k="waterway" v="stream" />
	</node>
	<node lat="68.37958888977185" lon="14.77443055348167" id="-10627">
		<tag k="name" v="Dalsvatnet" />
		<tag k="natural" v="water" />
		<tag k="ssr:stedsnr" v="320436" />
	</node>
	<node lat="68.37870277649891" lon="14.721502776027098" id="-10628">
		<tag k="name" v="Sørelva" />
		<tag k="ssr:stedsnr" v="320438" />
		<tag k="waterway" v="stream" />
	</node>
	<node lat="68.38603055102338" lon="14.993758335372341" id="-10629">
		<tag k="name" v="Grunnfjordvatnet" />
		<tag k="natural" v="water" />
		<tag k="ssr:stedsnr" v="320449" />
	</node>
	<node lat="68.46122499733718" lon="15.29388888810523" id="-10631">
		<tag k="name" v="Nøkkvatnet" />
		<tag k="natural" v="water" />
		<tag k="ssr:stedsnr" v="320698" />
	</node>
	<node lat="68.46993610816124" lon="15.272516659265264" id="-10634">
		<tag k="alt_name" v="Pollen, yt" />
		<tag k="name" v="Ytre Pollen" />
		<tag k="natural" v="bay" />
		<tag k="ssr:stedsnr" v="320743" />
	</node>
	<node lat="68.6511000033476" lon="14.985280565474548" id="-10638">
		<tag k="fixme" v="multiple name tags, choose one and add the other to alt_name" />
		<tag k="name" v="Storelva;Bogelva" />
		<tag k="ssr:stedsnr" v="321207" />
		<tag k="waterway" v="river" />
	</node>
	<node lat="68.6439722199765" lon="14.879430547988687" id="-10644">
		<tag k="name" v="Kvalsøyelva" />
		<tag k="ssr:stedsnr" v="321524" />
		<tag k="waterway" v="stream" />
	</node>
	<node lat="68.61009444830252" lon="14.972116655613537" id="-10646">
		<tag k="name" v="Brurtjørna" />
		<tag k="natural" v="water" />
		<tag k="ssr:stedsnr" v="321581" />
	</node>
	<node lat="68.52482499741836" lon="14.833430558068121" id="-10649">
		<tag k="name" v="Finnsteinelva" />
		<tag k="ssr:stedsnr" v="321935" />
		<tag k="waterway" v="stream" />
	</node>
	<node lat="68.55271388764116" lon="14.84379722174312" id="-10650">
		<tag k="fixme" v="multiple name tags, choose one and add the other to alt_name" />
		<tag k="name" v="Bergvikvatnet;Bervikvatnet" />
		<tag k="natural" v="water" />
		<tag k="ssr:stedsnr" v="321887" />
	</node>
	<node lat="68.42930833513141" lon="14.735113889002173" id="-10668">
		<tag k="name" v="Strønstadelva" />
		<tag k="ssr:stedsnr" v="342057" />
		<tag k="waterway" v="stream" />
	</node>
	<node lat="68.55488333417149" lon="14.905322230622646" id="-10680">
		<tag k="name" v="Gledalselva" />
		<tag k="ssr:stedsnr" v="345274" />
		<tag k="waterway" v="stream" />
	</node>
	<node lat="68.43483055648375" lon="14.650161122577336" id="-10710">
		<tag k="alt_name" v="Haksteintjønna" />
		<tag k="name" v="Hakksteintjørna" />
		<tag k="natural" v="water" />
		<tag k="ssr:stedsnr" v="380323" />
	</node>
	<node lat="68.4836861151242" lon="15.265547229265922" id="-10714">
		<tag k="name" v="Sommarsetelva" />
		<tag k="ssr:stedsnr" v="380678" />
		<tag k="waterway" v="stream" />
	</node>
	<node lat="68.44295555195774" lon="15.051311118530391" id="-10720">
		<tag k="fixme" v="multiple name tags, choose one and add the other to alt_name" />
		<tag k="name" v="Varmvatnet;Vardvatnet" />
		<tag k="natural" v="water" />
		<tag k="ssr:stedsnr" v="380807" />
	</node>
	<node lat="68.45327499742966" lon="15.098149989596573" id="-10729">
		<tag k="name" v="Stabbelva" />
		<tag k="ssr:stedsnr" v="381715" />
		<tag k="waterway" v="stream" />
	</node>
	<node lat="68.62006110904369" lon="14.868744432353013" id="-10776">
		<tag k="name" v="Mølndammen" />
		<tag k="natural" v="water" />
		<tag k="ssr:stedsnr" v="406696" />
		<tag k="water" v="lake" />
	</node>
	<node lat="68.49192777404747" lon="15.321808337790213" id="-10788">
		<tag k="name" v="Rennarvasselva" />
		<tag k="ssr:stedsnr" v="423050" />
		<tag k="waterway" v="stream" />
	</node>
	<node lat="68.4389416633717" lon="14.917077782771873" id="-10792">
		<tag k="name" v="Mølnelva" />
		<tag k="ssr:stedsnr" v="441342" />
		<tag k="waterway" v="stream" />
	</node>
	<node lat="68.66899444105412" lon="15.043058340542808" id="-10801">
		<tag k="alt_name" v="Drågtjørna" />
		<tag k="name" v="Drågtjønna" />
		<tag k="natural" v="water" />
		<tag k="ssr:stedsnr" v="442198" />
	</node>
	<node lat="68.41765278084814" lon="14.566024993192892" id="-10802">
		<tag k="name" v="Bonbekken" />
		<tag k="ssr:stedsnr" v="442311" />
		<tag k="waterway" v="stream" />
	</node>
	<node lat="68.53572778008851" lon="15.324319449457807" id="-10803">
		<tag k="name" v="Krullneset" />
		<tag k="natural" v="cape" />
		<tag k="ssr:stedsnr" v="442385" />
	</node>
	<node lat="68.56364999856171" lon="14.849899988477318" id="-10815">
		<tag k="alt_name" v="Bervikelva" />
		<tag k="name" v="Bergvikelva" />
		<tag k="ssr:stedsnr" v="442939" />
		<tag k="waterway" v="stream" />
	</node>
	<node lat="68.55172500414913" lon="14.660183331430034" id="-10864">
		<tag k="name" v="Nøkkvatnet" />
		<tag k="natural" v="water" />
		<tag k="ssr:stedsnr" v="480459" />
	</node>
	<node lat="68.6479611113732" lon="15.143636120159202" id="-10874">
		<tag k="name" v="Storvatnet" />
		<tag k="natural" v="water" />
		<tag k="ssr:stedsnr" v="502178" />
	</node>
	<node lat="68.4434472191029" lon="15.251755546332266" id="-10879">
		<tag k="name" v="Sløketjørnan" />
		<tag k="natural" v="water" />
		<tag k="ssr:stedsnr" v="502804" />
	</node>
	<node lat="68.62685000100319" lon="14.924247226838327" id="-10894">
		<tag k="name" v="Kvankistelva" />
		<tag k="ssr:stedsnr" v="503474" />
		<tag k="waterway" v="stream" />
	</node>
	<node lat="68.52213333017303" lon="14.913169447711333" id="-10897">
		<tag k="name" v="Storvatnet" />
		<tag k="natural" v="water" />
		<tag k="ssr:stedsnr" v="503914" />
	</node>
	<node lat="68.5244666706575" lon="14.915950002547488" id="-10899">
		<tag k="alt_name" v="Mellavatnet" />
		<tag k="name" v="Mellomvatnet" />
		<tag k="natural" v="water" />
		<tag k="ssr:stedsnr" v="503924" />
	</node>
	<node lat="68.41258889267301" lon="14.79748889113069" id="-10908">
		<tag k="fixme" v="multiple name tags, choose one and add the other to alt_name" />
		<tag k="name" v="Storvatnet;Fiskebølvatnet" />
		<tag k="natural" v="water" />
		<tag k="ssr:stedsnr" v="684278" />
		<tag k="water" v="lake" />
	</node>
	<node lat="68.39144999880085" lon="14.8190500007488" id="-10915">
		<tag k="name" v="Nordvatnet" />
		<tag k="natural" v="water" />
		<tag k="ssr:stedsnr" v="684452" />
	</node>
	<node lat="68.37205555646432" lon="14.990500004308158" id="-10921">
		<tag k="name" v="Kaurbakkelva" />
		<tag k="ssr:stedsnr" v="684476" />
		<tag k="waterway" v="stream" />
	</node>
	<node lat="68.36819167053939" lon="14.990283344452605" id="-10922">
		<tag k="name" v="Ytrelva" />
		<tag k="ssr:stedsnr" v="684477" />
		<tag k="waterway" v="stream" />
	</node>
	<node lat="68.46738889236242" lon="15.422827786783293" id="-10935">
		<tag k="name" v="Ingelsfjordeidet" />
		<tag k="place" v="locality" />
		<tag k="ssr:stedsnr" v="684740" />
	</node>
	<node lat="68.51289166709384" lon="15.371338896660236" id="-10954">
		<tag k="name" v="Rismålsvatnet" />
		<tag k="natural" v="water" />
		<tag k="ssr:stedsnr" v="685359" />
	</node>
	<node lat="68.6443444471673" lon="15.010174996185121" id="-10960">
		<tag k="name" v="Kråvatnet" />
		<tag k="natural" v="water" />
		<tag k="ssr:stedsnr" v="685556" />
	</node>
	<node lat="68.58973611047068" lon="15.010450001604621" id="-10962">
		<tag k="name" v="Frøelva" />
		<tag k="ssr:stedsnr" v="685572" />
		<tag k="waterway" v="stream" />
	</node>
	<node lat="68.42311666258726" lon="14.621563897319527" id="-10964">
		<tag k="name" v="Lilleåa" />
		<tag k="ssr:stedsnr" v="525065" />
		<tag k="waterway" v="stream" />
	</node>
	<node lat="68.42419167017351" lon="14.68149166434761" id="-10965">
		<tag k="name" v="Saubekken" />
		<tag k="ssr:stedsnr" v="525072" />
		<tag k="waterway" v="stream" />
	</node>
	<node lat="68.42985000024498" lon="14.605388887763365" id="-10966">
		<tag k="name" v="Albergsåa" />
		<tag k="ssr:stedsnr" v="525213" />
		<tag k="waterway" v="stream" />
	</node>
	<node lat="68.43216666679085" lon="14.61312500936656" id="-10967">
		<tag k="name" v="Greva" />
		<tag k="ssr:stedsnr" v="525218" />
		<tag k="waterway" v="stream" />
	</node>
	<node lat="68.63331388767672" lon="14.97803611455424" id="-10969">
		<tag k="name" v="Botnelva" />
		<tag k="ssr:stedsnr" v="525569" />
		<tag k="waterway" v="stream" />
	</node>
	<node lat="68.50148610688832" lon="15.243602771888975" id="-10976">
		<tag k="name" v="Dalelva" />
		<tag k="ssr:stedsnr" v="526029" />
		<tag k="waterway" v="stream" />
	</node>
	<node lat="68.56650000409704" lon="14.652972229715928" id="-10995">
		<tag k="alt_name" v="Sevtjørna" />
		<tag k="name" v="Sevtjønna" />
		<tag k="natural" v="water" />
		<tag k="ssr:stedsnr" v="685902" />
	</node>
	<node lat="68.54043055761541" lon="14.849905564590154" id="-11000">
		<tag k="alt_name" v="Litlurdvatnet" />
		<tag k="name" v="Lilleurvatnet" />
		<tag k="natural" v="water" />
		<tag k="ssr:stedsnr" v="685978" />
	</node>
	<node lat="68.43045832979031" lon="14.990786099775244" id="-11003">
		<tag k="name" v="Laksbergtjønna" />
		<tag k="natural" v="water" />
		<tag k="ssr:stedsnr" v="540607" />
	</node>
	<node lat="68.45939166965596" lon="15.213327774537206" id="-11015">
		<tag k="name" v="Djuphamnelva" />
		<tag k="ssr:stedsnr" v="768891" />
		<tag k="waterway" v="stream" />
	</node>
	<node lat="68.62459444106882" lon="14.815858328001418" id="-11016">
		<tag k="name" v="Osan" />
		<tag k="natural" v="bay" />
		<tag k="ssr:stedsnr" v="564516" />
	</node>
	<node lat="68.621669442841" lon="15.01065000433812" id="-11017">
		<tag k="name" v="Finnurdvatnet" />
		<tag k="natural" v="water" />
		<tag k="ssr:stedsnr" v="564520" />
	</node>
	<node lat="68.54373888643181" lon="14.721130549165725" id="-11018">
		<tag k="alt_name" v="Skardelva" />
		<tag k="name" v="Skarelva" />
		<tag k="ssr:stedsnr" v="564982" />
		<tag k="waterway" v="stream" />
	</node>
	<node lat="68.54602778059618" lon="14.686950003281877" id="-11019">
		<tag k="name" v="Lamlivatnet" />
		<tag k="natural" v="water" />
		<tag k="ssr:stedsnr" v="564985" />
	</node>
	<node lat="68.55820555421461" lon="14.927305564642294" id="-11020">
		<tag k="name" v="Tjønna" />
		<tag k="natural" v="water" />
		<tag k="ssr:stedsnr" v="579042" />
		<tag k="water" v="pond" />
	</node>
	<node lat="68.49326389235526" lon="15.287144449741024" id="-11045">
		<tag k="name" v="Kvanntoelva" />
		<tag k="ssr:stedsnr" v="586850" />
		<tag k="waterway" v="stream" />
	</node>
	<node lat="68.62382777668455" lon="14.819872227774813" id="-11047">
		<tag k="name" v="Skamlielva" />
		<tag k="ssr:stedsnr" v="587295" />
		<tag k="waterway" v="stream" />
	</node>
	<node lat="68.55632500402814" lon="14.939416666880824" id="-11065">
		<tag k="name" v="Kanalen" />
		<tag k="ssr:stedsnr" v="701046" />
		<tag k="waterway" v="drain" />
	</node>
	<node lat="68.55422221964606" lon="14.927591653820917" id="-11066">
		<tag k="name" v="Massahaugelva" />
		<tag k="ssr:stedsnr" v="701048" />
		<tag k="waterway" v="stream" />
	</node>
	<node lat="68.61183055768709" lon="15.13103055182912" id="-11073">
		<tag k="name" v="Osen" />
		<tag k="natural" v="bay" />
		<tag k="ssr:stedsnr" v="701795" />
	</node>
	<node lat="68.51089166792882" lon="14.828097221312301" id="-11080">
		<tag k="name" v="Heggbærtjønna" />
		<tag k="natural" v="water" />
		<tag k="ssr:stedsnr" v="702640" />
		<tag k="water" v="pond" />
	</node>
	<node lat="68.59657499878193" lon="14.996786104054099" id="-11095">
		<tag k="name" v="Bitterstadelva" />
		<tag k="ssr:stedsnr" v="623606" />
		<tag k="waterway" v="stream" />
	</node>
	<node lat="68.44246944063615" lon="15.270416675324785" id="-11102">
=======
<osm generator="osmapis" version="0.6">
	<node id="-196602" lat="68.408977774" lon="14.5640860992">
		<tag k="name" v="Saukorsbekken" />
		<tag k="ssr:stedsnr" v="890198" />
		<tag k="waterway" v="stream" />
	</node>
	<node id="-196601" lat="68.535291669" lon="14.7611305512">
		<tag k="name" v="Setervatnet" />
		<tag k="natural" v="water" />
		<tag k="ssr:stedsnr" v="701317" />
	</node>
	<node id="-198635" lat="68.4331833321" lon="14.9751833253">
		<tag k="name" v="Merafteselva" />
		<tag k="ssr:stedsnr" v="965623" />
		<tag k="waterway" v="stream" />
	</node>
	<node id="-198634" lat="68.4355194466" lon="14.9933194348">
		<tag k="name" v="Langdalselva" />
		<tag k="ssr:stedsnr" v="965600" />
		<tag k="waterway" v="stream" />
	</node>
	<node id="-196579" lat="68.4201777811" lon="14.6779166715">
		<tag k="name" v="Ytterelva" />
		<tag k="ssr:stedsnr" v="889085" />
		<tag k="waterway" v="stream" />
	</node>
	<node id="-198625" lat="68.6274499971" lon="14.906172222">
		<tag k="name" v="Ingdonsteinen" />
		<tag k="natural" v="beach" />
		<tag k="ssr:stedsnr" v="952671" />
	</node>
	<node id="-198621" lat="68.5503694424" lon="14.8067860997">
		<tag k="name" v="Urvassbekken" />
		<tag k="ssr:stedsnr" v="952312" />
		<tag k="waterway" v="stream" />
	</node>
	<node id="-198610" lat="68.4591361099" lon="15.3040888987">
		<tag k="name" v="Dalelva" />
		<tag k="ssr:stedsnr" v="950740" />
		<tag k="waterway" v="stream" />
	</node>
	<node id="-196560" lat="68.5565555534" lon="15.2617249967">
		<tag k="name" v="Svartvatnet" />
		<tag k="natural" v="water" />
		<tag k="ssr:stedsnr" v="685105" />
	</node>
	<node id="-198606" lat="68.656980555" lon="14.9686833254">
		<tag k="name" v="Dalelva" />
		<tag k="ssr:stedsnr" v="950538" />
		<tag k="waterway" v="stream" />
	</node>
	<node id="-196551" lat="68.5901194465" lon="14.9277138989">
		<tag k="name" v="Storelva" />
		<tag k="ssr:stedsnr" v="883138" />
		<tag k="waterway" v="stream" />
	</node>
	<node id="-198596" lat="68.5333861129" lon="14.7719999948">
		<tag k="name" v="Nakkvatnet" />
		<tag k="natural" v="water" />
		<tag k="ssr:stedsnr" v="867998" />
	</node>
	<node id="-198588" lat="68.5572444449" lon="14.7954027887">
		<tag k="name" v="Flatsetvatnet" />
		<tag k="natural" v="water" />
		<tag k="ssr:stedsnr" v="867938" />
	</node>
	<node id="-196528" lat="68.5135833366" lon="15.2945222255">
		<tag k="name" v="Toftelva" />
		<tag k="ssr:stedsnr" v="624404" />
		<tag k="waterway" v="stream" />
	</node>
	<node id="-196513" lat="68.4419277741" lon="14.9378861149">
		<tag k="name" v="Rennarelva" />
		<tag k="ssr:stedsnr" v="722597" />
		<tag k="waterway" v="stream" />
	</node>
	<node id="-198559" lat="68.6257111127" lon="14.9065000115">
		<tag k="name" v="Storvatnet" />
		<tag k="natural" v="water" />
		<tag k="ssr:stedsnr" v="867532" />
	</node>
	<node id="-198552" lat="68.5338472192" lon="15.3943055532">
		<tag k="alt_name" v="Kvanntovatnet, øvre" />
		<tag k="name" v="Øvre Kvanntovatnet" />
		<tag k="natural" v="water" />
		<tag k="ssr:stedsnr" v="867397" />
	</node>
	<node id="-198546" lat="68.5683333328" lon="15.3217972152">
		<tag k="name" v="Finnjordvatnet" />
		<tag k="natural" v="water" />
		<tag k="ssr:stedsnr" v="867098" />
	</node>
	<node id="-196491" lat="68.6238277767" lon="14.8198722278">
		<tag k="name" v="Skamlielva" />
		<tag k="ssr:stedsnr" v="587295" />
		<tag k="waterway" v="stream" />
	</node>
	<node id="-198532" lat="68.5919749974" lon="14.8853861078">
		<tag k="alt_name" v="Lomstjørna" />
		<tag k="name" v="Lomstjønna" />
		<tag k="natural" v="water" />
		<tag k="ssr:stedsnr" v="866567" />
	</node>
	<node id="-196483" lat="68.4284722229" lon="14.6222805439">
		<tag k="name" v="Stordiket" />
		<tag k="ssr:stedsnr" v="585125" />
		<tag k="waterway" v="stream" />
	</node>
	<node id="-198530" lat="68.3893999958" lon="14.964652772">
		<tag k="name" v="Tverrdalsvatnan" />
		<tag k="natural" v="water" />
		<tag k="ssr:stedsnr" v="866436" />
	</node>
	<node id="-195922" lat="68.4660388897" lon="15.2859694424">
		<tag k="alt_name" v="Pollen, in" />
		<tag k="fixme" v="multiple name tags, choose one and add the other to alt_name" />
		<tag k="name" v="Pollen;Indre Pollen" />
		<tag k="natural" v="bay" />
		<tag k="ssr:stedsnr" v="442775" />
	</node>
	<node id="-196480" lat="68.6529499975" lon="14.8680583266">
		<tag k="name" v="Tjønna" />
		<tag k="natural" v="water" />
		<tag k="ssr:stedsnr" v="709698" />
	</node>
	<node id="-196477" lat="68.6282194481" lon="14.9006611173">
		<tag k="name" v="Oterbekken" />
		<tag k="ssr:stedsnr" v="709681" />
		<tag k="waterway" v="stream" />
	</node>
	<node id="-198519" lat="68.5386972242" lon="15.2208750098">
		<tag k="name" v="Håkadalselva" />
		<tag k="ssr:stedsnr" v="867133" />
		<tag k="waterway" v="stream" />
	</node>
	<node id="-198506" lat="68.3937222227" lon="14.6796805515">
		<tag k="name" v="Storelva" />
		<tag k="ssr:stedsnr" v="848165" />
		<tag k="waterway" v="stream" />
	</node>
	<node id="-196457" lat="68.4659277775" lon="15.3026666733">
		<tag k="name" v="Bukketjønna" />
		<tag k="natural" v="water" />
		<tag k="ssr:stedsnr" v="708775" />
	</node>
	<node id="-198503" lat="68.5559944417" lon="15.3387305452">
		<tag k="name" v="Mellavasselva" />
		<tag k="ssr:stedsnr" v="848022" />
		<tag k="waterway" v="stream" />
	</node>
	<node id="-198500" lat="68.5632888885" lon="14.6709916635">
		<tag k="name" v="Mjåsundet" />
		<tag k="natural" v="strait" />
		<tag k="ssr:stedsnr" v="845487" />
	</node>
	<node id="-196443" lat="68.5664333336" lon="14.842155562">
		<tag k="name" v="Lilleelva" />
		<tag k="ssr:stedsnr" v="707301" />
		<tag k="waterway" v="stream" />
	</node>
	<node id="-198479" lat="68.6220222221" lon="14.876794432">
		<tag k="name" v="Vassosen" />
		<tag k="natural" v="bay" />
		<tag k="ssr:stedsnr" v="831658" />
	</node>
	<node id="-196415" lat="68.5108916679" lon="14.8280972213">
		<tag k="name" v="Heggbærtjønna" />
		<tag k="natural" v="water" />
		<tag k="ssr:stedsnr" v="702640" />
		<tag k="water" v="pond" />
	</node>
	<node id="-196411" lat="68.4098083316" lon="14.9841194363">
		<tag k="name" v="Nissvatnet" />
		<tag k="natural" v="water" />
		<tag k="ssr:stedsnr" v="562236" />
	</node>
	<node id="-198457" lat="68.5699277751" lon="14.7498416748">
		<tag k="name" v="Storvatnet" />
		<tag k="natural" v="water" />
		<tag k="ssr:stedsnr" v="829034" />
	</node>
	<node id="-196406" lat="68.6118305577" lon="15.1310305518">
		<tag k="name" v="Osen" />
		<tag k="natural" v="bay" />
		<tag k="ssr:stedsnr" v="701795" />
	</node>
	<node id="-196394" lat="68.5542222196" lon="14.9275916538">
		<tag k="name" v="Massahaugelva" />
		<tag k="ssr:stedsnr" v="701048" />
		<tag k="waterway" v="stream" />
	</node>
	<node id="-196393" lat="68.556325004" lon="14.9394166669">
		<tag k="name" v="Kanalen" />
		<tag k="ssr:stedsnr" v="701046" />
		<tag k="waterway" v="drain" />
	</node>
	<node id="-196383" lat="68.4304583298" lon="14.9907860998">
		<tag k="name" v="Laksbergtjønna" />
		<tag k="natural" v="water" />
		<tag k="ssr:stedsnr" v="540607" />
	</node>
	<node id="-196382" lat="68.5014861069" lon="15.2436027719">
		<tag k="name" v="Dalelva" />
		<tag k="ssr:stedsnr" v="526029" />
		<tag k="waterway" v="stream" />
	</node>
	<node id="-196380" lat="68.6333138877" lon="14.9780361146">
		<tag k="name" v="Botnelva" />
		<tag k="ssr:stedsnr" v="525569" />
		<tag k="waterway" v="stream" />
	</node>
	<node id="-196379" lat="68.4321666668" lon="14.6131250094">
		<tag k="name" v="Greva" />
		<tag k="ssr:stedsnr" v="525218" />
		<tag k="waterway" v="stream" />
	</node>
	<node id="-196378" lat="68.4298500002" lon="14.6053888878">
		<tag k="name" v="Albergsåa" />
		<tag k="ssr:stedsnr" v="525213" />
		<tag k="waterway" v="stream" />
	</node>
	<node id="-196373" lat="68.5404305576" lon="14.8499055646">
		<tag k="alt_name" v="Litlurdvatnet" />
		<tag k="name" v="Lilleurvatnet" />
		<tag k="natural" v="water" />
		<tag k="ssr:stedsnr" v="685978" />
	</node>
	<node id="-198419" lat="68.5391027756" lon="14.8385999994">
		<tag k="alt_name" v="Urdvatnet" />
		<tag k="name" v="Urvatnet" />
		<tag k="natural" v="water" />
		<tag k="ssr:stedsnr" v="807983" />
	</node>
	<node id="-198417" lat="68.5545499962" lon="14.7525138874">
		<tag k="alt_name" v="Dalvatnet" />
		<tag k="name" v="Dalsvatnet" />
		<tag k="natural" v="water" />
		<tag k="ssr:stedsnr" v="807871" />
	</node>
	<node id="-196364" lat="68.5665000041" lon="14.6529722297">
		<tag k="alt_name" v="Sevtjørna" />
		<tag k="name" v="Sevtjønna" />
		<tag k="natural" v="water" />
		<tag k="ssr:stedsnr" v="685902" />
	</node>
	<node id="-198410" lat="68.5325499972" lon="14.9109916667">
		<tag k="name" v="Lekangbekken" />
		<tag k="ssr:stedsnr" v="806988" />
		<tag k="waterway" v="stream" />
	</node>
	<node id="-196355" lat="68.4551416654" lon="15.2080638823">
		<tag k="name" v="Steinbakkvatnan" />
		<tag k="natural" v="water" />
		<tag k="ssr:stedsnr" v="685800" />
	</node>
	<node id="-196351" lat="68.5897361105" lon="15.0104500016">
		<tag k="name" v="Frøelva" />
		<tag k="ssr:stedsnr" v="685572" />
		<tag k="waterway" v="stream" />
	</node>
	<node id="-196349" lat="68.6443444472" lon="15.0101749962">
		<tag k="name" v="Kråvatnet" />
		<tag k="natural" v="water" />
		<tag k="ssr:stedsnr" v="685556" />
	</node>
	<node id="-198396" lat="68.3591000018" lon="15.0990611053">
		<tag k="name" v="Tennfjordelva" />
		<tag k="ssr:stedsnr" v="806897" />
		<tag k="waterway" v="stream" />
	</node>
	<node id="-196341" lat="68.5128916671" lon="15.3713388967">
		<tag k="name" v="Rismålsvatnet" />
		<tag k="natural" v="water" />
		<tag k="ssr:stedsnr" v="685359" />
	</node>
	<node id="-198387" lat="68.4642055562" lon="15.2761333318">
		<tag k="name" v="Pollvatnet" />
		<tag k="natural" v="water" />
		<tag k="ssr:stedsnr" v="806720" />
	</node>
	<node id="-198386" lat="68.4639666677" lon="15.2956333321">
		<tag k="name" v="Mølnvatnet" />
		<tag k="natural" v="water" />
		<tag k="ssr:stedsnr" v="806718" />
	</node>
	<node id="-197587" lat="68.510024998" lon="14.8418527699">
		<tag k="name" v="Mølndammen" />
		<tag k="natural" v="water" />
		<tag k="ssr:stedsnr" v="337638" />
		<tag k="water" v="lake" />
	</node>
	<node id="-198383" lat="68.6132249981" lon="14.9649083301">
		<tag k="name" v="Merkesvatnet" />
		<tag k="natural" v="water" />
		<tag k="ssr:stedsnr" v="806613" />
	</node>
	<node id="-198382" lat="68.6133888895" lon="14.9924111213">
		<tag k="name" v="Merratindvatnet" />
		<tag k="natural" v="water" />
		<tag k="ssr:stedsnr" v="806611" />
	</node>
	<node id="-198379" lat="68.6425444419" lon="14.9267777671">
		<tag k="alt_name" v="Motjørna" />
		<tag k="name" v="Motjønna" />
		<tag k="natural" v="water" />
		<tag k="ssr:stedsnr" v="806544" />
	</node>
	<node id="-198378" lat="68.639622221" lon="14.8820361108">
		<tag k="fixme" v="multiple name tags, choose one and add the other to alt_name" />
		<tag k="name" v="Fleinnesvatnet;Kvalsøyvatnet" />
		<tag k="natural" v="water" />
		<tag k="ssr:stedsnr" v="806543" />
	</node>
	<node id="-198376" lat="68.4610111111" lon="15.4060527671">
		<tag k="name" v="Tverrelva" />
		<tag k="ssr:stedsnr" v="807044" />
		<tag k="waterway" v="stream" />
	</node>
	<node id="-198374" lat="68.3628027791" lon="14.8642138917">
		<tag k="loc_name" v="Botnvatnet" />
		<tag k="name" v="Isvatnet" />
		<tag k="natural" v="water" />
		<tag k="ssr:stedsnr" v="806453" />
		<tag k="water" v="lake" />
	</node>
	<node id="-196321" lat="68.3681916705" lon="14.9902833445">
		<tag k="name" v="Ytrelva" />
		<tag k="ssr:stedsnr" v="684477" />
		<tag k="waterway" v="stream" />
	</node>
	<node id="-196320" lat="68.3720555565" lon="14.9905000043">
		<tag k="name" v="Kaurbakkelva" />
		<tag k="ssr:stedsnr" v="684476" />
		<tag k="waterway" v="stream" />
	</node>
	<node id="-198366" lat="68.4169277757" lon="14.552313892">
		<tag k="name" v="Lågen" />
		<tag k="natural" v="water" />
		<tag k="ssr:stedsnr" v="806282" />
	</node>
	<node id="-198364" lat="68.5487388877" lon="15.3517305568">
		<tag k="name" v="Middagsvatnet" />
		<tag k="natural" v="water" />
		<tag k="ssr:stedsnr" v="806097" />
		<tag k="water" v="lake" />
	</node>
	<node id="-196314" lat="68.4673888924" lon="15.4228277868">
		<tag k="name" v="Ingelsfjordeidet" />
		<tag k="natural" v="strait" />
		<tag k="ssr:stedsnr" v="684740" />
	</node>
	<node id="-196310" lat="68.4481055594" lon="15.1141444559">
		<tag k="name" v="Stabbvatnan" />
		<tag k="natural" v="water" />
		<tag k="ssr:stedsnr" v="684709" />
	</node>
	<node id="-196297" lat="68.4125888927" lon="14.7974888911">
		<tag k="fixme" v="multiple name tags, choose one and add the other to alt_name" />
		<tag k="name" v="Fiskebølvatnet;Storvatnet" />
		<tag k="natural" v="water" />
		<tag k="ssr:stedsnr" v="684278" />
		<tag k="water" v="lake" />
	</node>
	<node id="-196294" lat="68.403469445" lon="14.7711416708">
		<tag k="name" v="Botnelva" />
		<tag k="ssr:stedsnr" v="684267" />
		<tag k="waterway" v="stream" />
	</node>
	<node id="-196281" lat="68.626850001" lon="14.9242472268">
		<tag k="name" v="Kvankistelva" />
		<tag k="ssr:stedsnr" v="503474" />
		<tag k="waterway" v="stream" />
	</node>
	<node id="-198324" lat="68.4618000041" lon="15.071344434">
		<tag k="name" v="Heimste Litldalelva" />
		<tag k="ssr:stedsnr" v="783620" />
		<tag k="waterway" v="stream" />
	</node>
	<node id="-196275" lat="68.4434472191" lon="15.2517555463">
		<tag k="name" v="Sløketjørnan" />
		<tag k="natural" v="water" />
		<tag k="ssr:stedsnr" v="502804" />
	</node>
	<node id="-196273" lat="68.4844111108" lon="15.2996166664">
		<tag k="name" v="Svartvatnet" />
		<tag k="natural" v="water" />
		<tag k="ssr:stedsnr" v="502656" />
	</node>
	<node id="-198599" lat="68.6255444448" lon="14.8401166655">
		<tag k="name" v="Skamliryggelva" />
		<tag k="ssr:stedsnr" v="868502" />
		<tag k="waterway" v="stream" />
	</node>
	<node id="-198311" lat="68.6733777818" lon="15.0074166565">
		<tag k="name" v="Fakselva" />
		<tag k="ssr:stedsnr" v="768968" />
		<tag k="waterway" v="stream" />
	</node>
	<node id="-198308" lat="68.4593916697" lon="15.2133277745">
		<tag k="name" v="Djuphamnelva" />
		<tag k="ssr:stedsnr" v="768891" />
		<tag k="waterway" v="stream" />
	</node>
	<node id="-198306" lat="68.4613444478" lon="15.2593055537">
		<tag k="name" v="Storelva" />
		<tag k="ssr:stedsnr" v="768879" />
		<tag k="waterway" v="stream" />
	</node>
	<node id="-196252" lat="68.4841444466" lon="15.1680194505">
		<tag k="name" v="Mølnvatnet" />
		<tag k="natural" v="water" />
		<tag k="ssr:stedsnr" v="745638" />
	</node>
	<node id="-196251" lat="68.5517250041" lon="14.6601833314">
		<tag k="name" v="Nøkkvatnet" />
		<tag k="natural" v="water" />
		<tag k="ssr:stedsnr" v="480459" />
	</node>
	<node id="-198294" lat="68.5647694437" lon="14.6161944335">
		<tag k="name" v="Stortjønna" />
		<tag k="natural" v="water" />
		<tag k="ssr:stedsnr" v="768159" />
	</node>
	<node id="-198291" lat="68.5049694407" lon="15.2972472283">
		<tag k="name" v="Oterbekken" />
		<tag k="ssr:stedsnr" v="768072" />
		<tag k="waterway" v="stream" />
	</node>
	<node id="-196242" lat="68.4971000033" lon="15.2779527748">
		<tag k="name" v="Småelvan" />
		<tag k="ssr:stedsnr" v="465859" />
		<tag k="waterway" v="stream" />
	</node>
	<node id="-196236" lat="68.6437305598" lon="14.9513305607">
		<tag k="name" v="Gomotofta" />
		<tag k="natural" v="cape" />
		<tag k="ssr:stedsnr" v="465553" />
	</node>
	<node id="-196215" lat="68.4336361133" lon="14.9944166595">
		<tag k="name" v="Setertjønna" />
		<tag k="natural" v="water" />
		<tag k="ssr:stedsnr" v="661570" />
		<tag k="water" v="lake" />
	</node>
	<node id="-198257" lat="68.5686222196" lon="14.793950002">
		<tag k="name" v="Flatsetelva" />
		<tag k="ssr:stedsnr" v="746921" />
		<tag k="waterway" v="stream" />
	</node>
	<node id="-197565" lat="68.5527138876" lon="14.8437972217">
		<tag k="fixme" v="multiple name tags, choose one and add the other to alt_name" />
		<tag k="name" v="Bergvikvatnet;Bervikvatnet" />
		<tag k="natural" v="water" />
		<tag k="ssr:stedsnr" v="321887" />
	</node>
	<node id="-198248" lat="68.4369194476" lon="15.2029805637">
		<tag k="name" v="Frøskvatnan" />
		<tag k="natural" v="water" />
		<tag k="ssr:stedsnr" v="745816" />
	</node>
	<node id="-196179" lat="68.4895361078" lon="15.3152750019">
		<tag k="name" v="Svartdalselva" />
		<tag k="ssr:stedsnr" v="404803" />
		<tag k="waterway" v="stream" />
	</node>
	<node id="-198220" lat="68.5586944439" lon="15.2458416541">
		<tag k="name" v="Svartvasselva" />
		<tag k="ssr:stedsnr" v="745144" />
		<tag k="waterway" v="stream" />
	</node>
	<node id="-196162" lat="68.5773500015" lon="14.7609972135">
		<tag k="name" v="Lekkbekken" />
		<tag k="ssr:stedsnr" v="403022" />
		<tag k="waterway" v="stream" />
	</node>
	<node id="-196149" lat="68.5244666707" lon="14.9159500025">
		<tag k="alt_name" v="Mellavatnet" />
		<tag k="name" v="Mellomvatnet" />
		<tag k="natural" v="water" />
		<tag k="ssr:stedsnr" v="503924" />
	</node>
	<node id="-196147" lat="68.5221333302" lon="14.9131694477">
		<tag k="name" v="Storvatnet" />
		<tag k="natural" v="water" />
		<tag k="ssr:stedsnr" v="503914" />
	</node>
	<node id="-198185" lat="68.5796305514" lon="14.6616999916">
		<tag k="name" v="Bekken" />
		<tag k="ssr:stedsnr" v="646030" />
		<tag k="waterway" v="stream" />
	</node>
	<node id="-198184" lat="68.572791664" lon="14.7585916544">
		<tag k="name" v="Trolltjønna" />
		<tag k="natural" v="water" />
		<tag k="ssr:stedsnr" v="646027" />
		<tag k="water" v="pond" />
	</node>
	<node id="-198182" lat="68.5726999963" lon="14.776841656">
		<tag k="name" v="Lilleelva" />
		<tag k="ssr:stedsnr" v="646025" />
		<tag k="waterway" v="stream" />
	</node>
	<node id="-198181" lat="68.5759138919" lon="14.747691675">
		<tag k="name" v="Hauganbekken" />
		<tag k="ssr:stedsnr" v="646022" />
		<tag k="waterway" v="stream" />
	</node>
	<node id="-196129" lat="68.4058055529" lon="15.0694805464">
		<tag k="name" v="Fallvatnet" />
		<tag k="natural" v="water" />
		<tag k="ssr:stedsnr" v="502866" />
		<tag k="water" v="lake" />
	</node>
	<node id="-196125" lat="68.4869666668" lon="15.3307861076">
		<tag k="name" v="Rennarvatnan" />
		<tag k="natural" v="water" />
		<tag k="ssr:stedsnr" v="502650" />
		<tag k="water" v="lake" />
	</node>
	<node id="-196124" lat="68.4882083367" lon="15.1655805684">
		<tag k="name" v="Langnesosen" />
		<tag k="natural" v="bay" />
		<tag k="ssr:stedsnr" v="502641" />
	</node>
	<node id="-196119" lat="68.3784583326" lon="14.6329749877">
		<tag k="name" v="Durmålselva" />
		<tag k="ssr:stedsnr" v="502447" />
		<tag k="waterway" v="stream" />
	</node>
	<node id="-196116" lat="68.3786138879" lon="14.8919638897">
		<tag k="name" v="Austpollvatnan" />
		<tag k="natural" v="water" />
		<tag k="ssr:stedsnr" v="502437" />
		<tag k="water" v="lake" />
	</node>
	<node id="-196111" lat="68.6479611114" lon="15.1436361202">
		<tag k="name" v="Storvatnet" />
		<tag k="natural" v="water" />
		<tag k="ssr:stedsnr" v="502178" />
	</node>
	<node id="-196106" lat="68.4262333347" lon="14.8166916762">
		<tag k="alt_name" v="Tjørna" />
		<tag k="name" v="Tjønna" />
		<tag k="natural" v="water" />
		<tag k="ssr:stedsnr" v="502338" />
	</node>
	<node id="-198144" lat="68.5579750007" lon="14.7354388998">
		<tag k="alt_name" v="Dalelva" />
		<tag k="name" v="Dalselva" />
		<tag k="ssr:stedsnr" v="624917" />
		<tag k="waterway" v="stream" />
	</node>
	<node id="-196093" lat="68.5538333325" lon="15.3693555431">
		<tag k="name" v="Klubben" />
		<tag k="natural" v="cape" />
		<tag k="ssr:stedsnr" v="362009" />
	</node>
	<node id="-198138" lat="68.5541194446" lon="14.968238877">
		<tag k="name" v="Hestøybekken" />
		<tag k="ssr:stedsnr" v="624896" />
		<tag k="waterway" v="stream" />
	</node>
	<node id="-196086" lat="68.6343777787" lon="14.8219777816">
		<tag k="name" v="Kilden" />
		<tag k="ssr:stedsnr" v="358675" />
		<tag k="waterway" v="stream" />
	</node>
	<node id="-198132" lat="68.6718138871" lon="15.010030543">
		<tag k="name" v="Fakselva" />
		<tag k="ssr:stedsnr" v="624615" />
		<tag k="waterway" v="stream" />
	</node>
	<node id="-196080" lat="68.5548833342" lon="14.9053222306">
		<tag k="name" v="Gledalselva" />
		<tag k="ssr:stedsnr" v="345274" />
		<tag k="waterway" v="stream" />
	</node>
	<node id="-198124" lat="68.5526916652" lon="15.4052888803">
		<tag k="name" v="Brattelva" />
		<tag k="ssr:stedsnr" v="624221" />
		<tag k="waterway" v="stream" />
	</node>
	<node id="-198121" lat="68.5620888898" lon="15.2318055632">
		<tag k="name" v="Nordelva" />
		<tag k="ssr:stedsnr" v="624127" />
		<tag k="waterway" v="stream" />
	</node>
	<node id="-198119" lat="68.5643333289" lon="15.357391675">
		<tag k="alt_name" v="Fiskfjordvatnet, første;Første Fiskefjordvatn" />
		<tag k="name" v="Første Fiskfjordvatnet" />
		<tag k="natural" v="water" />
		<tag k="ssr:stedsnr" v="624087" />
	</node>
	<node id="-196066" lat="68.5369083324" lon="15.306155562">
		<tag k="name" v="Ytterstornesbukta" />
		<tag k="natural" v="bay" />
		<tag k="ssr:stedsnr" v="338832" />
	</node>
	<node id="-198113" lat="68.3589916691" lon="15.1172833401">
		<tag k="name" v="Tennfjordvatnet" />
		<tag k="natural" v="water" />
		<tag k="ssr:stedsnr" v="623891" />
	</node>
	<node id="-198110" lat="68.4424694406" lon="15.2704166753">
>>>>>>> e1d4bc35ff8a6074a6f2e91616a996b547c36f15
		<tag k="name" v="Løynvatnet" />
		<tag k="natural" v="water" />
		<tag k="ssr:stedsnr" v="623810" />
		<tag k="water" v="lake" />
	</node>
<<<<<<< HEAD
	<node lat="68.51358333663461" lon="15.294522225470846" id="-11109">
		<tag k="name" v="Toftelva" />
		<tag k="ssr:stedsnr" v="624404" />
		<tag k="waterway" v="stream" />
	</node>
	<node lat="68.6718138871168" lon="15.010030543006053" id="-11112">
		<tag k="name" v="Fakselva" />
		<tag k="ssr:stedsnr" v="624615" />
		<tag k="waterway" v="stream" />
	</node>
	<node lat="68.55797500072795" lon="14.735438899761974" id="-11117">
		<tag k="alt_name" v="Dalelva" />
		<tag k="name" v="Dalselva" />
		<tag k="ssr:stedsnr" v="624917" />
		<tag k="waterway" v="stream" />
	</node>
	<node lat="68.56643333358238" lon="14.842155561953728" id="-11170">
		<tag k="name" v="Lilleelva" />
		<tag k="ssr:stedsnr" v="707301" />
		<tag k="waterway" v="stream" />
	</node>
	<node lat="68.5489083319635" lon="14.815669448357173" id="-11197">
		<tag k="name" v="Urvatnet" />
		<tag k="natural" v="water" />
		<tag k="ssr:stedsnr" v="709311" />
	</node>
	<node lat="68.66055000226228" lon="14.938144437130402" id="-11214">
		<tag k="name" v="Dalelva" />
		<tag k="ssr:stedsnr" v="892708" />
		<tag k="waterway" v="stream" />
	</node>
	<node lat="68.40346944503189" lon="14.771141670822072" id="-11219">
		<tag k="name" v="Botnelva" />
		<tag k="ssr:stedsnr" v="684267" />
		<tag k="waterway" v="stream" />
	</node>
	<node lat="68.44810555941234" lon="15.114144455924503" id="-11227">
		<tag k="name" v="Stabbvatnan" />
		<tag k="natural" v="water" />
		<tag k="ssr:stedsnr" v="684709" />
	</node>
	<node lat="68.42476944020814" lon="15.159927780421219" id="-11229">
		<tag k="name" v="Vikavatnet" />
		<tag k="natural" v="water" />
		<tag k="ssr:stedsnr" v="684760" />
	</node>
	<node lat="68.5414500017186" lon="15.381141656230882" id="-11232">
		<tag k="alt_name" v="Kvanntovatnet, nedre" />
		<tag k="name" v="Nedre Kvanntovatnet" />
=======
	<node id="-198108" lat="68.433552774" lon="15.1832222138">
		<tag k="alt_name" v="Lillevatnet" />
		<tag k="name" v="Litlvatnet" />
		<tag k="natural" v="water" />
		<tag k="ssr:stedsnr" v="623793" />
	</node>
	<node id="-198106" lat="68.4695027743" lon="15.171938887">
		<tag k="name" v="Åsvatnet" />
		<tag k="natural" v="water" />
		<tag k="ssr:stedsnr" v="623752" />
	</node>
	<node id="-198105" lat="68.4513055512" lon="15.0710416652">
		<tag k="alt_name" v="Lillevatnet" />
		<tag k="name" v="Litlvatnet" />
		<tag k="natural" v="water" />
		<tag k="ssr:stedsnr" v="623734" />
	</node>
	<node id="-196049" lat="68.6511000033" lon="14.9852805655">
		<tag k="fixme" v="multiple name tags, choose one and add the other to alt_name" />
		<tag k="name" v="Bogelva;Storelva" />
		<tag k="ssr:stedsnr" v="321207" />
		<tag k="waterway" v="river" />
	</node>
	<node id="-196040" lat="68.6219472194" lon="14.8977388797">
		<tag k="name" v="Røsandbekken" />
		<tag k="ssr:stedsnr" v="466730" />
		<tag k="waterway" v="stream" />
	</node>
	<node id="-198081" lat="68.4125583298" lon="14.9315666715">
		<tag k="name" v="Gårdsdalsvatnet" />
		<tag k="natural" v="water" />
		<tag k="ssr:stedsnr" v="623251" />
	</node>
	<node id="-198062" lat="68.6207277752" lon="14.9340000037">
		<tag k="name" v="Brattelva" />
		<tag k="ssr:stedsnr" v="588687" />
		<tag k="waterway" v="stream" />
	</node>
	<node id="-198061" lat="68.4932638924" lon="15.2871444497">
		<tag k="name" v="Kvanntoelva" />
		<tag k="ssr:stedsnr" v="586850" />
		<tag k="waterway" v="stream" />
	</node>
	<node id="-198054" lat="68.5341638901" lon="14.8529111159">
		<tag k="name" v="Lomstjønna" />
		<tag k="natural" v="water" />
		<tag k="ssr:stedsnr" v="586336" />
	</node>
	<node id="-198016" lat="68.5582055542" lon="14.9273055646">
		<tag k="name" v="Tjønna" />
>>>>>>> e1d4bc35ff8a6074a6f2e91616a996b547c36f15
		<tag k="natural" v="water" />
		<tag k="ssr:stedsnr" v="579042" />
		<tag k="water" v="pond" />
	</node>
<<<<<<< HEAD
	<node lat="68.55655555337827" lon="15.261724996722222" id="-11235">
		<tag k="name" v="Svartvatnet" />
		<tag k="natural" v="water" />
		<tag k="ssr:stedsnr" v="685105" />
	</node>
	<node lat="68.45514166537724" lon="15.208063882318642" id="-11241">
		<tag k="name" v="Steinbakkvatnan" />
		<tag k="natural" v="water" />
		<tag k="ssr:stedsnr" v="685800" />
	</node>
	<node lat="68.53529166898528" lon="14.761130551193416" id="-11253">
		<tag k="name" v="Setervatnet" />
		<tag k="natural" v="water" />
		<tag k="ssr:stedsnr" v="701317" />
	</node>
	<node lat="68.46592777750006" lon="15.302666673346966" id="-11275">
		<tag k="name" v="Bukketjønna" />
		<tag k="natural" v="water" />
		<tag k="ssr:stedsnr" v="708775" />
	</node>
	<node lat="68.62821944812083" lon="14.900661117301727" id="-11280">
		<tag k="name" v="Oterbekken" />
		<tag k="ssr:stedsnr" v="709681" />
		<tag k="waterway" v="stream" />
	</node>
	<node lat="68.6529499974981" lon="14.868058326630937" id="-11283">
		<tag k="name" v="Tjønna" />
		<tag k="natural" v="water" />
		<tag k="ssr:stedsnr" v="709698" />
	</node>
	<node lat="68.43691944759072" lon="15.202980563695716" id="-11328">
		<tag k="name" v="Frøskvatnan" />
		<tag k="natural" v="water" />
		<tag k="ssr:stedsnr" v="745816" />
	</node>
	<node lat="68.46168888710525" lon="15.079350009941885" id="-11349">
		<tag k="name" v="Nordste Litldalelva" />
		<tag k="ssr:stedsnr" v="905647" />
		<tag k="waterway" v="stream" />
	</node>
	<node lat="68.46180000410864" lon="15.071344434010582" id="-11387">
		<tag k="name" v="Heimste Litldalelva" />
		<tag k="ssr:stedsnr" v="783620" />
		<tag k="waterway" v="stream" />
	</node>
	<node lat="68.56709722182595" lon="14.887666678460182" id="-11394">
		<tag k="name" v="Tømmervikbekken" />
		<tag k="ssr:stedsnr" v="822114" />
		<tag k="waterway" v="stream" />
	</node>
	<node lat="68.53865000054805" lon="15.18953888139314" id="-11399">
		<tag k="name" v="Sjøbekken" />
		<tag k="ssr:stedsnr" v="823224" />
		<tag k="waterway" v="stream" />
	</node>
	<node lat="68.51248889273137" lon="14.817716667275528" id="-11402">
		<tag k="name" v="Kvåldammen" />
		<tag k="ssr:stedsnr" v="823623" />
		<tag k="waterway" v="dam" />
	</node>
	<node lat="68.54024166682966" lon="15.280377789108341" id="-11404">
		<tag k="name" v="Kvanntoelva" />
		<tag k="ssr:stedsnr" v="823806" />
		<tag k="waterway" v="stream" />
	</node>
	<node lat="68.5699277751274" lon="14.749841674776478" id="-11411">
		<tag k="name" v="Storvatnet" />
		<tag k="natural" v="water" />
		<tag k="ssr:stedsnr" v="829034" />
	</node>
	<node lat="68.56328888852845" lon="14.670991663456102" id="-11434">
		<tag k="name" v="Mjåsundet" />
		<tag k="natural" v="strait" />
		<tag k="ssr:stedsnr" v="845487" />
	</node>
	<node lat="68.55599444169216" lon="15.33873054524063" id="-11437">
		<tag k="name" v="Mellavasselva" />
		<tag k="ssr:stedsnr" v="848022" />
		<tag k="waterway" v="stream" />
	</node>
	<node lat="68.41191666674358" lon="14.616550001021235" id="-11454">
		<tag k="name" v="Sandsvatnet" />
		<tag k="natural" v="water" />
		<tag k="ssr:stedsnr" v="927287" />
	</node>
	<node lat="68.41557500332938" lon="14.605549993766491" id="-11455">
		<tag k="name" v="Livatnet" />
		<tag k="natural" v="water" />
		<tag k="ssr:stedsnr" v="927288" />
	</node>
	<node lat="68.60578055380155" lon="15.018766655025466" id="-11459">
		<tag k="name" v="Osvatnet" />
		<tag k="natural" v="water" />
		<tag k="ssr:stedsnr" v="927591" />
	</node>
	<node lat="68.59917777433566" lon="14.899683338978093" id="-11460">
		<tag k="name" v="Kjøelva" />
		<tag k="ssr:stedsnr" v="927594" />
		<tag k="waterway" v="stream" />
	</node>
	<node lat="68.48750833183216" lon="15.185197217153796" id="-11461">
		<tag k="name" v="Nordvikvatnet" />
		<tag k="natural" v="water" />
		<tag k="ssr:stedsnr" v="927636" />
	</node>
	<node lat="68.41533055364617" lon="15.238636101241303" id="-11469">
		<tag k="alt_name" v="Femtvatnet" />
		<tag k="name" v="Femtevatnet" />
		<tag k="natural" v="water" />
		<tag k="ssr:stedsnr" v="927881" />
	</node>
	<node lat="68.3810555533495" lon="15.136977785120507" id="-11470">
		<tag k="name" v="Raftvatnet" />
		<tag k="natural" v="water" />
		<tag k="ssr:stedsnr" v="927831" />
	</node>
	<node lat="68.50833611098624" lon="15.333219455204942" id="-11475">
		<tag k="name" v="Rapelva" />
		<tag k="ssr:stedsnr" v="928380" />
		<tag k="waterway" v="stream" />
	</node>
	<node lat="68.57425833363789" lon="14.710791658452987" id="-11482">
		<tag k="alt_name" v="Lilleelva" />
		<tag k="name" v="Litlelva" />
		<tag k="ssr:stedsnr" v="928538" />
		<tag k="waterway" v="stream" />
	</node>
	<node lat="68.57008611385189" lon="14.726149990225057" id="-11496">
		<tag k="name" v="Storelva" />
		<tag k="ssr:stedsnr" v="928908" />
		<tag k="waterway" v="stream" />
	</node>
	<node lat="68.56491944044102" lon="14.670183343668926" id="-11498">
		<tag k="fixme" v="multiple name tags, choose one and add the other to alt_name" />
		<tag k="name" v="Jordvatnet;Bakre Teiganvatn" />
		<tag k="natural" v="water" />
		<tag k="ssr:stedsnr" v="928910" />
	</node>
	<node lat="68.56962777877067" lon="14.766327777634897" id="-11501">
		<tag k="alt_name" v="Lillefladsetvatnet" />
		<tag k="name" v="Litlflatsetvatnet" />
		<tag k="natural" v="water" />
		<tag k="ssr:stedsnr" v="928933" />
	</node>
	<node lat="68.55724444489057" lon="14.79540278869031" id="-11507">
		<tag k="name" v="Flatsetvatnet" />
		<tag k="natural" v="water" />
		<tag k="ssr:stedsnr" v="867938" />
	</node>
	<node lat="68.40897777400302" lon="14.564086099242909" id="-11540">
		<tag k="name" v="Saukorsbekken" />
		<tag k="ssr:stedsnr" v="890198" />
		<tag k="waterway" v="stream" />
	</node>
	<node lat="68.62428055756725" lon="15.079877786209169" id="-11559">
		<tag k="alt_name" v="Deskvatnet" />
		<tag k="name" v="Diskvatnet" />
		<tag k="natural" v="water" />
		<tag k="ssr:stedsnr" v="927025" />
	</node>
	<node lat="68.42217222643357" lon="14.645019440089717" id="-11568">
		<tag k="alt_name" v="Kalsåa" />
		<tag k="name" v="Kalvsåa" />
		<tag k="ssr:stedsnr" v="927364" />
		<tag k="waterway" v="stream" />
	</node>
	<node lat="68.37285000089447" lon="14.622161104933168" id="-11579">
		<tag k="name" v="Storvatnet" />
		<tag k="natural" v="water" />
		<tag k="ssr:stedsnr" v="928058" />
		<tag k="water" v="lake" />
	</node>
	<node lat="68.53236944612857" lon="15.340405544354248" id="-11580">
		<tag k="name" v="Skjelelva" />
		<tag k="ssr:stedsnr" v="928354" />
		<tag k="waterway" v="stream" />
	</node>
	<node lat="68.43477777436618" lon="14.63014723179017" id="-11592">
		<tag k="name" v="Mølleplass" />
		<tag k="natural" v="water" />
		<tag k="ssr:stedsnr" v="950147" />
		<tag k="water" v="lake" />
	</node>
	<node lat="68.65698055504154" lon="14.96868332540274" id="-11604">
		<tag k="name" v="Dalelva" />
		<tag k="ssr:stedsnr" v="950538" />
		<tag k="waterway" v="stream" />
	</node>
	<node lat="68.44510832953553" lon="15.046755565252058" id="-11615">
		<tag k="name" v="Vardvasselva" />
		<tag k="ssr:stedsnr" v="965607" />
		<tag k="waterway" v="stream" />
	</node>
	<node lat="68.43318333212221" lon="14.975183325259364" id="-11617">
		<tag k="name" v="Merafteselva" />
		<tag k="ssr:stedsnr" v="965623" />
		<tag k="waterway" v="stream" />
	</node>
	<node lat="68.55376944567021" lon="15.381388899362504" id="-11621">
		<tag k="name" v="Kjøbukta" />
		<tag k="natural" v="bay" />
		<tag k="ssr:stedsnr" v="969005" />
	</node>
	<node lat="68.61649444232941" lon="15.023966669054332" id="-11627">
		<tag k="name" v="Nils-Persavatnet" />
		<tag k="natural" v="water" />
		<tag k="ssr:stedsnr" v="17004" />
	</node>
	<node lat="68.62696388602976" lon="15.110680545782973" id="-11628">
		<tag k="name" v="Gryttingsvatnet" />
		<tag k="natural" v="water" />
		<tag k="ssr:stedsnr" v="17025" />
	</node>
	<node lat="68.64363333449354" lon="15.151472222590971" id="-11648">
		<tag k="name" v="Gluntvatnet" />
		<tag k="natural" v="water" />
		<tag k="ssr:stedsnr" v="17276" />
	</node>
	<node lat="68.59125000395859" lon="14.853691655347665" id="-11653">
		<tag k="name" v="Osen" />
		<tag k="natural" v="bay" />
		<tag k="ssr:stedsnr" v="17577" />
	</node>
	<node lat="68.378400000854" lon="14.729383344442386" id="-11662">
		<tag k="name" v="Trollvatnet" />
		<tag k="natural" v="water" />
		<tag k="ssr:stedsnr" v="17464" />
	</node>
	<node lat="68.62273889050671" lon="14.88691944691914" id="-11678">
		<tag k="alt_name" v="Lillevatnet" />
		<tag k="name" v="Litlvatnet" />
		<tag k="natural" v="water" />
		<tag k="ssr:stedsnr" v="18465" />
	</node>
	<node lat="68.55444166312205" lon="14.660386115266562" id="-11681">
		<tag k="name" v="Kulivatnet" />
		<tag k="natural" v="water" />
		<tag k="ssr:stedsnr" v="18847" />
	</node>
	<node lat="68.50806388695999" lon="14.797536105240933" id="-11684">
		<tag k="name" v="Melbuelva" />
		<tag k="ssr:stedsnr" v="18954" />
		<tag k="waterway" v="stream" />
	</node>
	<node lat="68.52682500198725" lon="14.930627783557417" id="-11694">
		<tag k="alt_name" v="Lillevatnet" />
		<tag k="name" v="Litlvatnet" />
		<tag k="natural" v="water" />
		<tag k="ssr:stedsnr" v="18943" />
	</node>
	<node lat="68.55648332931874" lon="15.219638891374753" id="-11705">
		<tag k="name" v="Seterelva" />
		<tag k="ssr:stedsnr" v="34287" />
		<tag k="waterway" v="stream" />
	</node>
	<node lat="68.43257500386234" lon="14.604002788423193" id="-11728">
		<tag k="name" v="Kalvbekken" />
		<tag k="ssr:stedsnr" v="40220" />
		<tag k="waterway" v="stream" />
	</node>
	<node lat="68.45992777973714" lon="15.28118055994815" id="-11738">
		<tag k="name" v="Rappdalselva" />
		<tag k="ssr:stedsnr" v="40878" />
		<tag k="waterway" v="stream" />
	</node>
	<node lat="68.62265277989829" lon="14.892991664838286" id="-11745">
		<tag k="name" v="Røsanden" />
		<tag k="natural" v="beach" />
		<tag k="ssr:stedsnr" v="42651" />
	</node>
	<node lat="68.54891550310981" lon="14.725427101438916" id="-11758">
		<tag k="name" v="Lomstjønna" />
		<tag k="natural" v="water" />
		<tag k="ssr:stedsnr" v="56462" />
	</node>
	<node lat="68.55373611307176" lon="15.380211121397993" id="-11776">
		<tag k="name" v="Ørnneset" />
		<tag k="natural" v="cape" />
		<tag k="ssr:stedsnr" v="78092" />
	</node>
	<node lat="68.5533444410485" lon="15.272447224103004" id="-11777">
		<tag k="name" v="Brattelva" />
		<tag k="ssr:stedsnr" v="78094" />
		<tag k="waterway" v="stream" />
	</node>
	<node lat="68.40325555510955" lon="14.631083336385457" id="-11780">
		<tag k="name" v="Middagsvatnet" />
		<tag k="natural" v="water" />
		<tag k="ssr:stedsnr" v="78280" />
	</node>
	<node lat="68.42391944630045" lon="14.627594437833258" id="-11788">
		<tag k="name" v="Sandselva" />
		<tag k="ssr:stedsnr" v="78364" />
		<tag k="waterway" v="stream" />
	</node>
	<node lat="68.63917777443235" lon="14.792836098745683" id="-11792">
		<tag k="alt_name" v="Skagtjørna" />
		<tag k="name" v="Skagtjønna" />
		<tag k="natural" v="water" />
		<tag k="ssr:stedsnr" v="78537" />
	</node>
	<node lat="68.37383332942628" lon="14.818258342156938" id="-11794">
		<tag k="name" v="Blåskavlelva" />
		<tag k="ssr:stedsnr" v="78488" />
		<tag k="waterway" v="stream" />
	</node>
	<node lat="68.41196111449914" lon="15.048316658790979" id="-11799">
		<tag k="name" v="Andrevatnet" />
		<tag k="natural" v="water" />
		<tag k="ssr:stedsnr" v="78759" />
	</node>
	<node lat="68.4260500031141" lon="15.268427781099962" id="-11801">
		<tag k="name" v="Langslåttvatnan" />
		<tag k="natural" v="water" />
		<tag k="ssr:stedsnr" v="78764" />
	</node>
	<node lat="68.40958055846141" lon="15.041149998419863" id="-11804">
		<tag k="name" v="Tredjevatnet" />
		<tag k="natural" v="water" />
		<tag k="ssr:stedsnr" v="78888" />
	</node>
	<node lat="68.62091666928126" lon="14.871269447679298" id="-11813">
		<tag k="name" v="Vikelva" />
		<tag k="ssr:stedsnr" v="79488" />
		<tag k="waterway" v="stream" />
	</node>
	<node lat="68.61005000363676" lon="15.057394441380648" id="-11872">
		<tag k="alt_name" v="Haukenesvatnet" />
		<tag k="name" v="Hauknesvatnet" />
		<tag k="natural" v="water" />
		<tag k="ssr:stedsnr" v="138009" />
	</node>
	<node lat="68.63043332975569" lon="15.17676111537214" id="-11878">
		<tag k="alt_name" v="Skydalselva" />
		<tag k="name" v="Sydalselva" />
		<tag k="ssr:stedsnr" v="138257" />
		<tag k="waterway" v="stream" />
	</node>
	<node lat="68.42342777992859" lon="14.999633335994549" id="-11882">
		<tag k="alt_name" v="Lillevatnet" />
		<tag k="name" v="Litlvatnet" />
		<tag k="natural" v="water" />
		<tag k="ssr:stedsnr" v="138373" />
	</node>
	<node lat="68.43036111292095" lon="14.866649988310346" id="-11883">
		<tag k="name" v="Storvatnet" />
		<tag k="natural" v="water" />
		<tag k="ssr:stedsnr" v="138385" />
	</node>
	<node lat="68.36704444359053" lon="14.769552782188006" id="-11886">
		<tag k="alt_name" v="Tjørna" />
		<tag k="name" v="Tjønna" />
		<tag k="natural" v="water" />
		<tag k="ssr:stedsnr" v="138472" />
	</node>
	<node lat="68.39593611521296" lon="14.581763881645648" id="-11889">
		<tag k="alt_name" v="Varnestjørna" />
		<tag k="name" v="Vardnestjønna" />
		<tag k="natural" v="water" />
		<tag k="ssr:stedsnr" v="138328" />
	</node>
	<node lat="68.32746944550235" lon="14.864858345431283" id="-11891">
		<tag k="name" v="Rørhopvatnet" />
		<tag k="natural" v="water" />
		<tag k="ssr:stedsnr" v="138546" />
		<tag k="water" v="lake" />
	</node>
	<node lat="68.45388333520336" lon="15.064511119451238" id="-11896">
		<tag k="name" v="Myrlandselva" />
		<tag k="ssr:stedsnr" v="138723" />
		<tag k="waterway" v="stream" />
	</node>
	<node lat="68.41421666929502" lon="15.042708341382173" id="-11899">
		<tag k="name" v="Førstevatnet" />
		<tag k="natural" v="water" />
		<tag k="ssr:stedsnr" v="138766" />
	</node>
	<node lat="68.42127500324472" lon="15.24001389929374" id="-11900">
		<tag k="alt_name" v="Fjerdvatnet" />
		<tag k="name" v="Fjerdevatnet" />
		<tag k="natural" v="water" />
		<tag k="ssr:stedsnr" v="138770" />
	</node>
	<node lat="68.513505559972" lon="14.84812777395846" id="-11903">
		<tag k="name" v="Gullstadelva" />
		<tag k="ssr:stedsnr" v="138960" />
		<tag k="waterway" v="stream" />
	</node>
	<node lat="68.53152222076098" lon="14.735902765026381" id="-11908">
		<tag k="name" v="Vasshaugvatnet" />
		<tag k="natural" v="water" />
		<tag k="ssr:stedsnr" v="138995" />
	</node>
	<node lat="68.63188333249454" lon="14.947319451988742" id="-11909">
		<tag k="name" v="Drogtjørna" />
		<tag k="natural" v="water" />
		<tag k="ssr:stedsnr" v="139535" />
	</node>
	<node lat="68.45765277618229" lon="15.206430559454086" id="-11912">
		<tag k="name" v="Trivatnet" />
		<tag k="natural" v="water" />
		<tag k="ssr:stedsnr" v="142637" />
	</node>
	<node lat="68.55460832913836" lon="15.21048888521725" id="-11922">
		<tag k="name" v="Slettåselva" />
		<tag k="ssr:stedsnr" v="156220" />
		<tag k="waterway" v="stream" />
	</node>
	<node lat="68.4006083307034" lon="14.574033343639105" id="-11944">
		<tag k="name" v="Svinstorelva" />
		<tag k="ssr:stedsnr" v="161199" />
		<tag k="waterway" v="stream" />
	</node>
	<node lat="68.56831110857142" lon="14.709961109779233" id="-11948">
		<tag k="name" v="Sandbekken" />
		<tag k="ssr:stedsnr" v="161001" />
		<tag k="waterway" v="stream" />
	</node>
	<node lat="68.5707527748679" lon="14.653494437915086" id="-11953">
		<tag k="name" v="Neset" />
		<tag k="natural" v="cape" />
		<tag k="ssr:stedsnr" v="161040" />
	</node>
	<node lat="68.57558610908589" lon="14.804583337693943" id="-11955">
		<tag k="name" v="Bekken" />
		<tag k="ssr:stedsnr" v="161306" />
		<tag k="waterway" v="stream" />
	</node>
	<node lat="68.62380833339178" lon="14.816799994021862" id="-11969">
		<tag k="name" v="Stortjønna" />
		<tag k="natural" v="water" />
		<tag k="ssr:stedsnr" v="163251" />
	</node>
	<node lat="68.64430277682129" lon="14.946972218211993" id="-11975">
		<tag k="name" v="Tennhella" />
		<tag k="place" v="islet" />
		<tag k="ssr:stedsnr" v="176539" />
	</node>
	<node lat="68.64948055490329" lon="14.84765000694176" id="-11985">
		<tag k="name" v="Grønnbekken" />
		<tag k="ssr:stedsnr" v="176679" />
		<tag k="waterway" v="stream" />
	</node>
	<node lat="68.64509166739639" lon="14.865497233276992" id="-11987">
		<tag k="name" v="Lilleelva" />
		<tag k="ssr:stedsnr" v="176687" />
		<tag k="waterway" v="stream" />
	</node>
	<node lat="68.55215277547312" lon="14.764130545161107" id="-11991">
		<tag k="name" v="Leirkråbekken" />
		<tag k="ssr:stedsnr" v="177441" />
		<tag k="waterway" v="stream" />
	</node>
	<node lat="68.54830278011652" lon="15.21821111559373" id="-12006">
		<tag k="name" v="Raelva" />
		<tag k="ssr:stedsnr" v="199119" />
		<tag k="waterway" v="stream" />
	</node>
	<node lat="68.42339721883835" lon="14.739763895711569" id="-12010">
		<tag k="name" v="Dalsvatnet" />
		<tag k="natural" v="water" />
		<tag k="ssr:stedsnr" v="199346" />
	</node>
	<node lat="68.40273889087797" lon="14.56741389579317" id="-12015">
		<tag k="name" v="Langnestjørna" />
		<tag k="natural" v="water" />
		<tag k="ssr:stedsnr" v="199285" />
	</node>
	<node lat="68.35367500266894" lon="14.870877779906936" id="-12025">
		<tag k="name" v="Trollfjordvatnet" />
		<tag k="natural" v="water" />
		<tag k="ssr:stedsnr" v="199397" />
		<tag k="water" v="lake" />
	</node>
	<node lat="68.3659027764168" lon="14.946877767560148" id="-12029">
		<tag k="name" v="Jarsteinelva" />
		<tag k="ssr:stedsnr" v="199452" />
		<tag k="waterway" v="stream" />
	</node>
	<node lat="68.45341943959643" lon="15.122516677197098" id="-12032">
		<tag k="name" v="Kvitholmvatnan" />
		<tag k="natural" v="water" />
		<tag k="ssr:stedsnr" v="199734" />
	</node>
	<node lat="68.56028055854212" lon="14.867552788028139" id="-12053">
		<tag k="name" v="Sponrosbekken" />
		<tag k="ssr:stedsnr" v="216025" />
		<tag k="waterway" v="stream" />
	</node>
	<node lat="68.55253889048228" lon="14.904061110960466" id="-12054">
		<tag k="name" v="Gledalsvatnet" />
		<tag k="natural" v="water" />
		<tag k="ssr:stedsnr" v="216001" />
	</node>
	<node lat="68.53238888558964" lon="14.699802767493583" id="-12059">
		<tag k="name" v="Djupgjota" />
		<tag k="ssr:stedsnr" v="216257" />
		<tag k="waterway" v="stream" />
	</node>
	<node lat="68.56486666491698" lon="14.78711945135925" id="-12099">
		<tag k="name" v="Kollslettbekken" />
		<tag k="ssr:stedsnr" v="224280" />
		<tag k="waterway" v="stream" />
	</node>
	<node lat="68.62640555160435" lon="14.873205543703735" id="-12107">
		<tag k="name" v="Skarelva" />
		<tag k="ssr:stedsnr" v="224677" />
		<tag k="waterway" v="stream" />
	</node>
	<node lat="68.59756111333103" lon="14.928791662465368" id="-12113">
		<tag k="name" v="Kordalsbekken" />
		<tag k="ssr:stedsnr" v="276166" />
		<tag k="waterway" v="stream" />
	</node>
	<node lat="68.53666666879614" lon="15.241602786243453" id="-12122">
		<tag k="name" v="Moelva" />
		<tag k="ssr:stedsnr" v="277857" />
		<tag k="waterway" v="stream" />
	</node>
	<node lat="68.59131944285446" lon="15.042658342229027" id="-12174">
		<tag k="alt_name" v="Lomtjørna" />
		<tag k="name" v="Lomstjønna" />
		<tag k="natural" v="water" />
		<tag k="ssr:stedsnr" v="320032" />
	</node>
	<node lat="68.64563332967491" lon="15.038486119028645" id="-12175">
		<tag k="alt_name" v="Nertjørna" />
		<tag k="name" v="Nertjønna" />
		<tag k="natural" v="water" />
		<tag k="ssr:stedsnr" v="320217" />
	</node>
	<node lat="68.46424999551442" lon="15.186961114544788" id="-12187">
		<tag k="name" v="Vikavatnet" />
		<tag k="natural" v="water" />
		<tag k="ssr:stedsnr" v="320677" />
	</node>
	<node lat="68.45954444088697" lon="15.174158324808198" id="-12188">
		<tag k="name" v="Svartvatnet" />
		<tag k="natural" v="water" />
		<tag k="ssr:stedsnr" v="320679" />
	</node>
	<node lat="68.416233332802" lon="15.126163879770639" id="-12190">
		<tag k="name" v="Vassnesvatnet" />
		<tag k="natural" v="water" />
		<tag k="ssr:stedsnr" v="320762" />
	</node>
	<node lat="68.42409444800015" lon="15.209877778995233" id="-12191">
		<tag k="alt_name" v="Trevatnet" />
		<tag k="name" v="Trivatnet" />
		<tag k="natural" v="water" />
		<tag k="ssr:stedsnr" v="320768" />
	</node>
	<node lat="68.41021388793894" lon="15.181833333883645" id="-12200">
		<tag k="name" v="Lomstjørna" />
		<tag k="natural" v="water" />
		<tag k="ssr:stedsnr" v="320869" />
	</node>
	<node lat="68.53440555951015" lon="15.302433344611066" id="-12202">
		<tag k="name" v="Kaljordvatnet" />
		<tag k="natural" v="water" />
		<tag k="ssr:stedsnr" v="321356" />
		<tag k="water" v="lake" />
	</node>
	<node lat="68.56172499899039" lon="14.672391654659666" id="-12215">
		<tag k="name" v="Øvrevatnet" />
		<tag k="natural" v="water" />
		<tag k="ssr:stedsnr" v="321907" />
	</node>
	<node lat="68.55509167086778" lon="14.721552775157006" id="-12216">
		<tag k="name" v="Krokelva" />
		<tag k="ssr:stedsnr" v="321908" />
		<tag k="waterway" v="stream" />
	</node>
	<node lat="68.51002499798372" lon="14.841852769902859" id="-12233">
		<tag k="name" v="Mølndammen" />
		<tag k="natural" v="water" />
		<tag k="ssr:stedsnr" v="337638" />
		<tag k="water" v="lake" />
	</node>
	<node lat="68.5369083324207" lon="15.30615556202994" id="-12238">
		<tag k="name" v="Ytterstornesbukta" />
		<tag k="natural" v="bay" />
		<tag k="ssr:stedsnr" v="338832" />
	</node>
	<node lat="68.57572778223184" lon="14.65290277446521" id="-12248">
		<tag k="name" v="Teiganelva" />
		<tag k="ssr:stedsnr" v="342038" />
		<tag k="waterway" v="stream" />
	</node>
	<node lat="68.63437777870958" lon="14.821977781552683" id="-12280">
		<tag k="name" v="Kilden" />
		<tag k="ssr:stedsnr" v="358675" />
		<tag k="waterway" v="stream" />
	</node>
	<node lat="68.643238884557" lon="14.88359167595906" id="-12281">
		<tag k="name" v="Trolltjønna" />
		<tag k="natural" v="water" />
		<tag k="ssr:stedsnr" v="358690" />
	</node>
	<node lat="68.5582222228235" lon="14.66241389690956" id="-12292">
		<tag k="name" v="Gongskarvatnet" />
		<tag k="natural" v="water" />
		<tag k="ssr:stedsnr" v="359488" />
	</node>
	<node lat="68.55383333247609" lon="15.369355543126083" id="-12294">
		<tag k="name" v="Klubben" />
		<tag k="natural" v="cape" />
		<tag k="ssr:stedsnr" v="362009" />
	</node>
	<node lat="68.50145555812864" lon="15.368622233819744" id="-12295">
		<tag k="name" v="Nordbotnelva" />
		<tag k="ssr:stedsnr" v="362018" />
		<tag k="waterway" v="stream" />
	</node>
	<node lat="68.49274444803332" lon="15.352666677803903" id="-12296">
		<tag k="name" v="Sørbotnelva" />
		<tag k="ssr:stedsnr" v="362021" />
		<tag k="waterway" v="stream" />
	</node>
	<node lat="68.42987777407261" lon="14.995563897860201" id="-12317">
		<tag k="name" v="Langdalsvatnet" />
		<tag k="natural" v="water" />
		<tag k="ssr:stedsnr" v="381360" />
	</node>
	<node lat="68.53493611203044" lon="15.356708324996427" id="-12320">
		<tag k="name" v="Guldragvatnet" />
		<tag k="natural" v="water" />
		<tag k="ssr:stedsnr" v="381386" />
	</node>
	<node lat="68.5323194441029" lon="15.276627786796718" id="-12323">
		<tag k="name" v="Kaljordelva" />
		<tag k="ssr:stedsnr" v="381391" />
		<tag k="waterway" v="river" />
	</node>
	<node lat="68.4518277783279" lon="15.25025277482536" id="-12340">
		<tag k="name" v="Dalelva" />
		<tag k="ssr:stedsnr" v="381831" />
		<tag k="waterway" v="river" />
	</node>
	<node lat="68.45282499586156" lon="15.260208336600956" id="-12341">
		<tag k="name" v="Middagselva" />
		<tag k="ssr:stedsnr" v="381832" />
		<tag k="waterway" v="stream" />
	</node>
	<node lat="68.41446111536436" lon="15.17890278148641" id="-12350">
		<tag k="fixme" v="multiple name tags, choose one and add the other to alt_name" />
		<tag k="name" v="Moldfokbakkvatnet;Tengelfjordvatnet" />
		<tag k="natural" v="water" />
		<tag k="ssr:stedsnr" v="381891" />
	</node>
	<node lat="68.52564999658765" lon="14.75789723084679" id="-12352">
		<tag k="fixme" v="multiple name tags, choose one and add the other to alt_name" />
		<tag k="name" v="Lilleongstadvatnet;Litlvatnet" />
		<tag k="natural" v="water" />
		<tag k="ssr:stedsnr" v="381958" />
	</node>
	<node lat="68.53531666743582" lon="14.858561107144231" id="-12353">
		<tag k="name" v="Båtvatnet" />
		<tag k="natural" v="water" />
		<tag k="ssr:stedsnr" v="381995" />
	</node>
	<node lat="68.51827778206143" lon="14.761388885073456" id="-12356">
		<tag k="name" v="Lomskinntjørna" />
		<tag k="natural" v="water" />
		<tag k="ssr:stedsnr" v="381949" />
	</node>
	<node lat="68.53718611415933" lon="15.305563892904662" id="-12357">
		<tag k="name" v="Storneset" />
		<tag k="natural" v="cape" />
		<tag k="ssr:stedsnr" v="382201" />
	</node>
	<node lat="68.45520277754206" lon="15.207894433881787" id="-12365">
		<tag k="name" v="Andrevatnet" />
		<tag k="natural" v="water" />
		<tag k="ssr:stedsnr" v="385660" />
	</node>
	<node lat="68.57561666727554" lon="15.251972222674521" id="-12379">
		<tag k="name" v="Vindelva" />
		<tag k="ssr:stedsnr" v="397951" />
		<tag k="waterway" v="stream" />
	</node>
	<node lat="68.51299999908532" lon="14.84345832403186" id="-12386">
		<tag k="name" v="Martin-Jonsahola" />
		<tag k="natural" v="water" />
		<tag k="ssr:stedsnr" v="398571" />
		<tag k="water" v="lake" />
	</node>
	<node lat="68.57735000150402" lon="14.760997213485808" id="-12392">
		<tag k="name" v="Lekkbekken" />
		<tag k="ssr:stedsnr" v="403022" />
		<tag k="waterway" v="stream" />
	</node>
	<node lat="68.63514166580735" lon="14.972772221205037" id="-12405">
		<tag k="name" v="Botnsanden" />
		<tag k="natural" v="bay" />
		<tag k="ssr:stedsnr" v="404538" />
	</node>
	<node lat="68.48953610779444" lon="15.315275001875149" id="-12414">
		<tag k="name" v="Svartdalselva" />
		<tag k="ssr:stedsnr" v="404803" />
		<tag k="waterway" v="stream" />
	</node>
	<node lat="68.55114166427207" lon="14.83182500914909" id="-12422">
		<tag k="name" v="Kvanntovatnet" />
		<tag k="natural" v="water" />
		<tag k="ssr:stedsnr" v="406286" />
	</node>
	<node lat="68.52785277617394" lon="15.32976387607476" id="-12435">
		<tag k="name" v="Aspdalselva" />
		<tag k="ssr:stedsnr" v="423022" />
		<tag k="waterway" v="stream" />
	</node>
	<node lat="68.53495277497505" lon="15.326488882594246" id="-12436">
		<tag k="name" v="Krullnesbukta" />
		<tag k="natural" v="bay" />
		<tag k="ssr:stedsnr" v="423024" />
	</node>
	<node lat="68.436727776391" lon="14.983958342696123" id="-12446">
		<tag k="name" v="Meraftesvatnet" />
		<tag k="natural" v="water" />
		<tag k="ssr:stedsnr" v="441368" />
	</node>
	<node lat="68.48271111185542" lon="15.189899996687194" id="-12450">
		<tag k="name" v="Skipøyosen" />
		<tag k="natural" v="bay" />
		<tag k="ssr:stedsnr" v="441643" />
	</node>
	<node lat="68.4188666680586" lon="14.805202784777402" id="-12457">
		<tag k="name" v="Dalselva" />
		<tag k="ssr:stedsnr" v="442320" />
		<tag k="waterway" v="stream" />
	</node>
	<node lat="68.41762500116879" lon="14.876250002188778" id="-12458">
		<tag k="fixme" v="multiple name tags, choose one and add the other to alt_name" />
		<tag k="name" v="Gårdsvatnet;Sløvervatnet" />
		<tag k="natural" v="water" />
		<tag k="ssr:stedsnr" v="442323" />
	</node>
	<node lat="68.45714166515417" lon="15.300158340544582" id="-12468">
		<tag k="name" v="Dalvatnet" />
		<tag k="natural" v="water" />
		<tag k="ssr:stedsnr" v="442715" />
	</node>
	<node lat="68.46603888973172" lon="15.285969442405582" id="-12474">
		<tag k="alt_name" v="Pollen, in" />
		<tag k="fixme" v="multiple name tags, choose one and add the other to alt_name" />
		<tag k="name" v="Pollen;Indre Pollen" />
		<tag k="natural" v="bay" />
		<tag k="ssr:stedsnr" v="442775" />
	</node>
	<node lat="68.51890833014684" lon="14.734338883181325" id="-12476">
		<tag k="name" v="Ongstadelva" />
		<tag k="ssr:stedsnr" v="442948" />
		<tag k="waterway" v="stream" />
	</node>
	<node lat="68.51984722045846" lon="14.840694453604918" id="-12477">
		<tag k="alt_name" v="Vakdalsvatnet" />
		<tag k="name" v="Vaktdalsvatnet" />
		<tag k="natural" v="water" />
		<tag k="ssr:stedsnr" v="442954" />
	</node>
	<node lat="68.5406416670356" lon="14.699469453706651" id="-12486">
		<tag k="alt_name" v="Trolltjørna" />
		<tag k="name" v="Trolltjønna" />
		<tag k="natural" v="water" />
		<tag k="ssr:stedsnr" v="443986" />
	</node>
	<node lat="68.45282777583428" lon="15.208694439297831" id="-12487">
		<tag k="name" v="Steinbakkvatnet" />
		<tag k="natural" v="water" />
		<tag k="ssr:stedsnr" v="446658" />
		<tag k="water" v="lake" />
	</node>
	<node lat="68.4262333347337" lon="14.816691676202376" id="-12508">
		<tag k="alt_name" v="Tjørna" />
		<tag k="name" v="Tjønna" />
		<tag k="natural" v="water" />
		<tag k="ssr:stedsnr" v="502338" />
	</node>
	<node lat="68.37861388788583" lon="14.891963889677443" id="-12512">
		<tag k="name" v="Austpollvatnan" />
		<tag k="natural" v="water" />
		<tag k="ssr:stedsnr" v="502437" />
		<tag k="water" v="lake" />
	</node>
	<node lat="68.37845833264177" lon="14.632974987697052" id="-12515">
		<tag k="name" v="Durmålselva" />
		<tag k="ssr:stedsnr" v="502447" />
		<tag k="waterway" v="stream" />
	</node>
	<node lat="68.48820833665327" lon="15.165580568392736" id="-12518">
		<tag k="name" v="Langnesosen" />
		<tag k="natural" v="bay" />
		<tag k="ssr:stedsnr" v="502641" />
	</node>
	<node lat="68.48696666681583" lon="15.330786107555104" id="-12519">
		<tag k="name" v="Rennarvatnan" />
		<tag k="natural" v="water" />
		<tag k="ssr:stedsnr" v="502650" />
		<tag k="water" v="lake" />
	</node>
	<node lat="68.48441111082693" lon="15.299616666350335" id="-12521">
		<tag k="name" v="Svartvatnet" />
		<tag k="natural" v="water" />
		<tag k="ssr:stedsnr" v="502656" />
	</node>
	<node lat="68.40580555285604" lon="15.06948054644228" id="-12524">
		<tag k="name" v="Fallvatnet" />
		<tag k="natural" v="water" />
		<tag k="ssr:stedsnr" v="502866" />
		<tag k="water" v="lake" />
	</node>
	<node lat="68.63492777748088" lon="15.158341659966467" id="-12564">
		<tag k="name" v="Stillelva" />
		<tag k="ssr:stedsnr" v="520981" />
		<tag k="waterway" v="river" />
	</node>
	<node lat="68.62544166935463" lon="14.893074990692405" id="-12584">
		<tag k="name" v="Lauvåselva" />
		<tag k="ssr:stedsnr" v="527699" />
		<tag k="waterway" v="stream" />
	</node>
	<node lat="68.50118055341669" lon="14.846524997772592" id="-12594">
		<tag k="name" v="Elvosen" />
		<tag k="natural" v="bay" />
		<tag k="ssr:stedsnr" v="545140" />
	</node>
	<node lat="68.50984999697931" lon="15.253308326887911" id="-12596">
		<tag k="alt_name" v="Lillevatnet" />
		<tag k="name" v="Litlevatnet" />
		<tag k="natural" v="water" />
		<tag k="ssr:stedsnr" v="563378" />
	</node>
	<node lat="68.40980833160778" lon="14.98411943626913" id="-12605">
		<tag k="name" v="Nissvatnet" />
		<tag k="natural" v="water" />
		<tag k="ssr:stedsnr" v="562236" />
	</node>
	<node lat="68.40134722507263" lon="14.788974994826168" id="-12607">
		<tag k="name" v="Lortvatnet" />
		<tag k="natural" v="water" />
		<tag k="ssr:stedsnr" v="562258" />
	</node>
	<node lat="68.39985555818491" lon="14.920927782142481" id="-12610">
		<tag k="name" v="Mjådalsvatnet" />
		<tag k="natural" v="water" />
		<tag k="ssr:stedsnr" v="562263" />
	</node>
	<node lat="68.40134444393159" lon="14.608183332546789" id="-12611">
		<tag k="name" v="Trolldalsvatnet" />
		<tag k="natural" v="water" />
		<tag k="ssr:stedsnr" v="562279" />
	</node>
	<node lat="68.38973888642016" lon="14.730927783557773" id="-12623">
		<tag k="name" v="Nordelva" />
		<tag k="ssr:stedsnr" v="562461" />
		<tag k="waterway" v="stream" />
	</node>
	<node lat="68.38595833548776" lon="14.699583327802443" id="-12624">
		<tag k="name" v="Hellelva" />
		<tag k="ssr:stedsnr" v="562466" />
		<tag k="waterway" v="stream" />
	</node>
	<node lat="68.38994999959154" lon="14.668272226498797" id="-12625">
		<tag k="alt_name" v="Lillevatnet" />
		<tag k="name" v="Litlvatnet" />
		<tag k="natural" v="water" />
		<tag k="ssr:stedsnr" v="562469" />
	</node>
	<node lat="68.60593889030184" lon="14.9839305646498" id="-12628">
		<tag k="name" v="Klembekken" />
		<tag k="ssr:stedsnr" v="562604" />
		<tag k="waterway" v="stream" />
	</node>
	<node lat="68.43601944348931" lon="15.02596388207635" id="-12636">
		<tag k="name" v="Durmålsvatnet" />
		<tag k="natural" v="water" />
		<tag k="ssr:stedsnr" v="562780" />
	</node>
	<node lat="68.44156111415026" lon="15.07954721435411" id="-12637">
		<tag k="name" v="Storvatnet" />
		<tag k="natural" v="water" />
		<tag k="ssr:stedsnr" v="562789" />
	</node>
	<node lat="68.43930555973714" lon="15.04535277135276" id="-12638">
		<tag k="fixme" v="multiple name tags, choose one and add the other to alt_name" />
		<tag k="name" v="Myrlandsfjordelva;Stordalselva;Fjordelva" />
		<tag k="ssr:stedsnr" v="562798" />
		<tag k="waterway" v="river" />
	</node>
	<node lat="68.5512500030395" lon="15.339319453397941" id="-12650">
		<tag k="name" v="Mellavatnet" />
		<tag k="natural" v="water" />
		<tag k="ssr:stedsnr" v="563095" />
	</node>
	<node lat="68.61430000044285" lon="14.939252771268109" id="-12671">
		<tag k="name" v="Rødvatnet" />
		<tag k="natural" v="water" />
		<tag k="ssr:stedsnr" v="563619" />
	</node>
	<node lat="68.55236666804991" lon="14.91147498969286" id="-12680">
		<tag k="alt_name" v="Litlvatnet" />
		<tag k="name" v="Lillevatnet" />
		<tag k="natural" v="water" />
		<tag k="ssr:stedsnr" v="563926" />
	</node>
	<node lat="68.54731111253804" lon="14.771163892643587" id="-12684">
		<tag k="alt_name" v="Indrevatnet" />
		<tag k="name" v="Innervatnet" />
		<tag k="natural" v="water" />
		<tag k="ssr:stedsnr" v="563906" />
	</node>
	<node lat="68.52162222710881" lon="14.828886100936815" id="-12691">
		<tag k="name" v="Stengvatnet" />
		<tag k="natural" v="water" />
		<tag k="ssr:stedsnr" v="563958" />
	</node>
	<node lat="68.42847222287752" lon="14.622280543941306" id="-12710">
		<tag k="name" v="Stordiket" />
		<tag k="ssr:stedsnr" v="585125" />
		<tag k="waterway" v="stream" />
	</node>
	<node lat="68.53416389010316" lon="14.852911115903733" id="-12718">
		<tag k="name" v="Lomstjønna" />
		<tag k="natural" v="water" />
		<tag k="ssr:stedsnr" v="586336" />
	</node>
	<node lat="68.62072777516775" lon="14.934000003706192" id="-12726">
		<tag k="name" v="Brattelva" />
		<tag k="ssr:stedsnr" v="588687" />
		<tag k="waterway" v="stream" />
	</node>
	<node lat="68.41255832980721" lon="14.931566671457034" id="-12751">
		<tag k="name" v="Gårdsdalsvatnet" />
		<tag k="natural" v="water" />
		<tag k="ssr:stedsnr" v="623251" />
	</node>
	<node lat="68.43355277400993" lon="15.183222213763507" id="-12753">
		<tag k="alt_name" v="Lillevatnet" />
		<tag k="name" v="Litlvatnet" />
		<tag k="natural" v="water" />
		<tag k="ssr:stedsnr" v="623793" />
	</node>
	<node lat="68.45130555123528" lon="15.071041665220077" id="-12757">
		<tag k="alt_name" v="Lillevatnet" />
		<tag k="name" v="Litlvatnet" />
		<tag k="natural" v="water" />
		<tag k="ssr:stedsnr" v="623734" />
	</node>
	<node lat="68.46950277428938" lon="15.171938887008949" id="-12761">
		<tag k="name" v="Åsvatnet" />
		<tag k="natural" v="water" />
		<tag k="ssr:stedsnr" v="623752" />
	</node>
	<node lat="68.56433332890143" lon="15.357391674995629" id="-12764">
		<tag k="alt_name" v="Fiskfjordvatnet, første;Første Fiskefjordvatn" />
		<tag k="name" v="Første Fiskfjordvatnet" />
		<tag k="natural" v="water" />
		<tag k="ssr:stedsnr" v="624087" />
	</node>
	<node lat="68.35899166905389" lon="15.117283340125349" id="-12765">
		<tag k="name" v="Tennfjordvatnet" />
		<tag k="natural" v="water" />
		<tag k="ssr:stedsnr" v="623891" />
	</node>
	<node lat="68.56208888979782" lon="15.23180556315783" id="-12769">
		<tag k="name" v="Nordelva" />
		<tag k="ssr:stedsnr" v="624127" />
		<tag k="waterway" v="stream" />
	</node>
	<node lat="68.55269166523618" lon="15.40528888025065" id="-12772">
		<tag k="name" v="Brattelva" />
		<tag k="ssr:stedsnr" v="624221" />
		<tag k="waterway" v="stream" />
	</node>
	<node lat="68.55411944463796" lon="14.968238877041124" id="-12784">
		<tag k="name" v="Hestøybekken" />
		<tag k="ssr:stedsnr" v="624896" />
		<tag k="waterway" v="stream" />
	</node>
	<node lat="68.6117888861451" lon="15.116880542715608" id="-12794">
		<tag k="name" v="Mølndammen" />
		<tag k="natural" v="water" />
		<tag k="ssr:stedsnr" v="640800" />
		<tag k="water" v="lake" />
	</node>
	<node lat="68.57591389187321" lon="14.747691675020173" id="-12819">
		<tag k="name" v="Hauganbekken" />
		<tag k="ssr:stedsnr" v="646022" />
		<tag k="waterway" v="stream" />
	</node>
	<node lat="68.57269999625713" lon="14.776841656029573" id="-12820">
		<tag k="name" v="Lilleelva" />
		<tag k="ssr:stedsnr" v="646025" />
		<tag k="waterway" v="stream" />
	</node>
	<node lat="68.57279166395288" lon="14.75859165437036" id="-12822">
		<tag k="name" v="Trolltjønna" />
		<tag k="natural" v="water" />
		<tag k="ssr:stedsnr" v="646027" />
		<tag k="water" v="pond" />
	</node>
	<node lat="68.57963055138629" lon="14.661699991611286" id="-12823">
		<tag k="name" v="Bekken" />
		<tag k="ssr:stedsnr" v="646030" />
		<tag k="waterway" v="stream" />
	</node>
	<node lat="68.43363611327668" lon="14.994416659494615" id="-12844">
		<tag k="name" v="Setertjønna" />
		<tag k="natural" v="water" />
		<tag k="ssr:stedsnr" v="661570" />
		<tag k="water" v="lake" />
	</node>
	<node lat="68.44192777414277" lon="14.93788611492711" id="-12855">
		<tag k="name" v="Rennarelva" />
		<tag k="ssr:stedsnr" v="722597" />
		<tag k="waterway" v="stream" />
	</node>
	<node lat="68.55869444391602" lon="15.245841654146416" id="-12875">
		<tag k="name" v="Svartvasselva" />
		<tag k="ssr:stedsnr" v="745144" />
		<tag k="waterway" v="stream" />
	</node>
	<node lat="68.65592777371235" lon="15.04542222817099" id="-12877">
		<tag k="name" v="Langvatnet" />
		<tag k="natural" v="water" />
		<tag k="ssr:stedsnr" v="745256" />
		<tag k="water" v="lake" />
	</node>
	<node lat="68.48414444664536" lon="15.168019450533135" id="-12894">
		<tag k="name" v="Mølnvatnet" />
		<tag k="natural" v="water" />
		<tag k="ssr:stedsnr" v="745638" />
	</node>
	<node lat="68.56862221963968" lon="14.793950001967982" id="-12904">
		<tag k="name" v="Flatsetelva" />
		<tag k="ssr:stedsnr" v="746921" />
		<tag k="waterway" v="stream" />
	</node>
	<node lat="68.50496944068665" lon="15.297247228317945" id="-12930">
		<tag k="name" v="Oterbekken" />
		<tag k="ssr:stedsnr" v="768072" />
		<tag k="waterway" v="stream" />
	</node>
	<node lat="68.56476944374744" lon="14.61619443354448" id="-12933">
		<tag k="name" v="Stortjønna" />
		<tag k="natural" v="water" />
		<tag k="ssr:stedsnr" v="768159" />
	</node>
	<node lat="68.56694722430632" lon="14.835924989185356" id="-12936">
		<tag k="name" v="Gårdselva" />
		<tag k="ssr:stedsnr" v="768284" />
		<tag k="waterway" v="stream" />
	</node>
	<node lat="68.46134444778998" lon="15.259305553661365" id="-12945">
		<tag k="name" v="Storelva" />
		<tag k="ssr:stedsnr" v="768879" />
		<tag k="waterway" v="stream" />
	</node>
	<node lat="68.67337778176132" lon="15.007416656524143" id="-12947">
		<tag k="name" v="Fakselva" />
		<tag k="ssr:stedsnr" v="768968" />
		<tag k="waterway" v="stream" />
	</node>
	<node lat="68.43616944858371" lon="15.184119433627068" id="-12970">
		<tag k="name" v="Kongselva - Gongajohka" />
		<tag k="name:no" v="Kongselva" />
		<tag k="name:se" v="Gongajohka" />
		<tag k="ssr:stedsnr" v="787014" />
		<tag k="waterway" v="stream" />
	</node>
	<node lat="68.54873888772175" lon="15.351730556767281" id="-12994">
		<tag k="name" v="Middagsvatnet" />
		<tag k="natural" v="water" />
		<tag k="ssr:stedsnr" v="806097" />
		<tag k="water" v="lake" />
	</node>
	<node lat="68.62568055232623" lon="15.056311099084429" id="-13002">
		<tag k="name" v="Rødsætervatnet" />
		<tag k="natural" v="water" />
		<tag k="ssr:stedsnr" v="806243" />
	</node>
	<node lat="68.41692777571889" lon="14.55231389198823" id="-13004">
		<tag k="name" v="Lågen" />
		<tag k="natural" v="water" />
		<tag k="ssr:stedsnr" v="806282" />
	</node>
	<node lat="68.5312000020519" lon="15.322980567017709" id="-13011">
		<tag k="alt_name" v="Aspdalsneset" />
		<tag k="name" v="Aspedalsneset" />
		<tag k="natural" v="cape" />
		<tag k="ssr:stedsnr" v="806374" />
	</node>
	<node lat="68.36280277913876" lon="14.864213891746736" id="-13019">
		<tag k="loc_name" v="Botnvatnet" />
		<tag k="name" v="Isvatnet" />
		<tag k="natural" v="water" />
		<tag k="ssr:stedsnr" v="806453" />
		<tag k="water" v="lake" />
	</node>
	<node lat="68.61322499814025" lon="14.964908330126024" id="-13020">
		<tag k="name" v="Merkesvatnet" />
		<tag k="natural" v="water" />
		<tag k="ssr:stedsnr" v="806613" />
	</node>
	<node lat="68.63962222101262" lon="14.882036110764039" id="-13022">
		<tag k="fixme" v="multiple name tags, choose one and add the other to alt_name" />
		<tag k="name" v="Kvalsøyvatnet;Fleinnesvatnet" />
		<tag k="natural" v="water" />
		<tag k="ssr:stedsnr" v="806543" />
	</node>
	<node lat="68.64254444194235" lon="14.926777767081774" id="-13023">
		<tag k="alt_name" v="Motjørna" />
		<tag k="name" v="Motjønna" />
		<tag k="natural" v="water" />
		<tag k="ssr:stedsnr" v="806544" />
	</node>
	<node lat="68.61338888949055" lon="14.992411121317625" id="-13026">
		<tag k="name" v="Merratindvatnet" />
		<tag k="natural" v="water" />
		<tag k="ssr:stedsnr" v="806611" />
	</node>
	<node lat="68.46189722320729" lon="15.308641670689097" id="-13028">
		<tag k="name" v="Fløvatnet" />
		<tag k="natural" v="water" />
		<tag k="ssr:stedsnr" v="806714" />
	</node>
	<node lat="68.46396666774459" lon="15.295633332139221" id="-13030">
		<tag k="name" v="Mølnvatnet" />
		<tag k="natural" v="water" />
		<tag k="ssr:stedsnr" v="806718" />
	</node>
	<node lat="68.46420555618158" lon="15.276133331815206" id="-13031">
		<tag k="name" v="Pollvatnet" />
		<tag k="natural" v="water" />
		<tag k="ssr:stedsnr" v="806720" />
	</node>
	<node lat="68.45272777768929" lon="15.41178889595328" id="-13038">
		<tag k="name" v="Bjørndalsvatnan" />
		<tag k="natural" v="water" />
		<tag k="ssr:stedsnr" v="806816" />
	</node>
	<node lat="68.35910000175477" lon="15.099061105254545" id="-13039">
		<tag k="name" v="Tennfjordelva" />
		<tag k="ssr:stedsnr" v="806897" />
		<tag k="waterway" v="stream" />
	</node>
	<node lat="68.53254999716536" lon="14.910991666663225" id="-13050">
		<tag k="name" v="Lekangbekken" />
		<tag k="ssr:stedsnr" v="806988" />
		<tag k="waterway" v="stream" />
	</node>
	<node lat="68.4610111111489" lon="15.406052767096606" id="-13053">
		<tag k="name" v="Tverrelva" />
		<tag k="ssr:stedsnr" v="807044" />
		<tag k="waterway" v="stream" />
	</node>
	<node lat="68.55454999623304" lon="14.75251388740865" id="-13059">
		<tag k="alt_name" v="Dalvatnet" />
		<tag k="name" v="Dalsvatnet" />
		<tag k="natural" v="water" />
		<tag k="ssr:stedsnr" v="807871" />
	</node>
	<node lat="68.5391027756336" lon="14.838599999447498" id="-13063">
		<tag k="alt_name" v="Urdvatnet" />
		<tag k="name" v="Urvatnet" />
		<tag k="natural" v="water" />
		<tag k="ssr:stedsnr" v="807983" />
	</node>
	<node lat="68.55367778004508" lon="14.95438334218097" id="-13071">
		<tag k="name" v="Andvågbekken" />
		<tag k="ssr:stedsnr" v="822529" />
		<tag k="waterway" v="stream" />
	</node>
	<node lat="68.6220222221194" lon="14.876794432021741" id="-13101">
		<tag k="name" v="Vassosen" />
		<tag k="natural" v="bay" />
		<tag k="ssr:stedsnr" v="831658" />
	</node>
	<node lat="68.39372222267245" lon="14.679680551488588" id="-13115">
		<tag k="name" v="Storelva" />
		<tag k="ssr:stedsnr" v="848165" />
		<tag k="waterway" v="stream" />
	</node>
	<node lat="68.38939999581363" lon="14.96465277200578" id="-13137">
		<tag k="name" v="Tverrdalsvatnan" />
		<tag k="natural" v="water" />
		<tag k="ssr:stedsnr" v="866436" />
	</node>
	<node lat="68.59197499736098" lon="14.88538610779878" id="-13138">
		<tag k="alt_name" v="Lomstjørna" />
		<tag k="name" v="Lomstjønna" />
		<tag k="natural" v="water" />
		<tag k="ssr:stedsnr" v="866567" />
	</node>
	<node lat="68.56833333276032" lon="15.321797215202494" id="-13141">
		<tag k="name" v="Finnjordvatnet" />
		<tag k="natural" v="water" />
		<tag k="ssr:stedsnr" v="867098" />
	</node>
	<node lat="68.4328555561387" lon="15.224777778571276" id="-13145">
		<tag k="name" v="Tverrelva" />
		<tag k="ssr:stedsnr" v="866772" />
		<tag k="waterway" v="stream" />
	</node>
	<node lat="68.5386972242415" lon="15.220875009797762" id="-13154">
		<tag k="name" v="Håkadalselva" />
		<tag k="ssr:stedsnr" v="867133" />
		<tag k="waterway" v="stream" />
	</node>
	<node lat="68.53338611288339" lon="14.771999994834282" id="-13167">
		<tag k="name" v="Nakkvatnet" />
		<tag k="natural" v="water" />
		<tag k="ssr:stedsnr" v="867998" />
	</node>
	<node lat="68.53384721918896" lon="15.394305553232309" id="-13172">
		<tag k="alt_name" v="Kvanntovatnet, øvre" />
		<tag k="name" v="Øvre Kvanntovatnet" />
		<tag k="natural" v="water" />
		<tag k="ssr:stedsnr" v="867397" />
	</node>
	<node lat="68.62571111266062" lon="14.906500011492808" id="-13180">
		<tag k="name" v="Storvatnet" />
		<tag k="natural" v="water" />
		<tag k="ssr:stedsnr" v="867532" />
	</node>
	<node lat="68.62554444477998" lon="14.840116665497506" id="-13203">
		<tag k="name" v="Skamliryggelva" />
		<tag k="ssr:stedsnr" v="868502" />
		<tag k="waterway" v="stream" />
	</node>
	<node lat="68.59011944648273" lon="14.927713898855057" id="-13211">
		<tag k="name" v="Storelva" />
		<tag k="ssr:stedsnr" v="883138" />
		<tag k="waterway" v="stream" />
	</node>
	<node lat="68.42017778107565" lon="14.677916671453877" id="-13229">
		<tag k="name" v="Ytterelva" />
		<tag k="ssr:stedsnr" v="889085" />
		<tag k="waterway" v="stream" />
	</node>
	<node lat="68.58982499593324" lon="14.932819453594066" id="-13239">
		<tag k="name" v="Lilleelva" />
		<tag k="ssr:stedsnr" v="944122" />
		<tag k="waterway" v="stream" />
	</node>
	<node lat="68.61962777539505" lon="15.157627782452625" id="-13247">
		<tag k="name" v="Skogelva" />
		<tag k="ssr:stedsnr" v="944772" />
		<tag k="waterway" v="stream" />
	</node>
	<node lat="68.5682111116982" lon="14.773624989937442" id="-13262">
		<tag k="name" v="Sevtjønna" />
		<tag k="natural" v="water" />
		<tag k="ssr:stedsnr" v="950031" />
	</node>
	<node lat="68.53143055433237" lon="14.844261098847756" id="-13272">
		<tag k="name" v="Anders skomakertjønna" />
		<tag k="natural" v="water" />
		<tag k="ssr:stedsnr" v="950323" />
	</node>
	<node lat="68.45913610994054" lon="15.304088898693427" id="-13276">
		<tag k="name" v="Dalelva" />
		<tag k="ssr:stedsnr" v="950740" />
		<tag k="waterway" v="stream" />
	</node>
	<node lat="68.55036944240236" lon="14.80678609970861" id="-13280">
		<tag k="name" v="Urvassbekken" />
		<tag k="ssr:stedsnr" v="952312" />
		<tag k="waterway" v="stream" />
	</node>
	<node lat="68.62744999705116" lon="14.906172222014296" id="-13284">
		<tag k="name" v="Ingdonsteinen" />
		<tag k="natural" v="beach" />
		<tag k="ssr:stedsnr" v="952671" />
	</node>
	<node lat="68.4355194466081" lon="14.99331943483134" id="-13292">
		<tag k="name" v="Langdalselva" />
		<tag k="ssr:stedsnr" v="965600" />
=======
	<node id="-198015" lat="68.5460277806" lon="14.6869500033">
		<tag k="name" v="Lamlivatnet" />
		<tag k="natural" v="water" />
		<tag k="ssr:stedsnr" v="564985" />
	</node>
	<node id="-198014" lat="68.5437388864" lon="14.7211305492">
		<tag k="alt_name" v="Skardelva" />
		<tag k="name" v="Skarelva" />
		<tag k="ssr:stedsnr" v="564982" />
		<tag k="waterway" v="stream" />
	</node>
	<node id="-198012" lat="68.6216694428" lon="15.0106500043">
		<tag k="name" v="Finnurdvatnet" />
		<tag k="natural" v="water" />
		<tag k="ssr:stedsnr" v="564520" />
	</node>
	<node id="-198011" lat="68.6245944411" lon="14.815858328">
		<tag k="name" v="Osan" />
		<tag k="natural" v="bay" />
		<tag k="ssr:stedsnr" v="564516" />
	</node>
	<node id="-198003" lat="68.5216222271" lon="14.8288861009">
		<tag k="name" v="Stengvatnet" />
		<tag k="natural" v="water" />
		<tag k="ssr:stedsnr" v="563958" />
	</node>
	<node id="-198000" lat="68.552366668" lon="14.9114749897">
		<tag k="alt_name" v="Litlvatnet" />
		<tag k="name" v="Lillevatnet" />
		<tag k="natural" v="water" />
		<tag k="ssr:stedsnr" v="563926" />
	</node>
	<node id="-197997" lat="68.5473111125" lon="14.7711638926">
		<tag k="alt_name" v="Indrevatnet" />
		<tag k="name" v="Innervatnet" />
		<tag k="natural" v="water" />
		<tag k="ssr:stedsnr" v="563906" />
	</node>
	<node id="-195948" lat="68.5363166676" lon="15.3170305656">
		<tag k="name" v="Storneset" />
		<tag k="natural" v="cape" />
		<tag k="ssr:stedsnr" v="241017" />
	</node>
	<node id="-195946" lat="68.5343333303" lon="15.3307388965">
		<tag k="name" v="Vassneset" />
		<tag k="natural" v="cape" />
		<tag k="ssr:stedsnr" v="241013" />
	</node>
	<node id="-195942" lat="68.4528277758" lon="15.2086944393">
		<tag k="name" v="Steinbakkvatnet" />
		<tag k="natural" v="water" />
		<tag k="ssr:stedsnr" v="446658" />
		<tag k="water" v="lake" />
	</node>
	<node id="-195941" lat="68.540641667" lon="14.6994694537">
		<tag k="alt_name" v="Trolltjørna" />
		<tag k="name" v="Trolltjønna" />
		<tag k="natural" v="water" />
		<tag k="ssr:stedsnr" v="443986" />
	</node>
	<node id="-197985" lat="68.6143000004" lon="14.9392527713">
		<tag k="name" v="Rødvatnet" />
		<tag k="natural" v="water" />
		<tag k="ssr:stedsnr" v="563619" />
	</node>
	<node id="-195931" lat="68.5198472205" lon="14.8406944536">
		<tag k="alt_name" v="Vakdalsvatnet" />
		<tag k="name" v="Vaktdalsvatnet" />
		<tag k="natural" v="water" />
		<tag k="ssr:stedsnr" v="442954" />
	</node>
	<node id="-195930" lat="68.5189083301" lon="14.7343388832">
		<tag k="name" v="Ongstadelva" />
		<tag k="ssr:stedsnr" v="442948" />
		<tag k="waterway" v="stream" />
	</node>
	<node id="-195928" lat="68.5636499986" lon="14.8498999885">
		<tag k="alt_name" v="Bervikelva" />
		<tag k="name" v="Bergvikelva" />
		<tag k="ssr:stedsnr" v="442939" />
		<tag k="waterway" v="stream" />
	</node>
	<node id="-197970" lat="68.509849997" lon="15.2533083269">
		<tag k="alt_name" v="Lillevatnet" />
		<tag k="name" v="Litlevatnet" />
		<tag k="natural" v="water" />
		<tag k="ssr:stedsnr" v="563378" />
	</node>
	<node id="-195917" lat="68.4571416652" lon="15.3001583405">
		<tag k="name" v="Dalvatnet" />
		<tag k="natural" v="water" />
		<tag k="ssr:stedsnr" v="442715" />
	</node>
	<node id="-197959" lat="68.551250003" lon="15.3393194534">
		<tag k="name" v="Mellavatnet" />
		<tag k="natural" v="water" />
		<tag k="ssr:stedsnr" v="563095" />
	</node>
	<node id="-198539" lat="68.4328555561" lon="15.2247777786">
		<tag k="name" v="Tverrelva" />
		<tag k="ssr:stedsnr" v="866772" />
		<tag k="waterway" v="stream" />
	</node>
	<node id="-195902" lat="68.5357277801" lon="15.3243194495">
		<tag k="name" v="Krullneset" />
		<tag k="natural" v="cape" />
		<tag k="ssr:stedsnr" v="442385" />
	</node>
	<node id="-197949" lat="68.4393055597" lon="15.0453527714">
		<tag k="fixme" v="multiple name tags, choose one and add the other to alt_name" />
		<tag k="name" v="Fjordelva;Myrlandsfjordelva;Stordalselva" />
		<tag k="ssr:stedsnr" v="562798" />
		<tag k="waterway" v="river" />
	</node>
	<node id="-197948" lat="68.4415611142" lon="15.0795472144">
		<tag k="name" v="Storvatnet" />
		<tag k="natural" v="water" />
		<tag k="ssr:stedsnr" v="562789" />
	</node>
	<node id="-197947" lat="68.4360194435" lon="15.0259638821">
		<tag k="name" v="Durmålsvatnet" />
		<tag k="natural" v="water" />
		<tag k="ssr:stedsnr" v="562780" />
	</node>
	<node id="-195898" lat="68.4176250012" lon="14.8762500022">
		<tag k="fixme" v="multiple name tags, choose one and add the other to alt_name" />
		<tag k="name" v="Gårdsvatnet;Sløvervatnet" />
		<tag k="natural" v="water" />
		<tag k="ssr:stedsnr" v="442323" />
	</node>
	<node id="-195897" lat="68.4188666681" lon="14.8052027848">
		<tag k="name" v="Dalselva" />
		<tag k="ssr:stedsnr" v="442320" />
		<tag k="waterway" v="stream" />
	</node>
	<node id="-195896" lat="68.4176527808" lon="14.5660249932">
		<tag k="name" v="Bonbekken" />
		<tag k="ssr:stedsnr" v="442311" />
		<tag k="waterway" v="stream" />
	</node>
	<node id="-195895" lat="68.6689944411" lon="15.0430583405">
		<tag k="alt_name" v="Drågtjørna" />
		<tag k="name" v="Drågtjønna" />
		<tag k="natural" v="water" />
		<tag k="ssr:stedsnr" v="442198" />
	</node>
	<node id="-197939" lat="68.6059388903" lon="14.9839305646">
		<tag k="name" v="Klembekken" />
		<tag k="ssr:stedsnr" v="562604" />
		<tag k="waterway" v="stream" />
	</node>
	<node id="-197936" lat="68.3899499996" lon="14.6682722265">
		<tag k="alt_name" v="Lillevatnet" />
		<tag k="name" v="Litlvatnet" />
		<tag k="natural" v="water" />
		<tag k="ssr:stedsnr" v="562469" />
	</node>
	<node id="-197935" lat="68.3859583355" lon="14.6995833278">
		<tag k="name" v="Hellelva" />
		<tag k="ssr:stedsnr" v="562466" />
		<tag k="waterway" v="stream" />
	</node>
	<node id="-197934" lat="68.3897388864" lon="14.7309277836">
		<tag k="name" v="Nordelva" />
		<tag k="ssr:stedsnr" v="562461" />
		<tag k="waterway" v="stream" />
	</node>
	<node id="-195883" lat="68.4827111119" lon="15.1898999967">
		<tag k="name" v="Skipøyosen" />
		<tag k="natural" v="bay" />
		<tag k="ssr:stedsnr" v="441643" />
	</node>
	<node id="-195879" lat="68.4367277764" lon="14.9839583427">
		<tag k="name" v="Meraftesvatnet" />
		<tag k="natural" v="water" />
		<tag k="ssr:stedsnr" v="441368" />
	</node>
	<node id="-197925" lat="68.4013444439" lon="14.6081833325">
		<tag k="name" v="Trolldalsvatnet" />
		<tag k="natural" v="water" />
		<tag k="ssr:stedsnr" v="562279" />
	</node>
	<node id="-195876" lat="68.4389416634" lon="14.9170777828">
		<tag k="name" v="Mølnelva" />
		<tag k="ssr:stedsnr" v="441342" />
		<tag k="waterway" v="stream" />
	</node>
	<node id="-197923" lat="68.3998555582" lon="14.9209277821">
		<tag k="name" v="Mjådalsvatnet" />
		<tag k="natural" v="water" />
		<tag k="ssr:stedsnr" v="562263" />
	</node>
	<node id="-197920" lat="68.4013472251" lon="14.7889749948">
		<tag k="name" v="Lortvatnet" />
		<tag k="natural" v="water" />
		<tag k="ssr:stedsnr" v="562258" />
	</node>
	<node id="-197912" lat="68.5011805534" lon="14.8465249978">
		<tag k="name" v="Elvosen" />
		<tag k="natural" v="bay" />
		<tag k="ssr:stedsnr" v="545140" />
	</node>
	<node id="-195855" lat="68.5602805585" lon="14.867552788">
		<tag k="name" v="Sponrosbekken" />
		<tag k="ssr:stedsnr" v="216025" />
		<tag k="waterway" v="stream" />
	</node>
	<node id="-197897" lat="68.6254416694" lon="14.8930749907">
		<tag k="name" v="Lauvåselva" />
		<tag k="ssr:stedsnr" v="527699" />
		<tag k="waterway" v="stream" />
	</node>
	<node id="-197876" lat="68.4241916702" lon="14.6814916643">
		<tag k="name" v="Saubekken" />
		<tag k="ssr:stedsnr" v="525072" />
		<tag k="waterway" v="stream" />
	</node>
	<node id="-197875" lat="68.4231166626" lon="14.6215638973">
		<tag k="name" v="Lilleåa" />
		<tag k="ssr:stedsnr" v="525065" />
		<tag k="waterway" v="stream" />
	</node>
	<node id="-195822" lat="68.4534194396" lon="15.1225166772">
		<tag k="name" v="Kvitholmvatnan" />
		<tag k="natural" v="water" />
		<tag k="ssr:stedsnr" v="199734" />
	</node>
	<node id="-197866" lat="68.6349277775" lon="15.15834166">
		<tag k="name" v="Stillelva" />
		<tag k="ssr:stedsnr" v="520981" />
		<tag k="waterway" v="river" />
	</node>
	<node id="-195811" lat="68.6099194445" lon="15.0202472289">
		<tag k="name" v="Dalvatnet" />
		<tag k="natural" v="water" />
		<tag k="ssr:stedsnr" v="199006" />
	</node>
	<node id="-195810" lat="68.5483027801" lon="15.2182111156">
		<tag k="name" v="Raelva" />
		<tag k="ssr:stedsnr" v="199119" />
		<tag k="waterway" v="stream" />
	</node>
	<node id="-196133" lat="68.4552027775" lon="15.2078944339">
		<tag k="name" v="Andrevatnet" />
		<tag k="natural" v="water" />
		<tag k="ssr:stedsnr" v="385660" />
	</node>
	<node id="-197852" lat="68.491927774" lon="15.3218083378">
		<tag k="name" v="Rennarvasselva" />
		<tag k="ssr:stedsnr" v="423050" />
		<tag k="waterway" v="stream" />
	</node>
	<node id="-197849" lat="68.534952775" lon="15.3264888826">
		<tag k="name" v="Krullnesbukta" />
		<tag k="natural" v="bay" />
		<tag k="ssr:stedsnr" v="423024" />
	</node>
	<node id="-197848" lat="68.5278527762" lon="15.3297638761">
		<tag k="name" v="Aspdalselva" />
		<tag k="ssr:stedsnr" v="423022" />
		<tag k="waterway" v="stream" />
	</node>
	<node id="-195799" lat="68.4086527797" lon="14.6742083223">
		<tag k="name" v="Krokelva" />
		<tag k="ssr:stedsnr" v="180168" />
		<tag k="waterway" v="stream" />
	</node>
	<node id="-197833" lat="68.620061109" lon="14.8687444324">
		<tag k="name" v="Mølndammen" />
		<tag k="natural" v="water" />
		<tag k="ssr:stedsnr" v="406696" />
		<tag k="water" v="lake" />
	</node>
	<node id="-197831" lat="68.5511416643" lon="14.8318250091">
		<tag k="name" v="Kvanntovatnet" />
		<tag k="natural" v="water" />
		<tag k="ssr:stedsnr" v="406286" />
	</node>
	<node id="-197824" lat="68.6351416658" lon="14.9727722212">
		<tag k="name" v="Botnsanden" />
		<tag k="natural" v="bay" />
		<tag k="ssr:stedsnr" v="404538" />
	</node>
	<node id="-195763" lat="68.4330527781" lon="14.6673749987">
		<tag k="name" v="Bonsteintjønna" />
		<tag k="natural" v="water" />
		<tag k="ssr:stedsnr" v="282126" />
	</node>
	<node id="-197801" lat="68.5129999991" lon="14.843458324">
		<tag k="name" v="Martin-Jonsahola" />
		<tag k="natural" v="water" />
		<tag k="ssr:stedsnr" v="398571" />
		<tag k="water" v="lake" />
	</node>
	<node id="-195752" lat="68.5581972254" lon="14.7982388899">
		<tag k="name" v="Slottneset" />
		<tag k="natural" v="cape" />
		<tag k="ssr:stedsnr" v="163266" />
	</node>
	<node id="-198172" lat="68.6117888861" lon="15.1168805427">
		<tag k="name" v="Mølndammen" />
		<tag k="natural" v="water" />
		<tag k="ssr:stedsnr" v="640800" />
		<tag k="water" v="lake" />
	</node>
	<node id="-197793" lat="68.5756166673" lon="15.2519722227">
		<tag k="name" v="Vindelva" />
		<tag k="ssr:stedsnr" v="397951" />
		<tag k="waterway" v="stream" />
	</node>
	<node id="-195742" lat="68.5755861091" lon="14.8045833377">
		<tag k="name" v="Bekken" />
		<tag k="ssr:stedsnr" v="161306" />
		<tag k="waterway" v="stream" />
	</node>
	<node id="-195728" lat="68.5546083291" lon="15.2104888852">
		<tag k="name" v="Slettåselva" />
		<tag k="ssr:stedsnr" v="156220" />
		<tag k="waterway" v="stream" />
	</node>
	<node id="-195726" lat="68.5366666688" lon="15.2416027862">
		<tag k="name" v="Moelva" />
		<tag k="ssr:stedsnr" v="277857" />
		<tag k="waterway" v="stream" />
	</node>
	<node id="-197760" lat="68.5371861142" lon="15.3055638929">
		<tag k="name" v="Storneset" />
		<tag k="natural" v="cape" />
		<tag k="ssr:stedsnr" v="382201" />
	</node>
	<node id="-197759" lat="68.5353166674" lon="14.8585611071">
		<tag k="name" v="Båtvatnet" />
		<tag k="natural" v="water" />
		<tag k="ssr:stedsnr" v="381995" />
	</node>
	<node id="-197757" lat="68.5256499966" lon="14.7578972308">
		<tag k="fixme" v="multiple name tags, choose one and add the other to alt_name" />
		<tag k="name" v="Lilleongstadvatnet;Litlvatnet" />
		<tag k="natural" v="water" />
		<tag k="ssr:stedsnr" v="381958" />
	</node>
	<node id="-197755" lat="68.5182777821" lon="14.7613888851">
		<tag k="name" v="Lomskinntjørna" />
		<tag k="natural" v="water" />
		<tag k="ssr:stedsnr" v="381949" />
	</node>
	<node id="-195704" lat="68.4850750018" lon="15.3571555631">
		<tag k="name" v="Sørbotnvatnan" />
		<tag k="natural" v="water" />
		<tag k="ssr:stedsnr" v="138653" />
		<tag k="water" v="lake" />
	</node>
	<node id="-197748" lat="68.4144611154" lon="15.1789027815">
		<tag k="fixme" v="multiple name tags, choose one and add the other to alt_name" />
		<tag k="name" v="Moldfokbakkvatnet;Tengelfjordvatnet" />
		<tag k="natural" v="water" />
		<tag k="ssr:stedsnr" v="381891" />
	</node>
	<node id="-197743" lat="68.4528249959" lon="15.2602083366">
		<tag k="name" v="Middagselva" />
		<tag k="ssr:stedsnr" v="381832" />
		<tag k="waterway" v="stream" />
	</node>
	<node id="-197742" lat="68.4518277783" lon="15.2502527748">
		<tag k="name" v="Dalelva" />
		<tag k="ssr:stedsnr" v="381831" />
		<tag k="waterway" v="river" />
	</node>
	<node id="-197735" lat="68.4532749974" lon="15.0981499896">
		<tag k="name" v="Stabbelva" />
		<tag k="ssr:stedsnr" v="381715" />
		<tag k="waterway" v="stream" />
	</node>
	<node id="-195686" lat="68.6194722265" lon="14.9321500015">
		<tag k="name" v="Tromslåttelva" />
		<tag k="ssr:stedsnr" v="261524" />
		<tag k="waterway" v="stream" />
	</node>
	<node id="-197720" lat="68.5323194441" lon="15.2766277868">
		<tag k="name" v="Kaljordelva" />
		<tag k="ssr:stedsnr" v="381391" />
		<tag k="waterway" v="river" />
	</node>
	<node id="-197717" lat="68.534936112" lon="15.356708325">
		<tag k="name" v="Guldragvatnet" />
		<tag k="natural" v="water" />
		<tag k="ssr:stedsnr" v="381386" />
	</node>
	<node id="-197714" lat="68.4298777741" lon="14.9955638979">
		<tag k="name" v="Langdalsvatnet" />
		<tag k="natural" v="water" />
		<tag k="ssr:stedsnr" v="381360" />
	</node>
	<node id="-195659" lat="68.4636305584" lon="15.1618138884">
		<tag k="name" v="Juvikvatnet" />
		<tag k="natural" v="water" />
		<tag k="ssr:stedsnr" v="260720" />
	</node>
	<node id="-197699" lat="68.442955552" lon="15.0513111185">
		<tag k="fixme" v="multiple name tags, choose one and add the other to alt_name" />
		<tag k="name" v="Vardvatnet;Varmvatnet" />
		<tag k="natural" v="water" />
		<tag k="ssr:stedsnr" v="380807" />
	</node>
	<node id="-195644" lat="68.6421250029" lon="15.1380055483">
		<tag k="name" v="Litlevatnet" />
		<tag k="natural" v="water" />
		<tag k="ssr:stedsnr" v="260291" />
	</node>
	<node id="-197691" lat="68.4836861151" lon="15.2655472293">
		<tag k="name" v="Sommarsetelva" />
		<tag k="ssr:stedsnr" v="380678" />
		<tag k="waterway" v="stream" />
	</node>
	<node id="-197683" lat="68.4348305565" lon="14.6501611226">
		<tag k="alt_name" v="Haksteintjønna" />
		<tag k="name" v="Hakksteintjørna" />
		<tag k="natural" v="water" />
		<tag k="ssr:stedsnr" v="380323" />
	</node>
	<node id="-195634" lat="68.6132388858" lon="15.098272213">
		<tag k="name" v="Gryttingselva" />
		<tag k="ssr:stedsnr" v="260001" />
		<tag k="waterway" v="river" />
	</node>
	<node id="-195630" lat="68.3543583296" lon="15.0232888892">
		<tag k="name" v="Ulvøyvatnet" />
		<tag k="natural" v="water" />
		<tag k="ssr:stedsnr" v="259879" />
	</node>
	<node id="-195628" lat="68.4347916658" lon="15.2426000036">
		<tag k="name" v="Tverrelvvatnan" />
		<tag k="natural" v="water" />
		<tag k="ssr:stedsnr" v="259787" />
	</node>
	<node id="-197668" lat="68.492744448" lon="15.3526666778">
		<tag k="name" v="Sørbotnelva" />
		<tag k="ssr:stedsnr" v="362021" />
		<tag k="waterway" v="stream" />
	</node>
	<node id="-197667" lat="68.5014555581" lon="15.3686222338">
		<tag k="name" v="Nordbotnelva" />
		<tag k="ssr:stedsnr" v="362018" />
		<tag k="waterway" v="stream" />
	</node>
	<node id="-197664" lat="68.5582222228" lon="14.6624138969">
		<tag k="name" v="Gongskarvatnet" />
		<tag k="natural" v="water" />
		<tag k="ssr:stedsnr" v="359488" />
	</node>
	<node id="-195607" lat="68.4808250035" lon="15.1768611215">
		<tag k="name" v="Lauklivatnet" />
		<tag k="natural" v="water" />
		<tag k="ssr:stedsnr" v="101865" />
	</node>
	<node id="-195600" lat="68.4312055527" lon="14.6209166768">
		<tag k="name" v="Mortjønna" />
		<tag k="natural" v="water" />
		<tag k="ssr:stedsnr" v="100119" />
		<tag k="water" v="pond" />
	</node>
	<node id="-197647" lat="68.6432388846" lon="14.883591676">
		<tag k="name" v="Trolltjønna" />
		<tag k="natural" v="water" />
		<tag k="ssr:stedsnr" v="358690" />
	</node>
	<node id="-195595" lat="68.4032555551" lon="14.6310833364">
		<tag k="name" v="Middagsvatnet" />
		<tag k="natural" v="water" />
		<tag k="ssr:stedsnr" v="78280" />
	</node>
	<node id="-195587" lat="68.4121805511" lon="14.6892333441">
		<tag k="name" v="Valtjønna" />
		<tag k="natural" v="water" />
		<tag k="ssr:stedsnr" v="241151" />
	</node>
	<node id="-195585" lat="68.384108331" lon="14.7213861049">
		<tag k="name" v="Holmen" />
		<tag k="natural" v="water" />
		<tag k="ssr:stedsnr" v="241139" />
		<tag k="water" v="lake" />
	</node>
	<node id="-195580" lat="68.549477774" lon="14.761194442">
		<tag k="name" v="Finnkjerkelva" />
		<tag k="ssr:stedsnr" v="238462" />
		<tag k="waterway" v="stream" />
	</node>
	<node id="-197611" lat="68.4293083351" lon="14.735113889">
		<tag k="name" v="Strønstadelva" />
		<tag k="ssr:stedsnr" v="342057" />
		<tag k="waterway" v="stream" />
	</node>
	<node id="-197609" lat="68.5757277822" lon="14.6529027745">
		<tag k="name" v="Teiganelva" />
		<tag k="ssr:stedsnr" v="342038" />
		<tag k="waterway" v="stream" />
	</node>
	<node id="-195559" lat="68.4456944441" lon="14.9365833263">
		<tag k="name" v="Elven" />
		<tag k="ssr:stedsnr" v="237592" />
		<tag k="waterway" v="stream" />
	</node>
	<node id="-195543" lat="68.6410777808" lon="14.9585694469">
		<tag k="name" v="Selneset" />
		<tag k="natural" v="cape" />
		<tag k="ssr:stedsnr" v="40561" />
	</node>
	<node id="-195539" lat="68.4325750039" lon="14.6040027884">
		<tag k="name" v="Kalvbekken" />
		<tag k="ssr:stedsnr" v="40220" />
		<tag k="waterway" v="stream" />
	</node>
	<node id="-197572" lat="68.5248249974" lon="14.8334305581">
		<tag k="name" v="Finnsteinelva" />
		<tag k="ssr:stedsnr" v="321935" />
		<tag k="waterway" v="stream" />
	</node>
	<node id="-197570" lat="68.5550916709" lon="14.7215527752">
		<tag k="name" v="Krokelva" />
		<tag k="ssr:stedsnr" v="321908" />
		<tag k="waterway" v="stream" />
	</node>
	<node id="-197569" lat="68.561724999" lon="14.6723916547">
		<tag k="name" v="Øvrevatnet" />
		<tag k="natural" v="water" />
		<tag k="ssr:stedsnr" v="321907" />
	</node>
	<node id="-195517" lat="68.6264055516" lon="14.8732055437">
		<tag k="name" v="Skarelva" />
		<tag k="ssr:stedsnr" v="224677" />
		<tag k="waterway" v="stream" />
	</node>
	<node id="-195512" lat="68.5575333334" lon="15.3456638948">
		<tag k="alt_name" v="Tjørnelva" />
		<tag k="name" v="Tjønnelva" />
		<tag k="ssr:stedsnr" v="18119" />
		<tag k="waterway" v="stream" />
	</node>
	<node id="-195511" lat="68.5549361087" lon="15.377511102">
		<tag k="alt_name" v="Fiskfjordvatnet, andre;Andre Fiskfjordvatnet" />
		<tag k="fixme" v="multiple name tags, choose one and add the other to alt_name" />
		<tag k="name" v="Fiskfjordvatnet;Andre Fiskefjordvatn" />
		<tag k="natural" v="water" />
		<tag k="ssr:stedsnr" v="18114" />
		<tag k="water" v="lake" />
	</node>
	<node id="-197557" lat="68.6100944483" lon="14.9721166556">
		<tag k="name" v="Brurtjørna" />
		<tag k="natural" v="water" />
		<tag k="ssr:stedsnr" v="321581" />
	</node>
	<node id="-195508" lat="68.4329749969" lon="15.10872501">
		<tag k="name" v="Isvatnet" />
		<tag k="natural" v="water" />
		<tag k="ssr:stedsnr" v="17815" />
	</node>
	<node id="-195506" lat="68.4310222237" lon="15.1912444527">
		<tag k="name" v="Storvatnet" />
		<tag k="natural" v="water" />
		<tag k="ssr:stedsnr" v="17806" />
		<tag k="water" v="lake" />
	</node>
	<node id="-197553" lat="68.64397222" lon="14.879430548">
		<tag k="name" v="Kvalsøyelva" />
		<tag k="ssr:stedsnr" v="321524" />
		<tag k="waterway" v="stream" />
	</node>
	<node id="-195504" lat="68.5904444433" lon="15.0029611129">
		<tag k="alt_name" v="Lomstjørna" />
		<tag k="name" v="Lomstjønna" />
		<tag k="natural" v="water" />
		<tag k="ssr:stedsnr" v="17603" />
	</node>
	<node id="-195501" lat="68.6521750037" lon="14.9306527797">
		<tag k="name" v="Kjørstadelva" />
		<tag k="ssr:stedsnr" v="17732" />
		<tag k="waterway" v="river" />
	</node>
	<node id="-197544" lat="68.5344055595" lon="15.3024333446">
		<tag k="name" v="Kaljordvatnet" />
		<tag k="natural" v="water" />
		<tag k="ssr:stedsnr" v="321356" />
		<tag k="water" v="lake" />
	</node>
	<node id="-195492" lat="68.5648666649" lon="14.7871194514">
		<tag k="name" v="Kollslettbekken" />
		<tag k="ssr:stedsnr" v="224280" />
		<tag k="waterway" v="stream" />
	</node>
	<node id="-197538" lat="68.4102138879" lon="15.1818333339">
		<tag k="name" v="Lomstjørna" />
		<tag k="natural" v="water" />
		<tag k="ssr:stedsnr" v="320869" />
	</node>
	<node id="-197531" lat="68.424094448" lon="15.209877779">
		<tag k="alt_name" v="Trevatnet" />
		<tag k="name" v="Trivatnet" />
		<tag k="natural" v="water" />
		<tag k="ssr:stedsnr" v="320768" />
	</node>
	<node id="-197530" lat="68.4162333328" lon="15.1261638798">
		<tag k="name" v="Vassnesvatnet" />
		<tag k="natural" v="water" />
		<tag k="ssr:stedsnr" v="320762" />
	</node>
	<node id="-195480" lat="68.4167194473" lon="15.1656444454">
		<tag k="name" v="Tengelfjordelva" />
		<tag k="ssr:stedsnr" v="222978" />
		<tag k="waterway" v="stream" />
	</node>
	<node id="-197527" lat="68.4699361082" lon="15.2725166593">
		<tag k="alt_name" v="Pollen, yt" />
		<tag k="name" v="Ytre Pollen" />
		<tag k="natural" v="bay" />
		<tag k="ssr:stedsnr" v="320743" />
	</node>
	<node id="-197523" lat="68.4612249973" lon="15.2938888881">
		<tag k="name" v="Nøkkvatnet" />
		<tag k="natural" v="water" />
		<tag k="ssr:stedsnr" v="320698" />
	</node>
	<node id="-197522" lat="68.4595444409" lon="15.1741583248">
		<tag k="name" v="Svartvatnet" />
		<tag k="natural" v="water" />
		<tag k="ssr:stedsnr" v="320679" />
	</node>
	<node id="-197521" lat="68.4642499955" lon="15.1869611145">
		<tag k="name" v="Vikavatnet" />
		<tag k="natural" v="water" />
		<tag k="ssr:stedsnr" v="320677" />
	</node>
	<node id="-197513" lat="68.386030551" lon="14.9937583354">
		<tag k="name" v="Grunnfjordvatnet" />
		<tag k="natural" v="water" />
		<tag k="ssr:stedsnr" v="320449" />
	</node>
	<node id="-197512" lat="68.3787027765" lon="14.721502776">
		<tag k="name" v="Sørelva" />
		<tag k="ssr:stedsnr" v="320438" />
		<tag k="waterway" v="stream" />
	</node>
	<node id="-197511" lat="68.3795888898" lon="14.7744305535">
		<tag k="name" v="Dalsvatnet" />
		<tag k="natural" v="water" />
		<tag k="ssr:stedsnr" v="320436" />
	</node>
	<node id="-197505" lat="68.6456333297" lon="15.038486119">
		<tag k="alt_name" v="Nertjørna" />
		<tag k="name" v="Nertjønna" />
		<tag k="natural" v="water" />
		<tag k="ssr:stedsnr" v="320217" />
	</node>
	<node id="-195454" lat="68.5727333378" lon="14.7501805444">
		<tag k="name" v="Lillevatnet" />
		<tag k="natural" v="water" />
		<tag k="ssr:stedsnr" v="222025" />
	</node>
	<node id="-197501" lat="68.5913194429" lon="15.0426583422">
		<tag k="alt_name" v="Lomtjørna" />
		<tag k="name" v="Lomstjønna" />
		<tag k="natural" v="water" />
		<tag k="ssr:stedsnr" v="320032" />
	</node>
	<node id="-197482" lat="68.5323888856" lon="14.6998027675">
		<tag k="name" v="Djupgjota" />
		<tag k="ssr:stedsnr" v="216257" />
		<tag k="waterway" v="stream" />
	</node>
	<node id="-197478" lat="68.5525388905" lon="14.904061111">
		<tag k="name" v="Gledalsvatnet" />
		<tag k="natural" v="water" />
		<tag k="ssr:stedsnr" v="216001" />
	</node>
	<node id="-197476" lat="68.5710999966" lon="14.6567499877">
		<tag k="alt_name" v="Teiganvatnet" />
		<tag k="name" v="Teigvatnet" />
		<tag k="natural" v="water" />
		<tag k="ssr:stedsnr" v="200901" />
	</node>
	<node id="-197462" lat="68.3907222219" lon="14.6512305557">
		<tag k="name" v="Storvatnet" />
		<tag k="natural" v="water" />
		<tag k="ssr:stedsnr" v="200055" />
		<tag k="water" v="lake" />
	</node>
	<node id="-197452" lat="68.4857305579" lon="15.1772666561">
		<tag k="name" v="Hestvatnet" />
		<tag k="natural" v="water" />
		<tag k="ssr:stedsnr" v="199657" />
	</node>
	<node id="-197441" lat="68.3536750027" lon="14.8708777799">
		<tag k="name" v="Trollfjordvatnet" />
		<tag k="natural" v="water" />
		<tag k="ssr:stedsnr" v="199397" />
		<tag k="water" v="lake" />
	</node>
	<node id="-197437" lat="68.3659027764" lon="14.9468777676">
		<tag k="name" v="Jarsteinelva" />
		<tag k="ssr:stedsnr" v="199452" />
		<tag k="waterway" v="stream" />
	</node>
	<node id="-197425" lat="68.4316249965" lon="14.9879833392">
		<tag k="fixme" v="multiple name tags, choose one and add the other to alt_name" />
		<tag k="name" v="Seljeskogtjørna;Selskogtjønna" />
		<tag k="natural" v="water" />
		<tag k="ssr:stedsnr" v="199377" />
	</node>
	<node id="-197419" lat="68.4233972188" lon="14.7397638957">
		<tag k="name" v="Dalsvatnet" />
		<tag k="natural" v="water" />
		<tag k="ssr:stedsnr" v="199346" />
	</node>
	<node id="-197415" lat="68.4027388909" lon="14.5674138958">
		<tag k="name" v="Langnestjørna" />
		<tag k="natural" v="water" />
		<tag k="ssr:stedsnr" v="199285" />
	</node>
	<node id="-197414" lat="68.6442583338" lon="15.1224555449">
		<tag k="name" v="Forsvatnet" />
		<tag k="natural" v="water" />
		<tag k="ssr:stedsnr" v="199276" />
	</node>
	<node id="-197401" lat="68.5521527755" lon="14.7641305452">
		<tag k="name" v="Leirkråbekken" />
		<tag k="ssr:stedsnr" v="177441" />
		<tag k="waterway" v="stream" />
	</node>
	<node id="-197397" lat="68.6450916674" lon="14.8654972333">
		<tag k="name" v="Lilleelva" />
		<tag k="ssr:stedsnr" v="176687" />
		<tag k="waterway" v="stream" />
	</node>
	<node id="-197395" lat="68.6494805549" lon="14.8476500069">
		<tag k="name" v="Grønnbekken" />
		<tag k="ssr:stedsnr" v="176679" />
		<tag k="waterway" v="stream" />
	</node>
	<node id="-197383" lat="68.6443027768" lon="14.9469722182">
		<tag k="name" v="Tennhella" />
		<tag k="place" v="islet" />
		<tag k="ssr:stedsnr" v="176539" />
	</node>
	<node id="-197379" lat="68.6238083334" lon="14.816799994">
		<tag k="name" v="Stortjønna" />
		<tag k="natural" v="water" />
		<tag k="ssr:stedsnr" v="163251" />
	</node>
	<node id="-197365" lat="68.4006083307" lon="14.5740333436">
		<tag k="name" v="Svinstorelva" />
		<tag k="ssr:stedsnr" v="161199" />
		<tag k="waterway" v="stream" />
	</node>
	<node id="-197357" lat="68.5707527749" lon="14.6534944379">
		<tag k="name" v="Neset" />
		<tag k="natural" v="cape" />
		<tag k="ssr:stedsnr" v="161040" />
	</node>
	<node id="-197353" lat="68.5683111086" lon="14.7099611098">
		<tag k="name" v="Sandbekken" />
		<tag k="ssr:stedsnr" v="161001" />
		<tag k="waterway" v="stream" />
	</node>
	<node id="-198097" lat="68.5965749988" lon="14.9967861041">
		<tag k="name" v="Bitterstadelva" />
		<tag k="ssr:stedsnr" v="623606" />
		<tag k="waterway" v="stream" />
	</node>
	<node id="-195707" lat="68.5975611133" lon="14.9287916625">
		<tag k="name" v="Kordalsbekken" />
		<tag k="ssr:stedsnr" v="276166" />
		<tag k="waterway" v="stream" />
	</node>
	<node id="-197344" lat="68.5588027803" lon="15.215666675">
		<tag k="name" v="Mølnelva" />
		<tag k="ssr:stedsnr" v="156301" />
		<tag k="waterway" v="stream" />
	</node>
	<node id="-197325" lat="68.4576527762" lon="15.2064305595">
		<tag k="name" v="Trivatnet" />
		<tag k="natural" v="water" />
		<tag k="ssr:stedsnr" v="142637" />
	</node>
	<node id="-197322" lat="68.6318833325" lon="14.947319452">
		<tag k="name" v="Drogtjørna" />
		<tag k="natural" v="water" />
		<tag k="ssr:stedsnr" v="139535" />
	</node>
	<node id="-197321" lat="68.5315222208" lon="14.735902765">
		<tag k="name" v="Vasshaugvatnet" />
		<tag k="natural" v="water" />
		<tag k="ssr:stedsnr" v="138995" />
	</node>
	<node id="-197320" lat="68.5324166624" lon="14.7468805557">
		<tag k="name" v="Stillelva" />
		<tag k="ssr:stedsnr" v="138993" />
		<tag k="waterway" v="river" />
	</node>
	<node id="-197318" lat="68.51350556" lon="14.848127774">
		<tag k="name" v="Gullstadelva" />
		<tag k="ssr:stedsnr" v="138960" />
		<tag k="waterway" v="stream" />
	</node>
	<node id="-197312" lat="68.3884444423" lon="15.1470083262">
		<tag k="name" v="Raftelva" />
		<tag k="ssr:stedsnr" v="138841" />
		<tag k="waterway" v="stream" />
	</node>
	<node id="-197306" lat="68.4212750032" lon="15.2400138993">
		<tag k="alt_name" v="Fjerdvatnet" />
		<tag k="name" v="Fjerdevatnet" />
		<tag k="natural" v="water" />
		<tag k="ssr:stedsnr" v="138770" />
	</node>
	<node id="-197305" lat="68.4142166693" lon="15.0427083414">
		<tag k="name" v="Førstevatnet" />
		<tag k="natural" v="water" />
		<tag k="ssr:stedsnr" v="138766" />
	</node>
	<node id="-197300" lat="68.4538833352" lon="15.0645111195">
		<tag k="name" v="Myrlandselva" />
		<tag k="ssr:stedsnr" v="138723" />
		<tag k="waterway" v="stream" />
	</node>
	<node id="-197297" lat="68.6051305592" lon="14.8985527907">
		<tag k="alt_name" v="Kvannosbekken" />
		<tag k="name" v="Kvannrasbekken" />
		<tag k="ssr:stedsnr" v="138610" />
		<tag k="waterway" v="stream" />
	</node>
	<node id="-197294" lat="68.3274694455" lon="14.8648583454">
		<tag k="name" v="Rørhopvatnet" />
		<tag k="natural" v="water" />
		<tag k="ssr:stedsnr" v="138546" />
		<tag k="water" v="lake" />
	</node>
	<node id="-197293" lat="68.373980552" lon="14.6009860998">
		<tag k="name" v="Litlvatnet" />
		<tag k="natural" v="water" />
		<tag k="ssr:stedsnr" v="138494" />
	</node>
	<node id="-197290" lat="68.3670444436" lon="14.7695527822">
		<tag k="alt_name" v="Tjørna" />
		<tag k="name" v="Tjønna" />
		<tag k="natural" v="water" />
		<tag k="ssr:stedsnr" v="138472" />
	</node>
	<node id="-198428" lat="68.55367778" lon="14.9543833422">
		<tag k="name" v="Andvågbekken" />
		<tag k="ssr:stedsnr" v="822529" />
		<tag k="waterway" v="stream" />
	</node>
	<node id="-197285" lat="68.4303611129" lon="14.8666499883">
		<tag k="name" v="Storvatnet" />
		<tag k="natural" v="water" />
		<tag k="ssr:stedsnr" v="138385" />
	</node>
	<node id="-197284" lat="68.4234277799" lon="14.999633336">
		<tag k="alt_name" v="Lillevatnet" />
		<tag k="name" v="Litlvatnet" />
		<tag k="natural" v="water" />
		<tag k="ssr:stedsnr" v="138373" />
	</node>
	<node id="-198427" lat="68.5386500005" lon="15.1895388814">
		<tag k="name" v="Sjøbekken" />
		<tag k="ssr:stedsnr" v="823224" />
		<tag k="waterway" v="stream" />
	</node>
	<node id="-197280" lat="68.3959361152" lon="14.5817638816">
		<tag k="alt_name" v="Varnestjørna" />
		<tag k="name" v="Vardnestjønna" />
		<tag k="natural" v="water" />
		<tag k="ssr:stedsnr" v="138328" />
	</node>
	<node id="-197275" lat="68.4049333334" lon="14.5644583446">
		<tag k="name" v="Kreelva" />
		<tag k="ssr:stedsnr" v="138291" />
		<tag k="waterway" v="stream" />
	</node>
	<node id="-195695" lat="68.4468805547" lon="15.0773472206">
		<tag k="name" v="Storvasselva" />
		<tag k="ssr:stedsnr" v="116610" />
		<tag k="waterway" v="stream" />
	</node>
	<node id="-197267" lat="68.6100500036" lon="15.0573944414">
		<tag k="alt_name" v="Haukenesvatnet" />
		<tag k="name" v="Hauknesvatnet" />
		<tag k="natural" v="water" />
		<tag k="ssr:stedsnr" v="138009" />
	</node>
	<node id="-197264" lat="68.6304333298" lon="15.1767611154">
		<tag k="alt_name" v="Skydalselva" />
		<tag k="name" v="Sydalselva" />
		<tag k="ssr:stedsnr" v="138257" />
		<tag k="waterway" v="stream" />
	</node>
	<node id="-197240" lat="68.6231111112" lon="14.8810666748">
		<tag k="name" v="Lillereinbrekka" />
		<tag k="natural" v="cape" />
		<tag k="ssr:stedsnr" v="102744" />
	</node>
	<node id="-195687" lat="68.6232861132" lon="14.9964444344">
		<tag k="name" v="Tjørna" />
		<tag k="natural" v="water" />
		<tag k="ssr:stedsnr" v="261526" />
	</node>
	<node id="-197220" lat="68.503711109" lon="15.2496694419">
		<tag k="name" v="Mølnelva" />
		<tag k="ssr:stedsnr" v="101060" />
		<tag k="waterway" v="stream" />
	</node>
	<node id="-197203" lat="68.5701833296" lon="15.2857166721">
		<tag k="name" v="Kvanntoelva" />
		<tag k="ssr:stedsnr" v="94951" />
		<tag k="waterway" v="stream" />
	</node>
	<node id="-197201" lat="68.6126027755" lon="15.097061105">
		<tag k="name" v="Storfossen" />
		<tag k="natural" v="waterfall" />
		<tag k="ssr:stedsnr" v="94825" />
	</node>
	<node id="-197179" lat="68.6209166693" lon="14.8712694477">
		<tag k="name" v="Vikelva" />
		<tag k="ssr:stedsnr" v="79488" />
		<tag k="waterway" v="stream" />
	</node>
	<node id="-197162" lat="68.4095805585" lon="15.0411499984">
		<tag k="name" v="Tredjevatnet" />
		<tag k="natural" v="water" />
		<tag k="ssr:stedsnr" v="78888" />
	</node>
	<node id="-197155" lat="68.4260500031" lon="15.2684277811">
		<tag k="name" v="Langslåttvatnan" />
		<tag k="natural" v="water" />
		<tag k="ssr:stedsnr" v="78764" />
	</node>
	<node id="-197153" lat="68.4119611145" lon="15.0483166588">
		<tag k="name" v="Andrevatnet" />
		<tag k="natural" v="water" />
		<tag k="ssr:stedsnr" v="78759" />
	</node>
	<node id="-197142" lat="68.6391111093" lon="14.9580805436">
		<tag k="name" v="Kjørstadvatnet" />
		<tag k="natural" v="water" />
		<tag k="ssr:stedsnr" v="78545" />
	</node>
	<node id="-197141" lat="68.6391777744" lon="14.7928360987">
		<tag k="alt_name" v="Skagtjørna" />
		<tag k="name" v="Skagtjønna" />
		<tag k="natural" v="water" />
		<tag k="ssr:stedsnr" v="78537" />
	</node>
	<node id="-197139" lat="68.6285583346" lon="14.932599993">
		<tag k="fixme" v="multiple name tags, choose one and add the other to alt_name" />
		<tag k="name" v="Kvannkista;Kvannkistvatnet" />
		<tag k="natural" v="water" />
		<tag k="ssr:stedsnr" v="78506" />
	</node>
	<node id="-197138" lat="68.3738333294" lon="14.8182583422">
		<tag k="name" v="Blåskavlelva" />
		<tag k="ssr:stedsnr" v="78488" />
		<tag k="waterway" v="stream" />
	</node>
	<node id="-197134" lat="68.502147219" lon="15.2579388777">
		<tag k="name" v="Storvatnet" />
		<tag k="natural" v="water" />
		<tag k="ssr:stedsnr" v="78412" />
	</node>
	<node id="-197131" lat="68.4239194463" lon="14.6275944378">
		<tag k="name" v="Sandselva" />
		<tag k="ssr:stedsnr" v="78364" />
		<tag k="waterway" v="stream" />
	</node>
	<node id="-197122" lat="68.553344441" lon="15.2724472241">
		<tag k="name" v="Brattelva" />
		<tag k="ssr:stedsnr" v="78094" />
		<tag k="waterway" v="stream" />
	</node>
	<node id="-197121" lat="68.5537361131" lon="15.3802111214">
		<tag k="name" v="Ørnneset" />
		<tag k="natural" v="cape" />
		<tag k="ssr:stedsnr" v="78092" />
	</node>
	<node id="-197119" lat="68.6088222184" lon="15.0784694487">
		<tag k="alt_name" v="Haukeneselva" />
		<tag k="name" v="Haukneselva" />
		<tag k="ssr:stedsnr" v="78050" />
		<tag k="waterway" v="river" />
	</node>
	<node id="-197093" lat="68.5489155031" lon="14.7254271014">
		<tag k="name" v="Lomstjønna" />
		<tag k="natural" v="water" />
		<tag k="ssr:stedsnr" v="56462" />
	</node>
	<node id="-197073" lat="68.6226527799" lon="14.8929916648">
		<tag k="name" v="Røsanden" />
		<tag k="natural" v="beach" />
		<tag k="ssr:stedsnr" v="42651" />
	</node>
	<node id="-197067" lat="68.4604333304" lon="15.1229111202">
		<tag k="name" v="Kvitholmelva" />
		<tag k="ssr:stedsnr" v="40977" />
		<tag k="waterway" v="stream" />
	</node>
	<node id="-197065" lat="68.4599277797" lon="15.2811805599">
		<tag k="name" v="Rappdalselva" />
		<tag k="ssr:stedsnr" v="40878" />
		<tag k="waterway" v="stream" />
	</node>
	<node id="-197036" lat="68.5564833293" lon="15.2196388914">
		<tag k="name" v="Seterelva" />
		<tag k="ssr:stedsnr" v="34287" />
		<tag k="waterway" v="stream" />
	</node>
	<node id="-196338" lat="68.5414500017" lon="15.3811416562">
		<tag k="alt_name" v="Kvanntovatnet, nedre" />
		<tag k="name" v="Nedre Kvanntovatnet" />
		<tag k="natural" v="water" />
		<tag k="ssr:stedsnr" v="685100" />
	</node>
	<node id="-197013" lat="68.508063887" lon="14.7975361052">
		<tag k="name" v="Melbuelva" />
		<tag k="ssr:stedsnr" v="18954" />
		<tag k="waterway" v="stream" />
	</node>
	<node id="-197009" lat="68.5544416631" lon="14.6603861153">
		<tag k="name" v="Kulivatnet" />
		<tag k="natural" v="water" />
		<tag k="ssr:stedsnr" v="18847" />
	</node>
	<node id="-197007" lat="68.526825002" lon="14.9306277836">
		<tag k="alt_name" v="Lillevatnet" />
		<tag k="name" v="Litlvatnet" />
		<tag k="natural" v="water" />
		<tag k="ssr:stedsnr" v="18943" />
	</node>
	<node id="-196998" lat="68.6227388905" lon="14.8869194469">
		<tag k="alt_name" v="Lillevatnet" />
		<tag k="name" v="Litlvatnet" />
		<tag k="natural" v="water" />
		<tag k="ssr:stedsnr" v="18465" />
	</node>
	<node id="-196331" lat="68.4247694402" lon="15.1599277804">
		<tag k="name" v="Vikavatnet" />
		<tag k="natural" v="water" />
		<tag k="ssr:stedsnr" v="684760" />
	</node>
	<node id="-196985" lat="68.5285194415" lon="14.770327771">
		<tag k="fixme" v="multiple name tags, choose one and add the other to alt_name" />
		<tag k="loc_name" v="Ongstadstorvatnet" />
		<tag k="name" v="Storongstadvatnet;Storvatnet" />
		<tag k="natural" v="water" />
		<tag k="ssr:stedsnr" v="17960" />
	</node>
	<node id="-196970" lat="68.591250004" lon="14.8536916553">
		<tag k="name" v="Osen" />
		<tag k="natural" v="bay" />
		<tag k="ssr:stedsnr" v="17577" />
	</node>
	<node id="-196960" lat="68.3741611086" lon="14.9319333213">
		<tag k="loc_name" v="Jarsteinvatnet" />
		<tag k="name" v="Botnvatnet" />
		<tag k="natural" v="water" />
		<tag k="ssr:stedsnr" v="17500" />
		<tag k="water" v="lake" />
	</node>
	<node id="-196959" lat="68.6436333345" lon="15.1514722226">
		<tag k="name" v="Gluntvatnet" />
		<tag k="natural" v="water" />
		<tag k="ssr:stedsnr" v="17276" />
	</node>
	<node id="-196956" lat="68.3784000009" lon="14.7293833444">
		<tag k="name" v="Trollvatnet" />
		<tag k="natural" v="water" />
		<tag k="ssr:stedsnr" v="17464" />
	</node>
	<node id="-196941" lat="68.626963886" lon="15.1106805458">
		<tag k="name" v="Gryttingsvatnet" />
		<tag k="natural" v="water" />
		<tag k="ssr:stedsnr" v="17025" />
	</node>
	<node id="-196939" lat="68.6164944423" lon="15.0239666691">
		<tag k="name" v="Nils-Persavatnet" />
		<tag k="natural" v="water" />
		<tag k="ssr:stedsnr" v="17004" />
	</node>
	<node id="-196933" lat="68.5537694457" lon="15.3813888994">
		<tag k="name" v="Kjøbukta" />
		<tag k="natural" v="bay" />
		<tag k="ssr:stedsnr" v="969005" />
	</node>
	<node id="-196929" lat="68.4451083295" lon="15.0467555653">
		<tag k="name" v="Vardvasselva" />
		<tag k="ssr:stedsnr" v="965607" />
		<tag k="waterway" v="stream" />
	</node>
	<node id="-196917" lat="68.5649194404" lon="14.6701833437">
		<tag k="fixme" v="multiple name tags, choose one and add the other to alt_name" />
		<tag k="name" v="Bakre Teiganvatn;Jordvatnet" />
		<tag k="natural" v="water" />
		<tag k="ssr:stedsnr" v="928910" />
	</node>
	<node id="-196915" lat="68.5700861139" lon="14.7261499902">
		<tag k="name" v="Storelva" />
		<tag k="ssr:stedsnr" v="928908" />
		<tag k="waterway" v="stream" />
	</node>
	<node id="-196316" lat="68.3914499988" lon="14.8190500007">
		<tag k="name" v="Nordvatnet" />
		<tag k="natural" v="water" />
		<tag k="ssr:stedsnr" v="684452" />
	</node>
	<node id="-196894" lat="68.5314305543" lon="14.8442610988">
		<tag k="name" v="Anders skomakertjønna" />
		<tag k="natural" v="water" />
		<tag k="ssr:stedsnr" v="950323" />
	</node>
	<node id="-196883" lat="68.4347777744" lon="14.6301472318">
		<tag k="name" v="Mølleplass" />
		<tag k="natural" v="water" />
		<tag k="ssr:stedsnr" v="950147" />
		<tag k="water" v="lake" />
	</node>
	<node id="-196873" lat="68.5682111117" lon="14.7736249899">
		<tag k="name" v="Sevtjønna" />
		<tag k="natural" v="water" />
		<tag k="ssr:stedsnr" v="950031" />
	</node>
	<node id="-196993" lat="68.5134638848" lon="15.3569277812">
		<tag k="name" v="Åselva" />
		<tag k="ssr:stedsnr" v="18348" />
		<tag k="waterway" v="stream" />
	</node>
	<node id="-196857" lat="68.6196277754" lon="15.1576277825">
		<tag k="name" v="Skogelva" />
		<tag k="ssr:stedsnr" v="944772" />
		<tag k="waterway" v="stream" />
	</node>
	<node id="-196848" lat="68.5898249959" lon="14.9328194536">
		<tag k="name" v="Lilleelva" />
		<tag k="ssr:stedsnr" v="944122" />
		<tag k="waterway" v="stream" />
	</node>
	<node id="-196837" lat="68.5402416668" lon="15.2803777891">
		<tag k="name" v="Kvanntoelva" />
		<tag k="ssr:stedsnr" v="823806" />
		<tag k="waterway" v="stream" />
	</node>
	<node id="-196836" lat="68.5124888927" lon="14.8177166673">
		<tag k="name" v="Kvåldammen" />
		<tag k="ssr:stedsnr" v="823623" />
		<tag k="waterway" v="dam" />
	</node>
	<node id="-196833" lat="68.5670972218" lon="14.8876666785">
		<tag k="name" v="Tømmervikbekken" />
		<tag k="ssr:stedsnr" v="822114" />
		<tag k="waterway" v="stream" />
	</node>
	<node id="-196825" lat="68.5696277788" lon="14.7663277776">
		<tag k="alt_name" v="Lillefladsetvatnet" />
		<tag k="name" v="Litlflatsetvatnet" />
		<tag k="natural" v="water" />
		<tag k="ssr:stedsnr" v="928933" />
	</node>
	<node id="-196810" lat="68.508336111" lon="15.3332194552">
		<tag k="name" v="Rapelva" />
		<tag k="ssr:stedsnr" v="928380" />
		<tag k="waterway" v="stream" />
	</node>
	<node id="-196808" lat="68.5323694461" lon="15.3404055444">
		<tag k="name" v="Skjelelva" />
		<tag k="ssr:stedsnr" v="928354" />
		<tag k="waterway" v="stream" />
	</node>
	<node id="-196805" lat="68.3728500009" lon="14.6221611049">
		<tag k="name" v="Storvatnet" />
		<tag k="natural" v="water" />
		<tag k="ssr:stedsnr" v="928058" />
		<tag k="water" v="lake" />
	</node>
	<node id="-196801" lat="68.4527277777" lon="15.411788896">
		<tag k="name" v="Bjørndalsvatnan" />
		<tag k="natural" v="water" />
		<tag k="ssr:stedsnr" v="806816" />
	</node>
	<node id="-196798" lat="68.4618972232" lon="15.3086416707">
		<tag k="name" v="Fløvatnet" />
		<tag k="natural" v="water" />
		<tag k="ssr:stedsnr" v="806714" />
	</node>
	<node id="-196796" lat="68.5312000021" lon="15.322980567">
		<tag k="alt_name" v="Aspdalsneset" />
		<tag k="name" v="Aspedalsneset" />
		<tag k="natural" v="cape" />
		<tag k="ssr:stedsnr" v="806374" />
	</node>
	<node id="-196791" lat="68.4153305536" lon="15.2386361012">
		<tag k="alt_name" v="Femtvatnet" />
		<tag k="name" v="Femtevatnet" />
		<tag k="natural" v="water" />
		<tag k="ssr:stedsnr" v="927881" />
	</node>
	<node id="-196788" lat="68.3810555533" lon="15.1369777851">
		<tag k="name" v="Raftvatnet" />
		<tag k="natural" v="water" />
		<tag k="ssr:stedsnr" v="927831" />
	</node>
	<node id="-196786" lat="68.6256805523" lon="15.0563110991">
		<tag k="name" v="Rødsætervatnet" />
		<tag k="natural" v="water" />
		<tag k="ssr:stedsnr" v="806243" />
	</node>
	<node id="-195955" lat="68.4440694418" lon="14.934027789">
		<tag k="name" v="Rennarelvvatnet" />
		<tag k="natural" v="water" />
		<tag k="ssr:stedsnr" v="259327" />
	</node>
	<node id="-196776" lat="68.4875083318" lon="15.1851972172">
		<tag k="name" v="Nordvikvatnet" />
		<tag k="natural" v="water" />
		<tag k="ssr:stedsnr" v="927636" />
	</node>
	<node id="-196774" lat="68.5991777743" lon="14.899683339">
		<tag k="name" v="Kjøelva" />
		<tag k="ssr:stedsnr" v="927594" />
		<tag k="waterway" v="stream" />
	</node>
	<node id="-196773" lat="68.6057805538" lon="15.018766655">
		<tag k="name" v="Osvatnet" />
		<tag k="natural" v="water" />
		<tag k="ssr:stedsnr" v="927591" />
	</node>
	<node id="-196761" lat="68.4221722264" lon="14.6450194401">
		<tag k="alt_name" v="Kalsåa" />
		<tag k="name" v="Kalvsåa" />
		<tag k="ssr:stedsnr" v="927364" />
		<tag k="waterway" v="stream" />
	</node>
	<node id="-196754" lat="68.4155750033" lon="14.6055499938">
		<tag k="name" v="Livatnet" />
		<tag k="natural" v="water" />
		<tag k="ssr:stedsnr" v="927288" />
	</node>
	<node id="-196753" lat="68.4119166667" lon="14.616550001">
		<tag k="name" v="Sandsvatnet" />
		<tag k="natural" v="water" />
		<tag k="ssr:stedsnr" v="927287" />
	</node>
	<node id="-196738" lat="68.6242805576" lon="15.0798777862">
		<tag k="alt_name" v="Deskvatnet" />
		<tag k="name" v="Diskvatnet" />
		<tag k="natural" v="water" />
		<tag k="ssr:stedsnr" v="927025" />
	</node>
	<node id="-196734" lat="68.4361694486" lon="15.1841194336">
		<tag k="name" v="Kongselva - Gongajohka" />
		<tag k="name:no" v="Kongselva" />
		<tag k="name:se" v="Gongajohka" />
		<tag k="ssr:stedsnr" v="787014" />
		<tag k="waterway" v="stream" />
	</node>
	<node id="-196729" lat="68.5742583336" lon="14.7107916585">
		<tag k="alt_name" v="Lilleelva" />
		<tag k="name" v="Litlelva" />
		<tag k="ssr:stedsnr" v="928538" />
		<tag k="waterway" v="stream" />
	</node>
	<node id="-196720" lat="68.5669472243" lon="14.8359249892">
		<tag k="name" v="Gårdselva" />
		<tag k="ssr:stedsnr" v="768284" />
		<tag k="waterway" v="stream" />
	</node>
	<node id="-196667" lat="68.6559277737" lon="15.0454222282">
		<tag k="name" v="Langvatnet" />
		<tag k="natural" v="water" />
		<tag k="ssr:stedsnr" v="745256" />
		<tag k="water" v="lake" />
	</node>
	<node id="-196655" lat="68.4616888871" lon="15.0793500099">
		<tag k="name" v="Nordste Litldalelva" />
		<tag k="ssr:stedsnr" v="905647" />
		<tag k="waterway" v="stream" />
	</node>
	<node id="-196630" lat="68.548908332" lon="14.8156694484">
		<tag k="name" v="Urvatnet" />
		<tag k="natural" v="water" />
		<tag k="ssr:stedsnr" v="709311" />
	</node>
	<node id="-196628" lat="68.6605500023" lon="14.9381444371">
		<tag k="name" v="Dalelva" />
		<tag k="ssr:stedsnr" v="892708" />
>>>>>>> e1d4bc35ff8a6074a6f2e91616a996b547c36f15
		<tag k="waterway" v="stream" />
	</node>
</osm>
