<?xml version="1.0" encoding="UTF-8"?>
<<<<<<< HEAD
<osm version="0.6" generator="osmapis">
	<node lat="68.41459371704401" lon="14.875911238991137" id="-10115">
		<tag k="fixme" v="consider place=hamlet" />
		<tag k="name" v="Sløvra" />
		<tag k="place" v="farm" />
		<tag k="ssr:stedsnr" v="17319" />
	</node>
	<node lat="68.49414444262099" lon="15.358811116815144" id="-10123">
		<tag k="name" v="Sørbotnen" />
		<tag k="place" v="isolated_dwelling" />
		<tag k="ssr:stedsnr" v="17653" />
	</node>
	<node lat="68.42295555776211" lon="15.12996944907786" id="-10128">
		<tag k="name" v="Olsanes" />
		<tag k="place" v="isolated_dwelling" />
		<tag k="ssr:stedsnr" v="17805" />
	</node>
	<node lat="68.53017222313754" lon="14.68976109912179" id="-10135">
		<tag k="alt_name" v="Ånnstad, yt;Ytre Ånstad" />
		<tag k="fixme" v="consider place=hamlet" />
		<tag k="name" v="Ytre Ånnstad" />
		<tag k="place" v="farm" />
		<tag k="ssr:stedsnr" v="18000" />
	</node>
	<node lat="68.66607499719791" lon="14.975122227237817" id="-10142">
		<tag k="fixme" v="consider place=hamlet" />
		<tag k="name" v="Slåttnes" />
		<tag k="place" v="farm" />
		<tag k="ssr:stedsnr" v="18658" />
	</node>
	<node lat="68.61338889233345" lon="15.130836117615244" id="-10147">
		<tag k="name" v="Nergården" />
		<tag k="place" v="farm" />
		<tag k="ssr:stedsnr" v="33811" />
	</node>
	<node lat="68.54808055250786" lon="14.95723611020421" id="-10150">
		<tag k="name" v="Speiderhytta" />
		<tag k="place" v="isolated_dwelling" />
		<tag k="ssr:stedsnr" v="34380" />
	</node>
	<node lat="68.61789999632343" lon="14.838550005534499" id="-10176">
		<tag k="name" v="Kjerkgården" />
		<tag k="place" v="isolated_dwelling" />
		<tag k="ssr:stedsnr" v="42277" />
	</node>
	<node lat="68.64091944376038" lon="14.941125001381975" id="-10195">
		<tag k="name" v="Setre" />
		<tag k="place" v="locality" />
		<tag k="ssr:stedsnr" v="55532" />
	</node>
	<node lat="68.45565833300432" lon="14.899388877749447" id="-10218">
		<tag k="name" v="Vassbakken" />
		<tag k="place" v="farm" />
		<tag k="ssr:stedsnr" v="77360" />
	</node>
	<node lat="68.4390755044621" lon="15.005200440171993" id="-10219">
		<tag k="fixme" v="consider place=hamlet" />
		<tag k="name" v="Falkfjorden" />
		<tag k="place" v="farm" />
		<tag k="ssr:stedsnr" v="77362" />
	</node>
	<node lat="68.61583610770637" lon="15.128863895151405" id="-10223">
		<tag k="name" v="Myra" />
		<tag k="place" v="farm" />
		<tag k="ssr:stedsnr" v="78004" />
	</node>
	<node lat="68.61768055784013" lon="15.125644456666034" id="-10224">
		<tag k="name" v="Lundan" />
		<tag k="place" v="farm" />
		<tag k="ssr:stedsnr" v="78005" />
	</node>
	<node lat="68.55859794731406" lon="15.216362652216418" id="-10227">
		<tag k="alt_name" v="Setervik" />
		<tag k="loc_name" v="Setervika" />
		<tag k="name" v="Sætervika" />
		<tag k="place" v="farm" />
		<tag k="ssr:stedsnr" v="78112" />
	</node>
	<node lat="68.4315555535418" lon="14.645352785702254" id="-10228">
		<tag k="name" v="Nyheim" />
		<tag k="place" v="farm" />
		<tag k="ssr:stedsnr" v="78320" />
	</node>
	<node lat="68.50959166835467" lon="15.240119437258468" id="-10230">
		<tag k="name" v="Bogen" />
		<tag k="place" v="farm" />
		<tag k="ssr:stedsnr" v="78420" />
	</node>
	<node lat="68.52728668851425" lon="14.956796694930283" id="-10246">
		<tag k="name" v="Lekang" />
		<tag k="place" v="hamlet" />
		<tag k="ssr:stedsnr" v="78953" />
	</node>
	<node lat="68.52234166818197" lon="14.943097224217512" id="-10247">
		<tag k="fixme" v="consider place=hamlet" />
		<tag k="name" v="Steilo" />
		<tag k="place" v="farm" />
		<tag k="ssr:stedsnr" v="78955" />
	</node>
	<node lat="68.49888868494338" lon="14.794898100350412" id="-10297">
		<tag k="name" v="Melbu" />
		<tag k="place" v="village" />
		<tag k="ssr:stedsnr" v="137129" />
	</node>
	<node lat="68.56119721995653" lon="15.22054445174093" id="-10304">
		<tag k="name" v="Moa" />
		<tag k="place" v="farm" />
		<tag k="ssr:stedsnr" v="138119" />
	</node>
	<node lat="68.57442222635572" lon="14.821738900205371" id="-10322">
		<tag k="alt_name" v="Laupstrandneset" />
		<tag k="name" v="Laupstrandodden" />
		<tag k="place" v="farm" />
		<tag k="ssr:stedsnr" v="138916" />
	</node>
	<node lat="68.50570833098234" lon="14.79491109935168" id="-10334">
		<tag k="leisure" v="pitch" />
		<tag k="name" v="Rundingen" />
		<tag k="ssr:stedsnr" v="155619" />
	</node>
	<node lat="68.45171666799907" lon="15.173605550689377" id="-10393">
		<tag k="name" v="Skardet" />
		<tag k="place" v="isolated_dwelling" />
		<tag k="ssr:stedsnr" v="260755" />
	</node>
	<node lat="68.65157222232499" lon="14.899308324111416" id="-10395">
		<tag k="name" v="Mosanden" />
		<tag k="place" v="farm" />
		<tag k="ssr:stedsnr" v="260727" />
	</node>
	<node lat="68.53233332932001" lon="14.967094438633433" id="-10406">
		<tag k="name" v="Klakk" />
		<tag k="place" v="hamlet" />
		<tag k="ssr:stedsnr" v="260994" />
	</node>
	<node lat="68.33756756176187" lon="14.948907316111557" id="-10431">
		<tag k="fixme" v="consider place=hamlet" />
		<tag k="name" v="Brakset" />
		<tag k="place" v="farm" />
		<tag k="ssr:stedsnr" v="199424" />
	</node>
	<node lat="68.46056944747751" lon="15.0505916603487" id="-10434">
		<tag k="name" v="Hestleira" />
		<tag k="place" v="farm" />
		<tag k="ssr:stedsnr" v="199711" />
	</node>
	<node lat="68.47273056004558" lon="15.304294439912875" id="-10435">
=======
<osm generator="osmapis" version="0.6">
	<node id="-198656" lat="68.4328040422" lon="14.7277308129">
>>>>>>> e1d4bc35ff8a6074a6f2e91616a996b547c36f15
		<tag k="fixme" v="consider place=hamlet" />
		<tag k="name" v="Ingelsfjord" />
		<tag k="place" v="farm" />
<<<<<<< HEAD
		<tag k="ssr:stedsnr" v="199766" />
	</node>
	<node lat="68.36475555314784" lon="14.761700004428771" id="-10436">
		<tag k="fixme" v="consider place=hamlet" />
		<tag k="name" v="Higrav" />
		<tag k="place" v="farm" />
		<tag k="ssr:stedsnr" v="199459" />
	</node>
	<node lat="68.50339999670615" lon="15.234991664607628" id="-10452">
		<tag k="name" v="Kleiva" />
		<tag k="place" v="farm" />
		<tag k="ssr:stedsnr" v="200410" />
	</node>
	<node lat="68.36162222031521" lon="14.880374992039231" id="-10456">
		<tag k="fixme" v="consider tourism=alpine_hut or tourism=chalet" />
		<tag k="name" v="Trollfjordhytta" />
		<tag k="ssr:stedsnr" v="213305" />
		<tag k="tourism" v="wilderness_hut" />
	</node>
	<node lat="68.57577811673679" lon="14.730305683293995" id="-10467">
		<tag k="alt_name" v="Breivik indre" />
		<tag k="fixme" v="consider place=hamlet" />
		<tag k="name" v="Inner-Breivika" />
		<tag k="place" v="farm" />
		<tag k="ssr:stedsnr" v="221012" />
	</node>
	<node lat="68.43292499847975" lon="14.787141664256792" id="-10493">
=======
		<tag k="ssr:stedsnr" v="1076199" />
	</node>
	<node id="-198655" lat="68.4294697782" lon="14.8598121916">
		<tag k="name" v="Årnøya" />
		<tag k="place" v="locality" />
		<tag k="ssr:stedsnr" v="1076198" />
	</node>
	<node id="-198654" lat="68.3968646161" lon="14.8265471088">
		<tag k="name" v="Brettvika" />
		<tag k="place" v="locality" />
		<tag k="ssr:stedsnr" v="1076196" />
	</node>
	<node id="-198653" lat="68.4541761266" lon="14.8959506238">
		<tag k="alt_name" v="Holdøy" />
		<tag k="fixme" v="consider place=hamlet" />
		<tag k="name" v="Holdøya" />
		<tag k="place" v="farm" />
		<tag k="ssr:stedsnr" v="1076195" />
	</node>
	<node id="-198652" lat="68.5380114162" lon="15.2037439493">
		<tag k="name" v="Hennes" />
		<tag k="place" v="hamlet" />
		<tag k="ssr:stedsnr" v="1076193" />
	</node>
	<node id="-196603" lat="68.4169888921" lon="14.548074998">
		<tag k="name" v="Laugbakken" />
		<tag k="place" v="farm" />
		<tag k="ssr:stedsnr" v="890200" />
	</node>
	<node id="-195575" lat="68.4329249985" lon="14.7871416643">
>>>>>>> e1d4bc35ff8a6074a6f2e91616a996b547c36f15
		<tag k="name" v="Vollan" />
		<tag k="place" v="farm" />
		<tag k="ssr:stedsnr" v="238421" />
	</node>
<<<<<<< HEAD
	<node lat="68.5992555596436" lon="15.04697777465949" id="-10511">
		<tag k="name" v="Setra" />
		<tag k="place" v="isolated_dwelling" />
		<tag k="ssr:stedsnr" v="259570" />
	</node>
	<node lat="68.36879405742108" lon="15.031099744853476" id="-10513">
		<tag k="fixme" v="consider place=hamlet" />
		<tag k="name" v="Svartsundet" />
=======
	<node id="-198644" lat="68.5310694478" lon="14.9640833398">
		<tag k="name" v="Klakk" />
>>>>>>> e1d4bc35ff8a6074a6f2e91616a996b547c36f15
		<tag k="place" v="farm" />
		<tag k="ssr:stedsnr" v="259925" />
	</node>
<<<<<<< HEAD
	<node lat="68.60008333248639" lon="15.082441657125212" id="-10517">
		<tag k="name" v="Gammelgården" />
=======
	<node id="-197118" lat="68.6176805578" lon="15.1256444567">
		<tag k="name" v="Lundan" />
		<tag k="place" v="farm" />
		<tag k="ssr:stedsnr" v="78005" />
	</node>
	<node id="-198130" lat="68.5883787014" lon="14.9352681125">
		<tag k="fixme" v="consider place=hamlet" />
		<tag k="name" v="Hov" />
>>>>>>> e1d4bc35ff8a6074a6f2e91616a996b547c36f15
		<tag k="place" v="farm" />
		<tag k="ssr:stedsnr" v="260056" />
	</node>
<<<<<<< HEAD
	<node lat="68.5771416624373" lon="14.771399995341541" id="-10528">
		<tag k="alt_name" v="Flatset ytre" />
		<tag k="name" v="Flatset" />
=======
	<node id="-197971" lat="68.5127888854" lon="15.2436805519">
		<tag k="name" v="Ramnklubbvika" />
		<tag k="place" v="isolated_dwelling" />
		<tag k="ssr:stedsnr" v="563380" />
	</node>
	<node id="-198127" lat="68.5024722184" lon="15.2448861002">
		<tag k="alt_name" v="Dalmo" />
		<tag k="name" v="Dalmoa" />
>>>>>>> e1d4bc35ff8a6074a6f2e91616a996b547c36f15
		<tag k="place" v="farm" />
		<tag k="ssr:stedsnr" v="260952" />
	</node>
<<<<<<< HEAD
	<node lat="68.56552456877102" lon="14.904547908689308" id="-10530">
		<tag k="loc_name:se" v="Njárga" />
		<tag k="name" v="Stokmarknes" />
		<tag k="name:no" v="Stokmarknes" />
		<tag k="place" v="town" />
		<tag k="ssr:stedsnr" v="260956" />
	</node>
	<node lat="68.56953888649595" lon="14.878038881035023" id="-10537">
		<tag k="name" v="Tømmervika" />
		<tag k="place" v="quarter" />
		<tag k="ssr:stedsnr" v="458095" />
	</node>
	<node lat="68.5069111116944" lon="14.805216657043522" id="-10541">
		<tag k="name" v="Oksgjerdet" />
		<tag k="place" v="quarter" />
		<tag k="ssr:stedsnr" v="458693" />
	</node>
	<node lat="68.61365277977606" lon="15.157375005671938" id="-10542">
		<tag k="name" v="Nausthaugen" />
=======
	<node id="-198125" lat="68.5272500014" lon="15.2681305621">
		<tag k="name" v="Elverhøy" />
		<tag k="place" v="isolated_dwelling" />
		<tag k="ssr:stedsnr" v="624391" />
	</node>
	<node id="-196076" lat="68.5228472188" lon="14.9451055486">
		<tag k="name" v="Steilo" />
		<tag k="place" v="farm" />
		<tag k="ssr:stedsnr" v="484946" />
	</node>
	<node id="-198123" lat="68.5557277801" lon="15.2126944356">
		<tag k="alt_name" v="Lilleseter" />
		<tag k="name" v="Litlesæter" />
		<tag k="place" v="farm" />
		<tag k="ssr:stedsnr" v="624142" />
	</node>
	<node id="-196586" lat="68.4331305548" lon="14.6237861015">
		<tag k="name" v="Gammelgård" />
>>>>>>> e1d4bc35ff8a6074a6f2e91616a996b547c36f15
		<tag k="place" v="farm" />
		<tag k="ssr:stedsnr" v="458797" />
	</node>
<<<<<<< HEAD
	<node lat="68.59911666247555" lon="15.045955551864223" id="-10543">
		<tag k="name" v="Maritbakken" />
		<tag k="place" v="isolated_dwelling" />
		<tag k="ssr:stedsnr" v="458826" />
	</node>
	<node lat="68.57639444727613" lon="14.756297221018162" id="-10569">
		<tag k="name" v="Trolldalen" />
=======
	<node id="-198631" lat="68.3679500006" lon="14.7646805648">
		<tag k="name" v="Vestgården" />
>>>>>>> e1d4bc35ff8a6074a6f2e91616a996b547c36f15
		<tag k="place" v="farm" />
		<tag k="ssr:stedsnr" v="282020" />
	</node>
<<<<<<< HEAD
	<node lat="68.43090832939997" lon="15.204941670380087" id="-10581">
		<tag k="loc_name:se" v="Gonga" />
		<tag k="name" v="Kongsmark" />
		<tag k="name:no" v="Kongsmark" />
		<tag k="place" v="hamlet" />
		<tag k="ssr:stedsnr" v="283924" />
	</node>
	<node lat="68.4721577965087" lon="15.18778758763582" id="-10613">
		<tag k="fixme" v="consider place=hamlet" />
		<tag k="name" v="Hanøy" />
		<tag k="place" v="farm" />
		<tag k="ssr:stedsnr" v="465843" />
	</node>
	<node lat="68.4018333335581" lon="14.706488878417384" id="-10626">
		<tag k="name" v="Morfjordneset" />
=======
	<node id="-198630" lat="68.6577166704" lon="14.9192666686">
		<tag k="name" v="Leite" />
		<tag k="place" v="farm" />
		<tag k="ssr:stedsnr" v="952736" />
	</node>
	<node id="-196580" lat="68.4242027748" lon="14.6730111019">
		<tag k="name" v="Høgda" />
>>>>>>> e1d4bc35ff8a6074a6f2e91616a996b547c36f15
		<tag k="place" v="farm" />
		<tag k="ssr:stedsnr" v="320311" />
	</node>
<<<<<<< HEAD
	<node lat="68.56444717673291" lon="14.623239376415093" id="-10653">
		<tag k="alt_name" v="Finnsæter" />
		<tag k="fixme" v="consider place=hamlet" />
		<tag k="name" v="Finnseter" />
		<tag k="place" v="farm" />
		<tag k="ssr:stedsnr" v="321893" />
	</node>
	<node lat="68.56652221998294" lon="15.281686119731393" id="-10661">
=======
	<node id="-196067" lat="68.530972224" lon="15.2703916706">
		<tag k="name" v="Elvebakken" />
		<tag k="place" v="farm" />
		<tag k="ssr:stedsnr" v="338836" />
	</node>
	<node id="-197602" lat="68.4981277758" lon="15.2917777777">
		<tag k="name" v="Sætra" />
		<tag k="place" v="isolated_dwelling" />
		<tag k="ssr:stedsnr" v="339384" />
	</node>
	<node id="-198139" lat="68.5545888925" lon="14.970680549">
		<tag k="name" v="Kråa" />
		<tag k="place" v="farm" />
		<tag k="ssr:stedsnr" v="624897" />
	</node>
	<node id="-196944" lat="68.571805553" lon="15.2256277756">
		<tag k="name" v="Kvitnes" />
		<tag k="place" v="village" />
		<tag k="ssr:stedsnr" v="17094" />
	</node>
	<node id="-195549" lat="68.5670000021" lon="15.3393611209">
		<tag k="fixme" v="consider place=hamlet" />
		<tag k="name" v="Fiskefjord" />
		<tag k="place" v="village" />
		<tag k="ssr:stedsnr" v="41713" />
	</node>
	<node id="-197595" lat="68.56652222" lon="15.2816861197">
>>>>>>> e1d4bc35ff8a6074a6f2e91616a996b547c36f15
		<tag k="barrier" v="fence" />
		<tag k="name" v="Reingjerdet" />
		<tag k="ssr:stedsnr" v="337916" />
	</node>
<<<<<<< HEAD
	<node lat="68.51477499581537" lon="15.263074992592566" id="-10728">
		<tag k="name" v="Hamneset" />
		<tag k="place" v="farm" />
		<tag k="ssr:stedsnr" v="381403" />
	</node>
	<node lat="68.601575003874" lon="15.07638054635247" id="-10743">
		<tag k="name" v="Plassen" />
=======
	<node id="-198104" lat="68.4482499964" lon="15.168711118">
		<tag k="name" v="Nordnes" />
>>>>>>> e1d4bc35ff8a6074a6f2e91616a996b547c36f15
		<tag k="place" v="isolated_dwelling" />
		<tag k="ssr:stedsnr" v="397784" />
	</node>
<<<<<<< HEAD
	<node lat="68.61100000393597" lon="15.116991660624953" id="-10746">
		<tag k="name" v="Marithaugen" />
		<tag k="place" v="farm" />
		<tag k="ssr:stedsnr" v="397807" />
	</node>
	<node lat="68.52284721880723" lon="14.945105548631403" id="-10754">
		<tag k="name" v="Steilo" />
		<tag k="place" v="farm" />
		<tag k="ssr:stedsnr" v="484946" />
	</node>
	<node lat="68.5684722248119" lon="15.228519449437554" id="-10799">
		<tag k="name" v="Lauvmyra" />
=======
	<node id="-197283" lat="68.4349166691" lon="14.7417027802">
		<tag k="fixme" v="consider place=hamlet" />
		<tag k="name" v="Strønstad" />
		<tag k="place" v="village" />
		<tag k="ssr:stedsnr" v="138352" />
	</node>
	<node id="-197071" lat="68.6178999963" lon="14.8385500055">
		<tag k="name" v="Kjerkgården" />
		<tag k="place" v="isolated_dwelling" />
		<tag k="ssr:stedsnr" v="42277" />
	</node>
	<node id="-198221" lat="68.5532277807" lon="15.2103194337">
		<tag k="alt_name" v="Lappkjerra" />
		<tag k="name" v="Lappkjerran" />
		<tag k="place" v="farm" />
		<tag k="ssr:stedsnr" v="745150" />
	</node>
	<node id="-196556" lat="68.3303750023" lon="14.9339416747">
		<tag k="name" v="Korsneset" />
>>>>>>> e1d4bc35ff8a6074a6f2e91616a996b547c36f15
		<tag k="place" v="farm" />
		<tag k="ssr:stedsnr" v="442093" />
	</node>
<<<<<<< HEAD
	<node lat="68.45347638857632" lon="15.050384312507347" id="-10810">
		<tag k="fixme" v="consider place=hamlet" />
		<tag k="name" v="Myrland" />
=======
	<node id="-195531" lat="68.5813944476" lon="14.6982361198">
		<tag k="name" v="Karihola" />
>>>>>>> e1d4bc35ff8a6074a6f2e91616a996b547c36f15
		<tag k="place" v="farm" />
		<tag k="ssr:stedsnr" v="442708" />
	</node>
<<<<<<< HEAD
	<node lat="68.42169702806083" lon="15.159558359276103" id="-10811">
		<tag k="alt_name" v="Tengelfjord" />
		<tag k="fixme" v="consider place=hamlet" />
		<tag k="name" v="Tengelfjorden" />
		<tag k="place" v="farm" />
		<tag k="ssr:stedsnr" v="442893" />
	</node>
	<node lat="68.5728833299227" lon="14.874266675683769" id="-10814">
		<tag k="name" v="Lappvika" />
=======
	<node id="-197169" lat="68.5223416682" lon="14.9430972242">
		<tag k="fixme" v="consider place=hamlet" />
		<tag k="name" v="Steilo" />
		<tag k="place" v="farm" />
		<tag k="ssr:stedsnr" v="78955" />
	</node>
	<node id="-198647" lat="68.5407585163" lon="14.9842087807">
		<tag k="name" v="Rønningen" />
		<tag k="place" v="farm" />
		<tag k="ssr:stedsnr" v="983687" />
	</node>
	<node id="-196940" lat="68.551219444" lon="15.3862472266">
		<tag k="alt_name" v="Slåttene" />
		<tag k="name" v="Slåttan" />
		<tag k="place" v="locality" />
		<tag k="ssr:stedsnr" v="17109" />
	</node>
	<node id="-197574" lat="68.5327249977" lon="14.9530694322">
		<tag k="name" v="Solheim" />
>>>>>>> e1d4bc35ff8a6074a6f2e91616a996b547c36f15
		<tag k="place" v="farm" />
		<tag k="ssr:stedsnr" v="442936" />
	</node>
<<<<<<< HEAD
	<node lat="68.59095833602123" lon="14.984847222305138" id="-10820">
		<tag k="name" v="Teigan" />
=======
	<node id="-196035" lat="68.4721577965" lon="15.1877875876">
		<tag k="fixme" v="consider place=hamlet" />
		<tag k="name" v="Hanøy" />
>>>>>>> e1d4bc35ff8a6074a6f2e91616a996b547c36f15
		<tag k="place" v="farm" />
		<tag k="ssr:stedsnr" v="458260" />
	</node>
<<<<<<< HEAD
	<node lat="68.59914999817651" lon="15.012600000556981" id="-10821">
		<tag k="name" v="Setervollen" />
		<tag k="place" v="isolated_dwelling" />
		<tag k="ssr:stedsnr" v="458261" />
	</node>
	<node lat="68.61116666535821" lon="15.127788895981949" id="-10823">
		<tag k="name" v="Osbakkan" />
=======
	<node id="-198594" lat="68.3440467841" lon="15.0532560593">
		<tag k="fixme" v="consider place=hamlet" />
		<tag k="name" v="Finnkjerka" />
>>>>>>> e1d4bc35ff8a6074a6f2e91616a996b547c36f15
		<tag k="place" v="farm" />
		<tag k="ssr:stedsnr" v="458813" />
	</node>
<<<<<<< HEAD
	<node lat="68.61378610771905" lon="15.151983320560037" id="-10824">
		<tag k="name" v="Nausthaugen" />
=======
	<node id="-198593" lat="68.5323888914" lon="14.9884055566">
		<tag k="name" v="Vangen" />
>>>>>>> e1d4bc35ff8a6074a6f2e91616a996b547c36f15
		<tag k="place" v="farm" />
		<tag k="ssr:stedsnr" v="458815" />
	</node>
<<<<<<< HEAD
	<node lat="68.61649444060157" lon="15.141427771323032" id="-10825">
		<tag k="name" v="Teigen" />
=======
	<node id="-197568" lat="68.5644471767" lon="14.6232393764">
		<tag k="alt_name" v="Finnseter" />
		<tag k="fixme" v="consider place=hamlet" />
		<tag k="name" v="Finnsæter" />
>>>>>>> e1d4bc35ff8a6074a6f2e91616a996b547c36f15
		<tag k="place" v="farm" />
		<tag k="ssr:stedsnr" v="458817" />
	</node>
<<<<<<< HEAD
	<node lat="68.5705249982703" lon="15.32080000951716" id="-10872">
		<tag k="name" v="Finnjorda" />
		<tag k="place" v="farm" />
		<tag k="ssr:stedsnr" v="502073" />
	</node>
	<node lat="68.60843333430908" lon="15.127183333144547" id="-10901">
		<tag k="name" v="Gryttingsnes" />
=======
	<node id="-198590" lat="68.5044101127" lon="14.8420576718">
		<tag k="fixme" v="consider place=hamlet" />
		<tag k="name" v="Gullstad" />
>>>>>>> e1d4bc35ff8a6074a6f2e91616a996b547c36f15
		<tag k="place" v="farm" />
		<tag k="ssr:stedsnr" v="684039" />
	</node>
<<<<<<< HEAD
	<node lat="68.60269166682446" lon="15.084908324134993" id="-10902">
		<tag k="alt_name" v="Raen" />
		<tag k="name" v="Raene" />
		<tag k="place" v="farm" />
		<tag k="ssr:stedsnr" v="684042" />
	</node>
	<node lat="68.6043527797675" lon="15.097391662970908" id="-10903">
		<tag k="alt_name" v="Tjørnboghøgda" />
		<tag k="name" v="Tjønnboghøgda" />
		<tag k="place" v="farm" />
		<tag k="ssr:stedsnr" v="684044" />
	</node>
	<node lat="68.43255658423726" lon="14.62142251138654" id="-10910">
=======
	<node id="-198589" lat="68.5173527801" lon="14.7106361153">
		<tag k="name" v="Stranda" />
		<tag k="place" v="farm" />
		<tag k="ssr:stedsnr" v="867945" />
	</node>
	<node id="-198586" lat="68.5708753954" lon="14.6360994371">
>>>>>>> e1d4bc35ff8a6074a6f2e91616a996b547c36f15
		<tag k="fixme" v="consider place=hamlet" />
		<tag k="name" v="Sanden" />
		<tag k="old_name" v="Hadselsand" />
		<tag k="place" v="farm" />
		<tag k="ssr:stedsnr" v="684326" />
	</node>
<<<<<<< HEAD
	<node lat="68.38875172820123" lon="14.721606413073571" id="-10916">
		<tag k="fixme" v="consider place=hamlet" />
		<tag k="name" v="Morfjorden" />
		<tag k="place" v="farm" />
		<tag k="ssr:stedsnr" v="684453" />
	</node>
	<node lat="68.33037500226474" lon="14.93394167466932" id="-10920">
		<tag k="name" v="Korsneset" />
		<tag k="place" v="farm" />
		<tag k="ssr:stedsnr" v="684532" />
	</node>
	<node lat="68.36968888739192" lon="14.775177773431267" id="-10923">
		<tag k="name" v="Leirvikhaugen" />
=======
	<node id="-197015" lat="68.5050678032" lon="14.7462744859">
		<tag k="fixme" v="consider place=hamlet" />
		<tag k="name" v="Haug" />
		<tag k="place" v="farm" />
		<tag k="ssr:stedsnr" v="18957" />
	</node>
	<node id="-197559" lat="68.6514684934" lon="14.9174699594">
		<tag k="fixme" v="consider place=hamlet" />
		<tag k="name" v="Moen" />
		<tag k="place" v="farm" />
		<tag k="ssr:stedsnr" v="321665" />
	</node>
	<node id="-198581" lat="68.4066749967" lon="15.1207694555">
		<tag k="alt_name" v="Raftstranda, s;Søre Raftstrand" />
		<tag k="name" v="Søre Raftstranda" />
>>>>>>> e1d4bc35ff8a6074a6f2e91616a996b547c36f15
		<tag k="place" v="farm" />
		<tag k="ssr:stedsnr" v="684480" />
	</node>
<<<<<<< HEAD
	<node lat="68.55469166825402" lon="14.98793887921243" id="-10937">
		<tag k="name" v="Hadselhamn" />
		<tag k="place" v="farm" />
		<tag k="ssr:stedsnr" v="519472" />
	</node>
	<node lat="68.54690833437253" lon="14.992083337004724" id="-10938">
		<tag k="name" v="Skogly" />
		<tag k="place" v="farm" />
		<tag k="ssr:stedsnr" v="519474" />
	</node>
	<node lat="68.56467777755996" lon="15.212813883898265" id="-10950">
		<tag k="name" v="Steinsvik" />
		<tag k="place" v="farm" />
		<tag k="ssr:stedsnr" v="685072" />
	</node>
	<node lat="68.57001666833388" lon="15.230930560695462" id="-10951">
		<tag k="name" v="Lauvbakken" />
		<tag k="place" v="farm" />
		<tag k="ssr:stedsnr" v="685073" />
	</node>
	<node lat="68.50708055399532" lon="15.274186109697103" id="-10952">
		<tag k="name" v="Finndalen" />
		<tag k="place" v="farm" />
		<tag k="ssr:stedsnr" v="521307" />
	</node>
	<node lat="68.62742057256656" lon="14.82092069653243" id="-10959">
		<tag k="name" v="Varvika" />
		<tag k="place" v="hamlet" />
		<tag k="ssr:stedsnr" v="685490" />
	</node>
	<node lat="68.58609358201493" lon="14.982839473960503" id="-10961">
		<tag k="fixme" v="consider place=hamlet" />
		<tag k="name" v="Bitterstad" />
=======
	<node id="-195505" lat="68.4229555578" lon="15.1299694491">
		<tag k="name" v="Olsanes" />
		<tag k="place" v="isolated_dwelling" />
		<tag k="ssr:stedsnr" v="17805" />
	</node>
	<node id="-198064" lat="68.6405805591" lon="14.8186305575">
		<tag k="name" v="Skallan" />
		<tag k="place" v="isolated_dwelling" />
		<tag k="ssr:stedsnr" v="600632" />
	</node>
	<node id="-198575" lat="68.6502055573" lon="14.8861500006">
		<tag k="name" v="Bugen" />
		<tag k="place" v="farm" />
		<tag k="ssr:stedsnr" v="867716" />
	</node>
	<node id="-197549" lat="68.6177573169" lon="14.8664103274">
		<tag k="fixme" v="consider place=hamlet" />
		<tag k="name" v="Vik" />
		<tag k="place" v="farm" />
		<tag k="ssr:stedsnr" v="321469" />
	</node>
	<node id="-197548" lat="68.5044944415" lon="15.2469138782">
		<tag k="alt_name" v="Bogstrand" />
		<tag k="name" v="Bogstranda" />
>>>>>>> e1d4bc35ff8a6074a6f2e91616a996b547c36f15
		<tag k="place" v="farm" />
		<tag k="ssr:stedsnr" v="685569" />
	</node>
<<<<<<< HEAD
	<node lat="68.57776944520309" lon="14.717911104419459" id="-10963">
		<tag k="name" v="Mølnvollen" />
=======
	<node id="-196011" lat="68.5763944473" lon="14.756297221">
		<tag k="name" v="Trolldalen" />
>>>>>>> e1d4bc35ff8a6074a6f2e91616a996b547c36f15
		<tag k="place" v="farm" />
		<tag k="ssr:stedsnr" v="525004" />
	</node>
<<<<<<< HEAD
	<node lat="68.65229721840242" lon="14.849772220285322" id="-10977">
		<tag k="name" v="Vottesnes" />
=======
	<node id="-195498" lat="68.5324694473" lon="15.2398083345">
		<tag k="alt_name" v="Breidstranda" />
		<tag k="name" v="Breistranda" />
>>>>>>> e1d4bc35ff8a6074a6f2e91616a996b547c36f15
		<tag k="place" v="farm" />
		<tag k="ssr:stedsnr" v="685678" />
	</node>
<<<<<<< HEAD
	<node lat="68.54663610890151" lon="14.996902776501493" id="-10986">
		<tag k="name" v="Nygård" />
=======
	<node id="-197032" lat="68.5320361158" lon="15.2213249943">
		<tag k="name" v="Olagarden" />
>>>>>>> e1d4bc35ff8a6074a6f2e91616a996b547c36f15
		<tag k="place" v="farm" />
		<tag k="ssr:stedsnr" v="685888" />
	</node>
	<node lat="68.39134166514808" lon="15.103799992390337" id="-10991">
		<tag k="name" v="Langnesvik" />
		<tag k="place" v="farm" />
		<tag k="ssr:stedsnr" v="685827" />
	</node>
<<<<<<< HEAD
	<node lat="68.57035277993" lon="15.32592222732545" id="-11009">
		<tag k="name" v="Paradiset" />
		<tag k="place" v="farm" />
		<tag k="ssr:stedsnr" v="544011" />
	</node>
	<node lat="68.6402166673095" lon="14.813958344563371" id="-11014">
		<tag k="name" v="Ytre Fleinnes" />
		<tag k="place" v="farm" />
		<tag k="ssr:stedsnr" v="545209" />
	</node>
	<node lat="68.59542500028678" lon="14.847819436279272" id="-11050">
		<tag k="name" v="Raen" />
		<tag k="place" v="isolated_dwelling" />
		<tag k="ssr:stedsnr" v="588718" />
	</node>
	<node lat="68.58833055926897" lon="14.895130557186526" id="-11067">
		<tag k="name" v="Skogan" />
=======
	<node id="-198565" lat="68.5756632854" lon="14.6572296826">
		<tag k="fixme" v="consider place=hamlet" />
		<tag k="name" v="Teigan" />
>>>>>>> e1d4bc35ff8a6074a6f2e91616a996b547c36f15
		<tag k="place" v="farm" />
		<tag k="ssr:stedsnr" v="701128" />
	</node>
<<<<<<< HEAD
	<node lat="68.44824999636981" lon="15.168711118028972" id="-11100">
		<tag k="name" v="Nordnes" />
		<tag k="place" v="isolated_dwelling" />
		<tag k="ssr:stedsnr" v="623725" />
	</node>
	<node lat="68.51169166824393" lon="15.268102774448968" id="-11110">
		<tag k="name" v="Tyttebærneset" />
		<tag k="old_name" v="Typernes" />
=======
	<node id="-197028" lat="68.6133888923" lon="15.1308361176">
		<tag k="name" v="Nergården" />
		<tag k="place" v="farm" />
		<tag k="ssr:stedsnr" v="33811" />
	</node>
	<node id="-198050" lat="68.5046583366" lon="15.3158777886">
		<tag k="name" v="Mellagården" />
>>>>>>> e1d4bc35ff8a6074a6f2e91616a996b547c36f15
		<tag k="place" v="farm" />
		<tag k="ssr:stedsnr" v="624405" />
	</node>
<<<<<<< HEAD
	<node lat="68.58738888808935" lon="14.899649994439969" id="-11124">
		<tag k="name" v="Bjørnhaugen" />
=======
	<node id="-197025" lat="68.6050166663" lon="15.0997055639">
		<tag k="name" v="Tjønnbogan" />
>>>>>>> e1d4bc35ff8a6074a6f2e91616a996b547c36f15
		<tag k="place" v="farm" />
		<tag k="ssr:stedsnr" v="640134" />
	</node>
	<node lat="68.50273055404435" lon="15.367616667001075" id="-11132">
		<tag k="name" v="Nordbotn" />
		<tag k="place" v="isolated_dwelling" />
		<tag k="ssr:stedsnr" v="642311" />
	</node>
<<<<<<< HEAD
	<node lat="68.49800277498487" lon="15.290994447434612" id="-11138">
		<tag k="name" v="Sætran" />
		<tag k="place" v="neighbourhood" />
		<tag k="ssr:stedsnr" v="646827" />
	</node>
	<node lat="68.4336222223899" lon="14.630066658159304" id="-11159">
		<tag k="name" v="Tufthaugen" />
		<tag k="place" v="farm" />
		<tag k="ssr:stedsnr" v="707136" />
	</node>
	<node lat="68.45627499899147" lon="15.047949992705485" id="-11193">
		<tag k="name" v="Heimergården" />
		<tag k="place" v="farm" />
		<tag k="ssr:stedsnr" v="661582" />
	</node>
	<node lat="68.66051997003136" lon="14.923717682213061" id="-11240">
		<tag k="fixme" v="consider place=hamlet" />
		<tag k="name" v="Kjørstad" />
		<tag k="place" v="farm" />
		<tag k="ssr:stedsnr" v="685691" />
	</node>
	<node lat="68.57291388620288" lon="15.289705560233436" id="-11305">
		<tag k="name" v="Kvanntoelva" />
=======
	<node id="-195486" lat="68.414593717" lon="14.875911239">
		<tag k="fixme" v="consider place=hamlet" />
		<tag k="name" v="Sløvra" />
		<tag k="place" v="farm" />
		<tag k="ssr:stedsnr" v="17319" />
	</node>
	<node id="-197021" lat="68.5039777748" lon="14.7958916677">
		<tag k="leisure" v="park" />
		<tag k="name" v="Parken" />
		<tag k="ssr:stedsnr" v="33696" />
	</node>
	<node id="-197019" lat="68.5894166705" lon="14.9499944484">
		<tag k="name" v="Råbogen" />
>>>>>>> e1d4bc35ff8a6074a6f2e91616a996b547c36f15
		<tag k="place" v="hamlet" />
		<tag k="ssr:stedsnr" v="745106" />
	</node>
<<<<<<< HEAD
	<node lat="68.53641388952823" lon="15.198869452165663" id="-11316">
		<tag k="name" v="Harvollen" />
		<tag k="place" v="farm" />
		<tag k="ssr:stedsnr" v="745415" />
	</node>
	<node lat="68.61339167039066" lon="14.872516669334658" id="-11319">
		<tag k="alt_name" v="Leite" />
		<tag k="name" v="Leitet" />
		<tag k="place" v="farm" />
		<tag k="ssr:stedsnr" v="745616" />
	</node>
	<node lat="68.59053497850951" lon="14.861187780347944" id="-11322">
=======
	<node id="-198551" lat="68.421256437" lon="14.7032497158">
		<tag k="alt_name" v="Seloter" />
		<tag k="fixme" v="consider place=hamlet" />
		<tag k="name" v="Sellåter" />
		<tag k="place" v="farm" />
		<tag k="ssr:stedsnr" v="867388" />
	</node>
	<node id="-197014" lat="68.5011995199" lon="14.8913947222">
>>>>>>> e1d4bc35ff8a6074a6f2e91616a996b547c36f15
		<tag k="fixme" v="consider place=hamlet" />
		<tag k="name" v="Holmsnes" />
		<tag k="place" v="farm" />
		<tag k="ssr:stedsnr" v="745585" />
	</node>
<<<<<<< HEAD
	<node lat="68.595208336491" lon="14.846874992790779" id="-11323">
		<tag k="name" v="Solskinsvika" />
		<tag k="place" v="farm" />
		<tag k="ssr:stedsnr" v="745586" />
	</node>
	<node lat="68.40072984367735" lon="15.097280440104166" id="-11329">
		<tag k="fixme" v="consider place=hamlet" />
		<tag k="name" v="Fallet" />
		<tag k="place" v="farm" />
		<tag k="ssr:stedsnr" v="745874" />
	</node>
	<node lat="68.57343333145283" lon="14.820858320691714" id="-11336">
		<tag k="name" v="Frydenlund" />
=======
	<node id="-198035" lat="68.4995277817" lon="14.7396750113">
		<tag k="name" v="Kvitsandvollen" />
		<tag k="place" v="locality" />
		<tag k="ssr:stedsnr" v="580728" />
	</node>
	<node id="-197008" lat="68.6660749972" lon="14.9751222272">
		<tag k="fixme" v="consider place=hamlet" />
		<tag k="name" v="Slåttnes" />
		<tag k="place" v="farm" />
		<tag k="ssr:stedsnr" v="18658" />
	</node>
	<node id="-198543" lat="68.624786114" lon="15.1871416748">
		<tag k="name" v="Fagerheim" />
>>>>>>> e1d4bc35ff8a6074a6f2e91616a996b547c36f15
		<tag k="place" v="farm" />
		<tag k="ssr:stedsnr" v="745927" />
	</node>
<<<<<<< HEAD
	<node lat="68.50156111282159" lon="15.242038879070098" id="-11338">
		<tag k="name" v="Dalelv" />
		<tag k="place" v="farm" />
		<tag k="ssr:stedsnr" v="746403" />
	</node>
	<node lat="68.56719722080412" lon="14.849666665064172" id="-11341">
		<tag k="fixme" v="consider place=hamlet" />
		<tag k="name" v="Bervika" />
		<tag k="place" v="farm" />
		<tag k="ssr:stedsnr" v="746919" />
	</node>
	<node lat="68.61367221838597" lon="15.160888888628516" id="-11355">
		<tag k="name" v="Harvollen" />
		<tag k="place" v="farm" />
		<tag k="ssr:stedsnr" v="761804" />
	</node>
	<node lat="68.53919722686071" lon="15.193219434039104" id="-11398">
		<tag k="name" v="Hennes, nedre" />
=======
	<node id="-196494" lat="68.5954250003" lon="14.8478194363">
		<tag k="name" v="Raen" />
		<tag k="place" v="isolated_dwelling" />
		<tag k="ssr:stedsnr" v="588718" />
	</node>
	<node id="-195980" lat="68.5991166625" lon="15.0459555519">
		<tag k="name" v="Maritbakken" />
		<tag k="place" v="isolated_dwelling" />
		<tag k="ssr:stedsnr" v="458826" />
	</node>
	<node id="-195978" lat="68.6164944406" lon="15.1414277713">
		<tag k="name" v="Teigen" />
		<tag k="place" v="farm" />
		<tag k="ssr:stedsnr" v="458817" />
	</node>
	<node id="-195977" lat="68.6137861077" lon="15.1519833206">
		<tag k="name" v="Nausthaugen" />
>>>>>>> e1d4bc35ff8a6074a6f2e91616a996b547c36f15
		<tag k="place" v="farm" />
		<tag k="ssr:stedsnr" v="823220" />
	</node>
<<<<<<< HEAD
	<node lat="68.67311111280019" lon="15.046319434031613" id="-11445">
		<tag k="alt_name" v="Straumfjord, ytre" />
		<tag k="name" v="Ytre Straumfjord" />
=======
	<node id="-195976" lat="68.6111666654" lon="15.127788896">
		<tag k="name" v="Osbakkan" />
>>>>>>> e1d4bc35ff8a6074a6f2e91616a996b547c36f15
		<tag k="place" v="farm" />
		<tag k="ssr:stedsnr" v="927180" />
	</node>
<<<<<<< HEAD
	<node lat="68.4462861133988" lon="15.03895276868355" id="-11468">
		<tag k="name" v="Myrlandsfjorden" />
		<tag k="place" v="farm" />
		<tag k="ssr:stedsnr" v="927794" />
	</node>
	<node lat="68.58876667085626" lon="14.852872214847118" id="-11481">
		<tag k="name" v="Silsanden" />
=======
	<node id="-195974" lat="68.6136527798" lon="15.1573750057">
		<tag k="name" v="Nausthaugen" />
		<tag k="place" v="farm" />
		<tag k="ssr:stedsnr" v="458797" />
	</node>
	<node id="-195973" lat="68.5069111117" lon="14.805216657">
		<tag k="name" v="Oksgjerdet" />
		<tag k="place" v="quarter" />
		<tag k="ssr:stedsnr" v="458693" />
	</node>
	<node id="-195971" lat="68.5991499982" lon="15.0126000006">
		<tag k="name" v="Setervollen" />
		<tag k="place" v="isolated_dwelling" />
		<tag k="ssr:stedsnr" v="458261" />
	</node>
	<node id="-195970" lat="68.590958336" lon="14.9848472223">
		<tag k="name" v="Teigan" />
>>>>>>> e1d4bc35ff8a6074a6f2e91616a996b547c36f15
		<tag k="place" v="farm" />
		<tag k="ssr:stedsnr" v="928534" />
	</node>
<<<<<<< HEAD
	<node lat="68.57733235251305" lon="14.662051409756197" id="-11484">
		<tag k="fixme" v="consider place=hamlet" />
		<tag k="name" v="Kongsteigan" />
		<tag k="place" v="farm" />
		<tag k="ssr:stedsnr" v="928542" />
	</node>
	<node lat="68.56148888906098" lon="14.739605548253717" id="-11499">
		<tag k="name" v="Løyken" />
		<tag k="place" v="farm" />
		<tag k="ssr:stedsnr" v="928921" />
	</node>
	<node lat="68.51735278013383" lon="14.710636115346476" id="-11508">
		<tag k="name" v="Stranda" />
		<tag k="place" v="farm" />
		<tag k="ssr:stedsnr" v="867945" />
	</node>
	<node lat="68.50441011266199" lon="14.842057671835493" id="-11509">
=======
	<node id="-195968" lat="68.5695388865" lon="14.878038881">
		<tag k="name" v="Tømmervika" />
		<tag k="place" v="quarter" />
		<tag k="ssr:stedsnr" v="458095" />
	</node>
	<node id="-196990" lat="68.5301722231" lon="14.6897610991">
		<tag k="alt_name" v="Ånnstad, yt;Ytre Ånstad" />
>>>>>>> e1d4bc35ff8a6074a6f2e91616a996b547c36f15
		<tag k="fixme" v="consider place=hamlet" />
		<tag k="name" v="Gullstad" />
		<tag k="place" v="farm" />
		<tag k="ssr:stedsnr" v="867953" />
	</node>
<<<<<<< HEAD
	<node lat="68.53808333554197" lon="15.192202786342378" id="-11519">
		<tag k="name" v="Gårdgrunnen" />
=======
	<node id="-196989" lat="68.5363527794" lon="14.971219434">
		<tag k="name" v="Rabben" />
>>>>>>> e1d4bc35ff8a6074a6f2e91616a996b547c36f15
		<tag k="place" v="farm" />
		<tag k="ssr:stedsnr" v="884219" />
	</node>
<<<<<<< HEAD
	<node lat="68.41698889207116" lon="14.548074998021184" id="-11541">
		<tag k="name" v="Laugbakken" />
=======
	<node id="-195450" lat="68.5758083331" lon="14.7307166625">
		<tag k="name" v="Breivik indre" />
>>>>>>> e1d4bc35ff8a6074a6f2e91616a996b547c36f15
		<tag k="place" v="farm" />
		<tag k="ssr:stedsnr" v="890200" />
	</node>
<<<<<<< HEAD
	<node lat="68.57510278019208" lon="14.813761120304376" id="-11543">
		<tag k="name" v="Skredal" />
=======
	<node id="-197439" lat="68.5329277757" lon="15.1986750087">
		<tag k="alt_name" v="Hennes, øvre" />
		<tag k="name" v="Øvre Hennes" />
		<tag k="place" v="farm" />
		<tag k="ssr:stedsnr" v="199392" />
	</node>
	<node id="-196982" lat="68.3520166638" lon="15.0589999979">
		<tag k="name" v="Langneset" />
>>>>>>> e1d4bc35ff8a6074a6f2e91616a996b547c36f15
		<tag k="place" v="farm" />
		<tag k="ssr:stedsnr" v="890321" />
	</node>
<<<<<<< HEAD
	<node lat="68.45981666364615" lon="15.047347211681462" id="-11555">
		<tag k="name" v="Nordgården" />
		<tag k="place" v="farm" />
		<tag k="ssr:stedsnr" v="905655" />
	</node>
	<node lat="68.66698665330257" lon="14.945758409706897" id="-11584">
		<tag k="fixme" v="consider place=hamlet" />
		<tag k="name" v="Grønning" />
		<tag k="place" v="farm" />
		<tag k="ssr:stedsnr" v="928700" />
	</node>
	<node lat="68.43397777758021" lon="14.620847213403994" id="-11591">
		<tag k="name" v="Landingsvorr" />
		<tag k="place" v="hamlet" />
		<tag k="ssr:stedsnr" v="950146" />
	</node>
	<node lat="68.59911944529534" lon="15.0702833285868" id="-11601">
		<tag k="name" v="Røsslers Minde" />
		<tag k="place" v="isolated_dwelling" />
		<tag k="ssr:stedsnr" v="950511" />
	</node>
	<node lat="68.36795000059904" lon="14.764680564819107" id="-11614">
		<tag k="name" v="Vestgården" />
		<tag k="place" v="farm" />
		<tag k="ssr:stedsnr" v="957290" />
	</node>
	<node lat="68.55121944401154" lon="15.386247226574278" id="-11624">
		<tag k="alt_name" v="Slåttene" />
		<tag k="name" v="Slåttan" />
		<tag k="place" v="locality" />
		<tag k="ssr:stedsnr" v="17109" />
	</node>
	<node lat="68.55575833342326" lon="15.218663886418828" id="-11625">
		<tag k="alt_name" v="Setran" />
		<tag k="name" v="Sætran" />
		<tag k="place" v="farm" />
		<tag k="ssr:stedsnr" v="17125" />
	</node>
	<node lat="68.57180555296576" lon="15.22562777560105" id="-11630">
		<tag k="name" v="Kvitnes" />
		<tag k="place" v="village" />
		<tag k="ssr:stedsnr" v="17094" />
	</node>
	<node lat="68.60006389056413" lon="15.085902786031605" id="-11641">
		<tag k="alt_name" v="Hauknes" />
=======
	<node id="-197115" lat="68.3658944471" lon="15.0365055481">
		<tag k="name" v="Ulvøyhamn" />
		<tag k="place" v="farm" />
		<tag k="ssr:stedsnr" v="77886" />
	</node>
	<node id="-196976" lat="68.4941444426" lon="15.3588111168">
		<tag k="name" v="Sørbotnen" />
		<tag k="place" v="isolated_dwelling" />
		<tag k="ssr:stedsnr" v="17653" />
	</node>
	<node id="-197996" lat="68.5497576919" lon="14.6401646116">
>>>>>>> e1d4bc35ff8a6074a6f2e91616a996b547c36f15
		<tag k="fixme" v="consider place=hamlet" />
		<tag k="name" v="Haukenes" />
		<tag k="place" v="farm" />
		<tag k="ssr:stedsnr" v="17043" />
	</node>
<<<<<<< HEAD
	<node lat="68.53246944734978" lon="15.239808334545337" id="-11650">
		<tag k="alt_name" v="Breidstranda" />
		<tag k="name" v="Breistranda" />
=======
	<node id="-196971" lat="68.5848666635" lon="14.6943111105">
		<tag k="alt_name" v="Dragnes" />
		<tag k="name" v="Dragneset" />
>>>>>>> e1d4bc35ff8a6074a6f2e91616a996b547c36f15
		<tag k="place" v="farm" />
		<tag k="ssr:stedsnr" v="17415" />
	</node>
<<<<<<< HEAD
	<node lat="68.58778466011508" lon="14.89978666752702" id="-11652">
		<tag k="fixme" v="consider place=suburb, village or hamlet" />
		<tag k="name" v="Sandnes" />
		<tag k="place" v="quarter" />
		<tag k="ssr:stedsnr" v="17568" />
	</node>
	<node lat="68.58486666352243" lon="14.69431111048927" id="-11654">
		<tag k="alt_name" v="Dragnes" />
		<tag k="name" v="Dragneset" />
		<tag k="place" v="farm" />
		<tag k="ssr:stedsnr" v="17579" />
	</node>
	<node lat="68.4102833331974" lon="15.129702776794712" id="-11664">
=======
	<node id="-197481" lat="68.5369361091" lon="15.1903055461">
		<tag k="name" v="Bjønnvollen" />
		<tag k="place" v="farm" />
		<tag k="ssr:stedsnr" v="216233" />
	</node>
	<node id="-196966" lat="68.4102833332" lon="15.1297027768">
>>>>>>> e1d4bc35ff8a6074a6f2e91616a996b547c36f15
		<tag k="alt_name" v="Raftstranda, nordre;Nordre Raftstrand" />
		<tag k="fixme" v="multiple name tags, choose one and add the other to alt_name" />
		<tag k="name" v="Raftstranda;Nordre Raftstranda" />
		<tag k="place" v="farm" />
		<tag k="ssr:stedsnr" v="17876" />
	</node>
<<<<<<< HEAD
	<node lat="68.35201666378231" lon="15.058999997910023" id="-11666">
		<tag k="name" v="Langneset" />
		<tag k="place" v="farm" />
		<tag k="ssr:stedsnr" v="17896" />
	</node>
	<node lat="68.53635277942504" lon="14.97121943400738" id="-11671">
		<tag k="name" v="Rabben" />
=======
	<node id="-195939" lat="68.540952777" lon="14.9791805619">
		<tag k="name" v="Paradiset" />
		<tag k="place" v="farm" />
		<tag k="ssr:stedsnr" v="443983" />
	</node>
	<node id="-196957" lat="68.5557583334" lon="15.2186638864">
		<tag k="alt_name" v="Setran" />
		<tag k="name" v="Sætran" />
>>>>>>> e1d4bc35ff8a6074a6f2e91616a996b547c36f15
		<tag k="place" v="farm" />
		<tag k="ssr:stedsnr" v="17990" />
	</node>
<<<<<<< HEAD
	<node lat="68.50119951987512" lon="14.891394722217536" id="-11685">
		<tag k="fixme" v="consider place=hamlet" />
		<tag k="name" v="Vassvika" />
=======
	<node id="-197980" lat="68.6381166688" lon="14.8220222327">
		<tag k="alt_name" v="Fleines" />
		<tag k="name" v="Fleinnes" />
		<tag k="place" v="hamlet" />
		<tag k="ssr:stedsnr" v="563534" />
	</node>
	<node id="-197467" lat="68.5354444475" lon="14.8830472342">
		<tag k="name" v="Sorgenfri" />
>>>>>>> e1d4bc35ff8a6074a6f2e91616a996b547c36f15
		<tag k="place" v="farm" />
		<tag k="ssr:stedsnr" v="18956" />
	</node>
<<<<<<< HEAD
	<node lat="68.5050678032384" lon="14.746274485875984" id="-11686">
		<tag k="fixme" v="consider place=hamlet" />
		<tag k="name" v="Haug" />
		<tag k="place" v="farm" />
		<tag k="ssr:stedsnr" v="18957" />
	</node>
	<node lat="68.57105000303211" lon="14.859783343194609" id="-11689">
		<tag k="name" v="Sjøvoll" />
=======
	<node id="-197448" lat="68.47273056" lon="15.3042944399">
		<tag k="fixme" v="consider place=hamlet" />
		<tag k="name" v="Ingelsfjord" />
		<tag k="place" v="farm" />
		<tag k="ssr:stedsnr" v="199766" />
	</node>
	<node id="-195927" lat="68.5728833299" lon="14.8742666757">
		<tag k="name" v="Lappvika" />
>>>>>>> e1d4bc35ff8a6074a6f2e91616a996b547c36f15
		<tag k="place" v="farm" />
		<tag k="ssr:stedsnr" v="18915" />
	</node>
<<<<<<< HEAD
	<node lat="68.51511944584128" lon="14.72529722885156" id="-11691">
		<tag k="alt_name" v="Ångstad" />
=======
	<node id="-197974" lat="68.5024163146" lon="15.2224474218">
>>>>>>> e1d4bc35ff8a6074a6f2e91616a996b547c36f15
		<tag k="fixme" v="consider place=hamlet" />
		<tag k="name" v="Ongstad" />
		<tag k="place" v="farm" />
		<tag k="ssr:stedsnr" v="18925" />
	</node>
<<<<<<< HEAD
	<node lat="68.58941667049206" lon="14.949994448361052" id="-11697">
		<tag k="name" v="Råbogen" />
		<tag k="place" v="hamlet" />
		<tag k="ssr:stedsnr" v="33240" />
	</node>
	<node lat="68.50397777480853" lon="14.795891667653914" id="-11700">
		<tag k="leisure" v="park" />
		<tag k="name" v="Parken" />
		<tag k="ssr:stedsnr" v="33696" />
	</node>
	<node lat="68.60501666626888" lon="15.09970556388086" id="-11702">
		<tag k="name" v="Tjønnbogan" />
		<tag k="place" v="farm" />
		<tag k="ssr:stedsnr" v="33794" />
	</node>
	<node lat="68.5320361157776" lon="15.221324994322822" id="-11707">
		<tag k="name" v="Olagarden" />
=======
	<node id="-197973" lat="68.5058722264" lon="15.3462694431">
		<tag k="name" v="Gammelgården" />
		<tag k="place" v="isolated_dwelling" />
		<tag k="ssr:stedsnr" v="563394" />
	</node>
	<node id="-197460" lat="68.3622444477" lon="15.0718583313">
		<tag k="name" v="Tennstrand" />
		<tag k="place" v="farm" />
		<tag k="ssr:stedsnr" v="199897" />
	</node>
	<node id="-196435" lat="68.4336222224" lon="14.6300666582">
		<tag k="name" v="Tufthaugen" />
>>>>>>> e1d4bc35ff8a6074a6f2e91616a996b547c36f15
		<tag k="place" v="farm" />
		<tag k="ssr:stedsnr" v="34244" />
	</node>
<<<<<<< HEAD
	<node lat="68.56838610985265" lon="14.858083326243197" id="-11716">
		<tag k="name" v="Nygård" />
=======
	<node id="-197969" lat="68.5336583302" lon="15.210552771">
		<tag k="name" v="Hennesstranda" />
>>>>>>> e1d4bc35ff8a6074a6f2e91616a996b547c36f15
		<tag k="place" v="farm" />
		<tag k="ssr:stedsnr" v="36586" />
	</node>
<<<<<<< HEAD
	<node lat="68.58139444763566" lon="14.69823611979" id="-11721">
		<tag k="name" v="Karihola" />
		<tag k="place" v="farm" />
		<tag k="ssr:stedsnr" v="39027" />
	</node>
	<node lat="68.56849444048011" lon="14.629911106123352" id="-11723">
		<tag k="name" v="Kaldstadvågen" />
=======
	<node id="-197968" lat="68.5301833297" lon="15.2617222132">
		<tag k="name" v="Nygård" />
		<tag k="place" v="farm" />
		<tag k="ssr:stedsnr" v="563367" />
	</node>
	<node id="-196942" lat="68.6000638906" lon="15.085902786">
		<tag k="alt_name" v="Hauknes" />
		<tag k="fixme" v="consider place=hamlet" />
		<tag k="name" v="Haukenes" />
>>>>>>> e1d4bc35ff8a6074a6f2e91616a996b547c36f15
		<tag k="place" v="farm" />
		<tag k="ssr:stedsnr" v="39042" />
	</node>
<<<<<<< HEAD
	<node lat="68.56700000211673" lon="15.339361120894651" id="-11740">
=======
	<node id="-195916" lat="68.4534763886" lon="15.0503843125">
>>>>>>> e1d4bc35ff8a6074a6f2e91616a996b547c36f15
		<tag k="fixme" v="consider place=hamlet" />
		<tag k="name" v="Fiskefjord" />
		<tag k="place" v="village" />
		<tag k="ssr:stedsnr" v="41713" />
	</node>
<<<<<<< HEAD
	<node lat="68.4816970710883" lon="15.25595962628882" id="-11770">
		<tag k="fixme" v="consider place=hamlet" />
		<tag k="name" v="Sommarset" />
		<tag k="place" v="farm" />
		<tag k="ssr:stedsnr" v="77728" />
	</node>
	<node lat="68.36589444707438" lon="15.036505548060905" id="-11773">
		<tag k="name" v="Ulvøyhamn" />
		<tag k="place" v="farm" />
		<tag k="ssr:stedsnr" v="77886" />
	</node>
	<node lat="68.4291694397989" lon="14.819738896371554" id="-11784">
		<tag k="fixme" v="consider place=hamlet" />
		<tag k="name" v="Fiskebøl" />
=======
	<node id="-198389" lat="68.4683250029" lon="15.1790361">
		<tag k="name" v="Hanøyvika" />
		<tag k="place" v="hamlet" />
		<tag k="ssr:stedsnr" v="806754" />
	</node>
	<node id="-195912" lat="68.5827333317" lon="14.6688916781">
		<tag k="alt_name" v="Røyrvika, nordre" />
		<tag k="name" v="Nordre Røyrvika" />
		<tag k="place" v="farm" />
		<tag k="ssr:stedsnr" v="442580" />
	</node>
	<node id="-198540" lat="68.3517370804" lon="15.0240058641">
		<tag k="fixme" v="consider place=hamlet" />
		<tag k="name" v="Ulvøya" />
		<tag k="place" v="farm" />
		<tag k="ssr:stedsnr" v="866871" />
	</node>
	<node id="-197956" lat="68.5685333374" lon="15.3066194473">
		<tag k="name" v="Paradis" />
>>>>>>> e1d4bc35ff8a6074a6f2e91616a996b547c36f15
		<tag k="place" v="farm" />
		<tag k="ssr:stedsnr" v="78338" />
	</node>
<<<<<<< HEAD
	<node lat="68.65794999763037" lon="14.979466660088814" id="-11796">
		<tag k="name" v="Toftene" />
		<tag k="place" v="farm" />
		<tag k="ssr:stedsnr" v="78715" />
	</node>
	<node lat="68.46684999784996" lon="15.17733888637505" id="-11797">
		<tag k="name" v="Leirosen" />
		<tag k="place" v="isolated_dwelling" />
		<tag k="ssr:stedsnr" v="78730" />
	</node>
	<node lat="68.39774999655495" lon="15.133572230489374" id="-11802">
=======
	<node id="-196918" lat="68.5614888891" lon="14.7396055483">
		<tag k="name" v="Løyken" />
		<tag k="place" v="farm" />
		<tag k="ssr:stedsnr" v="928921" />
	</node>
	<node id="-195904" lat="68.5058527768" lon="15.273952788">
		<tag k="name" v="Vika" />
		<tag k="place" v="farm" />
		<tag k="ssr:stedsnr" v="442414" />
	</node>
	<node id="-197951" lat="68.6155694416" lon="15.1558416691">
>>>>>>> e1d4bc35ff8a6074a6f2e91616a996b547c36f15
		<tag k="fixme" v="consider place=hamlet" />
		<tag k="name" v="Raften" />
		<tag k="place" v="farm" />
		<tag k="ssr:stedsnr" v="78867" />
	</node>
<<<<<<< HEAD
	<node lat="68.50288147564626" lon="14.855738752536062" id="-11806">
=======
	<node id="-197438" lat="68.3647555531" lon="14.7617000044">
>>>>>>> e1d4bc35ff8a6074a6f2e91616a996b547c36f15
		<tag k="fixme" v="consider place=hamlet" />
		<tag k="name" v="Husby" />
		<tag k="place" v="farm" />
		<tag k="ssr:stedsnr" v="78962" />
	</node>
<<<<<<< HEAD
	<node lat="68.58224166965212" lon="15.041322226627244" id="-11866">
		<tag k="name" v="Gammelgården" />
=======
	<node id="-196609" lat="68.5751027802" lon="14.8137611203">
		<tag k="name" v="Skredal" />
		<tag k="place" v="farm" />
		<tag k="ssr:stedsnr" v="890321" />
	</node>
	<node id="-197436" lat="68.3848986701" lon="14.5933442009">
		<tag k="fixme" v="consider place=hamlet" />
		<tag k="name" v="Grunnførfjorden" />
>>>>>>> e1d4bc35ff8a6074a6f2e91616a996b547c36f15
		<tag k="place" v="farm" />
		<tag k="ssr:stedsnr" v="116637" />
	</node>
<<<<<<< HEAD
	<node lat="68.55072777556859" lon="15.201841664924126" id="-11877">
		<tag k="alt_name" v="Raen" />
		<tag k="name" v="Raene" />
		<tag k="place" v="farm" />
		<tag k="ssr:stedsnr" v="138129" />
	</node>
	<node lat="68.43491666907192" lon="14.74170278020344" id="-11881">
		<tag k="fixme" v="consider place=hamlet" />
		<tag k="name" v="Strønstad" />
		<tag k="place" v="village" />
		<tag k="ssr:stedsnr" v="138352" />
	</node>
	<node lat="68.4249888880461" lon="14.670783339874317" id="-11885">
		<tag k="name" v="Sommarhusstranda" />
		<tag k="place" v="farm" />
		<tag k="ssr:stedsnr" v="138388" />
	</node>
	<node lat="68.46375000192543" lon="15.257747217436862" id="-11895">
		<tag k="fixme" v="consider place=hamlet" />
		<tag k="name" v="Storå - Stuorrovvi" />
		<tag k="name:no" v="Storå" />
		<tag k="name:se" v="Stuorrovvi" />
=======
	<node id="-197002" lat="68.571050003" lon="14.8597833432">
		<tag k="name" v="Sjøvoll" />
		<tag k="place" v="farm" />
		<tag k="ssr:stedsnr" v="18915" />
	</node>
	<node id="-197431" lat="68.3375675618" lon="14.9489073161">
		<tag k="fixme" v="consider place=hamlet" />
		<tag k="name" v="Brakset" />
		<tag k="place" v="farm" />
		<tag k="ssr:stedsnr" v="199424" />
	</node>
	<node id="-197430" lat="68.4131844687" lon="14.6810963115">
		<tag k="fixme" v="consider place=hamlet" />
		<tag k="name" v="Sommarhus" />
		<tag k="place" v="farm" />
		<tag k="ssr:stedsnr" v="199297" />
	</node>
	<node id="-195924" lat="68.4216970281" lon="15.1595583593">
		<tag k="alt_name" v="Tengelfjord" />
		<tag k="fixme" v="consider place=hamlet" />
		<tag k="name" v="Tengelfjorden" />
		<tag k="place" v="farm" />
		<tag k="ssr:stedsnr" v="442893" />
	</node>
	<node id="-195892" lat="68.5684722248" lon="15.2285194494">
		<tag k="name" v="Lauvmyra" />
>>>>>>> e1d4bc35ff8a6074a6f2e91616a996b547c36f15
		<tag k="place" v="farm" />
		<tag k="ssr:stedsnr" v="138720" />
	</node>
<<<<<<< HEAD
	<node lat="68.38239741306748" lon="15.090213024721503" id="-11906">
		<tag k="alt_name" v="Brubrekk" />
=======
	<node id="-197427" lat="68.5255445884" lon="15.2772394005">
		<tag k="alt_name" v="Kaldjord" />
>>>>>>> e1d4bc35ff8a6074a6f2e91616a996b547c36f15
		<tag k="fixme" v="consider place=hamlet" />
		<tag k="name" v="Brubrekka" />
		<tag k="place" v="farm" />
		<tag k="ssr:stedsnr" v="138826" />
	</node>
<<<<<<< HEAD
	<node lat="68.60030833484561" lon="15.017333333911356" id="-11917">
		<tag k="name" v="Rødlia" />
		<tag k="place" v="isolated_dwelling" />
		<tag k="ssr:stedsnr" v="155233" />
	</node>
	<node lat="68.49754166631531" lon="14.799452787670697" id="-11918">
		<tag k="building" v="industrial" />
		<tag k="industrial" v="factory" />
		<tag k="name" v="Melbu fiskeindustri" />
		<tag k="ssr:stedsnr" v="155727" />
	</node>
	<node lat="68.5797583360116" lon="14.66353888047362" id="-11924">
		<tag k="name" v="Søre Røyrvika" />
=======
	<node id="-196659" lat="68.6180694481" lon="15.135772214">
		<tag k="alt_name" v="Teigan" />
		<tag k="name" v="Teigen" />
		<tag k="place" v="farm" />
		<tag k="ssr:stedsnr" v="745019" />
	</node>
	<node id="-197117" lat="68.6158361077" lon="15.1288638952">
		<tag k="name" v="Myra" />
		<tag k="place" v="farm" />
		<tag k="ssr:stedsnr" v="78004" />
	</node>
	<node id="-196398" lat="68.5883305593" lon="14.8951305572">
		<tag k="name" v="Skogan" />
		<tag k="place" v="farm" />
		<tag k="ssr:stedsnr" v="701128" />
	</node>
	<node id="-197085" lat="68.6409194438" lon="14.9411250014">
		<tag k="name" v="Setre" />
		<tag k="place" v="locality" />
		<tag k="ssr:stedsnr" v="55532" />
	</node>
	<node id="-197932" lat="68.3469750001" lon="15.0109888944">
		<tag k="name" v="Lauksund" />
>>>>>>> e1d4bc35ff8a6074a6f2e91616a996b547c36f15
		<tag k="place" v="farm" />
		<tag k="ssr:stedsnr" v="157448" />
	</node>
<<<<<<< HEAD
	<node lat="68.57475278050622" lon="15.283283344496216" id="-11925">
		<tag k="name" v="Kassenland" />
=======
	<node id="-198443" lat="68.5754442033" lon="15.2310358807">
		<tag k="fixme" v="consider place=hamlet" />
		<tag k="name" v="Kvitnes" />
>>>>>>> e1d4bc35ff8a6074a6f2e91616a996b547c36f15
		<tag k="place" v="farm" />
		<tag k="ssr:stedsnr" v="155923" />
	</node>
<<<<<<< HEAD
	<node lat="68.51631666514291" lon="15.258908335893265" id="-11937">
		<tag k="name" v="Hamn" />
=======
	<node id="-195881" lat="68.6076361072" lon="14.8841749984">
		<tag k="name" v="Vikbotnen" />
>>>>>>> e1d4bc35ff8a6074a6f2e91616a996b547c36f15
		<tag k="place" v="farm" />
		<tag k="ssr:stedsnr" v="161057" />
	</node>
<<<<<<< HEAD
	<node lat="68.43357222446411" lon="14.754688901048157" id="-11942">
		<tag k="amenity" v="school" />
		<tag k="name" v="Strønstad skole" />
		<tag k="ssr:stedsnr" v="161084" />
	</node>
	<node lat="68.43239444117599" lon="14.615536117772201" id="-11947">
		<tag k="name" v="Gammelgården" />
=======
	<node id="-198440" lat="68.5527361092" lon="14.9812194527">
		<tag k="name" v="Tomta" />
		<tag k="place" v="locality" />
		<tag k="ssr:stedsnr" v="823439" />
	</node>
	<node id="-196902" lat="68.5380833355" lon="15.1922027863">
		<tag k="name" v="Gårdgrunnen" />
>>>>>>> e1d4bc35ff8a6074a6f2e91616a996b547c36f15
		<tag k="place" v="farm" />
		<tag k="ssr:stedsnr" v="161210" />
	</node>
<<<<<<< HEAD
	<node lat="68.6407972222794" lon="14.820547217364533" id="-11996">
		<tag k="name" v="Øvre Fleinnes" />
=======
	<node id="-197413" lat="68.6083249992" lon="15.1015111195">
		<tag k="name" v="Rabben" />
>>>>>>> e1d4bc35ff8a6074a6f2e91616a996b547c36f15
		<tag k="place" v="farm" />
		<tag k="ssr:stedsnr" v="181228" />
	</node>
<<<<<<< HEAD
	<node lat="68.53218055807952" lon="14.967852780817886" id="-11998">
		<tag k="name" v="Klakk" />
=======
	<node id="-198436" lat="68.5391972269" lon="15.193219434">
		<tag k="name" v="Hennes, nedre" />
>>>>>>> e1d4bc35ff8a6074a6f2e91616a996b547c36f15
		<tag k="place" v="farm" />
		<tag k="ssr:stedsnr" v="181950" />
	</node>
<<<<<<< HEAD
	<node lat="68.36224444772063" lon="15.071858331258431" id="-12001">
		<tag k="name" v="Tennstrand" />
=======
	<node id="-196386" lat="68.5703527799" lon="15.3259222273">
		<tag k="name" v="Paradiset" />
>>>>>>> e1d4bc35ff8a6074a6f2e91616a996b547c36f15
		<tag k="place" v="farm" />
		<tag k="ssr:stedsnr" v="199897" />
	</node>
<<<<<<< HEAD
	<node lat="68.53544444746596" lon="14.883047234195342" id="-12005">
		<tag k="name" v="Sorgenfri" />
=======
	<node id="-198433" lat="68.6064416653" lon="15.1074277797">
		<tag k="name" v="Gryttingsnes" />
>>>>>>> e1d4bc35ff8a6074a6f2e91616a996b547c36f15
		<tag k="place" v="farm" />
		<tag k="ssr:stedsnr" v="199994" />
	</node>
<<<<<<< HEAD
	<node lat="68.6083249991713" lon="15.101511119481598" id="-12007">
		<tag k="name" v="Rabben" />
=======
	<node id="-197407" lat="68.6407972223" lon="14.8205472174">
		<tag k="name" v="Øvre Fleinnes" />
>>>>>>> e1d4bc35ff8a6074a6f2e91616a996b547c36f15
		<tag k="place" v="farm" />
		<tag k="ssr:stedsnr" v="199071" />
	</node>
<<<<<<< HEAD
	<node lat="68.41318446868705" lon="14.681096311540351" id="-12019">
=======
	<node id="-197509" lat="68.4018333336" lon="14.7064888784">
		<tag k="name" v="Morfjordneset" />
		<tag k="place" v="farm" />
		<tag k="ssr:stedsnr" v="320311" />
	</node>
	<node id="-197914" lat="68.6407999969" lon="14.8213361009">
>>>>>>> e1d4bc35ff8a6074a6f2e91616a996b547c36f15
		<tag k="fixme" v="consider place=hamlet" />
		<tag k="name" v="Sommarhus" />
		<tag k="place" v="farm" />
		<tag k="ssr:stedsnr" v="199297" />
	</node>
<<<<<<< HEAD
	<node lat="68.5255445883871" lon="15.277239400460529" id="-12021">
		<tag k="alt_name" v="Kaldjord" />
		<tag k="fixme" v="consider place=hamlet" />
		<tag k="loc_name" v="Kalljorda" />
		<tag k="name" v="Kaljord" />
=======
	<node id="-196377" lat="68.5772805567" lon="14.7103111108">
		<tag k="name" v="Breivik ytre" />
>>>>>>> e1d4bc35ff8a6074a6f2e91616a996b547c36f15
		<tag k="place" v="farm" />
		<tag k="ssr:stedsnr" v="199383" />
	</node>
<<<<<<< HEAD
	<node lat="68.53292777570203" lon="15.19867500869906" id="-12023">
		<tag k="alt_name" v="Hennes, øvre" />
		<tag k="name" v="Øvre Hennes" />
=======
	<node id="-196376" lat="68.5777694452" lon="14.7179111044">
		<tag k="name" v="Mølnvollen" />
>>>>>>> e1d4bc35ff8a6074a6f2e91616a996b547c36f15
		<tag k="place" v="farm" />
		<tag k="ssr:stedsnr" v="199392" />
	</node>
<<<<<<< HEAD
	<node lat="68.38489867009417" lon="14.593344200866843" id="-12028">
		<tag k="fixme" v="consider place=hamlet" />
		<tag k="name" v="Grunnførfjorden" />
		<tag k="place" v="farm" />
		<tag k="ssr:stedsnr" v="199449" />
	</node>
	<node lat="68.61900246471494" lon="14.827135703925354" id="-12045">
		<tag k="alt_name" v="Kalsnes" />
		<tag k="fixme" v="consider place=hamlet" />
		<tag k="name" v="Kallsnes" />
		<tag k="place" v="farm" />
		<tag k="ssr:stedsnr" v="200524" />
	</node>
	<node lat="68.53693610907463" lon="15.190305546059205" id="-12057">
		<tag k="name" v="Bjønnvollen" />
		<tag k="place" v="farm" />
		<tag k="ssr:stedsnr" v="216233" />
	</node>
	<node lat="68.6175111075056" lon="15.166219438789689" id="-12070">
=======
	<node id="-198577" lat="68.4490018731" lon="15.2016398707">
		<tag k="fixme" v="consider place=hamlet" />
		<tag k="name" v="Steinbakken" />
		<tag k="place" v="farm" />
		<tag k="ssr:stedsnr" v="867736" />
	</node>
	<node id="-198446" lat="68.5576027817" lon="14.6197222197">
		<tag k="name" v="Storvik" />
		<tag k="place" v="farm" />
		<tag k="ssr:stedsnr" v="825548" />
	</node>
	<node id="-196882" lat="68.4339777776" lon="14.6208472134">
		<tag k="name" v="Landingsvorr" />
		<tag k="place" v="hamlet" />
		<tag k="ssr:stedsnr" v="950146" />
	</node>
	<node id="-195857" lat="68.6175111075" lon="15.1662194388">
>>>>>>> e1d4bc35ff8a6074a6f2e91616a996b547c36f15
		<tag k="name" v="Moen" />
		<tag k="place" v="farm" />
		<tag k="ssr:stedsnr" v="216745" />
	</node>
<<<<<<< HEAD
	<node lat="68.66558888420131" lon="14.960986121359602" id="-12129">
		<tag k="name" v="Slettstrand" />
=======
	<node id="-198018" lat="68.5886166695" lon="14.9015583416">
		<tag k="name" v="Åsenden" />
		<tag k="place" v="isolated_dwelling" />
		<tag k="ssr:stedsnr" v="579123" />
	</node>
	<node id="-196361" lat="68.5466361089" lon="14.9969027765">
		<tag k="name" v="Nygård" />
>>>>>>> e1d4bc35ff8a6074a6f2e91616a996b547c36f15
		<tag k="place" v="farm" />
		<tag k="ssr:stedsnr" v="283488" />
	</node>
<<<<<<< HEAD
	<node lat="68.64589722273035" lon="14.94180277683418" id="-12164">
=======
	<node id="-195846" lat="68.6458972227" lon="14.9418027768">
>>>>>>> e1d4bc35ff8a6074a6f2e91616a996b547c36f15
		<tag k="name" v="Setran" />
		<tag k="place" v="locality" />
		<tag k="ssr:stedsnr" v="298553" />
	</node>
<<<<<<< HEAD
	<node lat="68.46436944411404" lon="15.258511115657473" id="-12170">
		<tag k="loc_name:se" v="Stuorrovvi" />
		<tag k="name" v="Storå" />
		<tag k="name:no" v="Storå" />
		<tag k="place" v="hamlet" />
		<tag k="ssr:stedsnr" v="300799" />
	</node>
	<node lat="68.50449444150652" lon="15.246913878154414" id="-12206">
		<tag k="alt_name" v="Bogstrand" />
		<tag k="name" v="Bogstranda" />
=======
	<node id="-198273" lat="68.5853833302" lon="15.0417138965">
		<tag k="name" v="Raen" />
		<tag k="place" v="isolated_dwelling" />
		<tag k="ssr:stedsnr" v="761832" />
	</node>
	<node id="-196356" lat="68.3913416651" lon="15.1037999924">
		<tag k="name" v="Langnesvik" />
>>>>>>> e1d4bc35ff8a6074a6f2e91616a996b547c36f15
		<tag k="place" v="farm" />
		<tag k="ssr:stedsnr" v="321392" />
	</node>
<<<<<<< HEAD
	<node lat="68.61775731688945" lon="14.86641032742968" id="-12209">
		<tag k="fixme" v="consider place=hamlet" />
		<tag k="name" v="Vik" />
		<tag k="place" v="farm" />
		<tag k="ssr:stedsnr" v="321469" />
	</node>
	<node lat="68.65146849339875" lon="14.91746995941613" id="-12211">
		<tag k="fixme" v="consider place=hamlet" />
		<tag k="name" v="Moen" />
		<tag k="place" v="farm" />
		<tag k="ssr:stedsnr" v="321665" />
	</node>
	<node lat="68.53272499766665" lon="14.953069432184714" id="-12220">
		<tag k="name" v="Solheim" />
=======
	<node id="-196353" lat="68.66051997" lon="14.9237176822">
		<tag k="fixme" v="consider place=hamlet" />
		<tag k="name" v="Kjørstad" />
		<tag k="place" v="farm" />
		<tag k="ssr:stedsnr" v="685691" />
	</node>
	<node id="-196352" lat="68.6522972184" lon="14.8497722203">
		<tag k="name" v="Vottesnes" />
>>>>>>> e1d4bc35ff8a6074a6f2e91616a996b547c36f15
		<tag k="place" v="farm" />
		<tag k="ssr:stedsnr" v="321988" />
	</node>
<<<<<<< HEAD
	<node lat="68.53097222401242" lon="15.270391670582123" id="-12239">
		<tag k="name" v="Elvebakken" />
=======
	<node id="-196350" lat="68.586093582" lon="14.982839474">
		<tag k="fixme" v="consider place=hamlet" />
		<tag k="name" v="Bitterstad" />
>>>>>>> e1d4bc35ff8a6074a6f2e91616a996b547c36f15
		<tag k="place" v="farm" />
		<tag k="ssr:stedsnr" v="338836" />
	</node>
<<<<<<< HEAD
	<node lat="68.49812777584916" lon="15.291777777700132" id="-12243">
		<tag k="name" v="Sætra" />
		<tag k="place" v="isolated_dwelling" />
		<tag k="ssr:stedsnr" v="339384" />
	</node>
	<node lat="68.54091111270459" lon="14.999633338653943" id="-12277">
		<tag k="name" v="Hadselsjyen" />
		<tag k="place" v="farm" />
		<tag k="ssr:stedsnr" v="358630" />
	</node>
	<node lat="68.53262222377239" lon="14.970325000455276" id="-12299">
		<tag k="fixme" v="consider place=hamlet" />
		<tag k="name" v="Klakk" />
		<tag k="place" v="farm" />
		<tag k="ssr:stedsnr" v="363925" />
	</node>
	<node lat="68.582988890823" lon="15.037594454339278" id="-12308">
		<tag k="fixme" v="consider place=hamlet" />
		<tag k="name" v="Skagen" />
		<tag k="place" v="farm" />
		<tag k="ssr:stedsnr" v="381105" />
	</node>
	<node lat="68.59166944442416" lon="15.063680544081794" id="-12309">
		<tag k="alt_name" v="Kjellsnes" />
		<tag k="name" v="Kjeldnes" />
=======
	<node id="-197152" lat="68.4668499978" lon="15.1773388864">
		<tag k="name" v="Leirosen" />
		<tag k="place" v="isolated_dwelling" />
		<tag k="ssr:stedsnr" v="78730" />
	</node>
	<node id="-197884" lat="68.4633750022" lon="15.1909583247">
		<tag k="name" v="Kveldro" />
		<tag k="place" v="isolated_dwelling" />
		<tag k="ssr:stedsnr" v="525855" />
	</node>
	<node id="-195834" lat="68.3616222203" lon="14.880374992">
		<tag k="fixme" v="consider tourism=alpine_hut or tourism=chalet" />
		<tag k="name" v="Trollfjordhytta" />
		<tag k="ssr:stedsnr" v="213305" />
		<tag k="tourism" v="wilderness_hut" />
	</node>
	<node id="-195832" lat="68.6190024647" lon="14.8271357039">
		<tag k="alt_name" v="Kalsnes" />
		<tag k="fixme" v="consider place=hamlet" />
		<tag k="name" v="Kallsnes" />
		<tag k="place" v="farm" />
		<tag k="ssr:stedsnr" v="200524" />
	</node>
	<node id="-196820" lat="68.6669866533" lon="14.9457584097">
		<tag k="fixme" v="consider place=hamlet" />
		<tag k="name" v="Grønning" />
		<tag k="place" v="farm" />
		<tag k="ssr:stedsnr" v="928700" />
	</node>
	<node id="-195830" lat="68.5033999967" lon="15.2349916646">
		<tag k="name" v="Kleiva" />
		<tag k="place" v="farm" />
		<tag k="ssr:stedsnr" v="200410" />
	</node>
	<node id="-196346" lat="68.6274205726" lon="14.8209206965">
		<tag k="name" v="Varvika" />
		<tag k="place" v="hamlet" />
		<tag k="ssr:stedsnr" v="685490" />
	</node>
	<node id="-198388" lat="68.4543416659" lon="15.0238388884">
		<tag k="name" v="Kvannbekken" />
>>>>>>> e1d4bc35ff8a6074a6f2e91616a996b547c36f15
		<tag k="place" v="farm" />
		<tag k="ssr:stedsnr" v="381050" />
	</node>
<<<<<<< HEAD
	<node lat="68.59924267834991" lon="15.03812013821652" id="-12310">
		<tag k="fixme" v="consider place=hamlet" />
		<tag k="name" v="Marka" />
		<tag k="place" v="farm" />
		<tag k="ssr:stedsnr" v="381055" />
	</node>
	<node lat="68.5752416626132" lon="14.729463881830135" id="-12315">
		<tag k="alt_name" v="Breidvika" />
		<tag k="fixme" v="consider place=hamlet" />
		<tag k="name" v="Breivika" />
		<tag k="place" v="village" />
		<tag k="ssr:stedsnr" v="381928" />
	</node>
	<node lat="68.53320555204058" lon="15.253169450218824" id="-12322">
		<tag k="name" v="Storvollen" />
=======
	<node id="-196336" lat="68.5700166683" lon="15.2309305607">
		<tag k="name" v="Lauvbakken" />
>>>>>>> e1d4bc35ff8a6074a6f2e91616a996b547c36f15
		<tag k="place" v="farm" />
		<tag k="ssr:stedsnr" v="381390" />
	</node>
<<<<<<< HEAD
	<node lat="68.58966705902317" lon="14.963090221241893" id="-12335">
		<tag k="fixme" v="consider place=hamlet" />
		<tag k="name" v="Rå" />
=======
	<node id="-196335" lat="68.5646777776" lon="15.2128138839">
		<tag k="name" v="Steinsvik" />
>>>>>>> e1d4bc35ff8a6074a6f2e91616a996b547c36f15
		<tag k="place" v="farm" />
		<tag k="ssr:stedsnr" v="381576" />
	</node>
<<<<<<< HEAD
	<node lat="68.46990000031516" lon="15.225594446763393" id="-12347">
		<tag k="name" v="Hattvika" />
		<tag k="place" v="isolated_dwelling" />
		<tag k="ssr:stedsnr" v="381779" />
	</node>
	<node lat="68.54602241440833" lon="14.642335125290453" id="-12359">
		<tag k="fixme" v="consider place=hamlet" />
		<tag k="name" v="Utbjørg" />
=======
	<node id="-195821" lat="68.4605694475" lon="15.0505916603">
		<tag k="name" v="Hestleira" />
>>>>>>> e1d4bc35ff8a6074a6f2e91616a996b547c36f15
		<tag k="place" v="farm" />
		<tag k="ssr:stedsnr" v="382894" />
	</node>
<<<<<<< HEAD
	<node lat="68.5941000036362" lon="14.91011666062806" id="-12368">
		<tag k="name" v="Sausletta" />
=======
	<node id="-197868" lat="68.4680722207" lon="15.407630558">
		<tag k="name" v="Sætran" />
>>>>>>> e1d4bc35ff8a6074a6f2e91616a996b547c36f15
		<tag k="place" v="isolated_dwelling" />
		<tag k="ssr:stedsnr" v="397161" />
	</node>
<<<<<<< HEAD
	<node lat="68.52755555793043" lon="14.687591655600112" id="-12381">
		<tag k="name" v="Olshaugen" />
		<tag k="place" v="farm" />
		<tag k="ssr:stedsnr" v="398264" />
	</node>
	<node lat="68.60763610723744" lon="14.884174998423111" id="-12448">
		<tag k="name" v="Vikbotnen" />
		<tag k="place" v="farm" />
		<tag k="ssr:stedsnr" v="441608" />
	</node>
	<node lat="68.50585277679775" lon="15.273952788008891" id="-12459">
		<tag k="name" v="Vika" />
=======
	<node id="-197867" lat="68.507080554" lon="15.2741861097">
		<tag k="name" v="Finndalen" />
		<tag k="place" v="farm" />
		<tag k="ssr:stedsnr" v="521307" />
	</node>
	<node id="-197352" lat="68.4335722245" lon="14.754688901">
		<tag k="amenity" v="school" />
		<tag k="name" v="Strønstad skole" />
		<tag k="ssr:stedsnr" v="161084" />
	</node>
	<node id="-197724" lat="68.5147749958" lon="15.2630749926">
		<tag k="name" v="Hamneset" />
		<tag k="place" v="farm" />
		<tag k="ssr:stedsnr" v="381403" />
	</node>
	<node id="-197348" lat="68.579758336" lon="14.6635388805">
		<tag k="name" v="Søre Røyrvika" />
>>>>>>> e1d4bc35ff8a6074a6f2e91616a996b547c36f15
		<tag k="place" v="farm" />
		<tag k="ssr:stedsnr" v="442414" />
	</node>
<<<<<<< HEAD
	<node lat="68.58273333167078" lon="14.668891678111795" id="-12470">
		<tag k="alt_name" v="Røyrvika, nordre" />
		<tag k="name" v="Nordre Røyrvika" />
=======
	<node id="-196322" lat="68.3696888874" lon="14.7751777734">
		<tag k="name" v="Leirvikhaugen" />
>>>>>>> e1d4bc35ff8a6074a6f2e91616a996b547c36f15
		<tag k="place" v="farm" />
		<tag k="ssr:stedsnr" v="442580" />
	</node>
<<<<<<< HEAD
	<node lat="68.51028238688447" lon="14.919240943329273" id="-12478">
=======
	<node id="-198367" lat="68.415326627" lon="14.5510022724">
>>>>>>> e1d4bc35ff8a6074a6f2e91616a996b547c36f15
		<tag k="fixme" v="consider place=hamlet" />
		<tag k="name" v="Innbjørg" />
		<tag k="place" v="farm" />
		<tag k="ssr:stedsnr" v="442958" />
	</node>
<<<<<<< HEAD
	<node lat="68.54095277699427" lon="14.979180561863418" id="-12484">
		<tag k="name" v="Paradiset" />
=======
	<node id="-197342" lat="68.5747527805" lon="15.2832833445">
		<tag k="name" v="Kassenland" />
>>>>>>> e1d4bc35ff8a6074a6f2e91616a996b547c36f15
		<tag k="place" v="farm" />
		<tag k="ssr:stedsnr" v="443983" />
	</node>
	<node lat="68.57297222539736" lon="15.230583328218664" id="-12488">
		<tag k="name" v="Nygård" />
		<tag k="place" v="farm" />
		<tag k="ssr:stedsnr" v="502084" />
	</node>
<<<<<<< HEAD
	<node lat="68.3856222554094" lon="14.808928030455464" id="-12516">
=======
	<node id="-196317" lat="68.3887517282" lon="14.7216064131">
>>>>>>> e1d4bc35ff8a6074a6f2e91616a996b547c36f15
		<tag k="fixme" v="consider place=hamlet" />
		<tag k="name" v="Budalen" />
		<tag k="place" v="farm" />
		<tag k="ssr:stedsnr" v="502461" />
	</node>
<<<<<<< HEAD
	<node lat="68.51794203110065" lon="15.254882217892012" id="-12528">
		<tag k="fixme" v="consider place=hamlet" />
		<tag k="name" v="Lonkan" />
=======
	<node id="-198360" lat="68.5693361111" lon="15.2107805651">
		<tag k="name" v="Hogget" />
>>>>>>> e1d4bc35ff8a6074a6f2e91616a996b547c36f15
		<tag k="place" v="farm" />
		<tag k="ssr:stedsnr" v="503379" />
	</node>
<<<<<<< HEAD
	<node lat="68.53155278037606" lon="15.228438893161284" id="-12530">
		<tag k="fixme" v="consider place=suburb, village or hamlet" />
		<tag k="name" v="Hennes" />
		<tag k="place" v="quarter" />
		<tag k="ssr:stedsnr" v="503366" />
	</node>
	<node lat="68.52604750062402" lon="14.700337816248481" id="-12535">
		<tag k="alt_name" v="Ånnstad, in;Indre Ånstad" />
		<tag k="fixme" v="consider place=hamlet" />
		<tag k="name" v="Indre Ånnstad" />
		<tag k="place" v="farm" />
		<tag k="ssr:stedsnr" v="504000" />
	</node>
	<node lat="68.50308567970872" lon="14.879068019180975" id="-12542">
		<tag k="alt_name" v="Ekrene" />
		<tag k="fixme" v="consider place=hamlet" />
		<tag k="name" v="Ekren" />
		<tag k="place" v="farm" />
		<tag k="ssr:stedsnr" v="503936" />
	</node>
	<node lat="68.55806389225468" lon="14.88498888282931" id="-12549">
		<tag k="landuse" v="winter_sports" />
		<tag k="name" v="Nesbakken Skibakke" />
		<tag k="piste:type" v="downhill" />
		<tag k="ssr:stedsnr" v="519025" />
	</node>
	<node lat="68.46807222074918" lon="15.407630558021689" id="-12565">
		<tag k="name" v="Sætran" />
=======
	<node id="-197335" lat="68.4975416663" lon="14.7994527877">
		<tag k="building" v="industrial" />
		<tag k="industrial" v="factory" />
		<tag k="name" v="Melbu fiskeindustri" />
		<tag k="ssr:stedsnr" v="155727" />
	</node>
	<node id="-197332" lat="68.505708331" lon="14.7949110994">
		<tag k="leisure" v="pitch" />
		<tag k="name" v="Rundingen" />
		<tag k="ssr:stedsnr" v="155619" />
	</node>
	<node id="-198355" lat="68.4372611147" lon="15.1487416682">
		<tag k="name" v="Nilsvika" />
		<tag k="place" v="isolated_dwelling" />
		<tag k="ssr:stedsnr" v="805779" />
	</node>
	<node id="-197328" lat="68.6003083348" lon="15.0173333339">
		<tag k="name" v="Rødlia" />
>>>>>>> e1d4bc35ff8a6074a6f2e91616a996b547c36f15
		<tag k="place" v="isolated_dwelling" />
		<tag k="ssr:stedsnr" v="521392" />
	</node>
<<<<<<< HEAD
	<node lat="68.5779817583848" lon="14.712885359261936" id="-12568">
		<tag k="alt_name" v="Breivik ytre" />
		<tag k="fixme" v="consider place=hamlet" />
		<tag k="name" v="Ytter-Breivika" />
		<tag k="place" v="farm" />
		<tag k="ssr:stedsnr" v="525022" />
	</node>
	<node lat="68.46337500220454" lon="15.190958324722754" id="-12576">
		<tag k="name" v="Kveldro" />
		<tag k="place" v="isolated_dwelling" />
		<tag k="ssr:stedsnr" v="525855" />
	</node>
	<node lat="68.64079999686973" lon="14.821336100898849" id="-12595">
		<tag k="fixme" v="consider place=hamlet" />
		<tag k="name" v="Fleinnes" />
		<tag k="place" v="farm" />
		<tag k="ssr:stedsnr" v="545212" />
	</node>
	<node lat="68.51278888537942" lon="15.24368055191999" id="-12597">
		<tag k="name" v="Ramnklubbvika" />
		<tag k="place" v="isolated_dwelling" />
		<tag k="ssr:stedsnr" v="563380" />
	</node>
	<node lat="68.50587222642362" lon="15.346269443071236" id="-12599">
		<tag k="name" v="Gammelgården" />
		<tag k="place" v="isolated_dwelling" />
		<tag k="ssr:stedsnr" v="563394" />
	</node>
	<node lat="68.5024163145656" lon="15.22244742176349" id="-12600">
		<tag k="fixme" v="consider place=hamlet" />
		<tag k="name" v="Helgenes" />
		<tag k="place" v="farm" />
		<tag k="ssr:stedsnr" v="563395" />
	</node>
	<node lat="68.4478083331814" lon="14.910502777224869" id="-12616">
		<tag k="name" v="Ringen" />
		<tag k="place" v="farm" />
		<tag k="ssr:stedsnr" v="562319" />
	</node>
	<node lat="68.34697500014417" lon="15.010988894423846" id="-12621">
		<tag k="name" v="Lauksund" />
=======
	<node id="-195789" lat="68.4309083294" lon="15.2049416704">
		<tag k="loc_name:se" v="Gonga" />
		<tag k="name" v="Kongsmark" />
		<tag k="name:no" v="Kongsmark" />
		<tag k="place" v="hamlet" />
		<tag k="ssr:stedsnr" v="283924" />
	</node>
	<node id="-195618" lat="68.5992555596" lon="15.0469777747">
		<tag k="name" v="Setra" />
		<tag k="place" v="isolated_dwelling" />
		<tag k="ssr:stedsnr" v="259570" />
	</node>
	<node id="-197127" lat="68.4291694398" lon="14.8197388964">
		<tag k="fixme" v="consider place=hamlet" />
		<tag k="name" v="Fiskebøl" />
		<tag k="place" v="farm" />
		<tag k="ssr:stedsnr" v="78338" />
	</node>
	<node id="-197409" lat="68.5321805581" lon="14.9678527808">
		<tag k="name" v="Klakk" />
		<tag k="place" v="farm" />
		<tag k="ssr:stedsnr" v="181950" />
	</node>
	<node id="-198006" lat="68.3472999983" lon="15.0550777754">
		<tag k="alt_name" v="Ramnvika;Ramnvik" />
		<tag k="name" v="Ramvika" />
		<tag k="place" v="isolated_dwelling" />
		<tag k="ssr:stedsnr" v="563996" />
	</node>
	<node id="-195778" lat="68.6655888842" lon="14.9609861214">
		<tag k="name" v="Slettstrand" />
>>>>>>> e1d4bc35ff8a6074a6f2e91616a996b547c36f15
		<tag k="place" v="farm" />
		<tag k="ssr:stedsnr" v="562366" />
	</node>
<<<<<<< HEAD
	<node lat="68.48147027517314" lon="15.148556684394814" id="-12629">
		<tag k="alt_name" v="Brottøy" />
		<tag k="fixme" v="consider place=hamlet" />
		<tag k="name" v="Brottøya" />
		<tag k="place" v="farm" />
		<tag k="ssr:stedsnr" v="562641" />
	</node>
	<node lat="68.61556944159966" lon="15.155841669098848" id="-12642">
=======
	<node id="-198603" lat="68.5991194453" lon="15.0702833286">
		<tag k="name" v="Røsslers Minde" />
		<tag k="place" v="isolated_dwelling" />
		<tag k="ssr:stedsnr" v="950511" />
	</node>
	<node id="-197311" lat="68.3823974131" lon="15.0902130247">
		<tag k="alt_name" v="Brubrekk" />
>>>>>>> e1d4bc35ff8a6074a6f2e91616a996b547c36f15
		<tag k="fixme" v="consider place=hamlet" />
		<tag k="name" v="Gjerstad" />
		<tag k="place" v="farm" />
		<tag k="ssr:stedsnr" v="563001" />
	</node>
<<<<<<< HEAD
	<node lat="68.5685333373706" lon="15.306619447270016" id="-12645">
		<tag k="name" v="Paradis" />
=======
	<node id="-196286" lat="68.6043527798" lon="15.097391663">
		<tag k="alt_name" v="Tjørnboghøgda" />
		<tag k="name" v="Tjønnboghøgda" />
>>>>>>> e1d4bc35ff8a6074a6f2e91616a996b547c36f15
		<tag k="place" v="farm" />
		<tag k="ssr:stedsnr" v="563078" />
	</node>
<<<<<<< HEAD
	<node lat="68.54478333152835" lon="15.197900003174219" id="-12651">
		<tag k="alt_name" v="Hennes, nedre" />
		<tag k="name" v="Nedre Hennes" />
=======
	<node id="-196285" lat="68.6026916668" lon="15.0849083241">
		<tag k="alt_name" v="Raen" />
		<tag k="name" v="Raene" />
>>>>>>> e1d4bc35ff8a6074a6f2e91616a996b547c36f15
		<tag k="place" v="farm" />
		<tag k="ssr:stedsnr" v="563107" />
	</node>
<<<<<<< HEAD
	<node lat="68.53018332965588" lon="15.261722213162312" id="-12661">
		<tag k="name" v="Nygård" />
=======
	<node id="-196284" lat="68.6084333343" lon="15.1271833331">
		<tag k="name" v="Gryttingsnes" />
>>>>>>> e1d4bc35ff8a6074a6f2e91616a996b547c36f15
		<tag k="place" v="farm" />
		<tag k="ssr:stedsnr" v="563367" />
	</node>
<<<<<<< HEAD
	<node lat="68.53365833020352" lon="15.210552771012763" id="-12662">
		<tag k="name" v="Hennesstranda" />
		<tag k="place" v="farm" />
		<tag k="ssr:stedsnr" v="563369" />
	</node>
	<node lat="68.63811666881469" lon="14.822022232697796" id="-12667">
		<tag k="alt_name" v="Fleines" />
		<tag k="name" v="Fleinnes" />
		<tag k="place" v="hamlet" />
		<tag k="ssr:stedsnr" v="563534" />
	</node>
	<node lat="68.46063888979756" lon="15.082005555225752" id="-12675">
		<tag k="name" v="Myran" />
		<tag k="place" v="farm" />
		<tag k="ssr:stedsnr" v="563721" />
	</node>
	<node lat="68.54975769186312" lon="14.640164611567949" id="-12683">
		<tag k="fixme" v="consider place=hamlet" />
		<tag k="name" v="Taen" />
		<tag k="place" v="farm" />
		<tag k="ssr:stedsnr" v="563894" />
	</node>
	<node lat="68.3472999982825" lon="15.055077775384364" id="-12692">
		<tag k="alt_name" v="Ramnvika;Ramnvik" />
		<tag k="name" v="Ramvika" />
		<tag k="place" v="isolated_dwelling" />
		<tag k="ssr:stedsnr" v="563996" />
	</node>
	<node lat="68.58861666953432" lon="14.90155834155768" id="-12699">
		<tag k="name" v="Åsenden" />
		<tag k="place" v="isolated_dwelling" />
		<tag k="ssr:stedsnr" v="579123" />
	</node>
	<node lat="68.4995277817101" lon="14.739675011268288" id="-12707">
		<tag k="name" v="Kvitsandvollen" />
		<tag k="place" v="locality" />
		<tag k="ssr:stedsnr" v="580728" />
	</node>
	<node lat="68.50465833664408" lon="15.315877788613326" id="-12715">
		<tag k="name" v="Mellagården" />
=======
	<node id="-196793" lat="68.42813889" lon="14.6084250043">
		<tag k="name" v="Solhøgda" />
		<tag k="place" v="farm" />
		<tag k="ssr:stedsnr" v="806363" />
	</node>
	<node id="-198260" lat="68.541898766" lon="14.6621655106">
		<tag k="fixme" v="consider place=hamlet" />
		<tag k="name" v="Hokland" />
		<tag k="place" v="farm" />
		<tag k="ssr:stedsnr" v="746987" />
	</node>
	<node id="-197299" lat="68.4637500019" lon="15.2577472174">
		<tag k="fixme" v="consider place=hamlet" />
		<tag k="name" v="Storå - Stuorrovvi" />
		<tag k="name:no" v="Storå" />
		<tag k="name:se" v="Stuorrovvi" />
		<tag k="place" v="farm" />
		<tag k="ssr:stedsnr" v="138720" />
	</node>
	<node id="-198322" lat="68.4466888931" lon="15.034247225">
		<tag k="name" v="Fjorden" />
>>>>>>> e1d4bc35ff8a6074a6f2e91616a996b547c36f15
		<tag k="place" v="farm" />
		<tag k="ssr:stedsnr" v="586020" />
	</node>
<<<<<<< HEAD
	<node lat="68.64058055914185" lon="14.818630557491101" id="-12730">
		<tag k="name" v="Skallan" />
		<tag k="place" v="isolated_dwelling" />
		<tag k="ssr:stedsnr" v="600632" />
	</node>
	<node lat="68.588378701395" lon="14.935268112533452" id="-12766">
		<tag k="fixme" v="consider place=hamlet" />
		<tag k="name" v="Hov" />
		<tag k="place" v="farm" />
		<tag k="ssr:stedsnr" v="624561" />
	</node>
	<node lat="68.55572778012134" lon="15.21269443562499" id="-12771">
		<tag k="alt_name" v="Litlesæter" />
		<tag k="name" v="Lilleseter" />
=======
	<node id="-196785" lat="68.4462861134" lon="15.0389527687">
		<tag k="name" v="Myrlandsfjorden" />
		<tag k="place" v="farm" />
		<tag k="ssr:stedsnr" v="927794" />
	</node>
	<node id="-197654" lat="68.5409111127" lon="14.9996333387">
		<tag k="name" v="Hadselsjyen" />
		<tag k="place" v="farm" />
		<tag k="ssr:stedsnr" v="358630" />
	</node>
	<node id="-196781" lat="68.4361750016" lon="15.1811222343">
		<tag k="alt_name" v="Kongselv" />
		<tag k="fixme" v="consider place=hamlet" />
		<tag k="name" v="Kongselva" />
>>>>>>> e1d4bc35ff8a6074a6f2e91616a996b547c36f15
		<tag k="place" v="farm" />
		<tag k="ssr:stedsnr" v="624142" />
	</node>
<<<<<<< HEAD
	<node lat="68.5024722183807" lon="15.244886100166541" id="-12773">
		<tag k="alt_name" v="Dalmo" />
		<tag k="name" v="Dalmoa" />
		<tag k="place" v="farm" />
		<tag k="ssr:stedsnr" v="624431" />
	</node>
	<node lat="68.52725000137774" lon="15.268130562137948" id="-12774">
		<tag k="name" v="Elverhøy" />
		<tag k="place" v="isolated_dwelling" />
		<tag k="ssr:stedsnr" v="624391" />
	</node>
	<node lat="68.55458889247451" lon="14.970680548961282" id="-12785">
		<tag k="name" v="Kråa" />
=======
	<node id="-197705" lat="68.5916694444" lon="15.0636805441">
		<tag k="alt_name" v="Kjellsnes" />
		<tag k="name" v="Kjeldnes" />
		<tag k="place" v="farm" />
		<tag k="ssr:stedsnr" v="381050" />
	</node>
	<node id="-197004" lat="68.5151194458" lon="14.7252972289">
		<tag k="alt_name" v="Ångstad" />
		<tag k="fixme" v="consider place=hamlet" />
		<tag k="name" v="Ongstad" />
		<tag k="place" v="farm" />
		<tag k="ssr:stedsnr" v="18925" />
	</node>
	<node id="-197287" lat="68.424988888" lon="14.6707833399">
		<tag k="name" v="Sommarhusstranda" />
		<tag k="place" v="farm" />
		<tag k="ssr:stedsnr" v="138388" />
	</node>
	<node id="-195932" lat="68.5102823869" lon="14.9192409433">
		<tag k="fixme" v="consider place=hamlet" />
		<tag k="name" v="Innbjørg" />
		<tag k="place" v="farm" />
		<tag k="ssr:stedsnr" v="442958" />
	</node>
	<node id="-197795" lat="68.5275555579" lon="14.6875916556">
		<tag k="name" v="Olshaugen" />
>>>>>>> e1d4bc35ff8a6074a6f2e91616a996b547c36f15
		<tag k="place" v="farm" />
		<tag k="ssr:stedsnr" v="624897" />
	</node>
<<<<<<< HEAD
	<node lat="68.54347777893409" lon="14.974908335541288" id="-12792">
		<tag k="name" v="Lyngen" />
=======
	<node id="-196257" lat="68.5705249983" lon="15.3208000095">
		<tag k="name" v="Finnjorda" />
>>>>>>> e1d4bc35ff8a6074a6f2e91616a996b547c36f15
		<tag k="place" v="farm" />
		<tag k="ssr:stedsnr" v="624976" />
	</node>
	<node lat="68.54011944656875" lon="15.190480564446732" id="-12803">
		<tag k="name" v="Svingjerdet" />
		<tag k="place" v="farm" />
		<tag k="ssr:stedsnr" v="641222" />
	</node>
	<node lat="68.44808611517286" lon="15.047397223393187" id="-12853">
		<tag k="name" v="Myrlandsbotn" />
		<tag k="place" v="farm" />
		<tag k="ssr:stedsnr" v="663802" />
	</node>
<<<<<<< HEAD
	<node lat="68.60985833325178" lon="15.117655554628703" id="-12872">
		<tag k="fixme" v="consider place=hamlet" />
		<tag k="name" v="Grytting" />
		<tag k="place" v="farm" />
		<tag k="ssr:stedsnr" v="745002" />
	</node>
	<node lat="68.61806944805925" lon="15.135772213963342" id="-12873">
		<tag k="alt_name" v="Teigan" />
		<tag k="name" v="Teigen" />
=======
	<node id="-198199" lat="68.498002775" lon="15.2909944474">
		<tag k="name" v="Sætran" />
		<tag k="place" v="neighbourhood" />
		<tag k="ssr:stedsnr" v="646827" />
	</node>
	<node id="-195741" lat="68.4323944412" lon="14.6155361178">
		<tag k="name" v="Gammelgården" />
>>>>>>> e1d4bc35ff8a6074a6f2e91616a996b547c36f15
		<tag k="place" v="farm" />
		<tag k="ssr:stedsnr" v="745019" />
	</node>
<<<<<<< HEAD
	<node lat="68.55322778074431" lon="15.210319433667502" id="-12876">
		<tag k="alt_name" v="Lappkjerra" />
		<tag k="name" v="Lappkjerran" />
=======
	<node id="-197788" lat="68.6110000039" lon="15.1169916606">
		<tag k="name" v="Marithaugen" />
>>>>>>> e1d4bc35ff8a6074a6f2e91616a996b547c36f15
		<tag k="place" v="farm" />
		<tag k="ssr:stedsnr" v="745150" />
	</node>
<<<<<<< HEAD
	<node lat="68.45707777730394" lon="15.179899997216253" id="-12897">
		<tag k="name" v="Hanskjellvika" />
=======
	<node id="-197274" lat="68.5507277756" lon="15.2018416649">
		<tag k="alt_name" v="Raen" />
		<tag k="name" v="Raene" />
>>>>>>> e1d4bc35ff8a6074a6f2e91616a996b547c36f15
		<tag k="place" v="farm" />
		<tag k="ssr:stedsnr" v="745748" />
	</node>
<<<<<<< HEAD
	<node lat="68.5633067409499" lon="14.739542974584097" id="-12906">
		<tag k="alt_name" v="Vatndal" />
		<tag k="fixme" v="consider place=hamlet" />
		<tag k="name" v="Vatndalen" />
		<tag k="place" v="farm" />
		<tag k="ssr:stedsnr" v="746902" />
	</node>
	<node lat="68.54189876596716" lon="14.662165510564092" id="-12907">
		<tag k="fixme" v="consider place=hamlet" />
		<tag k="name" v="Hokland" />
		<tag k="place" v="farm" />
		<tag k="ssr:stedsnr" v="746987" />
	</node>
	<node lat="68.58538333019195" lon="15.041713896512904" id="-12912">
		<tag k="name" v="Raen" />
		<tag k="place" v="isolated_dwelling" />
		<tag k="ssr:stedsnr" v="761832" />
	</node>
	<node lat="68.4466888931316" lon="15.03424722502304" id="-12956">
		<tag k="name" v="Fjorden" />
		<tag k="place" v="farm" />
		<tag k="ssr:stedsnr" v="783595" />
	</node>
	<node lat="68.43617500159236" lon="15.181122234294987" id="-12988">
		<tag k="alt_name" v="Kongselv" />
		<tag k="fixme" v="consider place=hamlet" />
		<tag k="name" v="Kongselva" />
		<tag k="place" v="farm" />
		<tag k="ssr:stedsnr" v="805759" />
	</node>
	<node lat="68.43726111469577" lon="15.148741668164632" id="-12989">
		<tag k="name" v="Nilsvika" />
=======
	<node id="-198255" lat="68.5015611128" lon="15.2420388791">
		<tag k="name" v="Dalelv" />
		<tag k="place" v="farm" />
		<tag k="ssr:stedsnr" v="746403" />
	</node>
	<node id="-195736" lat="68.5163166651" lon="15.2589083359">
		<tag k="name" v="Hamn" />
		<tag k="place" v="farm" />
		<tag k="ssr:stedsnr" v="161057" />
	</node>
	<node id="-197782" lat="68.6015750039" lon="15.0763805464">
		<tag k="name" v="Plassen" />
		<tag k="place" v="isolated_dwelling" />
		<tag k="ssr:stedsnr" v="397784" />
	</node>
	<node id="-197960" lat="68.5447833315" lon="15.1979000032">
		<tag k="alt_name" v="Hennes, nedre" />
		<tag k="name" v="Nedre Hennes" />
		<tag k="place" v="farm" />
		<tag k="ssr:stedsnr" v="563107" />
	</node>
	<node id="-196301" lat="68.4325565842" lon="14.6214225114">
		<tag k="fixme" v="consider place=hamlet" />
		<tag k="name" v="Sanden" />
		<tag k="old_name" v="Hadselsand" />
		<tag k="place" v="farm" />
		<tag k="ssr:stedsnr" v="684326" />
	</node>
	<node id="-197774" lat="68.5941000036" lon="14.9101166606">
		<tag k="name" v="Sausletta" />
>>>>>>> e1d4bc35ff8a6074a6f2e91616a996b547c36f15
		<tag k="place" v="isolated_dwelling" />
		<tag k="ssr:stedsnr" v="805779" />
	</node>
<<<<<<< HEAD
	<node lat="68.56933611109747" lon="15.21078056505593" id="-12997">
		<tag k="name" v="Hogget" />
		<tag k="place" v="farm" />
		<tag k="ssr:stedsnr" v="806066" />
	</node>
	<node lat="68.46832500293684" lon="15.179036100039426" id="-13000">
		<tag k="name" v="Hanøyvika" />
		<tag k="place" v="hamlet" />
		<tag k="ssr:stedsnr" v="806754" />
	</node>
	<node lat="68.41532662698782" lon="14.551002272361512" id="-13005">
		<tag k="fixme" v="consider place=hamlet" />
		<tag k="name" v="Grunnfør" />
=======
	<node id="-196745" lat="68.6731111128" lon="15.046319434">
		<tag k="alt_name" v="Straumfjord, ytre" />
		<tag k="name" v="Ytre Straumfjord" />
>>>>>>> e1d4bc35ff8a6074a6f2e91616a996b547c36f15
		<tag k="place" v="farm" />
		<tag k="ssr:stedsnr" v="806284" />
	</node>
<<<<<<< HEAD
	<node lat="68.42813889001526" lon="14.60842500428213" id="-13008">
		<tag k="name" v="Solhøgda" />
		<tag k="place" v="farm" />
		<tag k="ssr:stedsnr" v="806363" />
	</node>
	<node lat="68.45434166590164" lon="15.023838888365683" id="-13032">
		<tag k="name" v="Kvannbekken" />
		<tag k="place" v="farm" />
		<tag k="ssr:stedsnr" v="806725" />
	</node>
	<node lat="68.56635555365925" lon="14.856941676700341" id="-13044">
		<tag k="alt_name" v="Ålskogen" />
		<tag k="name" v="Ålskogan" />
=======
	<node id="-197313" lat="68.5744222264" lon="14.8217389002">
		<tag k="alt_name" v="Laupstrandneset" />
		<tag k="name" v="Laupstrandodden" />
		<tag k="place" v="farm" />
		<tag k="ssr:stedsnr" v="138916" />
	</node>
	<node id="-197763" lat="68.5460224144" lon="14.6423351253">
		<tag k="fixme" v="consider place=hamlet" />
		<tag k="name" v="Utbjørg" />
		<tag k="place" v="farm" />
		<tag k="ssr:stedsnr" v="382894" />
	</node>
	<node id="-197250" lat="68.5822416697" lon="15.0413222266">
		<tag k="name" v="Gammelgården" />
>>>>>>> e1d4bc35ff8a6074a6f2e91616a996b547c36f15
		<tag k="place" v="farm" />
		<tag k="ssr:stedsnr" v="806932" />
	</node>
<<<<<<< HEAD
	<node lat="68.60644166527469" lon="15.107427779706144" id="-13074">
		<tag k="name" v="Gryttingsnes" />
=======
	<node id="-196225" lat="68.4480861152" lon="15.0473972234">
		<tag k="name" v="Myrlandsbotn" />
>>>>>>> e1d4bc35ff8a6074a6f2e91616a996b547c36f15
		<tag k="place" v="farm" />
		<tag k="ssr:stedsnr" v="822790" />
	</node>
<<<<<<< HEAD
	<node lat="68.55273610921232" lon="14.98121945265706" id="-13077">
		<tag k="name" v="Tomta" />
		<tag k="place" v="locality" />
		<tag k="ssr:stedsnr" v="823439" />
	</node>
	<node lat="68.57544420330478" lon="15.231035880659727" id="-13081">
		<tag k="fixme" v="consider place=hamlet" />
		<tag k="name" v="Kvitnes" />
=======
	<node id="-198271" lat="68.6136722184" lon="15.1608888886">
		<tag k="name" v="Harvollen" />
>>>>>>> e1d4bc35ff8a6074a6f2e91616a996b547c36f15
		<tag k="place" v="farm" />
		<tag k="ssr:stedsnr" v="823893" />
	</node>
<<<<<<< HEAD
	<node lat="68.55760278166657" lon="14.619722219684268" id="-13083">
		<tag k="name" v="Storvik" />
		<tag k="place" v="farm" />
		<tag k="ssr:stedsnr" v="825548" />
	</node>
	<node lat="68.35173708037904" lon="15.024005864126712" id="-13147">
=======
	<node id="-196731" lat="68.5773323525" lon="14.6620514098">
>>>>>>> e1d4bc35ff8a6074a6f2e91616a996b547c36f15
		<tag k="fixme" v="consider place=hamlet" />
		<tag k="name" v="Ulvøya" />
		<tag k="place" v="farm" />
		<tag k="ssr:stedsnr" v="866871" />
	</node>
<<<<<<< HEAD
	<node lat="68.62478611397455" lon="15.18714167484325" id="-13150">
		<tag k="name" v="Fagerheim" />
=======
	<node id="-196217" lat="68.456274999" lon="15.0479499927">
		<tag k="name" v="Heimergården" />
>>>>>>> e1d4bc35ff8a6074a6f2e91616a996b547c36f15
		<tag k="place" v="farm" />
		<tag k="ssr:stedsnr" v="867024" />
	</node>
<<<<<<< HEAD
	<node lat="68.40667499667202" lon="15.120769455494852" id="-13156">
		<tag k="alt_name" v="Raftstranda, s;Søre Raftstrand" />
		<tag k="name" v="Søre Raftstranda" />
=======
	<node id="-196728" lat="68.5887666709" lon="14.8528722148">
		<tag k="name" v="Silsanden" />
>>>>>>> e1d4bc35ff8a6074a6f2e91616a996b547c36f15
		<tag k="place" v="farm" />
		<tag k="ssr:stedsnr" v="867879" />
	</node>
<<<<<<< HEAD
	<node lat="68.57087539543721" lon="14.636099437078446" id="-13161">
=======
	<node id="-197751" lat="68.5752416626" lon="14.7294638818">
>>>>>>> e1d4bc35ff8a6074a6f2e91616a996b547c36f15
		<tag k="fixme" v="consider place=hamlet" />
		<tag k="name" v="Jerpvoll" />
		<tag k="place" v="farm" />
		<tag k="ssr:stedsnr" v="867918" />
	</node>
<<<<<<< HEAD
	<node lat="68.53238889135453" lon="14.988405556569662" id="-13164">
		<tag k="name" v="Vangen" />
		<tag k="place" v="farm" />
		<tag k="ssr:stedsnr" v="867992" />
	</node>
	<node lat="68.34404678405512" lon="15.053256059253226" id="-13165">
		<tag k="fixme" v="consider place=hamlet" />
		<tag k="name" v="Finnkjerka" />
		<tag k="place" v="farm" />
		<tag k="ssr:stedsnr" v="867995" />
	</node>
	<node lat="68.42125643698758" lon="14.703249715751134" id="-13171">
		<tag k="alt_name" v="Seloter" />
		<tag k="fixme" v="consider place=hamlet" />
		<tag k="name" v="Sellåter" />
		<tag k="place" v="farm" />
		<tag k="ssr:stedsnr" v="867388" />
	</node>
	<node lat="68.57566328538235" lon="14.65722968260123" id="-13186">
=======
	<node id="-196969" lat="68.5877846601" lon="14.8997866675">
		<tag k="fixme" v="consider place=suburb, village or hamlet" />
		<tag k="name" v="Sandnes" />
		<tag k="place" v="quarter" />
		<tag k="ssr:stedsnr" v="17568" />
	</node>
	<node id="-195700" lat="68.4988886849" lon="14.7948981004">
		<tag k="name" v="Melbu" />
		<tag k="place" v="village" />
		<tag k="ssr:stedsnr" v="137129" />
	</node>
	<node id="-197669" lat="68.5326222238" lon="14.9703250005">
		<tag k="fixme" v="consider place=hamlet" />
		<tag k="name" v="Klakk" />
		<tag k="place" v="farm" />
		<tag k="ssr:stedsnr" v="363925" />
	</node>
	<node id="-198256" lat="68.5633067409" lon="14.7395429746">
		<tag k="alt_name" v="Vatndal" />
>>>>>>> e1d4bc35ff8a6074a6f2e91616a996b547c36f15
		<tag k="fixme" v="consider place=hamlet" />
		<tag k="name" v="Teigan" />
		<tag k="place" v="farm" />
		<tag k="ssr:stedsnr" v="867583" />
	</node>
<<<<<<< HEAD
	<node lat="68.65020555728266" lon="14.886150000638766" id="-13196">
		<tag k="name" v="Bugen" />
=======
	<node id="-196207" lat="68.5469083344" lon="14.992083337">
		<tag k="name" v="Skogly" />
>>>>>>> e1d4bc35ff8a6074a6f2e91616a996b547c36f15
		<tag k="place" v="farm" />
		<tag k="ssr:stedsnr" v="867716" />
	</node>
<<<<<<< HEAD
	<node lat="68.44900187310577" lon="15.201639870669743" id="-13198">
		<tag k="fixme" v="consider place=hamlet" />
		<tag k="name" v="Steinbakken" />
=======
	<node id="-196206" lat="68.5546916683" lon="14.9879388792">
		<tag k="name" v="Hadselhamn" />
>>>>>>> e1d4bc35ff8a6074a6f2e91616a996b547c36f15
		<tag k="place" v="farm" />
		<tag k="ssr:stedsnr" v="867736" />
	</node>
<<<<<<< HEAD
	<node lat="68.43313055482598" lon="14.623786101507404" id="-13228">
		<tag k="name" v="Gammelgård" />
		<tag k="place" v="farm" />
		<tag k="ssr:stedsnr" v="889136" />
	</node>
	<node lat="68.42420277475662" lon="14.673011101863143" id="-13230">
		<tag k="name" v="Høgda" />
		<tag k="place" v="farm" />
		<tag k="ssr:stedsnr" v="889088" />
	</node>
	<node lat="68.50317222149756" lon="14.757841661412412" id="-13250">
		<tag k="name" v="Kroken" />
		<tag k="place" v="farm" />
		<tag k="ssr:stedsnr" v="944727" />
	</node>
	<node lat="68.65771667043448" lon="14.919266668642832" id="-13289">
		<tag k="name" v="Leite" />
=======
	<node id="-197053" lat="68.5684944405" lon="14.6299111061">
		<tag k="name" v="Kaldstadvågen" />
		<tag k="place" v="farm" />
		<tag k="ssr:stedsnr" v="39042" />
	</node>
	<node id="-197738" lat="68.4699000003" lon="15.2255944468">
		<tag k="name" v="Hattvika" />
		<tag k="place" v="isolated_dwelling" />
		<tag k="ssr:stedsnr" v="381779" />
	</node>
	<node id="-196199" lat="68.5580638923" lon="14.8849888828">
		<tag k="landuse" v="winter_sports" />
		<tag k="name" v="Nesbakken Skibakke" />
		<tag k="piste:type" v="downhill" />
		<tag k="ssr:stedsnr" v="519025" />
	</node>
	<node id="-197733" lat="68.589667059" lon="14.9630902212">
		<tag k="fixme" v="consider place=hamlet" />
		<tag k="name" v="Rå" />
>>>>>>> e1d4bc35ff8a6074a6f2e91616a996b547c36f15
		<tag k="place" v="farm" />
		<tag k="ssr:stedsnr" v="952736" />
	</node>
<<<<<<< HEAD
	<node lat="68.5310694477948" lon="14.964083339846212" id="-13303">
		<tag k="name" v="Klakk" />
		<tag k="place" v="farm" />
		<tag k="ssr:stedsnr" v="970682" />
	</node>
	<node lat="68.54075851634488" lon="14.984208780672503" id="-13306">
		<tag k="name" v="Rønningen" />
=======
	<node id="-195684" lat="68.5323333293" lon="14.9670944386">
		<tag k="name" v="Klakk" />
		<tag k="place" v="hamlet" />
		<tag k="ssr:stedsnr" v="260994" />
	</node>
	<node id="-197990" lat="68.4606388898" lon="15.0820055552">
		<tag k="name" v="Myran" />
		<tag k="place" v="farm" />
		<tag k="ssr:stedsnr" v="563721" />
	</node>
	<node id="-197111" lat="68.4816970711" lon="15.2559596263">
		<tag k="fixme" v="consider place=hamlet" />
		<tag k="name" v="Sommarset" />
		<tag k="place" v="farm" />
		<tag k="ssr:stedsnr" v="77728" />
	</node>
	<node id="-198241" lat="68.5952083365" lon="14.8468749928">
		<tag k="name" v="Solskinsvika" />
>>>>>>> e1d4bc35ff8a6074a6f2e91616a996b547c36f15
		<tag k="place" v="farm" />
		<tag k="ssr:stedsnr" v="983687" />
	</node>
<<<<<<< HEAD
	<node lat="68.5409415820338" lon="14.996305906735445" id="-13307">
		<tag k="name" v="Hadsel" />
		<tag k="place" v="hamlet" />
		<tag k="ssr:stedsnr" v="1076257" />
	</node>
	<node lat="68.56727627699291" lon="14.933681324946827" id="-13308">
=======
	<node id="-198240" lat="68.5905349785" lon="14.8611877803">
		<tag k="fixme" v="consider place=hamlet" />
		<tag k="name" v="Holmsnes" />
		<tag k="place" v="farm" />
		<tag k="ssr:stedsnr" v="745585" />
	</node>
	<node id="-198238" lat="68.4007298437" lon="15.0972804401">
>>>>>>> e1d4bc35ff8a6074a6f2e91616a996b547c36f15
		<tag k="fixme" v="consider place=hamlet" />
		<tag k="name" v="Børøya" />
		<tag k="place" v="farm" />
<<<<<<< HEAD
		<tag k="ssr:stedsnr" v="1076258" />
	</node>
	<node lat="68.56447281024279" lon="14.895218774167322" id="-13309">
		<tag k="name" v="Stokmarken" />
		<tag k="place" v="locality" />
		<tag k="ssr:stedsnr" v="1076259" />
	</node>
	<node lat="68.57467619580629" lon="14.783505258671486" id="-13310">
		<tag k="fixme" v="consider place=hamlet" />
=======
		<tag k="ssr:stedsnr" v="745874" />
	</node>
	<node id="-195677" lat="68.5655245688" lon="14.9045479087">
		<tag k="loc_name:se" v="Njárga" />
		<tag k="name" v="Stokmarknes" />
		<tag k="name:no" v="Stokmarknes" />
		<tag k="place" v="town" />
		<tag k="ssr:stedsnr" v="260956" />
	</node>
	<node id="-198236" lat="68.4570777773" lon="15.1798999972">
		<tag k="name" v="Hanskjellvika" />
		<tag k="place" v="farm" />
		<tag k="ssr:stedsnr" v="745748" />
	</node>
	<node id="-195675" lat="68.5771416624" lon="14.7713999953">
		<tag k="alt_name" v="Flatset ytre" />
>>>>>>> e1d4bc35ff8a6074a6f2e91616a996b547c36f15
		<tag k="name" v="Flatset" />
		<tag k="place" v="farm" />
		<tag k="ssr:stedsnr" v="1076261" />
	</node>
	<node lat="68.5748346479075" lon="14.716989300532468" id="-13311">
		<tag k="name" v="Breivika" />
		<tag k="place" v="hamlet" />
		<tag k="ssr:stedsnr" v="1076262" />
	</node>
<<<<<<< HEAD
	<node lat="68.58568513056804" lon="14.906818311914027" id="-13312">
=======
	<node id="-196696" lat="68.5671972208" lon="14.8496666651">
>>>>>>> e1d4bc35ff8a6074a6f2e91616a996b547c36f15
		<tag k="fixme" v="consider place=hamlet" />
		<tag k="name" v="Sandnes" />
		<tag k="place" v="farm" />
		<tag k="ssr:stedsnr" v="1076268" />
	</node>
<<<<<<< HEAD
	<node lat="68.53801141620139" lon="15.203743949251296" id="-13317">
		<tag k="name" v="Hennes" />
		<tag k="place" v="hamlet" />
		<tag k="ssr:stedsnr" v="1076193" />
	</node>
	<node lat="68.45417612656021" lon="14.895950623803477" id="-13318">
		<tag k="alt_name" v="Holdøy" />
		<tag k="fixme" v="consider place=hamlet" />
		<tag k="name" v="Holdøya" />
		<tag k="place" v="farm" />
		<tag k="ssr:stedsnr" v="1076195" />
	</node>
	<node lat="68.39686461607407" lon="14.826547108822288" id="-13319">
		<tag k="name" v="Brettvika" />
		<tag k="place" v="locality" />
		<tag k="ssr:stedsnr" v="1076196" />
	</node>
	<node lat="68.42946977815603" lon="14.859812191611663" id="-13320">
		<tag k="name" v="Årnøya" />
		<tag k="place" v="locality" />
		<tag k="ssr:stedsnr" v="1076198" />
	</node>
	<node lat="68.43280404217226" lon="14.727730812898379" id="-13321">
		<tag k="fixme" v="consider place=hamlet" />
		<tag k="name" v="Strønstad" />
		<tag k="place" v="farm" />
		<tag k="ssr:stedsnr" v="1076199" />
	</node>
	<node lat="68.58154179498622" lon="14.66396283414577" id="-13322">
		<tag k="fixme" v="consider place=hamlet" />
		<tag k="name" v="Røyrvika" />
		<tag k="place" v="farm" />
		<tag k="ssr:stedsnr" v="1076201" />
	</node>
	<node lat="68.5588400256329" lon="14.681723277639845" id="-13323">
		<tag k="name" v="Dalen" />
		<tag k="place" v="locality" />
		<tag k="ssr:stedsnr" v="1076202" />
	</node>
	<node lat="68.505481227864" lon="14.801008157102778" id="-13324">
		<tag k="name" v="Melbu" />
		<tag k="place" v="locality" />
		<tag k="ssr:stedsnr" v="1076205" />
	</node>
	<node lat="68.652924404185" lon="14.864381311543157" id="-13325">
=======
	<node id="-197719" lat="68.533205552" lon="15.2531694502">
		<tag k="name" v="Storvollen" />
		<tag k="place" v="farm" />
		<tag k="ssr:stedsnr" v="381390" />
	</node>
	<node id="-198401" lat="68.5663555537" lon="14.8569416767">
		<tag k="alt_name" v="Ålskogen" />
		<tag k="name" v="Ålskogan" />
		<tag k="place" v="farm" />
		<tag k="ssr:stedsnr" v="806932" />
	</node>
	<node id="-196692" lat="68.5734333315" lon="14.8208583207">
		<tag k="name" v="Frydenlund" />
		<tag k="place" v="farm" />
		<tag k="ssr:stedsnr" v="745927" />
	</node>
	<node id="-197494" lat="68.4643694441" lon="15.2585111157">
		<tag k="loc_name:se" v="Stuorrovvi" />
		<tag k="name" v="Storå" />
		<tag k="name:no" v="Storå" />
		<tag k="place" v="hamlet" />
		<tag k="ssr:stedsnr" v="300799" />
	</node>
	<node id="-198243" lat="68.6133916704" lon="14.8725166693">
		<tag k="alt_name" v="Leite" />
		<tag k="name" v="Leitet" />
		<tag k="place" v="farm" />
		<tag k="ssr:stedsnr" v="745616" />
	</node>
	<node id="-195663" lat="68.451716668" lon="15.1736055507">
		<tag k="name" v="Skardet" />
		<tag k="place" v="isolated_dwelling" />
		<tag k="ssr:stedsnr" v="260755" />
	</node>
	<node id="-195661" lat="68.6515722223" lon="14.8993083241">
		<tag k="name" v="Mosanden" />
		<tag k="place" v="farm" />
		<tag k="ssr:stedsnr" v="260727" />
	</node>
	<node id="-197707" lat="68.5829888908" lon="15.0375944543">
		<tag k="fixme" v="consider place=hamlet" />
		<tag k="name" v="Skagen" />
		<tag k="place" v="farm" />
		<tag k="ssr:stedsnr" v="381105" />
	</node>
	<node id="-197706" lat="68.5992426783" lon="15.0381201382">
>>>>>>> e1d4bc35ff8a6074a6f2e91616a996b547c36f15
		<tag k="fixme" v="consider place=hamlet" />
		<tag k="name" v="Kvalsøya" />
		<tag k="place" v="farm" />
		<tag k="ssr:stedsnr" v="1076709" />
	</node>
<<<<<<< HEAD
	<node lat="68.59849946313797" lon="15.005608920367825" id="-13326">
		<tag k="name" v="Solheim" />
=======
	<node id="-198217" lat="68.6098583333" lon="15.1176555546">
		<tag k="fixme" v="consider place=hamlet" />
		<tag k="name" v="Grytting" />
>>>>>>> e1d4bc35ff8a6074a6f2e91616a996b547c36f15
		<tag k="place" v="farm" />
		<tag k="ssr:stedsnr" v="1078821" />
	</node>
	<node id="-196672" lat="68.5364138895" lon="15.1988694522">
		<tag k="name" v="Harvollen" />
		<tag k="place" v="farm" />
		<tag k="ssr:stedsnr" v="745415" />
	</node>
	<node id="-196159" lat="68.4478083332" lon="14.9105027772">
		<tag k="name" v="Ringen" />
		<tag k="place" v="farm" />
		<tag k="ssr:stedsnr" v="562319" />
	</node>
	<node id="-196157" lat="68.5260475006" lon="14.7003378162">
		<tag k="alt_name" v="Ånnstad, in;Indre Ånstad" />
		<tag k="fixme" v="consider place=hamlet" />
		<tag k="name" v="Indre Ånnstad" />
		<tag k="place" v="farm" />
		<tag k="ssr:stedsnr" v="504000" />
	</node>
	<node id="-197940" lat="68.4814702752" lon="15.1485566844">
		<tag k="alt_name" v="Brottøy" />
		<tag k="fixme" v="consider place=hamlet" />
		<tag k="name" v="Brottøya" />
		<tag k="place" v="farm" />
		<tag k="ssr:stedsnr" v="562641" />
	</node>
	<node id="-195640" lat="68.6000833325" lon="15.0824416571">
		<tag k="name" v="Gammelgården" />
		<tag k="place" v="farm" />
		<tag k="ssr:stedsnr" v="260056" />
	</node>
	<node id="-196151" lat="68.5030856797" lon="14.8790680192">
		<tag k="alt_name" v="Ekrene" />
		<tag k="fixme" v="consider place=hamlet" />
		<tag k="name" v="Ekren" />
		<tag k="place" v="farm" />
		<tag k="ssr:stedsnr" v="503936" />
	</node>
	<node id="-196661" lat="68.5729138862" lon="15.2897055602">
		<tag k="name" v="Kvanntoelva" />
		<tag k="place" v="hamlet" />
		<tag k="ssr:stedsnr" v="745106" />
	</node>
	<node id="-197171" lat="68.5028814756" lon="14.8557387525">
		<tag k="fixme" v="consider place=hamlet" />
		<tag k="name" v="Husby" />
		<tag k="place" v="farm" />
		<tag k="ssr:stedsnr" v="78962" />
	</node>
	<node id="-195633" lat="68.3687940574" lon="15.0310997449">
		<tag k="fixme" v="consider place=hamlet" />
		<tag k="name" v="Svartsundet" />
		<tag k="place" v="farm" />
		<tag k="ssr:stedsnr" v="259925" />
	</node>
	<node id="-197168" lat="68.5272866885" lon="14.9567966949">
		<tag k="name" v="Lekang" />
		<tag k="place" v="hamlet" />
		<tag k="ssr:stedsnr" v="78953" />
	</node>
	<node id="-198152" lat="68.5434777789" lon="14.9749083355">
		<tag k="name" v="Lyngen" />
		<tag k="place" v="farm" />
		<tag k="ssr:stedsnr" v="624976" />
	</node>
	<node id="-196651" lat="68.4598166636" lon="15.0473472117">
		<tag k="name" v="Nordgården" />
		<tag k="place" v="farm" />
		<tag k="ssr:stedsnr" v="905655" />
	</node>
	<node id="-198663" lat="68.5746761958" lon="14.7835052587">
		<tag k="fixme" v="consider place=hamlet" />
		<tag k="name" v="Flatset" />
		<tag k="place" v="farm" />
		<tag k="ssr:stedsnr" v="1076261" />
	</node>
	<node id="-197160" lat="68.3977499966" lon="15.1335722305">
		<tag k="fixme" v="consider place=hamlet" />
		<tag k="name" v="Raften" />
		<tag k="place" v="farm" />
		<tag k="ssr:stedsnr" v="78867" />
	</node>
	<node id="-196135" lat="68.5179420311" lon="15.2548822179">
		<tag k="fixme" v="consider place=hamlet" />
		<tag k="name" v="Lonkan" />
		<tag k="place" v="farm" />
		<tag k="ssr:stedsnr" v="503379" />
	</node>
	<node id="-196134" lat="68.5315527804" lon="15.2284388932">
		<tag k="fixme" v="consider place=suburb, village or hamlet" />
		<tag k="name" v="Hennes" />
		<tag k="place" v="quarter" />
		<tag k="ssr:stedsnr" v="503366" />
	</node>
	<node id="-196529" lat="68.5116916682" lon="15.2681027744">
		<tag k="name" v="Tyttebærneset" />
		<tag k="old_name" v="Typernes" />
		<tag k="place" v="farm" />
		<tag k="ssr:stedsnr" v="624405" />
	</node>
	<node id="-198662" lat="68.5644728102" lon="14.8952187742">
		<tag k="name" v="Stokmarken" />
		<tag k="place" v="locality" />
		<tag k="ssr:stedsnr" v="1076259" />
	</node>
	<node id="-197047" lat="68.5683861099" lon="14.8580833262">
		<tag k="name" v="Nygård" />
		<tag k="place" v="farm" />
		<tag k="ssr:stedsnr" v="36586" />
	</node>
	<node id="-197126" lat="68.4315555535" lon="14.6453527857">
		<tag k="name" v="Nyheim" />
		<tag k="place" v="farm" />
		<tag k="ssr:stedsnr" v="78320" />
	</node>
	<node id="-198176" lat="68.502730554" lon="15.367616667">
		<tag k="name" v="Nordbotn" />
		<tag k="place" v="isolated_dwelling" />
		<tag k="ssr:stedsnr" v="642311" />
	</node>
	<node id="-197151" lat="68.6579499976" lon="14.9794666601">
		<tag k="name" v="Toftene" />
		<tag k="place" v="farm" />
		<tag k="ssr:stedsnr" v="78715" />
	</node>
	<node id="-198174" lat="68.5401194466" lon="15.1904805644">
		<tag k="name" v="Svingjerdet" />
		<tag k="place" v="farm" />
		<tag k="ssr:stedsnr" v="641222" />
	</node>
	<node id="-197272" lat="68.56119722" lon="15.2205444517">
		<tag k="name" v="Moa" />
		<tag k="place" v="farm" />
		<tag k="ssr:stedsnr" v="138119" />
	</node>
	<node id="-196856" lat="68.5031722215" lon="14.7578416614">
		<tag k="name" v="Kroken" />
		<tag k="place" v="farm" />
		<tag k="ssr:stedsnr" v="944727" />
	</node>
	<node id="-197039" lat="68.5480805525" lon="14.9572361102">
		<tag k="name" v="Speiderhytta" />
		<tag k="place" v="isolated_dwelling" />
		<tag k="ssr:stedsnr" v="34380" />
	</node>
	<node id="-197124" lat="68.5584611118" lon="15.2164583425">
		<tag k="alt_name" v="Setervik" />
		<tag k="loc_name" v="Setervika" />
		<tag k="name" v="Sætervika" />
		<tag k="place" v="farm" />
		<tag k="ssr:stedsnr" v="78112" />
	</node>
	<node id="-197913" lat="68.6402166673" lon="14.8139583446">
		<tag k="name" v="Ytre Fleinnes" />
		<tag k="place" v="farm" />
		<tag k="ssr:stedsnr" v="545209" />
	</node>
	<node id="-196114" lat="68.3856222554" lon="14.8089280305">
		<tag k="fixme" v="consider place=hamlet" />
		<tag k="name" v="Budalen" />
		<tag k="place" v="farm" />
		<tag k="ssr:stedsnr" v="502461" />
	</node>
	<node id="-198659" lat="68.5054812279" lon="14.8010081571">
		<tag k="name" v="Melbu" />
		<tag k="place" v="locality" />
		<tag k="ssr:stedsnr" v="1076205" />
	</node>
	<node id="-197135" lat="68.5095916684" lon="15.2401194373">
		<tag k="name" v="Bogen" />
		<tag k="place" v="farm" />
		<tag k="ssr:stedsnr" v="78420" />
	</node>
	<node id="-198157" lat="68.5873888881" lon="14.8996499944">
		<tag k="name" v="Bjørnhaugen" />
		<tag k="place" v="farm" />
		<tag k="ssr:stedsnr" v="640134" />
	</node>
	<node id="-198666" lat="68.6529244042" lon="14.8643813115">
		<tag k="fixme" v="consider place=hamlet" />
		<tag k="name" v="Kvalsøya" />
		<tag k="place" v="farm" />
		<tag k="ssr:stedsnr" v="1076709" />
	</node>
	<node id="-198665" lat="68.5856851306" lon="14.9068183119">
		<tag k="fixme" v="consider place=hamlet" />
		<tag k="name" v="Sandnes" />
		<tag k="place" v="farm" />
		<tag k="ssr:stedsnr" v="1076268" />
	</node>
	<node id="-198664" lat="68.5748346479" lon="14.7169893005">
		<tag k="name" v="Breivika" />
		<tag k="place" v="hamlet" />
		<tag k="ssr:stedsnr" v="1076262" />
	</node>
	<node id="-195591" lat="68.4390755045" lon="15.0052004402">
		<tag k="fixme" v="consider place=hamlet" />
		<tag k="name" v="Falkfjorden" />
		<tag k="place" v="farm" />
		<tag k="ssr:stedsnr" v="77362" />
	</node>
	<node id="-195590" lat="68.455658333" lon="14.8993888777">
		<tag k="name" v="Vassbakken" />
		<tag k="place" v="farm" />
		<tag k="ssr:stedsnr" v="77360" />
	</node>
	<node id="-198661" lat="68.567276277" lon="14.9336813249">
		<tag k="fixme" v="consider place=hamlet" />
		<tag k="name" v="Børøya" />
		<tag k="place" v="farm" />
		<tag k="ssr:stedsnr" v="1076258" />
	</node>
	<node id="-198660" lat="68.540941582" lon="14.9963059067">
		<tag k="name" v="Hadsel" />
		<tag k="place" v="hamlet" />
		<tag k="ssr:stedsnr" v="1076257" />
	</node>
	<node id="-196099" lat="68.5729722254" lon="15.2305833282">
		<tag k="name" v="Nygård" />
		<tag k="place" v="farm" />
		<tag k="ssr:stedsnr" v="502084" />
	</node>
	<node id="-198658" lat="68.5588400256" lon="14.6817232776">
		<tag k="name" v="Dalen" />
		<tag k="place" v="locality" />
		<tag k="ssr:stedsnr" v="1076202" />
	</node>
	<node id="-198657" lat="68.581541795" lon="14.6639628341">
		<tag k="fixme" v="consider place=hamlet" />
		<tag k="name" v="Røyrvika" />
		<tag k="place" v="farm" />
		<tag k="ssr:stedsnr" v="1076201" />
	</node>
</osm>
