<?xml version="1.0" encoding="UTF-8"?>
<osm version="0.6" generator="osmapis">
	<node id="59985840" lat="63.0521344" lon="8.1142731" version="3" timestamp="2022-08-05T05:37:09Z" changeset="124505287" uid="3497659" user="NKA">
		<tag k="alt_name" v="Kanestrøm" />
		<tag k="name" v="Kanestraum" />
		<tag k="place" v="hamlet" />
		<tag k="ssr:stedsnr" v="619158" />
	</node>
	<node id="256745679" lat="62.9117713" lon="8.2063364" version="7" timestamp="2022-08-05T05:37:09Z" changeset="124505287" uid="3497659" user="NKA">
		<tag k="name" v="Tingvoll" />
		<tag k="place" v="village" />
		<tag k="population" v="959" />
		<tag k="population:date" v="2021-01-01" />
		<tag k="ref:ssb_tettsted" v="6271" />
		<tag k="source:population" v="SSB - befolkning i tettstedet" />
		<tag k="ssr:stedsnr" v="740984" />
	</node>
	<node id="256838304" lat="63.0912396" lon="7.9968454" version="3" timestamp="2022-08-05T05:37:09Z" changeset="124505287" uid="3497659" user="NKA">
		<tag k="name" v="Årsund" />
		<tag k="place" v="village" />
		<tag k="ssr:stedsnr" v="195356" />
	</node>
	<node id="256838305" lat="63.0662279" lon="7.9904204" version="3" timestamp="2022-08-05T05:37:09Z" changeset="124505287" uid="3497659" user="NKA">
		<tag k="name" v="Kvisvik" />
		<tag k="place" v="village" />
		<tag k="ssr:stedsnr" v="471223" />
	</node>
	<node id="256838307" lat="63.0514367" lon="8.0276362" version="3" timestamp="2022-08-05T05:37:09Z" changeset="124505287" uid="3497659" user="NKA">
		<tag k="name" v="Grimstad" />
		<tag k="place" v="hamlet" />
		<tag k="ssr:stedsnr" v="255164" />
	</node>
	<node id="256838308" lat="63.0378893" lon="8.0426819" version="4" timestamp="2022-08-05T05:37:09Z" changeset="124505287" uid="3497659" user="NKA">
		<tag k="name" v="Beiteråsen" />
		<tag k="place" v="village" />
		<tag k="ssr:stedsnr" v="741299" />
	</node>
	<node id="256838309" lat="63.0096287" lon="7.999938" version="4" timestamp="2022-08-05T05:37:09Z" changeset="124505287" uid="3497659" user="NKA">
		<tag k="alt_name" v="Ødegården" />
		<tag k="name" v="Øygarden" />
		<tag k="place" v="hamlet" />
		<tag k="ssr:stedsnr" v="315191" />
	</node>
	<node id="256838310" lat="62.9529389" lon="8.1300161" version="4" timestamp="2022-08-05T05:37:09Z" changeset="124505287" uid="3497659" user="NKA">
		<tag k="name" v="Gyl" />
		<tag k="place" v="hamlet" />
		<tag k="ssr:stedsnr" v="557920" />
	</node>
	<node id="256838311" lat="62.9399133" lon="8.149735" version="4" timestamp="2022-08-05T05:37:09Z" changeset="124505287" uid="3497659" user="NKA">
		<tag k="name" v="Bergem" />
		<tag k="place" v="hamlet" />
		<tag k="ssr:stedsnr" v="739890" />
	</node>
	<node id="256838312" lat="62.9752967" lon="8.2421144" version="3" timestamp="2022-08-05T05:37:09Z" changeset="124505287" uid="3497659" user="NKA">
		<tag k="name" v="Torjulvågen" />
		<tag k="place" v="village" />
		<tag k="ssr:stedsnr" v="922635" />
	</node>
	<node id="683552240" lat="63.0000543" lon="7.9458695" version="2" timestamp="2022-08-05T05:37:09Z" changeset="124505287" uid="3497659" user="NKA">
		<tag k="name" v="Boksaspa" />
		<tag k="place" v="hamlet" />
		<tag k="ssr:stedsnr" v="861814" />
	</node>
	<node id="683591790" lat="63.0268959" lon="8.1438454" version="2" timestamp="2022-08-05T05:37:09Z" changeset="124505287" uid="3497659" user="NKA">
		<tag k="name" v="Fløystad" />
		<tag k="place" v="hamlet" />
		<tag k="ssr:stedsnr" v="133196" />
	</node>
	<node id="683591876" lat="63.0295498" lon="8.106182" version="2" timestamp="2022-08-05T05:37:09Z" changeset="124505287" uid="3497659" user="NKA">
		<tag k="name" v="Vatn" />
		<tag k="place" v="hamlet" />
		<tag k="ssr:stedsnr" v="618193" />
	</node>
	<node id="6112511888" lat="62.8522626" lon="8.2894074" version="2" timestamp="2022-08-05T05:37:09Z" changeset="124505287" uid="3497659" user="NKA">
		<tag k="name" v="Meisingset" />
		<tag k="place" v="village" />
		<tag k="ssr:stedsnr" v="679330" />
	</node>
	<node id="8765123318" lat="63.0633971" lon="8.0425008" version="2" timestamp="2022-08-05T05:37:09Z" changeset="124505287" uid="3497659" user="NKA">
		<tag k="name" v="Østergården" />
		<tag k="place" v="farm" />
		<tag k="ssr:stedsnr" v="167449" />
	</node>
	<node id="9933004746" lat="63.0422657" lon="8.0005338" version="1" timestamp="2022-08-05T05:37:09Z" changeset="124505287" uid="3497659" user="NKA">
		<tag k="name" v="Gjengset" />
		<tag k="place" v="hamlet" />
		<tag k="ssr:stedsnr" v="802275" />
	</node>
	<node id="9933004747" lat="62.9140412" lon="8.187888" version="1" timestamp="2022-08-05T05:37:09Z" changeset="124505287" uid="3497659" user="NKA">
		<tag k="name" v="Tingvoll" />
		<tag k="place" v="farm" />
		<tag k="ssr:stedsnr" v="980319" />
	</node>
	<node id="9933004748" lat="63.0675" lon="7.9913527" version="1" timestamp="2022-08-05T05:37:09Z" changeset="124505287" uid="3497659" user="NKA">
		<tag k="name" v="Kvisvik Nord" />
		<tag k="place" v="neighbourhood" />
		<tag k="ssr:stedsnr" v="848312" />
	</node>
	<node id="9933004749" lat="63.0411305" lon="7.9414084" version="1" timestamp="2022-08-05T05:37:09Z" changeset="124505287" uid="3497659" user="NKA">
		<tag k="name" v="Svartvorpa" />
		<tag k="place" v="farm" />
		<tag k="ssr:stedsnr" v="13141" />
	</node>
	<node id="9933004750" lat="63.0259444" lon="7.9980444" version="1" timestamp="2022-08-05T05:37:09Z" changeset="124505287" uid="3497659" user="NKA">
		<tag k="name" v="Olvika hyttefelt" />
		<tag k="place" v="neighbourhood" />
		<tag k="ssr:stedsnr" v="785415" />
	</node>
	<node id="9933004751" lat="63.0348833" lon="8.1297251" version="1" timestamp="2022-08-05T05:37:09Z" changeset="124505287" uid="3497659" user="NKA">
		<tag k="name" v="Kamsvågtrøa" />
		<tag k="place" v="farm" />
		<tag k="ssr:stedsnr" v="437240" />
	</node>
	<node id="9933004752" lat="63.0068611" lon="8.0854945" version="1" timestamp="2022-08-05T05:37:09Z" changeset="124505287" uid="3497659" user="NKA">
		<tag k="name" v="Eikremsetra" />
		<tag k="place" v="isolated_dwelling" />
		<tag k="ssr:stedsnr" v="255189" />
	</node>
	<node id="9933004753" lat="62.8119695" lon="8.2659862" version="1" timestamp="2022-08-05T05:37:09Z" changeset="124505287" uid="3497659" user="NKA">
		<tag k="name" v="Sauvika" />
		<tag k="place" v="farm" />
		<tag k="ssr:stedsnr" v="255417" />
	</node>
	<node id="9933004754" lat="63.0387111" lon="8.0423508" version="1" timestamp="2022-08-05T05:37:09Z" changeset="124505287" uid="3497659" user="NKA">
		<tag k="name" v="Bytås" />
		<tag k="place" v="farm" />
		<tag k="ssr:stedsnr" v="713395" />
	</node>
	<node id="9933004755" lat="63.0409163" lon="7.9763294" version="1" timestamp="2022-08-05T05:37:09Z" changeset="124505287" uid="3497659" user="NKA">
		<tag k="name" v="Nålsund" />
		<tag k="place" v="farm" />
		<tag k="ssr:stedsnr" v="862263" />
	</node>
	<node id="9933004756" lat="63.0702768" lon="8.0116963" version="1" timestamp="2022-08-05T05:37:09Z" changeset="124505287" uid="3497659" user="NKA">
		<tag k="name" v="Kvisviksetra" />
		<tag k="place" v="isolated_dwelling" />
		<tag k="ssr:stedsnr" v="627604" />
	</node>
	<node id="9933004757" lat="62.8110055" lon="8.2726444" version="1" timestamp="2022-08-05T05:37:09Z" changeset="124505287" uid="3497659" user="NKA">
		<tag k="name" v="Hagen" />
		<tag k="place" v="farm" />
		<tag k="ssr:stedsnr" v="168778" />
	</node>
	<node id="9933004758" lat="63.0237583" lon="7.8878972" version="1" timestamp="2022-08-05T05:37:09Z" changeset="124505287" uid="3497659" user="NKA">
		<tag k="name" v="Bøyfoten hyttefelt" />
		<tag k="place" v="neighbourhood" />
		<tag k="ssr:stedsnr" v="239301" />
	</node>
	<node id="9933004759" lat="63.0163204" lon="7.9821399" version="1" timestamp="2022-08-05T05:37:09Z" changeset="124505287" uid="3497659" user="NKA">
		<tag k="name" v="Sørstrand" />
		<tag k="place" v="farm" />
		<tag k="ssr:stedsnr" v="592769" />
	</node>
	<node id="9933004760" lat="63.033184" lon="8.0115968" version="1" timestamp="2022-08-05T05:37:09Z" changeset="124505287" uid="3497659" user="NKA">
		<tag k="name" v="Ulset" />
		<tag k="place" v="hamlet" />
		<tag k="ssr:stedsnr" v="410401" />
	</node>
	<node id="9933004761" lat="62.9394445" lon="8.2958555" version="1" timestamp="2022-08-05T05:37:09Z" changeset="124505287" uid="3497659" user="NKA">
		<tag k="name" v="Bøavollen" />
		<tag k="place" v="farm" />
		<tag k="ssr:stedsnr" v="497685" />
	</node>
	<node id="9933004762" lat="63.0093833" lon="7.8979639" version="1" timestamp="2022-08-05T05:37:09Z" changeset="124505287" uid="3497659" user="NKA">
		<tag k="name" v="Jåvika" />
		<tag k="place" v="farm" />
		<tag k="ssr:stedsnr" v="619242" />
	</node>
	<node id="9933004763" lat="63.0660611" lon="8.0022083" version="1" timestamp="2022-08-05T05:37:09Z" changeset="124505287" uid="3497659" user="NKA">
		<tag k="name" v="Årsund" />
		<tag k="place" v="neighbourhood" />
		<tag k="ssr:stedsnr" v="423305" />
	</node>
	<node id="9933004764" lat="63.0524976" lon="8.0259898" version="1" timestamp="2022-08-05T05:37:09Z" changeset="124505287" uid="3497659" user="NKA">
		<tag k="name" v="Sundet" />
		<tag k="place" v="farm" />
		<tag k="ssr:stedsnr" v="410262" />
	</node>
	<node id="9933004765" lat="63.0661583" lon="8.016175" version="1" timestamp="2022-08-05T05:37:09Z" changeset="124505287" uid="3497659" user="NKA">
		<tag k="name" v="Slåa hyttefelt" />
		<tag k="place" v="neighbourhood" />
		<tag k="ssr:stedsnr" v="422456" />
	</node>
	<node id="9933004766" lat="63.0176027" lon="8.0047862" version="1" timestamp="2022-08-05T05:37:09Z" changeset="124505287" uid="3497659" user="NKA">
		<tag k="name" v="Nes" />
		<tag k="place" v="farm" />
		<tag k="ssr:stedsnr" v="532719" />
	</node>
	<node id="9933004767" lat="63.0329073" lon="8.0096799" version="1" timestamp="2022-08-05T05:37:09Z" changeset="124505287" uid="3497659" user="NKA">
		<tag k="name" v="Garden" />
		<tag k="place" v="farm" />
		<tag k="ssr:stedsnr" v="531398" />
	</node>
	<node id="9933004768" lat="62.982661" lon="8.2769565" version="1" timestamp="2022-08-05T05:37:09Z" changeset="124505287" uid="3497659" user="NKA">
		<tag k="name" v="Svinnes" />
		<tag k="place" v="locality" />
		<tag k="ssr:stedsnr" v="980279" />
	</node>
	<node id="9933004769" lat="63.0714556" lon="8.0018528" version="1" timestamp="2022-08-05T05:37:09Z" changeset="124505287" uid="3497659" user="NKA">
		<tag k="name" v="Kammen" />
		<tag k="place" v="farm" />
		<tag k="ssr:stedsnr" v="349953" />
	</node>
	<node id="9933004770" lat="63.1046991" lon="8.1069977" version="1" timestamp="2022-08-05T05:37:09Z" changeset="124505287" uid="3497659" user="NKA">
		<tag k="loc_name" v="Fåråneset" />
		<tag k="name" v="Furunes" />
		<tag k="place" v="farm" />
		<tag k="ssr:stedsnr" v="980406" />
	</node>
	<node id="9933004771" lat="63.0693973" lon="7.9795049" version="1" timestamp="2022-08-05T05:37:09Z" changeset="124505287" uid="3497659" user="NKA">
		<tag k="name" v="Reita" />
		<tag k="place" v="farm" />
		<tag k="ssr:stedsnr" v="288907" />
	</node>
	<node id="9933004772" lat="63.0322026" lon="8.0012504" version="1" timestamp="2022-08-05T05:37:09Z" changeset="124505287" uid="3497659" user="NKA">
		<tag k="name" v="Hagen" />
		<tag k="place" v="farm" />
		<tag k="ssr:stedsnr" v="228518" />
	</node>
	<node id="9933004773" lat="63.0643394" lon="7.9774281" version="1" timestamp="2022-08-05T05:37:09Z" changeset="124505287" uid="3497659" user="NKA">
		<tag k="name" v="Sandvoll" />
		<tag k="place" v="farm" />
		<tag k="ssr:stedsnr" v="349943" />
	</node>
	<node id="9933004774" lat="63.0494979" lon="8.0773099" version="1" timestamp="2022-08-05T05:37:09Z" changeset="124505287" uid="3497659" user="NKA">
		<tag k="name" v="Vollan" />
		<tag k="place" v="farm" />
		<tag k="ssr:stedsnr" v="923174" />
	</node>
	<node id="9933004775" lat="63.0548611" lon="8.0195612" version="1" timestamp="2022-08-05T05:37:09Z" changeset="124505287" uid="3497659" user="NKA">
		<tag k="name" v="Kleiva" />
		<tag k="place" v="farm" />
		<tag k="ssr:stedsnr" v="923187" />
	</node>
	<node id="9933004776" lat="63.0366539" lon="7.9567817" version="1" timestamp="2022-08-05T05:37:09Z" changeset="124505287" uid="3497659" user="NKA">
		<tag k="name" v="Nastad" />
		<tag k="place" v="farm" />
		<tag k="ssr:stedsnr" v="923159" />
	</node>
	<node id="9933004777" lat="63.0329472" lon="8.0294695" version="1" timestamp="2022-08-05T05:37:09Z" changeset="124505287" uid="3497659" user="NKA">
		<tag k="name" v="Elvelund" />
		<tag k="place" v="farm" />
		<tag k="ssr:stedsnr" v="133212" />
	</node>
	<node id="9933004778" lat="63.0273167" lon="7.9981944" version="1" timestamp="2022-08-05T05:37:09Z" changeset="124505287" uid="3497659" user="NKA">
		<tag k="alt_name" v="Ulset" />
		<tag k="name" v="Olvika" />
		<tag k="place" v="farm" />
		<tag k="ssr:stedsnr" v="922218" />
	</node>
	<node id="9933004779" lat="63.0218338" lon="8.0133542" version="1" timestamp="2022-08-05T05:37:09Z" changeset="124505287" uid="3497659" user="NKA">
		<tag k="name" v="Langset" />
		<tag k="place" v="hamlet" />
		<tag k="ssr:stedsnr" v="922194" />
	</node>
	<node id="9933004780" lat="62.857175" lon="8.2360528" version="1" timestamp="2022-08-05T05:37:09Z" changeset="124505287" uid="3497659" user="NKA">
		<tag k="name" v="Solvang" />
		<tag k="place" v="farm" />
		<tag k="ssr:stedsnr" v="315238" />
	</node>
	<node id="9933004781" lat="62.8569139" lon="8.3091278" version="1" timestamp="2022-08-05T05:37:09Z" changeset="124505287" uid="3497659" user="NKA">
		<tag k="name" v="Naustan" />
		<tag k="place" v="farm" />
		<tag k="ssr:stedsnr" v="168823" />
	</node>
	<node id="9933004782" lat="62.9586864" lon="8.2131804" version="1" timestamp="2022-08-05T05:37:09Z" changeset="124505287" uid="3497659" user="NKA">
		<tag k="name" v="Vasslia" />
		<tag k="place" v="hamlet" />
		<tag k="ssr:stedsnr" v="921912" />
	</node>
	<node id="9933004783" lat="63.0195772" lon="7.8948346" version="1" timestamp="2022-08-05T05:37:09Z" changeset="124505287" uid="3497659" user="NKA">
		<tag k="name" v="Mekran" />
		<tag k="place" v="farm" />
		<tag k="ssr:stedsnr" v="975296" />
	</node>
	<node id="9933004784" lat="63.066583" lon="7.9866167" version="1" timestamp="2022-08-05T05:37:09Z" changeset="124505287" uid="3497659" user="NKA">
		<tag k="name" v="Nygarden" />
		<tag k="place" v="farm" />
		<tag k="ssr:stedsnr" v="167924" />
	</node>
	<node id="9933004785" lat="63.003292" lon="7.8945986" version="1" timestamp="2022-08-05T05:37:09Z" changeset="124505287" uid="3497659" user="NKA">
		<tag k="name" v="Sunnmørsvika" />
		<tag k="place" v="farm" />
		<tag k="ssr:stedsnr" v="680214" />
	</node>
	<node id="9933004786" lat="62.9023193" lon="8.1925925" version="1" timestamp="2022-08-05T05:37:09Z" changeset="124505287" uid="3497659" user="NKA">
		<tag k="name" v="Rimstad" />
		<tag k="place" v="hamlet" />
		<tag k="ssr:stedsnr" v="801992" />
	</node>
	<node id="9933004787" lat="63.0383389" lon="8.0334028" version="1" timestamp="2022-08-05T05:37:09Z" changeset="124505287" uid="3497659" user="NKA">
		<tag k="historic" v="shieling" />
		<tag k="name" v="Ulsetsetra" />
		<tag k="place" v="isolated_dwelling" />
		<tag k="ssr:stedsnr" v="774446" />
	</node>
	<node id="9933004788" lat="63.0163541" lon="7.9044614" version="1" timestamp="2022-08-05T05:37:09Z" changeset="124505287" uid="3497659" user="NKA">
		<tag k="name" v="Aspa" />
		<tag k="place" v="hamlet" />
		<tag k="ssr:stedsnr" v="437233" />
	</node>
	<node id="9933004789" lat="62.86998" lon="8.1651326" version="1" timestamp="2022-08-05T05:37:09Z" changeset="124505287" uid="3497659" user="NKA">
		<tag k="name" v="Ormset" />
		<tag k="place" v="hamlet" />
		<tag k="ssr:stedsnr" v="801496" />
	</node>
	<node id="9933004790" lat="62.9431556" lon="8.2036834" version="1" timestamp="2022-08-05T05:37:09Z" changeset="124505287" uid="3497659" user="NKA">
		<tag k="name" v="Bergemssetra" />
		<tag k="place" v="isolated_dwelling" />
		<tag k="ssr:stedsnr" v="922915" />
	</node>
	<node id="9933004791" lat="62.9299272" lon="8.15728" version="1" timestamp="2022-08-05T05:37:09Z" changeset="124505287" uid="3497659" user="NKA">
		<tag k="loc_name" v="Kvennhusvika" />
		<tag k="name" v="Kvernhusvika" />
		<tag k="place" v="farm" />
		<tag k="ssr:stedsnr" v="739941" />
	</node>
	<node id="9933004792" lat="62.9718083" lon="8.2298279" version="1" timestamp="2022-08-05T05:37:09Z" changeset="124505287" uid="3497659" user="NKA">
		<tag k="name" v="Tuvteigen" />
		<tag k="place" v="farm" />
		<tag k="ssr:stedsnr" v="618645" />
	</node>
	<node id="9933004793" lat="62.9537884" lon="8.3155903" version="1" timestamp="2022-08-05T05:37:09Z" changeset="124505287" uid="3497659" user="NKA">
		<tag k="name" v="Strupstad" />
		<tag k="place" v="farm" />
		<tag k="ssr:stedsnr" v="679668" />
	</node>
	<node id="9933004794" lat="63.0521385" lon="7.9775825" version="1" timestamp="2022-08-05T05:37:09Z" changeset="124505287" uid="3497659" user="NKA">
		<tag k="name" v="Storvika" />
		<tag k="place" v="farm" />
		<tag k="ssr:stedsnr" v="619186" />
	</node>
	<node id="9933004795" lat="62.9233417" lon="8.2801138" version="1" timestamp="2022-08-05T05:37:09Z" changeset="124505287" uid="3497659" user="NKA">
		<tag k="name" v="Vollan" />
		<tag k="place" v="farm" />
		<tag k="ssr:stedsnr" v="679701" />
	</node>
	<node id="9933004796" lat="62.8517251" lon="8.1771789" version="1" timestamp="2022-08-05T05:37:09Z" changeset="124505287" uid="3497659" user="NKA">
		<tag k="name" v="Gjørsvika" />
		<tag k="place" v="farm" />
		<tag k="ssr:stedsnr" v="558566" />
	</node>
	<node id="9933004797" lat="62.90065" lon="8.2241195" version="1" timestamp="2022-08-05T05:37:09Z" changeset="124505287" uid="3497659" user="NKA">
		<tag k="historic" v="shieling" />
		<tag k="name" v="Rimstadsetra" />
		<tag k="place" v="isolated_dwelling" />
		<tag k="ssr:stedsnr" v="679260" />
	</node>
	<node id="9933004798" lat="62.9766933" lon="8.1256414" version="1" timestamp="2022-08-05T05:37:09Z" changeset="124505287" uid="3497659" user="NKA">
		<tag k="historic" v="shieling" />
		<tag k="name" v="Gylsetra" />
		<tag k="place" v="isolated_dwelling" />
		<tag k="ssr:stedsnr" v="592458" />
	</node>
	<node id="9933004799" lat="63.07182" lon="8.1394857" version="1" timestamp="2022-08-05T05:37:09Z" changeset="124505287" uid="3497659" user="NKA">
		<tag k="name" v="Jutvika" />
		<tag k="place" v="locality" />
		<tag k="ssr:stedsnr" v="594592" />
	</node>
	<node id="9933004800" lat="63.0067386" lon="8.008323" version="1" timestamp="2022-08-05T05:37:09Z" changeset="124505287" uid="3497659" user="NKA">
		<tag k="name" v="Kjervika" />
		<tag k="place" v="hamlet" />
		<tag k="ssr:stedsnr" v="619234" />
	</node>
	<node id="9933004801" lat="62.9247475" lon="8.1587846" version="1" timestamp="2022-08-05T05:37:09Z" changeset="124505287" uid="3497659" user="NKA">
		<tag k="name" v="Lauvvika" />
		<tag k="place" v="farm" />
		<tag k="ssr:stedsnr" v="497968" />
	</node>
	<node id="9933004802" lat="63.0217944" lon="7.9898695" version="1" timestamp="2022-08-05T05:37:09Z" changeset="124505287" uid="3497659" user="NKA">
		<tag k="name" v="Almlia hyttefelt" />
		<tag k="place" v="neighbourhood" />
		<tag k="ssr:stedsnr" v="603444" />
	</node>
	<node id="9933004803" lat="62.8934445" lon="8.1586668" version="1" timestamp="2022-08-05T05:37:09Z" changeset="124505287" uid="3497659" user="NKA">
		<tag k="name" v="Hegerbergslættet" />
		<tag k="place" v="farm" />
		<tag k="ssr:stedsnr" v="437994" />
	</node>
	<node id="9933004804" lat="62.9730902" lon="8.2274841" version="1" timestamp="2022-08-05T05:37:09Z" changeset="124505287" uid="3497659" user="NKA">
		<tag k="name" v="Hagan" />
		<tag k="old_name" v="Hagen" />
		<tag k="place" v="farm" />
		<tag k="ssr:stedsnr" v="497630" />
	</node>
	<node id="9933004805" lat="62.9528833" lon="8.1604835" version="1" timestamp="2022-08-05T05:37:09Z" changeset="124505287" uid="3497659" user="NKA">
		<tag k="historic" v="shieling" />
		<tag k="name" v="Heststølen" />
		<tag k="place" v="isolated_dwelling" />
		<tag k="ssr:stedsnr" v="592491" />
	</node>
	<node id="9933004806" lat="62.9151548" lon="8.2132573" version="1" timestamp="2022-08-05T05:37:09Z" changeset="124505287" uid="3497659" user="NKA">
		<tag k="name" v="Koksvika" />
		<tag k="place" v="farm" />
		<tag k="ssr:stedsnr" v="315939" />
	</node>
	<node id="9933004807" lat="62.8897721" lon="8.1539274" version="1" timestamp="2022-08-05T05:37:09Z" changeset="124505287" uid="3497659" user="NKA">
		<tag k="name" v="Hegerberget" />
		<tag k="place" v="hamlet" />
		<tag k="ssr:stedsnr" v="376984" />
	</node>
	<node id="9933004808" lat="62.9120639" lon="8.1575611" version="1" timestamp="2022-08-05T05:37:09Z" changeset="124505287" uid="3497659" user="NKA">
		<tag k="name" v="Øygarden" />
		<tag k="place" v="locality" />
		<tag k="ssr:stedsnr" v="861949" />
	</node>
	<node id="9933004809" lat="63.0156676" lon="8.0017566" version="1" timestamp="2022-08-05T05:37:09Z" changeset="124505287" uid="3497659" user="NKA">
		<tag k="name" v="Vika" />
		<tag k="place" v="neighbourhood" />
		<tag k="ssr:stedsnr" v="586459" />
	</node>
	<node id="9933004810" lat="63.0297473" lon="8.1007251" version="1" timestamp="2022-08-05T05:37:09Z" changeset="124505287" uid="3497659" user="NKA">
		<tag k="name" v="Utigarden" />
		<tag k="place" v="farm" />
		<tag k="ssr:stedsnr" v="558239" />
	</node>
	<node id="9933004811" lat="63.0425827" lon="8.0522965" version="1" timestamp="2022-08-05T05:37:09Z" changeset="124505287" uid="3497659" user="NKA">
		<tag k="name" v="Nordheim" />
		<tag k="place" v="farm" />
		<tag k="ssr:stedsnr" v="956555" />
	</node>
	<node id="9933004812" lat="63.0647954" lon="7.9902826" version="1" timestamp="2022-08-05T05:37:09Z" changeset="124505287" uid="3497659" user="NKA">
		<tag k="name" v="Tunga" />
		<tag k="place" v="farm" />
		<tag k="ssr:stedsnr" v="956913" />
	</node>
	<node id="9933004813" lat="62.9493472" lon="8.1358751" version="1" timestamp="2022-08-05T05:37:09Z" changeset="124505287" uid="3497659" user="NKA">
		<tag k="name" v="Lerkebakken" />
		<tag k="place" v="neighbourhood" />
		<tag k="ssr:stedsnr" v="483319" />
	</node>
	<node id="9933004814" lat="63.0887416" lon="7.9854084" version="1" timestamp="2022-08-05T05:37:09Z" changeset="124505287" uid="3497659" user="NKA">
		<tag k="name" v="Årsund Vest hyttefelt" />
		<tag k="place" v="neighbourhood" />
		<tag k="ssr:stedsnr" v="482315" />
	</node>
	<node id="9933004815" lat="62.8819972" lon="8.2299028" version="1" timestamp="2022-08-05T05:37:09Z" changeset="124505287" uid="3497659" user="NKA">
		<tag k="historic" v="shieling" />
		<tag k="name" v="Stølsetra" />
		<tag k="place" v="isolated_dwelling" />
		<tag k="ssr:stedsnr" v="809622" />
	</node>
	<node id="9933004816" lat="63.0272805" lon="8.134064" version="1" timestamp="2022-08-05T05:37:09Z" changeset="124505287" uid="3497659" user="NKA">
		<tag k="name" v="Fløystadmyran hyttefelt" />
		<tag k="place" v="neighbourhood" />
		<tag k="ssr:stedsnr" v="785290" />
	</node>
	<node id="9933012917" lat="62.9912583" lon="8.0648612" version="1" timestamp="2022-08-05T05:37:09Z" changeset="124505287" uid="3497659" user="NKA">
		<tag k="historic" v="shieling" />
		<tag k="name" v="Treekersetra" />
		<tag k="place" v="isolated_dwelling" />
		<tag k="ssr:stedsnr" v="922852" />
	</node>
	<node id="9933012918" lat="63.0587083" lon="8.034586" version="1" timestamp="2022-08-05T05:37:09Z" changeset="124505287" uid="3497659" user="NKA">
		<tag k="name" v="Trøa" />
		<tag k="place" v="farm" />
		<tag k="ssr:stedsnr" v="437180" />
	</node>
	<node id="9933012919" lat="63.0997111" lon="8.0269667" version="1" timestamp="2022-08-05T05:37:09Z" changeset="124505287" uid="3497659" user="NKA">
		<tag k="name" v="Osen" />
		<tag k="place" v="farm" />
		<tag k="ssr:stedsnr" v="437389" />
	</node>
	<node id="9933012920" lat="62.9384055" lon="8.296175" version="1" timestamp="2022-08-05T05:37:09Z" changeset="124505287" uid="3497659" user="NKA">
		<tag k="name" v="Kleivavollen" />
		<tag k="place" v="farm" />
		<tag k="ssr:stedsnr" v="436694" />
	</node>
	<node id="9933012921" lat="62.8954785" lon="8.2004479" version="1" timestamp="2022-08-05T05:37:09Z" changeset="124505287" uid="3497659" user="NKA">
		<tag k="name" v="Stølbygda" />
		<tag k="place" v="quarter" />
		<tag k="ssr:stedsnr" v="376994" />
	</node>
	<node id="9933012922" lat="63.0786966" lon="7.9784923" version="1" timestamp="2022-08-05T05:37:09Z" changeset="124505287" uid="3497659" user="NKA">
		<tag k="name" v="Skaret" />
		<tag k="place" v="hamlet" />
		<tag k="ssr:stedsnr" v="376183" />
	</node>
	<node id="9933012923" lat="63.0657333" lon="7.9803501" version="1" timestamp="2022-08-05T05:37:09Z" changeset="124505287" uid="3497659" user="NKA">
		<tag k="name" v="Haugen" />
		<tag k="place" v="farm" />
		<tag k="ssr:stedsnr" v="922166" />
	</node>
	<node id="9933012924" lat="62.9514969" lon="8.3150832" version="1" timestamp="2022-08-05T05:37:09Z" changeset="124505287" uid="3497659" user="NKA">
		<tag k="name" v="Naustvollen" />
		<tag k="place" v="hamlet" />
		<tag k="ssr:stedsnr" v="375674" />
	</node>
	<node id="9933012925" lat="62.8711111" lon="8.3791751" version="1" timestamp="2022-08-05T05:37:09Z" changeset="124505287" uid="3497659" user="NKA">
		<tag k="historic" v="shieling" />
		<tag k="name" v="Nysetra" />
		<tag k="place" v="isolated_dwelling" />
		<tag k="ssr:stedsnr" v="593591" />
	</node>
	<node id="9933012926" lat="62.9299915" lon="8.2401246" version="1" timestamp="2022-08-05T05:37:09Z" changeset="124505287" uid="3497659" user="NKA">
		<tag k="name" v="Tørrlenda" />
		<tag k="place" v="farm" />
		<tag k="ssr:stedsnr" v="497694" />
	</node>
	<node id="9933012927" lat="62.8824306" lon="8.3594361" version="1" timestamp="2022-08-05T05:37:09Z" changeset="124505287" uid="3497659" user="NKA">
		<tag k="name" v="Mindnes" />
		<tag k="place" v="farm" />
		<tag k="ssr:stedsnr" v="168732" />
	</node>
	<node id="9933012928" lat="62.8403028" lon="8.3394056" version="1" timestamp="2022-08-05T05:37:09Z" changeset="124505287" uid="3497659" user="NKA">
		<tag k="historic" v="shieling" />
		<tag k="name" v="Hanemssetra" />
		<tag k="place" v="isolated_dwelling" />
		<tag k="ssr:stedsnr" v="740341" />
	</node>
	<node id="9933012929" lat="62.8693444" lon="8.3896472" version="1" timestamp="2022-08-05T05:37:09Z" changeset="124505287" uid="3497659" user="NKA">
		<tag k="name" v="Sandnessetra" />
		<tag k="place" v="locality" />
		<tag k="ssr:stedsnr" v="691246" />
	</node>
	<node id="9933012930" lat="62.8359861" lon="8.2937555" version="1" timestamp="2022-08-05T05:37:09Z" changeset="124505287" uid="3497659" user="NKA">
		<tag k="name" v="Enga" />
		<tag k="place" v="farm" />
		<tag k="ssr:stedsnr" v="740335" />
	</node>
	<node id="9933012931" lat="62.8267043" lon="8.2226181" version="1" timestamp="2022-08-05T05:37:09Z" changeset="124505287" uid="3497659" user="NKA">
		<tag k="name" v="Rottås" />
		<tag k="place" v="hamlet" />
		<tag k="ssr:stedsnr" v="680363" />
	</node>
	<node id="9933012932" lat="62.8264444" lon="8.2935917" version="1" timestamp="2022-08-05T05:37:09Z" changeset="124505287" uid="3497659" user="NKA">
		<tag k="name" v="Hjellen" />
		<tag k="place" v="farm" />
		<tag k="ssr:stedsnr" v="740319" />
	</node>
	<node id="9933012933" lat="62.8148832" lon="8.3461189" version="1" timestamp="2022-08-05T05:37:09Z" changeset="124505287" uid="3497659" user="NKA">
		<tag k="name" v="Einbu" />
		<tag k="place" v="locality" />
		<tag k="ssr:stedsnr" v="680464" />
	</node>
	<node id="9933012934" lat="62.8843362" lon="8.3714935" version="1" timestamp="2022-08-05T05:37:09Z" changeset="124505287" uid="3497659" user="NKA">
		<tag k="name" v="Sandneset" />
		<tag k="place" v="farm" />
		<tag k="ssr:stedsnr" v="133246" />
	</node>
	<node id="9933012935" lat="62.8218934" lon="8.2472973" version="1" timestamp="2022-08-05T05:37:09Z" changeset="124505287" uid="3497659" user="NKA">
		<tag k="name" v="Ballstad" />
		<tag k="place" v="farm" />
		<tag k="ssr:stedsnr" v="619367" />
	</node>
	<node id="9933012936" lat="62.8654723" lon="8.263725" version="1" timestamp="2022-08-05T05:37:09Z" changeset="124505287" uid="3497659" user="NKA">
		<tag k="historic" v="shieling" />
		<tag k="name" v="Nygardssetra" />
		<tag k="place" v="isolated_dwelling" />
		<tag k="ssr:stedsnr" v="618221" />
	</node>
	<node id="9933012937" lat="62.8107861" lon="8.2687418" version="1" timestamp="2022-08-05T05:37:09Z" changeset="124505287" uid="3497659" user="NKA">
		<tag k="name" v="Vikan" />
		<tag k="place" v="farm" />
		<tag k="ssr:stedsnr" v="592823" />
	</node>
	<node id="9933012938" lat="62.8055584" lon="8.3245334" version="1" timestamp="2022-08-05T05:37:09Z" changeset="124505287" uid="3497659" user="NKA">
		<tag k="name" v="Ytterbakkan" />
		<tag k="place" v="farm" />
		<tag k="ssr:stedsnr" v="195433" />
	</node>
	<node id="9933012939" lat="62.8832222" lon="8.3626083" version="1" timestamp="2022-08-05T05:37:09Z" changeset="124505287" uid="3497659" user="NKA">
		<tag k="name" v="Nordheim" />
		<tag k="place" v="farm" />
		<tag k="ssr:stedsnr" v="498311" />
	</node>
	<node id="9933012940" lat="62.8290667" lon="8.2966862" version="1" timestamp="2022-08-05T05:37:09Z" changeset="124505287" uid="3497659" user="NKA">
		<tag k="name" v="Lunde" />
		<tag k="place" v="farm" />
		<tag k="ssr:stedsnr" v="472963" />
	</node>
	<node id="9933012941" lat="62.9175795" lon="8.1606331" version="1" timestamp="2022-08-05T05:37:09Z" changeset="124505287" uid="3497659" user="NKA">
		<tag k="name" v="Almvika" />
		<tag k="place" v="farm" />
		<tag k="ssr:stedsnr" v="801950" />
	</node>
	<node id="9933012942" lat="62.9301769" lon="8.2985189" version="1" timestamp="2022-08-05T05:37:09Z" changeset="124505287" uid="3497659" user="NKA">
		<tag k="name" v="Vågbøøya" />
		<tag k="place" v="farm" />
		<tag k="ssr:stedsnr" v="980331" />
	</node>
	<node id="9933012943" lat="63.0526417" lon="8.1217779" version="1" timestamp="2022-08-05T05:37:09Z" changeset="124505287" uid="3497659" user="NKA">
		<tag k="name" v="Skjerran" />
		<tag k="place" v="farm" />
		<tag k="ssr:stedsnr" v="801147" />
	</node>
	<node id="9933012944" lat="62.8914917" lon="8.3190751" version="1" timestamp="2022-08-05T05:37:09Z" changeset="124505287" uid="3497659" user="NKA">
		<tag k="historic" v="shieling" />
		<tag k="name" v="Røttingsnesetra" />
		<tag k="place" v="isolated_dwelling" />
		<tag k="ssr:stedsnr" v="740272" />
	</node>
	<node id="9933012945" lat="63.0419584" lon="8.0493957" version="1" timestamp="2022-08-05T05:37:09Z" changeset="124505287" uid="3497659" user="NKA">
		<tag k="name" v="Solstad" />
		<tag k="place" v="farm" />
		<tag k="ssr:stedsnr" v="956559" />
	</node>
	<node id="9933012946" lat="62.9048306" lon="8.3228388" version="1" timestamp="2022-08-05T05:37:09Z" changeset="124505287" uid="3497659" user="NKA">
		<tag k="alt_name" v="Myra" />
		<tag k="name" v="Myran" />
		<tag k="place" v="farm" />
		<tag k="ssr:stedsnr" v="618282" />
	</node>
	<node id="9933012947" lat="62.9210059" lon="8.2039945" version="1" timestamp="2022-08-05T05:37:09Z" changeset="124505287" uid="3497659" user="NKA">
		<tag k="name" v="Reitan" />
		<tag k="place" v="neighbourhood" />
		<tag k="ssr:stedsnr" v="510459" />
	</node>
	<node id="9933012948" lat="62.8691639" lon="8.3063251" version="1" timestamp="2022-08-05T05:37:09Z" changeset="124505287" uid="3497659" user="NKA">
		<tag k="name" v="Bruksgrenda" />
		<tag k="place" v="neighbourhood" />
		<tag k="ssr:stedsnr" v="445242" />
	</node>
	<node id="9933012949" lat="63.092225" lon="8.1105472" version="1" timestamp="2022-08-05T05:37:09Z" changeset="124505287" uid="3497659" user="NKA">
		<tag k="name" v="Rydningen" />
		<tag k="place" v="farm" />
		<tag k="ssr:stedsnr" v="774346" />
	</node>
	<node id="9933012950" lat="62.8874111" lon="8.2255916" version="1" timestamp="2022-08-05T05:37:09Z" changeset="124505287" uid="3497659" user="NKA">
		<tag k="name" v="Nergardssetra" />
		<tag k="place" v="isolated_dwelling" />
		<tag k="ssr:stedsnr" v="316320" />
	</node>
	<node id="9933012951" lat="63.0625576" lon="8.0428276" version="1" timestamp="2022-08-05T05:37:09Z" changeset="124505287" uid="3497659" user="NKA">
		<tag k="name" v="Vasselen" />
		<tag k="place" v="hamlet" />
		<tag k="ssr:stedsnr" v="619200" />
	</node>
	<node id="9933012952" lat="63.0711" lon="8.0385611" version="1" timestamp="2022-08-05T05:37:09Z" changeset="124505287" uid="3497659" user="NKA">
		<tag k="historic" v="shieling" />
		<tag k="name" v="Vassellsetra" />
		<tag k="place" v="isolated_dwelling" />
		<tag k="ssr:stedsnr" v="471425" />
	</node>
	<node id="9933012953" lat="62.9071537" lon="8.3187194" version="1" timestamp="2022-08-05T05:37:09Z" changeset="124505287" uid="3497659" user="NKA">
		<tag k="name" v="Bølset" />
		<tag k="place" v="farm" />
		<tag k="ssr:stedsnr" v="436736" />
	</node>
	<node id="9933012954" lat="62.8759736" lon="8.3468171" version="1" timestamp="2022-08-05T05:37:09Z" changeset="124505287" uid="3497659" user="NKA">
		<tag k="name" v="Åsprong" />
		<tag k="place" v="hamlet" />
		<tag k="ssr:stedsnr" v="255277" />
	</node>
	<node id="9933012955" lat="63.0665805" lon="8.0229083" version="1" timestamp="2022-08-05T05:37:09Z" changeset="124505287" uid="3497659" user="NKA">
		<tag k="name" v="Berget" />
		<tag k="place" v="farm" />
		<tag k="ssr:stedsnr" v="497159" />
	</node>
	<node id="9933012956" lat="62.9196973" lon="8.2241473" version="1" timestamp="2022-08-05T05:37:09Z" changeset="124505287" uid="3497659" user="NKA">
		<tag k="name" v="Flata" />
		<tag k="place" v="farm" />
		<tag k="ssr:stedsnr" v="133694" />
	</node>
	<node id="9933012957" lat="62.8856306" lon="8.2086583" version="1" timestamp="2022-08-05T05:37:09Z" changeset="124505287" uid="3497659" user="NKA">
		<tag k="name" v="Bønn" />
		<tag k="place" v="isolated_dwelling" />
		<tag k="ssr:stedsnr" v="168167" />
	</node>
	<node id="9933012958" lat="62.8258193" lon="8.3490221" version="1" timestamp="2022-08-05T05:37:09Z" changeset="124505287" uid="3497659" user="NKA">
		<tag k="name" v="Hafstad" />
		<tag k="place" v="farm" />
		<tag k="ssr:stedsnr" v="133290" />
	</node>
	<node id="9933012959" lat="62.8874056" lon="8.1651222" version="1" timestamp="2022-08-05T05:37:09Z" changeset="124505287" uid="3497659" user="NKA">
		<tag k="historic" v="shieling" />
		<tag k="name" v="Hegerbergsetra" />
		<tag k="place" v="isolated_dwelling" />
		<tag k="ssr:stedsnr" v="168095" />
	</node>
	<node id="9933012960" lat="62.9258278" lon="8.2692834" version="1" timestamp="2022-08-05T05:37:09Z" changeset="124505287" uid="3497659" user="NKA">
		<tag k="name" v="Husabrekka hyttefelt" />
		<tag k="place" v="neighbourhood" />
		<tag k="ssr:stedsnr" v="40475" />
	</node>
	<node id="9933012961" lat="62.9187861" lon="8.2126057" version="1" timestamp="2022-08-05T05:37:09Z" changeset="124505287" uid="3497659" user="NKA">
		<tag k="name" v="Vonheim" />
		<tag k="place" v="farm" />
		<tag k="ssr:stedsnr" v="47793" />
	</node>
	<node id="9933012962" lat="62.9252466" lon="8.2823074" version="1" timestamp="2022-08-05T05:37:09Z" changeset="124505287" uid="3497659" user="NKA">
		<tag k="name" v="Vågbøen" />
		<tag k="place" v="hamlet" />
		<tag k="ssr:stedsnr" v="801708" />
	</node>
	<node id="9933012963" lat="62.9015948" lon="8.3260362" version="1" timestamp="2022-08-05T05:37:09Z" changeset="124505287" uid="3497659" user="NKA">
		<tag k="name" v="Løset" />
		<tag k="place" v="farm" />
		<tag k="ssr:stedsnr" v="72300" />
	</node>
	<node id="9933012964" lat="62.8536639" lon="8.3032529" version="1" timestamp="2022-08-05T05:37:09Z" changeset="124505287" uid="3497659" user="NKA">
		<tag k="name" v="Skålneset" />
		<tag k="place" v="farm" />
		<tag k="ssr:stedsnr" v="194332" />
	</node>
	<node id="9933012965" lat="62.9286333" lon="8.2517418" version="1" timestamp="2022-08-05T05:37:09Z" changeset="124505287" uid="3497659" user="NKA">
		<tag k="name" v="Skaret" />
		<tag k="place" v="isolated_dwelling" />
		<tag k="ssr:stedsnr" v="202235" />
	</node>
	<node id="9933012966" lat="62.8363501" lon="8.3018521" version="1" timestamp="2022-08-05T05:37:09Z" changeset="124505287" uid="3497659" user="NKA">
		<tag k="name" v="Hanemstrøa" />
		<tag k="place" v="farm" />
		<tag k="ssr:stedsnr" v="862348" />
	</node>
	<node id="9933012967" lat="62.9273584" lon="8.2478555" version="1" timestamp="2022-08-05T05:37:09Z" changeset="124505287" uid="3497659" user="NKA">
		<tag k="name" v="Myrset" />
		<tag k="place" v="farm" />
		<tag k="ssr:stedsnr" v="194699" />
	</node>
	<node id="9933012968" lat="62.9186528" lon="8.2952112" version="1" timestamp="2022-08-05T05:37:09Z" changeset="124505287" uid="3497659" user="NKA">
		<tag k="name" v="Skogstad" />
		<tag k="place" v="farm" />
		<tag k="ssr:stedsnr" v="861723" />
	</node>
	<node id="9933012969" lat="62.8590306" lon="8.3158973" version="1" timestamp="2022-08-05T05:37:09Z" changeset="124505287" uid="3497659" user="NKA">
		<tag k="name" v="Buneset" />
		<tag k="place" v="farm" />
		<tag k="ssr:stedsnr" v="862379" />
	</node>
	<node id="9933012970" lat="62.8230333" lon="8.2249695" version="1" timestamp="2022-08-05T05:37:09Z" changeset="124505287" uid="3497659" user="NKA">
		<tag k="name" v="Solås" />
		<tag k="place" v="farm" />
		<tag k="ssr:stedsnr" v="653104" />
	</node>
	<node id="9933012971" lat="62.8819583" lon="8.3007473" version="1" timestamp="2022-08-05T05:37:09Z" changeset="124505287" uid="3497659" user="NKA">
		<tag k="historic" v="shieling" />
		<tag k="name" v="Gjøviklisetra" />
		<tag k="place" v="isolated_dwelling" />
		<tag k="ssr:stedsnr" v="715655" />
	</node>
	<node id="9933012972" lat="62.8918833" lon="8.2086195" version="1" timestamp="2022-08-05T05:37:09Z" changeset="124505287" uid="3497659" user="NKA">
		<tag k="name" v="Slettbakk" />
		<tag k="place" v="farm" />
		<tag k="ssr:stedsnr" v="653302" />
	</node>
	<node id="9933012973" lat="62.8789268" lon="8.2156822" version="1" timestamp="2022-08-05T05:37:09Z" changeset="124505287" uid="3497659" user="NKA">
		<tag k="name" v="Innerstølan" />
		<tag k="place" v="farm" />
		<tag k="ssr:stedsnr" v="714141" />
	</node>
	<node id="9933012974" lat="62.9215583" lon="8.2359333" version="1" timestamp="2022-08-05T05:37:09Z" changeset="124505287" uid="3497659" user="NKA">
		<tag k="name" v="Bjørge" />
		<tag k="place" v="farm" />
		<tag k="ssr:stedsnr" v="838140" />
	</node>
	<node id="9933012975" lat="62.899725" lon="8.309675" version="1" timestamp="2022-08-05T05:37:09Z" changeset="124505287" uid="3497659" user="NKA">
		<tag k="historic" v="shieling" />
		<tag k="name" v="Løsetsetra" />
		<tag k="place" v="isolated_dwelling" />
		<tag k="ssr:stedsnr" v="566598" />
	</node>
	<node id="9933012976" lat="62.8989684" lon="8.1939534" version="1" timestamp="2022-08-05T05:37:09Z" changeset="124505287" uid="3497659" user="NKA">
		<tag k="name" v="Saglia" />
		<tag k="place" v="farm" />
		<tag k="ssr:stedsnr" v="557990" />
	</node>
	<node id="9933012977" lat="62.8330167" lon="8.3414334" version="1" timestamp="2022-08-05T05:37:09Z" changeset="124505287" uid="3497659" user="NKA">
		<tag k="historic" v="shieling" />
		<tag k="name" v="Rørskarsetra" />
		<tag k="place" v="isolated_dwelling" />
		<tag k="ssr:stedsnr" v="836962" />
	</node>
	<node id="9933012978" lat="62.924975" lon="8.2435834" version="1" timestamp="2022-08-05T05:37:09Z" changeset="124505287" uid="3497659" user="NKA">
		<tag k="name" v="Midtgarden" />
		<tag k="place" v="farm" />
		<tag k="ssr:stedsnr" v="557691" />
	</node>
	<node id="9933012979" lat="62.9227695" lon="8.2392694" version="1" timestamp="2022-08-05T05:37:09Z" changeset="124505287" uid="3497659" user="NKA">
		<tag k="name" v="Mardal" />
		<tag k="place" v="farm" />
		<tag k="ssr:stedsnr" v="557692" />
	</node>
	<node id="9933012980" lat="62.8861639" lon="8.1567112" version="1" timestamp="2022-08-05T05:37:09Z" changeset="124505287" uid="3497659" user="NKA">
		<tag k="name" v="Hegerbergtrøa" />
		<tag k="place" v="farm" />
		<tag k="ssr:stedsnr" v="801987" />
	</node>
	<node id="9933012981" lat="62.8516833" lon="8.2843834" version="1" timestamp="2022-08-05T05:37:09Z" changeset="124505287" uid="3497659" user="NKA">
		<tag k="name" v="Myra" />
		<tag k="place" v="farm" />
		<tag k="ssr:stedsnr" v="411935" />
	</node>
	<node id="9933012982" lat="62.8201695" lon="8.2902027" version="1" timestamp="2022-08-05T05:37:09Z" changeset="124505287" uid="3497659" user="NKA">
		<tag k="historic" v="shieling" />
		<tag k="name" v="Holtan" />
		<tag k="place" v="isolated_dwelling" />
		<tag k="ssr:stedsnr" v="350760" />
	</node>
	<node id="9933012983" lat="63.00205" lon="8.0183505" version="1" timestamp="2022-08-05T05:37:09Z" changeset="124505287" uid="3497659" user="NKA">
		<tag k="name" v="Eikrem" />
		<tag k="place" v="hamlet" />
		<tag k="ssr:stedsnr" v="801194" />
	</node>
	<node id="9933012984" lat="62.8129834" lon="8.2573081" version="1" timestamp="2022-08-05T05:37:09Z" changeset="124505287" uid="3497659" user="NKA">
		<tag k="name" v="Stomsvika" />
		<tag k="place" v="farm" />
		<tag k="ssr:stedsnr" v="680463" />
	</node>
	<node id="9933012985" lat="62.8889389" lon="8.2078112" version="1" timestamp="2022-08-05T05:37:09Z" changeset="124505287" uid="3497659" user="NKA">
		<tag k="name" v="Stølhagan" />
		<tag k="place" v="farm" />
		<tag k="ssr:stedsnr" v="775159" />
	</node>
	<node id="9933012986" lat="62.9092834" lon="8.2073027" version="1" timestamp="2022-08-05T05:37:09Z" changeset="124505287" uid="3497659" user="NKA">
		<tag k="name" v="Kaibakken" />
		<tag k="place" v="neighbourhood" />
		<tag k="ssr:stedsnr" v="665329" />
	</node>
	<node id="9933012987" lat="62.9616166" lon="8.2192722" version="1" timestamp="2022-08-05T05:37:09Z" changeset="124505287" uid="3497659" user="NKA">
		<tag k="name" v="Vollan hyttefelt" />
		<tag k="place" v="neighbourhood" />
		<tag k="ssr:stedsnr" v="726322" />
	</node>
	<node id="9933012988" lat="62.9297949" lon="8.2597599" version="1" timestamp="2022-08-05T05:37:09Z" changeset="124505287" uid="3497659" user="NKA">
		<tag k="name" v="Storset" />
		<tag k="place" v="hamlet" />
		<tag k="ssr:stedsnr" v="679690" />
	</node>
	<node id="9933012989" lat="62.8529583" lon="8.1928168" version="1" timestamp="2022-08-05T05:37:09Z" changeset="124505287" uid="3497659" user="NKA">
		<tag k="historic" v="shieling" />
		<tag k="name" v="Gammelsetra" />
		<tag k="place" v="isolated_dwelling" />
		<tag k="ssr:stedsnr" v="350067" />
	</node>
	<node id="9933012990" lat="62.8647889" lon="8.3226222" version="1" timestamp="2022-08-05T05:37:09Z" changeset="124505287" uid="3497659" user="NKA">
		<tag k="name" v="Åsprong hyttefelt" />
		<tag k="place" v="neighbourhood" />
		<tag k="ssr:stedsnr" v="404433" />
	</node>
	<node id="9933012991" lat="62.9024611" lon="8.1824721" version="1" timestamp="2022-08-05T05:37:09Z" changeset="124505287" uid="3497659" user="NKA">
		<tag k="name" v="Nausthaugen" />
		<tag k="place" v="farm" />
		<tag k="ssr:stedsnr" v="896368" />
	</node>
	<node id="9933012992" lat="62.9878717" lon="8.2481339" version="1" timestamp="2022-08-05T05:37:09Z" changeset="124505287" uid="3497659" user="NKA">
		<tag k="alt_name" v="Nordbø" />
		<tag k="name" v="Nordbøen" />
		<tag k="place" v="hamlet" />
		<tag k="ssr:stedsnr" v="497623" />
	</node>
	<node id="9933012993" lat="62.9006611" lon="8.1792778" version="1" timestamp="2022-08-05T05:37:09Z" changeset="124505287" uid="3497659" user="NKA">
		<tag k="name" v="Ånesmyra" />
		<tag k="place" v="farm" />
		<tag k="ssr:stedsnr" v="896366" />
	</node>
	<node id="9933012994" lat="62.9275087" lon="8.2300911" version="1" timestamp="2022-08-05T05:37:09Z" changeset="124505287" uid="3497659" user="NKA">
		<tag k="name" v="Sollia" />
		<tag k="place" v="farm" />
		<tag k="ssr:stedsnr" v="194683" />
	</node>
	<node id="9933012995" lat="62.9161694" lon="8.1900084" version="1" timestamp="2022-08-05T05:37:09Z" changeset="124505287" uid="3497659" user="NKA">
		<tag k="name" v="Rønningen" />
		<tag k="place" v="neighbourhood" />
		<tag k="ssr:stedsnr" v="222427" />
	</node>
	<node id="9933012996" lat="62.8816451" lon="8.2169854" version="1" timestamp="2022-08-05T05:37:09Z" changeset="124505287" uid="3497659" user="NKA">
		<tag k="name" v="Stølan" />
		<tag k="place" v="farm" />
		<tag k="ssr:stedsnr" v="376516" />
	</node>
	<node id="9933012997" lat="62.883004" lon="8.2114037" version="1" timestamp="2022-08-05T05:37:09Z" changeset="124505287" uid="3497659" user="NKA">
		<tag k="name" v="Stølhaugen" />
		<tag k="place" v="farm" />
		<tag k="ssr:stedsnr" v="472176" />
	</node>
	<node id="9933012998" lat="62.8577433" lon="8.2774249" version="1" timestamp="2022-08-05T05:37:09Z" changeset="124505287" uid="3497659" user="NKA">
		<tag k="alt_name" v="Løkken" />
		<tag k="name" v="Lykkja" />
		<tag k="place" v="farm" />
		<tag k="ssr:stedsnr" v="980021" />
	</node>
	<node id="9933012999" lat="62.9540639" lon="8.3227861" version="1" timestamp="2022-08-05T05:37:09Z" changeset="124505287" uid="3497659" user="NKA">
		<tag k="name" v="Holmeid hyttefelt" />
		<tag k="place" v="neighbourhood" />
		<tag k="ssr:stedsnr" v="968310" />
	</node>
	<node id="9933013000" lat="62.8941583" lon="8.3000611" version="1" timestamp="2022-08-05T05:37:09Z" changeset="124505287" uid="3497659" user="NKA">
		<tag k="historic" v="shieling" />
		<tag k="name" v="Nysetra" />
		<tag k="place" v="isolated_dwelling" />
		<tag k="ssr:stedsnr" v="957578" />
	</node>
	<node id="9933013001" lat="62.8560131" lon="8.2348315" version="1" timestamp="2022-08-05T05:37:09Z" changeset="124505287" uid="3497659" user="NKA">
		<tag k="name" v="Holtan" />
		<tag k="place" v="hamlet" />
		<tag k="ssr:stedsnr" v="108103" />
	</node>
	<node id="9933013002" lat="62.8205917" lon="8.3832722" version="1" timestamp="2022-08-05T05:37:09Z" changeset="124505287" uid="3497659" user="NKA">
		<tag k="name" v="Hafstadsetra" />
		<tag k="place" v="locality" />
		<tag k="ssr:stedsnr" v="934352" />
	</node>
	<node id="9933013003" lat="62.8910376" lon="8.3332405" version="1" timestamp="2022-08-05T05:37:09Z" changeset="124505287" uid="3497659" user="NKA">
		<tag k="name" v="Røttingsnes" />
		<tag k="place" v="hamlet" />
		<tag k="ssr:stedsnr" v="957585" />
	</node>
	<node id="9933013004" lat="62.877325" lon="8.1958038" version="1" timestamp="2022-08-05T05:37:09Z" changeset="124505287" uid="3497659" user="NKA">
		<tag k="name" v="Hafella" />
		<tag k="place" v="farm" />
		<tag k="ssr:stedsnr" v="12507" />
	</node>
	<node id="9933013005" lat="62.9358502" lon="8.2907205" version="1" timestamp="2022-08-05T05:37:09Z" changeset="124505287" uid="3497659" user="NKA">
		<tag k="name" v="Strandheim" />
		<tag k="place" v="farm" />
		<tag k="ssr:stedsnr" v="922696" />
	</node>
	<node id="9933013006" lat="62.8088889" lon="8.3330222" version="1" timestamp="2022-08-05T05:37:09Z" changeset="124505287" uid="3497659" user="NKA">
		<tag k="name" v="Negarden" />
		<tag k="place" v="farm" />
		<tag k="ssr:stedsnr" v="957852" />
	</node>
	<node id="9933013007" lat="62.9184389" lon="8.1971083" version="1" timestamp="2022-08-05T05:37:09Z" changeset="124505287" uid="3497659" user="NKA">
		<tag k="name" v="Einlia" />
		<tag k="place" v="neighbourhood" />
		<tag k="ssr:stedsnr" v="12962" />
	</node>
	<node id="9933013008" lat="62.81055" lon="8.2692361" version="1" timestamp="2022-08-05T05:37:09Z" changeset="124505287" uid="3497659" user="NKA">
		<tag k="name" v="Vika" />
		<tag k="place" v="farm" />
		<tag k="ssr:stedsnr" v="801394" />
	</node>
	<node id="9933013009" lat="62.8308393" lon="8.3052263" version="1" timestamp="2022-08-05T05:37:09Z" changeset="124505287" uid="3497659" user="NKA">
		<tag k="loc_name" v="Skard" />
		<tag k="name" v="Skar" />
		<tag k="place" v="hamlet" />
		<tag k="ssr:stedsnr" v="693560" />
	</node>
	<node id="9933013010" lat="62.9235972" lon="8.2772916" version="1" timestamp="2022-08-05T05:37:09Z" changeset="124505287" uid="3497659" user="NKA">
		<tag k="name" v="Brekka" />
		<tag k="place" v="farm" />
		<tag k="ssr:stedsnr" v="740718" />
	</node>
	<node id="9933013011" lat="63.0260805" lon="7.891325" version="1" timestamp="2022-08-05T05:37:09Z" changeset="124505287" uid="3497659" user="NKA">
		<tag k="name" v="Bøyfoten" />
		<tag k="place" v="farm" />
		<tag k="ssr:stedsnr" v="922215" />
	</node>
	<node id="9933013012" lat="63.0328972" lon="7.9079862" version="1" timestamp="2022-08-05T05:37:09Z" changeset="124505287" uid="3497659" user="NKA">
		<tag k="name" v="Storvika" />
		<tag k="place" v="farm" />
		<tag k="ssr:stedsnr" v="315225" />
	</node>
	<node id="9933013013" lat="62.8661332" lon="8.3000307" version="1" timestamp="2022-08-05T05:37:09Z" changeset="124505287" uid="3497659" user="NKA">
		<tag k="name" v="Jøvika" />
		<tag k="place" v="hamlet" />
		<tag k="ssr:stedsnr" v="497251" />
	</node>
	<node id="9933013014" lat="62.8793787" lon="8.3128356" version="1" timestamp="2022-08-05T05:37:09Z" changeset="124505287" uid="3497659" user="NKA">
		<tag k="name" v="Bekken" />
		<tag k="place" v="farm" />
		<tag k="ssr:stedsnr" v="437287" />
	</node>
	<node id="9933013015" lat="62.95751" lon="8.3314799" version="1" timestamp="2022-08-05T05:37:09Z" changeset="124505287" uid="3497659" user="NKA">
		<tag k="name" v="Aksnes" />
		<tag k="place" v="farm" />
		<tag k="ssr:stedsnr" v="472011" />
	</node>
	<node id="9933013016" lat="63.038218" lon="7.9129946" version="1" timestamp="2022-08-05T05:37:09Z" changeset="124505287" uid="3497659" user="NKA">
		<tag k="name" v="Sallaupen" />
		<tag k="place" v="farm" />
		<tag k="ssr:stedsnr" v="255142" />
	</node>
	<node id="9933013017" lat="62.9910535" lon="7.8843491" version="1" timestamp="2022-08-05T05:37:09Z" changeset="124505287" uid="3497659" user="NKA">
		<tag k="name" v="Skjevlingsnes" />
		<tag k="place" v="farm" />
		<tag k="ssr:stedsnr" v="980434" />
	</node>
	<node id="9933013018" lat="62.8370028" lon="8.2956362" version="1" timestamp="2022-08-05T05:37:09Z" changeset="124505287" uid="3497659" user="NKA">
		<tag k="name" v="Nygård" />
		<tag k="place" v="farm" />
		<tag k="ssr:stedsnr" v="376346" />
	</node>
	<node id="9933013019" lat="62.8406322" lon="8.2959035" version="1" timestamp="2022-08-05T05:37:09Z" changeset="124505287" uid="3497659" user="NKA">
		<tag k="name" v="Hanem" />
		<tag k="place" v="hamlet" />
		<tag k="ssr:stedsnr" v="376355" />
	</node>
	<node id="9933013020" lat="63.099766" lon="7.9706566" version="1" timestamp="2022-08-05T05:37:09Z" changeset="124505287" uid="3497659" user="NKA">
		<tag k="name" v="Bukta" />
		<tag k="place" v="isolated_dwelling" />
		<tag k="ssr:stedsnr" v="506579" />
	</node>
	<node id="9933013021" lat="62.9990778" lon="7.9284223" version="1" timestamp="2022-08-05T05:37:09Z" changeset="124505287" uid="3497659" user="NKA">
		<tag k="name" v="Sletta" />
		<tag k="place" v="farm" />
		<tag k="ssr:stedsnr" v="861822" />
	</node>
	<node id="9933013022" lat="63.0626945" lon="8.0776444" version="1" timestamp="2022-08-05T05:37:09Z" changeset="124505287" uid="3497659" user="NKA">
		<tag k="historic" v="shieling" />
		<tag k="name" v="Skeisvollsetra" />
		<tag k="place" v="isolated_dwelling" />
		<tag k="ssr:stedsnr" v="956476" />
	</node>
	<node id="9933013023" lat="63.0431718" lon="8.0564267" version="1" timestamp="2022-08-05T05:37:09Z" changeset="124505287" uid="3497659" user="NKA">
		<tag k="name" v="Bjørkås" />
		<tag k="place" v="farm" />
		<tag k="ssr:stedsnr" v="956557" />
	</node>
	<node id="9933013024" lat="63.0417881" lon="8.0647612" version="1" timestamp="2022-08-05T05:37:09Z" changeset="124505287" uid="3497659" user="NKA">
		<tag k="alt_name" v="Strømsvåg" />
		<tag k="name" v="Straumsvågen" />
		<tag k="place" v="farm" />
		<tag k="ssr:stedsnr" v="923277" />
	</node>
	<node id="9933013025" lat="63.0301806" lon="7.9037584" version="1" timestamp="2022-08-05T05:37:09Z" changeset="124505287" uid="3497659" user="NKA">
		<tag k="name" v="Tuvika" />
		<tag k="place" v="farm" />
		<tag k="ssr:stedsnr" v="497213" />
	</node>
	<node id="9933013026" lat="63.0116722" lon="7.9050862" version="1" timestamp="2022-08-05T05:37:09Z" changeset="124505287" uid="3497659" user="NKA">
		<tag k="name" v="Brekka" />
		<tag k="place" v="farm" />
		<tag k="ssr:stedsnr" v="531608" />
	</node>
	<node id="9933013027" lat="63.0158139" lon="7.9017583" version="1" timestamp="2022-08-05T05:37:09Z" changeset="124505287" uid="3497659" user="NKA">
		<tag k="name" v="Nedre Aspa" />
		<tag k="place" v="farm" />
		<tag k="ssr:stedsnr" v="896602" />
	</node>
	<node id="9933013028" lat="63.035676" lon="8.0385563" version="1" timestamp="2022-08-05T05:37:09Z" changeset="124505287" uid="3497659" user="NKA">
		<tag k="name" v="Leitet" />
		<tag k="place" v="farm" />
		<tag k="ssr:stedsnr" v="376251" />
	</node>
	<node id="9933013029" lat="63.0506972" lon="8.0314112" version="1" timestamp="2022-08-05T05:37:09Z" changeset="124505287" uid="3497659" user="NKA">
		<tag k="name" v="Vårtun" />
		<tag k="place" v="farm" />
		<tag k="ssr:stedsnr" v="498161" />
	</node>
	<node id="9933013030" lat="62.8819715" lon="8.1598315" version="1" timestamp="2022-08-05T05:37:09Z" changeset="124505287" uid="3497659" user="NKA">
		<tag k="name" v="Kårsteinen" />
		<tag k="place" v="farm" />
		<tag k="ssr:stedsnr" v="558536" />
	</node>
	<node id="9933013031" lat="63.0092111" lon="8.1174945" version="1" timestamp="2022-08-05T05:37:09Z" changeset="124505287" uid="3497659" user="NKA">
		<tag k="historic" v="shieling" />
		<tag k="name" v="Nysetra" />
		<tag k="place" v="isolated_dwelling" />
		<tag k="ssr:stedsnr" v="384578" />
	</node>
	<node id="9933013032" lat="62.8376834" lon="8.3359278" version="1" timestamp="2022-08-05T05:37:09Z" changeset="124505287" uid="3497659" user="NKA">
		<tag k="historic" v="shieling" />
		<tag k="name" v="Skarssetra" />
		<tag k="place" v="isolated_dwelling" />
		<tag k="ssr:stedsnr" v="801322" />
	</node>
	<node id="9933013033" lat="62.8815556" lon="8.2306388" version="1" timestamp="2022-08-05T05:37:09Z" changeset="124505287" uid="3497659" user="NKA">
		<tag k="historic" v="shieling" />
		<tag k="name" v="Innerstølsetra" />
		<tag k="place" v="isolated_dwelling" />
		<tag k="ssr:stedsnr" v="775154" />
	</node>
	<node id="9933013034" lat="62.8740278" lon="8.2888306" version="1" timestamp="2022-08-05T05:37:09Z" changeset="124505287" uid="3497659" user="NKA">
		<tag k="historic" v="shieling" />
		<tag k="name" v="Jøviksetra" />
		<tag k="place" v="isolated_dwelling" />
		<tag k="ssr:stedsnr" v="801236" />
	</node>
	<node id="9933013035" lat="62.859625" lon="8.3583834" version="1" timestamp="2022-08-05T05:37:09Z" changeset="124505287" uid="3497659" user="NKA">
		<tag k="name" v="Åsprongsetra" />
		<tag k="place" v="isolated_dwelling" />
		<tag k="ssr:stedsnr" v="740360" />
	</node>
	<node id="9933013036" lat="62.862275" lon="8.1940501" version="1" timestamp="2022-08-05T05:37:09Z" changeset="124505287" uid="3497659" user="NKA">
		<tag k="historic" v="shieling" />
		<tag k="name" v="Gjørsviksetra" />
		<tag k="place" v="isolated_dwelling" />
		<tag k="ssr:stedsnr" v="775065" />
	</node>
	<node id="9933013037" lat="62.9947444" lon="7.8982388" version="1" timestamp="2022-08-05T05:37:09Z" changeset="124505287" uid="3497659" user="NKA">
		<tag k="name" v="Rambjøra" />
		<tag k="place" v="farm" />
		<tag k="ssr:stedsnr" v="557865" />
	</node>
	<node id="9933013038" lat="62.8546333" lon="8.2764916" version="1" timestamp="2022-08-05T05:37:09Z" changeset="124505287" uid="3497659" user="NKA">
		<tag k="name" v="Haugen" />
		<tag k="place" v="farm" />
		<tag k="ssr:stedsnr" v="497364" />
	</node>
	<node id="9933013039" lat="63.0597722" lon="8.0061889" version="1" timestamp="2022-08-05T05:37:09Z" changeset="124505287" uid="3497659" user="NKA">
		<tag k="name" v="Vasseng" />
		<tag k="place" v="farm" />
		<tag k="ssr:stedsnr" v="558166" />
	</node>
	<node id="9933013040" lat="62.8298805" lon="8.3078667" version="1" timestamp="2022-08-05T05:37:09Z" changeset="124505287" uid="3497659" user="NKA">
		<tag k="name" v="Oppistua" />
		<tag k="place" v="farm" />
		<tag k="ssr:stedsnr" v="897978" />
	</node>
	<node id="9933013041" lat="63.0745861" lon="8.1373279" version="1" timestamp="2022-08-05T05:37:09Z" changeset="124505287" uid="3497659" user="NKA">
		<tag k="name" v="Myra" />
		<tag k="place" v="farm" />
		<tag k="ssr:stedsnr" v="922173" />
	</node>
	<node id="9933013042" lat="62.8431151" lon="8.2823285" version="1" timestamp="2022-08-05T05:37:09Z" changeset="124505287" uid="3497659" user="NKA">
		<tag k="name" v="Bergslia" />
		<tag k="place" v="hamlet" />
		<tag k="ssr:stedsnr" v="376353" />
	</node>
	<node id="9933013043" lat="62.8557194" lon="8.2613361" version="1" timestamp="2022-08-05T05:37:09Z" changeset="124505287" uid="3497659" user="NKA">
		<tag k="name" v="Venåsmyra" />
		<tag k="place" v="farm" />
		<tag k="ssr:stedsnr" v="315335" />
	</node>
	<node id="9933013044" lat="63.0623666" lon="7.9904223" version="1" timestamp="2022-08-05T05:37:09Z" changeset="124505287" uid="3497659" user="NKA">
		<tag k="name" v="Myrvang" />
		<tag k="place" v="farm" />
		<tag k="ssr:stedsnr" v="801164" />
	</node>
	<node id="9933013045" lat="62.9742444" lon="8.2013666" version="1" timestamp="2022-08-05T05:37:09Z" changeset="124505287" uid="3497659" user="NKA">
		<tag k="historic" v="shieling" />
		<tag k="name" v="Sponåssetra" />
		<tag k="place" v="isolated_dwelling" />
		<tag k="ssr:stedsnr" v="836226" />
	</node>
	<node id="9933013046" lat="62.863075" lon="8.1653333" version="1" timestamp="2022-08-05T05:37:09Z" changeset="124505287" uid="3497659" user="NKA">
		<tag k="name" v="Honnhammarvika" />
		<tag k="place" v="farm" />
		<tag k="ssr:stedsnr" v="133480" />
	</node>
	<node id="9933013047" lat="62.9209324" lon="8.2431947" version="1" timestamp="2022-08-05T05:37:09Z" changeset="124505287" uid="3497659" user="NKA">
		<tag k="name" v="Harholten" />
		<tag k="place" v="farm" />
		<tag k="ssr:stedsnr" v="315725" />
	</node>
	<node id="9933013048" lat="62.854399" lon="8.1624092" version="1" timestamp="2022-08-05T05:37:09Z" changeset="124505287" uid="3497659" user="NKA">
		<tag k="name" v="Honnhammaren" />
		<tag k="place" v="hamlet" />
		<tag k="ssr:stedsnr" v="133497" />
	</node>
	<node id="9933013049" lat="62.9764756" lon="8.2500744" version="1" timestamp="2022-08-05T05:37:09Z" changeset="124505287" uid="3497659" user="NKA">
		<tag k="name" v="Myra" />
		<tag k="place" v="farm" />
		<tag k="ssr:stedsnr" v="315646" />
	</node>
	<node id="9933013050" lat="62.8500074" lon="8.3060546" version="1" timestamp="2022-08-05T05:37:09Z" changeset="124505287" uid="3497659" user="NKA">
		<tag k="name" v="Seterlia" />
		<tag k="place" v="farm" />
		<tag k="ssr:stedsnr" v="133337" />
	</node>
	<node id="9933013051" lat="62.86755" lon="8.2778834" version="1" timestamp="2022-08-05T05:37:09Z" changeset="124505287" uid="3497659" user="NKA">
		<tag k="historic" v="shieling" />
		<tag k="name" v="Oppistusetra" />
		<tag k="place" v="isolated_dwelling" />
		<tag k="ssr:stedsnr" v="107951" />
	</node>
	<node id="9933013052" lat="62.8529806" lon="8.3012251" version="1" timestamp="2022-08-05T05:37:09Z" changeset="124505287" uid="3497659" user="NKA">
		<tag k="name" v="Øra" />
		<tag k="place" v="farm" />
		<tag k="ssr:stedsnr" v="133338" />
	</node>
	<node id="9933013053" lat="62.9328416" lon="8.289414" version="1" timestamp="2022-08-05T05:37:09Z" changeset="124505287" uid="3497659" user="NKA">
		<tag k="name" v="Geilen" />
		<tag k="place" v="farm" />
		<tag k="ssr:stedsnr" v="254679" />
	</node>
	<node id="9933013054" lat="62.8260806" lon="8.3562499" version="1" timestamp="2022-08-05T05:37:09Z" changeset="124505287" uid="3497659" user="NKA">
		<tag k="name" v="Vollan" />
		<tag k="place" v="farm" />
		<tag k="ssr:stedsnr" v="133275" />
	</node>
	<node id="9933013055" lat="62.9617305" lon="8.2189917" version="1" timestamp="2022-08-05T05:37:09Z" changeset="124505287" uid="3497659" user="NKA">
		<tag k="name" v="Vollan" />
		<tag k="place" v="farm" />
		<tag k="ssr:stedsnr" v="254647" />
	</node>
	<node id="9933013056" lat="62.9560555" lon="8.3265057" version="1" timestamp="2022-08-05T05:37:09Z" changeset="124505287" uid="3497659" user="NKA">
		<tag k="name" v="Aksnes hyttefelt" />
		<tag k="place" v="neighbourhood" />
		<tag k="ssr:stedsnr" v="968306" />
	</node>
	<node id="9933013057" lat="62.8307889" lon="8.204814" version="1" timestamp="2022-08-05T05:37:09Z" changeset="124505287" uid="3497659" user="NKA">
		<tag k="historic" v="shieling" />
		<tag k="name" v="Rotåssetra" />
		<tag k="place" v="isolated_dwelling" />
		<tag k="ssr:stedsnr" v="47888" />
	</node>
	<node id="9933013058" lat="62.8582171" lon="8.2458689" version="1" timestamp="2022-08-05T05:37:09Z" changeset="124505287" uid="3497659" user="NKA">
		<tag k="name" v="Venås" />
		<tag k="place" v="farm" />
		<tag k="ssr:stedsnr" v="922231" />
	</node>
	<node id="9933013059" lat="62.9297745" lon="8.2850467" version="1" timestamp="2022-08-05T05:37:09Z" changeset="124505287" uid="3497659" user="NKA">
		<tag k="name" v="Båtnes" />
		<tag k="place" v="farm" />
		<tag k="ssr:stedsnr" v="980328" />
	</node>
	<node id="9933013060" lat="62.8388722" lon="8.2540057" version="1" timestamp="2022-08-05T05:37:09Z" changeset="124505287" uid="3497659" user="NKA">
		<tag k="name" v="Skaret" />
		<tag k="place" v="isolated_dwelling" />
		<tag k="ssr:stedsnr" v="931617" />
	</node>
	<node id="9933013061" lat="62.8736962" lon="8.3016668" version="1" timestamp="2022-08-05T05:37:09Z" changeset="124505287" uid="3497659" user="NKA">
		<tag k="name" v="Jøviklia" />
		<tag k="place" v="farm" />
		<tag k="ssr:stedsnr" v="73272" />
	</node>
	<node id="9933013062" lat="62.8038528" lon="8.3253084" version="1" timestamp="2022-08-05T05:37:09Z" changeset="124505287" uid="3497659" user="NKA">
		<tag k="name" v="Solbakken" />
		<tag k="place" v="farm" />
		<tag k="ssr:stedsnr" v="714870" />
	</node>
	<node id="9933013063" lat="62.9916639" lon="8.2519444" version="1" timestamp="2022-08-05T05:37:09Z" changeset="124505287" uid="3497659" user="NKA">
		<tag k="name" v="Vikavollen" />
		<tag k="place" v="farm" />
		<tag k="ssr:stedsnr" v="800640" />
	</node>
	<node id="9933013064" lat="62.8560659" lon="8.2740828" version="1" timestamp="2022-08-05T05:37:09Z" changeset="124505287" uid="3497659" user="NKA">
		<tag k="name" v="Nygarden" />
		<tag k="place" v="farm" />
		<tag k="ssr:stedsnr" v="12358" />
	</node>
	<node id="9933013065" lat="62.8866472" lon="8.1964444" version="1" timestamp="2022-08-05T05:37:09Z" changeset="124505287" uid="3497659" user="NKA">
		<tag k="name" v="Hjellan" />
		<tag k="place" v="farm" />
		<tag k="ssr:stedsnr" v="740976" />
	</node>
	<node id="9933013066" lat="62.8125457" lon="8.2808694" version="1" timestamp="2022-08-05T05:37:09Z" changeset="124505287" uid="3497659" user="NKA">
		<tag k="name" v="Fjøseid" />
		<tag k="place" v="farm" />
		<tag k="ssr:stedsnr" v="923464" />
	</node>
	<node id="9933013067" lat="62.8042417" lon="8.3255027" version="1" timestamp="2022-08-05T05:37:09Z" changeset="124505287" uid="3497659" user="NKA">
		<tag k="name" v="Innerbakkan" />
		<tag k="place" v="farm" />
		<tag k="ssr:stedsnr" v="740382" />
	</node>
	<node id="9933013068" lat="62.8277" lon="8.3414528" version="1" timestamp="2022-08-05T05:37:09Z" changeset="124505287" uid="3497659" user="NKA">
		<tag k="name" v="Lia" />
		<tag k="place" v="farm" />
		<tag k="ssr:stedsnr" v="12325" />
	</node>
	<node id="9933013069" lat="62.8448543" lon="8.2589559" version="1" timestamp="2022-08-05T05:37:09Z" changeset="124505287" uid="3497659" user="NKA">
		<tag k="name" v="Toskå" />
		<tag k="place" v="isolated_dwelling" />
		<tag k="ssr:stedsnr" v="748509" />
	</node>
	<node id="9933013070" lat="62.8817472" lon="8.319675" version="1" timestamp="2022-08-05T05:37:09Z" changeset="124505287" uid="3497659" user="NKA">
		<tag k="name" v="Strand" />
		<tag k="place" v="farm" />
		<tag k="ssr:stedsnr" v="801253" />
	</node>
	<node id="9933013071" lat="62.8711682" lon="8.3379069" version="1" timestamp="2022-08-05T05:37:09Z" changeset="124505287" uid="3497659" user="NKA">
		<tag k="name" v="Leirvika" />
		<tag k="place" v="farm" />
		<tag k="ssr:stedsnr" v="255267" />
	</node>
	<node id="9933013072" lat="62.9177048" lon="8.2974874" version="1" timestamp="2022-08-05T05:37:09Z" changeset="124505287" uid="3497659" user="NKA">
		<tag k="name" v="Breivika" />
		<tag k="place" v="hamlet" />
		<tag k="ssr:stedsnr" v="557718" />
	</node>
	<node id="9933013073" lat="62.8213944" lon="8.3597334" version="1" timestamp="2022-08-05T05:37:09Z" changeset="124505287" uid="3497659" user="NKA">
		<tag k="name" v="Hjelltun" />
		<tag k="place" v="farm" />
		<tag k="ssr:stedsnr" v="168829" />
	</node>
	<node id="9933013074" lat="62.8122659" lon="8.3399138" version="1" timestamp="2022-08-05T05:37:09Z" changeset="124505287" uid="3497659" user="NKA">
		<tag k="name" v="Oppigarden" />
		<tag k="place" v="farm" />
		<tag k="ssr:stedsnr" v="168844" />
	</node>
	<node id="9933013075" lat="62.8293306" lon="8.3619189" version="1" timestamp="2022-08-05T05:37:09Z" changeset="124505287" uid="3497659" user="NKA">
		<tag k="name" v="Åkerfallet" />
		<tag k="place" v="farm" />
		<tag k="ssr:stedsnr" v="73327" />
	</node>
	<node id="9933013076" lat="62.8287222" lon="8.2912223" version="1" timestamp="2022-08-05T05:37:09Z" changeset="124505287" uid="3497659" user="NKA">
		<tag k="name" v="Skarshaugen" />
		<tag k="place" v="farm" />
		<tag k="ssr:stedsnr" v="133293" />
	</node>
	<node id="9933013077" lat="62.81375" lon="8.3788445" version="1" timestamp="2022-08-05T05:37:09Z" changeset="124505287" uid="3497659" user="NKA">
		<tag k="name" v="Havdalssetra" />
		<tag k="place" v="isolated_dwelling" />
		<tag k="ssr:stedsnr" v="801410" />
	</node>
	<node id="9933013078" lat="62.8286102" lon="8.335544" version="1" timestamp="2022-08-05T05:37:09Z" changeset="124505287" uid="3497659" user="NKA">
		<tag k="name" v="Røskaret" />
		<tag k="place" v="farm" />
		<tag k="ssr:stedsnr" v="558331" />
	</node>
	<node id="9933013079" lat="62.8570417" lon="8.2842722" version="1" timestamp="2022-08-05T05:37:09Z" changeset="124505287" uid="3497659" user="NKA">
		<tag k="name" v="Nistua" />
		<tag k="place" v="farm" />
		<tag k="ssr:stedsnr" v="558383" />
	</node>
	<node id="9933013080" lat="62.8327142" lon="8.3098875" version="1" timestamp="2022-08-05T05:37:09Z" changeset="124505287" uid="3497659" user="NKA">
		<tag k="name" v="Lauvlia" />
		<tag k="place" v="farm" />
		<tag k="ssr:stedsnr" v="558343" />
	</node>
	<node id="9933013081" lat="62.8274372" lon="8.3773809" version="1" timestamp="2022-08-05T05:37:09Z" changeset="124505287" uid="3497659" user="NKA">
		<tag k="historic" v="shieling" />
		<tag k="name" v="Myra" />
		<tag k="place" v="isolated_dwelling" />
		<tag k="ssr:stedsnr" v="558322" />
	</node>
	<node id="9933013082" lat="62.8401223" lon="8.3391056" version="1" timestamp="2022-08-05T05:37:09Z" changeset="124505287" uid="3497659" user="NKA">
		<tag k="historic" v="shieling" />
		<tag k="name" v="Hanemsetra" />
		<tag k="place" v="isolated_dwelling" />
		<tag k="ssr:stedsnr" v="411951" />
	</node>
	<node id="9933013083" lat="62.9757917" lon="8.2122222" version="1" timestamp="2022-08-05T05:37:09Z" changeset="124505287" uid="3497659" user="NKA">
		<tag k="historic" v="shieling" />
		<tag k="name" v="Gammelsetra" />
		<tag k="place" v="isolated_dwelling" />
		<tag k="ssr:stedsnr" v="957268" />
	</node>
	<node id="9933013084" lat="62.9627103" lon="8.23903" version="1" timestamp="2022-08-05T05:37:09Z" changeset="124505287" uid="3497659" user="NKA">
		<tag k="name" v="Marhaugen" />
		<tag k="place" v="farm" />
		<tag k="ssr:stedsnr" v="133648" />
	</node>
	<node id="9933013085" lat="62.8715581" lon="8.339198" version="1" timestamp="2022-08-05T05:37:09Z" changeset="124505287" uid="3497659" user="NKA">
		<tag k="name" v="Seterlia" />
		<tag k="place" v="farm" />
		<tag k="ssr:stedsnr" v="292386" />
	</node>
	<node id="9933013086" lat="62.8699583" lon="8.3075862" version="1" timestamp="2022-08-05T05:37:09Z" changeset="124505287" uid="3497659" user="NKA">
		<tag k="name" v="Nedre Bruksgrenda" />
		<tag k="place" v="neighbourhood" />
		<tag k="ssr:stedsnr" v="283406" />
	</node>
	<node id="9933013087" lat="62.9507417" lon="8.2720889" version="1" timestamp="2022-08-05T05:37:09Z" changeset="124505287" uid="3497659" user="NKA">
		<tag k="historic" v="shieling" />
		<tag k="name" v="Anderssetra" />
		<tag k="place" v="isolated_dwelling" />
		<tag k="ssr:stedsnr" v="107249" />
	</node>
	<node id="9933013088" lat="62.8349528" lon="8.2990806" version="1" timestamp="2022-08-05T05:37:09Z" changeset="124505287" uid="3497659" user="NKA">
		<tag k="name" v="Nistua" />
		<tag k="place" v="farm" />
		<tag k="ssr:stedsnr" v="229964" />
	</node>
	<node id="9933013089" lat="62.8729167" lon="8.3102666" version="1" timestamp="2022-08-05T05:37:09Z" changeset="124505287" uid="3497659" user="NKA">
		<tag k="name" v="Naustvollan" />
		<tag k="place" v="neighbourhood" />
		<tag k="ssr:stedsnr" v="283395" />
	</node>
	<node id="9933013090" lat="62.993325" lon="8.2266557" version="1" timestamp="2022-08-05T05:37:09Z" changeset="124505287" uid="3497659" user="NKA">
		<tag k="historic" v="shieling" />
		<tag k="name" v="Nordbøsetra" />
		<tag k="place" v="isolated_dwelling" />
		<tag k="ssr:stedsnr" v="81620" />
	</node>
	<node id="9933013091" lat="62.9748306" lon="8.2594306" version="1" timestamp="2022-08-05T05:37:09Z" changeset="124505287" uid="3497659" user="NKA">
		<tag k="name" v="Nervågen" />
		<tag k="place" v="farm" />
		<tag k="ssr:stedsnr" v="47112" />
	</node>
	<node id="9933013092" lat="62.9701583" lon="8.2238751" version="1" timestamp="2022-08-05T05:37:09Z" changeset="124505287" uid="3497659" user="NKA">
		<tag k="name" v="Myran" />
		<tag k="place" v="farm" />
		<tag k="ssr:stedsnr" v="72644" />
	</node>
	<node id="9933013093" lat="62.8628917" lon="8.1935168" version="1" timestamp="2022-08-05T05:37:09Z" changeset="124505287" uid="3497659" user="NKA">
		<tag k="historic" v="shieling" />
		<tag k="name" v="Honnhammarsetra" />
		<tag k="place" v="isolated_dwelling" />
		<tag k="ssr:stedsnr" v="229064" />
	</node>
	<node id="9933013094" lat="62.903125" lon="8.2986555" version="1" timestamp="2022-08-05T05:37:09Z" changeset="124505287" uid="3497659" user="NKA">
		<tag k="historic" v="shieling" />
		<tag k="name" v="Bølsetsetra" />
		<tag k="place" v="isolated_dwelling" />
		<tag k="ssr:stedsnr" v="375723" />
	</node>
	<node id="9933013095" lat="62.8516167" lon="8.3105111" version="1" timestamp="2022-08-05T05:37:09Z" changeset="124505287" uid="3497659" user="NKA">
		<tag k="name" v="Nordlia" />
		<tag k="place" v="farm" />
		<tag k="ssr:stedsnr" v="194330" />
	</node>
	<node id="9933013096" lat="62.9778917" lon="8.2481138" version="1" timestamp="2022-08-05T05:37:09Z" changeset="124505287" uid="3497659" user="NKA">
		<tag k="name" v="Osen" />
		<tag k="place" v="farm" />
		<tag k="ssr:stedsnr" v="194617" />
	</node>
	<node id="9933013097" lat="62.9013062" lon="8.1845627" version="1" timestamp="2022-08-05T05:37:09Z" changeset="124505287" uid="3497659" user="NKA">
		<tag k="name" v="Åneset" />
		<tag k="place" v="farm" />
		<tag k="ssr:stedsnr" v="228379" />
	</node>
	<node id="9933013098" lat="62.8792084" lon="8.1600361" version="1" timestamp="2022-08-05T05:37:09Z" changeset="124505287" uid="3497659" user="NKA">
		<tag k="name" v="Ormsettrøa" />
		<tag k="place" v="farm" />
		<tag k="ssr:stedsnr" v="12496" />
	</node>
	<node id="9933013099" lat="62.8958166" lon="8.3337499" version="1" timestamp="2022-08-05T05:37:09Z" changeset="124505287" uid="3497659" user="NKA">
		<tag k="name" v="Haugen" />
		<tag k="place" v="farm" />
		<tag k="ssr:stedsnr" v="133260" />
	</node>
	<node id="9933013100" lat="62.8859816" lon="8.1940999" version="1" timestamp="2022-08-05T05:37:09Z" changeset="124505287" uid="3497659" user="NKA">
		<tag k="name" v="Hjellen" />
		<tag k="place" v="farm" />
		<tag k="ssr:stedsnr" v="714074" />
	</node>
	<node id="9933013101" lat="62.9860065" lon="8.2458957" version="1" timestamp="2022-08-05T05:37:09Z" changeset="124505287" uid="3497659" user="NKA">
		<tag k="name" v="Torjul" />
		<tag k="place" v="farm" />
		<tag k="ssr:stedsnr" v="713010" />
	</node>
	<node id="9933013102" lat="63.0017181" lon="8.1871192" version="1" timestamp="2022-08-05T05:37:09Z" changeset="124505287" uid="3497659" user="NKA">
		<tag k="historic" v="shieling" />
		<tag k="name" v="Kamsvågsetra" />
		<tag k="place" v="isolated_dwelling" />
		<tag k="ssr:stedsnr" v="558202" />
	</node>
	<node id="9933013103" lat="62.8974583" lon="8.2273667" version="1" timestamp="2022-08-05T05:37:09Z" changeset="124505287" uid="3497659" user="NKA">
		<tag k="historic" v="shieling" />
		<tag k="name" v="Gløtten" />
		<tag k="place" v="isolated_dwelling" />
		<tag k="ssr:stedsnr" v="471322" />
	</node>
	<node id="9933013104" lat="62.8770528" lon="8.1895111" version="1" timestamp="2022-08-05T05:37:09Z" changeset="124505287" uid="3497659" user="NKA">
		<tag k="historic" v="shieling" />
		<tag k="name" v="Ormsetsetra" />
		<tag k="place" v="isolated_dwelling" />
		<tag k="ssr:stedsnr" v="229082" />
	</node>
	<node id="9933013105" lat="62.9801222" lon="8.2696834" version="1" timestamp="2022-08-05T05:37:09Z" changeset="124505287" uid="3497659" user="NKA">
		<tag k="historic" v="shieling" />
		<tag k="name" v="Stranda" />
		<tag k="place" v="isolated_dwelling" />
		<tag k="ssr:stedsnr" v="836077" />
	</node>
	<node id="9933013106" lat="62.8800994" lon="8.215586" version="1" timestamp="2022-08-05T05:37:09Z" changeset="124505287" uid="3497659" user="NKA">
		<tag k="name" v="Negarden" />
		<tag k="place" v="farm" />
		<tag k="ssr:stedsnr" v="350162" />
	</node>
	<node id="9933013107" lat="62.9762166" lon="8.2464639" version="1" timestamp="2022-08-05T05:37:09Z" changeset="124505287" uid="3497659" user="NKA">
		<tag k="name" v="Osahaugen" />
		<tag k="place" v="neighbourhood" />
		<tag k="ssr:stedsnr" v="362302" />
	</node>
	<node id="9933013108" lat="62.8876138" lon="8.2255139" version="1" timestamp="2022-08-05T05:37:09Z" changeset="124505287" uid="3497659" user="NKA">
		<tag k="historic" v="shieling" />
		<tag k="name" v="Stølhaugsetra" />
		<tag k="place" v="isolated_dwelling" />
		<tag k="ssr:stedsnr" v="229009" />
	</node>
	<node id="9933013109" lat="62.9790429" lon="8.2515814" version="1" timestamp="2022-08-05T05:37:09Z" changeset="124505287" uid="3497659" user="NKA">
		<tag k="name" v="Holmen" />
		<tag k="place" v="farm" />
		<tag k="ssr:stedsnr" v="532689" />
	</node>
	<node id="9933013110" lat="62.8853111" lon="8.3655138" version="1" timestamp="2022-08-05T05:37:09Z" changeset="124505287" uid="3497659" user="NKA">
		<tag k="name" v="Furuneset hyttefelt" />
		<tag k="place" v="neighbourhood" />
		<tag k="ssr:stedsnr" v="343444" />
	</node>
	<node id="9933013111" lat="62.8963111" lon="8.2070222" version="1" timestamp="2022-08-05T05:37:09Z" changeset="124505287" uid="3497659" user="NKA">
		<tag k="name" v="Tingvoll næringspark" />
		<tag k="old_name" v="Saghøgda industriområde" />
		<tag k="place" v="neighbourhood" />
		<tag k="ssr:stedsnr" v="118302" />
	</node>
	<node id="9933013112" lat="63.0647063" lon="7.9885692" version="1" timestamp="2022-08-05T05:37:09Z" changeset="124505287" uid="3497659" user="NKA">
		<tag k="name" v="Kvisvika" />
		<tag k="place" v="farm" />
		<tag k="ssr:stedsnr" v="497161" />
	</node>
	<node id="9933013113" lat="62.9554194" lon="8.1866111" version="1" timestamp="2022-08-05T05:37:09Z" changeset="124505287" uid="3497659" user="NKA">
		<tag k="historic" v="shieling" />
		<tag k="name" v="Johansetra" />
		<tag k="place" v="isolated_dwelling" />
		<tag k="ssr:stedsnr" v="532669" />
	</node>
	<node id="9933013114" lat="63.0165528" lon="8.042575" version="1" timestamp="2022-08-05T05:37:09Z" changeset="124505287" uid="3497659" user="NKA">
		<tag k="historic" v="shieling" />
		<tag k="name" v="Melsåssetra" />
		<tag k="place" v="isolated_dwelling" />
		<tag k="ssr:stedsnr" v="471387" />
	</node>
	<node id="9933013115" lat="63.0316445" lon="8.1219527" version="1" timestamp="2022-08-05T05:37:09Z" changeset="124505287" uid="3497659" user="NKA">
		<tag k="name" v="Solbakken" />
		<tag k="place" v="farm" />
		<tag k="ssr:stedsnr" v="775253" />
	</node>
	<node id="9933013116" lat="62.9673222" lon="8.089786" version="1" timestamp="2022-08-05T05:37:09Z" changeset="124505287" uid="3497659" user="NKA">
		<tag k="historic" v="shieling" />
		<tag k="name" v="Hammarsetra" />
		<tag k="place" v="isolated_dwelling" />
		<tag k="ssr:stedsnr" v="315879" />
	</node>
	<node id="9933013117" lat="62.9601389" lon="8.2139944" version="1" timestamp="2022-08-05T05:37:09Z" changeset="124505287" uid="3497659" user="NKA">
		<tag k="name" v="Gammelgarden" />
		<tag k="place" v="farm" />
		<tag k="ssr:stedsnr" v="350608" />
	</node>
	<node id="9933013118" lat="62.9762742" lon="8.0643152" version="1" timestamp="2022-08-05T05:37:09Z" changeset="124505287" uid="3497659" user="NKA">
		<tag k="name" v="Vulvika" />
		<tag k="place" v="farm" />
		<tag k="ssr:stedsnr" v="254889" />
	</node>
	<node id="9933013119" lat="62.9271301" lon="8.1581727" version="1" timestamp="2022-08-05T05:37:09Z" changeset="124505287" uid="3497659" user="NKA">
		<tag k="name" v="Brøddvika" />
		<tag k="place" v="farm" />
		<tag k="ssr:stedsnr" v="375955" />
	</node>
	<node id="9933013120" lat="62.9158889" lon="8.1945027" version="1" timestamp="2022-08-05T05:37:09Z" changeset="124505287" uid="3497659" user="NKA">
		<tag k="name" v="Midtvågen Nord" />
		<tag k="place" v="neighbourhood" />
		<tag k="ssr:stedsnr" v="119285" />
	</node>
	<node id="9933013121" lat="63.0029676" lon="8.024185" version="1" timestamp="2022-08-05T05:37:09Z" changeset="124505287" uid="3497659" user="NKA">
		<tag k="name" v="Myrdalen" />
		<tag k="place" v="farm" />
		<tag k="ssr:stedsnr" v="168396" />
	</node>
	<node id="9933013122" lat="63.0795528" lon="8.1290251" version="1" timestamp="2022-08-05T05:37:09Z" changeset="124505287" uid="3497659" user="NKA">
		<tag k="name" v="Haugen hytte- og landbruksområde" />
		<tag k="place" v="neighbourhood" />
		<tag k="ssr:stedsnr" v="118298" />
	</node>
	<node id="9933013123" lat="62.9516695" lon="8.1360027" version="1" timestamp="2022-08-05T05:37:09Z" changeset="124505287" uid="3497659" user="NKA">
		<tag k="name" v="Teigan" />
		<tag k="place" v="farm" />
		<tag k="ssr:stedsnr" v="132933" />
	</node>
	<node id="9933013124" lat="63.1014253" lon="8.0624757" version="1" timestamp="2022-08-05T05:37:09Z" changeset="124505287" uid="3497659" user="NKA">
		<tag k="historic" v="shieling" />
		<tag k="name" v="Ossetra" />
		<tag k="place" v="isolated_dwelling" />
		<tag k="ssr:stedsnr" v="73375" />
	</node>
	<node id="9933013125" lat="62.9672167" lon="8.2073083" version="1" timestamp="2022-08-05T05:37:09Z" changeset="124505287" uid="3497659" user="NKA">
		<tag k="historic" v="shieling" />
		<tag k="name" v="Torjulseter" />
		<tag k="place" v="isolated_dwelling" />
		<tag k="ssr:stedsnr" v="108650" />
	</node>
	<node id="9933013126" lat="63.1068973" lon="8.0288058" version="1" timestamp="2022-08-05T05:37:09Z" changeset="124505287" uid="3497659" user="NKA">
		<tag k="name" v="Bogen" />
		<tag k="place" v="farm" />
		<tag k="ssr:stedsnr" v="956306" />
	</node>
	<node id="9933013127" lat="63.0138334" lon="8.179972" version="1" timestamp="2022-08-05T05:37:09Z" changeset="124505287" uid="3497659" user="NKA">
		<tag k="historic" v="shieling" />
		<tag k="name" v="Fløystadsetra" />
		<tag k="place" v="isolated_dwelling" />
		<tag k="ssr:stedsnr" v="688591" />
	</node>
	<node id="9933013128" lat="63.0388474" lon="8.0557403" version="1" timestamp="2022-08-05T05:37:09Z" changeset="124505287" uid="3497659" user="NKA">
		<tag k="name" v="Bjerkelund" />
		<tag k="place" v="farm" />
		<tag k="ssr:stedsnr" v="46424" />
	</node>
	<node id="9933013129" lat="62.9113972" lon="8.1830388" version="1" timestamp="2022-08-05T05:37:09Z" changeset="124505287" uid="3497659" user="NKA">
		<tag k="name" v="Prestgarden" />
		<tag k="place" v="farm" />
		<tag k="ssr:stedsnr" v="46358" />
	</node>
	<node id="9933013130" lat="63.0973806" lon="8.0469168" version="1" timestamp="2022-08-05T05:37:09Z" changeset="124505287" uid="3497659" user="NKA">
		<tag k="historic" v="shieling" />
		<tag k="name" v="Strandasetra" />
		<tag k="place" v="isolated_dwelling" />
		<tag k="ssr:stedsnr" v="957302" />
	</node>
	<node id="9933013131" lat="63.0914537" lon="7.9942891" version="1" timestamp="2022-08-05T05:37:09Z" changeset="124505287" uid="3497659" user="NKA">
		<tag k="name" v="Sørbugt" />
		<tag k="place" v="farm" />
		<tag k="ssr:stedsnr" v="956390" />
	</node>
	<node id="9933013132" lat="62.9748555" lon="8.1875333" version="1" timestamp="2022-08-05T05:37:09Z" changeset="124505287" uid="3497659" user="NKA">
		<tag k="name" v="Sponåssetra" />
		<tag k="place" v="isolated_dwelling" />
		<tag k="ssr:stedsnr" v="12897" />
	</node>
	<node id="9933013133" lat="62.9897139" lon="8.1007723" version="1" timestamp="2022-08-05T05:37:09Z" changeset="124505287" uid="3497659" user="NKA">
		<tag k="historic" v="shieling" />
		<tag k="name" v="Vulviksetra" />
		<tag k="place" v="isolated_dwelling" />
		<tag k="ssr:stedsnr" v="12843" />
	</node>
	<node id="9933013134" lat="63.1050889" lon="8.0246056" version="1" timestamp="2022-08-05T05:37:09Z" changeset="124505287" uid="3497659" user="NKA">
		<tag k="name" v="Langøya" />
		<tag k="place" v="farm" />
		<tag k="ssr:stedsnr" v="12356" />
	</node>
	<node id="9933013135" lat="63.0580361" lon="8.0241833" version="1" timestamp="2022-08-05T05:37:09Z" changeset="124505287" uid="3497659" user="NKA">
		<tag k="name" v="Nymo" />
		<tag k="place" v="farm" />
		<tag k="ssr:stedsnr" v="922153" />
	</node>
	<node id="9933013136" lat="62.9555268" lon="8.1726583" version="1" timestamp="2022-08-05T05:37:09Z" changeset="124505287" uid="3497659" user="NKA">
		<tag k="name" v="Ramslia" />
		<tag k="place" v="farm" />
		<tag k="ssr:stedsnr" v="921911" />
	</node>
	<node id="9933013137" lat="63.0668611" lon="7.9948778" version="1" timestamp="2022-08-05T05:37:09Z" changeset="124505287" uid="3497659" user="NKA">
		<tag k="name" v="Kvisvik Øst" />
		<tag k="place" v="neighbourhood" />
		<tag k="ssr:stedsnr" v="726326" />
	</node>
	<node id="9933013138" lat="62.9899889" lon="8.1277779" version="1" timestamp="2022-08-05T05:37:09Z" changeset="124505287" uid="3497659" user="NKA">
		<tag k="historic" v="shieling" />
		<tag k="name" v="Gammelsetra" />
		<tag k="place" v="isolated_dwelling" />
		<tag k="ssr:stedsnr" v="714652" />
	</node>
	<node id="9933013139" lat="63.1023891" lon="8.0345016" version="1" timestamp="2022-08-05T05:37:09Z" changeset="124505287" uid="3497659" user="NKA">
		<tag k="name" v="Finnvika" />
		<tag k="place" v="farm" />
		<tag k="ssr:stedsnr" v="679331" />
	</node>
	<node id="9933013140" lat="63.0916639" lon="8.0030529" version="1" timestamp="2022-08-05T05:37:09Z" changeset="124505287" uid="3497659" user="NKA">
		<tag k="name" v="Nygarden" />
		<tag k="place" v="farm" />
		<tag k="ssr:stedsnr" v="619369" />
	</node>
	<node id="9933013141" lat="63.0912111" lon="7.9984722" version="1" timestamp="2022-08-05T05:37:09Z" changeset="124505287" uid="3497659" user="NKA">
		<tag k="name" v="Myra" />
		<tag k="place" v="farm" />
		<tag k="ssr:stedsnr" v="619366" />
	</node>
	<node id="9933013142" lat="63.0804708" lon="8.1286184" version="1" timestamp="2022-08-05T05:37:09Z" changeset="124505287" uid="3497659" user="NKA">
		<tag k="name" v="Hals" />
		<tag k="place" v="hamlet" />
		<tag k="ssr:stedsnr" v="618304" />
	</node>
	<node id="9933013143" lat="63.0400778" lon="7.9542027" version="1" timestamp="2022-08-05T05:37:09Z" changeset="124505287" uid="3497659" user="NKA">
		<tag k="name" v="Vikahaugen hyttefelt" />
		<tag k="place" v="neighbourhood" />
		<tag k="ssr:stedsnr" v="603443" />
	</node>
	<node id="9933013144" lat="63.1055138" lon="8.0513027" version="1" timestamp="2022-08-05T05:37:09Z" changeset="124505287" uid="3497659" user="NKA">
		<tag k="name" v="Vika" />
		<tag k="place" v="farm" />
		<tag k="ssr:stedsnr" v="498428" />
	</node>
	<node id="9933013145" lat="62.9536445" lon="8.1333639" version="1" timestamp="2022-08-05T05:37:09Z" changeset="124505287" uid="3497659" user="NKA">
		<tag k="name" v="Bruvollen" />
		<tag k="place" v="farm" />
		<tag k="ssr:stedsnr" v="592505" />
	</node>
	<node id="9933013146" lat="63.0293528" lon="8.1400889" version="1" timestamp="2022-08-05T05:37:09Z" changeset="124505287" uid="3497659" user="NKA">
		<tag k="name" v="Fredheim" />
		<tag k="place" v="farm" />
		<tag k="ssr:stedsnr" v="836233" />
	</node>
	<node id="9933013147" lat="63.0554472" lon="8.0198778" version="1" timestamp="2022-08-05T05:37:09Z" changeset="124505287" uid="3497659" user="NKA">
		<tag k="name" v="Hagan" />
		<tag k="place" v="farm" />
		<tag k="ssr:stedsnr" v="498183" />
	</node>
	<node id="9933013148" lat="63.0093309" lon="8.197301" version="1" timestamp="2022-08-05T05:37:09Z" changeset="124505287" uid="3497659" user="NKA">
		<tag k="name" v="Jordal" />
		<tag k="place" v="farm" />
		<tag k="ssr:stedsnr" v="834051" />
	</node>
	<node id="9933013149" lat="63.1014255" lon="8.0301406" version="1" timestamp="2022-08-05T05:37:09Z" changeset="124505287" uid="3497659" user="NKA">
		<tag k="name" v="Haugen" />
		<tag k="place" v="farm" />
		<tag k="ssr:stedsnr" v="316421" />
	</node>
	<node id="9933013150" lat="63.0177278" lon="7.9361138" version="1" timestamp="2022-08-05T05:37:09Z" changeset="124505287" uid="3497659" user="NKA">
		<tag k="name" v="Aspsetra" />
		<tag k="place" v="farm" />
		<tag k="ssr:stedsnr" v="315195" />
	</node>
	<node id="9933013151" lat="63.0414397" lon="7.9934623" version="1" timestamp="2022-08-05T05:37:09Z" changeset="124505287" uid="3497659" user="NKA">
		<tag k="name" v="Groven" />
		<tag k="place" v="isolated_dwelling" />
		<tag k="ssr:stedsnr" v="289270" />
	</node>
	<node id="9933013152" lat="62.9185183" lon="8.204639" version="1" timestamp="2022-08-05T05:37:09Z" changeset="124505287" uid="3497659" user="NKA">
		<tag k="name" v="Holan" />
		<tag k="place" v="farm" />
		<tag k="ssr:stedsnr" v="411792" />
	</node>
	<node id="9933013153" lat="63.0475023" lon="8.118086" version="1" timestamp="2022-08-05T05:37:09Z" changeset="124505287" uid="3497659" user="NKA">
		<tag k="name" v="Straumen" />
		<tag k="place" v="farm" />
		<tag k="ssr:stedsnr" v="410284" />
	</node>
	<node id="9933013154" lat="63.0328491" lon="8.0127666" version="1" timestamp="2022-08-05T05:37:09Z" changeset="124505287" uid="3497659" user="NKA">
		<tag k="alt_name" v="Ulset" />
		<tag k="name" v="Øverhaugen" />
		<tag k="place" v="farm" />
		<tag k="ssr:stedsnr" v="167418" />
	</node>
	<node id="9933013155" lat="63.0653524" lon="7.9860064" version="1" timestamp="2022-08-05T05:37:09Z" changeset="124505287" uid="3497659" user="NKA">
		<tag k="name" v="Bakken" />
		<tag k="place" v="farm" />
		<tag k="ssr:stedsnr" v="46913" />
	</node>
	<node id="9933013156" lat="63.0402956" lon="8.1270003" version="1" timestamp="2022-08-05T05:37:09Z" changeset="124505287" uid="3497659" user="NKA">
		<tag k="name" v="Nistua" />
		<tag k="place" v="farm" />
		<tag k="ssr:stedsnr" v="350245" />
	</node>
	<node id="9933013157" lat="62.9113805" lon="8.2082888" version="1" timestamp="2022-08-05T05:37:09Z" changeset="124505287" uid="3497659" user="NKA">
		<tag k="name" v="Midtvågen i Tingvollvågen" />
		<tag k="place" v="neighbourhood" />
		<tag k="ssr:stedsnr" v="240298" />
	</node>
	<node id="9933013158" lat="62.9944611" lon="8.0382389" version="1" timestamp="2022-08-05T05:37:09Z" changeset="124505287" uid="3497659" user="NKA">
		<tag k="name" v="Rønningen" />
		<tag k="place" v="farm" />
		<tag k="ssr:stedsnr" v="47458" />
	</node>
	<node id="9933013159" lat="63.0261055" lon="7.983139" version="1" timestamp="2022-08-05T05:37:09Z" changeset="124505287" uid="3497659" user="NKA">
		<tag k="name" v="Skjæret" />
		<tag k="place" v="farm" />
		<tag k="ssr:stedsnr" v="73226" />
	</node>
	<node id="9933013160" lat="63.0413167" lon="8.0402833" version="1" timestamp="2022-08-05T05:37:09Z" changeset="124505287" uid="3497659" user="NKA">
		<tag k="name" v="Skogmo" />
		<tag k="place" v="farm" />
		<tag k="ssr:stedsnr" v="73241" />
	</node>
	<node id="9933013161" lat="63.0008833" lon="8.0132167" version="1" timestamp="2022-08-05T05:37:09Z" changeset="124505287" uid="3497659" user="NKA">
		<tag k="name" v="Hagen" />
		<tag k="place" v="farm" />
		<tag k="ssr:stedsnr" v="47393" />
	</node>
	<node id="9933013162" lat="63.0703388" lon="7.9739556" version="1" timestamp="2022-08-05T05:37:09Z" changeset="124505287" uid="3497659" user="NKA">
		<tag k="name" v="Kvisvika hyttefelt" />
		<tag k="place" v="neighbourhood" />
		<tag k="ssr:stedsnr" v="968303" />
	</node>
	<node id="9933013163" lat="62.9217389" lon="8.2294112" version="1" timestamp="2022-08-05T05:37:09Z" changeset="124505287" uid="3497659" user="NKA">
		<tag k="name" v="Solstad" />
		<tag k="place" v="farm" />
		<tag k="ssr:stedsnr" v="254691" />
	</node>
	<node id="9933013164" lat="63.0409741" lon="8.05094" version="1" timestamp="2022-08-05T05:37:09Z" changeset="124505287" uid="3497659" user="NKA">
		<tag k="alt_name" v="Sveeback" />
		<tag k="name" v="Svebakk" />
		<tag k="place" v="farm" />
		<tag k="ssr:stedsnr" v="46548" />
	</node>
	<node id="9933013165" lat="62.9662861" lon="8.2310972" version="1" timestamp="2022-08-05T05:37:09Z" changeset="124505287" uid="3497659" user="NKA">
		<tag k="alt_name" v="Nerland" />
		<tag k="name" v="Nordland" />
		<tag k="place" v="farm" />
		<tag k="ssr:stedsnr" v="12668" />
	</node>
	<node id="9933013166" lat="63.0668611" lon="8.0000611" version="1" timestamp="2022-08-05T05:37:09Z" changeset="124505287" uid="3497659" user="NKA">
		<tag k="name" v="Myra" />
		<tag k="place" v="farm" />
		<tag k="ssr:stedsnr" v="862205" />
	</node>
	<node id="9933013167" lat="63.0199071" lon="7.9459964" version="1" timestamp="2022-08-05T05:37:09Z" changeset="124505287" uid="3497659" user="NKA">
		<tag k="name" v="Faksvågen" />
		<tag k="place" v="hamlet" />
		<tag k="ssr:stedsnr" v="740198" />
	</node>
	<node id="9933013168" lat="62.9677414" lon="8.2416781" version="1" timestamp="2022-08-05T05:37:09Z" changeset="124505287" uid="3497659" user="NKA">
		<tag k="name" v="Stølen" />
		<tag k="place" v="farm" />
		<tag k="ssr:stedsnr" v="12670" />
	</node>
	<node id="9933013169" lat="63.0172942" lon="7.9854869" version="1" timestamp="2022-08-05T05:37:09Z" changeset="124505287" uid="3497659" user="NKA">
		<tag k="alt_name" v="Norstrand" />
		<tag k="name" v="Nordstrand" />
		<tag k="place" v="farm" />
		<tag k="ssr:stedsnr" v="653738" />
	</node>
	<node id="9933013170" lat="62.9784694" lon="8.23855" version="1" timestamp="2022-08-05T05:37:09Z" changeset="124505287" uid="3497659" user="NKA">
		<tag k="name" v="Brekka" />
		<tag k="place" v="farm" />
		<tag k="ssr:stedsnr" v="194612" />
	</node>
	<node id="9933013171" lat="62.9854056" lon="8.2414084" version="1" timestamp="2022-08-05T05:37:09Z" changeset="124505287" uid="3497659" user="NKA">
		<tag k="name" v="Øvre Torjul" />
		<tag k="place" v="farm" />
		<tag k="ssr:stedsnr" v="194600" />
	</node>
	<node id="9933013172" lat="63.0005722" lon="8.0103972" version="1" timestamp="2022-08-05T05:37:09Z" changeset="124505287" uid="3497659" user="NKA">
		<tag k="name" v="Brevik" />
		<tag k="place" v="farm" />
		<tag k="ssr:stedsnr" v="715422" />
	</node>
	<node id="9933013173" lat="62.9132055" lon="8.21375" version="1" timestamp="2022-08-05T05:37:09Z" changeset="124505287" uid="3497659" user="NKA">
		<tag k="name" v="Koksvikgeilen" />
		<tag k="place" v="neighbourhood" />
		<tag k="ssr:stedsnr" v="646428" />
	</node>
	<node id="9933013174" lat="62.9935778" lon="8.2541667" version="1" timestamp="2022-08-05T05:37:09Z" changeset="124505287" uid="3497659" user="NKA">
		<tag k="name" v="Vika" />
		<tag k="place" v="farm" />
		<tag k="ssr:stedsnr" v="557591" />
	</node>
	<node id="9933013175" lat="62.97124" lon="8.2516989" version="1" timestamp="2022-08-05T05:37:09Z" changeset="124505287" uid="3497659" user="NKA">
		<tag k="name" v="Vågen" />
		<tag k="place" v="farm" />
		<tag k="ssr:stedsnr" v="557630" />
	</node>
	<node id="9933013176" lat="63.0396313" lon="8.0486788" version="1" timestamp="2022-08-05T05:37:09Z" changeset="124505287" uid="3497659" user="NKA">
		<tag k="name" v="Midttun" />
		<tag k="place" v="farm" />
		<tag k="ssr:stedsnr" v="498300" />
	</node>
	<node id="9933013177" lat="63.0545429" lon="8.0326591" version="1" timestamp="2022-08-05T05:37:09Z" changeset="124505287" uid="3497659" user="NKA">
		<tag k="name" v="Saghaugen" />
		<tag k="place" v="farm" />
		<tag k="ssr:stedsnr" v="896262" />
	</node>
	<node id="9933013178" lat="63.0528872" lon="7.9768318" version="1" timestamp="2022-08-05T05:37:09Z" changeset="124505287" uid="3497659" user="NKA">
		<tag k="name" v="Årheim" />
		<tag k="place" v="farm" />
		<tag k="ssr:stedsnr" v="956312" />
	</node>
	<node id="9933013179" lat="63.0109584" lon="7.9933833" version="1" timestamp="2022-08-05T05:37:09Z" changeset="124505287" uid="3497659" user="NKA">
		<tag k="name" v="Øygarden hyttefelt" />
		<tag k="place" v="neighbourhood" />
		<tag k="ssr:stedsnr" v="543339" />
	</node>
	<node id="9933013180" lat="63.0745389" lon="7.9740251" version="1" timestamp="2022-08-05T05:37:09Z" changeset="124505287" uid="3497659" user="NKA">
		<tag k="name" v="Stabbursvika" />
		<tag k="place" v="farm" />
		<tag k="ssr:stedsnr" v="376185" />
	</node>
	<node id="9933013181" lat="63.0521893" lon="8.1177454" version="1" timestamp="2022-08-05T05:37:09Z" changeset="124505287" uid="3497659" user="NKA">
		<tag k="name" v="Skogstad" />
		<tag k="place" v="farm" />
		<tag k="ssr:stedsnr" v="774318" />
	</node>
	<node id="9933013182" lat="63.0440861" lon="8.0641777" version="1" timestamp="2022-08-05T05:37:09Z" changeset="124505287" uid="3497659" user="NKA">
		<tag k="alt_name" v="Hauan" />
		<tag k="name" v="Haugen" />
		<tag k="place" v="farm" />
		<tag k="ssr:stedsnr" v="619274" />
	</node>
	<node id="9933013183" lat="62.9057583" lon="8.1980278" version="1" timestamp="2022-08-05T05:37:09Z" changeset="124505287" uid="3497659" user="NKA">
		<tag k="name" v="Sortdal" />
		<tag k="place" v="neighbourhood" />
		<tag k="ssr:stedsnr" v="604297" />
	</node>
	<node id="9933013184" lat="63.00135" lon="8.0169417" version="1" timestamp="2022-08-05T05:37:09Z" changeset="124505287" uid="3497659" user="NKA">
		<tag k="name" v="Halten" />
		<tag k="place" v="farm" />
		<tag k="ssr:stedsnr" v="472378" />
	</node>
	<node id="9933013185" lat="63.0445166" lon="7.9791556" version="1" timestamp="2022-08-05T05:37:09Z" changeset="124505287" uid="3497659" user="NKA">
		<tag k="name" v="Skadalen" />
		<tag k="place" v="neighbourhood" />
		<tag k="ssr:stedsnr" v="586463" />
	</node>
	<node id="9933013186" lat="63.0620694" lon="8.0096194" version="1" timestamp="2022-08-05T05:37:09Z" changeset="124505287" uid="3497659" user="NKA">
		<tag k="name" v="Vassbotn" />
		<tag k="place" v="farm" />
		<tag k="ssr:stedsnr" v="410257" />
	</node>
	<node id="9933013187" lat="62.9560528" lon="8.1173223" version="1" timestamp="2022-08-05T05:37:09Z" changeset="124505287" uid="3497659" user="NKA">
		<tag k="name" v="Vikan" />
		<tag k="place" v="farm" />
		<tag k="ssr:stedsnr" v="496883" />
	</node>
	<node id="9933013188" lat="63.0515214" lon="8.0257719" version="1" timestamp="2022-08-05T05:37:09Z" changeset="124505287" uid="3497659" user="NKA">
		<tag k="name" v="Isaksstua" />
		<tag k="place" v="farm" />
		<tag k="ssr:stedsnr" v="410263" />
	</node>
	<node id="9933013189" lat="63.0582056" lon="8.1059889" version="1" timestamp="2022-08-05T05:37:09Z" changeset="124505287" uid="3497659" user="NKA">
		<tag k="name" v="Litlhankarhaugen" />
		<tag k="place" v="farm" />
		<tag k="ssr:stedsnr" v="471279" />
	</node>
	<node id="9933013190" lat="63.0667003" lon="8.0005007" version="1" timestamp="2022-08-05T05:37:09Z" changeset="124505287" uid="3497659" user="NKA">
		<tag k="name" v="Myren" />
		<tag k="place" v="farm" />
		<tag k="ssr:stedsnr" v="896986" />
	</node>
	<node id="9933013191" lat="62.9979528" lon="7.9444168" version="1" timestamp="2022-08-05T05:37:09Z" changeset="124505287" uid="3497659" user="NKA">
		<tag k="name" v="Boksaspa hyttefelt" />
		<tag k="place" v="neighbourhood" />
		<tag k="ssr:stedsnr" v="768437" />
	</node>
	<node id="9933013192" lat="63.0160695" lon="7.8928083" version="1" timestamp="2022-08-05T05:37:09Z" changeset="124505287" uid="3497659" user="NKA">
		<tag k="name" v="Solvang" />
		<tag k="place" v="farm" />
		<tag k="ssr:stedsnr" v="592588" />
	</node>
	<node id="9933013193" lat="62.9965194" lon="7.922275" version="1" timestamp="2022-08-05T05:37:09Z" changeset="124505287" uid="3497659" user="NKA">
		<tag k="alt_name" v="Hagan" />
		<tag k="name" v="Hagen" />
		<tag k="place" v="farm" />
		<tag k="ssr:stedsnr" v="375852" />
	</node>
	<node id="9933013194" lat="63.00545" lon="8.0270916" version="1" timestamp="2022-08-05T05:37:09Z" changeset="124505287" uid="3497659" user="NKA">
		<tag k="name" v="Rønningen" />
		<tag k="place" v="farm" />
		<tag k="ssr:stedsnr" v="289397" />
	</node>
	<node id="9933013195" lat="63.0117778" lon="7.9747047" version="1" timestamp="2022-08-05T05:37:09Z" changeset="124505287" uid="3497659" user="NKA">
		<tag k="name" v="Einset" />
		<tag k="place" v="village" />
		<tag k="ssr:stedsnr" v="133191" />
	</node>
	<node id="9933013196" lat="62.9963694" lon="8.0518501" version="1" timestamp="2022-08-05T05:37:09Z" changeset="124505287" uid="3497659" user="NKA">
		<tag k="historic" v="shieling" />
		<tag k="name" v="Lauvsetra" />
		<tag k="place" v="isolated_dwelling" />
		<tag k="ssr:stedsnr" v="350386" />
	</node>
	<node id="9933013197" lat="62.9943152" lon="7.909788" version="1" timestamp="2022-08-05T05:37:09Z" changeset="124505287" uid="3497659" user="NKA">
		<tag k="name" v="Skjevlingen" />
		<tag k="place" v="hamlet" />
		<tag k="ssr:stedsnr" v="132861" />
	</node>
	<node id="9933013198" lat="63.0152055" lon="7.9025389" version="1" timestamp="2022-08-05T05:37:09Z" changeset="124505287" uid="3497659" user="NKA">
		<tag k="name" v="Kongsvoll" />
		<tag k="place" v="farm" />
		<tag k="ssr:stedsnr" v="46599" />
	</node>
	<node id="9933013199" lat="62.9868833" lon="8.0413" version="1" timestamp="2022-08-05T05:37:09Z" changeset="124505287" uid="3497659" user="NKA">
		<tag k="name" v="Treekerhagan" />
		<tag k="place" v="farm" />
		<tag k="ssr:stedsnr" v="861861" />
	</node>
	<node id="9933013200" lat="63.0537361" lon="8.0299918" version="1" timestamp="2022-08-05T05:37:09Z" changeset="124505287" uid="3497659" user="NKA">
		<tag k="name" v="Røten" />
		<tag k="place" v="farm" />
		<tag k="ssr:stedsnr" v="531266" />
	</node>
	<node id="9933013201" lat="62.9867653" lon="8.0415204" version="1" timestamp="2022-08-05T05:37:09Z" changeset="124505287" uid="3497659" user="NKA">
		<tag k="name" v="Hagan" />
		<tag k="place" v="farm" />
		<tag k="ssr:stedsnr" v="653488" />
	</node>
	<node id="9933013202" lat="62.9981993" lon="8.0283894" version="1" timestamp="2022-08-05T05:37:09Z" changeset="124505287" uid="3497659" user="NKA">
		<tag k="alt_name" v="Inner-Øygarden" />
		<tag k="name" v="Tveekra" />
		<tag k="place" v="hamlet" />
		<tag k="ssr:stedsnr" v="861873" />
	</node>
	<node id="9933013203" lat="63.0010417" lon="8.0226278" version="1" timestamp="2022-08-05T05:37:09Z" changeset="124505287" uid="3497659" user="NKA">
		<tag k="name" v="Nistua" />
		<tag k="place" v="farm" />
		<tag k="ssr:stedsnr" v="896417" />
	</node>
	<node id="9933013204" lat="63.0403611" lon="7.9849028" version="1" timestamp="2022-08-05T05:37:09Z" changeset="124505287" uid="3497659" user="NKA">
		<tag k="name" v="Rønninghaug" />
		<tag k="place" v="farm" />
		<tag k="ssr:stedsnr" v="530442" />
	</node>
	<node id="9933013205" lat="63.0044223" lon="8.0046445" version="1" timestamp="2022-08-05T05:37:09Z" changeset="124505287" uid="3497659" user="NKA">
		<tag k="name" v="Innergården" />
		<tag k="place" v="farm" />
		<tag k="ssr:stedsnr" v="228755" />
	</node>
	<node id="9933013206" lat="63.0410111" lon="7.9958611" version="1" timestamp="2022-08-05T05:37:09Z" changeset="124505287" uid="3497659" user="NKA">
		<tag k="name" v="Statsvoll" />
		<tag k="place" v="farm" />
		<tag k="ssr:stedsnr" v="228291" />
	</node>
	<node id="9933013207" lat="63.1025945" lon="8.0482694" version="1" timestamp="2022-08-05T05:37:09Z" changeset="124505287" uid="3497659" user="NKA">
		<tag k="name" v="Saltgjelen hyttefelt" />
		<tag k="place" v="neighbourhood" />
		<tag k="ssr:stedsnr" v="179463" />
	</node>
	<node id="9933013208" lat="63.0150088" lon="7.9692077" version="1" timestamp="2022-08-05T05:37:09Z" changeset="124505287" uid="3497659" user="NKA">
		<tag k="name" v="Skjelvåg" />
		<tag k="place" v="hamlet" />
		<tag k="ssr:stedsnr" v="411979" />
	</node>
	<node id="9933013209" lat="62.9938083" lon="8.0321305" version="1" timestamp="2022-08-05T05:37:09Z" changeset="124505287" uid="3497659" user="NKA">
		<tag k="name" v="Gjelen" />
		<tag k="place" v="farm" />
		<tag k="ssr:stedsnr" v="411444" />
	</node>
	<node id="9933013210" lat="63.0014055" lon="8.0564306" version="1" timestamp="2022-08-05T05:37:09Z" changeset="124505287" uid="3497659" user="NKA">
		<tag k="historic" v="shieling" />
		<tag k="name" v="Nersetra" />
		<tag k="place" v="isolated_dwelling" />
		<tag k="ssr:stedsnr" v="897109" />
	</node>
	<node id="9933013211" lat="63.0302918" lon="8.0212993" version="1" timestamp="2022-08-05T05:37:09Z" changeset="124505287" uid="3497659" user="NKA">
		<tag k="name" v="Stavne" />
		<tag k="place" v="farm" />
		<tag k="ssr:stedsnr" v="133211" />
	</node>
	<node id="9933013212" lat="63.0108639" lon="7.967039" version="1" timestamp="2022-08-05T05:37:09Z" changeset="124505287" uid="3497659" user="NKA">
		<tag k="name" v="Sletta" />
		<tag k="place" v="farm" />
		<tag k="ssr:stedsnr" v="73202" />
	</node>
	<node id="9933013213" lat="63.0016917" lon="8.0235473" version="1" timestamp="2022-08-05T05:37:09Z" changeset="124505287" uid="3497659" user="NKA">
		<tag k="name" v="Oppistua" />
		<tag k="place" v="farm" />
		<tag k="ssr:stedsnr" v="532381" />
	</node>
	<node id="9933013214" lat="63.0658755" lon="7.9841531" version="1" timestamp="2022-08-05T05:37:09Z" changeset="124505287" uid="3497659" user="NKA">
		<tag k="name" v="Bøen" />
		<tag k="place" v="farm" />
		<tag k="ssr:stedsnr" v="107926" />
	</node>
	<node id="9933013215" lat="63.0068806" lon="7.998275" version="1" timestamp="2022-08-05T05:37:09Z" changeset="124505287" uid="3497659" user="NKA">
		<tag k="name" v="Solhaug" />
		<tag k="place" v="farm" />
		<tag k="ssr:stedsnr" v="531733" />
	</node>
	<node id="9933013216" lat="63.0004138" lon="8.0257139" version="1" timestamp="2022-08-05T05:37:09Z" changeset="124505287" uid="3497659" user="NKA">
		<tag k="name" v="Leikvoll" />
		<tag k="place" v="farm" />
		<tag k="ssr:stedsnr" v="46407" />
	</node>
	<node id="9933013217" lat="62.9915031" lon="8.0380163" version="1" timestamp="2022-08-05T05:37:09Z" changeset="124505287" uid="3497659" user="NKA">
		<tag k="name" v="Treekra" />
		<tag k="place" v="farm" />
		<tag k="ssr:stedsnr" v="47471" />
	</node>
	<node id="9933013218" lat="63.0156722" lon="7.8974168" version="1" timestamp="2022-08-05T05:37:09Z" changeset="124505287" uid="3497659" user="NKA">
		<tag k="name" v="Hamran" />
		<tag k="place" v="farm" />
		<tag k="ssr:stedsnr" v="167608" />
	</node>
	<node id="9933013219" lat="63.0126164" lon="7.9711725" version="1" timestamp="2022-08-05T05:37:09Z" changeset="124505287" uid="3497659" user="NKA">
		<tag k="name" v="Einset industriområde" />
		<tag k="place" v="neighbourhood" />
		<tag k="ssr:stedsnr" v="240296" />
	</node>
	<node id="9933013220" lat="62.9484529" lon="8.1358582" version="1" timestamp="2022-08-05T05:37:09Z" changeset="124505287" uid="3497659" user="NKA">
		<tag k="name" v="Sandvika" />
		<tag k="place" v="hamlet" />
		<tag k="ssr:stedsnr" v="679925" />
	</node>
	<node id="9933013221" lat="62.9114028" lon="8.3192639" version="1" timestamp="2022-08-05T05:37:09Z" changeset="124505287" uid="3497659" user="NKA">
		<tag k="name" v="Nyheim hyttefelt" />
		<tag k="place" v="neighbourhood" />
		<tag k="ssr:stedsnr" v="465448" />
	</node>
	<node id="9933013222" lat="63.0251222" lon="8.1497556" version="1" timestamp="2022-08-05T05:37:09Z" changeset="124505287" uid="3497659" user="NKA">
		<tag k="name" v="Nystua" />
		<tag k="place" v="farm" />
		<tag k="ssr:stedsnr" v="619237" />
	</node>
	<node id="9933013223" lat="62.9447437" lon="8.3022636" version="1" timestamp="2022-08-05T05:37:09Z" changeset="124505287" uid="3497659" user="NKA">
		<tag k="alt_name" v="Holmeidet" />
		<tag k="name" v="Holmeid" />
		<tag k="place" v="hamlet" />
		<tag k="ssr:stedsnr" v="72680" />
	</node>
	<node id="9933013224" lat="62.9301504" lon="8.2692301" version="1" timestamp="2022-08-05T05:37:09Z" changeset="124505287" uid="3497659" user="NKA">
		<tag k="name" v="Kringstad" />
		<tag k="place" v="farm" />
		<tag k="ssr:stedsnr" v="12714" />
	</node>
	<node id="9933013225" lat="62.9204778" lon="8.2960362" version="1" timestamp="2022-08-05T05:37:09Z" changeset="124505287" uid="3497659" user="NKA">
		<tag k="name" v="Vårtun" />
		<tag k="place" v="farm" />
		<tag k="ssr:stedsnr" v="254699" />
	</node>
	<node id="9933013226" lat="62.9641722" lon="8.0942612" version="1" timestamp="2022-08-05T05:37:09Z" changeset="124505287" uid="3497659" user="NKA">
		<tag k="name" v="Kansdalen" />
		<tag k="place" v="farm" />
		<tag k="ssr:stedsnr" v="557877" />
	</node>
	<node id="9933013227" lat="62.9611306" lon="8.2600444" version="1" timestamp="2022-08-05T05:37:09Z" changeset="124505287" uid="3497659" user="NKA">
		<tag k="historic" v="shieling" />
		<tag k="name" v="Vågasetra" />
		<tag k="place" v="isolated_dwelling" />
		<tag k="ssr:stedsnr" v="714096" />
	</node>
	<node id="9933013228" lat="62.9342877" lon="8.2898826" version="1" timestamp="2022-08-05T05:37:09Z" changeset="124505287" uid="3497659" user="NKA">
		<tag k="name" v="Kleiva" />
		<tag k="place" v="hamlet" />
		<tag k="ssr:stedsnr" v="861687" />
	</node>
	<node id="9933013229" lat="63.0515672" lon="8.0888353" version="1" timestamp="2022-08-05T05:37:09Z" changeset="124505287" uid="3497659" user="NKA">
		<tag k="name" v="Skeisvollen" />
		<tag k="place" v="farm" />
		<tag k="ssr:stedsnr" v="316170" />
	</node>
	<node id="9933013230" lat="63.0759615" lon="8.1265296" version="1" timestamp="2022-08-05T05:37:09Z" changeset="124505287" uid="3497659" user="NKA">
		<tag k="name" v="Hals" />
		<tag k="place" v="farm" />
		<tag k="ssr:stedsnr" v="445249" />
	</node>
	<node id="9933013231" lat="62.9571028" lon="8.3080084" version="1" timestamp="2022-08-05T05:37:09Z" changeset="124505287" uid="3497659" user="NKA">
		<tag k="historic" v="shieling" />
		<tag k="name" v="Strupstadsetra" />
		<tag k="place" v="isolated_dwelling" />
		<tag k="ssr:stedsnr" v="836074" />
	</node>
	<node id="9933013232" lat="63.0896745" lon="8.1134289" version="1" timestamp="2022-08-05T05:37:09Z" changeset="124505287" uid="3497659" user="NKA">
		<tag k="name" v="Rokstonga" />
		<tag k="place" v="hamlet" />
		<tag k="ssr:stedsnr" v="316384" />
	</node>
	<node id="9933013233" lat="63.0667445" lon="8.1306527" version="1" timestamp="2022-08-05T05:37:09Z" changeset="124505287" uid="3497659" user="NKA">
		<tag k="name" v="Sandvika" />
		<tag k="place" v="farm" />
		<tag k="ssr:stedsnr" v="255179" />
	</node>
	<node id="9933013234" lat="62.9190805" lon="8.2923084" version="1" timestamp="2022-08-05T05:37:09Z" changeset="124505287" uid="3497659" user="NKA">
		<tag k="name" v="Breivika hyttefelt" />
		<tag k="place" v="neighbourhood" />
		<tag k="ssr:stedsnr" v="482304" />
	</node>
	<node id="9933013235" lat="63.0982697" lon="8.1030634" version="1" timestamp="2022-08-05T05:37:09Z" changeset="124505287" uid="3497659" user="NKA">
		<tag k="name" v="Li" />
		<tag k="place" v="farm" />
		<tag k="ssr:stedsnr" v="134420" />
	</node>
	<node id="9933013236" lat="62.9942806" lon="8.1201167" version="1" timestamp="2022-08-05T05:37:09Z" changeset="124505287" uid="3497659" user="NKA">
		<tag k="historic" v="shieling" />
		<tag k="name" v="Herresdalssetra" />
		<tag k="place" v="isolated_dwelling" />
		<tag k="ssr:stedsnr" v="254850" />
	</node>
	<node id="9933013237" lat="62.9516111" lon="8.2825084" version="1" timestamp="2022-08-05T05:37:09Z" changeset="124505287" uid="3497659" user="NKA">
		<tag k="historic" v="shieling" />
		<tag k="name" v="Gammelsetra" />
		<tag k="place" v="isolated_dwelling" />
		<tag k="ssr:stedsnr" v="532229" />
	</node>
	<node id="9933013238" lat="63.0103695" lon="8.1046611" version="1" timestamp="2022-08-05T05:37:09Z" changeset="124505287" uid="3497659" user="NKA">
		<tag k="historic" v="shieling" />
		<tag k="name" v="Gammelsetra" />
		<tag k="place" v="isolated_dwelling" />
		<tag k="ssr:stedsnr" v="21604" />
	</node>
	<node id="9933013239" lat="63.0583472" lon="8.1227138" version="1" timestamp="2022-08-05T05:37:09Z" changeset="124505287" uid="3497659" user="NKA">
		<tag k="name" v="Hagan" />
		<tag k="place" v="farm" />
		<tag k="ssr:stedsnr" v="12159" />
	</node>
	<node id="9933013240" lat="62.9167722" lon="8.3014611" version="1" timestamp="2022-08-05T05:37:09Z" changeset="124505287" uid="3497659" user="NKA">
		<tag k="name" v="Skogheim hytte- og naustområde" />
		<tag k="place" v="neighbourhood" />
		<tag k="ssr:stedsnr" v="360279" />
	</node>
	<node id="9933013241" lat="62.9957685" lon="8.0731415" version="1" timestamp="2022-08-05T05:37:09Z" changeset="124505287" uid="3497659" user="NKA">
		<tag k="historic" v="shieling" />
		<tag k="name" v="Fjellsetra" />
		<tag k="place" v="isolated_dwelling" />
		<tag k="ssr:stedsnr" v="194849" />
	</node>
	<node id="9933013242" lat="62.9104111" lon="8.319975" version="1" timestamp="2022-08-05T05:37:09Z" changeset="124505287" uid="3497659" user="NKA">
		<tag k="name" v="Bølset hytte- og naustområde" />
		<tag k="place" v="neighbourhood" />
		<tag k="ssr:stedsnr" v="179310" />
	</node>
	<node id="9933013243" lat="62.8201945" lon="8.2910528" version="1" timestamp="2022-08-05T05:37:09Z" changeset="124505287" uid="3497659" user="NKA">
		<tag k="name" v="Fjøseidholtan" />
		<tag k="place" v="farm" />
		<tag k="ssr:stedsnr" v="558334" />
	</node>
	<node id="9933013244" lat="62.9558416" lon="8.1180555" version="1" timestamp="2022-08-05T05:37:09Z" changeset="124505287" uid="3497659" user="NKA">
		<tag k="name" v="Gylvikan" />
		<tag k="place" v="farm" />
		<tag k="ssr:stedsnr" v="714756" />
	</node>
	<node id="9933013245" lat="62.8167167" lon="8.3575333" version="1" timestamp="2022-08-05T05:37:09Z" changeset="124505287" uid="3497659" user="NKA">
		<tag k="name" v="Kvernabekken hyttefelt" />
		<tag k="place" v="neighbourhood" />
		<tag k="ssr:stedsnr" v="543336" />
	</node>
	<node id="9933013246" lat="62.8131639" lon="8.2918112" version="1" timestamp="2022-08-05T05:37:09Z" changeset="124505287" uid="3497659" user="NKA">
		<tag k="historic" v="shieling" />
		<tag k="name" v="Fjøseidsetra" />
		<tag k="place" v="isolated_dwelling" />
		<tag k="ssr:stedsnr" v="688608" />
	</node>
	<node id="9933013247" lat="63.0489851" lon="8.0835188" version="1" timestamp="2022-08-05T05:37:09Z" changeset="124505287" uid="3497659" user="NKA">
		<tag k="name" v="Skogen" />
		<tag k="place" v="farm" />
		<tag k="ssr:stedsnr" v="896267" />
	</node>
	<node id="9933013248" lat="62.8112259" lon="8.3378538" version="1" timestamp="2022-08-05T05:37:09Z" changeset="124505287" uid="3497659" user="NKA">
		<tag k="alt_name" v="Havdalen" />
		<tag k="name" v="Havdal" />
		<tag k="place" v="hamlet" />
		<tag k="ssr:stedsnr" v="411841" />
	</node>
	<node id="9933013249" lat="63.0345103" lon="8.1289647" version="1" timestamp="2022-08-05T05:37:09Z" changeset="124505287" uid="3497659" user="NKA">
		<tag k="name" v="Trøen" />
		<tag k="place" v="farm" />
		<tag k="ssr:stedsnr" v="836232" />
	</node>
	<node id="9933013250" lat="63.0385624" lon="8.0556668" version="1" timestamp="2022-08-05T05:37:09Z" changeset="124505287" uid="3497659" user="NKA">
		<tag k="name" v="Bakken" />
		<tag k="place" v="farm" />
		<tag k="ssr:stedsnr" v="558256" />
	</node>
	<node id="9933013251" lat="63.0866583" lon="8.1274445" version="1" timestamp="2022-08-05T05:37:09Z" changeset="124505287" uid="3497659" user="NKA">
		<tag k="name" v="Vikan" />
		<tag k="place" v="farm" />
		<tag k="ssr:stedsnr" v="376334" />
	</node>
	<node id="9933013252" lat="63.0709778" lon="8.0633694" version="1" timestamp="2022-08-05T05:37:09Z" changeset="124505287" uid="3497659" user="NKA">
		<tag k="historic" v="shieling" />
		<tag k="name" v="Grimstadsetra" />
		<tag k="place" v="isolated_dwelling" />
		<tag k="ssr:stedsnr" v="349484" />
	</node>
	<node id="9933013253" lat="63.0694806" lon="8.1005778" version="1" timestamp="2022-08-05T05:37:09Z" changeset="124505287" uid="3497659" user="NKA">
		<tag k="historic" v="shieling" />
		<tag k="name" v="Storsetra" />
		<tag k="place" v="isolated_dwelling" />
		<tag k="ssr:stedsnr" v="410454" />
	</node>
	<node id="9933013254" lat="63.0730167" lon="8.1099778" version="1" timestamp="2022-08-05T05:37:09Z" changeset="124505287" uid="3497659" user="NKA">
		<tag k="historic" v="shieling" />
		<tag k="name" v="Halssetra" />
		<tag k="place" v="isolated_dwelling" />
		<tag k="ssr:stedsnr" v="896466" />
	</node>
	<node id="9933013255" lat="63.0908639" lon="8.1119527" version="1" timestamp="2022-08-05T05:37:09Z" changeset="124505287" uid="3497659" user="NKA">
		<tag k="name" v="Rakstang" />
		<tag k="place" v="hamlet" />
		<tag k="ssr:stedsnr" v="349365" />
	</node>
	<node id="9933013256" lat="62.9667877" lon="8.0807206" version="1" timestamp="2022-08-05T05:37:09Z" changeset="124505287" uid="3497659" user="NKA">
		<tag k="name" v="Hammaren" />
		<tag k="place" v="farm" />
		<tag k="ssr:stedsnr" v="228810" />
	</node>
	<node id="9933013257" lat="63.0545584" lon="8.1088306" version="1" timestamp="2022-08-05T05:37:09Z" changeset="124505287" uid="3497659" user="NKA">
		<tag k="historic" v="shieling" />
		<tag k="name" v="Litlsetra" />
		<tag k="place" v="isolated_dwelling" />
		<tag k="ssr:stedsnr" v="289244" />
	</node>
	<node id="9933013258" lat="62.8384444" lon="8.3892334" version="1" timestamp="2022-08-05T05:37:09Z" changeset="124505287" uid="3497659" user="NKA">
		<tag k="name" v="Vasslisetra" />
		<tag k="place" v="locality" />
		<tag k="ssr:stedsnr" v="752035" />
	</node>
	<node id="9933013259" lat="63.1063098" lon="8.0577661" version="1" timestamp="2022-08-05T05:37:09Z" changeset="124505287" uid="3497659" user="NKA">
		<tag k="name" v="Mørkedalen" />
		<tag k="place" v="farm" />
		<tag k="ssr:stedsnr" v="619400" />
	</node>
	<node id="9933013260" lat="63.044925" lon="8.071389" version="1" timestamp="2022-08-05T05:37:09Z" changeset="124505287" uid="3497659" user="NKA">
		<tag k="name" v="Vikan" />
		<tag k="place" v="farm" />
		<tag k="ssr:stedsnr" v="228263" />
	</node>
	<node id="9933013261" lat="63.0948556" lon="8.1018111" version="1" timestamp="2022-08-05T05:37:09Z" changeset="124505287" uid="3497659" user="NKA">
		<tag k="name" v="Indrebøen" />
		<tag k="place" v="farm" />
		<tag k="ssr:stedsnr" v="107299" />
	</node>
	<node id="9933013262" lat="63.0894583" lon="7.9932638" version="1" timestamp="2022-08-05T05:37:09Z" changeset="124505287" uid="3497659" user="NKA">
		<tag k="name" v="Setra" />
		<tag k="place" v="farm" />
		<tag k="ssr:stedsnr" v="437344" />
	</node>
	<node id="9933013263" lat="63.0404365" lon="8.1295087" version="1" timestamp="2022-08-05T05:37:09Z" changeset="124505287" uid="3497659" user="NKA">
		<tag k="name" v="Kamsvåg" />
		<tag k="place" v="hamlet" />
		<tag k="ssr:stedsnr" v="13266" />
	</node>
	<node id="9933013264" lat="63.0947917" lon="7.9710473" version="1" timestamp="2022-08-05T05:37:09Z" changeset="124505287" uid="3497659" user="NKA">
		<tag k="name" v="Årsund" />
		<tag k="place" v="farm" />
		<tag k="ssr:stedsnr" v="862336" />
	</node>
	<node id="9933013265" lat="63.108796" lon="8.0797251" version="1" timestamp="2022-08-05T05:37:09Z" changeset="124505287" uid="3497659" user="NKA">
		<tag k="name" v="Magnhildberget" />
		<tag k="place" v="hamlet" />
		<tag k="ssr:stedsnr" v="194320" />
	</node>
	<node id="9933013266" lat="62.9243787" lon="8.1869704" version="1" timestamp="2022-08-05T05:37:09Z" changeset="124505287" uid="3497659" user="NKA">
		<tag k="name" v="Tingvollia" />
		<tag k="place" v="farm" />
		<tag k="ssr:stedsnr" v="740957" />
	</node>
	<node id="9933013267" lat="63.1029881" lon="8.0405853" version="1" timestamp="2022-08-05T05:37:09Z" changeset="124505287" uid="3497659" user="NKA">
		<tag k="name" v="Saltgjelen" />
		<tag k="place" v="hamlet" />
		<tag k="ssr:stedsnr" v="411297" />
	</node>
	<node id="9933013268" lat="62.9042778" lon="8.3252723" version="1" timestamp="2022-08-05T05:37:09Z" changeset="124505287" uid="3497659" user="NKA">
		<tag k="name" v="Plassen" />
		<tag k="place" v="farm" />
		<tag k="ssr:stedsnr" v="801301" />
	</node>
	<node id="9933013269" lat="63.0819222" lon="7.9760445" version="1" timestamp="2022-08-05T05:37:09Z" changeset="124505287" uid="3497659" user="NKA">
		<tag k="name" v="Jutvika hyttefelt" />
		<tag k="place" v="neighbourhood" />
		<tag k="ssr:stedsnr" v="283410" />
	</node>
	<node id="9933013270" lat="62.9927889" lon="8.2558639" version="1" timestamp="2022-08-05T05:37:09Z" changeset="124505287" uid="3497659" user="NKA">
		<tag k="name" v="Vikavollen hyttefelt" />
		<tag k="place" v="neighbourhood" />
		<tag k="ssr:stedsnr" v="482317" />
	</node>
	<node id="9933013271" lat="63.0190907" lon="7.9614426" version="1" timestamp="2022-08-05T05:37:09Z" changeset="124505287" uid="3497659" user="NKA">
		<tag k="name" v="Skjelvågen" />
		<tag k="place" v="farm" />
		<tag k="ssr:stedsnr" v="376215" />
	</node>
	<node id="9933013272" lat="62.9060039" lon="8.2015639" version="1" timestamp="2022-08-05T05:37:09Z" changeset="124505287" uid="3497659" user="NKA">
		<tag k="name" v="Svortdal" />
		<tag k="place" v="farm" />
		<tag k="ssr:stedsnr" v="471308" />
	</node>
	<node id="9933013273" lat="63.0187" lon="7.8932195" version="1" timestamp="2022-08-05T05:37:09Z" changeset="124505287" uid="3497659" user="NKA">
		<tag k="alt_name" v="Naustvolden" />
		<tag k="name" v="Naustvollen" />
		<tag k="place" v="farm" />
		<tag k="ssr:stedsnr" v="167601" />
	</node>
	<node id="9933013274" lat="62.9750492" lon="8.2286" version="1" timestamp="2022-08-05T05:37:09Z" changeset="124505287" uid="3497659" user="NKA">
		<tag k="name" v="Sponnåsen" />
		<tag k="place" v="farm" />
		<tag k="ssr:stedsnr" v="262237" />
	</node>
	<node id="9933013275" lat="63.0459393" lon="8.0388235" version="1" timestamp="2022-08-05T05:37:09Z" changeset="124505287" uid="3497659" user="NKA">
		<tag k="name" v="Liabøen" />
		<tag k="place" v="farm" />
		<tag k="ssr:stedsnr" v="133131" />
	</node>
	<node id="9933013276" lat="63.0188315" lon="7.9486385" version="1" timestamp="2022-08-05T05:37:09Z" changeset="124505287" uid="3497659" user="NKA">
		<tag k="name" v="Faksvåg" />
		<tag k="place" v="farm" />
		<tag k="ssr:stedsnr" v="107983" />
	</node>
	<node id="9933013277" lat="63.0625833" lon="8.0004362" version="1" timestamp="2022-08-05T05:37:09Z" changeset="124505287" uid="3497659" user="NKA">
		<tag k="name" v="Bjergheim" />
		<tag k="place" v="farm" />
		<tag k="ssr:stedsnr" v="591882" />
	</node>
	<node id="9933013278" lat="63.0471623" lon="8.0494181" version="1" timestamp="2022-08-05T05:37:09Z" changeset="124505287" uid="3497659" user="NKA">
		<tag k="name" v="Åsen" />
		<tag k="old_name" v="Aasen" />
		<tag k="place" v="farm" />
		<tag k="ssr:stedsnr" v="923172" />
	</node>
	<node id="9933013279" lat="63.0401583" lon="8.0440137" version="1" timestamp="2022-08-05T05:37:09Z" changeset="124505287" uid="3497659" user="NKA">
		<tag k="name" v="Åsheim" />
		<tag k="place" v="farm" />
		<tag k="ssr:stedsnr" v="46430" />
	</node>
	<node id="9933013280" lat="63.0043589" lon="7.900642" version="1" timestamp="2022-08-05T05:37:09Z" changeset="124505287" uid="3497659" user="NKA">
		<tag k="name" v="Draga" />
		<tag k="place" v="hamlet" />
		<tag k="ssr:stedsnr" v="922184" />
	</node>
</osm>
