<?xml version="1.0" encoding="UTF-8"?>
<osm generator="osmapis" version="0.6">
	<node id="-567708" lat="58.4618500014" lon="7.34066111897">
		<tag k="name" v="Vårdalen" />
		<tag k="ssr:date" v="2019-12-27" />
		<tag k="ssr:gruppe" v="veg" />
		<tag k="ssr:hovedgruppe" v="infrastruktur" />
		<tag k="ssr:stedsnr" v="38811" />
		<tag k="ssr:type" v="adressenavn" />
	</node>
	<node id="-567834" lat="58.375713891" lon="7.21973611623">
		<tag k="name" v="Hægebostad kommune" />
		<tag k="ssr:date" v="2019-12-27" />
		<tag k="ssr:gruppe" v="administrativeIndelinger" />
		<tag k="ssr:hovedgruppe" v="offentligAdministrasjon" />
		<tag k="ssr:stedsnr" v="145939" />
		<tag k="ssr:type" v="kommune" />
	</node>
	<node id="-569132" lat="58.1511039845" lon="7.99409139476">
		<tag k="name" v="Agder fylke" />
		<tag k="ssr:date" v="2020-01-13" />
		<tag k="ssr:gruppe" v="administrativeIndelinger" />
		<tag k="ssr:hovedgruppe" v="offentligAdministrasjon" />
		<tag k="ssr:stedsnr" v="1073974" />
		<tag k="ssr:type" v="fylke" />
	</node>
	<node id="-569131" lat="58.338294064" lon="7.29218723625">
		<tag k="name" v="Røynesdalsveien" />
		<tag k="ssr:date" v="2019-12-27" />
		<tag k="ssr:gruppe" v="veg" />
		<tag k="ssr:hovedgruppe" v="infrastruktur" />
		<tag k="ssr:stedsnr" v="1009053" />
		<tag k="ssr:type" v="adressenavn" />
	</node>
	<node id="-567468" lat="58.3472916639" lon="7.27774166149">
		<tag k="name" v="Lonebakkveien" />
		<tag k="ssr:date" v="2019-12-27" />
		<tag k="ssr:gruppe" v="veg" />
		<tag k="ssr:hovedgruppe" v="infrastruktur" />
		<tag k="ssr:stedsnr" v="950102" />
		<tag k="ssr:type" v="adressenavn" />
	</node>
	<node id="-567814" lat="58.3325833378" lon="7.04150000809">
		<tag k="name" v="Lister" />
		<tag k="ssr:date" v="2019-12-27" />
		<tag k="ssr:gruppe" v="terrengområder" />
		<tag k="ssr:hovedgruppe" v="terreng" />
		<tag k="ssr:stedsnr" v="120117" />
		<tag k="ssr:type" v="landskapsområde" />
	</node>
	<node id="-568097" lat="58.3867694424" lon="7.2179916694">
		<tag k="name" v="Monevegen" />
		<tag k="ssr:date" v="2019-12-27" />
		<tag k="ssr:gruppe" v="veg" />
		<tag k="ssr:hovedgruppe" v="infrastruktur" />
		<tag k="ssr:stedsnr" v="340230" />
		<tag k="ssr:type" v="vegstrekning" />
	</node>
</osm>
