<?xml version="1.0" encoding="UTF-8"?>
<osm version="0.6" generator="osmapis">
	<node lat="68.90749444552814" lon="17.904072222068038" id="-34165">
		<tag k="name" v="Jerpedalen" />
		<tag k="natural" v="valley" />
		<tag k="place" v="locality" />
		<tag k="ssr:stedsnr" v="18778" />
	</node>
	<node lat="68.90790000473466" lon="17.967952770402405" id="-34166">
		<tag k="alt_name" v="Snauhaugen" />
		<tag k="name" v="Snauhågen" />
		<tag k="natural" v="hill" />
		<tag k="place" v="locality" />
		<tag k="ssr:stedsnr" v="18787" />
	</node>
	<node lat="68.8504666643001" lon="18.10814999528419" id="-34167">
		<tag k="name" v="Krokåkeren" />
		<tag k="natural" v="slope" />
		<tag k="place" v="locality" />
		<tag k="ssr:stedsnr" v="234148" />
	</node>
	<node lat="68.97212499694302" lon="17.76307222898808" id="-34172">
		<tag k="name" v="Litjegrønlia" />
		<tag k="natural" v="slope" />
		<tag k="place" v="locality" />
		<tag k="ssr:stedsnr" v="237129" />
	</node>
	<node lat="68.82499722510069" lon="17.98832500027267" id="-34173">
		<tag k="name" v="Middagsskaret" />
		<tag k="natural" v="valley" />
		<tag k="place" v="locality" />
		<tag k="ssr:stedsnr" v="237213" />
	</node>
	<node lat="68.90182500369737" lon="17.804736109990053" id="-34175">
		<tag k="name" v="Lølia" />
		<tag k="natural" v="slope" />
		<tag k="place" v="locality" />
		<tag k="ssr:stedsnr" v="238488" />
	</node>
	<node lat="68.98523333098065" lon="17.73320553985991" id="-34178">
		<tag k="name" v="Bjørnberget" />
		<tag k="natural" v="hill" />
		<tag k="place" v="locality" />
		<tag k="ssr:stedsnr" v="238071" />
	</node>
	<node lat="68.83750555782443" lon="17.896469454344434" id="-34182">
		<tag k="name" v="Nerflaten" />
		<tag k="place" v="locality" />
		<tag k="ssr:stedsnr" v="238139" />
	</node>
	<node lat="68.84033333253906" lon="17.98460278290111" id="-34183">
		<tag k="name" v="Fjellmoen" />
		<tag k="place" v="locality" />
		<tag k="ssr:stedsnr" v="238126" />
	</node>
	<node lat="68.86660277459151" lon="17.777288873094655" id="-34184">
		<tag k="name" v="Elemosletta" />
		<tag k="place" v="locality" />
		<tag k="ssr:stedsnr" v="238255" />
	</node>
	<node lat="68.89229999920883" lon="17.90748056124596" id="-34187">
		<tag k="name" v="Græslia" />
		<tag k="natural" v="slope" />
		<tag k="place" v="locality" />
		<tag k="ssr:stedsnr" v="238206" />
	</node>
	<node lat="68.88953889205092" lon="17.822449998178563" id="-34188">
		<tag k="name" v="Mørkedalen" />
		<tag k="natural" v="valley" />
		<tag k="place" v="locality" />
		<tag k="ssr:stedsnr" v="238317" />
	</node>
	<node lat="68.90589444553241" lon="17.50801667362913" id="-34189">
		<tag k="name" v="Stornaustberget" />
		<tag k="natural" v="hill" />
		<tag k="place" v="locality" />
		<tag k="ssr:stedsnr" v="238584" />
	</node>
	<node lat="68.91900278129009" lon="17.744308338549654" id="-34193">
		<tag k="name" v="Medbylia" />
		<tag k="natural" v="slope" />
		<tag k="place" v="locality" />
		<tag k="ssr:stedsnr" v="238466" />
	</node>
	<node lat="68.91690278103317" lon="17.749183332637138" id="-34194">
		<tag k="name" v="Einelia" />
		<tag k="natural" v="slope" />
		<tag k="place" v="locality" />
		<tag k="ssr:stedsnr" v="238467" />
	</node>
	<node lat="68.82892500113604" lon="17.49725556314997" id="-34197">
		<tag k="name" v="Skogsletta" />
		<tag k="place" v="locality" />
		<tag k="ssr:stedsnr" v="238562" />
	</node>
	<node lat="68.91351388436338" lon="17.505091673281637" id="-34198">
		<tag k="name" v="Fjellbakken" />
		<tag k="natural" v="slope" />
		<tag k="place" v="locality" />
		<tag k="ssr:stedsnr" v="238588" />
	</node>
	<node lat="68.91091388649654" lon="17.51631109595267" id="-34199">
		<tag k="name" v="Luggebakken" />
		<tag k="natural" v="slope" />
		<tag k="place" v="locality" />
		<tag k="ssr:stedsnr" v="238589" />
	</node>
	<node lat="68.87842778274715" lon="17.670588877388525" id="-34201">
		<tag k="name" v="Vedvelta" />
		<tag k="natural" v="slope" />
		<tag k="place" v="locality" />
		<tag k="ssr:stedsnr" v="238623" />
	</node>
	<node lat="68.88488333663963" lon="17.6971083409265" id="-34203">
		<tag k="name" v="Finnhågsletta" />
		<tag k="place" v="locality" />
		<tag k="ssr:stedsnr" v="238713" />
	</node>
	<node lat="68.95302778018015" lon="17.894308336172415" id="-34204">
		<tag k="name" v="Grønlibotn" />
		<tag k="natural" v="valley" />
		<tag k="place" v="locality" />
		<tag k="ssr:stedsnr" v="238718" />
	</node>
	<node lat="68.88244721933708" lon="18.004522227083033" id="-34205">
		<tag k="name" v="Brennmoberget" />
		<tag k="natural" v="hill" />
		<tag k="place" v="locality" />
		<tag k="ssr:stedsnr" v="238650" />
	</node>
	<node lat="68.88165833548943" lon="18.052813876400595" id="-34206">
		<tag k="name" v="Bjørnbåsen" />
		<tag k="natural" v="hill" />
		<tag k="place" v="locality" />
		<tag k="ssr:stedsnr" v="238656" />
	</node>
	<node lat="68.87541666777618" lon="18.011183339496714" id="-34209">
		<tag k="name" v="Stormyrmoen" />
		<tag k="place" v="locality" />
		<tag k="ssr:stedsnr" v="238663" />
	</node>
	<node lat="68.8776861153902" lon="18.062022208092667" id="-34211">
		<tag k="name" v="Rødmyrsirbakken" />
		<tag k="natural" v="slope" />
		<tag k="place" v="locality" />
		<tag k="ssr:stedsnr" v="238672" />
	</node>
	<node lat="68.87262777805992" lon="18.06425833265927" id="-34212">
		<tag k="name" v="Storbakken" />
		<tag k="natural" v="slope" />
		<tag k="place" v="locality" />
		<tag k="ssr:stedsnr" v="238676" />
	</node>
	<node lat="68.8794611103173" lon="17.69495556026295" id="-34213">
		<tag k="name" v="Ampen" />
		<tag k="natural" v="hill" />
		<tag k="place" v="locality" />
		<tag k="ssr:stedsnr" v="238759" />
	</node>
	<node lat="68.90297778201449" lon="17.886708334776287" id="-34217">
		<tag k="name" v="Barralátnja" />
		<tag k="name:se" v="Barralátnja" />
		<tag k="natural" v="slope" />
		<tag k="place" v="locality" />
		<tag k="ssr:stedsnr" v="238801" />
	</node>
	<node lat="68.91234166540086" lon="17.880727785409082" id="-34218">
		<tag k="name" v="Kalkskjæringa" />
		<tag k="natural" v="valley" />
		<tag k="place" v="locality" />
		<tag k="ssr:stedsnr" v="238820" />
	</node>
	<node lat="68.87284722444386" lon="17.687480552285997" id="-34219">
		<tag k="fixme" v="consider natural=peak for the most distinct mountains in the district" />
		<tag k="name" v="Nerfjellet" />
		<tag k="natural" v="hill" />
		<tag k="place" v="locality" />
		<tag k="ssr:stedsnr" v="238772" />
	</node>
	<node lat="68.83269722286823" lon="17.51598055859066" id="-34220">
		<tag k="name" v="Kvithågen" />
		<tag k="natural" v="hill" />
		<tag k="place" v="locality" />
		<tag k="ssr:stedsnr" v="238989" />
	</node>
	<node lat="68.83210555604397" lon="17.482266667789887" id="-34222">
		<tag k="name" v="Storbakken" />
		<tag k="natural" v="slope" />
		<tag k="place" v="locality" />
		<tag k="ssr:stedsnr" v="238993" />
	</node>
	<node lat="68.88486110708797" lon="17.974872216267837" id="-34224">
		<tag k="name" v="Markeløa" />
		<tag k="natural" v="slope" />
		<tag k="place" v="locality" />
		<tag k="ssr:stedsnr" v="238954" />
	</node>
	<node lat="68.8648694477597" lon="18.02567221856389" id="-34227">
		<tag k="name" v="Alvildebakken" />
		<tag k="natural" v="slope" />
		<tag k="place" v="locality" />
		<tag k="ssr:stedsnr" v="239545" />
	</node>
	<node lat="68.86770555546333" lon="18.047305546383747" id="-34228">
		<tag k="name" v="Vakkerdalen" />
		<tag k="natural" v="valley" />
		<tag k="place" v="locality" />
		<tag k="ssr:stedsnr" v="239546" />
	</node>
	<node lat="68.85318333495061" lon="18.054186114066074" id="-34229">
		<tag k="name" v="Branndalen" />
		<tag k="natural" v="valley" />
		<tag k="place" v="locality" />
		<tag k="ssr:stedsnr" v="239548" />
	</node>
	<node lat="68.85251388871909" lon="18.00866945083223" id="-34231">
		<tag k="name" v="Storhaugen" />
		<tag k="natural" v="hill" />
		<tag k="place" v="locality" />
		<tag k="ssr:stedsnr" v="239561" />
	</node>
	<node lat="68.8543944434452" lon="18.003377786179467" id="-34232">
		<tag k="name" v="Moldforhaugen" />
		<tag k="natural" v="hill" />
		<tag k="place" v="locality" />
		<tag k="ssr:stedsnr" v="239563" />
	</node>
	<node lat="68.96797500303802" lon="17.75922778253146" id="-34233">
		<tag k="name" v="Holla" />
		<tag k="natural" v="valley" />
		<tag k="place" v="locality" />
		<tag k="ssr:stedsnr" v="55003" />
	</node>
	<node lat="68.97688610943445" lon="17.729297223349878" id="-34234">
		<tag k="name" v="Gauthellaren" />
		<tag k="place" v="locality" />
		<tag k="ssr:stedsnr" v="55016" />
	</node>
	<node lat="68.91072777684235" lon="17.757561096284043" id="-34236">
		<tag k="name" v="Brekka" />
		<tag k="natural" v="slope" />
		<tag k="place" v="locality" />
		<tag k="ssr:stedsnr" v="55468" />
	</node>
	<node lat="68.83708888756003" lon="17.846755543656645" id="-34239">
		<tag k="name" v="Elgsvingen" />
		<tag k="place" v="locality" />
		<tag k="ssr:stedsnr" v="56121" />
	</node>
	<node lat="68.96618333691943" lon="17.763524986682583" id="-34242">
		<tag k="name" v="Steinbakken" />
		<tag k="natural" v="slope" />
		<tag k="place" v="locality" />
		<tag k="ssr:stedsnr" v="56096" />
	</node>
	<node lat="68.85384722607024" lon="17.77842777593549" id="-34245">
		<tag k="name" v="Láttorápma" />
		<tag k="name:se" v="Láttorápma" />
		<tag k="natural" v="slope" />
		<tag k="place" v="locality" />
		<tag k="ssr:stedsnr" v="56267" />
	</node>
	<node lat="68.90935278153717" lon="17.760405547745446" id="-34246">
		<tag k="name" v="Stigbergan" />
		<tag k="natural" v="hill" />
		<tag k="place" v="locality" />
		<tag k="ssr:stedsnr" v="56474" />
	</node>
	<node lat="68.90975555591586" lon="17.769255553643468" id="-34247">
		<tag k="name" v="Løhågen" />
		<tag k="natural" v="hill" />
		<tag k="place" v="locality" />
		<tag k="ssr:stedsnr" v="56487" />
	</node>
	<node lat="68.91098333697262" lon="17.537824988854773" id="-34248">
		<tag k="name" v="Kviteberget" />
		<tag k="natural" v="hill" />
		<tag k="place" v="locality" />
		<tag k="ssr:stedsnr" v="56682" />
	</node>
	<node lat="68.89410277295428" lon="17.85775278509458" id="-34249">
		<tag k="name" v="Flagghågen" />
		<tag k="natural" v="hill" />
		<tag k="place" v="locality" />
		<tag k="ssr:stedsnr" v="56808" />
	</node>
	<node lat="68.90334444615395" lon="17.874497219303937" id="-34250">
		<tag k="name" v="Skadalen" />
		<tag k="natural" v="valley" />
		<tag k="place" v="locality" />
		<tag k="ssr:stedsnr" v="56811" />
	</node>
	<node lat="68.90245555307129" lon="17.46951110706054" id="-34251">
		<tag k="name" v="Storakselhågen" />
		<tag k="natural" v="hill" />
		<tag k="place" v="locality" />
		<tag k="ssr:stedsnr" v="56567" />
	</node>
	<node lat="68.86879166597113" lon="18.05788055273166" id="-34252">
		<tag k="name" v="Litjelvdalen" />
		<tag k="natural" v="valley" />
		<tag k="place" v="locality" />
		<tag k="ssr:stedsnr" v="56568" />
	</node>
	<node lat="68.90586110957848" lon="17.499241673260848" id="-34253">
		<tag k="fixme" v="consider natural=peak for the most distinct mountains in the district" />
		<tag k="name" v="Høgholtet" />
		<tag k="natural" v="hill" />
		<tag k="place" v="locality" />
		<tag k="ssr:stedsnr" v="56577" />
	</node>
	<node lat="68.8892583352085" lon="18.082874995665485" id="-34254">
		<tag k="name" v="Ørndalen" />
		<tag k="natural" v="valley" />
		<tag k="place" v="locality" />
		<tag k="ssr:stedsnr" v="56701" />
	</node>
	<node lat="68.88183888770259" lon="18.098399989517112" id="-34255">
		<tag k="name" v="Kvernbekkdalen" />
		<tag k="natural" v="valley" />
		<tag k="place" v="locality" />
		<tag k="ssr:stedsnr" v="56707" />
	</node>
	<node lat="68.88581666423347" lon="18.127816661500486" id="-34256">
		<tag k="fixme" v="consider natural=peak for the most distinct mountains in the district" />
		<tag k="name" v="Steinvasshøgda" />
		<tag k="natural" v="hill" />
		<tag k="place" v="locality" />
		<tag k="ssr:stedsnr" v="56712" />
	</node>
	<node lat="68.90875555538184" lon="18.08948334032239" id="-34260">
		<tag k="name" v="Kviteberget" />
		<tag k="natural" v="hill" />
		<tag k="place" v="locality" />
		<tag k="ssr:stedsnr" v="57406" />
	</node>
	<node lat="68.86121666809589" lon="18.04328054526087" id="-34262">
		<tag k="name" v="Langedalen" />
		<tag k="natural" v="valley" />
		<tag k="place" v="locality" />
		<tag k="ssr:stedsnr" v="57530" />
	</node>
	<node lat="68.94368611288382" lon="18.021075000681147" id="-34264">
		<tag k="name" v="Storfossbakkan" />
		<tag k="natural" v="slope" />
		<tag k="place" v="locality" />
		<tag k="ssr:stedsnr" v="58473" />
	</node>
	<node lat="68.9350500043323" lon="18.091194446852462" id="-34265">
		<tag k="name" v="Klipa" />
		<tag k="natural" v="valley" />
		<tag k="place" v="locality" />
		<tag k="ssr:stedsnr" v="240452" />
	</node>
	<node lat="68.94093611260115" lon="18.053950001305477" id="-34266">
		<tag k="name" v="Myrslettbekkstrupet" />
		<tag k="natural" v="valley" />
		<tag k="place" v="locality" />
		<tag k="ssr:stedsnr" v="240475" />
	</node>
	<node lat="68.84743055747556" lon="17.771416653505966" id="-34268">
		<tag k="name" v="Spunshaugen" />
		<tag k="natural" v="hill" />
		<tag k="place" v="locality" />
		<tag k="ssr:stedsnr" v="78815" />
	</node>
	<node lat="68.85250555702504" lon="17.562672225772026" id="-34269">
		<tag k="name" v="Rundkollen" />
		<tag k="natural" v="hill" />
		<tag k="place" v="locality" />
		<tag k="ssr:stedsnr" v="78816" />
	</node>
	<node lat="68.91300832904945" lon="17.484736115852986" id="-34270">
		<tag k="fixme" v="consider natural=peak for the most distinct mountains in the district" />
		<tag k="name" v="Rennhammaren" />
		<tag k="natural" v="hill" />
		<tag k="place" v="locality" />
		<tag k="ssr:stedsnr" v="78845" />
	</node>
	<node lat="68.91573610842588" lon="17.784661112065077" id="-34278">
		<tag k="fixme" v="multiple name tags, choose one and add the other to alt_name" />
		<tag k="name" v="Vasshågen;Rognsahaugen" />
		<tag k="natural" v="hill" />
		<tag k="place" v="locality" />
		<tag k="ssr:stedsnr" v="249835" />
	</node>
	<node lat="68.96540555706206" lon="17.759980549304277" id="-34280">
		<tag k="name" v="Ruskholla" />
		<tag k="natural" v="valley" />
		<tag k="place" v="locality" />
		<tag k="ssr:stedsnr" v="115007" />
	</node>
	<node lat="68.96204721935266" lon="17.763383321678216" id="-34282">
		<tag k="name" v="Storbakken" />
		<tag k="natural" v="slope" />
		<tag k="place" v="locality" />
		<tag k="ssr:stedsnr" v="117119" />
	</node>
	<node lat="68.9684444426381" lon="17.76965833236795" id="-34283">
		<tag k="name" v="Grytan" />
		<tag k="natural" v="valley" />
		<tag k="place" v="locality" />
		<tag k="ssr:stedsnr" v="117121" />
	</node>
	<node lat="68.84425000281365" lon="17.88102499576375" id="-34284">
		<tag k="name" v="Torvhågen" />
		<tag k="natural" v="hill" />
		<tag k="place" v="locality" />
		<tag k="ssr:stedsnr" v="117182" />
	</node>
	<node lat="68.84017222626697" lon="17.906386102663227" id="-34286">
		<tag k="name" v="Gustavroggi" />
		<tag k="name:se" v="Gustavroggi" />
		<tag k="natural" v="valley" />
		<tag k="place" v="locality" />
		<tag k="ssr:stedsnr" v="117187" />
	</node>
	<node lat="68.8451250004964" lon="17.839138874043197" id="-34288">
		<tag k="name" v="Fosshågen" />
		<tag k="natural" v="hill" />
		<tag k="place" v="locality" />
		<tag k="ssr:stedsnr" v="117213" />
	</node>
	<node lat="68.878858331428" lon="17.873308338193556" id="-34289">
		<tag k="name" v="Krokmyrhågen" />
		<tag k="natural" v="hill" />
		<tag k="place" v="locality" />
		<tag k="ssr:stedsnr" v="117223" />
	</node>
	<node lat="68.93531666595875" lon="17.711455558702763" id="-34291">
		<tag k="name" v="Glunthågen" />
		<tag k="natural" v="hill" />
		<tag k="place" v="locality" />
		<tag k="ssr:stedsnr" v="117444" />
	</node>
	<node lat="68.84931666676555" lon="18.07194999858098" id="-34292">
		<tag k="name" v="Orrehaugen" />
		<tag k="natural" v="hill" />
		<tag k="place" v="locality" />
		<tag k="ssr:stedsnr" v="117512" />
	</node>
	<node lat="68.92977499900665" lon="18.013158341287383" id="-34293">
		<tag k="name" v="Falkefarhågen" />
		<tag k="natural" v="hill" />
		<tag k="place" v="locality" />
		<tag k="ssr:stedsnr" v="117519" />
	</node>
	<node lat="68.86058055976166" lon="18.00531110223378" id="-34294">
		<tag k="name" v="Mikkelmoen" />
		<tag k="place" v="locality" />
		<tag k="ssr:stedsnr" v="117575" />
	</node>
	<node lat="68.89507777903835" lon="17.926202773662908" id="-34296">
		<tag k="name" v="Mellomlia" />
		<tag k="natural" v="slope" />
		<tag k="place" v="locality" />
		<tag k="ssr:stedsnr" v="117705" />
	</node>
	<node lat="68.88662222125708" lon="17.707577779280697" id="-34297">
		<tag k="fixme" v="consider natural=peak for the most distinct mountains in the district" />
		<tag k="name" v="Kollan" />
		<tag k="natural" v="hill" />
		<tag k="place" v="locality" />
		<tag k="ssr:stedsnr" v="117711" />
	</node>
	<node lat="68.88648611057629" lon="17.71712222885326" id="-34298">
		<tag k="name" v="Skansen" />
		<tag k="place" v="locality" />
		<tag k="ssr:stedsnr" v="117712" />
	</node>
	<node lat="68.975577780009" lon="17.65859444728777" id="-34300">
		<tag k="name" v="Kua" />
		<tag k="natural" v="hill" />
		<tag k="place" v="locality" />
		<tag k="ssr:stedsnr" v="117632" />
	</node>
	<node lat="68.87108610959514" lon="18.059119428871433" id="-34302">
		<tag k="name" v="Nikolai-dalmoen" />
		<tag k="place" v="locality" />
		<tag k="ssr:stedsnr" v="117670" />
	</node>
	<node lat="68.88934722393378" lon="18.12288610021692" id="-34304">
		<tag k="name" v="Kvernbekkvassranen" />
		<tag k="natural" v="ridge" />
		<tag k="place" v="locality" />
		<tag k="ssr:stedsnr" v="117681" />
	</node>
	<node lat="68.8755472176744" lon="18.093908338094053" id="-34305">
		<tag k="name" v="Knausen" />
		<tag k="natural" v="hill" />
		<tag k="place" v="locality" />
		<tag k="ssr:stedsnr" v="117690" />
	</node>
	<node lat="68.8784972254566" lon="18.083219449761163" id="-34306">
		<tag k="name" v="Basstuberget" />
		<tag k="natural" v="hill" />
		<tag k="place" v="locality" />
		<tag k="ssr:stedsnr" v="117692" />
	</node>
	<node lat="68.87504722390904" lon="18.11141110223412" id="-34307">
		<tag k="name" v="Rismålskaret" />
		<tag k="natural" v="valley" />
		<tag k="place" v="locality" />
		<tag k="ssr:stedsnr" v="117693" />
	</node>
	<node lat="68.87524444870394" lon="18.10952222298016" id="-34308">
		<tag k="name" v="Rismålshaugen" />
		<tag k="natural" v="hill" />
		<tag k="place" v="locality" />
		<tag k="ssr:stedsnr" v="117695" />
	</node>
	<node lat="68.90936944679993" lon="17.86862500711774" id="-34309">
		<tag k="name" v="Olderholla" />
		<tag k="natural" v="valley" />
		<tag k="place" v="locality" />
		<tag k="ssr:stedsnr" v="117819" />
	</node>
	<node lat="68.91272221966796" lon="17.88065277418357" id="-34310">
		<tag k="name" v="Kristitofta" />
		<tag k="natural" v="hill" />
		<tag k="place" v="locality" />
		<tag k="ssr:stedsnr" v="117821" />
	</node>
	<node lat="68.87395555199383" lon="17.918236103338636" id="-34311">
		<tag k="name" v="Lihamran" />
		<tag k="natural" v="hill" />
		<tag k="place" v="locality" />
		<tag k="ssr:stedsnr" v="117934" />
	</node>
	<node lat="68.94694721980834" lon="18.06926389533972" id="-34314">
		<tag k="name" v="Gråhammaren" />
		<tag k="natural" v="hill" />
		<tag k="place" v="locality" />
		<tag k="ssr:stedsnr" v="119473" />
	</node>
	<node lat="68.84304999885259" lon="17.77320277536023" id="-34315">
		<tag k="name" v="Brynelvbotn" />
		<tag k="natural" v="valley" />
		<tag k="place" v="locality" />
		<tag k="ssr:stedsnr" v="138802" />
	</node>
	<node lat="68.88839444347825" lon="17.66061388707643" id="-34323">
		<tag k="alt_name" v="Nonshaugen" />
		<tag k="name" v="Nonshågen" />
		<tag k="natural" v="hill" />
		<tag k="place" v="locality" />
		<tag k="ssr:stedsnr" v="139839" />
	</node>
	<node lat="68.85824722625902" lon="18.00527222243791" id="-34326">
		<tag k="name" v="Moen" />
		<tag k="place" v="locality" />
		<tag k="ssr:stedsnr" v="260532" />
	</node>
	<node lat="68.94423611531549" lon="18.143022209105638" id="-34330">
		<tag k="loc_name:se" v="Ceakkooaivi" />
		<tag k="name" v="Sekkhaugen - Seahkkoaivi" />
		<tag k="name:no" v="Sekkhaugen" />
		<tag k="name:se" v="Seahkkoaivi" />
		<tag k="natural" v="hill" />
		<tag k="old_name:se" v="Sækkoaivi" />
		<tag k="place" v="locality" />
		<tag k="ssr:stedsnr" v="260679" />
	</node>
	<node lat="68.83393055441447" lon="17.624219432122686" id="-34337">
		<tag k="fixme" v="consider natural=peak for the most distinct mountains in the district" />
		<tag k="name" v="Elveskardtindan" />
		<tag k="natural" v="hill" />
		<tag k="place" v="locality" />
		<tag k="ssr:stedsnr" v="260823" />
	</node>
	<node lat="68.85233333762757" lon="17.876308324263636" id="-34341">
		<tag k="alt_name" v="Trollhollan" />
		<tag k="name" v="Trollholen" />
		<tag k="natural" v="valley" />
		<tag k="place" v="locality" />
		<tag k="ssr:stedsnr" v="260840" />
	</node>
	<node lat="68.95207222436672" lon="17.947000003532608" id="-34342">
		<tag k="name" v="Haugliskardet" />
		<tag k="natural" v="valley" />
		<tag k="place" v="locality" />
		<tag k="ssr:stedsnr" v="260926" />
	</node>
	<node lat="68.9222583296079" lon="17.93923333799334" id="-34343">
		<tag k="alt_name:no" v="Kirkhaugen" />
		<tag k="loc_name:se" v="Girkodievvá" />
		<tag k="name" v="Kjerkehaugen" />
		<tag k="name:no" v="Kjerkehaugen" />
		<tag k="natural" v="hill" />
		<tag k="place" v="locality" />
		<tag k="ssr:stedsnr" v="260871" />
	</node>
	<node lat="68.95486666313857" lon="17.901511109438484" id="-34344">
		<tag k="name" v="Reingjerdan" />
		<tag k="natural" v="valley" />
		<tag k="place" v="locality" />
		<tag k="ssr:stedsnr" v="260927" />
	</node>
	<node lat="68.98331111198284" lon="17.759599995922947" id="-34345">
		<tag k="fixme" v="consider natural=peak for the most distinct mountains in the district" />
		<tag k="name" v="Varden" />
		<tag k="natural" v="hill" />
		<tag k="place" v="locality" />
		<tag k="ssr:stedsnr" v="260980" />
	</node>
	<node lat="68.8693499974347" lon="18.0775194445957" id="-34348">
		<tag k="name" v="Moekra" />
		<tag k="place" v="locality" />
		<tag k="ssr:stedsnr" v="173167" />
	</node>
	<node lat="68.96939721768013" lon="17.77400000499762" id="-34349">
		<tag k="name" v="Kvannholla" />
		<tag k="natural" v="valley" />
		<tag k="place" v="locality" />
		<tag k="ssr:stedsnr" v="176005" />
	</node>
	<node lat="68.97713889230853" lon="17.76657498844892" id="-34350">
		<tag k="name" v="Bjørnhåglia" />
		<tag k="natural" v="slope" />
		<tag k="place" v="locality" />
		<tag k="ssr:stedsnr" v="176007" />
	</node>
	<node lat="68.84278611507006" lon="17.82914721230532" id="-34351">
		<tag k="name" v="Sætersletta" />
		<tag k="place" v="locality" />
		<tag k="ssr:stedsnr" v="177716" />
	</node>
	<node lat="68.89898055365742" lon="17.80250554394583" id="-34353">
		<tag k="name" v="Svenskåran" />
		<tag k="natural" v="valley" />
		<tag k="place" v="locality" />
		<tag k="ssr:stedsnr" v="178068" />
	</node>
	<node lat="68.91141944438048" lon="17.772402767812515" id="-34354">
		<tag k="name" v="Lia" />
		<tag k="natural" v="slope" />
		<tag k="place" v="locality" />
		<tag k="ssr:stedsnr" v="178074" />
	</node>
	<node lat="68.94309444591097" lon="17.722419434336732" id="-34355">
		<tag k="fixme" v="consider natural=peak for the most distinct mountains in the district" />
		<tag k="name" v="Høgdan" />
		<tag k="natural" v="hill" />
		<tag k="place" v="locality" />
		<tag k="ssr:stedsnr" v="178105" />
	</node>
	<node lat="68.93816388625572" lon="17.72824998747267" id="-34356">
		<tag k="name" v="Stordalen" />
		<tag k="natural" v="valley" />
		<tag k="place" v="locality" />
		<tag k="ssr:stedsnr" v="178106" />
	</node>
	<node lat="68.84727221840797" lon="17.880572212061654" id="-34358">
		<tag k="fixme" v="consider natural=peak for the most distinct mountains in the district" />
		<tag k="name" v="Storhøgden" />
		<tag k="natural" v="hill" />
		<tag k="place" v="locality" />
		<tag k="ssr:stedsnr" v="178158" />
	</node>
	<node lat="68.84161389043462" lon="17.844080544810154" id="-34360">
		<tag k="name" v="Gryta" />
		<tag k="natural" v="valley" />
		<tag k="place" v="locality" />
		<tag k="ssr:stedsnr" v="178174" />
	</node>
	<node lat="68.89700277489499" lon="18.04969998627204" id="-34361">
		<tag k="name" v="Nerstehågen" />
		<tag k="natural" v="hill" />
		<tag k="place" v="locality" />
		<tag k="ssr:stedsnr" v="178412" />
	</node>
	<node lat="68.90888611233208" lon="17.791825006224347" id="-34364">
		<tag k="name" v="Amundliskaret" />
		<tag k="natural" v="valley" />
		<tag k="place" v="locality" />
		<tag k="ssr:stedsnr" v="178444" />
	</node>
	<node lat="68.91468055725555" lon="17.80514722224318" id="-34365">
		<tag k="name" v="Svartvasstolan" />
		<tag k="natural" v="hill" />
		<tag k="place" v="locality" />
		<tag k="ssr:stedsnr" v="178456" />
	</node>
	<node lat="68.90618332935404" lon="17.832127779743296" id="-34366">
		<tag k="name" v="Hesjehågenden" />
		<tag k="natural" v="hill" />
		<tag k="place" v="locality" />
		<tag k="ssr:stedsnr" v="178462" />
	</node>
	<node lat="68.90491110796543" lon="17.814669443810164" id="-34367">
		<tag k="name" v="Reinskinnholla" />
		<tag k="natural" v="valley" />
		<tag k="place" v="locality" />
		<tag k="ssr:stedsnr" v="178465" />
	</node>
	<node lat="68.90065833517171" lon="17.8226499936586" id="-34368">
		<tag k="name" v="Grøthågen" />
		<tag k="natural" v="hill" />
		<tag k="place" v="locality" />
		<tag k="ssr:stedsnr" v="178472" />
	</node>
	<node lat="68.88368333209651" lon="18.06795555344982" id="-34370">
		<tag k="name" v="Skavlia" />
		<tag k="natural" v="slope" />
		<tag k="place" v="locality" />
		<tag k="ssr:stedsnr" v="178615" />
	</node>
	<node lat="68.89831110882179" lon="17.861111097557995" id="-34371">
		<tag k="name" v="Veilidalen" />
		<tag k="natural" v="valley" />
		<tag k="place" v="locality" />
		<tag k="ssr:stedsnr" v="178808" />
	</node>
	<node lat="68.9066805558088" lon="17.870966670824878" id="-34372">
		<tag k="name" v="Nemskadalen" />
		<tag k="natural" v="valley" />
		<tag k="place" v="locality" />
		<tag k="ssr:stedsnr" v="178815" />
	</node>
	<node lat="68.87652222575572" lon="17.6810110983746" id="-34373">
		<tag k="name" v="Bergenabben" />
		<tag k="natural" v="hill" />
		<tag k="place" v="locality" />
		<tag k="ssr:stedsnr" v="178702" />
	</node>
	<node lat="68.84834166529525" lon="18.035744452811628" id="-34374">
		<tag k="name" v="Tømmerhaugen" />
		<tag k="natural" v="hill" />
		<tag k="place" v="locality" />
		<tag k="ssr:stedsnr" v="178711" />
	</node>
	<node lat="68.89271944553911" lon="17.70451389340871" id="-34376">
		<tag k="name" v="Dalenakken" />
		<tag k="natural" v="hill" />
		<tag k="place" v="locality" />
		<tag k="ssr:stedsnr" v="261827" />
	</node>
	<node lat="68.86454722427312" lon="18.05209999962104" id="-34377">
		<tag k="name" v="Prestbakkmoen" />
		<tag k="place" v="locality" />
		<tag k="ssr:stedsnr" v="199507" />
	</node>
	<node lat="68.83333055344677" lon="17.558397209483832" id="-34378">
		<tag k="fixme" v="consider natural=peak for the most distinct mountains in the district" />
		<tag k="name" v="Reitetindan" />
		<tag k="natural" v="hill" />
		<tag k="place" v="locality" />
		<tag k="ssr:stedsnr" v="199803" />
	</node>
	<node lat="68.90353611398102" lon="17.458597208930257" id="-34381">
		<tag k="fixme" v="consider natural=peak for the most distinct mountains in the district" />
		<tag k="name" v="Vindhammaren" />
		<tag k="natural" v="hill" />
		<tag k="place" v="locality" />
		<tag k="ssr:stedsnr" v="200808" />
	</node>
	<node lat="68.84703055721815" lon="18.104150004827645" id="-34385">
		<tag k="name" v="Ventarberget" />
		<tag k="natural" v="hill" />
		<tag k="place" v="locality" />
		<tag k="ssr:stedsnr" v="234282" />
	</node>
	<node lat="68.84340833718407" lon="18.1023611145051" id="-34386">
		<tag k="name" v="Vinterholtet" />
		<tag k="natural" v="hill" />
		<tag k="place" v="locality" />
		<tag k="ssr:stedsnr" v="234285" />
	</node>
	<node lat="68.97509444818704" lon="17.732325005117602" id="-34388">
		<tag k="name" v="Ryet" />
		<tag k="natural" v="hill" />
		<tag k="place" v="locality" />
		<tag k="ssr:stedsnr" v="237012" />
	</node>
	<node lat="68.9076444461008" lon="17.757277779133137" id="-34390">
		<tag k="name" v="Skorvhågen" />
		<tag k="natural" v="hill" />
		<tag k="place" v="locality" />
		<tag k="ssr:stedsnr" v="237506" />
	</node>
	<node lat="68.96870000208422" lon="17.763916664788137" id="-34391">
		<tag k="name" v="Hollestrupen" />
		<tag k="natural" v="valley" />
		<tag k="place" v="locality" />
		<tag k="ssr:stedsnr" v="238103" />
	</node>
	<node lat="68.9379166657711" lon="17.739074998043172" id="-34393">
		<tag k="name" v="Rapet" />
		<tag k="natural" v="valley" />
		<tag k="place" v="locality" />
		<tag k="ssr:stedsnr" v="238090" />
	</node>
	<node lat="68.86884166808996" lon="17.606872224701515" id="-34395">
		<tag k="fixme" v="consider natural=peak for the most distinct mountains in the district" />
		<tag k="name" v="Høgfjellskolten" />
		<tag k="natural" v="hill" />
		<tag k="place" v="locality" />
		<tag k="ssr:stedsnr" v="238639" />
	</node>
	<node lat="68.88483055389705" lon="17.68796665726468" id="-34397">
		<tag k="name" v="Rundhågen" />
		<tag k="natural" v="hill" />
		<tag k="place" v="locality" />
		<tag k="ssr:stedsnr" v="238703" />
	</node>
	<node lat="68.88608333587474" lon="17.688291670882347" id="-34398">
		<tag k="name" v="Dalan" />
		<tag k="natural" v="valley" />
		<tag k="place" v="locality" />
		<tag k="ssr:stedsnr" v="238708" />
	</node>
	<node lat="68.91546944915656" lon="17.93364166178228" id="-34400">
		<tag k="name" v="Revberget" />
		<tag k="natural" v="hill" />
		<tag k="place" v="locality" />
		<tag k="ssr:stedsnr" v="239802" />
	</node>
	<node lat="68.92278889037611" lon="17.98886109864685" id="-34401">
		<tag k="name" v="Garguheimhaugen" />
		<tag k="natural" v="hill" />
		<tag k="place" v="locality" />
		<tag k="ssr:stedsnr" v="239796" />
	</node>
	<node lat="68.9126583303377" lon="17.708750001436858" id="-34402">
		<tag k="name" v="Teisteberget" />
		<tag k="natural" v="hill" />
		<tag k="place" v="locality" />
		<tag k="ssr:stedsnr" v="454546" />
	</node>
	<node lat="68.9049249982752" lon="17.808891664521447" id="-34408">
		<tag k="name" v="Hesjemoen" />
		<tag k="place" v="locality" />
		<tag k="ssr:stedsnr" v="260854" />
	</node>
</osm>
