<?xml version="1.0" encoding="UTF-8"?>
<osm version="0.6" generator="osmapis">
	<node lat="68.91929722238264" lon="17.810469453463377" id="-32629">
		<tag k="name" v="Vinkelen" />
		<tag k="place" v="isolated_dwelling" />
		<tag k="ssr:stedsnr" v="18801" />
	</node>
	<node lat="68.919950002163" lon="17.909330560251103" id="-32630">
		<tag k="name" v="Mangevatnan" />
		<tag k="natural" v="water" />
		<tag k="ssr:stedsnr" v="18806" />
		<tag k="water" v="lake" />
	</node>
	<node lat="68.90749444552814" lon="17.904072222068038" id="-32631">
		<tag k="name" v="Jerpedalen" />
		<tag k="natural" v="valley" />
		<tag k="place" v="locality" />
		<tag k="ssr:stedsnr" v="18778" />
	</node>
	<node lat="68.90790000473466" lon="17.967952770402405" id="-32632">
		<tag k="alt_name" v="Snauhaugen" />
		<tag k="name" v="Snauhågen" />
		<tag k="natural" v="hill" />
		<tag k="place" v="locality" />
		<tag k="ssr:stedsnr" v="18787" />
	</node>
	<node lat="68.8504666643001" lon="18.10814999528419" id="-32633">
		<tag k="name" v="Krokåkeren" />
		<tag k="natural" v="slope" />
		<tag k="place" v="locality" />
		<tag k="ssr:stedsnr" v="234148" />
	</node>
	<node lat="68.82842499771456" lon="18.12445833742921" id="-32634">
		<tag k="name" v="Nedre Snørkemyr" />
		<tag k="natural" v="wetland" />
		<tag k="ssr:stedsnr" v="234244" />
	</node>
	<node lat="68.84691110839917" lon="18.099294437655395" id="-32635">
		<tag k="name" v="Nils-Svensabekken" />
		<tag k="ssr:stedsnr" v="234273" />
		<tag k="waterway" v="stream" />
	</node>
	<node lat="68.86443055493547" lon="17.556341672413335" id="-32636">
		<tag k="name" v="Oldervika" />
		<tag k="natural" v="bay" />
		<tag k="ssr:stedsnr" v="30674" />
	</node>
	<node lat="68.88463889019825" lon="17.60853332022194" id="-32637">
		<tag k="name" v="Laukvikneset" />
		<tag k="natural" v="cape" />
		<tag k="ssr:stedsnr" v="30703" />
	</node>
	<node lat="68.97212499694302" lon="17.76307222898808" id="-32638">
		<tag k="name" v="Litjegrønlia" />
		<tag k="natural" v="slope" />
		<tag k="place" v="locality" />
		<tag k="ssr:stedsnr" v="237129" />
	</node>
	<node lat="68.82499722510069" lon="17.98832500027267" id="-32639">
		<tag k="name" v="Middagsskaret" />
		<tag k="natural" v="valley" />
		<tag k="place" v="locality" />
		<tag k="ssr:stedsnr" v="237213" />
	</node>
	<node lat="68.90162500065041" lon="17.826586116182707" id="-32640">
		<tag k="name" v="Ol-Lambriksaslåtten" />
		<tag k="place" v="locality" />
		<tag k="ssr:stedsnr" v="238487" />
	</node>
	<node lat="68.90182500369737" lon="17.804736109990053" id="-32641">
		<tag k="name" v="Lølia" />
		<tag k="natural" v="slope" />
		<tag k="place" v="locality" />
		<tag k="ssr:stedsnr" v="238488" />
	</node>
	<node lat="68.89440555271696" lon="17.7692999919592" id="-32642">
		<tag k="name" v="Tårlevika" />
		<tag k="natural" v="bay" />
		<tag k="ssr:stedsnr" v="238492" />
	</node>
	<node lat="68.97874999803427" lon="17.721627777594755" id="-32643">
		<tag k="name" v="Larselva" />
		<tag k="ssr:stedsnr" v="238053" />
		<tag k="waterway" v="stream" />
	</node>
	<node lat="68.98523333098065" lon="17.73320553985991" id="-32644">
		<tag k="name" v="Bjørnberget" />
		<tag k="natural" v="hill" />
		<tag k="place" v="locality" />
		<tag k="ssr:stedsnr" v="238071" />
	</node>
	<node lat="68.9898472261697" lon="17.701638896016007" id="-32645">
		<tag k="name" v="Bjørnmyra" />
		<tag k="natural" v="wetland" />
		<tag k="ssr:stedsnr" v="238073" />
	</node>
	<node lat="68.9858055574422" lon="17.706769433104927" id="-32646">
		<tag k="name" v="Litjevatnet" />
		<tag k="natural" v="water" />
		<tag k="ssr:stedsnr" v="238074" />
	</node>
	<node lat="68.8315861145406" lon="17.88027500427681" id="-32647">
		<tag k="name" v="Eidemyra" />
		<tag k="natural" v="wetland" />
		<tag k="ssr:stedsnr" v="238138" />
	</node>
	<node lat="68.83750555782443" lon="17.896469454344434" id="-32648">
		<tag k="name" v="Nerflaten" />
		<tag k="place" v="locality" />
		<tag k="ssr:stedsnr" v="238139" />
	</node>
	<node lat="68.84033333253906" lon="17.98460278290111" id="-32649">
		<tag k="name" v="Fjellmoen" />
		<tag k="place" v="locality" />
		<tag k="ssr:stedsnr" v="238126" />
	</node>
	<node lat="68.86660277459151" lon="17.777288873094655" id="-32650">
		<tag k="name" v="Elemosletta" />
		<tag k="place" v="locality" />
		<tag k="ssr:stedsnr" v="238255" />
	</node>
	<node lat="68.86442221946939" lon="17.790347230784928" id="-32651">
		<tag k="name" v="Gihcegárdi" />
		<tag k="name:se" v="Gihcegárdi" />
		<tag k="place" v="locality" />
		<tag k="ssr:stedsnr" v="238256" />
	</node>
	<node lat="68.88964722227641" lon="17.89831666351883" id="-32652">
		<tag k="name" v="Græslivatnet" />
		<tag k="natural" v="water" />
		<tag k="ssr:stedsnr" v="238202" />
	</node>
	<node lat="68.89229999920883" lon="17.90748056124596" id="-32653">
		<tag k="name" v="Græslia" />
		<tag k="natural" v="slope" />
		<tag k="place" v="locality" />
		<tag k="ssr:stedsnr" v="238206" />
	</node>
	<node lat="68.88953889205092" lon="17.822449998178563" id="-32654">
		<tag k="name" v="Mørkedalen" />
		<tag k="natural" v="valley" />
		<tag k="place" v="locality" />
		<tag k="ssr:stedsnr" v="238317" />
	</node>
	<node lat="68.90589444553241" lon="17.50801667362913" id="-32655">
		<tag k="name" v="Stornaustberget" />
		<tag k="natural" v="hill" />
		<tag k="place" v="locality" />
		<tag k="ssr:stedsnr" v="238584" />
	</node>
	<node lat="68.90218889246879" lon="18.005461097644716" id="-32656">
		<tag k="name" v="Elvekrokan" />
		<tag k="natural" v="bay" />
		<tag k="ssr:stedsnr" v="238445" />
	</node>
	<node lat="68.93283333312671" lon="17.707880548939585" id="-32657">
		<tag k="name" v="Litjevika" />
		<tag k="natural" v="bay" />
		<tag k="ssr:stedsnr" v="238453" />
	</node>
	<node lat="68.91982222474154" lon="17.709827771434025" id="-32658">
		<tag k="name" v="Kleivspira" />
		<tag k="natural" v="cape" />
		<tag k="ssr:stedsnr" v="238458" />
	</node>
	<node lat="68.91900278129009" lon="17.744308338549654" id="-32659">
		<tag k="name" v="Medbylia" />
		<tag k="natural" v="slope" />
		<tag k="place" v="locality" />
		<tag k="ssr:stedsnr" v="238466" />
	</node>
	<node lat="68.91690278103317" lon="17.749183332637138" id="-32660">
		<tag k="name" v="Einelia" />
		<tag k="natural" v="slope" />
		<tag k="place" v="locality" />
		<tag k="ssr:stedsnr" v="238467" />
	</node>
	<node lat="68.90005555331594" lon="17.735180541633166" id="-32661">
		<tag k="name" v="Lamøyklubben" />
		<tag k="natural" v="cape" />
		<tag k="ssr:stedsnr" v="238540" />
	</node>
	<node lat="68.90271389145553" lon="17.795380546198217" id="-32662">
		<tag k="name" v="Yttergårdselva" />
		<tag k="ssr:stedsnr" v="238494" />
		<tag k="waterway" v="stream" />
	</node>
	<node lat="68.82892500113604" lon="17.49725556314997" id="-32663">
		<tag k="name" v="Skogsletta" />
		<tag k="place" v="locality" />
		<tag k="ssr:stedsnr" v="238562" />
	</node>
	<node lat="68.91351388436338" lon="17.505091673281637" id="-32664">
		<tag k="name" v="Fjellbakken" />
		<tag k="natural" v="slope" />
		<tag k="place" v="locality" />
		<tag k="ssr:stedsnr" v="238588" />
	</node>
	<node lat="68.91091388649654" lon="17.51631109595267" id="-32665">
		<tag k="name" v="Luggebakken" />
		<tag k="natural" v="slope" />
		<tag k="place" v="locality" />
		<tag k="ssr:stedsnr" v="238589" />
	</node>
	<node lat="68.86200000363543" lon="17.5573777875286" id="-32666">
		<tag k="name" v="Maritelva" />
		<tag k="ssr:stedsnr" v="238622" />
		<tag k="waterway" v="stream" />
	</node>
	<node lat="68.87842778274715" lon="17.670588877388525" id="-32667">
		<tag k="name" v="Vedvelta" />
		<tag k="natural" v="slope" />
		<tag k="place" v="locality" />
		<tag k="ssr:stedsnr" v="238623" />
	</node>
	<node lat="68.95791111359614" lon="17.872594432852924" id="-32668">
		<tag k="name" v="Fossen" />
		<tag k="natural" v="waterfall" />
		<tag k="ssr:stedsnr" v="238701" />
	</node>
	<node lat="68.88488333663963" lon="17.6971083409265" id="-32669">
		<tag k="name" v="Finnhågsletta" />
		<tag k="place" v="locality" />
		<tag k="ssr:stedsnr" v="238713" />
	</node>
	<node lat="68.95302778018015" lon="17.894308336172415" id="-32670">
		<tag k="name" v="Grønlibotn" />
		<tag k="natural" v="valley" />
		<tag k="place" v="locality" />
		<tag k="ssr:stedsnr" v="238718" />
	</node>
	<node lat="68.88244721933708" lon="18.004522227083033" id="-32671">
		<tag k="name" v="Brennmoberget" />
		<tag k="natural" v="hill" />
		<tag k="place" v="locality" />
		<tag k="ssr:stedsnr" v="238650" />
	</node>
	<node lat="68.88165833548943" lon="18.052813876400595" id="-32672">
		<tag k="name" v="Bjørnbåsen" />
		<tag k="natural" v="hill" />
		<tag k="place" v="locality" />
		<tag k="ssr:stedsnr" v="238656" />
	</node>
	<node lat="68.88191388464381" lon="18.04099721679201" id="-32673">
		<tag k="name" v="Kalvedamman" />
		<tag k="natural" v="wetland" />
		<tag k="ssr:stedsnr" v="238658" />
	</node>
	<node lat="68.93224722661353" lon="17.66008610323568" id="-32674">
		<tag k="name" v="Rødbergelva" />
		<tag k="ssr:stedsnr" v="238659" />
		<tag k="waterway" v="stream" />
	</node>
	<node lat="68.87541666777618" lon="18.011183339496714" id="-32675">
		<tag k="name" v="Stormyrmoen" />
		<tag k="place" v="locality" />
		<tag k="ssr:stedsnr" v="238663" />
	</node>
	<node lat="68.87472500334813" lon="18.006111099183883" id="-32676">
		<tag k="name" v="Kuneset" />
		<tag k="natural" v="cape" />
		<tag k="ssr:stedsnr" v="238668" />
	</node>
	<node lat="68.8776861153902" lon="18.062022208092667" id="-32677">
		<tag k="name" v="Rødmyrsirbakken" />
		<tag k="natural" v="slope" />
		<tag k="place" v="locality" />
		<tag k="ssr:stedsnr" v="238672" />
	</node>
	<node lat="68.87262777805992" lon="18.06425833265927" id="-32678">
		<tag k="name" v="Storbakken" />
		<tag k="natural" v="slope" />
		<tag k="place" v="locality" />
		<tag k="ssr:stedsnr" v="238676" />
	</node>
	<node lat="68.8794611103173" lon="17.69495556026295" id="-32679">
		<tag k="name" v="Ampen" />
		<tag k="natural" v="hill" />
		<tag k="place" v="locality" />
		<tag k="ssr:stedsnr" v="238759" />
	</node>
	<node lat="68.88018333017105" lon="17.680558338270746" id="-32680">
		<tag k="name" v="Karineset" />
		<tag k="natural" v="cape" />
		<tag k="ssr:stedsnr" v="238761" />
	</node>
	<node lat="68.88073889196127" lon="17.694711117054702" id="-32681">
		<tag k="name" v="Vika" />
		<tag k="natural" v="bay" />
		<tag k="ssr:stedsnr" v="238770" />
	</node>
	<node lat="68.82583889296163" lon="18.01533332967657" id="-32682">
		<tag k="name" v="Holmevatnet" />
		<tag k="natural" v="water" />
		<tag k="ssr:stedsnr" v="238771" />
	</node>
	<node lat="68.90297778201449" lon="17.886708334776287" id="-32683">
		<tag k="name" v="Barralátnja" />
		<tag k="name:se" v="Barralátnja" />
		<tag k="natural" v="slope" />
		<tag k="place" v="locality" />
		<tag k="ssr:stedsnr" v="238801" />
	</node>
	<node lat="68.91234166540086" lon="17.880727785409082" id="-32684">
		<tag k="name" v="Kalkskjæringa" />
		<tag k="natural" v="valley" />
		<tag k="place" v="locality" />
		<tag k="ssr:stedsnr" v="238820" />
	</node>
	<node lat="68.87284722444386" lon="17.687480552285997" id="-32685">
		<tag k="fixme" v="consider natural=peak for the most distinct mountains in the district" />
		<tag k="name" v="Nerfjellet" />
		<tag k="natural" v="hill" />
		<tag k="place" v="locality" />
		<tag k="ssr:stedsnr" v="238772" />
	</node>
	<node lat="68.83269722286823" lon="17.51598055859066" id="-32686">
		<tag k="name" v="Kvithågen" />
		<tag k="natural" v="hill" />
		<tag k="place" v="locality" />
		<tag k="ssr:stedsnr" v="238989" />
	</node>
	<node lat="68.86840000111003" lon="17.892897208226092" id="-32687">
		<tag k="name" v="Boldervika" />
		<tag k="natural" v="bay" />
		<tag k="ssr:stedsnr" v="238991" />
	</node>
	<node lat="68.83210555604397" lon="17.482266667789887" id="-32688">
		<tag k="name" v="Storbakken" />
		<tag k="natural" v="slope" />
		<tag k="place" v="locality" />
		<tag k="ssr:stedsnr" v="238993" />
	</node>
	<node lat="68.83318333180142" lon="17.51146666063547" id="-32689">
		<tag k="name" v="Mosesteinan" />
		<tag k="natural" v="stone" />
		<tag k="ssr:stedsnr" v="238996" />
	</node>
	<node lat="68.88486110708797" lon="17.974872216267837" id="-32690">
		<tag k="name" v="Markeløa" />
		<tag k="natural" v="slope" />
		<tag k="place" v="locality" />
		<tag k="ssr:stedsnr" v="238954" />
	</node>
	<node lat="68.88322777604273" lon="17.97579723051961" id="-32691">
		<tag k="name" v="Juopmojohka" />
		<tag k="name:se" v="Juopmojohka" />
		<tag k="ssr:stedsnr" v="238961" />
		<tag k="waterway" v="stream" />
	</node>
	<node lat="68.8572888901538" lon="17.852930552380148" id="-32692">
		<tag k="highway" v="path" />
		<tag k="name" v="Røyholveien" />
		<tag k="ssr:stedsnr" v="238967" />
	</node>
	<node lat="68.8648694477597" lon="18.02567221856389" id="-32693">
		<tag k="name" v="Alvildebakken" />
		<tag k="natural" v="slope" />
		<tag k="place" v="locality" />
		<tag k="ssr:stedsnr" v="239545" />
	</node>
	<node lat="68.86770555546333" lon="18.047305546383747" id="-32694">
		<tag k="name" v="Vakkerdalen" />
		<tag k="natural" v="valley" />
		<tag k="place" v="locality" />
		<tag k="ssr:stedsnr" v="239546" />
	</node>
	<node lat="68.85318333495061" lon="18.054186114066074" id="-32695">
		<tag k="name" v="Branndalen" />
		<tag k="natural" v="valley" />
		<tag k="place" v="locality" />
		<tag k="ssr:stedsnr" v="239548" />
	</node>
	<node lat="68.85648333680118" lon="18.032830547348173" id="-32696">
		<tag k="name" v="Hestøyra" />
		<tag k="natural" v="cape" />
		<tag k="ssr:stedsnr" v="239552" />
	</node>
	<node lat="68.85251388871909" lon="18.00866945083223" id="-32697">
		<tag k="name" v="Storhaugen" />
		<tag k="natural" v="hill" />
		<tag k="place" v="locality" />
		<tag k="ssr:stedsnr" v="239561" />
	</node>
	<node lat="68.8543944434452" lon="18.003377786179467" id="-32698">
		<tag k="name" v="Moldforhaugen" />
		<tag k="natural" v="hill" />
		<tag k="place" v="locality" />
		<tag k="ssr:stedsnr" v="239563" />
	</node>
	<node lat="68.96797500303802" lon="17.75922778253146" id="-32699">
		<tag k="name" v="Holla" />
		<tag k="natural" v="valley" />
		<tag k="place" v="locality" />
		<tag k="ssr:stedsnr" v="55003" />
	</node>
	<node lat="68.97688610943445" lon="17.729297223349878" id="-32700">
		<tag k="name" v="Gauthellaren" />
		<tag k="place" v="locality" />
		<tag k="ssr:stedsnr" v="55016" />
	</node>
	<node lat="68.9691777785211" lon="17.730241654445337" id="-32701">
		<tag k="name" v="Tømmerneset" />
		<tag k="natural" v="cape" />
		<tag k="ssr:stedsnr" v="55017" />
	</node>
	<node lat="68.91072777684235" lon="17.757561096284043" id="-32702">
		<tag k="name" v="Brekka" />
		<tag k="natural" v="slope" />
		<tag k="place" v="locality" />
		<tag k="ssr:stedsnr" v="55468" />
	</node>
	<node lat="68.83567777831338" lon="17.92509720952713" id="-32703">
		<tag k="name" v="Finnstadfossen" />
		<tag k="natural" v="waterfall" />
		<tag k="ssr:stedsnr" v="56113" />
	</node>
	<node lat="68.82890555967754" lon="17.931433328761415" id="-32704">
		<tag k="name" v="Froskeholtet" />
		<tag k="place" v="locality" />
		<tag k="ssr:stedsnr" v="56118" />
	</node>
	<node lat="68.83708888756003" lon="17.846755543656645" id="-32705">
		<tag k="name" v="Elgsvingen" />
		<tag k="place" v="locality" />
		<tag k="ssr:stedsnr" v="56121" />
	</node>
	<node lat="68.97140277516256" lon="17.731366674442395" id="-32706">
		<tag k="name" v="Osemyra" />
		<tag k="natural" v="wetland" />
		<tag k="ssr:stedsnr" v="56043" />
	</node>
	<node lat="68.97840833713451" lon="17.731758338540438" id="-32707">
		<tag k="name" v="Reingjerdelva" />
		<tag k="ssr:stedsnr" v="56045" />
		<tag k="waterway" v="stream" />
	</node>
	<node lat="68.96618333691943" lon="17.763524986682583" id="-32708">
		<tag k="name" v="Steinbakken" />
		<tag k="natural" v="slope" />
		<tag k="place" v="locality" />
		<tag k="ssr:stedsnr" v="56096" />
	</node>
	<node lat="68.88159444576291" lon="17.84399166672527" id="-32709">
		<tag k="name" v="Brennholtet" />
		<tag k="place" v="locality" />
		<tag k="ssr:stedsnr" v="56175" />
	</node>
	<node lat="68.92391666491469" lon="18.026102779230087" id="-32710">
		<tag k="name" v="Bekken" />
		<tag k="ssr:stedsnr" v="56505" />
		<tag k="waterway" v="river" />
	</node>
	<node lat="68.85384722607024" lon="17.77842777593549" id="-32711">
		<tag k="name" v="Láttorápma" />
		<tag k="name:se" v="Láttorápma" />
		<tag k="natural" v="slope" />
		<tag k="place" v="locality" />
		<tag k="ssr:stedsnr" v="56267" />
	</node>
	<node lat="68.90935278153717" lon="17.760405547745446" id="-32712">
		<tag k="name" v="Stigbergan" />
		<tag k="natural" v="hill" />
		<tag k="place" v="locality" />
		<tag k="ssr:stedsnr" v="56474" />
	</node>
	<node lat="68.90975555591586" lon="17.769255553643468" id="-32713">
		<tag k="name" v="Løhågen" />
		<tag k="natural" v="hill" />
		<tag k="place" v="locality" />
		<tag k="ssr:stedsnr" v="56487" />
	</node>
	<node lat="68.91098333697262" lon="17.537824988854773" id="-32714">
		<tag k="name" v="Kviteberget" />
		<tag k="natural" v="hill" />
		<tag k="place" v="locality" />
		<tag k="ssr:stedsnr" v="56682" />
	</node>
	<node lat="68.89410277295428" lon="17.85775278509458" id="-32715">
		<tag k="name" v="Flagghågen" />
		<tag k="natural" v="hill" />
		<tag k="place" v="locality" />
		<tag k="ssr:stedsnr" v="56808" />
	</node>
	<node lat="68.90334444615395" lon="17.874497219303937" id="-32716">
		<tag k="name" v="Skadalen" />
		<tag k="natural" v="valley" />
		<tag k="place" v="locality" />
		<tag k="ssr:stedsnr" v="56811" />
	</node>
	<node lat="68.90245555307129" lon="17.46951110706054" id="-32717">
		<tag k="name" v="Storakselhågen" />
		<tag k="natural" v="hill" />
		<tag k="place" v="locality" />
		<tag k="ssr:stedsnr" v="56567" />
	</node>
	<node lat="68.86879166597113" lon="18.05788055273166" id="-32718">
		<tag k="name" v="Litjelvdalen" />
		<tag k="natural" v="valley" />
		<tag k="place" v="locality" />
		<tag k="ssr:stedsnr" v="56568" />
	</node>
	<node lat="68.90586110957848" lon="17.499241673260848" id="-32719">
		<tag k="fixme" v="consider natural=peak for the most distinct mountains in the district" />
		<tag k="name" v="Høgholtet" />
		<tag k="natural" v="hill" />
		<tag k="place" v="locality" />
		<tag k="ssr:stedsnr" v="56577" />
	</node>
	<node lat="68.8892583352085" lon="18.082874995665485" id="-32720">
		<tag k="name" v="Ørndalen" />
		<tag k="natural" v="valley" />
		<tag k="place" v="locality" />
		<tag k="ssr:stedsnr" v="56701" />
	</node>
	<node lat="68.88183888770259" lon="18.098399989517112" id="-32721">
		<tag k="name" v="Kvernbekkdalen" />
		<tag k="natural" v="valley" />
		<tag k="place" v="locality" />
		<tag k="ssr:stedsnr" v="56707" />
	</node>
	<node lat="68.88581666423347" lon="18.127816661500486" id="-32722">
		<tag k="fixme" v="consider natural=peak for the most distinct mountains in the district" />
		<tag k="name" v="Steinvasshøgda" />
		<tag k="natural" v="hill" />
		<tag k="place" v="locality" />
		<tag k="ssr:stedsnr" v="56712" />
	</node>
	<node lat="68.84276944228523" lon="17.81237222778704" id="-32723">
		<tag k="highway" v="path" />
		<tag k="name" v="Mariveien" />
		<tag k="ssr:stedsnr" v="56715" />
	</node>
	<node lat="68.81351666430325" lon="18.051236116538263" id="-32724">
		<tag k="name" v="Nedre Masterbakkvatn - Govlojávri" />
		<tag k="name:no" v="Nedre Masterbakkvatn" />
		<tag k="name:se" v="Govlojávri" />
		<tag k="natural" v="water" />
		<tag k="ssr:stedsnr" v="56770" />
		<tag k="water" v="lake" />
	</node>
	<node lat="68.858888893003" lon="17.85184443312857" id="-32725">
		<tag k="name" v="Stormyra" />
		<tag k="natural" v="wetland" />
		<tag k="ssr:stedsnr" v="56983" />
	</node>
	<node lat="68.90875555538184" lon="18.08948334032239" id="-32726">
		<tag k="name" v="Kviteberget" />
		<tag k="natural" v="hill" />
		<tag k="place" v="locality" />
		<tag k="ssr:stedsnr" v="57406" />
	</node>
	<node lat="68.8522750044029" lon="18.057716654108077" id="-32727">
		<tag k="name" v="Kjørodden" />
		<tag k="natural" v="cape" />
		<tag k="ssr:stedsnr" v="57522" />
	</node>
	<node lat="68.86121666809589" lon="18.04328054526087" id="-32728">
		<tag k="name" v="Langedalen" />
		<tag k="natural" v="valley" />
		<tag k="place" v="locality" />
		<tag k="ssr:stedsnr" v="57530" />
	</node>
	<node lat="68.87241666361533" lon="18.004530541297964" id="-32729">
		<tag k="name" v="Bommeneset" />
		<tag k="natural" v="cape" />
		<tag k="ssr:stedsnr" v="57623" />
	</node>
	<node lat="68.94368611288382" lon="18.021075000681147" id="-32730">
		<tag k="name" v="Storfossbakkan" />
		<tag k="natural" v="slope" />
		<tag k="place" v="locality" />
		<tag k="ssr:stedsnr" v="58473" />
	</node>
	<node lat="68.9350500043323" lon="18.091194446852462" id="-32731">
		<tag k="name" v="Klipa" />
		<tag k="natural" v="valley" />
		<tag k="place" v="locality" />
		<tag k="ssr:stedsnr" v="240452" />
	</node>
	<node lat="68.94093611260115" lon="18.053950001305477" id="-32732">
		<tag k="name" v="Myrslettbekkstrupet" />
		<tag k="natural" v="valley" />
		<tag k="place" v="locality" />
		<tag k="ssr:stedsnr" v="240475" />
	</node>
	<node lat="68.81820556025274" lon="17.876280546867942" id="-32733">
		<tag k="name" v="Tverrelva - Šleađđojohka" />
		<tag k="name:no" v="Tverrelva" />
		<tag k="name:se" v="Šleađđojohka" />
		<tag k="ssr:stedsnr" v="78697" />
		<tag k="waterway" v="stream" />
	</node>
	<node lat="68.84743055747556" lon="17.771416653505966" id="-32734">
		<tag k="name" v="Spunshaugen" />
		<tag k="natural" v="hill" />
		<tag k="place" v="locality" />
		<tag k="ssr:stedsnr" v="78815" />
	</node>
	<node lat="68.85250555702504" lon="17.562672225772026" id="-32735">
		<tag k="name" v="Rundkollen" />
		<tag k="natural" v="hill" />
		<tag k="place" v="locality" />
		<tag k="ssr:stedsnr" v="78816" />
	</node>
	<node lat="68.91300832904945" lon="17.484736115852986" id="-32736">
		<tag k="fixme" v="consider natural=peak for the most distinct mountains in the district" />
		<tag k="name" v="Rennhammaren" />
		<tag k="natural" v="hill" />
		<tag k="place" v="locality" />
		<tag k="ssr:stedsnr" v="78845" />
	</node>
	<node lat="68.8585944427032" lon="17.81416388083954" id="-32737">
		<tag k="name" v="Nysted" />
		<tag k="place" v="farm" />
		<tag k="ssr:stedsnr" v="78754" />
	</node>
	<node lat="68.8319888865863" lon="17.475474986292042" id="-32738">
		<tag k="name" v="Lavangsneset" />
		<tag k="natural" v="cape" />
		<tag k="ssr:stedsnr" v="78799" />
	</node>
	<node lat="68.94144444112061" lon="17.739711115798418" id="-32739">
		<tag k="name" v="Myre" />
		<tag k="place" v="farm" />
		<tag k="ssr:stedsnr" v="78948" />
	</node>
	<node lat="68.9007333310624" lon="17.786508325263004" id="-32740">
		<tag k="name" v="Yttergården" />
		<tag k="place" v="farm" />
		<tag k="ssr:stedsnr" v="79846" />
	</node>
	<node lat="68.90132777979817" lon="17.70284999134974" id="-32741">
		<tag k="name" v="Rotvikneset" />
		<tag k="natural" v="cape" />
		<tag k="ssr:stedsnr" v="90604" />
	</node>
	<node lat="69.00341388771233" lon="17.72848332527893" id="-32742">
		<tag k="name" v="Østertuvnes" />
		<tag k="place" v="farm" />
		<tag k="ssr:stedsnr" v="99511" />
	</node>
	<node lat="68.99023333209891" lon="17.70998889246878" id="-32743">
		<tag k="name" v="Sennestakken" />
		<tag k="natural" v="wetland" />
		<tag k="ssr:stedsnr" v="99514" />
	</node>
	<node lat="68.91573610842588" lon="17.784661112065077" id="-32744">
		<tag k="fixme" v="multiple name tags, choose one and add the other to alt_name" />
		<tag k="name" v="Vasshågen;Rognsahaugen" />
		<tag k="natural" v="hill" />
		<tag k="place" v="locality" />
		<tag k="ssr:stedsnr" v="249835" />
	</node>
	<node lat="68.96437777349223" lon="17.75967777749989" id="-32745">
		<tag k="landuse" v="meadow" />
		<tag k="name" v="Elveteigen" />
		<tag k="ssr:stedsnr" v="115003" />
	</node>
	<node lat="68.96540555706206" lon="17.759980549304277" id="-32746">
		<tag k="name" v="Ruskholla" />
		<tag k="natural" v="valley" />
		<tag k="place" v="locality" />
		<tag k="ssr:stedsnr" v="115007" />
	</node>
	<node lat="68.89929999914325" lon="17.717972207142854" id="-32747">
		<tag k="name" v="Båtvika" />
		<tag k="natural" v="bay" />
		<tag k="ssr:stedsnr" v="115471" />
	</node>
	<node lat="68.96204721935266" lon="17.763383321678216" id="-32748">
		<tag k="name" v="Storbakken" />
		<tag k="natural" v="slope" />
		<tag k="place" v="locality" />
		<tag k="ssr:stedsnr" v="117119" />
	</node>
	<node lat="68.9684444426381" lon="17.76965833236795" id="-32749">
		<tag k="name" v="Grytan" />
		<tag k="natural" v="valley" />
		<tag k="place" v="locality" />
		<tag k="ssr:stedsnr" v="117121" />
	</node>
	<node lat="68.84425000281365" lon="17.88102499576375" id="-32750">
		<tag k="name" v="Torvhågen" />
		<tag k="natural" v="hill" />
		<tag k="place" v="locality" />
		<tag k="ssr:stedsnr" v="117182" />
	</node>
	<node lat="68.84566388923109" lon="17.89343610095113" id="-32751">
		<tag k="name" v="Piggsteinen" />
		<tag k="natural" v="stone" />
		<tag k="ssr:stedsnr" v="117185" />
	</node>
	<node lat="68.84017222626697" lon="17.906386102663227" id="-32752">
		<tag k="name" v="Gustavroggi" />
		<tag k="name:se" v="Gustavroggi" />
		<tag k="natural" v="valley" />
		<tag k="place" v="locality" />
		<tag k="ssr:stedsnr" v="117187" />
	</node>
	<node lat="68.88949444342907" lon="17.80396943706246" id="-32753">
		<tag k="name" v="Enigheten" />
		<tag k="place" v="farm" />
		<tag k="ssr:stedsnr" v="117320" />
	</node>
	<node lat="68.8451250004964" lon="17.839138874043197" id="-32754">
		<tag k="name" v="Fosshågen" />
		<tag k="natural" v="hill" />
		<tag k="place" v="locality" />
		<tag k="ssr:stedsnr" v="117213" />
	</node>
	<node lat="68.878858331428" lon="17.873308338193556" id="-32755">
		<tag k="name" v="Krokmyrhågen" />
		<tag k="natural" v="hill" />
		<tag k="place" v="locality" />
		<tag k="ssr:stedsnr" v="117223" />
	</node>
	<node lat="68.89603888530891" lon="18.010602780062133" id="-32756">
		<tag k="name" v="Rundmyra" />
		<tag k="natural" v="wetland" />
		<tag k="ssr:stedsnr" v="117436" />
	</node>
	<node lat="68.93531666595875" lon="17.711455558702763" id="-32757">
		<tag k="name" v="Glunthågen" />
		<tag k="natural" v="hill" />
		<tag k="place" v="locality" />
		<tag k="ssr:stedsnr" v="117444" />
	</node>
	<node lat="68.84931666676555" lon="18.07194999858098" id="-32758">
		<tag k="name" v="Orrehaugen" />
		<tag k="natural" v="hill" />
		<tag k="place" v="locality" />
		<tag k="ssr:stedsnr" v="117512" />
	</node>
	<node lat="68.92977499900665" lon="18.013158341287383" id="-32759">
		<tag k="name" v="Falkefarhågen" />
		<tag k="natural" v="hill" />
		<tag k="place" v="locality" />
		<tag k="ssr:stedsnr" v="117519" />
	</node>
	<node lat="68.86058055976166" lon="18.00531110223378" id="-32760">
		<tag k="name" v="Mikkelmoen" />
		<tag k="place" v="locality" />
		<tag k="ssr:stedsnr" v="117575" />
	</node>
	<node lat="68.85691944657638" lon="18.00421944809732" id="-32761">
		<tag k="landuse" v="meadow" />
		<tag k="name" v="Jennystua" />
		<tag k="ssr:stedsnr" v="117576" />
	</node>
	<node lat="68.89507777903835" lon="17.926202773662908" id="-32762">
		<tag k="name" v="Mellomlia" />
		<tag k="natural" v="slope" />
		<tag k="place" v="locality" />
		<tag k="ssr:stedsnr" v="117705" />
	</node>
	<node lat="68.88662222125708" lon="17.707577779280697" id="-32763">
		<tag k="fixme" v="consider natural=peak for the most distinct mountains in the district" />
		<tag k="name" v="Kollan" />
		<tag k="natural" v="hill" />
		<tag k="place" v="locality" />
		<tag k="ssr:stedsnr" v="117711" />
	</node>
	<node lat="68.88648611057629" lon="17.71712222885326" id="-32764">
		<tag k="name" v="Skansen" />
		<tag k="place" v="locality" />
		<tag k="ssr:stedsnr" v="117712" />
	</node>
	<node lat="68.97865555973236" lon="17.6695166559547" id="-32765">
		<tag k="name" v="Gunnelheimen" />
		<tag k="place" v="locality" />
		<tag k="ssr:stedsnr" v="117631" />
	</node>
	<node lat="68.975577780009" lon="17.65859444728777" id="-32766">
		<tag k="name" v="Kua" />
		<tag k="natural" v="hill" />
		<tag k="place" v="locality" />
		<tag k="ssr:stedsnr" v="117632" />
	</node>
	<node lat="68.88743888695916" lon="18.00756666535485" id="-32767">
		<tag k="name" v="Nedre Pjette-finnmyra" />
		<tag k="natural" v="wetland" />
		<tag k="ssr:stedsnr" v="117638" />
	</node>
	<node lat="68.87108610959514" lon="18.059119428871433" id="-32768">
		<tag k="name" v="Nikolai-dalmoen" />
		<tag k="place" v="locality" />
		<tag k="ssr:stedsnr" v="117670" />
	</node>
	<node lat="68.83728055236358" lon="17.826061102241553" id="-32769">
		<tag k="name" v="Sæterelva" />
		<tag k="ssr:stedsnr" v="117680" />
		<tag k="waterway" v="stream" />
	</node>
	<node lat="68.88934722393378" lon="18.12288610021692" id="-32770">
		<tag k="name" v="Kvernbekkvassranen" />
		<tag k="natural" v="ridge" />
		<tag k="place" v="locality" />
		<tag k="ssr:stedsnr" v="117681" />
	</node>
	<node lat="68.8755472176744" lon="18.093908338094053" id="-32771">
		<tag k="name" v="Knausen" />
		<tag k="natural" v="hill" />
		<tag k="place" v="locality" />
		<tag k="ssr:stedsnr" v="117690" />
	</node>
	<node lat="68.8784972254566" lon="18.083219449761163" id="-32772">
		<tag k="name" v="Basstuberget" />
		<tag k="natural" v="hill" />
		<tag k="place" v="locality" />
		<tag k="ssr:stedsnr" v="117692" />
	</node>
	<node lat="68.87504722390904" lon="18.11141110223412" id="-32773">
		<tag k="name" v="Rismålskaret" />
		<tag k="natural" v="valley" />
		<tag k="place" v="locality" />
		<tag k="ssr:stedsnr" v="117693" />
	</node>
	<node lat="68.87524444870394" lon="18.10952222298016" id="-32774">
		<tag k="name" v="Rismålshaugen" />
		<tag k="natural" v="hill" />
		<tag k="place" v="locality" />
		<tag k="ssr:stedsnr" v="117695" />
	</node>
	<node lat="68.90936944679993" lon="17.86862500711774" id="-32775">
		<tag k="name" v="Olderholla" />
		<tag k="natural" v="valley" />
		<tag k="place" v="locality" />
		<tag k="ssr:stedsnr" v="117819" />
	</node>
	<node lat="68.91272221966796" lon="17.88065277418357" id="-32776">
		<tag k="name" v="Kristitofta" />
		<tag k="natural" v="hill" />
		<tag k="place" v="locality" />
		<tag k="ssr:stedsnr" v="117821" />
	</node>
	<node lat="68.87395555199383" lon="17.918236103338636" id="-32777">
		<tag k="name" v="Lihamran" />
		<tag k="natural" v="hill" />
		<tag k="place" v="locality" />
		<tag k="ssr:stedsnr" v="117934" />
	</node>
	<node lat="68.85969722110866" lon="17.90852221089801" id="-32778">
		<tag k="name" v="Forrmyra" />
		<tag k="natural" v="wetland" />
		<tag k="ssr:stedsnr" v="117973" />
	</node>
	<node lat="68.83516666691827" lon="17.485241669780905" id="-32779">
		<tag k="name" v="Litjemyra" />
		<tag k="natural" v="wetland" />
		<tag k="ssr:stedsnr" v="117985" />
	</node>
	<node lat="68.94694721980834" lon="18.06926389533972" id="-32780">
		<tag k="name" v="Gråhammaren" />
		<tag k="natural" v="hill" />
		<tag k="place" v="locality" />
		<tag k="ssr:stedsnr" v="119473" />
	</node>
	<node lat="68.84304999885259" lon="17.77320277536023" id="-32781">
		<tag k="name" v="Brynelvbotn" />
		<tag k="natural" v="valley" />
		<tag k="place" v="locality" />
		<tag k="ssr:stedsnr" v="138802" />
	</node>
	<node lat="68.84966389197415" lon="17.904647230792044" id="-32782">
		<tag k="name" v="Reingjerdskogtrollvatnet" />
		<tag k="natural" v="water" />
		<tag k="ssr:stedsnr" v="138807" />
	</node>
	<node lat="68.92227499932132" lon="17.72217221399503" id="-32783">
		<tag k="name" v="Magesåsvika" />
		<tag k="natural" v="bay" />
		<tag k="ssr:stedsnr" v="138842" />
	</node>
	<node lat="68.90454167098177" lon="18.0887694374386" id="-32784">
		<tag k="name" v="Øvstevatnet" />
		<tag k="natural" v="water" />
		<tag k="ssr:stedsnr" v="139589" />
	</node>
	<node lat="68.90513889119421" lon="18.076094444197548" id="-32785">
		<tag k="alt_name" v="Mellavatnet" />
		<tag k="name" v="Mellomvatnet" />
		<tag k="natural" v="water" />
		<tag k="ssr:stedsnr" v="139590" />
	</node>
	<node lat="68.9853156661443" lon="17.689566147353357" id="-32786">
		<tag k="fixme" v="consider place=hamlet" />
		<tag k="name" v="Nattmålshaugen" />
		<tag k="place" v="farm" />
		<tag k="ssr:stedsnr" v="139986" />
	</node>
	<node lat="68.98975824214989" lon="17.728876137603162" id="-32787">
		<tag k="fixme" v="consider place=hamlet" />
		<tag k="name" v="Katrinehaugen" />
		<tag k="place" v="farm" />
		<tag k="ssr:stedsnr" v="139987" />
	</node>
	<node lat="68.88456667003972" lon="17.66819444507737" id="-32788">
		<tag k="name" v="Holmelva" />
		<tag k="ssr:stedsnr" v="139838" />
		<tag k="waterway" v="stream" />
	</node>
	<node lat="68.88839444347825" lon="17.66061388707643" id="-32789">
		<tag k="alt_name" v="Nonshaugen" />
		<tag k="name" v="Nonshågen" />
		<tag k="natural" v="hill" />
		<tag k="place" v="locality" />
		<tag k="ssr:stedsnr" v="139839" />
	</node>
	<node lat="68.89468611251002" lon="17.67666109785052" id="-32790">
		<tag k="name" v="Rotvika" />
		<tag k="natural" v="bay" />
		<tag k="ssr:stedsnr" v="151707" />
	</node>
	<node lat="68.82736389315916" lon="17.541297225878374" id="-32791">
		<tag k="name" v="Storelva" />
		<tag k="ssr:stedsnr" v="260343" />
		<tag k="waterway" v="river" />
	</node>
	<node lat="68.85824722625902" lon="18.00527222243791" id="-32792">
		<tag k="name" v="Moen" />
		<tag k="place" v="locality" />
		<tag k="ssr:stedsnr" v="260532" />
	</node>
	<node lat="68.85167174797061" lon="18.10380295480301" id="-32793">
		<tag k="fixme" v="consider place=hamlet" />
		<tag k="name" v="Skyssmoen" />
		<tag k="place" v="farm" />
		<tag k="ssr:stedsnr" v="260540" />
	</node>
	<node lat="68.92376111154685" lon="18.05863889370271" id="-32794">
		<tag k="name" v="Molund" />
		<tag k="place" v="farm" />
		<tag k="ssr:stedsnr" v="260590" />
	</node>
	<node lat="68.87461854254636" lon="18.089956479283316" id="-32795">
		<tag k="name" v="Prestbakken" />
		<tag k="place" v="farm" />
		<tag k="ssr:stedsnr" v="260638" />
	</node>
	<node lat="68.94423611531549" lon="18.143022209105638" id="-32796">
		<tag k="loc_name:se" v="Ceakkooaivi" />
		<tag k="name" v="Sekkhaugen - Seahkkoaivi" />
		<tag k="name:no" v="Sekkhaugen" />
		<tag k="name:se" v="Seahkkoaivi" />
		<tag k="natural" v="hill" />
		<tag k="old_name:se" v="Sækkoaivi" />
		<tag k="place" v="locality" />
		<tag k="ssr:stedsnr" v="260679" />
	</node>
	<node lat="68.95045000432803" lon="18.176950000037024" id="-32797">
		<tag k="name" v="Lappehytta" />
		<tag k="place" v="locality" />
		<tag k="ssr:stedsnr" v="260681" />
	</node>
	<node lat="68.93782936838097" lon="18.046412441620404" id="-32798">
		<tag k="fixme" v="consider place=hamlet" />
		<tag k="name" v="Haugli" />
		<tag k="place" v="farm" />
		<tag k="ssr:stedsnr" v="260693" />
	</node>
	<node lat="68.88423333184676" lon="17.606991672572942" id="-32799">
		<tag k="fixme" v="multiple name tags, choose one and add the other to alt_name" />
		<tag k="name" v="Laukvika;Løvika" />
		<tag k="natural" v="bay" />
		<tag k="ssr:stedsnr" v="260816" />
	</node>
	<node lat="68.85981666853898" lon="17.741427768215086" id="-32800">
		<tag k="name" v="Gardselva" />
		<tag k="ssr:stedsnr" v="260794" />
		<tag k="waterway" v="stream" />
	</node>
	<node lat="68.91155833116193" lon="17.723244439519686" id="-32801">
		<tag k="fixme" v="consider place=suburb, village or hamlet" />
		<tag k="name" v="Salangsverket" />
		<tag k="place" v="quarter" />
		<tag k="ssr:stedsnr" v="260863" />
	</node>
	<node lat="68.8815194443761" lon="17.686658322071832" id="-32802">
		<tag k="fixme" v="consider place=hamlet" />
		<tag k="name" v="Dalen" />
		<tag k="place" v="village" />
		<tag k="ssr:stedsnr" v="260818" />
	</node>
	<node lat="68.83393055441447" lon="17.624219432122686" id="-32803">
		<tag k="fixme" v="consider natural=peak for the most distinct mountains in the district" />
		<tag k="name" v="Elveskardtindan" />
		<tag k="natural" v="hill" />
		<tag k="place" v="locality" />
		<tag k="ssr:stedsnr" v="260823" />
	</node>
	<node lat="68.8433361079891" lon="17.499797228631508" id="-32804">
		<tag k="name" v="Klemmingan" />
		<tag k="place" v="isolated_dwelling" />
		<tag k="ssr:stedsnr" v="260833" />
	</node>
	<node lat="68.85010833723268" lon="17.990136097263278" id="-32805">
		<tag k="name" v="Løskålelva" />
		<tag k="ssr:stedsnr" v="260838" />
		<tag k="waterway" v="stream" />
	</node>
	<node lat="68.85105833004184" lon="17.830427773698066" id="-32806">
		<tag k="name" v="Sagelva - Cubbojohka" />
		<tag k="name:no" v="Sagelva" />
		<tag k="name:se" v="Cubbojohka" />
		<tag k="ssr:stedsnr" v="260839" />
		<tag k="waterway" v="river" />
	</node>
	<node lat="68.85233333762757" lon="17.876308324263636" id="-32807">
		<tag k="alt_name" v="Trollhollan" />
		<tag k="name" v="Trollholen" />
		<tag k="natural" v="valley" />
		<tag k="place" v="locality" />
		<tag k="ssr:stedsnr" v="260840" />
	</node>
	<node lat="68.95207222436672" lon="17.947000003532608" id="-32808">
		<tag k="name" v="Haugliskardet" />
		<tag k="natural" v="valley" />
		<tag k="place" v="locality" />
		<tag k="ssr:stedsnr" v="260926" />
	</node>
	<node lat="68.9222583296079" lon="17.93923333799334" id="-32809">
		<tag k="alt_name:no" v="Kirkhaugen" />
		<tag k="loc_name:se" v="Girkodievvá" />
		<tag k="name" v="Kjerkehaugen" />
		<tag k="name:no" v="Kjerkehaugen" />
		<tag k="natural" v="hill" />
		<tag k="place" v="locality" />
		<tag k="ssr:stedsnr" v="260871" />
	</node>
	<node lat="68.95486666313857" lon="17.901511109438484" id="-32810">
		<tag k="name" v="Reingjerdan" />
		<tag k="natural" v="valley" />
		<tag k="place" v="locality" />
		<tag k="ssr:stedsnr" v="260927" />
	</node>
	<node lat="68.98331111198284" lon="17.759599995922947" id="-32811">
		<tag k="fixme" v="consider natural=peak for the most distinct mountains in the district" />
		<tag k="name" v="Varden" />
		<tag k="natural" v="hill" />
		<tag k="place" v="locality" />
		<tag k="ssr:stedsnr" v="260980" />
	</node>
	<node lat="68.98369999639208" lon="17.66273056334516" id="-32812">
		<tag k="name" v="Okselva" />
		<tag k="ssr:stedsnr" v="260983" />
		<tag k="waterway" v="stream" />
	</node>
	<node lat="68.84285833516276" lon="18.087375003977115" id="-32813">
		<tag k="name" v="Flodhestmyra" />
		<tag k="natural" v="wetland" />
		<tag k="ssr:stedsnr" v="173262" />
	</node>
	<node lat="68.8693499974347" lon="18.0775194445957" id="-32814">
		<tag k="name" v="Moekra" />
		<tag k="place" v="locality" />
		<tag k="ssr:stedsnr" v="173167" />
	</node>
	<node lat="68.96939721768013" lon="17.77400000499762" id="-32815">
		<tag k="name" v="Kvannholla" />
		<tag k="natural" v="valley" />
		<tag k="place" v="locality" />
		<tag k="ssr:stedsnr" v="176005" />
	</node>
	<node lat="68.97713889230853" lon="17.76657498844892" id="-32816">
		<tag k="name" v="Bjørnhåglia" />
		<tag k="natural" v="slope" />
		<tag k="place" v="locality" />
		<tag k="ssr:stedsnr" v="176007" />
	</node>
	<node lat="68.84278611507006" lon="17.82914721230532" id="-32817">
		<tag k="name" v="Sætersletta" />
		<tag k="place" v="locality" />
		<tag k="ssr:stedsnr" v="177716" />
	</node>
	<node lat="68.96968055435241" lon="17.690169447016537" id="-32818">
		<tag k="name" v="Tverrelva" />
		<tag k="ssr:stedsnr" v="178057" />
		<tag k="waterway" v="stream" />
	</node>
	<node lat="68.89898055365742" lon="17.80250554394583" id="-32819">
		<tag k="name" v="Svenskåran" />
		<tag k="natural" v="valley" />
		<tag k="place" v="locality" />
		<tag k="ssr:stedsnr" v="178068" />
	</node>
	<node lat="68.91141944438048" lon="17.772402767812515" id="-32820">
		<tag k="name" v="Lia" />
		<tag k="natural" v="slope" />
		<tag k="place" v="locality" />
		<tag k="ssr:stedsnr" v="178074" />
	</node>
	<node lat="68.94309444591097" lon="17.722419434336732" id="-32821">
		<tag k="fixme" v="consider natural=peak for the most distinct mountains in the district" />
		<tag k="name" v="Høgdan" />
		<tag k="natural" v="hill" />
		<tag k="place" v="locality" />
		<tag k="ssr:stedsnr" v="178105" />
	</node>
	<node lat="68.93816388625572" lon="17.72824998747267" id="-32822">
		<tag k="name" v="Stordalen" />
		<tag k="natural" v="valley" />
		<tag k="place" v="locality" />
		<tag k="ssr:stedsnr" v="178106" />
	</node>
	<node lat="68.96126944090976" lon="17.77867222868316" id="-32823">
		<tag k="name" v="Tverrelva" />
		<tag k="ssr:stedsnr" v="178117" />
		<tag k="waterway" v="stream" />
	</node>
	<node lat="68.84727221840797" lon="17.880572212061654" id="-32824">
		<tag k="fixme" v="consider natural=peak for the most distinct mountains in the district" />
		<tag k="name" v="Storhøgden" />
		<tag k="natural" v="hill" />
		<tag k="place" v="locality" />
		<tag k="ssr:stedsnr" v="178158" />
	</node>
	<node lat="68.84493332926102" lon="17.88406943675587" id="-32825">
		<tag k="name" v="Torvmyra" />
		<tag k="natural" v="wetland" />
		<tag k="ssr:stedsnr" v="178159" />
	</node>
	<node lat="68.84161389043462" lon="17.844080544810154" id="-32826">
		<tag k="name" v="Gryta" />
		<tag k="natural" v="valley" />
		<tag k="place" v="locality" />
		<tag k="ssr:stedsnr" v="178174" />
	</node>
	<node lat="68.89700277489499" lon="18.04969998627204" id="-32827">
		<tag k="name" v="Nerstehågen" />
		<tag k="natural" v="hill" />
		<tag k="place" v="locality" />
		<tag k="ssr:stedsnr" v="178412" />
	</node>
	<node lat="68.92594722019183" lon="17.715291658235635" id="-32828">
		<tag k="fixme" v="consider seamark:type=rock or natural=shoal" />
		<tag k="name" v="Storskjæret" />
		<tag k="place" v="islet" />
		<tag k="ssr:stedsnr" v="178415" />
	</node>
	<node lat="68.90413055923857" lon="18.00487777889374" id="-32829">
		<tag k="name" v="Storneset" />
		<tag k="natural" v="cape" />
		<tag k="ssr:stedsnr" v="178433" />
	</node>
	<node lat="68.90888611233208" lon="17.791825006224347" id="-32830">
		<tag k="name" v="Amundliskaret" />
		<tag k="natural" v="valley" />
		<tag k="place" v="locality" />
		<tag k="ssr:stedsnr" v="178444" />
	</node>
	<node lat="68.91468055725555" lon="17.80514722224318" id="-32831">
		<tag k="name" v="Svartvasstolan" />
		<tag k="natural" v="hill" />
		<tag k="place" v="locality" />
		<tag k="ssr:stedsnr" v="178456" />
	</node>
	<node lat="68.90618332935404" lon="17.832127779743296" id="-32832">
		<tag k="name" v="Hesjehågenden" />
		<tag k="natural" v="hill" />
		<tag k="place" v="locality" />
		<tag k="ssr:stedsnr" v="178462" />
	</node>
	<node lat="68.90491110796543" lon="17.814669443810164" id="-32833">
		<tag k="name" v="Reinskinnholla" />
		<tag k="natural" v="valley" />
		<tag k="place" v="locality" />
		<tag k="ssr:stedsnr" v="178465" />
	</node>
	<node lat="68.90065833517171" lon="17.8226499936586" id="-32834">
		<tag k="name" v="Grøthågen" />
		<tag k="natural" v="hill" />
		<tag k="place" v="locality" />
		<tag k="ssr:stedsnr" v="178472" />
	</node>
	<node lat="68.83660833549494" lon="17.486074996384076" id="-32835">
		<tag k="name" v="Skavsteinen" />
		<tag k="natural" v="stone" />
		<tag k="ssr:stedsnr" v="178525" />
	</node>
	<node lat="68.88368333209651" lon="18.06795555344982" id="-32836">
		<tag k="name" v="Skavlia" />
		<tag k="natural" v="slope" />
		<tag k="place" v="locality" />
		<tag k="ssr:stedsnr" v="178615" />
	</node>
	<node lat="68.89831110882179" lon="17.861111097557995" id="-32837">
		<tag k="name" v="Veilidalen" />
		<tag k="natural" v="valley" />
		<tag k="place" v="locality" />
		<tag k="ssr:stedsnr" v="178808" />
	</node>
	<node lat="68.9066805558088" lon="17.870966670824878" id="-32838">
		<tag k="name" v="Nemskadalen" />
		<tag k="natural" v="valley" />
		<tag k="place" v="locality" />
		<tag k="ssr:stedsnr" v="178815" />
	</node>
	<node lat="68.87652222575572" lon="17.6810110983746" id="-32839">
		<tag k="name" v="Bergenabben" />
		<tag k="natural" v="hill" />
		<tag k="place" v="locality" />
		<tag k="ssr:stedsnr" v="178702" />
	</node>
	<node lat="68.84834166529525" lon="18.035744452811628" id="-32840">
		<tag k="name" v="Tømmerhaugen" />
		<tag k="natural" v="hill" />
		<tag k="place" v="locality" />
		<tag k="ssr:stedsnr" v="178711" />
	</node>
	<node lat="68.92292500251263" lon="17.92971943126933" id="-32841">
		<tag k="name" v="Mangevatnet" />
		<tag k="natural" v="water" />
		<tag k="ssr:stedsnr" v="178764" />
	</node>
	<node lat="68.89271944553911" lon="17.70451389340871" id="-32842">
		<tag k="name" v="Dalenakken" />
		<tag k="natural" v="hill" />
		<tag k="place" v="locality" />
		<tag k="ssr:stedsnr" v="261827" />
	</node>
	<node lat="68.86454722427312" lon="18.05209999962104" id="-32843">
		<tag k="name" v="Prestbakkmoen" />
		<tag k="place" v="locality" />
		<tag k="ssr:stedsnr" v="199507" />
	</node>
	<node lat="68.83333055344677" lon="17.558397209483832" id="-32844">
		<tag k="fixme" v="consider natural=peak for the most distinct mountains in the district" />
		<tag k="name" v="Reitetindan" />
		<tag k="natural" v="hill" />
		<tag k="place" v="locality" />
		<tag k="ssr:stedsnr" v="199803" />
	</node>
	<node lat="68.83667222646906" lon="17.581233320189764" id="-32845">
		<tag k="name" v="Isvatnan" />
		<tag k="natural" v="water" />
		<tag k="ssr:stedsnr" v="199810" />
		<tag k="water" v="lake" />
	</node>
	<node lat="68.79793610841429" lon="17.590547220981033" id="-32846">
		<tag k="bay" v="fjord" />
		<tag k="name" v="Loabákvuotna - Lavangen" />
		<tag k="name:no" v="Lavangen" />
		<tag k="name:se" v="Loabákvuotna" />
		<tag k="natural" v="bay" />
		<tag k="ssr:stedsnr" v="200691" />
	</node>
	<node lat="68.90353611398102" lon="17.458597208930257" id="-32847">
		<tag k="fixme" v="consider natural=peak for the most distinct mountains in the district" />
		<tag k="name" v="Vindhammaren" />
		<tag k="natural" v="hill" />
		<tag k="place" v="locality" />
		<tag k="ssr:stedsnr" v="200808" />
	</node>
	<node lat="68.90284444561891" lon="17.779391669048" id="-32848">
		<tag k="name" v="Demma" />
		<tag k="natural" v="cape" />
		<tag k="ssr:stedsnr" v="200798" />
	</node>
	<node lat="68.92719166321334" lon="17.716044445845124" id="-32849">
		<tag k="name" v="Haugneset" />
		<tag k="natural" v="cape" />
		<tag k="ssr:stedsnr" v="200908" />
	</node>
	<node lat="68.83453333538034" lon="17.47461667122377" id="-32850">
		<tag k="name" v="Ørvika" />
		<tag k="natural" v="bay" />
		<tag k="ssr:stedsnr" v="212682" />
	</node>
	<node lat="68.84703055721815" lon="18.104150004827645" id="-32851">
		<tag k="name" v="Ventarberget" />
		<tag k="natural" v="hill" />
		<tag k="place" v="locality" />
		<tag k="ssr:stedsnr" v="234282" />
	</node>
	<node lat="68.84340833718407" lon="18.1023611145051" id="-32852">
		<tag k="name" v="Vinterholtet" />
		<tag k="natural" v="hill" />
		<tag k="place" v="locality" />
		<tag k="ssr:stedsnr" v="234285" />
	</node>
	<node lat="68.87495732407906" lon="17.59090265944008" id="-32853">
		<tag k="alt_name" v="Håkavik" />
		<tag k="fixme" v="consider place=hamlet" />
		<tag k="name" v="Håkavika" />
		<tag k="place" v="farm" />
		<tag k="ssr:stedsnr" v="450142" />
	</node>
	<node lat="68.97509444818704" lon="17.732325005117602" id="-32854">
		<tag k="name" v="Ryet" />
		<tag k="natural" v="hill" />
		<tag k="place" v="locality" />
		<tag k="ssr:stedsnr" v="237012" />
	</node>
	<node lat="68.90039444459363" lon="17.740902772760602" id="-32855">
		<tag k="name" v="Øysundet" />
		<tag k="natural" v="strait" />
		<tag k="ssr:stedsnr" v="237504" />
	</node>
	<node lat="68.9076444461008" lon="17.757277779133137" id="-32856">
		<tag k="name" v="Skorvhågen" />
		<tag k="natural" v="hill" />
		<tag k="place" v="locality" />
		<tag k="ssr:stedsnr" v="237506" />
	</node>
	<node lat="68.96870000208422" lon="17.763916664788137" id="-32857">
		<tag k="name" v="Hollestrupen" />
		<tag k="natural" v="valley" />
		<tag k="place" v="locality" />
		<tag k="ssr:stedsnr" v="238103" />
	</node>
	<node lat="68.98431666481385" lon="17.69485832660381" id="-32858">
		<tag k="name" v="Solli" />
		<tag k="place" v="farm" />
		<tag k="ssr:stedsnr" v="238082" />
	</node>
	<node lat="68.9379166657711" lon="17.739074998043172" id="-32859">
		<tag k="name" v="Rapet" />
		<tag k="natural" v="valley" />
		<tag k="place" v="locality" />
		<tag k="ssr:stedsnr" v="238090" />
	</node>
	<node lat="68.8516111112426" lon="18.068663881881477" id="-32860">
		<tag k="name" v="Kalvemyra" />
		<tag k="natural" v="wetland" />
		<tag k="ssr:stedsnr" v="238519" />
	</node>
	<node lat="68.86884166808996" lon="17.606872224701515" id="-32861">
		<tag k="fixme" v="consider natural=peak for the most distinct mountains in the district" />
		<tag k="name" v="Høgfjellskolten" />
		<tag k="natural" v="hill" />
		<tag k="place" v="locality" />
		<tag k="ssr:stedsnr" v="238639" />
	</node>
	<node lat="68.87696666897318" lon="18.092413883042532" id="-32862">
		<tag k="highway" v="path" />
		<tag k="name" v="Veiskjellet" />
		<tag k="ssr:stedsnr" v="238689" />
	</node>
	<node lat="68.88483055389705" lon="17.68796665726468" id="-32863">
		<tag k="name" v="Rundhågen" />
		<tag k="natural" v="hill" />
		<tag k="place" v="locality" />
		<tag k="ssr:stedsnr" v="238703" />
	</node>
	<node lat="68.88608333587474" lon="17.688291670882347" id="-32864">
		<tag k="name" v="Dalan" />
		<tag k="natural" v="valley" />
		<tag k="place" v="locality" />
		<tag k="ssr:stedsnr" v="238708" />
	</node>
	<node lat="68.84711111407697" lon="17.997347232543174" id="-32865">
		<tag k="highway" v="path" />
		<tag k="name" v="Russeveien" />
		<tag k="ssr:stedsnr" v="238733" />
	</node>
	<node lat="68.91546944915656" lon="17.93364166178228" id="-32866">
		<tag k="name" v="Revberget" />
		<tag k="natural" v="hill" />
		<tag k="place" v="locality" />
		<tag k="ssr:stedsnr" v="239802" />
	</node>
	<node lat="68.92278889037611" lon="17.98886109864685" id="-32867">
		<tag k="name" v="Garguheimhaugen" />
		<tag k="natural" v="hill" />
		<tag k="place" v="locality" />
		<tag k="ssr:stedsnr" v="239796" />
	</node>
	<node lat="68.9126583303377" lon="17.708750001436858" id="-32868">
		<tag k="name" v="Teisteberget" />
		<tag k="natural" v="hill" />
		<tag k="place" v="locality" />
		<tag k="ssr:stedsnr" v="454546" />
	</node>
	<node lat="68.89981546309274" lon="18.03699895550859" id="-32869">
		<tag k="name" v="Myrlund" />
		<tag k="place" v="farm" />
		<tag k="ssr:stedsnr" v="260602" />
	</node>
	<node lat="68.9331645916252" lon="18.053840939984315" id="-32870">
		<tag k="name" v="Steinelvlund" />
		<tag k="place" v="farm" />
		<tag k="ssr:stedsnr" v="260708" />
	</node>
	<node lat="68.92308611247515" lon="18.030797215111022" id="-32871">
		<tag k="name" v="Fjellsæter" />
		<tag k="place" v="farm" />
		<tag k="ssr:stedsnr" v="260711" />
	</node>
	<node lat="68.86631388668913" lon="17.72264167091914" id="-32872">
		<tag k="name" v="Sommarsetforsen" />
		<tag k="natural" v="waterfall" />
		<tag k="ssr:stedsnr" v="260802" />
	</node>
	<node lat="68.87940265561178" lon="17.905319008646423" id="-32873">
		<tag k="name" v="Nervatnet" />
		<tag k="place" v="farm" />
		<tag k="ssr:stedsnr" v="260812" />
	</node>
	<node lat="68.9049249982752" lon="17.808891664521447" id="-32874">
		<tag k="name" v="Hesjemoen" />
		<tag k="place" v="locality" />
		<tag k="ssr:stedsnr" v="260854" />
	</node>
	<node lat="68.89702777911363" lon="17.57659721844176" id="-32875">
		<tag k="bay" v="fjord" />
		<tag k="name" v="Salangen - Siellakvuotna" />
		<tag k="name:no" v="Salangen" />
		<tag k="name:se" v="Siellakvuotna" />
		<tag k="natural" v="bay" />
		<tag k="ssr:stedsnr" v="260857" />
	</node>
</osm>
