<?xml version="1.0" encoding="UTF-8"?>
<osm version="0.6" generator="osmapis">
	<node lat="68.86443055493547" lon="17.556341672413335" id="-37515">
		<tag k="name" v="Oldervika" />
		<tag k="natural" v="bay" />
		<tag k="ssr:stedsnr" v="30674" />
	</node>
	<node lat="68.88463889019825" lon="17.60853332022194" id="-37516">
		<tag k="name" v="Laukvikneset" />
		<tag k="natural" v="cape" />
		<tag k="ssr:stedsnr" v="30703" />
	</node>
	<node lat="68.89440555271696" lon="17.7692999919592" id="-37521">
		<tag k="name" v="Tårlevika" />
		<tag k="natural" v="bay" />
		<tag k="ssr:stedsnr" v="238492" />
	</node>
	<node lat="68.93283333312671" lon="17.707880548939585" id="-37536">
		<tag k="name" v="Litjevika" />
		<tag k="natural" v="bay" />
		<tag k="ssr:stedsnr" v="238453" />
	</node>
	<node lat="68.91982222474154" lon="17.709827771434025" id="-37537">
		<tag k="name" v="Kleivspira" />
		<tag k="natural" v="cape" />
		<tag k="ssr:stedsnr" v="238458" />
	</node>
	<node lat="68.90005555331594" lon="17.735180541633166" id="-37540">
		<tag k="name" v="Lamøyklubben" />
		<tag k="natural" v="cape" />
		<tag k="ssr:stedsnr" v="238540" />
	</node>
	<node lat="68.88073889196127" lon="17.694711117054702" id="-37560">
		<tag k="name" v="Vika" />
		<tag k="natural" v="bay" />
		<tag k="ssr:stedsnr" v="238770" />
	</node>
	<node lat="68.8319888865863" lon="17.475474986292042" id="-37617">
		<tag k="name" v="Lavangsneset" />
		<tag k="natural" v="cape" />
		<tag k="ssr:stedsnr" v="78799" />
	</node>
	<node lat="68.90132777979817" lon="17.70284999134974" id="-37620">
		<tag k="name" v="Rotvikneset" />
		<tag k="natural" v="cape" />
		<tag k="ssr:stedsnr" v="90604" />
	</node>
	<node lat="68.89929999914325" lon="17.717972207142854" id="-37626">
		<tag k="name" v="Båtvika" />
		<tag k="natural" v="bay" />
		<tag k="ssr:stedsnr" v="115471" />
	</node>
	<node lat="68.92227499932132" lon="17.72217221399503" id="-37662">
		<tag k="name" v="Magesåsvika" />
		<tag k="natural" v="bay" />
		<tag k="ssr:stedsnr" v="138842" />
	</node>
	<node lat="68.89468611251002" lon="17.67666109785052" id="-37669">
		<tag k="name" v="Rotvika" />
		<tag k="natural" v="bay" />
		<tag k="ssr:stedsnr" v="151707" />
	</node>
	<node lat="68.88423333184676" lon="17.606991672572942" id="-37678">
		<tag k="fixme" v="multiple name tags, choose one and add the other to alt_name" />
		<tag k="name" v="Laukvika;Løvika" />
		<tag k="natural" v="bay" />
		<tag k="ssr:stedsnr" v="260816" />
	</node>
	<node lat="68.92594722019183" lon="17.715291658235635" id="-37707">
		<tag k="fixme" v="consider seamark:type=rock or natural=shoal" />
		<tag k="name" v="Storskjæret" />
		<tag k="place" v="islet" />
		<tag k="ssr:stedsnr" v="178415" />
	</node>
	<node lat="68.79793610841429" lon="17.590547220981033" id="-37725">
		<tag k="bay" v="fjord" />
		<tag k="name" v="Loabákvuotna - Lavangen" />
		<tag k="name:no" v="Lavangen" />
		<tag k="name:se" v="Loabákvuotna" />
		<tag k="natural" v="bay" />
		<tag k="ssr:stedsnr" v="200691" />
	</node>
	<node lat="68.90284444561891" lon="17.779391669048" id="-37727">
		<tag k="name" v="Demma" />
		<tag k="natural" v="cape" />
		<tag k="ssr:stedsnr" v="200798" />
	</node>
	<node lat="68.92719166321334" lon="17.716044445845124" id="-37728">
		<tag k="name" v="Haugneset" />
		<tag k="natural" v="cape" />
		<tag k="ssr:stedsnr" v="200908" />
	</node>
	<node lat="68.83453333538034" lon="17.47461667122377" id="-37729">
		<tag k="name" v="Ørvika" />
		<tag k="natural" v="bay" />
		<tag k="ssr:stedsnr" v="212682" />
	</node>
	<node lat="68.90039444459363" lon="17.740902772760602" id="-37734">
		<tag k="name" v="Øysundet" />
		<tag k="natural" v="strait" />
		<tag k="ssr:stedsnr" v="237504" />
	</node>
	<node lat="68.89702777911363" lon="17.57659721844176" id="-37754">
		<tag k="bay" v="fjord" />
		<tag k="name" v="Salangen - Siellakvuotna" />
		<tag k="name:no" v="Salangen" />
		<tag k="name:se" v="Siellakvuotna" />
		<tag k="natural" v="bay" />
		<tag k="ssr:stedsnr" v="260857" />
	</node>
</osm>
