<?xml version="1.0" encoding="UTF-8"?>
<osm version="0.6" generator="osmapis">
	<node lat="68.8572888901538" lon="17.852930552380148" id="-47399">
		<tag k="highway" v="path" />
		<tag k="name" v="Røyholveien" />
		<tag k="ssr:stedsnr" v="238967" />
	</node>
	<node lat="68.84276944228523" lon="17.81237222778704" id="-47430">
		<tag k="highway" v="path" />
		<tag k="name" v="Mariveien" />
		<tag k="ssr:stedsnr" v="56715" />
	</node>
	<node lat="68.87696666897318" lon="18.092413883042532" id="-47569">
		<tag k="highway" v="path" />
		<tag k="name" v="Veiskjellet" />
		<tag k="ssr:stedsnr" v="238689" />
	</node>
	<node lat="68.84711111407697" lon="17.997347232543174" id="-47572">
		<tag k="highway" v="path" />
		<tag k="name" v="Russeveien" />
		<tag k="ssr:stedsnr" v="238733" />
	</node>
	<node lat="68.90988055714705" lon="17.528577770777606" id="-47604">
		<tag k="highway" v="path" />
		<tag k="name" v="Orveien" />
		<tag k="ssr:stedsnr" v="299676" />
	</node>
	<node lat="68.82825555482032" lon="17.5183083245988" id="-47643">
		<tag k="highway" v="path" />
		<tag k="name" v="Høgstien" />
		<tag k="ssr:stedsnr" v="359600" />
	</node>
	<node lat="68.94098888595596" lon="17.721586099308684" id="-47666">
		<tag k="highway" v="path" />
		<tag k="name" v="Buveien" />
		<tag k="ssr:stedsnr" v="481096" />
	</node>
	<node lat="68.83108888507512" lon="17.942847218791208" id="-47675">
		<tag k="ford" v="yes" />
		<tag k="name" v="Lávkestat" />
		<tag k="name:se" v="Lávkestat" />
		<tag k="place" v="locality" />
		<tag k="ssr:stedsnr" v="481136" />
	</node>
	<node lat="68.8463305576576" lon="17.817347230190283" id="-47800">
		<tag k="highway" v="path" />
		<tag k="name" v="Pedermyrveien" />
		<tag k="ssr:stedsnr" v="481672" />
	</node>
	<node lat="68.88021944592039" lon="18.017713876572035" id="-47895">
		<tag k="ford" v="yes" />
		<tag k="name" v="Bergevaet" />
		<tag k="place" v="locality" />
		<tag k="ssr:stedsnr" v="602653" />
	</node>
	<node lat="68.85835000208299" lon="17.82872222778018" id="-47934">
		<tag k="highway" v="path" />
		<tag k="name" v="Liveien" />
		<tag k="ssr:stedsnr" v="663333" />
	</node>
	<node lat="68.89259444415245" lon="17.810861100634916" id="-48020">
		<tag k="highway" v="path" />
		<tag k="name" v="Sandveien" />
		<tag k="ssr:stedsnr" v="906314" />
	</node>
	<node lat="68.89264721965799" lon="17.825063875920314" id="-48068">
		<tag k="highway" v="path" />
		<tag k="name" v="Buveien" />
		<tag k="ssr:stedsnr" v="784323" />
	</node>
	<node lat="68.87777778040598" lon="17.671905558683903" id="-48080">
		<tag k="highway" v="path" />
		<tag k="name" v="Moldveien" />
		<tag k="ssr:stedsnr" v="784634" />
	</node>
	<node lat="68.82693611251683" lon="17.526177787954104" id="-48199">
		<tag k="highway" v="path" />
		<tag k="name" v="Moldveien" />
		<tag k="ssr:stedsnr" v="966602" />
	</node>
	<node lat="68.83064166871377" lon="17.498341668561167" id="-48215">
		<tag k="highway" v="path" />
		<tag k="name" v="Brattstien" />
		<tag k="ssr:stedsnr" v="966995" />
	</node>
	<node lat="68.9491388907294" lon="17.734424985975632" id="-48268">
		<tag k="highway" v="path" />
		<tag k="name" v="Øverveien" />
		<tag k="ssr:stedsnr" v="56088" />
	</node>
	<node lat="68.88765555276045" lon="17.833763880567844" id="-48344">
		<tag k="highway" v="path" />
		<tag k="name" v="Kringelhågveian" />
		<tag k="ssr:stedsnr" v="117317" />
	</node>
	<node lat="68.90673611277693" lon="17.832919453972423" id="-48355">
		<tag k="highway" v="path" />
		<tag k="name" v="Langmarksveien" />
		<tag k="ssr:stedsnr" v="117472" />
	</node>
	<node lat="68.91271111187814" lon="17.786750006299652" id="-48453">
		<tag k="highway" v="path" />
		<tag k="name" v="Pålveien" />
		<tag k="ssr:stedsnr" v="178453" />
	</node>
	<node lat="68.82988333520116" lon="18.045738895980406" id="-48475">
		<tag k="ford" v="yes" />
		<tag k="name" v="Vaet" />
		<tag k="place" v="locality" />
		<tag k="ssr:stedsnr" v="178747" />
	</node>
	<node lat="68.92409166419068" lon="17.844475008193267" id="-48479">
		<tag k="highway" v="path" />
		<tag k="name" v="Vinkelveien" />
		<tag k="ssr:stedsnr" v="178843" />
	</node>
	<node lat="68.83241944193321" lon="17.935944427938697" id="-48527">
		<tag k="bridge" v="yes" />
		<tag k="layer" v="1" />
		<tag k="name" v="Steinbrua" />
		<tag k="ssr:stedsnr" v="299112" />
	</node>
	<node lat="68.8879722232491" lon="17.815752782760438" id="-48536">
		<tag k="highway" v="path" />
		<tag k="name" v="Mellemstiveien" />
		<tag k="ssr:stedsnr" v="299312" />
	</node>
	<node lat="68.89962778008517" lon="17.81980276966608" id="-48547">
		<tag k="highway" v="path" />
		<tag k="name" v="Buveien" />
		<tag k="ssr:stedsnr" v="299488" />
	</node>
	<node lat="68.89039167072134" lon="17.80831665667826" id="-48631">
		<tag k="highway" v="path" />
		<tag k="name" v="Steinveien" />
		<tag k="ssr:stedsnr" v="359298" />
	</node>
	<node lat="68.81838333548608" lon="18.045252779917128" id="-48910">
		<tag k="ford" v="yes" />
		<tag k="name" v="Jordbrua" />
		<tag k="place" v="locality" />
		<tag k="ssr:stedsnr" v="602760" />
	</node>
	<node lat="68.85388611259977" lon="17.81917777563086" id="-48974">
		<tag k="ford" v="yes" />
		<tag k="name" v="Jordbrua" />
		<tag k="place" v="locality" />
		<tag k="ssr:stedsnr" v="663326" />
	</node>
	<node lat="68.84092221951983" lon="17.84503610622183" id="-49028">
		<tag k="bridge" v="yes" />
		<tag k="layer" v="1" />
		<tag k="name" v="Jordbrua" />
		<tag k="ssr:stedsnr" v="724129" />
	</node>
	<node lat="68.84363333314731" lon="17.828933326475113" id="-49112">
		<tag k="highway" v="path" />
		<tag k="name" v="Sæterveien" />
		<tag k="ssr:stedsnr" v="784702" />
	</node>
	<node lat="68.82851944380155" lon="17.50714165975825" id="-49287">
		<tag k="highway" v="path" />
		<tag k="name" v="Lågstien" />
		<tag k="ssr:stedsnr" v="966557" />
	</node>
</osm>
