<?xml version="1.0" encoding="UTF-8"?>
<osm version="0.6" generator="osmapis">
	<node lat="68.82842499771456" lon="18.12445833742921" id="-34168">
		<tag k="name" v="Nedre Snørkemyr" />
		<tag k="natural" v="wetland" />
		<tag k="ssr:stedsnr" v="234244" />
	</node>
	<node lat="68.90162500065041" lon="17.826586116182707" id="-34174">
		<tag k="name" v="Ol-Lambriksaslåtten" />
		<tag k="place" v="locality" />
		<tag k="ssr:stedsnr" v="238487" />
	</node>
	<node lat="68.9898472261697" lon="17.701638896016007" id="-34179">
		<tag k="name" v="Bjørnmyra" />
		<tag k="natural" v="wetland" />
		<tag k="ssr:stedsnr" v="238073" />
	</node>
	<node lat="68.8315861145406" lon="17.88027500427681" id="-34181">
		<tag k="name" v="Eidemyra" />
		<tag k="natural" v="wetland" />
		<tag k="ssr:stedsnr" v="238138" />
	</node>
	<node lat="68.86442221946939" lon="17.790347230784928" id="-34185">
		<tag k="name" v="Gihcegárdi" />
		<tag k="name:se" v="Gihcegárdi" />
		<tag k="place" v="locality" />
		<tag k="ssr:stedsnr" v="238256" />
	</node>
	<node lat="68.88191388464381" lon="18.04099721679201" id="-34207">
		<tag k="name" v="Kalvedamman" />
		<tag k="natural" v="wetland" />
		<tag k="ssr:stedsnr" v="238658" />
	</node>
	<node lat="68.83318333180142" lon="17.51146666063547" id="-34223">
		<tag k="name" v="Mosesteinan" />
		<tag k="natural" v="stone" />
		<tag k="ssr:stedsnr" v="238996" />
	</node>
	<node lat="68.82890555967754" lon="17.931433328761415" id="-34238">
		<tag k="name" v="Froskeholtet" />
		<tag k="place" v="locality" />
		<tag k="ssr:stedsnr" v="56118" />
	</node>
	<node lat="68.97140277516256" lon="17.731366674442395" id="-34240">
		<tag k="name" v="Osemyra" />
		<tag k="natural" v="wetland" />
		<tag k="ssr:stedsnr" v="56043" />
	</node>
	<node lat="68.88159444576291" lon="17.84399166672527" id="-34243">
		<tag k="name" v="Brennholtet" />
		<tag k="place" v="locality" />
		<tag k="ssr:stedsnr" v="56175" />
	</node>
	<node lat="68.858888893003" lon="17.85184443312857" id="-34259">
		<tag k="name" v="Stormyra" />
		<tag k="natural" v="wetland" />
		<tag k="ssr:stedsnr" v="56983" />
	</node>
	<node lat="68.99023333209891" lon="17.70998889246878" id="-34277">
		<tag k="name" v="Sennestakken" />
		<tag k="natural" v="wetland" />
		<tag k="ssr:stedsnr" v="99514" />
	</node>
	<node lat="68.96437777349223" lon="17.75967777749989" id="-34279">
		<tag k="landuse" v="meadow" />
		<tag k="name" v="Elveteigen" />
		<tag k="ssr:stedsnr" v="115003" />
	</node>
	<node lat="68.84566388923109" lon="17.89343610095113" id="-34285">
		<tag k="name" v="Piggsteinen" />
		<tag k="natural" v="stone" />
		<tag k="ssr:stedsnr" v="117185" />
	</node>
	<node lat="68.89603888530891" lon="18.010602780062133" id="-34290">
		<tag k="name" v="Rundmyra" />
		<tag k="natural" v="wetland" />
		<tag k="ssr:stedsnr" v="117436" />
	</node>
	<node lat="68.85691944657638" lon="18.00421944809732" id="-34295">
		<tag k="landuse" v="meadow" />
		<tag k="name" v="Jennystua" />
		<tag k="ssr:stedsnr" v="117576" />
	</node>
	<node lat="68.88743888695916" lon="18.00756666535485" id="-34301">
		<tag k="name" v="Nedre Pjette-finnmyra" />
		<tag k="natural" v="wetland" />
		<tag k="ssr:stedsnr" v="117638" />
	</node>
	<node lat="68.85969722110866" lon="17.90852221089801" id="-34312">
		<tag k="name" v="Forrmyra" />
		<tag k="natural" v="wetland" />
		<tag k="ssr:stedsnr" v="117973" />
	</node>
	<node lat="68.83516666691827" lon="17.485241669780905" id="-34313">
		<tag k="name" v="Litjemyra" />
		<tag k="natural" v="wetland" />
		<tag k="ssr:stedsnr" v="117985" />
	</node>
	<node lat="68.84285833516276" lon="18.087375003977115" id="-34347">
		<tag k="name" v="Flodhestmyra" />
		<tag k="natural" v="wetland" />
		<tag k="ssr:stedsnr" v="173262" />
	</node>
	<node lat="68.84493332926102" lon="17.88406943675587" id="-34359">
		<tag k="name" v="Torvmyra" />
		<tag k="natural" v="wetland" />
		<tag k="ssr:stedsnr" v="178159" />
	</node>
	<node lat="68.83660833549494" lon="17.486074996384076" id="-34369">
		<tag k="name" v="Skavsteinen" />
		<tag k="natural" v="stone" />
		<tag k="ssr:stedsnr" v="178525" />
	</node>
	<node lat="68.8516111112426" lon="18.068663881881477" id="-34394">
		<tag k="name" v="Kalvemyra" />
		<tag k="natural" v="wetland" />
		<tag k="ssr:stedsnr" v="238519" />
	</node>
</osm>
