<?xml version="1.0" encoding="UTF-8"?>
<osm version="0.6" generator="osmapis">
	<node lat="68.919950002163" lon="17.909330560251103" id="-37509">
		<tag k="name" v="Mangevatnan" />
		<tag k="natural" v="water" />
		<tag k="ssr:stedsnr" v="18806" />
		<tag k="water" v="lake" />
	</node>
	<node lat="68.84691110839917" lon="18.099294437655395" id="-37514">
		<tag k="name" v="Nils-Svensabekken" />
		<tag k="ssr:stedsnr" v="234273" />
		<tag k="waterway" v="stream" />
	</node>
	<node lat="68.97874999803427" lon="17.721627777594755" id="-37522">
		<tag k="name" v="Larselva" />
		<tag k="ssr:stedsnr" v="238053" />
		<tag k="waterway" v="stream" />
	</node>
	<node lat="68.9858055574422" lon="17.706769433104927" id="-37525">
		<tag k="name" v="Litjevatnet" />
		<tag k="natural" v="water" />
		<tag k="ssr:stedsnr" v="238074" />
	</node>
	<node lat="68.88964722227641" lon="17.89831666351883" id="-37531">
		<tag k="name" v="Græslivatnet" />
		<tag k="natural" v="water" />
		<tag k="ssr:stedsnr" v="238202" />
	</node>
	<node lat="68.90218889246879" lon="18.005461097644716" id="-37535">
		<tag k="name" v="Elvekrokan" />
		<tag k="natural" v="bay" />
		<tag k="ssr:stedsnr" v="238445" />
	</node>
	<node lat="68.90271389145553" lon="17.795380546198217" id="-37541">
		<tag k="name" v="Yttergårdselva" />
		<tag k="ssr:stedsnr" v="238494" />
		<tag k="waterway" v="stream" />
	</node>
	<node lat="68.86200000363543" lon="17.5573777875286" id="-37545">
		<tag k="name" v="Maritelva" />
		<tag k="ssr:stedsnr" v="238622" />
		<tag k="waterway" v="stream" />
	</node>
	<node lat="68.95791111359614" lon="17.872594432852924" id="-37547">
		<tag k="name" v="Fossen" />
		<tag k="natural" v="waterfall" />
		<tag k="ssr:stedsnr" v="238701" />
	</node>
	<node lat="68.93224722661353" lon="17.66008610323568" id="-37553">
		<tag k="name" v="Rødbergelva" />
		<tag k="ssr:stedsnr" v="238659" />
		<tag k="waterway" v="stream" />
	</node>
	<node lat="68.87472500334813" lon="18.006111099183883" id="-37555">
		<tag k="name" v="Kuneset" />
		<tag k="natural" v="cape" />
		<tag k="ssr:stedsnr" v="238668" />
	</node>
	<node lat="68.88018333017105" lon="17.680558338270746" id="-37559">
		<tag k="name" v="Karineset" />
		<tag k="natural" v="cape" />
		<tag k="ssr:stedsnr" v="238761" />
	</node>
	<node lat="68.82583889296163" lon="18.01533332967657" id="-37561">
		<tag k="name" v="Holmevatnet" />
		<tag k="natural" v="water" />
		<tag k="ssr:stedsnr" v="238771" />
	</node>
	<node lat="68.86840000111003" lon="17.892897208226092" id="-37566">
		<tag k="name" v="Boldervika" />
		<tag k="natural" v="bay" />
		<tag k="ssr:stedsnr" v="238991" />
	</node>
	<node lat="68.88322777604273" lon="17.97579723051961" id="-37570">
		<tag k="name" v="Juopmojohka" />
		<tag k="name:se" v="Juopmojohka" />
		<tag k="ssr:stedsnr" v="238961" />
		<tag k="waterway" v="stream" />
	</node>
	<node lat="68.85648333680118" lon="18.032830547348173" id="-37575">
		<tag k="name" v="Hestøyra" />
		<tag k="natural" v="cape" />
		<tag k="ssr:stedsnr" v="239552" />
	</node>
	<node lat="68.9691777785211" lon="17.730241654445337" id="-37580">
		<tag k="name" v="Tømmerneset" />
		<tag k="natural" v="cape" />
		<tag k="ssr:stedsnr" v="55017" />
	</node>
	<node lat="68.83567777831338" lon="17.92509720952713" id="-37582">
		<tag k="name" v="Finnstadfossen" />
		<tag k="natural" v="waterfall" />
		<tag k="ssr:stedsnr" v="56113" />
	</node>
	<node lat="68.97840833713451" lon="17.731758338540438" id="-37586">
		<tag k="name" v="Reingjerdelva" />
		<tag k="ssr:stedsnr" v="56045" />
		<tag k="waterway" v="stream" />
	</node>
	<node lat="68.92391666491469" lon="18.026102779230087" id="-37589">
		<tag k="name" v="Bekken" />
		<tag k="ssr:stedsnr" v="56505" />
		<tag k="waterway" v="river" />
	</node>
	<node lat="68.81351666430325" lon="18.051236116538263" id="-37603">
		<tag k="name" v="Nedre Masterbakkvatn - Govlojávri" />
		<tag k="name:no" v="Nedre Masterbakkvatn" />
		<tag k="name:se" v="Govlojávri" />
		<tag k="natural" v="water" />
		<tag k="ssr:stedsnr" v="56770" />
		<tag k="water" v="lake" />
	</node>
	<node lat="68.8522750044029" lon="18.057716654108077" id="-37606">
		<tag k="name" v="Kjørodden" />
		<tag k="natural" v="cape" />
		<tag k="ssr:stedsnr" v="57522" />
	</node>
	<node lat="68.87241666361533" lon="18.004530541297964" id="-37608">
		<tag k="name" v="Bommeneset" />
		<tag k="natural" v="cape" />
		<tag k="ssr:stedsnr" v="57623" />
	</node>
	<node lat="68.81820556025274" lon="17.876280546867942" id="-37612">
		<tag k="name" v="Tverrelva - Šleađđojohka" />
		<tag k="name:no" v="Tverrelva" />
		<tag k="name:se" v="Šleađđojohka" />
		<tag k="ssr:stedsnr" v="78697" />
		<tag k="waterway" v="stream" />
	</node>
	<node lat="68.83728055236358" lon="17.826061102241553" id="-37648">
		<tag k="name" v="Sæterelva" />
		<tag k="ssr:stedsnr" v="117680" />
		<tag k="waterway" v="stream" />
	</node>
	<node lat="68.84966389197415" lon="17.904647230792044" id="-37661">
		<tag k="name" v="Reingjerdskogtrollvatnet" />
		<tag k="natural" v="water" />
		<tag k="ssr:stedsnr" v="138807" />
	</node>
	<node lat="68.90454167098177" lon="18.0887694374386" id="-37663">
		<tag k="name" v="Øvstevatnet" />
		<tag k="natural" v="water" />
		<tag k="ssr:stedsnr" v="139589" />
	</node>
	<node lat="68.90513889119421" lon="18.076094444197548" id="-37664">
		<tag k="alt_name" v="Mellavatnet" />
		<tag k="name" v="Mellomvatnet" />
		<tag k="natural" v="water" />
		<tag k="ssr:stedsnr" v="139590" />
	</node>
	<node lat="68.88456667003972" lon="17.66819444507737" id="-37667">
		<tag k="name" v="Holmelva" />
		<tag k="ssr:stedsnr" v="139838" />
		<tag k="waterway" v="stream" />
	</node>
	<node lat="68.82736389315916" lon="17.541297225878374" id="-37670">
		<tag k="name" v="Storelva" />
		<tag k="ssr:stedsnr" v="260343" />
		<tag k="waterway" v="river" />
	</node>
	<node lat="68.85981666853898" lon="17.741427768215086" id="-37679">
		<tag k="name" v="Gardselva" />
		<tag k="ssr:stedsnr" v="260794" />
		<tag k="waterway" v="stream" />
	</node>
	<node lat="68.85010833723268" lon="17.990136097263278" id="-37684">
		<tag k="name" v="Løskålelva" />
		<tag k="ssr:stedsnr" v="260838" />
		<tag k="waterway" v="stream" />
	</node>
	<node lat="68.85105833004184" lon="17.830427773698066" id="-37685">
		<tag k="name" v="Sagelva - Cubbojohka" />
		<tag k="name:no" v="Sagelva" />
		<tag k="name:se" v="Cubbojohka" />
		<tag k="ssr:stedsnr" v="260839" />
		<tag k="waterway" v="river" />
	</node>
	<node lat="68.98369999639208" lon="17.66273056334516" id="-37691">
		<tag k="name" v="Okselva" />
		<tag k="ssr:stedsnr" v="260983" />
		<tag k="waterway" v="stream" />
	</node>
	<node lat="68.96968055435241" lon="17.690169447016537" id="-37697">
		<tag k="name" v="Tverrelva" />
		<tag k="ssr:stedsnr" v="178057" />
		<tag k="waterway" v="stream" />
	</node>
	<node lat="68.96126944090976" lon="17.77867222868316" id="-37702">
		<tag k="name" v="Tverrelva" />
		<tag k="ssr:stedsnr" v="178117" />
		<tag k="waterway" v="stream" />
	</node>
	<node lat="68.90413055923857" lon="18.00487777889374" id="-37708">
		<tag k="name" v="Storneset" />
		<tag k="natural" v="cape" />
		<tag k="ssr:stedsnr" v="178433" />
	</node>
	<node lat="68.92292500251263" lon="17.92971943126933" id="-37720">
		<tag k="name" v="Mangevatnet" />
		<tag k="natural" v="water" />
		<tag k="ssr:stedsnr" v="178764" />
	</node>
	<node lat="68.83667222646906" lon="17.581233320189764" id="-37724">
		<tag k="name" v="Isvatnan" />
		<tag k="natural" v="water" />
		<tag k="ssr:stedsnr" v="199810" />
		<tag k="water" v="lake" />
	</node>
	<node lat="68.86631388668913" lon="17.72264167091914" id="-37751">
		<tag k="name" v="Sommarsetforsen" />
		<tag k="natural" v="waterfall" />
		<tag k="ssr:stedsnr" v="260802" />
	</node>
</osm>
