<?xml version="1.0" encoding="UTF-8"?>
<osm generator="osmapis" version="0.6">
	<node id="-850944" lat="68.862859671" lon="18.0027729265">
		<tag k="name" v="Stormelen" />
		<tag k="place" v="locality" />
		<tag k="ssr:stedsnr" v="745609" />
	</node>
	<node id="-850943" lat="68.8567083328" lon="18.0598249959">
		<tag k="name" v="Molund" />
		<tag k="place" v="farm" />
		<tag k="ssr:stedsnr" v="745494" />
	</node>
	<node id="-850427" lat="68.8516916693" lon="18.0983805553">
		<tag k="fixme" v="multiple name tags, choose one and add the other to alt_name" />
		<tag k="name" v="Fredheim;Skjelmoen" />
		<tag k="place" v="farm" />
		<tag k="ssr:stedsnr" v="138532" />
	</node>
	<node id="-850423" lat="68.8756836767" lon="18.0737824978">
		<tag k="fixme" v="consider place=hamlet" />
		<tag k="name" v="Øvre Salangen" />
		<tag k="place" v="village" />
		<tag k="ssr:stedsnr" v="120599" />
	</node>
	<node id="-850415" lat="68.8552111116" lon="17.9886194383">
		<tag k="name" v="Løvhaug" />
		<tag k="place" v="farm" />
		<tag k="ssr:stedsnr" v="117858" />
	</node>
	<node id="-849901" lat="68.8691638853" lon="18.0391972123">
		<tag k="name" v="Sole" />
		<tag k="place" v="farm" />
		<tag k="ssr:stedsnr" v="724538" />
	</node>
	<node id="-849490" lat="68.8752694472" lon="17.5868777786">
		<tag k="name" v="Håkavik" />
		<tag k="old_name" v="Håkavika" />
		<tag k="place" v="hamlet" />
		<tag k="ssr:stedsnr" v="450142" />
	</node>
	<node id="-850921" lat="68.8522611078" lon="17.8082833216">
		<tag k="alt_name" v="Labergshaug" />
		<tag k="name" v="Labergshaugen" />
		<tag k="place" v="farm" />
		<tag k="ssr:stedsnr" v="624797" />
	</node>
	<node id="-850919" lat="68.8415138855" lon="17.8717972168">
		<tag k="name" v="Reingjerdskogen" />
		<tag k="place" v="farm" />
		<tag k="ssr:stedsnr" v="624792" />
	</node>
	<node id="-850913" lat="68.9187527803" lon="18.0120388946">
		<tag k="name" v="Sollund" />
		<tag k="place" v="farm" />
		<tag k="ssr:stedsnr" v="624673" />
	</node>
	<node id="-850911" lat="68.8761240445" lon="18.0753022978">
		<tag k="name" v="Prestbakken" />
		<tag k="place" v="farm" />
		<tag k="ssr:stedsnr" v="624609" />
	</node>
	<node id="-850910" lat="68.9029611154" lon="18.0368416625">
		<tag k="name" v="Storhaugen" />
		<tag k="place" v="farm" />
		<tag k="ssr:stedsnr" v="624585" />
	</node>
	<node id="-850909" lat="68.9070861128" lon="18.0344610981">
		<tag k="name" v="Breidablikk" />
		<tag k="place" v="isolated_dwelling" />
		<tag k="ssr:stedsnr" v="624570" />
	</node>
	<node id="-850907" lat="68.8714333333" lon="18.0521499937">
		<tag k="name" v="Uthaug" />
		<tag k="place" v="farm" />
		<tag k="ssr:stedsnr" v="624277" />
	</node>
	<node id="-850390" lat="68.8709166707" lon="18.0172916737">
		<tag k="name" v="Nordmo" />
		<tag k="place" v="farm" />
		<tag k="ssr:stedsnr" v="117658" />
	</node>
	<node id="-849365" lat="68.843336108" lon="17.4997972286">
		<tag k="name" v="Klemmingan" />
		<tag k="place" v="isolated_dwelling" />
		<tag k="ssr:stedsnr" v="260833" />
	</node>
	<node id="-849363" lat="68.8815194444" lon="17.6866583221">
		<tag k="fixme" v="consider place=hamlet" />
		<tag k="name" v="Dalen" />
		<tag k="place" v="village" />
		<tag k="ssr:stedsnr" v="260818" />
	</node>
	<node id="-849361" lat="68.8788638853" lon="17.9016000026">
		<tag k="name" v="Nervatnet" />
		<tag k="place" v="isolated_dwelling" />
		<tag k="ssr:stedsnr" v="260812" />
	</node>
	<node id="-849359" lat="68.8641111078" lon="17.8620166741">
		<tag k="name" v="Elvelund" />
		<tag k="old_name" v="Elveland" />
		<tag k="place" v="farm" />
		<tag k="ssr:stedsnr" v="260800" />
	</node>
	<node id="-850382" lat="68.9786555597" lon="17.669516656">
		<tag k="name" v="Gunnelheimen" />
		<tag k="place" v="locality" />
		<tag k="ssr:stedsnr" v="117631" />
	</node>
	<node id="-849357" lat="68.9230861125" lon="18.0307972151">
		<tag k="name" v="Fjellsæter" />
		<tag k="place" v="farm" />
		<tag k="ssr:stedsnr" v="260711" />
	</node>
	<node id="-849356" lat="68.9332888891" lon="18.0538138848">
		<tag k="name" v="Steinelvlund" />
		<tag k="place" v="isolated_dwelling" />
		<tag k="ssr:stedsnr" v="260708" />
	</node>
	<node id="-849355" lat="68.9378293684" lon="18.0464124416">
		<tag k="fixme" v="consider place=hamlet" />
		<tag k="name" v="Haugli" />
		<tag k="place" v="farm" />
		<tag k="ssr:stedsnr" v="260693" />
	</node>
	<node id="-849354" lat="68.9237611115" lon="18.0586388937">
		<tag k="name" v="Molund" />
		<tag k="place" v="farm" />
		<tag k="ssr:stedsnr" v="260590" />
	</node>
	<node id="-849353" lat="68.8508388909" lon="18.1031805426">
		<tag k="name" v="Skyssmoen" />
		<tag k="place" v="farm" />
		<tag k="ssr:stedsnr" v="260540" />
	</node>
	<node id="-849350" lat="68.9504500043" lon="18.17695">
		<tag k="name" v="Lappehytta" />
		<tag k="place" v="locality" />
		<tag k="ssr:stedsnr" v="260681" />
	</node>
	<node id="-850877" lat="68.8703861145" lon="18.02199443">
		<tag k="name" v="Nordeng" />
		<tag k="place" v="farm" />
		<tag k="ssr:stedsnr" v="602536" />
	</node>
	<node id="-849613" lat="68.8446999995" lon="18.0609722063">
		<tag k="name" v="Kollia" />
		<tag k="place" v="farm" />
		<tag k="ssr:stedsnr" v="503492" />
	</node>
	<node id="-850357" lat="68.8220972214" lon="17.8595305513">
		<tag k="name" v="Várdo" />
		<tag k="name:se" v="Várdo" />
		<tag k="place" v="farm" />
		<tag k="ssr:stedsnr" v="117273" />
	</node>
	<node id="-850355" lat="68.9376166631" lon="17.7231666502">
		<tag k="name" v="Lamoen" />
		<tag k="place" v="farm" />
		<tag k="ssr:stedsnr" v="117095" />
	</node>
	<node id="-850721" lat="68.8707555559" lon="18.0249583323">
		<tag k="name" v="Elvebakkan" />
		<tag k="place" v="hamlet" />
		<tag k="ssr:stedsnr" v="421651" />
	</node>
	<node id="-849840" lat="68.8864222188" lon="17.8543722276">
		<tag k="name" v="Sommargamman" />
		<tag k="place" v="locality" />
		<tag k="ssr:stedsnr" v="602224" />
	</node>
	<node id="-849830" lat="68.905525001" lon="17.775477781">
		<tag k="name" v="Demma" />
		<tag k="place" v="farm" />
		<tag k="ssr:stedsnr" v="698623" />
	</node>
	<node id="-850332" lat="69.0034138877" lon="17.7284833253">
		<tag k="name" v="Østertuvnes" />
		<tag k="place" v="farm" />
		<tag k="ssr:stedsnr" v="99511" />
	</node>
	<node id="-849391" lat="68.8894944434" lon="17.8039694371">
		<tag k="name" v="Enigheten" />
		<tag k="place" v="farm" />
		<tag k="ssr:stedsnr" v="117320" />
	</node>
	<node id="-850838" lat="68.9142666676" lon="17.734241653">
		<tag k="fixme" v="consider place=hamlet" />
		<tag k="name" v="Medby" />
		<tag k="place" v="village" />
		<tag k="ssr:stedsnr" v="571219" />
	</node>
	<node id="-850837" lat="68.9012597923" lon="17.7848259699">
		<tag k="alt_name" v="Yttergård;Ytregården" />
		<tag k="fixme" v="consider place=hamlet" />
		<tag k="name" v="Yttergården" />
		<tag k="place" v="farm" />
		<tag k="ssr:stedsnr" v="567618" />
	</node>
	<node id="-850323" lat="68.9414444411" lon="17.7397111158">
		<tag k="name" v="Myre" />
		<tag k="place" v="farm" />
		<tag k="ssr:stedsnr" v="78948" />
	</node>
	<node id="-850322" lat="68.9335432286" lon="17.7240667116">
		<tag k="fixme" v="consider place=hamlet" />
		<tag k="name" v="Sletta" />
		<tag k="place" v="farm" />
		<tag k="ssr:stedsnr" v="78920" />
	</node>
	<node id="-850321" lat="68.891904868" lon="17.8045160001">
		<tag k="alt_name" v="Skårvik" />
		<tag k="fixme" v="consider place=hamlet" />
		<tag k="name" v="Skårvika" />
		<tag k="place" v="farm" />
		<tag k="ssr:stedsnr" v="78873" />
	</node>
	<node id="-850318" lat="68.9077666686" lon="17.9390000002">
		<tag k="name" v="Åeng" />
		<tag k="old_name" v="Åenga" />
		<tag k="place" v="farm" />
		<tag k="ssr:stedsnr" v="78832" />
	</node>
	<node id="-850317" lat="68.8535361075" lon="17.9710138874">
		<tag k="alt_name" v="Gaddskog" />
		<tag k="name" v="Gaddeskogen" />
		<tag k="place" v="farm" />
		<tag k="ssr:stedsnr" v="78817" />
	</node>
	<node id="-849803" lat="68.8922444479" lon="18.0104361139">
		<tag k="name" v="Bjørkås" />
		<tag k="place" v="isolated_dwelling" />
		<tag k="ssr:stedsnr" v="542622" />
	</node>
	<node id="-849441" lat="68.8749750034" lon="18.0621583214">
		<tag k="name" v="Vallenberg" />
		<tag k="place" v="farm" />
		<tag k="ssr:stedsnr" v="199636" />
	</node>
	<node id="-850825" lat="68.8360555586" lon="17.8899222189">
		<tag k="name" v="Baklia" />
		<tag k="place" v="farm" />
		<tag k="ssr:stedsnr" v="563811" />
	</node>
	<node id="-850824" lat="68.8736833366" lon="17.9305166736">
		<tag k="name" v="Strokkenes" />
		<tag k="place" v="farm" />
		<tag k="ssr:stedsnr" v="563802" />
	</node>
	<node id="-850311" lat="68.8726061517" lon="17.8526116967">
		<tag k="name" v="Sjøvegan" />
		<tag k="place" v="village" />
		<tag k="ssr:stedsnr" v="78763" />
	</node>
	<node id="-850310" lat="68.8585944427" lon="17.8141638808">
		<tag k="name" v="Nysted" />
		<tag k="place" v="farm" />
		<tag k="ssr:stedsnr" v="78754" />
	</node>
	<node id="-850308" lat="68.9365194457" lon="18.0473499889">
		<tag k="name" v="Haugland" />
		<tag k="place" v="farm" />
		<tag k="ssr:stedsnr" v="78667" />
	</node>
	<node id="-850819" lat="68.9138253646" lon="18.0043900848">
		<tag k="alt_name" v="Solbakken Søndre;Solbakken" />
		<tag k="fixme" v="consider place=hamlet" />
		<tag k="name" v="Søndre Solbakken" />
		<tag k="place" v="farm" />
		<tag k="ssr:stedsnr" v="563705" />
	</node>
	<node id="-850815" lat="68.8762083289" lon="18.0821777773">
		<tag k="name" v="Bakkehaug" />
		<tag k="place" v="farm" />
		<tag k="ssr:stedsnr" v="563612" />
	</node>
	<node id="-850814" lat="68.8704305536" lon="18.046161103">
		<tag k="name" v="Prestbakkmoen" />
		<tag k="place" v="farm" />
		<tag k="ssr:stedsnr" v="563606" />
	</node>
	<node id="-850325" lat="68.9007333311" lon="17.7865083253">
		<tag k="name" v="Yttergården" />
		<tag k="place" v="farm" />
		<tag k="ssr:stedsnr" v="79846" />
	</node>
	<node id="-850812" lat="68.8590722221" lon="18.0470860998">
		<tag k="alt_name" v="Prestebakkmoen, s" />
		<tag k="fixme" v="multiple name tags, choose one and add the other to alt_name" />
		<tag k="name" v="Prestbakmo;Søre Prestebakkmoen" />
		<tag k="place" v="farm" />
		<tag k="ssr:stedsnr" v="563488" />
	</node>
	<node id="-850299" lat="68.8751722194" lon="18.0829555481">
		<tag k="name" v="Prestbakkan" />
		<tag k="place" v="hamlet" />
		<tag k="ssr:stedsnr" v="57658" />
	</node>
	<node id="-849781" lat="68.9847040976" lon="17.6935324363">
		<tag k="alt_name" v="Nattmålskardet" />
		<tag k="fixme" v="consider place=hamlet" />
		<tag k="name" v="Nattmålskaret" />
		<tag k="place" v="farm" />
		<tag k="ssr:stedsnr" v="685889" />
	</node>
	<node id="-849774" lat="68.9279944481" lon="17.7230666644">
		<tag k="name" v="Haugan" />
		<tag k="place" v="hamlet" />
		<tag k="ssr:stedsnr" v="685831" />
	</node>
	<node id="-849772" lat="68.8539888887" lon="17.8293833298">
		<tag k="name" v="Stormoen" />
		<tag k="place" v="farm" />
		<tag k="ssr:stedsnr" v="685792" />
	</node>
	<node id="-849770" lat="68.8389055585" lon="17.8953861121">
		<tag k="name" v="Finnstad" />
		<tag k="place" v="farm" />
		<tag k="ssr:stedsnr" v="685777" />
	</node>
	<node id="-849767" lat="68.8674511985" lon="17.9978840976">
		<tag k="fixme" v="consider place=hamlet" />
		<tag k="name" v="Elvenes" />
		<tag k="place" v="farm" />
		<tag k="ssr:stedsnr" v="685750" />
	</node>
	<node id="-850789" lat="68.9061638924" lon="18.0323944418">
		<tag k="name" v="Fuglemo" />
		<tag k="place" v="farm" />
		<tag k="ssr:stedsnr" v="542443" />
	</node>
	<node id="-849763" lat="68.9369972223" lon="18.0438805502">
		<tag k="name" v="Solhaug" />
		<tag k="place" v="isolated_dwelling" />
		<tag k="ssr:stedsnr" v="685657" />
	</node>
	<node id="-849761" lat="68.9051249976" lon="18.0328249968">
		<tag k="name" v="Nergård" />
		<tag k="place" v="farm" />
		<tag k="ssr:stedsnr" v="685580" />
	</node>
	<node id="-849760" lat="68.8594055556" lon="18.0310194291">
		<tag k="name" v="Nestun" />
		<tag k="place" v="farm" />
		<tag k="ssr:stedsnr" v="685499" />
	</node>
	<node id="-849759" lat="68.8566638915" lon="18.0779499894">
		<tag k="name" v="Frivoll" />
		<tag k="place" v="farm" />
		<tag k="ssr:stedsnr" v="685492" />
	</node>
	<node id="-849244" lat="68.9192972224" lon="17.8104694535">
		<tag k="name" v="Vinkelen" />
		<tag k="place" v="isolated_dwelling" />
		<tag k="ssr:stedsnr" v="18801" />
	</node>
	<node id="-850265" lat="68.8288861135" lon="17.4938500106">
		<tag k="name" v="Stortøa" />
		<tag k="place" v="farm" />
		<tag k="ssr:stedsnr" v="56559" />
	</node>
	<node id="-849636" lat="68.9642250014" lon="17.7531361128">
		<tag k="name" v="Nermoen" />
		<tag k="place" v="farm" />
		<tag k="ssr:stedsnr" v="419006" />
	</node>
	<node id="-849749" lat="68.858124996" lon="18.035891658">
		<tag k="alt_name" v="Hillekroken" />
		<tag k="name" v="Hellekroken" />
		<tag k="place" v="farm" />
		<tag k="ssr:stedsnr" v="503472" />
	</node>
	<node id="-849746" lat="68.8554083351" lon="17.9920777756">
		<tag k="name" v="Sandmoen" />
		<tag k="place" v="farm" />
		<tag k="ssr:stedsnr" v="481862" />
	</node>
	<node id="-850248" lat="68.8625972251" lon="17.8188944528">
		<tag k="name" v="Laberg" />
		<tag k="place" v="farm" />
		<tag k="ssr:stedsnr" v="56230" />
	</node>
	<node id="-850758" lat="68.8520055579" lon="18.1010388858">
		<tag k="name" v="Nerflaten" />
		<tag k="place" v="farm" />
		<tag k="ssr:stedsnr" v="537136" />
	</node>
	<node id="-849733" lat="68.8923638917" lon="17.6759583214">
		<tag k="name" v="Rotvik" />
		<tag k="place" v="farm" />
		<tag k="ssr:stedsnr" v="481616" />
	</node>
	<node id="-850144" lat="68.9191085607" lon="17.7297010847">
		<tag k="fixme" v="consider place=hamlet" />
		<tag k="name" v="Magesås" />
		<tag k="place" v="farm" />
		<tag k="ssr:stedsnr" v="928823" />
	</node>
	<node id="-850748" lat="68.8525805528" lon="17.9681027636">
		<tag k="name" v="Øverås" />
		<tag k="place" v="farm" />
		<tag k="ssr:stedsnr" v="421870" />
	</node>
	<node id="-850228" lat="68.8576527812" lon="18.0795611136">
		<tag k="name" v="Bruvoll" />
		<tag k="place" v="farm" />
		<tag k="ssr:stedsnr" v="52139" />
	</node>
	<node id="-849713" lat="68.8999055556" lon="17.8682944463">
		<tag k="name" v="Lunderheimen" />
		<tag k="place" v="locality" />
		<tag k="ssr:stedsnr" v="663806" />
	</node>
	<node id="-849373" lat="68.8973777772" lon="17.8000861052">
		<tag k="name" v="Storvollen" />
		<tag k="place" v="farm" />
		<tag k="ssr:stedsnr" v="260896" />
	</node>
	<node id="-850218" lat="68.9795702173" lon="17.8009017739">
		<tag k="alt_name" v="Grønli" />
		<tag k="fixme" v="consider place=hamlet" />
		<tag k="name" v="Grønlia" />
		<tag k="place" v="farm" />
		<tag k="ssr:stedsnr" v="18877" />
	</node>
	<node id="-850563" lat="68.8402166665" lon="17.8390888908">
		<tag k="name" v="Sagsætran" />
		<tag k="place" v="locality" />
		<tag k="ssr:stedsnr" v="321775" />
	</node>
	<node id="-849371" lat="68.9115583312" lon="17.7232444395">
		<tag k="fixme" v="consider place=suburb, village or hamlet" />
		<tag k="name" v="Salangsverket" />
		<tag k="place" v="quarter" />
		<tag k="ssr:stedsnr" v="260863" />
	</node>
	<node id="-850720" lat="68.8763166707" lon="18.0226305445">
		<tag k="name" v="Skjulstad" />
		<tag k="place" v="farm" />
		<tag k="ssr:stedsnr" v="421645" />
	</node>
	<node id="-851231" lat="68.8753573427" lon="17.8441759229">
		<tag k="alt_name" v="Sjøveien" />
		<tag k="fixme" v="consider place=hamlet" />
		<tag k="name" v="Sjøvegan" />
		<tag k="place" v="farm" />
		<tag k="ssr:stedsnr" v="1077398" />
	</node>
	<node id="-851230" lat="69.0040529239" lon="17.7141144749">
		<tag k="fixme" v="consider place=hamlet" />
		<tag k="name" v="Tuvnes" />
		<tag k="place" v="farm" />
		<tag k="ssr:stedsnr" v="1077397" />
	</node>
	<node id="-851229" lat="68.9284147119" lon="17.6493120321">
		<tag k="fixme" v="consider place=hamlet" />
		<tag k="name" v="Løksa" />
		<tag k="place" v="farm" />
		<tag k="ssr:stedsnr" v="1077396" />
	</node>
	<node id="-851227" lat="69.6807751959" lon="19.0868014399">
		<tag k="fixme" v="consider place=hamlet" />
		<tag k="name" v="Krokelv" />
		<tag k="place" v="farm" />
		<tag k="ssr:stedsnr" v="1076826" />
	</node>
	<node id="-851226" lat="69.6548386171" lon="18.9540555979">
		<tag k="amenity" v="school" />
		<tag k="name" v="Ishavsbyen videregående skole" />
		<tag k="ssr:stedsnr" v="1075695" />
	</node>
	<node id="-850200" lat="68.861513886" lon="17.8199222242">
		<tag k="alt_name" v="Laberg" />
		<tag k="name" v="Laberget" />
		<tag k="place" v="hamlet" />
		<tag k="ssr:stedsnr" v="18260" />
	</node>
	<node id="-849686" lat="68.8699500046" lon="18.0247722129">
		<tag k="name" v="Rindstad" />
		<tag k="place" v="farm" />
		<tag k="ssr:stedsnr" v="663545" />
	</node>
	<node id="-850197" lat="68.9216722256" lon="17.6231277646">
		<tag k="name" v="Navarsvika" />
		<tag k="place" v="isolated_dwelling" />
		<tag k="ssr:stedsnr" v="17930" />
	</node>
	<node id="-850195" lat="68.8720999992" lon="18.0918388923">
		<tag k="name" v="Solvang" />
		<tag k="place" v="farm" />
		<tag k="ssr:stedsnr" v="17645" />
	</node>
	<node id="-850193" lat="68.8511333362" lon="18.0271777796">
		<tag k="name" v="Masterbakken" />
		<tag k="place" v="farm" />
		<tag k="ssr:stedsnr" v="17517" />
	</node>
	<node id="-851215" lat="68.8324944425" lon="17.4778166745">
		<tag k="name" v="Lavangsnes" />
		<tag k="place" v="farm" />
		<tag k="ssr:stedsnr" v="966990" />
	</node>
	<node id="-850697" lat="68.8405555573" lon="17.8775388933">
		<tag k="name" v="Reindal" />
		<tag k="place" v="farm" />
		<tag k="ssr:stedsnr" v="421149" />
	</node>
	<node id="-849663" lat="68.8631638854" lon="17.8295861029">
		<tag k="name" v="Lamoen" />
		<tag k="place" v="farm" />
		<tag k="ssr:stedsnr" v="299275" />
	</node>
	<node id="-849654" lat="68.8649194409" lon="18.0324694494">
		<tag k="name" v="Kroken" />
		<tag k="place" v="farm" />
		<tag k="ssr:stedsnr" v="421517" />
	</node>
	<node id="-849278" lat="68.9843166648" lon="17.6948583266">
		<tag k="name" v="Solli" />
		<tag k="place" v="farm" />
		<tag k="ssr:stedsnr" v="238082" />
	</node>
	<node id="-850671" lat="68.9360354698" lon="17.7132752472">
		<tag k="fixme" v="consider place=hamlet" />
		<tag k="name" v="Løksebotn" />
		<tag k="place" v="farm" />
		<tag k="ssr:stedsnr" v="381921" />
	</node>
	<node id="-850669" lat="68.8911194832" lon="17.8198463098">
		<tag k="alt_name" v="Skjeghaug" />
		<tag k="fixme" v="consider place=hamlet" />
		<tag k="name" v="Skjegghaugen" />
		<tag k="place" v="farm" />
		<tag k="ssr:stedsnr" v="381867" />
	</node>
	<node id="-850155" lat="68.9661642426" lon="17.756291686">
		<tag k="fixme" v="consider place=hamlet" />
		<tag k="name" v="Rørbakken" />
		<tag k="place" v="farm" />
		<tag k="ssr:stedsnr" v="965021" />
	</node>
	<node id="-851177" lat="68.9878583311" lon="17.7284555589">
		<tag k="name" v="Haugen" />
		<tag k="place" v="farm" />
		<tag k="ssr:stedsnr" v="966069" />
	</node>
	<node id="-850664" lat="68.875491168" lon="17.9669406731">
		<tag k="fixme" v="consider place=hamlet" />
		<tag k="name" v="Flåget" />
		<tag k="place" v="farm" />
		<tag k="ssr:stedsnr" v="381812" />
	</node>
	<node id="-850151" lat="68.9052361101" lon="17.8633638801">
		<tag k="fixme" v="consider place=hamlet" />
		<tag k="name" v="Seljeskog" />
		<tag k="place" v="village" />
		<tag k="ssr:stedsnr" v="936122" />
	</node>
	<node id="-850150" lat="68.8708583305" lon="17.7392138746">
		<tag k="name" v="Sommerset" />
		<tag k="place" v="hamlet" />
		<tag k="ssr:stedsnr" v="932604" />
	</node>
	<node id="-850660" lat="68.8250861095" lon="17.5321972122">
		<tag k="fixme" v="consider place=hamlet" />
		<tag k="name" v="Reite" />
		<tag k="place" v="farm" />
		<tag k="ssr:stedsnr" v="381714" />
	</node>
	<node id="-851169" lat="68.9280637774" lon="17.981787338">
		<tag k="fixme" v="consider place=hamlet" />
		<tag k="name" v="Fjellstad" />
		<tag k="place" v="farm" />
		<tag k="ssr:stedsnr" v="867933" />
	</node>
	<node id="-851168" lat="68.9357694446" lon="17.6595249999">
		<tag k="name" v="Skardtindholtet" />
		<tag k="place" v="locality" />
		<tag k="ssr:stedsnr" v="867927" />
	</node>
	<node id="-849627" lat="68.9224861115" lon="17.7268277828">
		<tag k="name" v="Vikholt" />
		<tag k="place" v="farm" />
		<tag k="ssr:stedsnr" v="503796" />
	</node>
	<node id="-851162" lat="68.90542222" lon="17.8706055511">
		<tag k="name" v="Ragnhildheimen" />
		<tag k="place" v="farm" />
		<tag k="ssr:stedsnr" v="867835" />
	</node>
	<node id="-849615" lat="68.8759861113" lon="18.0819555555">
		<tag k="name" v="Nylund" />
		<tag k="place" v="farm" />
		<tag k="ssr:stedsnr" v="503582" />
	</node>
	<node id="-849622" lat="68.855605556" lon="17.8311833402">
		<tag k="alt_name" v="Eineli" />
		<tag k="name" v="Einelia" />
		<tag k="place" v="farm" />
		<tag k="ssr:stedsnr" v="503772" />
	</node>
	<node id="-849621" lat="68.853319445" lon="17.9647694508">
		<tag k="alt_name" v="Øvervatn" />
		<tag k="name" v="Øvrevatnet" />
		<tag k="place" v="farm" />
		<tag k="ssr:stedsnr" v="503767" />
	</node>
	<node id="-851156" lat="68.8286972204" lon="17.4938833236">
		<tag k="fixme" v="consider place=hamlet" />
		<tag k="name" v="Lavangnes" />
		<tag k="place" v="village" />
		<tag k="ssr:stedsnr" v="867706" />
	</node>
	<node id="-851155" lat="68.8190333344" lon="17.8555361027">
		<tag k="name" v="Sørli" />
		<tag k="place" v="isolated_dwelling" />
		<tag k="ssr:stedsnr" v="867699" />
	</node>
	<node id="-851154" lat="68.9264472212" lon="18.0500388768">
		<tag k="name" v="Lynum" />
		<tag k="place" v="farm" />
		<tag k="ssr:stedsnr" v="867684" />
	</node>
	<node id="-851152" lat="68.8749250029" lon="18.0643527829">
		<tag k="name" v="Haugset" />
		<tag k="place" v="farm" />
		<tag k="ssr:stedsnr" v="867627" />
	</node>
	<node id="-851151" lat="68.8660472232" lon="18.0325500058">
		<tag k="name" v="Tunheim" />
		<tag k="place" v="farm" />
		<tag k="ssr:stedsnr" v="867624" />
	</node>
	<node id="-849614" lat="68.8728305523" lon="18.0328305617">
		<tag k="name" v="Nordgård" />
		<tag k="place" v="farm" />
		<tag k="ssr:stedsnr" v="503566" />
	</node>
	<node id="-850637" lat="68.922694932" lon="18.0590827757">
		<tag k="alt_name" v="Bekkeli Østre" />
		<tag k="fixme" v="consider place=hamlet" />
		<tag k="name" v="Østre Bekkeli" />
		<tag k="place" v="farm" />
		<tag k="ssr:stedsnr" v="360462" />
	</node>
	<node id="-851144" lat="68.9069444485" lon="17.9424277858">
		<tag k="name" v="Myrvang" />
		<tag k="place" v="farm" />
		<tag k="ssr:stedsnr" v="846802" />
	</node>
	<node id="-851233" lat="68.9018943973" lon="18.0328431694">
		<tag k="fixme" v="consider place=hamlet" />
		<tag k="name" v="Søndre Snagli" />
		<tag k="place" v="farm" />
		<tag k="ssr:stedsnr" v="1077400" />
	</node>
	<node id="-851232" lat="68.919608294" lon="18.0125721705">
		<tag k="alt_name" v="Solbakken" />
		<tag k="fixme" v="consider place=hamlet" />
		<tag k="name" v="Nordre Solbakken" />
		<tag k="place" v="farm" />
		<tag k="ssr:stedsnr" v="1077399" />
	</node>
	<node id="-849598" lat="68.8080861086" lon="18.0009138787">
		<tag k="name" v="Sagvasshytta" />
		<tag k="place" v="isolated_dwelling" />
		<tag k="ssr:stedsnr" v="360606" />
	</node>
	<node id="-850082" lat="68.8229805592" lon="17.8604388936">
		<tag k="name" v="Vollstad" />
		<tag k="place" v="farm" />
		<tag k="ssr:stedsnr" v="928647" />
	</node>
	<node id="-849695" lat="68.857155551" lon="17.9978861178">
		<tag k="name" v="Fagertun" />
		<tag k="place" v="farm" />
		<tag k="ssr:stedsnr" v="663563" />
	</node>
	<node id="-850104" lat="68.8525388853" lon="18.0824722157">
		<tag k="name" v="Kistefossmo" />
		<tag k="place" v="farm" />
		<tag k="ssr:stedsnr" v="841170" />
	</node>
	<node id="-850615" lat="68.8632333286" lon="17.5589138943">
		<tag k="name" v="Gamman" />
		<tag k="place" v="locality" />
		<tag k="ssr:stedsnr" v="359624" />
	</node>
	<node id="-850101" lat="68.8664999981" lon="17.7855416628">
		<tag k="name" v="Otterå" />
		<tag k="place" v="hamlet" />
		<tag k="ssr:stedsnr" v="817874" />
	</node>
	<node id="-849608" lat="68.8733083377" lon="17.8553027701">
		<tag k="name" v="Gimle" />
		<tag k="place" v="farm" />
		<tag k="ssr:stedsnr" v="502788" />
	</node>
	<node id="-850091" lat="68.8693833349" lon="17.737586117">
		<tag k="alt_name" v="Sommarsetet" />
		<tag k="name" v="Sommerset" />
		<tag k="place" v="farm" />
		<tag k="ssr:stedsnr" v="928743" />
	</node>
	<node id="-850089" lat="68.9657416694" lon="17.7547861029">
		<tag k="fixme" v="consider place=hamlet" />
		<tag k="name" v="Røyrbakken" />
		<tag k="place" v="village" />
		<tag k="ssr:stedsnr" v="928873" />
	</node>
	<node id="-849638" lat="68.9337388898" lon="18.0134749977">
		<tag k="historic" v="shieling" />
		<tag k="name" v="Sætra" />
		<tag k="place" v="locality" />
		<tag k="ssr:stedsnr" v="420546" />
	</node>
	<node id="-850033" lat="68.8242138889" lon="17.8544388881">
		<tag k="name" v="Lavangseidet" />
		<tag k="place" v="farm" />
		<tag k="ssr:stedsnr" v="745706" />
	</node>
	<node id="-850594" lat="68.8357388907" lon="18.0942694393">
		<tag k="name" v="Pergamman" />
		<tag k="place" v="locality" />
		<tag k="ssr:stedsnr" v="355261" />
	</node>
	<node id="-850080" lat="68.8733749968" lon="18.0650166519">
		<tag k="fixme" v="consider place=hamlet" />
		<tag k="name" v="Prestbakklia" />
		<tag k="place" v="village" />
		<tag k="ssr:stedsnr" v="928581" />
	</node>
	<node id="-850079" lat="68.8494250033" lon="18.0584666667">
		<tag k="alt_name" v="Kistefosshaug" />
		<tag k="name" v="Kistefosshaugen" />
		<tag k="place" v="farm" />
		<tag k="ssr:stedsnr" v="928489" />
	</node>
	<node id="-850074" lat="68.8571277777" lon="17.9394055497">
		<tag k="name" v="Sandvika" />
		<tag k="place" v="farm" />
		<tag k="ssr:stedsnr" v="806826" />
	</node>
	<node id="-851093" lat="68.8624972251" lon="17.8174138799">
		<tag k="name" v="Saga" />
		<tag k="place" v="farm" />
		<tag k="ssr:stedsnr" v="845258" />
	</node>
	<node id="-850552" lat="68.9269083317" lon="18.0458333239">
		<tag k="alt_name" v="Bekkebotnen" />
		<tag k="fixme" v="consider place=hamlet" />
		<tag k="name" v="Bekkebotn" />
		<tag k="place" v="village" />
		<tag k="ssr:stedsnr" v="321637" />
	</node>
	<node id="-850067" lat="69.0034754268" lon="17.7022518942">
		<tag k="name" v="Tjuvhola" />
		<tag k="place" v="locality" />
		<tag k="ssr:stedsnr" v="927649" />
	</node>
	<node id="-850569" lat="68.9077333884" lon="17.508646666">
		<tag k="fixme" v="consider place=hamlet" />
		<tag k="name" v="Grøtland" />
		<tag k="place" v="farm" />
		<tag k="ssr:stedsnr" v="321809" />
	</node>
	<node id="-851078" lat="68.8253916702" lon="17.9177083195">
		<tag k="name" v="Sikkogammen" />
		<tag k="place" v="locality" />
		<tag k="ssr:stedsnr" v="844206" />
	</node>
	<node id="-850565" lat="68.8505111132" lon="17.9755305423">
		<tag k="alt_name" v="Sætran" />
		<tag k="name" v="Sætra" />
		<tag k="place" v="farm" />
		<tag k="ssr:stedsnr" v="321783" />
	</node>
	<node id="-850198" lat="68.9272555547" lon="17.6490250023">
		<tag k="fixme" v="consider place=hamlet" />
		<tag k="name" v="Løksa" />
		<tag k="place" v="village" />
		<tag k="ssr:stedsnr" v="17935" />
	</node>
	<node id="-850561" lat="68.8629111141" lon="17.9963249996">
		<tag k="alt_name" v="Elvevoll" />
		<tag k="name" v="Elvevollen" />
		<tag k="place" v="locality" />
		<tag k="ssr:stedsnr" v="321734" />
	</node>
	<node id="-849531" lat="68.9420250024" lon="17.7398583206">
		<tag k="name" v="Kasteng" />
		<tag k="place" v="farm" />
		<tag k="ssr:stedsnr" v="481100" />
	</node>
	<node id="-851064" lat="68.9088056098" lon="17.7597937849">
		<tag k="alt_name" v="Rognsa;Rongså" />
		<tag k="fixme" v="consider place=hamlet" />
		<tag k="name" v="Rognså" />
		<tag k="place" v="farm" />
		<tag k="ssr:stedsnr" v="807799" />
	</node>
	<node id="-850551" lat="68.8725638929" lon="18.0911277675">
		<tag k="alt_name" v="Limo" />
		<tag k="name" v="Limoen" />
		<tag k="place" v="farm" />
		<tag k="ssr:stedsnr" v="321586" />
	</node>
	<node id="-850550" lat="68.8742777819" lon="18.059386114">
		<tag k="name" v="Uthaug" />
		<tag k="place" v="farm" />
		<tag k="ssr:stedsnr" v="321582" />
	</node>
	<node id="-850545" lat="68.8478833357" lon="18.0562972168">
		<tag k="name" v="Litleng" />
		<tag k="place" v="farm" />
		<tag k="ssr:stedsnr" v="321488" />
	</node>
	<node id="-849520" lat="68.8195555544" lon="18.0500555453">
		<tag k="name" v="Lappgamman" />
		<tag k="place" v="locality" />
		<tag k="ssr:stedsnr" v="299762" />
	</node>
	<node id="-850031" lat="68.8509388868" lon="18.0353888901">
		<tag k="name" v="Birkeland" />
		<tag k="place" v="farm" />
		<tag k="ssr:stedsnr" v="745515" />
	</node>
	<node id="-851053" lat="68.8744249991" lon="17.5875250077">
		<tag k="alt_name" v="Håkavik" />
		<tag k="name" v="Håkavika" />
		<tag k="place" v="farm" />
		<tag k="ssr:stedsnr" v="806789" />
	</node>
	<node id="-850028" lat="68.8533805532" lon="17.8279638797">
		<tag k="name" v="Nymoen" />
		<tag k="place" v="farm" />
		<tag k="ssr:stedsnr" v="906345" />
	</node>
	<node id="-851051" lat="68.9322750016" lon="18.0580583397">
		<tag k="name" v="Fagerli" />
		<tag k="place" v="farm" />
		<tag k="ssr:stedsnr" v="806683" />
	</node>
	<node id="-851050" lat="68.8721722203" lon="18.0686499924">
		<tag k="name" v="Vestermo" />
		<tag k="place" v="farm" />
		<tag k="ssr:stedsnr" v="806610" />
	</node>
	<node id="-851049" lat="68.8692000022" lon="18.0326333426">
		<tag k="name" v="Elvebakken" />
		<tag k="place" v="farm" />
		<tag k="ssr:stedsnr" v="806609" />
	</node>
	<node id="-850024" lat="68.8722642952" lon="17.8666974767">
		<tag k="fixme" v="consider place=hamlet" />
		<tag k="name" v="Vasshaug" />
		<tag k="place" v="farm" />
		<tag k="ssr:stedsnr" v="906181" />
	</node>
	<node id="-849681" lat="68.8788138858" lon="17.9014277677">
		<tag k="name" v="Bergli" />
		<tag k="place" v="farm" />
		<tag k="ssr:stedsnr" v="663181" />
	</node>
	<node id="-850531" lat="68.9646083354" lon="17.7694666538">
		<tag k="name" v="Bakkemoen" />
		<tag k="place" v="farm" />
		<tag k="ssr:stedsnr" v="200867" />
	</node>
	<node id="-850530" lat="68.8937583369" lon="17.6815611103">
		<tag k="alt_name" v="Rotvik" />
		<tag k="name" v="Rotvika" />
		<tag k="place" v="hamlet" />
		<tag k="ssr:stedsnr" v="200858" />
	</node>
	<node id="-849504" lat="68.8537694465" lon="17.8054888941">
		<tag k="name" v="Bjørklund" />
		<tag k="place" v="farm" />
		<tag k="ssr:stedsnr" v="299366" />
	</node>
	<node id="-851031" lat="68.8613249974" lon="18.0210083182">
		<tag k="name" v="Holmen" />
		<tag k="place" v="farm" />
		<tag k="ssr:stedsnr" v="785503" />
	</node>
	<node id="-849493" lat="68.8746499978" lon="18.0899499931">
		<tag k="name" v="Prestbakken" />
		<tag k="place" v="farm" />
		<tag k="ssr:stedsnr" v="260638" />
	</node>
	<node id="-849492" lat="68.8998972193" lon="18.0394333291">
		<tag k="name" v="Myrlund" />
		<tag k="place" v="isolated_dwelling" />
		<tag k="ssr:stedsnr" v="260602" />
	</node>
	<node id="-850002" lat="68.922794447" lon="17.9761916552">
		<tag k="name" v="Gunnarheimen" />
		<tag k="place" v="locality" />
		<tag k="ssr:stedsnr" v="724774" />
	</node>
	<node id="-850001" lat="68.9273388873" lon="17.9786750038">
		<tag k="name" v="Lappheimen" />
		<tag k="place" v="locality" />
		<tag k="ssr:stedsnr" v="724769" />
	</node>
	<node id="-849486" lat="68.9053862389" lon="18.0308923117">
		<tag k="alt_name" v="Snagli Nordre;Snogli;Snagli" />
		<tag k="fixme" v="consider place=hamlet" />
		<tag k="name" v="Nordre Snagli" />
		<tag k="place" v="farm" />
		<tag k="ssr:stedsnr" v="443578" />
	</node>
	<node id="-849479" lat="68.9367861118" lon="17.7327527747">
		<tag k="name" v="Skogly" />
		<tag k="place" v="farm" />
		<tag k="ssr:stedsnr" v="442925" />
	</node>
	<node id="-849475" lat="68.9132212445" lon="17.7360680742">
		<tag k="fixme" v="consider place=hamlet" />
		<tag k="name" v="Medby" />
		<tag k="place" v="farm" />
		<tag k="ssr:stedsnr" v="442862" />
	</node>
	<node id="-849470" lat="68.9071573108" lon="17.8065605564">
		<tag k="alt_name" v="Heime" />
		<tag k="name" v="Heimet" />
		<tag k="place" v="locality" />
		<tag k="ssr:stedsnr" v="442840" />
	</node>
	<node id="-849589" lat="68.8502000009" lon="17.8113027751">
		<tag k="name" v="Labergsli" />
		<tag k="place" v="farm" />
		<tag k="ssr:stedsnr" v="359658" />
	</node>
	<node id="-849463" lat="68.8751972263" lon="17.8958000001">
		<tag k="name" v="Høglund" />
		<tag k="place" v="farm" />
		<tag k="ssr:stedsnr" v="442805" />
	</node>
	<node id="-849462" lat="68.8691722248" lon="17.7750249978">
		<tag k="name" v="Holte" />
		<tag k="place" v="farm" />
		<tag k="ssr:stedsnr" v="442799" />
	</node>
	<node id="-849461" lat="68.8592416621" lon="17.7981000009">
		<tag k="name" v="Lilund" />
		<tag k="place" v="farm" />
		<tag k="ssr:stedsnr" v="442791" />
	</node>
	<node id="-849972" lat="68.8666128064" lon="17.7851679527">
		<tag k="alt_name" v="Otterå" />
		<tag k="name" v="Otteråa" />
		<tag k="place" v="farm" />
		<tag k="ssr:stedsnr" v="685743" />
	</node>
	<node id="-849459" lat="68.851147218" lon="18.015841671">
		<tag k="name" v="Elvevollen" />
		<tag k="place" v="farm" />
		<tag k="ssr:stedsnr" v="442533" />
	</node>
	<node id="-849959" lat="68.9371916709" lon="18.0569499906">
		<tag k="name" v="Engmo" />
		<tag k="place" v="farm" />
		<tag k="ssr:stedsnr" v="665477" />
	</node>
	<node id="-849444" lat="68.9250653649" lon="18.050490252">
		<tag k="alt_name" v="Bekkeli Vestre;Bekkeli" />
		<tag k="fixme" v="consider place=hamlet" />
		<tag k="name" v="Vestre Bekkeli" />
		<tag k="place" v="farm" />
		<tag k="ssr:stedsnr" v="200663" />
	</node>
	<node id="-849953" lat="68.8716277771" lon="18.0449333398">
		<tag k="name" v="Perstua" />
		<tag k="place" v="isolated_dwelling" />
		<tag k="ssr:stedsnr" v="663664" />
	</node>
	<node id="-850970" lat="68.8956194397" lon="17.694805561">
		<tag k="name" v="Finngamman" />
		<tag k="place" v="locality" />
		<tag k="ssr:stedsnr" v="783477" />
	</node>
	<node id="-850456" lat="68.8510833321" lon="18.0938250034">
		<tag k="name" v="Hellefossmo" />
		<tag k="place" v="farm" />
		<tag k="ssr:stedsnr" v="173140" />
	</node>
	<node id="-850454" lat="68.9897582421" lon="17.7288761376">
		<tag k="fixme" v="consider place=hamlet" />
		<tag k="name" v="Katrinehaugen" />
		<tag k="place" v="farm" />
		<tag k="ssr:stedsnr" v="139987" />
	</node>
	<node id="-850453" lat="68.9853156661" lon="17.6895661474">
		<tag k="fixme" v="consider place=hamlet" />
		<tag k="name" v="Nattmålshaugen" />
		<tag k="place" v="farm" />
		<tag k="ssr:stedsnr" v="139986" />
	</node>
	<node id="-850450" lat="68.8993166666" lon="17.9930833226">
		<tag k="name" v="Bekkemoen" />
		<tag k="place" v="isolated_dwelling" />
		<tag k="ssr:stedsnr" v="139851" />
	</node>
	<node id="-850961" lat="69.003613888" lon="17.7022027633">
		<tag k="name" v="Vestertuvnes" />
		<tag k="place" v="farm" />
		<tag k="ssr:stedsnr" v="767491" />
	</node>
	<node id="-850959" lat="68.8977083318" lon="17.7945138786">
		<tag k="name" v="Indregård" />
		<tag k="place" v="hamlet" />
		<tag k="ssr:stedsnr" v="749655" />
	</node>
	<node id="-850955" lat="68.8964004458" lon="17.7964641204">
		<tag k="alt_name" v="Indregården" />
		<tag k="fixme" v="consider place=hamlet" />
		<tag k="name" v="Innergården" />
		<tag k="place" v="farm" />
		<tag k="ssr:stedsnr" v="746825" />
	</node>
	<node id="-850954" lat="68.8931027783" lon="17.8035305407">
		<tag k="alt_name" v="Mælen" />
		<tag k="name" v="Melen" />
		<tag k="place" v="farm" />
		<tag k="ssr:stedsnr" v="746821" />
	</node>
	<node id="-850519" lat="68.9640611186" lon="17.7680391444">
		<tag k="alt_name" v="Samueljord" />
		<tag k="fixme" v="consider place=hamlet" />
		<tag k="name" v="Samueljorda" />
		<tag k="place" v="farm" />
		<tag k="ssr:stedsnr" v="199891" />
	</node>
	<node id="-850950" lat="68.9012111104" lon="17.8695111008">
		<tag k="alt_name" v="Åmo" />
		<tag k="name" v="Åmoen" />
		<tag k="place" v="farm" />
		<tag k="ssr:stedsnr" v="746772" />
	</node>
	<node id="-851150" lat="68.8630111077" lon="18.0012277815">
		<tag k="name" v="Elvevollen" />
		<tag k="place" v="farm" />
		<tag k="ssr:stedsnr" v="867623" />
	</node>
	<node id="-850948" lat="68.8442972262" lon="18.0605166695">
		<tag k="alt_name" v="Tverseth" />
		<tag k="name" v="Tverrset" />
		<tag k="place" v="farm" />
		<tag k="ssr:stedsnr" v="746530" />
	</node>
	<node id="-850435" lat="68.9070722228" lon="17.8658111159">
		<tag k="fixme" v="consider place=hamlet" />
		<tag k="name" v="Seljeskogen" />
		<tag k="place" v="farm" />
		<tag k="ssr:stedsnr" v="138829" />
	</node>
</osm>
