<?xml version="1.0" encoding="UTF-8"?>
<<<<<<< HEAD
<osm version="0.6" generator="osmapis">
	<node lat="59.26879166908308" lon="9.685888889023087" id="-24019">
		<tag k="name" v="Heivannsbekken" />
		<tag k="ssr:stedsnr" v="2484" />
		<tag k="waterway" v="stream" />
	</node>
	<node lat="59.209574997367895" lon="9.844852786085827" id="-24021">
		<tag k="name" v="Vassbotn" />
		<tag k="natural" v="beach" />
		<tag k="ssr:stedsnr" v="230297" />
	</node>
	<node lat="59.22262777666955" lon="9.814869441408709" id="-24022">
		<tag k="name" v="Svensketjønn" />
		<tag k="natural" v="water" />
		<tag k="ssr:stedsnr" v="230246" />
	</node>
	<node lat="59.22484722046676" lon="9.794791673045584" id="-24024">
		<tag k="name" v="Lille Trytetjønn" />
		<tag k="natural" v="water" />
		<tag k="ssr:stedsnr" v="230270" />
	</node>
	<node lat="59.214358334105626" lon="9.855691664377206" id="-24025">
		<tag k="name" v="Moholttangen" />
		<tag k="natural" v="cape" />
		<tag k="ssr:stedsnr" v="230275" />
	</node>
	<node lat="59.24599166994287" lon="9.777866674017849" id="-24035">
		<tag k="name" v="Struten" />
		<tag k="natural" v="bay" />
		<tag k="ssr:stedsnr" v="231053" />
	</node>
	<node lat="59.31840833021132" lon="9.733880548558684" id="-24040">
		<tag k="name" v="Aslakstjønn" />
		<tag k="natural" v="water" />
		<tag k="ssr:stedsnr" v="231409" />
	</node>
	<node lat="59.3832166648045" lon="9.685658328801914" id="-24054">
		<tag k="name" v="Sporevann" />
		<tag k="natural" v="water" />
		<tag k="ssr:stedsnr" v="63318" />
		<tag k="water" v="lake" />
	</node>
	<node lat="59.330299997651494" lon="9.596330548694993" id="-24057">
		<tag k="name" v="Småholbekken" />
		<tag k="ssr:stedsnr" v="63382" />
		<tag k="waterway" v="stream" />
	</node>
	<node lat="59.062308335297594" lon="10.008838894486331" id="-24059">
		<tag k="alt_name" v="Farrisvatnet" />
		<tag k="name" v="Farris" />
		<tag k="natural" v="water" />
		<tag k="ssr:stedsnr" v="244615" />
		<tag k="water" v="lake" />
	</node>
	<node lat="59.3320638916994" lon="9.701997217279494" id="-24064">
		<tag k="name" v="Urdetjønn" />
=======
<osm generator="osmapis" version="0.6">
	<node id="-430080" lat="59.3427277774" lon="9.75639999686">
		<tag k="loc_name" v="Stubbekolltjern" />
		<tag k="name" v="Stubbekolltjørn" />
>>>>>>> e1d4bc35ff8a6074a6f2e91616a996b547c36f15
		<tag k="natural" v="water" />
		<tag k="ssr:stedsnr" v="245318" />
	</node>
<<<<<<< HEAD
	<node lat="59.33083889248896" lon="9.712811111168355" id="-24065">
=======
	<node id="-429568" lat="59.3115944142" lon="9.69387467289">
		<tag k="name" v="Tveitantjønn" />
		<tag k="natural" v="water" />
		<tag k="ssr:stedsnr" v="245412" />
	</node>
	<node id="-429564" lat="59.3308388925" lon="9.71281111117">
>>>>>>> e1d4bc35ff8a6074a6f2e91616a996b547c36f15
		<tag k="alt_name" v="Midttjønn" />
		<tag k="name" v="Midttjørn" />
		<tag k="natural" v="water" />
		<tag k="ssr:stedsnr" v="245319" />
	</node>
<<<<<<< HEAD
	<node lat="59.284145487182094" lon="9.810553378939174" id="-24067">
		<tag k="alt_name" v="Hauksjø" />
		<tag k="name" v="Haukesjø" />
=======
	<node id="-429563" lat="59.3320638917" lon="9.70199721728">
		<tag k="name" v="Urdetjønn" />
		<tag k="natural" v="water" />
		<tag k="ssr:stedsnr" v="245318" />
	</node>
	<node id="-430073" lat="59.3133500017" lon="9.74283611575">
		<tag k="alt_name" v="Gåladammen" />
		<tag k="name" v="Gålådammen" />
>>>>>>> e1d4bc35ff8a6074a6f2e91616a996b547c36f15
		<tag k="natural" v="water" />
		<tag k="ssr:stedsnr" v="245469" />
	</node>
<<<<<<< HEAD
	<node lat="59.257630552488244" lon="9.852944451059187" id="-24085">
		<tag k="name" v="Heidippel" />
=======
	<node id="-430072" lat="59.3017416641" lon="9.76581665849">
		<tag k="alt_name" v="Torkiltjørn" />
		<tag k="name" v="Torkildstjønn" />
>>>>>>> e1d4bc35ff8a6074a6f2e91616a996b547c36f15
		<tag k="natural" v="water" />
		<tag k="ssr:stedsnr" v="170870" />
	</node>
<<<<<<< HEAD
	<node lat="59.23187229408228" lon="9.774559059060609" id="-24086">
		<tag k="name" v="Lommetjønn" />
		<tag k="natural" v="water" />
		<tag k="ssr:stedsnr" v="183644" />
	</node>
	<node lat="59.28536111247167" lon="9.713200007254118" id="-24092">
=======
	<node id="-430066" lat="59.2209861083" lon="9.8020611128">
		<tag k="name" v="Trytetjønn" />
		<tag k="natural" v="water" />
		<tag k="ssr:stedsnr" v="304744" />
	</node>
	<node id="-430062" lat="59.3848250042" lon="9.67166110818">
		<tag k="loc_name" v="Maslaus" />
		<tag k="name" v="Matslaus" />
		<tag k="natural" v="strait" />
		<tag k="ssr:stedsnr" v="185282" />
	</node>
	<node id="-430060" lat="59.2853611125" lon="9.71320000725">
>>>>>>> e1d4bc35ff8a6074a6f2e91616a996b547c36f15
		<tag k="name" v="Siljanelva" />
		<tag k="ssr:stedsnr" v="184506" />
		<tag k="waterway" v="river" />
	</node>
<<<<<<< HEAD
	<node lat="59.19896666869351" lon="9.87088610385415" id="-24094">
		<tag k="name" v="Sprena" />
		<tag k="ssr:stedsnr" v="230311" />
		<tag k="waterway" v="stream" />
	</node>
	<node lat="59.31375277823527" lon="9.595025003109546" id="-24097">
=======
	<node id="-430052" lat="59.2948250019" lon="9.63700277168">
		<tag k="name" v="Frotjønnsbekken" />
		<tag k="ssr:stedsnr" v="184403" />
		<tag k="waterway" v="stream" />
	</node>
	<node id="-430050" lat="59.297188892" lon="9.73369166912">
		<tag k="name" v="Lystjønn" />
		<tag k="natural" v="water" />
		<tag k="ssr:stedsnr" v="184392" />
	</node>
	<node id="-430049" lat="59.3458277809" lon="9.66383888371">
		<tag k="name" v="Vanebuvann" />
		<tag k="natural" v="water" />
		<tag k="ssr:stedsnr" v="184376" />
		<tag k="water" v="lake" />
	</node>
	<node id="-429535" lat="59.3137527782" lon="9.59502500311">
>>>>>>> e1d4bc35ff8a6074a6f2e91616a996b547c36f15
		<tag k="name" v="Tømmerdalsbekk" />
		<tag k="ssr:stedsnr" v="230433" />
		<tag k="waterway" v="stream" />
	</node>
<<<<<<< HEAD
	<node lat="59.311594414203604" lon="9.693874672890876" id="-24112">
		<tag k="name" v="Tveitantjønn" />
		<tag k="natural" v="water" />
		<tag k="ssr:stedsnr" v="245412" />
	</node>
	<node lat="59.301741664126844" lon="9.765816658489642" id="-24126">
		<tag k="alt_name" v="Torkiltjørn" />
		<tag k="name" v="Torkildstjønn" />
=======
	<node id="-430046" lat="59.4024611138" lon="9.64724722611">
		<tag k="loc_name" v="Romsdalsvann" />
		<tag k="name" v="Romsdalsvannet" />
		<tag k="natural" v="water" />
		<tag k="ssr:stedsnr" v="184304" />
	</node>
	<node id="-429533" lat="59.2095749974" lon="9.84485278609">
		<tag k="name" v="Vassbotn" />
		<tag k="natural" v="beach" />
		<tag k="ssr:stedsnr" v="230297" />
	</node>
	<node id="-430044" lat="59.35693611" lon="9.74737500104">
		<tag k="name" v="Kringlevann" />
>>>>>>> e1d4bc35ff8a6074a6f2e91616a996b547c36f15
		<tag k="natural" v="water" />
		<tag k="ssr:stedsnr" v="305428" />
	</node>
<<<<<<< HEAD
	<node lat="59.313350001715825" lon="9.742836115747714" id="-24127">
		<tag k="alt_name" v="Gåladammen" />
		<tag k="name" v="Gålådammen" />
=======
	<node id="-430042" lat="59.2318722941" lon="9.77455905906">
		<tag k="name" v="Lommetjønn" />
>>>>>>> e1d4bc35ff8a6074a6f2e91616a996b547c36f15
		<tag k="natural" v="water" />
		<tag k="ssr:stedsnr" v="305442" />
	</node>
<<<<<<< HEAD
	<node lat="59.41727777550152" lon="9.632552776630593" id="-24129">
		<tag k="loc_name" v="Kapteinstjern" />
		<tag k="name" v="Kapteinstjørn" />
		<tag k="natural" v="water" />
		<tag k="ssr:stedsnr" v="306508" />
	</node>
	<node lat="59.24233611546662" lon="9.764141675346101" id="-24132">
		<tag k="name" v="Loppedåpan" />
=======
	<node id="-430037" lat="59.2576305525" lon="9.85294445106">
		<tag k="name" v="Heidippel" />
		<tag k="natural" v="water" />
		<tag k="ssr:stedsnr" v="170870" />
	</node>
	<node id="-430026" lat="59.2298888855" lon="9.76347500403">
		<tag k="name" v="Sandbekk" />
		<tag k="ssr:stedsnr" v="170147" />
		<tag k="waterway" v="stream" />
	</node>
	<node id="-430021" lat="59.2227638857" lon="9.8383861085">
		<tag k="name" v="Skålebekk" />
		<tag k="ssr:stedsnr" v="169269" />
		<tag k="waterway" v="stream" />
	</node>
	<node id="-430020" lat="59.2052833298" lon="9.8625027825">
		<tag k="name" v="Sundet" />
		<tag k="natural" v="strait" />
		<tag k="ssr:stedsnr" v="169267" />
	</node>
	<node id="-430009" lat="59.3273805569" lon="9.75152499776">
		<tag k="alt_name" v="Vindfjelltjørn" />
		<tag k="name" v="Vindfjelltjønn" />
>>>>>>> e1d4bc35ff8a6074a6f2e91616a996b547c36f15
		<tag k="natural" v="water" />
		<tag k="ssr:stedsnr" v="473133" />
		<tag k="water" v="pond" />
	</node>
<<<<<<< HEAD
	<node lat="59.261008332710986" lon="9.782305560009478" id="-24144">
		<tag k="name" v="Tangen" />
		<tag k="natural" v="cape" />
		<tag k="ssr:stedsnr" v="473756" />
	</node>
	<node lat="59.206402774132115" lon="9.855297219030973" id="-24153">
		<tag k="name" v="Lauvvika" />
		<tag k="natural" v="bay" />
		<tag k="ssr:stedsnr" v="351303" />
	</node>
	<node lat="59.21968611106345" lon="9.778680557820783" id="-24154">
		<tag k="name" v="Setertjønn" />
=======
	<node id="-430007" lat="59.2555361081" lon="9.84813055387">
		<tag k="name" v="Diplene" />
		<tag k="natural" v="water" />
		<tag k="ssr:stedsnr" v="123038" />
	</node>
	<node id="-429988" lat="59.3081944447" lon="9.69839722116">
		<tag k="name" v="Kløverødtjønn" />
>>>>>>> e1d4bc35ff8a6074a6f2e91616a996b547c36f15
		<tag k="natural" v="water" />
		<tag k="ssr:stedsnr" v="351212" />
	</node>
<<<<<<< HEAD
	<node lat="59.26006944030254" lon="9.790413893362755" id="-24158">
		<tag k="name" v="Vika" />
		<tag k="natural" v="bay" />
		<tag k="ssr:stedsnr" v="351752" />
	</node>
	<node lat="59.2608388889876" lon="9.840361103847805" id="-24161">
		<tag k="name" v="Stuedippel" />
		<tag k="natural" v="water" />
		<tag k="ssr:stedsnr" v="352824" />
	</node>
	<node lat="59.2918916706572" lon="9.624319449978385" id="-24168">
		<tag k="name" v="Frotjenn" />
=======
	<node id="-429985" lat="59.3302999977" lon="9.59633054869">
		<tag k="name" v="Småholbekken" />
		<tag k="ssr:stedsnr" v="63382" />
		<tag k="waterway" v="stream" />
	</node>
	<node id="-429979" lat="59.3832166648" lon="9.6856583288">
		<tag k="name" v="Sporevann" />
>>>>>>> e1d4bc35ff8a6074a6f2e91616a996b547c36f15
		<tag k="natural" v="water" />
		<tag k="ssr:stedsnr" v="366508" />
	</node>
<<<<<<< HEAD
	<node lat="59.22690555663761" lon="9.80655833808479" id="-24173">
		<tag k="name" v="Trolletjønn" />
=======
	<node id="-429975" lat="59.2205305521" lon="9.77053333401">
		<tag k="name" v="Langevann" />
>>>>>>> e1d4bc35ff8a6074a6f2e91616a996b547c36f15
		<tag k="natural" v="water" />
		<tag k="ssr:stedsnr" v="412002" />
	</node>
<<<<<<< HEAD
	<node lat="59.2622861128908" lon="9.780219444154582" id="-24184">
		<tag k="name" v="Geitøya" />
		<tag k="place" v="island" />
		<tag k="ssr:stedsnr" v="412706" />
	</node>
	<node lat="59.40505555956848" lon="9.678877776320693" id="-24191">
		<tag k="name" v="Godvann" />
		<tag k="natural" v="water" />
		<tag k="ssr:stedsnr" v="488261" />
	</node>
	<node lat="59.30105909119158" lon="9.741215222277031" id="-24197">
		<tag k="name" v="Sørbøsetertjønn" />
		<tag k="natural" v="water" />
		<tag k="ssr:stedsnr" v="427426" />
	</node>
	<node lat="59.22753055619922" lon="9.787291674142514" id="-24202">
		<tag k="name" v="Igletjønn" />
=======
	<node id="-429973" lat="59.2545055529" lon="9.85035833978">
		<tag k="name" v="Elgtjønndippel" />
		<tag k="natural" v="water" />
		<tag k="ssr:stedsnr" v="49837" />
	</node>
	<node id="-429971" lat="59.2516194436" lon="9.74263610713">
		<tag k="name" v="Søndre Serklandstjønn" />
		<tag k="natural" v="water" />
		<tag k="ssr:stedsnr" v="49793" />
	</node>
	<node id="-430231" lat="59.2401833322" lon="9.80558888377">
		<tag k="name" v="Kistefossen" />
		<tag k="natural" v="waterfall" />
		<tag k="ssr:stedsnr" v="594071" />
	</node>
	<node id="-430230" lat="59.2311888892" lon="9.80297499839">
		<tag k="name" v="Skarvetjønn" />
		<tag k="natural" v="water" />
		<tag k="ssr:stedsnr" v="594001" />
	</node>
	<node id="-429946" lat="59.2150777762" lon="9.85686388733">
		<tag k="name" v="Maurtangen" />
		<tag k="natural" v="cape" />
		<tag k="ssr:stedsnr" v="48260" />
	</node>
	<node id="-429939" lat="59.2687916691" lon="9.68588888902">
		<tag k="name" v="Heivannsbekken" />
		<tag k="ssr:stedsnr" v="2484" />
		<tag k="waterway" v="stream" />
	</node>
	<node id="-430141" lat="59.2459166626" lon="9.79110000656">
		<tag k="name" v="Gorningdammen" />
		<tag k="ssr:stedsnr" v="412036" />
		<tag k="waterway" v="dam" />
	</node>
	<node id="-429930" lat="59.3761555599" lon="9.69276666634">
		<tag k="loc_name" v="Brudetjern" />
		<tag k="name" v="Brudetjørn" />
>>>>>>> e1d4bc35ff8a6074a6f2e91616a996b547c36f15
		<tag k="natural" v="water" />
		<tag k="ssr:stedsnr" v="473106" />
	</node>
<<<<<<< HEAD
	<node lat="59.22419167108536" lon="9.808644441733199" id="-24204">
		<tag k="name" v="Auretjønn" />
=======
	<node id="-430223" lat="59.2479666656" lon="9.7870555641">
		<tag k="name" v="Gorningen" />
		<tag k="natural" v="water" />
		<tag k="ssr:stedsnr" v="548631" />
		<tag k="water" v="lake" />
	</node>
	<node id="-429890" lat="59.4018794267" lon="9.65554934083">
		<tag k="name" v="Smalvann" />
>>>>>>> e1d4bc35ff8a6074a6f2e91616a996b547c36f15
		<tag k="natural" v="water" />
		<tag k="ssr:stedsnr" v="473270" />
	</node>
<<<<<<< HEAD
	<node lat="59.33703610778108" lon="9.700213888015519" id="-24220">
		<tag k="loc_name" v="Stortjern" />
		<tag k="name" v="Stortjørn" />
		<tag k="natural" v="water" />
		<tag k="ssr:stedsnr" v="488323" />
	</node>
	<node lat="59.3600749978439" lon="9.758683328737703" id="-24221">
		<tag k="name" v="Krokvann" />
=======
	<node id="-429886" lat="59.2594055578" lon="9.76320554709">
		<tag k="name" v="Grimståa" />
		<tag k="natural" v="beach" />
		<tag k="ssr:stedsnr" v="838711" />
	</node>
	<node id="-429883" lat="59.2718138853" lon="9.68810832706">
		<tag k="name" v="Galtetjønn" />
>>>>>>> e1d4bc35ff8a6074a6f2e91616a996b547c36f15
		<tag k="natural" v="water" />
		<tag k="ssr:stedsnr" v="495669" />
		<tag k="water" v="lake" />
	</node>
<<<<<<< HEAD
	<node lat="59.24406944418703" lon="9.794924994975887" id="-24223">
		<tag k="alt_name" v="Lauv" />
		<tag k="name" v="Lau" />
=======
	<node id="-429881" lat="59.2398291505" lon="9.76011119445">
		<tag k="alt_name" v="Blokktjørn" />
		<tag k="name" v="Blokktjønn" />
>>>>>>> e1d4bc35ff8a6074a6f2e91616a996b547c36f15
		<tag k="natural" v="water" />
		<tag k="ssr:stedsnr" v="509916" />
	</node>
<<<<<<< HEAD
	<node lat="59.26504722150119" lon="9.76027778382236" id="-24231">
		<tag k="name" v="Skittmyrbukta" />
		<tag k="natural" v="bay" />
		<tag k="ssr:stedsnr" v="534711" />
	</node>
	<node lat="59.33456666672073" lon="9.75131389761165" id="-24240">
		<tag k="loc_name" v="Snipetjern" />
		<tag k="name" v="Snipetjørn" />
		<tag k="natural" v="water" />
		<tag k="ssr:stedsnr" v="548363" />
	</node>
	<node lat="59.23118888922269" lon="9.802974998388477" id="-24248">
		<tag k="name" v="Skarvetjønn" />
=======
	<node id="-429534" lat="59.2226277767" lon="9.81486944141">
		<tag k="name" v="Svensketjønn" />
		<tag k="natural" v="water" />
		<tag k="ssr:stedsnr" v="230246" />
	</node>
	<node id="-429867" lat="59.2524694424" lon="9.695566663">
		<tag k="name" v="Meitjønnbekken" />
		<tag k="ssr:stedsnr" v="776713" />
		<tag k="waterway" v="stream" />
	</node>
	<node id="-430215" lat="59.2816333369" lon="9.76004999636">
		<tag k="name" v="Hvalpetjønn" />
		<tag k="natural" v="water" />
		<tag k="ssr:stedsnr" v="548479" />
	</node>
	<node id="-429863" lat="59.2676861099" lon="9.78161666976">
		<tag k="name" v="Nedre Sortedalstjønn" />
>>>>>>> e1d4bc35ff8a6074a6f2e91616a996b547c36f15
		<tag k="natural" v="water" />
		<tag k="ssr:stedsnr" v="594001" />
	</node>
<<<<<<< HEAD
	<node lat="59.2272736698794" lon="9.86920109855171" id="-24257">
		<tag k="name" v="Svartangen" />
=======
	<node id="-429860" lat="59.383966666" lon="9.6380999925">
		<tag k="name" v="Rumpetjenn" />
>>>>>>> e1d4bc35ff8a6074a6f2e91616a996b547c36f15
		<tag k="natural" v="water" />
		<tag k="ssr:stedsnr" v="607718" />
	</node>
<<<<<<< HEAD
	<node lat="59.319188892124515" lon="9.711936118822374" id="-24258">
		<tag k="alt_name" v="Stakatjønn" />
		<tag k="name" v="Stakatjørn" />
=======
	<node id="-429858" lat="59.2450476614" lon="9.8648873707">
		<tag k="name" v="Kolletjønn" />
>>>>>>> e1d4bc35ff8a6074a6f2e91616a996b547c36f15
		<tag k="natural" v="water" />
		<tag k="ssr:stedsnr" v="608439" />
	</node>
<<<<<<< HEAD
	<node lat="59.32066666552614" lon="9.737427774758778" id="-24263">
		<tag k="name" v="Sandåa" />
		<tag k="ssr:stedsnr" v="609314" />
		<tag k="waterway" v="stream" />
	</node>
	<node lat="59.40622500234159" lon="9.701236115697593" id="-24265">
		<tag k="name" v="Mykleelva" />
		<tag k="ssr:stedsnr" v="609284" />
		<tag k="waterway" v="river" />
	</node>
	<node lat="59.22399166327013" lon="9.766161119062001" id="-24272">
		<tag k="name" v="Bråtatjønn" />
=======
	<node id="-430364" lat="59.2050416665" lon="9.85576944246">
		<tag k="name" v="Tyskebekk" />
		<tag k="ssr:stedsnr" v="958321" />
		<tag k="waterway" v="stream" />
	</node>
	<node id="-429851" lat="59.3472638886" lon="9.6312861129">
		<tag k="loc_name" v="Skottjern" />
		<tag k="name" v="Skottjørn" />
		<tag k="natural" v="water" />
		<tag k="ssr:stedsnr" v="912380" />
	</node>
	<node id="-429849" lat="59.2246499982" lon="9.82660555129">
		<tag k="name" v="Moholttjønn" />
>>>>>>> e1d4bc35ff8a6074a6f2e91616a996b547c36f15
		<tag k="natural" v="water" />
		<tag k="ssr:stedsnr" v="655202" />
	</node>
<<<<<<< HEAD
	<node lat="59.26436944476396" lon="9.764505548894958" id="-24281">
		<tag k="name" v="Spirodden" />
		<tag k="natural" v="cape" />
		<tag k="ssr:stedsnr" v="655801" />
	</node>
	<node lat="59.30526111269662" lon="9.642033334183711" id="-24285">
		<tag k="name" v="Rødstjønn" />
=======
	<node id="-430359" lat="59.3899027762" lon="9.74067500279">
		<tag k="loc_name" v="Elgstjern" />
		<tag k="name" v="Elgetjørn" />
>>>>>>> e1d4bc35ff8a6074a6f2e91616a996b547c36f15
		<tag k="natural" v="water" />
		<tag k="ssr:stedsnr" v="669422" />
	</node>
<<<<<<< HEAD
	<node lat="59.284283334313145" lon="9.683797216424667" id="-24289">
		<tag k="name" v="Galtetjønnbekken" />
		<tag k="ssr:stedsnr" v="669515" />
		<tag k="waterway" v="stream" />
	</node>
	<node lat="59.410825002446714" lon="9.7574055512238" id="-24290">
		<tag k="loc_name" v="Raubern" />
		<tag k="name" v="Raudberen" />
=======
	<node id="-430358" lat="59.3887861108" lon="9.6721611171">
		<tag k="name" v="Brennøya" />
		<tag k="place" v="island" />
		<tag k="ssr:stedsnr" v="852296" />
	</node>
	<node id="-430357" lat="59.2619111101" lon="9.67269722331">
		<tag k="name" v="Heivannet" />
>>>>>>> e1d4bc35ff8a6074a6f2e91616a996b547c36f15
		<tag k="natural" v="water" />
		<tag k="ssr:stedsnr" v="670489" />
		<tag k="water" v="lake" />
	</node>
<<<<<<< HEAD
	<node lat="59.21243333392377" lon="9.849508336025828" id="-24303">
		<tag k="name" v="Kvislapollen" />
		<tag k="natural" v="water" />
		<tag k="ssr:stedsnr" v="898280" />
	</node>
	<node lat="59.205630558415564" lon="9.86608333327463" id="-24304">
		<tag k="name" v="Treskillingen" />
		<tag k="place" v="islet" />
		<tag k="ssr:stedsnr" v="898281" />
	</node>
	<node lat="59.32934166305624" lon="9.737463883304224" id="-24305">
=======
	<node id="-429835" lat="59.2659250017" lon="9.77349166437">
		<tag k="name" v="Langevelsbukta" />
		<tag k="natural" v="bay" />
		<tag k="ssr:stedsnr" v="898800" />
	</node>
	<node id="-429834" lat="59.2532749967" lon="9.78315000209">
		<tag k="name" v="Langøya" />
		<tag k="place" v="island" />
		<tag k="ssr:stedsnr" v="898777" />
	</node>
	<node id="-430343" lat="59.3193833342" lon="9.73446666425">
		<tag k="name" v="Speilen" />
		<tag k="natural" v="water" />
		<tag k="ssr:stedsnr" v="838389" />
	</node>
	<node id="-429823" lat="59.3293416631" lon="9.7374638833">
>>>>>>> e1d4bc35ff8a6074a6f2e91616a996b547c36f15
		<tag k="name" v="Snipetjønnbekken" />
		<tag k="ssr:stedsnr" v="898342" />
		<tag k="waterway" v="stream" />
	</node>
<<<<<<< HEAD
	<node lat="59.25327499665927" lon="9.783150002093407" id="-24311">
		<tag k="name" v="Langøya" />
		<tag k="place" v="island" />
		<tag k="ssr:stedsnr" v="898777" />
	</node>
	<node lat="59.26592500168387" lon="9.773491664371925" id="-24312">
		<tag k="name" v="Langevelsbukta" />
		<tag k="natural" v="bay" />
		<tag k="ssr:stedsnr" v="898800" />
	</node>
	<node lat="59.268013884788004" lon="9.794272225980908" id="-24336">
		<tag k="name" v="Øvre Sortedalstjønn" />
=======
	<node id="-429822" lat="59.2056305584" lon="9.86608333327">
		<tag k="name" v="Treskillingen" />
		<tag k="place" v="islet" />
		<tag k="ssr:stedsnr" v="898281" />
	</node>
	<node id="-429821" lat="59.2124333339" lon="9.84950833603">
		<tag k="name" v="Kvislapollen" />
		<tag k="natural" v="water" />
		<tag k="ssr:stedsnr" v="898280" />
	</node>
	<node id="-430330" lat="59.2178944489" lon="9.84851110451">
		<tag k="name" v="Ormetjønn" />
>>>>>>> e1d4bc35ff8a6074a6f2e91616a996b547c36f15
		<tag k="natural" v="water" />
		<tag k="ssr:stedsnr" v="730465" />
	</node>
<<<<<<< HEAD
	<node lat="59.27181388533196" lon="9.688108327060021" id="-24361">
		<tag k="name" v="Galtetjønn" />
		<tag k="natural" v="water" />
		<tag k="ssr:stedsnr" v="791437" />
	</node>
	<node lat="59.34726388855078" lon="9.631286112899593" id="-24365">
		<tag k="loc_name" v="Skottjern" />
		<tag k="name" v="Skottjørn" />
		<tag k="natural" v="water" />
		<tag k="ssr:stedsnr" v="912380" />
	</node>
	<node lat="59.24504766137497" lon="9.864887370700302" id="-24369">
		<tag k="name" v="Kolletjønn" />
		<tag k="natural" v="water" />
		<tag k="ssr:stedsnr" v="912667" />
	</node>
	<node lat="59.38396666600293" lon="9.638099992502937" id="-24370">
		<tag k="name" v="Rumpetjenn" />
=======
	<node id="-430120" lat="59.2542222236" lon="9.68013888978">
		<tag k="name" v="Meitjenn" />
		<tag k="natural" v="water" />
		<tag k="ssr:stedsnr" v="366036" />
	</node>
	<node id="-430318" lat="59.2841416694" lon="9.66255555687">
		<tag k="name" v="Seterdalsbekken" />
		<tag k="ssr:stedsnr" v="791481" />
		<tag k="waterway" v="stream" />
	</node>
	<node id="-430316" lat="59.2751138909" lon="9.81705000553">
		<tag k="name" v="Movannet" />
>>>>>>> e1d4bc35ff8a6074a6f2e91616a996b547c36f15
		<tag k="natural" v="water" />
		<tag k="ssr:stedsnr" v="913280" />
	</node>
<<<<<<< HEAD
	<node lat="59.267686109853955" lon="9.781616669761007" id="-24372">
		<tag k="name" v="Nedre Sortedalstjønn" />
=======
	<node id="-430314" lat="59.239925003" lon="9.76080554802">
		<tag k="name" v="Bjoretjønn" />
>>>>>>> e1d4bc35ff8a6074a6f2e91616a996b547c36f15
		<tag k="natural" v="water" />
		<tag k="ssr:stedsnr" v="913430" />
	</node>
<<<<<<< HEAD
	<node lat="59.319383334162715" lon="9.734466664245405" id="-24386">
		<tag k="name" v="Speilen" />
		<tag k="natural" v="water" />
		<tag k="ssr:stedsnr" v="838389" />
	</node>
	<node lat="59.25940555781066" lon="9.763205547088331" id="-24387">
		<tag k="name" v="Grimståa" />
		<tag k="natural" v="beach" />
		<tag k="ssr:stedsnr" v="838711" />
	</node>
	<node lat="59.401879426675514" lon="9.655549340826674" id="-24392">
		<tag k="name" v="Smalvann" />
		<tag k="natural" v="water" />
		<tag k="ssr:stedsnr" v="852306" />
	</node>
	<node lat="59.22464999823027" lon="9.826605551291161" id="-24409">
		<tag k="name" v="Moholttjønn" />
=======
	<node id="-430204" lat="59.25551111" lon="9.73660000673">
		<tag k="fixme" v="multiple name tags, choose one and add the other to alt_name" />
		<tag k="name" v="Serklandstjønna;Nordre Serklandstjønn" />
		<tag k="natural" v="water" />
		<tag k="ssr:stedsnr" v="548045" />
	</node>
	<node id="-429795" lat="59.3052611127" lon="9.64203333418">
		<tag k="name" v="Rødstjønn" />
		<tag k="natural" v="water" />
		<tag k="ssr:stedsnr" v="669422" />
	</node>
	<node id="-429784" lat="59.3946499978" lon="9.66655555997">
		<tag k="loc_name" v="Lysetjern" />
		<tag k="name" v="Lystjørn" />
>>>>>>> e1d4bc35ff8a6074a6f2e91616a996b547c36f15
		<tag k="natural" v="water" />
		<tag k="ssr:stedsnr" v="911746" />
	</node>
<<<<<<< HEAD
	<node lat="59.37615555986623" lon="9.692766666337667" id="-24426">
		<tag k="loc_name" v="Brudetjern" />
		<tag k="name" v="Brudetjørn" />
=======
	<node id="-429783" lat="59.3953138911" lon="9.7709527771">
		<tag k="loc_name" v="Bånntjern" />
		<tag k="name" v="Bånntjørn" />
>>>>>>> e1d4bc35ff8a6074a6f2e91616a996b547c36f15
		<tag k="natural" v="water" />
		<tag k="ssr:stedsnr" v="2300" />
	</node>
<<<<<<< HEAD
	<node lat="59.215077776228526" lon="9.856863887330027" id="-24444">
		<tag k="name" v="Maurtangen" />
=======
	<node id="-430293" lat="59.2106777794" lon="9.85294721519">
		<tag k="name" v="Odden" />
>>>>>>> e1d4bc35ff8a6074a6f2e91616a996b547c36f15
		<tag k="natural" v="cape" />
		<tag k="ssr:stedsnr" v="48260" />
	</node>
<<<<<<< HEAD
	<node lat="59.2516194435594" lon="9.742636107125398" id="-24460">
		<tag k="name" v="Søndre Serklandstjønn" />
		<tag k="natural" v="water" />
		<tag k="ssr:stedsnr" v="49793" />
	</node>
	<node lat="59.254505552911155" lon="9.85035833978332" id="-24463">
		<tag k="name" v="Elgtjønndippel" />
=======
	<node id="-429779" lat="59.3261555562" lon="9.66642776977">
		<tag k="name" v="Vanebuelva" />
		<tag k="ssr:stedsnr" v="730331" />
		<tag k="waterway" v="river" />
	</node>
	<node id="-429776" lat="59.2811558029" lon="9.74104616871">
		<tag k="name" v="Øverbøtjønn" />
>>>>>>> e1d4bc35ff8a6074a6f2e91616a996b547c36f15
		<tag k="natural" v="water" />
		<tag k="ssr:stedsnr" v="49837" />
	</node>
<<<<<<< HEAD
	<node lat="59.22053055207023" lon="9.77053333401305" id="-24464">
		<tag k="name" v="Langevann" />
		<tag k="natural" v="water" />
		<tag k="ssr:stedsnr" v="62733" />
	</node>
	<node lat="59.3081944446821" lon="9.698397221162105" id="-24472">
		<tag k="name" v="Kløverødtjønn" />
=======
	<node id="-429774" lat="59.2749861143" lon="9.6526499989">
		<tag k="name" v="Havretjennbekken" />
		<tag k="ssr:stedsnr" v="730493" />
		<tag k="waterway" v="stream" />
	</node>
	<node id="-429771" lat="59.2680138848" lon="9.79427222598">
		<tag k="name" v="Øvre Sortedalstjønn" />
>>>>>>> e1d4bc35ff8a6074a6f2e91616a996b547c36f15
		<tag k="natural" v="water" />
		<tag k="ssr:stedsnr" v="63433" />
	</node>
<<<<<<< HEAD
	<node lat="59.25553610805064" lon="9.848130553865818" id="-24486">
		<tag k="name" v="Diplene" />
		<tag k="natural" v="water" />
		<tag k="ssr:stedsnr" v="123038" />
	</node>
	<node lat="59.327380556871944" lon="9.751524997763001" id="-24488">
		<tag k="alt_name" v="Vindfjelltjørn" />
		<tag k="name" v="Vindfjelltjønn" />
=======
	<node id="-430278" lat="59.2239916633" lon="9.76616111906">
		<tag k="name" v="Bråtatjønn" />
>>>>>>> e1d4bc35ff8a6074a6f2e91616a996b547c36f15
		<tag k="natural" v="water" />
		<tag k="ssr:stedsnr" v="123363" />
	</node>
<<<<<<< HEAD
	<node lat="59.319519446882325" lon="9.632991667032595" id="-24495">
		<tag k="name" v="Sølverødbekken" />
		<tag k="ssr:stedsnr" v="124290" />
		<tag k="waterway" v="stream" />
	</node>
	<node lat="59.20528332976297" lon="9.86250278250462" id="-24498">
		<tag k="name" v="Sundet" />
		<tag k="natural" v="strait" />
		<tag k="ssr:stedsnr" v="169267" />
	</node>
	<node lat="59.2227638856818" lon="9.83838610850034" id="-24499">
		<tag k="name" v="Skålebekk" />
		<tag k="ssr:stedsnr" v="169269" />
		<tag k="waterway" v="stream" />
	</node>
	<node lat="59.22988888550317" lon="9.763475004032937" id="-24503">
		<tag k="name" v="Sandbekk" />
		<tag k="ssr:stedsnr" v="170147" />
		<tag k="waterway" v="stream" />
	</node>
	<node lat="59.40246111376996" lon="9.6472472261092" id="-24520">
		<tag k="loc_name" v="Romsdalsvann" />
		<tag k="name" v="Romsdalsvannet" />
=======
	<node id="-430274" lat="59.3206666655" lon="9.73742777476">
		<tag k="name" v="Sandåa" />
		<tag k="ssr:stedsnr" v="609314" />
		<tag k="waterway" v="stream" />
	</node>
	<node id="-430370" lat="59.2286972189" lon="9.78109445056">
		<tag k="name" v="Ormebekk" />
		<tag k="ssr:stedsnr" v="959077" />
		<tag k="waterway" v="stream" />
	</node>
	<node id="-430271" lat="59.4062250023" lon="9.7012361157">
		<tag k="name" v="Mykleelva" />
		<tag k="ssr:stedsnr" v="609284" />
		<tag k="waterway" v="river" />
	</node>
	<node id="-430270" lat="59.389761115" lon="9.72128333093">
		<tag k="loc_name" v="Videtjern" />
		<tag k="name" v="Videtjørn" />
		<tag k="natural" v="water" />
		<tag k="ssr:stedsnr" v="609281" />
	</node>
	<node id="-430268" lat="59.3899638913" lon="9.63722222481">
		<tag k="loc_name" v="Lommetjern" />
		<tag k="name" v="Lometjørn" />
>>>>>>> e1d4bc35ff8a6074a6f2e91616a996b547c36f15
		<tag k="natural" v="water" />
		<tag k="ssr:stedsnr" v="184304" />
	</node>
<<<<<<< HEAD
	<node lat="59.35693611003066" lon="9.747375001041528" id="-24521">
		<tag k="name" v="Kringlevann" />
=======
	<node id="-430265" lat="59.2172000038" lon="9.8202250059">
		<tag k="name" v="Moanetjønn" />
>>>>>>> e1d4bc35ff8a6074a6f2e91616a996b547c36f15
		<tag k="natural" v="water" />
		<tag k="ssr:stedsnr" v="184252" />
	</node>
<<<<<<< HEAD
	<node lat="59.29718889200025" lon="9.733691669121775" id="-24522">
		<tag k="name" v="Lystjønn" />
=======
	<node id="-430262" lat="59.3191888921" lon="9.71193611882">
		<tag k="alt_name" v="Stakatjønn" />
		<tag k="name" v="Stakatjørn" />
>>>>>>> e1d4bc35ff8a6074a6f2e91616a996b547c36f15
		<tag k="natural" v="water" />
		<tag k="ssr:stedsnr" v="184392" />
	</node>
<<<<<<< HEAD
	<node lat="59.29482500191512" lon="9.637002771681173" id="-24524">
		<tag k="name" v="Frotjønnsbekken" />
		<tag k="ssr:stedsnr" v="184403" />
		<tag k="waterway" v="stream" />
	</node>
	<node lat="59.345827780910064" lon="9.663838883711907" id="-24528">
		<tag k="name" v="Vanebuvann" />
=======
	<node id="-430259" lat="59.3805652628" lon="9.76540690428">
		<tag k="name" v="Kolsvanna" />
>>>>>>> e1d4bc35ff8a6074a6f2e91616a996b547c36f15
		<tag k="natural" v="water" />
		<tag k="ssr:stedsnr" v="184376" />
		<tag k="water" v="lake" />
	</node>
<<<<<<< HEAD
	<node lat="59.38482500417009" lon="9.671661108182777" id="-24531">
		<tag k="loc_name" v="Maslaus" />
		<tag k="name" v="Matslaus" />
		<tag k="natural" v="strait" />
		<tag k="ssr:stedsnr" v="185282" />
	</node>
	<node lat="59.24738055876028" lon="9.825480558192378" id="-24541">
		<tag k="name" v="Holttjønn" />
		<tag k="natural" v="water" />
		<tag k="ssr:stedsnr" v="291894" />
	</node>
	<node lat="59.22098610825122" lon="9.802061112797121" id="-24545">
		<tag k="name" v="Trytetjønn" />
=======
	<node id="-430258" lat="59.2272736699" lon="9.86920109855">
		<tag k="name" v="Svartangen" />
		<tag k="natural" v="water" />
		<tag k="ssr:stedsnr" v="607718" />
	</node>
	<node id="-429745" lat="59.2634638867" lon="9.84201111736">
		<tag k="name" v="Donemyrbekken" />
		<tag k="ssr:stedsnr" v="595828" />
		<tag k="waterway" v="stream" />
	</node>
	<node id="-430256" lat="59.2269861095" lon="9.76432778172">
		<tag k="name" v="Grasdalstjønn" />
>>>>>>> e1d4bc35ff8a6074a6f2e91616a996b547c36f15
		<tag k="natural" v="water" />
		<tag k="ssr:stedsnr" v="304744" />
	</node>
<<<<<<< HEAD
	<node lat="59.24979166770736" lon="9.837366659240983" id="-24555">
		<tag k="name" v="Gjetrangtjønn" />
=======
	<node id="-430109" lat="59.3253222223" lon="9.74736388579">
		<tag k="name" v="Vindfjellbekken" />
		<tag k="ssr:stedsnr" v="352341" />
		<tag k="waterway" v="stream" />
	</node>
	<node id="-429732" lat="59.2440694442" lon="9.79492499498">
		<tag k="alt_name" v="Lauv" />
		<tag k="name" v="Lau" />
>>>>>>> e1d4bc35ff8a6074a6f2e91616a996b547c36f15
		<tag k="natural" v="water" />
		<tag k="ssr:stedsnr" v="306047" />
	</node>
<<<<<<< HEAD
	<node lat="59.400261112348915" lon="9.675472215974406" id="-24557">
		<tag k="loc_name" v="Grorudvann" />
		<tag k="name" v="Grorudvannet" />
=======
	<node id="-429731" lat="59.3600749978" lon="9.75868332874">
		<tag k="name" v="Krokvann" />
>>>>>>> e1d4bc35ff8a6074a6f2e91616a996b547c36f15
		<tag k="natural" v="water" />
		<tag k="ssr:stedsnr" v="306298" />
	</node>
<<<<<<< HEAD
	<node lat="59.34272777744372" lon="9.7563999968612" id="-24559">
		<tag k="loc_name" v="Stubbekolltjern" />
		<tag k="name" v="Stubbekolltjørn" />
		<tag k="natural" v="water" />
		<tag k="ssr:stedsnr" v="306342" />
	</node>
	<node lat="59.26516388963009" lon="9.776177777169575" id="-24567">
		<tag k="name" v="Vinterodden" />
		<tag k="natural" v="cape" />
		<tag k="ssr:stedsnr" v="351784" />
	</node>
	<node lat="59.3253222223419" lon="9.747363885793451" id="-24582">
		<tag k="name" v="Vindfjellbekken" />
		<tag k="ssr:stedsnr" v="352341" />
		<tag k="waterway" v="stream" />
	</node>
	<node lat="59.254222223581095" lon="9.680138889784958" id="-24586">
		<tag k="name" v="Meitjenn" />
		<tag k="natural" v="water" />
		<tag k="ssr:stedsnr" v="366036" />
	</node>
	<node lat="59.263230554513505" lon="9.851161103934942" id="-24587">
		<tag k="name" v="Bøvannet" />
=======
	<node id="-429719" lat="59.4108250024" lon="9.75740555122">
		<tag k="loc_name" v="Raubern" />
		<tag k="name" v="Raudberen" />
		<tag k="natural" v="water" />
		<tag k="ssr:stedsnr" v="670489" />
		<tag k="water" v="lake" />
	</node>
	<node id="-429718" lat="59.2659583354" lon="9.81425554935">
		<tag k="name" v="Bråtatjønn" />
		<tag k="natural" v="water" />
		<tag k="ssr:stedsnr" v="670432" />
	</node>
	<node id="-429717" lat="59.2569759886" lon="9.69847715417">
		<tag k="name" v="Speilen" />
>>>>>>> e1d4bc35ff8a6074a6f2e91616a996b547c36f15
		<tag k="natural" v="water" />
		<tag k="ssr:stedsnr" v="366028" />
	</node>
<<<<<<< HEAD
	<node lat="59.346200004266315" lon="9.750902777796444" id="-24588">
		<tag k="name" v="Øyervann" />
=======
	<node id="-429716" lat="59.330710287" lon="9.72268142096">
		<tag k="alt_name" v="Sætertjørn" />
		<tag k="name" v="Setertjønn" />
>>>>>>> e1d4bc35ff8a6074a6f2e91616a996b547c36f15
		<tag k="natural" v="water" />
		<tag k="ssr:stedsnr" v="366384" />
	</node>
<<<<<<< HEAD
	<node lat="59.37561388712003" lon="9.75153332735498" id="-24589">
		<tag k="loc_name" v="Årumvann" />
		<tag k="name" v="Årumvannet" />
=======
	<node id="-429715" lat="59.4047888916" lon="9.72672777384">
		<tag k="loc_name" v="Store Dalstjern" />
		<tag k="name" v="Dalstjørn" />
>>>>>>> e1d4bc35ff8a6074a6f2e91616a996b547c36f15
		<tag k="natural" v="water" />
		<tag k="ssr:stedsnr" v="366277" />
	</node>
<<<<<<< HEAD
	<node lat="59.35420000312711" lon="9.741388890841648" id="-24591">
		<tag k="name" v="Marivann" />
=======
	<node id="-429712" lat="59.2369333316" lon="9.81575555705">
		<tag k="name" v="Lakssjø" />
>>>>>>> e1d4bc35ff8a6074a6f2e91616a996b547c36f15
		<tag k="natural" v="water" />
		<tag k="ssr:stedsnr" v="366373" />
	</node>
<<<<<<< HEAD
	<node lat="59.29604999628984" lon="9.672158339260301" id="-24594">
		<tag k="name" v="Opdalsvannet" />
		<tag k="natural" v="water" />
		<tag k="ssr:stedsnr" v="366401" />
		<tag k="water" v="lake" />
	</node>
	<node lat="59.30702222605766" lon="9.663352773568345" id="-24595">
		<tag k="name" v="Opdalselva" />
		<tag k="ssr:stedsnr" v="366418" />
		<tag k="waterway" v="stream" />
	</node>
	<node lat="59.245916662585415" lon="9.791100006556988" id="-24601">
		<tag k="name" v="Gorningdammen" />
		<tag k="ssr:stedsnr" v="412036" />
		<tag k="waterway" v="dam" />
	</node>
	<node lat="59.33221944898288" lon="9.701977770424657" id="-24603">
		<tag k="name" v="Uletjønn" />
		<tag k="natural" v="water" />
		<tag k="ssr:stedsnr" v="412384" />
	</node>
	<node lat="59.3144805515156" lon="9.744127786107853" id="-24609">
		<tag k="name" v="Gåladammen" />
		<tag k="ssr:stedsnr" v="413331" />
		<tag k="waterway" v="dam" />
	</node>
	<node lat="59.38715277685916" lon="9.747441667695204" id="-24622">
		<tag k="loc_name" v="Lyskottjern" />
		<tag k="name" v="Lyskottjørn" />
=======
	<node id="-429711" lat="59.2842833343" lon="9.68379721642">
		<tag k="name" v="Galtetjønnbekken" />
		<tag k="ssr:stedsnr" v="669515" />
		<tag k="waterway" v="stream" />
	</node>
	<node id="-430219" lat="59.2771527752" lon="9.64082777208">
		<tag k="name" v="Havretjenn" />
		<tag k="natural" v="water" />
		<tag k="ssr:stedsnr" v="548492" />
	</node>
	<node id="-429705" lat="59.346299997" lon="9.71304722203">
		<tag k="name" v="Venevann" />
		<tag k="natural" v="water" />
		<tag k="ssr:stedsnr" v="669357" />
	</node>
	<node id="-429703" lat="59.3592000016" lon="9.63198332724">
		<tag k="name" v="Todalsbekken" />
		<tag k="ssr:stedsnr" v="669238" />
		<tag k="waterway" v="stream" />
	</node>
	<node id="-429702" lat="59.2213250033" lon="9.75396110306">
		<tag k="name" v="Olbogtjenn" />
>>>>>>> e1d4bc35ff8a6074a6f2e91616a996b547c36f15
		<tag k="natural" v="water" />
		<tag k="ssr:stedsnr" v="427316" />
	</node>
<<<<<<< HEAD
	<node lat="59.290822217803566" lon="9.736327771020143" id="-24623">
		<tag k="name" v="Åstjønn" />
=======
	<node id="-430209" lat="59.3345666667" lon="9.75131389761">
		<tag k="loc_name" v="Snipetjern" />
		<tag k="name" v="Snipetjørn" />
>>>>>>> e1d4bc35ff8a6074a6f2e91616a996b547c36f15
		<tag k="natural" v="water" />
		<tag k="ssr:stedsnr" v="427495" />
	</node>
<<<<<<< HEAD
	<node lat="59.336625003780775" lon="9.61512777062208" id="-24625">
		<tag k="name" v="Langevann" />
=======
	<node id="-430208" lat="59.3237861108" lon="9.72482223073">
		<tag k="alt_name" v="Svarttjørn" />
		<tag k="name" v="Svarttjønn" />
>>>>>>> e1d4bc35ff8a6074a6f2e91616a996b547c36f15
		<tag k="natural" v="water" />
		<tag k="ssr:stedsnr" v="427356" />
	</node>
<<<<<<< HEAD
	<node lat="59.24706944774338" lon="9.71668889187426" id="-24628">
		<tag k="name" v="Skisjø" />
=======
	<node id="-429695" lat="59.2623333373" lon="9.83837777572">
		<tag k="name" v="Nordigardsdippel" />
>>>>>>> e1d4bc35ff8a6074a6f2e91616a996b547c36f15
		<tag k="natural" v="water" />
		<tag k="ssr:stedsnr" v="427626" />
		<tag k="water" v="lake" />
	</node>
<<<<<<< HEAD
	<node lat="59.40016944804092" lon="9.781875003725148" id="-24633">
		<tag k="name" v="Rauberelva" />
		<tag k="ssr:stedsnr" v="513951" />
		<tag k="waterway" v="stream" />
	</node>
	<node lat="59.212363886398386" lon="9.77416944260379" id="-24655">
=======
	<node id="-429692" lat="59.2643694448" lon="9.76450554889">
		<tag k="name" v="Spirodden" />
		<tag k="natural" v="cape" />
		<tag k="ssr:stedsnr" v="655801" />
	</node>
	<node id="-430202" lat="59.2123638864" lon="9.7741694426">
>>>>>>> e1d4bc35ff8a6074a6f2e91616a996b547c36f15
		<tag k="name" v="Limetjønn" />
		<tag k="natural" v="water" />
		<tag k="ssr:stedsnr" v="547778" />
	</node>
<<<<<<< HEAD
	<node lat="59.25551111001041" lon="9.736600006728185" id="-24657">
		<tag k="fixme" v="multiple name tags, choose one and add the other to alt_name" />
		<tag k="name" v="Serklandstjønna;Nordre Serklandstjønn" />
=======
	<node id="-429689" lat="59.2470694477" lon="9.71668889187">
		<tag k="name" v="Skisjø" />
>>>>>>> e1d4bc35ff8a6074a6f2e91616a996b547c36f15
		<tag k="natural" v="water" />
		<tag k="ssr:stedsnr" v="548045" />
	</node>
<<<<<<< HEAD
	<node lat="59.3237861107715" lon="9.724822230730087" id="-24661">
		<tag k="alt_name" v="Svarttjørn" />
		<tag k="name" v="Svarttjønn" />
=======
	<node id="-429688" lat="59.3871527769" lon="9.7474416677">
		<tag k="loc_name" v="Lyskottjern" />
		<tag k="name" v="Lyskottjørn" />
>>>>>>> e1d4bc35ff8a6074a6f2e91616a996b547c36f15
		<tag k="natural" v="water" />
		<tag k="ssr:stedsnr" v="548342" />
	</node>
<<<<<<< HEAD
	<node lat="59.28163333687034" lon="9.760049996363453" id="-24663">
		<tag k="name" v="Hvalpetjønn" />
=======
	<node id="-429686" lat="59.3010590912" lon="9.74121522228">
		<tag k="name" v="Sørbøsetertjønn" />
>>>>>>> e1d4bc35ff8a6074a6f2e91616a996b547c36f15
		<tag k="natural" v="water" />
		<tag k="ssr:stedsnr" v="548479" />
	</node>
<<<<<<< HEAD
	<node lat="59.27715277519406" lon="9.640827772082915" id="-24667">
		<tag k="name" v="Havretjenn" />
		<tag k="natural" v="water" />
		<tag k="ssr:stedsnr" v="548492" />
	</node>
	<node lat="59.24796666561668" lon="9.787055564103262" id="-24670">
		<tag k="name" v="Gorningen" />
		<tag k="natural" v="water" />
		<tag k="ssr:stedsnr" v="548631" />
		<tag k="water" v="lake" />
	</node>
	<node lat="59.2401833321709" lon="9.805588883769769" id="-24675">
		<tag k="name" v="Kistefossen" />
		<tag k="natural" v="waterfall" />
		<tag k="ssr:stedsnr" v="594071" />
	</node>
	<node lat="59.2269861094824" lon="9.764327781718048" id="-24693">
		<tag k="name" v="Grasdalstjønn" />
=======
	<node id="-430196" lat="59.2650472215" lon="9.76027778382">
		<tag k="name" v="Skittmyrbukta" />
		<tag k="natural" v="bay" />
		<tag k="ssr:stedsnr" v="534711" />
	</node>
	<node id="-429681" lat="59.400169448" lon="9.78187500373">
		<tag k="name" v="Rauberelva" />
		<tag k="ssr:stedsnr" v="513951" />
		<tag k="waterway" v="stream" />
	</node>
	<node id="-429679" lat="59.3144805515" lon="9.74412778611">
		<tag k="name" v="Gåladammen" />
		<tag k="ssr:stedsnr" v="413331" />
		<tag k="waterway" v="dam" />
	</node>
	<node id="-429676" lat="59.3756138871" lon="9.75153332735">
		<tag k="loc_name" v="Årumvann" />
		<tag k="name" v="Årumvannet" />
>>>>>>> e1d4bc35ff8a6074a6f2e91616a996b547c36f15
		<tag k="natural" v="water" />
		<tag k="ssr:stedsnr" v="595133" />
	</node>
<<<<<<< HEAD
	<node lat="59.263463886683155" lon="9.842011117355202" id="-24695">
		<tag k="name" v="Donemyrbekken" />
		<tag k="ssr:stedsnr" v="595828" />
		<tag k="waterway" v="stream" />
	</node>
	<node lat="59.21720000382828" lon="9.820225005903819" id="-24697">
		<tag k="name" v="Moanetjønn" />
=======
	<node id="-429671" lat="59.3370361078" lon="9.70021388802">
		<tag k="loc_name" v="Stortjern" />
		<tag k="name" v="Stortjørn" />
		<tag k="natural" v="water" />
		<tag k="ssr:stedsnr" v="488323" />
	</node>
	<node id="-429668" lat="59.4050555596" lon="9.67887777632">
		<tag k="name" v="Godvann" />
>>>>>>> e1d4bc35ff8a6074a6f2e91616a996b547c36f15
		<tag k="natural" v="water" />
		<tag k="ssr:stedsnr" v="608778" />
	</node>
<<<<<<< HEAD
	<node lat="59.38056526283482" lon="9.765406904276963" id="-24699">
		<tag k="name" v="Kolsvanna" />
		<tag k="natural" v="water" />
		<tag k="ssr:stedsnr" v="608273" />
		<tag k="water" v="lake" />
	</node>
	<node lat="59.38996389131314" lon="9.63722222480814" id="-24704">
		<tag k="loc_name" v="Lommetjern" />
		<tag k="name" v="Lometjørn" />
=======
	<node id="-430167" lat="59.2908222178" lon="9.73632777102">
		<tag k="name" v="Åstjønn" />
>>>>>>> e1d4bc35ff8a6074a6f2e91616a996b547c36f15
		<tag k="natural" v="water" />
		<tag k="ssr:stedsnr" v="609277" />
	</node>
<<<<<<< HEAD
	<node lat="59.38976111499301" lon="9.721283330931444" id="-24706">
		<tag k="loc_name" v="Videtjern" />
		<tag k="name" v="Videtjørn" />
=======
	<node id="-430166" lat="59.3366250038" lon="9.61512777062">
		<tag k="name" v="Langevann" />
>>>>>>> e1d4bc35ff8a6074a6f2e91616a996b547c36f15
		<tag k="natural" v="water" />
		<tag k="ssr:stedsnr" v="609281" />
	</node>
<<<<<<< HEAD
	<node lat="59.26233333732616" lon="9.838377775721218" id="-24724">
		<tag k="name" v="Nordigardsdippel" />
		<tag k="natural" v="water" />
		<tag k="ssr:stedsnr" v="655828" />
	</node>
	<node lat="59.22132500327101" lon="9.753961103062085" id="-24727">
		<tag k="name" v="Olbogtjenn" />
		<tag k="natural" v="water" />
		<tag k="ssr:stedsnr" v="668747" />
	</node>
	<node lat="59.35920000159968" lon="9.631983327236414" id="-24729">
		<tag k="name" v="Todalsbekken" />
		<tag k="ssr:stedsnr" v="669238" />
		<tag k="waterway" v="stream" />
	</node>
	<node lat="59.23693333162026" lon="9.815755557049489" id="-24730">
		<tag k="name" v="Lakssjø" />
=======
	<node id="-429647" lat="59.2610083327" lon="9.78230556001">
		<tag k="name" v="Tangen" />
		<tag k="natural" v="cape" />
		<tag k="ssr:stedsnr" v="473756" />
	</node>
	<node id="-430146" lat="59.2622861129" lon="9.78021944415">
		<tag k="name" v="Geitøya" />
		<tag k="place" v="island" />
		<tag k="ssr:stedsnr" v="412706" />
	</node>
	<node id="-430347" lat="59.257655555" lon="9.84628055076">
		<tag k="name" v="Damdippel" />
		<tag k="natural" v="water" />
		<tag k="ssr:stedsnr" v="838871" />
	</node>
	<node id="-429632" lat="59.2241916711" lon="9.80864444173">
		<tag k="name" v="Auretjønn" />
>>>>>>> e1d4bc35ff8a6074a6f2e91616a996b547c36f15
		<tag k="natural" v="water" />
		<tag k="ssr:stedsnr" v="669653" />
	</node>
<<<<<<< HEAD
	<node lat="59.34629999698145" lon="9.713047222026644" id="-24731">
		<tag k="name" v="Venevann" />
=======
	<node id="-429631" lat="59.2423361155" lon="9.76414167535">
		<tag k="name" v="Loppedåpan" />
>>>>>>> e1d4bc35ff8a6074a6f2e91616a996b547c36f15
		<tag k="natural" v="water" />
		<tag k="ssr:stedsnr" v="669357" />
	</node>
<<<<<<< HEAD
	<node lat="59.4047888915856" lon="9.726727773839212" id="-24737">
		<tag k="loc_name" v="Store Dalstjern" />
		<tag k="name" v="Dalstjørn" />
=======
	<node id="-430142" lat="59.332219449" lon="9.70197777042">
		<tag k="name" v="Uletjønn" />
>>>>>>> e1d4bc35ff8a6074a6f2e91616a996b547c36f15
		<tag k="natural" v="water" />
		<tag k="ssr:stedsnr" v="670299" />
	</node>
<<<<<<< HEAD
	<node lat="59.256975988600466" lon="9.69847715417493" id="-24738">
		<tag k="name" v="Speilen" />
		<tag k="natural" v="water" />
		<tag k="ssr:stedsnr" v="670431" />
	</node>
	<node lat="59.265958335384425" lon="9.814255549354202" id="-24739">
		<tag k="name" v="Bråtatjønn" />
=======
	<node id="-429629" lat="59.2275305562" lon="9.78729167414">
		<tag k="name" v="Igletjønn" />
		<tag k="natural" v="water" />
		<tag k="ssr:stedsnr" v="473106" />
	</node>
	<node id="-430138" lat="59.2269055566" lon="9.80655833808">
		<tag k="name" v="Trolletjønn" />
>>>>>>> e1d4bc35ff8a6074a6f2e91616a996b547c36f15
		<tag k="natural" v="water" />
		<tag k="ssr:stedsnr" v="670432" />
	</node>
<<<<<<< HEAD
	<node lat="59.33071028697881" lon="9.722681420959672" id="-24741">
		<tag k="alt_name" v="Sætertjørn" />
		<tag k="name" v="Setertjønn" />
=======
	<node id="-430133" lat="59.2918916707" lon="9.62431944998">
		<tag k="name" v="Frotjenn" />
>>>>>>> e1d4bc35ff8a6074a6f2e91616a996b547c36f15
		<tag k="natural" v="water" />
		<tag k="ssr:stedsnr" v="670341" />
	</node>
<<<<<<< HEAD
	<node lat="59.32615555617746" lon="9.666427769768498" id="-24761">
		<tag k="name" v="Vanebuelva" />
		<tag k="ssr:stedsnr" v="730331" />
		<tag k="waterway" v="river" />
	</node>
	<node lat="59.27498611432871" lon="9.6526499988991" id="-24767">
		<tag k="name" v="Havretjennbekken" />
		<tag k="ssr:stedsnr" v="730493" />
		<tag k="waterway" v="stream" />
	</node>
	<node lat="59.28115580291747" lon="9.741046168706236" id="-24769">
		<tag k="name" v="Øverbøtjønn" />
=======
	<node id="-430129" lat="59.3070222261" lon="9.66335277357">
		<tag k="name" v="Opdalselva" />
		<tag k="ssr:stedsnr" v="366418" />
		<tag k="waterway" v="stream" />
	</node>
	<node id="-430126" lat="59.2960499963" lon="9.67215833926">
		<tag k="name" v="Opdalsvannet" />
>>>>>>> e1d4bc35ff8a6074a6f2e91616a996b547c36f15
		<tag k="natural" v="water" />
		<tag k="ssr:stedsnr" v="730500" />
		<tag k="water" v="lake" />
	</node>
<<<<<<< HEAD
	<node lat="59.395313891076846" lon="9.770952777103686" id="-24771">
		<tag k="loc_name" v="Bånntjern" />
		<tag k="name" v="Bånntjørn" />
=======
	<node id="-430124" lat="59.3462000043" lon="9.7509027778">
		<tag k="name" v="Øyervann" />
>>>>>>> e1d4bc35ff8a6074a6f2e91616a996b547c36f15
		<tag k="natural" v="water" />
		<tag k="ssr:stedsnr" v="731233" />
	</node>
<<<<<<< HEAD
	<node lat="59.394649997824715" lon="9.666555559971073" id="-24772">
		<tag k="loc_name" v="Lysetjern" />
		<tag k="name" v="Lystjørn" />
=======
	<node id="-430123" lat="59.3542000031" lon="9.74138889084">
		<tag k="name" v="Marivann" />
>>>>>>> e1d4bc35ff8a6074a6f2e91616a996b547c36f15
		<tag k="natural" v="water" />
		<tag k="ssr:stedsnr" v="731251" />
	</node>
<<<<<<< HEAD
	<node lat="59.21067777944861" lon="9.852947215189635" id="-24780">
		<tag k="name" v="Odden" />
		<tag k="natural" v="cape" />
		<tag k="ssr:stedsnr" v="776281" />
	</node>
	<node lat="59.25246944244001" lon="9.69556666300243" id="-24782">
		<tag k="name" v="Meitjønnbekken" />
		<tag k="ssr:stedsnr" v="776713" />
		<tag k="waterway" v="stream" />
	</node>
	<node lat="59.23992500303902" lon="9.760805548022734" id="-24794">
		<tag k="name" v="Bjoretjønn" />
=======
	<node id="-429610" lat="59.2841454872" lon="9.81055337894">
		<tag k="alt_name" v="Hauksjø" />
		<tag k="name" v="Haukesjø" />
>>>>>>> e1d4bc35ff8a6074a6f2e91616a996b547c36f15
		<tag k="natural" v="water" />
		<tag k="ssr:stedsnr" v="790673" />
	</node>
<<<<<<< HEAD
	<node lat="59.23982915054306" lon="9.760111194450538" id="-24797">
		<tag k="alt_name" v="Blokktjørn" />
		<tag k="name" v="Blokktjønn" />
		<tag k="natural" v="water" />
		<tag k="ssr:stedsnr" v="791406" />
	</node>
	<node lat="59.275113890866834" lon="9.817050005531577" id="-24802">
		<tag k="name" v="Movannet" />
=======
	<node id="-429608" lat="59.0623083353" lon="10.0088388945">
		<tag k="alt_name" v="Farrisvatnet" />
		<tag k="name" v="Farris" />
		<tag k="natural" v="water" />
		<tag k="ssr:stedsnr" v="244615" />
		<tag k="water" v="lake" />
	</node>
	<node id="-430119" lat="59.2632305545" lon="9.85116110393">
		<tag k="name" v="Bøvannet" />
>>>>>>> e1d4bc35ff8a6074a6f2e91616a996b547c36f15
		<tag k="natural" v="water" />
		<tag k="ssr:stedsnr" v="791456" />
	</node>
<<<<<<< HEAD
	<node lat="59.28414166937165" lon="9.662555556873249" id="-24804">
		<tag k="name" v="Seterdalsbekken" />
		<tag k="ssr:stedsnr" v="791481" />
		<tag k="waterway" v="stream" />
	</node>
	<node lat="59.21789444891488" lon="9.848511104507768" id="-24806">
		<tag k="name" v="Ormetjønn" />
=======
	<node id="-430116" lat="59.260838889" lon="9.84036110385">
		<tag k="name" v="Stuedippel" />
>>>>>>> e1d4bc35ff8a6074a6f2e91616a996b547c36f15
		<tag k="natural" v="water" />
		<tag k="ssr:stedsnr" v="837292" />
	</node>
<<<<<<< HEAD
	<node lat="59.25765555500825" lon="9.846280550756193" id="-24817">
		<tag k="name" v="Damdippel" />
=======
	<node id="-429603" lat="59.3184083302" lon="9.73388054856">
		<tag k="name" v="Aslakstjønn" />
>>>>>>> e1d4bc35ff8a6074a6f2e91616a996b547c36f15
		<tag k="natural" v="water" />
		<tag k="ssr:stedsnr" v="838871" />
	</node>
<<<<<<< HEAD
	<node lat="59.38878611082764" lon="9.672161117102263" id="-24820">
		<tag k="name" v="Brennøya" />
		<tag k="place" v="island" />
		<tag k="ssr:stedsnr" v="852296" />
	</node>
	<node lat="59.389902776170494" lon="9.740675002785053" id="-24821">
		<tag k="loc_name" v="Elgstjern" />
		<tag k="name" v="Elgetjørn" />
		<tag k="natural" v="water" />
		<tag k="ssr:stedsnr" v="852300" />
	</node>
	<node lat="59.261911110147906" lon="9.67269722331054" id="-24829">
		<tag k="name" v="Heivannet" />
		<tag k="natural" v="water" />
		<tag k="ssr:stedsnr" v="852442" />
		<tag k="water" v="lake" />
	</node>
	<node lat="59.20504166645834" lon="9.855769442460547" id="-24838">
		<tag k="name" v="Tyskebekk" />
		<tag k="ssr:stedsnr" v="958321" />
		<tag k="waterway" v="stream" />
	</node>
	<node lat="59.22869721894296" lon="9.781094450563387" id="-24840">
		<tag k="name" v="Ormebekk" />
		<tag k="ssr:stedsnr" v="959077" />
		<tag k="waterway" v="stream" />
=======
	<node id="-429600" lat="59.2459916699" lon="9.77786667402">
		<tag k="name" v="Struten" />
		<tag k="natural" v="bay" />
		<tag k="ssr:stedsnr" v="231053" />
>>>>>>> e1d4bc35ff8a6074a6f2e91616a996b547c36f15
	</node>
	<node id="-429597" lat="59.2143583341" lon="9.85569166438">
		<tag k="name" v="Moholttangen" />
		<tag k="natural" v="cape" />
		<tag k="ssr:stedsnr" v="230275" />
	</node>
	<node id="-429596" lat="59.2248472205" lon="9.79479167305">
		<tag k="name" v="Lille Trytetjønn" />
		<tag k="natural" v="water" />
		<tag k="ssr:stedsnr" v="230270" />
	</node>
	<node id="-429593" lat="59.1989666687" lon="9.87088610385">
		<tag k="name" v="Sprena" />
		<tag k="ssr:stedsnr" v="230311" />
		<tag k="waterway" v="stream" />
	</node>
	<node id="-429587" lat="59.2473805588" lon="9.82548055819">
		<tag k="name" v="Holttjønn" />
		<tag k="natural" v="water" />
		<tag k="ssr:stedsnr" v="291894" />
	</node>
	<node id="-430098" lat="59.2651638896" lon="9.77617777717">
		<tag k="name" v="Vinterodden" />
		<tag k="natural" v="cape" />
		<tag k="ssr:stedsnr" v="351784" />
	</node>
	<node id="-430094" lat="59.2600694403" lon="9.79041389336">
		<tag k="name" v="Vika" />
		<tag k="natural" v="bay" />
		<tag k="ssr:stedsnr" v="351752" />
	</node>
	<node id="-430091" lat="59.2064027741" lon="9.85529721903">
		<tag k="name" v="Lauvvika" />
		<tag k="natural" v="bay" />
		<tag k="ssr:stedsnr" v="351303" />
	</node>
	<node id="-429577" lat="59.3195194469" lon="9.63299166703">
		<tag k="name" v="Sølverødbekken" />
		<tag k="ssr:stedsnr" v="124290" />
		<tag k="waterway" v="stream" />
	</node>
	<node id="-430088" lat="59.2196861111" lon="9.77868055782">
		<tag k="name" v="Setertjønn" />
		<tag k="natural" v="water" />
		<tag k="ssr:stedsnr" v="351212" />
	</node>
	<node id="-430085" lat="59.4172777755" lon="9.63255277663">
		<tag k="loc_name" v="Kapteinstjern" />
		<tag k="name" v="Kapteinstjørn" />
		<tag k="natural" v="water" />
		<tag k="ssr:stedsnr" v="306508" />
	</node>
	<node id="-430084" lat="59.4002611123" lon="9.67547221597">
		<tag k="loc_name" v="Grorudvann" />
		<tag k="name" v="Grorudvannet" />
		<tag k="natural" v="water" />
		<tag k="ssr:stedsnr" v="306298" />
	</node>
	<node id="-430082" lat="59.2497916677" lon="9.83736665924">
		<tag k="name" v="Gjetrangtjønn" />
		<tag k="natural" v="water" />
		<tag k="ssr:stedsnr" v="306047" />
	</node>
</osm>
