<?xml version="1.0" encoding="UTF-8"?>
<osm version="0.6" generator="osmapis">
	<node lat="59.2068027748587" lon="9.781674995460286" id="-24829">
		<tag k="name" v="Orholt" />
		<tag k="place" v="isolated_dwelling" />
		<tag k="ssr:stedsnr" v="1693" />
	</node>
	<node lat="59.37270555664719" lon="9.663713881948624" id="-24831">
		<tag k="name" v="Toa" />
		<tag k="place" v="isolated_dwelling" />
		<tag k="ssr:stedsnr" v="2277" />
	</node>
	<node lat="59.30602777571561" lon="9.643449995136" id="-24833">
		<tag k="name" v="Nilsrud" />
		<tag k="place" v="farm" />
		<tag k="ssr:stedsnr" v="2433" />
	</node>
	<node lat="59.25001666959736" lon="9.767150005442664" id="-24845">
		<tag k="name" v="Tufte" />
		<tag k="place" v="farm" />
		<tag k="ssr:stedsnr" v="230823" />
	</node>
	<node lat="59.30559999650356" lon="9.660183333826705" id="-24851">
		<tag k="name" v="Nordre Sørtveit" />
		<tag k="place" v="farm" />
		<tag k="ssr:stedsnr" v="231291" />
	</node>
	<node lat="59.29088333629618" lon="9.68973889762309" id="-24852">
		<tag k="name" v="Friborg" />
		<tag k="place" v="farm" />
		<tag k="ssr:stedsnr" v="231313" />
	</node>
	<node lat="59.30602222617869" lon="9.649127783129678" id="-24853">
		<tag k="name" v="Rønningen" />
		<tag k="place" v="farm" />
		<tag k="ssr:stedsnr" v="231329" />
	</node>
	<node lat="59.29993332914437" lon="9.67099444125591" id="-24868">
		<tag k="name" v="Ordalen" />
		<tag k="place" v="farm" />
		<tag k="ssr:stedsnr" v="63407" />
	</node>
	<node lat="59.343905558783035" lon="9.65497777363066" id="-24870">
		<tag k="name" v="Vassdalen" />
		<tag k="place" v="isolated_dwelling" />
		<tag k="ssr:stedsnr" v="63368" />
	</node>
	<node lat="59.283827775726415" lon="9.733836119036674" id="-24873">
		<tag k="fixme" v="consider place=hamlet" />
		<tag k="name" v="Øverbø" />
		<tag k="place" v="farm" />
		<tag k="ssr:stedsnr" v="63513" />
	</node>
	<node lat="59.27254722194788" lon="9.722197223457032" id="-24877">
		<tag k="name" v="Torsholt" />
		<tag k="place" v="hamlet" />
		<tag k="ssr:stedsnr" v="85906" />
	</node>
	<node lat="59.28680277898314" lon="9.719688880551075" id="-24878">
		<tag k="name" v="Sørbøhagen" />
		<tag k="place" v="farm" />
		<tag k="ssr:stedsnr" v="245465" />
	</node>
	<node lat="59.288158331138156" lon="9.691475005489579" id="-24883">
		<tag k="fixme" v="consider place=hamlet" />
		<tag k="name" v="Skilbred" />
		<tag k="place" v="farm" />
		<tag k="ssr:stedsnr" v="245480" />
	</node>
	<node lat="59.254083332784276" lon="9.820027783079308" id="-24886">
		<tag k="name" v="Søndre Modalen" />
		<tag k="place" v="locality" />
		<tag k="ssr:stedsnr" v="109719" />
	</node>
	<node lat="59.323786114679066" lon="9.666133330861253" id="-24894">
		<tag k="name" v="Skogstue" />
		<tag k="place" v="isolated_dwelling" />
		<tag k="ssr:stedsnr" v="124261" />
	</node>
	<node lat="59.25316944699152" lon="9.763733341206688" id="-24897">
		<tag k="name" v="Vestgård" />
		<tag k="place" v="farm" />
		<tag k="ssr:stedsnr" v="170710" />
	</node>
	<node lat="59.25565278094186" lon="9.763416664976656" id="-24898">
		<tag k="name" v="Bjerke" />
		<tag k="place" v="farm" />
		<tag k="ssr:stedsnr" v="170712" />
	</node>
	<node lat="59.315411113709075" lon="9.714158340592286" id="-24902">
		<tag k="alt_name" v="Kløverødsæter" />
		<tag k="name" v="Kløverødseter" />
		<tag k="place" v="isolated_dwelling" />
		<tag k="ssr:stedsnr" v="184441" />
	</node>
	<node lat="59.314811109427396" lon="9.65741665923789" id="-24903">
		<tag k="name" v="Elvestad" />
		<tag k="place" v="farm" />
		<tag k="ssr:stedsnr" v="184448" />
	</node>
	<node lat="59.26864722170071" lon="9.746827775257433" id="-24905">
		<tag k="alt_name" v="Gurholt" />
		<tag k="fixme" v="consider place=hamlet" />
		<tag k="name" v="Gurholt" />
		<tag k="place" v="farm" />
		<tag k="ssr:stedsnr" v="184462" />
	</node>
	<node lat="59.29114999982071" lon="9.688094443222104" id="-24906">
		<tag k="name" v="Skilbred" />
		<tag k="place" v="farm" />
		<tag k="ssr:stedsnr" v="184503" />
	</node>
	<node lat="59.320466668815" lon="9.626419448325631" id="-24913">
		<tag k="name" v="Kåsene søndre" />
		<tag k="place" v="farm" />
		<tag k="ssr:stedsnr" v="230436" />
	</node>
	<node lat="59.279572226298235" lon="9.73492222250794" id="-24914">
		<tag k="name" v="Åsen" />
		<tag k="place" v="farm" />
		<tag k="ssr:stedsnr" v="230584" />
	</node>
	<node lat="59.31289444098311" lon="9.75431944069157" id="-24926">
		<tag k="alt_name" v="Prestegårdsætra" />
		<tag k="name" v="Prestegårdseter" />
		<tag k="place" v="isolated_dwelling" />
		<tag k="ssr:stedsnr" v="245409" />
	</node>
	<node lat="59.31417499949747" lon="9.643727770275612" id="-24928">
		<tag k="fixme" v="consider place=hamlet" />
		<tag k="name" v="Tormodsrød" />
		<tag k="place" v="farm" />
		<tag k="ssr:stedsnr" v="245413" />
	</node>
	<node lat="59.28433888478037" lon="9.726075000800423" id="-24939">
		<tag k="name" v="Nordbø" />
		<tag k="place" v="farm" />
		<tag k="ssr:stedsnr" v="305521" />
	</node>
	<node lat="59.35513055680625" lon="9.667194447254571" id="-24940">
		<tag k="name" v="Vanebu" />
		<tag k="place" v="farm" />
		<tag k="ssr:stedsnr" v="305264" />
	</node>
	<node lat="59.267686106688984" lon="9.735016668546205" id="-24943">
		<tag k="name" v="Engelstad" />
		<tag k="place" v="farm" />
		<tag k="ssr:stedsnr" v="305472" />
	</node>
	<node lat="59.24377222097244" lon="9.776244438501681" id="-24945">
		<tag k="name" v="Riset" />
		<tag k="place" v="farm" />
		<tag k="ssr:stedsnr" v="473053" />
	</node>
	<node lat="59.25148333323726" lon="9.770230563174447" id="-24958">
		<tag k="name" v="Skobba" />
		<tag k="place" v="farm" />
		<tag k="ssr:stedsnr" v="473783" />
	</node>
	<node lat="59.220338891255025" lon="9.764863886909376" id="-24970">
		<tag k="name" v="Øvre Valldal" />
		<tag k="place" v="locality" />
		<tag k="ssr:stedsnr" v="351255" />
	</node>
	<node lat="59.265866663497846" lon="9.767794448234238" id="-24971">
		<tag k="name" v="Kjølnes" />
		<tag k="place" v="locality" />
		<tag k="ssr:stedsnr" v="351808" />
	</node>
	<node lat="59.29153333111151" lon="9.716797215979621" id="-24974">
		<tag k="name" v="Roligheten" />
		<tag k="place" v="farm" />
		<tag k="ssr:stedsnr" v="352208" />
	</node>
	<node lat="59.28630277591052" lon="9.7249388836701" id="-24981">
		<tag k="fixme" v="consider place=hamlet" />
		<tag k="name" v="Sørbø" />
		<tag k="place" v="farm" />
		<tag k="ssr:stedsnr" v="366497" />
	</node>
	<node lat="59.22803321160789" lon="9.872098764826228" id="-24984">
		<tag k="fixme" v="consider place=hamlet" />
		<tag k="name" v="Svartangen" />
		<tag k="place" v="farm" />
		<tag k="ssr:stedsnr" v="486665" />
	</node>
	<node lat="59.305254858397866" lon="9.662015105228276" id="-24991">
		<tag k="fixme" v="consider place=hamlet" />
		<tag k="name" v="Sønntvet" />
		<tag k="old_name" v="Sundtvedt" />
		<tag k="place" v="farm" />
		<tag k="ssr:stedsnr" v="487441" />
	</node>
	<node lat="59.276633329099724" lon="9.710825003740222" id="-24992">
		<tag k="fixme" v="multiple name tags, choose one and add the other to alt_name" />
		<tag k="name" v="Hagen;Hagen" />
		<tag k="place" v="farm" />
		<tag k="ssr:stedsnr" v="487512" />
	</node>
	<node lat="59.278986107332706" lon="9.702497226048072" id="-24993">
		<tag k="fixme" v="consider place=hamlet" />
		<tag k="name" v="Holte" />
		<tag k="place" v="farm" />
		<tag k="ssr:stedsnr" v="487513" />
	</node>
	<node lat="59.318975002966305" lon="9.651577786568708" id="-24995">
		<tag k="fixme" v="consider place=hamlet" />
		<tag k="name" v="Island" />
		<tag k="place" v="farm" />
		<tag k="ssr:stedsnr" v="487460" />
	</node>
	<node lat="59.27224166912618" lon="9.729150002976748" id="-25000">
		<tag k="name" v="Soltveit" />
		<tag k="place" v="farm" />
		<tag k="ssr:stedsnr" v="487494" />
	</node>
	<node lat="59.279644442701006" lon="9.701483335089014" id="-25004">
		<tag k="name" v="Holte" />
		<tag k="place" v="farm" />
		<tag k="ssr:stedsnr" v="413590" />
	</node>
	<node lat="59.305174999071205" lon="9.664980557197573" id="-25011">
		<tag k="name" v="Saga" />
		<tag k="place" v="farm" />
		<tag k="ssr:stedsnr" v="427425" />
	</node>
	<node lat="59.27351388484838" lon="9.729580554903457" id="-25013">
		<tag k="fixme" v="consider place=hamlet" />
		<tag k="name" v="Tudal" />
		<tag k="place" v="farm" />
		<tag k="ssr:stedsnr" v="427474" />
	</node>
	<node lat="59.228849996221996" lon="9.860441668301029" id="-25016">
		<tag k="name" v="Auen" />
		<tag k="place" v="quarter" />
		<tag k="ssr:stedsnr" v="464654" />
	</node>
	<node lat="59.27376944394035" lon="9.722811113568842" id="-25025">
		<tag k="name" v="Thorshaug" />
		<tag k="place" v="farm" />
		<tag k="ssr:stedsnr" v="473604" />
	</node>
	<node lat="59.282063891488704" lon="9.634252774222492" id="-25026">
		<tag k="name" v="Brattås seter" />
		<tag k="place" v="locality" />
		<tag k="ssr:stedsnr" v="473560" />
	</node>
	<node lat="59.27427778155982" lon="9.705099995603794" id="-25028">
		<tag k="name" v="Plassen" />
		<tag k="place" v="farm" />
		<tag k="ssr:stedsnr" v="473563" />
	</node>
	<node lat="59.29123889126596" lon="9.712702778730408" id="-25037">
		<tag k="name" v="Snurråsen" />
		<tag k="place" v="quarter" />
		<tag k="ssr:stedsnr" v="506211" />
	</node>
	<node lat="59.28615000241107" lon="9.705691674145475" id="-25044">
		<tag k="name" v="Høiset" />
		<tag k="place" v="farm" />
		<tag k="ssr:stedsnr" v="534572" />
	</node>
	<node lat="59.28028333070484" lon="9.698113886544894" id="-25045">
		<tag k="name" v="Kamperhaug" />
		<tag k="place" v="farm" />
		<tag k="ssr:stedsnr" v="534577" />
	</node>
	<node lat="59.22315277346932" lon="9.830563892443093" id="-25050">
		<tag k="name" v="Løkka" />
		<tag k="place" v="farm" />
		<tag k="ssr:stedsnr" v="547763" />
	</node>
	<node lat="59.30976388752828" lon="9.641988889559618" id="-25052">
		<tag k="name" v="Lund" />
		<tag k="place" v="farm" />
		<tag k="ssr:stedsnr" v="548426" />
	</node>
	<node lat="59.272502776924206" lon="9.74500000559162" id="-25053">
		<tag k="name" v="Tveitan" />
		<tag k="place" v="farm" />
		<tag k="ssr:stedsnr" v="548459" />
	</node>
	<node lat="59.27152222573931" lon="9.659486117107008" id="-25054">
		<tag k="historic" v="shieling" />
		<tag k="name" v="Høgsetsetra" />
		<tag k="place" v="isolated_dwelling" />
		<tag k="ssr:stedsnr" v="548463" />
	</node>
	<node lat="59.24038888771698" lon="9.816205556227876" id="-25057">
		<tag k="name" v="Killmyr" />
		<tag k="place" v="farm" />
		<tag k="ssr:stedsnr" v="548656" />
	</node>
	<node lat="59.26347500269357" lon="9.698975006555646" id="-25058">
		<tag k="name" v="Skauen" />
		<tag k="place" v="quarter" />
		<tag k="ssr:stedsnr" v="688772" />
	</node>
	<node lat="59.26013055581777" lon="9.838994450391345" id="-25061">
		<tag k="name" v="Diplestua" />
		<tag k="place" v="isolated_dwelling" />
		<tag k="ssr:stedsnr" v="695231" />
	</node>
	<node lat="59.30505555228686" lon="9.660638894254385" id="-25066">
		<tag k="name" v="Søndre Sørtveit" />
		<tag k="place" v="farm" />
		<tag k="ssr:stedsnr" v="594269" />
	</node>
	<node lat="59.22924166615399" lon="9.826330560644992" id="-25071">
		<tag k="fixme" v="consider place=hamlet" />
		<tag k="name" v="Moholt" />
		<tag k="place" v="farm" />
		<tag k="ssr:stedsnr" v="607649" />
	</node>
	<node lat="59.30888889277071" lon="9.664300001743507" id="-25075">
		<tag k="name" v="Tveitan" />
		<tag k="place" v="farm" />
		<tag k="ssr:stedsnr" v="608411" />
	</node>
	<node lat="59.314925001822594" lon="9.656825006386226" id="-25079">
		<tag k="fixme" v="consider place=hamlet" />
		<tag k="name" v="Opdalen" />
		<tag k="place" v="village" />
		<tag k="ssr:stedsnr" v="609338" />
	</node>
	<node lat="59.40546110995517" lon="9.646705557964145" id="-25081">
		<tag k="name" v="Romsdalen" />
		<tag k="place" v="farm" />
		<tag k="ssr:stedsnr" v="609293" />
	</node>
	<node lat="59.27626388614895" lon="9.67768055924745" id="-25082">
		<tag k="name" v="Lauvlastua" />
		<tag k="place" v="isolated_dwelling" />
		<tag k="ssr:stedsnr" v="609443" />
	</node>
	<node lat="59.31431666431744" lon="9.743747221655424" id="-25088">
		<tag k="name" v="Gåladammen" />
		<tag k="place" v="locality" />
		<tag k="ssr:stedsnr" v="655305" />
	</node>
	<node lat="59.278366666830834" lon="9.712397229547648" id="-25091">
		<tag k="name" v="Nyhagen" />
		<tag k="place" v="farm" />
		<tag k="ssr:stedsnr" v="655492" />
	</node>
	<node lat="59.30432500100758" lon="9.645927777603783" id="-25101">
		<tag k="name" v="Grønland" />
		<tag k="place" v="farm" />
		<tag k="ssr:stedsnr" v="669424" />
	</node>
	<node lat="59.28273611053311" lon="9.777725005929268" id="-25103">
		<tag k="name" v="Sandbrekkene" />
		<tag k="place" v="farm" />
		<tag k="ssr:stedsnr" v="669509" />
	</node>
	<node lat="59.30819166333804" lon="9.66626667379786" id="-25110">
		<tag k="name" v="Tveitan Sem" />
		<tag k="place" v="farm" />
		<tag k="ssr:stedsnr" v="898242" />
	</node>
	<node lat="59.29289167017135" lon="9.693941667985525" id="-25117">
		<tag k="name" v="Hillestad" />
		<tag k="place" v="farm" />
		<tag k="ssr:stedsnr" v="898266" />
	</node>
	<node lat="59.2521777748244" lon="9.84408610348086" id="-25152">
		<tag k="name" v="Søndre Kisteseter" />
		<tag k="place" v="isolated_dwelling" />
		<tag k="ssr:stedsnr" v="730473" />
	</node>
	<node lat="59.263694445595114" lon="9.750969440898514" id="-25168">
		<tag k="name" v="Engrønningen" />
		<tag k="place" v="farm" />
		<tag k="ssr:stedsnr" v="777706" />
	</node>
	<node lat="59.3620499995239" lon="9.659724992521976" id="-25172">
		<tag k="loc_name" v="Toklev" />
		<tag k="name" v="Tokleiv" />
		<tag k="place" v="farm" />
		<tag k="ssr:stedsnr" v="791255" />
	</node>
	<node lat="59.39878611273756" lon="9.709677785019746" id="-25173">
		<tag k="name" v="Grorud" />
		<tag k="place" v="hamlet" />
		<tag k="ssr:stedsnr" v="791296" />
	</node>
	<node lat="59.288091663192354" lon="9.696650005034437" id="-25177">
		<tag k="name" v="Lunde" />
		<tag k="place" v="farm" />
		<tag k="ssr:stedsnr" v="791484" />
	</node>
	<node lat="59.30858611174094" lon="9.640666666136925" id="-25178">
		<tag k="name" v="Rød" />
		<tag k="place" v="farm" />
		<tag k="ssr:stedsnr" v="791385" />
	</node>
	<node lat="59.31265000436662" lon="9.6600555574906" id="-25182">
		<tag k="fixme" v="consider place=hamlet" />
		<tag k="name" v="Sølland" />
		<tag k="place" v="farm" />
		<tag k="ssr:stedsnr" v="912445" />
	</node>
	<node lat="59.24514721827895" lon="9.800752773559344" id="-25183">
		<tag k="name" v="Kiste" />
		<tag k="place" v="hamlet" />
		<tag k="ssr:stedsnr" v="912644" />
	</node>
	<node lat="59.35014999945738" lon="9.671300000059954" id="-25188">
		<tag k="name" v="Vanebu" />
		<tag k="place" v="neighbourhood" />
		<tag k="ssr:stedsnr" v="828614" />
	</node>
	<node lat="59.285166668088486" lon="9.740074997606452" id="-25192">
		<tag k="name" v="Lillekås" />
		<tag k="place" v="farm" />
		<tag k="ssr:stedsnr" v="837486" />
	</node>
	<node lat="59.22287777460704" lon="9.853386108603855" id="-25206">
		<tag k="name" v="Nygård" />
		<tag k="place" v="farm" />
		<tag k="ssr:stedsnr" v="851708" />
	</node>
	<node lat="59.2898611097" lon="9.724750007219118" id="-25211">
		<tag k="name" v="Rønningen" />
		<tag k="place" v="farm" />
		<tag k="ssr:stedsnr" v="852476" />
	</node>
	<node lat="59.2807722187299" lon="9.735375008627326" id="-25212">
		<tag k="name" v="Mølleåsen" />
		<tag k="place" v="quarter" />
		<tag k="ssr:stedsnr" v="889618" />
	</node>
	<node lat="59.22791389226132" lon="9.85253056214694" id="-25223">
		<tag k="name" v="Auen" />
		<tag k="place" v="farm" />
		<tag k="ssr:stedsnr" v="911740" />
	</node>
	<node lat="59.291475002695286" lon="9.719502775577977" id="-25225">
		<tag k="name" v="Myra" />
		<tag k="place" v="farm" />
		<tag k="ssr:stedsnr" v="912509" />
	</node>
	<node lat="59.21424722445105" lon="9.829911114492472" id="-25228">
		<tag k="name" v="Naphaug" />
		<tag k="place" v="farm" />
		<tag k="ssr:stedsnr" v="912748" />
	</node>
	<node lat="59.22020278003625" lon="9.853355559204934" id="-25240">
		<tag k="name" v="Vranghol" />
		<tag k="place" v="farm" />
		<tag k="ssr:stedsnr" v="1714" />
	</node>
	<node lat="59.31951666517793" lon="9.584875005323893" id="-25242">
		<tag k="name" v="Moheistua" />
		<tag k="place" v="isolated_dwelling" />
		<tag k="ssr:stedsnr" v="2754" />
	</node>
	<node lat="59.23361389055325" lon="9.83516389687797" id="-25243">
		<tag k="name" v="Eidet" />
		<tag k="place" v="farm" />
		<tag k="ssr:stedsnr" v="1655" />
	</node>
	<node lat="59.26042777337682" lon="9.758327770503108" id="-25244">
		<tag k="name" v="Hagen" />
		<tag k="place" v="farm" />
		<tag k="ssr:stedsnr" v="2040" />
	</node>
	<node lat="59.317502782165285" lon="9.662097218540778" id="-25246">
		<tag k="name" v="Nymo" />
		<tag k="place" v="isolated_dwelling" />
		<tag k="ssr:stedsnr" v="2453" />
	</node>
	<node lat="59.26245277812612" lon="9.68940000763414" id="-25247">
		<tag k="name" v="Solvika" />
		<tag k="ssr:stedsnr" v="2468" />
		<tag k="tourism" v="camp_site" />
	</node>
	<node lat="59.320511114950065" lon="9.625961114466005" id="-25248">
		<tag k="name" v="Kåsene" />
		<tag k="place" v="isolated_dwelling" />
		<tag k="ssr:stedsnr" v="2366" />
	</node>
	<node lat="59.32299444672621" lon="9.596947230613917" id="-25249">
		<tag k="historic" v="shieling" />
		<tag k="name" v="Søllandseter" />
		<tag k="place" v="isolated_dwelling" />
		<tag k="ssr:stedsnr" v="2368" />
	</node>
	<node lat="59.34038610940152" lon="9.764152779943494" id="-25250">
		<tag k="loc_name" v="Viddaseter" />
		<tag k="name" v="Vidda" />
		<tag k="place" v="isolated_dwelling" />
		<tag k="ssr:stedsnr" v="2373" />
	</node>
	<node lat="59.24742500082936" lon="9.808130563814828" id="-25251">
		<tag k="name" v="Teie" />
		<tag k="place" v="isolated_dwelling" />
		<tag k="ssr:stedsnr" v="2643" />
	</node>
	<node lat="59.23463055376199" lon="9.745419438487486" id="-25255">
		<tag k="name" v="Gonsholtseter" />
		<tag k="place" v="locality" />
		<tag k="ssr:stedsnr" v="49172" />
	</node>
	<node lat="59.31197499961744" lon="9.653663884335929" id="-25257">
		<tag k="name" v="Grønli" />
		<tag k="place" v="isolated_dwelling" />
		<tag k="ssr:stedsnr" v="48375" />
	</node>
	<node lat="59.28466944332747" lon="9.745616667495282" id="-25260">
		<tag k="name" v="Rønningene" />
		<tag k="place" v="farm" />
		<tag k="ssr:stedsnr" v="48462" />
	</node>
	<node lat="59.26257777988257" lon="9.748038882514296" id="-25277">
		<tag k="name" v="Nystad" />
		<tag k="place" v="farm" />
		<tag k="ssr:stedsnr" v="49733" />
	</node>
	<node lat="59.25568611519409" lon="9.767177780887394" id="-25282">
		<tag k="name" v="Gonsholt" />
		<tag k="place" v="farm" />
		<tag k="ssr:stedsnr" v="63054" />
	</node>
	<node lat="59.25265555610451" lon="9.758663897404267" id="-25283">
		<tag k="fixme" v="consider place=hamlet" />
		<tag k="name" v="Rød" />
		<tag k="place" v="farm" />
		<tag k="ssr:stedsnr" v="63056" />
	</node>
	<node lat="59.39632499659988" lon="9.665602779646763" id="-25284">
		<tag k="loc_name" v="Lysetjern" />
		<tag k="name" v="Lysetjørn" />
		<tag k="place" v="farm" />
		<tag k="ssr:stedsnr" v="63330" />
	</node>
	<node lat="59.32211110686652" lon="9.665522220528292" id="-25285">
		<tag k="name" v="Skoglund" />
		<tag k="place" v="isolated_dwelling" />
		<tag k="ssr:stedsnr" v="63339" />
	</node>
	<node lat="59.30987778097254" lon="9.666938890233567" id="-25288">
		<tag k="name" v="Østgård" />
		<tag k="place" v="isolated_dwelling" />
		<tag k="ssr:stedsnr" v="63447" />
	</node>
	<node lat="59.31564999897278" lon="9.645394452462218" id="-25289">
		<tag k="fixme" v="consider place=hamlet" />
		<tag k="name" v="Sølverød" />
		<tag k="place" v="farm" />
		<tag k="ssr:stedsnr" v="63451" />
	</node>
	<node lat="59.295111111839255" lon="9.690980548051657" id="-25294">
		<tag k="alt_name" v="Klauverød" />
		<tag k="fixme" v="consider place=hamlet" />
		<tag k="name" v="Kløverød" />
		<tag k="place" v="farm" />
		<tag k="ssr:stedsnr" v="109260" />
	</node>
	<node lat="59.309522217792505" lon="9.66345000299318" id="-25298">
		<tag k="name" v="Tveitan nordre" />
		<tag k="place" v="farm" />
		<tag k="ssr:stedsnr" v="110238" />
	</node>
	<node lat="59.21725000220716" lon="9.825130563376348" id="-25300">
		<tag k="name" v="Skogtvet" />
		<tag k="old_name" v="Skogtveit" />
		<tag k="place" v="farm" />
		<tag k="ssr:stedsnr" v="122739" />
	</node>
	<node lat="59.24983611498441" lon="9.824263882989737" id="-25302">
		<tag k="name" v="Holt" />
		<tag k="place" v="farm" />
		<tag k="ssr:stedsnr" v="123061" />
	</node>
	<node lat="59.31353888874077" lon="9.656666669249173" id="-25304">
		<tag k="name" v="Vestby" />
		<tag k="place" v="farm" />
		<tag k="ssr:stedsnr" v="123482" />
	</node>
	<node lat="59.29301389005168" lon="9.696522216426498" id="-25306">
		<tag k="name" v="Kløvstad" />
		<tag k="place" v="farm" />
		<tag k="ssr:stedsnr" v="123434" />
	</node>
	<node lat="59.23834721944047" lon="9.802099995438173" id="-25307">
		<tag k="name" v="Finsrud" />
		<tag k="place" v="farm" />
		<tag k="ssr:stedsnr" v="123676" />
	</node>
	<node lat="59.21656666976729" lon="9.816186119779438" id="-25315">
		<tag k="name" v="Moholtseter" />
		<tag k="place" v="locality" />
		<tag k="ssr:stedsnr" v="169236" />
	</node>
	<node lat="59.27210555497673" lon="9.737644441335693" id="-25317">
		<tag k="name" v="Norheim" />
		<tag k="place" v="farm" />
		<tag k="ssr:stedsnr" v="169599" />
	</node>
	<node lat="59.213633331498585" lon="9.844080549321516" id="-25332">
		<tag k="fixme" v="consider place=hamlet" />
		<tag k="name" v="Kvisla" />
		<tag k="place" v="farm" />
		<tag k="ssr:stedsnr" v="183746" />
	</node>
	<node lat="59.30139999699883" lon="9.640516663961536" id="-25338">
		<tag k="name" v="Avsøla" />
		<tag k="place" v="farm" />
		<tag k="ssr:stedsnr" v="184401" />
	</node>
	<node lat="59.30853611155293" lon="9.659161102982788" id="-25340">
		<tag k="name" v="Nordtveit" />
		<tag k="place" v="isolated_dwelling" />
		<tag k="ssr:stedsnr" v="184422" />
	</node>
	<node lat="59.32925278122808" lon="9.726836119319762" id="-25342">
		<tag k="alt_name" v="Hogstadsæter, s" />
		<tag k="historic" v="shieling" />
		<tag k="name" v="Søndre Hogstadseter" />
		<tag k="place" v="isolated_dwelling" />
		<tag k="ssr:stedsnr" v="184332" />
	</node>
	<node lat="59.26435000301219" lon="9.742188889476084" id="-25344">
		<tag k="fixme" v="consider place=hamlet" />
		<tag k="name" v="Serkland" />
		<tag k="place" v="farm" />
		<tag k="ssr:stedsnr" v="184474" />
	</node>
	<node lat="59.274005558666644" lon="9.702155559159065" id="-25347">
		<tag k="alt_name" v="Holtefeltet" />
		<tag k="name" v="Holtesletta" />
		<tag k="place" v="quarter" />
		<tag k="ssr:stedsnr" v="203244" />
	</node>
	<node lat="59.28452222655676" lon="9.708811110743067" id="-25354">
		<tag k="name" v="Høiset" />
		<tag k="place" v="farm" />
		<tag k="ssr:stedsnr" v="291514" />
	</node>
	<node lat="59.37216666522132" lon="9.675916662359867" id="-25362">
		<tag k="name" v="Bjørndalen" />
		<tag k="place" v="farm" />
		<tag k="ssr:stedsnr" v="305272" />
	</node>
	<node lat="59.29567500296368" lon="9.682772221839034" id="-25364">
		<tag k="name" v="Solås" />
		<tag k="place" v="farm" />
		<tag k="ssr:stedsnr" v="305407" />
	</node>
	<node lat="59.31222499722282" lon="9.641877783114252" id="-25365">
		<tag k="name" v="Granli" />
		<tag k="place" v="farm" />
		<tag k="ssr:stedsnr" v="305459" />
	</node>
	<node lat="59.28736666609324" lon="9.703408340824767" id="-25367">
		<tag k="fixme" v="consider place=hamlet" />
		<tag k="name" v="Høgset" />
		<tag k="place" v="farm" />
		<tag k="ssr:stedsnr" v="305541" />
	</node>
	<node lat="59.211622222201015" lon="9.85958611545842" id="-25369">
		<tag k="fixme" v="consider place=hamlet" />
		<tag k="name" v="Neset" />
		<tag k="place" v="farm" />
		<tag k="ssr:stedsnr" v="305739" />
	</node>
	<node lat="59.40421666398809" lon="9.663783327522912" id="-25371">
		<tag k="name" v="Kollen" />
		<tag k="place" v="farm" />
		<tag k="ssr:stedsnr" v="306287" />
	</node>
	<node lat="59.3345888892202" lon="9.60307222707171" id="-25373">
		<tag k="loc_name" v="Sølverødseter" />
		<tag k="name" v="Sølverød" />
		<tag k="place" v="isolated_dwelling" />
		<tag k="ssr:stedsnr" v="306319" />
	</node>
	<node lat="59.31255555653023" lon="9.666516660406607" id="-25375">
		<tag k="name" v="Tveitan nordgård" />
		<tag k="place" v="farm" />
		<tag k="ssr:stedsnr" v="351400" />
	</node>
	<node lat="59.239205552944284" lon="9.77416388332716" id="-25388">
		<tag k="name" v="Bakkanejordet" />
		<tag k="place" v="locality" />
		<tag k="ssr:stedsnr" v="352101" />
	</node>
	<node lat="59.28281388694219" lon="9.77738889477764" id="-25389">
		<tag k="name" v="Granli" />
		<tag k="place" v="farm" />
		<tag k="ssr:stedsnr" v="352184" />
	</node>
	<node lat="59.267644446475124" lon="9.752225003793626" id="-25398">
		<tag k="name" v="Solbakken" />
		<tag k="place" v="farm" />
		<tag k="ssr:stedsnr" v="352681" />
	</node>
	<node lat="59.265333336943634" lon="9.754024995708095" id="-25399">
		<tag k="name" v="Svingen" />
		<tag k="place" v="farm" />
		<tag k="ssr:stedsnr" v="352683" />
	</node>
	<node lat="59.291575000849264" lon="9.700966674176602" id="-25408">
		<tag k="name" v="Solheim" />
		<tag k="place" v="farm" />
		<tag k="ssr:stedsnr" v="366398" />
	</node>
	<node lat="59.2665472194899" lon="9.822533332939567" id="-25411">
		<tag k="historic" v="shieling" />
		<tag k="name" v="Nordre Kisteseter" />
		<tag k="place" v="isolated_dwelling" />
		<tag k="ssr:stedsnr" v="385836" />
	</node>
	<node lat="59.27892499737642" lon="9.72986111872158" id="-25412">
		<tag k="name" v="Siljan sentrum" />
		<tag k="place" v="quarter" />
		<tag k="ssr:stedsnr" v="403616" />
	</node>
	<node lat="59.289105557200074" lon="9.698988886179858" id="-25428">
		<tag k="name" v="Holtan" />
		<tag k="place" v="farm" />
		<tag k="ssr:stedsnr" v="413615" />
	</node>
	<node lat="59.26781110692324" lon="9.73492777002241" id="-25429">
		<tag k="name" v="Nordre Engelstad" />
		<tag k="place" v="farm" />
		<tag k="ssr:stedsnr" v="413730" />
	</node>
	<node lat="59.31226666703873" lon="9.666686118950688" id="-25441">
		<tag k="name" v="Nordgård" />
		<tag k="place" v="farm" />
		<tag k="ssr:stedsnr" v="427442" />
	</node>
	<node lat="59.28780277515765" lon="9.706247227152907" id="-25442">
		<tag k="fixme" v="consider place=hamlet" />
		<tag k="name" v="Siljan" />
		<tag k="place" v="village" />
		<tag k="ssr:stedsnr" v="427513" />
	</node>
	<node lat="59.246786115611016" lon="9.763163882146708" id="-25444">
		<tag k="name" v="Vierød" />
		<tag k="place" v="farm" />
		<tag k="ssr:stedsnr" v="427628" />
	</node>
	<node lat="59.320202774039466" lon="9.664713892678087" id="-25474">
		<tag k="fixme" v="consider place=hamlet" />
		<tag k="name" v="Hogstad, øvre" />
		<tag k="place" v="farm" />
		<tag k="ssr:stedsnr" v="548335" />
	</node>
	<node lat="59.2752361103298" lon="9.723755546863924" id="-25477">
		<tag k="alt_name" v="Thorsholt" />
		<tag k="fixme" v="consider place=hamlet" />
		<tag k="name" v="Torsholt" />
		<tag k="place" v="farm" />
		<tag k="ssr:stedsnr" v="548476" />
	</node>
	<node lat="59.280349999169324" lon="9.728241666362909" id="-25479">
		<tag k="alt_name" v="Saga" />
		<tag k="name" v="Saga" />
		<tag k="place" v="farm" />
		<tag k="ssr:stedsnr" v="548480" />
	</node>
	<node lat="59.27805277452823" lon="9.79133055617581" id="-25480">
		<tag k="fixme" v="multiple name tags, choose one and add the other to alt_name" />
		<tag k="historic" v="shieling" />
		<tag k="name" v="Gurholtsetra;Gurholtsetra" />
		<tag k="place" v="isolated_dwelling" />
		<tag k="ssr:stedsnr" v="548485" />
	</node>
	<node lat="59.24218888892181" lon="9.784819445175604" id="-25484">
		<tag k="fixme" v="consider place=hamlet" />
		<tag k="name" v="Austad" />
		<tag k="place" v="farm" />
		<tag k="ssr:stedsnr" v="548628" />
	</node>
	<node lat="59.28194999830959" lon="9.676872226803393" id="-25487">
		<tag k="aerialway" v="drag_lift" />
		<tag k="fixme" v="consider the other aerialway types" />
		<tag k="name" v="Siljan Alpinsenter" />
		<tag k="ssr:stedsnr" v="566946" />
	</node>
	<node lat="59.243674997531656" lon="9.785438886201371" id="-25488">
		<tag k="name" v="Austad" />
		<tag k="place" v="hamlet" />
		<tag k="ssr:stedsnr" v="570908" />
	</node>
	<node lat="59.322219447197774" lon="9.62346389003309" id="-25499">
		<tag k="name" v="Kåsene nordre" />
		<tag k="place" v="farm" />
		<tag k="ssr:stedsnr" v="594446" />
	</node>
	<node lat="59.24759166993931" lon="9.818447223532864" id="-25501">
		<tag k="name" v="Sikane" />
		<tag k="place" v="farm" />
		<tag k="ssr:stedsnr" v="594741" />
	</node>
	<node lat="59.28800278134122" lon="9.709636115120736" id="-25502">
		<tag k="fixme" v="consider place=hamlet" />
		<tag k="name" v="Prestegården" />
		<tag k="place" v="farm" />
		<tag k="ssr:stedsnr" v="594485" />
	</node>
	<node lat="59.253008334213334" lon="9.75786388620236" id="-25503">
		<tag k="name" v="Øvre Rød" />
		<tag k="place" v="farm" />
		<tag k="ssr:stedsnr" v="594670" />
	</node>
	<node lat="59.267538890474015" lon="9.736919442048887" id="-25504">
		<tag k="name" v="Søndre Engelstad" />
		<tag k="place" v="farm" />
		<tag k="ssr:stedsnr" v="594697" />
	</node>
	<node lat="59.26769444254742" lon="9.784700003564744" id="-25506">
		<tag k="name" v="Sortedal" />
		<tag k="place" v="locality" />
		<tag k="ssr:stedsnr" v="594785" />
	</node>
	<node lat="59.26019986077261" lon="9.838809011396794" id="-25509">
		<tag k="name" v="Diplestua" />
		<tag k="place" v="locality" />
		<tag k="ssr:stedsnr" v="595825" />
	</node>
	<node lat="59.21073333489829" lon="9.840052785748853" id="-25513">
		<tag k="name" v="Kvislarønningen" />
		<tag k="old_name" v="Kvislerønningen" />
		<tag k="place" v="farm" />
		<tag k="ssr:stedsnr" v="608780" />
	</node>
	<node lat="59.333699996325464" lon="9.714916672790965" id="-25518">
		<tag k="alt_name" v="Hogstadsæter, nordre" />
		<tag k="historic" v="shieling" />
		<tag k="name" v="Nordre Hogstadseter" />
		<tag k="place" v="isolated_dwelling" />
		<tag k="ssr:stedsnr" v="609328" />
	</node>
	<node lat="59.38488888977569" lon="9.703663890166473" id="-25520">
		<tag k="name" v="Steindalen" />
		<tag k="place" v="farm" />
		<tag k="ssr:stedsnr" v="609279" />
	</node>
	<node lat="59.236166670034805" lon="9.81000554991274" id="-25527">
		<tag k="name" v="Stranda" />
		<tag k="place" v="locality" />
		<tag k="ssr:stedsnr" v="655002" />
	</node>
	<node lat="59.295291668737164" lon="9.792222217875592" id="-25528">
		<tag k="name" v="Fjellriset" />
		<tag k="place" v="isolated_dwelling" />
		<tag k="ssr:stedsnr" v="655229" />
	</node>
	<node lat="59.28968333552211" lon="9.70272499630005" id="-25532">
		<tag k="name" v="Ekli" />
		<tag k="place" v="farm" />
		<tag k="ssr:stedsnr" v="655274" />
	</node>
	<node lat="59.248977780255345" lon="9.798516668535184" id="-25540">
		<tag k="name" v="Kiste" />
		<tag k="place" v="isolated_dwelling" />
		<tag k="ssr:stedsnr" v="655766" />
	</node>
	<node lat="59.2956138857515" lon="9.69252500063585" id="-25548">
		<tag k="alt_name" v="Kløverød søndre" />
		<tag k="name" v="Kløverød" />
		<tag k="place" v="farm" />
		<tag k="ssr:stedsnr" v="669382" />
	</node>
	<node lat="59.374955558828646" lon="9.7475416683899" id="-25550">
		<tag k="fixme" v="consider tourism=alpine_hut or tourism=chalet" />
		<tag k="name" v="Årum" />
		<tag k="ssr:stedsnr" v="669256" />
		<tag k="tourism" v="wilderness_hut" />
	</node>
	<node lat="59.31656111111383" lon="9.653027780968197" id="-25551">
		<tag k="name" v="Botndalen" />
		<tag k="place" v="farm" />
		<tag k="ssr:stedsnr" v="669444" />
	</node>
	<node lat="59.294497220991474" lon="9.68701388952136" id="-25557">
		<tag k="name" v="Oset" />
		<tag k="place" v="farm" />
		<tag k="ssr:stedsnr" v="715299" />
	</node>
	<node lat="59.30902499588426" lon="9.66392222097154" id="-25561">
		<tag k="name" v="Tveitan søndre" />
		<tag k="place" v="farm" />
		<tag k="ssr:stedsnr" v="716273" />
	</node>
	<node lat="59.279288890881936" lon="9.727386111038141" id="-25565">
		<tag k="name" v="Østby" />
		<tag k="place" v="farm" />
		<tag k="ssr:stedsnr" v="716519" />
	</node>
	<node lat="59.2827499975499" lon="9.710336108522775" id="-25566">
		<tag k="name" v="Bjørntvedt" />
		<tag k="place" v="farm" />
		<tag k="ssr:stedsnr" v="716520" />
	</node>
	<node lat="59.255647226253444" lon="9.770988885080982" id="-25568">
		<tag k="name" v="Prestejordet" />
		<tag k="place" v="farm" />
		<tag k="ssr:stedsnr" v="716839" />
	</node>
	<node lat="59.25438888830513" lon="9.855830563623313" id="-25569">
		<tag k="name" v="Gamleseter" />
		<tag k="place" v="locality" />
		<tag k="ssr:stedsnr" v="716899" />
	</node>
	<node lat="59.23357222053131" lon="9.83446110636935" id="-25572">
		<tag k="name" v="Streket" />
		<tag k="place" v="farm" />
		<tag k="ssr:stedsnr" v="716962" />
	</node>
	<node lat="59.234344441357905" lon="9.847702778753156" id="-25574">
		<tag k="name" v="Dåpan" />
		<tag k="place" v="farm" />
		<tag k="ssr:stedsnr" v="729662" />
	</node>
	<node lat="59.31491389157403" lon="9.640752774514507" id="-25580">
		<tag k="name" v="Skogstad" />
		<tag k="place" v="farm" />
		<tag k="ssr:stedsnr" v="730443" />
	</node>
	<node lat="59.373200002146206" lon="9.691686106124969" id="-25581">
		<tag k="name" v="Hakhaug" />
		<tag k="place" v="isolated_dwelling" />
		<tag k="ssr:stedsnr" v="730280" />
	</node>
	<node lat="59.39519166324735" lon="9.70334999817065" id="-25588">
		<tag k="name" v="Grorudplassen" />
		<tag k="place" v="farm" />
		<tag k="ssr:stedsnr" v="731255" />
	</node>
	<node lat="59.30552222284" lon="9.64519444422286" id="-25590">
		<tag k="name" v="Svenskerønningen" />
		<tag k="place" v="farm" />
		<tag k="ssr:stedsnr" v="777274" />
	</node>
	<node lat="59.21113333723421" lon="9.828311114497831" id="-25611">
		<tag k="name" v="Rønningen" />
		<tag k="place" v="farm" />
		<tag k="ssr:stedsnr" v="790766" />
	</node>
	<node lat="59.262574999608645" lon="9.753622229579912" id="-25613">
		<tag k="name" v="Haugen" />
		<tag k="place" v="farm" />
		<tag k="ssr:stedsnr" v="791033" />
	</node>
	<node lat="59.29718610790613" lon="9.680749997316967" id="-25616">
		<tag k="name" v="Kløva" />
		<tag k="place" v="farm" />
		<tag k="ssr:stedsnr" v="791367" />
	</node>
	<node lat="59.285877780995655" lon="9.74217222253498" id="-25618">
		<tag k="name" v="Rønningane" />
		<tag k="place" v="farm" />
		<tag k="ssr:stedsnr" v="791469" />
	</node>
	<node lat="59.265877782253234" lon="9.737930555045068" id="-25628">
		<tag k="name" v="Skogheim" />
		<tag k="place" v="farm" />
		<tag k="ssr:stedsnr" v="838748" />
	</node>
	<node lat="59.25974166751329" lon="9.75660555179319" id="-25629">
		<tag k="name" v="Elverhøy" />
		<tag k="place" v="isolated_dwelling" />
		<tag k="ssr:stedsnr" v="838715" />
	</node>
	<node lat="59.246344441917145" lon="9.818644441318645" id="-25634">
		<tag k="alt_name" v="Holtsdalen" />
		<tag k="name" v="Holtsdalen" />
		<tag k="place" v="farm" />
		<tag k="ssr:stedsnr" v="851639" />
	</node>
	<node lat="59.32122499659581" lon="9.665822218982983" id="-25639">
		<tag k="name" v="Hogstadgrenda" />
		<tag k="place" v="hamlet" />
		<tag k="ssr:stedsnr" v="852323" />
	</node>
	<node lat="59.322355558420355" lon="9.654333341479584" id="-25640">
		<tag k="name" v="Hansekåken" />
		<tag k="place" v="farm" />
		<tag k="ssr:stedsnr" v="852324" />
	</node>
	<node lat="59.319380557344545" lon="9.660374992573932" id="-25641">
		<tag k="alt_name" v="Nedre Hogstad" />
		<tag k="fixme" v="consider place=hamlet" />
		<tag k="name" v="Hogstad, nedre" />
		<tag k="place" v="farm" />
		<tag k="ssr:stedsnr" v="852325" />
	</node>
	<node lat="59.273200003877285" lon="9.728205548260133" id="-25645">
		<tag k="name" v="Sande" />
		<tag k="place" v="farm" />
		<tag k="ssr:stedsnr" v="852453" />
	</node>
	<node lat="59.27392500271795" lon="9.710927780738565" id="-25646">
		<tag k="name" v="Bakkane" />
		<tag k="place" v="quarter" />
		<tag k="ssr:stedsnr" v="852456" />
	</node>
	<node lat="59.27136666596291" lon="9.713152779429738" id="-25648">
		<tag k="name" v="Bakkaneriset" />
		<tag k="place" v="quarter" />
		<tag k="ssr:stedsnr" v="949563" />
	</node>
	<node lat="59.31242222585859" lon="9.650224993976778" id="-25652">
		<tag k="name" v="Granheim" />
		<tag k="place" v="isolated_dwelling" />
		<tag k="ssr:stedsnr" v="958434" />
	</node>
	<node lat="59.2387111132223" lon="9.735422219348868" id="-25656">
		<tag k="historic" v="shieling" />
		<tag k="name" v="Rødseter" />
		<tag k="place" v="isolated_dwelling" />
		<tag k="ssr:stedsnr" v="959137" />
	</node>
	<node lat="59.26767499826754" lon="9.746769445409921" id="-25659">
		<tag k="name" v="Vestre Gurholt" />
		<tag k="place" v="farm" />
		<tag k="ssr:stedsnr" v="959685" />
	</node>
	<node lat="59.26843055859639" lon="9.748133333416655" id="-25660">
		<tag k="name" v="Østre Gurholt" />
		<tag k="place" v="farm" />
		<tag k="ssr:stedsnr" v="959681" />
	</node>
	<node lat="59.397605963414364" lon="9.705660295303419" id="-25661">
		<tag k="fixme" v="consider place=hamlet" />
		<tag k="name" v="Grorud" />
		<tag k="place" v="farm" />
		<tag k="ssr:stedsnr" v="980386" />
	</node>
	<node lat="59.354060412701315" lon="9.6700353800722" id="-25662">
		<tag k="fixme" v="consider place=hamlet" />
		<tag k="name" v="Vannebuseter" />
		<tag k="place" v="farm" />
		<tag k="ssr:stedsnr" v="980387" />
	</node>
	<node lat="59.319618403993026" lon="9.663249162009894" id="-25663">
		<tag k="name" v="Hogstad" />
		<tag k="place" v="hamlet" />
		<tag k="ssr:stedsnr" v="980389" />
	</node>
	<node lat="59.30910582050719" lon="9.666599422610712" id="-25664">
		<tag k="fixme" v="consider place=hamlet" />
		<tag k="name" v="Tveitan" />
		<tag k="place" v="farm" />
		<tag k="ssr:stedsnr" v="980390" />
	</node>
	<node lat="59.29533128324787" lon="9.643848287402726" id="-25665">
		<tag k="name" v="Brattås" />
		<tag k="place" v="locality" />
		<tag k="ssr:stedsnr" v="980392" />
	</node>
	<node lat="59.26835181340601" lon="9.736559769259735" id="-25666">
		<tag k="fixme" v="consider place=hamlet" />
		<tag k="name" v="Engelstad" />
		<tag k="place" v="farm" />
		<tag k="ssr:stedsnr" v="980395" />
	</node>
	<node lat="59.25606517249034" lon="9.767602624819705" id="-25669">
		<tag k="fixme" v="consider place=hamlet" />
		<tag k="name" v="Nordre Gonsholt" />
		<tag k="place" v="farm" />
		<tag k="ssr:stedsnr" v="980398" />
	</node>
	<node lat="59.25417376030742" lon="9.76772162077389" id="-25670">
		<tag k="fixme" v="consider place=hamlet" />
		<tag k="name" v="Søndre Gonsholt" />
		<tag k="place" v="farm" />
		<tag k="ssr:stedsnr" v="980399" />
	</node>
	<node lat="59.25506240000773" lon="9.767987727508668" id="-25671">
		<tag k="name" v="Gonsholt" />
		<tag k="place" v="hamlet" />
		<tag k="ssr:stedsnr" v="980400" />
	</node>
	<node lat="59.256534765198914" lon="9.822287276348442" id="-25672">
		<tag k="name" v="Nordre Kiste" />
		<tag k="place" v="locality" />
		<tag k="ssr:stedsnr" v="980402" />
	</node>
	<node lat="59.24411732606848" lon="9.803642035640335" id="-25673">
		<tag k="fixme" v="consider place=hamlet" />
		<tag k="name" v="Søndre Kiste" />
		<tag k="place" v="farm" />
		<tag k="ssr:stedsnr" v="980403" />
	</node>
	<node lat="59.24604344864191" lon="9.803010669108751" id="-25674">
		<tag k="name" v="Kiste" />
		<tag k="place" v="hamlet" />
		<tag k="ssr:stedsnr" v="980404" />
	</node>
	<node lat="59.2270559975939" lon="9.852757205334724" id="-25675">
		<tag k="fixme" v="consider place=hamlet" />
		<tag k="name" v="Auen" />
		<tag k="place" v="farm" />
		<tag k="ssr:stedsnr" v="980405" />
	</node>
	<node lat="59.24229125345703" lon="9.808091958712504" id="-25680">
		<tag k="name" v="Trahaug" />
		<tag k="place" v="farm" />
		<tag k="ssr:stedsnr" v="1080854" />
	</node>
</osm>
