<?xml version="1.0" encoding="UTF-8"?>
<osm version="0.6" generator="osmapis">
	<node lat="59.20236666759112" lon="9.866986119452001" id="-50420">
		<tag k="name" v="Trollkjerka" />
		<tag k="natural" v="hill" />
		<tag k="place" v="locality" />
		<tag k="ssr:stedsnr" v="1691" />
	</node>
	<node lat="59.39753611298133" lon="9.745486117621228" id="-50422">
		<tag k="loc_name" v="Breiangmyr" />
		<tag k="name" v="Breidangsmyra" />
		<tag k="natural" v="wetland" />
		<tag k="ssr:stedsnr" v="2306" />
	</node>
	<node lat="59.37270686721016" lon="9.663713995531923" id="-50423">
		<tag k="name" v="Toa" />
		<tag k="place" v="farm" />
		<tag k="ssr:stedsnr" v="2277" />
	</node>
	<node lat="59.30565277450214" lon="9.6920888832316" id="-50424">
		<tag k="alt_name" v="Kløvrødkollene" />
		<tag k="fixme" v="consider natural=peak for the most distinct mountains in the district" />
		<tag k="name" v="Kløverødkollane" />
		<tag k="natural" v="hill" />
		<tag k="place" v="locality" />
		<tag k="ssr:stedsnr" v="2426" />
	</node>
	<node lat="59.30602777571561" lon="9.643449995136" id="-50425">
		<tag k="name" v="Nilsrud" />
		<tag k="place" v="farm" />
		<tag k="ssr:stedsnr" v="2433" />
	</node>
	<node lat="59.2224305512615" lon="9.773544441189557" id="-50427">
		<tag k="fixme" v="consider natural=peak for the most distinct mountains in the district" />
		<tag k="name" v="Langetjønnåsen" />
		<tag k="natural" v="hill" />
		<tag k="place" v="locality" />
		<tag k="ssr:stedsnr" v="230201" />
	</node>
	<node lat="59.209574997367895" lon="9.844852786085827" id="-50428">
		<tag k="name" v="Vassbotn" />
		<tag k="natural" v="beach" />
		<tag k="ssr:stedsnr" v="230297" />
	</node>
	<node lat="59.22262777666955" lon="9.814869441408709" id="-50429">
		<tag k="name" v="Svensketjønn" />
		<tag k="natural" v="water" />
		<tag k="ssr:stedsnr" v="230246" />
	</node>
	<node lat="59.2062777810721" lon="9.818261104642147" id="-50430">
		<tag k="name" v="Snødal" />
		<tag k="natural" v="valley" />
		<tag k="place" v="locality" />
		<tag k="ssr:stedsnr" v="230262" />
	</node>
	<node lat="59.22484722046676" lon="9.794791673045584" id="-50431">
		<tag k="name" v="Lille Trytetjønn" />
		<tag k="natural" v="water" />
		<tag k="ssr:stedsnr" v="230270" />
	</node>
	<node lat="59.214358334105626" lon="9.855691664377206" id="-50432">
		<tag k="name" v="Moholttangen" />
		<tag k="natural" v="cape" />
		<tag k="ssr:stedsnr" v="230275" />
	</node>
	<node lat="59.330580553867925" lon="9.676375007509822" id="-50433">
		<tag k="name" v="Masovnlia" />
		<tag k="natural" v="slope" />
		<tag k="place" v="locality" />
		<tag k="ssr:stedsnr" v="230394" />
	</node>
	<node lat="59.28920833417732" lon="9.757224996576163" id="-50434">
		<tag k="fixme" v="consider natural=peak for the most distinct mountains in the district" />
		<tag k="name" v="Brånan" />
		<tag k="natural" v="hill" />
		<tag k="place" v="locality" />
		<tag k="ssr:stedsnr" v="230472" />
	</node>
	<node lat="59.25001666959736" lon="9.767150005442664" id="-50437">
		<tag k="name" v="Tufte" />
		<tag k="place" v="farm" />
		<tag k="ssr:stedsnr" v="230823" />
	</node>
	<node lat="59.2369111099559" lon="9.854224996542575" id="-50440">
		<tag k="name" v="Lindedalen" />
		<tag k="natural" v="valley" />
		<tag k="place" v="locality" />
		<tag k="ssr:stedsnr" v="230867" />
	</node>
	<node lat="59.24395555912" lon="9.821152770901762" id="-50441">
		<tag k="name" v="Silkemyra" />
		<tag k="natural" v="wetland" />
		<tag k="ssr:stedsnr" v="230931" />
	</node>
	<node lat="59.24599166994287" lon="9.777866674017849" id="-50442">
		<tag k="name" v="Struten" />
		<tag k="natural" v="bay" />
		<tag k="ssr:stedsnr" v="231053" />
	</node>
	<node lat="59.30559999650356" lon="9.660183333826705" id="-50443">
		<tag k="name" v="Nordre Sørtveit" />
		<tag k="place" v="farm" />
		<tag k="ssr:stedsnr" v="231291" />
	</node>
	<node lat="59.29088333629618" lon="9.68973889762309" id="-50444">
		<tag k="name" v="Friborg" />
		<tag k="place" v="farm" />
		<tag k="ssr:stedsnr" v="231313" />
	</node>
	<node lat="59.30602222617869" lon="9.649127783129678" id="-50445">
		<tag k="name" v="Rønningen" />
		<tag k="place" v="farm" />
		<tag k="ssr:stedsnr" v="231329" />
	</node>
	<node lat="59.31349722670556" lon="9.775008334028179" id="-50446">
		<tag k="name" v="Husmannsriset" />
		<tag k="place" v="locality" />
		<tag k="ssr:stedsnr" v="231350" />
	</node>
	<node lat="59.31840833021132" lon="9.733880548558684" id="-50447">
		<tag k="name" v="Aslakstjønn" />
		<tag k="natural" v="water" />
		<tag k="ssr:stedsnr" v="231409" />
	</node>
	<node lat="59.26728055865822" lon="9.833111117707261" id="-50452">
		<tag k="name" v="Latedal" />
		<tag k="natural" v="valley" />
		<tag k="place" v="locality" />
		<tag k="ssr:stedsnr" v="231863" />
	</node>
	<node lat="59.223652781924784" lon="9.78963888323914" id="-50453">
		<tag k="name" v="Skilbredrisa" />
		<tag k="place" v="locality" />
		<tag k="ssr:stedsnr" v="48215" />
	</node>
	<node lat="59.322430554048516" lon="9.645519445988693" id="-50454">
		<tag k="name" v="Islandsliene" />
		<tag k="natural" v="slope" />
		<tag k="place" v="locality" />
		<tag k="ssr:stedsnr" v="48418" />
	</node>
	<node lat="59.31821111363023" lon="9.600833330078979" id="-50455">
		<tag k="name" v="Mikkelskås" />
		<tag k="place" v="locality" />
		<tag k="ssr:stedsnr" v="48421" />
	</node>
	<node lat="59.24239444490925" lon="9.769625001808656" id="-50456">
		<tag k="fixme" v="consider natural=peak for the most distinct mountains in the district" />
		<tag k="name" v="Risåsen" />
		<tag k="natural" v="hill" />
		<tag k="place" v="locality" />
		<tag k="ssr:stedsnr" v="49106" />
	</node>
	<node lat="59.27161666334587" lon="9.677327777256163" id="-50457">
		<tag k="name" v="Gaupedal" />
		<tag k="natural" v="valley" />
		<tag k="place" v="locality" />
		<tag k="ssr:stedsnr" v="49606" />
	</node>
	<node lat="59.25661389107081" lon="9.825202770843799" id="-50458">
		<tag k="name" v="Nordre Modal" />
		<tag k="natural" v="valley" />
		<tag k="place" v="locality" />
		<tag k="ssr:stedsnr" v="49828" />
	</node>
	<node lat="59.29647777381089" lon="9.750052781963582" id="-50459">
		<tag k="fixme" v="consider natural=peak for the most distinct mountains in the district" />
		<tag k="name" v="Melakollen" />
		<tag k="natural" v="hill" />
		<tag k="place" v="locality" />
		<tag k="ssr:stedsnr" v="63403" />
	</node>
	<node lat="59.343905558783035" lon="9.65497777363066" id="-50462">
		<tag k="name" v="Vassdalen" />
		<tag k="place" v="isolated_dwelling" />
		<tag k="ssr:stedsnr" v="63368" />
	</node>
	<node lat="59.341202773890956" lon="9.732402783489363" id="-50463">
		<tag k="loc_name" v="Grønlimyr" />
		<tag k="name" v="Grønlimyra" />
		<tag k="natural" v="wetland" />
		<tag k="ssr:stedsnr" v="63369" />
	</node>
	<node lat="59.330299997651494" lon="9.596330548694993" id="-50464">
		<tag k="name" v="Småholbekken" />
		<tag k="ssr:stedsnr" v="63382" />
		<tag k="waterway" v="stream" />
	</node>
	<node lat="59.283827775726415" lon="9.733836119036674" id="-50465">
		<tag k="fixme" v="consider place=hamlet" />
		<tag k="name" v="Øverbø" />
		<tag k="place" v="farm" />
		<tag k="ssr:stedsnr" v="63513" />
	</node>
	<node lat="59.062308335297594" lon="10.008838894486331" id="-50466">
		<tag k="alt_name" v="Farrisvatnet" />
		<tag k="name" v="Farris" />
		<tag k="natural" v="water" />
		<tag k="ssr:stedsnr" v="244615" />
		<tag k="water" v="lake" />
	</node>
	<node lat="59.22593055239345" lon="9.747769441546927" id="-50467">
		<tag k="fixme" v="consider natural=peak for the most distinct mountains in the district" />
		<tag k="name" v="Galten" />
		<tag k="natural" v="hill" />
		<tag k="place" v="locality" />
		<tag k="ssr:stedsnr" v="244739" />
	</node>
	<node lat="59.35918888911217" lon="9.701566670499016" id="-50468">
		<tag k="fixme" v="consider natural=peak for the most distinct mountains in the district" />
		<tag k="name" v="Skum" />
		<tag k="natural" v="hill" />
		<tag k="place" v="locality" />
		<tag k="ssr:stedsnr" v="245241" />
	</node>
	<node lat="59.27254722194788" lon="9.722197223457032" id="-50469">
		<tag k="name" v="Torsholt" />
		<tag k="place" v="hamlet" />
		<tag k="ssr:stedsnr" v="85906" />
	</node>
	<node lat="59.33083889248896" lon="9.712811111168355" id="-50472">
		<tag k="alt_name" v="Midttjønn" />
		<tag k="name" v="Midttjørn" />
		<tag k="natural" v="water" />
		<tag k="ssr:stedsnr" v="245319" />
	</node>
	<node lat="59.342252774459986" lon="9.771683330926841" id="-50473">
		<tag k="fixme" v="consider natural=peak for the most distinct mountains in the district" />
		<tag k="name" v="Stubbekollen" />
		<tag k="natural" v="hill" />
		<tag k="place" v="locality" />
		<tag k="ssr:stedsnr" v="245337" />
	</node>
	<node lat="59.284145487182094" lon="9.810553378939174" id="-50474">
		<tag k="alt_name" v="Hauksjø" />
		<tag k="name" v="Haukesjø" />
		<tag k="natural" v="water" />
		<tag k="ssr:stedsnr" v="245469" />
	</node>
	<node lat="59.30127500283917" lon="9.668233340716128" id="-50476">
		<tag k="bridge" v="yes" />
		<tag k="layer" v="1" />
		<tag k="name" v="Håberget bru" />
		<tag k="ssr:stedsnr" v="107336" />
	</node>
	<node lat="59.20580000212497" lon="9.845580558248438" id="-50477">
		<tag k="fixme" v="consider natural=peak for the most distinct mountains in the district" />
		<tag k="name" v="Furuåsen" />
		<tag k="natural" v="hill" />
		<tag k="place" v="locality" />
		<tag k="ssr:stedsnr" v="109305" />
	</node>
	<node lat="59.254083332784276" lon="9.820027783079308" id="-50478">
		<tag k="name" v="Søndre Modalen" />
		<tag k="place" v="locality" />
		<tag k="ssr:stedsnr" v="109719" />
	</node>
	<node lat="59.2321361066903" lon="9.768561113518942" id="-50482">
		<tag k="name" v="Flatane" />
		<tag k="place" v="locality" />
		<tag k="ssr:stedsnr" v="110077" />
	</node>
	<node lat="59.30772222168503" lon="9.630183339999412" id="-50483">
		<tag k="name" v="Vierdalen" />
		<tag k="natural" v="valley" />
		<tag k="place" v="locality" />
		<tag k="ssr:stedsnr" v="110282" />
	</node>
	<node lat="59.24738055830402" lon="9.847966666558419" id="-50484">
		<tag k="name" v="Jøttane" />
		<tag k="place" v="locality" />
		<tag k="ssr:stedsnr" v="110922" />
	</node>
	<node lat="59.30488611217417" lon="9.609430556075958" id="-50485">
		<tag k="fixme" v="consider natural=peak for the most distinct mountains in the district" />
		<tag k="name" v="Dansaren" />
		<tag k="natural" v="hill" />
		<tag k="place" v="locality" />
		<tag k="ssr:stedsnr" v="123466" />
	</node>
	<node lat="59.323630875724895" lon="9.665711916700829" id="-50486">
		<tag k="name" v="Skogstue" />
		<tag k="place" v="isolated_dwelling" />
		<tag k="ssr:stedsnr" v="124261" />
	</node>
	<node lat="59.27482777577682" lon="9.740216661372356" id="-50487">
		<tag k="fixme" v="consider natural=peak for the most distinct mountains in the district" />
		<tag k="name" v="Gurholtåsen" />
		<tag k="natural" v="hill" />
		<tag k="place" v="locality" />
		<tag k="ssr:stedsnr" v="169594" />
	</node>
	<node lat="59.22890277493146" lon="9.803580549326158" id="-50488">
		<tag k="name" v="Store Høystakkmyr" />
		<tag k="natural" v="wetland" />
		<tag k="ssr:stedsnr" v="170004" />
	</node>
	<node lat="59.25316944699152" lon="9.763733341206688" id="-50489">
		<tag k="name" v="Vestgård" />
		<tag k="place" v="farm" />
		<tag k="ssr:stedsnr" v="170710" />
	</node>
	<node lat="59.25565278094186" lon="9.763416664976656" id="-50490">
		<tag k="name" v="Bjerke" />
		<tag k="place" v="farm" />
		<tag k="ssr:stedsnr" v="170712" />
	</node>
	<node lat="59.26883333304686" lon="9.827861105283448" id="-50491">
		<tag k="name" v="Store Kistemyr" />
		<tag k="natural" v="wetland" />
		<tag k="ssr:stedsnr" v="170861" />
	</node>
	<node lat="59.257630552488244" lon="9.852944451059187" id="-50492">
		<tag k="name" v="Heidippel" />
		<tag k="natural" v="water" />
		<tag k="ssr:stedsnr" v="170870" />
	</node>
	<node lat="59.315411113709075" lon="9.714158340592286" id="-50495">
		<tag k="alt_name" v="Kløverødsæter" />
		<tag k="name" v="Kløverødseter" />
		<tag k="place" v="isolated_dwelling" />
		<tag k="ssr:stedsnr" v="184441" />
	</node>
	<node lat="59.314811109427396" lon="9.65741665923789" id="-50496">
		<tag k="name" v="Elvestad" />
		<tag k="place" v="farm" />
		<tag k="ssr:stedsnr" v="184448" />
	</node>
	<node lat="59.26864722170071" lon="9.746827775257433" id="-50498">
		<tag k="alt_name" v="Gurholt" />
		<tag k="fixme" v="consider place=hamlet" />
		<tag k="name" v="Gurholt" />
		<tag k="place" v="farm" />
		<tag k="ssr:stedsnr" v="184462" />
	</node>
	<node lat="59.28536111247167" lon="9.713200007254118" id="-50500">
		<tag k="name" v="Siljanelva" />
		<tag k="ssr:stedsnr" v="184506" />
		<tag k="waterway" v="river" />
	</node>
	<node lat="59.20870000386751" lon="9.835283340048228" id="-50501">
		<tag k="name" v="Hesteriset" />
		<tag k="place" v="locality" />
		<tag k="ssr:stedsnr" v="230305" />
	</node>
	<node lat="59.19896666869351" lon="9.87088610385415" id="-50502">
		<tag k="name" v="Sprena" />
		<tag k="ssr:stedsnr" v="230311" />
		<tag k="waterway" v="stream" />
	</node>
	<node lat="59.20125000436549" lon="9.833936116189335" id="-50503">
		<tag k="highway" v="path" />
		<tag k="name" v="Turistvegen" />
		<tag k="ssr:stedsnr" v="230315" />
	</node>
	<node lat="59.28673333357792" lon="9.687425004783826" id="-50504">
		<tag k="fixme" v="consider natural=peak for the most distinct mountains in the district" />
		<tag k="name" v="Skilbreiåsane" />
		<tag k="natural" v="hill" />
		<tag k="place" v="locality" />
		<tag k="ssr:stedsnr" v="230532" />
	</node>
	<node lat="59.31375277823527" lon="9.595025003109546" id="-50505">
		<tag k="name" v="Tømmerdalsbekk" />
		<tag k="ssr:stedsnr" v="230433" />
		<tag k="waterway" v="stream" />
	</node>
	<node lat="59.320466668815" lon="9.626419448325631" id="-50506">
		<tag k="name" v="Kåsene søndre" />
		<tag k="place" v="farm" />
		<tag k="ssr:stedsnr" v="230436" />
	</node>
	<node lat="59.279572226298235" lon="9.73492222250794" id="-50507">
		<tag k="name" v="Åsen" />
		<tag k="place" v="farm" />
		<tag k="ssr:stedsnr" v="230584" />
	</node>
	<node lat="59.26259721812004" lon="9.801252780961812" id="-50508">
		<tag k="name" v="Vikshovet" />
		<tag k="natural" v="ridge" />
		<tag k="place" v="locality" />
		<tag k="ssr:stedsnr" v="230729" />
	</node>
	<node lat="59.233430555843995" lon="9.788900004292586" id="-50509">
		<tag k="name" v="Trangedal" />
		<tag k="natural" v="valley" />
		<tag k="place" v="locality" />
		<tag k="ssr:stedsnr" v="231094" />
	</node>
	<node lat="59.233608334867114" lon="9.82792777466622" id="-50510">
		<tag k="fixme" v="consider natural=peak for the most distinct mountains in the district" />
		<tag k="name" v="Søndre Strekås" />
		<tag k="natural" v="hill" />
		<tag k="place" v="locality" />
		<tag k="ssr:stedsnr" v="230986" />
	</node>
	<node lat="59.23751666301497" lon="9.778852775399445" id="-50511">
		<tag k="fixme" v="consider natural=peak for the most distinct mountains in the district" />
		<tag k="name" v="Rønningsåsen" />
		<tag k="natural" v="hill" />
		<tag k="place" v="locality" />
		<tag k="ssr:stedsnr" v="231105" />
	</node>
	<node lat="59.23426388988335" lon="9.782463894788037" id="-50512">
		<tag k="fixme" v="consider natural=peak for the most distinct mountains in the district" />
		<tag k="name" v="Hauane" />
		<tag k="natural" v="hill" />
		<tag k="place" v="locality" />
		<tag k="ssr:stedsnr" v="231111" />
	</node>
	<node lat="59.32957222019377" lon="9.597241668505863" id="-50513">
		<tag k="name" v="Askedalen" />
		<tag k="natural" v="valley" />
		<tag k="place" v="locality" />
		<tag k="ssr:stedsnr" v="231513" />
	</node>
	<node lat="59.31577221830696" lon="9.59308055579158" id="-50517">
		<tag k="name" v="Brantemyrdalen" />
		<tag k="natural" v="valley" />
		<tag k="place" v="locality" />
		<tag k="ssr:stedsnr" v="450743" />
	</node>
	<node lat="59.31064167108956" lon="9.734202780266637" id="-50518">
		<tag k="name" v="Bustemyrane" />
		<tag k="natural" v="wetland" />
		<tag k="ssr:stedsnr" v="245407" />
	</node>
	<node lat="59.31289444098311" lon="9.75431944069157" id="-50519">
		<tag k="alt_name" v="Prestegårdsætra" />
		<tag k="name" v="Prestegårdseter" />
		<tag k="place" v="isolated_dwelling" />
		<tag k="ssr:stedsnr" v="245409" />
	</node>
	<node lat="59.32267222087869" lon="9.76064444082855" id="-50522">
		<tag k="name" v="Vindfjell sørøst" />
		<tag k="place" v="locality" />
		<tag k="ssr:stedsnr" v="452991" />
	</node>
	<node lat="59.24129999578747" lon="9.742916663348767" id="-50523">
		<tag k="name" v="Breimyr" />
		<tag k="natural" v="wetland" />
		<tag k="ssr:stedsnr" v="291102" />
	</node>
	<node lat="59.23932221864838" lon="9.795536109200308" id="-50524">
		<tag k="fixme" v="consider natural=peak for the most distinct mountains in the district" />
		<tag k="name" v="Fossåsen" />
		<tag k="natural" v="hill" />
		<tag k="place" v="locality" />
		<tag k="ssr:stedsnr" v="291033" />
	</node>
	<node lat="59.24659721938148" lon="9.728883337492393" id="-50525">
		<tag k="name" v="Hvilabonn" />
		<tag k="place" v="locality" />
		<tag k="ssr:stedsnr" v="291089" />
	</node>
	<node lat="59.27405277846004" lon="9.782386115571171" id="-50526">
		<tag k="fixme" v="consider natural=peak for the most distinct mountains in the district" />
		<tag k="name" v="Tjuaråsen" />
		<tag k="natural" v="hill" />
		<tag k="place" v="locality" />
		<tag k="ssr:stedsnr" v="291202" />
	</node>
	<node lat="59.27619722168379" lon="9.785044438555328" id="-50527">
		<tag k="name" v="Seterdalen" />
		<tag k="natural" v="valley" />
		<tag k="place" v="locality" />
		<tag k="ssr:stedsnr" v="291204" />
	</node>
	<node lat="59.28433888478037" lon="9.726075000800423" id="-50532">
		<tag k="name" v="Nordbø" />
		<tag k="place" v="farm" />
		<tag k="ssr:stedsnr" v="305521" />
	</node>
	<node lat="59.35513055680625" lon="9.667194447254571" id="-50533">
		<tag k="name" v="Vanebu" />
		<tag k="place" v="farm" />
		<tag k="ssr:stedsnr" v="305264" />
	</node>
	<node lat="59.301741664126844" lon="9.765816658489642" id="-50534">
		<tag k="alt_name" v="Torkiltjørn" />
		<tag k="name" v="Torkildstjønn" />
		<tag k="natural" v="water" />
		<tag k="ssr:stedsnr" v="305428" />
	</node>
	<node lat="59.313350001715825" lon="9.742836115747714" id="-50535">
		<tag k="alt_name" v="Gåladammen" />
		<tag k="name" v="Gålådammen" />
		<tag k="natural" v="water" />
		<tag k="ssr:stedsnr" v="305442" />
	</node>
	<node lat="59.267686106688984" lon="9.735016668546205" id="-50536">
		<tag k="name" v="Engelstad" />
		<tag k="place" v="farm" />
		<tag k="ssr:stedsnr" v="305472" />
	</node>
	<node lat="59.41727777550152" lon="9.632552776630593" id="-50537">
		<tag k="loc_name" v="Kapteinstjern" />
		<tag k="name" v="Kapteinstjørn" />
		<tag k="natural" v="water" />
		<tag k="ssr:stedsnr" v="306508" />
	</node>
	<node lat="59.24377222097244" lon="9.776244438501681" id="-50538">
		<tag k="name" v="Riset" />
		<tag k="place" v="farm" />
		<tag k="ssr:stedsnr" v="473053" />
	</node>
	<node lat="59.22836388481106" lon="9.809724996899444" id="-50539">
		<tag k="fixme" v="consider natural=peak for the most distinct mountains in the district" />
		<tag k="name" v="Kovedalsskarva" />
		<tag k="natural" v="hill" />
		<tag k="place" v="locality" />
		<tag k="ssr:stedsnr" v="473005" />
	</node>
	<node lat="59.24233611546662" lon="9.764141675346101" id="-50541">
		<tag k="name" v="Loppedåpan" />
		<tag k="natural" v="water" />
		<tag k="ssr:stedsnr" v="473133" />
		<tag k="water" v="pond" />
	</node>
	<node lat="59.22453333119275" lon="9.868183336102943" id="-50542">
		<tag k="name" v="Oredalen" />
		<tag k="natural" v="valley" />
		<tag k="place" v="locality" />
		<tag k="ssr:stedsnr" v="473347" />
	</node>
	<node lat="59.1994444449798" lon="9.857766659538168" id="-50543">
		<tag k="name" v="Dalane" />
		<tag k="natural" v="valley" />
		<tag k="place" v="locality" />
		<tag k="ssr:stedsnr" v="473352" />
	</node>
	<node lat="59.19961388497681" lon="9.823075002686021" id="-50544">
		<tag k="name" v="Slåttane" />
		<tag k="natural" v="valley" />
		<tag k="place" v="locality" />
		<tag k="ssr:stedsnr" v="473354" />
	</node>
	<node lat="59.25148333323726" lon="9.770230563174447" id="-50552">
		<tag k="name" v="Skobba" />
		<tag k="place" v="farm" />
		<tag k="ssr:stedsnr" v="473783" />
	</node>
	<node lat="59.261008332710986" lon="9.782305560009478" id="-50553">
		<tag k="name" v="Tangen" />
		<tag k="natural" v="cape" />
		<tag k="ssr:stedsnr" v="473756" />
	</node>
	<node lat="59.26405278067358" lon="9.790166662718383" id="-50554">
		<tag k="fixme" v="consider natural=peak for the most distinct mountains in the district" />
		<tag k="name" v="Veståsen" />
		<tag k="natural" v="hill" />
		<tag k="place" v="locality" />
		<tag k="ssr:stedsnr" v="473811" />
	</node>
	<node lat="59.23885277911538" lon="9.848024991387348" id="-50555">
		<tag k="fixme" v="consider natural=peak for the most distinct mountains in the district" />
		<tag k="name" v="Høgås" />
		<tag k="natural" v="hill" />
		<tag k="place" v="locality" />
		<tag k="ssr:stedsnr" v="473886" />
	</node>
	<node lat="59.26074722548946" lon="9.846483335210209" id="-50556">
		<tag k="fixme" v="consider natural=peak for the most distinct mountains in the district" />
		<tag k="name" v="Bøvannsskarva" />
		<tag k="natural" v="hill" />
		<tag k="place" v="locality" />
		<tag k="ssr:stedsnr" v="473850" />
	</node>
	<node lat="59.232633331524404" lon="9.859308329621634" id="-50558">
		<tag k="fixme" v="consider natural=peak for the most distinct mountains in the district" />
		<tag k="name" v="Dåparønningsås" />
		<tag k="natural" v="hill" />
		<tag k="place" v="locality" />
		<tag k="ssr:stedsnr" v="473914" />
	</node>
	<node lat="59.243891668389836" lon="9.757088890359997" id="-50561">
		<tag k="fixme" v="consider natural=peak for the most distinct mountains in the district" />
		<tag k="name" v="Tangås" />
		<tag k="natural" v="hill" />
		<tag k="place" v="locality" />
		<tag k="ssr:stedsnr" v="351107" />
	</node>
	<node lat="59.206402774132115" lon="9.855297219030973" id="-50562">
		<tag k="name" v="Lauvvika" />
		<tag k="natural" v="bay" />
		<tag k="ssr:stedsnr" v="351303" />
	</node>
	<node lat="59.21968611106345" lon="9.778680557820783" id="-50563">
		<tag k="name" v="Setertjønn" />
		<tag k="natural" v="water" />
		<tag k="ssr:stedsnr" v="351212" />
	</node>
	<node lat="59.220338891255025" lon="9.764863886909376" id="-50564">
		<tag k="name" v="Øvre Valldal" />
		<tag k="place" v="locality" />
		<tag k="ssr:stedsnr" v="351255" />
	</node>
	<node lat="59.265866663497846" lon="9.767794448234238" id="-50565">
		<tag k="name" v="Kjølnes" />
		<tag k="place" v="locality" />
		<tag k="ssr:stedsnr" v="351808" />
	</node>
	<node lat="59.26006944030254" lon="9.790413893362755" id="-50567">
		<tag k="name" v="Vika" />
		<tag k="natural" v="bay" />
		<tag k="ssr:stedsnr" v="351752" />
	</node>
	<node lat="59.29153333111151" lon="9.716797215979621" id="-50568">
		<tag k="name" v="Roligheten" />
		<tag k="place" v="farm" />
		<tag k="ssr:stedsnr" v="352208" />
	</node>
	<node lat="59.290708332536525" lon="9.640713888825974" id="-50569">
		<tag k="name" v="Bjørnåsen" />
		<tag k="natural" v="hill" />
		<tag k="place" v="locality" />
		<tag k="ssr:stedsnr" v="352267" />
	</node>
	<node lat="59.2608388889876" lon="9.840361103847805" id="-50570">
		<tag k="name" v="Stuedippel" />
		<tag k="natural" v="water" />
		<tag k="ssr:stedsnr" v="352824" />
	</node>
	<node lat="59.25634444342866" lon="9.843388891445178" id="-50571">
		<tag k="fixme" v="consider natural=peak for the most distinct mountains in the district" />
		<tag k="name" v="Trappedalsskarva" />
		<tag k="natural" v="hill" />
		<tag k="place" v="locality" />
		<tag k="ssr:stedsnr" v="352829" />
	</node>
	<node lat="59.30749167089851" lon="9.740038892851347" id="-50574">
		<tag k="name" v="Storeskarv" />
		<tag k="natural" v="hill" />
		<tag k="place" v="locality" />
		<tag k="ssr:stedsnr" v="366415" />
	</node>
	<node lat="59.28630277591052" lon="9.7249388836701" id="-50575">
		<tag k="fixme" v="consider place=hamlet" />
		<tag k="name" v="Sørbø" />
		<tag k="place" v="farm" />
		<tag k="ssr:stedsnr" v="366497" />
	</node>
	<node lat="59.22803321160789" lon="9.872098764826228" id="-50578">
		<tag k="fixme" v="consider place=hamlet" />
		<tag k="name" v="Svartangen" />
		<tag k="place" v="farm" />
		<tag k="ssr:stedsnr" v="486665" />
	</node>
	<node lat="59.231627774191715" lon="9.811072228316638" id="-50579">
		<tag k="alt_name" v="Strandåsene" />
		<tag k="fixme" v="consider natural=peak for the most distinct mountains in the district" />
		<tag k="name" v="Strandåsane" />
		<tag k="natural" v="hill" />
		<tag k="place" v="locality" />
		<tag k="ssr:stedsnr" v="486667" />
	</node>
	<node lat="59.25441111493669" lon="9.69266110606841" id="-50580">
		<tag k="fixme" v="consider natural=peak for the most distinct mountains in the district" />
		<tag k="name" v="Fiskebekkåsen" />
		<tag k="natural" v="hill" />
		<tag k="place" v="locality" />
		<tag k="ssr:stedsnr" v="487029" />
	</node>
	<node lat="59.22690555663761" lon="9.80655833808479" id="-50582">
		<tag k="name" v="Trolletjønn" />
		<tag k="natural" v="water" />
		<tag k="ssr:stedsnr" v="412002" />
	</node>
	<node lat="59.233552779463004" lon="9.800775000117994" id="-50583">
		<tag k="fixme" v="consider natural=peak for the most distinct mountains in the district" />
		<tag k="name" v="Tømmermyrskarva" />
		<tag k="natural" v="hill" />
		<tag k="place" v="locality" />
		<tag k="ssr:stedsnr" v="412011" />
	</node>
	<node lat="59.307136107315934" lon="9.710102783408965" id="-50584">
		<tag k="fixme" v="consider natural=peak for the most distinct mountains in the district" />
		<tag k="name" v="Grandalsåsen" />
		<tag k="natural" v="hill" />
		<tag k="place" v="locality" />
		<tag k="ssr:stedsnr" v="487437" />
	</node>
	<node lat="59.278986107332706" lon="9.702497226048072" id="-50587">
		<tag k="fixme" v="consider place=hamlet" />
		<tag k="name" v="Holte" />
		<tag k="place" v="farm" />
		<tag k="ssr:stedsnr" v="487513" />
	</node>
	<node lat="59.318975002966305" lon="9.651577786568708" id="-50589">
		<tag k="fixme" v="consider place=hamlet" />
		<tag k="name" v="Island" />
		<tag k="place" v="farm" />
		<tag k="ssr:stedsnr" v="487460" />
	</node>
	<node lat="59.20229722340161" lon="9.828219445385189" id="-50591">
		<tag k="fixme" v="consider natural=peak for the most distinct mountains in the district" />
		<tag k="name" v="Høgåsene" />
		<tag k="natural" v="hill" />
		<tag k="place" v="locality" />
		<tag k="ssr:stedsnr" v="412298" />
	</node>
	<node lat="59.264722219515015" lon="9.816361107516926" id="-50592">
		<tag k="fixme" v="consider natural=peak for the most distinct mountains in the district" />
		<tag k="name" v="Den brente ås" />
		<tag k="natural" v="hill" />
		<tag k="place" v="locality" />
		<tag k="ssr:stedsnr" v="412705" />
	</node>
	<node lat="59.2622861128908" lon="9.780219444154582" id="-50593">
		<tag k="name" v="Geitøya" />
		<tag k="place" v="island" />
		<tag k="ssr:stedsnr" v="412706" />
	</node>
	<node lat="59.27224166912618" lon="9.729150002976748" id="-50594">
		<tag k="name" v="Soltveit" />
		<tag k="place" v="farm" />
		<tag k="ssr:stedsnr" v="487494" />
	</node>
	<node lat="59.42315555568065" lon="9.625755553451913" id="-50595">
		<tag k="name" v="Viuledknatten" />
		<tag k="natural" v="hill" />
		<tag k="place" v="locality" />
		<tag k="ssr:stedsnr" v="487600" />
	</node>
	<node lat="59.28972499835139" lon="9.779061113023385" id="-50596">
		<tag k="alt_name" v="Høymyrene" />
		<tag k="name" v="Høymyrane" />
		<tag k="natural" v="wetland" />
		<tag k="ssr:stedsnr" v="487532" />
	</node>
	<node lat="59.23019166964441" lon="9.752149994975117" id="-50597">
		<tag k="name" v="Stordalen" />
		<tag k="natural" v="valley" />
		<tag k="place" v="locality" />
		<tag k="ssr:stedsnr" v="413150" />
	</node>
	<node lat="59.279644442701006" lon="9.701483335089014" id="-50598">
		<tag k="name" v="Holte" />
		<tag k="place" v="farm" />
		<tag k="ssr:stedsnr" v="413590" />
	</node>
	<node lat="59.38117778172124" lon="9.777038882105442" id="-50599">
		<tag k="name" v="Kolsflaket" />
		<tag k="natural" v="hill" />
		<tag k="place" v="locality" />
		<tag k="ssr:stedsnr" v="488256" />
	</node>
	<node lat="59.39980278038992" lon="9.615461106559573" id="-50601">
		<tag k="name" v="Bøledalen" />
		<tag k="natural" v="valley" />
		<tag k="place" v="locality" />
		<tag k="ssr:stedsnr" v="488269" />
	</node>
	<node lat="59.22379999925021" lon="9.794330557223162" id="-50602">
		<tag k="name" v="Brånan" />
		<tag k="natural" v="hill" />
		<tag k="place" v="locality" />
		<tag k="ssr:stedsnr" v="426729" />
	</node>
	<node lat="59.38685000047488" lon="9.626775007236624" id="-50603">
		<tag k="loc_name" v="Sverjekollknattane" />
		<tag k="name" v="Svergekollknattane" />
		<tag k="natural" v="hill" />
		<tag k="place" v="locality" />
		<tag k="ssr:stedsnr" v="427311" />
	</node>
	<node lat="59.30677499805127" lon="9.680658336930106" id="-50604">
		<tag k="name" v="Sagdalen" />
		<tag k="natural" v="valley" />
		<tag k="place" v="locality" />
		<tag k="ssr:stedsnr" v="427422" />
	</node>
	<node lat="59.305174999071205" lon="9.664980557197573" id="-50605">
		<tag k="name" v="Saga" />
		<tag k="place" v="farm" />
		<tag k="ssr:stedsnr" v="427425" />
	</node>
	<node lat="59.27351388484838" lon="9.729580554903457" id="-50607">
		<tag k="fixme" v="consider place=hamlet" />
		<tag k="name" v="Tudal" />
		<tag k="place" v="farm" />
		<tag k="ssr:stedsnr" v="427474" />
	</node>
	<node lat="59.25702777507221" lon="9.836936116320524" id="-50608">
		<tag k="name" v="Maurtuedalen" />
		<tag k="natural" v="valley" />
		<tag k="place" v="locality" />
		<tag k="ssr:stedsnr" v="452203" />
	</node>
	<node lat="59.228849996221996" lon="9.860441668301029" id="-50610">
		<tag k="name" v="Auen" />
		<tag k="place" v="quarter" />
		<tag k="ssr:stedsnr" v="464654" />
	</node>
	<node lat="59.22753055619922" lon="9.787291674142514" id="-50611">
		<tag k="name" v="Igletjønn" />
		<tag k="natural" v="water" />
		<tag k="ssr:stedsnr" v="473106" />
	</node>
	<node lat="59.23828333237374" lon="9.79323610724997" id="-50612">
		<tag k="name" v="Finsrudtangene" />
		<tag k="place" v="locality" />
		<tag k="ssr:stedsnr" v="473111" />
	</node>
	<node lat="59.22419167108536" lon="9.808644441733199" id="-50613">
		<tag k="name" v="Auretjønn" />
		<tag k="natural" v="water" />
		<tag k="ssr:stedsnr" v="473270" />
	</node>
	<node lat="59.30803055760001" lon="9.602027783513224" id="-50614">
		<tag k="name" v="Brantemyr" />
		<tag k="natural" v="wetland" />
		<tag k="ssr:stedsnr" v="473307" />
	</node>
	<node lat="59.217050001050595" lon="9.835416664075517" id="-50615">
		<tag k="name" v="Spiredalen" />
		<tag k="natural" v="valley" />
		<tag k="place" v="locality" />
		<tag k="ssr:stedsnr" v="473311" />
	</node>
	<node lat="59.21340833454224" lon="9.834513887301734" id="-50616">
		<tag k="name" v="Kvernhusdalen" />
		<tag k="natural" v="valley" />
		<tag k="place" v="locality" />
		<tag k="ssr:stedsnr" v="473316" />
	</node>
	<node lat="59.21965000187115" lon="9.823213897046415" id="-50617">
		<tag k="name" v="Kattemyr" />
		<tag k="natural" v="wetland" />
		<tag k="ssr:stedsnr" v="473320" />
	</node>
	<node lat="59.20825555380924" lon="9.85029723087122" id="-50618">
		<tag k="fixme" v="consider natural=peak for the most distinct mountains in the district" />
		<tag k="name" v="Hovet" />
		<tag k="natural" v="hill" />
		<tag k="place" v="locality" />
		<tag k="ssr:stedsnr" v="473323" />
	</node>
	<node lat="59.27376944394035" lon="9.722811113568842" id="-50619">
		<tag k="name" v="Thorshaug" />
		<tag k="place" v="farm" />
		<tag k="ssr:stedsnr" v="473604" />
	</node>
	<node lat="59.282063891488704" lon="9.634252774222492" id="-50620">
		<tag k="name" v="Brattås seter" />
		<tag k="place" v="locality" />
		<tag k="ssr:stedsnr" v="473560" />
	</node>
	<node lat="59.27650555113869" lon="9.671319444944503" id="-50621">
		<tag k="name" v="Hoggmyrliene" />
		<tag k="natural" v="slope" />
		<tag k="place" v="locality" />
		<tag k="ssr:stedsnr" v="473561" />
	</node>
	<node lat="59.27427778155982" lon="9.705099995603794" id="-50622">
		<tag k="name" v="Plassen" />
		<tag k="place" v="farm" />
		<tag k="ssr:stedsnr" v="473563" />
	</node>
	<node lat="59.34472499772405" lon="9.621480554147533" id="-50628">
		<tag k="name" v="Speilmyr" />
		<tag k="natural" v="wetland" />
		<tag k="ssr:stedsnr" v="488319" />
	</node>
	<node lat="59.33703610778108" lon="9.700213888015519" id="-50629">
		<tag k="loc_name" v="Stortjern" />
		<tag k="name" v="Stortjørn" />
		<tag k="natural" v="water" />
		<tag k="ssr:stedsnr" v="488323" />
	</node>
	<node lat="59.29123889126596" lon="9.712702778730408" id="-50631">
		<tag k="name" v="Snurråsen" />
		<tag k="place" v="quarter" />
		<tag k="ssr:stedsnr" v="506211" />
	</node>
	<node lat="59.24406944418703" lon="9.794924994975887" id="-50632">
		<tag k="alt_name" v="Lauv" />
		<tag k="name" v="Lau" />
		<tag k="natural" v="water" />
		<tag k="ssr:stedsnr" v="509916" />
	</node>
	<node lat="59.20294444107068" lon="9.844113882924335" id="-50633">
		<tag k="name" v="Masteliene" />
		<tag k="natural" v="slope" />
		<tag k="place" v="locality" />
		<tag k="ssr:stedsnr" v="533323" />
	</node>
	<node lat="59.204291664791924" lon="9.841802772944705" id="-50634">
		<tag k="name" v="Kjerrjilen" />
		<tag k="place" v="locality" />
		<tag k="ssr:stedsnr" v="533337" />
	</node>
	<node lat="59.23315833018159" lon="9.815097225623642" id="-50635">
		<tag k="fixme" v="consider natural=peak for the most distinct mountains in the district" />
		<tag k="name" v="Risås" />
		<tag k="natural" v="hill" />
		<tag k="place" v="locality" />
		<tag k="ssr:stedsnr" v="534003" />
	</node>
	<node lat="59.29194444438798" lon="9.794930551848053" id="-50636">
		<tag k="barrier" v="lift_gate" />
		<tag k="name" v="Sandåbommen" />
		<tag k="place" v="locality" />
		<tag k="ssr:stedsnr" v="534207" />
	</node>
	<node lat="59.22470555149952" lon="9.83381665858686" id="-50637">
		<tag k="fixme" v="consider natural=peak for the most distinct mountains in the district" />
		<tag k="name" v="Moholtrisa" />
		<tag k="natural" v="hill" />
		<tag k="place" v="locality" />
		<tag k="ssr:stedsnr" v="534272" />
	</node>
	<node lat="59.28615000241107" lon="9.705691674145475" id="-50638">
		<tag k="name" v="Høiset" />
		<tag k="place" v="farm" />
		<tag k="ssr:stedsnr" v="534572" />
	</node>
	<node lat="59.28028333070484" lon="9.698113886544894" id="-50639">
		<tag k="name" v="Kamperhaug" />
		<tag k="place" v="farm" />
		<tag k="ssr:stedsnr" v="534577" />
	</node>
	<node lat="59.26504722150119" lon="9.76027778382236" id="-50640">
		<tag k="name" v="Skittmyrbukta" />
		<tag k="natural" v="bay" />
		<tag k="ssr:stedsnr" v="534711" />
	</node>
	<node lat="59.329797224646924" lon="9.615172229749374" id="-50641">
		<tag k="name" v="Kringlevassdalen" />
		<tag k="natural" v="valley" />
		<tag k="place" v="locality" />
		<tag k="ssr:stedsnr" v="534473" />
	</node>
	<node lat="59.251391663141995" lon="9.86653055381181" id="-50642">
		<tag k="name" v="Kolledalen" />
		<tag k="natural" v="valley" />
		<tag k="place" v="locality" />
		<tag k="ssr:stedsnr" v="534906" />
	</node>
	<node lat="59.22315277346932" lon="9.830563892443093" id="-50644">
		<tag k="name" v="Løkka" />
		<tag k="place" v="farm" />
		<tag k="ssr:stedsnr" v="547763" />
	</node>
	<node lat="59.29943385983732" lon="9.729828480866512" id="-50645">
		<tag k="name" v="Langdalstua" />
		<tag k="place" v="locality" />
		<tag k="ssr:stedsnr" v="548409" />
	</node>
	<node lat="59.30976388752828" lon="9.641988889559618" id="-50646">
		<tag k="name" v="Lund" />
		<tag k="place" v="farm" />
		<tag k="ssr:stedsnr" v="548426" />
	</node>
	<node lat="59.33456666672073" lon="9.75131389761165" id="-50649">
		<tag k="loc_name" v="Snipetjern" />
		<tag k="name" v="Snipetjørn" />
		<tag k="natural" v="water" />
		<tag k="ssr:stedsnr" v="548363" />
	</node>
	<node lat="59.282516663506605" lon="9.650655563233455" id="-50650">
		<tag k="alt_name" v="Middagskollene" />
		<tag k="fixme" v="consider natural=peak for the most distinct mountains in the district" />
		<tag k="name" v="Middagskollane" />
		<tag k="natural" v="hill" />
		<tag k="place" v="locality" />
		<tag k="ssr:stedsnr" v="548508" />
	</node>
	<node lat="59.26347500269357" lon="9.698975006555646" id="-50652">
		<tag k="name" v="Skauen" />
		<tag k="place" v="quarter" />
		<tag k="ssr:stedsnr" v="688772" />
	</node>
	<node lat="59.32969166625906" lon="9.582305561860796" id="-50653">
		<tag k="name" v="De svarte render" />
		<tag k="natural" v="cliff" />
		<tag k="ssr:stedsnr" v="693780" />
	</node>
	<node lat="59.21604166457934" lon="9.861308338154231" id="-50654">
		<tag k="name" v="Solberget" />
		<tag k="natural" v="hill" />
		<tag k="place" v="locality" />
		<tag k="ssr:stedsnr" v="694041" />
	</node>
	<node lat="59.26013055581777" lon="9.838994450391345" id="-50655">
		<tag k="name" v="Diplestua" />
		<tag k="place" v="isolated_dwelling" />
		<tag k="ssr:stedsnr" v="695231" />
	</node>
	<node lat="59.23056111353028" lon="9.854127778928582" id="-50656">
		<tag k="bridge" v="yes" />
		<tag k="layer" v="1" />
		<tag k="name" v="Eidet" />
		<tag k="ssr:stedsnr" v="592403" />
	</node>
	<node lat="59.23118888922269" lon="9.802974998388477" id="-50657">
		<tag k="name" v="Skarvetjønn" />
		<tag k="natural" v="water" />
		<tag k="ssr:stedsnr" v="594001" />
	</node>
	<node lat="59.24658055601576" lon="9.75070278380978" id="-50658">
		<tag k="name" v="Ura" />
		<tag k="natural" v="scree" />
		<tag k="ssr:stedsnr" v="594114" />
	</node>
	<node lat="59.30505555228686" lon="9.660638894254385" id="-50660">
		<tag k="name" v="Søndre Sørtveit" />
		<tag k="place" v="farm" />
		<tag k="ssr:stedsnr" v="594269" />
	</node>
	<node lat="59.31701944180775" lon="9.631869438687884" id="-50661">
		<tag k="name" v="Kåsemyrene" />
		<tag k="natural" v="wetland" />
		<tag k="ssr:stedsnr" v="594453" />
	</node>
	<node lat="59.22924166615399" lon="9.826330560644992" id="-50665">
		<tag k="fixme" v="consider place=hamlet" />
		<tag k="name" v="Moholt" />
		<tag k="place" v="farm" />
		<tag k="ssr:stedsnr" v="607649" />
	</node>
	<node lat="59.2272736698794" lon="9.86920109855171" id="-50666">
		<tag k="name" v="Svartangen" />
		<tag k="natural" v="water" />
		<tag k="ssr:stedsnr" v="607718" />
	</node>
	<node lat="59.319188892124515" lon="9.711936118822374" id="-50667">
		<tag k="alt_name" v="Stakatjønn" />
		<tag k="name" v="Stakatjørn" />
		<tag k="natural" v="water" />
		<tag k="ssr:stedsnr" v="608439" />
	</node>
	<node lat="59.306100000981694" lon="9.701563884177101" id="-50668">
		<tag k="name" v="Buferdsdalen" />
		<tag k="natural" v="valley" />
		<tag k="place" v="locality" />
		<tag k="ssr:stedsnr" v="608440" />
	</node>
	<node lat="59.30888889277071" lon="9.664300001743507" id="-50669">
		<tag k="name" v="Tveitan" />
		<tag k="place" v="farm" />
		<tag k="ssr:stedsnr" v="608411" />
	</node>
	<node lat="59.299450002074195" lon="9.714208335910449" id="-50670">
		<tag k="name" v="Askedalen" />
		<tag k="natural" v="valley" />
		<tag k="place" v="locality" />
		<tag k="ssr:stedsnr" v="608396" />
	</node>
	<node lat="59.32536110719223" lon="9.704725007449538" id="-50671">
		<tag k="name" v="Veneberget" />
		<tag k="natural" v="hill" />
		<tag k="place" v="locality" />
		<tag k="ssr:stedsnr" v="609311" />
	</node>
	<node lat="59.32066666552614" lon="9.737427774758778" id="-50672">
		<tag k="name" v="Sandåa" />
		<tag k="ssr:stedsnr" v="609314" />
		<tag k="waterway" v="stream" />
	</node>
	<node lat="59.40622500234159" lon="9.701236115697593" id="-50674">
		<tag k="name" v="Mykleelva" />
		<tag k="ssr:stedsnr" v="609284" />
		<tag k="waterway" v="river" />
	</node>
	<node lat="59.40546110995517" lon="9.646705557964145" id="-50675">
		<tag k="name" v="Romsdalen" />
		<tag k="place" v="farm" />
		<tag k="ssr:stedsnr" v="609293" />
	</node>
	<node lat="59.27626388614895" lon="9.67768055924745" id="-50676">
		<tag k="name" v="Lauvlastua" />
		<tag k="place" v="isolated_dwelling" />
		<tag k="ssr:stedsnr" v="609443" />
	</node>
	<node lat="59.28754999639474" lon="9.70605556118215" id="-50677">
		<tag k="bridge" v="yes" />
		<tag k="layer" v="1" />
		<tag k="name" v="Høgseth" />
		<tag k="ssr:stedsnr" v="653330" />
	</node>
	<node lat="59.232741665569876" lon="9.816930547305757" id="-50678">
		<tag k="name" v="Stranddalen" />
		<tag k="natural" v="valley" />
		<tag k="place" v="locality" />
		<tag k="ssr:stedsnr" v="655031" />
	</node>
	<node lat="59.27915000284057" lon="9.794858331249744" id="-50679">
		<tag k="fixme" v="consider natural=peak for the most distinct mountains in the district" />
		<tag k="name" v="Frieråsen" />
		<tag k="natural" v="hill" />
		<tag k="place" v="locality" />
		<tag k="ssr:stedsnr" v="655205" />
	</node>
	<node lat="59.27543889271077" lon="9.824952771137845" id="-50680">
		<tag k="name" v="Movannsliene" />
		<tag k="natural" v="slope" />
		<tag k="place" v="locality" />
		<tag k="ssr:stedsnr" v="655200" />
	</node>
	<node lat="59.22399166327013" lon="9.766161119062001" id="-50681">
		<tag k="name" v="Bråtatjønn" />
		<tag k="natural" v="water" />
		<tag k="ssr:stedsnr" v="655202" />
	</node>
	<node lat="59.31431666431744" lon="9.743747221655424" id="-50682">
		<tag k="name" v="Gåladammen" />
		<tag k="place" v="locality" />
		<tag k="ssr:stedsnr" v="655305" />
	</node>
	<node lat="59.29971667116333" lon="9.637899992339172" id="-50683">
		<tag k="name" v="Avsølaliene" />
		<tag k="natural" v="slope" />
		<tag k="place" v="locality" />
		<tag k="ssr:stedsnr" v="655282" />
	</node>
	<node lat="59.22353888510526" lon="9.823408331272153" id="-50684">
		<tag k="fixme" v="consider natural=peak for the most distinct mountains in the district" />
		<tag k="name" v="Tjønnåsen" />
		<tag k="natural" v="hill" />
		<tag k="place" v="locality" />
		<tag k="ssr:stedsnr" v="655288" />
	</node>
	<node lat="59.278366666830834" lon="9.712397229547648" id="-50685">
		<tag k="name" v="Nyhagen" />
		<tag k="place" v="farm" />
		<tag k="ssr:stedsnr" v="655492" />
	</node>
	<node lat="59.26517221897161" lon="9.721924996175664" id="-50688">
		<tag k="name" v="Kalddalen" />
		<tag k="natural" v="valley" />
		<tag k="place" v="locality" />
		<tag k="ssr:stedsnr" v="655709" />
	</node>
	<node lat="59.22802222422736" lon="9.834097214056614" id="-50689">
		<tag k="name" v="Langedal" />
		<tag k="natural" v="valley" />
		<tag k="place" v="locality" />
		<tag k="ssr:stedsnr" v="655891" />
	</node>
	<node lat="59.26436944476396" lon="9.764505548894958" id="-50690">
		<tag k="name" v="Spirodden" />
		<tag k="natural" v="cape" />
		<tag k="ssr:stedsnr" v="655801" />
	</node>
	<node lat="59.30150555778097" lon="9.753691664837708" id="-50693">
		<tag k="name" v="Frimannsdal" />
		<tag k="natural" v="valley" />
		<tag k="place" v="locality" />
		<tag k="ssr:stedsnr" v="669408" />
	</node>
	<node lat="59.30432500100758" lon="9.645927777603783" id="-50695">
		<tag k="name" v="Grønland" />
		<tag k="place" v="farm" />
		<tag k="ssr:stedsnr" v="669424" />
	</node>
	<node lat="59.28037777536491" lon="9.649549996707893" id="-50696">
		<tag k="fixme" v="consider natural=peak for the most distinct mountains in the district" />
		<tag k="name" v="Signalkulen" />
		<tag k="natural" v="hill" />
		<tag k="place" v="locality" />
		<tag k="ssr:stedsnr" v="669492" />
	</node>
	<node lat="59.28273611053311" lon="9.777725005929268" id="-50697">
		<tag k="name" v="Sandbrekkene" />
		<tag k="place" v="farm" />
		<tag k="ssr:stedsnr" v="669509" />
	</node>
	<node lat="59.410825002446714" lon="9.7574055512238" id="-50699">
		<tag k="loc_name" v="Raubern" />
		<tag k="name" v="Raudberen" />
		<tag k="natural" v="water" />
		<tag k="ssr:stedsnr" v="670489" />
		<tag k="water" v="lake" />
	</node>
	<node lat="59.40988055664122" lon="9.63180000837094" id="-50700">
		<tag k="loc_name" v="Ertskottmyr" />
		<tag k="name" v="Elgskotmyra" />
		<tag k="natural" v="wetland" />
		<tag k="ssr:stedsnr" v="670494" />
	</node>
	<node lat="59.32512499950317" lon="9.588572213766748" id="-50701">
		<tag k="name" v="Hesterønningane" />
		<tag k="place" v="locality" />
		<tag k="ssr:stedsnr" v="670744" />
	</node>
	<node lat="59.31454722420182" lon="9.657244452824282" id="-50702">
		<tag k="bridge" v="yes" />
		<tag k="layer" v="1" />
		<tag k="name" v="Sølland" />
		<tag k="ssr:stedsnr" v="896358" />
	</node>
	<node lat="59.30817777825375" lon="9.66324444393698" id="-50703">
		<tag k="bridge" v="yes" />
		<tag k="layer" v="1" />
		<tag k="name" v="Tveitan" />
		<tag k="ssr:stedsnr" v="896360" />
	</node>
	<node lat="59.30819166333804" lon="9.66626667379786" id="-50704">
		<tag k="name" v="Tveitan Sem" />
		<tag k="place" v="farm" />
		<tag k="ssr:stedsnr" v="898242" />
	</node>
	<node lat="59.222327779264425" lon="9.8015861184833" id="-50705">
		<tag k="fixme" v="consider natural=peak for the most distinct mountains in the district" />
		<tag k="name" v="Trytetjønnskarvene" />
		<tag k="natural" v="hill" />
		<tag k="place" v="locality" />
		<tag k="ssr:stedsnr" v="898245" />
	</node>
	<node lat="59.22262777666955" lon="9.814869441408709" id="-50706">
		<tag k="name" v="Dammyr" />
		<tag k="natural" v="wetland" />
		<tag k="ssr:stedsnr" v="898250" />
	</node>
	<node lat="59.23526389315666" lon="9.806861104943517" id="-50708">
		<tag k="name" v="Finsrudliene" />
		<tag k="natural" v="slope" />
		<tag k="place" v="locality" />
		<tag k="ssr:stedsnr" v="898002" />
	</node>
	<node lat="59.231702776603214" lon="9.78558333125144" id="-50709">
		<tag k="fixme" v="consider natural=peak for the most distinct mountains in the district" />
		<tag k="name" v="Hansås" />
		<tag k="natural" v="hill" />
		<tag k="place" v="locality" />
		<tag k="ssr:stedsnr" v="898091" />
	</node>
	<node lat="59.241244440737766" lon="9.770708341806804" id="-50710">
		<tag k="name" v="Kovedalen" />
		<tag k="natural" v="valley" />
		<tag k="place" v="locality" />
		<tag k="ssr:stedsnr" v="898093" />
	</node>
	<node lat="59.29289167017135" lon="9.693941667985525" id="-50711">
		<tag k="name" v="Hillestad" />
		<tag k="place" v="farm" />
		<tag k="ssr:stedsnr" v="898266" />
	</node>
	<node lat="59.21243333392377" lon="9.849508336025828" id="-50712">
		<tag k="name" v="Kvislapollen" />
		<tag k="natural" v="water" />
		<tag k="ssr:stedsnr" v="898280" />
	</node>
	<node lat="59.205630558415564" lon="9.86608333327463" id="-50713">
		<tag k="name" v="Treskillingen" />
		<tag k="place" v="islet" />
		<tag k="ssr:stedsnr" v="898281" />
	</node>
	<node lat="59.32934166305624" lon="9.737463883304224" id="-50714">
		<tag k="name" v="Snipetjønnbekken" />
		<tag k="ssr:stedsnr" v="898342" />
		<tag k="waterway" v="stream" />
	</node>
	<node lat="59.32880832940654" lon="9.634144449769636" id="-50715">
		<tag k="name" v="Gampekollen" />
		<tag k="natural" v="hill" />
		<tag k="place" v="locality" />
		<tag k="ssr:stedsnr" v="898445" />
	</node>
	<node lat="59.25327499665927" lon="9.783150002093407" id="-50720">
		<tag k="name" v="Langøya" />
		<tag k="place" v="island" />
		<tag k="ssr:stedsnr" v="898777" />
	</node>
	<node lat="59.26592500168387" lon="9.773491664371925" id="-50721">
		<tag k="name" v="Langevelsbukta" />
		<tag k="natural" v="bay" />
		<tag k="ssr:stedsnr" v="898800" />
	</node>
	<node lat="59.231125001735094" lon="9.840516661866063" id="-50725">
		<tag k="fixme" v="consider natural=peak for the most distinct mountains in the district" />
		<tag k="name" v="Olas ås" />
		<tag k="natural" v="hill" />
		<tag k="place" v="locality" />
		<tag k="ssr:stedsnr" v="898905" />
	</node>
	<node lat="59.21416388991358" lon="9.787377781915971" id="-50726">
		<tag k="fixme" v="consider natural=peak for the most distinct mountains in the district" />
		<tag k="name" v="Lisbetås" />
		<tag k="natural" v="hill" />
		<tag k="place" v="locality" />
		<tag k="ssr:stedsnr" v="716214" />
	</node>
	<node lat="59.21281944818916" lon="9.78652221456684" id="-50727">
		<tag k="name" v="Skottdalene" />
		<tag k="natural" v="valley" />
		<tag k="place" v="locality" />
		<tag k="ssr:stedsnr" v="716219" />
	</node>
	<node lat="59.30804166344833" lon="9.623166659669256" id="-50728">
		<tag k="name" v="Porten" />
		<tag k="natural" v="valley" />
		<tag k="place" v="locality" />
		<tag k="ssr:stedsnr" v="716305" />
	</node>
	<node lat="59.30385277669658" lon="9.615191670448759" id="-50729">
		<tag k="name" v="Frydensal" />
		<tag k="natural" v="slope" />
		<tag k="place" v="locality" />
		<tag k="ssr:stedsnr" v="716313" />
	</node>
	<node lat="59.223355555366425" lon="9.8451138842134" id="-50730">
		<tag k="name" v="Olas ris" />
		<tag k="place" v="locality" />
		<tag k="ssr:stedsnr" v="716327" />
	</node>
	<node lat="59.24187499851753" lon="9.822522218125732" id="-50731">
		<tag k="name" v="Tømmerriset" />
		<tag k="place" v="locality" />
		<tag k="ssr:stedsnr" v="898935" />
	</node>
	<node lat="59.32798333205724" lon="9.626808332484734" id="-50733">
		<tag k="name" v="Grasmyrkollen" />
		<tag k="natural" v="hill" />
		<tag k="place" v="locality" />
		<tag k="ssr:stedsnr" v="716477" />
	</node>
	<node lat="59.25437221987709" lon="9.826697217159847" id="-50738">
		<tag k="fixme" v="consider natural=peak for the most distinct mountains in the district" />
		<tag k="name" v="Holtsrisa" />
		<tag k="natural" v="hill" />
		<tag k="place" v="locality" />
		<tag k="ssr:stedsnr" v="716822" />
	</node>
	<node lat="59.25386944748351" lon="9.857036113360563" id="-50740">
		<tag k="name" v="Bjørkekjøyta" />
		<tag k="place" v="locality" />
		<tag k="ssr:stedsnr" v="716907" />
	</node>
	<node lat="59.234133331964316" lon="9.841769449897049" id="-50743">
		<tag k="name" v="Masovnen" />
		<tag k="place" v="locality" />
		<tag k="ssr:stedsnr" v="716983" />
	</node>
	<node lat="59.28222500019705" lon="9.650458333681703" id="-50748">
		<tag k="name" v="Dragtjørnmyra" />
		<tag k="natural" v="wetland" />
		<tag k="ssr:stedsnr" v="730525" />
	</node>
	<node lat="59.26427222433123" lon="9.752422223304462" id="-50750">
		<tag k="bridge" v="yes" />
		<tag k="layer" v="1" />
		<tag k="name" v="Serkeland" />
		<tag k="ssr:stedsnr" v="775304" />
	</node>
	<node lat="59.22966667093396" lon="9.86697500483144" id="-50751">
		<tag k="bridge" v="yes" />
		<tag k="layer" v="1" />
		<tag k="name" v="Vestre Svartangen" />
		<tag k="ssr:stedsnr" v="775308" />
	</node>
	<node lat="59.23135555193526" lon="9.79969444930554" id="-50752">
		<tag k="name" v="Tømmermyr" />
		<tag k="natural" v="wetland" />
		<tag k="ssr:stedsnr" v="776007" />
	</node>
	<node lat="59.198699998974725" lon="9.864855559178654" id="-50753">
		<tag k="fixme" v="consider natural=peak for the most distinct mountains in the district" />
		<tag k="name" v="Sprenaåsene" />
		<tag k="natural" v="hill" />
		<tag k="place" v="locality" />
		<tag k="ssr:stedsnr" v="776302" />
	</node>
	<node lat="59.2669722194421" lon="9.808216665769628" id="-50755">
		<tag k="name" v="Hagadalsskarva" />
		<tag k="natural" v="hill" />
		<tag k="place" v="locality" />
		<tag k="ssr:stedsnr" v="776758" />
	</node>
	<node lat="59.26889166346986" lon="9.809236115198235" id="-50756">
		<tag k="name" v="Hagadalen" />
		<tag k="natural" v="valley" />
		<tag k="place" v="locality" />
		<tag k="ssr:stedsnr" v="776760" />
	</node>
	<node lat="59.228941667737665" lon="9.843883330047966" id="-50757">
		<tag k="name" v="Haukelegda" />
		<tag k="natural" v="valley" />
		<tag k="place" v="locality" />
		<tag k="ssr:stedsnr" v="776911" />
	</node>
	<node lat="59.245966667522445" lon="9.82350277151203" id="-50758">
		<tag k="name" v="Klovbakken" />
		<tag k="natural" v="slope" />
		<tag k="place" v="locality" />
		<tag k="ssr:stedsnr" v="776923" />
	</node>
	<node lat="59.269744443573344" lon="9.83515000255635" id="-50760">
		<tag k="name" v="Fugleleiken" />
		<tag k="place" v="locality" />
		<tag k="ssr:stedsnr" v="777167" />
	</node>
	<node lat="59.327038891008776" lon="9.596097214877087" id="-50761">
		<tag k="name" v="Huskås" />
		<tag k="natural" v="hill" />
		<tag k="place" v="locality" />
		<tag k="ssr:stedsnr" v="777468" />
	</node>
	<node lat="59.263694445595114" lon="9.750969440898514" id="-50762">
		<tag k="name" v="Engrønningen" />
		<tag k="place" v="farm" />
		<tag k="ssr:stedsnr" v="777706" />
	</node>
	<node lat="59.32391110980016" lon="9.640550002259697" id="-50764">
		<tag k="fixme" v="consider natural=peak for the most distinct mountains in the district" />
		<tag k="name" v="Skriua" />
		<tag k="natural" v="hill" />
		<tag k="place" v="locality" />
		<tag k="ssr:stedsnr" v="791324" />
	</node>
	<node lat="59.3464666693554" lon="9.608430555886427" id="-50765">
		<tag k="fixme" v="multiple name tags, choose one and add the other to alt_name; consider natural=peak for the most distinct mountains in the district" />
		<tag k="name" v="Såta;Repeknuten" />
		<tag k="natural" v="hill" />
		<tag k="place" v="locality" />
		<tag k="ssr:stedsnr" v="791349" />
	</node>
	<node lat="59.3620499995239" lon="9.659724992521976" id="-50766">
		<tag k="loc_name" v="Toklev" />
		<tag k="name" v="Tokleiv" />
		<tag k="place" v="farm" />
		<tag k="ssr:stedsnr" v="791255" />
	</node>
	<node lat="59.39673055473507" lon="9.692658331703955" id="-50768">
		<tag k="loc_name" v="Breimyr" />
		<tag k="name" v="Breidmyr" />
		<tag k="natural" v="wetland" />
		<tag k="ssr:stedsnr" v="791297" />
	</node>
	<node lat="59.27094999672551" lon="9.664188883137935" id="-50769">
		<tag k="fixme" v="consider natural=peak for the most distinct mountains in the district" />
		<tag k="name" v="Kaståsen" />
		<tag k="natural" v="hill" />
		<tag k="place" v="locality" />
		<tag k="ssr:stedsnr" v="791435" />
	</node>
	<node lat="59.288091663192354" lon="9.696650005034437" id="-50771">
		<tag k="name" v="Lunde" />
		<tag k="place" v="farm" />
		<tag k="ssr:stedsnr" v="791484" />
	</node>
	<node lat="59.30858611174094" lon="9.640666666136925" id="-50772">
		<tag k="name" v="Rød" />
		<tag k="place" v="farm" />
		<tag k="ssr:stedsnr" v="791385" />
	</node>
	<node lat="59.38118888977682" lon="9.72655832846087" id="-50773">
		<tag k="fixme" v="consider natural=peak for the most distinct mountains in the district" />
		<tag k="name" v="Ruggefjell" />
		<tag k="natural" v="hill" />
		<tag k="place" v="locality" />
		<tag k="ssr:stedsnr" v="912292" />
	</node>
	<node lat="59.34726388855078" lon="9.631286112899593" id="-50774">
		<tag k="loc_name" v="Skottjern" />
		<tag k="name" v="Skottjørn" />
		<tag k="natural" v="water" />
		<tag k="ssr:stedsnr" v="912380" />
	</node>
	<node lat="59.35238610882908" lon="9.634652770963976" id="-50775">
		<tag k="loc_name" v="Tegskollen" />
		<tag k="name" v="Tekskollen" />
		<tag k="natural" v="hill" />
		<tag k="place" v="locality" />
		<tag k="ssr:stedsnr" v="912382" />
	</node>
	<node lat="59.24514721827895" lon="9.800752773559344" id="-50777">
		<tag k="name" v="Kiste" />
		<tag k="place" v="hamlet" />
		<tag k="ssr:stedsnr" v="912644" />
	</node>
	<node lat="59.38396666600293" lon="9.638099992502937" id="-50779">
		<tag k="name" v="Rumpetjenn" />
		<tag k="natural" v="water" />
		<tag k="ssr:stedsnr" v="913280" />
	</node>
	<node lat="59.35014999945738" lon="9.671300000059954" id="-50782">
		<tag k="name" v="Vanebu" />
		<tag k="place" v="neighbourhood" />
		<tag k="ssr:stedsnr" v="828614" />
	</node>
	<node lat="59.225530557224786" lon="9.767836107308916" id="-50783">
		<tag k="fixme" v="consider natural=peak for the most distinct mountains in the district" />
		<tag k="name" v="Hansås" />
		<tag k="natural" v="hill" />
		<tag k="place" v="locality" />
		<tag k="ssr:stedsnr" v="837184" />
	</node>
	<node lat="59.32894722530868" lon="9.704691662458675" id="-50785">
		<tag k="name" v="Lusedalene" />
		<tag k="natural" v="valley" />
		<tag k="place" v="locality" />
		<tag k="ssr:stedsnr" v="837414" />
	</node>
	<node lat="59.285166668088486" lon="9.740074997606452" id="-50786">
		<tag k="name" v="Lillekås" />
		<tag k="place" v="farm" />
		<tag k="ssr:stedsnr" v="837486" />
	</node>
	<node lat="59.24305833732207" lon="9.851266659997991" id="-50787">
		<tag k="name" v="Søndre Fjerdingsdal" />
		<tag k="natural" v="valley" />
		<tag k="place" v="locality" />
		<tag k="ssr:stedsnr" v="837883" />
	</node>
	<node lat="59.24264721823231" lon="9.83329721442282" id="-50788">
		<tag k="fixme" v="consider natural=peak for the most distinct mountains in the district" />
		<tag k="name" v="Prestegårdsåsene" />
		<tag k="natural" v="hill" />
		<tag k="place" v="locality" />
		<tag k="ssr:stedsnr" v="837886" />
	</node>
	<node lat="59.23148333163536" lon="9.819327778953022" id="-50789">
		<tag k="fixme" v="consider natural=peak for the most distinct mountains in the district" />
		<tag k="name" v="Langås" />
		<tag k="natural" v="hill" />
		<tag k="place" v="locality" />
		<tag k="ssr:stedsnr" v="838028" />
	</node>
	<node lat="59.23080833309898" lon="9.834638895116894" id="-50790">
		<tag k="name" v="Streksletta" />
		<tag k="place" v="locality" />
		<tag k="ssr:stedsnr" v="837987" />
	</node>
	<node lat="59.22856389233787" lon="9.754247227837931" id="-50791">
		<tag k="name" v="Midtdalen" />
		<tag k="natural" v="valley" />
		<tag k="place" v="locality" />
		<tag k="ssr:stedsnr" v="838180" />
	</node>
	<node lat="59.22745277792835" lon="9.758113887564106" id="-50792">
		<tag k="name" v="Rolighetsdal" />
		<tag k="natural" v="valley" />
		<tag k="place" v="locality" />
		<tag k="ssr:stedsnr" v="838184" />
	</node>
	<node lat="59.234216664516126" lon="9.749074996915503" id="-50793">
		<tag k="fixme" v="consider natural=peak for the most distinct mountains in the district" />
		<tag k="name" v="Heidalsåsene" />
		<tag k="natural" v="hill" />
		<tag k="place" v="locality" />
		<tag k="ssr:stedsnr" v="838187" />
	</node>
	<node lat="59.23843611017972" lon="9.756330563629719" id="-50794">
		<tag k="name" v="Bråtaliene" />
		<tag k="natural" v="slope" />
		<tag k="place" v="locality" />
		<tag k="ssr:stedsnr" v="838191" />
	</node>
	<node lat="59.319383334162715" lon="9.734466664245405" id="-50795">
		<tag k="name" v="Speilen" />
		<tag k="natural" v="water" />
		<tag k="ssr:stedsnr" v="838389" />
	</node>
	<node lat="59.25940555781066" lon="9.763205547088331" id="-50796">
		<tag k="name" v="Grimståa" />
		<tag k="natural" v="beach" />
		<tag k="ssr:stedsnr" v="838711" />
	</node>
	<node lat="59.250019448834145" lon="9.842569436919398" id="-50797">
		<tag k="name" v="Kolvemyr" />
		<tag k="natural" v="wetland" />
		<tag k="ssr:stedsnr" v="838927" />
	</node>
	<node lat="59.22287777460704" lon="9.853386108603855" id="-50800">
		<tag k="name" v="Nygård" />
		<tag k="place" v="farm" />
		<tag k="ssr:stedsnr" v="851708" />
	</node>
	<node lat="59.36274166994911" lon="9.637925006211237" id="-50802">
		<tag k="loc_name" v="Rundemyr" />
		<tag k="name" v="Rundemyra" />
		<tag k="natural" v="wetland" />
		<tag k="ssr:stedsnr" v="852267" />
	</node>
	<node lat="59.30572499792875" lon="9.62496666289489" id="-50803">
		<tag k="name" v="Hjemmekollane" />
		<tag k="natural" v="hill" />
		<tag k="place" v="locality" />
		<tag k="ssr:stedsnr" v="852406" />
	</node>
	<node lat="59.27441111295845" lon="9.683363880690418" id="-50804">
		<tag k="name" v="Hoggmyr" />
		<tag k="natural" v="wetland" />
		<tag k="ssr:stedsnr" v="852464" />
	</node>
	<node lat="59.2898611097" lon="9.724750007219118" id="-50805">
		<tag k="name" v="Rønningen" />
		<tag k="place" v="farm" />
		<tag k="ssr:stedsnr" v="852476" />
	</node>
	<node lat="59.2807722187299" lon="9.735375008627326" id="-50806">
		<tag k="name" v="Mølleåsen" />
		<tag k="place" v="quarter" />
		<tag k="ssr:stedsnr" v="889618" />
	</node>
	<node lat="59.242077778803164" lon="9.756911111464726" id="-50807">
		<tag k="name" v="Tangane" />
		<tag k="place" v="locality" />
		<tag k="ssr:stedsnr" v="898105" />
	</node>
	<node lat="59.21624166825887" lon="9.763402777552411" id="-50808">
		<tag k="fixme" v="consider natural=peak for the most distinct mountains in the district" />
		<tag k="name" v="Skilskjølen" />
		<tag k="natural" v="hill" />
		<tag k="place" v="locality" />
		<tag k="ssr:stedsnr" v="898123" />
	</node>
	<node lat="59.311147224309515" lon="9.770122230654456" id="-50809">
		<tag k="name" v="Vindfjellstua" />
		<tag k="place" v="locality" />
		<tag k="ssr:stedsnr" v="898215" />
	</node>
	<node lat="59.26144167101723" lon="9.79295554820866" id="-50813">
		<tag k="name" v="Viksliene" />
		<tag k="natural" v="slope" />
		<tag k="place" v="locality" />
		<tag k="ssr:stedsnr" v="898761" />
	</node>
	<node lat="59.25523333533296" lon="9.816402773042723" id="-50815">
		<tag k="name" v="Langlimyr" />
		<tag k="natural" v="wetland" />
		<tag k="ssr:stedsnr" v="898768" />
	</node>
	<node lat="59.25636110991509" lon="9.839319451764974" id="-50816">
		<tag k="fixme" v="consider natural=peak for the most distinct mountains in the district" />
		<tag k="name" v="Maurtueskarva" />
		<tag k="natural" v="hill" />
		<tag k="place" v="locality" />
		<tag k="ssr:stedsnr" v="899927" />
	</node>
	<node lat="59.22791389226132" lon="9.85253056214694" id="-50817">
		<tag k="name" v="Auen" />
		<tag k="place" v="farm" />
		<tag k="ssr:stedsnr" v="911740" />
	</node>
	<node lat="59.291475002695286" lon="9.719502775577977" id="-50819">
		<tag k="name" v="Myra" />
		<tag k="place" v="farm" />
		<tag k="ssr:stedsnr" v="912509" />
	</node>
	<node lat="59.304336112556406" lon="9.767663895589523" id="-50821">
		<tag k="alt_name" v="Skottmyrane" />
		<tag k="name" v="Skotmyrane" />
		<tag k="natural" v="wetland" />
		<tag k="ssr:stedsnr" v="912427" />
	</node>
	<node lat="59.32489976048493" lon="9.755344834397501" id="-50823">
		<tag k="fixme" v="consider natural=peak for the most distinct mountains in the district" />
		<tag k="name" v="Vindfjell" />
		<tag k="natural" v="hill" />
		<tag k="place" v="locality" />
		<tag k="ssr:stedsnr" v="913303" />
	</node>
	<node lat="59.33730277851517" lon="9.713686117000202" id="-50824">
		<tag k="fixme" v="consider natural=peak for the most distinct mountains in the district" />
		<tag k="name" v="Gælnekollane" />
		<tag k="natural" v="hill" />
		<tag k="place" v="locality" />
		<tag k="ssr:stedsnr" v="913341" />
	</node>
	<node lat="59.2911249992523" lon="9.79583888906445" id="-50825">
		<tag k="bridge" v="yes" />
		<tag k="layer" v="1" />
		<tag k="name" v="Sandå" />
		<tag k="ssr:stedsnr" v="957327" />
	</node>
	<node lat="59.28252500272277" lon="9.727413892973475" id="-50826">
		<tag k="bridge" v="yes" />
		<tag k="layer" v="1" />
		<tag k="name" v="Siljanelva" />
		<tag k="ssr:stedsnr" v="957329" />
	</node>
	<node lat="59.228788885425466" lon="9.873180561686016" id="-50827">
		<tag k="bridge" v="yes" />
		<tag k="layer" v="1" />
		<tag k="name" v="Østre Svartangen" />
		<tag k="ssr:stedsnr" v="957332" />
	</node>
	<node lat="59.26221944672267" lon="9.817972218038943" id="-50828">
		<tag k="fixme" v="consider natural=peak for the most distinct mountains in the district" />
		<tag k="name" v="Sneglehaugås" />
		<tag k="natural" v="hill" />
		<tag k="place" v="locality" />
		<tag k="ssr:stedsnr" v="958785" />
	</node>
	<node lat="59.248736109032386" lon="9.815086116759257" id="-50829">
		<tag k="name" v="Sikelia" />
		<tag k="natural" v="slope" />
		<tag k="place" v="locality" />
		<tag k="ssr:stedsnr" v="958793" />
	</node>
	<node lat="59.25859166488126" lon="9.816297225467352" id="-50830">
		<tag k="name" v="Stusslidalen" />
		<tag k="natural" v="valley" />
		<tag k="place" v="locality" />
		<tag k="ssr:stedsnr" v="958794" />
	</node>
	<node lat="59.297916668577614" lon="9.772950001194452" id="-50831">
		<tag k="fixme" v="consider natural=peak for the most distinct mountains in the district" />
		<tag k="name" v="Huskeråsene" />
		<tag k="natural" v="hill" />
		<tag k="place" v="locality" />
		<tag k="ssr:stedsnr" v="959196" />
	</node>
	<node lat="59.25701111190575" lon="9.841055547277602" id="-50832">
		<tag k="name" v="Trappedal" />
		<tag k="natural" v="valley" />
		<tag k="place" v="locality" />
		<tag k="ssr:stedsnr" v="959846" />
	</node>
	<node lat="59.22020278003625" lon="9.853355559204934" id="-50838">
		<tag k="name" v="Vranghol" />
		<tag k="place" v="farm" />
		<tag k="ssr:stedsnr" v="1714" />
	</node>
	<node lat="59.37615555986623" lon="9.692766666337667" id="-50839">
		<tag k="loc_name" v="Brudetjern" />
		<tag k="name" v="Brudetjørn" />
		<tag k="natural" v="water" />
		<tag k="ssr:stedsnr" v="2300" />
	</node>
	<node lat="59.26042777337682" lon="9.758327770503108" id="-50842">
		<tag k="name" v="Hagen" />
		<tag k="place" v="farm" />
		<tag k="ssr:stedsnr" v="2040" />
	</node>
	<node lat="59.36495000196398" lon="9.647588881747756" id="-50843">
		<tag k="loc_name" v="Kvidalsmyrene" />
		<tag k="name" v="Kvidalsmyrane" />
		<tag k="natural" v="wetland" />
		<tag k="ssr:stedsnr" v="2255" />
	</node>
	<node lat="59.31789898239422" lon="9.660968660890239" id="-50844">
		<tag k="name" v="Nymo" />
		<tag k="place" v="farm" />
		<tag k="ssr:stedsnr" v="2453" />
	</node>
	<node lat="59.26245277812612" lon="9.68940000763414" id="-50845">
		<tag k="name" v="Solvika" />
		<tag k="ssr:stedsnr" v="2468" />
		<tag k="tourism" v="camp_site" />
	</node>
	<node lat="59.320511114950065" lon="9.625961114466005" id="-50846">
		<tag k="name" v="Kåsene" />
		<tag k="place" v="isolated_dwelling" />
		<tag k="ssr:stedsnr" v="2366" />
	</node>
	<node lat="59.34038610940152" lon="9.764152779943494" id="-50848">
		<tag k="loc_name" v="Viddaseter" />
		<tag k="name" v="Vidda" />
		<tag k="place" v="isolated_dwelling" />
		<tag k="ssr:stedsnr" v="2373" />
	</node>
	<node lat="59.247269809705564" lon="9.80757854688141" id="-50849">
		<tag k="name" v="Teie" />
		<tag k="place" v="isolated_dwelling" />
		<tag k="ssr:stedsnr" v="2643" />
	</node>
	<node lat="59.37098055959287" lon="9.690488884265612" id="-50851">
		<tag k="bridge" v="yes" />
		<tag k="layer" v="1" />
		<tag k="name" v="Øvre Hakkhaug" />
		<tag k="ssr:stedsnr" v="46363" />
	</node>
	<node lat="59.23102221975408" lon="9.78080277492731" id="-50852">
		<tag k="name" v="Klokkersveene" />
		<tag k="place" v="locality" />
		<tag k="ssr:stedsnr" v="49100" />
	</node>
	<node lat="59.23463055376199" lon="9.745419438487486" id="-50853">
		<tag k="name" v="Gonsholtseter" />
		<tag k="place" v="locality" />
		<tag k="ssr:stedsnr" v="49172" />
	</node>
	<node lat="59.23950832947497" lon="9.731666660695454" id="-50854">
		<tag k="fixme" v="consider natural=peak for the most distinct mountains in the district" />
		<tag k="name" v="Barlindkollen" />
		<tag k="natural" v="hill" />
		<tag k="place" v="locality" />
		<tag k="ssr:stedsnr" v="49176" />
	</node>
	<node lat="59.31197499961744" lon="9.653663884335929" id="-50855">
		<tag k="name" v="Grønli" />
		<tag k="place" v="farm" />
		<tag k="ssr:stedsnr" v="48375" />
	</node>
	<node lat="59.219041668798" lon="9.808030561780201" id="-50856">
		<tag k="fixme" v="consider natural=peak for the most distinct mountains in the district" />
		<tag k="name" v="Svarvarstolen" />
		<tag k="natural" v="hill" />
		<tag k="place" v="locality" />
		<tag k="ssr:stedsnr" v="48231" />
	</node>
	<node lat="59.215077776228526" lon="9.856863887330027" id="-50857">
		<tag k="name" v="Maurtangen" />
		<tag k="natural" v="cape" />
		<tag k="ssr:stedsnr" v="48260" />
	</node>
	<node lat="59.28466944332747" lon="9.745616667495282" id="-50858">
		<tag k="name" v="Rønningene" />
		<tag k="place" v="farm" />
		<tag k="ssr:stedsnr" v="48462" />
	</node>
	<node lat="59.24935278111805" lon="9.773530547605755" id="-50860">
		<tag k="name" v="Gonsholthagan" />
		<tag k="place" v="locality" />
		<tag k="ssr:stedsnr" v="48766" />
	</node>
	<node lat="59.22422777738441" lon="9.756522224732707" id="-50864">
		<tag k="fixme" v="consider natural=peak for the most distinct mountains in the district" />
		<tag k="name" v="Bråtatjønnås" />
		<tag k="natural" v="hill" />
		<tag k="place" v="locality" />
		<tag k="ssr:stedsnr" v="49161" />
	</node>
	<node lat="59.22608055728188" lon="9.75946666404188" id="-50865">
		<tag k="name" v="Svedalen" />
		<tag k="natural" v="valley" />
		<tag k="place" v="locality" />
		<tag k="ssr:stedsnr" v="49167" />
	</node>
	<node lat="59.303388892635944" lon="9.63053333259734" id="-50866">
		<tag k="name" v="Slettekoll" />
		<tag k="natural" v="hill" />
		<tag k="place" v="locality" />
		<tag k="ssr:stedsnr" v="49327" />
	</node>
	<node lat="59.32409722559079" lon="9.602797229836051" id="-50867">
		<tag k="name" v="Hammerkleivås" />
		<tag k="natural" v="hill" />
		<tag k="place" v="locality" />
		<tag k="ssr:stedsnr" v="49503" />
	</node>
	<node lat="59.2516194435594" lon="9.742636107125398" id="-50873">
		<tag k="name" v="Søndre Serklandstjønn" />
		<tag k="natural" v="water" />
		<tag k="ssr:stedsnr" v="49793" />
	</node>
	<node lat="59.26257777988257" lon="9.748038882514296" id="-50875">
		<tag k="name" v="Nystad" />
		<tag k="place" v="farm" />
		<tag k="ssr:stedsnr" v="49733" />
	</node>
	<node lat="59.254505552911155" lon="9.85035833978332" id="-50876">
		<tag k="name" v="Elgtjønndippel" />
		<tag k="natural" v="water" />
		<tag k="ssr:stedsnr" v="49837" />
	</node>
	<node lat="59.28825888176339" lon="9.711474696664434" id="-50878">
		<tag k="amenity" v="place_of_worship" />
		<tag k="denomination" v="lutheran" />
		<tag k="name" v="Siljan kirke" />
		<tag k="religion" v="christian" />
		<tag k="ssr:stedsnr" v="63507" />
	</node>
	<node lat="59.2595416657717" lon="9.714688895479524" id="-50879">
		<tag k="fixme" v="consider natural=peak for the most distinct mountains in the district" />
		<tag k="name" v="Tudalskulten" />
		<tag k="natural" v="hill" />
		<tag k="place" v="locality" />
		<tag k="ssr:stedsnr" v="63047" />
	</node>
	<node lat="59.25568611519409" lon="9.767177780887394" id="-50880">
		<tag k="name" v="Gonsholt" />
		<tag k="place" v="farm" />
		<tag k="ssr:stedsnr" v="63054" />
	</node>
	<node lat="59.25265555610451" lon="9.758663897404267" id="-50881">
		<tag k="fixme" v="consider place=hamlet" />
		<tag k="name" v="Rød" />
		<tag k="place" v="farm" />
		<tag k="ssr:stedsnr" v="63056" />
	</node>
	<node lat="59.39632499659988" lon="9.665602779646763" id="-50882">
		<tag k="loc_name" v="Lysetjern" />
		<tag k="name" v="Lysetjørn" />
		<tag k="place" v="farm" />
		<tag k="ssr:stedsnr" v="63330" />
	</node>
	<node lat="59.32227010267218" lon="9.665549330049009" id="-50883">
		<tag k="name" v="Skoglund" />
		<tag k="place" v="farm" />
		<tag k="ssr:stedsnr" v="63339" />
	</node>
	<node lat="59.318774995692785" lon="9.70012500701311" id="-50884">
		<tag k="alt_name" v="Småhovdene" />
		<tag k="fixme" v="consider natural=peak for the most distinct mountains in the district" />
		<tag k="name" v="Småhovdane" />
		<tag k="natural" v="hill" />
		<tag k="place" v="locality" />
		<tag k="ssr:stedsnr" v="63340" />
	</node>
	<node lat="59.321936111413365" lon="9.587500004374892" id="-50888">
		<tag k="name" v="Løkene" />
		<tag k="natural" v="wetland" />
		<tag k="ssr:stedsnr" v="86758" />
	</node>
	<node lat="59.375736110077135" lon="9.694327773305753" id="-50889">
		<tag k="bridge" v="yes" />
		<tag k="layer" v="1" />
		<tag k="name" v="Brudetjønn bru" />
		<tag k="ssr:stedsnr" v="107376" />
	</node>
	<node lat="59.218361115357524" lon="9.794233335914633" id="-50890">
		<tag k="fixme" v="consider natural=peak for the most distinct mountains in the district" />
		<tag k="name" v="Svensketjønnås" />
		<tag k="natural" v="hill" />
		<tag k="place" v="locality" />
		<tag k="ssr:stedsnr" v="109192" />
	</node>
	<node lat="59.295111111839255" lon="9.690980548051657" id="-50892">
		<tag k="alt_name" v="Klauverød" />
		<tag k="fixme" v="consider place=hamlet" />
		<tag k="name" v="Kløverød" />
		<tag k="place" v="farm" />
		<tag k="ssr:stedsnr" v="109260" />
	</node>
	<node lat="59.23542222615064" lon="9.737566666729059" id="-50893">
		<tag k="fixme" v="consider natural=peak for the most distinct mountains in the district" />
		<tag k="name" v="Rognehaugane" />
		<tag k="natural" v="hill" />
		<tag k="place" v="locality" />
		<tag k="ssr:stedsnr" v="110126" />
	</node>
	<node lat="59.23055277946824" lon="9.74392499427796" id="-50894">
		<tag k="name" v="Skarveskotta" />
		<tag k="place" v="locality" />
		<tag k="ssr:stedsnr" v="110128" />
	</node>
	<node lat="59.23777777424626" lon="9.763130561324056" id="-50895">
		<tag k="name" v="Løkeriset" />
		<tag k="place" v="locality" />
		<tag k="ssr:stedsnr" v="110129" />
	</node>
	<node lat="59.309522217792505" lon="9.66345000299318" id="-50896">
		<tag k="name" v="Tveitan nordre" />
		<tag k="place" v="farm" />
		<tag k="ssr:stedsnr" v="110238" />
	</node>
	<node lat="59.21725000220716" lon="9.825130563376348" id="-50898">
		<tag k="name" v="Skogtvet" />
		<tag k="old_name" v="Skogtveit" />
		<tag k="place" v="farm" />
		<tag k="ssr:stedsnr" v="122739" />
	</node>
	<node lat="59.25553610805064" lon="9.848130553865818" id="-50899">
		<tag k="name" v="Diplene" />
		<tag k="natural" v="water" />
		<tag k="ssr:stedsnr" v="123038" />
	</node>
	<node lat="59.24983611498441" lon="9.824263882989737" id="-50900">
		<tag k="name" v="Holt" />
		<tag k="place" v="farm" />
		<tag k="ssr:stedsnr" v="123061" />
	</node>
	<node lat="59.327380556871944" lon="9.751524997763001" id="-50901">
		<tag k="alt_name" v="Vindfjelltjørn" />
		<tag k="name" v="Vindfjelltjønn" />
		<tag k="natural" v="water" />
		<tag k="ssr:stedsnr" v="123363" />
	</node>
	<node lat="59.31353888874077" lon="9.656666669249173" id="-50902">
		<tag k="name" v="Vestby" />
		<tag k="place" v="farm" />
		<tag k="ssr:stedsnr" v="123482" />
	</node>
	<node lat="59.2729638860475" lon="9.753763886172587" id="-50903">
		<tag k="fixme" v="consider natural=peak for the most distinct mountains in the district" />
		<tag k="name" v="Gurholtskarva" />
		<tag k="natural" v="hill" />
		<tag k="place" v="locality" />
		<tag k="ssr:stedsnr" v="123496" />
	</node>
	<node lat="59.29301389005168" lon="9.696522216426498" id="-50904">
		<tag k="name" v="Kløvstad" />
		<tag k="place" v="farm" />
		<tag k="ssr:stedsnr" v="123434" />
	</node>
	<node lat="59.396386109191006" lon="9.76449721951137" id="-50906">
		<tag k="loc_name" v="Bånntjernmyrane" />
		<tag k="name" v="Bånntjørnmyrane" />
		<tag k="natural" v="wetland" />
		<tag k="ssr:stedsnr" v="124238" />
	</node>
	<node lat="59.39088055907139" lon="9.764125004428463" id="-50907">
		<tag k="loc_name" v="Bånntjernhøgdene" />
		<tag k="name" v="Bånntjørnhøgdene" />
		<tag k="natural" v="hill" />
		<tag k="place" v="locality" />
		<tag k="ssr:stedsnr" v="124242" />
	</node>
	<node lat="59.20595278048487" lon="9.80659443914249" id="-50910">
		<tag k="name" v="Storemyr" />
		<tag k="natural" v="wetland" />
		<tag k="ssr:stedsnr" v="169263" />
	</node>
	<node lat="59.20528332976297" lon="9.86250278250462" id="-50911">
		<tag k="name" v="Sundet" />
		<tag k="natural" v="strait" />
		<tag k="ssr:stedsnr" v="169267" />
	</node>
	<node lat="59.2227638856818" lon="9.83838610850034" id="-50912">
		<tag k="name" v="Skålebekk" />
		<tag k="ssr:stedsnr" v="169269" />
		<tag k="waterway" v="stream" />
	</node>
	<node lat="59.21656666976729" lon="9.816186119779438" id="-50913">
		<tag k="name" v="Moholtseter" />
		<tag k="place" v="locality" />
		<tag k="ssr:stedsnr" v="169236" />
	</node>
	<node lat="59.19740555472121" lon="9.843083331128584" id="-50914">
		<tag k="name" v="Søhøgdmyr" />
		<tag k="natural" v="wetland" />
		<tag k="ssr:stedsnr" v="169326" />
	</node>
	<node lat="59.27210555497673" lon="9.737644441335693" id="-50915">
		<tag k="name" v="Norheim" />
		<tag k="place" v="farm" />
		<tag k="ssr:stedsnr" v="169599" />
	</node>
	<node lat="59.22988888550317" lon="9.763475004032937" id="-50916">
		<tag k="name" v="Sandbekk" />
		<tag k="ssr:stedsnr" v="170147" />
		<tag k="waterway" v="stream" />
	</node>
	<node lat="59.23296666836889" lon="9.751161105565556" id="-50917">
		<tag k="name" v="Heidalen" />
		<tag k="natural" v="valley" />
		<tag k="place" v="locality" />
		<tag k="ssr:stedsnr" v="170150" />
	</node>
	<node lat="59.23370832902251" lon="9.734199996374342" id="-50918">
		<tag k="name" v="Moltehekkene" />
		<tag k="natural" v="wetland" />
		<tag k="ssr:stedsnr" v="170152" />
	</node>
	<node lat="59.28697222370157" lon="9.799100001848947" id="-50919">
		<tag k="fixme" v="consider natural=peak for the most distinct mountains in the district" />
		<tag k="name" v="Seteråsen" />
		<tag k="natural" v="hill" />
		<tag k="place" v="locality" />
		<tag k="ssr:stedsnr" v="170230" />
	</node>
	<node lat="59.25195277723841" lon="9.747413886393355" id="-50924">
		<tag k="fixme" v="consider natural=peak for the most distinct mountains in the district" />
		<tag k="name" v="Rødsåsene" />
		<tag k="natural" v="hill" />
		<tag k="place" v="locality" />
		<tag k="ssr:stedsnr" v="170800" />
	</node>
	<node lat="59.25150555298761" lon="9.821111110209882" id="-50925">
		<tag k="name" v="Djupedal" />
		<tag k="natural" v="valley" />
		<tag k="place" v="locality" />
		<tag k="ssr:stedsnr" v="170854" />
	</node>
	<node lat="59.249255557741776" lon="9.85986945013227" id="-50926">
		<tag k="name" v="Svartefjell" />
		<tag k="natural" v="hill" />
		<tag k="place" v="locality" />
		<tag k="ssr:stedsnr" v="170925" />
	</node>
	<node lat="59.213633331498585" lon="9.844080549321516" id="-50930">
		<tag k="fixme" v="consider place=hamlet" />
		<tag k="name" v="Kvisla" />
		<tag k="place" v="farm" />
		<tag k="ssr:stedsnr" v="183746" />
	</node>
	<node lat="59.25856111342653" lon="9.800430550082657" id="-50931">
		<tag k="fixme" v="consider natural=peak for the most distinct mountains in the district" />
		<tag k="name" v="Kistekollen" />
		<tag k="natural" v="hill" />
		<tag k="place" v="locality" />
		<tag k="ssr:stedsnr" v="184025" />
	</node>
	<node lat="59.404113885409124" lon="9.692211107985747" id="-50932">
		<tag k="fixme" v="consider natural=peak for the most distinct mountains in the district" />
		<tag k="name" v="Grønmyråsen" />
		<tag k="natural" v="hill" />
		<tag k="place" v="locality" />
		<tag k="ssr:stedsnr" v="184294" />
	</node>
	<node lat="59.30139999699883" lon="9.640516663961536" id="-50936">
		<tag k="name" v="Avsøla" />
		<tag k="place" v="farm" />
		<tag k="ssr:stedsnr" v="184401" />
	</node>
	<node lat="59.29482500191512" lon="9.637002771681173" id="-50937">
		<tag k="name" v="Frotjønnsbekken" />
		<tag k="ssr:stedsnr" v="184403" />
		<tag k="waterway" v="stream" />
	</node>
	<node lat="59.30875688839513" lon="9.658825445317747" id="-50938">
		<tag k="name" v="Nordtveit" />
		<tag k="place" v="farm" />
		<tag k="ssr:stedsnr" v="184422" />
	</node>
	<node lat="59.33257777528818" lon="9.6750777724671" id="-50939">
		<tag k="name" v="Ådalen" />
		<tag k="natural" v="valley" />
		<tag k="place" v="locality" />
		<tag k="ssr:stedsnr" v="184327" />
	</node>
	<node lat="59.32925278122808" lon="9.726836119319762" id="-50940">
		<tag k="alt_name" v="Hogstadsæter, s" />
		<tag k="historic" v="shieling" />
		<tag k="name" v="Søndre Hogstadseter" />
		<tag k="place" v="isolated_dwelling" />
		<tag k="ssr:stedsnr" v="184332" />
	</node>
	<node lat="59.26435000301219" lon="9.742188889476084" id="-50942">
		<tag k="fixme" v="consider place=hamlet" />
		<tag k="name" v="Serkland" />
		<tag k="place" v="farm" />
		<tag k="ssr:stedsnr" v="184474" />
	</node>
	<node lat="59.39633889340799" lon="9.729899997953755" id="-50943">
		<tag k="fixme" v="consider natural=peak for the most distinct mountains in the district" />
		<tag k="name" v="Breidangsåsane" />
		<tag k="natural" v="hill" />
		<tag k="place" v="locality" />
		<tag k="ssr:stedsnr" v="185270" />
	</node>
	<node lat="59.38482500417009" lon="9.671661108182777" id="-50944">
		<tag k="loc_name" v="Maslaus" />
		<tag k="name" v="Matslaus" />
		<tag k="natural" v="strait" />
		<tag k="ssr:stedsnr" v="185282" />
	</node>
	<node lat="59.274005558666644" lon="9.702155559159065" id="-50945">
		<tag k="alt_name" v="Holtefeltet" />
		<tag k="name" v="Holtesletta" />
		<tag k="place" v="quarter" />
		<tag k="ssr:stedsnr" v="203244" />
	</node>
	<node lat="59.31994444321834" lon="9.590763883091315" id="-50946">
		<tag k="fixme" v="consider highway=path" />
		<tag k="highway" v="track" />
		<tag k="name" v="Søllandsetervegen" />
		<tag k="ssr:stedsnr" v="207728" />
	</node>
	<node lat="59.32120277357499" lon="9.592863889166901" id="-50947">
		<tag k="name" v="Buaråsen" />
		<tag k="natural" v="hill" />
		<tag k="place" v="locality" />
		<tag k="ssr:stedsnr" v="207750" />
	</node>
	<node lat="59.21357222416793" lon="9.800000005026025" id="-50948">
		<tag k="fixme" v="consider natural=peak for the most distinct mountains in the district" />
		<tag k="name" v="Seterhaugene" />
		<tag k="natural" v="hill" />
		<tag k="place" v="locality" />
		<tag k="ssr:stedsnr" v="291300" />
	</node>
	<node lat="59.297430551147826" lon="9.622333329331807" id="-50949">
		<tag k="name" v="Hjertaskollene" />
		<tag k="natural" v="hill" />
		<tag k="place" v="locality" />
		<tag k="ssr:stedsnr" v="291315" />
	</node>
	<node lat="59.32283889078903" lon="9.62890555041832" id="-50950">
		<tag k="name" v="Gastesveene" />
		<tag k="place" v="locality" />
		<tag k="ssr:stedsnr" v="291467" />
	</node>
	<node lat="59.28452222655676" lon="9.708811110743067" id="-50952">
		<tag k="name" v="Høiset" />
		<tag k="place" v="farm" />
		<tag k="ssr:stedsnr" v="291514" />
	</node>
	<node lat="59.26055277870968" lon="9.693780554626406" id="-50953">
		<tag k="name" v="Kringlemyr" />
		<tag k="natural" v="wetland" />
		<tag k="ssr:stedsnr" v="291753" />
	</node>
	<node lat="59.24738055876028" lon="9.825480558192378" id="-50954">
		<tag k="name" v="Holttjønn" />
		<tag k="natural" v="water" />
		<tag k="ssr:stedsnr" v="291894" />
	</node>
	<node lat="59.30773610842559" lon="9.605444448373444" id="-50956">
		<tag k="name" v="Søndre Seterkollene" />
		<tag k="natural" v="hill" />
		<tag k="place" v="locality" />
		<tag k="ssr:stedsnr" v="292270" />
	</node>
	<node lat="59.25566666885797" lon="9.850591672332646" id="-50957">
		<tag k="name" v="Dippeløya" />
		<tag k="natural" v="hill" />
		<tag k="place" v="locality" />
		<tag k="ssr:stedsnr" v="292842" />
	</node>
	<node lat="59.37216666522132" lon="9.675916662359867" id="-50960">
		<tag k="name" v="Bjørndalen" />
		<tag k="place" v="farm" />
		<tag k="ssr:stedsnr" v="305272" />
	</node>
	<node lat="59.297686111660546" lon="9.709308335722717" id="-50961">
		<tag k="name" v="Grandalen" />
		<tag k="natural" v="valley" />
		<tag k="place" v="locality" />
		<tag k="ssr:stedsnr" v="305403" />
	</node>
	<node lat="59.29567500296368" lon="9.682772221839034" id="-50962">
		<tag k="name" v="Solås" />
		<tag k="place" v="farm" />
		<tag k="ssr:stedsnr" v="305407" />
	</node>
	<node lat="59.31222499722282" lon="9.641877783114252" id="-50963">
		<tag k="name" v="Granli" />
		<tag k="place" v="farm" />
		<tag k="ssr:stedsnr" v="305459" />
	</node>
	<node lat="59.283811114160585" lon="9.636886104514367" id="-50964">
		<tag k="name" v="Galnekollen" />
		<tag k="natural" v="hill" />
		<tag k="place" v="locality" />
		<tag k="ssr:stedsnr" v="305535" />
	</node>
	<node lat="59.36693055394326" lon="9.734294450993328" id="-50966">
		<tag k="fixme" v="consider natural=peak for the most distinct mountains in the district" />
		<tag k="loc_name" v="Flotkollene" />
		<tag k="name" v="Flotkollane" />
		<tag k="natural" v="hill" />
		<tag k="place" v="locality" />
		<tag k="ssr:stedsnr" v="305256" />
	</node>
	<node lat="59.211622222201015" lon="9.85958611545842" id="-50967">
		<tag k="fixme" v="consider place=hamlet" />
		<tag k="name" v="Neset" />
		<tag k="place" v="farm" />
		<tag k="ssr:stedsnr" v="305739" />
	</node>
	<node lat="59.40421666398809" lon="9.663783327522912" id="-50969">
		<tag k="name" v="Kollen" />
		<tag k="place" v="farm" />
		<tag k="ssr:stedsnr" v="306287" />
	</node>
	<node lat="59.34272777744372" lon="9.7563999968612" id="-50972">
		<tag k="loc_name" v="Stubbekolltjern" />
		<tag k="name" v="Stubbekolltjørn" />
		<tag k="natural" v="water" />
		<tag k="ssr:stedsnr" v="306342" />
	</node>
	<node lat="59.31255555653023" lon="9.666516660406607" id="-50973">
		<tag k="name" v="Tveitan nordgård" />
		<tag k="place" v="farm" />
		<tag k="ssr:stedsnr" v="351400" />
	</node>
	<node lat="59.20910833132907" lon="9.804777784919537" id="-50974">
		<tag k="name" v="Diplemyr" />
		<tag k="natural" v="wetland" />
		<tag k="ssr:stedsnr" v="351276" />
	</node>
	<node lat="59.32531666719671" lon="9.669369441633087" id="-50975">
		<tag k="name" v="Falkedalen" />
		<tag k="natural" v="valley" />
		<tag k="place" v="locality" />
		<tag k="ssr:stedsnr" v="351408" />
	</node>
	<node lat="59.257616664653355" lon="9.693727771342044" id="-50976">
		<tag k="name" v="Holmsetermyr" />
		<tag k="natural" v="wetland" />
		<tag k="ssr:stedsnr" v="351731" />
	</node>
	<node lat="59.26516388963009" lon="9.776177777169575" id="-50980">
		<tag k="name" v="Vinterodden" />
		<tag k="natural" v="cape" />
		<tag k="ssr:stedsnr" v="351784" />
	</node>
	<node lat="59.24226667016069" lon="9.828838890996924" id="-50983">
		<tag k="name" v="Asbjørnsdal" />
		<tag k="natural" v="valley" />
		<tag k="place" v="locality" />
		<tag k="ssr:stedsnr" v="351927" />
	</node>
	<node lat="59.24195555913793" lon="9.835505550240718" id="-50984">
		<tag k="name" v="Gampedalen" />
		<tag k="natural" v="valley" />
		<tag k="place" v="locality" />
		<tag k="ssr:stedsnr" v="351885" />
	</node>
	<node lat="59.23640277863317" lon="9.783738881804519" id="-50985">
		<tag k="name" v="Norslia" />
		<tag k="natural" v="slope" />
		<tag k="place" v="locality" />
		<tag k="ssr:stedsnr" v="352086" />
	</node>
	<node lat="59.239205552944284" lon="9.77416388332716" id="-50986">
		<tag k="name" v="Bakkanejordet" />
		<tag k="place" v="locality" />
		<tag k="ssr:stedsnr" v="352101" />
	</node>
	<node lat="59.28281388694219" lon="9.77738889477764" id="-50987">
		<tag k="name" v="Granli" />
		<tag k="place" v="farm" />
		<tag k="ssr:stedsnr" v="352184" />
	</node>
	<node lat="59.25362777683888" lon="9.83448333342963" id="-50988">
		<tag k="name" v="Gjetrangdalen" />
		<tag k="natural" v="valley" />
		<tag k="place" v="locality" />
		<tag k="ssr:stedsnr" v="352913" />
	</node>
	<node lat="59.32614444320844" lon="9.726488884620142" id="-50991">
		<tag k="name" v="Kalvedalene" />
		<tag k="natural" v="valley" />
		<tag k="place" v="locality" />
		<tag k="ssr:stedsnr" v="352392" />
	</node>
	<node lat="59.3253222223419" lon="9.747363885793451" id="-50995">
		<tag k="name" v="Vindfjellbekken" />
		<tag k="ssr:stedsnr" v="352341" />
		<tag k="waterway" v="stream" />
	</node>
	<node lat="59.267644446475124" lon="9.752225003793626" id="-50996">
		<tag k="name" v="Solbakken" />
		<tag k="place" v="farm" />
		<tag k="ssr:stedsnr" v="352681" />
	</node>
	<node lat="59.265333336943634" lon="9.754024995708095" id="-50997">
		<tag k="name" v="Svingen" />
		<tag k="place" v="farm" />
		<tag k="ssr:stedsnr" v="352683" />
	</node>
	<node lat="59.34463055123576" lon="9.73614999571722" id="-51003">
		<tag k="name" v="Grankollen" />
		<tag k="natural" v="hill" />
		<tag k="place" v="locality" />
		<tag k="ssr:stedsnr" v="366354" />
	</node>
	<node lat="59.26980000270226" lon="9.800113883465803" id="-51005">
		<tag k="alt_name" v="Tampern" />
		<tag k="fixme" v="consider natural=peak for the most distinct mountains in the district" />
		<tag k="name" v="Tampernuten" />
		<tag k="natural" v="hill" />
		<tag k="place" v="locality" />
		<tag k="ssr:stedsnr" v="366456" />
	</node>
	<node lat="59.291575000849264" lon="9.700966674176602" id="-51006">
		<tag k="name" v="Solheim" />
		<tag k="place" v="farm" />
		<tag k="ssr:stedsnr" v="366398" />
	</node>
	<node lat="59.27892499737642" lon="9.72986111872158" id="-51010">
		<tag k="name" v="Siljan sentrum" />
		<tag k="place" v="quarter" />
		<tag k="ssr:stedsnr" v="403616" />
	</node>
	<node lat="59.35446944529574" lon="9.66894721639857" id="-51012">
		<tag k="bridge" v="yes" />
		<tag k="layer" v="1" />
		<tag k="name" v="Toklev" />
		<tag k="ssr:stedsnr" v="410357" />
	</node>
	<node lat="59.230161112029165" lon="9.813669436049471" id="-51013">
		<tag k="name" v="Kovedalen" />
		<tag k="natural" v="valley" />
		<tag k="place" v="locality" />
		<tag k="ssr:stedsnr" v="412035" />
	</node>
	<node lat="59.245916662585415" lon="9.791100006556988" id="-51014">
		<tag k="name" v="Gorningdammen" />
		<tag k="ssr:stedsnr" v="412036" />
		<tag k="waterway" v="dam" />
	</node>
	<node lat="59.20626110804379" lon="9.834244452289207" id="-51015">
		<tag k="fixme" v="consider natural=peak for the most distinct mountains in the district" />
		<tag k="name" v="Brekkene" />
		<tag k="natural" v="hill" />
		<tag k="place" v="locality" />
		<tag k="ssr:stedsnr" v="412277" />
	</node>
	<node lat="59.321430555800625" lon="9.657266658756514" id="-51017">
		<tag k="landuse" v="industrial" />
		<tag k="name" v="Hogstad" />
		<tag k="power" v="plant" />
		<tag k="ssr:stedsnr" v="412385" />
	</node>
	<node lat="59.25741944683182" lon="9.686808337488525" id="-51018">
		<tag k="fixme" v="consider natural=peak for the most distinct mountains in the district" />
		<tag k="name" v="Heivannsås" />
		<tag k="natural" v="hill" />
		<tag k="place" v="locality" />
		<tag k="ssr:stedsnr" v="412692" />
	</node>
	<node lat="59.26385278055863" lon="9.797447215552939" id="-51019">
		<tag k="fixme" v="consider natural=peak for the most distinct mountains in the district" />
		<tag k="name" v="Dritarås" />
		<tag k="natural" v="hill" />
		<tag k="place" v="locality" />
		<tag k="ssr:stedsnr" v="412714" />
	</node>
	<node lat="59.30765000080854" lon="9.618491665169952" id="-51021">
		<tag k="name" v="Nedre Kollene" />
		<tag k="natural" v="hill" />
		<tag k="place" v="locality" />
		<tag k="ssr:stedsnr" v="413298" />
	</node>
	<node lat="59.3144805515156" lon="9.744127786107853" id="-51022">
		<tag k="name" v="Gåladammen" />
		<tag k="ssr:stedsnr" v="413331" />
		<tag k="waterway" v="dam" />
	</node>
	<node lat="59.31781944488152" lon="9.745224996050032" id="-51023">
		<tag k="name" v="Øktermyr" />
		<tag k="natural" v="wetland" />
		<tag k="ssr:stedsnr" v="413394" />
	</node>
	<node lat="59.22774444602813" lon="9.858205557301112" id="-51024">
		<tag k="fixme" v="consider natural=peak for the most distinct mountains in the district" />
		<tag k="name" v="Auenskollen" />
		<tag k="natural" v="hill" />
		<tag k="place" v="locality" />
		<tag k="ssr:stedsnr" v="412879" />
	</node>
	<node lat="59.271472223778126" lon="9.772091662997445" id="-51025">
		<tag k="fixme" v="consider natural=peak for the most distinct mountains in the district" />
		<tag k="name" v="Langevelsåsen" />
		<tag k="natural" v="hill" />
		<tag k="place" v="locality" />
		<tag k="ssr:stedsnr" v="413216" />
	</node>
	<node lat="59.289105557200074" lon="9.698988886179858" id="-51026">
		<tag k="name" v="Holtan" />
		<tag k="place" v="farm" />
		<tag k="ssr:stedsnr" v="413615" />
	</node>
	<node lat="59.26781110692324" lon="9.73492777002241" id="-51027">
		<tag k="name" v="Nordre Engelstad" />
		<tag k="place" v="farm" />
		<tag k="ssr:stedsnr" v="413730" />
	</node>
	<node lat="59.26142222359571" lon="9.824619436332704" id="-51028">
		<tag k="fixme" v="consider natural=peak for the most distinct mountains in the district" />
		<tag k="name" v="Seteråsene" />
		<tag k="natural" v="hill" />
		<tag k="place" v="locality" />
		<tag k="ssr:stedsnr" v="413849" />
	</node>
	<node lat="59.25508888475497" lon="9.855586116237234" id="-51029">
		<tag k="name" v="Hvarnesbakken" />
		<tag k="natural" v="slope" />
		<tag k="place" v="locality" />
		<tag k="ssr:stedsnr" v="413923" />
	</node>
	<node lat="59.2521444400478" lon="9.85170000197761" id="-51030">
		<tag k="name" v="Nordre Fjerdingsdal" />
		<tag k="natural" v="valley" />
		<tag k="place" v="locality" />
		<tag k="ssr:stedsnr" v="413927" />
	</node>
	<node lat="59.253922222886494" lon="9.833055550165335" id="-51031">
		<tag k="name" v="Sølves ris" />
		<tag k="place" v="locality" />
		<tag k="ssr:stedsnr" v="413931" />
	</node>
	<node lat="59.38715277685916" lon="9.747441667695204" id="-51035">
		<tag k="loc_name" v="Lyskottjern" />
		<tag k="name" v="Lyskottjørn" />
		<tag k="natural" v="water" />
		<tag k="ssr:stedsnr" v="427316" />
	</node>
	<node lat="59.28780277515765" lon="9.706247227152907" id="-51040">
		<tag k="fixme" v="consider place=hamlet" />
		<tag k="name" v="Siljan" />
		<tag k="place" v="village" />
		<tag k="ssr:stedsnr" v="427513" />
	</node>
	<node lat="59.33462499677898" lon="9.581730553946056" id="-51043">
		<tag k="fixme" v="consider natural=peak for the most distinct mountains in the district" />
		<tag k="name" v="Skreidfjell" />
		<tag k="natural" v="hill" />
		<tag k="place" v="locality" />
		<tag k="ssr:stedsnr" v="427828" />
	</node>
	<node lat="59.31526111110361" lon="9.620230556333054" id="-51045">
		<tag k="name" v="Søllandliene" />
		<tag k="natural" v="valley" />
		<tag k="place" v="locality" />
		<tag k="ssr:stedsnr" v="513197" />
	</node>
	<node lat="59.40016944804092" lon="9.781875003725148" id="-51046">
		<tag k="name" v="Rauberelva" />
		<tag k="ssr:stedsnr" v="513951" />
		<tag k="waterway" v="stream" />
	</node>
	<node lat="59.238161107599396" lon="9.796274996405456" id="-51047">
		<tag k="bridge" v="yes" />
		<tag k="layer" v="1" />
		<tag k="name" v="Finsrud" />
		<tag k="ssr:stedsnr" v="532317" />
	</node>
	<node lat="59.258819443041865" lon="9.760872216040255" id="-51048">
		<tag k="bridge" v="yes" />
		<tag k="layer" v="1" />
		<tag k="name" v="Gonsholt" />
		<tag k="ssr:stedsnr" v="532318" />
	</node>
	<node lat="59.21773610915425" lon="9.808713885465076" id="-51049">
		<tag k="name" v="Trytetjønndalen" />
		<tag k="natural" v="valley" />
		<tag k="place" v="locality" />
		<tag k="ssr:stedsnr" v="533254" />
	</node>
	<node lat="59.22228055726333" lon="9.795088885998371" id="-51050">
		<tag k="name" v="Stallane" />
		<tag k="place" v="locality" />
		<tag k="ssr:stedsnr" v="533196" />
	</node>
	<node lat="59.22534166878254" lon="9.783533325642349" id="-51051">
		<tag k="name" v="Bjønneriset" />
		<tag k="place" v="locality" />
		<tag k="ssr:stedsnr" v="533197" />
	</node>
	<node lat="59.23474444637936" lon="9.79171944217977" id="-51056">
		<tag k="name" v="Liene" />
		<tag k="natural" v="slope" />
		<tag k="place" v="locality" />
		<tag k="ssr:stedsnr" v="534098" />
	</node>
	<node lat="59.280408329613174" lon="9.764122229290743" id="-51058">
		<tag k="fixme" v="consider natural=peak for the most distinct mountains in the district" />
		<tag k="name" v="Hvalpetjønnåsen" />
		<tag k="natural" v="hill" />
		<tag k="place" v="locality" />
		<tag k="ssr:stedsnr" v="534201" />
	</node>
	<node lat="59.21887222000551" lon="9.835158324747816" id="-51059">
		<tag k="name" v="Kvisladalene" />
		<tag k="natural" v="valley" />
		<tag k="place" v="locality" />
		<tag k="ssr:stedsnr" v="534275" />
	</node>
	<node lat="59.211058330055785" lon="9.823177777480044" id="-51060">
		<tag k="fixme" v="consider natural=peak for the most distinct mountains in the district" />
		<tag k="name" v="Grasås" />
		<tag k="natural" v="hill" />
		<tag k="place" v="locality" />
		<tag k="ssr:stedsnr" v="534277" />
	</node>
	<node lat="59.20876110870792" lon="9.828452781014642" id="-51061">
		<tag k="name" v="Bjønnemyr" />
		<tag k="natural" v="wetland" />
		<tag k="ssr:stedsnr" v="534280" />
	</node>
	<node lat="59.26047500023108" lon="9.837022224247608" id="-51065">
		<tag k="name" v="Stuterabben" />
		<tag k="natural" v="ridge" />
		<tag k="place" v="locality" />
		<tag k="ssr:stedsnr" v="534842" />
	</node>
	<node lat="59.26429444824521" lon="9.78384722300029" id="-51066">
		<tag k="name" v="Krokslia" />
		<tag k="natural" v="slope" />
		<tag k="place" v="locality" />
		<tag k="ssr:stedsnr" v="534759" />
	</node>
	<node lat="59.320202774039466" lon="9.664713892678087" id="-51072">
		<tag k="fixme" v="consider place=hamlet" />
		<tag k="name" v="Hogstad, øvre" />
		<tag k="place" v="farm" />
		<tag k="ssr:stedsnr" v="548335" />
	</node>
	<node lat="59.32118611238507" lon="9.717863893574552" id="-51073">
		<tag k="fixme" v="consider natural=peak for the most distinct mountains in the district" />
		<tag k="name" v="Lykollen" />
		<tag k="natural" v="hill" />
		<tag k="place" v="locality" />
		<tag k="ssr:stedsnr" v="548341" />
	</node>
	<node lat="59.3237861107715" lon="9.724822230730087" id="-51074">
		<tag k="alt_name" v="Svarttjørn" />
		<tag k="name" v="Svarttjønn" />
		<tag k="natural" v="water" />
		<tag k="ssr:stedsnr" v="548342" />
	</node>
	<node lat="59.2752361103298" lon="9.723755546863924" id="-51075">
		<tag k="alt_name" v="Thorsholt" />
		<tag k="fixme" v="consider place=hamlet" />
		<tag k="name" v="Torsholt" />
		<tag k="place" v="farm" />
		<tag k="ssr:stedsnr" v="548476" />
	</node>
	<node lat="59.280349999169324" lon="9.728241666362909" id="-51077">
		<tag k="alt_name" v="Saga" />
		<tag k="name" v="Saga" />
		<tag k="place" v="farm" />
		<tag k="ssr:stedsnr" v="548480" />
	</node>
	<node lat="59.27845000333812" lon="9.781891670769362" id="-51079">
		<tag k="alt_name" v="Rognhaugene" />
		<tag k="name" v="Rognhaugane" />
		<tag k="natural" v="hill" />
		<tag k="place" v="locality" />
		<tag k="ssr:stedsnr" v="548486" />
	</node>
	<node lat="59.28267499720678" lon="9.644622216809287" id="-51081">
		<tag k="name" v="Vindfjell" />
		<tag k="natural" v="hill" />
		<tag k="place" v="locality" />
		<tag k="ssr:stedsnr" v="548494" />
	</node>
	<node lat="59.24218888892181" lon="9.784819445175604" id="-51082">
		<tag k="fixme" v="consider place=hamlet" />
		<tag k="name" v="Austad" />
		<tag k="place" v="farm" />
		<tag k="ssr:stedsnr" v="548628" />
	</node>
	<node lat="59.24796666561668" lon="9.787055564103262" id="-51083">
		<tag k="name" v="Gorningen" />
		<tag k="natural" v="water" />
		<tag k="ssr:stedsnr" v="548631" />
		<tag k="water" v="lake" />
	</node>
	<node lat="59.28194999830959" lon="9.676872226803393" id="-51085">
		<tag k="aerialway" v="drag_lift" />
		<tag k="fixme" v="consider the other aerialway types" />
		<tag k="name" v="Siljan Alpinsenter" />
		<tag k="ssr:stedsnr" v="566946" />
	</node>
	<node lat="59.243674997531656" lon="9.785438886201371" id="-51086">
		<tag k="name" v="Austad" />
		<tag k="place" v="hamlet" />
		<tag k="ssr:stedsnr" v="570908" />
	</node>
	<node lat="59.316530559687955" lon="9.65934167500121" id="-51087">
		<tag k="bridge" v="yes" />
		<tag k="layer" v="1" />
		<tag k="name" v="Hogstad" />
		<tag k="ssr:stedsnr" v="592351" />
	</node>
	<node lat="59.2401833321709" lon="9.805588883769769" id="-51088">
		<tag k="name" v="Kistefossen" />
		<tag k="natural" v="waterfall" />
		<tag k="ssr:stedsnr" v="594071" />
	</node>
	<node lat="59.20523888740059" lon="9.824030560452275" id="-51089">
		<tag k="name" v="Høgåsløken" />
		<tag k="natural" v="wetland" />
		<tag k="ssr:stedsnr" v="594310" />
	</node>
	<node lat="59.220666667769294" lon="9.845655558830934" id="-51090">
		<tag k="name" v="Arves ris" />
		<tag k="place" v="locality" />
		<tag k="ssr:stedsnr" v="594313" />
	</node>
	<node lat="59.273919442301" lon="9.770305557825779" id="-51091">
		<tag k="fixme" v="consider natural=peak for the most distinct mountains in the district" />
		<tag k="name" v="Gopledalsåsen" />
		<tag k="natural" v="hill" />
		<tag k="place" v="locality" />
		<tag k="ssr:stedsnr" v="594184" />
	</node>
	<node lat="59.27337500300943" lon="9.829127769466414" id="-51092">
		<tag k="name" v="Gjøsterholet" />
		<tag k="natural" v="valley" />
		<tag k="place" v="locality" />
		<tag k="ssr:stedsnr" v="594189" />
	</node>
	<node lat="59.21131944031262" lon="9.807833328195642" id="-51093">
		<tag k="fixme" v="consider natural=peak for the most distinct mountains in the district" />
		<tag k="name" v="Heiriset" />
		<tag k="natural" v="hill" />
		<tag k="place" v="locality" />
		<tag k="ssr:stedsnr" v="594284" />
	</node>
	<node lat="59.216313889721874" lon="9.827591667381036" id="-51094">
		<tag k="fixme" v="consider natural=peak for the most distinct mountains in the district" />
		<tag k="name" v="Bjørkås" />
		<tag k="natural" v="hill" />
		<tag k="place" v="locality" />
		<tag k="ssr:stedsnr" v="594299" />
	</node>
	<node lat="59.197869443853676" lon="9.845102783263755" id="-51095">
		<tag k="fixme" v="consider natural=peak for the most distinct mountains in the district" />
		<tag k="name" v="Grønland" />
		<tag k="natural" v="hill" />
		<tag k="place" v="locality" />
		<tag k="ssr:stedsnr" v="594323" />
	</node>
	<node lat="59.310749998026076" lon="9.605047217376798" id="-51096">
		<tag k="name" v="Nordre Seterkollen" />
		<tag k="natural" v="hill" />
		<tag k="place" v="locality" />
		<tag k="ssr:stedsnr" v="594442" />
	</node>
	<node lat="59.322219447197774" lon="9.62346389003309" id="-51097">
		<tag k="name" v="Kåsene nordre" />
		<tag k="place" v="farm" />
		<tag k="ssr:stedsnr" v="594446" />
	</node>
	<node lat="59.26532777375323" lon="9.81045277249421" id="-51098">
		<tag k="name" v="Bråtatjønndalen" />
		<tag k="natural" v="valley" />
		<tag k="place" v="locality" />
		<tag k="ssr:stedsnr" v="594733" />
	</node>
	<node lat="59.24759166993931" lon="9.818447223532864" id="-51099">
		<tag k="name" v="Sikane" />
		<tag k="place" v="farm" />
		<tag k="ssr:stedsnr" v="594741" />
	</node>
	<node lat="59.28800278134122" lon="9.709636115120736" id="-51100">
		<tag k="fixme" v="consider place=hamlet" />
		<tag k="name" v="Prestegården" />
		<tag k="place" v="farm" />
		<tag k="ssr:stedsnr" v="594485" />
	</node>
	<node lat="59.253008334213334" lon="9.75786388620236" id="-51101">
		<tag k="name" v="Øvre Rød" />
		<tag k="place" v="farm" />
		<tag k="ssr:stedsnr" v="594670" />
	</node>
	<node lat="59.267538890474015" lon="9.736919442048887" id="-51102">
		<tag k="name" v="Søndre Engelstad" />
		<tag k="place" v="farm" />
		<tag k="ssr:stedsnr" v="594697" />
	</node>
	<node lat="59.242822219748" lon="9.811861110269325" id="-51103">
		<tag k="landuse" v="industrial" />
		<tag k="name" v="Kiste kraftstasjon" />
		<tag k="power" v="plant" />
		<tag k="ssr:stedsnr" v="595036" />
	</node>
	<node lat="59.26769444254742" lon="9.784700003564744" id="-51104">
		<tag k="name" v="Sortedal" />
		<tag k="place" v="locality" />
		<tag k="ssr:stedsnr" v="594785" />
	</node>
	<node lat="59.236744447524224" lon="9.747355557975984" id="-51105">
		<tag k="fixme" v="consider natural=peak for the most distinct mountains in the district" />
		<tag k="name" v="Seteråsen" />
		<tag k="natural" v="hill" />
		<tag k="place" v="locality" />
		<tag k="ssr:stedsnr" v="595128" />
	</node>
	<node lat="59.2269861094824" lon="9.764327781718048" id="-51106">
		<tag k="name" v="Grasdalstjønn" />
		<tag k="natural" v="water" />
		<tag k="ssr:stedsnr" v="595133" />
	</node>
	<node lat="59.26019986077261" lon="9.838809011396794" id="-51107">
		<tag k="name" v="Diplestua" />
		<tag k="place" v="locality" />
		<tag k="ssr:stedsnr" v="595825" />
	</node>
	<node lat="59.263463886683155" lon="9.842011117355202" id="-51108">
		<tag k="name" v="Donemyrbekken" />
		<tag k="ssr:stedsnr" v="595828" />
		<tag k="waterway" v="stream" />
	</node>
	<node lat="59.37382499565167" lon="9.654761102779048" id="-51109">
		<tag k="fixme" v="consider natural=peak for the most distinct mountains in the district" />
		<tag k="name" v="Toakollane" />
		<tag k="natural" v="hill" />
		<tag k="place" v="locality" />
		<tag k="ssr:stedsnr" v="608253" />
	</node>
	<node lat="59.21073333489829" lon="9.840052785748853" id="-51111">
		<tag k="name" v="Kvislarønningen" />
		<tag k="old_name" v="Kvislerønningen" />
		<tag k="place" v="farm" />
		<tag k="ssr:stedsnr" v="608780" />
	</node>
	<node lat="59.30924999764816" lon="9.616024996366153" id="-51113">
		<tag k="name" v="Kolledalen" />
		<tag k="natural" v="valley" />
		<tag k="place" v="locality" />
		<tag k="ssr:stedsnr" v="608421" />
	</node>
	<node lat="59.2569638871095" lon="9.717933328218887" id="-51115">
		<tag k="name" v="Langemyr" />
		<tag k="natural" v="wetland" />
		<tag k="ssr:stedsnr" v="609035" />
	</node>
	<node lat="59.333699996325464" lon="9.714916672790965" id="-51116">
		<tag k="alt_name" v="Hogstadsæter, nordre" />
		<tag k="historic" v="shieling" />
		<tag k="name" v="Nordre Hogstadseter" />
		<tag k="place" v="isolated_dwelling" />
		<tag k="ssr:stedsnr" v="609328" />
	</node>
	<node lat="59.38996389131314" lon="9.63722222480814" id="-51117">
		<tag k="loc_name" v="Lommetjern" />
		<tag k="name" v="Lometjørn" />
		<tag k="natural" v="water" />
		<tag k="ssr:stedsnr" v="609277" />
	</node>
	<node lat="59.38488888977569" lon="9.703663890166473" id="-51118">
		<tag k="name" v="Steindalen" />
		<tag k="place" v="farm" />
		<tag k="ssr:stedsnr" v="609279" />
	</node>
	<node lat="59.38976111499301" lon="9.721283330931444" id="-51119">
		<tag k="loc_name" v="Videtjern" />
		<tag k="name" v="Videtjørn" />
		<tag k="natural" v="water" />
		<tag k="ssr:stedsnr" v="609281" />
	</node>
	<node lat="59.35018888577415" lon="9.783883335033854" id="-51120">
		<tag k="fixme" v="consider natural=peak for the most distinct mountains in the district" />
		<tag k="name" v="Skurvekollen" />
		<tag k="natural" v="hill" />
		<tag k="place" v="locality" />
		<tag k="ssr:stedsnr" v="634957" />
	</node>
	<node lat="59.236166670034805" lon="9.81000554991274" id="-51125">
		<tag k="name" v="Stranda" />
		<tag k="place" v="locality" />
		<tag k="ssr:stedsnr" v="655002" />
	</node>
	<node lat="59.295291668737164" lon="9.792222217875592" id="-51126">
		<tag k="name" v="Fjellriset" />
		<tag k="place" v="isolated_dwelling" />
		<tag k="ssr:stedsnr" v="655229" />
	</node>
	<node lat="59.21485278123927" lon="9.826455554652762" id="-51127">
		<tag k="name" v="Høgbakk" />
		<tag k="natural" v="hill" />
		<tag k="place" v="locality" />
		<tag k="ssr:stedsnr" v="655298" />
	</node>
	<node lat="59.20154166241902" lon="9.860077776078406" id="-51128">
		<tag k="name" v="Ånundsflåt" />
		<tag k="natural" v="hill" />
		<tag k="place" v="locality" />
		<tag k="ssr:stedsnr" v="655325" />
	</node>
	<node lat="59.22016388958999" lon="9.815616668231261" id="-51129">
		<tag k="name" v="Moane" />
		<tag k="place" v="locality" />
		<tag k="ssr:stedsnr" v="655262" />
	</node>
	<node lat="59.28968333552211" lon="9.70272499630005" id="-51130">
		<tag k="name" v="Ekli" />
		<tag k="place" v="farm" />
		<tag k="ssr:stedsnr" v="655274" />
	</node>
	<node lat="59.22568333400684" lon="9.801161111543667" id="-51131">
		<tag k="name" v="Palludanbonn" />
		<tag k="place" v="locality" />
		<tag k="ssr:stedsnr" v="655276" />
	</node>
	<node lat="59.258602773898886" lon="9.825569436232394" id="-51135">
		<tag k="name" v="Småmyrriset" />
		<tag k="natural" v="wetland" />
		<tag k="ssr:stedsnr" v="655825" />
	</node>
	<node lat="59.26385277766729" lon="9.83065832982643" id="-51136">
		<tag k="fixme" v="consider natural=peak for the most distinct mountains in the district" />
		<tag k="name" v="Østerrisa" />
		<tag k="natural" v="hill" />
		<tag k="place" v="locality" />
		<tag k="ssr:stedsnr" v="655826" />
	</node>
	<node lat="59.26233333732616" lon="9.838377775721218" id="-51137">
		<tag k="name" v="Nordigardsdippel" />
		<tag k="natural" v="water" />
		<tag k="ssr:stedsnr" v="655828" />
	</node>
	<node lat="59.248977780255345" lon="9.798516668535184" id="-51138">
		<tag k="name" v="Kiste" />
		<tag k="place" v="isolated_dwelling" />
		<tag k="ssr:stedsnr" v="655766" />
	</node>
	<node lat="59.218913887726345" lon="9.844336105497508" id="-51139">
		<tag k="name" v="Dalsberga" />
		<tag k="natural" v="hill" />
		<tag k="place" v="locality" />
		<tag k="ssr:stedsnr" v="668742" />
	</node>
	<node lat="59.22549444237616" lon="9.843516664090592" id="-51141">
		<tag k="fixme" v="consider natural=peak for the most distinct mountains in the district" />
		<tag k="name" v="Tempelturen" />
		<tag k="natural" v="hill" />
		<tag k="place" v="locality" />
		<tag k="ssr:stedsnr" v="668677" />
	</node>
	<node lat="59.35920000159968" lon="9.631983327236414" id="-51142">
		<tag k="name" v="Todalsbekken" />
		<tag k="ssr:stedsnr" v="669238" />
		<tag k="waterway" v="stream" />
	</node>
	<node lat="59.23693333162026" lon="9.815755557049489" id="-51143">
		<tag k="name" v="Lakssjø" />
		<tag k="natural" v="water" />
		<tag k="ssr:stedsnr" v="669653" />
	</node>
	<node lat="59.349980553785976" lon="9.693872214904818" id="-51145">
		<tag k="name" v="Granekollen" />
		<tag k="natural" v="hill" />
		<tag k="place" v="locality" />
		<tag k="ssr:stedsnr" v="669359" />
	</node>
	<node lat="59.2956138857515" lon="9.69252500063585" id="-51146">
		<tag k="alt_name" v="Kløverød søndre" />
		<tag k="name" v="Kløverød" />
		<tag k="place" v="farm" />
		<tag k="ssr:stedsnr" v="669382" />
	</node>
	<node lat="59.374955558828646" lon="9.7475416683899" id="-51148">
		<tag k="fixme" v="consider tourism=alpine_hut or tourism=chalet" />
		<tag k="name" v="Årum" />
		<tag k="ssr:stedsnr" v="669256" />
		<tag k="tourism" v="wilderness_hut" />
	</node>
	<node lat="59.31656111111383" lon="9.653027780968197" id="-51149">
		<tag k="name" v="Botndalen" />
		<tag k="place" v="farm" />
		<tag k="ssr:stedsnr" v="669444" />
	</node>
	<node lat="59.4047888915856" lon="9.726727773839212" id="-51150">
		<tag k="loc_name" v="Store Dalstjern" />
		<tag k="name" v="Dalstjørn" />
		<tag k="natural" v="water" />
		<tag k="ssr:stedsnr" v="670299" />
	</node>
	<node lat="59.256975988600466" lon="9.69847715417493" id="-51151">
		<tag k="name" v="Speilen" />
		<tag k="natural" v="water" />
		<tag k="ssr:stedsnr" v="670431" />
	</node>
	<node lat="59.33071028697881" lon="9.722681420959672" id="-51154">
		<tag k="alt_name" v="Sætertjørn" />
		<tag k="name" v="Setertjønn" />
		<tag k="natural" v="water" />
		<tag k="ssr:stedsnr" v="670341" />
	</node>
	<node lat="59.294497220991474" lon="9.68701388952136" id="-51155">
		<tag k="name" v="Oset" />
		<tag k="place" v="farm" />
		<tag k="ssr:stedsnr" v="715299" />
	</node>
	<node lat="59.2178777805066" lon="9.798027783269768" id="-51158">
		<tag k="name" v="Svensketjønndalen" />
		<tag k="natural" v="valley" />
		<tag k="place" v="locality" />
		<tag k="ssr:stedsnr" v="716270" />
	</node>
	<node lat="59.30902499588426" lon="9.66392222097154" id="-51159">
		<tag k="name" v="Tveitan søndre" />
		<tag k="place" v="farm" />
		<tag k="ssr:stedsnr" v="716273" />
	</node>
	<node lat="59.21560833105724" lon="9.835838893585086" id="-51160">
		<tag k="fixme" v="consider natural=peak for the most distinct mountains in the district" />
		<tag k="name" v="Kvislaås" />
		<tag k="natural" v="hill" />
		<tag k="place" v="locality" />
		<tag k="ssr:stedsnr" v="716315" />
	</node>
	<node lat="59.1963166690342" lon="9.847888880416305" id="-51161">
		<tag k="name" v="Eikliene" />
		<tag k="natural" v="slope" />
		<tag k="place" v="locality" />
		<tag k="ssr:stedsnr" v="716342" />
	</node>
	<node lat="59.20146666288124" lon="9.848580551069192" id="-51162">
		<tag k="name" v="Ljøredalen" />
		<tag k="natural" v="valley" />
		<tag k="place" v="locality" />
		<tag k="ssr:stedsnr" v="716345" />
	</node>
	<node lat="59.279288890881936" lon="9.727386111038141" id="-51163">
		<tag k="name" v="Østby" />
		<tag k="place" v="farm" />
		<tag k="ssr:stedsnr" v="716519" />
	</node>
	<node lat="59.2827499975499" lon="9.710336108522775" id="-51164">
		<tag k="name" v="Bjørntvedt" />
		<tag k="place" v="farm" />
		<tag k="ssr:stedsnr" v="716520" />
	</node>
	<node lat="59.25648611556411" lon="9.698408329430192" id="-51165">
		<tag k="name" v="Speilmyr" />
		<tag k="natural" v="wetland" />
		<tag k="ssr:stedsnr" v="716752" />
	</node>
	<node lat="59.255647226253444" lon="9.770988885080982" id="-51166">
		<tag k="name" v="Prestejordet" />
		<tag k="place" v="farm" />
		<tag k="ssr:stedsnr" v="716839" />
	</node>
	<node lat="59.25438888830513" lon="9.855830563623313" id="-51167">
		<tag k="name" v="Gamleseter" />
		<tag k="place" v="locality" />
		<tag k="ssr:stedsnr" v="716899" />
	</node>
	<node lat="59.243572224850844" lon="9.841211110424615" id="-51169">
		<tag k="name" v="Grasdal" />
		<tag k="natural" v="valley" />
		<tag k="place" v="locality" />
		<tag k="ssr:stedsnr" v="716961" />
	</node>
	<node lat="59.23357222053131" lon="9.83446110636935" id="-51170">
		<tag k="name" v="Streket" />
		<tag k="place" v="farm" />
		<tag k="ssr:stedsnr" v="716962" />
	</node>
	<node lat="59.259999995608574" lon="9.812261108584288" id="-51171">
		<tag k="bridge" v="yes" />
		<tag k="layer" v="1" />
		<tag k="name" v="Fyllingsbru" />
		<tag k="ssr:stedsnr" v="716782" />
	</node>
	<node lat="59.234344441357905" lon="9.847702778753156" id="-51172">
		<tag k="name" v="Dåpan" />
		<tag k="place" v="farm" />
		<tag k="ssr:stedsnr" v="729662" />
	</node>
	<node lat="59.370377775759984" lon="9.705283326648495" id="-51173">
		<tag k="name" v="Breidangsmyrane" />
		<tag k="natural" v="wetland" />
		<tag k="ssr:stedsnr" v="730247" />
	</node>
	<node lat="59.32615555617746" lon="9.666427769768498" id="-51174">
		<tag k="name" v="Vanebuelva" />
		<tag k="ssr:stedsnr" v="730331" />
		<tag k="waterway" v="river" />
	</node>
	<node lat="59.34243055352611" lon="9.622374991558074" id="-51176">
		<tag k="name" v="Bukkemyr" />
		<tag k="natural" v="wetland" />
		<tag k="ssr:stedsnr" v="730353" />
	</node>
	<node lat="59.33677499610898" lon="9.634641660923077" id="-51177">
		<tag k="loc_name" v="Likollen" />
		<tag k="name" v="Lykollen" />
		<tag k="natural" v="hill" />
		<tag k="place" v="locality" />
		<tag k="ssr:stedsnr" v="730356" />
	</node>
	<node lat="59.31491389157403" lon="9.640752774514507" id="-51178">
		<tag k="name" v="Skogstad" />
		<tag k="place" v="farm" />
		<tag k="ssr:stedsnr" v="730443" />
	</node>
	<node lat="59.3728471767576" lon="9.692751071767743" id="-51179">
		<tag k="name" v="Hakhaug" />
		<tag k="place" v="farm" />
		<tag k="ssr:stedsnr" v="730280" />
	</node>
	<node lat="59.27563611183008" lon="9.663630563109667" id="-51181">
		<tag k="fixme" v="consider natural=peak for the most distinct mountains in the district" />
		<tag k="name" v="Ristingkollen" />
		<tag k="natural" v="hill" />
		<tag k="place" v="locality" />
		<tag k="ssr:stedsnr" v="730495" />
	</node>
	<node lat="59.19981388971092" lon="9.839977775893473" id="-51183">
		<tag k="fixme" v="consider natural=peak for the most distinct mountains in the district" />
		<tag k="name" v="Nordkollen" />
		<tag k="natural" v="hill" />
		<tag k="place" v="locality" />
		<tag k="ssr:stedsnr" v="730735" />
	</node>
	<node lat="59.395313891076846" lon="9.770952777103686" id="-51184">
		<tag k="loc_name" v="Bånntjern" />
		<tag k="name" v="Bånntjørn" />
		<tag k="natural" v="water" />
		<tag k="ssr:stedsnr" v="731233" />
	</node>
	<node lat="59.394649997824715" lon="9.666555559971073" id="-51185">
		<tag k="loc_name" v="Lysetjern" />
		<tag k="name" v="Lystjørn" />
		<tag k="natural" v="water" />
		<tag k="ssr:stedsnr" v="731251" />
	</node>
	<node lat="59.28044999990648" lon="9.754299997129214" id="-51187">
		<tag k="fixme" v="consider natural=peak for the most distinct mountains in the district" />
		<tag k="name" v="Ramsås" />
		<tag k="natural" v="hill" />
		<tag k="place" v="locality" />
		<tag k="ssr:stedsnr" v="737653" />
	</node>
	<node lat="59.30552222284" lon="9.64519444422286" id="-51189">
		<tag k="name" v="Svenskerønningen" />
		<tag k="place" v="farm" />
		<tag k="ssr:stedsnr" v="777274" />
	</node>
	<node lat="59.22222777730148" lon="9.785299993786015" id="-51190">
		<tag k="fixme" v="consider natural=peak for the most distinct mountains in the district" />
		<tag k="name" v="Brånan" />
		<tag k="natural" v="hill" />
		<tag k="place" v="locality" />
		<tag k="ssr:stedsnr" v="776226" />
	</node>
	<node lat="59.22044444852404" lon="9.790602770510771" id="-51191">
		<tag k="fixme" v="consider natural=peak for the most distinct mountains in the district" />
		<tag k="name" v="Venås" />
		<tag k="natural" v="hill" />
		<tag k="place" v="locality" />
		<tag k="ssr:stedsnr" v="776188" />
	</node>
	<node lat="59.21825278071447" lon="9.77805555803925" id="-51192">
		<tag k="fixme" v="consider natural=peak for the most distinct mountains in the district" />
		<tag k="name" v="Bjønnåsen" />
		<tag k="natural" v="hill" />
		<tag k="place" v="locality" />
		<tag k="ssr:stedsnr" v="776189" />
	</node>
	<node lat="59.20918055519116" lon="9.783313885133087" id="-51193">
		<tag k="name" v="Kjellshol" />
		<tag k="natural" v="valley" />
		<tag k="place" v="locality" />
		<tag k="ssr:stedsnr" v="776229" />
	</node>
	<node lat="59.21067777944861" lon="9.852947215189635" id="-51194">
		<tag k="name" v="Odden" />
		<tag k="natural" v="cape" />
		<tag k="ssr:stedsnr" v="776281" />
	</node>
	<node lat="59.32200555139894" lon="9.672633332327726" id="-51195">
		<tag k="name" v="Hogstadliene" />
		<tag k="natural" v="slope" />
		<tag k="place" v="locality" />
		<tag k="ssr:stedsnr" v="776395" />
	</node>
	<node lat="59.25246944244001" lon="9.69556666300243" id="-51196">
		<tag k="name" v="Meitjønnbekken" />
		<tag k="ssr:stedsnr" v="776713" />
		<tag k="waterway" v="stream" />
	</node>
	<node lat="59.25501389007197" lon="9.775249993838326" id="-51198">
		<tag k="name" v="Gravningen" />
		<tag k="place" v="locality" />
		<tag k="ssr:stedsnr" v="776830" />
	</node>
	<node lat="59.243644444276086" lon="9.847886105736833" id="-51199">
		<tag k="fixme" v="consider natural=peak for the most distinct mountains in the district" />
		<tag k="name" v="Grasdalsås" />
		<tag k="natural" v="hill" />
		<tag k="place" v="locality" />
		<tag k="ssr:stedsnr" v="776874" />
	</node>
	<node lat="59.27130833013145" lon="9.827463891941765" id="-51200">
		<tag k="name" v="Uremyr" />
		<tag k="natural" v="wetland" />
		<tag k="ssr:stedsnr" v="777176" />
	</node>
	<node lat="59.22726666505752" lon="9.776861109477833" id="-51201">
		<tag k="name" v="Bjønneriset" />
		<tag k="place" v="locality" />
		<tag k="ssr:stedsnr" v="777089" />
	</node>
	<node lat="59.2917055595202" lon="9.64945556067566" id="-51202">
		<tag k="name" v="Jernskotdalen" />
		<tag k="natural" v="valley" />
		<tag k="place" v="locality" />
		<tag k="ssr:stedsnr" v="777284" />
	</node>
	<node lat="59.32716389159217" lon="9.641591673169653" id="-51203">
		<tag k="name" v="Teddalen" />
		<tag k="natural" v="valley" />
		<tag k="place" v="locality" />
		<tag k="ssr:stedsnr" v="777473" />
	</node>
	<node lat="59.25728888724928" lon="9.74417499760778" id="-51205">
		<tag k="name" v="Skavdal" />
		<tag k="natural" v="valley" />
		<tag k="place" v="locality" />
		<tag k="ssr:stedsnr" v="777690" />
	</node>
	<node lat="59.24880833684789" lon="9.832066659063374" id="-51206">
		<tag k="name" v="Arnes bånn" />
		<tag k="place" v="locality" />
		<tag k="ssr:stedsnr" v="777892" />
	</node>
	<node lat="59.41082500153" lon="9.683361104517495" id="-51207">
		<tag k="loc_name" v="Godvannsflagget" />
		<tag k="name" v="Godvassflaket" />
		<tag k="natural" v="hill" />
		<tag k="place" v="locality" />
		<tag k="ssr:stedsnr" v="791517" />
	</node>
	<node lat="59.23982915054306" lon="9.760111194450538" id="-51211">
		<tag k="alt_name" v="Blokktjørn" />
		<tag k="name" v="Blokktjønn" />
		<tag k="natural" v="water" />
		<tag k="ssr:stedsnr" v="791406" />
	</node>
	<node lat="59.262574999608645" lon="9.753622229579912" id="-51212">
		<tag k="name" v="Haugen" />
		<tag k="place" v="farm" />
		<tag k="ssr:stedsnr" v="791033" />
	</node>
	<node lat="59.25378611527587" lon="9.811225005081003" id="-51213">
		<tag k="alt_name" v="Bratsmyr" />
		<tag k="name" v="Brattsmyr" />
		<tag k="natural" v="wetland" />
		<tag k="ssr:stedsnr" v="791036" />
	</node>
	<node lat="59.296075002299744" lon="9.731822216435775" id="-51214">
		<tag k="fixme" v="consider natural=peak for the most distinct mountains in the district" />
		<tag k="name" v="Vieråsane" />
		<tag k="natural" v="hill" />
		<tag k="place" v="locality" />
		<tag k="ssr:stedsnr" v="791364" />
	</node>
	<node lat="59.29718610790613" lon="9.680749997316967" id="-51215">
		<tag k="name" v="Kløva" />
		<tag k="place" v="farm" />
		<tag k="ssr:stedsnr" v="791367" />
	</node>
	<node lat="59.21461111031364" lon="9.814750007733664" id="-51219">
		<tag k="name" v="Skottene" />
		<tag k="place" v="locality" />
		<tag k="ssr:stedsnr" v="837280" />
	</node>
	<node lat="59.21789444891488" lon="9.848511104507768" id="-51220">
		<tag k="name" v="Ormetjønn" />
		<tag k="natural" v="water" />
		<tag k="ssr:stedsnr" v="837292" />
	</node>
	<node lat="59.2160083301757" lon="9.806972228971299" id="-51221">
		<tag k="fixme" v="consider natural=peak for the most distinct mountains in the district" />
		<tag k="name" v="Langåsene" />
		<tag k="natural" v="hill" />
		<tag k="place" v="locality" />
		<tag k="ssr:stedsnr" v="837251" />
	</node>
	<node lat="59.25756944683942" lon="9.810047218077955" id="-51223">
		<tag k="name" v="Svimbetskarvene" />
		<tag k="natural" v="slope" />
		<tag k="place" v="locality" />
		<tag k="ssr:stedsnr" v="837775" />
	</node>
	<node lat="59.265877782253234" lon="9.737930555045068" id="-51227">
		<tag k="name" v="Skogheim" />
		<tag k="place" v="farm" />
		<tag k="ssr:stedsnr" v="838748" />
	</node>
	<node lat="59.25978902820023" lon="9.756598393494347" id="-51228">
		<tag k="name" v="Elverhøy" />
		<tag k="place" v="farm" />
		<tag k="ssr:stedsnr" v="838715" />
	</node>
	<node lat="59.26346944745442" lon="9.756866671883595" id="-51229">
		<tag k="fixme" v="consider natural=peak for the most distinct mountains in the district" />
		<tag k="name" v="Hagebrånan" />
		<tag k="natural" v="hill" />
		<tag k="place" v="locality" />
		<tag k="ssr:stedsnr" v="838722" />
	</node>
	<node lat="59.26204722027399" lon="9.826655555836881" id="-51230">
		<tag k="name" v="Lars myr" />
		<tag k="natural" v="wetland" />
		<tag k="ssr:stedsnr" v="838868" />
	</node>
	<node lat="59.25765555500825" lon="9.846280550756193" id="-51231">
		<tag k="name" v="Damdippel" />
		<tag k="natural" v="water" />
		<tag k="ssr:stedsnr" v="838871" />
	</node>
	<node lat="59.246344441917145" lon="9.818644441318645" id="-51233">
		<tag k="alt_name" v="Holtsdalen" />
		<tag k="name" v="Holtsdalen" />
		<tag k="place" v="farm" />
		<tag k="ssr:stedsnr" v="851639" />
	</node>
	<node lat="59.38878611082764" lon="9.672161117102263" id="-51234">
		<tag k="name" v="Brennøya" />
		<tag k="place" v="island" />
		<tag k="ssr:stedsnr" v="852296" />
	</node>
	<node lat="59.389902776170494" lon="9.740675002785053" id="-51235">
		<tag k="loc_name" v="Elgstjern" />
		<tag k="name" v="Elgetjørn" />
		<tag k="natural" v="water" />
		<tag k="ssr:stedsnr" v="852300" />
	</node>
	<node lat="59.40334999664814" lon="9.628647217500543" id="-51236">
		<tag k="name" v="Dammyr" />
		<tag k="natural" v="wetland" />
		<tag k="ssr:stedsnr" v="852301" />
	</node>
	<node lat="59.21891666786841" lon="9.86712778013264" id="-51237">
		<tag k="fixme" v="consider natural=peak for the most distinct mountains in the district" />
		<tag k="name" v="Middagskollen" />
		<tag k="natural" v="hill" />
		<tag k="place" v="locality" />
		<tag k="ssr:stedsnr" v="851729" />
	</node>
	<node lat="59.32122499659581" lon="9.665822218982983" id="-51238">
		<tag k="name" v="Hogstadgrenda" />
		<tag k="place" v="hamlet" />
		<tag k="ssr:stedsnr" v="852323" />
	</node>
	<node lat="59.319380557344545" lon="9.660374992573932" id="-51240">
		<tag k="alt_name" v="Nedre Hogstad" />
		<tag k="fixme" v="consider place=hamlet" />
		<tag k="name" v="Hogstad, nedre" />
		<tag k="place" v="farm" />
		<tag k="ssr:stedsnr" v="852325" />
	</node>
	<node lat="59.31550277921217" lon="9.761661115236269" id="-51241">
		<tag k="name" v="Torneberget" />
		<tag k="natural" v="hill" />
		<tag k="place" v="locality" />
		<tag k="ssr:stedsnr" v="852419" />
	</node>
	<node lat="59.29937499813977" lon="9.657755561527738" id="-51242">
		<tag k="fixme" v="consider natural=peak for the most distinct mountains in the district" />
		<tag k="name" v="Høghaug" />
		<tag k="natural" v="hill" />
		<tag k="place" v="locality" />
		<tag k="ssr:stedsnr" v="852390" />
	</node>
	<node lat="59.27392500271795" lon="9.710927780738565" id="-51245">
		<tag k="name" v="Bakkane" />
		<tag k="place" v="quarter" />
		<tag k="ssr:stedsnr" v="852456" />
	</node>
	<node lat="59.22844722300801" lon="9.744686112630454" id="-51246">
		<tag k="historic" v="boundary_stone" />
		<tag k="man_made" v="cairn" />
		<tag k="name" v="Galtestein" />
		<tag k="place" v="locality" />
		<tag k="ssr:stedsnr" v="939068" />
	</node>
	<node lat="59.27136666596291" lon="9.713152779429738" id="-51247">
		<tag k="name" v="Bakkaneriset" />
		<tag k="place" v="quarter" />
		<tag k="ssr:stedsnr" v="949563" />
	</node>
	<node lat="59.242338886889314" lon="9.730794448337328" id="-51248">
		<tag k="name" v="Mellomdal" />
		<tag k="natural" v="valley" />
		<tag k="place" v="locality" />
		<tag k="ssr:stedsnr" v="958117" />
	</node>
	<node lat="59.21455555173862" lon="9.777019438012559" id="-51249">
		<tag k="name" v="Auridalene" />
		<tag k="natural" v="valley" />
		<tag k="place" v="locality" />
		<tag k="ssr:stedsnr" v="958215" />
	</node>
	<node lat="59.21802222281276" lon="9.768519447630815" id="-51250">
		<tag k="fixme" v="consider natural=peak for the most distinct mountains in the district" />
		<tag k="name" v="Valldalsås" />
		<tag k="natural" v="hill" />
		<tag k="place" v="locality" />
		<tag k="ssr:stedsnr" v="958264" />
	</node>
	<node lat="59.312111191956205" lon="9.651231040297853" id="-51251">
		<tag k="name" v="Granheim" />
		<tag k="place" v="farm" />
		<tag k="ssr:stedsnr" v="958434" />
	</node>
	<node lat="59.20504166645834" lon="9.855769442460547" id="-51252">
		<tag k="name" v="Tyskebekk" />
		<tag k="ssr:stedsnr" v="958321" />
		<tag k="waterway" v="stream" />
	</node>
	<node lat="59.220055552074605" lon="9.862988889437318" id="-51253">
		<tag k="name" v="Tømmermarka" />
		<tag k="place" v="locality" />
		<tag k="ssr:stedsnr" v="958327" />
	</node>
	<node lat="59.22869721894296" lon="9.781094450563387" id="-51254">
		<tag k="name" v="Ormebekk" />
		<tag k="ssr:stedsnr" v="959077" />
		<tag k="waterway" v="stream" />
	</node>
	<node lat="59.2387111132223" lon="9.735422219348868" id="-51255">
		<tag k="historic" v="shieling" />
		<tag k="name" v="Rødseter" />
		<tag k="place" v="isolated_dwelling" />
		<tag k="ssr:stedsnr" v="959137" />
	</node>
	<node lat="59.26767499826754" lon="9.746769445409921" id="-51258">
		<tag k="name" v="Vestre Gurholt" />
		<tag k="place" v="farm" />
		<tag k="ssr:stedsnr" v="959685" />
	</node>
	<node lat="59.26843055859639" lon="9.748133333416655" id="-51259">
		<tag k="name" v="Østre Gurholt" />
		<tag k="place" v="farm" />
		<tag k="ssr:stedsnr" v="959681" />
	</node>
	<node lat="59.397605963414364" lon="9.705660295303419" id="-51260">
		<tag k="fixme" v="consider place=hamlet" />
		<tag k="name" v="Grorud" />
		<tag k="place" v="farm" />
		<tag k="ssr:stedsnr" v="980386" />
	</node>
	<node lat="59.354060412701315" lon="9.6700353800722" id="-51261">
		<tag k="fixme" v="consider place=hamlet" />
		<tag k="name" v="Vannebuseter" />
		<tag k="place" v="farm" />
		<tag k="ssr:stedsnr" v="980387" />
	</node>
	<node lat="59.319618403993026" lon="9.663249162009894" id="-51262">
		<tag k="name" v="Hogstad" />
		<tag k="place" v="hamlet" />
		<tag k="ssr:stedsnr" v="980389" />
	</node>
	<node lat="59.30910582050719" lon="9.666599422610712" id="-51263">
		<tag k="fixme" v="consider place=hamlet" />
		<tag k="name" v="Tveitan" />
		<tag k="place" v="farm" />
		<tag k="ssr:stedsnr" v="980390" />
	</node>
	<node lat="59.29533128324787" lon="9.643848287402726" id="-51264">
		<tag k="name" v="Brattås" />
		<tag k="place" v="locality" />
		<tag k="ssr:stedsnr" v="980392" />
	</node>
	<node lat="59.26835181340601" lon="9.736559769259735" id="-51265">
		<tag k="fixme" v="consider place=hamlet" />
		<tag k="name" v="Engelstad" />
		<tag k="place" v="farm" />
		<tag k="ssr:stedsnr" v="980395" />
	</node>
	<node lat="59.26691939216515" lon="9.787328586310625" id="-51266">
		<tag k="name" v="Surtedalen" />
		<tag k="place" v="locality" />
		<tag k="ssr:stedsnr" v="980396" />
	</node>
	<node lat="59.261020503293395" lon="9.796116285109221" id="-51267">
		<tag k="name" v="Viken" />
		<tag k="place" v="locality" />
		<tag k="ssr:stedsnr" v="980397" />
	</node>
	<node lat="59.25606517249034" lon="9.767602624819705" id="-51268">
		<tag k="fixme" v="consider place=hamlet" />
		<tag k="name" v="Nordre Gonsholt" />
		<tag k="place" v="farm" />
		<tag k="ssr:stedsnr" v="980398" />
	</node>
	<node lat="59.25417376030742" lon="9.76772162077389" id="-51269">
		<tag k="fixme" v="consider place=hamlet" />
		<tag k="name" v="Søndre Gonsholt" />
		<tag k="place" v="farm" />
		<tag k="ssr:stedsnr" v="980399" />
	</node>
	<node lat="59.25506240000773" lon="9.767987727508668" id="-51270">
		<tag k="name" v="Gonsholt" />
		<tag k="place" v="hamlet" />
		<tag k="ssr:stedsnr" v="980400" />
	</node>
	<node lat="59.256534765198914" lon="9.822287276348442" id="-51271">
		<tag k="name" v="Nordre Kiste" />
		<tag k="place" v="locality" />
		<tag k="ssr:stedsnr" v="980402" />
	</node>
	<node lat="59.24411732606848" lon="9.803642035640335" id="-51272">
		<tag k="fixme" v="consider place=hamlet" />
		<tag k="name" v="Søndre Kiste" />
		<tag k="place" v="farm" />
		<tag k="ssr:stedsnr" v="980403" />
	</node>
	<node lat="59.24604344864191" lon="9.803010669108751" id="-51273">
		<tag k="name" v="Kiste" />
		<tag k="place" v="hamlet" />
		<tag k="ssr:stedsnr" v="980404" />
	</node>
	<node lat="59.2270559975939" lon="9.852757205334724" id="-51274">
		<tag k="fixme" v="consider place=hamlet" />
		<tag k="name" v="Auen" />
		<tag k="place" v="farm" />
		<tag k="ssr:stedsnr" v="980405" />
	</node>
	<node lat="58.9440068916853" lon="9.637917728815127" id="-51319">
		<tag k="name" v="Tonerhavn" />
		<tag k="place" v="locality" />
		<tag k="ssr:stedsnr" v="1074516" />
	</node>
	<node lat="58.88086692413532" lon="9.405034013126404" id="-51321">
		<tag k="name" v="Kalstadkilen" />
		<tag k="natural" v="bay" />
		<tag k="ssr:stedsnr" v="1074475" />
	</node>
	<node lat="59.24229125345703" lon="9.808091958712504" id="-51323">
		<tag k="name" v="Trahaug" />
		<tag k="place" v="farm" />
		<tag k="ssr:stedsnr" v="1080854" />
	</node>
</osm>
