<?xml version="1.0" encoding="UTF-8"?>
<osm version="0.6" generator="osmapis">
	<node lat="59.39753611298133" lon="9.745486117621228" id="-24015">
		<tag k="loc_name" v="Breiangmyr" />
		<tag k="name" v="Breidangsmyra" />
		<tag k="natural" v="wetland" />
		<tag k="ssr:stedsnr" v="2306" />
	</node>
	<node lat="59.24395555912" lon="9.821152770901762" id="-24034">
		<tag k="name" v="Silkemyra" />
		<tag k="natural" v="wetland" />
		<tag k="ssr:stedsnr" v="230931" />
	</node>
	<node lat="59.31349722670556" lon="9.775008334028179" id="-24039">
		<tag k="name" v="Husmannsriset" />
		<tag k="place" v="locality" />
		<tag k="ssr:stedsnr" v="231350" />
	</node>
	<node lat="59.223652781924784" lon="9.78963888323914" id="-24046">
		<tag k="name" v="Skilbredrisa" />
		<tag k="place" v="locality" />
		<tag k="ssr:stedsnr" v="48215" />
	</node>
	<node lat="59.31821111363023" lon="9.600833330078979" id="-24048">
		<tag k="name" v="Mikkelskås" />
		<tag k="place" v="locality" />
		<tag k="ssr:stedsnr" v="48421" />
	</node>
	<node lat="59.341202773890956" lon="9.732402783489363" id="-24056">
		<tag k="loc_name" v="Grønlimyr" />
		<tag k="name" v="Grønlimyra" />
		<tag k="natural" v="wetland" />
		<tag k="ssr:stedsnr" v="63369" />
	</node>
	<node lat="59.2321361066903" lon="9.768561113518942" id="-24075">
		<tag k="name" v="Flatane" />
		<tag k="place" v="locality" />
		<tag k="ssr:stedsnr" v="110077" />
	</node>
	<node lat="59.24738055830402" lon="9.847966666558419" id="-24077">
		<tag k="name" v="Jøttane" />
		<tag k="place" v="locality" />
		<tag k="ssr:stedsnr" v="110922" />
	</node>
	<node lat="59.22890277493146" lon="9.803580549326158" id="-24081">
		<tag k="name" v="Store Høystakkmyr" />
		<tag k="natural" v="wetland" />
		<tag k="ssr:stedsnr" v="170004" />
	</node>
	<node lat="59.26883333304686" lon="9.827861105283448" id="-24084">
		<tag k="name" v="Store Kistemyr" />
		<tag k="natural" v="wetland" />
		<tag k="ssr:stedsnr" v="170861" />
	</node>
	<node lat="59.20870000386751" lon="9.835283340048228" id="-24093">
		<tag k="name" v="Hesteriset" />
		<tag k="place" v="locality" />
		<tag k="ssr:stedsnr" v="230305" />
	</node>
	<node lat="59.31064167108956" lon="9.734202780266637" id="-24110">
		<tag k="name" v="Bustemyrane" />
		<tag k="natural" v="wetland" />
		<tag k="ssr:stedsnr" v="245407" />
	</node>
	<node lat="59.24129999578747" lon="9.742916663348767" id="-24115">
		<tag k="name" v="Breimyr" />
		<tag k="natural" v="wetland" />
		<tag k="ssr:stedsnr" v="291102" />
	</node>
	<node lat="59.27346110930975" lon="9.796152778591823" id="-24179">
		<tag k="name" v="Skoletjønnmyrane" />
		<tag k="natural" v="wetland" />
		<tag k="ssr:stedsnr" v="487515" />
	</node>
	<node lat="59.28972499835139" lon="9.779061113023385" id="-24187">
		<tag k="alt_name" v="Høymyrene" />
		<tag k="name" v="Høymyrane" />
		<tag k="natural" v="wetland" />
		<tag k="ssr:stedsnr" v="487532" />
	</node>
	<node lat="59.30803055760001" lon="9.602027783513224" id="-24205">
		<tag k="name" v="Brantemyr" />
		<tag k="natural" v="wetland" />
		<tag k="ssr:stedsnr" v="473307" />
	</node>
	<node lat="59.21965000187115" lon="9.823213897046415" id="-24208">
		<tag k="name" v="Kattemyr" />
		<tag k="natural" v="wetland" />
		<tag k="ssr:stedsnr" v="473320" />
	</node>
	<node lat="59.34472499772405" lon="9.621480554147533" id="-24219">
		<tag k="name" v="Speilmyr" />
		<tag k="natural" v="wetland" />
		<tag k="ssr:stedsnr" v="488319" />
	</node>
	<node lat="59.24658055601576" lon="9.75070278380978" id="-24249">
		<tag k="name" v="Ura" />
		<tag k="natural" v="scree" />
		<tag k="ssr:stedsnr" v="594114" />
	</node>
	<node lat="59.31701944180775" lon="9.631869438687884" id="-24252">
		<tag k="name" v="Kåsemyrene" />
		<tag k="natural" v="wetland" />
		<tag k="ssr:stedsnr" v="594453" />
	</node>
	<node lat="59.40988055664122" lon="9.63180000837094" id="-24291">
		<tag k="loc_name" v="Ertskottmyr" />
		<tag k="name" v="Elgskotmyra" />
		<tag k="natural" v="wetland" />
		<tag k="ssr:stedsnr" v="670494" />
	</node>
	<node lat="59.32512499950317" lon="9.588572213766748" id="-24292">
		<tag k="name" v="Hesterønningane" />
		<tag k="place" v="locality" />
		<tag k="ssr:stedsnr" v="670744" />
	</node>
	<node lat="59.22262777666955" lon="9.814869441408709" id="-24297">
		<tag k="name" v="Dammyr" />
		<tag k="natural" v="wetland" />
		<tag k="ssr:stedsnr" v="898250" />
	</node>
	<node lat="59.223355555366425" lon="9.8451138842134" id="-24321">
		<tag k="name" v="Olas ris" />
		<tag k="place" v="locality" />
		<tag k="ssr:stedsnr" v="716327" />
	</node>
	<node lat="59.24187499851753" lon="9.822522218125732" id="-24322">
		<tag k="name" v="Tømmerriset" />
		<tag k="place" v="locality" />
		<tag k="ssr:stedsnr" v="898935" />
	</node>
	<node lat="59.30144166620029" lon="9.622100003422382" id="-24335">
		<tag k="name" v="Storemyr" />
		<tag k="natural" v="wetland" />
		<tag k="ssr:stedsnr" v="730403" />
	</node>
	<node lat="59.28222500019705" lon="9.650458333681703" id="-24339">
		<tag k="name" v="Dragtjørnmyra" />
		<tag k="natural" v="wetland" />
		<tag k="ssr:stedsnr" v="730525" />
	</node>
	<node lat="59.23135555193526" lon="9.79969444930554" id="-24343">
		<tag k="name" v="Tømmermyr" />
		<tag k="natural" v="wetland" />
		<tag k="ssr:stedsnr" v="776007" />
	</node>
	<node lat="59.39673055473507" lon="9.692658331703955" id="-24359">
		<tag k="loc_name" v="Breimyr" />
		<tag k="name" v="Breidmyr" />
		<tag k="natural" v="wetland" />
		<tag k="ssr:stedsnr" v="791297" />
	</node>
	<node lat="59.265372223795936" lon="9.683575005302675" id="-24371">
		<tag k="name" v="Setermyra" />
		<tag k="natural" v="wetland" />
		<tag k="ssr:stedsnr" v="913435" />
	</node>
	<node lat="59.23080833309898" lon="9.834638895116894" id="-24381">
		<tag k="name" v="Streksletta" />
		<tag k="place" v="locality" />
		<tag k="ssr:stedsnr" v="837987" />
	</node>
	<node lat="59.250019448834145" lon="9.842569436919398" id="-24388">
		<tag k="name" v="Kolvemyr" />
		<tag k="natural" v="wetland" />
		<tag k="ssr:stedsnr" v="838927" />
	</node>
	<node lat="59.36274166994911" lon="9.637925006211237" id="-24393">
		<tag k="loc_name" v="Rundemyr" />
		<tag k="name" v="Rundemyra" />
		<tag k="natural" v="wetland" />
		<tag k="ssr:stedsnr" v="852267" />
	</node>
	<node lat="59.27441111295845" lon="9.683363880690418" id="-24395">
		<tag k="name" v="Hoggmyr" />
		<tag k="natural" v="wetland" />
		<tag k="ssr:stedsnr" v="852464" />
	</node>
	<node lat="59.25523333533296" lon="9.816402773042723" id="-24406">
		<tag k="name" v="Langlimyr" />
		<tag k="natural" v="wetland" />
		<tag k="ssr:stedsnr" v="898768" />
	</node>
	<node lat="59.30656389243147" lon="9.7893861059737" id="-24411">
		<tag k="name" v="Langemyr" />
		<tag k="natural" v="wetland" />
		<tag k="ssr:stedsnr" v="912426" />
	</node>
	<node lat="59.304336112556406" lon="9.767663895589523" id="-24412">
		<tag k="alt_name" v="Skottmyrane" />
		<tag k="name" v="Skotmyrane" />
		<tag k="natural" v="wetland" />
		<tag k="ssr:stedsnr" v="912427" />
	</node>
	<node lat="59.36495000196398" lon="9.647588881747756" id="-24430">
		<tag k="loc_name" v="Kvidalsmyrene" />
		<tag k="name" v="Kvidalsmyrane" />
		<tag k="natural" v="wetland" />
		<tag k="ssr:stedsnr" v="2255" />
	</node>
	<node lat="59.23102221975408" lon="9.78080277492731" id="-24439">
		<tag k="name" v="Klokkersveene" />
		<tag k="place" v="locality" />
		<tag k="ssr:stedsnr" v="49100" />
	</node>
	<node lat="59.24935278111805" lon="9.773530547605755" id="-24447">
		<tag k="name" v="Gonsholthagan" />
		<tag k="place" v="locality" />
		<tag k="ssr:stedsnr" v="48766" />
	</node>
	<node lat="59.321936111413365" lon="9.587500004374892" id="-24475">
		<tag k="name" v="Løkene" />
		<tag k="natural" v="wetland" />
		<tag k="ssr:stedsnr" v="86758" />
	</node>
	<node lat="59.23777777424626" lon="9.763130561324056" id="-24482">
		<tag k="name" v="Løkeriset" />
		<tag k="place" v="locality" />
		<tag k="ssr:stedsnr" v="110129" />
	</node>
	<node lat="59.396386109191006" lon="9.76449721951137" id="-24493">
		<tag k="loc_name" v="Bånntjernmyrane" />
		<tag k="name" v="Bånntjørnmyrane" />
		<tag k="natural" v="wetland" />
		<tag k="ssr:stedsnr" v="124238" />
	</node>
	<node lat="59.20595278048487" lon="9.80659443914249" id="-24497">
		<tag k="name" v="Storemyr" />
		<tag k="natural" v="wetland" />
		<tag k="ssr:stedsnr" v="169263" />
	</node>
	<node lat="59.19740555472121" lon="9.843083331128584" id="-24501">
		<tag k="name" v="Søhøgdmyr" />
		<tag k="natural" v="wetland" />
		<tag k="ssr:stedsnr" v="169326" />
	</node>
	<node lat="59.23370832902251" lon="9.734199996374342" id="-24505">
		<tag k="name" v="Moltehekkene" />
		<tag k="natural" v="wetland" />
		<tag k="ssr:stedsnr" v="170152" />
	</node>
	<node lat="59.32283889078903" lon="9.62890555041832" id="-24537">
		<tag k="name" v="Gastesveene" />
		<tag k="place" v="locality" />
		<tag k="ssr:stedsnr" v="291467" />
	</node>
	<node lat="59.26055277870968" lon="9.693780554626406" id="-24540">
		<tag k="name" v="Kringlemyr" />
		<tag k="natural" v="wetland" />
		<tag k="ssr:stedsnr" v="291753" />
	</node>
	<node lat="59.20910833132907" lon="9.804777784919537" id="-24561">
		<tag k="name" v="Diplemyr" />
		<tag k="natural" v="wetland" />
		<tag k="ssr:stedsnr" v="351276" />
	</node>
	<node lat="59.257616664653355" lon="9.693727771342044" id="-24563">
		<tag k="name" v="Holmsetermyr" />
		<tag k="natural" v="wetland" />
		<tag k="ssr:stedsnr" v="351731" />
	</node>
	<node lat="59.31781944488152" lon="9.745224996050032" id="-24610">
		<tag k="name" v="Øktermyr" />
		<tag k="natural" v="wetland" />
		<tag k="ssr:stedsnr" v="413394" />
	</node>
	<node lat="59.253922222886494" lon="9.833055550165335" id="-24618">
		<tag k="name" v="Sølves ris" />
		<tag k="place" v="locality" />
		<tag k="ssr:stedsnr" v="413931" />
	</node>
	<node lat="59.22228055726333" lon="9.795088885998371" id="-24637">
		<tag k="name" v="Stallane" />
		<tag k="place" v="locality" />
		<tag k="ssr:stedsnr" v="533196" />
	</node>
	<node lat="59.22534166878254" lon="9.783533325642349" id="-24638">
		<tag k="name" v="Bjønneriset" />
		<tag k="place" v="locality" />
		<tag k="ssr:stedsnr" v="533197" />
	</node>
	<node lat="59.20876110870792" lon="9.828452781014642" id="-24648">
		<tag k="name" v="Bjønnemyr" />
		<tag k="natural" v="wetland" />
		<tag k="ssr:stedsnr" v="534280" />
	</node>
	<node lat="59.25822777403565" lon="9.703647217795611" id="-24656">
		<tag k="name" v="Fugleleikmyrane" />
		<tag k="natural" v="wetland" />
		<tag k="ssr:stedsnr" v="548042" />
	</node>
	<node lat="59.20523888740059" lon="9.824030560452275" id="-24676">
		<tag k="name" v="Høgåsløken" />
		<tag k="natural" v="wetland" />
		<tag k="ssr:stedsnr" v="594310" />
	</node>
	<node lat="59.220666667769294" lon="9.845655558830934" id="-24677">
		<tag k="name" v="Arves ris" />
		<tag k="place" v="locality" />
		<tag k="ssr:stedsnr" v="594313" />
	</node>
	<node lat="59.2569638871095" lon="9.717933328218887" id="-24702">
		<tag k="name" v="Langemyr" />
		<tag k="natural" v="wetland" />
		<tag k="ssr:stedsnr" v="609035" />
	</node>
	<node lat="59.258602773898886" lon="9.825569436232394" id="-24722">
		<tag k="name" v="Småmyrriset" />
		<tag k="natural" v="wetland" />
		<tag k="ssr:stedsnr" v="655825" />
	</node>
	<node lat="59.25648611556411" lon="9.698408329430192" id="-24752">
		<tag k="name" v="Speilmyr" />
		<tag k="natural" v="wetland" />
		<tag k="ssr:stedsnr" v="716752" />
	</node>
	<node lat="59.370377775759984" lon="9.705283326648495" id="-24760">
		<tag k="name" v="Breidangsmyrane" />
		<tag k="natural" v="wetland" />
		<tag k="ssr:stedsnr" v="730247" />
	</node>
	<node lat="59.34243055352611" lon="9.622374991558074" id="-24763">
		<tag k="name" v="Bukkemyr" />
		<tag k="natural" v="wetland" />
		<tag k="ssr:stedsnr" v="730353" />
	</node>
	<node lat="59.27130833013145" lon="9.827463891941765" id="-24786">
		<tag k="name" v="Uremyr" />
		<tag k="natural" v="wetland" />
		<tag k="ssr:stedsnr" v="777176" />
	</node>
	<node lat="59.22726666505752" lon="9.776861109477833" id="-24787">
		<tag k="name" v="Bjønneriset" />
		<tag k="place" v="locality" />
		<tag k="ssr:stedsnr" v="777089" />
	</node>
	<node lat="59.25378611527587" lon="9.811225005081003" id="-24799">
		<tag k="alt_name" v="Bratsmyr" />
		<tag k="name" v="Brattsmyr" />
		<tag k="natural" v="wetland" />
		<tag k="ssr:stedsnr" v="791036" />
	</node>
	<node lat="59.26204722027399" lon="9.826655555836881" id="-24816">
		<tag k="name" v="Lars myr" />
		<tag k="natural" v="wetland" />
		<tag k="ssr:stedsnr" v="838868" />
	</node>
	<node lat="59.40334999664814" lon="9.628647217500543" id="-24822">
		<tag k="name" v="Dammyr" />
		<tag k="natural" v="wetland" />
		<tag k="ssr:stedsnr" v="852301" />
	</node>
	<node lat="59.220055552074605" lon="9.862988889437318" id="-24839">
		<tag k="name" v="Tømmermarka" />
		<tag k="place" v="locality" />
		<tag k="ssr:stedsnr" v="958327" />
	</node>
	<node lat="59.26691939216515" lon="9.787328586310625" id="-24852">
		<tag k="name" v="Surtedalen" />
		<tag k="place" v="locality" />
		<tag k="ssr:stedsnr" v="980396" />
	</node>
	<node lat="59.261020503293395" lon="9.796116285109221" id="-24853">
		<tag k="name" v="Viken" />
		<tag k="place" v="locality" />
		<tag k="ssr:stedsnr" v="980397" />
	</node>
</osm>
