<?xml version="1.0" encoding="UTF-8"?>
<<<<<<< HEAD
<osm version="0.6" generator="osmapis">
	<node lat="59.32267222087869" lon="9.76064444082855" id="-24114">
		<tag k="name" v="Vindfjell sørøst" />
=======
<osm generator="osmapis" version="0.6">
	<node id="-430329" lat="59.2146111103" lon="9.81475000773">
		<tag k="name" v="Skottene" />
>>>>>>> e1d4bc35ff8a6074a6f2e91616a996b547c36f15
		<tag k="place" v="locality" />
		<tag k="ssr:stedsnr" v="452991" />
	</node>
<<<<<<< HEAD
	<node lat="59.24659721938148" lon="9.728883337492393" id="-24117">
		<tag k="name" v="Hvilabonn" />
		<tag k="place" v="locality" />
		<tag k="ssr:stedsnr" v="291089" />
	</node>
	<node lat="59.204291664791924" lon="9.841802772944705" id="-24225">
		<tag k="name" v="Kjerrjilen" />
		<tag k="place" v="locality" />
		<tag k="ssr:stedsnr" v="533337" />
	</node>
	<node lat="59.29943385983732" lon="9.729828480866512" id="-24236">
		<tag k="name" v="Langdalstua" />
		<tag k="place" v="locality" />
		<tag k="ssr:stedsnr" v="548409" />
	</node>
	<node lat="59.25386944748351" lon="9.857036113360563" id="-24331">
		<tag k="name" v="Bjørkekjøyta" />
		<tag k="place" v="locality" />
		<tag k="ssr:stedsnr" v="716907" />
	</node>
	<node lat="59.234133331964316" lon="9.841769449897049" id="-24334">
=======
	<node id="-429559" lat="59.2882777805" lon="9.71152499516">
		<tag k="amenity" v="place_of_worship" />
		<tag k="denomination" v="lutheran" />
		<tag k="name" v="Siljan" />
		<tag k="religion" v="christian" />
		<tag k="ssr:stedsnr" v="63507" />
	</node>
	<node id="-429809" lat="59.234133332" lon="9.8417694499">
>>>>>>> e1d4bc35ff8a6074a6f2e91616a996b547c36f15
		<tag k="name" v="Masovnen" />
		<tag k="place" v="locality" />
		<tag k="ssr:stedsnr" v="716983" />
	</node>
<<<<<<< HEAD
	<node lat="59.269744443573344" lon="9.83515000255635" id="-24351">
		<tag k="name" v="Fugleleiken" />
=======
	<node id="-430000" lat="59.2305527795" lon="9.74392499428">
		<tag k="name" v="Skarveskotta" />
>>>>>>> e1d4bc35ff8a6074a6f2e91616a996b547c36f15
		<tag k="place" v="locality" />
		<tag k="ssr:stedsnr" v="777167" />
	</node>
<<<<<<< HEAD
	<node lat="59.311147224309515" lon="9.770122230654456" id="-24400">
		<tag k="name" v="Vindfjellstua" />
=======
	<node id="-429582" lat="59.2465972194" lon="9.72888333749">
		<tag k="name" v="Hvilabonn" />
>>>>>>> e1d4bc35ff8a6074a6f2e91616a996b547c36f15
		<tag k="place" v="locality" />
		<tag k="ssr:stedsnr" v="898215" />
	</node>
<<<<<<< HEAD
	<node lat="59.28825888176339" lon="9.711474696664434" id="-24465">
		<tag k="amenity" v="place_of_worship" />
		<tag k="denomination" v="lutheran" />
		<tag k="name" v="Siljan kirke" />
		<tag k="religion" v="christian" />
		<tag k="ssr:stedsnr" v="63507" />
	</node>
	<node lat="59.23055277946824" lon="9.74392499427796" id="-24481">
		<tag k="name" v="Skarveskotta" />
=======
	<node id="-430284" lat="59.225683334" lon="9.80116111154">
		<tag k="name" v="Palludanbonn" />
		<tag k="place" v="locality" />
		<tag k="ssr:stedsnr" v="655276" />
	</node>
	<node id="-430313" lat="59.2488083368" lon="9.83206665906">
		<tag k="name" v="Arnes bånn" />
>>>>>>> e1d4bc35ff8a6074a6f2e91616a996b547c36f15
		<tag k="place" v="locality" />
		<tag k="ssr:stedsnr" v="110128" />
	</node>
<<<<<<< HEAD
	<node lat="59.25356255618848" lon="9.788904283475675" id="-24631">
=======
	<node id="-429607" lat="59.2535583366" lon="9.78892777138">
>>>>>>> e1d4bc35ff8a6074a6f2e91616a996b547c36f15
		<tag k="name" v="Børja" />
		<tag k="place" v="locality" />
		<tag k="ssr:stedsnr" v="445954" />
	</node>
<<<<<<< HEAD
	<node lat="59.22568333400684" lon="9.801161111543667" id="-24718">
		<tag k="name" v="Palludanbonn" />
=======
	<node id="-430309" lat="59.2697444436" lon="9.83515000256">
		<tag k="name" v="Fugleleiken" />
		<tag k="place" v="locality" />
		<tag k="ssr:stedsnr" v="777167" />
	</node>
	<node id="-430180" lat="59.2042916648" lon="9.84180277294">
		<tag k="name" v="Kjerrjilen" />
>>>>>>> e1d4bc35ff8a6074a6f2e91616a996b547c36f15
		<tag k="place" v="locality" />
		<tag k="ssr:stedsnr" v="655276" />
	</node>
<<<<<<< HEAD
	<node lat="59.24880833684789" lon="9.832066659063374" id="-24792">
		<tag k="name" v="Arnes bånn" />
=======
	<node id="-429763" lat="59.2538694475" lon="9.85703611336">
		<tag k="name" v="Bjørkekjøyta" />
>>>>>>> e1d4bc35ff8a6074a6f2e91616a996b547c36f15
		<tag k="place" v="locality" />
		<tag k="ssr:stedsnr" v="777892" />
	</node>
<<<<<<< HEAD
	<node lat="59.21461111031364" lon="9.814750007733664" id="-24805">
		<tag k="name" v="Skottene" />
=======
	<node id="-430210" lat="59.2994338598" lon="9.72982848087">
		<tag k="name" v="Langdalstua" />
>>>>>>> e1d4bc35ff8a6074a6f2e91616a996b547c36f15
		<tag k="place" v="locality" />
		<tag k="ssr:stedsnr" v="837280" />
	</node>
</osm>
