<?xml version="1.0" encoding="UTF-8"?>
<<<<<<< HEAD
<osm version="0.6" generator="osmapis">
	<node lat="59.30127500283917" lon="9.668233340716128" id="-24069">
		<tag k="bridge" v="yes" />
		<tag k="layer" v="1" />
		<tag k="name" v="Håberget bru" />
		<tag k="ssr:stedsnr" v="107336" />
	</node>
	<node lat="59.20125000436549" lon="9.833936116189335" id="-24095">
		<tag k="highway" v="path" />
		<tag k="name" v="Turistvegen" />
		<tag k="ssr:stedsnr" v="230315" />
	</node>
	<node lat="59.29194444438798" lon="9.794930551848053" id="-24227">
		<tag k="barrier" v="lift_gate" />
		<tag k="name" v="Sandåbommen" />
		<tag k="place" v="locality" />
		<tag k="ssr:stedsnr" v="534207" />
	</node>
	<node lat="59.23056111353028" lon="9.854127778928582" id="-24247">
=======
<osm generator="osmapis" version="0.6">
	<node id="-430143" lat="59.3214305558" lon="9.65726665876">
		<tag k="landuse" v="industrial" />
		<tag k="name" v="Hogstad" />
		<tag k="power" v="plant" />
		<tag k="ssr:stedsnr" v="412385" />
	</node>
	<node id="-429943" lat="59.3709805596" lon="9.69048888427">
>>>>>>> e1d4bc35ff8a6074a6f2e91616a996b547c36f15
		<tag k="bridge" v="yes" />
		<tag k="layer" v="1" />
		<tag k="name" v="Eidet" />
		<tag k="ssr:stedsnr" v="592403" />
	</node>
<<<<<<< HEAD
	<node lat="59.28754999639474" lon="9.70605556118215" id="-24268">
=======
	<node id="-429811" lat="59.3081777783" lon="9.66324444394">
>>>>>>> e1d4bc35ff8a6074a6f2e91616a996b547c36f15
		<tag k="bridge" v="yes" />
		<tag k="layer" v="1" />
		<tag k="name" v="Høgseth" />
		<tag k="ssr:stedsnr" v="653330" />
	</node>
<<<<<<< HEAD
	<node lat="59.31454722420182" lon="9.657244452824282" id="-24293">
=======
	<node id="-429810" lat="59.3145472242" lon="9.65724445282">
>>>>>>> e1d4bc35ff8a6074a6f2e91616a996b547c36f15
		<tag k="bridge" v="yes" />
		<tag k="layer" v="1" />
		<tag k="name" v="Sølland" />
		<tag k="ssr:stedsnr" v="896358" />
	</node>
<<<<<<< HEAD
	<node lat="59.30817777825375" lon="9.66324444393698" id="-24294">
=======
	<node id="-430064" lat="59.3199444432" lon="9.59076388309">
		<tag k="fixme" v="consider highway=path" />
		<tag k="highway" v="track" />
		<tag k="name" v="Søllandsetervegen" />
		<tag k="ssr:stedsnr" v="207728" />
	</node>
	<node id="-429735" lat="59.2919444444" lon="9.79493055185">
		<tag k="barrier" v="lift_gate" />
		<tag k="name" v="Sandåbommen" />
		<tag k="place" v="locality" />
		<tag k="ssr:stedsnr" v="534207" />
	</node>
	<node id="-430175" lat="59.258819443" lon="9.76087221604">
>>>>>>> e1d4bc35ff8a6074a6f2e91616a996b547c36f15
		<tag k="bridge" v="yes" />
		<tag k="layer" v="1" />
		<tag k="name" v="Tveitan" />
		<tag k="ssr:stedsnr" v="896360" />
	</node>
<<<<<<< HEAD
	<node lat="59.26427222433123" lon="9.752422223304462" id="-24341">
=======
	<node id="-430174" lat="59.2381611076" lon="9.79627499641">
>>>>>>> e1d4bc35ff8a6074a6f2e91616a996b547c36f15
		<tag k="bridge" v="yes" />
		<tag k="layer" v="1" />
		<tag k="name" v="Serkeland" />
		<tag k="ssr:stedsnr" v="775304" />
	</node>
<<<<<<< HEAD
	<node lat="59.22966667093396" lon="9.86697500483144" id="-24342">
		<tag k="bridge" v="yes" />
		<tag k="layer" v="1" />
		<tag k="name" v="Vestre Svartangen" />
		<tag k="ssr:stedsnr" v="775308" />
	</node>
	<node lat="59.2911249992523" lon="9.79583888906445" id="-24416">
=======
	<node id="-429908" lat="59.2287888854" lon="9.87318056169">
>>>>>>> e1d4bc35ff8a6074a6f2e91616a996b547c36f15
		<tag k="bridge" v="yes" />
		<tag k="layer" v="1" />
		<tag k="name" v="Sandå" />
		<tag k="ssr:stedsnr" v="957327" />
	</node>
<<<<<<< HEAD
	<node lat="59.28252500272277" lon="9.727413892973475" id="-24417">
=======
	<node id="-429907" lat="59.2825250027" lon="9.72741389297">
>>>>>>> e1d4bc35ff8a6074a6f2e91616a996b547c36f15
		<tag k="bridge" v="yes" />
		<tag k="layer" v="1" />
		<tag k="name" v="Siljanelva" />
		<tag k="ssr:stedsnr" v="957329" />
	</node>
<<<<<<< HEAD
	<node lat="59.228788885425466" lon="9.873180561686016" id="-24418">
=======
	<node id="-429906" lat="59.2911249993" lon="9.79583888906">
>>>>>>> e1d4bc35ff8a6074a6f2e91616a996b547c36f15
		<tag k="bridge" v="yes" />
		<tag k="layer" v="1" />
		<tag k="name" v="Østre Svartangen" />
		<tag k="ssr:stedsnr" v="957332" />
	</node>
<<<<<<< HEAD
	<node lat="59.37098055959287" lon="9.690488884265612" id="-24438">
=======
	<node id="-430280" lat="59.2875499964" lon="9.70605556118">
>>>>>>> e1d4bc35ff8a6074a6f2e91616a996b547c36f15
		<tag k="bridge" v="yes" />
		<tag k="layer" v="1" />
		<tag k="name" v="Øvre Hakkhaug" />
		<tag k="ssr:stedsnr" v="46363" />
	</node>
<<<<<<< HEAD
	<node lat="59.375736110077135" lon="9.694327773305753" id="-24476">
=======
	<node id="-429759" lat="59.2599999956" lon="9.81226110858">
>>>>>>> e1d4bc35ff8a6074a6f2e91616a996b547c36f15
		<tag k="bridge" v="yes" />
		<tag k="layer" v="1" />
		<tag k="name" v="Brudetjønn bru" />
		<tag k="ssr:stedsnr" v="107376" />
	</node>
	<node lat="59.31994444321834" lon="9.590763883091315" id="-24533">
		<tag k="fixme" v="consider highway=path" />
		<tag k="highway" v="track" />
		<tag k="name" v="Søllandsetervegen" />
		<tag k="ssr:stedsnr" v="207728" />
	</node>
<<<<<<< HEAD
	<node lat="59.35446944529574" lon="9.66894721639857" id="-24599">
=======
	<node id="-430136" lat="59.3544694453" lon="9.6689472164">
>>>>>>> e1d4bc35ff8a6074a6f2e91616a996b547c36f15
		<tag k="bridge" v="yes" />
		<tag k="layer" v="1" />
		<tag k="name" v="Toklev" />
		<tag k="ssr:stedsnr" v="410357" />
	</node>
<<<<<<< HEAD
	<node lat="59.321430555800625" lon="9.657266658756514" id="-24604">
		<tag k="landuse" v="industrial" />
		<tag k="name" v="Hogstad" />
		<tag k="power" v="plant" />
		<tag k="ssr:stedsnr" v="412385" />
	</node>
	<node lat="59.238161107599396" lon="9.796274996405456" id="-24634">
		<tag k="bridge" v="yes" />
		<tag k="layer" v="1" />
		<tag k="name" v="Finsrud" />
		<tag k="ssr:stedsnr" v="532317" />
	</node>
	<node lat="59.258819443041865" lon="9.760872216040255" id="-24635">
=======
	<node id="-429743" lat="59.2305611135" lon="9.85412777893">
		<tag k="bridge" v="yes" />
		<tag k="layer" v="1" />
		<tag k="name" v="Eidet" />
		<tag k="ssr:stedsnr" v="592403" />
	</node>
	<node id="-430382" lat="58.9440068917" lon="9.63791772882">
		<tag k="name" v="Tonerhavn" />
		<tag k="place" v="locality" />
		<tag k="ssr:stedsnr" v="1074516" />
	</node>
	<node id="-429866" lat="59.2296666709" lon="9.86697500483">
>>>>>>> e1d4bc35ff8a6074a6f2e91616a996b547c36f15
		<tag k="bridge" v="yes" />
		<tag k="layer" v="1" />
		<tag k="name" v="Gonsholt" />
		<tag k="ssr:stedsnr" v="532318" />
	</node>
<<<<<<< HEAD
	<node lat="59.316530559687955" lon="9.65934167500121" id="-24674">
=======
	<node id="-429865" lat="59.2642722243" lon="9.7524222233">
>>>>>>> e1d4bc35ff8a6074a6f2e91616a996b547c36f15
		<tag k="bridge" v="yes" />
		<tag k="layer" v="1" />
		<tag k="name" v="Hogstad" />
		<tag k="ssr:stedsnr" v="592351" />
	</node>
	<node lat="59.242822219748" lon="9.811861110269325" id="-24690">
		<tag k="landuse" v="industrial" />
		<tag k="name" v="Kiste kraftstasjon" />
		<tag k="power" v="plant" />
		<tag k="ssr:stedsnr" v="595036" />
	</node>
<<<<<<< HEAD
	<node lat="59.259999995608574" lon="9.812261108584288" id="-24758">
=======
	<node id="-429992" lat="59.3757361101" lon="9.69432777331">
>>>>>>> e1d4bc35ff8a6074a6f2e91616a996b547c36f15
		<tag k="bridge" v="yes" />
		<tag k="layer" v="1" />
		<tag k="name" v="Fyllingsbru" />
		<tag k="ssr:stedsnr" v="716782" />
	</node>
<<<<<<< HEAD
	<node lat="58.9440068916853" lon="9.637917728815127" id="-24861">
		<tag k="name" v="Tonerhavn" />
		<tag k="place" v="locality" />
		<tag k="ssr:stedsnr" v="1074516" />
=======
	<node id="-429991" lat="59.3012750028" lon="9.66823334072">
		<tag k="bridge" v="yes" />
		<tag k="layer" v="1" />
		<tag k="name" v="Håberget bru" />
		<tag k="ssr:stedsnr" v="107336" />
	</node>
	<node id="-429594" lat="59.2012500044" lon="9.83393611619">
		<tag k="highway" v="path" />
		<tag k="name" v="Turistvegen" />
		<tag k="ssr:stedsnr" v="230315" />
	</node>
	<node id="-430229" lat="59.3165305597" lon="9.659341675">
		<tag k="bridge" v="yes" />
		<tag k="layer" v="1" />
		<tag k="name" v="Hogstad" />
		<tag k="ssr:stedsnr" v="592351" />
	</node>
	<node id="-430254" lat="59.2428222197" lon="9.81186111027">
		<tag k="landuse" v="industrial" />
		<tag k="name" v="Kiste kraftstasjon" />
		<tag k="power" v="plant" />
		<tag k="ssr:stedsnr" v="595036" />
>>>>>>> e1d4bc35ff8a6074a6f2e91616a996b547c36f15
	</node>
</osm>
