<?xml version="1.0" encoding="UTF-8"?>
<osm version="0.6" generator="osmapis">
	<node lat="59.20236666759112" lon="9.866986119452001" id="-25797">
		<tag k="name" v="Trollkjerka" />
		<tag k="natural" v="hill" />
		<tag k="place" v="locality" />
		<tag k="ssr:stedsnr" v="1691" />
	</node>
	<node lat="59.30565277450214" lon="9.6920888832316" id="-25801">
		<tag k="alt_name" v="Kløvrødkollene" />
		<tag k="fixme" v="consider natural=peak for the most distinct mountains in the district" />
		<tag k="name" v="Kløverødkollane" />
		<tag k="natural" v="hill" />
		<tag k="place" v="locality" />
		<tag k="ssr:stedsnr" v="2426" />
	</node>
	<node lat="59.2224305512615" lon="9.773544441189557" id="-25804">
		<tag k="fixme" v="consider natural=peak for the most distinct mountains in the district" />
		<tag k="name" v="Langetjønnåsen" />
		<tag k="natural" v="hill" />
		<tag k="place" v="locality" />
		<tag k="ssr:stedsnr" v="230201" />
	</node>
	<node lat="59.2062777810721" lon="9.818261104642147" id="-25807">
		<tag k="name" v="Snødal" />
		<tag k="natural" v="valley" />
		<tag k="place" v="locality" />
		<tag k="ssr:stedsnr" v="230262" />
	</node>
	<node lat="59.330580553867925" lon="9.676375007509822" id="-25810">
		<tag k="name" v="Masovnlia" />
		<tag k="natural" v="slope" />
		<tag k="place" v="locality" />
		<tag k="ssr:stedsnr" v="230394" />
	</node>
	<node lat="59.28920833417732" lon="9.757224996576163" id="-25811">
		<tag k="fixme" v="consider natural=peak for the most distinct mountains in the district" />
		<tag k="name" v="Brånan" />
		<tag k="natural" v="hill" />
		<tag k="place" v="locality" />
		<tag k="ssr:stedsnr" v="230472" />
	</node>
	<node lat="59.2369111099559" lon="9.854224996542575" id="-25817">
		<tag k="name" v="Lindedalen" />
		<tag k="natural" v="valley" />
		<tag k="place" v="locality" />
		<tag k="ssr:stedsnr" v="230867" />
	</node>
	<node lat="59.26728055865822" lon="9.833111117707261" id="-25829">
		<tag k="name" v="Latedal" />
		<tag k="natural" v="valley" />
		<tag k="place" v="locality" />
		<tag k="ssr:stedsnr" v="231863" />
	</node>
	<node lat="59.322430554048516" lon="9.645519445988693" id="-25831">
		<tag k="name" v="Islandsliene" />
		<tag k="natural" v="slope" />
		<tag k="place" v="locality" />
		<tag k="ssr:stedsnr" v="48418" />
	</node>
	<node lat="59.24239444490925" lon="9.769625001808656" id="-25833">
		<tag k="fixme" v="consider natural=peak for the most distinct mountains in the district" />
		<tag k="name" v="Risåsen" />
		<tag k="natural" v="hill" />
		<tag k="place" v="locality" />
		<tag k="ssr:stedsnr" v="49106" />
	</node>
	<node lat="59.27161666334587" lon="9.677327777256163" id="-25834">
		<tag k="name" v="Gaupedal" />
		<tag k="natural" v="valley" />
		<tag k="place" v="locality" />
		<tag k="ssr:stedsnr" v="49606" />
	</node>
	<node lat="59.25661389107081" lon="9.825202770843799" id="-25835">
		<tag k="name" v="Nordre Modal" />
		<tag k="natural" v="valley" />
		<tag k="place" v="locality" />
		<tag k="ssr:stedsnr" v="49828" />
	</node>
	<node lat="59.29647777381089" lon="9.750052781963582" id="-25836">
		<tag k="fixme" v="consider natural=peak for the most distinct mountains in the district" />
		<tag k="name" v="Melakollen" />
		<tag k="natural" v="hill" />
		<tag k="place" v="locality" />
		<tag k="ssr:stedsnr" v="63403" />
	</node>
	<node lat="59.22593055239345" lon="9.747769441546927" id="-25844">
		<tag k="fixme" v="consider natural=peak for the most distinct mountains in the district" />
		<tag k="name" v="Galten" />
		<tag k="natural" v="hill" />
		<tag k="place" v="locality" />
		<tag k="ssr:stedsnr" v="244739" />
	</node>
	<node lat="59.35918888911217" lon="9.701566670499016" id="-25845">
		<tag k="fixme" v="consider natural=peak for the most distinct mountains in the district" />
		<tag k="name" v="Skum" />
		<tag k="natural" v="hill" />
		<tag k="place" v="locality" />
		<tag k="ssr:stedsnr" v="245241" />
	</node>
	<node lat="59.342252774459986" lon="9.771683330926841" id="-25850">
		<tag k="fixme" v="consider natural=peak for the most distinct mountains in the district" />
		<tag k="name" v="Stubbekollen" />
		<tag k="natural" v="hill" />
		<tag k="place" v="locality" />
		<tag k="ssr:stedsnr" v="245337" />
	</node>
	<node lat="59.20580000212497" lon="9.845580558248438" id="-25854">
		<tag k="fixme" v="consider natural=peak for the most distinct mountains in the district" />
		<tag k="name" v="Furuåsen" />
		<tag k="natural" v="hill" />
		<tag k="place" v="locality" />
		<tag k="ssr:stedsnr" v="109305" />
	</node>
	<node lat="59.30772222168503" lon="9.630183339999412" id="-25860">
		<tag k="name" v="Vierdalen" />
		<tag k="natural" v="valley" />
		<tag k="place" v="locality" />
		<tag k="ssr:stedsnr" v="110282" />
	</node>
	<node lat="59.30488611217417" lon="9.609430556075958" id="-25862">
		<tag k="fixme" v="consider natural=peak for the most distinct mountains in the district" />
		<tag k="name" v="Dansaren" />
		<tag k="natural" v="hill" />
		<tag k="place" v="locality" />
		<tag k="ssr:stedsnr" v="123466" />
	</node>
	<node lat="59.27482777577682" lon="9.740216661372356" id="-25864">
		<tag k="fixme" v="consider natural=peak for the most distinct mountains in the district" />
		<tag k="name" v="Gurholtåsen" />
		<tag k="natural" v="hill" />
		<tag k="place" v="locality" />
		<tag k="ssr:stedsnr" v="169594" />
	</node>
	<node lat="59.31000000113117" lon="9.63042499151727" id="-25873">
		<tag k="name" v="Rustadknatten" />
		<tag k="natural" v="hill" />
		<tag k="place" v="locality" />
		<tag k="ssr:stedsnr" v="184452" />
	</node>
	<node lat="59.28673333357792" lon="9.687425004783826" id="-25880">
		<tag k="fixme" v="consider natural=peak for the most distinct mountains in the district" />
		<tag k="name" v="Skilbreiåsane" />
		<tag k="natural" v="hill" />
		<tag k="place" v="locality" />
		<tag k="ssr:stedsnr" v="230532" />
	</node>
	<node lat="59.26259721812004" lon="9.801252780961812" id="-25884">
		<tag k="name" v="Vikshovet" />
		<tag k="natural" v="ridge" />
		<tag k="place" v="locality" />
		<tag k="ssr:stedsnr" v="230729" />
	</node>
	<node lat="59.233430555843995" lon="9.788900004292586" id="-25885">
		<tag k="name" v="Trangedal" />
		<tag k="natural" v="valley" />
		<tag k="place" v="locality" />
		<tag k="ssr:stedsnr" v="231094" />
	</node>
	<node lat="59.233608334867114" lon="9.82792777466622" id="-25886">
		<tag k="fixme" v="consider natural=peak for the most distinct mountains in the district" />
		<tag k="name" v="Søndre Strekås" />
		<tag k="natural" v="hill" />
		<tag k="place" v="locality" />
		<tag k="ssr:stedsnr" v="230986" />
	</node>
	<node lat="59.23751666301497" lon="9.778852775399445" id="-25887">
		<tag k="fixme" v="consider natural=peak for the most distinct mountains in the district" />
		<tag k="name" v="Rønningsåsen" />
		<tag k="natural" v="hill" />
		<tag k="place" v="locality" />
		<tag k="ssr:stedsnr" v="231105" />
	</node>
	<node lat="59.23426388988335" lon="9.782463894788037" id="-25888">
		<tag k="fixme" v="consider natural=peak for the most distinct mountains in the district" />
		<tag k="name" v="Hauane" />
		<tag k="natural" v="hill" />
		<tag k="place" v="locality" />
		<tag k="ssr:stedsnr" v="231111" />
	</node>
	<node lat="59.32957222019377" lon="9.597241668505863" id="-25889">
		<tag k="name" v="Askedalen" />
		<tag k="natural" v="valley" />
		<tag k="place" v="locality" />
		<tag k="ssr:stedsnr" v="231513" />
	</node>
	<node lat="59.31577221830696" lon="9.59308055579158" id="-25893">
		<tag k="name" v="Brantemyrdalen" />
		<tag k="natural" v="valley" />
		<tag k="place" v="locality" />
		<tag k="ssr:stedsnr" v="450743" />
	</node>
	<node lat="59.23932221864838" lon="9.795536109200308" id="-25900">
		<tag k="fixme" v="consider natural=peak for the most distinct mountains in the district" />
		<tag k="name" v="Fossåsen" />
		<tag k="natural" v="hill" />
		<tag k="place" v="locality" />
		<tag k="ssr:stedsnr" v="291033" />
	</node>
	<node lat="59.27405277846004" lon="9.782386115571171" id="-25902">
		<tag k="fixme" v="consider natural=peak for the most distinct mountains in the district" />
		<tag k="name" v="Tjuaråsen" />
		<tag k="natural" v="hill" />
		<tag k="place" v="locality" />
		<tag k="ssr:stedsnr" v="291202" />
	</node>
	<node lat="59.27619722168379" lon="9.785044438555328" id="-25903">
		<tag k="name" v="Seterdalen" />
		<tag k="natural" v="valley" />
		<tag k="place" v="locality" />
		<tag k="ssr:stedsnr" v="291204" />
	</node>
	<node lat="59.22836388481106" lon="9.809724996899444" id="-25915">
		<tag k="fixme" v="consider natural=peak for the most distinct mountains in the district" />
		<tag k="name" v="Kovedalsskarva" />
		<tag k="natural" v="hill" />
		<tag k="place" v="locality" />
		<tag k="ssr:stedsnr" v="473005" />
	</node>
	<node lat="59.22453333119275" lon="9.868183336102943" id="-25917">
		<tag k="name" v="Oredalen" />
		<tag k="natural" v="valley" />
		<tag k="place" v="locality" />
		<tag k="ssr:stedsnr" v="473347" />
	</node>
	<node lat="59.1994444449798" lon="9.857766659538168" id="-25918">
		<tag k="name" v="Dalane" />
		<tag k="natural" v="valley" />
		<tag k="place" v="locality" />
		<tag k="ssr:stedsnr" v="473352" />
	</node>
	<node lat="59.19961388497681" lon="9.823075002686021" id="-25919">
		<tag k="name" v="Slåttane" />
		<tag k="natural" v="valley" />
		<tag k="place" v="locality" />
		<tag k="ssr:stedsnr" v="473354" />
	</node>
	<node lat="59.26405278067358" lon="9.790166662718383" id="-25929">
		<tag k="fixme" v="consider natural=peak for the most distinct mountains in the district" />
		<tag k="name" v="Veståsen" />
		<tag k="natural" v="hill" />
		<tag k="place" v="locality" />
		<tag k="ssr:stedsnr" v="473811" />
	</node>
	<node lat="59.23885277911538" lon="9.848024991387348" id="-25930">
		<tag k="fixme" v="consider natural=peak for the most distinct mountains in the district" />
		<tag k="name" v="Høgås" />
		<tag k="natural" v="hill" />
		<tag k="place" v="locality" />
		<tag k="ssr:stedsnr" v="473886" />
	</node>
	<node lat="59.26074722548946" lon="9.846483335210209" id="-25931">
		<tag k="fixme" v="consider natural=peak for the most distinct mountains in the district" />
		<tag k="name" v="Bøvannsskarva" />
		<tag k="natural" v="hill" />
		<tag k="place" v="locality" />
		<tag k="ssr:stedsnr" v="473850" />
	</node>
	<node lat="59.232633331524404" lon="9.859308329621634" id="-25933">
		<tag k="fixme" v="consider natural=peak for the most distinct mountains in the district" />
		<tag k="name" v="Dåparønningsås" />
		<tag k="natural" v="hill" />
		<tag k="place" v="locality" />
		<tag k="ssr:stedsnr" v="473914" />
	</node>
	<node lat="59.243891668389836" lon="9.757088890359997" id="-25936">
		<tag k="fixme" v="consider natural=peak for the most distinct mountains in the district" />
		<tag k="name" v="Tangås" />
		<tag k="natural" v="hill" />
		<tag k="place" v="locality" />
		<tag k="ssr:stedsnr" v="351107" />
	</node>
	<node lat="59.290708332536525" lon="9.640713888825974" id="-25944">
		<tag k="name" v="Bjørnåsen" />
		<tag k="natural" v="hill" />
		<tag k="place" v="locality" />
		<tag k="ssr:stedsnr" v="352267" />
	</node>
	<node lat="59.25634444342866" lon="9.843388891445178" id="-25946">
		<tag k="fixme" v="consider natural=peak for the most distinct mountains in the district" />
		<tag k="name" v="Trappedalsskarva" />
		<tag k="natural" v="hill" />
		<tag k="place" v="locality" />
		<tag k="ssr:stedsnr" v="352829" />
	</node>
	<node lat="59.32555555966572" lon="9.61769167191942" id="-25947">
		<tag k="fixme" v="consider natural=peak for the most distinct mountains in the district" />
		<tag k="name" v="Urdefjell" />
		<tag k="natural" v="hill" />
		<tag k="place" v="locality" />
		<tag k="ssr:stedsnr" v="366345" />
	</node>
	<node lat="59.29730842436649" lon="9.614963854403111" id="-25948">
		<tag k="fixme" v="consider natural=peak for the most distinct mountains in the district" />
		<tag k="name" v="Frotjønnkollen" />
		<tag k="natural" v="hill" />
		<tag k="place" v="locality" />
		<tag k="ssr:stedsnr" v="366406" />
	</node>
	<node lat="59.30749167089851" lon="9.740038892851347" id="-25949">
		<tag k="name" v="Storeskarv" />
		<tag k="natural" v="hill" />
		<tag k="place" v="locality" />
		<tag k="ssr:stedsnr" v="366415" />
	</node>
	<node lat="59.290072218190026" lon="9.740630562500257" id="-25951">
		<tag k="name" v="Åstjønnkollen" />
		<tag k="natural" v="hill" />
		<tag k="place" v="locality" />
		<tag k="ssr:stedsnr" v="366498" />
	</node>
	<node lat="59.231627774191715" lon="9.811072228316638" id="-25954">
		<tag k="alt_name" v="Strandåsene" />
		<tag k="fixme" v="consider natural=peak for the most distinct mountains in the district" />
		<tag k="name" v="Strandåsane" />
		<tag k="natural" v="hill" />
		<tag k="place" v="locality" />
		<tag k="ssr:stedsnr" v="486667" />
	</node>
	<node lat="59.25441111493669" lon="9.69266110606841" id="-25955">
		<tag k="fixme" v="consider natural=peak for the most distinct mountains in the district" />
		<tag k="name" v="Fiskebekkåsen" />
		<tag k="natural" v="hill" />
		<tag k="place" v="locality" />
		<tag k="ssr:stedsnr" v="487029" />
	</node>
	<node lat="59.29608333468989" lon="9.65615277438284" id="-25956">
		<tag k="name" v="Rekedalen" />
		<tag k="natural" v="valley" />
		<tag k="place" v="locality" />
		<tag k="ssr:stedsnr" v="487425" />
	</node>
	<node lat="59.233552779463004" lon="9.800775000117994" id="-25958">
		<tag k="fixme" v="consider natural=peak for the most distinct mountains in the district" />
		<tag k="name" v="Tømmermyrskarva" />
		<tag k="natural" v="hill" />
		<tag k="place" v="locality" />
		<tag k="ssr:stedsnr" v="412011" />
	</node>
	<node lat="59.307136107315934" lon="9.710102783408965" id="-25959">
		<tag k="fixme" v="consider natural=peak for the most distinct mountains in the district" />
		<tag k="name" v="Grandalsåsen" />
		<tag k="natural" v="hill" />
		<tag k="place" v="locality" />
		<tag k="ssr:stedsnr" v="487437" />
	</node>
	<node lat="59.309433333338056" lon="9.601397224481133" id="-25965">
		<tag k="fixme" v="consider natural=peak for the most distinct mountains in the district" />
		<tag k="name" v="Seterkollane" />
		<tag k="natural" v="hill" />
		<tag k="place" v="locality" />
		<tag k="ssr:stedsnr" v="487463" />
	</node>
	<node lat="59.20229722340161" lon="9.828219445385189" id="-25966">
		<tag k="fixme" v="consider natural=peak for the most distinct mountains in the district" />
		<tag k="name" v="Høgåsene" />
		<tag k="natural" v="hill" />
		<tag k="place" v="locality" />
		<tag k="ssr:stedsnr" v="412298" />
	</node>
	<node lat="59.264722219515015" lon="9.816361107516926" id="-25967">
		<tag k="fixme" v="consider natural=peak for the most distinct mountains in the district" />
		<tag k="name" v="Den brente ås" />
		<tag k="natural" v="hill" />
		<tag k="place" v="locality" />
		<tag k="ssr:stedsnr" v="412705" />
	</node>
	<node lat="59.42315555568065" lon="9.625755553451913" id="-25970">
		<tag k="name" v="Viuledknatten" />
		<tag k="natural" v="hill" />
		<tag k="place" v="locality" />
		<tag k="ssr:stedsnr" v="487600" />
	</node>
	<node lat="59.23019166964441" lon="9.752149994975117" id="-25972">
		<tag k="name" v="Stordalen" />
		<tag k="natural" v="valley" />
		<tag k="place" v="locality" />
		<tag k="ssr:stedsnr" v="413150" />
	</node>
	<node lat="59.38117778172124" lon="9.777038882105442" id="-25974">
		<tag k="name" v="Kolsflaket" />
		<tag k="natural" v="hill" />
		<tag k="place" v="locality" />
		<tag k="ssr:stedsnr" v="488256" />
	</node>
	<node lat="59.39980278038992" lon="9.615461106559573" id="-25976">
		<tag k="name" v="Bøledalen" />
		<tag k="natural" v="valley" />
		<tag k="place" v="locality" />
		<tag k="ssr:stedsnr" v="488269" />
	</node>
	<node lat="59.22379999925021" lon="9.794330557223162" id="-25977">
		<tag k="name" v="Brånan" />
		<tag k="natural" v="hill" />
		<tag k="place" v="locality" />
		<tag k="ssr:stedsnr" v="426729" />
	</node>
	<node lat="59.38685000047488" lon="9.626775007236624" id="-25978">
		<tag k="loc_name" v="Sverjekollknattane" />
		<tag k="name" v="Svergekollknattane" />
		<tag k="natural" v="hill" />
		<tag k="place" v="locality" />
		<tag k="ssr:stedsnr" v="427311" />
	</node>
	<node lat="59.30677499805127" lon="9.680658336930106" id="-25979">
		<tag k="name" v="Sagdalen" />
		<tag k="natural" v="valley" />
		<tag k="place" v="locality" />
		<tag k="ssr:stedsnr" v="427422" />
	</node>
	<node lat="59.25702777507221" lon="9.836936116320524" id="-25983">
		<tag k="name" v="Maurtuedalen" />
		<tag k="natural" v="valley" />
		<tag k="place" v="locality" />
		<tag k="ssr:stedsnr" v="452203" />
	</node>
	<node lat="59.23828333237374" lon="9.79323610724997" id="-25987">
		<tag k="name" v="Finsrudtangene" />
		<tag k="place" v="locality" />
		<tag k="ssr:stedsnr" v="473111" />
	</node>
	<node lat="59.217050001050595" lon="9.835416664075517" id="-25990">
		<tag k="name" v="Spiredalen" />
		<tag k="natural" v="valley" />
		<tag k="place" v="locality" />
		<tag k="ssr:stedsnr" v="473311" />
	</node>
	<node lat="59.21340833454224" lon="9.834513887301734" id="-25991">
		<tag k="name" v="Kvernhusdalen" />
		<tag k="natural" v="valley" />
		<tag k="place" v="locality" />
		<tag k="ssr:stedsnr" v="473316" />
	</node>
	<node lat="59.20825555380924" lon="9.85029723087122" id="-25993">
		<tag k="fixme" v="consider natural=peak for the most distinct mountains in the district" />
		<tag k="name" v="Hovet" />
		<tag k="natural" v="hill" />
		<tag k="place" v="locality" />
		<tag k="ssr:stedsnr" v="473323" />
	</node>
	<node lat="59.27650555113869" lon="9.671319444944503" id="-25996">
		<tag k="name" v="Hoggmyrliene" />
		<tag k="natural" v="slope" />
		<tag k="place" v="locality" />
		<tag k="ssr:stedsnr" v="473561" />
	</node>
	<node lat="59.209311109209224" lon="9.794869437505358" id="-26001">
		<tag k="fixme" v="consider natural=peak for the most distinct mountains in the district" />
		<tag k="name" v="Svarteberget" />
		<tag k="natural" v="hill" />
		<tag k="place" v="locality" />
		<tag k="ssr:stedsnr" v="487736" />
	</node>
	<node lat="59.20294444107068" lon="9.844113882924335" id="-26008">
		<tag k="name" v="Masteliene" />
		<tag k="natural" v="slope" />
		<tag k="place" v="locality" />
		<tag k="ssr:stedsnr" v="533323" />
	</node>
	<node lat="59.23315833018159" lon="9.815097225623642" id="-26010">
		<tag k="fixme" v="consider natural=peak for the most distinct mountains in the district" />
		<tag k="name" v="Risås" />
		<tag k="natural" v="hill" />
		<tag k="place" v="locality" />
		<tag k="ssr:stedsnr" v="534003" />
	</node>
	<node lat="59.22470555149952" lon="9.83381665858686" id="-26012">
		<tag k="fixme" v="consider natural=peak for the most distinct mountains in the district" />
		<tag k="name" v="Moholtrisa" />
		<tag k="natural" v="hill" />
		<tag k="place" v="locality" />
		<tag k="ssr:stedsnr" v="534272" />
	</node>
	<node lat="59.329797224646924" lon="9.615172229749374" id="-26016">
		<tag k="name" v="Kringlevassdalen" />
		<tag k="natural" v="valley" />
		<tag k="place" v="locality" />
		<tag k="ssr:stedsnr" v="534473" />
	</node>
	<node lat="59.251391663141995" lon="9.86653055381181" id="-26017">
		<tag k="name" v="Kolledalen" />
		<tag k="natural" v="valley" />
		<tag k="place" v="locality" />
		<tag k="ssr:stedsnr" v="534906" />
	</node>
	<node lat="59.23240277646346" lon="9.741219452791224" id="-26018">
		<tag k="fixme" v="consider natural=peak for the most distinct mountains in the district" />
		<tag k="name" v="Lønnedalskollen" />
		<tag k="natural" v="hill" />
		<tag k="place" v="locality" />
		<tag k="ssr:stedsnr" v="547688" />
	</node>
	<node lat="59.282516663506605" lon="9.650655563233455" id="-26025">
		<tag k="alt_name" v="Middagskollene" />
		<tag k="fixme" v="consider natural=peak for the most distinct mountains in the district" />
		<tag k="name" v="Middagskollane" />
		<tag k="natural" v="hill" />
		<tag k="place" v="locality" />
		<tag k="ssr:stedsnr" v="548508" />
	</node>
	<node lat="59.32969166625906" lon="9.582305561860796" id="-26028">
		<tag k="name" v="De svarte render" />
		<tag k="natural" v="cliff" />
		<tag k="ssr:stedsnr" v="693780" />
	</node>
	<node lat="59.21604166457934" lon="9.861308338154231" id="-26029">
		<tag k="name" v="Solberget" />
		<tag k="natural" v="hill" />
		<tag k="place" v="locality" />
		<tag k="ssr:stedsnr" v="694041" />
	</node>
	<node lat="59.306100000981694" lon="9.701563884177101" id="-26043">
		<tag k="name" v="Buferdsdalen" />
		<tag k="natural" v="valley" />
		<tag k="place" v="locality" />
		<tag k="ssr:stedsnr" v="608440" />
	</node>
	<node lat="59.299450002074195" lon="9.714208335910449" id="-26045">
		<tag k="name" v="Askedalen" />
		<tag k="natural" v="valley" />
		<tag k="place" v="locality" />
		<tag k="ssr:stedsnr" v="608396" />
	</node>
	<node lat="59.32536110719223" lon="9.704725007449538" id="-26046">
		<tag k="name" v="Veneberget" />
		<tag k="natural" v="hill" />
		<tag k="place" v="locality" />
		<tag k="ssr:stedsnr" v="609311" />
	</node>
	<node lat="59.232741665569876" lon="9.816930547305757" id="-26053">
		<tag k="name" v="Stranddalen" />
		<tag k="natural" v="valley" />
		<tag k="place" v="locality" />
		<tag k="ssr:stedsnr" v="655031" />
	</node>
	<node lat="59.27915000284057" lon="9.794858331249744" id="-26054">
		<tag k="fixme" v="consider natural=peak for the most distinct mountains in the district" />
		<tag k="name" v="Frieråsen" />
		<tag k="natural" v="hill" />
		<tag k="place" v="locality" />
		<tag k="ssr:stedsnr" v="655205" />
	</node>
	<node lat="59.27543889271077" lon="9.824952771137845" id="-26055">
		<tag k="name" v="Movannsliene" />
		<tag k="natural" v="slope" />
		<tag k="place" v="locality" />
		<tag k="ssr:stedsnr" v="655200" />
	</node>
	<node lat="59.29971667116333" lon="9.637899992339172" id="-26058">
		<tag k="name" v="Avsølaliene" />
		<tag k="natural" v="slope" />
		<tag k="place" v="locality" />
		<tag k="ssr:stedsnr" v="655282" />
	</node>
	<node lat="59.22353888510526" lon="9.823408331272153" id="-26059">
		<tag k="fixme" v="consider natural=peak for the most distinct mountains in the district" />
		<tag k="name" v="Tjønnåsen" />
		<tag k="natural" v="hill" />
		<tag k="place" v="locality" />
		<tag k="ssr:stedsnr" v="655288" />
	</node>
	<node lat="59.26517221897161" lon="9.721924996175664" id="-26063">
		<tag k="name" v="Kalddalen" />
		<tag k="natural" v="valley" />
		<tag k="place" v="locality" />
		<tag k="ssr:stedsnr" v="655709" />
	</node>
	<node lat="59.22802222422736" lon="9.834097214056614" id="-26064">
		<tag k="name" v="Langedal" />
		<tag k="natural" v="valley" />
		<tag k="place" v="locality" />
		<tag k="ssr:stedsnr" v="655891" />
	</node>
	<node lat="59.30150555778097" lon="9.753691664837708" id="-26068">
		<tag k="name" v="Frimannsdal" />
		<tag k="natural" v="valley" />
		<tag k="place" v="locality" />
		<tag k="ssr:stedsnr" v="669408" />
	</node>
	<node lat="59.28037777536491" lon="9.649549996707893" id="-26071">
		<tag k="fixme" v="consider natural=peak for the most distinct mountains in the district" />
		<tag k="name" v="Signalkulen" />
		<tag k="natural" v="hill" />
		<tag k="place" v="locality" />
		<tag k="ssr:stedsnr" v="669492" />
	</node>
	<node lat="59.222327779264425" lon="9.8015861184833" id="-26080">
		<tag k="fixme" v="consider natural=peak for the most distinct mountains in the district" />
		<tag k="name" v="Trytetjønnskarvene" />
		<tag k="natural" v="hill" />
		<tag k="place" v="locality" />
		<tag k="ssr:stedsnr" v="898245" />
	</node>
	<node lat="59.23526389315666" lon="9.806861104943517" id="-26083">
		<tag k="name" v="Finsrudliene" />
		<tag k="natural" v="slope" />
		<tag k="place" v="locality" />
		<tag k="ssr:stedsnr" v="898002" />
	</node>
	<node lat="59.231702776603214" lon="9.78558333125144" id="-26084">
		<tag k="fixme" v="consider natural=peak for the most distinct mountains in the district" />
		<tag k="name" v="Hansås" />
		<tag k="natural" v="hill" />
		<tag k="place" v="locality" />
		<tag k="ssr:stedsnr" v="898091" />
	</node>
	<node lat="59.241244440737766" lon="9.770708341806804" id="-26085">
		<tag k="name" v="Kovedalen" />
		<tag k="natural" v="valley" />
		<tag k="place" v="locality" />
		<tag k="ssr:stedsnr" v="898093" />
	</node>
	<node lat="59.32880832940654" lon="9.634144449769636" id="-26090">
		<tag k="name" v="Gampekollen" />
		<tag k="natural" v="hill" />
		<tag k="place" v="locality" />
		<tag k="ssr:stedsnr" v="898445" />
	</node>
	<node lat="59.231125001735094" lon="9.840516661866063" id="-26100">
		<tag k="fixme" v="consider natural=peak for the most distinct mountains in the district" />
		<tag k="name" v="Olas ås" />
		<tag k="natural" v="hill" />
		<tag k="place" v="locality" />
		<tag k="ssr:stedsnr" v="898905" />
	</node>
	<node lat="59.21416388991358" lon="9.787377781915971" id="-26101">
		<tag k="fixme" v="consider natural=peak for the most distinct mountains in the district" />
		<tag k="name" v="Lisbetås" />
		<tag k="natural" v="hill" />
		<tag k="place" v="locality" />
		<tag k="ssr:stedsnr" v="716214" />
	</node>
	<node lat="59.21281944818916" lon="9.78652221456684" id="-26102">
		<tag k="name" v="Skottdalene" />
		<tag k="natural" v="valley" />
		<tag k="place" v="locality" />
		<tag k="ssr:stedsnr" v="716219" />
	</node>
	<node lat="59.30804166344833" lon="9.623166659669256" id="-26103">
		<tag k="name" v="Porten" />
		<tag k="natural" v="valley" />
		<tag k="place" v="locality" />
		<tag k="ssr:stedsnr" v="716305" />
	</node>
	<node lat="59.30385277669658" lon="9.615191670448759" id="-26104">
		<tag k="name" v="Frydensal" />
		<tag k="natural" v="slope" />
		<tag k="place" v="locality" />
		<tag k="ssr:stedsnr" v="716313" />
	</node>
	<node lat="59.32798333205724" lon="9.626808332484734" id="-26108">
		<tag k="name" v="Grasmyrkollen" />
		<tag k="natural" v="hill" />
		<tag k="place" v="locality" />
		<tag k="ssr:stedsnr" v="716477" />
	</node>
	<node lat="59.25437221987709" lon="9.826697217159847" id="-26113">
		<tag k="fixme" v="consider natural=peak for the most distinct mountains in the district" />
		<tag k="name" v="Holtsrisa" />
		<tag k="natural" v="hill" />
		<tag k="place" v="locality" />
		<tag k="ssr:stedsnr" v="716822" />
	</node>
	<node lat="59.266141662800486" lon="9.685799995656426" id="-26122">
		<tag k="fixme" v="consider natural=peak for the most distinct mountains in the district" />
		<tag k="name" v="Setermyråsen" />
		<tag k="natural" v="hill" />
		<tag k="place" v="locality" />
		<tag k="ssr:stedsnr" v="730477" />
	</node>
	<node lat="59.412025001190706" lon="9.777908334583568" id="-26124">
		<tag k="fixme" v="consider natural=peak for the most distinct mountains in the district" />
		<tag k="name" v="Rauberflaket" />
		<tag k="natural" v="hill" />
		<tag k="place" v="locality" />
		<tag k="ssr:stedsnr" v="730573" />
	</node>
	<node lat="59.198699998974725" lon="9.864855559178654" id="-26128">
		<tag k="fixme" v="consider natural=peak for the most distinct mountains in the district" />
		<tag k="name" v="Sprenaåsene" />
		<tag k="natural" v="hill" />
		<tag k="place" v="locality" />
		<tag k="ssr:stedsnr" v="776302" />
	</node>
	<node lat="59.2669722194421" lon="9.808216665769628" id="-26130">
		<tag k="name" v="Hagadalsskarva" />
		<tag k="natural" v="hill" />
		<tag k="place" v="locality" />
		<tag k="ssr:stedsnr" v="776758" />
	</node>
	<node lat="59.26889166346986" lon="9.809236115198235" id="-26131">
		<tag k="name" v="Hagadalen" />
		<tag k="natural" v="valley" />
		<tag k="place" v="locality" />
		<tag k="ssr:stedsnr" v="776760" />
	</node>
	<node lat="59.228941667737665" lon="9.843883330047966" id="-26132">
		<tag k="name" v="Haukelegda" />
		<tag k="natural" v="valley" />
		<tag k="place" v="locality" />
		<tag k="ssr:stedsnr" v="776911" />
	</node>
	<node lat="59.245966667522445" lon="9.82350277151203" id="-26133">
		<tag k="name" v="Klovbakken" />
		<tag k="natural" v="slope" />
		<tag k="place" v="locality" />
		<tag k="ssr:stedsnr" v="776923" />
	</node>
	<node lat="59.327038891008776" lon="9.596097214877087" id="-26136">
		<tag k="name" v="Huskås" />
		<tag k="natural" v="hill" />
		<tag k="place" v="locality" />
		<tag k="ssr:stedsnr" v="777468" />
	</node>
	<node lat="59.32391110980016" lon="9.640550002259697" id="-26139">
		<tag k="fixme" v="consider natural=peak for the most distinct mountains in the district" />
		<tag k="name" v="Skriua" />
		<tag k="natural" v="hill" />
		<tag k="place" v="locality" />
		<tag k="ssr:stedsnr" v="791324" />
	</node>
	<node lat="59.3464666693554" lon="9.608430555886427" id="-26140">
		<tag k="fixme" v="multiple name tags, choose one and add the other to alt_name; consider natural=peak for the most distinct mountains in the district" />
		<tag k="name" v="Såta;Repeknuten" />
		<tag k="natural" v="hill" />
		<tag k="place" v="locality" />
		<tag k="ssr:stedsnr" v="791349" />
	</node>
	<node lat="59.27094999672551" lon="9.664188883137935" id="-26144">
		<tag k="fixme" v="consider natural=peak for the most distinct mountains in the district" />
		<tag k="name" v="Kaståsen" />
		<tag k="natural" v="hill" />
		<tag k="place" v="locality" />
		<tag k="ssr:stedsnr" v="791435" />
	</node>
	<node lat="59.38118888977682" lon="9.72655832846087" id="-26148">
		<tag k="fixme" v="consider natural=peak for the most distinct mountains in the district" />
		<tag k="name" v="Ruggefjell" />
		<tag k="natural" v="hill" />
		<tag k="place" v="locality" />
		<tag k="ssr:stedsnr" v="912292" />
	</node>
	<node lat="59.35238610882908" lon="9.634652770963976" id="-26150">
		<tag k="loc_name" v="Tegskollen" />
		<tag k="name" v="Tekskollen" />
		<tag k="natural" v="hill" />
		<tag k="place" v="locality" />
		<tag k="ssr:stedsnr" v="912382" />
	</node>
	<node lat="59.225530557224786" lon="9.767836107308916" id="-26158">
		<tag k="fixme" v="consider natural=peak for the most distinct mountains in the district" />
		<tag k="name" v="Hansås" />
		<tag k="natural" v="hill" />
		<tag k="place" v="locality" />
		<tag k="ssr:stedsnr" v="837184" />
	</node>
	<node lat="59.32894722530868" lon="9.704691662458675" id="-26160">
		<tag k="name" v="Lusedalene" />
		<tag k="natural" v="valley" />
		<tag k="place" v="locality" />
		<tag k="ssr:stedsnr" v="837414" />
	</node>
	<node lat="59.24305833732207" lon="9.851266659997991" id="-26162">
		<tag k="name" v="Søndre Fjerdingsdal" />
		<tag k="natural" v="valley" />
		<tag k="place" v="locality" />
		<tag k="ssr:stedsnr" v="837883" />
	</node>
	<node lat="59.24264721823231" lon="9.83329721442282" id="-26163">
		<tag k="fixme" v="consider natural=peak for the most distinct mountains in the district" />
		<tag k="name" v="Prestegårdsåsene" />
		<tag k="natural" v="hill" />
		<tag k="place" v="locality" />
		<tag k="ssr:stedsnr" v="837886" />
	</node>
	<node lat="59.23148333163536" lon="9.819327778953022" id="-26164">
		<tag k="fixme" v="consider natural=peak for the most distinct mountains in the district" />
		<tag k="name" v="Langås" />
		<tag k="natural" v="hill" />
		<tag k="place" v="locality" />
		<tag k="ssr:stedsnr" v="838028" />
	</node>
	<node lat="59.22856389233787" lon="9.754247227837931" id="-26166">
		<tag k="name" v="Midtdalen" />
		<tag k="natural" v="valley" />
		<tag k="place" v="locality" />
		<tag k="ssr:stedsnr" v="838180" />
	</node>
	<node lat="59.22745277792835" lon="9.758113887564106" id="-26167">
		<tag k="name" v="Rolighetsdal" />
		<tag k="natural" v="valley" />
		<tag k="place" v="locality" />
		<tag k="ssr:stedsnr" v="838184" />
	</node>
	<node lat="59.234216664516126" lon="9.749074996915503" id="-26168">
		<tag k="fixme" v="consider natural=peak for the most distinct mountains in the district" />
		<tag k="name" v="Heidalsåsene" />
		<tag k="natural" v="hill" />
		<tag k="place" v="locality" />
		<tag k="ssr:stedsnr" v="838187" />
	</node>
	<node lat="59.23843611017972" lon="9.756330563629719" id="-26169">
		<tag k="name" v="Bråtaliene" />
		<tag k="natural" v="slope" />
		<tag k="place" v="locality" />
		<tag k="ssr:stedsnr" v="838191" />
	</node>
	<node lat="59.30572499792875" lon="9.62496666289489" id="-26178">
		<tag k="name" v="Hjemmekollane" />
		<tag k="natural" v="hill" />
		<tag k="place" v="locality" />
		<tag k="ssr:stedsnr" v="852406" />
	</node>
	<node lat="59.242077778803164" lon="9.756911111464726" id="-26182">
		<tag k="name" v="Tangane" />
		<tag k="place" v="locality" />
		<tag k="ssr:stedsnr" v="898105" />
	</node>
	<node lat="59.21624166825887" lon="9.763402777552411" id="-26183">
		<tag k="fixme" v="consider natural=peak for the most distinct mountains in the district" />
		<tag k="name" v="Skilskjølen" />
		<tag k="natural" v="hill" />
		<tag k="place" v="locality" />
		<tag k="ssr:stedsnr" v="898123" />
	</node>
	<node lat="59.26144167101723" lon="9.79295554820866" id="-26188">
		<tag k="name" v="Viksliene" />
		<tag k="natural" v="slope" />
		<tag k="place" v="locality" />
		<tag k="ssr:stedsnr" v="898761" />
	</node>
	<node lat="59.25636110991509" lon="9.839319451764974" id="-26191">
		<tag k="fixme" v="consider natural=peak for the most distinct mountains in the district" />
		<tag k="name" v="Maurtueskarva" />
		<tag k="natural" v="hill" />
		<tag k="place" v="locality" />
		<tag k="ssr:stedsnr" v="899927" />
	</node>
	<node lat="59.32489976048493" lon="9.755344834397501" id="-26198">
		<tag k="fixme" v="consider natural=peak for the most distinct mountains in the district" />
		<tag k="name" v="Vindfjell" />
		<tag k="natural" v="hill" />
		<tag k="place" v="locality" />
		<tag k="ssr:stedsnr" v="913303" />
	</node>
	<node lat="59.33730277851517" lon="9.713686117000202" id="-26199">
		<tag k="fixme" v="consider natural=peak for the most distinct mountains in the district" />
		<tag k="name" v="Gælnekollane" />
		<tag k="natural" v="hill" />
		<tag k="place" v="locality" />
		<tag k="ssr:stedsnr" v="913341" />
	</node>
	<node lat="59.26221944672267" lon="9.817972218038943" id="-26203">
		<tag k="fixme" v="consider natural=peak for the most distinct mountains in the district" />
		<tag k="name" v="Sneglehaugås" />
		<tag k="natural" v="hill" />
		<tag k="place" v="locality" />
		<tag k="ssr:stedsnr" v="958785" />
	</node>
	<node lat="59.248736109032386" lon="9.815086116759257" id="-26204">
		<tag k="name" v="Sikelia" />
		<tag k="natural" v="slope" />
		<tag k="place" v="locality" />
		<tag k="ssr:stedsnr" v="958793" />
	</node>
	<node lat="59.25859166488126" lon="9.816297225467352" id="-26205">
		<tag k="name" v="Stusslidalen" />
		<tag k="natural" v="valley" />
		<tag k="place" v="locality" />
		<tag k="ssr:stedsnr" v="958794" />
	</node>
	<node lat="59.297916668577614" lon="9.772950001194452" id="-26206">
		<tag k="fixme" v="consider natural=peak for the most distinct mountains in the district" />
		<tag k="name" v="Huskeråsene" />
		<tag k="natural" v="hill" />
		<tag k="place" v="locality" />
		<tag k="ssr:stedsnr" v="959196" />
	</node>
	<node lat="59.25701111190575" lon="9.841055547277602" id="-26207">
		<tag k="name" v="Trappedal" />
		<tag k="natural" v="valley" />
		<tag k="place" v="locality" />
		<tag k="ssr:stedsnr" v="959846" />
	</node>
	<node lat="59.24341944112132" lon="9.862805562021142" id="-26221">
		<tag k="name" v="Brenndalsskarva" />
		<tag k="natural" v="hill" />
		<tag k="place" v="locality" />
		<tag k="ssr:stedsnr" v="2661" />
	</node>
	<node lat="59.23950832947497" lon="9.731666660695454" id="-26225">
		<tag k="fixme" v="consider natural=peak for the most distinct mountains in the district" />
		<tag k="name" v="Barlindkollen" />
		<tag k="natural" v="hill" />
		<tag k="place" v="locality" />
		<tag k="ssr:stedsnr" v="49176" />
	</node>
	<node lat="59.219041668798" lon="9.808030561780201" id="-26227">
		<tag k="fixme" v="consider natural=peak for the most distinct mountains in the district" />
		<tag k="name" v="Svarvarstolen" />
		<tag k="natural" v="hill" />
		<tag k="place" v="locality" />
		<tag k="ssr:stedsnr" v="48231" />
	</node>
	<node lat="59.22422777738441" lon="9.756522224732707" id="-26235">
		<tag k="fixme" v="consider natural=peak for the most distinct mountains in the district" />
		<tag k="name" v="Bråtatjønnås" />
		<tag k="natural" v="hill" />
		<tag k="place" v="locality" />
		<tag k="ssr:stedsnr" v="49161" />
	</node>
	<node lat="59.22608055728188" lon="9.75946666404188" id="-26236">
		<tag k="name" v="Svedalen" />
		<tag k="natural" v="valley" />
		<tag k="place" v="locality" />
		<tag k="ssr:stedsnr" v="49167" />
	</node>
	<node lat="59.303388892635944" lon="9.63053333259734" id="-26237">
		<tag k="name" v="Slettekoll" />
		<tag k="natural" v="hill" />
		<tag k="place" v="locality" />
		<tag k="ssr:stedsnr" v="49327" />
	</node>
	<node lat="59.32409722559079" lon="9.602797229836051" id="-26238">
		<tag k="name" v="Hammerkleivås" />
		<tag k="natural" v="hill" />
		<tag k="place" v="locality" />
		<tag k="ssr:stedsnr" v="49503" />
	</node>
	<node lat="59.2595416657717" lon="9.714688895479524" id="-26250">
		<tag k="fixme" v="consider natural=peak for the most distinct mountains in the district" />
		<tag k="name" v="Tudalskulten" />
		<tag k="natural" v="hill" />
		<tag k="place" v="locality" />
		<tag k="ssr:stedsnr" v="63047" />
	</node>
	<node lat="59.318774995692785" lon="9.70012500701311" id="-26255">
		<tag k="alt_name" v="Småhovdene" />
		<tag k="fixme" v="consider natural=peak for the most distinct mountains in the district" />
		<tag k="name" v="Småhovdane" />
		<tag k="natural" v="hill" />
		<tag k="place" v="locality" />
		<tag k="ssr:stedsnr" v="63340" />
	</node>
	<node lat="59.218361115357524" lon="9.794233335914633" id="-26261">
		<tag k="fixme" v="consider natural=peak for the most distinct mountains in the district" />
		<tag k="name" v="Svensketjønnås" />
		<tag k="natural" v="hill" />
		<tag k="place" v="locality" />
		<tag k="ssr:stedsnr" v="109192" />
	</node>
	<node lat="59.23542222615064" lon="9.737566666729059" id="-26264">
		<tag k="fixme" v="consider natural=peak for the most distinct mountains in the district" />
		<tag k="name" v="Rognehaugane" />
		<tag k="natural" v="hill" />
		<tag k="place" v="locality" />
		<tag k="ssr:stedsnr" v="110126" />
	</node>
	<node lat="59.21891388467648" lon="9.794444444760966" id="-26268">
		<tag k="name" v="Trytetjønnleiken" />
		<tag k="natural" v="hill" />
		<tag k="place" v="locality" />
		<tag k="ssr:stedsnr" v="122720" />
	</node>
	<node lat="59.2729638860475" lon="9.753763886172587" id="-26274">
		<tag k="fixme" v="consider natural=peak for the most distinct mountains in the district" />
		<tag k="name" v="Gurholtskarva" />
		<tag k="natural" v="hill" />
		<tag k="place" v="locality" />
		<tag k="ssr:stedsnr" v="123496" />
	</node>
	<node lat="59.39088055907139" lon="9.764125004428463" id="-26278">
		<tag k="loc_name" v="Bånntjernhøgdene" />
		<tag k="name" v="Bånntjørnhøgdene" />
		<tag k="natural" v="hill" />
		<tag k="place" v="locality" />
		<tag k="ssr:stedsnr" v="124242" />
	</node>
	<node lat="59.23296666836889" lon="9.751161105565556" id="-26288">
		<tag k="name" v="Heidalen" />
		<tag k="natural" v="valley" />
		<tag k="place" v="locality" />
		<tag k="ssr:stedsnr" v="170150" />
	</node>
	<node lat="59.28697222370157" lon="9.799100001848947" id="-26290">
		<tag k="fixme" v="consider natural=peak for the most distinct mountains in the district" />
		<tag k="name" v="Seteråsen" />
		<tag k="natural" v="hill" />
		<tag k="place" v="locality" />
		<tag k="ssr:stedsnr" v="170230" />
	</node>
	<node lat="59.25195277723841" lon="9.747413886393355" id="-26295">
		<tag k="fixme" v="consider natural=peak for the most distinct mountains in the district" />
		<tag k="name" v="Rødsåsene" />
		<tag k="natural" v="hill" />
		<tag k="place" v="locality" />
		<tag k="ssr:stedsnr" v="170800" />
	</node>
	<node lat="59.25150555298761" lon="9.821111110209882" id="-26296">
		<tag k="name" v="Djupedal" />
		<tag k="natural" v="valley" />
		<tag k="place" v="locality" />
		<tag k="ssr:stedsnr" v="170854" />
	</node>
	<node lat="59.249255557741776" lon="9.85986945013227" id="-26297">
		<tag k="name" v="Svartefjell" />
		<tag k="natural" v="hill" />
		<tag k="place" v="locality" />
		<tag k="ssr:stedsnr" v="170925" />
	</node>
	<node lat="59.25856111342653" lon="9.800430550082657" id="-26302">
		<tag k="fixme" v="consider natural=peak for the most distinct mountains in the district" />
		<tag k="name" v="Kistekollen" />
		<tag k="natural" v="hill" />
		<tag k="place" v="locality" />
		<tag k="ssr:stedsnr" v="184025" />
	</node>
	<node lat="59.404113885409124" lon="9.692211107985747" id="-26303">
		<tag k="fixme" v="consider natural=peak for the most distinct mountains in the district" />
		<tag k="name" v="Grønmyråsen" />
		<tag k="natural" v="hill" />
		<tag k="place" v="locality" />
		<tag k="ssr:stedsnr" v="184294" />
	</node>
	<node lat="59.33257777528818" lon="9.6750777724671" id="-26310">
		<tag k="name" v="Ådalen" />
		<tag k="natural" v="valley" />
		<tag k="place" v="locality" />
		<tag k="ssr:stedsnr" v="184327" />
	</node>
	<node lat="59.39633889340799" lon="9.729899997953755" id="-26314">
		<tag k="fixme" v="consider natural=peak for the most distinct mountains in the district" />
		<tag k="name" v="Breidangsåsane" />
		<tag k="natural" v="hill" />
		<tag k="place" v="locality" />
		<tag k="ssr:stedsnr" v="185270" />
	</node>
	<node lat="59.32120277357499" lon="9.592863889166901" id="-26318">
		<tag k="name" v="Buaråsen" />
		<tag k="natural" v="hill" />
		<tag k="place" v="locality" />
		<tag k="ssr:stedsnr" v="207750" />
	</node>
	<node lat="59.21357222416793" lon="9.800000005026025" id="-26319">
		<tag k="fixme" v="consider natural=peak for the most distinct mountains in the district" />
		<tag k="name" v="Seterhaugene" />
		<tag k="natural" v="hill" />
		<tag k="place" v="locality" />
		<tag k="ssr:stedsnr" v="291300" />
	</node>
	<node lat="59.297430551147826" lon="9.622333329331807" id="-26320">
		<tag k="name" v="Hjertaskollene" />
		<tag k="natural" v="hill" />
		<tag k="place" v="locality" />
		<tag k="ssr:stedsnr" v="291315" />
	</node>
	<node lat="59.30773610842559" lon="9.605444448373444" id="-26327">
		<tag k="name" v="Søndre Seterkollene" />
		<tag k="natural" v="hill" />
		<tag k="place" v="locality" />
		<tag k="ssr:stedsnr" v="292270" />
	</node>
	<node lat="59.25566666885797" lon="9.850591672332646" id="-26328">
		<tag k="name" v="Dippeløya" />
		<tag k="natural" v="hill" />
		<tag k="place" v="locality" />
		<tag k="ssr:stedsnr" v="292842" />
	</node>
	<node lat="59.27263610841583" lon="9.693861118370062" id="-26330">
		<tag k="fixme" v="consider natural=peak for the most distinct mountains in the district" />
		<tag k="name" v="Galtetjønnåsen" />
		<tag k="natural" v="hill" />
		<tag k="place" v="locality" />
		<tag k="ssr:stedsnr" v="305490" />
	</node>
	<node lat="59.297686111660546" lon="9.709308335722717" id="-26332">
		<tag k="name" v="Grandalen" />
		<tag k="natural" v="valley" />
		<tag k="place" v="locality" />
		<tag k="ssr:stedsnr" v="305403" />
	</node>
	<node lat="59.283811114160585" lon="9.636886104514367" id="-26335">
		<tag k="name" v="Galnekollen" />
		<tag k="natural" v="hill" />
		<tag k="place" v="locality" />
		<tag k="ssr:stedsnr" v="305535" />
	</node>
	<node lat="59.36693055394326" lon="9.734294450993328" id="-26337">
		<tag k="fixme" v="consider natural=peak for the most distinct mountains in the district" />
		<tag k="loc_name" v="Flotkollene" />
		<tag k="name" v="Flotkollane" />
		<tag k="natural" v="hill" />
		<tag k="place" v="locality" />
		<tag k="ssr:stedsnr" v="305256" />
	</node>
	<node lat="59.32531666719671" lon="9.669369441633087" id="-26346">
		<tag k="name" v="Falkedalen" />
		<tag k="natural" v="valley" />
		<tag k="place" v="locality" />
		<tag k="ssr:stedsnr" v="351408" />
	</node>
	<node lat="59.24226667016069" lon="9.828838890996924" id="-26354">
		<tag k="name" v="Asbjørnsdal" />
		<tag k="natural" v="valley" />
		<tag k="place" v="locality" />
		<tag k="ssr:stedsnr" v="351927" />
	</node>
	<node lat="59.24195555913793" lon="9.835505550240718" id="-26355">
		<tag k="name" v="Gampedalen" />
		<tag k="natural" v="valley" />
		<tag k="place" v="locality" />
		<tag k="ssr:stedsnr" v="351885" />
	</node>
	<node lat="59.23640277863317" lon="9.783738881804519" id="-26356">
		<tag k="name" v="Norslia" />
		<tag k="natural" v="slope" />
		<tag k="place" v="locality" />
		<tag k="ssr:stedsnr" v="352086" />
	</node>
	<node lat="59.25362777683888" lon="9.83448333342963" id="-26359">
		<tag k="name" v="Gjetrangdalen" />
		<tag k="natural" v="valley" />
		<tag k="place" v="locality" />
		<tag k="ssr:stedsnr" v="352913" />
	</node>
	<node lat="59.32614444320844" lon="9.726488884620142" id="-26362">
		<tag k="name" v="Kalvedalene" />
		<tag k="natural" v="valley" />
		<tag k="place" v="locality" />
		<tag k="ssr:stedsnr" v="352392" />
	</node>
	<node lat="59.19973333320399" lon="9.852247222440297" id="-26369">
		<tag k="name" v="Svanskollen" />
		<tag k="natural" v="hill" />
		<tag k="place" v="locality" />
		<tag k="ssr:stedsnr" v="365714" />
	</node>
	<node lat="59.34463055123576" lon="9.73614999571722" id="-26374">
		<tag k="name" v="Grankollen" />
		<tag k="natural" v="hill" />
		<tag k="place" v="locality" />
		<tag k="ssr:stedsnr" v="366354" />
	</node>
	<node lat="59.26980000270226" lon="9.800113883465803" id="-26376">
		<tag k="alt_name" v="Tampern" />
		<tag k="fixme" v="consider natural=peak for the most distinct mountains in the district" />
		<tag k="name" v="Tampernuten" />
		<tag k="natural" v="hill" />
		<tag k="place" v="locality" />
		<tag k="ssr:stedsnr" v="366456" />
	</node>
	<node lat="59.230161112029165" lon="9.813669436049471" id="-26384">
		<tag k="name" v="Kovedalen" />
		<tag k="natural" v="valley" />
		<tag k="place" v="locality" />
		<tag k="ssr:stedsnr" v="412035" />
	</node>
	<node lat="59.20626110804379" lon="9.834244452289207" id="-26386">
		<tag k="fixme" v="consider natural=peak for the most distinct mountains in the district" />
		<tag k="name" v="Brekkene" />
		<tag k="natural" v="hill" />
		<tag k="place" v="locality" />
		<tag k="ssr:stedsnr" v="412277" />
	</node>
	<node lat="59.25741944683182" lon="9.686808337488525" id="-26389">
		<tag k="fixme" v="consider natural=peak for the most distinct mountains in the district" />
		<tag k="name" v="Heivannsås" />
		<tag k="natural" v="hill" />
		<tag k="place" v="locality" />
		<tag k="ssr:stedsnr" v="412692" />
	</node>
	<node lat="59.26385278055863" lon="9.797447215552939" id="-26390">
		<tag k="fixme" v="consider natural=peak for the most distinct mountains in the district" />
		<tag k="name" v="Dritarås" />
		<tag k="natural" v="hill" />
		<tag k="place" v="locality" />
		<tag k="ssr:stedsnr" v="412714" />
	</node>
	<node lat="59.30765000080854" lon="9.618491665169952" id="-26392">
		<tag k="name" v="Nedre Kollene" />
		<tag k="natural" v="hill" />
		<tag k="place" v="locality" />
		<tag k="ssr:stedsnr" v="413298" />
	</node>
	<node lat="59.22774444602813" lon="9.858205557301112" id="-26395">
		<tag k="fixme" v="consider natural=peak for the most distinct mountains in the district" />
		<tag k="name" v="Auenskollen" />
		<tag k="natural" v="hill" />
		<tag k="place" v="locality" />
		<tag k="ssr:stedsnr" v="412879" />
	</node>
	<node lat="59.271472223778126" lon="9.772091662997445" id="-26396">
		<tag k="fixme" v="consider natural=peak for the most distinct mountains in the district" />
		<tag k="name" v="Langevelsåsen" />
		<tag k="natural" v="hill" />
		<tag k="place" v="locality" />
		<tag k="ssr:stedsnr" v="413216" />
	</node>
	<node lat="59.26142222359571" lon="9.824619436332704" id="-26399">
		<tag k="fixme" v="consider natural=peak for the most distinct mountains in the district" />
		<tag k="name" v="Seteråsene" />
		<tag k="natural" v="hill" />
		<tag k="place" v="locality" />
		<tag k="ssr:stedsnr" v="413849" />
	</node>
	<node lat="59.25508888475497" lon="9.855586116237234" id="-26400">
		<tag k="name" v="Hvarnesbakken" />
		<tag k="natural" v="slope" />
		<tag k="place" v="locality" />
		<tag k="ssr:stedsnr" v="413923" />
	</node>
	<node lat="59.2521444400478" lon="9.85170000197761" id="-26401">
		<tag k="name" v="Nordre Fjerdingsdal" />
		<tag k="natural" v="valley" />
		<tag k="place" v="locality" />
		<tag k="ssr:stedsnr" v="413927" />
	</node>
	<node lat="59.25111388986246" lon="9.81175833317097" id="-26408">
		<tag k="name" v="Brenna" />
		<tag k="natural" v="hill" />
		<tag k="place" v="locality" />
		<tag k="ssr:stedsnr" v="427042" />
	</node>
	<node lat="59.33462499677898" lon="9.581730553946056" id="-26414">
		<tag k="fixme" v="consider natural=peak for the most distinct mountains in the district" />
		<tag k="name" v="Skreidfjell" />
		<tag k="natural" v="hill" />
		<tag k="place" v="locality" />
		<tag k="ssr:stedsnr" v="427828" />
	</node>
	<node lat="59.31526111110361" lon="9.620230556333054" id="-26416">
		<tag k="name" v="Søllandliene" />
		<tag k="natural" v="valley" />
		<tag k="place" v="locality" />
		<tag k="ssr:stedsnr" v="513197" />
	</node>
	<node lat="59.21773610915425" lon="9.808713885465076" id="-26420">
		<tag k="name" v="Trytetjønndalen" />
		<tag k="natural" v="valley" />
		<tag k="place" v="locality" />
		<tag k="ssr:stedsnr" v="533254" />
	</node>
	<node lat="59.23474444637936" lon="9.79171944217977" id="-26427">
		<tag k="name" v="Liene" />
		<tag k="natural" v="slope" />
		<tag k="place" v="locality" />
		<tag k="ssr:stedsnr" v="534098" />
	</node>
	<node lat="59.280408329613174" lon="9.764122229290743" id="-26429">
		<tag k="fixme" v="consider natural=peak for the most distinct mountains in the district" />
		<tag k="name" v="Hvalpetjønnåsen" />
		<tag k="natural" v="hill" />
		<tag k="place" v="locality" />
		<tag k="ssr:stedsnr" v="534201" />
	</node>
	<node lat="59.21887222000551" lon="9.835158324747816" id="-26430">
		<tag k="name" v="Kvisladalene" />
		<tag k="natural" v="valley" />
		<tag k="place" v="locality" />
		<tag k="ssr:stedsnr" v="534275" />
	</node>
	<node lat="59.211058330055785" lon="9.823177777480044" id="-26431">
		<tag k="fixme" v="consider natural=peak for the most distinct mountains in the district" />
		<tag k="name" v="Grasås" />
		<tag k="natural" v="hill" />
		<tag k="place" v="locality" />
		<tag k="ssr:stedsnr" v="534277" />
	</node>
	<node lat="59.26047500023108" lon="9.837022224247608" id="-26436">
		<tag k="name" v="Stuterabben" />
		<tag k="natural" v="ridge" />
		<tag k="place" v="locality" />
		<tag k="ssr:stedsnr" v="534842" />
	</node>
	<node lat="59.26429444824521" lon="9.78384722300029" id="-26437">
		<tag k="name" v="Krokslia" />
		<tag k="natural" v="slope" />
		<tag k="place" v="locality" />
		<tag k="ssr:stedsnr" v="534759" />
	</node>
	<node lat="59.19529166856333" lon="9.831080563419476" id="-26438">
		<tag k="fixme" v="consider natural=peak for the most distinct mountains in the district" />
		<tag k="name" v="Røysås" />
		<tag k="natural" v="hill" />
		<tag k="place" v="locality" />
		<tag k="ssr:stedsnr" v="547751" />
	</node>
	<node lat="59.32026389334409" lon="9.690247227058624" id="-26442">
		<tag k="fixme" v="consider natural=peak for the most distinct mountains in the district" />
		<tag k="name" v="Hovde" />
		<tag k="natural" v="hill" />
		<tag k="place" v="locality" />
		<tag k="ssr:stedsnr" v="548333" />
	</node>
	<node lat="59.32118611238507" lon="9.717863893574552" id="-26444">
		<tag k="fixme" v="consider natural=peak for the most distinct mountains in the district" />
		<tag k="name" v="Lykollen" />
		<tag k="natural" v="hill" />
		<tag k="place" v="locality" />
		<tag k="ssr:stedsnr" v="548341" />
	</node>
	<node lat="59.27845000333812" lon="9.781891670769362" id="-26450">
		<tag k="alt_name" v="Rognhaugene" />
		<tag k="name" v="Rognhaugane" />
		<tag k="natural" v="hill" />
		<tag k="place" v="locality" />
		<tag k="ssr:stedsnr" v="548486" />
	</node>
	<node lat="59.28267499720678" lon="9.644622216809287" id="-26452">
		<tag k="name" v="Vindfjell" />
		<tag k="natural" v="hill" />
		<tag k="place" v="locality" />
		<tag k="ssr:stedsnr" v="548494" />
	</node>
	<node lat="59.24871389316604" lon="9.725983339299352" id="-26455">
		<tag k="fixme" v="consider natural=peak for the most distinct mountains in the district" />
		<tag k="name" v="Holmfjell" />
		<tag k="natural" v="hill" />
		<tag k="place" v="locality" />
		<tag k="ssr:stedsnr" v="548634" />
	</node>
	<node lat="59.273919442301" lon="9.770305557825779" id="-26462">
		<tag k="fixme" v="consider natural=peak for the most distinct mountains in the district" />
		<tag k="name" v="Gopledalsåsen" />
		<tag k="natural" v="hill" />
		<tag k="place" v="locality" />
		<tag k="ssr:stedsnr" v="594184" />
	</node>
	<node lat="59.27337500300943" lon="9.829127769466414" id="-26463">
		<tag k="name" v="Gjøsterholet" />
		<tag k="natural" v="valley" />
		<tag k="place" v="locality" />
		<tag k="ssr:stedsnr" v="594189" />
	</node>
	<node lat="59.21131944031262" lon="9.807833328195642" id="-26464">
		<tag k="fixme" v="consider natural=peak for the most distinct mountains in the district" />
		<tag k="name" v="Heiriset" />
		<tag k="natural" v="hill" />
		<tag k="place" v="locality" />
		<tag k="ssr:stedsnr" v="594284" />
	</node>
	<node lat="59.216313889721874" lon="9.827591667381036" id="-26465">
		<tag k="fixme" v="consider natural=peak for the most distinct mountains in the district" />
		<tag k="name" v="Bjørkås" />
		<tag k="natural" v="hill" />
		<tag k="place" v="locality" />
		<tag k="ssr:stedsnr" v="594299" />
	</node>
	<node lat="59.197869443853676" lon="9.845102783263755" id="-26466">
		<tag k="fixme" v="consider natural=peak for the most distinct mountains in the district" />
		<tag k="name" v="Grønland" />
		<tag k="natural" v="hill" />
		<tag k="place" v="locality" />
		<tag k="ssr:stedsnr" v="594323" />
	</node>
	<node lat="59.310749998026076" lon="9.605047217376798" id="-26467">
		<tag k="name" v="Nordre Seterkollen" />
		<tag k="natural" v="hill" />
		<tag k="place" v="locality" />
		<tag k="ssr:stedsnr" v="594442" />
	</node>
	<node lat="59.26532777375323" lon="9.81045277249421" id="-26469">
		<tag k="name" v="Bråtatjønndalen" />
		<tag k="natural" v="valley" />
		<tag k="place" v="locality" />
		<tag k="ssr:stedsnr" v="594733" />
	</node>
	<node lat="59.236744447524224" lon="9.747355557975984" id="-26476">
		<tag k="fixme" v="consider natural=peak for the most distinct mountains in the district" />
		<tag k="name" v="Seteråsen" />
		<tag k="natural" v="hill" />
		<tag k="place" v="locality" />
		<tag k="ssr:stedsnr" v="595128" />
	</node>
	<node lat="59.37382499565167" lon="9.654761102779048" id="-26480">
		<tag k="fixme" v="consider natural=peak for the most distinct mountains in the district" />
		<tag k="name" v="Toakollane" />
		<tag k="natural" v="hill" />
		<tag k="place" v="locality" />
		<tag k="ssr:stedsnr" v="608253" />
	</node>
	<node lat="59.30924999764816" lon="9.616024996366153" id="-26484">
		<tag k="name" v="Kolledalen" />
		<tag k="natural" v="valley" />
		<tag k="place" v="locality" />
		<tag k="ssr:stedsnr" v="608421" />
	</node>
	<node lat="59.23849721905459" lon="9.826677781087575" id="-26485">
		<tag k="fixme" v="consider natural=peak for the most distinct mountains in the district" />
		<tag k="name" v="Strekås" />
		<tag k="natural" v="hill" />
		<tag k="place" v="locality" />
		<tag k="ssr:stedsnr" v="608682" />
	</node>
	<node lat="59.35018888577415" lon="9.783883335033854" id="-26491">
		<tag k="fixme" v="consider natural=peak for the most distinct mountains in the district" />
		<tag k="name" v="Skurvekollen" />
		<tag k="natural" v="hill" />
		<tag k="place" v="locality" />
		<tag k="ssr:stedsnr" v="634957" />
	</node>
	<node lat="59.21485278123927" lon="9.826455554652762" id="-26498">
		<tag k="name" v="Høgbakk" />
		<tag k="natural" v="hill" />
		<tag k="place" v="locality" />
		<tag k="ssr:stedsnr" v="655298" />
	</node>
	<node lat="59.20154166241902" lon="9.860077776078406" id="-26499">
		<tag k="name" v="Ånundsflåt" />
		<tag k="natural" v="hill" />
		<tag k="place" v="locality" />
		<tag k="ssr:stedsnr" v="655325" />
	</node>
	<node lat="59.22016388958999" lon="9.815616668231261" id="-26500">
		<tag k="name" v="Moane" />
		<tag k="place" v="locality" />
		<tag k="ssr:stedsnr" v="655262" />
	</node>
	<node lat="59.26385277766729" lon="9.83065832982643" id="-26507">
		<tag k="fixme" v="consider natural=peak for the most distinct mountains in the district" />
		<tag k="name" v="Østerrisa" />
		<tag k="natural" v="hill" />
		<tag k="place" v="locality" />
		<tag k="ssr:stedsnr" v="655826" />
	</node>
	<node lat="59.218913887726345" lon="9.844336105497508" id="-26510">
		<tag k="name" v="Dalsberga" />
		<tag k="natural" v="hill" />
		<tag k="place" v="locality" />
		<tag k="ssr:stedsnr" v="668742" />
	</node>
	<node lat="59.22549444237616" lon="9.843516664090592" id="-26512">
		<tag k="fixme" v="consider natural=peak for the most distinct mountains in the district" />
		<tag k="name" v="Tempelturen" />
		<tag k="natural" v="hill" />
		<tag k="place" v="locality" />
		<tag k="ssr:stedsnr" v="668677" />
	</node>
	<node lat="59.349980553785976" lon="9.693872214904818" id="-26516">
		<tag k="name" v="Granekollen" />
		<tag k="natural" v="hill" />
		<tag k="place" v="locality" />
		<tag k="ssr:stedsnr" v="669359" />
	</node>
	<node lat="59.20224999739945" lon="9.782011114855955" id="-26518">
		<tag k="name" v="Orholtdalen" />
		<tag k="natural" v="valley" />
		<tag k="place" v="locality" />
		<tag k="ssr:stedsnr" v="669692" />
	</node>
	<node lat="59.254316015724825" lon="9.8731300638038" id="-26524">
		<tag k="fixme" v="consider natural=peak for the most distinct mountains in the district" />
		<tag k="name" v="Kistefjell" />
		<tag k="natural" v="hill" />
		<tag k="place" v="locality" />
		<tag k="ssr:stedsnr" v="670058" />
	</node>
	<node lat="59.2178777805066" lon="9.798027783269768" id="-26529">
		<tag k="name" v="Svensketjønndalen" />
		<tag k="natural" v="valley" />
		<tag k="place" v="locality" />
		<tag k="ssr:stedsnr" v="716270" />
	</node>
	<node lat="59.21560833105724" lon="9.835838893585086" id="-26531">
		<tag k="fixme" v="consider natural=peak for the most distinct mountains in the district" />
		<tag k="name" v="Kvislaås" />
		<tag k="natural" v="hill" />
		<tag k="place" v="locality" />
		<tag k="ssr:stedsnr" v="716315" />
	</node>
	<node lat="59.1963166690342" lon="9.847888880416305" id="-26532">
		<tag k="name" v="Eikliene" />
		<tag k="natural" v="slope" />
		<tag k="place" v="locality" />
		<tag k="ssr:stedsnr" v="716342" />
	</node>
	<node lat="59.20146666288124" lon="9.848580551069192" id="-26533">
		<tag k="name" v="Ljøredalen" />
		<tag k="natural" v="valley" />
		<tag k="place" v="locality" />
		<tag k="ssr:stedsnr" v="716345" />
	</node>
	<node lat="59.243572224850844" lon="9.841211110424615" id="-26540">
		<tag k="name" v="Grasdal" />
		<tag k="natural" v="valley" />
		<tag k="place" v="locality" />
		<tag k="ssr:stedsnr" v="716961" />
	</node>
	<node lat="59.33500277895863" lon="9.620041666833213" id="-26546">
		<tag k="fixme" v="consider natural=peak for the most distinct mountains in the district" />
		<tag k="name" v="Sølverødseterhøgdene" />
		<tag k="natural" v="hill" />
		<tag k="place" v="locality" />
		<tag k="ssr:stedsnr" v="730332" />
	</node>
	<node lat="59.33677499610898" lon="9.634641660923077" id="-26548">
		<tag k="loc_name" v="Likollen" />
		<tag k="name" v="Lykollen" />
		<tag k="natural" v="hill" />
		<tag k="place" v="locality" />
		<tag k="ssr:stedsnr" v="730356" />
	</node>
	<node lat="59.27563611183008" lon="9.663630563109667" id="-26552">
		<tag k="fixme" v="consider natural=peak for the most distinct mountains in the district" />
		<tag k="name" v="Ristingkollen" />
		<tag k="natural" v="hill" />
		<tag k="place" v="locality" />
		<tag k="ssr:stedsnr" v="730495" />
	</node>
	<node lat="59.19981388971092" lon="9.839977775893473" id="-26554">
		<tag k="fixme" v="consider natural=peak for the most distinct mountains in the district" />
		<tag k="name" v="Nordkollen" />
		<tag k="natural" v="hill" />
		<tag k="place" v="locality" />
		<tag k="ssr:stedsnr" v="730735" />
	</node>
	<node lat="59.28044999990648" lon="9.754299997129214" id="-26558">
		<tag k="fixme" v="consider natural=peak for the most distinct mountains in the district" />
		<tag k="name" v="Ramsås" />
		<tag k="natural" v="hill" />
		<tag k="place" v="locality" />
		<tag k="ssr:stedsnr" v="737653" />
	</node>
	<node lat="59.22222777730148" lon="9.785299993786015" id="-26560">
		<tag k="fixme" v="consider natural=peak for the most distinct mountains in the district" />
		<tag k="name" v="Brånan" />
		<tag k="natural" v="hill" />
		<tag k="place" v="locality" />
		<tag k="ssr:stedsnr" v="776226" />
	</node>
	<node lat="59.22044444852404" lon="9.790602770510771" id="-26561">
		<tag k="fixme" v="consider natural=peak for the most distinct mountains in the district" />
		<tag k="name" v="Venås" />
		<tag k="natural" v="hill" />
		<tag k="place" v="locality" />
		<tag k="ssr:stedsnr" v="776188" />
	</node>
	<node lat="59.21825278071447" lon="9.77805555803925" id="-26562">
		<tag k="fixme" v="consider natural=peak for the most distinct mountains in the district" />
		<tag k="name" v="Bjønnåsen" />
		<tag k="natural" v="hill" />
		<tag k="place" v="locality" />
		<tag k="ssr:stedsnr" v="776189" />
	</node>
	<node lat="59.20918055519116" lon="9.783313885133087" id="-26563">
		<tag k="name" v="Kjellshol" />
		<tag k="natural" v="valley" />
		<tag k="place" v="locality" />
		<tag k="ssr:stedsnr" v="776229" />
	</node>
	<node lat="59.32200555139894" lon="9.672633332327726" id="-26565">
		<tag k="name" v="Hogstadliene" />
		<tag k="natural" v="slope" />
		<tag k="place" v="locality" />
		<tag k="ssr:stedsnr" v="776395" />
	</node>
	<node lat="59.25501389007197" lon="9.775249993838326" id="-26568">
		<tag k="name" v="Gravningen" />
		<tag k="place" v="locality" />
		<tag k="ssr:stedsnr" v="776830" />
	</node>
	<node lat="59.243644444276086" lon="9.847886105736833" id="-26569">
		<tag k="fixme" v="consider natural=peak for the most distinct mountains in the district" />
		<tag k="name" v="Grasdalsås" />
		<tag k="natural" v="hill" />
		<tag k="place" v="locality" />
		<tag k="ssr:stedsnr" v="776874" />
	</node>
	<node lat="59.2917055595202" lon="9.64945556067566" id="-26572">
		<tag k="name" v="Jernskotdalen" />
		<tag k="natural" v="valley" />
		<tag k="place" v="locality" />
		<tag k="ssr:stedsnr" v="777284" />
	</node>
	<node lat="59.32716389159217" lon="9.641591673169653" id="-26573">
		<tag k="name" v="Teddalen" />
		<tag k="natural" v="valley" />
		<tag k="place" v="locality" />
		<tag k="ssr:stedsnr" v="777473" />
	</node>
	<node lat="59.25728888724928" lon="9.74417499760778" id="-26575">
		<tag k="name" v="Skavdal" />
		<tag k="natural" v="valley" />
		<tag k="place" v="locality" />
		<tag k="ssr:stedsnr" v="777690" />
	</node>
	<node lat="59.41082500153" lon="9.683361104517495" id="-26577">
		<tag k="loc_name" v="Godvannsflagget" />
		<tag k="name" v="Godvassflaket" />
		<tag k="natural" v="hill" />
		<tag k="place" v="locality" />
		<tag k="ssr:stedsnr" v="791517" />
	</node>
	<node lat="59.23821944848668" lon="9.834016658818204" id="-26579">
		<tag k="fixme" v="consider natural=peak for the most distinct mountains in the district" />
		<tag k="name" v="Fløyåsen" />
		<tag k="natural" v="hill" />
		<tag k="place" v="locality" />
		<tag k="ssr:stedsnr" v="790690" />
	</node>
	<node lat="59.296075002299744" lon="9.731822216435775" id="-26584">
		<tag k="fixme" v="consider natural=peak for the most distinct mountains in the district" />
		<tag k="name" v="Vieråsane" />
		<tag k="natural" v="hill" />
		<tag k="place" v="locality" />
		<tag k="ssr:stedsnr" v="791364" />
	</node>
	<node lat="59.2160083301757" lon="9.806972228971299" id="-26591">
		<tag k="fixme" v="consider natural=peak for the most distinct mountains in the district" />
		<tag k="name" v="Langåsene" />
		<tag k="natural" v="hill" />
		<tag k="place" v="locality" />
		<tag k="ssr:stedsnr" v="837251" />
	</node>
	<node lat="59.25756944683942" lon="9.810047218077955" id="-26593">
		<tag k="name" v="Svimbetskarvene" />
		<tag k="natural" v="slope" />
		<tag k="place" v="locality" />
		<tag k="ssr:stedsnr" v="837775" />
	</node>
	<node lat="59.26346944745442" lon="9.756866671883595" id="-26599">
		<tag k="fixme" v="consider natural=peak for the most distinct mountains in the district" />
		<tag k="name" v="Hagebrånan" />
		<tag k="natural" v="hill" />
		<tag k="place" v="locality" />
		<tag k="ssr:stedsnr" v="838722" />
	</node>
	<node lat="59.21891666786841" lon="9.86712778013264" id="-26607">
		<tag k="fixme" v="consider natural=peak for the most distinct mountains in the district" />
		<tag k="name" v="Middagskollen" />
		<tag k="natural" v="hill" />
		<tag k="place" v="locality" />
		<tag k="ssr:stedsnr" v="851729" />
	</node>
	<node lat="59.31550277921217" lon="9.761661115236269" id="-26611">
		<tag k="name" v="Torneberget" />
		<tag k="natural" v="hill" />
		<tag k="place" v="locality" />
		<tag k="ssr:stedsnr" v="852419" />
	</node>
	<node lat="59.29937499813977" lon="9.657755561527738" id="-26612">
		<tag k="fixme" v="consider natural=peak for the most distinct mountains in the district" />
		<tag k="name" v="Høghaug" />
		<tag k="natural" v="hill" />
		<tag k="place" v="locality" />
		<tag k="ssr:stedsnr" v="852390" />
	</node>
	<node lat="59.242338886889314" lon="9.730794448337328" id="-26618">
		<tag k="name" v="Mellomdal" />
		<tag k="natural" v="valley" />
		<tag k="place" v="locality" />
		<tag k="ssr:stedsnr" v="958117" />
	</node>
	<node lat="59.21455555173862" lon="9.777019438012559" id="-26619">
		<tag k="name" v="Auridalene" />
		<tag k="natural" v="valley" />
		<tag k="place" v="locality" />
		<tag k="ssr:stedsnr" v="958215" />
	</node>
	<node lat="59.21802222281276" lon="9.768519447630815" id="-26620">
		<tag k="fixme" v="consider natural=peak for the most distinct mountains in the district" />
		<tag k="name" v="Valldalsås" />
		<tag k="natural" v="hill" />
		<tag k="place" v="locality" />
		<tag k="ssr:stedsnr" v="958264" />
	</node>
</osm>
