<?xml version="1.0" encoding="UTF-8"?>
<osm version="0.6" generator="osmapis">
	<node id="297820355" lat="68.668493" lon="17.6680625" version="4" timestamp="2022-07-06T05:44:50Z" changeset="123260001" uid="3497659" user="NKA">
		<tag k="loc_name:se" v="Rivttákbahta" />
		<tag k="name" v="Gratangsbotn" />
		<tag k="name:no" v="Gratangsbotn" />
		<tag k="place" v="village" />
		<tag k="ssr:stedsnr" v="624607" />
	</node>
	<node id="1591232810" lat="68.6921992" lon="17.5322784" version="2" timestamp="2022-07-06T05:44:50Z" changeset="123260001" uid="3497659" user="NKA">
		<tag k="alt_name:se" v="Orrageargi" />
		<tag k="name" v="Årstein - Árjogeargi" />
		<tag k="name:no" v="Årstein" />
		<tag k="name:se" v="Árjogeargi" />
		<tag k="place" v="village" />
		<tag k="ssr:stedsnr" v="989684" />
	</node>
	<node id="3374721228" lat="68.6929377" lon="17.4246151" version="2" timestamp="2022-07-06T05:44:50Z" changeset="123260001" uid="3497659" user="NKA">
		<tag k="name" v="Foldvika - Huvlaviika" />
		<tag k="name:no" v="Foldvika" />
		<tag k="name:se" v="Huvlaviika" />
		<tag k="place" v="village" />
		<tag k="ssr:stedsnr" v="989679" />
	</node>
	<node id="3374721229" lat="68.6759033" lon="17.506813" version="2" timestamp="2022-07-06T05:44:50Z" changeset="123260001" uid="3497659" user="NKA">
		<tag k="name" v="Laberget - Gálla" />
		<tag k="name:no" v="Laberget" />
		<tag k="name:se" v="Gálla" />
		<tag k="place" v="village" />
		<tag k="ssr:stedsnr" v="988987" />
	</node>
	<node id="3374802693" lat="68.7326534" lon="17.273351" version="2" timestamp="2022-07-06T05:44:50Z" changeset="123260001" uid="3497659" user="NKA">
		<tag k="name" v="Hilleshamn - Hilsá" />
		<tag k="name:no" v="Hilleshamn" />
		<tag k="name:se" v="Hilsá" />
		<tag k="place" v="village" />
		<tag k="ssr:stedsnr" v="989683" />
	</node>
	<node id="9869589347" lat="68.7612778" lon="17.2998251" version="1" timestamp="2022-07-06T05:44:50Z" changeset="123260001" uid="3497659" user="NKA">
		<tag k="name" v="Finnheimen" />
		<tag k="place" v="locality" />
		<tag k="ssr:stedsnr" v="232362" />
	</node>
	<node id="9869589348" lat="68.7124139" lon="17.4251167" version="1" timestamp="2022-07-06T05:44:50Z" changeset="123260001" uid="3497659" user="NKA">
		<tag k="name" v="Brattberg" />
		<tag k="place" v="isolated_dwelling" />
		<tag k="ssr:stedsnr" v="260599" />
	</node>
	<node id="9869589349" lat="68.7294911" lon="17.4701367" version="1" timestamp="2022-07-06T05:44:50Z" changeset="123260001" uid="3497659" user="NKA">
		<tag k="name" v="Hesjeberg - Hássobákti" />
		<tag k="name:no" v="Hesjeberg" />
		<tag k="name:se" v="Hássobákti" />
		<tag k="place" v="hamlet" />
		<tag k="ssr:stedsnr" v="989686" />
	</node>
	<node id="9869589350" lat="68.6979619" lon="17.3469504" version="1" timestamp="2022-07-06T05:44:50Z" changeset="123260001" uid="3497659" user="NKA">
		<tag k="name" v="Foldvik" />
		<tag k="place" v="isolated_dwelling" />
		<tag k="ssr:stedsnr" v="453734" />
	</node>
	<node id="9869589351" lat="68.6823356" lon="17.4550627" version="1" timestamp="2022-07-06T05:44:50Z" changeset="123260001" uid="3497659" user="NKA">
		<tag k="loc_name:se" v="Njárga" />
		<tag k="name" v="Øyhalsen" />
		<tag k="name:no" v="Øyhalsen" />
		<tag k="place" v="farm" />
		<tag k="ssr:stedsnr" v="454150" />
	</node>
	<node id="9869589352" lat="68.8031917" lon="17.3920944" version="1" timestamp="2022-07-06T05:44:50Z" changeset="123260001" uid="3497659" user="NKA">
		<tag k="name" v="Elvevoll" />
		<tag k="place" v="farm" />
		<tag k="ssr:stedsnr" v="718283" />
	</node>
	<node id="9869589353" lat="68.674175" lon="17.5121251" version="1" timestamp="2022-07-06T05:44:50Z" changeset="123260001" uid="3497659" user="NKA">
		<tag k="name" v="Frydenlund" />
		<tag k="place" v="farm" />
		<tag k="ssr:stedsnr" v="928580" />
	</node>
	<node id="9869589354" lat="68.7427642" lon="17.4378274" version="1" timestamp="2022-07-06T05:44:50Z" changeset="123260001" uid="3497659" user="NKA">
		<tag k="name" v="Lavik" />
		<tag k="place" v="farm" />
		<tag k="ssr:stedsnr" v="695549" />
	</node>
	<node id="9869589355" lat="68.7211954" lon="17.4150356" version="1" timestamp="2022-07-06T05:44:50Z" changeset="123260001" uid="3497659" user="NKA">
		<tag k="name" v="Tjuvskjær - Čuvvá" />
		<tag k="name:no" v="Tjuvskjær" />
		<tag k="name:se" v="Čuvvá" />
		<tag k="place" v="hamlet" />
		<tag k="ssr:stedsnr" v="989680" />
	</node>
	<node id="9869589356" lat="68.7067384" lon="17.4315406" version="1" timestamp="2022-07-06T05:44:50Z" changeset="123260001" uid="3497659" user="NKA">
		<tag k="name" v="Stegan" />
		<tag k="place" v="isolated_dwelling" />
		<tag k="ssr:stedsnr" v="928560" />
	</node>
	<node id="9869589357" lat="68.773439" lon="17.2784605" version="1" timestamp="2022-07-06T05:44:50Z" changeset="123260001" uid="3497659" user="NKA">
		<tag k="name" v="Myrlandshaugen" />
		<tag k="place" v="hamlet" />
		<tag k="ssr:stedsnr" v="745951" />
	</node>
	<node id="9869589358" lat="68.6741778" lon="17.4983638" version="1" timestamp="2022-07-06T05:44:50Z" changeset="123260001" uid="3497659" user="NKA">
		<tag k="name" v="Fossheim" />
		<tag k="place" v="farm" />
		<tag k="ssr:stedsnr" v="503574" />
	</node>
	<node id="9869589359" lat="68.7185111" lon="17.4872944" version="1" timestamp="2022-07-06T05:44:50Z" changeset="123260001" uid="3497659" user="NKA">
		<tag k="name" v="Gammelgården" />
		<tag k="place" v="locality" />
		<tag k="ssr:stedsnr" v="111430" />
	</node>
	<node id="9869589360" lat="68.7456706" lon="17.4147034" version="1" timestamp="2022-07-06T05:44:50Z" changeset="123260001" uid="3497659" user="NKA">
		<tag k="alt_name:no" v="Lavik" />
		<tag k="loc_name:se" v="Láddoluokta" />
		<tag k="name" v="Lavika" />
		<tag k="name:no" v="Lavika" />
		<tag k="place" v="hamlet" />
		<tag k="ssr:stedsnr" v="685917" />
	</node>
	<node id="9869589361" lat="68.6973781" lon="17.4974797" version="1" timestamp="2022-07-06T05:44:50Z" changeset="123260001" uid="3497659" user="NKA">
		<tag k="name" v="Oldernes" />
		<tag k="place" v="farm" />
		<tag k="ssr:stedsnr" v="88466" />
	</node>
	<node id="9869589362" lat="68.6620958" lon="17.7272114" version="1" timestamp="2022-07-06T05:44:50Z" changeset="123260001" uid="3497659" user="NKA">
		<tag k="name" v="Dalsletta" />
		<tag k="place" v="farm" />
		<tag k="ssr:stedsnr" v="321562" />
	</node>
	<node id="9869589363" lat="68.7161822" lon="17.4783872" version="1" timestamp="2022-07-06T05:44:50Z" changeset="123260001" uid="3497659" user="NKA">
		<tag k="name" v="Inner-Skifte" />
		<tag k="place" v="farm" />
		<tag k="ssr:stedsnr" v="138925" />
	</node>
	<node id="9869589364" lat="68.6951276" lon="17.4243532" version="1" timestamp="2022-07-06T05:44:50Z" changeset="123260001" uid="3497659" user="NKA">
		<tag k="name" v="Lia" />
		<tag k="place" v="farm" />
		<tag k="ssr:stedsnr" v="232426" />
	</node>
	<node id="9869589365" lat="68.6379564" lon="17.7282492" version="1" timestamp="2022-07-06T05:44:50Z" changeset="123260001" uid="3497659" user="NKA">
		<tag k="alt_name" v="Kvernmoen" />
		<tag k="loc_name:no" v="Kvernmoen" />
		<tag k="loc_name:se" v="Skáidi" />
		<tag k="name" v="Kvernmo" />
		<tag k="name:no" v="Kvernmo" />
		<tag k="place" v="hamlet" />
		<tag k="ssr:stedsnr" v="840371" />
	</node>
	<node id="9869589366" lat="68.7449611" lon="17.429136" version="1" timestamp="2022-07-06T05:44:50Z" changeset="123260001" uid="3497659" user="NKA">
		<tag k="name" v="Lavika" />
		<tag k="place" v="farm" />
		<tag k="ssr:stedsnr" v="928907" />
	</node>
	<node id="9869589367" lat="68.6227775" lon="17.6507374" version="1" timestamp="2022-07-06T05:44:50Z" changeset="123260001" uid="3497659" user="NKA">
		<tag k="name" v="Øse hyttegrend" />
		<tag k="place" v="neighbourhood" />
		<tag k="ssr:stedsnr" v="975754" />
	</node>
	<node id="9869589368" lat="68.6929052" lon="17.2537083" version="1" timestamp="2022-07-06T05:44:50Z" changeset="123260001" uid="3497659" user="NKA">
		<tag k="name" v="Keipen" />
		<tag k="place" v="locality" />
		<tag k="ssr:stedsnr" v="1077254" />
	</node>
	<node id="9869589369" lat="68.8137285" lon="17.4186124" version="1" timestamp="2022-07-06T05:44:50Z" changeset="123260001" uid="3497659" user="NKA">
		<tag k="name" v="Selnes" />
		<tag k="place" v="hamlet" />
		<tag k="ssr:stedsnr" v="754181" />
	</node>
	<node id="9869589370" lat="68.6281135" lon="17.6313066" version="1" timestamp="2022-07-06T05:44:50Z" changeset="123260001" uid="3497659" user="NKA">
		<tag k="name" v="Vassøse" />
		<tag k="place" v="hamlet" />
		<tag k="ssr:stedsnr" v="261517" />
	</node>
	<node id="9869589371" lat="68.7895084" lon="17.356075" version="1" timestamp="2022-07-06T05:44:50Z" changeset="123260001" uid="3497659" user="NKA">
		<tag k="name" v="Bjerkmo" />
		<tag k="place" v="farm" />
		<tag k="ssr:stedsnr" v="899662" />
	</node>
	<node id="9869589372" lat="68.7841425" lon="17.3325723" version="1" timestamp="2022-07-06T05:44:50Z" changeset="123260001" uid="3497659" user="NKA">
		<tag k="alt_name" v="Litle Lauvdal;Lauvdal, l" />
		<tag k="name" v="Lille Løvdal" />
		<tag k="place" v="farm" />
		<tag k="ssr:stedsnr" v="260977" />
	</node>
	<node id="9869589373" lat="68.8001513" lon="17.3865989" version="1" timestamp="2022-07-06T05:44:50Z" changeset="123260001" uid="3497659" user="NKA">
		<tag k="loc_name:se" v="Bealnášši" />
		<tag k="name" v="Belnes" />
		<tag k="name:no" v="Belnes" />
		<tag k="place" v="hamlet" />
		<tag k="ssr:stedsnr" v="25181" />
	</node>
	<node id="9869589374" lat="68.7881244" lon="17.3501725" version="1" timestamp="2022-07-06T05:44:50Z" changeset="123260001" uid="3497659" user="NKA">
		<tag k="alt_name" v="Store Lauvdal;Lauvdal, store" />
		<tag k="name" v="Store Løvdal" />
		<tag k="old_name" v="Lauvdal" />
		<tag k="place" v="farm" />
		<tag k="ssr:stedsnr" v="717657" />
	</node>
	<node id="9869589375" lat="68.6349009" lon="17.7082416" version="1" timestamp="2022-07-06T05:44:50Z" changeset="123260001" uid="3497659" user="NKA">
		<tag k="name" v="Bjørkmo" />
		<tag k="place" v="locality" />
		<tag k="ssr:stedsnr" v="1077250" />
	</node>
	<node id="9869589376" lat="68.67304" lon="17.6956805" version="1" timestamp="2022-07-06T05:44:50Z" changeset="123260001" uid="3497659" user="NKA">
		<tag k="name" v="Fjordbotn - Vuotnabahta" />
		<tag k="name:no" v="Fjordbotn" />
		<tag k="name:se" v="Vuotnabahta" />
		<tag k="place" v="hamlet" />
		<tag k="ssr:stedsnr" v="199638" />
	</node>
	<node id="9869589377" lat="68.81575" lon="17.4335417" version="1" timestamp="2022-07-06T05:44:50Z" changeset="123260001" uid="3497659" user="NKA">
		<tag k="name" v="Skogly" />
		<tag k="place" v="farm" />
		<tag k="ssr:stedsnr" v="292790" />
	</node>
	<node id="9869589378" lat="68.7868334" lon="17.3404527" version="1" timestamp="2022-07-06T05:44:50Z" changeset="123260001" uid="3497659" user="NKA">
		<tag k="name" v="Myrlund" />
		<tag k="place" v="farm" />
		<tag k="ssr:stedsnr" v="353429" />
	</node>
	<node id="9869589379" lat="68.7562889" lon="17.2627111" version="1" timestamp="2022-07-06T05:44:50Z" changeset="123260001" uid="3497659" user="NKA">
		<tag k="loc_name:se" v="Rivttáknášši" />
		<tag k="name" v="Grøsnes" />
		<tag k="name:no" v="Grøsnes" />
		<tag k="place" v="hamlet" />
		<tag k="ssr:stedsnr" v="332775" />
	</node>
	<node id="9869589380" lat="68.6842135" lon="17.5506369" version="1" timestamp="2022-07-06T05:44:50Z" changeset="123260001" uid="3497659" user="NKA">
		<tag k="name" v="Straumsnes - Strávvenjárga" />
		<tag k="name:no" v="Straumsnes" />
		<tag k="name:se" v="Strávvenjárga" />
		<tag k="place" v="hamlet" />
		<tag k="ssr:stedsnr" v="989678" />
	</node>
	<node id="9869589381" lat="68.7553325" lon="17.2615596" version="1" timestamp="2022-07-06T05:44:50Z" changeset="123260001" uid="3497659" user="NKA">
		<tag k="name" v="Store Grøsnes - Stuora Rivttáknášši" />
		<tag k="name:no" v="Store Grøsnes" />
		<tag k="name:se" v="Stuora Rivttáknášši" />
		<tag k="place" v="farm" />
		<tag k="ssr:stedsnr" v="989689" />
	</node>
	<node id="9869589382" lat="68.74585" lon="17.3021861" version="1" timestamp="2022-07-06T05:44:50Z" changeset="123260001" uid="3497659" user="NKA">
		<tag k="name" v="Forråsen" />
		<tag k="place" v="farm" />
		<tag k="ssr:stedsnr" v="78908" />
	</node>
	<node id="9869589383" lat="68.7688315" lon="17.2724142" version="1" timestamp="2022-07-06T05:44:50Z" changeset="123260001" uid="3497659" user="NKA">
		<tag k="name" v="Myrland" />
		<tag k="place" v="hamlet" />
		<tag k="ssr:stedsnr" v="503928" />
	</node>
	<node id="9869589384" lat="68.6697623" lon="17.6590854" version="1" timestamp="2022-07-06T05:44:50Z" changeset="123260001" uid="3497659" user="NKA">
		<tag k="alt_name:no" v="Elvenes" />
		<tag k="loc_name:se" v="Johkanjárga" />
		<tag k="name" v="Elveneset" />
		<tag k="name:no" v="Elveneset" />
		<tag k="place" v="neighbourhood" />
		<tag k="ssr:stedsnr" v="940414" />
	</node>
	<node id="9869589385" lat="68.6981015" lon="17.4263919" version="1" timestamp="2022-07-06T05:44:50Z" changeset="123260001" uid="3497659" user="NKA">
		<tag k="name" v="Sletten" />
		<tag k="place" v="farm" />
		<tag k="ssr:stedsnr" v="961477" />
	</node>
	<node id="9869589386" lat="68.6653971" lon="17.7482009" version="1" timestamp="2022-07-06T05:44:50Z" changeset="123260001" uid="3497659" user="NKA">
		<tag k="alt_name:no" v="Fjordbotnmark" />
		<tag k="loc_name:se" v="Skuhppi" />
		<tag k="name" v="Fjordbotnmarka" />
		<tag k="name:no" v="Fjordbotnmarka" />
		<tag k="place" v="hamlet" />
		<tag k="ssr:stedsnr" v="961358" />
	</node>
	<node id="9869589387" lat="68.6807361" lon="17.6076843" version="1" timestamp="2022-07-06T05:44:50Z" changeset="123260001" uid="3497659" user="NKA">
		<tag k="name" v="Hågen" />
		<tag k="place" v="farm" />
		<tag k="ssr:stedsnr" v="695645" />
	</node>
	<node id="9869589388" lat="68.6769615" lon="17.4946758" version="1" timestamp="2022-07-06T05:44:50Z" changeset="123260001" uid="3497659" user="NKA">
		<tag k="alt_name:no" v="Svartebekken" />
		<tag k="loc_name:se" v="Čáhppesbákti" />
		<tag k="name" v="Sortebekken" />
		<tag k="name:no" v="Sortebekken" />
		<tag k="place" v="hamlet" />
		<tag k="ssr:stedsnr" v="685564" />
	</node>
	<node id="9869589389" lat="68.7029822" lon="17.4324792" version="1" timestamp="2022-07-06T05:44:50Z" changeset="123260001" uid="3497659" user="NKA">
		<tag k="name" v="Teistevoll" />
		<tag k="place" v="farm" />
		<tag k="ssr:stedsnr" v="563579" />
	</node>
	<node id="9869589390" lat="68.6395845" lon="17.5581776" version="1" timestamp="2022-07-06T05:44:50Z" changeset="123260001" uid="3497659" user="NKA">
		<tag k="name" v="Øvre Dalen" />
		<tag k="place" v="farm" />
		<tag k="ssr:stedsnr" v="1077253" />
	</node>
	<node id="9869589391" lat="68.6406544" lon="17.5525195" version="1" timestamp="2022-07-06T05:44:50Z" changeset="123260001" uid="3497659" user="NKA">
		<tag k="name" v="Labergsdalen" />
		<tag k="place" v="locality" />
		<tag k="ssr:stedsnr" v="260544" />
	</node>
	<node id="9869589392" lat="68.6405946" lon="17.5534865" version="1" timestamp="2022-07-06T05:44:50Z" changeset="123260001" uid="3497659" user="NKA">
		<tag k="name" v="Nedre Dalen" />
		<tag k="place" v="farm" />
		<tag k="ssr:stedsnr" v="1077252" />
	</node>
	<node id="9869589393" lat="68.6319614" lon="17.5635457" version="1" timestamp="2022-07-06T05:44:50Z" changeset="123260001" uid="3497659" user="NKA">
		<tag k="name" v="Beritsletta" />
		<tag k="place" v="locality" />
		<tag k="ssr:stedsnr" v="868500" />
	</node>
	<node id="9869589394" lat="68.6893806" lon="17.4248889" version="1" timestamp="2022-07-06T05:44:50Z" changeset="123260001" uid="3497659" user="NKA">
		<tag k="name" v="Moa" />
		<tag k="place" v="locality" />
		<tag k="ssr:stedsnr" v="779482" />
	</node>
	<node id="9869589395" lat="68.6686361" lon="17.7164249" version="1" timestamp="2022-07-06T05:44:50Z" changeset="123260001" uid="3497659" user="NKA">
		<tag k="name" v="Moan" />
		<tag k="place" v="farm" />
		<tag k="ssr:stedsnr" v="442628" />
	</node>
	<node id="9869589396" lat="68.7248077" lon="17.4728995" version="1" timestamp="2022-07-06T05:44:50Z" changeset="123260001" uid="3497659" user="NKA">
		<tag k="name" v="Vika" />
		<tag k="place" v="isolated_dwelling" />
		<tag k="ssr:stedsnr" v="393793" />
	</node>
	<node id="9869589397" lat="68.6425687" lon="17.7284027" version="1" timestamp="2022-07-06T05:44:50Z" changeset="123260001" uid="3497659" user="NKA">
		<tag k="loc_name:no" v="Holtåsen" />
		<tag k="name" v="Holtås - Reaidduorda" />
		<tag k="name:no" v="Holtås" />
		<tag k="name:se" v="Reaidduorda" />
		<tag k="place" v="hamlet" />
		<tag k="ssr:stedsnr" v="503483" />
	</node>
	<node id="9869589398" lat="68.6580683" lon="17.7088463" version="1" timestamp="2022-07-06T05:44:50Z" changeset="123260001" uid="3497659" user="NKA">
		<tag k="loc_name:se" v="Gohpi" />
		<tag k="name" v="Fjellhøgda" />
		<tag k="name:no" v="Fjellhøgda" />
		<tag k="place" v="farm" />
		<tag k="ssr:stedsnr" v="321571" />
	</node>
	<node id="9869589399" lat="68.6470418" lon="17.7193659" version="1" timestamp="2022-07-06T05:44:50Z" changeset="123260001" uid="3497659" user="NKA">
		<tag k="name" v="Fjelldal" />
		<tag k="place" v="farm" />
		<tag k="ssr:stedsnr" v="321485" />
	</node>
	<node id="9869589400" lat="68.7209006" lon="17.4776027" version="1" timestamp="2022-07-06T05:44:50Z" changeset="123260001" uid="3497659" user="NKA">
		<tag k="name" v="Ytter-Skifte" />
		<tag k="place" v="farm" />
		<tag k="ssr:stedsnr" v="149544" />
	</node>
	<node id="9869589401" lat="68.7188156" lon="17.4755323" version="1" timestamp="2022-07-06T05:44:50Z" changeset="123260001" uid="3497659" user="NKA">
		<tag k="name" v="Skifte - Skikta" />
		<tag k="name:no" v="Skifte" />
		<tag k="name:se" v="Skikta" />
		<tag k="place" v="hamlet" />
		<tag k="ssr:stedsnr" v="989685" />
	</node>
	<node id="9869589402" lat="68.6212478" lon="17.650824" version="1" timestamp="2022-07-06T05:44:50Z" changeset="123260001" uid="3497659" user="NKA">
		<tag k="name" v="Øse" />
		<tag k="place" v="village" />
		<tag k="ssr:stedsnr" v="138507" />
	</node>
	<node id="9869589403" lat="68.7179027" lon="17.4968862" version="1" timestamp="2022-07-06T05:44:50Z" changeset="123260001" uid="3497659" user="NKA">
		<tag k="name" v="Engelstad" />
		<tag k="place" v="locality" />
		<tag k="ssr:stedsnr" v="718467" />
	</node>
	<node id="9869589404" lat="68.7117611" lon="17.4279166" version="1" timestamp="2022-07-06T05:44:50Z" changeset="123260001" uid="3497659" user="NKA">
		<tag k="name" v="Nautnes" />
		<tag k="place" v="farm" />
		<tag k="ssr:stedsnr" v="199593" />
	</node>
	<node id="9869589405" lat="68.6621885" lon="17.7098745" version="1" timestamp="2022-07-06T05:44:50Z" changeset="123260001" uid="3497659" user="NKA">
		<tag k="loc_name:se" v="Vađđa" />
		<tag k="name" v="Nylund" />
		<tag k="name:no" v="Nylund" />
		<tag k="place" v="farm" />
		<tag k="ssr:stedsnr" v="78582" />
	</node>
	<node id="9869589406" lat="68.7407983" lon="17.3252251" version="1" timestamp="2022-07-06T05:44:50Z" changeset="123260001" uid="3497659" user="NKA">
		<tag k="name" v="Lille Grøsnes - Unna Rivttáknáššáš" />
		<tag k="name:no" v="Lille Grøsnes" />
		<tag k="name:se" v="Unna Rivttáknáššáš" />
		<tag k="place" v="hamlet" />
		<tag k="ssr:stedsnr" v="989688" />
	</node>
	<node id="9869589407" lat="68.6743961" lon="17.5327232" version="1" timestamp="2022-07-06T05:44:50Z" changeset="123260001" uid="3497659" user="NKA">
		<tag k="name" v="Milmarka" />
		<tag k="place" v="locality" />
		<tag k="ssr:stedsnr" v="18578" />
	</node>
	<node id="9869589408" lat="68.6639182" lon="17.689481" version="1" timestamp="2022-07-06T05:44:50Z" changeset="123260001" uid="3497659" user="NKA">
		<tag k="alt_name" v="Brandmoen" />
		<tag k="name" v="Brannmoen" />
		<tag k="place" v="farm" />
		<tag k="ssr:stedsnr" v="1077251" />
	</node>
	<node id="9869589409" lat="68.6804137" lon="17.4636817" version="1" timestamp="2022-07-06T05:44:50Z" changeset="123260001" uid="3497659" user="NKA">
		<tag k="name" v="Hellarbogen industriområde" />
		<tag k="place" v="neighbourhood" />
		<tag k="ssr:stedsnr" v="975755" />
	</node>
	<node id="9869589410" lat="68.6642566" lon="17.6874968" version="1" timestamp="2022-07-06T05:44:50Z" changeset="123260001" uid="3497659" user="NKA">
		<tag k="name" v="Osvoll" />
		<tag k="place" v="farm" />
		<tag k="ssr:stedsnr" v="867629" />
	</node>
	<node id="9869589411" lat="68.7009434" lon="17.4835591" version="1" timestamp="2022-07-06T05:44:50Z" changeset="123260001" uid="3497659" user="NKA">
		<tag k="alt_name" v="Åkeneset" />
		<tag k="name" v="Åkenes" />
		<tag k="place" v="hamlet" />
		<tag k="ssr:stedsnr" v="928557" />
	</node>
	<node id="9869589412" lat="68.6416556" lon="17.7288933" version="1" timestamp="2022-07-06T05:44:50Z" changeset="123260001" uid="3497659" user="NKA">
		<tag k="name" v="Nyheim" />
		<tag k="place" v="farm" />
		<tag k="ssr:stedsnr" v="867535" />
	</node>
	<node id="9869589413" lat="68.6780474" lon="17.6264583" version="1" timestamp="2022-07-06T05:44:50Z" changeset="123260001" uid="3497659" user="NKA">
		<tag k="alt_name" v="Grimjord" />
		<tag k="name" v="Grimjorda" />
		<tag k="place" v="farm" />
		<tag k="ssr:stedsnr" v="657295" />
	</node>
	<node id="9869589414" lat="68.7333695" lon="17.2631082" version="1" timestamp="2022-07-06T05:44:50Z" changeset="123260001" uid="3497659" user="NKA">
		<tag k="name" v="Hamnegården" />
		<tag k="place" v="farm" />
		<tag k="ssr:stedsnr" v="535399" />
	</node>
	<node id="9869589415" lat="68.6802278" lon="17.615536" version="1" timestamp="2022-07-06T05:44:50Z" changeset="123260001" uid="3497659" user="NKA">
		<tag k="name" v="Haugen" />
		<tag k="place" v="farm" />
		<tag k="ssr:stedsnr" v="199573" />
	</node>
	<node id="9869589416" lat="68.6776472" lon="17.4300278" version="1" timestamp="2022-07-06T05:44:50Z" changeset="123260001" uid="3497659" user="NKA">
		<tag k="name" v="Rikmannsheimen" />
		<tag k="place" v="locality" />
		<tag k="ssr:stedsnr" v="475433" />
	</node>
	<node id="9869611917" lat="68.6838226" lon="17.5834287" version="1" timestamp="2022-07-06T05:44:50Z" changeset="123260001" uid="3497659" user="NKA">
		<tag k="loc_name:se" v="Sáttunjárga" />
		<tag k="name" v="Sandnes" />
		<tag k="name:no" v="Sandnes" />
		<tag k="place" v="farm" />
		<tag k="ssr:stedsnr" v="597345" />
	</node>
	<node id="9869611918" lat="68.6905139" lon="17.4151667" version="1" timestamp="2022-07-06T05:44:50Z" changeset="123260001" uid="3497659" user="NKA">
		<tag k="name" v="Ressekastet" />
		<tag k="place" v="locality" />
		<tag k="ssr:stedsnr" v="51525" />
	</node>
	<node id="9869611919" lat="68.6718723" lon="17.6475719" version="1" timestamp="2022-07-06T05:44:50Z" changeset="123260001" uid="3497659" user="NKA">
		<tag k="loc_name:se" v="Hoadja" />
		<tag k="name" v="Elveneshågen" />
		<tag k="name:no" v="Elveneshågen" />
		<tag k="place" v="neighbourhood" />
		<tag k="ssr:stedsnr" v="745614" />
	</node>
	<node id="9869611920" lat="68.7873255" lon="17.3511554" version="1" timestamp="2022-07-06T05:44:50Z" changeset="123260001" uid="3497659" user="NKA">
		<tag k="alt_name:no" v="Lauvdal" />
		<tag k="loc_name:se" v="Lovdálli" />
		<tag k="name" v="Løvdal" />
		<tag k="name:no" v="Løvdal" />
		<tag k="place" v="hamlet" />
		<tag k="ssr:stedsnr" v="446179" />
	</node>
</osm>
