<?xml version="1.0" encoding="UTF-8"?>
<osm generator="osmapis" version="0.6">
	<node id="-779093" lat="70.1539055977" lon="29.4498959469">
		<tag k="name" v="Østervannshompen" />
		<tag k="natural" v="hill" />
		<tag k="place" v="locality" />
		<tag k="ssr:stedsnr" v="91969" />
	</node>
	<node id="-779260" lat="70.1550528327" lon="30.3345204587">
		<tag k="name" v="Mortintörmä" />
		<tag k="name:fkv" v="Mortintörmä" />
		<tag k="natural" v="slope" />
		<tag k="old_name:fkv" v="Murtintörmä" />
		<tag k="place" v="locality" />
		<tag k="ssr:stedsnr" v="455682" />
	</node>
	<node id="-779259" lat="70.1960639396" lon="30.286998259">
		<tag k="name" v="Pitkänpäri" />
		<tag k="name:fkv" v="Pitkänpäri" />
		<tag k="natural" v="hill" />
		<tag k="place" v="locality" />
		<tag k="ssr:stedsnr" v="455652" />
	</node>
	<node id="-779255" lat="70.0756889373" lon="30.0250983762">
		<tag k="name" v="Storberget - Isopäri" />
		<tag k="name:fkv" v="Isopäri" />
		<tag k="name:no" v="Storberget" />
		<tag k="natural" v="hill" />
		<tag k="place" v="locality" />
		<tag k="ssr:stedsnr" v="455578" />
	</node>
	<node id="-779252" lat="70.0790667236" lon="30.0643177966">
		<tag k="name" v="Osteberget" />
		<tag k="natural" v="hill" />
		<tag k="place" v="locality" />
		<tag k="ssr:stedsnr" v="455558" />
	</node>
	<node id="-779251" lat="70.0820056084" lon="30.0746511352">
		<tag k="name" v="Katteknausen" />
		<tag k="natural" v="hill" />
		<tag k="place" v="locality" />
		<tag k="ssr:stedsnr" v="455555" />
	</node>
	<node id="-779250" lat="70.0692417262" lon="30.1664677365">
		<tag k="name" v="Svarteberget" />
		<tag k="natural" v="hill" />
		<tag k="place" v="locality" />
		<tag k="ssr:stedsnr" v="455524" />
	</node>
	<node id="-778920" lat="70.1206639265" lon="29.4924125802">
		<tag k="fixme" v="consider natural=peak for the most distinct mountains in the district" />
		<tag k="name" v="Store Guovlloaivi" />
		<tag k="natural" v="hill" />
		<tag k="old_name" v="Guovloaivi, store;Guovlloaivi" />
		<tag k="place" v="locality" />
		<tag k="ssr:stedsnr" v="384610" />
	</node>
	<node id="-779005" lat="70.4695889172" lon="29.1978295054">
		<tag k="fixme" v="consider natural=peak for the most distinct mountains in the district" />
		<tag k="name" v="Máttit Njoaskoaivi" />
		<tag k="name:se" v="Máttit Njoaskoaivi" />
		<tag k="natural" v="hill" />
		<tag k="old_name:se" v="Njoaskoaivi, maddit" />
		<tag k="place" v="locality" />
		<tag k="ssr:stedsnr" v="20967" />
	</node>
	<node id="-779244" lat="70.0625972689" lon="29.8389929311">
		<tag k="name" v="Høghammaren" />
		<tag k="natural" v="hill" />
		<tag k="place" v="locality" />
		<tag k="ssr:stedsnr" v="455276" />
	</node>
	<node id="-779243" lat="70.0617694926" lon="29.8816984558">
		<tag k="alt_name" v="Batteriet" />
		<tag k="name" v="Vargemyrbakken" />
		<tag k="natural" v="slope" />
		<tag k="place" v="locality" />
		<tag k="ssr:stedsnr" v="455269" />
	</node>
	<node id="-779241" lat="70.088825049" lon="29.8686790402">
		<tag k="name" v="Raet" />
		<tag k="natural" v="ridge" />
		<tag k="place" v="locality" />
		<tag k="ssr:stedsnr" v="455223" />
	</node>
	<node id="-779240" lat="70.0800306058" lon="29.7835179806">
		<tag k="name" v="Kanaberget" />
		<tag k="natural" v="hill" />
		<tag k="place" v="locality" />
		<tag k="ssr:stedsnr" v="455187" />
	</node>
	<node id="-779239" lat="70.1433417014" lon="29.2851737907">
		<tag k="fixme" v="consider natural=peak for the most distinct mountains in the district" />
		<tag k="name" v="Turvevaara" />
		<tag k="name:fkv" v="Turvevaara" />
		<tag k="natural" v="hill" />
		<tag k="place" v="locality" />
		<tag k="ssr:stedsnr" v="455107" />
	</node>
	<node id="-779089" lat="70.070763937" lon="30.0169872678">
		<tag k="name" v="Seiberget" />
		<tag k="natural" v="hill" />
		<tag k="place" v="locality" />
		<tag k="ssr:stedsnr" v="91607" />
	</node>
	<node id="-779236" lat="70.1274944876" lon="29.3257321042">
		<tag k="name" v="Bustra" />
		<tag k="natural" v="valley" />
		<tag k="place" v="locality" />
		<tag k="ssr:stedsnr" v="455092" />
	</node>
	<node id="-779235" lat="70.1681389273" lon="29.2463460557">
		<tag k="name" v="Lillehompen" />
		<tag k="natural" v="hill" />
		<tag k="place" v="locality" />
		<tag k="ssr:stedsnr" v="455041" />
	</node>
	<node id="-779229" lat="70.1252111626" lon="30.3018482362">
		<tag k="name" v="Rødberget" />
		<tag k="natural" v="hill" />
		<tag k="place" v="locality" />
		<tag k="ssr:stedsnr" v="450273" />
	</node>
	<node id="-779227" lat="70.2738750472" lon="30.0453373564">
		<tag k="name" v="Skallelvskardet - Guovdovákkerohči" />
		<tag k="name:no" v="Skallelvskardet" />
		<tag k="name:se" v="Guovdovákkerohči" />
		<tag k="natural" v="valley" />
		<tag k="old_name:se" v="Guovduvaggeråčči" />
		<tag k="place" v="locality" />
		<tag k="ssr:stedsnr" v="445922" />
	</node>
	<node id="-779225" lat="70.1170694918" lon="29.7692179808">
		<tag k="name" v="Byvasshøgda - Dápmotčorru" />
		<tag k="name:no" v="Byvasshøgda" />
		<tag k="name:se" v="Dápmotčorru" />
		<tag k="natural" v="hill" />
		<tag k="old_name:se" v="Dabmutčårro" />
		<tag k="place" v="locality" />
		<tag k="ssr:stedsnr" v="445636" />
	</node>
	<node id="-779220" lat="70.1905528149" lon="29.3399571232">
		<tag k="fixme" v="consider natural=peak for the most distinct mountains in the district" />
		<tag k="name" v="Gubbfjellet" />
		<tag k="natural" v="hill" />
		<tag k="place" v="locality" />
		<tag k="ssr:stedsnr" v="444736" />
	</node>
	<node id="-779212" lat="70.4264028068" lon="29.4513127154">
		<tag k="fixme" v="consider natural=peak for the most distinct mountains in the district" />
		<tag k="name" v="Áldačohkka" />
		<tag k="name:se" v="Áldačohkka" />
		<tag k="natural" v="hill" />
		<tag k="old_name:se" v="Aldačåkka" />
		<tag k="place" v="locality" />
		<tag k="ssr:stedsnr" v="263979" />
	</node>
	<node id="-779211" lat="70.3169750407" lon="29.5531265179">
		<tag k="fixme" v="consider natural=peak for the most distinct mountains in the district" />
		<tag k="name" v="Bealjáidoalgi" />
		<tag k="name:se" v="Bealjáidoalgi" />
		<tag k="natural" v="hill" />
		<tag k="old_name:se" v="Bælljaidoalgi" />
		<tag k="place" v="locality" />
		<tag k="ssr:stedsnr" v="263913" />
	</node>
	<node id="-779210" lat="70.1482556029" lon="29.7224735775">
		<tag k="name" v="Frøkendalen" />
		<tag k="natural" v="valley" />
		<tag k="place" v="locality" />
		<tag k="ssr:stedsnr" v="263634" />
	</node>
	<node id="-779209" lat="70.0999250459" lon="29.6792458117">
		<tag k="alt_name" v="Fossefjellet" />
		<tag k="fixme" v="consider natural=peak for the most distinct mountains in the district" />
		<tag k="name" v="Basis A" />
		<tag k="natural" v="hill" />
		<tag k="place" v="locality" />
		<tag k="ssr:stedsnr" v="263619" />
	</node>
	<node id="-779556" lat="70.080758385" lon="29.8769345973">
		<tag k="fixme" v="consider natural=peak for the most distinct mountains in the district" />
		<tag k="name" v="Indre Aksla" />
		<tag k="natural" v="hill" />
		<tag k="place" v="locality" />
		<tag k="ssr:stedsnr" v="819250" />
	</node>
	<node id="-779204" lat="70.202302818" lon="29.3573598939">
		<tag k="name" v="Høyelvdalen" />
		<tag k="natural" v="valley" />
		<tag k="place" v="locality" />
		<tag k="ssr:stedsnr" v="262776" />
	</node>
	<node id="-779203" lat="70.1581555938" lon="29.2688766025">
		<tag k="fixme" v="consider natural=peak for the most distinct mountains in the district" />
		<tag k="name" v="Storhompen" />
		<tag k="natural" v="hill" />
		<tag k="place" v="locality" />
		<tag k="ssr:stedsnr" v="262761" />
	</node>
	<node id="-779202" lat="70.1736694842" lon="29.3051376913">
		<tag k="fixme" v="consider natural=peak for the most distinct mountains in the district" />
		<tag k="name" v="Flintnasen - Didnonjunis - Flinttinokka" />
		<tag k="name:fkv" v="Flinttinokka" />
		<tag k="name:no" v="Flintnasen" />
		<tag k="name:se" v="Didnonjunis" />
		<tag k="natural" v="hill" />
		<tag k="old_name:fkv" v="Flintinokka" />
		<tag k="old_name:se" v="Didnjunjunis" />
		<tag k="place" v="locality" />
		<tag k="ssr:stedsnr" v="262757" />
	</node>
	<node id="-779197" lat="70.0770972699" lon="29.9062484368">
		<tag k="alt_name" v="Aksla" />
		<tag k="fixme" v="consider natural=peak for the most distinct mountains in the district" />
		<tag k="name" v="Kibyaksla" />
		<tag k="natural" v="hill" />
		<tag k="place" v="locality" />
		<tag k="ssr:stedsnr" v="262545" />
	</node>
	<node id="-779196" lat="70.1211055918" lon="29.3748765206">
		<tag k="fixme" v="consider natural=peak for the most distinct mountains in the district" />
		<tag k="name" v="Sudifjell" />
		<tag k="natural" v="hill" />
		<tag k="place" v="locality" />
		<tag k="ssr:stedsnr" v="226221" />
	</node>
	<node id="-779193" lat="70.1169083857" lon="30.1657344108">
		<tag k="name" v="Flata" />
		<tag k="place" v="locality" />
		<tag k="ssr:stedsnr" v="212755" />
	</node>
	<node id="-779542" lat="70.1572750392" lon="29.568848664">
		<tag k="fixme" v="consider natural=peak for the most distinct mountains in the district" />
		<tag k="name" v="Ciehkoaivi" />
		<tag k="name:se" v="Ciehkoaivi" />
		<tag k="natural" v="hill" />
		<tag k="old_name:se" v="Ciekkoaivi" />
		<tag k="place" v="locality" />
		<tag k="ssr:stedsnr" v="809652" />
	</node>
	<node id="-779189" lat="70.0631389362" lon="29.919526204">
		<tag k="name" v="Brænda" />
		<tag k="place" v="locality" />
		<tag k="ssr:stedsnr" v="212620" />
	</node>
	<node id="-779186" lat="70.0733028291" lon="30.1049455373">
		<tag k="name" v="Finnebakken" />
		<tag k="natural" v="slope" />
		<tag k="place" v="locality" />
		<tag k="ssr:stedsnr" v="212556" />
	</node>
	<node id="-779185" lat="70.0704333864" lon="30.1206483097">
		<tag k="alt_name" v="Høghamaren" />
		<tag k="name" v="Høghammaren" />
		<tag k="natural" v="cliff" />
		<tag k="ssr:stedsnr" v="212553" />
	</node>
	<node id="-778824" lat="70.1183528271" lon="30.1095344481">
		<tag k="name" v="Storskoghaugen" />
		<tag k="natural" v="hill" />
		<tag k="place" v="locality" />
		<tag k="ssr:stedsnr" v="273495" />
	</node>
	<node id="-779182" lat="70.0703778331" lon="29.9596178603">
		<tag k="name" v="Høvetsbakken" />
		<tag k="natural" v="slope" />
		<tag k="place" v="locality" />
		<tag k="ssr:stedsnr" v="212428" />
	</node>
	<node id="-779181" lat="70.070641715" lon="29.9442095335">
		<tag k="name" v="Ylihaaki" />
		<tag k="name:fkv" v="Ylihaaki" />
		<tag k="natural" v="slope" />
		<tag k="place" v="locality" />
		<tag k="ssr:stedsnr" v="212427" />
	</node>
	<node id="-779180" lat="70.0797528319" lon="30.0284289308">
		<tag k="name" v="Riuttapäri" />
		<tag k="name:fkv" v="Riuttapäri" />
		<tag k="natural" v="hill" />
		<tag k="place" v="locality" />
		<tag k="ssr:stedsnr" v="212408" />
	</node>
	<node id="-779179" lat="70.0655889379" lon="29.8751762468">
		<tag k="name" v="Brasbergsletta" />
		<tag k="place" v="locality" />
		<tag k="ssr:stedsnr" v="212293" />
	</node>
	<node id="-779178" lat="70.0663667157" lon="29.8625262544">
		<tag k="name" v="Raet" />
		<tag k="natural" v="ridge" />
		<tag k="place" v="locality" />
		<tag k="ssr:stedsnr" v="212286" />
	</node>
	<node id="-779177" lat="70.0822556017" lon="29.7359596677">
		<tag k="name" v="Tibergrabben" />
		<tag k="place" v="locality" />
		<tag k="ssr:stedsnr" v="212244" />
	</node>
	<node id="-779688" lat="70.104064777" lon="29.3400714874">
		<tag k="fixme" v="consider natural=peak for the most distinct mountains in the district" />
		<tag k="name" v="Lauriniemenharju" />
		<tag k="name:fkv" v="Lauriniemenharju" />
		<tag k="natural" v="hill" />
		<tag k="place" v="locality" />
		<tag k="ssr:stedsnr" v="979558" />
	</node>
	<node id="-779174" lat="70.1067805969" lon="29.3655681936">
		<tag k="name" v="Halsen" />
		<tag k="place" v="locality" />
		<tag k="ssr:stedsnr" v="212073" />
	</node>
	<node id="-779168" lat="70.1343778195" lon="29.3765820823">
		<tag k="fixme" v="consider natural=peak for the most distinct mountains in the district" />
		<tag k="name" v="Solvarden - Suolovárri" />
		<tag k="name:no" v="Solvarden" />
		<tag k="name:se" v="Suolovárri" />
		<tag k="natural" v="hill" />
		<tag k="old_name:se" v="Suoluvarri" />
		<tag k="place" v="locality" />
		<tag k="ssr:stedsnr" v="208627" />
	</node>
	<node id="-779165" lat="70.3725778116" lon="29.2284239085">
		<tag k="name" v="Jakobselvkroken - Ánnejohmohkki" />
		<tag k="name:no" v="Jakobselvkroken" />
		<tag k="name:se" v="Ánnejohmohkki" />
		<tag k="old_name:se" v="Annejåkmåkki;Ánnejohkmohkki" />
		<tag k="place" v="locality" />
		<tag k="ssr:stedsnr" v="202998" />
	</node>
	<node id="-779163" lat="70.3164944766" lon="29.3408293837">
		<tag k="fixme" v="consider natural=peak for the most distinct mountains in the district" />
		<tag k="name" v="Biipoaivi" />
		<tag k="name:se" v="Biipoaivi" />
		<tag k="natural" v="hill" />
		<tag k="place" v="locality" />
		<tag k="ssr:stedsnr" v="202987" />
	</node>
	<node id="-779674" lat="70.0855667176" lon="30.081051125">
		<tag k="name" v="Risdalen" />
		<tag k="natural" v="valley" />
		<tag k="place" v="locality" />
		<tag k="ssr:stedsnr" v="941573" />
	</node>
	<node id="-779161" lat="70.1548500412" lon="29.8155596507">
		<tag k="name" v="Nattfjelldalen" />
		<tag k="natural" v="valley" />
		<tag k="place" v="locality" />
		<tag k="ssr:stedsnr" v="202657" />
	</node>
	<node id="-779159" lat="70.1277278251" lon="29.6833735978">
		<tag k="name" v="Viinikka" />
		<tag k="name:fkv" v="Viinikka" />
		<tag k="old_name:fkv" v="Vinika" />
		<tag k="place" v="locality" />
		<tag k="ssr:stedsnr" v="202645" />
	</node>
	<node id="-779670" lat="70.0710139388" lon="29.9537095364">
		<tag k="name" v="Pappapäri" />
		<tag k="name:fkv" v="Pappapäri" />
		<tag k="natural" v="hill" />
		<tag k="place" v="locality" />
		<tag k="ssr:stedsnr" v="941423" />
	</node>
	<node id="-779669" lat="70.0859194967" lon="30.025826159">
		<tag k="name" v="Santahoova" />
		<tag k="name:fkv" v="Santahoova" />
		<tag k="natural" v="hill" />
		<tag k="place" v="locality" />
		<tag k="ssr:stedsnr" v="941412" />
	</node>
	<node id="-779154" lat="70.063486158" lon="29.8287734781">
		<tag k="name" v="Navaren" />
		<tag k="natural" v="hill" />
		<tag k="place" v="locality" />
		<tag k="ssr:stedsnr" v="202544" />
	</node>
	<node id="-779665" lat="70.1022055968" lon="29.4800931337">
		<tag k="name" v="Nivan Kallen kuru" />
		<tag k="name:fkv" v="Nivan Kallen kuru" />
		<tag k="natural" v="valley" />
		<tag k="old_name:fkv" v="Nivan-kallen-kuru" />
		<tag k="place" v="locality" />
		<tag k="ssr:stedsnr" v="941024" />
	</node>
	<node id="-779148" lat="70.1331694861" lon="29.3471126702">
		<tag k="name" v="Smørbakken" />
		<tag k="natural" v="slope" />
		<tag k="place" v="locality" />
		<tag k="ssr:stedsnr" v="201594" />
	</node>
	<node id="-779074" lat="70.1200722567" lon="29.294393235">
		<tag k="name" v="Skittenelvbakken" />
		<tag k="natural" v="slope" />
		<tag k="place" v="locality" />
		<tag k="ssr:stedsnr" v="91096" />
	</node>
	<node id="-779143" lat="70.0637611563" lon="29.9176678917">
		<tag k="name" v="Vanhantienvarsi" />
		<tag k="name:fkv" v="Vanhantienvarsi" />
		<tag k="natural" v="slope" />
		<tag k="place" v="locality" />
		<tag k="ssr:stedsnr" v="151615" />
	</node>
	<node id="-779654" lat="70.0957333826" lon="29.7543040971">
		<tag k="fixme" v="consider natural=peak for the most distinct mountains in the district" />
		<tag k="name" v="Fossefjellet" />
		<tag k="natural" v="hill" />
		<tag k="place" v="locality" />
		<tag k="ssr:stedsnr" v="931616" />
	</node>
	<node id="-779141" lat="70.0739000523" lon="30.1299066415">
		<tag k="name" v="Larslygarhaugen" />
		<tag k="natural" v="hill" />
		<tag k="place" v="locality" />
		<tag k="ssr:stedsnr" v="151554" />
	</node>
	<node id="-779652" lat="70.0993028174" lon="29.6475013896">
		<tag k="name" v="Storbakken" />
		<tag k="natural" v="slope" />
		<tag k="place" v="locality" />
		<tag k="ssr:stedsnr" v="931612" />
	</node>
	<node id="-779139" lat="70.0703528272" lon="29.9240678712">
		<tag k="name" v="Ylihaaki" />
		<tag k="name:fkv" v="Ylihaaki" />
		<tag k="natural" v="valley" />
		<tag k="place" v="locality" />
		<tag k="ssr:stedsnr" v="151443" />
	</node>
	<node id="-779650" lat="70.3732889206" lon="29.3855377208">
		<tag k="fixme" v="consider natural=peak for the most distinct mountains in the district" />
		<tag k="name" v="Juovvoaivi" />
		<tag k="name:se" v="Juovvoaivi" />
		<tag k="natural" v="hill" />
		<tag k="old_name:se" v="Juovloaivi" />
		<tag k="place" v="locality" />
		<tag k="ssr:stedsnr" v="930997" />
	</node>
	<node id="-779648" lat="70.4443500349" lon="29.2437544611">
		<tag k="name" v="Soalddátgorsa" />
		<tag k="name:se" v="Soalddátgorsa" />
		<tag k="natural" v="valley" />
		<tag k="old_name:se" v="Soaldatgårsa" />
		<tag k="place" v="locality" />
		<tag k="ssr:stedsnr" v="930950" />
	</node>
	<node id="-779647" lat="70.2809028217" lon="30.1294317541">
		<tag k="fixme" v="consider natural=peak for the most distinct mountains in the district" />
		<tag k="name" v="Cavnnat" />
		<tag k="name:se" v="Cavnnat" />
		<tag k="natural" v="hill" />
		<tag k="old_name:se" v="Cavnat" />
		<tag k="place" v="locality" />
		<tag k="ssr:stedsnr" v="930911" />
	</node>
	<node id="-779644" lat="70.2433305888" lon="29.4737737522">
		<tag k="fixme" v="consider natural=peak for the most distinct mountains in the district" />
		<tag k="name" v="Váttačielgi" />
		<tag k="name:se" v="Váttačielgi" />
		<tag k="natural" v="hill" />
		<tag k="old_name:se" v="Vaddačielgi" />
		<tag k="place" v="locality" />
		<tag k="ssr:stedsnr" v="930604" />
	</node>
	<node id="-779131" lat="70.1199833827" lon="29.832929065">
		<tag k="name" v="Sjåbuselvskaret" />
		<tag k="natural" v="valley" />
		<tag k="place" v="locality" />
		<tag k="ssr:stedsnr" v="151325" />
	</node>
	<node id="-779127" lat="70.1139111621" lon="29.8122207405">
		<tag k="name" v="Byvasshøgda" />
		<tag k="natural" v="hill" />
		<tag k="place" v="locality" />
		<tag k="ssr:stedsnr" v="151302" />
	</node>
	<node id="-779122" lat="70.0868417166" lon="29.8360429357">
		<tag k="name" v="Kettuberget" />
		<tag k="natural" v="hill" />
		<tag k="place" v="locality" />
		<tag k="ssr:stedsnr" v="151240" />
	</node>
	<node id="-778899" lat="70.1051528314" lon="30.1821288623">
		<tag k="name" v="Jonsihollet" />
		<tag k="natural" v="valley" />
		<tag k="place" v="locality" />
		<tag k="ssr:stedsnr" v="334721" />
	</node>
	<node id="-779119" lat="70.0959194906" lon="29.5322819875">
		<tag k="name" v="Rødberget" />
		<tag k="natural" v="hill" />
		<tag k="place" v="locality" />
		<tag k="ssr:stedsnr" v="151121" />
	</node>
	<node id="-779118" lat="70.1183972607" lon="29.2907543449">
		<tag k="name" v="Bakken" />
		<tag k="natural" v="slope" />
		<tag k="place" v="locality" />
		<tag k="ssr:stedsnr" v="151103" />
	</node>
	<node id="-779629" lat="70.0720944948" lon="30.0008372936">
		<tag k="name" v="Berget" />
		<tag k="natural" v="hill" />
		<tag k="place" v="locality" />
		<tag k="ssr:stedsnr" v="880620" />
	</node>
	<node id="-779114" lat="70.1131583855" lon="30.1514344164">
		<tag k="name" v="Varen" />
		<tag k="natural" v="ridge" />
		<tag k="place" v="locality" />
		<tag k="ssr:stedsnr" v="149032" />
	</node>
	<node id="-779625" lat="70.1237472699" lon="30.161212213">
		<tag k="name" v="Sølvfarm" />
		<tag k="natural" v="cliff" />
		<tag k="ssr:stedsnr" v="880532" />
	</node>
	<node id="-779111" lat="70.4194416962" lon="29.2907099855">
		<tag k="fixme" v="consider natural=peak for the most distinct mountains in the district" />
		<tag k="name" v="Suoidneoaivvit" />
		<tag k="name:se" v="Suoidneoaivvit" />
		<tag k="natural" v="hill" />
		<tag k="old_name:se" v="Suoidneoaivit" />
		<tag k="place" v="locality" />
		<tag k="ssr:stedsnr" v="141934" />
	</node>
	<node id="-779622" lat="70.0712111633" lon="29.9302928847">
		<tag k="name" v="Ylihaakinpäri" />
		<tag k="name:fkv" v="Ylihaakinpäri" />
		<tag k="natural" v="hill" />
		<tag k="place" v="locality" />
		<tag k="ssr:stedsnr" v="880410" />
	</node>
	<node id="-779108" lat="70.267013936" lon="30.2066233561">
		<tag k="fixme" v="consider natural=peak for the most distinct mountains in the district" />
		<tag k="name" v="Cavnnoaivi" />
		<tag k="name:se" v="Cavnnoaivi" />
		<tag k="natural" v="hill" />
		<tag k="old_name:se" v="Cavnoaivi" />
		<tag k="place" v="locality" />
		<tag k="ssr:stedsnr" v="141904" />
	</node>
	<node id="-779619" lat="70.0797028301" lon="29.9978317427">
		<tag k="name" v="Ugleberget" />
		<tag k="natural" v="hill" />
		<tag k="place" v="locality" />
		<tag k="ssr:stedsnr" v="880389" />
	</node>
	<node id="-779105" lat="70.1639111593" lon="29.8858901574">
		<tag k="name" v="Stabbursdalen" />
		<tag k="natural" v="valley" />
		<tag k="place" v="locality" />
		<tag k="ssr:stedsnr" v="141636" />
	</node>
	<node id="-779104" lat="70.1504417102" lon="29.6614041712">
		<tag k="fixme" v="consider natural=peak for the most distinct mountains in the district" />
		<tag k="loc_name:no" v="Dobbeltnasen" />
		<tag k="name" v="Dobbeltnasa - Doappalnjunni" />
		<tag k="name:no" v="Dobbeltnasa" />
		<tag k="name:se" v="Doappalnjunni" />
		<tag k="natural" v="hill" />
		<tag k="old_name:se" v="Doabbalnjunni" />
		<tag k="place" v="locality" />
		<tag k="ssr:stedsnr" v="141632" />
	</node>
	<node id="-779615" lat="70.077369491" lon="29.8772290196">
		<tag k="name" v="Aksla" />
		<tag k="natural" v="hill" />
		<tag k="place" v="locality" />
		<tag k="ssr:stedsnr" v="880261" />
	</node>
	<node id="-779614" lat="70.070313934" lon="29.8090540603">
		<tag k="alt_name" v="Høvetsbakken" />
		<tag k="name" v="Høvedsbakken" />
		<tag k="natural" v="slope" />
		<tag k="place" v="locality" />
		<tag k="ssr:stedsnr" v="880253" />
	</node>
	<node id="-779101" lat="70.1466750539" lon="30.2386510691">
		<tag k="fixme" v="consider natural=peak for the most distinct mountains in the district" />
		<tag k="name" v="Skallhalsen" />
		<tag k="natural" v="hill" />
		<tag k="place" v="locality" />
		<tag k="ssr:stedsnr" v="141564" />
	</node>
	<node id="-779100" lat="70.127516723" lon="30.1238761251">
		<tag k="name" v="Storskogkløfta" />
		<tag k="natural" v="valley" />
		<tag k="place" v="locality" />
		<tag k="ssr:stedsnr" v="141555" />
	</node>
	<node id="-778810" lat="70.1142222704" lon="30.109573347">
		<tag k="name" v="Øvre Siribakken" />
		<tag k="natural" v="slope" />
		<tag k="place" v="locality" />
		<tag k="ssr:stedsnr" v="271043" />
	</node>
	<node id="-779606" lat="70.2727278115" lon="29.4048765642">
		<tag k="fixme" v="consider natural=peak for the most distinct mountains in the district" />
		<tag k="name" v="Urdfjellet - Jiessavárri" />
		<tag k="name:no" v="Urdfjellet" />
		<tag k="name:se" v="Jiessavárri" />
		<tag k="natural" v="hill" />
		<tag k="old_name:se" v="Jiessavarri" />
		<tag k="place" v="locality" />
		<tag k="ssr:stedsnr" v="875982" />
	</node>
	<node id="-779605" lat="70.3277083745" lon="29.734423641">
		<tag k="fixme" v="consider natural=peak for the most distinct mountains in the district" />
		<tag k="name" v="Kjøltindan" />
		<tag k="natural" v="hill" />
		<tag k="place" v="locality" />
		<tag k="ssr:stedsnr" v="875770" />
	</node>
	<node id="-779090" lat="70.074966717" lon="29.9879345192">
		<tag k="name" v="Sandbakken - Hietamella" />
		<tag k="name:fkv" v="Hietamella" />
		<tag k="name:no" v="Sandbakken" />
		<tag k="natural" v="slope" />
		<tag k="old_name:fkv" v="Jedamella" />
		<tag k="place" v="locality" />
		<tag k="ssr:stedsnr" v="91623" />
	</node>
	<node id="-779601" lat="70.2543944831" lon="29.4875320733">
		<tag k="fixme" v="consider natural=peak for the most distinct mountains in the district" />
		<tag k="name" v="Stuorraboldni" />
		<tag k="name:se" v="Stuorraboldni" />
		<tag k="natural" v="hill" />
		<tag k="old_name:se" v="Stuorrabåldni" />
		<tag k="place" v="locality" />
		<tag k="ssr:stedsnr" v="870888" />
	</node>
	<node id="-779088" lat="70.0705778303" lon="30.1304344287">
		<tag k="name" v="Spelemannshammaren" />
		<tag k="natural" v="cliff" />
		<tag k="ssr:stedsnr" v="91569" />
	</node>
	<node id="-779599" lat="70.1605778225" lon="29.7968513181">
		<tag k="fixme" v="consider natural=peak for the most distinct mountains in the district" />
		<tag k="name" v="Nattfjellet - Idjaoaivi" />
		<tag k="name:no" v="Nattfjellet" />
		<tag k="name:se" v="Idjaoaivi" />
		<tag k="natural" v="hill" />
		<tag k="old_name:se" v="Iddjaoaivi" />
		<tag k="place" v="locality" />
		<tag k="ssr:stedsnr" v="870625" />
	</node>
	<node id="-779086" lat="70.071044501" lon="30.153926067">
		<tag k="name" v="Skagbakken" />
		<tag k="natural" v="slope" />
		<tag k="place" v="locality" />
		<tag k="ssr:stedsnr" v="91562" />
	</node>
	<node id="-779596" lat="70.1069861549" lon="29.5188764599">
		<tag k="alt_name" v="Makkefjell;Makkfjellet" />
		<tag k="fixme" v="consider natural=peak for the most distinct mountains in the district" />
		<tag k="name" v="Makkefjellet" />
		<tag k="natural" v="hill" />
		<tag k="place" v="locality" />
		<tag k="ssr:stedsnr" v="870598" />
	</node>
	<node id="-779083" lat="70.0863556103" lon="29.9421206484">
		<tag k="name" v="Reingårdshamran - Monstanriutta" />
		<tag k="name:fkv" v="Monstanriutta" />
		<tag k="name:no" v="Reingårdshamran" />
		<tag k="natural" v="slope" />
		<tag k="place" v="locality" />
		<tag k="ssr:stedsnr" v="91486" />
	</node>
	<node id="-779082" lat="70.0762722691" lon="29.9683817436">
		<tag k="name" v="Taipale" />
		<tag k="name:fkv" v="Taipale" />
		<tag k="natural" v="slope" />
		<tag k="place" v="locality" />
		<tag k="ssr:stedsnr" v="91464" />
	</node>
	<node id="-779593" lat="70.1255917248" lon="30.1601455353">
		<tag k="alt_name:no" v="Holmfjell" />
		<tag k="fixme" v="consider natural=peak for the most distinct mountains in the district" />
		<tag k="name" v="Holmfjellet - Suolovárri" />
		<tag k="name:no" v="Holmfjellet" />
		<tag k="name:se" v="Suolovárri" />
		<tag k="natural" v="hill" />
		<tag k="old_name:se" v="Suoluvarri" />
		<tag k="place" v="locality" />
		<tag k="ssr:stedsnr" v="870553" />
	</node>
	<node id="-779589" lat="70.0924611577" lon="29.7598791063">
		<tag k="fixme" v="consider natural=peak for the most distinct mountains in the district" />
		<tag k="name" v="Basis B" />
		<tag k="natural" v="hill" />
		<tag k="place" v="locality" />
		<tag k="ssr:stedsnr" v="870528" />
	</node>
	<node id="-779588" lat="70.0853750433" lon="29.7553790887">
		<tag k="alt_name" v="Glasberget" />
		<tag k="name" v="Glassberget" />
		<tag k="natural" v="hill" />
		<tag k="place" v="locality" />
		<tag k="ssr:stedsnr" v="870527" />
	</node>
	<node id="-779075" lat="70.1324472553" lon="29.2498349266">
		<tag k="name" v="Lille Rundhaug" />
		<tag k="natural" v="hill" />
		<tag k="place" v="locality" />
		<tag k="ssr:stedsnr" v="91101" />
	</node>
	<node id="-779586" lat="70.4474250346" lon="29.3154822205">
		<tag k="fixme" v="consider natural=peak for the most distinct mountains in the district" />
		<tag k="name" v="Rávdolčohkka" />
		<tag k="name:se" v="Rávdolčohkka" />
		<tag k="natural" v="hill" />
		<tag k="old_name:se" v="Ravdulčåkka" />
		<tag k="place" v="locality" />
		<tag k="ssr:stedsnr" v="869947" />
	</node>
	<node id="-779585" lat="70.4261750295" lon="29.2297266785">
		<tag k="fixme" v="consider natural=peak for the most distinct mountains in the district" />
		<tag k="name" v="Njukčanjunis" />
		<tag k="name:se" v="Njukčanjunis" />
		<tag k="natural" v="hill" />
		<tag k="place" v="locality" />
		<tag k="ssr:stedsnr" v="869937" />
	</node>
	<node id="-779584" lat="70.3905250363" lon="29.3180294234">
		<tag k="fixme" v="consider natural=peak for the most distinct mountains in the district" />
		<tag k="name" v="Njuvččanjunis" />
		<tag k="name:se" v="Njuvččanjunis" />
		<tag k="natural" v="hill" />
		<tag k="old_name:se" v="Njuvčanjunis" />
		<tag k="place" v="locality" />
		<tag k="ssr:stedsnr" v="869935" />
	</node>
	<node id="-779071" lat="70.1044917085" lon="29.4841597917">
		<tag k="fixme" v="consider natural=peak for the most distinct mountains in the district" />
		<tag k="name" v="Salen" />
		<tag k="natural" v="hill" />
		<tag k="place" v="locality" />
		<tag k="ssr:stedsnr" v="91024" />
	</node>
	<node id="-779582" lat="70.1782944966" lon="30.2944871621">
		<tag k="name" v="Sinisiikki" />
		<tag k="name:fkv" v="Sinisiikki" />
		<tag k="old_name:fkv" v="Sinsigi" />
		<tag k="place" v="locality" />
		<tag k="ssr:stedsnr" v="869584" />
	</node>
	<node id="-779067" lat="70.2657305936" lon="29.5511542684">
		<tag k="fixme" v="consider natural=peak for the most distinct mountains in the district" />
		<tag k="name" v="Márgarehtaboldni" />
		<tag k="name:se" v="Márgarehtaboldni" />
		<tag k="natural" v="hill" />
		<tag k="old_name:se" v="Magarettabåldni" />
		<tag k="place" v="locality" />
		<tag k="ssr:stedsnr" v="81904" />
	</node>
	<node id="-779066" lat="70.1755500372" lon="29.4885292652">
		<tag k="fixme" v="consider natural=peak for the most distinct mountains in the district" />
		<tag k="name" v="Várjjoaivi" />
		<tag k="name:se" v="Várjjoaivi" />
		<tag k="natural" v="hill" />
		<tag k="old_name:se" v="Varjoaivi" />
		<tag k="place" v="locality" />
		<tag k="ssr:stedsnr" v="81647" />
	</node>
	<node id="-779065" lat="70.1197722653" lon="29.5942875225">
		<tag k="name" v="Brynhaugen - Goahtesaičorru" />
		<tag k="name:no" v="Brynhaugen" />
		<tag k="name:se" v="Goahtesaičorru" />
		<tag k="natural" v="hill" />
		<tag k="old_name:se" v="Goattesajčårro" />
		<tag k="place" v="locality" />
		<tag k="ssr:stedsnr" v="81634" />
	</node>
	<node id="-779574" lat="70.127688944" lon="30.2572704913">
		<tag k="name" v="Falkelvhøgda" />
		<tag k="natural" v="hill" />
		<tag k="place" v="locality" />
		<tag k="ssr:stedsnr" v="819744" />
	</node>
	<node id="-779061" lat="70.2024528158" lon="29.5632264641">
		<tag k="name" v="Vargelvskardet" />
		<tag k="natural" v="valley" />
		<tag k="place" v="locality" />
		<tag k="ssr:stedsnr" v="81589" />
	</node>
	<node id="-779060" lat="70.1977111501" lon="29.4214654262">
		<tag k="fixme" v="consider natural=peak for the most distinct mountains in the district" />
		<tag k="name" v="Flintnasa" />
		<tag k="natural" v="hill" />
		<tag k="place" v="locality" />
		<tag k="ssr:stedsnr" v="81586" />
	</node>
	<node id="-779570" lat="70.0753111647" lon="30.0424678047">
		<tag k="name" v="Golneshalsen" />
		<tag k="natural" v="hill" />
		<tag k="place" v="locality" />
		<tag k="ssr:stedsnr" v="819608" />
	</node>
	<node id="-779569" lat="70.0704861643" lon="30.1238927713">
		<tag k="name" v="Flågan" />
		<tag k="natural" v="cliff" />
		<tag k="ssr:stedsnr" v="819569" />
	</node>
	<node id="-779055" lat="70.387775029" lon="29.2203766744">
		<tag k="name" v="Stáloboldni" />
		<tag k="name:se" v="Stáloboldni" />
		<tag k="natural" v="hill" />
		<tag k="old_name:se" v="Stalubåldni" />
		<tag k="place" v="locality" />
		<tag k="ssr:stedsnr" v="80946" />
	</node>
	<node id="-778856" lat="70.1251083808" lon="29.8707235023">
		<tag k="fixme" v="consider natural=peak for the most distinct mountains in the district" />
		<tag k="name" v="Gammerabben" />
		<tag k="natural" v="hill" />
		<tag k="place" v="locality" />
		<tag k="ssr:stedsnr" v="323622" />
	</node>
	<node id="-779565" lat="70.0748722697" lon="29.9407317548">
		<tag k="name" v="Kettupäri" />
		<tag k="name:fkv" v="Kettupäri" />
		<tag k="natural" v="hill" />
		<tag k="place" v="locality" />
		<tag k="ssr:stedsnr" v="819444" />
	</node>
	<node id="-779052" lat="70.2483361517" lon="29.3560543479">
		<tag k="name" v="Borjjasgurra" />
		<tag k="name:se" v="Borjjasgurra" />
		<tag k="natural" v="valley" />
		<tag k="old_name:se" v="Bårjasgurra" />
		<tag k="place" v="locality" />
		<tag k="ssr:stedsnr" v="80703" />
	</node>
	<node id="-779562" lat="70.1099444958" lon="29.8411790659">
		<tag k="name" v="Itkukuru" />
		<tag k="name:fkv" v="Itkukuru" />
		<tag k="natural" v="valley" />
		<tag k="place" v="locality" />
		<tag k="ssr:stedsnr" v="819338" />
	</node>
	<node id="-779048" lat="70.0668917206" lon="29.9179734401">
		<tag k="alt_name" v="Høivikhaugen" />
		<tag k="name" v="Høyvikhaugen" />
		<tag k="natural" v="hill" />
		<tag k="place" v="locality" />
		<tag k="ssr:stedsnr" v="80530" />
	</node>
	<node id="-779044" lat="70.0973750429" lon="29.416065378">
		<tag k="name" v="Paddebyhaugen" />
		<tag k="natural" v="hill" />
		<tag k="place" v="locality" />
		<tag k="ssr:stedsnr" v="30994" />
	</node>
	<node id="-779162" lat="70.3124111536" lon="29.984545734">
		<tag k="fixme" v="consider natural=peak for the most distinct mountains in the district" />
		<tag k="name" v="Gaskkamus Ruitu" />
		<tag k="name:se" v="Gaskkamus Ruitu" />
		<tag k="natural" v="hill" />
		<tag k="old_name:se" v="Ruito, gaskamuš" />
		<tag k="place" v="locality" />
		<tag k="ssr:stedsnr" v="202921" />
	</node>
	<node id="-778855" lat="70.0976833813" lon="29.5696375247">
		<tag k="name" v="Bårdslettberget" />
		<tag k="natural" v="hill" />
		<tag k="place" v="locality" />
		<tag k="ssr:stedsnr" v="323615" />
	</node>
	<node id="-779550" lat="70.1214667046" lon="29.261773811">
		<tag k="name" v="Fannebákti" />
		<tag k="name:se" v="Fannebákti" />
		<tag k="natural" v="hill" />
		<tag k="place" v="locality" />
		<tag k="ssr:stedsnr" v="819100" />
	</node>
	<node id="-779549" lat="70.0977778204" lon="29.6715152473">
		<tag k="name" v="Basis A-bakken" />
		<tag k="natural" v="slope" />
		<tag k="place" v="locality" />
		<tag k="ssr:stedsnr" v="819003" />
	</node>
	<node id="-779548" lat="70.0935750463" lon="29.7170402342">
		<tag k="name" v="Sandhaugen" />
		<tag k="natural" v="hill" />
		<tag k="place" v="locality" />
		<tag k="ssr:stedsnr" v="819002" />
	</node>
	<node id="-779546" lat="70.1845750435" lon="29.8346902119">
		<tag k="fixme" v="consider natural=peak for the most distinct mountains in the district" />
		<tag k="name" v="Steinfjellet - Riddočearru" />
		<tag k="name:no" v="Steinfjellet" />
		<tag k="name:se" v="Riddočearru" />
		<tag k="natural" v="hill" />
		<tag k="old_name:se" v="Riddučærro;Riddučearru" />
		<tag k="place" v="locality" />
		<tag k="ssr:stedsnr" v="815520" />
	</node>
	<node id="-779545" lat="70.1345917027" lon="29.3754737428">
		<tag k="fixme" v="consider natural=peak for the most distinct mountains in the district" />
		<tag k="name" v="Solvarden - Suolovárri" />
		<tag k="name:no" v="Solvarden" />
		<tag k="name:se" v="Suolovárri" />
		<tag k="natural" v="hill" />
		<tag k="old_name:se" v="Suoluvarri" />
		<tag k="place" v="locality" />
		<tag k="ssr:stedsnr" v="813393" />
	</node>
	<node id="-779543" lat="70.1562833799" lon="29.7594763579">
		<tag k="fixme" v="consider natural=peak for the most distinct mountains in the district" />
		<tag k="name" v="Lovttašvárri" />
		<tag k="name:se" v="Lovttašvárri" />
		<tag k="natural" v="hill" />
		<tag k="old_name:se" v="Låvtašvarri" />
		<tag k="place" v="locality" />
		<tag k="ssr:stedsnr" v="809653" />
	</node>
	<node id="-779030" lat="70.0706139354" lon="29.7956235183">
		<tag k="name" v="Paavobakken" />
		<tag k="natural" v="slope" />
		<tag k="place" v="locality" />
		<tag k="ssr:stedsnr" v="30279" />
	</node>
	<node id="-779540" lat="70.1006806064" lon="29.7105930088">
		<tag k="alt_name" v="Klippeskardet" />
		<tag k="name" v="Klippeskaret" />
		<tag k="natural" v="valley" />
		<tag k="place" v="locality" />
		<tag k="ssr:stedsnr" v="809630" />
	</node>
	<node id="-779539" lat="70.2196555902" lon="29.4732654029">
		<tag k="fixme" v="consider natural=peak for the most distinct mountains in the district" />
		<tag k="name" v="Fárppaloaivi" />
		<tag k="name:se" v="Fárppaloaivi" />
		<tag k="natural" v="hill" />
		<tag k="old_name:se" v="Farpaloaivi" />
		<tag k="place" v="locality" />
		<tag k="ssr:stedsnr" v="809598" />
	</node>
	<node id="-779026" lat="70.0631000514" lon="29.8248596011">
		<tag k="name" v="Flågan" />
		<tag k="natural" v="hill" />
		<tag k="place" v="locality" />
		<tag k="ssr:stedsnr" v="30314" />
	</node>
	<node id="-779395" lat="70.0687833827" lon="29.9669428494">
		<tag k="name" v="Saunabakken" />
		<tag k="natural" v="slope" />
		<tag k="place" v="locality" />
		<tag k="ssr:stedsnr" v="636438" />
	</node>
	<node id="-779535" lat="70.1331361624" lon="30.2795621433">
		<tag k="name" v="Urnesdalen" />
		<tag k="natural" v="valley" />
		<tag k="place" v="locality" />
		<tag k="ssr:stedsnr" v="809565" />
	</node>
	<node id="-779053" lat="70.1776694878" lon="29.5233125913">
		<tag k="alt_name" v="Gjelhaugan" />
		<tag k="fixme" v="consider natural=peak for the most distinct mountains in the district" />
		<tag k="name" v="Gjelhaugane" />
		<tag k="natural" v="hill" />
		<tag k="place" v="locality" />
		<tag k="ssr:stedsnr" v="80735" />
	</node>
	<node id="-779019" lat="70.1005583744" lon="29.6195763951">
		<tag k="name" v="Kroken" />
		<tag k="natural" v="slope" />
		<tag k="place" v="locality" />
		<tag k="ssr:stedsnr" v="30047" />
	</node>
	<node id="-779018" lat="70.1657805936" lon="29.2838238028">
		<tag k="name" v="Lehtipäri" />
		<tag k="name:fkv" v="Lehtipäri" />
		<tag k="natural" v="slope" />
		<tag k="place" v="locality" />
		<tag k="ssr:stedsnr" v="30022" />
	</node>
	<node id="-779528" lat="70.1356250412" lon="29.2346127066">
		<tag k="alt_name" v="Skittenelvdalen" />
		<tag k="name" v="Skitenelvdalen" />
		<tag k="natural" v="valley" />
		<tag k="place" v="locality" />
		<tag k="ssr:stedsnr" v="808619" />
	</node>
	<node id="-779015" lat="70.0971639342" lon="29.5733403199">
		<tag k="name" v="Bårdsletta" />
		<tag k="place" v="locality" />
		<tag k="ssr:stedsnr" v="30012" />
	</node>
	<node id="-779013" lat="70.1324139422" lon="30.1041650214">
		<tag k="name" v="Johan Abrahamrabben" />
		<tag k="place" v="locality" />
		<tag k="ssr:stedsnr" v="28907" />
	</node>
	<node id="-779007" lat="70.1281944955" lon="30.3099510039">
		<tag k="name" v="Moe-berget" />
		<tag k="natural" v="hill" />
		<tag k="place" v="locality" />
		<tag k="ssr:stedsnr" v="25292" />
	</node>
	<node id="-779517" lat="70.1219306133" lon="30.2614843635">
		<tag k="name" v="Prekestolen" />
		<tag k="natural" v="hill" />
		<tag k="place" v="locality" />
		<tag k="ssr:stedsnr" v="758728" />
	</node>
	<node id="-779515" lat="70.2132528302" lon="30.3686121086">
		<tag k="name" v="Tavijoken-kuru" />
		<tag k="name:fkv" v="Tavijoken-kuru" />
		<tag k="natural" v="valley" />
		<tag k="place" v="locality" />
		<tag k="ssr:stedsnr" v="758688" />
	</node>
	<node id="-779514" lat="70.0672694917" lon="29.9833817384">
		<tag k="name" v="Pelikallio" />
		<tag k="name:fkv" v="Pelikallio" />
		<tag k="natural" v="cliff" />
		<tag k="ssr:stedsnr" v="758634" />
	</node>
	<node id="-779513" lat="70.0798000538" lon="30.0587900373">
		<tag k="name" v="Reinfarsletta" />
		<tag k="place" v="locality" />
		<tag k="ssr:stedsnr" v="758617" />
	</node>
	<node id="-778999" lat="70.1846389283" lon="29.2901821458">
		<tag k="name" v="Flintelvdalen" />
		<tag k="natural" v="valley" />
		<tag k="place" v="locality" />
		<tag k="ssr:stedsnr" v="19747" />
	</node>
	<node id="-779510" lat="70.0889639397" lon="30.010256733">
		<tag k="fixme" v="consider natural=peak for the most distinct mountains in the district" />
		<tag k="name" v="Monsta" />
		<tag k="natural" v="hill" />
		<tag k="place" v="locality" />
		<tag k="ssr:stedsnr" v="758436" />
	</node>
	<node id="-778996" lat="70.1037889262" lon="29.3511404089">
		<tag k="name" v="Torvhaugen" />
		<tag k="natural" v="hill" />
		<tag k="place" v="locality" />
		<tag k="ssr:stedsnr" v="19657" />
	</node>
	<node id="-779507" lat="70.1067361556" lon="29.8177040718">
		<tag k="name" v="Lille Torsvarden" />
		<tag k="natural" v="hill" />
		<tag k="place" v="locality" />
		<tag k="ssr:stedsnr" v="758326" />
	</node>
	<node id="-779506" lat="70.0729917183" lon="29.8585984737">
		<tag k="name" v="Øvre Ingersbergan" />
		<tag k="natural" v="hill" />
		<tag k="place" v="locality" />
		<tag k="ssr:stedsnr" v="758313" />
	</node>
	<node id="-779505" lat="70.0901361534" lon="29.7944874143">
		<tag k="name" v="Kråkeberget" />
		<tag k="natural" v="hill" />
		<tag k="place" v="locality" />
		<tag k="ssr:stedsnr" v="758266" />
	</node>
	<node id="-778877" lat="70.1549528142" lon="29.4149459575">
		<tag k="name" v="Falkevannshompen" />
		<tag k="natural" v="hill" />
		<tag k="place" v="locality" />
		<tag k="ssr:stedsnr" v="333955" />
	</node>
	<node id="-778857" lat="70.1195111489" lon="29.4359376065">
		<tag k="fixme" v="consider natural=peak for the most distinct mountains in the district" />
		<tag k="name" v="Guovlloaivi" />
		<tag k="name:se" v="Guovlloaivi" />
		<tag k="natural" v="hill" />
		<tag k="old_name:se" v="Guovloaivi, l" />
		<tag k="place" v="locality" />
		<tag k="ssr:stedsnr" v="323625" />
	</node>
	<node id="-779494" lat="70.3151167083" lon="29.931076311">
		<tag k="fixme" v="consider natural=peak for the most distinct mountains in the district" />
		<tag k="name" v="Uhcit Ruitu" />
		<tag k="name:se" v="Uhcit Ruitu" />
		<tag k="natural" v="hill" />
		<tag k="old_name:se" v="Ruito, uccit" />
		<tag k="place" v="locality" />
		<tag k="ssr:stedsnr" v="748917" />
	</node>
	<node id="-779493" lat="70.1712250381" lon="29.5701097822">
		<tag k="fixme" v="consider natural=peak for the most distinct mountains in the district" />
		<tag k="name" v="Nissoláhttenvárri" />
		<tag k="name:se" v="Nissoláhttenvárri" />
		<tag k="natural" v="hill" />
		<tag k="old_name:se" v="Nissulattenvarri" />
		<tag k="place" v="locality" />
		<tag k="ssr:stedsnr" v="748643" />
	</node>
	<node id="-779490" lat="70.1084194909" lon="29.7122096906">
		<tag k="name" v="Svanevasshøgda" />
		<tag k="natural" v="hill" />
		<tag k="place" v="locality" />
		<tag k="ssr:stedsnr" v="748626" />
	</node>
	<node id="-778969" lat="70.0676750525" lon="29.9837817231">
		<tag k="name" v="Oterberget - Saukkokallio" />
		<tag k="name:fkv" v="Saukkokallio" />
		<tag k="name:no" v="Oterberget" />
		<tag k="natural" v="hill" />
		<tag k="place" v="locality" />
		<tag k="ssr:stedsnr" v="394592" />
	</node>
	<node id="-779480" lat="70.2021389378" lon="30.2999927109">
		<tag k="name" v="Maanlaita" />
		<tag k="name:fkv" v="Maanlaita" />
		<tag k="old_name:fkv" v="Malaida" />
		<tag k="place" v="locality" />
		<tag k="ssr:stedsnr" v="748517" />
	</node>
	<node id="-779479" lat="70.1926333666" lon="29.3740237801">
		<tag k="fixme" v="consider natural=peak for the most distinct mountains in the district" />
		<tag k="name" v="Høyelvfjellet" />
		<tag k="natural" v="hill" />
		<tag k="place" v="locality" />
		<tag k="ssr:stedsnr" v="747742" />
	</node>
	<node id="-779477" lat="70.1159167048" lon="29.3966237425">
		<tag k="fixme" v="consider natural=peak for the most distinct mountains in the district" />
		<tag k="name" v="Čuđđevárri" />
		<tag k="name:se" v="Čuđđevárri" />
		<tag k="natural" v="hill" />
		<tag k="old_name:se" v="Čuđđevarri" />
		<tag k="place" v="locality" />
		<tag k="ssr:stedsnr" v="747665" />
	</node>
	<node id="-779476" lat="70.1296389295" lon="29.3270265648">
		<tag k="alt_name:no" v="Lortskardet" />
		<tag k="name" v="Lortskaret - Rapakuru" />
		<tag k="name:fkv" v="Rapakuru" />
		<tag k="name:no" v="Lortskaret" />
		<tag k="natural" v="valley" />
		<tag k="place" v="locality" />
		<tag k="ssr:stedsnr" v="747626" />
	</node>
	<node id="-778958" lat="70.0976778297" lon="30.0263039529">
		<tag k="name" v="Vuopajanpäri" />
		<tag k="name:fkv" v="Vuopajanpäri" />
		<tag k="natural" v="hill" />
		<tag k="place" v="locality" />
		<tag k="ssr:stedsnr" v="394406" />
	</node>
	<node id="-778962" lat="70.0794444947" lon="29.9709400923">
		<tag k="name" v="Lille Monsta" />
		<tag k="place" v="locality" />
		<tag k="ssr:stedsnr" v="394481" />
	</node>
	<node id="-778960" lat="70.0693917166" lon="29.9524011972">
		<tag k="name" v="Siljamaa" />
		<tag k="name:fkv" v="Siljamaa" />
		<tag k="place" v="locality" />
		<tag k="ssr:stedsnr" v="394440" />
	</node>
	<node id="-778872" lat="70.1315028201" lon="29.3478932164">
		<tag k="name" v="Felleskuru" />
		<tag k="natural" v="valley" />
		<tag k="place" v="locality" />
		<tag k="ssr:stedsnr" v="333085" />
	</node>
	<node id="-779470" lat="70.1147139297" lon="29.1989627124">
		<tag k="alt_name:se" v="Murggiid" />
		<tag k="name" v="Murgget" />
		<tag k="name:se" v="Murgget" />
		<tag k="natural" v="hill" />
		<tag k="old_name:se" v="Murget" />
		<tag k="place" v="locality" />
		<tag k="ssr:stedsnr" v="716388" />
	</node>
	<node id="-779469" lat="70.0999722616" lon="29.5140458958">
		<tag k="name" v="Karelinkuru" />
		<tag k="name:fkv" v="Karelinkuru" />
		<tag k="natural" v="valley" />
		<tag k="place" v="locality" />
		<tag k="ssr:stedsnr" v="698987" />
	</node>
	<node id="-778956" lat="70.0739000489" lon="29.8001179609">
		<tag k="name" v="Lomakkaberget" />
		<tag k="natural" v="hill" />
		<tag k="place" v="locality" />
		<tag k="ssr:stedsnr" v="394260" />
	</node>
	<node id="-779142" lat="70.0713139371" lon="30.0109872747">
		<tag k="name" v="Lille Salttjern-halsen" />
		<tag k="natural" v="hill" />
		<tag k="place" v="locality" />
		<tag k="ssr:stedsnr" v="151595" />
	</node>
	<node id="-779465" lat="70.1373833878" lon="30.3397009948">
		<tag k="name" v="Lohikallio" />
		<tag k="name:fkv" v="Lohikallio" />
		<tag k="natural" v="hill" />
		<tag k="place" v="locality" />
		<tag k="ssr:stedsnr" v="698691" />
	</node>
	<node id="-778951" lat="70.1435778173" lon="29.3287015608">
		<tag k="name" v="Smørbakken" />
		<tag k="natural" v="slope" />
		<tag k="place" v="locality" />
		<tag k="ssr:stedsnr" v="394089" />
	</node>
	<node id="-779462" lat="70.0728056082" lon="29.9760456398">
		<tag k="name" v="Takanjänkänpäri" />
		<tag k="name:fkv" v="Takanjänkänpäri" />
		<tag k="natural" v="hill" />
		<tag k="place" v="locality" />
		<tag k="ssr:stedsnr" v="698585" />
	</node>
	<node id="-779457" lat="70.0899806083" lon="29.958517874">
		<tag k="name" v="Monsta" />
		<tag k="natural" v="ridge" />
		<tag k="place" v="locality" />
		<tag k="ssr:stedsnr" v="698410" />
	</node>
	<node id="-779456" lat="70.0712528334" lon="29.9684289626">
		<tag k="name" v="Jänespäri" />
		<tag k="name:fkv" v="Jänespäri" />
		<tag k="natural" v="hill" />
		<tag k="place" v="locality" />
		<tag k="ssr:stedsnr" v="698404" />
	</node>
	<node id="-779453" lat="70.1133083782" lon="29.8799762686">
		<tag k="name" v="Kolmikanta" />
		<tag k="name:fkv" v="Kolmikanta" />
		<tag k="natural" v="slope" />
		<tag k="place" v="locality" />
		<tag k="ssr:stedsnr" v="698278" />
	</node>
	<node id="-779452" lat="70.0673667179" lon="29.8584818126">
		<tag k="name" v="Ingersbergan" />
		<tag k="natural" v="hill" />
		<tag k="place" v="locality" />
		<tag k="ssr:stedsnr" v="698240" />
	</node>
	<node id="-779446" lat="70.1369194833" lon="29.3191904461">
		<tag k="name" v="Fossenakken" />
		<tag k="natural" v="hill" />
		<tag k="place" v="locality" />
		<tag k="ssr:stedsnr" v="697122" />
	</node>
	<node id="-779439" lat="70.1279000499" lon="30.2446316063">
		<tag k="name" v="Falkelvdalen" />
		<tag k="natural" v="valley" />
		<tag k="place" v="locality" />
		<tag k="ssr:stedsnr" v="695884" />
	</node>
	<node id="-779437" lat="70.1406306006" lon="29.6996791393">
		<tag k="name" v="Doappalávži" />
		<tag k="name:se" v="Doappalávži" />
		<tag k="natural" v="valley" />
		<tag k="old_name:se" v="Doabbalavži" />
		<tag k="place" v="locality" />
		<tag k="ssr:stedsnr" v="688625" />
	</node>
	<node id="-779436" lat="70.113527824" lon="29.6730819328">
		<tag k="name" v="Silstadhaugen" />
		<tag k="natural" v="hill" />
		<tag k="place" v="locality" />
		<tag k="ssr:stedsnr" v="688612" />
	</node>
	<node id="-779435" lat="70.0964583826" lon="29.8200734971">
		<tag k="fixme" v="consider natural=peak for the most distinct mountains in the district" />
		<tag k="name" v="Torsvarden - Doaresvárri" />
		<tag k="name:no" v="Torsvarden" />
		<tag k="name:se" v="Doaresvárri" />
		<tag k="natural" v="hill" />
		<tag k="old_name:se" v="Doaresvarri" />
		<tag k="place" v="locality" />
		<tag k="ssr:stedsnr" v="688606" />
	</node>
	<node id="-779433" lat="70.3965778082" lon="29.1322933904">
		<tag k="fixme" v="consider natural=peak for the most distinct mountains in the district" />
		<tag k="name" v="Šáikkastanoaivi" />
		<tag k="name:se" v="Šáikkastanoaivi" />
		<tag k="natural" v="hill" />
		<tag k="old_name:se" v="Šaikastanoaivi" />
		<tag k="place" v="locality" />
		<tag k="ssr:stedsnr" v="687933" />
	</node>
	<node id="-779432" lat="70.1234278172" lon="29.3057098936">
		<tag k="name" v="Storbakken" />
		<tag k="natural" v="slope" />
		<tag k="place" v="locality" />
		<tag k="ssr:stedsnr" v="687639" />
	</node>
	<node id="-778821" lat="70.0695611594" lon="29.9442956377">
		<tag k="name" v="Alihaaki" />
		<tag k="name:fkv" v="Alihaaki" />
		<tag k="natural" v="slope" />
		<tag k="place" v="locality" />
		<tag k="ssr:stedsnr" v="273422" />
	</node>
	<node id="-778913" lat="70.2647833831" lon="30.1805539169">
		<tag k="fixme" v="consider natural=peak for the most distinct mountains in the district" />
		<tag k="name" v="Devja" />
		<tag k="name:se" v="Devja" />
		<tag k="natural" v="hill" />
		<tag k="place" v="locality" />
		<tag k="ssr:stedsnr" v="383937" />
	</node>
	<node id="-779420" lat="70.1297056102" lon="30.2578621523">
		<tag k="name" v="Lille-Urnesdalen" />
		<tag k="natural" v="valley" />
		<tag k="place" v="locality" />
		<tag k="ssr:stedsnr" v="687530" />
	</node>
	<node id="-779419" lat="70.0800500461" lon="29.7026013478">
		<tag k="name" v="Vegsletta" />
		<tag k="place" v="locality" />
		<tag k="ssr:stedsnr" v="687525" />
	</node>
	<node id="-778906" lat="70.1220583748" lon="29.2144043778">
		<tag k="alt_name" v="Klubbfjell" />
		<tag k="fixme" v="consider natural=peak for the most distinct mountains in the district" />
		<tag k="name" v="Klubbfjellet" />
		<tag k="natural" v="hill" />
		<tag k="place" v="locality" />
		<tag k="ssr:stedsnr" v="383643" />
	</node>
	<node id="-779416" lat="70.2207139377" lon="30.2350094397">
		<tag k="fixme" v="consider natural=peak for the most distinct mountains in the district" />
		<tag k="name" v="Holmfjellet - Suolovárri" />
		<tag k="name:no" v="Holmfjellet" />
		<tag k="name:se" v="Suolovárri" />
		<tag k="natural" v="hill" />
		<tag k="old_name:se" v="Suoluvarri" />
		<tag k="place" v="locality" />
		<tag k="ssr:stedsnr" v="687493" />
	</node>
	<node id="-779414" lat="70.1885222559" lon="29.2408988233">
		<tag k="fixme" v="consider natural=peak for the most distinct mountains in the district" />
		<tag k="name" v="Aaltonen" />
		<tag k="name:fkv" v="Aaltonen" />
		<tag k="natural" v="hill" />
		<tag k="old_name:fkv" v="Aldonen" />
		<tag k="place" v="locality" />
		<tag k="ssr:stedsnr" v="686733" />
	</node>
	<node id="-779412" lat="70.1082722741" lon="30.1819205171">
		<tag k="name" v="Raet" />
		<tag k="natural" v="ridge" />
		<tag k="place" v="locality" />
		<tag k="ssr:stedsnr" v="637748" />
	</node>
	<node id="-779630" lat="70.1898000541" lon="30.3296537889">
		<tag k="name" v="Raet" />
		<tag k="natural" v="ridge" />
		<tag k="place" v="locality" />
		<tag k="ssr:stedsnr" v="880670" />
	</node>
	<node id="-779409" lat="70.1366333881" lon="30.3192232218">
		<tag k="name" v="Skallnesbergan" />
		<tag k="natural" v="hill" />
		<tag k="place" v="locality" />
		<tag k="ssr:stedsnr" v="637714" />
	</node>
	<node id="-779408" lat="70.1978861639" lon="30.2761927299">
		<tag k="name" v="Tilleri" />
		<tag k="name:fkv" v="Tilleri" />
		<tag k="old_name:fkv" v="Dilleri" />
		<tag k="place" v="locality" />
		<tag k="ssr:stedsnr" v="637682" />
	</node>
	<node id="-779406" lat="70.1027528273" lon="30.1350538776">
		<tag k="name" v="Storelvbakken" />
		<tag k="natural" v="slope" />
		<tag k="place" v="locality" />
		<tag k="ssr:stedsnr" v="637555" />
	</node>
	<node id="-779405" lat="70.0840417156" lon="29.9642261941">
		<tag k="name" v="Valen - Kaulanne" />
		<tag k="name:fkv" v="Kaulanne" />
		<tag k="name:no" v="Valen" />
		<tag k="old_name:fkv" v="Kaulanen" />
		<tag k="place" v="locality" />
		<tag k="ssr:stedsnr" v="637487" />
	</node>
	<node id="-779403" lat="70.0636278271" lon="29.8379234857">
		<tag k="name" v="Storebakken" />
		<tag k="natural" v="slope" />
		<tag k="place" v="locality" />
		<tag k="ssr:stedsnr" v="637321" />
	</node>
	<node id="-779399" lat="70.0654528268" lon="29.953445631">
		<tag k="name" v="Sonninhinkalo" />
		<tag k="name:fkv" v="Sonninhinkalo" />
		<tag k="natural" v="hill" />
		<tag k="place" v="locality" />
		<tag k="ssr:stedsnr" v="636641" />
	</node>
	<node id="-778945" lat="70.1019305982" lon="29.6225680579">
		<tag k="alt_name" v="Bergelvskaret" />
		<tag k="name" v="Andersbyskaret" />
		<tag k="natural" v="valley" />
		<tag k="place" v="locality" />
		<tag k="ssr:stedsnr" v="394009" />
	</node>
	<node id="-778884" lat="70.1197444952" lon="29.9705484289">
		<tag k="name" v="Brannsletta" />
		<tag k="place" v="locality" />
		<tag k="ssr:stedsnr" v="334276" />
	</node>
	<node id="-778883" lat="70.1022417173" lon="29.9466428974">
		<tag k="name" v="Storsletta" />
		<tag k="place" v="locality" />
		<tag k="ssr:stedsnr" v="334272" />
	</node>
	<node id="-779394" lat="70.0811389454" lon="30.0498511479">
		<tag k="fixme" v="consider natural=peak for the most distinct mountains in the district" />
		<tag k="name" v="Aksla" />
		<tag k="natural" v="hill" />
		<tag k="place" v="locality" />
		<tag k="ssr:stedsnr" v="636417" />
	</node>
	<node id="-779389" lat="70.1176250397" lon="29.2498599193">
		<tag k="name" v="Dážabákti" />
		<tag k="name:se" v="Dážabákti" />
		<tag k="natural" v="hill" />
		<tag k="place" v="locality" />
		<tag k="ssr:stedsnr" v="636101" />
	</node>
	<node id="-779387" lat="70.1085889376" lon="29.6969707966">
		<tag k="name" v="Tvillingan" />
		<tag k="natural" v="hill" />
		<tag k="place" v="locality" />
		<tag k="ssr:stedsnr" v="636032" />
	</node>
	<node id="-779384" lat="70.2818389255" lon="29.6465625628">
		<tag k="fixme" v="consider natural=peak for the most distinct mountains in the district" />
		<tag k="name" v="Midthaugen - Guovdoaivi" />
		<tag k="name:no" v="Midthaugen" />
		<tag k="name:se" v="Guovdoaivi" />
		<tag k="natural" v="hill" />
		<tag k="place" v="locality" />
		<tag k="ssr:stedsnr" v="626919" />
	</node>
	<node id="-779028" lat="70.1057639363" lon="29.850067953">
		<tag k="name" v="Maanlaita" />
		<tag k="name:fkv" v="Maanlaita" />
		<tag k="natural" v="slope" />
		<tag k="place" v="locality" />
		<tag k="ssr:stedsnr" v="30322" />
	</node>
	<node id="-778869" lat="70.1096972731" lon="30.1048872251">
		<tag k="name" v="Nedre Siribakken" />
		<tag k="natural" v="slope" />
		<tag k="place" v="locality" />
		<tag k="ssr:stedsnr" v="331034" />
	</node>
	<node id="-779463" lat="70.2060222746" lon="30.3720676637">
		<tag k="name" v="Ulkoranta" />
		<tag k="name:fkv" v="Ulkoranta" />
		<tag k="place" v="locality" />
		<tag k="ssr:stedsnr" v="698646" />
	</node>
	<node id="-779378" lat="70.1834444802" lon="29.5308486958">
		<tag k="fixme" v="consider natural=peak for the most distinct mountains in the district" />
		<tag k="name" v="Gunnesaioaivi" />
		<tag k="name:se" v="Gunnesaioaivi" />
		<tag k="natural" v="hill" />
		<tag k="old_name:se" v="Gunnesajoaivi" />
		<tag k="place" v="locality" />
		<tag k="ssr:stedsnr" v="626597" />
	</node>
	<node id="-779375" lat="70.115897277" lon="30.125173347">
		<tag k="alt_name" v="Richardsletta" />
		<tag k="name" v="Rikardsletta" />
		<tag k="place" v="locality" />
		<tag k="ssr:stedsnr" v="626556" />
	</node>
	<node id="-778862" lat="70.1326667054" lon="29.2336877042">
		<tag k="name" v="Rundhaug" />
		<tag k="natural" v="hill" />
		<tag k="place" v="locality" />
		<tag k="ssr:stedsnr" v="323643" />
	</node>
	<node id="-779373" lat="70.2419139242" lon="29.2877404893">
		<tag k="fixme" v="consider natural=peak for the most distinct mountains in the district" />
		<tag k="name" v="Skjøthaugen - Vuolit Goaivebeaski" />
		<tag k="name:no" v="Skjøthaugen" />
		<tag k="name:se" v="Vuolit Goaivebeaski" />
		<tag k="natural" v="hill" />
		<tag k="old_name:se" v="Goaivebæski, vuolit" />
		<tag k="place" v="locality" />
		<tag k="ssr:stedsnr" v="625707" />
	</node>
	<node id="-778860" lat="70.1402278262" lon="29.9595651219">
		<tag k="name" v="Sabelhaugen" />
		<tag k="natural" v="hill" />
		<tag k="place" v="locality" />
		<tag k="ssr:stedsnr" v="323629" />
	</node>
	<node id="-778957" lat="70.0722528251" lon="29.8845456822">
		<tag k="name" v="Måsetua" />
		<tag k="natural" v="hill" />
		<tag k="place" v="locality" />
		<tag k="ssr:stedsnr" v="394268" />
	</node>
	<node id="-778866" lat="70.2867917101" lon="29.7074375442">
		<tag k="name" v="Midtdalen - Stuorra Guovdavággi" />
		<tag k="name:no" v="Midtdalen" />
		<tag k="name:se" v="Stuorra Guovdavággi" />
		<tag k="natural" v="valley" />
		<tag k="old_name:se" v="Guovdavaggi, stuorra" />
		<tag k="place" v="locality" />
		<tag k="ssr:stedsnr" v="323913" />
	</node>
	<node id="-779369" lat="70.1076972749" lon="30.1934871721">
		<tag k="name" v="Haugen" />
		<tag k="natural" v="hill" />
		<tag k="place" v="locality" />
		<tag k="ssr:stedsnr" v="576758" />
	</node>
	<node id="-779368" lat="70.2042639377" lon="30.1827455626">
		<tag k="name" v="Brentsletta" />
		<tag k="place" v="locality" />
		<tag k="ssr:stedsnr" v="576753" />
	</node>
	<node id="-779367" lat="70.1218389468" lon="30.2378288356">
		<tag k="name" v="Flåget" />
		<tag k="natural" v="hill" />
		<tag k="place" v="locality" />
		<tag k="ssr:stedsnr" v="576748" />
	</node>
	<node id="-778852" lat="70.2330028184" lon="29.8444596585">
		<tag k="fixme" v="consider natural=peak for the most distinct mountains in the district" />
		<tag k="loc_name:no" v="Falkefjellet" />
		<tag k="name" v="Falkfjellet - Gielas" />
		<tag k="name:no" v="Falkfjellet" />
		<tag k="name:se" v="Gielas" />
		<tag k="natural" v="hill" />
		<tag k="place" v="locality" />
		<tag k="ssr:stedsnr" v="323581" />
	</node>
	<node id="-779363" lat="70.0761000558" lon="29.9845983961">
		<tag k="name" v="Välipäri" />
		<tag k="name:fkv" v="Välipäri" />
		<tag k="natural" v="hill" />
		<tag k="place" v="locality" />
		<tag k="ssr:stedsnr" v="576613" />
	</node>
	<node id="-779362" lat="70.0884111607" lon="30.0706205725">
		<tag k="name" v="Skjervebakken" />
		<tag k="natural" v="slope" />
		<tag k="place" v="locality" />
		<tag k="ssr:stedsnr" v="576592" />
	</node>
	<node id="-779359" lat="70.0739056143" lon="30.1126427657">
		<tag k="name" v="Trettebakken" />
		<tag k="natural" v="slope" />
		<tag k="place" v="locality" />
		<tag k="ssr:stedsnr" v="576567" />
	</node>
	<node id="-779358" lat="70.1218944966" lon="30.2233788262">
		<tag k="name" v="Flåget" />
		<tag k="natural" v="cliff" />
		<tag k="ssr:stedsnr" v="576531" />
	</node>
	<node id="-779023" lat="70.0610722759" lon="29.8580095831">
		<tag k="name" v="Leirhaugen" />
		<tag k="natural" v="hill" />
		<tag k="place" v="locality" />
		<tag k="ssr:stedsnr" v="30311" />
	</node>
	<node id="-779087" lat="70.0753222733" lon="30.1337816373">
		<tag k="name" v="Stormyrberget" />
		<tag k="natural" v="hill" />
		<tag k="place" v="locality" />
		<tag k="ssr:stedsnr" v="91564" />
	</node>
	<node id="-779346" lat="70.0891056021" lon="29.7874763093">
		<tag k="name" v="Sanddalen" />
		<tag k="natural" v="valley" />
		<tag k="place" v="locality" />
		<tag k="ssr:stedsnr" v="576204" />
	</node>
	<node id="-779107" lat="70.2921417072" lon="29.962545724">
		<tag k="name" v="Uhca Guovdavággi" />
		<tag k="name:se" v="Uhca Guovdavággi" />
		<tag k="natural" v="valley" />
		<tag k="old_name:se" v="Guovdavaggi, ucca" />
		<tag k="place" v="locality" />
		<tag k="ssr:stedsnr" v="141892" />
	</node>
	<node id="-779343" lat="70.1193722646" lon="29.3291182224">
		<tag k="name" v="Lilledalen" />
		<tag k="natural" v="valley" />
		<tag k="place" v="locality" />
		<tag k="ssr:stedsnr" v="576073" />
	</node>
	<node id="-778882" lat="70.0680194899" lon="29.8059540707">
		<tag k="name" v="Kavringen" />
		<tag k="natural" v="slope" />
		<tag k="place" v="locality" />
		<tag k="ssr:stedsnr" v="334249" />
	</node>
	<node id="-778826" lat="70.0701472744" lon="30.1144733147">
		<tag k="name" v="Sandfloget" />
		<tag k="natural" v="cliff" />
		<tag k="ssr:stedsnr" v="273544" />
	</node>
	<node id="-778825" lat="70.1206083854" lon="30.1584649956">
		<tag k="name" v="Flata" />
		<tag k="place" v="locality" />
		<tag k="ssr:stedsnr" v="273510" />
	</node>
	<node id="-779336" lat="70.083847263" lon="29.6644319293">
		<tag k="name" v="Nakannokka" />
		<tag k="name:fkv" v="Nakannokka" />
		<tag k="natural" v="slope" />
		<tag k="place" v="locality" />
		<tag k="ssr:stedsnr" v="576001" />
	</node>
	<node id="-778822" lat="70.0971806094" lon="29.9142790127">
		<tag k="name" v="Raet" />
		<tag k="natural" v="ridge" />
		<tag k="place" v="locality" />
		<tag k="ssr:stedsnr" v="273436" />
	</node>
	<node id="-779333" lat="70.1126305998" lon="29.6455902709">
		<tag k="name" v="Tomaselvdalen" />
		<tag k="natural" v="valley" />
		<tag k="old_name" v="Thomaselvdalen" />
		<tag k="place" v="locality" />
		<tag k="ssr:stedsnr" v="566613" />
	</node>
	<node id="-779331" lat="70.2085528177" lon="29.6143903198">
		<tag k="fixme" v="consider natural=peak for the most distinct mountains in the district" />
		<tag k="name" v="Varitčielgi" />
		<tag k="name:se" v="Varitčielgi" />
		<tag k="natural" v="hill" />
		<tag k="place" v="locality" />
		<tag k="ssr:stedsnr" v="566563" />
	</node>
	<node id="-779328" lat="70.1775028256" lon="30.0859372639">
		<tag k="fixme" v="consider natural=peak for the most distinct mountains in the district" />
		<tag k="name" v="Falkor" />
		<tag k="natural" v="hill" />
		<tag k="place" v="locality" />
		<tag k="ssr:stedsnr" v="566547" />
	</node>
	<node id="-779326" lat="70.4399916914" lon="29.0870767561">
		<tag k="fixme" v="consider natural=peak for the most distinct mountains in the district" />
		<tag k="name" v="Doaresčearru" />
		<tag k="name:se" v="Doaresčearru" />
		<tag k="natural" v="hill" />
		<tag k="old_name:se" v="Doaresčærro" />
		<tag k="place" v="locality" />
		<tag k="ssr:stedsnr" v="565945" />
	</node>
	<node id="-778812" lat="70.0971028226" lon="29.6415569413">
		<tag k="name" v="Elvedalen" />
		<tag k="natural" v="valley" />
		<tag k="place" v="locality" />
		<tag k="ssr:stedsnr" v="273017" />
	</node>
	<node id="-779323" lat="70.2158861467" lon="29.3164599112">
		<tag k="name" v="Reinelvdalen" />
		<tag k="natural" v="valley" />
		<tag k="place" v="locality" />
		<tag k="ssr:stedsnr" v="565754" />
	</node>
	<node id="-779322" lat="70.22043059" lon="29.3919293296">
		<tag k="fixme" v="consider natural=peak for the most distinct mountains in the district" />
		<tag k="name" v="Reinelvfjellet" />
		<tag k="natural" v="hill" />
		<tag k="place" v="locality" />
		<tag k="ssr:stedsnr" v="565751" />
	</node>
	<node id="-778846" lat="70.2427000403" lon="29.3864848898">
		<tag k="fixme" v="consider natural=peak for the most distinct mountains in the district" />
		<tag k="name" v="Borjjasbuolžžat" />
		<tag k="name:se" v="Borjjasbuolžžat" />
		<tag k="natural" v="hill" />
		<tag k="old_name:se" v="Bårjasbuolžat" />
		<tag k="place" v="locality" />
		<tag k="ssr:stedsnr" v="322688" />
	</node>
	<node id="-779016" lat="70.1457972564" lon="29.2542682483">
		<tag k="name" v="Puolipäivähyppylä" />
		<tag k="name:fkv" v="Puolipäivähyppylä" />
		<tag k="natural" v="hill" />
		<tag k="old_name:fkv" v="Buribäivahypperi" />
		<tag k="place" v="locality" />
		<tag k="ssr:stedsnr" v="30011" />
	</node>
	<node id="-779310" lat="70.0624500534" lon="29.9028873479">
		<tag k="name" v="Sjåbushaugen" />
		<tag k="natural" v="hill" />
		<tag k="place" v="locality" />
		<tag k="ssr:stedsnr" v="516613" />
	</node>
	<node id="-779309" lat="70.0692167156" lon="29.9834233986">
		<tag k="alt_name" v="Halsen" />
		<tag k="name" v="Salttjernbakken" />
		<tag k="natural" v="slope" />
		<tag k="place" v="locality" />
		<tag k="ssr:stedsnr" v="516599" />
	</node>
	<node id="-779306" lat="70.0719694939" lon="30.1094038805">
		<tag k="fixme" v="consider natural=peak for the most distinct mountains in the district" />
		<tag k="name" v="Varden" />
		<tag k="natural" v="hill" />
		<tag k="place" v="locality" />
		<tag k="ssr:stedsnr" v="516550" />
	</node>
	<node id="-779304" lat="70.0705667209" lon="30.1340622035">
		<tag k="name" v="Skarvskitnasen" />
		<tag k="natural" v="cliff" />
		<tag k="ssr:stedsnr" v="516545" />
	</node>
	<node id="-779303" lat="70.0721139484" lon="30.1227177557">
		<tag k="name" v="Flågbakken" />
		<tag k="natural" v="slope" />
		<tag k="place" v="locality" />
		<tag k="ssr:stedsnr" v="516537" />
	</node>
	<node id="-779302" lat="70.0693694993" lon="30.1602510614">
		<tag k="name" v="Kvalvikhaugen" />
		<tag k="natural" v="hill" />
		<tag k="place" v="locality" />
		<tag k="ssr:stedsnr" v="516529" />
	</node>
	<node id="-779301" lat="70.1279472721" lon="30.2087760652">
		<tag k="name" v="Sikehøgda" />
		<tag k="natural" v="hill" />
		<tag k="place" v="locality" />
		<tag k="ssr:stedsnr" v="516513" />
	</node>
	<node id="-779300" lat="70.1144500538" lon="30.1400927806">
		<tag k="name" v="Richardsletthaugen" />
		<tag k="natural" v="hill" />
		<tag k="place" v="locality" />
		<tag k="ssr:stedsnr" v="516496" />
	</node>
	<node id="-779299" lat="70.0772889445" lon="29.9465762021">
		<tag k="name" v="Karvosenpirtti" />
		<tag k="name:fkv" v="Karvosenpirtti" />
		<tag k="natural" v="hill" />
		<tag k="old_name:fkv" v="Garvosenpirtti" />
		<tag k="place" v="locality" />
		<tag k="ssr:stedsnr" v="516420" />
	</node>
	<node id="-779292" lat="70.0973889363" lon="29.5864069741">
		<tag k="name" v="Raet" />
		<tag k="natural" v="hill" />
		<tag k="place" v="locality" />
		<tag k="ssr:stedsnr" v="516013" />
	</node>
	<node id="-779289" lat="70.0869278223" lon="29.8066929663">
		<tag k="name" v="Pikkuberget" />
		<tag k="natural" v="hill" />
		<tag k="place" v="locality" />
		<tag k="ssr:stedsnr" v="515243" />
	</node>
	<node id="-779285" lat="70.149572254" lon="29.2205432786">
		<tag k="name" v="Keskitalonkuru" />
		<tag k="name:fkv" v="Keskitalonkuru" />
		<tag k="natural" v="valley" />
		<tag k="old_name:fkv" v="Keskintalokuru" />
		<tag k="place" v="locality" />
		<tag k="ssr:stedsnr" v="515013" />
	</node>
	<node id="-779282" lat="70.399408363" lon="29.1870544683">
		<tag k="fixme" v="consider natural=peak for the most distinct mountains in the district" />
		<tag k="name" v="Vuomašoaivi" />
		<tag k="name:se" v="Vuomašoaivi" />
		<tag k="natural" v="hill" />
		<tag k="place" v="locality" />
		<tag k="ssr:stedsnr" v="505924" />
	</node>
	<node id="-779281" lat="70.14535837" lon="29.3103960206">
		<tag k="name" v="Kvilebakken" />
		<tag k="natural" v="slope" />
		<tag k="place" v="locality" />
		<tag k="ssr:stedsnr" v="505663" />
	</node>
	<node id="-779280" lat="70.130927812" lon="29.2790904697">
		<tag k="fixme" v="consider natural=peak for the most distinct mountains in the district" />
		<tag k="name" v="Lankovaara" />
		<tag k="name:fkv" v="Lankovaara" />
		<tag k="natural" v="hill" />
		<tag k="old_name:fkv" v="Langovara" />
		<tag k="place" v="locality" />
		<tag k="ssr:stedsnr" v="505650" />
	</node>
	<node id="-779279" lat="70.145416707" lon="29.5006820323">
		<tag k="name" v="Suottarvuopmi" />
		<tag k="name:se" v="Suottarvuopmi" />
		<tag k="natural" v="valley" />
		<tag k="old_name:se" v="Suoddarvuobmi" />
		<tag k="place" v="locality" />
		<tag k="ssr:stedsnr" v="505629" />
	</node>
	<node id="-779351" lat="70.104722267" lon="29.8258373929">
		<tag k="name" v="Djevelhaugen" />
		<tag k="natural" v="hill" />
		<tag k="place" v="locality" />
		<tag k="ssr:stedsnr" v="576310" />
	</node>
	<node id="-778924" lat="70.2537611453" lon="29.3320626908">
		<tag k="fixme" v="consider natural=peak for the most distinct mountains in the district" />
		<tag k="name" v="Juovva-Goaibeaski" />
		<tag k="name:se" v="Juovva-Goaibeaski" />
		<tag k="natural" v="hill" />
		<tag k="old_name:se" v="Juovva-Goaibæski" />
		<tag k="place" v="locality" />
		<tag k="ssr:stedsnr" v="384980" />
	</node>
	<node id="-779268" lat="70.0812000469" lon="29.9736734146">
		<tag k="name" v="Monstad" />
		<tag k="place" v="locality" />
		<tag k="ssr:stedsnr" v="505533" />
	</node>
	<node id="-779094" lat="70.0756222706" lon="29.8161929413">
		<tag k="alt_name:se" v="Mielgavárri" />
		<tag k="name" v="Melkevarden - Mielkevárri" />
		<tag k="name:no" v="Melkevarden" />
		<tag k="name:se" v="Mielkevárri" />
		<tag k="natural" v="hill" />
		<tag k="old_name:se" v="Mielkevarri" />
		<tag k="place" v="locality" />
		<tag k="ssr:stedsnr" v="140504" />
	</node>
	<node id="-779265" lat="70.1881083679" lon="29.2686765887">
		<tag k="alt_name:no" v="Hammerdalen" />
		<tag k="name" v="Hammardalen - Hamarinkuru" />
		<tag k="name:fkv" v="Hamarinkuru" />
		<tag k="name:no" v="Hammardalen" />
		<tag k="natural" v="valley" />
		<tag k="place" v="locality" />
		<tag k="ssr:stedsnr" v="504750" />
	</node>
</osm>
