<?xml version="1.0" encoding="UTF-8"?>
<osm generator="osmapis" version="0.6">
	<node id="-780288" lat="70.0934139305" lon="29.5342736527">
		<tag k="alt_name" v="Makknes" />
		<tag k="name" v="Makkenes" />
		<tag k="natural" v="cape" />
		<tag k="ssr:stedsnr" v="323611" />
	</node>
	<node id="-780799" lat="70.0645806046" lon="29.9399595446">
		<tag k="alt_name" v="Høivikbukta" />
		<tag k="name" v="Høyvikbukta" />
		<tag k="natural" v="bay" />
		<tag k="ssr:stedsnr" v="576621" />
	</node>
	<node id="-780796" lat="70.086130609" lon="30.0957511109">
		<tag k="fixme" v="consider seamark:type=rock or natural=shoal" />
		<tag k="name" v="Krokskjæret" />
		<tag k="place" v="islet" />
		<tag k="ssr:stedsnr" v="576586" />
	</node>
	<node id="-780795" lat="70.0780583836" lon="30.129798323">
		<tag k="name" v="Sandvika" />
		<tag k="natural" v="bay" />
		<tag k="ssr:stedsnr" v="576574" />
	</node>
	<node id="-780274" lat="70.1048611631" lon="30.1969510531">
		<tag k="name" v="Båtstø" />
		<tag k="natural" v="bay" />
		<tag k="ssr:stedsnr" v="273771" />
	</node>
	<node id="-780272" lat="70.1556889412" lon="30.3529121008">
		<tag k="name" v="Nyhavnneset" />
		<tag k="natural" v="cape" />
		<tag k="ssr:stedsnr" v="273730" />
	</node>
	<node id="-780269" lat="70.1880472799" lon="30.3471315679">
		<tag k="name" v="Kreetanmukka" />
		<tag k="name:fkv" v="Kreetanmukka" />
		<tag k="natural" v="bay" />
		<tag k="ssr:stedsnr" v="273645" />
	</node>
	<node id="-780268" lat="70.1860222744" lon="30.3425704455">
		<tag k="name" v="Neset - Niemi" />
		<tag k="name:fkv" v="Niemi" />
		<tag k="name:no" v="Neset" />
		<tag k="natural" v="cape" />
		<tag k="ssr:stedsnr" v="273643" />
	</node>
	<node id="-780266" lat="70.067497276" lon="29.9745484007">
		<tag k="name" v="Rapamukka" />
		<tag k="name:fkv" v="Rapamukka" />
		<tag k="natural" v="bay" />
		<tag k="ssr:stedsnr" v="273605" />
	</node>
	<node id="-780264" lat="70.0679111604" lon="30.099562222">
		<tag k="name" v="Finnes" />
		<tag k="natural" v="cape" />
		<tag k="ssr:stedsnr" v="273553" />
	</node>
	<node id="-780262" lat="70.0697500524" lon="30.1197038618">
		<tag k="fixme" v="consider seamark:type=rock or natural=shoal" />
		<tag k="name" v="Høghammarskjæret" />
		<tag k="place" v="islet" />
		<tag k="ssr:stedsnr" v="273548" />
	</node>
	<node id="-780261" lat="70.0701889454" lon="30.1249010915">
		<tag k="name" v="Storholla" />
		<tag k="natural" v="bay" />
		<tag k="ssr:stedsnr" v="273546" />
	</node>
	<node id="-780283" lat="70.0711000437" lon="29.7190040975">
		<tag k="name" v="Skagen" />
		<tag k="natural" v="cape" />
		<tag k="ssr:stedsnr" v="323531" />
	</node>
	<node id="-780253" lat="70.064166712" lon="29.8181123938">
		<tag k="name" v="Navarsbukta" />
		<tag k="natural" v="bay" />
		<tag k="ssr:stedsnr" v="273302" />
	</node>
	<node id="-780755" lat="70.0861750497" lon="29.6400069351">
		<tag k="alt_name" v="Laksbukta" />
		<tag k="name" v="Laksebubukta" />
		<tag k="natural" v="bay" />
		<tag k="ssr:stedsnr" v="565531" />
	</node>
	<node id="-780751" lat="70.071038933" lon="29.7502985309">
		<tag k="name" v="Ørtangen" />
		<tag k="natural" v="cape" />
		<tag k="ssr:stedsnr" v="565506" />
	</node>
	<node id="-780749" lat="70.0864833726" lon="29.6019236267">
		<tag k="name" v="Makkstein" />
		<tag k="place" v="locality" />
		<tag k="seamark:type" v="rock" />
		<tag k="ssr:stedsnr" v="534990" />
	</node>
	<node id="-780748" lat="70.1029500524" lon="30.188801074">
		<tag k="name" v="Neset" />
		<tag k="natural" v="cape" />
		<tag k="ssr:stedsnr" v="516740" />
	</node>
	<node id="-780743" lat="70.0687750545" lon="30.0013067403">
		<tag k="name" v="Peder-sitt-nes" />
		<tag k="natural" v="cape" />
		<tag k="ssr:stedsnr" v="516582" />
	</node>
	<node id="-780742" lat="70.0708972729" lon="30.0201900598">
		<tag k="name" v="Pikkujärvenniemi" />
		<tag k="name:fkv" v="Pikkujärvenniemi" />
		<tag k="natural" v="cape" />
		<tag k="ssr:stedsnr" v="516579" />
	</node>
	<node id="-780730" lat="70.0615361588" lon="29.8548901475">
		<tag k="name" v="Renna" />
		<tag k="natural" v="bay" />
		<tag k="ssr:stedsnr" v="516297" />
	</node>
	<node id="-780719" lat="70.0891833814" lon="29.5970764043">
		<tag k="name" v="Andersbyneset" />
		<tag k="natural" v="cape" />
		<tag k="ssr:stedsnr" v="514182" />
	</node>
	<node id="-780956" lat="70.1026278284" lon="30.1913621812">
		<tag k="name" v="Dampen" />
		<tag k="natural" v="bay" />
		<tag k="ssr:stedsnr" v="758738" />
	</node>
	<node id="-780708" lat="70.1674472785" lon="30.337973234">
		<tag k="name" v="Skallbukta" />
		<tag k="natural" v="bay" />
		<tag k="ssr:stedsnr" v="505558" />
	</node>
	<node id="-780705" lat="70.1173028336" lon="30.2276482812">
		<tag k="name" v="Jamteberget" />
		<tag k="natural" v="cape" />
		<tag k="ssr:stedsnr" v="505540" />
	</node>
	<node id="-780701" lat="70.0748667209" lon="30.1326177499">
		<tag k="name" v="Ekkerøya" />
		<tag k="place" v="island" />
		<tag k="ssr:stedsnr" v="505482" />
	</node>
	<node id="-780698" lat="70.1039333875" lon="30.1749566483">
		<tag k="name" v="Bukta" />
		<tag k="natural" v="bay" />
		<tag k="ssr:stedsnr" v="455734" />
	</node>
	<node id="-780693" lat="70.1985444958" lon="30.3663148974">
		<tag k="name" v="Tavijoenmukka" />
		<tag k="name:fkv" v="Tavijoenmukka" />
		<tag k="natural" v="bay" />
		<tag k="ssr:stedsnr" v="455628" />
	</node>
	<node id="-780692" lat="70.0689083864" lon="29.9954039607">
		<tag k="name" v="Storsjødammen" />
		<tag k="natural" v="bay" />
		<tag k="ssr:stedsnr" v="455584" />
	</node>
	<node id="-780680" lat="70.0695583826" lon="29.7241041047">
		<tag k="name" v="Hysebukta" />
		<tag k="natural" v="bay" />
		<tag k="ssr:stedsnr" v="455305" />
	</node>
	<node id="-780677" lat="70.0617167112" lon="29.8260373877">
		<tag k="name" v="Grunnesbukta" />
		<tag k="natural" v="bay" />
		<tag k="ssr:stedsnr" v="455247" />
	</node>
	<node id="-780673" lat="70.0953417111" lon="29.5071625595">
		<tag k="name" v="Lomakaneset" />
		<tag k="natural" v="cape" />
		<tag k="ssr:stedsnr" v="455106" />
	</node>
	<node id="-780672" lat="70.1159583668" lon="29.2210016">
		<tag k="name" v="Maŋŋegeahče" />
		<tag k="name:se" v="Maŋŋegeahče" />
		<tag k="natural" v="beach" />
		<tag k="place" v="locality" />
		<tag k="ssr:stedsnr" v="455095" />
	</node>
	<node id="-780665" lat="70.0684111623" lon="29.9860706199">
		<tag k="name" v="Oterneset" />
		<tag k="natural" v="cape" />
		<tag k="ssr:stedsnr" v="451240" />
	</node>
	<node id="-780652" lat="70.0616917151" lon="29.8311568205">
		<tag k="name" v="Grunnes" />
		<tag k="natural" v="cape" />
		<tag k="ssr:stedsnr" v="444510" />
	</node>
	<node id="-780651" lat="70.0762083799" lon="29.6347624954">
		<tag k="name" v="Lille Vadsøya" />
		<tag k="old_name" v="Vadsøya, l" />
		<tag k="place" v="island" />
		<tag k="ssr:stedsnr" v="444508" />
	</node>
	<node id="-780650" lat="70.0614000468" lon="29.9247539976">
		<tag k="alt_name" v="Sjåbusgrunnen" />
		<tag k="name" v="Skjåbugrunnen" />
		<tag k="natural" v="shoal" />
		<tag k="place" v="locality" />
		<tag k="ssr:stedsnr" v="444497" />
	</node>
	<node id="-780649" lat="70.0685667171" lon="30.1088983342">
		<tag k="name" v="Molla" />
		<tag k="natural" v="bay" />
		<tag k="ssr:stedsnr" v="268286" />
	</node>
	<node id="-780648" lat="70.0789444969" lon="30.102726102">
		<tag k="name" v="Yttersida" />
		<tag k="natural" v="bay" />
		<tag k="ssr:stedsnr" v="268282" />
	</node>
	<node id="-780633" lat="70.2035889468" lon="30.4018732107">
		<tag k="name" v="Ulkoranta" />
		<tag k="name:fkv" v="Ulkoranta" />
		<tag k="natural" v="beach" />
		<tag k="old_name:fkv" v="Olgåranda" />
		<tag k="place" v="locality" />
		<tag k="ssr:stedsnr" v="262573" />
	</node>
	<node id="-780627" lat="70.1636250537" lon="30.326967681">
		<tag k="name" v="Kallilahti" />
		<tag k="name:fkv" v="Kallilahti" />
		<tag k="natural" v="beach" />
		<tag k="place" v="locality" />
		<tag k="ssr:stedsnr" v="212693" />
	</node>
	<node id="-780626" lat="70.1750667239" lon="30.330664899">
		<tag k="fixme" v="consider seamark:type=rock or natural=shoal" />
		<tag k="name" v="Skjæret" />
		<tag k="place" v="islet" />
		<tag k="ssr:stedsnr" v="212692" />
	</node>
	<node id="-780622" lat="70.0892306068" lon="30.1012177885">
		<tag k="name" v="Strandvassvalen" />
		<tag k="natural" v="beach" />
		<tag k="place" v="locality" />
		<tag k="ssr:stedsnr" v="212575" />
	</node>
	<node id="-781122" lat="70.1061143724" lon="29.3335842159">
		<tag k="name" v="Lauriniemenmukka" />
		<tag k="natural" v="bay" />
		<tag k="ssr:stedsnr" v="979486" />
	</node>
	<node id="-781121" lat="70.1083381834" lon="29.3291148871">
		<tag k="name" v="Lauriniemennokka" />
		<tag k="name:fkv" v="Lauriniemennokka" />
		<tag k="natural" v="cape" />
		<tag k="ssr:stedsnr" v="979485" />
	</node>
	<node id="-781120" lat="70.1020774461" lon="29.3274071892">
		<tag k="name" v="Lauriniemenpakki" />
		<tag k="name:fkv" v="Lauriniemenpakki" />
		<tag k="place" v="locality" />
		<tag k="ssr:stedsnr" v="979483" />
	</node>
	<node id="-781117" lat="70.1042978858" lon="29.3100330219">
		<tag k="name" v="Pikku-Skitsi" />
		<tag k="name:fkv" v="Pikku-Skitsi" />
		<tag k="place" v="locality" />
		<tag k="ssr:stedsnr" v="979438" />
	</node>
	<node id="-780602" lat="70.0574667139" lon="29.8109984909">
		<tag k="name" v="Salinengrunnen" />
		<tag k="natural" v="shoal" />
		<tag k="place" v="locality" />
		<tag k="ssr:stedsnr" v="207292" />
	</node>
	<node id="-781108" lat="70.0778417161" lon="30.1350288764">
		<tag k="name" v="Sandnes" />
		<tag k="natural" v="cape" />
		<tag k="ssr:stedsnr" v="941561" />
	</node>
	<node id="-781107" lat="70.0704722795" lon="30.1568121783">
		<tag k="name" v="Skagen" />
		<tag k="natural" v="cape" />
		<tag k="ssr:stedsnr" v="941534" />
	</node>
	<node id="-780585" lat="70.0698833912" lon="30.1649482933">
		<tag k="name" v="Skagodden" />
		<tag k="natural" v="cape" />
		<tag k="ssr:stedsnr" v="202478" />
	</node>
	<node id="-781090" lat="70.0867611646" lon="30.2540454543">
		<tag k="name" v="Ramnflogmola" />
		<tag k="natural" v="bay" />
		<tag k="ssr:stedsnr" v="934171" />
	</node>
	<node id="-781086" lat="70.1000805945" lon="29.4546042517">
		<tag k="name" v="Paddebybukta" />
		<tag k="natural" v="bay" />
		<tag k="ssr:stedsnr" v="931605" />
	</node>
	<node id="-780572" lat="70.0695389404" lon="29.7800096333">
		<tag k="name" v="Yttersundet" />
		<tag k="natural" v="strait" />
		<tag k="ssr:stedsnr" v="151367" />
	</node>
	<node id="-780571" lat="70.0710889346" lon="29.7622457587">
		<tag k="name" v="Makkeleira" />
		<tag k="natural" v="bay" />
		<tag k="ssr:stedsnr" v="151365" />
	</node>
	<node id="-781077" lat="70.1014750506" lon="30.1489872117">
		<tag k="name" v="Storelvneset" />
		<tag k="natural" v="cape" />
		<tag k="ssr:stedsnr" v="930566" />
	</node>
	<node id="-781075" lat="70.0850528173" lon="29.551595869">
		<tag k="fixme" v="consider seamark:type=rock or natural=shoal" />
		<tag k="name" v="Sandskjæret" />
		<tag k="place" v="islet" />
		<tag k="ssr:stedsnr" v="930551" />
	</node>
	<node id="-781067" lat="70.1343917262" lon="30.3254093228">
		<tag k="name" v="Rullestrand" />
		<tag k="natural" v="beach" />
		<tag k="place" v="locality" />
		<tag k="ssr:stedsnr" v="880740" />
	</node>
	<node id="-780548" lat="70.0710972741" lon="29.777598523">
		<tag k="name" v="Austrehamna" />
		<tag k="natural" v="bay" />
		<tag k="ssr:stedsnr" v="147221" />
	</node>
	<node id="-781051" lat="70.0604889431" lon="29.8680540183">
		<tag k="name" v="Flua" />
		<tag k="natural" v="cape" />
		<tag k="ssr:stedsnr" v="880281" />
	</node>
	<node id="-781046" lat="70.1084333737" lon="29.3299432243">
		<tag k="name" v="Sudines" />
		<tag k="natural" v="cape" />
		<tag k="ssr:stedsnr" v="880073" />
	</node>
	<node id="-781039" lat="70.0682222746" lon="30.1048955411">
		<tag k="name" v="Finneset" />
		<tag k="natural" v="cape" />
		<tag k="ssr:stedsnr" v="875301" />
	</node>
	<node id="-781037" lat="70.0776500508" lon="30.0878344585">
		<tag k="fixme" v="multiple name tags, choose one and add the other to alt_name" />
		<tag k="name" v="Bukta;Innersida" />
		<tag k="natural" v="bay" />
		<tag k="ssr:stedsnr" v="874192" />
	</node>
	<node id="-781029" lat="70.0933083814" lon="29.5609292002">
		<tag k="name" v="Blåbærnes" />
		<tag k="natural" v="cape" />
		<tag k="ssr:stedsnr" v="870588" />
	</node>
	<node id="-781027" lat="70.0788500481" lon="30.076026133">
		<tag k="name" v="Sollnes" />
		<tag k="natural" v="cape" />
		<tag k="ssr:stedsnr" v="870546" />
	</node>
	<node id="-781026" lat="70.0772861608" lon="30.1390010912">
		<tag k="alt_name" v="Vardneset" />
		<tag k="name" v="Varnes" />
		<tag k="natural" v="cape" />
		<tag k="ssr:stedsnr" v="870545" />
	</node>
	<node id="-780505" lat="70.0897611514" lon="29.6054152895">
		<tag k="name" v="Andersbybukta" />
		<tag k="natural" v="bay" />
		<tag k="ssr:stedsnr" v="91009" />
	</node>
	<node id="-781015" lat="70.0601639389" lon="29.8776873619">
		<tag k="name" v="Samuelbyneset" />
		<tag k="natural" v="cape" />
		<tag k="ssr:stedsnr" v="869547" />
	</node>
	<node id="-780323" lat="70.0696389429" lon="30.1029233318">
		<tag k="name" v="Neset" />
		<tag k="natural" v="cape" />
		<tag k="ssr:stedsnr" v="334547" />
	</node>
	<node id="-780408" lat="70.1021694992" lon="30.1887871693">
		<tag k="fixme" v="consider seamark:type=rock or natural=shoal" />
		<tag k="name" v="Flua" />
		<tag k="place" v="islet" />
		<tag k="ssr:stedsnr" v="394726" />
	</node>
	<node id="-781006" lat="70.0666361636" lon="29.9729761843">
		<tag k="name" v="Pitkäkallionnokka" />
		<tag k="name:fkv" v="Pitkäkallionnokka" />
		<tag k="natural" v="cape" />
		<tag k="ssr:stedsnr" v="819624" />
	</node>
	<node id="-780322" lat="70.0688833917" lon="30.1673621684">
		<tag k="name" v="Loddekeila" />
		<tag k="natural" v="bay" />
		<tag k="ssr:stedsnr" v="334513" />
	</node>
	<node id="-780486" lat="70.1035694813" lon="29.3363015242">
		<tag k="alt_name:no" v="Finnesset" />
		<tag k="loc_name:se" v="Lávrranjárga" />
		<tag k="name" v="Finneset - Lauriniemi" />
		<tag k="name:fkv" v="Lauriniemi" />
		<tag k="name:no" v="Finneset" />
		<tag k="natural" v="cape" />
		<tag k="ssr:stedsnr" v="80675" />
	</node>
	<node id="-780481" lat="70.072850052" lon="29.739023537">
		<tag k="name" v="Hamna" />
		<tag k="natural" v="bay" />
		<tag k="ssr:stedsnr" v="80522" />
	</node>
	<node id="-780480" lat="70.1757944962" lon="30.3565371072">
		<tag k="fixme" v="consider seamark:type=rock or natural=shoal" />
		<tag k="name" v="Langskjæret" />
		<tag k="place" v="islet" />
		<tag k="ssr:stedsnr" v="40225" />
	</node>
	<node id="-780477" lat="70.1789389394" lon="30.3290649026">
		<tag k="name" v="Kallilahti" />
		<tag k="name:fkv" v="Kallilahti" />
		<tag k="natural" v="beach" />
		<tag k="place" v="locality" />
		<tag k="ssr:stedsnr" v="30693" />
	</node>
	<node id="-780472" lat="70.0746111646" lon="30.045759476">
		<tag k="name" v="Solalaassa" />
		<tag k="name:fkv" v="Solalaassa" />
		<tag k="natural" v="cape" />
		<tag k="ssr:stedsnr" v="30585" />
	</node>
	<node id="-780471" lat="70.0787861672" lon="30.0828094631">
		<tag k="name" v="Sollnesbukta" />
		<tag k="natural" v="bay" />
		<tag k="ssr:stedsnr" v="30568" />
	</node>
	<node id="-780982" lat="70.1282083853" lon="30.2936149085">
		<tag k="name" v="Urnes" />
		<tag k="natural" v="cape" />
		<tag k="ssr:stedsnr" v="817905" />
	</node>
	<node id="-780469" lat="70.0693472762" lon="30.1539316384">
		<tag k="name" v="Kvalvika" />
		<tag k="natural" v="bay" />
		<tag k="ssr:stedsnr" v="30527" />
	</node>
	<node id="-780969" lat="70.1457111676" lon="30.3563426386">
		<tag k="alt_name:no" v="Falkekeila" />
		<tag k="name" v="Falkkeila - Falkkikeila" />
		<tag k="name:fkv" v="Falkkikeila" />
		<tag k="name:no" v="Falkkeila" />
		<tag k="natural" v="bay" />
		<tag k="ssr:stedsnr" v="809564" />
	</node>
	<node id="-780961" lat="70.062588942" lon="29.8228734898">
		<tag k="name" v="Navarsodden" />
		<tag k="natural" v="cape" />
		<tag k="ssr:stedsnr" v="808502" />
	</node>
	<node id="-780446" lat="70.1151555959" lon="29.2103543835">
		<tag k="name" v="Fálesgohppi" />
		<tag k="name:se" v="Fálesgohppi" />
		<tag k="natural" v="bay" />
		<tag k="ssr:stedsnr" v="26388" />
	</node>
	<node id="-780444" lat="70.0708194933" lon="30.0578900224">
		<tag k="name" v="Varangerflua" />
		<tag k="natural" v="shoal" />
		<tag k="place" v="locality" />
		<tag k="ssr:stedsnr" v="25306" />
	</node>
	<node id="-780443" lat="70.0546472758" lon="29.8178734876">
		<tag k="name" v="Indre Seigrunnen" />
		<tag k="natural" v="shoal" />
		<tag k="old_name" v="Seigrunnen, Indre" />
		<tag k="place" v="locality" />
		<tag k="ssr:stedsnr" v="25297" />
	</node>
	<node id="-780953" lat="70.1189000564" lon="30.2380538182">
		<tag k="name" v="Jamtesanden" />
		<tag k="natural" v="beach" />
		<tag k="place" v="locality" />
		<tag k="ssr:stedsnr" v="758730" />
	</node>
	<node id="-780439" lat="70.0945750461" lon="29.5192236792">
		<tag k="name" v="Sandskjær" />
		<tag k="natural" v="beach" />
		<tag k="place" v="locality" />
		<tag k="ssr:stedsnr" v="20628" />
	</node>
	<node id="-780437" lat="70.2067111705" lon="30.4503620625">
		<tag k="name" v="Laivanmukka" />
		<tag k="name:fkv" v="Laivanmukka" />
		<tag k="natural" v="bay" />
		<tag k="old_name:fkv" v="Laivanmokka" />
		<tag k="ssr:stedsnr" v="20581" />
	</node>
	<node id="-780435" lat="70.1847806132" lon="30.3342260206">
		<tag k="name" v="Poikilaniemi" />
		<tag k="name:fkv" v="Poikilaniemi" />
		<tag k="natural" v="cape" />
		<tag k="old_name:fkv" v="Boigilanniemi" />
		<tag k="ssr:stedsnr" v="20566" />
	</node>
	<node id="-780943" lat="70.0726583798" lon="29.7338263318">
		<tag k="name" v="Innseilingsrenne" />
		<tag k="place" v="locality" />
		<tag k="ssr:stedsnr" v="758367" />
	</node>
	<node id="-780430" lat="70.0825389363" lon="29.669159688">
		<tag k="name" v="Laksbuneset" />
		<tag k="natural" v="cape" />
		<tag k="ssr:stedsnr" v="413989" />
	</node>
	<node id="-780428" lat="70.4837500331" lon="29.5401571348">
		<tag k="loc_name:fkv" v="Varenkinniemi;Varinkinniemi" />
		<tag k="name" v="Varangerhalvøya - Várnjárga" />
		<tag k="name:no" v="Varangerhalvøya" />
		<tag k="name:se" v="Várnjárga" />
		<tag k="natural" v="cape" />
		<tag k="ssr:stedsnr" v="506029" />
	</node>
	<node id="-780920" lat="70.1892056087" lon="30.3571954547">
		<tag k="name" v="Makkenes - Matoniemi" />
		<tag k="name:fkv" v="Matoniemi" />
		<tag k="name:no" v="Makkenes" />
		<tag k="natural" v="cape" />
		<tag k="old_name:fkv" v="Madåniemi" />
		<tag k="ssr:stedsnr" v="748565" />
	</node>
	<node id="-780919" lat="70.0903056101" lon="30.2398787959">
		<tag k="name" v="Lille Ekkerøy" />
		<tag k="old_name" v="Ekkerøy, lille" />
		<tag k="place" v="island" />
		<tag k="ssr:stedsnr" v="748556" />
	</node>
	<node id="-780918" lat="70.1233056103" lon="30.2942343342">
		<tag k="name" v="Urnesodden" />
		<tag k="natural" v="cape" />
		<tag k="ssr:stedsnr" v="748551" />
	</node>
	<node id="-780405" lat="70.0632444928" lon="29.931562326">
		<tag k="alt_name" v="Høivikneset" />
		<tag k="name" v="Høyvikneset" />
		<tag k="natural" v="cape" />
		<tag k="ssr:stedsnr" v="394611" />
	</node>
	<node id="-780404" lat="70.0623944974" lon="29.9155290097">
		<tag k="name" v="Isokari" />
		<tag k="name:fkv" v="Isokari" />
		<tag k="natural" v="beach" />
		<tag k="place" v="locality" />
		<tag k="ssr:stedsnr" v="394609" />
	</node>
	<node id="-780910" lat="70.0668222664" lon="29.7466735247">
		<tag k="name" v="Vadsøya" />
		<tag k="place" v="island" />
		<tag k="ssr:stedsnr" v="747516" />
	</node>
	<node id="-780903" lat="70.1053806114" lon="30.1637622007">
		<tag k="name" v="Sollnes" />
		<tag k="natural" v="cape" />
		<tag k="ssr:stedsnr" v="698727" />
	</node>
	<node id="-780384" lat="70.0953611528" lon="29.4844625843">
		<tag k="name" v="Båe" />
		<tag k="place" v="locality" />
		<tag k="seamark:type" v="rock" />
		<tag k="ssr:stedsnr" v="394088" />
	</node>
	<node id="-780895" lat="70.0736972724" lon="30.0398094826">
		<tag k="name" v="Saukkokallio" />
		<tag k="name:fkv" v="Saukkokallio" />
		<tag k="natural" v="cape" />
		<tag k="ssr:stedsnr" v="698574" />
	</node>
	<node id="-780380" lat="70.0910000491" lon="29.6023847318">
		<tag k="name" v="Badestrand" />
		<tag k="natural" v="beach" />
		<tag k="place" v="locality" />
		<tag k="ssr:stedsnr" v="394010" />
	</node>
	<node id="-780885" lat="70.0932889339" lon="29.5425208701">
		<tag k="name" v="Makkeleira" />
		<tag k="natural" v="bay" />
		<tag k="ssr:stedsnr" v="698085" />
	</node>
	<node id="-780884" lat="70.0942778204" lon="29.5188875698">
		<tag k="name" v="Sandskjærbukta" />
		<tag k="natural" v="bay" />
		<tag k="ssr:stedsnr" v="698082" />
	</node>
	<node id="-780883" lat="70.0944167122" lon="29.5160597912">
		<tag k="name" v="Sandskjærneset" />
		<tag k="natural" v="cape" />
		<tag k="ssr:stedsnr" v="698080" />
	</node>
	<node id="-780360" lat="70.0472000542" lon="29.848217914">
		<tag k="name" v="Ytre Seigrunnen" />
		<tag k="natural" v="shoal" />
		<tag k="old_name" v="Seigrunnen, Ytre" />
		<tag k="place" v="locality" />
		<tag k="ssr:stedsnr" v="389313" />
	</node>
	<node id="-780470" lat="70.0703083857" lon="30.1376288632">
		<tag k="name" v="Skipparvika" />
		<tag k="natural" v="bay" />
		<tag k="ssr:stedsnr" v="30545" />
	</node>
	<node id="-780866" lat="70.1966750502" lon="30.4135981957">
		<tag k="fixme" v="consider seamark:type=rock or natural=shoal" />
		<tag k="name" v="Kobbeskjæret" />
		<tag k="place" v="islet" />
		<tag k="ssr:stedsnr" v="687581" />
	</node>
	<node id="-780865" lat="70.2004000528" lon="30.3815621022">
		<tag k="name" v="Sollnes - Sulaniemi" />
		<tag k="name:fkv" v="Sulaniemi" />
		<tag k="name:no" v="Sollnes" />
		<tag k="natural" v="cape" />
		<tag k="ssr:stedsnr" v="687579" />
	</node>
	<node id="-780352" lat="70.1938861638" lon="30.3600204357">
		<tag k="name" v="Matoniemenmukka" />
		<tag k="name:fkv" v="Matoniemenmukka" />
		<tag k="natural" v="bay" />
		<tag k="old_name:fkv" v="Madåniemenmokka" />
		<tag k="ssr:stedsnr" v="384547" />
	</node>
	<node id="-780862" lat="70.1606861697" lon="30.3473232181">
		<tag k="fixme" v="consider seamark:type=rock or natural=shoal" />
		<tag k="name" v="Jarkoskjæret" />
		<tag k="place" v="islet" />
		<tag k="ssr:stedsnr" v="687565" />
	</node>
	<node id="-780859" lat="70.1397417269" lon="30.3490343209">
		<tag k="name" v="Skallnes" />
		<tag k="natural" v="cape" />
		<tag k="old_name" v="Skallneset" />
		<tag k="ssr:stedsnr" v="687549" />
	</node>
	<node id="-780857" lat="70.111286166" lon="30.2061955161">
		<tag k="alt_name" v="Sandbukt" />
		<tag k="name" v="Sandbukta" />
		<tag k="natural" v="bay" />
		<tag k="ssr:stedsnr" v="687540" />
	</node>
	<node id="-780856" lat="70.0934278276" lon="30.1174150012">
		<tag k="alt_name" v="Litleelvneset" />
		<tag k="name" v="Lilleelvneset" />
		<tag k="natural" v="cape" />
		<tag k="ssr:stedsnr" v="687536" />
	</node>
	<node id="-780336" lat="70.0674361563" lon="29.7693096356">
		<tag k="alt_name" v="Kokneset" />
		<tag k="name" v="Kokkenes" />
		<tag k="natural" v="cape" />
		<tag k="ssr:stedsnr" v="383542" />
	</node>
	<node id="-780335" lat="70.0911139252" lon="29.008704475">
		<tag k="bay" v="fjord" />
		<tag k="loc_name:fkv" v="Varenkinvuono;Varinkinvuono" />
		<tag k="name" v="Varangerfjorden - Várjavuonna" />
		<tag k="name:no" v="Varangerfjorden" />
		<tag k="name:se" v="Várjavuonna" />
		<tag k="natural" v="bay" />
		<tag k="ssr:stedsnr" v="383165" />
	</node>
	<node id="-780334" lat="70.0853056148" lon="30.261673248">
		<tag k="name" v="Korsneset" />
		<tag k="natural" v="cape" />
		<tag k="ssr:stedsnr" v="344250" />
	</node>
	<node id="-780330" lat="70.1416972779" lon="30.3597315264">
		<tag k="fixme" v="consider seamark:type=rock or natural=shoal" />
		<tag k="name" v="Jounalaassa" />
		<tag k="name:fkv" v="Jounalaassa" />
		<tag k="place" v="islet" />
		<tag k="ssr:stedsnr" v="334658" />
	</node>
	<node id="-780837" lat="70.0949000412" lon="29.4173848175">
		<tag k="name" v="Paddebynes" />
		<tag k="natural" v="cape" />
		<tag k="ssr:stedsnr" v="636989" />
	</node>
	<node id="-780324" lat="70.0650472757" lon="29.9638317535">
		<tag k="fixme" v="consider seamark:type=rock or natural=shoal" />
		<tag k="name" v="Laassa" />
		<tag k="name:fkv" v="Laassa" />
		<tag k="place" v="islet" />
		<tag k="ssr:stedsnr" v="334602" />
	</node>
	<node id="-780835" lat="70.0610417116" lon="29.90495123">
		<tag k="name" v="Pikkukari" />
		<tag k="name:fkv" v="Pikkukari" />
		<tag k="natural" v="beach" />
		<tag k="place" v="locality" />
		<tag k="ssr:stedsnr" v="636649" />
	</node>
	<node id="-780398" lat="70.0775611625" lon="30.1213233068">
		<tag k="name" v="Varbukta" />
		<tag k="natural" v="bay" />
		<tag k="ssr:stedsnr" v="394562" />
	</node>
	<node id="-780831" lat="70.0779167193" lon="30.1126372265">
		<tag k="name" v="Varnes" />
		<tag k="natural" v="cape" />
		<tag k="ssr:stedsnr" v="636591" />
	</node>
	<node id="-780314" lat="70.0921417083" lon="29.5724791898">
		<tag k="name" v="Kvelven" />
		<tag k="natural" v="bay" />
		<tag k="ssr:stedsnr" v="334015" />
	</node>
	<node id="-780313" lat="70.0909944897" lon="29.5872958518">
		<tag k="name" v="Toftebukta" />
		<tag k="natural" v="bay" />
		<tag k="ssr:stedsnr" v="334014" />
	</node>
	<node id="-780302" lat="70.0659361665" lon="29.9686428472">
		<tag k="name" v="Karvosenniemi" />
		<tag k="name:fkv" v="Karvosenniemi" />
		<tag k="natural" v="cape" />
		<tag k="old_name:fkv" v="Garvosenniemi" />
		<tag k="ssr:stedsnr" v="334411" />
	</node>
	<node id="-780298" lat="70.1142667054" lon="29.199512721">
		<tag k="name" v="Klubbnasen - Murggiidgeahči" />
		<tag k="name:no" v="Klubbnasen" />
		<tag k="name:se" v="Murggiidgeahči" />
		<tag k="natural" v="cape" />
		<tag k="ssr:stedsnr" v="323657" />
	</node>
</osm>
