<?xml version="1.0" encoding="UTF-8"?>
<osm generator="osmapis" version="0.6">
	<node id="-779695" lat="70.2012206082" lon="30.3401459282">
		<tag k="name" v="Neitijänkkä" />
		<tag k="name:fkv" v="Neitijänkkä" />
		<tag k="natural" v="wetland" />
		<tag k="ssr:stedsnr" v="979572" />
	</node>
	<node id="-779694" lat="70.1856167791" lon="30.3418998">
		<tag k="loc_name:fkv" v="Niemi" />
		<tag k="name" v="Neset" />
		<tag k="name:no" v="Neset" />
		<tag k="place" v="hamlet" />
		<tag k="ssr:stedsnr" v="979570" />
	</node>
	<node id="-779690" lat="70.1441787308" lon="30.3525432169">
		<tag k="loc_name:fkv" v="Keila" />
		<tag k="loc_name:se" v="Lassa-vuolle" />
		<tag k="name" v="Falkekjeilen" />
		<tag k="name:no" v="Falkekjeilen" />
		<tag k="place" v="farm" />
		<tag k="ssr:stedsnr" v="979565" />
	</node>
	<node id="-779689" lat="70.078288178" lon="30.094118489">
		<tag k="loc_name:fkv" v="Kalvanto" />
		<tag k="name" v="Valen" />
		<tag k="name:no" v="Valen" />
		<tag k="place" v="hamlet" />
		<tag k="ssr:stedsnr" v="979563" />
	</node>
	<node id="-779688" lat="70.104064777" lon="29.3400714874">
		<tag k="fixme" v="consider natural=peak for the most distinct mountains in the district" />
		<tag k="name" v="Lauriniemenharju" />
		<tag k="name:fkv" v="Lauriniemenharju" />
		<tag k="natural" v="hill" />
		<tag k="place" v="locality" />
		<tag k="ssr:stedsnr" v="979558" />
	</node>
	<node id="-779687" lat="70.1061143724" lon="29.3335842159">
		<tag k="name" v="Lauriniemenmukka" />
		<tag k="natural" v="bay" />
		<tag k="ssr:stedsnr" v="979486" />
	</node>
	<node id="-779686" lat="70.1083381834" lon="29.3291148871">
		<tag k="name" v="Lauriniemennokka" />
		<tag k="name:fkv" v="Lauriniemennokka" />
		<tag k="natural" v="cape" />
		<tag k="ssr:stedsnr" v="979485" />
	</node>
	<node id="-779685" lat="70.1020774461" lon="29.3274071892">
		<tag k="name" v="Lauriniemenpakki" />
		<tag k="name:fkv" v="Lauriniemenpakki" />
		<tag k="place" v="locality" />
		<tag k="ssr:stedsnr" v="979483" />
	</node>
	<node id="-779684" lat="70.1059036403" lon="29.3380150209">
		<tag k="name" v="Lauriniemi" />
		<tag k="name:fkv" v="Lauriniemi" />
		<tag k="place" v="hamlet" />
		<tag k="ssr:stedsnr" v="979482" />
	</node>
	<node id="-779683" lat="70.1200323356" lon="29.3046903247">
		<tag k="name" v="Mettäperä" />
		<tag k="name:fkv" v="Mettäperä" />
		<tag k="place" v="locality" />
		<tag k="ssr:stedsnr" v="979477" />
	</node>
	<node id="-779682" lat="70.1042978858" lon="29.3100330219">
		<tag k="name" v="Pikku-Skitsi" />
		<tag k="name:fkv" v="Pikku-Skitsi" />
		<tag k="place" v="locality" />
		<tag k="ssr:stedsnr" v="979438" />
	</node>
	<node id="-779680" lat="70.0758417133" lon="29.7310540989">
		<tag k="name" v="Indrebyen" />
		<tag k="place" v="suburb" />
		<tag k="ssr:stedsnr" v="942504" />
	</node>
	<node id="-779679" lat="70.1099361644" lon="30.1497455375">
		<tag k="name" v="Fossevannet" />
		<tag k="natural" v="water" />
		<tag k="ssr:stedsnr" v="941723" />
	</node>
	<node id="-779678" lat="70.1213139462" lon="30.2553954734">
		<tag k="name" v="Kjerringa og mannen" />
		<tag k="natural" v="stone" />
		<tag k="ssr:stedsnr" v="941706" />
	</node>
	<node id="-779677" lat="70.1786445002" lon="30.3265565655">
		<tag k="name" v="Sinisiikki" />
		<tag k="name:fkv" v="Sinisiikki" />
		<tag k="ssr:stedsnr" v="941683" />
		<tag k="waterway" v="stream" />
	</node>
	<node id="-779676" lat="70.0677833826" lon="29.949303986">
		<tag k="name" v="Høivikbekken" />
		<tag k="ssr:stedsnr" v="941609" />
		<tag k="waterway" v="stream" />
	</node>
	<node id="-779675" lat="70.0693694943" lon="30.0048372758">
		<tag k="fixme" v="verify maritime location" />
		<tag k="mooring" v="yes" />
		<tag k="name" v="Båtstø" />
		<tag k="place" v="locality" />
		<tag k="ssr:stedsnr" v="941586" />
	</node>
	<node id="-779674" lat="70.0855667176" lon="30.081051125">
		<tag k="name" v="Risdalen" />
		<tag k="natural" v="valley" />
		<tag k="place" v="locality" />
		<tag k="ssr:stedsnr" v="941573" />
	</node>
	<node id="-779673" lat="70.0778417161" lon="30.1350288764">
		<tag k="name" v="Sandnes" />
		<tag k="natural" v="cape" />
		<tag k="ssr:stedsnr" v="941561" />
	</node>
	<node id="-779672" lat="70.0704722795" lon="30.1568121783">
		<tag k="name" v="Skagen" />
		<tag k="natural" v="cape" />
		<tag k="ssr:stedsnr" v="941534" />
	</node>
	<node id="-779671" lat="70.1020278312" lon="30.0890039219">
		<tag k="name" v="Kaldbekkmyra" />
		<tag k="natural" v="wetland" />
		<tag k="ssr:stedsnr" v="941506" />
	</node>
	<node id="-779670" lat="70.0710139388" lon="29.9537095364">
		<tag k="name" v="Pappapäri" />
		<tag k="name:fkv" v="Pappapäri" />
		<tag k="natural" v="hill" />
		<tag k="place" v="locality" />
		<tag k="ssr:stedsnr" v="941423" />
	</node>
	<node id="-779669" lat="70.0859194967" lon="30.025826159">
		<tag k="name" v="Santahoova" />
		<tag k="name:fkv" v="Santahoova" />
		<tag k="natural" v="hill" />
		<tag k="place" v="locality" />
		<tag k="ssr:stedsnr" v="941412" />
	</node>
	<node id="-779668" lat="70.0777306054" lon="29.9939650653">
		<tag k="alt_name" v="Kretturvegen" />
		<tag k="highway" v="path" />
		<tag k="name" v="Fjellvegen" />
		<tag k="ssr:stedsnr" v="941395" />
	</node>
	<node id="-779667" lat="70.0745833829" lon="29.7557096581">
		<tag k="cemetery" v="grave" />
		<tag k="name" v="Kirkegård" />
		<tag k="place" v="locality" />
		<tag k="ssr:stedsnr" v="941343" />
	</node>
	<node id="-779666" lat="70.0759444902" lon="29.7559707464">
		<tag k="amenity" v="community_centre" />
		<tag k="name" v="Samfunnshus" />
		<tag k="ssr:stedsnr" v="941158" />
	</node>
	<node id="-779665" lat="70.1022055968" lon="29.4800931337">
		<tag k="name" v="Nivan Kallen kuru" />
		<tag k="name:fkv" v="Nivan Kallen kuru" />
		<tag k="natural" v="valley" />
		<tag k="old_name:fkv" v="Nivan-kallen-kuru" />
		<tag k="place" v="locality" />
		<tag k="ssr:stedsnr" v="941024" />
	</node>
	<node id="-779664" lat="70.0882944931" lon="29.8258929529">
		<tag k="name" v="Grønneset" />
		<tag k="natural" v="cape" />
		<tag k="ssr:stedsnr" v="940236" />
	</node>
	<node id="-779663" lat="70.1290500358" lon="29.2652904707">
		<tag k="name" v="Gvádasjeaggi" />
		<tag k="name:se" v="Gvádasjeaggi" />
		<tag k="natural" v="wetland" />
		<tag k="ssr:stedsnr" v="940106" />
	</node>
	<node id="-779662" lat="70.1279861489" lon="29.3141015464">
		<tag k="name" v="Svingen" />
		<tag k="natural" v="water" />
		<tag k="ssr:stedsnr" v="940091" />
		<tag k="water" v="lake" />
	</node>
	<node id="-779661" lat="70.1388139273" lon="29.3375848895">
		<tag k="highway" v="path" />
		<tag k="name" v="Oksemyrvegen" />
		<tag k="ssr:stedsnr" v="940085" />
	</node>
	<node id="-779660" lat="70.1053250393" lon="29.339107103">
		<tag k="name" v="Finnes" />
		<tag k="place" v="farm" />
		<tag k="ssr:stedsnr" v="940082" />
	</node>
	<node id="-779659" lat="70.0865055996" lon="29.7127680181">
		<tag k="name" v="Fjellheim" />
		<tag k="place" v="quarter" />
		<tag k="ssr:stedsnr" v="940061" />
	</node>
	<node id="-779658" lat="70.0851194888" lon="29.7076652432">
		<tag k="amenity" v="kindergarten" />
		<tag k="name" v="Glimmerstua barnehage" />
		<tag k="ssr:stedsnr" v="940058" />
	</node>
	<node id="-779657" lat="70.0897639375" lon="29.6412236087">
		<tag k="name" v="Laksebubukta" />
		<tag k="place" v="hamlet" />
		<tag k="ssr:stedsnr" v="940008" />
	</node>
	<node id="-779656" lat="70.2230194951" lon="30.2729955296">
		<tag k="name" v="Bekkavannet" />
		<tag k="natural" v="water" />
		<tag k="ssr:stedsnr" v="938892" />
	</node>
	<node id="-779655" lat="70.0867611646" lon="30.2540454543">
		<tag k="name" v="Ramnflogmola" />
		<tag k="natural" v="bay" />
		<tag k="ssr:stedsnr" v="934171" />
	</node>
	<node id="-779654" lat="70.0957333826" lon="29.7543040971">
		<tag k="fixme" v="consider natural=peak for the most distinct mountains in the district" />
		<tag k="name" v="Fossefjellet" />
		<tag k="natural" v="hill" />
		<tag k="place" v="locality" />
		<tag k="ssr:stedsnr" v="931616" />
	</node>
	<node id="-779653" lat="70.1062305947" lon="29.4522736982">
		<tag k="name" v="Paddebyelva" />
		<tag k="ssr:stedsnr" v="931614" />
		<tag k="waterway" v="stream" />
	</node>
	<node id="-779652" lat="70.0993028174" lon="29.6475013896">
		<tag k="name" v="Storbakken" />
		<tag k="natural" v="slope" />
		<tag k="place" v="locality" />
		<tag k="ssr:stedsnr" v="931612" />
	</node>
	<node id="-779651" lat="70.1000805945" lon="29.4546042517">
		<tag k="name" v="Paddebybukta" />
		<tag k="natural" v="bay" />
		<tag k="ssr:stedsnr" v="931605" />
	</node>
	<node id="-779650" lat="70.3732889206" lon="29.3855377208">
		<tag k="fixme" v="consider natural=peak for the most distinct mountains in the district" />
		<tag k="name" v="Juovvoaivi" />
		<tag k="name:se" v="Juovvoaivi" />
		<tag k="natural" v="hill" />
		<tag k="old_name:se" v="Juovloaivi" />
		<tag k="place" v="locality" />
		<tag k="ssr:stedsnr" v="930997" />
	</node>
	<node id="-779649" lat="70.4640083638" lon="29.2714738944">
		<tag k="name" v="Oarddojárskáidi" />
		<tag k="name:se" v="Oarddojárskáidi" />
		<tag k="natural" v="cape" />
		<tag k="old_name:se" v="Oardujarskaidi" />
		<tag k="ssr:stedsnr" v="930954" />
	</node>
	<node id="-779648" lat="70.4443500349" lon="29.2437544611">
		<tag k="name" v="Soalddátgorsa" />
		<tag k="name:se" v="Soalddátgorsa" />
		<tag k="natural" v="valley" />
		<tag k="old_name:se" v="Soaldatgårsa" />
		<tag k="place" v="locality" />
		<tag k="ssr:stedsnr" v="930950" />
	</node>
	<node id="-779647" lat="70.2809028217" lon="30.1294317541">
		<tag k="fixme" v="consider natural=peak for the most distinct mountains in the district" />
		<tag k="name" v="Cavnnat" />
		<tag k="name:se" v="Cavnnat" />
		<tag k="natural" v="hill" />
		<tag k="old_name:se" v="Cavnat" />
		<tag k="place" v="locality" />
		<tag k="ssr:stedsnr" v="930911" />
	</node>
	<node id="-779646" lat="70.1251917085" lon="29.407348747">
		<tag k="name" v="Maritmyra" />
		<tag k="natural" v="wetland" />
		<tag k="ssr:stedsnr" v="930653" />
	</node>
	<node id="-779645" lat="70.1125667164" lon="29.9790650911">
		<tag k="name" v="Keita" />
		<tag k="natural" v="wetland" />
		<tag k="ssr:stedsnr" v="930630" />
	</node>
	<node id="-779644" lat="70.2433305888" lon="29.4737737522">
		<tag k="fixme" v="consider natural=peak for the most distinct mountains in the district" />
		<tag k="name" v="Váttačielgi" />
		<tag k="name:se" v="Váttačielgi" />
		<tag k="natural" v="hill" />
		<tag k="old_name:se" v="Vaddačielgi" />
		<tag k="place" v="locality" />
		<tag k="ssr:stedsnr" v="930604" />
	</node>
	<node id="-779643" lat="70.2099778154" lon="29.4513320838">
		<tag k="name" v="Fárppaljohka" />
		<tag k="name:se" v="Fárppaljohka" />
		<tag k="old_name:se" v="Farpaljåkka" />
		<tag k="ssr:stedsnr" v="930598" />
		<tag k="waterway" v="stream" />
	</node>
	<node id="-779642" lat="70.1014750506" lon="30.1489872117">
		<tag k="name" v="Storelvneset" />
		<tag k="natural" v="cape" />
		<tag k="ssr:stedsnr" v="930566" />
	</node>
	<node id="-779641" lat="70.0855000535" lon="29.8234040507">
		<tag k="name" v="Navarsvannet" />
		<tag k="natural" v="water" />
		<tag k="ssr:stedsnr" v="930556" />
	</node>
	<node id="-779640" lat="70.0850528173" lon="29.551595869">
		<tag k="fixme" v="consider seamark:type=rock or natural=shoal" />
		<tag k="name" v="Sandskjæret" />
		<tag k="place" v="islet" />
		<tag k="ssr:stedsnr" v="930551" />
	</node>
	<node id="-779639" lat="70.0746611646" lon="29.890881789">
		<tag k="name" v="Nedre Akslavannet" />
		<tag k="natural" v="water" />
		<tag k="ssr:stedsnr" v="930547" />
		<tag k="water" v="lake" />
	</node>
	<node id="-779638" lat="70.0752055998" lon="29.8566123742">
		<tag k="name" v="Skallskogvannet" />
		<tag k="natural" v="water" />
		<tag k="ssr:stedsnr" v="930543" />
	</node>
	<node id="-779637" lat="70.1129750413" lon="29.3587793203">
		<tag k="name" v="Sudimyra - Čuđđejeaggi - Lauriniemenjänkkä" />
		<tag k="name:fkv" v="Lauriniemenjänkkä" />
		<tag k="name:no" v="Sudimyra" />
		<tag k="name:se" v="Čuđđejeaggi" />
		<tag k="natural" v="wetland" />
		<tag k="old_name:se" v="Čuđđejæggi" />
		<tag k="ssr:stedsnr" v="929652" />
	</node>
	<node id="-779636" lat="70.1114889316" lon="29.3329765349">
		<tag k="name" v="Vestre Jakobselv - Ánnejohka - Annijoki" />
		<tag k="name:fkv" v="Annijoki" />
		<tag k="name:no" v="Vestre Jakobselv" />
		<tag k="name:se" v="Ánnejohka" />
		<tag k="place" v="village" />
		<tag k="ssr:stedsnr" v="929611" />
	</node>
	<node id="-779635" lat="70.1500972614" lon="29.3367209993">
		<tag k="name" v="Lille Vaselva" />
		<tag k="ssr:stedsnr" v="880966" />
		<tag k="waterway" v="stream" />
	</node>
	<node id="-779634" lat="70.1917278298" lon="30.1914816636">
		<tag k="name" v="Nedre Torvmælen" />
		<tag k="natural" v="wetland" />
		<tag k="ssr:stedsnr" v="880750" />
	</node>
	<node id="-779633" lat="70.1907444965" lon="30.2094344259">
		<tag k="name" v="Blindtarmen" />
		<tag k="natural" v="water" />
		<tag k="ssr:stedsnr" v="880747" />
		<tag k="water" v="lake" />
	</node>
	<node id="-779632" lat="70.1343917262" lon="30.3254093228">
		<tag k="name" v="Rullestrand" />
		<tag k="natural" v="beach" />
		<tag k="place" v="locality" />
		<tag k="ssr:stedsnr" v="880740" />
	</node>
	<node id="-779631" lat="70.189277832" lon="30.3451621245">
		<tag k="name" v="Enkanoja" />
		<tag k="name:fkv" v="Enkanoja" />
		<tag k="old_name:fkv" v="Enganoja" />
		<tag k="ssr:stedsnr" v="880692" />
		<tag k="waterway" v="stream" />
	</node>
	<node id="-779630" lat="70.1898000541" lon="30.3296537889">
		<tag k="name" v="Raet" />
		<tag k="natural" v="ridge" />
		<tag k="place" v="locality" />
		<tag k="ssr:stedsnr" v="880670" />
	</node>
	<node id="-779629" lat="70.0720944948" lon="30.0008372936">
		<tag k="name" v="Berget" />
		<tag k="natural" v="hill" />
		<tag k="place" v="locality" />
		<tag k="ssr:stedsnr" v="880620" />
	</node>
	<node id="-779628" lat="70.0730222725" lon="30.0251317088">
		<tag k="name" v="Nikolaidammen" />
		<tag k="natural" v="water" />
		<tag k="ssr:stedsnr" v="880616" />
	</node>
	<node id="-779627" lat="70.0752083882" lon="30.1238927763">
		<tag k="name" v="Stormyra" />
		<tag k="natural" v="wetland" />
		<tag k="ssr:stedsnr" v="880568" />
	</node>
	<node id="-779626" lat="70.0718389398" lon="30.1469927502">
		<tag k="name" v="Storvannet" />
		<tag k="natural" v="water" />
		<tag k="ssr:stedsnr" v="880566" />
	</node>
	<node id="-779625" lat="70.1237472699" lon="30.161212213">
		<tag k="name" v="Sølvfarm" />
		<tag k="natural" v="cliff" />
		<tag k="ssr:stedsnr" v="880532" />
	</node>
	<node id="-779624" lat="70.0731917134" lon="29.9456789911">
		<tag k="name" v="Pärinpääjänkkä" />
		<tag k="name:fkv" v="Pärinpääjänkkä" />
		<tag k="natural" v="wetland" />
		<tag k="ssr:stedsnr" v="880420" />
	</node>
	<node id="-779623" lat="70.0714889361" lon="29.937303978">
		<tag k="highway" v="path" />
		<tag k="name" v="Høivikvegen" />
		<tag k="ssr:stedsnr" v="880415" />
	</node>
	<node id="-779622" lat="70.0712111633" lon="29.9302928847">
		<tag k="name" v="Ylihaakinpäri" />
		<tag k="name:fkv" v="Ylihaakinpäri" />
		<tag k="natural" v="hill" />
		<tag k="place" v="locality" />
		<tag k="ssr:stedsnr" v="880410" />
	</node>
	<node id="-779621" lat="70.0762500506" lon="29.9250817824">
		<tag k="name" v="Iso-Louhikko" />
		<tag k="name:fkv" v="Iso-Louhikko" />
		<tag k="natural" v="scree" />
		<tag k="ssr:stedsnr" v="880406" />
	</node>
	<node id="-779620" lat="70.0891333854" lon="30.0362511683">
		<tag k="name" v="Monstavannet" />
		<tag k="natural" v="water" />
		<tag k="ssr:stedsnr" v="880397" />
		<tag k="water" v="lake" />
	</node>
	<node id="-779619" lat="70.0797028301" lon="29.9978317427">
		<tag k="name" v="Ugleberget" />
		<tag k="natural" v="hill" />
		<tag k="place" v="locality" />
		<tag k="ssr:stedsnr" v="880389" />
	</node>
	<node id="-779618" lat="70.0646944882" lon="29.7642096472">
		<tag k="name" v="Dammen" />
		<tag k="natural" v="water" />
		<tag k="ssr:stedsnr" v="880326" />
	</node>
	<node id="-779617" lat="70.1091361607" lon="29.9705039829">
		<tag k="name" v="Davidsenslåtta" />
		<tag k="place" v="locality" />
		<tag k="ssr:stedsnr" v="880285" />
	</node>
	<node id="-779616" lat="70.0604889431" lon="29.8680540183">
		<tag k="name" v="Flua" />
		<tag k="natural" v="cape" />
		<tag k="ssr:stedsnr" v="880281" />
	</node>
	<node id="-779615" lat="70.077369491" lon="29.8772290196">
		<tag k="name" v="Aksla" />
		<tag k="natural" v="hill" />
		<tag k="place" v="locality" />
		<tag k="ssr:stedsnr" v="880261" />
	</node>
	<node id="-779614" lat="70.070313934" lon="29.8090540603">
		<tag k="alt_name" v="Høvetsbakken" />
		<tag k="name" v="Høvedsbakken" />
		<tag k="natural" v="slope" />
		<tag k="place" v="locality" />
		<tag k="ssr:stedsnr" v="880253" />
	</node>
	<node id="-779613" lat="70.0919917122" lon="29.7447485594">
		<tag k="name" v="Fossen" />
		<tag k="natural" v="waterfall" />
		<tag k="ssr:stedsnr" v="880206" />
	</node>
	<node id="-779612" lat="70.0759500496" lon="29.7474179971">
		<tag k="building" v="commercial" />
		<tag k="name" v="Statens hus" />
		<tag k="ssr:stedsnr" v="880141" />
	</node>
	<node id="-779611" lat="70.1084333737" lon="29.3299432243">
		<tag k="name" v="Sudines" />
		<tag k="natural" v="cape" />
		<tag k="ssr:stedsnr" v="880073" />
	</node>
	<node id="-779610" lat="70.1848694823" lon="29.2636654926">
		<tag k="highway" v="path" />
		<tag k="name" v="Multebærveien - Hillatie" />
		<tag k="name:fkv" v="Hillatie" />
		<tag k="name:no" v="Multebærveien" />
		<tag k="ssr:stedsnr" v="880039" />
	</node>
	<node id="-779609" lat="70.1640528186" lon="29.3002793559">
		<tag k="name" v="Storstilla" />
		<tag k="natural" v="water" />
		<tag k="ssr:stedsnr" v="880004" />
		<tag k="water" v="lake" />
	</node>
	<node id="-779608" lat="70.1736305953" lon="29.2076460597">
		<tag k="name" v="Moskolpavannet" />
		<tag k="natural" v="water" />
		<tag k="ssr:stedsnr" v="878890" />
		<tag k="water" v="lake" />
	</node>
	<node id="-779607" lat="70.1603445005" lon="30.195387194">
		<tag k="name" v="Amandavannet" />
		<tag k="natural" v="water" />
		<tag k="ssr:stedsnr" v="878891" />
	</node>
	<node id="-779606" lat="70.2727278115" lon="29.4048765642">
		<tag k="fixme" v="consider natural=peak for the most distinct mountains in the district" />
		<tag k="name" v="Urdfjellet - Jiessavárri" />
		<tag k="name:no" v="Urdfjellet" />
		<tag k="name:se" v="Jiessavárri" />
		<tag k="natural" v="hill" />
		<tag k="old_name:se" v="Jiessavarri" />
		<tag k="place" v="locality" />
		<tag k="ssr:stedsnr" v="875982" />
	</node>
	<node id="-779605" lat="70.3277083745" lon="29.734423641">
		<tag k="fixme" v="consider natural=peak for the most distinct mountains in the district" />
		<tag k="name" v="Kjøltindan" />
		<tag k="natural" v="hill" />
		<tag k="place" v="locality" />
		<tag k="ssr:stedsnr" v="875770" />
	</node>
	<node id="-779604" lat="70.0682222746" lon="30.1048955411">
		<tag k="name" v="Finneset" />
		<tag k="natural" v="cape" />
		<tag k="ssr:stedsnr" v="875301" />
	</node>
	<node id="-779603" lat="70.0938055987" lon="29.5364319909">
		<tag k="name" v="Makkenes" />
		<tag k="place" v="isolated_dwelling" />
		<tag k="ssr:stedsnr" v="874700" />
	</node>
	<node id="-779602" lat="70.0776500508" lon="30.0878344585">
		<tag k="fixme" v="multiple name tags, choose one and add the other to alt_name" />
		<tag k="name" v="Bukta;Innersida" />
		<tag k="natural" v="bay" />
		<tag k="ssr:stedsnr" v="874192" />
	</node>
	<node id="-779601" lat="70.2543944831" lon="29.4875320733">
		<tag k="fixme" v="consider natural=peak for the most distinct mountains in the district" />
		<tag k="name" v="Stuorraboldni" />
		<tag k="name:se" v="Stuorraboldni" />
		<tag k="natural" v="hill" />
		<tag k="old_name:se" v="Stuorrabåldni" />
		<tag k="place" v="locality" />
		<tag k="ssr:stedsnr" v="870888" />
	</node>
	<node id="-779600" lat="70.1654250459" lon="29.9765789989">
		<tag k="name" v="Vasavannet - Riddojávri" />
		<tag k="name:no" v="Vasavannet" />
		<tag k="name:se" v="Riddojávri" />
		<tag k="natural" v="water" />
		<tag k="old_name:se" v="Riddujavri" />
		<tag k="ssr:stedsnr" v="870627" />
		<tag k="water" v="lake" />
	</node>
	<node id="-779599" lat="70.1605778225" lon="29.7968513181">
		<tag k="fixme" v="consider natural=peak for the most distinct mountains in the district" />
		<tag k="name" v="Nattfjellet - Idjaoaivi" />
		<tag k="name:no" v="Nattfjellet" />
		<tag k="name:se" v="Idjaoaivi" />
		<tag k="natural" v="hill" />
		<tag k="old_name:se" v="Iddjaoaivi" />
		<tag k="place" v="locality" />
		<tag k="ssr:stedsnr" v="870625" />
	</node>
	<node id="-779598" lat="70.1543778166" lon="29.5434653457">
		<tag k="name" v="Vasselva" />
		<tag k="ssr:stedsnr" v="870618" />
		<tag k="waterway" v="stream" />
	</node>
	<node id="-779597" lat="70.1232083745" lon="29.5640125429">
		<tag k="name" v="Andersbyvannet - Goahtejávri" />
		<tag k="name:no" v="Andersbyvannet" />
		<tag k="name:se" v="Goahtejávri" />
		<tag k="natural" v="water" />
		<tag k="old_name:se" v="Goattejavri" />
		<tag k="ssr:stedsnr" v="870610" />
		<tag k="water" v="lake" />
	</node>
	<node id="-779596" lat="70.1069861549" lon="29.5188764599">
		<tag k="alt_name" v="Makkefjell;Makkfjellet" />
		<tag k="fixme" v="consider natural=peak for the most distinct mountains in the district" />
		<tag k="name" v="Makkefjellet" />
		<tag k="natural" v="hill" />
		<tag k="place" v="locality" />
		<tag k="ssr:stedsnr" v="870598" />
	</node>
	<node id="-779595" lat="70.1123472673" lon="29.6440513827">
		<tag k="loc_name:se" v="Vuorjánjohka" />
		<tag k="name" v="Tomaselva - Turvejoki" />
		<tag k="name:fkv" v="Turvejoki" />
		<tag k="name:no" v="Tomaselva" />
		<tag k="old_name:no" v="Thomaselva" />
		<tag k="ssr:stedsnr" v="870596" />
		<tag k="waterway" v="river" />
	</node>
	<node id="-779594" lat="70.0933083814" lon="29.5609292002">
		<tag k="name" v="Blåbærnes" />
		<tag k="natural" v="cape" />
		<tag k="ssr:stedsnr" v="870588" />
	</node>
	<node id="-779593" lat="70.1255917248" lon="30.1601455353">
		<tag k="alt_name:no" v="Holmfjell" />
		<tag k="fixme" v="consider natural=peak for the most distinct mountains in the district" />
		<tag k="name" v="Holmfjellet - Suolovárri" />
		<tag k="name:no" v="Holmfjellet" />
		<tag k="name:se" v="Suolovárri" />
		<tag k="natural" v="hill" />
		<tag k="old_name:se" v="Suoluvarri" />
		<tag k="place" v="locality" />
		<tag k="ssr:stedsnr" v="870553" />
	</node>
	<node id="-779592" lat="70.0788500481" lon="30.076026133">
		<tag k="name" v="Sollnes" />
		<tag k="natural" v="cape" />
		<tag k="ssr:stedsnr" v="870546" />
	</node>
	<node id="-779591" lat="70.0772861608" lon="30.1390010912">
		<tag k="alt_name" v="Vardneset" />
		<tag k="name" v="Varnes" />
		<tag k="natural" v="cape" />
		<tag k="ssr:stedsnr" v="870545" />
	</node>
	<node id="-779590" lat="70.0989361577" lon="30.0437456043">
		<tag k="name" v="Varskog" />
		<tag k="place" v="locality" />
		<tag k="ssr:stedsnr" v="870541" />
	</node>
	<node id="-779589" lat="70.0924611577" lon="29.7598791063">
		<tag k="fixme" v="consider natural=peak for the most distinct mountains in the district" />
		<tag k="name" v="Basis B" />
		<tag k="natural" v="hill" />
		<tag k="place" v="locality" />
		<tag k="ssr:stedsnr" v="870528" />
	</node>
	<node id="-779588" lat="70.0853750433" lon="29.7553790887">
		<tag k="alt_name" v="Glasberget" />
		<tag k="name" v="Glassberget" />
		<tag k="natural" v="hill" />
		<tag k="place" v="locality" />
		<tag k="ssr:stedsnr" v="870527" />
	</node>
	<node id="-779587" lat="70.0733306035" lon="30.0317122711">
		<tag k="fixme" v="consider place=hamlet" />
		<tag k="name" v="Golnes" />
		<tag k="place" v="village" />
		<tag k="ssr:stedsnr" v="870482" />
	</node>
	<node id="-779586" lat="70.4474250346" lon="29.3154822205">
		<tag k="fixme" v="consider natural=peak for the most distinct mountains in the district" />
		<tag k="name" v="Rávdolčohkka" />
		<tag k="name:se" v="Rávdolčohkka" />
		<tag k="natural" v="hill" />
		<tag k="old_name:se" v="Ravdulčåkka" />
		<tag k="place" v="locality" />
		<tag k="ssr:stedsnr" v="869947" />
	</node>
	<node id="-779585" lat="70.4261750295" lon="29.2297266785">
		<tag k="fixme" v="consider natural=peak for the most distinct mountains in the district" />
		<tag k="name" v="Njukčanjunis" />
		<tag k="name:se" v="Njukčanjunis" />
		<tag k="natural" v="hill" />
		<tag k="place" v="locality" />
		<tag k="ssr:stedsnr" v="869937" />
	</node>
	<node id="-779584" lat="70.3905250363" lon="29.3180294234">
		<tag k="fixme" v="consider natural=peak for the most distinct mountains in the district" />
		<tag k="name" v="Njuvččanjunis" />
		<tag k="name:se" v="Njuvččanjunis" />
		<tag k="natural" v="hill" />
		<tag k="old_name:se" v="Njuvčanjunis" />
		<tag k="place" v="locality" />
		<tag k="ssr:stedsnr" v="869935" />
	</node>
	<node id="-779583" lat="70.155291706" lon="29.4046431892">
		<tag k="name" v="Falkevannet" />
		<tag k="natural" v="water" />
		<tag k="ssr:stedsnr" v="869755" />
	</node>
	<node id="-779582" lat="70.1782944966" lon="30.2944871621">
		<tag k="name" v="Sinisiikki" />
		<tag k="name:fkv" v="Sinisiikki" />
		<tag k="old_name:fkv" v="Sinsigi" />
		<tag k="place" v="locality" />
		<tag k="ssr:stedsnr" v="869584" />
	</node>
	<node id="-779581" lat="70.2339972725" lon="30.1788400198">
		<tag k="name" v="Skallelva - Gállojohka - Kallijoki" />
		<tag k="name:fkv" v="Kallijoki" />
		<tag k="name:no" v="Skallelva" />
		<tag k="name:se" v="Gállojohka" />
		<tag k="old_name:se" v="Guovdevaggejåkka;Guovduvaggejåkka;Guovdovákkejohka" />
		<tag k="ssr:stedsnr" v="869553" />
		<tag k="waterway" v="river" />
	</node>
	<node id="-779580" lat="70.0601639389" lon="29.8776873619">
		<tag k="name" v="Samuelbyneset" />
		<tag k="natural" v="cape" />
		<tag k="ssr:stedsnr" v="869547" />
	</node>
	<node id="-779579" lat="70.2165306054" lon="30.099231744">
		<tag k="name" v="Tverrelva - Tievanjoki" />
		<tag k="name:fkv" v="Tievanjoki" />
		<tag k="name:no" v="Tverrelva" />
		<tag k="old_name:fkv" v="Dievanjåki" />
		<tag k="ssr:stedsnr" v="869543" />
		<tag k="waterway" v="stream" />
	</node>
	<node id="-779578" lat="70.232802829" lon="30.2141677768">
		<tag k="name" v="Rássejohka - Niskanoja" />
		<tag k="name:fkv" v="Niskanoja" />
		<tag k="name:se" v="Rássejohka" />
		<tag k="old_name:fkv" v="Niskanåja" />
		<tag k="old_name:se" v="Rassejåkka" />
		<tag k="ssr:stedsnr" v="869537" />
		<tag k="waterway" v="stream" />
	</node>
	<node id="-779577" lat="70.2291500567" lon="30.2993288303">
		<tag k="name" v="Holmfjellvannet - Lumipilkkajärvi" />
		<tag k="name:fkv" v="Lumipilkkajärvi" />
		<tag k="name:no" v="Holmfjellvannet" />
		<tag k="natural" v="water" />
		<tag k="old_name:fkv" v="Lomibilkajærvi" />
		<tag k="ssr:stedsnr" v="869533" />
	</node>
	<node id="-779576" lat="70.1074861479" lon="29.3610487596">
		<tag k="alt_name" v="Halsen, in" />
		<tag k="name" v="Indre Halsen" />
		<tag k="place" v="farm" />
		<tag k="ssr:stedsnr" v="868630" />
	</node>
	<node id="-779574" lat="70.127688944" lon="30.2572704913">
		<tag k="name" v="Falkelvhøgda" />
		<tag k="natural" v="hill" />
		<tag k="place" v="locality" />
		<tag k="ssr:stedsnr" v="819744" />
	</node>
	<node id="-779573" lat="70.1266556122" lon="30.2474760388">
		<tag k="name" v="Falkelvvannan" />
		<tag k="natural" v="water" />
		<tag k="ssr:stedsnr" v="819743" />
		<tag k="water" v="lake" />
	</node>
	<node id="-779572" lat="70.0746139427" lon="29.9790150835">
		<tag k="name" v="Løfgreninjänkkä" />
		<tag k="name:fkv" v="Løfgreninjänkkä" />
		<tag k="natural" v="wetland" />
		<tag k="ssr:stedsnr" v="819631" />
	</node>
	<node id="-779571" lat="70.0666361636" lon="29.9729761843">
		<tag k="name" v="Pitkäkallionnokka" />
		<tag k="name:fkv" v="Pitkäkallionnokka" />
		<tag k="natural" v="cape" />
		<tag k="ssr:stedsnr" v="819624" />
	</node>
	<node id="-779570" lat="70.0753111647" lon="30.0424678047">
		<tag k="name" v="Golneshalsen" />
		<tag k="natural" v="hill" />
		<tag k="place" v="locality" />
		<tag k="ssr:stedsnr" v="819608" />
	</node>
	<node id="-779569" lat="70.0704861643" lon="30.1238927713">
		<tag k="name" v="Flågan" />
		<tag k="natural" v="cliff" />
		<tag k="ssr:stedsnr" v="819569" />
	</node>
	<node id="-779568" lat="70.1064000542" lon="30.1221344567">
		<tag k="name" v="Siribakkelva" />
		<tag k="ssr:stedsnr" v="819529" />
		<tag k="waterway" v="stream" />
	</node>
	<node id="-779567" lat="70.1160194965" lon="30.0740789202">
		<tag k="name" v="Majomyra" />
		<tag k="natural" v="wetland" />
		<tag k="ssr:stedsnr" v="819526" />
	</node>
	<node id="-779566" lat="70.0751139374" lon="29.9608734166">
		<tag k="name" v="Torvmyra - Takajänkkä" />
		<tag k="name:fkv" v="Takajänkkä" />
		<tag k="name:no" v="Torvmyra" />
		<tag k="natural" v="wetland" />
		<tag k="ssr:stedsnr" v="819456" />
	</node>
	<node id="-779565" lat="70.0748722697" lon="29.9407317548">
		<tag k="name" v="Kettupäri" />
		<tag k="name:fkv" v="Kettupäri" />
		<tag k="natural" v="hill" />
		<tag k="place" v="locality" />
		<tag k="ssr:stedsnr" v="819444" />
	</node>
	<node id="-779564" lat="70.0678194932" lon="29.8987956749">
		<tag k="name" v="Sjåbuselvmyra" />
		<tag k="natural" v="wetland" />
		<tag k="ssr:stedsnr" v="819439" />
	</node>
	<node id="-779563" lat="70.0660694912" lon="29.760656863">
		<tag k="name" v="Travbane" />
		<tag k="place" v="locality" />
		<tag k="ssr:stedsnr" v="819368" />
	</node>
	<node id="-779562" lat="70.1099444958" lon="29.8411790659">
		<tag k="name" v="Itkukuru" />
		<tag k="name:fkv" v="Itkukuru" />
		<tag k="natural" v="valley" />
		<tag k="place" v="locality" />
		<tag k="ssr:stedsnr" v="819338" />
	</node>
	<node id="-779561" lat="70.1072750469" lon="29.9133540269">
		<tag k="name" v="Keitabekken" />
		<tag k="ssr:stedsnr" v="819331" />
		<tag k="waterway" v="stream" />
	</node>
	<node id="-779560" lat="70.1050944974" lon="29.9489178813">
		<tag k="name" v="Mentyjærvislåtta" />
		<tag k="place" v="locality" />
		<tag k="ssr:stedsnr" v="819324" />
	</node>
	<node id="-779559" lat="70.0606056087" lon="29.8775901261">
		<tag k="name" v="Samuelby" />
		<tag k="place" v="locality" />
		<tag k="ssr:stedsnr" v="819320" />
	</node>
	<node id="-779558" lat="70.0759778247" lon="29.8682456823">
		<tag k="name" v="Elvekrokan" />
		<tag k="natural" v="bay" />
		<tag k="ssr:stedsnr" v="819288" />
	</node>
	<node id="-779557" lat="70.0813778298" lon="29.7352124335">
		<tag k="amenity" v="townhall" />
		<tag k="name" v="Finnmark Fylkeskommune" />
		<tag k="ssr:stedsnr" v="819262" />
	</node>
	<node id="-779556" lat="70.080758385" lon="29.8769345973">
		<tag k="fixme" v="consider natural=peak for the most distinct mountains in the district" />
		<tag k="name" v="Indre Aksla" />
		<tag k="natural" v="hill" />
		<tag k="place" v="locality" />
		<tag k="ssr:stedsnr" v="819250" />
	</node>
	<node id="-779555" lat="70.0977639397" lon="29.7516763277">
		<tag k="highway" v="path" />
		<tag k="name" v="Sommervegen" />
		<tag k="ssr:stedsnr" v="819224" />
	</node>
	<node id="-779554" lat="70.0828417172" lon="29.7914262865">
		<tag k="name" v="Naversiket" />
		<tag k="ssr:stedsnr" v="819212" />
		<tag k="waterway" v="stream" />
	</node>
	<node id="-779553" lat="70.0714694952" lon="29.7189124413">
		<tag k="building" v="industrial" />
		<tag k="industrial" v="factory" />
		<tag k="name" v="Sildoljefabrikk" />
		<tag k="ssr:stedsnr" v="819181" />
	</node>
	<node id="-779552" lat="70.0772889357" lon="29.7166513481">
		<tag k="leisure" v="marina" />
		<tag k="name" v="Småbåthamn" />
		<tag k="ssr:stedsnr" v="819179" />
	</node>
	<node id="-779551" lat="70.0944917133" lon="29.5443014353">
		<tag k="name" v="Hestelva" />
		<tag k="ssr:stedsnr" v="819111" />
		<tag k="waterway" v="stream" />
	</node>
	<node id="-779550" lat="70.1214667046" lon="29.261773811">
		<tag k="name" v="Fannebákti" />
		<tag k="name:se" v="Fannebákti" />
		<tag k="natural" v="hill" />
		<tag k="place" v="locality" />
		<tag k="ssr:stedsnr" v="819100" />
	</node>
	<node id="-779549" lat="70.0977778204" lon="29.6715152473">
		<tag k="name" v="Basis A-bakken" />
		<tag k="natural" v="slope" />
		<tag k="place" v="locality" />
		<tag k="ssr:stedsnr" v="819003" />
	</node>
	<node id="-779548" lat="70.0935750463" lon="29.7170402342">
		<tag k="name" v="Sandhaugen" />
		<tag k="natural" v="hill" />
		<tag k="place" v="locality" />
		<tag k="ssr:stedsnr" v="819002" />
	</node>
	<node id="-779547" lat="70.1282083853" lon="30.2936149085">
		<tag k="name" v="Urnes" />
		<tag k="natural" v="cape" />
		<tag k="ssr:stedsnr" v="817905" />
	</node>
	<node id="-779546" lat="70.1845750435" lon="29.8346902119">
		<tag k="fixme" v="consider natural=peak for the most distinct mountains in the district" />
		<tag k="name" v="Steinfjellet - Riddočearru" />
		<tag k="name:no" v="Steinfjellet" />
		<tag k="name:se" v="Riddočearru" />
		<tag k="natural" v="hill" />
		<tag k="old_name:se" v="Riddučærro;Riddučearru" />
		<tag k="place" v="locality" />
		<tag k="ssr:stedsnr" v="815520" />
	</node>
	<node id="-779545" lat="70.1345917027" lon="29.3754737428">
		<tag k="fixme" v="consider natural=peak for the most distinct mountains in the district" />
		<tag k="name" v="Solvarden - Suolovárri" />
		<tag k="name:no" v="Solvarden" />
		<tag k="name:se" v="Suolovárri" />
		<tag k="natural" v="hill" />
		<tag k="old_name:se" v="Suoluvarri" />
		<tag k="place" v="locality" />
		<tag k="ssr:stedsnr" v="813393" />
	</node>
	<node id="-779544" lat="70.2897361483" lon="29.649715339">
		<tag k="name" v="Guovdoaijávri" />
		<tag k="name:se" v="Guovdoaijávri" />
		<tag k="natural" v="water" />
		<tag k="old_name:se" v="Guovdoaijavri" />
		<tag k="ssr:stedsnr" v="809922" />
		<tag k="water" v="lake" />
	</node>
	<node id="-779543" lat="70.1562833799" lon="29.7594763579">
		<tag k="fixme" v="consider natural=peak for the most distinct mountains in the district" />
		<tag k="name" v="Lovttašvárri" />
		<tag k="name:se" v="Lovttašvárri" />
		<tag k="natural" v="hill" />
		<tag k="old_name:se" v="Låvtašvarri" />
		<tag k="place" v="locality" />
		<tag k="ssr:stedsnr" v="809653" />
	</node>
	<node id="-779542" lat="70.1572750392" lon="29.568848664">
		<tag k="fixme" v="consider natural=peak for the most distinct mountains in the district" />
		<tag k="name" v="Ciehkoaivi" />
		<tag k="name:se" v="Ciehkoaivi" />
		<tag k="natural" v="hill" />
		<tag k="old_name:se" v="Ciekkoaivi" />
		<tag k="place" v="locality" />
		<tag k="ssr:stedsnr" v="809652" />
	</node>
	<node id="-779541" lat="70.0995083733" lon="29.4367431497">
		<tag k="fixme" v="consider place=hamlet" />
		<tag k="name" v="Paddeby" />
		<tag k="place" v="village" />
		<tag k="ssr:stedsnr" v="809635" />
	</node>
	<node id="-779540" lat="70.1006806064" lon="29.7105930088">
		<tag k="alt_name" v="Klippeskardet" />
		<tag k="name" v="Klippeskaret" />
		<tag k="natural" v="valley" />
		<tag k="place" v="locality" />
		<tag k="ssr:stedsnr" v="809630" />
	</node>
	<node id="-779539" lat="70.2196555902" lon="29.4732654029">
		<tag k="fixme" v="consider natural=peak for the most distinct mountains in the district" />
		<tag k="name" v="Fárppaloaivi" />
		<tag k="name:se" v="Fárppaloaivi" />
		<tag k="natural" v="hill" />
		<tag k="old_name:se" v="Farpaloaivi" />
		<tag k="place" v="locality" />
		<tag k="ssr:stedsnr" v="809598" />
	</node>
	<node id="-779538" lat="70.1780000512" lon="30.0353373187">
		<tag k="name" v="Vasaelva" />
		<tag k="ssr:stedsnr" v="809572" />
		<tag k="waterway" v="stream" />
	</node>
	<node id="-779537" lat="70.2678861484" lon="29.5895098182">
		<tag k="name" v="Guorrojohka" />
		<tag k="name:se" v="Guorrojohka" />
		<tag k="old_name:se" v="Guorrujåkka" />
		<tag k="ssr:stedsnr" v="809571" />
		<tag k="waterway" v="river" />
	</node>
	<node id="-779536" lat="70.1404195004" lon="30.1902177495">
		<tag k="name" v="Urnesvannet" />
		<tag k="natural" v="water" />
		<tag k="ssr:stedsnr" v="809567" />
	</node>
	<node id="-779535" lat="70.1331361624" lon="30.2795621433">
		<tag k="name" v="Urnesdalen" />
		<tag k="natural" v="valley" />
		<tag k="place" v="locality" />
		<tag k="ssr:stedsnr" v="809565" />
	</node>
	<node id="-779534" lat="70.1457111676" lon="30.3563426386">
		<tag k="alt_name:no" v="Falkekeila" />
		<tag k="name" v="Falkkeila - Falkkikeila" />
		<tag k="name:fkv" v="Falkkikeila" />
		<tag k="name:no" v="Falkkeila" />
		<tag k="natural" v="bay" />
		<tag k="ssr:stedsnr" v="809564" />
	</node>
	<node id="-779533" lat="70.2079278276" lon="30.1589844774">
		<tag k="name" v="Pikkumittajärvi" />
		<tag k="name:fkv" v="Pikkumittajärvi" />
		<tag k="natural" v="water" />
		<tag k="old_name:fkv" v="Bikkomittajærvi" />
		<tag k="ssr:stedsnr" v="809531" />
	</node>
	<node id="-779532" lat="70.1007389268" lon="29.3801820764">
		<tag k="alt_name:no" v="Kargil" />
		<tag k="name" v="Kariel - Gárjil - Karieli" />
		<tag k="name:fkv" v="Karieli" />
		<tag k="name:no" v="Kariel" />
		<tag k="name:se" v="Gárjil" />
		<tag k="place" v="hamlet" />
		<tag k="ssr:stedsnr" v="808671" />
	</node>
	<node id="-779531" lat="70.1365167066" lon="29.3121793516">
		<tag k="alt_name" v="2.Fossen" />
		<tag k="name" v="Andrefossen" />
		<tag k="natural" v="waterfall" />
		<tag k="ssr:stedsnr" v="808649" />
	</node>
	<node id="-779530" lat="70.1170500367" lon="29.2955765737">
		<tag k="alt_name:no" v="Skitenelva;Skitnelv" />
		<tag k="name" v="Skittenelv - Baikajohka" />
		<tag k="name:no" v="Skittenelv" />
		<tag k="name:se" v="Baikajohka" />
		<tag k="place" v="hamlet" />
		<tag k="ssr:stedsnr" v="808638" />
	</node>
	<node id="-779529" lat="70.1327139309" lon="29.4319014999">
		<tag k="name" v="Røvarvannet - Čuđđejávri" />
		<tag k="name:no" v="Røvarvannet" />
		<tag k="name:se" v="Čuđđejávri" />
		<tag k="natural" v="water" />
		<tag k="old_name:se" v="Čuđđejavri" />
		<tag k="ssr:stedsnr" v="808623" />
	</node>
	<node id="-779528" lat="70.1356250412" lon="29.2346127066">
		<tag k="alt_name" v="Skittenelvdalen" />
		<tag k="name" v="Skitenelvdalen" />
		<tag k="natural" v="valley" />
		<tag k="place" v="locality" />
		<tag k="ssr:stedsnr" v="808619" />
	</node>
	<node id="-779527" lat="70.0803417121" lon="29.9040512307">
		<tag k="fixme" v="multiple name tags, choose one and add the other to alt_name" />
		<tag k="name" v="Akslavannet;Øvre Akslavannet" />
		<tag k="natural" v="water" />
		<tag k="ssr:stedsnr" v="808515" />
	</node>
	<node id="-779526" lat="70.062588942" lon="29.8228734898">
		<tag k="name" v="Navarsodden" />
		<tag k="natural" v="cape" />
		<tag k="ssr:stedsnr" v="808502" />
	</node>
	<node id="-779525" lat="70.0686889413" lon="29.8593484825">
		<tag k="name" v="Ingersvannet" />
		<tag k="natural" v="water" />
		<tag k="ssr:stedsnr" v="808495" />
	</node>
	<node id="-779524" lat="70.1096194969" lon="30.0382511654">
		<tag k="name" v="Storelva - Idjajohka" />
		<tag k="name:no" v="Storelva" />
		<tag k="name:se" v="Idjajohka" />
		<tag k="old_name:se" v="Iddjajåkka" />
		<tag k="ssr:stedsnr" v="808448" />
		<tag k="waterway" v="river" />
	</node>
	<node id="-779523" lat="70.0988222677" lon="29.4852986958">
		<tag k="name" v="Fugleberg" />
		<tag k="place" v="hamlet" />
		<tag k="ssr:stedsnr" v="758986" />
	</node>
	<node id="-779522" lat="70.1168361661" lon="30.1590510979">
		<tag k="highway" v="path" />
		<tag k="name" v="Storskogvegen" />
		<tag k="ssr:stedsnr" v="758758" />
	</node>
	<node id="-779521" lat="70.1026278284" lon="30.1913621812">
		<tag k="name" v="Dampen" />
		<tag k="natural" v="bay" />
		<tag k="ssr:stedsnr" v="758738" />
	</node>
	<node id="-779520" lat="70.1868972736" lon="30.2307510835">
		<tag k="name" v="Viltokulpen" />
		<tag k="place" v="locality" />
		<tag k="ssr:stedsnr" v="758734" />
	</node>
	<node id="-779519" lat="70.1398472738" lon="30.2670010464">
		<tag k="name" v="Langvannet - Pitkäjärvi" />
		<tag k="name:fkv" v="Pitkäjärvi" />
		<tag k="name:no" v="Langvannet" />
		<tag k="natural" v="water" />
		<tag k="ssr:stedsnr" v="758732" />
		<tag k="water" v="lake" />
	</node>
	<node id="-779518" lat="70.1189000564" lon="30.2380538182">
		<tag k="name" v="Jamtesanden" />
		<tag k="natural" v="beach" />
		<tag k="place" v="locality" />
		<tag k="ssr:stedsnr" v="758730" />
	</node>
	<node id="-779517" lat="70.1219306133" lon="30.2614843635">
		<tag k="name" v="Prekestolen" />
		<tag k="natural" v="hill" />
		<tag k="place" v="locality" />
		<tag k="ssr:stedsnr" v="758728" />
	</node>
	<node id="-779516" lat="70.2040028278" lon="30.2339622093">
		<tag k="name" v="Pekkonniitty" />
		<tag k="name:fkv" v="Pekkonniitty" />
		<tag k="place" v="locality" />
		<tag k="ssr:stedsnr" v="758691" />
	</node>
	<node id="-779515" lat="70.2132528302" lon="30.3686121086">
		<tag k="name" v="Tavijoken-kuru" />
		<tag k="name:fkv" v="Tavijoken-kuru" />
		<tag k="natural" v="valley" />
		<tag k="place" v="locality" />
		<tag k="ssr:stedsnr" v="758688" />
	</node>
	<node id="-779514" lat="70.0672694917" lon="29.9833817384">
		<tag k="name" v="Pelikallio" />
		<tag k="name:fkv" v="Pelikallio" />
		<tag k="natural" v="cliff" />
		<tag k="ssr:stedsnr" v="758634" />
	</node>
	<node id="-779513" lat="70.0798000538" lon="30.0587900373">
		<tag k="name" v="Reinfarsletta" />
		<tag k="place" v="locality" />
		<tag k="ssr:stedsnr" v="758617" />
	</node>
	<node id="-779512" lat="70.0709722808" lon="30.1594677418">
		<tag k="name" v="Småvannan" />
		<tag k="natural" v="water" />
		<tag k="ssr:stedsnr" v="758565" />
		<tag k="water" v="lake" />
	</node>
	<node id="-779511" lat="70.0801111595" lon="30.0125789416">
		<tag k="name" v="Leenankivi" />
		<tag k="name:fkv" v="Leenankivi" />
		<tag k="natural" v="stone" />
		<tag k="ssr:stedsnr" v="758449" />
	</node>
	<node id="-779510" lat="70.0889639397" lon="30.010256733">
		<tag k="fixme" v="consider natural=peak for the most distinct mountains in the district" />
		<tag k="name" v="Monsta" />
		<tag k="natural" v="hill" />
		<tag k="place" v="locality" />
		<tag k="ssr:stedsnr" v="758436" />
	</node>
	<node id="-779509" lat="70.0714972654" lon="29.7468040997">
		<tag k="man_made" v="quay" />
		<tag k="name" v="Fiskerikai" />
		<tag k="place" v="locality" />
		<tag k="ssr:stedsnr" v="758375" />
	</node>
	<node id="-779508" lat="70.0726583798" lon="29.7338263318">
		<tag k="name" v="Innseilingsrenne" />
		<tag k="place" v="locality" />
		<tag k="ssr:stedsnr" v="758367" />
	</node>
	<node id="-779507" lat="70.1067361556" lon="29.8177040718">
		<tag k="name" v="Lille Torsvarden" />
		<tag k="natural" v="hill" />
		<tag k="place" v="locality" />
		<tag k="ssr:stedsnr" v="758326" />
	</node>
	<node id="-779506" lat="70.0729917183" lon="29.8585984737">
		<tag k="name" v="Øvre Ingersbergan" />
		<tag k="natural" v="hill" />
		<tag k="place" v="locality" />
		<tag k="ssr:stedsnr" v="758313" />
	</node>
	<node id="-779505" lat="70.0901361534" lon="29.7944874143">
		<tag k="name" v="Kråkeberget" />
		<tag k="natural" v="hill" />
		<tag k="place" v="locality" />
		<tag k="ssr:stedsnr" v="758266" />
	</node>
	<node id="-779504" lat="70.0730861591" lon="29.7793263059">
		<tag k="leisure" v="marina" />
		<tag k="name" v="Småbåthamn" />
		<tag k="ssr:stedsnr" v="758223" />
	</node>
	<node id="-779503" lat="70.1291778149" lon="29.3175598777">
		<tag k="name" v="Båtkulpen" />
		<tag k="place" v="locality" />
		<tag k="ssr:stedsnr" v="758101" />
	</node>
	<node id="-779502" lat="70.1097139296" lon="29.3274265433">
		<tag k="leisure" v="marina" />
		<tag k="name" v="Hamna" />
		<tag k="ssr:stedsnr" v="758074" />
	</node>
	<node id="-779501" lat="70.1220611546" lon="29.325359883">
		<tag k="name" v="Hermannkulpen" />
		<tag k="place" v="locality" />
		<tag k="ssr:stedsnr" v="758072" />
	</node>
	<node id="-779500" lat="70.1750667057" lon="29.2317404889">
		<tag k="name" v="Hillaoja" />
		<tag k="name:fkv" v="Hillaoja" />
		<tag k="ssr:stedsnr" v="758046" />
		<tag k="waterway" v="stream" />
	</node>
	<node id="-779499" lat="70.1100805985" lon="29.6482180517">
		<tag k="name" v="Gingengammen" />
		<tag k="place" v="isolated_dwelling" />
		<tag k="ssr:stedsnr" v="758034" />
	</node>
	<node id="-779498" lat="70.1024889347" lon="29.5567958904">
		<tag k="name" v="Legdemyra" />
		<tag k="natural" v="wetland" />
		<tag k="ssr:stedsnr" v="758020" />
	</node>
	<node id="-779497" lat="70.0977055973" lon="29.6673958041">
		<tag k="name" v="Rødekorshytta" />
		<tag k="place" v="isolated_dwelling" />
		<tag k="ssr:stedsnr" v="758004" />
	</node>
	<node id="-779496" lat="70.1818500529" lon="30.1657705545">
		<tag k="name" v="Falkorfossen" />
		<tag k="natural" v="waterfall" />
		<tag k="ssr:stedsnr" v="756913" />
	</node>
	<node id="-779495" lat="70.334661147" lon="29.4026877004">
		<tag k="name" v="Tønnevannan - Fárppaljávrrit" />
		<tag k="name:no" v="Tønnevannan" />
		<tag k="name:se" v="Fárppaljávrrit" />
		<tag k="natural" v="water" />
		<tag k="old_name:se" v="Farpaljavrit" />
		<tag k="ssr:stedsnr" v="748995" />
		<tag k="water" v="lake" />
	</node>
	<node id="-779494" lat="70.3151167083" lon="29.931076311">
		<tag k="fixme" v="consider natural=peak for the most distinct mountains in the district" />
		<tag k="name" v="Uhcit Ruitu" />
		<tag k="name:se" v="Uhcit Ruitu" />
		<tag k="natural" v="hill" />
		<tag k="old_name:se" v="Ruito, uccit" />
		<tag k="place" v="locality" />
		<tag k="ssr:stedsnr" v="748917" />
	</node>
	<node id="-779493" lat="70.1712250381" lon="29.5701097822">
		<tag k="fixme" v="consider natural=peak for the most distinct mountains in the district" />
		<tag k="name" v="Nissoláhttenvárri" />
		<tag k="name:se" v="Nissoláhttenvárri" />
		<tag k="natural" v="hill" />
		<tag k="old_name:se" v="Nissulattenvarri" />
		<tag k="place" v="locality" />
		<tag k="ssr:stedsnr" v="748643" />
	</node>
	<node id="-779492" lat="70.1531944892" lon="29.7103486012">
		<tag k="name" v="Sisttetjohka" />
		<tag k="name:se" v="Sisttetjohka" />
		<tag k="old_name:se" v="Sistetjåkka" />
		<tag k="ssr:stedsnr" v="748640" />
		<tag k="waterway" v="river" />
	</node>
	<node id="-779491" lat="70.1288833794" lon="29.773879089">
		<tag k="name" v="Vinikabekken" />
		<tag k="ssr:stedsnr" v="748633" />
		<tag k="waterway" v="stream" />
	</node>
	<node id="-779490" lat="70.1084194909" lon="29.7122096906">
		<tag k="name" v="Svanevasshøgda" />
		<tag k="natural" v="hill" />
		<tag k="place" v="locality" />
		<tag k="ssr:stedsnr" v="748626" />
	</node>
	<node id="-779489" lat="70.1990389295" lon="29.6767569665">
		<tag k="name" v="Gåstjerna" />
		<tag k="natural" v="water" />
		<tag k="ssr:stedsnr" v="748580" />
	</node>
	<node id="-779488" lat="70.1826528246" lon="30.0463567403">
		<tag k="name" v="Hellestøkulpen" />
		<tag k="natural" v="water" />
		<tag k="ssr:stedsnr" v="748576" />
	</node>
	<node id="-779487" lat="70.2047389395" lon="30.3799010028">
		<tag k="name" v="Falkemyra - Juntinjänkkä" />
		<tag k="name:fkv" v="Juntinjänkkä" />
		<tag k="name:no" v="Falkemyra" />
		<tag k="natural" v="wetland" />
		<tag k="ssr:stedsnr" v="748574" />
	</node>
	<node id="-779486" lat="70.1442139388" lon="30.1475761025">
		<tag k="name" v="Trettenvannan" />
		<tag k="natural" v="water" />
		<tag k="ssr:stedsnr" v="748570" />
		<tag k="water" v="lake" />
	</node>
	<node id="-779485" lat="70.1892056087" lon="30.3571954547">
		<tag k="name" v="Makkenes - Matoniemi" />
		<tag k="name:fkv" v="Matoniemi" />
		<tag k="name:no" v="Makkenes" />
		<tag k="natural" v="cape" />
		<tag k="old_name:fkv" v="Madåniemi" />
		<tag k="ssr:stedsnr" v="748565" />
	</node>
	<node id="-779484" lat="70.0903056101" lon="30.2398787959">
		<tag k="name" v="Lille Ekkerøy" />
		<tag k="old_name" v="Ekkerøy, lille" />
		<tag k="place" v="island" />
		<tag k="ssr:stedsnr" v="748556" />
	</node>
	<node id="-779483" lat="70.1233056103" lon="30.2942343342">
		<tag k="name" v="Urnesodden" />
		<tag k="natural" v="cape" />
		<tag k="ssr:stedsnr" v="748551" />
	</node>
	<node id="-779482" lat="70.0624889401" lon="29.8566734799">
		<tag k="fixme" v="consider place=suburb, village or hamlet" />
		<tag k="name" v="Kiby" />
		<tag k="place" v="quarter" />
		<tag k="ssr:stedsnr" v="748524" />
	</node>
	<node id="-779481" lat="70.2171861607" lon="30.3670982329">
		<tag k="name" v="Store Davvejohka - Davvejohka - Tavijoki" />
		<tag k="name:fkv" v="Tavijoki" />
		<tag k="name:no" v="Store Davvejohka" />
		<tag k="name:se" v="Davvejohka" />
		<tag k="old_name:no" v="Davvejåkka, store" />
		<tag k="ssr:stedsnr" v="748518" />
		<tag k="waterway" v="stream" />
	</node>
	<node id="-779480" lat="70.2021389378" lon="30.2999927109">
		<tag k="name" v="Maanlaita" />
		<tag k="name:fkv" v="Maanlaita" />
		<tag k="old_name:fkv" v="Malaida" />
		<tag k="place" v="locality" />
		<tag k="ssr:stedsnr" v="748517" />
	</node>
	<node id="-779479" lat="70.1926333666" lon="29.3740237801">
		<tag k="fixme" v="consider natural=peak for the most distinct mountains in the district" />
		<tag k="name" v="Høyelvfjellet" />
		<tag k="natural" v="hill" />
		<tag k="place" v="locality" />
		<tag k="ssr:stedsnr" v="747742" />
	</node>
	<node id="-779478" lat="70.1625555949" lon="29.3682987543">
		<tag k="name" v="Bikkájávri" />
		<tag k="name:se" v="Bikkájávri" />
		<tag k="natural" v="water" />
		<tag k="old_name:se" v="Biggajavri" />
		<tag k="ssr:stedsnr" v="747714" />
	</node>
	<node id="-779477" lat="70.1159167048" lon="29.3966237425">
		<tag k="fixme" v="consider natural=peak for the most distinct mountains in the district" />
		<tag k="name" v="Čuđđevárri" />
		<tag k="name:se" v="Čuđđevárri" />
		<tag k="natural" v="hill" />
		<tag k="old_name:se" v="Čuđđevarri" />
		<tag k="place" v="locality" />
		<tag k="ssr:stedsnr" v="747665" />
	</node>
	<node id="-779476" lat="70.1296389295" lon="29.3270265648">
		<tag k="alt_name:no" v="Lortskardet" />
		<tag k="name" v="Lortskaret - Rapakuru" />
		<tag k="name:fkv" v="Rapakuru" />
		<tag k="name:no" v="Lortskaret" />
		<tag k="natural" v="valley" />
		<tag k="place" v="locality" />
		<tag k="ssr:stedsnr" v="747626" />
	</node>
	<node id="-779475" lat="70.0668222664" lon="29.7466735247">
		<tag k="name" v="Vadsøya" />
		<tag k="place" v="island" />
		<tag k="ssr:stedsnr" v="747516" />
	</node>
	<node id="-779474" lat="70.0835972674" lon="29.7578013092">
		<tag k="name" v="Fossgård" />
		<tag k="place" v="farm" />
		<tag k="ssr:stedsnr" v="869567" />
	</node>
	<node id="-779473" lat="70.0850056086" lon="29.9786984264">
		<tag k="name" v="Monstadvannet" />
		<tag k="natural" v="water" />
		<tag k="ssr:stedsnr" v="869563" />
	</node>
	<node id="-779472" lat="70.083469488" lon="29.6830735663">
		<tag k="name" v="Stykket" />
		<tag k="place" v="isolated_dwelling" />
		<tag k="ssr:stedsnr" v="716982" />
	</node>
	<node id="-779470" lat="70.1147139297" lon="29.1989627124">
		<tag k="alt_name:se" v="Murggiid" />
		<tag k="name" v="Murgget" />
		<tag k="name:se" v="Murgget" />
		<tag k="natural" v="hill" />
		<tag k="old_name:se" v="Murget" />
		<tag k="place" v="locality" />
		<tag k="ssr:stedsnr" v="716388" />
	</node>
	<node id="-779469" lat="70.0999722616" lon="29.5140458958">
		<tag k="name" v="Karelinkuru" />
		<tag k="name:fkv" v="Karelinkuru" />
		<tag k="natural" v="valley" />
		<tag k="place" v="locality" />
		<tag k="ssr:stedsnr" v="698987" />
	</node>
	<node id="-779468" lat="70.1053806114" lon="30.1637622007">
		<tag k="name" v="Sollnes" />
		<tag k="natural" v="cape" />
		<tag k="ssr:stedsnr" v="698727" />
	</node>
	<node id="-779467" lat="70.1025000565" lon="30.1888649565">
		<tag k="name" v="Stikkfiskdammen" />
		<tag k="natural" v="water" />
		<tag k="ssr:stedsnr" v="698728" />
	</node>
	<node id="-779466" lat="70.1112528312" lon="30.1580927725">
		<tag k="name" v="Fossen" />
		<tag k="place" v="isolated_dwelling" />
		<tag k="ssr:stedsnr" v="698721" />
	</node>
	<node id="-779465" lat="70.1373833878" lon="30.3397009948">
		<tag k="name" v="Lohikallio" />
		<tag k="name:fkv" v="Lohikallio" />
		<tag k="natural" v="hill" />
		<tag k="place" v="locality" />
		<tag k="ssr:stedsnr" v="698691" />
	</node>
	<node id="-779464" lat="70.2032278339" lon="30.3559287819">
		<tag k="alt_name" v="Ulkoranta-vegen" />
		<tag k="fixme" v="consider highway=path" />
		<tag k="highway" v="track" />
		<tag k="name" v="Tavijoki-vegen" />
		<tag k="ssr:stedsnr" v="698648" />
	</node>
	<node id="-779463" lat="70.2060222746" lon="30.3720676637">
		<tag k="name" v="Ulkoranta" />
		<tag k="name:fkv" v="Ulkoranta" />
		<tag k="place" v="locality" />
		<tag k="ssr:stedsnr" v="698646" />
	</node>
	<node id="-779462" lat="70.0728056082" lon="29.9760456398">
		<tag k="name" v="Takanjänkänpäri" />
		<tag k="name:fkv" v="Takanjänkänpäri" />
		<tag k="natural" v="hill" />
		<tag k="place" v="locality" />
		<tag k="ssr:stedsnr" v="698585" />
	</node>
	<node id="-779461" lat="70.0704028274" lon="30.0013289365">
		<tag k="name" v="Lille Salttjern - Pikkujärvi" />
		<tag k="name:fkv" v="Pikkujärvi" />
		<tag k="name:no" v="Lille Salttjern" />
		<tag k="place" v="hamlet" />
		<tag k="ssr:stedsnr" v="698576" />
	</node>
	<node id="-779460" lat="70.0736972724" lon="30.0398094826">
		<tag k="name" v="Saukkokallio" />
		<tag k="name:fkv" v="Saukkokallio" />
		<tag k="natural" v="cape" />
		<tag k="ssr:stedsnr" v="698574" />
	</node>
	<node id="-779459" lat="70.1184000521" lon="30.2053982733">
		<tag k="name" v="Siket" />
		<tag k="natural" v="wetland" />
		<tag k="ssr:stedsnr" v="698495" />
	</node>
	<node id="-779458" lat="70.1134306069" lon="30.0909150098">
		<tag k="name" v="Tverrelva" />
		<tag k="ssr:stedsnr" v="698474" />
		<tag k="waterway" v="stream" />
	</node>
	<node id="-779457" lat="70.0899806083" lon="29.958517874">
		<tag k="name" v="Monsta" />
		<tag k="natural" v="ridge" />
		<tag k="place" v="locality" />
		<tag k="ssr:stedsnr" v="698410" />
	</node>
	<node id="-779456" lat="70.0712528334" lon="29.9684289626">
		<tag k="name" v="Jänespäri" />
		<tag k="name:fkv" v="Jänespäri" />
		<tag k="natural" v="hill" />
		<tag k="place" v="locality" />
		<tag k="ssr:stedsnr" v="698404" />
	</node>
	<node id="-779455" lat="70.0724111629" lon="29.9625150974">
		<tag k="name" v="Lillemyra" />
		<tag k="natural" v="wetland" />
		<tag k="ssr:stedsnr" v="698403" />
	</node>
	<node id="-779454" lat="70.0699444874" lon="29.7339957639">
		<tag k="building" v="commercial" />
		<tag k="name" v="Industriutleiebygget" />
		<tag k="ssr:stedsnr" v="698296" />
	</node>
	<node id="-779453" lat="70.1133083782" lon="29.8799762686">
		<tag k="name" v="Kolmikanta" />
		<tag k="name:fkv" v="Kolmikanta" />
		<tag k="natural" v="slope" />
		<tag k="place" v="locality" />
		<tag k="ssr:stedsnr" v="698278" />
	</node>
	<node id="-779452" lat="70.0673667179" lon="29.8584818126">
		<tag k="name" v="Ingersbergan" />
		<tag k="natural" v="hill" />
		<tag k="place" v="locality" />
		<tag k="ssr:stedsnr" v="698240" />
	</node>
	<node id="-779451" lat="70.0848111627" lon="29.7310124382">
		<tag k="name" v="Prestelv nord" />
		<tag k="place" v="quarter" />
		<tag k="ssr:stedsnr" v="698194" />
	</node>
	<node id="-779450" lat="70.0932889339" lon="29.5425208701">
		<tag k="name" v="Makkeleira" />
		<tag k="natural" v="bay" />
		<tag k="ssr:stedsnr" v="698085" />
	</node>
	<node id="-779449" lat="70.0942778204" lon="29.5188875698">
		<tag k="name" v="Sandskjærbukta" />
		<tag k="natural" v="bay" />
		<tag k="ssr:stedsnr" v="698082" />
	</node>
	<node id="-779448" lat="70.0944167122" lon="29.5160597912">
		<tag k="name" v="Sandskjærneset" />
		<tag k="natural" v="cape" />
		<tag k="ssr:stedsnr" v="698080" />
	</node>
	<node id="-779447" lat="70.137505589" lon="29.2176655004">
		<tag k="name" v="Puurijärvi" />
		<tag k="name:fkv" v="Puurijärvi" />
		<tag k="natural" v="water" />
		<tag k="old_name:fkv" v="Bårrejärvi" />
		<tag k="ssr:stedsnr" v="697127" />
	</node>
	<node id="-779446" lat="70.1369194833" lon="29.3191904461">
		<tag k="name" v="Fossenakken" />
		<tag k="natural" v="hill" />
		<tag k="place" v="locality" />
		<tag k="ssr:stedsnr" v="697122" />
	</node>
	<node id="-779445" lat="70.124491709" lon="29.3205432228">
		<tag k="name" v="Esbensenkulpen" />
		<tag k="place" v="locality" />
		<tag k="ssr:stedsnr" v="697100" />
	</node>
	<node id="-779444" lat="70.1349694801" lon="29.3283654347">
		<tag k="fixme" v="consider highway=path" />
		<tag k="highway" v="track" />
		<tag k="name" v="Jordbruksveg" />
		<tag k="ssr:stedsnr" v="697098" />
	</node>
	<node id="-779443" lat="70.1340000383" lon="29.308257127">
		<tag k="name" v="Feriehjem" />
		<tag k="place" v="isolated_dwelling" />
		<tag k="ssr:stedsnr" v="697094" />
	</node>
	<node id="-779442" lat="70.1581639225" lon="29.2885821378">
		<tag k="name" v="Humpinlampi" />
		<tag k="name:fkv" v="Humpinlampi" />
		<tag k="natural" v="water" />
		<tag k="old_name:fkv" v="Hyvibilempi" />
		<tag k="ssr:stedsnr" v="697017" />
	</node>
	<node id="-779441" lat="70.0753806082" lon="29.923878994">
		<tag k="name" v="Pikku-Louhikko" />
		<tag k="name:fkv" v="Pikku-Louhikko" />
		<tag k="natural" v="scree" />
		<tag k="ssr:stedsnr" v="698372" />
	</node>
	<node id="-779440" lat="70.0855111615" lon="30.0195789371">
		<tag k="highway" v="path" />
		<tag k="name" v="Myllärintie" />
		<tag k="name:fkv" v="Myllärintie" />
		<tag k="ssr:stedsnr" v="698371" />
	</node>
	<node id="-779439" lat="70.1279000499" lon="30.2446316063">
		<tag k="name" v="Falkelvdalen" />
		<tag k="natural" v="valley" />
		<tag k="place" v="locality" />
		<tag k="ssr:stedsnr" v="695884" />
	</node>
	<node id="-779438" lat="70.1306333899" lon="30.2896732379">
		<tag k="name" v="Urneselva" />
		<tag k="ssr:stedsnr" v="695882" />
		<tag k="waterway" v="river" />
	</node>
	<node id="-779437" lat="70.1406306006" lon="29.6996791393">
		<tag k="name" v="Doappalávži" />
		<tag k="name:se" v="Doappalávži" />
		<tag k="natural" v="valley" />
		<tag k="old_name:se" v="Doabbalavži" />
		<tag k="place" v="locality" />
		<tag k="ssr:stedsnr" v="688625" />
	</node>
	<node id="-779436" lat="70.113527824" lon="29.6730819328">
		<tag k="name" v="Silstadhaugen" />
		<tag k="natural" v="hill" />
		<tag k="place" v="locality" />
		<tag k="ssr:stedsnr" v="688612" />
	</node>
	<node id="-779435" lat="70.0964583826" lon="29.8200734971">
		<tag k="fixme" v="consider natural=peak for the most distinct mountains in the district" />
		<tag k="name" v="Torsvarden - Doaresvárri" />
		<tag k="name:no" v="Torsvarden" />
		<tag k="name:se" v="Doaresvárri" />
		<tag k="natural" v="hill" />
		<tag k="old_name:se" v="Doaresvarri" />
		<tag k="place" v="locality" />
		<tag k="ssr:stedsnr" v="688606" />
	</node>
	<node id="-779434" lat="70.2840472583" lon="29.2663377476">
		<tag k="name" v="Teodorvannet - Joddojávri" />
		<tag k="name:no" v="Teodorvannet" />
		<tag k="name:se" v="Joddojávri" />
		<tag k="natural" v="water" />
		<tag k="old_name:se" v="Jåddujavri" />
		<tag k="ssr:stedsnr" v="687986" />
	</node>
	<node id="-779433" lat="70.3965778082" lon="29.1322933904">
		<tag k="fixme" v="consider natural=peak for the most distinct mountains in the district" />
		<tag k="name" v="Šáikkastanoaivi" />
		<tag k="name:se" v="Šáikkastanoaivi" />
		<tag k="natural" v="hill" />
		<tag k="old_name:se" v="Šaikastanoaivi" />
		<tag k="place" v="locality" />
		<tag k="ssr:stedsnr" v="687933" />
	</node>
	<node id="-779432" lat="70.1234278172" lon="29.3057098936">
		<tag k="name" v="Storbakken" />
		<tag k="natural" v="slope" />
		<tag k="place" v="locality" />
		<tag k="ssr:stedsnr" v="687639" />
	</node>
	<node id="-779431" lat="70.1966750502" lon="30.4135981957">
		<tag k="fixme" v="consider seamark:type=rock or natural=shoal" />
		<tag k="name" v="Kobbeskjæret" />
		<tag k="place" v="islet" />
		<tag k="ssr:stedsnr" v="687581" />
	</node>
	<node id="-779430" lat="70.2004000528" lon="30.3815621022">
		<tag k="name" v="Sollnes - Sulaniemi" />
		<tag k="name:fkv" v="Sulaniemi" />
		<tag k="name:no" v="Sollnes" />
		<tag k="natural" v="cape" />
		<tag k="ssr:stedsnr" v="687579" />
	</node>
	<node id="-779429" lat="70.2070778375" lon="30.4577453904">
		<tag k="barrier" v="fence" />
		<tag k="name" v="Steingjerde - Kiviaita" />
		<tag k="name:fkv" v="Kiviaita" />
		<tag k="name:no" v="Steingjerde" />
		<tag k="old_name:fkv" v="Giviaida" />
		<tag k="ssr:stedsnr" v="687572" />
	</node>
	<node id="-779428" lat="70.1495111634" lon="30.2121205243">
		<tag k="name" v="Multebærvannet" />
		<tag k="natural" v="water" />
		<tag k="ssr:stedsnr" v="687568" />
	</node>
	<node id="-779427" lat="70.1606861697" lon="30.3473232181">
		<tag k="fixme" v="consider seamark:type=rock or natural=shoal" />
		<tag k="name" v="Jarkoskjæret" />
		<tag k="place" v="islet" />
		<tag k="ssr:stedsnr" v="687565" />
	</node>
	<node id="-779426" lat="70.1775167231" lon="30.1545483405">
		<tag k="name" v="Falkorelva" />
		<tag k="ssr:stedsnr" v="687559" />
		<tag k="waterway" v="river" />
	</node>
	<node id="-779425" lat="70.1200944973" lon="30.1065483475">
		<tag k="name" v="Storskog" />
		<tag k="place" v="locality" />
		<tag k="ssr:stedsnr" v="687556" />
	</node>
	<node id="-779424" lat="70.1397417269" lon="30.3490343209">
		<tag k="name" v="Skallnes" />
		<tag k="natural" v="cape" />
		<tag k="old_name" v="Skallneset" />
		<tag k="ssr:stedsnr" v="687549" />
	</node>
	<node id="-779423" lat="70.1435056063" lon="30.2119343942">
		<tag k="name" v="Skallnesvannet" />
		<tag k="natural" v="water" />
		<tag k="ssr:stedsnr" v="687547" />
		<tag k="water" v="lake" />
	</node>
	<node id="-779422" lat="70.111286166" lon="30.2061955161">
		<tag k="alt_name" v="Sandbukt" />
		<tag k="name" v="Sandbukta" />
		<tag k="natural" v="bay" />
		<tag k="ssr:stedsnr" v="687540" />
	</node>
	<node id="-779421" lat="70.0934278276" lon="30.1174150012">
		<tag k="alt_name" v="Litleelvneset" />
		<tag k="name" v="Lilleelvneset" />
		<tag k="natural" v="cape" />
		<tag k="ssr:stedsnr" v="687536" />
	</node>
	<node id="-779420" lat="70.1297056102" lon="30.2578621523">
		<tag k="name" v="Lille-Urnesdalen" />
		<tag k="natural" v="valley" />
		<tag k="place" v="locality" />
		<tag k="ssr:stedsnr" v="687530" />
	</node>
	<node id="-779419" lat="70.0800500461" lon="29.7026013478">
		<tag k="name" v="Vegsletta" />
		<tag k="place" v="locality" />
		<tag k="ssr:stedsnr" v="687525" />
	</node>
	<node id="-779418" lat="70.2127889451" lon="30.3474399077">
		<tag k="fixme" v="multiple name tags, choose one and add the other to alt_name" />
		<tag k="name" v="Lille-Tavijoki;Lille Davvejohka - Praminjänkäoja" />
		<tag k="name:fkv" v="Praminjänkäoja" />
		<tag k="name:no" v="Lille-Tavijoki;Lille Davvejohka" />
		<tag k="old_name:no" v="Davvejåkka, l" />
		<tag k="ssr:stedsnr" v="687504" />
		<tag k="waterway" v="stream" />
	</node>
	<node id="-779417" lat="70.2114167177" lon="30.3352482355">
		<tag k="name" v="Pramminjänkkä" />
		<tag k="name:fkv" v="Pramminjänkkä" />
		<tag k="natural" v="wetland" />
		<tag k="old_name:fkv" v="Braminjængæ" />
		<tag k="ssr:stedsnr" v="687496" />
	</node>
	<node id="-779416" lat="70.2207139377" lon="30.2350094397">
		<tag k="fixme" v="consider natural=peak for the most distinct mountains in the district" />
		<tag k="name" v="Holmfjellet - Suolovárri" />
		<tag k="name:no" v="Holmfjellet" />
		<tag k="name:se" v="Suolovárri" />
		<tag k="natural" v="hill" />
		<tag k="old_name:se" v="Suoluvarri" />
		<tag k="place" v="locality" />
		<tag k="ssr:stedsnr" v="687493" />
	</node>
	<node id="-779415" lat="70.1865833655" lon="29.2714960443">
		<tag k="alt_name:no" v="Multebærbekken" />
		<tag k="name" v="Moltebærbekken - Hillaoja" />
		<tag k="name:fkv" v="Hillaoja" />
		<tag k="name:no" v="Moltebærbekken" />
		<tag k="ssr:stedsnr" v="686739" />
		<tag k="waterway" v="stream" />
	</node>
	<node id="-779414" lat="70.1885222559" lon="29.2408988233">
		<tag k="fixme" v="consider natural=peak for the most distinct mountains in the district" />
		<tag k="name" v="Aaltonen" />
		<tag k="name:fkv" v="Aaltonen" />
		<tag k="natural" v="hill" />
		<tag k="old_name:fkv" v="Aldonen" />
		<tag k="place" v="locality" />
		<tag k="ssr:stedsnr" v="686733" />
	</node>
	<node id="-779412" lat="70.1082722741" lon="30.1819205171">
		<tag k="name" v="Raet" />
		<tag k="natural" v="ridge" />
		<tag k="place" v="locality" />
		<tag k="ssr:stedsnr" v="637748" />
	</node>
	<node id="-779411" lat="70.1825278276" lon="30.2180538729">
		<tag k="name" v="Storsteinen" />
		<tag k="natural" v="stone" />
		<tag k="ssr:stedsnr" v="637734" />
	</node>
	<node id="-779410" lat="70.1146833903" lon="30.1934566326">
		<tag k="name" v="Lillesiket" />
		<tag k="natural" v="wetland" />
		<tag k="ssr:stedsnr" v="637726" />
	</node>
	<node id="-779409" lat="70.1366333881" lon="30.3192232218">
		<tag k="name" v="Skallnesbergan" />
		<tag k="natural" v="hill" />
		<tag k="place" v="locality" />
		<tag k="ssr:stedsnr" v="637714" />
	</node>
	<node id="-779408" lat="70.1978861639" lon="30.2761927299">
		<tag k="name" v="Tilleri" />
		<tag k="name:fkv" v="Tilleri" />
		<tag k="old_name:fkv" v="Dilleri" />
		<tag k="place" v="locality" />
		<tag k="ssr:stedsnr" v="637682" />
	</node>
	<node id="-779407" lat="70.1935722758" lon="30.2384149789">
		<tag k="name" v="Perinniitty" />
		<tag k="name:fkv" v="Perinniitty" />
		<tag k="place" v="locality" />
		<tag k="ssr:stedsnr" v="637664" />
	</node>
	<node id="-779406" lat="70.1027528273" lon="30.1350538776">
		<tag k="name" v="Storelvbakken" />
		<tag k="natural" v="slope" />
		<tag k="place" v="locality" />
		<tag k="ssr:stedsnr" v="637555" />
	</node>
	<node id="-779405" lat="70.0840417156" lon="29.9642261941">
		<tag k="name" v="Valen - Kaulanne" />
		<tag k="name:fkv" v="Kaulanne" />
		<tag k="name:no" v="Valen" />
		<tag k="old_name:fkv" v="Kaulanen" />
		<tag k="place" v="locality" />
		<tag k="ssr:stedsnr" v="637487" />
	</node>
	<node id="-779404" lat="70.076327822" lon="29.793101295">
		<tag k="amenity" v="school" />
		<tag k="name" v="Melkevarden skole" />
		<tag k="ssr:stedsnr" v="637374" />
	</node>
	<node id="-779403" lat="70.0636278271" lon="29.8379234857">
		<tag k="name" v="Storebakken" />
		<tag k="natural" v="slope" />
		<tag k="place" v="locality" />
		<tag k="ssr:stedsnr" v="637321" />
	</node>
	<node id="-779402" lat="70.0949000412" lon="29.4173848175">
		<tag k="name" v="Paddebynes" />
		<tag k="natural" v="cape" />
		<tag k="ssr:stedsnr" v="636989" />
	</node>
	<node id="-779401" lat="70.1569778135" lon="29.3202237902">
		<tag k="name" v="Fossen" />
		<tag k="ssr:stedsnr" v="636940" />
		<tag k="waterway" v="rapids" />
	</node>
	<node id="-779400" lat="70.0610417116" lon="29.90495123">
		<tag k="name" v="Pikkukari" />
		<tag k="name:fkv" v="Pikkukari" />
		<tag k="natural" v="beach" />
		<tag k="place" v="locality" />
		<tag k="ssr:stedsnr" v="636649" />
	</node>
	<node id="-779399" lat="70.0654528268" lon="29.953445631">
		<tag k="name" v="Sonninhinkalo" />
		<tag k="name:fkv" v="Sonninhinkalo" />
		<tag k="natural" v="hill" />
		<tag k="place" v="locality" />
		<tag k="ssr:stedsnr" v="636641" />
	</node>
	<node id="-779398" lat="70.0750806031" lon="29.9855289587">
		<tag k="name" v="Sandbakkbekken" />
		<tag k="ssr:stedsnr" v="636638" />
		<tag k="waterway" v="stream" />
	</node>
	<node id="-779397" lat="70.0743250502" lon="30.0287178227">
		<tag k="amenity" v="community_centre" />
		<tag k="name" v="Grendehus" />
		<tag k="ssr:stedsnr" v="636611" />
	</node>
	<node id="-779396" lat="70.0779167193" lon="30.1126372265">
		<tag k="name" v="Varnes" />
		<tag k="natural" v="cape" />
		<tag k="ssr:stedsnr" v="636591" />
	</node>
	<node id="-779395" lat="70.0687833827" lon="29.9669428494">
		<tag k="name" v="Saunabakken" />
		<tag k="natural" v="slope" />
		<tag k="place" v="locality" />
		<tag k="ssr:stedsnr" v="636438" />
	</node>
	<node id="-779394" lat="70.0811389454" lon="30.0498511479">
		<tag k="fixme" v="consider natural=peak for the most distinct mountains in the district" />
		<tag k="name" v="Aksla" />
		<tag k="natural" v="hill" />
		<tag k="place" v="locality" />
		<tag k="ssr:stedsnr" v="636417" />
	</node>
	<node id="-779393" lat="70.0749917205" lon="30.024365059">
		<tag k="highway" v="path" />
		<tag k="name" v="Sisäpääntie" />
		<tag k="name:fkv" v="Sisäpääntie" />
		<tag k="ssr:stedsnr" v="636405" />
	</node>
	<node id="-779392" lat="70.0841917123" lon="29.7494818729">
		<tag k="leisure" v="park" />
		<tag k="name" v="Parken" />
		<tag k="ssr:stedsnr" v="636227" />
	</node>
	<node id="-779391" lat="70.07262782" lon="29.7192957834">
		<tag k="landuse" v="harbour" />
		<tag k="name" v="Molokroken" />
		<tag k="seamark:type" v="harbour" />
		<tag k="ssr:stedsnr" v="636173" />
	</node>
	<node id="-779390" lat="70.0923861595" lon="29.5340625422">
		<tag k="fixme" v="verify maritime location" />
		<tag k="mooring" v="yes" />
		<tag k="name" v="Båtstø" />
		<tag k="place" v="locality" />
		<tag k="ssr:stedsnr" v="636115" />
	</node>
	<node id="-779389" lat="70.1176250397" lon="29.2498599193">
		<tag k="name" v="Dážabákti" />
		<tag k="name:se" v="Dážabákti" />
		<tag k="natural" v="hill" />
		<tag k="place" v="locality" />
		<tag k="ssr:stedsnr" v="636101" />
	</node>
	<node id="-779388" lat="70.1773861512" lon="29.2465849323">
		<tag k="name" v="Djupholmyra - Syvähautanjänkkä" />
		<tag k="name:fkv" v="Syvähautanjänkkä" />
		<tag k="name:no" v="Djupholmyra" />
		<tag k="natural" v="wetland" />
		<tag k="ssr:stedsnr" v="636048" />
	</node>
	<node id="-779387" lat="70.1085889376" lon="29.6969707966">
		<tag k="name" v="Tvillingan" />
		<tag k="natural" v="hill" />
		<tag k="place" v="locality" />
		<tag k="ssr:stedsnr" v="636032" />
	</node>
	<node id="-779386" lat="70.0947611561" lon="29.6213736051">
		<tag k="fixme" v="consider highway=path" />
		<tag k="highway" v="track" />
		<tag k="name" v="Elvedalsvegen" />
		<tag k="ssr:stedsnr" v="636009" />
	</node>
	<node id="-779384" lat="70.2818389255" lon="29.6465625628">
		<tag k="fixme" v="consider natural=peak for the most distinct mountains in the district" />
		<tag k="name" v="Midthaugen - Guovdoaivi" />
		<tag k="name:no" v="Midthaugen" />
		<tag k="name:se" v="Guovdoaivi" />
		<tag k="natural" v="hill" />
		<tag k="place" v="locality" />
		<tag k="ssr:stedsnr" v="626919" />
	</node>
	<node id="-779383" lat="70.2640528182" lon="29.6832486565">
		<tag k="name" v="Kompásjeaggi" />
		<tag k="name:se" v="Kompásjeaggi" />
		<tag k="natural" v="wetland" />
		<tag k="old_name:se" v="Kompasjæggi" />
		<tag k="ssr:stedsnr" v="626904" />
	</node>
	<node id="-779382" lat="70.1242805986" lon="29.4596237022">
		<tag k="name" v="Steinvannet" />
		<tag k="natural" v="water" />
		<tag k="ssr:stedsnr" v="626635" />
	</node>
	<node id="-779381" lat="70.1131167078" lon="29.4841236885">
		<tag k="name" v="Makkvannan" />
		<tag k="natural" v="water" />
		<tag k="ssr:stedsnr" v="626633" />
		<tag k="water" v="lake" />
	</node>
	<node id="-779380" lat="70.108408377" lon="29.6179597355">
		<tag k="fixme" v="multiple name tags, choose one and add the other to alt_name" />
		<tag k="name" v="Lillevannet;Lille Andersbyvannet" />
		<tag k="natural" v="water" />
		<tag k="ssr:stedsnr" v="626631" />
	</node>
	<node id="-779379" lat="70.2026806006" lon="29.5610125724">
		<tag k="name" v="Vargelva" />
		<tag k="ssr:stedsnr" v="626600" />
		<tag k="waterway" v="river" />
	</node>
	<node id="-779378" lat="70.1834444802" lon="29.5308486958">
		<tag k="fixme" v="consider natural=peak for the most distinct mountains in the district" />
		<tag k="name" v="Gunnesaioaivi" />
		<tag k="name:se" v="Gunnesaioaivi" />
		<tag k="natural" v="hill" />
		<tag k="old_name:se" v="Gunnesajoaivi" />
		<tag k="place" v="locality" />
		<tag k="ssr:stedsnr" v="626597" />
	</node>
	<node id="-779377" lat="70.142338943" lon="30.0615983944">
		<tag k="name" v="Lille Bondevannet" />
		<tag k="natural" v="water" />
		<tag k="ssr:stedsnr" v="626566" />
	</node>
	<node id="-779376" lat="70.1171556104" lon="30.148231654">
		<tag k="alt_name" v="Richardslettvatnet" />
		<tag k="name" v="Rikardslettvatnet" />
		<tag k="natural" v="water" />
		<tag k="ssr:stedsnr" v="626560" />
	</node>
	<node id="-779375" lat="70.115897277" lon="30.125173347">
		<tag k="alt_name" v="Richardsletta" />
		<tag k="name" v="Rikardsletta" />
		<tag k="place" v="locality" />
		<tag k="ssr:stedsnr" v="626556" />
	</node>
	<node id="-779374" lat="70.2256750525" lon="30.1574178215">
		<tag k="name" v="Bukselårelva - Housunsäärijoki" />
		<tag k="name:fkv" v="Housunsäärijoki" />
		<tag k="name:no" v="Bukselårelva" />
		<tag k="old_name:fkv" v="Håusonsærijåki" />
		<tag k="ssr:stedsnr" v="626543" />
		<tag k="waterway" v="stream" />
	</node>
	<node id="-779373" lat="70.2419139242" lon="29.2877404893">
		<tag k="fixme" v="consider natural=peak for the most distinct mountains in the district" />
		<tag k="name" v="Skjøthaugen - Vuolit Goaivebeaski" />
		<tag k="name:no" v="Skjøthaugen" />
		<tag k="name:se" v="Vuolit Goaivebeaski" />
		<tag k="natural" v="hill" />
		<tag k="old_name:se" v="Goaivebæski, vuolit" />
		<tag k="place" v="locality" />
		<tag k="ssr:stedsnr" v="625707" />
	</node>
	<node id="-779372" lat="70.0982000363" lon="29.3954653977">
		<tag k="alt_name" v="Halsen, yt" />
		<tag k="name" v="Ytre Halsen" />
		<tag k="place" v="isolated_dwelling" />
		<tag k="ssr:stedsnr" v="625681" />
	</node>
	<node id="-779371" lat="70.1013555948" lon="29.4269098183">
		<tag k="name" v="Paddebymyra" />
		<tag k="natural" v="wetland" />
		<tag k="ssr:stedsnr" v="576989" />
	</node>
	<node id="-779370" lat="70.1539833726" lon="29.4808348279">
		<tag k="name" v="Varjejok" />
		<tag k="natural" v="wetland" />
		<tag k="ssr:stedsnr" v="576985" />
	</node>
	<node id="-779369" lat="70.1076972749" lon="30.1934871721">
		<tag k="name" v="Haugen" />
		<tag k="natural" v="hill" />
		<tag k="place" v="locality" />
		<tag k="ssr:stedsnr" v="576758" />
	</node>
	<node id="-779368" lat="70.2042639377" lon="30.1827455626">
		<tag k="name" v="Brentsletta" />
		<tag k="place" v="locality" />
		<tag k="ssr:stedsnr" v="576753" />
	</node>
	<node id="-779367" lat="70.1218389468" lon="30.2378288356">
		<tag k="name" v="Flåget" />
		<tag k="natural" v="hill" />
		<tag k="place" v="locality" />
		<tag k="ssr:stedsnr" v="576748" />
	</node>
	<node id="-779366" lat="70.1466194962" lon="30.325975999">
		<tag k="name" v="Pikku Turvejänkkä" />
		<tag k="name:fkv" v="Pikku Turvejänkkä" />
		<tag k="natural" v="wetland" />
		<tag k="ssr:stedsnr" v="576723" />
	</node>
	<node id="-779365" lat="70.1861361606" lon="30.3340121357">
		<tag k="landuse" v="harbour" />
		<tag k="name" v="Hamn" />
		<tag k="seamark:type" v="harbour" />
		<tag k="ssr:stedsnr" v="576636" />
	</node>
	<node id="-779364" lat="70.0645806046" lon="29.9399595446">
		<tag k="name" v="Høivikbukta" />
		<tag k="natural" v="bay" />
		<tag k="ssr:stedsnr" v="576621" />
	</node>
	<node id="-779363" lat="70.0761000558" lon="29.9845983961">
		<tag k="name" v="Välipäri" />
		<tag k="name:fkv" v="Välipäri" />
		<tag k="natural" v="hill" />
		<tag k="place" v="locality" />
		<tag k="ssr:stedsnr" v="576613" />
	</node>
	<node id="-779362" lat="70.0884111607" lon="30.0706205725">
		<tag k="name" v="Skjervebakken" />
		<tag k="natural" v="slope" />
		<tag k="place" v="locality" />
		<tag k="ssr:stedsnr" v="576592" />
	</node>
	<node id="-779361" lat="70.086130609" lon="30.0957511109">
		<tag k="fixme" v="consider seamark:type=rock or natural=shoal" />
		<tag k="name" v="Krokskjæret" />
		<tag k="place" v="islet" />
		<tag k="ssr:stedsnr" v="576586" />
	</node>
	<node id="-779360" lat="70.0780583836" lon="30.129798323">
		<tag k="name" v="Sandvika" />
		<tag k="natural" v="bay" />
		<tag k="ssr:stedsnr" v="576574" />
	</node>
	<node id="-779359" lat="70.0739056143" lon="30.1126427657">
		<tag k="name" v="Trettebakken" />
		<tag k="natural" v="slope" />
		<tag k="place" v="locality" />
		<tag k="ssr:stedsnr" v="576567" />
	</node>
	<node id="-779358" lat="70.1218944966" lon="30.2233788262">
		<tag k="name" v="Flåget" />
		<tag k="natural" v="cliff" />
		<tag k="ssr:stedsnr" v="576531" />
	</node>
	<node id="-779357" lat="70.1175583888" lon="30.1842177516">
		<tag k="highway" v="path" />
		<tag k="name" v="Falkelvvegen" />
		<tag k="ssr:stedsnr" v="576528" />
	</node>
	<node id="-779356" lat="70.1056917155" lon="30.101940022">
		<tag k="name" v="Konrad-si-myr" />
		<tag k="natural" v="wetland" />
		<tag k="ssr:stedsnr" v="576519" />
	</node>
	<node id="-779355" lat="70.0781806065" lon="29.928434541">
		<tag k="name" v="Angelinpirtti" />
		<tag k="name:fkv" v="Angelinpirtti" />
		<tag k="place" v="locality" />
		<tag k="ssr:stedsnr" v="576476" />
	</node>
	<node id="-779354" lat="70.0811361594" lon="29.9330901151">
		<tag k="name" v="Monstanmatala" />
		<tag k="name:fkv" v="Monstanmatala" />
		<tag k="old_name:fkv" v="Monstamaatala" />
		<tag k="place" v="locality" />
		<tag k="ssr:stedsnr" v="576475" />
	</node>
	<node id="-779353" lat="70.0755500478" lon="29.9376178689">
		<tag k="name" v="Midtmyra" />
		<tag k="natural" v="wetland" />
		<tag k="ssr:stedsnr" v="576437" />
	</node>
	<node id="-779352" lat="70.0769639363" lon="29.9504512072">
		<tag k="name" v="Mellommyra" />
		<tag k="natural" v="wetland" />
		<tag k="ssr:stedsnr" v="576438" />
	</node>
	<node id="-779351" lat="70.104722267" lon="29.8258373929">
		<tag k="name" v="Djevelhaugen" />
		<tag k="natural" v="hill" />
		<tag k="place" v="locality" />
		<tag k="ssr:stedsnr" v="576310" />
	</node>
	<node id="-779350" lat="70.1105944955" lon="29.8869040248">
		<tag k="name" v="Kolmikantajärvi" />
		<tag k="name:fkv" v="Kolmikantajärvi" />
		<tag k="natural" v="water" />
		<tag k="ssr:stedsnr" v="576302" />
	</node>
	<node id="-779349" lat="70.1100889361" lon="29.9246901152">
		<tag k="name" v="Bekolaslåtta" />
		<tag k="place" v="locality" />
		<tag k="ssr:stedsnr" v="576296" />
	</node>
	<node id="-779348" lat="70.1088944933" lon="29.9181678993">
		<tag k="name" v="Hansenslåtta" />
		<tag k="place" v="locality" />
		<tag k="ssr:stedsnr" v="576289" />
	</node>
	<node id="-779347" lat="70.0846194959" lon="29.8176235109">
		<tag k="name" v="Vyörykänniemi" />
		<tag k="name:fkv" v="Vyörykänniemi" />
		<tag k="natural" v="cape" />
		<tag k="ssr:stedsnr" v="576215" />
	</node>
	<node id="-779346" lat="70.0891056021" lon="29.7874763093">
		<tag k="name" v="Sanddalen" />
		<tag k="natural" v="valley" />
		<tag k="place" v="locality" />
		<tag k="ssr:stedsnr" v="576204" />
	</node>
	<node id="-779345" lat="70.0777583838" lon="29.7494207691">
		<tag k="building" v="commercial" />
		<tag k="name" v="Norsk Rikskringkasting" />
		<tag k="ssr:stedsnr" v="576131" />
	</node>
	<node id="-779344" lat="70.131625039" lon="29.3199432329">
		<tag k="name" v="Skolemyra" />
		<tag k="natural" v="wetland" />
		<tag k="ssr:stedsnr" v="576082" />
	</node>
	<node id="-779343" lat="70.1193722646" lon="29.3291182224">
		<tag k="name" v="Lilledalen" />
		<tag k="natural" v="valley" />
		<tag k="place" v="locality" />
		<tag k="ssr:stedsnr" v="576073" />
	</node>
	<node id="-779342" lat="70.1201389322" lon="29.3200293263">
		<tag k="name" v="Brokulpen" />
		<tag k="place" v="locality" />
		<tag k="ssr:stedsnr" v="576068" />
	</node>
	<node id="-779341" lat="70.1145833715" lon="29.3171293317">
		<tag k="name" v="Vestsida" />
		<tag k="place" v="hamlet" />
		<tag k="ssr:stedsnr" v="576065" />
	</node>
	<node id="-779340" lat="70.078650045" lon="29.7192707765">
		<tag k="junction" v="yes" />
		<tag k="name" v="Deinbolls plass" />
		<tag k="place" v="locality" />
		<tag k="ssr:stedsnr" v="576047" />
	</node>
	<node id="-779339" lat="70.0968917146" lon="29.7354652271">
		<tag k="highway" v="path" />
		<tag k="name" v="Svanevassvegen" />
		<tag k="ssr:stedsnr" v="576040" />
	</node>
	<node id="-779338" lat="70.1662833695" lon="29.2780654713">
		<tag k="name" v="Elvesvingen - Jokimukka" />
		<tag k="name:fkv" v="Jokimukka" />
		<tag k="name:no" v="Elvesvingen" />
		<tag k="natural" v="water" />
		<tag k="ssr:stedsnr" v="576023" />
		<tag k="water" v="lake" />
	</node>
	<node id="-779337" lat="70.0981222643" lon="29.6210319452">
		<tag k="name" v="Bergelvmyra" />
		<tag k="natural" v="wetland" />
		<tag k="ssr:stedsnr" v="576011" />
	</node>
	<node id="-779336" lat="70.083847263" lon="29.6644319293">
		<tag k="name" v="Nakannokka" />
		<tag k="name:fkv" v="Nakannokka" />
		<tag k="natural" v="slope" />
		<tag k="place" v="locality" />
		<tag k="ssr:stedsnr" v="576001" />
	</node>
	<node id="-779335" lat="70.1510028308" lon="29.9934901018">
		<tag k="name" v="Steinvannet" />
		<tag k="natural" v="water" />
		<tag k="ssr:stedsnr" v="574912" />
	</node>
	<node id="-779334" lat="70.1732389284" lon="29.2131127392">
		<tag k="name" v="Lavdnjelutta" />
		<tag k="name:se" v="Lavdnjelutta" />
		<tag k="natural" v="wetland" />
		<tag k="ssr:stedsnr" v="573099" />
	</node>
	<node id="-779333" lat="70.1126305998" lon="29.6455902709">
		<tag k="name" v="Tomaselvdalen" />
		<tag k="natural" v="valley" />
		<tag k="old_name" v="Thomaselvdalen" />
		<tag k="place" v="locality" />
		<tag k="ssr:stedsnr" v="566613" />
	</node>
	<node id="-779332" lat="70.2221555912" lon="29.4337487497">
		<tag k="name" v="Devddorjohskáidi" />
		<tag k="name:se" v="Devddorjohskáidi" />
		<tag k="natural" v="cape" />
		<tag k="old_name:se" v="Devdurjåkskaidi" />
		<tag k="ssr:stedsnr" v="566566" />
	</node>
	<node id="-779331" lat="70.2085528177" lon="29.6143903198">
		<tag k="fixme" v="consider natural=peak for the most distinct mountains in the district" />
		<tag k="name" v="Varitčielgi" />
		<tag k="name:se" v="Varitčielgi" />
		<tag k="natural" v="hill" />
		<tag k="place" v="locality" />
		<tag k="ssr:stedsnr" v="566563" />
	</node>
	<node id="-779330" lat="70.1892250529" lon="30.3342343385">
		<tag k="fixme" v="consider place=hamlet" />
		<tag k="name" v="Skallelv - Gállojohka - Kallijoki" />
		<tag k="name:fkv" v="Kallijoki" />
		<tag k="name:no" v="Skallelv" />
		<tag k="name:se" v="Gállojohka" />
		<tag k="place" v="village" />
		<tag k="ssr:stedsnr" v="566559" />
	</node>
	<node id="-779329" lat="70.1945000503" lon="30.3222788155">
		<tag k="alt_name:no" v="Lommemyra" />
		<tag k="name" v="Lomemyra - Kaakkurijänkkä" />
		<tag k="name:fkv" v="Kaakkurijänkkä" />
		<tag k="name:no" v="Lomemyra" />
		<tag k="natural" v="wetland" />
		<tag k="ssr:stedsnr" v="566555" />
	</node>
	<node id="-779328" lat="70.1775028256" lon="30.0859372639">
		<tag k="fixme" v="consider natural=peak for the most distinct mountains in the district" />
		<tag k="name" v="Falkor" />
		<tag k="natural" v="hill" />
		<tag k="place" v="locality" />
		<tag k="ssr:stedsnr" v="566547" />
	</node>
	<node id="-779327" lat="70.146625059" lon="30.3036676889">
		<tag k="fixme" v="multiple name tags, choose one and add the other to alt_name" />
		<tag k="name" v="Torvmyrvannet - Kivijärvi;Turvejärvi" />
		<tag k="name:fkv" v="Kivijärvi;Turvejärvi" />
		<tag k="name:no" v="Torvmyrvannet" />
		<tag k="natural" v="water" />
		<tag k="old_name:fkv" v="Dorvejærvi" />
		<tag k="ssr:stedsnr" v="566541" />
	</node>
	<node id="-779326" lat="70.4399916914" lon="29.0870767561">
		<tag k="fixme" v="consider natural=peak for the most distinct mountains in the district" />
		<tag k="name" v="Doaresčearru" />
		<tag k="name:se" v="Doaresčearru" />
		<tag k="natural" v="hill" />
		<tag k="old_name:se" v="Doaresčærro" />
		<tag k="place" v="locality" />
		<tag k="ssr:stedsnr" v="565945" />
	</node>
	<node id="-779325" lat="70.1852472573" lon="29.2890710376">
		<tag k="name" v="Flintelva" />
		<tag k="ssr:stedsnr" v="565769" />
		<tag k="waterway" v="river" />
	</node>
	<node id="-779324" lat="70.1882889212" lon="29.1894738545">
		<tag k="name" v="Aldonneset" />
		<tag k="natural" v="cape" />
		<tag k="ssr:stedsnr" v="565763" />
	</node>
	<node id="-779323" lat="70.2158861467" lon="29.3164599112">
		<tag k="name" v="Reinelvdalen" />
		<tag k="natural" v="valley" />
		<tag k="place" v="locality" />
		<tag k="ssr:stedsnr" v="565754" />
	</node>
	<node id="-779322" lat="70.22043059" lon="29.3919293296">
		<tag k="fixme" v="consider natural=peak for the most distinct mountains in the district" />
		<tag k="name" v="Reinelvfjellet" />
		<tag k="natural" v="hill" />
		<tag k="place" v="locality" />
		<tag k="ssr:stedsnr" v="565751" />
	</node>
	<node id="-779321" lat="70.1601667058" lon="29.3641765443">
		<tag k="name" v="Sauevannet" />
		<tag k="natural" v="water" />
		<tag k="ssr:stedsnr" v="565733" />
	</node>
	<node id="-779320" lat="70.0861750497" lon="29.6400069351">
		<tag k="alt_name" v="Laksbukta" />
		<tag k="name" v="Laksebubukta" />
		<tag k="natural" v="bay" />
		<tag k="ssr:stedsnr" v="565531" />
	</node>
	<node id="-779319" lat="70.0916583796" lon="29.9243039965">
		<tag k="name" v="Langsmedvannet" />
		<tag k="natural" v="water" />
		<tag k="ssr:stedsnr" v="565522" />
		<tag k="water" v="lake" />
	</node>
	<node id="-779318" lat="70.0833417192" lon="29.9241901164">
		<tag k="fixme" v="multiple name tags, choose one and add the other to alt_name" />
		<tag k="name" v="Lille Monstadvannet;Lille Akslavannet" />
		<tag k="natural" v="water" />
		<tag k="ssr:stedsnr" v="565519" />
	</node>
	<node id="-779317" lat="70.0673806058" lon="29.9709122835">
		<tag k="alt_name:no" v="Salttjern, store;Salttjern" />
		<tag k="name" v="Store Salttjern - Sáltejávri - Salttijärvi" />
		<tag k="name:fkv" v="Salttijärvi" />
		<tag k="name:no" v="Store Salttjern" />
		<tag k="name:se" v="Sáltejávri" />
		<tag k="place" v="hamlet" />
		<tag k="ssr:stedsnr" v="565518" />
	</node>
	<node id="-779316" lat="70.071038933" lon="29.7502985309">
		<tag k="name" v="Ørtangen" />
		<tag k="natural" v="cape" />
		<tag k="ssr:stedsnr" v="565506" />
	</node>
	<node id="-779315" lat="70.1040222588" lon="29.3929181735">
		<tag k="alt_name:no" v="Karielmyra" />
		<tag k="name" v="Kargilmyra - Gárjiljeakkit" />
		<tag k="name:no" v="Kargilmyra" />
		<tag k="name:se" v="Gárjiljeakkit" />
		<tag k="natural" v="wetland" />
		<tag k="ssr:stedsnr" v="564660" />
	</node>
	<node id="-779314" lat="70.0864833726" lon="29.6019236267">
		<tag k="name" v="Makkstein" />
		<tag k="place" v="locality" />
		<tag k="seamark:type" v="rock" />
		<tag k="ssr:stedsnr" v="534990" />
	</node>
	<node id="-779313" lat="70.1029500524" lon="30.188801074">
		<tag k="name" v="Neset" />
		<tag k="natural" v="cape" />
		<tag k="ssr:stedsnr" v="516740" />
	</node>
	<node id="-779312" lat="70.1494306102" lon="30.3538537599">
		<tag k="name" v="Falkekeilavannet" />
		<tag k="natural" v="water" />
		<tag k="ssr:stedsnr" v="516683" />
	</node>
	<node id="-779311" lat="70.1858750481" lon="30.2918593856">
		<tag k="name" v="Reidar Olsenkulpen" />
		<tag k="place" v="locality" />
		<tag k="ssr:stedsnr" v="516633" />
	</node>
	<node id="-779310" lat="70.0624500534" lon="29.9028873479">
		<tag k="name" v="Sjåbushaugen" />
		<tag k="natural" v="hill" />
		<tag k="place" v="locality" />
		<tag k="ssr:stedsnr" v="516613" />
	</node>
	<node id="-779309" lat="70.0692167156" lon="29.9834233986">
		<tag k="alt_name" v="Halsen" />
		<tag k="name" v="Salttjernbakken" />
		<tag k="natural" v="slope" />
		<tag k="place" v="locality" />
		<tag k="ssr:stedsnr" v="516599" />
	</node>
	<node id="-779308" lat="70.0687750545" lon="30.0013067403">
		<tag k="name" v="Peder-sitt-nes" />
		<tag k="natural" v="cape" />
		<tag k="ssr:stedsnr" v="516582" />
	</node>
	<node id="-779307" lat="70.0708972729" lon="30.0201900598">
		<tag k="name" v="Pikkujärvenniemi" />
		<tag k="name:fkv" v="Pikkujärvenniemi" />
		<tag k="natural" v="cape" />
		<tag k="ssr:stedsnr" v="516579" />
	</node>
	<node id="-779306" lat="70.0719694939" lon="30.1094038805">
		<tag k="fixme" v="consider natural=peak for the most distinct mountains in the district" />
		<tag k="name" v="Varden" />
		<tag k="natural" v="hill" />
		<tag k="place" v="locality" />
		<tag k="ssr:stedsnr" v="516550" />
	</node>
	<node id="-779305" lat="70.0761056043" lon="30.103812226">
		<tag k="name" v="Været" />
		<tag k="place" v="hamlet" />
		<tag k="ssr:stedsnr" v="516547" />
	</node>
	<node id="-779304" lat="70.0705667209" lon="30.1340622035">
		<tag k="name" v="Skarvskitnasen" />
		<tag k="natural" v="cliff" />
		<tag k="ssr:stedsnr" v="516545" />
	</node>
	<node id="-779303" lat="70.0721139484" lon="30.1227177557">
		<tag k="name" v="Flågbakken" />
		<tag k="natural" v="slope" />
		<tag k="place" v="locality" />
		<tag k="ssr:stedsnr" v="516537" />
	</node>
	<node id="-779302" lat="70.0693694993" lon="30.1602510614">
		<tag k="name" v="Kvalvikhaugen" />
		<tag k="natural" v="hill" />
		<tag k="place" v="locality" />
		<tag k="ssr:stedsnr" v="516529" />
	</node>
	<node id="-779301" lat="70.1279472721" lon="30.2087760652">
		<tag k="name" v="Sikehøgda" />
		<tag k="natural" v="hill" />
		<tag k="place" v="locality" />
		<tag k="ssr:stedsnr" v="516513" />
	</node>
	<node id="-779300" lat="70.1144500538" lon="30.1400927806">
		<tag k="name" v="Richardsletthaugen" />
		<tag k="natural" v="hill" />
		<tag k="place" v="locality" />
		<tag k="ssr:stedsnr" v="516496" />
	</node>
	<node id="-779299" lat="70.0772889445" lon="29.9465762021">
		<tag k="name" v="Karvosenpirtti" />
		<tag k="name:fkv" v="Karvosenpirtti" />
		<tag k="natural" v="hill" />
		<tag k="old_name:fkv" v="Garvosenpirtti" />
		<tag k="place" v="locality" />
		<tag k="ssr:stedsnr" v="516420" />
	</node>
	<node id="-779298" lat="70.0756333874" lon="30.0340928175">
		<tag k="fixme" v="consider highway=path" />
		<tag k="highway" v="track" />
		<tag k="name" v="Talvitie" />
		<tag k="name:fkv" v="Talvitie" />
		<tag k="ssr:stedsnr" v="516399" />
	</node>
	<node id="-779297" lat="70.0853722735" lon="29.9808484117">
		<tag k="name" v="Eevanjänkä" />
		<tag k="name:fkv" v="Eevanjänkä" />
		<tag k="natural" v="wetland" />
		<tag k="old_name:fkv" v="Eevanjänkkä" />
		<tag k="ssr:stedsnr" v="516387" />
	</node>
	<node id="-779296" lat="70.062986157" lon="29.8780262415">
		<tag k="name" v="Vargemyra" />
		<tag k="natural" v="wetland" />
		<tag k="ssr:stedsnr" v="516300" />
	</node>
	<node id="-779295" lat="70.0615361588" lon="29.8548901475">
		<tag k="name" v="Renna" />
		<tag k="natural" v="bay" />
		<tag k="ssr:stedsnr" v="516297" />
	</node>
	<node id="-779293" lat="70.0746361547" lon="29.7418235505">
		<tag k="man_made" v="quay" />
		<tag k="name" v="Fiskerikai" />
		<tag k="place" v="locality" />
		<tag k="ssr:stedsnr" v="516194" />
	</node>
	<node id="-779292" lat="70.0973889363" lon="29.5864069741">
		<tag k="name" v="Raet" />
		<tag k="natural" v="hill" />
		<tag k="place" v="locality" />
		<tag k="ssr:stedsnr" v="516013" />
	</node>
	<node id="-779291" lat="70.0875278271" lon="29.891856794">
		<tag k="name" v="Langsmedbekken" />
		<tag k="ssr:stedsnr" v="515251" />
		<tag k="waterway" v="stream" />
	</node>
	<node id="-779290" lat="70.0883111611" lon="29.8598123789">
		<tag k="alt_name" v="Gøngæsfossen" />
		<tag k="name" v="Hengebrofossen" />
		<tag k="natural" v="waterfall" />
		<tag k="ssr:stedsnr" v="515248" />
	</node>
	<node id="-779289" lat="70.0869278223" lon="29.8066929663">
		<tag k="name" v="Pikkuberget" />
		<tag k="natural" v="hill" />
		<tag k="place" v="locality" />
		<tag k="ssr:stedsnr" v="515243" />
	</node>
	<node id="-779288" lat="70.1417694813" lon="29.3255932184">
		<tag k="name" v="Smørbakkmyra" />
		<tag k="natural" v="wetland" />
		<tag k="ssr:stedsnr" v="515125" />
	</node>
	<node id="-779287" lat="70.1339889265" lon="29.3028737844">
		<tag k="fixme" v="consider highway=path" />
		<tag k="highway" v="track" />
		<tag k="name" v="Solvarvegen" />
		<tag k="ssr:stedsnr" v="515113" />
	</node>
	<node id="-779286" lat="70.1108111503" lon="29.3238876587">
		<tag k="name" v="Øra" />
		<tag k="natural" v="scree" />
		<tag k="ssr:stedsnr" v="515058" />
	</node>
	<node id="-779285" lat="70.149572254" lon="29.2205432786">
		<tag k="name" v="Keskitalonkuru" />
		<tag k="name:fkv" v="Keskitalonkuru" />
		<tag k="natural" v="valley" />
		<tag k="old_name:fkv" v="Keskintalokuru" />
		<tag k="place" v="locality" />
		<tag k="ssr:stedsnr" v="515013" />
	</node>
	<node id="-779284" lat="70.0891833814" lon="29.5970764043">
		<tag k="name" v="Andersbyneset" />
		<tag k="natural" v="cape" />
		<tag k="ssr:stedsnr" v="514182" />
	</node>
	<node id="-779283" lat="70.4425111399" lon="29.2140405997">
		<tag k="name" v="Svanevannan - Njukčajávrrit" />
		<tag k="name:no" v="Svanevannan" />
		<tag k="name:se" v="Njukčajávrrit" />
		<tag k="natural" v="water" />
		<tag k="old_name:se" v="Njukčajavrit" />
		<tag k="ssr:stedsnr" v="505937" />
		<tag k="water" v="lake" />
	</node>
	<node id="-779282" lat="70.399408363" lon="29.1870544683">
		<tag k="fixme" v="consider natural=peak for the most distinct mountains in the district" />
		<tag k="name" v="Vuomašoaivi" />
		<tag k="name:se" v="Vuomašoaivi" />
		<tag k="natural" v="hill" />
		<tag k="place" v="locality" />
		<tag k="ssr:stedsnr" v="505924" />
	</node>
	<node id="-779281" lat="70.14535837" lon="29.3103960206">
		<tag k="name" v="Kvilebakken" />
		<tag k="natural" v="slope" />
		<tag k="place" v="locality" />
		<tag k="ssr:stedsnr" v="505663" />
	</node>
	<node id="-779280" lat="70.130927812" lon="29.2790904697">
		<tag k="fixme" v="consider natural=peak for the most distinct mountains in the district" />
		<tag k="name" v="Lankovaara" />
		<tag k="name:fkv" v="Lankovaara" />
		<tag k="natural" v="hill" />
		<tag k="old_name:fkv" v="Langovara" />
		<tag k="place" v="locality" />
		<tag k="ssr:stedsnr" v="505650" />
	</node>
	<node id="-779279" lat="70.145416707" lon="29.5006820323">
		<tag k="name" v="Suottarvuopmi" />
		<tag k="name:se" v="Suottarvuopmi" />
		<tag k="natural" v="valley" />
		<tag k="old_name:se" v="Suoddarvuobmi" />
		<tag k="place" v="locality" />
		<tag k="ssr:stedsnr" v="505629" />
	</node>
	<node id="-779278" lat="70.1490667173" lon="29.9713012148">
		<tag k="name" v="Sabelhaugvannet" />
		<tag k="natural" v="water" />
		<tag k="ssr:stedsnr" v="505628" />
	</node>
	<node id="-779277" lat="70.107655604" lon="29.807706856">
		<tag k="name" v="Byvannet" />
		<tag k="natural" v="water" />
		<tag k="ssr:stedsnr" v="505615" />
		<tag k="water" v="lake" />
	</node>
	<node id="-779276" lat="70.3209028148" lon="29.3303849593">
		<tag k="alt_name:se" v="Álljeveadji" />
		<tag k="name" v="Øvre Flintelva - Álljeveaijohka" />
		<tag k="name:no" v="Øvre Flintelva" />
		<tag k="name:se" v="Álljeveaijohka" />
		<tag k="old_name:no" v="Flintelva, øvre" />
		<tag k="old_name:se" v="Alljevæjjåkka;Alljevæddji;Álljaveaijohka" />
		<tag k="ssr:stedsnr" v="505579" />
		<tag k="waterway" v="river" />
	</node>
	<node id="-779275" lat="70.2132167047" lon="29.6442736488">
		<tag k="name" v="Varitjávri" />
		<tag k="name:se" v="Varitjávri" />
		<tag k="natural" v="water" />
		<tag k="old_name:se" v="Varitjavri" />
		<tag k="ssr:stedsnr" v="505573" />
		<tag k="water" v="lake" />
	</node>
	<node id="-779274" lat="70.1918333868" lon="30.2837288315">
		<tag k="alt_name:no" v="Berrelva" />
		<tag k="name" v="Bærelva - Pärijoki" />
		<tag k="name:fkv" v="Pärijoki" />
		<tag k="name:no" v="Bærelva" />
		<tag k="ssr:stedsnr" v="505567" />
		<tag k="waterway" v="stream" />
	</node>
	<node id="-779273" lat="70.1674472785" lon="30.337973234">
		<tag k="name" v="Skallbukta" />
		<tag k="natural" v="bay" />
		<tag k="ssr:stedsnr" v="505558" />
	</node>
	<node id="-779272" lat="70.3253500417" lon="29.4949598648">
		<tag k="name" v="Golggotjohka" />
		<tag k="name:se" v="Golggotjohka" />
		<tag k="old_name:se" v="Gålgutjåkka" />
		<tag k="ssr:stedsnr" v="505553" />
		<tag k="waterway" v="river" />
	</node>
	<node id="-779271" lat="70.1463667182" lon="30.1108483592">
		<tag k="name" v="Store Valavannet" />
		<tag k="natural" v="water" />
		<tag k="ssr:stedsnr" v="505549" />
		<tag k="water" v="lake" />
	</node>
	<node id="-779270" lat="70.1173028336" lon="30.2276482812">
		<tag k="name" v="Jamteberget" />
		<tag k="natural" v="cape" />
		<tag k="ssr:stedsnr" v="505540" />
	</node>
	<node id="-779269" lat="70.1235445008" lon="30.2620815771">
		<tag k="name" v="Falkelva" />
		<tag k="ssr:stedsnr" v="505538" />
		<tag k="waterway" v="stream" />
	</node>
	<node id="-779268" lat="70.0812000469" lon="29.9736734146">
		<tag k="name" v="Monstad" />
		<tag k="place" v="locality" />
		<tag k="ssr:stedsnr" v="505533" />
	</node>
	<node id="-779267" lat="70.0921611623" lon="29.7998179661">
		<tag k="name" v="Andevannet" />
		<tag k="natural" v="water" />
		<tag k="ssr:stedsnr" v="505531" />
	</node>
	<node id="-779266" lat="70.0748667209" lon="30.1326177499">
		<tag k="name" v="Ekkerøya" />
		<tag k="place" v="island" />
		<tag k="ssr:stedsnr" v="505482" />
	</node>
	<node id="-779265" lat="70.1881083679" lon="29.2686765887">
		<tag k="alt_name:no" v="Hammerdalen" />
		<tag k="name" v="Hammardalen - Hamarinkuru" />
		<tag k="name:fkv" v="Hamarinkuru" />
		<tag k="name:no" v="Hammardalen" />
		<tag k="natural" v="valley" />
		<tag k="place" v="locality" />
		<tag k="ssr:stedsnr" v="504750" />
	</node>
	<node id="-779264" lat="70.1101528327" lon="30.17603997">
		<tag k="name" v="Kaakkurijänkkä" />
		<tag k="name:fkv" v="Kaakkurijänkkä" />
		<tag k="natural" v="wetland" />
		<tag k="ssr:stedsnr" v="455743" />
	</node>
	<node id="-779263" lat="70.1039333875" lon="30.1749566483">
		<tag k="name" v="Bukta" />
		<tag k="natural" v="bay" />
		<tag k="ssr:stedsnr" v="455734" />
	</node>
	<node id="-779262" lat="70.1000306084" lon="30.1223872318">
		<tag k="name" v="Brokulpen" />
		<tag k="place" v="locality" />
		<tag k="ssr:stedsnr" v="455728" />
	</node>
	<node id="-779261" lat="70.112952833" lon="30.1716177674">
		<tag k="name" v="Varavannet" />
		<tag k="natural" v="water" />
		<tag k="ssr:stedsnr" v="455726" />
	</node>
	<node id="-779260" lat="70.1550528327" lon="30.3345204587">
		<tag k="name" v="Mortintörmä" />
		<tag k="name:fkv" v="Mortintörmä" />
		<tag k="natural" v="slope" />
		<tag k="old_name:fkv" v="Murtintörmä" />
		<tag k="place" v="locality" />
		<tag k="ssr:stedsnr" v="455682" />
	</node>
	<node id="-779259" lat="70.1960639396" lon="30.286998259">
		<tag k="name" v="Pitkänpäri" />
		<tag k="name:fkv" v="Pitkänpäri" />
		<tag k="natural" v="hill" />
		<tag k="place" v="locality" />
		<tag k="ssr:stedsnr" v="455652" />
	</node>
	<node id="-779258" lat="70.1985444958" lon="30.3663148974">
		<tag k="name" v="Tavijoenmukka" />
		<tag k="name:fkv" v="Tavijoenmukka" />
		<tag k="natural" v="bay" />
		<tag k="ssr:stedsnr" v="455628" />
	</node>
	<node id="-779257" lat="70.0689083864" lon="29.9954039607">
		<tag k="name" v="Storsjødammen" />
		<tag k="natural" v="bay" />
		<tag k="ssr:stedsnr" v="455584" />
	</node>
	<node id="-779256" lat="70.0714250533" lon="30.0011344975">
		<tag k="name" v="Russegrava" />
		<tag k="place" v="locality" />
		<tag k="ssr:stedsnr" v="455580" />
	</node>
	<node id="-779255" lat="70.0756889373" lon="30.0250983762">
		<tag k="name" v="Storberget - Isopäri" />
		<tag k="name:fkv" v="Isopäri" />
		<tag k="name:no" v="Storberget" />
		<tag k="natural" v="hill" />
		<tag k="place" v="locality" />
		<tag k="ssr:stedsnr" v="455578" />
	</node>
	<node id="-779254" lat="70.0730389386" lon="30.033159491">
		<tag k="leisure" v="marina" />
		<tag k="name" v="Båtstø" />
		<tag k="ssr:stedsnr" v="455572" />
	</node>
	<node id="-779253" lat="70.0924806095" lon="30.0705928047">
		<tag k="name" v="Skjervebakkvannan" />
		<tag k="natural" v="water" />
		<tag k="ssr:stedsnr" v="455566" />
		<tag k="water" v="lake" />
	</node>
	<node id="-779252" lat="70.0790667236" lon="30.0643177966">
		<tag k="name" v="Osteberget" />
		<tag k="natural" v="hill" />
		<tag k="place" v="locality" />
		<tag k="ssr:stedsnr" v="455558" />
	</node>
	<node id="-779251" lat="70.0820056084" lon="30.0746511352">
		<tag k="name" v="Katteknausen" />
		<tag k="natural" v="hill" />
		<tag k="place" v="locality" />
		<tag k="ssr:stedsnr" v="455555" />
	</node>
	<node id="-779250" lat="70.0692417262" lon="30.1664677365">
		<tag k="name" v="Svarteberget" />
		<tag k="natural" v="hill" />
		<tag k="place" v="locality" />
		<tag k="ssr:stedsnr" v="455524" />
	</node>
	<node id="-779249" lat="70.1242306046" lon="30.187592746">
		<tag k="name" v="Kjøreslåka" />
		<tag k="ssr:stedsnr" v="455509" />
		<tag k="waterway" v="stream" />
	</node>
	<node id="-779248" lat="70.1167639396" lon="30.1217705719">
		<tag k="name" v="Storskogelva" />
		<tag k="ssr:stedsnr" v="455493" />
		<tag k="waterway" v="stream" />
	</node>
	<node id="-779247" lat="70.0827250499" lon="29.9829956216">
		<tag k="name" v="Monstaskogen" />
		<tag k="place" v="locality" />
		<tag k="ssr:stedsnr" v="455376" />
	</node>
	<node id="-779246" lat="70.0774833787" lon="29.7694929614">
		<tag k="amenity" v="prison" />
		<tag k="name" v="Vadsø fengsel" />
		<tag k="old_name" v="Vadsø kretsfengsel" />
		<tag k="ssr:stedsnr" v="455341" />
	</node>
	<node id="-779245" lat="70.0695583826" lon="29.7241041047">
		<tag k="name" v="Hysebukta" />
		<tag k="natural" v="bay" />
		<tag k="ssr:stedsnr" v="455305" />
	</node>
	<node id="-779244" lat="70.0625972689" lon="29.8389929311">
		<tag k="name" v="Høghammaren" />
		<tag k="natural" v="hill" />
		<tag k="place" v="locality" />
		<tag k="ssr:stedsnr" v="455276" />
	</node>
	<node id="-779243" lat="70.0617694926" lon="29.8816984558">
		<tag k="alt_name" v="Batteriet" />
		<tag k="name" v="Vargemyrbakken" />
		<tag k="natural" v="slope" />
		<tag k="place" v="locality" />
		<tag k="ssr:stedsnr" v="455269" />
	</node>
	<node id="-779242" lat="70.0617167112" lon="29.8260373877">
		<tag k="name" v="Grunnesbukta" />
		<tag k="natural" v="bay" />
		<tag k="ssr:stedsnr" v="455247" />
	</node>
	<node id="-779241" lat="70.088825049" lon="29.8686790402">
		<tag k="name" v="Raet" />
		<tag k="natural" v="ridge" />
		<tag k="place" v="locality" />
		<tag k="ssr:stedsnr" v="455223" />
	</node>
	<node id="-779240" lat="70.0800306058" lon="29.7835179806">
		<tag k="name" v="Kanaberget" />
		<tag k="natural" v="hill" />
		<tag k="place" v="locality" />
		<tag k="ssr:stedsnr" v="455187" />
	</node>
	<node id="-779239" lat="70.1433417014" lon="29.2851737907">
		<tag k="fixme" v="consider natural=peak for the most distinct mountains in the district" />
		<tag k="name" v="Turvevaara" />
		<tag k="name:fkv" v="Turvevaara" />
		<tag k="natural" v="hill" />
		<tag k="place" v="locality" />
		<tag k="ssr:stedsnr" v="455107" />
	</node>
	<node id="-779238" lat="70.0953417111" lon="29.5071625595">
		<tag k="name" v="Lomakaneset" />
		<tag k="natural" v="cape" />
		<tag k="ssr:stedsnr" v="455106" />
	</node>
	<node id="-779237" lat="70.1159583668" lon="29.2210016">
		<tag k="name" v="Maŋŋegeahče" />
		<tag k="name:se" v="Maŋŋegeahče" />
		<tag k="natural" v="beach" />
		<tag k="place" v="locality" />
		<tag k="ssr:stedsnr" v="455095" />
	</node>
	<node id="-779236" lat="70.1274944876" lon="29.3257321042">
		<tag k="name" v="Bustra" />
		<tag k="natural" v="valley" />
		<tag k="place" v="locality" />
		<tag k="ssr:stedsnr" v="455092" />
	</node>
	<node id="-779235" lat="70.1681389273" lon="29.2463460557">
		<tag k="name" v="Lillehompen" />
		<tag k="natural" v="hill" />
		<tag k="place" v="locality" />
		<tag k="ssr:stedsnr" v="455041" />
	</node>
	<node id="-779234" lat="70.1718472609" lon="29.2574015868">
		<tag k="name" v="Lasse-Petter-slåtta - Petterinniitty" />
		<tag k="name:fkv" v="Petterinniitty" />
		<tag k="name:no" v="Lasse-Petter-slåtta" />
		<tag k="place" v="locality" />
		<tag k="ssr:stedsnr" v="455040" />
	</node>
	<node id="-779233" lat="70.1874695032" lon="30.3414426802">
		<tag k="amenity" v="place_of_worship" />
		<tag k="denomination" v="lutheran" />
		<tag k="name" v="Skallelv  kapell" />
		<tag k="religion" v="christian" />
		<tag k="ssr:stedsnr" v="454866" />
	</node>
	<node id="-779232" lat="70.1264778338" lon="30.2847621348">
		<tag k="name" v="Lille-Urneselva" />
		<tag k="ssr:stedsnr" v="453882" />
		<tag k="waterway" v="river" />
	</node>
	<node id="-779231" lat="70.218458371" lon="29.2492655201">
		<tag k="name" v="Buckdammen" />
		<tag k="natural" v="water" />
		<tag k="ssr:stedsnr" v="453880" />
	</node>
	<node id="-779230" lat="70.0684111623" lon="29.9860706199">
		<tag k="name" v="Oterneset" />
		<tag k="natural" v="cape" />
		<tag k="ssr:stedsnr" v="451240" />
	</node>
	<node id="-779229" lat="70.1252111626" lon="30.3018482362">
		<tag k="name" v="Rødberget" />
		<tag k="natural" v="hill" />
		<tag k="place" v="locality" />
		<tag k="ssr:stedsnr" v="450273" />
	</node>
	<node id="-779228" lat="70.3838278138" lon="29.3647599441">
		<tag k="name" v="Tørrvedelva - Goikemuorjohka" />
		<tag k="name:no" v="Tørrvedelva" />
		<tag k="name:se" v="Goikemuorjohka" />
		<tag k="old_name:se" v="Gåikemuorjåkka;Guoikemuorjohka" />
		<tag k="ssr:stedsnr" v="445999" />
		<tag k="waterway" v="river" />
	</node>
	<node id="-779227" lat="70.2738750472" lon="30.0453373564">
		<tag k="name" v="Skallelvskardet - Guovdovákkerohči" />
		<tag k="name:no" v="Skallelvskardet" />
		<tag k="name:se" v="Guovdovákkerohči" />
		<tag k="natural" v="valley" />
		<tag k="old_name:se" v="Guovduvaggeråčči" />
		<tag k="place" v="locality" />
		<tag k="ssr:stedsnr" v="445922" />
	</node>
	<node id="-779226" lat="70.1563083838" lon="29.9905734399">
		<tag k="name" v="Rundvannet" />
		<tag k="natural" v="water" />
		<tag k="ssr:stedsnr" v="445648" />
	</node>
	<node id="-779225" lat="70.1170694918" lon="29.7692179808">
		<tag k="name" v="Byvasshøgda - Dápmotčorru" />
		<tag k="name:no" v="Byvasshøgda" />
		<tag k="name:se" v="Dápmotčorru" />
		<tag k="natural" v="hill" />
		<tag k="old_name:se" v="Dabmutčårro" />
		<tag k="place" v="locality" />
		<tag k="ssr:stedsnr" v="445636" />
	</node>
	<node id="-779224" lat="70.098016712" lon="29.8485040547">
		<tag k="alt_name" v="Skjåbustelva" />
		<tag k="name" v="Sjåbuselva" />
		<tag k="ssr:stedsnr" v="445616" />
		<tag k="waterway" v="river" />
	</node>
	<node id="-779223" lat="70.2372250398" lon="29.5433014728">
		<tag k="name" v="Didnojohskáidi" />
		<tag k="name:se" v="Didnojohskáidi" />
		<tag k="natural" v="cape" />
		<tag k="old_name:se" v="Didnujåkskaidi" />
		<tag k="ssr:stedsnr" v="445588" />
	</node>
	<node id="-779222" lat="70.2247250455" lon="30.1204039519">
		<tag k="name" v="Litlelva - Pikkujoki" />
		<tag k="name:fkv" v="Pikkujoki" />
		<tag k="name:no" v="Litlelva" />
		<tag k="old_name:fkv" v="Bikkojåki" />
		<tag k="ssr:stedsnr" v="445526" />
		<tag k="waterway" v="stream" />
	</node>
	<node id="-779221" lat="70.0697750494" lon="30.0059233904">
		<tag k="alt_name" v="Salttjern, l" />
		<tag k="name" v="Lille Salttjern" />
		<tag k="place" v="isolated_dwelling" />
		<tag k="ssr:stedsnr" v="445491" />
	</node>
	<node id="-779220" lat="70.1905528149" lon="29.3399571232">
		<tag k="fixme" v="consider natural=peak for the most distinct mountains in the district" />
		<tag k="name" v="Gubbfjellet" />
		<tag k="natural" v="hill" />
		<tag k="place" v="locality" />
		<tag k="ssr:stedsnr" v="444736" />
	</node>
	<node id="-779219" lat="70.1685305944" lon="29.3263904464">
		<tag k="name" v="Gjelhaugbekken" />
		<tag k="ssr:stedsnr" v="444714" />
		<tag k="waterway" v="stream" />
	</node>
	<node id="-779218" lat="70.1466750348" lon="29.3592793296">
		<tag k="name" v="Oksemyra" />
		<tag k="natural" v="wetland" />
		<tag k="ssr:stedsnr" v="444637" />
	</node>
	<node id="-779217" lat="70.0616917151" lon="29.8311568205">
		<tag k="name" v="Grunnes" />
		<tag k="natural" v="cape" />
		<tag k="ssr:stedsnr" v="444510" />
	</node>
	<node id="-779216" lat="70.0762083799" lon="29.6347624954">
		<tag k="name" v="Lille Vadsøya" />
		<tag k="old_name" v="Vadsøya, l" />
		<tag k="place" v="island" />
		<tag k="ssr:stedsnr" v="444508" />
	</node>
	<node id="-779215" lat="70.0614000468" lon="29.9247539976">
		<tag k="alt_name" v="Sjåbusgrunnen" />
		<tag k="name" v="Skjåbugrunnen" />
		<tag k="natural" v="shoal" />
		<tag k="place" v="locality" />
		<tag k="ssr:stedsnr" v="444497" />
	</node>
	<node id="-779214" lat="70.0685667171" lon="30.1088983342">
		<tag k="name" v="Molla" />
		<tag k="natural" v="bay" />
		<tag k="ssr:stedsnr" v="268286" />
	</node>
	<node id="-779213" lat="70.0789444969" lon="30.102726102">
		<tag k="name" v="Yttersida" />
		<tag k="natural" v="bay" />
		<tag k="ssr:stedsnr" v="268282" />
	</node>
	<node id="-779212" lat="70.4264028068" lon="29.4513127154">
		<tag k="fixme" v="consider natural=peak for the most distinct mountains in the district" />
		<tag k="name" v="Áldačohkka" />
		<tag k="name:se" v="Áldačohkka" />
		<tag k="natural" v="hill" />
		<tag k="old_name:se" v="Aldačåkka" />
		<tag k="place" v="locality" />
		<tag k="ssr:stedsnr" v="263979" />
	</node>
	<node id="-779211" lat="70.3169750407" lon="29.5531265179">
		<tag k="fixme" v="consider natural=peak for the most distinct mountains in the district" />
		<tag k="name" v="Bealjáidoalgi" />
		<tag k="name:se" v="Bealjáidoalgi" />
		<tag k="natural" v="hill" />
		<tag k="old_name:se" v="Bælljaidoalgi" />
		<tag k="place" v="locality" />
		<tag k="ssr:stedsnr" v="263913" />
	</node>
	<node id="-779210" lat="70.1482556029" lon="29.7224735775">
		<tag k="name" v="Frøkendalen" />
		<tag k="natural" v="valley" />
		<tag k="place" v="locality" />
		<tag k="ssr:stedsnr" v="263634" />
	</node>
	<node id="-779209" lat="70.0999250459" lon="29.6792458117">
		<tag k="alt_name" v="Fossefjellet" />
		<tag k="fixme" v="consider natural=peak for the most distinct mountains in the district" />
		<tag k="name" v="Basis A" />
		<tag k="natural" v="hill" />
		<tag k="place" v="locality" />
		<tag k="ssr:stedsnr" v="263619" />
	</node>
	<node id="-779208" lat="70.0907694875" lon="29.5965486395">
		<tag k="name" v="Andersby" />
		<tag k="place" v="hamlet" />
		<tag k="ssr:stedsnr" v="263615" />
	</node>
	<node id="-779207" lat="70.0990194891" lon="29.4870125697">
		<tag k="name" v="Fugleberg" />
		<tag k="place" v="isolated_dwelling" />
		<tag k="ssr:stedsnr" v="263612" />
	</node>
	<node id="-779206" lat="70.1722305964" lon="29.4611015144">
		<tag k="name" v="Roggejohka - Rokkijoki" />
		<tag k="name:fkv" v="Rokkijoki" />
		<tag k="name:se" v="Roggejohka" />
		<tag k="old_name:se" v="Råggejåkka" />
		<tag k="ssr:stedsnr" v="263573" />
		<tag k="waterway" v="stream" />
	</node>
	<node id="-779205" lat="70.1052861709" lon="30.1949788377">
		<tag k="fixme" v="consider place=hamlet" />
		<tag k="name" v="Krampenes" />
		<tag k="place" v="village" />
		<tag k="ssr:stedsnr" v="263556" />
	</node>
	<node id="-779204" lat="70.202302818" lon="29.3573598939">
		<tag k="name" v="Høyelvdalen" />
		<tag k="natural" v="valley" />
		<tag k="place" v="locality" />
		<tag k="ssr:stedsnr" v="262776" />
	</node>
	<node id="-779203" lat="70.1581555938" lon="29.2688766025">
		<tag k="fixme" v="consider natural=peak for the most distinct mountains in the district" />
		<tag k="name" v="Storhompen" />
		<tag k="natural" v="hill" />
		<tag k="place" v="locality" />
		<tag k="ssr:stedsnr" v="262761" />
	</node>
	<node id="-779202" lat="70.1736694842" lon="29.3051376913">
		<tag k="fixme" v="consider natural=peak for the most distinct mountains in the district" />
		<tag k="name" v="Flintnasen - Didnonjunis - Flinttinokka" />
		<tag k="name:fkv" v="Flinttinokka" />
		<tag k="name:no" v="Flintnasen" />
		<tag k="name:se" v="Didnonjunis" />
		<tag k="natural" v="hill" />
		<tag k="old_name:fkv" v="Flintinokka" />
		<tag k="old_name:se" v="Didnjunjunis" />
		<tag k="place" v="locality" />
		<tag k="ssr:stedsnr" v="262757" />
	</node>
	<node id="-779201" lat="70.1176417056" lon="29.2726043401">
		<tag k="name" v="Ytre Klubben" />
		<tag k="old_name" v="Klubben, yt" />
		<tag k="place" v="hamlet" />
		<tag k="ssr:stedsnr" v="262645" />
	</node>
	<node id="-779200" lat="70.1227417026" lon="29.3802709743">
		<tag k="alt_name:no" v="Sudielva;Røverelva" />
		<tag k="name" v="Røvarelva - Čuđđejohka" />
		<tag k="name:no" v="Røvarelva" />
		<tag k="name:se" v="Čuđđejohka" />
		<tag k="old_name:se" v="Čuđđejåkka" />
		<tag k="ssr:stedsnr" v="262646" />
		<tag k="waterway" v="stream" />
	</node>
	<node id="-779199" lat="70.1292805925" lon="29.2703821273">
		<tag k="alt_name:no" v="Skittenelv;Skitnelva" />
		<tag k="name" v="Skitenelva - Baikajohka" />
		<tag k="name:no" v="Skitenelva" />
		<tag k="name:se" v="Baikajohka" />
		<tag k="old_name:se" v="Baikajåkka" />
		<tag k="ssr:stedsnr" v="262633" />
		<tag k="waterway" v="stream" />
	</node>
	<node id="-779198" lat="70.2035889468" lon="30.4018732107">
		<tag k="name" v="Ulkoranta" />
		<tag k="name:fkv" v="Ulkoranta" />
		<tag k="natural" v="beach" />
		<tag k="old_name:fkv" v="Olgåranda" />
		<tag k="place" v="locality" />
		<tag k="ssr:stedsnr" v="262573" />
	</node>
	<node id="-779197" lat="70.0770972699" lon="29.9062484368">
		<tag k="alt_name" v="Aksla" />
		<tag k="fixme" v="consider natural=peak for the most distinct mountains in the district" />
		<tag k="name" v="Kibyaksla" />
		<tag k="natural" v="hill" />
		<tag k="place" v="locality" />
		<tag k="ssr:stedsnr" v="262545" />
	</node>
	<node id="-779196" lat="70.1211055918" lon="29.3748765206">
		<tag k="fixme" v="consider natural=peak for the most distinct mountains in the district" />
		<tag k="name" v="Sudifjell" />
		<tag k="natural" v="hill" />
		<tag k="place" v="locality" />
		<tag k="ssr:stedsnr" v="226221" />
	</node>
	<node id="-779195" lat="70.184991721" lon="30.2062983324">
		<tag k="name" v="Lillefossen" />
		<tag k="natural" v="waterfall" />
		<tag k="ssr:stedsnr" v="214343" />
	</node>
	<node id="-779194" lat="70.1116055948" lon="29.3364348727">
		<tag k="amenity" v="place_of_worship" />
		<tag k="denomination" v="lutheran" />
		<tag k="name" v="Vestre Jakobselv kirke" />
		<tag k="religion" v="christian" />
		<tag k="ssr:stedsnr" v="212882" />
	</node>
	<node id="-779193" lat="70.1169083857" lon="30.1657344108">
		<tag k="name" v="Flata" />
		<tag k="place" v="locality" />
		<tag k="ssr:stedsnr" v="212755" />
	</node>
	<node id="-779192" lat="70.1636250537" lon="30.326967681">
		<tag k="name" v="Kallilahti" />
		<tag k="name:fkv" v="Kallilahti" />
		<tag k="natural" v="beach" />
		<tag k="place" v="locality" />
		<tag k="ssr:stedsnr" v="212693" />
	</node>
	<node id="-779191" lat="70.1750667239" lon="30.330664899">
		<tag k="fixme" v="consider seamark:type=rock or natural=shoal" />
		<tag k="name" v="Skjæret" />
		<tag k="place" v="islet" />
		<tag k="ssr:stedsnr" v="212692" />
	</node>
	<node id="-779190" lat="70.1873056108" lon="30.2960316008">
		<tag k="name" v="Berrelv-kulpen" />
		<tag k="place" v="locality" />
		<tag k="ssr:stedsnr" v="212644" />
	</node>
	<node id="-779189" lat="70.0631389362" lon="29.919526204">
		<tag k="name" v="Brænda" />
		<tag k="place" v="locality" />
		<tag k="ssr:stedsnr" v="212620" />
	</node>
	<node id="-779188" lat="70.0956722773" lon="30.1035511107">
		<tag k="name" v="Lilleelva" />
		<tag k="ssr:stedsnr" v="212576" />
		<tag k="waterway" v="stream" />
	</node>
	<node id="-779187" lat="70.0892306068" lon="30.1012177885">
		<tag k="name" v="Strandvassvalen" />
		<tag k="natural" v="beach" />
		<tag k="place" v="locality" />
		<tag k="ssr:stedsnr" v="212575" />
	</node>
	<node id="-779186" lat="70.0733028291" lon="30.1049455373">
		<tag k="name" v="Finnebakken" />
		<tag k="natural" v="slope" />
		<tag k="place" v="locality" />
		<tag k="ssr:stedsnr" v="212556" />
	</node>
	<node id="-779185" lat="70.0704333864" lon="30.1206483097">
		<tag k="alt_name" v="Høghamaren" />
		<tag k="name" v="Høghammaren" />
		<tag k="natural" v="cliff" />
		<tag k="ssr:stedsnr" v="212553" />
	</node>
	<node id="-779184" lat="70.1054806101" lon="30.1509677566">
		<tag k="highway" v="path" />
		<tag k="name" v="Siribakkvegen" />
		<tag k="ssr:stedsnr" v="212509" />
	</node>
	<node id="-779183" lat="70.1047056097" lon="30.0659455821">
		<tag k="name" v="Geitvannet" />
		<tag k="natural" v="water" />
		<tag k="ssr:stedsnr" v="212507" />
		<tag k="water" v="lake" />
	</node>
	<node id="-779182" lat="70.0703778331" lon="29.9596178603">
		<tag k="name" v="Høvetsbakken" />
		<tag k="natural" v="slope" />
		<tag k="place" v="locality" />
		<tag k="ssr:stedsnr" v="212428" />
	</node>
	<node id="-779181" lat="70.070641715" lon="29.9442095335">
		<tag k="name" v="Ylihaaki" />
		<tag k="name:fkv" v="Ylihaaki" />
		<tag k="natural" v="slope" />
		<tag k="place" v="locality" />
		<tag k="ssr:stedsnr" v="212427" />
	</node>
	<node id="-779180" lat="70.0797528319" lon="30.0284289308">
		<tag k="name" v="Riuttapäri" />
		<tag k="name:fkv" v="Riuttapäri" />
		<tag k="natural" v="hill" />
		<tag k="place" v="locality" />
		<tag k="ssr:stedsnr" v="212408" />
	</node>
	<node id="-779179" lat="70.0655889379" lon="29.8751762468">
		<tag k="name" v="Brasbergsletta" />
		<tag k="place" v="locality" />
		<tag k="ssr:stedsnr" v="212293" />
	</node>
	<node id="-779178" lat="70.0663667157" lon="29.8625262544">
		<tag k="name" v="Raet" />
		<tag k="natural" v="ridge" />
		<tag k="place" v="locality" />
		<tag k="ssr:stedsnr" v="212286" />
	</node>
	<node id="-779177" lat="70.0822556017" lon="29.7359596677">
		<tag k="name" v="Tibergrabben" />
		<tag k="place" v="locality" />
		<tag k="ssr:stedsnr" v="212244" />
	</node>
	<node id="-779176" lat="70.073855607" lon="29.7777957502">
		<tag k="name" v="Landhuselva" />
		<tag k="ssr:stedsnr" v="212205" />
		<tag k="waterway" v="stream" />
	</node>
	<node id="-779175" lat="70.0769806009" lon="29.7562652016">
		<tag k="amenity" v="kindergarten" />
		<tag k="name" v="Tomlebo barnehage" />
		<tag k="ssr:stedsnr" v="212177" />
	</node>
	<node id="-779174" lat="70.1067805969" lon="29.3655681936">
		<tag k="name" v="Halsen" />
		<tag k="place" v="locality" />
		<tag k="ssr:stedsnr" v="212073" />
	</node>
	<node id="-779173" lat="70.1194722645" lon="29.3174487714">
		<tag k="name" v="Laksekulpen" />
		<tag k="place" v="locality" />
		<tag k="ssr:stedsnr" v="212061" />
	</node>
	<node id="-779172" lat="70.1003361599" lon="29.6588041481">
		<tag k="name" v="Myrvannet" />
		<tag k="natural" v="water" />
		<tag k="ssr:stedsnr" v="212033" />
	</node>
	<node id="-779171" lat="70.1529250497" lon="30.123748351">
		<tag k="name" v="Petter Persmoavannet" />
		<tag k="natural" v="water" />
		<tag k="ssr:stedsnr" v="210899" />
		<tag k="water" v="lake" />
	</node>
	<node id="-779170" lat="70.161483373" lon="29.4331209693">
		<tag k="name" v="Kortevannet" />
		<tag k="natural" v="water" />
		<tag k="ssr:stedsnr" v="210897" />
	</node>
	<node id="-779169" lat="70.1547556153" lon="30.3467676575">
		<tag k="loc_name" v="Nyhamn" />
		<tag k="name" v="Nyhavn" />
		<tag k="place" v="farm" />
		<tag k="ssr:stedsnr" v="209422" />
	</node>
	<node id="-779168" lat="70.1343778195" lon="29.3765820823">
		<tag k="fixme" v="consider natural=peak for the most distinct mountains in the district" />
		<tag k="name" v="Solvarden - Suolovárri" />
		<tag k="name:no" v="Solvarden" />
		<tag k="name:se" v="Suolovárri" />
		<tag k="natural" v="hill" />
		<tag k="old_name:se" v="Suoluvarri" />
		<tag k="place" v="locality" />
		<tag k="ssr:stedsnr" v="208627" />
	</node>
	<node id="-779167" lat="70.0574667139" lon="29.8109984909">
		<tag k="name" v="Salinengrunnen" />
		<tag k="natural" v="shoal" />
		<tag k="place" v="locality" />
		<tag k="ssr:stedsnr" v="207292" />
	</node>
	<node id="-779166" lat="70.3841639185" lon="29.2063516782">
		<tag k="name" v="Stálofielbmá" />
		<tag k="name:se" v="Stálofielbmá" />
		<tag k="old_name:se" v="Stalufielbma" />
		<tag k="ssr:stedsnr" v="203000" />
		<tag k="waterway" v="river" />
	</node>
	<node id="-779165" lat="70.3725778116" lon="29.2284239085">
		<tag k="name" v="Jakobselvkroken - Ánnejohmohkki" />
		<tag k="name:no" v="Jakobselvkroken" />
		<tag k="name:se" v="Ánnejohmohkki" />
		<tag k="old_name:se" v="Annejåkmåkki;Ánnejohkmohkki" />
		<tag k="place" v="locality" />
		<tag k="ssr:stedsnr" v="202998" />
	</node>
	<node id="-779164" lat="70.3403111456" lon="29.3206738488">
		<tag k="name" v="Ørretvannet - Dápmotjávri" />
		<tag k="name:no" v="Ørretvannet" />
		<tag k="name:se" v="Dápmotjávri" />
		<tag k="natural" v="water" />
		<tag k="old_name:se" v="Dabmutjavri" />
		<tag k="ssr:stedsnr" v="202996" />
	</node>
	<node id="-779163" lat="70.3164944766" lon="29.3408293837">
		<tag k="fixme" v="consider natural=peak for the most distinct mountains in the district" />
		<tag k="name" v="Biipoaivi" />
		<tag k="name:se" v="Biipoaivi" />
		<tag k="natural" v="hill" />
		<tag k="place" v="locality" />
		<tag k="ssr:stedsnr" v="202987" />
	</node>
	<node id="-779162" lat="70.3124111536" lon="29.984545734">
		<tag k="fixme" v="consider natural=peak for the most distinct mountains in the district" />
		<tag k="name" v="Gaskkamus Ruitu" />
		<tag k="name:se" v="Gaskkamus Ruitu" />
		<tag k="natural" v="hill" />
		<tag k="old_name:se" v="Ruito, gaskamuš" />
		<tag k="place" v="locality" />
		<tag k="ssr:stedsnr" v="202921" />
	</node>
	<node id="-779161" lat="70.1548500412" lon="29.8155596507">
		<tag k="name" v="Nattfjelldalen" />
		<tag k="natural" v="valley" />
		<tag k="place" v="locality" />
		<tag k="ssr:stedsnr" v="202657" />
	</node>
	<node id="-779160" lat="70.1557611572" lon="29.5229792406">
		<tag k="name" v="Vargelva - Gunnesaijohka - Hukkajoki" />
		<tag k="name:fkv" v="Hukkajoki" />
		<tag k="name:no" v="Vargelva" />
		<tag k="name:se" v="Gunnesaijohka" />
		<tag k="old_name:fkv" v="Hokkajoki" />
		<tag k="old_name:se" v="Gunnesajjåkka" />
		<tag k="ssr:stedsnr" v="202647" />
		<tag k="waterway" v="stream" />
	</node>
	<node id="-779159" lat="70.1277278251" lon="29.6833735978">
		<tag k="name" v="Viinikka" />
		<tag k="name:fkv" v="Viinikka" />
		<tag k="old_name:fkv" v="Vinika" />
		<tag k="place" v="locality" />
		<tag k="ssr:stedsnr" v="202645" />
	</node>
	<node id="-779158" lat="70.1535111519" lon="29.4681764801">
		<tag k="name" v="Østervannet" />
		<tag k="natural" v="water" />
		<tag k="ssr:stedsnr" v="202642" />
		<tag k="water" v="lake" />
	</node>
	<node id="-779157" lat="70.1155417086" lon="29.6412736174">
		<tag k="name" v="Langvannet" />
		<tag k="natural" v="water" />
		<tag k="ssr:stedsnr" v="202636" />
	</node>
	<node id="-779156" lat="70.101847268" lon="29.622293072">
		<tag k="name" v="Bergelva - Kivijoki" />
		<tag k="name:fkv" v="Kivijoki" />
		<tag k="name:no" v="Bergelva" />
		<tag k="ssr:stedsnr" v="202626" />
		<tag k="waterway" v="stream" />
	</node>
	<node id="-779155" lat="70.1396750517" lon="30.1318788957">
		<tag k="name" v="Lille Valavannet" />
		<tag k="natural" v="water" />
		<tag k="ssr:stedsnr" v="202566" />
	</node>
	<node id="-779154" lat="70.063486158" lon="29.8287734781">
		<tag k="name" v="Navaren" />
		<tag k="natural" v="hill" />
		<tag k="place" v="locality" />
		<tag k="ssr:stedsnr" v="202544" />
	</node>
	<node id="-779153" lat="70.2460417148" lon="30.1100567321">
		<tag k="name" v="Bukselårvannet" />
		<tag k="natural" v="water" />
		<tag k="ssr:stedsnr" v="202532" />
	</node>
	<node id="-779152" lat="70.2464917165" lon="30.2251983344">
		<tag k="name" v="Pettervannet" />
		<tag k="natural" v="water" />
		<tag k="ssr:stedsnr" v="202530" />
	</node>
	<node id="-779151" lat="70.2265139406" lon="30.1637789319">
		<tag k="name" v="Djupdalsbekken - Syvänkuru" />
		<tag k="name:fkv" v="Syvänkuru" />
		<tag k="name:no" v="Djupdalsbekken" />
		<tag k="old_name:fkv" v="Suvængoro" />
		<tag k="ssr:stedsnr" v="202515" />
		<tag k="waterway" v="stream" />
	</node>
	<node id="-779150" lat="70.0698833912" lon="30.1649482933">
		<tag k="name" v="Skagodden" />
		<tag k="natural" v="cape" />
		<tag k="ssr:stedsnr" v="202478" />
	</node>
	<node id="-779149" lat="70.2234611456" lon="29.2852404997">
		<tag k="name" v="Langdam" />
		<tag k="natural" v="water" />
		<tag k="ssr:stedsnr" v="201730" />
	</node>
	<node id="-779148" lat="70.1331694861" lon="29.3471126702">
		<tag k="name" v="Smørbakken" />
		<tag k="natural" v="slope" />
		<tag k="place" v="locality" />
		<tag k="ssr:stedsnr" v="201594" />
	</node>
	<node id="-779147" lat="70.1096805977" lon="29.6057847306">
		<tag k="name" v="Anderselva" />
		<tag k="ssr:stedsnr" v="170988" />
		<tag k="waterway" v="stream" />
	</node>
	<node id="-779146" lat="70.1488306008" lon="29.4809292536">
		<tag k="name" v="Cikkafjielbma" />
		<tag k="name:se" v="Cikkafjielbma" />
		<tag k="natural" v="water" />
		<tag k="ssr:stedsnr" v="151991" />
		<tag k="water" v="lake" />
	</node>
	<node id="-779145" lat="70.1848861659" lon="30.2520038378">
		<tag k="name" v="Gostohola" />
		<tag k="place" v="locality" />
		<tag k="ssr:stedsnr" v="151654" />
	</node>
	<node id="-779144" lat="70.1962639385" lon="30.2479732897">
		<tag k="name" v="Niskanniitty" />
		<tag k="name:fkv" v="Niskanniitty" />
		<tag k="place" v="locality" />
		<tag k="ssr:stedsnr" v="151649" />
	</node>
	<node id="-779143" lat="70.0637611563" lon="29.9176678917">
		<tag k="name" v="Vanhantienvarsi" />
		<tag k="name:fkv" v="Vanhantienvarsi" />
		<tag k="natural" v="slope" />
		<tag k="place" v="locality" />
		<tag k="ssr:stedsnr" v="151615" />
	</node>
	<node id="-779142" lat="70.0713139371" lon="30.0109872747">
		<tag k="name" v="Lille Salttjern-halsen" />
		<tag k="natural" v="hill" />
		<tag k="place" v="locality" />
		<tag k="ssr:stedsnr" v="151595" />
	</node>
	<node id="-779141" lat="70.0739000523" lon="30.1299066415">
		<tag k="name" v="Larslygarhaugen" />
		<tag k="natural" v="hill" />
		<tag k="place" v="locality" />
		<tag k="ssr:stedsnr" v="151554" />
	</node>
	<node id="-779140" lat="70.0891306037" lon="29.933851213">
		<tag k="fixme" v="verify maritime location" />
		<tag k="mooring" v="yes" />
		<tag k="name" v="Båtstø" />
		<tag k="place" v="locality" />
		<tag k="ssr:stedsnr" v="151466" />
	</node>
	<node id="-779139" lat="70.0703528272" lon="29.9240678712">
		<tag k="name" v="Ylihaaki" />
		<tag k="name:fkv" v="Ylihaaki" />
		<tag k="natural" v="valley" />
		<tag k="place" v="locality" />
		<tag k="ssr:stedsnr" v="151443" />
	</node>
	<node id="-779138" lat="70.0792167192" lon="29.9892845274">
		<tag k="name" v="Nikulainjänkkä" />
		<tag k="name:fkv" v="Nikulainjänkkä" />
		<tag k="natural" v="wetland" />
		<tag k="old_name:fkv" v="Nikolainjänkkä" />
		<tag k="ssr:stedsnr" v="151425" />
	</node>
	<node id="-779137" lat="70.0695389404" lon="29.7800096333">
		<tag k="name" v="Yttersundet" />
		<tag k="natural" v="strait" />
		<tag k="ssr:stedsnr" v="151367" />
	</node>
	<node id="-779136" lat="70.0710889346" lon="29.7622457587">
		<tag k="name" v="Makkeleira" />
		<tag k="natural" v="bay" />
		<tag k="ssr:stedsnr" v="151365" />
	</node>
	<node id="-779135" lat="70.066141711" lon="29.7647957518">
		<tag k="name" v="Luftskipsmast" />
		<tag k="ssr:stedsnr" v="151359" />
		<tag k="tourism" v="attraction" />
	</node>
	<node id="-779134" lat="70.076861158" lon="29.7609596373">
		<tag k="name" v="Stjerneplassen" />
		<tag k="place" v="neighbourhood" />
		<tag k="ssr:stedsnr" v="151346" />
	</node>
	<node id="-779133" lat="70.0762361609" lon="29.7596679828">
		<tag k="leisure" v="pitch" />
		<tag k="name" v="Idrettsplass" />
		<tag k="ssr:stedsnr" v="151347" />
	</node>
	<node id="-779132" lat="70.0684417151" lon="29.7301152186">
		<tag k="building" v="industrial" />
		<tag k="name" v="Forbrenningsovn" />
		<tag k="ssr:stedsnr" v="151330" />
	</node>
	<node id="-779131" lat="70.1199833827" lon="29.832929065">
		<tag k="name" v="Sjåbuselvskaret" />
		<tag k="natural" v="valley" />
		<tag k="place" v="locality" />
		<tag k="ssr:stedsnr" v="151325" />
	</node>
	<node id="-779130" lat="70.1125444973" lon="29.9221345708">
		<tag k="name" v="Løfgrenslåtta" />
		<tag k="place" v="locality" />
		<tag k="ssr:stedsnr" v="151315" />
	</node>
	<node id="-779129" lat="70.1152056057" lon="29.9724567548">
		<tag k="name" v="Helistøslåtta" />
		<tag k="place" v="locality" />
		<tag k="ssr:stedsnr" v="151313" />
	</node>
	<node id="-779128" lat="70.0667694939" lon="29.8788123394">
		<tag k="name" v="Hølen" />
		<tag k="place" v="locality" />
		<tag k="ssr:stedsnr" v="151309" />
	</node>
	<node id="-779127" lat="70.1139111621" lon="29.8122207405">
		<tag k="name" v="Byvasshøgda" />
		<tag k="natural" v="hill" />
		<tag k="place" v="locality" />
		<tag k="ssr:stedsnr" v="151302" />
	</node>
	<node id="-779126" lat="70.069200045" lon="29.8380012739">
		<tag k="name" v="Myran" />
		<tag k="natural" v="wetland" />
		<tag k="ssr:stedsnr" v="151294" />
	</node>
	<node id="-779125" lat="70.0786555977" lon="29.7435374415">
		<tag k="leisure" v="pitch" />
		<tag k="name" v="Sentralidrettsanlegg" />
		<tag k="ssr:stedsnr" v="151261" />
	</node>
	<node id="-779124" lat="70.0828194946" lon="29.7331735451">
		<tag k="name" v="Prestelvtorget" />
		<tag k="place" v="quarter" />
		<tag k="ssr:stedsnr" v="151256" />
	</node>
	<node id="-779123" lat="70.0918861548" lon="29.8429207243">
		<tag k="name" v="Eevanjänkä" />
		<tag k="name:fkv" v="Eevanjänkä" />
		<tag k="natural" v="wetland" />
		<tag k="old_name:fkv" v="Evajänkkä" />
		<tag k="ssr:stedsnr" v="151249" />
	</node>
	<node id="-779122" lat="70.0868417166" lon="29.8360429357">
		<tag k="name" v="Kettuberget" />
		<tag k="natural" v="hill" />
		<tag k="place" v="locality" />
		<tag k="ssr:stedsnr" v="151240" />
	</node>
	<node id="-779121" lat="70.0899528248" lon="29.8238262933">
		<tag k="name" v="Torsvardmyra" />
		<tag k="natural" v="wetland" />
		<tag k="ssr:stedsnr" v="151238" />
	</node>
	<node id="-779120" lat="70.0741444949" lon="29.7486540924">
		<tag k="amenity" v="townhall" />
		<tag k="name" v="Vadsø Rådhus" />
		<tag k="ssr:stedsnr" v="151198" />
	</node>
	<node id="-779119" lat="70.0959194906" lon="29.5322819875">
		<tag k="name" v="Rødberget" />
		<tag k="natural" v="hill" />
		<tag k="place" v="locality" />
		<tag k="ssr:stedsnr" v="151121" />
	</node>
	<node id="-779118" lat="70.1183972607" lon="29.2907543449">
		<tag k="name" v="Bakken" />
		<tag k="natural" v="slope" />
		<tag k="place" v="locality" />
		<tag k="ssr:stedsnr" v="151103" />
	</node>
	<node id="-779117" lat="70.0946972685" lon="29.5577069831">
		<tag k="name" v="Krumpestein" />
		<tag k="natural" v="stone" />
		<tag k="ssr:stedsnr" v="151017" />
	</node>
	<node id="-779116" lat="70.0916194881" lon="29.6433347001">
		<tag k="fixme" v="consider highway=path" />
		<tag k="highway" v="track" />
		<tag k="name" v="Tyskvegen" />
		<tag k="ssr:stedsnr" v="151001" />
	</node>
	<node id="-779115" lat="70.1872639374" lon="30.2102955387">
		<tag k="name" v="Falkormunningen" />
		<tag k="natural" v="bay" />
		<tag k="ssr:stedsnr" v="149905" />
	</node>
	<node id="-779114" lat="70.1131583855" lon="30.1514344164">
		<tag k="name" v="Varen" />
		<tag k="natural" v="ridge" />
		<tag k="place" v="locality" />
		<tag k="ssr:stedsnr" v="149032" />
	</node>
	<node id="-779113" lat="70.0710972741" lon="29.777598523">
		<tag k="name" v="Austrehamna" />
		<tag k="natural" v="bay" />
		<tag k="ssr:stedsnr" v="147221" />
	</node>
	<node id="-779112" lat="70.3933028113" lon="29.091357288">
		<tag k="name" v="Hermanskáidi" />
		<tag k="name:se" v="Hermanskáidi" />
		<tag k="natural" v="cape" />
		<tag k="old_name:se" v="Hermanskaidi" />
		<tag k="ssr:stedsnr" v="141997" />
	</node>
	<node id="-779111" lat="70.4194416962" lon="29.2907099855">
		<tag k="fixme" v="consider natural=peak for the most distinct mountains in the district" />
		<tag k="name" v="Suoidneoaivvit" />
		<tag k="name:se" v="Suoidneoaivvit" />
		<tag k="natural" v="hill" />
		<tag k="old_name:se" v="Suoidneoaivit" />
		<tag k="place" v="locality" />
		<tag k="ssr:stedsnr" v="141934" />
	</node>
	<node id="-779110" lat="70.4000916955" lon="29.274143325">
		<tag k="name" v="Šelgesjohka" />
		<tag k="name:se" v="Šelgesjohka" />
		<tag k="old_name:se" v="Šelgesjåkka" />
		<tag k="ssr:stedsnr" v="141932" />
		<tag k="waterway" v="stream" />
	</node>
	<node id="-779109" lat="70.411700035" lon="29.4403627069">
		<tag k="name" v="Rávdoljohka" />
		<tag k="name:se" v="Rávdoljohka" />
		<tag k="old_name:se" v="Ravduljåkka" />
		<tag k="ssr:stedsnr" v="141969" />
		<tag k="waterway" v="stream" />
	</node>
	<node id="-779108" lat="70.267013936" lon="30.2066233561">
		<tag k="fixme" v="consider natural=peak for the most distinct mountains in the district" />
		<tag k="name" v="Cavnnoaivi" />
		<tag k="name:se" v="Cavnnoaivi" />
		<tag k="natural" v="hill" />
		<tag k="old_name:se" v="Cavnoaivi" />
		<tag k="place" v="locality" />
		<tag k="ssr:stedsnr" v="141904" />
	</node>
	<node id="-779107" lat="70.2921417072" lon="29.962545724">
		<tag k="name" v="Uhca Guovdavággi" />
		<tag k="name:se" v="Uhca Guovdavággi" />
		<tag k="natural" v="valley" />
		<tag k="old_name:se" v="Guovdavaggi, ucca" />
		<tag k="place" v="locality" />
		<tag k="ssr:stedsnr" v="141892" />
	</node>
	<node id="-779106" lat="70.2926917081" lon="29.843470807">
		<tag k="name" v="Guovdavákkejohka" />
		<tag k="name:se" v="Guovdavákkejohka" />
		<tag k="old_name:se" v="Guovdavaggejåkka;Guovdavaggejohka" />
		<tag k="ssr:stedsnr" v="141891" />
		<tag k="waterway" v="river" />
	</node>
	<node id="-779105" lat="70.1639111593" lon="29.8858901574">
		<tag k="name" v="Stabbursdalen" />
		<tag k="natural" v="valley" />
		<tag k="place" v="locality" />
		<tag k="ssr:stedsnr" v="141636" />
	</node>
	<node id="-779104" lat="70.1504417102" lon="29.6614041712">
		<tag k="fixme" v="consider natural=peak for the most distinct mountains in the district" />
		<tag k="loc_name:no" v="Dobbeltnasen" />
		<tag k="name" v="Dobbeltnasa - Doappalnjunni" />
		<tag k="name:no" v="Dobbeltnasa" />
		<tag k="name:se" v="Doappalnjunni" />
		<tag k="natural" v="hill" />
		<tag k="old_name:se" v="Doabbalnjunni" />
		<tag k="place" v="locality" />
		<tag k="ssr:stedsnr" v="141632" />
	</node>
	<node id="-779103" lat="70.1109750378" lon="29.4673570265">
		<tag k="name" v="Paddebyvannet" />
		<tag k="natural" v="water" />
		<tag k="ssr:stedsnr" v="141619" />
		<tag k="water" v="lake" />
	</node>
	<node id="-779102" lat="70.2009250457" lon="30.1592566945">
		<tag k="name" v="Tievanjärvi" />
		<tag k="name:fkv" v="Tievanjärvi" />
		<tag k="natural" v="water" />
		<tag k="old_name:fkv" v="Dievajærvi" />
		<tag k="ssr:stedsnr" v="141569" />
	</node>
	<node id="-779101" lat="70.1466750539" lon="30.2386510691">
		<tag k="fixme" v="consider natural=peak for the most distinct mountains in the district" />
		<tag k="name" v="Skallhalsen" />
		<tag k="natural" v="hill" />
		<tag k="place" v="locality" />
		<tag k="ssr:stedsnr" v="141564" />
	</node>
	<node id="-779100" lat="70.127516723" lon="30.1238761251">
		<tag k="name" v="Storskogkløfta" />
		<tag k="natural" v="valley" />
		<tag k="place" v="locality" />
		<tag k="ssr:stedsnr" v="141555" />
	</node>
	<node id="-779099" lat="70.0792196691" lon="30.0914833022">
		<tag k="name" v="Valen" />
		<tag k="place" v="farm" />
		<tag k="ssr:stedsnr" v="141550" />
	</node>
	<node id="-779098" lat="70.1635083809" lon="29.8857401598">
		<tag k="name" v="Áitejohka" />
		<tag k="name:se" v="Áitejohka" />
		<tag k="old_name:se" v="Aitejåkka" />
		<tag k="ssr:stedsnr" v="141476" />
		<tag k="waterway" v="river" />
	</node>
	<node id="-779097" lat="70.1790083718" lon="29.2214321688">
		<tag k="name" v="Karlsmyra - Kallenjänkkä" />
		<tag k="name:fkv" v="Kallenjänkkä" />
		<tag k="name:no" v="Karlsmyra" />
		<tag k="natural" v="wetland" />
		<tag k="ssr:stedsnr" v="140739" />
	</node>
	<node id="-779096" lat="70.1612139233" lon="29.3083098961">
		<tag k="alt_name" v="3.Fossen" />
		<tag k="name" v="Tredjefossen" />
		<tag k="natural" v="waterfall" />
		<tag k="ssr:stedsnr" v="140724" />
	</node>
	<node id="-779095" lat="70.2287861482" lon="29.3482071172">
		<tag k="name" v="Reinelva - Devddorjohka" />
		<tag k="name:no" v="Reinelva" />
		<tag k="name:se" v="Devddorjohka" />
		<tag k="old_name:se" v="Devdurjåkka" />
		<tag k="ssr:stedsnr" v="140689" />
		<tag k="waterway" v="stream" />
	</node>
	<node id="-779094" lat="70.0756222706" lon="29.8161929413">
		<tag k="alt_name:se" v="Mielgavárri" />
		<tag k="name" v="Melkevarden - Mielkevárri" />
		<tag k="name:no" v="Melkevarden" />
		<tag k="name:se" v="Mielkevárri" />
		<tag k="natural" v="hill" />
		<tag k="old_name:se" v="Mielkevarri" />
		<tag k="place" v="locality" />
		<tag k="ssr:stedsnr" v="140504" />
	</node>
	<node id="-779093" lat="70.1539055977" lon="29.4498959469">
		<tag k="name" v="Østervannshompen" />
		<tag k="natural" v="hill" />
		<tag k="place" v="locality" />
		<tag k="ssr:stedsnr" v="91969" />
	</node>
	<node id="-779092" lat="70.2037500548" lon="30.2525177521">
		<tag k="name" v="Villenniitty" />
		<tag k="name:fkv" v="Villenniitty" />
		<tag k="place" v="locality" />
		<tag k="ssr:stedsnr" v="91687" />
	</node>
	<node id="-779091" lat="70.200291726" lon="30.3779898786">
		<tag k="name" v="Juntinkenttä" />
		<tag k="name:fkv" v="Juntinkenttä" />
		<tag k="place" v="locality" />
		<tag k="ssr:stedsnr" v="91668" />
	</node>
	<node id="-779090" lat="70.074966717" lon="29.9879345192">
		<tag k="name" v="Sandbakken - Hietamella" />
		<tag k="name:fkv" v="Hietamella" />
		<tag k="name:no" v="Sandbakken" />
		<tag k="natural" v="slope" />
		<tag k="old_name:fkv" v="Jedamella" />
		<tag k="place" v="locality" />
		<tag k="ssr:stedsnr" v="91623" />
	</node>
	<node id="-779089" lat="70.070763937" lon="30.0169872678">
		<tag k="name" v="Seiberget" />
		<tag k="natural" v="hill" />
		<tag k="place" v="locality" />
		<tag k="ssr:stedsnr" v="91607" />
	</node>
	<node id="-779088" lat="70.0705778303" lon="30.1304344287">
		<tag k="name" v="Spelemannshammaren" />
		<tag k="natural" v="cliff" />
		<tag k="ssr:stedsnr" v="91569" />
	</node>
	<node id="-779087" lat="70.0753222733" lon="30.1337816373">
		<tag k="name" v="Stormyrberget" />
		<tag k="natural" v="hill" />
		<tag k="place" v="locality" />
		<tag k="ssr:stedsnr" v="91564" />
	</node>
	<node id="-779086" lat="70.071044501" lon="30.153926067">
		<tag k="name" v="Skagbakken" />
		<tag k="natural" v="slope" />
		<tag k="place" v="locality" />
		<tag k="ssr:stedsnr" v="91562" />
	</node>
	<node id="-779085" lat="70.1089278338" lon="30.0688900379">
		<tag k="name" v="Sandbakkhølene" />
		<tag k="place" v="locality" />
		<tag k="ssr:stedsnr" v="91527" />
	</node>
	<node id="-779084" lat="70.205963937" lon="30.1926788958">
		<tag k="name" v="Skallelvporten" />
		<tag k="natural" v="waterfall" />
		<tag k="ssr:stedsnr" v="91724" />
	</node>
	<node id="-779083" lat="70.0863556103" lon="29.9421206484">
		<tag k="name" v="Reingårdshamran - Monstanriutta" />
		<tag k="name:fkv" v="Monstanriutta" />
		<tag k="name:no" v="Reingårdshamran" />
		<tag k="natural" v="slope" />
		<tag k="place" v="locality" />
		<tag k="ssr:stedsnr" v="91486" />
	</node>
	<node id="-779082" lat="70.0762722691" lon="29.9683817436">
		<tag k="name" v="Taipale" />
		<tag k="name:fkv" v="Taipale" />
		<tag k="natural" v="slope" />
		<tag k="place" v="locality" />
		<tag k="ssr:stedsnr" v="91464" />
	</node>
	<node id="-779081" lat="70.0699306111" lon="29.9713178578">
		<tag k="fixme" v="consider highway=path" />
		<tag k="highway" v="track" />
		<tag k="name" v="Torvmarkvegen" />
		<tag k="ssr:stedsnr" v="91463" />
	</node>
	<node id="-779080" lat="70.0675917124" lon="29.7481540826">
		<tag k="name" v="Lailas Gjestehus" />
		<tag k="ssr:stedsnr" v="91351" />
		<tag k="tourism" v="hotel" />
	</node>
	<node id="-779079" lat="70.0640556079" lon="29.8560790289">
		<tag k="name" v="Kibybekken" />
		<tag k="ssr:stedsnr" v="91310" />
		<tag k="waterway" v="stream" />
	</node>
	<node id="-779078" lat="70.0688028243" lon="29.8557068026">
		<tag k="name" v="Lille Ingersvannet" />
		<tag k="natural" v="water" />
		<tag k="ssr:stedsnr" v="91294" />
	</node>
	<node id="-779077" lat="70.085869492" lon="29.8079207293">
		<tag k="amenity" v="sports_centre" />
		<tag k="name" v="Skytterhus" />
		<tag k="ssr:stedsnr" v="91244" />
	</node>
	<node id="-779076" lat="70.0869556031" lon="29.776312411">
		<tag k="name" v="Solbakken" />
		<tag k="place" v="isolated_dwelling" />
		<tag k="ssr:stedsnr" v="91222" />
	</node>
	<node id="-779075" lat="70.1324472553" lon="29.2498349266">
		<tag k="name" v="Lille Rundhaug" />
		<tag k="natural" v="hill" />
		<tag k="place" v="locality" />
		<tag k="ssr:stedsnr" v="91101" />
	</node>
	<node id="-779074" lat="70.1200722567" lon="29.294393235">
		<tag k="name" v="Skittenelvbakken" />
		<tag k="natural" v="slope" />
		<tag k="place" v="locality" />
		<tag k="ssr:stedsnr" v="91096" />
	</node>
	<node id="-779073" lat="70.123505595" lon="29.3336182034">
		<tag k="amenity" v="nursing_home" />
		<tag k="name" v="Barnehjem" />
		<tag k="ssr:stedsnr" v="91093" />
	</node>
	<node id="-779072" lat="70.1167250426" lon="29.3263960002">
		<tag k="name" v="Holmen" />
		<tag k="place" v="islet" />
		<tag k="ssr:stedsnr" v="91076" />
	</node>
	<node id="-779071" lat="70.1044917085" lon="29.4841597917">
		<tag k="fixme" v="consider natural=peak for the most distinct mountains in the district" />
		<tag k="name" v="Salen" />
		<tag k="natural" v="hill" />
		<tag k="place" v="locality" />
		<tag k="ssr:stedsnr" v="91024" />
	</node>
	<node id="-779070" lat="70.0897611514" lon="29.6054152895">
		<tag k="name" v="Andersbybukta" />
		<tag k="natural" v="bay" />
		<tag k="ssr:stedsnr" v="91009" />
	</node>
	<node id="-779069" lat="70.176091698" lon="29.1893432963">
		<tag k="name" v="Djupholbekken" />
		<tag k="ssr:stedsnr" v="89874" />
		<tag k="waterway" v="stream" />
	</node>
	<node id="-779068" lat="70.3435250321" lon="29.4453793353">
		<tag k="name" v="Ovsttarjeaggi" />
		<tag k="name:se" v="Ovsttarjeaggi" />
		<tag k="natural" v="wetland" />
		<tag k="old_name:se" v="Åvstarjæggi" />
		<tag k="ssr:stedsnr" v="81916" />
	</node>
	<node id="-779067" lat="70.2657305936" lon="29.5511542684">
		<tag k="fixme" v="consider natural=peak for the most distinct mountains in the district" />
		<tag k="name" v="Márgarehtaboldni" />
		<tag k="name:se" v="Márgarehtaboldni" />
		<tag k="natural" v="hill" />
		<tag k="old_name:se" v="Magarettabåldni" />
		<tag k="place" v="locality" />
		<tag k="ssr:stedsnr" v="81904" />
	</node>
	<node id="-779066" lat="70.1755500372" lon="29.4885292652">
		<tag k="fixme" v="consider natural=peak for the most distinct mountains in the district" />
		<tag k="name" v="Várjjoaivi" />
		<tag k="name:se" v="Várjjoaivi" />
		<tag k="natural" v="hill" />
		<tag k="old_name:se" v="Varjoaivi" />
		<tag k="place" v="locality" />
		<tag k="ssr:stedsnr" v="81647" />
	</node>
	<node id="-779065" lat="70.1197722653" lon="29.5942875225">
		<tag k="name" v="Brynhaugen - Goahtesaičorru" />
		<tag k="name:no" v="Brynhaugen" />
		<tag k="name:se" v="Goahtesaičorru" />
		<tag k="natural" v="hill" />
		<tag k="old_name:se" v="Goattesajčårro" />
		<tag k="place" v="locality" />
		<tag k="ssr:stedsnr" v="81634" />
	</node>
	<node id="-779064" lat="70.1179639352" lon="29.7344235665">
		<tag k="name" v="Svanevannet" />
		<tag k="natural" v="water" />
		<tag k="ssr:stedsnr" v="81632" />
		<tag k="water" v="lake" />
	</node>
	<node id="-779063" lat="70.1063639355" lon="29.8903984777">
		<tag k="name" v="Kibymyra" />
		<tag k="natural" v="wetland" />
		<tag k="ssr:stedsnr" v="81629" />
	</node>
	<node id="-779062" lat="70.1993000333" lon="29.3808404395">
		<tag k="name" v="Høyelva - Oažžejohka" />
		<tag k="name:no" v="Høyelva" />
		<tag k="name:se" v="Oažžejohka" />
		<tag k="old_name:no" v="Flintelva, nedre;Nedre Flintelva" />
		<tag k="old_name:se" v="Oažžejåkka" />
		<tag k="ssr:stedsnr" v="81594" />
		<tag k="waterway" v="river" />
	</node>
	<node id="-779061" lat="70.2024528158" lon="29.5632264641">
		<tag k="name" v="Vargelvskardet" />
		<tag k="natural" v="valley" />
		<tag k="place" v="locality" />
		<tag k="ssr:stedsnr" v="81589" />
	</node>
	<node id="-779060" lat="70.1977111501" lon="29.4214654262">
		<tag k="fixme" v="consider natural=peak for the most distinct mountains in the district" />
		<tag k="name" v="Flintnasa" />
		<tag k="natural" v="hill" />
		<tag k="place" v="locality" />
		<tag k="ssr:stedsnr" v="81586" />
	</node>
	<node id="-779059" lat="70.1573028335" lon="30.2452344096">
		<tag k="alt_name:no" v="Lille Skallelv" />
		<tag k="name" v="Lille Skallelva - Ávže-Gállojohka" />
		<tag k="name:no" v="Lille Skallelva" />
		<tag k="name:se" v="Ávže-Gállojohka" />
		<tag k="old_name:no" v="Skallelva, l" />
		<tag k="ssr:stedsnr" v="81571" />
		<tag k="waterway" v="river" />
	</node>
	<node id="-779058" lat="70.1270389416" lon="30.2268177281">
		<tag k="fixme" v="multiple name tags, choose one and add the other to alt_name" />
		<tag k="name" v="Nedre Sikevannet;Torvvannet" />
		<tag k="natural" v="water" />
		<tag k="ssr:stedsnr" v="81563" />
	</node>
	<node id="-779057" lat="70.074066725" lon="30.1027844355">
		<tag k="fixme" v="consider place=hamlet" />
		<tag k="name" v="Ekkerøy" />
		<tag k="place" v="village" />
		<tag k="ssr:stedsnr" v="81496" />
	</node>
	<node id="-779056" lat="70.386755589" lon="29.255612784">
		<tag k="name" v="Stálojávrrit" />
		<tag k="name:se" v="Stálojávrrit" />
		<tag k="natural" v="water" />
		<tag k="old_name:se" v="Stalujavrit" />
		<tag k="ssr:stedsnr" v="80947" />
		<tag k="water" v="lake" />
	</node>
	<node id="-779055" lat="70.387775029" lon="29.2203766744">
		<tag k="name" v="Stáloboldni" />
		<tag k="name:se" v="Stáloboldni" />
		<tag k="natural" v="hill" />
		<tag k="old_name:se" v="Stalubåldni" />
		<tag k="place" v="locality" />
		<tag k="ssr:stedsnr" v="80946" />
	</node>
	<node id="-779054" lat="70.1578250413" lon="29.3656848896">
		<tag k="name" v="Vaselva - Suottarjohka - Vesijoki" />
		<tag k="name:fkv" v="Vesijoki" />
		<tag k="name:no" v="Vaselva" />
		<tag k="name:se" v="Suottarjohka" />
		<tag k="old_name:se" v="Suoddarjåkka" />
		<tag k="ssr:stedsnr" v="80740" />
		<tag k="waterway" v="river" />
	</node>
	<node id="-779053" lat="70.1776694878" lon="29.5233125913">
		<tag k="alt_name" v="Gjelhaugan" />
		<tag k="fixme" v="consider natural=peak for the most distinct mountains in the district" />
		<tag k="name" v="Gjelhaugane" />
		<tag k="natural" v="hill" />
		<tag k="place" v="locality" />
		<tag k="ssr:stedsnr" v="80735" />
	</node>
	<node id="-779052" lat="70.2483361517" lon="29.3560543479">
		<tag k="name" v="Borjjasgurra" />
		<tag k="name:se" v="Borjjasgurra" />
		<tag k="natural" v="valley" />
		<tag k="old_name:se" v="Bårjasgurra" />
		<tag k="place" v="locality" />
		<tag k="ssr:stedsnr" v="80703" />
	</node>
	<node id="-779051" lat="70.1035694813" lon="29.3363015242">
		<tag k="alt_name:no" v="Finnesset" />
		<tag k="loc_name:se" v="Lávrranjárga" />
		<tag k="name" v="Finneset - Lauriniemi" />
		<tag k="name:fkv" v="Lauriniemi" />
		<tag k="name:no" v="Finneset" />
		<tag k="natural" v="cape" />
		<tag k="ssr:stedsnr" v="80675" />
	</node>
	<node id="-779050" lat="70.1330000359" lon="29.3133710011">
		<tag k="alt_name" v="1.Fossen" />
		<tag k="name" v="Førstefossen" />
		<tag k="natural" v="waterfall" />
		<tag k="ssr:stedsnr" v="80635" />
	</node>
	<node id="-779049" lat="70.0816139387" lon="29.9531650858">
		<tag k="name" v="Stormyra - Maanlaita" />
		<tag k="name:fkv" v="Maanlaita" />
		<tag k="name:no" v="Stormyra" />
		<tag k="natural" v="wetland" />
		<tag k="ssr:stedsnr" v="80540" />
	</node>
	<node id="-779048" lat="70.0668917206" lon="29.9179734401">
		<tag k="alt_name" v="Høivikhaugen" />
		<tag k="name" v="Høyvikhaugen" />
		<tag k="natural" v="hill" />
		<tag k="place" v="locality" />
		<tag k="ssr:stedsnr" v="80530" />
	</node>
	<node id="-779047" lat="70.0803056053" lon="29.7309374502">
		<tag k="name" v="Vadsø - Čáhcesuolu - Vesisaari" />
		<tag k="name:fkv" v="Vesisaari" />
		<tag k="name:no" v="Vadsø" />
		<tag k="name:se" v="Čáhcesuolu" />
		<tag k="place" v="town" />
		<tag k="ssr:stedsnr" v="80524" />
	</node>
	<node id="-779046" lat="70.072850052" lon="29.739023537">
		<tag k="name" v="Hamna" />
		<tag k="natural" v="bay" />
		<tag k="ssr:stedsnr" v="80522" />
	</node>
	<node id="-779045" lat="70.1757944962" lon="30.3565371072">
		<tag k="fixme" v="consider seamark:type=rock or natural=shoal" />
		<tag k="name" v="Langskjæret" />
		<tag k="place" v="islet" />
		<tag k="ssr:stedsnr" v="40225" />
	</node>
	<node id="-779044" lat="70.0973750429" lon="29.416065378">
		<tag k="name" v="Paddebyhaugen" />
		<tag k="natural" v="hill" />
		<tag k="place" v="locality" />
		<tag k="ssr:stedsnr" v="30994" />
	</node>
	<node id="-779043" lat="70.1500583854" lon="30.3350648915">
		<tag k="name" v="Pärintakustajänkkä" />
		<tag k="name:fkv" v="Pärintakustajänkkä" />
		<tag k="natural" v="wetland" />
		<tag k="old_name:fkv" v="Pärintäkustaajänkkä" />
		<tag k="ssr:stedsnr" v="30699" />
	</node>
	<node id="-779042" lat="70.1789389394" lon="30.3290649026">
		<tag k="name" v="Kallilahti" />
		<tag k="name:fkv" v="Kallilahti" />
		<tag k="natural" v="beach" />
		<tag k="place" v="locality" />
		<tag k="ssr:stedsnr" v="30693" />
	</node>
	<node id="-779041" lat="70.1969056108" lon="30.321267686">
		<tag k="fixme" v="consider highway=path" />
		<tag k="highway" v="track" />
		<tag k="name" v="Maanlaita-vegen" />
		<tag k="ssr:stedsnr" v="30671" />
	</node>
	<node id="-779040" lat="70.1919306045" lon="30.2547288438">
		<tag k="name" v="Kukonjokiniitynjärvi" />
		<tag k="name:fkv" v="Kukonjokiniitynjärvi" />
		<tag k="natural" v="water" />
		<tag k="old_name:fkv" v="Kokkonjohinniittynjärvi" />
		<tag k="ssr:stedsnr" v="30636" />
	</node>
	<node id="-779039" lat="70.0753861626" lon="30.0010233997">
		<tag k="name" v="Ruijanjängät" />
		<tag k="name:fkv" v="Ruijanjängät" />
		<tag k="natural" v="wetland" />
		<tag k="old_name:fkv" v="Rujanjängät" />
		<tag k="ssr:stedsnr" v="30605" />
	</node>
	<node id="-779038" lat="70.0696333806" lon="30.0030345042">
		<tag k="name" v="Været" />
		<tag k="place" v="hamlet" />
		<tag k="ssr:stedsnr" v="30588" />
	</node>
	<node id="-779037" lat="70.0746111646" lon="30.045759476">
		<tag k="name" v="Solalaassa" />
		<tag k="name:fkv" v="Solalaassa" />
		<tag k="natural" v="cape" />
		<tag k="ssr:stedsnr" v="30585" />
	</node>
	<node id="-779036" lat="70.0787861672" lon="30.0828094631">
		<tag k="name" v="Sollnesbukta" />
		<tag k="natural" v="bay" />
		<tag k="ssr:stedsnr" v="30568" />
	</node>
	<node id="-779035" lat="70.0703083857" lon="30.1376288632">
		<tag k="name" v="Skipparvika" />
		<tag k="natural" v="bay" />
		<tag k="ssr:stedsnr" v="30545" />
	</node>
	<node id="-779034" lat="70.0693472762" lon="30.1539316384">
		<tag k="name" v="Kvalvika" />
		<tag k="natural" v="bay" />
		<tag k="ssr:stedsnr" v="30527" />
	</node>
	<node id="-779033" lat="70.0709833861" lon="29.9189706536">
		<tag k="name" v="Turvejänkkä" />
		<tag k="name:fkv" v="Turvejänkkä" />
		<tag k="natural" v="wetland" />
		<tag k="ssr:stedsnr" v="30423" />
	</node>
	<node id="-779032" lat="70.0949139383" lon="30.051587259">
		<tag k="name" v="Varskogelva - Rautujoki" />
		<tag k="name:fkv" v="Rautujoki" />
		<tag k="name:no" v="Varskogelva" />
		<tag k="ssr:stedsnr" v="30413" />
		<tag k="waterway" v="stream" />
	</node>
	<node id="-779031" lat="70.0857444952" lon="29.9671817472">
		<tag k="name" v="Kaakkurijänkkä" />
		<tag k="name:fkv" v="Kaakkurijänkkä" />
		<tag k="natural" v="wetland" />
		<tag k="ssr:stedsnr" v="30465" />
	</node>
	<node id="-779030" lat="70.0706139354" lon="29.7956235183">
		<tag k="name" v="Paavobakken" />
		<tag k="natural" v="slope" />
		<tag k="place" v="locality" />
		<tag k="ssr:stedsnr" v="30279" />
	</node>
	<node id="-779029" lat="70.0706667127" lon="29.7373013204">
		<tag k="man_made" v="quay" />
		<tag k="name" v="Dampskips kai" />
		<tag k="place" v="locality" />
		<tag k="ssr:stedsnr" v="30329" />
	</node>
	<node id="-779028" lat="70.1057639363" lon="29.850067953">
		<tag k="name" v="Maanlaita" />
		<tag k="name:fkv" v="Maanlaita" />
		<tag k="natural" v="slope" />
		<tag k="place" v="locality" />
		<tag k="ssr:stedsnr" v="30322" />
	</node>
	<node id="-779027" lat="70.110972273" lon="29.9364151228">
		<tag k="name" v="Hildonenslåtta" />
		<tag k="place" v="locality" />
		<tag k="ssr:stedsnr" v="30319" />
	</node>
	<node id="-779026" lat="70.0631000514" lon="29.8248596011">
		<tag k="name" v="Flågan" />
		<tag k="natural" v="hill" />
		<tag k="place" v="locality" />
		<tag k="ssr:stedsnr" v="30314" />
	</node>
	<node id="-779025" lat="70.0706778247" lon="29.8758817997">
		<tag k="name" v="Fossen" />
		<tag k="natural" v="waterfall" />
		<tag k="ssr:stedsnr" v="30313" />
	</node>
	<node id="-779024" lat="70.0619889417" lon="29.8562956975">
		<tag k="fixme" v="consider place=hamlet" />
		<tag k="name" v="Været" />
		<tag k="place" v="village" />
		<tag k="ssr:stedsnr" v="30312" />
	</node>
	<node id="-779023" lat="70.0610722759" lon="29.8580095831">
		<tag k="name" v="Leirhaugen" />
		<tag k="natural" v="hill" />
		<tag k="place" v="locality" />
		<tag k="ssr:stedsnr" v="30311" />
	</node>
	<node id="-779022" lat="70.0941500444" lon="29.7712679813">
		<tag k="highway" v="path" />
		<tag k="name" v="Vintervegen" />
		<tag k="ssr:stedsnr" v="30213" />
	</node>
	<node id="-779021" lat="70.0789833821" lon="29.7369235592">
		<tag k="amenity" v="school" />
		<tag k="name" v="Vadsø videregående skole" />
		<tag k="ssr:stedsnr" v="30255" />
	</node>
	<node id="-779020" lat="70.0797444915" lon="29.7578957658">
		<tag k="name" v="Russemattielva" />
		<tag k="ssr:stedsnr" v="30192" />
		<tag k="waterway" v="stream" />
	</node>
	<node id="-779019" lat="70.1005583744" lon="29.6195763951">
		<tag k="name" v="Kroken" />
		<tag k="natural" v="slope" />
		<tag k="place" v="locality" />
		<tag k="ssr:stedsnr" v="30047" />
	</node>
	<node id="-779018" lat="70.1657805936" lon="29.2838238028">
		<tag k="name" v="Lehtipäri" />
		<tag k="name:fkv" v="Lehtipäri" />
		<tag k="natural" v="slope" />
		<tag k="place" v="locality" />
		<tag k="ssr:stedsnr" v="30022" />
	</node>
	<node id="-779017" lat="70.1627944784" lon="29.2935849079">
		<tag k="name" v="Andergå" />
		<tag k="natural" v="wetland" />
		<tag k="ssr:stedsnr" v="30014" />
	</node>
	<node id="-779016" lat="70.1457972564" lon="29.2542682483">
		<tag k="name" v="Puolipäivähyppylä" />
		<tag k="name:fkv" v="Puolipäivähyppylä" />
		<tag k="natural" v="hill" />
		<tag k="old_name:fkv" v="Buribäivahypperi" />
		<tag k="place" v="locality" />
		<tag k="ssr:stedsnr" v="30011" />
	</node>
	<node id="-779015" lat="70.0971639342" lon="29.5733403199">
		<tag k="name" v="Bårdsletta" />
		<tag k="place" v="locality" />
		<tag k="ssr:stedsnr" v="30012" />
	</node>
	<node id="-779014" lat="70.0998722697" lon="29.7000013496">
		<tag k="name" v="Basis A-vannet" />
		<tag k="natural" v="water" />
		<tag k="ssr:stedsnr" v="30004" />
	</node>
	<node id="-779013" lat="70.1324139422" lon="30.1041650214">
		<tag k="name" v="Johan Abrahamrabben" />
		<tag k="place" v="locality" />
		<tag k="ssr:stedsnr" v="28907" />
	</node>
	<node id="-779012" lat="70.2305805939" lon="29.2823349327">
		<tag k="name" v="Steinvannet" />
		<tag k="natural" v="water" />
		<tag k="ssr:stedsnr" v="28902" />
	</node>
	<node id="-779011" lat="70.1151555959" lon="29.2103543835">
		<tag k="name" v="Fálesgohppi" />
		<tag k="name:se" v="Fálesgohppi" />
		<tag k="natural" v="bay" />
		<tag k="ssr:stedsnr" v="26388" />
	</node>
	<node id="-779010" lat="70.0754917173" lon="30.018595608">
		<tag k="name" v="Golneselva" />
		<tag k="ssr:stedsnr" v="26246" />
		<tag k="waterway" v="river" />
	</node>
	<node id="-779009" lat="70.0708194933" lon="30.0578900224">
		<tag k="name" v="Varangerflua" />
		<tag k="natural" v="shoal" />
		<tag k="place" v="locality" />
		<tag k="ssr:stedsnr" v="25306" />
	</node>
	<node id="-779008" lat="70.0546472758" lon="29.8178734876">
		<tag k="name" v="Indre Seigrunnen" />
		<tag k="natural" v="shoal" />
		<tag k="old_name" v="Seigrunnen, Indre" />
		<tag k="place" v="locality" />
		<tag k="ssr:stedsnr" v="25297" />
	</node>
	<node id="-779007" lat="70.1281944955" lon="30.3099510039">
		<tag k="name" v="Moe-berget" />
		<tag k="natural" v="hill" />
		<tag k="place" v="locality" />
		<tag k="ssr:stedsnr" v="25292" />
	</node>
	<node id="-779005" lat="70.4695889172" lon="29.1978295054">
		<tag k="fixme" v="consider natural=peak for the most distinct mountains in the district" />
		<tag k="name" v="Máttit Njoaskoaivi" />
		<tag k="name:se" v="Máttit Njoaskoaivi" />
		<tag k="natural" v="hill" />
		<tag k="old_name:se" v="Njoaskoaivi, maddit" />
		<tag k="place" v="locality" />
		<tag k="ssr:stedsnr" v="20967" />
	</node>
	<node id="-779004" lat="70.0945750461" lon="29.5192236792">
		<tag k="name" v="Sandskjær" />
		<tag k="natural" v="beach" />
		<tag k="place" v="locality" />
		<tag k="ssr:stedsnr" v="20628" />
	</node>
	<node id="-779003" lat="70.1972778283" lon="29.9222207113">
		<tag k="fixme" v="multiple name tags, choose one and add the other to alt_name" />
		<tag k="name" v="Ridelva - Giellasjohka;Riddojohka" />
		<tag k="name:no" v="Ridelva" />
		<tag k="name:se" v="Giellasjohka;Riddojohka" />
		<tag k="old_name:se" v="Giellasjåkka;Riddujåkka" />
		<tag k="ssr:stedsnr" v="20590" />
		<tag k="waterway" v="river" />
	</node>
	<node id="-779002" lat="70.2067111705" lon="30.4503620625">
		<tag k="name" v="Laivanmukka" />
		<tag k="name:fkv" v="Laivanmukka" />
		<tag k="natural" v="bay" />
		<tag k="old_name:fkv" v="Laivanmokka" />
		<tag k="ssr:stedsnr" v="20581" />
	</node>
	<node id="-779001" lat="70.1484278312" lon="30.0768622784">
		<tag k="name" v="Bondevannet" />
		<tag k="natural" v="water" />
		<tag k="ssr:stedsnr" v="20571" />
	</node>
	<node id="-779000" lat="70.1847806132" lon="30.3342260206">
		<tag k="name" v="Poikilaniemi" />
		<tag k="name:fkv" v="Poikilaniemi" />
		<tag k="natural" v="cape" />
		<tag k="old_name:fkv" v="Boigilanniemi" />
		<tag k="ssr:stedsnr" v="20566" />
	</node>
	<node id="-778999" lat="70.1846389283" lon="29.2901821458">
		<tag k="name" v="Flintelvdalen" />
		<tag k="natural" v="valley" />
		<tag k="place" v="locality" />
		<tag k="ssr:stedsnr" v="19747" />
	</node>
	<node id="-778998" lat="70.1747778146" lon="29.2523599399">
		<tag k="alt_name:no" v="Kaffeholmen" />
		<tag k="name" v="Kaffiholmen - Kaffisaari" />
		<tag k="name:fkv" v="Kaffisaari" />
		<tag k="name:no" v="Kaffiholmen" />
		<tag k="place" v="islet" />
		<tag k="ssr:stedsnr" v="19717" />
	</node>
	<node id="-778997" lat="70.1644889266" lon="29.2894154783">
		<tag k="alt_name" v="4.Fossen" />
		<tag k="name" v="Fjerdefossen" />
		<tag k="natural" v="waterfall" />
		<tag k="ssr:stedsnr" v="19711" />
	</node>
	<node id="-778996" lat="70.1037889262" lon="29.3511404089">
		<tag k="name" v="Torvhaugen" />
		<tag k="natural" v="hill" />
		<tag k="place" v="locality" />
		<tag k="ssr:stedsnr" v="19657" />
	</node>
	<node id="-778995" lat="70.0825389363" lon="29.669159688">
		<tag k="name" v="Laksbuneset" />
		<tag k="natural" v="cape" />
		<tag k="ssr:stedsnr" v="413989" />
	</node>
	<node id="-778994" lat="70.4837500331" lon="29.5401571348">
		<tag k="loc_name:fkv" v="Varenkinniemi;Varinkinniemi" />
		<tag k="name" v="Varangerhalvøya - Várnjárga" />
		<tag k="name:no" v="Varangerhalvøya" />
		<tag k="name:se" v="Várnjárga" />
		<tag k="natural" v="cape" />
		<tag k="ssr:stedsnr" v="506029" />
	</node>
	<node id="-778992" lat="70.0870076761" lon="29.6679449658">
		<tag k="loc_name:se" v="Vuor'jam-jokka;Vuorjánjohka" />
		<tag k="name" v="Tomaselv - Turvejoki" />
		<tag k="name:fkv" v="Turvejoki" />
		<tag k="name:no" v="Tomaselv" />
		<tag k="place" v="hamlet" />
		<tag k="ssr:stedsnr" v="1071926" />
	</node>
	<node id="-778984" lat="70.1598667058" lon="29.4496514946">
		<tag k="name" v="Osvaldmyra - Kurujänkkä" />
		<tag k="name:fkv" v="Kurujänkkä" />
		<tag k="name:no" v="Osvaldmyra" />
		<tag k="natural" v="wetland" />
		<tag k="old_name:fkv" v="Gurrujänkkä" />
		<tag k="ssr:stedsnr" v="394957" />
	</node>
	<node id="-778983" lat="70.1540139307" lon="29.4400598286">
		<tag k="name" v="Hjertevannet" />
		<tag k="natural" v="water" />
		<tag k="ssr:stedsnr" v="394956" />
	</node>
	<node id="-778974" lat="70.1021694992" lon="30.1887871693">
		<tag k="fixme" v="consider seamark:type=rock or natural=shoal" />
		<tag k="name" v="Flua" />
		<tag k="place" v="islet" />
		<tag k="ssr:stedsnr" v="394726" />
	</node>
	<node id="-778973" lat="70.1950806049" lon="30.1613927854">
		<tag k="name" v="Blinkkulpen" />
		<tag k="place" v="locality" />
		<tag k="ssr:stedsnr" v="394717" />
	</node>
	<node id="-778972" lat="70.184419498" lon="30.2668566061">
		<tag k="name" v="Helmerslåtta" />
		<tag k="place" v="locality" />
		<tag k="ssr:stedsnr" v="394631" />
	</node>
	<node id="-778971" lat="70.0632444928" lon="29.931562326">
		<tag k="name" v="Høivikneset" />
		<tag k="natural" v="cape" />
		<tag k="ssr:stedsnr" v="394611" />
	</node>
	<node id="-778970" lat="70.0623944974" lon="29.9155290097">
		<tag k="name" v="Isokari" />
		<tag k="name:fkv" v="Isokari" />
		<tag k="natural" v="beach" />
		<tag k="place" v="locality" />
		<tag k="ssr:stedsnr" v="394609" />
	</node>
	<node id="-778969" lat="70.0676750525" lon="29.9837817231">
		<tag k="name" v="Oterberget - Saukkokallio" />
		<tag k="name:fkv" v="Saukkokallio" />
		<tag k="name:no" v="Oterberget" />
		<tag k="natural" v="hill" />
		<tag k="place" v="locality" />
		<tag k="ssr:stedsnr" v="394592" />
	</node>
	<node id="-778968" lat="70.0725444958" lon="30.009323387">
		<tag k="fixme" v="consider highway=path" />
		<tag k="highway" v="track" />
		<tag k="name" v="Grusvegen" />
		<tag k="ssr:stedsnr" v="394583" />
	</node>
	<node id="-778967" lat="70.0726859573" lon="30.026026411">
		<tag k="fixme" v="consider place=hamlet" />
		<tag k="name" v="Sisäpää" />
		<tag k="name:fkv" v="Sisäpää" />
		<tag k="place" v="village" />
		<tag k="ssr:stedsnr" v="394578" />
	</node>
	<node id="-778966" lat="70.0977417202" lon="30.0986427925">
		<tag k="name" v="Tverrelva" />
		<tag k="ssr:stedsnr" v="394570" />
		<tag k="waterway" v="stream" />
	</node>
	<node id="-778965" lat="70.0889861601" lon="30.064359472">
		<tag k="highway" v="path" />
		<tag k="name" v="Keitavegen" />
		<tag k="ssr:stedsnr" v="394571" />
	</node>
	<node id="-778964" lat="70.0775611625" lon="30.1213233068">
		<tag k="name" v="Varbukta" />
		<tag k="natural" v="bay" />
		<tag k="ssr:stedsnr" v="394562" />
	</node>
	<node id="-778963" lat="70.0703444975" lon="30.0959761047">
		<tag k="landuse" v="harbour" />
		<tag k="name" v="Hamna" />
		<tag k="seamark:type" v="harbour" />
		<tag k="ssr:stedsnr" v="394556" />
	</node>
	<node id="-778962" lat="70.0794444947" lon="29.9709400923">
		<tag k="name" v="Lille Monsta" />
		<tag k="place" v="locality" />
		<tag k="ssr:stedsnr" v="394481" />
	</node>
	<node id="-778961" lat="70.0668611617" lon="29.9615900676">
		<tag k="name" v="Skolemyra" />
		<tag k="natural" v="wetland" />
		<tag k="ssr:stedsnr" v="394449" />
	</node>
	<node id="-778960" lat="70.0693917166" lon="29.9524011972">
		<tag k="name" v="Siljamaa" />
		<tag k="name:fkv" v="Siljamaa" />
		<tag k="place" v="locality" />
		<tag k="ssr:stedsnr" v="394440" />
	</node>
	<node id="-778959" lat="70.0809944987" lon="29.9850650805">
		<tag k="name" v="Kaivosoja" />
		<tag k="name:fkv" v="Kaivosoja" />
		<tag k="ssr:stedsnr" v="394413" />
		<tag k="waterway" v="stream" />
	</node>
	<node id="-778958" lat="70.0976778297" lon="30.0263039529">
		<tag k="name" v="Vuopajanpäri" />
		<tag k="name:fkv" v="Vuopajanpäri" />
		<tag k="natural" v="hill" />
		<tag k="place" v="locality" />
		<tag k="ssr:stedsnr" v="394406" />
	</node>
	<node id="-778957" lat="70.0722528251" lon="29.8845456822">
		<tag k="name" v="Måsetua" />
		<tag k="natural" v="hill" />
		<tag k="place" v="locality" />
		<tag k="ssr:stedsnr" v="394268" />
	</node>
	<node id="-778956" lat="70.0739000489" lon="29.8001179609">
		<tag k="name" v="Lomakkaberget" />
		<tag k="natural" v="hill" />
		<tag k="place" v="locality" />
		<tag k="ssr:stedsnr" v="394260" />
	</node>
	<node id="-778955" lat="70.0801472685" lon="29.747579088">
		<tag k="name" v="Campingplass" />
		<tag k="ssr:stedsnr" v="394217" />
		<tag k="tourism" v="camp_site" />
	</node>
	<node id="-778954" lat="70.0804305996" lon="29.7267735641">
		<tag k="name" v="St. Hanshaugen" />
		<tag k="place" v="quarter" />
		<tag k="ssr:stedsnr" v="394214" />
	</node>
	<node id="-778953" lat="70.0775444883" lon="29.727020784">
		<tag k="name" v="Prestelva" />
		<tag k="ssr:stedsnr" v="394182" />
		<tag k="waterway" v="stream" />
	</node>
	<node id="-778952" lat="70.0745333773" lon="29.7496513122">
		<tag k="name" v="Rica Hotel Vadsø" />
		<tag k="ssr:stedsnr" v="394172" />
		<tag k="tourism" v="hotel" />
	</node>
	<node id="-778951" lat="70.1435778173" lon="29.3287015608">
		<tag k="name" v="Smørbakken" />
		<tag k="natural" v="slope" />
		<tag k="place" v="locality" />
		<tag k="ssr:stedsnr" v="394089" />
	</node>
	<node id="-778950" lat="70.0953611528" lon="29.4844625843">
		<tag k="name" v="Båe" />
		<tag k="place" v="locality" />
		<tag k="seamark:type" v="rock" />
		<tag k="ssr:stedsnr" v="394088" />
	</node>
	<node id="-778949" lat="70.0815472701" lon="29.7064624691">
		<tag k="amenity" v="school" />
		<tag k="name" v="Torsvarden skole" />
		<tag k="ssr:stedsnr" v="394041" />
	</node>
	<node id="-778948" lat="70.1725250349" lon="29.2585849181">
		<tag k="ford" v="yes" />
		<tag k="name" v="Vadested" />
		<tag k="place" v="locality" />
		<tag k="ssr:stedsnr" v="394036" />
	</node>
	<node id="-778947" lat="70.1072222669" lon="29.6495930583">
		<tag k="name" v="Tesnitten" />
		<tag k="place" v="isolated_dwelling" />
		<tag k="ssr:stedsnr" v="394032" />
	</node>
	<node id="-778946" lat="70.0910000491" lon="29.6023847318">
		<tag k="name" v="Badestrand" />
		<tag k="natural" v="beach" />
		<tag k="place" v="locality" />
		<tag k="ssr:stedsnr" v="394010" />
	</node>
	<node id="-778945" lat="70.1019305982" lon="29.6225680579">
		<tag k="alt_name" v="Bergelvskaret" />
		<tag k="name" v="Andersbyskaret" />
		<tag k="natural" v="valley" />
		<tag k="place" v="locality" />
		<tag k="ssr:stedsnr" v="394009" />
	</node>
	<node id="-778944" lat="70.1099417161" lon="30.1238011176">
		<tag k="name" v="Storvannet" />
		<tag k="natural" v="water" />
		<tag k="ssr:stedsnr" v="392909" />
		<tag k="water" v="lake" />
	</node>
	<node id="-778926" lat="70.0472000542" lon="29.848217914">
		<tag k="name" v="Ytre Seigrunnen" />
		<tag k="natural" v="shoal" />
		<tag k="old_name" v="Seigrunnen, Ytre" />
		<tag k="place" v="locality" />
		<tag k="ssr:stedsnr" v="389313" />
	</node>
	<node id="-778925" lat="70.2787194762" lon="29.3018238414">
		<tag k="name" v="Álljeveaiskáidi" />
		<tag k="name:se" v="Álljeveaiskáidi" />
		<tag k="natural" v="cape" />
		<tag k="old_name:se" v="Alljevæjskaidi" />
		<tag k="ssr:stedsnr" v="384984" />
	</node>
	<node id="-778924" lat="70.2537611453" lon="29.3320626908">
		<tag k="fixme" v="consider natural=peak for the most distinct mountains in the district" />
		<tag k="name" v="Juovva-Goaibeaski" />
		<tag k="name:se" v="Juovva-Goaibeaski" />
		<tag k="natural" v="hill" />
		<tag k="old_name:se" v="Juovva-Goaibæski" />
		<tag k="place" v="locality" />
		<tag k="ssr:stedsnr" v="384980" />
	</node>
	<node id="-778923" lat="70.412105584" lon="29.1592045015">
		<tag k="name" v="Georggaláddot" />
		<tag k="name:se" v="Georggaláddot" />
		<tag k="natural" v="water" />
		<tag k="old_name:se" v="Georgaladdut" />
		<tag k="ssr:stedsnr" v="384932" />
	</node>
	<node id="-778922" lat="70.1553750421" lon="29.4264987252">
		<tag k="name" v="Langvannet" />
		<tag k="natural" v="water" />
		<tag k="ssr:stedsnr" v="384615" />
	</node>
	<node id="-778921" lat="70.1394639314" lon="29.5401375582">
		<tag k="name" v="Jolma" />
		<tag k="name:fkv" v="Jolma" />
		<tag k="natural" v="water" />
		<tag k="old_name:fkv" v="Jålma" />
		<tag k="ssr:stedsnr" v="384613" />
	</node>
	<node id="-778920" lat="70.1206639265" lon="29.4924125802">
		<tag k="fixme" v="consider natural=peak for the most distinct mountains in the district" />
		<tag k="name" v="Store Guovlloaivi" />
		<tag k="natural" v="hill" />
		<tag k="old_name" v="Guovloaivi, store;Guovlloaivi" />
		<tag k="place" v="locality" />
		<tag k="ssr:stedsnr" v="384610" />
	</node>
	<node id="-778919" lat="70.1230944895" lon="29.8977179169">
		<tag k="name" v="Tanelinjärvi" />
		<tag k="name:fkv" v="Tanelinjärvi" />
		<tag k="natural" v="water" />
		<tag k="old_name:fkv" v="Danelinjærvi" />
		<tag k="ssr:stedsnr" v="384606" />
	</node>
	<node id="-778918" lat="70.1938861638" lon="30.3600204357">
		<tag k="name" v="Matoniemenmukka" />
		<tag k="name:fkv" v="Matoniemenmukka" />
		<tag k="natural" v="bay" />
		<tag k="old_name:fkv" v="Madåniemenmokka" />
		<tag k="ssr:stedsnr" v="384547" />
	</node>
	<node id="-778917" lat="70.1557308401" lon="30.3521975728">
		<tag k="name" v="Nyhavn" />
		<tag k="place" v="farm" />
		<tag k="ssr:stedsnr" v="384535" />
	</node>
	<node id="-778916" lat="70.3653333678" lon="29.3331599577">
		<tag k="name" v="Urdelva - Juovvajohka" />
		<tag k="name:no" v="Urdelva" />
		<tag k="name:se" v="Juovvajohka" />
		<tag k="old_name:se" v="Juovvajåkka;Juovlajohka" />
		<tag k="ssr:stedsnr" v="384529" />
		<tag k="waterway" v="river" />
	</node>
	<node id="-778915" lat="70.1548444923" lon="30.1648233353">
		<tag k="name" v="Portvannet" />
		<tag k="natural" v="water" />
		<tag k="ssr:stedsnr" v="384524" />
	</node>
	<node id="-778914" lat="70.1089278301" lon="30.162901078">
		<tag k="name" v="Lillelva" />
		<tag k="ssr:stedsnr" v="384521" />
		<tag k="waterway" v="stream" />
	</node>
	<node id="-778913" lat="70.2647833831" lon="30.1805539169">
		<tag k="fixme" v="consider natural=peak for the most distinct mountains in the district" />
		<tag k="name" v="Devja" />
		<tag k="name:se" v="Devja" />
		<tag k="natural" v="hill" />
		<tag k="place" v="locality" />
		<tag k="ssr:stedsnr" v="383937" />
	</node>
	<node id="-778912" lat="70.1987667012" lon="29.2639099333">
		<tag k="name" v="Moltebærvannet" />
		<tag k="natural" v="water" />
		<tag k="ssr:stedsnr" v="383750" />
	</node>
	<node id="-778911" lat="70.1666472551" lon="29.2671404805">
		<tag k="name" v="Kildebekken - Heteoja" />
		<tag k="name:fkv" v="Heteoja" />
		<tag k="name:no" v="Kildebekken" />
		<tag k="ssr:stedsnr" v="383730" />
		<tag k="waterway" v="stream" />
	</node>
	<node id="-778910" lat="70.1771611495" lon="29.2322849455">
		<tag k="name" v="Djuphola - Syvähauta" />
		<tag k="name:fkv" v="Syvähauta" />
		<tag k="name:no" v="Djuphola" />
		<tag k="place" v="locality" />
		<tag k="ssr:stedsnr" v="383723" />
	</node>
	<node id="-778909" lat="70.1611139268" lon="29.4068626268">
		<tag k="name" v="Holmvannet" />
		<tag k="natural" v="water" />
		<tag k="ssr:stedsnr" v="383720" />
	</node>
	<node id="-778908" lat="70.164575038" lon="29.2931487894">
		<tag k="name" v="Strykan" />
		<tag k="place" v="locality" />
		<tag k="ssr:stedsnr" v="383717" />
	</node>
	<node id="-778907" lat="70.1267000413" lon="29.24614882">
		<tag k="alt_name" v="Kortemyrene" />
		<tag k="name" v="Kortemyran" />
		<tag k="natural" v="wetland" />
		<tag k="ssr:stedsnr" v="383644" />
	</node>
	<node id="-778906" lat="70.1220583748" lon="29.2144043778">
		<tag k="alt_name" v="Klubbfjell" />
		<tag k="fixme" v="consider natural=peak for the most distinct mountains in the district" />
		<tag k="name" v="Klubbfjellet" />
		<tag k="natural" v="hill" />
		<tag k="place" v="locality" />
		<tag k="ssr:stedsnr" v="383643" />
	</node>
	<node id="-778905" lat="70.1369583717" lon="29.2705876819">
		<tag k="alt_name" v="Solvarmyra" />
		<tag k="name" v="Holmfjellmyra" />
		<tag k="natural" v="wetland" />
		<tag k="ssr:stedsnr" v="383634" />
	</node>
	<node id="-778904" lat="70.2003917174" lon="30.3289260342">
		<tag k="name" v="Bakmyra" />
		<tag k="natural" v="wetland" />
		<tag k="ssr:stedsnr" v="383588" />
	</node>
	<node id="-778903" lat="70.0641861558" lon="29.8384734866">
		<tag k="aeroway" v="aerodrome" />
		<tag k="alt_name" v="Vadsø" />
		<tag k="name" v="Vadsø lufthavn" />
		<tag k="ssr:stedsnr" v="383548" />
	</node>
	<node id="-778902" lat="70.0674361563" lon="29.7693096356">
		<tag k="alt_name" v="Kokneset" />
		<tag k="name" v="Kokkenes" />
		<tag k="natural" v="cape" />
		<tag k="ssr:stedsnr" v="383542" />
	</node>
	<node id="-778901" lat="70.0911139252" lon="29.008704475">
		<tag k="bay" v="fjord" />
		<tag k="loc_name:fkv" v="Varenkinvuono;Varinkinvuono" />
		<tag k="name" v="Varangerfjorden - Várjavuonna" />
		<tag k="name:no" v="Varangerfjorden" />
		<tag k="name:se" v="Várjavuonna" />
		<tag k="natural" v="bay" />
		<tag k="ssr:stedsnr" v="383165" />
	</node>
	<node id="-778900" lat="70.0853056148" lon="30.261673248">
		<tag k="name" v="Korsneset" />
		<tag k="natural" v="cape" />
		<tag k="ssr:stedsnr" v="344250" />
	</node>
	<node id="-778899" lat="70.1051528314" lon="30.1821288623">
		<tag k="name" v="Jonsihollet" />
		<tag k="natural" v="valley" />
		<tag k="place" v="locality" />
		<tag k="ssr:stedsnr" v="334721" />
	</node>
	<node id="-778898" lat="70.1489361631" lon="30.3104426817">
		<tag k="name" v="Lilleelva" />
		<tag k="ssr:stedsnr" v="334677" />
		<tag k="waterway" v="stream" />
	</node>
	<node id="-778897" lat="70.153086169" lon="30.2736649339">
		<tag k="name" v="Turvejärvi" />
		<tag k="name:fkv" v="Turvejärvi" />
		<tag k="natural" v="water" />
		<tag k="ssr:stedsnr" v="334675" />
	</node>
	<node id="-778896" lat="70.1416972779" lon="30.3597315264">
		<tag k="fixme" v="consider seamark:type=rock or natural=shoal" />
		<tag k="name" v="Jounalaassa" />
		<tag k="name:fkv" v="Jounalaassa" />
		<tag k="place" v="islet" />
		<tag k="ssr:stedsnr" v="334658" />
	</node>
	<node id="-778895" lat="70.2017361663" lon="30.3675787916">
		<tag k="name" v="Falkemyrvannet" />
		<tag k="natural" v="water" />
		<tag k="ssr:stedsnr" v="334642" />
	</node>
	<node id="-778894" lat="70.183569499" lon="30.312637128">
		<tag k="name" v="Rusefossen - Mertakoski" />
		<tag k="name:fkv" v="Mertakoski" />
		<tag k="name:no" v="Rusefossen" />
		<tag k="ssr:stedsnr" v="334638" />
		<tag k="waterway" v="rapids" />
	</node>
	<node id="-778893" lat="70.1852583848" lon="30.2715955056">
		<tag k="name" v="Stillakulpen" />
		<tag k="place" v="locality" />
		<tag k="ssr:stedsnr" v="334636" />
	</node>
	<node id="-778892" lat="70.1915111655" lon="30.322676021">
		<tag k="highway" v="path" />
		<tag k="name" v="Berrelvvegen" />
		<tag k="ssr:stedsnr" v="334630" />
	</node>
	<node id="-778891" lat="70.1947528316" lon="30.2386538727">
		<tag k="name" v="Johinniitty" />
		<tag k="name:fkv" v="Johinniitty" />
		<tag k="place" v="locality" />
		<tag k="ssr:stedsnr" v="334628" />
	</node>
	<node id="-778890" lat="70.0650472757" lon="29.9638317535">
		<tag k="fixme" v="consider seamark:type=rock or natural=shoal" />
		<tag k="name" v="Laassa" />
		<tag k="name:fkv" v="Laassa" />
		<tag k="place" v="islet" />
		<tag k="ssr:stedsnr" v="334602" />
	</node>
	<node id="-778889" lat="70.0696389429" lon="30.1029233318">
		<tag k="name" v="Neset" />
		<tag k="natural" v="cape" />
		<tag k="ssr:stedsnr" v="334547" />
	</node>
	<node id="-778888" lat="70.0688833917" lon="30.1673621684">
		<tag k="name" v="Loddekeila" />
		<tag k="natural" v="bay" />
		<tag k="ssr:stedsnr" v="334513" />
	</node>
	<node id="-778887" lat="70.127230608" lon="30.1850733032">
		<tag k="name" v="Tørrvannet" />
		<tag k="natural" v="water" />
		<tag k="ssr:stedsnr" v="334506" />
	</node>
	<node id="-778886" lat="70.1269278285" lon="30.155073326">
		<tag k="barrier" v="fence" />
		<tag k="name" v="Reingjerde" />
		<tag k="ssr:stedsnr" v="334492" />
	</node>
	<node id="-778885" lat="70.0951778259" lon="30.0388206067">
		<tag k="name" v="Rautujärvi" />
		<tag k="name:fkv" v="Rautujärvi" />
		<tag k="natural" v="water" />
		<tag k="ssr:stedsnr" v="334390" />
	</node>
	<node id="-778884" lat="70.1197444952" lon="29.9705484289">
		<tag k="name" v="Brannsletta" />
		<tag k="place" v="locality" />
		<tag k="ssr:stedsnr" v="334276" />
	</node>
	<node id="-778883" lat="70.1022417173" lon="29.9466428974">
		<tag k="name" v="Storsletta" />
		<tag k="place" v="locality" />
		<tag k="ssr:stedsnr" v="334272" />
	</node>
	<node id="-778882" lat="70.0680194899" lon="29.8059540707">
		<tag k="name" v="Kavringen" />
		<tag k="natural" v="slope" />
		<tag k="place" v="locality" />
		<tag k="ssr:stedsnr" v="334249" />
	</node>
	<node id="-778881" lat="70.0754528242" lon="29.7562985367">
		<tag k="amenity" v="school" />
		<tag k="name" v="Vadsø Barne- og Ungdomsskole" />
		<tag k="ssr:stedsnr" v="334162" />
	</node>
	<node id="-778880" lat="70.0921417083" lon="29.5724791898">
		<tag k="name" v="Kvelven" />
		<tag k="natural" v="bay" />
		<tag k="ssr:stedsnr" v="334015" />
	</node>
	<node id="-778879" lat="70.0909944897" lon="29.5872958518">
		<tag k="name" v="Toftebukta" />
		<tag k="natural" v="bay" />
		<tag k="ssr:stedsnr" v="334014" />
	</node>
	<node id="-778878" lat="70.1477333732" lon="29.4673320412">
		<tag k="name" v="Sumpen" />
		<tag k="natural" v="wetland" />
		<tag k="ssr:stedsnr" v="333983" />
	</node>
	<node id="-778877" lat="70.1549528142" lon="29.4149459575">
		<tag k="name" v="Falkevannshompen" />
		<tag k="natural" v="hill" />
		<tag k="place" v="locality" />
		<tag k="ssr:stedsnr" v="333955" />
	</node>
	<node id="-778876" lat="70.0821000437" lon="29.7237763345">
		<tag k="amenity" v="kindergarten" />
		<tag k="name" v="Stubben barnehage" />
		<tag k="ssr:stedsnr" v="333288" />
	</node>
	<node id="-778875" lat="70.0832333787" lon="29.735929101">
		<tag k="amenity" v="nursing_home" />
		<tag k="name" v="Vadsø helse- og sosialsenter" />
		<tag k="ssr:stedsnr" v="333279" />
	</node>
	<node id="-778874" lat="70.0834444916" lon="29.7752901854">
		<tag k="name" v="Kuru-gryta" />
		<tag k="natural" v="wetland" />
		<tag k="ssr:stedsnr" v="333227" />
	</node>
	<node id="-778873" lat="70.07751116" lon="29.7455707597">
		<tag k="amenity" v="kindergarten" />
		<tag k="name" v="Maurtua barnehage" />
		<tag k="ssr:stedsnr" v="333142" />
	</node>
	<node id="-778872" lat="70.1315028201" lon="29.3478932164">
		<tag k="name" v="Felleskuru" />
		<tag k="natural" v="valley" />
		<tag k="place" v="locality" />
		<tag k="ssr:stedsnr" v="333085" />
	</node>
	<node id="-778871" lat="70.1073805949" lon="29.4014737161">
		<tag k="fixme" v="consider highway=path" />
		<tag k="highway" v="track" />
		<tag k="name" v="Traktorveg" />
		<tag k="ssr:stedsnr" v="333029" />
	</node>
	<node id="-778870" lat="70.3096917066" lon="29.8955679937">
		<tag k="name" v="Guovžagurjohka" />
		<tag k="name:se" v="Guovžagurjohka" />
		<tag k="old_name:se" v="Guovžagurjåkka" />
		<tag k="ssr:stedsnr" v="331850" />
		<tag k="waterway" v="river" />
	</node>
	<node id="-778869" lat="70.1096972731" lon="30.1048872251">
		<tag k="name" v="Nedre Siribakken" />
		<tag k="natural" v="slope" />
		<tag k="place" v="locality" />
		<tag k="ssr:stedsnr" v="331034" />
	</node>
	<node id="-778868" lat="70.0659361665" lon="29.9686428472">
		<tag k="name" v="Karvosenniemi" />
		<tag k="name:fkv" v="Karvosenniemi" />
		<tag k="natural" v="cape" />
		<tag k="old_name:fkv" v="Garvosenniemi" />
		<tag k="ssr:stedsnr" v="334411" />
	</node>
	<node id="-778867" lat="70.3996750319" lon="29.129187845">
		<tag k="name" v="Šáikkastanjohka" />
		<tag k="name:se" v="Šáikkastanjohka" />
		<tag k="old_name:se" v="Šaikastanjåkka" />
		<tag k="ssr:stedsnr" v="323938" />
		<tag k="waterway" v="stream" />
	</node>
	<node id="-778866" lat="70.2867917101" lon="29.7074375442">
		<tag k="name" v="Midtdalen - Stuorra Guovdavággi" />
		<tag k="name:no" v="Midtdalen" />
		<tag k="name:se" v="Stuorra Guovdavággi" />
		<tag k="natural" v="valley" />
		<tag k="old_name:se" v="Guovdavaggi, stuorra" />
		<tag k="place" v="locality" />
		<tag k="ssr:stedsnr" v="323913" />
	</node>
	<node id="-778865" lat="70.1524500406" lon="29.2430877184">
		<tag k="name" v="Brennevinsvannet - Viinijärvi" />
		<tag k="name:fkv" v="Viinijärvi" />
		<tag k="name:no" v="Brennevinsvannet" />
		<tag k="natural" v="water" />
		<tag k="old_name:fkv" v="Vinijærvi" />
		<tag k="ssr:stedsnr" v="323659" />
	</node>
	<node id="-778864" lat="70.1142667054" lon="29.199512721">
		<tag k="name" v="Klubbnasen - Murggiidgeahči" />
		<tag k="name:no" v="Klubbnasen" />
		<tag k="name:se" v="Murggiidgeahči" />
		<tag k="natural" v="cape" />
		<tag k="ssr:stedsnr" v="323657" />
	</node>
	<node id="-778863" lat="70.12001393" lon="29.2336682661">
		<tag k="alt_name" v="Indre Klubben" />
		<tag k="name" v="Klubben" />
		<tag k="old_name" v="Klubben, in" />
		<tag k="place" v="hamlet" />
		<tag k="ssr:stedsnr" v="323653" />
	</node>
	<node id="-778862" lat="70.1326667054" lon="29.2336877042">
		<tag k="name" v="Rundhaug" />
		<tag k="natural" v="hill" />
		<tag k="place" v="locality" />
		<tag k="ssr:stedsnr" v="323643" />
	</node>
	<node id="-778861" lat="70.1743750415" lon="29.6221847506">
		<tag k="name" v="Stormyra" />
		<tag k="natural" v="wetland" />
		<tag k="ssr:stedsnr" v="323639" />
	</node>
	<node id="-778860" lat="70.1402278262" lon="29.9595651219">
		<tag k="name" v="Sabelhaugen" />
		<tag k="natural" v="hill" />
		<tag k="place" v="locality" />
		<tag k="ssr:stedsnr" v="323629" />
	</node>
	<node id="-778859" lat="70.1291667135" lon="29.9319484469">
		<tag k="name" v="Mastinjärvi" />
		<tag k="name:fkv" v="Mastinjärvi" />
		<tag k="natural" v="water" />
		<tag k="old_name:fkv" v="Mastijærvi" />
		<tag k="ssr:stedsnr" v="323630" />
	</node>
	<node id="-778858" lat="70.1200555997" lon="29.4627542651">
		<tag k="name" v="Sauvannet" />
		<tag k="natural" v="water" />
		<tag k="ssr:stedsnr" v="323627" />
	</node>
	<node id="-778857" lat="70.1195111489" lon="29.4359376065">
		<tag k="fixme" v="consider natural=peak for the most distinct mountains in the district" />
		<tag k="name" v="Guovlloaivi" />
		<tag k="name:se" v="Guovlloaivi" />
		<tag k="natural" v="hill" />
		<tag k="old_name:se" v="Guovloaivi, l" />
		<tag k="place" v="locality" />
		<tag k="ssr:stedsnr" v="323625" />
	</node>
	<node id="-778856" lat="70.1251083808" lon="29.8707235023">
		<tag k="fixme" v="consider natural=peak for the most distinct mountains in the district" />
		<tag k="name" v="Gammerabben" />
		<tag k="natural" v="hill" />
		<tag k="place" v="locality" />
		<tag k="ssr:stedsnr" v="323622" />
	</node>
	<node id="-778855" lat="70.0976833813" lon="29.5696375247">
		<tag k="name" v="Bårdslettberget" />
		<tag k="natural" v="hill" />
		<tag k="place" v="locality" />
		<tag k="ssr:stedsnr" v="323615" />
	</node>
	<node id="-778854" lat="70.0934139305" lon="29.5342736527">
		<tag k="alt_name" v="Makknes" />
		<tag k="name" v="Makkenes" />
		<tag k="natural" v="cape" />
		<tag k="ssr:stedsnr" v="323611" />
	</node>
	<node id="-778853" lat="70.0872639312" lon="29.6727096836">
		<tag k="name" v="Tomaselva" />
		<tag k="place" v="isolated_dwelling" />
		<tag k="ssr:stedsnr" v="323609" />
	</node>
	<node id="-778852" lat="70.2330028184" lon="29.8444596585">
		<tag k="fixme" v="consider natural=peak for the most distinct mountains in the district" />
		<tag k="loc_name:no" v="Falkefjellet" />
		<tag k="name" v="Falkfjellet - Gielas" />
		<tag k="name:no" v="Falkfjellet" />
		<tag k="name:se" v="Gielas" />
		<tag k="natural" v="hill" />
		<tag k="place" v="locality" />
		<tag k="ssr:stedsnr" v="323581" />
	</node>
	<node id="-778851" lat="70.1701083799" lon="30.0642317412">
		<tag k="name" v="Falkorvannet" />
		<tag k="natural" v="water" />
		<tag k="ssr:stedsnr" v="323560" />
	</node>
	<node id="-778850" lat="70.132763942" lon="30.165703875">
		<tag k="name" v="Laurivannet" />
		<tag k="natural" v="water" />
		<tag k="ssr:stedsnr" v="323552" />
	</node>
	<node id="-778849" lat="70.0711000437" lon="29.7190040975">
		<tag k="name" v="Skagen" />
		<tag k="natural" v="cape" />
		<tag k="ssr:stedsnr" v="323531" />
	</node>
	<node id="-778848" lat="70.0660472746" lon="29.945109528">
		<tag k="alt_name" v="Høivik" />
		<tag k="name" v="Høyvik" />
		<tag k="place" v="hamlet" />
		<tag k="ssr:stedsnr" v="323525" />
	</node>
	<node id="-778846" lat="70.2427000403" lon="29.3864848898">
		<tag k="fixme" v="consider natural=peak for the most distinct mountains in the district" />
		<tag k="name" v="Borjjasbuolžžat" />
		<tag k="name:se" v="Borjjasbuolžžat" />
		<tag k="natural" v="hill" />
		<tag k="old_name:se" v="Bårjasbuolžat" />
		<tag k="place" v="locality" />
		<tag k="ssr:stedsnr" v="322688" />
	</node>
	<node id="-778845" lat="70.2224528136" lon="29.184671104">
		<tag k="name" v="Äimänpää" />
		<tag k="name:fkv" v="Äimänpää" />
		<tag k="old_name:fkv" v="Æimænbæ" />
		<tag k="ssr:stedsnr" v="322685" />
		<tag k="waterway" v="rapids" />
	</node>
	<node id="-778844" lat="70.0666667157" lon="29.9611095333">
		<tag k="name" v="Salttjern" />
		<tag k="place" v="hamlet" />
		<tag k="ssr:stedsnr" v="303320" />
	</node>
	<node id="-778841" lat="70.0736361564" lon="29.7745318654">
		<tag k="name" v="Ytrebyen" />
		<tag k="place" v="suburb" />
		<tag k="ssr:stedsnr" v="275485" />
	</node>
	<node id="-778840" lat="70.1048611631" lon="30.1969510531">
		<tag k="name" v="Båtstø" />
		<tag k="natural" v="bay" />
		<tag k="ssr:stedsnr" v="273771" />
	</node>
	<node id="-778839" lat="70.1054306089" lon="30.1338761107">
		<tag k="name" v="Holmvannet" />
		<tag k="natural" v="water" />
		<tag k="ssr:stedsnr" v="273766" />
	</node>
	<node id="-778838" lat="70.1556889412" lon="30.3529121008">
		<tag k="name" v="Nyhavnneset" />
		<tag k="natural" v="cape" />
		<tag k="ssr:stedsnr" v="273730" />
	</node>
	<node id="-778837" lat="70.1984722775" lon="30.3045704902">
		<tag k="name" v="Rapajänkkä" />
		<tag k="name:fkv" v="Rapajänkkä" />
		<tag k="natural" v="wetland" />
		<tag k="ssr:stedsnr" v="273703" />
	</node>
	<node id="-778836" lat="70.1835528346" lon="30.3179815936">
		<tag k="name" v="Eggøya - Munasaari" />
		<tag k="name:fkv" v="Munasaari" />
		<tag k="name:no" v="Eggøya" />
		<tag k="place" v="islet" />
		<tag k="ssr:stedsnr" v="273646" />
	</node>
	<node id="-778835" lat="70.1880472799" lon="30.3471315679">
		<tag k="name" v="Kreetanmukka" />
		<tag k="name:fkv" v="Kreetanmukka" />
		<tag k="natural" v="bay" />
		<tag k="ssr:stedsnr" v="273645" />
	</node>
	<node id="-778834" lat="70.1860222744" lon="30.3425704455">
		<tag k="name" v="Neset - Niemi" />
		<tag k="name:fkv" v="Niemi" />
		<tag k="name:no" v="Neset" />
		<tag k="natural" v="cape" />
		<tag k="ssr:stedsnr" v="273643" />
	</node>
	<node id="-778833" lat="70.0662444932" lon="29.9705789714">
		<tag k="leisure" v="marina" />
		<tag k="name" v="Småbåthamn" />
		<tag k="ssr:stedsnr" v="273631" />
	</node>
	<node id="-778832" lat="70.067497276" lon="29.9745484007">
		<tag k="name" v="Rapamukka" />
		<tag k="name:fkv" v="Rapamukka" />
		<tag k="natural" v="bay" />
		<tag k="ssr:stedsnr" v="273605" />
	</node>
	<node id="-778831" lat="70.0712139453" lon="30.1330288791">
		<tag k="fixme" v="consider boundary=protected_area and relevant protect_class if not nature reserve" />
		<tag k="leisure" v="nature_reserve" />
		<tag k="name" v="Ekkerøy naturreservat" />
		<tag k="ssr:stedsnr" v="273561" />
	</node>
	<node id="-778830" lat="70.0679111604" lon="30.099562222">
		<tag k="name" v="Finnes" />
		<tag k="natural" v="cape" />
		<tag k="ssr:stedsnr" v="273553" />
	</node>
	<node id="-778829" lat="70.0709917199" lon="30.1148899767">
		<tag k="name" v="Flågmyra" />
		<tag k="natural" v="wetland" />
		<tag k="ssr:stedsnr" v="273552" />
	</node>
	<node id="-778828" lat="70.0697500524" lon="30.1197038618">
		<tag k="fixme" v="consider seamark:type=rock or natural=shoal" />
		<tag k="name" v="Høghammarskjæret" />
		<tag k="place" v="islet" />
		<tag k="ssr:stedsnr" v="273548" />
	</node>
	<node id="-778827" lat="70.0701889454" lon="30.1249010915">
		<tag k="name" v="Storholla" />
		<tag k="natural" v="bay" />
		<tag k="ssr:stedsnr" v="273546" />
	</node>
	<node id="-778826" lat="70.0701472744" lon="30.1144733147">
		<tag k="name" v="Sandfloget" />
		<tag k="natural" v="cliff" />
		<tag k="ssr:stedsnr" v="273544" />
	</node>
	<node id="-778825" lat="70.1206083854" lon="30.1584649956">
		<tag k="name" v="Flata" />
		<tag k="place" v="locality" />
		<tag k="ssr:stedsnr" v="273510" />
	</node>
	<node id="-778824" lat="70.1183528271" lon="30.1095344481">
		<tag k="name" v="Storskoghaugen" />
		<tag k="natural" v="hill" />
		<tag k="place" v="locality" />
		<tag k="ssr:stedsnr" v="273495" />
	</node>
	<node id="-778823" lat="70.1062500503" lon="29.9728317631">
		<tag k="name" v="Beldoslåtta" />
		<tag k="place" v="locality" />
		<tag k="ssr:stedsnr" v="273439" />
	</node>
	<node id="-778822" lat="70.0971806094" lon="29.9142790127">
		<tag k="name" v="Raet" />
		<tag k="natural" v="ridge" />
		<tag k="place" v="locality" />
		<tag k="ssr:stedsnr" v="273436" />
	</node>
	<node id="-778821" lat="70.0695611594" lon="29.9442956377">
		<tag k="name" v="Alihaaki" />
		<tag k="name:fkv" v="Alihaaki" />
		<tag k="natural" v="slope" />
		<tag k="place" v="locality" />
		<tag k="ssr:stedsnr" v="273422" />
	</node>
	<node id="-778820" lat="70.090388942" lon="30.0077761718">
		<tag k="name" v="Kaakkurijärvi" />
		<tag k="name:fkv" v="Kaakkurijärvi" />
		<tag k="natural" v="water" />
		<tag k="ssr:stedsnr" v="273390" />
	</node>
	<node id="-778819" lat="70.064166712" lon="29.8181123938">
		<tag k="name" v="Navarsbukta" />
		<tag k="natural" v="bay" />
		<tag k="ssr:stedsnr" v="273302" />
	</node>
	<node id="-778818" lat="70.0881000451" lon="29.7388096543">
		<tag k="leisure" v="pitch" />
		<tag k="name" v="Vadsø skistadion" />
		<tag k="ssr:stedsnr" v="273206" />
	</node>
	<node id="-778817" lat="70.0777361571" lon="29.7386790902">
		<tag k="name" v="Karl Rasmussens plass" />
		<tag k="place" v="square" />
		<tag k="ssr:stedsnr" v="273148" />
	</node>
	<node id="-778816" lat="70.1271250401" lon="29.3180404477">
		<tag k="name" v="Holmen" />
		<tag k="place" v="islet" />
		<tag k="ssr:stedsnr" v="273102" />
	</node>
	<node id="-778815" lat="70.0848611529" lon="29.7150985649">
		<tag k="name" v="Prestelv vest" />
		<tag k="place" v="quarter" />
		<tag k="ssr:stedsnr" v="273066" />
	</node>
	<node id="-778814" lat="70.1670083719" lon="29.25475992">
		<tag k="name" v="Brennevinsbekken - Viinioja" />
		<tag k="name:fkv" v="Viinioja" />
		<tag k="name:no" v="Brennevinsbekken" />
		<tag k="ssr:stedsnr" v="273058" />
		<tag k="waterway" v="stream" />
	</node>
	<node id="-778813" lat="70.1683222643" lon="29.2851071331">
		<tag k="name" v="Gjelhaugslåtta" />
		<tag k="place" v="locality" />
		<tag k="ssr:stedsnr" v="273023" />
	</node>
	<node id="-778812" lat="70.0971028226" lon="29.6415569413">
		<tag k="name" v="Elvedalen" />
		<tag k="natural" v="valley" />
		<tag k="place" v="locality" />
		<tag k="ssr:stedsnr" v="273017" />
	</node>
	<node id="-778811" lat="70.075841712" lon="29.750298546">
		<tag k="amenity" v="place_of_worship" />
		<tag k="denomination" v="lutheran" />
		<tag k="name" v="Vadsø  kirke" />
		<tag k="religion" v="christian" />
		<tag k="ssr:stedsnr" v="272844" />
	</node>
	<node id="-778810" lat="70.1142222704" lon="30.109573347">
		<tag k="name" v="Øvre Siribakken" />
		<tag k="natural" v="slope" />
		<tag k="place" v="locality" />
		<tag k="ssr:stedsnr" v="271043" />
	</node>
</osm>
