<?xml version="1.0" encoding="UTF-8"?>
<osm generator="osmapis" version="0.6">
	<node id="-19967" lat="60.5908609473" lon="9.63819281559">
		<tag k="fixme" v="multiple name tags, choose one and add the other to alt_name" />
		<tag k="name" v="Austlandet;Østlandet" />
		<tag k="ssr:date" v="2018-01-09" />
		<tag k="ssr:gruppe" v="administrativeIndelinger" />
		<tag k="ssr:hovedgruppe" v="offentligAdministrasjon" />
		<tag k="ssr:stedsnr" v="974775" />
		<tag k="ssr:type" v="annenAdministrativInndeling" />
	</node>
	<node id="-19963" lat="59.3231944417" lon="10.6678166599">
		<tag k="name" v="Larkollen lykt" />
		<tag k="ssr:date" v="2016-05-11" />
		<tag k="ssr:gruppe" v="navigasjon" />
		<tag k="ssr:hovedgruppe" v="infrastruktur" />
		<tag k="ssr:stedsnr" v="968223" />
		<tag k="ssr:type" v="fyrlykt" />
	</node>
	<node id="-19706" lat="59.4062833357" lon="10.6929777701">
		<tag k="alt_name" v="Rygge" />
		<tag k="name" v="Rygge kommune" />
		<tag k="ssr:date" v="2019-01-23" />
		<tag k="ssr:gruppe" v="administrativeIndelinger" />
		<tag k="ssr:hovedgruppe" v="offentligAdministrasjon" />
		<tag k="ssr:stedsnr" v="570243" />
		<tag k="ssr:type" v="kommune" />
	</node>
	<node id="-19457" lat="59.3273198838" lon="10.6492294226">
		<tag k="name" v="Eldøya" />
		<tag k="ssr:date" v="2019-05-31" />
		<tag k="ssr:gruppe" v="veg" />
		<tag k="ssr:hovedgruppe" v="infrastruktur" />
		<tag k="ssr:stedsnr" v="1061754" />
		<tag k="ssr:type" v="adressenavn" />
	</node>
	<node id="-19473" lat="59.4137015692" lon="10.6800182967">
		<tag k="name" v="Skolemester Solgaards vei" />
		<tag k="ssr:date" v="2019-05-31" />
		<tag k="ssr:gruppe" v="veg" />
		<tag k="ssr:hovedgruppe" v="infrastruktur" />
		<tag k="ssr:stedsnr" v="1064101" />
		<tag k="ssr:type" v="adressenavn" />
	</node>
	<node id="-19469" lat="59.3355149823" lon="10.649375266">
		<tag k="name" v="Kollen" />
		<tag k="ssr:date" v="2019-05-31" />
		<tag k="ssr:gruppe" v="veg" />
		<tag k="ssr:hovedgruppe" v="infrastruktur" />
		<tag k="ssr:stedsnr" v="1063019" />
		<tag k="ssr:type" v="adressenavn" />
	</node>
	<node id="-19468" lat="59.3788651621" lon="10.6536504859">
		<tag k="name" v="Årefjordstien" />
		<tag k="ssr:date" v="2019-08-27" />
		<tag k="ssr:gruppe" v="veg" />
		<tag k="ssr:hovedgruppe" v="infrastruktur" />
		<tag k="ssr:stedsnr" v="1072386" />
		<tag k="ssr:type" v="adressenavn" />
	</node>
	<node id="-19466" lat="59.3768527748" lon="10.7539446976">
		<tag k="name" v="Vårliveien" />
		<tag k="ssr:date" v="2019-05-31" />
		<tag k="ssr:gruppe" v="veg" />
		<tag k="ssr:hovedgruppe" v="infrastruktur" />
		<tag k="ssr:stedsnr" v="1063889" />
		<tag k="ssr:type" v="adressenavn" />
	</node>
	<node id="-19465" lat="59.3548519046" lon="10.7722756648">
		<tag k="name" v="Saltnesveien" />
		<tag k="ssr:date" v="2019-05-31" />
		<tag k="ssr:gruppe" v="veg" />
		<tag k="ssr:hovedgruppe" v="infrastruktur" />
		<tag k="ssr:stedsnr" v="1063673" />
		<tag k="ssr:type" v="adressenavn" />
	</node>
	<node id="-19464" lat="59.3950068475" lon="10.7358550216">
		<tag k="name" v="Pålebingen" />
		<tag k="ssr:date" v="2019-05-31" />
		<tag k="ssr:gruppe" v="veg" />
		<tag k="ssr:hovedgruppe" v="infrastruktur" />
		<tag k="ssr:stedsnr" v="1063530" />
		<tag k="ssr:type" v="adressenavn" />
	</node>
	<node id="-19463" lat="59.3761805187" lon="10.7599087624">
		<tag k="name" v="Solhøitunet" />
		<tag k="ssr:date" v="2019-05-31" />
		<tag k="ssr:gruppe" v="veg" />
		<tag k="ssr:hovedgruppe" v="infrastruktur" />
		<tag k="ssr:stedsnr" v="1064028" />
		<tag k="ssr:type" v="adressenavn" />
	</node>
	<node id="-19462" lat="59.4385905593" lon="10.7423902604">
		<tag k="name" v="Årvoldtangen" />
		<tag k="ssr:date" v="2019-05-31" />
		<tag k="ssr:gruppe" v="veg" />
		<tag k="ssr:hovedgruppe" v="infrastruktur" />
		<tag k="ssr:stedsnr" v="1064013" />
		<tag k="ssr:type" v="adressenavn" />
	</node>
	<node id="-19461" lat="59.3259430601" lon="10.6907836646">
		<tag k="name" v="Grefsrødgrenda" />
		<tag k="ssr:date" v="2019-05-31" />
		<tag k="ssr:gruppe" v="veg" />
		<tag k="ssr:hovedgruppe" v="infrastruktur" />
		<tag k="ssr:stedsnr" v="1063245" />
		<tag k="ssr:type" v="adressenavn" />
	</node>
	<node id="-19460" lat="59.3772290243" lon="10.7526826597">
		<tag k="name" v="Gatuveien" />
		<tag k="ssr:date" v="2019-05-31" />
		<tag k="ssr:gruppe" v="veg" />
		<tag k="ssr:hovedgruppe" v="infrastruktur" />
		<tag k="ssr:stedsnr" v="1063194" />
		<tag k="ssr:type" v="adressenavn" />
	</node>
	<node id="-19459" lat="59.3729478726" lon="10.7708559448">
		<tag k="name" v="Lønnerhagen" />
		<tag k="ssr:date" v="2019-05-31" />
		<tag k="ssr:gruppe" v="veg" />
		<tag k="ssr:hovedgruppe" v="infrastruktur" />
		<tag k="ssr:stedsnr" v="1063170" />
		<tag k="ssr:type" v="adressenavn" />
	</node>
	<node id="-19458" lat="59.3856812248" lon="10.7549536011">
		<tag k="name" v="Blindveien" />
		<tag k="ssr:date" v="2019-05-31" />
		<tag k="ssr:gruppe" v="veg" />
		<tag k="ssr:hovedgruppe" v="infrastruktur" />
		<tag k="ssr:stedsnr" v="1062141" />
		<tag k="ssr:type" v="adressenavn" />
	</node>
	<node id="-19745" lat="59.3991083336" lon="10.6317749999">
		<tag k="name" v="Revlingen lykt" />
		<tag k="ssr:date" v="2016-05-10" />
		<tag k="ssr:gruppe" v="navigasjon" />
		<tag k="ssr:hovedgruppe" v="infrastruktur" />
		<tag k="ssr:stedsnr" v="609482" />
		<tag k="ssr:type" v="fyrlykt" />
	</node>
</osm>
