<?xml version="1.0" encoding="UTF-8"?>
<osm version="0.6" generator="osmapis">
	<node lat="64.10381666802141" lon="14.000838894354944" id="-41971">
		<tag k="name" v="Litlberget" />
		<tag k="natural" v="hill" />
		<tag k="place" v="locality" />
		<tag k="ssr:stedsnr" v="230152" />
	</node>
	<node lat="64.41031666771227" lon="13.460477783381195" id="-41972">
		<tag k="name" v="Einarslåttberget" />
		<tag k="natural" v="hill" />
		<tag k="place" v="locality" />
		<tag k="ssr:stedsnr" v="230153" />
	</node>
	<node lat="64.4018666659577" lon="13.480477775774238" id="-41973">
		<tag k="name" v="Tisvassberget" />
		<tag k="natural" v="hill" />
		<tag k="place" v="locality" />
		<tag k="ssr:stedsnr" v="230157" />
	</node>
	<node lat="64.39195833220411" lon="13.407402780604807" id="-41976">
		<tag k="name" v="Bustadhøgda" />
		<tag k="natural" v="hill" />
		<tag k="place" v="locality" />
		<tag k="ssr:stedsnr" v="230222" />
	</node>
	<node lat="64.25917499700475" lon="13.881644450368558" id="-41990">
		<tag k="name" v="Øver Djupdalen" />
		<tag k="natural" v="valley" />
		<tag k="place" v="locality" />
		<tag k="ssr:stedsnr" v="230399" />
	</node>
	<node lat="64.7357583347854" lon="13.790249993188178" id="-41991">
		<tag k="name" v="Litlklumpen" />
		<tag k="natural" v="hill" />
		<tag k="place" v="locality" />
		<tag k="ssr:stedsnr" v="230473" />
	</node>
	<node lat="64.53809722284326" lon="13.785238879049349" id="-41998">
		<tag k="name" v="Skavlia" />
		<tag k="natural" v="slope" />
		<tag k="place" v="locality" />
		<tag k="ssr:stedsnr" v="230900" />
	</node>
	<node lat="64.1478416633469" lon="13.70783054977593" id="-41999">
		<tag k="name" v="Vakkerhaugen" />
		<tag k="natural" v="hill" />
		<tag k="place" v="locality" />
		<tag k="ssr:stedsnr" v="230774" />
	</node>
	<node lat="64.31823055418307" lon="13.551861103409765" id="-42004">
		<tag k="name" v="Bjørkhaugen" />
		<tag k="natural" v="hill" />
		<tag k="place" v="locality" />
		<tag k="ssr:stedsnr" v="230870" />
	</node>
	<node lat="64.47382777856795" lon="13.931202777771126" id="-42013">
		<tag k="name" v="Storhåmmårhøgda" />
		<tag k="natural" v="hill" />
		<tag k="place" v="locality" />
		<tag k="ssr:stedsnr" v="14006" />
	</node>
	<node lat="64.705083334744" lon="13.769402775127775" id="-42020">
		<tag k="name" v="Midtiberget" />
		<tag k="natural" v="hill" />
		<tag k="place" v="locality" />
		<tag k="ssr:stedsnr" v="14202" />
	</node>
	<node lat="64.44512500328182" lon="13.942144444418782" id="-42023">
		<tag k="name" v="Gaesnjele" />
		<tag k="name:sma" v="Gaesnjele" />
		<tag k="natural" v="valley" />
		<tag k="place" v="locality" />
		<tag k="ssr:stedsnr" v="14715" />
	</node>
	<node lat="64.37241110796917" lon="14.079138893662703" id="-42024">
		<tag k="fixme" v="consider natural=peak for the most distinct mountains in the district" />
		<tag k="name" v="Akkavassøran - Aahkabieljieh" />
		<tag k="name:no" v="Akkavassøran" />
		<tag k="name:sma" v="Aahkabieljieh" />
		<tag k="natural" v="hill" />
		<tag k="place" v="locality" />
		<tag k="ssr:stedsnr" v="14757" />
	</node>
	<node lat="64.56794722124752" lon="13.586816673860412" id="-42031">
		<tag k="fixme" v="multiple name tags, choose one and add the other to alt_name; consider natural=peak for the most distinct mountains in the district" />
		<tag k="name" v="Ryggvassruet;Rømmervassfjellet" />
		<tag k="natural" v="hill" />
		<tag k="place" v="locality" />
		<tag k="ssr:stedsnr" v="15113" />
	</node>
	<node lat="64.64423412797139" lon="13.40903690939033" id="-42034">
		<tag k="fixme" v="consider natural=peak for the most distinct mountains in the district" />
		<tag k="name" v="Løysmundklumpen - Fealloetjahke" />
		<tag k="name:no" v="Løysmundklumpen" />
		<tag k="name:sma" v="Fealloetjahke" />
		<tag k="natural" v="hill" />
		<tag k="place" v="locality" />
		<tag k="ssr:stedsnr" v="15457" />
	</node>
	<node lat="64.768369447641" lon="13.781983342488513" id="-42036">
		<tag k="fixme" v="consider natural=peak for the most distinct mountains in the district" />
		<tag k="name" v="Krampa" />
		<tag k="natural" v="hill" />
		<tag k="place" v="locality" />
		<tag k="ssr:stedsnr" v="15312" />
	</node>
	<node lat="64.2368138909975" lon="13.793819451654578" id="-42043">
		<tag k="name" v="Djupgrubba" />
		<tag k="place" v="locality" />
		<tag k="ssr:stedsnr" v="26873" />
	</node>
	<node lat="64.4208083369171" lon="13.52028611831445" id="-42045">
		<tag k="name" v="Kroktjønnlia" />
		<tag k="natural" v="slope" />
		<tag k="place" v="locality" />
		<tag k="ssr:stedsnr" v="47092" />
	</node>
	<node lat="64.44704722202765" lon="13.41849166363484" id="-42050">
		<tag k="name" v="Djupkastberget" />
		<tag k="natural" v="hill" />
		<tag k="place" v="locality" />
		<tag k="ssr:stedsnr" v="47222" />
	</node>
	<node lat="64.5391749969952" lon="13.62315000847404" id="-42056">
		<tag k="name" v="Storfjellgrubba" />
		<tag k="natural" v="valley" />
		<tag k="place" v="locality" />
		<tag k="ssr:stedsnr" v="47914" />
	</node>
	<node lat="64.52302778095638" lon="13.575283327309128" id="-42058">
		<tag k="name" v="Skavlia" />
		<tag k="natural" v="slope" />
		<tag k="place" v="locality" />
		<tag k="ssr:stedsnr" v="48105" />
	</node>
	<node lat="64.5659722246616" lon="13.576861107330528" id="-42059">
		<tag k="name" v="Haukberget" />
		<tag k="natural" v="hill" />
		<tag k="place" v="locality" />
		<tag k="ssr:stedsnr" v="48119" />
	</node>
	<node lat="64.21545833429496" lon="13.890572215551792" id="-42063">
		<tag k="name" v="Bergtjønnhaugen" />
		<tag k="natural" v="hill" />
		<tag k="place" v="locality" />
		<tag k="ssr:stedsnr" v="48428" />
	</node>
	<node lat="64.43910555918795" lon="13.933619445564233" id="-42064">
		<tag k="name" v="Fjellia" />
		<tag k="natural" v="slope" />
		<tag k="place" v="locality" />
		<tag k="ssr:stedsnr" v="48386" />
	</node>
	<node lat="64.37863611020094" lon="13.649377785925696" id="-42066">
		<tag k="name" v="Jervhaugen" />
		<tag k="natural" v="hill" />
		<tag k="place" v="locality" />
		<tag k="ssr:stedsnr" v="48617" />
	</node>
	<node lat="64.19870000008585" lon="13.585736104534302" id="-42070">
		<tag k="name" v="Svartåsen" />
		<tag k="natural" v="slope" />
		<tag k="place" v="locality" />
		<tag k="ssr:stedsnr" v="48812" />
	</node>
	<node lat="64.25290000145083" lon="13.247844451814021" id="-42077">
		<tag k="fixme" v="consider natural=peak for the most distinct mountains in the district" />
		<tag k="name" v="Lurusneisa - Tjohkele" />
		<tag k="name:no" v="Lurusneisa" />
		<tag k="name:sma" v="Tjohkele" />
		<tag k="natural" v="hill" />
		<tag k="place" v="locality" />
		<tag k="ssr:stedsnr" v="74014" />
	</node>
	<node lat="64.3814888853923" lon="13.35556388404898" id="-42082">
		<tag k="name" v="Ånesdalen" />
		<tag k="natural" v="valley" />
		<tag k="place" v="locality" />
		<tag k="ssr:stedsnr" v="74115" />
	</node>
	<node lat="64.1995888931718" lon="14.056236116550508" id="-42090">
		<tag k="name" v="Djupdalsklumpen" />
		<tag k="natural" v="hill" />
		<tag k="place" v="locality" />
		<tag k="ssr:stedsnr" v="74915" />
	</node>
	<node lat="64.74482777513815" lon="13.829199998556023" id="-42092">
		<tag k="fixme" v="consider natural=peak for the most distinct mountains in the district" />
		<tag k="name" v="Rødikfjellet" />
		<tag k="natural" v="hill" />
		<tag k="place" v="locality" />
		<tag k="ssr:stedsnr" v="75007" />
	</node>
	<node lat="64.58999444851172" lon="13.371363884265865" id="-42105">
		<tag k="fixme" v="consider natural=peak for the most distinct mountains in the district" />
		<tag k="name" v="Blåfjelltoppan" />
		<tag k="natural" v="hill" />
		<tag k="place" v="locality" />
		<tag k="ssr:stedsnr" v="75104" />
	</node>
	<node lat="64.40816944157457" lon="13.426419450066618" id="-42107">
		<tag k="name" v="Bjørklia" />
		<tag k="natural" v="slope" />
		<tag k="place" v="locality" />
		<tag k="ssr:stedsnr" v="75151" />
	</node>
	<node lat="64.49144444340651" lon="13.547502782778837" id="-42110">
		<tag k="name" v="Hesjilia" />
		<tag k="natural" v="slope" />
		<tag k="place" v="locality" />
		<tag k="ssr:stedsnr" v="75250" />
	</node>
	<node lat="64.703674996311" lon="13.627127779433383" id="-42112">
		<tag k="name" v="Utrøddiberget" />
		<tag k="natural" v="hill" />
		<tag k="place" v="locality" />
		<tag k="ssr:stedsnr" v="75501" />
	</node>
	<node lat="64.05235953782874" lon="13.66003911829567" id="-42116">
		<tag k="fixme" v="consider natural=peak for the most distinct mountains in the district" />
		<tag k="name" v="Ladtgiele" />
		<tag k="name:sma" v="Ladtgiele" />
		<tag k="natural" v="hill" />
		<tag k="place" v="locality" />
		<tag k="ssr:stedsnr" v="75908" />
	</node>
	<node lat="64.48280833254748" lon="13.347852767558859" id="-42119">
		<tag k="name" v="Spøkhaugen" />
		<tag k="natural" v="hill" />
		<tag k="place" v="locality" />
		<tag k="ssr:stedsnr" v="86705" />
	</node>
	<node lat="64.46576944890784" lon="13.30219721488842" id="-42120">
		<tag k="name" v="Melkhushaugen" />
		<tag k="natural" v="hill" />
		<tag k="place" v="locality" />
		<tag k="ssr:stedsnr" v="86708" />
	</node>
	<node lat="64.19648055465389" lon="13.859158332017204" id="-42129">
		<tag k="alt_name" v="Skarsdalen" />
		<tag k="name" v="Skardsdalen" />
		<tag k="natural" v="valley" />
		<tag k="place" v="locality" />
		<tag k="ssr:stedsnr" v="86881" />
	</node>
	<node lat="64.43949444160349" lon="13.739652780258666" id="-42138">
		<tag k="name" v="Holandberga" />
		<tag k="natural" v="hill" />
		<tag k="place" v="locality" />
		<tag k="ssr:stedsnr" v="108804" />
	</node>
	<node lat="64.50990277363022" lon="13.499630559612907" id="-42141">
		<tag k="alt_name" v="Vardefjellet" />
		<tag k="name" v="Vardfjellet" />
		<tag k="natural" v="hill" />
		<tag k="place" v="locality" />
		<tag k="ssr:stedsnr" v="109086" />
	</node>
	<node lat="64.56229166663712" lon="13.588074999929773" id="-42145">
		<tag k="name" v="Litl-Rømmervassdalen" />
		<tag k="natural" v="valley" />
		<tag k="place" v="locality" />
		<tag k="ssr:stedsnr" v="109140" />
	</node>
	<node lat="64.67849999702513" lon="13.716347215522703" id="-42153">
		<tag k="name" v="Skjeftmyrhaugen" />
		<tag k="natural" v="hill" />
		<tag k="place" v="locality" />
		<tag k="ssr:stedsnr" v="109490" />
	</node>
	<node lat="64.22145277993737" lon="13.446799996143886" id="-42157">
		<tag k="name" v="Nordklumpen" />
		<tag k="natural" v="hill" />
		<tag k="place" v="locality" />
		<tag k="ssr:stedsnr" v="109790" />
	</node>
	<node lat="64.25269444793142" lon="13.589477776698887" id="-42158">
		<tag k="name" v="Flye" />
		<tag k="natural" v="hill" />
		<tag k="place" v="locality" />
		<tag k="ssr:stedsnr" v="109813" />
	</node>
	<node lat="64.07336110836661" lon="13.86688332825584" id="-42167">
		<tag k="alt_name" v="Kroktjønnfjellet" />
		<tag k="fixme" v="consider natural=peak for the most distinct mountains in the district" />
		<tag k="name" v="Kruehkeretjaerhvieh" />
		<tag k="natural" v="hill" />
		<tag k="old_name" v="Kruehkeretjaerfieh" />
		<tag k="place" v="locality" />
		<tag k="ssr:stedsnr" v="134771" />
	</node>
	<node lat="64.01965000296812" lon="13.894125008650672" id="-42169">
		<tag k="fixme" v="consider natural=peak for the most distinct mountains in the district" />
		<tag k="name" v="Kvithattfjellet" />
		<tag k="natural" v="hill" />
		<tag k="place" v="locality" />
		<tag k="ssr:stedsnr" v="134812" />
	</node>
	<node lat="64.03543889051997" lon="13.852705565052478" id="-42170">
		<tag k="name" v="Skardet" />
		<tag k="natural" v="valley" />
		<tag k="place" v="locality" />
		<tag k="ssr:stedsnr" v="134816" />
	</node>
	<node lat="64.38838610733606" lon="13.621969440497178" id="-42174">
		<tag k="fixme" v="multiple name tags, choose one and add the other to alt_name" />
		<tag k="name" v="Korsklumpen;Okstjønnklumpen" />
		<tag k="natural" v="hill" />
		<tag k="place" v="locality" />
		<tag k="ssr:stedsnr" v="135114" />
	</node>
	<node lat="64.52587777882543" lon="13.7631333397669" id="-42180">
		<tag k="name" v="Raudberget" />
		<tag k="natural" v="hill" />
		<tag k="place" v="locality" />
		<tag k="ssr:stedsnr" v="135213" />
	</node>
	<node lat="64.51813333090762" lon="13.373713887293803" id="-42191">
		<tag k="name" v="Klemmethaugen" />
		<tag k="natural" v="hill" />
		<tag k="place" v="locality" />
		<tag k="ssr:stedsnr" v="136058" />
	</node>
	<node lat="64.18488611088415" lon="13.750280547937024" id="-42193">
		<tag k="alt_name" v="Litllia" />
		<tag k="name" v="Litlelia" />
		<tag k="natural" v="slope" />
		<tag k="place" v="locality" />
		<tag k="ssr:stedsnr" v="135903" />
	</node>
	<node lat="64.12259999735268" lon="14.006455547970575" id="-42196">
		<tag k="name" v="Nordbrennberga" />
		<tag k="natural" v="hill" />
		<tag k="place" v="locality" />
		<tag k="ssr:stedsnr" v="135960" />
	</node>
	<node lat="64.57136666422036" lon="13.482633339519476" id="-42200">
		<tag k="name" v="Norddalen" />
		<tag k="natural" v="valley" />
		<tag k="place" v="locality" />
		<tag k="ssr:stedsnr" v="136116" />
	</node>
	<node lat="64.53294589867993" lon="13.626460918707057" id="-42201">
		<tag k="fixme" v="consider natural=peak for the most distinct mountains in the district" />
		<tag k="name" v="Storfjellet" />
		<tag k="natural" v="hill" />
		<tag k="place" v="locality" />
		<tag k="ssr:stedsnr" v="136208" />
	</node>
	<node lat="64.27458055842158" lon="13.5784166670168" id="-42205">
		<tag k="fixme" v="consider natural=peak for the most distinct mountains in the district" />
		<tag k="name" v="Heimen" />
		<tag k="natural" v="hill" />
		<tag k="place" v="locality" />
		<tag k="ssr:stedsnr" v="256017" />
	</node>
	<node lat="64.25262777975145" lon="13.800930558855274" id="-42206">
		<tag k="name" v="Storskardet" />
		<tag k="natural" v="valley" />
		<tag k="place" v="locality" />
		<tag k="ssr:stedsnr" v="146913" />
	</node>
	<node lat="64.26625277384188" lon="13.808024996186317" id="-42207">
		<tag k="name" v="Mæretberget" />
		<tag k="natural" v="hill" />
		<tag k="place" v="locality" />
		<tag k="ssr:stedsnr" v="146914" />
	</node>
</osm>
