<?xml version="1.0" encoding="UTF-8"?>
<osm version="0.6" generator="osmapis">
	<node lat="64.25298611010523" lon="13.7276527740829" id="-88040">
		<tag k="name" v="Skogstad" />
		<tag k="place" v="farm" />
		<tag k="ssr:stedsnr" v="14807" />
	</node>
	<node lat="64.15321666301887" lon="13.760430558064987" id="-88043">
		<tag k="historic" v="shieling" />
		<tag k="name" v="Julesseteren" />
		<tag k="place" v="isolated_dwelling" />
		<tag k="ssr:stedsnr" v="14922" />
	</node>
	<node lat="64.63526666600997" lon="13.69884167072834" id="-88050">
		<tag k="fixme" v="consider place=hamlet" />
		<tag k="name" v="Skogen" />
		<tag k="place" v="farm" />
		<tag k="ssr:stedsnr" v="15421" />
	</node>
	<node lat="64.37879166850003" lon="13.629097216846082" id="-88096">
		<tag k="name" v="Åsen" />
		<tag k="place" v="farm" />
		<tag k="ssr:stedsnr" v="48619" />
	</node>
	<node lat="64.32898888870609" lon="13.5893333240236" id="-88110">
		<tag k="fixme" v="consider place=hamlet" />
		<tag k="name" v="Aunet" />
		<tag k="place" v="farm" />
		<tag k="ssr:stedsnr" v="60929" />
	</node>
	<node lat="64.44407778174866" lon="13.718866674267355" id="-88122">
		<tag k="name" v="Movik" />
		<tag k="place" v="farm" />
		<tag k="ssr:stedsnr" v="229833" />
	</node>
	<node lat="64.15728333374149" lon="14.054563890626822" id="-88128">
		<tag k="name" v="Bakkmoen" />
		<tag k="place" v="farm" />
		<tag k="ssr:stedsnr" v="230263" />
	</node>
	<node lat="64.25646110694998" lon="13.642522221510651" id="-88150">
		<tag k="name" v="Totlandsetran" />
		<tag k="place" v="locality" />
		<tag k="ssr:stedsnr" v="74002" />
	</node>
	<node lat="64.15511389226639" lon="14.06094165767288" id="-88171">
		<tag k="name" v="Brenna" />
		<tag k="place" v="farm" />
		<tag k="ssr:stedsnr" v="74999" />
	</node>
	<node lat="64.46646110969048" lon="13.590494447230775" id="-88181">
		<tag k="name" v="Sandvika" />
		<tag k="place" v="farm" />
		<tag k="ssr:stedsnr" v="75161" />
	</node>
	<node lat="64.46188888896303" lon="13.434486117604019" id="-88182">
		<tag k="alt_name" v="Laksjøli" />
		<tag k="name" v="Laksjølia" />
		<tag k="place" v="farm" />
		<tag k="ssr:stedsnr" v="75165" />
	</node>
	<node lat="64.63838611302334" lon="13.702983330989955" id="-88187">
		<tag k="name" v="Linmoen" />
		<tag k="place" v="farm" />
		<tag k="ssr:stedsnr" v="75409" />
	</node>
	<node lat="64.43126666395767" lon="13.811227771426612" id="-88189">
		<tag k="name" v="Lauvtangen" />
		<tag k="place" v="farm" />
		<tag k="ssr:stedsnr" v="75801" />
	</node>
	<node lat="64.1816805547286" lon="13.71810000968349" id="-88211">
		<tag k="fixme" v="consider place=hamlet" />
		<tag k="name" v="Ytterdalen" />
		<tag k="place" v="farm" />
		<tag k="ssr:stedsnr" v="256879" />
	</node>
	<node lat="64.18794999610773" lon="13.834886113372576" id="-88213">
		<tag k="alt_name" v="Strømsmoen" />
		<tag k="name" v="Straumsmoen" />
		<tag k="place" v="farm" />
		<tag k="ssr:stedsnr" v="256891" />
	</node>
	<node lat="64.4615223440164" lon="13.599340414553659" id="-88214">
		<tag k="amenity" v="school" />
		<tag k="name" v="Stortangen skole" />
		<tag k="ssr:stedsnr" v="102280" />
	</node>
	<node lat="64.18239166511678" lon="13.727150008568918" id="-88215">
		<tag k="name" v="Moen" />
		<tag k="place" v="farm" />
		<tag k="ssr:stedsnr" v="256894" />
	</node>
	<node lat="64.15690277844422" lon="14.056630546343396" id="-88247">
		<tag k="fixme" v="consider place=hamlet" />
		<tag k="name" v="Endset" />
		<tag k="place" v="village" />
		<tag k="ssr:stedsnr" v="121917" />
	</node>
	<node lat="64.44707905544463" lon="13.712825710766836" id="-88248">
		<tag k="name" v="Brattvoll" />
		<tag k="place" v="farm" />
		<tag k="ssr:stedsnr" v="134154" />
	</node>
	<node lat="64.51208055456547" lon="13.822175003407873" id="-88256">
		<tag k="name" v="Trøa" />
		<tag k="place" v="farm" />
		<tag k="ssr:stedsnr" v="135201" />
	</node>
	<node lat="64.1087305594915" lon="13.98196388426149" id="-88260">
		<tag k="fixme" v="consider place=hamlet" />
		<tag k="name" v="Østborg" />
		<tag k="place" v="farm" />
		<tag k="ssr:stedsnr" v="135763" />
	</node>
	<node lat="64.17514166494821" lon="13.785622220062326" id="-88267">
		<tag k="name" v="Våkliseteren" />
		<tag k="place" v="isolated_dwelling" />
		<tag k="ssr:stedsnr" v="135948" />
	</node>
	<node lat="64.17901944564133" lon="14.067227780833395" id="-88269">
		<tag k="name" v="Gammelheimen" />
		<tag k="place" v="locality" />
		<tag k="ssr:stedsnr" v="135958" />
	</node>
	<node lat="64.51213889311666" lon="13.682405548588294" id="-88279">
		<tag k="name" v="Framnes" />
		<tag k="place" v="farm" />
		<tag k="ssr:stedsnr" v="136004" />
	</node>
	<node lat="64.50747500134003" lon="13.693583324614801" id="-88280">
		<tag k="alt_name" v="Vestum" />
		<tag k="name" v="Vestem" />
		<tag k="place" v="farm" />
		<tag k="ssr:stedsnr" v="136007" />
	</node>
	<node lat="64.74600555329108" lon="13.772649996246686" id="-88282">
		<tag k="name" v="Nymyrhytta" />
		<tag k="place" v="isolated_dwelling" />
		<tag k="ssr:stedsnr" v="136015" />
	</node>
	<node lat="64.52906666595854" lon="13.691013890922326" id="-88284">
		<tag k="name" v="Homo" />
		<tag k="place" v="farm" />
		<tag k="ssr:stedsnr" v="136065" />
	</node>
	<node lat="64.63948055354933" lon="13.592255547450751" id="-88290">
		<tag k="name" v="Storbakken" />
		<tag k="place" v="farm" />
		<tag k="ssr:stedsnr" v="136455" />
	</node>
	<node lat="64.64747777834567" lon="13.683169451679287" id="-88291">
		<tag k="name" v="Solheim" />
		<tag k="place" v="farm" />
		<tag k="ssr:stedsnr" v="136457" />
	</node>
	<node lat="64.49602222376566" lon="13.343399992490474" id="-88293">
		<tag k="historic" v="shieling" />
		<tag k="name" v="Finnvollen" />
		<tag k="place" v="isolated_dwelling" />
		<tag k="ssr:stedsnr" v="146706" />
	</node>
	<node lat="64.26099722317986" lon="13.70746666155483" id="-88294">
		<tag k="alt_name" v="Totland vestre" />
		<tag k="name" v="Vestre Totland" />
		<tag k="place" v="farm" />
		<tag k="ssr:stedsnr" v="146808" />
	</node>
	<node lat="64.15640000063254" lon="14.056572221977687" id="-88325">
		<tag k="name" v="Brennmoen" />
		<tag k="place" v="farm" />
		<tag k="ssr:stedsnr" v="169258" />
	</node>
	<node lat="64.44691666800372" lon="13.684483329977516" id="-88353">
		<tag k="name" v="Bruvoll" />
		<tag k="place" v="farm" />
		<tag k="ssr:stedsnr" v="195196" />
	</node>
	<node lat="64.22401666892874" lon="13.834341669284624" id="-88357">
		<tag k="fixme" v="consider place=hamlet" />
		<tag k="name" v="Sørli" />
		<tag k="place" v="village" />
		<tag k="ssr:stedsnr" v="195888" />
	</node>
	<node lat="64.46743610836747" lon="13.497225001281997" id="-88362">
		<tag k="name" v="Kvernvika" />
		<tag k="place" v="isolated_dwelling" />
		<tag k="ssr:stedsnr" v="196205" />
	</node>
	<node lat="64.71171388791514" lon="13.73465832550985" id="-88365">
		<tag k="name" v="Liminglia" />
		<tag k="place" v="farm" />
		<tag k="ssr:stedsnr" v="196230" />
	</node>
	<node lat="64.5714861120741" lon="13.541877777627773" id="-88375">
		<tag k="name" v="Nordbua" />
		<tag k="place" v="locality" />
		<tag k="ssr:stedsnr" v="197114" />
	</node>
	<node lat="64.22591666524436" lon="13.937966665006712" id="-88377">
		<tag k="historic" v="shieling" />
		<tag k="name" v="Gravtjønnseteren" />
		<tag k="place" v="isolated_dwelling" />
		<tag k="ssr:stedsnr" v="196883" />
	</node>
	<node lat="64.28985000317672" lon="13.64874722242333" id="-88387">
		<tag k="name" v="Botnvik" />
		<tag k="place" v="farm" />
		<tag k="ssr:stedsnr" v="207850" />
	</node>
	<node lat="64.37995833188558" lon="13.708699989631533" id="-88401">
		<tag k="name" v="Gamseteren" />
		<tag k="place" v="locality" />
		<tag k="ssr:stedsnr" v="256069" />
	</node>
	<node lat="64.70626667070977" lon="13.7414861044389" id="-88441">
		<tag k="fixme" v="consider place=hamlet" />
		<tag k="name" v="Limingen" />
		<tag k="place" v="farm" />
		<tag k="ssr:stedsnr" v="242546" />
	</node>
	<node lat="64.1087305594915" lon="13.98196388426149" id="-88444">
		<tag k="name" v="Østborg" />
		<tag k="place" v="hamlet" />
		<tag k="ssr:stedsnr" v="242920" />
	</node>
	<node lat="64.49273611370042" lon="13.908266664417269" id="-88451">
		<tag k="name" v="Bjørkås" />
		<tag k="place" v="farm" />
		<tag k="ssr:stedsnr" v="256043" />
	</node>
	<node lat="64.4788777750893" lon="13.529111104746441" id="-88455">
		<tag k="name" v="Hesjivollen" />
		<tag k="place" v="locality" />
		<tag k="ssr:stedsnr" v="256191" />
	</node>
	<node lat="64.27954444637062" lon="13.853286104127275" id="-88456">
		<tag k="historic" v="shieling" />
		<tag k="name" v="Estilrønningseteren" />
		<tag k="place" v="isolated_dwelling" />
		<tag k="ssr:stedsnr" v="256803" />
	</node>
	<node lat="64.16257222632984" lon="13.657722214564988" id="-88458">
		<tag k="alt_name" v="Nysætern" />
		<tag k="historic" v="shieling" />
		<tag k="loc_name" v="Nyseteren" />
		<tag k="name" v="Nysætran" />
		<tag k="place" v="isolated_dwelling" />
		<tag k="ssr:stedsnr" v="256812" />
	</node>
	<node lat="64.43258333633109" lon="13.812274999132253" id="-88460">
		<tag k="alt_name" v="Kalldal" />
		<tag k="name" v="Kaldal" />
		<tag k="place" v="farm" />
		<tag k="ssr:stedsnr" v="256723" />
	</node>
	<node lat="64.13449444611591" lon="14.09402499497302" id="-88464">
		<tag k="name" v="Solvika" />
		<tag k="place" v="farm" />
		<tag k="ssr:stedsnr" v="256974" />
	</node>
	<node lat="64.43732777451605" lon="13.45695834135917" id="-88470">
		<tag k="name" v="Surtmyrbrenna" />
		<tag k="place" v="locality" />
		<tag k="ssr:stedsnr" v="257130" />
	</node>
	<node lat="64.73130278026198" lon="13.77159167045319" id="-88474">
		<tag k="name" v="Limingseteren" />
		<tag k="place" v="locality" />
		<tag k="ssr:stedsnr" v="257014" />
	</node>
	<node lat="64.49986388536244" lon="13.361730546857027" id="-88477">
		<tag k="name" v="Åstrand" />
		<tag k="place" v="farm" />
		<tag k="ssr:stedsnr" v="257025" />
	</node>
	<node lat="64.50169933291797" lon="13.356847583302768" id="-88478">
		<tag k="name" v="Ringstad" />
		<tag k="place" v="farm" />
		<tag k="ssr:stedsnr" v="257028" />
	</node>
	<node lat="64.52218055719122" lon="13.691397225297989" id="-88479">
		<tag k="name" v="Ny-Kvelia" />
		<tag k="place" v="farm" />
		<tag k="ssr:stedsnr" v="257042" />
	</node>
	<node lat="64.6675820351448" lon="13.489755446335929" id="-88486">
		<tag k="fixme" v="consider place=hamlet" />
		<tag k="name" v="Ingelsvatnet" />
		<tag k="place" v="farm" />
		<tag k="ssr:stedsnr" v="257513" />
	</node>
	<node lat="64.70626667070977" lon="13.7414861044389" id="-88488">
		<tag k="name" v="Limingen" />
		<tag k="place" v="hamlet" />
		<tag k="ssr:stedsnr" v="257274" />
	</node>
	<node lat="64.64501666968305" lon="13.609402788372408" id="-88491">
		<tag k="name" v="Fagernes" />
		<tag k="place" v="farm" />
		<tag k="ssr:stedsnr" v="257477" />
	</node>
	<node lat="64.70626667070977" lon="13.7414861044389" id="-88558">
		<tag k="name" v="Limingen" />
		<tag k="place" v="hamlet" />
		<tag k="ssr:stedsnr" v="303591" />
	</node>
	<node lat="64.47129300866756" lon="13.423677995247239" id="-88559">
		<tag k="name" v="Heia" />
		<tag k="place" v="farm" />
		<tag k="ssr:stedsnr" v="256201" />
	</node>
	<node lat="64.47495277356319" lon="13.884916665417636" id="-88561">
		<tag k="name" v="Vegset" />
		<tag k="place" v="farm" />
		<tag k="ssr:stedsnr" v="317017" />
	</node>
	<node lat="64.47220832913932" lon="13.631566672129141" id="-88570">
		<tag k="name" v="Prestgårdsseteren" />
		<tag k="place" v="isolated_dwelling" />
		<tag k="ssr:stedsnr" v="317205" />
	</node>
	<node lat="64.44151111286237" lon="13.504258328001207" id="-88575">
		<tag k="name" v="Lia" />
		<tag k="place" v="farm" />
		<tag k="ssr:stedsnr" v="317161" />
	</node>
	<node lat="64.44728333281793" lon="13.411866664543046" id="-88576">
		<tag k="name" v="Sørsetran" />
		<tag k="place" v="isolated_dwelling" />
		<tag k="ssr:stedsnr" v="317168" />
	</node>
	<node lat="64.10728611127053" lon="14.043319447453749" id="-88581">
		<tag k="historic" v="shieling" />
		<tag k="name" v="Gamseteren" />
		<tag k="place" v="isolated_dwelling" />
		<tag k="ssr:stedsnr" v="317720" />
	</node>
	<node lat="64.1907499987265" lon="13.629105558810515" id="-88584">
		<tag k="alt_name" v="Jersåssætra, øvre" />
		<tag k="fixme" v="multiple name tags, choose one and add the other to alt_name" />
		<tag k="historic" v="shieling" />
		<tag k="loc_name" v="Øvre Jersåsseteren" />
		<tag k="name" v="Øversetern;Øvre Jersåssætra" />
		<tag k="place" v="isolated_dwelling" />
		<tag k="ssr:stedsnr" v="317725" />
	</node>
	<node lat="64.36347499672495" lon="13.770911103677934" id="-88586">
		<tag k="name" v="Bengtseteren" />
		<tag k="place" v="isolated_dwelling" />
		<tag k="ssr:stedsnr" v="317729" />
	</node>
	<node lat="64.43964114306145" lon="13.63316069878265" id="-88606">
		<tag k="name" v="Sørbakken" />
		<tag k="place" v="farm" />
		<tag k="ssr:stedsnr" v="318126" />
	</node>
	<node lat="64.52009167048217" lon="13.633186114245369" id="-88607">
		<tag k="name" v="Liberg" />
		<tag k="place" v="farm" />
		<tag k="ssr:stedsnr" v="318014" />
	</node>
	<node lat="64.54591389131596" lon="13.507361112378552" id="-88611">
		<tag k="name" v="Leirmoen" />
		<tag k="place" v="farm" />
		<tag k="ssr:stedsnr" v="318072" />
	</node>
	<node lat="64.22315833067249" lon="13.825902773314565" id="-88623">
		<tag k="name" v="Midtre Østnor" />
		<tag k="place" v="farm" />
		<tag k="ssr:stedsnr" v="328924" />
	</node>
	<node lat="64.06389722386024" lon="14.023505557156385" id="-88657">
		<tag k="name" v="Linnmo" />
		<tag k="place" v="farm" />
		<tag k="ssr:stedsnr" v="351683" />
	</node>
	<node lat="64.22351944507592" lon="13.824049994078973" id="-88668">
		<tag k="name" v="Vestre Østnor" />
		<tag k="place" v="farm" />
		<tag k="ssr:stedsnr" v="464434" />
	</node>
	<node lat="64.49106110910905" lon="13.922024992959948" id="-88674">
		<tag k="name" v="Hammer" />
		<tag k="place" v="farm" />
		<tag k="ssr:stedsnr" v="377032" />
	</node>
	<node lat="64.11348333731317" lon="13.637786106423118" id="-88682">
		<tag k="name" v="Holmtjønnhytta" />
		<tag k="place" v="isolated_dwelling" />
		<tag k="ssr:stedsnr" v="377792" />
	</node>
	<node lat="64.2638055595647" lon="13.89875833332483" id="-88685">
		<tag k="historic" v="shieling" />
		<tag k="name" v="Vestgårdsseteren" />
		<tag k="place" v="isolated_dwelling" />
		<tag k="ssr:stedsnr" v="377809" />
	</node>
	<node lat="64.41844444347281" lon="13.451077774696001" id="-88689">
		<tag k="name" v="Nerslåtten" />
		<tag k="place" v="locality" />
		<tag k="ssr:stedsnr" v="378130" />
	</node>
	<node lat="64.75151944440755" lon="13.718880550548826" id="-88696">
		<tag k="name" v="Deviktangen" />
		<tag k="place" v="farm" />
		<tag k="ssr:stedsnr" v="378280" />
	</node>
	<node lat="64.12697777449237" lon="13.888838895403271" id="-88707">
		<tag k="name" v="Sundvika" />
		<tag k="place" v="hamlet" />
		<tag k="ssr:stedsnr" v="378986" />
	</node>
	<node lat="64.2480055588759" lon="13.752108329222589" id="-88711">
		<tag k="fixme" v="consider place=hamlet" />
		<tag k="name" v="Devika" />
		<tag k="place" v="farm" />
		<tag k="ssr:stedsnr" v="378880" />
	</node>
	<node lat="64.24174444606125" lon="13.732116665361028" id="-88713">
		<tag k="name" v="Sørstrand" />
		<tag k="place" v="farm" />
		<tag k="ssr:stedsnr" v="378887" />
	</node>
	<node lat="64.66663474209517" lon="13.486505543899554" id="-88796">
		<tag k="name" v="Ingelsvatnet" />
		<tag k="place" v="farm" />
		<tag k="ssr:stedsnr" v="419545" />
	</node>
	<node lat="64.22681522813185" lon="13.833985099005078" id="-88802">
		<tag k="fixme" v="consider place=hamlet" />
		<tag k="name" v="Estil" />
		<tag k="place" v="farm" />
		<tag k="ssr:stedsnr" v="424902" />
	</node>
	<node lat="64.26929999601667" lon="13.603333342817756" id="-88803">
		<tag k="historic" v="shieling" />
		<tag k="name" v="Ullandseteren" />
		<tag k="place" v="isolated_dwelling" />
		<tag k="ssr:stedsnr" v="438004" />
	</node>
	<node lat="64.4992888849567" lon="13.372111101802785" id="-88808">
		<tag k="name" v="Fagerstrand" />
		<tag k="place" v="farm" />
		<tag k="ssr:stedsnr" v="438220" />
	</node>
	<node lat="64.44321110748758" lon="13.496902784692157" id="-88810">
		<tag k="fixme" v="consider place=hamlet" />
		<tag k="name" v="Nesset" />
		<tag k="place" v="farm" />
		<tag k="ssr:stedsnr" v="438160" />
	</node>
	<node lat="64.51645000166877" lon="13.722763889239516" id="-88826">
		<tag k="name" v="Brønnbu" />
		<tag k="place" v="farm" />
		<tag k="ssr:stedsnr" v="439206" />
	</node>
	<node lat="64.63180000281176" lon="13.689791672230642" id="-88828">
		<tag k="name" v="Rydning" />
		<tag k="place" v="farm" />
		<tag k="ssr:stedsnr" v="439367" />
	</node>
	<node lat="64.61003888504946" lon="13.658008333156" id="-88829">
		<tag k="loc_name" v="Rydningsseteren" />
		<tag k="name" v="Rydningsætra" />
		<tag k="place" v="isolated_dwelling" />
		<tag k="ssr:stedsnr" v="439378" />
	</node>
	<node lat="64.65395337974223" lon="13.712139424074028" id="-88832">
		<tag k="name" v="Nymoseteren" />
		<tag k="place" v="locality" />
		<tag k="ssr:stedsnr" v="439416" />
	</node>
	<node lat="64.22562777584572" lon="13.835055561315263" id="-88842">
		<tag k="fixme" v="consider place=hamlet" />
		<tag k="name" v="Estil" />
		<tag k="place" v="farm" />
		<tag k="ssr:stedsnr" v="439861" />
	</node>
	<node lat="64.22620555485808" lon="13.826669442022236" id="-88857">
		<tag k="name" v="Grinde" />
		<tag k="place" v="farm" />
		<tag k="ssr:stedsnr" v="450930" />
	</node>
	<node lat="64.18219999676977" lon="13.705038895919897" id="-88880">
		<tag k="name" v="Setern" />
		<tag k="place" v="isolated_dwelling" />
		<tag k="ssr:stedsnr" v="472707" />
	</node>
	<node lat="64.16379166788572" lon="13.874863889289099" id="-88901">
		<tag k="fixme" v="consider place=hamlet" />
		<tag k="name" v="Skåle" />
		<tag k="place" v="farm" />
		<tag k="ssr:stedsnr" v="485911" />
	</node>
	<node lat="64.45841111399646" lon="13.470241667356026" id="-88907">
		<tag k="name" v="Brennmoen" />
		<tag k="place" v="farm" />
		<tag k="ssr:stedsnr" v="499120" />
	</node>
	<node lat="64.4696388874172" lon="13.540291671251897" id="-88910">
		<tag k="name" v="Støvika" />
		<tag k="place" v="farm" />
		<tag k="ssr:stedsnr" v="499158" />
	</node>
	<node lat="64.16773611282527" lon="13.703502785063158" id="-88922">
		<tag k="alt_name" v="John-Berntsasetern" />
		<tag k="name" v="Jonberntsasætra" />
		<tag k="place" v="locality" />
		<tag k="ssr:stedsnr" v="499809" />
	</node>
	<node lat="64.22084166405813" lon="13.792580553911545" id="-88925">
		<tag k="historic" v="shieling" />
		<tag k="name" v="Høgsnesseteren" />
		<tag k="place" v="isolated_dwelling" />
		<tag k="ssr:stedsnr" v="499893" />
	</node>
	<node lat="64.54859722609638" lon="13.505444447091053" id="-88933">
		<tag k="name" v="Leirlia" />
		<tag k="place" v="farm" />
		<tag k="ssr:stedsnr" v="500101" />
	</node>
	<node lat="64.50792500458037" lon="13.855294436878006" id="-88934">
		<tag k="name" v="Firsnortangen" />
		<tag k="place" v="isolated_dwelling" />
		<tag k="ssr:stedsnr" v="500243" />
	</node>
	<node lat="64.25833333285703" lon="13.712658339037613" id="-88945">
		<tag k="alt_name" v="Totland østre" />
		<tag k="name" v="Østre Totland" />
		<tag k="place" v="farm" />
		<tag k="ssr:stedsnr" v="511827" />
	</node>
	<node lat="64.24973333249076" lon="13.740386117829708" id="-88948">
		<tag k="name" v="Solstad" />
		<tag k="place" v="farm" />
		<tag k="ssr:stedsnr" v="511853" />
	</node>
	<node lat="64.52726532512894" lon="13.547790533210701" id="-88966">
		<tag k="name" v="Lunde" />
		<tag k="place" v="farm" />
		<tag k="ssr:stedsnr" v="533178" />
	</node>
	<node lat="64.52911111418908" lon="13.54282221241824" id="-88967">
		<tag k="name" v="Leirbakken" />
		<tag k="place" v="farm" />
		<tag k="ssr:stedsnr" v="533180" />
	</node>
	<node lat="64.44764293035496" lon="13.709801418734083" id="-88990">
		<tag k="name" v="Holand" />
		<tag k="place" v="hamlet" />
		<tag k="ssr:stedsnr" v="545913" />
	</node>
	<node lat="64.49255000126969" lon="13.408019443164722" id="-88994">
		<tag k="fixme" v="consider place=hamlet" />
		<tag k="name" v="Skjeldbreia" />
		<tag k="place" v="farm" />
		<tag k="ssr:stedsnr" v="559210" />
	</node>
	<node lat="64.2806722259027" lon="13.741488885164303" id="-89001">
		<tag k="historic" v="shieling" />
		<tag k="name" v="Lemenvasseteren" />
		<tag k="place" v="isolated_dwelling" />
		<tag k="ssr:stedsnr" v="559812" />
	</node>
	<node lat="64.12396110923093" lon="13.630111108048752" id="-89003">
		<tag k="name" v="Tjønndalshytta" />
		<tag k="place" v="isolated_dwelling" />
		<tag k="ssr:stedsnr" v="559817" />
	</node>
	<node lat="64.15846388785495" lon="14.050611113135401" id="-89007">
		<tag k="name" v="Bakken" />
		<tag k="place" v="farm" />
		<tag k="ssr:stedsnr" v="559944" />
	</node>
	<node lat="64.15263889216875" lon="14.01892499071704" id="-89009">
		<tag k="alt_name" v="Vestnes" />
		<tag k="name" v="Vestneset" />
		<tag k="place" v="farm" />
		<tag k="ssr:stedsnr" v="559994" />
	</node>
	<node lat="64.2126111116529" lon="13.785497215448386" id="-89010">
		<tag k="historic" v="shieling" />
		<tag k="name" v="Danelseteren" />
		<tag k="place" v="isolated_dwelling" />
		<tag k="ssr:stedsnr" v="559893" />
	</node>
	<node lat="64.50778888713259" lon="13.698272211967828" id="-89012">
		<tag k="name" v="Sandstad" />
		<tag k="place" v="farm" />
		<tag k="ssr:stedsnr" v="560007" />
	</node>
	<node lat="64.2912722247802" lon="13.615697214066463" id="-89013">
		<tag k="historic" v="shieling" />
		<tag k="name" v="Nerseteren" />
		<tag k="place" v="isolated_dwelling" />
		<tag k="ssr:stedsnr" v="560044" />
	</node>
	<node lat="64.68083202720464" lon="13.653363600276176" id="-89021">
		<tag k="name" v="Strandmoen" />
		<tag k="place" v="farm" />
		<tag k="ssr:stedsnr" v="560451" />
	</node>
	<node lat="64.48290833341765" lon="13.417738888786733" id="-89049">
		<tag k="name" v="Myrvoll" />
		<tag k="place" v="farm" />
		<tag k="ssr:stedsnr" v="681233" />
	</node>
	<node lat="64.10846666469999" lon="13.983563883372582" id="-89062">
		<tag k="name" v="Linneset" />
		<tag k="place" v="farm" />
		<tag k="ssr:stedsnr" v="681781" />
	</node>
	<node lat="64.21021944409497" lon="13.609166668643052" id="-89063">
		<tag k="name" v="Myrvoll" />
		<tag k="place" v="farm" />
		<tag k="ssr:stedsnr" v="681792" />
	</node>
	<node lat="64.14837778097471" lon="13.717663884792625" id="-89070">
		<tag k="alt_name" v="Skraptjønnsætra" />
		<tag k="historic" v="shieling" />
		<tag k="name" v="Skraptjønnseteren" />
		<tag k="old_name" v="Skraptjønnsetern" />
		<tag k="place" v="isolated_dwelling" />
		<tag k="ssr:stedsnr" v="681840" />
	</node>
	<node lat="64.15690555093532" lon="14.056633339911668" id="-89081">
		<tag k="fixme" v="consider place=hamlet" />
		<tag k="name" v="Endset" />
		<tag k="place" v="farm" />
		<tag k="ssr:stedsnr" v="681993" />
	</node>
	<node lat="64.64734444248349" lon="13.541261103870736" id="-89104">
		<tag k="name" v="Ingstad" />
		<tag k="place" v="farm" />
		<tag k="ssr:stedsnr" v="682452" />
	</node>
	<node lat="64.2892055563039" lon="13.650966662751625" id="-89111">
		<tag k="name" v="Aspli" />
		<tag k="place" v="farm" />
		<tag k="ssr:stedsnr" v="571805" />
	</node>
	<node lat="64.65163333213222" lon="13.675261116085943" id="-89115">
		<tag k="name" v="Vollheim" />
		<tag k="place" v="farm" />
		<tag k="ssr:stedsnr" v="682482" />
	</node>
	<node lat="64.50196388999215" lon="13.91196666816552" id="-89143">
		<tag k="name" v="Musurvika" />
		<tag k="place" v="isolated_dwelling" />
		<tag k="ssr:stedsnr" v="594377" />
	</node>
	<node lat="64.51814999789332" lon="13.673047224039088" id="-89151">
		<tag k="name" v="Kveliaunet" />
		<tag k="place" v="farm" />
		<tag k="ssr:stedsnr" v="594957" />
	</node>
	<node lat="64.20366388680479" lon="13.468083322981071" id="-89152">
		<tag k="fixme" v="consider tourism=alpine_hut or tourism=chalet" />
		<tag k="name" v="Grubbstuggu" />
		<tag k="ssr:stedsnr" v="603876" />
		<tag k="tourism" v="wilderness_hut" />
	</node>
	<node lat="64.40921666516194" lon="13.652072211869168" id="-89167">
		<tag k="alt_name" v="Halset" />
		<tag k="name" v="Hallset" />
		<tag k="place" v="isolated_dwelling" />
		<tag k="ssr:stedsnr" v="620103" />
	</node>
	<node lat="64.44756388618683" lon="13.672147211535698" id="-89170">
		<tag k="name" v="Solum" />
		<tag k="place" v="farm" />
		<tag k="ssr:stedsnr" v="620174" />
	</node>
	<node lat="64.4815416712953" lon="13.305683326577414" id="-89171">
		<tag k="name" v="Fjelly" />
		<tag k="place" v="farm" />
		<tag k="ssr:stedsnr" v="620183" />
	</node>
	<node lat="64.49088610940993" lon="13.455080560756285" id="-89172">
		<tag k="name" v="Brattenga" />
		<tag k="place" v="farm" />
		<tag k="ssr:stedsnr" v="620239" />
	</node>
	<node lat="64.06401666472006" lon="14.01460833343225" id="-89180">
		<tag k="name" v="Linneset" />
		<tag k="place" v="hamlet" />
		<tag k="ssr:stedsnr" v="620776" />
	</node>
	<node lat="64.48988333726822" lon="13.464105554972182" id="-89216">
		<tag k="name" v="Grande" />
		<tag k="place" v="farm" />
		<tag k="ssr:stedsnr" v="693796" />
	</node>
	<node lat="64.39263055740989" lon="13.650363880661436" id="-89226">
		<tag k="name" v="Løvsjølia hyttefelt" />
		<tag k="place" v="neighbourhood" />
		<tag k="ssr:stedsnr" v="646433" />
	</node>
	<node lat="64.5202534368742" lon="13.606044005936365" id="-89245">
		<tag k="name" v="Ivabygget" />
		<tag k="place" v="locality" />
		<tag k="ssr:stedsnr" v="654096" />
	</node>
	<node lat="64.06292500133155" lon="14.007686111619538" id="-89256">
		<tag k="name" v="Sagmo" />
		<tag k="place" v="farm" />
		<tag k="ssr:stedsnr" v="654696" />
	</node>
	<node lat="64.13950555457927" lon="13.877288896221309" id="-89270">
		<tag k="historic" v="shieling" />
		<tag k="name" v="Skålseteren" />
		<tag k="place" v="isolated_dwelling" />
		<tag k="ssr:stedsnr" v="256995" />
	</node>
	<node lat="64.48861944818499" lon="13.16603055013971" id="-89284">
		<tag k="name" v="Gosen" />
		<tag k="place" v="locality" />
		<tag k="ssr:stedsnr" v="681318" />
	</node>
	<node lat="64.36008333762136" lon="13.532680559541665" id="-89285">
		<tag k="name" v="Storbuslåtten" />
		<tag k="place" v="locality" />
		<tag k="ssr:stedsnr" v="681065" />
	</node>
	<node lat="64.47117222118617" lon="13.585449991777097" id="-89286">
		<tag k="name" v="Krokslåtten" />
		<tag k="place" v="locality" />
		<tag k="ssr:stedsnr" v="681206" />
	</node>
	<node lat="64.2295888910969" lon="13.74433056581969" id="-89293">
		<tag k="name" v="Devikseteren" />
		<tag k="place" v="locality" />
		<tag k="ssr:stedsnr" v="681868" />
	</node>
	<node lat="64.65758610774417" lon="13.68974443862603" id="-89313">
		<tag k="name" v="Tilberg" />
		<tag k="place" v="farm" />
		<tag k="ssr:stedsnr" v="682464" />
	</node>
	<node lat="64.43763611126504" lon="13.624725000664814" id="-89314">
		<tag k="name" v="Alveland" />
		<tag k="place" v="farm" />
		<tag k="ssr:stedsnr" v="682162" />
	</node>
	<node lat="64.73364444110106" lon="13.480652778455248" id="-89318">
		<tag k="name" v="Furutangvika" />
		<tag k="place" v="farm" />
		<tag k="ssr:stedsnr" v="682306" />
	</node>
	<node lat="64.25699167006452" lon="13.71700833486151" id="-89322">
		<tag k="alt_name" v="Totland midtre" />
		<tag k="name" v="Midtre Totland" />
		<tag k="place" v="farm" />
		<tag k="ssr:stedsnr" v="693832" />
	</node>
	<node lat="64.55993333602484" lon="13.709400009546053" id="-89334">
		<tag k="historic" v="shieling" />
		<tag k="name" v="Austgårdsseteren" />
		<tag k="place" v="isolated_dwelling" />
		<tag k="ssr:stedsnr" v="714907" />
	</node>
	<node lat="64.18679722264372" lon="13.737422214687566" id="-89358">
		<tag k="alt_name" v="Inderdalen øvre" />
		<tag k="name" v="Øvre Inderdalen" />
		<tag k="place" v="farm" />
		<tag k="ssr:stedsnr" v="715729" />
	</node>
	<node lat="64.46528333005813" lon="13.592486115005578" id="-89369">
		<tag k="name" v="Sandvika" />
		<tag k="place" v="quarter" />
		<tag k="ssr:stedsnr" v="889443" />
	</node>
	<node lat="64.23521666977699" lon="13.409002769635977" id="-89370">
		<tag k="fixme" v="consider tourism=alpine_hut or tourism=chalet" />
		<tag k="name" v="Lakavasshytta" />
		<tag k="ssr:stedsnr" v="725883" />
		<tag k="tourism" v="wilderness_hut" />
	</node>
	<node lat="64.25670000033222" lon="13.717002779874226" id="-89380">
		<tag k="fixme" v="consider place=hamlet" />
		<tag k="name" v="Totland" />
		<tag k="place" v="farm" />
		<tag k="ssr:stedsnr" v="741004" />
	</node>
	<node lat="64.27311666551006" lon="13.680169445035006" id="-89382">
		<tag k="fixme" v="consider place=hamlet" />
		<tag k="name" v="Ulland" />
		<tag k="place" v="farm" />
		<tag k="ssr:stedsnr" v="741015" />
	</node>
	<node lat="64.50178611514042" lon="13.911166674704743" id="-89394">
		<tag k="name" v="Viklund" />
		<tag k="place" v="isolated_dwelling" />
		<tag k="ssr:stedsnr" v="742206" />
	</node>
	<node lat="64.47038888658703" lon="13.694905555459663" id="-89398">
		<tag k="name" v="Storkringla" />
		<tag k="place" v="locality" />
		<tag k="ssr:stedsnr" v="742201" />
	</node>
	<node lat="64.43953889088016" lon="13.896602768106423" id="-89400">
		<tag k="name" v="Jakthuset" />
		<tag k="place" v="isolated_dwelling" />
		<tag k="ssr:stedsnr" v="742742" />
	</node>
	<node lat="64.22631666974993" lon="13.826683333558398" id="-89404">
		<tag k="fixme" v="consider place=hamlet" />
		<tag k="name" v="Østnor" />
		<tag k="place" v="farm" />
		<tag k="ssr:stedsnr" v="742797" />
	</node>
	<node lat="64.5260138879595" lon="13.552699995995065" id="-89411">
		<tag k="name" v="Skutbakk" />
		<tag k="place" v="farm" />
		<tag k="ssr:stedsnr" v="743048" />
	</node>
	<node lat="64.18280000459549" lon="13.716116663779333" id="-89453">
		<tag k="name" v="Ytterdalen" />
		<tag k="place" v="farm" />
		<tag k="ssr:stedsnr" v="897695" />
	</node>
	<node lat="64.65403611285875" lon="13.49122500284011" id="-89497">
		<tag k="name" v="Sandtangen" />
		<tag k="place" v="isolated_dwelling" />
		<tag k="ssr:stedsnr" v="776230" />
	</node>
	<node lat="64.10286667049591" lon="14.013674993866795" id="-89516">
		<tag k="name" v="Vestvik" />
		<tag k="place" v="farm" />
		<tag k="ssr:stedsnr" v="776663" />
	</node>
	<node lat="64.1012333298587" lon="14.008991662309533" id="-89517">
		<tag k="name" v="Sandnes" />
		<tag k="place" v="farm" />
		<tag k="ssr:stedsnr" v="776666" />
	</node>
	<node lat="64.39025277686463" lon="13.692669448108242" id="-89519">
		<tag k="name" v="Nyheim" />
		<tag k="place" v="farm" />
		<tag k="ssr:stedsnr" v="776672" />
	</node>
	<node lat="64.27158679162412" lon="13.684331517848543" id="-89528">
		<tag k="alt_name" v="Myrmo" />
		<tag k="name" v="Myrmoen" />
		<tag k="place" v="farm" />
		<tag k="ssr:stedsnr" v="802008" />
	</node>
	<node lat="64.27024166369465" lon="13.57539999309142" id="-89530">
		<tag k="historic" v="shieling" />
		<tag k="name" v="Gusliseteren" />
		<tag k="place" v="isolated_dwelling" />
		<tag k="ssr:stedsnr" v="802016" />
	</node>
	<node lat="64.27876666754902" lon="13.670552786505967" id="-89531">
		<tag k="name" v="Sandmoen" />
		<tag k="place" v="farm" />
		<tag k="ssr:stedsnr" v="802019" />
	</node>
	<node lat="64.44547363963866" lon="13.697402954166991" id="-89533">
		<tag k="name" v="Risberg" />
		<tag k="place" v="farm" />
		<tag k="ssr:stedsnr" v="802208" />
	</node>
	<node lat="64.4450295345082" lon="13.702577991520222" id="-89534">
		<tag k="alt_name" v="Nybo" />
		<tag k="name" v="Nybu" />
		<tag k="place" v="farm" />
		<tag k="ssr:stedsnr" v="802210" />
	</node>
	<node lat="64.45336944133994" lon="13.826238890542115" id="-89555">
		<tag k="name" v="Vollan" />
		<tag k="place" v="farm" />
		<tag k="ssr:stedsnr" v="803773" />
	</node>
	<node lat="64.24095833485227" lon="13.85667777521542" id="-89558">
		<tag k="historic" v="shieling" />
		<tag k="name" v="Estilseteren" />
		<tag k="place" v="isolated_dwelling" />
		<tag k="ssr:stedsnr" v="803859" />
	</node>
	<node lat="64.25721388695436" lon="13.714961105309769" id="-89572">
		<tag k="name" v="Totland" />
		<tag k="place" v="hamlet" />
		<tag k="ssr:stedsnr" v="815108" />
	</node>
	<node lat="64.2270583291172" lon="13.817250007740018" id="-89575">
		<tag k="name" v="Freland" />
		<tag k="place" v="farm" />
		<tag k="ssr:stedsnr" v="815928" />
	</node>
	<node lat="64.68381111443661" lon="13.649277773615205" id="-89592">
		<tag k="fixme" v="consider place=hamlet" />
		<tag k="name" v="Tunnsjøen" />
		<tag k="place" v="farm" />
		<tag k="ssr:stedsnr" v="910587" />
	</node>
	<node lat="64.18679722264372" lon="13.737422214687566" id="-89606">
		<tag k="fixme" v="consider place=hamlet" />
		<tag k="name" v="Inderdalen" />
		<tag k="place" v="farm" />
		<tag k="ssr:stedsnr" v="849905" />
	</node>
	<node lat="64.4483972260591" lon="13.655075007982173" id="-89610">
		<tag k="name" v="Eidesmoen" />
		<tag k="place" v="farm" />
		<tag k="ssr:stedsnr" v="863162" />
	</node>
	<node lat="64.45412499853768" lon="13.601983327005831" id="-89611">
		<tag k="name" v="Lindal" />
		<tag k="place" v="farm" />
		<tag k="ssr:stedsnr" v="863164" />
	</node>
	<node lat="64.42574722180593" lon="13.816733334109687" id="-89619">
		<tag k="alt_name" v="Nyork" />
		<tag k="name" v="Nyjork" />
		<tag k="place" v="isolated_dwelling" />
		<tag k="ssr:stedsnr" v="863746" />
	</node>
	<node lat="64.46105278037574" lon="13.41970832380653" id="-89634">
		<tag k="name" v="Nordset" />
		<tag k="place" v="farm" />
		<tag k="ssr:stedsnr" v="864152" />
	</node>
	<node lat="64.5070250011026" lon="13.683780564516415" id="-89652">
		<tag k="name" v="Harrbekkvollen" />
		<tag k="place" v="farm" />
		<tag k="ssr:stedsnr" v="865004" />
	</node>
	<node lat="64.52227777621195" lon="13.686655553262156" id="-89653">
		<tag k="fixme" v="consider place=hamlet" />
		<tag k="name" v="Kvelia" />
		<tag k="place" v="farm" />
		<tag k="ssr:stedsnr" v="865040" />
	</node>
	<node lat="64.51822500021747" lon="13.673783337542169" id="-89654">
		<tag k="name" v="Haugen" />
		<tag k="place" v="farm" />
		<tag k="ssr:stedsnr" v="865044" />
	</node>
	<node lat="64.4947166631789" lon="13.410325007244829" id="-89663">
		<tag k="name" v="Trøbakk" />
		<tag k="place" v="farm" />
		<tag k="ssr:stedsnr" v="875758" />
	</node>
	<node lat="64.48175006779088" lon="13.316640581487356" id="-89711">
		<tag k="name" v="Sandmoen" />
		<tag k="place" v="farm" />
		<tag k="ssr:stedsnr" v="924168" />
	</node>
	<node lat="64.22113888930784" lon="13.84318333827485" id="-89729">
		<tag k="name" v="Skogenget" />
		<tag k="place" v="farm" />
		<tag k="ssr:stedsnr" v="924879" />
	</node>
	<node lat="64.7436027807564" lon="13.732505551734027" id="-89731">
		<tag k="name" v="Austvika" />
		<tag k="place" v="farm" />
		<tag k="ssr:stedsnr" v="925019" />
	</node>
	<node lat="64.42153332933046" lon="13.548499998902868" id="-89734">
		<tag k="historic" v="shieling" />
		<tag k="name" v="Djupvassetran" />
		<tag k="place" v="isolated_dwelling" />
		<tag k="ssr:stedsnr" v="925166" />
	</node>
	<node lat="64.63316849719672" lon="13.62794287752789" id="-89737">
		<tag k="historic" v="shieling" />
		<tag k="name" v="Linmoseteren" />
		<tag k="place" v="isolated_dwelling" />
		<tag k="ssr:stedsnr" v="925416" />
	</node>
	<node lat="64.6467416642187" lon="13.710308339710647" id="-89742">
		<tag k="name" v="Vollmoen" />
		<tag k="place" v="farm" />
		<tag k="ssr:stedsnr" v="925472" />
	</node>
	<node lat="64.65148333550641" lon="13.680713887750453" id="-89744">
		<tag k="name" v="Nynes" />
		<tag k="place" v="farm" />
		<tag k="ssr:stedsnr" v="925476" />
	</node>
	<node lat="64.65147777617643" lon="13.665000002436887" id="-89745">
		<tag k="alt_name" v="Tjønnmoen" />
		<tag k="name" v="Tjørnmoen" />
		<tag k="place" v="farm" />
		<tag k="ssr:stedsnr" v="925477" />
	</node>
	<node lat="64.48139166458229" lon="13.309938884371942" id="-89750">
		<tag k="name" v="Sandmoen" />
		<tag k="place" v="hamlet" />
		<tag k="ssr:stedsnr" v="936696" />
	</node>
	<node lat="64.50887222383389" lon="13.815280555191286" id="-89783">
		<tag k="name" v="Melbo" />
		<tag k="place" v="farm" />
		<tag k="ssr:stedsnr" v="958842" />
	</node>
	<node lat="64.51128889255246" lon="13.819325006446705" id="-89791">
		<tag k="fixme" v="consider place=hamlet" />
		<tag k="name" v="Kvemoen" />
		<tag k="place" v="farm" />
		<tag k="ssr:stedsnr" v="970657" />
	</node>
	<node lat="64.51055555722101" lon="13.819175003258106" id="-89792">
		<tag k="name" v="Kvemoen" />
		<tag k="place" v="hamlet" />
		<tag k="ssr:stedsnr" v="970660" />
	</node>
	<node lat="64.1479267078205" lon="13.95343620798123" id="-89793">
		<tag k="name" v="Skålseteren" />
		<tag k="place" v="farm" />
		<tag k="ssr:stedsnr" v="974250" />
	</node>
	<node lat="64.44109171796575" lon="13.639289368809656" id="-89794">
		<tag k="name" v="Sørgården" />
		<tag k="place" v="farm" />
		<tag k="ssr:stedsnr" v="974251" />
	</node>
	<node lat="64.17974167065697" lon="13.737874990370207" id="-89812">
		<tag k="name" v="Lundemo" />
		<tag k="place" v="farm" />
		<tag k="ssr:stedsnr" v="256961" />
	</node>
	<node lat="64.10242500105892" lon="13.926183327645818" id="-89815">
		<tag k="name" v="Skogli" />
		<tag k="place" v="farm" />
		<tag k="ssr:stedsnr" v="257801" />
	</node>
	<node lat="64.53216666553203" lon="13.32281665891327" id="-89817">
		<tag k="name" v="Arnbygget" />
		<tag k="place" v="farm" />
		<tag k="ssr:stedsnr" v="257048" />
	</node>
	<node lat="64.50704166727537" lon="13.879513897120177" id="-89822">
		<tag k="name" v="Harrtangen" />
		<tag k="place" v="isolated_dwelling" />
		<tag k="ssr:stedsnr" v="257237" />
	</node>
	<node lat="64.28418055327313" lon="13.64063056451433" id="-89829">
		<tag k="name" v="Botnmoen" />
		<tag k="place" v="farm" />
		<tag k="ssr:stedsnr" v="13059" />
	</node>
	<node lat="64.45785833442292" lon="13.597297212683465" id="-89830">
		<tag k="name" v="Engan" />
		<tag k="place" v="farm" />
		<tag k="ssr:stedsnr" v="13179" />
	</node>
	<node lat="64.21218055847356" lon="13.586888889786836" id="-89834">
		<tag k="name" v="Bergli" />
		<tag k="place" v="farm" />
		<tag k="ssr:stedsnr" v="13790" />
	</node>
	<node lat="64.43649721822455" lon="13.577333332030122" id="-89843">
		<tag k="name" v="Hevlan" />
		<tag k="place" v="locality" />
		<tag k="ssr:stedsnr" v="14121" />
	</node>
	<node lat="64.28991944277587" lon="13.59992499661393" id="-89848">
		<tag k="historic" v="shieling" />
		<tag k="name" v="Ullandseteren" />
		<tag k="place" v="isolated_dwelling" />
		<tag k="ssr:stedsnr" v="14036" />
	</node>
	<node lat="64.68446388988222" lon="13.752350005444876" id="-89852">
		<tag k="name" v="Limingdalen" />
		<tag k="place" v="isolated_dwelling" />
		<tag k="ssr:stedsnr" v="14196" />
	</node>
	<node lat="64.48917500198102" lon="13.461994442215518" id="-89853">
		<tag k="name" v="Rønningen" />
		<tag k="place" v="farm" />
		<tag k="ssr:stedsnr" v="14197" />
	</node>
	<node lat="64.49059166688228" lon="13.47929721209139" id="-89855">
		<tag k="alt_name" v="Lønset" />
		<tag k="name" v="Lønnset" />
		<tag k="place" v="farm" />
		<tag k="ssr:stedsnr" v="14199" />
	</node>
	<node lat="64.6631194431978" lon="13.662013897301053" id="-89859">
		<tag k="name" v="Sørmoen" />
		<tag k="place" v="farm" />
		<tag k="ssr:stedsnr" v="14332" />
	</node>
	<node lat="64.2259638912213" lon="13.476086121733632" id="-89861">
		<tag k="name" v="Tjalsætra" />
		<tag k="place" v="locality" />
		<tag k="ssr:stedsnr" v="14779" />
	</node>
	<node lat="64.23584166664236" lon="13.778258333803345" id="-89880">
		<tag k="alt_name" v="Køysletta" />
		<tag k="name" v="Koisletta" />
		<tag k="place" v="isolated_dwelling" />
		<tag k="ssr:stedsnr" v="14841" />
	</node>
	<node lat="64.22172777959304" lon="13.791102770065647" id="-89881">
		<tag k="historic" v="shieling" />
		<tag k="name" v="Frelandseteren" />
		<tag k="place" v="isolated_dwelling" />
		<tag k="ssr:stedsnr" v="14885" />
	</node>
	<node lat="64.13271110821242" lon="14.088855558459146" id="-89884">
		<tag k="name" v="Rødmo" />
		<tag k="place" v="farm" />
		<tag k="ssr:stedsnr" v="14977" />
	</node>
	<node lat="64.16954444078942" lon="13.849216674395597" id="-89888">
		<tag k="name" v="Ness" />
		<tag k="place" v="farm" />
		<tag k="ssr:stedsnr" v="14945" />
	</node>
	<node lat="64.44561049996152" lon="13.615835741099884" id="-89921">
		<tag k="name" v="Breistrand hyttefelt" />
		<tag k="place" v="neighbourhood" />
		<tag k="ssr:stedsnr" v="39386" />
	</node>
	<node lat="64.12242222472102" lon="13.89040833711882" id="-89940">
		<tag k="historic" v="shieling" />
		<tag k="name" v="Sørsundseteren" />
		<tag k="place" v="isolated_dwelling" />
		<tag k="ssr:stedsnr" v="48063" />
	</node>
	<node lat="64.2072694415514" lon="13.554697219500294" id="-89967">
		<tag k="historic" v="shieling" />
		<tag k="name" v="Bjørvollsetern" />
		<tag k="place" v="isolated_dwelling" />
		<tag k="ssr:stedsnr" v="48864" />
	</node>
	<node lat="64.45903611157802" lon="13.463286114885056" id="-89973">
		<tag k="name" v="Tossåsen" />
		<tag k="place" v="hamlet" />
		<tag k="ssr:stedsnr" v="60558" />
	</node>
	<node lat="64.36988124834716" lon="13.637190296090314" id="-89978">
		<tag k="name" v="Økstjønnåsen" />
		<tag k="place" v="farm" />
		<tag k="ssr:stedsnr" v="74082" />
	</node>
	<node lat="64.58048611040594" lon="13.503030557807527" id="-90000">
		<tag k="name" v="Norddalshytta" />
		<tag k="place" v="isolated_dwelling" />
		<tag k="ssr:stedsnr" v="75082" />
	</node>
	<node lat="64.41006666463083" lon="13.462608334499219" id="-90002">
		<tag k="name" v="Åslåtten" />
		<tag k="place" v="locality" />
		<tag k="ssr:stedsnr" v="75096" />
	</node>
	<node lat="64.46854444596032" lon="13.551838886770339" id="-90005">
		<tag k="name" v="Støbakken" />
		<tag k="place" v="farm" />
		<tag k="ssr:stedsnr" v="75205" />
	</node>
	<node lat="64.47459722471704" lon="13.579563891940504" id="-90006">
		<tag k="historic" v="shieling" />
		<tag k="name" v="Knutgårdsseteren" />
		<tag k="place" v="isolated_dwelling" />
		<tag k="ssr:stedsnr" v="75208" />
	</node>
	<node lat="64.65630833530777" lon="13.494091663785277" id="-90028">
		<tag k="name" v="Geitseteren" />
		<tag k="place" v="isolated_dwelling" />
		<tag k="ssr:stedsnr" v="75481" />
	</node>
	<node lat="64.41817500356237" lon="14.004480560875963" id="-90032">
		<tag k="name" v="Fiskløyshytta" />
		<tag k="place" v="isolated_dwelling" />
		<tag k="ssr:stedsnr" v="75829" />
	</node>
	<node lat="64.17056389159352" lon="13.85073611959129" id="-90046">
		<tag k="name" v="Strand" />
		<tag k="place" v="farm" />
		<tag k="ssr:stedsnr" v="75969" />
	</node>
	<node lat="64.16379166788572" lon="13.874863889289099" id="-90047">
		<tag k="name" v="Skåle" />
		<tag k="place" v="hamlet" />
		<tag k="ssr:stedsnr" v="75970" />
	</node>
	<node lat="64.78681666642458" lon="13.693286104838027" id="-90049">
		<tag k="historic" v="shieling" />
		<tag k="name" v="Devikseteren" />
		<tag k="place" v="isolated_dwelling" />
		<tag k="ssr:stedsnr" v="76343" />
	</node>
	<node lat="64.26636666575148" lon="13.689505555890074" id="-90055">
		<tag k="name" v="Pe-piltabygget" />
		<tag k="place" v="locality" />
		<tag k="ssr:stedsnr" v="86844" />
	</node>
	<node lat="64.47986944684412" lon="13.510347214009842" id="-90062">
		<tag k="historic" v="shieling" />
		<tag k="name" v="Småvollseteren" />
		<tag k="place" v="isolated_dwelling" />
		<tag k="ssr:stedsnr" v="87796" />
	</node>
	<node lat="64.27779444814865" lon="13.671969435729249" id="-90065">
		<tag k="name" v="Bruem" />
		<tag k="place" v="isolated_dwelling" />
		<tag k="ssr:stedsnr" v="87835" />
	</node>
	<node lat="64.49037905123002" lon="13.456884213552758" id="-90067">
		<tag k="name" v="Brattland" />
		<tag k="place" v="farm" />
		<tag k="ssr:stedsnr" v="100133" />
	</node>
	<node lat="64.17380833753866" lon="13.638961114274425" id="-90087">
		<tag k="name" v="Håløldalstuggu" />
		<tag k="place" v="isolated_dwelling" />
		<tag k="ssr:stedsnr" v="108759" />
	</node>
	<node lat="64.48654444824744" lon="13.187344452082701" id="-90104">
		<tag k="name" v="Ny Gosen" />
		<tag k="place" v="isolated_dwelling" />
		<tag k="ssr:stedsnr" v="109264" />
	</node>
	<node lat="64.28998055315742" lon="13.601208338707204" id="-90121">
		<tag k="name" v="Peseteren" />
		<tag k="place" v="isolated_dwelling" />
		<tag k="ssr:stedsnr" v="109855" />
	</node>
	<node lat="64.09688611488875" lon="14.037622232593865" id="-90122">
		<tag k="name" v="Ny-Rengen" />
		<tag k="place" v="farm" />
		<tag k="ssr:stedsnr" v="109646" />
	</node>
	<node lat="64.46724343751754" lon="13.586063220947011" id="-90126">
		<tag k="fixme" v="consider place=hamlet" />
		<tag k="name" v="Sandvika" />
		<tag k="place" v="farm" />
		<tag k="ssr:stedsnr" v="117016" />
	</node>
	<node lat="64.45821075324844" lon="13.465810440297169" id="-90130">
		<tag k="fixme" v="consider place=hamlet" />
		<tag k="name" v="Tossåsen" />
		<tag k="place" v="farm" />
		<tag k="ssr:stedsnr" v="121587" />
	</node>
	<node lat="64.04343611100502" lon="13.986725001433877" id="-90136">
		<tag k="fixme" v="consider place=hamlet" />
		<tag k="name" v="Nyborg" />
		<tag k="place" v="farm" />
		<tag k="ssr:stedsnr" v="134824" />
	</node>
	<node lat="64.20373888464744" lon="13.64306388821255" id="-90139">
		<tag k="name" v="Fjellheim" />
		<tag k="place" v="farm" />
		<tag k="ssr:stedsnr" v="134785" />
	</node>
	<node lat="64.21293055197305" lon="13.591058336018662" id="-90141">
		<tag k="name" v="Forberg" />
		<tag k="place" v="farm" />
		<tag k="ssr:stedsnr" v="134789" />
	</node>
	<node lat="64.33009722364874" lon="13.591508338573398" id="-90142">
		<tag k="fixme" v="consider place=hamlet" />
		<tag k="name" v="Aunet" />
		<tag k="place" v="farm" />
		<tag k="ssr:stedsnr" v="135031" />
	</node>
	<node lat="64.29051944669546" lon="13.640330562276212" id="-90144">
		<tag k="name" v="Bruvoll" />
		<tag k="place" v="farm" />
		<tag k="ssr:stedsnr" v="135038" />
	</node>
	<node lat="64.42534166224559" lon="13.480344453389222" id="-90148">
		<tag k="name" v="Sørnes" />
		<tag k="place" v="farm" />
		<tag k="ssr:stedsnr" v="135134" />
	</node>
	<node lat="64.20160277474014" lon="13.854238897517225" id="-90151">
		<tag k="name" v="Nordåkeren" />
		<tag k="place" v="locality" />
		<tag k="ssr:stedsnr" v="134945" />
	</node>
	<node lat="64.41255555970682" lon="13.707311106326223" id="-90153">
		<tag k="name" v="Luternessetran" />
		<tag k="place" v="isolated_dwelling" />
		<tag k="ssr:stedsnr" v="135095" />
	</node>
	<node lat="64.51224444843169" lon="13.736688887016184" id="-90154">
		<tag k="name" v="Skogset" />
		<tag k="place" v="farm" />
		<tag k="ssr:stedsnr" v="135206" />
	</node>
	<node lat="64.49527499585423" lon="13.397741674231149" id="-90156">
		<tag k="name" v="Vestgården" />
		<tag k="place" v="farm" />
		<tag k="ssr:stedsnr" v="135212" />
	</node>
	<node lat="64.49121586097536" lon="13.457281180841509" id="-90162">
		<tag k="alt_name" v="Bratland" />
		<tag k="fixme" v="consider place=hamlet" />
		<tag k="name" v="Brattland" />
		<tag k="place" v="farm" />
		<tag k="ssr:stedsnr" v="135229" />
	</node>
	<node lat="64.48692221787644" lon="13.495297230467154" id="-90163">
		<tag k="alt_name" v="Storeng" />
		<tag k="name" v="Storenga" />
		<tag k="place" v="farm" />
		<tag k="ssr:stedsnr" v="135233" />
	</node>
	<node lat="64.22986388448086" lon="13.801724998959795" id="-90169">
		<tag k="name" v="Høgsnesbakken" />
		<tag k="place" v="farm" />
		<tag k="ssr:stedsnr" v="135829" />
	</node>
	<node lat="64.2492638868028" lon="13.746866671992487" id="-90171">
		<tag k="name" v="Devika" />
		<tag k="place" v="farm" />
		<tag k="ssr:stedsnr" v="135838" />
	</node>
	<node lat="64.45545555865962" lon="13.834041671602257" id="-90173">
		<tag k="name" v="Vangen" />
		<tag k="place" v="farm" />
		<tag k="ssr:stedsnr" v="135744" />
	</node>
	<node lat="64.15734166867222" lon="14.109250003786096" id="-90174">
		<tag k="historic" v="shieling" />
		<tag k="name" v="Eidesseteren" />
		<tag k="place" v="isolated_dwelling" />
		<tag k="ssr:stedsnr" v="135930" />
	</node>
	<node lat="64.14915555321181" lon="13.7731638923737" id="-90175">
		<tag k="historic" v="shieling" />
		<tag k="name" v="Haugseteren" />
		<tag k="place" v="isolated_dwelling" />
		<tag k="ssr:stedsnr" v="135934" />
	</node>
	<node lat="64.17273333620635" lon="13.845838897832055" id="-90177">
		<tag k="name" v="Trøberg" />
		<tag k="place" v="farm" />
		<tag k="ssr:stedsnr" v="135944" />
	</node>
	<node lat="64.22465277897024" lon="13.830836121439113" id="-90189">
		<tag k="fixme" v="consider place=suburb, village or hamlet" />
		<tag k="name" v="Mebygda" />
		<tag k="place" v="quarter" />
		<tag k="ssr:stedsnr" v="135880" />
	</node>
	<node lat="64.51715000282937" lon="13.634816657878142" id="-90191">
		<tag k="name" v="Oldernes" />
		<tag k="place" v="locality" />
		<tag k="ssr:stedsnr" v="136040" />
	</node>
	<node lat="64.70713333307346" lon="13.589213887821808" id="-90196">
		<tag k="name" v="Sandnes" />
		<tag k="place" v="farm" />
		<tag k="ssr:stedsnr" v="136488" />
	</node>
	<node lat="64.77742500314423" lon="13.678141669477123" id="-90206">
		<tag k="name" v="Devika" />
		<tag k="place" v="farm" />
		<tag k="ssr:stedsnr" v="136373" />
	</node>
	<node lat="64.25070833281848" lon="13.738488887552077" id="-90207">
		<tag k="name" v="Rydningen" />
		<tag k="place" v="farm" />
		<tag k="ssr:stedsnr" v="146814" />
	</node>
	<node lat="64.25424999821917" lon="13.721124998439853" id="-90208">
		<tag k="name" v="Rydningen" />
		<tag k="place" v="farm" />
		<tag k="ssr:stedsnr" v="146816" />
	</node>
	<node lat="64.17727777529349" lon="14.046544448938315" id="-90245">
		<tag k="historic" v="shieling" />
		<tag k="name" v="Bakkeseteren" />
		<tag k="place" v="isolated_dwelling" />
		<tag k="ssr:stedsnr" v="169288" />
	</node>
	<node lat="64.16849999638967" lon="13.854027773736291" id="-90289">
		<tag k="name" v="Jule" />
		<tag k="place" v="hamlet" />
		<tag k="ssr:stedsnr" v="181915" />
	</node>
	<node lat="64.4464722247585" lon="13.708272216467249" id="-90290">
		<tag k="fixme" v="consider place=hamlet" />
		<tag k="name" v="Holand" />
		<tag k="place" v="farm" />
		<tag k="ssr:stedsnr" v="181933" />
	</node>
	<node lat="64.66730980180155" lon="13.49377330697087" id="-90320">
		<tag k="name" v="Austre Ingelsvatnet" />
		<tag k="place" v="locality" />
		<tag k="ssr:stedsnr" v="196378" />
	</node>
	<node lat="64.10825000137508" lon="13.980475002673371" id="-90328">
		<tag k="name" v="Rengen" />
		<tag k="place" v="farm" />
		<tag k="ssr:stedsnr" v="196767" />
	</node>
	<node lat="64.4222499972258" lon="13.869463897760902" id="-90329">
		<tag k="name" v="Hestkjøldalsstua" />
		<tag k="place" v="isolated_dwelling" />
		<tag k="ssr:stedsnr" v="196769" />
	</node>
	<node lat="64.23586110680303" lon="13.642697221490897" id="-90334">
		<tag k="alt_name" v="Tangsetern" />
		<tag k="name" v="Tangsætra" />
		<tag k="place" v="locality" />
		<tag k="ssr:stedsnr" v="196796" />
	</node>
	<node lat="64.14632499614237" lon="13.691491660784816" id="-90343">
		<tag k="alt_name" v="Brennmosetern" />
		<tag k="historic" v="shieling" />
		<tag k="loc_name" v="Brennmoseteren" />
		<tag k="name" v="Brennmosætra" />
		<tag k="place" v="isolated_dwelling" />
		<tag k="ssr:stedsnr" v="196826" />
	</node>
	<node lat="64.22690833618378" lon="13.823011101484719" id="-90344">
		<tag k="fixme" v="consider place=hamlet" />
		<tag k="name" v="Vestnor" />
		<tag k="place" v="farm" />
		<tag k="ssr:stedsnr" v="196840" />
	</node>
	<node lat="64.5175888931466" lon="13.668708339517655" id="-90349">
		<tag k="alt_name" v="Skogmo" />
		<tag k="name" v="Skogmoen" />
		<tag k="place" v="farm" />
		<tag k="ssr:stedsnr" v="197036" />
	</node>
	<node lat="64.5088916659469" lon="13.299900004788165" id="-90352">
		<tag k="name" v="Fredheim" />
		<tag k="place" v="farm" />
		<tag k="ssr:stedsnr" v="197060" />
	</node>
	<node lat="64.17376111185277" lon="14.087572230703724" id="-90354">
		<tag k="historic" v="shieling" />
		<tag k="name" v="Eidesseteren" />
		<tag k="place" v="isolated_dwelling" />
		<tag k="ssr:stedsnr" v="196946" />
	</node>
	<node lat="64.17305000222488" lon="13.84375277206025" id="-90356">
		<tag k="fixme" v="consider place=hamlet" />
		<tag k="name" v="Jule" />
		<tag k="place" v="farm" />
		<tag k="ssr:stedsnr" v="196958" />
	</node>
	<node lat="64.56171666848785" lon="13.550463884684635" id="-90364">
		<tag k="alt_name" v="Nordmo" />
		<tag k="name" v="Nordmoen" />
		<tag k="place" v="farm" />
		<tag k="ssr:stedsnr" v="197098" />
	</node>
	<node lat="64.22391666885423" lon="13.829091671972487" id="-90375">
		<tag k="alt_name" v="Østnor" />
		<tag k="name" v="Østre Østnor" />
		<tag k="place" v="farm" />
		<tag k="ssr:stedsnr" v="207907" />
	</node>
	<node lat="64.12716944255016" lon="13.891938890362049" id="-90377">
		<tag k="loc_name" v="Sundvik" />
		<tag k="name" v="Sundvika" />
		<tag k="place" v="farm" />
		<tag k="ssr:stedsnr" v="208082" />
	</node>
	<node lat="64.25378888732354" lon="13.722333334311136" id="-90387">
		<tag k="name" v="Brennmoen" />
		<tag k="place" v="farm" />
		<tag k="ssr:stedsnr" v="268831" />
	</node>
	<node lat="64.2863111153832" lon="13.656224997304474" id="-90395">
		<tag k="name" v="Aspneset" />
		<tag k="place" v="hamlet" />
		<tag k="ssr:stedsnr" v="269848" />
	</node>
	<node lat="64.44743889067757" lon="13.71421389598812" id="-90429">
		<tag k="name" v="Østre Holand" />
		<tag k="place" v="farm" />
		<tag k="ssr:stedsnr" v="290808" />
	</node>
	<node lat="64.32929167068265" lon="13.590297221997082" id="-90472">
		<tag k="name" v="Aunet" />
		<tag k="place" v="hamlet" />
		<tag k="ssr:stedsnr" v="303929" />
	</node>
	<node lat="64.44287777865807" lon="13.499636101121535" id="-90473">
		<tag k="name" v="Nesset" />
		<tag k="place" v="hamlet" />
		<tag k="ssr:stedsnr" v="303582" />
	</node>
	<node lat="64.39392777389165" lon="13.666602778600751" id="-90481">
		<tag k="fixme" v="consider place=hamlet" />
		<tag k="loc_name" v="Lauvsjølia" />
		<tag k="name" v="Løvsjølia" />
		<tag k="place" v="farm" />
		<tag k="ssr:stedsnr" v="317093" />
	</node>
	<node lat="64.52497998320733" lon="13.802684873604207" id="-90485">
		<tag k="alt_name" v="Nessan" />
		<tag k="name" v="Nesan" />
		<tag k="place" v="locality" />
		<tag k="ssr:stedsnr" v="317212" />
	</node>
	<node lat="64.49171944217106" lon="13.428466659566704" id="-90487">
		<tag k="name" v="Brattli" />
		<tag k="place" v="farm" />
		<tag k="ssr:stedsnr" v="317216" />
	</node>
	<node lat="64.49620000022468" lon="13.384805562348902" id="-90489">
		<tag k="name" v="Storaunet" />
		<tag k="place" v="farm" />
		<tag k="ssr:stedsnr" v="317218" />
	</node>
	<node lat="64.48571388551119" lon="13.36989445133287" id="-90491">
		<tag k="name" v="Hallvardsetran" />
		<tag k="place" v="isolated_dwelling" />
		<tag k="ssr:stedsnr" v="317226" />
	</node>
	<node lat="64.47915633295517" lon="13.508325811294704" id="-90494">
		<tag k="name" v="Kvernaunet" />
		<tag k="place" v="farm" />
		<tag k="ssr:stedsnr" v="317188" />
	</node>
	<node lat="64.47806667074808" lon="13.514505562307418" id="-90495">
		<tag k="name" v="Gran" />
		<tag k="place" v="farm" />
		<tag k="ssr:stedsnr" v="317193" />
	</node>
	<node lat="64.1209722242087" lon="13.559063897746213" id="-90500">
		<tag k="name" v="Trivasshytta" />
		<tag k="place" v="isolated_dwelling" />
		<tag k="ssr:stedsnr" v="317770" />
	</node>
	<node lat="64.30395555913508" lon="13.772033341324038" id="-90501">
		<tag k="historic" v="shieling" />
		<tag k="name" v="Godtjønnseteren" />
		<tag k="place" v="isolated_dwelling" />
		<tag k="ssr:stedsnr" v="317771" />
	</node>
	<node lat="64.14236111254964" lon="13.588313897627106" id="-90503">
		<tag k="name" v="Torvkoian" />
		<tag k="place" v="locality" />
		<tag k="ssr:stedsnr" v="317783" />
	</node>
	<node lat="64.22992222511108" lon="13.804608327421917" id="-90505">
		<tag k="name" v="Høgsneset" />
		<tag k="place" v="farm" />
		<tag k="ssr:stedsnr" v="317799" />
	</node>
	<node lat="64.51857499982515" lon="13.66762499637407" id="-90507">
		<tag k="name" v="Berg" />
		<tag k="place" v="farm" />
		<tag k="ssr:stedsnr" v="318032" />
	</node>
	<node lat="64.51755555789146" lon="13.70410833097769" id="-90508">
		<tag k="name" v="Nygård" />
		<tag k="place" v="farm" />
		<tag k="ssr:stedsnr" v="318033" />
	</node>
	<node lat="64.52315555801408" lon="13.364952783669832" id="-90510">
		<tag k="historic" v="shieling" />
		<tag k="name" v="Ringstadseteren" />
		<tag k="place" v="isolated_dwelling" />
		<tag k="ssr:stedsnr" v="318040" />
	</node>
	<node lat="64.22493333666448" lon="13.92631944630888" id="-90518">
		<tag k="name" v="Sommarvadet" />
		<tag k="place" v="locality" />
		<tag k="ssr:stedsnr" v="317868" />
	</node>
	<node lat="64.19105000317182" lon="13.865241670407622" id="-90521">
		<tag k="name" v="Julesseteren" />
		<tag k="place" v="locality" />
		<tag k="ssr:stedsnr" v="317893" />
	</node>
	<node lat="64.15110000373745" lon="14.024744441740125" id="-90524">
		<tag k="name" v="Austneset" />
		<tag k="place" v="farm" />
		<tag k="ssr:stedsnr" v="317990" />
	</node>
	<node lat="64.17387778189274" lon="14.029519449907124" id="-90530">
		<tag k="historic" v="shieling" />
		<tag k="name" v="Stuggunesseteran" />
		<tag k="place" v="isolated_dwelling" />
		<tag k="ssr:stedsnr" v="317947" />
	</node>
	<node lat="64.17583610824384" lon="13.758441665200003" id="-90531">
		<tag k="name" v="Ingeldalsbrenna" />
		<tag k="place" v="farm" />
		<tag k="ssr:stedsnr" v="317952" />
	</node>
	<node lat="64.6432696235691" lon="13.70358029759753" id="-90538">
		<tag k="name" v="Østnes" />
		<tag k="place" v="farm" />
		<tag k="ssr:stedsnr" v="318384" />
	</node>
	<node lat="64.66768888796794" lon="13.669983343060203" id="-90546">
		<tag k="name" v="Seterhaugen" />
		<tag k="place" v="farm" />
		<tag k="ssr:stedsnr" v="318466" />
	</node>
	<node lat="64.6655777763143" lon="13.661780564749794" id="-90547">
		<tag k="name" v="Østmoen" />
		<tag k="place" v="farm" />
		<tag k="ssr:stedsnr" v="318467" />
	</node>
	<node lat="64.42332500185422" lon="13.972477777046713" id="-90576">
		<tag k="fixme" v="consider tourism=alpine_hut or tourism=chalet" />
		<tag k="name" v="Raudberghytta" />
		<tag k="ssr:stedsnr" v="345355" />
		<tag k="tourism" v="wilderness_hut" />
	</node>
	<node lat="64.10725000118211" lon="14.04213332410932" id="-90602">
		<tag k="historic" v="shieling" />
		<tag k="name" v="Brennseteren" />
		<tag k="place" v="isolated_dwelling" />
		<tag k="ssr:stedsnr" v="351261" />
	</node>
	<node lat="64.41049428438687" lon="13.12614848459288" id="-90626">
		<tag k="fixme" v="consider tourism=alpine_hut or tourism=chalet" />
		<tag k="name" v="Almdalshytta" />
		<tag k="ssr:stedsnr" v="357786" />
		<tag k="tourism" v="wilderness_hut" />
	</node>
	<node lat="64.47853610816284" lon="13.891766657396095" id="-90636">
		<tag k="name" v="Limannvika" />
		<tag k="place" v="farm" />
		<tag k="ssr:stedsnr" v="377023" />
	</node>
	<node lat="64.2875527769945" lon="13.652158328829724" id="-90637">
		<tag k="name" v="Aspneset" />
		<tag k="place" v="farm" />
		<tag k="ssr:stedsnr" v="377047" />
	</node>
	<node lat="64.44654722639471" lon="13.696916666297644" id="-90643">
		<tag k="name" v="Brenna" />
		<tag k="place" v="farm" />
		<tag k="ssr:stedsnr" v="377157" />
	</node>
	<node lat="64.4415555566079" lon="13.639105547773427" id="-90644">
		<tag k="fixme" v="consider place=hamlet" />
		<tag k="name" v="Eidet" />
		<tag k="place" v="farm" />
		<tag k="ssr:stedsnr" v="377159" />
	</node>
	<node lat="64.07979166746368" lon="13.919236109850083" id="-90648">
		<tag k="historic" v="shieling" />
		<tag k="name" v="Pederseteren" />
		<tag k="place" v="isolated_dwelling" />
		<tag k="ssr:stedsnr" v="377739" />
	</node>
	<node lat="64.25470833599717" lon="13.719577777507322" id="-90655">
		<tag k="alt_name" v="Totlandsmo" />
		<tag k="name" v="Totland" />
		<tag k="place" v="farm" />
		<tag k="ssr:stedsnr" v="377814" />
	</node>
	<node lat="64.27803333647267" lon="13.729633338798301" id="-90656">
		<tag k="historic" v="shieling" />
		<tag k="name" v="Gamnausterliseteren" />
		<tag k="place" v="isolated_dwelling" />
		<tag k="ssr:stedsnr" v="377824" />
	</node>
	<node lat="64.19876389139598" lon="13.849636102790305" id="-90658">
		<tag k="historic" v="shieling" />
		<tag k="name" v="Åsaseteren" />
		<tag k="place" v="isolated_dwelling" />
		<tag k="ssr:stedsnr" v="377923" />
	</node>
	<node lat="64.55334187296762" lon="13.67312142735908" id="-90660">
		<tag k="name" v="Brennseteren" />
		<tag k="place" v="locality" />
		<tag k="ssr:stedsnr" v="378043" />
	</node>
	<node lat="64.34289722627778" lon="13.618738882044436" id="-90663">
		<tag k="name" v="Fagvollsetran" />
		<tag k="place" v="isolated_dwelling" />
		<tag k="ssr:stedsnr" v="378064" />
	</node>
	<node lat="64.4180222186433" lon="13.627875000671596" id="-90667">
		<tag k="alt_name" v="Bygset" />
		<tag k="name" v="Byggset" />
		<tag k="place" v="locality" />
		<tag k="ssr:stedsnr" v="378144" />
	</node>
	<node lat="64.48820555702189" lon="13.494188890671518" id="-90672">
		<tag k="name" v="Hegglund" />
		<tag k="place" v="farm" />
		<tag k="ssr:stedsnr" v="378238" />
	</node>
	<node lat="64.33421111259206" lon="13.611330565003978" id="-90674">
		<tag k="name" v="Jenssetran" />
		<tag k="place" v="isolated_dwelling" />
		<tag k="ssr:stedsnr" v="378069" />
	</node>
	<node lat="64.4682888846944" lon="13.569066672378943" id="-90679">
		<tag k="name" v="Strand" />
		<tag k="place" v="farm" />
		<tag k="ssr:stedsnr" v="378205" />
	</node>
	<node lat="64.50979721831065" lon="13.817602786018647" id="-90681">
		<tag k="fixme" v="consider place=hamlet" />
		<tag k="name" v="Kvemoen" />
		<tag k="place" v="farm" />
		<tag k="ssr:stedsnr" v="378212" />
	</node>
	<node lat="64.51662499623592" lon="13.718516658659773" id="-90683">
		<tag k="name" v="Kvebrenna" />
		<tag k="place" v="farm" />
		<tag k="ssr:stedsnr" v="378219" />
	</node>
	<node lat="64.63562222176508" lon="13.697936119364346" id="-90687">
		<tag k="name" v="Nordgård" />
		<tag k="place" v="farm" />
		<tag k="ssr:stedsnr" v="378393" />
	</node>
	<node lat="64.64908889318306" lon="13.624499994885493" id="-90690">
		<tag k="name" v="Fjellmoen" />
		<tag k="place" v="farm" />
		<tag k="ssr:stedsnr" v="378448" />
	</node>
	<node lat="64.67158333437453" lon="13.675091661115006" id="-90691">
		<tag k="name" v="Solberg" />
		<tag k="place" v="farm" />
		<tag k="ssr:stedsnr" v="378468" />
	</node>
	<node lat="64.10995000236535" lon="13.981213883995505" id="-90695">
		<tag k="name" v="Oppgard" />
		<tag k="place" v="farm" />
		<tag k="ssr:stedsnr" v="378813" />
	</node>
	<node lat="64.22637500236377" lon="13.842374999847914" id="-90696">
		<tag k="name" v="Estilrønningen" />
		<tag k="place" v="farm" />
		<tag k="ssr:stedsnr" v="378908" />
	</node>
	<node lat="64.22028610858365" lon="13.830566666515347" id="-90697">
		<tag k="name" v="Ness" />
		<tag k="place" v="farm" />
		<tag k="ssr:stedsnr" v="378912" />
	</node>
	<node lat="64.24255000230947" lon="13.903697212665756" id="-90701">
		<tag k="name" v="Gamjoseteren" />
		<tag k="place" v="locality" />
		<tag k="ssr:stedsnr" v="378866" />
	</node>
	<node lat="64.68420277387038" lon="13.645352771601397" id="-90709">
		<tag k="fixme" v="consider place=hamlet" />
		<tag k="name" v="Tunnsjøen" />
		<tag k="place" v="village" />
		<tag k="ssr:stedsnr" v="379464" />
	</node>
	<node lat="64.46472777436907" lon="13.37248055775623" id="-90722">
		<tag k="historic" v="shieling" />
		<tag k="name" v="Storbakkseteren" />
		<tag k="place" v="isolated_dwelling" />
		<tag k="ssr:stedsnr" v="390774" />
	</node>
	<node lat="64.47059444182095" lon="13.530930556768327" id="-90730">
		<tag k="name" v="Støvika hyttefelt" />
		<tag k="place" v="neighbourhood" />
		<tag k="ssr:stedsnr" v="403427" />
	</node>
	<node lat="64.49137500237744" lon="13.41008056170026" id="-90797">
		<tag k="fixme" v="multiple name tags, choose one and add the other to alt_name" />
		<tag k="name" v="Brattlandsmoen;Skjeldbreia" />
		<tag k="place" v="farm" />
		<tag k="ssr:stedsnr" v="438230" />
	</node>
	<node lat="64.058202567168" lon="13.790828259038664" id="-90800">
		<tag k="fixme" v="consider tourism=alpine_hut or tourism=chalet" />
		<tag k="name" v="Arvasslihytta" />
		<tag k="old_name" v="Arvaslihytta" />
		<tag k="ssr:stedsnr" v="438786" />
		<tag k="tourism" v="wilderness_hut" />
	</node>
	<node lat="64.20891111332348" lon="13.937691670815772" id="-90806">
		<tag k="historic" v="shieling" />
		<tag k="name" v="Gårdtjønnseteren" />
		<tag k="place" v="isolated_dwelling" />
		<tag k="ssr:stedsnr" v="438930" />
	</node>
	<node lat="64.16093333730447" lon="13.875183329931636" id="-90809">
		<tag k="name" v="Svebakken" />
		<tag k="place" v="farm" />
		<tag k="ssr:stedsnr" v="438950" />
	</node>
	<node lat="64.16643333414716" lon="13.714447221894416" id="-90819">
		<tag k="alt_name" v="Bengtsetern" />
		<tag k="name" v="Bengtsætra" />
		<tag k="place" v="isolated_dwelling" />
		<tag k="ssr:stedsnr" v="438843" />
	</node>
	<node lat="64.15423055644563" lon="14.020966661627773" id="-90821">
		<tag k="alt_name" v="Nordnes" />
		<tag k="name" v="Nordneset" />
		<tag k="place" v="farm" />
		<tag k="ssr:stedsnr" v="438996" />
	</node>
	<node lat="64.23326388852766" lon="13.858191657330792" id="-90823">
		<tag k="historic" v="shieling" />
		<tag k="name" v="Gambrennseteren" />
		<tag k="place" v="isolated_dwelling" />
		<tag k="ssr:stedsnr" v="439871" />
	</node>
	<node lat="64.24336211067097" lon="13.765756914121331" id="-90828">
		<tag k="name" v="Granheim" />
		<tag k="place" v="farm" />
		<tag k="ssr:stedsnr" v="439884" />
	</node>
	<node lat="64.46867777999151" lon="13.559324995984435" id="-90839">
		<tag k="name" v="Lund" />
		<tag k="place" v="farm" />
		<tag k="ssr:stedsnr" v="439185" />
	</node>
	<node lat="64.10228333748844" lon="14.015544440610412" id="-90851">
		<tag k="name" v="Sagvika" />
		<tag k="place" v="farm" />
		<tag k="ssr:stedsnr" v="439786" />
	</node>
	<node lat="64.10869402042242" lon="13.976095445963894" id="-90854">
		<tag k="name" v="Nergård" />
		<tag k="place" v="farm" />
		<tag k="ssr:stedsnr" v="439795" />
	</node>
	<node lat="64.15800555239977" lon="14.05939167363465" id="-90861">
		<tag k="name" v="Bakken" />
		<tag k="place" v="farm" />
		<tag k="ssr:stedsnr" v="439842" />
	</node>
	<node lat="64.22277500443566" lon="13.82988610760328" id="-90862">
		<tag k="name" v="Sletten" />
		<tag k="place" v="farm" />
		<tag k="ssr:stedsnr" v="439909" />
	</node>
	<node lat="64.53677777756157" lon="13.67395832754804" id="-90869">
		<tag k="name" v="Nesmoen" />
		<tag k="place" v="farm" />
		<tag k="ssr:stedsnr" v="440089" />
	</node>
	<node lat="64.21454444258305" lon="13.58581666352687" id="-90872">
		<tag k="name" v="Berglia" />
		<tag k="place" v="farm" />
		<tag k="ssr:stedsnr" v="440048" />
	</node>
	<node lat="64.49116944257459" lon="13.426547220155083" id="-90873">
		<tag k="alt_name" v="Bratlandsmoen" />
		<tag k="name" v="Brattlandsmoen" />
		<tag k="place" v="farm" />
		<tag k="ssr:stedsnr" v="481016" />
	</node>
	<node lat="64.2274752670957" lon="13.831270062376658" id="-90882">
		<tag k="name" v="Estil" />
		<tag k="place" v="hamlet" />
		<tag k="ssr:stedsnr" v="485914" />
	</node>
	<node lat="64.2480055588759" lon="13.752108329222589" id="-90883">
		<tag k="name" v="Devika" />
		<tag k="place" v="hamlet" />
		<tag k="ssr:stedsnr" v="485917" />
	</node>
	<node lat="64.48511111091202" lon="14.026652774157457" id="-90885">
		<tag k="fixme" v="consider place=hamlet" />
		<tag k="name" v="Murumoen" />
		<tag k="place" v="farm" />
		<tag k="ssr:stedsnr" v="499020" />
	</node>
	<node lat="64.38810555879131" lon="13.714586113364756" id="-90892">
		<tag k="historic" v="shieling" />
		<tag k="name" v="Hovdseteren" />
		<tag k="place" v="isolated_dwelling" />
		<tag k="ssr:stedsnr" v="499075" />
	</node>
	<node lat="64.45612222154243" lon="13.59914445149327" id="-90894">
		<tag k="name" v="Nordstrand" />
		<tag k="place" v="farm" />
		<tag k="ssr:stedsnr" v="499125" />
	</node>
	<node lat="64.49111111085419" lon="13.423386103163873" id="-90902">
		<tag k="name" v="Skjelstad" />
		<tag k="place" v="farm" />
		<tag k="ssr:stedsnr" v="499178" />
	</node>
	<node lat="64.20691666866917" lon="13.553511120530226" id="-90912">
		<tag k="historic" v="shieling" />
		<tag k="name" v="Berglisætra" />
		<tag k="place" v="isolated_dwelling" />
		<tag k="ssr:stedsnr" v="499751" />
	</node>
	<node lat="64.21435833368295" lon="13.584855547013566" id="-90913">
		<tag k="name" v="Bergset" />
		<tag k="place" v="farm" />
		<tag k="ssr:stedsnr" v="499752" />
	</node>
	<node lat="64.10418055832157" lon="13.924933339480335" id="-90928">
		<tag k="name" v="Skogmo" />
		<tag k="place" v="farm" />
		<tag k="ssr:stedsnr" v="499723" />
	</node>
	<node lat="64.1510944422079" lon="14.017244450577826" id="-90939">
		<tag k="fixme" v="multiple name tags, choose one and add the other to alt_name" />
		<tag k="loc_name" v="Stugguneset" />
		<tag k="name" v="Sørneset;Stugguneset" />
		<tag k="place" v="farm" />
		<tag k="ssr:stedsnr" v="499994" />
	</node>
	<node lat="64.22076111363528" lon="13.962427788102461" id="-90947">
		<tag k="historic" v="shieling" />
		<tag k="name" v="Gravklumpseteren" />
		<tag k="place" v="isolated_dwelling" />
		<tag k="ssr:stedsnr" v="499883" />
	</node>
	<node lat="64.16747499726901" lon="13.866366673933909" id="-90948">
		<tag k="name" v="Juleshaugen" />
		<tag k="place" v="farm" />
		<tag k="ssr:stedsnr" v="499952" />
	</node>
	<node lat="64.11088332952677" lon="13.841791665757684" id="-90951">
		<tag k="name" v="Tobakksgrubba" />
		<tag k="place" v="locality" />
		<tag k="ssr:stedsnr" v="499975" />
	</node>
	<node lat="64.52204999915006" lon="13.326355562595317" id="-90957">
		<tag k="name" v="Tovvollen" />
		<tag k="place" v="locality" />
		<tag k="ssr:stedsnr" v="500074" />
	</node>
	<node lat="64.28479722481029" lon="13.658022224434868" id="-90992">
		<tag k="name" v="Ullandsmo" />
		<tag k="place" v="farm" />
		<tag k="ssr:stedsnr" v="512866" />
	</node>
	<node lat="64.22269999999484" lon="13.839005550951955" id="-90993">
		<tag k="name" v="Mebygda boligfelt" />
		<tag k="place" v="quarter" />
		<tag k="ssr:stedsnr" v="525445" />
	</node>
	<node lat="64.38788055575067" lon="13.62772500979512" id="-90994">
		<tag k="name" v="Vestre Løvsjølia hyttefelt" />
		<tag k="place" v="neighbourhood" />
		<tag k="ssr:stedsnr" v="525447" />
	</node>
	<node lat="64.22775277471385" lon="13.456163895412208" id="-91028">
		<tag k="name" v="Pe-Jakobsakoia" />
		<tag k="place" v="isolated_dwelling" />
		<tag k="ssr:stedsnr" v="533825" />
	</node>
	<node lat="64.18563333317624" lon="13.737194441900417" id="-91033">
		<tag k="alt_name" v="Inderdalen østre" />
		<tag k="name" v="Østre Inderdalen" />
		<tag k="place" v="farm" />
		<tag k="ssr:stedsnr" v="533740" />
	</node>
	<node lat="64.66676944619924" lon="13.489533340051995" id="-91041">
		<tag k="name" v="Ingelsvatnet" />
		<tag k="place" v="farm" />
		<tag k="ssr:stedsnr" v="540556" />
	</node>
	<node lat="64.44658611415282" lon="13.709500005769874" id="-91047">
		<tag k="name" v="Vestre Holand" />
		<tag k="place" v="farm" />
		<tag k="ssr:stedsnr" v="545925" />
	</node>
	<node lat="64.27303888713503" lon="13.587986120847534" id="-91049">
		<tag k="historic" v="shieling" />
		<tag k="name" v="Mattisseteren" />
		<tag k="place" v="isolated_dwelling" />
		<tag k="ssr:stedsnr" v="559011" />
	</node>
	<node lat="64.44740653548402" lon="13.712609965161214" id="-91058">
		<tag k="fixme" v="consider place=hamlet" />
		<tag k="name" v="Holand" />
		<tag k="place" v="village" />
		<tag k="ssr:stedsnr" v="559123" />
	</node>
	<node lat="64.44745833207494" lon="13.717605556340708" id="-91059">
		<tag k="fixme" v="consider place=hamlet" />
		<tag k="name" v="Holand" />
		<tag k="place" v="farm" />
		<tag k="ssr:stedsnr" v="559125" />
	</node>
	<node lat="64.48919722650639" lon="13.329947226118174" id="-91062">
		<tag k="historic" v="shieling" />
		<tag k="name" v="Oternesseteren" />
		<tag k="place" v="isolated_dwelling" />
		<tag k="ssr:stedsnr" v="559222" />
	</node>
	<node lat="64.18872778150651" lon="13.894663893336018" id="-91065">
		<tag k="historic" v="shieling" />
		<tag k="name" v="Juleshaugseteren" />
		<tag k="place" v="isolated_dwelling" />
		<tag k="ssr:stedsnr" v="559908" />
	</node>
	<node lat="64.19970278000238" lon="13.626002783648195" id="-91069">
		<tag k="alt_name" v="Jersåssætra, nedre" />
		<tag k="fixme" v="multiple name tags, choose one and add the other to alt_name" />
		<tag k="name" v="Nersetern;Nedre Jersåssætra" />
		<tag k="place" v="locality" />
		<tag k="ssr:stedsnr" v="559770" />
	</node>
	<node lat="64.21391944553626" lon="13.585980551897782" id="-91070">
		<tag k="fixme" v="consider place=hamlet" />
		<tag k="name" v="Berglia" />
		<tag k="place" v="farm" />
		<tag k="ssr:stedsnr" v="559780" />
	</node>
	<node lat="64.24003889029687" lon="13.773155553737944" id="-91077">
		<tag k="name" v="Gåsbakken" />
		<tag k="place" v="farm" />
		<tag k="ssr:stedsnr" v="559864" />
	</node>
	<node lat="64.52881111404231" lon="13.335438893358692" id="-91090">
		<tag k="name" v="Åttem" />
		<tag k="place" v="farm" />
		<tag k="ssr:stedsnr" v="560040" />
	</node>
	<node lat="64.16582778008205" lon="13.70354999948506" id="-91094">
		<tag k="alt_name" v="Vollmosetern" />
		<tag k="historic" v="shieling" />
		<tag k="loc_name" v="Vollmoseteren" />
		<tag k="name" v="Vollmosætra" />
		<tag k="place" v="isolated_dwelling" />
		<tag k="ssr:stedsnr" v="559837" />
	</node>
	<node lat="64.43745277650407" lon="13.635977781924401" id="-91104">
		<tag k="alt_name" v="Strømvollen" />
		<tag k="name" v="Straumvollen" />
		<tag k="place" v="isolated_dwelling" />
		<tag k="ssr:stedsnr" v="560127" />
	</node>
	<node lat="64.72907499789291" lon="13.486983335861797" id="-91105">
		<tag k="name" v="Granli" />
		<tag k="place" v="farm" />
		<tag k="ssr:stedsnr" v="560270" />
	</node>
	<node lat="64.6442805523914" lon="13.700069443137663" id="-91108">
		<tag k="fixme" v="consider place=hamlet" />
		<tag k="loc_name" v="Tunnsjøsenter" />
		<tag k="name" v="Tunnsjø senter" />
		<tag k="place" v="village" />
		<tag k="ssr:stedsnr" v="560379" />
	</node>
	<node lat="64.50988610836261" lon="13.751786102461107" id="-91111">
		<tag k="name" v="Kvetangen" />
		<tag k="place" v="farm" />
		<tag k="ssr:stedsnr" v="560218" />
	</node>
	<node lat="64.69388055919568" lon="13.732127778880574" id="-91113">
		<tag k="name" v="Fjellvang" />
		<tag k="place" v="farm" />
		<tag k="ssr:stedsnr" v="560233" />
	</node>
	<node lat="64.64723055452313" lon="13.572669438943954" id="-91116">
		<tag k="name" v="Grubbmoen" />
		<tag k="place" v="farm" />
		<tag k="ssr:stedsnr" v="560436" />
	</node>
	<node lat="64.24937500412308" lon="13.742752780251182" id="-91139">
		<tag k="name" v="Bjørkås" />
		<tag k="place" v="farm" />
		<tag k="ssr:stedsnr" v="571846" />
	</node>
	<node lat="64.50813055484387" lon="13.678877785865847" id="-91200">
		<tag k="name" v="Harmoen" />
		<tag k="place" v="farm" />
		<tag k="ssr:stedsnr" v="594981" />
	</node>
	<node lat="64.27097500444496" lon="13.505769440807846" id="-91208">
		<tag k="historic" v="shieling" />
		<tag k="name" v="Storvikseteren" />
		<tag k="place" v="isolated_dwelling" />
		<tag k="ssr:stedsnr" v="620009" />
	</node>
	<node lat="64.47000555649856" lon="14.009466664110796" id="-91209">
		<tag k="name" v="Murubekkhytta" />
		<tag k="place" v="isolated_dwelling" />
		<tag k="ssr:stedsnr" v="620016" />
	</node>
	<node lat="64.48908333189368" lon="13.78595556200763" id="-91210">
		<tag k="name" v="Kvemohytta" />
		<tag k="place" v="isolated_dwelling" />
		<tag k="ssr:stedsnr" v="620021" />
	</node>
	<node lat="64.39811388529495" lon="13.478680564278381" id="-91214">
		<tag k="fixme" v="multiple name tags, choose one and add the other to alt_name" />
		<tag k="name" v="Skogenga;Tisvasseteren" />
		<tag k="place" v="isolated_dwelling" />
		<tag k="ssr:stedsnr" v="620097" />
	</node>
	<node lat="64.45829474542064" lon="13.461630796850974" id="-91218">
		<tag k="fixme" v="consider place=hamlet" />
		<tag k="name" v="Tossåsen" />
		<tag k="place" v="farm" />
		<tag k="ssr:stedsnr" v="620151" />
	</node>
	<node lat="64.18383055374791" lon="13.720111113012425" id="-91228">
		<tag k="name" v="Vollmoen" />
		<tag k="place" v="farm" />
		<tag k="ssr:stedsnr" v="620894" />
	</node>
	<node lat="64.19825957669485" lon="14.011989484667854" id="-91229">
		<tag k="historic" v="shieling" />
		<tag k="name" v="Bakkesseteren" />
		<tag k="place" v="isolated_dwelling" />
		<tag k="ssr:stedsnr" v="620895" />
	</node>
	<node lat="64.19896111009658" lon="13.804041673680144" id="-91230">
		<tag k="historic" v="shieling" />
		<tag k="name" v="Larsarntsa-seteren" />
		<tag k="place" v="isolated_dwelling" />
		<tag k="ssr:stedsnr" v="620900" />
	</node>
	<node lat="64.10166111192932" lon="14.009963886954544" id="-91234">
		<tag k="name" v="Storbergvika" />
		<tag k="place" v="hamlet" />
		<tag k="ssr:stedsnr" v="620738" />
	</node>
	<node lat="64.10717778229379" lon="13.989355554838106" id="-91239">
		<tag k="name" v="Brenna" />
		<tag k="place" v="farm" />
		<tag k="ssr:stedsnr" v="620755" />
	</node>
	<node lat="64.36078333584165" lon="13.73943333259033" id="-91240">
		<tag k="name" v="Nyseteren" />
		<tag k="place" v="locality" />
		<tag k="ssr:stedsnr" v="620759" />
	</node>
	<node lat="64.2088666645954" lon="13.618661112706329" id="-91242">
		<tag k="name" v="Jersåsen" />
		<tag k="place" v="farm" />
		<tag k="ssr:stedsnr" v="620767" />
	</node>
	<node lat="64.21317221991289" lon="13.842963885046444" id="-91248">
		<tag k="name" v="Lyngstad" />
		<tag k="place" v="farm" />
		<tag k="ssr:stedsnr" v="620869" />
	</node>
	<node lat="64.5283888908511" lon="13.538544450905237" id="-91249">
		<tag k="name" v="Nergården" />
		<tag k="place" v="farm" />
		<tag k="ssr:stedsnr" v="621036" />
	</node>
	<node lat="64.53000832963261" lon="13.542574991204129" id="-91254">
		<tag k="fixme" v="consider place=hamlet" />
		<tag k="name" v="Leirbakken" />
		<tag k="place" v="farm" />
		<tag k="ssr:stedsnr" v="621054" />
	</node>
	<node lat="64.56270833701811" lon="13.546397232452934" id="-91257">
		<tag k="name" v="Nordbakk" />
		<tag k="place" v="farm" />
		<tag k="ssr:stedsnr" v="621070" />
	</node>
	<node lat="64.64273333254876" lon="13.607063895878706" id="-91266">
		<tag k="name" v="Lyngås" />
		<tag k="place" v="farm" />
		<tag k="ssr:stedsnr" v="621459" />
	</node>
	<node lat="64.13220000096818" lon="14.087116671794012" id="-91270">
		<tag k="name" v="Eidet" />
		<tag k="place" v="farm" />
		<tag k="ssr:stedsnr" v="620971" />
	</node>
	<node lat="64.62297500000412" lon="13.614827770173367" id="-91276">
		<tag k="name" v="Skogsseteren" />
		<tag k="place" v="isolated_dwelling" />
		<tag k="ssr:stedsnr" v="621394" />
	</node>
	<node lat="64.4998611128636" lon="13.366452773469604" id="-91283">
		<tag k="name" v="Fagervik" />
		<tag k="place" v="farm" />
		<tag k="ssr:stedsnr" v="632745" />
	</node>
	<node lat="64.44614999994566" lon="13.677761109986857" id="-91287">
		<tag k="name" v="Leirbekknes" />
		<tag k="place" v="farm" />
		<tag k="ssr:stedsnr" v="632846" />
	</node>
	<node lat="64.22589999884107" lon="13.820233323094829" id="-91300">
		<tag k="name" v="Ånes" />
		<tag k="place" v="farm" />
		<tag k="ssr:stedsnr" v="632918" />
	</node>
	<node lat="64.43499678298208" lon="13.460563496535423" id="-91307">
		<tag k="name" v="Ånesseteren" />
		<tag k="place" v="farm" />
		<tag k="ssr:stedsnr" v="653133" />
	</node>
	<node lat="64.24162221823642" lon="13.365019441190707" id="-91336">
		<tag k="name" v="Malenakoia" />
		<tag k="place" v="isolated_dwelling" />
		<tag k="ssr:stedsnr" v="654829" />
	</node>
	<node lat="64.18319166889307" lon="13.722233328483545" id="-91342">
		<tag k="name" v="Eikdal" />
		<tag k="place" v="farm" />
		<tag k="ssr:stedsnr" v="654732" />
	</node>
	<node lat="64.22320000245152" lon="13.834816660777221" id="-91349">
		<tag k="amenity" v="school" />
		<tag k="name" v="Sørli skole" />
		<tag k="ssr:stedsnr" v="709292" />
	</node>
	<node lat="64.40424999738089" lon="13.467808343112907" id="-91367">
		<tag k="name" v="Gammpålseteren" />
		<tag k="place" v="isolated_dwelling" />
		<tag k="ssr:stedsnr" v="715146" />
	</node>
	<node lat="64.52165833500707" lon="13.686902770017971" id="-91397">
		<tag k="fixme" v="consider place=hamlet" />
		<tag k="name" v="Kvelia" />
		<tag k="place" v="village" />
		<tag k="ssr:stedsnr" v="728574" />
	</node>
	<node lat="64.5004333342837" lon="13.210466676520275" id="-91398">
		<tag k="name" v="Båsdalen" />
		<tag k="place" v="locality" />
		<tag k="ssr:stedsnr" v="728557" />
	</node>
	<node lat="64.4457138872251" lon="13.718150005207123" id="-91400">
		<tag k="name" v="Moen" />
		<tag k="place" v="farm" />
		<tag k="ssr:stedsnr" v="741157" />
	</node>
	<node lat="64.21661666471795" lon="13.504919441235806" id="-91404">
		<tag k="historic" v="shieling" />
		<tag k="loc_name" v="Bergliseteren" />
		<tag k="name" v="Berglisætra" />
		<tag k="place" v="isolated_dwelling" />
		<tag k="ssr:stedsnr" v="741828" />
	</node>
	<node lat="64.32593327124796" lon="13.594643573288858" id="-91414">
		<tag k="name" v="Kveaunet" />
		<tag k="place" v="farm" />
		<tag k="ssr:stedsnr" v="742028" />
	</node>
	<node lat="64.5367611126201" lon="13.78227500941169" id="-91417">
		<tag k="name" v="Fossdalsseteren" />
		<tag k="place" v="locality" />
		<tag k="ssr:stedsnr" v="742215" />
	</node>
	<node lat="64.43503611227995" lon="13.46038889393771" id="-91423">
		<tag k="alt_name" v="Åness" />
		<tag k="name" v="Ånes" />
		<tag k="place" v="farm" />
		<tag k="ssr:stedsnr" v="742120" />
	</node>
	<node lat="64.46285555121234" lon="13.592513887171643" id="-91426">
		<tag k="name" v="Heggvollen" />
		<tag k="place" v="farm" />
		<tag k="ssr:stedsnr" v="742153" />
	</node>
	<node lat="64.45062777699764" lon="13.403458330366055" id="-91427">
		<tag k="name" v="Nesåsen" />
		<tag k="place" v="farm" />
		<tag k="ssr:stedsnr" v="742160" />
	</node>
	<node lat="64.48998333188538" lon="13.445633341281805" id="-91432">
		<tag k="alt_name" v="Haugen" />
		<tag k="name" v="Brattlandseidet" />
		<tag k="place" v="farm" />
		<tag k="ssr:stedsnr" v="742232" />
	</node>
	<node lat="64.66579722668475" lon="13.497494437831744" id="-91434">
		<tag k="name" v="Nedre Ingelsvatnet" />
		<tag k="old_name" v="Ingelsvandet Østre" />
		<tag k="place" v="farm" />
		<tag k="ssr:stedsnr" v="742427" />
	</node>
	<node lat="64.1507722261524" lon="13.683897220844099" id="-91443">
		<tag k="alt_name" v="Sæterruet" />
		<tag k="name" v="Seterruet" />
		<tag k="place" v="locality" />
		<tag k="ssr:stedsnr" v="742815" />
	</node>
	<node lat="64.22876666561918" lon="13.811286105010357" id="-91448">
		<tag k="name" v="Friberg" />
		<tag k="place" v="farm" />
		<tag k="ssr:stedsnr" v="742834" />
	</node>
	<node lat="64.15817499982275" lon="13.880508328782643" id="-91450">
		<tag k="name" v="Bringebærbakken" />
		<tag k="place" v="farm" />
		<tag k="ssr:stedsnr" v="742959" />
	</node>
	<node lat="64.15595501154237" lon="13.883800922833604" id="-91451">
		<tag k="name" v="Brenna" />
		<tag k="place" v="farm" />
		<tag k="ssr:stedsnr" v="742960" />
	</node>
	<node lat="64.45207960300895" lon="13.81893871950988" id="-91453">
		<tag k="name" v="Setervollen" />
		<tag k="place" v="farm" />
		<tag k="ssr:stedsnr" v="742751" />
	</node>
	<node lat="64.23796944723715" lon="13.779536110629715" id="-91460">
		<tag k="name" v="Kvilås" />
		<tag k="place" v="farm" />
		<tag k="ssr:stedsnr" v="742862" />
	</node>
	<node lat="64.65395512009944" lon="13.673243805790731" id="-91473">
		<tag k="name" v="Norheim" />
		<tag k="place" v="farm" />
		<tag k="ssr:stedsnr" v="754888" />
	</node>
	<node lat="64.24069444312384" lon="13.769780560684188" id="-91479">
		<tag k="alt_name" v="Gåsbakk" />
		<tag k="fixme" v="consider place=hamlet" />
		<tag k="name" v="Gåsbakken" />
		<tag k="place" v="village" />
		<tag k="ssr:stedsnr" v="754912" />
	</node>
	<node lat="64.2272429725523" lon="13.831478152832334" id="-91481">
		<tag k="alt_name" v="Estil nordre" />
		<tag k="name" v="Nordre Estil" />
		<tag k="place" v="farm" />
		<tag k="ssr:stedsnr" v="754922" />
	</node>
	<node lat="64.28523889351686" lon="13.654849993521108" id="-91483">
		<tag k="name" v="Storbakken" />
		<tag k="place" v="farm" />
		<tag k="ssr:stedsnr" v="754830" />
	</node>
	<node lat="64.68408888768231" lon="13.74739167317036" id="-91498">
		<tag k="name" v="Limingdalsplassen" />
		<tag k="place" v="locality" />
		<tag k="ssr:stedsnr" v="776500" />
	</node>
	<node lat="64.25731944324737" lon="13.855422229737872" id="-91516">
		<tag k="historic" v="shieling" />
		<tag k="name" v="Langpluttsetern" />
		<tag k="place" v="isolated_dwelling" />
		<tag k="ssr:stedsnr" v="776370" />
	</node>
	<node lat="64.06344166738207" lon="14.01683611747564" id="-91522">
		<tag k="name" v="Brenna" />
		<tag k="place" v="farm" />
		<tag k="ssr:stedsnr" v="776679" />
	</node>
	<node lat="64.44254722446361" lon="13.498394439730436" id="-91538">
		<tag k="fixme" v="consider place=hamlet" />
		<tag k="name" v="Nesset" />
		<tag k="place" v="farm" />
		<tag k="ssr:stedsnr" v="788567" />
	</node>
	<node lat="64.18345555778669" lon="13.730200006661645" id="-91539">
		<tag k="fixme" v="consider place=hamlet" />
		<tag k="name" v="Inderdal" />
		<tag k="place" v="village" />
		<tag k="ssr:stedsnr" v="788895" />
	</node>
	<node lat="64.49079166627322" lon="13.438797226278984" id="-91551">
		<tag k="name" v="Småvollan" />
		<tag k="place" v="farm" />
		<tag k="ssr:stedsnr" v="803251" />
	</node>
	<node lat="64.02958345746065" lon="13.83499112595796" id="-91555">
		<tag k="name" v="Arvasslia" />
		<tag k="place" v="locality" />
		<tag k="ssr:stedsnr" v="802830" />
	</node>
	<node lat="64.32116944075548" lon="13.775780549297634" id="-91557">
		<tag k="name" v="Langlihytta" />
		<tag k="place" v="isolated_dwelling" />
		<tag k="ssr:stedsnr" v="802844" />
	</node>
	<node lat="64.40016111134196" lon="13.500149995654768" id="-91567">
		<tag k="name" v="Tissvassetran" />
		<tag k="place" v="locality" />
		<tag k="ssr:stedsnr" v="803091" />
	</node>
	<node lat="64.29200000221692" lon="13.457352782950517" id="-91576">
		<tag k="name" v="Guslihytta" />
		<tag k="place" v="isolated_dwelling" />
		<tag k="ssr:stedsnr" v="803045" />
	</node>
	<node lat="64.22065000174007" lon="13.8402472227104" id="-91586">
		<tag k="name" v="Bruheim" />
		<tag k="place" v="farm" />
		<tag k="ssr:stedsnr" v="803894" />
	</node>
	<node lat="64.25708611167221" lon="13.855747228512344" id="-91602">
		<tag k="historic" v="shieling" />
		<tag k="name" v="Arntsetran" />
		<tag k="place" v="isolated_dwelling" />
		<tag k="ssr:stedsnr" v="803835" />
	</node>
	<node lat="64.1195666668552" lon="13.91918611424796" id="-91615">
		<tag k="historic" v="shieling" />
		<tag k="name" v="Sundseteren" />
		<tag k="place" v="isolated_dwelling" />
		<tag k="ssr:stedsnr" v="803979" />
	</node>
	<node lat="64.14356007712526" lon="13.943301528634494" id="-91617">
		<tag k="historic" v="shieling" />
		<tag k="name" v="Skålseteren" />
		<tag k="place" v="isolated_dwelling" />
		<tag k="ssr:stedsnr" v="803989" />
	</node>
	<node lat="64.15264999877873" lon="14.01635554712905" id="-91618">
		<tag k="name" v="Stugguneset" />
		<tag k="place" v="hamlet" />
		<tag k="ssr:stedsnr" v="803997" />
	</node>
	<node lat="64.13925832982571" lon="13.879486120733379" id="-91619">
		<tag k="name" v="Strømnes" />
		<tag k="place" v="farm" />
		<tag k="ssr:stedsnr" v="803998" />
	</node>
	<node lat="64.5512472260486" lon="13.618572227782048" id="-91626">
		<tag k="historic" v="shieling" />
		<tag k="name" v="Rømmervasseteren" />
		<tag k="place" v="isolated_dwelling" />
		<tag k="ssr:stedsnr" v="804092" />
	</node>
	<node lat="64.50471111301503" lon="13.347227780722077" id="-91628">
		<tag k="alt_name" v="Ågård vestre" />
		<tag k="name" v="Vestre Ågård" />
		<tag k="place" v="farm" />
		<tag k="ssr:stedsnr" v="814739" />
	</node>
	<node lat="64.48195555169222" lon="13.290558331929697" id="-91631">
		<tag k="historic" v="shieling" />
		<tag k="name" v="Sandmoseteren" />
		<tag k="place" v="isolated_dwelling" />
		<tag k="ssr:stedsnr" v="814719" />
	</node>
	<node lat="64.27704167079163" lon="13.67363332955639" id="-91639">
		<tag k="name" v="Ulland" />
		<tag k="place" v="farm" />
		<tag k="ssr:stedsnr" v="815849" />
	</node>
	<node lat="64.48491388764967" lon="13.404202768873942" id="-91645">
		<tag k="name" v="Kvennhusmoan hyttefelt" />
		<tag k="place" v="neighbourhood" />
		<tag k="ssr:stedsnr" v="829458" />
	</node>
	<node lat="64.70603611507482" lon="13.747522225535997" id="-91722">
		<tag k="fixme" v="consider place=hamlet" />
		<tag k="name" v="Limingen" />
		<tag k="place" v="farm" />
		<tag k="ssr:stedsnr" v="849631" />
	</node>
	<node lat="64.49654722100634" lon="13.40209721738869" id="-91726">
		<tag k="name" v="Fagerlia" />
		<tag k="place" v="farm" />
		<tag k="ssr:stedsnr" v="863228" />
	</node>
	<node lat="64.44644722627709" lon="13.668566658547846" id="-91729">
		<tag k="alt_name" v="Treviken" />
		<tag k="name" v="Trevika" />
		<tag k="place" v="farm" />
		<tag k="ssr:stedsnr" v="863189" />
	</node>
	<node lat="64.1633861086002" lon="13.871244437820044" id="-91733">
		<tag k="name" v="Sveet" />
		<tag k="place" v="farm" />
		<tag k="ssr:stedsnr" v="863953" />
	</node>
	<node lat="64.4450472238015" lon="13.721811108377093" id="-91735">
		<tag k="name" v="Holand" />
		<tag k="place" v="farm" />
		<tag k="ssr:stedsnr" v="863751" />
	</node>
	<node lat="64.24268333001685" lon="13.711302771286135" id="-91755">
		<tag k="name" v="Tangen" />
		<tag k="place" v="farm" />
		<tag k="ssr:stedsnr" v="864831" />
	</node>
	<node lat="64.62491111492953" lon="13.69120001072078" id="-91762">
		<tag k="alt_name" v="Veium" />
		<tag k="name" v="Veiem" />
		<tag k="place" v="farm" />
		<tag k="ssr:stedsnr" v="864441" />
	</node>
	<node lat="64.09081667029056" lon="13.96123334361852" id="-91765">
		<tag k="name" v="Blåbærtorpet" />
		<tag k="place" v="isolated_dwelling" />
		<tag k="ssr:stedsnr" v="864780" />
	</node>
	<node lat="64.52148610688361" lon="13.68889721732474" id="-91770">
		<tag k="alt_name" v="Vestgården" />
		<tag k="name" v="Jevrum" />
		<tag k="place" v="farm" />
		<tag k="ssr:stedsnr" v="865059" />
	</node>
	<node lat="64.243961110076" lon="13.763741658024433" id="-91781">
		<tag k="name" v="Kvam" />
		<tag k="place" v="farm" />
		<tag k="ssr:stedsnr" v="875888" />
	</node>
	<node lat="64.13858333312812" lon="13.875905560588183" id="-91786">
		<tag k="name" v="Sundvikskogen" />
		<tag k="place" v="farm" />
		<tag k="ssr:stedsnr" v="875938" />
	</node>
	<node lat="64.28108055334201" lon="13.52271111354786" id="-91789">
		<tag k="name" v="Bergslåtten" />
		<tag k="place" v="locality" />
		<tag k="ssr:stedsnr" v="924042" />
	</node>
	<node lat="64.30524999764967" lon="13.639747231504973" id="-91790">
		<tag k="historic" v="shieling" />
		<tag k="name" v="Storbakkseteren" />
		<tag k="place" v="isolated_dwelling" />
		<tag k="ssr:stedsnr" v="924047" />
	</node>
	<node lat="64.46436944065165" lon="13.822013894443492" id="-91799">
		<tag k="name" v="Nyseteren" />
		<tag k="place" v="locality" />
		<tag k="ssr:stedsnr" v="924009" />
	</node>
	<node lat="64.4637666695349" lon="13.591250006569519" id="-91803">
		<tag k="name" v="Sandvika" />
		<tag k="place" v="village" />
		<tag k="ssr:stedsnr" v="924134" />
	</node>
	<node lat="64.50459166452345" lon="13.350597217344982" id="-91809">
		<tag k="alt_name" v="Ågård østre" />
		<tag k="fixme" v="multiple name tags, choose one and add the other to alt_name" />
		<tag k="name" v="Ågarden;Østre Ågård" />
		<tag k="place" v="farm" />
		<tag k="ssr:stedsnr" v="925039" />
	</node>
	<node lat="64.28162499578993" lon="13.781972219131813" id="-91812">
		<tag k="historic" v="shieling" />
		<tag k="name" v="Møkkeltjønnseteren" />
		<tag k="place" v="isolated_dwelling" />
		<tag k="ssr:stedsnr" v="924799" />
	</node>
	<node lat="64.18368888924145" lon="13.732916660667176" id="-91815">
		<tag k="name" v="Brennmoen" />
		<tag k="place" v="farm" />
		<tag k="ssr:stedsnr" v="924896" />
	</node>
	<node lat="64.23665278047055" lon="13.96641666054594" id="-91827">
		<tag k="name" v="Strivasshytta" />
		<tag k="place" v="isolated_dwelling" />
		<tag k="ssr:stedsnr" v="924842" />
	</node>
	<node lat="64.17214402536236" lon="13.757353707282796" id="-91837">
		<tag k="name" v="Tovemoen" />
		<tag k="place" v="farm" />
		<tag k="ssr:stedsnr" v="924952" />
	</node>
	<node lat="64.52245277671122" lon="13.592041665879613" id="-91848">
		<tag k="name" v="Skogli" />
		<tag k="place" v="farm" />
		<tag k="ssr:stedsnr" v="925048" />
	</node>
	<node lat="64.5010222243121" lon="13.722788891078403" id="-91854">
		<tag k="historic" v="shieling" />
		<tag k="name" v="Kveseteren" />
		<tag k="place" v="isolated_dwelling" />
		<tag k="ssr:stedsnr" v="925242" />
	</node>
	<node lat="64.62630052476796" lon="13.683695983958774" id="-91863">
		<tag k="alt_name" v="Sagmo" />
		<tag k="name" v="Sagmoen" />
		<tag k="place" v="farm" />
		<tag k="ssr:stedsnr" v="925447" />
	</node>
	<node lat="64.46831944150541" lon="13.589666660067428" id="-91876">
		<tag k="name" v="Sandvika" />
		<tag k="place" v="farm" />
		<tag k="ssr:stedsnr" v="936790" />
	</node>
	<node lat="64.43323611432231" lon="13.921863889122502" id="-91893">
		<tag k="fixme" v="consider tourism=alpine_hut or tourism=chalet" />
		<tag k="name" v="Øvre Jakthytta" />
		<tag k="ssr:stedsnr" v="952377" />
		<tag k="tourism" v="wilderness_hut" />
	</node>
	<node lat="64.20457442936262" lon="13.643340896047986" id="-91956">
		<tag k="name" v="Gjertsgård" />
		<tag k="place" v="farm" />
		<tag k="ssr:stedsnr" v="974306" />
	</node>
	<node lat="64.5175238692563" lon="13.191725933946348" id="-92006">
		<tag k="name" v="Kviltjønnhytta" />
		<tag k="place" v="locality" />
		<tag k="ssr:stedsnr" v="981788" />
	</node>
</osm>
