<?xml version="1.0" encoding="UTF-8"?>
<osm version="0.6" generator="osmapis">
	<node lat="64.31893055642799" lon="13.730669436764007" id="-41392">
		<tag k="name" v="Fiskløysa" />
		<tag k="natural" v="water" />
		<tag k="ssr:stedsnr" v="230601" />
	</node>
	<node lat="64.49883888582885" lon="13.632755557625773" id="-41393">
		<tag k="name" v="Olderbekken" />
		<tag k="ssr:stedsnr" v="229770" />
		<tag k="waterway" v="stream" />
	</node>
	<node lat="64.09734721838731" lon="13.947272211489791" id="-41397">
		<tag k="name" v="Rengsvika" />
		<tag k="natural" v="bay" />
		<tag k="ssr:stedsnr" v="230149" />
	</node>
	<node lat="64.11065555894794" lon="13.92258610654103" id="-41401">
		<tag k="name" v="Flytningstangen" />
		<tag k="natural" v="cape" />
		<tag k="ssr:stedsnr" v="230127" />
	</node>
	<node lat="64.38490000027011" lon="13.457730555210725" id="-41402">
		<tag k="name" v="Godthåp" />
		<tag k="natural" v="cape" />
		<tag k="ssr:stedsnr" v="230219" />
	</node>
	<node lat="64.64325000047067" lon="13.559691674482991" id="-41404">
		<tag k="name" v="Rutjønnbekken" />
		<tag k="ssr:stedsnr" v="230235" />
		<tag k="waterway" v="stream" />
	</node>
	<node lat="64.54889722042492" lon="13.35856111273207" id="-41405">
		<tag k="name" v="Rørplutten" />
		<tag k="natural" v="water" />
		<tag k="ssr:stedsnr" v="230288" />
		<tag k="water" v="pond" />
	</node>
	<node lat="64.50065555975102" lon="13.91955000375004" id="-41406">
		<tag k="name" v="Byggesbekken" />
		<tag k="ssr:stedsnr" v="230290" />
		<tag k="waterway" v="stream" />
	</node>
	<node lat="64.17503610660292" lon="14.038705563147026" id="-41407">
		<tag k="name" v="Åkroken" />
		<tag k="natural" v="cape" />
		<tag k="ssr:stedsnr" v="230296" />
	</node>
	<node lat="64.39530000093147" lon="13.430974990866817" id="-41408">
		<tag k="name" v="Langvika" />
		<tag k="natural" v="bay" />
		<tag k="ssr:stedsnr" v="230241" />
	</node>
	<node lat="64.13654166944164" lon="14.076391668672933" id="-41409">
		<tag k="name" v="Noret" />
		<tag k="natural" v="water" />
		<tag k="ssr:stedsnr" v="230254" />
		<tag k="water" v="lake" />
	</node>
	<node lat="64.49272777922668" lon="13.269488892613833" id="-41411">
		<tag k="name" v="Otersjødammen" />
		<tag k="ssr:stedsnr" v="230257" />
		<tag k="waterway" v="dam" />
	</node>
	<node lat="64.5006361119941" lon="13.190925004274357" id="-41412">
		<tag k="name" v="Sisselfossen" />
		<tag k="natural" v="waterfall" />
		<tag k="ssr:stedsnr" v="230260" />
	</node>
	<node lat="64.49543889124604" lon="13.928405547542637" id="-41415">
		<tag k="name" v="Høgdplutten" />
		<tag k="natural" v="water" />
		<tag k="ssr:stedsnr" v="230358" />
		<tag k="water" v="pond" />
	</node>
	<node lat="64.48677221939629" lon="13.946611106063855" id="-41416">
		<tag k="name" v="Asptangen" />
		<tag k="natural" v="cape" />
		<tag k="ssr:stedsnr" v="230359" />
	</node>
	<node lat="64.20868332947552" lon="13.552944438439134" id="-41429">
		<tag k="name" v="Bjørvollneset" />
		<tag k="natural" v="cape" />
		<tag k="ssr:stedsnr" v="230859" />
	</node>
	<node lat="64.21320555198076" lon="13.559463884639719" id="-41430">
		<tag k="name" v="Fagmobekken" />
		<tag k="ssr:stedsnr" v="230860" />
		<tag k="waterway" v="stream" />
	</node>
	<node lat="64.03513055613833" lon="13.975716659210057" id="-41436">
		<tag k="name" v="Bågtjønna" />
		<tag k="natural" v="water" />
		<tag k="ssr:stedsnr" v="13805" />
	</node>
	<node lat="64.30940277684867" lon="13.751761109404212" id="-41437">
		<tag k="name" v="Godtjønna" />
		<tag k="natural" v="water" />
		<tag k="ssr:stedsnr" v="13825" />
	</node>
	<node lat="64.21544166868567" lon="13.79430555215435" id="-41438">
		<tag k="name" v="Langnesvika" />
		<tag k="natural" v="bay" />
		<tag k="ssr:stedsnr" v="13881" />
	</node>
	<node lat="64.45137222612041" lon="13.750661122054051" id="-41439">
		<tag k="name" v="Litltjønna" />
		<tag k="natural" v="water" />
		<tag k="ssr:stedsnr" v="14004" />
	</node>
	<node lat="64.47860555626157" lon="14.050269449880938" id="-41441">
		<tag k="name" v="Pilttangen" />
		<tag k="natural" v="cape" />
		<tag k="ssr:stedsnr" v="14010" />
	</node>
	<node lat="64.30616666370356" lon="13.546775003938295" id="-41442">
		<tag k="name" v="Fiskløystjønnin" />
		<tag k="natural" v="water" />
		<tag k="ssr:stedsnr" v="14020" />
	</node>
	<node lat="64.31858055513013" lon="13.485152774337033" id="-41443">
		<tag k="name" v="Piggtjønna" />
		<tag k="natural" v="water" />
		<tag k="ssr:stedsnr" v="14021" />
	</node>
	<node lat="64.20841110838936" lon="13.934136108315576" id="-41444">
		<tag k="name" v="Djuptjønna" />
		<tag k="natural" v="water" />
		<tag k="ssr:stedsnr" v="13933" />
	</node>
	<node lat="64.39274722614365" lon="13.503608326949397" id="-41445">
		<tag k="name" v="Storholmen" />
		<tag k="place" v="islet" />
		<tag k="ssr:stedsnr" v="14107" />
	</node>
	<node lat="64.39281388713279" lon="13.469941658463366" id="-41446">
		<tag k="alt_name" v="Berga" />
		<tag k="name" v="Joheimberget" />
		<tag k="natural" v="cape" />
		<tag k="ssr:stedsnr" v="14094" />
	</node>
	<node lat="64.32651111361821" lon="13.740825005819357" id="-41452">
		<tag k="name" v="Svarttjønna" />
		<tag k="natural" v="water" />
		<tag k="ssr:stedsnr" v="14775" />
	</node>
	<node lat="64.53736944375092" lon="13.462111111243003" id="-41454">
		<tag k="name" v="Hestbergtjønna" />
		<tag k="natural" v="water" />
		<tag k="ssr:stedsnr" v="15054" />
	</node>
	<node lat="64.55221388804206" lon="13.677822226956204" id="-41455">
		<tag k="name" v="Litltjønna" />
		<tag k="natural" v="water" />
		<tag k="ssr:stedsnr" v="15072" />
		<tag k="water" v="lake" />
	</node>
	<node lat="64.53489166455539" lon="13.236408328313065" id="-41456">
		<tag k="name" v="Stortjønna" />
		<tag k="natural" v="water" />
		<tag k="ssr:stedsnr" v="15073" />
	</node>
	<node lat="64.5814083330042" lon="13.597033324489248" id="-41457">
		<tag k="name" v="Lifjellbekken" />
		<tag k="ssr:stedsnr" v="15108" />
		<tag k="waterway" v="stream" />
	</node>
	<node lat="64.59160277850528" lon="13.47178055239441" id="-41459">
		<tag k="name" v="Elvkroken" />
		<tag k="place" v="locality" />
		<tag k="ssr:stedsnr" v="15120" />
	</node>
	<node lat="64.59804166361441" lon="13.583244438437228" id="-41460">
		<tag k="name" v="Råvatnet" />
		<tag k="natural" v="water" />
		<tag k="ssr:stedsnr" v="15125" />
		<tag k="water" v="lake" />
	</node>
	<node lat="64.68769999932498" lon="13.455175003254535" id="-41464">
		<tag k="name" v="Småholmvika" />
		<tag k="natural" v="bay" />
		<tag k="ssr:stedsnr" v="15512" />
	</node>
	<node lat="64.68262778167191" lon="13.424841659411149" id="-41465">
		<tag k="name" v="Fiskløystjønnin" />
		<tag k="natural" v="water" />
		<tag k="ssr:stedsnr" v="15515" />
	</node>
	<node lat="64.68736111203648" lon="13.624783334798146" id="-41466">
		<tag k="name" v="Tunnsjøøya" />
		<tag k="place" v="islet" />
		<tag k="ssr:stedsnr" v="15522" />
	</node>
	<node lat="64.46301388769734" lon="13.332405548803532" id="-41467">
		<tag k="name" v="Storfiskplutten" />
		<tag k="natural" v="water" />
		<tag k="ssr:stedsnr" v="25715" />
	</node>
	<node lat="64.49193333745829" lon="13.289211104592864" id="-41468">
		<tag k="name" v="Spiløra" />
		<tag k="natural" v="cape" />
		<tag k="ssr:stedsnr" v="25728" />
	</node>
	<node lat="64.22181666859473" lon="13.82045556369944" id="-41469">
		<tag k="name" v="Kvernelva" />
		<tag k="ssr:stedsnr" v="25926" />
		<tag k="waterway" v="stream" />
	</node>
	<node lat="64.43238333618922" lon="13.549038887593007" id="-41471">
		<tag k="name" v="Styggdalstjønna" />
		<tag k="natural" v="water" />
		<tag k="ssr:stedsnr" v="47088" />
	</node>
	<node lat="64.45162222041579" lon="13.40523055534776" id="-41473">
		<tag k="name" v="Botnan" />
		<tag k="natural" v="beach" />
		<tag k="ssr:stedsnr" v="47207" />
	</node>
	<node lat="64.44283889014426" lon="13.405938891008152" id="-41474">
		<tag k="name" v="Sørseterbekken" />
		<tag k="ssr:stedsnr" v="47208" />
		<tag k="waterway" v="stream" />
	</node>
	<node lat="64.54352500123976" lon="13.385088892960987" id="-41475">
		<tag k="name" v="Bjørkliplutten" />
		<tag k="natural" v="water" />
		<tag k="ssr:stedsnr" v="47214" />
		<tag k="water" v="pond" />
	</node>
	<node lat="64.22253888872005" lon="13.741877773607733" id="-41482">
		<tag k="name" v="Kampvollplutten" />
		<tag k="natural" v="water" />
		<tag k="ssr:stedsnr" v="47702" />
		<tag k="water" v="pond" />
	</node>
	<node lat="64.10600278025257" lon="13.87914167272776" id="-41484">
		<tag k="name" v="Midtifallet" />
		<tag k="natural" v="waterfall" />
		<tag k="ssr:stedsnr" v="48104" />
	</node>
	<node lat="64.38731944055927" lon="13.661552771650015" id="-41495">
		<tag k="name" v="Langtangen" />
		<tag k="natural" v="cape" />
		<tag k="ssr:stedsnr" v="48698" />
	</node>
	<node lat="64.70680277398385" lon="13.602794453224108" id="-41496">
		<tag k="name" v="Sagbekken" />
		<tag k="ssr:stedsnr" v="48804" />
		<tag k="waterway" v="stream" />
	</node>
	<node lat="64.26666389226237" lon="13.256394443271024" id="-41505">
		<tag k="name" v="Luruvatnet - Låartenjaevrie" />
		<tag k="name:no" v="Luruvatnet" />
		<tag k="name:sma" v="Låartenjaevrie" />
		<tag k="natural" v="water" />
		<tag k="ssr:stedsnr" v="74022" />
		<tag k="water" v="lake" />
	</node>
	<node lat="64.39102777404833" lon="13.656658326770955" id="-41508">
		<tag k="name" v="Sjurtjønna" />
		<tag k="natural" v="water" />
		<tag k="ssr:stedsnr" v="74113" />
	</node>
	<node lat="64.4477861114174" lon="13.460116666189508" id="-41510">
		<tag k="name" v="Lauvtangen" />
		<tag k="natural" v="cape" />
		<tag k="ssr:stedsnr" v="74156" />
	</node>
	<node lat="64.4394388893122" lon="13.61429166927495" id="-41511">
		<tag k="name" v="Eidesvika" />
		<tag k="natural" v="bay" />
		<tag k="ssr:stedsnr" v="74169" />
	</node>
	<node lat="64.2692388895498" lon="13.84507778180629" id="-41512">
		<tag k="name" v="Litlmustjønna" />
		<tag k="natural" v="water" />
		<tag k="ssr:stedsnr" v="74808" />
	</node>
	<node lat="64.14720555617396" lon="13.233036109722402" id="-41513">
		<tag k="name" v="Holmtjønna" />
		<tag k="natural" v="water" />
		<tag k="ssr:stedsnr" v="74810" />
	</node>
	<node lat="64.14735833455747" lon="13.7116416635709" id="-41515">
		<tag k="name" v="Skraptjønna" />
		<tag k="natural" v="water" />
		<tag k="ssr:stedsnr" v="74817" />
	</node>
	<node lat="64.20082222030884" lon="13.618886114533959" id="-41516">
		<tag k="alt_name" v="Kvernfossen" />
		<tag k="name" v="Kvennfossen" />
		<tag k="natural" v="waterfall" />
		<tag k="ssr:stedsnr" v="74753" />
	</node>
	<node lat="64.17080278085257" lon="14.049477786983969" id="-41518">
		<tag k="name" v="Pluttan" />
		<tag k="natural" v="water" />
		<tag k="ssr:stedsnr" v="74961" />
	</node>
	<node lat="64.55613055318686" lon="13.38892221862849" id="-41520">
		<tag k="name" v="Langtjønna" />
		<tag k="natural" v="water" />
		<tag k="ssr:stedsnr" v="75058" />
	</node>
	<node lat="64.34941666825024" lon="13.608758324953833" id="-41521">
		<tag k="name" v="Grunntjønna" />
		<tag k="natural" v="water" />
		<tag k="ssr:stedsnr" v="75060" />
	</node>
	<node lat="64.55943055997422" lon="13.49793610187586" id="-41522">
		<tag k="name" v="Seterbekken" />
		<tag k="ssr:stedsnr" v="75065" />
		<tag k="waterway" v="stream" />
	</node>
	<node lat="64.55221944455738" lon="13.439966656327671" id="-41523">
		<tag k="name" v="Grubbtjønna" />
		<tag k="natural" v="water" />
		<tag k="ssr:stedsnr" v="75072" />
	</node>
	<node lat="64.46918888634495" lon="13.46466943904719" id="-41524">
		<tag k="name" v="Floan" />
		<tag k="natural" v="water" />
		<tag k="ssr:stedsnr" v="75202" />
	</node>
	<node lat="64.46878055533148" lon="13.670022224837505" id="-41528">
		<tag k="alt_name" v="Krokuttjønna" />
		<tag k="name" v="Larvtjønna" />
		<tag k="natural" v="water" />
		<tag k="ssr:stedsnr" v="75214" />
	</node>
	<node lat="64.47420277655056" lon="13.711694444428261" id="-41529">
		<tag k="name" v="Magerrørtjønna" />
		<tag k="natural" v="water" />
		<tag k="ssr:stedsnr" v="75217" />
	</node>
	<node lat="64.50475833447675" lon="13.89331945182045" id="-41530">
		<tag k="name" v="Nysetersanden" />
		<tag k="natural" v="beach" />
		<tag k="ssr:stedsnr" v="75218" />
	</node>
	<node lat="64.4583500038458" lon="13.318233325922757" id="-41531">
		<tag k="name" v="Stortjønna" />
		<tag k="natural" v="water" />
		<tag k="ssr:stedsnr" v="75219" />
	</node>
	<node lat="64.59290277479758" lon="13.310202774899064" id="-41533">
		<tag k="name" v="Havdalsfjelltjønna - Vaellienjaevrie" />
		<tag k="name:no" v="Havdalsfjelltjønna" />
		<tag k="name:sma" v="Vaellienjaevrie" />
		<tag k="natural" v="water" />
		<tag k="ssr:stedsnr" v="75105" />
	</node>
	<node lat="64.6905666691357" lon="13.452894442950456" id="-41540">
		<tag k="name" v="Småholman" />
		<tag k="place" v="islet" />
		<tag k="ssr:stedsnr" v="75520" />
	</node>
	<node lat="64.09356389291919" lon="13.849119452976844" id="-41542">
		<tag k="name" v="Finnkrutjønna" />
		<tag k="natural" v="water" />
		<tag k="ssr:stedsnr" v="75807" />
	</node>
	<node lat="64.51013055859825" lon="13.329050003824486" id="-41545">
		<tag k="alt_name" v="Ågårdselva" />
		<tag k="name" v="Ågardselva" />
		<tag k="ssr:stedsnr" v="76058" />
		<tag k="waterway" v="river" />
	</node>
	<node lat="64.48564721993785" lon="13.283952769866415" id="-41548">
		<tag k="name" v="Sagelva" />
		<tag k="ssr:stedsnr" v="86722" />
		<tag k="waterway" v="stream" />
	</node>
	<node lat="64.24351389235247" lon="13.779977772119558" id="-41550">
		<tag k="name" v="Buktbekken" />
		<tag k="ssr:stedsnr" v="86904" />
		<tag k="waterway" v="stream" />
	</node>
	<node lat="64.45561388651953" lon="13.656580560739581" id="-41552">
		<tag k="name" v="Kvernbekken" />
		<tag k="ssr:stedsnr" v="86871" />
		<tag k="waterway" v="stream" />
	</node>
	<node lat="64.48686388756039" lon="13.57725000017382" id="-41560">
		<tag k="name" v="Beretplutten" />
		<tag k="natural" v="water" />
		<tag k="ssr:stedsnr" v="105130" />
		<tag k="water" v="pond" />
	</node>
	<node lat="64.50449166448732" lon="13.565238889747842" id="-41561">
		<tag k="name" v="Smaltjønna" />
		<tag k="natural" v="water" />
		<tag k="ssr:stedsnr" v="106122" />
	</node>
	<node lat="64.23229166893645" lon="13.715661119484317" id="-41564">
		<tag k="name" v="Devikplutten" />
		<tag k="natural" v="water" />
		<tag k="ssr:stedsnr" v="108678" />
		<tag k="water" v="pond" />
	</node>
	<node lat="64.4236138851173" lon="13.740452772416731" id="-41566">
		<tag k="name" v="Merkestangen" />
		<tag k="natural" v="cape" />
		<tag k="ssr:stedsnr" v="108805" />
	</node>
	<node lat="64.179424999144" lon="13.9426499946415" id="-41567">
		<tag k="name" v="Fredriktjønna" />
		<tag k="natural" v="water" />
		<tag k="ssr:stedsnr" v="109027" />
	</node>
	<node lat="64.49427777840064" lon="13.238286102745892" id="-41570">
		<tag k="name" v="Merkesplutten" />
		<tag k="natural" v="water" />
		<tag k="ssr:stedsnr" v="109269" />
		<tag k="water" v="pond" />
	</node>
	<node lat="64.61402499821149" lon="13.50535277377308" id="-41571">
		<tag k="name" v="Bustadbekken" />
		<tag k="ssr:stedsnr" v="109134" />
		<tag k="waterway" v="stream" />
	</node>
	<node lat="64.40680277851172" lon="13.440083323621838" id="-41574">
		<tag k="name" v="Storolatjønna" />
		<tag k="natural" v="water" />
		<tag k="ssr:stedsnr" v="109148" />
	</node>
	<node lat="64.28799166473931" lon="13.915866669966832" id="-41578">
		<tag k="name" v="Kjerringtjønna" />
		<tag k="natural" v="water" />
		<tag k="ssr:stedsnr" v="109405" />
	</node>
	<node lat="64.43966944092631" lon="13.423249995747087" id="-41592">
		<tag k="fixme" v="multiple name tags, choose one and add the other to alt_name" />
		<tag k="name" v="Merkesbekken;Ørvikbekken" />
		<tag k="ssr:stedsnr" v="134206" />
		<tag k="waterway" v="stream" />
	</node>
	<node lat="64.21520277720714" lon="13.839772216051788" id="-41595">
		<tag k="name" v="Østnorvika" />
		<tag k="natural" v="bay" />
		<tag k="ssr:stedsnr" v="134904" />
	</node>
	<node lat="64.26321944029105" lon="13.735511118282052" id="-41599">
		<tag k="name" v="Litlhopptjønna" />
		<tag k="natural" v="water" />
		<tag k="ssr:stedsnr" v="134866" />
	</node>
	<node lat="64.46506666366511" lon="13.774002782353113" id="-41600">
		<tag k="name" v="Kroktjønna" />
		<tag k="natural" v="water" />
		<tag k="ssr:stedsnr" v="135017" />
	</node>
	<node lat="64.76609166584755" lon="13.686455552789468" id="-41603">
		<tag k="name" v="Flåttåstokktangen" />
		<tag k="natural" v="cape" />
		<tag k="ssr:stedsnr" v="135335" />
	</node>
	<node lat="64.52078888944489" lon="13.73337221437871" id="-41608">
		<tag k="name" v="Smeddibekken" />
		<tag k="ssr:stedsnr" v="135216" />
		<tag k="waterway" v="stream" />
	</node>
	<node lat="64.48398610801577" lon="13.304755548932732" id="-41609">
		<tag k="name" v="Otersjøen" />
		<tag k="natural" v="water" />
		<tag k="ssr:stedsnr" v="135218" />
		<tag k="water" v="lake" />
	</node>
	<node lat="64.48392777409614" lon="13.271358334189232" id="-41610">
		<tag k="name" v="Sagelva" />
		<tag k="ssr:stedsnr" v="135225" />
		<tag k="waterway" v="stream" />
	</node>
	<node lat="64.6797305543195" lon="13.746013895777338" id="-41611">
		<tag k="name" v="Linvasselva - Lyjmededaelienjohke" />
		<tag k="name:no" v="Linvasselva" />
		<tag k="name:sma" v="Lyjmededaelienjohke" />
		<tag k="ssr:stedsnr" v="135227" />
		<tag k="waterway" v="river" />
	</node>
	<node lat="64.1762583295949" lon="14.047069451187102" id="-41621">
		<tag k="alt_name" v="Kvernelva" />
		<tag k="fixme" v="multiple name tags, choose one and add the other to alt_name" />
		<tag k="name" v="Beetnehgaejsienjohke;Kvennelva" />
		<tag k="ssr:stedsnr" v="135957" />
		<tag k="waterway" v="river" />
	</node>
	<node lat="64.54728333774321" lon="13.295949991086498" id="-41624">
		<tag k="fixme" v="multiple name tags, choose one and add the other to alt_name" />
		<tag k="name" v="Storflyin;Klingervassflyen" />
		<tag k="place" v="locality" />
		<tag k="ssr:stedsnr" v="136105" />
	</node>
	<node lat="64.51813611529326" lon="13.52157778195057" id="-41625">
		<tag k="name" v="Merkesbekken" />
		<tag k="ssr:stedsnr" v="136112" />
		<tag k="waterway" v="stream" />
	</node>
	<node lat="64.55054444446307" lon="13.482113899201353" id="-41626">
		<tag k="name" v="Småtjønnin" />
		<tag k="natural" v="water" />
		<tag k="ssr:stedsnr" v="136114" />
	</node>
	<node lat="64.62684167050985" lon="13.548772221067193" id="-41629">
		<tag k="name" v="Båsdalbekken" />
		<tag k="ssr:stedsnr" v="136422" />
		<tag k="waterway" v="stream" />
	</node>
	<node lat="64.20377777771397" lon="13.839830551617638" id="-41635">
		<tag k="name" v="Storvika" />
		<tag k="natural" v="bay" />
		<tag k="ssr:stedsnr" v="146918" />
	</node>
	<node lat="64.20463333513901" lon="13.838838880259209" id="-41636">
		<tag k="name" v="Lågmyrtangen" />
		<tag k="natural" v="cape" />
		<tag k="ssr:stedsnr" v="146920" />
	</node>
	<node lat="64.4270972229461" lon="13.651169439765523" id="-41645">
		<tag k="name" v="Svarttjønnvika" />
		<tag k="natural" v="bay" />
		<tag k="ssr:stedsnr" v="146862" />
	</node>
	<node lat="64.35567500372564" lon="13.713833335864923" id="-41647">
		<tag k="name" v="Skardstjønna" />
		<tag k="natural" v="water" />
		<tag k="ssr:stedsnr" v="256080" />
	</node>
	<node lat="64.40123611104977" lon="13.345397231563128" id="-41648">
		<tag k="name" v="Skardstjønnin" />
		<tag k="natural" v="water" />
		<tag k="ssr:stedsnr" v="256085" />
	</node>
	<node lat="64.4654833297215" lon="13.981399993560418" id="-41649">
		<tag k="name" v="Murubekken" />
		<tag k="ssr:stedsnr" v="256027" />
		<tag k="waterway" v="stream" />
	</node>
	<node lat="64.4518444440683" lon="13.722586107101579" id="-41650">
		<tag k="fixme" v="multiple name tags, choose one and add the other to alt_name" />
		<tag k="name" v="Mobekken;Sagbekken" />
		<tag k="ssr:stedsnr" v="256030" />
		<tag k="waterway" v="stream" />
	</node>
	<node lat="64.49325833684175" lon="13.877194440022201" id="-41652">
		<tag k="name" v="Langøya" />
		<tag k="place" v="islet" />
		<tag k="ssr:stedsnr" v="256041" />
	</node>
	<node lat="64.27695277993972" lon="13.662891665360755" id="-41654">
		<tag k="name" v="Ullandsholmen" />
		<tag k="place" v="islet" />
		<tag k="ssr:stedsnr" v="147805" />
	</node>
	<node lat="64.47528055738456" lon="13.367352767812012" id="-41661">
		<tag k="name" v="Styggdalsplutten" />
		<tag k="place" v="locality" />
		<tag k="ssr:stedsnr" v="256189" />
	</node>
	<node lat="64.48266944088606" lon="13.546041663063235" id="-41662">
		<tag k="name" v="Olderbekken" />
		<tag k="ssr:stedsnr" v="256190" />
		<tag k="waterway" v="stream" />
	</node>
	<node lat="64.75016667076501" lon="13.737941673863018" id="-41665">
		<tag k="name" v="Merkesbekken" />
		<tag k="ssr:stedsnr" v="149542" />
		<tag k="waterway" v="stream" />
	</node>
	<node lat="64.07873888810377" lon="13.703694438666467" id="-41668">
		<tag k="name" v="Sundet" />
		<tag k="natural" v="strait" />
		<tag k="ssr:stedsnr" v="256835" />
	</node>
	<node lat="64.43525000295337" lon="13.774899990490832" id="-41672">
		<tag k="alt_name" v="Storøya" />
		<tag k="name" v="Øya" />
		<tag k="place" v="islet" />
		<tag k="ssr:stedsnr" v="256725" />
	</node>
	<node lat="64.45517777508661" lon="14.023024998391191" id="-41673">
		<tag k="name" v="Fiskløysa - Aallerjohke" />
		<tag k="name:no" v="Fiskløysa" />
		<tag k="name:sma" v="Aallerjohke" />
		<tag k="ssr:stedsnr" v="256727" />
		<tag k="waterway" v="river" />
	</node>
	<node lat="64.4474499991807" lon="13.763225005195313" id="-41675">
		<tag k="name" v="Øybekken" />
		<tag k="ssr:stedsnr" v="256729" />
		<tag k="waterway" v="stream" />
	</node>
	<node lat="64.45433332941809" lon="13.83817777779163" id="-41676">
		<tag k="name" v="Kaldbekken" />
		<tag k="ssr:stedsnr" v="256733" />
		<tag k="waterway" v="stream" />
	</node>
	<node lat="64.42070833472323" lon="13.997808333638886" id="-41677">
		<tag k="name" v="Kjeppkinatjønnin" />
		<tag k="natural" v="water" />
		<tag k="ssr:stedsnr" v="256737" />
	</node>
	<node lat="64.2053333329846" lon="13.583380563909257" id="-41678">
		<tag k="name" v="Berglielva - Ohtjenjuananjohke" />
		<tag k="name:no" v="Berglielva" />
		<tag k="name:sma" v="Ohtjenjuananjohke" />
		<tag k="ssr:stedsnr" v="256742" />
		<tag k="waterway" v="river" />
	</node>
	<node lat="64.16536666886182" lon="14.070277781198309" id="-41679">
		<tag k="name" v="Sagbekken" />
		<tag k="ssr:stedsnr" v="256924" />
		<tag k="waterway" v="stream" />
	</node>
	<node lat="64.14958332978054" lon="13.885363888996249" id="-41684">
		<tag k="name" v="Bråsånesvika" />
		<tag k="natural" v="bay" />
		<tag k="ssr:stedsnr" v="256931" />
	</node>
	<node lat="64.15902221845953" lon="13.922744451666869" id="-41685">
		<tag k="name" v="Svarttjønna" />
		<tag k="natural" v="water" />
		<tag k="ssr:stedsnr" v="256944" />
	</node>
	<node lat="64.14566111228831" lon="14.031074994867025" id="-41686">
		<tag k="name" v="Langøya" />
		<tag k="place" v="islet" />
		<tag k="ssr:stedsnr" v="256985" />
	</node>
	<node lat="64.54650000047127" lon="13.621316676245039" id="-41688">
		<tag k="name" v="Vester-Rømmervatnet" />
		<tag k="natural" v="water" />
		<tag k="ssr:stedsnr" v="257076" />
		<tag k="water" v="lake" />
	</node>
	<node lat="64.43261944445128" lon="13.433116676941387" id="-41691">
		<tag k="name" v="Tomastjønna" />
		<tag k="natural" v="water" />
		<tag k="ssr:stedsnr" v="257125" />
	</node>
	<node lat="64.46568333329883" lon="13.52021944511231" id="-41694">
		<tag k="alt_name" v="Vester Åtangen" />
		<tag k="name" v="Åtangen" />
		<tag k="natural" v="cape" />
		<tag k="ssr:stedsnr" v="257224" />
	</node>
	<node lat="64.57208055122717" lon="13.518116664234627" id="-41698">
		<tag k="name" v="Storsteinplutten" />
		<tag k="natural" v="water" />
		<tag k="ssr:stedsnr" v="257100" />
	</node>
	<node lat="64.46753333200753" lon="13.558941666581998" id="-41699">
		<tag k="name" v="Støviktangen" />
		<tag k="natural" v="cape" />
		<tag k="ssr:stedsnr" v="257179" />
	</node>
	<node lat="64.44619999561844" lon="13.375869449663247" id="-41700">
		<tag k="name" v="Litlelva" />
		<tag k="ssr:stedsnr" v="257186" />
		<tag k="waterway" v="stream" />
	</node>
	<node lat="64.51484999744923" lon="13.8016250013068" id="-41701">
		<tag k="name" v="Fossdalselva" />
		<tag k="ssr:stedsnr" v="257191" />
		<tag k="waterway" v="river" />
	</node>
	<node lat="64.69055833430095" lon="13.434875010326524" id="-41702">
		<tag k="name" v="Koivika" />
		<tag k="natural" v="bay" />
		<tag k="ssr:stedsnr" v="257200" />
	</node>
	<node lat="64.74893888927794" lon="13.712891660909813" id="-41704">
		<tag k="name" v="Deviktangen" />
		<tag k="natural" v="cape" />
		<tag k="ssr:stedsnr" v="257294" />
	</node>
	<node lat="64.50363610676257" lon="13.728730559492869" id="-41706">
		<tag k="name" v="Setervika" />
		<tag k="natural" v="bay" />
		<tag k="ssr:stedsnr" v="257238" />
	</node>
	<node lat="64.46284166798547" lon="13.323794446301438" id="-41707">
		<tag k="name" v="Mellomtjønna" />
		<tag k="natural" v="water" />
		<tag k="ssr:stedsnr" v="257239" />
	</node>
	<node lat="64.73669444105882" lon="13.493636110698207" id="-41708">
		<tag k="name" v="Storbekken" />
		<tag k="ssr:stedsnr" v="257301" />
		<tag k="waterway" v="stream" />
	</node>
	<node lat="64.7596944474289" lon="13.552600003879517" id="-41709">
		<tag k="name" v="Litltjønna" />
		<tag k="natural" v="water" />
		<tag k="ssr:stedsnr" v="257384" />
	</node>
	<node lat="64.60364166639279" lon="13.625986113698502" id="-41712">
		<tag k="name" v="Skogstjønna" />
		<tag k="natural" v="water" />
		<tag k="ssr:stedsnr" v="257451" />
	</node>
	<node lat="64.6808499956498" lon="13.649291670400972" id="-41715">
		<tag k="name" v="Litl-Tunnsjøen" />
		<tag k="natural" v="water" />
		<tag k="ssr:stedsnr" v="257491" />
		<tag k="water" v="lake" />
	</node>
	<node lat="64.35043888748102" lon="13.771594453320967" id="-41716">
		<tag k="name" v="Holmtjønna" />
		<tag k="natural" v="water" />
		<tag k="ssr:stedsnr" v="257858" />
	</node>
	<node lat="64.10657777568301" lon="13.758505554190325" id="-41717">
		<tag k="name" v="Grunntjønna" />
		<tag k="natural" v="water" />
		<tag k="ssr:stedsnr" v="257824" />
	</node>
	<node lat="64.09819722096339" lon="13.823402785602712" id="-41719">
		<tag k="name" v="Bergtjønna" />
		<tag k="natural" v="water" />
		<tag k="ssr:stedsnr" v="257829" />
	</node>
	<node lat="64.45940833398126" lon="13.353313890764984" id="-41722">
		<tag k="name" v="Kunnelsbakkplutten" />
		<tag k="natural" v="water" />
		<tag k="ssr:stedsnr" v="168179" />
		<tag k="water" v="pond" />
	</node>
	<node lat="64.52465833390056" lon="13.572427772576027" id="-41726">
		<tag k="name" v="Skavlibekken" />
		<tag k="ssr:stedsnr" v="169102" />
		<tag k="waterway" v="stream" />
	</node>
	<node lat="64.56255000308617" lon="13.562758342868198" id="-41729">
		<tag k="name" v="Sagbekken" />
		<tag k="ssr:stedsnr" v="169114" />
		<tag k="waterway" v="stream" />
	</node>
	<node lat="64.09554444480206" lon="13.95233333493067" id="-41730">
		<tag k="name" v="Kvitsteinråka" />
		<tag k="natural" v="bay" />
		<tag k="ssr:stedsnr" v="169118" />
	</node>
	<node lat="64.56743333523947" lon="13.541666664367561" id="-41731">
		<tag k="name" v="Nordbubekken" />
		<tag k="ssr:stedsnr" v="169156" />
		<tag k="waterway" v="stream" />
	</node>
	<node lat="64.26852500082175" lon="13.910322213935288" id="-41732">
		<tag k="name" v="Litlbekken" />
		<tag k="ssr:stedsnr" v="169422" />
		<tag k="waterway" v="stream" />
	</node>
	<node lat="64.21295000472206" lon="13.901136101610888" id="-41734">
		<tag k="name" v="Bøstråkplutten" />
		<tag k="natural" v="water" />
		<tag k="ssr:stedsnr" v="169463" />
		<tag k="water" v="pond" />
	</node>
	<node lat="64.3142888898312" lon="13.659438879558847" id="-41738">
		<tag k="name" v="Småtjønnin" />
		<tag k="natural" v="water" />
		<tag k="ssr:stedsnr" v="169610" />
	</node>
	<node lat="64.21490833124163" lon="13.670374991471508" id="-41750">
		<tag k="name" v="Jersbekken" />
		<tag k="ssr:stedsnr" v="195804" />
		<tag k="waterway" v="stream" />
	</node>
	<node lat="64.21164722195206" lon="14.068894451249086" id="-41751">
		<tag k="name" v="Litltjønna" />
		<tag k="natural" v="water" />
		<tag k="ssr:stedsnr" v="195884" />
	</node>
	<node lat="64.48245000222445" lon="13.917119453598499" id="-41753">
		<tag k="name" v="Storhåmmåren" />
		<tag k="natural" v="cape" />
		<tag k="ssr:stedsnr" v="196028" />
	</node>
	<node lat="64.32850833751783" lon="13.547711109714939" id="-41755">
		<tag k="name" v="Matsekkhylla" />
		<tag k="natural" v="cape" />
		<tag k="ssr:stedsnr" v="196040" />
	</node>
	<node lat="64.32844722562987" lon="13.523822225959902" id="-41756">
		<tag k="name" v="Notbekken" />
		<tag k="ssr:stedsnr" v="196041" />
		<tag k="waterway" v="stream" />
	</node>
	<node lat="64.37736666646192" lon="13.70590833743728" id="-41757">
		<tag k="name" v="Setervika" />
		<tag k="natural" v="bay" />
		<tag k="ssr:stedsnr" v="196059" />
	</node>
	<node lat="64.36458889039301" lon="13.53610277786182" id="-41758">
		<tag k="name" v="Bengttjønna" />
		<tag k="natural" v="water" />
		<tag k="ssr:stedsnr" v="196062" />
	</node>
	<node lat="64.36879999992209" lon="13.621705546784579" id="-41759">
		<tag k="name" v="Økstjønna" />
		<tag k="natural" v="water" />
		<tag k="ssr:stedsnr" v="196063" />
	</node>
	<node lat="64.3476805525141" lon="13.374472214994952" id="-41760">
		<tag k="name" v="Østre Osttjønna" />
		<tag k="natural" v="water" />
		<tag k="ssr:stedsnr" v="196064" />
	</node>
	<node lat="64.38239721940104" lon="13.529863896186432" id="-41763">
		<tag k="name" v="Midtitissvatnet" />
		<tag k="natural" v="water" />
		<tag k="ssr:stedsnr" v="196112" />
	</node>
	<node lat="64.38333055755135" lon="13.42222777800306" id="-41764">
		<tag k="name" v="Bustadvika" />
		<tag k="natural" v="bay" />
		<tag k="ssr:stedsnr" v="196114" />
	</node>
	<node lat="64.72308055407187" lon="13.783516656750331" id="-41770">
		<tag k="name" v="Midtibekken" />
		<tag k="ssr:stedsnr" v="196232" />
		<tag k="waterway" v="stream" />
	</node>
	<node lat="64.66458610921622" lon="13.562472227274963" id="-41774">
		<tag k="name" v="Langtjønna" />
		<tag k="natural" v="water" />
		<tag k="ssr:stedsnr" v="196381" />
	</node>
	<node lat="64.1429194420329" lon="13.681994447901115" id="-41776">
		<tag k="name" v="Småskraptjønnin" />
		<tag k="natural" v="water" />
		<tag k="ssr:stedsnr" v="196807" />
	</node>
	<node lat="64.27043611038978" lon="14.087580562134084" id="-41778">
		<tag k="name" v="Kråastebejohke" />
		<tag k="name:sma" v="Kråastebejohke" />
		<tag k="ssr:stedsnr" v="196821" />
		<tag k="waterway" v="river" />
	</node>
	<node lat="64.3573527777995" lon="13.738736119333158" id="-41782">
		<tag k="name" v="Sultitjønna" />
		<tag k="natural" v="water" />
		<tag k="ssr:stedsnr" v="196770" />
	</node>
	<node lat="64.36120555446264" lon="13.733049993214236" id="-41783">
		<tag k="name" v="Grunntjønna" />
		<tag k="natural" v="water" />
		<tag k="ssr:stedsnr" v="196774" />
	</node>
	<node lat="64.135911114253" lon="14.040841660404887" id="-41787">
		<tag k="name" v="Oksauget" />
		<tag k="natural" v="water" />
		<tag k="ssr:stedsnr" v="196977" />
		<tag k="water" v="pond" />
	</node>
	<node lat="64.55360000328882" lon="13.398772216878527" id="-41788">
		<tag k="name" v="Kringltjønna" />
		<tag k="natural" v="water" />
		<tag k="ssr:stedsnr" v="197105" />
	</node>
	<node lat="64.73774166721064" lon="13.778766661350224" id="-41796">
		<tag k="name" v="Storbekken" />
		<tag k="ssr:stedsnr" v="197008" />
		<tag k="waterway" v="stream" />
	</node>
	<node lat="64.7388527796646" lon="13.599905548489263" id="-41800">
		<tag k="name" v="Grubba" />
		<tag k="natural" v="cape" />
		<tag k="ssr:stedsnr" v="197303" />
	</node>
	<node lat="64.78398888791376" lon="13.68393610451745" id="-41801">
		<tag k="name" v="Devikelva - Duvvienjohke" />
		<tag k="name:no" v="Devikelva" />
		<tag k="name:sma" v="Duvvienjohke" />
		<tag k="ssr:stedsnr" v="197382" />
		<tag k="waterway" v="river" />
	</node>
	<node lat="64.60667500066424" lon="13.56036665724043" id="-41802">
		<tag k="name" v="Råvassbekken" />
		<tag k="ssr:stedsnr" v="197428" />
		<tag k="waterway" v="stream" />
	</node>
	<node lat="64.49858610934085" lon="13.347136108668325" id="-41804">
		<tag k="name" v="Gammsetervika" />
		<tag k="natural" v="bay" />
		<tag k="ssr:stedsnr" v="268716" />
	</node>
	<node lat="64.50132778132833" lon="13.44758055537607" id="-41808">
		<tag k="name" v="Liplutten" />
		<tag k="natural" v="water" />
		<tag k="ssr:stedsnr" v="268751" />
		<tag k="water" v="pond" />
	</node>
	<node lat="64.48679444469035" lon="13.372144447153202" id="-41809">
		<tag k="name" v="Setervika" />
		<tag k="natural" v="bay" />
		<tag k="ssr:stedsnr" v="268754" />
	</node>
	<node lat="64.48320555186186" lon="13.333297225369591" id="-41812">
		<tag k="name" v="Otersjøsanden" />
		<tag k="natural" v="beach" />
		<tag k="ssr:stedsnr" v="207687" />
	</node>
	<node lat="64.48947777896794" lon="13.448416667847532" id="-41819">
		<tag k="name" v="Nilsvika" />
		<tag k="natural" v="bay" />
		<tag k="ssr:stedsnr" v="208781" />
	</node>
	<node lat="64.52133055802348" lon="13.387683323982163" id="-41822">
		<tag k="name" v="Svarttjønna" />
		<tag k="natural" v="water" />
		<tag k="ssr:stedsnr" v="208795" />
	</node>
	<node lat="64.19043610688095" lon="14.016266670974305" id="-41824">
		<tag k="name" v="Fjelløya - Skrijrenjaevrie" />
		<tag k="name:no" v="Fjelløya" />
		<tag k="name:sma" v="Skrijrenjaevrie" />
		<tag k="natural" v="water" />
		<tag k="ssr:stedsnr" v="208908" />
		<tag k="water" v="lake" />
	</node>
	<node lat="64.73836110680482" lon="13.635566667047334" id="-41831">
		<tag k="name" v="Vargkjeftvika" />
		<tag k="natural" v="bay" />
		<tag k="ssr:stedsnr" v="229505" />
	</node>
	<node lat="64.22032499961918" lon="13.741052782698784" id="-41832">
		<tag k="name" v="Storplutten" />
		<tag k="natural" v="water" />
		<tag k="ssr:stedsnr" v="229705" />
		<tag k="water" v="pond" />
	</node>
	<node lat="64.78824166930514" lon="13.879141660842247" id="-41834">
		<tag k="name" v="Vollelva" />
		<tag k="ssr:stedsnr" v="229738" />
		<tag k="waterway" v="stream" />
	</node>
	<node lat="64.11354166688204" lon="13.928322222757476" id="-41837">
		<tag k="name" v="Jeråsvika" />
		<tag k="natural" v="bay" />
		<tag k="ssr:stedsnr" v="230123" />
	</node>
	<node lat="64.53107222198629" lon="13.72096943878809" id="-41839">
		<tag k="name" v="Svarttjønna" />
		<tag k="natural" v="water" />
		<tag k="ssr:stedsnr" v="229887" />
	</node>
	<node lat="64.065488889685" lon="13.92583611960132" id="-41841">
		<tag k="name" v="Litl-Daltjønna" />
		<tag k="natural" v="water" />
		<tag k="ssr:stedsnr" v="230212" />
	</node>
	<node lat="64.33711944364786" lon="13.787830560166492" id="-41847">
		<tag k="name" v="Blanktjønna" />
		<tag k="natural" v="water" />
		<tag k="ssr:stedsnr" v="230429" />
	</node>
	<node lat="64.38916666745185" lon="13.664752784793595" id="-41850">
		<tag k="name" v="Hyttangen" />
		<tag k="natural" v="cape" />
		<tag k="ssr:stedsnr" v="230686" />
	</node>
	<node lat="64.20134444177148" lon="13.382308340788954" id="-41852">
		<tag k="name" v="Nytjønnbekken" />
		<tag k="ssr:stedsnr" v="230806" />
		<tag k="waterway" v="stream" />
	</node>
	<node lat="64.51122500392736" lon="13.827613887510054" id="-41855">
		<tag k="name" v="Trøvika" />
		<tag k="natural" v="bay" />
		<tag k="ssr:stedsnr" v="230780" />
	</node>
	<node lat="64.46777499771031" lon="13.309750000669226" id="-41859">
		<tag k="name" v="Merkesplutten" />
		<tag k="natural" v="water" />
		<tag k="ssr:stedsnr" v="450723" />
		<tag k="water" v="pond" />
	</node>
	<node lat="64.29800833361854" lon="13.618463881060194" id="-41867">
		<tag k="name" v="Djupdalsbekken" />
		<tag k="ssr:stedsnr" v="450844" />
		<tag k="waterway" v="stream" />
	</node>
	<node lat="64.1621888930206" lon="13.909947218681417" id="-41873">
		<tag k="name" v="Svarttjønnbekken" />
		<tag k="ssr:stedsnr" v="450957" />
		<tag k="waterway" v="stream" />
	</node>
	<node lat="64.52196944344384" lon="13.336974999337851" id="-41874">
		<tag k="name" v="Tovvollfossen" />
		<tag k="natural" v="waterfall" />
		<tag k="ssr:stedsnr" v="451769" />
	</node>
	<node lat="64.48822499804942" lon="13.366952778973326" id="-41875">
		<tag k="name" v="Kleggtangen" />
		<tag k="natural" v="cape" />
		<tag k="ssr:stedsnr" v="451790" />
	</node>
	<node lat="64.54269722553508" lon="13.260638889178074" id="-41876">
		<tag k="name" v="Lakstjønnin" />
		<tag k="natural" v="water" />
		<tag k="ssr:stedsnr" v="451101" />
	</node>
	<node lat="64.35061944672088" lon="13.558900010714714" id="-41879">
		<tag k="name" v="Nilsplutten" />
		<tag k="natural" v="water" />
		<tag k="ssr:stedsnr" v="256066" />
	</node>
	<node lat="64.4435972216263" lon="13.438974994280825" id="-41881">
		<tag k="name" v="Ørvika" />
		<tag k="natural" v="bay" />
		<tag k="ssr:stedsnr" v="256170" />
	</node>
	<node lat="64.43949722685896" lon="13.378355551285429" id="-41882">
		<tag k="name" v="Storheimplutten" />
		<tag k="natural" v="water" />
		<tag k="ssr:stedsnr" v="256173" />
	</node>
	<node lat="64.26173333268727" lon="13.746363884180626" id="-41886">
		<tag k="name" v="Storhopptjønna" />
		<tag k="natural" v="water" />
		<tag k="ssr:stedsnr" v="256808" />
	</node>
	<node lat="64.51702499748065" lon="13.465083340546474" id="-41891">
		<tag k="name" v="Holmtjønna - Gaesjnetenjaevrie" />
		<tag k="name:no" v="Holmtjønna" />
		<tag k="name:sma" v="Gaesjnetenjaevrie" />
		<tag k="natural" v="water" />
		<tag k="ssr:stedsnr" v="257023" />
	</node>
	<node lat="64.19827777540044" lon="13.847219436293438" id="-41892">
		<tag k="name" v="Åsaseterbekken" />
		<tag k="ssr:stedsnr" v="256904" />
		<tag k="waterway" v="stream" />
	</node>
	<node lat="64.11229722581601" lon="13.77795832614664" id="-41894">
		<tag k="name" v="Storfisktjønna" />
		<tag k="natural" v="water" />
		<tag k="ssr:stedsnr" v="256968" />
	</node>
	<node lat="64.55996111526733" lon="13.264005549663146" id="-41896">
		<tag k="alt_name" v="Køyelva" />
		<tag k="name" v="Koielva" />
		<tag k="ssr:stedsnr" v="257102" />
		<tag k="waterway" v="river" />
	</node>
	<node lat="64.59867499944849" lon="13.49469444961712" id="-41897">
		<tag k="name" v="Ingelsvassflyen" />
		<tag k="place" v="locality" />
		<tag k="ssr:stedsnr" v="257104" />
	</node>
	<node lat="64.57171666982096" lon="13.427527780976531" id="-41899">
		<tag k="name" v="Kroktjønna" />
		<tag k="natural" v="water" />
		<tag k="ssr:stedsnr" v="257118" />
	</node>
	<node lat="64.80491388825476" lon="13.807377770264752" id="-41904">
		<tag k="name" v="Guhkiestjonne" />
		<tag k="name:sma" v="Guhkiestjonne" />
		<tag k="natural" v="water" />
		<tag k="ssr:stedsnr" v="257318" />
	</node>
	<node lat="64.67280555155708" lon="13.63447499096395" id="-41908">
		<tag k="name" v="Litlnesbekken" />
		<tag k="ssr:stedsnr" v="257516" />
		<tag k="waterway" v="stream" />
	</node>
	<node lat="64.65330000262722" lon="13.553266664493627" id="-41909">
		<tag k="name" v="Dalabekken" />
		<tag k="ssr:stedsnr" v="257468" />
		<tag k="waterway" v="stream" />
	</node>
	<node lat="64.1979083304331" lon="13.823127777854584" id="-41915">
		<tag k="name" v="Litlholmen" />
		<tag k="place" v="islet" />
		<tag k="ssr:stedsnr" v="268883" />
	</node>
	<node lat="64.17200833403683" lon="13.832336104748038" id="-41916">
		<tag k="name" v="Setertangen" />
		<tag k="natural" v="cape" />
		<tag k="ssr:stedsnr" v="268887" />
	</node>
	<node lat="64.50655833723495" lon="13.394088880722343" id="-41922">
		<tag k="name" v="Litlåfossen" />
		<tag k="natural" v="waterfall" />
		<tag k="ssr:stedsnr" v="269825" />
	</node>
	<node lat="64.45676111327546" lon="13.438383333959422" id="-41926">
		<tag k="name" v="Tangvika" />
		<tag k="natural" v="bay" />
		<tag k="ssr:stedsnr" v="289196" />
	</node>
	<node lat="64.49682777442179" lon="13.943213896855365" id="-41933">
		<tag k="name" v="Storfiskplutten" />
		<tag k="natural" v="water" />
		<tag k="ssr:stedsnr" v="290336" />
	</node>
	<node lat="64.29288333082582" lon="13.716186111393604" id="-41935">
		<tag k="name" v="Svarttjønna" />
		<tag k="natural" v="water" />
		<tag k="ssr:stedsnr" v="290583" />
	</node>
	<node lat="64.49247777565174" lon="13.645224997551644" id="-41939">
		<tag k="name" v="Elenbergbekken" />
		<tag k="ssr:stedsnr" v="290733" />
		<tag k="waterway" v="stream" />
	</node>
	<node lat="64.49080277807674" lon="13.769891657709902" id="-41944">
		<tag k="name" v="Litløybekken" />
		<tag k="ssr:stedsnr" v="290686" />
		<tag k="waterway" v="stream" />
	</node>
	<node lat="64.55041110767843" lon="13.31355832741308" id="-41949">
		<tag k="name" v="Murliplutten" />
		<tag k="natural" v="water" />
		<tag k="ssr:stedsnr" v="291308" />
		<tag k="water" v="pond" />
	</node>
	<node lat="64.19221944030403" lon="13.962324994237603" id="-41951">
		<tag k="name" v="Treddibekken" />
		<tag k="ssr:stedsnr" v="291505" />
		<tag k="waterway" v="stream" />
	</node>
	<node lat="64.49403055467471" lon="13.266224989541339" id="-41955">
		<tag k="name" v="Flyan" />
		<tag k="natural" v="water" />
		<tag k="ssr:stedsnr" v="291279" />
		<tag k="water" v="lake" />
	</node>
	<node lat="64.51706944634253" lon="13.280755554335599" id="-41957">
		<tag k="name" v="Dølåsplutten" />
		<tag k="natural" v="water" />
		<tag k="ssr:stedsnr" v="291286" />
	</node>
	<node lat="64.15453055292384" lon="13.596894437674877" id="-41961">
		<tag k="name" v="Litl-Blåfjellnesa" />
		<tag k="natural" v="cape" />
		<tag k="ssr:stedsnr" v="291845" />
	</node>
	<node lat="64.3949444411853" lon="13.626702784911512" id="-41964">
		<tag k="name" v="Litltjønna" />
		<tag k="natural" v="water" />
		<tag k="ssr:stedsnr" v="291732" />
	</node>
	<node lat="64.27122221862464" lon="13.554088884497235" id="-41971">
		<tag k="name" v="Gamnaustervika" />
		<tag k="natural" v="bay" />
		<tag k="ssr:stedsnr" v="317008" />
	</node>
	<node lat="64.48092500378831" lon="13.881686108034632" id="-41973">
		<tag k="name" v="Limannvika" />
		<tag k="natural" v="bay" />
		<tag k="ssr:stedsnr" v="317022" />
	</node>
	<node lat="64.31306110745078" lon="13.682438893077247" id="-41976">
		<tag k="name" v="Litltortjønna" />
		<tag k="natural" v="water" />
		<tag k="ssr:stedsnr" v="317054" />
	</node>
	<node lat="64.37524444325393" lon="13.691319451612259" id="-41977">
		<tag k="name" v="Killtangen" />
		<tag k="natural" v="cape" />
		<tag k="ssr:stedsnr" v="317056" />
	</node>
	<node lat="64.37340555513262" lon="13.696861118189325" id="-41978">
		<tag k="name" v="Sundtangen" />
		<tag k="natural" v="cape" />
		<tag k="ssr:stedsnr" v="317058" />
	</node>
	<node lat="64.47418333165676" lon="13.62405277873537" id="-41980">
		<tag k="name" v="Småtjønnin" />
		<tag k="natural" v="water" />
		<tag k="ssr:stedsnr" v="317206" />
	</node>
	<node lat="64.4688500039575" lon="13.632066657796583" id="-41981">
		<tag k="name" v="Storprestgårdstjønna" />
		<tag k="natural" v="water" />
		<tag k="ssr:stedsnr" v="317207" />
	</node>
	<node lat="64.39753333031462" lon="13.7077472178372" id="-41991">
		<tag k="alt_name" v="Gullplutten" />
		<tag k="name" v="Gullpluttan" />
		<tag k="natural" v="water" />
		<tag k="ssr:stedsnr" v="317105" />
	</node>
	<node lat="64.18050277400094" lon="13.381658335845387" id="-41992">
		<tag k="name" v="Tverrelva - Tjoemenjohke" />
		<tag k="name:no" v="Tverrelva" />
		<tag k="name:sma" v="Tjoemenjohke" />
		<tag k="ssr:stedsnr" v="317750" />
		<tag k="waterway" v="river" />
	</node>
	<node lat="64.2957888874918" lon="13.743924990442148" id="-41993">
		<tag k="name" v="Klumptjønna" />
		<tag k="natural" v="water" />
		<tag k="ssr:stedsnr" v="317754" />
	</node>
	<node lat="64.20071944558576" lon="13.814522223219157" id="-41995">
		<tag k="name" v="Østre Setervika" />
		<tag k="natural" v="bay" />
		<tag k="ssr:stedsnr" v="317910" />
	</node>
	<node lat="64.2018138918007" lon="13.808397228820306" id="-41996">
		<tag k="name" v="Vestre Setervika" />
		<tag k="natural" v="bay" />
		<tag k="ssr:stedsnr" v="317912" />
	</node>
	<node lat="64.23124444659078" lon="13.791202773143098" id="-41999">
		<tag k="name" v="Sandneset" />
		<tag k="natural" v="cape" />
		<tag k="ssr:stedsnr" v="317803" />
	</node>
	<node lat="64.26149444426062" lon="13.959099994467216" id="-42001">
		<tag k="name" v="Langtjønna" />
		<tag k="natural" v="water" />
		<tag k="ssr:stedsnr" v="317817" />
	</node>
	<node lat="64.26918888625568" lon="13.46739999311869" id="-42004">
		<tag k="name" v="Storbekken" />
		<tag k="ssr:stedsnr" v="317851" />
		<tag k="waterway" v="stream" />
	</node>
	<node lat="64.21477500268706" lon="13.944641664176594" id="-42005">
		<tag k="name" v="Kneppelplutten" />
		<tag k="natural" v="water" />
		<tag k="ssr:stedsnr" v="317852" />
	</node>
	<node lat="64.51635278105118" lon="13.338866661550691" id="-42012">
		<tag k="name" v="Åbofossen" />
		<tag k="natural" v="waterfall" />
		<tag k="ssr:stedsnr" v="318043" />
	</node>
	<node lat="64.52061389116876" lon="13.351608337642624" id="-42014">
		<tag k="name" v="Åbobekken" />
		<tag k="ssr:stedsnr" v="318052" />
		<tag k="waterway" v="stream" />
	</node>
	<node lat="64.56834999877356" lon="13.6623750058623" id="-42016">
		<tag k="name" v="Lindalsplutten" />
		<tag k="natural" v="water" />
		<tag k="ssr:stedsnr" v="318102" />
	</node>
	<node lat="64.41540833265411" lon="13.536358331781656" id="-42017">
		<tag k="name" v="Bustadtjønna" />
		<tag k="natural" v="water" />
		<tag k="ssr:stedsnr" v="318138" />
	</node>
	<node lat="64.62536666423222" lon="13.679230558175586" id="-42018">
		<tag k="name" v="Litltjønna" />
		<tag k="natural" v="water" />
		<tag k="ssr:stedsnr" v="318407" />
	</node>
	<node lat="64.61298055436299" lon="13.534530561308117" id="-42019">
		<tag k="name" v="Storfossen" />
		<tag k="natural" v="waterfall" />
		<tag k="ssr:stedsnr" v="318393" />
	</node>
	<node lat="64.71653610828241" lon="13.534713897791299" id="-42020">
		<tag k="name" v="Salamotangen" />
		<tag k="natural" v="cape" />
		<tag k="ssr:stedsnr" v="318503" />
	</node>
	<node lat="64.46735833620384" lon="13.379438884357773" id="-42025">
		<tag k="name" v="Merkesplutten" />
		<tag k="natural" v="water" />
		<tag k="ssr:stedsnr" v="329752" />
		<tag k="water" v="pond" />
	</node>
	<node lat="64.48271944339149" lon="13.390672225660879" id="-42026">
		<tag k="name" v="Kvernhustjønna" />
		<tag k="natural" v="water" />
		<tag k="ssr:stedsnr" v="329757" />
	</node>
	<node lat="64.48761666959973" lon="13.444991673460324" id="-42027">
		<tag k="name" v="Litlelva" />
		<tag k="ssr:stedsnr" v="329764" />
		<tag k="waterway" v="river" />
	</node>
	<node lat="64.49216388686662" lon="13.498680555198113" id="-42033">
		<tag k="name" v="Fjøsdalbekken" />
		<tag k="ssr:stedsnr" v="330861" />
		<tag k="waterway" v="stream" />
	</node>
	<node lat="64.37276944738382" lon="13.490788891038871" id="-42036">
		<tag k="name" v="Stortjønna" />
		<tag k="natural" v="water" />
		<tag k="ssr:stedsnr" v="471989" />
	</node>
	<node lat="64.44806944412176" lon="13.529286121133596" id="-42038">
		<tag k="name" v="Jervviktangen" />
		<tag k="natural" v="cape" />
		<tag k="ssr:stedsnr" v="472098" />
	</node>
	<node lat="64.4142194471883" lon="13.527061120069172" id="-42039">
		<tag k="name" v="Krokbekken" />
		<tag k="ssr:stedsnr" v="472033" />
		<tag k="waterway" v="stream" />
	</node>
	<node lat="64.09875555558456" lon="13.945177774079111" id="-42040">
		<tag k="name" v="Furutangen" />
		<tag k="natural" v="cape" />
		<tag k="ssr:stedsnr" v="472129" />
	</node>
	<node lat="64.67728333238968" lon="13.450863898208143" id="-42042">
		<tag k="name" v="Rutjønna" />
		<tag k="natural" v="water" />
		<tag k="ssr:stedsnr" v="472147" />
	</node>
	<node lat="64.13195833033902" lon="14.04175278125411" id="-42043">
		<tag k="name" v="Bjortjønnbekken" />
		<tag k="ssr:stedsnr" v="472255" />
		<tag k="waterway" v="stream" />
	</node>
	<node lat="64.25838333061219" lon="13.851547219512803" id="-42046">
		<tag k="name" v="Køybekken" />
		<tag k="ssr:stedsnr" v="472367" />
		<tag k="waterway" v="stream" />
	</node>
	<node lat="64.25186110826819" lon="13.841191661502501" id="-42047">
		<tag k="name" v="Storsteinplutten" />
		<tag k="natural" v="water" />
		<tag k="ssr:stedsnr" v="472372" />
		<tag k="water" v="pond" />
	</node>
	<node lat="64.26379444424796" lon="13.891658334788845" id="-42049">
		<tag k="name" v="Bengttjønna" />
		<tag k="natural" v="water" />
		<tag k="ssr:stedsnr" v="472400" />
		<tag k="water" v="pond" />
	</node>
	<node lat="64.23458889173085" lon="13.92355555288201" id="-42050">
		<tag k="name" v="Åkroken" />
		<tag k="place" v="locality" />
		<tag k="ssr:stedsnr" v="472425" />
	</node>
	<node lat="64.20603610766558" lon="13.900474997752498" id="-42052">
		<tag k="name" v="Bøstråkbekken" />
		<tag k="ssr:stedsnr" v="472446" />
		<tag k="waterway" v="stream" />
	</node>
	<node lat="64.47635278016493" lon="13.795299992011067" id="-42056">
		<tag k="name" v="Nordmyrbekken" />
		<tag k="ssr:stedsnr" v="472668" />
		<tag k="waterway" v="stream" />
	</node>
	<node lat="64.07702778048895" lon="13.956313889221759" id="-42068">
		<tag k="name" v="Høgåsplutten" />
		<tag k="natural" v="water" />
		<tag k="ssr:stedsnr" v="473183" />
		<tag k="water" v="pond" />
	</node>
	<node lat="64.47557222551337" lon="14.084227777009767" id="-42070">
		<tag k="name" v="Grensvika" />
		<tag k="natural" v="bay" />
		<tag k="ssr:stedsnr" v="473397" />
	</node>
	<node lat="64.2446694467222" lon="13.641452770326843" id="-42074">
		<tag k="name" v="Gravvikbekken" />
		<tag k="ssr:stedsnr" v="473656" />
		<tag k="waterway" v="stream" />
	</node>
	<node lat="64.3538472198913" lon="13.587827770176611" id="-42077">
		<tag k="name" v="Stamtjønnplutten" />
		<tag k="natural" v="water" />
		<tag k="ssr:stedsnr" v="350941" />
		<tag k="water" v="pond" />
	</node>
	<node lat="64.41606944495031" lon="13.457561109666031" id="-42078">
		<tag k="name" v="Einarslåttbekken" />
		<tag k="ssr:stedsnr" v="351155" />
		<tag k="waterway" v="stream" />
	</node>
	<node lat="64.1118972185477" lon="13.947424993848859" id="-42079">
		<tag k="name" v="Hundtangen" />
		<tag k="natural" v="cape" />
		<tag k="ssr:stedsnr" v="351164" />
	</node>
	<node lat="64.55749444865809" lon="13.477280547012075" id="-42080">
		<tag k="name" v="Nordalfossen" />
		<tag k="natural" v="waterfall" />
		<tag k="ssr:stedsnr" v="351302" />
	</node>
	<node lat="64.56618055643787" lon="13.385702784797452" id="-42081">
		<tag k="name" v="Auritjønna" />
		<tag k="natural" v="water" />
		<tag k="ssr:stedsnr" v="351308" />
	</node>
	<node lat="64.19258888846599" lon="13.772841666329573" id="-42082">
		<tag k="name" v="Steinplutten" />
		<tag k="natural" v="water" />
		<tag k="ssr:stedsnr" v="351353" />
		<tag k="water" v="pond" />
	</node>
	<node lat="64.12795555796728" lon="13.895077781682017" id="-42084">
		<tag k="name" v="Seterneset" />
		<tag k="natural" v="cape" />
		<tag k="ssr:stedsnr" v="351067" />
	</node>
	<node lat="64.1209361069565" lon="14.052366657979892" id="-42089">
		<tag k="name" v="Nytjønnbekken" />
		<tag k="ssr:stedsnr" v="351264" />
		<tag k="waterway" v="stream" />
	</node>
	<node lat="64.49139166989593" lon="13.270111111415275" id="-42091">
		<tag k="name" v="Langviktangen" />
		<tag k="natural" v="cape" />
		<tag k="ssr:stedsnr" v="351269" />
	</node>
	<node lat="64.49138055357564" lon="13.163288898026634" id="-42093">
		<tag k="name" v="Dalbekken" />
		<tag k="ssr:stedsnr" v="351274" />
		<tag k="waterway" v="stream" />
	</node>
	<node lat="64.40562222206567" lon="13.677566668020619" id="-42094">
		<tag k="name" v="Skraptjønnbekken" />
		<tag k="ssr:stedsnr" v="351610" />
		<tag k="waterway" v="stream" />
	</node>
	<node lat="64.26574721906086" lon="13.6485194345452" id="-42095">
		<tag k="name" v="Storvika" />
		<tag k="natural" v="bay" />
		<tag k="ssr:stedsnr" v="351616" />
	</node>
	<node lat="64.24920555786242" lon="13.668924997780636" id="-42096">
		<tag k="name" v="Gravvika" />
		<tag k="natural" v="bay" />
		<tag k="ssr:stedsnr" v="351619" />
	</node>
	<node lat="64.25833610684806" lon="13.645702773641013" id="-42097">
		<tag k="name" v="Gusbotnet" />
		<tag k="natural" v="bay" />
		<tag k="ssr:stedsnr" v="351622" />
	</node>
	<node lat="64.46989722520917" lon="13.653541670165659" id="-42105">
		<tag k="name" v="Lomplutten" />
		<tag k="natural" v="water" />
		<tag k="ssr:stedsnr" v="378211" />
	</node>
	<node lat="64.4582527744152" lon="13.29481389359022" id="-42107">
		<tag k="name" v="Nedre Bergtjønna" />
		<tag k="natural" v="water" />
		<tag k="ssr:stedsnr" v="378217" />
	</node>
	<node lat="64.71607499894023" lon="13.775566663433146" id="-42109">
		<tag k="name" v="Kvernbekken" />
		<tag k="ssr:stedsnr" v="378169" />
		<tag k="waterway" v="stream" />
	</node>
	<node lat="64.67684999696081" lon="13.599283326891129" id="-42110">
		<tag k="name" v="Storbekken" />
		<tag k="ssr:stedsnr" v="378178" />
		<tag k="waterway" v="stream" />
	</node>
	<node lat="64.72163610754235" lon="13.516050005935561" id="-42111">
		<tag k="alt_name" v="Folandstøvika" />
		<tag k="name" v="Forlandstøvika" />
		<tag k="natural" v="bay" />
		<tag k="ssr:stedsnr" v="378504" />
	</node>
	<node lat="64.70888611331006" lon="13.576458324219136" id="-42112">
		<tag k="name" v="Sandnestjønna" />
		<tag k="natural" v="water" />
		<tag k="ssr:stedsnr" v="378510" />
	</node>
	<node lat="64.63614166243711" lon="13.618566664431027" id="-42116">
		<tag k="name" v="Vadet" />
		<tag k="place" v="locality" />
		<tag k="ssr:stedsnr" v="378406" />
	</node>
	<node lat="64.66227499550168" lon="13.438511116172135" id="-42118">
		<tag k="name" v="Storøya" />
		<tag k="place" v="islet" />
		<tag k="ssr:stedsnr" v="378473" />
	</node>
	<node lat="64.67295499154127" lon="13.50829917917536" id="-42119">
		<tag k="name" v="Langtjønna" />
		<tag k="natural" v="water" />
		<tag k="ssr:stedsnr" v="378479" />
	</node>
	<node lat="64.464308334793" lon="13.32696666064859" id="-42123">
		<tag k="name" v="Grunnplutten" />
		<tag k="natural" v="water" />
		<tag k="ssr:stedsnr" v="389708" />
	</node>
	<node lat="64.51563333347413" lon="13.314733326983461" id="-42125">
		<tag k="name" v="Revhiplutten" />
		<tag k="natural" v="water" />
		<tag k="ssr:stedsnr" v="389745" />
		<tag k="water" v="pond" />
	</node>
	<node lat="64.47216944034169" lon="13.525316674302035" id="-42128">
		<tag k="name" v="Storfloplutten" />
		<tag k="natural" v="water" />
		<tag k="ssr:stedsnr" v="389805" />
		<tag k="water" v="pond" />
	</node>
	<node lat="64.268247226237" lon="13.658255562546522" id="-42129">
		<tag k="name" v="Rørtangen" />
		<tag k="natural" v="cape" />
		<tag k="ssr:stedsnr" v="389811" />
	</node>
	<node lat="64.4411333337592" lon="13.632658340799315" id="-42134">
		<tag k="name" v="Eideselva" />
		<tag k="ssr:stedsnr" v="389861" />
		<tag k="waterway" v="river" />
	</node>
	<node lat="64.44601666992857" lon="13.58704166152352" id="-42137">
		<tag k="name" v="Stortangen" />
		<tag k="natural" v="cape" />
		<tag k="ssr:stedsnr" v="390800" />
	</node>
	<node lat="64.15991944632214" lon="13.822472226478496" id="-42139">
		<tag k="name" v="Loktangen" />
		<tag k="natural" v="cape" />
		<tag k="ssr:stedsnr" v="390883" />
	</node>
	<node lat="64.42611389335522" lon="13.778352768671262" id="-42149">
		<tag k="name" v="Stygghaugtangen" />
		<tag k="natural" v="cape" />
		<tag k="ssr:stedsnr" v="412503" />
	</node>
	<node lat="64.41562222510328" lon="13.645472228276274" id="-42150">
		<tag k="name" v="Kvennhusplutten" />
		<tag k="natural" v="water" />
		<tag k="ssr:stedsnr" v="412595" />
		<tag k="water" v="pond" />
	</node>
	<node lat="64.39880833121782" lon="13.631113880417255" id="-42157">
		<tag k="name" v="Litlokstjønna" />
		<tag k="natural" v="water" />
		<tag k="ssr:stedsnr" v="412606" />
	</node>
	<node lat="64.3891638907782" lon="13.68249444245099" id="-42160">
		<tag k="name" v="Svarttjønnvika" />
		<tag k="natural" v="bay" />
		<tag k="ssr:stedsnr" v="412643" />
	</node>
	<node lat="64.2055694413754" lon="13.590602773188762" id="-42162">
		<tag k="name" v="Fossflyen" />
		<tag k="natural" v="water" />
		<tag k="ssr:stedsnr" v="412839" />
		<tag k="water" v="lake" />
	</node>
	<node lat="64.24068333156005" lon="13.395255547094484" id="-42167">
		<tag k="name" v="Storbekken" />
		<tag k="ssr:stedsnr" v="412787" />
		<tag k="waterway" v="stream" />
	</node>
	<node lat="64.51490555168623" lon="13.82750832490981" id="-42168">
		<tag k="name" v="Kvennbekken" />
		<tag k="ssr:stedsnr" v="412792" />
		<tag k="waterway" v="stream" />
	</node>
	<node lat="64.18911666511923" lon="13.382608336799896" id="-42169">
		<tag k="name" v="Tverrelvnessa" />
		<tag k="natural" v="cape" />
		<tag k="ssr:stedsnr" v="412794" />
	</node>
	<node lat="64.34573055580215" lon="13.604438897898662" id="-42170">
		<tag k="name" v="Grunntjønnbekken" />
		<tag k="ssr:stedsnr" v="412941" />
		<tag k="waterway" v="stream" />
	</node>
	<node lat="64.38808888435726" lon="13.680841670293484" id="-42176">
		<tag k="name" v="Svarttjønntangen" />
		<tag k="natural" v="cape" />
		<tag k="ssr:stedsnr" v="438061" />
	</node>
	<node lat="64.38898055409825" lon="13.710516657865856" id="-42177">
		<tag k="name" v="Hovden" />
		<tag k="natural" v="cape" />
		<tag k="ssr:stedsnr" v="438100" />
	</node>
	<node lat="64.1103499970248" lon="13.519766675017866" id="-42179">
		<tag k="alt_name" v="Blåfjellvatnet, midtre" />
		<tag k="name" v="Midtre Blåfjellvatnet" />
		<tag k="natural" v="water" />
		<tag k="ssr:stedsnr" v="438803" />
		<tag k="water" v="lake" />
	</node>
	<node lat="64.12529166457034" lon="13.57125278673327" id="-42181">
		<tag k="name" v="Blåfjellelva" />
		<tag k="ssr:stedsnr" v="438812" />
		<tag k="waterway" v="river" />
	</node>
	<node lat="64.04621666942138" lon="13.972708326532265" id="-42182">
		<tag k="name" v="Litltjønna" />
		<tag k="natural" v="water" />
		<tag k="ssr:stedsnr" v="438799" />
	</node>
	<node lat="64.41453333193111" lon="13.656927774677893" id="-42186">
		<tag k="name" v="Skrokstjønna" />
		<tag k="natural" v="water" />
		<tag k="ssr:stedsnr" v="439118" />
	</node>
	<node lat="64.664880559687" lon="13.469219453387682" id="-42187">
		<tag k="name" v="Langtangen" />
		<tag k="natural" v="cape" />
		<tag k="ssr:stedsnr" v="439156" />
	</node>
	<node lat="64.5588000033941" lon="13.60314999476589" id="-42189">
		<tag k="name" v="Styggdalsbekken" />
		<tag k="ssr:stedsnr" v="439056" />
		<tag k="waterway" v="stream" />
	</node>
	<node lat="64.54663611539037" lon="13.349013888952909" id="-42190">
		<tag k="name" v="Gåstjønnin" />
		<tag k="natural" v="water" />
		<tag k="ssr:stedsnr" v="439057" />
	</node>
	<node lat="64.5064999975557" lon="13.753052773972843" id="-42193">
		<tag k="name" v="Kvetangen" />
		<tag k="natural" v="cape" />
		<tag k="ssr:stedsnr" v="439212" />
	</node>
	<node lat="64.74248888509287" lon="13.601474990981187" id="-42196">
		<tag k="name" v="Kvartelvika" />
		<tag k="natural" v="bay" />
		<tag k="ssr:stedsnr" v="439250" />
	</node>
	<node lat="64.6538638881687" lon="13.418344452622188" id="-42198">
		<tag k="name" v="Litltjønna" />
		<tag k="natural" v="water" />
		<tag k="ssr:stedsnr" v="439450" />
	</node>
	<node lat="64.67168333088819" lon="13.577794448626925" id="-42199">
		<tag k="name" v="Langtjønnbekken" />
		<tag k="ssr:stedsnr" v="439459" />
		<tag k="waterway" v="stream" />
	</node>
	<node lat="64.41478888477705" lon="13.850641673060887" id="-42202">
		<tag k="name" v="Larstjønnbekken" />
		<tag k="ssr:stedsnr" v="439799" />
		<tag k="waterway" v="stream" />
	</node>
	<node lat="64.18283333742765" lon="13.814752786027684" id="-42204">
		<tag k="name" v="Stortjønna" />
		<tag k="natural" v="water" />
		<tag k="ssr:stedsnr" v="439919" />
	</node>
	<node lat="64.51351111010487" lon="13.338161110666434" id="-42210">
		<tag k="name" v="Sagfossen" />
		<tag k="natural" v="waterfall" />
		<tag k="ssr:stedsnr" v="440055" />
	</node>
	<node lat="64.51351944835956" lon="13.355858343975159" id="-42211">
		<tag k="name" v="Strålmyrbekken" />
		<tag k="ssr:stedsnr" v="440057" />
		<tag k="waterway" v="stream" />
	</node>
	<node lat="64.53948611530704" lon="13.536044435638603" id="-42213">
		<tag k="name" v="Åkrokbekken" />
		<tag k="ssr:stedsnr" v="440111" />
		<tag k="waterway" v="stream" />
	</node>
	<node lat="64.5411583338475" lon="13.65049721731416" id="-42214">
		<tag k="name" v="Auster-Rømmervatnet" />
		<tag k="natural" v="water" />
		<tag k="ssr:stedsnr" v="440115" />
		<tag k="water" v="lake" />
	</node>
	<node lat="64.50293333072929" lon="13.31600000536652" id="-42217">
		<tag k="name" v="Lommyrplutten" />
		<tag k="natural" v="water" />
		<tag k="ssr:stedsnr" v="450705" />
		<tag k="water" v="pond" />
	</node>
	<node lat="64.235908334093" lon="13.874886101745654" id="-42224">
		<tag k="name" v="Roland-Bengtsaplutten" />
		<tag k="natural" v="water" />
		<tag k="ssr:stedsnr" v="450921" />
		<tag k="water" v="pond" />
	</node>
	<node lat="64.24038056000077" lon="13.776349993071069" id="-42227">
		<tag k="name" v="Badstubekken" />
		<tag k="ssr:stedsnr" v="451915" />
		<tag k="waterway" v="stream" />
	</node>
	<node lat="64.1170250007882" lon="13.918580558391463" id="-42231">
		<tag k="name" v="Setervika" />
		<tag k="natural" v="bay" />
		<tag k="ssr:stedsnr" v="472084" />
	</node>
	<node lat="64.11670277680145" lon="14.050680556569336" id="-42233">
		<tag k="name" v="Litl-Nytjønna" />
		<tag k="natural" v="water" />
		<tag k="ssr:stedsnr" v="472259" />
		<tag k="water" v="pond" />
	</node>
	<node lat="64.53829444365715" lon="13.5266138822845" id="-42238">
		<tag k="name" v="Åkroken" />
		<tag k="natural" v="water" />
		<tag k="ssr:stedsnr" v="472179" />
		<tag k="water" v="lake" />
	</node>
	<node lat="64.72754721957992" lon="13.729411109133753" id="-42242">
		<tag k="name" v="Båstangen" />
		<tag k="natural" v="cape" />
		<tag k="ssr:stedsnr" v="472474" />
	</node>
	<node lat="64.32018888496094" lon="13.64501943826519" id="-42243">
		<tag k="name" v="Nørdertjønna" />
		<tag k="natural" v="water" />
		<tag k="ssr:stedsnr" v="472606" />
	</node>
	<node lat="64.31574722043011" lon="13.666222220614541" id="-42244">
		<tag k="name" v="Gressplutten" />
		<tag k="natural" v="water" />
		<tag k="ssr:stedsnr" v="472608" />
		<tag k="water" v="pond" />
	</node>
	<node lat="64.42182777661172" lon="13.848922218996448" id="-42247">
		<tag k="name" v="Flyan" />
		<tag k="natural" v="water" />
		<tag k="ssr:stedsnr" v="472505" />
		<tag k="water" v="lake" />
	</node>
	<node lat="64.48701666697949" lon="13.859380548346051" id="-42250">
		<tag k="name" v="Steintangen" />
		<tag k="natural" v="cape" />
		<tag k="ssr:stedsnr" v="472715" />
	</node>
	<node lat="64.2671027784553" lon="13.898258332418736" id="-42251">
		<tag k="name" v="Seterbekken" />
		<tag k="ssr:stedsnr" v="472716" />
		<tag k="waterway" v="stream" />
	</node>
	<node lat="64.50892222076524" lon="13.87937500015046" id="-42252">
		<tag k="name" v="Seterbekken" />
		<tag k="ssr:stedsnr" v="472804" />
		<tag k="waterway" v="stream" />
	</node>
	<node lat="64.42131666260875" lon="13.698597214343177" id="-42253">
		<tag k="name" v="Lauvtangvika" />
		<tag k="natural" v="bay" />
		<tag k="ssr:stedsnr" v="472807" />
	</node>
	<node lat="64.23555833102549" lon="13.396358338574421" id="-42254">
		<tag k="name" v="Storholmen" />
		<tag k="place" v="islet" />
		<tag k="ssr:stedsnr" v="472808" />
	</node>
	<node lat="64.04313055498352" lon="13.920769438558182" id="-42258">
		<tag k="name" v="Spøkplutten" />
		<tag k="natural" v="water" />
		<tag k="ssr:stedsnr" v="473210" />
		<tag k="water" v="pond" />
	</node>
	<node lat="64.19039166661676" lon="13.66497499617987" id="-42262">
		<tag k="name" v="Kroknesholmen" />
		<tag k="place" v="islet" />
		<tag k="ssr:stedsnr" v="473705" />
	</node>
	<node lat="64.48194444705221" lon="13.999916661619576" id="-42270">
		<tag k="name" v="Storvika" />
		<tag k="natural" v="bay" />
		<tag k="ssr:stedsnr" v="681024" />
	</node>
	<node lat="64.34013610947075" lon="13.57763056085008" id="-42273">
		<tag k="name" v="Lomplutten" />
		<tag k="place" v="locality" />
		<tag k="ssr:stedsnr" v="681084" />
	</node>
	<node lat="64.38027222172731" lon="13.255019451790542" id="-42278">
		<tag k="name" v="Storbekken" />
		<tag k="ssr:stedsnr" v="681109" />
		<tag k="waterway" v="stream" />
	</node>
	<node lat="64.3915527791907" lon="13.463233328744009" id="-42279">
		<tag k="alt_name:no" v="Stor-Tisvatnet" />
		<tag k="name" v="Stortissvatnet - Vuallerenjaevrie" />
		<tag k="name:no" v="Stortissvatnet" />
		<tag k="name:sma" v="Vuallerenjaevrie" />
		<tag k="natural" v="water" />
		<tag k="ssr:stedsnr" v="681110" />
		<tag k="water" v="lake" />
	</node>
	<node lat="64.38594166346611" lon="13.417019450277314" id="-42280">
		<tag k="name" v="Kroktjønnin" />
		<tag k="natural" v="water" />
		<tag k="ssr:stedsnr" v="681111" />
	</node>
	<node lat="64.3936527760236" lon="13.603761114524385" id="-42281">
		<tag k="name" v="Rørtjønna" />
		<tag k="natural" v="water" />
		<tag k="ssr:stedsnr" v="681113" />
	</node>
	<node lat="64.35661944057689" lon="13.598222213869102" id="-42283">
		<tag k="name" v="Stamtjønna" />
		<tag k="natural" v="water" />
		<tag k="ssr:stedsnr" v="681086" />
	</node>
	<node lat="64.35236666929448" lon="13.71374443677123" id="-42284">
		<tag k="name" v="Skardsbekken" />
		<tag k="ssr:stedsnr" v="681088" />
		<tag k="waterway" v="stream" />
	</node>
	<node lat="64.47878888534099" lon="13.666352771670775" id="-42286">
		<tag k="alt_name" v="Litl-Rolandmorsatjønna" />
		<tag k="name" v="Storfiskplutten" />
		<tag k="natural" v="water" />
		<tag k="ssr:stedsnr" v="681190" />
	</node>
	<node lat="64.48157777637064" lon="13.701811104095166" id="-42287">
		<tag k="name" v="Litlfinnhustjønna" />
		<tag k="natural" v="water" />
		<tag k="ssr:stedsnr" v="681198" />
	</node>
	<node lat="64.49839999576558" lon="13.308611112001543" id="-42290">
		<tag k="name" v="Finnvolltjønna" />
		<tag k="natural" v="water" />
		<tag k="ssr:stedsnr" v="681215" />
	</node>
	<node lat="64.40638888655404" lon="13.41127222576413" id="-42292">
		<tag k="name" v="Kviltjønna" />
		<tag k="natural" v="water" />
		<tag k="ssr:stedsnr" v="681148" />
	</node>
	<node lat="64.54032499704184" lon="13.727300000956056" id="-42294">
		<tag k="name" v="Finndalsbekken" />
		<tag k="ssr:stedsnr" v="681220" />
		<tag k="waterway" v="stream" />
	</node>
	<node lat="64.52851944606904" lon="13.731541668599512" id="-42296">
		<tag k="name" v="Svarttjønna" />
		<tag k="natural" v="water" />
		<tag k="ssr:stedsnr" v="681225" />
	</node>
	<node lat="64.72008610991317" lon="13.736649989500838" id="-42298">
		<tag k="alt_name" v="Liplutten" />
		<tag k="name" v="Plutten" />
		<tag k="natural" v="water" />
		<tag k="ssr:stedsnr" v="681235" />
	</node>
	<node lat="64.7242416637932" lon="13.803749995918048" id="-42299">
		<tag k="name" v="Langvatnet - Guhkiestjonne" />
		<tag k="name:no" v="Langvatnet" />
		<tag k="name:sma" v="Guhkiestjonne" />
		<tag k="natural" v="water" />
		<tag k="ssr:stedsnr" v="681237" />
	</node>
	<node lat="64.71211944280566" lon="13.759288893261084" id="-42300">
		<tag k="name" v="Storsteinbekken" />
		<tag k="ssr:stedsnr" v="681241" />
		<tag k="waterway" v="stream" />
	</node>
	<node lat="64.67779444088681" lon="13.665963887620679" id="-42301">
		<tag k="name" v="Kvernbekken" />
		<tag k="ssr:stedsnr" v="681439" />
		<tag k="waterway" v="stream" />
	</node>
	<node lat="64.40130555785655" lon="13.10336389472728" id="-42302">
		<tag k="alt_name" v="Bukvasselva" />
		<tag k="name" v="Bugvasselva" />
		<tag k="ssr:stedsnr" v="681284" />
		<tag k="waterway" v="stream" />
	</node>
	<node lat="64.4770194488674" lon="13.545019439942713" id="-42304">
		<tag k="alt_name" v="Andersmyrbekken, nedre" />
		<tag k="name" v="Nedre Andersmyrbekken" />
		<tag k="ssr:stedsnr" v="499150" />
		<tag k="waterway" v="stream" />
	</node>
	<node lat="64.29815555762492" lon="13.641430550633782" id="-42305">
		<tag k="name" v="Botnbekken" />
		<tag k="ssr:stedsnr" v="499041" />
		<tag k="waterway" v="stream" />
	</node>
	<node lat="64.35375278111732" lon="13.543422221415291" id="-42308">
		<tag k="name" v="Myrtjønna" />
		<tag k="natural" v="water" />
		<tag k="ssr:stedsnr" v="499048" />
	</node>
	<node lat="64.39115000086639" lon="13.420186102960633" id="-42309">
		<tag k="name" v="Litlangeltjønna" />
		<tag k="natural" v="water" />
		<tag k="ssr:stedsnr" v="499081" />
	</node>
	<node lat="64.71307499908802" lon="13.721355556162548" id="-42310">
		<tag k="name" v="Stortangen" />
		<tag k="natural" v="cape" />
		<tag k="ssr:stedsnr" v="499186" />
	</node>
	<node lat="64.48415833487078" lon="13.538577780397672" id="-42311">
		<tag k="name" v="Styggdalsbekken" />
		<tag k="ssr:stedsnr" v="499190" />
		<tag k="waterway" v="stream" />
	</node>
	<node lat="64.67252777729824" lon="13.46525554987842" id="-42312">
		<tag k="name" v="Midtitjønna" />
		<tag k="natural" v="water" />
		<tag k="ssr:stedsnr" v="499384" />
	</node>
	<node lat="64.18077777755987" lon="13.715677784091044" id="-42314">
		<tag k="name" v="Innerdalsåa" />
		<tag k="ssr:stedsnr" v="499802" />
		<tag k="waterway" v="river" />
	</node>
	<node lat="64.27307777589775" lon="13.764247221671456" id="-42315">
		<tag k="name" v="Småtjønnin" />
		<tag k="natural" v="water" />
		<tag k="ssr:stedsnr" v="499805" />
	</node>
	<node lat="64.09136111225436" lon="14.04986389142729" id="-42321">
		<tag k="name" v="Grensvika" />
		<tag k="natural" v="bay" />
		<tag k="ssr:stedsnr" v="499707" />
	</node>
	<node lat="64.09749444113535" lon="13.775497221498927" id="-42324">
		<tag k="name" v="Kroktjønna" />
		<tag k="natural" v="water" />
		<tag k="ssr:stedsnr" v="499734" />
	</node>
	<node lat="64.10379999588388" lon="13.939755556954227" id="-42326">
		<tag k="name" v="Torkelsøya" />
		<tag k="place" v="islet" />
		<tag k="ssr:stedsnr" v="499738" />
	</node>
	<node lat="64.10993610723722" lon="13.960144450282517" id="-42327">
		<tag k="name" v="Båsnestangen" />
		<tag k="natural" v="cape" />
		<tag k="ssr:stedsnr" v="499739" />
	</node>
	<node lat="64.31735555233888" lon="13.78803333526522" id="-42330">
		<tag k="name" v="Finnkrutjønnin" />
		<tag k="natural" v="water" />
		<tag k="ssr:stedsnr" v="499788" />
	</node>
	<node lat="64.25158611285454" lon="13.765455561646506" id="-42332">
		<tag k="name" v="Rosenbyggbekken" />
		<tag k="ssr:stedsnr" v="499797" />
		<tag k="waterway" v="stream" />
	</node>
	<node lat="64.51218333071617" lon="13.712344438491318" id="-42337">
		<tag k="name" v="Gjeddtjønna" />
		<tag k="natural" v="water" />
		<tag k="ssr:stedsnr" v="500041" />
	</node>
	<node lat="64.54473333719457" lon="13.657397230038352" id="-42338">
		<tag k="name" v="Tjønnbekken" />
		<tag k="ssr:stedsnr" v="500085" />
		<tag k="waterway" v="stream" />
	</node>
	<node lat="64.55183888958113" lon="13.35997500179963" id="-42339">
		<tag k="name" v="Lonet" />
		<tag k="place" v="locality" />
		<tag k="ssr:stedsnr" v="500098" />
	</node>
	<node lat="64.13627500135534" lon="13.89475554635497" id="-42342">
		<tag k="name" v="Straumen" />
		<tag k="natural" v="strait" />
		<tag k="ssr:stedsnr" v="499997" />
	</node>
	<node lat="64.57941666261526" lon="13.581569450182904" id="-42343">
		<tag k="name" v="Ryggvatnet" />
		<tag k="natural" v="water" />
		<tag k="ssr:stedsnr" v="500106" />
		<tag k="water" v="lake" />
	</node>
	<node lat="64.7460111129362" lon="13.462227781358772" id="-42345">
		<tag k="name" v="Brennbergbekken" />
		<tag k="ssr:stedsnr" v="500292" />
		<tag k="waterway" v="stream" />
	</node>
	<node lat="64.63219166362138" lon="13.614166659968573" id="-42347">
		<tag k="name" v="Seterbekken" />
		<tag k="ssr:stedsnr" v="500438" />
		<tag k="waterway" v="stream" />
	</node>
	<node lat="64.65780555153452" lon="13.54649722700712" id="-42350">
		<tag k="name" v="Dalatjønna" />
		<tag k="natural" v="water" />
		<tag k="ssr:stedsnr" v="500501" />
	</node>
	<node lat="64.75425555746851" lon="13.844874991925417" id="-42351">
		<tag k="name" v="Rååtjedenjaevrie" />
		<tag k="name:sma" v="Rååtjedenjaevrie" />
		<tag k="natural" v="water" />
		<tag k="ssr:stedsnr" v="500331" />
	</node>
	<node lat="64.66118055869451" lon="13.578327777235621" id="-42353">
		<tag k="name" v="Litltjønna" />
		<tag k="natural" v="water" />
		<tag k="ssr:stedsnr" v="500504" />
	</node>
	<node lat="64.41744444835881" lon="14.00913611780672" id="-42355">
		<tag k="name" v="Koitjønna" />
		<tag k="natural" v="water" />
		<tag k="ssr:stedsnr" v="681770" />
	</node>
	<node lat="64.40344999890661" lon="13.754769439849436" id="-42356">
		<tag k="name" v="Kringelflyen" />
		<tag k="place" v="locality" />
		<tag k="ssr:stedsnr" v="681771" />
	</node>
	<node lat="64.41539999611274" lon="14.101483339440133" id="-42358">
		<tag k="name" v="Holmvassbekken" />
		<tag k="ssr:stedsnr" v="681774" />
		<tag k="waterway" v="stream" />
	</node>
	<node lat="64.42511944239257" lon="13.917038886592739" id="-42360">
		<tag k="name" v="Storbekken" />
		<tag k="ssr:stedsnr" v="681779" />
		<tag k="waterway" v="stream" />
	</node>
	<node lat="64.11465277351307" lon="13.710166672181362" id="-42364">
		<tag k="name" v="Smaltjønna" />
		<tag k="natural" v="water" />
		<tag k="ssr:stedsnr" v="681823" />
	</node>
	<node lat="64.32120555236688" lon="13.757963888965394" id="-42365">
		<tag k="name" v="Storsteintjønna" />
		<tag k="natural" v="water" />
		<tag k="ssr:stedsnr" v="681828" />
	</node>
	<node lat="64.27862222668797" lon="13.809577771892291" id="-42367">
		<tag k="name" v="Stortverrutjønna" />
		<tag k="natural" v="water" />
		<tag k="ssr:stedsnr" v="681845" />
	</node>
	<node lat="64.38057500120556" lon="13.698108329736929" id="-42368">
		<tag k="name" v="Setertangen" />
		<tag k="natural" v="cape" />
		<tag k="ssr:stedsnr" v="681875" />
	</node>
	<node lat="64.24638055364149" lon="13.995808324074666" id="-42369">
		<tag k="name" v="Finnkrutangen" />
		<tag k="natural" v="cape" />
		<tag k="ssr:stedsnr" v="681879" />
	</node>
	<node lat="64.32258888460873" lon="13.573736108955588" id="-42372">
		<tag k="name" v="Setervika" />
		<tag k="natural" v="bay" />
		<tag k="ssr:stedsnr" v="681888" />
	</node>
	<node lat="64.12190277908692" lon="13.907719454746639" id="-42375">
		<tag k="name" v="Langholmen" />
		<tag k="place" v="islet" />
		<tag k="ssr:stedsnr" v="681980" />
	</node>
	<node lat="64.14848055944758" lon="14.061916657816052" id="-42378">
		<tag k="name" v="Gamseterøya" />
		<tag k="place" v="islet" />
		<tag k="ssr:stedsnr" v="682000" />
	</node>
	<node lat="64.79599166413927" lon="13.705572212396389" id="-42380">
		<tag k="fixme" v="multiple name tags, choose one and add the other to alt_name" />
		<tag k="name" v="Dievienjaevrie;Duvvienjaevrie - Devikvatnet" />
		<tag k="name:no" v="Devikvatnet" />
		<tag k="name:sma" v="Dievienjaevrie;Duvvienjaevrie" />
		<tag k="natural" v="water" />
		<tag k="ssr:stedsnr" v="682353" />
		<tag k="water" v="lake" />
	</node>
	<node lat="64.56470277572205" lon="13.288661119672494" id="-42386">
		<tag k="alt_name" v="Køylibekken" />
		<tag k="name" v="Koilibekken" />
		<tag k="ssr:stedsnr" v="682101" />
		<tag k="waterway" v="stream" />
	</node>
	<node lat="64.56389166715365" lon="13.407836101932627" id="-42387">
		<tag k="name" v="Fosstjønna" />
		<tag k="natural" v="water" />
		<tag k="ssr:stedsnr" v="682105" />
	</node>
	<node lat="64.57095277544755" lon="13.441138879870913" id="-42388">
		<tag k="name" v="Holmtjønna" />
		<tag k="natural" v="water" />
		<tag k="ssr:stedsnr" v="682107" />
	</node>
	<node lat="64.50308888517785" lon="13.483961107906687" id="-42389">
		<tag k="name" v="Litltjønna" />
		<tag k="natural" v="water" />
		<tag k="ssr:stedsnr" v="682013" />
	</node>
	<node lat="64.51935555957095" lon="13.606530550115895" id="-42390">
		<tag k="name" v="Leirbakkelva" />
		<tag k="ssr:stedsnr" v="682025" />
		<tag k="waterway" v="river" />
	</node>
	<node lat="64.50627500062004" lon="13.371994452305614" id="-42391">
		<tag k="name" v="Litlåa" />
		<tag k="ssr:stedsnr" v="682038" />
		<tag k="waterway" v="stream" />
	</node>
	<node lat="64.56931110986487" lon="13.629372232313836" id="-42395">
		<tag k="name" v="Lifjelltjønna" />
		<tag k="natural" v="water" />
		<tag k="ssr:stedsnr" v="682125" />
	</node>
	<node lat="64.57145833778888" lon="13.331274996353908" id="-42397">
		<tag k="name" v="Fjelltjønna" />
		<tag k="natural" v="water" />
		<tag k="ssr:stedsnr" v="682145" />
	</node>
	<node lat="64.61903888521752" lon="13.501480545648077" id="-42399">
		<tag k="name" v="Margretetjønna" />
		<tag k="natural" v="water" />
		<tag k="ssr:stedsnr" v="682435" />
	</node>
	<node lat="64.65113611174347" lon="13.599661109106957" id="-42403">
		<tag k="name" v="Fagernesbekken" />
		<tag k="ssr:stedsnr" v="682484" />
		<tag k="waterway" v="stream" />
	</node>
	<node lat="64.36317499838513" lon="14.054900003811545" id="-42405">
		<tag k="name" v="Storvatnet - Aahkabieljiejaevrie" />
		<tag k="name:no" v="Storvatnet" />
		<tag k="name:sma" v="Aahkabieljiejaevrie" />
		<tag k="natural" v="water" />
		<tag k="ssr:stedsnr" v="510822" />
		<tag k="water" v="lake" />
	</node>
	<node lat="64.48808333710511" lon="13.364102771266376" id="-42406">
		<tag k="name" v="Fjøsvika" />
		<tag k="natural" v="bay" />
		<tag k="ssr:stedsnr" v="511748" />
	</node>
	<node lat="64.45673610882513" lon="13.353530545701295" id="-42417">
		<tag k="name" v="Røpråbekken" />
		<tag k="ssr:stedsnr" v="532165" />
		<tag k="waterway" v="stream" />
	</node>
	<node lat="64.1514555585643" lon="13.84306389348839" id="-42424">
		<tag k="name" v="Grimsnesvika" />
		<tag k="natural" v="bay" />
		<tag k="ssr:stedsnr" v="533214" />
	</node>
	<node lat="64.34329444062944" lon="13.528980555832238" id="-42441">
		<tag k="name" v="Ånestangen" />
		<tag k="natural" v="cape" />
		<tag k="ssr:stedsnr" v="559088" />
	</node>
	<node lat="64.40250555631525" lon="13.542808338190266" id="-42442">
		<tag k="name" v="Tølløvtjønna" />
		<tag k="natural" v="water" />
		<tag k="ssr:stedsnr" v="559095" />
	</node>
	<node lat="64.38095278174927" lon="13.414638898756017" id="-42445">
		<tag k="name" v="Bustadtjønna" />
		<tag k="natural" v="water" />
		<tag k="ssr:stedsnr" v="559109" />
	</node>
	<node lat="64.41535555628002" lon="13.715050004886464" id="-42446">
		<tag k="name" v="Lutra - Bissiedurrienjohke" />
		<tag k="name:no" v="Lutra" />
		<tag k="name:sma" v="Bissiedurrienjohke" />
		<tag k="ssr:stedsnr" v="559138" />
		<tag k="waterway" v="river" />
	</node>
	<node lat="64.40060000034781" lon="14.0849416564281" id="-42447">
		<tag k="name" v="Holmvatnet - Såaloejaevrie" />
		<tag k="name:no" v="Holmvatnet" />
		<tag k="name:sma" v="Såaloejaevrie" />
		<tag k="natural" v="water" />
		<tag k="ssr:stedsnr" v="559786" />
		<tag k="water" v="lake" />
	</node>
	<node lat="64.21302500134614" lon="13.930930553096928" id="-42462">
		<tag k="name" v="Skultjønna" />
		<tag k="natural" v="water" />
		<tag k="ssr:stedsnr" v="559890" />
	</node>
	<node lat="64.13600000413888" lon="13.9909777708347" id="-42465">
		<tag k="name" v="Høltjønna" />
		<tag k="natural" v="water" />
		<tag k="ssr:stedsnr" v="559992" />
	</node>
	<node lat="64.67982777713519" lon="13.540113893752212" id="-42472">
		<tag k="name" v="Langvika" />
		<tag k="natural" v="bay" />
		<tag k="ssr:stedsnr" v="560442" />
	</node>
	<node lat="64.69688888720243" lon="13.390594449013756" id="-42473">
		<tag k="name" v="Storhallaren" />
		<tag k="natural" v="cape" />
		<tag k="ssr:stedsnr" v="560483" />
	</node>
	<node lat="64.38648610675442" lon="14.093216667679572" id="-42474">
		<tag k="name" v="Akkavatnet - Aahkajaevrie" />
		<tag k="name:no" v="Akkavatnet" />
		<tag k="name:sma" v="Aahkajaevrie" />
		<tag k="natural" v="water" />
		<tag k="ssr:stedsnr" v="560803" />
		<tag k="water" v="lake" />
	</node>
	<node lat="64.23792777662837" lon="13.58019165702175" id="-42475">
		<tag k="name" v="Bergtjønna" />
		<tag k="natural" v="water" />
		<tag k="ssr:stedsnr" v="560813" />
	</node>
	<node lat="64.34722500090238" lon="13.778524991776594" id="-42476">
		<tag k="name" v="Storfiskplutten" />
		<tag k="natural" v="water" />
		<tag k="ssr:stedsnr" v="560815" />
	</node>
	<node lat="64.2437055580762" lon="13.7089583307235" id="-42477">
		<tag k="name" v="Hundvika" />
		<tag k="natural" v="bay" />
		<tag k="ssr:stedsnr" v="560817" />
	</node>
	<node lat="64.11043055943372" lon="14.000291663730561" id="-42478">
		<tag k="name" v="Kverntjønna" />
		<tag k="natural" v="water" />
		<tag k="ssr:stedsnr" v="560773" />
	</node>
	<node lat="64.46438611385368" lon="13.303877787941223" id="-42483">
		<tag k="name" v="Øver-Melkhustjønna" />
		<tag k="natural" v="water" />
		<tag k="ssr:stedsnr" v="693734" />
	</node>
	<node lat="64.24371388778539" lon="13.860616672931693" id="-42494">
		<tag k="name" v="Seterbekken" />
		<tag k="ssr:stedsnr" v="571909" />
		<tag k="waterway" v="stream" />
	</node>
	<node lat="64.27561666276823" lon="13.653397216744665" id="-42497">
		<tag k="name" v="Hampvika" />
		<tag k="natural" v="bay" />
		<tag k="ssr:stedsnr" v="693818" />
	</node>
	<node lat="64.2171194404108" lon="13.841197218455916" id="-42499">
		<tag k="name" v="Hestbekken" />
		<tag k="ssr:stedsnr" v="693933" />
		<tag k="waterway" v="stream" />
	</node>
	<node lat="64.14370000048709" lon="13.888658331712799" id="-42500">
		<tag k="name" v="Hampkjella" />
		<tag k="natural" v="water" />
		<tag k="ssr:stedsnr" v="693944" />
		<tag k="water" v="lake" />
	</node>
	<node lat="64.44484999899505" lon="13.437705552846769" id="-42505">
		<tag k="name" v="Ørviktangen" />
		<tag k="ssr:stedsnr" v="592215" />
		<tag k="waterway" v="stream" />
	</node>
	<node lat="64.3717000018383" lon="13.7100833372198" id="-42507">
		<tag k="name" v="Midtitangen" />
		<tag k="natural" v="cape" />
		<tag k="ssr:stedsnr" v="592559" />
	</node>
	<node lat="64.43825555295831" lon="13.496972221883171" id="-42508">
		<tag k="name" v="Merkesvika" />
		<tag k="natural" v="bay" />
		<tag k="ssr:stedsnr" v="593109" />
	</node>
	<node lat="64.30089166485705" lon="13.837538889218854" id="-42514">
		<tag k="name" v="Storplutten" />
		<tag k="natural" v="water" />
		<tag k="ssr:stedsnr" v="593359" />
		<tag k="water" v="pond" />
	</node>
	<node lat="64.09650000065626" lon="14.031213892470735" id="-42517">
		<tag k="name" v="Mellomsandvika" />
		<tag k="natural" v="bay" />
		<tag k="ssr:stedsnr" v="593634" />
	</node>
	<node lat="64.42815555296322" lon="13.813555548090916" id="-42522">
		<tag k="name" v="Nyorktangen" />
		<tag k="natural" v="cape" />
		<tag k="ssr:stedsnr" v="594510" />
	</node>
	<node lat="64.40389444881458" lon="13.739311107528899" id="-42523">
		<tag k="name" v="Einvollfossen" />
		<tag k="natural" v="waterfall" />
		<tag k="ssr:stedsnr" v="594602" />
	</node>
	<node lat="64.39220833716574" lon="13.642436116316576" id="-42527">
		<tag k="name" v="Lomplutten" />
		<tag k="natural" v="water" />
		<tag k="ssr:stedsnr" v="594700" />
		<tag k="water" v="pond" />
	</node>
	<node lat="64.49155555142552" lon="13.9868249929557" id="-42535">
		<tag k="name" v="Hylltangen" />
		<tag k="natural" v="cape" />
		<tag k="ssr:stedsnr" v="620024" />
	</node>
	<node lat="64.33082222083972" lon="13.710613897449416" id="-42537">
		<tag k="name" v="Langtjønna" />
		<tag k="natural" v="water" />
		<tag k="ssr:stedsnr" v="620038" />
	</node>
	<node lat="64.37195555797143" lon="13.462933325741467" id="-42538">
		<tag k="alt_name" v="Grismattunna" />
		<tag k="name" v="Grismattønna" />
		<tag k="natural" v="water" />
		<tag k="ssr:stedsnr" v="620075" />
	</node>
	<node lat="64.34703611229179" lon="13.549822215262543" id="-42539">
		<tag k="name" v="Bustadtjønna" />
		<tag k="natural" v="water" />
		<tag k="ssr:stedsnr" v="620082" />
	</node>
	<node lat="64.3371833340527" lon="13.538444448501785" id="-42540">
		<tag k="name" v="Holden" />
		<tag k="natural" v="water" />
		<tag k="ssr:stedsnr" v="620084" />
		<tag k="water" v="lake" />
	</node>
	<node lat="64.40399999982527" lon="13.459291666533652" id="-42541">
		<tag k="name" v="Storgampåltjønna" />
		<tag k="natural" v="water" />
		<tag k="ssr:stedsnr" v="620102" />
	</node>
	<node lat="64.39154166519309" lon="13.243347218422482" id="-42543">
		<tag k="name" v="Litlhykkelnestjønna" />
		<tag k="natural" v="water" />
		<tag k="ssr:stedsnr" v="620105" />
	</node>
	<node lat="64.38531389259192" lon="13.437461109523952" id="-42545">
		<tag k="name" v="Langtangen" />
		<tag k="natural" v="cape" />
		<tag k="ssr:stedsnr" v="620113" />
	</node>
	<node lat="64.25628888852557" lon="13.862036115557942" id="-42548">
		<tag k="name" v="Mustjønnbekken" />
		<tag k="ssr:stedsnr" v="620817" />
		<tag k="waterway" v="stream" />
	</node>
	<node lat="64.27443888550259" lon="13.752522231059418" id="-42549">
		<tag k="name" v="Langtjønna" />
		<tag k="natural" v="water" />
		<tag k="ssr:stedsnr" v="620824" />
	</node>
	<node lat="64.27275555812709" lon="13.813519450788439" id="-42551">
		<tag k="name" v="Litltverrutjønna" />
		<tag k="natural" v="water" />
		<tag k="ssr:stedsnr" v="620826" />
	</node>
	<node lat="64.20851944391846" lon="13.52395277980128" id="-42553">
		<tag k="name" v="Knuttjønna" />
		<tag k="natural" v="water" />
		<tag k="ssr:stedsnr" v="620769" />
	</node>
	<node lat="64.24711944792385" lon="13.70757221338047" id="-42556">
		<tag k="name" v="Lenglingen" />
		<tag k="natural" v="water" />
		<tag k="ssr:stedsnr" v="620779" />
		<tag k="water" v="lake" />
	</node>
	<node lat="64.04732222444323" lon="14.006488892058126" id="-42557">
		<tag k="name" v="Lintjønna" />
		<tag k="natural" v="water" />
		<tag k="ssr:stedsnr" v="620781" />
	</node>
	<node lat="64.24429444375181" lon="13.558908333505402" id="-42558">
		<tag k="name" v="Langtjønna" />
		<tag k="natural" v="water" />
		<tag k="ssr:stedsnr" v="620783" />
	</node>
	<node lat="64.10261666639806" lon="13.70341666241819" id="-42561">
		<tag k="name" v="Skardtjønna" />
		<tag k="natural" v="water" />
		<tag k="ssr:stedsnr" v="620792" />
	</node>
	<node lat="64.20160277869667" lon="13.814444439963523" id="-42562">
		<tag k="alt_name" v="Setertangen" />
		<tag k="name" v="Sætertangen" />
		<tag k="natural" v="cape" />
		<tag k="ssr:stedsnr" v="620908" />
	</node>
	<node lat="64.16333332903285" lon="14.123216667199967" id="-42563">
		<tag k="name" v="Hestplutten" />
		<tag k="natural" v="water" />
		<tag k="ssr:stedsnr" v="620914" />
	</node>
	<node lat="64.50579999644602" lon="13.714724999175765" id="-42565">
		<tag k="name" v="Damplutten" />
		<tag k="natural" v="water" />
		<tag k="ssr:stedsnr" v="621008" />
	</node>
	<node lat="64.51523611052772" lon="13.527050007697632" id="-42567">
		<tag k="name" v="Storbekken" />
		<tag k="ssr:stedsnr" v="621016" />
		<tag k="waterway" v="stream" />
	</node>
	<node lat="64.56079444527322" lon="13.365697226002235" id="-42568">
		<tag k="name" v="Rørtjønna" />
		<tag k="natural" v="water" />
		<tag k="ssr:stedsnr" v="621066" />
	</node>
	<node lat="64.74329444007645" lon="13.61606666884003" id="-42573">
		<tag k="alt_name" v="Kvarteltangen" />
		<tag k="name" v="Kvartelviktangen" />
		<tag k="natural" v="cape" />
		<tag k="ssr:stedsnr" v="621268" />
	</node>
	<node lat="64.61282500240506" lon="13.508238887118882" id="-42575">
		<tag k="name" v="Fossen" />
		<tag k="natural" v="waterfall" />
		<tag k="ssr:stedsnr" v="621420" />
	</node>
	<node lat="64.65201111507702" lon="13.696375002216154" id="-42576">
		<tag k="name" v="Tunnsjøbekken" />
		<tag k="ssr:stedsnr" v="621471" />
		<tag k="waterway" v="stream" />
	</node>
	<node lat="64.68661944288334" lon="13.655008339161906" id="-42577">
		<tag k="name" v="Leirbekken" />
		<tag k="ssr:stedsnr" v="621481" />
		<tag k="waterway" v="stream" />
	</node>
	<node lat="64.7128333335914" lon="13.684580545233361" id="-42578">
		<tag k="alt_name" v="Køytangen" />
		<tag k="name" v="Koitangen" />
		<tag k="natural" v="cape" />
		<tag k="ssr:stedsnr" v="621521" />
	</node>
	<node lat="64.26252222699212" lon="13.69647776856534" id="-42579">
		<tag k="name" v="Kattviktangholmen" />
		<tag k="place" v="islet" />
		<tag k="ssr:stedsnr" v="632809" />
	</node>
	<node lat="64.29248333258772" lon="13.6593833271858" id="-42581">
		<tag k="name" v="Olausbekken" />
		<tag k="ssr:stedsnr" v="632835" />
		<tag k="waterway" v="stream" />
	</node>
	<node lat="64.23354722370277" lon="13.784847218825545" id="-42591">
		<tag k="name" v="Nøtvika" />
		<tag k="natural" v="bay" />
		<tag k="ssr:stedsnr" v="632888" />
	</node>
	<node lat="64.28218055821142" lon="13.657566663967712" id="-42592">
		<tag k="name" v="Motangen" />
		<tag k="natural" v="cape" />
		<tag k="ssr:stedsnr" v="633879" />
	</node>
	<node lat="64.79485555422141" lon="13.718852768477573" id="-42595">
		<tag k="name" v="Finnhusbekken - Gåetien-johke" />
		<tag k="name:no" v="Finnhusbekken" />
		<tag k="name:sma" v="Gåetien-johke" />
		<tag k="ssr:stedsnr" v="653625" />
		<tag k="waterway" v="stream" />
	</node>
	<node lat="64.80934166822918" lon="13.83678054744339" id="-42596">
		<tag k="name" v="Guhkies-tjonnen johke" />
		<tag k="name:sma" v="Guhkies-tjonnen johke" />
		<tag k="ssr:stedsnr" v="653718" />
		<tag k="waterway" v="stream" />
	</node>
	<node lat="64.55142777388942" lon="13.34633610554224" id="-42601">
		<tag k="name" v="Rundplutten" />
		<tag k="natural" v="water" />
		<tag k="ssr:stedsnr" v="654297" />
		<tag k="water" v="pond" />
	</node>
	<node lat="64.1815472239578" lon="14.049941669705312" id="-42602">
		<tag k="name" v="Kalvbjellbekken" />
		<tag k="ssr:stedsnr" v="654301" />
		<tag k="waterway" v="stream" />
	</node>
	<node lat="64.2259166673395" lon="13.934277770270933" id="-42603">
		<tag k="name" v="Gravtjønnbekken" />
		<tag k="ssr:stedsnr" v="654440" />
		<tag k="waterway" v="stream" />
	</node>
	<node lat="64.55178055930361" lon="13.372794435149542" id="-42604">
		<tag k="name" v="Langtjønnelva" />
		<tag k="ssr:stedsnr" v="654304" />
		<tag k="waterway" v="stream" />
	</node>
	<node lat="64.25864999738842" lon="13.85879444736227" id="-42605">
		<tag k="name" v="Langplutten" />
		<tag k="natural" v="water" />
		<tag k="ssr:stedsnr" v="654400" />
		<tag k="water" v="pond" />
	</node>
	<node lat="64.20140555721919" lon="13.608808329917721" id="-42613">
		<tag k="name" v="Jakobflyen" />
		<tag k="place" v="locality" />
		<tag k="ssr:stedsnr" v="654835" />
	</node>
	<node lat="64.48018333095096" lon="13.764522226740361" id="-42615">
		<tag k="name" v="Grønlibekken" />
		<tag k="ssr:stedsnr" v="654705" />
		<tag k="waterway" v="stream" />
	</node>
	<node lat="64.47401666273582" lon="13.870055557696775" id="-42617">
		<tag k="name" v="Storlihøgdbekken" />
		<tag k="ssr:stedsnr" v="654736" />
		<tag k="waterway" v="stream" />
	</node>
	<node lat="64.17710277438205" lon="13.718852770375872" id="-42618">
		<tag k="name" v="Storøya" />
		<tag k="place" v="islet" />
		<tag k="ssr:stedsnr" v="654787" />
	</node>
	<node lat="64.38001944104457" lon="13.695663888101903" id="-42625">
		<tag k="name" v="Utøra" />
		<tag k="natural" v="bay" />
		<tag k="ssr:stedsnr" v="655695" />
	</node>
	<node lat="64.49563055158619" lon="13.813847224804158" id="-42627">
		<tag k="name" v="Kvesjøen" />
		<tag k="natural" v="water" />
		<tag k="ssr:stedsnr" v="681003" />
		<tag k="water" v="lake" />
	</node>
	<node lat="64.34255555521649" lon="13.68161388036993" id="-42631">
		<tag k="name" v="Stormattistjønna" />
		<tag k="natural" v="water" />
		<tag k="ssr:stedsnr" v="681077" />
	</node>
	<node lat="64.22417222003266" lon="13.501877777705488" id="-42634">
		<tag k="name" v="Sæterbekken" />
		<tag k="ssr:stedsnr" v="681807" />
		<tag k="waterway" v="stream" />
	</node>
	<node lat="64.02320833271693" lon="13.888536113669288" id="-42635">
		<tag k="name" v="Gretaplutten" />
		<tag k="natural" v="water" />
		<tag k="ssr:stedsnr" v="681812" />
	</node>
	<node lat="64.11835833579961" lon="13.69655555441326" id="-42638">
		<tag k="name" v="Store Fjelltjønna" />
		<tag k="natural" v="water" />
		<tag k="ssr:stedsnr" v="681820" />
	</node>
	<node lat="64.25363055477119" lon="13.983494445201359" id="-42640">
		<tag k="name" v="Storsandtjønna" />
		<tag k="natural" v="water" />
		<tag k="ssr:stedsnr" v="681860" />
	</node>
	<node lat="64.20348888490963" lon="14.02179166875469" id="-42644">
		<tag k="name" v="Storbekken" />
		<tag k="ssr:stedsnr" v="681926" />
		<tag k="waterway" v="stream" />
	</node>
	<node lat="64.53412777365871" lon="13.358150008740946" id="-42648">
		<tag k="name" v="Tømmerhyttbekken" />
		<tag k="ssr:stedsnr" v="682062" />
		<tag k="waterway" v="stream" />
	</node>
	<node lat="64.432863886056" lon="13.644022220566637" id="-42651">
		<tag k="name" v="Tømmervika" />
		<tag k="natural" v="bay" />
		<tag k="ssr:stedsnr" v="682164" />
	</node>
	<node lat="64.73251666516018" lon="13.661483335893976" id="-42653">
		<tag k="name" v="Langtangen" />
		<tag k="natural" v="cape" />
		<tag k="ssr:stedsnr" v="682304" />
	</node>
	<node lat="64.51696388652054" lon="13.18344167147015" id="-42657">
		<tag k="name" v="Øvre Kviltjønna" />
		<tag k="natural" v="water" />
		<tag k="ssr:stedsnr" v="682342" />
	</node>
	<node lat="64.64860277389452" lon="13.432750003697446" id="-42659">
		<tag k="name" v="Svartbergbekken" />
		<tag k="ssr:stedsnr" v="682458" />
		<tag k="waterway" v="stream" />
	</node>
	<node lat="64.66048610935205" lon="13.691230549610463" id="-42660">
		<tag k="name" v="Jo Persa-bekken" />
		<tag k="ssr:stedsnr" v="682462" />
		<tag k="waterway" v="stream" />
	</node>
	<node lat="64.65661944749661" lon="13.67144722526454" id="-42661">
		<tag k="name" v="Volltjønnbekken" />
		<tag k="ssr:stedsnr" v="682463" />
		<tag k="waterway" v="stream" />
	</node>
	<node lat="64.6441555594738" lon="13.576147228609866" id="-42663">
		<tag k="name" v="Grubbtjønnbekken" />
		<tag k="ssr:stedsnr" v="682472" />
		<tag k="waterway" v="stream" />
	</node>
	<node lat="64.65925833314263" lon="13.37480832329216" id="-42664">
		<tag k="name" v="Kastbekken" />
		<tag k="ssr:stedsnr" v="682519" />
		<tag k="waterway" v="stream" />
	</node>
	<node lat="64.66642499945922" lon="13.425402773891369" id="-42665">
		<tag k="name" v="Ingelsvatnet" />
		<tag k="natural" v="water" />
		<tag k="ssr:stedsnr" v="682523" />
		<tag k="water" v="lake" />
	</node>
	<node lat="64.159550000286" lon="13.454938896533445" id="-42668">
		<tag k="alt_name:no" v="Blåfjellvatnet, vestre" />
		<tag k="name" v="Vestre Blåfjellvatnet - Jillie-Dåvnere" />
		<tag k="name:no" v="Vestre Blåfjellvatnet" />
		<tag k="name:sma" v="Jillie-Dåvnere" />
		<tag k="natural" v="water" />
		<tag k="ssr:stedsnr" v="693823" />
		<tag k="water" v="lake" />
	</node>
	<node lat="64.47659166849884" lon="13.413152781157047" id="-42675">
		<tag k="name" v="Grynmyrbekken" />
		<tag k="ssr:stedsnr" v="694781" />
		<tag k="waterway" v="stream" />
	</node>
	<node lat="64.2709222230921" lon="13.570736108751742" id="-42677">
		<tag k="name" v="Holmen" />
		<tag k="natural" v="cape" />
		<tag k="ssr:stedsnr" v="895898" />
	</node>
	<node lat="64.65316388958995" lon="13.517038894740825" id="-42679">
		<tag k="name" v="Rømmerbekken" />
		<tag k="ssr:stedsnr" v="898238" />
		<tag k="waterway" v="stream" />
	</node>
	<node lat="64.10900277711042" lon="13.96786944674091" id="-42683">
		<tag k="name" v="Litlholmen" />
		<tag k="place" v="islet" />
		<tag k="ssr:stedsnr" v="897143" />
	</node>
	<node lat="64.13351388655259" lon="13.946141674877625" id="-42684">
		<tag k="name" v="Nymyrbekken" />
		<tag k="ssr:stedsnr" v="897073" />
		<tag k="waterway" v="stream" />
	</node>
	<node lat="64.45647777854785" lon="13.408461104697958" id="-42686">
		<tag k="name" v="Hølbekken" />
		<tag k="ssr:stedsnr" v="897182" />
		<tag k="waterway" v="stream" />
	</node>
	<node lat="64.39337499993182" lon="13.457222231262953" id="-42690">
		<tag k="name" v="Sandtangen" />
		<tag k="natural" v="cape" />
		<tag k="ssr:stedsnr" v="897232" />
	</node>
	<node lat="64.12975000355897" lon="14.090063885361465" id="-42691">
		<tag k="name" v="Rørsjøen" />
		<tag k="natural" v="water" />
		<tag k="ssr:stedsnr" v="897245" />
		<tag k="water" v="lake" />
	</node>
	<node lat="64.4809611100111" lon="14.050291672140245" id="-42692">
		<tag k="name" v="Gravbekken" />
		<tag k="ssr:stedsnr" v="897347" />
		<tag k="waterway" v="stream" />
	</node>
	<node lat="64.31663889349284" lon="13.640686108498217" id="-42697">
		<tag k="name" v="Midtitjønna" />
		<tag k="natural" v="water" />
		<tag k="ssr:stedsnr" v="897581" />
	</node>
	<node lat="64.69245555325347" lon="13.402477771393064" id="-42706">
		<tag k="name" v="Bergtjønna" />
		<tag k="natural" v="water" />
		<tag k="ssr:stedsnr" v="898154" />
	</node>
	<node lat="64.11232777318595" lon="14.06887500660352" id="-42709">
		<tag k="name" v="Litlfiskløysa" />
		<tag k="natural" v="water" />
		<tag k="ssr:stedsnr" v="898255" />
	</node>
	<node lat="64.54391666894053" lon="13.277144454072685" id="-42712">
		<tag k="name" v="Rørtjønna" />
		<tag k="natural" v="water" />
		<tag k="ssr:stedsnr" v="898287" />
	</node>
	<node lat="64.56716666612179" lon="13.360844445515555" id="-42713">
		<tag k="name" v="Langtjønnin" />
		<tag k="natural" v="water" />
		<tag k="ssr:stedsnr" v="898292" />
	</node>
	<node lat="64.69975278003619" lon="13.751824993480913" id="-42719">
		<tag k="name" v="Storvika" />
		<tag k="natural" v="bay" />
		<tag k="ssr:stedsnr" v="898528" />
	</node>
	<node lat="64.80996389172518" lon="13.857041669834878" id="-42721">
		<tag k="name" v="Sjapmen-johke" />
		<tag k="name:sma" v="Sjapmen-johke" />
		<tag k="ssr:stedsnr" v="714675" />
		<tag k="waterway" v="river" />
	</node>
	<node lat="64.3829027794318" lon="13.659100004053958" id="-42723">
		<tag k="name" v="Gulleppelbekken" />
		<tag k="ssr:stedsnr" v="898653" />
		<tag k="waterway" v="stream" />
	</node>
	<node lat="64.49186389054569" lon="13.685408332532004" id="-42725">
		<tag k="name" v="Brillputten" />
		<tag k="natural" v="water" />
		<tag k="ssr:stedsnr" v="898783" />
		<tag k="water" v="pond" />
	</node>
	<node lat="64.71564167054542" lon="13.548847213451431" id="-42728">
		<tag k="name" v="Bjønndalbekken" />
		<tag k="ssr:stedsnr" v="898802" />
		<tag k="waterway" v="stream" />
	</node>
	<node lat="64.38836110886832" lon="13.709569444576715" id="-42730">
		<tag k="name" v="Hovden" />
		<tag k="natural" v="bay" />
		<tag k="ssr:stedsnr" v="898697" />
	</node>
	<node lat="64.05538610804625" lon="13.996824997159877" id="-42734">
		<tag k="name" v="Joflotjønna" />
		<tag k="natural" v="water" />
		<tag k="ssr:stedsnr" v="715213" />
	</node>
	<node lat="64.49952777671801" lon="13.121986118029794" id="-42737">
		<tag k="name" v="Ænnerbekken" />
		<tag k="ssr:stedsnr" v="715279" />
		<tag k="waterway" v="stream" />
	</node>
	<node lat="64.48578611238726" lon="13.95188888672524" id="-42738">
		<tag k="name" v="Kveelva" />
		<tag k="ssr:stedsnr" v="715403" />
		<tag k="waterway" v="river" />
	</node>
	<node lat="64.25347222484318" lon="13.856944434754144" id="-42739">
		<tag k="name" v="Merkebekken" />
		<tag k="ssr:stedsnr" v="715411" />
		<tag k="waterway" v="stream" />
	</node>
	<node lat="64.49750000344861" lon="13.236561119313047" id="-42741">
		<tag k="name" v="Sneppen" />
		<tag k="natural" v="cape" />
		<tag k="ssr:stedsnr" v="715307" />
	</node>
	<node lat="64.47851111488022" lon="14.050299992647563" id="-42744">
		<tag k="name" v="Piltangen" />
		<tag k="natural" v="cape" />
		<tag k="ssr:stedsnr" v="715382" />
	</node>
	<node lat="64.06424722319682" lon="14.008724999104913" id="-42746">
		<tag k="name" v="Linnesseterbekken" />
		<tag k="ssr:stedsnr" v="715687" />
		<tag k="waterway" v="stream" />
	</node>
	<node lat="64.42380277980983" lon="13.695611112587494" id="-42749">
		<tag k="name" v="Lauvtangen" />
		<tag k="natural" v="cape" />
		<tag k="ssr:stedsnr" v="715817" />
	</node>
	<node lat="64.26910555469657" lon="13.664427778791527" id="-42756">
		<tag k="name" v="Ålnestangen" />
		<tag k="natural" v="cape" />
		<tag k="ssr:stedsnr" v="741007" />
	</node>
	<node lat="64.45391666999797" lon="13.634538897522303" id="-42757">
		<tag k="name" v="Gamseterplutten" />
		<tag k="natural" v="water" />
		<tag k="ssr:stedsnr" v="741200" />
	</node>
	<node lat="64.07360278133758" lon="14.01376389467958" id="-42759">
		<tag k="name" v="Røtviktangen" />
		<tag k="natural" v="cape" />
		<tag k="ssr:stedsnr" v="741798" />
	</node>
	<node lat="64.19960555187782" lon="13.724972215907014" id="-42760">
		<tag k="name" v="Klotjønnbekken" />
		<tag k="ssr:stedsnr" v="741909" />
		<tag k="waterway" v="stream" />
	</node>
	<node lat="64.19946111090769" lon="13.747936102169623" id="-42761">
		<tag k="name" v="Klotjønna" />
		<tag k="natural" v="water" />
		<tag k="ssr:stedsnr" v="741910" />
	</node>
	<node lat="64.3396027786295" lon="13.69708055666475" id="-42764">
		<tag k="name" v="Kringeltjønna" />
		<tag k="natural" v="water" />
		<tag k="ssr:stedsnr" v="742034" />
	</node>
	<node lat="64.69587500221655" lon="13.768052774523493" id="-42771">
		<tag k="name" v="Hovdbekken" />
		<tag k="ssr:stedsnr" v="742222" />
		<tag k="waterway" v="stream" />
	</node>
	<node lat="64.41266388606083" lon="13.464133342028942" id="-42774">
		<tag k="name" v="Einarslåttjønna" />
		<tag k="natural" v="water" />
		<tag k="ssr:stedsnr" v="742133" />
	</node>
	<node lat="64.46572777853204" lon="13.32006666594045" id="-42775">
		<tag k="name" v="Damtjønna" />
		<tag k="natural" v="water" />
		<tag k="ssr:stedsnr" v="742181" />
	</node>
	<node lat="64.46888611461613" lon="13.403849991467922" id="-42777">
		<tag k="name" v="Nordsettjønna" />
		<tag k="natural" v="water" />
		<tag k="ssr:stedsnr" v="742185" />
	</node>
	<node lat="64.14394444260134" lon="13.66550834236358" id="-42784">
		<tag k="name" v="Fiskplutten" />
		<tag k="place" v="locality" />
		<tag k="ssr:stedsnr" v="742804" />
	</node>
	<node lat="64.1209027745563" lon="13.640877780326775" id="-42785">
		<tag k="name" v="Finnkrutjønna" />
		<tag k="natural" v="water" />
		<tag k="ssr:stedsnr" v="742809" />
	</node>
	<node lat="64.22670833573166" lon="13.78040000987491" id="-42787">
		<tag k="name" v="Kampvollvika" />
		<tag k="natural" v="bay" />
		<tag k="ssr:stedsnr" v="742839" />
	</node>
	<node lat="64.225202779106" lon="14.002499993726445" id="-42789">
		<tag k="name" v="Flåtjønna" />
		<tag k="natural" v="water" />
		<tag k="ssr:stedsnr" v="742891" />
	</node>
	<node lat="64.22100833229834" lon="13.802255551612058" id="-42790">
		<tag k="name" v="Litlholmen" />
		<tag k="place" v="islet" />
		<tag k="ssr:stedsnr" v="742899" />
	</node>
	<node lat="64.22914444191831" lon="14.057722220119745" id="-42791">
		<tag k="name" v="Sandtjønna" />
		<tag k="natural" v="water" />
		<tag k="ssr:stedsnr" v="742906" />
	</node>
	<node lat="64.72851666467616" lon="13.623138879626174" id="-42798">
		<tag k="name" v="Vargkjefttjønna" />
		<tag k="natural" v="water" />
		<tag k="ssr:stedsnr" v="743486" />
	</node>
	<node lat="64.71066666453291" lon="13.553952773839908" id="-42799">
		<tag k="name" v="Bjørndalvika" />
		<tag k="natural" v="bay" />
		<tag k="ssr:stedsnr" v="743487" />
	</node>
	<node lat="64.71473055712951" lon="13.569625000815355" id="-42800">
		<tag k="name" v="Lomplutten" />
		<tag k="natural" v="water" />
		<tag k="ssr:stedsnr" v="743488" />
	</node>
	<node lat="64.24246666515329" lon="13.850691658014533" id="-42805">
		<tag k="name" v="Midtibekken" />
		<tag k="ssr:stedsnr" v="754918" />
		<tag k="waterway" v="stream" />
	</node>
	<node lat="64.2116027777791" lon="13.678100009665492" id="-42809">
		<tag k="name" v="Merkesbekken" />
		<tag k="ssr:stedsnr" v="775703" />
		<tag k="waterway" v="stream" />
	</node>
	<node lat="64.54277500234505" lon="13.654508343242872" id="-42810">
		<tag k="name" v="Tjønnbekktangen" />
		<tag k="natural" v="cape" />
		<tag k="ssr:stedsnr" v="775905" />
	</node>
	<node lat="64.21184166762649" lon="13.795672217380796" id="-42815">
		<tag k="name" v="Torvika" />
		<tag k="natural" v="bay" />
		<tag k="ssr:stedsnr" v="776304" />
	</node>
	<node lat="64.25333888592003" lon="13.873111101562296" id="-42816">
		<tag k="name" v="Oksaugbekken" />
		<tag k="ssr:stedsnr" v="776367" />
		<tag k="waterway" v="stream" />
	</node>
	<node lat="64.45408055865344" lon="13.751955552713131" id="-42824">
		<tag k="name" v="Seterbekken" />
		<tag k="ssr:stedsnr" v="776617" />
		<tag k="waterway" v="stream" />
	</node>
	<node lat="64.1783805554089" lon="13.71751944724988" id="-42827">
		<tag k="name" v="Litløya" />
		<tag k="place" v="islet" />
		<tag k="ssr:stedsnr" v="776761" />
	</node>
	<node lat="64.787694446163" lon="13.72042499926075" id="-42829">
		<tag k="name" v="Flyelva - Krampan-johke" />
		<tag k="name:no" v="Flyelva" />
		<tag k="name:sma" v="Krampan-johke" />
		<tag k="ssr:stedsnr" v="791503" />
		<tag k="waterway" v="stream" />
	</node>
	<node lat="64.43846666625448" lon="13.464738890326721" id="-42831">
		<tag k="name" v="Ånesvika" />
		<tag k="natural" v="bay" />
		<tag k="ssr:stedsnr" v="802203" />
	</node>
	<node lat="64.20349999717399" lon="13.419158333741409" id="-42834">
		<tag k="name" v="Ingeldøla" />
		<tag k="ssr:stedsnr" v="802808" />
		<tag k="waterway" v="river" />
	</node>
	<node lat="64.05630833326134" lon="13.945802783694731" id="-42836">
		<tag k="name" v="Kariplutten" />
		<tag k="natural" v="water" />
		<tag k="ssr:stedsnr" v="802820" />
	</node>
	<node lat="64.05451111154548" lon="13.917724990252934" id="-42837">
		<tag k="alt_name" v="Dalbekken, nordre" />
		<tag k="name" v="Nord-Dalbekken" />
		<tag k="ssr:stedsnr" v="802821" />
		<tag k="waterway" v="stream" />
	</node>
	<node lat="64.18075000207655" lon="13.334633327719365" id="-42838">
		<tag k="alt_name" v="Ingertjønna" />
		<tag k="name" v="Ingeltjønna" />
		<tag k="natural" v="water" />
		<tag k="ssr:stedsnr" v="802868" />
	</node>
	<node lat="64.3133722228276" lon="13.636205555196733" id="-42840">
		<tag k="name" v="Holmtjønna" />
		<tag k="natural" v="water" />
		<tag k="ssr:stedsnr" v="803028" />
	</node>
	<node lat="64.3904027746391" lon="13.681649995566582" id="-42841">
		<tag k="name" v="Svarttjønna" />
		<tag k="natural" v="water" />
		<tag k="ssr:stedsnr" v="803103" />
	</node>
	<node lat="64.40747778173113" lon="13.088077769550853" id="-42844">
		<tag k="name" v="Bukvassflyan" />
		<tag k="name:no" v="Bukvassflyan" />
		<tag k="natural" v="water" />
		<tag k="ssr:stedsnr" v="803308" />
	</node>
	<node lat="64.38214721829809" lon="13.678291664532475" id="-42845">
		<tag k="name" v="Løvsjøen" />
		<tag k="natural" v="water" />
		<tag k="ssr:stedsnr" v="803062" />
		<tag k="water" v="lake" />
	</node>
	<node lat="64.73961944771014" lon="13.632108338875364" id="-42849">
		<tag k="name" v="Vargkjeften" />
		<tag k="natural" v="cape" />
		<tag k="ssr:stedsnr" v="803277" />
	</node>
	<node lat="64.74034722450396" lon="13.678747220291921" id="-42850">
		<tag k="name" v="Limingen - Lyjmede" />
		<tag k="name:no" v="Limingen" />
		<tag k="name:sma" v="Lyjmede" />
		<tag k="natural" v="water" />
		<tag k="ssr:stedsnr" v="803279" />
		<tag k="water" v="lake" />
	</node>
	<node lat="64.77170278097115" lon="13.69463611237471" id="-42851">
		<tag k="name" v="Seterbekken" />
		<tag k="ssr:stedsnr" v="803516" />
		<tag k="waterway" v="stream" />
	</node>
	<node lat="64.67337221764127" lon="13.450155564842762" id="-42852">
		<tag k="name" v="Angeltjønna" />
		<tag k="natural" v="water" />
		<tag k="ssr:stedsnr" v="803467" />
	</node>
	<node lat="64.17886388724256" lon="13.817072215869032" id="-42853">
		<tag k="name" v="Litltjønna" />
		<tag k="natural" v="water" />
		<tag k="ssr:stedsnr" v="803956" />
	</node>
	<node lat="64.11253888689595" lon="13.757738898320078" id="-42854">
		<tag k="name" v="Gåshanstjønna" />
		<tag k="natural" v="water" />
		<tag k="ssr:stedsnr" v="803963" />
	</node>
	<node lat="64.11243611444908" lon="13.94894444631549" id="-42855">
		<tag k="name" v="Hundvika" />
		<tag k="natural" v="bay" />
		<tag k="ssr:stedsnr" v="803971" />
	</node>
	<node lat="64.12814167024113" lon="13.956936111563317" id="-42857">
		<tag k="name" v="Litltjønna" />
		<tag k="natural" v="water" />
		<tag k="ssr:stedsnr" v="803982" />
	</node>
	<node lat="64.55741111210186" lon="13.506697220095225" id="-42859">
		<tag k="name" v="Hølbekken" />
		<tag k="ssr:stedsnr" v="804114" />
		<tag k="waterway" v="stream" />
	</node>
	<node lat="64.62194166440487" lon="13.351430565341667" id="-42865">
		<tag k="name" v="Havdalsvatnet - Haavhtere" />
		<tag k="name:no" v="Havdalsvatnet" />
		<tag k="name:sma" v="Haavhtere" />
		<tag k="natural" v="water" />
		<tag k="ssr:stedsnr" v="804414" />
		<tag k="water" v="lake" />
	</node>
	<node lat="64.72150277821984" lon="13.383616660991724" id="-42868">
		<tag k="name" v="Snøskredbekken" />
		<tag k="ssr:stedsnr" v="804305" />
		<tag k="waterway" v="stream" />
	</node>
	<node lat="64.79900277631091" lon="13.898322224837486" id="-42869">
		<tag k="name" v="Sidesvatnet - Sijliesjaevrie" />
		<tag k="name:no" v="Sidesvatnet" />
		<tag k="name:sma" v="Sijliesjaevrie" />
		<tag k="natural" v="water" />
		<tag k="ssr:stedsnr" v="804320" />
		<tag k="water" v="lake" />
	</node>
	<node lat="64.68234721887765" lon="13.38540556104383" id="-42870">
		<tag k="name" v="Storflyen" />
		<tag k="place" v="locality" />
		<tag k="ssr:stedsnr" v="804509" />
	</node>
	<node lat="64.49727777399251" lon="13.292302783632174" id="-42873">
		<tag k="name" v="Litltjønna" />
		<tag k="natural" v="water" />
		<tag k="ssr:stedsnr" v="814689" />
	</node>
	<node lat="64.28917777417664" lon="13.727269453200641" id="-42874">
		<tag k="name" v="Raudsanden" />
		<tag k="natural" v="beach" />
		<tag k="ssr:stedsnr" v="814827" />
	</node>
	<node lat="64.1402055528586" lon="13.891513891636757" id="-42877">
		<tag k="name" v="Leirgravvika" />
		<tag k="natural" v="bay" />
		<tag k="ssr:stedsnr" v="814946" />
	</node>
	<node lat="64.48950277621981" lon="13.411766659521854" id="-42879">
		<tag k="name" v="Kvernhustangen" />
		<tag k="natural" v="cape" />
		<tag k="ssr:stedsnr" v="815775" />
	</node>
	<node lat="64.39658888460727" lon="13.533247218819442" id="-42891">
		<tag k="name" v="Munktjønna" />
		<tag k="natural" v="water" />
		<tag k="ssr:stedsnr" v="924079" />
	</node>
	<node lat="64.4402416698683" lon="13.524155550998904" id="-42894">
		<tag k="name" v="Litltjønna" />
		<tag k="natural" v="water" />
		<tag k="ssr:stedsnr" v="924160" />
	</node>
	<node lat="64.51145000443685" lon="13.762744436740233" id="-42900">
		<tag k="name" v="Hausvika" />
		<tag k="natural" v="bay" />
		<tag k="ssr:stedsnr" v="924186" />
	</node>
	<node lat="64.46249722538279" lon="13.374225000634858" id="-42902">
		<tag k="name" v="Storbakkelva" />
		<tag k="ssr:stedsnr" v="924193" />
		<tag k="waterway" v="stream" />
	</node>
	<node lat="64.49824721878777" lon="13.235958341856504" id="-42903">
		<tag k="alt_name" v="Merkesdalbekken" />
		<tag k="name" v="Merkesbekken" />
		<tag k="ssr:stedsnr" v="924194" />
		<tag k="waterway" v="stream" />
	</node>
	<node lat="64.49776389253242" lon="13.699883340726686" id="-42909">
		<tag k="alt_name" v="Seterbekken" />
		<tag k="name" v="Sæterbekken" />
		<tag k="ssr:stedsnr" v="924213" />
		<tag k="waterway" v="stream" />
	</node>
	<node lat="64.48875555516699" lon="13.335880553582298" id="-42910">
		<tag k="alt_name" v="Otersjøsundet" />
		<tag k="name" v="Oternessundet" />
		<tag k="natural" v="cape" />
		<tag k="ssr:stedsnr" v="924215" />
	</node>
	<node lat="64.48653055302239" lon="13.686713888939064" id="-42911">
		<tag k="name" v="Storfiskplutten" />
		<tag k="natural" v="water" />
		<tag k="ssr:stedsnr" v="924222" />
	</node>
	<node lat="64.50701388864486" lon="13.890819444341581" id="-42913">
		<tag k="name" v="Murbekken" />
		<tag k="ssr:stedsnr" v="836309" />
		<tag k="waterway" v="stream" />
	</node>
	<node lat="64.1971472197391" lon="13.76025278670871" id="-42915">
		<tag k="name" v="Storplutten" />
		<tag k="natural" v="water" />
		<tag k="ssr:stedsnr" v="836312" />
		<tag k="water" v="pond" />
	</node>
	<node lat="64.02012222381289" lon="13.970838889858975" id="-42916">
		<tag k="name" v="Elgan" />
		<tag k="place" v="islet" />
		<tag k="ssr:stedsnr" v="836203" />
	</node>
	<node lat="64.09961944160798" lon="13.839855557366354" id="-42918">
		<tag k="name" v="Pertjønnelva" />
		<tag k="ssr:stedsnr" v="837104" />
		<tag k="waterway" v="stream" />
	</node>
	<node lat="64.46416944558142" lon="13.21258333252138" id="-42919">
		<tag k="name" v="Øystre Tverrelva" />
		<tag k="ssr:stedsnr" v="924283" />
		<tag k="waterway" v="stream" />
	</node>
	<node lat="64.39469999977574" lon="13.514738894007278" id="-42921">
		<tag k="name" v="Langvika" />
		<tag k="natural" v="bay" />
		<tag k="ssr:stedsnr" v="837035" />
	</node>
	<node lat="64.13461944612008" lon="13.89679999564746" id="-42922">
		<tag k="name" v="Sundåa" />
		<tag k="ssr:stedsnr" v="837080" />
		<tag k="waterway" v="river" />
	</node>
	<node lat="64.39329167082377" lon="13.780549999688043" id="-42930">
		<tag k="name" v="Storneset" />
		<tag k="natural" v="cape" />
		<tag k="ssr:stedsnr" v="837481" />
	</node>
	<node lat="64.22345000045296" lon="13.571002783003367" id="-42940">
		<tag k="name" v="Bergtjønnbekken" />
		<tag k="ssr:stedsnr" v="837877" />
		<tag k="waterway" v="stream" />
	</node>
	<node lat="64.44155555953736" lon="13.875225003150945" id="-42946">
		<tag k="name" v="Bjørnhimyrbekken" />
		<tag k="ssr:stedsnr" v="924735" />
		<tag k="waterway" v="stream" />
	</node>
	<node lat="64.34130555635811" lon="13.780858333357761" id="-42951">
		<tag k="name" v="Bekktjønna" />
		<tag k="natural" v="water" />
		<tag k="ssr:stedsnr" v="924784" />
	</node>
	<node lat="64.17447221766021" lon="13.565388893655303" id="-42955">
		<tag k="name" v="Jersåstjønna" />
		<tag k="natural" v="water" />
		<tag k="ssr:stedsnr" v="924827" />
	</node>
	<node lat="64.24349167031025" lon="13.51682499709962" id="-42957">
		<tag k="name" v="Stortjønna" />
		<tag k="natural" v="water" />
		<tag k="ssr:stedsnr" v="924788" />
	</node>
	<node lat="64.34476944797122" lon="13.761772220067028" id="-42958">
		<tag k="name" v="Rørtjønna" />
		<tag k="natural" v="water" />
		<tag k="ssr:stedsnr" v="924790" />
	</node>
	<node lat="64.29302777735516" lon="14.107888890625322" id="-42961">
		<tag k="name" v="Avandsbekken" />
		<tag k="ssr:stedsnr" v="924801" />
		<tag k="waterway" v="river" />
	</node>
	<node lat="64.10056111307425" lon="14.008591668616589" id="-42962">
		<tag k="name" v="Sandneset" />
		<tag k="natural" v="cape" />
		<tag k="ssr:stedsnr" v="924802" />
	</node>
	<node lat="64.22579721829288" lon="13.893297229221906" id="-42964">
		<tag k="name" v="Halvvegestjønna" />
		<tag k="natural" v="water" />
		<tag k="ssr:stedsnr" v="924881" />
	</node>
	<node lat="64.22938333653607" lon="13.946455565883097" id="-42965">
		<tag k="name" v="Gravtjønna" />
		<tag k="natural" v="water" />
		<tag k="ssr:stedsnr" v="924835" />
	</node>
	<node lat="64.23835278231637" lon="13.97883332736637" id="-42967">
		<tag k="name" v="Djupvatnet" />
		<tag k="natural" v="water" />
		<tag k="ssr:stedsnr" v="924843" />
	</node>
	<node lat="64.24391389312756" lon="13.72897499841654" id="-42968">
		<tag k="name" v="Storskjeret" />
		<tag k="place" v="islet" />
		<tag k="ssr:stedsnr" v="924847" />
	</node>
	<node lat="64.08127221850502" lon="13.520322223343578" id="-42970">
		<tag k="name" v="Revhitjønna" />
		<tag k="natural" v="water" />
		<tag k="ssr:stedsnr" v="924852" />
	</node>
	<node lat="64.09743610853266" lon="13.491683327625866" id="-42971">
		<tag k="name" v="Jervsteinen" />
		<tag k="natural" v="cape" />
		<tag k="ssr:stedsnr" v="924857" />
	</node>
	<node lat="64.21483333278503" lon="14.139702770579756" id="-42973">
		<tag k="name" v="Keistjønnin" />
		<tag k="natural" v="water" />
		<tag k="ssr:stedsnr" v="924860" />
	</node>
	<node lat="64.19124721858138" lon="13.908419452395771" id="-42975">
		<tag k="name" v="Hauktjønna" />
		<tag k="natural" v="water" />
		<tag k="ssr:stedsnr" v="924897" />
	</node>
	<node lat="64.16738055939153" lon="14.090377769239074" id="-42977">
		<tag k="name" v="Finnburelva" />
		<tag k="ssr:stedsnr" v="924936" />
		<tag k="waterway" v="stream" />
	</node>
	<node lat="64.15903055669779" lon="13.853869439121002" id="-42978">
		<tag k="name" v="Ulen" />
		<tag k="natural" v="water" />
		<tag k="ssr:stedsnr" v="924938" />
		<tag k="water" v="lake" />
	</node>
	<node lat="64.12207777985742" lon="14.066055550741034" id="-42982">
		<tag k="name" v="Middagstjønna" />
		<tag k="natural" v="water" />
		<tag k="ssr:stedsnr" v="924962" />
	</node>
	<node lat="64.1438500039295" lon="13.996694439803646" id="-42983">
		<tag k="alt_name" v="Finn-Malinplutten" />
		<tag k="name" v="Finn-Eliplutten" />
		<tag k="natural" v="water" />
		<tag k="ssr:stedsnr" v="924982" />
	</node>
	<node lat="64.54211944546695" lon="13.263702773824411" id="-42987">
		<tag k="name" v="Sørlakstjønna" />
		<tag k="natural" v="water" />
		<tag k="ssr:stedsnr" v="925083" />
	</node>
	<node lat="64.56429444462778" lon="13.647297231619921" id="-42988">
		<tag k="name" v="Portfjelltjønna" />
		<tag k="natural" v="water" />
		<tag k="ssr:stedsnr" v="925095" />
	</node>
	<node lat="64.54844722486968" lon="13.418313897815322" id="-42989">
		<tag k="name" v="Holmtjønnbekken" />
		<tag k="ssr:stedsnr" v="925101" />
		<tag k="waterway" v="stream" />
	</node>
	<node lat="64.42065833006225" lon="13.494094446434142" id="-42992">
		<tag k="name" v="Nestjønna" />
		<tag k="natural" v="water" />
		<tag k="ssr:stedsnr" v="925169" />
	</node>
	<node lat="64.59898611190259" lon="13.5580527696856" id="-42993">
		<tag k="name" v="Litltjønna" />
		<tag k="natural" v="water" />
		<tag k="ssr:stedsnr" v="925126" />
	</node>
	<node lat="64.58953333488209" lon="13.57574165792845" id="-42994">
		<tag k="name" v="Ryggvassbekken" />
		<tag k="ssr:stedsnr" v="925131" />
		<tag k="waterway" v="stream" />
	</node>
	<node lat="64.57981944264132" lon="13.442880552899155" id="-42995">
		<tag k="name" v="Midtitjønna" />
		<tag k="natural" v="water" />
		<tag k="ssr:stedsnr" v="925139" />
	</node>
	<node lat="64.52227222159274" lon="13.5143972140976" id="-42996">
		<tag k="alt_name" v="Seterbekken" />
		<tag k="name" v="Holmtjønnbekken" />
		<tag k="ssr:stedsnr" v="925190" />
		<tag k="waterway" v="stream" />
	</node>
	<node lat="64.42955555238683" lon="13.676233328359693" id="-42997">
		<tag k="name" v="Skrokstangen" />
		<tag k="natural" v="cape" />
		<tag k="ssr:stedsnr" v="925161" />
	</node>
	<node lat="64.51160277835432" lon="13.180763884508957" id="-42999">
		<tag k="name" v="Nedre Kviltjønna" />
		<tag k="natural" v="water" />
		<tag k="ssr:stedsnr" v="925351" />
	</node>
	<node lat="64.5074500020335" lon="13.181400007192261" id="-43000">
		<tag k="name" v="Sisselbekken" />
		<tag k="ssr:stedsnr" v="925352" />
		<tag k="waterway" v="stream" />
	</node>
	<node lat="64.71853888839325" lon="13.394427772523084" id="-43004">
		<tag k="name" v="Storsteinen" />
		<tag k="natural" v="cape" />
		<tag k="ssr:stedsnr" v="925518" />
	</node>
	<node lat="64.72237500253333" lon="13.531063897153679" id="-43005">
		<tag k="alt_name" v="Folandstøbekken" />
		<tag k="name" v="Forlandstøbekken" />
		<tag k="ssr:stedsnr" v="925519" />
		<tag k="waterway" v="stream" />
	</node>
	<node lat="64.71377222286102" lon="13.649822228049555" id="-43007">
		<tag k="name" v="Skardtjønnin" />
		<tag k="natural" v="water" />
		<tag k="ssr:stedsnr" v="925511" />
	</node>
	<node lat="64.4074972201766" lon="13.4787777731301" id="-43010">
		<tag k="name" v="Litlitjønna" />
		<tag k="natural" v="water" />
		<tag k="ssr:stedsnr" v="863102" />
	</node>
	<node lat="64.44135833313761" lon="13.38579166325645" id="-43012">
		<tag k="name" v="Merkesplutten" />
		<tag k="natural" v="water" />
		<tag k="ssr:stedsnr" v="863180" />
	</node>
	<node lat="64.4748333356266" lon="13.31587778743212" id="-43014">
		<tag k="name" v="Sandbekken" />
		<tag k="ssr:stedsnr" v="863195" />
		<tag k="waterway" v="stream" />
	</node>
	<node lat="64.1467694405441" lon="13.88373332576931" id="-43022">
		<tag k="name" v="Bråsånestangen" />
		<tag k="natural" v="cape" />
		<tag k="ssr:stedsnr" v="863942" />
	</node>
	<node lat="64.20641388904757" lon="13.803786107046653" id="-43024">
		<tag k="name" v="Brennesvika" />
		<tag k="natural" v="bay" />
		<tag k="ssr:stedsnr" v="863857" />
	</node>
	<node lat="64.5340611144873" lon="13.542880557712124" id="-43026">
		<tag k="name" v="Leirgravbekken" />
		<tag k="ssr:stedsnr" v="864037" />
		<tag k="waterway" v="stream" />
	</node>
	<node lat="64.5079361100965" lon="13.809486112673461" id="-43031">
		<tag k="name" v="Kvemotangen" />
		<tag k="natural" v="cape" />
		<tag k="ssr:stedsnr" v="864215" />
	</node>
	<node lat="64.63626111434856" lon="13.646055554689486" id="-43032">
		<tag k="name" v="Havdalselva - Haavhterenjohke" />
		<tag k="name:no" v="Havdalselva" />
		<tag k="name:sma" v="Haavhterenjohke" />
		<tag k="ssr:stedsnr" v="864413" />
		<tag k="waterway" v="river" />
	</node>
	<node lat="64.49105833569418" lon="13.339174993198258" id="-43034">
		<tag k="name" v="Øver Sundtangen" />
		<tag k="natural" v="cape" />
		<tag k="ssr:stedsnr" v="875719" />
	</node>
	<node lat="64.48747777603803" lon="13.329219439582957" id="-43035">
		<tag k="name" v="Setervika" />
		<tag k="natural" v="bay" />
		<tag k="ssr:stedsnr" v="875722" />
	</node>
	<node lat="64.11354166688204" lon="13.928322222757476" id="-43041">
		<tag k="name" v="Hestlortvika" />
		<tag k="natural" v="bay" />
		<tag k="ssr:stedsnr" v="897054" />
	</node>
	<node lat="64.10105833581724" lon="14.018238894410993" id="-43043">
		<tag k="name" v="Storbergvika" />
		<tag k="natural" v="bay" />
		<tag k="ssr:stedsnr" v="897662" />
	</node>
	<node lat="64.16717778026106" lon="13.695258326493994" id="-43046">
		<tag k="name" v="Buåsbekken" />
		<tag k="ssr:stedsnr" v="897755" />
		<tag k="waterway" v="stream" />
	</node>
	<node lat="64.27783610800837" lon="13.700399997415861" id="-43069">
		<tag k="name" v="Myrmobekken" />
		<tag k="ssr:stedsnr" v="924007" />
		<tag k="waterway" v="stream" />
	</node>
	<node lat="64.47003055698977" lon="13.72178888438725" id="-43072">
		<tag k="name" v="Storlitjønna" />
		<tag k="natural" v="water" />
		<tag k="ssr:stedsnr" v="924018" />
	</node>
	<node lat="64.35438055420512" lon="13.567780557461006" id="-43074">
		<tag k="name" v="Holmtjønna" />
		<tag k="natural" v="water" />
		<tag k="ssr:stedsnr" v="924070" />
	</node>
	<node lat="64.45965277587156" lon="13.589644451547617" id="-43075">
		<tag k="name" v="Stortangen" />
		<tag k="natural" v="cape" />
		<tag k="ssr:stedsnr" v="924133" />
	</node>
	<node lat="64.76444999994638" lon="13.562816663250882" id="-43076">
		<tag k="name" v="Tjønnviktangen" />
		<tag k="natural" v="cape" />
		<tag k="ssr:stedsnr" v="924326" />
	</node>
	<node lat="64.3118083288987" lon="13.731083338112713" id="-43078">
		<tag k="name" v="Litlgodtjønna" />
		<tag k="natural" v="water" />
		<tag k="ssr:stedsnr" v="924808" />
	</node>
	<node lat="64.15324166461743" lon="13.60562500490396" id="-43079">
		<tag k="name" v="Storfossen" />
		<tag k="natural" v="waterfall" />
		<tag k="ssr:stedsnr" v="924814" />
	</node>
	<node lat="64.3677277765143" lon="13.719158327567351" id="-43080">
		<tag k="name" v="Midtisjøen" />
		<tag k="natural" v="water" />
		<tag k="ssr:stedsnr" v="924769" />
	</node>
	<node lat="64.21341666475752" lon="13.529891665565657" id="-43081">
		<tag k="name" v="Flybekktjønna" />
		<tag k="natural" v="water" />
		<tag k="ssr:stedsnr" v="924774" />
	</node>
	<node lat="64.56182500224043" lon="13.227555553730998" id="-43086">
		<tag k="name" v="Småtjønnin" />
		<tag k="natural" v="water" />
		<tag k="ssr:stedsnr" v="925105" />
	</node>
	<node lat="64.51224166412699" lon="13.586463882861354" id="-43091">
		<tag k="name" v="Furumyrbekken" />
		<tag k="ssr:stedsnr" v="925024" />
		<tag k="waterway" v="stream" />
	</node>
	<node lat="64.73811111338685" lon="13.462855559558239" id="-43092">
		<tag k="name" v="Lonet" />
		<tag k="natural" v="bay" />
		<tag k="ssr:stedsnr" v="925314" />
	</node>
	<node lat="64.6047555526198" lon="13.3050694513075" id="-43095">
		<tag k="name" v="Fjelltjønna" />
		<tag k="natural" v="water" />
		<tag k="ssr:stedsnr" v="925435" />
	</node>
	<node lat="64.61433055306235" lon="13.360702786285914" id="-43096">
		<tag k="name" v="Holman" />
		<tag k="place" v="islet" />
		<tag k="ssr:stedsnr" v="925443" />
	</node>
	<node lat="64.65388610842989" lon="13.658641666746298" id="-43100">
		<tag k="name" v="Volltjønna" />
		<tag k="natural" v="water" />
		<tag k="ssr:stedsnr" v="925481" />
	</node>
	<node lat="64.65150000175437" lon="13.376116668249686" id="-43102">
		<tag k="name" v="Kroktjønnbekken" />
		<tag k="ssr:stedsnr" v="925503" />
		<tag k="waterway" v="stream" />
	</node>
	<node lat="64.20824166660334" lon="13.840341669571483" id="-43103">
		<tag k="name" v="Storbekkvika" />
		<tag k="natural" v="bay" />
		<tag k="ssr:stedsnr" v="935933" />
	</node>
	<node lat="64.46981111123205" lon="13.599061109565092" id="-43107">
		<tag k="name" v="Prestegårdsbekken" />
		<tag k="ssr:stedsnr" v="936788" />
		<tag k="waterway" v="stream" />
	</node>
	<node lat="64.26326944765333" lon="13.695911111821765" id="-43112">
		<tag k="name" v="Kattviktangen" />
		<tag k="natural" v="cape" />
		<tag k="ssr:stedsnr" v="936812" />
	</node>
	<node lat="64.29186944217005" lon="13.622155562642378" id="-43113">
		<tag k="name" v="Ivaneset" />
		<tag k="natural" v="cape" />
		<tag k="ssr:stedsnr" v="936837" />
	</node>
	<node lat="64.72790277960293" lon="13.408338879700665" id="-43122">
		<tag k="name" v="Jerptangen" />
		<tag k="natural" v="cape" />
		<tag k="ssr:stedsnr" v="958142" />
	</node>
	<node lat="64.38295278208444" lon="13.569711118211455" id="-43123">
		<tag k="name" v="Sundet" />
		<tag k="natural" v="strait" />
		<tag k="ssr:stedsnr" v="958040" />
	</node>
	<node lat="64.65241667077336" lon="13.56346667062169" id="-43128">
		<tag k="name" v="Svartbergdalbekken" />
		<tag k="ssr:stedsnr" v="958235" />
		<tag k="waterway" v="stream" />
	</node>
	<node lat="64.21748610954967" lon="13.928499998769178" id="-43132">
		<tag k="name" v="Storsteinflyen" />
		<tag k="natural" v="water" />
		<tag k="ssr:stedsnr" v="958491" />
		<tag k="water" v="lake" />
	</node>
	<node lat="64.14119167045625" lon="13.734541664850111" id="-43135">
		<tag k="name" v="Fjelltjønnbekken" />
		<tag k="ssr:stedsnr" v="958791" />
		<tag k="waterway" v="stream" />
	</node>
	<node lat="64.44301667059054" lon="13.529819439235775" id="-43168">
		<tag k="name" v="Stortjønna" />
		<tag k="natural" v="water" />
		<tag k="ssr:stedsnr" v="13185" />
	</node>
	<node lat="64.44477499777906" lon="13.680913891428052" id="-43169">
		<tag k="name" v="Leirbekkneset" />
		<tag k="natural" v="cape" />
		<tag k="ssr:stedsnr" v="13195" />
	</node>
	<node lat="64.4919305571417" lon="13.783391666148813" id="-43170">
		<tag k="name" v="Litløya" />
		<tag k="natural" v="cape" />
		<tag k="ssr:stedsnr" v="13031" />
	</node>
	<node lat="64.44151388476628" lon="13.615513885482088" id="-43172">
		<tag k="name" v="Eidesholmen" />
		<tag k="place" v="islet" />
		<tag k="ssr:stedsnr" v="13199" />
	</node>
	<node lat="64.68126944386601" lon="13.495599990015691" id="-43174">
		<tag k="name" v="Båtvika" />
		<tag k="natural" v="bay" />
		<tag k="ssr:stedsnr" v="14359" />
	</node>
	<node lat="64.07548889273664" lon="13.902572219978238" id="-43175">
		<tag k="name" v="Litltjønna" />
		<tag k="natural" v="water" />
		<tag k="ssr:stedsnr" v="13768" />
	</node>
	<node lat="64.22129722375811" lon="13.463211111842654" id="-43178">
		<tag k="name" v="Lakavasselva" />
		<tag k="ssr:stedsnr" v="13795" />
		<tag k="waterway" v="river" />
	</node>
	<node lat="64.04836944116575" lon="13.88291665727746" id="-43179">
		<tag k="name" v="Jontebengtsa-tjønna" />
		<tag k="natural" v="water" />
		<tag k="ssr:stedsnr" v="13797" />
	</node>
	<node lat="64.26861110851505" lon="13.765461119739358" id="-43180">
		<tag k="name" v="Rogntjønna" />
		<tag k="natural" v="water" />
		<tag k="ssr:stedsnr" v="13839" />
	</node>
	<node lat="64.34953611061587" lon="13.437969445935758" id="-43182">
		<tag k="name" v="Langvikelva" />
		<tag k="ssr:stedsnr" v="14048" />
		<tag k="waterway" v="river" />
	</node>
	<node lat="64.37090833408372" lon="13.672597215117154" id="-43183">
		<tag k="name" v="Nymyrbekken" />
		<tag k="ssr:stedsnr" v="14058" />
		<tag k="waterway" v="stream" />
	</node>
	<node lat="64.34031111149636" lon="13.60070000539397" id="-43184">
		<tag k="name" v="Bjørtjønna" />
		<tag k="natural" v="water" />
		<tag k="ssr:stedsnr" v="14063" />
	</node>
	<node lat="64.41261111483217" lon="13.603911120759145" id="-43185">
		<tag k="name" v="Grubbtjønna" />
		<tag k="natural" v="water" />
		<tag k="ssr:stedsnr" v="14083" />
	</node>
	<node lat="64.48016111247092" lon="13.620080560034522" id="-43186">
		<tag k="name" v="Vargtjønnbekken" />
		<tag k="ssr:stedsnr" v="14166" />
		<tag k="waterway" v="stream" />
	</node>
	<node lat="64.4505666692885" lon="13.29264999234254" id="-43189">
		<tag k="name" v="Bergtjønna" />
		<tag k="natural" v="water" />
		<tag k="ssr:stedsnr" v="14137" />
	</node>
	<node lat="64.50722777519039" lon="13.814430560995005" id="-43192">
		<tag k="name" v="Tangodden" />
		<tag k="natural" v="cape" />
		<tag k="ssr:stedsnr" v="14179" />
	</node>
	<node lat="64.49551666744964" lon="13.366438884350096" id="-43193">
		<tag k="name" v="Skjeldbreivatnet" />
		<tag k="natural" v="water" />
		<tag k="ssr:stedsnr" v="14186" />
		<tag k="water" v="lake" />
	</node>
	<node lat="64.48683055554463" lon="13.281252779096738" id="-43195">
		<tag k="name" v="Sagelvvika" />
		<tag k="natural" v="bay" />
		<tag k="ssr:stedsnr" v="14194" />
	</node>
	<node lat="64.45181111448176" lon="13.797094440145049" id="-43199">
		<tag k="alt_name" v="Gammvollbekken" />
		<tag k="name" v="Gamvollbekken" />
		<tag k="ssr:stedsnr" v="14730" />
		<tag k="waterway" v="stream" />
	</node>
	<node lat="64.34306666659941" lon="13.780063878532252" id="-43201">
		<tag k="name" v="Fiskløysa" />
		<tag k="natural" v="water" />
		<tag k="ssr:stedsnr" v="14784" />
	</node>
	<node lat="64.13009166760506" lon="13.614050001001742" id="-43204">
		<tag k="name" v="Godtjønna - Tjuvviejaevrie" />
		<tag k="name:no" v="Godtjønna" />
		<tag k="name:sma" v="Tjuvviejaevrie" />
		<tag k="natural" v="water" />
		<tag k="ssr:stedsnr" v="14797" />
	</node>
	<node lat="64.10918055340852" lon="13.92991110335858" id="-43206">
		<tag k="alt_name" v="Sundtangen" />
		<tag k="name" v="Yttersundtangen" />
		<tag k="natural" v="cape" />
		<tag k="ssr:stedsnr" v="14737" />
	</node>
	<node lat="64.11702777885831" lon="14.057827781379027" id="-43207">
		<tag k="name" v="Nytjønna" />
		<tag k="natural" v="water" />
		<tag k="ssr:stedsnr" v="14739" />
	</node>
	<node lat="64.10289166330192" lon="13.7391611182327" id="-43208">
		<tag k="name" v="Storsteintjønna" />
		<tag k="natural" v="water" />
		<tag k="ssr:stedsnr" v="14742" />
	</node>
	<node lat="64.42245277849233" lon="13.837183343731715" id="-43211">
		<tag k="fixme" v="multiple name tags, choose one and add the other to alt_name" />
		<tag k="name" v="Hestkjølelva;Hartkjølselva" />
		<tag k="ssr:stedsnr" v="14755" />
		<tag k="waterway" v="river" />
	</node>
	<node lat="64.08013611314527" lon="13.70224444149679" id="-43216">
		<tag k="name" v="Sundknulen" />
		<tag k="natural" v="cape" />
		<tag k="ssr:stedsnr" v="14851" />
	</node>
	<node lat="64.53598333717497" lon="13.341424996512247" id="-43222">
		<tag k="name" v="Gåstjønnelva" />
		<tag k="ssr:stedsnr" v="15077" />
		<tag k="waterway" v="river" />
	</node>
	<node lat="64.56135277720253" lon="13.378683340164795" id="-43223">
		<tag k="name" v="Stortjønna" />
		<tag k="natural" v="water" />
		<tag k="ssr:stedsnr" v="15089" />
	</node>
	<node lat="64.56039722172325" lon="13.67132499453346" id="-43224">
		<tag k="name" v="Stortjønna" />
		<tag k="natural" v="water" />
		<tag k="ssr:stedsnr" v="15097" />
		<tag k="water" v="lake" />
	</node>
	<node lat="64.55120833713788" lon="13.420955553799475" id="-43225">
		<tag k="name" v="Elgtjønna" />
		<tag k="natural" v="water" />
		<tag k="ssr:stedsnr" v="15100" />
	</node>
	<node lat="64.52501666334285" lon="13.622708342961918" id="-43230">
		<tag k="name" v="Sagbekken" />
		<tag k="ssr:stedsnr" v="15035" />
		<tag k="waterway" v="stream" />
	</node>
	<node lat="64.7466999958066" lon="13.577141658194087" id="-43231">
		<tag k="name" v="Slåttkoivika" />
		<tag k="natural" v="bay" />
		<tag k="ssr:stedsnr" v="15292" />
	</node>
	<node lat="64.61436944838462" lon="13.308330552294965" id="-43236">
		<tag k="name" v="Istjønna" />
		<tag k="natural" v="water" />
		<tag k="ssr:stedsnr" v="15448" />
	</node>
	<node lat="64.31766388771761" lon="13.877911118697432" id="-43240">
		<tag k="name" v="Kjerdelsvatnet - Tjieltienjaevrie" />
		<tag k="name:no" v="Kjerdelsvatnet" />
		<tag k="name:sma" v="Tjieltienjaevrie" />
		<tag k="natural" v="water" />
		<tag k="ssr:stedsnr" v="25815" />
		<tag k="water" v="lake" />
	</node>
	<node lat="64.24623888498583" lon="13.80362222251053" id="-43242">
		<tag k="name" v="Heststokkplutten" />
		<tag k="natural" v="water" />
		<tag k="ssr:stedsnr" v="25930" />
		<tag k="water" v="pond" />
	</node>
	<node lat="64.17996944079071" lon="13.888788894875026" id="-43243">
		<tag k="name" v="Setertjønnbekken" />
		<tag k="ssr:stedsnr" v="25937" />
		<tag k="waterway" v="stream" />
	</node>
	<node lat="64.28248889058419" lon="13.637711111314346" id="-43256">
		<tag k="name" v="Lokkfossen" />
		<tag k="natural" v="waterfall" />
		<tag k="ssr:stedsnr" v="26796" />
	</node>
	<node lat="64.54517222092778" lon="13.604208329873344" id="-43265">
		<tag k="name" v="Aurbekken" />
		<tag k="ssr:stedsnr" v="47159" />
		<tag k="waterway" v="stream" />
	</node>
	<node lat="64.46450833325557" lon="13.703774990785957" id="-43270">
		<tag k="name" v="Gressplutten" />
		<tag k="natural" v="water" />
		<tag k="ssr:stedsnr" v="47861" />
		<tag k="water" v="pond" />
	</node>
	<node lat="64.46819444626364" lon="13.728449990191836" id="-43271">
		<tag k="name" v="Storliplutten" />
		<tag k="natural" v="water" />
		<tag k="ssr:stedsnr" v="47862" />
		<tag k="water" v="pond" />
	</node>
	<node lat="64.54933611134932" lon="13.713088879732629" id="-43273">
		<tag k="name" v="Gamseterbekken" />
		<tag k="ssr:stedsnr" v="47897" />
		<tag k="waterway" v="stream" />
	</node>
	<node lat="64.38718333049651" lon="13.544066672390079" id="-43276">
		<tag k="name" v="Langtangen" />
		<tag k="natural" v="cape" />
		<tag k="ssr:stedsnr" v="48030" />
	</node>
	<node lat="64.38655278155856" lon="13.52060000965312" id="-43277">
		<tag k="name" v="Tisvassundet" />
		<tag k="natural" v="strait" />
		<tag k="ssr:stedsnr" v="48038" />
	</node>
	<node lat="64.40024444809428" lon="13.436008341002815" id="-43279">
		<tag k="name" v="Nedre Elitjønna" />
		<tag k="natural" v="water" />
		<tag k="ssr:stedsnr" v="48122" />
	</node>
	<node lat="64.15242778118211" lon="14.056452787645494" id="-43288">
		<tag k="name" v="Storfisktangen" />
		<tag k="natural" v="cape" />
		<tag k="ssr:stedsnr" v="48243" />
	</node>
	<node lat="64.53154722173802" lon="13.548349996634908" id="-43292">
		<tag k="name" v="Merkesbekken" />
		<tag k="ssr:stedsnr" v="48156" />
		<tag k="waterway" v="stream" />
	</node>
	<node lat="64.22137499778341" lon="13.92563332623538" id="-43300">
		<tag k="name" v="Vinterflyen" />
		<tag k="place" v="locality" />
		<tag k="ssr:stedsnr" v="48436" />
	</node>
	<node lat="64.49101666540759" lon="13.262724997441156" id="-43302">
		<tag k="name" v="Djupbekken" />
		<tag k="ssr:stedsnr" v="229128" />
		<tag k="waterway" v="stream" />
	</node>
	<node lat="64.39352221996893" lon="13.739905548333377" id="-43305">
		<tag k="name" v="Storfiskflyen" />
		<tag k="natural" v="water" />
		<tag k="ssr:stedsnr" v="48673" />
		<tag k="water" v="lake" />
	</node>
	<node lat="64.18324444721755" lon="13.703308326669223" id="-43308">
		<tag k="name" v="Seternesa" />
		<tag k="natural" v="cape" />
		<tag k="ssr:stedsnr" v="48694" />
	</node>
	<node lat="64.39436111204478" lon="13.684136111060619" id="-43312">
		<tag k="name" v="Merkestjønna" />
		<tag k="natural" v="water" />
		<tag k="ssr:stedsnr" v="48660" />
	</node>
</osm>
