<?xml version="1.0" encoding="UTF-8"?>
<osm version="0.6" generator="osmapis">
	<node lat="64.31893055642799" lon="13.730669436764007" id="-41965">
		<tag k="name" v="Fiskløysa" />
		<tag k="natural" v="water" />
		<tag k="ssr:stedsnr" v="230601" />
	</node>
	<node lat="64.49883888582885" lon="13.632755557625773" id="-41966">
		<tag k="name" v="Olderbekken" />
		<tag k="ssr:stedsnr" v="229770" />
		<tag k="waterway" v="stream" />
	</node>
	<node lat="64.44407778174866" lon="13.718866674267355" id="-41967">
		<tag k="name" v="Movik" />
		<tag k="place" v="farm" />
		<tag k="ssr:stedsnr" v="229833" />
	</node>
	<node lat="64.49972499630235" lon="13.728055555897527" id="-41968">
		<tag k="name" v="Seterfloen" />
		<tag k="natural" v="wetland" />
		<tag k="ssr:stedsnr" v="229798" />
	</node>
	<node lat="64.62540833658632" lon="13.600611103247932" id="-41969">
		<tag k="name" v="Storsteinmyra" />
		<tag k="natural" v="wetland" />
		<tag k="ssr:stedsnr" v="230142" />
	</node>
	<node lat="64.09734721838731" lon="13.947272211489791" id="-41970">
		<tag k="name" v="Rengsvika" />
		<tag k="natural" v="bay" />
		<tag k="ssr:stedsnr" v="230149" />
	</node>
	<node lat="64.10381666802141" lon="14.000838894354944" id="-41971">
		<tag k="name" v="Litlberget" />
		<tag k="natural" v="hill" />
		<tag k="place" v="locality" />
		<tag k="ssr:stedsnr" v="230152" />
	</node>
	<node lat="64.41031666771227" lon="13.460477783381195" id="-41972">
		<tag k="name" v="Einarslåttberget" />
		<tag k="natural" v="hill" />
		<tag k="place" v="locality" />
		<tag k="ssr:stedsnr" v="230153" />
	</node>
	<node lat="64.4018666659577" lon="13.480477775774238" id="-41973">
		<tag k="name" v="Tisvassberget" />
		<tag k="natural" v="hill" />
		<tag k="place" v="locality" />
		<tag k="ssr:stedsnr" v="230157" />
	</node>
	<node lat="64.11065555894794" lon="13.92258610654103" id="-41974">
		<tag k="name" v="Flytningstangen" />
		<tag k="natural" v="cape" />
		<tag k="ssr:stedsnr" v="230127" />
	</node>
	<node lat="64.38490000027011" lon="13.457730555210725" id="-41975">
		<tag k="name" v="Godthåp" />
		<tag k="natural" v="cape" />
		<tag k="ssr:stedsnr" v="230219" />
	</node>
	<node lat="64.39195833220411" lon="13.407402780604807" id="-41976">
		<tag k="name" v="Bustadhøgda" />
		<tag k="natural" v="hill" />
		<tag k="place" v="locality" />
		<tag k="ssr:stedsnr" v="230222" />
	</node>
	<node lat="64.64325000047067" lon="13.559691674482991" id="-41977">
		<tag k="name" v="Rutjønnbekken" />
		<tag k="ssr:stedsnr" v="230235" />
		<tag k="waterway" v="stream" />
	</node>
	<node lat="64.54889722042492" lon="13.35856111273207" id="-41978">
		<tag k="name" v="Rørplutten" />
		<tag k="natural" v="water" />
		<tag k="ssr:stedsnr" v="230288" />
		<tag k="water" v="pond" />
	</node>
	<node lat="64.50065555975102" lon="13.91955000375004" id="-41979">
		<tag k="name" v="Byggesbekken" />
		<tag k="ssr:stedsnr" v="230290" />
		<tag k="waterway" v="stream" />
	</node>
	<node lat="64.17503610660292" lon="14.038705563147026" id="-41980">
		<tag k="name" v="Åkroken" />
		<tag k="natural" v="cape" />
		<tag k="ssr:stedsnr" v="230296" />
	</node>
	<node lat="64.39530000093147" lon="13.430974990866817" id="-41981">
		<tag k="name" v="Langvika" />
		<tag k="natural" v="bay" />
		<tag k="ssr:stedsnr" v="230241" />
	</node>
	<node lat="64.13654166944164" lon="14.076391668672933" id="-41982">
		<tag k="name" v="Noret" />
		<tag k="natural" v="water" />
		<tag k="ssr:stedsnr" v="230254" />
		<tag k="water" v="lake" />
	</node>
	<node lat="64.21592777789834" lon="13.769022212882017" id="-41983">
		<tag k="name" v="Ner Holmåsmyra" />
		<tag k="natural" v="wetland" />
		<tag k="ssr:stedsnr" v="230326" />
	</node>
	<node lat="64.49272777922668" lon="13.269488892613833" id="-41984">
		<tag k="name" v="Otersjødammen" />
		<tag k="ssr:stedsnr" v="230257" />
		<tag k="waterway" v="dam" />
	</node>
	<node lat="64.5006361119941" lon="13.190925004274357" id="-41985">
		<tag k="name" v="Sisselfossen" />
		<tag k="natural" v="waterfall" />
		<tag k="ssr:stedsnr" v="230260" />
	</node>
	<node lat="64.14991667040539" lon="14.097472227680852" id="-41986">
		<tag k="name" v="Bjørkmyra" />
		<tag k="natural" v="wetland" />
		<tag k="ssr:stedsnr" v="230261" />
	</node>
	<node lat="64.15728333374149" lon="14.054563890626822" id="-41987">
		<tag k="name" v="Bakkmoen" />
		<tag k="place" v="farm" />
		<tag k="ssr:stedsnr" v="230263" />
	</node>
	<node lat="64.49543889124604" lon="13.928405547542637" id="-41988">
		<tag k="name" v="Høgdplutten" />
		<tag k="natural" v="water" />
		<tag k="ssr:stedsnr" v="230358" />
		<tag k="water" v="pond" />
	</node>
	<node lat="64.48677221939629" lon="13.946611106063855" id="-41989">
		<tag k="name" v="Asptangen" />
		<tag k="natural" v="cape" />
		<tag k="ssr:stedsnr" v="230359" />
	</node>
	<node lat="64.25917499700475" lon="13.881644450368558" id="-41990">
		<tag k="name" v="Øver Djupdalen" />
		<tag k="natural" v="valley" />
		<tag k="place" v="locality" />
		<tag k="ssr:stedsnr" v="230399" />
	</node>
	<node lat="64.7357583347854" lon="13.790249993188178" id="-41991">
		<tag k="name" v="Litlklumpen" />
		<tag k="natural" v="hill" />
		<tag k="place" v="locality" />
		<tag k="ssr:stedsnr" v="230473" />
	</node>
	<node lat="64.19540555383264" lon="13.693330555995109" id="-41992">
		<tag k="name" v="Slåttnesfloen" />
		<tag k="natural" v="wetland" />
		<tag k="ssr:stedsnr" v="230718" />
	</node>
	<node lat="64.16937500210405" lon="13.675680563107445" id="-41993">
		<tag k="name" v="Jamt-Jomyra" />
		<tag k="natural" v="wetland" />
		<tag k="ssr:stedsnr" v="230721" />
	</node>
	<node lat="64.46816944844278" lon="13.800888896528125" id="-41994">
		<tag k="name" v="Stormyra" />
		<tag k="natural" v="wetland" />
		<tag k="ssr:stedsnr" v="230655" />
	</node>
	<node lat="64.46983332903339" lon="13.78346111658391" id="-41995">
		<tag k="name" v="Langfjellmyran" />
		<tag k="natural" v="wetland" />
		<tag k="ssr:stedsnr" v="230657" />
	</node>
	<node lat="64.37584444623096" lon="13.707586101742566" id="-41996">
		<tag k="name" v="Lommermyra" />
		<tag k="natural" v="wetland" />
		<tag k="ssr:stedsnr" v="230669" />
	</node>
	<node lat="64.5322944417713" lon="13.7148666763218" id="-41997">
		<tag k="name" v="Islandsmåssåstakkslettet" />
		<tag k="natural" v="wetland" />
		<tag k="ssr:stedsnr" v="230892" />
	</node>
	<node lat="64.53809722284326" lon="13.785238879049349" id="-41998">
		<tag k="name" v="Skavlia" />
		<tag k="natural" v="slope" />
		<tag k="place" v="locality" />
		<tag k="ssr:stedsnr" v="230900" />
	</node>
	<node lat="64.1478416633469" lon="13.70783054977593" id="-41999">
		<tag k="name" v="Vakkerhaugen" />
		<tag k="natural" v="hill" />
		<tag k="place" v="locality" />
		<tag k="ssr:stedsnr" v="230774" />
	</node>
	<node lat="64.147544446407" lon="13.70784722379974" id="-42000">
		<tag k="name" v="Otte-Olsasteinen" />
		<tag k="natural" v="stone" />
		<tag k="ssr:stedsnr" v="230777" />
	</node>
	<node lat="64.22069999961325" lon="13.609119441992256" id="-42001">
		<tag k="name" v="Karolinamyra" />
		<tag k="natural" v="wetland" />
		<tag k="ssr:stedsnr" v="230855" />
	</node>
	<node lat="64.20868332947552" lon="13.552944438439134" id="-42002">
		<tag k="name" v="Bjørvollneset" />
		<tag k="natural" v="cape" />
		<tag k="ssr:stedsnr" v="230859" />
	</node>
	<node lat="64.21320555198076" lon="13.559463884639719" id="-42003">
		<tag k="name" v="Fagmobekken" />
		<tag k="ssr:stedsnr" v="230860" />
		<tag k="waterway" v="stream" />
	</node>
	<node lat="64.31823055418307" lon="13.551861103409765" id="-42004">
		<tag k="name" v="Bjørkhaugen" />
		<tag k="natural" v="hill" />
		<tag k="place" v="locality" />
		<tag k="ssr:stedsnr" v="230870" />
	</node>
	<node lat="64.3314444476686" lon="13.585255562325987" id="-42005">
		<tag k="name" v="Småmyrin" />
		<tag k="natural" v="wetland" />
		<tag k="ssr:stedsnr" v="230933" />
	</node>
	<node lat="64.31758333525651" lon="13.603902781160203" id="-42006">
		<tag k="name" v="Litlfloen" />
		<tag k="natural" v="wetland" />
		<tag k="ssr:stedsnr" v="230934" />
	</node>
	<node lat="64.27329235730485" lon="13.657132631016026" id="-42007">
		<tag k="historic" v="shieling" />
		<tag k="name" v="Myrmoseteren" />
		<tag k="place" v="locality" />
		<tag k="ssr:stedsnr" v="13009" />
	</node>
	<node lat="64.45785833442292" lon="13.597297212683465" id="-42008">
		<tag k="name" v="Engan" />
		<tag k="place" v="farm" />
		<tag k="ssr:stedsnr" v="13179" />
	</node>
	<node lat="64.03513055613833" lon="13.975716659210057" id="-42009">
		<tag k="name" v="Bågtjønna" />
		<tag k="natural" v="water" />
		<tag k="ssr:stedsnr" v="13805" />
	</node>
	<node lat="64.30940277684867" lon="13.751761109404212" id="-42010">
		<tag k="name" v="Godtjønna" />
		<tag k="natural" v="water" />
		<tag k="ssr:stedsnr" v="13825" />
	</node>
	<node lat="64.21544166868567" lon="13.79430555215435" id="-42011">
		<tag k="name" v="Langnesvika" />
		<tag k="natural" v="bay" />
		<tag k="ssr:stedsnr" v="13881" />
	</node>
	<node lat="64.45137222612041" lon="13.750661122054051" id="-42012">
		<tag k="name" v="Litltjønna" />
		<tag k="natural" v="water" />
		<tag k="ssr:stedsnr" v="14004" />
	</node>
	<node lat="64.47382777856795" lon="13.931202777771126" id="-42013">
		<tag k="name" v="Storhåmmårhøgda" />
		<tag k="natural" v="hill" />
		<tag k="place" v="locality" />
		<tag k="ssr:stedsnr" v="14006" />
	</node>
	<node lat="64.47860555626157" lon="14.050269449880938" id="-42014">
		<tag k="name" v="Pilttangen" />
		<tag k="natural" v="cape" />
		<tag k="ssr:stedsnr" v="14010" />
	</node>
	<node lat="64.30616666370356" lon="13.546775003938295" id="-42015">
		<tag k="name" v="Fiskløystjønnin" />
		<tag k="natural" v="water" />
		<tag k="ssr:stedsnr" v="14020" />
	</node>
	<node lat="64.31858055513013" lon="13.485152774337033" id="-42016">
		<tag k="name" v="Piggtjønna" />
		<tag k="natural" v="water" />
		<tag k="ssr:stedsnr" v="14021" />
	</node>
	<node lat="64.20841110838936" lon="13.934136108315576" id="-42017">
		<tag k="name" v="Djuptjønna" />
		<tag k="natural" v="water" />
		<tag k="ssr:stedsnr" v="13933" />
	</node>
	<node lat="64.39274722614365" lon="13.503608326949397" id="-42018">
		<tag k="name" v="Storholmen" />
		<tag k="place" v="islet" />
		<tag k="ssr:stedsnr" v="14107" />
	</node>
	<node lat="64.39281388713279" lon="13.469941658463366" id="-42019">
		<tag k="alt_name" v="Berga" />
		<tag k="name" v="Joheimberget" />
		<tag k="natural" v="cape" />
		<tag k="ssr:stedsnr" v="14094" />
	</node>
	<node lat="64.705083334744" lon="13.769402775127775" id="-42020">
		<tag k="name" v="Midtiberget" />
		<tag k="natural" v="hill" />
		<tag k="place" v="locality" />
		<tag k="ssr:stedsnr" v="14202" />
	</node>
	<node lat="64.49059166688228" lon="13.47929721209139" id="-42021">
		<tag k="alt_name" v="Lønset" />
		<tag k="name" v="Lønnset" />
		<tag k="place" v="farm" />
		<tag k="ssr:stedsnr" v="14199" />
	</node>
	<node lat="64.6631194431978" lon="13.662013897301053" id="-42022">
		<tag k="name" v="Sørmoen" />
		<tag k="place" v="farm" />
		<tag k="ssr:stedsnr" v="14332" />
	</node>
	<node lat="64.44512500328182" lon="13.942144444418782" id="-42023">
		<tag k="name" v="Gaesnjele" />
		<tag k="name:sma" v="Gaesnjele" />
		<tag k="natural" v="valley" />
		<tag k="place" v="locality" />
		<tag k="ssr:stedsnr" v="14715" />
	</node>
	<node lat="64.37241110796917" lon="14.079138893662703" id="-42024">
		<tag k="fixme" v="consider natural=peak for the most distinct mountains in the district" />
		<tag k="name" v="Akkavassøran - Aahkabieljieh" />
		<tag k="name:no" v="Akkavassøran" />
		<tag k="name:sma" v="Aahkabieljieh" />
		<tag k="natural" v="hill" />
		<tag k="place" v="locality" />
		<tag k="ssr:stedsnr" v="14757" />
	</node>
	<node lat="64.32651111361821" lon="13.740825005819357" id="-42025">
		<tag k="name" v="Svarttjønna" />
		<tag k="natural" v="water" />
		<tag k="ssr:stedsnr" v="14775" />
	</node>
	<node lat="64.25298611010523" lon="13.7276527740829" id="-42026">
		<tag k="name" v="Skogstad" />
		<tag k="place" v="farm" />
		<tag k="ssr:stedsnr" v="14807" />
	</node>
	<node lat="64.53736944375092" lon="13.462111111243003" id="-42027">
		<tag k="name" v="Hestbergtjønna" />
		<tag k="natural" v="water" />
		<tag k="ssr:stedsnr" v="15054" />
	</node>
	<node lat="64.55221388804206" lon="13.677822226956204" id="-42028">
		<tag k="name" v="Litltjønna" />
		<tag k="natural" v="water" />
		<tag k="ssr:stedsnr" v="15072" />
		<tag k="water" v="lake" />
	</node>
	<node lat="64.53489166455539" lon="13.236408328313065" id="-42029">
		<tag k="name" v="Stortjønna" />
		<tag k="natural" v="water" />
		<tag k="ssr:stedsnr" v="15073" />
	</node>
	<node lat="64.5814083330042" lon="13.597033324489248" id="-42030">
		<tag k="name" v="Lifjellbekken" />
		<tag k="ssr:stedsnr" v="15108" />
		<tag k="waterway" v="stream" />
	</node>
	<node lat="64.56794722124752" lon="13.586816673860412" id="-42031">
		<tag k="fixme" v="multiple name tags, choose one and add the other to alt_name; consider natural=peak for the most distinct mountains in the district" />
		<tag k="name" v="Ryggvassruet;Rømmervassfjellet" />
		<tag k="natural" v="hill" />
		<tag k="place" v="locality" />
		<tag k="ssr:stedsnr" v="15113" />
	</node>
	<node lat="64.59160277850528" lon="13.47178055239441" id="-42032">
		<tag k="name" v="Elvkroken" />
		<tag k="place" v="locality" />
		<tag k="ssr:stedsnr" v="15120" />
	</node>
	<node lat="64.59804166361441" lon="13.583244438437228" id="-42033">
		<tag k="name" v="Råvatnet" />
		<tag k="natural" v="water" />
		<tag k="ssr:stedsnr" v="15125" />
		<tag k="water" v="lake" />
	</node>
	<node lat="64.64423412797139" lon="13.40903690939033" id="-42034">
		<tag k="fixme" v="consider natural=peak for the most distinct mountains in the district" />
		<tag k="name" v="Løysmundklumpen - Fealloetjahke" />
		<tag k="name:no" v="Løysmundklumpen" />
		<tag k="name:sma" v="Fealloetjahke" />
		<tag k="natural" v="hill" />
		<tag k="place" v="locality" />
		<tag k="ssr:stedsnr" v="15457" />
	</node>
	<node lat="64.72963055344275" lon="13.532491667513547" id="-42035">
		<tag k="name" v="Stormyran" />
		<tag k="natural" v="wetland" />
		<tag k="ssr:stedsnr" v="15305" />
	</node>
	<node lat="64.768369447641" lon="13.781983342488513" id="-42036">
		<tag k="fixme" v="consider natural=peak for the most distinct mountains in the district" />
		<tag k="name" v="Krampa" />
		<tag k="natural" v="hill" />
		<tag k="place" v="locality" />
		<tag k="ssr:stedsnr" v="15312" />
	</node>
	<node lat="64.68769999932498" lon="13.455175003254535" id="-42037">
		<tag k="name" v="Småholmvika" />
		<tag k="natural" v="bay" />
		<tag k="ssr:stedsnr" v="15512" />
	</node>
	<node lat="64.68262778167191" lon="13.424841659411149" id="-42038">
		<tag k="name" v="Fiskløystjønnin" />
		<tag k="natural" v="water" />
		<tag k="ssr:stedsnr" v="15515" />
	</node>
	<node lat="64.68736111203648" lon="13.624783334798146" id="-42039">
		<tag k="name" v="Tunnsjøøya" />
		<tag k="place" v="islet" />
		<tag k="ssr:stedsnr" v="15522" />
	</node>
	<node lat="64.46301388769734" lon="13.332405548803532" id="-42040">
		<tag k="name" v="Storfiskplutten" />
		<tag k="natural" v="water" />
		<tag k="ssr:stedsnr" v="25715" />
	</node>
	<node lat="64.49193333745829" lon="13.289211104592864" id="-42041">
		<tag k="name" v="Spiløra" />
		<tag k="natural" v="cape" />
		<tag k="ssr:stedsnr" v="25728" />
	</node>
	<node lat="64.22181666859473" lon="13.82045556369944" id="-42042">
		<tag k="name" v="Kvernelva" />
		<tag k="ssr:stedsnr" v="25926" />
		<tag k="waterway" v="stream" />
	</node>
	<node lat="64.2368138909975" lon="13.793819451654578" id="-42043">
		<tag k="name" v="Djupgrubba" />
		<tag k="place" v="locality" />
		<tag k="ssr:stedsnr" v="26873" />
	</node>
	<node lat="64.43238333618922" lon="13.549038887593007" id="-42044">
		<tag k="name" v="Styggdalstjønna" />
		<tag k="natural" v="water" />
		<tag k="ssr:stedsnr" v="47088" />
	</node>
	<node lat="64.4208083369171" lon="13.52028611831445" id="-42045">
		<tag k="name" v="Kroktjønnlia" />
		<tag k="natural" v="slope" />
		<tag k="place" v="locality" />
		<tag k="ssr:stedsnr" v="47092" />
	</node>
	<node lat="64.45162222041579" lon="13.40523055534776" id="-42046">
		<tag k="name" v="Botnan" />
		<tag k="natural" v="beach" />
		<tag k="ssr:stedsnr" v="47207" />
	</node>
	<node lat="64.44283889014426" lon="13.405938891008152" id="-42047">
		<tag k="name" v="Sørseterbekken" />
		<tag k="ssr:stedsnr" v="47208" />
		<tag k="waterway" v="stream" />
	</node>
	<node lat="64.54352500123976" lon="13.385088892960987" id="-42048">
		<tag k="name" v="Bjørkliplutten" />
		<tag k="natural" v="water" />
		<tag k="ssr:stedsnr" v="47214" />
		<tag k="water" v="pond" />
	</node>
	<node lat="64.46396388614276" lon="13.443655565308262" id="-42049">
		<tag k="name" v="Litlgrubba" />
		<tag k="natural" v="wetland" />
		<tag k="ssr:stedsnr" v="47215" />
	</node>
	<node lat="64.44704722202765" lon="13.41849166363484" id="-42050">
		<tag k="name" v="Djupkastberget" />
		<tag k="natural" v="hill" />
		<tag k="place" v="locality" />
		<tag k="ssr:stedsnr" v="47222" />
	</node>
	<node lat="64.47978888817588" lon="13.418041676702833" id="-42051">
		<tag k="name" v="Leikarmyra" />
		<tag k="natural" v="wetland" />
		<tag k="ssr:stedsnr" v="47225" />
	</node>
	<node lat="64.45743889347806" lon="13.446533324094307" id="-42052">
		<tag k="name" v="Tangmyra" />
		<tag k="natural" v="wetland" />
		<tag k="ssr:stedsnr" v="47226" />
	</node>
	<node lat="64.2485916701021" lon="13.863369438495296" id="-42053">
		<tag k="name" v="Pluttfloen" />
		<tag k="natural" v="wetland" />
		<tag k="ssr:stedsnr" v="47388" />
	</node>
	<node lat="64.36538055220862" lon="13.659980548357385" id="-42054">
		<tag k="name" v="Jutulsteinan" />
		<tag k="natural" v="stone" />
		<tag k="ssr:stedsnr" v="47485" />
	</node>
	<node lat="64.22253888872005" lon="13.741877773607733" id="-42055">
		<tag k="name" v="Kampvollplutten" />
		<tag k="natural" v="water" />
		<tag k="ssr:stedsnr" v="47702" />
		<tag k="water" v="pond" />
	</node>
	<node lat="64.5391749969952" lon="13.62315000847404" id="-42056">
		<tag k="name" v="Storfjellgrubba" />
		<tag k="natural" v="valley" />
		<tag k="place" v="locality" />
		<tag k="ssr:stedsnr" v="47914" />
	</node>
	<node lat="64.10600278025257" lon="13.87914167272776" id="-42057">
		<tag k="name" v="Midtifallet" />
		<tag k="natural" v="waterfall" />
		<tag k="ssr:stedsnr" v="48104" />
	</node>
	<node lat="64.52302778095638" lon="13.575283327309128" id="-42058">
		<tag k="name" v="Skavlia" />
		<tag k="natural" v="slope" />
		<tag k="place" v="locality" />
		<tag k="ssr:stedsnr" v="48105" />
	</node>
	<node lat="64.5659722246616" lon="13.576861107330528" id="-42059">
		<tag k="name" v="Haukberget" />
		<tag k="natural" v="hill" />
		<tag k="place" v="locality" />
		<tag k="ssr:stedsnr" v="48119" />
	</node>
	<node lat="64.6373777765103" lon="13.595966660131117" id="-42060">
		<tag k="name" v="Rumyrin" />
		<tag k="natural" v="wetland" />
		<tag k="ssr:stedsnr" v="48208" />
	</node>
	<node lat="64.10881944234953" lon="14.022911103401238" id="-42061">
		<tag k="name" v="Halvvegesdrolet" />
		<tag k="natural" v="wetland" />
		<tag k="ssr:stedsnr" v="48224" />
	</node>
	<node lat="64.35819444401679" lon="13.798097218751593" id="-42062">
		<tag k="name" v="Bustadmyrin" />
		<tag k="natural" v="wetland" />
		<tag k="ssr:stedsnr" v="48416" />
	</node>
	<node lat="64.21545833429496" lon="13.890572215551792" id="-42063">
		<tag k="name" v="Bergtjønnhaugen" />
		<tag k="natural" v="hill" />
		<tag k="place" v="locality" />
		<tag k="ssr:stedsnr" v="48428" />
	</node>
	<node lat="64.43910555918795" lon="13.933619445564233" id="-42064">
		<tag k="name" v="Fjellia" />
		<tag k="natural" v="slope" />
		<tag k="place" v="locality" />
		<tag k="ssr:stedsnr" v="48386" />
	</node>
	<node lat="64.18983333664018" lon="13.643833341278967" id="-42065">
		<tag k="name" v="Furufloen" />
		<tag k="natural" v="wetland" />
		<tag k="ssr:stedsnr" v="48705" />
	</node>
	<node lat="64.37863611020094" lon="13.649377785925696" id="-42066">
		<tag k="name" v="Jervhaugen" />
		<tag k="natural" v="hill" />
		<tag k="place" v="locality" />
		<tag k="ssr:stedsnr" v="48617" />
	</node>
	<node lat="64.37879166850003" lon="13.629097216846082" id="-42067">
		<tag k="name" v="Åsen" />
		<tag k="place" v="farm" />
		<tag k="ssr:stedsnr" v="48619" />
	</node>
	<node lat="64.38731944055927" lon="13.661552771650015" id="-42068">
		<tag k="name" v="Langtangen" />
		<tag k="natural" v="cape" />
		<tag k="ssr:stedsnr" v="48698" />
	</node>
	<node lat="64.70680277398385" lon="13.602794453224108" id="-42069">
		<tag k="name" v="Sagbekken" />
		<tag k="ssr:stedsnr" v="48804" />
		<tag k="waterway" v="stream" />
	</node>
	<node lat="64.19870000008585" lon="13.585736104534302" id="-42070">
		<tag k="name" v="Svartåsen" />
		<tag k="natural" v="slope" />
		<tag k="place" v="locality" />
		<tag k="ssr:stedsnr" v="48812" />
	</node>
	<node lat="64.53667778113173" lon="13.7367833440795" id="-42071">
		<tag k="name" v="Setermyrin" />
		<tag k="natural" v="wetland" />
		<tag k="ssr:stedsnr" v="48919" />
	</node>
	<node lat="64.47274167056906" lon="13.821544445100352" id="-42072">
		<tag k="name" v="Middagsfloen" />
		<tag k="natural" v="wetland" />
		<tag k="ssr:stedsnr" v="48920" />
	</node>
	<node lat="64.70626667070977" lon="13.7414861044389" id="-42074">
		<tag k="fixme" v="consider place=hamlet" />
		<tag k="name" v="Limingen" />
		<tag k="place" v="farm" />
		<tag k="ssr:stedsnr" v="242546" />
	</node>
	<node lat="64.1087305594915" lon="13.98196388426149" id="-42075">
		<tag k="name" v="Østborg" />
		<tag k="place" v="hamlet" />
		<tag k="ssr:stedsnr" v="242920" />
	</node>
	<node lat="64.25646110694998" lon="13.642522221510651" id="-42076">
		<tag k="name" v="Totlandsetran" />
		<tag k="place" v="locality" />
		<tag k="ssr:stedsnr" v="74002" />
	</node>
	<node lat="64.25290000145083" lon="13.247844451814021" id="-42077">
		<tag k="fixme" v="consider natural=peak for the most distinct mountains in the district" />
		<tag k="name" v="Lurusneisa - Tjohkele" />
		<tag k="name:no" v="Lurusneisa" />
		<tag k="name:sma" v="Tjohkele" />
		<tag k="natural" v="hill" />
		<tag k="place" v="locality" />
		<tag k="ssr:stedsnr" v="74014" />
	</node>
	<node lat="64.26666389226237" lon="13.256394443271024" id="-42078">
		<tag k="name" v="Luruvatnet - Låartenjaevrie" />
		<tag k="name:no" v="Luruvatnet" />
		<tag k="name:sma" v="Låartenjaevrie" />
		<tag k="natural" v="water" />
		<tag k="ssr:stedsnr" v="74022" />
		<tag k="water" v="lake" />
	</node>
	<node lat="64.46127499564992" lon="13.897513896252397" id="-42079">
		<tag k="name" v="Jakthusfloen" />
		<tag k="natural" v="wetland" />
		<tag k="ssr:stedsnr" v="74024" />
	</node>
	<node lat="64.39270832974766" lon="13.696963887313917" id="-42080">
		<tag k="name" v="Reinmyran" />
		<tag k="natural" v="wetland" />
		<tag k="ssr:stedsnr" v="74112" />
	</node>
	<node lat="64.39102777404833" lon="13.656658326770955" id="-42081">
		<tag k="name" v="Sjurtjønna" />
		<tag k="natural" v="water" />
		<tag k="ssr:stedsnr" v="74113" />
	</node>
	<node lat="64.3814888853923" lon="13.35556388404898" id="-42082">
		<tag k="name" v="Ånesdalen" />
		<tag k="natural" v="valley" />
		<tag k="place" v="locality" />
		<tag k="ssr:stedsnr" v="74115" />
	</node>
	<node lat="64.4477861114174" lon="13.460116666189508" id="-42083">
		<tag k="name" v="Lauvtangen" />
		<tag k="natural" v="cape" />
		<tag k="ssr:stedsnr" v="74156" />
	</node>
	<node lat="64.4394388893122" lon="13.61429166927495" id="-42084">
		<tag k="name" v="Eidesvika" />
		<tag k="natural" v="bay" />
		<tag k="ssr:stedsnr" v="74169" />
	</node>
	<node lat="64.2692388895498" lon="13.84507778180629" id="-42085">
		<tag k="name" v="Litlmustjønna" />
		<tag k="natural" v="water" />
		<tag k="ssr:stedsnr" v="74808" />
	</node>
	<node lat="64.14720555617396" lon="13.233036109722402" id="-42086">
		<tag k="name" v="Holmtjønna" />
		<tag k="natural" v="water" />
		<tag k="ssr:stedsnr" v="74810" />
	</node>
	<node lat="64.16286388870371" lon="13.687588897255141" id="-42087">
		<tag k="name" v="Buåsfloen" />
		<tag k="natural" v="wetland" />
		<tag k="ssr:stedsnr" v="74811" />
	</node>
	<node lat="64.14735833455747" lon="13.7116416635709" id="-42088">
		<tag k="name" v="Skraptjønna" />
		<tag k="natural" v="water" />
		<tag k="ssr:stedsnr" v="74817" />
	</node>
	<node lat="64.20082222030884" lon="13.618886114533959" id="-42089">
		<tag k="alt_name" v="Kvernfossen" />
		<tag k="name" v="Kvennfossen" />
		<tag k="natural" v="waterfall" />
		<tag k="ssr:stedsnr" v="74753" />
	</node>
	<node lat="64.1995888931718" lon="14.056236116550508" id="-42090">
		<tag k="name" v="Djupdalsklumpen" />
		<tag k="natural" v="hill" />
		<tag k="place" v="locality" />
		<tag k="ssr:stedsnr" v="74915" />
	</node>
	<node lat="64.17080278085257" lon="14.049477786983969" id="-42091">
		<tag k="name" v="Pluttan" />
		<tag k="natural" v="water" />
		<tag k="ssr:stedsnr" v="74961" />
	</node>
	<node lat="64.74482777513815" lon="13.829199998556023" id="-42092">
		<tag k="fixme" v="consider natural=peak for the most distinct mountains in the district" />
		<tag k="name" v="Rødikfjellet" />
		<tag k="natural" v="hill" />
		<tag k="place" v="locality" />
		<tag k="ssr:stedsnr" v="75007" />
	</node>
	<node lat="64.55613055318686" lon="13.38892221862849" id="-42093">
		<tag k="name" v="Langtjønna" />
		<tag k="natural" v="water" />
		<tag k="ssr:stedsnr" v="75058" />
	</node>
	<node lat="64.34941666825024" lon="13.608758324953833" id="-42094">
		<tag k="name" v="Grunntjønna" />
		<tag k="natural" v="water" />
		<tag k="ssr:stedsnr" v="75060" />
	</node>
	<node lat="64.55943055997422" lon="13.49793610187586" id="-42095">
		<tag k="name" v="Seterbekken" />
		<tag k="ssr:stedsnr" v="75065" />
		<tag k="waterway" v="stream" />
	</node>
	<node lat="64.55221944455738" lon="13.439966656327671" id="-42096">
		<tag k="name" v="Grubbtjønna" />
		<tag k="natural" v="water" />
		<tag k="ssr:stedsnr" v="75072" />
	</node>
	<node lat="64.46918888634495" lon="13.46466943904719" id="-42097">
		<tag k="name" v="Floan" />
		<tag k="natural" v="water" />
		<tag k="ssr:stedsnr" v="75202" />
	</node>
	<node lat="64.46854444596032" lon="13.551838886770339" id="-42098">
		<tag k="name" v="Støbakken" />
		<tag k="place" v="farm" />
		<tag k="ssr:stedsnr" v="75205" />
	</node>
	<node lat="64.47459722471704" lon="13.579563891940504" id="-42099">
		<tag k="historic" v="shieling" />
		<tag k="name" v="Knutgårdsseteren" />
		<tag k="place" v="isolated_dwelling" />
		<tag k="ssr:stedsnr" v="75208" />
	</node>
	<node lat="64.46752874749008" lon="13.59069884873477" id="-42100">
		<tag k="amenity" v="place_of_worship" />
		<tag k="denomination" v="lutheran" />
		<tag k="name" v="Nordli kirke" />
		<tag k="religion" v="christian" />
		<tag k="ssr:stedsnr" v="75211" />
	</node>
	<node lat="64.46878055533148" lon="13.670022224837505" id="-42101">
		<tag k="alt_name" v="Krokuttjønna" />
		<tag k="name" v="Larvtjønna" />
		<tag k="natural" v="water" />
		<tag k="ssr:stedsnr" v="75214" />
	</node>
	<node lat="64.47420277655056" lon="13.711694444428261" id="-42102">
		<tag k="name" v="Magerrørtjønna" />
		<tag k="natural" v="water" />
		<tag k="ssr:stedsnr" v="75217" />
	</node>
	<node lat="64.50475833447675" lon="13.89331945182045" id="-42103">
		<tag k="name" v="Nysetersanden" />
		<tag k="natural" v="beach" />
		<tag k="ssr:stedsnr" v="75218" />
	</node>
	<node lat="64.4583500038458" lon="13.318233325922757" id="-42104">
		<tag k="name" v="Stortjønna" />
		<tag k="natural" v="water" />
		<tag k="ssr:stedsnr" v="75219" />
	</node>
	<node lat="64.58999444851172" lon="13.371363884265865" id="-42105">
		<tag k="fixme" v="consider natural=peak for the most distinct mountains in the district" />
		<tag k="name" v="Blåfjelltoppan" />
		<tag k="natural" v="hill" />
		<tag k="place" v="locality" />
		<tag k="ssr:stedsnr" v="75104" />
	</node>
	<node lat="64.59290277479758" lon="13.310202774899064" id="-42106">
		<tag k="name" v="Havdalsfjelltjønna - Vaellienjaevrie" />
		<tag k="name:no" v="Havdalsfjelltjønna" />
		<tag k="name:sma" v="Vaellienjaevrie" />
		<tag k="natural" v="water" />
		<tag k="ssr:stedsnr" v="75105" />
	</node>
	<node lat="64.40816944157457" lon="13.426419450066618" id="-42107">
		<tag k="name" v="Bjørklia" />
		<tag k="natural" v="slope" />
		<tag k="place" v="locality" />
		<tag k="ssr:stedsnr" v="75151" />
	</node>
	<node lat="64.46646110969048" lon="13.590494447230775" id="-42108">
		<tag k="name" v="Sandvika" />
		<tag k="place" v="farm" />
		<tag k="ssr:stedsnr" v="75161" />
	</node>
	<node lat="64.46188888896303" lon="13.434486117604019" id="-42109">
		<tag k="alt_name" v="Laksjøli" />
		<tag k="name" v="Laksjølia" />
		<tag k="place" v="farm" />
		<tag k="ssr:stedsnr" v="75165" />
	</node>
	<node lat="64.49144444340651" lon="13.547502782778837" id="-42110">
		<tag k="name" v="Hesjilia" />
		<tag k="natural" v="slope" />
		<tag k="place" v="locality" />
		<tag k="ssr:stedsnr" v="75250" />
	</node>
	<node lat="64.63838611302334" lon="13.702983330989955" id="-42111">
		<tag k="name" v="Linmoen" />
		<tag k="place" v="farm" />
		<tag k="ssr:stedsnr" v="75409" />
	</node>
	<node lat="64.703674996311" lon="13.627127779433383" id="-42112">
		<tag k="name" v="Utrøddiberget" />
		<tag k="natural" v="hill" />
		<tag k="place" v="locality" />
		<tag k="ssr:stedsnr" v="75501" />
	</node>
	<node lat="64.6905666691357" lon="13.452894442950456" id="-42113">
		<tag k="name" v="Småholman" />
		<tag k="place" v="islet" />
		<tag k="ssr:stedsnr" v="75520" />
	</node>
	<node lat="64.43126666395767" lon="13.811227771426612" id="-42114">
		<tag k="name" v="Lauvtangen" />
		<tag k="place" v="farm" />
		<tag k="ssr:stedsnr" v="75801" />
	</node>
	<node lat="64.09356389291919" lon="13.849119452976844" id="-42115">
		<tag k="name" v="Finnkrutjønna" />
		<tag k="natural" v="water" />
		<tag k="ssr:stedsnr" v="75807" />
	</node>
	<node lat="64.05235953782874" lon="13.66003911829567" id="-42116">
		<tag k="fixme" v="consider natural=peak for the most distinct mountains in the district" />
		<tag k="name" v="Ladtgiele" />
		<tag k="name:sma" v="Ladtgiele" />
		<tag k="natural" v="hill" />
		<tag k="place" v="locality" />
		<tag k="ssr:stedsnr" v="75908" />
	</node>
	<node lat="64.17056389159352" lon="13.85073611959129" id="-42117">
		<tag k="name" v="Strand" />
		<tag k="place" v="farm" />
		<tag k="ssr:stedsnr" v="75969" />
	</node>
	<node lat="64.51013055859825" lon="13.329050003824486" id="-42118">
		<tag k="alt_name" v="Ågårdselva" />
		<tag k="name" v="Ågardselva" />
		<tag k="ssr:stedsnr" v="76058" />
		<tag k="waterway" v="river" />
	</node>
	<node lat="64.48280833254748" lon="13.347852767558859" id="-42119">
		<tag k="name" v="Spøkhaugen" />
		<tag k="natural" v="hill" />
		<tag k="place" v="locality" />
		<tag k="ssr:stedsnr" v="86705" />
	</node>
	<node lat="64.46576944890784" lon="13.30219721488842" id="-42120">
		<tag k="name" v="Melkhushaugen" />
		<tag k="natural" v="hill" />
		<tag k="place" v="locality" />
		<tag k="ssr:stedsnr" v="86708" />
	</node>
	<node lat="64.48564721993785" lon="13.283952769866415" id="-42121">
		<tag k="name" v="Sagelva" />
		<tag k="ssr:stedsnr" v="86722" />
		<tag k="waterway" v="stream" />
	</node>
	<node lat="64.47533611519445" lon="13.508386102661666" id="-42122">
		<tag k="name" v="Kvernmyra" />
		<tag k="natural" v="wetland" />
		<tag k="ssr:stedsnr" v="86815" />
	</node>
	<node lat="64.24351389235247" lon="13.779977772119558" id="-42123">
		<tag k="name" v="Buktbekken" />
		<tag k="ssr:stedsnr" v="86904" />
		<tag k="waterway" v="stream" />
	</node>
	<node lat="64.23887500294427" lon="13.845002775006275" id="-42124">
		<tag k="name" v="Olamyrin" />
		<tag k="natural" v="wetland" />
		<tag k="ssr:stedsnr" v="86911" />
	</node>
	<node lat="64.45561388651953" lon="13.656580560739581" id="-42125">
		<tag k="name" v="Kvernbekken" />
		<tag k="ssr:stedsnr" v="86871" />
		<tag k="waterway" v="stream" />
	</node>
	<node lat="64.67214444412717" lon="13.720608325707218" id="-42126">
		<tag k="name" v="Limingdal statsallmenning" />
		<tag k="place" v="locality" />
		<tag k="ssr:stedsnr" v="86873" />
	</node>
	<node lat="64.65486388525966" lon="13.64773333593433" id="-42127">
		<tag k="name" v="Korsmyra" />
		<tag k="natural" v="wetland" />
		<tag k="ssr:stedsnr" v="86878" />
	</node>
	<node lat="64.20121944842627" lon="13.842344441437707" id="-42128">
		<tag k="name" v="Kjerkdrolet" />
		<tag k="natural" v="wetland" />
		<tag k="ssr:stedsnr" v="86879" />
	</node>
	<node lat="64.19648055465389" lon="13.859158332017204" id="-42129">
		<tag k="alt_name" v="Skarsdalen" />
		<tag k="name" v="Skardsdalen" />
		<tag k="natural" v="valley" />
		<tag k="place" v="locality" />
		<tag k="ssr:stedsnr" v="86881" />
	</node>
	<node lat="64.1689333308549" lon="13.81431945188163" id="-42130">
		<tag k="name" v="Staurvikfloen" />
		<tag k="natural" v="wetland" />
		<tag k="ssr:stedsnr" v="86892" />
	</node>
	<node lat="64.28232499674884" lon="13.625691668775676" id="-42131">
		<tag k="name" v="Ivamyra" />
		<tag k="natural" v="wetland" />
		<tag k="ssr:stedsnr" v="87834" />
	</node>
	<node lat="64.27779444814865" lon="13.671969435729249" id="-42132">
		<tag k="name" v="Bruem" />
		<tag k="place" v="isolated_dwelling" />
		<tag k="ssr:stedsnr" v="87835" />
	</node>
	<node lat="64.48686388756039" lon="13.57725000017382" id="-42133">
		<tag k="name" v="Beretplutten" />
		<tag k="natural" v="water" />
		<tag k="ssr:stedsnr" v="105130" />
		<tag k="water" v="pond" />
	</node>
	<node lat="64.50449166448732" lon="13.565238889747842" id="-42134">
		<tag k="name" v="Smaltjønna" />
		<tag k="natural" v="water" />
		<tag k="ssr:stedsnr" v="106122" />
	</node>
	<node lat="64.43594444461415" lon="13.388349990292898" id="-42135">
		<tag k="name" v="Limyran" />
		<tag k="natural" v="wetland" />
		<tag k="ssr:stedsnr" v="108204" />
	</node>
	<node lat="64.4334611149207" lon="13.387463888506751" id="-42136">
		<tag k="name" v="Bustadmyra" />
		<tag k="natural" v="wetland" />
		<tag k="ssr:stedsnr" v="108205" />
	</node>
	<node lat="64.23229166893645" lon="13.715661119484317" id="-42137">
		<tag k="name" v="Devikplutten" />
		<tag k="natural" v="water" />
		<tag k="ssr:stedsnr" v="108678" />
		<tag k="water" v="pond" />
	</node>
	<node lat="64.43949444160349" lon="13.739652780258666" id="-42138">
		<tag k="name" v="Holandberga" />
		<tag k="natural" v="hill" />
		<tag k="place" v="locality" />
		<tag k="ssr:stedsnr" v="108804" />
	</node>
	<node lat="64.4236138851173" lon="13.740452772416731" id="-42139">
		<tag k="name" v="Merkestangen" />
		<tag k="natural" v="cape" />
		<tag k="ssr:stedsnr" v="108805" />
	</node>
	<node lat="64.179424999144" lon="13.9426499946415" id="-42140">
		<tag k="name" v="Fredriktjønna" />
		<tag k="natural" v="water" />
		<tag k="ssr:stedsnr" v="109027" />
	</node>
	<node lat="64.50990277363022" lon="13.499630559612907" id="-42141">
		<tag k="alt_name" v="Vardefjellet" />
		<tag k="name" v="Vardfjellet" />
		<tag k="natural" v="hill" />
		<tag k="place" v="locality" />
		<tag k="ssr:stedsnr" v="109086" />
	</node>
	<node lat="64.1470944411437" lon="13.792813891536847" id="-42142">
		<tag k="name" v="Gamseterfloen" />
		<tag k="natural" v="wetland" />
		<tag k="ssr:stedsnr" v="109225" />
	</node>
	<node lat="64.49427777840064" lon="13.238286102745892" id="-42143">
		<tag k="name" v="Merkesplutten" />
		<tag k="natural" v="water" />
		<tag k="ssr:stedsnr" v="109269" />
		<tag k="water" v="pond" />
	</node>
	<node lat="64.61402499821149" lon="13.50535277377308" id="-42144">
		<tag k="name" v="Bustadbekken" />
		<tag k="ssr:stedsnr" v="109134" />
		<tag k="waterway" v="stream" />
	</node>
	<node lat="64.56229166663712" lon="13.588074999929773" id="-42145">
		<tag k="name" v="Litl-Rømmervassdalen" />
		<tag k="natural" v="valley" />
		<tag k="place" v="locality" />
		<tag k="ssr:stedsnr" v="109140" />
	</node>
	<node lat="64.55610833229423" lon="13.600755550801017" id="-42146">
		<tag k="name" v="Bjørkmyra" />
		<tag k="natural" v="wetland" />
		<tag k="ssr:stedsnr" v="109142" />
	</node>
	<node lat="64.40680277851172" lon="13.440083323621838" id="-42147">
		<tag k="name" v="Storolatjønna" />
		<tag k="natural" v="water" />
		<tag k="ssr:stedsnr" v="109148" />
	</node>
	<node lat="64.17587500341541" lon="13.792130558957837" id="-42148">
		<tag k="historic" v="shieling" />
		<tag k="name" v="Gamsetervollen" />
		<tag k="place" v="locality" />
		<tag k="ssr:stedsnr" v="109184" />
	</node>
	<node lat="64.4050527803848" lon="13.733236117385864" id="-42149">
		<tag k="name" v="Einvollen" />
		<tag k="place" v="locality" />
		<tag k="ssr:stedsnr" v="109570" />
	</node>
	<node lat="64.27338611139218" lon="13.918163896700666" id="-42150">
		<tag k="name" v="Bengtfloen" />
		<tag k="natural" v="wetland" />
		<tag k="ssr:stedsnr" v="109404" />
	</node>
	<node lat="64.28799166473931" lon="13.915866669966832" id="-42151">
		<tag k="name" v="Kjerringtjønna" />
		<tag k="natural" v="water" />
		<tag k="ssr:stedsnr" v="109405" />
	</node>
	<node lat="64.67995833785514" lon="13.738222216605612" id="-42152">
		<tag k="name" v="Limingdal statsallmenning" />
		<tag k="place" v="locality" />
		<tag k="ssr:stedsnr" v="109485" />
	</node>
	<node lat="64.67849999702513" lon="13.716347215522703" id="-42153">
		<tag k="name" v="Skjeftmyrhaugen" />
		<tag k="natural" v="hill" />
		<tag k="place" v="locality" />
		<tag k="ssr:stedsnr" v="109490" />
	</node>
	<node lat="64.15758888667236" lon="13.724669449497618" id="-42154">
		<tag k="name" v="Smalmyra" />
		<tag k="natural" v="wetland" />
		<tag k="ssr:stedsnr" v="109769" />
	</node>
	<node lat="64.51892221825469" lon="13.727702786933005" id="-42155">
		<tag k="name" v="Smeddifloen" />
		<tag k="natural" v="wetland" />
		<tag k="ssr:stedsnr" v="109784" />
	</node>
	<node lat="64.52370278216358" lon="13.768386113679261" id="-42156">
		<tag k="name" v="Raudbergfloen" />
		<tag k="natural" v="wetland" />
		<tag k="ssr:stedsnr" v="109786" />
	</node>
	<node lat="64.22145277993737" lon="13.446799996143886" id="-42157">
		<tag k="name" v="Nordklumpen" />
		<tag k="natural" v="hill" />
		<tag k="place" v="locality" />
		<tag k="ssr:stedsnr" v="109790" />
	</node>
	<node lat="64.25269444793142" lon="13.589477776698887" id="-42158">
		<tag k="name" v="Flye" />
		<tag k="natural" v="hill" />
		<tag k="place" v="locality" />
		<tag k="ssr:stedsnr" v="109813" />
	</node>
	<node lat="64.47824163395342" lon="14.08523602423971" id="-42159">
		<tag k="historic" v="boundary_stone" />
		<tag k="man_made" v="cairn" />
		<tag k="name" v="Murusjørøysa" />
		<tag k="old_name" v="Muursiø Røset" />
		<tag k="place" v="locality" />
		<tag k="ssr:stedsnr" v="110777" />
	</node>
	<node lat="64.14947794569267" lon="14.111758152236815" id="-42160">
		<tag k="historic" v="boundary_stone" />
		<tag k="man_made" v="cairn" />
		<tag k="name" v="Øvre Linbergrøysa" />
		<tag k="place" v="locality" />
		<tag k="ssr:stedsnr" v="110779" />
	</node>
	<node lat="64.46724343751754" lon="13.586063220947011" id="-42161">
		<tag k="fixme" v="consider place=hamlet" />
		<tag k="name" v="Sandvika" />
		<tag k="place" v="farm" />
		<tag k="ssr:stedsnr" v="117016" />
	</node>
	<node lat="64.45821075324844" lon="13.465810440297169" id="-42163">
		<tag k="fixme" v="consider place=hamlet" />
		<tag k="name" v="Tossåsen" />
		<tag k="place" v="farm" />
		<tag k="ssr:stedsnr" v="121587" />
	</node>
	<node lat="64.15690277844422" lon="14.056630546343396" id="-42164">
		<tag k="fixme" v="consider place=hamlet" />
		<tag k="name" v="Endset" />
		<tag k="place" v="village" />
		<tag k="ssr:stedsnr" v="121917" />
	</node>
	<node lat="64.43966944092631" lon="13.423249995747087" id="-42165">
		<tag k="fixme" v="multiple name tags, choose one and add the other to alt_name" />
		<tag k="name" v="Merkesbekken;Ørvikbekken" />
		<tag k="ssr:stedsnr" v="134206" />
		<tag k="waterway" v="stream" />
	</node>
	<node lat="64.44707905544463" lon="13.712825710766836" id="-42166">
		<tag k="name" v="Brattvoll" />
		<tag k="place" v="farm" />
		<tag k="ssr:stedsnr" v="134154" />
	</node>
	<node lat="64.07336110836661" lon="13.86688332825584" id="-42167">
		<tag k="alt_name" v="Kroktjønnfjellet" />
		<tag k="fixme" v="consider natural=peak for the most distinct mountains in the district" />
		<tag k="name" v="Kruehkeretjaerhvieh" />
		<tag k="natural" v="hill" />
		<tag k="old_name" v="Kruehkeretjaerfieh" />
		<tag k="place" v="locality" />
		<tag k="ssr:stedsnr" v="134771" />
	</node>
	<node lat="64.21520277720714" lon="13.839772216051788" id="-42168">
		<tag k="name" v="Østnorvika" />
		<tag k="natural" v="bay" />
		<tag k="ssr:stedsnr" v="134904" />
	</node>
	<node lat="64.01965000296812" lon="13.894125008650672" id="-42169">
		<tag k="fixme" v="consider natural=peak for the most distinct mountains in the district" />
		<tag k="name" v="Kvithattfjellet" />
		<tag k="natural" v="hill" />
		<tag k="place" v="locality" />
		<tag k="ssr:stedsnr" v="134812" />
	</node>
	<node lat="64.03543889051997" lon="13.852705565052478" id="-42170">
		<tag k="name" v="Skardet" />
		<tag k="natural" v="valley" />
		<tag k="place" v="locality" />
		<tag k="ssr:stedsnr" v="134816" />
	</node>
	<node lat="64.03503888897257" lon="13.808549989881419" id="-42171">
		<tag k="name" v="Langmyra" />
		<tag k="natural" v="wetland" />
		<tag k="ssr:stedsnr" v="134821" />
	</node>
	<node lat="64.26321944029105" lon="13.735511118282052" id="-42172">
		<tag k="name" v="Litlhopptjønna" />
		<tag k="natural" v="water" />
		<tag k="ssr:stedsnr" v="134866" />
	</node>
	<node lat="64.46506666366511" lon="13.774002782353113" id="-42173">
		<tag k="name" v="Kroktjønna" />
		<tag k="natural" v="water" />
		<tag k="ssr:stedsnr" v="135017" />
	</node>
	<node lat="64.38838610733606" lon="13.621969440497178" id="-42174">
		<tag k="fixme" v="multiple name tags, choose one and add the other to alt_name" />
		<tag k="name" v="Korsklumpen;Okstjønnklumpen" />
		<tag k="natural" v="hill" />
		<tag k="place" v="locality" />
		<tag k="ssr:stedsnr" v="135114" />
	</node>
	<node lat="64.51208055456547" lon="13.822175003407873" id="-42175">
		<tag k="name" v="Trøa" />
		<tag k="place" v="farm" />
		<tag k="ssr:stedsnr" v="135201" />
	</node>
	<node lat="64.76609166584755" lon="13.686455552789468" id="-42176">
		<tag k="name" v="Flåttåstokktangen" />
		<tag k="natural" v="cape" />
		<tag k="ssr:stedsnr" v="135335" />
	</node>
	<node lat="64.51224444843169" lon="13.736688887016184" id="-42177">
		<tag k="name" v="Skogset" />
		<tag k="place" v="farm" />
		<tag k="ssr:stedsnr" v="135206" />
	</node>
	<node lat="64.49701388517954" lon="13.267752778789829" id="-42178">
		<tag k="name" v="Pluttmyran" />
		<tag k="natural" v="wetland" />
		<tag k="ssr:stedsnr" v="135209" />
	</node>
	<node lat="64.49527499585423" lon="13.397741674231149" id="-42179">
		<tag k="name" v="Vestgården" />
		<tag k="place" v="farm" />
		<tag k="ssr:stedsnr" v="135212" />
	</node>
	<node lat="64.52587777882543" lon="13.7631333397669" id="-42180">
		<tag k="name" v="Raudberget" />
		<tag k="natural" v="hill" />
		<tag k="place" v="locality" />
		<tag k="ssr:stedsnr" v="135213" />
	</node>
	<node lat="64.52078888944489" lon="13.73337221437871" id="-42181">
		<tag k="name" v="Smeddibekken" />
		<tag k="ssr:stedsnr" v="135216" />
		<tag k="waterway" v="stream" />
	</node>
	<node lat="64.48398610801577" lon="13.304755548932732" id="-42182">
		<tag k="name" v="Otersjøen" />
		<tag k="natural" v="water" />
		<tag k="ssr:stedsnr" v="135218" />
		<tag k="water" v="lake" />
	</node>
	<node lat="64.48392777409614" lon="13.271358334189232" id="-42183">
		<tag k="name" v="Sagelva" />
		<tag k="ssr:stedsnr" v="135225" />
		<tag k="waterway" v="stream" />
	</node>
	<node lat="64.6797305543195" lon="13.746013895777338" id="-42184">
		<tag k="name" v="Linvasselva - Lyjmededaelienjohke" />
		<tag k="name:no" v="Linvasselva" />
		<tag k="name:sma" v="Lyjmededaelienjohke" />
		<tag k="ssr:stedsnr" v="135227" />
		<tag k="waterway" v="river" />
	</node>
	<node lat="64.49121586097536" lon="13.457281180841509" id="-42185">
		<tag k="alt_name" v="Bratland" />
		<tag k="fixme" v="consider place=hamlet" />
		<tag k="name" v="Brattland" />
		<tag k="place" v="farm" />
		<tag k="ssr:stedsnr" v="135229" />
	</node>
	<node lat="64.51213889311666" lon="13.682405548588294" id="-42186">
		<tag k="name" v="Framnes" />
		<tag k="place" v="farm" />
		<tag k="ssr:stedsnr" v="136004" />
	</node>
	<node lat="64.50747500134003" lon="13.693583324614801" id="-42187">
		<tag k="alt_name" v="Vestum" />
		<tag k="name" v="Vestem" />
		<tag k="place" v="farm" />
		<tag k="ssr:stedsnr" v="136007" />
	</node>
	<node lat="64.7415166666987" lon="13.789980550660976" id="-42188">
		<tag k="name" v="Storblautmyra" />
		<tag k="natural" v="wetland" />
		<tag k="ssr:stedsnr" v="136010" />
	</node>
	<node lat="64.74600555329108" lon="13.772649996246686" id="-42189">
		<tag k="name" v="Nymyrhytta" />
		<tag k="place" v="isolated_dwelling" />
		<tag k="ssr:stedsnr" v="136015" />
	</node>
	<node lat="64.51715000282937" lon="13.634816657878142" id="-42190">
		<tag k="name" v="Oldernes" />
		<tag k="place" v="locality" />
		<tag k="ssr:stedsnr" v="136040" />
	</node>
	<node lat="64.51813333090762" lon="13.373713887293803" id="-42191">
		<tag k="name" v="Klemmethaugen" />
		<tag k="natural" v="hill" />
		<tag k="place" v="locality" />
		<tag k="ssr:stedsnr" v="136058" />
	</node>
	<node lat="64.52906666595854" lon="13.691013890922326" id="-42192">
		<tag k="name" v="Homo" />
		<tag k="place" v="farm" />
		<tag k="ssr:stedsnr" v="136065" />
	</node>
	<node lat="64.18488611088415" lon="13.750280547937024" id="-42193">
		<tag k="alt_name" v="Litllia" />
		<tag k="name" v="Litlelia" />
		<tag k="natural" v="slope" />
		<tag k="place" v="locality" />
		<tag k="ssr:stedsnr" v="135903" />
	</node>
	<node lat="64.1762583295949" lon="14.047069451187102" id="-42194">
		<tag k="alt_name" v="Kvernelva" />
		<tag k="fixme" v="multiple name tags, choose one and add the other to alt_name" />
		<tag k="name" v="Beetnehgaejsienjohke;Kvennelva" />
		<tag k="ssr:stedsnr" v="135957" />
		<tag k="waterway" v="river" />
	</node>
	<node lat="64.17901944564133" lon="14.067227780833395" id="-42195">
		<tag k="name" v="Gammelheimen" />
		<tag k="place" v="locality" />
		<tag k="ssr:stedsnr" v="135958" />
	</node>
	<node lat="64.12259999735268" lon="14.006455547970575" id="-42196">
		<tag k="name" v="Nordbrennberga" />
		<tag k="natural" v="hill" />
		<tag k="place" v="locality" />
		<tag k="ssr:stedsnr" v="135960" />
	</node>
	<node lat="64.54728333774321" lon="13.295949991086498" id="-42197">
		<tag k="fixme" v="multiple name tags, choose one and add the other to alt_name" />
		<tag k="name" v="Storflyin;Klingervassflyen" />
		<tag k="place" v="locality" />
		<tag k="ssr:stedsnr" v="136105" />
	</node>
	<node lat="64.51813611529326" lon="13.52157778195057" id="-42198">
		<tag k="name" v="Merkesbekken" />
		<tag k="ssr:stedsnr" v="136112" />
		<tag k="waterway" v="stream" />
	</node>
	<node lat="64.55054444446307" lon="13.482113899201353" id="-42199">
		<tag k="name" v="Småtjønnin" />
		<tag k="natural" v="water" />
		<tag k="ssr:stedsnr" v="136114" />
	</node>
	<node lat="64.57136666422036" lon="13.482633339519476" id="-42200">
		<tag k="name" v="Norddalen" />
		<tag k="natural" v="valley" />
		<tag k="place" v="locality" />
		<tag k="ssr:stedsnr" v="136116" />
	</node>
	<node lat="64.53294589867993" lon="13.626460918707057" id="-42201">
		<tag k="fixme" v="consider natural=peak for the most distinct mountains in the district" />
		<tag k="name" v="Storfjellet" />
		<tag k="natural" v="hill" />
		<tag k="place" v="locality" />
		<tag k="ssr:stedsnr" v="136208" />
	</node>
	<node lat="64.62684167050985" lon="13.548772221067193" id="-42202">
		<tag k="name" v="Båsdalbekken" />
		<tag k="ssr:stedsnr" v="136422" />
		<tag k="waterway" v="stream" />
	</node>
	<node lat="64.63948055354933" lon="13.592255547450751" id="-42203">
		<tag k="name" v="Storbakken" />
		<tag k="place" v="farm" />
		<tag k="ssr:stedsnr" v="136455" />
	</node>
	<node lat="64.64747777834567" lon="13.683169451679287" id="-42204">
		<tag k="name" v="Solheim" />
		<tag k="place" v="farm" />
		<tag k="ssr:stedsnr" v="136457" />
	</node>
	<node lat="64.27458055842158" lon="13.5784166670168" id="-42205">
		<tag k="fixme" v="consider natural=peak for the most distinct mountains in the district" />
		<tag k="name" v="Heimen" />
		<tag k="natural" v="hill" />
		<tag k="place" v="locality" />
		<tag k="ssr:stedsnr" v="256017" />
	</node>
	<node lat="64.25262777975145" lon="13.800930558855274" id="-42206">
		<tag k="name" v="Storskardet" />
		<tag k="natural" v="valley" />
		<tag k="place" v="locality" />
		<tag k="ssr:stedsnr" v="146913" />
	</node>
	<node lat="64.26625277384188" lon="13.808024996186317" id="-42207">
		<tag k="name" v="Mæretberget" />
		<tag k="natural" v="hill" />
		<tag k="place" v="locality" />
		<tag k="ssr:stedsnr" v="146914" />
	</node>
	<node lat="64.20377777771397" lon="13.839830551617638" id="-42208">
		<tag k="name" v="Storvika" />
		<tag k="natural" v="bay" />
		<tag k="ssr:stedsnr" v="146918" />
	</node>
	<node lat="64.20463333513901" lon="13.838838880259209" id="-42209">
		<tag k="name" v="Lågmyrtangen" />
		<tag k="natural" v="cape" />
		<tag k="ssr:stedsnr" v="146920" />
	</node>
	<node lat="64.13871389083677" lon="13.917172219809155" id="-42210">
		<tag k="landuse" v="quarry" />
		<tag k="name" v="Grusgropa" />
		<tag k="ssr:stedsnr" v="146924" />
	</node>
	<node lat="64.14793888629322" lon="13.887775008578444" id="-42211">
		<tag k="name" v="Bråsånesmyra" />
		<tag k="natural" v="wetland" />
		<tag k="ssr:stedsnr" v="146926" />
	</node>
	<node lat="64.17084166353126" lon="13.901463881143746" id="-42212">
		<tag k="name" v="Grubbstakkslættet" />
		<tag k="natural" v="wetland" />
		<tag k="ssr:stedsnr" v="146929" />
	</node>
	<node lat="64.26099722317986" lon="13.70746666155483" id="-42213">
		<tag k="alt_name" v="Totland vestre" />
		<tag k="name" v="Vestre Totland" />
		<tag k="place" v="farm" />
		<tag k="ssr:stedsnr" v="146808" />
	</node>
</osm>
