<?xml version="1.0" encoding="UTF-8"?>
<osm version="0.6" generator="osmapis">
	<node lat="64.67214444412717" lon="13.720608325707218" id="-41553">
		<tag k="name" v="Limingdal statsallmenning" />
		<tag k="place" v="locality" />
		<tag k="ssr:stedsnr" v="86873" />
	</node>
	<node lat="64.67995833785514" lon="13.738222216605612" id="-41579">
		<tag k="name" v="Limingdal statsallmenning" />
		<tag k="place" v="locality" />
		<tag k="ssr:stedsnr" v="109485" />
	</node>
	<node lat="64.47824163395342" lon="14.08523602423971" id="-41586">
		<tag k="historic" v="boundary_stone" />
		<tag k="man_made" v="cairn" />
		<tag k="name" v="Murusjørøysa" />
		<tag k="old_name" v="Muursiø Røset" />
		<tag k="place" v="locality" />
		<tag k="ssr:stedsnr" v="110777" />
	</node>
	<node lat="64.14947794569267" lon="14.111758152236815" id="-41587">
		<tag k="historic" v="boundary_stone" />
		<tag k="man_made" v="cairn" />
		<tag k="name" v="Øvre Linbergrøysa" />
		<tag k="place" v="locality" />
		<tag k="ssr:stedsnr" v="110779" />
	</node>
	<node lat="64.50256389060922" lon="13.115502775896868" id="-41826">
		<tag k="name" v="Sanddøldal statsallmenning" />
		<tag k="place" v="locality" />
		<tag k="ssr:stedsnr" v="269801" />
	</node>
	<node lat="64.48281111227179" lon="14.055094446348829" id="-41828">
		<tag k="historic" v="boundary_stone" />
		<tag k="man_made" v="cairn" />
		<tag k="name" v="Pilttangrøysa" />
		<tag k="place" v="locality" />
		<tag k="ssr:stedsnr" v="221508" />
	</node>
	<node lat="64.77570452485982" lon="13.873359087657171" id="-41858">
		<tag k="historic" v="boundary_stone" />
		<tag k="man_made" v="cairn" />
		<tag k="name" v="Jormlifjellsrøysa" />
		<tag k="old_name" v="Jermatjak Røset" />
		<tag k="place" v="locality" />
		<tag k="ssr:stedsnr" v="231807" />
	</node>
	<node lat="64.13114722632143" lon="14.013994446799602" id="-41923">
		<tag k="name" v="Undingslia og Rørsjøhalla statsallmenning" />
		<tag k="place" v="locality" />
		<tag k="ssr:stedsnr" v="270090" />
	</node>
	<node lat="64.53915024064267" lon="13.786978133967882" id="-41924">
		<tag k="historic" v="boundary_stone" />
		<tag k="man_made" v="cairn" />
		<tag k="name" v="Fossdalsrøysa" />
		<tag k="old_name" v="Berserkrøysa" />
		<tag k="place" v="locality" />
		<tag k="ssr:stedsnr" v="282717" />
	</node>
	<node lat="64.10795666682417" lon="14.070613923651683" id="-42171">
		<tag k="historic" v="boundary_stone" />
		<tag k="man_made" v="cairn" />
		<tag k="name" v="Holmskogrøysa" />
		<tag k="old_name" v="Holm Skouvs Røset;Lingmuren" />
		<tag k="place" v="locality" />
		<tag k="ssr:stedsnr" v="413804" />
	</node>
	<node lat="64.55020960631406" lon="13.750854419793788" id="-42172">
		<tag k="historic" v="boundary_stone" />
		<tag k="man_made" v="cairn" />
		<tag k="name" v="Kveliklumprøysa" />
		<tag k="old_name" v="Kvefjellsrøysa;Quedfields Røset" />
		<tag k="place" v="locality" />
		<tag k="ssr:stedsnr" v="413790" />
	</node>
	<node lat="64.68170772570281" lon="13.75734496748219" id="-42503">
		<tag k="historic" v="boundary_stone" />
		<tag k="man_made" v="cairn" />
		<tag k="name" v="Limingdalsrøysa" />
		<tag k="place" v="locality" />
		<tag k="ssr:stedsnr" v="585502" />
	</node>
	<node lat="64.35989999744723" lon="13.74399167400347" id="-42531">
		<tag k="fixme" v="consider boundary=protected_area and relevant protect_class if not nature reserve" />
		<tag k="leisure" v="nature_reserve" />
		<tag k="name" v="Merkesfloen naturreservat" />
		<tag k="ssr:stedsnr" v="605310" />
	</node>
	<node lat="64.69988055102411" lon="13.701180562373084" id="-42671">
		<tag k="alt_name" v="Limingskogan" />
		<tag k="name" v="Limingen statsskog" />
		<tag k="place" v="locality" />
		<tag k="ssr:stedsnr" v="693880" />
	</node>
	<node lat="64.06441059058844" lon="14.026547356383476" id="-42740">
		<tag k="historic" v="boundary_stone" />
		<tag k="man_made" v="cairn" />
		<tag k="name" v="Søre Rengsrøysa" />
		<tag k="place" v="locality" />
		<tag k="ssr:stedsnr" v="899773" />
	</node>
	<node lat="64.4624841389665" lon="14.113868912372242" id="-42942">
		<tag k="historic" v="boundary_stone" />
		<tag k="man_made" v="cairn" />
		<tag k="name" v="Mururøysa" />
		<tag k="old_name" v="Muruelvsrøysa;Muur Elvs Røset" />
		<tag k="place" v="locality" />
		<tag k="ssr:stedsnr" v="838784" />
	</node>
	<node lat="64.19505833003664" lon="14.157102770489995" id="-42943">
		<tag k="historic" v="boundary_stone" />
		<tag k="man_made" v="cairn" />
		<tag k="name" v="Penningkeisrøysa" />
		<tag k="old_name" v="Penningkeis Røset" />
		<tag k="place" v="locality" />
		<tag k="ssr:stedsnr" v="838787" />
	</node>
	<node lat="64.28428132872462" lon="14.144701037952336" id="-42944">
		<tag k="historic" v="boundary_stone" />
		<tag k="man_made" v="cairn" />
		<tag k="name" v="Oivisrøysa" />
		<tag k="old_name" v="Oyvis Røset" />
		<tag k="place" v="locality" />
		<tag k="ssr:stedsnr" v="838788" />
	</node>
	<node lat="64.82212648780016" lon="13.931255843999388" id="-42945">
		<tag k="historic" v="boundary_stone" />
		<tag k="man_made" v="cairn" />
		<tag k="name" v="Brakkfjellsrøysa" />
		<tag k="name:no" v="Brakkfjellsrøysa" />
		<tag k="old_name:no" v="Brakfjellsrøysa;Brakovells Røset" />
		<tag k="place" v="locality" />
		<tag k="ssr:stedsnr" v="838793" />
	</node>
	<node lat="64.43504717265726" lon="14.118569891731921" id="-43065">
		<tag k="historic" v="boundary_stone" />
		<tag k="man_made" v="cairn" />
		<tag k="name" v="Mururumprøysa" />
		<tag k="place" v="locality" />
		<tag k="ssr:stedsnr" v="899771" />
	</node>
	<node lat="64.3148735392008" lon="14.139333399114841" id="-43066">
		<tag k="historic" v="boundary_stone" />
		<tag k="man_made" v="cairn" />
		<tag k="name" v="Spååjmerøysa" />
		<tag k="place" v="locality" />
		<tag k="ssr:stedsnr" v="899772" />
	</node>
	<node lat="64.36269166242387" lon="13.51408056354555" id="-43068">
		<tag k="fixme" v="consider boundary=protected_area and relevant protect_class if not nature reserve" />
		<tag k="leisure" v="nature_reserve" />
		<tag k="name" v="Holden naturreservat" />
		<tag k="ssr:stedsnr" v="910607" />
	</node>
	<node lat="64.34634722281646" lon="13.973574995474593" id="-43115">
		<tag k="fixme" v="consider boundary=protected_area and relevant protect_class if not nature reserve" />
		<tag k="leisure" v="nature_reserve" />
		<tag k="name" v="Lierne nasjonalpark - Lijre vaarjelimmiedajve" />
		<tag k="name:no" v="Lierne nasjonalpark" />
		<tag k="name:sma" v="Lijre vaarjelimmiedajve" />
		<tag k="ssr:stedsnr" v="950248" />
	</node>
	<node lat="64.32363333548162" lon="13.724863881398834" id="-43129">
		<tag k="name" v="Østre Finnli statsallmenning" />
		<tag k="place" v="locality" />
		<tag k="ssr:stedsnr" v="958512" />
	</node>
	<node lat="64.71157500131085" lon="13.794647217517154" id="-43260">
		<tag k="historic" v="boundary_stone" />
		<tag k="man_made" v="cairn" />
		<tag k="name" v="Haustmyrbergrøysa" />
		<tag k="old_name" v="Rødikrøysa;Raadtkedai Røset" />
		<tag k="place" v="locality" />
		<tag k="ssr:stedsnr" v="39728" />
	</node>
</osm>
