<?xml version="1.0" encoding="UTF-8"?>
<osm generator="osmapis" version="0.6">
	<node id="-751582" lat="64.6509944474" lon="13.4901499934">
		<tag k="name" v="Nesa" />
		<tag k="place" v="locality" />
		<tag k="ssr:stedsnr" v="15453" />
	</node>
	<node id="-753210" lat="64.6840888877" lon="13.7473916732">
		<tag k="name" v="Limingdalsplassen" />
		<tag k="place" v="locality" />
		<tag k="ssr:stedsnr" v="776500" />
	</node>
	<node id="-751183" lat="64.511643762" lon="13.374029242">
		<tag k="name" v="Storgrubbua" />
		<tag k="place" v="locality" />
		<tag k="ssr:stedsnr" v="743055" />
	</node>
	<node id="-753016" lat="64.5090444435" lon="13.308194454">
		<tag k="name" v="Dølbua" />
		<tag k="place" v="locality" />
		<tag k="ssr:stedsnr" v="632729" />
	</node>
	<node id="-749938" lat="64.4675287475" lon="13.5906988487">
		<tag k="amenity" v="place_of_worship" />
		<tag k="denomination" v="lutheran" />
		<tag k="name" v="Nordli kirke" />
		<tag k="religion" v="christian" />
		<tag k="ssr:stedsnr" v="75211" />
	</node>
	<node id="-753040" lat="64.5206361082" lon="13.6055527805">
		<tag k="name" v="Ivabygget" />
		<tag k="place" v="locality" />
		<tag k="ssr:stedsnr" v="654096" />
	</node>
	<node id="-752239" lat="64.520094751" lon="13.5447038353">
		<tag k="name" v="Sørbygget" />
		<tag k="place" v="locality" />
		<tag k="ssr:stedsnr" v="318038" />
	</node>
	<node id="-753166" lat="64.6841027788" lon="13.64483334">
		<tag k="amenity" v="place_of_worship" />
		<tag k="denomination" v="lutheran" />
		<tag k="loc_name" v="Tunnsjøen" />
		<tag k="name" v="Tunnsjø kirke" />
		<tag k="religion" v="christian" />
		<tag k="ssr:stedsnr" v="754406" />
	</node>
	<node id="-751180" lat="64.7874109476" lon="13.6724993294">
		<tag k="name" v="Dalbua" />
		<tag k="place" v="locality" />
		<tag k="ssr:stedsnr" v="743369" />
	</node>
	<node id="-752299" lat="64.5140083339" lon="13.3722333362">
		<tag k="name" v="Klemmethaugbua" />
		<tag k="place" v="locality" />
		<tag k="ssr:stedsnr" v="330868" />
	</node>
	<node id="-751560" lat="64.2485777794" lon="13.7484805497">
		<tag k="amenity" v="place_of_worship" />
		<tag k="denomination" v="lutheran" />
		<tag k="name" v="Sørli kirke" />
		<tag k="religion" v="christian" />
		<tag k="ssr:stedsnr" v="14838" />
	</node>
	<node id="-750756" lat="64.5672717541" lon="13.5254976564">
		<tag k="name" v="Vesterbua" />
		<tag k="place" v="locality" />
		<tag k="ssr:stedsnr" v="500119" />
	</node>
	<node id="-750027" lat="64.7232027775" lon="13.3862138928">
		<tag k="historic" v="heritage" />
		<tag k="name" v="Offerplassen" />
		<tag k="place" v="locality" />
		<tag k="ssr:stedsnr" v="257527" />
	</node>
</osm>
