<?xml version="1.0" encoding="UTF-8"?>
<osm version="0.6" generator="osmapis">
	<node lat="64.69481944842636" lon="13.751833341525861" id="-41846">
		<tag k="man_made" v="quay" />
		<tag k="name" v="Liminghovden" />
		<tag k="place" v="locality" />
		<tag k="ssr:stedsnr" v="230507" />
	</node>
	<node lat="64.29750555619553" lon="13.638061114492364" id="-41868">
		<tag k="highway" v="path" />
		<tag k="name" v="Storbakksetervegen" />
		<tag k="ssr:stedsnr" v="450847" />
	</node>
	<node lat="64.50629722212315" lon="13.359763898123916" id="-41921">
		<tag k="bridge" v="yes" />
		<tag k="layer" v="1" />
		<tag k="name" v="Litlåbrua" />
		<tag k="ssr:stedsnr" v="269824" />
	</node>
	<node lat="64.53329444617081" lon="13.6864249977435" id="-42436">
		<tag k="name" v="Storvelta" />
		<tag k="place" v="locality" />
		<tag k="ssr:stedsnr" v="533904" />
	</node>
	<node lat="64.25930833759831" lon="13.759008336796319" id="-42674">
		<tag k="highway" v="path" />
		<tag k="name" v="Møkkeltjønnvegen" />
		<tag k="ssr:stedsnr" v="693923" />
	</node>
</osm>
