<?xml version="1.0" encoding="UTF-8"?>
<osm version="0.6" generator="osmapis">
	<node lat="64.49972499630235" lon="13.728055555897527" id="-41968">
		<tag k="name" v="Seterfloen" />
		<tag k="natural" v="wetland" />
		<tag k="ssr:stedsnr" v="229798" />
	</node>
	<node lat="64.62540833658632" lon="13.600611103247932" id="-41969">
		<tag k="name" v="Storsteinmyra" />
		<tag k="natural" v="wetland" />
		<tag k="ssr:stedsnr" v="230142" />
	</node>
	<node lat="64.21592777789834" lon="13.769022212882017" id="-41983">
		<tag k="name" v="Ner Holmåsmyra" />
		<tag k="natural" v="wetland" />
		<tag k="ssr:stedsnr" v="230326" />
	</node>
	<node lat="64.14991667040539" lon="14.097472227680852" id="-41986">
		<tag k="name" v="Bjørkmyra" />
		<tag k="natural" v="wetland" />
		<tag k="ssr:stedsnr" v="230261" />
	</node>
	<node lat="64.19540555383264" lon="13.693330555995109" id="-41992">
		<tag k="name" v="Slåttnesfloen" />
		<tag k="natural" v="wetland" />
		<tag k="ssr:stedsnr" v="230718" />
	</node>
	<node lat="64.16937500210405" lon="13.675680563107445" id="-41993">
		<tag k="name" v="Jamt-Jomyra" />
		<tag k="natural" v="wetland" />
		<tag k="ssr:stedsnr" v="230721" />
	</node>
	<node lat="64.46816944844278" lon="13.800888896528125" id="-41994">
		<tag k="name" v="Stormyra" />
		<tag k="natural" v="wetland" />
		<tag k="ssr:stedsnr" v="230655" />
	</node>
	<node lat="64.46983332903339" lon="13.78346111658391" id="-41995">
		<tag k="name" v="Langfjellmyran" />
		<tag k="natural" v="wetland" />
		<tag k="ssr:stedsnr" v="230657" />
	</node>
	<node lat="64.37584444623096" lon="13.707586101742566" id="-41996">
		<tag k="name" v="Lommermyra" />
		<tag k="natural" v="wetland" />
		<tag k="ssr:stedsnr" v="230669" />
	</node>
	<node lat="64.5322944417713" lon="13.7148666763218" id="-41997">
		<tag k="name" v="Islandsmåssåstakkslettet" />
		<tag k="natural" v="wetland" />
		<tag k="ssr:stedsnr" v="230892" />
	</node>
	<node lat="64.147544446407" lon="13.70784722379974" id="-42000">
		<tag k="name" v="Otte-Olsasteinen" />
		<tag k="natural" v="stone" />
		<tag k="ssr:stedsnr" v="230777" />
	</node>
	<node lat="64.22069999961325" lon="13.609119441992256" id="-42001">
		<tag k="name" v="Karolinamyra" />
		<tag k="natural" v="wetland" />
		<tag k="ssr:stedsnr" v="230855" />
	</node>
	<node lat="64.3314444476686" lon="13.585255562325987" id="-42005">
		<tag k="name" v="Småmyrin" />
		<tag k="natural" v="wetland" />
		<tag k="ssr:stedsnr" v="230933" />
	</node>
	<node lat="64.31758333525651" lon="13.603902781160203" id="-42006">
		<tag k="name" v="Litlfloen" />
		<tag k="natural" v="wetland" />
		<tag k="ssr:stedsnr" v="230934" />
	</node>
	<node lat="64.27329235730485" lon="13.657132631016026" id="-42007">
		<tag k="historic" v="shieling" />
		<tag k="name" v="Myrmoseteren" />
		<tag k="place" v="locality" />
		<tag k="ssr:stedsnr" v="13009" />
	</node>
	<node lat="64.72963055344275" lon="13.532491667513547" id="-42035">
		<tag k="name" v="Stormyran" />
		<tag k="natural" v="wetland" />
		<tag k="ssr:stedsnr" v="15305" />
	</node>
	<node lat="64.46396388614276" lon="13.443655565308262" id="-42049">
		<tag k="name" v="Litlgrubba" />
		<tag k="natural" v="wetland" />
		<tag k="ssr:stedsnr" v="47215" />
	</node>
	<node lat="64.47978888817588" lon="13.418041676702833" id="-42051">
		<tag k="name" v="Leikarmyra" />
		<tag k="natural" v="wetland" />
		<tag k="ssr:stedsnr" v="47225" />
	</node>
	<node lat="64.45743889347806" lon="13.446533324094307" id="-42052">
		<tag k="name" v="Tangmyra" />
		<tag k="natural" v="wetland" />
		<tag k="ssr:stedsnr" v="47226" />
	</node>
	<node lat="64.2485916701021" lon="13.863369438495296" id="-42053">
		<tag k="name" v="Pluttfloen" />
		<tag k="natural" v="wetland" />
		<tag k="ssr:stedsnr" v="47388" />
	</node>
	<node lat="64.36538055220862" lon="13.659980548357385" id="-42054">
		<tag k="name" v="Jutulsteinan" />
		<tag k="natural" v="stone" />
		<tag k="ssr:stedsnr" v="47485" />
	</node>
	<node lat="64.6373777765103" lon="13.595966660131117" id="-42060">
		<tag k="name" v="Rumyrin" />
		<tag k="natural" v="wetland" />
		<tag k="ssr:stedsnr" v="48208" />
	</node>
	<node lat="64.10881944234953" lon="14.022911103401238" id="-42061">
		<tag k="name" v="Halvvegesdrolet" />
		<tag k="natural" v="wetland" />
		<tag k="ssr:stedsnr" v="48224" />
	</node>
	<node lat="64.35819444401679" lon="13.798097218751593" id="-42062">
		<tag k="name" v="Bustadmyrin" />
		<tag k="natural" v="wetland" />
		<tag k="ssr:stedsnr" v="48416" />
	</node>
	<node lat="64.18983333664018" lon="13.643833341278967" id="-42065">
		<tag k="name" v="Furufloen" />
		<tag k="natural" v="wetland" />
		<tag k="ssr:stedsnr" v="48705" />
	</node>
	<node lat="64.53667778113173" lon="13.7367833440795" id="-42071">
		<tag k="name" v="Setermyrin" />
		<tag k="natural" v="wetland" />
		<tag k="ssr:stedsnr" v="48919" />
	</node>
	<node lat="64.47274167056906" lon="13.821544445100352" id="-42072">
		<tag k="name" v="Middagsfloen" />
		<tag k="natural" v="wetland" />
		<tag k="ssr:stedsnr" v="48920" />
	</node>
	<node lat="64.46127499564992" lon="13.897513896252397" id="-42079">
		<tag k="name" v="Jakthusfloen" />
		<tag k="natural" v="wetland" />
		<tag k="ssr:stedsnr" v="74024" />
	</node>
	<node lat="64.39270832974766" lon="13.696963887313917" id="-42080">
		<tag k="name" v="Reinmyran" />
		<tag k="natural" v="wetland" />
		<tag k="ssr:stedsnr" v="74112" />
	</node>
	<node lat="64.16286388870371" lon="13.687588897255141" id="-42087">
		<tag k="name" v="Buåsfloen" />
		<tag k="natural" v="wetland" />
		<tag k="ssr:stedsnr" v="74811" />
	</node>
	<node lat="64.47533611519445" lon="13.508386102661666" id="-42122">
		<tag k="name" v="Kvernmyra" />
		<tag k="natural" v="wetland" />
		<tag k="ssr:stedsnr" v="86815" />
	</node>
	<node lat="64.23887500294427" lon="13.845002775006275" id="-42124">
		<tag k="name" v="Olamyrin" />
		<tag k="natural" v="wetland" />
		<tag k="ssr:stedsnr" v="86911" />
	</node>
	<node lat="64.65486388525966" lon="13.64773333593433" id="-42127">
		<tag k="name" v="Korsmyra" />
		<tag k="natural" v="wetland" />
		<tag k="ssr:stedsnr" v="86878" />
	</node>
	<node lat="64.20121944842627" lon="13.842344441437707" id="-42128">
		<tag k="name" v="Kjerkdrolet" />
		<tag k="natural" v="wetland" />
		<tag k="ssr:stedsnr" v="86879" />
	</node>
	<node lat="64.1689333308549" lon="13.81431945188163" id="-42130">
		<tag k="name" v="Staurvikfloen" />
		<tag k="natural" v="wetland" />
		<tag k="ssr:stedsnr" v="86892" />
	</node>
	<node lat="64.28232499674884" lon="13.625691668775676" id="-42131">
		<tag k="name" v="Ivamyra" />
		<tag k="natural" v="wetland" />
		<tag k="ssr:stedsnr" v="87834" />
	</node>
	<node lat="64.43594444461415" lon="13.388349990292898" id="-42135">
		<tag k="name" v="Limyran" />
		<tag k="natural" v="wetland" />
		<tag k="ssr:stedsnr" v="108204" />
	</node>
	<node lat="64.4334611149207" lon="13.387463888506751" id="-42136">
		<tag k="name" v="Bustadmyra" />
		<tag k="natural" v="wetland" />
		<tag k="ssr:stedsnr" v="108205" />
	</node>
	<node lat="64.1470944411437" lon="13.792813891536847" id="-42142">
		<tag k="name" v="Gamseterfloen" />
		<tag k="natural" v="wetland" />
		<tag k="ssr:stedsnr" v="109225" />
	</node>
	<node lat="64.55610833229423" lon="13.600755550801017" id="-42146">
		<tag k="name" v="Bjørkmyra" />
		<tag k="natural" v="wetland" />
		<tag k="ssr:stedsnr" v="109142" />
	</node>
	<node lat="64.17587500341541" lon="13.792130558957837" id="-42148">
		<tag k="historic" v="shieling" />
		<tag k="name" v="Gamsetervollen" />
		<tag k="place" v="locality" />
		<tag k="ssr:stedsnr" v="109184" />
	</node>
	<node lat="64.4050527803848" lon="13.733236117385864" id="-42149">
		<tag k="name" v="Einvollen" />
		<tag k="place" v="locality" />
		<tag k="ssr:stedsnr" v="109570" />
	</node>
	<node lat="64.27338611139218" lon="13.918163896700666" id="-42150">
		<tag k="name" v="Bengtfloen" />
		<tag k="natural" v="wetland" />
		<tag k="ssr:stedsnr" v="109404" />
	</node>
	<node lat="64.15758888667236" lon="13.724669449497618" id="-42154">
		<tag k="name" v="Smalmyra" />
		<tag k="natural" v="wetland" />
		<tag k="ssr:stedsnr" v="109769" />
	</node>
	<node lat="64.51892221825469" lon="13.727702786933005" id="-42155">
		<tag k="name" v="Smeddifloen" />
		<tag k="natural" v="wetland" />
		<tag k="ssr:stedsnr" v="109784" />
	</node>
	<node lat="64.52370278216358" lon="13.768386113679261" id="-42156">
		<tag k="name" v="Raudbergfloen" />
		<tag k="natural" v="wetland" />
		<tag k="ssr:stedsnr" v="109786" />
	</node>
	<node lat="64.03503888897257" lon="13.808549989881419" id="-42171">
		<tag k="name" v="Langmyra" />
		<tag k="natural" v="wetland" />
		<tag k="ssr:stedsnr" v="134821" />
	</node>
	<node lat="64.49701388517954" lon="13.267752778789829" id="-42178">
		<tag k="name" v="Pluttmyran" />
		<tag k="natural" v="wetland" />
		<tag k="ssr:stedsnr" v="135209" />
	</node>
	<node lat="64.7415166666987" lon="13.789980550660976" id="-42188">
		<tag k="name" v="Storblautmyra" />
		<tag k="natural" v="wetland" />
		<tag k="ssr:stedsnr" v="136010" />
	</node>
	<node lat="64.13871389083677" lon="13.917172219809155" id="-42210">
		<tag k="landuse" v="quarry" />
		<tag k="name" v="Grusgropa" />
		<tag k="ssr:stedsnr" v="146924" />
	</node>
	<node lat="64.14793888629322" lon="13.887775008578444" id="-42211">
		<tag k="name" v="Bråsånesmyra" />
		<tag k="natural" v="wetland" />
		<tag k="ssr:stedsnr" v="146926" />
	</node>
	<node lat="64.17084166353126" lon="13.901463881143746" id="-42212">
		<tag k="name" v="Grubbstakkslættet" />
		<tag k="natural" v="wetland" />
		<tag k="ssr:stedsnr" v="146929" />
	</node>
</osm>
