<?xml version="1.0" encoding="UTF-8"?>
<osm generator="osmapis" version="0.6">
	<node id="-63957" lat="58.0732173067" lon="7.10846335545">
		<tag k="name" v="Naudøyna" />
		<tag k="ssr:date" v="2019-12-27" />
		<tag k="ssr:gruppe" v="veg" />
		<tag k="ssr:hovedgruppe" v="infrastruktur" />
		<tag k="ssr:stedsnr" v="1074347" />
		<tag k="ssr:type" v="adressenavn" />
	</node>
	<node id="-63869" lat="58.2461442733" lon="7.30903668415">
		<tag k="name" v="Rødlandsveien" />
		<tag k="old_name" v="Røydlandsveien" />
		<tag k="ssr:date" v="2019-12-27" />
		<tag k="ssr:gruppe" v="veg" />
		<tag k="ssr:hovedgruppe" v="infrastruktur" />
		<tag k="ssr:stedsnr" v="976961" />
		<tag k="ssr:type" v="adressenavn" />
	</node>
	<node id="-60922" lat="58.0464147306" lon="6.97541907722">
		<tag k="name" v="Hausvikodden" />
		<tag k="ssr:date" v="2020-09-03" />
		<tag k="ssr:gruppe" v="navigasjon" />
		<tag k="ssr:hovedgruppe" v="infrastruktur" />
		<tag k="ssr:stedsnr" v="303581" />
		<tag k="ssr:type" v="fyrlykt" />
	</node>
	<node id="-63960" lat="58.1738998736" lon="7.13828403017">
		<tag k="name" v="Birkestølveien" />
		<tag k="ssr:date" v="2019-12-27" />
		<tag k="ssr:gruppe" v="veg" />
		<tag k="ssr:hovedgruppe" v="infrastruktur" />
		<tag k="ssr:stedsnr" v="1074348" />
		<tag k="ssr:type" v="adressenavn" />
	</node>
	<node id="-63127" lat="58.0053778226" lon="7.01027722826">
		<tag k="name" v="Lypskjer" />
		<tag k="ssr:date" v="2020-09-03" />
		<tag k="ssr:gruppe" v="navigasjon" />
		<tag k="ssr:hovedgruppe" v="infrastruktur" />
		<tag k="ssr:stedsnr" v="788649" />
		<tag k="ssr:type" v="fyrlykt" />
	</node>
	<node id="-63958" lat="58.1143701573" lon="6.94351310332">
		<tag k="name" v="Sørsibakken" />
		<tag k="ssr:date" v="2019-12-27" />
		<tag k="ssr:gruppe" v="veg" />
		<tag k="ssr:hovedgruppe" v="infrastruktur" />
		<tag k="ssr:stedsnr" v="1074346" />
		<tag k="ssr:type" v="adressenavn" />
	</node>
	<node id="-62261" lat="58.0982633978" lon="7.02339240459">
		<tag k="name" v="Syrhovud" />
		<tag k="ssr:date" v="2020-09-03" />
		<tag k="ssr:gruppe" v="navigasjon" />
		<tag k="ssr:hovedgruppe" v="infrastruktur" />
		<tag k="ssr:stedsnr" v="570370" />
		<tag k="ssr:type" v="fyrlykt" />
	</node>
	<node id="-63956" lat="58.062791361" lon="7.00113338008">
		<tag k="name" v="Bærøy" />
		<tag k="ssr:date" v="2019-12-27" />
		<tag k="ssr:gruppe" v="veg" />
		<tag k="ssr:hovedgruppe" v="infrastruktur" />
		<tag k="ssr:stedsnr" v="1074344" />
		<tag k="ssr:type" v="adressenavn" />
	</node>
	<node id="-63955" lat="58.0200015477" lon="6.99845862978">
		<tag k="name" v="Kjøpsøy" />
		<tag k="ssr:date" v="2019-12-27" />
		<tag k="ssr:gruppe" v="veg" />
		<tag k="ssr:hovedgruppe" v="infrastruktur" />
		<tag k="ssr:stedsnr" v="1074343" />
		<tag k="ssr:type" v="adressenavn" />
	</node>
	<node id="-63954" lat="58.0366024047" lon="6.9886204173">
		<tag k="name" v="Bådnesveien" />
		<tag k="ssr:date" v="2019-12-27" />
		<tag k="ssr:gruppe" v="veg" />
		<tag k="ssr:hovedgruppe" v="infrastruktur" />
		<tag k="ssr:stedsnr" v="1074345" />
		<tag k="ssr:type" v="adressenavn" />
	</node>
	<node id="-63953" lat="58.0210936366" lon="6.99908617002">
		<tag k="name" v="Holmen" />
		<tag k="ssr:date" v="2019-12-27" />
		<tag k="ssr:gruppe" v="veg" />
		<tag k="ssr:hovedgruppe" v="infrastruktur" />
		<tag k="ssr:stedsnr" v="1074342" />
		<tag k="ssr:type" v="adressenavn" />
	</node>
	<node id="-63952" lat="58.1511039845" lon="7.99409139476">
		<tag k="name" v="Agder fylke" />
		<tag k="ssr:date" v="2020-01-13" />
		<tag k="ssr:gruppe" v="administrativeIndelinger" />
		<tag k="ssr:hovedgruppe" v="offentligAdministrasjon" />
		<tag k="ssr:stedsnr" v="1073974" />
		<tag k="ssr:type" v="fylke" />
	</node>
	<node id="-63951" lat="58.2877513307" lon="7.19842964982">
		<tag k="name" v="Birkelandsveien" />
		<tag k="ssr:date" v="2019-12-27" />
		<tag k="ssr:gruppe" v="veg" />
		<tag k="ssr:hovedgruppe" v="infrastruktur" />
		<tag k="ssr:stedsnr" v="987904" />
		<tag k="ssr:type" v="adressenavn" />
	</node>
	<node id="-63693" lat="58.1382861141" lon="7.06837221377">
		<tag k="loc_name" v="Lyngdal" />
		<tag k="name" v="Lyngdal kommune" />
		<tag k="ssr:date" v="2019-12-27" />
		<tag k="ssr:gruppe" v="administrativeIndelinger" />
		<tag k="ssr:hovedgruppe" v="offentligAdministrasjon" />
		<tag k="ssr:stedsnr" v="874787" />
		<tag k="ssr:type" v="kommune" />
	</node>
	<node id="-62668" lat="58.0283636902" lon="7.00346766891">
		<tag k="name" v="Revøysundet" />
		<tag k="ssr:date" v="2020-09-03" />
		<tag k="ssr:gruppe" v="navigasjon" />
		<tag k="ssr:hovedgruppe" v="infrastruktur" />
		<tag k="ssr:stedsnr" v="630401" />
		<tag k="ssr:type" v="fyrlykt" />
	</node>
	<node id="-63959" lat="58.0057423822" lon="6.99783314526">
		<tag k="name" v="Seli" />
		<tag k="ssr:date" v="2019-12-27" />
		<tag k="ssr:gruppe" v="veg" />
		<tag k="ssr:hovedgruppe" v="infrastruktur" />
		<tag k="ssr:stedsnr" v="1074349" />
		<tag k="ssr:type" v="adressenavn" />
	</node>
	<node id="-63557" lat="58.0149205092" lon="7.00319549634">
		<tag k="name" v="Ulvåsodden" />
		<tag k="ssr:date" v="2020-09-03" />
		<tag k="ssr:gruppe" v="navigasjon" />
		<tag k="ssr:hovedgruppe" v="infrastruktur" />
		<tag k="ssr:stedsnr" v="849711" />
		<tag k="ssr:type" v="fyrlykt" />
	</node>
	<node id="-60292" lat="58.3325833378" lon="7.04150000809">
		<tag k="name" v="Lister" />
		<tag k="ssr:date" v="2019-12-27" />
		<tag k="ssr:gruppe" v="terrengområder" />
		<tag k="ssr:hovedgruppe" v="terreng" />
		<tag k="ssr:stedsnr" v="120117" />
		<tag k="ssr:type" v="landskapsområde" />
	</node>
</osm>
