<?xml version="1.0" encoding="UTF-8"?>
<osm generator="osmapis" version="0.6">
	<node id="-499709" lat="60.9627277768" lon="5.53509999737">
		<tag k="name" v="Sætersstølvatnet" />
		<tag k="natural" v="water" />
		<tag k="ssr:stedsnr" v="69302" />
	</node>
	<node id="-501753" lat="61.0063916632" lon="5.44178056041">
		<tag k="name" v="Storelva" />
		<tag k="ssr:stedsnr" v="737919" />
		<tag k="waterway" v="river" />
	</node>
	<node id="-499703" lat="60.9860388901" lon="5.36925834059">
		<tag k="name" v="Langvatnet" />
		<tag k="natural" v="water" />
		<tag k="ssr:stedsnr" v="69154" />
	</node>
	<node id="-499701" lat="60.9896361124" lon="5.24955555443">
		<tag k="name" v="Medleitetjørna" />
		<tag k="natural" v="water" />
		<tag k="ssr:stedsnr" v="69139" />
	</node>
	<node id="-501748" lat="61.0241611108" lon="5.24890554928">
		<tag k="name" v="Blåfjellstjørna" />
		<tag k="natural" v="water" />
		<tag k="ssr:stedsnr" v="737880" />
	</node>
	<node id="-501745" lat="61.0562499969" lon="5.20049167282">
		<tag k="name" v="Stølstjørna" />
		<tag k="natural" v="water" />
		<tag k="ssr:stedsnr" v="737599" />
	</node>
	<node id="-499694" lat="60.922824998" lon="4.85562500876">
		<tag k="name" v="Mjømnevatnet" />
		<tag k="natural" v="water" />
		<tag k="ssr:stedsnr" v="69529" />
	</node>
	<node id="-501740" lat="60.9204166707" lon="4.83855832398">
		<tag k="name" v="Fløa" />
		<tag k="natural" v="water" />
		<tag k="ssr:stedsnr" v="737472" />
	</node>
	<node id="-501734" lat="60.9045944438" lon="4.94415833261">
		<tag k="name" v="Nappsvatnet" />
		<tag k="natural" v="water" />
		<tag k="ssr:stedsnr" v="737431" />
	</node>
	<node id="-501733" lat="60.9041388898" lon="4.86525277538">
		<tag k="name" v="Måvatnet" />
		<tag k="natural" v="water" />
		<tag k="ssr:stedsnr" v="737427" />
	</node>
	<node id="-499684" lat="60.9954250025" lon="5.07631666167">
		<tag k="name" v="Svartevatnet" />
		<tag k="natural" v="water" />
		<tag k="ssr:stedsnr" v="68368" />
	</node>
	<node id="-501730" lat="60.8821638872" lon="5.08717221458">
		<tag k="name" v="Langevatnet" />
		<tag k="natural" v="water" />
		<tag k="ssr:stedsnr" v="737395" />
		<tag k="water" v="lake" />
	</node>
	<node id="-501729" lat="60.8792999976" lon="5.07009166159">
		<tag k="name" v="Litlevatnet" />
		<tag k="natural" v="water" />
		<tag k="ssr:stedsnr" v="737394" />
	</node>
	<node id="-499677" lat="60.9812611149" lon="4.94601665977">
		<tag k="name" v="Kvernhusvatnet" />
		<tag k="natural" v="water" />
		<tag k="ssr:stedsnr" v="67359" />
	</node>
	<node id="-499667" lat="61.0487805517" lon="5.55720554983">
		<tag k="name" v="Katløyrane" />
		<tag k="place" v="islet" />
		<tag k="ssr:stedsnr" v="36954" />
	</node>
	<node id="-499662" lat="60.9555361129" lon="5.47821389206">
		<tag k="name" v="Smedsdalselva" />
		<tag k="ssr:stedsnr" v="36716" />
		<tag k="waterway" v="stream" />
	</node>
	<node id="-499661" lat="61.0110999972" lon="5.57558332966">
		<tag k="name" v="Fossane" />
		<tag k="natural" v="waterfall" />
		<tag k="ssr:stedsnr" v="36708" />
	</node>
	<node id="-499660" lat="60.9619638889" lon="5.47913054797">
		<tag k="name" v="Skadgjelgrova" />
		<tag k="ssr:stedsnr" v="36696" />
		<tag k="waterway" v="stream" />
	</node>
	<node id="-501707" lat="60.9921333335" lon="5.6135583246">
		<tag k="name" v="Skjerjevatnet" />
		<tag k="natural" v="water" />
		<tag k="ssr:stedsnr" v="736768" />
		<tag k="water" v="lake" />
	</node>
	<node id="-499658" lat="60.9587066339" lon="5.49591049688">
		<tag k="name" v="Duelva" />
		<tag k="ssr:stedsnr" v="36688" />
		<tag k="waterway" v="river" />
	</node>
	<node id="-501700" lat="60.9547250023" lon="5.38617500407">
		<tag k="name" v="Såtetjørna" />
		<tag k="natural" v="water" />
		<tag k="ssr:stedsnr" v="736834" />
	</node>
	<node id="-501693" lat="60.928650001" lon="4.83698334109">
		<tag k="name" v="Stølsvatnet" />
		<tag k="natural" v="water" />
		<tag k="ssr:stedsnr" v="736273" />
	</node>
	<node id="-499628" lat="60.9328694418" lon="5.18896667479">
		<tag k="name" v="Purkevasselva" />
		<tag k="ssr:stedsnr" v="36218" />
		<tag k="waterway" v="stream" />
	</node>
	<node id="-501675" lat="60.950441667" lon="5.02538054849">
		<tag k="name" v="Svarthaugtjørna" />
		<tag k="natural" v="water" />
		<tag k="ssr:stedsnr" v="735276" />
	</node>
	<node id="-499626" lat="60.9447250038" lon="5.38398054711">
		<tag k="name" v="Øyra" />
		<tag k="natural" v="cape" />
		<tag k="ssr:stedsnr" v="36197" />
	</node>
	<node id="-501660" lat="60.9330361118" lon="5.34986666049">
		<tag k="name" v="Kjerringdalsvika" />
		<tag k="natural" v="bay" />
		<tag k="ssr:stedsnr" v="704224" />
	</node>
	<node id="-499610" lat="60.9095305512" lon="5.07726666189">
		<tag k="name" v="Skarpeneset" />
		<tag k="natural" v="cape" />
		<tag k="ssr:stedsnr" v="35920" />
	</node>
	<node id="-499605" lat="60.8908166667" lon="5.10077222828">
		<tag k="name" v="Instetjørna" />
		<tag k="natural" v="water" />
		<tag k="ssr:stedsnr" v="35848" />
	</node>
	<node id="-499604" lat="60.9034805592" lon="5.08185555074">
		<tag k="name" v="Austlivika" />
		<tag k="natural" v="bay" />
		<tag k="ssr:stedsnr" v="35841" />
	</node>
	<node id="-499601" lat="60.8925416683" lon="5.05149999968">
		<tag k="name" v="Kleiveelva" />
		<tag k="ssr:stedsnr" v="35811" />
		<tag k="waterway" v="stream" />
	</node>
	<node id="-499599" lat="61.0394944468" lon="5.17712222582">
		<tag k="name" v="Trangelva" />
		<tag k="ssr:stedsnr" v="35790" />
		<tag k="waterway" v="river" />
	</node>
	<node id="-501645" lat="61.0226750041" lon="5.19515833463">
		<tag k="name" v="Hamreelva" />
		<tag k="ssr:stedsnr" v="703899" />
		<tag k="waterway" v="stream" />
	</node>
	<node id="-501640" lat="60.8700222264" lon="5.10082221992">
		<tag k="name" v="Vassnausteberga" />
		<tag k="natural" v="cape" />
		<tag k="ssr:stedsnr" v="703791" />
	</node>
	<node id="-499570" lat="60.8599638887" lon="5.07491666358">
		<tag k="name" v="Rabbetjørna" />
		<tag k="natural" v="water" />
		<tag k="ssr:stedsnr" v="35092" />
	</node>
	<node id="-501614" lat="61.0069749965" lon="5.38460833971">
		<tag k="name" v="Vasslineset" />
		<tag k="natural" v="cape" />
		<tag k="ssr:stedsnr" v="703221" />
	</node>
	<node id="-501613" lat="61.0059055557" lon="5.39350278169">
		<tag k="name" v="Skitnevika" />
		<tag k="natural" v="bay" />
		<tag k="ssr:stedsnr" v="703223" />
	</node>
	<node id="-501601" lat="60.9814055553" lon="4.94309167096">
		<tag k="name" v="Vassneset" />
		<tag k="natural" v="cape" />
		<tag k="ssr:stedsnr" v="702997" />
	</node>
	<node id="-501597" lat="60.9071638893" lon="5.08616667353">
		<tag k="name" v="Laberget" />
		<tag k="natural" v="cape" />
		<tag k="ssr:stedsnr" v="702911" />
	</node>
	<node id="-501732" lat="61.0433333344" lon="5.09069166464">
		<tag k="name" v="Øyna" />
		<tag k="place" v="islet" />
		<tag k="ssr:stedsnr" v="737417" />
	</node>
	<node id="-501583" lat="60.8713805583" lon="4.88120000014">
		<tag k="name" v="Olsvågtjørna" />
		<tag k="natural" v="water" />
		<tag k="ssr:stedsnr" v="702560" />
	</node>
	<node id="-499517" lat="61.0231555522" lon="5.18748888038">
		<tag k="alt_name" v="Nordgulvatnet, søre;Synste Nordgulvatnet" />
		<tag k="name" v="Søre Nordgulvatnet" />
		<tag k="natural" v="water" />
		<tag k="ssr:stedsnr" v="9888" />
	</node>
	<node id="-499510" lat="61.0513138889" lon="5.27316944838">
		<tag k="name" v="Kroktjørna" />
		<tag k="natural" v="water" />
		<tag k="ssr:stedsnr" v="9615" />
	</node>
	<node id="-499507" lat="61.0548861144" lon="5.23512777353">
		<tag k="alt_name" v="Ytreelva;Ytterelvi" />
		<tag k="name" v="Ytrelva" />
		<tag k="ssr:stedsnr" v="9594" />
		<tag k="waterway" v="stream" />
	</node>
	<node id="-499506" lat="61.0449527796" lon="5.09972222345">
		<tag k="name" v="Eikedalselva" />
		<tag k="ssr:stedsnr" v="9593" />
		<tag k="waterway" v="stream" />
	</node>
	<node id="-499503" lat="60.9239444459" lon="4.99468333447">
		<tag k="name" v="Lifjellvatnet" />
		<tag k="natural" v="water" />
		<tag k="ssr:stedsnr" v="9504" />
	</node>
	<node id="-500701" lat="60.9045138922" lon="5.07579722231">
		<tag k="name" v="Storevika" />
		<tag k="natural" v="bay" />
		<tag k="ssr:stedsnr" v="460860" />
	</node>
	<node id="-499487" lat="60.99295556" lon="5.23487778147">
		<tag k="alt_name" v="Hanntveittjørna, s" />
		<tag k="name" v="Søre Hanntveittjørna" />
		<tag k="natural" v="water" />
		<tag k="ssr:stedsnr" v="9153" />
	</node>
	<node id="-499485" lat="60.9906166674" lon="5.10241389549">
		<tag k="alt_name" v="Midtunelva" />
		<tag k="name" v="Midttunelva" />
		<tag k="ssr:stedsnr" v="9142" />
		<tag k="waterway" v="stream" />
	</node>
	<node id="-499480" lat="60.9057590777" lon="5.16648530779">
		<tag k="name" v="Grauttjørna" />
		<tag k="natural" v="water" />
		<tag k="ssr:stedsnr" v="8936" />
	</node>
	<node id="-499479" lat="60.896441664" lon="5.16171944931">
		<tag k="name" v="Grønskartjørna" />
		<tag k="natural" v="water" />
		<tag k="ssr:stedsnr" v="8918" />
	</node>
	<node id="-501526" lat="61.0424416686" lon="5.05732221994">
		<tag k="alt_name" v="Mørkebotsvatnet" />
		<tag k="name" v="Myrkebotnsvatnet" />
		<tag k="natural" v="water" />
		<tag k="ssr:stedsnr" v="677417" />
	</node>
	<node id="-499473" lat="60.9197527808" lon="5.10478611577">
		<tag k="name" v="Langetjørna" />
		<tag k="natural" v="water" />
		<tag k="ssr:stedsnr" v="8871" />
	</node>
	<node id="-499472" lat="60.9253055536" lon="5.09788332895">
		<tag k="alt_name" v="Nordre Botstjørna;Nordbotstjørna" />
		<tag k="name" v="Nordrebotnstjørna" />
		<tag k="natural" v="water" />
		<tag k="ssr:stedsnr" v="8867" />
	</node>
	<node id="-499471" lat="60.9317478203" lon="5.26254916513">
		<tag k="name" v="Fossetjørna" />
		<tag k="natural" v="water" />
		<tag k="ssr:stedsnr" v="8862" />
	</node>
	<node id="-499463" lat="60.9723027774" lon="5.42278888423">
		<tag k="name" v="Olsvatna" />
		<tag k="natural" v="water" />
		<tag k="ssr:stedsnr" v="8826" />
	</node>
	<node id="-499458" lat="60.9909888895" lon="5.54443054847">
		<tag k="name" v="Betnene" />
		<tag k="ssr:stedsnr" v="8771" />
		<tag k="waterway" v="stream" />
	</node>
	<node id="-499456" lat="61.0413388915" lon="5.07833332802">
		<tag k="name" v="Haslevika" />
		<tag k="natural" v="bay" />
		<tag k="ssr:stedsnr" v="8548" />
	</node>
	<node id="-501503" lat="60.9337555515" lon="5.32342777743">
		<tag k="name" v="Rotetjørna" />
		<tag k="natural" v="water" />
		<tag k="ssr:stedsnr" v="676840" />
	</node>
	<node id="-501502" lat="60.9690000014" lon="5.39936388562">
		<tag k="name" v="Holmevatnet" />
		<tag k="natural" v="water" />
		<tag k="ssr:stedsnr" v="676800" />
	</node>
	<node id="-501501" lat="60.9693388922" lon="5.29074444825">
		<tag k="name" v="Medlivika" />
		<tag k="natural" v="bay" />
		<tag k="ssr:stedsnr" v="676792" />
	</node>
	<node id="-499451" lat="60.8964277753" lon="4.99952500607">
		<tag k="alt_name" v="Slottjørna, nordre" />
		<tag k="name" v="Nordre Slottjørna" />
		<tag k="natural" v="water" />
		<tag k="ssr:stedsnr" v="8465" />
	</node>
	<node id="-501487" lat="60.84543056" lon="5.11220834115">
		<tag k="name" v="Steinsvatnet" />
		<tag k="natural" v="water" />
		<tag k="ssr:stedsnr" v="676525" />
	</node>
	<node id="-501482" lat="60.893502778" lon="5.00062777608">
		<tag k="alt_name" v="Slottjørna, s" />
		<tag k="name" v="Søre Slottjørna" />
		<tag k="natural" v="water" />
		<tag k="ssr:stedsnr" v="676440" />
	</node>
	<node id="-501471" lat="60.9485166635" lon="5.52513333146">
		<tag k="name" v="Blåfjellvatnet" />
		<tag k="natural" v="water" />
		<tag k="ssr:stedsnr" v="676290" />
	</node>
	<node id="-501458" lat="61.0023499965" lon="5.52461388154">
		<tag k="name" v="Skiddalsvatnet" />
		<tag k="natural" v="water" />
		<tag k="ssr:stedsnr" v="676022" />
	</node>
	<node id="-501456" lat="60.9023999979" lon="5.1630833275">
		<tag k="name" v="Buvatnet" />
		<tag k="natural" v="water" />
		<tag k="ssr:stedsnr" v="675943" />
	</node>
	<node id="-501709" lat="60.9810249978" lon="5.50794999289">
		<tag k="name" v="Storelivatnet" />
		<tag k="natural" v="water" />
		<tag k="ssr:stedsnr" v="736769" />
	</node>
	<node id="-499402" lat="60.9766921055" lon="5.63191991098">
		<tag k="name" v="Kvanngrøvatnet" />
		<tag k="natural" v="water" />
		<tag k="ssr:stedsnr" v="554333" />
		<tag k="water" v="lake" />
	</node>
	<node id="-499401" lat="60.9027552115" lon="5.17746762182">
		<tag k="name" v="Vardlitjørna" />
		<tag k="natural" v="water" />
		<tag k="ssr:stedsnr" v="190930" />
	</node>
	<node id="-499400" lat="60.8635253854" lon="5.14020360149">
		<tag k="name" v="Svelivatnet" />
		<tag k="natural" v="water" />
		<tag k="ssr:stedsnr" v="312985" />
	</node>
	<node id="-501445" lat="60.907013887" lon="5.05781667475">
		<tag k="name" v="Oksetjørna" />
		<tag k="natural" v="water" />
		<tag k="ssr:stedsnr" v="675487" />
	</node>
	<node id="-501441" lat="60.9874166667" lon="5.34900832823">
		<tag k="name" v="Ørnereirtjørna" />
		<tag k="natural" v="water" />
		<tag k="ssr:stedsnr" v="675163" />
	</node>
	<node id="-501024" lat="60.9651666663" lon="5.30798332913">
		<tag k="name" v="Mjåneset" />
		<tag k="natural" v="cape" />
		<tag k="ssr:stedsnr" v="554973" />
	</node>
	<node id="-501436" lat="60.9795694451" lon="4.8377888951">
		<tag k="name" v="Holtevatnet" />
		<tag k="natural" v="water" />
		<tag k="ssr:stedsnr" v="674332" />
	</node>
	<node id="-499383" lat="60.9396194475" lon="5.49021388955">
		<tag k="name" v="Verklandselva" />
		<tag k="ssr:stedsnr" v="886692" />
		<tag k="waterway" v="river" />
	</node>
	<node id="-499375" lat="60.9427555533" lon="5.19000832778">
		<tag k="name" v="Kaneselva" />
		<tag k="ssr:stedsnr" v="886493" />
		<tag k="waterway" v="stream" />
	</node>
	<node id="-501402" lat="61.0046500007" lon="5.23341111213">
		<tag k="name" v="Omnelva" />
		<tag k="ssr:stedsnr" v="642663" />
		<tag k="waterway" v="stream" />
	</node>
	<node id="-499351" lat="60.975974998" lon="5.34738055521">
		<tag k="name" v="Elveskarelva" />
		<tag k="ssr:stedsnr" v="886005" />
		<tag k="waterway" v="stream" />
	</node>
	<node id="-499350" lat="60.9889805547" lon="5.4429444512">
		<tag k="name" v="Tverrbotgrova" />
		<tag k="ssr:stedsnr" v="886001" />
		<tag k="waterway" v="stream" />
	</node>
	<node id="-499345" lat="61.0262805518" lon="5.18362778475">
		<tag k="name" v="Vassoselva" />
		<tag k="ssr:stedsnr" v="885914" />
		<tag k="waterway" v="river" />
	</node>
	<node id="-499343" lat="60.9249250003" lon="5.04953889329">
		<tag k="name" v="Laberget" />
		<tag k="natural" v="cape" />
		<tag k="ssr:stedsnr" v="885903" />
	</node>
	<node id="-499339" lat="61.0262638859" lon="5.19948055939">
		<tag k="name" v="Slettebrekkelva" />
		<tag k="ssr:stedsnr" v="885863" />
		<tag k="waterway" v="stream" />
	</node>
	<node id="-499333" lat="60.8927222212" lon="5.10489722596">
		<tag k="name" v="Skitdiketjørna" />
		<tag k="natural" v="water" />
		<tag k="ssr:stedsnr" v="885795" />
	</node>
	<node id="-501376" lat="61.0192111144" lon="5.31999166221">
		<tag k="name" v="Rotetjørna" />
		<tag k="natural" v="water" />
		<tag k="ssr:stedsnr" v="642316" />
	</node>
	<node id="-499324" lat="60.9121744895" lon="4.83460640617">
		<tag k="name" v="Lommannstraumen" />
		<tag k="natural" v="water" />
		<tag k="ssr:stedsnr" v="885522" />
		<tag k="water" v="lake" />
	</node>
	<node id="-499301" lat="60.9623444401" lon="4.96430277691">
		<tag k="name" v="Kletjørna" />
		<tag k="natural" v="water" />
		<tag k="ssr:stedsnr" v="884485" />
	</node>
	<node id="-501345" lat="60.9780222875" lon="4.94006944403">
		<tag k="name" v="Trollevatnet" />
		<tag k="natural" v="water" />
		<tag k="ssr:stedsnr" v="641999" />
		<tag k="water" v="lake" />
	</node>
	<node id="-501341" lat="60.9131194477" lon="5.08443610862">
		<tag k="name" v="Nordre Klubbevika" />
		<tag k="natural" v="bay" />
		<tag k="ssr:stedsnr" v="641881" />
	</node>
	<node id="-501340" lat="60.9113249984" lon="5.08183611487">
		<tag k="name" v="Mjåsundet" />
		<tag k="natural" v="strait" />
		<tag k="ssr:stedsnr" v="641875" />
	</node>
	<node id="-501332" lat="60.9930166678" lon="5.11744166659">
		<tag k="name" v="Smileneset" />
		<tag k="natural" v="cape" />
		<tag k="ssr:stedsnr" v="641507" />
	</node>
	<node id="-499278" lat="60.9369583367" lon="5.51091944525">
		<tag k="name" v="Storelva" />
		<tag k="ssr:stedsnr" v="400677" />
		<tag k="waterway" v="river" />
	</node>
	<node id="-501324" lat="60.917766666" lon="4.92315000094">
		<tag k="name" v="Fjellsendtjørna" />
		<tag k="natural" v="water" />
		<tag k="ssr:stedsnr" v="641219" />
	</node>
	<node id="-499259" lat="60.9958499983" lon="5.33481667169">
		<tag k="name" v="Lyngneset" />
		<tag k="natural" v="cape" />
		<tag k="ssr:stedsnr" v="400250" />
	</node>
	<node id="-499255" lat="60.9315972208" lon="5.34615277635">
		<tag k="name" v="Ropehaugneset" />
		<tag k="natural" v="cape" />
		<tag k="ssr:stedsnr" v="400223" />
	</node>
	<node id="-501302" lat="60.9931861108" lon="5.07334721469">
		<tag k="name" v="Espeviktjørna" />
		<tag k="natural" v="water" />
		<tag k="ssr:stedsnr" v="636873" />
	</node>
	<node id="-499250" lat="60.9160122734" lon="5.382406464">
		<tag k="name" v="Skartjørna" />
		<tag k="natural" v="water" />
		<tag k="ssr:stedsnr" v="400099" />
	</node>
	<node id="-499243" lat="60.9887722184" lon="5.40975000004">
		<tag k="name" v="Reievegfossen" />
		<tag k="natural" v="waterfall" />
		<tag k="ssr:stedsnr" v="400016" />
	</node>
	<node id="-499234" lat="60.915808329" lon="5.08769166423">
		<tag k="name" v="Sanden" />
		<tag k="natural" v="beach" />
		<tag k="ssr:stedsnr" v="399878" />
	</node>
	<node id="-499228" lat="61.0162194486" lon="5.20324722626">
		<tag k="name" v="Bjørneskorelva" />
		<tag k="ssr:stedsnr" v="399599" />
		<tag k="waterway" v="stream" />
	</node>
	<node id="-499222" lat="60.9065416687" lon="4.84907499399">
		<tag k="name" v="Paddetjørna" />
		<tag k="natural" v="water" />
		<tag k="ssr:stedsnr" v="399554" />
	</node>
	<node id="-499221" lat="60.9226812011" lon="4.83885119396">
		<tag k="name" v="Kvernhusvatnet" />
		<tag k="natural" v="water" />
		<tag k="ssr:stedsnr" v="399547" />
		<tag k="water" v="lake" />
	</node>
	<node id="-501266" lat="61.0532416644" lon="5.06178333427">
		<tag k="name" v="Lomtjørna" />
		<tag k="natural" v="water" />
		<tag k="ssr:stedsnr" v="616473" />
	</node>
	<node id="-501259" lat="61.0063194437" lon="5.26965554924">
		<tag k="name" v="Storetjørna" />
		<tag k="natural" v="water" />
		<tag k="ssr:stedsnr" v="615902" />
	</node>
	<node id="-501256" lat="60.93096485" lon="5.4066586272">
		<tag k="name" v="Grunntjørna" />
		<tag k="natural" v="water" />
		<tag k="ssr:stedsnr" v="615879" />
	</node>
	<node id="-499204" lat="60.9422111118" lon="5.09251666511">
		<tag k="name" v="Rota" />
		<tag k="ssr:stedsnr" v="399071" />
		<tag k="waterway" v="stream" />
	</node>
	<node id="-501241" lat="60.969202774" lon="5.19563610865">
		<tag k="name" v="Pøyla" />
		<tag k="natural" v="water" />
		<tag k="ssr:stedsnr" v="615749" />
	</node>
	<node id="-501239" lat="61.0590694405" lon="5.13270554976">
		<tag k="name" v="Vassenden" />
		<tag k="natural" v="bay" />
		<tag k="ssr:stedsnr" v="615590" />
	</node>
	<node id="-501216" lat="60.8530500033" lon="5.02662777222">
		<tag k="name" v="Kudalsvatnet" />
		<tag k="natural" v="water" />
		<tag k="ssr:stedsnr" v="615369" />
	</node>
	<node id="-501210" lat="60.9919277816" lon="5.13476944269">
		<tag k="name" v="Leinelva" />
		<tag k="ssr:stedsnr" v="615167" />
		<tag k="waterway" v="stream" />
	</node>
	<node id="-501207" lat="60.8916249996" lon="5.15864721965">
		<tag k="name" v="Hisbotsvatnet" />
		<tag k="natural" v="water" />
		<tag k="ssr:stedsnr" v="614911" />
	</node>
	<node id="-501204" lat="60.949352776" lon="5.15123333336">
		<tag k="alt_name" v="Åmdalsvatnet" />
		<tag k="name" v="Åmdalstjørna" />
		<tag k="natural" v="water" />
		<tag k="ssr:stedsnr" v="614842" />
	</node>
	<node id="-501200" lat="61.0643722205" lon="5.0937138909">
		<tag k="name" v="Svartetjørna" />
		<tag k="natural" v="water" />
		<tag k="ssr:stedsnr" v="614527" />
	</node>
	<node id="-499142" lat="61.0009222252" lon="5.3099222262">
		<tag k="name" v="Lomtjørna" />
		<tag k="natural" v="water" />
		<tag k="ssr:stedsnr" v="373921" />
	</node>
	<node id="-499136" lat="61.050311115" lon="5.23515000077">
		<tag k="alt_name" v="Breidalstjørna" />
		<tag k="name" v="Breiddalstjørna" />
		<tag k="natural" v="water" />
		<tag k="ssr:stedsnr" v="373641" />
	</node>
	<node id="-499134" lat="61.059675001" lon="5.19856110241">
		<tag k="name" v="Lomtjørna" />
		<tag k="natural" v="water" />
		<tag k="ssr:stedsnr" v="373621" />
	</node>
	<node id="-501175" lat="61.0141805592" lon="5.23623332812">
		<tag k="name" v="Dundalselva" />
		<tag k="ssr:stedsnr" v="582684" />
		<tag k="waterway" v="stream" />
	</node>
	<node id="-501168" lat="60.9282194437" lon="5.33514444781">
		<tag k="name" v="Steinsdalelva" />
		<tag k="ssr:stedsnr" v="582430" />
		<tag k="waterway" v="river" />
	</node>
	<node id="-499118" lat="60.8595805581" lon="5.0119722187">
		<tag k="alt_name" v="Kvernevatnet" />
		<tag k="name" v="Kvernhusvatnet" />
		<tag k="natural" v="water" />
		<tag k="ssr:stedsnr" v="373372" />
	</node>
	<node id="-499114" lat="61.0505611131" lon="5.58468888369">
		<tag k="name" v="Indredalselva" />
		<tag k="ssr:stedsnr" v="373029" />
		<tag k="waterway" v="stream" />
	</node>
	<node id="-499113" lat="61.043624996" lon="5.52212777368">
		<tag k="name" v="Oppedalselva" />
		<tag k="ssr:stedsnr" v="373026" />
		<tag k="waterway" v="river" />
	</node>
	<node id="-499108" lat="60.92445" lon="5.39189999674">
		<tag k="name" v="Langevatnet" />
		<tag k="natural" v="water" />
		<tag k="ssr:stedsnr" v="372907" />
	</node>
	<node id="-501145" lat="60.9750749996" lon="5.35020832758">
		<tag k="name" v="Midtskarelva" />
		<tag k="ssr:stedsnr" v="582002" />
		<tag k="waterway" v="stream" />
	</node>
	<node id="-499096" lat="60.9663444432" lon="5.26724167575">
		<tag k="name" v="Salbuelva" />
		<tag k="ssr:stedsnr" v="372827" />
		<tag k="waterway" v="stream" />
	</node>
	<node id="-499083" lat="60.9271749988" lon="5.08915832602">
		<tag k="name" v="Maletjørna" />
		<tag k="natural" v="water" />
		<tag k="ssr:stedsnr" v="372521" />
	</node>
	<node id="-499071" lat="60.950144441" lon="5.5455194453">
		<tag k="name" v="Svoddalsvatnet" />
		<tag k="natural" v="water" />
		<tag k="ssr:stedsnr" v="372320" />
	</node>
	<node id="-499070" lat="60.9396111077" lon="5.52274167596">
		<tag k="alt_name" v="Asgarvatn" />
		<tag k="name" v="Askarvatnet" />
		<tag k="natural" v="water" />
		<tag k="ssr:stedsnr" v="372296" />
	</node>
	<node id="-499069" lat="60.9417694489" lon="5.05216388652">
		<tag k="name" v="Svartetjørna" />
		<tag k="natural" v="water" />
		<tag k="ssr:stedsnr" v="372284" />
	</node>
	<node id="-499058" lat="60.9857027761" lon="4.93619999375">
		<tag k="name" v="Bagevatnet" />
		<tag k="natural" v="water" />
		<tag k="ssr:stedsnr" v="371350" />
	</node>
	<node id="-501105" lat="60.9516861123" lon="5.03003610389">
		<tag k="name" v="Keisartjørna" />
		<tag k="natural" v="water" />
		<tag k="ssr:stedsnr" v="580832" />
	</node>
	<node id="-499032" lat="61.0268361109" lon="5.19608055925">
		<tag k="name" v="Setreelva" />
		<tag k="ssr:stedsnr" v="339857" />
		<tag k="waterway" v="river" />
	</node>
	<node id="-498916" lat="60.9888972235" lon="4.83989167298">
		<tag k="name" v="Kvernhusvatnet" />
		<tag k="natural" v="water" />
		<tag k="ssr:stedsnr" v="331525" />
	</node>
	<node id="-499030" lat="60.9852111121" lon="5.4756416579">
		<tag k="name" v="Billegrova" />
		<tag k="ssr:stedsnr" v="339847" />
		<tag k="waterway" v="stream" />
	</node>
	<node id="-499028" lat="60.877391667" lon="5.090825009">
		<tag k="name" v="Skjeldalsvika" />
		<tag k="natural" v="bay" />
		<tag k="ssr:stedsnr" v="339791" />
	</node>
	<node id="-499027" lat="60.8808944416" lon="5.07626389681">
		<tag k="name" v="Tverrelva" />
		<tag k="ssr:stedsnr" v="339788" />
		<tag k="waterway" v="river" />
	</node>
	<node id="-499026" lat="60.8966861139" lon="5.05267777155">
		<tag k="name" v="Gravstigtjørna" />
		<tag k="natural" v="water" />
		<tag k="ssr:stedsnr" v="339783" />
	</node>
	<node id="-499015" lat="61.0663861152" lon="5.23071943873">
		<tag k="name" v="Boltelva" />
		<tag k="ssr:stedsnr" v="339570" />
		<tag k="waterway" v="river" />
	</node>
	<node id="-499254" lat="60.9316166676" lon="5.35828889227">
		<tag k="name" v="Vågeneset" />
		<tag k="natural" v="cape" />
		<tag k="ssr:stedsnr" v="400219" />
	</node>
	<node id="-501047" lat="61.0345194406" lon="5.22331388012">
		<tag k="name" v="Tungebotnsvatnet" />
		<tag k="natural" v="water" />
		<tag k="ssr:stedsnr" v="555873" />
	</node>
	<node id="-501043" lat="61.0396888893" lon="5.11792500388">
		<tag k="name" v="Holetjørna" />
		<tag k="natural" v="water" />
		<tag k="ssr:stedsnr" v="555577" />
	</node>
	<node id="-501042" lat="61.0557055587" lon="5.1238416638">
		<tag k="name" v="Storeholmen" />
		<tag k="place" v="islet" />
		<tag k="ssr:stedsnr" v="555570" />
	</node>
	<node id="-498991" lat="60.9796722189" lon="5.32533888457">
		<tag k="name" v="Kleivelva" />
		<tag k="ssr:stedsnr" v="339270" />
		<tag k="waterway" v="stream" />
	</node>
	<node id="-498986" lat="60.9399444479" lon="5.3667777754">
		<tag k="name" v="Storneset" />
		<tag k="natural" v="cape" />
		<tag k="ssr:stedsnr" v="339239" />
	</node>
	<node id="-498985" lat="60.9385638892" lon="5.36031388036">
		<tag k="name" v="Purkevika" />
		<tag k="natural" v="bay" />
		<tag k="ssr:stedsnr" v="339234" />
	</node>
	<node id="-498976" lat="60.957316666" lon="5.42917499907">
		<tag k="name" v="Botnelva" />
		<tag k="ssr:stedsnr" v="339063" />
		<tag k="waterway" v="stream" />
	</node>
	<node id="-501017" lat="60.8960249996" lon="5.15517778149">
		<tag k="alt_name" v="Setretjørna" />
		<tag k="name" v="Sutretjørna" />
		<tag k="natural" v="water" />
		<tag k="ssr:stedsnr" v="554927" />
	</node>
	<node id="-498966" lat="60.9074611113" lon="5.07880277955">
		<tag k="name" v="Nordre Storholmen" />
		<tag k="place" v="islet" />
		<tag k="ssr:stedsnr" v="338898" />
	</node>
	<node id="-498964" lat="60.8910944407" lon="5.08074167475">
		<tag k="name" v="Båtevika" />
		<tag k="natural" v="bay" />
		<tag k="ssr:stedsnr" v="338828" />
	</node>
	<node id="-498958" lat="60.8693503442" lon="4.89079648857">
		<tag k="name" v="Håvatnet" />
		<tag k="natural" v="water" />
		<tag k="ssr:stedsnr" v="338541" />
		<tag k="water" v="lake" />
	</node>
	<node id="-498952" lat="60.9060737145" lon="4.8612156115">
		<tag k="name" v="Bristovvatnet" />
		<tag k="natural" v="water" />
		<tag k="ssr:stedsnr" v="338419" />
		<tag k="water" v="lake" />
	</node>
	<node id="-500990" lat="60.917302779" lon="5.05802500815">
		<tag k="name" v="Svartetjørna" />
		<tag k="natural" v="water" />
		<tag k="ssr:stedsnr" v="554522" />
	</node>
	<node id="-498941" lat="60.9985242519" lon="4.93325849676">
		<tag k="name" v="Rossvatnet" />
		<tag k="natural" v="water" />
		<tag k="ssr:stedsnr" v="338020" />
		<tag k="water" v="lake" />
	</node>
	<node id="-500971" lat="60.9945166685" lon="5.12575554739">
		<tag k="name" v="Jotjørna" />
		<tag k="natural" v="water" />
		<tag k="ssr:stedsnr" v="554191" />
	</node>
	<node id="-500968" lat="60.9981416672" lon="5.29371666175">
		<tag k="name" v="Haugsvatnet" />
		<tag k="natural" v="water" />
		<tag k="ssr:stedsnr" v="554134" />
	</node>
	<node id="-498917" lat="60.9317194447" lon="5.08361110292">
		<tag k="name" v="Brandsdalsvatnet" />
		<tag k="natural" v="water" />
		<tag k="ssr:stedsnr" v="331636" />
	</node>
	<node id="-500964" lat="60.9861444416" lon="4.9923250083">
		<tag k="name" v="Svartevatnet" />
		<tag k="natural" v="water" />
		<tag k="ssr:stedsnr" v="553340" />
	</node>
	<node id="-499920" lat="61.0498611103" lon="5.55503333989">
		<tag k="name" v="Storelva" />
		<tag k="ssr:stedsnr" v="128500" />
		<tag k="waterway" v="river" />
	</node>
	<node id="-500950" lat="60.9086444405" lon="5.0208222254">
		<tag k="name" v="Fossåna" />
		<tag k="ssr:stedsnr" v="521962" />
		<tag k="waterway" v="stream" />
	</node>
	<node id="-500942" lat="61.0510027793" lon="5.10471388505">
		<tag k="name" v="Båtestøa" />
		<tag k="natural" v="bay" />
		<tag k="ssr:stedsnr" v="521863" />
	</node>
	<node id="-500929" lat="60.9087277797" lon="5.17121110618">
		<tag k="name" v="Grindetjørna" />
		<tag k="natural" v="water" />
		<tag k="ssr:stedsnr" v="521527" />
	</node>
	<node id="-500927" lat="60.9101892894" lon="4.85197733789">
		<tag k="name" v="Ospedalsvatnet" />
		<tag k="natural" v="water" />
		<tag k="ssr:stedsnr" v="521518" />
		<tag k="water" v="lake" />
	</node>
	<node id="-498875" lat="61.0053805546" lon="5.20578333318">
		<tag k="name" v="Skåldalselva" />
		<tag k="ssr:stedsnr" v="312936" />
		<tag k="waterway" v="stream" />
	</node>
	<node id="-498874" lat="61.0074944484" lon="5.23304444473">
		<tag k="name" v="Skåldalsvatnet" />
		<tag k="natural" v="water" />
		<tag k="ssr:stedsnr" v="312935" />
	</node>
	<node id="-498858" lat="60.9644999968" lon="5.25386943906">
		<tag k="name" v="Plasselva" />
		<tag k="ssr:stedsnr" v="312748" />
		<tag k="waterway" v="stream" />
	</node>
	<node id="-500905" lat="61.0008194436" lon="5.29494722688">
		<tag k="name" v="Haugsstranda" />
		<tag k="natural" v="beach" />
		<tag k="ssr:stedsnr" v="521248" />
	</node>
	<node id="-500903" lat="60.9401611154" lon="5.38509167375">
		<tag k="name" v="Krossleitvika" />
		<tag k="natural" v="bay" />
		<tag k="ssr:stedsnr" v="521227" />
	</node>
	<node id="-498852" lat="61.0566999975" lon="5.11845554803">
		<tag k="name" v="Brendeneset" />
		<tag k="natural" v="cape" />
		<tag k="ssr:stedsnr" v="312596" />
	</node>
	<node id="-500899" lat="61.0111666683" lon="5.38627499514">
		<tag k="name" v="Bruknappen" />
		<tag k="natural" v="cape" />
		<tag k="ssr:stedsnr" v="521186" />
	</node>
	<node id="-500888" lat="60.9591583287" lon="5.35801943881">
		<tag k="name" v="Sanden" />
		<tag k="natural" v="cape" />
		<tag k="ssr:stedsnr" v="521050" />
	</node>
	<node id="-500884" lat="60.9166138852" lon="5.08110556117">
		<tag k="name" v="Merkesvika" />
		<tag k="natural" v="bay" />
		<tag k="ssr:stedsnr" v="520915" />
	</node>
	<node id="-498811" lat="60.9567194477" lon="5.30474999609">
		<tag k="name" v="Flatefjellstjørna" />
		<tag k="natural" v="water" />
		<tag k="ssr:stedsnr" v="311868" />
	</node>
	<node id="-498810" lat="60.956883335" lon="5.35530278567">
		<tag k="name" v="Furdalsvatnet" />
		<tag k="natural" v="water" />
		<tag k="ssr:stedsnr" v="311845" />
	</node>
	<node id="-500836" lat="61.0451555519" lon="5.22660555326">
		<tag k="name" v="Fossane" />
		<tag k="natural" v="waterfall" />
		<tag k="ssr:stedsnr" v="495620" />
	</node>
	<node id="-500835" lat="61.0280055554" lon="5.0816861028">
		<tag k="name" v="Halvroingsneset" />
		<tag k="natural" v="cape" />
		<tag k="ssr:stedsnr" v="495453" />
	</node>
	<node id="-500832" lat="61.0185722227" lon="5.07079166622">
		<tag k="name" v="Viervika" />
		<tag k="natural" v="bay" />
		<tag k="ssr:stedsnr" v="495401" />
	</node>
	<node id="-499898" lat="60.9772055567" lon="5.48182777675">
		<tag k="name" v="Djupedalsgrova" />
		<tag k="ssr:stedsnr" v="97804" />
		<tag k="waterway" v="stream" />
	</node>
	<node id="-500823" lat="60.9295138916" lon="5.25153888536">
		<tag k="name" v="Langevatnet" />
		<tag k="natural" v="water" />
		<tag k="ssr:stedsnr" v="494897" />
	</node>
	<node id="-500819" lat="60.9185611124" lon="5.32986945351">
		<tag k="name" v="Vetlevatnet" />
		<tag k="natural" v="water" />
		<tag k="ssr:stedsnr" v="494875" />
	</node>
	<node id="-500818" lat="61.0256472245" lon="5.28503889022">
		<tag k="name" v="Dyttingevatnet" />
		<tag k="natural" v="water" />
		<tag k="ssr:stedsnr" v="494872" />
	</node>
	<node id="-498769" lat="60.9938444418" lon="5.48827222893">
		<tag k="name" v="Heggenesgrova" />
		<tag k="ssr:stedsnr" v="279823" />
		<tag k="waterway" v="stream" />
	</node>
	<node id="-500814" lat="60.9521388891" lon="5.14028611722">
		<tag k="name" v="Åmdalselva" />
		<tag k="ssr:stedsnr" v="494814" />
		<tag k="waterway" v="stream" />
	</node>
	<node id="-500803" lat="61.063991664" lon="5.1993055481">
		<tag k="name" v="Gravdalstjørna" />
		<tag k="natural" v="water" />
		<tag k="ssr:stedsnr" v="494545" />
	</node>
	<node id="-498749" lat="60.9332972205" lon="5.24048611885">
		<tag k="name" v="Lonene" />
		<tag k="natural" v="cape" />
		<tag k="ssr:stedsnr" v="279409" />
	</node>
	<node id="-500790" lat="60.9272583333" lon="5.48900555233">
		<tag k="name" v="Geirevatnet" />
		<tag k="natural" v="water" />
		<tag k="ssr:stedsnr" v="494247" />
	</node>
	<node id="-498734" lat="60.9460777806" lon="5.42244166205">
		<tag k="name" v="Tynningestølselva" />
		<tag k="ssr:stedsnr" v="279084" />
		<tag k="waterway" v="river" />
	</node>
	<node id="-498732" lat="60.9591972202" lon="5.43188888242">
		<tag k="name" v="Svabergelva" />
		<tag k="ssr:stedsnr" v="279055" />
		<tag k="waterway" v="stream" />
	</node>
	<node id="-500779" lat="60.9419749962" lon="5.17714445019">
		<tag k="alt_name" v="Nordalsvatnet" />
		<tag k="name" v="Norddalsvatnet" />
		<tag k="natural" v="water" />
		<tag k="ssr:stedsnr" v="493838" />
	</node>
	<node id="-498730" lat="60.975366668" lon="5.43510000452">
		<tag k="name" v="Olselva" />
		<tag k="ssr:stedsnr" v="279014" />
		<tag k="waterway" v="river" />
	</node>
	<node id="-498718" lat="60.8969027759" lon="5.08194443963">
		<tag k="name" v="Svardalselva" />
		<tag k="ssr:stedsnr" v="278854" />
		<tag k="waterway" v="river" />
	</node>
	<node id="-500764" lat="60.9474694401" lon="5.49446388461">
		<tag k="alt_name" v="Smågevatnet" />
		<tag k="name" v="Smogevatnet" />
		<tag k="natural" v="water" />
		<tag k="ssr:stedsnr" v="493297" />
	</node>
	<node id="-500763" lat="60.9603555533" lon="5.54627777064">
		<tag k="name" v="Dokkvatnet" />
		<tag k="natural" v="water" />
		<tag k="ssr:stedsnr" v="493285" />
	</node>
	<node id="-498714" lat="60.8793972255" lon="5.09776110875">
		<tag k="name" v="Apalneset" />
		<tag k="natural" v="cape" />
		<tag k="ssr:stedsnr" v="278820" />
	</node>
	<node id="-500228" lat="61.0465833322" lon="5.25720833146">
		<tag k="name" v="Dalevatnet" />
		<tag k="natural" v="water" />
		<tag k="ssr:stedsnr" v="191571" />
	</node>
	<node id="-498709" lat="61.0149305593" lon="5.20938332586">
		<tag k="name" v="Gjemlielva" />
		<tag k="ssr:stedsnr" v="278622" />
		<tag k="waterway" v="river" />
	</node>
	<node id="-500754" lat="60.994530555" lon="5.04544445277">
		<tag k="name" v="Blombakketjørna" />
		<tag k="natural" v="water" />
		<tag k="ssr:stedsnr" v="492340" />
	</node>
	<node id="-500752" lat="60.979124999" lon="4.96993611074">
		<tag k="name" v="Ramsvikvatnet" />
		<tag k="natural" v="water" />
		<tag k="ssr:stedsnr" v="492318" />
	</node>
	<node id="-498689" lat="61.0452402638" lon="5.10684064199">
		<tag k="name" v="Mjåen" />
		<tag k="natural" v="water" />
		<tag k="ssr:stedsnr" v="278263" />
		<tag k="water" v="lake" />
	</node>
	<node id="-500731" lat="61.0214944488" lon="5.56815834032">
		<tag k="name" v="Systrene" />
		<tag k="ssr:stedsnr" v="461884" />
		<tag k="waterway" v="stream" />
	</node>
	<node id="-498678" lat="60.863566669" lon="5.08549999738">
		<tag k="name" v="Svartetjørna" />
		<tag k="natural" v="water" />
		<tag k="ssr:stedsnr" v="278066" />
	</node>
	<node id="-500721" lat="60.9480555599" lon="5.3826722166">
		<tag k="name" v="Kvernhuselva" />
		<tag k="ssr:stedsnr" v="461238" />
		<tag k="waterway" v="stream" />
	</node>
	<node id="-498670" lat="60.9620916627" lon="4.96732222645">
		<tag k="name" v="Hatleviktjørna" />
		<tag k="natural" v="water" />
		<tag k="ssr:stedsnr" v="277504" />
	</node>
	<node id="-500715" lat="60.9563222225" lon="5.4255416658">
		<tag k="name" v="Storelva" />
		<tag k="ssr:stedsnr" v="461077" />
		<tag k="waterway" v="river" />
	</node>
	<node id="-500714" lat="60.961711107" lon="5.42054167156">
		<tag k="name" v="Fossedalselva" />
		<tag k="ssr:stedsnr" v="461070" />
		<tag k="waterway" v="river" />
	</node>
	<node id="-500707" lat="61.006677775" lon="5.1987138932">
		<tag k="name" v="Tangane" />
		<tag k="natural" v="cape" />
		<tag k="ssr:stedsnr" v="460963" />
	</node>
	<node id="-500706" lat="60.9196500041" lon="5.00158611933">
		<tag k="name" v="Rustetjørna" />
		<tag k="natural" v="water" />
		<tag k="ssr:stedsnr" v="460961" />
	</node>
	<node id="-498653" lat="60.8703027817" lon="4.99781945076">
		<tag k="name" v="Karentjørna" />
		<tag k="natural" v="water" />
		<tag k="ssr:stedsnr" v="273974" />
	</node>
	<node id="-500700" lat="61.058825001" lon="5.18284444534">
		<tag k="name" v="Lona" />
		<tag k="natural" v="water" />
		<tag k="ssr:stedsnr" v="460836" />
		<tag k="water" v="lake" />
	</node>
	<node id="-500691" lat="61.0187000014" lon="5.18856944305">
		<tag k="name" v="Fagrevollane" />
		<tag k="natural" v="cape" />
		<tag k="ssr:stedsnr" v="460629" />
	</node>
	<node id="-500672" lat="61.0426388913" lon="5.09589722993">
		<tag k="name" v="Nesjane" />
		<tag k="natural" v="cape" />
		<tag k="ssr:stedsnr" v="460312" />
	</node>
	<node id="-500667" lat="60.9329222184" lon="5.04954722824">
		<tag k="name" v="Paddetjørna" />
		<tag k="natural" v="water" />
		<tag k="ssr:stedsnr" v="460161" />
	</node>
	<node id="-500632" lat="60.9650722201" lon="5.31265555231">
		<tag k="name" v="Vassenden" />
		<tag k="natural" v="beach" />
		<tag k="ssr:stedsnr" v="461333" />
	</node>
	<node id="-499859" lat="60.9839194406" lon="5.42926110586">
		<tag k="name" v="Blåsvagrova" />
		<tag k="ssr:stedsnr" v="97018" />
		<tag k="waterway" v="stream" />
	</node>
	<node id="-499858" lat="61.0514916631" lon="5.19084166625">
		<tag k="name" v="Kvelvelva" />
		<tag k="ssr:stedsnr" v="96998" />
		<tag k="waterway" v="stream" />
	</node>
	<node id="-500581" lat="61.0472333354" lon="5.11088055182">
		<tag k="name" v="Krossvikane" />
		<tag k="natural" v="bay" />
		<tag k="ssr:stedsnr" v="434580" />
	</node>
	<node id="-500577" lat="60.9110611114" lon="4.97928055945">
		<tag k="name" v="Randalsvatnet" />
		<tag k="natural" v="water" />
		<tag k="ssr:stedsnr" v="434442" />
	</node>
	<node id="-500576" lat="60.9108694463" lon="4.93732499554">
		<tag k="name" v="Mjømnevatnet" />
		<tag k="natural" v="water" />
		<tag k="ssr:stedsnr" v="434441" />
	</node>
	<node id="-500575" lat="60.9122250032" lon="5.00553611322">
		<tag k="name" v="Svartevatnet" />
		<tag k="natural" v="water" />
		<tag k="ssr:stedsnr" v="434439" />
	</node>
	<node id="-500562" lat="60.8647638864" lon="5.09659999591">
		<tag k="name" v="Litjørna" />
		<tag k="natural" v="water" />
		<tag k="ssr:stedsnr" v="433978" />
	</node>
	<node id="-500560" lat="60.9919277743" lon="5.26088889571">
		<tag k="name" v="Stølsvatnet" />
		<tag k="natural" v="water" />
		<tag k="ssr:stedsnr" v="433951" />
	</node>
	<node id="-500558" lat="60.9311357076" lon="5.40163147845">
		<tag k="name" v="Kjerringevatnet" />
		<tag k="natural" v="water" />
		<tag k="ssr:stedsnr" v="433895" />
	</node>
	<node id="-500555" lat="60.9380277749" lon="5.40727500657">
		<tag k="name" v="Sulelva" />
		<tag k="ssr:stedsnr" v="433856" />
		<tag k="waterway" v="stream" />
	</node>
	<node id="-500551" lat="60.9772527739" lon="5.25408889702">
		<tag k="name" v="Fossdalselva" />
		<tag k="ssr:stedsnr" v="433782" />
		<tag k="waterway" v="stream" />
	</node>
	<node id="-500519" lat="61.0601250008" lon="5.10406944764">
		<tag k="alt_name" v="Kringletjørna" />
		<tag k="name" v="Kringletjørn" />
		<tag k="natural" v="water" />
		<tag k="ssr:stedsnr" v="434603" />
	</node>
	<node id="-500481" lat="61.0222861085" lon="5.24318056055">
		<tag k="name" v="Rabbetjørna" />
		<tag k="natural" v="water" />
		<tag k="ssr:stedsnr" v="252888" />
	</node>
	<node id="-500480" lat="61.0235555553" lon="5.13141944711">
		<tag k="name" v="Risestølsvatnet" />
		<tag k="natural" v="water" />
		<tag k="ssr:stedsnr" v="252886" />
	</node>
	<node id="-500479" lat="61.0197777754" lon="5.15998055843">
		<tag k="name" v="Bjørndalstjørna" />
		<tag k="natural" v="water" />
		<tag k="ssr:stedsnr" v="252884" />
	</node>
	<node id="-500476" lat="61.0515055545" lon="5.26482221675">
		<tag k="name" v="Lomtjørna" />
		<tag k="natural" v="water" />
		<tag k="ssr:stedsnr" v="252578" />
	</node>
	<node id="-500468" lat="61.0360138888" lon="5.08777777571">
		<tag k="name" v="Dingevatnet" />
		<tag k="natural" v="water" />
		<tag k="ssr:stedsnr" v="252423" />
		<tag k="water" v="lake" />
	</node>
	<node id="-500462" lat="61.0253777749" lon="5.53105555215">
		<tag k="name" v="Løynavatna" />
		<tag k="natural" v="water" />
		<tag k="ssr:stedsnr" v="252010" />
	</node>
	<node id="-500458" lat="61.0024111099" lon="5.25665834095">
		<tag k="name" v="Hellebergsvatna" />
		<tag k="natural" v="water" />
		<tag k="ssr:stedsnr" v="251958" />
	</node>
	<node id="-500457" lat="60.9003439547" lon="5.09989792387">
		<tag k="name" v="Brattelitjørna" />
		<tag k="natural" v="water" />
		<tag k="ssr:stedsnr" v="251953" />
	</node>
	<node id="-500455" lat="60.9996416705" lon="5.23379166015">
		<tag k="name" v="Omnstjørna" />
		<tag k="natural" v="water" />
		<tag k="ssr:stedsnr" v="251938" />
	</node>
	<node id="-500453" lat="60.9146555533" lon="5.20399722715">
		<tag k="name" v="Sversvatnet" />
		<tag k="natural" v="water" />
		<tag k="ssr:stedsnr" v="251912" />
	</node>
	<node id="-500449" lat="60.9467583318" lon="5.35075278655">
		<tag k="name" v="Furdalselva" />
		<tag k="ssr:stedsnr" v="251898" />
		<tag k="waterway" v="river" />
	</node>
	<node id="-500442" lat="60.9702750042" lon="5.34156389267">
		<tag k="alt_name" v="Austgulstølsvatnet;Stølsvatnet" />
		<tag k="name" v="Austgulstølvatnet" />
		<tag k="natural" v="water" />
		<tag k="ssr:stedsnr" v="251828" />
	</node>
	<node id="-502489" lat="60.9900222238" lon="5.46753610891">
		<tag k="name" v="Skjenaskorgrova" />
		<tag k="ssr:stedsnr" v="946889" />
		<tag k="waterway" v="stream" />
	</node>
	<node id="-500440" lat="60.9606999991" lon="5.28726111605">
		<tag k="alt_name" v="Raunlivika" />
		<tag k="name" v="Raunvika" />
		<tag k="natural" v="bay" />
		<tag k="ssr:stedsnr" v="251811" />
	</node>
	<node id="-500439" lat="60.9855444469" lon="5.38983333785">
		<tag k="name" v="Vetlevatnet" />
		<tag k="natural" v="water" />
		<tag k="ssr:stedsnr" v="251803" />
	</node>
	<node id="-500432" lat="60.8569210305" lon="5.09609607456">
		<tag k="alt_name" v="Steintjørna" />
		<tag k="name" v="Steinstjørna" />
		<tag k="natural" v="water" />
		<tag k="ssr:stedsnr" v="251523" />
	</node>
	<node id="-502477" lat="60.940291669" lon="5.50975833237">
		<tag k="name" v="Blåfjellelva" />
		<tag k="ssr:stedsnr" v="946651" />
		<tag k="waterway" v="stream" />
	</node>
	<node id="-500428" lat="60.9015138866" lon="4.87864166682">
		<tag k="name" v="Siletjørna" />
		<tag k="natural" v="water" />
		<tag k="ssr:stedsnr" v="251455" />
	</node>
	<node id="-500415" lat="60.9959361104" lon="5.23511667389">
		<tag k="alt_name" v="Hanntveittjørna, nordre;Nordre Dyrbottsvatnet;Dyrbottsvatnet, nordre" />
		<tag k="name" v="Nordre Hanntveittjørna" />
		<tag k="natural" v="water" />
		<tag k="ssr:stedsnr" v="251193" />
	</node>
	<node id="-500410" lat="60.987730555" lon="5.2369750059">
		<tag k="name" v="Stølsvatnet" />
		<tag k="natural" v="water" />
		<tag k="ssr:stedsnr" v="251147" />
	</node>
	<node id="-500408" lat="61.0152166656" lon="5.54234999515">
		<tag k="name" v="Klypevatna" />
		<tag k="natural" v="water" />
		<tag k="ssr:stedsnr" v="251030" />
	</node>
	<node id="-500407" lat="61.0098249969" lon="5.5444750026">
		<tag k="name" v="Grønlivatnet" />
		<tag k="natural" v="water" />
		<tag k="ssr:stedsnr" v="251019" />
	</node>
	<node id="-502453" lat="60.9250863378" lon="5.2315134406">
		<tag k="name" v="Myrdalselva" />
		<tag k="ssr:stedsnr" v="946369" />
		<tag k="waterway" v="river" />
	</node>
	<node id="-502449" lat="61.0155750024" lon="5.36192223087">
		<tag k="name" v="Langemyrfossen" />
		<tag k="natural" v="waterfall" />
		<tag k="ssr:stedsnr" v="946316" />
	</node>
	<node id="-502447" lat="60.9640305558" lon="5.30596111273">
		<tag k="name" v="Mjåen" />
		<tag k="natural" v="bay" />
		<tag k="ssr:stedsnr" v="946296" />
	</node>
	<node id="-502432" lat="60.9425805545" lon="5.37162778538">
		<tag k="name" v="Svaneset" />
		<tag k="natural" v="cape" />
		<tag k="ssr:stedsnr" v="946206" />
	</node>
	<node id="-500378" lat="60.8798944446" lon="5.09087777566">
		<tag k="name" v="Vassneset" />
		<tag k="natural" v="cape" />
		<tag k="ssr:stedsnr" v="218815" />
	</node>
	<node id="-502421" lat="60.9973861109" lon="4.95465555297">
		<tag k="name" v="Kvernhuselva" />
		<tag k="ssr:stedsnr" v="946034" />
		<tag k="waterway" v="stream" />
	</node>
	<node id="-502420" lat="60.944475001" lon="5.39175277684">
		<tag k="name" v="Sanden" />
		<tag k="natural" v="beach" />
		<tag k="ssr:stedsnr" v="946025" />
	</node>
	<node id="-500371" lat="61.0075333328" lon="5.57210556">
		<tag k="name" v="Skitneøyrane" />
		<tag k="natural" v="cape" />
		<tag k="ssr:stedsnr" v="218732" />
	</node>
	<node id="-500370" lat="60.9452027799" lon="5.50537499297">
		<tag k="name" v="Skjeddalselva" />
		<tag k="ssr:stedsnr" v="218680" />
		<tag k="waterway" v="stream" />
	</node>
	<node id="-502417" lat="60.9241833296" lon="5.07301666711">
		<tag k="name" v="Toretjørna" />
		<tag k="natural" v="water" />
		<tag k="ssr:stedsnr" v="945932" />
	</node>
	<node id="-501527" lat="61.0518250028" lon="5.09120000454">
		<tag k="name" v="Langetjørna" />
		<tag k="natural" v="water" />
		<tag k="ssr:stedsnr" v="677477" />
	</node>
	<node id="-502382" lat="60.9824583338" lon="5.12211388633">
		<tag k="name" v="Setreåselva" />
		<tag k="ssr:stedsnr" v="940807" />
		<tag k="waterway" v="stream" />
	</node>
	<node id="-500332" lat="60.8846416697" lon="5.09176666195">
		<tag k="name" v="Båtevika" />
		<tag k="natural" v="bay" />
		<tag k="ssr:stedsnr" v="217806" />
	</node>
	<node id="-500329" lat="60.928302779" lon="4.82761389359">
		<tag k="name" v="Bryggelva" />
		<tag k="ssr:stedsnr" v="217577" />
		<tag k="waterway" v="stream" />
	</node>
	<node id="-500326" lat="60.9617888859" lon="4.95130833999">
		<tag k="name" v="Vardehaugtjørna" />
		<tag k="natural" v="water" />
		<tag k="ssr:stedsnr" v="217532" />
	</node>
	<node id="-500317" lat="60.9553444467" lon="4.90296943547">
		<tag k="name" v="Storetjørna" />
		<tag k="natural" v="water" />
		<tag k="ssr:stedsnr" v="217274" />
	</node>
	<node id="-502348" lat="61.0355111144" lon="5.22951388536">
		<tag k="name" v="Skadtjørna" />
		<tag k="natural" v="water" />
		<tag k="ssr:stedsnr" v="920901" />
	</node>
	<node id="-500298" lat="60.9430500027" lon="4.99821111357">
		<tag k="name" v="Stråsundet" />
		<tag k="natural" v="strait" />
		<tag k="ssr:stedsnr" v="216399" />
	</node>
	<node id="-502335" lat="60.9164277781" lon="5.10415832455">
		<tag k="name" v="Djupetjørna" />
		<tag k="natural" v="water" />
		<tag k="ssr:stedsnr" v="919885" />
	</node>
	<node id="-502329" lat="60.9434777814" lon="5.09762777249">
		<tag k="fixme" v="multiple name tags, choose one and add the other to alt_name" />
		<tag k="name" v="Allgjeltjørna;Gerdetjørna" />
		<tag k="natural" v="water" />
		<tag k="ssr:stedsnr" v="919759" />
	</node>
	<node id="-500280" lat="61.0103583346" lon="5.4414250041">
		<tag k="name" v="Kvernhuselva" />
		<tag k="ssr:stedsnr" v="212688" />
		<tag k="waterway" v="stream" />
	</node>
	<node id="-502326" lat="61.0464666674" lon="5.21886943635">
		<tag k="name" v="Bjørndalstjørna" />
		<tag k="natural" v="water" />
		<tag k="ssr:stedsnr" v="919607" />
	</node>
	<node id="-502323" lat="60.9229944438" lon="4.92297776914">
		<tag k="alt_name" v="Stiksvatnet" />
		<tag k="name" v="Stigsvatnet" />
		<tag k="natural" v="water" />
		<tag k="ssr:stedsnr" v="919492" />
	</node>
	<node id="-502319" lat="60.8841527761" lon="5.06239443722">
		<tag k="alt_name" v="Indre Tverrtjørna;Ytre Tverrtjørna" />
		<tag k="name" v="Tverrtjørna" />
		<tag k="natural" v="water" />
		<tag k="ssr:stedsnr" v="919420" />
	</node>
	<node id="-502306" lat="60.9409694448" lon="5.04354166822">
		<tag k="name" v="Norddalsvatnet" />
		<tag k="natural" v="water" />
		<tag k="ssr:stedsnr" v="919253" />
	</node>
	<node id="-502301" lat="61.0064666698" lon="5.52364444015">
		<tag k="name" v="Krokelivatnet" />
		<tag k="natural" v="water" />
		<tag k="ssr:stedsnr" v="919015" />
	</node>
	<node id="-502297" lat="60.9040595056" lon="5.13683817236">
		<tag k="name" v="Grindevatnet" />
		<tag k="natural" v="water" />
		<tag k="ssr:stedsnr" v="918945" />
	</node>
	<node id="-502295" lat="60.9434944469" lon="5.4058138909">
		<tag k="name" v="Øyrelva" />
		<tag k="ssr:stedsnr" v="918891" />
		<tag k="waterway" v="stream" />
	</node>
	<node id="-502292" lat="60.9439335592" lon="5.26710153277">
		<tag k="name" v="Øksefjelltjørna" />
		<tag k="natural" v="water" />
		<tag k="ssr:stedsnr" v="918865" />
	</node>
	<node id="-502291" lat="60.9550805589" lon="5.39698610496">
		<tag k="name" v="Selgrovskardtjørna" />
		<tag k="natural" v="water" />
		<tag k="ssr:stedsnr" v="918862" />
	</node>
	<node id="-500242" lat="61.0186083374" lon="5.278824997">
		<tag k="name" v="Selskardvatnet" />
		<tag k="natural" v="water" />
		<tag k="ssr:stedsnr" v="191902" />
	</node>
	<node id="-502283" lat="60.9039888883" lon="4.97821666844">
		<tag k="alt_name" v="Midbøvatnet" />
		<tag k="name" v="Midtbøvatnet" />
		<tag k="natural" v="water" />
		<tag k="ssr:stedsnr" v="918519" />
	</node>
	<node id="-502276" lat="60.9902138854" lon="5.19006944862">
		<tag k="name" v="Neselva" />
		<tag k="ssr:stedsnr" v="918139" />
		<tag k="waterway" v="stream" />
	</node>
	<node id="-500227" lat="61.040122225" lon="5.26896110207">
		<tag k="alt_name" v="Daltjørna" />
		<tag k="name" v="Dalstjørna" />
		<tag k="natural" v="water" />
		<tag k="ssr:stedsnr" v="191568" />
	</node>
	<node id="-500225" lat="61.0535333306" lon="5.11795277385">
		<tag k="alt_name" v="Brosvikvatnet" />
		<tag k="name" v="Brossvikvatnet" />
		<tag k="natural" v="water" />
		<tag k="ssr:stedsnr" v="191566" />
		<tag k="water" v="lake" />
	</node>
	<node id="-500224" lat="61.0486944449" lon="5.10043054958">
		<tag k="alt_name" v="Tjørnene" />
		<tag k="name" v="Tjørnane" />
		<tag k="natural" v="water" />
		<tag k="ssr:stedsnr" v="191558" />
	</node>
	<node id="-502255" lat="61.0073416671" lon="5.46893610628">
		<tag k="name" v="Hellersgrova" />
		<tag k="ssr:stedsnr" v="880983" />
		<tag k="waterway" v="stream" />
	</node>
	<node id="-500205" lat="61.0099944422" lon="4.95222222805">
		<tag k="name" v="Pøylevatnet" />
		<tag k="natural" v="water" />
		<tag k="ssr:stedsnr" v="191378" />
	</node>
	<node id="-502243" lat="60.8799611105" lon="4.97533056092">
		<tag k="name" v="Lonen" />
		<tag k="natural" v="water" />
		<tag k="ssr:stedsnr" v="880094" />
		<tag k="water" v="lake" />
	</node>
	<node id="-501499" lat="60.9771361143" lon="5.36537499309">
		<tag k="name" v="Kartetjørna" />
		<tag k="natural" v="water" />
		<tag k="ssr:stedsnr" v="676789" />
	</node>
	<node id="-500188" lat="60.9743027819" lon="5.33416388523">
		<tag k="name" v="Vindskardtjørna" />
		<tag k="natural" v="water" />
		<tag k="ssr:stedsnr" v="190823" />
	</node>
	<node id="-500182" lat="60.9101999998" lon="5.0159055557">
		<tag k="alt_name" v="Holmevatnet" />
		<tag k="name" v="Holmetjørna" />
		<tag k="natural" v="water" />
		<tag k="ssr:stedsnr" v="190479" />
	</node>
	<node id="-502178" lat="60.9168638891" lon="4.96866944821">
		<tag k="name" v="Kråketjørna" />
		<tag k="natural" v="water" />
		<tag k="ssr:stedsnr" v="858506" />
	</node>
	<node id="-500170" lat="60.9360666641" lon="5.5007805568">
		<tag k="name" v="Husevatnet" />
		<tag k="natural" v="water" />
		<tag k="ssr:stedsnr" v="190275" />
	</node>
	<node id="-502215" lat="61.031927776" lon="5.13278888066">
		<tag k="alt_name" v="Vatnestølsvatnet" />
		<tag k="name" v="Stølsvatnet" />
		<tag k="natural" v="water" />
		<tag k="ssr:stedsnr" v="859867" />
	</node>
	<node id="-502213" lat="61.0245527781" lon="5.2736833367">
		<tag k="name" v="Skoddedalsvatnet" />
		<tag k="natural" v="water" />
		<tag k="ssr:stedsnr" v="859855" />
	</node>
	<node id="-500162" lat="60.9883694411" lon="5.14800833846">
		<tag k="name" v="Svartevatnet" />
		<tag k="natural" v="water" />
		<tag k="ssr:stedsnr" v="190146" />
	</node>
	<node id="-502202" lat="61.0026555515" lon="5.50514443898">
		<tag k="name" v="Lomtjørna" />
		<tag k="natural" v="water" />
		<tag k="ssr:stedsnr" v="859013" />
	</node>
	<node id="-500150" lat="61.0456972255" lon="5.56353334184">
		<tag k="name" v="Indre Oppedalselva" />
		<tag k="ssr:stedsnr" v="177748" />
		<tag k="waterway" v="river" />
	</node>
	<node id="-502195" lat="60.9207166653" lon="5.14854444592">
		<tag k="name" v="Moldevatnet" />
		<tag k="natural" v="water" />
		<tag k="ssr:stedsnr" v="858867" />
	</node>
	<node id="-502193" lat="60.950036111" lon="5.17678612016">
		<tag k="name" v="Norddalstjørnane" />
		<tag k="natural" v="water" />
		<tag k="ssr:stedsnr" v="858842" />
	</node>
	<node id="-502192" lat="60.9545944487" lon="5.16801110934">
		<tag k="alt_name" v="Inste Åmdalsvatnet" />
		<tag k="name" v="Åmdalsvatnet" />
		<tag k="natural" v="water" />
		<tag k="ssr:stedsnr" v="858839" />
	</node>
	<node id="-500135" lat="60.9110027781" lon="4.99638055428">
		<tag k="name" v="Merketjørna" />
		<tag k="natural" v="water" />
		<tag k="ssr:stedsnr" v="157952" />
	</node>
	<node id="-500130" lat="60.9828333304" lon="5.4902055585">
		<tag k="name" v="Kvernhuselva" />
		<tag k="ssr:stedsnr" v="157818" />
		<tag k="waterway" v="stream" />
	</node>
	<node id="-500128" lat="60.8814833346" lon="5.09561666804">
		<tag k="name" v="Måsholmen" />
		<tag k="place" v="islet" />
		<tag k="ssr:stedsnr" v="157817" />
	</node>
	<node id="-502160" lat="60.9483000023" lon="5.05165000827">
		<tag k="alt_name" v="Prestevatnet" />
		<tag k="name" v="Prestvatnet" />
		<tag k="natural" v="water" />
		<tag k="ssr:stedsnr" v="858268" />
	</node>
	<node id="-501144" lat="60.9253083353" lon="5.0843972253">
		<tag k="name" v="Øyra" />
		<tag k="natural" v="bay" />
		<tag k="ssr:stedsnr" v="581979" />
	</node>
	<node id="-502154" lat="60.9833277781" lon="5.19107777323">
		<tag k="name" v="Storelva" />
		<tag k="ssr:stedsnr" v="858145" />
		<tag k="waterway" v="stream" />
	</node>
	<node id="-500104" lat="60.9268888874" lon="5.19158055544">
		<tag k="name" v="Tverråelva" />
		<tag k="ssr:stedsnr" v="157525" />
		<tag k="waterway" v="river" />
	</node>
	<node id="-500101" lat="61.0225305551" lon="5.0617500065">
		<tag k="name" v="Luka" />
		<tag k="place" v="locality" />
		<tag k="ssr:stedsnr" v="157388" />
	</node>
	<node id="-500097" lat="60.9674944477" lon="5.30602778336">
		<tag k="name" v="Oksevika" />
		<tag k="natural" v="bay" />
		<tag k="ssr:stedsnr" v="157305" />
	</node>
	<node id="-500087" lat="60.9809305515" lon="5.31426388283">
		<tag k="name" v="Storefjelltjørna" />
		<tag k="natural" v="water" />
		<tag k="ssr:stedsnr" v="157246" />
	</node>
	<node id="-500078" lat="61.0032361114" lon="5.37825278495">
		<tag k="name" v="Frivika" />
		<tag k="natural" v="bay" />
		<tag k="ssr:stedsnr" v="157158" />
	</node>
	<node id="-500074" lat="61.0624694402" lon="5.53167776972">
		<tag k="name" v="Merkesgrova" />
		<tag k="ssr:stedsnr" v="157092" />
		<tag k="waterway" v="stream" />
	</node>
	<node id="-500068" lat="61.0296361069" lon="5.05910278047">
		<tag k="name" v="Kvitetjørna" />
		<tag k="natural" v="water" />
		<tag k="ssr:stedsnr" v="157402" />
	</node>
	<node id="-502114" lat="60.9831472197" lon="5.48587778147">
		<tag k="name" v="Storelva" />
		<tag k="ssr:stedsnr" v="825794" />
		<tag k="waterway" v="river" />
	</node>
	<node id="-500063" lat="60.9138055573" lon="5.08259165898">
		<tag k="name" v="Nordre Klubbeneset" />
		<tag k="natural" v="cape" />
		<tag k="ssr:stedsnr" v="156885" />
	</node>
	<node id="-502110" lat="61.006908334" lon="5.22703056351">
		<tag k="name" v="Lyngøyra" />
		<tag k="natural" v="cape" />
		<tag k="ssr:stedsnr" v="825649" />
	</node>
	<node id="-500051" lat="60.9777611145" lon="5.4405583272">
		<tag k="name" v="Magnegrova" />
		<tag k="ssr:stedsnr" v="157007" />
		<tag k="waterway" v="stream" />
	</node>
	<node id="-502098" lat="60.9176166678" lon="5.16786665807">
		<tag k="name" v="Galtefosselva" />
		<tag k="ssr:stedsnr" v="825468" />
		<tag k="waterway" v="stream" />
	</node>
	<node id="-502093" lat="60.9262166646" lon="5.33696111701">
		<tag k="name" v="Rotetjørna" />
		<tag k="natural" v="water" />
		<tag k="ssr:stedsnr" v="825369" />
	</node>
	<node id="-502092" lat="60.9344722193" lon="5.23289445074">
		<tag k="name" v="Sætligrova" />
		<tag k="ssr:stedsnr" v="825359" />
		<tag k="waterway" v="stream" />
	</node>
	<node id="-502091" lat="60.9440777745" lon="5.23604166594">
		<tag k="name" v="Tverråa" />
		<tag k="ssr:stedsnr" v="825353" />
		<tag k="waterway" v="stream" />
	</node>
	<node id="-500035" lat="60.9353194428" lon="5.08999444282">
		<tag k="name" v="Bøtjørna" />
		<tag k="natural" v="water" />
		<tag k="ssr:stedsnr" v="156066" />
	</node>
	<node id="-502077" lat="60.9390250013" lon="5.3715916607">
		<tag k="name" v="Slåttevika" />
		<tag k="natural" v="bay" />
		<tag k="ssr:stedsnr" v="825177" />
	</node>
	<node id="-500028" lat="60.8689861082" lon="4.99942777349">
		<tag k="name" v="Setrebotstjørna" />
		<tag k="natural" v="water" />
		<tag k="ssr:stedsnr" v="151959" />
	</node>
	<node id="-502073" lat="60.9662361088" lon="5.34361111542">
		<tag k="name" v="Leinelva" />
		<tag k="ssr:stedsnr" v="825039" />
		<tag k="waterway" v="stream" />
	</node>
	<node id="-502065" lat="60.9223749962" lon="5.08079999263">
		<tag k="name" v="Løypeneset" />
		<tag k="natural" v="cape" />
		<tag k="ssr:stedsnr" v="824887" />
	</node>
	<node id="-502050" lat="61.0022111137" lon="5.12325277499">
		<tag k="name" v="Lindegrova" />
		<tag k="ssr:stedsnr" v="824543" />
		<tag k="waterway" v="stream" />
	</node>
	<node id="-499760" lat="61.0344138894" lon="5.20516666675">
		<tag k="name" v="Råsetjørna" />
		<tag k="natural" v="water" />
		<tag k="ssr:stedsnr" v="70881" />
	</node>
	<node id="-502042" lat="60.9934877034" lon="4.95580370049">
		<tag k="name" v="Pollen" />
		<tag k="natural" v="water" />
		<tag k="ssr:stedsnr" v="824186" />
		<tag k="water" v="lake" />
	</node>
	<node id="-499991" lat="61.0057166624" lon="5.38802222422">
		<tag k="name" v="Taklevatnet" />
		<tag k="natural" v="water" />
		<tag k="ssr:stedsnr" v="130907" />
		<tag k="water" v="lake" />
	</node>
	<node id="-499990" lat="61.0229194445" lon="5.2253611105">
		<tag k="name" v="Berghaugtjørna" />
		<tag k="natural" v="water" />
		<tag k="ssr:stedsnr" v="130891" />
	</node>
	<node id="-499989" lat="61.0322027772" lon="5.17967499396">
		<tag k="alt_name" v="Nordgulvatnet, nordre;Nordste Nordgulvatnet" />
		<tag k="name" v="Nordre Nordgulvatnet" />
		<tag k="natural" v="water" />
		<tag k="ssr:stedsnr" v="130875" />
	</node>
	<node id="-499983" lat="60.9649888903" lon="5.29663333353">
		<tag k="alt_name" v="Kløvtveitvatnet" />
		<tag k="name" v="Klyvtveitvatnet" />
		<tag k="natural" v="water" />
		<tag k="ssr:stedsnr" v="130752" />
		<tag k="water" v="lake" />
	</node>
	<node id="-499977" lat="61.058041667" lon="5.25036667428">
		<tag k="name" v="Dalelva" />
		<tag k="ssr:stedsnr" v="130582" />
		<tag k="waterway" v="stream" />
	</node>
	<node id="-499973" lat="61.0232805597" lon="5.08734444893">
		<tag k="alt_name" v="Ramsliholmen" />
		<tag k="name" v="Ramsliholmane" />
		<tag k="place" v="islet" />
		<tag k="ssr:stedsnr" v="130371" />
	</node>
	<node id="-499972" lat="61.0205361139" lon="5.07614166984">
		<tag k="name" v="Bytingsneset" />
		<tag k="natural" v="cape" />
		<tag k="ssr:stedsnr" v="130369" />
	</node>
	<node id="-499968" lat="60.8563865559" lon="5.07608786849">
		<tag k="name" v="Sætertjørna" />
		<tag k="natural" v="water" />
		<tag k="ssr:stedsnr" v="130351" />
	</node>
	<node id="-499966" lat="60.926136115" lon="5.0563388944">
		<tag k="alt_name" v="Selevågvatnet" />
		<tag k="name" v="Selvågvatnet" />
		<tag k="natural" v="water" />
		<tag k="ssr:stedsnr" v="130460" />
	</node>
	<node id="-499959" lat="60.9963361085" lon="5.33495554688">
		<tag k="name" v="Austgulvatnet" />
		<tag k="natural" v="water" />
		<tag k="ssr:stedsnr" v="130101" />
	</node>
	<node id="-499956" lat="61.0368277791" lon="5.57468055671">
		<tag k="name" v="Koveelva" />
		<tag k="ssr:stedsnr" v="130037" />
		<tag k="waterway" v="stream" />
	</node>
	<node id="-499947" lat="60.9561027737" lon="5.27458055533">
		<tag k="alt_name" v="Alvedalstjørn" />
		<tag k="name" v="Alvedalstjørna" />
		<tag k="natural" v="water" />
		<tag k="ssr:stedsnr" v="129834" />
	</node>
	<node id="-499944" lat="60.8899638921" lon="5.09453333109">
		<tag k="fixme" v="multiple name tags, choose one and add the other to alt_name" />
		<tag k="name" v="Glenjetjørna;Ytstetjørna" />
		<tag k="natural" v="water" />
		<tag k="ssr:stedsnr" v="129953" />
	</node>
	<node id="-499942" lat="60.9270638865" lon="5.10583334174">
		<tag k="name" v="Viketjørna" />
		<tag k="natural" v="water" />
		<tag k="ssr:stedsnr" v="129866" />
	</node>
	<node id="-501989" lat="61.0318277824" lon="5.06264445121">
		<tag k="name" v="Svartetjørna" />
		<tag k="natural" v="water" />
		<tag k="ssr:stedsnr" v="798425" />
	</node>
	<node id="-499935" lat="60.9833194445" lon="5.23649999585">
		<tag k="name" v="Dalevatnet" />
		<tag k="natural" v="water" />
		<tag k="ssr:stedsnr" v="129773" />
	</node>
	<node id="-499931" lat="60.9881111143" lon="5.5898638946">
		<tag k="name" v="Smikkevatnet" />
		<tag k="natural" v="water" />
		<tag k="ssr:stedsnr" v="129306" />
	</node>
	<node id="-499928" lat="60.8860694444" lon="5.07200833584">
		<tag k="name" v="Svartetjørna" />
		<tag k="natural" v="water" />
		<tag k="ssr:stedsnr" v="129433" />
	</node>
	<node id="-501969" lat="60.9231416705" lon="5.33340555022">
		<tag k="name" v="Straumen" />
		<tag k="natural" v="strait" />
		<tag k="ssr:stedsnr" v="797875" />
	</node>
	<node id="-501968" lat="60.929463893" lon="5.21757777218">
		<tag k="name" v="Skitnedalsvatnet" />
		<tag k="natural" v="water" />
		<tag k="ssr:stedsnr" v="797869" />
	</node>
	<node id="-501966" lat="60.9227333341" lon="5.11291944315">
		<tag k="name" v="Kvernhuselva" />
		<tag k="ssr:stedsnr" v="797859" />
		<tag k="waterway" v="stream" />
	</node>
	<node id="-501963" lat="60.9345323233" lon="5.36216410157">
		<tag k="alt_name" v="Ynnesdalsvatnet" />
		<tag k="name" v="Yndesdalsvatnet" />
		<tag k="natural" v="water" />
		<tag k="ssr:stedsnr" v="797855" />
		<tag k="water" v="lake" />
	</node>
	<node id="-501962" lat="60.9502260838" lon="5.29412892866">
		<tag k="alt_name" v="Transdalvatnet" />
		<tag k="name" v="Transdalsvatnet" />
		<tag k="natural" v="water" />
		<tag k="ssr:stedsnr" v="797847" />
		<tag k="water" v="lake" />
	</node>
	<node id="-501957" lat="60.9750027795" lon="5.3067666652">
		<tag k="name" v="Blåfjelltjørna" />
		<tag k="natural" v="water" />
		<tag k="ssr:stedsnr" v="797786" />
	</node>
	<node id="-501956" lat="60.9832888892" lon="5.39371387991">
		<tag k="alt_name" v="Botnevatnet" />
		<tag k="name" v="Botnavatnet" />
		<tag k="natural" v="water" />
		<tag k="ssr:stedsnr" v="797782" />
	</node>
	<node id="-501955" lat="60.9796138911" lon="5.21804999393">
		<tag k="name" v="Langevatnet" />
		<tag k="natural" v="water" />
		<tag k="ssr:stedsnr" v="797776" />
	</node>
	<node id="-501946" lat="60.9052916655" lon="5.08132221376">
		<tag k="name" v="Svardalsvatnet" />
		<tag k="natural" v="water" />
		<tag k="ssr:stedsnr" v="797445" />
		<tag k="water" v="lake" />
	</node>
	<node id="-501945" lat="60.9024000043" lon="5.05100555369">
		<tag k="alt_name" v="Fivesdalsvatnet" />
		<tag k="name" v="Fivelsdalsvatnet" />
		<tag k="natural" v="water" />
		<tag k="ssr:stedsnr" v="797444" />
	</node>
	<node id="-499896" lat="60.9832833294" lon="5.47770832811">
		<tag k="name" v="Vetlefossgrova" />
		<tag k="ssr:stedsnr" v="97796" />
		<tag k="waterway" v="stream" />
	</node>
	<node id="-501941" lat="60.8885249957" lon="5.07260833679">
		<tag k="name" v="Gåsetjørna" />
		<tag k="natural" v="water" />
		<tag k="ssr:stedsnr" v="797428" />
	</node>
	<node id="-501928" lat="60.9928500041" lon="5.11711111313">
		<tag k="name" v="Midttunvatnet" />
		<tag k="natural" v="water" />
		<tag k="ssr:stedsnr" v="797177" />
	</node>
	<node id="-499879" lat="60.9400564192" lon="5.37723599274">
		<tag k="name" v="Ospeneset" />
		<tag k="natural" v="cape" />
		<tag k="ssr:stedsnr" v="97241" />
	</node>
	<node id="-501912" lat="60.9601833365" lon="4.94433888369">
		<tag k="name" v="Kvernhusvatnet" />
		<tag k="natural" v="water" />
		<tag k="ssr:stedsnr" v="796303" />
	</node>
	<node id="-499861" lat="60.8885320665" lon="5.06538730316">
		<tag k="name" v="Tjørntjørna" />
		<tag k="natural" v="water" />
		<tag k="ssr:stedsnr" v="96846" />
	</node>
	<node id="-501908" lat="60.9505138906" lon="5.0291777747">
		<tag k="name" v="Gardtjørna" />
		<tag k="natural" v="water" />
		<tag k="ssr:stedsnr" v="796279" />
	</node>
	<node id="-501907" lat="60.9512249983" lon="5.03742500415">
		<tag k="name" v="Langetjørna" />
		<tag k="natural" v="water" />
		<tag k="ssr:stedsnr" v="796278" />
	</node>
	<node id="-501906" lat="60.9540305566" lon="5.03737500129">
		<tag k="alt_name" v="Høgefjellsvatna;Høgefjelltjørna" />
		<tag k="name" v="Høgefjellstjørna" />
		<tag k="natural" v="water" />
		<tag k="ssr:stedsnr" v="796276" />
	</node>
	<node id="-501902" lat="61.0408805542" lon="5.1899361028">
		<tag k="name" v="Bjørndalselva" />
		<tag k="ssr:stedsnr" v="798582" />
		<tag k="waterway" v="stream" />
	</node>
	<node id="-501901" lat="61.0486250026" lon="5.16445832463">
		<tag k="name" v="Dyreskorvatnet" />
		<tag k="natural" v="water" />
		<tag k="ssr:stedsnr" v="798559" />
	</node>
	<node id="-501890" lat="61.0265138909" lon="5.53994443612">
		<tag k="name" v="Lønningefossen" />
		<tag k="natural" v="waterfall" />
		<tag k="ssr:stedsnr" v="764940" />
	</node>
	<node id="-501887" lat="60.8880772384" lon="5.05941080903">
		<tag k="name" v="Ytstetjørna" />
		<tag k="natural" v="water" />
		<tag k="ssr:stedsnr" v="764806" />
	</node>
	<node id="-501882" lat="61.0490861099" lon="5.06761943723">
		<tag k="name" v="Deknetjørna" />
		<tag k="natural" v="water" />
		<tag k="ssr:stedsnr" v="764706" />
	</node>
	<node id="-501881" lat="60.93233611" lon="5.50378889497">
		<tag k="name" v="Hellersgjelelva" />
		<tag k="ssr:stedsnr" v="764676" />
		<tag k="waterway" v="river" />
	</node>
	<node id="-499824" lat="60.9541499954" lon="5.02342499145">
		<tag k="name" v="Vågselva" />
		<tag k="ssr:stedsnr" v="95821" />
		<tag k="waterway" v="stream" />
	</node>
	<node id="-501867" lat="60.9674472213" lon="5.27720556457">
		<tag k="name" v="Midlivika" />
		<tag k="natural" v="bay" />
		<tag k="ssr:stedsnr" v="764445" />
	</node>
	<node id="-501862" lat="60.9102361073" lon="5.14046111955">
		<tag k="name" v="Svartesvoda" />
		<tag k="ssr:stedsnr" v="764338" />
		<tag k="waterway" v="stream" />
	</node>
	<node id="-501860" lat="60.9272916621" lon="5.15964999402">
		<tag k="name" v="Moldeelva" />
		<tag k="ssr:stedsnr" v="764297" />
		<tag k="waterway" v="river" />
	</node>
	<node id="-499811" lat="60.9373861075" lon="4.96216944155">
		<tag k="name" v="Sekketjørna" />
		<tag k="natural" v="water" />
		<tag k="ssr:stedsnr" v="95117" />
	</node>
	<node id="-501840" lat="60.9082722242" lon="5.08310833271">
		<tag k="name" v="Søre Klubbeneset" />
		<tag k="natural" v="cape" />
		<tag k="ssr:stedsnr" v="763901" />
	</node>
	<node id="-501826" lat="60.90390702" lon="4.87874025716">
		<tag k="name" v="Småleira" />
		<tag k="natural" v="water" />
		<tag k="ssr:stedsnr" v="763219" />
		<tag k="water" v="lake" />
	</node>
	<node id="-501817" lat="60.8538416699" lon="5.08235277786">
		<tag k="name" v="Bryhaugtjørna" />
		<tag k="natural" v="water" />
		<tag k="ssr:stedsnr" v="763027" />
	</node>
	<node id="-499762" lat="61.0332416658" lon="5.2412916662">
		<tag k="name" v="Langevatnet" />
		<tag k="natural" v="water" />
		<tag k="ssr:stedsnr" v="70893" />
	</node>
	<node id="-501808" lat="60.8900222178" lon="4.88399721634">
		<tag k="name" v="Lovlitjørna" />
		<tag k="natural" v="water" />
		<tag k="ssr:stedsnr" v="762343" />
	</node>
	<node id="-499758" lat="61.0582666627" lon="5.2034222187">
		<tag k="name" v="Bjørketjørna" />
		<tag k="natural" v="water" />
		<tag k="ssr:stedsnr" v="70586" />
	</node>
	<node id="-499752" lat="61.0424250003" lon="5.07984722964">
		<tag k="name" v="Ladberget" />
		<tag k="natural" v="cape" />
		<tag k="ssr:stedsnr" v="70415" />
	</node>
	<node id="-499747" lat="61.0639611116" lon="5.08943611131">
		<tag k="fixme" v="multiple name tags, choose one and add the other to alt_name" />
		<tag k="name" v="Lott-tjørna;Svartetjørna" />
		<tag k="natural" v="water" />
		<tag k="ssr:stedsnr" v="70462" />
	</node>
	<node id="-501791" lat="61.0001228515" lon="5.09405208091">
		<tag k="name" v="Grytevatnet" />
		<tag k="natural" v="water" />
		<tag k="ssr:stedsnr" v="758881" />
		<tag k="water" v="lake" />
	</node>
	<node id="-499736" lat="60.9559916668" lon="5.20527499075">
		<tag k="name" v="Sanddalselva" />
		<tag k="ssr:stedsnr" v="69862" />
		<tag k="waterway" v="stream" />
	</node>
	<node id="-499735" lat="60.9553416625" lon="5.45745000858">
		<tag k="name" v="Smedsdalsvatnet" />
		<tag k="natural" v="water" />
		<tag k="ssr:stedsnr" v="69850" />
	</node>
	<node id="-499733" lat="60.9642250017" lon="5.34790000665">
		<tag k="name" v="Leinetjørna" />
		<tag k="natural" v="water" />
		<tag k="ssr:stedsnr" v="69818" />
	</node>
	<node id="-501778" lat="60.8538116059" lon="5.01422481614">
		<tag k="name" v="Storevatnet" />
		<tag k="natural" v="water" />
		<tag k="ssr:stedsnr" v="758033" />
		<tag k="water" v="lake" />
	</node>
	<node id="-499722" lat="60.8922694433" lon="4.89769999381">
		<tag k="alt_name" v="Nøkksvatnet" />
		<tag k="name" v="Nykksvatnet" />
		<tag k="natural" v="water" />
		<tag k="ssr:stedsnr" v="69483" />
	</node>
	<node id="-499721" lat="60.8929499955" lon="4.85572221592">
		<tag k="name" v="Kjevatnet" />
		<tag k="natural" v="water" />
		<tag k="ssr:stedsnr" v="69480" />
	</node>
</osm>
