<?xml version="1.0" encoding="UTF-8"?>
<osm generator="osmapis" version="0.6">
	<node id="-691712" lat="68.0350999996" lon="16.1034611122">
		<tag k="name" v="Skogly" />
		<tag k="name:no" v="Skogly" />
		<tag k="place" v="farm" />
		<tag k="ssr:stedsnr" v="381575" />
	</node>
	<node id="-693332" lat="68.1529722218" lon="16.0939638915">
		<tag k="name" v="Hustoften" />
		<tag k="name:no" v="Hustoften" />
		<tag k="place" v="isolated_dwelling" />
		<tag k="ssr:stedsnr" v="927756" />
	</node>
	<node id="-691699" lat="67.9311944464" lon="16.4109194449">
		<tag k="name" v="Davve-Bælgga - Ytter-Bælka" />
		<tag k="name:no" v="Ytter-Bælka" />
		<tag k="name:smj" v="Davve-Bælgga" />
		<tag k="place" v="locality" />
		<tag k="ssr:stedsnr" v="381343" />
	</node>
	<node id="-693233" lat="68.0178638886" lon="16.2908444502">
		<tag k="name" v="Fagernesstrand" />
		<tag k="name:no" v="Fagernesstrand" />
		<tag k="place" v="isolated_dwelling" />
		<tag k="ssr:stedsnr" v="867759" />
	</node>
	<node id="-691695" lat="67.9170111122" lon="16.4679666645">
		<tag k="name" v="Utsvuodna - Grunnfjordbotn" />
		<tag k="name:no" v="Grunnfjordbotn" />
		<tag k="name:smj" v="Utsvuodna" />
		<tag k="place" v="farm" />
		<tag k="ssr:stedsnr" v="381334" />
	</node>
	<node id="-693229" lat="68.0950222239" lon="16.3414416723">
		<tag k="alt_name:no" v="Oldervika" />
		<tag k="name" v="Oldervik" />
		<tag k="name:no" v="Oldervik" />
		<tag k="place" v="isolated_dwelling" />
		<tag k="ssr:stedsnr" v="867605" />
	</node>
	<node id="-691687" lat="68.2663250022" lon="16.2702527855">
		<tag k="name" v="Myrset" />
		<tag k="name:no" v="Myrset" />
		<tag k="place" v="farm" />
		<tag k="ssr:stedsnr" v="380600" />
	</node>
	<node id="-691686" lat="68.2414277765" lon="16.2995972287">
		<tag k="name" v="Sommarset" />
		<tag k="name:no" v="Sommarset" />
		<tag k="place" v="isolated_dwelling" />
		<tag k="ssr:stedsnr" v="380596" />
	</node>
	<node id="-691685" lat="68.2709249999" lon="16.2800722301">
		<tag k="historic" v="shieling" />
		<tag k="name" v="Sommarset" />
		<tag k="name:no" v="Sommarset" />
		<tag k="place" v="locality" />
		<tag k="ssr:stedsnr" v="380595" />
	</node>
	<node id="-691684" lat="68.0798538642" lon="16.6144224799">
		<tag k="name" v="Tsåhkulahka - Grunnvoll" />
		<tag k="name:no" v="Grunnvoll" />
		<tag k="name:smj" v="Tsåhkulahka" />
		<tag k="place" v="hamlet" />
		<tag k="ssr:stedsnr" v="380587" />
	</node>
	<node id="-692194" lat="68.0451583322" lon="16.3126111095">
		<tag k="alt_name:no" v="Hulløy" />
		<tag k="fixme" v="consider place=hamlet" />
		<tag k="name" v="Hulløya" />
		<tag k="name:no" v="Hulløya" />
		<tag k="place" v="farm" />
		<tag k="ssr:stedsnr" v="199523" />
	</node>
	<node id="-691680" lat="68.0523999985" lon="16.3181527821">
		<tag k="name" v="Furuheim" />
		<tag k="name:no" v="Furuheim" />
		<tag k="place" v="farm" />
		<tag k="ssr:stedsnr" v="380544" />
	</node>
	<node id="-692191" lat="68.2257583348" lon="16.4013388982">
		<tag k="name" v="Solheim" />
		<tag k="name:no" v="Solheim" />
		<tag k="place" v="isolated_dwelling" />
		<tag k="ssr:stedsnr" v="199508" />
	</node>
	<node id="-691677" lat="68.226136108" lon="16.3524416728">
		<tag k="fixme" v="multiple name tags, choose one and add the other to alt_name" />
		<tag k="name" v="Kristenheimen;Eidvika" />
		<tag k="name:no" v="Kristenheimen;Eidvika" />
		<tag k="place" v="isolated_dwelling" />
		<tag k="ssr:stedsnr" v="380530" />
	</node>
	<node id="-692187" lat="67.8892527813" lon="16.2133638813">
		<tag k="name" v="Sis-Måsske - Inner-Musken" />
		<tag k="name:no" v="Inner-Musken" />
		<tag k="name:smj" v="Sis-Måsske" />
		<tag k="place" v="hamlet" />
		<tag k="ssr:stedsnr" v="199420" />
	</node>
	<node id="-693209" lat="68.1535555535" lon="16.1220888821">
		<tag k="name" v="Forsa" />
		<tag k="name:no" v="Forsa" />
		<tag k="place" v="farm" />
		<tag k="ssr:stedsnr" v="866733" />
	</node>
	<node id="-691620" lat="68.0631666675" lon="16.6520444529">
		<tag k="name" v="Hågen" />
		<tag k="name:no" v="Hågen" />
		<tag k="place" v="farm" />
		<tag k="ssr:stedsnr" v="325738" />
	</node>
	<node id="-693205" lat="68.1756555511" lon="16.5521305598">
		<tag k="name" v="Vássjá - Storelva" />
		<tag k="name:no" v="Storelva" />
		<tag k="name:smj" v="Vássjá" />
		<tag k="place" v="isolated_dwelling" />
		<tag k="ssr:stedsnr" v="866579" />
	</node>
	<node id="-693203" lat="68.1830000014" lon="16.6116805469">
		<tag k="name" v="Vuodnagiehtje - Stefjordbotn" />
		<tag k="name:no" v="Stefjordbotn" />
		<tag k="name:smj" v="Vuodnagiehtje" />
		<tag k="place" v="hamlet" />
		<tag k="ssr:stedsnr" v="866574" />
	</node>
	<node id="-692689" lat="68.0486416672" lon="16.0517722236">
		<tag k="name" v="Øyvollen" />
		<tag k="name:no" v="Øyvollen" />
		<tag k="place" v="farm" />
		<tag k="ssr:stedsnr" v="567652" />
	</node>
	<node id="-693199" lat="68.087230556" lon="16.2979777684">
		<tag k="name" v="Sámeluokta - Lapplægran" />
		<tag k="name:no" v="Lapplægran" />
		<tag k="name:smj" v="Sámeluokta" />
		<tag k="place" v="isolated_dwelling" />
		<tag k="ssr:stedsnr" v="866511" />
	</node>
	<node id="-691661" lat="68.0162833332" lon="16.2017277718">
		<tag k="name" v="Hestnes" />
		<tag k="name:no" v="Hestnes" />
		<tag k="place" v="isolated_dwelling" />
		<tag k="ssr:stedsnr" v="346903" />
	</node>
	<node id="-691659" lat="68.1221999997" lon="16.4236250055">
		<tag k="name" v="Sørli" />
		<tag k="name:no" v="Sørli" />
		<tag k="place" v="farm" />
		<tag k="ssr:stedsnr" v="346282" />
	</node>
	<node id="-693191" lat="67.9538583344" lon="16.4517444508">
		<tag k="name" v="Grunnfjorden" />
		<tag k="name:no" v="Grunnfjorden" />
		<tag k="place" v="isolated_dwelling" />
		<tag k="ssr:stedsnr" v="866260" />
	</node>
	<node id="-692678" lat="68.0295638864" lon="16.1146388913">
		<tag k="name" v="Bjørkvik" />
		<tag k="name:no" v="Bjørkvik" />
		<tag k="place" v="farm" />
		<tag k="ssr:stedsnr" v="567549" />
	</node>
	<node id="-692165" lat="68.1493333309" lon="16.2801944425">
		<tag k="name" v="Skjæran" />
		<tag k="name:no" v="Skjæran" />
		<tag k="place" v="isolated_dwelling" />
		<tag k="ssr:stedsnr" v="199630" />
	</node>
	<node id="-692676" lat="68.2042833351" lon="16.483022228">
		<tag k="name" v="Áhkávuonnjárgga - Stefjordneset" />
		<tag k="name:no" v="Stefjordneset" />
		<tag k="name:smj" v="Áhkávuonnjárgga" />
		<tag k="place" v="hamlet" />
		<tag k="ssr:stedsnr" v="566360" />
	</node>
	<node id="-692162" lat="68.0828972192" lon="16.4005499992">
		<tag k="name" v="Vika" />
		<tag k="name:no" v="Vika" />
		<tag k="place" v="farm" />
		<tag k="ssr:stedsnr" v="198534" />
	</node>
	<node id="-692160" lat="68.0834027739" lon="16.3078694429">
		<tag k="name" v="Stáloluokta - Risvika" />
		<tag k="name:no" v="Risvika" />
		<tag k="name:smj" v="Stáloluokta" />
		<tag k="place" v="isolated_dwelling" />
		<tag k="ssr:stedsnr" v="198530" />
	</node>
	<node id="-693183" lat="68.2019805586" lon="16.0685749898">
		<tag k="name" v="Stuorgiedde - Storjorda" />
		<tag k="name:no" v="Storjorda" />
		<tag k="name:smj" v="Stuorgiedde" />
		<tag k="place" v="hamlet" />
		<tag k="ssr:stedsnr" v="846253" />
	</node>
	<node id="-693179" lat="68.0950416633" lon="16.2766999916">
		<tag k="name" v="Kårvik" />
		<tag k="name:no" v="Kårvik" />
		<tag k="place" v="locality" />
		<tag k="ssr:stedsnr" v="832338" />
	</node>
	<node id="-693177" lat="68.0428361124" lon="16.3590527837">
		<tag k="name" v="Tørnes nordre" />
		<tag k="name:no" v="Tørnes nordre" />
		<tag k="place" v="farm" />
		<tag k="ssr:stedsnr" v="828185" />
	</node>
	<node id="-692664" lat="68.1274361127" lon="16.5237555643">
		<tag k="name" v="Gárjjelgoade - Russvika" />
		<tag k="name:no" v="Russvika" />
		<tag k="name:smj" v="Gárjjelgoade" />
		<tag k="place" v="isolated_dwelling" />
		<tag k="ssr:stedsnr" v="563546" />
	</node>
	<node id="-693175" lat="68.2243756488" lon="16.078293338">
		<tag k="name" v="Bognes" />
		<tag k="name:no" v="Bognes" />
		<tag k="place" v="farm" />
		<tag k="ssr:stedsnr" v="826816" />
	</node>
	<node id="-692150" lat="68.1759444425" lon="16.0494166741">
		<tag k="name" v="Elvegård" />
		<tag k="name:no" v="Elvegård" />
		<tag k="place" v="farm" />
		<tag k="ssr:stedsnr" v="147945" />
	</node>
	<node id="-692143" lat="68.1443611133" lon="16.4176166785">
		<tag k="name" v="Slåtten" />
		<tag k="name:no" v="Slåtten" />
		<tag k="place" v="locality" />
		<tag k="ssr:stedsnr" v="143951" />
	</node>
	<node id="-691630" lat="68.0092916665" lon="16.3398972139">
		<tag k="name" v="Osen" />
		<tag k="name:no" v="Osen" />
		<tag k="place" v="farm" />
		<tag k="ssr:stedsnr" v="325895" />
	</node>
	<node id="-691629" lat="68.0109111102" lon="16.3337583241">
		<tag k="name" v="Berg" />
		<tag k="name:no" v="Berg" />
		<tag k="place" v="farm" />
		<tag k="ssr:stedsnr" v="325887" />
	</node>
	<node id="-691954" lat="68.1232166656" lon="16.4252860985">
		<tag k="name" v="Tjihkkomluokta - Kikvika" />
		<tag k="name:no" v="Kikvika" />
		<tag k="name:smj" v="Tjihkkomluokta" />
		<tag k="place" v="hamlet" />
		<tag k="ssr:stedsnr" v="78565" />
	</node>
	<node id="-691950" lat="67.8843000026" lon="16.1939638822">
		<tag k="name" v="Hejdigiedde - Hedningjorda" />
		<tag k="name:no" v="Hedningjorda" />
		<tag k="name:smj" v="Hejdigiedde" />
		<tag k="place" v="locality" />
		<tag k="ssr:stedsnr" v="78432" />
	</node>
	<node id="-691623" lat="68.0613388853" lon="16.6532611049">
		<tag k="name" v="Dalhaug" />
		<tag k="name:no" v="Dalhaug" />
		<tag k="place" v="farm" />
		<tag k="ssr:stedsnr" v="325759" />
	</node>
	<node id="-692645" lat="68.1416444468" lon="16.3356388779">
		<tag k="name" v="Nes" />
		<tag k="name:no" v="Nes" />
		<tag k="place" v="farm" />
		<tag k="ssr:stedsnr" v="562628" />
	</node>
	<node id="-692132" lat="67.8908916704" lon="16.2052638984">
		<tag k="amenity" v="school" />
		<tag k="name" v="Måske skåvllå" />
		<tag k="name:smj" v="Måske skåvllå" />
		<tag k="ssr:stedsnr" v="143601" />
	</node>
	<node id="-692639" lat="68.0268277769" lon="16.0313361073">
		<tag k="name" v="Sommarset" />
		<tag k="name:no" v="Sommarset" />
		<tag k="place" v="isolated_dwelling" />
		<tag k="ssr:stedsnr" v="562582" />
	</node>
	<node id="-692638" lat="68.0727861129" lon="16.3896888981">
		<tag k="name" v="Jågåsijdda - Storå" />
		<tag k="name:no" v="Storå" />
		<tag k="name:smj" v="Jågåsijdda" />
		<tag k="old_name:smj" v="Jogasiida" />
		<tag k="place" v="hamlet" />
		<tag k="ssr:stedsnr" v="562562" />
	</node>
	<node id="-691654" lat="68.0357444424" lon="16.1008555434">
		<tag k="name" v="Moa" />
		<tag k="name:no" v="Moa" />
		<tag k="place" v="farm" />
		<tag k="ssr:stedsnr" v="340875" />
	</node>
	<node id="-693145" lat="68.0640166711" lon="16.6502611029">
		<tag k="name" v="Nygård" />
		<tag k="name:no" v="Nygård" />
		<tag k="place" v="farm" />
		<tag k="ssr:stedsnr" v="810785" />
	</node>
	<node id="-692631" lat="68.2257250008" lon="16.3490777727">
		<tag k="name" v="Strandskogen" />
		<tag k="name:no" v="Strandskogen" />
		<tag k="place" v="farm" />
		<tag k="ssr:stedsnr" v="562503" />
	</node>
	<node id="-692633" lat="68.2262999998" lon="16.3773083269">
		<tag k="name" v="Eidstø" />
		<tag k="name:no" v="Eidstø" />
		<tag k="place" v="isolated_dwelling" />
		<tag k="ssr:stedsnr" v="562509" />
	</node>
	<node id="-692116" lat="68.1847833293" lon="16.0251861087">
		<tag k="name" v="Vollan" />
		<tag k="name:no" v="Vollan" />
		<tag k="place" v="farm" />
		<tag k="ssr:stedsnr" v="142662" />
	</node>
	<node id="-692115" lat="68.272427778" lon="16.3395555612">
		<tag k="name" v="Eidet" />
		<tag k="name:no" v="Eidet" />
		<tag k="place" v="farm" />
		<tag k="ssr:stedsnr" v="142772" />
	</node>
	<node id="-692113" lat="68.0981722195" lon="16.3832999911">
		<tag k="name" v="Prestgården" />
		<tag k="name:no" v="Prestgården" />
		<tag k="place" v="farm" />
		<tag k="ssr:stedsnr" v="142758" />
	</node>
	<node id="-692624" lat="67.9022111125" lon="16.1981222335">
		<tag k="name" v="Smájlle - Leirelva" />
		<tag k="name:no" v="Leirelva" />
		<tag k="name:smj" v="Smájlle" />
		<tag k="place" v="farm" />
		<tag k="ssr:stedsnr" v="562368" />
	</node>
	<node id="-693133" lat="68.190424997" lon="16.017055565">
		<tag k="name" v="Dalheim" />
		<tag k="name:no" v="Dalheim" />
		<tag k="place" v="farm" />
		<tag k="ssr:stedsnr" v="810660" />
	</node>
	<node id="-693132" lat="68.1935194462" lon="16.0555055573">
		<tag k="name" v="Fortun" />
		<tag k="name:no" v="Fortun" />
		<tag k="place" v="isolated_dwelling" />
		<tag k="ssr:stedsnr" v="810655" />
	</node>
	<node id="-692617" lat="67.9655722215" lon="16.3560166614">
		<tag k="name" v="Rásjvássjá - Grasvik" />
		<tag k="name:no" v="Grasvik" />
		<tag k="name:smj" v="Rásjvássjá" />
		<tag k="place" v="farm" />
		<tag k="ssr:stedsnr" v="562273" />
	</node>
	<node id="-692276" lat="68.0798527778" lon="16.6567166668">
		<tag k="name" v="Forrhågen" />
		<tag k="name:no" v="Forrhågen" />
		<tag k="place" v="locality" />
		<tag k="ssr:stedsnr" v="259539" />
	</node>
	<node id="-692614" lat="67.9537555601" lon="16.408955551">
		<tag k="alt_name:no" v="Vik" />
		<tag k="name" v="Luokta - Vika" />
		<tag k="name:no" v="Vika" />
		<tag k="name:smj" v="Luokta" />
		<tag k="place" v="isolated_dwelling" />
		<tag k="ssr:stedsnr" v="562265" />
	</node>
	<node id="-692613" lat="67.9509416642" lon="16.40248056">
		<tag k="name" v="Rudnavuotna - Grunnfjorden" />
		<tag k="name:no" v="Grunnfjorden" />
		<tag k="name:smj" v="Rudnavuotna" />
		<tag k="place" v="isolated_dwelling" />
		<tag k="ssr:stedsnr" v="562261" />
	</node>
	<node id="-691588" lat="68.0342277756" lon="16.0092305506">
		<tag k="name" v="Forra" />
		<tag k="name:no" v="Forra" />
		<tag k="place" v="farm" />
		<tag k="ssr:stedsnr" v="324807" />
	</node>
	<node id="-692096" lat="68.194486114" lon="16.1234277751">
		<tag k="name" v="Tjeldhamn" />
		<tag k="name:no" v="Tjeldhamn" />
		<tag k="place" v="isolated_dwelling" />
		<tag k="ssr:stedsnr" v="138793" />
	</node>
	<node id="-692095" lat="68.1802639871" lon="16.104434566">
		<tag k="alt_name:no" v="Kaldvika" />
		<tag k="fixme" v="multiple name tags, choose one and add the other to alt_name; consider place=hamlet" />
		<tag k="name" v="Øvre Kaldvik;Kalvik" />
		<tag k="name:no" v="Øvre Kaldvik;Kalvik" />
		<tag k="place" v="farm" />
		<tag k="ssr:stedsnr" v="138781" />
	</node>
	<node id="-691582" lat="68.0440166689" lon="15.9674805638">
		<tag k="name" v="Kvannlia" />
		<tag k="name:no" v="Kvannlia" />
		<tag k="place" v="farm" />
		<tag k="ssr:stedsnr" v="324755" />
	</node>
	<node id="-693117" lat="68.1972722242" lon="16.0601027796">
		<tag k="name" v="Sjøvoll" />
		<tag k="name:no" v="Sjøvoll" />
		<tag k="place" v="isolated_dwelling" />
		<tag k="ssr:stedsnr" v="806832" />
	</node>
	<node id="-692458" lat="67.9639611071" lon="16.3597361025">
		<tag k="name" v="Lønes" />
		<tag k="name:no" v="Lønes" />
		<tag k="place" v="farm" />
		<tag k="ssr:stedsnr" v="446900" />
	</node>
	<node id="-692601" lat="68.0948694408" lon="16.4386111151">
		<tag k="name" v="Storvika" />
		<tag k="name:no" v="Storvika" />
		<tag k="place" v="locality" />
		<tag k="ssr:stedsnr" v="528305" />
	</node>
	<node id="-693112" lat="68.0741000014" lon="15.9126972336">
		<tag k="name" v="Breidvika" />
		<tag k="name:no" v="Breidvika" />
		<tag k="place" v="farm" />
		<tag k="ssr:stedsnr" v="806651" />
	</node>
	<node id="-692598" lat="68.0644472231" lon="15.9466472315">
		<tag k="name" v="Vang" />
		<tag k="name:no" v="Vang" />
		<tag k="place" v="farm" />
		<tag k="ssr:stedsnr" v="524932" />
	</node>
	<node id="-692595" lat="68.0435944415" lon="16.3051388843">
		<tag k="name" v="Vesterlid" />
		<tag k="name:no" v="Vesterlid" />
		<tag k="place" v="isolated_dwelling" />
		<tag k="ssr:stedsnr" v="524192" />
	</node>
	<node id="-693106" lat="68.0250805603" lon="16.1556249893">
		<tag k="name" v="Ytter-Helland" />
		<tag k="name:no" v="Ytter-Helland" />
		<tag k="place" v="farm" />
		<tag k="ssr:stedsnr" v="806575" />
	</node>
	<node id="-692883" lat="68.0787833301" lon="16.1011305439">
		<tag k="name" v="Strumpvika" />
		<tag k="name:no" v="Strumpvika" />
		<tag k="place" v="farm" />
		<tag k="ssr:stedsnr" v="684626" />
	</node>
	<node id="-692080" lat="68.1455666676" lon="16.2654944329">
		<tag k="name" v="Benasuoloj - Hundholmen" />
		<tag k="name:no" v="Hundholmen" />
		<tag k="name:smj" v="Benasuoloj" />
		<tag k="place" v="hamlet" />
		<tag k="ssr:stedsnr" v="138619" />
	</node>
	<node id="-692590" lat="68.2507694417" lon="16.0559055655">
		<tag k="name" v="Vika" />
		<tag k="name:no" v="Vika" />
		<tag k="place" v="farm" />
		<tag k="ssr:stedsnr" v="510238" />
	</node>
	<node id="-692589" lat="68.251780551" lon="16.0576944532">
		<tag k="name" v="Moa" />
		<tag k="name:no" v="Moa" />
		<tag k="place" v="farm" />
		<tag k="ssr:stedsnr" v="510236" />
	</node>
	<node id="-693098" lat="68.2169888887" lon="16.2933777789">
		<tag k="name" v="Skálltjonjárgga - Skjellnes" />
		<tag k="name:no" v="Skjellnes" />
		<tag k="name:smj" v="Skálltjonjárgga" />
		<tag k="place" v="isolated_dwelling" />
		<tag k="ssr:stedsnr" v="806514" />
	</node>
	<node id="-693395" lat="68.2237265561" lon="16.0757563906">
		<tag k="name" v="Bognes - Bognássje" />
		<tag k="name:no" v="Bognes" />
		<tag k="name:smj" v="Bognássje" />
		<tag k="place" v="hamlet" />
		<tag k="ssr:stedsnr" v="975424" />
	</node>
	<node id="-692067" lat="68.0452111088" lon="16.2750722278">
		<tag k="name" v="Borg" />
		<tag k="name:no" v="Borg" />
		<tag k="place" v="farm" />
		<tag k="ssr:stedsnr" v="138531" />
	</node>
	<node id="-693090" lat="67.8602611119" lon="16.4641833343">
		<tag k="fixme" v="consider place=hamlet" />
		<tag k="name" v="Tjierrekluokta - Nordbukta" />
		<tag k="name:no" v="Nordbukta" />
		<tag k="name:smj" v="Tjierrekluokta" />
		<tag k="old_name:smj" v="Čierregluokta" />
		<tag k="place" v="farm" />
		<tag k="ssr:stedsnr" v="806356" />
	</node>
	<node id="-693089" lat="67.9356277781" lon="16.2616166726">
		<tag k="name" v="Tjielloabme - Kjelomi" />
		<tag k="name:no" v="Kjelomi" />
		<tag k="name:smj" v="Tjielloabme" />
		<tag k="old_name:smj" v="Čielloapmi" />
		<tag k="place" v="locality" />
		<tag k="ssr:stedsnr" v="806340" />
	</node>
	<node id="-692576" lat="68.1244861144" lon="16.4030722301">
		<tag k="name" v="Skihytta" />
		<tag k="name:no" v="Skihytta" />
		<tag k="place" v="isolated_dwelling" />
		<tag k="ssr:stedsnr" v="507964" />
	</node>
	<node id="-692062" lat="67.910961113" lon="16.1956666616">
		<tag k="name" v="Gábmásadje" />
		<tag k="name:smj" v="Gábmásadje" />
		<tag k="old_name:smj" v="Gápmasadji" />
		<tag k="place" v="isolated_dwelling" />
		<tag k="ssr:stedsnr" v="138397" />
	</node>
	<node id="-692197" lat="68.0736888889" lon="16.6913888974">
		<tag k="name" v="Bieggeluokta - Bukta" />
		<tag k="name:no" v="Bukta" />
		<tag k="name:smj" v="Bieggeluokta" />
		<tag k="place" v="isolated_dwelling" />
		<tag k="ssr:stedsnr" v="199548" />
	</node>
	<node id="-692056" lat="67.9630861065" lon="16.3946027825">
		<tag k="name" v="Njoaskásj - Sommarset" />
		<tag k="name:no" v="Sommarset" />
		<tag k="name:smj" v="Njoaskásj" />
		<tag k="place" v="locality" />
		<tag k="ssr:stedsnr" v="138319" />
	</node>
	<node id="-691543" lat="68.21373333" lon="16.2773833375">
		<tag k="name" v="Sommarset" />
		<tag k="name:no" v="Sommarset" />
		<tag k="place" v="isolated_dwelling" />
		<tag k="ssr:stedsnr" v="320496" />
	</node>
	<node id="-692564" lat="68.0982861097" lon="16.3869500029">
		<tag k="name" v="Hestnes" />
		<tag k="name:no" v="Hestnes" />
		<tag k="place" v="quarter" />
		<tag k="ssr:stedsnr" v="507753" />
	</node>
	<node id="-693074" lat="68.2663194432" lon="16.3214666587">
		<tag k="name" v="Råssenjárgga - Hestneset" />
		<tag k="name:no" v="Hestneset" />
		<tag k="name:smj" v="Råssenjárgga" />
		<tag k="place" v="isolated_dwelling" />
		<tag k="ssr:stedsnr" v="805568" />
	</node>
	<node id="-693072" lat="68.2471509665" lon="16.3657980522">
		<tag k="name" v="Siládemluokta - Skjellesvika" />
		<tag k="name:no" v="Skjellesvika" />
		<tag k="name:smj" v="Siládemluokta" />
		<tag k="place" v="farm" />
		<tag k="ssr:stedsnr" v="805564" />
	</node>
	<node id="-691534" lat="67.9504194471" lon="16.4551333289">
		<tag k="name" v="Vuohpenjárgga - Nes" />
		<tag k="name:no" v="Nes" />
		<tag k="name:smj" v="Vuohpenjárgga" />
		<tag k="place" v="isolated_dwelling" />
		<tag k="ssr:stedsnr" v="320344" />
	</node>
	<node id="-692044" lat="68.231638891" lon="16.2616361194">
		<tag k="name" v="Lappvika" />
		<tag k="name:no" v="Lappvika" />
		<tag k="place" v="isolated_dwelling" />
		<tag k="ssr:stedsnr" v="137488" />
	</node>
	<node id="-691531" lat="67.9835388875" lon="16.2875444516">
		<tag k="name" v="Ibboluokta - Tømmervika" />
		<tag k="name:no" v="Tømmervika" />
		<tag k="name:smj" v="Ibboluokta" />
		<tag k="place" v="farm" />
		<tag k="ssr:stedsnr" v="320297" />
	</node>
	<node id="-692042" lat="67.9185583373" lon="16.2044527699">
		<tag k="name" v="Gidádibme - Josommarset" />
		<tag k="name:no" v="Josommarset" />
		<tag k="name:smj" v="Gidádibme" />
		<tag k="old_name:smj" v="Gidadipmi" />
		<tag k="place" v="farm" />
		<tag k="ssr:stedsnr" v="137385" />
	</node>
	<node id="-692035" lat="68.118786108" lon="16.304397213">
		<tag k="name" v="Kobbvika" />
		<tag k="name:no" v="Kobbvika" />
		<tag k="place" v="isolated_dwelling" />
		<tag k="ssr:stedsnr" v="104290" />
	</node>
	<node id="-692034" lat="68.2314833334" lon="16.4640611154">
		<tag k="name" v="Vik" />
		<tag k="name:no" v="Vik" />
		<tag k="place" v="isolated_dwelling" />
		<tag k="ssr:stedsnr" v="104252" />
	</node>
	<node id="-693387" lat="68.2186305528" lon="16.0611638818">
		<tag k="name" v="Leiknesbø" />
		<tag k="name:no" v="Leiknesbø" />
		<tag k="place" v="farm" />
		<tag k="ssr:stedsnr" v="946079" />
	</node>
	<node id="-693056" lat="68.1776222263" lon="16.0991916617">
		<tag k="name" v="Luren" />
		<tag k="name:no" v="Luren" />
		<tag k="place" v="farm" />
		<tag k="ssr:stedsnr" v="764182" />
	</node>
	<node id="-692031" lat="68.0282694485" lon="16.4787611092">
		<tag k="name" v="Sommarset" />
		<tag k="name:no" v="Sommarset" />
		<tag k="place" v="isolated_dwelling" />
		<tag k="ssr:stedsnr" v="103210" />
	</node>
	<node id="-692025" lat="68.2324166651" lon="16.0606083264">
		<tag k="name" v="Stranda" />
		<tag k="name:no" v="Stranda" />
		<tag k="place" v="hamlet" />
		<tag k="ssr:stedsnr" v="87944" />
	</node>
	<node id="-691511" lat="68.0408472265" lon="16.3685944389">
		<tag k="name" v="Lia" />
		<tag k="name:no" v="Lia" />
		<tag k="place" v="farm" />
		<tag k="ssr:stedsnr" v="285141" />
	</node>
	<node id="-692022" lat="68.0490361149" lon="17.0316944552">
		<tag k="fixme" v="consider tourism=alpine_hut or tourism=chalet" />
		<tag k="name" v="Paurohytta" />
		<tag k="name:no" v="Paurohytta" />
		<tag k="old_name:no" v="Paurohyttene;Pauro" />
		<tag k="ssr:stedsnr" v="87576" />
		<tag k="tourism" v="wilderness_hut" />
	</node>
	<node id="-691509" lat="68.0445222261" lon="16.2886999894">
		<tag k="name" v="Sommarset" />
		<tag k="name:no" v="Sommarset" />
		<tag k="place" v="isolated_dwelling" />
		<tag k="ssr:stedsnr" v="282202" />
	</node>
	<node id="-692230" lat="68.1943805579" lon="16.0400083408">
		<tag k="name" v="Sommarset" />
		<tag k="name:no" v="Sommarset" />
		<tag k="place" v="hamlet" />
		<tag k="ssr:stedsnr" v="204628" />
	</node>
	<node id="-692524" lat="68.0445944484" lon="16.079638899">
		<tag k="name" v="Ájluokta - Drag" />
		<tag k="name:no" v="Drag" />
		<tag k="name:smj" v="Ájluokta" />
		<tag k="place" v="village" />
		<tag k="ssr:stedsnr" v="502559" />
	</node>
	<node id="-693035" lat="68.1742333366" lon="16.4629749961">
		<tag k="name" v="Kariheimen" />
		<tag k="name:no" v="Kariheimen" />
		<tag k="place" v="locality" />
		<tag k="ssr:stedsnr" v="750755" />
	</node>
	<node id="-692521" lat="68.0813666645" lon="16.5513722175">
		<tag k="fixme" v="multiple name tags, choose one and add the other to alt_name" />
		<tag k="name" v="Geinnodahka;Sommarset" />
		<tag k="name:no" v="Geinnodahka;Sommarset" />
		<tag k="place" v="isolated_dwelling" />
		<tag k="ssr:stedsnr" v="502547" />
	</node>
	<node id="-692516" lat="68.0912638923" lon="16.6737999986">
		<tag k="name" v="Davve-Strávve - Ytter-Straumen" />
		<tag k="name:no" v="Ytter-Straumen" />
		<tag k="name:smj" v="Davve-Strávve" />
		<tag k="place" v="hamlet" />
		<tag k="ssr:stedsnr" v="502529" />
	</node>
	<node id="-691815" lat="68.1784385469" lon="16.101385109">
		<tag k="name" v="Kaldvik øvre" />
		<tag k="place" v="farm" />
		<tag k="ssr:stedsnr" v="981936" />
	</node>
	<node id="-692002" lat="68.0749583342" lon="16.3263555488">
		<tag k="name" v="Kongsnes" />
		<tag k="name:no" v="Kongsnes" />
		<tag k="place" v="farm" />
		<tag k="ssr:stedsnr" v="82916" />
	</node>
	<node id="-691675" lat="68.2280722201" lon="16.463247232">
		<tag k="name" v="Sluodnerågge - Blomhola" />
		<tag k="name:no" v="Blomhola" />
		<tag k="name:smj" v="Sluodnerågge" />
		<tag k="place" v="farm" />
		<tag k="ssr:stedsnr" v="380526" />
	</node>
	<node id="-692000" lat="68.2223583362" lon="16.4813305445">
		<tag k="name" v="Doaresgádde - Tverrlandet" />
		<tag k="name:no" v="Tverrlandet" />
		<tag k="name:smj" v="Doaresgádde" />
		<tag k="place" v="hamlet" />
		<tag k="ssr:stedsnr" v="82763" />
	</node>
	<node id="-692511" lat="68.044563892" lon="16.2901499904">
		<tag k="name" v="Såma" />
		<tag k="name:no" v="Såma" />
		<tag k="place" v="isolated_dwelling" />
		<tag k="ssr:stedsnr" v="502516" />
	</node>
	<node id="-691993" lat="68.2079527781" lon="16.0926194335">
		<tag k="name" v="Østvika" />
		<tag k="name:no" v="Østvika" />
		<tag k="place" v="farm" />
		<tag k="ssr:stedsnr" v="82691" />
	</node>
	<node id="-693015" lat="68.1773388882" lon="16.0308111101">
		<tag k="name" v="Myrvang" />
		<tag k="name:no" v="Myrvang" />
		<tag k="place" v="farm" />
		<tag k="ssr:stedsnr" v="749741" />
	</node>
	<node id="-691566" lat="67.9722388898" lon="16.217224995">
		<tag k="loc_name:smj" v="Svenjunnjá" />
		<tag k="name" v="Svienjunnjá - Pålsommarset" />
		<tag k="name:no" v="Pålsommarset" />
		<tag k="name:smj" v="Svienjunnjá" />
		<tag k="old_name:smj" v="Svenjunnja" />
		<tag k="place" v="farm" />
		<tag k="ssr:stedsnr" v="320622" />
	</node>
	<node id="-693010" lat="68.1073527781" lon="16.0985777722">
		<tag k="name" v="Gállá - Kjerr" />
		<tag k="name:no" v="Kjerr" />
		<tag k="name:smj" v="Gállá" />
		<tag k="place" v="farm" />
		<tag k="ssr:stedsnr" v="749708" />
	</node>
	<node id="-692355" lat="67.9917333309" lon="16.3445666674">
		<tag k="name" v="Elvebakken" />
		<tag k="name:no" v="Elvebakken" />
		<tag k="place" v="farm" />
		<tag k="ssr:stedsnr" v="264907" />
	</node>
	<node id="-691981" lat="68.0873999965" lon="16.1132750049">
		<tag k="name" v="Bjørkeneset" />
		<tag k="name:no" v="Bjørkeneset" />
		<tag k="place" v="farm" />
		<tag k="ssr:stedsnr" v="82561" />
	</node>
	<node id="-691842" lat="68.2046388914" lon="16.4834694468">
		<tag k="name" v="Inner-Stefjordneset" />
		<tag k="name:no" v="Inner-Stefjordneset" />
		<tag k="place" v="farm" />
		<tag k="ssr:stedsnr" v="17536" />
	</node>
	<node id="-693001" lat="68.245144445" lon="16.0601194521">
		<tag k="name" v="Oldervika" />
		<tag k="name:no" v="Oldervika" />
		<tag k="place" v="isolated_dwelling" />
		<tag k="ssr:stedsnr" v="745864" />
	</node>
	<node id="-691973" lat="68.090566669" lon="16.0963138871">
		<tag k="name" v="Stuorluokta - Storvika" />
		<tag k="name:no" v="Storvika" />
		<tag k="name:smj" v="Stuorluokta" />
		<tag k="place" v="hamlet" />
		<tag k="ssr:stedsnr" v="81640" />
	</node>
	<node id="-692996" lat="68.1685888871" lon="16.1289555563">
		<tag k="alt_name:no" v="Vikjord" />
		<tag k="name" v="Vikjorda" />
		<tag k="name:no" v="Vikjorda" />
		<tag k="place" v="isolated_dwelling" />
		<tag k="ssr:stedsnr" v="745799" />
	</node>
	<node id="-691926" lat="68.0452277771" lon="16.0122805535">
		<tag k="building" v="industrial" />
		<tag k="industrial" v="factory" />
		<tag k="name" v="Svenskgruva" />
		<tag k="name:no" v="Svenskgruva" />
		<tag k="ssr:stedsnr" v="77633" />
	</node>
	<node id="-692523" lat="68.0692999962" lon="16.3215416685">
		<tag k="name" v="Vássjá" />
		<tag k="name:smj" v="Vássjá" />
		<tag k="old_name:smj" v="Vášša" />
		<tag k="place" v="isolated_dwelling" />
		<tag k="ssr:stedsnr" v="502550" />
	</node>
	<node id="-691967" lat="68.2221527804" lon="16.0475833402">
		<tag k="name" v="Bogen" />
		<tag k="name:no" v="Bogen" />
		<tag k="place" v="farm" />
		<tag k="ssr:stedsnr" v="78824" />
	</node>
	<node id="-691669" lat="67.9754777792" lon="16.5399055565">
		<tag k="name" v="Spællábahta - Mannfjorden" />
		<tag k="name:no" v="Mannfjorden" />
		<tag k="name:smj" v="Spællábahta" />
		<tag k="place" v="farm" />
		<tag k="ssr:stedsnr" v="380293" />
	</node>
	<node id="-691964" lat="68.1518027811" lon="16.1141833231">
		<tag k="name" v="Fossum" />
		<tag k="name:no" v="Fossum" />
		<tag k="place" v="farm" />
		<tag k="ssr:stedsnr" v="78750" />
	</node>
	<node id="-692987" lat="68.0891250007" lon="16.0987805604">
		<tag k="name" v="Storvika" />
		<tag k="name:no" v="Storvika" />
		<tag k="place" v="farm" />
		<tag k="ssr:stedsnr" v="745627" />
	</node>
	<node id="-691962" lat="68.0274777776" lon="16.5172944423">
		<tag k="alt_name:no" v="Mosken" />
		<tag k="name" v="Spællámåsske - Musken" />
		<tag k="name:no" v="Musken" />
		<tag k="name:smj" v="Spællámåsske" />
		<tag k="old_name:smj" v="Moski;Måsske" />
		<tag k="place" v="farm" />
		<tag k="ssr:stedsnr" v="78732" />
	</node>
	<node id="-692985" lat="68.0518027808" lon="16.0597805526">
		<tag k="name" v="Skoglund" />
		<tag k="name:no" v="Skoglund" />
		<tag k="place" v="farm" />
		<tag k="ssr:stedsnr" v="745613" />
	</node>
	<node id="-692472" lat="68.0547611096" lon="16.3189111143">
		<tag k="name" v="Strand" />
		<tag k="name:no" v="Strand" />
		<tag k="place" v="isolated_dwelling" />
		<tag k="ssr:stedsnr" v="450600" />
	</node>
	<node id="-692009" lat="68.1408194412" lon="16.3361333398">
		<tag k="name" v="Mellagården" />
		<tag k="name:no" v="Mellagården" />
		<tag k="place" v="farm" />
		<tag k="ssr:stedsnr" v="82952" />
	</node>
	<node id="-692979" lat="68.1060138883" lon="16.4526944412">
		<tag k="name" v="Råssegiedde - Hestvika" />
		<tag k="name:no" v="Hestvika" />
		<tag k="name:smj" v="Råssegiedde" />
		<tag k="old_name:smj" v="Rossegiedde" />
		<tag k="place" v="isolated_dwelling" />
		<tag k="ssr:stedsnr" v="745582" />
	</node>
	<node id="-692466" lat="68.1428916646" lon="16.3478249985">
		<tag k="name" v="Vollen" />
		<tag k="name:no" v="Vollen" />
		<tag k="place" v="farm" />
		<tag k="ssr:stedsnr" v="446965" />
	</node>
	<node id="-692977" lat="68.1054277816" lon="16.5433916779">
		<tag k="name" v="Goahttse - Forrhaugan" />
		<tag k="name:no" v="Forrhaugan" />
		<tag k="name:smj" v="Goahttse" />
		<tag k="place" v="hamlet" />
		<tag k="ssr:stedsnr" v="745580" />
	</node>
	<node id="-692975" lat="68.0323527757" lon="15.9996916564">
		<tag k="name" v="Sommarset" />
		<tag k="name:no" v="Sommarset" />
		<tag k="place" v="farm" />
		<tag k="ssr:stedsnr" v="745568" />
	</node>
	<node id="-692974" lat="68.031972218" lon="16.1069277828">
		<tag k="name" v="Veiland" />
		<tag k="name:no" v="Veiland" />
		<tag k="place" v="farm" />
		<tag k="ssr:stedsnr" v="745563" />
	</node>
	<node id="-691948" lat="68.2595998309" lon="15.9538477957">
		<tag k="name" v="Diksná - Tysnes" />
		<tag k="name:no" v="Tysnes" />
		<tag k="name:smj" v="Diksná" />
		<tag k="place" v="hamlet" />
		<tag k="ssr:stedsnr" v="78386" />
	</node>
	<node id="-692970" lat="68.2717750043" lon="16.3430972266">
		<tag k="name" v="Ájdevuolle - Eidet" />
		<tag k="name:no" v="Eidet" />
		<tag k="name:smj" v="Ájdevuolle" />
		<tag k="place" v="hamlet" />
		<tag k="ssr:stedsnr" v="745541" />
	</node>
	<node id="-691942" lat="67.9164527739" lon="16.4228111192">
		<tag k="name" v="Bealggaš, unna" />
		<tag k="name:smj" v="Bealggaš, unna" />
		<tag k="place" v="locality" />
		<tag k="ssr:stedsnr" v="78326" />
	</node>
	<node id="-692965" lat="68.2102138905" lon="16.4795777713">
		<tag k="name" v="Ytter-Stefjordneset" />
		<tag k="name:no" v="Ytter-Stefjordneset" />
		<tag k="place" v="farm" />
		<tag k="ssr:stedsnr" v="745509" />
	</node>
	<node id="-692962" lat="68.0553722196" lon="16.225058326">
		<tag k="name" v="Njallem - Jalmaus" />
		<tag k="name:no" v="Jalmaus" />
		<tag k="name:smj" v="Njallem" />
		<tag k="place" v="isolated_dwelling" />
		<tag k="ssr:stedsnr" v="745490" />
	</node>
	<node id="-692960" lat="67.8673777787" lon="16.316375005">
		<tag k="name" v="Davve-Vássjá - Ytre Vasja" />
		<tag k="name:no" v="Ytre Vasja" />
		<tag k="name:smj" v="Davve-Vássjá" />
		<tag k="old_name:smj" v="Davvevášša" />
		<tag k="place" v="isolated_dwelling" />
		<tag k="ssr:stedsnr" v="745398" />
	</node>
	<node id="-691932" lat="68.1521444459" lon="16.1103277717">
		<tag k="name" v="Lund" />
		<tag k="name:no" v="Lund" />
		<tag k="place" v="isolated_dwelling" />
		<tag k="ssr:stedsnr" v="77756" />
	</node>
	<node id="-692955" lat="67.8900222174" lon="16.3041750089">
		<tag k="name" v="Nåråldahka" />
		<tag k="name:smj" v="Nåråldahka" />
		<tag k="old_name:smj" v="Noroldahka" />
		<tag k="place" v="locality" />
		<tag k="ssr:stedsnr" v="745347" />
	</node>
	<node id="-691663" lat="68.251994759" lon="16.0566925809">
		<tag k="fixme" v="consider place=suburb, village or hamlet" />
		<tag k="name" v="Hierenjárgga - Korsnes" />
		<tag k="name:no" v="Korsnes" />
		<tag k="name:smj" v="Hierenjárgga" />
		<tag k="place" v="quarter" />
		<tag k="ssr:stedsnr" v="356737" />
	</node>
	<node id="-692950" lat="67.9728416705" lon="16.3707138927">
		<tag k="name" v="Rávnno - Råna" />
		<tag k="name:no" v="Råna" />
		<tag k="name:smj" v="Rávnno" />
		<tag k="place" v="farm" />
		<tag k="ssr:stedsnr" v="745317" />
	</node>
	<node id="-692089" lat="68.0696472186" lon="16.0844027694">
		<tag k="name" v="Sommarset" />
		<tag k="name:no" v="Sommarset" />
		<tag k="place" v="locality" />
		<tag k="ssr:stedsnr" v="138659" />
	</node>
	<node id="-691747" lat="67.9044250003" lon="16.1966555471">
		<tag k="name" v="Vuolle-Smájlle" />
		<tag k="name:smj" v="Vuolle-Smájlle" />
		<tag k="place" v="hamlet" />
		<tag k="ssr:stedsnr" v="385614" />
	</node>
	<node id="-691920" lat="68.0863777814" lon="16.6823555576">
		<tag k="name" v="Tsagán - Tennstranda" />
		<tag k="name:no" v="Tennstranda" />
		<tag k="name:smj" v="Tsagán" />
		<tag k="place" v="farm" />
		<tag k="ssr:stedsnr" v="77571" />
	</node>
	<node id="-691576" lat="68.1945694482" lon="16.0288305605">
		<tag k="name" v="Skogvoll" />
		<tag k="name:no" v="Skogvoll" />
		<tag k="place" v="farm" />
		<tag k="ssr:stedsnr" v="320822" />
	</node>
	<node id="-691918" lat="68.0879611084" lon="16.4021305641">
		<tag k="name" v="Njássje - Nes" />
		<tag k="name:no" v="Nes" />
		<tag k="name:smj" v="Njássje" />
		<tag k="old_name:smj" v="Nášši" />
		<tag k="place" v="isolated_dwelling" />
		<tag k="ssr:stedsnr" v="77553" />
	</node>
	<node id="-691917" lat="68.2176527782" lon="16.2397194421">
		<tag k="name" v="Inner-Skarberget" />
		<tag k="name:no" v="Inner-Skarberget" />
		<tag k="place" v="hamlet" />
		<tag k="ssr:stedsnr" v="77524" />
	</node>
	<node id="-691914" lat="68.2313668179" lon="16.2396578454">
		<tag k="name" v="Skárffabákte - Skarberget" />
		<tag k="name:no" v="Skarberget" />
		<tag k="name:smj" v="Skárffabákte" />
		<tag k="place" v="hamlet" />
		<tag k="ssr:stedsnr" v="77510" />
	</node>
	<node id="-691912" lat="67.9942361078" lon="16.3401166753">
		<tag k="name" v="Skarvbergvika" />
		<tag k="name:no" v="Skarvbergvika" />
		<tag k="place" v="isolated_dwelling" />
		<tag k="ssr:stedsnr" v="77311" />
	</node>
	<node id="-692935" lat="68.2429249977" lon="16.3556694308">
		<tag k="name" v="Bukta" />
		<tag k="name:no" v="Bukta" />
		<tag k="place" v="farm" />
		<tag k="ssr:stedsnr" v="710449" />
	</node>
	<node id="-692931" lat="68.0389611075" lon="16.3634250022">
		<tag k="name" v="Tørnes søndre" />
		<tag k="name:no" v="Tørnes søndre" />
		<tag k="place" v="farm" />
		<tag k="ssr:stedsnr" v="706193" />
	</node>
	<node id="-691906" lat="67.8140583302" lon="16.5161111052">
		<tag k="name" v="Vuodnabahta - Hellmobotn" />
		<tag k="name:no" v="Hellmobotn" />
		<tag k="name:smj" v="Vuodnabahta" />
		<tag k="place" v="hamlet" />
		<tag k="ssr:stedsnr" v="77135" />
	</node>
	<node id="-692417" lat="68.1276805583" lon="16.3013638908">
		<tag k="name" v="Ráhtáluokta - Fredagsvika" />
		<tag k="name:no" v="Fredagsvika" />
		<tag k="name:smj" v="Ráhtáluokta" />
		<tag k="place" v="hamlet" />
		<tag k="ssr:stedsnr" v="442561" />
	</node>
	<node id="-692924" lat="68.2654722179" lon="16.3176861169">
		<tag k="name" v="Sildvågen" />
		<tag k="name:no" v="Sildvågen" />
		<tag k="place" v="farm" />
		<tag k="ssr:stedsnr" v="689996" />
	</node>
	<node id="-692923" lat="68.2692944441" lon="16.2757833338">
		<tag k="name" v="Elvebakk" />
		<tag k="name:no" v="Elvebakk" />
		<tag k="place" v="locality" />
		<tag k="ssr:stedsnr" v="689992" />
	</node>
	<node id="-692192" lat="68.0551027801" lon="16.3190500067">
		<tag k="name" v="Lyngmoen" />
		<tag k="name:no" v="Lyngmoen" />
		<tag k="place" v="isolated_dwelling" />
		<tag k="ssr:stedsnr" v="199511" />
	</node>
	<node id="-691895" lat="68.1469861104" lon="16.3411833411">
		<tag k="name" v="Straumsnes" />
		<tag k="name:no" v="Straumsnes" />
		<tag k="place" v="farm" />
		<tag k="ssr:stedsnr" v="22952" />
	</node>
	<node id="-692916" lat="68.0812194457" lon="16.3983749966">
		<tag k="name" v="Stenseng" />
		<tag k="name:no" v="Stenseng" />
		<tag k="place" v="farm" />
		<tag k="ssr:stedsnr" v="689707" />
	</node>
	<node id="-692082" lat="68.1444638915" lon="16.2541638886">
		<tag k="name" v="Gådjeluokta - Grindvika" />
		<tag k="name:no" v="Grindvika" />
		<tag k="name:smj" v="Gådjeluokta" />
		<tag k="place" v="isolated_dwelling" />
		<tag k="ssr:stedsnr" v="138634" />
	</node>
	<node id="-692423" lat="68.1223805583" lon="16.1062805444">
		<tag k="name" v="Biesseluokta - Nevervika" />
		<tag k="name:no" v="Nevervika" />
		<tag k="name:smj" v="Biesseluokta" />
		<tag k="place" v="hamlet" />
		<tag k="ssr:stedsnr" v="442736" />
	</node>
	<node id="-692902" lat="68.2363083323" lon="15.9652055604">
		<tag k="name" v="Molvika" />
		<tag k="name:no" v="Molvika" />
		<tag k="place" v="farm" />
		<tag k="ssr:stedsnr" v="689482" />
	</node>
	<node id="-692389" lat="68.088880557" lon="16.6904666758">
		<tag k="name" v="Sis-Strávve - Inner-Straumen" />
		<tag k="name:no" v="Inner-Straumen" />
		<tag k="name:smj" v="Sis-Strávve" />
		<tag k="place" v="hamlet" />
		<tag k="ssr:stedsnr" v="441537" />
	</node>
	<node id="-692388" lat="68.0961027801" lon="16.3736805532">
		<tag k="name" v="Gásluokta - Kjøpsvik" />
		<tag k="name:no" v="Kjøpsvik" />
		<tag k="name:smj" v="Gásluokta" />
		<tag k="place" v="village" />
		<tag k="ssr:stedsnr" v="441535" />
	</node>
	<node id="-692899" lat="68.0782361123" lon="16.0998583304">
		<tag k="name" v="Strummbo - Strumpvika" />
		<tag k="name:no" v="Strumpvika" />
		<tag k="name:smj" v="Strummbo" />
		<tag k="place" v="hamlet" />
		<tag k="ssr:stedsnr" v="688627" />
	</node>
	<node id="-692386" lat="68.1915685664" lon="16.4605198296">
		<tag k="name" v="Dimbarásse - Tømmeråsen" />
		<tag k="name:no" v="Tømmeråsen" />
		<tag k="name:smj" v="Dimbarásse" />
		<tag k="place" v="hamlet" />
		<tag k="ssr:stedsnr" v="441528" />
	</node>
	<node id="-692251" lat="68.0657055544" lon="16.3698277774">
		<tag k="name" v="Måhkke" />
		<tag k="name:smj" v="Måhkke" />
		<tag k="old_name:smj" v="Mohkki" />
		<tag k="place" v="isolated_dwelling" />
		<tag k="ssr:stedsnr" v="219859" />
	</node>
	<node id="-691872" lat="68.0943305593" lon="16.3552805662">
		<tag k="name" v="Smines" />
		<tag k="name:no" v="Smines" />
		<tag k="place" v="quarter" />
		<tag k="ssr:stedsnr" v="21760" />
	</node>
	<node id="-691568" lat="68.1117583381" lon="16.0326777673">
		<tag k="name" v="Kvannkjosen" />
		<tag k="name:no" v="Kvannkjosen" />
		<tag k="place" v="locality" />
		<tag k="ssr:stedsnr" v="320669" />
	</node>
	<node id="-692382" lat="68.0626055545" lon="16.6540472206">
		<tag k="name" v="Slahpa - Sørfjorden" />
		<tag k="name:no" v="Sørfjorden" />
		<tag k="name:smj" v="Slahpa" />
		<tag k="place" v="hamlet" />
		<tag k="ssr:stedsnr" v="441497" />
	</node>
	<node id="-692892" lat="68.2366583295" lon="15.965708333">
		<tag k="name" v="Molvika" />
		<tag k="name:no" v="Molvika" />
		<tag k="place" v="hamlet" />
		<tag k="ssr:stedsnr" v="684849" />
	</node>
	<node id="-692890" lat="68.2312972197" lon="16.0593527663">
		<tag k="name" v="Kleiva" />
		<tag k="name:no" v="Kleiva" />
		<tag k="place" v="farm" />
		<tag k="ssr:stedsnr" v="684827" />
	</node>
	<node id="-692886" lat="68.0107388878" lon="16.3390944548">
		<tag k="alt_name:no" v="Kjerrvika" />
		<tag k="name" v="Slihppe - Kjerr" />
		<tag k="name:no" v="Kjerr" />
		<tag k="name:smj" v="Slihppe" />
		<tag k="place" v="hamlet" />
		<tag k="ssr:stedsnr" v="684730" />
	</node>
	<node id="-692884" lat="68.1357111104" lon="16.1140472161">
		<tag k="name" v="Ráluokta - Rørvika" />
		<tag k="name:no" v="Rørvika" />
		<tag k="name:smj" v="Ráluokta" />
		<tag k="place" v="hamlet" />
		<tag k="ssr:stedsnr" v="684675" />
	</node>
	<node id="-692078" lat="68.0185888868" lon="16.1540083277">
		<tag k="alt_name:no" v="Helland, in" />
		<tag k="name" v="Indre Helland" />
		<tag k="name:no" v="Indre Helland" />
		<tag k="place" v="farm" />
		<tag k="ssr:stedsnr" v="138597" />
	</node>
	<node id="-693394" lat="68.0506769498" lon="17.1330641315">
		<tag k="fixme" v="consider tourism=alpine_hut or tourism=chalet" />
		<tag k="name" v="Baugebua" />
		<tag k="ssr:stedsnr" v="972949" />
		<tag k="tourism" v="wilderness_hut" />
	</node>
	<node id="-691856" lat="68.0473277811" lon="16.0310472235">
		<tag k="name" v="Nordvoll" />
		<tag k="name:no" v="Nordvoll" />
		<tag k="place" v="farm" />
		<tag k="ssr:stedsnr" v="17642" />
	</node>
	<node id="-693391" lat="68.0866888902" lon="16.2941527845">
		<tag k="name" v="Haugen" />
		<tag k="name:no" v="Haugen" />
		<tag k="place" v="isolated_dwelling" />
		<tag k="ssr:stedsnr" v="953368" />
	</node>
	<node id="-692077" lat="68.1042361112" lon="16.5033194421">
		<tag k="name" v="Allmenningen" />
		<tag k="name:no" v="Allmenningen" />
		<tag k="place" v="isolated_dwelling" />
		<tag k="ssr:stedsnr" v="138590" />
	</node>
	<node id="-692354" lat="67.9774833301" lon="16.5016833199">
		<tag k="name" v="Nábár - Navaren" />
		<tag k="name:no" v="Navaren" />
		<tag k="name:smj" v="Nábár" />
		<tag k="place" v="locality" />
		<tag k="ssr:stedsnr" v="264904" />
	</node>
	<node id="-692875" lat="68.0496083324" lon="16.0576416571">
		<tag k="name" v="Drag" />
		<tag k="name:no" v="Drag" />
		<tag k="place" v="farm" />
		<tag k="ssr:stedsnr" v="684593" />
	</node>
	<node id="-692380" lat="67.8936777815" lon="16.2045666659">
		<tag k="name" v="Davve-Måsske - Ytter-Musken" />
		<tag k="name:no" v="Ytter-Musken" />
		<tag k="name:smj" v="Davve-Måsske" />
		<tag k="place" v="hamlet" />
		<tag k="ssr:stedsnr" v="441422" />
	</node>
	<node id="-692867" lat="68.027341664" lon="16.3367777713">
		<tag k="name" v="Tjårro - Tjårrnes" />
		<tag k="name:no" v="Tjårrnes" />
		<tag k="name:smj" v="Tjårro" />
		<tag k="place" v="hamlet" />
		<tag k="ssr:stedsnr" v="684513" />
	</node>
	<node id="-692866" lat="68.0437055545" lon="16.3050416655">
		<tag k="name" v="Solhaug" />
		<tag k="name:no" v="Solhaug" />
		<tag k="place" v="farm" />
		<tag k="ssr:stedsnr" v="684511" />
	</node>
	<node id="-691819" lat="68.2229916671" lon="16.3237361072">
		<tag k="name" v="Lattásj - Lysvoll" />
		<tag k="name:no" v="Lysvoll" />
		<tag k="name:smj" v="Lattásj" />
		<tag k="old_name:smj" v="Láttaš" />
		<tag k="place" v="hamlet" />
		<tag k="ssr:stedsnr" v="16480" />
	</node>
	<node id="-692864" lat="68.2253277743" lon="16.4103416615">
		<tag k="name" v="Julpållneset" />
		<tag k="name:no" v="Julpållneset" />
		<tag k="place" v="farm" />
		<tag k="ssr:stedsnr" v="684507" />
	</node>
	<node id="-691836" lat="67.9327861114" lon="16.4039389">
		<tag k="name" v="Stuorbealga" />
		<tag k="name:smj" v="Stuorbealga" />
		<tag k="place" v="locality" />
		<tag k="ssr:stedsnr" v="17369" />
	</node>
	<node id="-692074" lat="68.0367972237" lon="16.1030888889">
		<tag k="name" v="Sørås" />
		<tag k="name:no" v="Sørås" />
		<tag k="place" v="farm" />
		<tag k="ssr:stedsnr" v="138582" />
	</node>
	<node id="-692343" lat="68.1229944444" lon="16.4263722307">
		<tag k="name" v="Brattli" />
		<tag k="name:no" v="Brattli" />
		<tag k="place" v="farm" />
		<tag k="ssr:stedsnr" v="264756" />
	</node>
	<node id="-693366" lat="67.9748027785" lon="16.5334972264">
		<tag k="name" v="Storjorda" />
		<tag k="name:no" v="Storjorda" />
		<tag k="place" v="farm" />
		<tag k="ssr:stedsnr" v="932903" />
	</node>
	<node id="-693358" lat="68.0621638892" lon="16.6525111034">
		<tag k="name" v="Brakka" />
		<tag k="name:no" v="Brakka" />
		<tag k="place" v="farm" />
		<tag k="ssr:stedsnr" v="932728" />
	</node>
	<node id="-691821" lat="68.0924555532" lon="16.3646805608">
		<tag k="fixme" v="consider place=suburb, village or hamlet" />
		<tag k="name" v="Oaffe - Kjøpsnes" />
		<tag k="name:no" v="Kjøpsnes" />
		<tag k="name:smj" v="Oaffe" />
		<tag k="old_name:smj" v="Oaffi" />
		<tag k="place" v="quarter" />
		<tag k="ssr:stedsnr" v="16510" />
	</node>
	<node id="-692843" lat="68.1783142326" lon="16.0295969124">
		<tag k="name" v="Båddnå - Botn" />
		<tag k="name:no" v="Botn" />
		<tag k="name:smj" v="Båddnå" />
		<tag k="place" v="hamlet" />
		<tag k="ssr:stedsnr" v="666306" />
	</node>
	<node id="-692329" lat="68.0236611156" lon="16.1581361077">
		<tag k="name" v="Vindheim" />
		<tag k="name:no" v="Vindheim" />
		<tag k="place" v="farm" />
		<tag k="ssr:stedsnr" v="264564" />
	</node>
	<node id="-693352" lat="68.0618555526" lon="16.3597388908">
		<tag k="name" v="Bjørkenes" />
		<tag k="name:no" v="Bjørkenes" />
		<tag k="place" v="farm" />
		<tag k="ssr:stedsnr" v="932644" />
	</node>
	<node id="-691900" lat="68.0514944405" lon="16.3181972156">
		<tag k="name" v="Lyngmo" />
		<tag k="name:no" v="Lyngmo" />
		<tag k="place" v="isolated_dwelling" />
		<tag k="ssr:stedsnr" v="39177" />
	</node>
	<node id="-691814" lat="68.1786725031" lon="16.1024514312">
		<tag k="name" v="Kaldvik øvre" />
		<tag k="place" v="farm" />
		<tag k="ssr:stedsnr" v="981935" />
	</node>
	<node id="-691813" lat="68.1795360264" lon="16.1051585118">
		<tag k="name" v="Kalvik mellem" />
		<tag k="place" v="farm" />
		<tag k="ssr:stedsnr" v="981934" />
	</node>
	<node id="-692836" lat="68.2365805591" lon="16.0599416706">
		<tag k="name" v="Leiknes" />
		<tag k="name:no" v="Leiknes" />
		<tag k="place" v="farm" />
		<tag k="ssr:stedsnr" v="632954" />
	</node>
	<node id="-691811" lat="68.187141819" lon="16.1044908503">
		<tag k="fixme" v="consider place=hamlet" />
		<tag k="name" v="Nedre Kalvik" />
		<tag k="place" v="farm" />
		<tag k="ssr:stedsnr" v="981932" />
	</node>
	<node id="-693346" lat="68.13552222" lon="16.1114583408">
		<tag k="name" v="Rørvikgården" />
		<tag k="name:no" v="Rørvikgården" />
		<tag k="place" v="farm" />
		<tag k="ssr:stedsnr" v="932582" />
	</node>
	<node id="-692321" lat="68.2064305584" lon="16.4120138892">
		<tag k="name" v="Ávkke - Haukøya" />
		<tag k="name:no" v="Haukøya" />
		<tag k="name:smj" v="Ávkke" />
		<tag k="place" v="hamlet" />
		<tag k="ssr:stedsnr" v="263395" />
	</node>
	<node id="-692316" lat="68.1181944473" lon="16.0397499913">
		<tag k="name" v="Akkasokka" />
		<tag k="name:no" v="Akkasokka" />
		<tag k="place" v="isolated_dwelling" />
		<tag k="ssr:stedsnr" v="260675" />
	</node>
	<node id="-691802" lat="68.1642111094" lon="16.4738444476">
		<tag k="name" v="Nygård" />
		<tag k="name:no" v="Nygård" />
		<tag k="place" v="farm" />
		<tag k="ssr:stedsnr" v="893255" />
	</node>
	<node id="-691812" lat="68.1807713703" lon="16.1047736685">
		<tag k="name" v="Kaldvik øvre" />
		<tag k="place" v="farm" />
		<tag k="ssr:stedsnr" v="981933" />
	</node>
	<node id="-691798" lat="68.2014777806" lon="16.3734194353">
		<tag k="name" v="Lyngmo" />
		<tag k="name:no" v="Lyngmo" />
		<tag k="place" v="farm" />
		<tag k="ssr:stedsnr" v="892470" />
	</node>
	<node id="-692820" lat="68.2266388858" lon="16.4461111038">
		<tag k="name" v="Sildpollneset" />
		<tag k="name:no" v="Sildpollneset" />
		<tag k="place" v="farm" />
		<tag k="ssr:stedsnr" v="628748" />
	</node>
	<node id="-691794" lat="68.0244472213" lon="16.5134388914">
		<tag k="name" v="Elvenes" />
		<tag k="name:no" v="Elvenes" />
		<tag k="place" v="isolated_dwelling" />
		<tag k="ssr:stedsnr" v="892219" />
	</node>
	<node id="-691793" lat="67.9606083334" lon="16.8331277696">
		<tag k="fixme" v="consider tourism=alpine_hut or tourism=chalet" />
		<tag k="name" v="Røysvatn" />
		<tag k="name:no" v="Røysvatn" />
		<tag k="old_name:no" v="Røysvatnhytta" />
		<tag k="ssr:stedsnr" v="890593" />
		<tag k="tourism" v="wilderness_hut" />
	</node>
	<node id="-692304" lat="68.0140527747" lon="16.1639555654">
		<tag k="name" v="Fredly" />
		<tag k="name:no" v="Fredly" />
		<tag k="place" v="farm" />
		<tag k="ssr:stedsnr" v="260550" />
	</node>
	<node id="-692812" lat="68.0631611104" lon="16.3631555445">
		<tag k="name" v="Mokki" />
		<tag k="name:no" v="Mokki" />
		<tag k="place" v="isolated_dwelling" />
		<tag k="ssr:stedsnr" v="628677" />
	</node>
	<node id="-691810" lat="68.1795683342" lon="16.1018558106">
		<tag k="loc_name:smj" v="Gálbbeluokta" />
		<tag k="name" v="Kaldvik" />
		<tag k="name:no" v="Kaldvik" />
		<tag k="place" v="hamlet" />
		<tag k="ssr:stedsnr" v="981931" />
	</node>
	<node id="-692151" lat="68.0984277812" lon="16.3735722332">
		<tag k="leisure" v="pitch" />
		<tag k="name" v="Helljorda" />
		<tag k="name:no" v="Helljorda" />
		<tag k="ssr:stedsnr" v="268582" />
	</node>
	<node id="-692296" lat="68.147011111" lon="16.0420583398">
		<tag k="name" v="Láŋásse - Langåsen" />
		<tag k="name:no" v="Langåsen" />
		<tag k="name:smj" v="Láŋásse" />
		<tag k="place" v="farm" />
		<tag k="ssr:stedsnr" v="259693" />
	</node>
	<node id="-691783" lat="68.1859007015" lon="16.1018913169">
		<tag k="name" v="Nedre Kaldvik" />
		<tag k="name:no" v="Nedre Kaldvik" />
		<tag k="place" v="farm" />
		<tag k="ssr:stedsnr" v="400199" />
	</node>
	<node id="-693315" lat="68.1433166646" lon="16.3476527723">
		<tag k="name" v="Gielkká - Kjelkvika" />
		<tag k="name:no" v="Kjelkvika" />
		<tag k="name:smj" v="Gielkká" />
		<tag k="place" v="hamlet" />
		<tag k="ssr:stedsnr" v="927566" />
	</node>
	<node id="-693314" lat="68.2426972234" lon="16.3588861076">
		<tag k="name" v="Ulbegiedde - Ulvika" />
		<tag k="name:no" v="Ulvika" />
		<tag k="name:smj" v="Ulbegiedde" />
		<tag k="place" v="hamlet" />
		<tag k="ssr:stedsnr" v="927563" />
	</node>
	<node id="-692287" lat="68.0443249962" lon="16.0604916695">
		<tag k="alt_name:no" v="Hamna" />
		<tag k="name" v="Hamn" />
		<tag k="name:no" v="Hamn" />
		<tag k="place" v="farm" />
		<tag k="ssr:stedsnr" v="259550" />
	</node>
	<node id="-692342" lat="68.0985722262" lon="16.3638666566">
		<tag k="name" v="Pæsa" />
		<tag k="name:no" v="Pæsa" />
		<tag k="place" v="quarter" />
		<tag k="ssr:stedsnr" v="264747" />
	</node>
	<node id="-691574" lat="68.1784194473" lon="16.0374361182">
		<tag k="name" v="Nerbotn" />
		<tag k="name:no" v="Nerbotn" />
		<tag k="place" v="farm" />
		<tag k="ssr:stedsnr" v="320779" />
	</node>
	<node id="-692281" lat="67.8478638905" lon="16.3772555559">
		<tag k="name" v="Sis-Vássjá - Indre Vasja" />
		<tag k="name:no" v="Indre Vasja" />
		<tag k="name:smj" v="Sis-Vássjá" />
		<tag k="old_name:smj" v="Sisvášša" />
		<tag k="place" v="isolated_dwelling" />
		<tag k="ssr:stedsnr" v="259350" />
	</node>
	<node id="-692791" lat="68.0911722199" lon="16.6834055584">
		<tag k="name" v="Strávve - Straumen" />
		<tag k="name:no" v="Straumen" />
		<tag k="name:smj" v="Strávve" />
		<tag k="place" v="hamlet" />
		<tag k="ssr:stedsnr" v="627367" />
	</node>
	<node id="-692788" lat="68.0523805534" lon="16.0675499897">
		<tag k="name" v="Nordnes" />
		<tag k="name:no" v="Nordnes" />
		<tag k="place" v="farm" />
		<tag k="ssr:stedsnr" v="623838" />
	</node>
	<node id="-692273" lat="68.0798694412" lon="16.2204083277">
		<tag k="name" v="Sommarset" />
		<tag k="name:no" v="Sommarset" />
		<tag k="place" v="isolated_dwelling" />
		<tag k="ssr:stedsnr" v="259521" />
	</node>
	<node id="-692784" lat="68.1789500033" lon="16.029505557">
		<tag k="loc_name:smj" v="Båddnå" />
		<tag k="name" v="Botn" />
		<tag k="name:no" v="Botn" />
		<tag k="place" v="farm" />
		<tag k="ssr:stedsnr" v="623787" />
	</node>
	<node id="-691759" lat="68.16443889" lon="16.4758944546">
		<tag k="name" v="Dimbarásvuodna - Tømmeråsfjorden" />
		<tag k="name:no" v="Tømmeråsfjorden" />
		<tag k="name:smj" v="Dimbarásvuodna" />
		<tag k="place" v="hamlet" />
		<tag k="ssr:stedsnr" v="385779" />
	</node>
	<node id="-693310" lat="68.262725002" lon="16.3080138803">
		<tag k="name" v="Skårnes" />
		<tag k="name:no" v="Skårnes" />
		<tag k="place" v="farm" />
		<tag k="ssr:stedsnr" v="927551" />
	</node>
	<node id="-693292" lat="67.9887027791" lon="16.3480750053">
		<tag k="name" v="Lásluokta - Lossvika" />
		<tag k="name:no" v="Lossvika" />
		<tag k="name:smj" v="Lásluokta" />
		<tag k="place" v="farm" />
		<tag k="ssr:stedsnr" v="927321" />
	</node>
	<node id="-693291" lat="67.9813666682" lon="16.4904250098">
		<tag k="name" v="Lávrra" />
		<tag k="name:smj" v="Lávrra" />
		<tag k="place" v="isolated_dwelling" />
		<tag k="ssr:stedsnr" v="927316" />
	</node>
	<node id="-692119" lat="68.0710916704" lon="16.3817111225">
		<tag k="name" v="Stranda" />
		<tag k="name:no" v="Stranda" />
		<tag k="place" v="farm" />
		<tag k="ssr:stedsnr" v="142706" />
	</node>
	<node id="-691752" lat="68.0403722194" lon="16.0811361146">
		<tag k="amenity" v="school" />
		<tag k="name" v="Drag skole" />
		<tag k="name:no" v="Drag skole" />
		<tag k="ssr:stedsnr" v="385680" />
	</node>
	<node id="-692771" lat="68.0372250011" lon="16.0980750042">
		<tag k="name" v="Moa" />
		<tag k="name:no" v="Moa" />
		<tag k="place" v="farm" />
		<tag k="ssr:stedsnr" v="623590" />
	</node>
	<node id="-693279" lat="68.204105553" lon="16.0770722171">
		<tag k="fixme" v="consider place=hamlet" />
		<tag k="name" v="Storjorda" />
		<tag k="name:no" v="Storjorda" />
		<tag k="place" v="farm" />
		<tag k="ssr:stedsnr" v="927805" />
	</node>
	<node id="-692255" lat="68.0809027764" lon="16.3984833236">
		<tag k="name" v="Lapplæger" />
		<tag k="name:no" v="Lapplæger" />
		<tag k="place" v="isolated_dwelling" />
		<tag k="ssr:stedsnr" v="224035" />
	</node>
	<node id="-692764" lat="68.0852972211" lon="16.2360499928">
		<tag k="name" v="Aspheim" />
		<tag k="name:no" v="Aspheim" />
		<tag k="place" v="isolated_dwelling" />
		<tag k="ssr:stedsnr" v="623557" />
	</node>
	<node id="-693275" lat="68.0217694467" lon="16.1572555493">
		<tag k="fixme" v="consider place=hamlet" />
		<tag k="name" v="Ájládde - Helland" />
		<tag k="name:no" v="Helland" />
		<tag k="name:smj" v="Ájládde" />
		<tag k="place" v="village" />
		<tag k="ssr:stedsnr" v="875937" />
	</node>
	<node id="-692250" lat="68.1870972192" lon="16.0188722221">
		<tag k="name" v="Litl Botn" />
		<tag k="name:no" v="Litl Botn" />
		<tag k="place" v="farm" />
		<tag k="ssr:stedsnr" v="218207" />
	</node>
	<node id="-692248" lat="68.2251972233" lon="16.0498472169">
		<tag k="name" v="Ytre Leiknesbø" />
		<tag k="name:no" v="Ytre Leiknesbø" />
		<tag k="place" v="farm" />
		<tag k="ssr:stedsnr" v="218094" />
	</node>
	<node id="-691972" lat="67.888058338" lon="16.2242999938">
		<tag k="name" v="Måsske - Musken" />
		<tag k="name:no" v="Musken" />
		<tag k="name:smj" v="Måsske" />
		<tag k="place" v="hamlet" />
		<tag k="ssr:stedsnr" v="81303" />
	</node>
	<node id="-691723" lat="68.1474583357" lon="16.1174694466">
		<tag k="name" v="Tjukkskogen" />
		<tag k="name:no" v="Tjukkskogen" />
		<tag k="place" v="locality" />
		<tag k="ssr:stedsnr" v="381723" />
	</node>
	<node id="-692233" lat="68.094399997" lon="16.3506388932">
		<tag k="name" v="Sommarset" />
		<tag k="name:no" v="Sommarset" />
		<tag k="place" v="quarter" />
		<tag k="ssr:stedsnr" v="204719" />
	</node>
	<node id="-693254" lat="68.0965944463" lon="16.3617333364">
		<tag k="name" v="Kleiva" />
		<tag k="name:no" v="Kleiva" />
		<tag k="place" v="quarter" />
		<tag k="ssr:stedsnr" v="871729" />
	</node>
	<node id="-693253" lat="68.223708329" lon="16.0583138954">
		<tag k="name" v="Myra" />
		<tag k="name:no" v="Myra" />
		<tag k="place" v="farm" />
		<tag k="ssr:stedsnr" v="871677" />
	</node>
	<node id="-692227" lat="67.9024194409" lon="16.1965222088">
		<tag k="name" v="Baddje-Smájlle" />
		<tag k="name:smj" v="Baddje-Smájlle" />
		<tag k="place" v="hamlet" />
		<tag k="ssr:stedsnr" v="204562" />
	</node>
	<node id="-691627" lat="68.1363999978" lon="16.1171777668">
		<tag k="name" v="Nergården" />
		<tag k="name:no" v="Nergården" />
		<tag k="place" v="farm" />
		<tag k="ssr:stedsnr" v="325874" />
	</node>
</osm>
