<?xml version="1.0" encoding="UTF-8"?>
<osm generator="osmapis" version="0.6">
	<node id="-693059" lat="68.0966277745" lon="16.3743305584">
		<tag k="amenity" v="place_of_worship" />
		<tag k="denomination" v="lutheran" />
		<tag k="name" v="Tysfjord" />
		<tag k="name:no" v="Tysfjord" />
		<tag k="religion" v="christian" />
		<tag k="ssr:stedsnr" v="771285" />
	</node>
	<node id="-692110" lat="68.0236833325" lon="16.1384027771">
		<tag k="cemetery" v="grave" />
		<tag k="name" v="Helland kirkegård" />
		<tag k="name:no" v="Helland kirkegård" />
		<tag k="place" v="locality" />
		<tag k="ssr:stedsnr" v="142542" />
	</node>
	<node id="-692467" lat="68.1426666665" lon="16.4017499883">
		<tag k="name" v="Lappkjerringan" />
		<tag k="name:no" v="Lappkjerringan" />
		<tag k="place" v="locality" />
		<tag k="ssr:stedsnr" v="446967" />
	</node>
	<node id="-692657" lat="68.2521083297" lon="16.0540583208">
		<tag k="alt_name:no" v="Korsneskirka" />
		<tag k="amenity" v="place_of_worship" />
		<tag k="denomination" v="lutheran" />
		<tag k="loc_name:smj" v="Hierenjárgga" />
		<tag k="name" v="Korsnes" />
		<tag k="name:no" v="Korsnes" />
		<tag k="religion" v="christian" />
		<tag k="ssr:stedsnr" v="563383" />
	</node>
</osm>
