<?xml version="1.0" encoding="UTF-8"?>
<osm generator="osmapis" version="0.6">
	<node id="-692215" lat="68.2584083311" lon="15.9379999987">
		<tag k="name" v="Naustvika" />
		<tag k="name:no" v="Naustvika" />
		<tag k="natural" v="bay" />
		<tag k="ssr:stedsnr" v="204469" />
	</node>
	<node id="-692213" lat="68.2646638933" lon="16.0054611022">
		<tag k="name" v="Litl-Hestvika" />
		<tag k="name:no" v="Litl-Hestvika" />
		<tag k="natural" v="bay" />
		<tag k="ssr:stedsnr" v="204449" />
	</node>
	<node id="-692210" lat="68.2379999961" lon="16.0683805469">
		<tag k="name" v="Leiknes" />
		<tag k="name:no" v="Leiknes" />
		<tag k="natural" v="cape" />
		<tag k="ssr:stedsnr" v="199829" />
	</node>
	<node id="-692205" lat="68.0149611149" lon="16.5052110994">
		<tag k="name" v="Tverrlandet" />
		<tag k="name:no" v="Tverrlandet" />
		<tag k="natural" v="beach" />
		<tag k="place" v="locality" />
		<tag k="ssr:stedsnr" v="199741" />
	</node>
	<node id="-692203" lat="68.1198583343" lon="16.1160333326">
		<tag k="name" v="Biesseluokta - Nevervika" />
		<tag k="name:no" v="Nevervika" />
		<tag k="name:smj" v="Biesseluokta" />
		<tag k="natural" v="bay" />
		<tag k="ssr:stedsnr" v="199723" />
	</node>
	<node id="-692198" lat="68.1263194447" lon="16.4936222138">
		<tag k="bay" v="fjord" />
		<tag k="fixme" v="multiple name tags, choose one and add the other to alt_name" />
		<tag k="name" v="Gievsfierdda - Indre Tysfjorden;Inner-Tysfjorden" />
		<tag k="name:no" v="Indre Tysfjorden;Inner-Tysfjorden" />
		<tag k="name:smj" v="Gievsfierdda" />
		<tag k="natural" v="bay" />
		<tag k="ssr:stedsnr" v="199574" />
	</node>
	<node id="-692196" lat="68.029355554" lon="16.343347227">
		<tag k="name" v="Bæravika" />
		<tag k="name:no" v="Bæravika" />
		<tag k="natural" v="bay" />
		<tag k="ssr:stedsnr" v="199534" />
	</node>
	<node id="-692195" lat="68.0269972218" lon="16.2345305486">
		<tag k="name" v="Ráhkasluokta - Eitervika" />
		<tag k="name:no" v="Eitervika" />
		<tag k="name:smj" v="Ráhkasluokta" />
		<tag k="natural" v="bay" />
		<tag k="ssr:stedsnr" v="199530" />
	</node>
	<node id="-692185" lat="68.2520305597" lon="16.0657777861">
		<tag k="name" v="Korsnesholmen" />
		<tag k="name:no" v="Korsnesholmen" />
		<tag k="place" v="islet" />
		<tag k="ssr:stedsnr" v="199407" />
	</node>
	<node id="-692184" lat="68.2762250036" lon="16.1401027875">
		<tag k="alt_name:no" v="Bremnesskjeret" />
		<tag k="fixme" v="consider seamark:type=rock or natural=shoal" />
		<tag k="name" v="Bremnesskjæret" />
		<tag k="name:no" v="Bremnesskjæret" />
		<tag k="place" v="islet" />
		<tag k="ssr:stedsnr" v="199400" />
	</node>
	<node id="-692183" lat="68.261374998" lon="15.9401805535">
		<tag k="name" v="Sørøya" />
		<tag k="name:no" v="Sørøya" />
		<tag k="place" v="island" />
		<tag k="ssr:stedsnr" v="199396" />
	</node>
	<node id="-692180" lat="67.8267277771" lon="16.4423500075">
		<tag k="name" v="Njoaskásj" />
		<tag k="name:smj" v="Njoaskásj" />
		<tag k="natural" v="beach" />
		<tag k="old_name:smj" v="Njoaskkaš" />
		<tag k="place" v="locality" />
		<tag k="ssr:stedsnr" v="199349" />
	</node>
	<node id="-692172" lat="67.9622194463" lon="16.2258055533">
		<tag k="loc_name:smj" v="Vuovddegiehtje" />
		<tag k="name" v="Vuovdegeahči" />
		<tag k="name:smj" v="Vuovdegeahči" />
		<tag k="natural" v="beach" />
		<tag k="place" v="locality" />
		<tag k="ssr:stedsnr" v="199301" />
	</node>
	<node id="-692161" lat="68.078566664" lon="16.3143722166">
		<tag k="alt_name:no" v="Risvika" />
		<tag k="name" v="Risvik" />
		<tag k="name:no" v="Risvik" />
		<tag k="natural" v="bay" />
		<tag k="ssr:stedsnr" v="198531" />
	</node>
	<node id="-692158" lat="68.1221250007" lon="16.4794916756">
		<tag k="name" v="Guhkanjárgga - Langnes" />
		<tag k="name:no" v="Langnes" />
		<tag k="name:smj" v="Guhkanjárgga" />
		<tag k="natural" v="cape" />
		<tag k="ssr:stedsnr" v="198824" />
	</node>
	<node id="-692156" lat="68.0571000029" lon="16.0757555611">
		<tag k="name" v="Svarthammarbukta" />
		<tag k="name:no" v="Svarthammarbukta" />
		<tag k="natural" v="bay" />
		<tag k="ssr:stedsnr" v="164937" />
	</node>
	<node id="-692155" lat="68.1052888882" lon="16.2278277823">
		<tag k="name" v="Indre Balten" />
		<tag k="name:no" v="Indre Balten" />
		<tag k="natural" v="shoal" />
		<tag k="place" v="locality" />
		<tag k="ssr:stedsnr" v="164567" />
	</node>
	<node id="-692154" lat="67.8274944426" lon="16.4757138893">
		<tag k="name" v="Roppinjárgga" />
		<tag k="name:smj" v="Roppinjárgga" />
		<tag k="natural" v="cape" />
		<tag k="ssr:stedsnr" v="164384" />
	</node>
	<node id="-692152" lat="68.2469611116" lon="15.9194944422">
		<tag k="name" v="Ellefsgrunnbåen" />
		<tag k="name:no" v="Ellefsgrunnbåen" />
		<tag k="natural" v="shoal" />
		<tag k="place" v="locality" />
		<tag k="ssr:stedsnr" v="157125" />
	</node>
	<node id="-692148" lat="68.2539027736" lon="16.0668166645">
		<tag k="name" v="Løktodden" />
		<tag k="name:no" v="Løktodden" />
		<tag k="natural" v="cape" />
		<tag k="ssr:stedsnr" v="146235" />
	</node>
	<node id="-692146" lat="68.2066083365" lon="16.4169888825">
		<tag k="name" v="Nordvalen" />
		<tag k="name:no" v="Nordvalen" />
		<tag k="natural" v="bay" />
		<tag k="ssr:stedsnr" v="143969" />
	</node>
	<node id="-692145" lat="68.2041888883" lon="16.3602972207">
		<tag k="name" v="Gullikheimvika" />
		<tag k="name:no" v="Gullikheimvika" />
		<tag k="natural" v="bay" />
		<tag k="ssr:stedsnr" v="143966" />
	</node>
	<node id="-692144" lat="68.1394472235" lon="16.4142055467">
		<tag k="name" v="Fuglfjordbotn" />
		<tag k="name:no" v="Fuglfjordbotn" />
		<tag k="natural" v="bay" />
		<tag k="ssr:stedsnr" v="143960" />
	</node>
	<node id="-692140" lat="67.9695166706" lon="16.3699250019">
		<tag k="name" v="Rånaholmen" />
		<tag k="name:no" v="Rånaholmen" />
		<tag k="place" v="islet" />
		<tag k="ssr:stedsnr" v="143896" />
	</node>
	<node id="-692138" lat="68.1449222209" lon="16.2508527734">
		<tag k="name" v="Grindvikneset" />
		<tag k="name:no" v="Grindvikneset" />
		<tag k="natural" v="cape" />
		<tag k="ssr:stedsnr" v="143889" />
	</node>
	<node id="-692136" lat="68.077683338" lon="16.6401388834">
		<tag k="name" v="Litlvika" />
		<tag k="name:no" v="Litlvika" />
		<tag k="natural" v="bay" />
		<tag k="ssr:stedsnr" v="143747" />
	</node>
	<node id="-692135" lat="68.0762999989" lon="16.6629916534">
		<tag k="name" v="Roavve" />
		<tag k="name:smj" v="Roavve" />
		<tag k="natural" v="bay" />
		<tag k="ssr:stedsnr" v="143744" />
	</node>
	<node id="-692134" lat="68.1097138881" lon="16.5343222196">
		<tag k="name" v="Forrhaugneset" />
		<tag k="name:no" v="Forrhaugneset" />
		<tag k="natural" v="cape" />
		<tag k="ssr:stedsnr" v="143742" />
	</node>
	<node id="-692127" lat="68.1263138901" lon="16.1099472262">
		<tag k="name" v="Knutvika" />
		<tag k="name:no" v="Knutvika" />
		<tag k="natural" v="bay" />
		<tag k="ssr:stedsnr" v="143610" />
	</node>
	<node id="-692117" lat="68.1926027761" lon="16.0266666774">
		<tag k="name" v="Forbarneset" />
		<tag k="name:no" v="Forbarneset" />
		<tag k="natural" v="cape" />
		<tag k="ssr:stedsnr" v="142667" />
	</node>
	<node id="-692106" lat="68.2618666633" lon="16.0328027676">
		<tag k="name" v="Herøyklubben" />
		<tag k="name:no" v="Herøyklubben" />
		<tag k="natural" v="cape" />
		<tag k="ssr:stedsnr" v="142484" />
	</node>
	<node id="-692105" lat="68.2637166696" lon="16.0149166624">
		<tag k="name" v="Hestvikskjæran" />
		<tag k="name:no" v="Hestvikskjæran" />
		<tag k="natural" v="bay" />
		<tag k="ssr:stedsnr" v="142480" />
	</node>
	<node id="-692104" lat="68.2518194468" lon="15.9410194451">
		<tag k="name" v="Kalvneset" />
		<tag k="name:no" v="Kalvneset" />
		<tag k="natural" v="cape" />
		<tag k="ssr:stedsnr" v="142477" />
	</node>
	<node id="-692102" lat="68.0565027807" lon="16.1893861112">
		<tag k="name" v="Hamnvika" />
		<tag k="name:no" v="Hamnvika" />
		<tag k="natural" v="bay" />
		<tag k="ssr:stedsnr" v="141626" />
	</node>
	<node id="-692100" lat="68.1966444421" lon="16.097233332">
		<tag k="name" v="Likholmen" />
		<tag k="name:no" v="Likholmen" />
		<tag k="place" v="islet" />
		<tag k="ssr:stedsnr" v="138818" />
	</node>
	<node id="-692098" lat="68.1839333363" lon="16.1396694479">
		<tag k="name" v="Stongnesvika" />
		<tag k="name:no" v="Stongnesvika" />
		<tag k="natural" v="bay" />
		<tag k="ssr:stedsnr" v="138806" />
	</node>
	<node id="-692097" lat="68.1899388893" lon="16.107380547">
		<tag k="alt_name:no" v="Kalvikstorvik;Kaldvikstorvika" />
		<tag k="fixme" v="multiple name tags, choose one and add the other to alt_name" />
		<tag k="name" v="Storvika;Kalvikstorvika" />
		<tag k="name:no" v="Storvika;Kalvikstorvika" />
		<tag k="natural" v="bay" />
		<tag k="ssr:stedsnr" v="138801" />
	</node>
	<node id="-692086" lat="68.0228388902" lon="16.5119722171">
		<tag k="name" v="Gáránisluokta - Kråkvika" />
		<tag k="name:no" v="Kråkvika" />
		<tag k="name:smj" v="Gáránisluokta" />
		<tag k="natural" v="bay" />
		<tag k="old_name:smj" v="Gáranasluokta" />
		<tag k="ssr:stedsnr" v="138743" />
	</node>
	<node id="-692085" lat="68.0048749955" lon="16.3049777853">
		<tag k="name" v="Tjåsskåluokta" />
		<tag k="name:smj" v="Tjåsskåluokta" />
		<tag k="natural" v="bay" />
		<tag k="ssr:stedsnr" v="138738" />
	</node>
	<node id="-692081" lat="68.1550138877" lon="16.2555861193">
		<tag k="name" v="Tørrskallen" />
		<tag k="name:no" v="Tørrskallen" />
		<tag k="natural" v="shoal" />
		<tag k="place" v="locality" />
		<tag k="ssr:stedsnr" v="138621" />
	</node>
	<node id="-692075" lat="68.1146027756" lon="16.4950805566">
		<tag k="name" v="Lagmannsneset" />
		<tag k="name:no" v="Lagmannsneset" />
		<tag k="natural" v="cape" />
		<tag k="ssr:stedsnr" v="138585" />
	</node>
	<node id="-692070" lat="68.2476388913" lon="16.32253611">
		<tag k="name" v="Ulvikklubben" />
		<tag k="name:no" v="Ulvikklubben" />
		<tag k="natural" v="cape" />
		<tag k="ssr:stedsnr" v="138557" />
	</node>
	<node id="-692069" lat="68.0789027746" lon="16.6423555591">
		<tag k="fixme" v="multiple name tags, choose one and add the other to alt_name" />
		<tag k="name" v="Nisgamneset;Nisskamneset" />
		<tag k="name:no" v="Nisgamneset;Nisskamneset" />
		<tag k="natural" v="cape" />
		<tag k="ssr:stedsnr" v="138555" />
	</node>
	<node id="-692061" lat="67.8673638907" lon="16.4044388993">
		<tag k="name" v="Tjierreknjárgga - Tenneset" />
		<tag k="name:no" v="Tenneset" />
		<tag k="name:smj" v="Tjierreknjárgga" />
		<tag k="natural" v="cape" />
		<tag k="old_name:smj" v="Čierregnjárga" />
		<tag k="ssr:stedsnr" v="138379" />
	</node>
	<node id="-692059" lat="67.9121611066" lon="16.2510916746">
		<tag k="name" v="Davveluokta - Ytterbukta" />
		<tag k="name:no" v="Ytterbukta" />
		<tag k="name:smj" v="Davveluokta" />
		<tag k="natural" v="bay" />
		<tag k="ssr:stedsnr" v="138355" />
	</node>
	<node id="-692049" lat="68.0888555585" lon="16.2452388994">
		<tag k="name" v="Urdvika" />
		<tag k="name:no" v="Urdvika" />
		<tag k="natural" v="bay" />
		<tag k="ssr:stedsnr" v="137807" />
	</node>
	<node id="-692046" lat="68.2747611115" lon="16.2407583257">
		<tag k="name" v="Hurimaklubben" />
		<tag k="name:no" v="Hurimaklubben" />
		<tag k="natural" v="cape" />
		<tag k="ssr:stedsnr" v="137540" />
	</node>
	<node id="-692043" lat="67.915852778" lon="16.2058638796">
		<tag k="name" v="Hurrenjárgga" />
		<tag k="name:smj" v="Hurrenjárgga" />
		<tag k="natural" v="cape" />
		<tag k="old_name:smj" v="Hurrenj'arga" />
		<tag k="ssr:stedsnr" v="137386" />
	</node>
	<node id="-692039" lat="67.8189555538" lon="16.4666805525">
		<tag k="name" v="Njuojkkom" />
		<tag k="name:smj" v="Njuojkkom" />
		<tag k="natural" v="bay" />
		<tag k="ssr:stedsnr" v="137094" />
	</node>
	<node id="-692038" lat="68.1289333292" lon="16.1138027821">
		<tag k="name" v="Lappodden" />
		<tag k="name:no" v="Lappodden" />
		<tag k="natural" v="cape" />
		<tag k="ssr:stedsnr" v="109653" />
	</node>
	<node id="-692037" lat="68.2414166627" lon="16.2170444448">
		<tag k="name" v="Storgrunnen" />
		<tag k="name:no" v="Storgrunnen" />
		<tag k="natural" v="bay" />
		<tag k="ssr:stedsnr" v="104416" />
	</node>
	<node id="-692036" lat="68.2359166657" lon="16.2448638784">
		<tag k="fixme" v="consider seamark:type=rock or natural=shoal" />
		<tag k="name" v="Lappvikskjæret" />
		<tag k="name:no" v="Lappvikskjæret" />
		<tag k="place" v="islet" />
		<tag k="ssr:stedsnr" v="104412" />
	</node>
	<node id="-692033" lat="67.9308333369" lon="16.4421000029">
		<tag k="fixme" v="consider seamark:type=rock or natural=shoal" />
		<tag k="name" v="Skarvsteinen" />
		<tag k="name:no" v="Skarvsteinen" />
		<tag k="place" v="islet" />
		<tag k="ssr:stedsnr" v="104093" />
	</node>
	<node id="-692032" lat="67.9656833313" lon="16.4908527748">
		<tag k="name" v="Stallabaut" />
		<tag k="name:no" v="Stallabaut" />
		<tag k="natural" v="bay" />
		<tag k="ssr:stedsnr" v="103230" />
	</node>
	<node id="-692026" lat="68.2689638859" lon="15.9957027656">
		<tag k="name" v="Sandvikskallen" />
		<tag k="name:no" v="Sandvikskallen" />
		<tag k="natural" v="shoal" />
		<tag k="place" v="locality" />
		<tag k="ssr:stedsnr" v="96108" />
	</node>
	<node id="-692023" lat="68.179927781" lon="16.0784555447">
		<tag k="name" v="Tømmervika" />
		<tag k="name:no" v="Tømmervika" />
		<tag k="natural" v="bay" />
		<tag k="ssr:stedsnr" v="87939" />
	</node>
	<node id="-692014" lat="68.2686388859" lon="16.2635361167">
		<tag k="name" v="Langnes" />
		<tag k="name:no" v="Langnes" />
		<tag k="natural" v="cape" />
		<tag k="ssr:stedsnr" v="82987" />
	</node>
	<node id="-692012" lat="68.196961108" lon="16.4165361113">
		<tag k="name" v="Tømmeråsneset" />
		<tag k="name:no" v="Tømmeråsneset" />
		<tag k="natural" v="cape" />
		<tag k="ssr:stedsnr" v="82966" />
	</node>
	<node id="-692011" lat="68.2000694405" lon="16.4158472274">
		<tag k="name" v="Haukøybukta" />
		<tag k="name:no" v="Haukøybukta" />
		<tag k="natural" v="bay" />
		<tag k="ssr:stedsnr" v="82963" />
	</node>
	<node id="-692006" lat="68.0430444445" lon="16.1770277797">
		<tag k="name" v="Sørodden" />
		<tag k="name:no" v="Sørodden" />
		<tag k="natural" v="cape" />
		<tag k="ssr:stedsnr" v="82888" />
	</node>
	<node id="-692004" lat="68.2145138871" lon="16.2140388756">
		<tag k="name" v="Rekvika" />
		<tag k="name:no" v="Rekvika" />
		<tag k="natural" v="bay" />
		<tag k="ssr:stedsnr" v="82935" />
	</node>
	<node id="-692001" lat="68.094252776" lon="16.5826500078">
		<tag k="name" v="Sølvsteinvika" />
		<tag k="name:no" v="Sølvsteinvika" />
		<tag k="natural" v="bay" />
		<tag k="ssr:stedsnr" v="82790" />
	</node>
	<node id="-691999" lat="68.0754666707" lon="16.6396583408">
		<tag k="name" v="Glensluokta - Glemslauta" />
		<tag k="name:no" v="Glemslauta" />
		<tag k="name:smj" v="Glensluokta" />
		<tag k="natural" v="bay" />
		<tag k="ssr:stedsnr" v="82761" />
	</node>
	<node id="-691997" lat="68.1309083372" lon="16.4485527665">
		<tag k="name" v="Båttovika" />
		<tag k="name:no" v="Båttovika" />
		<tag k="natural" v="bay" />
		<tag k="ssr:stedsnr" v="82743" />
	</node>
	<node id="-691995" lat="68.0782361121" lon="16.3934500032">
		<tag k="name" v="Ravsnjarka" />
		<tag k="name:no" v="Ravsnjarka" />
		<tag k="natural" v="cape" />
		<tag k="ssr:stedsnr" v="82732" />
	</node>
	<node id="-691994" lat="68.2594527814" lon="15.9280416789">
		<tag k="name" v="Sørøyodden" />
		<tag k="name:no" v="Sørøyodden" />
		<tag k="natural" v="cape" />
		<tag k="ssr:stedsnr" v="82719" />
	</node>
	<node id="-691988" lat="67.9033777742" lon="16.2003527665">
		<tag k="name" v="Smájlenjárgga" />
		<tag k="name:smj" v="Smájlenjárgga" />
		<tag k="natural" v="cape" />
		<tag k="ssr:stedsnr" v="82599" />
	</node>
	<node id="-691985" lat="68.0076305587" lon="16.177591665">
		<tag k="name" v="Milloluokta" />
		<tag k="name:smj" v="Milloluokta" />
		<tag k="natural" v="bay" />
		<tag k="ssr:stedsnr" v="82572" />
	</node>
	<node id="-691984" lat="68.0671694444" lon="16.1760444446">
		<tag k="name" v="Hulløynesnova" />
		<tag k="name:no" v="Hulløynesnova" />
		<tag k="natural" v="cape" />
		<tag k="ssr:stedsnr" v="82570" />
	</node>
	<node id="-691976" lat="68.2513444448" lon="15.9422111083">
		<tag k="name" v="Rekvika" />
		<tag k="name:no" v="Rekvika" />
		<tag k="natural" v="bay" />
		<tag k="ssr:stedsnr" v="82523" />
	</node>
	<node id="-691956" lat="68.0944694486" lon="16.2752500059">
		<tag k="name" v="Goarvenjárgga - Korvikneset" />
		<tag k="name:no" v="Korvikneset" />
		<tag k="name:smj" v="Goarvenjárgga" />
		<tag k="natural" v="cape" />
		<tag k="old_name:smj" v="Goarvenjárga" />
		<tag k="ssr:stedsnr" v="78577" />
	</node>
	<node id="-691952" lat="68.0185888863" lon="16.1643749909">
		<tag k="name" v="Skjånes" />
		<tag k="name:no" v="Skjånes" />
		<tag k="natural" v="cape" />
		<tag k="ssr:stedsnr" v="78521" />
	</node>
	<node id="-691949" lat="68.2644833383" lon="15.9846166567">
		<tag k="name" v="Ytter-Sandvika" />
		<tag k="name:no" v="Ytter-Sandvika" />
		<tag k="natural" v="bay" />
		<tag k="ssr:stedsnr" v="78389" />
	</node>
	<node id="-691937" lat="67.89500278" lon="16.2583972338">
		<tag k="name" v="Bårjåsnjárgga - Segelneset" />
		<tag k="name:no" v="Segelneset" />
		<tag k="name:smj" v="Bårjåsnjárgga" />
		<tag k="natural" v="cape" />
		<tag k="ssr:stedsnr" v="78316" />
	</node>
	<node id="-691934" lat="68.2412805568" lon="15.9424055588">
		<tag k="fixme" v="consider seamark:type=rock or natural=shoal" />
		<tag k="name" v="Storskjæret" />
		<tag k="name:no" v="Storskjæret" />
		<tag k="place" v="islet" />
		<tag k="ssr:stedsnr" v="77838" />
	</node>
	<node id="-691933" lat="68.2326472241" lon="16.1865388902">
		<tag k="name" v="Skarbergneset" />
		<tag k="name:no" v="Skarbergneset" />
		<tag k="natural" v="cape" />
		<tag k="ssr:stedsnr" v="77820" />
	</node>
	<node id="-691922" lat="68.2592611139" lon="16.2773861087">
		<tag k="name" v="Sølvnes" />
		<tag k="name:no" v="Sølvnes" />
		<tag k="natural" v="cape" />
		<tag k="ssr:stedsnr" v="77583" />
	</node>
	<node id="-691921" lat="68.2586999981" lon="16.2872555432">
		<tag k="name" v="Skårnesodden" />
		<tag k="name:no" v="Skårnesodden" />
		<tag k="natural" v="cape" />
		<tag k="ssr:stedsnr" v="77576" />
	</node>
	<node id="-691911" lat="67.9809777793" lon="16.452061115">
		<tag k="name" v="Banetodden" />
		<tag k="name:no" v="Banetodden" />
		<tag k="natural" v="cape" />
		<tag k="ssr:stedsnr" v="77303" />
	</node>
	<node id="-691909" lat="67.9542944472" lon="16.3770055639">
		<tag k="name" v="Rijdagádde" />
		<tag k="name:smj" v="Rijdagádde" />
		<tag k="natural" v="beach" />
		<tag k="place" v="locality" />
		<tag k="ssr:stedsnr" v="77286" />
	</node>
	<node id="-691905" lat="68.0666444452" lon="16.3393861189">
		<tag k="name" v="Svartskjærgrunnen" />
		<tag k="name:no" v="Svartskjærgrunnen" />
		<tag k="natural" v="shoal" />
		<tag k="place" v="locality" />
		<tag k="ssr:stedsnr" v="43300" />
	</node>
	<node id="-691904" lat="68.2071472262" lon="16.2110000042">
		<tag k="name" v="Skarberggrunnen" />
		<tag k="name:no" v="Skarberggrunnen" />
		<tag k="natural" v="bay" />
		<tag k="ssr:stedsnr" v="43416" />
	</node>
	<node id="-691903" lat="68.0122972213" lon="16.4951222215">
		<tag k="name" v="Furuneset" />
		<tag k="name:no" v="Furuneset" />
		<tag k="natural" v="cape" />
		<tag k="ssr:stedsnr" v="43197" />
	</node>
	<node id="-691902" lat="68.17739444" lon="16.5919444491">
		<tag k="name" v="Steneset" />
		<tag k="name:no" v="Steneset" />
		<tag k="natural" v="cape" />
		<tag k="ssr:stedsnr" v="42304" />
	</node>
	<node id="-691901" lat="68.0866805529" lon="16.5368333407">
		<tag k="name" v="Slåtvika" />
		<tag k="name:no" v="Slåtvika" />
		<tag k="natural" v="beach" />
		<tag k="place" v="locality" />
		<tag k="ssr:stedsnr" v="42149" />
	</node>
	<node id="-691898" lat="68.2587250033" lon="16.1558083393">
		<tag k="name" v="Simagrunnen" />
		<tag k="name:no" v="Simagrunnen" />
		<tag k="natural" v="shoal" />
		<tag k="place" v="locality" />
		<tag k="ssr:stedsnr" v="36966" />
	</node>
	<node id="-691896" lat="68.1393361115" lon="16.3086000081">
		<tag k="name" v="Skredbukta" />
		<tag k="name:no" v="Skredbukta" />
		<tag k="natural" v="bay" />
		<tag k="ssr:stedsnr" v="22960" />
	</node>
	<node id="-691885" lat="68.1015055521" lon="16.5494833281">
		<tag k="name" v="Forrhauglandet" />
		<tag k="name:no" v="Forrhauglandet" />
		<tag k="natural" v="beach" />
		<tag k="place" v="locality" />
		<tag k="ssr:stedsnr" v="22754" />
	</node>
	<node id="-691884" lat="68.2397916658" lon="15.9515000042">
		<tag k="name" v="Einbærvika" />
		<tag k="name:no" v="Einbærvika" />
		<tag k="natural" v="bay" />
		<tag k="ssr:stedsnr" v="22716" />
	</node>
	<node id="-691879" lat="68.1020861096" lon="16.1017083369">
		<tag k="name" v="Innersida" />
		<tag k="name:no" v="Innersida" />
		<tag k="natural" v="beach" />
		<tag k="place" v="locality" />
		<tag k="ssr:stedsnr" v="22542" />
	</node>
	<node id="-691877" lat="68.2529000027" lon="15.9311222206">
		<tag k="name" v="Litl-Rekvikneset" />
		<tag k="name:no" v="Litl-Rekvikneset" />
		<tag k="natural" v="cape" />
		<tag k="ssr:stedsnr" v="22514" />
	</node>
	<node id="-691874" lat="68.2651527807" lon="15.9942777892">
		<tag k="name" v="Inner-Sandvika" />
		<tag k="name:no" v="Inner-Sandvika" />
		<tag k="natural" v="bay" />
		<tag k="ssr:stedsnr" v="22492" />
	</node>
	<node id="-691867" lat="68.2063277815" lon="16.1187583264">
		<tag k="alt_name:no" v="Beitsfjordneset" />
		<tag k="name" v="Beisfjordneset" />
		<tag k="name:no" v="Beisfjordneset" />
		<tag k="natural" v="cape" />
		<tag k="ssr:stedsnr" v="17827" />
	</node>
	<node id="-691858" lat="68.0709333294" lon="16.1970861094">
		<tag k="name" v="Gådjeluokta - Grindvika" />
		<tag k="name:no" v="Grindvika" />
		<tag k="name:smj" v="Gådjeluokta" />
		<tag k="natural" v="bay" />
		<tag k="ssr:stedsnr" v="17666" />
	</node>
	<node id="-691853" lat="68.1633388925" lon="16.4153555644">
		<tag k="name" v="Ráppáluokta - Krabbvika" />
		<tag k="name:no" v="Krabbvika" />
		<tag k="name:smj" v="Ráppáluokta" />
		<tag k="natural" v="bay" />
		<tag k="ssr:stedsnr" v="17623" />
	</node>
	<node id="-691850" lat="68.0269499982" lon="16.1528194403">
		<tag k="name" v="Hellandskjånes" />
		<tag k="name:no" v="Hellandskjånes" />
		<tag k="natural" v="cape" />
		<tag k="ssr:stedsnr" v="17590" />
	</node>
	<node id="-691848" lat="68.1202833328" lon="16.5382666776">
		<tag k="name" v="Spálsgádde" />
		<tag k="name:smj" v="Spálsgádde" />
		<tag k="natural" v="beach" />
		<tag k="place" v="locality" />
		<tag k="ssr:stedsnr" v="17587" />
	</node>
	<node id="-691841" lat="68.035927775" lon="16.2358138772">
		<tag k="name" v="Rigánjárgga - Mannfjordneset" />
		<tag k="name:no" v="Mannfjordneset" />
		<tag k="name:smj" v="Rigánjárgga" />
		<tag k="natural" v="cape" />
		<tag k="ssr:stedsnr" v="17528" />
	</node>
	<node id="-691838" lat="68.2631333316" lon="16.1757055531">
		<tag k="name" v="Bietsisjsuoloj - Bekkenesholmen" />
		<tag k="name:no" v="Bekkenesholmen" />
		<tag k="name:smj" v="Bietsisjsuoloj" />
		<tag k="place" v="islet" />
		<tag k="ssr:stedsnr" v="17419" />
	</node>
	<node id="-691822" lat="68.0934972208" lon="16.3611722171">
		<tag k="name" v="Kjøpsvika" />
		<tag k="name:no" v="Kjøpsvika" />
		<tag k="natural" v="bay" />
		<tag k="ssr:stedsnr" v="16513" />
	</node>
	<node id="-691801" lat="68.0127000016" lon="16.3240555543">
		<tag k="name" v="Glettigrunnen" />
		<tag k="name:no" v="Glettigrunnen" />
		<tag k="natural" v="shoal" />
		<tag k="place" v="locality" />
		<tag k="ssr:stedsnr" v="893074" />
	</node>
	<node id="-691800" lat="67.9687111119" lon="16.4703777711">
		<tag k="name" v="Eidvika" />
		<tag k="name:no" v="Eidvika" />
		<tag k="natural" v="bay" />
		<tag k="ssr:stedsnr" v="893018" />
	</node>
	<node id="-691799" lat="68.1110333353" lon="16.2212833309">
		<tag k="name" v="Ytre Balten" />
		<tag k="name:no" v="Ytre Balten" />
		<tag k="natural" v="shoal" />
		<tag k="place" v="locality" />
		<tag k="ssr:stedsnr" v="892481" />
	</node>
	<node id="-691797" lat="68.235761112" lon="16.2345805668">
		<tag k="name" v="Kobbsteinen" />
		<tag k="name:no" v="Kobbsteinen" />
		<tag k="natural" v="shoal" />
		<tag k="place" v="locality" />
		<tag k="ssr:stedsnr" v="892417" />
	</node>
	<node id="-691796" lat="67.8336972228" lon="16.4504500068">
		<tag k="name" v="Kidbukta" />
		<tag k="name:no" v="Kidbukta" />
		<tag k="natural" v="bay" />
		<tag k="ssr:stedsnr" v="892314" />
	</node>
	<node id="-691795" lat="67.9863111102" lon="16.4725694399">
		<tag k="name" v="Verka" />
		<tag k="name:no" v="Verka" />
		<tag k="natural" v="bay" />
		<tag k="ssr:stedsnr" v="892241" />
	</node>
	<node id="-691792" lat="68.1949916666" lon="16.1203638908">
		<tag k="name" v="Tjeldnes" />
		<tag k="name:no" v="Tjeldnes" />
		<tag k="natural" v="cape" />
		<tag k="ssr:stedsnr" v="889237" />
	</node>
	<node id="-691791" lat="68.2637277827" lon="16.0436555454">
		<tag k="name" v="Ørskalskjæret" />
		<tag k="name:no" v="Ørskalskjæret" />
		<tag k="natural" v="shoal" />
		<tag k="place" v="locality" />
		<tag k="ssr:stedsnr" v="885084" />
	</node>
	<node id="-691788" lat="67.9579361075" lon="16.2816472317">
		<tag k="name" v="Søtneset" />
		<tag k="name:no" v="Søtneset" />
		<tag k="natural" v="cape" />
		<tag k="ssr:stedsnr" v="407914" />
	</node>
	<node id="-691787" lat="68.0546055593" lon="16.3581138945">
		<tag k="name" v="Mannberget" />
		<tag k="name:no" v="Mannberget" />
		<tag k="natural" v="cape" />
		<tag k="ssr:stedsnr" v="407148" />
	</node>
	<node id="-691785" lat="68.0361750018" lon="16.3768972136">
		<tag k="name" v="Grindvikneset" />
		<tag k="name:no" v="Grindvikneset" />
		<tag k="natural" v="cape" />
		<tag k="ssr:stedsnr" v="403191" />
	</node>
	<node id="-691782" lat="68.1843388869" lon="16.0399472116">
		<tag k="fixme" v="consider seamark:type=rock or natural=shoal" />
		<tag k="name" v="Valan" />
		<tag k="name:no" v="Valan" />
		<tag k="place" v="islet" />
		<tag k="ssr:stedsnr" v="400196" />
	</node>
	<node id="-691781" lat="68.260180552" lon="16.0583722184">
		<tag k="name" v="Johaugskallen" />
		<tag k="name:no" v="Johaugskallen" />
		<tag k="natural" v="shoal" />
		<tag k="place" v="locality" />
		<tag k="ssr:stedsnr" v="400094" />
	</node>
	<node id="-691778" lat="68.1789527791" lon="16.0922027775">
		<tag k="name" v="Osen" />
		<tag k="name:no" v="Osen" />
		<tag k="natural" v="bay" />
		<tag k="ssr:stedsnr" v="390960" />
	</node>
	<node id="-691776" lat="68.1084138899" lon="16.4555916758">
		<tag k="name" v="Litlvika" />
		<tag k="name:no" v="Litlvika" />
		<tag k="natural" v="bay" />
		<tag k="ssr:stedsnr" v="385999" />
	</node>
	<node id="-691772" lat="68.1584944475" lon="16.3398722175">
		<tag k="name" v="Bergkråa" />
		<tag k="name:no" v="Bergkråa" />
		<tag k="natural" v="bay" />
		<tag k="ssr:stedsnr" v="385956" />
	</node>
	<node id="-691767" lat="67.9437611093" lon="16.4502277843">
		<tag k="name" v="Gájttsaluokta - Geitvika" />
		<tag k="name:no" v="Geitvika" />
		<tag k="name:smj" v="Gájttsaluokta" />
		<tag k="natural" v="bay" />
		<tag k="ssr:stedsnr" v="385909" />
	</node>
	<node id="-691765" lat="68.1372277741" lon="16.1192916539">
		<tag k="name" v="Ráluokta - Rørvika" />
		<tag k="name:no" v="Rørvika" />
		<tag k="name:smj" v="Ráluokta" />
		<tag k="natural" v="bay" />
		<tag k="ssr:stedsnr" v="385897" />
	</node>
	<node id="-691763" lat="68.0587166666" lon="16.180355551">
		<tag k="name" v="Hulløyneset" />
		<tag k="name:no" v="Hulløyneset" />
		<tag k="natural" v="cape" />
		<tag k="ssr:stedsnr" v="385882" />
	</node>
	<node id="-691761" lat="68.0296583327" lon="16.3192055567">
		<tag k="name" v="Tjårrnes" />
		<tag k="name:no" v="Tjårrnes" />
		<tag k="natural" v="cape" />
		<tag k="ssr:stedsnr" v="385784" />
	</node>
	<node id="-691760" lat="68.1819527751" lon="16.4804972087">
		<tag k="name" v="Urvika" />
		<tag k="name:no" v="Urvika" />
		<tag k="natural" v="bay" />
		<tag k="ssr:stedsnr" v="385781" />
	</node>
	<node id="-691756" lat="68.2627999958" lon="15.9488944477">
		<tag k="name" v="Karvistranda" />
		<tag k="name:no" v="Karvistranda" />
		<tag k="natural" v="beach" />
		<tag k="place" v="locality" />
		<tag k="ssr:stedsnr" v="385744" />
	</node>
	<node id="-691753" lat="68.0417138907" lon="16.093836111">
		<tag k="fixme" v="consider seamark:type=rock or natural=shoal" />
		<tag k="name" v="Revskjeret" />
		<tag k="name:no" v="Revskjeret" />
		<tag k="place" v="islet" />
		<tag k="ssr:stedsnr" v="385684" />
	</node>
	<node id="-691742" lat="68.2653305581" lon="16.0004083317">
		<tag k="name" v="Sandvikneset" />
		<tag k="name:no" v="Sandvikneset" />
		<tag k="natural" v="cape" />
		<tag k="ssr:stedsnr" v="385497" />
	</node>
	<node id="-691730" lat="68.2538138859" lon="15.9387472166">
		<tag k="name" v="Litl-Rekvika" />
		<tag k="name:no" v="Litl-Rekvika" />
		<tag k="natural" v="bay" />
		<tag k="ssr:stedsnr" v="385527" />
	</node>
	<node id="-691728" lat="68.2650916657" lon="15.9675000076">
		<tag k="name" v="Naustvika" />
		<tag k="name:no" v="Naustvika" />
		<tag k="natural" v="bay" />
		<tag k="ssr:stedsnr" v="385502" />
	</node>
	<node id="-691726" lat="68.1933749979" lon="16.091044432">
		<tag k="name" v="Gullikøya" />
		<tag k="name:no" v="Gullikøya" />
		<tag k="place" v="island" />
		<tag k="ssr:stedsnr" v="381834" />
	</node>
	<node id="-691722" lat="68.0755194436" lon="16.0998722168">
		<tag k="name" v="Langvika" />
		<tag k="name:no" v="Langvika" />
		<tag k="natural" v="bay" />
		<tag k="ssr:stedsnr" v="381660" />
	</node>
	<node id="-691720" lat="68.1458555595" lon="16.3395388924">
		<tag k="name" v="Straumsnes" />
		<tag k="name:no" v="Straumsnes" />
		<tag k="natural" v="cape" />
		<tag k="ssr:stedsnr" v="381631" />
	</node>
	<node id="-691719" lat="68.0592916644" lon="16.157791666">
		<tag k="name" v="Hulløynesholmen" />
		<tag k="name:no" v="Hulløynesholmen" />
		<tag k="place" v="islet" />
		<tag k="ssr:stedsnr" v="381611" />
	</node>
	<node id="-691718" lat="68.0635611108" lon="16.1909638925">
		<tag k="name" v="Ulli - Hulløya" />
		<tag k="name:no" v="Hulløya" />
		<tag k="name:smj" v="Ulli" />
		<tag k="place" v="island" />
		<tag k="ssr:stedsnr" v="381612" />
	</node>
	<node id="-691717" lat="68.0600194432" lon="16.1412555456">
		<tag k="name" v="Suolojgiesjnjuorra - Ytter-Hulløynesgrunnen" />
		<tag k="name:no" v="Ytter-Hulløynesgrunnen" />
		<tag k="name:smj" v="Suolojgiesjnjuorra" />
		<tag k="natural" v="shoal" />
		<tag k="place" v="locality" />
		<tag k="ssr:stedsnr" v="381610" />
	</node>
	<node id="-691716" lat="68.1645972183" lon="16.3459694342">
		<tag k="name" v="Bergneset" />
		<tag k="name:no" v="Bergneset" />
		<tag k="natural" v="cape" />
		<tag k="ssr:stedsnr" v="381603" />
	</node>
	<node id="-691711" lat="68.121755551" lon="16.298772223">
		<tag k="name" v="Kobbvikklubben" />
		<tag k="name:no" v="Kobbvikklubben" />
		<tag k="natural" v="cape" />
		<tag k="ssr:stedsnr" v="381568" />
	</node>
	<node id="-691707" lat="68.0440527767" lon="16.2703888899">
		<tag k="name" v="Borgodden" />
		<tag k="name:no" v="Borgodden" />
		<tag k="natural" v="cape" />
		<tag k="ssr:stedsnr" v="381507" />
	</node>
	<node id="-691694" lat="67.924238893" lon="16.4255722189">
		<tag k="name" v="Guovddelis-Bælgga" />
		<tag k="name:smj" v="Guovddelis-Bælgga" />
		<tag k="natural" v="beach" />
		<tag k="old_name:smj" v="Guovdelisbealga" />
		<tag k="place" v="locality" />
		<tag k="ssr:stedsnr" v="381335" />
	</node>
	<node id="-691688" lat="68.0577416622" lon="16.1782194457">
		<tag k="name" v="Suolojgiehtje - Hulløynesodden" />
		<tag k="name:no" v="Hulløynesodden" />
		<tag k="name:smj" v="Suolojgiehtje" />
		<tag k="natural" v="cape" />
		<tag k="ssr:stedsnr" v="380651" />
	</node>
	<node id="-691682" lat="68.0869388856" lon="16.7053583407">
		<tag k="name" v="Ytterpollen" />
		<tag k="name:no" v="Ytterpollen" />
		<tag k="natural" v="bay" />
		<tag k="ssr:stedsnr" v="380573" />
	</node>
	<node id="-691664" lat="67.8215499971" lon="16.4554277649">
		<tag k="name" v="Suollagluokta" />
		<tag k="name:smj" v="Suollagluokta" />
		<tag k="natural" v="bay" />
		<tag k="ssr:stedsnr" v="380130" />
	</node>
	<node id="-691660" lat="68.062000004" lon="16.3234277684">
		<tag k="fixme" v="consider seamark:type=rock or natural=shoal" />
		<tag k="name" v="Ankerskjæret" />
		<tag k="name:no" v="Ankerskjæret" />
		<tag k="place" v="islet" />
		<tag k="ssr:stedsnr" v="346322" />
	</node>
	<node id="-691658" lat="68.0917083337" lon="16.6306249931">
		<tag k="name" v="Tjuvsteinlandet" />
		<tag k="name:no" v="Tjuvsteinlandet" />
		<tag k="natural" v="beach" />
		<tag k="place" v="locality" />
		<tag k="ssr:stedsnr" v="346168" />
	</node>
	<node id="-691657" lat="68.0747694402" lon="16.6723388872">
		<tag k="name" v="Roveneset" />
		<tag k="name:no" v="Roveneset" />
		<tag k="natural" v="cape" />
		<tag k="ssr:stedsnr" v="345154" />
	</node>
	<node id="-691653" lat="68.1987583365" lon="16.1258083387">
		<tag k="name" v="Tjeldhamngrunnen" />
		<tag k="name:no" v="Tjeldhamngrunnen" />
		<tag k="natural" v="shoal" />
		<tag k="place" v="locality" />
		<tag k="ssr:stedsnr" v="340151" />
	</node>
	<node id="-691652" lat="68.2766138903" lon="16.2196694474">
		<tag k="name" v="Skargrunnen" />
		<tag k="name:no" v="Skargrunnen" />
		<tag k="natural" v="shoal" />
		<tag k="place" v="locality" />
		<tag k="ssr:stedsnr" v="339960" />
	</node>
	<node id="-691639" lat="68.1274166639" lon="16.2977666722">
		<tag k="name" v="Litlneset" />
		<tag k="name:no" v="Litlneset" />
		<tag k="natural" v="cape" />
		<tag k="ssr:stedsnr" v="325954" />
	</node>
	<node id="-691638" lat="68.2322833345" lon="16.2378138834">
		<tag k="name" v="Langosen" />
		<tag k="name:no" v="Langosen" />
		<tag k="natural" v="bay" />
		<tag k="ssr:stedsnr" v="325943" />
	</node>
	<node id="-691636" lat="68.2115194422" lon="16.1960749895">
		<tag k="name" v="Inner-Skarbergneset" />
		<tag k="name:no" v="Inner-Skarbergneset" />
		<tag k="natural" v="cape" />
		<tag k="ssr:stedsnr" v="325929" />
	</node>
	<node id="-691628" lat="67.9710999972" lon="16.3687666647">
		<tag k="name" v="Rånavika" />
		<tag k="name:no" v="Rånavika" />
		<tag k="natural" v="bay" />
		<tag k="ssr:stedsnr" v="325877" />
	</node>
	<node id="-691626" lat="68.1330861134" lon="16.2551250117">
		<tag k="name" v="Gámánjuorra - Lappgamgrunnen" />
		<tag k="name:no" v="Lappgamgrunnen" />
		<tag k="name:smj" v="Gámánjuorra" />
		<tag k="natural" v="shoal" />
		<tag k="place" v="locality" />
		<tag k="ssr:stedsnr" v="325869" />
	</node>
	<node id="-691622" lat="68.0646749988" lon="16.6522916547">
		<tag k="fixme" v="multiple name tags, choose one and add the other to alt_name" />
		<tag k="name" v="Asplauta;Aspluokta" />
		<tag k="name:no" v="Asplauta;Aspluokta" />
		<tag k="natural" v="bay" />
		<tag k="ssr:stedsnr" v="325743" />
	</node>
	<node id="-691621" lat="68.068205559" lon="16.6459249885">
		<tag k="name" v="Elvneset" />
		<tag k="name:no" v="Elvneset" />
		<tag k="natural" v="cape" />
		<tag k="ssr:stedsnr" v="325741" />
	</node>
	<node id="-691618" lat="68.1994777819" lon="16.4486611028">
		<tag k="name" v="Teistbergvika" />
		<tag k="name:no" v="Teistbergvika" />
		<tag k="natural" v="bay" />
		<tag k="ssr:stedsnr" v="325729" />
	</node>
	<node id="-691616" lat="68.091641666" lon="16.3653611137">
		<tag k="name" v="Johola" />
		<tag k="name:no" v="Johola" />
		<tag k="natural" v="bay" />
		<tag k="ssr:stedsnr" v="325725" />
	</node>
	<node id="-691615" lat="68.0914027752" lon="16.3668777705">
		<tag k="name" v="Orneset" />
		<tag k="name:no" v="Orneset" />
		<tag k="natural" v="cape" />
		<tag k="ssr:stedsnr" v="325721" />
	</node>
	<node id="-691606" lat="68.1892250037" lon="16.0286583327">
		<tag k="name" v="Litl-Botnhola" />
		<tag k="name:no" v="Litl-Botnhola" />
		<tag k="natural" v="bay" />
		<tag k="ssr:stedsnr" v="325651" />
	</node>
	<node id="-691604" lat="67.8898555516" lon="16.2199833263">
		<tag k="name" v="Stráddugiehtje" />
		<tag k="name:smj" v="Stráddugiehtje" />
		<tag k="natural" v="beach" />
		<tag k="place" v="locality" />
		<tag k="ssr:stedsnr" v="325601" />
	</node>
	<node id="-691592" lat="68.2554861085" lon="15.935219451">
		<tag k="fixme" v="consider seamark:type=rock or natural=shoal" />
		<tag k="name" v="Finnstadskjæret" />
		<tag k="name:no" v="Finnstadskjæret" />
		<tag k="place" v="islet" />
		<tag k="ssr:stedsnr" v="325520" />
	</node>
	<node id="-691583" lat="68.2060333367" lon="16.3867527781">
		<tag k="name" v="Haukøya" />
		<tag k="name:no" v="Haukøya" />
		<tag k="natural" v="cape" />
		<tag k="ssr:stedsnr" v="324521" />
	</node>
	<node id="-691578" lat="68.2373500015" lon="15.9581666769">
		<tag k="name" v="Molvika" />
		<tag k="name:no" v="Molvika" />
		<tag k="natural" v="bay" />
		<tag k="ssr:stedsnr" v="320847" />
	</node>
	<node id="-691577" lat="68.1821416702" lon="16.0608861221">
		<tag k="alt_name:no" v="Forbardneset" />
		<tag k="name" v="Forbarneset" />
		<tag k="name:no" v="Forbarneset" />
		<tag k="natural" v="cape" />
		<tag k="ssr:stedsnr" v="320829" />
	</node>
	<node id="-691575" lat="68.1851361146" lon="16.1783666566">
		<tag k="bay" v="fjord" />
		<tag k="name" v="Divtasvuodna - Tysfjorden" />
		<tag k="name:no" v="Tysfjorden" />
		<tag k="name:smj" v="Divtasvuodna" />
		<tag k="natural" v="bay" />
		<tag k="ssr:stedsnr" v="320809" />
	</node>
	<node id="-691573" lat="68.1683249967" lon="16.1384388817">
		<tag k="alt_name:no" v="Forsastorvik" />
		<tag k="name" v="Forsåstorvika" />
		<tag k="name:no" v="Forsåstorvika" />
		<tag k="natural" v="bay" />
		<tag k="ssr:stedsnr" v="320759" />
	</node>
	<node id="-691562" lat="68.157580555" lon="16.411219435">
		<tag k="name" v="Boallonjárgga - Knappneset" />
		<tag k="name:no" v="Knappneset" />
		<tag k="name:smj" v="Boallonjárgga" />
		<tag k="natural" v="cape" />
		<tag k="ssr:stedsnr" v="320599" />
	</node>
	<node id="-691561" lat="68.1669861078" lon="16.3914805575">
		<tag k="bay" v="fjord" />
		<tag k="name" v="Låttevuodna - Fuglfjorden" />
		<tag k="name:no" v="Fuglfjorden" />
		<tag k="name:smj" v="Låttevuodna" />
		<tag k="natural" v="bay" />
		<tag k="ssr:stedsnr" v="320592" />
	</node>
	<node id="-691552" lat="68.264800001" lon="16.3160583427">
		<tag k="name" v="Sildvågen" />
		<tag k="name:no" v="Sildvågen" />
		<tag k="natural" v="bay" />
		<tag k="ssr:stedsnr" v="320543" />
	</node>
	<node id="-691549" lat="68.0777694488" lon="16.3280777703">
		<tag k="name" v="Gåvsnåjnjárgga - Kongsnes" />
		<tag k="name:no" v="Kongsnes" />
		<tag k="name:smj" v="Gåvsnåjnjárgga" />
		<tag k="natural" v="cape" />
		<tag k="old_name:smj" v="Govsnonjárga" />
		<tag k="ssr:stedsnr" v="320525" />
	</node>
	<node id="-691548" lat="68.0800972213" lon="16.3597333278">
		<tag k="name" v="Lappholmen" />
		<tag k="name:no" v="Lappholmen" />
		<tag k="place" v="islet" />
		<tag k="ssr:stedsnr" v="320526" />
	</node>
	<node id="-691545" lat="68.2160805532" lon="16.3640805436">
		<tag k="bay" v="fjord" />
		<tag k="name" v="Áhkávuodna - Stefjorden" />
		<tag k="name:no" v="Stefjorden" />
		<tag k="name:smj" v="Áhkávuodna" />
		<tag k="natural" v="bay" />
		<tag k="ssr:stedsnr" v="320502" />
	</node>
	<node id="-691540" lat="68.059077779" lon="16.3311277768">
		<tag k="fixme" v="consider seamark:type=rock or natural=shoal" />
		<tag k="name" v="Sandskjeret" />
		<tag k="name:no" v="Sandskjeret" />
		<tag k="place" v="islet" />
		<tag k="ssr:stedsnr" v="320492" />
	</node>
	<node id="-691539" lat="68.2668499965" lon="15.9661555454">
		<tag k="name" v="Fiskholmen" />
		<tag k="name:no" v="Fiskholmen" />
		<tag k="place" v="islet" />
		<tag k="ssr:stedsnr" v="320395" />
	</node>
	<node id="-691537" lat="67.8653861083" lon="16.3502666551">
		<tag k="name" v="Vásjoalol" />
		<tag k="name:smj" v="Vásjoalol" />
		<tag k="natural" v="cape" />
		<tag k="old_name:smj" v="Váššoalul" />
		<tag k="ssr:stedsnr" v="320369" />
	</node>
	<node id="-691529" lat="67.9515305542" lon="16.4001027789">
		<tag k="name" v="Garváldak - Garvaneset" />
		<tag k="name:no" v="Garvaneset" />
		<tag k="name:smj" v="Garváldak" />
		<tag k="natural" v="cape" />
		<tag k="ssr:stedsnr" v="320284" />
	</node>
	<node id="-691520" lat="68.1718666654" lon="16.2626027871">
		<tag k="name" v="Haukøygrunnen" />
		<tag k="name:no" v="Haukøygrunnen" />
		<tag k="natural" v="shoal" />
		<tag k="place" v="locality" />
		<tag k="ssr:stedsnr" v="286496" />
	</node>
	<node id="-691519" lat="68.2094222264" lon="16.2499249914">
		<tag k="name" v="Makkholmen" />
		<tag k="name:no" v="Makkholmen" />
		<tag k="place" v="islet" />
		<tag k="ssr:stedsnr" v="286445" />
	</node>
	<node id="-691518" lat="68.1424333319" lon="16.1297416695">
		<tag k="fixme" v="consider seamark:type=rock or natural=shoal" />
		<tag k="name" v="Rørvikskjæret" />
		<tag k="name:no" v="Rørvikskjæret" />
		<tag k="place" v="islet" />
		<tag k="ssr:stedsnr" v="286381" />
	</node>
	<node id="-691516" lat="67.9290888905" lon="16.4208333401">
		<tag k="name" v="Ytterbælkodden" />
		<tag k="name:no" v="Ytterbælkodden" />
		<tag k="natural" v="cape" />
		<tag k="ssr:stedsnr" v="286092" />
	</node>
	<node id="-691515" lat="68.0178888916" lon="16.327944436">
		<tag k="name" v="Andersvika" />
		<tag k="name:no" v="Andersvika" />
		<tag k="natural" v="bay" />
		<tag k="ssr:stedsnr" v="286065" />
	</node>
	<node id="-691514" lat="68.0104861127" lon="16.2191138778">
		<tag k="name" v="Styrvika" />
		<tag k="name:no" v="Styrvika" />
		<tag k="natural" v="bay" />
		<tag k="ssr:stedsnr" v="285900" />
	</node>
	<node id="-691513" lat="67.8225527777" lon="16.4516555577">
		<tag k="name" v="Tjuvbuktneset" />
		<tag k="name:no" v="Tjuvbuktneset" />
		<tag k="natural" v="cape" />
		<tag k="ssr:stedsnr" v="285316" />
	</node>
	<node id="-691512" lat="68.0438694441" lon="16.3392166673">
		<tag k="name" v="Tørrnesgrunnen" />
		<tag k="name:no" v="Tørrnesgrunnen" />
		<tag k="natural" v="shoal" />
		<tag k="place" v="locality" />
		<tag k="ssr:stedsnr" v="285145" />
	</node>
	<node id="-691507" lat="68.1790861138" lon="16.0897166753">
		<tag k="name" v="Osneset" />
		<tag k="name:no" v="Osneset" />
		<tag k="natural" v="cape" />
		<tag k="ssr:stedsnr" v="269948" />
	</node>
	<node id="-693393" lat="67.9042666671" lon="16.2424277857">
		<tag k="name" v="Laukneset" />
		<tag k="name:no" v="Laukneset" />
		<tag k="natural" v="cape" />
		<tag k="ssr:stedsnr" v="953891" />
	</node>
	<node id="-693392" lat="68.1746666691" lon="16.3567722223">
		<tag k="name" v="Sørnesskallen" />
		<tag k="name:no" v="Sørnesskallen" />
		<tag k="natural" v="shoal" />
		<tag k="place" v="locality" />
		<tag k="ssr:stedsnr" v="953539" />
	</node>
	<node id="-693388" lat="68.0901527737" lon="16.4144666648">
		<tag k="name" v="Storvika" />
		<tag k="name:no" v="Storvika" />
		<tag k="natural" v="bay" />
		<tag k="ssr:stedsnr" v="949173" />
	</node>
	<node id="-693386" lat="68.0712361093" lon="16.345027775">
		<tag k="alt_name:no" v="Svartskjeret" />
		<tag k="fixme" v="consider seamark:type=rock or natural=shoal" />
		<tag k="name" v="Svartskjæret" />
		<tag k="name:no" v="Svartskjæret" />
		<tag k="place" v="islet" />
		<tag k="ssr:stedsnr" v="938601" />
	</node>
	<node id="-693384" lat="68.2548027791" lon="16.0494249948">
		<tag k="name" v="Åsviken" />
		<tag k="name:no" v="Åsviken" />
		<tag k="natural" v="bay" />
		<tag k="ssr:stedsnr" v="935225" />
	</node>
	<node id="-693372" lat="68.1458361124" lon="16.4018305607">
		<tag k="name" v="Vikran" />
		<tag k="name:no" v="Vikran" />
		<tag k="natural" v="bay" />
		<tag k="ssr:stedsnr" v="932948" />
	</node>
	<node id="-693364" lat="67.9907999998" lon="16.2734805656">
		<tag k="name" v="Gihtsegádde" />
		<tag k="name:smj" v="Gihtsegádde" />
		<tag k="natural" v="beach" />
		<tag k="place" v="locality" />
		<tag k="ssr:stedsnr" v="932889" />
	</node>
	<node id="-693363" lat="68.1462611156" lon="16.2282666618">
		<tag k="name" v="Løktodden" />
		<tag k="name:no" v="Løktodden" />
		<tag k="natural" v="cape" />
		<tag k="ssr:stedsnr" v="932868" />
	</node>
	<node id="-693360" lat="68.0632444418" lon="16.6558305652">
		<tag k="name" v="Osen" />
		<tag k="name:no" v="Osen" />
		<tag k="natural" v="bay" />
		<tag k="ssr:stedsnr" v="932733" />
	</node>
	<node id="-693334" lat="68.1908138886" lon="16.0640250023">
		<tag k="name" v="Botnøya" />
		<tag k="name:no" v="Botnøya" />
		<tag k="place" v="island" />
		<tag k="ssr:stedsnr" v="927796" />
	</node>
	<node id="-693326" lat="68.0135888901" lon="16.4209805544">
		<tag k="name" v="Uhtsavuoppe" />
		<tag k="name:smj" v="Uhtsavuoppe" />
		<tag k="natural" v="bay" />
		<tag k="old_name:smj" v="Uhcavuohppi" />
		<tag k="ssr:stedsnr" v="927720" />
	</node>
	<node id="-693322" lat="68.0868792121" lon="16.1128186612">
		<tag k="name" v="Soahkenjárgga - Bjørkeneset" />
		<tag k="name:no" v="Bjørkeneset" />
		<tag k="name:smj" v="Soahkenjárgga" />
		<tag k="natural" v="cape" />
		<tag k="ssr:stedsnr" v="927624" />
	</node>
	<node id="-693319" lat="68.1184222183" lon="16.2819166732">
		<tag k="alt_name:no" v="Fredagsvikneset" />
		<tag k="name" v="Ráhtáluovtnjárgga - Fredagsviknes" />
		<tag k="name:no" v="Fredagsviknes" />
		<tag k="name:smj" v="Ráhtáluovtnjárgga" />
		<tag k="natural" v="cape" />
		<tag k="old_name:smj" v="Rattaluoktnjárga" />
		<tag k="ssr:stedsnr" v="927583" />
	</node>
	<node id="-693318" lat="68.1250555519" lon="16.3001083411">
		<tag k="name" v="Ráhtáluokta - Fredagsvika" />
		<tag k="name:no" v="Fredagsvika" />
		<tag k="name:smj" v="Ráhtáluokta" />
		<tag k="natural" v="bay" />
		<tag k="ssr:stedsnr" v="927579" />
	</node>
	<node id="-693317" lat="68.0390555553" lon="16.1033860993">
		<tag k="name" v="Ingeborgnes" />
		<tag k="name:no" v="Ingeborgnes" />
		<tag k="natural" v="cape" />
		<tag k="ssr:stedsnr" v="927577" />
	</node>
	<node id="-693313" lat="68.2409416625" lon="16.4696305586">
		<tag k="name" v="Sildpollen" />
		<tag k="name:no" v="Sildpollen" />
		<tag k="natural" v="bay" />
		<tag k="ssr:stedsnr" v="927561" />
	</node>
	<node id="-693308" lat="68.2090888901" lon="16.2556444496">
		<tag k="name" v="Makholmneset" />
		<tag k="name:no" v="Makholmneset" />
		<tag k="natural" v="cape" />
		<tag k="ssr:stedsnr" v="927527" />
	</node>
	<node id="-693302" lat="68.2572611099" lon="16.037844437">
		<tag k="name" v="Herøyvika" />
		<tag k="name:no" v="Herøyvika" />
		<tag k="natural" v="bay" />
		<tag k="ssr:stedsnr" v="927413" />
	</node>
	<node id="-693297" lat="67.9435805528" lon="16.4026499947">
		<tag k="name" v="Sáltvuohppe" />
		<tag k="name:smj" v="Sáltvuohppe" />
		<tag k="natural" v="bay" />
		<tag k="ssr:stedsnr" v="927353" />
	</node>
	<node id="-693290" lat="67.9543000044" lon="16.4406916674">
		<tag k="name" v="Hállagáddi" />
		<tag k="name:smj" v="Hállagáddi" />
		<tag k="natural" v="beach" />
		<tag k="place" v="locality" />
		<tag k="ssr:stedsnr" v="927305" />
	</node>
	<node id="-693284" lat="67.8164555569" lon="16.5046361087">
		<tag k="name" v="Gámbbaljoha" />
		<tag k="name:smj" v="Gámbbaljoha" />
		<tag k="natural" v="bay" />
		<tag k="ssr:stedsnr" v="927140" />
	</node>
	<node id="-693281" lat="68.1953222205" lon="16.1233222138">
		<tag k="alt_name:no" v="Stongnes" />
		<tag k="name" v="Stongneset" />
		<tag k="name:no" v="Stongneset" />
		<tag k="natural" v="cape" />
		<tag k="ssr:stedsnr" v="927824" />
	</node>
	<node id="-693277" lat="68.1787305573" lon="16.0451694522">
		<tag k="name" v="Nerbotnosen" />
		<tag k="name:no" v="Nerbotnosen" />
		<tag k="natural" v="bay" />
		<tag k="ssr:stedsnr" v="876957" />
	</node>
	<node id="-693271" lat="68.1171694417" lon="16.4272583395">
		<tag k="name" v="Kikvikodden" />
		<tag k="name:no" v="Kikvikodden" />
		<tag k="natural" v="cape" />
		<tag k="ssr:stedsnr" v="871998" />
	</node>
	<node id="-693269" lat="68.2707500033" lon="16.2666972158">
		<tag k="name" v="Myrsetsanden" />
		<tag k="name:no" v="Myrsetsanden" />
		<tag k="natural" v="beach" />
		<tag k="place" v="locality" />
		<tag k="ssr:stedsnr" v="871988" />
	</node>
	<node id="-693266" lat="68.2350305573" lon="16.2696472342">
		<tag k="name" v="Olaheimen" />
		<tag k="name:no" v="Olaheimen" />
		<tag k="natural" v="bay" />
		<tag k="ssr:stedsnr" v="871972" />
	</node>
	<node id="-693264" lat="68.1374444455" lon="16.2414833281">
		<tag k="name" v="Vikneset" />
		<tag k="name:no" v="Vikneset" />
		<tag k="natural" v="cape" />
		<tag k="ssr:stedsnr" v="871872" />
	</node>
	<node id="-693261" lat="68.0770805569" lon="16.6507500006">
		<tag k="name" v="Goahttsemade - Forrhågklakken" />
		<tag k="name:no" v="Forrhågklakken" />
		<tag k="name:smj" v="Goahttsemade" />
		<tag k="natural" v="shoal" />
		<tag k="ssr:stedsnr" v="871764" />
	</node>
	<node id="-693259" lat="68.1248666668" lon="16.4295083238">
		<tag k="name" v="Famnvedvika" />
		<tag k="name:no" v="Famnvedvika" />
		<tag k="natural" v="bay" />
		<tag k="ssr:stedsnr" v="871736" />
	</node>
	<node id="-693258" lat="68.1222194404" lon="16.4622527865">
		<tag k="name" v="Brenneshamna" />
		<tag k="name:no" v="Brenneshamna" />
		<tag k="natural" v="bay" />
		<tag k="ssr:stedsnr" v="871735" />
	</node>
	<node id="-693248" lat="68.0011722204" lon="16.2176055629">
		<tag k="name" v="Stirnjuorra - Styrgrunnen" />
		<tag k="name:no" v="Styrgrunnen" />
		<tag k="name:smj" v="Stirnjuorra" />
		<tag k="natural" v="shoal" />
		<tag k="place" v="locality" />
		<tag k="ssr:stedsnr" v="871567" />
	</node>
	<node id="-693243" lat="68.2616388921" lon="15.9505000003">
		<tag k="name" v="Øyhalsen" />
		<tag k="name:no" v="Øyhalsen" />
		<tag k="natural" v="cape" />
		<tag k="ssr:stedsnr" v="871500" />
	</node>
	<node id="-693236" lat="68.1815666647" lon="16.0890500066">
		<tag k="fixme" v="consider seamark:type=rock or natural=shoal" />
		<tag k="name" v="Lavaskjeret" />
		<tag k="name:no" v="Lavaskjeret" />
		<tag k="place" v="islet" />
		<tag k="ssr:stedsnr" v="867788" />
	</node>
	<node id="-693232" lat="67.9946861136" lon="16.1899138778">
		<tag k="name" v="Benanjárgga - Hundodden" />
		<tag k="name:no" v="Hundodden" />
		<tag k="name:smj" v="Benanjárgga" />
		<tag k="natural" v="cape" />
		<tag k="ssr:stedsnr" v="867675" />
	</node>
	<node id="-693216" lat="68.287066663" lon="16.1484777836">
		<tag k="name" v="Bremneset" />
		<tag k="name:no" v="Bremneset" />
		<tag k="natural" v="cape" />
		<tag k="ssr:stedsnr" v="867365" />
	</node>
	<node id="-693214" lat="68.2223555548" lon="16.0680027806">
		<tag k="name" v="Bogvika" />
		<tag k="name:no" v="Bogvika" />
		<tag k="natural" v="bay" />
		<tag k="ssr:stedsnr" v="866821" />
	</node>
	<node id="-693211" lat="68.0387194429" lon="16.3965944324">
		<tag k="name" v="Gådjeluokta - Grindvika" />
		<tag k="name:no" v="Grindvika" />
		<tag k="name:smj" v="Gådjeluokta" />
		<tag k="natural" v="bay" />
		<tag k="old_name:smj" v="Godjeluokta" />
		<tag k="ssr:stedsnr" v="866808" />
	</node>
	<node id="-693207" lat="68.0755583305" lon="16.2019138756">
		<tag k="name" v="Grindvikneset" />
		<tag k="name:no" v="Grindvikneset" />
		<tag k="natural" v="cape" />
		<tag k="ssr:stedsnr" v="866638" />
	</node>
	<node id="-693206" lat="68.156095696" lon="16.3337586983">
		<tag k="name" v="Biehtsenjárgga - Forrneset" />
		<tag k="name:no" v="Forrneset" />
		<tag k="name:smj" v="Biehtsenjárgga" />
		<tag k="natural" v="cape" />
		<tag k="ssr:stedsnr" v="866589" />
	</node>
	<node id="-693204" lat="68.176337525" lon="16.4144385464">
		<tag k="name" v="Muvlle - Mulbukta" />
		<tag k="name:no" v="Mulbukta" />
		<tag k="name:smj" v="Muvlle" />
		<tag k="natural" v="bay" />
		<tag k="ssr:stedsnr" v="866577" />
	</node>
	<node id="-693190" lat="67.9491861138" lon="16.2710888784">
		<tag k="name" v="Guhkanjárgga - Langneset" />
		<tag k="name:no" v="Langneset" />
		<tag k="name:smj" v="Guhkanjárgga" />
		<tag k="natural" v="cape" />
		<tag k="ssr:stedsnr" v="866256" />
	</node>
	<node id="-693181" lat="67.9356944459" lon="16.2623111227">
		<tag k="name" v="Kjelomineset" />
		<tag k="name:no" v="Kjelomineset" />
		<tag k="natural" v="cape" />
		<tag k="ssr:stedsnr" v="832903" />
	</node>
	<node id="-693180" lat="68.1850666708" lon="16.5748944488">
		<tag k="name" v="Skredneset" />
		<tag k="name:no" v="Skredneset" />
		<tag k="natural" v="cape" />
		<tag k="ssr:stedsnr" v="832341" />
	</node>
	<node id="-693178" lat="68.2686916705" lon="16.26559999">
		<tag k="name" v="Langnes" />
		<tag k="name:no" v="Langnes" />
		<tag k="natural" v="cape" />
		<tag k="ssr:stedsnr" v="828342" />
	</node>
	<node id="-693174" lat="68.2557083308" lon="15.9225055627">
		<tag k="name" v="Aukvikbåen" />
		<tag k="name:no" v="Aukvikbåen" />
		<tag k="natural" v="shoal" />
		<tag k="place" v="locality" />
		<tag k="ssr:stedsnr" v="825105" />
	</node>
	<node id="-693172" lat="68.1806861136" lon="16.0417722217">
		<tag k="name" v="Tømmervika" />
		<tag k="name:no" v="Tømmervika" />
		<tag k="natural" v="bay" />
		<tag k="ssr:stedsnr" v="815967" />
	</node>
	<node id="-693171" lat="68.1590611081" lon="16.4077916686">
		<tag k="name" v="Knappneset" />
		<tag k="name:no" v="Knappneset" />
		<tag k="natural" v="cape" />
		<tag k="ssr:stedsnr" v="814614" />
	</node>
	<node id="-693167" lat="68.0988083367" lon="16.5332416776">
		<tag k="bay" v="fjord" />
		<tag k="name" v="Innerfjorden" />
		<tag k="name:no" v="Innerfjorden" />
		<tag k="natural" v="bay" />
		<tag k="ssr:stedsnr" v="811000" />
	</node>
	<node id="-693162" lat="68.1950944412" lon="16.3241416765">
		<tag k="name" v="Holmenden" />
		<tag k="name:no" v="Holmenden" />
		<tag k="natural" v="cape" />
		<tag k="ssr:stedsnr" v="810974" />
	</node>
	<node id="-693161" lat="68.1486916657" lon="16.2862527887">
		<tag k="name" v="Skjærodden" />
		<tag k="name:no" v="Skjærodden" />
		<tag k="natural" v="cape" />
		<tag k="ssr:stedsnr" v="810958" />
	</node>
	<node id="-693157" lat="67.976519442" lon="16.5231722106">
		<tag k="name" v="Goasskemnjárgga - Ørnnes" />
		<tag k="name:no" v="Ørnnes" />
		<tag k="name:smj" v="Goasskemnjárgga" />
		<tag k="natural" v="cape" />
		<tag k="ssr:stedsnr" v="810917" />
	</node>
	<node id="-693147" lat="68.2239305591" lon="16.4665638999">
		<tag k="name" v="Odden" />
		<tag k="name:no" v="Odden" />
		<tag k="natural" v="cape" />
		<tag k="ssr:stedsnr" v="810789" />
	</node>
	<node id="-693144" lat="68.1326194448" lon="16.4718972181">
		<tag k="name" v="Bjørnhola" />
		<tag k="name:no" v="Bjørnhola" />
		<tag k="natural" v="bay" />
		<tag k="ssr:stedsnr" v="810776" />
	</node>
	<node id="-693141" lat="68.2604138926" lon="15.9314111163">
		<tag k="name" v="Lappvika" />
		<tag k="name:no" v="Lappvika" />
		<tag k="natural" v="bay" />
		<tag k="ssr:stedsnr" v="810744" />
	</node>
	<node id="-693140" lat="68.2516333362" lon="15.9430611088">
		<tag k="name" v="Rekvikan" />
		<tag k="name:no" v="Rekvikan" />
		<tag k="natural" v="bay" />
		<tag k="ssr:stedsnr" v="810739" />
	</node>
	<node id="-693139" lat="68.2476277755" lon="15.9390777773">
		<tag k="name" v="Lauvåsneset" />
		<tag k="name:no" v="Lauvåsneset" />
		<tag k="natural" v="cape" />
		<tag k="ssr:stedsnr" v="810738" />
	</node>
	<node id="-693122" lat="68.2586972244" lon="15.9416888787">
		<tag k="name" v="Aukvika" />
		<tag k="name:no" v="Aukvika" />
		<tag k="natural" v="bay" />
		<tag k="ssr:stedsnr" v="810525" />
	</node>
	<node id="-693120" lat="68.2604666678" lon="16.0303194374">
		<tag k="name" v="Herøya" />
		<tag k="name:no" v="Herøya" />
		<tag k="natural" v="cape" />
		<tag k="ssr:stedsnr" v="810503" />
	</node>
	<node id="-693119" lat="68.2557500008" lon="15.9547222312">
		<tag k="name" v="Hestosen" />
		<tag k="name:no" v="Hestosen" />
		<tag k="natural" v="shoal" />
		<tag k="place" v="locality" />
		<tag k="ssr:stedsnr" v="810495" />
	</node>
	<node id="-693118" lat="68.2555833322" lon="15.9458305657">
		<tag k="name" v="Sørsjøkeilan" />
		<tag k="name:no" v="Sørsjøkeilan" />
		<tag k="natural" v="bay" />
		<tag k="ssr:stedsnr" v="810397" />
	</node>
	<node id="-693116" lat="68.1889483381" lon="16.0847950221">
		<tag k="fixme" v="consider seamark:type=rock or natural=shoal" />
		<tag k="name" v="Kalvikskjeret" />
		<tag k="name:no" v="Kalvikskjeret" />
		<tag k="place" v="islet" />
		<tag k="ssr:stedsnr" v="806806" />
	</node>
	<node id="-693114" lat="68.1284972198" lon="16.1462527678">
		<tag k="name" v="Skallen" />
		<tag k="name:no" v="Skallen" />
		<tag k="natural" v="shoal" />
		<tag k="place" v="locality" />
		<tag k="ssr:stedsnr" v="806733" />
	</node>
	<node id="-693107" lat="68.1749694467" lon="16.3816750033">
		<tag k="name" v="Fuglfjordneset" />
		<tag k="name:no" v="Fuglfjordneset" />
		<tag k="natural" v="cape" />
		<tag k="ssr:stedsnr" v="806584" />
	</node>
	<node id="-693092" lat="68.2656749974" lon="15.9575805563">
		<tag k="name" v="Nordøya" />
		<tag k="name:no" v="Nordøya" />
		<tag k="place" v="island" />
		<tag k="ssr:stedsnr" v="806383" />
	</node>
	<node id="-693091" lat="68.2577555519" lon="16.0586777646">
		<tag k="fixme" v="consider seamark:type=rock or natural=shoal" />
		<tag k="name" v="Johaugskallskjeret" />
		<tag k="name:no" v="Johaugskallskjeret" />
		<tag k="place" v="islet" />
		<tag k="ssr:stedsnr" v="806379" />
	</node>
	<node id="-693082" lat="68.1014277738" lon="16.4335750066">
		<tag k="name" v="Lunndo - Klubben" />
		<tag k="name:no" v="Klubben" />
		<tag k="name:smj" v="Lunndo" />
		<tag k="natural" v="cape" />
		<tag k="ssr:stedsnr" v="805826" />
	</node>
	<node id="-693081" lat="68.2353305599" lon="16.0711472179">
		<tag k="alt_name:no" v="Leiknesskjeran" />
		<tag k="fixme" v="consider seamark:type=rock or natural=shoal" />
		<tag k="name" v="Leiknesskjæran" />
		<tag k="name:no" v="Leiknesskjæran" />
		<tag k="place" v="islet" />
		<tag k="ssr:stedsnr" v="805811" />
	</node>
	<node id="-693080" lat="68.0721111074" lon="16.6601444432">
		<tag k="bay" v="fjord" />
		<tag k="name" v="Slabávuodna - Sørfjorden" />
		<tag k="name:no" v="Sørfjorden" />
		<tag k="name:smj" v="Slabávuodna" />
		<tag k="natural" v="bay" />
		<tag k="ssr:stedsnr" v="805795" />
	</node>
	<node id="-693079" lat="68.0037527795" lon="16.4261888977">
		<tag k="name" v="Jæmsluokta" />
		<tag k="name:smj" v="Jæmsluokta" />
		<tag k="natural" v="bay" />
		<tag k="old_name:smj" v="Jeamsluokta" />
		<tag k="ssr:stedsnr" v="805794" />
	</node>
	<node id="-693078" lat="68.034650004" lon="16.4343333355">
		<tag k="name" v="Biehtsenjárgga - Forneset" />
		<tag k="name:no" v="Forneset" />
		<tag k="name:smj" v="Biehtsenjárgga" />
		<tag k="natural" v="cape" />
		<tag k="old_name:smj" v="Beahcenjárga" />
		<tag k="ssr:stedsnr" v="805793" />
	</node>
	<node id="-693076" lat="68.0908583319" lon="16.1025000023">
		<tag k="fixme" v="multiple name tags, choose one and add the other to alt_name" />
		<tag k="name" v="Storvika;Stuorluokta" />
		<tag k="name:no" v="Storvika;Stuorluokta" />
		<tag k="natural" v="bay" />
		<tag k="ssr:stedsnr" v="805620" />
	</node>
	<node id="-693069" lat="68.0928805577" lon="16.4288305581">
		<tag k="name" v="Stuorluokta - Storvika" />
		<tag k="name:no" v="Storvika" />
		<tag k="name:smj" v="Stuorluokta" />
		<tag k="natural" v="bay" />
		<tag k="ssr:stedsnr" v="805540" />
	</node>
	<node id="-693062" lat="68.0362444468" lon="16.1527555666">
		<tag k="name" v="Skolten" />
		<tag k="name:no" v="Skolten" />
		<tag k="natural" v="shoal" />
		<tag k="place" v="locality" />
		<tag k="ssr:stedsnr" v="771917" />
	</node>
	<node id="-693061" lat="68.2137972215" lon="16.2277722209">
		<tag k="name" v="Skarbergbukta" />
		<tag k="name:no" v="Skarbergbukta" />
		<tag k="natural" v="bay" />
		<tag k="ssr:stedsnr" v="771454" />
	</node>
	<node id="-693060" lat="68.0695388863" lon="16.3768694501">
		<tag k="name" v="Storåstrand" />
		<tag k="name:no" v="Storåstrand" />
		<tag k="natural" v="beach" />
		<tag k="place" v="locality" />
		<tag k="ssr:stedsnr" v="771335" />
	</node>
	<node id="-693055" lat="68.1812694448" lon="16.0509583271">
		<tag k="name" v="Lilleforbarneset" />
		<tag k="name:no" v="Lilleforbarneset" />
		<tag k="natural" v="cape" />
		<tag k="ssr:stedsnr" v="755960" />
	</node>
	<node id="-693051" lat="68.0980111122" lon="16.4352777745">
		<tag k="name" v="Krokanes" />
		<tag k="name:no" v="Krokanes" />
		<tag k="natural" v="cape" />
		<tag k="ssr:stedsnr" v="750996" />
	</node>
	<node id="-693046" lat="68.232972219" lon="16.249388898">
		<tag k="name" v="Lappvika" />
		<tag k="name:no" v="Lappvika" />
		<tag k="natural" v="bay" />
		<tag k="ssr:stedsnr" v="750931" />
	</node>
	<node id="-693045" lat="68.2339166687" lon="16.1922333404">
		<tag k="name" v="Storvika" />
		<tag k="name:no" v="Storvika" />
		<tag k="natural" v="bay" />
		<tag k="ssr:stedsnr" v="750923" />
	</node>
	<node id="-693042" lat="67.8170500036" lon="16.5006916713">
		<tag k="name" v="Vuodnabahta" />
		<tag k="name:smj" v="Vuodnabahta" />
		<tag k="natural" v="bay" />
		<tag k="ssr:stedsnr" v="750913" />
	</node>
	<node id="-693036" lat="68.0842638853" lon="16.7160138985">
		<tag k="name" v="Juŋkánjárgga - Junkajo-neset" />
		<tag k="name:no" v="Junkajo-neset" />
		<tag k="name:smj" v="Juŋkánjárgga" />
		<tag k="natural" v="cape" />
		<tag k="ssr:stedsnr" v="750765" />
	</node>
	<node id="-693033" lat="68.1023972216" lon="16.4353138829">
		<tag k="name" v="Klubbneset" />
		<tag k="name:no" v="Klubbneset" />
		<tag k="natural" v="cape" />
		<tag k="ssr:stedsnr" v="750735" />
	</node>
	<node id="-693004" lat="68.2650277739" lon="15.989433336">
		<tag k="name" v="Mellaneset" />
		<tag k="name:no" v="Mellaneset" />
		<tag k="natural" v="cape" />
		<tag k="ssr:stedsnr" v="749513" />
	</node>
	<node id="-693002" lat="68.2347361143" lon="15.9449833265">
		<tag k="name" v="Molvikneset" />
		<tag k="name:no" v="Molvikneset" />
		<tag k="natural" v="cape" />
		<tag k="ssr:stedsnr" v="745865" />
	</node>
	<node id="-693000" lat="68.2247600028" lon="16.0783051937">
		<tag k="name" v="Skognes" />
		<tag k="name:no" v="Skognes" />
		<tag k="natural" v="cape" />
		<tag k="ssr:stedsnr" v="745842" />
	</node>
	<node id="-692994" lat="68.1623000013" lon="16.1432000061">
		<tag k="name" v="Foarsonjárgga - Forsaneset" />
		<tag k="name:no" v="Forsaneset" />
		<tag k="name:smj" v="Foarsonjárgga" />
		<tag k="natural" v="cape" />
		<tag k="ssr:stedsnr" v="745770" />
	</node>
	<node id="-692990" lat="67.9800277771" lon="16.2376166544">
		<tag k="bay" v="fjord" />
		<tag k="name" v="Oarjjevuodna - Hellmofjorden" />
		<tag k="name:no" v="Hellmofjorden" />
		<tag k="name:smj" v="Oarjjevuodna" />
		<tag k="natural" v="bay" />
		<tag k="ssr:stedsnr" v="745691" />
	</node>
	<node id="-692980" lat="68.1722972229" lon="16.3635027834">
		<tag k="name" v="Sørnesholmen" />
		<tag k="name:no" v="Sørnesholmen" />
		<tag k="place" v="islet" />
		<tag k="ssr:stedsnr" v="745600" />
	</node>
	<node id="-692978" lat="68.0912638917" lon="16.320255544">
		<tag k="name" v="Kjøpsviksundet" />
		<tag k="name:no" v="Kjøpsviksundet" />
		<tag k="natural" v="strait" />
		<tag k="ssr:stedsnr" v="745583" />
	</node>
	<node id="-692964" lat="68.0433611092" lon="16.3563249959">
		<tag k="name" v="Durrá - Tørrnes" />
		<tag k="name:no" v="Tørrnes" />
		<tag k="name:smj" v="Durrá" />
		<tag k="natural" v="cape" />
		<tag k="old_name:smj" v="Durra" />
		<tag k="ssr:stedsnr" v="745508" />
	</node>
	<node id="-692957" lat="67.9534138885" lon="16.4643722237">
		<tag k="name" v="Vuohppe - Pollen" />
		<tag k="name:no" v="Pollen" />
		<tag k="name:smj" v="Vuohppe" />
		<tag k="natural" v="bay" />
		<tag k="ssr:stedsnr" v="745372" />
	</node>
	<node id="-692954" lat="67.893794443" lon="16.2677333293">
		<tag k="name" v="Jårbbågiergge" />
		<tag k="name:smj" v="Jårbbågiergge" />
		<tag k="natural" v="cape" />
		<tag k="ssr:stedsnr" v="745348" />
	</node>
	<node id="-692953" lat="67.9853638907" lon="16.278283327">
		<tag k="name" v="Ibboluokta" />
		<tag k="name:smj" v="Ibboluokta" />
		<tag k="natural" v="bay" />
		<tag k="ssr:stedsnr" v="745342" />
	</node>
	<node id="-692951" lat="67.9667611127" lon="16.4794833408">
		<tag k="name" v="Eidneset" />
		<tag k="name:no" v="Eidneset" />
		<tag k="natural" v="cape" />
		<tag k="ssr:stedsnr" v="745318" />
	</node>
	<node id="-692947" lat="67.8157055544" lon="16.483775007">
		<tag k="name" v="Biedánjárgga" />
		<tag k="name:smj" v="Biedánjárgga" />
		<tag k="natural" v="cape" />
		<tag k="ssr:stedsnr" v="745162" />
	</node>
	<node id="-692942" lat="68.0876945927" lon="16.6848793073">
		<tag k="name" v="Strávve - Straumen" />
		<tag k="name:no" v="Straumen" />
		<tag k="name:smj" v="Strávve" />
		<tag k="natural" v="strait" />
		<tag k="ssr:stedsnr" v="744506" />
	</node>
	<node id="-692938" lat="68.263949999" lon="16.027099995">
		<tag k="name" v="Fiskholmen" />
		<tag k="name:no" v="Fiskholmen" />
		<tag k="place" v="islet" />
		<tag k="ssr:stedsnr" v="745416" />
	</node>
	<node id="-692934" lat="68.2292777803" lon="16.4609472221">
		<tag k="name" v="Kristenheimneset" />
		<tag k="name:no" v="Kristenheimneset" />
		<tag k="natural" v="cape" />
		<tag k="ssr:stedsnr" v="710278" />
	</node>
	<node id="-692929" lat="68.2694055578" lon="16.3381416746">
		<tag k="name" v="Eidebukta" />
		<tag k="name:no" v="Eidebukta" />
		<tag k="natural" v="bay" />
		<tag k="ssr:stedsnr" v="704509" />
	</node>
	<node id="-692928" lat="68.242747226" lon="15.9396333352">
		<tag k="name" v="Stabben" />
		<tag k="name:no" v="Stabben" />
		<tag k="natural" v="shoal" />
		<tag k="place" v="locality" />
		<tag k="ssr:stedsnr" v="703161" />
	</node>
	<node id="-692927" lat="68.1789638892" lon="16.0798638826">
		<tag k="name" v="Tømmervikneset" />
		<tag k="name:no" v="Tømmervikneset" />
		<tag k="natural" v="cape" />
		<tag k="ssr:stedsnr" v="694950" />
	</node>
	<node id="-692921" lat="67.9842398038" lon="16.2726199508">
		<tag k="name" v="Ibboluovtnjárgga - Tømmerviknes" />
		<tag k="name:no" v="Tømmerviknes" />
		<tag k="name:smj" v="Ibboluovtnjárgga" />
		<tag k="natural" v="cape" />
		<tag k="ssr:stedsnr" v="689896" />
	</node>
	<node id="-692919" lat="68.1445805551" lon="16.1236666748">
		<tag k="name" v="Stranda" />
		<tag k="name:no" v="Stranda" />
		<tag k="natural" v="beach" />
		<tag k="place" v="locality" />
		<tag k="ssr:stedsnr" v="689864" />
	</node>
	<node id="-692918" lat="68.0840499998" lon="16.647197212">
		<tag k="name" v="Hjellvika" />
		<tag k="name:no" v="Hjellvika" />
		<tag k="natural" v="bay" />
		<tag k="ssr:stedsnr" v="689746" />
	</node>
	<node id="-692915" lat="68.1841888865" lon="16.0972972119">
		<tag k="name" v="Brenneset" />
		<tag k="name:no" v="Brenneset" />
		<tag k="natural" v="cape" />
		<tag k="ssr:stedsnr" v="689670" />
	</node>
	<node id="-692911" lat="68.0486416645" lon="16.0826499879">
		<tag k="name" v="Hamnnesoddden" />
		<tag k="name:no" v="Hamnnesoddden" />
		<tag k="natural" v="cape" />
		<tag k="ssr:stedsnr" v="689615" />
	</node>
	<node id="-692908" lat="68.0585388904" lon="16.16669723">
		<tag k="name" v="Inner-Hulløynesgrunnen" />
		<tag k="name:no" v="Inner-Hulløynesgrunnen" />
		<tag k="natural" v="shoal" />
		<tag k="place" v="locality" />
		<tag k="ssr:stedsnr" v="689551" />
	</node>
	<node id="-692894" lat="68.2555305527" lon="16.0620527767">
		<tag k="name" v="Korsneset" />
		<tag k="name:no" v="Korsneset" />
		<tag k="natural" v="cape" />
		<tag k="ssr:stedsnr" v="685424" />
	</node>
	<node id="-692891" lat="68.1685916667" lon="16.3618694446">
		<tag k="name" v="Stuorluokta - Storvika" />
		<tag k="name:no" v="Storvika" />
		<tag k="name:smj" v="Stuorluokta" />
		<tag k="natural" v="bay" />
		<tag k="ssr:stedsnr" v="684838" />
	</node>
	<node id="-692888" lat="68.1848138912" lon="16.0764805452">
		<tag k="name" v="Rognholmen" />
		<tag k="name:no" v="Rognholmen" />
		<tag k="place" v="islet" />
		<tag k="ssr:stedsnr" v="684792" />
	</node>
	<node id="-692887" lat="68.1799055586" lon="16.1410611017">
		<tag k="alt_name:no" v="Seljenes" />
		<tag k="name" v="Seljeneset" />
		<tag k="name:no" v="Seljeneset" />
		<tag k="natural" v="cape" />
		<tag k="ssr:stedsnr" v="684773" />
	</node>
	<node id="-692885" lat="68.0192861105" lon="16.3771027825">
		<tag k="name" v="Gárjjelluokta - Kvassvika" />
		<tag k="name:no" v="Kvassvika" />
		<tag k="name:smj" v="Gárjjelluokta" />
		<tag k="natural" v="bay" />
		<tag k="ssr:stedsnr" v="684724" />
	</node>
	<node id="-692876" lat="68.1447083367" lon="16.3115500081">
		<tag k="name" v="Gielkáluokta - Kjelkvika" />
		<tag k="name:no" v="Kjelkvika" />
		<tag k="name:smj" v="Gielkáluokta" />
		<tag k="natural" v="bay" />
		<tag k="ssr:stedsnr" v="684594" />
	</node>
	<node id="-692870" lat="68.02019167" lon="16.1942500094">
		<tag k="name" v="Råssenjárgga - Hestneset" />
		<tag k="name:no" v="Hestneset" />
		<tag k="name:smj" v="Råssenjárgga" />
		<tag k="natural" v="cape" />
		<tag k="ssr:stedsnr" v="684526" />
	</node>
	<node id="-692868" lat="68.1975305555" lon="16.3496555579">
		<tag k="name" v="Ávkijsuoloj - Haukøyholmen" />
		<tag k="name:no" v="Haukøyholmen" />
		<tag k="name:smj" v="Ávkijsuoloj" />
		<tag k="place" v="islet" />
		<tag k="ssr:stedsnr" v="684518" />
	</node>
	<node id="-692861" lat="68.0530861121" lon="16.2541944506">
		<tag k="name" v="Buorgojluokta - Borgvika" />
		<tag k="name:no" v="Borgvika" />
		<tag k="name:smj" v="Buorgojluokta" />
		<tag k="natural" v="bay" />
		<tag k="ssr:stedsnr" v="684496" />
	</node>
	<node id="-692858" lat="67.9267777773" lon="16.2113777723">
		<tag k="name" v="Tjáppanjárgga" />
		<tag k="name:smj" v="Tjáppanjárgga" />
		<tag k="natural" v="cape" />
		<tag k="old_name:smj" v="Čáppanjárga" />
		<tag k="ssr:stedsnr" v="684391" />
	</node>
	<node id="-692841" lat="67.8446083375" lon="16.398577771">
		<tag k="name" v="Tørrfuruneset" />
		<tag k="name:no" v="Tørrfuruneset" />
		<tag k="natural" v="cape" />
		<tag k="ssr:stedsnr" v="649337" />
	</node>
	<node id="-692840" lat="68.1756361141" lon="16.5521138948">
		<tag k="name" v="Stefjord" />
		<tag k="name:no" v="Stefjord" />
		<tag k="natural" v="cape" />
		<tag k="ssr:stedsnr" v="649317" />
	</node>
	<node id="-692839" lat="68.1929499991" lon="16.5405944338">
		<tag k="name" v="Djupvikneset" />
		<tag k="name:no" v="Djupvikneset" />
		<tag k="natural" v="cape" />
		<tag k="ssr:stedsnr" v="649308" />
	</node>
	<node id="-692834" lat="68.114811114" lon="16.5364777714">
		<tag k="name" v="Kvitodden" />
		<tag k="name:no" v="Kvitodden" />
		<tag k="natural" v="cape" />
		<tag k="ssr:stedsnr" v="628999" />
	</node>
	<node id="-692831" lat="68.2063472213" lon="16.3920722115">
		<tag k="name" v="Djuphamn" />
		<tag k="name:no" v="Djuphamn" />
		<tag k="natural" v="bay" />
		<tag k="ssr:stedsnr" v="628953" />
	</node>
	<node id="-692830" lat="68.2038999983" lon="16.409905564">
		<tag k="name" v="Sørvalen" />
		<tag k="name:no" v="Sørvalen" />
		<tag k="natural" v="strait" />
		<tag k="ssr:stedsnr" v="628954" />
	</node>
	<node id="-692828" lat="68.1478583298" lon="16.2705777799">
		<tag k="name" v="Nordosen" />
		<tag k="name:no" v="Nordosen" />
		<tag k="natural" v="bay" />
		<tag k="ssr:stedsnr" v="628938" />
	</node>
	<node id="-692825" lat="67.8201527824" lon="16.5125277727">
		<tag k="name" v="Gálbbenjárgga" />
		<tag k="name:smj" v="Gálbbenjárgga" />
		<tag k="natural" v="cape" />
		<tag k="ssr:stedsnr" v="628902" />
	</node>
	<node id="-692824" lat="68.1496194437" lon="16.2364000041">
		<tag k="name" v="Storlysbotn" />
		<tag k="name:no" v="Storlysbotn" />
		<tag k="natural" v="shoal" />
		<tag k="place" v="locality" />
		<tag k="ssr:stedsnr" v="628859" />
	</node>
	<node id="-692823" lat="68.1463694449" lon="16.2241472096">
		<tag k="fixme" v="consider seamark:type=rock or natural=shoal" />
		<tag k="name" v="Skarvhausen" />
		<tag k="name:no" v="Skarvhausen" />
		<tag k="place" v="islet" />
		<tag k="ssr:stedsnr" v="628857" />
	</node>
	<node id="-692822" lat="68.0807749989" lon="16.6067055626">
		<tag k="name" v="Dirvonjárgga - Diervoneset" />
		<tag k="name:no" v="Diervoneset" />
		<tag k="name:smj" v="Dirvonjárgga" />
		<tag k="natural" v="cape" />
		<tag k="ssr:stedsnr" v="628767" />
	</node>
	<node id="-692821" lat="68.0802861114" lon="16.6085333221">
		<tag k="name" v="Dirvoluokta - Diervoosen" />
		<tag k="name:no" v="Diervoosen" />
		<tag k="name:smj" v="Dirvoluokta" />
		<tag k="natural" v="bay" />
		<tag k="ssr:stedsnr" v="628762" />
	</node>
	<node id="-692818" lat="68.1069111083" lon="16.4514777847">
		<tag k="name" v="Råssegiedde - Hestvika" />
		<tag k="name:no" v="Hestvika" />
		<tag k="name:smj" v="Råssegiedde" />
		<tag k="natural" v="bay" />
		<tag k="ssr:stedsnr" v="628733" />
	</node>
	<node id="-692815" lat="68.2441722193" lon="15.9430138805">
		<tag k="name" v="Litl-Råvika" />
		<tag k="name:no" v="Litl-Råvika" />
		<tag k="natural" v="bay" />
		<tag k="ssr:stedsnr" v="628703" />
	</node>
	<node id="-692814" lat="68.2210305589" lon="16.0919472173">
		<tag k="name" v="Litlvika" />
		<tag k="name:no" v="Litlvika" />
		<tag k="natural" v="bay" />
		<tag k="ssr:stedsnr" v="628683" />
	</node>
	<node id="-692808" lat="68.065772222" lon="16.3694694367">
		<tag k="name" v="Mølnvikodden" />
		<tag k="name:no" v="Mølnvikodden" />
		<tag k="natural" v="cape" />
		<tag k="ssr:stedsnr" v="628662" />
	</node>
	<node id="-692804" lat="68.0081305581" lon="16.217808341">
		<tag k="name" v="Styrneset" />
		<tag k="name:no" v="Styrneset" />
		<tag k="natural" v="cape" />
		<tag k="ssr:stedsnr" v="628581" />
	</node>
	<node id="-692799" lat="68.2637777763" lon="15.9601027692">
		<tag k="name" v="Osen" />
		<tag k="name:no" v="Osen" />
		<tag k="natural" v="shoal" />
		<tag k="place" v="locality" />
		<tag k="ssr:stedsnr" v="628495" />
	</node>
	<node id="-692798" lat="68.0300972187" lon="16.3331055438">
		<tag k="name" v="Vika" />
		<tag k="name:no" v="Vika" />
		<tag k="natural" v="bay" />
		<tag k="ssr:stedsnr" v="627934" />
	</node>
	<node id="-692796" lat="68.0478555556" lon="16.2668555525">
		<tag k="name" v="Stokkerota" />
		<tag k="name:no" v="Stokkerota" />
		<tag k="natural" v="cape" />
		<tag k="ssr:stedsnr" v="627891" />
	</node>
	<node id="-692795" lat="68.0463000036" lon="16.1671999893">
		<tag k="name" v="Kivika" />
		<tag k="name:no" v="Kivika" />
		<tag k="natural" v="bay" />
		<tag k="ssr:stedsnr" v="627889" />
	</node>
	<node id="-692793" lat="68.1248555525" lon="16.1078583386">
		<tag k="name" v="Lappodden" />
		<tag k="name:no" v="Lappodden" />
		<tag k="natural" v="cape" />
		<tag k="ssr:stedsnr" v="627627" />
	</node>
	<node id="-692790" lat="68.2496944475" lon="15.9308972207">
		<tag k="name" v="Ramnholmen" />
		<tag k="name:no" v="Ramnholmen" />
		<tag k="place" v="islet" />
		<tag k="ssr:stedsnr" v="623865" />
	</node>
	<node id="-692789" lat="68.2126805543" lon="16.1097583381">
		<tag k="name" v="Brattbergvika" />
		<tag k="name:no" v="Brattbergvika" />
		<tag k="natural" v="bay" />
		<tag k="ssr:stedsnr" v="623844" />
	</node>
	<node id="-692786" lat="68.1962916686" lon="16.118038883">
		<tag k="name" v="Tjeldhamn" />
		<tag k="name:no" v="Tjeldhamn" />
		<tag k="natural" v="bay" />
		<tag k="ssr:stedsnr" v="623831" />
	</node>
	<node id="-692782" lat="68.0248083296" lon="16.403975002">
		<tag k="fixme" v="multiple name tags, choose one and add the other to alt_name" />
		<tag k="name" v="Klubben;Kvassvikklubben" />
		<tag k="name:no" v="Klubben;Kvassvikklubben" />
		<tag k="natural" v="cape" />
		<tag k="ssr:stedsnr" v="623754" />
	</node>
	<node id="-692780" lat="68.1208805521" lon="16.1286666698">
		<tag k="name" v="Nevervikgrunnen" />
		<tag k="name:no" v="Nevervikgrunnen" />
		<tag k="natural" v="shoal" />
		<tag k="place" v="locality" />
		<tag k="ssr:stedsnr" v="623671" />
	</node>
	<node id="-692778" lat="68.1506527766" lon="16.4035249899">
		<tag k="name" v="Holman" />
		<tag k="name:no" v="Holman" />
		<tag k="place" v="islet" />
		<tag k="ssr:stedsnr" v="623635" />
	</node>
	<node id="-692775" lat="68.1774083353" lon="16.3807916563">
		<tag k="name" v="Nordneset" />
		<tag k="name:no" v="Nordneset" />
		<tag k="natural" v="cape" />
		<tag k="ssr:stedsnr" v="623616" />
	</node>
	<node id="-692766" lat="68.2621861112" lon="16.2688777659">
		<tag k="name" v="Skjærnes" />
		<tag k="name:no" v="Skjærnes" />
		<tag k="natural" v="cape" />
		<tag k="ssr:stedsnr" v="623567" />
	</node>
	<node id="-692763" lat="68.0308638852" lon="16.3277555506">
		<tag k="name" v="Larsjordneset" />
		<tag k="name:no" v="Larsjordneset" />
		<tag k="natural" v="cape" />
		<tag k="ssr:stedsnr" v="623548" />
	</node>
	<node id="-692761" lat="68.2260861139" lon="16.4492888807">
		<tag k="name" v="Salletnjárgga - Sildpollneset" />
		<tag k="name:no" v="Sildpollneset" />
		<tag k="name:smj" v="Salletnjárgga" />
		<tag k="natural" v="cape" />
		<tag k="ssr:stedsnr" v="623532" />
	</node>
	<node id="-692754" lat="68.2503805519" lon="15.9239277777">
		<tag k="name" v="Langbåen" />
		<tag k="name:no" v="Langbåen" />
		<tag k="natural" v="shoal" />
		<tag k="place" v="locality" />
		<tag k="ssr:stedsnr" v="623411" />
	</node>
	<node id="-692746" lat="67.9032416712" lon="16.2488999904">
		<tag k="name" v="Láppat" />
		<tag k="name:smj" v="Láppat" />
		<tag k="natural" v="beach" />
		<tag k="old_name:smj" v="Láhppat" />
		<tag k="place" v="locality" />
		<tag k="ssr:stedsnr" v="623325" />
	</node>
	<node id="-692740" lat="67.9659750034" lon="16.5240277677">
		<tag k="name" v="Návssteluokta - Naustvika" />
		<tag k="name:no" v="Naustvika" />
		<tag k="name:smj" v="Návssteluokta" />
		<tag k="natural" v="bay" />
		<tag k="ssr:stedsnr" v="623287" />
	</node>
	<node id="-692732" lat="67.857736109" lon="16.4609805631">
		<tag k="name" v="Nordbukta" />
		<tag k="name:no" v="Nordbukta" />
		<tag k="natural" v="bay" />
		<tag k="old_name:no" v="Norbukta" />
		<tag k="ssr:stedsnr" v="588314" />
	</node>
	<node id="-692725" lat="68.249502781" lon="15.9075527663">
		<tag k="name" v="Storbåen" />
		<tag k="name:no" v="Storbåen" />
		<tag k="natural" v="shoal" />
		<tag k="place" v="locality" />
		<tag k="ssr:stedsnr" v="582161" />
	</node>
	<node id="-692723" lat="68.0943583353" lon="16.3420250066">
		<tag k="name" v="Olderviknes" />
		<tag k="name:no" v="Olderviknes" />
		<tag k="natural" v="cape" />
		<tag k="ssr:stedsnr" v="571573" />
	</node>
	<node id="-692718" lat="68.2056694483" lon="16.3837638841">
		<tag k="name" v="Yttervalen" />
		<tag k="name:no" v="Yttervalen" />
		<tag k="natural" v="strait" />
		<tag k="ssr:stedsnr" v="567984" />
	</node>
	<node id="-692717" lat="68.205111111" lon="16.4104583411">
		<tag k="name" v="Osen" />
		<tag k="name:no" v="Osen" />
		<tag k="natural" v="bay" />
		<tag k="ssr:stedsnr" v="567977" />
	</node>
	<node id="-692715" lat="68.1472972213" lon="16.266933332">
		<tag k="name" v="Sørosen" />
		<tag k="name:no" v="Sørosen" />
		<tag k="natural" v="bay" />
		<tag k="ssr:stedsnr" v="567963" />
	</node>
	<node id="-692706" lat="68.1421138924" lon="16.2224194568">
		<tag k="name" v="Innerholmodden" />
		<tag k="name:no" v="Innerholmodden" />
		<tag k="natural" v="cape" />
		<tag k="ssr:stedsnr" v="567889" />
	</node>
	<node id="-692705" lat="68.0567111109" lon="16.2137861107">
		<tag k="name" v="Kjerrik" />
		<tag k="name:no" v="Kjerrik" />
		<tag k="natural" v="bay" />
		<tag k="ssr:stedsnr" v="567886" />
	</node>
	<node id="-692702" lat="68.0809972255" lon="16.6389499958">
		<tag k="name" v="Jávrreneset" />
		<tag k="name:no" v="Jávrreneset" />
		<tag k="natural" v="cape" />
		<tag k="ssr:stedsnr" v="567780" />
	</node>
	<node id="-692700" lat="68.1862194429" lon="16.4798638834">
		<tag k="name" v="Neppvika" />
		<tag k="name:no" v="Neppvika" />
		<tag k="natural" v="bay" />
		<tag k="ssr:stedsnr" v="567764" />
	</node>
	<node id="-692694" lat="68.2058194483" lon="16.1021277713">
		<tag k="name" v="Litlvika" />
		<tag k="name:no" v="Litlvika" />
		<tag k="natural" v="bay" />
		<tag k="ssr:stedsnr" v="567682" />
	</node>
	<node id="-692687" lat="68.1869249989" lon="16.0300750082">
		<tag k="name" v="Jamsnes" />
		<tag k="name:no" v="Jamsnes" />
		<tag k="natural" v="cape" />
		<tag k="ssr:stedsnr" v="567643" />
	</node>
	<node id="-692686" lat="68.1868583349" lon="16.0890638921">
		<tag k="name" v="Ner-Kalvikneset" />
		<tag k="name:no" v="Ner-Kalvikneset" />
		<tag k="natural" v="cape" />
		<tag k="ssr:stedsnr" v="567638" />
	</node>
	<node id="-692683" lat="67.8900250014" lon="16.2327805532">
		<tag k="name" v="Jiehkenjárga" />
		<tag k="name:smj" v="Jiehkenjárga" />
		<tag k="natural" v="cape" />
		<tag k="ssr:stedsnr" v="567576" />
	</node>
	<node id="-692675" lat="68.189075" lon="16.0724361216">
		<tag k="fixme" v="consider seamark:type=rock or natural=shoal" />
		<tag k="name" v="Langskjeret" />
		<tag k="name:no" v="Langskjeret" />
		<tag k="place" v="islet" />
		<tag k="ssr:stedsnr" v="563814" />
	</node>
	<node id="-692674" lat="68.1861166651" lon="16.0679333232">
		<tag k="fixme" v="consider seamark:type=rock or natural=shoal" />
		<tag k="name" v="Botnøyskjeret" />
		<tag k="name:no" v="Botnøyskjeret" />
		<tag k="place" v="islet" />
		<tag k="ssr:stedsnr" v="563812" />
	</node>
	<node id="-692673" lat="68.0039472221" lon="16.4588444347">
		<tag k="fixme" v="multiple name tags, choose one and add the other to alt_name" />
		<tag k="name" v="Mulneset;Muskeneset" />
		<tag k="name:no" v="Mulneset;Muskeneset" />
		<tag k="natural" v="cape" />
		<tag k="ssr:stedsnr" v="563755" />
	</node>
	<node id="-692662" lat="68.2454555583" lon="16.2515972296">
		<tag k="bay" v="fjord" />
		<tag k="name" v="Rábekjukso - Skrovkjosen" />
		<tag k="name:no" v="Skrovkjosen" />
		<tag k="name:smj" v="Rábekjukso" />
		<tag k="natural" v="bay" />
		<tag k="ssr:stedsnr" v="563538" />
	</node>
	<node id="-692659" lat="68.2530388852" lon="16.3578722133">
		<tag k="name" v="Skjellesvikklubben" />
		<tag k="name:no" v="Skjellesvikklubben" />
		<tag k="natural" v="cape" />
		<tag k="ssr:stedsnr" v="563517" />
	</node>
	<node id="-692656" lat="68.2620833309" lon="16.0152444361">
		<tag k="name" v="Stor-Hestvika" />
		<tag k="name:no" v="Stor-Hestvika" />
		<tag k="natural" v="bay" />
		<tag k="ssr:stedsnr" v="563375" />
	</node>
	<node id="-692634" lat="68.0318750034" lon="16.3467277869">
		<tag k="name" v="Tjårrnesholmen" />
		<tag k="name:no" v="Tjårrnesholmen" />
		<tag k="place" v="islet" />
		<tag k="ssr:stedsnr" v="562527" />
	</node>
	<node id="-692625" lat="67.9237861072" lon="16.2067777777">
		<tag k="name" v="Gidádumluokta - Sommarsetvika" />
		<tag k="name:no" v="Sommarsetvika" />
		<tag k="name:smj" v="Gidádumluokta" />
		<tag k="natural" v="bay" />
		<tag k="old_name:smj" v="Gidadumluokta" />
		<tag k="ssr:stedsnr" v="562387" />
	</node>
	<node id="-692622" lat="67.94125833" lon="16.4109333263">
		<tag k="name" v="Sáltvuopnjárgga - Saltvopneset" />
		<tag k="name:no" v="Saltvopneset" />
		<tag k="name:smj" v="Sáltvuopnjárgga" />
		<tag k="natural" v="cape" />
		<tag k="ssr:stedsnr" v="562325" />
	</node>
	<node id="-692620" lat="67.9029166636" lon="16.2402666698">
		<tag k="name" v="Basudis" />
		<tag k="name:smj" v="Basudis" />
		<tag k="natural" v="cape" />
		<tag k="ssr:stedsnr" v="562306" />
	</node>
	<node id="-692612" lat="67.9962277769" lon="16.3117861073">
		<tag k="name" v="Ájdeluokta - Eidvika" />
		<tag k="name:no" v="Eidvika" />
		<tag k="name:smj" v="Ájdeluokta" />
		<tag k="natural" v="bay" />
		<tag k="ssr:stedsnr" v="562232" />
	</node>
	<node id="-692606" lat="67.8174527739" lon="16.5183277749">
		<tag k="name" v="Dirvvo" />
		<tag k="name:smj" v="Dirvvo" />
		<tag k="natural" v="bay" />
		<tag k="ssr:stedsnr" v="562110" />
	</node>
	<node id="-692600" lat="68.0472722262" lon="16.3288638983">
		<tag k="name" v="Gallonjargrunnen" />
		<tag k="name:no" v="Gallonjargrunnen" />
		<tag k="natural" v="shoal" />
		<tag k="place" v="locality" />
		<tag k="ssr:stedsnr" v="528132" />
	</node>
	<node id="-692596" lat="68.0599277742" lon="16.3235972288">
		<tag k="fixme" v="multiple name tags, choose one and add the other to alt_name" />
		<tag k="name" v="Holmen;Åborholmen" />
		<tag k="name:no" v="Holmen;Åborholmen" />
		<tag k="place" v="islet" />
		<tag k="ssr:stedsnr" v="524201" />
	</node>
	<node id="-692584" lat="68.2698583378" lon="16.3447694424">
		<tag k="name" v="Gulliknes" />
		<tag k="name:no" v="Gulliknes" />
		<tag k="natural" v="cape" />
		<tag k="ssr:stedsnr" v="507996" />
	</node>
	<node id="-692583" lat="68.2148638916" lon="16.290611108">
		<tag k="name" v="Skálltjonjárgga - Skjellnes" />
		<tag k="name:no" v="Skjellnes" />
		<tag k="name:smj" v="Skálltjonjárgga" />
		<tag k="natural" v="cape" />
		<tag k="ssr:stedsnr" v="507993" />
	</node>
	<node id="-692579" lat="68.2458499963" lon="16.3058972145">
		<tag k="name" v="Brandsøyklubben" />
		<tag k="name:no" v="Brandsøyklubben" />
		<tag k="natural" v="cape" />
		<tag k="ssr:stedsnr" v="507973" />
	</node>
	<node id="-692578" lat="68.2045805528" lon="16.3887333259">
		<tag k="name" v="Kjerringvika" />
		<tag k="name:no" v="Kjerringvika" />
		<tag k="natural" v="bay" />
		<tag k="ssr:stedsnr" v="507970" />
	</node>
	<node id="-692575" lat="68.1423305514" lon="16.3348222314">
		<tag k="name" v="Nes" />
		<tag k="name:no" v="Nes" />
		<tag k="natural" v="cape" />
		<tag k="ssr:stedsnr" v="507949" />
	</node>
	<node id="-692570" lat="67.9383250029" lon="16.4460000114">
		<tag k="name" v="Biehtsenjárgga - Forrneset" />
		<tag k="name:no" v="Forrneset" />
		<tag k="name:smj" v="Biehtsenjárgga" />
		<tag k="natural" v="cape" />
		<tag k="ssr:stedsnr" v="507901" />
	</node>
	<node id="-692569" lat="68.1300111138" lon="16.1158527761">
		<tag k="name" v="Storsteinvika" />
		<tag k="name:no" v="Storsteinvika" />
		<tag k="natural" v="bay" />
		<tag k="ssr:stedsnr" v="507898" />
	</node>
	<node id="-692568" lat="68.0493222211" lon="16.1753249969">
		<tag k="name" v="Skurttjo - Skurtja" />
		<tag k="name:no" v="Skurtja" />
		<tag k="name:smj" v="Skurttjo" />
		<tag k="natural" v="bay" />
		<tag k="ssr:stedsnr" v="507883" />
	</node>
	<node id="-692567" lat="68.0797611101" lon="16.715552769">
		<tag k="name" v="Kvanntabukta" />
		<tag k="name:no" v="Kvanntabukta" />
		<tag k="natural" v="bay" />
		<tag k="ssr:stedsnr" v="507792" />
	</node>
	<node id="-692565" lat="68.0647944473" lon="16.6616416574">
		<tag k="name" v="Bersveinneset" />
		<tag k="name:no" v="Bersveinneset" />
		<tag k="natural" v="cape" />
		<tag k="ssr:stedsnr" v="507775" />
	</node>
	<node id="-692563" lat="68.2628111077" lon="15.9426555657">
		<tag k="name" v="Litlvika" />
		<tag k="name:no" v="Litlvika" />
		<tag k="natural" v="bay" />
		<tag k="ssr:stedsnr" v="507740" />
	</node>
	<node id="-692562" lat="68.0477277769" lon="16.0661527655">
		<tag k="loc_name:smj" v="Luokta" />
		<tag k="name" v="Ájluokta - Dragsbukta" />
		<tag k="name:no" v="Dragsbukta" />
		<tag k="name:smj" v="Ájluokta" />
		<tag k="natural" v="bay" />
		<tag k="ssr:stedsnr" v="507671" />
	</node>
	<node id="-692550" lat="68.0286611072" lon="16.3436750043">
		<tag k="name" v="Osen" />
		<tag k="name:no" v="Osen" />
		<tag k="natural" v="bay" />
		<tag k="ssr:stedsnr" v="506912" />
	</node>
	<node id="-692543" lat="68.0374833344" lon="16.4200138787">
		<tag k="name" v="Juovvaluokta - Urdvika" />
		<tag k="name:no" v="Urdvika" />
		<tag k="name:smj" v="Juovvaluokta" />
		<tag k="natural" v="bay" />
		<tag k="ssr:stedsnr" v="502814" />
	</node>
	<node id="-692532" lat="68.1438333342" lon="16.2223833407">
		<tag k="name" v="Benasuollusj - Litl-Hundholmen" />
		<tag k="name:no" v="Litl-Hundholmen" />
		<tag k="name:smj" v="Benasuollusj" />
		<tag k="place" v="islet" />
		<tag k="ssr:stedsnr" v="502628" />
	</node>
	<node id="-692530" lat="68.1866222213" lon="16.2533555506">
		<tag k="bay" v="fjord" />
		<tag k="name" v="Haukøyfjorden" />
		<tag k="name:no" v="Haukøyfjorden" />
		<tag k="natural" v="bay" />
		<tag k="ssr:stedsnr" v="502595" />
	</node>
	<node id="-692527" lat="68.1181583355" lon="16.457922215">
		<tag k="name" v="Láppesluokta" />
		<tag k="name:smj" v="Láppesluokta" />
		<tag k="natural" v="bay" />
		<tag k="ssr:stedsnr" v="502574" />
	</node>
	<node id="-692522" lat="68.247049996" lon="16.3542805527">
		<tag k="name" v="Ulbbeluokta - Ulvika" />
		<tag k="name:no" v="Ulvika" />
		<tag k="name:smj" v="Ulbbeluokta" />
		<tag k="natural" v="bay" />
		<tag k="ssr:stedsnr" v="502549" />
	</node>
	<node id="-692519" lat="68.0835861103" lon="16.7243472163">
		<tag k="name" v="Innerpollen" />
		<tag k="name:no" v="Innerpollen" />
		<tag k="natural" v="bay" />
		<tag k="ssr:stedsnr" v="502543" />
	</node>
	<node id="-692518" lat="68.0852027749" lon="16.6476611159">
		<tag k="name" v="Hjellvikneset" />
		<tag k="name:no" v="Hjellvikneset" />
		<tag k="natural" v="cape" />
		<tag k="ssr:stedsnr" v="502540" />
	</node>
	<node id="-692515" lat="68.0299972262" lon="16.2587444388">
		<tag k="name" v="Sálomluokta" />
		<tag k="name:smj" v="Sálomluokta" />
		<tag k="natural" v="bay" />
		<tag k="ssr:stedsnr" v="502523" />
	</node>
	<node id="-692505" lat="67.9290222235" lon="16.214069435">
		<tag k="name" v="Dátjajuolgge" />
		<tag k="name:smj" v="Dátjajuolgge" />
		<tag k="natural" v="bay" />
		<tag k="old_name:smj" v="Dáččajuolgi" />
		<tag k="ssr:stedsnr" v="502402" />
	</node>
	<node id="-692500" lat="67.8411111133" lon="16.435583335">
		<tag k="name" v="Gállonjárgga" />
		<tag k="name:smj" v="Gállonjárgga" />
		<tag k="natural" v="cape" />
		<tag k="old_name:smj" v="Gállonjárga" />
		<tag k="ssr:stedsnr" v="502344" />
	</node>
	<node id="-692499" lat="67.8399666648" lon="16.4067750085">
		<tag k="name" v="Njirramaš, unna" />
		<tag k="name:smj" v="Njirramaš, unna" />
		<tag k="natural" v="beach" />
		<tag k="place" v="locality" />
		<tag k="ssr:stedsnr" v="502345" />
	</node>
	<node id="-692494" lat="67.8922861085" lon="16.2712944387">
		<tag k="fixme" v="consider seamark:type=rock or natural=shoal" />
		<tag k="name" v="Lállusgiergge" />
		<tag k="name:smj" v="Lállusgiergge" />
		<tag k="place" v="islet" />
		<tag k="ssr:stedsnr" v="502297" />
	</node>
	<node id="-692483" lat="67.8139138911" lon="16.4903916646">
		<tag k="name" v="Biedáluokta" />
		<tag k="name:smj" v="Biedáluokta" />
		<tag k="natural" v="bay" />
		<tag k="ssr:stedsnr" v="502119" />
	</node>
	<node id="-692479" lat="68.1773861104" lon="16.3310166572">
		<tag k="name" v="Nesskallen" />
		<tag k="name:no" v="Nesskallen" />
		<tag k="natural" v="shoal" />
		<tag k="place" v="locality" />
		<tag k="ssr:stedsnr" v="467505" />
	</node>
	<node id="-692477" lat="68.0925916713" lon="16.2543194382">
		<tag k="name" v="Ørnberget" />
		<tag k="name:no" v="Ørnberget" />
		<tag k="natural" v="cape" />
		<tag k="ssr:stedsnr" v="467352" />
	</node>
	<node id="-692476" lat="67.903230553" lon="16.2607166757">
		<tag k="name" v="Jesvika" />
		<tag k="name:no" v="Jesvika" />
		<tag k="natural" v="bay" />
		<tag k="ssr:stedsnr" v="467905" />
	</node>
	<node id="-692475" lat="68.2576222212" lon="15.9360333323">
		<tag k="name" v="Nausthaugnes" />
		<tag k="name:no" v="Nausthaugnes" />
		<tag k="natural" v="cape" />
		<tag k="ssr:stedsnr" v="461159" />
	</node>
	<node id="-692474" lat="68.2336027737" lon="15.942375002">
		<tag k="name" v="Seiskallen" />
		<tag k="name:no" v="Seiskallen" />
		<tag k="natural" v="shoal" />
		<tag k="place" v="locality" />
		<tag k="ssr:stedsnr" v="461152" />
	</node>
	<node id="-692461" lat="68.0105583351" lon="16.3273777758">
		<tag k="name" v="Kjerrneset" />
		<tag k="name:no" v="Kjerrneset" />
		<tag k="natural" v="cape" />
		<tag k="ssr:stedsnr" v="446919" />
	</node>
	<node id="-692460" lat="67.9529055529" lon="16.4124861088">
		<tag k="name" v="Garváldakluokta - Vika" />
		<tag k="name:no" v="Vika" />
		<tag k="name:smj" v="Garváldakluokta" />
		<tag k="natural" v="bay" />
		<tag k="ssr:stedsnr" v="446910" />
	</node>
	<node id="-692457" lat="68.1342333346" lon="16.2521388811">
		<tag k="name" v="Gábmánjárgga - Lappgamneset" />
		<tag k="name:no" v="Lappgamneset" />
		<tag k="name:smj" v="Gábmánjárgga" />
		<tag k="natural" v="cape" />
		<tag k="ssr:stedsnr" v="446888" />
	</node>
	<node id="-692456" lat="68.1468166678" lon="16.223822213">
		<tag k="fixme" v="consider seamark:type=rock or natural=shoal" />
		<tag k="name" v="Langodden" />
		<tag k="name:no" v="Langodden" />
		<tag k="place" v="islet" />
		<tag k="ssr:stedsnr" v="446884" />
	</node>
	<node id="-692455" lat="68.0595555541" lon="16.1992944394">
		<tag k="name" v="Stagga" />
		<tag k="name:no" v="Stagga" />
		<tag k="natural" v="bay" />
		<tag k="ssr:stedsnr" v="446883" />
	</node>
	<node id="-692454" lat="68.0532555552" lon="16.2331333307">
		<tag k="name" v="Skattvika" />
		<tag k="name:no" v="Skattvika" />
		<tag k="natural" v="bay" />
		<tag k="ssr:stedsnr" v="446880" />
	</node>
	<node id="-692452" lat="68.0862194409" lon="16.6878555547">
		<tag k="name" v="Hallarvika" />
		<tag k="name:no" v="Hallarvika" />
		<tag k="natural" v="bay" />
		<tag k="ssr:stedsnr" v="446787" />
	</node>
	<node id="-692451" lat="68.1235249962" lon="16.4277805565">
		<tag k="name" v="Eidvika" />
		<tag k="name:no" v="Eidvika" />
		<tag k="natural" v="bay" />
		<tag k="ssr:stedsnr" v="446771" />
	</node>
	<node id="-692450" lat="68.1208944444" lon="16.4730722127">
		<tag k="name" v="Langnesvika" />
		<tag k="name:no" v="Langnesvika" />
		<tag k="natural" v="cape" />
		<tag k="ssr:stedsnr" v="446766" />
	</node>
	<node id="-692449" lat="68.2362555539" lon="15.9520555514">
		<tag k="name" v="Lappvika" />
		<tag k="name:no" v="Lappvika" />
		<tag k="natural" v="bay" />
		<tag k="ssr:stedsnr" v="446743" />
	</node>
	<node id="-692448" lat="68.2430444435" lon="15.9483305457">
		<tag k="name" v="Råvika" />
		<tag k="name:no" v="Råvika" />
		<tag k="natural" v="bay" />
		<tag k="ssr:stedsnr" v="446742" />
	</node>
	<node id="-692440" lat="67.8972333299" lon="16.3014027788">
		<tag k="name" v="Bánnalásses" />
		<tag k="name:smj" v="Bánnalásses" />
		<tag k="natural" v="beach" />
		<tag k="place" v="locality" />
		<tag k="ssr:stedsnr" v="446611" />
	</node>
	<node id="-692437" lat="67.8931861124" lon="16.2474277751">
		<tag k="name" v="Tjájnenjárgga" />
		<tag k="name:smj" v="Tjájnenjárgga" />
		<tag k="natural" v="cape" />
		<tag k="ssr:stedsnr" v="446602" />
	</node>
	<node id="-692431" lat="68.2577666668" lon="15.9502638885">
		<tag k="name" v="Litlhavet" />
		<tag k="name:no" v="Litlhavet" />
		<tag k="natural" v="bay" />
		<tag k="ssr:stedsnr" v="446528" />
	</node>
	<node id="-692429" lat="68.2649527822" lon="15.9665388785">
		<tag k="name" v="Nordsjøen" />
		<tag k="name:no" v="Nordsjøen" />
		<tag k="natural" v="beach" />
		<tag k="place" v="locality" />
		<tag k="ssr:stedsnr" v="446505" />
	</node>
	<node id="-692428" lat="68.2653638851" lon="15.9752666667">
		<tag k="name" v="Oternakkneset" />
		<tag k="name:no" v="Oternakkneset" />
		<tag k="natural" v="cape" />
		<tag k="ssr:stedsnr" v="446502" />
	</node>
	<node id="-692426" lat="68.0283388869" lon="16.3876916765">
		<tag k="name" v="Gárjjelnjárgga - Kvassvikodden" />
		<tag k="name:no" v="Kvassvikodden" />
		<tag k="name:smj" v="Gárjjelnjárgga" />
		<tag k="natural" v="cape" />
		<tag k="old_name:smj" v="Gárjelnjárga" />
		<tag k="ssr:stedsnr" v="442764" />
	</node>
	<node id="-692424" lat="68.0060083337" lon="16.3351583399">
		<tag k="name" v="Slihpeluokta - Kjerrvika" />
		<tag k="name:no" v="Kjerrvika" />
		<tag k="name:smj" v="Slihpeluokta" />
		<tag k="natural" v="bay" />
		<tag k="ssr:stedsnr" v="442757" />
	</node>
	<node id="-692419" lat="68.1048361158" lon="16.3166805443">
		<tag k="alt_name:no" v="Urdvika" />
		<tag k="name" v="Juovvaluokta - Urvika" />
		<tag k="name:no" v="Urvika" />
		<tag k="name:smj" v="Juovvaluokta" />
		<tag k="natural" v="bay" />
		<tag k="ssr:stedsnr" v="442575" />
	</node>
	<node id="-692418" lat="68.119055557" lon="16.3010694485">
		<tag k="name" v="Kobbvika" />
		<tag k="name:no" v="Kobbvika" />
		<tag k="natural" v="bay" />
		<tag k="ssr:stedsnr" v="442573" />
	</node>
	<node id="-692412" lat="68.0266527746" lon="16.284330548">
		<tag k="name" v="Njárgádde - Fagernes" />
		<tag k="name:no" v="Fagernes" />
		<tag k="name:smj" v="Njárgádde" />
		<tag k="natural" v="cape" />
		<tag k="ssr:stedsnr" v="442532" />
	</node>
	<node id="-692411" lat="68.0214611129" lon="16.3239194401">
		<tag k="alt_name:no" v="Kjevika" />
		<tag k="name" v="Kivika" />
		<tag k="name:no" v="Kivika" />
		<tag k="natural" v="bay" />
		<tag k="ssr:stedsnr" v="442531" />
	</node>
	<node id="-692408" lat="68.2629666652" lon="15.9351527858">
		<tag k="name" v="Skjåbåen" />
		<tag k="name:no" v="Skjåbåen" />
		<tag k="natural" v="shoal" />
		<tag k="place" v="locality" />
		<tag k="ssr:stedsnr" v="442399" />
	</node>
	<node id="-692404" lat="67.9044444454" lon="16.2251222135">
		<tag k="name" v="Måskesuoloj - Muskholmen" />
		<tag k="name:no" v="Muskholmen" />
		<tag k="name:smj" v="Måskesuoloj" />
		<tag k="place" v="islet" />
		<tag k="ssr:stedsnr" v="442351" />
	</node>
	<node id="-692403" lat="67.8971666688" lon="16.2855860999">
		<tag k="name" v="Buollámluokta" />
		<tag k="name:smj" v="Buollámluokta" />
		<tag k="natural" v="bay" />
		<tag k="old_name:smj" v="Buollamluokta" />
		<tag k="ssr:stedsnr" v="442347" />
	</node>
	<node id="-692400" lat="68.1465416671" lon="16.2626305472">
		<tag k="name" v="Grindvika" />
		<tag k="name:no" v="Grindvika" />
		<tag k="natural" v="bay" />
		<tag k="ssr:stedsnr" v="441847" />
	</node>
	<node id="-692399" lat="68.2295333353" lon="16.0593250108">
		<tag k="name" v="Bogstranda" />
		<tag k="name:no" v="Bogstranda" />
		<tag k="natural" v="beach" />
		<tag k="place" v="locality" />
		<tag k="ssr:stedsnr" v="441836" />
	</node>
	<node id="-692395" lat="68.0492499958" lon="16.1685277829">
		<tag k="name" v="Vuollná - Litl-Hulløya" />
		<tag k="name:no" v="Litl-Hulløya" />
		<tag k="name:smj" v="Vuollná" />
		<tag k="place" v="island" />
		<tag k="ssr:stedsnr" v="441611" />
	</node>
	<node id="-692394" lat="68.0471942552" lon="16.0855701489">
		<tag k="name" v="Hamnneset" />
		<tag k="name:no" v="Hamnneset" />
		<tag k="natural" v="cape" />
		<tag k="ssr:stedsnr" v="441573" />
	</node>
	<node id="-692384" lat="68.0621395541" lon="16.3594653671">
		<tag k="alt_name:no" v="Bjørknes" />
		<tag k="name" v="Soahkenjárgga - Bjerkneset" />
		<tag k="name:no" v="Bjerkneset" />
		<tag k="name:smj" v="Soahkenjárgga" />
		<tag k="natural" v="cape" />
		<tag k="old_name:smj" v="Soahkenjárga" />
		<tag k="ssr:stedsnr" v="441501" />
	</node>
	<node id="-692379" lat="67.8983638869" lon="16.2041666609">
		<tag k="name" v="Luovtasj" />
		<tag k="name:smj" v="Luovtasj" />
		<tag k="natural" v="bay" />
		<tag k="ssr:stedsnr" v="441380" />
	</node>
	<node id="-692377" lat="67.9940583311" lon="16.4488083367">
		<tag k="bay" v="fjord" />
		<tag k="name" v="Spællá - Mannfjorden" />
		<tag k="name:no" v="Mannfjorden" />
		<tag k="name:smj" v="Spællá" />
		<tag k="natural" v="bay" />
		<tag k="ssr:stedsnr" v="441295" />
	</node>
	<node id="-692374" lat="67.9716583339" lon="16.3438722109">
		<tag k="name" v="Jæmsluokta" />
		<tag k="name:smj" v="Jæmsluokta" />
		<tag k="natural" v="bay" />
		<tag k="ssr:stedsnr" v="441288" />
	</node>
	<node id="-692373" lat="68.0170833373" lon="16.3162861031">
		<tag k="bay" v="fjord" />
		<tag k="name" v="Rudnávuodna - Grunnfjorden" />
		<tag k="name:no" v="Grunnfjorden" />
		<tag k="name:smj" v="Rudnávuodna" />
		<tag k="natural" v="bay" />
		<tag k="ssr:stedsnr" v="441283" />
	</node>
	<node id="-692366" lat="67.8159166652" lon="16.5010000104">
		<tag k="name" v="Sáreknjárgga" />
		<tag k="name:smj" v="Sáreknjárgga" />
		<tag k="natural" v="cape" />
		<tag k="ssr:stedsnr" v="441124" />
	</node>
	<node id="-692365" lat="68.1083611119" lon="16.1072833244">
		<tag k="name" v="Skjåvika" />
		<tag k="name:no" v="Skjåvika" />
		<tag k="natural" v="bay" />
		<tag k="ssr:stedsnr" v="265549" />
	</node>
	<node id="-692364" lat="68.26308889" lon="16.3153277677">
		<tag k="name" v="Sildvågodden" />
		<tag k="name:no" v="Sildvågodden" />
		<tag k="natural" v="cape" />
		<tag k="ssr:stedsnr" v="264996" />
	</node>
	<node id="-692363" lat="68.2031083332" lon="16.3937111175">
		<tag k="name" v="Åkernes" />
		<tag k="name:no" v="Åkernes" />
		<tag k="natural" v="cape" />
		<tag k="ssr:stedsnr" v="264970" />
	</node>
	<node id="-692353" lat="67.9795972193" lon="16.3566083327">
		<tag k="name" v="Torvbergvika" />
		<tag k="name:no" v="Torvbergvika" />
		<tag k="natural" v="bay" />
		<tag k="ssr:stedsnr" v="264898" />
	</node>
	<node id="-692351" lat="68.1316111087" lon="16.1168333372">
		<tag k="name" v="Finnosneset" />
		<tag k="name:no" v="Finnosneset" />
		<tag k="natural" v="cape" />
		<tag k="ssr:stedsnr" v="264888" />
	</node>
	<node id="-692347" lat="68.1942027807" lon="16.5365111125">
		<tag k="name" v="Djupvika" />
		<tag k="name:no" v="Djupvika" />
		<tag k="natural" v="bay" />
		<tag k="ssr:stedsnr" v="264780" />
	</node>
	<node id="-692344" lat="68.1237513103" lon="16.428478747">
		<tag k="name" v="Kalvibergodden" />
		<tag k="name:no" v="Kalvibergodden" />
		<tag k="natural" v="cape" />
		<tag k="ssr:stedsnr" v="264755" />
	</node>
	<node id="-692341" lat="68.0966027821" lon="16.386774998">
		<tag k="fixme" v="consider seamark:type=rock or natural=shoal" />
		<tag k="name" v="Trondskjeret" />
		<tag k="name:no" v="Trondskjeret" />
		<tag k="place" v="islet" />
		<tag k="ssr:stedsnr" v="264746" />
	</node>
	<node id="-692340" lat="68.2437944465" lon="15.9412888783">
		<tag k="name" v="Råvikneset" />
		<tag k="name:no" v="Råvikneset" />
		<tag k="natural" v="cape" />
		<tag k="ssr:stedsnr" v="264720" />
	</node>
	<node id="-692336" lat="68.0658888869" lon="16.3715499908">
		<tag k="name" v="Mølnvika" />
		<tag k="name:no" v="Mølnvika" />
		<tag k="natural" v="bay" />
		<tag k="ssr:stedsnr" v="264671" />
	</node>
	<node id="-692334" lat="68.1920916682" lon="16.1003805515">
		<tag k="name" v="Storvikskjeret" />
		<tag k="name:no" v="Storvikskjeret" />
		<tag k="place" v="locality" />
		<tag k="seamark:type" v="rock" />
		<tag k="ssr:stedsnr" v="264630" />
	</node>
	<node id="-692324" lat="68.2576583349" lon="15.9463749986">
		<tag k="name" v="Sørsjøen" />
		<tag k="name:no" v="Sørsjøen" />
		<tag k="natural" v="beach" />
		<tag k="place" v="locality" />
		<tag k="ssr:stedsnr" v="264523" />
	</node>
	<node id="-692320" lat="68.1984444403" lon="16.1136777808">
		<tag k="name" v="Klubben" />
		<tag k="name:no" v="Klubben" />
		<tag k="natural" v="cape" />
		<tag k="ssr:stedsnr" v="260846" />
	</node>
	<node id="-692318" lat="68.0057000025" lon="16.4700777787">
		<tag k="name" v="Råsseluokta" />
		<tag k="name:smj" v="Råsseluokta" />
		<tag k="natural" v="bay" />
		<tag k="old_name:smj" v="Rosseluokta" />
		<tag k="ssr:stedsnr" v="260764" />
	</node>
	<node id="-692306" lat="68.1213027753" lon="16.4542166619">
		<tag k="name" v="Guornjunnje - Brenneset" />
		<tag k="name:no" v="Brenneset" />
		<tag k="name:smj" v="Guornjunnje" />
		<tag k="natural" v="cape" />
		<tag k="ssr:stedsnr" v="260594" />
	</node>
	<node id="-692298" lat="68.2012583322" lon="16.1019888964">
		<tag k="bay" v="fjord" />
		<tag k="fixme" v="multiple name tags, choose one and add the other to alt_name" />
		<tag k="name" v="Pollen;Beisfjorden" />
		<tag k="name:no" v="Pollen;Beisfjorden" />
		<tag k="natural" v="bay" />
		<tag k="ssr:stedsnr" v="259813" />
	</node>
	<node id="-692297" lat="68.0271666659" lon="16.5059388772">
		<tag k="name" v="Måskeluokta - Muskvika" />
		<tag k="name:no" v="Muskvika" />
		<tag k="name:smj" v="Måskeluokta" />
		<tag k="natural" v="bay" />
		<tag k="old_name:smj" v="Moskeluokta" />
		<tag k="ssr:stedsnr" v="259725" />
	</node>
	<node id="-692290" lat="68.0459750008" lon="16.0772277865">
		<tag k="name" v="Dragshamna" />
		<tag k="name:no" v="Dragshamna" />
		<tag k="natural" v="bay" />
		<tag k="ssr:stedsnr" v="259595" />
	</node>
	<node id="-692289" lat="68.1711833367" lon="16.3604833353">
		<tag k="name" v="Oarjjelijnjárgga - Sørneset" />
		<tag k="name:no" v="Sørneset" />
		<tag k="name:smj" v="Oarjjelijnjárgga" />
		<tag k="natural" v="cape" />
		<tag k="ssr:stedsnr" v="259585" />
	</node>
	<node id="-692288" lat="68.1877444418" lon="16.3896027837">
		<tag k="bay" v="fjord" />
		<tag k="name" v="Dimbarásvuodna - Tømmeråsfjorden" />
		<tag k="name:no" v="Tømmeråsfjorden" />
		<tag k="name:smj" v="Dimbarásvuodna" />
		<tag k="natural" v="bay" />
		<tag k="ssr:stedsnr" v="259576" />
	</node>
	<node id="-692284" lat="68.0975944477" lon="16.118463884">
		<tag k="fixme" v="consider seamark:type=rock or natural=shoal" />
		<tag k="name" v="Gálláskierre - Kjerrskjæret" />
		<tag k="name:no" v="Kjerrskjæret" />
		<tag k="name:smj" v="Gálláskierre" />
		<tag k="place" v="islet" />
		<tag k="ssr:stedsnr" v="259610" />
	</node>
	<node id="-692280" lat="67.8440388866" lon="16.4003027768">
		<tag k="name" v="Soarvenjárgga" />
		<tag k="name:smj" v="Soarvenjárgga" />
		<tag k="natural" v="cape" />
		<tag k="old_name:smj" v="Soarvenjárga" />
		<tag k="ssr:stedsnr" v="259346" />
	</node>
	<node id="-692272" lat="68.0920388882" lon="16.2879666686">
		<tag k="name" v="Goarvve - Korvika" />
		<tag k="name:no" v="Korvika" />
		<tag k="name:smj" v="Goarvve" />
		<tag k="natural" v="bay" />
		<tag k="old_name:smj" v="Goarvi" />
		<tag k="ssr:stedsnr" v="259515" />
	</node>
	<node id="-692271" lat="68.0403361137" lon="16.2563194374">
		<tag k="name" v="Hulløysundet" />
		<tag k="name:no" v="Hulløysundet" />
		<tag k="natural" v="strait" />
		<tag k="ssr:stedsnr" v="259512" />
	</node>
	<node id="-692267" lat="67.9793944411" lon="16.4889444493">
		<tag k="name" v="Klubbvika" />
		<tag k="name:no" v="Klubbvika" />
		<tag k="natural" v="bay" />
		<tag k="ssr:stedsnr" v="259278" />
	</node>
	<node id="-692266" lat="67.9783222271" lon="16.3352972136">
		<tag k="name" v="Gárddeluokta" />
		<tag k="name:smj" v="Gárddeluokta" />
		<tag k="natural" v="bay" />
		<tag k="ssr:stedsnr" v="259276" />
	</node>
	<node id="-692265" lat="67.9789750039" lon="16.2697777875">
		<tag k="name" v="Tjiegŋalisluokta" />
		<tag k="name:smj" v="Tjiegŋalisluokta" />
		<tag k="natural" v="bay" />
		<tag k="ssr:stedsnr" v="259274" />
	</node>
	<node id="-692257" lat="68.176936109" lon="16.5616055484">
		<tag k="name" v="Bergneset" />
		<tag k="name:no" v="Bergneset" />
		<tag k="natural" v="cape" />
		<tag k="ssr:stedsnr" v="225324" />
	</node>
	<node id="-692256" lat="68.1807777761" lon="16.4782361183">
		<tag k="name" v="Tallerkneset" />
		<tag k="name:no" v="Tallerkneset" />
		<tag k="natural" v="cape" />
		<tag k="ssr:stedsnr" v="225269" />
	</node>
	<node id="-692254" lat="68.0362861134" lon="16.3701444348">
		<tag k="fixme" v="multiple name tags, choose one and add the other to alt_name" />
		<tag k="name" v="Grindvika;Tørrnesvika" />
		<tag k="name:no" v="Grindvika;Tørrnesvika" />
		<tag k="natural" v="bay" />
		<tag k="ssr:stedsnr" v="221937" />
	</node>
	<node id="-692249" lat="68.2515555571" lon="16.069197221">
		<tag k="name" v="Holmegrunnen" />
		<tag k="name:no" v="Holmegrunnen" />
		<tag k="natural" v="shoal" />
		<tag k="place" v="locality" />
		<tag k="ssr:stedsnr" v="218097" />
	</node>
	<node id="-692247" lat="68.2698333368" lon="15.9622888855">
		<tag k="name" v="Nordøyskallen" />
		<tag k="name:no" v="Nordøyskallen" />
		<tag k="natural" v="shoal" />
		<tag k="place" v="locality" />
		<tag k="ssr:stedsnr" v="218165" />
	</node>
	<node id="-692246" lat="68.2670777767" lon="15.9595583381">
		<tag k="fixme" v="consider seamark:type=rock or natural=shoal" />
		<tag k="name" v="Nordøyskjæret" />
		<tag k="name:no" v="Nordøyskjæret" />
		<tag k="place" v="islet" />
		<tag k="ssr:stedsnr" v="218162" />
	</node>
	<node id="-692245" lat="68.2447111089" lon="15.9319027669">
		<tag k="name" v="Tørrhella" />
		<tag k="name:no" v="Tørrhella" />
		<tag k="natural" v="shoal" />
		<tag k="place" v="locality" />
		<tag k="ssr:stedsnr" v="218157" />
	</node>
	<node id="-692242" lat="68.2551694397" lon="16.3582972292">
		<tag k="name" v="Klubbvikhola" />
		<tag k="name:no" v="Klubbvikhola" />
		<tag k="natural" v="bay" />
		<tag k="ssr:stedsnr" v="204991" />
	</node>
	<node id="-692241" lat="68.2064444428" lon="16.3851694523">
		<tag k="name" v="Juliusjorda" />
		<tag k="name:no" v="Juliusjorda" />
		<tag k="natural" v="cape" />
		<tag k="ssr:stedsnr" v="204978" />
	</node>
	<node id="-692239" lat="68.0593305544" lon="16.1839333327">
		<tag k="name" v="Vassvika" />
		<tag k="name:no" v="Vassvika" />
		<tag k="natural" v="bay" />
		<tag k="ssr:stedsnr" v="204867" />
	</node>
	<node id="-692238" lat="68.0869750034" lon="16.6547027826">
		<tag k="name" v="Tennstrandholmen" />
		<tag k="name:no" v="Tennstrandholmen" />
		<tag k="place" v="islet" />
		<tag k="ssr:stedsnr" v="204764" />
	</node>
	<node id="-692235" lat="68.1306833331" lon="16.4619027708">
		<tag k="name" v="Sørvinarka" />
		<tag k="name:no" v="Sørvinarka" />
		<tag k="natural" v="cape" />
		<tag k="ssr:stedsnr" v="204727" />
	</node>
	<node id="-692229" lat="68.1902777816" lon="16.1023750082">
		<tag k="name" v="Skarvsteinen" />
		<tag k="name:no" v="Skarvsteinen" />
		<tag k="place" v="locality" />
		<tag k="seamark:type" v="rock" />
		<tag k="ssr:stedsnr" v="204625" />
	</node>
	<node id="-692226" lat="68.0249388891" lon="16.1606361197">
		<tag k="name" v="Styrstøodden" />
		<tag k="name:no" v="Styrstøodden" />
		<tag k="natural" v="cape" />
		<tag k="ssr:stedsnr" v="204533" />
	</node>
</osm>
