<?xml version="1.0" encoding="UTF-8"?>
<osm generator="osmapis" version="0.6">
	<node id="-691678" lat="68.0120944454" lon="17.0473444361">
		<tag k="alt_name:no" v="Naidirøysa" />
		<tag k="historic" v="boundary_stone" />
		<tag k="man_made" v="cairn" />
		<tag k="name" v="Noaiderøysa" />
		<tag k="name:no" v="Noaiderøysa" />
		<tag k="old_name:no" v="Naidi Røset;Naidi røys" />
		<tag k="place" v="locality" />
		<tag k="ssr:stedsnr" v="717113" />
	</node>
	<node id="-690265" lat="68.0504555588" lon="17.180499991">
		<tag k="historic" v="boundary_stone" />
		<tag k="man_made" v="cairn" />
		<tag k="name" v="Baugefjellsrøysa" />
		<tag k="name:no" v="Baugefjellsrøysa" />
		<tag k="old_name:no" v="Pauda Røset;Pauki Røset;Paukis røys" />
		<tag k="place" v="locality" />
		<tag k="ssr:stedsnr" v="293157" />
	</node>
	<node id="-690264" lat="67.9142138869" lon="16.7381277867">
		<tag k="historic" v="boundary_stone" />
		<tag k="man_made" v="cairn" />
		<tag k="name" v="Rikkehkrøysa" />
		<tag k="name:no" v="Rikkehkrøysa" />
		<tag k="old_name:no" v="Letnavardo Røset;Letnavarddo røys" />
		<tag k="place" v="locality" />
		<tag k="ssr:stedsnr" v="292124" />
	</node>
	<node id="-690999" lat="67.9451805569" lon="16.8335944553">
		<tag k="historic" v="boundary_stone" />
		<tag k="man_made" v="cairn" />
		<tag k="name" v="Perne Olleki-røysa" />
		<tag k="name:no" v="Perne Olleki-røysa" />
		<tag k="old_name:no" v="Perne Olleki Røset;Perni Ollekti røys" />
		<tag k="place" v="locality" />
		<tag k="ssr:stedsnr" v="231164" />
	</node>
	<node id="-691925" lat="67.6800222265" lon="16.5805999998">
		<tag k="historic" v="boundary_stone" />
		<tag k="man_made" v="cairn" />
		<tag k="name" v="Ruonasrøysa" />
		<tag k="name:no" v="Ruonasrøysa" />
		<tag k="old_name:no" v="Runnas Røset;Ruonas røys" />
		<tag k="place" v="locality" />
		<tag k="ssr:stedsnr" v="838194" />
	</node>
	<node id="-690769" lat="67.6491444431" lon="16.553119437">
		<tag k="historic" v="boundary_stone" />
		<tag k="man_made" v="cairn" />
		<tag k="name" v="Sávzzas - Savzasvarre" />
		<tag k="name:no" v="Savzasvarre" />
		<tag k="name:smj" v="Sávzzas" />
		<tag k="place" v="locality" />
		<tag k="ssr:stedsnr" v="101133" />
	</node>
	<node id="-691344" lat="67.7669972248" lon="16.6379861144">
		<tag k="historic" v="boundary_stone" />
		<tag k="man_made" v="cairn" />
		<tag k="name" v="Tjårrorøysa" />
		<tag k="name:no" v="Tjårrorøysa" />
		<tag k="old_name:no" v="Tiorro Røset;Tjorro røys" />
		<tag k="place" v="locality" />
		<tag k="ssr:stedsnr" v="534148" />
	</node>
	<node id="-690533" lat="67.8244249989" lon="16.6789388885">
		<tag k="historic" v="boundary_stone" />
		<tag k="man_made" v="cairn" />
		<tag k="name" v="Katta Murirøysa" />
		<tag k="name:no" v="Katta Murirøysa" />
		<tag k="old_name:no" v="Katta Muri Røset;Katta Murri røys" />
		<tag k="place" v="locality" />
		<tag k="ssr:stedsnr" v="474141" />
	</node>
</osm>
