<?xml version="1.0" encoding="UTF-8"?>
<osm generator="osmapis" version="0.6">
	<node id="-692128" lat="68.1839194488" lon="16.1364638885">
		<tag k="name" v="Stongnestjønna" />
		<tag k="name:no" v="Stongnestjønna" />
		<tag k="natural" v="water" />
		<tag k="ssr:stedsnr" v="937961" />
	</node>
	<node id="-692119" lat="68.2408750026" lon="16.3803027872">
		<tag k="name" v="Plasselva" />
		<tag k="name:no" v="Plasselva" />
		<tag k="ssr:stedsnr" v="932973" />
		<tag k="waterway" v="stream" />
	</node>
	<node id="-692117" lat="68.1235722251" lon="16.4190277848">
		<tag k="name" v="Kikvikeidet" />
		<tag k="name:no" v="Kikvikeidet" />
		<tag k="natural" v="strait" />
		<tag k="ssr:stedsnr" v="932957" />
	</node>
	<node id="-692111" lat="67.7929611124" lon="16.5050472197">
		<tag k="name" v="Jávrásj" />
		<tag k="name:smj" v="Jávrásj" />
		<tag k="natural" v="water" />
		<tag k="ssr:stedsnr" v="932918" />
	</node>
	<node id="-692108" lat="67.967902778" lon="16.5532527695">
		<tag k="name" v="Spællájåhkå - Storelva" />
		<tag k="name:no" v="Storelva" />
		<tag k="name:smj" v="Spællájåhkå" />
		<tag k="ssr:stedsnr" v="932904" />
		<tag k="waterway" v="river" />
	</node>
	<node id="-692104" lat="68.2454111076" lon="16.4817333378">
		<tag k="name" v="Sildpollelva" />
		<tag k="name:no" v="Sildpollelva" />
		<tag k="ssr:stedsnr" v="932740" />
		<tag k="waterway" v="stream" />
	</node>
	<node id="-692100" lat="68.1669999998" lon="16.0262444544">
		<tag k="name" v="Vassneset" />
		<tag k="name:no" v="Vassneset" />
		<tag k="natural" v="cape" />
		<tag k="ssr:stedsnr" v="932676" />
	</node>
	<node id="-692099" lat="68.2171583328" lon="16.079144452">
		<tag k="name" v="Durmålsvatnet" />
		<tag k="name:no" v="Durmålsvatnet" />
		<tag k="natural" v="water" />
		<tag k="ssr:stedsnr" v="932671" />
	</node>
	<node id="-692097" lat="68.0629472209" lon="16.3817249876">
		<tag k="name" v="Mølnvikelva" />
		<tag k="name:no" v="Mølnvikelva" />
		<tag k="ssr:stedsnr" v="932656" />
		<tag k="waterway" v="stream" />
	</node>
	<node id="-692085" lat="68.1442027798" lon="16.0492277836">
		<tag k="name" v="Draget" />
		<tag k="name:no" v="Draget" />
		<tag k="natural" v="strait" />
		<tag k="ssr:stedsnr" v="932532" />
	</node>
	<node id="-692078" lat="67.9552916637" lon="16.8256055496">
		<tag k="name" v="Muvrrajávrre - Røysvatnet" />
		<tag k="name:no" v="Røysvatnet" />
		<tag k="name:smj" v="Muvrrajávrre" />
		<tag k="natural" v="water" />
		<tag k="old_name:smj" v="Muvrajávri" />
		<tag k="ssr:stedsnr" v="928434" />
		<tag k="water" v="lake" />
	</node>
	<node id="-692074" lat="68.0068694479" lon="16.6240527765">
		<tag k="alt_name:no" v="Mannfjellvatnet, l" />
		<tag k="name" v="Litle Mannfjellvatnet" />
		<tag k="name:no" v="Litle Mannfjellvatnet" />
		<tag k="natural" v="water" />
		<tag k="ssr:stedsnr" v="927749" />
	</node>
	<node id="-692073" lat="68.1635166711" lon="16.0317277683">
		<tag k="name" v="Bájddajávrre - Botnvatnet" />
		<tag k="name:no" v="Botnvatnet" />
		<tag k="name:smj" v="Bájddajávrre" />
		<tag k="natural" v="water" />
		<tag k="ssr:stedsnr" v="927734" />
		<tag k="water" v="lake" />
	</node>
	<node id="-692071" lat="68.1685472189" lon="16.0756944548">
		<tag k="name" v="Sandvasselva" />
		<tag k="name:no" v="Sandvasselva" />
		<tag k="ssr:stedsnr" v="927730" />
		<tag k="waterway" v="stream" />
	</node>
	<node id="-692066" lat="67.9579694452" lon="16.0931305458">
		<tag k="name" v="Ráhpukjávrre - Kilvatnet" />
		<tag k="name:no" v="Kilvatnet" />
		<tag k="name:smj" v="Ráhpukjávrre" />
		<tag k="natural" v="water" />
		<tag k="old_name:smj" v="Ráhpokjávri" />
		<tag k="ssr:stedsnr" v="927644" />
		<tag k="water" v="lake" />
	</node>
	<node id="-692052" lat="68.0882000017" lon="16.2762722239">
		<tag k="name" v="Korvikvatna" />
		<tag k="name:no" v="Korvikvatna" />
		<tag k="natural" v="water" />
		<tag k="ssr:stedsnr" v="927531" />
		<tag k="water" v="lake" />
	</node>
	<node id="-692049" lat="68.0625138889" lon="16.4706194323">
		<tag k="fixme" v="multiple name tags, choose one and add the other to alt_name" />
		<tag k="name" v="Vaisaelva;Vájsájåhkå" />
		<tag k="name:smj" v="Vaisaelva;Vájsájåhkå" />
		<tag k="old_name:smj" v="Váisajohka" />
		<tag k="ssr:stedsnr" v="927506" />
		<tag k="waterway" v="stream" />
	</node>
	<node id="-692048" lat="68.0543027762" lon="16.6431083398">
		<tag k="name" v="Øver-Sørfjordvatnet" />
		<tag k="name:no" v="Øver-Sørfjordvatnet" />
		<tag k="natural" v="water" />
		<tag k="ssr:stedsnr" v="927505" />
		<tag k="water" v="lake" />
	</node>
	<node id="-692041" lat="67.829250003" lon="16.284583345">
		<tag k="name" v="Vuolle-Rumbojávrre" />
		<tag k="name:smj" v="Vuolle-Rumbojávrre" />
		<tag k="natural" v="water" />
		<tag k="old_name:smj" v="Rumbojávri, vuolit" />
		<tag k="ssr:stedsnr" v="927358" />
		<tag k="water" v="lake" />
	</node>
	<node id="-692037" lat="67.9901916676" lon="16.6941250104">
		<tag k="name" v="Krokvatnet" />
		<tag k="name:no" v="Krokvatnet" />
		<tag k="natural" v="water" />
		<tag k="ssr:stedsnr" v="927324" />
	</node>
	<node id="-692030" lat="67.7847750046" lon="16.5688999894">
		<tag k="name" v="Amásvákjåhkå" />
		<tag k="name:smj" v="Amásvákjåhkå" />
		<tag k="ssr:stedsnr" v="927166" />
		<tag k="waterway" v="stream" />
	</node>
	<node id="-692019" lat="68.1628472196" lon="16.0715944366">
		<tag k="name" v="Sandvassneset" />
		<tag k="name:no" v="Sandvassneset" />
		<tag k="natural" v="cape" />
		<tag k="ssr:stedsnr" v="876954" />
	</node>
	<node id="-692017" lat="68.1175361103" lon="16.3079722325">
		<tag k="name" v="Kobbvikelva" />
		<tag k="name:no" v="Kobbvikelva" />
		<tag k="ssr:stedsnr" v="875580" />
		<tag k="waterway" v="river" />
	</node>
	<node id="-692010" lat="68.2409500026" lon="16.3500722313">
		<tag k="name" v="Mølnelva" />
		<tag k="name:no" v="Mølnelva" />
		<tag k="ssr:stedsnr" v="871975" />
		<tag k="waterway" v="stream" />
	</node>
	<node id="-692006" lat="68.0503388885" lon="15.9809833424">
		<tag k="name" v="Storbakksanden" />
		<tag k="name:no" v="Storbakksanden" />
		<tag k="natural" v="beach" />
		<tag k="ssr:stedsnr" v="871778" />
	</node>
	<node id="-692000" lat="68.13681389" lon="16.4510388918">
		<tag k="name" v="Båtelva" />
		<tag k="name:no" v="Båtelva" />
		<tag k="ssr:stedsnr" v="871734" />
		<tag k="waterway" v="stream" />
	</node>
	<node id="-691999" lat="68.2038361101" lon="16.5031694364">
		<tag k="name" v="Skjellelva" />
		<tag k="name:no" v="Skjellelva" />
		<tag k="ssr:stedsnr" v="871730" />
		<tag k="waterway" v="stream" />
	</node>
	<node id="-691989" lat="67.9956916699" lon="16.1340138817">
		<tag k="name" v="Tjierrekjåhkå - Myrelva" />
		<tag k="name:no" v="Myrelva" />
		<tag k="name:smj" v="Tjierrekjåhkå" />
		<tag k="ssr:stedsnr" v="871557" />
		<tag k="waterway" v="river" />
	</node>
	<node id="-691982" lat="68.2453222201" lon="16.0207444404">
		<tag k="name" v="Lomtjønnan" />
		<tag k="name:no" v="Lomtjønnan" />
		<tag k="natural" v="water" />
		<tag k="ssr:stedsnr" v="871488" />
	</node>
	<node id="-691977" lat="68.0089527743" lon="16.5490277709">
		<tag k="name" v="Gåhpejávrre" />
		<tag k="name:smj" v="Gåhpejávrre" />
		<tag k="natural" v="water" />
		<tag k="old_name:smj" v="Gohpejávri" />
		<tag k="ssr:stedsnr" v="867768" />
	</node>
	<node id="-691974" lat="67.9636444443" lon="16.1871499911">
		<tag k="loc_name:smj" v="Råggejávrre" />
		<tag k="name" v="Nálakjávrre" />
		<tag k="name:smj" v="Nálakjávrre" />
		<tag k="natural" v="water" />
		<tag k="old_name:smj" v="Nálakjávri" />
		<tag k="ssr:stedsnr" v="867661" />
	</node>
	<node id="-691973" lat="67.9364694467" lon="16.1424277767">
		<tag k="alt_name:no" v="Tennvatnet, nedre" />
		<tag k="name" v="Vuolep Tjierregjávrre - Nedre Tennvatnet" />
		<tag k="name:no" v="Nedre Tennvatnet" />
		<tag k="name:smj" v="Vuolep Tjierregjávrre" />
		<tag k="natural" v="water" />
		<tag k="old_name:smj" v="Čierregjávri voulit" />
		<tag k="ssr:stedsnr" v="867646" />
	</node>
	<node id="-691970" lat="68.0379361133" lon="16.0353249964">
		<tag k="name" v="Litlbakkelva" />
		<tag k="name:no" v="Litlbakkelva" />
		<tag k="ssr:stedsnr" v="867588" />
		<tag k="waterway" v="stream" />
	</node>
	<node id="-691967" lat="68.1284500039" lon="16.3871472234">
		<tag k="name" v="Storbotnvatnet" />
		<tag k="name:no" v="Storbotnvatnet" />
		<tag k="natural" v="water" />
		<tag k="ssr:stedsnr" v="867576" />
	</node>
	<node id="-691963" lat="68.2553499976" lon="15.9979555438">
		<tag k="name" v="Herøyvatnet" />
		<tag k="name:no" v="Herøyvatnet" />
		<tag k="natural" v="water" />
		<tag k="ssr:stedsnr" v="867423" />
	</node>
	<node id="-691953" lat="68.0310638851" lon="16.6881722093">
		<tag k="alt_name:no" v="Kjerringvatnet, store" />
		<tag k="name" v="Stuoráp Áhkásjjávrre - Store Kjerringvatnet" />
		<tag k="name:no" v="Store Kjerringvatnet" />
		<tag k="name:smj" v="Stuoráp Áhkásjjávrre" />
		<tag k="natural" v="water" />
		<tag k="old_name:smj" v="Áhkašjávrrit" />
		<tag k="ssr:stedsnr" v="866802" />
		<tag k="water" v="lake" />
	</node>
	<node id="-691951" lat="68.1617805536" lon="16.0539833232">
		<tag k="name" v="Trollvatnet" />
		<tag k="name:no" v="Trollvatnet" />
		<tag k="natural" v="water" />
		<tag k="ssr:stedsnr" v="866718" />
	</node>
	<node id="-691943" lat="68.0809694443" lon="16.7460250098">
		<tag k="name" v="Nikkájåhkå - Nekkaelva" />
		<tag k="name:no" v="Nekkaelva" />
		<tag k="name:smj" v="Nikkájåhkå" />
		<tag k="ssr:stedsnr" v="866522" />
		<tag k="waterway" v="stream" />
	</node>
	<node id="-691941" lat="68.026138893" lon="16.5896361143">
		<tag k="name" v="Riehppejåhkå" />
		<tag k="name:smj" v="Riehppejåhkå" />
		<tag k="old_name:smj" v="Riehppejohka" />
		<tag k="ssr:stedsnr" v="866505" />
		<tag k="waterway" v="river" />
	</node>
	<node id="-691940" lat="68.0459444471" lon="16.3098972244">
		<tag k="name" v="Hulløyvatnet" />
		<tag k="name:no" v="Hulløyvatnet" />
		<tag k="natural" v="water" />
		<tag k="ssr:stedsnr" v="866500" />
	</node>
	<node id="-691938" lat="67.8539361075" lon="16.141869449">
		<tag k="name" v="Gierdojávrre" />
		<tag k="name:smj" v="Gierdojávrre" />
		<tag k="natural" v="water" />
		<tag k="old_name:smj" v="Gierddojávri" />
		<tag k="ssr:stedsnr" v="866420" />
	</node>
	<node id="-691932" lat="67.9536305554" lon="16.2911194489">
		<tag k="name" v="Hoarssajåhkå" />
		<tag k="name:smj" v="Hoarssajåhkå" />
		<tag k="old_name:smj" v="Hoarsajohka" />
		<tag k="ssr:stedsnr" v="866254" />
		<tag k="waterway" v="stream" />
	</node>
	<node id="-691911" lat="68.1005805571" lon="16.0490888888">
		<tag k="name" v="Hestdalsvatnet" />
		<tag k="name:no" v="Hestdalsvatnet" />
		<tag k="natural" v="water" />
		<tag k="ssr:stedsnr" v="811516" />
	</node>
	<node id="-691902" lat="68.2196666665" lon="16.2564222322">
		<tag k="name" v="Inner-Skarbergelva" />
		<tag k="name:no" v="Inner-Skarbergelva" />
		<tag k="ssr:stedsnr" v="810951" />
		<tag k="waterway" v="stream" />
	</node>
	<node id="-691891" lat="68.2265083355" lon="16.4866805523">
		<tag k="name" v="Litlvatnelva" />
		<tag k="name:no" v="Litlvatnelva" />
		<tag k="ssr:stedsnr" v="810792" />
		<tag k="waterway" v="stream" />
	</node>
	<node id="-691885" lat="68.0514944457" lon="16.0318333292">
		<tag k="name" v="Nekkateltelva" />
		<tag k="name:no" v="Nekkateltelva" />
		<tag k="ssr:stedsnr" v="810774" />
		<tag k="waterway" v="stream" />
	</node>
	<node id="-691880" lat="68.075080557" lon="16.4290972157">
		<tag k="name" v="Sauelva" />
		<tag k="name:no" v="Sauelva" />
		<tag k="ssr:stedsnr" v="810699" />
		<tag k="waterway" v="stream" />
	</node>
	<node id="-691871" lat="68.0902194453" lon="16.0443999924">
		<tag k="name" v="Steinraet" />
		<tag k="name:no" v="Steinraet" />
		<tag k="natural" v="beach" />
		<tag k="ssr:stedsnr" v="810583" />
	</node>
	<node id="-691869" lat="68.1333499996" lon="16.0172499918">
		<tag k="name" v="Klubbneset" />
		<tag k="name:no" v="Klubbneset" />
		<tag k="natural" v="cape" />
		<tag k="ssr:stedsnr" v="810568" />
	</node>
	<node id="-691858" lat="68.0224805537" lon="16.3471749974">
		<tag k="name" v="Dalelva" />
		<tag k="name:no" v="Dalelva" />
		<tag k="ssr:stedsnr" v="806751" />
		<tag k="waterway" v="stream" />
	</node>
	<node id="-691853" lat="67.9669249953" lon="16.1568611194">
		<tag k="loc_name:smj" v="Goahttsejávrre" />
		<tag k="name" v="Goahtejávrre - Husvatnet" />
		<tag k="name:no" v="Husvatnet" />
		<tag k="name:smj" v="Goahtejávrre" />
		<tag k="natural" v="water" />
		<tag k="old_name:smj" v="Goahcejávri" />
		<tag k="ssr:stedsnr" v="806646" />
	</node>
	<node id="-691848" lat="68.0300472216" lon="16.0259166543">
		<tag k="alt_name:no" v="Trangsundet" />
		<tag k="name" v="Trongsundet" />
		<tag k="name:no" v="Trongsundet" />
		<tag k="natural" v="strait" />
		<tag k="ssr:stedsnr" v="806568" />
	</node>
	<node id="-691847" lat="68.0304333298" lon="16.071305549">
		<tag k="name" v="Heggneset" />
		<tag k="name:no" v="Heggneset" />
		<tag k="natural" v="cape" />
		<tag k="ssr:stedsnr" v="806565" />
	</node>
	<node id="-691846" lat="68.0279611114" lon="16.0909027683">
		<tag k="name" v="Hellandselva" />
		<tag k="name:no" v="Hellandselva" />
		<tag k="ssr:stedsnr" v="806562" />
		<tag k="waterway" v="stream" />
	</node>
	<node id="-691844" lat="68.1448000015" lon="16.345786102">
		<tag k="name" v="Kjelkvikosen" />
		<tag k="name:no" v="Kjelkvikosen" />
		<tag k="natural" v="bay" />
		<tag k="ssr:stedsnr" v="806548" />
	</node>
	<node id="-691838" lat="67.8843000026" lon="16.1939638822">
		<tag k="name" v="Måskejåhkå - Muskenelva" />
		<tag k="name:no" v="Muskenelva" />
		<tag k="name:smj" v="Måskejåhkå" />
		<tag k="ssr:stedsnr" v="806411" />
		<tag k="waterway" v="river" />
	</node>
	<node id="-691829" lat="67.7812555574" lon="16.5311527725">
		<tag k="name" v="Gålmåsuorak" />
		<tag k="name:smj" v="Gålmåsuorak" />
		<tag k="natural" v="waterfall" />
		<tag k="ssr:stedsnr" v="806155" />
	</node>
	<node id="-691820" lat="68.1654999993" lon="16.003649995">
		<tag k="name" v="Jarbruelva" />
		<tag k="name:no" v="Jarbruelva" />
		<tag k="ssr:stedsnr" v="805721" />
		<tag k="waterway" v="stream" />
	</node>
	<node id="-691814" lat="68.0780166641" lon="16.8019999897">
		<tag k="name" v="Nekkelvvatnet" />
		<tag k="name:no" v="Nekkelvvatnet" />
		<tag k="natural" v="water" />
		<tag k="ssr:stedsnr" v="805555" />
	</node>
	<node id="-691811" lat="68.2235222243" lon="16.515055555">
		<tag k="name" v="Tverrlandsvatnet" />
		<tag k="name:no" v="Tverrlandsvatnet" />
		<tag k="natural" v="water" />
		<tag k="ssr:stedsnr" v="805522" />
		<tag k="water" v="lake" />
	</node>
	<node id="-691810" lat="68.2195833379" lon="16.2637333224">
		<tag k="alt_name:no" v="Langmarkvatnet" />
		<tag k="name" v="Øvervatnet" />
		<tag k="name:no" v="Øvervatnet" />
		<tag k="natural" v="water" />
		<tag k="ssr:stedsnr" v="805519" />
	</node>
	<node id="-691800" lat="67.9634138888" lon="16.7504138909">
		<tag k="name" v="Tjoallebatjåhkå" />
		<tag k="name:smj" v="Tjoallebatjåhkå" />
		<tag k="old_name:smj" v="Čoallebadajohka" />
		<tag k="ssr:stedsnr" v="766471" />
		<tag k="waterway" v="river" />
	</node>
	<node id="-691774" lat="68.1350750028" lon="16.5638138893">
		<tag k="name" v="Botnelva" />
		<tag k="name:no" v="Botnelva" />
		<tag k="ssr:stedsnr" v="750729" />
		<tag k="waterway" v="river" />
	</node>
	<node id="-691770" lat="68.0938833332" lon="16.0454194417">
		<tag k="name" v="Langodden" />
		<tag k="name:no" v="Langodden" />
		<tag k="natural" v="cape" />
		<tag k="ssr:stedsnr" v="750584" />
	</node>
	<node id="-691769" lat="68.0822500021" lon="15.9759361003">
		<tag k="name" v="Biesseluokta - Nevervika" />
		<tag k="name:no" v="Nevervika" />
		<tag k="name:smj" v="Biesseluokta" />
		<tag k="natural" v="bay" />
		<tag k="ssr:stedsnr" v="750580" />
	</node>
	<node id="-691766" lat="68.1436194434" lon="16.0370027699">
		<tag k="name" v="Edholmen" />
		<tag k="name:no" v="Edholmen" />
		<tag k="place" v="islet" />
		<tag k="ssr:stedsnr" v="750566" />
	</node>
	<node id="-691758" lat="68.1670305529" lon="16.0060166708">
		<tag k="name" v="Litl-Jarbruelva" />
		<tag k="name:no" v="Litl-Jarbruelva" />
		<tag k="ssr:stedsnr" v="749742" />
		<tag k="waterway" v="stream" />
	</node>
	<node id="-691750" lat="68.1990083289" lon="16.0087833317">
		<tag k="name" v="Skjellelva" />
		<tag k="name:no" v="Skjellelva" />
		<tag k="ssr:stedsnr" v="749679" />
		<tag k="waterway" v="stream" />
	</node>
	<node id="-691749" lat="68.088669441" lon="16.0936194385">
		<tag k="name" v="Kjerrvasselva" />
		<tag k="name:no" v="Kjerrvasselva" />
		<tag k="ssr:stedsnr" v="749588" />
		<tag k="waterway" v="stream" />
	</node>
	<node id="-691739" lat="68.2036777807" lon="16.0501500009">
		<tag k="name" v="Storjordelva" />
		<tag k="name:no" v="Storjordelva" />
		<tag k="ssr:stedsnr" v="745829" />
		<tag k="waterway" v="stream" />
	</node>
	<node id="-691737" lat="68.158230553" lon="16.0882666711">
		<tag k="name" v="Kalvikvatnet" />
		<tag k="name:no" v="Kalvikvatnet" />
		<tag k="natural" v="water" />
		<tag k="ssr:stedsnr" v="745772" />
	</node>
	<node id="-691733" lat="68.0521666674" lon="16.8574944456">
		<tag k="name" v="Skogvatnet" />
		<tag k="name:no" v="Skogvatnet" />
		<tag k="natural" v="water" />
		<tag k="ssr:stedsnr" v="745692" />
		<tag k="water" v="lake" />
	</node>
	<node id="-691731" lat="68.0813305542" lon="15.9649361006">
		<tag k="name" v="Duorbunjávrre - Tørpelvatnet" />
		<tag k="name:no" v="Tørpelvatnet" />
		<tag k="name:smj" v="Duorbunjávrre" />
		<tag k="natural" v="water" />
		<tag k="ssr:stedsnr" v="745650" />
		<tag k="water" v="lake" />
	</node>
	<node id="-691730" lat="67.9464749973" lon="16.12209723">
		<tag k="name" v="Ráhpukjåhkå" />
		<tag k="name:smj" v="Ráhpukjåhkå" />
		<tag k="old_name:smj" v="Ráhpokjohka" />
		<tag k="ssr:stedsnr" v="745634" />
		<tag k="waterway" v="river" />
	</node>
	<node id="-691728" lat="67.9566583294" lon="16.1456694484">
		<tag k="name" v="Guhkesjávrre - Langvatnet" />
		<tag k="name:no" v="Langvatnet" />
		<tag k="name:smj" v="Guhkesjávrre" />
		<tag k="natural" v="water" />
		<tag k="old_name:smj" v="Guhkesj'avri" />
		<tag k="ssr:stedsnr" v="745625" />
		<tag k="water" v="lake" />
	</node>
	<node id="-691726" lat="68.0538055529" lon="15.9733555655">
		<tag k="name" v="Kjerringelva" />
		<tag k="name:no" v="Kjerringelva" />
		<tag k="ssr:stedsnr" v="745610" />
		<tag k="waterway" v="stream" />
	</node>
	<node id="-691725" lat="68.1547305544" lon="16.5884972291">
		<tag k="name" v="Svartvatnet" />
		<tag k="name:no" v="Svartvatnet" />
		<tag k="natural" v="water" />
		<tag k="ssr:stedsnr" v="745611" />
	</node>
	<node id="-691718" lat="68.1151722242" lon="16.7391444372">
		<tag k="name" v="Givddejåhkå - Norddalselva" />
		<tag k="name:no" v="Norddalselva" />
		<tag k="name:smj" v="Givddejåhkå" />
		<tag k="ssr:stedsnr" v="745578" />
		<tag k="waterway" v="river" />
	</node>
	<node id="-691714" lat="68.0677861113" lon="16.5138805574">
		<tag k="name" v="Sommarsetvatnet" />
		<tag k="name:no" v="Sommarsetvatnet" />
		<tag k="natural" v="water" />
		<tag k="ssr:stedsnr" v="745551" />
	</node>
	<node id="-691711" lat="68.0634138901" lon="16.6443305665">
		<tag k="name" v="Vuollejávrre - Ner-Sørfjordvatnet" />
		<tag k="name:no" v="Ner-Sørfjordvatnet" />
		<tag k="name:smj" v="Vuollejávrre" />
		<tag k="natural" v="water" />
		<tag k="ssr:stedsnr" v="745540" />
		<tag k="water" v="lake" />
	</node>
	<node id="-691709" lat="68.0076555597" lon="16.1070972119">
		<tag k="name" v="Skilvatnet" />
		<tag k="name:no" v="Skilvatnet" />
		<tag k="natural" v="water" />
		<tag k="ssr:stedsnr" v="745528" />
	</node>
	<node id="-691703" lat="67.8727694454" lon="16.5591250019">
		<tag k="fixme" v="multiple name tags, choose one and add the other to alt_name" />
		<tag k="name" v="Gierggebuodjávrre;Tjielumjávrre" />
		<tag k="name:smj" v="Gierggebuodjávrre;Tjielumjávrre" />
		<tag k="natural" v="water" />
		<tag k="old_name:smj" v="Čielomjávri;Geargebuodojavri" />
		<tag k="ssr:stedsnr" v="745400" />
		<tag k="water" v="lake" />
	</node>
	<node id="-691701" lat="67.8566055568" lon="16.5201750062">
		<tag k="name" v="Gálmmagáldjåhkå" />
		<tag k="name:smj" v="Gálmmagáldjåhkå" />
		<tag k="old_name:smj" v="Galmagáldojohka" />
		<tag k="ssr:stedsnr" v="745385" />
		<tag k="waterway" v="stream" />
	</node>
	<node id="-691698" lat="67.9105861125" lon="16.564522221">
		<tag k="name" v="Runndajávrre" />
		<tag k="name:smj" v="Runndajávrre" />
		<tag k="natural" v="water" />
		<tag k="old_name:smj" v="Rundajávri;Rundajávrre" />
		<tag k="ssr:stedsnr" v="745357" />
		<tag k="water" v="lake" />
	</node>
	<node id="-691691" lat="67.7894083368" lon="16.5671416768">
		<tag k="name" v="Amasvákkegorži" />
		<tag k="name:smj" v="Amasvákkegorži" />
		<tag k="natural" v="waterfall" />
		<tag k="ssr:stedsnr" v="745191" />
	</node>
	<node id="-691688" lat="67.8161055583" lon="16.661558331">
		<tag k="name" v="Njallajávrre" />
		<tag k="name:smj" v="Njallajávrre" />
		<tag k="natural" v="water" />
		<tag k="old_name:smj" v="Njallajávri" />
		<tag k="ssr:stedsnr" v="745156" />
		<tag k="water" v="lake" />
	</node>
	<node id="-691685" lat="67.7548638886" lon="16.610761118">
		<tag k="name" v="Amásvágjávrre" />
		<tag k="name:smj" v="Amásvágjávrre" />
		<tag k="natural" v="water" />
		<tag k="old_name:smj" v="Amasvákkejavri;Amasvákkejávri;Amásvákjávrre" />
		<tag k="ssr:stedsnr" v="744609" />
		<tag k="water" v="lake" />
	</node>
	<node id="-691683" lat="68.0951666637" lon="16.7616777726">
		<tag k="name" v="Austerdalselva" />
		<tag k="name:no" v="Austerdalselva" />
		<tag k="ssr:stedsnr" v="744498" />
		<tag k="waterway" v="river" />
	</node>
	<node id="-691681" lat="67.8833722177" lon="16.1258361136">
		<tag k="name" v="Ruosvágjåhkå" />
		<tag k="name:smj" v="Ruosvágjåhkå" />
		<tag k="ssr:stedsnr" v="745435" />
		<tag k="waterway" v="river" />
	</node>
	<node id="-691679" lat="67.8802777761" lon="16.7113361056">
		<tag k="name" v="Jiegŋajávrásj" />
		<tag k="name:smj" v="Jiegŋajávrásj" />
		<tag k="natural" v="water" />
		<tag k="old_name:smj" v="Jiekŋajávrraš" />
		<tag k="ssr:stedsnr" v="745403" />
		<tag k="water" v="lake" />
	</node>
	<node id="-691659" lat="68.089911107" lon="16.7439472183">
		<tag k="name" v="Straumpollelva" />
		<tag k="name:no" v="Straumpollelva" />
		<tag k="ssr:stedsnr" v="689733" />
		<tag k="waterway" v="river" />
	</node>
	<node id="-691655" lat="68.0517111106" lon="16.0610138938">
		<tag k="name" v="Heggbærelva" />
		<tag k="name:no" v="Heggbærelva" />
		<tag k="ssr:stedsnr" v="689621" />
		<tag k="waterway" v="stream" />
	</node>
	<node id="-691654" lat="68.0342194484" lon="16.0641555614">
		<tag k="name" v="Vassneset" />
		<tag k="name:no" v="Vassneset" />
		<tag k="natural" v="cape" />
		<tag k="ssr:stedsnr" v="689617" />
	</node>
	<node id="-691648" lat="68.0807250039" lon="15.977413881">
		<tag k="name" v="Sanden" />
		<tag k="name:no" v="Sanden" />
		<tag k="natural" v="beach" />
		<tag k="ssr:stedsnr" v="689544" />
	</node>
	<node id="-691640" lat="68.0909805596" lon="16.0928444467">
		<tag k="name" v="Tverrelva" />
		<tag k="name:no" v="Tverrelva" />
		<tag k="ssr:stedsnr" v="688569" />
		<tag k="waterway" v="stream" />
	</node>
	<node id="-691637" lat="67.9465416643" lon="16.7792222127">
		<tag k="name" v="Unnaskájdásjjávrre" />
		<tag k="name:smj" v="Unnaskájdásjjávrre" />
		<tag k="natural" v="water" />
		<tag k="old_name:smj" v="Skaiddašjávri, unna" />
		<tag k="ssr:stedsnr" v="685441" />
	</node>
	<node id="-691635" lat="68.2332222222" lon="16.0196388837">
		<tag k="name" v="Merradisvatnet" />
		<tag k="name:no" v="Merradisvatnet" />
		<tag k="natural" v="water" />
		<tag k="ssr:stedsnr" v="684850" />
	</node>
	<node id="-691623" lat="68.0747277745" lon="15.95790556">
		<tag k="name" v="Sundet" />
		<tag k="name:no" v="Sundet" />
		<tag k="natural" v="strait" />
		<tag k="ssr:stedsnr" v="684619" />
	</node>
	<node id="-691611" lat="68.0205000032" lon="16.1437111174">
		<tag k="name" v="Utfallselva" />
		<tag k="name:no" v="Utfallselva" />
		<tag k="ssr:stedsnr" v="684524" />
		<tag k="waterway" v="stream" />
	</node>
	<node id="-691604" lat="68.0563611104" lon="16.5469416571">
		<tag k="alt_name:no" v="Mølnelvvatnet, øvre" />
		<tag k="name" v="Øvre Mølnelvvatnet" />
		<tag k="name:no" v="Øvre Mølnelvvatnet" />
		<tag k="natural" v="water" />
		<tag k="ssr:stedsnr" v="684498" />
	</node>
	<node id="-691602" lat="67.8533444447" lon="16.1849083439">
		<tag k="name" v="Gåjgijåhkå" />
		<tag k="name:smj" v="Gåjgijåhkå" />
		<tag k="old_name:smj" v="Goigejohka" />
		<tag k="ssr:stedsnr" v="684427" />
		<tag k="waterway" v="river" />
	</node>
	<node id="-691599" lat="67.8805916655" lon="16.3902888923">
		<tag k="name" v="Juoksajåhkå" />
		<tag k="name:smj" v="Juoksajåhkå" />
		<tag k="old_name:smj" v="Juoksajohka" />
		<tag k="ssr:stedsnr" v="684368" />
		<tag k="waterway" v="stream" />
	</node>
	<node id="-691597" lat="67.8391749974" lon="16.2402777786">
		<tag k="name" v="Bajep Niejdavágjávrre" />
		<tag k="name:smj" v="Bajep Niejdavágjávrre" />
		<tag k="natural" v="water" />
		<tag k="old_name:smj" v="Nieidavákkejávri, bajit" />
		<tag k="ssr:stedsnr" v="684346" />
		<tag k="water" v="lake" />
	</node>
	<node id="-691594" lat="67.9602083304" lon="16.4223888784">
		<tag k="name" v="Bájsajåhkå" />
		<tag k="name:smj" v="Bájsajåhkå" />
		<tag k="ssr:stedsnr" v="684286" />
		<tag k="waterway" v="stream" />
	</node>
	<node id="-691590" lat="67.7951166696" lon="16.5255166753">
		<tag k="name" v="Riebiijåhkå" />
		<tag k="name:smj" v="Riebiijåhkå" />
		<tag k="old_name:smj" v="Riebiijohka" />
		<tag k="ssr:stedsnr" v="684147" />
		<tag k="waterway" v="stream" />
	</node>
	<node id="-691588" lat="67.8124611148" lon="16.2897361124">
		<tag k="name" v="Gasska-Rumbojávrre" />
		<tag k="name:smj" v="Gasska-Rumbojávrre" />
		<tag k="natural" v="water" />
		<tag k="old_name:smj" v="Rumbojávri, gaska;Gaska Rumbojávrre" />
		<tag k="ssr:stedsnr" v="684135" />
	</node>
	<node id="-691557" lat="68.1308583328" lon="16.5198555442">
		<tag k="name" v="Russvikelva" />
		<tag k="name:no" v="Russvikelva" />
		<tag k="ssr:stedsnr" v="628728" />
		<tag k="waterway" v="river" />
	</node>
	<node id="-691543" lat="68.1428277755" lon="16.0756250063">
		<tag k="name" v="Stumpen" />
		<tag k="name:no" v="Stumpen" />
		<tag k="natural" v="waterfall" />
		<tag k="ssr:stedsnr" v="628552" />
	</node>
	<node id="-691542" lat="68.0760666677" lon="15.9958555543">
		<tag k="name" v="Olavatnet" />
		<tag k="name:no" v="Olavatnet" />
		<tag k="natural" v="water" />
		<tag k="ssr:stedsnr" v="628524" />
	</node>
	<node id="-691528" lat="68.0291305532" lon="16.036127767">
		<tag k="name" v="Storvatnet" />
		<tag k="name:no" v="Storvatnet" />
		<tag k="natural" v="water" />
		<tag k="ssr:stedsnr" v="623839" />
		<tag k="water" v="lake" />
	</node>
	<node id="-691520" lat="68.0711722264" lon="15.9601083407">
		<tag k="name" v="Nertorpelvatnet" />
		<tag k="name:no" v="Nertorpelvatnet" />
		<tag k="natural" v="water" />
		<tag k="ssr:stedsnr" v="623657" />
		<tag k="water" v="lake" />
	</node>
	<node id="-691518" lat="68.0400777787" lon="15.9828416777">
		<tag k="name" v="Lakstjønna" />
		<tag k="name:no" v="Lakstjønna" />
		<tag k="natural" v="water" />
		<tag k="ssr:stedsnr" v="623636" />
	</node>
	<node id="-691517" lat="68.1768833309" lon="16.6272055601">
		<tag k="name" v="Stefjordeidet" />
		<tag k="name:no" v="Stefjordeidet" />
		<tag k="natural" v="strait" />
		<tag k="ssr:stedsnr" v="623621" />
	</node>
	<node id="-691515" lat="68.0582861081" lon="15.9788694483">
		<tag k="name" v="Kjerringvatnet" />
		<tag k="name:no" v="Kjerringvatnet" />
		<tag k="natural" v="water" />
		<tag k="ssr:stedsnr" v="623614" />
		<tag k="water" v="lake" />
	</node>
	<node id="-691514" lat="68.0297472226" lon="16.0166583302">
		<tag k="name" v="Mellavatnet" />
		<tag k="name:no" v="Mellavatnet" />
		<tag k="natural" v="water" />
		<tag k="ssr:stedsnr" v="623600" />
		<tag k="water" v="lake" />
	</node>
	<node id="-691508" lat="68.0668222183" lon="16.5841555454">
		<tag k="alt_name:no" v="Mølnelvvatnet, nedre" />
		<tag k="name" v="Nedre Mølnelvvatnet" />
		<tag k="name:no" v="Nedre Mølnelvvatnet" />
		<tag k="natural" v="water" />
		<tag k="ssr:stedsnr" v="623570" />
	</node>
	<node id="-691500" lat="68.0651555594" lon="16.761816675">
		<tag k="alt_name:no" v="Elveskardselva" />
		<tag k="name" v="Elveskardelva" />
		<tag k="name:no" v="Elveskardelva" />
		<tag k="ssr:stedsnr" v="623521" />
		<tag k="waterway" v="stream" />
	</node>
	<node id="-691497" lat="67.8715833301" lon="16.190672221">
		<tag k="name" v="Hejdijåhkå" />
		<tag k="name:smj" v="Hejdijåhkå" />
		<tag k="old_name:smj" v="Heiddejohka" />
		<tag k="ssr:stedsnr" v="623425" />
		<tag k="waterway" v="river" />
	</node>
	<node id="-691486" lat="67.8973861112" lon="16.3835888774">
		<tag k="name" v="Juoksajávrre" />
		<tag k="name:smj" v="Juoksajávrre" />
		<tag k="natural" v="water" />
		<tag k="old_name:smj" v="Juoksajávri" />
		<tag k="ssr:stedsnr" v="623319" />
		<tag k="water" v="lake" />
	</node>
	<node id="-691483" lat="67.9828111117" lon="16.5345583367">
		<tag k="name" v="Gihttsejåhkå - Kielva" />
		<tag k="name:no" v="Kielva" />
		<tag k="name:smj" v="Gihttsejåhkå" />
		<tag k="ssr:stedsnr" v="623301" />
		<tag k="waterway" v="stream" />
	</node>
	<node id="-691478" lat="67.7962027761" lon="16.2149166605">
		<tag k="fixme" v="multiple name tags, choose one and add the other to alt_name" />
		<tag k="name" v="Råggejávrre;Tjáppagjávrre" />
		<tag k="name:smj" v="Råggejávrre;Tjáppagjávrre" />
		<tag k="natural" v="water" />
		<tag k="old_name:smj" v="Roggejávri;Čáppagjávri;Roggejávrre" />
		<tag k="ssr:stedsnr" v="623268" />
		<tag k="water" v="lake" />
	</node>
	<node id="-691477" lat="67.7673055537" lon="16.5567305624">
		<tag k="name" v="Tjuolakjávrre" />
		<tag k="name:smj" v="Tjuolakjávrre" />
		<tag k="natural" v="water" />
		<tag k="old_name:smj" v="Čuolakjávri" />
		<tag k="ssr:stedsnr" v="623188" />
	</node>
	<node id="-691471" lat="68.0765222239" lon="15.9064583355">
		<tag k="name" v="Flåttvikodden" />
		<tag k="name:no" v="Flåttvikodden" />
		<tag k="natural" v="cape" />
		<tag k="ssr:stedsnr" v="584965" />
	</node>
	<node id="-691462" lat="68.1135555532" lon="16.1115749884">
		<tag k="name" v="Skjellelva" />
		<tag k="name:no" v="Skjellelva" />
		<tag k="ssr:stedsnr" v="568517" />
		<tag k="waterway" v="stream" />
	</node>
	<node id="-691460" lat="68.2266527767" lon="16.3212861201">
		<tag k="name" v="Lysvollelva" />
		<tag k="name:no" v="Lysvollelva" />
		<tag k="ssr:stedsnr" v="567990" />
		<tag k="waterway" v="stream" />
	</node>
	<node id="-691455" lat="68.2343888873" lon="16.2243722273">
		<tag k="name" v="Straumvatnet" />
		<tag k="name:no" v="Straumvatnet" />
		<tag k="natural" v="water" />
		<tag k="ssr:stedsnr" v="567958" />
	</node>
	<node id="-691451" lat="68.0057638922" lon="16.3550499986">
		<tag k="name" v="Ålmmåjåhkå - Mannelva" />
		<tag k="name:no" v="Mannelva" />
		<tag k="name:smj" v="Ålmmåjåhkå" />
		<tag k="ssr:stedsnr" v="567924" />
		<tag k="waterway" v="stream" />
	</node>
	<node id="-691445" lat="68.0417833367" lon="16.0067611024">
		<tag k="name" v="Trettbakkelva" />
		<tag k="name:no" v="Trettbakkelva" />
		<tag k="ssr:stedsnr" v="567799" />
		<tag k="waterway" v="stream" />
	</node>
	<node id="-691437" lat="68.1830750045" lon="16.0265777673">
		<tag k="name" v="Stordalselva" />
		<tag k="name:no" v="Stordalselva" />
		<tag k="ssr:stedsnr" v="567694" />
		<tag k="waterway" v="stream" />
	</node>
	<node id="-691434" lat="68.0688249965" lon="16.4143666563">
		<tag k="name" v="Litlneset" />
		<tag k="name:no" v="Litlneset" />
		<tag k="natural" v="cape" />
		<tag k="ssr:stedsnr" v="567668" />
	</node>
	<node id="-691426" lat="68.1399361112" lon="16.0287416624">
		<tag k="name" v="Berntsenholmen" />
		<tag k="name:no" v="Berntsenholmen" />
		<tag k="place" v="islet" />
		<tag k="ssr:stedsnr" v="567595" />
	</node>
	<node id="-691421" lat="68.0816750038" lon="16.0237861221">
		<tag k="name" v="Bjørkvika" />
		<tag k="name:no" v="Bjørkvika" />
		<tag k="natural" v="bay" />
		<tag k="ssr:stedsnr" v="567563" />
	</node>
	<node id="-691413" lat="68.1293166675" lon="16.0194888966">
		<tag k="name" v="Kilvatnet - Ráhpukjávrre" />
		<tag k="name:no" v="Kilvatnet" />
		<tag k="name:smj" v="Ráhpukjávrre" />
		<tag k="natural" v="water" />
		<tag k="ssr:stedsnr" v="563738" />
		<tag k="water" v="lake" />
	</node>
	<node id="-691411" lat="68.0993416649" lon="16.6805083329">
		<tag k="name" v="Skjelelva" />
		<tag k="name:no" v="Skjelelva" />
		<tag k="ssr:stedsnr" v="563575" />
		<tag k="waterway" v="stream" />
	</node>
	<node id="-691408" lat="68.1190027801" lon="16.3410611071">
		<tag k="name" v="Steinfjellvatnet" />
		<tag k="name:no" v="Steinfjellvatnet" />
		<tag k="natural" v="water" />
		<tag k="ssr:stedsnr" v="563564" />
	</node>
	<node id="-691407" lat="68.116963891" lon="16.5774777739">
		<tag k="name" v="Goahttsekjåhkå - Forrhaugelva" />
		<tag k="name:no" v="Forrhaugelva" />
		<tag k="name:smj" v="Goahttsekjåhkå" />
		<tag k="ssr:stedsnr" v="563563" />
		<tag k="waterway" v="stream" />
	</node>
	<node id="-691399" lat="67.9919305522" lon="16.7331194382">
		<tag k="name" v="Svartelva" />
		<tag k="name:no" v="Svartelva" />
		<tag k="ssr:stedsnr" v="563444" />
		<tag k="waterway" v="river" />
	</node>
	<node id="-691394" lat="67.8668305525" lon="16.4836000089">
		<tag k="name" v="Biehtselåptjávrre - Fordalvatnet" />
		<tag k="name:no" v="Fordalvatnet" />
		<tag k="name:smj" v="Biehtselåptjávrre" />
		<tag k="natural" v="water" />
		<tag k="old_name:smj" v="Beahceloptjávri" />
		<tag k="ssr:stedsnr" v="563343" />
		<tag k="water" v="lake" />
	</node>
	<node id="-691392" lat="68.1575694483" lon="16.4694472232">
		<tag k="name" v="Storelva" />
		<tag k="name:no" v="Storelva" />
		<tag k="ssr:stedsnr" v="562824" />
		<tag k="waterway" v="stream" />
	</node>
	<node id="-691391" lat="68.1639388857" lon="16.0257722231">
		<tag k="name" v="Botnvassholmen" />
		<tag k="name:no" v="Botnvassholmen" />
		<tag k="place" v="islet" />
		<tag k="ssr:stedsnr" v="562710" />
	</node>
	<node id="-691390" lat="68.0741055579" lon="16.9304916611">
		<tag k="name" v="Fonnvatnet" />
		<tag k="name:no" v="Fonnvatnet" />
		<tag k="natural" v="water" />
		<tag k="ssr:stedsnr" v="562688" />
		<tag k="water" v="lake" />
	</node>
	<node id="-691385" lat="68.0473416671" lon="16.0501777816">
		<tag k="name" v="Storelva" />
		<tag k="name:no" v="Storelva" />
		<tag k="ssr:stedsnr" v="562623" />
		<tag k="waterway" v="stream" />
	</node>
	<node id="-691383" lat="68.0516361093" lon="15.9670527805">
		<tag k="name" v="Kvannvatnet" />
		<tag k="name:no" v="Kvannvatnet" />
		<tag k="natural" v="water" />
		<tag k="ssr:stedsnr" v="562612" />
		<tag k="water" v="lake" />
	</node>
	<node id="-691381" lat="68.0623888922" lon="15.9888277672">
		<tag k="name" v="Kjerrelva" />
		<tag k="name:no" v="Kjerrelva" />
		<tag k="ssr:stedsnr" v="562595" />
		<tag k="waterway" v="stream" />
	</node>
	<node id="-691377" lat="68.0715361146" lon="16.7644083338">
		<tag k="name" v="Lægdvatnet" />
		<tag k="name:no" v="Lægdvatnet" />
		<tag k="natural" v="water" />
		<tag k="ssr:stedsnr" v="562548" />
	</node>
	<node id="-691373" lat="68.0444249984" lon="16.6288388899">
		<tag k="name" v="Vuodojåhkå - Botnelva" />
		<tag k="name:no" v="Botnelva" />
		<tag k="name:smj" v="Vuodojåhkå" />
		<tag k="ssr:stedsnr" v="562507" />
		<tag k="waterway" v="stream" />
	</node>
	<node id="-691371" lat="67.8470055557" lon="16.1752027693">
		<tag k="name" v="Skuŋkijåhkå" />
		<tag k="name:smj" v="Skuŋkijåhkå" />
		<tag k="old_name:smj" v="Skuŋkajohka" />
		<tag k="ssr:stedsnr" v="562437" />
		<tag k="waterway" v="stream" />
	</node>
	<node id="-691367" lat="67.8774194425" lon="16.0918972135">
		<tag k="alt_name:no" v="Kuvatnan nedre" />
		<tag k="name" v="Vuolep Gussagåpjávrre - Nedre Kuvatnan" />
		<tag k="name:no" v="Nedre Kuvatnan" />
		<tag k="name:smj" v="Vuolep Gussagåpjávrre" />
		<tag k="natural" v="water" />
		<tag k="old_name:smj" v="Gussagobejavri, vuolit" />
		<tag k="ssr:stedsnr" v="562401" />
		<tag k="water" v="lake" />
	</node>
	<node id="-691360" lat="67.892672225" lon="16.5298083338">
		<tag k="name" v="Gåddetjåkjávre" />
		<tag k="name:smj" v="Gåddetjåkjávre" />
		<tag k="natural" v="water" />
		<tag k="old_name:smj" v="Goddečohkajávrrih" />
		<tag k="ssr:stedsnr" v="562301" />
	</node>
	<node id="-691350" lat="67.7791777779" lon="16.2768277874">
		<tag k="name" v="Juvvánisjávrre" />
		<tag k="name:smj" v="Juvvánisjávrre" />
		<tag k="natural" v="water" />
		<tag k="old_name:smj" v="Juvvanisjavri" />
		<tag k="ssr:stedsnr" v="562137" />
		<tag k="water" v="lake" />
	</node>
	<node id="-691349" lat="67.7967444485" lon="16.3064222272">
		<tag k="name" v="Badje-Rumbojávrre" />
		<tag k="name:smj" v="Badje-Rumbojávrre" />
		<tag k="natural" v="water" />
		<tag k="old_name:smj" v="Rumbojávri, bajit;Bajep Rumbojávrre" />
		<tag k="ssr:stedsnr" v="562126" />
		<tag k="water" v="lake" />
	</node>
	<node id="-691348" lat="67.8220666688" lon="16.6620999884">
		<tag k="name" v="Váldajávrre" />
		<tag k="name:smj" v="Váldajávrre" />
		<tag k="natural" v="water" />
		<tag k="old_name:smj" v="Válddajávri" />
		<tag k="ssr:stedsnr" v="562115" />
		<tag k="water" v="lake" />
	</node>
	<node id="-691338" lat="68.0687694483" lon="15.9214138993">
		<tag k="name" v="Langvika" />
		<tag k="name:no" v="Langvika" />
		<tag k="natural" v="bay" />
		<tag k="ssr:stedsnr" v="524924" />
	</node>
	<node id="-691334" lat="68.0334527804" lon="16.0701027814">
		<tag k="name" v="Heggenes" />
		<tag k="name:no" v="Heggenes" />
		<tag k="natural" v="cape" />
		<tag k="ssr:stedsnr" v="522853" />
	</node>
	<node id="-691329" lat="68.2528749989" lon="16.0355444343">
		<tag k="name" v="Mølndammen" />
		<tag k="name:no" v="Mølndammen" />
		<tag k="natural" v="water" />
		<tag k="ssr:stedsnr" v="510233" />
	</node>
	<node id="-691322" lat="68.2292694413" lon="16.3936027698">
		<tag k="name" v="Svaelva" />
		<tag k="name:no" v="Svaelva" />
		<tag k="ssr:stedsnr" v="507987" />
		<tag k="waterway" v="stream" />
	</node>
	<node id="-691321" lat="68.2457861085" lon="16.3881472324">
		<tag k="name" v="Skjellesvikelva" />
		<tag k="name:no" v="Skjellesvikelva" />
		<tag k="ssr:stedsnr" v="507986" />
		<tag k="waterway" v="stream" />
	</node>
	<node id="-691315" lat="67.7946194486" lon="16.537611116">
		<tag k="name" v="Sájvajåhkå" />
		<tag k="name:smj" v="Sájvajåhkå" />
		<tag k="ssr:stedsnr" v="507933" />
		<tag k="waterway" v="river" />
	</node>
	<node id="-691300" lat="68.0881499993" lon="16.0447416719">
		<tag k="name" v="Sundet" />
		<tag k="name:no" v="Sundet" />
		<tag k="natural" v="strait" />
		<tag k="ssr:stedsnr" v="507584" />
	</node>
	<node id="-691299" lat="68.0768888925" lon="15.9740138815">
		<tag k="name" v="Trollvika" />
		<tag k="name:no" v="Trollvika" />
		<tag k="natural" v="bay" />
		<tag k="ssr:stedsnr" v="507583" />
	</node>
	<node id="-691298" lat="68.0171249961" lon="16.1590499893">
		<tag k="name" v="Innerelva" />
		<tag k="name:no" v="Innerelva" />
		<tag k="ssr:stedsnr" v="507569" />
		<tag k="waterway" v="stream" />
	</node>
	<node id="-691296" lat="68.0893027787" lon="16.0079944482">
		<tag k="name" v="Lomvatnet" />
		<tag k="name:no" v="Lomvatnet" />
		<tag k="natural" v="water" />
		<tag k="ssr:stedsnr" v="507517" />
	</node>
	<node id="-691293" lat="68.2204749995" lon="15.9837805553">
		<tag k="name" v="Tårnvikelva" />
		<tag k="name:no" v="Tårnvikelva" />
		<tag k="ssr:stedsnr" v="507490" />
		<tag k="waterway" v="stream" />
	</node>
	<node id="-691285" lat="68.1012388911" lon="16.6599361162">
		<tag k="name" v="Storelva" />
		<tag k="name:no" v="Storelva" />
		<tag k="ssr:stedsnr" v="502838" />
		<tag k="waterway" v="stream" />
	</node>
	<node id="-691282" lat="68.1286694475" lon="16.090022234">
		<tag k="name" v="Ráluovtjávrásj - Rørvik-Litlvatnet" />
		<tag k="name:no" v="Rørvik-Litlvatnet" />
		<tag k="name:smj" v="Ráluovtjávrásj" />
		<tag k="natural" v="water" />
		<tag k="ssr:stedsnr" v="502720" />
		<tag k="water" v="lake" />
	</node>
	<node id="-691279" lat="67.9672000013" lon="16.1198416695">
		<tag k="loc_name:no" v="Gievvavatnet" />
		<tag k="loc_name:smj" v="Gievvajávrre" />
		<tag k="name" v="Gevavatnet" />
		<tag k="name:no" v="Gevavatnet" />
		<tag k="natural" v="water" />
		<tag k="ssr:stedsnr" v="502659" />
	</node>
	<node id="-691277" lat="67.7197861122" lon="16.4184027819">
		<tag k="name" v="Gihtsejávrre" />
		<tag k="name:smj" v="Gihtsejávrre" />
		<tag k="natural" v="water" />
		<tag k="old_name:smj" v="Gihcijávri" />
		<tag k="ssr:stedsnr" v="502651" />
		<tag k="water" v="lake" />
	</node>
	<node id="-691272" lat="68.1664472189" lon="16.6398944348">
		<tag k="name" v="Koppvatnet" />
		<tag k="name:no" v="Koppvatnet" />
		<tag k="natural" v="water" />
		<tag k="ssr:stedsnr" v="502611" />
		<tag k="water" v="lake" />
	</node>
	<node id="-691269" lat="68.1097222233" lon="16.8139138792">
		<tag k="name" v="Gámalåptjávrre - Gammeloftvatnet" />
		<tag k="name:no" v="Gammeloftvatnet" />
		<tag k="name:smj" v="Gámalåptjávrre" />
		<tag k="natural" v="water" />
		<tag k="old_name:smj" v="Gámaloptjávri" />
		<tag k="ssr:stedsnr" v="502576" />
		<tag k="water" v="lake" />
	</node>
	<node id="-691261" lat="68.0057972226" lon="16.1669666557">
		<tag k="name" v="Mølnelva" />
		<tag k="name:no" v="Mølnelva" />
		<tag k="ssr:stedsnr" v="502544" />
		<tag k="waterway" v="stream" />
	</node>
	<node id="-691249" lat="68.0466694408" lon="16.5557222131">
		<tag k="name" v="Austerskardvatnet" />
		<tag k="name:no" v="Austerskardvatnet" />
		<tag k="natural" v="water" />
		<tag k="ssr:stedsnr" v="502504" />
	</node>
	<node id="-691248" lat="67.8231555519" lon="16.1852388941">
		<tag k="name" v="Gåjgijávrre" />
		<tag k="name:smj" v="Gåjgijávrre" />
		<tag k="natural" v="water" />
		<tag k="old_name:smj" v="Goigej'avri, vuolit;Vuolep Gåjgijávrre" />
		<tag k="ssr:stedsnr" v="502489" />
		<tag k="water" v="lake" />
	</node>
	<node id="-691243" lat="67.8418888848" lon="16.3721333394">
		<tag k="name" v="Vásjájåhkå" />
		<tag k="name:smj" v="Vásjájåhkå" />
		<tag k="old_name:smj" v="Váššajohka" />
		<tag k="ssr:stedsnr" v="502350" />
		<tag k="waterway" v="stream" />
	</node>
	<node id="-691242" lat="67.8479555521" lon="16.521122218">
		<tag k="name" v="Gálmmagálddo" />
		<tag k="name:smj" v="Gálmmagálddo" />
		<tag k="natural" v="spring" />
		<tag k="old_name:smj" v="Galmagáldu" />
		<tag k="ssr:stedsnr" v="502346" />
	</node>
	<node id="-691236" lat="67.9124083332" lon="16.5334166664">
		<tag k="name" v="Guovddelisjávvre" />
		<tag k="name:smj" v="Guovddelisjávvre" />
		<tag k="natural" v="water" />
		<tag k="old_name:smj" v="Guovdelisjávri" />
		<tag k="ssr:stedsnr" v="502318" />
		<tag k="water" v="lake" />
	</node>
	<node id="-691232" lat="67.9978527817" lon="16.5898222176">
		<tag k="alt_name:no" v="Mannfjellvatnet, store" />
		<tag k="name" v="Store Mannfjellvatnet" />
		<tag k="name:no" v="Store Mannfjellvatnet" />
		<tag k="natural" v="water" />
		<tag k="ssr:stedsnr" v="502281" />
		<tag k="water" v="lake" />
	</node>
	<node id="-691231" lat="67.9729944477" lon="16.4126333422">
		<tag k="name" v="Suolojávrre" />
		<tag k="name:smj" v="Suolojávrre" />
		<tag k="natural" v="water" />
		<tag k="old_name:smj" v="Suolojávri" />
		<tag k="ssr:stedsnr" v="502268" />
		<tag k="water" v="lake" />
	</node>
	<node id="-691230" lat="67.9564611104" lon="16.7126305445">
		<tag k="name" v="Skájdejávrre" />
		<tag k="name:smj" v="Skájdejávrre" />
		<tag k="natural" v="water" />
		<tag k="old_name:smj" v="Skáiddejávri" />
		<tag k="ssr:stedsnr" v="502262" />
		<tag k="water" v="lake" />
	</node>
	<node id="-691229" lat="67.8053944482" lon="16.5076027895">
		<tag k="name" v="Rávggajåhkå - Sørelva" />
		<tag k="name:no" v="Sørelva" />
		<tag k="name:smj" v="Rávggajåhkå" />
		<tag k="ssr:stedsnr" v="502176" />
		<tag k="waterway" v="river" />
	</node>
	<node id="-691228" lat="67.7627416686" lon="16.4662138783">
		<tag k="name" v="Gierisluoppar" />
		<tag k="name:smj" v="Gierisluoppar" />
		<tag k="natural" v="water" />
		<tag k="old_name:smj" v="Gieresluoppal" />
		<tag k="ssr:stedsnr" v="502142" />
	</node>
	<node id="-691227" lat="67.7664805524" lon="16.3801083389">
		<tag k="name" v="Rumbogierjávrre" />
		<tag k="name:smj" v="Rumbogierjávrre" />
		<tag k="natural" v="water" />
		<tag k="old_name:smj" v="Rumbogierjávri" />
		<tag k="ssr:stedsnr" v="502143" />
		<tag k="water" v="lake" />
	</node>
	<node id="-691200" lat="67.9672972224" lon="16.3220611183">
		<tag k="name" v="Ibboluovtjávrre - Tømmervikvatnet" />
		<tag k="name:no" v="Tømmervikvatnet" />
		<tag k="name:smj" v="Ibboluovtjávrre" />
		<tag k="natural" v="water" />
		<tag k="ssr:stedsnr" v="446906" />
		<tag k="water" v="lake" />
	</node>
	<node id="-691194" lat="68.0561694473" lon="16.255822224">
		<tag k="name" v="Rapa" />
		<tag k="name:no" v="Rapa" />
		<tag k="ssr:stedsnr" v="446879" />
		<tag k="waterway" v="stream" />
	</node>
	<node id="-691188" lat="68.2202194435" lon="16.0475527755">
		<tag k="name" v="Bogelva" />
		<tag k="name:no" v="Bogelva" />
		<tag k="ssr:stedsnr" v="446715" />
		<tag k="waterway" v="stream" />
	</node>
	<node id="-691187" lat="68.0744111115" lon="16.4040666581">
		<tag k="name" v="Storelva" />
		<tag k="name:no" v="Storelva" />
		<tag k="ssr:stedsnr" v="446704" />
		<tag k="waterway" v="river" />
	</node>
	<node id="-691185" lat="68.1881611111" lon="15.9958138811">
		<tag k="name" v="Litl-Botnelva" />
		<tag k="name:no" v="Litl-Botnelva" />
		<tag k="ssr:stedsnr" v="446671" />
		<tag k="waterway" v="stream" />
	</node>
	<node id="-691180" lat="68.1227333289" lon="16.1067944505">
		<tag k="name" v="Innerelva" />
		<tag k="name:no" v="Innerelva" />
		<tag k="ssr:stedsnr" v="446605" />
		<tag k="waterway" v="stream" />
	</node>
	<node id="-691174" lat="68.1385805581" lon="16.0248722146">
		<tag k="name" v="Dagfinnholmen" />
		<tag k="name:no" v="Dagfinnholmen" />
		<tag k="place" v="islet" />
		<tag k="ssr:stedsnr" v="446568" />
	</node>
	<node id="-691168" lat="68.0182027801" lon="16.5725138883">
		<tag k="name" v="Unna Dáppájávrre - Dappavatnet" />
		<tag k="name:no" v="Dappavatnet" />
		<tag k="name:smj" v="Unna Dáppájávrre" />
		<tag k="natural" v="water" />
		<tag k="old_name:smj" v="Dappajávri, unna" />
		<tag k="ssr:stedsnr" v="442766" />
	</node>
	<node id="-691166" lat="68.0151638928" lon="16.6930277681">
		<tag k="name" v="Svartelva" />
		<tag k="name:no" v="Svartelva" />
		<tag k="ssr:stedsnr" v="442761" />
		<tag k="waterway" v="stream" />
	</node>
	<node id="-691156" lat="68.0080416713" lon="16.1357555477">
		<tag k="name" v="Kråvatnet" />
		<tag k="name:no" v="Kråvatnet" />
		<tag k="natural" v="water" />
		<tag k="ssr:stedsnr" v="442545" />
	</node>
	<node id="-691154" lat="68.0149999962" lon="16.0550055609">
		<tag k="name" v="Erikvatnet" />
		<tag k="name:no" v="Erikvatnet" />
		<tag k="natural" v="water" />
		<tag k="ssr:stedsnr" v="442536" />
	</node>
	<node id="-691148" lat="67.8635083348" lon="16.2606638767">
		<tag k="name" v="Vuolep Niejdavágjávrre" />
		<tag k="name:smj" v="Vuolep Niejdavágjávrre" />
		<tag k="natural" v="water" />
		<tag k="old_name:smj" v="Nieidavákkejávri, vuolit" />
		<tag k="ssr:stedsnr" v="442377" />
		<tag k="water" v="lake" />
	</node>
	<node id="-691147" lat="67.8700027754" lon="16.6347777667">
		<tag k="name" v="Gasska-Sválasvágjávrre" />
		<tag k="name:smj" v="Gasska-Sválasvágjávrre" />
		<tag k="natural" v="water" />
		<tag k="old_name:smj" v="Sválesvakkejávri, gaska" />
		<tag k="ssr:stedsnr" v="442375" />
		<tag k="water" v="lake" />
	</node>
	<node id="-691146" lat="67.8752805518" lon="16.6201860983">
		<tag k="name" v="Vuolle-Sválasvágjávrre" />
		<tag k="name:smj" v="Vuolle-Sválasvágjávrre" />
		<tag k="natural" v="water" />
		<tag k="old_name:smj" v="Sválesvakkejávri, vuolimus" />
		<tag k="ssr:stedsnr" v="442373" />
		<tag k="water" v="lake" />
	</node>
	<node id="-691142" lat="67.8860166624" lon="16.4352361058">
		<tag k="name" v="Gaskanjunjávri" />
		<tag k="name:smj" v="Gaskanjunjávri" />
		<tag k="natural" v="water" />
		<tag k="ssr:stedsnr" v="442341" />
		<tag k="water" v="lake" />
	</node>
	<node id="-691137" lat="67.7142611113" lon="16.5254166637">
		<tag k="name" v="Gihtsejåhkå" />
		<tag k="name:smj" v="Gihtsejåhkå" />
		<tag k="old_name:smj" v="Gihcijohka" />
		<tag k="ssr:stedsnr" v="441653" />
		<tag k="waterway" v="river" />
	</node>
	<node id="-691134" lat="68.066977776" lon="16.4249472259">
		<tag k="name" v="Storåvatnet" />
		<tag k="name:no" v="Storåvatnet" />
		<tag k="natural" v="water" />
		<tag k="ssr:stedsnr" v="441565" />
		<tag k="water" v="lake" />
	</node>
	<node id="-691128" lat="68.0826388876" lon="16.5179222262">
		<tag k="name" v="Guomojjåhkå" />
		<tag k="name:smj" v="Guomojjåhkå" />
		<tag k="old_name:smj" v="Guomojohka" />
		<tag k="ssr:stedsnr" v="441533" />
		<tag k="waterway" v="stream" />
	</node>
	<node id="-691124" lat="68.2284444454" lon="16.235102781">
		<tag k="name" v="Langoselva" />
		<tag k="name:no" v="Langoselva" />
		<tag k="ssr:stedsnr" v="441498" />
		<tag k="waterway" v="stream" />
	</node>
	<node id="-691116" lat="67.9976638894" lon="16.3877444323">
		<tag k="name" v="Ålmmåjávrre - Mannvatnet" />
		<tag k="name:no" v="Mannvatnet" />
		<tag k="name:smj" v="Ålmmåjávrre" />
		<tag k="natural" v="water" />
		<tag k="ssr:stedsnr" v="441289" />
	</node>
	<node id="-691108" lat="67.8043388848" lon="16.4335638864">
		<tag k="name" v="Biekkertjávrre" />
		<tag k="name:smj" v="Biekkertjávrre" />
		<tag k="natural" v="water" />
		<tag k="old_name:smj" v="Biekkertjávri" />
		<tag k="ssr:stedsnr" v="441130" />
		<tag k="water" v="lake" />
	</node>
	<node id="-691090" lat="68.0525166708" lon="16.6645416604">
		<tag k="name" v="Sadjemjåhkå - Brynelva" />
		<tag k="name:no" v="Brynelva" />
		<tag k="name:smj" v="Sadjemjåhkå" />
		<tag k="ssr:stedsnr" v="264796" />
		<tag k="waterway" v="river" />
	</node>
	<node id="-691074" lat="68.0948194407" lon="16.0517000089">
		<tag k="name" v="Fiskeneset" />
		<tag k="name:no" v="Fiskeneset" />
		<tag k="natural" v="cape" />
		<tag k="ssr:stedsnr" v="264572" />
	</node>
	<node id="-691072" lat="68.027213891" lon="16.0778166673">
		<tag k="name" v="Hellandssanden" />
		<tag k="name:no" v="Hellandssanden" />
		<tag k="natural" v="beach" />
		<tag k="ssr:stedsnr" v="264570" />
	</node>
	<node id="-691069" lat="68.1428916694" lon="16.0432611078">
		<tag k="name" v="Dragholmen" />
		<tag k="name:no" v="Dragholmen" />
		<tag k="natural" v="cape" />
		<tag k="ssr:stedsnr" v="264560" />
	</node>
	<node id="-691064" lat="68.2321833293" lon="16.0049861214">
		<tag k="name" v="Elva" />
		<tag k="name:no" v="Elva" />
		<tag k="ssr:stedsnr" v="264516" />
		<tag k="waterway" v="stream" />
	</node>
	<node id="-691063" lat="68.2158666674" lon="16.0021166741">
		<tag k="name" v="Leirkroselva" />
		<tag k="name:no" v="Leirkroselva" />
		<tag k="ssr:stedsnr" v="264512" />
		<tag k="waterway" v="stream" />
	</node>
	<node id="-691058" lat="68.1278138891" lon="16.0623472335">
		<tag k="name" v="Båtstøvatnet" />
		<tag k="name:no" v="Båtstøvatnet" />
		<tag k="natural" v="water" />
		<tag k="ssr:stedsnr" v="260743" />
		<tag k="water" v="lake" />
	</node>
	<node id="-691055" lat="67.970499996" lon="16.7412499992">
		<tag k="name" v="Nordvatnet" />
		<tag k="name:no" v="Nordvatnet" />
		<tag k="natural" v="water" />
		<tag k="ssr:stedsnr" v="260500" />
		<tag k="water" v="lake" />
	</node>
	<node id="-691054" lat="67.9912694466" lon="16.7688583346">
		<tag k="name" v="Forsen" />
		<tag k="name:no" v="Forsen" />
		<tag k="natural" v="waterfall" />
		<tag k="ssr:stedsnr" v="260486" />
	</node>
	<node id="-691053" lat="67.8716194458" lon="16.4107555597">
		<tag k="name" v="Skåhpejåhkå - Skoppi" />
		<tag k="name:no" v="Skoppi" />
		<tag k="name:smj" v="Skåhpejåhkå" />
		<tag k="old_name:smj" v="Skohppejohka" />
		<tag k="ssr:stedsnr" v="260408" />
		<tag k="waterway" v="stream" />
	</node>
	<node id="-691050" lat="67.8547944428" lon="16.6738249928">
		<tag k="loc_name:smj" v="Sválesvákjávrre" />
		<tag k="name" v="Badje-Sválasvágjávrre" />
		<tag k="name:smj" v="Badje-Sválasvágjávrre" />
		<tag k="natural" v="water" />
		<tag k="old_name:smj" v="Sválesvakkejávri, bajimus" />
		<tag k="ssr:stedsnr" v="260397" />
		<tag k="water" v="lake" />
	</node>
	<node id="-691048" lat="68.1072194449" lon="16.3622388822">
		<tag k="fixme" v="multiple name tags, choose one and add the other to alt_name" />
		<tag k="name" v="Hestneselva;Kjøpsvikvatnelva" />
		<tag k="name:no" v="Hestneselva;Kjøpsvikvatnelva" />
		<tag k="ssr:stedsnr" v="260603" />
		<tag k="waterway" v="stream" />
	</node>
	<node id="-691046" lat="68.0077388902" lon="16.1611694491">
		<tag k="name" v="Middagsvatnet" />
		<tag k="name:no" v="Middagsvatnet" />
		<tag k="natural" v="water" />
		<tag k="ssr:stedsnr" v="260563" />
	</node>
	<node id="-691044" lat="68.020111111" lon="16.1001805485">
		<tag k="name" v="Senntjønnen" />
		<tag k="name:no" v="Senntjønnen" />
		<tag k="natural" v="water" />
		<tag k="ssr:stedsnr" v="260549" />
		<tag k="water" v="lake" />
	</node>
	<node id="-691041" lat="68.2271611125" lon="16.0094638823">
		<tag k="fixme" v="multiple name tags, choose one and add the other to alt_name" />
		<tag k="name" v="Åsvatnet;Molvikvatnet" />
		<tag k="name:no" v="Åsvatnet;Molvikvatnet" />
		<tag k="natural" v="water" />
		<tag k="ssr:stedsnr" v="259828" />
	</node>
	<node id="-691040" lat="68.0420166645" lon="16.3770666566">
		<tag k="name" v="Storelva" />
		<tag k="name:no" v="Storelva" />
		<tag k="ssr:stedsnr" v="259817" />
		<tag k="waterway" v="stream" />
	</node>
	<node id="-691036" lat="68.1465527741" lon="16.067105548">
		<tag k="name" v="Forsa-Litlvatnet" />
		<tag k="name:no" v="Forsa-Litlvatnet" />
		<tag k="natural" v="water" />
		<tag k="ssr:stedsnr" v="259692" />
		<tag k="water" v="lake" />
	</node>
	<node id="-691035" lat="68.1431249975" lon="16.0985138952">
		<tag k="name" v="Forsaelva" />
		<tag k="name:no" v="Forsaelva" />
		<tag k="ssr:stedsnr" v="259691" />
		<tag k="waterway" v="stream" />
	</node>
	<node id="-691033" lat="67.9840472245" lon="16.1672777855">
		<tag k="loc_name:no" v="Tennsvatnet;Helland-Tennvatnet" />
		<tag k="loc_name:smj" v="Suolojjávrre" />
		<tag k="name" v="Tennvatnet" />
		<tag k="name:no" v="Tennvatnet" />
		<tag k="natural" v="water" />
		<tag k="ssr:stedsnr" v="259656" />
	</node>
	<node id="-691027" lat="67.7405222206" lon="16.5575666679">
		<tag k="name" v="Ræhtjájåhkå" />
		<tag k="name:smj" v="Ræhtjájåhkå" />
		<tag k="old_name:smj" v="Hievstenjohka" />
		<tag k="ssr:stedsnr" v="259635" />
		<tag k="waterway" v="stream" />
	</node>
	<node id="-691026" lat="68.086199999" lon="16.0433972137">
		<tag k="name" v="Gállájávrre - Kjerrvatnet" />
		<tag k="name:no" v="Kjerrvatnet" />
		<tag k="name:smj" v="Gállájávrre" />
		<tag k="natural" v="water" />
		<tag k="ssr:stedsnr" v="259629" />
		<tag k="water" v="lake" />
	</node>
	<node id="-691020" lat="67.8362749973" lon="16.5077972111">
		<tag k="name" v="Gállotjåhkjávrre" />
		<tag k="name:smj" v="Gállotjåhkjávrre" />
		<tag k="natural" v="water" />
		<tag k="old_name:smj" v="Gállocohkajávri" />
		<tag k="ssr:stedsnr" v="259344" />
	</node>
	<node id="-691019" lat="67.8258888891" lon="16.5842388963">
		<tag k="name" v="Gussavágjávrre" />
		<tag k="name:smj" v="Gussavágjávrre" />
		<tag k="natural" v="water" />
		<tag k="old_name:smj" v="Gussavakkejávri" />
		<tag k="ssr:stedsnr" v="259342" />
		<tag k="water" v="lake" />
	</node>
	<node id="-691018" lat="67.8312611142" lon="16.4192750075">
		<tag k="name" v="Stuornjirám" />
		<tag k="name:smj" v="Stuornjirám" />
		<tag k="old_name:smj" v="Stuornjiram" />
		<tag k="ssr:stedsnr" v="259341" />
		<tag k="waterway" v="stream" />
	</node>
	<node id="-691015" lat="68.0746999959" lon="16.2343500042">
		<tag k="name" v="Sommarsetelva" />
		<tag k="name:no" v="Sommarsetelva" />
		<tag k="ssr:stedsnr" v="259523" />
		<tag k="waterway" v="stream" />
	</node>
	<node id="-691011" lat="68.0317888889" lon="16.6615083439">
		<tag k="alt_name:no" v="Kjerringvatnet, litle" />
		<tag k="name" v="Unnep Áhkásjjávrre - Litle Kjerringvatnet" />
		<tag k="name:no" v="Litle Kjerringvatnet" />
		<tag k="name:smj" v="Unnep Áhkásjjávrre" />
		<tag k="natural" v="water" />
		<tag k="old_name:smj" v="Áhkašjávrrit" />
		<tag k="ssr:stedsnr" v="259509" />
		<tag k="water" v="lake" />
	</node>
	<node id="-691003" lat="67.7962416681" lon="16.5530638853">
		<tag k="name" v="Gurtejávrre" />
		<tag k="name:smj" v="Gurtejávrre" />
		<tag k="natural" v="water" />
		<tag k="ssr:stedsnr" v="259134" />
	</node>
	<node id="-691002" lat="67.9287444402" lon="16.3698999995">
		<tag k="name" v="Belgajávvre" />
		<tag k="name:smj" v="Belgajávvre" />
		<tag k="natural" v="water" />
		<tag k="old_name:smj" v="Bealggajávri" />
		<tag k="ssr:stedsnr" v="259322" />
		<tag k="water" v="lake" />
	</node>
	<node id="-691000" lat="68.0728416688" lon="15.9701027843">
		<tag k="name" v="Andersvika" />
		<tag k="name:no" v="Andersvika" />
		<tag k="natural" v="bay" />
		<tag k="ssr:stedsnr" v="231758" />
	</node>
	<node id="-690971" lat="68.2018111095" lon="16.0132055503">
		<tag k="name" v="Dalelva" />
		<tag k="name:no" v="Dalelva" />
		<tag k="ssr:stedsnr" v="204630" />
		<tag k="waterway" v="stream" />
	</node>
	<node id="-690968" lat="68.1332916704" lon="16.0633833434">
		<tag k="name" v="Lomtjønna" />
		<tag k="name:no" v="Lomtjønna" />
		<tag k="natural" v="water" />
		<tag k="ssr:stedsnr" v="204585" />
	</node>
	<node id="-690965" lat="68.1609805564" lon="16.0424249884">
		<tag k="name" v="Omnkråa" />
		<tag k="name:no" v="Omnkråa" />
		<tag k="natural" v="bay" />
		<tag k="ssr:stedsnr" v="204530" />
	</node>
	<node id="-690948" lat="68.1833916637" lon="16.1257055547">
		<tag k="name" v="Stongnesvatnet" />
		<tag k="name:no" v="Stongnesvatnet" />
		<tag k="natural" v="water" />
		<tag k="ssr:stedsnr" v="199805" />
	</node>
	<node id="-690947" lat="68.1672333305" lon="16.0539222327">
		<tag k="alt_name:no" v="Fuglvatnet" />
		<tag k="name" v="Fuglevatnet" />
		<tag k="name:no" v="Fuglevatnet" />
		<tag k="natural" v="water" />
		<tag k="ssr:stedsnr" v="199798" />
	</node>
	<node id="-690946" lat="68.1600027795" lon="16.0710305551">
		<tag k="name" v="Sandvatnet" />
		<tag k="name:no" v="Sandvatnet" />
		<tag k="natural" v="water" />
		<tag k="ssr:stedsnr" v="199753" />
		<tag k="water" v="lake" />
	</node>
	<node id="-690944" lat="68.0913083322" lon="17.0147805584">
		<tag k="name" v="Baugevatnet" />
		<tag k="name:no" v="Baugevatnet" />
		<tag k="natural" v="water" />
		<tag k="ssr:stedsnr" v="199729" />
		<tag k="water" v="lake" />
	</node>
	<node id="-690942" lat="68.1331333345" lon="16.1143583422">
		<tag k="name" v="Finnosen" />
		<tag k="name:no" v="Finnosen" />
		<tag k="natural" v="bay" />
		<tag k="ssr:stedsnr" v="199705" />
	</node>
	<node id="-690941" lat="68.0970055562" lon="16.0223583442">
		<tag k="name" v="Vestervatnet" />
		<tag k="name:no" v="Vestervatnet" />
		<tag k="natural" v="water" />
		<tag k="ssr:stedsnr" v="199698" />
	</node>
	<node id="-690940" lat="68.1075555526" lon="16.6571138917">
		<tag k="name" v="Storelvvatnet" />
		<tag k="name:no" v="Storelvvatnet" />
		<tag k="natural" v="water" />
		<tag k="ssr:stedsnr" v="199601" />
	</node>
	<node id="-690939" lat="68.1166638933" lon="16.3930555536">
		<tag k="name" v="Storbotnelva" />
		<tag k="name:no" v="Storbotnelva" />
		<tag k="ssr:stedsnr" v="199584" />
		<tag k="waterway" v="stream" />
	</node>
	<node id="-690932" lat="68.0399250018" lon="16.6034472133">
		<tag k="name" v="Sandelva" />
		<tag k="name:no" v="Sandelva" />
		<tag k="ssr:stedsnr" v="199518" />
		<tag k="waterway" v="stream" />
	</node>
	<node id="-690928" lat="68.0585555535" lon="16.4526583382">
		<tag k="name" v="Funtaelva" />
		<tag k="name:no" v="Funtaelva" />
		<tag k="ssr:stedsnr" v="199499" />
		<tag k="waterway" v="stream" />
	</node>
	<node id="-690927" lat="68.0618083317" lon="16.4956333237">
		<tag k="name" v="Vájsájávrre" />
		<tag k="name:smj" v="Vájsájávrre" />
		<tag k="natural" v="water" />
		<tag k="old_name:smj" v="Váisajávri" />
		<tag k="ssr:stedsnr" v="199496" />
	</node>
	<node id="-690925" lat="67.8653472188" lon="16.1127638924">
		<tag k="alt_name:no" v="Kuvatnan øvre" />
		<tag k="name" v="Bajep Gussagåpjávrre - Øvre Kuvatnan" />
		<tag k="name:no" v="Øvre Kuvatnan" />
		<tag k="name:smj" v="Bajep Gussagåpjávrre" />
		<tag k="natural" v="water" />
		<tag k="old_name:smj" v="Gussagobejavri, bajit" />
		<tag k="ssr:stedsnr" v="199416" />
		<tag k="water" v="lake" />
	</node>
	<node id="-690918" lat="67.8211333335" lon="16.6299555626">
		<tag k="name" v="Gussajávrre" />
		<tag k="name:smj" v="Gussajávrre" />
		<tag k="natural" v="water" />
		<tag k="old_name:smj" v="Gussajávri" />
		<tag k="ssr:stedsnr" v="199347" />
		<tag k="water" v="lake" />
	</node>
	<node id="-690915" lat="67.9353861139" lon="16.5114333365">
		<tag k="name" v="Biernnajávrre - Bjørnvatnet" />
		<tag k="name:no" v="Bjørnvatnet" />
		<tag k="name:smj" v="Biernnajávrre" />
		<tag k="natural" v="water" />
		<tag k="ssr:stedsnr" v="199338" />
	</node>
	<node id="-690914" lat="67.9122861091" lon="16.4937472259">
		<tag k="name" v="Utsvuonjåhkå" />
		<tag k="name:smj" v="Utsvuonjåhkå" />
		<tag k="ssr:stedsnr" v="199328" />
		<tag k="waterway" v="river" />
	</node>
	<node id="-690910" lat="67.8027833295" lon="16.5462833251">
		<tag k="name" v="Vuodnabatjávrre" />
		<tag k="name:smj" v="Vuodnabatjávrre" />
		<tag k="natural" v="water" />
		<tag k="ssr:stedsnr" v="199166" />
		<tag k="water" v="lake" />
	</node>
	<node id="-690907" lat="67.8172777817" lon="16.606063891">
		<tag k="name" v="Gussalusspe" />
		<tag k="name:smj" v="Gussalusspe" />
		<tag k="natural" v="bay" />
		<tag k="old_name:smj" v="Gussaluspi" />
		<tag k="ssr:stedsnr" v="199156" />
	</node>
	<node id="-690906" lat="68.04398889" lon="16.9688194346">
		<tag k="name" v="Båvrojávrre" />
		<tag k="name:smj" v="Båvrojávrre" />
		<tag k="natural" v="water" />
		<tag k="old_name:smj" v="Bovrojávri" />
		<tag k="ssr:stedsnr" v="199685" />
		<tag k="water" v="lake" />
	</node>
	<node id="-690892" lat="68.0320583345" lon="16.027180548">
		<tag k="name" v="Trangsundodden" />
		<tag k="name:no" v="Trangsundodden" />
		<tag k="natural" v="cape" />
		<tag k="ssr:stedsnr" v="160934" />
	</node>
	<node id="-690868" lat="67.8885694468" lon="16.1890111072">
		<tag k="name" v="Doaresjåhkå" />
		<tag k="name:smj" v="Doaresjåhkå" />
		<tag k="ssr:stedsnr" v="143613" />
		<tag k="waterway" v="stream" />
	</node>
	<node id="-690867" lat="68.1288305526" lon="16.0481777659">
		<tag k="name" v="Lesme" />
		<tag k="name:no" v="Lesme" />
		<tag k="natural" v="strait" />
		<tag k="ssr:stedsnr" v="143614" />
	</node>
	<node id="-690859" lat="68.1801777741" lon="16.0352500093">
		<tag k="name" v="Dalelva" />
		<tag k="name:no" v="Dalelva" />
		<tag k="ssr:stedsnr" v="142721" />
		<tag k="waterway" v="stream" />
	</node>
	<node id="-690853" lat="68.1939277806" lon="16.5512250063">
		<tag k="name" v="Seljeelva" />
		<tag k="name:no" v="Seljeelva" />
		<tag k="ssr:stedsnr" v="142765" />
		<tag k="waterway" v="stream" />
	</node>
	<node id="-690848" lat="68.2536833327" lon="15.9522194542">
		<tag k="name" v="Leirelva" />
		<tag k="name:no" v="Leirelva" />
		<tag k="ssr:stedsnr" v="142500" />
		<tag k="waterway" v="stream" />
	</node>
	<node id="-690840" lat="68.2344388866" lon="16.0470583408">
		<tag k="name" v="Leikneselva" />
		<tag k="name:no" v="Leikneselva" />
		<tag k="ssr:stedsnr" v="138844" />
		<tag k="waterway" v="stream" />
	</node>
	<node id="-690838" lat="68.1970999979" lon="15.9890111168">
		<tag k="name" v="Bakfjellvatnet" />
		<tag k="name:no" v="Bakfjellvatnet" />
		<tag k="natural" v="water" />
		<tag k="ssr:stedsnr" v="138810" />
	</node>
	<node id="-690831" lat="68.0210499992" lon="17.0542833326">
		<tag k="name" v="Lábttjejávrre" />
		<tag k="name:smj" v="Lábttjejávrre" />
		<tag k="natural" v="water" />
		<tag k="old_name:smj" v="Lavzejávri" />
		<tag k="ssr:stedsnr" v="138683" />
		<tag k="water" v="lake" />
	</node>
	<node id="-690827" lat="68.0726583375" lon="15.9827666595">
		<tag k="name" v="Nyfiskvatnet" />
		<tag k="name:no" v="Nyfiskvatnet" />
		<tag k="natural" v="water" />
		<tag k="ssr:stedsnr" v="138657" />
	</node>
	<node id="-690826" lat="68.0166749955" lon="16.3436111158">
		<tag k="name" v="Kjerrvatnet" />
		<tag k="name:no" v="Kjerrvatnet" />
		<tag k="natural" v="water" />
		<tag k="ssr:stedsnr" v="138747" />
	</node>
	<node id="-690823" lat="68.1065611097" lon="16.0192666632">
		<tag k="name" v="Kvannkjoselva" />
		<tag k="name:no" v="Kvannkjoselva" />
		<tag k="ssr:stedsnr" v="138704" />
		<tag k="waterway" v="stream" />
	</node>
	<node id="-690818" lat="68.093761112" lon="16.6303416756">
		<tag k="name" v="Svaelva" />
		<tag k="name:no" v="Svaelva" />
		<tag k="ssr:stedsnr" v="138598" />
		<tag k="waterway" v="stream" />
	</node>
	<node id="-690812" lat="68.1354888927" lon="16.5293500059">
		<tag k="name" v="Russvikvatnet" />
		<tag k="name:no" v="Russvikvatnet" />
		<tag k="natural" v="water" />
		<tag k="ssr:stedsnr" v="138571" />
		<tag k="water" v="lake" />
	</node>
	<node id="-690810" lat="68.0608333378" lon="16.726216658">
		<tag k="name" v="Doaresjåhkå - Tverrelva" />
		<tag k="name:no" v="Tverrelva" />
		<tag k="name:smj" v="Doaresjåhkå" />
		<tag k="old_name:smj" v="Doaresjohka" />
		<tag k="ssr:stedsnr" v="138559" />
		<tag k="waterway" v="river" />
	</node>
	<node id="-690807" lat="68.0162750039" lon="16.0434305662">
		<tag k="name" v="Rottjønna" />
		<tag k="name:no" v="Rottjønna" />
		<tag k="natural" v="water" />
		<tag k="ssr:stedsnr" v="138541" />
	</node>
	<node id="-690805" lat="68.0564138926" lon="16.5188472214">
		<tag k="name" v="Vesterskardvatnet" />
		<tag k="name:no" v="Vesterskardvatnet" />
		<tag k="natural" v="water" />
		<tag k="ssr:stedsnr" v="138513" />
	</node>
	<node id="-690802" lat="68.2547805556" lon="15.9719361103">
		<tag k="name" v="Tysnesvatnet" />
		<tag k="name:no" v="Tysnesvatnet" />
		<tag k="natural" v="water" />
		<tag k="ssr:stedsnr" v="138413" />
	</node>
	<node id="-690799" lat="67.9233000012" lon="16.6318555595">
		<tag k="name" v="Tjoaddnejávrre - Langvatnet" />
		<tag k="name:no" v="Langvatnet" />
		<tag k="name:smj" v="Tjoaddnejávrre" />
		<tag k="natural" v="water" />
		<tag k="old_name:smj" v="Čoadnejávri" />
		<tag k="ssr:stedsnr" v="138358" />
		<tag k="water" v="lake" />
	</node>
	<node id="-690793" lat="67.7845111092" lon="16.580738884">
		<tag k="name" v="Sjielmájávrre" />
		<tag k="name:smj" v="Sjielmájávrre" />
		<tag k="natural" v="water" />
		<tag k="ssr:stedsnr" v="138180" />
	</node>
	<node id="-690792" lat="67.7843499973" lon="16.2466444544">
		<tag k="name" v="Juvvánisjåhkå" />
		<tag k="name:smj" v="Juvvánisjåhkå" />
		<tag k="old_name:smj" v="Juvvanisjohka" />
		<tag k="ssr:stedsnr" v="138173" />
		<tag k="waterway" v="stream" />
	</node>
	<node id="-690791" lat="67.8017583319" lon="16.4534499904">
		<tag k="name" v="Biekkertjávrásj" />
		<tag k="name:smj" v="Biekkertjávrásj" />
		<tag k="natural" v="water" />
		<tag k="old_name:smj" v="Biekkertjávrraš" />
		<tag k="ssr:stedsnr" v="138163" />
	</node>
	<node id="-690787" lat="68.0274749969" lon="16.5365972305">
		<tag k="name" v="Måskejåhkå - Muskvikelva" />
		<tag k="name:no" v="Muskvikelva" />
		<tag k="name:smj" v="Måskejåhkå" />
		<tag k="old_name:smj" v="Moskejohka" />
		<tag k="ssr:stedsnr" v="137775" />
		<tag k="waterway" v="river" />
	</node>
	<node id="-690780" lat="67.9241305582" lon="16.1516861204">
		<tag k="alt_name:no" v="Tennvatnet, øvre" />
		<tag k="name" v="Bajep Tjierregjávrre - Øvre Tennvatnet" />
		<tag k="name:no" v="Øvre Tennvatnet" />
		<tag k="name:smj" v="Bajep Tjierregjávrre" />
		<tag k="natural" v="water" />
		<tag k="old_name:smj" v="Čierregjavri bajit" />
		<tag k="ssr:stedsnr" v="137372" />
	</node>
	<node id="-690767" lat="68.0457833326" lon="16.3843000107">
		<tag k="name" v="Tørneselva" />
		<tag k="name:no" v="Tørneselva" />
		<tag k="ssr:stedsnr" v="99237" />
		<tag k="waterway" v="stream" />
	</node>
	<node id="-690755" lat="68.1028527799" lon="16.0987972322">
		<tag k="name" v="Ryelva" />
		<tag k="name:no" v="Ryelva" />
		<tag k="ssr:stedsnr" v="83523" />
		<tag k="waterway" v="stream" />
	</node>
	<node id="-690728" lat="68.0671499986" lon="16.4198027777">
		<tag k="name" v="Gerhardneset" />
		<tag k="name:no" v="Gerhardneset" />
		<tag k="natural" v="cape" />
		<tag k="ssr:stedsnr" v="82673" />
	</node>
	<node id="-690724" lat="67.890586109" lon="16.1843555494">
		<tag k="name" v="Vákkásjjåhkå" />
		<tag k="name:smj" v="Vákkásjjåhkå" />
		<tag k="ssr:stedsnr" v="82589" />
		<tag k="waterway" v="stream" />
	</node>
	<node id="-690723" lat="68.1231583316" lon="16.105747216">
		<tag k="name" v="Ytterelva" />
		<tag k="name:no" v="Ytterelva" />
		<tag k="ssr:stedsnr" v="82585" />
		<tag k="waterway" v="stream" />
	</node>
	<node id="-690720" lat="68.0835972203" lon="16.0574583402">
		<tag k="name" v="Langosen" />
		<tag k="name:no" v="Langosen" />
		<tag k="natural" v="bay" />
		<tag k="ssr:stedsnr" v="82566" />
	</node>
	<node id="-690715" lat="68.093583333" lon="15.9919833292">
		<tag k="name" v="Fransvatnet" />
		<tag k="name:no" v="Fransvatnet" />
		<tag k="natural" v="water" />
		<tag k="ssr:stedsnr" v="82536" />
	</node>
	<node id="-690705" lat="68.2255694449" lon="16.2152638953">
		<tag k="name" v="Skarbergvatnet" />
		<tag k="name:no" v="Skarbergvatnet" />
		<tag k="natural" v="water" />
		<tag k="ssr:stedsnr" v="78834" />
	</node>
	<node id="-690702" lat="68.1688083356" lon="16.0305444401">
		<tag k="name" v="Nerbotnelva" />
		<tag k="name:no" v="Nerbotnelva" />
		<tag k="ssr:stedsnr" v="78790" />
		<tag k="waterway" v="stream" />
	</node>
	<node id="-690696" lat="68.06819444" lon="15.9715388952">
		<tag k="name" v="Torpelvasselva" />
		<tag k="name:no" v="Torpelvasselva" />
		<tag k="ssr:stedsnr" v="78627" />
		<tag k="waterway" v="stream" />
	</node>
	<node id="-690694" lat="68.1646833323" lon="16.5533750013">
		<tag k="name" v="Vásjájåhkå - Storelva" />
		<tag k="name:no" v="Storelva" />
		<tag k="name:smj" v="Vásjájåhkå" />
		<tag k="ssr:stedsnr" v="78595" />
		<tag k="waterway" v="stream" />
	</node>
	<node id="-690692" lat="68.0300527813" lon="16.0579444379">
		<tag k="name" v="Vassnesodden" />
		<tag k="name:no" v="Vassnesodden" />
		<tag k="natural" v="cape" />
		<tag k="ssr:stedsnr" v="78568" />
	</node>
	<node id="-690690" lat="68.0001888863" lon="16.1640444549">
		<tag k="name" v="Småvatnan" />
		<tag k="name:no" v="Småvatnan" />
		<tag k="natural" v="water" />
		<tag k="ssr:stedsnr" v="78542" />
	</node>
	<node id="-690684" lat="67.87766944" lon="16.2507666737">
		<tag k="name" v="Råggejávrre" />
		<tag k="name:smj" v="Råggejávrre" />
		<tag k="natural" v="water" />
		<tag k="old_name:smj" v="Roggejávri" />
		<tag k="ssr:stedsnr" v="78372" />
		<tag k="water" v="lake" />
	</node>
	<node id="-690683" lat="67.8806166671" lon="16.6087666683">
		<tag k="name" v="Årojriepvágjávrre" />
		<tag k="name:smj" v="Årojriepvágjávrre" />
		<tag k="natural" v="water" />
		<tag k="old_name:smj" v="Oruiriehpejávri" />
		<tag k="ssr:stedsnr" v="78369" />
		<tag k="water" v="lake" />
	</node>
	<node id="-690681" lat="67.9444444455" lon="16.4830916627">
		<tag k="name" v="Biernnajåhkå" />
		<tag k="name:smj" v="Biernnajåhkå" />
		<tag k="ssr:stedsnr" v="78335" />
		<tag k="waterway" v="river" />
	</node>
	<node id="-690675" lat="67.9107749998" lon="16.3759694317">
		<tag k="name" v="Runndagåpjávrre" />
		<tag k="name:smj" v="Runndagåpjávrre" />
		<tag k="natural" v="water" />
		<tag k="old_name:smj" v="Rundagobejávri" />
		<tag k="ssr:stedsnr" v="78319" />
		<tag k="water" v="lake" />
	</node>
	<node id="-690665" lat="68.1033722212" lon="15.9963777769">
		<tag k="name" v="Jårbbåjávrásj - Rundvatnet" />
		<tag k="name:no" v="Rundvatnet" />
		<tag k="name:smj" v="Jårbbåjávrásj" />
		<tag k="natural" v="water" />
		<tag k="ssr:stedsnr" v="77687" />
		<tag k="water" v="lake" />
	</node>
	<node id="-690664" lat="68.1035083379" lon="16.0470416583">
		<tag k="name" v="Langvatnet" />
		<tag k="name:no" v="Langvatnet" />
		<tag k="natural" v="water" />
		<tag k="ssr:stedsnr" v="77650" />
	</node>
	<node id="-690656" lat="68.0752583332" lon="16.2683194407">
		<tag k="name" v="Småvatnan" />
		<tag k="name:no" v="Småvatnan" />
		<tag k="natural" v="water" />
		<tag k="ssr:stedsnr" v="77565" />
		<tag k="water" v="lake" />
	</node>
	<node id="-690653" lat="68.0633805515" lon="16.2815222314">
		<tag k="name" v="Kaffevatnet" />
		<tag k="name:no" v="Kaffevatnet" />
		<tag k="natural" v="water" />
		<tag k="ssr:stedsnr" v="77520" />
	</node>
	<node id="-690645" lat="67.8016944456" lon="16.5764555462">
		<tag k="name" v="Ávtjejávrre" />
		<tag k="name:smj" v="Ávtjejávrre" />
		<tag k="natural" v="water" />
		<tag k="ssr:stedsnr" v="77153" />
	</node>
	<node id="-690644" lat="67.8083361081" lon="16.5248111084">
		<tag k="name" v="Njallajåhkå - Stabburselva" />
		<tag k="name:no" v="Stabburselva" />
		<tag k="name:smj" v="Njallajåhkå" />
		<tag k="ssr:stedsnr" v="77145" />
		<tag k="waterway" v="river" />
	</node>
	<node id="-690636" lat="68.0552166717" lon="16.3954916556">
		<tag k="name" v="Tørnesvatnet" />
		<tag k="name:no" v="Tørnesvatnet" />
		<tag k="natural" v="water" />
		<tag k="ssr:stedsnr" v="39174" />
	</node>
	<node id="-690627" lat="67.7945972193" lon="16.4953749906">
		<tag k="name" v="Pier-Knuhtso-råvve" />
		<tag k="name:smj" v="Pier-Knuhtso-råvve" />
		<tag k="natural" v="waterfall" />
		<tag k="ssr:stedsnr" v="22930" />
	</node>
	<node id="-690624" lat="68.0957416652" lon="16.6877722239">
		<tag k="name" v="Mølnelva" />
		<tag k="name:no" v="Mølnelva" />
		<tag k="ssr:stedsnr" v="22773" />
		<tag k="waterway" v="stream" />
	</node>
	<node id="-690618" lat="68.0840611121" lon="16.048275007">
		<tag k="name" v="Brentodden" />
		<tag k="name:no" v="Brentodden" />
		<tag k="natural" v="cape" />
		<tag k="ssr:stedsnr" v="22588" />
	</node>
	<node id="-690607" lat="68.2068583371" lon="16.0524583335">
		<tag k="name" v="Stordalselva" />
		<tag k="name:no" v="Stordalselva" />
		<tag k="ssr:stedsnr" v="21719" />
		<tag k="waterway" v="stream" />
	</node>
	<node id="-690606" lat="68.0754388921" lon="16.4163499885">
		<tag k="name" v="Nord-Tverrelva" />
		<tag k="name:no" v="Nord-Tverrelva" />
		<tag k="ssr:stedsnr" v="21705" />
		<tag k="waterway" v="stream" />
	</node>
	<node id="-690603" lat="68.2083027784" lon="16.0447055668">
		<tag k="name" v="Sandelva" />
		<tag k="name:no" v="Sandelva" />
		<tag k="ssr:stedsnr" v="17825" />
		<tag k="waterway" v="stream" />
	</node>
	<node id="-690602" lat="68.2049305543" lon="16.0474222326">
		<tag k="fixme" v="multiple name tags, choose one and add the other to alt_name" />
		<tag k="name" v="Storjordvatnet;Storvatnet" />
		<tag k="name:no" v="Storjordvatnet;Storvatnet" />
		<tag k="natural" v="water" />
		<tag k="ssr:stedsnr" v="17824" />
	</node>
	<node id="-690598" lat="68.0009361126" lon="16.6920555659">
		<tag k="name" v="Dáppájávrre - Svartvatnet" />
		<tag k="name:no" v="Svartvatnet" />
		<tag k="name:smj" v="Dáppájávrre" />
		<tag k="natural" v="water" />
		<tag k="old_name:smj" v="Dappajávri, store" />
		<tag k="ssr:stedsnr" v="17774" />
	</node>
	<node id="-690596" lat="67.9633916646" lon="16.0795222171">
		<tag k="name" v="Ankersvatnet" />
		<tag k="name:no" v="Ankersvatnet" />
		<tag k="natural" v="water" />
		<tag k="ssr:stedsnr" v="17673" />
	</node>
	<node id="-690592" lat="68.1550219404" lon="16.3597988966">
		<tag k="name" v="Gielkájávrre - Buttvatnet" />
		<tag k="name:no" v="Buttvatnet" />
		<tag k="name:smj" v="Gielkájávrre" />
		<tag k="natural" v="water" />
		<tag k="ssr:stedsnr" v="17638" />
	</node>
	<node id="-690586" lat="68.0364944489" lon="16.0729999909">
		<tag k="name" v="Hamnvatnet" />
		<tag k="name:no" v="Hamnvatnet" />
		<tag k="natural" v="water" />
		<tag k="ssr:stedsnr" v="17589" />
		<tag k="water" v="lake" />
	</node>
	<node id="-690584" lat="68.1301972236" lon="16.6253694355">
		<tag k="alt_name:no" v="Russvikvatnet, øvre" />
		<tag k="name" v="Øvre Russvikvatnet" />
		<tag k="name:no" v="Øvre Russvikvatnet" />
		<tag k="natural" v="water" />
		<tag k="ssr:stedsnr" v="17585" />
		<tag k="water" v="lake" />
	</node>
	<node id="-690583" lat="68.1345750004" lon="16.4178944397">
		<tag k="name" v="Låttevuonájdde - Fuglfjordeidet" />
		<tag k="name:no" v="Fuglfjordeidet" />
		<tag k="name:smj" v="Låttevuonájdde" />
		<tag k="natural" v="strait" />
		<tag k="ssr:stedsnr" v="17576" />
	</node>
	<node id="-690577" lat="67.8475166698" lon="16.1615000024">
		<tag k="name" v="Skuŋkijávrre" />
		<tag k="name:smj" v="Skuŋkijávrre" />
		<tag k="natural" v="water" />
		<tag k="old_name:smj" v="Skuŋkajávri" />
		<tag k="ssr:stedsnr" v="17468" />
	</node>
	<node id="-690574" lat="67.8704999973" lon="16.2730083225">
		<tag k="name" v="Tjuoldrijdjåhkå" />
		<tag k="name:smj" v="Tjuoldrijdjåhkå" />
		<tag k="old_name:smj" v="Čuoldajohka" />
		<tag k="ssr:stedsnr" v="17398" />
		<tag k="waterway" v="stream" />
	</node>
	<node id="-690570" lat="68.000394445" lon="16.6920222273">
		<tag k="name" v="Dáppájávrre - Småsvartvatnan" />
		<tag k="name:no" v="Småsvartvatnan" />
		<tag k="name:smj" v="Dáppájávrre" />
		<tag k="natural" v="water" />
		<tag k="old_name:smj" v="Dáppajávri" />
		<tag k="ssr:stedsnr" v="17346" />
		<tag k="water" v="lake" />
	</node>
	<node id="-690569" lat="67.961316664" lon="16.5763500016">
		<tag k="name" v="Spællájávrre - Storvatnet" />
		<tag k="name:no" v="Storvatnet" />
		<tag k="name:smj" v="Spællájávrre" />
		<tag k="natural" v="water" />
		<tag k="ssr:stedsnr" v="17323" />
		<tag k="water" v="lake" />
	</node>
	<node id="-690564" lat="67.7984833307" lon="16.460469432">
		<tag k="name" v="Biekkertjåhkå" />
		<tag k="name:smj" v="Biekkertjåhkå" />
		<tag k="ssr:stedsnr" v="17167" />
		<tag k="waterway" v="stream" />
	</node>
	<node id="-690563" lat="67.8059333294" lon="16.3739138897">
		<tag k="name" v="Hujtakjávrre" />
		<tag k="name:smj" v="Hujtakjávrre" />
		<tag k="natural" v="water" />
		<tag k="old_name:smj" v="Huittagjávri" />
		<tag k="ssr:stedsnr" v="17155" />
		<tag k="water" v="lake" />
	</node>
	<node id="-690554" lat="68.2320916694" lon="16.3345527774">
		<tag k="name" v="Lysvollvatnet" />
		<tag k="name:no" v="Lysvollvatnet" />
		<tag k="natural" v="water" />
		<tag k="ssr:stedsnr" v="16477" />
	</node>
	<node id="-690514" lat="67.7841638877" lon="16.5318222229">
		<tag k="name" v="Gålmåsuorakjávrre" />
		<tag k="name:smj" v="Gålmåsuorakjávrre" />
		<tag k="natural" v="water" />
		<tag k="ssr:stedsnr" v="385933" />
	</node>
	<node id="-690513" lat="67.8121583288" lon="16.513508341">
		<tag k="name" v="Skájddegiehtje" />
		<tag k="name:smj" v="Skájddegiehtje" />
		<tag k="natural" v="cape" />
		<tag k="ssr:stedsnr" v="385927" />
	</node>
	<node id="-690512" lat="67.8089222248" lon="16.5213388799">
		<tag k="name" v="Spiskammerset" />
		<tag k="name:no" v="Spiskammerset" />
		<tag k="natural" v="waterfall" />
		<tag k="ssr:stedsnr" v="385921" />
	</node>
	<node id="-690509" lat="67.9835361103" lon="16.3228472243">
		<tag k="name" v="Tsuoppojjávrre" />
		<tag k="name:smj" v="Tsuoppojjávrre" />
		<tag k="natural" v="water" />
		<tag k="ssr:stedsnr" v="385899" />
	</node>
	<node id="-690487" lat="68.0940916691" lon="16.0656277864">
		<tag k="name" v="Æbokluokta" />
		<tag k="name:smj" v="Æbokluokta" />
		<tag k="natural" v="bay" />
		<tag k="ssr:stedsnr" v="385599" />
	</node>
	<node id="-690483" lat="68.0950527756" lon="16.0405083382">
		<tag k="name" v="Vestervasspollen" />
		<tag k="name:no" v="Vestervasspollen" />
		<tag k="natural" v="bay" />
		<tag k="ssr:stedsnr" v="385596" />
	</node>
	<node id="-690481" lat="68.1548722178" lon="16.0388000005">
		<tag k="name" v="Langåskroken" />
		<tag k="name:no" v="Langåskroken" />
		<tag k="natural" v="bay" />
		<tag k="ssr:stedsnr" v="385577" />
	</node>
	<node id="-690457" lat="68.1075416689" lon="16.352361117">
		<tag k="name" v="Kjøpsvikvatnet" />
		<tag k="name:no" v="Kjøpsvikvatnet" />
		<tag k="natural" v="water" />
		<tag k="ssr:stedsnr" v="381583" />
	</node>
	<node id="-690456" lat="68.1107222246" lon="16.3132916585">
		<tag k="alt_name:no" v="Kobbviktjørna" />
		<tag k="name" v="Kobbvikvatnet" />
		<tag k="name:no" v="Kobbvikvatnet" />
		<tag k="natural" v="water" />
		<tag k="ssr:stedsnr" v="381581" />
	</node>
	<node id="-690451" lat="68.0431000048" lon="16.5781111032">
		<tag k="name" v="Sandvatnet" />
		<tag k="name:no" v="Sandvatnet" />
		<tag k="natural" v="water" />
		<tag k="ssr:stedsnr" v="381513" />
	</node>
	<node id="-690448" lat="67.817991669" lon="16.2090472108">
		<tag k="name" v="Gåjgijávrre" />
		<tag k="name:smj" v="Gåjgijávrre" />
		<tag k="natural" v="water" />
		<tag k="old_name:smj" v="Goigejávri, bajit;Goigej'avri, bajit;Bajep Gåjgijávrre" />
		<tag k="ssr:stedsnr" v="381495" />
		<tag k="water" v="lake" />
	</node>
	<node id="-690447" lat="67.8038361084" lon="16.193336121">
		<tag k="name" v="Čappagjohka" />
		<tag k="name:smj" v="Čappagjohka" />
		<tag k="ssr:stedsnr" v="381473" />
		<tag k="waterway" v="river" />
	</node>
	<node id="-690446" lat="67.8791000039" lon="16.1721361078">
		<tag k="name" v="Ruosvágjávrre" />
		<tag k="name:smj" v="Ruosvágjávrre" />
		<tag k="natural" v="water" />
		<tag k="ssr:stedsnr" v="381420" />
	</node>
	<node id="-690445" lat="67.8763638876" lon="16.5111749876">
		<tag k="name" v="Tjierrekjávrre" />
		<tag k="name:smj" v="Tjierrekjávrre" />
		<tag k="natural" v="water" />
		<tag k="old_name:smj" v="Čierregjávri" />
		<tag k="ssr:stedsnr" v="381379" />
	</node>
	<node id="-690440" lat="67.9257083328" lon="16.4038833204">
		<tag k="name" v="Bealgajåhkå" />
		<tag k="name:smj" v="Bealgajåhkå" />
		<tag k="old_name:smj" v="Bealggajohka" />
		<tag k="ssr:stedsnr" v="381339" />
		<tag k="waterway" v="stream" />
	</node>
	<node id="-690435" lat="67.7790249968" lon="16.5327444308">
		<tag k="name" v="Hievsttinjåhkå" />
		<tag k="name:smj" v="Hievsttinjåhkå" />
		<tag k="ssr:stedsnr" v="381220" />
		<tag k="waterway" v="stream" />
	</node>
	<node id="-690433" lat="68.0197000005" lon="16.9652749895">
		<tag k="name" v="Noajdejávrre" />
		<tag k="name:smj" v="Noajdejávrre" />
		<tag k="natural" v="water" />
		<tag k="old_name:smj" v="Noaidejávri" />
		<tag k="ssr:stedsnr" v="380698" />
		<tag k="water" v="lake" />
	</node>
	<node id="-690424" lat="68.0540861145" lon="16.2986444436">
		<tag k="name" v="Storelva" />
		<tag k="name:no" v="Storelva" />
		<tag k="ssr:stedsnr" v="380543" />
		<tag k="waterway" v="stream" />
	</node>
	<node id="-690421" lat="68.2218027789" lon="16.4964639001">
		<tag k="name" v="Tverrlandselven" />
		<tag k="name:no" v="Tverrlandselven" />
		<tag k="ssr:stedsnr" v="380538" />
		<tag k="waterway" v="stream" />
	</node>
	<node id="-690419" lat="68.0616500031" lon="16.2593805441">
		<tag k="name" v="Nøkkvatnet" />
		<tag k="name:no" v="Nøkkvatnet" />
		<tag k="natural" v="water" />
		<tag k="ssr:stedsnr" v="380527" />
	</node>
	<node id="-690416" lat="67.9007194433" lon="16.1734138871">
		<tag k="name" v="Smájlejåhkå - Leirelva" />
		<tag k="name:no" v="Leirelva" />
		<tag k="name:smj" v="Smájlejåhkå" />
		<tag k="ssr:stedsnr" v="380395" />
		<tag k="waterway" v="river" />
	</node>
	<node id="-690413" lat="67.8314944451" lon="16.3617888997">
		<tag k="name" v="Gielddajávrre" />
		<tag k="name:smj" v="Gielddajávrre" />
		<tag k="natural" v="water" />
		<tag k="old_name:smj" v="Gielddajávri" />
		<tag k="ssr:stedsnr" v="380358" />
		<tag k="water" v="lake" />
	</node>
	<node id="-690411" lat="67.9639777818" lon="16.286966671">
		<tag k="name" v="Hálláluovtjåhkå" />
		<tag k="name:smj" v="Hálláluovtjåhkå" />
		<tag k="ssr:stedsnr" v="380284" />
		<tag k="waterway" v="stream" />
	</node>
	<node id="-690410" lat="67.7978777733" lon="16.5187083417">
		<tag k="name" v="Suovastiddje" />
		<tag k="name:smj" v="Suovastiddje" />
		<tag k="natural" v="waterfall" />
		<tag k="ssr:stedsnr" v="380144" />
	</node>
	<node id="-690405" lat="68.1826777751" lon="16.1319888898">
		<tag k="name" v="Stongneselva" />
		<tag k="name:no" v="Stongneselva" />
		<tag k="ssr:stedsnr" v="352885" />
		<tag k="waterway" v="stream" />
	</node>
	<node id="-690399" lat="68.0578666637" lon="16.4452999891">
		<tag k="name" v="Fonteelva" />
		<tag k="name:no" v="Fonteelva" />
		<tag k="ssr:stedsnr" v="342177" />
		<tag k="waterway" v="stream" />
	</node>
	<node id="-690398" lat="67.951722218" lon="16.7344388978">
		<tag k="name" v="Skájdejávrre" />
		<tag k="name:smj" v="Skájdejávrre" />
		<tag k="natural" v="water" />
		<tag k="old_name:smj" v="Skáiddejávri" />
		<tag k="ssr:stedsnr" v="341523" />
		<tag k="water" v="lake" />
	</node>
	<node id="-690391" lat="68.0689916657" lon="16.4421333308">
		<tag k="name" v="Skredelva" />
		<tag k="name:no" v="Skredelva" />
		<tag k="ssr:stedsnr" v="328572" />
		<tag k="waterway" v="stream" />
	</node>
	<node id="-690388" lat="68.2505833312" lon="16.3734166634">
		<tag k="name" v="Resselva" />
		<tag k="name:no" v="Resselva" />
		<tag k="ssr:stedsnr" v="325991" />
		<tag k="waterway" v="stream" />
	</node>
	<node id="-690387" lat="68.2706027807" lon="16.2759916704">
		<tag k="name" v="Sommarsetelva" />
		<tag k="name:no" v="Sommarsetelva" />
		<tag k="ssr:stedsnr" v="325990" />
		<tag k="waterway" v="stream" />
	</node>
	<node id="-690384" lat="68.2226111073" lon="16.2786527839">
		<tag k="name" v="Langmarkelva" />
		<tag k="name:no" v="Langmarkelva" />
		<tag k="ssr:stedsnr" v="325976" />
		<tag k="waterway" v="stream" />
	</node>
	<node id="-690377" lat="67.8032722194" lon="16.5125861173">
		<tag k="name" v="Tsábbmemjårmme" />
		<tag k="name:smj" v="Tsábbmemjårmme" />
		<tag k="place" v="locality" />
		<tag k="ssr:stedsnr" v="325914" />
	</node>
	<node id="-690374" lat="67.967388885" lon="16.5888638868">
		<tag k="name" v="Litlvatnet" />
		<tag k="name:no" v="Litlvatnet" />
		<tag k="natural" v="water" />
		<tag k="ssr:stedsnr" v="325898" />
	</node>
	<node id="-690367" lat="68.0353583319" lon="16.6245250087">
		<tag k="name" v="Vuodogårttje" />
		<tag k="name:smj" v="Vuodogårttje" />
		<tag k="natural" v="waterfall" />
		<tag k="ssr:stedsnr" v="325760" />
	</node>
	<node id="-690360" lat="68.1791944477" lon="16.4860638855">
		<tag k="name" v="Skjellelva" />
		<tag k="name:no" v="Skjellelva" />
		<tag k="ssr:stedsnr" v="325728" />
		<tag k="waterway" v="stream" />
	</node>
	<node id="-690353" lat="68.075491665" lon="16.3962694505">
		<tag k="name" v="Litlelva" />
		<tag k="name:no" v="Litlelva" />
		<tag k="ssr:stedsnr" v="325675" />
		<tag k="waterway" v="river" />
	</node>
	<node id="-690351" lat="68.0674694413" lon="16.4087972132">
		<tag k="name" v="Sør-Tverrelva" />
		<tag k="name:no" v="Sør-Tverrelva" />
		<tag k="ssr:stedsnr" v="325667" />
		<tag k="waterway" v="stream" />
	</node>
	<node id="-690340" lat="68.1436805543" lon="16.0258833204">
		<tag k="name" v="Langholmen" />
		<tag k="name:no" v="Langholmen" />
		<tag k="place" v="islet" />
		<tag k="ssr:stedsnr" v="325565" />
	</node>
	<node id="-690339" lat="68.1415222222" lon="16.0564250107">
		<tag k="name" v="Langåselva" />
		<tag k="name:no" v="Langåselva" />
		<tag k="ssr:stedsnr" v="325563" />
		<tag k="waterway" v="river" />
	</node>
	<node id="-690324" lat="68.0494138878" lon="16.0216472284">
		<tag k="name" v="Stordalselva" />
		<tag k="name:no" v="Stordalselva" />
		<tag k="ssr:stedsnr" v="324753" />
		<tag k="waterway" v="stream" />
	</node>
	<node id="-690322" lat="67.9679027825" lon="16.8370027714">
		<tag k="name" v="Biernajávrre - Bjørnvatnet" />
		<tag k="name:no" v="Bjørnvatnet" />
		<tag k="name:smj" v="Biernajávrre" />
		<tag k="natural" v="water" />
		<tag k="old_name:smj" v="Biertnajávri" />
		<tag k="ssr:stedsnr" v="321445" />
		<tag k="water" v="lake" />
	</node>
	<node id="-690313" lat="68.0098777805" lon="16.5162916755">
		<tag k="name" v="Tjævrrájåhkå" />
		<tag k="name:smj" v="Tjævrrájåhkå" />
		<tag k="old_name:smj" v="Čeavrajohka" />
		<tag k="ssr:stedsnr" v="320724" />
		<tag k="waterway" v="stream" />
	</node>
	<node id="-690303" lat="68.0628416629" lon="16.0688249903">
		<tag k="name" v="Selbuelva" />
		<tag k="name:no" v="Selbuelva" />
		<tag k="ssr:stedsnr" v="320587" />
		<tag k="waterway" v="stream" />
	</node>
	<node id="-690301" lat="68.0991472222" lon="16.6445611001">
		<tag k="name" v="Kvitelva" />
		<tag k="name:no" v="Kvitelva" />
		<tag k="ssr:stedsnr" v="320573" />
		<tag k="waterway" v="stream" />
	</node>
	<node id="-690300" lat="68.0229083323" lon="16.1130555441">
		<tag k="fixme" v="multiple name tags, choose one and add the other to alt_name" />
		<tag k="name" v="Litlvatnan;Litlvatnet" />
		<tag k="name:no" v="Litlvatnan;Litlvatnet" />
		<tag k="natural" v="water" />
		<tag k="ssr:stedsnr" v="320567" />
	</node>
	<node id="-690298" lat="68.1400999968" lon="16.3551000089">
		<tag k="name" v="Mellomgårdselva" />
		<tag k="name:no" v="Mellomgårdselva" />
		<tag k="ssr:stedsnr" v="320550" />
		<tag k="waterway" v="stream" />
	</node>
	<node id="-690297" lat="68.1384027772" lon="16.3302472178">
		<tag k="name" v="Mølnelva" />
		<tag k="name:no" v="Mølnelva" />
		<tag k="ssr:stedsnr" v="320549" />
		<tag k="waterway" v="stream" />
	</node>
	<node id="-690293" lat="68.0752999957" lon="16.5933333398">
		<tag k="name" v="Millojåhkå - Mølnelva" />
		<tag k="name:no" v="Mølnelva" />
		<tag k="name:smj" v="Millojåhkå" />
		<tag k="ssr:stedsnr" v="320532" />
		<tag k="waterway" v="stream" />
	</node>
	<node id="-690290" lat="68.0157333333" lon="16.0700194513">
		<tag k="loc_name:smj" v="Muljåhkå" />
		<tag k="name" v="Jieggejåhkå - Myrjåkkelva" />
		<tag k="name:no" v="Myrjåkkelva" />
		<tag k="name:smj" v="Jieggejåhkå" />
		<tag k="ssr:stedsnr" v="320513" />
		<tag k="waterway" v="river" />
	</node>
	<node id="-690285" lat="68.0442194422" lon="16.6969527838">
		<tag k="name" v="Sadjemjávrre - Brynvatnet" />
		<tag k="name:no" v="Brynvatnet" />
		<tag k="name:smj" v="Sadjemjávrre" />
		<tag k="natural" v="water" />
		<tag k="ssr:stedsnr" v="320497" />
		<tag k="water" v="lake" />
	</node>
	<node id="-690284" lat="68.045647218" lon="16.5267083299">
		<tag k="name" v="Stordalselva" />
		<tag k="name:no" v="Stordalselva" />
		<tag k="ssr:stedsnr" v="320493" />
		<tag k="waterway" v="river" />
	</node>
	<node id="-690271" lat="67.7557277808" lon="16.5447055505">
		<tag k="name" v="Hievsttinjávrre" />
		<tag k="name:smj" v="Hievsttinjávrre" />
		<tag k="natural" v="water" />
		<tag k="old_name:smj" v="Hievstenjávri" />
		<tag k="ssr:stedsnr" v="320168" />
		<tag k="water" v="lake" />
	</node>
	<node id="-690267" lat="67.8010083295" lon="16.5383805558">
		<tag k="name" v="Njallajåkgårttje" />
		<tag k="name:smj" v="Njallajåkgårttje" />
		<tag k="natural" v="waterfall" />
		<tag k="ssr:stedsnr" v="320153" />
	</node>
</osm>
