<?xml version="1.0" encoding="UTF-8"?>
<osm generator="osmapis" version="0.6">
	<node id="-692733" lat="68.0054166621" lon="16.4282416711">
		<tag k="fixme" v="verify maritime location" />
		<tag k="mooring" v="yes" />
		<tag k="name" v="Lappstøa" />
		<tag k="name:no" v="Lappstøa" />
		<tag k="place" v="locality" />
		<tag k="ssr:stedsnr" v="589033" />
	</node>
	<node id="-692794" lat="68.0496555512" lon="15.9918194459">
		<tag k="highway" v="path" />
		<tag k="name" v="Storbakkvegen" />
		<tag k="name:no" v="Storbakkvegen" />
		<tag k="ssr:stedsnr" v="627772" />
	</node>
	<node id="-692217" lat="68.0777472213" lon="16.0749222187">
		<tag k="highway" v="path" />
		<tag k="name" v="Fjellveien" />
		<tag k="name:no" v="Fjellveien" />
		<tag k="ssr:stedsnr" v="203586" />
	</node>
	<node id="-691892" lat="67.807255553" lon="16.5343138826">
		<tag k="ford" v="yes" />
		<tag k="name" v="Jærtáråvve" />
		<tag k="name:smj" v="Jærtáråvve" />
		<tag k="place" v="locality" />
		<tag k="ssr:stedsnr" v="22935" />
	</node>
	<node id="-691609" lat="68.0731249977" lon="16.4087888931">
		<tag k="ford" v="yes" />
		<tag k="name" v="Vadet" />
		<tag k="name:no" v="Vadet" />
		<tag k="place" v="locality" />
		<tag k="ssr:stedsnr" v="325671" />
	</node>
	<node id="-692244" lat="68.2324500033" lon="16.2346944479">
		<tag k="amenity" v="ferry_terminal" />
		<tag k="name" v="Skarberget" />
		<tag k="name:no" v="Skarberget" />
		<tag k="ssr:stedsnr" v="207744" />
	</node>
	<node id="-692112" lat="68.0170416703" lon="16.1685222127">
		<tag k="man_made" v="quay" />
		<tag k="name" v="Helland ekspedisjon" />
		<tag k="name:no" v="Helland ekspedisjon" />
		<tag k="place" v="locality" />
		<tag k="ssr:stedsnr" v="142551" />
	</node>
	<node id="-692463" lat="67.8005138861" lon="16.5103777873">
		<tag k="highway" v="path" />
		<tag k="name" v="Gussabálges" />
		<tag k="name:smj" v="Gussabálges" />
		<tag k="ssr:stedsnr" v="446939" />
	</node>
	<node id="-692398" lat="68.2248916664" lon="16.0758388782">
		<tag k="amenity" v="ferry_terminal" />
		<tag k="loc_name:smj" v="Bognássje" />
		<tag k="name" v="Bognes" />
		<tag k="name:no" v="Bognes" />
		<tag k="ssr:stedsnr" v="441834" />
	</node>
	<node id="-691915" lat="68.0603000046" lon="16.3208111065">
		<tag k="name" v="Hulløyhamn" />
		<tag k="name:no" v="Hulløyhamn" />
		<tag k="place" v="locality" />
		<tag k="ssr:stedsnr" v="77518" />
	</node>
	<node id="-691594" lat="68.0265944415" lon="16.1507777695">
		<tag k="highway" v="path" />
		<tag k="name" v="Handelsvegen" />
		<tag k="name:no" v="Handelsvegen" />
		<tag k="ssr:stedsnr" v="325562" />
	</node>
	<node id="-691750" lat="68.1372805588" lon="16.0891000024">
		<tag k="bridge" v="yes" />
		<tag k="layer" v="1" />
		<tag k="name" v="Tjuosskombrygga" />
		<tag k="name:no" v="Tjuosskombrygga" />
		<tag k="ssr:stedsnr" v="385632" />
	</node>
	<node id="-692707" lat="68.1550166663" lon="16.1311416621">
		<tag k="man_made" v="pier" />
		<tag k="name" v="Moloen" />
		<tag k="name:no" v="Moloen" />
		<tag k="place" v="locality" />
		<tag k="ssr:stedsnr" v="567894" />
	</node>
	<node id="-691777" lat="68.1145500031" lon="16.1075527843">
		<tag k="highway" v="path" />
		<tag k="name" v="Stien" />
		<tag k="name:no" v="Stien" />
		<tag k="ssr:stedsnr" v="386525" />
	</node>
</osm>
