<?xml version="1.0" encoding="UTF-8"?>
<osm generator="osmapis" version="0.6">
	<node id="-692134" lat="68.077033329" lon="15.9448583304">
		<tag k="fixme" v="consider natural=peak for the most distinct mountains in the district" />
		<tag k="name" v="Heimeråsen" />
		<tag k="name:no" v="Heimeråsen" />
		<tag k="natural" v="hill" />
		<tag k="place" v="locality" />
		<tag k="ssr:stedsnr" v="949939" />
	</node>
	<node id="-692133" lat="68.0464416631" lon="16.3787777762">
		<tag k="name" v="Laftsbergan" />
		<tag k="name:no" v="Laftsbergan" />
		<tag k="natural" v="hill" />
		<tag k="place" v="locality" />
		<tag k="ssr:stedsnr" v="949209" />
	</node>
	<node id="-692126" lat="68.09927222" lon="15.9895999977">
		<tag k="name" v="Rundvasshaugen" />
		<tag k="name:no" v="Rundvasshaugen" />
		<tag k="natural" v="hill" />
		<tag k="place" v="locality" />
		<tag k="ssr:stedsnr" v="933583" />
	</node>
	<node id="-692125" lat="68.1061666707" lon="16.1057222304">
		<tag k="name" v="Gàllodievva" />
		<tag k="name:smj" v="Gàllodievva" />
		<tag k="natural" v="hill" />
		<tag k="place" v="locality" />
		<tag k="ssr:stedsnr" v="933576" />
	</node>
	<node id="-692124" lat="68.1096416655" lon="16.1065194425">
		<tag k="name" v="Skjåvikhalsen" />
		<tag k="name:no" v="Skjåvikhalsen" />
		<tag k="natural" v="hill" />
		<tag k="place" v="locality" />
		<tag k="ssr:stedsnr" v="933575" />
	</node>
	<node id="-692122" lat="68.2728944485" lon="16.307483325">
		<tag k="fixme" v="consider natural=peak for the most distinct mountains in the district" />
		<tag k="name" v="Hestnesfjellet" />
		<tag k="name:no" v="Hestnesfjellet" />
		<tag k="natural" v="hill" />
		<tag k="place" v="locality" />
		<tag k="ssr:stedsnr" v="932993" />
	</node>
	<node id="-692121" lat="68.2327527762" lon="16.366233343">
		<tag k="name" v="Skaret" />
		<tag k="name:no" v="Skaret" />
		<tag k="natural" v="valley" />
		<tag k="place" v="locality" />
		<tag k="ssr:stedsnr" v="932974" />
	</node>
	<node id="-692120" lat="68.2448444461" lon="16.4152583266">
		<tag k="fixme" v="consider natural=peak for the most distinct mountains in the district" />
		<tag k="name" v="Litltinden" />
		<tag k="name:no" v="Litltinden" />
		<tag k="natural" v="hill" />
		<tag k="place" v="locality" />
		<tag k="ssr:stedsnr" v="932972" />
	</node>
	<node id="-692118" lat="68.2459777811" lon="16.3958027699">
		<tag k="name" v="Litltinddalen" />
		<tag k="name:no" v="Litltinddalen" />
		<tag k="natural" v="valley" />
		<tag k="place" v="locality" />
		<tag k="ssr:stedsnr" v="932971" />
	</node>
	<node id="-692114" lat="68.1361583352" lon="16.2785944379">
		<tag k="name" v="Marihola" />
		<tag k="name:no" v="Marihola" />
		<tag k="place" v="locality" />
		<tag k="ssr:stedsnr" v="932949" />
	</node>
	<node id="-692113" lat="68.2302861084" lon="16.1987194403">
		<tag k="name" v="Stormyrbakken" />
		<tag k="name:no" v="Stormyrbakken" />
		<tag k="natural" v="slope" />
		<tag k="place" v="locality" />
		<tag k="ssr:stedsnr" v="932938" />
	</node>
	<node id="-692112" lat="68.2326194423" lon="16.2013055597">
		<tag k="name" v="Storhaugen" />
		<tag k="name:no" v="Storhaugen" />
		<tag k="natural" v="hill" />
		<tag k="place" v="locality" />
		<tag k="ssr:stedsnr" v="932939" />
	</node>
	<node id="-692105" lat="68.0629333353" lon="16.2475555632">
		<tag k="fixme" v="consider natural=peak for the most distinct mountains in the district" />
		<tag k="name" v="Hulløynesfjellet" />
		<tag k="name:no" v="Hulløynesfjellet" />
		<tag k="natural" v="hill" />
		<tag k="place" v="locality" />
		<tag k="ssr:stedsnr" v="932865" />
	</node>
	<node id="-692098" lat="68.074327776" lon="16.4015722306">
		<tag k="name" v="Høgda" />
		<tag k="name:no" v="Høgda" />
		<tag k="place" v="locality" />
		<tag k="ssr:stedsnr" v="932660" />
	</node>
	<node id="-692096" lat="68.0676555539" lon="16.3743138941">
		<tag k="name" v="Mølnvikhågen" />
		<tag k="name:no" v="Mølnvikhågen" />
		<tag k="natural" v="hill" />
		<tag k="place" v="locality" />
		<tag k="ssr:stedsnr" v="932652" />
	</node>
	<node id="-692094" lat="68.0588305534" lon="16.3822861194">
		<tag k="name" v="Bjørkenesaksla" />
		<tag k="name:no" v="Bjørkenesaksla" />
		<tag k="natural" v="ridge" />
		<tag k="place" v="locality" />
		<tag k="ssr:stedsnr" v="932643" />
	</node>
	<node id="-692093" lat="68.0517555584" lon="16.0590027731">
		<tag k="name" v="Heggbærhola" />
		<tag k="name:no" v="Heggbærhola" />
		<tag k="natural" v="valley" />
		<tag k="place" v="locality" />
		<tag k="ssr:stedsnr" v="932630" />
	</node>
	<node id="-692091" lat="68.0442527816" lon="16.0735694545">
		<tag k="name" v="Hamndalen" />
		<tag k="name:no" v="Hamndalen" />
		<tag k="natural" v="valley" />
		<tag k="place" v="locality" />
		<tag k="ssr:stedsnr" v="932627" />
	</node>
	<node id="-692090" lat="68.1365611114" lon="16.0738277836">
		<tag k="name" v="Heimerkroken" />
		<tag k="name:no" v="Heimerkroken" />
		<tag k="natural" v="valley" />
		<tag k="place" v="locality" />
		<tag k="ssr:stedsnr" v="932584" />
	</node>
	<node id="-692088" lat="68.1284666625" lon="16.0740166619">
		<tag k="name" v="Halsen" />
		<tag k="name:no" v="Halsen" />
		<tag k="natural" v="valley" />
		<tag k="place" v="locality" />
		<tag k="ssr:stedsnr" v="932579" />
	</node>
	<node id="-692087" lat="67.9006583362" lon="16.1725277758">
		<tag k="name" v="Smájlevágge" />
		<tag k="name:smj" v="Smájlevágge" />
		<tag k="natural" v="valley" />
		<tag k="place" v="locality" />
		<tag k="ssr:stedsnr" v="932577" />
	</node>
	<node id="-692086" lat="68.0769611128" lon="15.9695722334">
		<tag k="name" v="Ørnfloget" />
		<tag k="name:no" v="Ørnfloget" />
		<tag k="natural" v="hill" />
		<tag k="place" v="locality" />
		<tag k="ssr:stedsnr" v="932545" />
	</node>
	<node id="-692084" lat="68.1487777788" lon="16.0306249879">
		<tag k="name" v="Sponhågen" />
		<tag k="name:no" v="Sponhågen" />
		<tag k="natural" v="hill" />
		<tag k="place" v="locality" />
		<tag k="ssr:stedsnr" v="932533" />
	</node>
	<node id="-692083" lat="68.1007000012" lon="16.0996805641">
		<tag k="name" v="Forrhågen" />
		<tag k="name:no" v="Forrhågen" />
		<tag k="natural" v="hill" />
		<tag k="place" v="locality" />
		<tag k="ssr:stedsnr" v="932509" />
	</node>
	<node id="-692082" lat="68.2304027761" lon="15.956238897">
		<tag k="name" v="Spranget" />
		<tag k="name:no" v="Spranget" />
		<tag k="natural" v="valley" />
		<tag k="place" v="locality" />
		<tag k="ssr:stedsnr" v="932491" />
	</node>
	<node id="-692081" lat="68.2459222179" lon="15.9982305559">
		<tag k="name" v="Ånderdalen" />
		<tag k="name:no" v="Ånderdalen" />
		<tag k="natural" v="valley" />
		<tag k="place" v="locality" />
		<tag k="ssr:stedsnr" v="932477" />
	</node>
	<node id="-692080" lat="68.0856305576" lon="16.0898611185">
		<tag k="name" v="Svaberget" />
		<tag k="name:no" v="Svaberget" />
		<tag k="natural" v="hill" />
		<tag k="place" v="locality" />
		<tag k="ssr:stedsnr" v="931592" />
	</node>
	<node id="-692079" lat="68.0891388858" lon="16.0613388798">
		<tag k="name" v="Klekshågen" />
		<tag k="name:no" v="Klekshågen" />
		<tag k="natural" v="hill" />
		<tag k="place" v="locality" />
		<tag k="ssr:stedsnr" v="931590" />
	</node>
	<node id="-692076" lat="68.1760000034" lon="15.9923694451">
		<tag k="fixme" v="consider natural=peak for the most distinct mountains in the district" />
		<tag k="name" v="Mellatinden" />
		<tag k="name:no" v="Mellatinden" />
		<tag k="natural" v="hill" />
		<tag k="place" v="locality" />
		<tag k="ssr:stedsnr" v="927773" />
	</node>
	<node id="-692072" lat="68.0095416702" lon="16.2797861066">
		<tag k="fixme" v="consider natural=peak for the most distinct mountains in the district" />
		<tag k="name" v="Råssenjárgvárre - Fagernesfjellet" />
		<tag k="name:no" v="Fagernesfjellet" />
		<tag k="name:smj" v="Råssenjárgvárre" />
		<tag k="natural" v="hill" />
		<tag k="place" v="locality" />
		<tag k="ssr:stedsnr" v="927733" />
	</node>
	<node id="-692070" lat="68.0251972241" lon="16.5911083292">
		<tag k="loc_name:smj" v="Måsskeriehppe" />
		<tag k="name" v="Riehppe" />
		<tag k="name:smj" v="Riehppe" />
		<tag k="natural" v="valley" />
		<tag k="old_name:smj" v="Riehppi" />
		<tag k="place" v="locality" />
		<tag k="ssr:stedsnr" v="927729" />
	</node>
	<node id="-692068" lat="68.0530138887" lon="17.1789083426">
		<tag k="fixme" v="consider natural=peak for the most distinct mountains in the district" />
		<tag k="name" v="Bávketjåhkkå" />
		<tag k="name:smj" v="Bávketjåhkkå" />
		<tag k="natural" v="hill" />
		<tag k="old_name:smj" v="Bávgečohkka" />
		<tag k="place" v="locality" />
		<tag k="ssr:stedsnr" v="927661" />
	</node>
	<node id="-692067" lat="67.9832333304" lon="16.1179611175">
		<tag k="alt_name:no" v="Veten, østre" />
		<tag k="fixme" v="consider natural=peak for the most distinct mountains in the district" />
		<tag k="name" v="Østre Veten" />
		<tag k="name:no" v="Østre Veten" />
		<tag k="natural" v="hill" />
		<tag k="place" v="locality" />
		<tag k="ssr:stedsnr" v="927656" />
	</node>
	<node id="-692064" lat="68.1882416704" lon="16.4900166702">
		<tag k="fixme" v="consider natural=peak for the most distinct mountains in the district" />
		<tag k="name" v="Sjutuva" />
		<tag k="name:no" v="Sjutuva" />
		<tag k="natural" v="hill" />
		<tag k="place" v="locality" />
		<tag k="ssr:stedsnr" v="927598" />
	</node>
	<node id="-692063" lat="68.2844527745" lon="16.2971999957">
		<tag k="fixme" v="consider natural=peak for the most distinct mountains in the district" />
		<tag k="name" v="Rundtinden" />
		<tag k="name:no" v="Rundtinden" />
		<tag k="natural" v="hill" />
		<tag k="place" v="locality" />
		<tag k="ssr:stedsnr" v="927587" />
	</node>
	<node id="-692059" lat="68.121897221" lon="16.3406500109">
		<tag k="fixme" v="consider natural=peak for the most distinct mountains in the district" />
		<tag k="name" v="Steinfjellet" />
		<tag k="name:no" v="Steinfjellet" />
		<tag k="natural" v="hill" />
		<tag k="place" v="locality" />
		<tag k="ssr:stedsnr" v="927574" />
	</node>
	<node id="-692055" lat="68.0624916697" lon="16.7339222123">
		<tag k="fixme" v="consider natural=peak for the most distinct mountains in the district" />
		<tag k="name" v="Durmålstuva" />
		<tag k="name:no" v="Durmålstuva" />
		<tag k="natural" v="hill" />
		<tag k="place" v="locality" />
		<tag k="ssr:stedsnr" v="927557" />
	</node>
	<node id="-692054" lat="68.0686805594" lon="16.5669749959">
		<tag k="name" v="Vájsávágge" />
		<tag k="name:smj" v="Vájsávágge" />
		<tag k="natural" v="valley" />
		<tag k="old_name:smj" v="Vaisavaggi" />
		<tag k="place" v="locality" />
		<tag k="ssr:stedsnr" v="927556" />
	</node>
	<node id="-692047" lat="67.8368388884" lon="16.2009694538">
		<tag k="fixme" v="consider natural=peak for the most distinct mountains in the district" />
		<tag k="name" v="Gåjginjunnje" />
		<tag k="name:smj" v="Gåjginjunnje" />
		<tag k="natural" v="hill" />
		<tag k="old_name:smj" v="Goigenjunni" />
		<tag k="place" v="locality" />
		<tag k="ssr:stedsnr" v="927498" />
	</node>
	<node id="-692046" lat="67.8896527743" lon="16.1688444432">
		<tag k="name" v="Vákkásj" />
		<tag k="name:smj" v="Vákkásj" />
		<tag k="natural" v="valley" />
		<tag k="place" v="locality" />
		<tag k="ssr:stedsnr" v="927432" />
	</node>
	<node id="-692044" lat="67.847572221" lon="16.2636444397">
		<tag k="fixme" v="consider natural=peak for the most distinct mountains in the district" />
		<tag k="name" v="Vásjávárre" />
		<tag k="name:smj" v="Vásjávárre" />
		<tag k="natural" v="hill" />
		<tag k="old_name:smj" v="Váššavárri;Vássjavárre" />
		<tag k="place" v="locality" />
		<tag k="ssr:stedsnr" v="927371" />
	</node>
	<node id="-692043" lat="67.8345305555" lon="16.3990666696">
		<tag k="fixme" v="consider natural=peak for the most distinct mountains in the district" />
		<tag k="name" v="Tjáhppisoajvve" />
		<tag k="name:smj" v="Tjáhppisoajvve" />
		<tag k="natural" v="hill" />
		<tag k="old_name:smj" v="Čáhppesoaivi" />
		<tag k="place" v="locality" />
		<tag k="ssr:stedsnr" v="927363" />
	</node>
	<node id="-692042" lat="67.836124997" lon="16.4180749997">
		<tag k="name" v="Stuornjirámbákte" />
		<tag k="name:smj" v="Stuornjirámbákte" />
		<tag k="old_name:smj" v="Stuornjirrambákti" />
		<tag k="place" v="locality" />
		<tag k="ssr:stedsnr" v="927361" />
	</node>
	<node id="-692039" lat="67.9363749977" lon="16.7185277814">
		<tag k="fixme" v="consider natural=peak for the most distinct mountains in the district" />
		<tag k="name" v="Biehtsegáma" />
		<tag k="name:smj" v="Biehtsegáma" />
		<tag k="natural" v="hill" />
		<tag k="old_name:smj" v="Beassegáma;Biessegáma" />
		<tag k="place" v="locality" />
		<tag k="ssr:stedsnr" v="927351" />
	</node>
	<node id="-692038" lat="67.8997111129" lon="16.313650007">
		<tag k="fixme" v="consider natural=peak for the most distinct mountains in the district" />
		<tag k="name" v="Nåråldakvárre" />
		<tag k="name:smj" v="Nåråldakvárre" />
		<tag k="natural" v="hill" />
		<tag k="old_name:smj" v="Noroldahkvárri" />
		<tag k="place" v="locality" />
		<tag k="ssr:stedsnr" v="927338" />
	</node>
	<node id="-692036" lat="67.8944388885" lon="16.4067944514">
		<tag k="fixme" v="consider natural=peak for the most distinct mountains in the district" />
		<tag k="name" v="Juoksatjåhkkå" />
		<tag k="name:smj" v="Juoksatjåhkkå" />
		<tag k="natural" v="hill" />
		<tag k="old_name:smj" v="Juoksačohkka" />
		<tag k="place" v="locality" />
		<tag k="ssr:stedsnr" v="927325" />
	</node>
	<node id="-692032" lat="67.9997416662" lon="16.2929527721">
		<tag k="fixme" v="consider natural=peak for the most distinct mountains in the district" />
		<tag k="name" v="Ibboluovtvárre" />
		<tag k="name:smj" v="Ibboluovtvárre" />
		<tag k="natural" v="hill" />
		<tag k="old_name:smj" v="Ibboluoktvárri" />
		<tag k="place" v="locality" />
		<tag k="ssr:stedsnr" v="927274" />
	</node>
	<node id="-692031" lat="67.7853166673" lon="16.5638777699">
		<tag k="name" v="Amásváksjielmmá" />
		<tag k="name:smj" v="Amásváksjielmmá" />
		<tag k="place" v="locality" />
		<tag k="ssr:stedsnr" v="927168" />
	</node>
	<node id="-692029" lat="67.7789027775" lon="16.4315305438">
		<tag k="name" v="Skoarre" />
		<tag k="name:smj" v="Skoarre" />
		<tag k="natural" v="valley" />
		<tag k="old_name:smj" v="Skoarri" />
		<tag k="place" v="locality" />
		<tag k="ssr:stedsnr" v="927162" />
	</node>
	<node id="-692028" lat="67.8070527807" lon="16.5586611114">
		<tag k="name" v="Bassoalgge" />
		<tag k="name:smj" v="Bassoalgge" />
		<tag k="natural" v="slope" />
		<tag k="place" v="locality" />
		<tag k="ssr:stedsnr" v="927146" />
	</node>
	<node id="-692026" lat="68.2450972237" lon="16.0477055517">
		<tag k="fixme" v="consider natural=peak for the most distinct mountains in the district" />
		<tag k="name" v="Kopparåsen" />
		<tag k="name:no" v="Kopparåsen" />
		<tag k="natural" v="hill" />
		<tag k="place" v="locality" />
		<tag k="ssr:stedsnr" v="927861" />
	</node>
	<node id="-692025" lat="68.2331861117" lon="16.0512388882">
		<tag k="fixme" v="consider natural=peak for the most distinct mountains in the district" />
		<tag k="name" v="Strandåsen" />
		<tag k="name:no" v="Strandåsen" />
		<tag k="natural" v="hill" />
		<tag k="place" v="locality" />
		<tag k="ssr:stedsnr" v="927829" />
	</node>
	<node id="-692023" lat="68.2080861149" lon="16.0691972193">
		<tag k="name" v="Storhågen" />
		<tag k="name:no" v="Storhågen" />
		<tag k="natural" v="hill" />
		<tag k="place" v="locality" />
		<tag k="ssr:stedsnr" v="927804" />
	</node>
	<node id="-692021" lat="68.2353444404" lon="16.2132166654">
		<tag k="name" v="Storberget" />
		<tag k="name:no" v="Storberget" />
		<tag k="natural" v="hill" />
		<tag k="place" v="locality" />
		<tag k="ssr:stedsnr" v="902105" />
	</node>
	<node id="-692015" lat="68.1060861092" lon="16.0811999917">
		<tag k="name" v="Gresshola" />
		<tag k="name:no" v="Gresshola" />
		<tag k="natural" v="valley" />
		<tag k="place" v="locality" />
		<tag k="ssr:stedsnr" v="872571" />
	</node>
	<node id="-692013" lat="68.2594333321" lon="16.2882138967">
		<tag k="name" v="Rødbergan" />
		<tag k="name:no" v="Rødbergan" />
		<tag k="natural" v="hill" />
		<tag k="place" v="locality" />
		<tag k="ssr:stedsnr" v="871995" />
	</node>
	<node id="-692011" lat="68.2311055559" lon="16.3253555639">
		<tag k="fixme" v="consider natural=peak for the most distinct mountains in the district" />
		<tag k="name" v="Åsen" />
		<tag k="name:no" v="Åsen" />
		<tag k="natural" v="hill" />
		<tag k="place" v="locality" />
		<tag k="ssr:stedsnr" v="871979" />
	</node>
	<node id="-692008" lat="67.8082777794" lon="16.5428361179">
		<tag k="name" v="Buvrásjbuollda" />
		<tag k="name:smj" v="Buvrásjbuollda" />
		<tag k="natural" v="cliff" />
		<tag k="ssr:stedsnr" v="871914" />
	</node>
	<node id="-692003" lat="68.0807638865" lon="16.6200944488">
		<tag k="fixme" v="multiple name tags, choose one and add the other to alt_name" />
		<tag k="name" v="Dervorbergan;Diervobergan" />
		<tag k="name:no" v="Dervorbergan;Diervobergan" />
		<tag k="natural" v="hill" />
		<tag k="place" v="locality" />
		<tag k="ssr:stedsnr" v="871760" />
	</node>
	<node id="-691998" lat="68.0538749963" lon="16.0027055433">
		<tag k="name" v="Trettbakkan" />
		<tag k="name:no" v="Trettbakkan" />
		<tag k="natural" v="slope" />
		<tag k="place" v="locality" />
		<tag k="ssr:stedsnr" v="871731" />
	</node>
	<node id="-691995" lat="68.0381527786" lon="16.0593027819">
		<tag k="name" v="Båtstøbergan" />
		<tag k="name:no" v="Båtstøbergan" />
		<tag k="natural" v="hill" />
		<tag k="place" v="locality" />
		<tag k="ssr:stedsnr" v="871649" />
	</node>
	<node id="-691994" lat="68.0433916655" lon="16.0808083318">
		<tag k="name" v="Hamnbakkan" />
		<tag k="name:no" v="Hamnbakkan" />
		<tag k="natural" v="slope" />
		<tag k="place" v="locality" />
		<tag k="ssr:stedsnr" v="871648" />
	</node>
	<node id="-691988" lat="68.0126888898" lon="16.1535750093">
		<tag k="name" v="Kråfloget" />
		<tag k="name:no" v="Kråfloget" />
		<tag k="natural" v="hill" />
		<tag k="place" v="locality" />
		<tag k="ssr:stedsnr" v="871544" />
	</node>
	<node id="-691987" lat="68.0906694466" lon="15.9838861117">
		<tag k="name" v="Duorbundievvá - Tørpelhågen" />
		<tag k="name:no" v="Tørpelhågen" />
		<tag k="name:smj" v="Duorbundievvá" />
		<tag k="natural" v="hill" />
		<tag k="place" v="locality" />
		<tag k="ssr:stedsnr" v="871506" />
	</node>
	<node id="-691985" lat="68.2494805544" lon="15.9496833318">
		<tag k="fixme" v="consider natural=peak for the most distinct mountains in the district" />
		<tag k="name" v="Lauvåsen" />
		<tag k="name:no" v="Lauvåsen" />
		<tag k="natural" v="hill" />
		<tag k="place" v="locality" />
		<tag k="ssr:stedsnr" v="871499" />
	</node>
	<node id="-691984" lat="68.2531166682" lon="15.9440222161">
		<tag k="name" v="Rekvikhågen" />
		<tag k="name:no" v="Rekvikhågen" />
		<tag k="natural" v="hill" />
		<tag k="place" v="locality" />
		<tag k="ssr:stedsnr" v="871495" />
	</node>
	<node id="-691983" lat="68.2397111128" lon="16.0124027889">
		<tag k="name" v="Molvikfjellet" />
		<tag k="name:no" v="Molvikfjellet" />
		<tag k="natural" v="mountain_range" />
		<tag k="ssr:stedsnr" v="871491" />
	</node>
	<node id="-691981" lat="68.2234249982" lon="15.9850166744">
		<tag k="name" v="Små-Reindalan" />
		<tag k="name:no" v="Små-Reindalan" />
		<tag k="natural" v="valley" />
		<tag k="place" v="locality" />
		<tag k="ssr:stedsnr" v="871483" />
	</node>
	<node id="-691980" lat="68.1954944459" lon="15.9964944351">
		<tag k="fixme" v="consider natural=peak for the most distinct mountains in the district" />
		<tag k="name" v="Kopparen" />
		<tag k="name:no" v="Kopparen" />
		<tag k="natural" v="hill" />
		<tag k="place" v="locality" />
		<tag k="ssr:stedsnr" v="867826" />
	</node>
	<node id="-691978" lat="68.177519446" lon="15.9829361047">
		<tag k="fixme" v="consider natural=peak for the most distinct mountains in the district" />
		<tag k="name" v="Bjørnkjeften" />
		<tag k="name:no" v="Bjørnkjeften" />
		<tag k="natural" v="hill" />
		<tag k="place" v="locality" />
		<tag k="ssr:stedsnr" v="867785" />
	</node>
	<node id="-691971" lat="68.0225333374" lon="16.0815722178">
		<tag k="name" v="Sjurshøgda" />
		<tag k="name:no" v="Sjurshøgda" />
		<tag k="natural" v="hill" />
		<tag k="place" v="locality" />
		<tag k="ssr:stedsnr" v="867593" />
	</node>
	<node id="-691969" lat="68.1220694445" lon="16.3612972104">
		<tag k="fixme" v="consider natural=peak for the most distinct mountains in the district" />
		<tag k="name" v="Likollen" />
		<tag k="name:no" v="Likollen" />
		<tag k="natural" v="hill" />
		<tag k="place" v="locality" />
		<tag k="ssr:stedsnr" v="867586" />
	</node>
	<node id="-691968" lat="68.1335666651" lon="16.8008888942">
		<tag k="fixme" v="consider natural=peak for the most distinct mountains in the district" />
		<tag k="name" v="Saltelvtinden" />
		<tag k="name:no" v="Saltelvtinden" />
		<tag k="natural" v="hill" />
		<tag k="place" v="locality" />
		<tag k="ssr:stedsnr" v="867578" />
	</node>
	<node id="-691966" lat="68.135133335" lon="16.5619972276">
		<tag k="name" v="Gárjjelvágge - Russvikdalen" />
		<tag k="name:no" v="Russvikdalen" />
		<tag k="name:smj" v="Gárjjelvágge" />
		<tag k="natural" v="valley" />
		<tag k="place" v="locality" />
		<tag k="ssr:stedsnr" v="867571" />
	</node>
	<node id="-691965" lat="67.9451222188" lon="16.8332555519">
		<tag k="name" v="Muvrratjårro - Røyshøgda" />
		<tag k="name:no" v="Røyshøgda" />
		<tag k="name:smj" v="Muvrratjårro" />
		<tag k="natural" v="hill" />
		<tag k="old_name:smj" v="Muvračearru" />
		<tag k="place" v="locality" />
		<tag k="ssr:stedsnr" v="867484" />
	</node>
	<node id="-691964" lat="67.8711722242" lon="16.1718333337">
		<tag k="name" v="Ruosvágoalgge" />
		<tag k="name:smj" v="Ruosvágoalgge" />
		<tag k="natural" v="ridge" />
		<tag k="place" v="locality" />
		<tag k="ssr:stedsnr" v="867430" />
	</node>
	<node id="-691962" lat="67.8691333333" lon="16.4437638802">
		<tag k="name" v="Bårddelåpptå" />
		<tag k="name:smj" v="Bårddelåpptå" />
		<tag k="old_name:smj" v="Bordelopta" />
		<tag k="place" v="locality" />
		<tag k="ssr:stedsnr" v="867389" />
	</node>
	<node id="-691961" lat="67.8666194414" lon="16.2793166721">
		<tag k="name" v="Vásjoalgge" />
		<tag k="name:smj" v="Vásjoalgge" />
		<tag k="natural" v="ridge" />
		<tag k="old_name:smj" v="Váššoalgi" />
		<tag k="place" v="locality" />
		<tag k="ssr:stedsnr" v="867386" />
	</node>
	<node id="-691960" lat="67.8595388856" lon="16.4959805544">
		<tag k="name" v="Biehtselåpptå" />
		<tag k="name:smj" v="Biehtselåpptå" />
		<tag k="natural" v="slope" />
		<tag k="old_name:smj" v="Beahcelopta" />
		<tag k="place" v="locality" />
		<tag k="ssr:stedsnr" v="867376" />
	</node>
	<node id="-691958" lat="68.2334444483" lon="15.9572194395">
		<tag k="fixme" v="consider natural=peak for the most distinct mountains in the district" />
		<tag k="name" v="Kleivklubben" />
		<tag k="name:no" v="Kleivklubben" />
		<tag k="natural" v="hill" />
		<tag k="place" v="locality" />
		<tag k="ssr:stedsnr" v="866833" />
	</node>
	<node id="-691956" lat="68.220972224" lon="16.0080472282">
		<tag k="fixme" v="consider natural=peak for the most distinct mountains in the district" />
		<tag k="name" v="Steinfjellet" />
		<tag k="name:no" v="Steinfjellet" />
		<tag k="natural" v="hill" />
		<tag k="place" v="locality" />
		<tag k="ssr:stedsnr" v="866819" />
	</node>
	<node id="-691955" lat="68.2268138927" lon="15.9611222343">
		<tag k="name" v="Småholen" />
		<tag k="name:no" v="Småholen" />
		<tag k="natural" v="hill" />
		<tag k="place" v="locality" />
		<tag k="ssr:stedsnr" v="866820" />
	</node>
	<node id="-691945" lat="68.2737138925" lon="16.3533388883">
		<tag k="name" v="Ájdde - Eidskaret" />
		<tag k="name:no" v="Eidskaret" />
		<tag k="name:smj" v="Ájdde" />
		<tag k="natural" v="valley" />
		<tag k="place" v="locality" />
		<tag k="ssr:stedsnr" v="866544" />
	</node>
	<node id="-691944" lat="68.2605249998" lon="16.3727555603">
		<tag k="fixme" v="consider natural=peak for the most distinct mountains in the district" />
		<tag k="name" v="Kjerna" />
		<tag k="name:no" v="Kjerna" />
		<tag k="natural" v="hill" />
		<tag k="place" v="locality" />
		<tag k="ssr:stedsnr" v="866524" />
	</node>
	<node id="-691939" lat="68.233238885" lon="16.4113805539">
		<tag k="fixme" v="consider natural=peak for the most distinct mountains in the district" />
		<tag k="name" v="Sildpollnestinden" />
		<tag k="name:no" v="Sildpollnestinden" />
		<tag k="natural" v="hill" />
		<tag k="place" v="locality" />
		<tag k="ssr:stedsnr" v="866478" />
	</node>
	<node id="-691937" lat="67.8389722197" lon="16.6035416697">
		<tag k="fixme" v="consider natural=peak for the most distinct mountains in the district" />
		<tag k="name" v="Gussatjåhkkå" />
		<tag k="name:smj" v="Gussatjåhkkå" />
		<tag k="natural" v="hill" />
		<tag k="old_name:smj" v="Gussačohkka" />
		<tag k="place" v="locality" />
		<tag k="ssr:stedsnr" v="866330" />
	</node>
	<node id="-691936" lat="67.8339944452" lon="16.5616805438">
		<tag k="name" v="Gussavágge" />
		<tag k="name:smj" v="Gussavágge" />
		<tag k="natural" v="valley" />
		<tag k="old_name:smj" v="Gussavággi" />
		<tag k="place" v="locality" />
		<tag k="ssr:stedsnr" v="866327" />
	</node>
	<node id="-691935" lat="67.9984638903" lon="16.6364111144">
		<tag k="fixme" v="consider natural=peak for the most distinct mountains in the district" />
		<tag k="name" v="Dáppávárre" />
		<tag k="name:smj" v="Dáppávárre" />
		<tag k="natural" v="hill" />
		<tag k="old_name:smj" v="Dáppavárri" />
		<tag k="place" v="locality" />
		<tag k="ssr:stedsnr" v="866275" />
	</node>
	<node id="-691931" lat="67.7733611143" lon="16.2357249943">
		<tag k="name" v="Mihkkilagåphe" />
		<tag k="name:smj" v="Mihkkilagåphe" />
		<tag k="natural" v="valley" />
		<tag k="place" v="locality" />
		<tag k="ssr:stedsnr" v="866137" />
	</node>
	<node id="-691930" lat="67.7823666684" lon="16.395655564">
		<tag k="fixme" v="consider natural=peak for the most distinct mountains in the district" />
		<tag k="name" v="Skoarretjåhkkå" />
		<tag k="name:smj" v="Skoarretjåhkkå" />
		<tag k="natural" v="hill" />
		<tag k="old_name:smj" v="Skoarrečohkka" />
		<tag k="place" v="locality" />
		<tag k="ssr:stedsnr" v="866133" />
	</node>
	<node id="-691929" lat="67.7978333346" lon="16.5439361137">
		<tag k="name" v="Háhtsek" />
		<tag k="name:smj" v="Háhtsek" />
		<tag k="natural" v="hill" />
		<tag k="place" v="locality" />
		<tag k="ssr:stedsnr" v="866122" />
	</node>
	<node id="-691928" lat="67.8005944431" lon="16.5242611066">
		<tag k="name" v="Áhkábákte" />
		<tag k="name:smj" v="Áhkábákte" />
		<tag k="natural" v="hill" />
		<tag k="place" v="locality" />
		<tag k="ssr:stedsnr" v="866121" />
	</node>
	<node id="-691916" lat="68.0788666664" lon="16.4700277816">
		<tag k="alt_name:no" v="Nesfjellet" />
		<tag k="fixme" v="consider natural=peak for the most distinct mountains in the district" />
		<tag k="name" v="Njoassketjåhkkå - Nestinden" />
		<tag k="name:no" v="Nestinden" />
		<tag k="name:smj" v="Njoassketjåhkkå" />
		<tag k="natural" v="hill" />
		<tag k="old_name:smj" v="Njoaskečohkka" />
		<tag k="place" v="locality" />
		<tag k="ssr:stedsnr" v="816612" />
	</node>
	<node id="-691913" lat="68.1144944481" lon="16.0556472176">
		<tag k="name" v="Damvarden" />
		<tag k="name:no" v="Damvarden" />
		<tag k="natural" v="hill" />
		<tag k="place" v="locality" />
		<tag k="ssr:stedsnr" v="811535" />
	</node>
	<node id="-691912" lat="68.1097499992" lon="16.0954861155">
		<tag k="name" v="Bukkedalen" />
		<tag k="name:no" v="Bukkedalen" />
		<tag k="natural" v="valley" />
		<tag k="place" v="locality" />
		<tag k="ssr:stedsnr" v="811530" />
	</node>
	<node id="-691909" lat="68.2680777804" lon="16.2914944491">
		<tag k="name" v="Sommarsetdalen" />
		<tag k="name:no" v="Sommarsetdalen" />
		<tag k="natural" v="valley" />
		<tag k="place" v="locality" />
		<tag k="ssr:stedsnr" v="810991" />
	</node>
	<node id="-691908" lat="68.2175944443" lon="16.2723388913">
		<tag k="name" v="Sommarsetdalen" />
		<tag k="name:no" v="Sommarsetdalen" />
		<tag k="natural" v="valley" />
		<tag k="place" v="locality" />
		<tag k="ssr:stedsnr" v="810987" />
	</node>
	<node id="-691907" lat="68.2326611107" lon="16.2886972141">
		<tag k="name" v="Olaheimkollen" />
		<tag k="name:no" v="Olaheimkollen" />
		<tag k="natural" v="hill" />
		<tag k="place" v="locality" />
		<tag k="ssr:stedsnr" v="810981" />
	</node>
	<node id="-691906" lat="68.2450027786" lon="16.378061101">
		<tag k="name" v="Svartberget" />
		<tag k="name:no" v="Svartberget" />
		<tag k="natural" v="hill" />
		<tag k="place" v="locality" />
		<tag k="ssr:stedsnr" v="810978" />
	</node>
	<node id="-691903" lat="68.1603999999" lon="16.3410555536">
		<tag k="name" v="Kjelkvikflogen" />
		<tag k="name:no" v="Kjelkvikflogen" />
		<tag k="natural" v="hill" />
		<tag k="place" v="locality" />
		<tag k="ssr:stedsnr" v="810954" />
	</node>
	<node id="-691901" lat="68.2346472229" lon="16.2282055461">
		<tag k="name" v="Straumhaugen" />
		<tag k="name:no" v="Straumhaugen" />
		<tag k="natural" v="hill" />
		<tag k="place" v="locality" />
		<tag k="ssr:stedsnr" v="810946" />
	</node>
	<node id="-691898" lat="68.1350083316" lon="16.1183555498">
		<tag k="name" v="Romhågen" />
		<tag k="name:no" v="Romhågen" />
		<tag k="natural" v="hill" />
		<tag k="place" v="locality" />
		<tag k="ssr:stedsnr" v="810902" />
	</node>
	<node id="-691897" lat="68.1611805596" lon="16.1202722132">
		<tag k="name" v="Kalvikaksla" />
		<tag k="name:no" v="Kalvikaksla" />
		<tag k="natural" v="ridge" />
		<tag k="place" v="locality" />
		<tag k="ssr:stedsnr" v="810896" />
	</node>
	<node id="-691896" lat="68.1450222194" lon="16.1200416636">
		<tag k="name" v="Tingskaret" />
		<tag k="name:no" v="Tingskaret" />
		<tag k="natural" v="valley" />
		<tag k="place" v="locality" />
		<tag k="ssr:stedsnr" v="810892" />
	</node>
	<node id="-691894" lat="68.1464749958" lon="16.114458331">
		<tag k="name" v="Vedhoggarhågen" />
		<tag k="name:no" v="Vedhoggarhågen" />
		<tag k="natural" v="hill" />
		<tag k="place" v="locality" />
		<tag k="ssr:stedsnr" v="810889" />
	</node>
	<node id="-691893" lat="68.0334250043" lon="16.0286333247">
		<tag k="name" v="Trongsundhalsen" />
		<tag k="name:no" v="Trongsundhalsen" />
		<tag k="natural" v="valley" />
		<tag k="place" v="locality" />
		<tag k="ssr:stedsnr" v="810824" />
	</node>
	<node id="-691889" lat="68.0600944461" lon="16.6482388845">
		<tag k="name" v="Lænndo - Lento" />
		<tag k="name:no" v="Lento" />
		<tag k="name:smj" v="Lænndo" />
		<tag k="place" v="locality" />
		<tag k="ssr:stedsnr" v="810788" />
	</node>
	<node id="-691881" lat="68.2074750031" lon="16.1092611227">
		<tag k="name" v="Beisfjordneshågen" />
		<tag k="name:no" v="Beisfjordneshågen" />
		<tag k="natural" v="hill" />
		<tag k="place" v="locality" />
		<tag k="ssr:stedsnr" v="810715" />
	</node>
	<node id="-691879" lat="68.1015166684" lon="16.3806055658">
		<tag k="name" v="Bjørnhaugen" />
		<tag k="name:no" v="Bjørnhaugen" />
		<tag k="natural" v="hill" />
		<tag k="place" v="locality" />
		<tag k="ssr:stedsnr" v="810683" />
	</node>
	<node id="-691878" lat="68.0472388921" lon="16.0438972225">
		<tag k="name" v="Grønnhola" />
		<tag k="name:no" v="Grønnhola" />
		<tag k="natural" v="valley" />
		<tag k="place" v="locality" />
		<tag k="ssr:stedsnr" v="810676" />
	</node>
	<node id="-691873" lat="68.123977777" lon="16.0933361025">
		<tag k="name" v="Skreda" />
		<tag k="name:no" v="Skreda" />
		<tag k="natural" v="slope" />
		<tag k="place" v="locality" />
		<tag k="ssr:stedsnr" v="810605" />
	</node>
	<node id="-691872" lat="68.0183861131" lon="16.0754749902">
		<tag k="name" v="Tømmerhoggan" />
		<tag k="name:no" v="Tømmerhoggan" />
		<tag k="place" v="locality" />
		<tag k="ssr:stedsnr" v="810588" />
	</node>
	<node id="-691867" lat="68.1541777764" lon="16.0397388789">
		<tag k="name" v="Inner-Sommarsetan" />
		<tag k="name:no" v="Inner-Sommarsetan" />
		<tag k="natural" v="slope" />
		<tag k="place" v="locality" />
		<tag k="ssr:stedsnr" v="810565" />
	</node>
	<node id="-691866" lat="68.0248722225" lon="16.1407999992">
		<tag k="name" v="Mosshågan" />
		<tag k="name:no" v="Mosshågan" />
		<tag k="natural" v="hill" />
		<tag k="place" v="locality" />
		<tag k="ssr:stedsnr" v="810562" />
	</node>
	<node id="-691864" lat="68.2373555569" lon="16.0062833296">
		<tag k="name" v="Storskogen" />
		<tag k="name:no" v="Storskogen" />
		<tag k="natural" v="slope" />
		<tag k="place" v="locality" />
		<tag k="ssr:stedsnr" v="810514" />
	</node>
	<node id="-691856" lat="68.1321027781" lon="16.0472833373">
		<tag k="name" v="Sommarsethågen" />
		<tag k="name:no" v="Sommarsethågen" />
		<tag k="natural" v="hill" />
		<tag k="place" v="locality" />
		<tag k="ssr:stedsnr" v="806705" />
	</node>
	<node id="-691854" lat="67.9710277813" lon="16.1152083387">
		<tag k="loc_name:no" v="Gievvadalen" />
		<tag k="name" v="Gevadalen" />
		<tag k="name:no" v="Gevadalen" />
		<tag k="natural" v="valley" />
		<tag k="place" v="locality" />
		<tag k="ssr:stedsnr" v="806648" />
	</node>
	<node id="-691852" lat="68.0458861089" lon="15.9882416707">
		<tag k="fixme" v="consider natural=peak for the most distinct mountains in the district" />
		<tag k="name" v="Kvelvehågen" />
		<tag k="name:no" v="Kvelvehågen" />
		<tag k="natural" v="hill" />
		<tag k="place" v="locality" />
		<tag k="ssr:stedsnr" v="806623" />
	</node>
	<node id="-691851" lat="68.0558444432" lon="16.0644250104">
		<tag k="fixme" v="consider natural=peak for the most distinct mountains in the district" />
		<tag k="name" v="Nordnesaksla" />
		<tag k="name:no" v="Nordnesaksla" />
		<tag k="natural" v="hill" />
		<tag k="place" v="locality" />
		<tag k="ssr:stedsnr" v="806598" />
	</node>
	<node id="-691845" lat="68.1260611091" lon="16.5561083218">
		<tag k="fixme" v="consider natural=peak for the most distinct mountains in the district" />
		<tag k="name" v="Spalskaditinden" />
		<tag k="name:no" v="Spalskaditinden" />
		<tag k="natural" v="hill" />
		<tag k="place" v="locality" />
		<tag k="ssr:stedsnr" v="806556" />
	</node>
	<node id="-691843" lat="68.0030361149" lon="16.1421944465">
		<tag k="name" v="Trongdalen" />
		<tag k="name:no" v="Trongdalen" />
		<tag k="natural" v="valley" />
		<tag k="place" v="locality" />
		<tag k="ssr:stedsnr" v="806536" />
	</node>
	<node id="-691842" lat="68.1956361086" lon="16.3346277698">
		<tag k="name" v="Rødbergan" />
		<tag k="name:no" v="Rødbergan" />
		<tag k="natural" v="hill" />
		<tag k="place" v="locality" />
		<tag k="ssr:stedsnr" v="806520" />
	</node>
	<node id="-691840" lat="68.0409305588" lon="16.6437889008">
		<tag k="fixme" v="consider natural=peak for the most distinct mountains in the district" />
		<tag k="name" v="Middagsfjellet" />
		<tag k="name:no" v="Middagsfjellet" />
		<tag k="natural" v="hill" />
		<tag k="place" v="locality" />
		<tag k="ssr:stedsnr" v="806506" />
	</node>
	<node id="-691839" lat="68.044533337" lon="16.6296222241">
		<tag k="name" v="Botnelvdalen" />
		<tag k="name:no" v="Botnelvdalen" />
		<tag k="natural" v="valley" />
		<tag k="place" v="locality" />
		<tag k="ssr:stedsnr" v="806496" />
	</node>
	<node id="-691837" lat="67.8942361064" lon="16.1694194538">
		<tag k="fixme" v="consider natural=peak for the most distinct mountains in the district" />
		<tag k="name" v="Hábagtjåhkkå" />
		<tag k="name:smj" v="Hábagtjåhkkå" />
		<tag k="natural" v="hill" />
		<tag k="place" v="locality" />
		<tag k="ssr:stedsnr" v="806409" />
	</node>
	<node id="-691831" lat="67.8046722185" lon="16.1997249923">
		<tag k="fixme" v="consider natural=peak for the most distinct mountains in the district" />
		<tag k="name" v="Tjáppagvárásj" />
		<tag k="name:smj" v="Tjáppagvárásj" />
		<tag k="natural" v="hill" />
		<tag k="old_name:smj" v="Čáppagváraš" />
		<tag k="place" v="locality" />
		<tag k="ssr:stedsnr" v="806285" />
	</node>
	<node id="-691830" lat="67.8928944419" lon="16.665630549">
		<tag k="fixme" v="consider natural=peak for the most distinct mountains in the district" />
		<tag k="name" v="Stuortjåhkkå" />
		<tag k="name:smj" v="Stuortjåhkkå" />
		<tag k="natural" v="hill" />
		<tag k="old_name:smj" v="Stuorčohkka" />
		<tag k="place" v="locality" />
		<tag k="ssr:stedsnr" v="806202" />
	</node>
	<node id="-691828" lat="67.7857972248" lon="16.3816999958">
		<tag k="name" v="Ruossavágge" />
		<tag k="name:smj" v="Ruossavágge" />
		<tag k="natural" v="valley" />
		<tag k="old_name:smj" v="Rossevággi" />
		<tag k="place" v="locality" />
		<tag k="ssr:stedsnr" v="806152" />
	</node>
	<node id="-691827" lat="67.7957583293" lon="16.3487916659">
		<tag k="fixme" v="consider natural=peak for the most distinct mountains in the district" />
		<tag k="name" v="Ruosvágvárre" />
		<tag k="name:smj" v="Ruosvágvárre" />
		<tag k="natural" v="hill" />
		<tag k="old_name:smj" v="Rossevárri;Rossevárre" />
		<tag k="place" v="locality" />
		<tag k="ssr:stedsnr" v="806146" />
	</node>
	<node id="-691826" lat="68.2448444475" lon="16.0073472302">
		<tag k="fixme" v="consider natural=peak for the most distinct mountains in the district" />
		<tag k="name" v="Hierenjárgoalgge - Korsnesheia" />
		<tag k="name:no" v="Korsnesheia" />
		<tag k="name:smj" v="Hierenjárgoalgge" />
		<tag k="natural" v="hill" />
		<tag k="place" v="locality" />
		<tag k="ssr:stedsnr" v="805838" />
	</node>
	<node id="-691818" lat="68.2375111143" lon="16.5075249989">
		<tag k="fixme" v="consider natural=peak for the most distinct mountains in the district" />
		<tag k="name" v="Sluodnerågtjåhkkå - Blomholatinden" />
		<tag k="name:no" v="Blomholatinden" />
		<tag k="name:smj" v="Sluodnerågtjåhkkå" />
		<tag k="natural" v="hill" />
		<tag k="place" v="locality" />
		<tag k="ssr:stedsnr" v="805569" />
	</node>
	<node id="-691816" lat="68.2369250004" lon="16.3264833226">
		<tag k="name" v="Ulvikhøgda" />
		<tag k="name:no" v="Ulvikhøgda" />
		<tag k="natural" v="hill" />
		<tag k="place" v="locality" />
		<tag k="ssr:stedsnr" v="805565" />
	</node>
	<node id="-691813" lat="68.0966611095" lon="16.7824416535">
		<tag k="name" v="Givddevuobme - Austerdalen" />
		<tag k="name:no" v="Austerdalen" />
		<tag k="name:smj" v="Givddevuobme" />
		<tag k="natural" v="valley" />
		<tag k="place" v="locality" />
		<tag k="ssr:stedsnr" v="805541" />
	</node>
	<node id="-691809" lat="67.8100111119" lon="16.2719500028">
		<tag k="fixme" v="consider natural=peak for the most distinct mountains in the district" />
		<tag k="loc_name:smj" v="Rumbotjåhkkå" />
		<tag k="name" v="Rumbotjåhkå" />
		<tag k="name:smj" v="Rumbotjåhkå" />
		<tag k="natural" v="hill" />
		<tag k="old_name:smj" v="Rumbočohkah" />
		<tag k="place" v="locality" />
		<tag k="ssr:stedsnr" v="805125" />
	</node>
	<node id="-691808" lat="67.8184666638" lon="16.6671527761">
		<tag k="name" v="Stuorválda" />
		<tag k="name:smj" v="Stuorválda" />
		<tag k="place" v="locality" />
		<tag k="ssr:stedsnr" v="805120" />
	</node>
	<node id="-691795" lat="68.071133333" lon="16.4393166741">
		<tag k="name" v="Nordsida" />
		<tag k="name:no" v="Nordsida" />
		<tag k="natural" v="slope" />
		<tag k="place" v="locality" />
		<tag k="ssr:stedsnr" v="753545" />
	</node>
	<node id="-691794" lat="68.1035749962" lon="16.3666666547">
		<tag k="fixme" v="consider natural=peak for the most distinct mountains in the district" />
		<tag k="name" v="Stortind" />
		<tag k="name:no" v="Stortind" />
		<tag k="natural" v="hill" />
		<tag k="ssr:stedsnr" v="753544" />
	</node>
	<node id="-691792" lat="68.2609805511" lon="16.3616444462">
		<tag k="name" v="Floget" />
		<tag k="name:no" v="Floget" />
		<tag k="natural" v="cliff" />
		<tag k="ssr:stedsnr" v="750990" />
	</node>
	<node id="-691791" lat="68.2370694411" lon="16.3696861168">
		<tag k="name" v="Rognbakkan" />
		<tag k="name:no" v="Rognbakkan" />
		<tag k="natural" v="slope" />
		<tag k="place" v="locality" />
		<tag k="ssr:stedsnr" v="750977" />
	</node>
	<node id="-691790" lat="68.2376611154" lon="16.3848249961">
		<tag k="name" v="Botnan" />
		<tag k="name:no" v="Botnan" />
		<tag k="natural" v="valley" />
		<tag k="place" v="locality" />
		<tag k="ssr:stedsnr" v="750970" />
	</node>
	<node id="-691789" lat="68.2254805533" lon="16.2031611023">
		<tag k="name" v="Skurttjo - Skurka" />
		<tag k="name:no" v="Skurka" />
		<tag k="name:smj" v="Skurttjo" />
		<tag k="natural" v="valley" />
		<tag k="place" v="locality" />
		<tag k="ssr:stedsnr" v="750936" />
	</node>
	<node id="-691786" lat="67.8134694434" lon="16.5258222177">
		<tag k="name" v="Gállåpptå" />
		<tag k="name:smj" v="Gállåpptå" />
		<tag k="place" v="locality" />
		<tag k="ssr:stedsnr" v="750924" />
	</node>
	<node id="-691783" lat="67.8154361075" lon="16.5230888765">
		<tag k="name" v="Buollda" />
		<tag k="name:smj" v="Buollda" />
		<tag k="natural" v="slope" />
		<tag k="place" v="locality" />
		<tag k="ssr:stedsnr" v="750905" />
	</node>
	<node id="-691782" lat="68.1365777761" lon="16.2491111155">
		<tag k="name" v="Storhågen" />
		<tag k="name:no" v="Storhågen" />
		<tag k="natural" v="hill" />
		<tag k="place" v="locality" />
		<tag k="ssr:stedsnr" v="750889" />
	</node>
	<node id="-691781" lat="67.9854166677" lon="16.3063861057">
		<tag k="name" v="Ibboluovtájdde - Tømmervikeidet" />
		<tag k="name:no" v="Tømmervikeidet" />
		<tag k="name:smj" v="Ibboluovtájdde" />
		<tag k="natural" v="valley" />
		<tag k="place" v="locality" />
		<tag k="ssr:stedsnr" v="750884" />
	</node>
	<node id="-691776" lat="68.1175305531" lon="16.555038893">
		<tag k="fixme" v="consider natural=peak for the most distinct mountains in the district" />
		<tag k="name" v="Goahttsek" />
		<tag k="name:smj" v="Goahttsek" />
		<tag k="natural" v="hill" />
		<tag k="place" v="locality" />
		<tag k="ssr:stedsnr" v="750737" />
	</node>
	<node id="-691773" lat="68.1269444398" lon="16.435405563">
		<tag k="name" v="Lappgamman" />
		<tag k="name:no" v="Lappgamman" />
		<tag k="place" v="locality" />
		<tag k="ssr:stedsnr" v="750727" />
	</node>
	<node id="-691772" lat="68.1211249967" lon="16.0495416566">
		<tag k="name" v="Áhkásåkdalen" />
		<tag k="name:no" v="Áhkásåkdalen" />
		<tag k="natural" v="valley" />
		<tag k="place" v="locality" />
		<tag k="ssr:stedsnr" v="750614" />
	</node>
	<node id="-691771" lat="67.8856361123" lon="16.2034944506">
		<tag k="name" v="Stuorlænndo" />
		<tag k="name:smj" v="Stuorlænndo" />
		<tag k="place" v="locality" />
		<tag k="ssr:stedsnr" v="750591" />
	</node>
	<node id="-691765" lat="68.1449944447" lon="16.1103444446">
		<tag k="name" v="Mossgamhågen" />
		<tag k="name:no" v="Mossgamhågen" />
		<tag k="natural" v="hill" />
		<tag k="place" v="locality" />
		<tag k="ssr:stedsnr" v="750560" />
	</node>
	<node id="-691761" lat="68.2422833316" lon="15.9953638862">
		<tag k="name" v="Kvidalstuva" />
		<tag k="name:no" v="Kvidalstuva" />
		<tag k="natural" v="hill" />
		<tag k="place" v="locality" />
		<tag k="ssr:stedsnr" v="750489" />
	</node>
	<node id="-691760" lat="68.2591583326" lon="16.027741654">
		<tag k="name" v="Herøysletta" />
		<tag k="name:no" v="Herøysletta" />
		<tag k="place" v="locality" />
		<tag k="ssr:stedsnr" v="750472" />
	</node>
	<node id="-691754" lat="68.0678750031" lon="16.4034916781">
		<tag k="name" v="Durmålshågen" />
		<tag k="name:no" v="Durmålshågen" />
		<tag k="natural" v="hill" />
		<tag k="place" v="locality" />
		<tag k="ssr:stedsnr" v="749728" />
	</node>
	<node id="-691753" lat="68.0725805583" lon="16.3857138837">
		<tag k="name" v="Storhågen" />
		<tag k="name:no" v="Storhågen" />
		<tag k="natural" v="hill" />
		<tag k="place" v="locality" />
		<tag k="ssr:stedsnr" v="749723" />
	</node>
	<node id="-691751" lat="68.0521555522" lon="16.0535111005">
		<tag k="name" v="Storsletta" />
		<tag k="name:no" v="Storsletta" />
		<tag k="place" v="locality" />
		<tag k="ssr:stedsnr" v="749690" />
	</node>
	<node id="-691748" lat="68.149683332" lon="16.0461638863">
		<tag k="name" v="Guládak" />
		<tag k="name:smj" v="Guládak" />
		<tag k="natural" v="hill" />
		<tag k="place" v="locality" />
		<tag k="ssr:stedsnr" v="749567" />
	</node>
	<node id="-691747" lat="68.2586111119" lon="15.9956222302">
		<tag k="name" v="Dassnagiehtje - Tysnesfjellet" />
		<tag k="name:no" v="Tysnesfjellet" />
		<tag k="name:smj" v="Dassnagiehtje" />
		<tag k="natural" v="mountain_range" />
		<tag k="ssr:stedsnr" v="749515" />
	</node>
	<node id="-691745" lat="68.1651154552" lon="16.5926108785">
		<tag k="fixme" v="consider natural=peak for the most distinct mountains in the district" />
		<tag k="name" v="Stáddá - Stetinden" />
		<tag k="name:no" v="Stetinden" />
		<tag k="name:smj" v="Stáddá" />
		<tag k="natural" v="hill" />
		<tag k="place" v="locality" />
		<tag k="ssr:stedsnr" v="748630" />
	</node>
	<node id="-691741" lat="68.2226416703" lon="16.2006833407">
		<tag k="fixme" v="consider natural=peak for the most distinct mountains in the district" />
		<tag k="name" v="Skarbergfloget" />
		<tag k="name:no" v="Skarbergfloget" />
		<tag k="natural" v="hill" />
		<tag k="place" v="locality" />
		<tag k="ssr:stedsnr" v="745840" />
	</node>
	<node id="-691740" lat="68.1977694456" lon="16.0481083379">
		<tag k="name" v="Finnhågen" />
		<tag k="name:no" v="Finnhågen" />
		<tag k="natural" v="hill" />
		<tag k="place" v="locality" />
		<tag k="ssr:stedsnr" v="745837" />
	</node>
	<node id="-691734" lat="68.0116833323" lon="16.3543472169">
		<tag k="name" v="Durmålshaugen" />
		<tag k="name:no" v="Durmålshaugen" />
		<tag k="natural" v="hill" />
		<tag k="place" v="locality" />
		<tag k="ssr:stedsnr" v="745758" />
	</node>
	<node id="-691724" lat="68.1661166699" lon="16.6693694451">
		<tag k="fixme" v="consider natural=peak for the most distinct mountains in the district" />
		<tag k="name" v="Botnfjellet" />
		<tag k="name:no" v="Botnfjellet" />
		<tag k="natural" v="hill" />
		<tag k="place" v="locality" />
		<tag k="ssr:stedsnr" v="745605" />
	</node>
	<node id="-691723" lat="68.1657750047" lon="16.5063861028">
		<tag k="fixme" v="consider natural=peak for the most distinct mountains in the district" />
		<tag k="name" v="Titinden" />
		<tag k="name:no" v="Titinden" />
		<tag k="natural" v="hill" />
		<tag k="place" v="locality" />
		<tag k="ssr:stedsnr" v="745603" />
	</node>
	<node id="-691713" lat="68.0659027811" lon="16.3132583395">
		<tag k="fixme" v="consider natural=peak for the most distinct mountains in the district" />
		<tag k="name" v="Vasjahallen" />
		<tag k="name:no" v="Vasjahallen" />
		<tag k="natural" v="hill" />
		<tag k="place" v="locality" />
		<tag k="ssr:stedsnr" v="745548" />
	</node>
	<node id="-691710" lat="68.2546111087" lon="16.4026916754">
		<tag k="fixme" v="consider natural=peak for the most distinct mountains in the district" />
		<tag k="name" v="Tuva" />
		<tag k="name:no" v="Tuva" />
		<tag k="natural" v="hill" />
		<tag k="place" v="locality" />
		<tag k="ssr:stedsnr" v="745533" />
	</node>
	<node id="-691708" lat="68.0236305571" lon="16.3252611059">
		<tag k="name" v="Kivikhøgda" />
		<tag k="name:no" v="Kivikhøgda" />
		<tag k="natural" v="hill" />
		<tag k="place" v="locality" />
		<tag k="ssr:stedsnr" v="745512" />
	</node>
	<node id="-691705" lat="68.038338887" lon="16.3796222095">
		<tag k="alt_name:no" v="Grindvikklubben" />
		<tag k="fixme" v="consider natural=peak for the most distinct mountains in the district" />
		<tag k="name" v="Grindvikkollen" />
		<tag k="name:no" v="Grindvikkollen" />
		<tag k="natural" v="hill" />
		<tag k="place" v="locality" />
		<tag k="ssr:stedsnr" v="745507" />
	</node>
	<node id="-691700" lat="67.8285861081" lon="16.4358499893">
		<tag k="name" v="Áhkásjhállá" />
		<tag k="name:smj" v="Áhkásjhállá" />
		<tag k="old_name:smj" v="Áhkašhálla" />
		<tag k="place" v="locality" />
		<tag k="ssr:stedsnr" v="745373" />
	</node>
	<node id="-691694" lat="67.9758361092" lon="16.5924833336">
		<tag k="name" v="Badjegåhpe - Øvergåppe" />
		<tag k="name:no" v="Øvergåppe" />
		<tag k="name:smj" v="Badjegåhpe" />
		<tag k="natural" v="valley" />
		<tag k="old_name:smj" v="Badjegohpi" />
		<tag k="place" v="locality" />
		<tag k="ssr:stedsnr" v="745326" />
	</node>
	<node id="-691690" lat="67.7995777784" lon="16.4302777759">
		<tag k="name" v="Biekkert" />
		<tag k="name:smj" v="Biekkert" />
		<tag k="place" v="locality" />
		<tag k="ssr:stedsnr" v="745178" />
	</node>
	<node id="-691687" lat="67.7469416695" lon="16.4962944519">
		<tag k="fixme" v="consider natural=peak for the most distinct mountains in the district" />
		<tag k="name" v="Hievnek" />
		<tag k="name:smj" v="Hievnek" />
		<tag k="natural" v="hill" />
		<tag k="old_name:smj" v="Heavni" />
		<tag k="place" v="locality" />
		<tag k="ssr:stedsnr" v="744613" />
	</node>
	<node id="-691686" lat="67.748500001" lon="16.5854694387">
		<tag k="fixme" v="consider natural=peak for the most distinct mountains in the district" />
		<tag k="name" v="Hievsstinvárre" />
		<tag k="name:smj" v="Hievsstinvárre" />
		<tag k="natural" v="hill" />
		<tag k="old_name:smj" v="Hievsten;Hievsttin" />
		<tag k="place" v="locality" />
		<tag k="ssr:stedsnr" v="744608" />
	</node>
	<node id="-691682" lat="67.9580444466" lon="16.7379611019">
		<tag k="fixme" v="consider natural=peak for the most distinct mountains in the district" />
		<tag k="name" v="Gasskaskájdde - Mellaskáidi" />
		<tag k="name:no" v="Mellaskáidi" />
		<tag k="name:smj" v="Gasskaskájdde" />
		<tag k="natural" v="hill" />
		<tag k="old_name:smj" v="Gaskaskáidi" />
		<tag k="place" v="locality" />
		<tag k="ssr:stedsnr" v="745468" />
	</node>
	<node id="-691675" lat="68.191827778" lon="16.1148277794">
		<tag k="name" v="Brattbergan" />
		<tag k="name:no" v="Brattbergan" />
		<tag k="natural" v="hill" />
		<tag k="place" v="locality" />
		<tag k="ssr:stedsnr" v="706216" />
	</node>
	<node id="-691674" lat="68.0476888875" lon="16.3711805638">
		<tag k="fixme" v="consider natural=peak for the most distinct mountains in the district" />
		<tag k="name" v="Skaltevarvi" />
		<tag k="name:no" v="Skaltevarvi" />
		<tag k="natural" v="hill" />
		<tag k="place" v="locality" />
		<tag k="ssr:stedsnr" v="706197" />
	</node>
	<node id="-691672" lat="68.0638944402" lon="16.4382888888">
		<tag k="name" v="Vassbotn" />
		<tag k="name:no" v="Vassbotn" />
		<tag k="natural" v="valley" />
		<tag k="place" v="locality" />
		<tag k="ssr:stedsnr" v="706155" />
	</node>
	<node id="-691668" lat="68.0698361115" lon="16.4286749927">
		<tag k="name" v="Gubbadeva" />
		<tag k="name:no" v="Gubbadeva" />
		<tag k="natural" v="slope" />
		<tag k="place" v="locality" />
		<tag k="ssr:stedsnr" v="692556" />
	</node>
	<node id="-691667" lat="68.1141333333" lon="16.3981722277">
		<tag k="name" v="Lillebotn" />
		<tag k="name:no" v="Lillebotn" />
		<tag k="natural" v="valley" />
		<tag k="place" v="locality" />
		<tag k="ssr:stedsnr" v="692554" />
	</node>
	<node id="-691662" lat="68.1352833315" lon="16.1199111109">
		<tag k="name" v="Hestvikbakken" />
		<tag k="name:no" v="Hestvikbakken" />
		<tag k="natural" v="slope" />
		<tag k="place" v="locality" />
		<tag k="ssr:stedsnr" v="689872" />
	</node>
	<node id="-691656" lat="68.0723833298" lon="16.4091944385">
		<tag k="name" v="Vasshågen" />
		<tag k="name:no" v="Vasshågen" />
		<tag k="natural" v="hill" />
		<tag k="place" v="locality" />
		<tag k="ssr:stedsnr" v="689652" />
	</node>
	<node id="-691652" lat="68.1407777768" lon="16.065255547">
		<tag k="fixme" v="consider natural=peak for the most distinct mountains in the district" />
		<tag k="name" v="Tverråsen" />
		<tag k="name:no" v="Tverråsen" />
		<tag k="natural" v="hill" />
		<tag k="place" v="locality" />
		<tag k="ssr:stedsnr" v="689574" />
	</node>
	<node id="-691651" lat="67.8866166662" lon="16.2124138796">
		<tag k="name" v="Gierggelåpptå" />
		<tag k="name:smj" v="Gierggelåpptå" />
		<tag k="place" v="locality" />
		<tag k="ssr:stedsnr" v="689555" />
	</node>
	<node id="-691649" lat="68.0179277788" lon="16.0886972281">
		<tag k="name" v="Vardhågen" />
		<tag k="name:no" v="Vardhågen" />
		<tag k="natural" v="hill" />
		<tag k="place" v="locality" />
		<tag k="ssr:stedsnr" v="689546" />
	</node>
	<node id="-691647" lat="68.1536138852" lon="16.0754361176">
		<tag k="name" v="Albinhogget" />
		<tag k="name:no" v="Albinhogget" />
		<tag k="natural" v="slope" />
		<tag k="place" v="locality" />
		<tag k="ssr:stedsnr" v="689523" />
	</node>
	<node id="-691645" lat="68.0211416635" lon="16.1408805629">
		<tag k="name" v="Stormyrbakkan" />
		<tag k="name:no" v="Stormyrbakkan" />
		<tag k="natural" v="slope" />
		<tag k="place" v="locality" />
		<tag k="ssr:stedsnr" v="689522" />
	</node>
	<node id="-691643" lat="68.2496888874" lon="16.0053000017">
		<tag k="name" v="Durmålstuva" />
		<tag k="name:no" v="Durmålstuva" />
		<tag k="natural" v="hill" />
		<tag k="place" v="locality" />
		<tag k="ssr:stedsnr" v="689463" />
	</node>
	<node id="-691642" lat="68.042980554" lon="15.9747555596">
		<tag k="name" v="Kvannelvsletta" />
		<tag k="name:no" v="Kvannelvsletta" />
		<tag k="place" v="locality" />
		<tag k="ssr:stedsnr" v="688763" />
	</node>
	<node id="-691639" lat="67.9330416664" lon="16.1883111052">
		<tag k="fixme" v="consider natural=peak for the most distinct mountains in the district" />
		<tag k="name" v="Sæjmmá" />
		<tag k="name:smj" v="Sæjmmá" />
		<tag k="natural" v="hill" />
		<tag k="old_name:smj" v="Seaimačohkka" />
		<tag k="place" v="locality" />
		<tag k="ssr:stedsnr" v="685625" />
	</node>
	<node id="-691638" lat="67.9826888856" lon="16.8558833393">
		<tag k="fixme" v="consider natural=peak for the most distinct mountains in the district" />
		<tag k="name" v="Biernatjåhkkå - Bjørntoppen" />
		<tag k="name:no" v="Bjørntoppen" />
		<tag k="name:smj" v="Biernatjåhkkå" />
		<tag k="natural" v="hill" />
		<tag k="old_name:smj" v="Biernatjåhkka;Biertnačohkka" />
		<tag k="place" v="locality" />
		<tag k="ssr:stedsnr" v="685444" />
	</node>
	<node id="-691631" lat="68.2063694471" lon="15.9921083283">
		<tag k="name" v="Reindalen" />
		<tag k="name:no" v="Reindalen" />
		<tag k="natural" v="valley" />
		<tag k="place" v="locality" />
		<tag k="ssr:stedsnr" v="684808" />
	</node>
	<node id="-691624" lat="68.0647555525" lon="16.0141694445">
		<tag k="fixme" v="consider natural=peak for the most distinct mountains in the district" />
		<tag k="loc_name:smj" v="Ájluovtvárre" />
		<tag k="name" v="Grytafjellet" />
		<tag k="name:no" v="Grytafjellet" />
		<tag k="natural" v="hill" />
		<tag k="place" v="locality" />
		<tag k="ssr:stedsnr" v="684625" />
	</node>
	<node id="-691622" lat="67.7027666664" lon="16.4893027785">
		<tag k="fixme" v="consider natural=peak for the most distinct mountains in the district" />
		<tag k="name" v="Gierggetjåhkkå - Steintoppen" />
		<tag k="name:no" v="Steintoppen" />
		<tag k="name:smj" v="Gierggetjåhkkå" />
		<tag k="natural" v="hill" />
		<tag k="old_name:smj" v="Geađgečohkka" />
		<tag k="place" v="locality" />
		<tag k="ssr:stedsnr" v="684618" />
	</node>
	<node id="-691621" lat="67.69393889" lon="16.5660805597">
		<tag k="fixme" v="consider natural=peak for the most distinct mountains in the district" />
		<tag k="name" v="Muvrratjåhkkå" />
		<tag k="name:smj" v="Muvrratjåhkkå" />
		<tag k="natural" v="hill" />
		<tag k="old_name:smj" v="Muvračohkka" />
		<tag k="place" v="locality" />
		<tag k="ssr:stedsnr" v="684617" />
	</node>
	<node id="-691619" lat="68.1553000024" lon="16.3422388833">
		<tag k="fixme" v="consider natural=peak for the most distinct mountains in the district" />
		<tag k="name" v="Butten" />
		<tag k="name:no" v="Butten" />
		<tag k="natural" v="hill" />
		<tag k="place" v="locality" />
		<tag k="ssr:stedsnr" v="684595" />
	</node>
	<node id="-691616" lat="68.100233334" lon="16.7554638782">
		<tag k="name" v="Givdde - Norddalen" />
		<tag k="name:no" v="Norddalen" />
		<tag k="name:smj" v="Givdde" />
		<tag k="natural" v="valley" />
		<tag k="place" v="locality" />
		<tag k="ssr:stedsnr" v="684572" />
	</node>
	<node id="-691615" lat="68.1250861143" lon="16.3165888829">
		<tag k="fixme" v="consider natural=peak for the most distinct mountains in the district" />
		<tag k="name" v="Fredagskollen" />
		<tag k="name:no" v="Fredagskollen" />
		<tag k="natural" v="hill" />
		<tag k="place" v="locality" />
		<tag k="ssr:stedsnr" v="684560" />
	</node>
	<node id="-691613" lat="68.0662333358" lon="16.2640444368">
		<tag k="alt_name:no" v="Vetten" />
		<tag k="fixme" v="consider natural=peak for the most distinct mountains in the district" />
		<tag k="name" v="Veten" />
		<tag k="name:no" v="Veten" />
		<tag k="natural" v="hill" />
		<tag k="place" v="locality" />
		<tag k="ssr:stedsnr" v="684543" />
	</node>
	<node id="-691607" lat="68.0419916702" lon="16.7303972159">
		<tag k="name" v="Botndalen" />
		<tag k="name:no" v="Botndalen" />
		<tag k="natural" v="valley" />
		<tag k="place" v="locality" />
		<tag k="ssr:stedsnr" v="684509" />
	</node>
	<node id="-691605" lat="68.0465972186" lon="16.4028416667">
		<tag k="fixme" v="consider natural=peak for the most distinct mountains in the district" />
		<tag k="name" v="Urdvikfjellet" />
		<tag k="name:no" v="Urdvikfjellet" />
		<tag k="natural" v="hill" />
		<tag k="place" v="locality" />
		<tag k="ssr:stedsnr" v="684504" />
	</node>
	<node id="-691601" lat="67.8678305515" lon="16.1470666743">
		<tag k="fixme" v="consider natural=peak for the most distinct mountains in the district" />
		<tag k="name" v="Skuŋkitjåhkkå" />
		<tag k="name:smj" v="Skuŋkitjåhkkå" />
		<tag k="natural" v="hill" />
		<tag k="old_name:smj" v="Skuŋkavárri" />
		<tag k="place" v="locality" />
		<tag k="ssr:stedsnr" v="684415" />
	</node>
	<node id="-691598" lat="67.8672111127" lon="16.6037249973">
		<tag k="fixme" v="consider natural=peak for the most distinct mountains in the district" />
		<tag k="name" v="Årojrieptjåhkkå" />
		<tag k="name:smj" v="Årojrieptjåhkkå" />
		<tag k="natural" v="hill" />
		<tag k="old_name:smj" v="Oruiriehpečohkka" />
		<tag k="place" v="locality" />
		<tag k="ssr:stedsnr" v="684360" />
	</node>
	<node id="-691596" lat="67.9420666716" lon="16.4817166586">
		<tag k="name" v="Biernavágge" />
		<tag k="name:smj" v="Biernavágge" />
		<tag k="natural" v="valley" />
		<tag k="old_name:smj" v="Biertnavággi" />
		<tag k="place" v="locality" />
		<tag k="ssr:stedsnr" v="684336" />
	</node>
	<node id="-691595" lat="67.9251500034" lon="16.2542499944">
		<tag k="name" v="Slieŋŋge" />
		<tag k="name:smj" v="Slieŋŋge" />
		<tag k="natural" v="slope" />
		<tag k="old_name:smj" v="Šlieŋgi" />
		<tag k="place" v="locality" />
		<tag k="ssr:stedsnr" v="684334" />
	</node>
	<node id="-691593" lat="67.7756250007" lon="16.2955277763">
		<tag k="name" v="Livselåpptå" />
		<tag k="name:smj" v="Livselåpptå" />
		<tag k="natural" v="ridge" />
		<tag k="old_name:smj" v="Livsselopta" />
		<tag k="place" v="locality" />
		<tag k="ssr:stedsnr" v="684157" />
	</node>
	<node id="-691592" lat="67.7878388911" lon="16.5365027695">
		<tag k="name" v="Roaveskåhppe" />
		<tag k="name:smj" v="Roaveskåhppe" />
		<tag k="natural" v="valley" />
		<tag k="place" v="locality" />
		<tag k="ssr:stedsnr" v="684151" />
	</node>
	<node id="-691589" lat="67.8027750033" lon="16.3394027717">
		<tag k="name" v="Hujtaknjoasske" />
		<tag k="name:smj" v="Hujtaknjoasske" />
		<tag k="natural" v="valley" />
		<tag k="old_name:smj" v="Huittagnjoaski" />
		<tag k="place" v="locality" />
		<tag k="ssr:stedsnr" v="684142" />
	</node>
	<node id="-691587" lat="67.8185499959" lon="16.4294250069">
		<tag k="name" v="Gunjiloabme" />
		<tag k="name:smj" v="Gunjiloabme" />
		<tag k="natural" v="valley" />
		<tag k="old_name:smj" v="Gunjeloapmi" />
		<tag k="place" v="locality" />
		<tag k="ssr:stedsnr" v="684130" />
	</node>
	<node id="-691584" lat="67.8170527823" lon="16.5418555532">
		<tag k="fixme" v="consider natural=peak for the most distinct mountains in the district" />
		<tag k="name" v="Basseoalggečohkka" />
		<tag k="name:smj" v="Basseoalggečohkka" />
		<tag k="natural" v="hill" />
		<tag k="place" v="locality" />
		<tag k="ssr:stedsnr" v="659110" />
	</node>
	<node id="-691580" lat="68.0467083326" lon="16.3550833322">
		<tag k="name" v="Galtmabergan" />
		<tag k="name:no" v="Galtmabergan" />
		<tag k="natural" v="hill" />
		<tag k="place" v="locality" />
		<tag k="ssr:stedsnr" v="645198" />
	</node>
	<node id="-691579" lat="67.9152527777" lon="16.7407555488">
		<tag k="fixme" v="consider natural=peak for the most distinct mountains in the district" />
		<tag k="name" v="Rikkek" />
		<tag k="name:smj" v="Rikkek" />
		<tag k="natural" v="hill" />
		<tag k="old_name:smj" v="Rihkkek;Riekkehk" />
		<tag k="place" v="locality" />
		<tag k="ssr:stedsnr" v="644504" />
	</node>
	<node id="-691576" lat="68.1060861093" lon="16.3287499884">
		<tag k="fixme" v="consider natural=peak for the most distinct mountains in the district" />
		<tag k="name" v="Urvikaksla" />
		<tag k="name:no" v="Urvikaksla" />
		<tag k="natural" v="hill" />
		<tag k="place" v="locality" />
		<tag k="ssr:stedsnr" v="631584" />
	</node>
	<node id="-691574" lat="68.2339083303" lon="16.2938111172">
		<tag k="name" v="Storhola" />
		<tag k="name:no" v="Storhola" />
		<tag k="natural" v="valley" />
		<tag k="place" v="locality" />
		<tag k="ssr:stedsnr" v="628971" />
	</node>
	<node id="-691573" lat="68.1234305566" lon="16.4009777743">
		<tag k="name" v="Risbakkan" />
		<tag k="name:no" v="Risbakkan" />
		<tag k="natural" v="slope" />
		<tag k="place" v="locality" />
		<tag k="ssr:stedsnr" v="628956" />
	</node>
	<node id="-691570" lat="68.1253249998" lon="16.4165888832">
		<tag k="name" v="Ånelia" />
		<tag k="name:no" v="Ånelia" />
		<tag k="natural" v="slope" />
		<tag k="place" v="locality" />
		<tag k="ssr:stedsnr" v="628952" />
	</node>
	<node id="-691560" lat="68.2387361086" lon="16.4338666643">
		<tag k="name" v="Polldalen" />
		<tag k="name:no" v="Polldalen" />
		<tag k="natural" v="valley" />
		<tag k="place" v="locality" />
		<tag k="ssr:stedsnr" v="628747" />
	</node>
	<node id="-691558" lat="68.1351861112" lon="16.4659111145">
		<tag k="name" v="Rødberget" />
		<tag k="name:no" v="Rødberget" />
		<tag k="natural" v="hill" />
		<tag k="place" v="locality" />
		<tag k="ssr:stedsnr" v="628731" />
	</node>
	<node id="-691554" lat="68.0676638882" lon="16.3931277681">
		<tag k="name" v="Svarthallen" />
		<tag k="name:no" v="Svarthallen" />
		<tag k="natural" v="slope" />
		<tag k="place" v="locality" />
		<tag k="ssr:stedsnr" v="628680" />
	</node>
	<node id="-691552" lat="68.0722499969" lon="16.384605544">
		<tag k="name" v="Nausthola" />
		<tag k="name:no" v="Nausthola" />
		<tag k="natural" v="valley" />
		<tag k="place" v="locality" />
		<tag k="ssr:stedsnr" v="628676" />
	</node>
	<node id="-691551" lat="68.0703361093" lon="16.3915916738">
		<tag k="name" v="Skillarhågen" />
		<tag k="name:no" v="Skillarhågen" />
		<tag k="natural" v="hill" />
		<tag k="place" v="locality" />
		<tag k="ssr:stedsnr" v="628674" />
	</node>
	<node id="-691550" lat="68.0699388918" lon="16.3803361207">
		<tag k="name" v="Strandhågen" />
		<tag k="name:no" v="Strandhågen" />
		<tag k="natural" v="hill" />
		<tag k="place" v="locality" />
		<tag k="ssr:stedsnr" v="628672" />
	</node>
	<node id="-691547" lat="67.8959305544" lon="16.1948361134">
		<tag k="name" v="Oalgge" />
		<tag k="name:smj" v="Oalgge" />
		<tag k="natural" v="ridge" />
		<tag k="place" v="locality" />
		<tag k="ssr:stedsnr" v="628594" />
	</node>
	<node id="-691546" lat="67.8906333302" lon="16.2015638969">
		<tag k="name" v="Buogge" />
		<tag k="name:smj" v="Buogge" />
		<tag k="natural" v="valley" />
		<tag k="place" v="locality" />
		<tag k="ssr:stedsnr" v="628585" />
	</node>
	<node id="-691544" lat="68.0859305581" lon="16.1000027846">
		<tag k="name" v="Torvhågen" />
		<tag k="name:no" v="Torvhågen" />
		<tag k="natural" v="hill" />
		<tag k="place" v="locality" />
		<tag k="ssr:stedsnr" v="628574" />
	</node>
	<node id="-691541" lat="68.2152472222" lon="16.0052250049">
		<tag k="name" v="Reindalan" />
		<tag k="name:no" v="Reindalan" />
		<tag k="natural" v="valley" />
		<tag k="place" v="locality" />
		<tag k="ssr:stedsnr" v="628499" />
	</node>
	<node id="-691533" lat="68.0896361148" lon="16.0712611219">
		<tag k="name" v="Reindalen" />
		<tag k="name:no" v="Reindalen" />
		<tag k="natural" v="valley" />
		<tag k="place" v="locality" />
		<tag k="ssr:stedsnr" v="627597" />
	</node>
	<node id="-691526" lat="68.1767555527" lon="16.1269722159">
		<tag k="alt_name:no" v="Veddalshaugen" />
		<tag k="name" v="Veddalshøgda" />
		<tag k="name:no" v="Veddalshøgda" />
		<tag k="natural" v="hill" />
		<tag k="place" v="locality" />
		<tag k="ssr:stedsnr" v="623789" />
	</node>
	<node id="-691524" lat="68.1728305517" lon="16.0665444313">
		<tag k="alt_name:no" v="Fuglevassåsen" />
		<tag k="fixme" v="consider natural=peak for the most distinct mountains in the district" />
		<tag k="name" v="Fuglvassåsen" />
		<tag k="name:no" v="Fuglvassåsen" />
		<tag k="natural" v="hill" />
		<tag k="place" v="locality" />
		<tag k="ssr:stedsnr" v="623773" />
	</node>
	<node id="-691522" lat="67.990919443" lon="16.0704166548">
		<tag k="alt_name:no" v="Veten, vestre" />
		<tag k="fixme" v="consider natural=peak for the most distinct mountains in the district" />
		<tag k="name" v="Vestre Veten" />
		<tag k="name:no" v="Vestre Veten" />
		<tag k="natural" v="hill" />
		<tag k="place" v="locality" />
		<tag k="ssr:stedsnr" v="623677" />
	</node>
	<node id="-691511" lat="68.0384750003" lon="15.995905563">
		<tag k="name" v="Sommarsethågen" />
		<tag k="name:no" v="Sommarsethågen" />
		<tag k="natural" v="hill" />
		<tag k="place" v="locality" />
		<tag k="ssr:stedsnr" v="623575" />
	</node>
	<node id="-691510" lat="68.2641694449" lon="16.2898361116">
		<tag k="fixme" v="consider natural=peak for the most distinct mountains in the district" />
		<tag k="name" v="Skårneskollen" />
		<tag k="name:no" v="Skårneskollen" />
		<tag k="natural" v="hill" />
		<tag k="place" v="locality" />
		<tag k="ssr:stedsnr" v="623573" />
	</node>
	<node id="-691509" lat="68.0705472205" lon="16.4294388972">
		<tag k="name" v="Skåhppe - Storådalen" />
		<tag k="name:no" v="Storådalen" />
		<tag k="name:smj" v="Skåhppe" />
		<tag k="natural" v="valley" />
		<tag k="old_name:smj" v="Skohppi" />
		<tag k="place" v="locality" />
		<tag k="ssr:stedsnr" v="623572" />
	</node>
	<node id="-691506" lat="68.0837472245" lon="16.6546249884">
		<tag k="fixme" v="consider natural=peak for the most distinct mountains in the district" />
		<tag k="name" v="Forrhågen" />
		<tag k="name:no" v="Forrhågen" />
		<tag k="natural" v="hill" />
		<tag k="place" v="locality" />
		<tag k="ssr:stedsnr" v="623561" />
	</node>
	<node id="-691503" lat="68.1969416634" lon="16.4395416714">
		<tag k="fixme" v="consider natural=peak for the most distinct mountains in the district" />
		<tag k="name" v="Dimbarásse - Tømmeråsen" />
		<tag k="name:no" v="Tømmeråsen" />
		<tag k="name:smj" v="Dimbarásse" />
		<tag k="natural" v="hill" />
		<tag k="place" v="locality" />
		<tag k="ssr:stedsnr" v="623547" />
	</node>
	<node id="-691501" lat="68.0497888863" lon="16.4334166623">
		<tag k="fixme" v="consider natural=peak for the most distinct mountains in the district" />
		<tag k="name" v="Funnta - Funtafjellet" />
		<tag k="name:no" v="Funtafjellet" />
		<tag k="name:smj" v="Funnta" />
		<tag k="natural" v="hill" />
		<tag k="old_name:smj" v="Funta" />
		<tag k="place" v="locality" />
		<tag k="ssr:stedsnr" v="623527" />
	</node>
	<node id="-691499" lat="67.8583694419" lon="16.195716669">
		<tag k="name" v="Riehppe" />
		<tag k="name:smj" v="Riehppe" />
		<tag k="natural" v="valley" />
		<tag k="place" v="locality" />
		<tag k="ssr:stedsnr" v="623462" />
	</node>
	<node id="-691496" lat="67.872024996" lon="16.0940250069">
		<tag k="name" v="Gussagåhpe" />
		<tag k="name:smj" v="Gussagåhpe" />
		<tag k="natural" v="valley" />
		<tag k="old_name:smj" v="Gussagohpi" />
		<tag k="place" v="locality" />
		<tag k="ssr:stedsnr" v="623420" />
	</node>
	<node id="-691494" lat="67.9210444408" lon="16.1977472157">
		<tag k="name" v="Gidádumlåpptå" />
		<tag k="name:smj" v="Gidádumlåpptå" />
		<tag k="natural" v="ridge" />
		<tag k="old_name:smj" v="Gidadumlopta" />
		<tag k="place" v="locality" />
		<tag k="ssr:stedsnr" v="623404" />
	</node>
	<node id="-691493" lat="67.9126194413" lon="16.1236638842">
		<tag k="fixme" v="consider natural=peak for the most distinct mountains in the district" />
		<tag k="name" v="Stuolotjåhkkå - Stolotindan" />
		<tag k="name:no" v="Stolotindan" />
		<tag k="name:smj" v="Stuolotjåhkkå" />
		<tag k="natural" v="hill" />
		<tag k="old_name:smj" v="Stuolločohkka" />
		<tag k="place" v="locality" />
		<tag k="ssr:stedsnr" v="623403" />
	</node>
	<node id="-691492" lat="67.9011305538" lon="16.1262194542">
		<tag k="fixme" v="consider natural=peak for the most distinct mountains in the district" />
		<tag k="name" v="Smájleoajvve - Spisstinden" />
		<tag k="name:no" v="Spisstinden" />
		<tag k="name:smj" v="Smájleoajvve" />
		<tag k="natural" v="hill" />
		<tag k="old_name:smj" v="Smáileoaivi" />
		<tag k="place" v="locality" />
		<tag k="ssr:stedsnr" v="623391" />
	</node>
	<node id="-691491" lat="67.8646027792" lon="16.2262333348">
		<tag k="fixme" v="consider natural=peak for the most distinct mountains in the district" />
		<tag k="loc_name:smj" v="Sjnjáhtta;Måsketjåhkkå" />
		<tag k="name" v="Moskevárri" />
		<tag k="name:smj" v="Moskevárri" />
		<tag k="natural" v="hill" />
		<tag k="place" v="locality" />
		<tag k="ssr:stedsnr" v="623372" />
	</node>
	<node id="-691490" lat="67.8046749981" lon="16.576138886">
		<tag k="loc_name:no" v="Storjuvet" />
		<tag k="name" v="Ávttje" />
		<tag k="name:smj" v="Ávttje" />
		<tag k="natural" v="gorge" />
		<tag k="ssr:stedsnr" v="623362" />
	</node>
	<node id="-691489" lat="67.9398777775" lon="16.3150777747">
		<tag k="fixme" v="consider natural=peak for the most distinct mountains in the district" />
		<tag k="name" v="Sávttsagåpvárre" />
		<tag k="name:smj" v="Sávttsagåpvárre" />
		<tag k="natural" v="hill" />
		<tag k="old_name:smj" v="Sávzagobevarri" />
		<tag k="place" v="locality" />
		<tag k="ssr:stedsnr" v="623350" />
	</node>
	<node id="-691488" lat="67.9306361067" lon="16.3010777841">
		<tag k="fixme" v="consider natural=peak for the most distinct mountains in the district" />
		<tag k="name" v="Tjielumvárre" />
		<tag k="name:smj" v="Tjielumvárre" />
		<tag k="natural" v="hill" />
		<tag k="old_name:smj" v="Čielomvárri" />
		<tag k="place" v="locality" />
		<tag k="ssr:stedsnr" v="623335" />
	</node>
	<node id="-691485" lat="67.8933083308" lon="16.2999527684">
		<tag k="name" v="Nåråldakoalgge" />
		<tag k="name:smj" v="Nåråldakoalgge" />
		<tag k="old_name:smj" v="Noroldahkoalgi" />
		<tag k="place" v="locality" />
		<tag k="ssr:stedsnr" v="623313" />
	</node>
	<node id="-691484" lat="67.9905805589" lon="16.7113888968">
		<tag k="name" v="Dáppánjunnje" />
		<tag k="name:smj" v="Dáppánjunnje" />
		<tag k="natural" v="hill" />
		<tag k="old_name:smj" v="Dáppanjunnji" />
		<tag k="place" v="locality" />
		<tag k="ssr:stedsnr" v="623309" />
	</node>
	<node id="-691480" lat="67.9675750044" lon="16.3787111118">
		<tag k="name" v="Kollen" />
		<tag k="name:no" v="Kollen" />
		<tag k="natural" v="hill" />
		<tag k="place" v="locality" />
		<tag k="ssr:stedsnr" v="623284" />
	</node>
	<node id="-691479" lat="67.951149996" lon="16.3451805524">
		<tag k="name" v="Rásjvásjgåphe" />
		<tag k="name:smj" v="Rásjvásjgåphe" />
		<tag k="natural" v="valley" />
		<tag k="old_name:smj" v="Rásváššagohpi" />
		<tag k="place" v="locality" />
		<tag k="ssr:stedsnr" v="623282" />
	</node>
	<node id="-691476" lat="67.7560027782" lon="16.5260972116">
		<tag k="name" v="Hievsstin" />
		<tag k="name:smj" v="Hievsstin" />
		<tag k="natural" v="slope" />
		<tag k="old_name:smj" v="Hievstin" />
		<tag k="place" v="locality" />
		<tag k="ssr:stedsnr" v="623187" />
	</node>
	<node id="-691475" lat="67.818119443" lon="16.4717499994">
		<tag k="name" v="Tsækkok" />
		<tag k="name:smj" v="Tsækkok" />
		<tag k="natural" v="hill" />
		<tag k="place" v="locality" />
		<tag k="ssr:stedsnr" v="623150" />
	</node>
	<node id="-691470" lat="68.0246777792" lon="16.0298222295">
		<tag k="fixme" v="consider natural=peak for the most distinct mountains in the district" />
		<tag k="name" v="Dragvasskollen" />
		<tag k="name:no" v="Dragvasskollen" />
		<tag k="natural" v="hill" />
		<tag k="place" v="locality" />
		<tag k="ssr:stedsnr" v="584963" />
	</node>
	<node id="-691469" lat="67.952852776" lon="16.794558327">
		<tag k="name" v="Biernoalgge" />
		<tag k="name:smj" v="Biernoalgge" />
		<tag k="old_name:smj" v="Biertnoalgi" />
		<tag k="place" v="locality" />
		<tag k="ssr:stedsnr" v="584472" />
	</node>
	<node id="-691468" lat="68.0490111126" lon="16.3673500008">
		<tag k="name" v="Suppabalka" />
		<tag k="name:no" v="Suppabalka" />
		<tag k="natural" v="slope" />
		<tag k="place" v="locality" />
		<tag k="ssr:stedsnr" v="584250" />
	</node>
	<node id="-691467" lat="68.0485527758" lon="16.3566305658">
		<tag k="name" v="Småbergan" />
		<tag k="name:no" v="Småbergan" />
		<tag k="natural" v="hill" />
		<tag k="place" v="locality" />
		<tag k="ssr:stedsnr" v="584249" />
	</node>
	<node id="-691465" lat="68.1127888877" lon="16.6202527757">
		<tag k="fixme" v="consider natural=peak for the most distinct mountains in the district" />
		<tag k="name" v="Bednakoajvve - Hundhovudet" />
		<tag k="name:no" v="Hundhovudet" />
		<tag k="name:smj" v="Bednakoajvve" />
		<tag k="natural" v="hill" />
		<tag k="old_name:smj" v="Beatnatoaivi" />
		<tag k="place" v="locality" />
		<tag k="ssr:stedsnr" v="573570" />
	</node>
	<node id="-691463" lat="68.0997916638" lon="16.0756805536">
		<tag k="name" v="Erterdievvá" />
		<tag k="name:smj" v="Erterdievvá" />
		<tag k="natural" v="hill" />
		<tag k="place" v="locality" />
		<tag k="ssr:stedsnr" v="568516" />
	</node>
	<node id="-691461" lat="68.2187583305" lon="16.2893027849">
		<tag k="name" v="Olderhola" />
		<tag k="name:no" v="Olderhola" />
		<tag k="natural" v="valley" />
		<tag k="place" v="locality" />
		<tag k="ssr:stedsnr" v="567997" />
	</node>
	<node id="-691457" lat="68.1520250025" lon="16.3692250058">
		<tag k="fixme" v="consider natural=peak for the most distinct mountains in the district" />
		<tag k="name" v="Buttfjellet" />
		<tag k="name:no" v="Buttfjellet" />
		<tag k="natural" v="hill" />
		<tag k="place" v="locality" />
		<tag k="ssr:stedsnr" v="567966" />
	</node>
	<node id="-691454" lat="68.2239694408" lon="16.2605055455">
		<tag k="fixme" v="consider natural=peak for the most distinct mountains in the district" />
		<tag k="name" v="Kvesmfjellet" />
		<tag k="name:no" v="Kvesmfjellet" />
		<tag k="natural" v="hill" />
		<tag k="place" v="locality" />
		<tag k="ssr:stedsnr" v="567957" />
	</node>
	<node id="-691452" lat="67.8006805584" lon="16.5497777798">
		<tag k="name" v="Biernnaskuhtjo" />
		<tag k="name:smj" v="Biernnaskuhtjo" />
		<tag k="natural" v="valley" />
		<tag k="place" v="locality" />
		<tag k="ssr:stedsnr" v="567939" />
	</node>
	<node id="-691449" lat="68.1309944443" lon="16.1153638984">
		<tag k="name" v="Resshallen" />
		<tag k="name:no" v="Resshallen" />
		<tag k="natural" v="slope" />
		<tag k="place" v="locality" />
		<tag k="ssr:stedsnr" v="567900" />
	</node>
	<node id="-691440" lat="68.1838444427" lon="16.584780545">
		<tag k="name" v="Oterhallen" />
		<tag k="name:no" v="Oterhallen" />
		<tag k="natural" v="hill" />
		<tag k="place" v="locality" />
		<tag k="ssr:stedsnr" v="567766" />
	</node>
	<node id="-691438" lat="68.1334361093" lon="16.4947777858">
		<tag k="name" v="Berglandet" />
		<tag k="name:no" v="Berglandet" />
		<tag k="natural" v="hill" />
		<tag k="place" v="locality" />
		<tag k="ssr:stedsnr" v="567739" />
	</node>
	<node id="-691432" lat="68.107677782" lon="16.0696555581">
		<tag k="fixme" v="consider natural=peak for the most distinct mountains in the district" />
		<tag k="name" v="Gállávárre - Kjerrfjellet" />
		<tag k="name:no" v="Kjerrfjellet" />
		<tag k="name:smj" v="Gállávárre" />
		<tag k="natural" v="hill" />
		<tag k="place" v="locality" />
		<tag k="ssr:stedsnr" v="567661" />
	</node>
	<node id="-691425" lat="67.886919444" lon="16.2384861091">
		<tag k="name" v="Jiehkegårsså" />
		<tag k="name:smj" v="Jiehkegårsså" />
		<tag k="natural" v="valley" />
		<tag k="place" v="locality" />
		<tag k="ssr:stedsnr" v="567577" />
	</node>
	<node id="-691423" lat="68.0229027801" lon="16.0665055594">
		<tag k="name" v="Sjurskaret" />
		<tag k="name:no" v="Sjurskaret" />
		<tag k="natural" v="valley" />
		<tag k="place" v="locality" />
		<tag k="ssr:stedsnr" v="567564" />
	</node>
	<node id="-691420" lat="68.0175666655" lon="16.1471722205">
		<tag k="name" v="Litlkruna" />
		<tag k="name:no" v="Litlkruna" />
		<tag k="natural" v="hill" />
		<tag k="place" v="locality" />
		<tag k="ssr:stedsnr" v="567552" />
	</node>
	<node id="-691418" lat="68.2387166663" lon="15.9957222317">
		<tag k="name" v="Andersskogen" />
		<tag k="name:no" v="Andersskogen" />
		<tag k="natural" v="slope" />
		<tag k="place" v="locality" />
		<tag k="ssr:stedsnr" v="567505" />
	</node>
	<node id="-691412" lat="68.101333335" lon="16.6538722098">
		<tag k="name" v="Storelvdalen" />
		<tag k="name:no" v="Storelvdalen" />
		<tag k="natural" v="valley" />
		<tag k="place" v="locality" />
		<tag k="ssr:stedsnr" v="563578" />
	</node>
	<node id="-691410" lat="68.1046361097" lon="16.3418583398">
		<tag k="fixme" v="consider natural=peak for the most distinct mountains in the district" />
		<tag k="name" v="Veten" />
		<tag k="name:no" v="Veten" />
		<tag k="natural" v="hill" />
		<tag k="place" v="locality" />
		<tag k="ssr:stedsnr" v="563574" />
	</node>
	<node id="-691409" lat="68.1071222242" lon="16.3871916752">
		<tag k="fixme" v="multiple name tags, choose one and add the other to alt_name; consider natural=peak for the most distinct mountains in the district" />
		<tag k="name" v="Storåsen;Åsen" />
		<tag k="name:no" v="Storåsen;Åsen" />
		<tag k="natural" v="hill" />
		<tag k="place" v="locality" />
		<tag k="ssr:stedsnr" v="563573" />
	</node>
	<node id="-691406" lat="68.1363333346" lon="16.6787138911">
		<tag k="fixme" v="consider natural=peak for the most distinct mountains in the district" />
		<tag k="name" v="Kopptinden - Gáhpetjåhkkå" />
		<tag k="name:no" v="Kopptinden" />
		<tag k="name:smj" v="Gáhpetjåhkkå" />
		<tag k="natural" v="hill" />
		<tag k="place" v="locality" />
		<tag k="ssr:stedsnr" v="563547" />
	</node>
	<node id="-691404" lat="68.1424194449" lon="16.4773361071">
		<tag k="fixme" v="consider natural=peak for the most distinct mountains in the district" />
		<tag k="name" v="Gárjjelvárre - Russviktinden" />
		<tag k="name:no" v="Russviktinden" />
		<tag k="name:smj" v="Gárjjelvárre" />
		<tag k="natural" v="hill" />
		<tag k="old_name:smj" v="Gárjelvárri" />
		<tag k="place" v="locality" />
		<tag k="ssr:stedsnr" v="563541" />
	</node>
	<node id="-691402" lat="67.9867111146" lon="16.1118888865">
		<tag k="fixme" v="consider natural=peak for the most distinct mountains in the district" />
		<tag k="name" v="Vihtivárre - Vettfjellet" />
		<tag k="name:no" v="Vettfjellet" />
		<tag k="name:smj" v="Vihtivárre" />
		<tag k="natural" v="hill" />
		<tag k="place" v="locality" />
		<tag k="ssr:stedsnr" v="563531" />
	</node>
	<node id="-691401" lat="68.0112083306" lon="16.1535916553">
		<tag k="fixme" v="consider natural=peak for the most distinct mountains in the district" />
		<tag k="name" v="Stongfjellet" />
		<tag k="name:no" v="Stongfjellet" />
		<tag k="natural" v="hill" />
		<tag k="place" v="locality" />
		<tag k="ssr:stedsnr" v="563516" />
	</node>
	<node id="-691396" lat="67.8834361138" lon="16.364177771">
		<tag k="name" v="Áksjogurssjo" />
		<tag k="name:smj" v="Áksjogurssjo" />
		<tag k="natural" v="valley" />
		<tag k="old_name:smj" v="Ákšoguršu" />
		<tag k="place" v="locality" />
		<tag k="ssr:stedsnr" v="563352" />
	</node>
	<node id="-691395" lat="67.8718638874" lon="16.6532277737">
		<tag k="name" v="Sválesvaggi" />
		<tag k="name:smj" v="Sválesvaggi" />
		<tag k="natural" v="valley" />
		<tag k="place" v="locality" />
		<tag k="ssr:stedsnr" v="563346" />
	</node>
	<node id="-691393" lat="68.2384555546" lon="15.9884944511">
		<tag k="name" v="Molvikdalen" />
		<tag k="name:no" v="Molvikdalen" />
		<tag k="natural" v="valley" />
		<tag k="place" v="locality" />
		<tag k="ssr:stedsnr" v="562842" />
	</node>
	<node id="-691389" lat="67.9876694459" lon="16.1760000084">
		<tag k="name" v="Tennvassbakkan" />
		<tag k="name:no" v="Tennvassbakkan" />
		<tag k="natural" v="slope" />
		<tag k="place" v="locality" />
		<tag k="ssr:stedsnr" v="562658" />
	</node>
	<node id="-691388" lat="67.7429250014" lon="16.566847215">
		<tag k="name" v="Ræhtjátvágge - Retgatdalen" />
		<tag k="name:no" v="Retgatdalen" />
		<tag k="name:smj" v="Ræhtjátvágge" />
		<tag k="natural" v="valley" />
		<tag k="old_name:smj" v="Rehčitvággi" />
		<tag k="place" v="locality" />
		<tag k="ssr:stedsnr" v="562644" />
	</node>
	<node id="-691387" lat="68.0687527756" lon="16.0461138871">
		<tag k="alt_name:no" v="Stordalsfjell" />
		<tag k="fixme" v="consider natural=peak for the most distinct mountains in the district" />
		<tag k="name" v="Stordalsfjellet" />
		<tag k="name:no" v="Stordalsfjellet" />
		<tag k="natural" v="hill" />
		<tag k="place" v="locality" />
		<tag k="ssr:stedsnr" v="562640" />
	</node>
	<node id="-691384" lat="68.0440444483" lon="15.9931750089">
		<tag k="name" v="Lakstjørnbakkan" />
		<tag k="name:no" v="Lakstjørnbakkan" />
		<tag k="natural" v="slope" />
		<tag k="place" v="locality" />
		<tag k="ssr:stedsnr" v="562620" />
	</node>
	<node id="-691382" lat="68.1619333347" lon="16.3670444557">
		<tag k="fixme" v="consider natural=peak for the most distinct mountains in the district" />
		<tag k="name" v="Storvikfjellet" />
		<tag k="name:no" v="Storvikfjellet" />
		<tag k="natural" v="hill" />
		<tag k="place" v="locality" />
		<tag k="ssr:stedsnr" v="562608" />
	</node>
	<node id="-691378" lat="68.0642722214" lon="16.6034222127">
		<tag k="fixme" v="consider natural=peak for the most distinct mountains in the district" />
		<tag k="name" v="Sørfjordfjellet" />
		<tag k="name:no" v="Sørfjordfjellet" />
		<tag k="natural" v="hill" />
		<tag k="place" v="locality" />
		<tag k="ssr:stedsnr" v="562558" />
	</node>
	<node id="-691376" lat="68.082036112" lon="16.7764444535">
		<tag k="fixme" v="consider natural=peak for the most distinct mountains in the district" />
		<tag k="name" v="Jábbmekoalgge - Daudmannsaksla" />
		<tag k="name:no" v="Daudmannsaksla" />
		<tag k="name:smj" v="Jábbmekoalgge" />
		<tag k="natural" v="hill" />
		<tag k="place" v="locality" />
		<tag k="ssr:stedsnr" v="562543" />
	</node>
	<node id="-691370" lat="67.850647225" lon="16.1547222244">
		<tag k="fixme" v="consider natural=peak for the most distinct mountains in the district" />
		<tag k="name" v="Skuŋŋki" />
		<tag k="name:smj" v="Skuŋŋki" />
		<tag k="natural" v="hill" />
		<tag k="place" v="locality" />
		<tag k="ssr:stedsnr" v="562438" />
	</node>
	<node id="-691369" lat="67.8808722228" lon="16.1454527769">
		<tag k="fixme" v="multiple name tags, choose one and add the other to alt_name" />
		<tag k="name" v="Ruosvágge;Ruossavágge" />
		<tag k="name:smj" v="Ruosvágge;Ruossavágge" />
		<tag k="natural" v="valley" />
		<tag k="place" v="locality" />
		<tag k="ssr:stedsnr" v="562424" />
	</node>
	<node id="-691364" lat="67.840874996" lon="16.5393694346">
		<tag k="name" v="Tsiekim" />
		<tag k="name:smj" v="Tsiekim" />
		<tag k="natural" v="valley" />
		<tag k="old_name:smj" v="Ciehkim" />
		<tag k="place" v="locality" />
		<tag k="ssr:stedsnr" v="562340" />
	</node>
	<node id="-691362" lat="67.9185611144" lon="16.5355888933">
		<tag k="fixme" v="consider natural=peak for the most distinct mountains in the district" />
		<tag k="name" v="Skiddetjåhkkå" />
		<tag k="name:smj" v="Skiddetjåhkkå" />
		<tag k="natural" v="hill" />
		<tag k="old_name:smj" v="Skiddečohkka" />
		<tag k="place" v="locality" />
		<tag k="ssr:stedsnr" v="562309" />
	</node>
	<node id="-691359" lat="67.8888194425" lon="16.2343166566">
		<tag k="name" v="Jiehkke" />
		<tag k="name:smj" v="Jiehkke" />
		<tag k="natural" v="valley" />
		<tag k="place" v="locality" />
		<tag k="ssr:stedsnr" v="562296" />
	</node>
	<node id="-691357" lat="67.9679722213" lon="16.4311472116">
		<tag k="fixme" v="consider natural=peak for the most distinct mountains in the district" />
		<tag k="name" v="Bájsátjåhkka - Baisatinden" />
		<tag k="name:no" v="Baisatinden" />
		<tag k="name:smj" v="Bájsátjåhkka" />
		<tag k="natural" v="hill" />
		<tag k="place" v="locality" />
		<tag k="ssr:stedsnr" v="562271" />
	</node>
	<node id="-691356" lat="67.9643638854" lon="16.4030388945">
		<tag k="fixme" v="consider natural=peak for the most distinct mountains in the district" />
		<tag k="name" v="Njuoskkašvárri" />
		<tag k="name:smj" v="Njuoskkašvárri" />
		<tag k="natural" v="hill" />
		<tag k="place" v="locality" />
		<tag k="ssr:stedsnr" v="562267" />
	</node>
	<node id="-691352" lat="67.7578583373" lon="16.5876194452">
		<tag k="name" v="Amásvágnjoasske" />
		<tag k="name:smj" v="Amásvágnjoasske" />
		<tag k="natural" v="valley" />
		<tag k="old_name:smj" v="Amasvákkenjoaski" />
		<tag k="place" v="locality" />
		<tag k="ssr:stedsnr" v="562150" />
	</node>
	<node id="-691351" lat="67.7593666636" lon="16.2032055629">
		<tag k="fixme" v="consider natural=peak for the most distinct mountains in the district" />
		<tag k="name" v="Ájatjåhkkå" />
		<tag k="name:smj" v="Ájatjåhkkå" />
		<tag k="natural" v="hill" />
		<tag k="place" v="locality" />
		<tag k="ssr:stedsnr" v="562146" />
	</node>
	<node id="-691346" lat="67.8142666699" lon="16.5070055563">
		<tag k="name" v="Biedá" />
		<tag k="name:smj" v="Biedá" />
		<tag k="place" v="locality" />
		<tag k="ssr:stedsnr" v="562112" />
	</node>
	<node id="-691345" lat="67.8199888873" lon="16.228836116">
		<tag k="name" v="Juobmorijdda" />
		<tag k="name:smj" v="Juobmorijdda" />
		<tag k="natural" v="slope" />
		<tag k="old_name:smj" v="Juopmoriida" />
		<tag k="place" v="locality" />
		<tag k="ssr:stedsnr" v="562106" />
	</node>
	<node id="-691340" lat="68.0660583367" lon="15.9455611044">
		<tag k="name" v="Tjukkskjømmingen" />
		<tag k="name:no" v="Tjukkskjømmingen" />
		<tag k="natural" v="slope" />
		<tag k="place" v="locality" />
		<tag k="ssr:stedsnr" v="524933" />
	</node>
	<node id="-691335" lat="67.9637944415" lon="16.7802111053">
		<tag k="name" v="Tjepuris" />
		<tag k="name:smj" v="Tjepuris" />
		<tag k="natural" v="ridge" />
		<tag k="old_name:smj" v="Tjehpuris;Čehporis" />
		<tag k="place" v="locality" />
		<tag k="ssr:stedsnr" v="523551" />
	</node>
	<node id="-691333" lat="68.1735361135" lon="16.1281138831">
		<tag k="name" v="Lappgammen" />
		<tag k="name:no" v="Lappgammen" />
		<tag k="natural" v="slope" />
		<tag k="place" v="locality" />
		<tag k="ssr:stedsnr" v="512960" />
	</node>
	<node id="-691332" lat="68.1184499996" lon="16.3935833387">
		<tag k="name" v="Storbotn" />
		<tag k="name:no" v="Storbotn" />
		<tag k="natural" v="valley" />
		<tag k="place" v="locality" />
		<tag k="ssr:stedsnr" v="510603" />
	</node>
	<node id="-691328" lat="68.1051444427" lon="16.0869499964">
		<tag k="name" v="Geithågen" />
		<tag k="name:no" v="Geithågen" />
		<tag k="natural" v="hill" />
		<tag k="place" v="locality" />
		<tag k="ssr:stedsnr" v="508587" />
	</node>
	<node id="-691326" lat="68.2662249995" lon="16.2997416679">
		<tag k="name" v="Sildvågskaret" />
		<tag k="name:no" v="Sildvågskaret" />
		<tag k="natural" v="valley" />
		<tag k="place" v="locality" />
		<tag k="ssr:stedsnr" v="507998" />
	</node>
	<node id="-691323" lat="68.2392805579" lon="16.3410750036">
		<tag k="name" v="Lian" />
		<tag k="name:no" v="Lian" />
		<tag k="natural" v="slope" />
		<tag k="place" v="locality" />
		<tag k="ssr:stedsnr" v="507988" />
	</node>
	<node id="-691318" lat="68.125566668" lon="16.4107416651">
		<tag k="fixme" v="consider natural=peak for the most distinct mountains in the district" />
		<tag k="name" v="Holtan" />
		<tag k="name:no" v="Holtan" />
		<tag k="natural" v="hill" />
		<tag k="place" v="locality" />
		<tag k="ssr:stedsnr" v="507965" />
	</node>
	<node id="-691314" lat="67.7913138884" lon="16.5180861136">
		<tag k="name" v="Riebijdievvá" />
		<tag k="name:smj" v="Riebijdievvá" />
		<tag k="natural" v="hill" />
		<tag k="place" v="locality" />
		<tag k="ssr:stedsnr" v="507929" />
	</node>
	<node id="-691313" lat="67.7945472227" lon="16.5679750047">
		<tag k="name" v="Gurtejávrdievvá" />
		<tag k="name:smj" v="Gurtejávrdievvá" />
		<tag k="natural" v="hill" />
		<tag k="place" v="locality" />
		<tag k="ssr:stedsnr" v="507927" />
	</node>
	<node id="-691312" lat="67.815827775" lon="16.5261888976">
		<tag k="name" v="Ginovuolle" />
		<tag k="name:smj" v="Ginovuolle" />
		<tag k="natural" v="valley" />
		<tag k="place" v="locality" />
		<tag k="ssr:stedsnr" v="507910" />
	</node>
	<node id="-691307" lat="68.1663611106" lon="16.5528111216">
		<tag k="name" v="Storelvdalen" />
		<tag k="name:no" v="Storelvdalen" />
		<tag k="natural" v="valley" />
		<tag k="place" v="locality" />
		<tag k="ssr:stedsnr" v="507778" />
	</node>
	<node id="-691297" lat="68.111366665" lon="16.1015583343">
		<tag k="fixme" v="multiple name tags, choose one and add the other to alt_name" />
		<tag k="name" v="Kvannkjosvarden;Skavholvarden" />
		<tag k="name:no" v="Kvannkjosvarden;Skavholvarden" />
		<tag k="natural" v="hill" />
		<tag k="place" v="locality" />
		<tag k="ssr:stedsnr" v="507536" />
	</node>
	<node id="-691295" lat="68.2317777784" lon="15.9584555513">
		<tag k="name" v="Kleivskaret" />
		<tag k="name:no" v="Kleivskaret" />
		<tag k="natural" v="valley" />
		<tag k="place" v="locality" />
		<tag k="ssr:stedsnr" v="507497" />
	</node>
	<node id="-691294" lat="68.2381083306" lon="15.9879166673">
		<tag k="name" v="Kuøyra" />
		<tag k="name:no" v="Kuøyra" />
		<tag k="natural" v="slope" />
		<tag k="place" v="locality" />
		<tag k="ssr:stedsnr" v="507491" />
	</node>
	<node id="-691292" lat="68.2053861144" lon="16.0020638986">
		<tag k="name" v="Øverdalen" />
		<tag k="name:no" v="Øverdalen" />
		<tag k="natural" v="valley" />
		<tag k="place" v="locality" />
		<tag k="ssr:stedsnr" v="507485" />
	</node>
	<node id="-691289" lat="68.0849166713" lon="16.0794194419">
		<tag k="name" v="Kjerrvassdalen" />
		<tag k="name:no" v="Kjerrvassdalen" />
		<tag k="natural" v="valley" />
		<tag k="place" v="locality" />
		<tag k="ssr:stedsnr" v="506572" />
	</node>
	<node id="-691288" lat="68.0828999959" lon="16.072458332">
		<tag k="name" v="Langosstrupen" />
		<tag k="name:no" v="Langosstrupen" />
		<tag k="natural" v="valley" />
		<tag k="place" v="locality" />
		<tag k="ssr:stedsnr" v="506569" />
	</node>
	<node id="-691287" lat="68.0834444441" lon="16.0812944388">
		<tag k="name" v="Strumpvikhøgda" />
		<tag k="name:no" v="Strumpvikhøgda" />
		<tag k="natural" v="hill" />
		<tag k="place" v="locality" />
		<tag k="ssr:stedsnr" v="506567" />
	</node>
	<node id="-691286" lat="68.2423972193" lon="15.9801138882">
		<tag k="fixme" v="consider natural=peak for the most distinct mountains in the district" />
		<tag k="name" v="Tysnesheia" />
		<tag k="name:no" v="Tysnesheia" />
		<tag k="natural" v="hill" />
		<tag k="place" v="locality" />
		<tag k="ssr:stedsnr" v="502855" />
	</node>
	<node id="-691283" lat="68.0094583301" lon="16.5877250073">
		<tag k="fixme" v="consider natural=peak for the most distinct mountains in the district" />
		<tag k="name" v="Dáppávárre - Dappafjellet" />
		<tag k="name:no" v="Dappafjellet" />
		<tag k="name:smj" v="Dáppávárre" />
		<tag k="natural" v="hill" />
		<tag k="old_name:smj" v="Dappavárri" />
		<tag k="place" v="locality" />
		<tag k="ssr:stedsnr" v="502737" />
	</node>
	<node id="-691281" lat="68.0815027758" lon="17.0456333428">
		<tag k="loc_name:no" v="Ruonasdalen;Ruanasdalen" />
		<tag k="name" v="Roanasdalen" />
		<tag k="name:no" v="Roanasdalen" />
		<tag k="natural" v="valley" />
		<tag k="place" v="locality" />
		<tag k="ssr:stedsnr" v="502717" />
	</node>
	<node id="-691280" lat="68.0496638852" lon="17.1022527741">
		<tag k="fixme" v="consider natural=peak for the most distinct mountains in the district" />
		<tag k="name" v="Paurofjellet" />
		<tag k="name:no" v="Paurofjellet" />
		<tag k="natural" v="hill" />
		<tag k="place" v="locality" />
		<tag k="ssr:stedsnr" v="502679" />
	</node>
	<node id="-691278" lat="67.7172111143" lon="16.5745888885">
		<tag k="fixme" v="consider natural=peak for the most distinct mountains in the district" />
		<tag k="name" v="Langfjellet" />
		<tag k="name:no" v="Langfjellet" />
		<tag k="natural" v="hill" />
		<tag k="place" v="locality" />
		<tag k="ssr:stedsnr" v="502653" />
	</node>
	<node id="-691276" lat="67.6999138916" lon="16.4711388961">
		<tag k="name" v="Gihtsenjoasske" />
		<tag k="name:smj" v="Gihtsenjoasske" />
		<tag k="natural" v="valley" />
		<tag k="old_name:smj" v="Gihcinjoaski" />
		<tag k="place" v="locality" />
		<tag k="ssr:stedsnr" v="502645" />
	</node>
	<node id="-691275" lat="68.0999277786" lon="16.0778694549">
		<tag k="name" v="Kjerrdalen" />
		<tag k="name:no" v="Kjerrdalen" />
		<tag k="natural" v="valley" />
		<tag k="place" v="locality" />
		<tag k="ssr:stedsnr" v="502638" />
	</node>
	<node id="-691274" lat="68.0896416642" lon="15.994705558">
		<tag k="fixme" v="consider natural=peak for the most distinct mountains in the district" />
		<tag k="name" v="Tjáhppisbákte - Svarthammaren" />
		<tag k="name:no" v="Svarthammaren" />
		<tag k="name:smj" v="Tjáhppisbákte" />
		<tag k="natural" v="hill" />
		<tag k="place" v="locality" />
		<tag k="ssr:stedsnr" v="502632" />
	</node>
	<node id="-691270" lat="68.1085111114" lon="16.7058611097">
		<tag k="fixme" v="consider natural=peak for the most distinct mountains in the district" />
		<tag k="name" v="Straumtinden" />
		<tag k="name:no" v="Straumtinden" />
		<tag k="natural" v="hill" />
		<tag k="place" v="locality" />
		<tag k="ssr:stedsnr" v="502580" />
	</node>
	<node id="-691267" lat="68.111811107" lon="16.5592083307">
		<tag k="name" v="Forhaugdalen" />
		<tag k="name:no" v="Forhaugdalen" />
		<tag k="natural" v="valley" />
		<tag k="place" v="locality" />
		<tag k="ssr:stedsnr" v="502570" />
	</node>
	<node id="-691266" lat="68.1144694476" lon="16.7865416649">
		<tag k="fixme" v="consider natural=peak for the most distinct mountains in the district" />
		<tag k="name" v="Gámalåptvárre" />
		<tag k="name:smj" v="Gámalåptvárre" />
		<tag k="natural" v="hill" />
		<tag k="old_name:smj" v="Gamaloptvarri" />
		<tag k="place" v="locality" />
		<tag k="ssr:stedsnr" v="502567" />
	</node>
	<node id="-691258" lat="68.0095444418" lon="16.0624916754">
		<tag k="fixme" v="consider natural=peak for the most distinct mountains in the district" />
		<tag k="name" v="Myrjåkkåsen" />
		<tag k="name:no" v="Myrjåkkåsen" />
		<tag k="natural" v="hill" />
		<tag k="place" v="locality" />
		<tag k="ssr:stedsnr" v="502539" />
	</node>
	<node id="-691255" lat="68.0368833343" lon="16.3661555512">
		<tag k="name" v="Johaugen" />
		<tag k="name:no" v="Johaugen" />
		<tag k="natural" v="hill" />
		<tag k="place" v="locality" />
		<tag k="ssr:stedsnr" v="502522" />
	</node>
	<node id="-691254" lat="68.0342055589" lon="16.6228194564">
		<tag k="name" v="Gjuvet" />
		<tag k="name:no" v="Gjuvet" />
		<tag k="natural" v="gorge" />
		<tag k="ssr:stedsnr" v="502519" />
	</node>
	<node id="-691253" lat="68.0249111098" lon="16.6500833335">
		<tag k="fixme" v="consider natural=peak for the most distinct mountains in the district" />
		<tag k="name" v="Riddabårre" />
		<tag k="name:smj" v="Riddabårre" />
		<tag k="natural" v="hill" />
		<tag k="old_name:smj" v="Riddaborri" />
		<tag k="place" v="locality" />
		<tag k="ssr:stedsnr" v="502518" />
	</node>
	<node id="-691251" lat="68.2262861073" lon="16.5598722308">
		<tag k="fixme" v="consider natural=peak for the most distinct mountains in the district" />
		<tag k="name" v="Kobbenestinden" />
		<tag k="name:no" v="Kobbenestinden" />
		<tag k="natural" v="hill" />
		<tag k="place" v="locality" />
		<tag k="ssr:stedsnr" v="502507" />
	</node>
	<node id="-691250" lat="68.0521388849" lon="16.2939027834">
		<tag k="name" v="Badjesoabmo - Øversåma" />
		<tag k="name:no" v="Øversåma" />
		<tag k="name:smj" v="Badjesoabmo" />
		<tag k="natural" v="hill" />
		<tag k="old_name:smj" v="Badjesoapmu" />
		<tag k="place" v="locality" />
		<tag k="ssr:stedsnr" v="502508" />
	</node>
	<node id="-691247" lat="67.8341472186" lon="16.1532527835">
		<tag k="fixme" v="consider natural=peak for the most distinct mountains in the district" />
		<tag k="name" v="Goajvovárre - Rekvassfjellet" />
		<tag k="name:no" v="Rekvassfjellet" />
		<tag k="name:smj" v="Goajvovárre" />
		<tag k="natural" v="hill" />
		<tag k="old_name:smj" v="Goaivovárri" />
		<tag k="place" v="locality" />
		<tag k="ssr:stedsnr" v="502487" />
	</node>
	<node id="-691245" lat="67.8671500009" lon="16.6921027753">
		<tag k="fixme" v="consider natural=peak for the most distinct mountains in the district" />
		<tag k="name" v="Sválasvágtjåhkkå" />
		<tag k="name:smj" v="Sválasvágtjåhkkå" />
		<tag k="natural" v="hill" />
		<tag k="old_name:smj" v="Sválesvákkečohkka;Sválesváktjåhkkå" />
		<tag k="place" v="locality" />
		<tag k="ssr:stedsnr" v="502365" />
	</node>
	<node id="-691244" lat="67.8509472261" lon="16.294602776">
		<tag k="name" v="Vásjágåhpe" />
		<tag k="name:smj" v="Vásjágåhpe" />
		<tag k="natural" v="valley" />
		<tag k="old_name:smj" v="Vásjágåphe;Váššagohpi;Váššjagåhpe" />
		<tag k="place" v="locality" />
		<tag k="ssr:stedsnr" v="502356" />
	</node>
	<node id="-691238" lat="67.8239722227" lon="16.543713885">
		<tag k="fixme" v="consider natural=peak for the most distinct mountains in the district" />
		<tag k="name" v="Vuodnabattjåhkkå" />
		<tag k="name:smj" v="Vuodnabattjåhkkå" />
		<tag k="natural" v="hill" />
		<tag k="place" v="locality" />
		<tag k="ssr:stedsnr" v="502339" />
	</node>
	<node id="-691237" lat="67.933627774" lon="16.5477999968">
		<tag k="alt_name:smj" v="Biertnačohkka" />
		<tag k="fixme" v="consider natural=peak for the most distinct mountains in the district" />
		<tag k="name" v="Biertnatjåhkkå" />
		<tag k="name:smj" v="Biertnatjåhkkå" />
		<tag k="natural" v="hill" />
		<tag k="place" v="locality" />
		<tag k="ssr:stedsnr" v="502332" />
	</node>
	<node id="-691234" lat="67.8886388854" lon="16.6230944327">
		<tag k="name" v="Årojriehppe" />
		<tag k="name:smj" v="Årojriehppe" />
		<tag k="natural" v="valley" />
		<tag k="old_name:smj" v="Oruiriehppi" />
		<tag k="place" v="locality" />
		<tag k="ssr:stedsnr" v="502289" />
	</node>
	<node id="-691233" lat="67.9798250018" lon="16.6240083378">
		<tag k="fixme" v="consider natural=peak for the most distinct mountains in the district" />
		<tag k="name" v="Mannfjellet" />
		<tag k="name:no" v="Mannfjellet" />
		<tag k="natural" v="hill" />
		<tag k="place" v="locality" />
		<tag k="ssr:stedsnr" v="502284" />
	</node>
	<node id="-691226" lat="67.7885138883" lon="16.4323805581">
		<tag k="fixme" v="consider natural=peak for the most distinct mountains in the district" />
		<tag k="name" v="Biekkertvárre" />
		<tag k="name:smj" v="Biekkertvárre" />
		<tag k="natural" v="hill" />
		<tag k="old_name:smj" v="Biekkertvárri" />
		<tag k="place" v="locality" />
		<tag k="ssr:stedsnr" v="502135" />
	</node>
	<node id="-691223" lat="67.815783334" lon="16.3610166546">
		<tag k="name" v="Hujtak" />
		<tag k="name:smj" v="Hujtak" />
		<tag k="natural" v="valley" />
		<tag k="old_name:smj" v="Huittag" />
		<tag k="place" v="locality" />
		<tag k="ssr:stedsnr" v="502114" />
	</node>
	<node id="-691219" lat="68.2267416708" lon="16.1968861113">
		<tag k="fixme" v="consider natural=peak for the most distinct mountains in the district" />
		<tag k="name" v="Ramneflåget" />
		<tag k="name:no" v="Ramneflåget" />
		<tag k="natural" v="hill" />
		<tag k="place" v="locality" />
		<tag k="ssr:stedsnr" v="467429" />
	</node>
	<node id="-691214" lat="67.6975416704" lon="16.577250007">
		<tag k="name" v="Ruonasnjoasske" />
		<tag k="name:smj" v="Ruonasnjoasske" />
		<tag k="natural" v="valley" />
		<tag k="old_name:smj" v="Ruonasnjoaski" />
		<tag k="place" v="locality" />
		<tag k="ssr:stedsnr" v="456642" />
	</node>
	<node id="-691212" lat="68.1127805531" lon="16.0995861178">
		<tag k="name" v="Gamman" />
		<tag k="name:no" v="Gamman" />
		<tag k="natural" v="slope" />
		<tag k="place" v="locality" />
		<tag k="ssr:stedsnr" v="447511" />
	</node>
	<node id="-691210" lat="68.2478722226" lon="16.3964888963">
		<tag k="name" v="Kjølen" />
		<tag k="name:no" v="Kjølen" />
		<tag k="natural" v="ridge" />
		<tag k="place" v="locality" />
		<tag k="ssr:stedsnr" v="446989" />
	</node>
	<node id="-691206" lat="68.2365166654" lon="16.2135833428">
		<tag k="name" v="Leverhaugen" />
		<tag k="name:no" v="Leverhaugen" />
		<tag k="natural" v="hill" />
		<tag k="place" v="locality" />
		<tag k="ssr:stedsnr" v="446953" />
	</node>
	<node id="-691205" lat="68.2184750005" lon="16.2244944458">
		<tag k="name" v="Sommarfjøshågen" />
		<tag k="name:no" v="Sommarfjøshågen" />
		<tag k="natural" v="hill" />
		<tag k="place" v="locality" />
		<tag k="ssr:stedsnr" v="446946" />
	</node>
	<node id="-691186" lat="68.0467666662" lon="16.0521194337">
		<tag k="name" v="Banen" />
		<tag k="name:no" v="Banen" />
		<tag k="place" v="locality" />
		<tag k="ssr:stedsnr" v="446684" />
	</node>
	<node id="-691184" lat="68.1348527788" lon="16.0928888807">
		<tag k="name" v="Storhågen" />
		<tag k="name:no" v="Storhågen" />
		<tag k="natural" v="hill" />
		<tag k="place" v="locality" />
		<tag k="ssr:stedsnr" v="446624" />
	</node>
	<node id="-691183" lat="68.1231916683" lon="16.044969443">
		<tag k="name" v="Áhkásåkhågen" />
		<tag k="name:no" v="Áhkásåkhågen" />
		<tag k="natural" v="hill" />
		<tag k="place" v="locality" />
		<tag k="ssr:stedsnr" v="446625" />
	</node>
	<node id="-691179" lat="67.8837249983" lon="16.2564666767">
		<tag k="name" v="Bårjåsnjárgrågge" />
		<tag k="name:smj" v="Bårjåsnjárgrågge" />
		<tag k="natural" v="valley" />
		<tag k="place" v="locality" />
		<tag k="ssr:stedsnr" v="446604" />
	</node>
	<node id="-691177" lat="68.0267916702" lon="16.1117694362">
		<tag k="name" v="Dumberget" />
		<tag k="name:no" v="Dumberget" />
		<tag k="natural" v="hill" />
		<tag k="place" v="locality" />
		<tag k="ssr:stedsnr" v="446582" />
	</node>
	<node id="-691176" lat="68.1538277814" lon="16.0569888904">
		<tag k="fixme" v="multiple name tags, choose one and add the other to alt_name" />
		<tag k="name" v="Grønnhola;Sandvasshola" />
		<tag k="name:no" v="Grønnhola;Sandvasshola" />
		<tag k="natural" v="valley" />
		<tag k="place" v="locality" />
		<tag k="ssr:stedsnr" v="446572" />
	</node>
	<node id="-691175" lat="68.1462472256" lon="16.0815916563">
		<tag k="name" v="Bukkhågen" />
		<tag k="name:no" v="Bukkhågen" />
		<tag k="natural" v="hill" />
		<tag k="place" v="locality" />
		<tag k="ssr:stedsnr" v="446569" />
	</node>
	<node id="-691173" lat="68.0156833369" lon="16.1431666774">
		<tag k="name" v="Storkruna" />
		<tag k="name:no" v="Storkruna" />
		<tag k="natural" v="hill" />
		<tag k="place" v="locality" />
		<tag k="ssr:stedsnr" v="446563" />
	</node>
	<node id="-691171" lat="68.2417972265" lon="16.0105111121">
		<tag k="fixme" v="consider natural=peak for the most distinct mountains in the district" />
		<tag k="name" v="Karilian" />
		<tag k="name:no" v="Karilian" />
		<tag k="natural" v="hill" />
		<tag k="place" v="locality" />
		<tag k="ssr:stedsnr" v="446521" />
	</node>
	<node id="-691163" lat="68.0769500012" lon="15.9445583348">
		<tag k="fixme" v="consider natural=peak for the most distinct mountains in the district" />
		<tag k="name" v="Tjukkskjømningen" />
		<tag k="name:no" v="Tjukkskjømningen" />
		<tag k="natural" v="hill" />
		<tag k="place" v="locality" />
		<tag k="ssr:stedsnr" v="442642" />
	</node>
	<node id="-691162" lat="67.95026944" lon="16.20288889">
		<tag k="name" v="Tjuhppa" />
		<tag k="name:smj" v="Tjuhppa" />
		<tag k="old_name:smj" v="Čuhppa" />
		<tag k="place" v="locality" />
		<tag k="ssr:stedsnr" v="442633" />
	</node>
	<node id="-691161" lat="68.0616333316" lon="16.0409694336">
		<tag k="name" v="Nekkateltet" />
		<tag k="name:no" v="Nekkateltet" />
		<tag k="natural" v="hill" />
		<tag k="place" v="locality" />
		<tag k="ssr:stedsnr" v="442594" />
	</node>
	<node id="-691157" lat="68.1339527745" lon="16.3250610986">
		<tag k="fixme" v="consider natural=peak for the most distinct mountains in the district" />
		<tag k="name" v="Gielkávárre - Kjelkvikfjellet" />
		<tag k="name:no" v="Kjelkvikfjellet" />
		<tag k="name:smj" v="Gielkávárre" />
		<tag k="natural" v="hill" />
		<tag k="place" v="locality" />
		<tag k="ssr:stedsnr" v="442559" />
	</node>
	<node id="-691155" lat="68.0167972263" lon="16.1341916775">
		<tag k="fixme" v="consider natural=peak for the most distinct mountains in the district" />
		<tag k="name" v="Ájlátvárre - Hellandstuva" />
		<tag k="name:no" v="Hellandstuva" />
		<tag k="name:smj" v="Ájlátvárre" />
		<tag k="natural" v="hill" />
		<tag k="place" v="locality" />
		<tag k="ssr:stedsnr" v="442540" />
	</node>
	<node id="-691151" lat="68.039077779" lon="16.505969454">
		<tag k="fixme" v="consider natural=peak for the most distinct mountains in the district" />
		<tag k="name" v="Nordfjellet" />
		<tag k="name:no" v="Nordfjellet" />
		<tag k="natural" v="hill" />
		<tag k="place" v="locality" />
		<tag k="ssr:stedsnr" v="442522" />
	</node>
	<node id="-691150" lat="68.0540388909" lon="16.5691472311">
		<tag k="fixme" v="consider natural=peak for the most distinct mountains in the district" />
		<tag k="name" v="Mølnelvtinden" />
		<tag k="name:no" v="Mølnelvtinden" />
		<tag k="natural" v="hill" />
		<tag k="place" v="locality" />
		<tag k="ssr:stedsnr" v="442515" />
	</node>
	<node id="-691143" lat="67.8823249996" lon="16.5204166725">
		<tag k="name" v="Benagåhpe" />
		<tag k="name:smj" v="Benagåhpe" />
		<tag k="natural" v="valley" />
		<tag k="old_name:smj" v="Beanagohpi" />
		<tag k="place" v="locality" />
		<tag k="ssr:stedsnr" v="442342" />
	</node>
	<node id="-691138" lat="67.7251388897" lon="16.5056694417">
		<tag k="name" v="Ruonasvágge" />
		<tag k="name:smj" v="Ruonasvágge" />
		<tag k="natural" v="valley" />
		<tag k="old_name:smj" v="Ruonasvággi" />
		<tag k="place" v="locality" />
		<tag k="ssr:stedsnr" v="441654" />
	</node>
	<node id="-691133" lat="68.0680333299" lon="16.4835694325">
		<tag k="fixme" v="consider natural=peak for the most distinct mountains in the district" />
		<tag k="name" v="Guomojtjåhkkå - Spisstinden" />
		<tag k="name:no" v="Spisstinden" />
		<tag k="name:smj" v="Guomojtjåhkkå" />
		<tag k="natural" v="hill" />
		<tag k="old_name:smj" v="Guomočohkka" />
		<tag k="place" v="locality" />
		<tag k="ssr:stedsnr" v="441564" />
	</node>
	<node id="-691132" lat="68.0814249967" lon="16.4404999974">
		<tag k="name" v="Nesflata" />
		<tag k="name:no" v="Nesflata" />
		<tag k="place" v="locality" />
		<tag k="ssr:stedsnr" v="441556" />
	</node>
	<node id="-691131" lat="68.0732361073" lon="16.7114555492">
		<tag k="fixme" v="consider natural=peak for the most distinct mountains in the district" />
		<tag k="name" v="Bieggeluovtvárre - Buktafjellet" />
		<tag k="name:no" v="Buktafjellet" />
		<tag k="name:smj" v="Bieggeluovtvárre" />
		<tag k="natural" v="hill" />
		<tag k="place" v="locality" />
		<tag k="ssr:stedsnr" v="441551" />
	</node>
	<node id="-691126" lat="68.2009916692" lon="16.5570222103">
		<tag k="fixme" v="consider natural=peak for the most distinct mountains in the district" />
		<tag k="name" v="Kistbotnfjellet" />
		<tag k="name:no" v="Kistbotnfjellet" />
		<tag k="natural" v="hill" />
		<tag k="place" v="locality" />
		<tag k="ssr:stedsnr" v="441524" />
	</node>
	<node id="-691122" lat="67.8578749998" lon="16.212444449">
		<tag k="fixme" v="consider natural=peak for the most distinct mountains in the district" />
		<tag k="name" v="Sjnjáhttja" />
		<tag k="name:smj" v="Sjnjáhttja" />
		<tag k="natural" v="hill" />
		<tag k="old_name:smj" v="Goigečohkka" />
		<tag k="place" v="locality" />
		<tag k="ssr:stedsnr" v="441439" />
	</node>
	<node id="-691117" lat="67.9923416704" lon="16.3810833297">
		<tag k="fixme" v="consider natural=peak for the most distinct mountains in the district" />
		<tag k="name" v="Lossviktinden" />
		<tag k="name:no" v="Lossviktinden" />
		<tag k="natural" v="hill" />
		<tag k="place" v="locality" />
		<tag k="ssr:stedsnr" v="441293" />
	</node>
	<node id="-691113" lat="67.9684666639" lon="16.6288833381">
		<tag k="fixme" v="consider natural=peak for the most distinct mountains in the district" />
		<tag k="name" v="Tverrfjellet" />
		<tag k="name:no" v="Tverrfjellet" />
		<tag k="natural" v="hill" />
		<tag k="place" v="locality" />
		<tag k="ssr:stedsnr" v="441276" />
	</node>
	<node id="-691112" lat="67.7880444423" lon="16.6110999946">
		<tag k="fixme" v="consider natural=peak for the most distinct mountains in the district" />
		<tag k="name" v="Tjårok" />
		<tag k="name:smj" v="Tjårok" />
		<tag k="natural" v="hill" />
		<tag k="old_name:smj" v="Čoruk" />
		<tag k="place" v="locality" />
		<tag k="ssr:stedsnr" v="441146" />
	</node>
	<node id="-691111" lat="67.7991944442" lon="16.5754083416">
		<tag k="name" v="Soahkegåhpe" />
		<tag k="name:smj" v="Soahkegåhpe" />
		<tag k="natural" v="valley" />
		<tag k="place" v="locality" />
		<tag k="ssr:stedsnr" v="441141" />
	</node>
	<node id="-691110" lat="67.8034305562" lon="16.2451638805">
		<tag k="fixme" v="consider natural=peak for the most distinct mountains in the district" />
		<tag k="name" v="Juvvánistjåhkkå" />
		<tag k="name:smj" v="Juvvánistjåhkkå" />
		<tag k="natural" v="hill" />
		<tag k="old_name:smj" v="Juvvanisčohkka" />
		<tag k="place" v="locality" />
		<tag k="ssr:stedsnr" v="441134" />
	</node>
	<node id="-691109" lat="67.8090527795" lon="16.6041138774">
		<tag k="name" v="Kanonen" />
		<tag k="name:no" v="Kanonen" />
		<tag k="place" v="locality" />
		<tag k="ssr:stedsnr" v="441133" />
	</node>
	<node id="-691103" lat="68.1274777792" lon="16.3160027659">
		<tag k="name" v="Fredagsvikdalen" />
		<tag k="name:no" v="Fredagsvikdalen" />
		<tag k="natural" v="valley" />
		<tag k="place" v="locality" />
		<tag k="ssr:stedsnr" v="264959" />
	</node>
	<node id="-691102" lat="68.225161109" lon="16.2372916573">
		<tag k="name" v="Trettarbakken" />
		<tag k="name:no" v="Trettarbakken" />
		<tag k="natural" v="slope" />
		<tag k="place" v="locality" />
		<tag k="ssr:stedsnr" v="264955" />
	</node>
	<node id="-691101" lat="68.1467027809" lon="16.273208323">
		<tag k="name" v="Lemman" />
		<tag k="name:no" v="Lemman" />
		<tag k="natural" v="hill" />
		<tag k="place" v="locality" />
		<tag k="ssr:stedsnr" v="264951" />
	</node>
	<node id="-691100" lat="68.2328111072" lon="16.204658339">
		<tag k="name" v="Dymyrstrupen" />
		<tag k="name:no" v="Dymyrstrupen" />
		<tag k="natural" v="valley" />
		<tag k="place" v="locality" />
		<tag k="ssr:stedsnr" v="264942" />
	</node>
	<node id="-691098" lat="67.8202638873" lon="16.5178166679">
		<tag k="name" v="Jalgasj" />
		<tag k="name:smj" v="Jalgasj" />
		<tag k="natural" v="slope" />
		<tag k="place" v="locality" />
		<tag k="ssr:stedsnr" v="264918" />
	</node>
	<node id="-691093" lat="67.9782333373" lon="16.2836305508">
		<tag k="name" v="Oajvásj" />
		<tag k="name:smj" v="Oajvásj" />
		<tag k="natural" v="hill" />
		<tag k="place" v="locality" />
		<tag k="ssr:stedsnr" v="264895" />
	</node>
	<node id="-691091" lat="68.0577777747" lon="16.6571805425">
		<tag k="name" v="Lia" />
		<tag k="name:no" v="Lia" />
		<tag k="natural" v="slope" />
		<tag k="place" v="locality" />
		<tag k="ssr:stedsnr" v="264802" />
	</node>
	<node id="-691087" lat="68.197463892" lon="16.4636027788">
		<tag k="name" v="Teistberget" />
		<tag k="name:no" v="Teistberget" />
		<tag k="natural" v="hill" />
		<tag k="place" v="locality" />
		<tag k="ssr:stedsnr" v="264779" />
	</node>
	<node id="-691086" lat="68.128411112" lon="16.4276583251">
		<tag k="name" v="Rabben" />
		<tag k="name:no" v="Rabben" />
		<tag k="natural" v="hill" />
		<tag k="place" v="locality" />
		<tag k="ssr:stedsnr" v="264758" />
	</node>
	<node id="-691080" lat="68.2190361097" lon="16.0529805513">
		<tag k="name" v="Forrhågen" />
		<tag k="name:no" v="Forrhågen" />
		<tag k="natural" v="hill" />
		<tag k="place" v="locality" />
		<tag k="ssr:stedsnr" v="264695" />
	</node>
	<node id="-691079" lat="68.0653277774" lon="16.4055360994">
		<tag k="fixme" v="consider natural=peak for the most distinct mountains in the district" />
		<tag k="name" v="Storåfjellet" />
		<tag k="name:no" v="Storåfjellet" />
		<tag k="natural" v="hill" />
		<tag k="place" v="locality" />
		<tag k="ssr:stedsnr" v="264684" />
	</node>
	<node id="-691078" lat="68.0599500026" lon="16.3872611139">
		<tag k="name" v="Mølnvikskaret" />
		<tag k="name:no" v="Mølnvikskaret" />
		<tag k="natural" v="valley" />
		<tag k="place" v="locality" />
		<tag k="ssr:stedsnr" v="264677" />
	</node>
	<node id="-691076" lat="68.0432472251" lon="16.0720416736">
		<tag k="name" v="Hamnhågen" />
		<tag k="name:no" v="Hamnhågen" />
		<tag k="natural" v="hill" />
		<tag k="place" v="locality" />
		<tag k="ssr:stedsnr" v="264648" />
	</node>
	<node id="-691073" lat="68.0934638854" lon="16.0710527671">
		<tag k="name" v="Hesthågen" />
		<tag k="name:no" v="Hesthågen" />
		<tag k="natural" v="hill" />
		<tag k="place" v="locality" />
		<tag k="ssr:stedsnr" v="264573" />
	</node>
	<node id="-691067" lat="68.1456166688" lon="16.0363972108">
		<tag k="name" v="Skavhola" />
		<tag k="name:no" v="Skavhola" />
		<tag k="natural" v="valley" />
		<tag k="place" v="locality" />
		<tag k="ssr:stedsnr" v="264557" />
	</node>
	<node id="-691060" lat="68.1743055595" lon="16.1010249894">
		<tag k="name" v="Veddalen" />
		<tag k="name:no" v="Veddalen" />
		<tag k="natural" v="valley" />
		<tag k="place" v="locality" />
		<tag k="ssr:stedsnr" v="260793" />
	</node>
	<node id="-691056" lat="67.9381777759" lon="16.096533325">
		<tag k="fixme" v="consider natural=peak for the most distinct mountains in the district" />
		<tag k="name" v="Ruogovárre" />
		<tag k="name:smj" v="Ruogovárre" />
		<tag k="natural" v="hill" />
		<tag k="old_name:smj" v="Ruogovárri" />
		<tag k="place" v="locality" />
		<tag k="ssr:stedsnr" v="260652" />
	</node>
	<node id="-691052" lat="67.8705138898" lon="16.2957555516">
		<tag k="name" v="Fádnoalgge" />
		<tag k="name:smj" v="Fádnoalgge" />
		<tag k="natural" v="ridge" />
		<tag k="old_name:smj" v="Fádnoalgi" />
		<tag k="place" v="locality" />
		<tag k="ssr:stedsnr" v="260405" />
	</node>
	<node id="-691051" lat="67.8771333334" lon="16.2773999938">
		<tag k="name" v="Tjuoldrijdda" />
		<tag k="name:smj" v="Tjuoldrijdda" />
		<tag k="natural" v="slope" />
		<tag k="old_name:smj" v="Čuoldariida" />
		<tag k="place" v="locality" />
		<tag k="ssr:stedsnr" v="260401" />
	</node>
	<node id="-691049" lat="67.8589722248" lon="16.550922217">
		<tag k="fixme" v="consider natural=peak for the most distinct mountains in the district" />
		<tag k="name" v="Tjielumtjåhkkå" />
		<tag k="name:smj" v="Tjielumtjåhkkå" />
		<tag k="natural" v="hill" />
		<tag k="old_name:smj" v="Čielomčohkka" />
		<tag k="place" v="locality" />
		<tag k="ssr:stedsnr" v="260395" />
	</node>
	<node id="-691043" lat="67.8880305548" lon="16.3413972209">
		<tag k="name" v="Æhpárijgurssjo" />
		<tag k="name:smj" v="Æhpárijgurssjo" />
		<tag k="natural" v="gorge" />
		<tag k="old_name:smj" v="Eahpariiguršu" />
		<tag k="ssr:stedsnr" v="260360" />
	</node>
	<node id="-691042" lat="67.878952778" lon="16.2344333272">
		<tag k="fixme" v="consider natural=peak for the most distinct mountains in the district" />
		<tag k="name" v="Bårjåsnjárgvárre" />
		<tag k="name:smj" v="Bårjåsnjárgvárre" />
		<tag k="natural" v="hill" />
		<tag k="place" v="locality" />
		<tag k="ssr:stedsnr" v="260359" />
	</node>
	<node id="-691034" lat="68.0707861148" lon="16.9051388819">
		<tag k="fixme" v="consider natural=peak for the most distinct mountains in the district" />
		<tag k="name" v="Fonntinden" />
		<tag k="name:no" v="Fonntinden" />
		<tag k="natural" v="hill" />
		<tag k="place" v="locality" />
		<tag k="ssr:stedsnr" v="259657" />
	</node>
	<node id="-691032" lat="68.0556222215" lon="16.029652775">
		<tag k="name" v="Stordalen" />
		<tag k="name:no" v="Stordalen" />
		<tag k="natural" v="valley" />
		<tag k="place" v="locality" />
		<tag k="ssr:stedsnr" v="259601" />
	</node>
	<node id="-691024" lat="68.0446416684" lon="16.0098833348">
		<tag k="name" v="Lakshågen" />
		<tag k="name:no" v="Lakshågen" />
		<tag k="natural" v="hill" />
		<tag k="place" v="locality" />
		<tag k="ssr:stedsnr" v="259603" />
	</node>
	<node id="-691023" lat="68.0571972228" lon="16.5026944558">
		<tag k="fixme" v="consider natural=peak for the most distinct mountains in the district" />
		<tag k="name" v="Vájsátjåhkkå" />
		<tag k="name:smj" v="Vájsátjåhkkå" />
		<tag k="natural" v="hill" />
		<tag k="old_name:smj" v="Váisačohkka" />
		<tag k="place" v="locality" />
		<tag k="ssr:stedsnr" v="259489" />
	</node>
	<node id="-691016" lat="68.0792138862" lon="16.6830944387">
		<tag k="fixme" v="consider natural=peak for the most distinct mountains in the district" />
		<tag k="name" v="Roavvevárre - Råvifjellet" />
		<tag k="name:no" v="Råvifjellet" />
		<tag k="name:smj" v="Roavvevárre" />
		<tag k="natural" v="hill" />
		<tag k="place" v="locality" />
		<tag k="ssr:stedsnr" v="259534" />
	</node>
	<node id="-691010" lat="67.9839638871" lon="16.562755565">
		<tag k="fixme" v="consider natural=peak for the most distinct mountains in the district" />
		<tag k="name" v="Tjårro - Lemåsen" />
		<tag k="name:no" v="Lemåsen" />
		<tag k="name:smj" v="Tjårro" />
		<tag k="natural" v="hill" />
		<tag k="old_name:smj" v="Čorru" />
		<tag k="place" v="locality" />
		<tag k="ssr:stedsnr" v="259288" />
	</node>
	<node id="-691009" lat="67.9886083336" lon="16.5411833253">
		<tag k="name" v="Vuollegåhpe - Nergåppe" />
		<tag k="name:no" v="Nergåppe" />
		<tag k="name:smj" v="Vuollegåhpe" />
		<tag k="natural" v="valley" />
		<tag k="old_name:smj" v="Vuollegohpi" />
		<tag k="place" v="locality" />
		<tag k="ssr:stedsnr" v="259286" />
	</node>
	<node id="-691005" lat="67.9625583323" lon="16.4763194414">
		<tag k="name" v="Rudnávuonájdde - Eidet" />
		<tag k="name:no" v="Eidet" />
		<tag k="name:smj" v="Rudnávuonájdde" />
		<tag k="natural" v="valley" />
		<tag k="place" v="locality" />
		<tag k="ssr:stedsnr" v="259260" />
	</node>
	<node id="-691004" lat="67.9584527752" lon="16.5171138806">
		<tag k="name" v="Ájdetjårro - Eidryggen" />
		<tag k="name:no" v="Eidryggen" />
		<tag k="name:smj" v="Ájdetjårro" />
		<tag k="natural" v="ridge" />
		<tag k="place" v="locality" />
		<tag k="ssr:stedsnr" v="259255" />
	</node>
	<node id="-691001" lat="68.2301444418" lon="16.2040027872">
		<tag k="name" v="Skardberget" />
		<tag k="name:no" v="Skardberget" />
		<tag k="natural" v="hill" />
		<tag k="place" v="locality" />
		<tag k="ssr:stedsnr" v="234843" />
	</node>
	<node id="-690993" lat="68.0510027806" lon="16.3630333241">
		<tag k="name" v="Mosshågen" />
		<tag k="name:no" v="Mosshågen" />
		<tag k="natural" v="hill" />
		<tag k="place" v="locality" />
		<tag k="ssr:stedsnr" v="221189" />
	</node>
	<node id="-690983" lat="68.1134444455" lon="16.3895583221">
		<tag k="name" v="Kuhola" />
		<tag k="name:no" v="Kuhola" />
		<tag k="natural" v="valley" />
		<tag k="place" v="locality" />
		<tag k="ssr:stedsnr" v="207563" />
	</node>
	<node id="-690977" lat="68.2346305572" lon="16.5012972199">
		<tag k="fixme" v="consider natural=peak for the most distinct mountains in the district" />
		<tag k="name" v="Blomholfjellet" />
		<tag k="name:no" v="Blomholfjellet" />
		<tag k="natural" v="hill" />
		<tag k="place" v="locality" />
		<tag k="ssr:stedsnr" v="204754" />
	</node>
	<node id="-690974" lat="68.1319833372" lon="16.4314583419">
		<tag k="name" v="Strengtinden" />
		<tag k="name:no" v="Strengtinden" />
		<tag k="natural" v="hill" />
		<tag k="place" v="locality" />
		<tag k="ssr:stedsnr" v="204724" />
	</node>
	<node id="-690972" lat="68.2345888914" lon="15.9467194409">
		<tag k="name" v="Botelsletta" />
		<tag k="name:no" v="Botelsletta" />
		<tag k="place" v="locality" />
		<tag k="ssr:stedsnr" v="204696" />
	</node>
	<node id="-690964" lat="68.0189722237" lon="16.1244194554">
		<tag k="name" v="Øver-Sennskaret" />
		<tag k="name:no" v="Øver-Sennskaret" />
		<tag k="natural" v="valley" />
		<tag k="place" v="locality" />
		<tag k="ssr:stedsnr" v="204528" />
	</node>
	<node id="-690963" lat="68.1013749984" lon="16.0842222229">
		<tag k="name" v="Vassbakkan" />
		<tag k="name:no" v="Vassbakkan" />
		<tag k="natural" v="slope" />
		<tag k="place" v="locality" />
		<tag k="ssr:stedsnr" v="204506" />
	</node>
	<node id="-690961" lat="67.8149305568" lon="16.5306861099">
		<tag k="name" v="Doaresladnja" />
		<tag k="name:smj" v="Doaresladnja" />
		<tag k="place" v="locality" />
		<tag k="ssr:stedsnr" v="204936" />
	</node>
	<node id="-690960" lat="67.813283335" lon="16.5238083327">
		<tag k="name" v="Råhkabákte" />
		<tag k="name:smj" v="Råhkabákte" />
		<tag k="natural" v="hill" />
		<tag k="place" v="locality" />
		<tag k="ssr:stedsnr" v="204923" />
	</node>
	<node id="-690959" lat="68.0427249963" lon="16.0037805579">
		<tag k="name" v="Lapplægeret" />
		<tag k="name:no" v="Lapplægeret" />
		<tag k="place" v="locality" />
		<tag k="ssr:stedsnr" v="203813" />
	</node>
	<node id="-690958" lat="68.0396583331" lon="16.0274666747">
		<tag k="name" v="Litlbakkan" />
		<tag k="name:no" v="Litlbakkan" />
		<tag k="natural" v="slope" />
		<tag k="place" v="locality" />
		<tag k="ssr:stedsnr" v="203810" />
	</node>
	<node id="-690956" lat="68.1417333325" lon="16.0918555583">
		<tag k="name" v="Litl-Bukkhågen" />
		<tag k="name:no" v="Litl-Bukkhågen" />
		<tag k="natural" v="hill" />
		<tag k="place" v="locality" />
		<tag k="ssr:stedsnr" v="203575" />
	</node>
	<node id="-690954" lat="68.2457777777" lon="15.9820805529">
		<tag k="name" v="Bjørndalen" />
		<tag k="name:no" v="Bjørndalen" />
		<tag k="natural" v="valley" />
		<tag k="place" v="locality" />
		<tag k="ssr:stedsnr" v="204464" />
	</node>
	<node id="-690952" lat="68.2591277789" lon="15.9752611038">
		<tag k="name" v="Nakken" />
		<tag k="name:no" v="Nakken" />
		<tag k="natural" v="ridge" />
		<tag k="place" v="locality" />
		<tag k="ssr:stedsnr" v="204442" />
	</node>
	<node id="-690951" lat="68.253830554" lon="15.9802138983">
		<tag k="name" v="Ånderdalsmoa" />
		<tag k="name:no" v="Ånderdalsmoa" />
		<tag k="place" v="locality" />
		<tag k="ssr:stedsnr" v="204440" />
	</node>
	<node id="-690949" lat="68.2099250016" lon="16.0000666569">
		<tag k="fixme" v="consider natural=peak for the most distinct mountains in the district" />
		<tag k="name" v="Solflogtuva" />
		<tag k="name:no" v="Solflogtuva" />
		<tag k="natural" v="hill" />
		<tag k="place" v="locality" />
		<tag k="ssr:stedsnr" v="199818" />
	</node>
	<node id="-690937" lat="68.2546583365" lon="16.4684611107">
		<tag k="fixme" v="consider natural=peak for the most distinct mountains in the district" />
		<tag k="name" v="Kulhornet" />
		<tag k="name:no" v="Kulhornet" />
		<tag k="natural" v="hill" />
		<tag k="old_name:no" v="Huglhornet" />
		<tag k="place" v="locality" />
		<tag k="ssr:stedsnr" v="199551" />
	</node>
	<node id="-690929" lat="68.0693111096" lon="16.7491888884">
		<tag k="alt_name:no" v="Nikkaknausen" />
		<tag k="name" v="Nekkaknausen" />
		<tag k="name:no" v="Nekkaknausen" />
		<tag k="natural" v="ridge" />
		<tag k="place" v="locality" />
		<tag k="ssr:stedsnr" v="199500" />
	</node>
	<node id="-690917" lat="67.9419000007" lon="16.3009305546">
		<tag k="name" v="Sávttsagåhpe" />
		<tag k="name:smj" v="Sávttsagåhpe" />
		<tag k="natural" v="valley" />
		<tag k="old_name:smj" v="Sávzagohpi" />
		<tag k="place" v="locality" />
		<tag k="ssr:stedsnr" v="199345" />
	</node>
	<node id="-690913" lat="67.9962777786" lon="16.4926527789">
		<tag k="fixme" v="consider natural=peak for the most distinct mountains in the district" />
		<tag k="name" v="Multinden" />
		<tag k="name:no" v="Multinden" />
		<tag k="natural" v="hill" />
		<tag k="place" v="locality" />
		<tag k="ssr:stedsnr" v="199309" />
	</node>
	<node id="-690912" lat="67.968388885" lon="16.6930055502">
		<tag k="fixme" v="consider natural=peak for the most distinct mountains in the district" />
		<tag k="name" v="Stuorskájdde" />
		<tag k="name:smj" v="Stuorskájdde" />
		<tag k="natural" v="hill" />
		<tag k="old_name:smj" v="Stuorskáidi" />
		<tag k="place" v="locality" />
		<tag k="ssr:stedsnr" v="199302" />
	</node>
	<node id="-690909" lat="67.8045027782" lon="16.5193000066">
		<tag k="name" v="Stuorlænndo" />
		<tag k="name:smj" v="Stuorlænndo" />
		<tag k="place" v="locality" />
		<tag k="ssr:stedsnr" v="199164" />
	</node>
	<node id="-690908" lat="67.8138166706" lon="16.6406333277">
		<tag k="name" v="Unna-Valdasj" />
		<tag k="name:smj" v="Unna-Valdasj" />
		<tag k="old_name:smj" v="Unnaválddaš" />
		<tag k="place" v="locality" />
		<tag k="ssr:stedsnr" v="199157" />
	</node>
	<node id="-690905" lat="68.1385944406" lon="16.2919416708">
		<tag k="fixme" v="consider natural=peak for the most distinct mountains in the district" />
		<tag k="name" v="Holmfjellet" />
		<tag k="name:no" v="Holmfjellet" />
		<tag k="natural" v="hill" />
		<tag k="place" v="locality" />
		<tag k="ssr:stedsnr" v="199641" />
	</node>
	<node id="-690903" lat="68.1818277749" lon="16.4935166731">
		<tag k="fixme" v="consider natural=peak for the most distinct mountains in the district" />
		<tag k="name" v="Gáktsavárre - Åttetinden" />
		<tag k="name:no" v="Åttetinden" />
		<tag k="name:smj" v="Gáktsavárre" />
		<tag k="natural" v="hill" />
		<tag k="place" v="locality" />
		<tag k="ssr:stedsnr" v="199604" />
	</node>
	<node id="-690902" lat="68.2782222191" lon="16.3049610993">
		<tag k="name" v="Vindskardet" />
		<tag k="name:no" v="Vindskardet" />
		<tag k="natural" v="valley" />
		<tag k="place" v="locality" />
		<tag k="ssr:stedsnr" v="198561" />
	</node>
	<node id="-690898" lat="68.0922083312" lon="16.6555416731">
		<tag k="name" v="Grindholtan" />
		<tag k="name:no" v="Grindholtan" />
		<tag k="place" v="locality" />
		<tag k="ssr:stedsnr" v="198522" />
	</node>
	<node id="-690896" lat="67.9077777736" lon="16.1415805614">
		<tag k="fixme" v="consider natural=peak for the most distinct mountains in the district" />
		<tag k="name" v="Smájlevárre" />
		<tag k="name:smj" v="Smájlevárre" />
		<tag k="natural" v="hill" />
		<tag k="old_name:smj" v="Smáilevárri" />
		<tag k="place" v="locality" />
		<tag k="ssr:stedsnr" v="198348" />
	</node>
	<node id="-690886" lat="68.2244416643" lon="16.3041027808">
		<tag k="name" v="Jeskauhågen" />
		<tag k="name:no" v="Jeskauhågen" />
		<tag k="natural" v="hill" />
		<tag k="place" v="locality" />
		<tag k="ssr:stedsnr" v="143986" />
	</node>
	<node id="-690881" lat="67.9526083356" lon="16.4925777851">
		<tag k="name" v="Duomokvágge - Durmodalen" />
		<tag k="name:no" v="Durmodalen" />
		<tag k="name:smj" v="Duomokvágge" />
		<tag k="natural" v="valley" />
		<tag k="place" v="locality" />
		<tag k="ssr:stedsnr" v="143915" />
	</node>
	<node id="-690880" lat="68.1353805593" lon="16.2567694498">
		<tag k="name" v="Gámá - Lappgamman" />
		<tag k="name:no" v="Lappgamman" />
		<tag k="name:smj" v="Gámá" />
		<tag k="place" v="locality" />
		<tag k="ssr:stedsnr" v="143898" />
	</node>
	<node id="-690878" lat="68.145327776" lon="16.2604416731">
		<tag k="name" v="Bryggberget" />
		<tag k="name:no" v="Bryggberget" />
		<tag k="natural" v="hill" />
		<tag k="place" v="locality" />
		<tag k="ssr:stedsnr" v="143888" />
	</node>
	<node id="-690876" lat="68.0927277813" lon="16.2565694334">
		<tag k="name" v="Arnberget" />
		<tag k="name:no" v="Arnberget" />
		<tag k="natural" v="hill" />
		<tag k="place" v="locality" />
		<tag k="ssr:stedsnr" v="143855" />
	</node>
	<node id="-690872" lat="68.1320027793" lon="16.4384805461">
		<tag k="name" v="Lavisfjellbergan" />
		<tag k="name:no" v="Lavisfjellbergan" />
		<tag k="natural" v="hill" />
		<tag k="place" v="locality" />
		<tag k="ssr:stedsnr" v="143738" />
	</node>
	<node id="-690870" lat="67.8887222207" lon="16.2168500068">
		<tag k="name" v="Bávtásj" />
		<tag k="name:smj" v="Bávtásj" />
		<tag k="natural" v="hill" />
		<tag k="place" v="locality" />
		<tag k="ssr:stedsnr" v="143595" />
	</node>
	<node id="-690869" lat="67.8839916669" lon="16.1983805523">
		<tag k="name" v="Hejdivierra" />
		<tag k="name:smj" v="Hejdivierra" />
		<tag k="natural" v="ridge" />
		<tag k="place" v="locality" />
		<tag k="ssr:stedsnr" v="143588" />
	</node>
	<node id="-690865" lat="67.8881000017" lon="16.2180333295">
		<tag k="name" v="Stuorlåpptå" />
		<tag k="name:smj" v="Stuorlåpptå" />
		<tag k="place" v="locality" />
		<tag k="ssr:stedsnr" v="143607" />
	</node>
	<node id="-690864" lat="67.8924055563" lon="16.2498527747">
		<tag k="name" v="Tjájndievvá" />
		<tag k="name:smj" v="Tjájndievvá" />
		<tag k="natural" v="hill" />
		<tag k="place" v="locality" />
		<tag k="ssr:stedsnr" v="143604" />
	</node>
	<node id="-690863" lat="68.1076166664" lon="16.0898666569">
		<tag k="name" v="Buollda - Falkhaldran" />
		<tag k="name:no" v="Falkhaldran" />
		<tag k="name:smj" v="Buollda" />
		<tag k="natural" v="hill" />
		<tag k="place" v="locality" />
		<tag k="ssr:stedsnr" v="143536" />
	</node>
	<node id="-690862" lat="68.1484277775" lon="16.0426722252">
		<tag k="name" v="Linhågen" />
		<tag k="name:no" v="Linhågen" />
		<tag k="natural" v="hill" />
		<tag k="place" v="locality" />
		<tag k="ssr:stedsnr" v="143554" />
	</node>
	<node id="-690861" lat="68.0822833305" lon="15.9899750092">
		<tag k="name" v="Moa" />
		<tag k="name:no" v="Moa" />
		<tag k="place" v="locality" />
		<tag k="ssr:stedsnr" v="143523" />
	</node>
	<node id="-690857" lat="68.0674333345" lon="16.4109000094">
		<tag k="name" v="Sørsida" />
		<tag k="name:no" v="Sørsida" />
		<tag k="natural" v="slope" />
		<tag k="place" v="locality" />
		<tag k="ssr:stedsnr" v="142692" />
	</node>
	<node id="-690850" lat="68.0150388876" lon="16.1526861043">
		<tag k="name" v="Kråa" />
		<tag k="name:no" v="Kråa" />
		<tag k="natural" v="valley" />
		<tag k="place" v="locality" />
		<tag k="ssr:stedsnr" v="142545" />
	</node>
	<node id="-690847" lat="68.224719447" lon="15.9630388944">
		<tag k="name" v="Kollbakkan" />
		<tag k="name:no" v="Kollbakkan" />
		<tag k="natural" v="hill" />
		<tag k="place" v="locality" />
		<tag k="ssr:stedsnr" v="142491" />
	</node>
	<node id="-690846" lat="68.2068249954" lon="16.0166277816">
		<tag k="name" v="Småvarden" />
		<tag k="name:no" v="Småvarden" />
		<tag k="natural" v="hill" />
		<tag k="place" v="locality" />
		<tag k="ssr:stedsnr" v="142487" />
	</node>
	<node id="-690842" lat="68.1208749987" lon="16.1024111097">
		<tag k="name" v="Hola" />
		<tag k="name:no" v="Hola" />
		<tag k="natural" v="valley" />
		<tag k="place" v="locality" />
		<tag k="ssr:stedsnr" v="142587" />
	</node>
	<node id="-690833" lat="68.0052527792" lon="16.5587944426">
		<tag k="fixme" v="consider natural=peak for the most distinct mountains in the district" />
		<tag k="name" v="Gåhpetjåhkkå" />
		<tag k="name:smj" v="Gåhpetjåhkkå" />
		<tag k="natural" v="hill" />
		<tag k="old_name:smj" v="Gohpečohkka" />
		<tag k="place" v="locality" />
		<tag k="ssr:stedsnr" v="138756" />
	</node>
	<node id="-690832" lat="68.0618499978" lon="17.0737694434">
		<tag k="fixme" v="consider natural=peak for the most distinct mountains in the district" />
		<tag k="name" v="Geittinden" />
		<tag k="name:no" v="Geittinden" />
		<tag k="natural" v="hill" />
		<tag k="place" v="locality" />
		<tag k="ssr:stedsnr" v="138687" />
	</node>
	<node id="-690830" lat="68.0026444469" lon="16.9978027752">
		<tag k="fixme" v="consider natural=peak for the most distinct mountains in the district" />
		<tag k="name" v="Noajdde" />
		<tag k="name:smj" v="Noajdde" />
		<tag k="natural" v="hill" />
		<tag k="old_name:smj" v="Noaide" />
		<tag k="place" v="locality" />
		<tag k="ssr:stedsnr" v="138681" />
	</node>
	<node id="-690829" lat="67.959986113" lon="16.1524861021">
		<tag k="fixme" v="consider natural=peak for the most distinct mountains in the district" />
		<tag k="name" v="Miesek" />
		<tag k="name:smj" v="Miesek" />
		<tag k="natural" v="hill" />
		<tag k="place" v="locality" />
		<tag k="ssr:stedsnr" v="138666" />
	</node>
	<node id="-690822" lat="67.9556666642" lon="16.0794111153">
		<tag k="fixme" v="consider natural=peak for the most distinct mountains in the district" />
		<tag k="name" v="Kvinnefjellet" />
		<tag k="name:no" v="Kvinnefjellet" />
		<tag k="natural" v="hill" />
		<tag k="place" v="locality" />
		<tag k="ssr:stedsnr" v="138636" />
	</node>
	<node id="-690815" lat="68.1130055516" lon="16.6730166591">
		<tag k="fixme" v="consider natural=peak for the most distinct mountains in the district" />
		<tag k="name" v="Mølntinden" />
		<tag k="name:no" v="Mølntinden" />
		<tag k="natural" v="hill" />
		<tag k="place" v="locality" />
		<tag k="ssr:stedsnr" v="138589" />
	</node>
	<node id="-690811" lat="68.145041664" lon="16.4447694482">
		<tag k="fixme" v="consider natural=peak for the most distinct mountains in the district" />
		<tag k="name" v="Storfjellet" />
		<tag k="name:no" v="Storfjellet" />
		<tag k="natural" v="hill" />
		<tag k="place" v="locality" />
		<tag k="ssr:stedsnr" v="138563" />
	</node>
	<node id="-690804" lat="68.0507055555" lon="16.7986833227">
		<tag k="fixme" v="consider natural=peak for the most distinct mountains in the district" />
		<tag k="name" v="Baurifjellet" />
		<tag k="name:no" v="Baurifjellet" />
		<tag k="natural" v="hill" />
		<tag k="place" v="locality" />
		<tag k="ssr:stedsnr" v="138508" />
	</node>
	<node id="-690803" lat="67.8751944451" lon="16.205086117">
		<tag k="name" v="Oalgge" />
		<tag k="name:smj" v="Oalgge" />
		<tag k="natural" v="ridge" />
		<tag k="place" v="locality" />
		<tag k="ssr:stedsnr" v="138419" />
	</node>
	<node id="-690797" lat="67.8933166631" lon="16.562549989">
		<tag k="fixme" v="consider natural=peak for the most distinct mountains in the district" />
		<tag k="name" v="Gåddetjåhkkå" />
		<tag k="name:smj" v="Gåddetjåhkkå" />
		<tag k="natural" v="hill" />
		<tag k="old_name:smj" v="Goddečohkka" />
		<tag k="place" v="locality" />
		<tag k="ssr:stedsnr" v="138348" />
	</node>
	<node id="-690796" lat="67.972708333" lon="16.3137333395">
		<tag k="fixme" v="consider natural=peak for the most distinct mountains in the district" />
		<tag k="name" v="Ibboluovttjåhkkå - Tømmerviktinden" />
		<tag k="name:no" v="Tømmerviktinden" />
		<tag k="name:smj" v="Ibboluovttjåhkkå" />
		<tag k="natural" v="hill" />
		<tag k="place" v="locality" />
		<tag k="ssr:stedsnr" v="138326" />
	</node>
	<node id="-690794" lat="67.9557083353" lon="16.3250888815">
		<tag k="fixme" v="consider natural=peak for the most distinct mountains in the district" />
		<tag k="name" v="Hálláluovtvárre" />
		<tag k="name:smj" v="Hálláluovtvárre" />
		<tag k="natural" v="hill" />
		<tag k="place" v="locality" />
		<tag k="ssr:stedsnr" v="138309" />
	</node>
	<node id="-690790" lat="67.8103166656" lon="16.5216194367">
		<tag k="name" v="Unnalendusj" />
		<tag k="name:smj" v="Unnalendusj" />
		<tag k="place" v="locality" />
		<tag k="ssr:stedsnr" v="138157" />
	</node>
	<node id="-690789" lat="67.8101361075" lon="16.4806555492">
		<tag k="name" v="Biedádardda" />
		<tag k="name:smj" v="Biedádardda" />
		<tag k="natural" v="slope" />
		<tag k="place" v="locality" />
		<tag k="ssr:stedsnr" v="138155" />
	</node>
	<node id="-690786" lat="67.7397833312" lon="16.5320500037">
		<tag k="name" v="Hievnenjoasske" />
		<tag k="name:smj" v="Hievnenjoasske" />
		<tag k="natural" v="valley" />
		<tag k="old_name:smj" v="Heavninjoaski" />
		<tag k="place" v="locality" />
		<tag k="ssr:stedsnr" v="137621" />
	</node>
	<node id="-690784" lat="68.236019449" lon="16.391594439">
		<tag k="fixme" v="consider natural=peak for the most distinct mountains in the district" />
		<tag k="name" v="Stortinden" />
		<tag k="name:no" v="Stortinden" />
		<tag k="natural" v="hill" />
		<tag k="place" v="locality" />
		<tag k="ssr:stedsnr" v="137535" />
	</node>
	<node id="-690779" lat="67.8415388912" lon="16.2869222125">
		<tag k="name" v="Burhnoalgge" />
		<tag k="name:smj" v="Burhnoalgge" />
		<tag k="old_name:smj" v="Burhnoalgi" />
		<tag k="place" v="locality" />
		<tag k="ssr:stedsnr" v="137333" />
	</node>
	<node id="-690768" lat="68.0598583353" lon="16.4349666688">
		<tag k="name" v="Sørsida" />
		<tag k="name:no" v="Sørsida" />
		<tag k="natural" v="slope" />
		<tag k="place" v="locality" />
		<tag k="ssr:stedsnr" v="100174" />
	</node>
	<node id="-690766" lat="67.9789861105" lon="16.9252333398">
		<tag k="fixme" v="consider natural=peak for the most distinct mountains in the district" />
		<tag k="name" v="Skuogetjåkkå" />
		<tag k="name:smj" v="Skuogetjåkkå" />
		<tag k="natural" v="hill" />
		<tag k="old_name:smj" v="Skuogečohkka" />
		<tag k="place" v="locality" />
		<tag k="ssr:stedsnr" v="98505" />
	</node>
	<node id="-690761" lat="68.1787611073" lon="16.1062833393">
		<tag k="name" v="Forrhågen" />
		<tag k="name:no" v="Forrhågen" />
		<tag k="natural" v="hill" />
		<tag k="place" v="locality" />
		<tag k="ssr:stedsnr" v="87942" />
	</node>
	<node id="-690758" lat="68.0075388903" lon="16.3977027822">
		<tag k="fixme" v="consider natural=peak for the most distinct mountains in the district" />
		<tag k="name" v="Svensktinden" />
		<tag k="name:no" v="Svensktinden" />
		<tag k="natural" v="hill" />
		<tag k="place" v="locality" />
		<tag k="ssr:stedsnr" v="86880" />
	</node>
	<node id="-690757" lat="68.1169888846" lon="16.3981027771">
		<tag k="name" v="Storbotnholtan" />
		<tag k="name:no" v="Storbotnholtan" />
		<tag k="natural" v="hill" />
		<tag k="place" v="locality" />
		<tag k="ssr:stedsnr" v="86593" />
	</node>
	<node id="-690756" lat="68.0536999982" lon="16.4890472096">
		<tag k="fixme" v="consider natural=peak for the most distinct mountains in the district" />
		<tag k="name" v="Tverrfjellet" />
		<tag k="name:no" v="Tverrfjellet" />
		<tag k="natural" v="hill" />
		<tag k="place" v="locality" />
		<tag k="ssr:stedsnr" v="85821" />
	</node>
	<node id="-690754" lat="68.1033361152" lon="16.100294442">
		<tag k="name" v="Sjøbakkan" />
		<tag k="name:no" v="Sjøbakkan" />
		<tag k="natural" v="slope" />
		<tag k="place" v="locality" />
		<tag k="ssr:stedsnr" v="83519" />
	</node>
	<node id="-690753" lat="68.1031416702" lon="16.0939611155">
		<tag k="name" v="Ryslett" />
		<tag k="name:no" v="Ryslett" />
		<tag k="place" v="locality" />
		<tag k="ssr:stedsnr" v="83516" />
	</node>
	<node id="-690752" lat="68.2498999967" lon="16.364486112">
		<tag k="name" v="Resshallen" />
		<tag k="name:no" v="Resshallen" />
		<tag k="natural" v="slope" />
		<tag k="place" v="locality" />
		<tag k="ssr:stedsnr" v="82994" />
	</node>
	<node id="-690747" lat="68.1288416652" lon="16.4087249933">
		<tag k="name" v="Rypedalen" />
		<tag k="name:no" v="Rypedalen" />
		<tag k="natural" v="valley" />
		<tag k="place" v="locality" />
		<tag k="ssr:stedsnr" v="82956" />
	</node>
	<node id="-690745" lat="68.2225555514" lon="16.2000861156">
		<tag k="fixme" v="consider natural=peak for the most distinct mountains in the district" />
		<tag k="name" v="Flogryggen" />
		<tag k="name:no" v="Flogryggen" />
		<tag k="natural" v="hill" />
		<tag k="place" v="locality" />
		<tag k="ssr:stedsnr" v="82944" />
	</node>
	<node id="-690744" lat="68.2258583295" lon="16.260358329">
		<tag k="name" v="Langoskollen" />
		<tag k="name:no" v="Langoskollen" />
		<tag k="natural" v="hill" />
		<tag k="place" v="locality" />
		<tag k="ssr:stedsnr" v="82943" />
	</node>
	<node id="-690742" lat="68.2309250003" lon="16.2509916645">
		<tag k="name" v="Langoshågen" />
		<tag k="name:no" v="Langoshågen" />
		<tag k="natural" v="hill" />
		<tag k="place" v="locality" />
		<tag k="ssr:stedsnr" v="82936" />
	</node>
	<node id="-690735" lat="68.1134515827" lon="16.5401010221">
		<tag k="name" v="Rájggebávte - Snellberget" />
		<tag k="name:no" v="Snellberget" />
		<tag k="name:smj" v="Rájggebávte" />
		<tag k="natural" v="hill" />
		<tag k="place" v="locality" />
		<tag k="ssr:stedsnr" v="82754" />
	</node>
	<node id="-690733" lat="68.1193638855" lon="16.4161888933">
		<tag k="name" v="Ramnberget" />
		<tag k="name:no" v="Ramnberget" />
		<tag k="natural" v="hill" />
		<tag k="place" v="locality" />
		<tag k="ssr:stedsnr" v="82741" />
	</node>
	<node id="-690729" lat="68.2166833338" lon="16.0529111056">
		<tag k="name" v="Boghøgda" />
		<tag k="name:no" v="Boghøgda" />
		<tag k="natural" v="hill" />
		<tag k="place" v="locality" />
		<tag k="ssr:stedsnr" v="82692" />
	</node>
	<node id="-690726" lat="68.1230750036" lon="16.0794000014">
		<tag k="name" v="Litlvassdalen" />
		<tag k="name:no" v="Litlvassdalen" />
		<tag k="natural" v="valley" />
		<tag k="place" v="locality" />
		<tag k="ssr:stedsnr" v="82605" />
	</node>
	<node id="-690719" lat="68.017755553" lon="16.1155805648">
		<tag k="name" v="Sennskaret" />
		<tag k="name:no" v="Sennskaret" />
		<tag k="natural" v="valley" />
		<tag k="place" v="locality" />
		<tag k="ssr:stedsnr" v="82564" />
	</node>
	<node id="-690717" lat="68.088044448" lon="16.0940499945">
		<tag k="name" v="Sletta" />
		<tag k="name:no" v="Sletta" />
		<tag k="place" v="locality" />
		<tag k="ssr:stedsnr" v="82559" />
	</node>
	<node id="-690716" lat="68.0877666677" lon="16.0471305625">
		<tag k="name" v="Klubben" />
		<tag k="name:no" v="Klubben" />
		<tag k="natural" v="hill" />
		<tag k="place" v="locality" />
		<tag k="ssr:stedsnr" v="82558" />
	</node>
	<node id="-690714" lat="68.0882027793" lon="16.0256555525">
		<tag k="fixme" v="consider natural=peak for the most distinct mountains in the district" />
		<tag k="name" v="Vanntsadievvá" />
		<tag k="name:smj" v="Vanntsadievvá" />
		<tag k="natural" v="hill" />
		<tag k="place" v="locality" />
		<tag k="ssr:stedsnr" v="82524" />
	</node>
	<node id="-690712" lat="68.2242583323" lon="15.9687583394">
		<tag k="name" v="Tårnvikfloget" />
		<tag k="name:no" v="Tårnvikfloget" />
		<tag k="natural" v="hill" />
		<tag k="place" v="locality" />
		<tag k="ssr:stedsnr" v="82514" />
	</node>
	<node id="-690711" lat="68.2634972244" lon="15.9723555512">
		<tag k="name" v="Oternakken" />
		<tag k="name:no" v="Oternakken" />
		<tag k="natural" v="hill" />
		<tag k="place" v="locality" />
		<tag k="ssr:stedsnr" v="82498" />
	</node>
	<node id="-690708" lat="68.213502782" lon="16.083261116">
		<tag k="name" v="Elvhøgda" />
		<tag k="name:no" v="Elvhøgda" />
		<tag k="natural" v="hill" />
		<tag k="place" v="locality" />
		<tag k="ssr:stedsnr" v="78840" />
	</node>
	<node id="-690707" lat="68.2140611103" lon="16.0578861162">
		<tag k="fixme" v="consider natural=peak for the most distinct mountains in the district" />
		<tag k="name" v="Storjordåsen" />
		<tag k="name:no" v="Storjordåsen" />
		<tag k="natural" v="hill" />
		<tag k="place" v="locality" />
		<tag k="ssr:stedsnr" v="78839" />
	</node>
	<node id="-690706" lat="68.2137472194" lon="16.0991361143">
		<tag k="fixme" v="consider natural=peak for the most distinct mountains in the district" />
		<tag k="name" v="Brattbergkollen" />
		<tag k="name:no" v="Brattbergkollen" />
		<tag k="natural" v="hill" />
		<tag k="place" v="locality" />
		<tag k="ssr:stedsnr" v="78836" />
	</node>
	<node id="-690703" lat="68.187697225" lon="16.1271222143">
		<tag k="name" v="Stongneshaugen" />
		<tag k="name:no" v="Stongneshaugen" />
		<tag k="natural" v="hill" />
		<tag k="place" v="locality" />
		<tag k="ssr:stedsnr" v="78800" />
	</node>
	<node id="-690700" lat="68.0074972258" lon="16.5241111051">
		<tag k="fixme" v="consider natural=peak for the most distinct mountains in the district" />
		<tag k="name" v="Badjegåhpe" />
		<tag k="name:smj" v="Badjegåhpe" />
		<tag k="natural" v="hill" />
		<tag k="old_name:smj" v="Badjegohpi" />
		<tag k="place" v="locality" />
		<tag k="ssr:stedsnr" v="78744" />
	</node>
	<node id="-690698" lat="68.010772226" lon="16.3890611187">
		<tag k="fixme" v="consider natural=peak for the most distinct mountains in the district" />
		<tag k="name" v="Kvassviktinden" />
		<tag k="name:no" v="Kvassviktinden" />
		<tag k="natural" v="hill" />
		<tag k="place" v="locality" />
		<tag k="ssr:stedsnr" v="78721" />
	</node>
	<node id="-690697" lat="67.9904555573" lon="16.1353388798">
		<tag k="name" v="Myrjokkdalen" />
		<tag k="name:no" v="Myrjokkdalen" />
		<tag k="natural" v="valley" />
		<tag k="place" v="locality" />
		<tag k="ssr:stedsnr" v="78655" />
	</node>
	<node id="-690695" lat="68.1573194471" lon="16.4394611107">
		<tag k="fixme" v="consider natural=peak for the most distinct mountains in the district" />
		<tag k="name" v="Fuglfjordfjellet" />
		<tag k="name:no" v="Fuglfjordfjellet" />
		<tag k="natural" v="hill" />
		<tag k="place" v="locality" />
		<tag k="ssr:stedsnr" v="78601" />
	</node>
	<node id="-690688" lat="68.0424083317" lon="16.4636277673">
		<tag k="fixme" v="consider natural=peak for the most distinct mountains in the district" />
		<tag k="name" v="Bårjåstjåhkkå - Segltinden" />
		<tag k="name:no" v="Segltinden" />
		<tag k="name:smj" v="Bårjåstjåhkkå" />
		<tag k="natural" v="hill" />
		<tag k="old_name:smj" v="Borjjasčohkka" />
		<tag k="place" v="locality" />
		<tag k="ssr:stedsnr" v="78508" />
	</node>
	<node id="-690682" lat="67.8589249993" lon="16.6016749994">
		<tag k="name" v="Duorivágge" />
		<tag k="name:smj" v="Duorivágge" />
		<tag k="natural" v="valley" />
		<tag k="old_name:smj" v="Duorevággi" />
		<tag k="place" v="locality" />
		<tag k="ssr:stedsnr" v="78359" />
	</node>
	<node id="-690680" lat="67.9143583298" lon="16.27640833">
		<tag k="fixme" v="consider natural=peak for the most distinct mountains in the district" />
		<tag k="name" v="Basudistjåhkkå" />
		<tag k="name:smj" v="Basudistjåhkkå" />
		<tag k="natural" v="hill" />
		<tag k="old_name:smj" v="Basotisčohkka" />
		<tag k="place" v="locality" />
		<tag k="ssr:stedsnr" v="78328" />
	</node>
	<node id="-690678" lat="67.9046305591" lon="16.2643194429">
		<tag k="name" v="Jassa" />
		<tag k="name:smj" v="Jassa" />
		<tag k="place" v="locality" />
		<tag k="ssr:stedsnr" v="78322" />
	</node>
	<node id="-690677" lat="67.9082888875" lon="16.4163333363">
		<tag k="name" v="Belgagåhpe" />
		<tag k="name:smj" v="Belgagåhpe" />
		<tag k="natural" v="valley" />
		<tag k="place" v="locality" />
		<tag k="ssr:stedsnr" v="78321" />
	</node>
	<node id="-690676" lat="67.905388892" lon="16.4694750044">
		<tag k="fixme" v="consider natural=peak for the most distinct mountains in the district" />
		<tag k="loc_name:smj" v="Gasskabiejvtjåhkkå" />
		<tag k="name" v="Stuortjåhkkå" />
		<tag k="name:smj" v="Stuortjåhkkå" />
		<tag k="natural" v="hill" />
		<tag k="old_name:smj" v="Stuorčohkka" />
		<tag k="place" v="locality" />
		<tag k="ssr:stedsnr" v="78318" />
	</node>
	<node id="-690673" lat="67.8907944435" lon="16.2944999905">
		<tag k="name" v="Nåråldakslubbo - Klubben" />
		<tag k="name:no" v="Klubben" />
		<tag k="name:smj" v="Nåråldakslubbo" />
		<tag k="natural" v="hill" />
		<tag k="old_name:smj" v="Noroldahkšlubbi" />
		<tag k="place" v="locality" />
		<tag k="ssr:stedsnr" v="78313" />
	</node>
	<node id="-690672" lat="67.7535638882" lon="16.4119305533">
		<tag k="name" v="Juobmorijdda" />
		<tag k="name:smj" v="Juobmorijdda" />
		<tag k="natural" v="slope" />
		<tag k="old_name:smj" v="Juopmoriida" />
		<tag k="place" v="locality" />
		<tag k="ssr:stedsnr" v="78170" />
	</node>
	<node id="-690668" lat="68.149691666" lon="16.0461111112">
		<tag k="name" v="Láŋásse - Langåsen" />
		<tag k="name:no" v="Langåsen" />
		<tag k="name:smj" v="Láŋásse" />
		<tag k="natural" v="hill" />
		<tag k="place" v="locality" />
		<tag k="ssr:stedsnr" v="77755" />
	</node>
	<node id="-690667" lat="68.1622749998" lon="16.1019277782">
		<tag k="fixme" v="consider natural=peak for the most distinct mountains in the district" />
		<tag k="name" v="Forsafjellet" />
		<tag k="name:no" v="Forsafjellet" />
		<tag k="natural" v="hill" />
		<tag k="place" v="locality" />
		<tag k="ssr:stedsnr" v="77733" />
	</node>
	<node id="-690666" lat="68.0696361143" lon="17.1519166585">
		<tag k="fixme" v="consider natural=peak for the most distinct mountains in the district" />
		<tag k="name" v="Baugefjellet" />
		<tag k="name:no" v="Baugefjellet" />
		<tag k="natural" v="hill" />
		<tag k="place" v="locality" />
		<tag k="ssr:stedsnr" v="77715" />
	</node>
	<node id="-690662" lat="68.2841500039" lon="16.2743749982">
		<tag k="fixme" v="consider natural=peak for the most distinct mountains in the district" />
		<tag k="name" v="Valletindan" />
		<tag k="name:no" v="Valletindan" />
		<tag k="natural" v="hill" />
		<tag k="place" v="locality" />
		<tag k="ssr:stedsnr" v="77608" />
	</node>
	<node id="-690661" lat="68.0654694459" lon="16.6894777876">
		<tag k="name" v="Tverrelvdalen" />
		<tag k="name:no" v="Tverrelvdalen" />
		<tag k="natural" v="valley" />
		<tag k="place" v="locality" />
		<tag k="ssr:stedsnr" v="77590" />
	</node>
	<node id="-690660" lat="68.0668916624" lon="16.7019583387">
		<tag k="fixme" v="consider natural=peak for the most distinct mountains in the district" />
		<tag k="name" v="Sørfjellet" />
		<tag k="name:no" v="Sørfjellet" />
		<tag k="natural" v="hill" />
		<tag k="place" v="locality" />
		<tag k="ssr:stedsnr" v="77588" />
	</node>
	<node id="-690650" lat="67.8549555587" lon="16.2075361017">
		<tag k="fixme" v="consider natural=peak for the most distinct mountains in the district" />
		<tag k="name" v="Gåjgivárre" />
		<tag k="name:smj" v="Gåjgivárre" />
		<tag k="natural" v="hill" />
		<tag k="old_name:smj" v="Goigevarri;Goigivárre" />
		<tag k="place" v="locality" />
		<tag k="ssr:stedsnr" v="77453" />
	</node>
	<node id="-690647" lat="67.9620166673" lon="16.3250222109">
		<tag k="name" v="Jávrásjgåhpe" />
		<tag k="name:smj" v="Jávrásjgåhpe" />
		<tag k="natural" v="valley" />
		<tag k="place" v="locality" />
		<tag k="ssr:stedsnr" v="77297" />
	</node>
	<node id="-690631" lat="68.2160833289" lon="16.2226583418">
		<tag k="name" v="Lia" />
		<tag k="name:no" v="Lia" />
		<tag k="natural" v="slope" />
		<tag k="place" v="locality" />
		<tag k="ssr:stedsnr" v="22945" />
	</node>
	<node id="-690628" lat="67.855383333" lon="16.4761972253">
		<tag k="name" v="Ávži" />
		<tag k="name:smj" v="Ávži" />
		<tag k="natural" v="valley" />
		<tag k="place" v="locality" />
		<tag k="ssr:stedsnr" v="22931" />
	</node>
	<node id="-690623" lat="68.0723138883" lon="16.6412055478">
		<tag k="name" v="Humpen" />
		<tag k="name:no" v="Humpen" />
		<tag k="natural" v="hill" />
		<tag k="place" v="locality" />
		<tag k="ssr:stedsnr" v="22760" />
	</node>
	<node id="-690620" lat="68.1261555568" lon="16.0693861036">
		<tag k="name" v="Båtstøhammaren" />
		<tag k="name:no" v="Båtstøhammaren" />
		<tag k="natural" v="cliff" />
		<tag k="ssr:stedsnr" v="22613" />
	</node>
	<node id="-690619" lat="67.8839027787" lon="16.2093499965">
		<tag k="name" v="Skåhppe" />
		<tag k="name:smj" v="Skåhppe" />
		<tag k="natural" v="valley" />
		<tag k="place" v="locality" />
		<tag k="ssr:stedsnr" v="22592" />
	</node>
	<node id="-690613" lat="68.2287361107" lon="16.014224988">
		<tag k="fixme" v="consider natural=peak for the most distinct mountains in the district" />
		<tag k="name" v="Åsen" />
		<tag k="name:no" v="Åsen" />
		<tag k="natural" v="hill" />
		<tag k="place" v="locality" />
		<tag k="ssr:stedsnr" v="22504" />
	</node>
	<node id="-690612" lat="68.2071472245" lon="16.0010777692">
		<tag k="name" v="Jortlia" />
		<tag k="name:no" v="Jortlia" />
		<tag k="natural" v="slope" />
		<tag k="place" v="locality" />
		<tag k="ssr:stedsnr" v="22494" />
	</node>
	<node id="-690610" lat="67.7883222216" lon="16.4931111179">
		<tag k="name" v="Tjudehårdievvá" />
		<tag k="name:smj" v="Tjudehårdievvá" />
		<tag k="natural" v="hill" />
		<tag k="place" v="locality" />
		<tag k="ssr:stedsnr" v="21925" />
	</node>
	<node id="-690608" lat="68.0783444399" lon="16.4018000022">
		<tag k="name" v="Orrehågen" />
		<tag k="name:no" v="Orrehågen" />
		<tag k="natural" v="hill" />
		<tag k="place" v="locality" />
		<tag k="ssr:stedsnr" v="21751" />
	</node>
	<node id="-690605" lat="68.030244442" lon="16.1177999891">
		<tag k="name" v="Kubbhola" />
		<tag k="name:no" v="Kubbhola" />
		<tag k="natural" v="valley" />
		<tag k="place" v="locality" />
		<tag k="ssr:stedsnr" v="21585" />
	</node>
	<node id="-690601" lat="68.1745833288" lon="16.0012500045">
		<tag k="fixme" v="consider natural=peak for the most distinct mountains in the district" />
		<tag k="name" v="Horntinden" />
		<tag k="name:no" v="Horntinden" />
		<tag k="natural" v="hill" />
		<tag k="place" v="locality" />
		<tag k="ssr:stedsnr" v="17812" />
	</node>
	<node id="-690600" lat="68.1733722258" lon="16.0074416654">
		<tag k="name" v="Botnaksla" />
		<tag k="name:no" v="Botnaksla" />
		<tag k="natural" v="hill" />
		<tag k="place" v="locality" />
		<tag k="ssr:stedsnr" v="17811" />
	</node>
	<node id="-690599" lat="68.0033194456" lon="16.3597388852">
		<tag k="name" v="Gåhpe" />
		<tag k="name:smj" v="Gåhpe" />
		<tag k="natural" v="valley" />
		<tag k="place" v="locality" />
		<tag k="ssr:stedsnr" v="17775" />
	</node>
	<node id="-690597" lat="68.0185916682" lon="16.3590333282">
		<tag k="fixme" v="consider natural=peak for the most distinct mountains in the district" />
		<tag k="name" v="Brennahøgda" />
		<tag k="name:no" v="Brennahøgda" />
		<tag k="natural" v="hill" />
		<tag k="place" v="locality" />
		<tag k="ssr:stedsnr" v="17758" />
	</node>
	<node id="-690594" lat="68.0395833344" lon="16.0417249896">
		<tag k="fixme" v="consider natural=peak for the most distinct mountains in the district" />
		<tag k="name" v="Brentåsen" />
		<tag k="name:no" v="Brentåsen" />
		<tag k="natural" v="hill" />
		<tag k="place" v="locality" />
		<tag k="ssr:stedsnr" v="17644" />
	</node>
	<node id="-690591" lat="68.1578694469" lon="16.3483389007">
		<tag k="fixme" v="consider natural=peak for the most distinct mountains in the district" />
		<tag k="name" v="Rødtinden" />
		<tag k="name:no" v="Rødtinden" />
		<tag k="natural" v="hill" />
		<tag k="place" v="locality" />
		<tag k="ssr:stedsnr" v="17633" />
	</node>
	<node id="-690589" lat="68.057513891" lon="16.0509694418">
		<tag k="fixme" v="consider natural=peak for the most distinct mountains in the district" />
		<tag k="name" v="Dragsfjellet" />
		<tag k="name:no" v="Dragsfjellet" />
		<tag k="natural" v="hill" />
		<tag k="place" v="locality" />
		<tag k="ssr:stedsnr" v="17616" />
	</node>
	<node id="-690588" lat="68.098597222" lon="16.4798416668">
		<tag k="fixme" v="consider natural=peak for the most distinct mountains in the district" />
		<tag k="name" v="Allmenningsfjellet" />
		<tag k="name:no" v="Allmenningsfjellet" />
		<tag k="natural" v="hill" />
		<tag k="place" v="locality" />
		<tag k="ssr:stedsnr" v="17601" />
	</node>
	<node id="-690582" lat="68.0717583371" lon="16.2966500096">
		<tag k="alt_name:no" v="Risviktind" />
		<tag k="fixme" v="consider natural=peak for the most distinct mountains in the district" />
		<tag k="name" v="Risviktinden" />
		<tag k="name:no" v="Risviktinden" />
		<tag k="natural" v="hill" />
		<tag k="place" v="locality" />
		<tag k="ssr:stedsnr" v="17558" />
	</node>
	<node id="-690580" lat="68.0368361103" lon="16.5190527728">
		<tag k="name" v="Vuokságurssjo - Oksrapa" />
		<tag k="name:no" v="Oksrapa" />
		<tag k="name:smj" v="Vuokságurssjo" />
		<tag k="old_name:smj" v="Vuoksaguršu" />
		<tag k="place" v="locality" />
		<tag k="ssr:stedsnr" v="17538" />
	</node>
	<node id="-690576" lat="68.2772166679" lon="16.3015222174">
		<tag k="fixme" v="consider natural=peak for the most distinct mountains in the district" />
		<tag k="name" v="Tuva" />
		<tag k="name:no" v="Tuva" />
		<tag k="natural" v="hill" />
		<tag k="place" v="locality" />
		<tag k="ssr:stedsnr" v="17466" />
	</node>
	<node id="-690572" lat="67.9299277774" lon="16.2867638991">
		<tag k="name" v="Tjielumgåhpe" />
		<tag k="name:smj" v="Tjielumgåhpe" />
		<tag k="natural" v="valley" />
		<tag k="old_name:smj" v="Čielomgohpi" />
		<tag k="place" v="locality" />
		<tag k="ssr:stedsnr" v="17368" />
	</node>
	<node id="-690568" lat="67.7697138901" lon="16.5757583212">
		<tag k="fixme" v="consider natural=peak for the most distinct mountains in the district" />
		<tag k="name" v="Tjuolak" />
		<tag k="name:smj" v="Tjuolak" />
		<tag k="natural" v="hill" />
		<tag k="old_name:smj" v="Čuolak" />
		<tag k="place" v="locality" />
		<tag k="ssr:stedsnr" v="17185" />
	</node>
	<node id="-690567" lat="67.7750138911" lon="16.5817027787">
		<tag k="name" v="Amásvágge" />
		<tag k="name:smj" v="Amásvágge" />
		<tag k="natural" v="valley" />
		<tag k="old_name:smj" v="Amasvággi" />
		<tag k="place" v="locality" />
		<tag k="ssr:stedsnr" v="17183" />
	</node>
	<node id="-690566" lat="67.7630861086" lon="16.3481472205">
		<tag k="name" v="Rumbogiera" />
		<tag k="name:smj" v="Rumbogiera" />
		<tag k="natural" v="valley" />
		<tag k="place" v="locality" />
		<tag k="ssr:stedsnr" v="17181" />
	</node>
	<node id="-690565" lat="67.78593611" lon="16.5287833389">
		<tag k="name" v="Riebijnjunnje" />
		<tag k="name:smj" v="Riebijnjunnje" />
		<tag k="natural" v="hill" />
		<tag k="old_name:smj" v="Riebiinjunnji" />
		<tag k="place" v="locality" />
		<tag k="ssr:stedsnr" v="17176" />
	</node>
	<node id="-690562" lat="67.8066055528" lon="16.5015250069">
		<tag k="name" v="Biedoalgge" />
		<tag k="name:smj" v="Biedoalgge" />
		<tag k="natural" v="slope" />
		<tag k="place" v="locality" />
		<tag k="ssr:stedsnr" v="17152" />
	</node>
	<node id="-690561" lat="67.8213361083" lon="16.2783888819">
		<tag k="name" v="Rummbo" />
		<tag k="name:smj" v="Rummbo" />
		<tag k="natural" v="valley" />
		<tag k="old_name:smj" v="Rumbovággi" />
		<tag k="place" v="locality" />
		<tag k="ssr:stedsnr" v="17150" />
	</node>
	<node id="-690560" lat="67.8153499978" lon="16.4478527661">
		<tag k="fixme" v="consider natural=peak for the most distinct mountains in the district" />
		<tag k="name" v="Biedávárre" />
		<tag k="name:smj" v="Biedávárre" />
		<tag k="natural" v="hill" />
		<tag k="place" v="locality" />
		<tag k="ssr:stedsnr" v="17142" />
	</node>
	<node id="-690557" lat="68.2259583301" lon="16.2603611089">
		<tag k="fixme" v="consider natural=peak for the most distinct mountains in the district" />
		<tag k="name" v="Lappvikfjellet" />
		<tag k="name:no" v="Lappvikfjellet" />
		<tag k="natural" v="hill" />
		<tag k="place" v="locality" />
		<tag k="ssr:stedsnr" v="16482" />
	</node>
	<node id="-690555" lat="68.2317194453" lon="16.5207527877">
		<tag k="fixme" v="consider natural=peak for the most distinct mountains in the district" />
		<tag k="name" v="Mellomtinden" />
		<tag k="name:no" v="Mellomtinden" />
		<tag k="natural" v="hill" />
		<tag k="place" v="locality" />
		<tag k="ssr:stedsnr" v="16479" />
	</node>
	<node id="-690553" lat="67.7300222177" lon="16.4261027861">
		<tag k="fixme" v="consider natural=peak for the most distinct mountains in the district" />
		<tag k="name" v="Gihttse" />
		<tag k="name:smj" v="Gihttse" />
		<tag k="natural" v="hill" />
		<tag k="old_name:smj" v="Gihci" />
		<tag k="place" v="locality" />
		<tag k="ssr:stedsnr" v="16608" />
	</node>
	<node id="-690546" lat="68.1131694416" lon="16.4113361169">
		<tag k="name" v="Kikvikholtan" />
		<tag k="name:no" v="Kikvikholtan" />
		<tag k="natural" v="hill" />
		<tag k="place" v="locality" />
		<tag k="ssr:stedsnr" v="389600" />
	</node>
	<node id="-690529" lat="68.0397527818" lon="16.359925">
		<tag k="name" v="Andersberget" />
		<tag k="name:no" v="Andersberget" />
		<tag k="natural" v="hill" />
		<tag k="place" v="locality" />
		<tag k="ssr:stedsnr" v="403193" />
	</node>
	<node id="-690523" lat="68.0159722255" lon="16.5300361126">
		<tag k="fixme" v="consider natural=peak for the most distinct mountains in the district" />
		<tag k="name" v="Gáránistjåhkkå - Kråkviktinden" />
		<tag k="name:no" v="Kråkviktinden" />
		<tag k="name:smj" v="Gáránistjåhkkå" />
		<tag k="natural" v="hill" />
		<tag k="old_name:smj" v="Gáranasčohkka" />
		<tag k="place" v="locality" />
		<tag k="ssr:stedsnr" v="391761" />
	</node>
	<node id="-690522" lat="68.2117666657" lon="16.530761108">
		<tag k="fixme" v="consider natural=peak for the most distinct mountains in the district" />
		<tag k="name" v="Stádda - Stefjordnestinden" />
		<tag k="name:no" v="Stefjordnestinden" />
		<tag k="name:smj" v="Stádda" />
		<tag k="natural" v="hill" />
		<tag k="old_name:smj" v="Stadda" />
		<tag k="place" v="locality" />
		<tag k="ssr:stedsnr" v="391561" />
	</node>
	<node id="-690517" lat="68.1309444426" lon="16.392233344">
		<tag k="name" v="Storbotneidet" />
		<tag k="name:no" v="Storbotneidet" />
		<tag k="natural" v="valley" />
		<tag k="place" v="locality" />
		<tag k="ssr:stedsnr" v="385966" />
	</node>
	<node id="-690511" lat="67.8080250034" lon="16.5507611042">
		<tag k="name" v="Buvrásjskåhppe" />
		<tag k="name:smj" v="Buvrásjskåhppe" />
		<tag k="natural" v="valley" />
		<tag k="place" v="locality" />
		<tag k="ssr:stedsnr" v="385920" />
	</node>
	<node id="-690507" lat="68.0814388931" lon="16.2638138926">
		<tag k="fixme" v="consider natural=peak for the most distinct mountains in the district" />
		<tag k="name" v="Kårvifjellet" />
		<tag k="name:no" v="Kårvifjellet" />
		<tag k="natural" v="hill" />
		<tag k="place" v="locality" />
		<tag k="ssr:stedsnr" v="385890" />
	</node>
	<node id="-690505" lat="68.0879083315" lon="16.2602777732">
		<tag k="name" v="Kårvinova" />
		<tag k="name:no" v="Kårvinova" />
		<tag k="natural" v="hill" />
		<tag k="place" v="locality" />
		<tag k="ssr:stedsnr" v="385872" />
	</node>
	<node id="-690501" lat="68.0960861098" lon="16.3527249942">
		<tag k="name" v="Smineslia" />
		<tag k="name:no" v="Smineslia" />
		<tag k="natural" v="slope" />
		<tag k="place" v="locality" />
		<tag k="ssr:stedsnr" v="385758" />
	</node>
	<node id="-690500" lat="68.0820805558" lon="16.4062194401">
		<tag k="name" v="Ramnbergan" />
		<tag k="name:no" v="Ramnbergan" />
		<tag k="natural" v="hill" />
		<tag k="place" v="locality" />
		<tag k="ssr:stedsnr" v="385751" />
	</node>
	<node id="-690498" lat="68.0380083318" lon="16.1072694511">
		<tag k="name" v="Kvalberget" />
		<tag k="name:no" v="Kvalberget" />
		<tag k="natural" v="hill" />
		<tag k="place" v="locality" />
		<tag k="ssr:stedsnr" v="385690" />
	</node>
	<node id="-690497" lat="68.0363444404" lon="16.0849083403">
		<tag k="name" v="Sveinhågen" />
		<tag k="name:no" v="Sveinhågen" />
		<tag k="natural" v="hill" />
		<tag k="place" v="locality" />
		<tag k="ssr:stedsnr" v="385689" />
	</node>
	<node id="-690492" lat="68.1309527789" lon="16.0641416586">
		<tag k="name" v="Båtstøhøgda" />
		<tag k="name:no" v="Båtstøhøgda" />
		<tag k="natural" v="hill" />
		<tag k="place" v="locality" />
		<tag k="ssr:stedsnr" v="385629" />
	</node>
	<node id="-690491" lat="68.121841665" lon="16.1079055598">
		<tag k="name" v="Martahågen" />
		<tag k="name:no" v="Martahågen" />
		<tag k="natural" v="hill" />
		<tag k="place" v="locality" />
		<tag k="ssr:stedsnr" v="385625" />
	</node>
	<node id="-690488" lat="67.8691472198" lon="16.1882388776">
		<tag k="name" v="Riehpebasska" />
		<tag k="name:smj" v="Riehpebasska" />
		<tag k="natural" v="gorge" />
		<tag k="ssr:stedsnr" v="385603" />
	</node>
	<node id="-690486" lat="68.2100666699" lon="16.0887805554">
		<tag k="name" v="Rismålsbakkan" />
		<tag k="name:no" v="Rismålsbakkan" />
		<tag k="natural" v="slope" />
		<tag k="place" v="locality" />
		<tag k="ssr:stedsnr" v="385722" />
	</node>
	<node id="-690484" lat="68.2545472206" lon="16.0118111018">
		<tag k="name" v="Herøyfjellet" />
		<tag k="name:no" v="Herøyfjellet" />
		<tag k="natural" v="mountain_range" />
		<tag k="ssr:stedsnr" v="385492" />
	</node>
	<node id="-690479" lat="68.0226361127" lon="16.1297777714">
		<tag k="name" v="Rishågen" />
		<tag k="name:no" v="Rishågen" />
		<tag k="natural" v="hill" />
		<tag k="place" v="locality" />
		<tag k="ssr:stedsnr" v="385574" />
	</node>
	<node id="-690478" lat="68.027400001" lon="16.1412277732">
		<tag k="name" v="Hellandsbergan" />
		<tag k="name:no" v="Hellandsbergan" />
		<tag k="natural" v="hill" />
		<tag k="place" v="locality" />
		<tag k="ssr:stedsnr" v="385571" />
	</node>
	<node id="-690475" lat="68.0849555518" lon="15.9918860986">
		<tag k="name" v="Molia" />
		<tag k="name:no" v="Molia" />
		<tag k="natural" v="slope" />
		<tag k="place" v="locality" />
		<tag k="ssr:stedsnr" v="385530" />
	</node>
	<node id="-690474" lat="68.0792333345" lon="16.0133222101">
		<tag k="fixme" v="consider natural=peak for the most distinct mountains in the district" />
		<tag k="name" v="Bjørkvikfjellet" />
		<tag k="name:no" v="Bjørkvikfjellet" />
		<tag k="natural" v="hill" />
		<tag k="place" v="locality" />
		<tag k="ssr:stedsnr" v="385529" />
	</node>
	<node id="-690472" lat="68.2232055536" lon="15.9715999873">
		<tag k="name" v="Tårnvikdalen" />
		<tag k="name:no" v="Tårnvikdalen" />
		<tag k="natural" v="valley" />
		<tag k="place" v="locality" />
		<tag k="ssr:stedsnr" v="385507" />
	</node>
	<node id="-690470" lat="68.1723555518" lon="16.4402388934">
		<tag k="fixme" v="consider natural=peak for the most distinct mountains in the district" />
		<tag k="name" v="Muvlletjåhkkå - Mulbukttinden" />
		<tag k="name:no" v="Mulbukttinden" />
		<tag k="name:smj" v="Muvlletjåhkkå" />
		<tag k="natural" v="hill" />
		<tag k="place" v="locality" />
		<tag k="ssr:stedsnr" v="384600" />
	</node>
	<node id="-690468" lat="68.1866722224" lon="15.9979333302">
		<tag k="alt_name:no" v="Botndalen, l" />
		<tag k="name" v="Litle Botndalen" />
		<tag k="name:no" v="Litle Botndalen" />
		<tag k="natural" v="valley" />
		<tag k="place" v="locality" />
		<tag k="ssr:stedsnr" v="381823" />
	</node>
	<node id="-690467" lat="68.0202805554" lon="16.2595805612">
		<tag k="fixme" v="consider natural=peak for the most distinct mountains in the district" />
		<tag k="name" v="Fagernesaksla" />
		<tag k="name:no" v="Fagernesaksla" />
		<tag k="natural" v="hill" />
		<tag k="place" v="locality" />
		<tag k="ssr:stedsnr" v="381766" />
	</node>
	<node id="-690464" lat="68.1497388874" lon="16.5061361171">
		<tag k="fixme" v="consider natural=peak for the most distinct mountains in the district" />
		<tag k="name" v="Elveran" />
		<tag k="name:no" v="Elveran" />
		<tag k="natural" v="hill" />
		<tag k="place" v="locality" />
		<tag k="ssr:stedsnr" v="381635" />
	</node>
	<node id="-690458" lat="68.2904777735" lon="16.2516416668">
		<tag k="fixme" v="consider natural=peak for the most distinct mountains in the district" />
		<tag k="name" v="Breidskardtinden" />
		<tag k="name:no" v="Breidskardtinden" />
		<tag k="natural" v="hill" />
		<tag k="place" v="locality" />
		<tag k="ssr:stedsnr" v="381596" />
	</node>
	<node id="-690453" lat="68.1410861137" lon="16.5358944445">
		<tag k="name" v="Lian" />
		<tag k="name:no" v="Lian" />
		<tag k="natural" v="slope" />
		<tag k="place" v="locality" />
		<tag k="ssr:stedsnr" v="381555" />
	</node>
	<node id="-690452" lat="68.0173583359" lon="16.1097722256">
		<tag k="name" v="Litlvasskollen" />
		<tag k="name:no" v="Litlvasskollen" />
		<tag k="natural" v="hill" />
		<tag k="place" v="locality" />
		<tag k="ssr:stedsnr" v="381530" />
	</node>
	<node id="-690449" lat="68.0475388849" lon="16.718969453">
		<tag k="name" v="Tverrelvhalsen" />
		<tag k="name:no" v="Tverrelvhalsen" />
		<tag k="place" v="locality" />
		<tag k="ssr:stedsnr" v="381506" />
	</node>
	<node id="-690444" lat="67.8778055574" lon="16.4461277855">
		<tag k="name" v="Gasskanjunnje" />
		<tag k="name:smj" v="Gasskanjunnje" />
		<tag k="natural" v="ridge" />
		<tag k="old_name:smj" v="Gaskanjunnji" />
		<tag k="place" v="locality" />
		<tag k="ssr:stedsnr" v="381378" />
	</node>
	<node id="-690443" lat="67.8523416681" lon="16.2489472264">
		<tag k="name" v="Niejdavágge" />
		<tag k="name:smj" v="Niejdavágge" />
		<tag k="natural" v="valley" />
		<tag k="old_name:smj" v="Nieidavággi" />
		<tag k="place" v="locality" />
		<tag k="ssr:stedsnr" v="381369" />
	</node>
	<node id="-690441" lat="67.9320805556" lon="16.4654305496">
		<tag k="fixme" v="consider natural=peak for the most distinct mountains in the district" />
		<tag k="name" v="Gájttsaluovttjåhkkå" />
		<tag k="name:smj" v="Gájttsaluovttjåhkkå" />
		<tag k="natural" v="hill" />
		<tag k="old_name:smj" v="Gáicaluovttčohkka" />
		<tag k="place" v="locality" />
		<tag k="ssr:stedsnr" v="381341" />
	</node>
	<node id="-690439" lat="67.9165500005" lon="16.254933325">
		<tag k="name" v="Tjielumbákte" />
		<tag k="name:smj" v="Tjielumbákte" />
		<tag k="natural" v="slope" />
		<tag k="old_name:smj" v="Čielombákti" />
		<tag k="place" v="locality" />
		<tag k="ssr:stedsnr" v="381337" />
	</node>
	<node id="-690436" lat="67.8981361108" lon="16.2889333276">
		<tag k="name" v="Buollám" />
		<tag k="name:smj" v="Buollám" />
		<tag k="natural" v="slope" />
		<tag k="old_name:smj" v="Buollam" />
		<tag k="place" v="locality" />
		<tag k="ssr:stedsnr" v="381326" />
	</node>
	<node id="-690434" lat="68.24221111" lon="16.0538638824">
		<tag k="fixme" v="consider natural=peak for the most distinct mountains in the district" />
		<tag k="name" v="Leikneskollen" />
		<tag k="name:no" v="Leikneskollen" />
		<tag k="natural" v="hill" />
		<tag k="place" v="locality" />
		<tag k="ssr:stedsnr" v="380848" />
	</node>
	<node id="-690432" lat="68.0513833325" lon="16.8965999999">
		<tag k="name" v="Skogdalen" />
		<tag k="name:no" v="Skogdalen" />
		<tag k="natural" v="valley" />
		<tag k="place" v="locality" />
		<tag k="ssr:stedsnr" v="380696" />
	</node>
	<node id="-690426" lat="68.2555166642" lon="16.3943055568">
		<tag k="name" v="Skjellesvikskaret" />
		<tag k="name:no" v="Skjellesvikskaret" />
		<tag k="natural" v="valley" />
		<tag k="place" v="locality" />
		<tag k="ssr:stedsnr" v="380576" />
	</node>
	<node id="-690422" lat="68.0543249998" lon="16.3874750081">
		<tag k="fixme" v="consider natural=peak for the most distinct mountains in the district" />
		<tag k="name" v="Tørrnesfjellet" />
		<tag k="name:no" v="Tørrnesfjellet" />
		<tag k="natural" v="hill" />
		<tag k="place" v="locality" />
		<tag k="ssr:stedsnr" v="380537" />
	</node>
	<node id="-690417" lat="67.8898416694" lon="16.150080554">
		<tag k="fixme" v="consider natural=peak for the most distinct mountains in the district" />
		<tag k="name" v="Ruosvágtjåhkkå" />
		<tag k="name:smj" v="Ruosvágtjåhkkå" />
		<tag k="natural" v="hill" />
		<tag k="place" v="locality" />
		<tag k="ssr:stedsnr" v="380402" />
	</node>
	<node id="-690415" lat="67.8419805532" lon="16.4636361169">
		<tag k="fixme" v="consider natural=peak for the most distinct mountains in the district" />
		<tag k="name" v="Gállotjåhkkå" />
		<tag k="name:smj" v="Gállotjåhkkå" />
		<tag k="natural" v="hill" />
		<tag k="old_name:smj" v="Gálločohkka" />
		<tag k="place" v="locality" />
		<tag k="ssr:stedsnr" v="380368" />
	</node>
	<node id="-690414" lat="67.8315666682" lon="16.6030000114">
		<tag k="name" v="Heller" />
		<tag k="name:no" v="Heller" />
		<tag k="place" v="locality" />
		<tag k="ssr:stedsnr" v="380364" />
	</node>
	<node id="-690409" lat="67.7976944469" lon="16.254255565">
		<tag k="name" v="Juvvánisvágge" />
		<tag k="name:smj" v="Juvvánisvágge" />
		<tag k="natural" v="valley" />
		<tag k="old_name:smj" v="Juvvanisvággi" />
		<tag k="place" v="locality" />
		<tag k="ssr:stedsnr" v="380141" />
	</node>
	<node id="-690394" lat="68.0570888878" lon="16.0732611203">
		<tag k="name" v="Svarthamran" />
		<tag k="name:no" v="Svarthamran" />
		<tag k="natural" v="hill" />
		<tag k="place" v="locality" />
		<tag k="ssr:stedsnr" v="342911" />
	</node>
	<node id="-690392" lat="68.1123666694" lon="16.3269388809">
		<tag k="name" v="Kobbvikdalen" />
		<tag k="name:no" v="Kobbvikdalen" />
		<tag k="natural" v="valley" />
		<tag k="place" v="locality" />
		<tag k="ssr:stedsnr" v="328576" />
	</node>
	<node id="-690390" lat="68.0999833375" lon="16.089313886">
		<tag k="name" v="Storsteindalen" />
		<tag k="name:no" v="Storsteindalen" />
		<tag k="natural" v="valley" />
		<tag k="place" v="locality" />
		<tag k="ssr:stedsnr" v="326554" />
	</node>
	<node id="-690389" lat="68.2663277786" lon="16.3743666781">
		<tag k="fixme" v="consider natural=peak for the most distinct mountains in the district" />
		<tag k="name" v="Stortinden" />
		<tag k="name:no" v="Stortinden" />
		<tag k="natural" v="hill" />
		<tag k="place" v="locality" />
		<tag k="ssr:stedsnr" v="325997" />
	</node>
	<node id="-690386" lat="68.2224777797" lon="16.3038389007">
		<tag k="name" v="Jeskauet" />
		<tag k="name:no" v="Jeskauet" />
		<tag k="place" v="locality" />
		<tag k="ssr:stedsnr" v="325984" />
	</node>
	<node id="-690385" lat="68.223172222" lon="16.273011099">
		<tag k="name" v="Vedhoggan" />
		<tag k="name:no" v="Vedhoggan" />
		<tag k="place" v="locality" />
		<tag k="ssr:stedsnr" v="325983" />
	</node>
	<node id="-690383" lat="68.2377944438" lon="16.3077222129">
		<tag k="name" v="Sommarsetdalen" />
		<tag k="name:no" v="Sommarsetdalen" />
		<tag k="natural" v="valley" />
		<tag k="place" v="locality" />
		<tag k="ssr:stedsnr" v="325968" />
	</node>
	<node id="-690380" lat="68.2273250022" lon="16.2089527696">
		<tag k="name" v="Trastskogen" />
		<tag k="name:no" v="Trastskogen" />
		<tag k="natural" v="slope" />
		<tag k="place" v="locality" />
		<tag k="ssr:stedsnr" v="325933" />
	</node>
	<node id="-690376" lat="67.812788885" lon="16.5186472311">
		<tag k="name" v="Askásj" />
		<tag k="name:smj" v="Askásj" />
		<tag k="place" v="locality" />
		<tag k="ssr:stedsnr" v="325913" />
	</node>
	<node id="-690375" lat="67.8093944476" lon="16.5321472252">
		<tag k="name" v="Råvebuollda" />
		<tag k="name:smj" v="Råvebuollda" />
		<tag k="natural" v="cliff" />
		<tag k="ssr:stedsnr" v="325902" />
	</node>
	<node id="-690368" lat="68.0509583368" lon="16.2646861">
		<tag k="name" v="Barrakheimen" />
		<tag k="name:no" v="Barrakheimen" />
		<tag k="place" v="locality" />
		<tag k="ssr:stedsnr" v="325859" />
	</node>
	<node id="-690362" lat="68.1218777776" lon="16.4219250108">
		<tag k="name" v="Sammelhågen" />
		<tag k="name:no" v="Sammelhågen" />
		<tag k="natural" v="hill" />
		<tag k="place" v="locality" />
		<tag k="ssr:stedsnr" v="325735" />
	</node>
	<node id="-690357" lat="68.1753305555" lon="15.9902083423">
		<tag k="name" v="Botntindan" />
		<tag k="name:no" v="Botntindan" />
		<tag k="natural" v="mountain_range" />
		<tag k="ssr:stedsnr" v="325687" />
	</node>
	<node id="-690356" lat="68.0765944412" lon="16.4084249899">
		<tag k="name" v="Gaukaloktdalen" />
		<tag k="name:no" v="Gaukaloktdalen" />
		<tag k="natural" v="valley" />
		<tag k="place" v="locality" />
		<tag k="ssr:stedsnr" v="325682" />
	</node>
	<node id="-690355" lat="68.0581666669" lon="16.3594611123">
		<tag k="name" v="Mannberget" />
		<tag k="name:no" v="Mannberget" />
		<tag k="natural" v="hill" />
		<tag k="place" v="locality" />
		<tag k="ssr:stedsnr" v="325678" />
	</node>
	<node id="-690354" lat="68.0642722214" lon="16.3867583437">
		<tag k="name" v="Forrahågen" />
		<tag k="name:no" v="Forrahågen" />
		<tag k="natural" v="hill" />
		<tag k="place" v="locality" />
		<tag k="ssr:stedsnr" v="325676" />
	</node>
	<node id="-690350" lat="68.0545916684" lon="16.0616750081">
		<tag k="name" v="Nordneskollen" />
		<tag k="name:no" v="Nordneskollen" />
		<tag k="natural" v="hill" />
		<tag k="place" v="locality" />
		<tag k="ssr:stedsnr" v="325659" />
	</node>
	<node id="-690348" lat="68.1994277783" lon="16.0631249992">
		<tag k="name" v="Karihågen" />
		<tag k="name:no" v="Karihågen" />
		<tag k="natural" v="hill" />
		<tag k="place" v="locality" />
		<tag k="ssr:stedsnr" v="325648" />
	</node>
	<node id="-690346" lat="67.8950611108" lon="16.2012166579">
		<tag k="name" v="Båhtjemdievvá" />
		<tag k="name:smj" v="Båhtjemdievvá" />
		<tag k="natural" v="ridge" />
		<tag k="place" v="locality" />
		<tag k="ssr:stedsnr" v="325600" />
	</node>
	<node id="-690345" lat="67.8877777792" lon="16.2049083408">
		<tag k="name" v="Unna Lendusj" />
		<tag k="name:smj" v="Unna Lendusj" />
		<tag k="place" v="locality" />
		<tag k="ssr:stedsnr" v="325598" />
	</node>
	<node id="-690344" lat="68.0000861142" lon="16.2532666736">
		<tag k="name" v="Váshállá - Vashalla" />
		<tag k="name:no" v="Vashalla" />
		<tag k="name:smj" v="Váshállá" />
		<tag k="natural" v="slope" />
		<tag k="place" v="locality" />
		<tag k="ssr:stedsnr" v="325595" />
	</node>
	<node id="-690343" lat="68.018133336" lon="16.1638694431">
		<tag k="name" v="Høgberget" />
		<tag k="name:no" v="Høgberget" />
		<tag k="natural" v="hill" />
		<tag k="place" v="locality" />
		<tag k="ssr:stedsnr" v="325578" />
	</node>
	<node id="-690342" lat="68.0197472229" lon="16.1630111159">
		<tag k="name" v="Gamberget" />
		<tag k="name:no" v="Gamberget" />
		<tag k="natural" v="hill" />
		<tag k="place" v="locality" />
		<tag k="ssr:stedsnr" v="325576" />
	</node>
	<node id="-690338" lat="68.1416444437" lon="16.1054055623">
		<tag k="name" v="Storhågen" />
		<tag k="name:no" v="Storhågen" />
		<tag k="natural" v="hill" />
		<tag k="place" v="locality" />
		<tag k="ssr:stedsnr" v="325561" />
	</node>
	<node id="-690336" lat="68.1487250039" lon="16.0588583446">
		<tag k="name" v="Slettmoa" />
		<tag k="name:no" v="Slettmoa" />
		<tag k="place" v="locality" />
		<tag k="ssr:stedsnr" v="325560" />
	</node>
	<node id="-690334" lat="68.2582833349" lon="15.94451112">
		<tag k="name" v="Naustvikhågen" />
		<tag k="name:no" v="Naustvikhågen" />
		<tag k="natural" v="hill" />
		<tag k="place" v="locality" />
		<tag k="ssr:stedsnr" v="325512" />
	</node>
	<node id="-690333" lat="68.2382055523" lon="16.000791676">
		<tag k="name" v="Vidhola" />
		<tag k="name:no" v="Vidhola" />
		<tag k="natural" v="valley" />
		<tag k="place" v="locality" />
		<tag k="ssr:stedsnr" v="325501" />
	</node>
	<node id="-690332" lat="68.2388694399" lon="15.9874750096">
		<tag k="name" v="Geithola" />
		<tag k="name:no" v="Geithola" />
		<tag k="natural" v="valley" />
		<tag k="place" v="locality" />
		<tag k="ssr:stedsnr" v="325500" />
	</node>
	<node id="-690330" lat="68.1775666677" lon="16.5035444513">
		<tag k="fixme" v="consider natural=peak for the most distinct mountains in the district" />
		<tag k="name" v="Aktsevárre - Tømmeråstinden" />
		<tag k="name:no" v="Tømmeråstinden" />
		<tag k="name:smj" v="Aktsevárre" />
		<tag k="natural" v="hill" />
		<tag k="place" v="locality" />
		<tag k="ssr:stedsnr" v="324583" />
	</node>
	<node id="-690329" lat="68.0766277747" lon="16.0463749865">
		<tag k="name" v="Tjønntuva" />
		<tag k="name:no" v="Tjønntuva" />
		<tag k="natural" v="hill" />
		<tag k="place" v="locality" />
		<tag k="ssr:stedsnr" v="324565" />
	</node>
	<node id="-690327" lat="68.0967944429" lon="16.0997027879">
		<tag k="name" v="Revholten" />
		<tag k="name:no" v="Revholten" />
		<tag k="natural" v="hill" />
		<tag k="place" v="locality" />
		<tag k="ssr:stedsnr" v="324559" />
	</node>
	<node id="-690323" lat="68.1254499981" lon="16.3645527705">
		<tag k="fixme" v="consider natural=peak for the most distinct mountains in the district" />
		<tag k="name" v="Gásluovtvárre - Lifjellet" />
		<tag k="name:no" v="Lifjellet" />
		<tag k="name:smj" v="Gásluovtvárre" />
		<tag k="natural" v="hill" />
		<tag k="place" v="locality" />
		<tag k="ssr:stedsnr" v="323588" />
	</node>
	<node id="-690315" lat="68.0158361114" lon="16.7872249909">
		<tag k="fixme" v="consider natural=peak for the most distinct mountains in the district" />
		<tag k="name" v="Gihtsetjåhkkå" />
		<tag k="name:smj" v="Gihtsetjåhkkå" />
		<tag k="natural" v="hill" />
		<tag k="old_name:smj" v="Gihccečohkka" />
		<tag k="place" v="locality" />
		<tag k="ssr:stedsnr" v="320739" />
	</node>
	<node id="-690314" lat="68.0049138913" lon="16.3784472335">
		<tag k="fixme" v="consider natural=peak for the most distinct mountains in the district" />
		<tag k="name" v="Tverrfjellet" />
		<tag k="name:no" v="Tverrfjellet" />
		<tag k="natural" v="hill" />
		<tag k="place" v="locality" />
		<tag k="ssr:stedsnr" v="320734" />
	</node>
	<node id="-690312" lat="68.0160194441" lon="16.3827499957">
		<tag k="name" v="Gárjjelbákte - Svenskfloget" />
		<tag k="name:no" v="Svenskfloget" />
		<tag k="name:smj" v="Gárjjelbákte" />
		<tag k="natural" v="hill" />
		<tag k="place" v="locality" />
		<tag k="ssr:stedsnr" v="320721" />
	</node>
	<node id="-690310" lat="67.7060888931" lon="16.4504638916">
		<tag k="name" v="Gihtseskåhppe" />
		<tag k="name:smj" v="Gihtseskåhppe" />
		<tag k="natural" v="valley" />
		<tag k="old_name:smj" v="Gihciskohppi" />
		<tag k="place" v="locality" />
		<tag k="ssr:stedsnr" v="320627" />
	</node>
	<node id="-690308" lat="68.1503722205" lon="16.6029222183">
		<tag k="fixme" v="consider natural=peak for the most distinct mountains in the district" />
		<tag k="name" v="Presttinden" />
		<tag k="name:no" v="Presttinden" />
		<tag k="natural" v="hill" />
		<tag k="place" v="locality" />
		<tag k="ssr:stedsnr" v="320610" />
	</node>
	<node id="-690307" lat="68.0456888925" lon="16.040874997">
		<tag k="name" v="Jennyhågen" />
		<tag k="name:no" v="Jennyhågen" />
		<tag k="natural" v="hill" />
		<tag k="place" v="locality" />
		<tag k="ssr:stedsnr" v="320609" />
	</node>
	<node id="-690306" lat="68.0540666677" lon="16.0450166595">
		<tag k="name" v="Øyvollaksla" />
		<tag k="name:no" v="Øyvollaksla" />
		<tag k="natural" v="hill" />
		<tag k="place" v="locality" />
		<tag k="ssr:stedsnr" v="320604" />
	</node>
	<node id="-690302" lat="68.1011583327" lon="16.7153361172">
		<tag k="fixme" v="consider natural=peak for the most distinct mountains in the district" />
		<tag k="name" v="Kjerringtinden" />
		<tag k="name:no" v="Kjerringtinden" />
		<tag k="natural" v="hill" />
		<tag k="place" v="locality" />
		<tag k="ssr:stedsnr" v="320580" />
	</node>
	<node id="-690299" lat="68.0397472187" lon="16.0841416674">
		<tag k="name" v="Mohågen" />
		<tag k="name:no" v="Mohågen" />
		<tag k="natural" v="hill" />
		<tag k="place" v="locality" />
		<tag k="ssr:stedsnr" v="320558" />
	</node>
	<node id="-690296" lat="68.273175003" lon="16.3737416725">
		<tag k="fixme" v="consider natural=peak for the most distinct mountains in the district" />
		<tag k="name" v="Eidtinden" />
		<tag k="name:no" v="Eidtinden" />
		<tag k="natural" v="hill" />
		<tag k="place" v="locality" />
		<tag k="ssr:stedsnr" v="320546" />
	</node>
	<node id="-690287" lat="68.0418444472" lon="16.4891027805">
		<tag k="alt_name:no" v="Seglfjellet" />
		<tag k="fixme" v="consider natural=peak for the most distinct mountains in the district" />
		<tag k="name" v="Bårjjåsa - Segltindan" />
		<tag k="name:no" v="Segltindan" />
		<tag k="name:smj" v="Bårjjåsa" />
		<tag k="natural" v="hill" />
		<tag k="place" v="locality" />
		<tag k="ssr:stedsnr" v="320498" />
	</node>
	<node id="-690281" lat="67.9054111159" lon="16.152805546">
		<tag k="name" v="Hierggelåpptå" />
		<tag k="name:smj" v="Hierggelåpptå" />
		<tag k="natural" v="ridge" />
		<tag k="old_name:smj" v="Heargelopta" />
		<tag k="place" v="locality" />
		<tag k="ssr:stedsnr" v="320379" />
	</node>
	<node id="-690279" lat="67.8638527808" lon="16.4352611147">
		<tag k="name" v="Tjierrek" />
		<tag k="name:smj" v="Tjierrek" />
		<tag k="natural" v="slope" />
		<tag k="old_name:smj" v="Čierreg" />
		<tag k="place" v="locality" />
		<tag k="ssr:stedsnr" v="320360" />
	</node>
	<node id="-690278" lat="67.8414444474" lon="16.395086115">
		<tag k="name" v="Oalgge" />
		<tag k="name:smj" v="Oalgge" />
		<tag k="old_name:smj" v="Oalgi" />
		<tag k="place" v="locality" />
		<tag k="ssr:stedsnr" v="320357" />
	</node>
	<node id="-690276" lat="67.9366333328" lon="16.3704444413">
		<tag k="fixme" v="consider natural=peak for the most distinct mountains in the district" />
		<tag k="name" v="Sáltvuoptjåhkkå - Saltvopfjellet" />
		<tag k="name:no" v="Saltvopfjellet" />
		<tag k="name:smj" v="Sáltvuoptjåhkkå" />
		<tag k="natural" v="hill" />
		<tag k="old_name:smj" v="Sálttvuohppečohkka" />
		<tag k="place" v="locality" />
		<tag k="ssr:stedsnr" v="320343" />
	</node>
	<node id="-690275" lat="67.9757527785" lon="16.4863611033">
		<tag k="fixme" v="consider natural=peak for the most distinct mountains in the district" />
		<tag k="name" v="Slubbo - Klubben" />
		<tag k="name:no" v="Klubben" />
		<tag k="name:smj" v="Slubbo" />
		<tag k="natural" v="hill" />
		<tag k="place" v="locality" />
		<tag k="ssr:stedsnr" v="320301" />
	</node>
	<node id="-690273" lat="67.9563666661" lon="16.3936277766">
		<tag k="name" v="Garváldakoalgge" />
		<tag k="name:smj" v="Garváldakoalgge" />
		<tag k="natural" v="ridge" />
		<tag k="old_name:smj" v="Gárvvaldahkoalgi" />
		<tag k="place" v="locality" />
		<tag k="ssr:stedsnr" v="320287" />
	</node>
	<node id="-690270" lat="67.7710916709" lon="16.4292027676">
		<tag k="fixme" v="consider natural=peak for the most distinct mountains in the district" />
		<tag k="name" v="Juobmorijdtjåhkkå" />
		<tag k="name:smj" v="Juobmorijdtjåhkkå" />
		<tag k="natural" v="hill" />
		<tag k="old_name:smj" v="Juopmoriiddavárri" />
		<tag k="place" v="locality" />
		<tag k="ssr:stedsnr" v="320166" />
	</node>
	<node id="-690269" lat="67.7848472214" lon="16.4908722204">
		<tag k="fixme" v="consider natural=peak for the most distinct mountains in the district" />
		<tag k="name" v="Tjudehårro" />
		<tag k="name:smj" v="Tjudehårro" />
		<tag k="natural" v="hill" />
		<tag k="place" v="locality" />
		<tag k="ssr:stedsnr" v="320164" />
	</node>
	<node id="-690268" lat="67.7922555593" lon="16.539175009">
		<tag k="name" v="Bieslåpptå" />
		<tag k="name:smj" v="Bieslåpptå" />
		<tag k="place" v="locality" />
		<tag k="ssr:stedsnr" v="320155" />
	</node>
	<node id="-690266" lat="67.8148305548" lon="16.3168138815">
		<tag k="fixme" v="consider natural=peak for the most distinct mountains in the district" />
		<tag k="name" v="Hujtakvárre" />
		<tag k="name:smj" v="Hujtakvárre" />
		<tag k="natural" v="hill" />
		<tag k="old_name:smj" v="Huittagvárri" />
		<tag k="place" v="locality" />
		<tag k="ssr:stedsnr" v="320141" />
	</node>
	<node id="-690260" lat="68.0587111081" lon="16.2981500009">
		<tag k="fixme" v="consider natural=peak for the most distinct mountains in the district" />
		<tag k="name" v="Hulløytind" />
		<tag k="name:no" v="Hulløytind" />
		<tag k="natural" v="hill" />
		<tag k="place" v="locality" />
		<tag k="ssr:stedsnr" v="286250" />
	</node>
	<node id="-690251" lat="68.0479194454" lon="16.3660388852">
		<tag k="name" v="Bergopphågen" />
		<tag k="name:no" v="Bergopphågen" />
		<tag k="natural" v="hill" />
		<tag k="place" v="locality" />
		<tag k="ssr:stedsnr" v="282195" />
	</node>
</osm>
