<?xml version="1.0" encoding="UTF-8"?>
<osm generator="osmapis" version="0.6">
	<node id="-691182" lat="68.1389222256" lon="16.0760055539">
		<tag k="name" v="Langmyra" />
		<tag k="name:no" v="Langmyra" />
		<tag k="natural" v="wetland" />
		<tag k="ssr:stedsnr" v="446616" />
	</node>
	<node id="-692050" lat="68.2243388858" lon="16.2878638761">
		<tag k="name" v="Langmarka" />
		<tag k="name:no" v="Langmarka" />
		<tag k="place" v="locality" />
		<tag k="ssr:stedsnr" v="927511" />
	</node>
	<node id="-691877" lat="68.0461583349" lon="16.0396722207">
		<tag k="landuse" v="quarry" />
		<tag k="name" v="Burma" />
		<tag k="name:no" v="Burma" />
		<tag k="ssr:stedsnr" v="810670" />
	</node>
	<node id="-691664" lat="68.2274805585" lon="16.3064638952">
		<tag k="name" v="Lysvollmarka" />
		<tag k="name:no" v="Lysvollmarka" />
		<tag k="place" v="locality" />
		<tag k="ssr:stedsnr" v="689984" />
	</node>
	<node id="-690634" lat="68.2371249986" lon="16.3373111176">
		<tag k="name" v="Middagsmyra" />
		<tag k="name:no" v="Middagsmyra" />
		<tag k="natural" v="wetland" />
		<tag k="ssr:stedsnr" v="22988" />
	</node>
	<node id="-690630" lat="68.2159611083" lon="16.203399995">
		<tag k="name" v="Nesmyra" />
		<tag k="name:no" v="Nesmyra" />
		<tag k="natural" v="wetland" />
		<tag k="ssr:stedsnr" v="22938" />
	</node>
	<node id="-690626" lat="67.9181277797" lon="16.4361138839">
		<tag k="name" v="Sis-Bælgga - Inner-Bælka" />
		<tag k="name:no" v="Inner-Bælka" />
		<tag k="name:smj" v="Sis-Bælgga" />
		<tag k="place" v="locality" />
		<tag k="ssr:stedsnr" v="22898" />
	</node>
	<node id="-690625" lat="68.0772305586" lon="16.2128500079">
		<tag k="historic" v="shieling" />
		<tag k="name" v="Setran" />
		<tag k="name:no" v="Setran" />
		<tag k="place" v="locality" />
		<tag k="ssr:stedsnr" v="22880" />
	</node>
	<node id="-691646" lat="68.0134777748" lon="16.169580548">
		<tag k="name" v="Småelvskogen" />
		<tag k="name:no" v="Småelvskogen" />
		<tag k="place" v="locality" />
		<tag k="ssr:stedsnr" v="689524" />
	</node>
	<node id="-690617" lat="68.102788892" lon="16.0081027847">
		<tag k="name" v="Buoládak" />
		<tag k="name:smj" v="Buoládak" />
		<tag k="place" v="locality" />
		<tag k="ssr:stedsnr" v="22553" />
	</node>
	<node id="-690615" lat="68.0910944446" lon="16.0028361094">
		<tag k="name" v="Stormyra" />
		<tag k="name:no" v="Stormyra" />
		<tag k="natural" v="wetland" />
		<tag k="ssr:stedsnr" v="22534" />
	</node>
	<node id="-691119" lat="67.8437527757" lon="16.3950500078">
		<tag k="name" v="Soarvve" />
		<tag k="name:smj" v="Soarvve" />
		<tag k="old_name:smj" v="Soarvi" />
		<tag k="place" v="locality" />
		<tag k="ssr:stedsnr" v="441359" />
	</node>
	<node id="-691099" lat="67.8037555561" lon="16.5242194486">
		<tag k="name" v="Muorddo" />
		<tag k="name:smj" v="Muorddo" />
		<tag k="place" v="locality" />
		<tag k="ssr:stedsnr" v="264931" />
	</node>
	<node id="-691614" lat="68.0803888869" lon="16.5781666667">
		<tag k="historic" v="shieling" />
		<tag k="name" v="Jæbbmá" />
		<tag k="name:smj" v="Jæbbmá" />
		<tag k="place" v="locality" />
		<tag k="ssr:stedsnr" v="684546" />
	</node>
	<node id="-692123" lat="68.2518527737" lon="16.3841222127">
		<tag k="name" v="Nordfjellmyra" />
		<tag k="name:no" v="Nordfjellmyra" />
		<tag k="natural" v="wetland" />
		<tag k="ssr:stedsnr" v="932999" />
	</node>
	<node id="-691097" lat="67.7949666664" lon="16.5484611214">
		<tag k="name" v="Gámájiegge" />
		<tag k="name:smj" v="Gámájiegge" />
		<tag k="natural" v="wetland" />
		<tag k="ssr:stedsnr" v="264916" />
	</node>
	<node id="-690581" lat="68.07531944" lon="16.6729500073">
		<tag k="historic" v="shieling" />
		<tag k="name" v="Roavve" />
		<tag k="name:smj" v="Roavve" />
		<tag k="place" v="locality" />
		<tag k="ssr:stedsnr" v="17557" />
	</node>
	<node id="-692116" lat="68.1403249984" lon="16.3020805453">
		<tag k="name" v="Holmura" />
		<tag k="name:no" v="Holmura" />
		<tag k="natural" v="scree" />
		<tag k="ssr:stedsnr" v="932953" />
	</node>
	<node id="-691089" lat="68.0906361077" lon="16.6265083305">
		<tag k="name" v="Sykalan" />
		<tag k="name:no" v="Sykalan" />
		<tag k="natural" v="scree" />
		<tag k="ssr:stedsnr" v="264791" />
	</node>
	<node id="-692110" lat="67.7918000029" lon="16.5433638824">
		<tag k="name" v="Bráhkkajiegge" />
		<tag k="name:smj" v="Bráhkkajiegge" />
		<tag k="natural" v="wetland" />
		<tag k="ssr:stedsnr" v="932919" />
	</node>
	<node id="-690571" lat="67.8905833316" lon="16.2450694401">
		<tag k="name" v="Tjájnne" />
		<tag k="name:smj" v="Tjájnne" />
		<tag k="place" v="locality" />
		<tag k="ssr:stedsnr" v="17360" />
	</node>
	<node id="-691591" lat="67.79345" lon="16.4747916647">
		<tag k="name" v="Barájiegge" />
		<tag k="name:smj" v="Barájiegge" />
		<tag k="natural" v="wetland" />
		<tag k="ssr:stedsnr" v="684149" />
	</node>
	<node id="-692102" lat="68.0709555583" lon="16.6432583359">
		<tag k="name" v="Dinessteinen" />
		<tag k="name:no" v="Dinessteinen" />
		<tag k="natural" v="stone" />
		<tag k="ssr:stedsnr" v="932730" />
	</node>
	<node id="-691071" lat="68.1532833347" lon="16.0794916758">
		<tag k="name" v="Hansenmyra" />
		<tag k="name:no" v="Hansenmyra" />
		<tag k="natural" v="wetland" />
		<tag k="ssr:stedsnr" v="264565" />
	</node>
	<node id="-692092" lat="68.0510999962" lon="16.0437860995">
		<tag k="landuse" v="quarry" />
		<tag k="name" v="Per-Jongruva" />
		<tag k="name:no" v="Per-Jongruva" />
		<tag k="ssr:stedsnr" v="932629" />
	</node>
	<node id="-691066" lat="68.0900499971" lon="15.9901750045">
		<tag k="name" v="Lijggejiegge" />
		<tag k="name:smj" v="Lijggejiegge" />
		<tag k="natural" v="wetland" />
		<tag k="ssr:stedsnr" v="264527" />
	</node>
	<node id="-691433" lat="68.0676777797" lon="16.3892750066">
		<tag k="name" v="Kariheimen" />
		<tag k="name:no" v="Kariheimen" />
		<tag k="place" v="locality" />
		<tag k="ssr:stedsnr" v="567665" />
	</node>
	<node id="-690408" lat="67.8066138918" lon="16.6180499958">
		<tag k="name" v="Sjiellajuovva" />
		<tag k="name:smj" v="Sjiellajuovva" />
		<tag k="natural" v="scree" />
		<tag k="old_name:smj" v="Šiellajuovva" />
		<tag k="ssr:stedsnr" v="380140" />
	</node>
	<node id="-691568" lat="68.2192277792" lon="16.2473583362">
		<tag k="name" v="Hallmyra" />
		<tag k="name:no" v="Hallmyra" />
		<tag k="natural" v="wetland" />
		<tag k="ssr:stedsnr" v="628917" />
	</node>
	<node id="-691567" lat="68.2316194438" lon="16.2005388848">
		<tag k="name" v="Stormyra" />
		<tag k="name:no" v="Stormyra" />
		<tag k="natural" v="wetland" />
		<tag k="ssr:stedsnr" v="628918" />
	</node>
	<node id="-691548" lat="68.0752277815" lon="16.3999750036">
		<tag k="name" v="Gaskageddi" />
		<tag k="name:no" v="Gaskageddi" />
		<tag k="place" v="locality" />
		<tag k="ssr:stedsnr" v="628663" />
	</node>
	<node id="-690518" lat="68.2610055584" lon="16.3582833429">
		<tag k="name" v="Uran" />
		<tag k="name:no" v="Uran" />
		<tag k="natural" v="scree" />
		<tag k="ssr:stedsnr" v="385994" />
	</node>
	<node id="-691513" lat="68.0413194414" lon="16.0325277798">
		<tag k="name" v="Jernmyra" />
		<tag k="name:no" v="Jernmyra" />
		<tag k="natural" v="wetland" />
		<tag k="ssr:stedsnr" v="623592" />
	</node>
	<node id="-690516" lat="68.1250166712" lon="16.3397972149">
		<tag k="name" v="Svabakken" />
		<tag k="name:no" v="Svabakken" />
		<tag k="place" v="locality" />
		<tag k="ssr:stedsnr" v="385965" />
	</node>
	<node id="-691538" lat="67.9775694459" lon="16.3701749952">
		<tag k="name" v="Rávnovuobme" />
		<tag k="name:smj" v="Rávnovuobme" />
		<tag k="place" v="locality" />
		<tag k="ssr:stedsnr" v="627921" />
	</node>
	<node id="-690494" lat="68.1923416637" lon="16.0428666567">
		<tag k="name" v="Sommarsetøyra" />
		<tag k="name:no" v="Sommarsetøyra" />
		<tag k="place" v="locality" />
		<tag k="ssr:stedsnr" v="385672" />
	</node>
	<node id="-690489" lat="67.8940333302" lon="16.2579944523">
		<tag k="name" v="Slahpagállo" />
		<tag k="name:smj" v="Slahpagállo" />
		<tag k="natural" v="stone" />
		<tag k="ssr:stedsnr" v="385607" />
	</node>
	<node id="-691422" lat="68.0886611144" lon="15.9954138777">
		<tag k="name" v="Storsteinen" />
		<tag k="name:no" v="Storsteinen" />
		<tag k="natural" v="stone" />
		<tag k="ssr:stedsnr" v="567562" />
	</node>
	<node id="-690482" lat="68.1581805573" lon="16.0945361015">
		<tag k="name" v="Blomen" />
		<tag k="name:no" v="Blomen" />
		<tag k="place" v="locality" />
		<tag k="ssr:stedsnr" v="385579" />
	</node>
	<node id="-690992" lat="68.0472583324" lon="16.3622833375">
		<tag k="name" v="Kumyra" />
		<tag k="name:no" v="Kumyra" />
		<tag k="natural" v="wetland" />
		<tag k="ssr:stedsnr" v="221182" />
	</node>
	<node id="-690477" lat="68.0933555529" lon="16.0147527812">
		<tag k="name" v="Ibmejiegge" />
		<tag k="name:smj" v="Ibmejiegge" />
		<tag k="natural" v="wetland" />
		<tag k="ssr:stedsnr" v="385535" />
	</node>
	<node id="-690476" lat="68.0896611135" lon="16.0178944491">
		<tag k="name" v="Áhkkojiegge" />
		<tag k="name:smj" v="Áhkkojiegge" />
		<tag k="natural" v="wetland" />
		<tag k="ssr:stedsnr" v="385534" />
	</node>
	<node id="-691498" lat="67.8806805574" lon="16.1532694455">
		<tag k="name" v="Hántsigállo" />
		<tag k="name:smj" v="Hántsigállo" />
		<tag k="natural" v="stone" />
		<tag k="ssr:stedsnr" v="623444" />
	</node>
	<node id="-692005" lat="68.0447388853" lon="16.0369333396">
		<tag k="landuse" v="quarry" />
		<tag k="name" v="Jennygruven" />
		<tag k="name:no" v="Jennygruven" />
		<tag k="ssr:stedsnr" v="871772" />
	</node>
	<node id="-690976" lat="68.0745166647" lon="16.6390444436">
		<tag k="name" v="Osturan" />
		<tag k="name:no" v="Osturan" />
		<tag k="natural" v="scree" />
		<tag k="ssr:stedsnr" v="204742" />
	</node>
	<node id="-690480" lat="68.1455227354" lon="16.1019641181">
		<tag k="name" v="Suojnnejiegge - Sennmyra" />
		<tag k="name:no" v="Sennmyra" />
		<tag k="name:smj" v="Suojnnejiegge" />
		<tag k="natural" v="wetland" />
		<tag k="ssr:stedsnr" v="385576" />
	</node>
	<node id="-691482" lat="67.9656750007" lon="16.4172500071">
		<tag k="name" v="Bájsájiegge" />
		<tag k="name:smj" v="Bájsájiegge" />
		<tag k="natural" v="wetland" />
		<tag k="old_name:smj" v="Báiccajeaggi" />
		<tag k="ssr:stedsnr" v="623289" />
	</node>
	<node id="-691993" lat="68.0490833322" lon="16.042202773">
		<tag k="landuse" v="quarry" />
		<tag k="name" v="Ner-Øyvollgruva" />
		<tag k="name:no" v="Ner-Øyvollgruva" />
		<tag k="ssr:stedsnr" v="871643" />
	</node>
	<node id="-691992" lat="68.0420944461" lon="16.063805551">
		<tag k="name" v="Båtstømyran" />
		<tag k="name:no" v="Båtstømyran" />
		<tag k="natural" v="wetland" />
		<tag k="ssr:stedsnr" v="871635" />
	</node>
	<node id="-691990" lat="67.8829527823" lon="16.2112333226">
		<tag k="name" v="Skåhpebuollda" />
		<tag k="name:smj" v="Skåhpebuollda" />
		<tag k="place" v="locality" />
		<tag k="ssr:stedsnr" v="871561" />
	</node>
	<node id="-690962" lat="68.10688611" lon="16.0985388962">
		<tag k="name" v="Nordmarka" />
		<tag k="name:no" v="Nordmarka" />
		<tag k="place" v="locality" />
		<tag k="ssr:stedsnr" v="204485" />
	</node>
	<node id="-691472" lat="68.0629138896" lon="16.4291583418">
		<tag k="name" v="Sennmyra" />
		<tag k="name:no" v="Sennmyra" />
		<tag k="natural" v="wetland" />
		<tag k="ssr:stedsnr" v="585174" />
	</node>
	<node id="-691453" lat="67.8021527765" lon="16.542594439">
		<tag k="name" v="Sájvajiegge" />
		<tag k="name:smj" v="Sájvajiegge" />
		<tag k="natural" v="wetland" />
		<tag k="ssr:stedsnr" v="567943" />
	</node>
	<node id="-691450" lat="67.9989888865" lon="16.3375583308">
		<tag k="name" v="Munkeskogen" />
		<tag k="name:no" v="Munkeskogen" />
		<tag k="place" v="locality" />
		<tag k="ssr:stedsnr" v="567915" />
	</node>
	<node id="-690727" lat="68.0333583318" lon="16.0778861018">
		<tag k="landuse" v="quarry" />
		<tag k="name" v="Hammondgruva" />
		<tag k="name:no" v="Hammondgruva" />
		<tag k="ssr:stedsnr" v="82648" />
	</node>
	<node id="-691444" lat="68.0416833333" lon="16.0341472331">
		<tag k="name" v="Brentåsmyran" />
		<tag k="name:no" v="Brentåsmyran" />
		<tag k="natural" v="wetland" />
		<tag k="ssr:stedsnr" v="567794" />
	</node>
	<node id="-691442" lat="68.0917083337" lon="16.6306249931">
		<tag k="name" v="Tjuvsteinen" />
		<tag k="name:no" v="Tjuvsteinen" />
		<tag k="natural" v="stone" />
		<tag k="ssr:stedsnr" v="567773" />
	</node>
	<node id="-691439" lat="68.0468277757" lon="16.0098277827">
		<tag k="name" v="Trettbakkmyran" />
		<tag k="name:no" v="Trettbakkmyran" />
		<tag k="natural" v="wetland" />
		<tag k="ssr:stedsnr" v="567745" />
	</node>
	<node id="-691436" lat="68.077125001" lon="16.3999888841">
		<tag k="name" v="Lapplægerskogen" />
		<tag k="name:no" v="Lapplægerskogen" />
		<tag k="place" v="locality" />
		<tag k="ssr:stedsnr" v="567686" />
	</node>
	<node id="-690921" lat="67.9074222247" lon="16.1928666737">
		<tag k="name" v="Gasskaládo" />
		<tag k="name:smj" v="Gasskaládo" />
		<tag k="old_name:smj" v="Gaskaládu" />
		<tag k="place" v="locality" />
		<tag k="ssr:stedsnr" v="199387" />
	</node>
	<node id="-690920" lat="67.853558335" lon="16.3558749984">
		<tag k="name" v="Skápjuovva" />
		<tag k="name:smj" v="Skápjuovva" />
		<tag k="natural" v="scree" />
		<tag k="old_name:smj" v="Skábejuovva" />
		<tag k="ssr:stedsnr" v="199359" />
	</node>
	<node id="-691431" lat="68.0502166691" lon="16.0429416563">
		<tag k="landuse" v="quarry" />
		<tag k="name" v="Øver-Øyvollgruva" />
		<tag k="name:no" v="Øver-Øyvollgruva" />
		<tag k="ssr:stedsnr" v="567653" />
	</node>
	<node id="-691429" lat="68.0464083299" lon="16.0415555438">
		<tag k="landuse" v="quarry" />
		<tag k="name" v="Kvartsbruddet" />
		<tag k="name:no" v="Kvartsbruddet" />
		<tag k="ssr:stedsnr" v="567651" />
	</node>
	<node id="-690916" lat="67.9331194462" lon="16.4083416717">
		<tag k="name" v="Álmenik - Allmenningen" />
		<tag k="name:no" v="Allmenningen" />
		<tag k="name:smj" v="Álmenik" />
		<tag k="old_name:smj" v="Álmennik" />
		<tag k="place" v="locality" />
		<tag k="ssr:stedsnr" v="199340" />
	</node>
	<node id="-691068" lat="68.021366665" lon="16.1334222306">
		<tag k="name" v="Stormyran" />
		<tag k="name:no" v="Stormyran" />
		<tag k="natural" v="wetland" />
		<tag k="ssr:stedsnr" v="264559" />
	</node>
	<node id="-691919" lat="68.038888888" lon="16.3786861199">
		<tag k="name" v="Tjukkskogen" />
		<tag k="name:no" v="Tjukkskogen" />
		<tag k="place" v="locality" />
		<tag k="ssr:stedsnr" v="828179" />
	</node>
	<node id="-690378" lat="68.222541664" lon="16.2482083371">
		<tag k="name" v="Langosmyra" />
		<tag k="name:no" v="Langosmyra" />
		<tag k="natural" v="wetland" />
		<tag k="ssr:stedsnr" v="325928" />
	</node>
	<node id="-691899" lat="68.1356388861" lon="16.1191055421">
		<tag k="landuse" v="meadow" />
		<tag k="name" v="Skjellåkeren" />
		<tag k="name:no" v="Skjellåkeren" />
		<tag k="ssr:stedsnr" v="810910" />
	</node>
	<node id="-691895" lat="68.1483499975" lon="16.1203638892">
		<tag k="historic" v="shieling" />
		<tag k="name" v="Pemparjorda" />
		<tag k="name:no" v="Pemparjorda" />
		<tag k="place" v="locality" />
		<tag k="ssr:stedsnr" v="810893" />
	</node>
	<node id="-691892" lat="68.0924249979" lon="16.6033916768">
		<tag k="name" v="Otersteinen" />
		<tag k="name:no" v="Otersteinen" />
		<tag k="natural" v="stone" />
		<tag k="ssr:stedsnr" v="810803" />
	</node>
	<node id="-691886" lat="68.0447833335" lon="16.0044444324">
		<tag k="landuse" v="quarry" />
		<tag k="name" v="Lapplægergruva" />
		<tag k="name:no" v="Lapplægergruva" />
		<tag k="ssr:stedsnr" v="810773" />
	</node>
	<node id="-690860" lat="68.0474777774" lon="16.1844138781">
		<tag k="historic" v="shieling" />
		<tag k="name" v="Litl-Hulløyjorda" />
		<tag k="name:no" v="Litl-Hulløyjorda" />
		<tag k="place" v="locality" />
		<tag k="ssr:stedsnr" v="142879" />
	</node>
	<node id="-691368" lat="67.8930166676" lon="16.1255638828">
		<tag k="name" v="Goasstejiegŋa" />
		<tag k="name:smj" v="Goasstejiegŋa" />
		<tag k="natural" v="glacier" />
		<tag k="old_name:smj" v="Goastejiekŋa" />
		<tag k="ssr:stedsnr" v="562414" />
	</node>
	<node id="-690341" lat="68.1481000009" lon="16.1091805557">
		<tag k="name" v="Langmyra" />
		<tag k="name:no" v="Langmyra" />
		<tag k="natural" v="wetland" />
		<tag k="ssr:stedsnr" v="325575" />
	</node>
	<node id="-691874" lat="68.1385999977" lon="16.0547722305">
		<tag k="name" v="Gullikmyra" />
		<tag k="name:no" v="Gullikmyra" />
		<tag k="natural" v="wetland" />
		<tag k="ssr:stedsnr" v="810610" />
	</node>
	<node id="-691870" lat="68.0824694451" lon="16.06330833">
		<tag k="name" v="Langosmyra" />
		<tag k="name:no" v="Langosmyra" />
		<tag k="natural" v="wetland" />
		<tag k="ssr:stedsnr" v="810582" />
	</node>
	<node id="-691868" lat="68.0123916635" lon="16.1637166754">
		<tag k="name" v="Middagsskogen" />
		<tag k="name:no" v="Middagsskogen" />
		<tag k="place" v="locality" />
		<tag k="ssr:stedsnr" v="810567" />
	</node>
	<node id="-690328" lat="68.0808361087" lon="16.0792749922">
		<tag k="landuse" v="quarry" />
		<tag k="name" v="Storvikfjellet" />
		<tag k="name:no" v="Storvikfjellet" />
		<tag k="ssr:stedsnr" v="324563" />
	</node>
	<node id="-691327" lat="68.1077472188" lon="16.0984388959">
		<tag k="name" v="Kjerran" />
		<tag k="name:no" v="Kjerran" />
		<tag k="natural" v="scree" />
		<tag k="ssr:stedsnr" v="508578" />
	</node>
	<node id="-690294" lat="68.2626361112" lon="16.3540888953">
		<tag k="name" v="Stor-Skarvsteinen" />
		<tag k="name:no" v="Stor-Skarvsteinen" />
		<tag k="natural" v="stone" />
		<tag k="ssr:stedsnr" v="320534" />
	</node>
	<node id="-690289" lat="68.0884416705" lon="16.2488749886">
		<tag k="name" v="Kiura" />
		<tag k="name:no" v="Kiura" />
		<tag k="natural" v="scree" />
		<tag k="ssr:stedsnr" v="320512" />
	</node>
	<node id="-691302" lat="68.1246833352" lon="16.1020388878">
		<tag k="name" v="Skredmyra" />
		<tag k="name:no" v="Skredmyra" />
		<tag k="natural" v="wetland" />
		<tag k="ssr:stedsnr" v="507611" />
	</node>
	<node id="-691301" lat="67.8948388863" lon="16.1997722289">
		<tag k="name" v="Tjuhppagállo" />
		<tag k="name:smj" v="Tjuhppagállo" />
		<tag k="natural" v="stone" />
		<tag k="ssr:stedsnr" v="507605" />
	</node>
	<node id="-691290" lat="68.0402277809" lon="16.0144166736">
		<tag k="name" v="Lapplægerskogen" />
		<tag k="name:no" v="Lapplægerskogen" />
		<tag k="place" v="locality" />
		<tag k="ssr:stedsnr" v="506799" />
	</node>
	<node id="-691801" lat="68.0725027748" lon="15.9433055617">
		<tag k="name" v="Langvikmyran" />
		<tag k="name:no" v="Langvikmyran" />
		<tag k="natural" v="wetland" />
		<tag k="ssr:stedsnr" v="767937" />
	</node>
	<node id="-690253" lat="68.0675972243" lon="16.0529944549">
		<tag k="landuse" v="quarry" />
		<tag k="name" v="Fjellgruvene" />
		<tag k="name:no" v="Fjellgruvene" />
		<tag k="ssr:stedsnr" v="282956" />
	</node>
	<node id="-691785" lat="67.7987472215" lon="16.5263833301">
		<tag k="name" v="Buoládak" />
		<tag k="name:smj" v="Buoládak" />
		<tag k="place" v="locality" />
		<tag k="ssr:stedsnr" v="750915" />
	</node>
	<node id="-691780" lat="68.1490138885" lon="16.1182722261">
		<tag k="name" v="Pemparmyra" />
		<tag k="name:no" v="Pemparmyra" />
		<tag k="natural" v="wetland" />
		<tag k="ssr:stedsnr" v="750861" />
	</node>
	<node id="-691779" lat="68.1454972233" lon="16.1142972294">
		<tag k="name" v="Bjørnmyra" />
		<tag k="name:no" v="Bjørnmyra" />
		<tag k="natural" v="wetland" />
		<tag k="ssr:stedsnr" v="750857" />
	</node>
	<node id="-690750" lat="68.2308111123" lon="16.3128500106">
		<tag k="name" v="Sennmyra" />
		<tag k="name:no" v="Sennmyra" />
		<tag k="natural" v="wetland" />
		<tag k="ssr:stedsnr" v="82983" />
	</node>
	<node id="-691768" lat="68.1501222231" lon="16.0548611026">
		<tag k="name" v="Slettmomyra" />
		<tag k="name:no" v="Slettmomyra" />
		<tag k="natural" v="wetland" />
		<tag k="ssr:stedsnr" v="750568" />
	</node>
	<node id="-691767" lat="68.15755" lon="16.0501861124">
		<tag k="name" v="Stolpmyra" />
		<tag k="name:no" v="Stolpmyra" />
		<tag k="natural" v="wetland" />
		<tag k="ssr:stedsnr" v="750567" />
	</node>
	<node id="-690740" lat="67.8033249978" lon="16.5373388858">
		<tag k="landuse" v="meadow" />
		<tag k="name" v="Subásjgiedde" />
		<tag k="name:smj" v="Subásjgiedde" />
		<tag k="ssr:stedsnr" v="82930" />
	</node>
	<node id="-691759" lat="68.0432972179" lon="16.025272223">
		<tag k="landuse" v="quarry" />
		<tag k="name" v="Litlbakkgruva" />
		<tag k="name:no" v="Litlbakkgruva" />
		<tag k="ssr:stedsnr" v="749829" />
	</node>
	<node id="-691756" lat="68.2196111091" lon="16.0857444433">
		<tag k="name" v="Stormyra" />
		<tag k="name:no" v="Stormyra" />
		<tag k="natural" v="wetland" />
		<tag k="ssr:stedsnr" v="749734" />
	</node>
	<node id="-691755" lat="68.2129222234" lon="16.0897444494">
		<tag k="name" v="Langmyra" />
		<tag k="name:no" v="Langmyra" />
		<tag k="natural" v="wetland" />
		<tag k="ssr:stedsnr" v="749730" />
	</node>
	<node id="-691239" lat="67.8348249967" lon="16.454166671">
		<tag k="name" v="Gihttá" />
		<tag k="name:smj" v="Gihttá" />
		<tag k="old_name:smj" v="Gihtta" />
		<tag k="place" v="locality" />
		<tag k="ssr:stedsnr" v="502343" />
	</node>
	<node id="-691225" lat="67.8060333321" lon="16.5441444417">
		<tag k="name" v="Buvrásj" />
		<tag k="name:smj" v="Buvrásj" />
		<tag k="place" v="locality" />
		<tag k="ssr:stedsnr" v="502127" />
	</node>
	<node id="-691735" lat="68.0094055546" lon="16.8041527865">
		<tag k="name" v="Gihtsejiegŋa" />
		<tag k="name:smj" v="Gihtsejiegŋa" />
		<tag k="natural" v="glacier" />
		<tag k="old_name:smj" v="Gihtsejiegńa;Gihtsejiekŋa;Gihccejiekŋa" />
		<tag k="ssr:stedsnr" v="745765" />
	</node>
	<node id="-691211" lat="68.2296194461" lon="16.2734166702">
		<tag k="name" v="Lappvikmyra" />
		<tag k="name:no" v="Lappvikmyra" />
		<tag k="natural" v="wetland" />
		<tag k="ssr:stedsnr" v="446990" />
	</node>
	<node id="-691209" lat="68.2384555536" lon="16.2796305445">
		<tag k="name" v="Grønnstranda" />
		<tag k="name:no" v="Grønnstranda" />
		<tag k="place" v="locality" />
		<tag k="ssr:stedsnr" v="446982" />
	</node>
	<node id="-691203" lat="67.8189055535" lon="16.5188333264">
		<tag k="name" v="Stuorjuovva" />
		<tag k="name:smj" v="Stuorjuovva" />
		<tag k="natural" v="scree" />
		<tag k="ssr:stedsnr" v="446924" />
	</node>
</osm>
