<?xml version="1.0" encoding="UTF-8"?>
<osm version="0.6" generator="osmapis">
	<node lat="70.52539168742247" lon="28.436496451463743" id="-103468">
		<tag k="name" v="Vagge Søre" />
		<tag k="ssr:date" v="2019-12-27" />
		<tag k="ssr:gruppe" v="navigasjon" />
		<tag k="ssr:hovedgruppe" v="infrastruktur" />
		<tag k="ssr:stedsnr" v="223807" />
		<tag k="ssr:type" v="lysbøye" />
	</node>
	<node lat="70.51788156134174" lon="28.04536139437757" id="-103900">
		<tag k="name" v="Bergholmen" />
		<tag k="ssr:date" v="2020-09-17" />
		<tag k="ssr:gruppe" v="navigasjon" />
		<tag k="ssr:hovedgruppe" v="infrastruktur" />
		<tag k="ssr:stedsnr" v="626403" />
		<tag k="ssr:type" v="fyrlykt" />
	</node>
	<node lat="70.53556668777429" lon="28.426457561725" id="-104077">
		<tag k="name" v="Maridalen, Nedre" />
		<tag k="ssr:date" v="2019-12-27" />
		<tag k="ssr:gruppe" v="navigasjon" />
		<tag k="ssr:hovedgruppe" v="infrastruktur" />
		<tag k="ssr:stedsnr" v="830788" />
		<tag k="ssr:type" v="lanterne" />
	</node>
	<node lat="70.53546113672122" lon="28.427421444307942" id="-104224">
		<tag k="name" v="Maridalen, Øvre" />
		<tag k="ssr:date" v="2019-12-27" />
		<tag k="ssr:gruppe" v="navigasjon" />
		<tag k="ssr:hovedgruppe" v="infrastruktur" />
		<tag k="ssr:stedsnr" v="951800" />
		<tag k="ssr:type" v="lanterne" />
	</node>
	<node lat="70.5008333536308" lon="28.368249250408606" id="-104520">
		<tag k="name" v="Veienden" />
		<tag k="ssr:date" v="2019-12-27" />
		<tag k="ssr:gruppe" v="veg" />
		<tag k="ssr:hovedgruppe" v="infrastruktur" />
		<tag k="ssr:stedsnr" v="155547" />
		<tag k="ssr:type" v="adressetilleggsnavn" />
	</node>
	<node lat="70.53710279608522" lon="28.40869922078551" id="-104780">
		<tag k="name" v="Stangenes lysbøye" />
		<tag k="ssr:date" v="2019-12-27" />
		<tag k="ssr:gruppe" v="navigasjon" />
		<tag k="ssr:hovedgruppe" v="infrastruktur" />
		<tag k="ssr:stedsnr" v="344800" />
		<tag k="ssr:type" v="lysbøye" />
	</node>
	<node lat="70.450604080899" lon="28.037514608597238" id="-105312">
		<tag k="name" v="Steinsvikneset" />
		<tag k="ssr:date" v="2020-11-10" />
		<tag k="ssr:gruppe" v="navigasjon" />
		<tag k="ssr:hovedgruppe" v="infrastruktur" />
		<tag k="ssr:stedsnr" v="756967" />
		<tag k="ssr:type" v="fyrlykt" />
	</node>
	<node lat="70.20142236382908" lon="28.16907713225677" id="-105580">
		<tag k="name" v="Meieriveien" />
		<tag k="ssr:date" v="2019-12-27" />
		<tag k="ssr:gruppe" v="veg" />
		<tag k="ssr:hovedgruppe" v="infrastruktur" />
		<tag k="ssr:stedsnr" v="1055736" />
		<tag k="ssr:type" v="adressenavn" />
	</node>
	<node lat="70.23214959235153" lon="28.18242297788137" id="-105581">
		<tag k="name" v="Persenveien" />
		<tag k="ssr:date" v="2019-12-27" />
		<tag k="ssr:gruppe" v="veg" />
		<tag k="ssr:hovedgruppe" v="infrastruktur" />
		<tag k="ssr:stedsnr" v="1055737" />
		<tag k="ssr:type" v="adressenavn" />
	</node>
	<node lat="70.19782764179277" lon="28.186443005247767" id="-105583">
		<tag k="name" v="Fosseveien" />
		<tag k="ssr:date" v="2019-12-27" />
		<tag k="ssr:gruppe" v="veg" />
		<tag k="ssr:hovedgruppe" v="infrastruktur" />
		<tag k="ssr:stedsnr" v="1055203" />
		<tag k="ssr:type" v="adressenavn" />
	</node>
	<node lat="70.23101475734539" lon="28.180263287465454" id="-105584">
		<tag k="name" v="Internatplassen" />
		<tag k="ssr:date" v="2019-12-27" />
		<tag k="ssr:gruppe" v="veg" />
		<tag k="ssr:hovedgruppe" v="infrastruktur" />
		<tag k="ssr:stedsnr" v="1055339" />
		<tag k="ssr:type" v="adressenavn" />
	</node>
	<node lat="70.19820646740311" lon="28.177954022211686" id="-105586">
		<tag k="name" v="Lismaveien" />
		<tag k="ssr:date" v="2019-12-27" />
		<tag k="ssr:gruppe" v="veg" />
		<tag k="ssr:hovedgruppe" v="infrastruktur" />
		<tag k="ssr:stedsnr" v="1055371" />
		<tag k="ssr:type" v="adressenavn" />
	</node>
	<node lat="70.23363968155896" lon="28.185697254765742" id="-105587">
		<tag k="name" v="Lahmveien" />
		<tag k="ssr:date" v="2019-12-27" />
		<tag k="ssr:gruppe" v="veg" />
		<tag k="ssr:hovedgruppe" v="infrastruktur" />
		<tag k="ssr:stedsnr" v="1055381" />
		<tag k="ssr:type" v="adressenavn" />
	</node>
	<node lat="70.19882162728005" lon="28.168954448569888" id="-105589">
		<tag k="name" v="Lyngveien" />
		<tag k="ssr:date" v="2019-12-27" />
		<tag k="ssr:gruppe" v="veg" />
		<tag k="ssr:hovedgruppe" v="infrastruktur" />
		<tag k="ssr:stedsnr" v="1055423" />
		<tag k="ssr:type" v="adressenavn" />
	</node>
	<node lat="70.4382659931752" lon="28.510699574634547" id="-105590">
		<tag k="name" v="Kvartsveien" />
		<tag k="ssr:date" v="2019-12-27" />
		<tag k="ssr:gruppe" v="veg" />
		<tag k="ssr:hovedgruppe" v="infrastruktur" />
		<tag k="ssr:stedsnr" v="1055521" />
		<tag k="ssr:type" v="adressenavn" />
	</node>
	<node lat="70.23128263063872" lon="28.178629641159336" id="-105593">
		<tag k="name" v="Seidaveien" />
		<tag k="ssr:date" v="2019-12-27" />
		<tag k="ssr:gruppe" v="veg" />
		<tag k="ssr:hovedgruppe" v="infrastruktur" />
		<tag k="ssr:stedsnr" v="1055590" />
		<tag k="ssr:type" v="adressenavn" />
	</node>
	<node lat="70.19953244876504" lon="28.18724533998149" id="-105594">
		<tag k="name" v="Rådhusveien" />
		<tag k="ssr:date" v="2019-12-27" />
		<tag k="ssr:gruppe" v="veg" />
		<tag k="ssr:hovedgruppe" v="infrastruktur" />
		<tag k="ssr:stedsnr" v="1055599" />
		<tag k="ssr:type" v="adressenavn" />
	</node>
	<node lat="70.19913137040187" lon="28.190154293092327" id="-105597">
		<tag k="name" v="Ringveien" />
		<tag k="ssr:date" v="2019-12-27" />
		<tag k="ssr:gruppe" v="veg" />
		<tag k="ssr:hovedgruppe" v="infrastruktur" />
		<tag k="ssr:stedsnr" v="1055730" />
		<tag k="ssr:type" v="adressenavn" />
	</node>
	<node lat="70.16540579852747" lon="28.224751202838885" id="-105599">
		<tag k="name" v="Skipagurraveien" />
		<tag k="ssr:date" v="2019-12-27" />
		<tag k="ssr:gruppe" v="veg" />
		<tag k="ssr:hovedgruppe" v="infrastruktur" />
		<tag k="ssr:stedsnr" v="1055803" />
		<tag k="ssr:type" v="adressenavn" />
	</node>
	<node lat="70.19777148557422" lon="28.182588131858978" id="-105600">
		<tag k="name" v="Skaidiveien" />
		<tag k="ssr:date" v="2019-12-27" />
		<tag k="ssr:gruppe" v="veg" />
		<tag k="ssr:hovedgruppe" v="infrastruktur" />
		<tag k="ssr:stedsnr" v="1055810" />
		<tag k="ssr:type" v="adressenavn" />
	</node>
	<node lat="70.42684756194147" lon="28.233176294595594" id="-105601">
		<tag k="name" v="Tanahus" />
		<tag k="ssr:date" v="2019-12-27" />
		<tag k="ssr:gruppe" v="veg" />
		<tag k="ssr:hovedgruppe" v="infrastruktur" />
		<tag k="ssr:stedsnr" v="1056094" />
		<tag k="ssr:type" v="adressenavn" />
	</node>
	<node lat="70.2013034644684" lon="28.1630636388546" id="-105605">
		<tag k="name" v="Åsveien" />
		<tag k="ssr:date" v="2019-12-27" />
		<tag k="ssr:gruppe" v="veg" />
		<tag k="ssr:hovedgruppe" v="infrastruktur" />
		<tag k="ssr:stedsnr" v="1056063" />
		<tag k="ssr:type" v="adressenavn" />
	</node>
	<node lat="70.22170913768001" lon="28.16001573663921" id="-105701">
		<tag k="name" v="Ávnnotgurra" />
		<tag k="name:se" v="Ávnnotgurra" />
		<tag k="ssr:date" v="2020-12-09" />
		<tag k="ssr:gruppe" v="veg" />
		<tag k="ssr:hovedgruppe" v="infrastruktur" />
		<tag k="ssr:stedsnr" v="1079290" />
		<tag k="ssr:type" v="adressenavn" />
	</node>
</osm>
