<?xml version="1.0" encoding="UTF-8"?>
<osm generator="osmapis" version="0.6">
	<node id="-5374" lat="59.2752249985" lon="11.105777773">
		<tag k="alt_name" v="Østfold" />
		<tag k="name" v="Østfold fylke" />
		<tag k="ssr:date" v="2016-05-10" />
		<tag k="ssr:gruppe" v="administrativeIndelinger" />
		<tag k="ssr:hovedgruppe" v="offentligAdministrasjon" />
		<tag k="ssr:stedsnr" v="631219" />
		<tag k="ssr:type" v="fylke" />
	</node>
	<node id="-6005" lat="60.5908609473" lon="9.63819281559">
		<tag k="fixme" v="multiple name tags, choose one and add the other to alt_name" />
		<tag k="name" v="Austlandet;Østlandet" />
		<tag k="ssr:date" v="2018-01-09" />
		<tag k="ssr:gruppe" v="administrativeIndelinger" />
		<tag k="ssr:hovedgruppe" v="offentligAdministrasjon" />
		<tag k="ssr:stedsnr" v="974775" />
		<tag k="ssr:type" v="annenAdministrativInndeling" />
	</node>
	<node id="-4330" lat="59.1074999994" lon="11.169000003">
		<tag k="name" v="Haslauflu" />
		<tag k="old_name" v="Haslauflua;Haslauflu lykt" />
		<tag k="ssr:date" v="2016-05-10" />
		<tag k="ssr:gruppe" v="navigasjon" />
		<tag k="ssr:hovedgruppe" v="infrastruktur" />
		<tag k="ssr:stedsnr" v="1850" />
		<tag k="ssr:type" v="fyrlykt" />
	</node>
	<node id="-5865" lat="59.3911666709" lon="11.0090416616">
		<tag k="name" v="Merrasprengbakken" />
		<tag k="ssr:date" v="2016-05-11" />
		<tag k="ssr:gruppe" v="veg" />
		<tag k="ssr:hovedgruppe" v="infrastruktur" />
		<tag k="ssr:stedsnr" v="901029" />
		<tag k="ssr:type" v="vegstrekning" />
	</node>
	<node id="-4327" lat="59.283376894" lon="11.0584364964">
		<tag k="name" v="Torvmyrveien" />
		<tag k="ssr:date" v="2019-05-30" />
		<tag k="ssr:gruppe" v="veg" />
		<tag k="ssr:hovedgruppe" v="infrastruktur" />
		<tag k="ssr:stedsnr" v="994509" />
		<tag k="ssr:type" v="adressenavn" />
	</node>
	<node id="-4326" lat="59.2686502583" lon="11.0400558622">
		<tag k="name" v="Tindlund Park" />
		<tag k="ssr:date" v="2019-05-30" />
		<tag k="ssr:gruppe" v="veg" />
		<tag k="ssr:hovedgruppe" v="infrastruktur" />
		<tag k="ssr:stedsnr" v="994317" />
		<tag k="ssr:type" v="adressenavn" />
	</node>
	<node id="-4325" lat="59.3241557345" lon="10.9552914698">
		<tag k="name" v="Solliveien" />
		<tag k="ssr:date" v="2019-05-30" />
		<tag k="ssr:gruppe" v="veg" />
		<tag k="ssr:hovedgruppe" v="infrastruktur" />
		<tag k="ssr:stedsnr" v="994154" />
		<tag k="ssr:type" v="adressenavn" />
	</node>
	<node id="-4315" lat="59.3429851221" lon="11.1816030831">
		<tag k="name" v="Thorvald Bergeruds vei" />
		<tag k="ssr:date" v="2019-12-12" />
		<tag k="ssr:gruppe" v="veg" />
		<tag k="ssr:hovedgruppe" v="infrastruktur" />
		<tag k="ssr:stedsnr" v="1074120" />
		<tag k="ssr:type" v="adressenavn" />
	</node>
	<node id="-4314" lat="59.3439348592" lon="11.181751954">
		<tag k="name" v="Olga Sælids vei" />
		<tag k="ssr:date" v="2019-12-12" />
		<tag k="ssr:gruppe" v="veg" />
		<tag k="ssr:hovedgruppe" v="infrastruktur" />
		<tag k="ssr:stedsnr" v="1074119" />
		<tag k="ssr:type" v="adressenavn" />
	</node>
	<node id="-4313" lat="59.3453416538" lon="11.1808924575">
		<tag k="name" v="Brunsbykollen" />
		<tag k="ssr:date" v="2019-12-12" />
		<tag k="ssr:gruppe" v="veg" />
		<tag k="ssr:hovedgruppe" v="infrastruktur" />
		<tag k="ssr:stedsnr" v="1074118" />
		<tag k="ssr:type" v="adressenavn" />
	</node>
	<node id="-4312" lat="59.2719618697" lon="11.0603851693">
		<tag k="name" v="Gnoldenstien" />
		<tag k="ssr:date" v="2019-12-03" />
		<tag k="ssr:gruppe" v="veg" />
		<tag k="ssr:hovedgruppe" v="infrastruktur" />
		<tag k="ssr:stedsnr" v="1073641" />
		<tag k="ssr:type" v="adressenavn" />
	</node>
	<node id="-4439" lat="59.2672333378" lon="11.0702249922">
		<tag k="name" v="Helleskjæret lykt" />
		<tag k="ssr:date" v="2016-05-10" />
		<tag k="ssr:gruppe" v="navigasjon" />
		<tag k="ssr:hovedgruppe" v="infrastruktur" />
		<tag k="ssr:stedsnr" v="39800" />
		<tag k="ssr:type" v="fyrlykt" />
	</node>
	<node id="-4310" lat="59.2710543392" lon="11.060400538">
		<tag k="name" v="Gartneristien" />
		<tag k="name:no" v="Gartneristien" />
		<tag k="ssr:date" v="2019-12-03" />
		<tag k="ssr:gruppe" v="veg" />
		<tag k="ssr:hovedgruppe" v="infrastruktur" />
		<tag k="ssr:stedsnr" v="1073638" />
		<tag k="ssr:type" v="adressenavn" />
	</node>
	<node id="-4309" lat="59.3089629759" lon="11.2327118052">
		<tag k="name" v="Spydevold II" />
		<tag k="ssr:date" v="2019-11-26" />
		<tag k="ssr:gruppe" v="veg" />
		<tag k="ssr:hovedgruppe" v="infrastruktur" />
		<tag k="ssr:stedsnr" v="1073522" />
		<tag k="ssr:type" v="adressenavn" />
	</node>
	<node id="-4308" lat="59.2749400009" lon="11.1787046624">
		<tag k="name" v="Engsmyrjordet" />
		<tag k="ssr:date" v="2019-11-25" />
		<tag k="ssr:gruppe" v="veg" />
		<tag k="ssr:hovedgruppe" v="infrastruktur" />
		<tag k="ssr:stedsnr" v="1073511" />
		<tag k="ssr:type" v="adressenavn" />
	</node>
	<node id="-4306" lat="59.2628498035" lon="11.1678612669">
		<tag k="name" v="Hauggårdsveien" />
		<tag k="ssr:date" v="2019-11-13" />
		<tag k="ssr:gruppe" v="veg" />
		<tag k="ssr:hovedgruppe" v="infrastruktur" />
		<tag k="ssr:stedsnr" v="1073229" />
		<tag k="ssr:type" v="adressenavn" />
	</node>
	<node id="-4304" lat="59.3762303892" lon="11.1601259366">
		<tag k="name" v="Båtbyggerveien" />
		<tag k="ssr:date" v="2019-05-31" />
		<tag k="ssr:gruppe" v="veg" />
		<tag k="ssr:hovedgruppe" v="infrastruktur" />
		<tag k="ssr:stedsnr" v="1071833" />
		<tag k="ssr:type" v="adressenavn" />
	</node>
	<node id="-4303" lat="59.2977978697" lon="11.054419988">
		<tag k="name" v="Bjørnstadtunet" />
		<tag k="ssr:date" v="2019-05-31" />
		<tag k="ssr:gruppe" v="veg" />
		<tag k="ssr:hovedgruppe" v="infrastruktur" />
		<tag k="ssr:stedsnr" v="1068603" />
		<tag k="ssr:type" v="adressenavn" />
	</node>
	<node id="-4302" lat="59.2979695724" lon="11.052018933">
		<tag k="name" v="Bjørnstadsletta" />
		<tag k="ssr:date" v="2019-05-31" />
		<tag k="ssr:gruppe" v="veg" />
		<tag k="ssr:hovedgruppe" v="infrastruktur" />
		<tag k="ssr:stedsnr" v="1068577" />
		<tag k="ssr:type" v="adressenavn" />
	</node>
	<node id="-4301" lat="59.13829435" lon="11.1429335503">
		<tag k="name" v="Fårnøt" />
		<tag k="ssr:date" v="2019-05-31" />
		<tag k="ssr:gruppe" v="veg" />
		<tag k="ssr:hovedgruppe" v="infrastruktur" />
		<tag k="ssr:stedsnr" v="1066066" />
		<tag k="ssr:type" v="adressenavn" />
	</node>
	<node id="-4300" lat="59.1472988613" lon="11.1902866286">
		<tag k="name" v="Saltholmen" />
		<tag k="ssr:date" v="2019-05-31" />
		<tag k="ssr:gruppe" v="veg" />
		<tag k="ssr:hovedgruppe" v="infrastruktur" />
		<tag k="ssr:stedsnr" v="1065978" />
		<tag k="ssr:type" v="adressenavn" />
	</node>
	<node id="-4299" lat="59.1423566679" lon="11.1797374568">
		<tag k="name" v="Bjerkholmen" />
		<tag k="ssr:date" v="2019-05-31" />
		<tag k="ssr:gruppe" v="veg" />
		<tag k="ssr:hovedgruppe" v="infrastruktur" />
		<tag k="ssr:stedsnr" v="1065961" />
		<tag k="ssr:type" v="adressenavn" />
	</node>
	<node id="-4298" lat="59.1781259567" lon="11.1861734">
		<tag k="name" v="Vesle Sildevik" />
		<tag k="ssr:date" v="2019-05-31" />
		<tag k="ssr:gruppe" v="veg" />
		<tag k="ssr:hovedgruppe" v="infrastruktur" />
		<tag k="ssr:stedsnr" v="1065876" />
		<tag k="ssr:type" v="adressenavn" />
	</node>
	<node id="-4297" lat="59.1479093608" lon="11.1812902183">
		<tag k="name" v="Granholmen" />
		<tag k="ssr:date" v="2019-05-31" />
		<tag k="ssr:gruppe" v="veg" />
		<tag k="ssr:hovedgruppe" v="infrastruktur" />
		<tag k="ssr:stedsnr" v="1065945" />
		<tag k="ssr:type" v="adressenavn" />
	</node>
	<node id="-4296" lat="59.2148295521" lon="11.1895491069">
		<tag k="name" v="Grimstadtunet" />
		<tag k="ssr:date" v="2019-05-31" />
		<tag k="ssr:gruppe" v="veg" />
		<tag k="ssr:hovedgruppe" v="infrastruktur" />
		<tag k="ssr:stedsnr" v="1065369" />
		<tag k="ssr:type" v="adressenavn" />
	</node>
	<node id="-4295" lat="59.2740368496" lon="11.1002983922">
		<tag k="name" v="St. Halvards plass" />
		<tag k="ssr:date" v="2019-05-31" />
		<tag k="ssr:gruppe" v="veg" />
		<tag k="ssr:hovedgruppe" v="infrastruktur" />
		<tag k="ssr:stedsnr" v="1065132" />
		<tag k="ssr:type" v="adressenavn" />
	</node>
	<node id="-4258" lat="59.3838361089" lon="10.9955972155">
		<tag k="name" v="Stokklidalsveien" />
		<tag k="ssr:date" v="2016-05-10" />
		<tag k="ssr:gruppe" v="veg" />
		<tag k="ssr:hovedgruppe" v="infrastruktur" />
		<tag k="ssr:stedsnr" v="476041" />
		<tag k="ssr:type" v="vegstrekning" />
	</node>
	<node id="-4127" lat="59.2814777818" lon="11.1116722179">
		<tag k="name" v="Sarpsborg kommune" />
		<tag k="ssr:date" v="2016-05-10" />
		<tag k="ssr:gruppe" v="administrativeIndelinger" />
		<tag k="ssr:hovedgruppe" v="offentligAdministrasjon" />
		<tag k="ssr:stedsnr" v="328214" />
		<tag k="ssr:type" v="kommune" />
	</node>
	<node id="-5142" lat="59.1251499974" lon="11.1794388954">
		<tag k="alt_name" v="Hykkelen fyr" />
		<tag k="name" v="Hykkelen lykt" />
		<tag k="ssr:date" v="2016-05-10" />
		<tag k="ssr:gruppe" v="navigasjon" />
		<tag k="ssr:hovedgruppe" v="infrastruktur" />
		<tag k="ssr:stedsnr" v="547790" />
		<tag k="ssr:type" v="fyrlykt" />
	</node>
	<node id="-4311" lat="59.2712862874" lon="11.060502298">
		<tag k="name" v="Gartnerikroken" />
		<tag k="ssr:date" v="2019-12-03" />
		<tag k="ssr:gruppe" v="veg" />
		<tag k="ssr:hovedgruppe" v="infrastruktur" />
		<tag k="ssr:stedsnr" v="1073639" />
		<tag k="ssr:type" v="adressenavn" />
	</node>
	<node id="-5383" lat="59.3944833325" lon="11.0077944396">
		<tag k="name" v="Ravnsjøveien" />
		<tag k="ssr:date" v="2016-05-10" />
		<tag k="ssr:gruppe" v="veg" />
		<tag k="ssr:hovedgruppe" v="infrastruktur" />
		<tag k="ssr:stedsnr" v="658031" />
		<tag k="ssr:type" v="vegstrekning" />
	</node>
</osm>
