<?xml version="1.0" encoding="UTF-8"?>
<osm generator="osmapis" version="0.6">
	<node id="-471552" lat="60.0993749989" lon="5.24031110849">
		<tag k="name" v="Storhaugen" />
		<tag k="natural" v="hill" />
		<tag k="place" v="locality" />
		<tag k="ssr:stedsnr" v="280335" />
	</node>
	<node id="-472061" lat="59.9894388853" lon="5.06501388785">
		<tag k="name" v="Grønevikevarden" />
		<tag k="natural" v="hill" />
		<tag k="place" v="locality" />
		<tag k="ssr:stedsnr" v="158902" />
	</node>
	<node id="-472060" lat="60.0283285777" lon="5.28617137455">
		<tag k="name" v="Litlekletten" />
		<tag k="natural" v="hill" />
		<tag k="place" v="locality" />
		<tag k="ssr:stedsnr" v="158492" />
	</node>
	<node id="-472059" lat="60.0539833318" lon="5.29225556026">
		<tag k="fixme" v="consider natural=peak for the most distinct mountains in the district" />
		<tag k="name" v="Bjelkåsen" />
		<tag k="natural" v="hill" />
		<tag k="place" v="locality" />
		<tag k="ssr:stedsnr" v="158468" />
	</node>
	<node id="-472568" lat="60.033444447" lon="5.22938334076">
		<tag k="name" v="Stemmehaugen" />
		<tag k="natural" v="hill" />
		<tag k="place" v="locality" />
		<tag k="ssr:stedsnr" v="704110" />
	</node>
	<node id="-472566" lat="60.1461305586" lon="5.20780000173">
		<tag k="name" v="Nautaberget" />
		<tag k="natural" v="hill" />
		<tag k="place" v="locality" />
		<tag k="ssr:stedsnr" v="692872" />
	</node>
	<node id="-472051" lat="60.1063999967" lon="5.23866389774">
		<tag k="name" v="Stormehaugen" />
		<tag k="natural" v="hill" />
		<tag k="place" v="locality" />
		<tag k="ssr:stedsnr" v="158340" />
	</node>
	<node id="-471535" lat="60.0377583324" lon="5.25242777872">
		<tag k="name" v="Aksthaugen" />
		<tag k="natural" v="hill" />
		<tag k="place" v="locality" />
		<tag k="ssr:stedsnr" v="279494" />
	</node>
	<node id="-471532" lat="60.0663250037" lon="5.28745276888">
		<tag k="name" v="Storebekkhaugen" />
		<tag k="natural" v="hill" />
		<tag k="place" v="locality" />
		<tag k="ssr:stedsnr" v="279459" />
	</node>
	<node id="-471531" lat="60.0171527803" lon="5.27069167101">
		<tag k="name" v="Hesten" />
		<tag k="natural" v="hill" />
		<tag k="place" v="locality" />
		<tag k="ssr:stedsnr" v="279452" />
	</node>
	<node id="-471523" lat="60.1144944487" lon="5.14332777174">
		<tag k="name" v="Dalavatnet" />
		<tag k="place" v="locality" />
		<tag k="ssr:stedsnr" v="279302" />
	</node>
	<node id="-471518" lat="60.0431722264" lon="5.21939444324">
		<tag k="name" v="Lindehaugen" />
		<tag k="natural" v="hill" />
		<tag k="place" v="locality" />
		<tag k="ssr:stedsnr" v="279093" />
	</node>
	<node id="-472537" lat="60.1018416681" lon="5.17283889671">
		<tag k="name" v="Kongsvarden" />
		<tag k="natural" v="hill" />
		<tag k="place" v="locality" />
		<tag k="ssr:stedsnr" v="671898" />
	</node>
	<node id="-472529" lat="59.9949055583" lon="5.19641111938">
		<tag k="fixme" v="consider natural=peak for the most distinct mountains in the district" />
		<tag k="name" v="Kongsfjellet" />
		<tag k="natural" v="hill" />
		<tag k="place" v="locality" />
		<tag k="ssr:stedsnr" v="671138" />
	</node>
	<node id="-472151" lat="60.0488027782" lon="5.17769444667">
		<tag k="name" v="Storhaugen" />
		<tag k="natural" v="hill" />
		<tag k="place" v="locality" />
		<tag k="ssr:stedsnr" v="219676" />
	</node>
	<node id="-472010" lat="60.1525111086" lon="5.20417500209">
		<tag k="name" v="Varden" />
		<tag k="natural" v="hill" />
		<tag k="place" v="locality" />
		<tag k="ssr:stedsnr" v="125973" />
	</node>
	<node id="-472519" lat="60.0087361143" lon="5.09602500556">
		<tag k="name" v="Valhammarsberget" />
		<tag k="natural" v="hill" />
		<tag k="place" v="locality" />
		<tag k="ssr:stedsnr" v="643887" />
	</node>
	<node id="-472515" lat="59.9769944451" lon="5.16066111656">
		<tag k="alt_name" v="Hotvikfjellet" />
		<tag k="name" v="Hottvikefjellet" />
		<tag k="natural" v="hill" />
		<tag k="place" v="locality" />
		<tag k="ssr:stedsnr" v="643701" />
	</node>
	<node id="-471993" lat="60.0119138883" lon="5.24415277689">
		<tag k="name" v="Kåsene" />
		<tag k="natural" v="hill" />
		<tag k="place" v="locality" />
		<tag k="ssr:stedsnr" v="121754" />
	</node>
	<node id="-472495" lat="60.0323916632" lon="5.28104444228">
		<tag k="fixme" v="consider natural=peak for the most distinct mountains in the district" />
		<tag k="name" v="Litla Saugafjellet" />
		<tag k="natural" v="hill" />
		<tag k="place" v="locality" />
		<tag k="ssr:stedsnr" v="643478" />
	</node>
	<node id="-471982" lat="60.0128361139" lon="5.23390555335">
		<tag k="name" v="Sjonarhaugen" />
		<tag k="natural" v="hill" />
		<tag k="place" v="locality" />
		<tag k="ssr:stedsnr" v="98686" />
	</node>
	<node id="-472487" lat="60.0696805527" lon="5.27446944716">
		<tag k="fixme" v="consider natural=peak for the most distinct mountains in the district" />
		<tag k="name" v="Tollåsen" />
		<tag k="natural" v="hill" />
		<tag k="place" v="locality" />
		<tag k="ssr:stedsnr" v="643365" />
	</node>
	<node id="-472091" lat="59.9838138879" lon="5.15089999138">
		<tag k="fixme" v="consider natural=peak for the most distinct mountains in the district" />
		<tag k="name" v="Furefjellet" />
		<tag k="natural" v="hill" />
		<tag k="place" v="locality" />
		<tag k="ssr:stedsnr" v="186236" />
	</node>
	<node id="-472479" lat="60.0637722249" lon="5.2372638817">
		<tag k="name" v="Stolane" />
		<tag k="natural" v="hill" />
		<tag k="place" v="locality" />
		<tag k="ssr:stedsnr" v="642631" />
	</node>
	<node id="-472477" lat="59.9883333309" lon="5.07498055789">
		<tag k="name" v="Varden" />
		<tag k="natural" v="hill" />
		<tag k="place" v="locality" />
		<tag k="ssr:stedsnr" v="633637" />
	</node>
	<node id="-471955" lat="60.1361416698" lon="5.0531055617">
		<tag k="name" v="Røyrdalen" />
		<tag k="natural" v="valley" />
		<tag k="place" v="locality" />
		<tag k="ssr:stedsnr" v="97507" />
	</node>
	<node id="-471952" lat="60.0608611105" lon="5.26458611509">
		<tag k="name" v="Ordøset" />
		<tag k="place" v="locality" />
		<tag k="ssr:stedsnr" v="97451" />
	</node>
	<node id="-471947" lat="60.0138083343" lon="5.00831665836">
		<tag k="name" v="Myrbærhaugen" />
		<tag k="natural" v="hill" />
		<tag k="place" v="locality" />
		<tag k="ssr:stedsnr" v="97404" />
	</node>
	<node id="-472454" lat="60.0310333351" lon="5.27076111666">
		<tag k="fixme" v="consider natural=peak for the most distinct mountains in the district" />
		<tag k="name" v="Vardfjellet" />
		<tag k="natural" v="hill" />
		<tag k="place" v="locality" />
		<tag k="ssr:stedsnr" v="611140" />
	</node>
	<node id="-472299" lat="60.1377583307" lon="5.07481111904">
		<tag k="alt_name" v="Nuken" />
		<tag k="name" v="Mjuken" />
		<tag k="natural" v="hill" />
		<tag k="place" v="locality" />
		<tag k="ssr:stedsnr" v="490747" />
	</node>
	<node id="-471927" lat="60.1182611069" lon="5.04802499634">
		<tag k="name" v="Håsneshaugen" />
		<tag k="natural" v="hill" />
		<tag k="place" v="locality" />
		<tag k="ssr:stedsnr" v="66621" />
	</node>
	<node id="-472437" lat="60.0074583299" lon="5.22290278019">
		<tag k="name" v="Basthammaren" />
		<tag k="natural" v="hill" />
		<tag k="place" v="locality" />
		<tag k="ssr:stedsnr" v="583681" />
	</node>
	<node id="-472425" lat="60.0632388892" lon="5.24509167519">
		<tag k="name" v="Eidsbakken" />
		<tag k="natural" v="slope" />
		<tag k="place" v="locality" />
		<tag k="ssr:stedsnr" v="582648" />
	</node>
	<node id="-472419" lat="60.0598222188" lon="5.08861667544">
		<tag k="name" v="Krabbhaugen" />
		<tag k="natural" v="hill" />
		<tag k="place" v="locality" />
		<tag k="ssr:stedsnr" v="582570" />
	</node>
	<node id="-472926" lat="60.0033222222" lon="5.09503056068">
		<tag k="name" v="Krabbhaugen" />
		<tag k="natural" v="hill" />
		<tag k="place" v="locality" />
		<tag k="ssr:stedsnr" v="947895" />
	</node>
	<node id="-472413" lat="60.0268222191" lon="5.27703610941">
		<tag k="name" v="Vassheia" />
		<tag k="place" v="locality" />
		<tag k="ssr:stedsnr" v="582467" />
	</node>
	<node id="-471900" lat="60.0181944405" lon="5.02141666894">
		<tag k="name" v="Stølsbogen" />
		<tag k="place" v="locality" />
		<tag k="ssr:stedsnr" v="37894" />
	</node>
	<node id="-472923" lat="60.0181888929" lon="5.03551666781">
		<tag k="name" v="Steinaberget" />
		<tag k="natural" v="hill" />
		<tag k="place" v="locality" />
		<tag k="ssr:stedsnr" v="947878" />
	</node>
	<node id="-471898" lat="60.018438893" lon="5.20859166301">
		<tag k="name" v="Storemyrshaugen" />
		<tag k="natural" v="hill" />
		<tag k="place" v="locality" />
		<tag k="ssr:stedsnr" v="37680" />
	</node>
	<node id="-472409" lat="60.0132083358" lon="5.01257222339">
		<tag k="name" v="Gråmåsehaugen" />
		<tag k="natural" v="hill" />
		<tag k="place" v="locality" />
		<tag k="ssr:stedsnr" v="582408" />
	</node>
	<node id="-472919" lat="59.9864500038" lon="5.17049167384">
		<tag k="name" v="Mehaugen" />
		<tag k="natural" v="hill" />
		<tag k="place" v="locality" />
		<tag k="ssr:stedsnr" v="947658" />
	</node>
	<node id="-472916" lat="60.0519555536" lon="5.17639444496">
		<tag k="name" v="Skjåhaugen" />
		<tag k="natural" v="hill" />
		<tag k="place" v="locality" />
		<tag k="ssr:stedsnr" v="947632" />
	</node>
	<node id="-471888" lat="60.1013222254" lon="5.21351666885">
		<tag k="name" v="Storhaugen" />
		<tag k="natural" v="hill" />
		<tag k="place" v="locality" />
		<tag k="ssr:stedsnr" v="37323" />
	</node>
	<node id="-471886" lat="60.1089305584" lon="5.17082777515">
		<tag k="name" v="Djupedalen" />
		<tag k="natural" v="valley" />
		<tag k="place" v="locality" />
		<tag k="ssr:stedsnr" v="37303" />
	</node>
	<node id="-471885" lat="60.1122500002" lon="5.20456944589">
		<tag k="name" v="Krossen" />
		<tag k="natural" v="hill" />
		<tag k="place" v="locality" />
		<tag k="ssr:stedsnr" v="37285" />
	</node>
	<node id="-471881" lat="60.0620027809" lon="5.18127223004">
		<tag k="name" v="Langhaugen" />
		<tag k="natural" v="hill" />
		<tag k="place" v="locality" />
		<tag k="ssr:stedsnr" v="36618" />
	</node>
	<node id="-472904" lat="60.0429333363" lon="5.25651388403">
		<tag k="name" v="Bukkhaugen" />
		<tag k="natural" v="hill" />
		<tag k="place" v="locality" />
		<tag k="ssr:stedsnr" v="947497" />
	</node>
	<node id="-472902" lat="60.0352777807" lon="5.28716944557">
		<tag k="name" v="Eikhaugen" />
		<tag k="natural" v="hill" />
		<tag k="place" v="locality" />
		<tag k="ssr:stedsnr" v="947483" />
	</node>
	<node id="-472900" lat="60.0480166649" lon="5.28846944659">
		<tag k="name" v="Kuhaugen" />
		<tag k="natural" v="hill" />
		<tag k="place" v="locality" />
		<tag k="ssr:stedsnr" v="947462" />
	</node>
	<node id="-471870" lat="59.9974055562" lon="5.2536777802">
		<tag k="name" v="Ausmundshaugen" />
		<tag k="natural" v="hill" />
		<tag k="place" v="locality" />
		<tag k="ssr:stedsnr" v="36413" />
	</node>
	<node id="-472893" lat="60.122230554" lon="5.22071389079">
		<tag k="name" v="Konelønningen" />
		<tag k="place" v="locality" />
		<tag k="ssr:stedsnr" v="947320" />
	</node>
	<node id="-472884" lat="60.0409611101" lon="5.19440000095">
		<tag k="name" v="Skiparvikhaugane" />
		<tag k="natural" v="hill" />
		<tag k="place" v="locality" />
		<tag k="ssr:stedsnr" v="947119" />
	</node>
	<node id="-471843" lat="60.1272555574" lon="5.05633334119">
		<tag k="name" v="Ørnatua" />
		<tag k="natural" v="hill" />
		<tag k="place" v="locality" />
		<tag k="ssr:stedsnr" v="5618" />
	</node>
	<node id="-472350" lat="60.013622225" lon="5.22250277428">
		<tag k="name" v="Altershaugen" />
		<tag k="natural" v="hill" />
		<tag k="place" v="locality" />
		<tag k="ssr:stedsnr" v="522658" />
	</node>
	<node id="-472348" lat="59.9846583308" lon="5.19210000306">
		<tag k="fixme" v="consider natural=peak for the most distinct mountains in the district" />
		<tag k="name" v="Træsfjellet" />
		<tag k="natural" v="hill" />
		<tag k="place" v="locality" />
		<tag k="ssr:stedsnr" v="522654" />
	</node>
	<node id="-472347" lat="59.9888555595" lon="5.20302778518">
		<tag k="name" v="Kvassteinshaugen" />
		<tag k="natural" v="hill" />
		<tag k="place" v="locality" />
		<tag k="ssr:stedsnr" v="522652" />
	</node>
	<node id="-472346" lat="59.9919222259" lon="5.19993056367">
		<tag k="fixme" v="consider natural=peak for the most distinct mountains in the district" />
		<tag k="name" v="Fjellsenden" />
		<tag k="natural" v="hill" />
		<tag k="place" v="locality" />
		<tag k="ssr:stedsnr" v="522651" />
	</node>
	<node id="-472333" lat="60.1338388928" lon="5.06610554721">
		<tag k="fixme" v="consider natural=peak for the most distinct mountains in the district" />
		<tag k="name" v="Grønafjellet" />
		<tag k="natural" v="hill" />
		<tag k="place" v="locality" />
		<tag k="ssr:stedsnr" v="522514" />
	</node>
	<node id="-472331" lat="60.0004888919" lon="5.25108611653">
		<tag k="name" v="Slørhaugen" />
		<tag k="natural" v="hill" />
		<tag k="place" v="locality" />
		<tag k="ssr:stedsnr" v="522467" />
	</node>
	<node id="-472325" lat="60.0941472263" lon="5.24772778245">
		<tag k="name" v="Hovda" />
		<tag k="natural" v="hill" />
		<tag k="place" v="locality" />
		<tag k="ssr:stedsnr" v="522376" />
	</node>
	<node id="-472323" lat="60.1022555529" lon="5.22503888552">
		<tag k="name" v="Marihaugen" />
		<tag k="natural" v="hill" />
		<tag k="place" v="locality" />
		<tag k="ssr:stedsnr" v="522326" />
	</node>
	<node id="-472322" lat="60.0901555583" lon="5.22781111249">
		<tag k="fixme" v="consider natural=peak for the most distinct mountains in the district" />
		<tag k="name" v="Åsen" />
		<tag k="natural" v="hill" />
		<tag k="place" v="locality" />
		<tag k="ssr:stedsnr" v="522321" />
	</node>
	<node id="-472833" lat="60.1317138909" lon="5.04850000749">
		<tag k="name" v="Guriklubben" />
		<tag k="natural" v="hill" />
		<tag k="place" v="locality" />
		<tag k="ssr:stedsnr" v="855646" />
	</node>
	<node id="-472320" lat="60.12190278" lon="5.20673610269">
		<tag k="name" v="Basthaugane" />
		<tag k="natural" v="hill" />
		<tag k="place" v="locality" />
		<tag k="ssr:stedsnr" v="522301" />
	</node>
	<node id="-472821" lat="60.073966666" lon="5.24297221942">
		<tag k="name" v="Skarshaugen" />
		<tag k="natural" v="hill" />
		<tag k="place" v="locality" />
		<tag k="ssr:stedsnr" v="854901" />
	</node>
	<node id="-471788" lat="59.9832916632" lon="5.17474721721">
		<tag k="fixme" v="consider natural=peak for the most distinct mountains in the district" />
		<tag k="name" v="Aradalsfjellet" />
		<tag k="natural" v="hill" />
		<tag k="place" v="locality" />
		<tag k="ssr:stedsnr" v="887701" />
	</node>
	<node id="-472811" lat="60.0329416626" lon="5.27695556349">
		<tag k="fixme" v="consider natural=peak for the most distinct mountains in the district" />
		<tag k="name" v="Stora Saugafjellet" />
		<tag k="natural" v="hill" />
		<tag k="place" v="locality" />
		<tag k="ssr:stedsnr" v="854134" />
	</node>
	<node id="-471785" lat="60.0001888856" lon="5.05528332615">
		<tag k="name" v="Seksæringen" />
		<tag k="place" v="locality" />
		<tag k="ssr:stedsnr" v="886899" />
	</node>
	<node id="-471783" lat="60.007936114" lon="5.09301389495">
		<tag k="name" v="Varden" />
		<tag k="natural" v="hill" />
		<tag k="place" v="locality" />
		<tag k="ssr:stedsnr" v="886888" />
	</node>
	<node id="-472294" lat="60.0222222244" lon="5.24268889693">
		<tag k="name" v="Veten" />
		<tag k="natural" v="hill" />
		<tag k="place" v="locality" />
		<tag k="ssr:stedsnr" v="490229" />
	</node>
	<node id="-472796" lat="59.9785666658" lon="5.18411945259">
		<tag k="name" v="Nova" />
		<tag k="natural" v="hill" />
		<tag k="place" v="locality" />
		<tag k="ssr:stedsnr" v="826707" />
	</node>
	<node id="-472281" lat="59.9860583301" lon="5.1800749942">
		<tag k="name" v="Grasdalen" />
		<tag k="natural" v="valley" />
		<tag k="place" v="locality" />
		<tag k="ssr:stedsnr" v="489148" />
	</node>
	<node id="-472278" lat="60.0035472229" lon="5.16147500532">
		<tag k="name" v="Pikhaugen" />
		<tag k="natural" v="hill" />
		<tag k="place" v="locality" />
		<tag k="ssr:stedsnr" v="462701" />
	</node>
	<node id="-472277" lat="60.0010499996" lon="5.20595556449">
		<tag k="name" v="Vardhaugen" />
		<tag k="natural" v="hill" />
		<tag k="place" v="locality" />
		<tag k="ssr:stedsnr" v="462663" />
	</node>
	<node id="-471763" lat="60.0591444485" lon="5.25791110584">
		<tag k="fixme" v="consider natural=peak for the most distinct mountains in the district" />
		<tag k="name" v="Storåsen" />
		<tag k="natural" v="hill" />
		<tag k="place" v="locality" />
		<tag k="ssr:stedsnr" v="886444" />
	</node>
	<node id="-472786" lat="60.0479666658" lon="5.09206943924">
		<tag k="name" v="Blomsterhaugen" />
		<tag k="natural" v="hill" />
		<tag k="place" v="locality" />
		<tag k="ssr:stedsnr" v="826575" />
	</node>
	<node id="-472269" lat="59.9903305538" lon="5.0514861044">
		<tag k="name" v="Børa" />
		<tag k="natural" v="hill" />
		<tag k="place" v="locality" />
		<tag k="ssr:stedsnr" v="461642" />
	</node>
	<node id="-471756" lat="60.0818611135" lon="5.2669777722">
		<tag k="name" v="Havareia" />
		<tag k="natural" v="hill" />
		<tag k="place" v="locality" />
		<tag k="ssr:stedsnr" v="886379" />
	</node>
	<node id="-471755" lat="60.0774055559" lon="5.28102500232">
		<tag k="name" v="Kvernhaugen" />
		<tag k="natural" v="hill" />
		<tag k="place" v="locality" />
		<tag k="ssr:stedsnr" v="886371" />
	</node>
	<node id="-472778" lat="60.0278833328" lon="5.29559721507">
		<tag k="name" v="Skjenhaugen" />
		<tag k="natural" v="hill" />
		<tag k="place" v="locality" />
		<tag k="ssr:stedsnr" v="826488" />
	</node>
	<node id="-472777" lat="60.0187222189" lon="5.2708916702">
		<tag k="name" v="Osphaugen" />
		<tag k="natural" v="hill" />
		<tag k="place" v="locality" />
		<tag k="ssr:stedsnr" v="826475" />
	</node>
	<node id="-472262" lat="60.1351111156" lon="5.05959166722">
		<tag k="name" v="Langedalen" />
		<tag k="natural" v="valley" />
		<tag k="place" v="locality" />
		<tag k="ssr:stedsnr" v="461519" />
	</node>
	<node id="-472773" lat="60.0717861072" lon="5.26975277349">
		<tag k="name" v="Taffarhaugen" />
		<tag k="natural" v="hill" />
		<tag k="place" v="locality" />
		<tag k="ssr:stedsnr" v="826393" />
	</node>
	<node id="-471748" lat="60.0298750001" lon="5.22624999126">
		<tag k="name" v="Jonslihaugen" />
		<tag k="natural" v="hill" />
		<tag k="place" v="locality" />
		<tag k="ssr:stedsnr" v="886080" />
	</node>
	<node id="-472259" lat="60.0329833309" lon="5.2542444466">
		<tag k="fixme" v="consider natural=peak for the most distinct mountains in the district" />
		<tag k="name" v="Patteråsen" />
		<tag k="natural" v="hill" />
		<tag k="place" v="locality" />
		<tag k="ssr:stedsnr" v="461494" />
	</node>
	<node id="-472770" lat="60.1201638908" lon="5.21221389525">
		<tag k="name" v="Skjerhaugane" />
		<tag k="natural" v="hill" />
		<tag k="place" v="locality" />
		<tag k="ssr:stedsnr" v="826326" />
	</node>
	<node id="-472779" lat="60.04073611" lon="5.25471389452">
		<tag k="name" v="Tjørnhaugen" />
		<tag k="natural" v="hill" />
		<tag k="place" v="locality" />
		<tag k="ssr:stedsnr" v="826507" />
	</node>
	<node id="-472256" lat="60.0610888864" lon="5.29045278469">
		<tag k="name" v="Låga" />
		<tag k="place" v="locality" />
		<tag k="ssr:stedsnr" v="461447" />
	</node>
	<node id="-471743" lat="59.9794611096" lon="5.17470554878">
		<tag k="name" v="Bukkalibrotet" />
		<tag k="natural" v="hill" />
		<tag k="place" v="locality" />
		<tag k="ssr:stedsnr" v="401711" />
	</node>
	<node id="-471742" lat="60.129577776" lon="5.07937499345">
		<tag k="name" v="Trollhaugen" />
		<tag k="natural" v="hill" />
		<tag k="place" v="locality" />
		<tag k="ssr:stedsnr" v="401707" />
	</node>
	<node id="-472252" lat="60.0447527782" lon="5.23635832813">
		<tag k="name" v="Grønhaugen" />
		<tag k="natural" v="hill" />
		<tag k="place" v="locality" />
		<tag k="ssr:stedsnr" v="461110" />
	</node>
	<node id="-471738" lat="60.0164805544" lon="5.20991110653">
		<tag k="name" v="Sveene" />
		<tag k="natural" v="hill" />
		<tag k="place" v="locality" />
		<tag k="ssr:stedsnr" v="401672" />
	</node>
	<node id="-472761" lat="60.0370694465" lon="5.20941944831">
		<tag k="name" v="Tinghaugen" />
		<tag k="natural" v="hill" />
		<tag k="place" v="locality" />
		<tag k="ssr:stedsnr" v="826120" />
	</node>
	<node id="-471736" lat="59.9923611086" lon="5.20831388921">
		<tag k="name" v="Rundhaugen" />
		<tag k="natural" v="hill" />
		<tag k="place" v="locality" />
		<tag k="ssr:stedsnr" v="401660" />
	</node>
	<node id="-471730" lat="60.0256416673" lon="5.2629444428">
		<tag k="name" v="Skaftafjellet" />
		<tag k="natural" v="hill" />
		<tag k="place" v="locality" />
		<tag k="ssr:stedsnr" v="401501" />
	</node>
	<node id="-471729" lat="60.0283822866" lon="5.281317333">
		<tag k="name" v="Storekletten" />
		<tag k="natural" v="hill" />
		<tag k="place" v="locality" />
		<tag k="ssr:stedsnr" v="401498" />
	</node>
	<node id="-471728" lat="60.0402194452" lon="5.29594444878">
		<tag k="name" v="Såtendal" />
		<tag k="natural" v="valley" />
		<tag k="place" v="locality" />
		<tag k="ssr:stedsnr" v="401495" />
	</node>
	<node id="-471727" lat="60.0577638873" lon="5.25765554703">
		<tag k="fixme" v="consider natural=peak for the most distinct mountains in the district" />
		<tag k="name" v="Grønåsen" />
		<tag k="natural" v="hill" />
		<tag k="place" v="locality" />
		<tag k="ssr:stedsnr" v="401487" />
	</node>
	<node id="-471762" lat="60.0575694464" lon="5.29095556333">
		<tag k="fixme" v="consider natural=peak for the most distinct mountains in the district" />
		<tag k="name" v="Åsen" />
		<tag k="natural" v="hill" />
		<tag k="place" v="locality" />
		<tag k="ssr:stedsnr" v="886431" />
	</node>
	<node id="-472178" lat="60.0022027817" lon="5.07005000516">
		<tag k="name" v="Såta" />
		<tag k="natural" v="hill" />
		<tag k="place" v="locality" />
		<tag k="ssr:stedsnr" v="247640" />
	</node>
	<node id="-471721" lat="60.1094416673" lon="5.23752222468">
		<tag k="name" v="Ugleneshaugen" />
		<tag k="natural" v="hill" />
		<tag k="place" v="locality" />
		<tag k="ssr:stedsnr" v="401313" />
	</node>
	<node id="-471836" lat="60.0500916651" lon="5.28147500078">
		<tag k="fixme" v="consider natural=peak for the most distinct mountains in the district" />
		<tag k="name" v="Loddo" />
		<tag k="natural" v="hill" />
		<tag k="place" v="locality" />
		<tag k="ssr:stedsnr" v="5160" />
	</node>
	<node id="-472228" lat="60.0740666687" lon="5.20434166161">
		<tag k="name" v="Setehaugen" />
		<tag k="natural" v="hill" />
		<tag k="place" v="locality" />
		<tag k="ssr:stedsnr" v="429927" />
	</node>
	<node id="-471835" lat="60.0567749958" lon="5.29256388998">
		<tag k="name" v="Grøndalshaugen" />
		<tag k="natural" v="hill" />
		<tag k="place" v="locality" />
		<tag k="ssr:stedsnr" v="5158" />
	</node>
	<node id="-471749" lat="60.0359027782" lon="5.23869722121">
		<tag k="name" v="Skotdalen" />
		<tag k="natural" v="valley" />
		<tag k="place" v="locality" />
		<tag k="ssr:stedsnr" v="886089" />
	</node>
	<node id="-471699" lat="59.9829388854" lon="5.1979305624">
		<tag k="name" v="Leirbotnen" />
		<tag k="natural" v="valley" />
		<tag k="place" v="locality" />
		<tag k="ssr:stedsnr" v="400416" />
	</node>
	<node id="-472771" lat="60.0272777797" lon="5.13497222764">
		<tag k="name" v="Storhaugen" />
		<tag k="natural" v="hill" />
		<tag k="place" v="locality" />
		<tag k="ssr:stedsnr" v="826336" />
	</node>
	<node id="-472258" lat="60.0353722228" lon="5.29236944066">
		<tag k="name" v="Rinda" />
		<tag k="place" v="locality" />
		<tag k="ssr:stedsnr" v="461472" />
	</node>
	<node id="-472257" lat="60.0314995771" lon="5.30158297662">
		<tag k="name" v="Annehaugen" />
		<tag k="natural" v="hill" />
		<tag k="place" v="locality" />
		<tag k="ssr:stedsnr" v="461464" />
	</node>
	<node id="-471682" lat="60.1369416643" lon="5.06252499892">
		<tag k="name" v="Arakletten" />
		<tag k="natural" v="hill" />
		<tag k="place" v="locality" />
		<tag k="ssr:stedsnr" v="369707" />
	</node>
	<node id="-472703" lat="59.9885027739" lon="5.16255555731">
		<tag k="fixme" v="consider natural=peak for the most distinct mountains in the district" />
		<tag k="name" v="Djupavågsfjellet" />
		<tag k="natural" v="hill" />
		<tag k="place" v="locality" />
		<tag k="ssr:stedsnr" v="792135" />
	</node>
	<node id="-472700" lat="59.9710194464" lon="5.12814166109">
		<tag k="name" v="Skarvaberget" />
		<tag k="natural" v="hill" />
		<tag k="place" v="locality" />
		<tag k="ssr:stedsnr" v="765938" />
	</node>
	<node id="-472696" lat="60.0172222217" lon="5.20101110351">
		<tag k="name" v="Kolhaugen" />
		<tag k="natural" v="hill" />
		<tag k="place" v="locality" />
		<tag k="ssr:stedsnr" v="765657" />
	</node>
	<node id="-472690" lat="59.9967694417" lon="5.08171389661">
		<tag k="name" v="Øktervarden" />
		<tag k="natural" v="hill" />
		<tag k="place" v="locality" />
		<tag k="ssr:stedsnr" v="765594" />
	</node>
	<node id="-471660" lat="59.9927416688" lon="5.17876944694">
		<tag k="fixme" v="consider natural=peak for the most distinct mountains in the district" />
		<tag k="name" v="Midtfjellet" />
		<tag k="natural" v="hill" />
		<tag k="place" v="locality" />
		<tag k="ssr:stedsnr" v="368255" />
	</node>
	<node id="-472682" lat="60.0330694447" lon="5.29710000248">
		<tag k="fixme" v="consider natural=peak for the most distinct mountains in the district" />
		<tag k="name" v="Åsen" />
		<tag k="natural" v="hill" />
		<tag k="place" v="locality" />
		<tag k="ssr:stedsnr" v="765478" />
	</node>
	<node id="-472680" lat="60.0562305551" lon="5.27853888762">
		<tag k="name" v="Hundastegen" />
		<tag k="natural" v="hill" />
		<tag k="place" v="locality" />
		<tag k="ssr:stedsnr" v="765456" />
	</node>
	<node id="-472166" lat="60.0374666706" lon="5.28337499932">
		<tag k="name" v="Trollhaugen" />
		<tag k="natural" v="hill" />
		<tag k="place" v="locality" />
		<tag k="ssr:stedsnr" v="247144" />
	</node>
	<node id="-472677" lat="60.0221777755" lon="5.25959999562">
		<tag k="name" v="Myrahaugane" />
		<tag k="natural" v="hill" />
		<tag k="place" v="locality" />
		<tag k="ssr:stedsnr" v="765438" />
	</node>
	<node id="-471646" lat="60.0031027738" lon="5.07698056095">
		<tag k="name" v="Runndalsheia" />
		<tag k="place" v="locality" />
		<tag k="ssr:stedsnr" v="340904" />
	</node>
	<node id="-472669" lat="60.0283249993" lon="5.2457027762">
		<tag k="name" v="Geitaklosteret" />
		<tag k="natural" v="hill" />
		<tag k="place" v="locality" />
		<tag k="ssr:stedsnr" v="765119" />
	</node>
	<node id="-472667" lat="60.1201638863" lon="5.04397777377">
		<tag k="name" v="Seiavågshaugen" />
		<tag k="natural" v="hill" />
		<tag k="place" v="locality" />
		<tag k="ssr:stedsnr" v="764726" />
	</node>
	<node id="-472666" lat="60.1244555599" lon="5.07097499495">
		<tag k="name" v="Barnhaugen" />
		<tag k="natural" v="hill" />
		<tag k="place" v="locality" />
		<tag k="ssr:stedsnr" v="764724" />
	</node>
	<node id="-472153" lat="60.0150722181" lon="5.24054444981">
		<tag k="name" v="Havhaugen" />
		<tag k="natural" v="hill" />
		<tag k="place" v="locality" />
		<tag k="ssr:stedsnr" v="219695" />
	</node>
	<node id="-472152" lat="59.9829361134" lon="5.15817777481">
		<tag k="name" v="Hellehaugen" />
		<tag k="natural" v="hill" />
		<tag k="place" v="locality" />
		<tag k="ssr:stedsnr" v="219686" />
	</node>
	<node id="-472663" lat="60.0556861071" lon="5.22009999438">
		<tag k="name" v="Storhaugen" />
		<tag k="natural" v="hill" />
		<tag k="place" v="locality" />
		<tag k="ssr:stedsnr" v="764630" />
	</node>
	<node id="-471737" lat="59.9953000021" lon="5.20668611935">
		<tag k="name" v="Ovnhaugen" />
		<tag k="natural" v="hill" />
		<tag k="place" v="locality" />
		<tag k="ssr:stedsnr" v="401665" />
	</node>
	<node id="-471633" lat="60.0438083324" lon="5.29445833499">
		<tag k="name" v="Lohaugen" />
		<tag k="natural" v="hill" />
		<tag k="place" v="locality" />
		<tag k="ssr:stedsnr" v="340484" />
	</node>
	<node id="-471632" lat="60.0617888865" lon="5.25859999939">
		<tag k="name" v="Geithaugane" />
		<tag k="natural" v="hill" />
		<tag k="place" v="locality" />
		<tag k="ssr:stedsnr" v="340468" />
	</node>
	<node id="-471821" lat="59.9927777807" lon="5.17863611386">
		<tag k="name" v="Stålhua" />
		<tag k="natural" v="hill" />
		<tag k="place" v="locality" />
		<tag k="ssr:stedsnr" v="4241" />
	</node>
	<node id="-472140" lat="60.0531527815" lon="5.26283332626">
		<tag k="name" v="Storasetra" />
		<tag k="natural" v="hill" />
		<tag k="place" v="locality" />
		<tag k="ssr:stedsnr" v="219476" />
	</node>
	<node id="-472138" lat="60.0060805549" lon="5.26635832935">
		<tag k="fixme" v="consider natural=peak for the most distinct mountains in the district" />
		<tag k="name" v="Ospåsen" />
		<tag k="natural" v="hill" />
		<tag k="place" v="locality" />
		<tag k="ssr:stedsnr" v="219449" />
	</node>
	<node id="-471642" lat="59.9779888904" lon="5.17227499291">
		<tag k="name" v="Stallane" />
		<tag k="place" v="locality" />
		<tag k="ssr:stedsnr" v="340710" />
	</node>
	<node id="-471624" lat="60.1026416702" lon="5.23480833141">
		<tag k="name" v="Vassbotnen" />
		<tag k="natural" v="valley" />
		<tag k="place" v="locality" />
		<tag k="ssr:stedsnr" v="340353" />
	</node>
	<node id="-472588" lat="60.0916361085" lon="5.09042222168">
		<tag k="name" v="Breibogsberget" />
		<tag k="natural" v="hill" />
		<tag k="place" v="locality" />
		<tag k="ssr:stedsnr" v="704489" />
	</node>
	<node id="-471622" lat="60.0988805576" lon="5.22366110897">
		<tag k="name" v="Knivhaugen" />
		<tag k="natural" v="hill" />
		<tag k="place" v="locality" />
		<tag k="ssr:stedsnr" v="340336" />
	</node>
	<node id="-472133" lat="60.0931722203" lon="5.24317777358">
		<tag k="name" v="Brakaklubben" />
		<tag k="place" v="locality" />
		<tag k="ssr:stedsnr" v="219349" />
	</node>
	<node id="-472132" lat="60.0249833291" lon="5.14129444644">
		<tag k="name" v="Vågarhaugen" />
		<tag k="natural" v="hill" />
		<tag k="place" v="locality" />
		<tag k="ssr:stedsnr" v="219318" />
	</node>
	<node id="-472131" lat="60.1037583359" lon="5.16176110962">
		<tag k="name" v="Melingsvarden" />
		<tag k="natural" v="hill" />
		<tag k="place" v="locality" />
		<tag k="ssr:stedsnr" v="219311" />
	</node>
	<node id="-472130" lat="60.1149944405" lon="5.21374721377">
		<tag k="name" v="Vardhaugane" />
		<tag k="natural" v="hill" />
		<tag k="place" v="locality" />
		<tag k="ssr:stedsnr" v="219307" />
	</node>
	<node id="-471967" lat="60.0100361077" lon="5.07254722515">
		<tag k="name" v="Tverrberget" />
		<tag k="natural" v="hill" />
		<tag k="place" v="locality" />
		<tag k="ssr:stedsnr" v="97869" />
	</node>
	<node id="-472073" lat="59.9735388881" lon="5.1693166732">
		<tag k="name" v="Stølshaugen" />
		<tag k="natural" v="hill" />
		<tag k="place" v="locality" />
		<tag k="ssr:stedsnr" v="158708" />
	</node>
	<node id="-472414" lat="60.0398833349" lon="5.2484499947">
		<tag k="name" v="Tansmoghaugen" />
		<tag k="natural" v="hill" />
		<tag k="place" v="locality" />
		<tag k="ssr:stedsnr" v="582476" />
	</node>
	<node id="-472112" lat="60.0393694412" lon="5.24146389127">
		<tag k="name" v="Lidalen" />
		<tag k="natural" v="valley" />
		<tag k="place" v="locality" />
		<tag k="ssr:stedsnr" v="206638" />
	</node>
	<node id="-471901" lat="59.9697833322" lon="5.12649166276">
		<tag k="name" v="Risesteinen" />
		<tag k="natural" v="hill" />
		<tag k="place" v="locality" />
		<tag k="ssr:stedsnr" v="37941" />
	</node>
	<node id="-472071" lat="60.0004638849" lon="5.19695555766">
		<tag k="name" v="Taushaugen" />
		<tag k="natural" v="hill" />
		<tag k="place" v="locality" />
		<tag k="ssr:stedsnr" v="158672" />
	</node>
	<node id="-472610" lat="60.1175333373" lon="5.05892221777">
		<tag k="name" v="Loshaugen" />
		<tag k="natural" v="hill" />
		<tag k="place" v="locality" />
		<tag k="ssr:stedsnr" v="704701" />
	</node>
	<node id="-472093" lat="60.0180833345" lon="5.22104166712">
		<tag k="name" v="Stongakulten" />
		<tag k="natural" v="hill" />
		<tag k="place" v="locality" />
		<tag k="ssr:stedsnr" v="186242" />
	</node>
	<node id="-472603" lat="59.9858194414" lon="5.19838889042">
		<tag k="name" v="Vedadalshaugane" />
		<tag k="natural" v="hill" />
		<tag k="place" v="locality" />
		<tag k="ssr:stedsnr" v="704630" />
	</node>
	<node id="-472602" lat="59.9973944436" lon="5.16410832506">
		<tag k="name" v="Føljatjørnshaugen" />
		<tag k="natural" v="hill" />
		<tag k="place" v="locality" />
		<tag k="ssr:stedsnr" v="704626" />
	</node>
	<node id="-471983" lat="59.9835833342" lon="5.16922499388">
		<tag k="name" v="Djupedalen" />
		<tag k="natural" v="valley" />
		<tag k="place" v="locality" />
		<tag k="ssr:stedsnr" v="98693" />
	</node>
	<node id="-472088" lat="59.992613891" lon="5.18684166866">
		<tag k="fixme" v="multiple name tags, choose one and add the other to alt_name" />
		<tag k="name" v="Kongsdalen;Kongsfjelldalen" />
		<tag k="natural" v="valley" />
		<tag k="place" v="locality" />
		<tag k="ssr:stedsnr" v="186137" />
	</node>
	<node id="-472595" lat="59.9935972252" lon="5.12221666112">
		<tag k="name" v="Lauvåsen" />
		<tag k="natural" v="valley" />
		<tag k="place" v="locality" />
		<tag k="ssr:stedsnr" v="704565" />
	</node>
	<node id="-471570" lat="59.9943138868" lon="5.15154444049">
		<tag k="fixme" v="multiple name tags, choose one and add the other to alt_name; consider natural=peak for the most distinct mountains in the district" />
		<tag k="name" v="Rabbafjellet;Skjerpa" />
		<tag k="natural" v="hill" />
		<tag k="place" v="locality" />
		<tag k="ssr:stedsnr" v="307275" />
	</node>
	<node id="-472078" lat="60.1444361087" lon="5.11499165901">
		<tag k="name" v="Navøyskaget" />
		<tag k="natural" v="hill" />
		<tag k="place" v="locality" />
		<tag k="ssr:stedsnr" v="158756" />
	</node>
	<node id="-472494" lat="60.0345277815" lon="5.27007778428">
		<tag k="name" v="Dyrdalen" />
		<tag k="natural" v="valley" />
		<tag k="place" v="locality" />
		<tag k="ssr:stedsnr" v="643468" />
	</node>
	<node id="-472074" lat="60.1272750006" lon="5.05031389044">
		<tag k="name" v="Klungerhaugen" />
		<tag k="natural" v="hill" />
		<tag k="place" v="locality" />
		<tag k="ssr:stedsnr" v="158725" />
	</node>
	<node id="-472407" lat="60.0825861131" lon="5.25563055593">
		<tag k="name" v="Orratua" />
		<tag k="natural" v="hill" />
		<tag k="place" v="locality" />
		<tag k="ssr:stedsnr" v="582392" />
	</node>
	<node id="-472072" lat="59.9756416647" lon="5.14725833807">
		<tag k="name" v="Storhaugen" />
		<tag k="natural" v="hill" />
		<tag k="place" v="locality" />
		<tag k="ssr:stedsnr" v="158707" />
	</node>
	<node id="-472583" lat="60.053741665" lon="5.25823611692">
		<tag k="name" v="Litlasetra" />
		<tag k="natural" v="hill" />
		<tag k="place" v="locality" />
		<tag k="ssr:stedsnr" v="704439" />
	</node>
	<node id="-471723" lat="60.0868833341" lon="5.23417778658">
		<tag k="name" v="Palsihaugen" />
		<tag k="natural" v="hill" />
		<tag k="place" v="locality" />
		<tag k="ssr:stedsnr" v="401351" />
	</node>
</osm>
