<?xml version="1.0" encoding="UTF-8"?>
<osm generator="osmapis" version="0.6">
	<node id="-472575" lat="60.0731241709" lon="5.23825276403">
		<tag k="name" v="Langavatnet" />
		<tag k="natural" v="water" />
		<tag k="ssr:stedsnr" v="704340" />
		<tag k="water" v="lake" />
	</node>
	<node id="-471548" lat="59.9993916629" lon="5.07103054885">
		<tag k="name" v="Raugavatnet" />
		<tag k="natural" v="water" />
		<tag k="ssr:stedsnr" v="279895" />
		<tag k="water" v="lake" />
	</node>
	<node id="-472314" lat="60.011349998" lon="5.23380554796">
		<tag k="name" v="Uglenesvatnet" />
		<tag k="natural" v="water" />
		<tag k="ssr:stedsnr" v="522111" />
		<tag k="water" v="lake" />
	</node>
	<node id="-472185" lat="60.126500626" lon="5.14414895793">
		<tag k="name" v="Kvernavatnet" />
		<tag k="natural" v="water" />
		<tag k="ssr:stedsnr" v="247989" />
	</node>
	<node id="-472567" lat="60.0312638902" lon="5.23900832736">
		<tag k="name" v="Dyrneset" />
		<tag k="natural" v="cape" />
		<tag k="ssr:stedsnr" v="704111" />
	</node>
	<node id="-472438" lat="60.0126250013" lon="5.15654166735">
		<tag k="name" v="Høganeset" />
		<tag k="natural" v="cape" />
		<tag k="ssr:stedsnr" v="583687" />
	</node>
	<node id="-471923" lat="60.0520430288" lon="5.26109272716">
		<tag k="name" v="Setratjørna" />
		<tag k="natural" v="water" />
		<tag k="ssr:stedsnr" v="66146" />
	</node>
	<node id="-471920" lat="60.0714958168" lon="5.28510338033">
		<tag k="name" v="Kvernavatnet" />
		<tag k="natural" v="water" />
		<tag k="ssr:stedsnr" v="65927" />
	</node>
	<node id="-472175" lat="60.1297694468" lon="5.06378056124">
		<tag k="name" v="Eriksvatnet" />
		<tag k="natural" v="water" />
		<tag k="ssr:stedsnr" v="247609" />
	</node>
	<node id="-472426" lat="60.0539250032" lon="5.21129445231">
		<tag k="name" v="Svartavatnet" />
		<tag k="natural" v="water" />
		<tag k="ssr:stedsnr" v="582652" />
		<tag k="water" v="lake" />
	</node>
	<node id="-472169" lat="59.9816535943" lon="5.15723190504">
		<tag k="name" v="Heimstavatnet" />
		<tag k="natural" v="water" />
		<tag k="ssr:stedsnr" v="247158" />
	</node>
	<node id="-472807" lat="60.0251530809" lon="5.21515172616">
		<tag k="name" v="Matvikevatnet" />
		<tag k="natural" v="water" />
		<tag k="ssr:stedsnr" v="854107" />
	</node>
	<node id="-471653" lat="60.0287754479" lon="5.26087364126">
		<tag k="name" v="Kråketjørna" />
		<tag k="natural" v="water" />
		<tag k="ssr:stedsnr" v="368154" />
	</node>
	<node id="-471652" lat="59.9773133382" lon="5.12969837325">
		<tag k="name" v="Aravatnet" />
		<tag k="natural" v="water" />
		<tag k="ssr:stedsnr" v="368147" />
	</node>
	<node id="-472163" lat="59.9967575723" lon="5.06875104199">
		<tag k="name" v="Langavatnet" />
		<tag k="natural" v="water" />
		<tag k="ssr:stedsnr" v="247036" />
	</node>
	<node id="-472546" lat="60.004541043" lon="5.17247876886">
		<tag k="alt_name" v="Veivågsvatnet" />
		<tag k="name" v="Veivågvatnet" />
		<tag k="natural" v="water" />
		<tag k="ssr:stedsnr" v="672205" />
	</node>
	<node id="-472251" lat="59.9951472197" lon="5.06256110264">
		<tag k="name" v="Steinkleppvatnet" />
		<tag k="natural" v="water" />
		<tag k="ssr:stedsnr" v="461405" />
		<tag k="water" v="lake" />
	</node>
	<node id="-472272" lat="59.99803611" lon="5.06447777513">
		<tag k="name" v="Venavatnet" />
		<tag k="natural" v="water" />
		<tag k="ssr:stedsnr" v="461902" />
		<tag k="water" v="lake" />
	</node>
	<node id="-472284" lat="60.0340376658" lon="5.21892144505">
		<tag k="name" v="Søravatnet" />
		<tag k="natural" v="water" />
		<tag k="ssr:stedsnr" v="489162" />
	</node>
	<node id="-471866" lat="60.0211000035" lon="5.2061666639">
		<tag k="name" v="Bjørnanestjørna" />
		<tag k="natural" v="water" />
		<tag k="ssr:stedsnr" v="36081" />
		<tag k="water" v="lake" />
	</node>
	<node id="-472410" lat="60.1093499972" lon="5.23175278315">
		<tag k="name" v="Vasseidvatnet" />
		<tag k="natural" v="water" />
		<tag k="ssr:stedsnr" v="582415" />
		<tag k="water" v="lake" />
	</node>
	<node id="-472271" lat="60.0096833343" lon="5.08975277773">
		<tag k="name" v="Kanndelevatnet" />
		<tag k="natural" v="water" />
		<tag k="ssr:stedsnr" v="461889" />
		<tag k="water" v="lake" />
	</node>
	<node id="-472021" lat="60.0767479873" lon="5.28723071736">
		<tag k="name" v="Sagvatnet" />
		<tag k="natural" v="water" />
		<tag k="ssr:stedsnr" v="126906" />
	</node>
	<node id="-472276" lat="60.0962722181" lon="5.24152777687">
		<tag k="name" v="Stokkavika" />
		<tag k="natural" v="bay" />
		<tag k="ssr:stedsnr" v="462341" />
	</node>
	<node id="-472526" lat="59.995018266" lon="5.18741343226">
		<tag k="name" v="Langatjørna" />
		<tag k="natural" v="water" />
		<tag k="ssr:stedsnr" v="671238" />
	</node>
	<node id="-472528" lat="59.9858495146" lon="5.11689121125">
		<tag k="name" v="Ålfarevatnet" />
		<tag k="natural" v="water" />
		<tag k="ssr:stedsnr" v="671245" />
	</node>
	<node id="-472527" lat="59.9841039012" lon="5.15540554513">
		<tag k="name" v="Midtvatnet" />
		<tag k="natural" v="water" />
		<tag k="ssr:stedsnr" v="671240" />
	</node>
	<node id="-472654" lat="60.0615361133" lon="5.2855833331">
		<tag k="name" v="Aurebekken" />
		<tag k="ssr:stedsnr" v="764424" />
		<tag k="waterway" v="stream" />
	</node>
	<node id="-472290" lat="60.0567870217" lon="5.2520685569">
		<tag k="name" v="Austmannavågen" />
		<tag k="natural" v="water" />
		<tag k="ssr:stedsnr" v="490152" />
	</node>
	<node id="-471754" lat="60.0681666642" lon="5.28519721363">
		<tag k="name" v="Storebekken" />
		<tag k="ssr:stedsnr" v="886369" />
		<tag k="waterway" v="stream" />
	</node>
	<node id="-472695" lat="60.04788056" lon="5.1856222258">
		<tag k="name" v="Ringvatnet" />
		<tag k="natural" v="water" />
		<tag k="ssr:stedsnr" v="765632" />
		<tag k="water" v="lake" />
	</node>
	<node id="-471752" lat="60.1237184225" lon="5.21822396179">
		<tag k="name" v="Evjepollen" />
		<tag k="natural" v="water" />
		<tag k="ssr:stedsnr" v="886302" />
		<tag k="water" v="lake" />
	</node>
	<node id="-472903" lat="60.0320158682" lon="5.29415840037">
		<tag k="name" v="Otteråvatnet" />
		<tag k="natural" v="water" />
		<tag k="ssr:stedsnr" v="947491" />
		<tag k="water" v="lake" />
	</node>
	<node id="-472134" lat="60.071133199" lon="5.23396793526">
		<tag k="name" v="Porsnesvatnet" />
		<tag k="natural" v="water" />
		<tag k="ssr:stedsnr" v="219362" />
		<tag k="water" v="lake" />
	</node>
	<node id="-471969" lat="60.0058083313" lon="5.08757222496">
		<tag k="name" v="Valhammarsvatnet" />
		<tag k="natural" v="water" />
		<tag k="ssr:stedsnr" v="97879" />
		<tag k="water" v="lake" />
	</node>
	<node id="-472374" lat="60.0792266949" lon="5.2310617628">
		<tag k="name" v="Fiskevatnet" />
		<tag k="natural" v="water" />
		<tag k="ssr:stedsnr" v="550935" />
	</node>
	<node id="-471617" lat="60.0284900635" lon="5.21914793301">
		<tag k="name" v="Middagstjørna" />
		<tag k="natural" v="water" />
		<tag k="ssr:stedsnr" v="340128" />
	</node>
	<node id="-472384" lat="59.9883160818" lon="5.14629898508">
		<tag k="name" v="Bjørnsvatnet" />
		<tag k="natural" v="water" />
		<tag k="ssr:stedsnr" v="610284" />
	</node>
	<node id="-472125" lat="60.0483407434" lon="5.27102085676">
		<tag k="name" v="Hestatjørna" />
		<tag k="natural" v="water" />
		<tag k="ssr:stedsnr" v="219099" />
	</node>
	<node id="-472636" lat="60.099136119" lon="5.23734875109">
		<tag k="name" v="Kvernavatnet" />
		<tag k="natural" v="water" />
		<tag k="ssr:stedsnr" v="733872" />
	</node>
	<node id="-472891" lat="60.1278166673" lon="5.14025278394">
		<tag k="name" v="Rotavatnet" />
		<tag k="natural" v="water" />
		<tag k="ssr:stedsnr" v="947298" />
		<tag k="water" v="lake" />
	</node>
	<node id="-472762" lat="60.029127781" lon="5.23215555684">
		<tag k="name" v="Kviturneset" />
		<tag k="natural" v="cape" />
		<tag k="ssr:stedsnr" v="826134" />
	</node>
	<node id="-471758" lat="60.0478944408" lon="5.20389999695">
		<tag k="name" v="Skjenabergsvatnet" />
		<tag k="natural" v="water" />
		<tag k="ssr:stedsnr" v="886398" />
		<tag k="water" v="lake" />
	</node>
	<node id="-472758" lat="60.0454075891" lon="5.22004020824">
		<tag k="name" v="Søratjørna" />
		<tag k="natural" v="water" />
		<tag k="ssr:stedsnr" v="825605" />
	</node>
	<node id="-472757" lat="60.0452888881" lon="5.19206666167">
		<tag k="name" v="Grøndalsvatnet" />
		<tag k="natural" v="water" />
		<tag k="ssr:stedsnr" v="825604" />
		<tag k="water" v="lake" />
	</node>
	<node id="-471976" lat="59.9958361078" lon="5.05822500822">
		<tag k="name" v="Ølsvågsvatnet" />
		<tag k="natural" v="water" />
		<tag k="ssr:stedsnr" v="97905" />
		<tag k="water" v="lake" />
	</node>
	<node id="-472883" lat="60.0289945113" lon="5.22381815429">
		<tag k="name" v="Hestatjørna" />
		<tag k="natural" v="water" />
		<tag k="ssr:stedsnr" v="947116" />
	</node>
	<node id="-472369" lat="60.1082018225" lon="5.14100459624">
		<tag k="name" v="Gåsavatnet" />
		<tag k="natural" v="water" />
		<tag k="ssr:stedsnr" v="550889" />
	</node>
	<node id="-471566" lat="59.9705952491" lon="5.14007394394">
		<tag k="name" v="Vågasetretjørna" />
		<tag k="natural" v="water" />
		<tag k="ssr:stedsnr" v="307151" />
	</node>
	<node id="-472622" lat="59.9775685456" lon="5.13420091515">
		<tag k="name" v="Kulpeidsvatnet" />
		<tag k="natural" v="water" />
		<tag k="ssr:stedsnr" v="732142" />
	</node>
	<node id="-472039" lat="60.0320055517" lon="5.23001388647">
		<tag k="name" v="Båtavika" />
		<tag k="natural" v="bay" />
		<tag k="ssr:stedsnr" v="158140" />
	</node>
	<node id="-472137" lat="60.0797672586" lon="5.28207961736">
		<tag k="name" v="Flateidtjørna" />
		<tag k="natural" v="water" />
		<tag k="ssr:stedsnr" v="219429" />
	</node>
	<node id="-472711" lat="60.03046206" lon="5.27508519308">
		<tag k="name" v="Storavatnet" />
		<tag k="natural" v="water" />
		<tag k="ssr:stedsnr" v="793134" />
	</node>
	<node id="-472360" lat="59.9937503001" lon="5.06649953828">
		<tag k="name" v="Aravatnet" />
		<tag k="natural" v="water" />
		<tag k="ssr:stedsnr" v="550048" />
	</node>
	<node id="-472092" lat="59.988264274" lon="5.15377409801">
		<tag k="name" v="Furebottsvatnet" />
		<tag k="natural" v="water" />
		<tag k="ssr:stedsnr" v="186238" />
	</node>
	<node id="-471716" lat="60.1231777759" lon="5.1482555511">
		<tag k="name" v="Angersvatnet" />
		<tag k="natural" v="water" />
		<tag k="ssr:stedsnr" v="401265" />
		<tag k="water" v="lake" />
	</node>
	<node id="-472099" lat="60.0834380276" lon="5.23778189806">
		<tag k="name" v="Trettlivatnet" />
		<tag k="natural" v="water" />
		<tag k="ssr:stedsnr" v="186925" />
	</node>
	<node id="-471970" lat="60.0038749959" lon="5.08970555182">
		<tag k="name" v="Kjosen" />
		<tag k="natural" v="water" />
		<tag k="ssr:stedsnr" v="97880" />
		<tag k="water" v="lake" />
	</node>
	<node id="-472097" lat="60.0035151693" lon="5.08453531619">
		<tag k="alt_name" v="Stongalandsvatnet;Stangelandsvatn" />
		<tag k="name" v="Stangelandsvatnet" />
		<tag k="natural" v="water" />
		<tag k="ssr:stedsnr" v="186691" />
	</node>
	<node id="-471583" lat="60.0648705813" lon="5.28175306566">
		<tag k="name" v="Ljosavatnet" />
		<tag k="natural" v="water" />
		<tag k="ssr:stedsnr" v="308150" />
	</node>
	<node id="-472094" lat="59.9829650262" lon="5.13501965106">
		<tag k="name" v="Raugavatnet" />
		<tag k="natural" v="water" />
		<tag k="ssr:stedsnr" v="186246" />
	</node>
	<node id="-472604" lat="59.9825369833" lon="5.17013531652">
		<tag k="name" v="Djupedalstjørna" />
		<tag k="natural" v="water" />
		<tag k="ssr:stedsnr" v="704644" />
	</node>
	<node id="-471579" lat="60.0489081305" lon="5.26342409346">
		<tag k="name" v="Kvernavatnet" />
		<tag k="natural" v="water" />
		<tag k="ssr:stedsnr" v="308129" />
	</node>
	<node id="-472154" lat="60.0086777755" lon="5.18906110865">
		<tag k="name" v="Fagerbakkevatnet" />
		<tag k="natural" v="water" />
		<tag k="ssr:stedsnr" v="219714" />
		<tag k="water" v="lake" />
	</node>
	<node id="-472345" lat="59.9996476099" lon="5.1498320756">
		<tag k="name" v="Øydjordstjørna" />
		<tag k="natural" v="water" />
		<tag k="ssr:stedsnr" v="522650" />
	</node>
	<node id="-472344" lat="59.9817143938" lon="5.15722032812">
		<tag k="name" v="Kvernavatnet" />
		<tag k="natural" v="water" />
		<tag k="ssr:stedsnr" v="522647" />
		<tag k="water" v="lake" />
	</node>
	<node id="-472087" lat="60.0280018208" lon="5.27302980106">
		<tag k="alt_name" v="Husevikvatnet" />
		<tag k="name" v="Husavikvatnet" />
		<tag k="natural" v="water" />
		<tag k="ssr:stedsnr" v="186127" />
	</node>
	<node id="-472342" lat="59.9966829361" lon="5.11671831078">
		<tag k="name" v="Monstjørna" />
		<tag k="natural" v="water" />
		<tag k="ssr:stedsnr" v="522593" />
	</node>
	<node id="-471571" lat="60.0152611673" lon="5.25925066413">
		<tag k="name" v="Vinnesvatnet" />
		<tag k="natural" v="water" />
		<tag k="ssr:stedsnr" v="308217" />
	</node>
	<node id="-472579" lat="60.0968741325" lon="5.24611938249">
		<tag k="name" v="Geitatjørna" />
		<tag k="natural" v="water" />
		<tag k="ssr:stedsnr" v="704382" />
	</node>
	<node id="-471696" lat="60.0684527811" lon="5.2870888876">
		<tag k="name" v="Brakabotnen" />
		<tag k="natural" v="bay" />
		<tag k="ssr:stedsnr" v="400393" />
	</node>
	<node id="-472207" lat="60.0369076921" lon="5.22160020538">
		<tag k="name" v="Vassnesvatnet" />
		<tag k="natural" v="water" />
		<tag k="ssr:stedsnr" v="429142" />
	</node>
	<node id="-471950" lat="60.022857131" lon="5.25602675043">
		<tag k="name" v="Seskaretjørna" />
		<tag k="natural" v="water" />
		<tag k="ssr:stedsnr" v="97427" />
	</node>
	<node id="-472332" lat="60.0638805542" lon="5.26679722213">
		<tag k="name" v="Tungeneset" />
		<tag k="natural" v="cape" />
		<tag k="ssr:stedsnr" v="522483" />
	</node>
	<node id="-472203" lat="60.0239280391" lon="5.22819943316">
		<tag k="name" v="Risvatnet" />
		<tag k="natural" v="water" />
		<tag k="ssr:stedsnr" v="429125" />
	</node>
	<node id="-471560" lat="60.0033228428" lon="5.18646679284">
		<tag k="name" v="Bukkatjørna" />
		<tag k="natural" v="water" />
		<tag k="ssr:stedsnr" v="280719" />
	</node>
	<node id="-471980" lat="59.9958347193" lon="5.16776271522">
		<tag k="name" v="Føljatjørna" />
		<tag k="natural" v="water" />
		<tag k="ssr:stedsnr" v="98670" />
	</node>
	<node id="-472070" lat="59.9915944422" lon="5.16280834034">
		<tag k="name" v="Svartavatnet" />
		<tag k="natural" v="water" />
		<tag k="ssr:stedsnr" v="158666" />
		<tag k="water" v="lake" />
	</node>
	<node id="-471940" lat="60.02464026" lon="5.22330045">
		<tag k="name" v="Lonatjørna" />
		<tag k="natural" v="water" />
		<tag k="ssr:stedsnr" v="97108" />
	</node>
	<node id="-471815" lat="60.0303972231" lon="5.23483056252">
		<tag k="name" v="Kvernavatnet" />
		<tag k="natural" v="water" />
		<tag k="ssr:stedsnr" v="4148" />
		<tag k="water" v="lake" />
	</node>
	<node id="-472834" lat="60.1312040505" lon="5.0708833993">
		<tag k="name" v="Hillavatnet" />
		<tag k="natural" v="water" />
		<tag k="ssr:stedsnr" v="855649" />
	</node>
	<node id="-472705" lat="59.9943705432" lon="5.1320275595">
		<tag k="name" v="Steinavikevatnet" />
		<tag k="natural" v="water" />
		<tag k="ssr:stedsnr" v="792237" />
	</node>
</osm>
