<?xml version="1.0" encoding="UTF-8"?>
<osm generator="osmapis" version="0.6">
	<node id="-472405" lat="60.0990787825" lon="5.1865193969">
		<tag k="fixme" v="consider place=hamlet" />
		<tag k="name" v="Austre Bakholmen " />
		<tag k="place" v="farm" />
		<tag k="ssr:stedsnr" v="989871" />
	</node>
	<node id="-472568" lat="60.1411249997" lon="5.07790832439">
		<tag k="name" v="Mjuken" />
		<tag k="place" v="farm" />
		<tag k="ssr:stedsnr" v="97756" />
	</node>
	<node id="-472404" lat="60.0887216912" lon="5.16906012636">
		<tag k="fixme" v="consider place=hamlet" />
		<tag k="name" v="Vestre Bakholmen" />
		<tag k="place" v="farm" />
		<tag k="ssr:stedsnr" v="989870" />
	</node>
	<node id="-472403" lat="60.1064518161" lon="5.16726646336">
		<tag k="fixme" v="consider place=hamlet" />
		<tag k="name" v="Austevoll" />
		<tag k="place" v="farm" />
		<tag k="ssr:stedsnr" v="989869" />
	</node>
	<node id="-473068" lat="60.133585989" lon="5.09172811144">
		<tag k="alt_name" v="Bakko;Bakke" />
		<tag k="fixme" v="consider place=hamlet" />
		<tag k="name" v="Bakka" />
		<tag k="place" v="farm" />
		<tag k="ssr:stedsnr" v="611753" />
	</node>
	<node id="-473066" lat="60.1298388929" lon="5.08737778382">
		<tag k="name" v="Bakkasund" />
		<tag k="place" v="farm" />
		<tag k="ssr:stedsnr" v="611651" />
	</node>
	<node id="-473058" lat="60.039419048" lon="5.29729872311">
		<tag k="fixme" v="consider place=hamlet" />
		<tag k="name" v="Såtendal" />
		<tag k="place" v="farm" />
		<tag k="ssr:stedsnr" v="611128" />
	</node>
	<node id="-473050" lat="60.0062324858" lon="5.20353858955">
		<tag k="fixme" v="consider place=hamlet" />
		<tag k="name" v="Bekkjarvik" />
		<tag k="place" v="farm" />
		<tag k="ssr:stedsnr" v="604035" />
	</node>
	<node id="-473041" lat="59.9928555545" lon="5.17809443567">
		<tag k="historic" v="shieling" />
		<tag k="name" v="Høgestølen" />
		<tag k="place" v="locality" />
		<tag k="ssr:stedsnr" v="583676" />
	</node>
	<node id="-472523" lat="60.1060537629" lon="5.22779014017">
		<tag k="fixme" v="consider place=hamlet" />
		<tag k="name" v="Birkeland" />
		<tag k="place" v="farm" />
		<tag k="ssr:stedsnr" v="65913" />
	</node>
	<node id="-472611" lat="60.1192590009" lon="5.20611269258">
		<tag k="fixme" v="consider place=hamlet" />
		<tag k="name" v="Hufthammar" />
		<tag k="place" v="farm" />
		<tag k="ssr:stedsnr" v="125913" />
	</node>
	<node id="-472513" lat="60.0113259331" lon="5.19871897114">
		<tag k="name" v="Drivenes" />
		<tag k="place" v="hamlet" />
		<tag k="ssr:stedsnr" v="59213" />
	</node>
	<node id="-472512" lat="60.0933083369" lon="5.23315554712">
		<tag k="fixme" v="consider place=hamlet" />
		<tag k="name" v="Storebø" />
		<tag k="place" v="farm" />
		<tag k="ssr:stedsnr" v="59033" />
	</node>
	<node id="-473533" lat="60.0480583346" lon="5.18333611167">
		<tag k="name" v="Hestavika" />
		<tag k="place" v="neighbourhood" />
		<tag k="ssr:stedsnr" v="950402" />
	</node>
	<node id="-473532" lat="59.9871944483" lon="5.07504166452">
		<tag k="fixme" v="consider place=hamlet" />
		<tag k="name" v="Øvre Våge" />
		<tag k="place" v="farm" />
		<tag k="ssr:stedsnr" v="947898" />
	</node>
	<node id="-472394" lat="60.0113888855" lon="5.18448056305">
		<tag k="fixme" v="consider place=hamlet" />
		<tag k="name" v="Fagerbakke" />
		<tag k="place" v="farm" />
		<tag k="ssr:stedsnr" v="887715" />
	</node>
	<node id="-473010" lat="60.0263055551" lon="5.13892221784">
		<tag k="name" v="Lundøy" />
		<tag k="place" v="farm" />
		<tag k="ssr:stedsnr" v="582340" />
	</node>
	<node id="-473519" lat="59.9846251493" lon="5.07656531733">
		<tag k="fixme" v="consider place=hamlet" />
		<tag k="name" v="Nedre Våge" />
		<tag k="place" v="farm" />
		<tag k="ssr:stedsnr" v="947601" />
	</node>
	<node id="-473516" lat="60.0007861157" lon="5.1219333388">
		<tag k="name" v="Kvernevik" />
		<tag k="place" v="farm" />
		<tag k="ssr:stedsnr" v="947574" />
	</node>
	<node id="-473002" lat="60.1436111085" lon="5.20332777479">
		<tag k="name" v="Solnes" />
		<tag k="place" v="farm" />
		<tag k="ssr:stedsnr" v="582274" />
	</node>
	<node id="-472484" lat="60.0573333298" lon="5.22194721916">
		<tag k="fixme" v="consider place=hamlet" />
		<tag k="name" v="Straumsøy" />
		<tag k="place" v="farm" />
		<tag k="ssr:stedsnr" v="36585" />
	</node>
	<node id="-472991" lat="60.000700003" lon="5.09327499808">
		<tag k="name" v="Mylna" />
		<tag k="place" v="isolated_dwelling" />
		<tag k="ssr:stedsnr" v="569309" />
	</node>
	<node id="-472990" lat="59.9966944433" lon="5.09155833793">
		<tag k="name" v="Gyri" />
		<tag k="place" v="isolated_dwelling" />
		<tag k="ssr:stedsnr" v="569307" />
	</node>
	<node id="-472988" lat="60.1280095808" lon="5.08682738504">
		<tag k="fixme" v="consider place=hamlet" />
		<tag k="name" v="Kleppsvik" />
		<tag k="place" v="farm" />
		<tag k="ssr:stedsnr" v="551632" />
	</node>
	<node id="-473499" lat="60.1049694421" lon="5.2163444485">
		<tag k="fixme" v="consider place=hamlet" />
		<tag k="name" v="Haugland" />
		<tag k="place" v="farm" />
		<tag k="ssr:stedsnr" v="947341" />
	</node>
	<node id="-472985" lat="60.0538999494" lon="5.30016657396">
		<tag k="fixme" v="consider place=hamlet" />
		<tag k="name" v="Sandvik" />
		<tag k="place" v="farm" />
		<tag k="ssr:stedsnr" v="551176" />
	</node>
	<node id="-472976" lat="60.1138888909" lon="5.15413055522">
		<tag k="name" v="Torangsvåg" />
		<tag k="place" v="hamlet" />
		<tag k="ssr:stedsnr" v="550897" />
	</node>
	<node id="-472973" lat="60.105875003" lon="5.1689611048">
		<tag k="alt_name" v="Austevollhella" />
		<tag k="fixme" v="consider place=hamlet" />
		<tag k="name" v="Austevoll" />
		<tag k="place" v="village" />
		<tag k="ssr:stedsnr" v="550890" />
	</node>
	<node id="-472556" lat="60.0635222241" lon="5.25603055712">
		<tag k="historic" v="shieling" />
		<tag k="name" v="Høgestølen" />
		<tag k="place" v="locality" />
		<tag k="ssr:stedsnr" v="97449" />
	</node>
	<node id="-472964" lat="60.0004305594" lon="5.26295555717">
		<tag k="name" v="Blænes" />
		<tag k="place" v="neighbourhood" />
		<tag k="ssr:stedsnr" v="540357" />
	</node>
	<node id="-472962" lat="60.1253500001" lon="5.13028889053">
		<tag k="name" v="Tinghaugen" />
		<tag k="place" v="quarter" />
		<tag k="ssr:stedsnr" v="525412" />
	</node>
	<node id="-472961" lat="60.1180944447" lon="5.15639722258">
		<tag k="name" v="Haugsneset" />
		<tag k="place" v="quarter" />
		<tag k="ssr:stedsnr" v="525380" />
	</node>
	<node id="-473467" lat="60.1338011198" lon="5.08810557449">
		<tag k="fixme" v="consider place=hamlet" />
		<tag k="loc_name" v="Klepp" />
		<tag k="name" v="Kleppe" />
		<tag k="place" v="farm" />
		<tag k="ssr:stedsnr" v="915612" />
	</node>
	<node id="-473465" lat="60.0225286564" lon="5.28699734173">
		<tag k="fixme" v="consider place=hamlet" />
		<tag k="name" v="Brekke" />
		<tag k="place" v="farm" />
		<tag k="ssr:stedsnr" v="915211" />
	</node>
	<node id="-473464" lat="60.0101814294" lon="5.26340738839">
		<tag k="fixme" v="consider place=hamlet" />
		<tag k="name" v="Vinnes" />
		<tag k="place" v="farm" />
		<tag k="ssr:stedsnr" v="915196" />
	</node>
	<node id="-473460" lat="59.9775655228" lon="5.17598305125">
		<tag k="alt_name" v="Gaukseim" />
		<tag k="fixme" v="consider place=hamlet" />
		<tag k="name" v="Gauksheim" />
		<tag k="old_name" v="Gaukshei m" />
		<tag k="place" v="farm" />
		<tag k="ssr:stedsnr" v="914156" />
	</node>
	<node id="-472435" lat="60.114168135" lon="5.14874729232">
		<tag k="fixme" v="consider place=hamlet" />
		<tag k="name" v="Toranger" />
		<tag k="place" v="farm" />
		<tag k="ssr:stedsnr" v="4919" />
	</node>
	<node id="-472431" lat="60.0139527753" lon="5.07755833392">
		<tag k="alt_name" v="Sætrevika" />
		<tag k="name" v="Sætrevik" />
		<tag k="place" v="farm" />
		<tag k="ssr:stedsnr" v="4657" />
	</node>
	<node id="-473454" lat="60.0405146976" lon="5.08270113666">
		<tag k="fixme" v="consider place=hamlet" />
		<tag k="name" v="Litlakalsøy" />
		<tag k="place" v="farm" />
		<tag k="ssr:stedsnr" v="909766" />
	</node>
	<node id="-472935" lat="60.0081388931" lon="5.25311111922">
		<tag k="name" v="Vågen" />
		<tag k="place" v="farm" />
		<tag k="ssr:stedsnr" v="522444" />
	</node>
	<node id="-472934" lat="59.9804630911" lon="5.20044011062">
		<tag k="fixme" v="consider place=hamlet" />
		<tag k="name" v="Sætre" />
		<tag k="place" v="farm" />
		<tag k="ssr:stedsnr" v="522425" />
	</node>
	<node id="-473442" lat="59.9803250001" lon="5.19988055995">
		<tag k="name" v="Sætra" />
		<tag k="place" v="farm" />
		<tag k="ssr:stedsnr" v="874136" />
	</node>
	<node id="-472924" lat="60.1467527814" lon="5.20642777082">
		<tag k="name" v="Nygård" />
		<tag k="place" v="farm" />
		<tag k="ssr:stedsnr" v="522284" />
	</node>
	<node id="-472407" lat="59.9834763664" lon="5.18037375669">
		<tag k="fixme" v="consider place=hamlet" />
		<tag k="name" v="Grasdalen" />
		<tag k="place" v="farm" />
		<tag k="ssr:stedsnr" v="989873" />
	</node>
	<node id="-472406" lat="60.0121483986" lon="5.23674254787">
		<tag k="fixme" v="consider place=hamlet" />
		<tag k="name" v="Uglenes" />
		<tag k="place" v="farm" />
		<tag k="ssr:stedsnr" v="989872" />
	</node>
	<node id="-472917" lat="60.1308249995" lon="5.08884999966">
		<tag k="fixme" v="consider place=suburb, village or hamlet" />
		<tag k="name" v="Bakkasund" />
		<tag k="place" v="quarter" />
		<tag k="ssr:stedsnr" v="510960" />
	</node>
	<node id="-473428" lat="60.0779459572" lon="5.25773458633">
		<tag k="fixme" v="consider place=hamlet" />
		<tag k="name" v="Bjelland" />
		<tag k="place" v="farm" />
		<tag k="ssr:stedsnr" v="854922" />
	</node>
	<node id="-473427" lat="60.0686620395" lon="5.18209196045">
		<tag k="alt_name" v="Drøni;Drøna" />
		<tag k="fixme" v="consider place=hamlet" />
		<tag k="name" v="Drønen" />
		<tag k="place" v="farm" />
		<tag k="ssr:stedsnr" v="854916" />
	</node>
	<node id="-472402" lat="59.9998335383" lon="5.11709203368">
		<tag k="fixme" v="consider place=hamlet" />
		<tag k="name" v="Salthella" />
		<tag k="place" v="farm" />
		<tag k="ssr:stedsnr" v="989865" />
	</node>
	<node id="-472401" lat="60.0118231833" lon="5.17988467169">
		<tag k="fixme" v="consider place=hamlet" />
		<tag k="name" v="Eikholmen" />
		<tag k="place" v="farm" />
		<tag k="ssr:stedsnr" v="989861" />
	</node>
	<node id="-472907" lat="60.092944443" lon="5.23179167494">
		<tag k="fixme" v="consider place=hamlet" />
		<tag k="name" v="Storebø" />
		<tag k="place" v="village" />
		<tag k="ssr:stedsnr" v="490928" />
	</node>
	<node id="-473418" lat="60.0058333968" lon="5.14139916067">
		<tag k="alt_name" v="Ytre Rabben" />
		<tag k="name" v="Rabben" />
		<tag k="place" v="hamlet" />
		<tag k="ssr:stedsnr" v="854201" />
	</node>
	<node id="-472382" lat="59.9857823214" lon="5.07786741025">
		<tag k="name" v="Våge" />
		<tag k="place" v="hamlet" />
		<tag k="ssr:stedsnr" v="886615" />
	</node>
	<node id="-473405" lat="60.0808916638" lon="5.27865277803">
		<tag k="name" v="Kolbeinshamn" />
		<tag k="place" v="quarter" />
		<tag k="ssr:stedsnr" v="829366" />
	</node>
	<node id="-473404" lat="60.1010305549" lon="5.16501389447">
		<tag k="name" v="Melingen" />
		<tag k="place" v="quarter" />
		<tag k="ssr:stedsnr" v="829364" />
	</node>
	<node id="-473400" lat="60.0105416703" lon="5.20225277575">
		<tag k="fixme" v="consider place=hamlet" />
		<tag k="name" v="Søre Drivenes" />
		<tag k="place" v="farm" />
		<tag k="ssr:stedsnr" v="826677" />
	</node>
	<node id="-472885" lat="60.0083846729" lon="5.15192664599">
		<tag k="fixme" v="consider place=hamlet" />
		<tag k="name" v="Noven" />
		<tag k="place" v="farm" />
		<tag k="ssr:stedsnr" v="483254" />
	</node>
	<node id="-473394" lat="60.0006694471" lon="5.09203055458">
		<tag k="name" v="Mølna" />
		<tag k="place" v="farm" />
		<tag k="ssr:stedsnr" v="826598" />
	</node>
	<node id="-473377" lat="60.0911083367" lon="5.23879167472">
		<tag k="name" v="Skår" />
		<tag k="place" v="farm" />
		<tag k="ssr:stedsnr" v="826371" />
	</node>
	<node id="-472352" lat="60.0367611109" lon="5.21605555716">
		<tag k="fixme" v="consider place=hamlet" />
		<tag k="name" v="Vassnes" />
		<tag k="place" v="farm" />
		<tag k="ssr:stedsnr" v="886081" />
	</node>
	<node id="-472344" lat="60.0129722194" lon="5.23915555038">
		<tag k="alt_name" v="Vik" />
		<tag k="fixme" v="consider place=hamlet" />
		<tag k="name" v="Nordre Vik" />
		<tag k="place" v="farm" />
		<tag k="ssr:stedsnr" v="401674" />
	</node>
	<node id="-473356" lat="60.1516638897" lon="5.2068444376">
		<tag k="name" v="Kyrkjebøen" />
		<tag k="place" v="farm" />
		<tag k="ssr:stedsnr" v="826273" />
	</node>
	<node id="-472843" lat="60.0302888127" lon="5.29958275503">
		<tag k="fixme" v="consider place=hamlet" />
		<tag k="name" v="Otterå" />
		<tag k="place" v="farm" />
		<tag k="ssr:stedsnr" v="449525" />
	</node>
	<node id="-472838" lat="60.0616673713" lon="5.25168285237">
		<tag k="fixme" v="consider place=hamlet" />
		<tag k="name" v="Søreide" />
		<tag k="place" v="farm" />
		<tag k="ssr:stedsnr" v="430165" />
	</node>
	<node id="-472325" lat="60.0924972224" lon="5.22546666508">
		<tag k="name" v="Hagen" />
		<tag k="place" v="farm" />
		<tag k="ssr:stedsnr" v="401310" />
	</node>
	<node id="-473345" lat="60.0171861099" lon="5.27733055946">
		<tag k="name" v="Kalvavika" />
		<tag k="place" v="isolated_dwelling" />
		<tag k="ssr:stedsnr" v="813473" />
	</node>
	<node id="-472317" lat="60.041886115" lon="5.20214444941">
		<tag k="name" v="Kolbeinsvik" />
		<tag k="place" v="village" />
		<tag k="ssr:stedsnr" v="401131" />
	</node>
	<node id="-472313" lat="60.0582222204" lon="5.18142221667">
		<tag k="historic" v="shieling" />
		<tag k="name" v="Skjenestølen" />
		<tag k="place" v="locality" />
		<tag k="ssr:stedsnr" v="400656" />
	</node>
	<node id="-473327" lat="60.0944666628" lon="5.2337944389">
		<tag k="name" v="Ledet" />
		<tag k="place" v="farm" />
		<tag k="ssr:stedsnr" v="793885" />
	</node>
	<node id="-472813" lat="60.0480074307" lon="5.29543263005">
		<tag k="fixme" v="consider place=hamlet" />
		<tag k="name" v="Bratten" />
		<tag k="place" v="farm" />
		<tag k="ssr:stedsnr" v="429147" />
	</node>
	<node id="-473323" lat="60.0135583325" lon="5.21742777298">
		<tag k="name" v="Sølesvik" />
		<tag k="place" v="isolated_dwelling" />
		<tag k="ssr:stedsnr" v="793247" />
	</node>
	<node id="-472297" lat="60.0753833358" lon="5.26476945177">
		<tag k="name" v="Haukanes" />
		<tag k="place" v="farm" />
		<tag k="ssr:stedsnr" v="400381" />
	</node>
	<node id="-473317" lat="59.9822138929" lon="5.20113610462">
		<tag k="alt_name" v="Vikestøl" />
		<tag k="name" v="Vikestølen" />
		<tag k="place" v="farm" />
		<tag k="ssr:stedsnr" v="793158" />
	</node>
	<node id="-473312" lat="59.9895556995" lon="5.08153866392">
		<tag k="name" v="Årland" />
		<tag k="old_name" v="Aarland" />
		<tag k="place" v="hamlet" />
		<tag k="ssr:stedsnr" v="793028" />
	</node>
	<node id="-472799" lat="60.0864848312" lon="5.22714135719">
		<tag k="fixme" v="consider place=hamlet" />
		<tag k="name" v="Bjånes" />
		<tag k="place" v="farm" />
		<tag k="ssr:stedsnr" v="267874" />
	</node>
	<node id="-472286" lat="60.0086472255" lon="5.25102222305">
		<tag k="name" v="Teistnes" />
		<tag k="place" v="farm" />
		<tag k="ssr:stedsnr" v="369207" />
	</node>
	<node id="-472786" lat="60.1051844987" lon="5.16217054936">
		<tag k="alt_name" v="Melingen" />
		<tag k="fixme" v="consider place=hamlet" />
		<tag k="name" v="Melinga" />
		<tag k="place" v="farm" />
		<tag k="ssr:stedsnr" v="247883" />
	</node>
	<node id="-472785" lat="60.0988511209" lon="5.09601653">
		<tag k="fixme" v="consider place=hamlet" />
		<tag k="name" v="Horgo" />
		<tag k="place" v="farm" />
		<tag k="ssr:stedsnr" v="247869" />
	</node>
	<node id="-472267" lat="59.9986000034" lon="5.12571944831">
		<tag k="fixme" v="consider place=hamlet" />
		<tag k="name" v="Steinvik" />
		<tag k="place" v="farm" />
		<tag k="ssr:stedsnr" v="368272" />
	</node>
	<node id="-472778" lat="60.0155638908" lon="5.23477778092">
		<tag k="name" v="Vik" />
		<tag k="place" v="isolated_dwelling" />
		<tag k="ssr:stedsnr" v="247222" />
	</node>
	<node id="-472777" lat="60.0023722196" lon="5.12896110379">
		<tag k="alt_name" v="Tøkjet" />
		<tag k="name" v="Tøkje" />
		<tag k="place" v="farm" />
		<tag k="ssr:stedsnr" v="247218" />
	</node>
	<node id="-472264" lat="60.002934053" lon="5.09533018849">
		<tag k="fixme" v="consider place=hamlet" />
		<tag k="name" v="Valhammar" />
		<tag k="place" v="farm" />
		<tag k="ssr:stedsnr" v="368239" />
	</node>
	<node id="-472775" lat="60.0494489263" lon="5.22007228686">
		<tag k="fixme" v="consider place=hamlet" />
		<tag k="name" v="Heiamark" />
		<tag k="place" v="farm" />
		<tag k="ssr:stedsnr" v="247171" />
	</node>
	<node id="-472772" lat="60.0425834555" lon="5.20214323345">
		<tag k="fixme" v="consider place=hamlet" />
		<tag k="name" v="Kolbeinsvik" />
		<tag k="place" v="farm" />
		<tag k="ssr:stedsnr" v="247151" />
	</node>
	<node id="-472259" lat="60.0466080193" lon="5.18622764231">
		<tag k="name" v="Hestavik" />
		<tag k="place" v="farm" />
		<tag k="ssr:stedsnr" v="368174" />
	</node>
	<node id="-472769" lat="59.9854027766" lon="5.07918333329">
		<tag k="name" v="Våge" />
		<tag k="place" v="hamlet" />
		<tag k="ssr:stedsnr" v="247046" />
	</node>
	<node id="-472255" lat="59.9966047865" lon="5.08944910821">
		<tag k="alt_name" v="Stongaland" />
		<tag k="fixme" v="consider place=hamlet" />
		<tag k="name" v="Stangeland" />
		<tag k="place" v="farm" />
		<tag k="ssr:stedsnr" v="368048" />
	</node>
	<node id="-473278" lat="60.1188388932" lon="5.14025277551">
		<tag k="name" v="Økland" />
		<tag k="place" v="farm" />
		<tag k="ssr:stedsnr" v="765273" />
	</node>
	<node id="-472760" lat="59.9762250007" lon="5.179811117">
		<tag k="name" v="Rammeslotta" />
		<tag k="place" v="farm" />
		<tag k="ssr:stedsnr" v="219729" />
	</node>
	<node id="-472948" lat="60.0503833336" lon="5.18724722399">
		<tag k="name" v="Nauthella" />
		<tag k="place" v="farm" />
		<tag k="ssr:stedsnr" v="522640" />
	</node>
	<node id="-472755" lat="59.9881833302" lon="5.09017777374">
		<tag k="name" v="Gåsnes" />
		<tag k="place" v="farm" />
		<tag k="ssr:stedsnr" v="219641" />
	</node>
	<node id="-472226" lat="60.1167083327" lon="5.14946111046">
		<tag k="name" v="Taranger" />
		<tag k="place" v="farm" />
		<tag k="ssr:stedsnr" v="340297" />
	</node>
	<node id="-473242" lat="60.0754628682" lon="5.26881180581">
		<tag k="fixme" v="consider place=hamlet" />
		<tag k="name" v="Haukanes" />
		<tag k="place" v="farm" />
		<tag k="ssr:stedsnr" v="733902" />
	</node>
	<node id="-472728" lat="60.0506916682" lon="5.20106110843">
		<tag k="name" v="Russemyra" />
		<tag k="place" v="farm" />
		<tag k="ssr:stedsnr" v="218609" />
	</node>
	<node id="-473238" lat="60.0080749986" lon="5.20056388721">
		<tag k="fixme" v="consider place=hamlet" />
		<tag k="name" v="Bekkjarvik" />
		<tag k="place" v="village" />
		<tag k="ssr:stedsnr" v="733210" />
	</node>
	<node id="-473232" lat="59.9757888898" lon="5.15306666765">
		<tag k="alt_name" v="Hottvik" />
		<tag k="name" v="Hottvika" />
		<tag k="place" v="farm" />
		<tag k="ssr:stedsnr" v="732173" />
	</node>
	<node id="-472714" lat="60.125778202" lon="5.07136643224">
		<tag k="fixme" v="consider place=hamlet" />
		<tag k="name" v="Hille" />
		<tag k="place" v="farm" />
		<tag k="ssr:stedsnr" v="187586" />
	</node>
	<node id="-472713" lat="60.0045183508" lon="5.15968828471">
		<tag k="alt_name" v="Veivåg" />
		<tag k="fixme" v="consider place=hamlet" />
		<tag k="name" v="Veivågen" />
		<tag k="place" v="farm" />
		<tag k="ssr:stedsnr" v="187216" />
	</node>
	<node id="-472712" lat="60.0662513488" lon="5.24289888581">
		<tag k="fixme" v="consider place=hamlet" />
		<tag k="name" v="Nordeide" />
		<tag k="place" v="farm" />
		<tag k="ssr:stedsnr" v="187183" />
	</node>
	<node id="-473221" lat="60.1078972233" lon="5.21113889629">
		<tag k="name" v="Nordre Haugland" />
		<tag k="place" v="quarter" />
		<tag k="ssr:stedsnr" v="707389" />
	</node>
	<node id="-472193" lat="60.1171398932" lon="5.0611304174">
		<tag k="fixme" v="consider place=hamlet" />
		<tag k="name" v="Kalve" />
		<tag k="place" v="farm" />
		<tag k="ssr:stedsnr" v="308612" />
	</node>
	<node id="-473211" lat="59.9789749966" lon="5.19527777328">
		<tag k="name" v="Båtevik" />
		<tag k="place" v="farm" />
		<tag k="ssr:stedsnr" v="704653" />
	</node>
	<node id="-473210" lat="59.9850583291" lon="5.1897749977">
		<tag k="historic" v="shieling" />
		<tag k="name" v="Haktornstølen" />
		<tag k="place" v="locality" />
		<tag k="ssr:stedsnr" v="704649" />
	</node>
	<node id="-472694" lat="60.0185414485" lon="5.28358917372">
		<tag k="fixme" v="consider place=hamlet" />
		<tag k="name" v="Husavik" />
		<tag k="place" v="farm" />
		<tag k="ssr:stedsnr" v="186231" />
	</node>
	<node id="-473204" lat="60.0512083335" lon="5.19281111704">
		<tag k="name" v="Nyheim" />
		<tag k="place" v="farm" />
		<tag k="ssr:stedsnr" v="704605" />
	</node>
	<node id="-472177" lat="60.0143070007" lon="5.16951469097">
		<tag k="alt_name" v="Kalvanes" />
		<tag k="fixme" v="consider place=hamlet" />
		<tag k="name" v="Kalvaneset" />
		<tag k="place" v="farm" />
		<tag k="ssr:stedsnr" v="308224" />
	</node>
	<node id="-472688" lat="60.0048027797" lon="5.14070277652">
		<tag k="name" v="Rabben" />
		<tag k="place" v="quarter" />
		<tag k="ssr:stedsnr" v="176348" />
	</node>
	<node id="-472687" lat="60.0115500042" lon="5.24527221384">
		<tag k="name" v="Vik" />
		<tag k="place" v="quarter" />
		<tag k="ssr:stedsnr" v="176345" />
	</node>
	<node id="-472685" lat="60.0116000002" lon="5.07938611022">
		<tag k="fixme" v="consider place=hamlet" />
		<tag k="name" v="Kvalvåg" />
		<tag k="place" v="farm" />
		<tag k="ssr:stedsnr" v="158900" />
	</node>
	<node id="-472172" lat="60.0412298182" lon="5.25086126506">
		<tag k="alt_name" v="Nausheller" />
		<tag k="fixme" v="consider place=hamlet" />
		<tag k="name" v="Naustheller" />
		<tag k="place" v="farm" />
		<tag k="ssr:stedsnr" v="307168" />
	</node>
	<node id="-472508" lat="60.1486249956" lon="5.20576388656">
		<tag k="name" v="Sandtorr" />
		<tag k="place" v="neighbourhood" />
		<tag k="ssr:stedsnr" v="40423" />
	</node>
	<node id="-472166" lat="60.1361361093" lon="5.14533332537">
		<tag k="name" v="Skår" />
		<tag k="place" v="neighbourhood" />
		<tag k="ssr:stedsnr" v="283311" />
	</node>
	<node id="-472163" lat="60.0128694482" lon="5.19505554846">
		<tag k="name" v="Nordre Drivenes" />
		<tag k="place" v="farm" />
		<tag k="ssr:stedsnr" v="280678" />
	</node>
	<node id="-473186" lat="60.0187861072" lon="5.28151944755">
		<tag k="name" v="Husavik" />
		<tag k="place" v="farm" />
		<tag k="ssr:stedsnr" v="704413" />
	</node>
	<node id="-472663" lat="60.0010326573" lon="5.25878420802">
		<tag k="alt_name" v="Blenes" />
		<tag k="fixme" v="consider place=hamlet" />
		<tag k="name" v="Blænes" />
		<tag k="place" v="farm" />
		<tag k="ssr:stedsnr" v="158465" />
	</node>
	<node id="-472662" lat="60.0114416658" lon="5.26771389483">
		<tag k="name" v="Vinnes" />
		<tag k="place" v="farm" />
		<tag k="ssr:stedsnr" v="158460" />
	</node>
	<node id="-472657" lat="60.0919083317" lon="5.23506111043">
		<tag k="name" v="Heimegarden" />
		<tag k="place" v="farm" />
		<tag k="ssr:stedsnr" v="158365" />
	</node>
	<node id="-473165" lat="60.0673477683" lon="5.09507390163">
		<tag k="fixme" v="consider place=hamlet" />
		<tag k="name" v="Møkster" />
		<tag k="place" v="farm" />
		<tag k="ssr:stedsnr" v="691173" />
	</node>
	<node id="-472650" lat="60.1421694468" lon="5.18278888795">
		<tag k="name" v="Krosshamn" />
		<tag k="place" v="farm" />
		<tag k="ssr:stedsnr" v="158267" />
	</node>
	<node id="-473158" lat="60.0918361125" lon="5.24244444971">
		<tag k="name" v="Skår" />
		<tag k="place" v="farm" />
		<tag k="ssr:stedsnr" v="672942" />
	</node>
	<node id="-473157" lat="60.0807027769" lon="5.20382777331">
		<tag k="name" v="Rostøy" />
		<tag k="place" v="farm" />
		<tag k="ssr:stedsnr" v="672927" />
	</node>
	<node id="-473355" lat="60.1473138905" lon="5.20744444946">
		<tag k="fixme" v="consider place=hamlet" />
		<tag k="name" v="Sandtorv" />
		<tag k="place" v="farm" />
		<tag k="ssr:stedsnr" v="826272" />
	</node>
	<node id="-473147" lat="60.0499666634" lon="5.20033333351">
		<tag k="name" v="Russemyri" />
		<tag k="place" v="isolated_dwelling" />
		<tag k="ssr:stedsnr" v="672152" />
	</node>
	<node id="-472632" lat="60.1189195945" lon="5.14587397742">
		<tag k="fixme" v="consider place=hamlet" />
		<tag k="name" v="Økland" />
		<tag k="place" v="farm" />
		<tag k="ssr:stedsnr" v="126969" />
	</node>
	<node id="-472630" lat="60.1400340542" lon="5.14958286279">
		<tag k="fixme" v="consider place=hamlet" />
		<tag k="name" v="Skår" />
		<tag k="place" v="farm" />
		<tag k="ssr:stedsnr" v="126943" />
	</node>
	<node id="-473140" lat="60.1056402458" lon="5.15509818632">
		<tag k="fixme" v="consider place=hamlet" />
		<tag k="name" v="Troland" />
		<tag k="place" v="farm" />
		<tag k="ssr:stedsnr" v="671888" />
	</node>
	<node id="-472621" lat="60.0170361067" lon="5.23188054859">
		<tag k="name" v="Bakken" />
		<tag k="place" v="isolated_dwelling" />
		<tag k="ssr:stedsnr" v="126225" />
	</node>
	<node id="-472618" lat="60.0624444461" lon="5.24620833914">
		<tag k="name" v="Eidsbakke" />
		<tag k="place" v="isolated_dwelling" />
		<tag k="ssr:stedsnr" v="126174" />
	</node>
	<node id="-473126" lat="60.1253500001" lon="5.13028889053">
		<tag k="name" v="Barmen" />
		<tag k="place" v="neighbourhood" />
		<tag k="ssr:stedsnr" v="646355" />
	</node>
	<node id="-473123" lat="60.0048666624" lon="5.09372500502">
		<tag k="name" v="Valhammar" />
		<tag k="place" v="farm" />
		<tag k="ssr:stedsnr" v="643884" />
	</node>
	<node id="-472605" lat="60.0100833363" lon="5.08205833411">
		<tag k="fixme" v="consider place=suburb, village or hamlet" />
		<tag k="name" v="Kvalvåg" />
		<tag k="place" v="quarter" />
		<tag k="ssr:stedsnr" v="125682" />
	</node>
	<node id="-473116" lat="60.0505021215" lon="5.17641812213">
		<tag k="fixme" v="consider place=hamlet" />
		<tag k="name" v="Busesund" />
		<tag k="place" v="farm" />
		<tag k="ssr:stedsnr" v="643654" />
	</node>
	<node id="-472590" lat="60.0066160808" lon="5.14895436228">
		<tag k="alt_name" v="Indre Rabben" />
		<tag k="fixme" v="consider place=hamlet" />
		<tag k="name" v="Rabben" />
		<tag k="place" v="farm" />
		<tag k="ssr:stedsnr" v="98716" />
	</node>
	<node id="-473098" lat="60.0534472264" lon="5.30103888389">
		<tag k="name" v="Hundhammaren" />
		<tag k="place" v="farm" />
		<tag k="ssr:stedsnr" v="643451" />
	</node>
	<node id="-472492" lat="60.1059978039" lon="5.17563251652">
		<tag k="name" v="Austevollshella" />
		<tag k="place" v="farm" />
		<tag k="ssr:stedsnr" v="37305" />
	</node>
</osm>
