<?xml version="1.0" encoding="UTF-8"?>
<osm generator="osmapis" version="0.6">
	<node id="-473088" lat="60.1045416708" lon="5.2475166601">
		<tag k="fixme" v="consider seamark:type=rock or natural=shoal" />
		<tag k="name" v="Tipateskjeret" />
		<tag k="place" v="islet" />
		<tag k="ssr:stedsnr" v="643360" />
	</node>
	<node id="-473087" lat="60.135652782" lon="5.15276110323">
		<tag k="name" v="Laksvågen" />
		<tag k="natural" v="bay" />
		<tag k="ssr:stedsnr" v="643350" />
	</node>
	<node id="-473086" lat="60.1418638918" lon="5.16580832837">
		<tag k="name" v="Skårasund" />
		<tag k="natural" v="strait" />
		<tag k="ssr:stedsnr" v="643347" />
	</node>
	<node id="-473085" lat="60.0929833348" lon="5.2041972134">
		<tag k="name" v="Rostøytåa" />
		<tag k="natural" v="cape" />
		<tag k="ssr:stedsnr" v="643325" />
	</node>
	<node id="-473083" lat="60.0615555567" lon="5.23079167477">
		<tag k="name" v="Rongestraumkyllaren" />
		<tag k="natural" v="bay" />
		<tag k="ssr:stedsnr" v="642616" />
	</node>
	<node id="-473081" lat="60.1376833367" lon="5.09416111539">
		<tag k="name" v="Ospeflua" />
		<tag k="natural" v="shoal" />
		<tag k="place" v="locality" />
		<tag k="ssr:stedsnr" v="631808" />
	</node>
	<node id="-473080" lat="60.0619083345" lon="5.30366665965">
		<tag k="name" v="Ølnavågen" />
		<tag k="natural" v="bay" />
		<tag k="ssr:stedsnr" v="631659" />
	</node>
	<node id="-473079" lat="60.0559444454" lon="5.30192500857">
		<tag k="name" v="Gardvika" />
		<tag k="natural" v="bay" />
		<tag k="ssr:stedsnr" v="631652" />
	</node>
	<node id="-473078" lat="60.0847222188" lon="5.29060000147">
		<tag k="name" v="Grunnaflua" />
		<tag k="natural" v="shoal" />
		<tag k="place" v="locality" />
		<tag k="ssr:stedsnr" v="631645" />
	</node>
	<node id="-473077" lat="59.9802527795" lon="5.07523889733">
		<tag k="name" v="Krimbogsflua" />
		<tag k="natural" v="shoal" />
		<tag k="place" v="locality" />
		<tag k="ssr:stedsnr" v="631102" />
	</node>
	<node id="-473076" lat="59.979877776" lon="5.0431888941">
		<tag k="fixme" v="consider seamark:type=rock or natural=shoal" />
		<tag k="name" v="Nordstaskjeret" />
		<tag k="place" v="islet" />
		<tag k="ssr:stedsnr" v="631047" />
	</node>
	<node id="-473075" lat="60.050952776" lon="5.25589166131">
		<tag k="name" v="Tømbervika" />
		<tag k="natural" v="bay" />
		<tag k="ssr:stedsnr" v="630597" />
	</node>
	<node id="-473074" lat="60.0388666702" lon="5.1120527832">
		<tag k="name" v="Kalsøyflua" />
		<tag k="natural" v="shoal" />
		<tag k="place" v="locality" />
		<tag k="ssr:stedsnr" v="630161" />
	</node>
	<node id="-473073" lat="60.1348472197" lon="5.15180277745">
		<tag k="name" v="Fataneset" />
		<tag k="natural" v="cape" />
		<tag k="ssr:stedsnr" v="611995" />
	</node>
	<node id="-473072" lat="60.149766666" lon="5.13980554835">
		<tag k="name" v="Sengane" />
		<tag k="natural" v="cape" />
		<tag k="ssr:stedsnr" v="611973" />
	</node>
	<node id="-473071" lat="60.1395222185" lon="5.1517472238">
		<tag k="name" v="Skåravika" />
		<tag k="natural" v="bay" />
		<tag k="ssr:stedsnr" v="611958" />
	</node>
	<node id="-473070" lat="60.06559722" lon="5.26571388963">
		<tag k="name" v="Haukanespollen" />
		<tag k="natural" v="bay" />
		<tag k="ssr:stedsnr" v="611923" />
	</node>
	<node id="-473069" lat="60.105280555" lon="5.25746110476">
		<tag k="name" v="Prestnesholmen" />
		<tag k="place" v="islet" />
		<tag k="ssr:stedsnr" v="611902" />
	</node>
	<node id="-473067" lat="60.0210722184" lon="5.02263332585">
		<tag k="name" v="Seglholmane" />
		<tag k="place" v="islet" />
		<tag k="ssr:stedsnr" v="611685" />
	</node>
	<node id="-473065" lat="60.0907416695" lon="5.10882499697">
		<tag k="name" v="Horgo" />
		<tag k="place" v="island" />
		<tag k="ssr:stedsnr" v="611648" />
	</node>
	<node id="-473064" lat="60.114849999" lon="5.05333332465">
		<tag k="name" v="Sveneset" />
		<tag k="natural" v="cape" />
		<tag k="ssr:stedsnr" v="611640" />
	</node>
	<node id="-473063" lat="60.0096111114" lon="5.16358889016">
		<tag k="name" v="Veivågen" />
		<tag k="natural" v="bay" />
		<tag k="ssr:stedsnr" v="611244" />
	</node>
	<node id="-473061" lat="60.0100249998" lon="5.21517499856">
		<tag k="name" v="Stonganeset" />
		<tag k="natural" v="cape" />
		<tag k="ssr:stedsnr" v="611217" />
	</node>
	<node id="-473060" lat="60.0429333293" lon="5.29991111966">
		<tag k="name" v="Brattakrøke" />
		<tag k="natural" v="cape" />
		<tag k="ssr:stedsnr" v="611147" />
	</node>
	<node id="-473057" lat="59.9846583293" lon="5.21572222413">
		<tag k="name" v="Vadholmen" />
		<tag k="place" v="islet" />
		<tag k="ssr:stedsnr" v="610176" />
	</node>
	<node id="-473056" lat="59.9731555568" lon="5.18167499799">
		<tag k="name" v="Loviseneset" />
		<tag k="natural" v="cape" />
		<tag k="ssr:stedsnr" v="610169" />
	</node>
	<node id="-473054" lat="59.9824259078" lon="5.11151780043">
		<tag k="name" v="Ålfarevika" />
		<tag k="natural" v="bay" />
		<tag k="ssr:stedsnr" v="610148" />
	</node>
	<node id="-473053" lat="59.986463888" lon="5.05148055044">
		<tag k="name" v="Flatholmen" />
		<tag k="place" v="islet" />
		<tag k="ssr:stedsnr" v="610055" />
	</node>
	<node id="-473052" lat="59.9740277786" lon="5.07601111849">
		<tag k="name" v="Vågaflua" />
		<tag k="natural" v="shoal" />
		<tag k="place" v="locality" />
		<tag k="ssr:stedsnr" v="610052" />
	</node>
	<node id="-473049" lat="60.0381833322" lon="5.19033333677">
		<tag k="name" v="Boane" />
		<tag k="place" v="locality" />
		<tag k="seamark:type" v="rock" />
		<tag k="ssr:stedsnr" v="599306" />
	</node>
	<node id="-473046" lat="60.1255750021" lon="5.08320278072">
		<tag k="name" v="Haugavikeneset" />
		<tag k="natural" v="cape" />
		<tag k="ssr:stedsnr" v="583695" />
	</node>
	<node id="-473045" lat="60.0128916655" lon="5.21230000877">
		<tag k="name" v="Solesvika" />
		<tag k="natural" v="bay" />
		<tag k="ssr:stedsnr" v="583694" />
	</node>
	<node id="-473044" lat="60.0130333326" lon="5.17829444112">
		<tag k="name" v="Slåttevika" />
		<tag k="natural" v="bay" />
		<tag k="ssr:stedsnr" v="583690" />
	</node>
	<node id="-473040" lat="60.0068472192" lon="5.24652500092">
		<tag k="fixme" v="consider seamark:type=rock or natural=shoal" />
		<tag k="name" v="Kattaskjeret" />
		<tag k="place" v="islet" />
		<tag k="ssr:stedsnr" v="583669" />
	</node>
	<node id="-473039" lat="59.981564072" lon="5.20792310349">
		<tag k="name" v="Tveitevika" />
		<tag k="natural" v="bay" />
		<tag k="ssr:stedsnr" v="583649" />
	</node>
	<node id="-473038" lat="60.071647218" lon="5.22713332848">
		<tag k="name" v="Søra Svortevika" />
		<tag k="natural" v="bay" />
		<tag k="ssr:stedsnr" v="583370" />
	</node>
	<node id="-473037" lat="60.0963129396" lon="5.21514513234">
		<tag k="loc_name" v="Holmsundet" />
		<tag k="name" v="Holsundet" />
		<tag k="natural" v="strait" />
		<tag k="ssr:stedsnr" v="583323" />
	</node>
	<node id="-473036" lat="60.0297944454" lon="5.13496388052">
		<tag k="name" v="Snabbøksa" />
		<tag k="place" v="islet" />
		<tag k="ssr:stedsnr" v="583307" />
	</node>
	<node id="-473035" lat="59.986447225" lon="5.05747778481">
		<tag k="fixme" v="consider seamark:type=rock or natural=shoal" />
		<tag k="name" v="Sveinesvikeskjeret" />
		<tag k="place" v="islet" />
		<tag k="ssr:stedsnr" v="582911" />
	</node>
	<node id="-473034" lat="60.0203027766" lon="5.12766944269">
		<tag k="name" v="Træet" />
		<tag k="natural" v="cape" />
		<tag k="ssr:stedsnr" v="582884" />
	</node>
	<node id="-473033" lat="60.1250916688" lon="5.10066389459">
		<tag k="name" v="Lauvarøyholmen" />
		<tag k="place" v="islet" />
		<tag k="ssr:stedsnr" v="582754" />
	</node>
	<node id="-473032" lat="60.1156694455" lon="5.08513610347">
		<tag k="name" v="Bergsholmsundet" />
		<tag k="natural" v="strait" />
		<tag k="ssr:stedsnr" v="582752" />
	</node>
	<node id="-473029" lat="59.9876666667" lon="5.08754722127">
		<tag k="name" v="Stolmavågen" />
		<tag k="natural" v="bay" />
		<tag k="ssr:stedsnr" v="582634" />
	</node>
	<node id="-473028" lat="59.9844277757" lon="5.07174721633">
		<tag k="name" v="Hellebukta" />
		<tag k="natural" v="bay" />
		<tag k="ssr:stedsnr" v="582630" />
	</node>
	<node id="-473027" lat="59.9812444444" lon="5.08234999153">
		<tag k="name" v="Brudgomsskaget" />
		<tag k="natural" v="cape" />
		<tag k="ssr:stedsnr" v="582613" />
	</node>
	<node id="-473026" lat="60.0474138863" lon="5.06434721558">
		<tag k="name" v="Boavika" />
		<tag k="natural" v="bay" />
		<tag k="ssr:stedsnr" v="582600" />
	</node>
	<node id="-473025" lat="60.0636638856" lon="5.07145277768">
		<tag k="name" v="Langøykalven" />
		<tag k="place" v="island" />
		<tag k="ssr:stedsnr" v="582590" />
	</node>
	<node id="-473023" lat="60.0589972237" lon="5.0908361171">
		<tag k="name" v="Heggjevika" />
		<tag k="natural" v="bay" />
		<tag k="ssr:stedsnr" v="582567" />
	</node>
	<node id="-473022" lat="60.0246444404" lon="5.07284166867">
		<tag k="name" v="Buneset" />
		<tag k="natural" v="cape" />
		<tag k="ssr:stedsnr" v="582563" />
	</node>
	<node id="-473021" lat="60.1017083327" lon="5.09664443945">
		<tag k="name" v="Skinnbrokeskaget" />
		<tag k="place" v="island" />
		<tag k="ssr:stedsnr" v="582520" />
	</node>
	<node id="-473020" lat="60.1399361088" lon="5.06703611685">
		<tag k="name" v="Holsundet" />
		<tag k="natural" v="strait" />
		<tag k="ssr:stedsnr" v="582490" />
	</node>
	<node id="-473017" lat="60.0384055559" lon="5.30027499665">
		<tag k="name" v="Gardvika" />
		<tag k="natural" v="bay" />
		<tag k="ssr:stedsnr" v="582456" />
	</node>
	<node id="-473016" lat="60.092272646" lon="5.24656153782">
		<tag k="name" v="Austre Storebøvågen" />
		<tag k="natural" v="bay" />
		<tag k="ssr:stedsnr" v="582420" />
	</node>
	<node id="-473013" lat="60.0844444484" lon="5.27204444437">
		<tag k="name" v="Eidsklubben" />
		<tag k="natural" v="cape" />
		<tag k="ssr:stedsnr" v="582395" />
	</node>
	<node id="-473011" lat="60.0681750032" lon="5.17309444348">
		<tag k="name" v="Sandsundholmen" />
		<tag k="place" v="islet" />
		<tag k="ssr:stedsnr" v="582369" />
	</node>
	<node id="-473009" lat="60.1194735815" lon="5.22447157765">
		<tag k="name" v="Søra Kobbavika" />
		<tag k="natural" v="bay" />
		<tag k="ssr:stedsnr" v="582328" />
	</node>
	<node id="-473008" lat="60.1296028557" lon="5.20628877133">
		<tag k="name" v="Austra Bleikjo" />
		<tag k="place" v="island" />
		<tag k="ssr:stedsnr" v="582315" />
	</node>
	<node id="-473007" lat="60.1192130375" lon="5.22708634113">
		<tag k="name" v="Høge Paraksholmen" />
		<tag k="place" v="islet" />
		<tag k="ssr:stedsnr" v="582309" />
	</node>
	<node id="-473006" lat="60.1265226711" lon="5.21470558923">
		<tag k="name" v="Indreholmen" />
		<tag k="place" v="islet" />
		<tag k="ssr:stedsnr" v="582305" />
	</node>
	<node id="-473005" lat="60.1160000035" lon="5.16845833157">
		<tag k="name" v="Tanganeset" />
		<tag k="natural" v="cape" />
		<tag k="ssr:stedsnr" v="582286" />
	</node>
	<node id="-473004" lat="60.1150055578" lon="5.17076943813">
		<tag k="name" v="Tangabukta" />
		<tag k="natural" v="bay" />
		<tag k="ssr:stedsnr" v="582283" />
	</node>
	<node id="-473003" lat="60.1469083348" lon="5.17479167505">
		<tag k="fixme" v="consider seamark:type=rock or natural=shoal" />
		<tag k="name" v="Skarvaskjeret" />
		<tag k="place" v="islet" />
		<tag k="ssr:stedsnr" v="582281" />
	</node>
	<node id="-473001" lat="60.0371333315" lon="5.19696110841">
		<tag k="name" v="Ølnavågen" />
		<tag k="natural" v="bay" />
		<tag k="ssr:stedsnr" v="582123" />
	</node>
	<node id="-473000" lat="59.9887611151" lon="5.2212694394">
		<tag k="name" v="Økshammaren" />
		<tag k="natural" v="cape" />
		<tag k="ssr:stedsnr" v="572636" />
	</node>
	<node id="-472998" lat="59.9708555598" lon="5.02179721598">
		<tag k="name" v="Midtskjersstallen" />
		<tag k="natural" v="shoal" />
		<tag k="place" v="locality" />
		<tag k="ssr:stedsnr" v="571138" />
	</node>
	<node id="-472997" lat="59.9647722265" lon="5.05356666218">
		<tag k="name" v="Holmaflua" />
		<tag k="natural" v="shoal" />
		<tag k="place" v="locality" />
		<tag k="ssr:stedsnr" v="571137" />
	</node>
	<node id="-472996" lat="59.9776638872" lon="5.04636111535">
		<tag k="name" v="Nordstaskjersboen" />
		<tag k="natural" v="shoal" />
		<tag k="place" v="locality" />
		<tag k="ssr:stedsnr" v="571124" />
	</node>
	<node id="-472995" lat="60.0997583301" lon="5.24691110818">
		<tag k="name" v="Selvågen" />
		<tag k="natural" v="bay" />
		<tag k="ssr:stedsnr" v="570842" />
	</node>
	<node id="-472994" lat="60.1418861144" lon="5.11511389388">
		<tag k="name" v="Navøytangen" />
		<tag k="natural" v="cape" />
		<tag k="ssr:stedsnr" v="570789" />
	</node>
	<node id="-472993" lat="60.0208333318" lon="5.09772222632">
		<tag k="fixme" v="consider seamark:type=rock or natural=shoal" />
		<tag k="name" v="Stallaren" />
		<tag k="place" v="islet" />
		<tag k="ssr:stedsnr" v="570350" />
	</node>
	<node id="-472992" lat="60.074847219" lon="5.08969444488">
		<tag k="name" v="Blåsterstallen" />
		<tag k="natural" v="shoal" />
		<tag k="place" v="locality" />
		<tag k="ssr:stedsnr" v="570191" />
	</node>
	<node id="-472987" lat="60.0907305515" lon="5.27448056038">
		<tag k="name" v="Lambøya" />
		<tag k="place" v="islet" />
		<tag k="ssr:stedsnr" v="551602" />
	</node>
	<node id="-472986" lat="60.067555555" lon="5.23869722586">
		<tag k="name" v="Selvågen" />
		<tag k="natural" v="bay" />
		<tag k="ssr:stedsnr" v="551600" />
	</node>
	<node id="-472984" lat="60.0589770973" lon="5.30212603244">
		<tag k="name" v="Sandvikhamnen" />
		<tag k="natural" v="bay" />
		<tag k="ssr:stedsnr" v="551174" />
	</node>
	<node id="-472983" lat="60.1297222236" lon="5.1041333254">
		<tag k="name" v="Spissøya" />
		<tag k="place" v="island" />
		<tag k="ssr:stedsnr" v="550992" />
	</node>
	<node id="-472982" lat="60.1332333318" lon="5.111750001">
		<tag k="name" v="Navøyosen" />
		<tag k="natural" v="strait" />
		<tag k="ssr:stedsnr" v="550991" />
	</node>
	<node id="-472981" lat="60.1370361096" lon="5.09901389645">
		<tag k="name" v="Fluholmane" />
		<tag k="place" v="islet" />
		<tag k="ssr:stedsnr" v="550956" />
	</node>
	<node id="-472980" lat="60.1444416678" lon="5.19533888966">
		<tag k="name" v="Stollsøya" />
		<tag k="place" v="islet" />
		<tag k="ssr:stedsnr" v="550949" />
	</node>
	<node id="-472978" lat="60.0794416695" lon="5.21737222549">
		<tag k="name" v="Storrsøya" />
		<tag k="place" v="islet" />
		<tag k="ssr:stedsnr" v="550933" />
	</node>
	<node id="-472977" lat="60.0619222236" lon="5.1637638856">
		<tag k="name" v="Litlaskjerosen" />
		<tag k="natural" v="strait" />
		<tag k="ssr:stedsnr" v="550920" />
	</node>
	<node id="-472975" lat="60.1046583303" lon="5.21322221732">
		<tag k="name" v="Haugland" />
		<tag k="natural" v="cape" />
		<tag k="ssr:stedsnr" v="550895" />
	</node>
	<node id="-472972" lat="60.1583500022" lon="5.21686111229">
		<tag k="fixme" v="consider seamark:type=rock or natural=shoal" />
		<tag k="name" v="Pjagen" />
		<tag k="place" v="islet" />
		<tag k="ssr:stedsnr" v="550790" />
	</node>
	<node id="-472971" lat="60.0314777785" lon="5.0233750085">
		<tag k="fixme" v="consider seamark:type=rock or natural=shoal" />
		<tag k="name" v="Torkjelsskjeret" />
		<tag k="place" v="islet" />
		<tag k="ssr:stedsnr" v="550642" />
	</node>
	<node id="-472970" lat="60.0303055557" lon="5.06158610547">
		<tag k="fixme" v="consider seamark:type=rock or natural=shoal" />
		<tag k="name" v="Mælaren" />
		<tag k="place" v="islet" />
		<tag k="ssr:stedsnr" v="550639" />
	</node>
	<node id="-472969" lat="60.0646277783" lon="5.03938055033">
		<tag k="name" v="Myrbærholmen" />
		<tag k="place" v="islet" />
		<tag k="ssr:stedsnr" v="550628" />
	</node>
	<node id="-472968" lat="60.0561083328" lon="5.02571111635">
		<tag k="fixme" v="consider seamark:type=rock or natural=shoal" />
		<tag k="name" v="Seiskjera" />
		<tag k="place" v="islet" />
		<tag k="ssr:stedsnr" v="550621" />
	</node>
	<node id="-472967" lat="60.0037833359" lon="5.13112777453">
		<tag k="name" v="Djupavågen" />
		<tag k="natural" v="bay" />
		<tag k="ssr:stedsnr" v="550225" />
	</node>
	<node id="-472966" lat="60.0646944426" lon="5.17412222114">
		<tag k="fixme" v="consider seamark:type=rock or natural=shoal" />
		<tag k="name" v="Litlaskjeret" />
		<tag k="place" v="islet" />
		<tag k="ssr:stedsnr" v="550187" />
	</node>
	<node id="-472960" lat="60.0040694442" lon="5.06266388599">
		<tag k="name" v="Moldvikeneset" />
		<tag k="natural" v="cape" />
		<tag k="ssr:stedsnr" v="522929" />
	</node>
	<node id="-472959" lat="60.1221250018" lon="5.04439166592">
		<tag k="name" v="Laksavågsvika" />
		<tag k="natural" v="bay" />
		<tag k="ssr:stedsnr" v="522725" />
	</node>
	<node id="-472958" lat="60.1318666678" lon="5.12675278633">
		<tag k="name" v="Søre Navvågen" />
		<tag k="natural" v="bay" />
		<tag k="ssr:stedsnr" v="522720" />
	</node>
	<node id="-472957" lat="60.0082111141" lon="5.13587222283">
		<tag k="name" v="Vestevika" />
		<tag k="natural" v="bay" />
		<tag k="ssr:stedsnr" v="522673" />
	</node>
	<node id="-472956" lat="60.0069166705" lon="5.23319722308">
		<tag k="name" v="Vardaneset" />
		<tag k="natural" v="cape" />
		<tag k="ssr:stedsnr" v="522664" />
	</node>
	<node id="-472954" lat="59.9856555578" lon="5.21520000726">
		<tag k="name" v="Valesvika" />
		<tag k="natural" v="bay" />
		<tag k="ssr:stedsnr" v="522655" />
	</node>
	<node id="-472946" lat="60.0638222207" lon="5.06470833758">
		<tag k="name" v="Stokkholmbleikjo" />
		<tag k="place" v="island" />
		<tag k="ssr:stedsnr" v="522589" />
	</node>
	<node id="-472945" lat="60.0458527753" lon="5.10265555">
		<tag k="name" v="Austre Hesthagen" />
		<tag k="place" v="island" />
		<tag k="ssr:stedsnr" v="522573" />
	</node>
	<node id="-472944" lat="60.0405194435" lon="5.09192777566">
		<tag k="fixme" v="consider seamark:type=rock or natural=shoal" />
		<tag k="name" v="Skarvaskjeret" />
		<tag k="place" v="islet" />
		<tag k="ssr:stedsnr" v="522560" />
	</node>
	<node id="-472943" lat="60.0366138909" lon="5.07664722914">
		<tag k="name" v="Nordre Brørne" />
		<tag k="place" v="island" />
		<tag k="ssr:stedsnr" v="522552" />
	</node>
	<node id="-472942" lat="60.0406555528" lon="5.09987222984">
		<tag k="name" v="Kubberholmane" />
		<tag k="place" v="islet" />
		<tag k="ssr:stedsnr" v="522551" />
	</node>
	<node id="-472941" lat="60.0680250033" lon="5.08178055894">
		<tag k="name" v="Røyrvika" />
		<tag k="natural" v="bay" />
		<tag k="ssr:stedsnr" v="522527" />
	</node>
	<node id="-472940" lat="60.0738777743" lon="5.08329722779">
		<tag k="fixme" v="consider seamark:type=rock or natural=shoal" />
		<tag k="name" v="Litla-Helgeskjeret" />
		<tag k="place" v="islet" />
		<tag k="ssr:stedsnr" v="522526" />
	</node>
	<node id="-472939" lat="60.1358888857" lon="5.03927500135">
		<tag k="name" v="Nordra Skjeljabovika" />
		<tag k="natural" v="bay" />
		<tag k="ssr:stedsnr" v="522518" />
	</node>
	<node id="-472933" lat="60.133077775" lon="5.10530555332">
		<tag k="name" v="Kobbavågen" />
		<tag k="natural" v="bay" />
		<tag k="ssr:stedsnr" v="522404" />
	</node>
	<node id="-472931" lat="60.0800861086" lon="5.28451944367">
		<tag k="name" v="Kvernavika" />
		<tag k="natural" v="bay" />
		<tag k="ssr:stedsnr" v="522386" />
	</node>
	<node id="-472929" lat="60.0893727095" lon="5.25963137856">
		<tag k="name" v="Veggjaneset" />
		<tag k="natural" v="cape" />
		<tag k="ssr:stedsnr" v="522375" />
	</node>
	<node id="-472926" lat="60.1177361105" lon="5.22483332489">
		<tag k="name" v="Fureholmen" />
		<tag k="place" v="islet" />
		<tag k="ssr:stedsnr" v="522306" />
	</node>
	<node id="-472923" lat="60.1249805597" lon="5.16137778231">
		<tag k="name" v="Fangholmen" />
		<tag k="place" v="islet" />
		<tag k="ssr:stedsnr" v="522280" />
	</node>
	<node id="-472922" lat="60.1510305592" lon="5.17653055677">
		<tag k="name" v="Påvsundet" />
		<tag k="natural" v="strait" />
		<tag k="ssr:stedsnr" v="522269" />
	</node>
	<node id="-472921" lat="60.1407722216" lon="5.17894722548">
		<tag k="name" v="Sandsundholmen" />
		<tag k="place" v="islet" />
		<tag k="ssr:stedsnr" v="522266" />
	</node>
	<node id="-472920" lat="60.1399222254" lon="5.18315555794">
		<tag k="fixme" v="consider seamark:type=rock or natural=shoal" />
		<tag k="name" v="Florsskjeret" />
		<tag k="place" v="islet" />
		<tag k="ssr:stedsnr" v="522265" />
	</node>
	<node id="-472918" lat="60.1342527789" lon="5.02310834189">
		<tag k="name" v="Ivarsflua" />
		<tag k="natural" v="shoal" />
		<tag k="place" v="locality" />
		<tag k="ssr:stedsnr" v="511743" />
	</node>
	<node id="-472916" lat="60.1030999967" lon="5.2515527793">
		<tag k="name" v="Sjøbuosen" />
		<tag k="natural" v="strait" />
		<tag k="ssr:stedsnr" v="510880" />
	</node>
	<node id="-472915" lat="60.0939777807" lon="5.11530832705">
		<tag k="name" v="Langasundet" />
		<tag k="natural" v="strait" />
		<tag k="ssr:stedsnr" v="510760" />
	</node>
	<node id="-472914" lat="59.9704555518" lon="5.08194166016">
		<tag k="name" v="Vågafluskallen" />
		<tag k="natural" v="shoal" />
		<tag k="place" v="locality" />
		<tag k="ssr:stedsnr" v="510116" />
	</node>
	<node id="-472912" lat="60.01884167" lon="5.15941111548">
		<tag k="name" v="Høgholmen" />
		<tag k="place" v="islet" />
		<tag k="ssr:stedsnr" v="508319" />
	</node>
	<node id="-472911" lat="60.0895722188" lon="5.16913611368">
		<tag k="fixme" v="multiple name tags, choose one and add the other to alt_name" />
		<tag k="name" v="Litle Bakholmen;Vestre Bakholmen" />
		<tag k="place" v="islet" />
		<tag k="ssr:stedsnr" v="491619" />
	</node>
	<node id="-472910" lat="60.119636109" lon="5.1396249917">
		<tag k="name" v="Øklandsvågen" />
		<tag k="natural" v="bay" />
		<tag k="ssr:stedsnr" v="490977" />
	</node>
	<node id="-472909" lat="60.1438111132" lon="5.23608054796">
		<tag k="name" v="Strengløya" />
		<tag k="place" v="islet" />
		<tag k="ssr:stedsnr" v="490939" />
	</node>
	<node id="-472908" lat="60.0892847615" lon="5.25437468936">
		<tag k="name" v="Notaneset" />
		<tag k="natural" v="cape" />
		<tag k="ssr:stedsnr" v="490930" />
	</node>
	<node id="-472906" lat="60.0851777777" lon="5.28538333241">
		<tag k="fixme" v="consider seamark:type=rock or natural=shoal" />
		<tag k="name" v="Bleikjo" />
		<tag k="place" v="islet" />
		<tag k="ssr:stedsnr" v="490923" />
	</node>
	<node id="-472905" lat="60.1399833304" lon="5.06747778316">
		<tag k="name" v="Hillevika" />
		<tag k="natural" v="bay" />
		<tag k="ssr:stedsnr" v="490750" />
	</node>
	<node id="-472903" lat="60.0060333339" lon="5.01708055155">
		<tag k="name" v="Storatovo" />
		<tag k="place" v="islet" />
		<tag k="ssr:stedsnr" v="490660" />
	</node>
	<node id="-472902" lat="60.0905000005" lon="4.98479444617">
		<tag k="name" v="Ivarsstallgrunnane" />
		<tag k="natural" v="shoal" />
		<tag k="place" v="locality" />
		<tag k="ssr:stedsnr" v="490623" />
	</node>
	<node id="-472901" lat="60.1165055574" lon="5.0717777751">
		<tag k="name" v="Ytrøya" />
		<tag k="place" v="islet" />
		<tag k="ssr:stedsnr" v="490617" />
	</node>
	<node id="-472900" lat="60.0090406535" lon="5.13457328718">
		<tag k="name" v="Rabbholmen" />
		<tag k="place" v="islet" />
		<tag k="ssr:stedsnr" v="490231" />
	</node>
	<node id="-472898" lat="60.0040694453" lon="5.20447500128">
		<tag k="name" v="Leirvika" />
		<tag k="natural" v="bay" />
		<tag k="ssr:stedsnr" v="490213" />
	</node>
	<node id="-472897" lat="60.0013111067" lon="5.23573055032">
		<tag k="name" v="Hjartholmen" />
		<tag k="place" v="islet" />
		<tag k="ssr:stedsnr" v="490201" />
	</node>
	<node id="-472896" lat="60.0640055543" lon="5.22516388733">
		<tag k="name" v="Skora" />
		<tag k="place" v="islet" />
		<tag k="ssr:stedsnr" v="490179" />
	</node>
	<node id="-472894" lat="60.1231083331" lon="5.14365277389">
		<tag k="name" v="Hundvåko" />
		<tag k="place" v="island" />
		<tag k="ssr:stedsnr" v="489893" />
	</node>
	<node id="-472893" lat="60.1160181803" lon="5.16999188907">
		<tag k="name" v="Torangsneset" />
		<tag k="natural" v="cape" />
		<tag k="ssr:stedsnr" v="489891" />
	</node>
	<node id="-472892" lat="60.1005777815" lon="5.14117499101">
		<tag k="name" v="Knappsvågen" />
		<tag k="natural" v="bay" />
		<tag k="ssr:stedsnr" v="489883" />
	</node>
	<node id="-472891" lat="60.0931888892" lon="5.11750556335">
		<tag k="name" v="Søralangøya" />
		<tag k="place" v="islet" />
		<tag k="ssr:stedsnr" v="489877" />
	</node>
	<node id="-472890" lat="60.0669305546" lon="5.07462500756">
		<tag k="name" v="Svinakalven" />
		<tag k="place" v="islet" />
		<tag k="ssr:stedsnr" v="489687" />
	</node>
	<node id="-472888" lat="59.9739555599" lon="5.17652499514">
		<tag k="name" v="Gauksheimvika" />
		<tag k="natural" v="bay" />
		<tag k="ssr:stedsnr" v="489159" />
	</node>
	<node id="-472887" lat="60.0383944481" lon="5.19990278164">
		<tag k="name" v="Kolbeinsvikevågen" />
		<tag k="natural" v="bay" />
		<tag k="ssr:stedsnr" v="489153" />
	</node>
	<node id="-472884" lat="59.9748416652" lon="5.15646389069">
		<tag k="name" v="Kvernavika" />
		<tag k="natural" v="bay" />
		<tag k="ssr:stedsnr" v="462709" />
	</node>
	<node id="-472880" lat="60.148972225" lon="5.16728611074">
		<tag k="name" v="Bleikjo" />
		<tag k="place" v="island" />
		<tag k="ssr:stedsnr" v="462209" />
	</node>
	<node id="-472879" lat="60.1506472228" lon="5.17809167435">
		<tag k="name" v="Påvholmen" />
		<tag k="place" v="islet" />
		<tag k="ssr:stedsnr" v="462206" />
	</node>
	<node id="-472878" lat="60.0250277748" lon="5.01278056361">
		<tag k="bay" v="fjord" />
		<tag k="name" v="Storhavet" />
		<tag k="natural" v="bay" />
		<tag k="ssr:stedsnr" v="461938" />
	</node>
	<node id="-472875" lat="60.0607250008" lon="5.22402500335">
		<tag k="name" v="Heiamarkstraumen" />
		<tag k="natural" v="strait" />
		<tag k="ssr:stedsnr" v="461654" />
	</node>
	<node id="-472873" lat="60.0508916635" lon="5.06215277751">
		<tag k="fixme" v="consider seamark:type=rock or natural=shoal" />
		<tag k="name" v="Vestra Åkerøyskjeret" />
		<tag k="place" v="islet" />
		<tag k="ssr:stedsnr" v="461628" />
	</node>
	<node id="-472872" lat="60.0619000034" lon="5.05846388834">
		<tag k="name" v="Vandersholmbleikjene" />
		<tag k="place" v="island" />
		<tag k="ssr:stedsnr" v="461618" />
	</node>
	<node id="-472871" lat="60.0466999999" lon="5.09721667359">
		<tag k="name" v="Hestholmsundet" />
		<tag k="natural" v="strait" />
		<tag k="ssr:stedsnr" v="461606" />
	</node>
	<node id="-472870" lat="60.0369972265" lon="5.08776111746">
		<tag k="fixme" v="consider seamark:type=rock or natural=shoal" />
		<tag k="name" v="Matvoreskjeret" />
		<tag k="place" v="islet" />
		<tag k="ssr:stedsnr" v="461585" />
	</node>
	<node id="-472869" lat="60.0952944452" lon="5.0861611097">
		<tag k="name" v="Horgekalvssundet" />
		<tag k="natural" v="strait" />
		<tag k="ssr:stedsnr" v="461564" />
	</node>
	<node id="-472868" lat="60.0881111111" lon="5.11634166645">
		<tag k="name" v="Søre Ramsholmen" />
		<tag k="place" v="islet" />
		<tag k="ssr:stedsnr" v="461547" />
	</node>
	<node id="-472866" lat="60.1367527799" lon="5.04167777878">
		<tag k="name" v="Ytstevågen" />
		<tag k="natural" v="bay" />
		<tag k="ssr:stedsnr" v="461515" />
	</node>
	<node id="-472865" lat="60.140327777" lon="5.09085554921">
		<tag k="name" v="Steinnesvika" />
		<tag k="natural" v="bay" />
		<tag k="ssr:stedsnr" v="461499" />
	</node>
	<node id="-472860" lat="60.0028166665" lon="5.24988889061">
		<tag k="name" v="Raunevikane" />
		<tag k="natural" v="bay" />
		<tag k="ssr:stedsnr" v="461436" />
	</node>
	<node id="-472859" lat="60.0455500037" lon="5.24893888207">
		<tag k="name" v="Kvitlavågen" />
		<tag k="natural" v="bay" />
		<tag k="ssr:stedsnr" v="461412" />
	</node>
	<node id="-472858" lat="60.1171119134" lon="5.22891452312">
		<tag k="name" v="Sandvågen" />
		<tag k="natural" v="bay" />
		<tag k="ssr:stedsnr" v="461291" />
	</node>
	<node id="-472855" lat="60.0818805595" lon="5.26213333554">
		<tag k="name" v="Rakanov" />
		<tag k="place" v="island" />
		<tag k="ssr:stedsnr" v="461388" />
	</node>
	<node id="-472854" lat="60.068791668" lon="5.29949444003">
		<tag k="name" v="Ytra Gjengo" />
		<tag k="place" v="island" />
		<tag k="ssr:stedsnr" v="461386" />
	</node>
	<node id="-472853" lat="60.1066666666" lon="5.24801388665">
		<tag k="name" v="Bleikjo" />
		<tag k="place" v="island" />
		<tag k="ssr:stedsnr" v="461376" />
	</node>
	<node id="-472852" lat="60.1034583795" lon="5.24689695416">
		<tag k="name" v="Sjøbuholmen" />
		<tag k="place" v="islet" />
		<tag k="ssr:stedsnr" v="461374" />
	</node>
	<node id="-472851" lat="60.0882586989" lon="5.22509825445">
		<tag k="name" v="Bjånes" />
		<tag k="natural" v="cape" />
		<tag k="ssr:stedsnr" v="461362" />
	</node>
	<node id="-472850" lat="60.1352583371" lon="5.14421111409">
		<tag k="name" v="Leirpollen" />
		<tag k="natural" v="bay" />
		<tag k="ssr:stedsnr" v="461359" />
	</node>
	<node id="-472849" lat="60.1442222244" lon="5.17050556251">
		<tag k="name" v="Upselesundet" />
		<tag k="natural" v="strait" />
		<tag k="ssr:stedsnr" v="461355" />
	</node>
	<node id="-472848" lat="60.1216061109" lon="5.22463414327">
		<tag k="name" v="Nordra Kobbavika" />
		<tag k="natural" v="bay" />
		<tag k="ssr:stedsnr" v="461314" />
	</node>
	<node id="-472847" lat="60.1248166635" lon="5.25154722277">
		<tag k="name" v="Djupaflua" />
		<tag k="natural" v="shoal" />
		<tag k="place" v="locality" />
		<tag k="ssr:stedsnr" v="450865" />
	</node>
	<node id="-472845" lat="60.1127972261" lon="5.23847222634">
		<tag k="fixme" v="consider seamark:type=rock or natural=shoal" />
		<tag k="name" v="Breivikskjeret" />
		<tag k="place" v="islet" />
		<tag k="ssr:stedsnr" v="450860" />
	</node>
	<node id="-472844" lat="59.9708722263" lon="5.05343054674">
		<tag k="name" v="Midtskjersflua" />
		<tag k="natural" v="shoal" />
		<tag k="place" v="locality" />
		<tag k="ssr:stedsnr" v="450105" />
	</node>
	<node id="-472842" lat="60.137694444" lon="5.21237500176">
		<tag k="name" v="Kobbavågsholmen" />
		<tag k="place" v="islet" />
		<tag k="ssr:stedsnr" v="430993" />
	</node>
	<node id="-472841" lat="60.1259305541" lon="5.22235278615">
		<tag k="name" v="Grøningosen" />
		<tag k="natural" v="strait" />
		<tag k="ssr:stedsnr" v="430972" />
	</node>
	<node id="-472837" lat="60.0538027769" lon="5.20137778038">
		<tag k="name" v="Trollholmen" />
		<tag k="place" v="islet" />
		<tag k="ssr:stedsnr" v="430161" />
	</node>
	<node id="-472836" lat="60.142041666" lon="5.11147221549">
		<tag k="name" v="Litla-Navøya" />
		<tag k="natural" v="cape" />
		<tag k="ssr:stedsnr" v="429955" />
	</node>
	<node id="-472835" lat="60.0869416627" lon="5.26503332886">
		<tag k="name" v="Sauganeset" />
		<tag k="natural" v="cape" />
		<tag k="ssr:stedsnr" v="429942" />
	</node>
	<node id="-472834" lat="60.0777194451" lon="5.20357778626">
		<tag k="name" v="Rostøysundet" />
		<tag k="natural" v="strait" />
		<tag k="ssr:stedsnr" v="429933" />
	</node>
	<node id="-472832" lat="60.1160141923" lon="5.22924374727">
		<tag k="name" v="Flate Paraksholmen" />
		<tag k="place" v="islet" />
		<tag k="ssr:stedsnr" v="429904" />
	</node>
	<node id="-472831" lat="60.1193638889" lon="5.2269694454">
		<tag k="name" v="Høgste Paraksholmen" />
		<tag k="place" v="islet" />
		<tag k="ssr:stedsnr" v="429903" />
	</node>
	<node id="-472830" lat="60.1038250035" lon="5.12777499108">
		<tag k="name" v="Flatholmen" />
		<tag k="place" v="islet" />
		<tag k="ssr:stedsnr" v="429897" />
	</node>
	<node id="-472829" lat="60.0990361093" lon="5.15669167447">
		<tag k="name" v="Melingsvågen" />
		<tag k="natural" v="bay" />
		<tag k="ssr:stedsnr" v="429891" />
	</node>
	<node id="-472828" lat="60.0926944423" lon="5.17550277404">
		<tag k="name" v="Ståløya" />
		<tag k="place" v="islet" />
		<tag k="ssr:stedsnr" v="429886" />
	</node>
	<node id="-472827" lat="60.0978611066" lon="5.26528888373">
		<tag k="name" v="Torsholmen" />
		<tag k="place" v="islet" />
		<tag k="ssr:stedsnr" v="429877" />
	</node>
	<node id="-472826" lat="60.1578027748" lon="5.22289721609">
		<tag k="name" v="Taugholmen" />
		<tag k="place" v="islet" />
		<tag k="ssr:stedsnr" v="429795" />
	</node>
	<node id="-472825" lat="60.0216499994" lon="5.02721667326">
		<tag k="fixme" v="consider seamark:type=rock or natural=shoal" />
		<tag k="name" v="Bleikjo" />
		<tag k="place" v="islet" />
		<tag k="ssr:stedsnr" v="429655" />
	</node>
	<node id="-472824" lat="60.0318194477" lon="5.00644444985">
		<tag k="name" v="Skolten" />
		<tag k="place" v="islet" />
		<tag k="ssr:stedsnr" v="429651" />
	</node>
	<node id="-472823" lat="60.0195666622" lon="5.00670277298">
		<tag k="name" v="Greipningen" />
		<tag k="place" v="islet" />
		<tag k="ssr:stedsnr" v="429649" />
	</node>
	<node id="-472822" lat="60.0177972201" lon="5.02523610481">
		<tag k="name" v="Fugløysundet" />
		<tag k="natural" v="strait" />
		<tag k="ssr:stedsnr" v="429643" />
	</node>
	<node id="-472821" lat="60.0138305592" lon="5.01418332911">
		<tag k="name" v="Fugløya" />
		<tag k="place" v="island" />
		<tag k="ssr:stedsnr" v="429642" />
	</node>
	<node id="-472820" lat="60.0149861084" lon="5.06071665979">
		<tag k="name" v="Ytstaneset" />
		<tag k="natural" v="cape" />
		<tag k="ssr:stedsnr" v="429636" />
	</node>
	<node id="-472819" lat="60.0085601697" lon="5.07352664548">
		<tag k="name" v="Tverrbergosen" />
		<tag k="natural" v="bay" />
		<tag k="ssr:stedsnr" v="429635" />
	</node>
	<node id="-472818" lat="60.0638888873" lon="4.99958332696">
		<tag k="fixme" v="consider seamark:type=rock or natural=shoal" />
		<tag k="name" v="Skarten" />
		<tag k="place" v="islet" />
		<tag k="ssr:stedsnr" v="429629" />
	</node>
	<node id="-472817" lat="60.0448749975" lon="4.99728054713">
		<tag k="name" v="Grunnaflua" />
		<tag k="natural" v="shoal" />
		<tag k="place" v="locality" />
		<tag k="ssr:stedsnr" v="429620" />
	</node>
	<node id="-472816" lat="60.1305823662" lon="5.03116480897">
		<tag k="name" v="Marsteinsålen" />
		<tag k="natural" v="strait" />
		<tag k="ssr:stedsnr" v="430632" />
	</node>
	<node id="-472815" lat="60.113602774" lon="5.05611389131">
		<tag k="name" v="Stonganeset" />
		<tag k="natural" v="cape" />
		<tag k="ssr:stedsnr" v="430628" />
	</node>
	<node id="-472814" lat="60.0277972255" lon="5.04534166372">
		<tag k="name" v="Skoltane" />
		<tag k="place" v="islet" />
		<tag k="ssr:stedsnr" v="430612" />
	</node>
	<node id="-472811" lat="59.9737777766" lon="5.15706666375">
		<tag k="alt_name" v="Hotvika" />
		<tag k="name" v="Hottvika" />
		<tag k="natural" v="bay" />
		<tag k="ssr:stedsnr" v="429138" />
	</node>
	<node id="-472810" lat="59.9671361146" lon="5.14791944295">
		<tag k="fixme" v="consider seamark:type=rock or natural=shoal" />
		<tag k="name" v="Torsteinskyrkjene" />
		<tag k="place" v="islet" />
		<tag k="ssr:stedsnr" v="429134" />
	</node>
	<node id="-472809" lat="59.9862722215" lon="5.24087500092">
		<tag k="name" v="Bekkjarviksundet" />
		<tag k="natural" v="strait" />
		<tag k="ssr:stedsnr" v="429133" />
	</node>
	<node id="-472807" lat="59.9628888859" lon="5.0504916705">
		<tag k="name" v="Furen" />
		<tag k="place" v="islet" />
		<tag k="ssr:stedsnr" v="429041" />
	</node>
	<node id="-472806" lat="59.9982805577" lon="5.10218889382">
		<tag k="name" v="Stolmaneset" />
		<tag k="natural" v="cape" />
		<tag k="ssr:stedsnr" v="428224" />
	</node>
	<node id="-472805" lat="60.0164972242" lon="5.17869999824">
		<tag k="name" v="Eikholmen" />
		<tag k="place" v="islet" />
		<tag k="ssr:stedsnr" v="429227" />
	</node>
	<node id="-472804" lat="60.0170694488" lon="5.18291945039">
		<tag k="name" v="Albriktsneset" />
		<tag k="natural" v="cape" />
		<tag k="ssr:stedsnr" v="429225" />
	</node>
	<node id="-472803" lat="60.0186166702" lon="5.29260556175">
		<tag k="name" v="Dorganeset" />
		<tag k="natural" v="cape" />
		<tag k="ssr:stedsnr" v="429223" />
	</node>
	<node id="-472802" lat="60.0069581972" lon="5.10942895537">
		<tag k="name" v="Vadholmane" />
		<tag k="place" v="islet" />
		<tag k="ssr:stedsnr" v="429213" />
	</node>
	<node id="-472801" lat="60.1111577268" lon="5.20505585715">
		<tag k="name" v="Ørnesvika" />
		<tag k="natural" v="bay" />
		<tag k="ssr:stedsnr" v="479900" />
	</node>
	<node id="-472800" lat="60.1107833339" lon="5.09949443602">
		<tag k="name" v="Horgerevet" />
		<tag k="natural" v="shoal" />
		<tag k="place" v="locality" />
		<tag k="ssr:stedsnr" v="268748" />
	</node>
	<node id="-472798" lat="60.1173388872" lon="5.22188888716">
		<tag k="name" v="Sørvågen" />
		<tag k="natural" v="bay" />
		<tag k="ssr:stedsnr" v="267866" />
	</node>
	<node id="-472797" lat="60.0324666673" lon="5.20319166196">
		<tag k="name" v="Vestra Kalvavika" />
		<tag k="natural" v="bay" />
		<tag k="ssr:stedsnr" v="267706" />
	</node>
	<node id="-472796" lat="60.011141664" lon="5.26959167284">
		<tag k="name" v="Åkravika" />
		<tag k="natural" v="bay" />
		<tag k="ssr:stedsnr" v="267416" />
	</node>
	<node id="-472795" lat="60.0077861138" lon="5.01818055187">
		<tag k="name" v="Litlatovo" />
		<tag k="place" v="islet" />
		<tag k="ssr:stedsnr" v="267368" />
	</node>
	<node id="-472794" lat="60.036633337" lon="5.07639444556">
		<tag k="fixme" v="consider seamark:type=rock or natural=shoal" />
		<tag k="name" v="Brørne" />
		<tag k="place" v="islet" />
		<tag k="ssr:stedsnr" v="267094" />
	</node>
	<node id="-472793" lat="60.0103861135" lon="5.11689166585">
		<tag k="name" v="Henriksflua" />
		<tag k="natural" v="shoal" />
		<tag k="place" v="locality" />
		<tag k="ssr:stedsnr" v="266309" />
	</node>
	<node id="-472792" lat="60.0172944439" lon="5.16278889046">
		<tag k="name" v="Brattholmen" />
		<tag k="place" v="islet" />
		<tag k="ssr:stedsnr" v="266306" />
	</node>
	<node id="-472791" lat="60.126474999" lon="5.11883611223">
		<tag k="name" v="Arholmen" />
		<tag k="place" v="islet" />
		<tag k="ssr:stedsnr" v="247997" />
	</node>
	<node id="-472789" lat="60.0795138884" lon="5.11119167138">
		<tag k="name" v="Horgetrynet" />
		<tag k="natural" v="cape" />
		<tag k="ssr:stedsnr" v="247925" />
	</node>
	<node id="-472788" lat="60.0709194476" lon="5.3006944364">
		<tag k="fixme" v="consider seamark:type=rock or natural=shoal" />
		<tag k="name" v="Gjengene" />
		<tag k="place" v="islet" />
		<tag k="ssr:stedsnr" v="247909" />
	</node>
	<node id="-472787" lat="60.1093027788" lon="5.25923610698">
		<tag k="name" v="Lambøya" />
		<tag k="place" v="islet" />
		<tag k="ssr:stedsnr" v="247887" />
	</node>
	<node id="-472782" lat="60.0494500039" lon="5.06636666316">
		<tag k="name" v="Vestra Åkerøya" />
		<tag k="place" v="islet" />
		<tag k="ssr:stedsnr" v="247622" />
	</node>
	<node id="-472781" lat="60.116519447" lon="5.04241667288">
		<tag k="name" v="Håsneset" />
		<tag k="natural" v="cape" />
		<tag k="ssr:stedsnr" v="247613" />
	</node>
	<node id="-472779" lat="60.0204472243" lon="5.29505832541">
		<tag k="name" v="Løvika" />
		<tag k="natural" v="bay" />
		<tag k="ssr:stedsnr" v="247223" />
	</node>
	<node id="-472776" lat="60.0021250036" lon="5.2783972226">
		<tag k="name" v="Apalvika" />
		<tag k="natural" v="bay" />
		<tag k="ssr:stedsnr" v="247203" />
	</node>
	<node id="-472773" lat="59.982702781" lon="5.21393611347">
		<tag k="name" v="Vadlandståa" />
		<tag k="natural" v="cape" />
		<tag k="ssr:stedsnr" v="247152" />
	</node>
	<node id="-472770" lat="59.9810612228" lon="5.10762942189">
		<tag k="name" v="Ålfareklubben" />
		<tag k="natural" v="cape" />
		<tag k="ssr:stedsnr" v="247115" />
	</node>
	<node id="-472767" lat="60.025727776" lon="5.00710834154">
		<tag k="bay" v="fjord" />
		<tag k="name" v="Glosålen" />
		<tag k="natural" v="bay" />
		<tag k="ssr:stedsnr" v="219951" />
	</node>
	<node id="-472766" lat="59.9755194449" lon="5.11823610728">
		<tag k="name" v="Vindkjeftvika" />
		<tag k="natural" v="bay" />
		<tag k="ssr:stedsnr" v="219946" />
	</node>
	<node id="-472765" lat="60.0080888858" lon="5.06996111302">
		<tag k="name" v="Klubben" />
		<tag k="natural" v="cape" />
		<tag k="ssr:stedsnr" v="219891" />
	</node>
	<node id="-472764" lat="60.11533333" lon="5.05670555145">
		<tag k="name" v="Gardvågen" />
		<tag k="natural" v="bay" />
		<tag k="ssr:stedsnr" v="219766" />
	</node>
	<node id="-472763" lat="60.1236638882" lon="5.04528889154">
		<tag k="name" v="Djupavika" />
		<tag k="natural" v="bay" />
		<tag k="ssr:stedsnr" v="219762" />
	</node>
	<node id="-472762" lat="60.118791669" lon="5.09374999279">
		<tag k="fixme" v="consider seamark:type=rock or natural=shoal" />
		<tag k="name" v="Småskjeret" />
		<tag k="place" v="islet" />
		<tag k="ssr:stedsnr" v="219754" />
	</node>
	<node id="-472761" lat="59.9705916672" lon="5.16211943823">
		<tag k="name" v="Kylpeklubben" />
		<tag k="natural" v="cape" />
		<tag k="ssr:stedsnr" v="219736" />
	</node>
	<node id="-472754" lat="60.0513055595" lon="5.06553611005">
		<tag k="fixme" v="consider seamark:type=rock or natural=shoal" />
		<tag k="name" v="Indra Åkerøyskjeret" />
		<tag k="place" v="islet" />
		<tag k="ssr:stedsnr" v="219624" />
	</node>
	<node id="-472753" lat="60.0618083299" lon="5.07831111967">
		<tag k="name" v="Langøysundet" />
		<tag k="natural" v="strait" />
		<tag k="ssr:stedsnr" v="219595" />
	</node>
	<node id="-472752" lat="60.058369444" lon="5.10002777635">
		<tag k="name" v="Stovholmen" />
		<tag k="place" v="islet" />
		<tag k="ssr:stedsnr" v="219587" />
	</node>
	<node id="-472751" lat="60.0249166686" lon="5.05904999294">
		<tag k="name" v="Gåsholmen" />
		<tag k="place" v="island" />
		<tag k="ssr:stedsnr" v="219578" />
	</node>
	<node id="-472750" lat="60.0405472196" lon="5.07046666096">
		<tag k="name" v="Rosmundsholmen" />
		<tag k="place" v="islet" />
		<tag k="ssr:stedsnr" v="219575" />
	</node>
	<node id="-472749" lat="60.0389277743" lon="5.07130555851">
		<tag k="name" v="Austre Rosmundsvågen" />
		<tag k="natural" v="bay" />
		<tag k="ssr:stedsnr" v="219574" />
	</node>
	<node id="-472748" lat="60.0414500017" lon="5.09539444022">
		<tag k="name" v="Buarholmen" />
		<tag k="place" v="islet" />
		<tag k="ssr:stedsnr" v="219563" />
	</node>
	<node id="-472747" lat="60.08049444" lon="5.11437777746">
		<tag k="bay" v="fjord" />
		<tag k="name" v="Fruvågen" />
		<tag k="natural" v="bay" />
		<tag k="ssr:stedsnr" v="219549" />
	</node>
	<node id="-472746" lat="60.0242491268" lon="5.29870040046">
		<tag k="name" v="Bølevika" />
		<tag k="natural" v="bay" />
		<tag k="ssr:stedsnr" v="219482" />
	</node>
	<node id="-472744" lat="60.0015444406" lon="5.26679722397">
		<tag k="name" v="Skjelevika" />
		<tag k="natural" v="bay" />
		<tag k="ssr:stedsnr" v="219455" />
	</node>
	<node id="-472741" lat="60.1490277805" lon="5.25006943905">
		<tag k="name" v="Litla Lauarøya" />
		<tag k="place" v="island" />
		<tag k="ssr:stedsnr" v="219393" />
	</node>
	<node id="-472740" lat="60.0836472229" lon="5.2562472277">
		<tag k="name" v="Klubbatåa" />
		<tag k="natural" v="cape" />
		<tag k="ssr:stedsnr" v="219388" />
	</node>
	<node id="-472734" lat="60.1476694472" lon="5.21568054869">
		<tag k="fixme" v="consider seamark:type=rock or natural=shoal" />
		<tag k="name" v="Staraskjeret" />
		<tag k="place" v="islet" />
		<tag k="ssr:stedsnr" v="219267" />
	</node>
	<node id="-472733" lat="60.1502861143" lon="5.16729444348">
		<tag k="name" v="Anfinnsholmen" />
		<tag k="place" v="islet" />
		<tag k="ssr:stedsnr" v="219250" />
	</node>
	<node id="-472732" lat="60.1415888878" lon="5.17182222943">
		<tag k="name" v="Brennholmane" />
		<tag k="place" v="islet" />
		<tag k="ssr:stedsnr" v="219242" />
	</node>
	<node id="-472731" lat="60.1434527807" lon="5.13111666183">
		<tag k="name" v="Ekrneset" />
		<tag k="natural" v="cape" />
		<tag k="ssr:stedsnr" v="219235" />
	</node>
	<node id="-472729" lat="60.0500666703" lon="5.20568055906">
		<tag k="name" v="Dyraneset" />
		<tag k="natural" v="cape" />
		<tag k="ssr:stedsnr" v="218624" />
	</node>
	<node id="-472727" lat="60.0533000001" lon="5.21681388071">
		<tag k="name" v="Krabbakeila" />
		<tag k="natural" v="bay" />
		<tag k="ssr:stedsnr" v="218606" />
	</node>
	<node id="-472726" lat="60.0628722216" lon="5.22936667095">
		<tag k="name" v="Trollholmen" />
		<tag k="place" v="islet" />
		<tag k="ssr:stedsnr" v="218599" />
	</node>
	<node id="-472725" lat="60.0489861074" lon="5.24491667112">
		<tag k="name" v="Blåsternesvågen" />
		<tag k="natural" v="bay" />
		<tag k="ssr:stedsnr" v="218602" />
	</node>
	<node id="-472724" lat="60.0982861081" lon="5.25483611545">
		<tag k="name" v="Geitholmen" />
		<tag k="place" v="islet" />
		<tag k="ssr:stedsnr" v="207859" />
	</node>
	<node id="-472723" lat="60.1635861072" lon="5.18019166718">
		<tag k="name" v="Skorpeodden" />
		<tag k="natural" v="cape" />
		<tag k="ssr:stedsnr" v="207837" />
	</node>
	<node id="-472722" lat="60.1119249981" lon="5.12430277283">
		<tag k="name" v="Håvikflua" />
		<tag k="natural" v="shoal" />
		<tag k="place" v="locality" />
		<tag k="ssr:stedsnr" v="207742" />
	</node>
	<node id="-472721" lat="60.0808305595" lon="5.12795832432">
		<tag k="fixme" v="consider seamark:type=rock or natural=shoal" />
		<tag k="name" v="Midtskjeret" />
		<tag k="place" v="islet" />
		<tag k="ssr:stedsnr" v="207684" />
	</node>
	<node id="-472720" lat="60.1249388929" lon="5.07635833383">
		<tag k="name" v="Grunnavågen" />
		<tag k="natural" v="bay" />
		<tag k="ssr:stedsnr" v="206794" />
	</node>
	<node id="-472719" lat="60.1374888916" lon="5.10220554693">
		<tag k="name" v="Austre Fluholmen" />
		<tag k="place" v="islet" />
		<tag k="ssr:stedsnr" v="206806" />
	</node>
	<node id="-472718" lat="60.0547027788" lon="4.99668332644">
		<tag k="name" v="Lindarboflua" />
		<tag k="natural" v="shoal" />
		<tag k="place" v="locality" />
		<tag k="ssr:stedsnr" v="206278" />
	</node>
	<node id="-472716" lat="60.1346638897" lon="5.25712777871">
		<tag k="name" v="Trollsøyeidet" />
		<tag k="place" v="locality" />
		<tag k="ssr:stedsnr" v="187981" />
	</node>
	<node id="-472715" lat="60.1396916706" lon="5.06059444025">
		<tag k="name" v="Hillaneset" />
		<tag k="natural" v="cape" />
		<tag k="ssr:stedsnr" v="187712" />
	</node>
	<node id="-472711" lat="60.1535138868" lon="5.21877222661">
		<tag k="name" v="Galten" />
		<tag k="place" v="islet" />
		<tag k="ssr:stedsnr" v="186964" />
	</node>
	<node id="-472710" lat="60.0934333293" lon="5.1338749938">
		<tag k="name" v="Narøya" />
		<tag k="place" v="islet" />
		<tag k="ssr:stedsnr" v="186897" />
	</node>
	<node id="-472709" lat="60.0973305527" lon="5.19076667117">
		<tag k="fixme" v="multiple name tags, choose one and add the other to alt_name" />
		<tag k="name" v="Austreholmen;Austre Bakholmen" />
		<tag k="place" v="islet" />
		<tag k="ssr:stedsnr" v="186892" />
	</node>
	<node id="-472708" lat="60.0990111137" lon="5.19708610583">
		<tag k="name" v="Storholmen" />
		<tag k="place" v="islet" />
		<tag k="ssr:stedsnr" v="186888" />
	</node>
	<node id="-472707" lat="60.1084361105" lon="5.2737055548">
		<tag k="name" v="Ospøya" />
		<tag k="place" v="island" />
		<tag k="ssr:stedsnr" v="186886" />
	</node>
	<node id="-472706" lat="60.1039388926" lon="5.27413333641">
		<tag k="name" v="Ospøykalven" />
		<tag k="place" v="islet" />
		<tag k="ssr:stedsnr" v="186876" />
	</node>
	<node id="-472705" lat="60.0832916705" lon="5.27357777592">
		<tag k="name" v="Haukanesvågen" />
		<tag k="natural" v="bay" />
		<tag k="ssr:stedsnr" v="186928" />
	</node>
	<node id="-472703" lat="60.0254555541" lon="5.05068611565">
		<tag k="name" v="Lynghevrøya" />
		<tag k="place" v="island" />
		<tag k="ssr:stedsnr" v="186697" />
	</node>
	<node id="-472701" lat="60.0472722246" lon="5.00932221422">
		<tag k="name" v="Mågasteinane" />
		<tag k="place" v="islet" />
		<tag k="ssr:stedsnr" v="186681" />
	</node>
	<node id="-472700" lat="60.0610611132" lon="5.05291666212">
		<tag k="name" v="Vandersholmane" />
		<tag k="place" v="islet" />
		<tag k="ssr:stedsnr" v="186678" />
	</node>
	<node id="-472695" lat="59.9962444409" lon="5.21334166345">
		<tag k="name" v="Raugholmane" />
		<tag k="place" v="islet" />
		<tag k="ssr:stedsnr" v="186233" />
	</node>
	<node id="-472691" lat="59.9731111079" lon="5.04534445145">
		<tag k="fixme" v="consider seamark:type=rock or natural=shoal" />
		<tag k="name" v="Midtskjeret" />
		<tag k="place" v="islet" />
		<tag k="ssr:stedsnr" v="186053" />
	</node>
	<node id="-472690" lat="59.9961277749" lon="5.05083055907">
		<tag k="name" v="Ølsvågen" />
		<tag k="natural" v="bay" />
		<tag k="ssr:stedsnr" v="186039" />
	</node>
	<node id="-472689" lat="60.131186111" lon="5.1082333307">
		<tag k="name" v="Sveholmen" />
		<tag k="place" v="islet" />
		<tag k="ssr:stedsnr" v="180079" />
	</node>
	<node id="-472684" lat="60.1219500008" lon="5.06073611499">
		<tag k="name" v="Mariholmen" />
		<tag k="place" v="islet" />
		<tag k="ssr:stedsnr" v="158765" />
	</node>
	<node id="-472682" lat="60.1164416679" lon="5.05216110455">
		<tag k="name" v="Sprakavika" />
		<tag k="natural" v="bay" />
		<tag k="ssr:stedsnr" v="158752" />
	</node>
	<node id="-472681" lat="60.1274083331" lon="5.04244166101">
		<tag k="name" v="Langevika" />
		<tag k="natural" v="bay" />
		<tag k="ssr:stedsnr" v="158751" />
	</node>
	<node id="-472680" lat="60.1159722194" lon="5.07807499418">
		<tag k="fixme" v="consider seamark:type=rock or natural=shoal" />
		<tag k="name" v="Motaskjeret" />
		<tag k="place" v="islet" />
		<tag k="ssr:stedsnr" v="158735" />
	</node>
	<node id="-472674" lat="59.9818722242" lon="5.07929722951">
		<tag k="name" v="Sjøkylpa" />
		<tag k="natural" v="bay" />
		<tag k="ssr:stedsnr" v="158614" />
	</node>
	<node id="-472673" lat="60.0591777819" lon="5.07112500535">
		<tag k="fixme" v="consider seamark:type=rock or natural=shoal" />
		<tag k="name" v="Tindaskjeret" />
		<tag k="place" v="islet" />
		<tag k="ssr:stedsnr" v="158594" />
	</node>
	<node id="-472672" lat="60.0620249976" lon="5.06681111504">
		<tag k="name" v="Stokkholmane" />
		<tag k="place" v="islet" />
		<tag k="ssr:stedsnr" v="158590" />
	</node>
	<node id="-472671" lat="60.0454277823" lon="5.09794167037">
		<tag k="name" v="Lambableikjo" />
		<tag k="place" v="island" />
		<tag k="ssr:stedsnr" v="158588" />
	</node>
	<node id="-472670" lat="60.047205557" lon="5.09552221741">
		<tag k="name" v="Kalsøyneset" />
		<tag k="natural" v="cape" />
		<tag k="ssr:stedsnr" v="158587" />
	</node>
	<node id="-472669" lat="60.0449361126" lon="5.09172777945">
		<tag k="name" v="Søre Vågen" />
		<tag k="natural" v="bay" />
		<tag k="ssr:stedsnr" v="158585" />
	</node>
	<node id="-472668" lat="60.0651611087" lon="5.08434999595">
		<tag k="name" v="Årebladneset" />
		<tag k="natural" v="cape" />
		<tag k="ssr:stedsnr" v="158577" />
	</node>
	<node id="-472667" lat="59.9968333367" lon="5.04832500514">
		<tag k="name" v="Gamlevågen" />
		<tag k="natural" v="bay" />
		<tag k="ssr:stedsnr" v="158906" />
	</node>
	<node id="-472661" lat="60.0064555593" lon="5.25139722141">
		<tag k="name" v="Teistneset" />
		<tag k="natural" v="cape" />
		<tag k="ssr:stedsnr" v="158452" />
	</node>
	<node id="-472660" lat="60.0095027781" lon="5.01493888617">
		<tag k="name" v="Fugløyvågen" />
		<tag k="natural" v="bay" />
		<tag k="ssr:stedsnr" v="158414" />
	</node>
	<node id="-472659" lat="60.0941555521" lon="5.25885000356">
		<tag k="name" v="Krabbavika" />
		<tag k="natural" v="bay" />
		<tag k="ssr:stedsnr" v="158398" />
	</node>
	<node id="-472658" lat="60.0769055518" lon="5.19838332579">
		<tag k="name" v="Drønsstraumen" />
		<tag k="natural" v="strait" />
		<tag k="ssr:stedsnr" v="158393" />
	</node>
	<node id="-472654" lat="60.1188166699" lon="5.21858333384">
		<tag k="name" v="Nordravika" />
		<tag k="natural" v="bay" />
		<tag k="ssr:stedsnr" v="158318" />
	</node>
	<node id="-472653" lat="60.1128638903" lon="5.15832222949">
		<tag k="name" v="Tråvika" />
		<tag k="natural" v="bay" />
		<tag k="ssr:stedsnr" v="158312" />
	</node>
	<node id="-472652" lat="60.1268444451" lon="5.21261667453">
		<tag k="name" v="Indreholmsundet" />
		<tag k="natural" v="strait" />
		<tag k="ssr:stedsnr" v="158299" />
	</node>
	<node id="-472651" lat="60.1503611138" lon="5.24293889023">
		<tag k="name" v="Kjerholmen" />
		<tag k="place" v="islet" />
		<tag k="ssr:stedsnr" v="158287" />
	</node>
	<node id="-472649" lat="60.0396722228" lon="5.07664444732">
		<tag k="fixme" v="consider seamark:type=rock or natural=shoal" />
		<tag k="name" v="Rosmundsskjeret" />
		<tag k="place" v="islet" />
		<tag k="ssr:stedsnr" v="158547" />
	</node>
	<node id="-472648" lat="60.0957141518" lon="5.10238762474">
		<tag k="name" v="Litla Vaula" />
		<tag k="natural" v="bay" />
		<tag k="ssr:stedsnr" v="158534" />
	</node>
	<node id="-472647" lat="60.0941416626" lon="5.12050833773">
		<tag k="name" v="Stålhatten" />
		<tag k="place" v="island" />
		<tag k="ssr:stedsnr" v="158532" />
	</node>
	<node id="-472646" lat="60.0879333319" lon="5.12775556463">
		<tag k="name" v="Litle Eidholmen" />
		<tag k="place" v="islet" />
		<tag k="ssr:stedsnr" v="158528" />
	</node>
	<node id="-472645" lat="60.0358361131" lon="5.23413888448">
		<tag k="name" v="Kvernaneset" />
		<tag k="natural" v="cape" />
		<tag k="ssr:stedsnr" v="158143" />
	</node>
	<node id="-472643" lat="60.1315083316" lon="5.28163611974">
		<tag k="name" v="Trollsøystallen" />
		<tag k="natural" v="shoal" />
		<tag k="place" v="locality" />
		<tag k="ssr:stedsnr" v="146860" />
	</node>
	<node id="-472642" lat="60.1166277773" lon="5.22940834067">
		<tag k="name" v="Paraksholmane" />
		<tag k="place" v="islet" />
		<tag k="ssr:stedsnr" v="146853" />
	</node>
	<node id="-472641" lat="60.1047833345" lon="5.10310555133">
		<tag k="fixme" v="consider seamark:type=rock or natural=shoal" />
		<tag k="name" v="Bestuten" />
		<tag k="place" v="islet" />
		<tag k="ssr:stedsnr" v="146740" />
	</node>
	<node id="-472640" lat="60.0796555597" lon="5.22343333352">
		<tag k="name" v="Fleskaryggen" />
		<tag k="natural" v="shoal" />
		<tag k="place" v="locality" />
		<tag k="ssr:stedsnr" v="146695" />
	</node>
	<node id="-472639" lat="60.0015999992" lon="5.05890276896">
		<tag k="name" v="Moldvika" />
		<tag k="natural" v="bay" />
		<tag k="ssr:stedsnr" v="146384" />
	</node>
	<node id="-472638" lat="60.1358777732" lon="5.10369444032">
		<tag k="fixme" v="consider seamark:type=rock or natural=shoal" />
		<tag k="name" v="Gulaskjeret" />
		<tag k="place" v="islet" />
		<tag k="ssr:stedsnr" v="145807" />
	</node>
	<node id="-472637" lat="60.0205111151" lon="4.99610000139">
		<tag k="name" v="Vireflua" />
		<tag k="natural" v="shoal" />
		<tag k="place" v="locality" />
		<tag k="ssr:stedsnr" v="145372" />
	</node>
	<node id="-472636" lat="60.0548972223" lon="5.00638611585">
		<tag k="name" v="Lindarboen" />
		<tag k="natural" v="shoal" />
		<tag k="place" v="locality" />
		<tag k="ssr:stedsnr" v="145214" />
	</node>
	<node id="-472635" lat="60.0588749978" lon="5.10804167082">
		<tag k="name" v="Søra Skarpanesflua" />
		<tag k="natural" v="shoal" />
		<tag k="place" v="locality" />
		<tag k="ssr:stedsnr" v="145158" />
	</node>
	<node id="-472634" lat="60.0237444407" lon="5.16604444665">
		<tag k="name" v="Litlalunnøyboen" />
		<tag k="natural" v="shoal" />
		<tag k="place" v="locality" />
		<tag k="ssr:stedsnr" v="144340" />
	</node>
	<node id="-472633" lat="60.1278972202" lon="5.20191110936">
		<tag k="name" v="Lindholmen" />
		<tag k="place" v="islet" />
		<tag k="ssr:stedsnr" v="126986" />
	</node>
	<node id="-472631" lat="60.1208007227" lon="5.21813163682">
		<tag k="name" v="Paraket" />
		<tag k="natural" v="bay" />
		<tag k="ssr:stedsnr" v="126964" />
	</node>
	<node id="-472629" lat="60.081411109" lon="5.18566666521">
		<tag k="name" v="Klubbaholmen" />
		<tag k="place" v="islet" />
		<tag k="ssr:stedsnr" v="126921" />
	</node>
	<node id="-472628" lat="60.0751472218" lon="5.1187666732">
		<tag k="fixme" v="consider seamark:type=rock or natural=shoal" />
		<tag k="name" v="Terneskjeret" />
		<tag k="place" v="islet" />
		<tag k="ssr:stedsnr" v="126916" />
	</node>
	<node id="-472627" lat="60.0693972217" lon="5.09598889497">
		<tag k="name" v="Gloppa" />
		<tag k="natural" v="bay" />
		<tag k="ssr:stedsnr" v="126910" />
	</node>
	<node id="-472624" lat="60.1238194433" lon="5.07836388354">
		<tag k="name" v="Hillaneset" />
		<tag k="natural" v="cape" />
		<tag k="ssr:stedsnr" v="126577" />
	</node>
	<node id="-472623" lat="60.0187222185" lon="5.12524999741">
		<tag k="name" v="Lunnøykalven" />
		<tag k="place" v="islet" />
		<tag k="ssr:stedsnr" v="126232" />
	</node>
	<node id="-472622" lat="60.0116805526" lon="5.27283056127">
		<tag k="name" v="Austre Vinnesvågen" />
		<tag k="natural" v="bay" />
		<tag k="ssr:stedsnr" v="126229" />
	</node>
	<node id="-472620" lat="60.0008842759" lon="5.11456896167">
		<tag k="name" v="Salthella" />
		<tag k="natural" v="cape" />
		<tag k="ssr:stedsnr" v="126219" />
	</node>
	<node id="-472619" lat="60.0119666671" lon="5.29071389472">
		<tag k="name" v="Grautatåa" />
		<tag k="natural" v="cape" />
		<tag k="ssr:stedsnr" v="126212" />
	</node>
	<node id="-472617" lat="60.1441916632" lon="5.11565000298">
		<tag k="name" v="Navøytåa" />
		<tag k="natural" v="cape" />
		<tag k="ssr:stedsnr" v="125978" />
	</node>
	<node id="-472616" lat="60.1517055559" lon="5.15798610367">
		<tag k="name" v="Stegavågsosen" />
		<tag k="natural" v="strait" />
		<tag k="ssr:stedsnr" v="125975" />
	</node>
	<node id="-472614" lat="60.0934484494" lon="5.1048626633">
		<tag k="name" v="Vaula" />
		<tag k="natural" v="bay" />
		<tag k="ssr:stedsnr" v="125895" />
	</node>
	<node id="-472613" lat="60.0970305598" lon="5.20386667334">
		<tag k="name" v="Kjeholmen" />
		<tag k="place" v="islet" />
		<tag k="ssr:stedsnr" v="125892" />
	</node>
	<node id="-472612" lat="60.088936112" lon="5.27036667096">
		<tag k="name" v="Lambøyosen" />
		<tag k="natural" v="strait" />
		<tag k="ssr:stedsnr" v="125945" />
	</node>
	<node id="-472610" lat="60.114227774" lon="5.16012499151">
		<tag k="alt_name" v="Torangsvåg" />
		<tag k="name" v="Torangsvågen" />
		<tag k="natural" v="bay" />
		<tag k="ssr:stedsnr" v="125908" />
	</node>
	<node id="-472609" lat="60.0984472191" lon="5.27563888778">
		<tag k="name" v="Ryggholmen" />
		<tag k="place" v="islet" />
		<tag k="ssr:stedsnr" v="125884" />
	</node>
	<node id="-472608" lat="60.1662499997" lon="5.19078610801">
		<tag k="fixme" v="consider seamark:type=rock or natural=shoal" />
		<tag k="name" v="Eldjarnet" />
		<tag k="place" v="islet" />
		<tag k="ssr:stedsnr" v="125824" />
	</node>
	<node id="-472607" lat="60.0218000036" lon="5.07242499368">
		<tag k="name" v="Buholmen" />
		<tag k="place" v="islet" />
		<tag k="ssr:stedsnr" v="125692" />
	</node>
	<node id="-472606" lat="60.011425003" lon="5.08396111756">
		<tag k="alt_name" v="Kvalvåg" />
		<tag k="name" v="Kvalvågen" />
		<tag k="natural" v="bay" />
		<tag k="ssr:stedsnr" v="125684" />
	</node>
	<node id="-472604" lat="60.0061277801" lon="5.00261666171">
		<tag k="name" v="Fugløyflua" />
		<tag k="natural" v="shoal" />
		<tag k="place" v="locality" />
		<tag k="ssr:stedsnr" v="125677" />
	</node>
	<node id="-472603" lat="60.0744750026" lon="5.07777499763">
		<tag k="fixme" v="consider seamark:type=rock or natural=shoal" />
		<tag k="name" v="Helgeskjeret" />
		<tag k="place" v="islet" />
		<tag k="ssr:stedsnr" v="125667" />
	</node>
	<node id="-472602" lat="60.0524916705" lon="5.06219443861">
		<tag k="name" v="Kaggen" />
		<tag k="place" v="islet" />
		<tag k="ssr:stedsnr" v="125657" />
	</node>
	<node id="-472601" lat="60.0419500036" lon="5.19043611188">
		<tag k="name" v="Skiparvika" />
		<tag k="natural" v="bay" />
		<tag k="ssr:stedsnr" v="125159" />
	</node>
	<node id="-472600" lat="59.9694916661" lon="5.04552500372">
		<tag k="fixme" v="multiple name tags, choose one and add the other to alt_name; consider seamark:type=rock or natural=shoal" />
		<tag k="name" v="Synstaskjeret;Søraskjeret" />
		<tag k="place" v="islet" />
		<tag k="ssr:stedsnr" v="125051" />
	</node>
	<node id="-472599" lat="59.9703527807" lon="5.04213888431">
		<tag k="name" v="Hetta" />
		<tag k="natural" v="shoal" />
		<tag k="place" v="locality" />
		<tag k="ssr:stedsnr" v="125049" />
	</node>
	<node id="-472597" lat="60.0402666649" lon="5.07247499818">
		<tag k="name" v="Rosmunnholmen" />
		<tag k="place" v="islet" />
		<tag k="ssr:stedsnr" v="114340" />
	</node>
	<node id="-472593" lat="60.0918611121" lon="5.15745278486">
		<tag k="name" v="Store Bakholmen" />
		<tag k="place" v="islet" />
		<tag k="ssr:stedsnr" v="102942" />
	</node>
	<node id="-472592" lat="59.9798249996" lon="5.20214443874">
		<tag k="bay" v="fjord" />
		<tag k="name" v="Grasdalssjøen" />
		<tag k="natural" v="bay" />
		<tag k="ssr:stedsnr" v="98731" />
	</node>
	<node id="-472591" lat="59.9687194427" lon="5.13554722999">
		<tag k="name" v="Skarven" />
		<tag k="natural" v="cape" />
		<tag k="ssr:stedsnr" v="98728" />
	</node>
	<node id="-472589" lat="59.9976388868" lon="5.13651111767">
		<tag k="name" v="Fagerbakkevåg" />
		<tag k="natural" v="bay" />
		<tag k="ssr:stedsnr" v="98706" />
	</node>
	<node id="-472586" lat="60.0505111158" lon="5.16962500418">
		<tag k="fixme" v="consider seamark:type=rock or natural=shoal" />
		<tag k="name" v="Svartaskjeret" />
		<tag k="place" v="islet" />
		<tag k="ssr:stedsnr" v="98675" />
	</node>
	<node id="-472584" lat="60.0703000042" lon="5.22760000096">
		<tag k="name" v="Klubben" />
		<tag k="natural" v="cape" />
		<tag k="ssr:stedsnr" v="98363" />
	</node>
	<node id="-472583" lat="60.0915553701" lon="5.21961631586">
		<tag k="name" v="Store Netholmen" />
		<tag k="place" v="islet" />
		<tag k="ssr:stedsnr" v="98315" />
	</node>
	<node id="-472582" lat="60.0949111138" lon="5.20918055749">
		<tag k="fixme" v="consider seamark:type=rock or natural=shoal" />
		<tag k="name" v="Skarvaskjeret" />
		<tag k="place" v="islet" />
		<tag k="ssr:stedsnr" v="98307" />
	</node>
	<node id="-472580" lat="59.9995888931" lon="5.0508138802">
		<tag k="name" v="Litle Ølsvågen" />
		<tag k="natural" v="bay" />
		<tag k="ssr:stedsnr" v="97906" />
	</node>
	<node id="-472579" lat="59.9862111108" lon="5.06251111881">
		<tag k="name" v="Grønevika" />
		<tag k="natural" v="bay" />
		<tag k="ssr:stedsnr" v="97896" />
	</node>
	<node id="-472578" lat="59.9870833366" lon="5.05833332831">
		<tag k="name" v="Ploven" />
		<tag k="natural" v="bay" />
		<tag k="ssr:stedsnr" v="97893" />
	</node>
	<node id="-472577" lat="60.0209527767" lon="5.12590556034">
		<tag k="name" v="Lunnøykalvsundet" />
		<tag k="natural" v="strait" />
		<tag k="ssr:stedsnr" v="97885" />
	</node>
	<node id="-472576" lat="60.0140583375" lon="5.07661944474">
		<tag k="name" v="Sætrevika" />
		<tag k="natural" v="bay" />
		<tag k="ssr:stedsnr" v="97883" />
	</node>
	<node id="-472573" lat="60.0077638848" lon="5.06843611084">
		<tag k="name" v="Ravnavika" />
		<tag k="natural" v="bay" />
		<tag k="ssr:stedsnr" v="97874" />
	</node>
	<node id="-472571" lat="60.1151055563" lon="5.04741389406">
		<tag k="fixme" v="consider seamark:type=rock or natural=shoal" />
		<tag k="name" v="Sveskjeret" />
		<tag k="place" v="islet" />
		<tag k="ssr:stedsnr" v="97771" />
	</node>
	<node id="-472570" lat="60.1213833296" lon="5.05862223151">
		<tag k="name" v="Kalsvågen" />
		<tag k="natural" v="bay" />
		<tag k="ssr:stedsnr" v="97765" />
	</node>
	<node id="-472569" lat="60.1166666631" lon="5.04488611796">
		<tag k="name" v="Håsnesvika" />
		<tag k="natural" v="bay" />
		<tag k="ssr:stedsnr" v="97761" />
	</node>
	<node id="-472567" lat="60.1265722195" lon="5.11001944767">
		<tag k="name" v="Søre Sveholmen" />
		<tag k="place" v="islet" />
		<tag k="ssr:stedsnr" v="97753" />
	</node>
	<node id="-472566" lat="60.1179583302" lon="5.06957223103">
		<tag k="name" v="Bogen" />
		<tag k="natural" v="cape" />
		<tag k="ssr:stedsnr" v="97745" />
	</node>
	<node id="-472565" lat="60.1187888884" lon="5.06848055247">
		<tag k="name" v="Langholmen" />
		<tag k="place" v="island" />
		<tag k="ssr:stedsnr" v="97737" />
	</node>
	<node id="-472564" lat="60.0650027794" lon="5.0881472163">
		<tag k="name" v="Porsavika" />
		<tag k="natural" v="bay" />
		<tag k="ssr:stedsnr" v="97579" />
	</node>
	<node id="-472563" lat="60.0261694455" lon="5.0663916677">
		<tag k="name" v="Rossneset" />
		<tag k="natural" v="cape" />
		<tag k="ssr:stedsnr" v="97568" />
	</node>
	<node id="-472562" lat="60.0647611149" lon="5.0754583289">
		<tag k="name" v="Kuøybleikjo" />
		<tag k="place" v="island" />
		<tag k="ssr:stedsnr" v="97566" />
	</node>
	<node id="-472561" lat="60.085291666" lon="5.11825832505">
		<tag k="name" v="Langableikjo" />
		<tag k="place" v="island" />
		<tag k="ssr:stedsnr" v="97510" />
	</node>
	<node id="-472559" lat="60.1370999961" lon="5.0500166674">
		<tag k="name" v="Hamnene" />
		<tag k="natural" v="bay" />
		<tag k="ssr:stedsnr" v="97489" />
	</node>
	<node id="-472558" lat="60.0540055574" lon="5.25223889454">
		<tag k="name" v="Austmannastraumen" />
		<tag k="natural" v="strait" />
		<tag k="ssr:stedsnr" v="97461" />
	</node>
	<node id="-472554" lat="60.0110916691" lon="5.29040554875">
		<tag k="name" v="Boavika" />
		<tag k="natural" v="bay" />
		<tag k="ssr:stedsnr" v="97425" />
	</node>
	<node id="-472553" lat="60.1276833295" lon="5.10929445151">
		<tag k="name" v="Sveholmssundet" />
		<tag k="natural" v="strait" />
		<tag k="ssr:stedsnr" v="97407" />
	</node>
	<node id="-472551" lat="60.1322027748" lon="5.14417221916">
		<tag k="name" v="Kvernavika" />
		<tag k="natural" v="bay" />
		<tag k="ssr:stedsnr" v="97366" />
	</node>
	<node id="-472549" lat="60.1408805569" lon="5.21404721347">
		<tag k="name" v="Kobbavågen" />
		<tag k="natural" v="bay" />
		<tag k="ssr:stedsnr" v="97283" />
	</node>
	<node id="-472548" lat="60.1438555578" lon="5.23608889212">
		<tag k="name" v="Srengla" />
		<tag k="place" v="island" />
		<tag k="ssr:stedsnr" v="97280" />
	</node>
	<node id="-472547" lat="60.136519445" lon="5.19239999154">
		<tag k="name" v="Kamsøysundet" />
		<tag k="natural" v="strait" />
		<tag k="ssr:stedsnr" v="97255" />
	</node>
	<node id="-472546" lat="59.9802032864" lon="5.11631535034">
		<tag k="name" v="Vindkjeften" />
		<tag k="natural" v="cape" />
		<tag k="ssr:stedsnr" v="97630" />
	</node>
	<node id="-472543" lat="60.1476722186" lon="5.21508611875">
		<tag k="fixme" v="consider seamark:type=rock or natural=shoal" />
		<tag k="name" v="Storaskjeret" />
		<tag k="place" v="islet" />
		<tag k="ssr:stedsnr" v="85853" />
	</node>
	<node id="-472542" lat="60.1412666668" lon="5.21364166736">
		<tag k="name" v="Kobbavågen" />
		<tag k="natural" v="bay" />
		<tag k="ssr:stedsnr" v="85851" />
	</node>
	<node id="-472541" lat="60.0905228692" lon="5.22186997171">
		<tag k="name" v="Vestra Storebøvika" />
		<tag k="natural" v="bay" />
		<tag k="ssr:stedsnr" v="85833" />
	</node>
	<node id="-472540" lat="60.1231944437" lon="5.19979444797">
		<tag k="fixme" v="consider seamark:type=rock or natural=shoal" />
		<tag k="name" v="Holmsundskjeret" />
		<tag k="place" v="islet" />
		<tag k="ssr:stedsnr" v="85824" />
	</node>
	<node id="-472539" lat="60.1211666638" lon="5.12521666204">
		<tag k="name" v="Mjånesflua" />
		<tag k="natural" v="shoal" />
		<tag k="place" v="locality" />
		<tag k="ssr:stedsnr" v="85759" />
	</node>
	<node id="-472538" lat="60.0131447106" lon="5.28903931395">
		<tag k="name" v="Austre Hamnavågen" />
		<tag k="natural" v="bay" />
		<tag k="ssr:stedsnr" v="85391" />
	</node>
	<node id="-472537" lat="60.0130527773" lon="5.27165556125">
		<tag k="name" v="Skutevika" />
		<tag k="natural" v="bay" />
		<tag k="ssr:stedsnr" v="85387" />
	</node>
	<node id="-472536" lat="60.0318750024" lon="5.03295833817">
		<tag k="name" v="Indra Fjordaflua" />
		<tag k="natural" v="shoal" />
		<tag k="place" v="locality" />
		<tag k="ssr:stedsnr" v="85319" />
	</node>
	<node id="-472535" lat="60.0174611097" lon="5.0580527726">
		<tag k="name" v="Langeboen" />
		<tag k="natural" v="shoal" />
		<tag k="place" v="locality" />
		<tag k="ssr:stedsnr" v="85320" />
	</node>
	<node id="-472534" lat="59.9827527816" lon="5.08986667406">
		<tag k="name" v="Vågholmen" />
		<tag k="place" v="islet" />
		<tag k="ssr:stedsnr" v="268124" />
	</node>
	<node id="-472533" lat="59.971705558" lon="5.1245833276">
		<tag k="name" v="Midtneset" />
		<tag k="natural" v="cape" />
		<tag k="ssr:stedsnr" v="268123" />
	</node>
	<node id="-472531" lat="60.0368249996" lon="5.19288054879">
		<tag k="name" v="Boaneset" />
		<tag k="natural" v="cape" />
		<tag k="ssr:stedsnr" v="66581" />
	</node>
	<node id="-472530" lat="60.0079944487" lon="5.28647777928">
		<tag k="name" v="Breivika" />
		<tag k="natural" v="bay" />
		<tag k="ssr:stedsnr" v="66579" />
	</node>
	<node id="-472529" lat="60.0603472207" lon="5.24398333352">
		<tag k="name" v="Langeneskyllaren" />
		<tag k="natural" v="bay" />
		<tag k="ssr:stedsnr" v="66168" />
	</node>
	<node id="-472527" lat="60.0848361069" lon="5.16306389371">
		<tag k="name" v="Risøya" />
		<tag k="place" v="islet" />
		<tag k="ssr:stedsnr" v="65943" />
	</node>
	<node id="-472526" lat="60.0795138863" lon="5.18148611788">
		<tag k="name" v="Sandholmen" />
		<tag k="place" v="islet" />
		<tag k="ssr:stedsnr" v="65938" />
	</node>
	<node id="-472524" lat="60.1024305546" lon="5.20600833295">
		<tag k="name" v="Indreholmen" />
		<tag k="place" v="islet" />
		<tag k="ssr:stedsnr" v="65917" />
	</node>
	<node id="-472522" lat="60.0937225594" lon="5.09612727119">
		<tag k="name" v="Vestrevågen" />
		<tag k="natural" v="bay" />
		<tag k="ssr:stedsnr" v="65899" />
	</node>
	<node id="-472521" lat="60.0952833348" lon="5.27585833151">
		<tag k="name" v="Kumløya" />
		<tag k="place" v="islet" />
		<tag k="ssr:stedsnr" v="65898" />
	</node>
	<node id="-472520" lat="60.0898500003" lon="5.11596667057">
		<tag k="fixme" v="multiple name tags, choose one and add the other to alt_name" />
		<tag k="name" v="Ramsholmen;Søre Ramsholmen" />
		<tag k="place" v="islet" />
		<tag k="ssr:stedsnr" v="65897" />
	</node>
	<node id="-472519" lat="60.0230055591" lon="5.00720276878">
		<tag k="name" v="Håbrannsøya" />
		<tag k="place" v="islet" />
		<tag k="ssr:stedsnr" v="65646" />
	</node>
	<node id="-472518" lat="60.0375166631" lon="5.06013333774">
		<tag k="bay" v="fjord" />
		<tag k="name" v="Skoltafjorden" />
		<tag k="natural" v="bay" />
		<tag k="ssr:stedsnr" v="65622" />
	</node>
	<node id="-472517" lat="60.0057638897" lon="5.28608332523">
		<tag k="fixme" v="multiple name tags, choose one and add the other to alt_name" />
		<tag k="name" v="Kvitaneset;Rambjørgsneset" />
		<tag k="natural" v="cape" />
		<tag k="ssr:stedsnr" v="65214" />
	</node>
	<node id="-472516" lat="59.9701027771" lon="5.15313333881">
		<tag k="name" v="Laksneset" />
		<tag k="natural" v="cape" />
		<tag k="ssr:stedsnr" v="65134" />
	</node>
	<node id="-472515" lat="59.9792194479" lon="5.08231943808">
		<tag k="fixme" v="consider seamark:type=rock or natural=shoal" />
		<tag k="name" v="Bjørnen" />
		<tag k="place" v="islet" />
		<tag k="ssr:stedsnr" v="65040" />
	</node>
	<node id="-472514" lat="59.9964333356" lon="5.2567833339">
		<tag k="name" v="Huftarøy" />
		<tag k="place" v="island" />
		<tag k="ssr:stedsnr" v="64133" />
	</node>
	<node id="-472507" lat="60.1353722205" lon="5.10391667462">
		<tag k="fixme" v="consider seamark:type=rock or natural=shoal" />
		<tag k="name" v="Guleskjera" />
		<tag k="place" v="islet" />
		<tag k="ssr:stedsnr" v="39028" />
	</node>
	<node id="-472504" lat="60.0165472225" lon="5.18853611286">
		<tag k="name" v="Grautaskjersvika" />
		<tag k="natural" v="bay" />
		<tag k="ssr:stedsnr" v="37701" />
	</node>
	<node id="-472502" lat="60.0536333338" lon="5.17828611451">
		<tag k="name" v="Nisesundet" />
		<tag k="natural" v="strait" />
		<tag k="ssr:stedsnr" v="37662" />
	</node>
	<node id="-472501" lat="60.0553444462" lon="5.18015556053">
		<tag k="name" v="Vestra Storevika" />
		<tag k="natural" v="bay" />
		<tag k="ssr:stedsnr" v="37661" />
	</node>
	<node id="-472500" lat="60.0465388857" lon="5.17869443997">
		<tag k="name" v="Lambholmen" />
		<tag k="place" v="islet" />
		<tag k="ssr:stedsnr" v="37655" />
	</node>
	<node id="-472499" lat="60.044638891" lon="5.09442222055">
		<tag k="fixme" v="consider seamark:type=rock or natural=shoal" />
		<tag k="name" v="Kyrkjeskjeret" />
		<tag k="place" v="islet" />
		<tag k="ssr:stedsnr" v="37615" />
	</node>
	<node id="-472498" lat="60.0483416689" lon="5.08408333217">
		<tag k="name" v="Uteløa" />
		<tag k="place" v="island" />
		<tag k="ssr:stedsnr" v="37613" />
	</node>
	<node id="-472497" lat="60.0541138851" lon="5.30301110384">
		<tag k="name" v="Sandbuvika" />
		<tag k="natural" v="bay" />
		<tag k="ssr:stedsnr" v="37519" />
	</node>
	<node id="-472496" lat="60.069049997" lon="5.23482778551">
		<tag k="name" v="Porsneset" />
		<tag k="natural" v="cape" />
		<tag k="ssr:stedsnr" v="37381" />
	</node>
	<node id="-472495" lat="60.0894527178" lon="5.22422947471">
		<tag k="name" v="Skjåsundet" />
		<tag k="natural" v="strait" />
		<tag k="ssr:stedsnr" v="37330" />
	</node>
	<node id="-472494" lat="60.0956305599" lon="5.21686944828">
		<tag k="name" v="Prestaneset" />
		<tag k="natural" v="cape" />
		<tag k="ssr:stedsnr" v="37325" />
	</node>
	<node id="-472489" lat="60.1122392196" lon="5.14806447012">
		<tag k="name" v="Pollen" />
		<tag k="natural" v="bay" />
		<tag k="ssr:stedsnr" v="37254" />
	</node>
	<node id="-472488" lat="60.1431166633" lon="5.17453055899">
		<tag k="name" v="Vestre Kobbavågen" />
		<tag k="natural" v="bay" />
		<tag k="ssr:stedsnr" v="37245" />
	</node>
	<node id="-472487" lat="60.1223027752" lon="5.09935554807">
		<tag k="name" v="Kubbholmen" />
		<tag k="place" v="islet" />
		<tag k="ssr:stedsnr" v="36718" />
	</node>
	<node id="-472485" lat="60.0560492249" lon="5.21567768118">
		<tag k="name" v="Småstraumane" />
		<tag k="natural" v="strait" />
		<tag k="ssr:stedsnr" v="36611" />
	</node>
	<node id="-472483" lat="60.0507000016" lon="5.06690278562">
		<tag k="name" v="Fruvågane" />
		<tag k="natural" v="bay" />
		<tag k="ssr:stedsnr" v="36542" />
	</node>
	<node id="-472482" lat="60.0500861126" lon="5.06958333049">
		<tag k="name" v="Vestra Åkeøysundet" />
		<tag k="natural" v="strait" />
		<tag k="ssr:stedsnr" v="36534" />
	</node>
	<node id="-472481" lat="60.0385277738" lon="5.08019445025">
		<tag k="name" v="Dravika" />
		<tag k="natural" v="bay" />
		<tag k="ssr:stedsnr" v="36503" />
	</node>
	<node id="-472480" lat="60.041994441" lon="5.07825554905">
		<tag k="name" v="Torghaugvika" />
		<tag k="natural" v="bay" />
		<tag k="ssr:stedsnr" v="36497" />
	</node>
	<node id="-472479" lat="60.0849722265" lon="5.10766110907">
		<tag k="name" v="Nordre Kulparosen" />
		<tag k="natural" v="bay" />
		<tag k="ssr:stedsnr" v="36463" />
	</node>
	<node id="-472478" lat="60.0837000044" lon="5.10572222339">
		<tag k="fixme" v="consider seamark:type=rock or natural=shoal" />
		<tag k="name" v="Kulparosskjera" />
		<tag k="place" v="islet" />
		<tag k="ssr:stedsnr" v="36462" />
	</node>
	<node id="-472477" lat="60.1310722225" lon="5.02264445331">
		<tag k="name" v="Litle-Marsteinen" />
		<tag k="place" v="island" />
		<tag k="ssr:stedsnr" v="36447" />
	</node>
	<node id="-472476" lat="60.1361944488" lon="5.0915638827">
		<tag k="name" v="Bakkavågen" />
		<tag k="natural" v="bay" />
		<tag k="ssr:stedsnr" v="36443" />
	</node>
	<node id="-472474" lat="60.1180250023" lon="5.06785277916">
		<tag k="name" v="Lyngholmen" />
		<tag k="place" v="island" />
		<tag k="ssr:stedsnr" v="36361" />
	</node>
	<node id="-472473" lat="60.0279472209" lon="5.14459443862">
		<tag k="name" v="Storholmen" />
		<tag k="place" v="islet" />
		<tag k="ssr:stedsnr" v="36291" />
	</node>
	<node id="-472472" lat="60.0363481329" lon="5.19781183923">
		<tag k="name" v="Langaneset" />
		<tag k="natural" v="cape" />
		<tag k="ssr:stedsnr" v="36086" />
	</node>
	<node id="-472470" lat="60.0956611108" lon="5.21447222754">
		<tag k="name" v="Holmsundholmen" />
		<tag k="place" v="islet" />
		<tag k="ssr:stedsnr" v="25860" />
	</node>
	<node id="-472469" lat="60.1462916661" lon="5.20176111655">
		<tag k="name" v="Sjøbuholmen" />
		<tag k="place" v="islet" />
		<tag k="ssr:stedsnr" v="25856" />
	</node>
	<node id="-472468" lat="60.1223416657" lon="5.17359166223">
		<tag k="name" v="Djupaflua" />
		<tag k="natural" v="shoal" />
		<tag k="place" v="locality" />
		<tag k="ssr:stedsnr" v="25836" />
	</node>
	<node id="-472467" lat="60.1282805535" lon="4.98346388128">
		<tag k="name" v="Marsteinsboen" />
		<tag k="natural" v="shoal" />
		<tag k="place" v="locality" />
		<tag k="ssr:stedsnr" v="25776" />
	</node>
	<node id="-472466" lat="60.088113893" lon="5.14681111499">
		<tag k="name" v="Vestra Stillet" />
		<tag k="place" v="islet" />
		<tag k="ssr:stedsnr" v="25705" />
	</node>
	<node id="-472465" lat="59.9658583347" lon="5.02333055499">
		<tag k="name" v="Synstaskjersflua" />
		<tag k="natural" v="shoal" />
		<tag k="place" v="locality" />
		<tag k="ssr:stedsnr" v="25131" />
	</node>
	<node id="-472464" lat="59.9813361138" lon="5.03991111933">
		<tag k="name" v="Parisboen" />
		<tag k="natural" v="shoal" />
		<tag k="place" v="locality" />
		<tag k="ssr:stedsnr" v="25110" />
	</node>
	<node id="-472463" lat="60.1162527737" lon="5.08870556002">
		<tag k="name" v="Bergsholmen" />
		<tag k="place" v="islet" />
		<tag k="ssr:stedsnr" v="24803" />
	</node>
	<node id="-472462" lat="60.0117156154" lon="5.287713185">
		<tag k="name" v="Vestre Hamnavågen" />
		<tag k="natural" v="bay" />
		<tag k="ssr:stedsnr" v="24473" />
	</node>
	<node id="-472461" lat="59.9957194452" lon="5.09573055448">
		<tag k="alt_name" v="Stangalandhammaren" />
		<tag k="name" v="Stangelandshammaren" />
		<tag k="natural" v="cape" />
		<tag k="ssr:stedsnr" v="24289" />
	</node>
	<node id="-472460" lat="60.0511638861" lon="5.01077500623">
		<tag k="name" v="Mågasteinholmen" />
		<tag k="place" v="islet" />
		<tag k="ssr:stedsnr" v="24202" />
	</node>
	<node id="-472459" lat="60.0523166626" lon="5.16067777526">
		<tag k="name" v="Grøningen" />
		<tag k="place" v="islet" />
		<tag k="ssr:stedsnr" v="24125" />
	</node>
	<node id="-472458" lat="60.0051583322" lon="5.20598610349">
		<tag k="name" v="Litla Leirvika" />
		<tag k="natural" v="bay" />
		<tag k="ssr:stedsnr" v="23512" />
	</node>
	<node id="-472457" lat="60.1338222229" lon="5.09559165961">
		<tag k="name" v="Kvaløya" />
		<tag k="place" v="islet" />
		<tag k="ssr:stedsnr" v="5993" />
	</node>
	<node id="-472456" lat="60.1276361091" lon="5.20607500542">
		<tag k="name" v="Hufthammarssundet" />
		<tag k="natural" v="strait" />
		<tag k="ssr:stedsnr" v="5991" />
	</node>
	<node id="-472455" lat="60.1217638875" lon="5.1167861193">
		<tag k="fixme" v="consider seamark:type=rock or natural=shoal" />
		<tag k="name" v="Svartaskjeret" />
		<tag k="place" v="islet" />
		<tag k="ssr:stedsnr" v="5969" />
	</node>
	<node id="-472454" lat="60.1362638849" lon="5.1133194503">
		<tag k="name" v="Olgerneset" />
		<tag k="natural" v="cape" />
		<tag k="ssr:stedsnr" v="5935" />
	</node>
	<node id="-472453" lat="60.1384105766" lon="5.13270875269">
		<tag k="name" v="Nordre Navvågen" />
		<tag k="natural" v="bay" />
		<tag k="ssr:stedsnr" v="5932" />
	</node>
	<node id="-472452" lat="60.1445388883" lon="5.22254722568">
		<tag k="name" v="Mågabølet" />
		<tag k="place" v="islet" />
		<tag k="ssr:stedsnr" v="5930" />
	</node>
	<node id="-472451" lat="60.0680805569" lon="5.15346389175">
		<tag k="fixme" v="consider seamark:type=rock or natural=shoal" />
		<tag k="name" v="Hjørneskjeret" />
		<tag k="place" v="islet" />
		<tag k="ssr:stedsnr" v="5906" />
	</node>
	<node id="-472450" lat="60.0711194426" lon="5.22482500352">
		<tag k="name" v="Fleskaryggsundet" />
		<tag k="natural" v="strait" />
		<tag k="ssr:stedsnr" v="5890" />
	</node>
	<node id="-472449" lat="60.120924997" lon="5.04307499605">
		<tag k="name" v="Seiavågen" />
		<tag k="natural" v="cape" />
		<tag k="ssr:stedsnr" v="5621" />
	</node>
	<node id="-472447" lat="60.0878388917" lon="5.03722221698">
		<tag k="name" v="Hysteinen" />
		<tag k="natural" v="shoal" />
		<tag k="place" v="locality" />
		<tag k="ssr:stedsnr" v="5612" />
	</node>
	<node id="-472446" lat="60.1221777772" lon="5.07510277061">
		<tag k="fixme" v="multiple name tags, choose one and add the other to alt_name" />
		<tag k="name" v="Kalsvika;Kalsøyvika" />
		<tag k="natural" v="bay" />
		<tag k="ssr:stedsnr" v="5603" />
	</node>
	<node id="-472445" lat="60.0613888862" lon="5.22721388128">
		<tag k="alt_name" v="Geiløy" />
		<tag k="name" v="Geitøya" />
		<tag k="place" v="islet" />
		<tag k="ssr:stedsnr" v="5193" />
	</node>
	<node id="-472444" lat="60.0518305572" lon="5.24092777502">
		<tag k="name" v="Blåsterneset" />
		<tag k="natural" v="cape" />
		<tag k="ssr:stedsnr" v="5177" />
	</node>
	<node id="-472442" lat="60.0508972267" lon="5.11946111641">
		<tag k="fixme" v="consider seamark:type=rock or natural=shoal" />
		<tag k="name" v="Krabbhausane" />
		<tag k="place" v="islet" />
		<tag k="ssr:stedsnr" v="5169" />
	</node>
	<node id="-472439" lat="60.0843750045" lon="5.18931111822">
		<tag k="name" v="Seiholmen" />
		<tag k="place" v="islet" />
		<tag k="ssr:stedsnr" v="4944" />
	</node>
	<node id="-472438" lat="60.0814555598" lon="5.29109166845">
		<tag k="name" v="Saltkjerholmane" />
		<tag k="place" v="islet" />
		<tag k="ssr:stedsnr" v="4941" />
	</node>
	<node id="-472437" lat="60.1132083304" lon="5.25868611683">
		<tag k="name" v="Ternholmen" />
		<tag k="place" v="islet" />
		<tag k="ssr:stedsnr" v="4920" />
	</node>
	<node id="-472436" lat="60.0987405371" lon="5.10207123787">
		<tag k="name" v="Austrevågen" />
		<tag k="natural" v="bay" />
		<tag k="ssr:stedsnr" v="4921" />
	</node>
	<node id="-472434" lat="60.1101499957" lon="5.24683611483">
		<tag k="name" v="Bleikjo" />
		<tag k="place" v="islet" />
		<tag k="ssr:stedsnr" v="4907" />
	</node>
	<node id="-472433" lat="60.022613892" lon="5.01260555498">
		<tag k="name" v="Storholmen" />
		<tag k="place" v="islet" />
		<tag k="ssr:stedsnr" v="4672" />
	</node>
	<node id="-472432" lat="60.0373916638" lon="5.08104722277">
		<tag k="name" v="Klubben" />
		<tag k="natural" v="cape" />
		<tag k="ssr:stedsnr" v="4668" />
	</node>
	<node id="-472430" lat="60.0686666624" lon="5.02445277043">
		<tag k="name" v="Ytstholmen" />
		<tag k="place" v="islet" />
		<tag k="ssr:stedsnr" v="4651" />
	</node>
	<node id="-472429" lat="60.068866671" lon="5.08964722718">
		<tag k="name" v="Møkster" />
		<tag k="place" v="island" />
		<tag k="ssr:stedsnr" v="4647" />
	</node>
	<node id="-472428" lat="60.0828694411" lon="5.04928055239">
		<tag k="name" v="Nordrestallen" />
		<tag k="natural" v="shoal" />
		<tag k="place" v="locality" />
		<tag k="ssr:stedsnr" v="4646" />
	</node>
	<node id="-472427" lat="60.0906555518" lon="5.0907361104">
		<tag k="name" v="Vestraneset" />
		<tag k="natural" v="cape" />
		<tag k="ssr:stedsnr" v="4643" />
	</node>
	<node id="-472425" lat="60.0213500042" lon="5.30568333011">
		<tag k="name" v="Nordre Tobbholmane" />
		<tag k="place" v="islet" />
		<tag k="ssr:stedsnr" v="4223" />
	</node>
	<node id="-472424" lat="60.039058333" lon="5.2326722163">
		<tag k="name" v="Kvernakyllaren" />
		<tag k="natural" v="bay" />
		<tag k="ssr:stedsnr" v="4162" />
	</node>
	<node id="-472423" lat="59.9792444414" lon="5.20342500173">
		<tag k="name" v="Setrholmen" />
		<tag k="place" v="islet" />
		<tag k="ssr:stedsnr" v="4160" />
	</node>
	<node id="-472422" lat="60.0488944445" lon="5.30357222289">
		<tag k="name" v="Brattaneset" />
		<tag k="natural" v="cape" />
		<tag k="ssr:stedsnr" v="4157" />
	</node>
	<node id="-472421" lat="60.0325944432" lon="5.20039167481">
		<tag k="name" v="Ådnaklettskaget" />
		<tag k="natural" v="cape" />
		<tag k="ssr:stedsnr" v="4150" />
	</node>
	<node id="-472419" lat="60.0325925134" lon="5.30390422055">
		<tag k="name" v="Otteråneset" />
		<tag k="natural" v="cape" />
		<tag k="ssr:stedsnr" v="4125" />
	</node>
	<node id="-472418" lat="59.9508138902" lon="5.02891665875">
		<tag k="bay" v="fjord" />
		<tag k="name" v="Selbjørnsfjorden" />
		<tag k="natural" v="bay" />
		<tag k="ssr:stedsnr" v="4048" />
	</node>
	<node id="-472417" lat="60.0091972183" lon="5.27070833922">
		<tag k="name" v="Kastet" />
		<tag k="natural" v="bay" />
		<tag k="ssr:stedsnr" v="267420" />
	</node>
	<node id="-472416" lat="60.0049777745" lon="5.21378054873">
		<tag k="name" v="Ringaskjerflua" />
		<tag k="natural" v="shoal" />
		<tag k="place" v="locality" />
		<tag k="ssr:stedsnr" v="267418" />
	</node>
	<node id="-472415" lat="60.0029613426" lon="5.11656624272">
		<tag k="name" v="Geitholmen" />
		<tag k="place" v="islet" />
		<tag k="ssr:stedsnr" v="990938" />
	</node>
	<node id="-472414" lat="59.8290138873" lon="5.54604167229">
		<tag k="bay" v="fjord" />
		<tag k="name" v="Langenuen" />
		<tag k="natural" v="bay" />
		<tag k="ssr:stedsnr" v="489190" />
	</node>
	<node id="-472413" lat="60.0585593494" lon="5.2186391396">
		<tag k="fixme" v="consider seamark:type=rock or natural=shoal" />
		<tag k="name" v="Skjeret" />
		<tag k="place" v="islet" />
		<tag k="ssr:stedsnr" v="990934" />
	</node>
	<node id="-472412" lat="60.061854346" lon="5.22280549204">
		<tag k="name" v="Alteret" />
		<tag k="place" v="islet" />
		<tag k="ssr:stedsnr" v="990933" />
	</node>
	<node id="-472411" lat="60.0636238257" lon="5.22200994756">
		<tag k="name" v="Mannen" />
		<tag k="natural" v="cape" />
		<tag k="ssr:stedsnr" v="990932" />
	</node>
	<node id="-472410" lat="59.9891851121" lon="5.08788303032">
		<tag k="name" v="Stangelandsvågen" />
		<tag k="natural" v="bay" />
		<tag k="ssr:stedsnr" v="990919" />
	</node>
	<node id="-472408" lat="60.0412200849" lon="5.08748536388">
		<tag k="name" v="Litlakalsøyvika" />
		<tag k="natural" v="bay" />
		<tag k="ssr:stedsnr" v="990817" />
	</node>
	<node id="-472392" lat="60.105456817" lon="5.21373034506">
		<tag k="name" v="Hauglandsvågen" />
		<tag k="natural" v="bay" />
		<tag k="ssr:stedsnr" v="887323" />
	</node>
	<node id="-472391" lat="59.9688694465" lon="5.13298333191">
		<tag k="name" v="Ådnahola" />
		<tag k="natural" v="bay" />
		<tag k="ssr:stedsnr" v="886945" />
	</node>
	<node id="-472389" lat="60.0091027789" lon="5.07746945202">
		<tag k="name" v="Sørvika" />
		<tag k="natural" v="bay" />
		<tag k="ssr:stedsnr" v="886891" />
	</node>
	<node id="-472387" lat="60.126397225" lon="5.04443611666">
		<tag k="name" v="Barkylpen" />
		<tag k="natural" v="bay" />
		<tag k="ssr:stedsnr" v="886765" />
	</node>
	<node id="-472386" lat="60.1270277765" lon="5.05983333797">
		<tag k="name" v="Leirvågen" />
		<tag k="natural" v="bay" />
		<tag k="ssr:stedsnr" v="886762" />
	</node>
	<node id="-472385" lat="60.1294077748" lon="5.09314843807">
		<tag k="name" v="Kassholmen" />
		<tag k="place" v="islet" />
		<tag k="ssr:stedsnr" v="886745" />
	</node>
	<node id="-472384" lat="60.1243138873" lon="5.09500833273">
		<tag k="name" v="Bleikjo" />
		<tag k="place" v="island" />
		<tag k="ssr:stedsnr" v="886718" />
	</node>
	<node id="-472383" lat="60.0536416705" lon="5.22340832884">
		<tag k="name" v="Midtrevikholmen" />
		<tag k="place" v="island" />
		<tag k="ssr:stedsnr" v="886632" />
	</node>
	<node id="-472381" lat="60.045163892" lon="5.09421389656">
		<tag k="name" v="Butersholmen" />
		<tag k="place" v="islet" />
		<tag k="ssr:stedsnr" v="886577" />
	</node>
	<node id="-472380" lat="60.0471805561" lon="5.0937638901">
		<tag k="name" v="Nordre Vågen" />
		<tag k="natural" v="bay" />
		<tag k="ssr:stedsnr" v="886575" />
	</node>
	<node id="-472379" lat="60.0554222184" lon="5.02888888825">
		<tag k="fixme" v="consider seamark:type=rock or natural=shoal" />
		<tag k="name" v="Midt-Seiskjeret" />
		<tag k="place" v="islet" />
		<tag k="ssr:stedsnr" v="886569" />
	</node>
	<node id="-472378" lat="60.06225" lon="5.0816388849">
		<tag k="name" v="Kuøysundet" />
		<tag k="natural" v="strait" />
		<tag k="ssr:stedsnr" v="886567" />
	</node>
	<node id="-472377" lat="60.0644500019" lon="5.08832777543">
		<tag k="name" v="Vestrevåg" />
		<tag k="natural" v="bay" />
		<tag k="ssr:stedsnr" v="886556" />
	</node>
	<node id="-472376" lat="60.0562638894" lon="5.09320833802">
		<tag k="name" v="Avløypevika" />
		<tag k="natural" v="bay" />
		<tag k="ssr:stedsnr" v="886553" />
	</node>
	<node id="-472375" lat="60.0904722233" lon="5.10306943557">
		<tag k="name" v="Vaulestraumen" />
		<tag k="natural" v="strait" />
		<tag k="ssr:stedsnr" v="886529" />
	</node>
	<node id="-472374" lat="60.0893249977" lon="5.09805554893">
		<tag k="name" v="Albrugsvågen" />
		<tag k="natural" v="bay" />
		<tag k="ssr:stedsnr" v="886528" />
	</node>
	<node id="-472373" lat="60.102127776" lon="5.09232778023">
		<tag k="fixme" v="consider seamark:type=rock or natural=shoal" />
		<tag k="name" v="Vestre Drevskjera" />
		<tag k="place" v="islet" />
		<tag k="ssr:stedsnr" v="886523" />
	</node>
	<node id="-472372" lat="60.0710083351" lon="5.05214167178">
		<tag k="fixme" v="consider seamark:type=rock or natural=shoal" />
		<tag k="name" v="Kvitingsskjeret" />
		<tag k="place" v="islet" />
		<tag k="ssr:stedsnr" v="886509" />
	</node>
	<node id="-472371" lat="60.1388388914" lon="5.05433334013">
		<tag k="name" v="Djupavika" />
		<tag k="natural" v="bay" />
		<tag k="ssr:stedsnr" v="886492" />
	</node>
	<node id="-472370" lat="60.1350111153" lon="5.11151110657">
		<tag k="name" v="Djpahola" />
		<tag k="natural" v="bay" />
		<tag k="ssr:stedsnr" v="886475" />
	</node>
	<node id="-472369" lat="60.0474111143" lon="5.30185555921">
		<tag k="name" v="Brattakroken" />
		<tag k="natural" v="bay" />
		<tag k="ssr:stedsnr" v="886453" />
	</node>
	<node id="-472366" lat="59.992469445" lon="5.27135555997">
		<tag k="name" v="Sandvågen" />
		<tag k="natural" v="bay" />
		<tag k="ssr:stedsnr" v="886423" />
	</node>
	<node id="-472365" lat="60.0229438223" lon="5.29837853828">
		<tag k="name" v="Fureneset" />
		<tag k="natural" v="cape" />
		<tag k="ssr:stedsnr" v="886418" />
	</node>
	<node id="-472364" lat="60.0911480258" lon="5.25776241443">
		<tag k="name" v="Veggjapollen" />
		<tag k="natural" v="bay" />
		<tag k="ssr:stedsnr" v="886410" />
	</node>
	<node id="-472362" lat="60.022997222" lon="5.07643333288">
		<tag k="fixme" v="consider seamark:type=rock or natural=shoal" />
		<tag k="name" v="Øvendeskjera" />
		<tag k="place" v="islet" />
		<tag k="ssr:stedsnr" v="886388" />
	</node>
	<node id="-472358" lat="60.1408166708" lon="5.16160278053">
		<tag k="name" v="Nyevågen" />
		<tag k="natural" v="bay" />
		<tag k="ssr:stedsnr" v="886353" />
	</node>
	<node id="-472356" lat="60.1164500019" lon="5.1999805497">
		<tag k="name" v="Gjoa" />
		<tag k="natural" v="bay" />
		<tag k="ssr:stedsnr" v="886286" />
	</node>
	<node id="-472355" lat="60.1458472214" lon="5.24269722806">
		<tag k="name" v="Laugarøy" />
		<tag k="place" v="island" />
		<tag k="ssr:stedsnr" v="886273" />
	</node>
	<node id="-472351" lat="59.9891833347" lon="5.04984721483">
		<tag k="name" v="Strunkeneset" />
		<tag k="natural" v="cape" />
		<tag k="ssr:stedsnr" v="401880" />
	</node>
	<node id="-472350" lat="59.9883388926" lon="5.05228055654">
		<tag k="name" v="Litla Gjetingevika" />
		<tag k="natural" v="bay" />
		<tag k="ssr:stedsnr" v="401868" />
	</node>
	<node id="-472349" lat="59.9724500003" lon="5.1592500067">
		<tag k="name" v="Kylpa" />
		<tag k="natural" v="bay" />
		<tag k="ssr:stedsnr" v="401714" />
	</node>
	<node id="-472346" lat="60.0173833319" lon="5.18847499718">
		<tag k="fixme" v="consider seamark:type=rock or natural=shoal" />
		<tag k="name" v="Grautaskjeret" />
		<tag k="place" v="islet" />
		<tag k="ssr:stedsnr" v="401695" />
	</node>
	<node id="-472345" lat="60.0146972207" lon="5.18176388697">
		<tag k="name" v="Drivenesvågen" />
		<tag k="natural" v="bay" />
		<tag k="ssr:stedsnr" v="401693" />
	</node>
	<node id="-472340" lat="59.9824111106" lon="5.20925555517">
		<tag k="name" v="Notavollen" />
		<tag k="natural" v="bay" />
		<tag k="ssr:stedsnr" v="401650" />
	</node>
	<node id="-472339" lat="60.0536583376" lon="5.17497499982">
		<tag k="name" v="Kyllaren" />
		<tag k="natural" v="strait" />
		<tag k="ssr:stedsnr" v="401636" />
	</node>
	<node id="-472338" lat="60.0610083345" lon="5.05150277947">
		<tag k="name" v="Vestre Vandersholmen" />
		<tag k="place" v="island" />
		<tag k="ssr:stedsnr" v="401597" />
	</node>
	<node id="-472337" lat="60.0582250022" lon="5.08902222939">
		<tag k="fixme" v="consider seamark:type=rock or natural=shoal" />
		<tag k="name" v="Heggjevikskjeret" />
		<tag k="place" v="islet" />
		<tag k="ssr:stedsnr" v="401575" />
	</node>
	<node id="-472336" lat="60.0236749964" lon="5.06929166588">
		<tag k="name" v="Søra Hevrøyvika" />
		<tag k="natural" v="bay" />
		<tag k="ssr:stedsnr" v="401569" />
	</node>
	<node id="-472331" lat="59.9949416695" lon="5.26282221347">
		<tag k="name" v="Kalvssundholmen" />
		<tag k="place" v="islet" />
		<tag k="ssr:stedsnr" v="401465" />
	</node>
	<node id="-472330" lat="60.1067250005" lon="5.25009444792">
		<tag k="name" v="Kyllingane" />
		<tag k="place" v="island" />
		<tag k="ssr:stedsnr" v="401370" />
	</node>
	<node id="-472329" lat="60.0742138922" lon="5.22743055054">
		<tag k="name" v="Nordra Svortevika" />
		<tag k="natural" v="bay" />
		<tag k="ssr:stedsnr" v="401361" />
	</node>
	<node id="-472327" lat="60.0702833346" lon="5.21099999804">
		<tag k="name" v="Oksabåsneset" />
		<tag k="natural" v="cape" />
		<tag k="ssr:stedsnr" v="401329" />
	</node>
	<node id="-472324" lat="60.1211710924" lon="5.22505040827">
		<tag k="name" v="Nesjaklubben" />
		<tag k="natural" v="cape" />
		<tag k="ssr:stedsnr" v="401283" />
	</node>
	<node id="-472323" lat="60.1558277745" lon="5.16432221835">
		<tag k="fixme" v="consider seamark:type=rock or natural=shoal" />
		<tag k="name" v="Skorpeskjeret" />
		<tag k="place" v="islet" />
		<tag k="ssr:stedsnr" v="401273" />
	</node>
	<node id="-472322" lat="60.1287259112" lon="5.2051072018">
		<tag k="name" v="Skoro" />
		<tag k="place" v="island" />
		<tag k="ssr:stedsnr" v="401266" />
	</node>
	<node id="-472320" lat="60.1457499955" lon="5.21609999328">
		<tag k="fixme" v="consider seamark:type=rock or natural=shoal" />
		<tag k="name" v="Erdalsskjeret" />
		<tag k="place" v="islet" />
		<tag k="ssr:stedsnr" v="401250" />
	</node>
	<node id="-472319" lat="60.1489111123" lon="5.16945554966">
		<tag k="name" v="Kubbholmen" />
		<tag k="place" v="islet" />
		<tag k="ssr:stedsnr" v="401243" />
	</node>
	<node id="-472318" lat="60.1418472256" lon="5.17822778446">
		<tag k="name" v="Kobbavågen" />
		<tag k="natural" v="bay" />
		<tag k="ssr:stedsnr" v="401240" />
	</node>
	<node id="-472316" lat="60.0393166687" lon="5.22416667118">
		<tag k="name" v="Killingeidet" />
		<tag k="place" v="locality" />
		<tag k="ssr:stedsnr" v="401114" />
	</node>
	<node id="-472315" lat="60.135941668" lon="5.11343611124">
		<tag k="name" v="Digraneset" />
		<tag k="natural" v="cape" />
		<tag k="ssr:stedsnr" v="400743" />
	</node>
	<node id="-472314" lat="60.118736108" lon="5.04072778285">
		<tag k="name" v="Skansen" />
		<tag k="natural" v="cape" />
		<tag k="ssr:stedsnr" v="400729" />
	</node>
	<node id="-472312" lat="60.0578833303" lon="5.20174444242">
		<tag k="name" v="Fureneset" />
		<tag k="natural" v="cape" />
		<tag k="ssr:stedsnr" v="400652" />
	</node>
	<node id="-472311" lat="60.0499805521" lon="5.19612778632">
		<tag k="name" v="Beinskroken" />
		<tag k="natural" v="bay" />
		<tag k="ssr:stedsnr" v="400651" />
	</node>
	<node id="-472310" lat="60.0506083293" lon="5.21827222116">
		<tag k="name" v="Klubben" />
		<tag k="natural" v="cape" />
		<tag k="ssr:stedsnr" v="400626" />
	</node>
	<node id="-472309" lat="60.0602750019" lon="5.07666388918">
		<tag k="name" v="Langøy" />
		<tag k="place" v="island" />
		<tag k="ssr:stedsnr" v="400584" />
	</node>
	<node id="-472308" lat="60.0375499984" lon="5.08667222452">
		<tag k="name" v="Matvoreholmen" />
		<tag k="place" v="island" />
		<tag k="ssr:stedsnr" v="400547" />
	</node>
	<node id="-472307" lat="60.0905388904" lon="5.09341389065">
		<tag k="name" v="Breibogen" />
		<tag k="natural" v="bay" />
		<tag k="ssr:stedsnr" v="400542" />
	</node>
	<node id="-472306" lat="60.1441638913" lon="5.12342499609">
		<tag k="name" v="Sandvikane" />
		<tag k="natural" v="bay" />
		<tag k="ssr:stedsnr" v="400490" />
	</node>
	<node id="-472305" lat="60.1331361135" lon="5.10731666336">
		<tag k="name" v="Ringholmen" />
		<tag k="place" v="islet" />
		<tag k="ssr:stedsnr" v="400489" />
	</node>
	<node id="-472303" lat="60.0590277789" lon="5.09912221962">
		<tag k="name" v="Stovholmsundet" />
		<tag k="natural" v="strait" />
		<tag k="ssr:stedsnr" v="400399" />
	</node>
	<node id="-472302" lat="60.0593194411" lon="5.08650000797">
		<tag k="name" v="Krabbavika" />
		<tag k="natural" v="bay" />
		<tag k="ssr:stedsnr" v="400397" />
	</node>
	<node id="-472300" lat="60.0820277739" lon="5.26388055722">
		<tag k="name" v="Straumsneset" />
		<tag k="natural" v="cape" />
		<tag k="ssr:stedsnr" v="400391" />
	</node>
	<node id="-472299" lat="60.0859166661" lon="5.26822499409">
		<tag k="name" v="Nordra Eidet" />
		<tag k="natural" v="bay" />
		<tag k="ssr:stedsnr" v="400389" />
	</node>
	<node id="-472298" lat="60.0711972239" lon="5.25658054734">
		<tag k="name" v="Skalken" />
		<tag k="place" v="island" />
		<tag k="ssr:stedsnr" v="400382" />
	</node>
	<node id="-472296" lat="60.0007138848" lon="5.26574166641">
		<tag k="name" v="Straumen" />
		<tag k="natural" v="bay" />
		<tag k="ssr:stedsnr" v="400090" />
	</node>
	<node id="-472295" lat="59.9853222233" lon="5.26335277698">
		<tag k="name" v="Kalvssundboen" />
		<tag k="natural" v="shoal" />
		<tag k="place" v="locality" />
		<tag k="ssr:stedsnr" v="390583" />
	</node>
	<node id="-472294" lat="60.1504916626" lon="5.22413888963">
		<tag k="name" v="Flatøysundet" />
		<tag k="natural" v="strait" />
		<tag k="ssr:stedsnr" v="389860" />
	</node>
	<node id="-472293" lat="60.1182083297" lon="5.16748055175">
		<tag k="name" v="Vågsskjerflua" />
		<tag k="natural" v="shoal" />
		<tag k="place" v="locality" />
		<tag k="ssr:stedsnr" v="389825" />
	</node>
	<node id="-472292" lat="60.0062250036" lon="5.06535278102">
		<tag k="name" v="Litla Hola" />
		<tag k="natural" v="bay" />
		<tag k="ssr:stedsnr" v="389436" />
	</node>
	<node id="-472291" lat="59.9972861149" lon="5.00928611763">
		<tag k="name" v="Brutaflua" />
		<tag k="natural" v="shoal" />
		<tag k="place" v="locality" />
		<tag k="ssr:stedsnr" v="388330" />
	</node>
	<node id="-472290" lat="60.0616333335" lon="5.10669166295">
		<tag k="name" v="Nordra Skarpanesflua" />
		<tag k="natural" v="shoal" />
		<tag k="place" v="locality" />
		<tag k="ssr:stedsnr" v="388132" />
	</node>
	<node id="-472289" lat="59.9837833355" lon="5.21451666137">
		<tag k="name" v="Vestre Hamnen" />
		<tag k="natural" v="bay" />
		<tag k="ssr:stedsnr" v="389133" />
	</node>
	<node id="-472288" lat="60.0089500021" lon="5.12921389096">
		<tag k="name" v="Rabbaboen" />
		<tag k="natural" v="shoal" />
		<tag k="place" v="locality" />
		<tag k="ssr:stedsnr" v="387330" />
	</node>
	<node id="-472285" lat="60.0622361103" lon="5.2093527801">
		<tag k="name" v="Grunnebotnen" />
		<tag k="natural" v="bay" />
		<tag k="ssr:stedsnr" v="369169" />
	</node>
	<node id="-472284" lat="60.049461108" lon="5.25265555728">
		<tag k="name" v="Åkyllaren" />
		<tag k="natural" v="bay" />
		<tag k="ssr:stedsnr" v="369143" />
	</node>
	<node id="-472283" lat="60.1516555515" lon="5.17403611185">
		<tag k="name" v="Litla Skorpo" />
		<tag k="place" v="islet" />
		<tag k="ssr:stedsnr" v="368975" />
	</node>
	<node id="-472282" lat="60.1387694431" lon="5.22187777868">
		<tag k="fixme" v="consider seamark:type=rock or natural=shoal" />
		<tag k="name" v="Gulaskjeret" />
		<tag k="place" v="islet" />
		<tag k="ssr:stedsnr" v="368950" />
	</node>
	<node id="-472281" lat="60.0888661761" lon="5.21970100411">
		<tag k="name" v="Bjånesøya" />
		<tag k="place" v="islet" />
		<tag k="ssr:stedsnr" v="368937" />
	</node>
	<node id="-472280" lat="60.0724555531" lon="5.21754445085">
		<tag k="name" v="Bjellandsøya" />
		<tag k="place" v="islet" />
		<tag k="ssr:stedsnr" v="368925" />
	</node>
	<node id="-472279" lat="60.0729377754" lon="5.25779579994">
		<tag k="name" v="Ytrepollen" />
		<tag k="natural" v="bay" />
		<tag k="ssr:stedsnr" v="368915" />
	</node>
	<node id="-472277" lat="60.0966305575" lon="5.11780278209">
		<tag k="name" v="Horgesundet" />
		<tag k="natural" v="strait" />
		<tag k="ssr:stedsnr" v="368901" />
	</node>
	<node id="-472274" lat="60.0685972253" lon="5.05548611077">
		<tag k="name" v="Hekkingen" />
		<tag k="place" v="islet" />
		<tag k="ssr:stedsnr" v="368698" />
	</node>
	<node id="-472273" lat="60.0654916703" lon="5.07884166469">
		<tag k="name" v="Kuøya" />
		<tag k="place" v="islet" />
		<tag k="ssr:stedsnr" v="368695" />
	</node>
	<node id="-472272" lat="60.0697777776" lon="5.06491389656">
		<tag k="name" v="Senga" />
		<tag k="place" v="islet" />
		<tag k="ssr:stedsnr" v="368690" />
	</node>
	<node id="-472271" lat="60.0694277751" lon="5.05049444075">
		<tag k="name" v="Kvitingen" />
		<tag k="place" v="islet" />
		<tag k="ssr:stedsnr" v="368687" />
	</node>
	<node id="-472270" lat="60.0745916635" lon="5.00126666623">
		<tag k="name" v="Ivarsstallen" />
		<tag k="natural" v="shoal" />
		<tag k="place" v="locality" />
		<tag k="ssr:stedsnr" v="368686" />
	</node>
	<node id="-472269" lat="60.0519305565" lon="5.07511388848">
		<tag k="name" v="Austra Åkerøya" />
		<tag k="place" v="islet" />
		<tag k="ssr:stedsnr" v="368682" />
	</node>
	<node id="-472268" lat="60.0613472243" lon="5.07521945243">
		<tag k="name" v="Langøya" />
		<tag k="place" v="islet" />
		<tag k="ssr:stedsnr" v="368679" />
	</node>
	<node id="-472266" lat="59.9807305587" lon="5.16209443989">
		<tag k="name" v="Selbjørn" />
		<tag k="place" v="island" />
		<tag k="ssr:stedsnr" v="368258" />
	</node>
	<node id="-472263" lat="59.9759888895" lon="5.19309167019">
		<tag k="name" v="Brosmevika" />
		<tag k="natural" v="bay" />
		<tag k="ssr:stedsnr" v="368200" />
	</node>
	<node id="-472262" lat="60.0444777803" lon="5.24375554915">
		<tag k="name" v="Nausthellervågen" />
		<tag k="natural" v="bay" />
		<tag k="ssr:stedsnr" v="368184" />
	</node>
	<node id="-472261" lat="59.9774361075" lon="5.1989333248">
		<tag k="alt_name" v="Båtevika" />
		<tag k="name" v="Båtavika" />
		<tag k="natural" v="bay" />
		<tag k="ssr:stedsnr" v="368183" />
	</node>
	<node id="-472260" lat="60.0425805576" lon="5.09658888338">
		<tag k="name" v="Vardholmen" />
		<tag k="place" v="islet" />
		<tag k="ssr:stedsnr" v="368178" />
	</node>
	<node id="-472256" lat="59.9817527765" lon="5.07859444227">
		<tag k="name" v="Krambuneset" />
		<tag k="natural" v="cape" />
		<tag k="ssr:stedsnr" v="368063" />
	</node>
	<node id="-472254" lat="60.1180805528" lon="5.16210833096">
		<tag k="name" v="Haugsneset" />
		<tag k="natural" v="cape" />
		<tag k="ssr:stedsnr" v="369971" />
	</node>
	<node id="-472253" lat="60.1202555539" lon="5.24988610934">
		<tag k="name" v="Trollsøyosen" />
		<tag k="natural" v="strait" />
		<tag k="ssr:stedsnr" v="369963" />
	</node>
	<node id="-472252" lat="60.0325472268" lon="5.20406389369">
		<tag k="name" v="Austra Kalvavika" />
		<tag k="natural" v="bay" />
		<tag k="ssr:stedsnr" v="358509" />
	</node>
	<node id="-472250" lat="60.0119527788" lon="5.08594722765">
		<tag k="name" v="Kanndelo" />
		<tag k="natural" v="bay" />
		<tag k="ssr:stedsnr" v="340897" />
	</node>
	<node id="-472249" lat="60.1161277762" lon="5.06694444324">
		<tag k="name" v="Håkjerringsvika" />
		<tag k="natural" v="bay" />
		<tag k="ssr:stedsnr" v="340741" />
	</node>
	<node id="-472248" lat="60.1230638865" lon="5.10901111762">
		<tag k="fixme" v="consider seamark:type=rock or natural=shoal" />
		<tag k="name" v="Sveskjeret" />
		<tag k="place" v="islet" />
		<tag k="ssr:stedsnr" v="340730" />
	</node>
	<node id="-472246" lat="60.0068305572" lon="5.24209165801">
		<tag k="name" v="Skarpaneset" />
		<tag k="natural" v="cape" />
		<tag k="ssr:stedsnr" v="340674" />
	</node>
	<node id="-472245" lat="60.000783329" lon="5.11713889204">
		<tag k="name" v="Steinavika" />
		<tag k="natural" v="bay" />
		<tag k="ssr:stedsnr" v="340609" />
	</node>
	<node id="-472244" lat="60.0564083345" lon="5.02934444005">
		<tag k="fixme" v="consider seamark:type=rock or natural=shoal" />
		<tag k="name" v="Litla Seiskjeret" />
		<tag k="place" v="islet" />
		<tag k="ssr:stedsnr" v="340584" />
	</node>
	<node id="-472243" lat="60.0282638847" lon="5.04294999458">
		<tag k="fixme" v="consider seamark:type=rock or natural=shoal" />
		<tag k="name" v="Lynghevrøyskjeret" />
		<tag k="place" v="islet" />
		<tag k="ssr:stedsnr" v="340563" />
	</node>
	<node id="-472242" lat="60.0434027789" lon="5.0815388851">
		<tag k="name" v="Rakahola" />
		<tag k="natural" v="bay" />
		<tag k="ssr:stedsnr" v="340549" />
	</node>
	<node id="-472241" lat="60.1003888923" lon="5.09917777573">
		<tag k="name" v="Straumen" />
		<tag k="natural" v="strait" />
		<tag k="ssr:stedsnr" v="340540" />
	</node>
	<node id="-472240" lat="60.1378527759" lon="5.09927778575">
		<tag k="name" v="Vestre Fluholmen" />
		<tag k="place" v="islet" />
		<tag k="ssr:stedsnr" v="340508" />
	</node>
	<node id="-472239" lat="60.1403638934" lon="5.11592500172">
		<tag k="name" v="Navøyeidet" />
		<tag k="natural" v="bay" />
		<tag k="ssr:stedsnr" v="340505" />
	</node>
	<node id="-472236" lat="60.0542555571" lon="5.24780556019">
		<tag k="name" v="Tangen" />
		<tag k="natural" v="cape" />
		<tag k="ssr:stedsnr" v="340466" />
	</node>
	<node id="-472235" lat="59.9952416643" lon="5.24958055986">
		<tag k="name" v="Ausmundsneset" />
		<tag k="natural" v="cape" />
		<tag k="ssr:stedsnr" v="340461" />
	</node>
	<node id="-472234" lat="59.9896222219" lon="5.26351389241">
		<tag k="name" v="Vestre Øyavågen" />
		<tag k="natural" v="bay" />
		<tag k="ssr:stedsnr" v="340452" />
	</node>
	<node id="-472233" lat="60.1082555562" lon="5.2607416597">
		<tag k="name" v="Lambøy" />
		<tag k="place" v="island" />
		<tag k="ssr:stedsnr" v="340432" />
	</node>
	<node id="-472232" lat="60.0725416706" lon="5.29538611099">
		<tag k="name" v="Kalkeneset" />
		<tag k="natural" v="cape" />
		<tag k="ssr:stedsnr" v="340387" />
	</node>
	<node id="-472231" lat="60.0703888927" lon="5.26005277434">
		<tag k="name" v="Dyreneset" />
		<tag k="natural" v="cape" />
		<tag k="ssr:stedsnr" v="340376" />
	</node>
	<node id="-472230" lat="60.1078111073" lon="5.25829167462">
		<tag k="name" v="Midtsundet" />
		<tag k="natural" v="strait" />
		<tag k="ssr:stedsnr" v="340372" />
	</node>
	<node id="-472228" lat="60.0910442046" lon="5.22447425412">
		<tag k="name" v="Sturtevika" />
		<tag k="natural" v="bay" />
		<tag k="ssr:stedsnr" v="340342" />
	</node>
	<node id="-472225" lat="60.144447221" lon="5.23627778215">
		<tag k="name" v="Strenglevågen" />
		<tag k="natural" v="bay" />
		<tag k="ssr:stedsnr" v="340286" />
	</node>
	<node id="-472224" lat="60.1407277749" lon="5.18333334004">
		<tag k="name" v="Florsholmen" />
		<tag k="place" v="islet" />
		<tag k="ssr:stedsnr" v="340271" />
	</node>
	<node id="-472223" lat="60.1410416626" lon="5.18331388618">
		<tag k="name" v="Florsvika" />
		<tag k="natural" v="bay" />
		<tag k="ssr:stedsnr" v="340268" />
	</node>
	<node id="-472221" lat="60.0567111147" lon="5.21506388001">
		<tag k="name" v="Kyllarane" />
		<tag k="natural" v="bay" />
		<tag k="ssr:stedsnr" v="339588" />
	</node>
	<node id="-472220" lat="60.1078583372" lon="5.24658055828">
		<tag k="name" v="Kjuklingane" />
		<tag k="natural" v="shoal" />
		<tag k="place" v="locality" />
		<tag k="ssr:stedsnr" v="328859" />
	</node>
	<node id="-472219" lat="60.1044750013" lon="5.27859999669">
		<tag k="name" v="Grunnaflua" />
		<tag k="natural" v="shoal" />
		<tag k="place" v="locality" />
		<tag k="ssr:stedsnr" v="328858" />
	</node>
	<node id="-472218" lat="60.1242055562" lon="5.17000555917">
		<tag k="name" v="Fangholmsflua" />
		<tag k="natural" v="shoal" />
		<tag k="place" v="locality" />
		<tag k="ssr:stedsnr" v="328838" />
	</node>
	<node id="-472217" lat="60.1370861108" lon="5.15014166266">
		<tag k="name" v="Fatavågen" />
		<tag k="natural" v="bay" />
		<tag k="ssr:stedsnr" v="328796" />
	</node>
	<node id="-472216" lat="60.1122194399" lon="5.05219165899">
		<tag k="name" v="Sveinane" />
		<tag k="natural" v="shoal" />
		<tag k="place" v="locality" />
		<tag k="ssr:stedsnr" v="328790" />
	</node>
	<node id="-472215" lat="60.1025805571" lon="5.10183332545">
		<tag k="name" v="Leiarholmen" />
		<tag k="place" v="islet" />
		<tag k="ssr:stedsnr" v="328736" />
	</node>
	<node id="-472214" lat="59.9965166659" lon="5.02253333911">
		<tag k="name" v="Utnøringen" />
		<tag k="natural" v="shoal" />
		<tag k="place" v="locality" />
		<tag k="ssr:stedsnr" v="328335" />
	</node>
	<node id="-472213" lat="59.9991666639" lon="5.03883611395">
		<tag k="name" v="Sørvikeboen" />
		<tag k="natural" v="shoal" />
		<tag k="place" v="locality" />
		<tag k="ssr:stedsnr" v="328334" />
	</node>
	<node id="-472212" lat="60.052572225" lon="5.0226333352">
		<tag k="name" v="Seiskjerflua" />
		<tag k="natural" v="shoal" />
		<tag k="place" v="locality" />
		<tag k="ssr:stedsnr" v="328258" />
	</node>
	<node id="-472211" lat="60.0470611095" lon="4.9948944385">
		<tag k="name" v="Persflua" />
		<tag k="natural" v="shoal" />
		<tag k="place" v="locality" />
		<tag k="ssr:stedsnr" v="328256" />
	</node>
	<node id="-472210" lat="60.0521944473" lon="5.00148055153">
		<tag k="name" v="Seiaflua" />
		<tag k="natural" v="shoal" />
		<tag k="place" v="locality" />
		<tag k="ssr:stedsnr" v="328213" />
	</node>
	<node id="-472209" lat="59.96936944" lon="5.05131388372">
		<tag k="name" v="Synstaskjersboen" />
		<tag k="natural" v="shoal" />
		<tag k="place" v="locality" />
		<tag k="ssr:stedsnr" v="328118" />
	</node>
	<node id="-472208" lat="60.0165222244" lon="5.31163054747">
		<tag k="name" v="Søre Tobbholmane" />
		<tag k="place" v="islet" />
		<tag k="ssr:stedsnr" v="327622" />
	</node>
	<node id="-472207" lat="60.0071527798" lon="5.10298056254">
		<tag k="name" v="Stutaflua" />
		<tag k="natural" v="shoal" />
		<tag k="place" v="locality" />
		<tag k="ssr:stedsnr" v="327305" />
	</node>
	<node id="-472206" lat="60.0435777769" lon="5.04339721625">
		<tag k="name" v="Vestra Åkerøyflua" />
		<tag k="natural" v="shoal" />
		<tag k="place" v="locality" />
		<tag k="ssr:stedsnr" v="327137" />
	</node>
	<node id="-472205" lat="60.1343805571" lon="5.19583611893">
		<tag k="name" v="Kamsøya" />
		<tag k="place" v="island" />
		<tag k="ssr:stedsnr" v="308990" />
	</node>
	<node id="-472204" lat="60.1357055516" lon="5.16268333741">
		<tag k="name" v="Stuvsholmane" />
		<tag k="place" v="islet" />
		<tag k="ssr:stedsnr" v="308987" />
	</node>
	<node id="-472203" lat="60.1213305563" lon="5.10415555493">
		<tag k="name" v="Ærholmen" />
		<tag k="place" v="islet" />
		<tag k="ssr:stedsnr" v="308976" />
	</node>
	<node id="-472202" lat="60.1234111093" lon="5.16429721401">
		<tag k="name" v="Litle Fangholmen" />
		<tag k="place" v="islet" />
		<tag k="ssr:stedsnr" v="308973" />
	</node>
	<node id="-472201" lat="60.1211527734" lon="5.15285000381">
		<tag k="name" v="Ølnavågen" />
		<tag k="natural" v="bay" />
		<tag k="ssr:stedsnr" v="308968" />
	</node>
	<node id="-472200" lat="60.1505472225" lon="5.23060277342">
		<tag k="name" v="Flatøya" />
		<tag k="place" v="islet" />
		<tag k="ssr:stedsnr" v="308958" />
	</node>
	<node id="-472199" lat="60.1413250013" lon="5.1235611134">
		<tag k="name" v="Navøya" />
		<tag k="place" v="island" />
		<tag k="ssr:stedsnr" v="308946" />
	</node>
	<node id="-472198" lat="60.0915666683" lon="5.18938332524">
		<tag k="name" v="Kjøpmannsholmen" />
		<tag k="place" v="islet" />
		<tag k="ssr:stedsnr" v="308933" />
	</node>
	<node id="-472197" lat="60.0898777799" lon="5.18363332842">
		<tag k="name" v="Pirholmen" />
		<tag k="place" v="islet" />
		<tag k="ssr:stedsnr" v="308932" />
	</node>
	<node id="-472196" lat="60.0868861125" lon="5.12288611707">
		<tag k="name" v="Eidholmen" />
		<tag k="place" v="islet" />
		<tag k="ssr:stedsnr" v="308880" />
	</node>
	<node id="-472195" lat="60.1326027813" lon="5.01602777881">
		<tag k="fixme" v="consider seamark:type=rock or natural=shoal" />
		<tag k="name" v="Skjerskaget" />
		<tag k="place" v="islet" />
		<tag k="ssr:stedsnr" v="308717" />
	</node>
	<node id="-472194" lat="60.1311333353" lon="5.01148056238">
		<tag k="name" v="Store-Marsteinen" />
		<tag k="place" v="island" />
		<tag k="ssr:stedsnr" v="308712" />
	</node>
	<node id="-472192" lat="60.1228555575" lon="5.06131110193">
		<tag k="name" v="Russeneset" />
		<tag k="natural" v="cape" />
		<tag k="ssr:stedsnr" v="308610" />
	</node>
	<node id="-472191" lat="60.1272416635" lon="5.04026111109">
		<tag k="name" v="Marsneset" />
		<tag k="natural" v="cape" />
		<tag k="ssr:stedsnr" v="308598" />
	</node>
	<node id="-472190" lat="60.0850944419" lon="5.06361111008">
		<tag k="bay" v="fjord" />
		<tag k="name" v="Møkstrafjorden" />
		<tag k="natural" v="bay" />
		<tag k="ssr:stedsnr" v="308595" />
	</node>
	<node id="-472189" lat="60.0077611087" lon="5.26011389552">
		<tag k="name" v="Vestre Vinnesvågen" />
		<tag k="natural" v="bay" />
		<tag k="ssr:stedsnr" v="308198" />
	</node>
	<node id="-472187" lat="60.0476612635" lon="5.18079206863">
		<tag k="loc_name" v="Bussesundet" />
		<tag k="name" v="Ringasundet" />
		<tag k="natural" v="strait" />
		<tag k="old_name" v="Busesundet" />
		<tag k="ssr:stedsnr" v="308143" />
	</node>
	<node id="-472186" lat="60.0464055601" lon="5.10010833891">
		<tag k="name" v="Hestholmen" />
		<tag k="place" v="islet" />
		<tag k="ssr:stedsnr" v="308138" />
	</node>
	<node id="-472185" lat="60.0536472263" lon="5.30304165841">
		<tag k="name" v="Hundhammaren" />
		<tag k="natural" v="cape" />
		<tag k="ssr:stedsnr" v="308131" />
	</node>
	<node id="-472183" lat="60.026430558" lon="5.1479777776">
		<tag k="name" v="Flatholmen" />
		<tag k="place" v="islet" />
		<tag k="ssr:stedsnr" v="308104" />
	</node>
	<node id="-472182" lat="60.0273583333" lon="5.20386388021">
		<tag k="name" v="Laksaneset" />
		<tag k="natural" v="cape" />
		<tag k="ssr:stedsnr" v="308102" />
	</node>
	<node id="-472181" lat="60.1589500037" lon="5.17659999704">
		<tag k="name" v="Stora Skorpo" />
		<tag k="place" v="island" />
		<tag k="ssr:stedsnr" v="307789" />
	</node>
	<node id="-472180" lat="60.0156861132" lon="5.04504444062">
		<tag k="name" v="Rosseidet" />
		<tag k="place" v="locality" />
		<tag k="ssr:stedsnr" v="307681" />
	</node>
	<node id="-472179" lat="60.0637111148" lon="5.08977221403">
		<tag k="name" v="Vestrevågen" />
		<tag k="natural" v="bay" />
		<tag k="ssr:stedsnr" v="307657" />
	</node>
	<node id="-472178" lat="60.0960972232" lon="5.09237778049">
		<tag k="name" v="Horgevågen" />
		<tag k="natural" v="bay" />
		<tag k="ssr:stedsnr" v="307644" />
	</node>
	<node id="-472174" lat="59.9984388892" lon="5.26641111842">
		<tag k="name" v="Gilsvågen" />
		<tag k="natural" v="bay" />
		<tag k="ssr:stedsnr" v="307272" />
	</node>
	<node id="-472173" lat="59.9978444471" lon="5.27611666165">
		<tag k="name" v="Vinnesneset" />
		<tag k="natural" v="cape" />
		<tag k="ssr:stedsnr" v="307267" />
	</node>
	<node id="-472170" lat="60.024686111" lon="5.12677221546">
		<tag k="name" v="Lyngholmen" />
		<tag k="place" v="islet" />
		<tag k="ssr:stedsnr" v="307134" />
	</node>
	<node id="-472169" lat="59.9859166694" lon="5.07138888778">
		<tag k="name" v="Kyrkjevika" />
		<tag k="natural" v="bay" />
		<tag k="ssr:stedsnr" v="307056" />
	</node>
	<node id="-472168" lat="59.9916305595" lon="5.05115000519">
		<tag k="fixme" v="multiple name tags, choose one and add the other to alt_name" />
		<tag k="name" v="Stora Gjetingevika;Gjetingevika" />
		<tag k="natural" v="bay" />
		<tag k="ssr:stedsnr" v="307048" />
	</node>
	<node id="-472167" lat="59.9795749982" lon="5.02148333142">
		<tag k="name" v="Snautane" />
		<tag k="natural" v="shoal" />
		<tag k="place" v="locality" />
		<tag k="ssr:stedsnr" v="307046" />
	</node>
	<node id="-472164" lat="60.0083361073" lon="5.24705555126">
		<tag k="name" v="Bekkjarneset" />
		<tag k="natural" v="cape" />
		<tag k="ssr:stedsnr" v="280686" />
	</node>
	<node id="-472161" lat="60.0548291511" lon="5.17409346676">
		<tag k="name" v="Rulteholmen" />
		<tag k="place" v="islet" />
		<tag k="ssr:stedsnr" v="280657" />
	</node>
	<node id="-472159" lat="60.1330138905" lon="5.14613055271">
		<tag k="name" v="Fureholmen" />
		<tag k="place" v="islet" />
		<tag k="ssr:stedsnr" v="280345" />
	</node>
	<node id="-472158" lat="60.1407444464" lon="5.15876387983">
		<tag k="name" v="Munkeidet" />
		<tag k="natural" v="bay" />
		<tag k="ssr:stedsnr" v="280339" />
	</node>
	<node id="-472156" lat="60.1036999964" lon="5.244786107">
		<tag k="name" v="Kuvika" />
		<tag k="natural" v="bay" />
		<tag k="ssr:stedsnr" v="280292" />
	</node>
	<node id="-472155" lat="60.1069888912" lon="5.13223054963">
		<tag k="name" v="Nordra Ronga" />
		<tag k="natural" v="strait" />
		<tag k="ssr:stedsnr" v="280270" />
	</node>
	<node id="-472154" lat="60.10027222" lon="5.17197777897">
		<tag k="name" v="Makkhamn" />
		<tag k="natural" v="bay" />
		<tag k="ssr:stedsnr" v="280260" />
	</node>
	<node id="-472152" lat="60.0118555594" lon="5.02674166618">
		<tag k="fixme" v="consider seamark:type=rock or natural=shoal" />
		<tag k="name" v="Gulholmsskjeret" />
		<tag k="place" v="islet" />
		<tag k="ssr:stedsnr" v="279875" />
	</node>
	<node id="-472151" lat="60.1181944474" lon="5.05633888179">
		<tag k="name" v="Pollen" />
		<tag k="natural" v="bay" />
		<tag k="ssr:stedsnr" v="279722" />
	</node>
	<node id="-472150" lat="59.9939555579" lon="5.10230833011">
		<tag k="name" v="Bogane" />
		<tag k="natural" v="bay" />
		<tag k="ssr:stedsnr" v="279639" />
	</node>
	<node id="-472149" lat="60.0522083339" lon="5.05448055216">
		<tag k="fixme" v="consider seamark:type=rock or natural=shoal" />
		<tag k="name" v="Vestra Kaggaskjeret" />
		<tag k="place" v="islet" />
		<tag k="ssr:stedsnr" v="279621" />
	</node>
	<node id="-472148" lat="60.0956262557" lon="5.0941785791">
		<tag k="name" v="Kaggavika" />
		<tag k="natural" v="bay" />
		<tag k="ssr:stedsnr" v="279544" />
	</node>
	<node id="-472147" lat="60.1020972221" lon="5.10065000105">
		<tag k="name" v="Leiarsundet" />
		<tag k="natural" v="strait" />
		<tag k="ssr:stedsnr" v="279537" />
	</node>
	<node id="-472146" lat="60.0949277792" lon="5.11881389167">
		<tag k="name" v="Nordralangøya" />
		<tag k="place" v="island" />
		<tag k="ssr:stedsnr" v="279532" />
	</node>
	<node id="-472145" lat="60.0894694448" lon="5.12123889349">
		<tag k="name" v="Nordre Eidholmen" />
		<tag k="place" v="islet" />
		<tag k="ssr:stedsnr" v="279527" />
	</node>
	<node id="-472144" lat="60.0855555517" lon="5.10305555439">
		<tag k="name" v="Sildaklubben" />
		<tag k="natural" v="cape" />
		<tag k="ssr:stedsnr" v="279514" />
	</node>
	<node id="-472143" lat="60.133488886" lon="5.03751111771">
		<tag k="name" v="Søra Skjeljabovika" />
		<tag k="natural" v="bay" />
		<tag k="ssr:stedsnr" v="279506" />
	</node>
	<node id="-472142" lat="60.1322972263" lon="5.09316110586">
		<tag k="name" v="Bakkastraumen" />
		<tag k="natural" v="strait" />
		<tag k="ssr:stedsnr" v="279504" />
	</node>
	<node id="-472141" lat="60.1367083362" lon="5.11473332713">
		<tag k="name" v="Nordre Digranesvågen" />
		<tag k="natural" v="bay" />
		<tag k="ssr:stedsnr" v="279498" />
	</node>
	<node id="-472139" lat="60.0525444405" lon="5.2517750035">
		<tag k="name" v="Djupevika" />
		<tag k="natural" v="bay" />
		<tag k="ssr:stedsnr" v="279465" />
	</node>
	<node id="-472135" lat="60.0176194424" lon="5.28570556032">
		<tag k="name" v="Lyngholmen" />
		<tag k="place" v="islet" />
		<tag k="ssr:stedsnr" v="279446" />
	</node>
	<node id="-472134" lat="59.9962999977" lon="5.26193332763">
		<tag k="name" v="Skiparvika" />
		<tag k="natural" v="bay" />
		<tag k="ssr:stedsnr" v="279447" />
	</node>
	<node id="-472133" lat="60.1541694435" lon="5.19942500458">
		<tag k="name" v="Leirpollen" />
		<tag k="natural" v="bay" />
		<tag k="ssr:stedsnr" v="279438" />
	</node>
	<node id="-472132" lat="60.0180750034" lon="5.27949167318">
		<tag k="name" v="Husavik" />
		<tag k="natural" v="bay" />
		<tag k="ssr:stedsnr" v="279432" />
	</node>
	<node id="-472131" lat="60.0286000024" lon="5.13467221989">
		<tag k="name" v="Snabbøkssundet" />
		<tag k="natural" v="strait" />
		<tag k="ssr:stedsnr" v="279392" />
	</node>
	<node id="-472130" lat="60.0968583331" lon="5.25811110313">
		<tag k="name" v="Grautatåa" />
		<tag k="natural" v="cape" />
		<tag k="ssr:stedsnr" v="279369" />
	</node>
	<node id="-472129" lat="60.1238158171" lon="5.22092016087">
		<tag k="name" v="Djupavika" />
		<tag k="natural" v="bay" />
		<tag k="ssr:stedsnr" v="279309" />
	</node>
	<node id="-472127" lat="60.1248583311" lon="5.2072972208">
		<tag k="name" v="Stegavika" />
		<tag k="natural" v="bay" />
		<tag k="ssr:stedsnr" v="279300" />
	</node>
	<node id="-472126" lat="60.1407583366" lon="5.22830000756">
		<tag k="fixme" v="consider seamark:type=rock or natural=shoal" />
		<tag k="name" v="Skarvaskjeret" />
		<tag k="place" v="islet" />
		<tag k="ssr:stedsnr" v="279280" />
	</node>
	<node id="-472125" lat="60.1497166661" lon="5.23605277968">
		<tag k="fixme" v="consider seamark:type=rock or natural=shoal" />
		<tag k="name" v="Flatøyskjeret" />
		<tag k="place" v="islet" />
		<tag k="ssr:stedsnr" v="279279" />
	</node>
	<node id="-472124" lat="60.0395111116" lon="5.23596666097">
		<tag k="name" v="Fureneset" />
		<tag k="natural" v="cape" />
		<tag k="ssr:stedsnr" v="279096" />
	</node>
	<node id="-473536" lat="60.0529833311" lon="5.10945278206">
		<tag k="name" v="Møkstragrøningen" />
		<tag k="place" v="islet" />
		<tag k="ssr:stedsnr" v="967137" />
	</node>
	<node id="-473530" lat="60.0212861089" lon="5.0969500051">
		<tag k="fixme" v="consider seamark:type=rock or natural=shoal" />
		<tag k="name" v="Stallareskjeret" />
		<tag k="place" v="islet" />
		<tag k="ssr:stedsnr" v="947893" />
	</node>
	<node id="-473529" lat="59.9864472228" lon="5.04667500018">
		<tag k="name" v="Barberholmen" />
		<tag k="place" v="island" />
		<tag k="ssr:stedsnr" v="947892" />
	</node>
	<node id="-473527" lat="60.1166583344" lon="5.0659972219">
		<tag k="name" v="Kalssundet" />
		<tag k="natural" v="strait" />
		<tag k="ssr:stedsnr" v="947704" />
	</node>
	<node id="-473526" lat="60.012402779" lon="5.21289444588">
		<tag k="name" v="Søra Solesvika" />
		<tag k="natural" v="bay" />
		<tag k="ssr:stedsnr" v="947685" />
	</node>
	<node id="-473525" lat="60.00785278" lon="5.20592778231">
		<tag k="name" v="Bekkjarvika" />
		<tag k="natural" v="bay" />
		<tag k="ssr:stedsnr" v="947682" />
	</node>
	<node id="-473523" lat="59.9955944485" lon="5.21198055624">
		<tag k="name" v="Bukkavika" />
		<tag k="natural" v="bay" />
		<tag k="ssr:stedsnr" v="947647" />
	</node>
	<node id="-473522" lat="59.9905249962" lon="5.21914721653">
		<tag k="name" v="Nordra Økshammarvika" />
		<tag k="natural" v="bay" />
		<tag k="ssr:stedsnr" v="947646" />
	</node>
	<node id="-473520" lat="60.0547147317" lon="5.18135703005">
		<tag k="fixme" v="consider seamark:type=rock or natural=shoal" />
		<tag k="name" v="Notaskjeret" />
		<tag k="place" v="islet" />
		<tag k="ssr:stedsnr" v="947626" />
	</node>
	<node id="-473517" lat="59.9816777814" lon="5.08267499395">
		<tag k="name" v="Steineidet" />
		<tag k="natural" v="bay" />
		<tag k="ssr:stedsnr" v="947592" />
	</node>
	<node id="-473515" lat="60.0548277781" lon="5.07757500181">
		<tag k="name" v="Klungerholmen" />
		<tag k="place" v="islet" />
		<tag k="ssr:stedsnr" v="947538" />
	</node>
	<node id="-473514" lat="60.0390277771" lon="5.06888611528">
		<tag k="name" v="Vestre Rosmundsvågen" />
		<tag k="natural" v="bay" />
		<tag k="ssr:stedsnr" v="947535" />
	</node>
	<node id="-473513" lat="60.0980388919" lon="5.1121638938">
		<tag k="name" v="Middagsvågen" />
		<tag k="natural" v="bay" />
		<tag k="ssr:stedsnr" v="947525" />
	</node>
	<node id="-473512" lat="60.0915611093" lon="5.12758055791">
		<tag k="name" v="Midtre Navholmen" />
		<tag k="place" v="islet" />
		<tag k="ssr:stedsnr" v="947521" />
	</node>
	<node id="-473511" lat="60.0825277799" lon="5.10924445272">
		<tag k="name" v="Søre Kulparosen" />
		<tag k="natural" v="bay" />
		<tag k="ssr:stedsnr" v="947519" />
	</node>
	<node id="-473510" lat="60.1574076015" lon="5.11690733628">
		<tag k="bay" v="fjord" />
		<tag k="name" v="Krossfjorden" />
		<tag k="natural" v="bay" />
		<tag k="ssr:stedsnr" v="947512" />
	</node>
	<node id="-473506" lat="60.0301564724" lon="5.30361963521">
		<tag k="name" v="Torvasundet" />
		<tag k="natural" v="strait" />
		<tag k="ssr:stedsnr" v="947477" />
	</node>
	<node id="-473504" lat="60.0168861135" lon="5.27817223008">
		<tag k="name" v="Stølsvika" />
		<tag k="natural" v="bay" />
		<tag k="ssr:stedsnr" v="947433" />
	</node>
	<node id="-473503" lat="60.1193972186" lon="5.06739999492">
		<tag k="name" v="Kubbholmen" />
		<tag k="place" v="island" />
		<tag k="ssr:stedsnr" v="947399" />
	</node>
	<node id="-473502" lat="60.0732173358" lon="5.26085342641">
		<tag k="name" v="Kalvaneset" />
		<tag k="natural" v="cape" />
		<tag k="ssr:stedsnr" v="947380" />
	</node>
	<node id="-473501" lat="60.1428444462" lon="5.15209165942">
		<tag k="name" v="Stegavågen" />
		<tag k="natural" v="bay" />
		<tag k="ssr:stedsnr" v="947361" />
	</node>
	<node id="-473500" lat="60.0922093168" lon="5.21868718489">
		<tag k="name" v="Litle Netholmen" />
		<tag k="place" v="islet" />
		<tag k="ssr:stedsnr" v="947346" />
	</node>
	<node id="-473497" lat="60.1592166646" lon="5.18389167212">
		<tag k="name" v="Skipavika" />
		<tag k="natural" v="bay" />
		<tag k="ssr:stedsnr" v="947311" />
	</node>
	<node id="-473495" lat="60.1209472255" lon="5.20066665917">
		<tag k="name" v="Lia" />
		<tag k="natural" v="bay" />
		<tag k="ssr:stedsnr" v="947289" />
	</node>
	<node id="-473494" lat="60.1500111076" lon="5.2296916667">
		<tag k="name" v="Flatøya" />
		<tag k="place" v="island" />
		<tag k="ssr:stedsnr" v="947269" />
	</node>
	<node id="-473493" lat="60.1147527738" lon="5.16487500707">
		<tag k="name" v="Skjelevika" />
		<tag k="natural" v="bay" />
		<tag k="ssr:stedsnr" v="947266" />
	</node>
	<node id="-473492" lat="60.1221388933" lon="5.13454166156">
		<tag k="name" v="Røyrvika" />
		<tag k="natural" v="bay" />
		<tag k="ssr:stedsnr" v="947264" />
	</node>
	<node id="-473491" lat="60.1184777772" lon="5.15912777411">
		<tag k="name" v="Haugsnesvågen" />
		<tag k="natural" v="bay" />
		<tag k="ssr:stedsnr" v="947262" />
	</node>
	<node id="-473490" lat="60.145005559" lon="5.17989722143">
		<tag k="name" v="Garnvika" />
		<tag k="natural" v="bay" />
		<tag k="ssr:stedsnr" v="947256" />
	</node>
	<node id="-473487" lat="60.0566916632" lon="5.23643611785">
		<tag k="name" v="Tobbavågen" />
		<tag k="natural" v="bay" />
		<tag k="ssr:stedsnr" v="946599" />
	</node>
	<node id="-473486" lat="59.996363891" lon="5.27084166184">
		<tag k="name" v="Austra Kalvssundet" />
		<tag k="natural" v="strait" />
		<tag k="ssr:stedsnr" v="941700" />
	</node>
	<node id="-473485" lat="60.1672166686" lon="5.20331110703">
		<tag k="name" v="Kyrholmflua" />
		<tag k="natural" v="shoal" />
		<tag k="place" v="locality" />
		<tag k="ssr:stedsnr" v="935877" />
	</node>
	<node id="-473484" lat="60.1250527758" lon="5.12929722198">
		<tag k="name" v="Mjåneset" />
		<tag k="natural" v="cape" />
		<tag k="ssr:stedsnr" v="935798" />
	</node>
	<node id="-473483" lat="60.1264222207" lon="5.0449555644">
		<tag k="name" v="Barkylpevika" />
		<tag k="natural" v="bay" />
		<tag k="ssr:stedsnr" v="935796" />
	</node>
	<node id="-473482" lat="60.0098611103" lon="5.20634443754">
		<tag k="name" v="Træsklubben" />
		<tag k="natural" v="cape" />
		<tag k="ssr:stedsnr" v="934397" />
	</node>
	<node id="-473481" lat="60.0328166668" lon="5.14979167177">
		<tag k="name" v="Lunnøyboen" />
		<tag k="natural" v="shoal" />
		<tag k="place" v="locality" />
		<tag k="ssr:stedsnr" v="934274" />
	</node>
	<node id="-473480" lat="60.0429000018" lon="5.06101944825">
		<tag k="name" v="Austra Åkerøyflua" />
		<tag k="natural" v="shoal" />
		<tag k="place" v="locality" />
		<tag k="ssr:stedsnr" v="934120" />
	</node>
	<node id="-473479" lat="60.0706194457" lon="5.25772500388">
		<tag k="name" v="Lendestøbakkpollen" />
		<tag k="natural" v="bay" />
		<tag k="ssr:stedsnr" v="935653" />
	</node>
	<node id="-473478" lat="60.1282166633" lon="5.09849167319">
		<tag k="name" v="Nautøya" />
		<tag k="place" v="island" />
		<tag k="ssr:stedsnr" v="915993" />
	</node>
	<node id="-473477" lat="60.1328999977" lon="5.14416111458">
		<tag k="name" v="Skåravågen" />
		<tag k="natural" v="bay" />
		<tag k="ssr:stedsnr" v="915991" />
	</node>
	<node id="-473476" lat="60.1316111089" lon="5.25821388507">
		<tag k="name" v="Trollsøykalven" />
		<tag k="natural" v="cape" />
		<tag k="ssr:stedsnr" v="915989" />
	</node>
	<node id="-473475" lat="60.1307277818" lon="5.22890277578">
		<tag k="name" v="Grøningen" />
		<tag k="place" v="islet" />
		<tag k="ssr:stedsnr" v="915987" />
	</node>
	<node id="-473474" lat="60.1246527787" lon="5.16076110576">
		<tag k="name" v="Store Fangholmen" />
		<tag k="place" v="islet" />
		<tag k="ssr:stedsnr" v="915975" />
	</node>
	<node id="-473473" lat="60.1464416684" lon="5.15554722822">
		<tag k="name" v="Kjeholmen" />
		<tag k="place" v="islet" />
		<tag k="ssr:stedsnr" v="915963" />
	</node>
	<node id="-473471" lat="60.0888472268" lon="5.27784444947">
		<tag k="fixme" v="consider seamark:type=rock or natural=shoal" />
		<tag k="name" v="Lambøyskjeret" />
		<tag k="place" v="islet" />
		<tag k="ssr:stedsnr" v="915934" />
	</node>
	<node id="-473470" lat="60.0819749987" lon="5.17503055284">
		<tag k="name" v="Klammerholmen" />
		<tag k="place" v="islet" />
		<tag k="ssr:stedsnr" v="915917" />
	</node>
	<node id="-473469" lat="60.0671111127" lon="5.18882776958">
		<tag k="alt_name" v="Drønapollen" />
		<tag k="name" v="Drønspollen" />
		<tag k="natural" v="strait" />
		<tag k="ssr:stedsnr" v="915914" />
	</node>
	<node id="-473468" lat="60.0777361125" lon="5.16839999573">
		<tag k="name" v="Stora Flatøya" />
		<tag k="place" v="islet" />
		<tag k="ssr:stedsnr" v="915915" />
	</node>
	<node id="-473466" lat="60.1130222264" lon="5.06500833183">
		<tag k="name" v="Litlatovo" />
		<tag k="place" v="islet" />
		<tag k="ssr:stedsnr" v="915602" />
	</node>
	<node id="-473463" lat="60.0617166633" lon="4.99536111945">
		<tag k="name" v="Skartaflua" />
		<tag k="natural" v="shoal" />
		<tag k="place" v="locality" />
		<tag k="ssr:stedsnr" v="914674" />
	</node>
	<node id="-473462" lat="60.0552694434" lon="5.08399444141">
		<tag k="name" v="Kviksholmen" />
		<tag k="place" v="islet" />
		<tag k="ssr:stedsnr" v="914665" />
	</node>
	<node id="-473461" lat="60.0467555569" lon="5.29993333921">
		<tag k="name" v="Brattavika" />
		<tag k="natural" v="bay" />
		<tag k="ssr:stedsnr" v="914159" />
	</node>
	<node id="-473459" lat="59.974622225" lon="5.11833888362">
		<tag k="name" v="Vindkjeften" />
		<tag k="natural" v="cape" />
		<tag k="ssr:stedsnr" v="914135" />
	</node>
	<node id="-473458" lat="59.9811166638" lon="5.02786389311">
		<tag k="name" v="Midtfallet" />
		<tag k="natural" v="shoal" />
		<tag k="place" v="locality" />
		<tag k="ssr:stedsnr" v="914037" />
	</node>
	<node id="-473457" lat="60.0557138872" lon="5.09677222432">
		<tag k="name" v="Eriksholmen" />
		<tag k="place" v="islet" />
		<tag k="ssr:stedsnr" v="915169" />
	</node>
	<node id="-473456" lat="60.0485694458" lon="5.17773889101">
		<tag k="name" v="Buseholmen" />
		<tag k="place" v="islet" />
		<tag k="ssr:stedsnr" v="915160" />
	</node>
	<node id="-473455" lat="60.0512480765" lon="5.22946773361">
		<tag k="name" v="Heiamarkpollen" />
		<tag k="natural" v="bay" />
		<tag k="ssr:stedsnr" v="915161" />
	</node>
	<node id="-473453" lat="60.0047111119" lon="5.06368333612">
		<tag k="name" v="Stora Hola" />
		<tag k="natural" v="bay" />
		<tag k="ssr:stedsnr" v="875419" />
	</node>
	<node id="-473452" lat="60.1534250007" lon="5.21446111142">
		<tag k="name" v="Galtasundet" />
		<tag k="natural" v="strait" />
		<tag k="ssr:stedsnr" v="874869" />
	</node>
	<node id="-473451" lat="60.1011055587" lon="5.12656665919">
		<tag k="name" v="Krabbhausen" />
		<tag k="place" v="islet" />
		<tag k="ssr:stedsnr" v="874750" />
	</node>
	<node id="-473450" lat="60.0351416627" lon="5.20150000569">
		<tag k="name" v="Bumbervika" />
		<tag k="natural" v="bay" />
		<tag k="ssr:stedsnr" v="874733" />
	</node>
	<node id="-473449" lat="60.0375083293" lon="5.30064444074">
		<tag k="name" v="Tørkjesteinen" />
		<tag k="natural" v="cape" />
		<tag k="ssr:stedsnr" v="874678" />
	</node>
	<node id="-473448" lat="60.0387111101" lon="5.23631111673">
		<tag k="name" v="Gulenakken" />
		<tag k="natural" v="cape" />
		<tag k="ssr:stedsnr" v="874676" />
	</node>
	<node id="-473447" lat="59.9932666668" lon="5.04568055709">
		<tag k="name" v="Skreppen" />
		<tag k="natural" v="cape" />
		<tag k="ssr:stedsnr" v="874435" />
	</node>
	<node id="-473446" lat="60.0009416665" lon="5.05763332511">
		<tag k="name" v="Hestavika" />
		<tag k="natural" v="bay" />
		<tag k="ssr:stedsnr" v="874431" />
	</node>
	<node id="-473445" lat="60.0297416629" lon="5.0197222169">
		<tag k="name" v="Ytra Fjordaflua" />
		<tag k="natural" v="shoal" />
		<tag k="place" v="locality" />
		<tag k="ssr:stedsnr" v="874403" />
	</node>
	<node id="-473444" lat="59.9655555569" lon="5.03597221792">
		<tag k="name" v="Hettestallen" />
		<tag k="natural" v="shoal" />
		<tag k="place" v="locality" />
		<tag k="ssr:stedsnr" v="874140" />
	</node>
	<node id="-473443" lat="59.9618138866" lon="5.05509999827">
		<tag k="name" v="Holmaskaget" />
		<tag k="natural" v="shoal" />
		<tag k="place" v="locality" />
		<tag k="ssr:stedsnr" v="874138" />
	</node>
	<node id="-473441" lat="60.1338555576" lon="5.24093056045">
		<tag k="name" v="Småholmane" />
		<tag k="place" v="islet" />
		<tag k="ssr:stedsnr" v="855988" />
	</node>
	<node id="-473440" lat="60.142902774" lon="5.08923055171">
		<tag k="name" v="Steinneset" />
		<tag k="natural" v="cape" />
		<tag k="ssr:stedsnr" v="855760" />
	</node>
	<node id="-473437" lat="60.09475" lon="5.08294166048">
		<tag k="name" v="Horgekalven" />
		<tag k="place" v="islet" />
		<tag k="ssr:stedsnr" v="855640" />
	</node>
	<node id="-473436" lat="60.1003888849" lon="5.07796666968">
		<tag k="name" v="Sverslingen" />
		<tag k="place" v="islet" />
		<tag k="ssr:stedsnr" v="855637" />
	</node>
	<node id="-473435" lat="60.1174333372" lon="5.08190000248">
		<tag k="name" v="Indreøya" />
		<tag k="place" v="islet" />
		<tag k="ssr:stedsnr" v="855634" />
	</node>
	<node id="-473433" lat="60.1256722265" lon="5.12768611329">
		<tag k="name" v="Barmen" />
		<tag k="natural" v="bay" />
		<tag k="ssr:stedsnr" v="854994" />
	</node>
	<node id="-473432" lat="60.1530611119" lon="5.15396666758">
		<tag k="alt_name" v="Skarholmen" />
		<tag k="name" v="Skårholmen" />
		<tag k="place" v="islet" />
		<tag k="ssr:stedsnr" v="854962" />
	</node>
	<node id="-473431" lat="60.1507000011" lon="5.20826389029">
		<tag k="alt_name" v="Sandtorv" />
		<tag k="name" v="Sandtorr" />
		<tag k="place" v="island" />
		<tag k="ssr:stedsnr" v="854957" />
	</node>
	<node id="-473430" lat="60.141686111" lon="5.18423055965">
		<tag k="name" v="Krosshamn" />
		<tag k="natural" v="cape" />
		<tag k="ssr:stedsnr" v="854944" />
	</node>
	<node id="-473429" lat="60.0860111131" lon="5.175647229">
		<tag k="name" v="Litla Flatøya" />
		<tag k="place" v="islet" />
		<tag k="ssr:stedsnr" v="854928" />
	</node>
	<node id="-473425" lat="60.0969277751" lon="5.13821111263">
		<tag k="name" v="Knappen" />
		<tag k="natural" v="cape" />
		<tag k="ssr:stedsnr" v="854893" />
	</node>
	<node id="-473424" lat="60.0832722238" lon="5.14026111632">
		<tag k="name" v="Tovo" />
		<tag k="place" v="islet" />
		<tag k="ssr:stedsnr" v="854883" />
	</node>
	<node id="-473423" lat="60.1028722227" lon="5.26338055735">
		<tag k="name" v="Eidholmane" />
		<tag k="place" v="islet" />
		<tag k="ssr:stedsnr" v="854878" />
	</node>
	<node id="-473422" lat="60.0186916638" lon="5.00722222569">
		<tag k="name" v="Grottasundet" />
		<tag k="natural" v="strait" />
		<tag k="ssr:stedsnr" v="854642" />
	</node>
	<node id="-473421" lat="60.017566669" lon="5.02860556056">
		<tag k="name" v="Myrbærholmen" />
		<tag k="place" v="islet" />
		<tag k="ssr:stedsnr" v="854638" />
	</node>
	<node id="-473420" lat="60.0274194405" lon="5.06187777669">
		<tag k="name" v="Hevringen" />
		<tag k="place" v="islet" />
		<tag k="ssr:stedsnr" v="854636" />
	</node>
	<node id="-473419" lat="60.0434277819" lon="5.00737777508">
		<tag k="name" v="Englamarkskaget" />
		<tag k="place" v="islet" />
		<tag k="ssr:stedsnr" v="854617" />
	</node>
	<node id="-473415" lat="59.9714027808" lon="5.125891662">
		<tag k="name" v="Ådno" />
		<tag k="natural" v="bay" />
		<tag k="ssr:stedsnr" v="854135" />
	</node>
	<node id="-473413" lat="59.9913194404" lon="5.26900555835">
		<tag k="name" v="Blænesøya" />
		<tag k="place" v="island" />
		<tag k="ssr:stedsnr" v="854118" />
	</node>
	<node id="-473411" lat="60.0287611129" lon="5.20911388236">
		<tag k="name" v="Matvika" />
		<tag k="natural" v="bay" />
		<tag k="ssr:stedsnr" v="854108" />
	</node>
	<node id="-473410" lat="59.9911222258" lon="5.0692305524">
		<tag k="name" v="Stolmen" />
		<tag k="place" v="island" />
		<tag k="ssr:stedsnr" v="854030" />
	</node>
	<node id="-473409" lat="59.9811166638" lon="5.02786389311">
		<tag k="name" v="Indra Midtfallet" />
		<tag k="natural" v="shoal" />
		<tag k="place" v="locality" />
		<tag k="ssr:stedsnr" v="848828" />
	</node>
	<node id="-473408" lat="60.1064499999" lon="5.25333889079">
		<tag k="name" v="Geitøya" />
		<tag k="place" v="island" />
		<tag k="ssr:stedsnr" v="845396" />
	</node>
	<node id="-473406" lat="60.019055555" lon="5.30738055715">
		<tag k="name" v="Tobbholmane" />
		<tag k="place" v="islet" />
		<tag k="ssr:stedsnr" v="829455" />
	</node>
	<node id="-473403" lat="59.9876666696" lon="5.05288055695">
		<tag k="name" v="Bollholmen" />
		<tag k="place" v="islet" />
		<tag k="ssr:stedsnr" v="826905" />
	</node>
	<node id="-473402" lat="59.9712222227" lon="5.17176110587">
		<tag k="name" v="Gauksheimneset" />
		<tag k="natural" v="cape" />
		<tag k="ssr:stedsnr" v="826714" />
	</node>
	<node id="-473399" lat="60.0103555531" lon="5.2418888885">
		<tag k="name" v="Pollen" />
		<tag k="natural" v="bay" />
		<tag k="ssr:stedsnr" v="826668" />
	</node>
	<node id="-473398" lat="60.0185333295" lon="5.20006944988">
		<tag k="name" v="Lyraneset" />
		<tag k="natural" v="cape" />
		<tag k="ssr:stedsnr" v="826667" />
	</node>
	<node id="-473397" lat="60.0550222249" lon="5.17670555337">
		<tag k="name" v="Neset" />
		<tag k="natural" v="cape" />
		<tag k="ssr:stedsnr" v="826649" />
	</node>
	<node id="-473396" lat="60.0551277787" lon="5.18707222614">
		<tag k="name" v="Austra Storevika" />
		<tag k="natural" v="bay" />
		<tag k="ssr:stedsnr" v="826647" />
	</node>
	<node id="-473395" lat="60.0009527744" lon="5.11184167426">
		<tag k="name" v="Holmanakken" />
		<tag k="natural" v="cape" />
		<tag k="ssr:stedsnr" v="826610" />
	</node>
	<node id="-473393" lat="60.0511611084" lon="5.07211388708">
		<tag k="name" v="Indra Åkerøya" />
		<tag k="place" v="island" />
		<tag k="ssr:stedsnr" v="826591" />
	</node>
	<node id="-473392" lat="60.0512416675" lon="5.06068889091">
		<tag k="name" v="Kaggahaugen" />
		<tag k="place" v="island" />
		<tag k="ssr:stedsnr" v="826582" />
	</node>
	<node id="-473390" lat="60.0511388928" lon="5.07682778491">
		<tag k="name" v="Åkerøysundet" />
		<tag k="natural" v="strait" />
		<tag k="ssr:stedsnr" v="826572" />
	</node>
	<node id="-473389" lat="60.0599138868" lon="5.09783054866">
		<tag k="name" v="Skattneset" />
		<tag k="natural" v="cape" />
		<tag k="ssr:stedsnr" v="826571" />
	</node>
	<node id="-473388" lat="60.0539583333" lon="5.07971110877">
		<tag k="name" v="Kviksholmsundet" />
		<tag k="natural" v="strait" />
		<tag k="ssr:stedsnr" v="826569" />
	</node>
	<node id="-473387" lat="60.100361107" lon="5.100349999">
		<tag k="name" v="Dåsholmen" />
		<tag k="place" v="islet" />
		<tag k="ssr:stedsnr" v="826547" />
	</node>
	<node id="-473386" lat="60.1037861085" lon="5.10282500498">
		<tag k="fixme" v="consider seamark:type=rock or natural=shoal" />
		<tag k="name" v="Austre Drevskjera" />
		<tag k="place" v="islet" />
		<tag k="ssr:stedsnr" v="826544" />
	</node>
	<node id="-473385" lat="60.0899638849" lon="5.11666388347">
		<tag k="name" v="Nordre Ramsholmen" />
		<tag k="place" v="islet" />
		<tag k="ssr:stedsnr" v="826541" />
	</node>
	<node id="-473381" lat="60.005627777" lon="5.25357221476">
		<tag k="name" v="Mjåsundet" />
		<tag k="natural" v="strait" />
		<tag k="ssr:stedsnr" v="826465" />
	</node>
	<node id="-473380" lat="60.0075083313" lon="5.28633889138">
		<tag k="name" v="Søra Breivika" />
		<tag k="natural" v="bay" />
		<tag k="ssr:stedsnr" v="826461" />
	</node>
	<node id="-473379" lat="60.0679376395" lon="5.25231725076">
		<tag k="name" v="Langaneset" />
		<tag k="natural" v="cape" />
		<tag k="ssr:stedsnr" v="826396" />
	</node>
	<node id="-473374" lat="60.1553583322" lon="5.22265832525">
		<tag k="name" v="Litle Galten" />
		<tag k="place" v="islet" />
		<tag k="ssr:stedsnr" v="826316" />
	</node>
	<node id="-473373" lat="60.1262480568" lon="5.21150025491">
		<tag k="name" v="Trollasmoget" />
		<tag k="natural" v="bay" />
		<tag k="ssr:stedsnr" v="826303" />
	</node>
	<node id="-473372" lat="60.1182961176" lon="5.22912490665">
		<tag k="name" v="Lyraholmskaget" />
		<tag k="natural" v="cape" />
		<tag k="ssr:stedsnr" v="826300" />
	</node>
	<node id="-473371" lat="60.1236718695" lon="5.20157209056">
		<tag k="name" v="Halsen" />
		<tag k="natural" v="cape" />
		<tag k="ssr:stedsnr" v="826296" />
	</node>
	<node id="-473370" lat="60.1303872135" lon="5.20424373765">
		<tag k="name" v="Vestra Bleikjo" />
		<tag k="place" v="island" />
		<tag k="ssr:stedsnr" v="826295" />
	</node>
	<node id="-473369" lat="60.122390993" lon="5.2000869354">
		<tag k="name" v="Holsundet" />
		<tag k="natural" v="bay" />
		<tag k="ssr:stedsnr" v="826291" />
	</node>
	<node id="-473368" lat="60.0402638893" lon="5.23848611548">
		<tag k="name" v="Lødalsvika" />
		<tag k="natural" v="bay" />
		<tag k="ssr:stedsnr" v="826142" />
	</node>
	<node id="-473365" lat="60.1177833333" lon="5.07500278153">
		<tag k="name" v="Motasundet" />
		<tag k="natural" v="strait" />
		<tag k="ssr:stedsnr" v="825713" />
	</node>
	<node id="-473364" lat="60.1159138899" lon="5.08125277981">
		<tag k="name" v="Gamlejonsbukta" />
		<tag k="natural" v="bay" />
		<tag k="ssr:stedsnr" v="825710" />
	</node>
	<node id="-473361" lat="60.0646333372" lon="5.229288887">
		<tag k="name" v="Rongestraumen" />
		<tag k="natural" v="strait" />
		<tag k="ssr:stedsnr" v="825580" />
	</node>
	<node id="-473360" lat="60.0673611143" lon="5.06459166503">
		<tag k="fixme" v="consider seamark:type=rock or natural=shoal" />
		<tag k="name" v="Litla Skarvaskjeret" />
		<tag k="place" v="islet" />
		<tag k="ssr:stedsnr" v="825465" />
	</node>
	<node id="-473359" lat="60.0864861124" lon="5.10600556078">
		<tag k="name" v="Sildavika" />
		<tag k="natural" v="bay" />
		<tag k="ssr:stedsnr" v="825452" />
	</node>
	<node id="-473358" lat="60.0080333332" lon="5.23635555732">
		<tag k="name" v="Uglenesvika" />
		<tag k="natural" v="bay" />
		<tag k="ssr:stedsnr" v="825377" />
	</node>
	<node id="-473354" lat="60.1490194475" lon="5.17416665761">
		<tag k="name" v="Palmøya" />
		<tag k="place" v="island" />
		<tag k="ssr:stedsnr" v="826268" />
	</node>
	<node id="-473353" lat="60.0970666663" lon="5.18270278457">
		<tag k="fixme" v="consider seamark:type=rock or natural=shoal" />
		<tag k="name" v="Ringaskjeret" />
		<tag k="place" v="islet" />
		<tag k="ssr:stedsnr" v="814866" />
	</node>
	<node id="-473352" lat="60.1196222257" lon="5.23983611557">
		<tag k="name" v="Paraksstallen" />
		<tag k="natural" v="shoal" />
		<tag k="place" v="locality" />
		<tag k="ssr:stedsnr" v="814863" />
	</node>
	<node id="-473351" lat="60.1319444437" lon="5.17213332905">
		<tag k="name" v="Stuvsholmflua" />
		<tag k="natural" v="shoal" />
		<tag k="place" v="locality" />
		<tag k="ssr:stedsnr" v="814839" />
	</node>
	<node id="-473350" lat="60.0870638897" lon="5.09512222329">
		<tag k="fixme" v="consider seamark:type=rock or natural=shoal" />
		<tag k="name" v="Mælaren" />
		<tag k="place" v="islet" />
		<tag k="ssr:stedsnr" v="814761" />
	</node>
	<node id="-473349" lat="59.9688666691" lon="5.13165554771">
		<tag k="name" v="Ådno" />
		<tag k="natural" v="cape" />
		<tag k="ssr:stedsnr" v="814132" />
	</node>
	<node id="-473348" lat="60.1409555584" lon="5.22826110305">
		<tag k="fixme" v="consider seamark:type=rock or natural=shoal" />
		<tag k="name" v="Skarvaskjeret" />
		<tag k="place" v="islet" />
		<tag k="ssr:stedsnr" v="813851" />
	</node>
	<node id="-473347" lat="60.0264694441" lon="5.30062500268">
		<tag k="name" v="Otteråhamnen" />
		<tag k="natural" v="bay" />
		<tag k="ssr:stedsnr" v="813649" />
	</node>
	<node id="-473346" lat="60.0477194409" lon="5.23988333925">
		<tag k="name" v="Ytstaneset" />
		<tag k="natural" v="cape" />
		<tag k="ssr:stedsnr" v="813632" />
	</node>
	<node id="-473344" lat="59.9944333336" lon="5.04263334178">
		<tag k="fixme" v="consider seamark:type=rock or natural=shoal" />
		<tag k="name" v="Svartaskjeret" />
		<tag k="place" v="islet" />
		<tag k="ssr:stedsnr" v="813309" />
	</node>
	<node id="-473343" lat="60.0435444439" lon="4.99048611428">
		<tag k="name" v="Siggjaflua" />
		<tag k="natural" v="shoal" />
		<tag k="place" v="locality" />
		<tag k="ssr:stedsnr" v="813198" />
	</node>
	<node id="-473342" lat="60.0137055561" lon="5.10906667035">
		<tag k="name" v="Fjordaflua" />
		<tag k="natural" v="shoal" />
		<tag k="place" v="locality" />
		<tag k="ssr:stedsnr" v="812322" />
	</node>
	<node id="-473341" lat="60.0185916621" lon="5.16784443882">
		<tag k="name" v="Slaskosen" />
		<tag k="natural" v="strait" />
		<tag k="ssr:stedsnr" v="812321" />
	</node>
	<node id="-473340" lat="60.137522223" lon="5.24979444429">
		<tag k="name" v="Trollsøya" />
		<tag k="place" v="island" />
		<tag k="ssr:stedsnr" v="794989" />
	</node>
	<node id="-473339" lat="60.1261361152" lon="5.21292500052">
		<tag k="name" v="Sallaupen" />
		<tag k="natural" v="cape" />
		<tag k="ssr:stedsnr" v="794976" />
	</node>
	<node id="-473338" lat="60.1084277796" lon="5.07434723042">
		<tag k="bay" v="fjord" />
		<tag k="name" v="Horgefjorden" />
		<tag k="natural" v="bay" />
		<tag k="ssr:stedsnr" v="794631" />
	</node>
	<node id="-473337" lat="60.0671055581" lon="5.30056388494">
		<tag k="name" v="Døshaugneset" />
		<tag k="natural" v="cape" />
		<tag k="ssr:stedsnr" v="794162" />
	</node>
	<node id="-473336" lat="60.1456361142" lon="5.24315000828">
		<tag k="name" v="Stora Lauarøya" />
		<tag k="place" v="island" />
		<tag k="ssr:stedsnr" v="793972" />
	</node>
	<node id="-473335" lat="60.1413805533" lon="5.13954443886">
		<tag k="name" v="Grunnavågen" />
		<tag k="natural" v="bay" />
		<tag k="ssr:stedsnr" v="793957" />
	</node>
	<node id="-473334" lat="60.0904277764" lon="5.25133611544">
		<tag k="name" v="Austra Storebøvika" />
		<tag k="natural" v="bay" />
		<tag k="ssr:stedsnr" v="793950" />
	</node>
	<node id="-473333" lat="60.0883000004" lon="5.14977499851">
		<tag k="fixme" v="multiple name tags, choose one and add the other to alt_name" />
		<tag k="name" v="Austra Stillet;Stillet" />
		<tag k="place" v="islet" />
		<tag k="ssr:stedsnr" v="793944" />
	</node>
	<node id="-473332" lat="60.0818277772" lon="5.27372499643">
		<tag k="name" v="Kolbeinshamn" />
		<tag k="natural" v="cape" />
		<tag k="ssr:stedsnr" v="793942" />
	</node>
	<node id="-473331" lat="60.1074000007" lon="5.12738611397">
		<tag k="name" v="Teinholmane" />
		<tag k="place" v="islet" />
		<tag k="ssr:stedsnr" v="793898" />
	</node>
	<node id="-473330" lat="60.0986333335" lon="5.14849443872">
		<tag k="name" v="Følesvågen" />
		<tag k="natural" v="bay" />
		<tag k="ssr:stedsnr" v="793895" />
	</node>
	<node id="-473329" lat="60.0972222253" lon="5.12533055387">
		<tag k="name" v="Trettholmen" />
		<tag k="place" v="islet" />
		<tag k="ssr:stedsnr" v="793889" />
	</node>
	<node id="-473328" lat="60.083938887" lon="5.13500555747">
		<tag k="name" v="Håvardsholmen" />
		<tag k="place" v="islet" />
		<tag k="ssr:stedsnr" v="793886" />
	</node>
	<node id="-473326" lat="60.0078305525" lon="5.04481944553">
		<tag k="name" v="Sørvika" />
		<tag k="natural" v="bay" />
		<tag k="ssr:stedsnr" v="793687" />
	</node>
	<node id="-473325" lat="60.052475002" lon="5.05378332734">
		<tag k="fixme" v="consider seamark:type=rock or natural=shoal" />
		<tag k="name" v="Kaggaskaget" />
		<tag k="place" v="islet" />
		<tag k="ssr:stedsnr" v="793667" />
	</node>
	<node id="-473324" lat="60.0169972194" lon="5.16215834004">
		<tag k="name" v="Kalvanesholmen" />
		<tag k="place" v="islet" />
		<tag k="ssr:stedsnr" v="793254" />
	</node>
	<node id="-473322" lat="60.0131138926" lon="5.19539444586">
		<tag k="name" v="Driveneset" />
		<tag k="natural" v="cape" />
		<tag k="ssr:stedsnr" v="793244" />
	</node>
	<node id="-473321" lat="60.0123361105" lon="5.18130000862">
		<tag k="alt_name" v="Fagerbakkevåg" />
		<tag k="name" v="Fagerbakkvågen" />
		<tag k="natural" v="bay" />
		<tag k="ssr:stedsnr" v="793245" />
	</node>
	<node id="-473320" lat="60.0077500037" lon="5.11989165783">
		<tag k="name" v="Bleikjo" />
		<tag k="place" v="islet" />
		<tag k="ssr:stedsnr" v="793239" />
	</node>
	<node id="-473319" lat="60.0027722213" lon="5.22833056296">
		<tag k="name" v="Hjartholmosen" />
		<tag k="natural" v="bay" />
		<tag k="ssr:stedsnr" v="793236" />
	</node>
	<node id="-473318" lat="60.0588638935" lon="5.17627778534">
		<tag k="name" v="Janfoten" />
		<tag k="place" v="islet" />
		<tag k="ssr:stedsnr" v="793191" />
	</node>
	<node id="-473315" lat="60.0219777733" lon="5.16191944039">
		<tag k="name" v="Litla-Lunnøya" />
		<tag k="place" v="islet" />
		<tag k="ssr:stedsnr" v="793128" />
	</node>
	<node id="-473314" lat="60.0223194407" lon="5.19833611304">
		<tag k="name" v="Bjørnaneset" />
		<tag k="natural" v="cape" />
		<tag k="ssr:stedsnr" v="793124" />
	</node>
	<node id="-473313" lat="59.9926083315" lon="5.01420832913">
		<tag k="fixme" v="consider seamark:type=rock or natural=shoal" />
		<tag k="name" v="Sverslingen" />
		<tag k="place" v="islet" />
		<tag k="ssr:stedsnr" v="793035" />
	</node>
	<node id="-473311" lat="59.9876972267" lon="5.04668611321">
		<tag k="name" v="Storholmen" />
		<tag k="place" v="islet" />
		<tag k="ssr:stedsnr" v="793027" />
	</node>
	<node id="-473309" lat="59.9879250019" lon="5.10008888143">
		<tag k="name" v="Raugabergtåa" />
		<tag k="natural" v="cape" />
		<tag k="ssr:stedsnr" v="792228" />
	</node>
	<node id="-473307" lat="60.1431055595" lon="5.24726666602">
		<tag k="name" v="Trollsøysundet" />
		<tag k="natural" v="strait" />
		<tag k="ssr:stedsnr" v="782292" />
	</node>
	<node id="-473306" lat="60.1234083375" lon="5.09183611898">
		<tag k="name" v="Hillarøya" />
		<tag k="place" v="islet" />
		<tag k="ssr:stedsnr" v="779641" />
	</node>
	<node id="-473304" lat="59.9995333326" lon="5.05467778186">
		<tag k="name" v="Store Ølsvågen" />
		<tag k="natural" v="bay" />
		<tag k="ssr:stedsnr" v="765897" />
	</node>
	<node id="-473303" lat="60.0080397888" lon="5.07551423771">
		<tag k="name" v="Ospevika" />
		<tag k="natural" v="bay" />
		<tag k="ssr:stedsnr" v="765873" />
	</node>
	<node id="-473302" lat="60.0215222203" lon="5.02800278198">
		<tag k="fixme" v="consider seamark:type=rock or natural=shoal" />
		<tag k="name" v="Torkjelsskjeret" />
		<tag k="place" v="islet" />
		<tag k="ssr:stedsnr" v="765864" />
	</node>
	<node id="-473299" lat="60.0532278148" lon="5.17363061407">
		<tag k="fixme" v="consider seamark:type=rock or natural=shoal" />
		<tag k="name" v="Sørableikjo" />
		<tag k="place" v="islet" />
		<tag k="ssr:stedsnr" v="765626" />
	</node>
	<node id="-473298" lat="60.0489284063" lon="5.18241317877">
		<tag k="name" v="Hestavika" />
		<tag k="natural" v="bay" />
		<tag k="ssr:stedsnr" v="765624" />
	</node>
	<node id="-473297" lat="59.9814611144" lon="5.08996665883">
		<tag k="fixme" v="consider seamark:type=rock or natural=shoal" />
		<tag k="name" v="Skipmannsskjeret" />
		<tag k="place" v="islet" />
		<tag k="ssr:stedsnr" v="765603" />
	</node>
	<node id="-473296" lat="59.9845916686" lon="5.10240555561">
		<tag k="name" v="Niklanshola" />
		<tag k="natural" v="bay" />
		<tag k="ssr:stedsnr" v="765598" />
	</node>
	<node id="-473294" lat="60.048463887" lon="5.06249445262">
		<tag k="name" v="Skiparvika" />
		<tag k="natural" v="bay" />
		<tag k="ssr:stedsnr" v="765583" />
	</node>
	<node id="-473293" lat="60.0624972238" lon="5.03388611811">
		<tag k="name" v="Indra Mågabølet" />
		<tag k="place" v="island" />
		<tag k="ssr:stedsnr" v="765570" />
	</node>
	<node id="-473292" lat="60.0596666636" lon="5.07530555129">
		<tag k="name" v="Langøybleikjene" />
		<tag k="place" v="island" />
		<tag k="ssr:stedsnr" v="765559" />
	</node>
	<node id="-473291" lat="60.0623777801" lon="5.10153055447">
		<tag k="name" v="Håkjerringsvikane" />
		<tag k="natural" v="bay" />
		<tag k="ssr:stedsnr" v="765554" />
	</node>
	<node id="-473290" lat="60.0426111089" lon="5.09398055752">
		<tag k="name" v="Vardholmssundet" />
		<tag k="natural" v="strait" />
		<tag k="ssr:stedsnr" v="765529" />
	</node>
	<node id="-473289" lat="60.0945722216" lon="5.07786944566">
		<tag k="fixme" v="consider seamark:type=rock or natural=shoal" />
		<tag k="name" v="Horgekalvsskjeret" />
		<tag k="place" v="islet" />
		<tag k="ssr:stedsnr" v="765526" />
	</node>
	<node id="-473288" lat="60.0983611123" lon="5.11421666173">
		<tag k="name" v="Middagsholmen" />
		<tag k="place" v="islet" />
		<tag k="ssr:stedsnr" v="765517" />
	</node>
	<node id="-473286" lat="59.9908444414" lon="5.25845834184">
		<tag k="name" v="Storeidskaget" />
		<tag k="natural" v="cape" />
		<tag k="ssr:stedsnr" v="765459" />
	</node>
	<node id="-473284" lat="59.9905999968" lon="5.27203334153">
		<tag k="name" v="Austre Øyavågen" />
		<tag k="natural" v="bay" />
		<tag k="ssr:stedsnr" v="765445" />
	</node>
	<node id="-473283" lat="60.0133666648" lon="5.28661388326">
		<tag k="name" v="Avløypet" />
		<tag k="natural" v="cape" />
		<tag k="ssr:stedsnr" v="765441" />
	</node>
	<node id="-473281" lat="60.0703805526" lon="5.21062777707">
		<tag k="name" v="Oksabåsen" />
		<tag k="natural" v="bay" />
		<tag k="ssr:stedsnr" v="765317" />
	</node>
	<node id="-473280" lat="60.0688361095" lon="5.21396945022">
		<tag k="name" v="Simavågen" />
		<tag k="natural" v="bay" />
		<tag k="ssr:stedsnr" v="765314" />
	</node>
	<node id="-473279" lat="60.1576694451" lon="5.22392221567">
		<tag k="name" v="Tagholmen" />
		<tag k="place" v="islet" />
		<tag k="ssr:stedsnr" v="765282" />
	</node>
	<node id="-473277" lat="60.1228421385" lon="5.20035041634">
		<tag k="name" v="Hufthammarsgavlen" />
		<tag k="natural" v="cape" />
		<tag k="ssr:stedsnr" v="765264" />
	</node>
	<node id="-473276" lat="60.1173916638" lon="5.16593611085">
		<tag k="alt_name" v="Torangsskjeret" />
		<tag k="fixme" v="consider seamark:type=rock or natural=shoal" />
		<tag k="name" v="Tarangsskjær" />
		<tag k="place" v="islet" />
		<tag k="ssr:stedsnr" v="765249" />
	</node>
	<node id="-473275" lat="60.1491277818" lon="5.18037500369">
		<tag k="name" v="Ryarbåsen" />
		<tag k="natural" v="bay" />
		<tag k="ssr:stedsnr" v="765230" />
	</node>
	<node id="-473273" lat="60.130716663" lon="5.11859444927">
		<tag k="name" v="Søre Digranesvågen" />
		<tag k="natural" v="bay" />
		<tag k="ssr:stedsnr" v="764743" />
	</node>
	<node id="-473270" lat="60.0604916685" lon="5.20739444655">
		<tag k="name" v="Grønebotnen" />
		<tag k="natural" v="bay" />
		<tag k="ssr:stedsnr" v="764647" />
	</node>
	<node id="-473269" lat="60.0502083324" lon="5.20807221678">
		<tag k="name" v="Vestra Lendinga" />
		<tag k="natural" v="bay" />
		<tag k="ssr:stedsnr" v="764640" />
	</node>
	<node id="-473267" lat="60.0432888922" lon="5.08858054756">
		<tag k="name" v="Djupavika" />
		<tag k="natural" v="bay" />
		<tag k="ssr:stedsnr" v="764539" />
	</node>
	<node id="-473266" lat="60.1001416637" lon="5.10444443914">
		<tag k="name" v="Langaneset" />
		<tag k="natural" v="cape" />
		<tag k="ssr:stedsnr" v="764509" />
	</node>
	<node id="-473265" lat="60.0682444434" lon="5.063138882">
		<tag k="fixme" v="consider seamark:type=rock or natural=shoal" />
		<tag k="name" v="Stora Skarvaskjeret" />
		<tag k="place" v="islet" />
		<tag k="ssr:stedsnr" v="764506" />
	</node>
	<node id="-473264" lat="60.0661611129" lon="5.04223610552">
		<tag k="fixme" v="consider seamark:type=rock or natural=shoal" />
		<tag k="name" v="Myrbærholmskjeret" />
		<tag k="place" v="islet" />
		<tag k="ssr:stedsnr" v="764503" />
	</node>
	<node id="-473263" lat="60.0819027784" lon="5.1210138892">
		<tag k="name" v="Kriksholmen" />
		<tag k="place" v="islet" />
		<tag k="ssr:stedsnr" v="764499" />
	</node>
	<node id="-473262" lat="60.0695416675" lon="5.07962500553">
		<tag k="name" v="Røyrvikskaget" />
		<tag k="natural" v="cape" />
		<tag k="ssr:stedsnr" v="764493" />
	</node>
	<node id="-473261" lat="60.0832722257" lon="5.11865833485">
		<tag k="name" v="Litlableikjo" />
		<tag k="place" v="island" />
		<tag k="ssr:stedsnr" v="764491" />
	</node>
	<node id="-473260" lat="60.0072277771" lon="5.2273444443">
		<tag k="name" v="Djupevika" />
		<tag k="natural" v="bay" />
		<tag k="ssr:stedsnr" v="764429" />
	</node>
	<node id="-473258" lat="60.08824722" lon="5.1770638804">
		<tag k="name" v="Flatøya" />
		<tag k="place" v="island" />
		<tag k="ssr:stedsnr" v="764413" />
	</node>
	<node id="-473257" lat="60.0871498776" lon="5.2521568902">
		<tag k="name" v="Vetestøholmen" />
		<tag k="place" v="islet" />
		<tag k="ssr:stedsnr" v="764382" />
	</node>
	<node id="-473256" lat="60.0999027751" lon="5.25069167323">
		<tag k="name" v="Breivika" />
		<tag k="natural" v="bay" />
		<tag k="ssr:stedsnr" v="764372" />
	</node>
	<node id="-473255" lat="60.1288305568" lon="5.10094167098">
		<tag k="name" v="Bakkasundet" />
		<tag k="natural" v="strait" />
		<tag k="ssr:stedsnr" v="764090" />
	</node>
	<node id="-473254" lat="59.9887083335" lon="5.26142777665">
		<tag k="name" v="Storeboen" />
		<tag k="natural" v="shoal" />
		<tag k="place" v="locality" />
		<tag k="ssr:stedsnr" v="754610" />
	</node>
	<node id="-473253" lat="60.1355944463" lon="5.21840556428">
		<tag k="name" v="Kobbavågsflua" />
		<tag k="natural" v="shoal" />
		<tag k="place" v="locality" />
		<tag k="ssr:stedsnr" v="753860" />
	</node>
	<node id="-473252" lat="60.1543972255" lon="5.2318583369">
		<tag k="name" v="Flatøyfluene" />
		<tag k="natural" v="shoal" />
		<tag k="place" v="locality" />
		<tag k="ssr:stedsnr" v="753858" />
	</node>
	<node id="-473251" lat="60.1130888909" lon="5.22853333696">
		<tag k="name" v="Vasseidet" />
		<tag k="natural" v="bay" />
		<tag k="ssr:stedsnr" v="753842" />
	</node>
	<node id="-473250" lat="60.1532555591" lon="5.17208610606">
		<tag k="name" v="Kyrkjesundet" />
		<tag k="natural" v="strait" />
		<tag k="ssr:stedsnr" v="753813" />
	</node>
	<node id="-473249" lat="60.0458111116" lon="5.22462777618">
		<tag k="name" v="Klubben" />
		<tag k="natural" v="cape" />
		<tag k="ssr:stedsnr" v="753652" />
	</node>
	<node id="-473248" lat="60.1404999986" lon="5.09914444162">
		<tag k="name" v="Austraflua" />
		<tag k="natural" v="shoal" />
		<tag k="place" v="locality" />
		<tag k="ssr:stedsnr" v="752792" />
	</node>
	<node id="-473247" lat="60.0138694455" lon="5.29269722881">
		<tag k="name" v="Åsholmane" />
		<tag k="place" v="islet" />
		<tag k="ssr:stedsnr" v="752446" />
	</node>
	<node id="-473246" lat="60.0279833327" lon="5.01037500235">
		<tag k="name" v="Slåttarøya" />
		<tag k="place" v="island" />
		<tag k="ssr:stedsnr" v="734626" />
	</node>
	<node id="-473245" lat="60.1251833293" lon="5.17834165948">
		<tag k="name" v="Hundvåkoksen" />
		<tag k="natural" v="strait" />
		<tag k="ssr:stedsnr" v="733984" />
	</node>
	<node id="-473244" lat="60.1474499986" lon="5.17142222689">
		<tag k="name" v="Fargarosen" />
		<tag k="natural" v="strait" />
		<tag k="ssr:stedsnr" v="733954" />
	</node>
	<node id="-473243" lat="60.1457722226" lon="5.18357222449">
		<tag k="name" v="Krossøya" />
		<tag k="place" v="islet" />
		<tag k="ssr:stedsnr" v="733933" />
	</node>
	<node id="-473240" lat="60.1244555513" lon="4.96762499586">
		<tag k="name" v="Hillagrunnane" />
		<tag k="natural" v="shoal" />
		<tag k="place" v="locality" />
		<tag k="ssr:stedsnr" v="733718" />
	</node>
	<node id="-473239" lat="60.1144138915" lon="5.06554444703">
		<tag k="name" v="Storatovo" />
		<tag k="place" v="islet" />
		<tag k="ssr:stedsnr" v="733595" />
	</node>
	<node id="-473237" lat="60.0599611077" lon="5.09613332883">
		<tag k="name" v="Naustvågen" />
		<tag k="natural" v="bay" />
		<tag k="ssr:stedsnr" v="733183" />
	</node>
	<node id="-473236" lat="60.165500002" lon="5.20514999279">
		<tag k="name" v="Kyrholmen" />
		<tag k="place" v="islet" />
		<tag k="ssr:stedsnr" v="732809" />
	</node>
	<node id="-473235" lat="60.0616000022" lon="5.02895277394">
		<tag k="name" v="Ytra Mågabølet" />
		<tag k="place" v="islet" />
		<tag k="ssr:stedsnr" v="732682" />
	</node>
	<node id="-473234" lat="60.0506222213" lon="5.07794722833">
		<tag k="name" v="Risøya" />
		<tag k="place" v="islet" />
		<tag k="ssr:stedsnr" v="732679" />
	</node>
	<node id="-473233" lat="59.9839888859" lon="5.09639444124">
		<tag k="name" v="Stolmasundet" />
		<tag k="natural" v="strait" />
		<tag k="ssr:stedsnr" v="732262" />
	</node>
	<node id="-473231" lat="60.0409805537" lon="5.22169167038">
		<tag k="name" v="Hillavågen" />
		<tag k="natural" v="bay" />
		<tag k="ssr:stedsnr" v="732169" />
	</node>
	<node id="-473230" lat="60.0342527742" lon="5.20339999383">
		<tag k="name" v="Vassnes" />
		<tag k="natural" v="cape" />
		<tag k="ssr:stedsnr" v="732162" />
	</node>
	<node id="-473229" lat="59.972158338" lon="5.16537778236">
		<tag k="name" v="Sildavika" />
		<tag k="natural" v="bay" />
		<tag k="ssr:stedsnr" v="732158" />
	</node>
	<node id="-473228" lat="59.9928805597" lon="5.2606277684">
		<tag k="fixme" v="multiple name tags, choose one and add the other to alt_name" />
		<tag k="name" v="Kalvssundet;Vestra Kalvssundet" />
		<tag k="natural" v="strait" />
		<tag k="ssr:stedsnr" v="732155" />
	</node>
	<node id="-473226" lat="59.970536107" lon="5.07355555314">
		<tag k="name" v="Stallflua" />
		<tag k="natural" v="shoal" />
		<tag k="place" v="locality" />
		<tag k="ssr:stedsnr" v="732053" />
	</node>
	<node id="-473225" lat="60.0848916642" lon="5.20573888651">
		<tag k="name" v="Rostøya" />
		<tag k="place" v="island" />
		<tag k="ssr:stedsnr" v="726945" />
	</node>
	<node id="-473224" lat="60.0621416663" lon="5.18296388124">
		<tag k="alt_name" v="Drøni" />
		<tag k="name" v="Drøna" />
		<tag k="place" v="island" />
		<tag k="ssr:stedsnr" v="725186" />
	</node>
	<node id="-473220" lat="60.1283361146" lon="5.25674999484">
		<tag k="fixme" v="consider seamark:type=rock or natural=shoal" />
		<tag k="name" v="Trollsøyskjeret" />
		<tag k="place" v="islet" />
		<tag k="ssr:stedsnr" v="704925" />
	</node>
	<node id="-473219" lat="59.9987166707" lon="5.04901389561">
		<tag k="name" v="Ølsvågsneset" />
		<tag k="natural" v="cape" />
		<tag k="ssr:stedsnr" v="704884" />
	</node>
	<node id="-473218" lat="60.0196527775" lon="5.12941389283">
		<tag k="name" v="Skotabergneset" />
		<tag k="natural" v="cape" />
		<tag k="ssr:stedsnr" v="704875" />
	</node>
	<node id="-473217" lat="60.0112361149" lon="5.03425000066">
		<tag k="name" v="Karnabus" />
		<tag k="natural" v="cape" />
		<tag k="ssr:stedsnr" v="704865" />
	</node>
	<node id="-473216" lat="60.021688893" lon="5.13088610382">
		<tag k="name" v="Lunnøya" />
		<tag k="place" v="island" />
		<tag k="ssr:stedsnr" v="704862" />
	</node>
	<node id="-473214" lat="59.9753063882" lon="5.19487040537">
		<tag k="name" v="Brosmevikeneset" />
		<tag k="natural" v="cape" />
		<tag k="ssr:stedsnr" v="704692" />
	</node>
	<node id="-473213" lat="60.0092916639" lon="5.1501250019">
		<tag k="name" v="Tuftavika" />
		<tag k="natural" v="bay" />
		<tag k="ssr:stedsnr" v="704657" />
	</node>
	<node id="-473212" lat="60.0091388892" lon="5.14452499929">
		<tag k="name" v="Indra Rabbavika" />
		<tag k="natural" v="bay" />
		<tag k="ssr:stedsnr" v="704656" />
	</node>
	<node id="-473206" lat="60.0609777787" lon="5.22213055543">
		<tag k="name" v="Heiamarkvika" />
		<tag k="natural" v="bay" />
		<tag k="ssr:stedsnr" v="704616" />
	</node>
	<node id="-473205" lat="60.0304416637" lon="5.14850555544">
		<tag k="name" v="Nordre Leiarholmen" />
		<tag k="place" v="islet" />
		<tag k="ssr:stedsnr" v="704606" />
	</node>
	<node id="-473203" lat="60.0451138933" lon="5.22219722303">
		<tag k="name" v="Makrellevika" />
		<tag k="natural" v="bay" />
		<tag k="ssr:stedsnr" v="704601" />
	</node>
	<node id="-473202" lat="60.0496250012" lon="5.21745000021">
		<tag k="name" v="Kvelven" />
		<tag k="natural" v="bay" />
		<tag k="ssr:stedsnr" v="704599" />
	</node>
	<node id="-473201" lat="60.0663111101" lon="5.23075278417">
		<tag k="name" v="Lauvholmen" />
		<tag k="place" v="island" />
		<tag k="ssr:stedsnr" v="704594" />
	</node>
	<node id="-473199" lat="60.0629722187" lon="5.05486665912">
		<tag k="name" v="Indre Vandersholmen" />
		<tag k="place" v="island" />
		<tag k="ssr:stedsnr" v="704557" />
	</node>
	<node id="-473198" lat="60.0452277736" lon="5.10098611253">
		<tag k="name" v="Vestre Hesthagen" />
		<tag k="place" v="island" />
		<tag k="ssr:stedsnr" v="704546" />
	</node>
	<node id="-473197" lat="60.0530222213" lon="5.08154722563">
		<tag k="name" v="Plystrene" />
		<tag k="place" v="island" />
		<tag k="ssr:stedsnr" v="704529" />
	</node>
	<node id="-473196" lat="60.0244000005" lon="5.06194999511">
		<tag k="name" v="Nordra Hevrøyvika" />
		<tag k="natural" v="bay" />
		<tag k="ssr:stedsnr" v="704515" />
	</node>
	<node id="-473195" lat="60.0402722252" lon="5.09628611825">
		<tag k="name" v="Kassholmen" />
		<tag k="place" v="islet" />
		<tag k="ssr:stedsnr" v="704512" />
	</node>
	<node id="-473194" lat="60.0970833315" lon="5.09773333906">
		<tag k="name" v="Signalen" />
		<tag k="place" v="island" />
		<tag k="ssr:stedsnr" v="704501" />
	</node>
	<node id="-473192" lat="60.1409194408" lon="5.06834166034">
		<tag k="name" v="Palehola" />
		<tag k="natural" v="bay" />
		<tag k="ssr:stedsnr" v="704468" />
	</node>
	<node id="-473191" lat="60.1326249969" lon="5.01652499424">
		<tag k="fixme" v="consider seamark:type=rock or natural=shoal" />
		<tag k="name" v="Skjærskaget" />
		<tag k="place" v="islet" />
		<tag k="ssr:stedsnr" v="704467" />
	</node>
	<node id="-473190" lat="60.137347225" lon="5.04562500468">
		<tag k="name" v="Breibogen" />
		<tag k="natural" v="bay" />
		<tag k="ssr:stedsnr" v="704465" />
	</node>
	<node id="-473189" lat="60.0439666638" lon="5.30011943608">
		<tag k="name" v="Klombra" />
		<tag k="natural" v="cape" />
		<tag k="ssr:stedsnr" v="704443" />
	</node>
	<node id="-473187" lat="60.017016663" lon="5.28218056148">
		<tag k="name" v="Kubbholmen" />
		<tag k="place" v="islet" />
		<tag k="ssr:stedsnr" v="704420" />
	</node>
	<node id="-473185" lat="60.0094666645" lon="5.24346388166">
		<tag k="name" v="Vikevågen" />
		<tag k="natural" v="bay" />
		<tag k="ssr:stedsnr" v="704395" />
	</node>
	<node id="-473183" lat="60.0849416666" lon="5.27056666735">
		<tag k="name" v="Søra Eidet" />
		<tag k="natural" v="bay" />
		<tag k="ssr:stedsnr" v="704359" />
	</node>
	<node id="-473182" lat="60.0835611125" lon="5.2758333312">
		<tag k="name" v="Kolbeinsneset" />
		<tag k="natural" v="cape" />
		<tag k="ssr:stedsnr" v="704358" />
	</node>
	<node id="-473181" lat="60.085667323" lon="5.25970805298">
		<tag k="name" v="Marholmen" />
		<tag k="old_name" v="Mørholmen" />
		<tag k="place" v="islet" />
		<tag k="ssr:stedsnr" v="704354" />
	</node>
	<node id="-473179" lat="60.087662576" lon="5.22947729876">
		<tag k="bay" v="fjord" />
		<tag k="name" v="Bjånespollen" />
		<tag k="natural" v="bay" />
		<tag k="ssr:stedsnr" v="704321" />
	</node>
	<node id="-473178" lat="60.0274749957" lon="5.1429611115">
		<tag k="name" v="Gjermundsvika" />
		<tag k="natural" v="bay" />
		<tag k="ssr:stedsnr" v="704298" />
	</node>
	<node id="-473177" lat="60.1554638852" lon="5.18124445191">
		<tag k="name" v="Svortevika" />
		<tag k="natural" v="bay" />
		<tag k="ssr:stedsnr" v="704285" />
	</node>
	<node id="-473176" lat="60.126336113" lon="5.15300277226">
		<tag k="name" v="Neset" />
		<tag k="natural" v="cape" />
		<tag k="ssr:stedsnr" v="704270" />
	</node>
	<node id="-473175" lat="60.1160243167" lon="5.22924258804">
		<tag k="name" v="Flate Paraksholmen" />
		<tag k="place" v="islet" />
		<tag k="ssr:stedsnr" v="704264" />
	</node>
	<node id="-473174" lat="60.1212666675" lon="5.13821111956">
		<tag k="name" v="Bovika" />
		<tag k="natural" v="bay" />
		<tag k="ssr:stedsnr" v="704251" />
	</node>
	<node id="-473170" lat="60.1107000001" lon="5.13343332755">
		<tag k="name" v="Eikegjoa" />
		<tag k="natural" v="bay" />
		<tag k="ssr:stedsnr" v="692726" />
	</node>
	<node id="-473169" lat="60.0099638896" lon="5.27496667291">
		<tag k="name" v="Skogavika" />
		<tag k="natural" v="bay" />
		<tag k="ssr:stedsnr" v="692457" />
	</node>
	<node id="-473168" lat="60.0542416679" lon="5.011480558">
		<tag k="fixme" v="consider seamark:type=rock or natural=shoal" />
		<tag k="name" v="Drivskjeret" />
		<tag k="place" v="islet" />
		<tag k="ssr:stedsnr" v="692198" />
	</node>
	<node id="-473167" lat="60.0391916654" lon="5.1005111202">
		<tag k="fixme" v="consider seamark:type=rock or natural=shoal" />
		<tag k="name" v="Larsaskjeret" />
		<tag k="place" v="islet" />
		<tag k="ssr:stedsnr" v="692145" />
	</node>
	<node id="-473166" lat="59.972299999" lon="5.17196389677">
		<tag k="name" v="Gauksneset" />
		<tag k="natural" v="cape" />
		<tag k="ssr:stedsnr" v="692130" />
	</node>
	<node id="-473164" lat="60.0809416677" lon="5.18328332863">
		<tag k="name" v="Flatholmen" />
		<tag k="place" v="islet" />
		<tag k="ssr:stedsnr" v="673627" />
	</node>
	<node id="-473163" lat="60.0406250037" lon="5.18544999672">
		<tag k="name" v="Knappen" />
		<tag k="natural" v="cape" />
		<tag k="ssr:stedsnr" v="673626" />
	</node>
	<node id="-473162" lat="60.1272749992" lon="5.17355832764">
		<tag k="fixme" v="consider seamark:type=rock or natural=shoal" />
		<tag k="name" v="Fjæreskjeret" />
		<tag k="place" v="islet" />
		<tag k="ssr:stedsnr" v="672980" />
	</node>
	<node id="-473161" lat="60.146902779" lon="5.14498888707">
		<tag k="name" v="Sengsbukta" />
		<tag k="natural" v="bay" />
		<tag k="ssr:stedsnr" v="672969" />
	</node>
	<node id="-473160" lat="60.1454027785" lon="5.18839444941">
		<tag k="name" v="Krosshamnsundet" />
		<tag k="natural" v="strait" />
		<tag k="ssr:stedsnr" v="672965" />
	</node>
	<node id="-473159" lat="60.1446027805" lon="5.16699999635">
		<tag k="name" v="Skårøya" />
		<tag k="place" v="islet" />
		<tag k="ssr:stedsnr" v="672951" />
	</node>
	<node id="-473156" lat="60.1122833349" lon="5.27636388647">
		<tag k="fixme" v="consider seamark:type=rock or natural=shoal" />
		<tag k="name" v="Ospøyskjeret" />
		<tag k="place" v="islet" />
		<tag k="ssr:stedsnr" v="672895" />
	</node>
	<node id="-473155" lat="60.0890999995" lon="5.13258332562">
		<tag k="name" v="Flatøya" />
		<tag k="place" v="islet" />
		<tag k="ssr:stedsnr" v="672882" />
	</node>
	<node id="-473153" lat="60.131980552" lon="5.06528054826">
		<tag k="name" v="Storakalsøy" />
		<tag k="place" v="island" />
		<tag k="ssr:stedsnr" v="672736" />
	</node>
	<node id="-473152" lat="60.006886112" lon="5.24310834152">
		<tag k="name" v="Ugleneset" />
		<tag k="natural" v="cape" />
		<tag k="ssr:stedsnr" v="672208" />
	</node>
	<node id="-473150" lat="60.0033805561" lon="5.25389721833">
		<tag k="alt_name" v="Blenes" />
		<tag k="name" v="Blænes" />
		<tag k="natural" v="cape" />
		<tag k="ssr:stedsnr" v="672203" />
	</node>
	<node id="-473149" lat="60.0558666657" lon="5.23469444494">
		<tag k="name" v="Tobbaneset" />
		<tag k="natural" v="cape" />
		<tag k="ssr:stedsnr" v="672176" />
	</node>
	<node id="-473148" lat="60.056427779" lon="5.22168333804">
		<tag k="alt_name" v="Straumsøy" />
		<tag k="name" v="Straumsøya" />
		<tag k="place" v="islet" />
		<tag k="ssr:stedsnr" v="672153" />
	</node>
	<node id="-473146" lat="60.0528053387" lon="5.1858585496">
		<tag k="name" v="Busepollen" />
		<tag k="natural" v="bay" />
		<tag k="ssr:stedsnr" v="672150" />
	</node>
	<node id="-473145" lat="60.0478138921" lon="5.09357777302">
		<tag k="name" v="Litlakalsøy" />
		<tag k="place" v="island" />
		<tag k="ssr:stedsnr" v="672147" />
	</node>
	<node id="-473144" lat="60.1185270935" lon="5.22067231591">
		<tag k="name" v="Grepaneset" />
		<tag k="natural" v="cape" />
		<tag k="ssr:stedsnr" v="671909" />
	</node>
	<node id="-473143" lat="60.1155555598" lon="5.20189999248">
		<tag k="name" v="Bergtangen" />
		<tag k="natural" v="cape" />
		<tag k="ssr:stedsnr" v="671905" />
	</node>
	<node id="-473141" lat="60.1054194438" lon="5.13433888248">
		<tag k="name" v="Ronga" />
		<tag k="natural" v="bay" />
		<tag k="ssr:stedsnr" v="671891" />
	</node>
	<node id="-473139" lat="60.0236333337" lon="5.06703333282">
		<tag k="name" v="Hevrøya" />
		<tag k="place" v="island" />
		<tag k="ssr:stedsnr" v="671676" />
	</node>
	<node id="-473137" lat="59.9804639182" lon="5.20344900608">
		<tag k="name" v="Setravika" />
		<tag k="natural" v="bay" />
		<tag k="ssr:stedsnr" v="671155" />
	</node>
	<node id="-473136" lat="59.9680333334" lon="5.14202500449">
		<tag k="name" v="Boaneset" />
		<tag k="natural" v="cape" />
		<tag k="ssr:stedsnr" v="671143" />
	</node>
	<node id="-473135" lat="60.0293083367" lon="5.15098889513">
		<tag k="name" v="Søre Leiarholmen" />
		<tag k="place" v="islet" />
		<tag k="ssr:stedsnr" v="671140" />
	</node>
	<node id="-473130" lat="59.9962805542" lon="5.25262222335">
		<tag k="name" v="Ausmundsvågen" />
		<tag k="natural" v="bay" />
		<tag k="ssr:stedsnr" v="671236" />
	</node>
	<node id="-473129" lat="59.9811166638" lon="5.02786389311">
		<tag k="name" v="Ytra Midtfallet" />
		<tag k="natural" v="shoal" />
		<tag k="place" v="locality" />
		<tag k="ssr:stedsnr" v="666827" />
	</node>
	<node id="-473125" lat="59.9881527803" lon="5.05608611273">
		<tag k="name" v="Svenesvika" />
		<tag k="natural" v="bay" />
		<tag k="ssr:stedsnr" v="643894" />
	</node>
	<node id="-473122" lat="60.12536111" lon="5.06360554709">
		<tag k="name" v="Skjåholmen" />
		<tag k="place" v="island" />
		<tag k="ssr:stedsnr" v="643746" />
	</node>
	<node id="-473121" lat="60.1260444453" lon="5.06635278128">
		<tag k="name" v="Hillesvika" />
		<tag k="natural" v="bay" />
		<tag k="ssr:stedsnr" v="643738" />
	</node>
	<node id="-473119" lat="60.0099916629" lon="5.15403056221">
		<tag k="name" v="Grunnavågen" />
		<tag k="natural" v="bay" />
		<tag k="ssr:stedsnr" v="643681" />
	</node>
	<node id="-473118" lat="60.0052055532" lon="5.20603333743">
		<tag k="name" v="Utehola" />
		<tag k="natural" v="bay" />
		<tag k="ssr:stedsnr" v="643670" />
	</node>
	<node id="-473117" lat="60.0497555558" lon="5.17433055688">
		<tag k="name" v="Vestre Vågen" />
		<tag k="natural" v="bay" />
		<tag k="ssr:stedsnr" v="643661" />
	</node>
	<node id="-473115" lat="60.046760024" lon="5.17822871065">
		<tag k="name" v="Straumen" />
		<tag k="natural" v="strait" />
		<tag k="ssr:stedsnr" v="643643" />
	</node>
	<node id="-473114" lat="60.0552388854" lon="5.183333342">
		<tag k="name" v="Sørestraumen" />
		<tag k="natural" v="strait" />
		<tag k="ssr:stedsnr" v="643640" />
	</node>
	<node id="-473113" lat="59.982727782" lon="5.07264722924">
		<tag k="name" v="Krimbogen" />
		<tag k="natural" v="bay" />
		<tag k="ssr:stedsnr" v="643617" />
	</node>
	<node id="-473112" lat="59.9812972258" lon="5.086969445">
		<tag k="name" v="Klovning" />
		<tag k="place" v="island" />
		<tag k="ssr:stedsnr" v="643618" />
	</node>
	<node id="-473111" lat="60.0534749988" lon="5.05957776988">
		<tag k="fixme" v="consider seamark:type=rock or natural=shoal" />
		<tag k="name" v="Kaggaskjeret" />
		<tag k="place" v="islet" />
		<tag k="ssr:stedsnr" v="643596" />
	</node>
	<node id="-473110" lat="60.0562083291" lon="5.02598888607">
		<tag k="fixme" v="consider seamark:type=rock or natural=shoal" />
		<tag k="name" v="Stora Seiskjeret" />
		<tag k="place" v="islet" />
		<tag k="ssr:stedsnr" v="643566" />
	</node>
	<node id="-473109" lat="60.0250083319" lon="5.06850555094">
		<tag k="name" v="Likvika" />
		<tag k="natural" v="bay" />
		<tag k="ssr:stedsnr" v="643551" />
	</node>
	<node id="-473108" lat="60.0393388849" lon="5.08906666452">
		<tag k="fixme" v="consider seamark:type=rock or natural=shoal" />
		<tag k="name" v="Tonaskjeret" />
		<tag k="place" v="islet" />
		<tag k="ssr:stedsnr" v="643545" />
	</node>
	<node id="-473107" lat="60.0371222241" lon="5.08375833239">
		<tag k="name" v="Mortakeila" />
		<tag k="natural" v="bay" />
		<tag k="ssr:stedsnr" v="643544" />
	</node>
	<node id="-473106" lat="60.0272138873" lon="5.04239167077">
		<tag k="name" v="Lynghevrøyholmen" />
		<tag k="place" v="islet" />
		<tag k="ssr:stedsnr" v="643543" />
	</node>
	<node id="-473105" lat="60.0349277755" lon="5.07738610587">
		<tag k="name" v="Søre Broren" />
		<tag k="place" v="island" />
		<tag k="ssr:stedsnr" v="643533" />
	</node>
	<node id="-473104" lat="60.0874055591" lon="5.0950805479">
		<tag k="name" v="Albrugsneset" />
		<tag k="natural" v="cape" />
		<tag k="ssr:stedsnr" v="643524" />
	</node>
	<node id="-473103" lat="60.0656277819" lon="5.04960277609">
		<tag k="name" v="Steinholmane" />
		<tag k="place" v="islet" />
		<tag k="ssr:stedsnr" v="643516" />
	</node>
	<node id="-473102" lat="60.1428555551" lon="5.08575833586">
		<tag k="name" v="Håkjerringsvika" />
		<tag k="natural" v="bay" />
		<tag k="ssr:stedsnr" v="643493" />
	</node>
	<node id="-473101" lat="60.1027222248" lon="5.26608332684">
		<tag k="name" v="Eidholmen" />
		<tag k="place" v="islet" />
		<tag k="ssr:stedsnr" v="643481" />
	</node>
	<node id="-473097" lat="59.9981777799" lon="5.27679721764">
		<tag k="name" v="Bjørkevika" />
		<tag k="natural" v="bay" />
		<tag k="ssr:stedsnr" v="643433" />
	</node>
	<node id="-473096" lat="60.0201416675" lon="5.29486667185">
		<tag k="name" v="Lønevika" />
		<tag k="natural" v="bay" />
		<tag k="ssr:stedsnr" v="643422" />
	</node>
	<node id="-473095" lat="60.0877472238" lon="5.13335555797">
		<tag k="name" v="Leiholmen" />
		<tag k="place" v="islet" />
		<tag k="ssr:stedsnr" v="643403" />
	</node>
	<node id="-473094" lat="60.0769888903" lon="5.291397229">
		<tag k="name" v="Hengsneset" />
		<tag k="natural" v="cape" />
		<tag k="ssr:stedsnr" v="643380" />
	</node>
	<node id="-473093" lat="60.0824500041" lon="5.26546944535">
		<tag k="name" v="Leirvågen" />
		<tag k="natural" v="bay" />
		<tag k="ssr:stedsnr" v="643373" />
	</node>
	<node id="-473091" lat="60.0752195005" lon="5.25623610837">
		<tag k="name" v="Naustvika" />
		<tag k="natural" v="bay" />
		<tag k="ssr:stedsnr" v="643363" />
	</node>
	<node id="-473090" lat="60.137413885" lon="5.19379166502">
		<tag k="name" v="Kamsøyholmen" />
		<tag k="place" v="islet" />
		<tag k="ssr:stedsnr" v="643254" />
	</node>
	<node id="-473089" lat="60.0439722186" lon="5.246205556">
		<tag k="name" v="Notaneset" />
		<tag k="natural" v="cape" />
		<tag k="ssr:stedsnr" v="643122" />
	</node>
</osm>
