<?xml version="1.0" encoding="UTF-8"?>
<osm version="0.6" generator="osmapis">
	<node id="69005227" lat="61.0566714" lon="5.5120418" version="3" timestamp="2022-08-23T15:47:33Z" changeset="125278063" uid="3497659" user="NKA">
		<tag k="name" v="Ytre Oppedal" />
		<tag k="place" v="hamlet" />
		<tag k="ssr:stedsnr" v="273958" />
	</node>
	<node id="297593515" lat="61.0087053" lon="5.1950458" version="5" timestamp="2022-08-23T15:47:33Z" changeset="125278063" uid="3497659" user="NKA">
		<tag k="name" v="Nordgulen" />
		<tag k="place" v="hamlet" />
		<tag k="ssr:stedsnr" v="268049" />
	</node>
	<node id="297595135" lat="60.9837926" lon="5.1866036" version="5" timestamp="2022-08-23T15:47:33Z" changeset="125278063" uid="3497659" user="NKA">
		<tag k="name" v="Nese" />
		<tag k="place" v="hamlet" />
		<tag k="ssr:stedsnr" v="493791" />
	</node>
	<node id="775864600" lat="60.8524007" lon="5.069839" version="3" timestamp="2022-08-23T15:47:33Z" changeset="125278063" uid="3497659" user="NKA">
		<tag k="name" v="Sløvåg" />
		<tag k="place" v="neighbourhood" />
		<tag k="ssr:stedsnr" v="784876" />
	</node>
	<node id="892353552" lat="60.9800683" lon="5.0782594" version="5" timestamp="2022-08-23T15:47:33Z" changeset="125278063" uid="3497659" user="NKA">
		<tag k="name" v="Eivindvik" />
		<tag k="place" v="village" />
		<tag k="population" v="317" />
		<tag k="population:date" v="2021-01-01" />
		<tag k="ref:ssb_tettsted" v="5512" />
		<tag k="source:population" v="SSB - befolkning i tettstedet" />
		<tag k="ssr:stedsnr" v="759646" />
	</node>
	<node id="892354368" lat="60.9705794" lon="5.120101" version="2" timestamp="2022-08-23T15:47:33Z" changeset="125278063" uid="3497659" user="NKA">
		<tag k="alt_name" v="Flolid" />
		<tag k="name" v="Floli" />
		<tag k="place" v="hamlet" />
		<tag k="ssr:stedsnr" v="918164" />
	</node>
	<node id="892410312" lat="60.9891644" lon="5.3171998" version="3" timestamp="2022-08-23T15:47:33Z" changeset="125278063" uid="3497659" user="NKA">
		<tag k="alt_name" v="Øvre Austgulen;Nedre Austgulen" />
		<tag k="name" v="Austgulen" />
		<tag k="place" v="hamlet" />
		<tag k="ssr:stedsnr" v="858153" />
	</node>
	<node id="892410325" lat="60.9858346" lon="5.287852" version="2" timestamp="2022-08-23T15:47:33Z" changeset="125278063" uid="3497659" user="NKA">
		<tag k="name" v="Hauge" />
		<tag k="place" v="farm" />
		<tag k="ssr:stedsnr" v="69156" />
	</node>
	<node id="2059625536" lat="60.9586333" lon="5.3551756" version="2" timestamp="2022-08-23T15:47:33Z" changeset="125278063" uid="3497659" user="NKA">
		<tag k="historic" v="shieling" />
		<tag k="name" v="Furdalsstølen" />
		<tag k="place" v="isolated_dwelling" />
		<tag k="season" v="summer" />
		<tag k="ssr:stedsnr" v="493836" />
	</node>
	<node id="3721553031" lat="60.9712058" lon="5.2341363" version="2" timestamp="2022-08-23T15:47:33Z" changeset="125278063" uid="3497659" user="NKA">
		<tag k="alt_name" v="Hantveit" />
		<tag k="name" v="Hanntveit" />
		<tag k="place" v="farm" />
		<tag k="ssr:stedsnr" v="554792" />
	</node>
	<node id="3721553032" lat="61.0029703" lon="5.1902245" version="2" timestamp="2022-08-23T15:47:33Z" changeset="125278063" uid="3497659" user="NKA">
		<tag k="name" v="Haveland" />
		<tag k="place" v="hamlet" />
		<tag k="ssr:stedsnr" v="130928" />
	</node>
	<node id="3796263318" lat="60.9370433" lon="5.4979255" version="2" timestamp="2022-08-23T15:47:33Z" changeset="125278063" uid="3497659" user="NKA">
		<tag k="name" v="Kringla" />
		<tag k="place" v="hamlet" />
		<tag k="ssr:stedsnr" v="494240" />
	</node>
	<node id="4770128950" lat="61.0687291" lon="5.1780786" version="2" timestamp="2022-08-23T15:47:33Z" changeset="125278063" uid="3497659" user="NKA">
		<tag k="alt_name" v="Nærebø" />
		<tag k="name" v="Nedrebø" />
		<tag k="place" v="farm" />
		<tag k="ssr:stedsnr" v="919563" />
	</node>
	<node id="4770128952" lat="61.0695923" lon="5.1803866" version="2" timestamp="2022-08-23T15:47:33Z" changeset="125278063" uid="3497659" user="NKA">
		<tag k="name" v="Husebø" />
		<tag k="place" v="farm" />
		<tag k="ssr:stedsnr" v="312580" />
	</node>
	<node id="6219460040" lat="60.9184772" lon="4.9046969" version="2" timestamp="2022-08-23T15:47:33Z" changeset="125278063" uid="3497659" user="NKA">
		<tag k="name" v="Mjømna" />
		<tag k="place" v="village" />
		<tag k="ssr:stedsnr" v="9467" />
	</node>
	<node id="6219460041" lat="60.8992161" lon="4.8376925" version="5" timestamp="2022-08-23T15:47:33Z" changeset="125278063" uid="3497659" user="NKA">
		<tag k="alt_name" v="Byrknesøy" />
		<tag k="name" v="Byrknes" />
		<tag k="place" v="village" />
		<tag k="population" v="287" />
		<tag k="population:date" v="2021-01-01" />
		<tag k="ref:ssb_tettsted" v="5511" />
		<tag k="source:population" v="SSB - befolkning i tettstedet" />
		<tag k="ssr:stedsnr" v="615444" />
	</node>
	<node id="6219460054" lat="61.0166813" lon="5.458519" version="2" timestamp="2022-08-23T15:47:33Z" changeset="125278063" uid="3497659" user="NKA">
		<tag k="name" v="Brekke" />
		<tag k="place" v="village" />
		<tag k="ssr:stedsnr" v="636967" />
	</node>
	<node id="6219461198" lat="60.8858897" lon="4.9798326" version="2" timestamp="2022-08-23T15:47:33Z" changeset="125278063" uid="3497659" user="NKA">
		<tag k="name" v="Ånneland" />
		<tag k="place" v="hamlet" />
		<tag k="ssr:stedsnr" v="433400" />
	</node>
	<node id="9088805934" lat="61.0838833" lon="5.2972111" version="1" timestamp="2021-09-13T18:00:46Z" changeset="111158738" uid="435265" user="Ansgar G Grimsrud">
		<tag k="bay" v="fjord" />
		<tag k="name" v="Sognefjorden" />
		<tag k="natural" v="bay" />
		<tag k="ssr:stedsnr" v="434556" />
	</node>
	<node id="9972692147" lat="60.9961639" lon="5.0770784" version="1" timestamp="2022-08-23T15:47:33Z" changeset="125278063" uid="3497659" user="NKA">
		<tag k="historic" v="shieling" />
		<tag k="name" v="Prestestølen" />
		<tag k="place" v="isolated_dwelling" />
		<tag k="ssr:stedsnr" v="432339" />
	</node>
	<node id="9972692148" lat="60.8883104" lon="5.1286804" version="1" timestamp="2022-08-23T15:47:33Z" changeset="125278063" uid="3497659" user="NKA">
		<tag k="name" v="Orkneset" />
		<tag k="place" v="farm" />
		<tag k="ssr:stedsnr" v="918965" />
	</node>
	<node id="9972692149" lat="60.8919216" lon="5.0489688" version="1" timestamp="2022-08-23T15:47:33Z" changeset="125278063" uid="3497659" user="NKA">
		<tag k="name" v="Fivelsdal" />
		<tag k="place" v="hamlet" />
		<tag k="ssr:stedsnr" v="919439" />
	</node>
	<node id="9972692150" lat="61.0791667" lon="5.1730062" version="1" timestamp="2022-08-23T15:47:33Z" changeset="125278063" uid="3497659" user="NKA">
		<tag k="alt_name" v="Fredtun" />
		<tag k="name" v="Fredheim" />
		<tag k="place" v="farm" />
		<tag k="ssr:stedsnr" v="615576" />
	</node>
	<node id="9972692151" lat="61.0627444" lon="5.5251115" version="1" timestamp="2022-08-23T15:47:33Z" changeset="125278063" uid="3497659" user="NKA">
		<tag k="alt_name" v="Døsa" />
		<tag k="name" v="Dysa" />
		<tag k="place" v="farm" />
		<tag k="ssr:stedsnr" v="859164" />
	</node>
	<node id="9972692152" lat="60.953344" lon="5.1309925" version="1" timestamp="2022-08-23T15:47:33Z" changeset="125278063" uid="3497659" user="NKA">
		<tag k="alt_name" v="Åmdalsvik" />
		<tag k="name" v="Åmdalsvika" />
		<tag k="place" v="farm" />
		<tag k="ssr:stedsnr" v="372850" />
	</node>
	<node id="9972692153" lat="61.0127136" lon="5.4468455" version="1" timestamp="2022-08-23T15:47:33Z" changeset="125278063" uid="3497659" user="NKA">
		<tag k="name" v="Tynning" />
		<tag k="place" v="farm" />
		<tag k="ssr:stedsnr" v="373917" />
	</node>
	<node id="9972692154" lat="61.0659198" lon="5.245832" version="1" timestamp="2022-08-23T15:47:33Z" changeset="125278063" uid="3497659" user="NKA">
		<tag k="name" v="Breidvika" />
		<tag k="place" v="hamlet" />
		<tag k="ssr:stedsnr" v="312576" />
	</node>
	<node id="9972692155" lat="60.890668" lon="5.1154607" version="1" timestamp="2022-08-23T15:47:33Z" changeset="125278063" uid="3497659" user="NKA">
		<tag k="name" v="Glenja" />
		<tag k="place" v="farm" />
		<tag k="ssr:stedsnr" v="797949" />
	</node>
	<node id="9972692156" lat="60.9397444" lon="4.9593618" version="1" timestamp="2022-08-23T15:47:33Z" changeset="125278063" uid="3497659" user="NKA">
		<tag k="alt_name" v="Blidnesol" />
		<tag k="name" v="Blidensol" />
		<tag k="place" v="farm" />
		<tag k="ssr:stedsnr" v="8307" />
	</node>
	<node id="9972692157" lat="60.9598123" lon="5.1387998" version="1" timestamp="2022-08-23T15:47:33Z" changeset="125278063" uid="3497659" user="NKA">
		<tag k="alt_name" v="Glossvika" />
		<tag k="name" v="Glosvik" />
		<tag k="place" v="farm" />
		<tag k="ssr:stedsnr" v="251840" />
	</node>
	<node id="9972692158" lat="60.9224633" lon="5.0498172" version="1" timestamp="2022-08-23T15:47:33Z" changeset="125278063" uid="3497659" user="NKA">
		<tag k="alt_name" v="Selevåg" />
		<tag k="name" v="Selvågen" />
		<tag k="place" v="farm" />
		<tag k="ssr:stedsnr" v="554520" />
	</node>
	<node id="9972692159" lat="60.9595346" lon="4.8107508" version="1" timestamp="2022-08-23T15:47:33Z" changeset="125278063" uid="3497659" user="NKA">
		<tag k="name" v="Litle Kvernøyna" />
		<tag k="place" v="farm" />
		<tag k="ssr:stedsnr" v="974731" />
	</node>
	<node id="9972692160" lat="60.9268583" lon="5.2093923" version="1" timestamp="2022-08-23T15:47:33Z" changeset="125278063" uid="3497659" user="NKA">
		<tag k="name" v="Setsstølsstølen" />
		<tag k="place" v="locality" />
		<tag k="ssr:stedsnr" v="433906" />
	</node>
	<node id="9972692161" lat="60.9348691" lon="5.1749095" version="1" timestamp="2022-08-23T15:47:33Z" changeset="125278063" uid="3497659" user="NKA">
		<tag k="alt_name" v="Slengesol" />
		<tag k="name" v="Slengeshol" />
		<tag k="place" v="farm" />
		<tag k="ssr:stedsnr" v="311894" />
	</node>
	<node id="9972692162" lat="60.9667805" lon="5.2532117" version="1" timestamp="2022-08-23T15:47:33Z" changeset="125278063" uid="3497659" user="NKA">
		<tag k="name" v="Plassen" />
		<tag k="place" v="locality" />
		<tag k="ssr:stedsnr" v="433769" />
	</node>
	<node id="9972692163" lat="60.918142" lon="4.827592" version="1" timestamp="2022-08-23T15:47:33Z" changeset="125278063" uid="3497659" user="NKA">
		<tag k="name" v="Børholmen" />
		<tag k="place" v="farm" />
		<tag k="ssr:stedsnr" v="974728" />
	</node>
	<node id="9972692164" lat="60.9908861" lon="5.4380532" version="1" timestamp="2022-08-23T15:47:33Z" changeset="125278063" uid="3497659" user="NKA">
		<tag k="historic" v="shieling" />
		<tag k="name" v="Hauglandsstølen" />
		<tag k="place" v="isolated_dwelling" />
		<tag k="ssr:stedsnr" v="251160" />
	</node>
	<node id="9972692165" lat="60.95155" lon="4.8060537" version="1" timestamp="2022-08-23T15:47:33Z" changeset="125278063" uid="3497659" user="NKA">
		<tag k="name" v="Kvernøyna" />
		<tag k="place" v="farm" />
		<tag k="ssr:stedsnr" v="735317" />
	</node>
	<node id="9972692166" lat="61.0098359" lon="5.2026371" version="1" timestamp="2022-08-23T15:47:33Z" changeset="125278063" uid="3497659" user="NKA">
		<tag k="name" v="Tveit" />
		<tag k="place" v="hamlet" />
		<tag k="ssr:stedsnr" v="859911" />
	</node>
	<node id="9972692167" lat="60.9366482" lon="5.0139307" version="1" timestamp="2022-08-23T15:47:33Z" changeset="125278063" uid="3497659" user="NKA">
		<tag k="name" v="Setenes" />
		<tag k="place" v="farm" />
		<tag k="ssr:stedsnr" v="130234" />
	</node>
	<node id="9972692168" lat="61.0445673" lon="5.2596376" version="1" timestamp="2022-08-23T15:47:33Z" changeset="125278063" uid="3497659" user="NKA">
		<tag k="historic" v="shieling" />
		<tag k="name" v="Breivikstølen" />
		<tag k="place" v="isolated_dwelling" />
		<tag k="ssr:stedsnr" v="97641" />
	</node>
	<node id="9972692169" lat="60.9766919" lon="4.9855159" version="1" timestamp="2022-08-23T15:47:33Z" changeset="125278063" uid="3497659" user="NKA">
		<tag k="name" v="Grimstad" />
		<tag k="place" v="farm" />
		<tag k="ssr:stedsnr" v="249337" />
	</node>
	<node id="9972692170" lat="60.9804123" lon="4.9560789" version="1" timestamp="2022-08-23T15:47:33Z" changeset="125278063" uid="3497659" user="NKA">
		<tag k="alt_name" v="Vilsvik" />
		<tag k="name" v="Vilsvika" />
		<tag k="place" v="farm" />
		<tag k="ssr:stedsnr" v="249336" />
	</node>
	<node id="9972692171" lat="60.8931702" lon="5.1306387" version="1" timestamp="2022-08-23T15:47:33Z" changeset="125278063" uid="3497659" user="NKA">
		<tag k="alt_name" v="Knarvik" />
		<tag k="name" v="Knarrvik" />
		<tag k="place" v="farm" />
		<tag k="ssr:stedsnr" v="797899" />
	</node>
	<node id="9972692172" lat="61.0109667" lon="5.5031087" version="1" timestamp="2022-08-23T15:47:33Z" changeset="125278063" uid="3497659" user="NKA">
		<tag k="historic" v="shieling" />
		<tag k="name" v="Sunnlistølen" />
		<tag k="place" v="isolated_dwelling" />
		<tag k="ssr:stedsnr" v="941972" />
	</node>
	<node id="9972692173" lat="61.0192944" lon="5.32312" version="1" timestamp="2022-08-23T15:47:33Z" changeset="125278063" uid="3497659" user="NKA">
		<tag k="alt_name" v="Botnen støl" />
		<tag k="historic" v="shieling" />
		<tag k="name" v="Botnestølen" />
		<tag k="place" v="isolated_dwelling" />
		<tag k="ssr:stedsnr" v="70929" />
	</node>
	<node id="9972692174" lat="60.9164979" lon="5.1160257" version="1" timestamp="2022-08-23T15:47:33Z" changeset="125278063" uid="3497659" user="NKA">
		<tag k="name" v="Vestevika" />
		<tag k="old_name" v="Vestervik" />
		<tag k="place" v="farm" />
		<tag k="ssr:stedsnr" v="191851" />
	</node>
	<node id="9972692175" lat="60.9291102" lon="4.8119303" version="1" timestamp="2022-08-23T15:47:33Z" changeset="125278063" uid="3497659" user="NKA">
		<tag k="alt_name" v="Kversøy" />
		<tag k="name" v="Kversøyna" />
		<tag k="place" v="farm" />
		<tag k="ssr:stedsnr" v="312242" />
	</node>
	<node id="9972692176" lat="60.962145" lon="5.1931752" version="1" timestamp="2022-08-23T15:47:33Z" changeset="125278063" uid="3497659" user="NKA">
		<tag k="alt_name" v="Dyregrov" />
		<tag k="name" v="Dyregrova" />
		<tag k="place" v="farm" />
		<tag k="ssr:stedsnr" v="676774" />
	</node>
	<node id="9972692177" lat="61.0289972" lon="5.2931311" version="1" timestamp="2022-08-23T15:47:33Z" changeset="125278063" uid="3497659" user="NKA">
		<tag k="alt_name" v="Hjartholmsstølen, in" />
		<tag k="historic" v="shieling" />
		<tag k="name" v="Indre Hjartholmsstølen" />
		<tag k="place" v="isolated_dwelling" />
		<tag k="ssr:stedsnr" v="920904" />
	</node>
	<node id="9972692178" lat="61.0088556" lon="5.5755976" version="1" timestamp="2022-08-23T15:47:33Z" changeset="125278063" uid="3497659" user="NKA">
		<tag k="historic" v="shieling" />
		<tag k="name" v="Nyheim sel" />
		<tag k="place" v="isolated_dwelling" />
		<tag k="ssr:stedsnr" v="703733" />
	</node>
	<node id="9972692179" lat="60.9609346" lon="5.2285689" version="1" timestamp="2022-08-23T15:47:33Z" changeset="125278063" uid="3497659" user="NKA">
		<tag k="name" v="Øvre Oppdal" />
		<tag k="old_name" v="Uppdal, øvre;Øvre Uppdal" />
		<tag k="place" v="farm" />
		<tag k="ssr:stedsnr" v="554823" />
	</node>
	<node id="9972692180" lat="60.9509992" lon="4.8037145" version="1" timestamp="2022-08-23T15:47:33Z" changeset="125278063" uid="3497659" user="NKA">
		<tag k="name" v="Store Kvernøyna" />
		<tag k="place" v="farm" />
		<tag k="ssr:stedsnr" v="974730" />
	</node>
	<node id="9972692181" lat="61.0002142" lon="5.4294398" version="1" timestamp="2022-08-23T15:47:33Z" changeset="125278063" uid="3497659" user="NKA">
		<tag k="alt_name" v="Engseter" />
		<tag k="name" v="Engeset" />
		<tag k="place" v="hamlet" />
		<tag k="ssr:stedsnr" v="191884" />
	</node>
	<node id="9972692182" lat="61.0122166" lon="5.4140033" version="1" timestamp="2022-08-23T15:47:33Z" changeset="125278063" uid="3497659" user="NKA">
		<tag k="alt_name" v="Indre Taklestølen" />
		<tag k="historic" v="shieling" />
		<tag k="name" v="Inst Taklestølen" />
		<tag k="place" v="isolated_dwelling" />
		<tag k="ssr:stedsnr" v="737910" />
	</node>
	<node id="9972692183" lat="60.9873583" lon="5.2414256" version="1" timestamp="2022-08-23T15:47:33Z" changeset="125278063" uid="3497659" user="NKA">
		<tag k="alt_name" v="Hantveitstølen" />
		<tag k="historic" v="shieling" />
		<tag k="name" v="Hanntveitstølen" />
		<tag k="place" v="isolated_dwelling" />
		<tag k="ssr:stedsnr" v="918159" />
	</node>
	<node id="9972692184" lat="61.0400139" lon="5.2914171" version="1" timestamp="2022-08-23T15:47:33Z" changeset="125278063" uid="3497659" user="NKA">
		<tag k="alt_name" v="Ytre Hjartholm;Hjartholmsstølen, yt" />
		<tag k="historic" v="shieling" />
		<tag k="name" v="Ytre Hjartholmsstølen" />
		<tag k="place" v="isolated_dwelling" />
		<tag k="ssr:stedsnr" v="191567" />
	</node>
	<node id="9972692185" lat="61.0049805" lon="5.4376977" version="1" timestamp="2022-08-23T15:47:33Z" changeset="125278063" uid="3497659" user="NKA">
		<tag k="name" v="Hagen" />
		<tag k="place" v="farm" />
		<tag k="ssr:stedsnr" v="434908" />
	</node>
	<node id="9972692186" lat="60.936461" lon="4.8090887" version="1" timestamp="2022-08-23T15:47:33Z" changeset="125278063" uid="3497659" user="NKA">
		<tag k="alt_name" v="Koksøy" />
		<tag k="name" v="Koksøyna" />
		<tag k="place" v="farm" />
		<tag k="ssr:stedsnr" v="8308" />
	</node>
	<node id="9972692187" lat="61.0233502" lon="5.3992859" version="1" timestamp="2022-08-23T15:47:33Z" changeset="125278063" uid="3497659" user="NKA">
		<tag k="alt_name" v="Indre Takle" />
		<tag k="name" v="Inst Takle" />
		<tag k="place" v="farm" />
		<tag k="ssr:stedsnr" v="312866" />
	</node>
	<node id="9972692188" lat="61.0094333" lon="5.031259" version="1" timestamp="2022-08-23T15:47:33Z" changeset="125278063" uid="3497659" user="NKA">
		<tag k="name" v="Navdalen" />
		<tag k="place" v="farm" />
		<tag k="ssr:stedsnr" v="920389" />
	</node>
	<node id="9972692189" lat="60.9576286" lon="5.1328041" version="1" timestamp="2022-08-23T15:47:33Z" changeset="125278063" uid="3497659" user="NKA">
		<tag k="name" v="Nyborg" />
		<tag k="place" v="farm" />
		<tag k="ssr:stedsnr" v="207826" />
	</node>
	<node id="9972692190" lat="61.0299901" lon="5.4656615" version="1" timestamp="2022-08-23T15:47:33Z" changeset="125278063" uid="3497659" user="NKA">
		<tag k="name" v="Gjerdet" />
		<tag k="place" v="farm" />
		<tag k="ssr:stedsnr" v="554900" />
	</node>
	<node id="9972692191" lat="60.9456417" lon="5.3773033" version="1" timestamp="2022-08-23T15:47:33Z" changeset="125278063" uid="3497659" user="NKA">
		<tag k="name" v="Lia" />
		<tag k="place" v="farm" />
		<tag k="ssr:stedsnr" v="129859" />
	</node>
	<node id="9972692192" lat="60.9745444" lon="5.3879561" version="1" timestamp="2022-08-23T15:47:33Z" changeset="125278063" uid="3497659" user="NKA">
		<tag k="historic" v="shieling" />
		<tag k="name" v="Brekkestølen" />
		<tag k="place" v="isolated_dwelling" />
		<tag k="ssr:stedsnr" v="69833" />
	</node>
	<node id="9972692193" lat="61.0407667" lon="5.2503894" version="1" timestamp="2022-08-23T15:47:33Z" changeset="125278063" uid="3497659" user="NKA">
		<tag k="historic" v="shieling" />
		<tag k="name" v="Jensstølen" />
		<tag k="place" v="isolated_dwelling" />
		<tag k="ssr:stedsnr" v="886643" />
	</node>
	<node id="9972692194" lat="60.9435341" lon="5.1791422" version="1" timestamp="2022-08-23T15:47:33Z" changeset="125278063" uid="3497659" user="NKA">
		<tag k="name" v="Norddal" />
		<tag k="place" v="hamlet" />
		<tag k="ssr:stedsnr" v="974720" />
	</node>
	<node id="9972692195" lat="60.9564454" lon="4.9064703" version="1" timestamp="2022-08-23T15:47:33Z" changeset="125278063" uid="3497659" user="NKA">
		<tag k="name" v="Vatnøyna" />
		<tag k="place" v="farm" />
		<tag k="ssr:stedsnr" v="974735" />
	</node>
	<node id="9972692196" lat="61.0456644" lon="5.3051546" version="1" timestamp="2022-08-23T15:47:33Z" changeset="125278063" uid="3497659" user="NKA">
		<tag k="name" v="Kjørvika" />
		<tag k="place" v="farm" />
		<tag k="ssr:stedsnr" v="753707" />
	</node>
	<node id="9972692197" lat="60.9292333" lon="5.3743505" version="1" timestamp="2022-08-23T15:47:33Z" changeset="125278063" uid="3497659" user="NKA">
		<tag k="alt_name" v="Lægda" />
		<tag k="name" v="Legda" />
		<tag k="place" v="locality" />
		<tag k="ssr:stedsnr" v="372911" />
	</node>
	<node id="9972692198" lat="60.9238583" lon="5.2005006" version="1" timestamp="2022-08-23T15:47:33Z" changeset="125278063" uid="3497659" user="NKA">
		<tag k="alt_name" v="Setstølen" />
		<tag k="historic" v="shieling" />
		<tag k="name" v="Setsstølen" />
		<tag k="place" v="isolated_dwelling" />
		<tag k="ssr:stedsnr" v="372922" />
	</node>
	<node id="9972692199" lat="60.8629481" lon="4.883393" version="1" timestamp="2022-08-23T15:47:33Z" changeset="125278063" uid="3497659" user="NKA">
		<tag k="alt_name" v="Bremnes" />
		<tag k="name" v="Brimnes" />
		<tag k="place" v="hamlet" />
		<tag k="ssr:stedsnr" v="312386" />
	</node>
	<node id="9972692200" lat="61.0145848" lon="5.4552869" version="1" timestamp="2022-08-23T15:47:33Z" changeset="125278063" uid="3497659" user="NKA">
		<tag k="name" v="Nedre Haugland" />
		<tag k="place" v="farm" />
		<tag k="ssr:stedsnr" v="344759" />
	</node>
	<node id="9972692201" lat="60.8517776" lon="5.0092641" version="1" timestamp="2022-08-23T15:47:33Z" changeset="125278063" uid="3497659" user="NKA">
		<tag k="name" v="Sande" />
		<tag k="place" v="hamlet" />
		<tag k="ssr:stedsnr" v="191357" />
	</node>
	<node id="9972692202" lat="60.9314744" lon="5.0285625" version="1" timestamp="2022-08-23T15:47:33Z" changeset="125278063" uid="3497659" user="NKA">
		<tag k="name" v="Brandanger" />
		<tag k="place" v="hamlet" />
		<tag k="ssr:stedsnr" v="858252" />
	</node>
	<node id="9972692203" lat="60.9306333" lon="5.1348972" version="1" timestamp="2022-08-23T15:47:33Z" changeset="125278063" uid="3497659" user="NKA">
		<tag k="name" v="Molde" />
		<tag k="place" v="farm" />
		<tag k="ssr:stedsnr" v="129869" />
	</node>
	<node id="9972692204" lat="60.9317505" lon="5.1757817" version="1" timestamp="2022-08-23T15:47:33Z" changeset="125278063" uid="3497659" user="NKA">
		<tag k="name" v="Dale" />
		<tag k="place" v="hamlet" />
		<tag k="ssr:stedsnr" v="797867" />
	</node>
	<node id="9972692205" lat="60.9770864" lon="5.074136" version="1" timestamp="2022-08-23T15:47:33Z" changeset="125278063" uid="3497659" user="NKA">
		<tag k="alt_name" v="Fonnevik" />
		<tag k="name" v="Fonnevika" />
		<tag k="place" v="farm" />
		<tag k="ssr:stedsnr" v="857333" />
	</node>
	<node id="9972692206" lat="60.9619202" lon="4.9985225" version="1" timestamp="2022-08-23T15:47:33Z" changeset="125278063" uid="3497659" user="NKA">
		<tag k="name" v="Kjeøyna" />
		<tag k="place" v="farm" />
		<tag k="ssr:stedsnr" v="974722" />
	</node>
	<node id="9972692207" lat="61.0311308" lon="5.3504407" version="1" timestamp="2022-08-23T15:47:33Z" changeset="125278063" uid="3497659" user="NKA">
		<tag k="name" v="Botnen" />
		<tag k="place" v="farm" />
		<tag k="ssr:stedsnr" v="373890" />
	</node>
	<node id="9972692208" lat="60.9527694" lon="5.2665256" version="1" timestamp="2022-08-23T15:47:33Z" changeset="125278063" uid="3497659" user="NKA">
		<tag k="name" v="Fosshaugen" />
		<tag k="place" v="isolated_dwelling" />
		<tag k="ssr:stedsnr" v="129838" />
	</node>
	<node id="9972692209" lat="61.0353611" lon="5.1181007" version="1" timestamp="2022-08-23T15:47:33Z" changeset="125278063" uid="3497659" user="NKA">
		<tag k="historic" v="shieling" />
		<tag k="name" v="Risestølen" />
		<tag k="place" v="isolated_dwelling" />
		<tag k="ssr:stedsnr" v="737611" />
	</node>
	<node id="9972692210" lat="61.0381611" lon="5.1793979" version="1" timestamp="2022-08-23T15:47:33Z" changeset="125278063" uid="3497659" user="NKA">
		<tag k="historic" v="shieling" />
		<tag k="name" v="Nerstølen" />
		<tag k="place" v="isolated_dwelling" />
		<tag k="ssr:stedsnr" v="703786" />
	</node>
	<node id="9972692211" lat="60.9858139" lon="5.4155171" version="1" timestamp="2022-08-23T15:47:33Z" changeset="125278063" uid="3497659" user="NKA">
		<tag k="alt_name" v="Brekkestølen, yt" />
		<tag k="historic" v="shieling" />
		<tag k="name" v="Ytre Brekkestølen" />
		<tag k="place" v="isolated_dwelling" />
		<tag k="ssr:stedsnr" v="102799" />
	</node>
	<node id="9972692212" lat="60.9469723" lon="4.9763626" version="1" timestamp="2022-08-23T15:47:33Z" changeset="125278063" uid="3497659" user="NKA">
		<tag k="name" v="Bjorøyna" />
		<tag k="place" v="farm" />
		<tag k="ssr:stedsnr" v="974723" />
	</node>
	<node id="9972692213" lat="60.9401558" lon="4.8443288" version="1" timestamp="2022-08-23T15:47:33Z" changeset="125278063" uid="3497659" user="NKA">
		<tag k="name" v="Bårøyna" />
		<tag k="place" v="farm" />
		<tag k="ssr:stedsnr" v="858285" />
	</node>
	<node id="9972692214" lat="60.9896534" lon="4.968491" version="1" timestamp="2022-08-23T15:47:33Z" changeset="125278063" uid="3497659" user="NKA">
		<tag k="name" v="Hjartås" />
		<tag k="place" v="hamlet" />
		<tag k="ssr:stedsnr" v="371351" />
	</node>
	<node id="9972692215" lat="60.9158195" lon="5.13167" version="1" timestamp="2022-08-23T15:47:33Z" changeset="125278063" uid="3497659" user="NKA">
		<tag k="name" v="Heggelund" />
		<tag k="place" v="farm" />
		<tag k="ssr:stedsnr" v="797879" />
	</node>
	<node id="9972692216" lat="60.9390869" lon="5.1422093" version="1" timestamp="2022-08-23T15:47:33Z" changeset="125278063" uid="3497659" user="NKA">
		<tag k="name" v="Berge" />
		<tag k="place" v="farm" />
		<tag k="ssr:stedsnr" v="493841" />
	</node>
	<node id="9972699717" lat="60.9367659" lon="5.1143554" version="1" timestamp="2022-08-23T15:47:33Z" changeset="125278063" uid="3497659" user="NKA">
		<tag k="name" v="Bjørkelund" />
		<tag k="place" v="farm" />
		<tag k="ssr:stedsnr" v="389808" />
	</node>
	<node id="9972699718" lat="60.962205" lon="5.2034792" version="1" timestamp="2022-08-23T15:47:33Z" changeset="125278063" uid="3497659" user="NKA">
		<tag k="name" v="Sandal" />
		<tag k="place" v="isolated_dwelling" />
		<tag k="ssr:stedsnr" v="874857" />
	</node>
	<node id="9972699719" lat="60.9142694" lon="5.1319729" version="1" timestamp="2022-08-23T15:47:33Z" changeset="125278063" uid="3497659" user="NKA">
		<tag k="alt_name" v="Einevika" />
		<tag k="name" v="Einevik" />
		<tag k="place" v="farm" />
		<tag k="ssr:stedsnr" v="875796" />
	</node>
	<node id="9972699720" lat="61.0702944" lon="5.1473451" version="1" timestamp="2022-08-23T15:47:33Z" changeset="125278063" uid="3497659" user="NKA">
		<tag k="name" v="Stigen" />
		<tag k="place" v="farm" />
		<tag k="ssr:stedsnr" v="676584" />
	</node>
	<node id="9972699721" lat="60.9349601" lon="4.9843954" version="1" timestamp="2022-08-23T15:47:33Z" changeset="125278063" uid="3497659" user="NKA">
		<tag k="alt_name" v="Vassvik" />
		<tag k="loc_name" v="Vatsvik" />
		<tag k="name" v="Vassvika" />
		<tag k="place" v="hamlet" />
		<tag k="ssr:stedsnr" v="737233" />
	</node>
	<node id="9972699722" lat="60.9313596" lon="4.8772498" version="1" timestamp="2022-08-23T15:47:33Z" changeset="125278063" uid="3497659" user="NKA">
		<tag k="name" v="Risøyna" />
		<tag k="place" v="farm" />
		<tag k="ssr:stedsnr" v="676247" />
	</node>
	<node id="9972699723" lat="60.9193083" lon="5.3763449" version="1" timestamp="2022-08-23T15:47:33Z" changeset="125278063" uid="3497659" user="NKA">
		<tag k="alt_name" v="Ynnesdalstølen" />
		<tag k="historic" v="shieling" />
		<tag k="name" v="Yndesdalsstølen" />
		<tag k="place" v="isolated_dwelling" />
		<tag k="ssr:stedsnr" v="191838" />
	</node>
	<node id="9972699724" lat="60.9244" lon="5.2165173" version="1" timestamp="2022-08-23T15:47:33Z" changeset="125278063" uid="3497659" user="NKA">
		<tag k="historic" v="shieling" />
		<tag k="name" v="Norddalsstølen" />
		<tag k="place" v="isolated_dwelling" />
		<tag k="ssr:stedsnr" v="676889" />
	</node>
	<node id="9972699725" lat="60.9532861" lon="5.2661839" version="1" timestamp="2022-08-23T15:47:33Z" changeset="125278063" uid="3497659" user="NKA">
		<tag k="historic" v="shieling" />
		<tag k="name" v="Fossestølen" />
		<tag k="place" v="isolated_dwelling" />
		<tag k="ssr:stedsnr" v="279292" />
	</node>
	<node id="9972699726" lat="60.9411361" lon="5.1998451" version="1" timestamp="2022-08-23T15:47:33Z" changeset="125278063" uid="3497659" user="NKA">
		<tag k="historic" v="shieling" />
		<tag k="name" v="Slengesholstølen" />
		<tag k="place" v="isolated_dwelling" />
		<tag k="ssr:stedsnr" v="675836" />
	</node>
	<node id="9972699727" lat="60.9792806" lon="5.1300395" version="1" timestamp="2022-08-23T15:47:33Z" changeset="125278063" uid="3497659" user="NKA">
		<tag k="historic" v="shieling" />
		<tag k="name" v="Grønfjellstølen" />
		<tag k="place" v="isolated_dwelling" />
		<tag k="ssr:stedsnr" v="91820" />
	</node>
	<node id="9972699728" lat="61.0034176" lon="5.003849" version="1" timestamp="2022-08-23T15:47:33Z" changeset="125278063" uid="3497659" user="NKA">
		<tag k="alt_name" v="Nyhamar" />
		<tag k="name" v="Nyhammaren" />
		<tag k="place" v="hamlet" />
		<tag k="ssr:stedsnr" v="555356" />
	</node>
	<node id="9972699729" lat="61.0304223" lon="5.0354896" version="1" timestamp="2022-08-23T15:47:33Z" changeset="125278063" uid="3497659" user="NKA">
		<tag k="name" v="Dingeneset" />
		<tag k="place" v="neighbourhood" />
		<tag k="ssr:stedsnr" v="359874" />
	</node>
	<node id="9972699730" lat="60.85205" lon="5.0018034" version="1" timestamp="2022-08-23T15:47:33Z" changeset="125278063" uid="3497659" user="NKA">
		<tag k="name" v="Ekredalen" />
		<tag k="place" v="farm" />
		<tag k="ssr:stedsnr" v="69402" />
	</node>
	<node id="9972699731" lat="60.9739509" lon="5.1533332" version="1" timestamp="2022-08-23T15:47:33Z" changeset="125278063" uid="3497659" user="NKA">
		<tag k="name" v="Svaberget" />
		<tag k="place" v="farm" />
		<tag k="ssr:stedsnr" v="433147" />
	</node>
	<node id="9972699732" lat="60.9327849" lon="5.1407397" version="1" timestamp="2022-08-23T15:47:33Z" changeset="125278063" uid="3497659" user="NKA">
		<tag k="name" v="Kjellevål" />
		<tag k="place" v="farm" />
		<tag k="ssr:stedsnr" v="614866" />
	</node>
	<node id="9972699733" lat="60.9673694" lon="5.5384199" version="1" timestamp="2022-08-23T15:47:33Z" changeset="125278063" uid="3497659" user="NKA">
		<tag k="historic" v="shieling" />
		<tag k="name" v="Sætersstølen" />
		<tag k="place" v="isolated_dwelling" />
		<tag k="ssr:stedsnr" v="372333" />
	</node>
	<node id="9972699734" lat="61.0541138" lon="5.5091922" version="1" timestamp="2022-08-23T15:47:33Z" changeset="125278063" uid="3497659" user="NKA">
		<tag k="name" v="Bruvollen" />
		<tag k="place" v="farm" />
		<tag k="ssr:stedsnr" v="886991" />
	</node>
	<node id="9972699735" lat="61.06375" lon="5.5649838" version="1" timestamp="2022-08-23T15:47:33Z" changeset="125278063" uid="3497659" user="NKA">
		<tag k="alt_name" v="Gjerde" />
		<tag k="name" v="Gjerdet" />
		<tag k="place" v="farm" />
		<tag k="ssr:stedsnr" v="70188" />
	</node>
	<node id="9972699736" lat="60.9883584" lon="5.0865843" version="1" timestamp="2022-08-23T15:47:33Z" changeset="125278063" uid="3497659" user="NKA">
		<tag k="name" v="Gryta" />
		<tag k="place" v="farm" />
		<tag k="ssr:stedsnr" v="7347" />
	</node>
	<node id="9972699737" lat="60.9521038" lon="5.120443" version="1" timestamp="2022-08-23T15:47:33Z" changeset="125278063" uid="3497659" user="NKA">
		<tag k="alt_name" v="Klokkeide" />
		<tag k="name" v="Klokkeid" />
		<tag k="place" v="farm" />
		<tag k="ssr:stedsnr" v="312807" />
	</node>
	<node id="9972699738" lat="60.9400419" lon="4.9586157" version="1" timestamp="2022-08-23T15:47:33Z" changeset="125278063" uid="3497659" user="NKA">
		<tag k="name" v="Skjerjehamn" />
		<tag k="place" v="hamlet" />
		<tag k="ssr:stedsnr" v="494243" />
	</node>
	<node id="9972699739" lat="61.05995" lon="5.513831" version="1" timestamp="2022-08-23T15:47:33Z" changeset="125278063" uid="3497659" user="NKA">
		<tag k="alt_name" v="Nygjerde" />
		<tag k="name" v="Nygjerdet" />
		<tag k="place" v="farm" />
		<tag k="ssr:stedsnr" v="920196" />
	</node>
	<node id="9972699740" lat="60.9131806" lon="5.1811506" version="1" timestamp="2022-08-23T15:47:33Z" changeset="125278063" uid="3497659" user="NKA">
		<tag k="historic" v="shieling" />
		<tag k="name" v="Heiestølen" />
		<tag k="place" v="isolated_dwelling" />
		<tag k="ssr:stedsnr" v="157542" />
	</node>
	<node id="9972699741" lat="60.9637548" lon="4.9596069" version="1" timestamp="2022-08-23T15:47:33Z" changeset="125278063" uid="3497659" user="NKA">
		<tag k="name" v="Vassøyna" />
		<tag k="place" v="farm" />
		<tag k="ssr:stedsnr" v="796305" />
	</node>
	<node id="9972699742" lat="60.8674291" lon="4.926451" version="1" timestamp="2022-08-23T15:47:33Z" changeset="125278063" uid="3497659" user="NKA">
		<tag k="name" v="Vikingevåg" />
		<tag k="place" v="farm" />
		<tag k="ssr:stedsnr" v="974726" />
	</node>
	<node id="9972699743" lat="60.9075402" lon="5.1378748" version="1" timestamp="2022-08-23T15:47:33Z" changeset="125278063" uid="3497659" user="NKA">
		<tag k="name" v="Grinde" />
		<tag k="place" v="hamlet" />
		<tag k="ssr:stedsnr" v="129932" />
	</node>
	<node id="9972699744" lat="61.0539889" lon="5.5558448" version="1" timestamp="2022-08-23T15:47:33Z" changeset="125278063" uid="3497659" user="NKA">
		<tag k="alt_name" v="Uratun" />
		<tag k="name" v="Urdatun" />
		<tag k="place" v="farm" />
		<tag k="ssr:stedsnr" v="859030" />
	</node>
	<node id="9972699745" lat="60.8739361" lon="5.0148229" version="1" timestamp="2022-08-23T15:47:33Z" changeset="125278063" uid="3497659" user="NKA">
		<tag k="name" v="Stornesmarka" />
		<tag k="place" v="locality" />
		<tag k="ssr:stedsnr" v="880969" />
	</node>
	<node id="9972699746" lat="61.0632484" lon="5.567039" version="1" timestamp="2022-08-23T15:47:33Z" changeset="125278063" uid="3497659" user="NKA">
		<tag k="name" v="Haugen" />
		<tag k="place" v="farm" />
		<tag k="ssr:stedsnr" v="886082" />
	</node>
	<node id="9972699747" lat="60.9410916" lon="5.5234866" version="1" timestamp="2022-08-23T15:47:33Z" changeset="125278063" uid="3497659" user="NKA">
		<tag k="historic" v="shieling" />
		<tag k="name" v="Gamlestølen" />
		<tag k="place" v="isolated_dwelling" />
		<tag k="ssr:stedsnr" v="279675" />
	</node>
	<node id="9972699748" lat="60.9382695" lon="5.1154299" version="1" timestamp="2022-08-23T15:47:33Z" changeset="125278063" uid="3497659" user="NKA">
		<tag k="alt_name" v="Vikane" />
		<tag k="name" v="Vedvika" />
		<tag k="place" v="farm" />
		<tag k="ssr:stedsnr" v="614835" />
	</node>
	<node id="9972699749" lat="60.8921572" lon="5.0725438" version="1" timestamp="2022-08-23T15:47:33Z" changeset="125278063" uid="3497659" user="NKA">
		<tag k="name" v="Merkesdalen" />
		<tag k="place" v="hamlet" />
		<tag k="ssr:stedsnr" v="8462" />
	</node>
	<node id="9972699750" lat="60.904" lon="5.1017034" version="1" timestamp="2022-08-23T15:47:33Z" changeset="125278063" uid="3497659" user="NKA">
		<tag k="historic" v="shieling" />
		<tag k="name" v="Setrestølen" />
		<tag k="place" v="isolated_dwelling" />
		<tag k="ssr:stedsnr" v="824835" />
	</node>
	<node id="9972699751" lat="61.0319778" lon="5.5081838" version="1" timestamp="2022-08-23T15:47:33Z" changeset="125278063" uid="3497659" user="NKA">
		<tag k="name" v="Selbøen" />
		<tag k="place" v="locality" />
		<tag k="ssr:stedsnr" v="394945" />
	</node>
	<node id="9972699752" lat="60.8800215" lon="5.0241008" version="1" timestamp="2022-08-23T15:47:33Z" changeset="125278063" uid="3497659" user="NKA">
		<tag k="alt_name" v="Storenes" />
		<tag k="name" v="Storeneset" />
		<tag k="place" v="farm" />
		<tag k="ssr:stedsnr" v="433395" />
	</node>
	<node id="9972699753" lat="61.0492232" lon="5.0500392" version="1" timestamp="2022-08-23T15:47:33Z" changeset="125278063" uid="3497659" user="NKA">
		<tag k="alt_name" v="Fallebø" />
		<tag k="name" v="Fallebøen" />
		<tag k="old_name" v="Follebøen" />
		<tag k="place" v="hamlet" />
		<tag k="ssr:stedsnr" v="616427" />
	</node>
	<node id="9972699754" lat="60.8983386" lon="4.9826264" version="1" timestamp="2022-08-23T15:47:33Z" changeset="125278063" uid="3497659" user="NKA">
		<tag k="alt_name" v="Midbø" />
		<tag k="name" v="Midtbø" />
		<tag k="place" v="farm" />
		<tag k="ssr:stedsnr" v="918502" />
	</node>
	<node id="9972699755" lat="61.0545639" lon="5.5597503" version="1" timestamp="2022-08-23T15:47:33Z" changeset="125278063" uid="3497659" user="NKA">
		<tag k="name" v="Nyheim" />
		<tag k="place" v="farm" />
		<tag k="ssr:stedsnr" v="859029" />
	</node>
	<node id="9972699756" lat="60.8613028" lon="4.8945937" version="1" timestamp="2022-08-23T15:47:33Z" changeset="125278063" uid="3497659" user="NKA">
		<tag k="name" v="Brimnesstranda" />
		<tag k="place" v="hamlet" />
		<tag k="ssr:stedsnr" v="510407" />
	</node>
	<node id="9972699757" lat="60.89684" lon="5.0808586" version="1" timestamp="2022-08-23T15:47:33Z" changeset="125278063" uid="3497659" user="NKA">
		<tag k="name" v="Åsen" />
		<tag k="place" v="farm" />
		<tag k="ssr:stedsnr" v="129435" />
	</node>
	<node id="9972699758" lat="60.9000673" lon="5.0089113" version="1" timestamp="2022-08-23T15:47:33Z" changeset="125278063" uid="3497659" user="NKA">
		<tag k="name" v="Rørtveit" />
		<tag k="place" v="farm" />
		<tag k="ssr:stedsnr" v="251463" />
	</node>
	<node id="9972699759" lat="60.9287078" lon="5.0057824" version="1" timestamp="2022-08-23T15:47:33Z" changeset="125278063" uid="3497659" user="NKA">
		<tag k="alt_name" v="Lid" />
		<tag k="name" v="Li" />
		<tag k="place" v="hamlet" />
		<tag k="ssr:stedsnr" v="191465" />
	</node>
	<node id="9972699760" lat="60.9126182" lon="5.0359723" version="1" timestamp="2022-08-23T15:47:33Z" changeset="125278063" uid="3497659" user="NKA">
		<tag k="name" v="Lauvvik" />
		<tag k="place" v="farm" />
		<tag k="ssr:stedsnr" v="36474" />
	</node>
	<node id="9972699761" lat="60.9007167" lon="4.8481896" version="1" timestamp="2022-08-23T15:47:33Z" changeset="125278063" uid="3497659" user="NKA">
		<tag k="historic" v="shieling" />
		<tag k="name" v="Rodalsstølen" />
		<tag k="place" v="isolated_dwelling" />
		<tag k="ssr:stedsnr" v="460561" />
	</node>
	<node id="9972699762" lat="60.9978318" lon="4.9376867" version="1" timestamp="2022-08-23T15:47:33Z" changeset="125278063" uid="3497659" user="NKA">
		<tag k="alt_name" v="Rød" />
		<tag k="name" v="Rud" />
		<tag k="place" v="farm" />
		<tag k="ssr:stedsnr" v="68394" />
	</node>
	<node id="9972699763" lat="60.9563555" lon="5.0982006" version="1" timestamp="2022-08-23T15:47:33Z" changeset="125278063" uid="3497659" user="NKA">
		<tag k="name" v="Brandsdal" />
		<tag k="place" v="farm" />
		<tag k="ssr:stedsnr" v="858822" />
	</node>
	<node id="9972699764" lat="60.9548181" lon="5.074787" version="1" timestamp="2022-08-23T15:47:33Z" changeset="125278063" uid="3497659" user="NKA">
		<tag k="name" v="Nevedal" />
		<tag k="place" v="farm" />
		<tag k="ssr:stedsnr" v="858287" />
	</node>
	<node id="9972699765" lat="61.0152793" lon="5.4505197" version="1" timestamp="2022-08-23T15:47:33Z" changeset="125278063" uid="3497659" user="NKA">
		<tag k="name" v="Indre Brekke" />
		<tag k="place" v="farm" />
		<tag k="ssr:stedsnr" v="974738" />
	</node>
	<node id="9972699766" lat="60.9807304" lon="4.8228097" version="1" timestamp="2022-08-23T15:47:33Z" changeset="125278063" uid="3497659" user="NKA">
		<tag k="name" v="Hille" />
		<tag k="place" v="farm" />
		<tag k="ssr:stedsnr" v="7350" />
	</node>
	<node id="9972699767" lat="61.0270073" lon="5.3787914" version="1" timestamp="2022-08-23T15:47:33Z" changeset="125278063" uid="3497659" user="NKA">
		<tag k="name" v="Takle" />
		<tag k="place" v="hamlet" />
		<tag k="ssr:stedsnr" v="268044" />
	</node>
	<node id="9972699768" lat="60.97385" lon="5.3442032" version="1" timestamp="2022-08-23T15:47:33Z" changeset="125278063" uid="3497659" user="NKA">
		<tag k="historic" v="shieling" />
		<tag k="name" v="Austgulstølen" />
		<tag k="place" v="isolated_dwelling" />
		<tag k="ssr:stedsnr" v="130754" />
	</node>
	<node id="9972699769" lat="60.9149545" lon="4.9844052" version="1" timestamp="2022-08-23T15:47:33Z" changeset="125278063" uid="3497659" user="NKA">
		<tag k="name" v="Randal" />
		<tag k="place" v="hamlet" />
		<tag k="ssr:stedsnr" v="494442" />
	</node>
	<node id="9972699770" lat="60.9289955" lon="4.8226132" version="1" timestamp="2022-08-23T15:47:33Z" changeset="125278063" uid="3497659" user="NKA">
		<tag k="name" v="Grimestrand" />
		<tag k="place" v="farm" />
		<tag k="ssr:stedsnr" v="642581" />
	</node>
	<node id="9972699771" lat="60.944275" lon="5.357531" version="1" timestamp="2022-08-23T15:47:33Z" changeset="125278063" uid="3497659" user="NKA">
		<tag k="name" v="Oksebeitene" />
		<tag k="place" v="locality" />
		<tag k="ssr:stedsnr" v="279244" />
	</node>
	<node id="9972699772" lat="61.0015" lon="5.034509" version="1" timestamp="2022-08-23T15:47:33Z" changeset="125278063" uid="3497659" user="NKA">
		<tag k="alt_name" v="Mjånes" />
		<tag k="name" v="Mjåneset" />
		<tag k="place" v="farm" />
		<tag k="ssr:stedsnr" v="555364" />
	</node>
	<node id="9972699773" lat="61.0132737" lon="5.0389164" version="1" timestamp="2022-08-23T15:47:33Z" changeset="125278063" uid="3497659" user="NKA">
		<tag k="name" v="Tjuvvik" />
		<tag k="place" v="farm" />
		<tag k="ssr:stedsnr" v="631793" />
	</node>
	<node id="9972699774" lat="60.903864" lon="4.8378232" version="1" timestamp="2022-08-23T15:47:33Z" changeset="125278063" uid="3497659" user="NKA">
		<tag k="alt_name" v="Byrknes Nordre" />
		<tag k="name" v="Nordre Byrknes" />
		<tag k="place" v="hamlet" />
		<tag k="ssr:stedsnr" v="338515" />
	</node>
	<node id="9972699775" lat="61.000025" lon="5.2324144" version="1" timestamp="2022-08-23T15:47:33Z" changeset="125278063" uid="3497659" user="NKA">
		<tag k="historic" v="shieling" />
		<tag k="name" v="Havelandsstølen" />
		<tag k="place" v="isolated_dwelling" />
		<tag k="ssr:stedsnr" v="191881" />
	</node>
	<node id="9972699776" lat="60.9636027" lon="5.493556" version="1" timestamp="2022-08-23T15:47:33Z" changeset="125278063" uid="3497659" user="NKA">
		<tag k="alt_name" v="Fjordstølen" />
		<tag k="historic" v="shieling" />
		<tag k="name" v="Fjordsstølen" />
		<tag k="place" v="isolated_dwelling" />
		<tag k="ssr:stedsnr" v="69332" />
	</node>
	<node id="9972699777" lat="60.9628806" lon="5.2248088" version="1" timestamp="2022-08-23T15:47:33Z" changeset="125278063" uid="3497659" user="NKA">
		<tag k="name" v="Oppdalsøyra" />
		<tag k="place" v="hamlet" />
		<tag k="ssr:stedsnr" v="107411" />
	</node>
	<node id="9972699778" lat="60.946558" lon="5.3907785" version="1" timestamp="2022-08-23T15:47:33Z" changeset="125278063" uid="3497659" user="NKA">
		<tag k="name" v="Yndesdalen" />
		<tag k="place" v="hamlet" />
		<tag k="ssr:stedsnr" v="8873" />
	</node>
	<node id="9972699779" lat="61.022675" lon="5.5507254" version="1" timestamp="2022-08-23T15:47:33Z" changeset="125278063" uid="3497659" user="NKA">
		<tag k="alt_name" v="Ytre Oppedal støl" />
		<tag k="historic" v="shieling" />
		<tag k="name" v="Oppedalsstølen" />
		<tag k="place" v="isolated_dwelling" />
		<tag k="ssr:stedsnr" v="434004" />
	</node>
	<node id="9972699780" lat="60.9309728" lon="4.837189" version="1" timestamp="2022-08-23T15:47:33Z" changeset="125278063" uid="3497659" user="NKA">
		<tag k="name" v="Grima" />
		<tag k="place" v="hamlet" />
		<tag k="ssr:stedsnr" v="190257" />
	</node>
	<node id="9972699781" lat="61.0566972" lon="5.5600666" version="1" timestamp="2022-08-23T15:47:33Z" changeset="125278063" uid="3497659" user="NKA">
		<tag k="name" v="Dalsland" />
		<tag k="place" v="farm" />
		<tag k="ssr:stedsnr" v="764964" />
	</node>
	<node id="9972699782" lat="60.9687389" lon="5.0753023" version="1" timestamp="2022-08-23T15:47:33Z" changeset="125278063" uid="3497659" user="NKA">
		<tag k="name" v="Fonna" />
		<tag k="place" v="farm" />
		<tag k="ssr:stedsnr" v="146181" />
	</node>
	<node id="9972699783" lat="60.8634584" lon="5.1152847" version="1" timestamp="2022-08-23T15:47:33Z" changeset="125278063" uid="3497659" user="NKA">
		<tag k="name" v="Eide" />
		<tag k="place" v="hamlet" />
		<tag k="ssr:stedsnr" v="797984" />
	</node>
	<node id="9972699784" lat="61.0246622" lon="5.4550282" version="1" timestamp="2022-08-23T15:47:33Z" changeset="125278063" uid="3497659" user="NKA">
		<tag k="name" v="Egga" />
		<tag k="place" v="farm" />
		<tag k="ssr:stedsnr" v="212971" />
	</node>
	<node id="9972699785" lat="61.0257548" lon="5.4592961" version="1" timestamp="2022-08-23T15:47:33Z" changeset="125278063" uid="3497659" user="NKA">
		<tag k="name" v="Lovisendal" />
		<tag k="place" v="farm" />
		<tag k="ssr:stedsnr" v="919876" />
	</node>
	<node id="9972699786" lat="61.0052477" lon="5.5888639" version="1" timestamp="2022-08-23T15:47:33Z" changeset="125278063" uid="3497659" user="NKA">
		<tag k="historic" v="shieling" />
		<tag k="name" v="Inngardsstølen" />
		<tag k="place" v="isolated_dwelling" />
		<tag k="ssr:stedsnr" v="676019" />
	</node>
	<node id="9972699787" lat="61.01315" lon="5.3840477" version="1" timestamp="2022-08-23T15:47:33Z" changeset="125278063" uid="3497659" user="NKA">
		<tag k="historic" v="shieling" />
		<tag k="name" v="Midt-Taklestølen" />
		<tag k="old_name" v="Midt Taklestølen" />
		<tag k="place" v="isolated_dwelling" />
		<tag k="ssr:stedsnr" v="312909" />
	</node>
	<node id="9972699788" lat="60.9781983" lon="4.9973922" version="1" timestamp="2022-08-23T15:47:33Z" changeset="125278063" uid="3497659" user="NKA">
		<tag k="alt_name" v="Stevnebø" />
		<tag k="name" v="Stemnebø" />
		<tag k="place" v="farm" />
		<tag k="ssr:stedsnr" v="189319" />
	</node>
	<node id="9972699789" lat="60.9857449" lon="4.8847602" version="1" timestamp="2022-08-23T15:47:33Z" changeset="125278063" uid="3497659" user="NKA">
		<tag k="name" v="Søre Gladvær" />
		<tag k="place" v="farm" />
		<tag k="ssr:stedsnr" v="974734" />
	</node>
	<node id="9972699790" lat="60.9585395" lon="5.4214965" version="1" timestamp="2022-08-23T15:47:33Z" changeset="125278063" uid="3497659" user="NKA">
		<tag k="name" v="Verkland" />
		<tag k="place" v="hamlet" />
		<tag k="ssr:stedsnr" v="129816" />
	</node>
	<node id="9972699791" lat="61.0132767" lon="5.4543132" version="1" timestamp="2022-08-23T15:47:33Z" changeset="125278063" uid="3497659" user="NKA">
		<tag k="name" v="Haugland" />
		<tag k="place" v="hamlet" />
		<tag k="ssr:stedsnr" v="798903" />
	</node>
	<node id="9972699792" lat="60.975388" lon="5.0420122" version="1" timestamp="2022-08-23T15:47:33Z" changeset="125278063" uid="3497659" user="NKA">
		<tag k="name" v="Stranda" />
		<tag k="place" v="isolated_dwelling" />
		<tag k="ssr:stedsnr" v="753164" />
	</node>
	<node id="9972699793" lat="61.0284751" lon="5.4912924" version="1" timestamp="2022-08-23T15:47:33Z" changeset="125278063" uid="3497659" user="NKA">
		<tag k="name" v="Sætre" />
		<tag k="place" v="hamlet" />
		<tag k="ssr:stedsnr" v="70048" />
	</node>
	<node id="9972699794" lat="60.96355" lon="5.4458727" version="1" timestamp="2022-08-23T15:47:33Z" changeset="125278063" uid="3497659" user="NKA">
		<tag k="historic" v="shieling" />
		<tag k="name" v="Smedsdalstølen" />
		<tag k="place" v="isolated_dwelling" />
		<tag k="ssr:stedsnr" v="36055" />
	</node>
	<node id="9972699795" lat="61.0264016" lon="5.3812875" version="1" timestamp="2022-08-23T15:47:33Z" changeset="125278063" uid="3497659" user="NKA">
		<tag k="alt_name" v="Midtre Takle" />
		<tag k="name" v="Midt-Takle" />
		<tag k="old_name" v="Midt Takle" />
		<tag k="place" v="farm" />
		<tag k="ssr:stedsnr" v="9867" />
	</node>
	<node id="9972699796" lat="60.9985444" lon="5.5612448" version="1" timestamp="2022-08-23T15:47:33Z" changeset="125278063" uid="3497659" user="NKA">
		<tag k="alt_name" v="Verkmannstølen" />
		<tag k="historic" v="shieling" />
		<tag k="name" v="Fossedalsstølen" />
		<tag k="place" v="isolated_dwelling" />
		<tag k="ssr:stedsnr" v="858769" />
	</node>
	<node id="9972699797" lat="61.0077777" lon="5.5671671" version="1" timestamp="2022-08-23T15:47:33Z" changeset="125278063" uid="3497659" user="NKA">
		<tag k="historic" v="shieling" />
		<tag k="name" v="Gamlestølen" />
		<tag k="place" v="isolated_dwelling" />
		<tag k="ssr:stedsnr" v="946704" />
	</node>
	<node id="9972699798" lat="61.0067861" lon="5.4880226" version="1" timestamp="2022-08-23T15:47:33Z" changeset="125278063" uid="3497659" user="NKA">
		<tag k="historic" v="shieling" />
		<tag k="name" v="Øvrestølen" />
		<tag k="place" v="isolated_dwelling" />
		<tag k="ssr:stedsnr" v="636995" />
	</node>
	<node id="9972699799" lat="60.9983304" lon="5.5168663" version="1" timestamp="2022-08-23T15:47:33Z" changeset="125278063" uid="3497659" user="NKA">
		<tag k="alt_name" v="Asseimstølen" />
		<tag k="historic" v="shieling" />
		<tag k="name" v="Asheimstølen" />
		<tag k="place" v="isolated_dwelling" />
		<tag k="ssr:stedsnr" v="554779" />
	</node>
	<node id="9972699800" lat="60.9865241" lon="5.4837486" version="1" timestamp="2022-08-23T15:47:33Z" changeset="125278063" uid="3497659" user="NKA">
		<tag k="alt_name" v="Fjorden" />
		<tag k="name" v="Instefjord" />
		<tag k="place" v="hamlet" />
		<tag k="ssr:stedsnr" v="797752" />
	</node>
	<node id="9972699801" lat="60.9595287" lon="5.0437782" version="1" timestamp="2022-08-23T15:47:33Z" changeset="125278063" uid="3497659" user="NKA">
		<tag k="name" v="Vesetvika" />
		<tag k="place" v="farm" />
		<tag k="ssr:stedsnr" v="735295" />
	</node>
	<node id="9972699802" lat="60.9907583" lon="5.2679644" version="1" timestamp="2022-08-23T15:47:33Z" changeset="125278063" uid="3497659" user="NKA">
		<tag k="historic" v="shieling" />
		<tag k="name" v="Haugsstølen" />
		<tag k="place" v="isolated_dwelling" />
		<tag k="ssr:stedsnr" v="554151" />
	</node>
	<node id="9972699803" lat="61.0228416" lon="5.4941615" version="1" timestamp="2022-08-23T15:47:33Z" changeset="125278063" uid="3497659" user="NKA">
		<tag k="name" v="Lia" />
		<tag k="place" v="farm" />
		<tag k="ssr:stedsnr" v="313011" />
	</node>
	<node id="9972699804" lat="61.005579" lon="4.9628572" version="1" timestamp="2022-08-23T15:47:33Z" changeset="125278063" uid="3497659" user="NKA">
		<tag k="alt_name" v="Strømme" />
		<tag k="name" v="Straume" />
		<tag k="place" v="hamlet" />
		<tag k="ssr:stedsnr" v="495410" />
	</node>
	<node id="9972699805" lat="60.9771226" lon="5.2835011" version="1" timestamp="2022-08-23T15:47:33Z" changeset="125278063" uid="3497659" user="NKA">
		<tag k="alt_name" v="Kløvtveit" />
		<tag k="name" v="Klyvtveita" />
		<tag k="place" v="farm" />
		<tag k="ssr:stedsnr" v="8791" />
	</node>
	<node id="9972699806" lat="61.0287597" lon="5.4628262" version="1" timestamp="2022-08-23T15:47:33Z" changeset="125278063" uid="3497659" user="NKA">
		<tag k="name" v="Ortneset" />
		<tag k="place" v="hamlet" />
		<tag k="ssr:stedsnr" v="966876" />
	</node>
	<node id="9972699807" lat="60.8696215" lon="5.1175365" version="1" timestamp="2022-08-23T15:47:33Z" changeset="125278063" uid="3497659" user="NKA">
		<tag k="name" v="Neset" />
		<tag k="place" v="farm" />
		<tag k="ssr:stedsnr" v="520275" />
	</node>
	<node id="9972699808" lat="61.0695306" lon="5.1444727" version="1" timestamp="2022-08-23T15:47:33Z" changeset="125278063" uid="3497659" user="NKA">
		<tag k="alt_name" v="Brosvik" />
		<tag k="name" v="Brossvika" />
		<tag k="place" v="hamlet" />
		<tag k="ssr:stedsnr" v="312583" />
	</node>
	<node id="9972699809" lat="60.8499373" lon="4.9933499" version="1" timestamp="2022-08-23T15:47:33Z" changeset="125278063" uid="3497659" user="NKA">
		<tag k="name" v="Kittelsvik" />
		<tag k="place" v="hamlet" />
		<tag k="ssr:stedsnr" v="615366" />
	</node>
	<node id="9972699810" lat="61.0654606" lon="5.276001" version="1" timestamp="2022-08-23T15:47:33Z" changeset="125278063" uid="3497659" user="NKA">
		<tag k="name" v="Bålen" />
		<tag k="place" v="hamlet" />
		<tag k="ssr:stedsnr" v="494563" />
	</node>
	<node id="9972699811" lat="60.9346861" lon="5.2590394" version="1" timestamp="2022-08-23T15:47:33Z" changeset="125278063" uid="3497659" user="NKA">
		<tag k="historic" v="shieling" />
		<tag k="name" v="Elvestølen" />
		<tag k="place" v="isolated_dwelling" />
		<tag k="ssr:stedsnr" v="736857" />
	</node>
	<node id="9972699812" lat="60.9877611" lon="5.2925921" version="1" timestamp="2022-08-23T15:47:33Z" changeset="125278063" uid="3497659" user="NKA">
		<tag k="name" v="Solstrand" />
		<tag k="place" v="farm" />
		<tag k="ssr:stedsnr" v="736149" />
	</node>
	<node id="9972699813" lat="61.054125" lon="5.4962837" version="1" timestamp="2022-08-23T15:47:33Z" changeset="125278063" uid="3497659" user="NKA">
		<tag k="name" v="Nystrand" />
		<tag k="place" v="farm" />
		<tag k="ssr:stedsnr" v="798188" />
	</node>
	<node id="9972699814" lat="60.8779549" lon="5.1351085" version="1" timestamp="2022-08-23T15:47:33Z" changeset="125278063" uid="3497659" user="NKA">
		<tag k="alt_name" v="Høyvik" />
		<tag k="name" v="Høyvika" />
		<tag k="place" v="hamlet" />
		<tag k="ssr:stedsnr" v="736996" />
	</node>
	<node id="9972699815" lat="60.9226887" lon="5.050652" version="1" timestamp="2022-08-23T15:47:33Z" changeset="125278063" uid="3497659" user="NKA">
		<tag k="name" v="Bengen" />
		<tag k="place" v="farm" />
		<tag k="ssr:stedsnr" v="208041" />
	</node>
	<node id="9972699816" lat="60.9478777" lon="5.2161339" version="1" timestamp="2022-08-23T15:47:33Z" changeset="125278063" uid="3497659" user="NKA">
		<tag k="historic" v="shieling" />
		<tag k="name" v="Sanddalen" />
		<tag k="place" v="isolated_dwelling" />
		<tag k="ssr:stedsnr" v="675835" />
	</node>
	<node id="9972699817" lat="60.93765" lon="5.3215754" version="1" timestamp="2022-08-23T15:47:33Z" changeset="125278063" uid="3497659" user="NKA">
		<tag k="alt_name" v="Steinsdalstølen" />
		<tag k="historic" v="shieling" />
		<tag k="name" v="Steinsdalen" />
		<tag k="place" v="isolated_dwelling" />
		<tag k="ssr:stedsnr" v="736862" />
	</node>
	<node id="9972699818" lat="61.0632749" lon="5.0740269" version="1" timestamp="2022-08-23T15:47:33Z" changeset="125278063" uid="3497659" user="NKA">
		<tag k="alt_name" v="Øvre Sygnefest" />
		<tag k="name" v="Sygnefest" />
		<tag k="place" v="hamlet" />
		<tag k="ssr:stedsnr" v="96630" />
	</node>
	<node id="9972699819" lat="60.8872856" lon="5.0233046" version="1" timestamp="2022-08-23T15:47:33Z" changeset="125278063" uid="3497659" user="NKA">
		<tag k="alt_name" v="Nyhopen" />
		<tag k="name" v="Nyhop" />
		<tag k="place" v="farm" />
		<tag k="ssr:stedsnr" v="312420" />
	</node>
	<node id="9972699820" lat="61.0809262" lon="5.1723335" version="1" timestamp="2022-08-23T15:47:33Z" changeset="125278063" uid="3497659" user="NKA">
		<tag k="name" v="Kyrkøyna" />
		<tag k="place" v="farm" />
		<tag k="ssr:stedsnr" v="191530" />
	</node>
	<node id="9972699821" lat="61.0626463" lon="5.5561714" version="1" timestamp="2022-08-23T15:47:33Z" changeset="125278063" uid="3497659" user="NKA">
		<tag k="alt_name" v="Oppedal, in" />
		<tag k="name" v="Indre Oppedal" />
		<tag k="place" v="hamlet" />
		<tag k="ssr:stedsnr" v="495215" />
	</node>
	<node id="9972699822" lat="60.9287386" lon="5.1747951" version="1" timestamp="2022-08-23T15:47:33Z" changeset="125278063" uid="3497659" user="NKA">
		<tag k="name" v="Skogly" />
		<tag k="place" v="farm" />
		<tag k="ssr:stedsnr" v="582296" />
	</node>
	<node id="9972699823" lat="60.99015" lon="5.4014476" version="1" timestamp="2022-08-23T15:47:33Z" changeset="125278063" uid="3497659" user="NKA">
		<tag k="alt_name" v="Engeseterstølen" />
		<tag k="historic" v="shieling" />
		<tag k="name" v="Engesetstølen" />
		<tag k="place" v="isolated_dwelling" />
		<tag k="ssr:stedsnr" v="554161" />
	</node>
	<node id="9972699824" lat="61.0541481" lon="5.5017234" version="1" timestamp="2022-08-23T15:47:33Z" changeset="125278063" uid="3497659" user="NKA">
		<tag k="name" v="Nyheim" />
		<tag k="place" v="farm" />
		<tag k="ssr:stedsnr" v="279992" />
	</node>
	<node id="9972699825" lat="60.9790584" lon="5.5376088" version="1" timestamp="2022-08-23T15:47:33Z" changeset="125278063" uid="3497659" user="NKA">
		<tag k="name" v="Brørstølen" />
		<tag k="place" v="locality" />
		<tag k="ssr:stedsnr" v="736306" />
	</node>
	<node id="9972699826" lat="61.0081056" lon="5.1365617" version="1" timestamp="2022-08-23T15:47:33Z" changeset="125278063" uid="3497659" user="NKA">
		<tag k="alt_name" v="Midtundalstølen" />
		<tag k="historic" v="shieling" />
		<tag k="name" v="Midttundalsstølen" />
		<tag k="place" v="isolated_dwelling" />
		<tag k="ssr:stedsnr" v="191856" />
	</node>
	<node id="9972699827" lat="60.9815561" lon="5.081528" version="1" timestamp="2022-08-23T15:47:33Z" changeset="125278063" uid="3497659" user="NKA">
		<tag k="name" v="Haugane" />
		<tag k="place" v="farm" />
		<tag k="ssr:stedsnr" v="67352" />
	</node>
	<node id="9972699828" lat="61.0534205" lon="5.5129458" version="1" timestamp="2022-08-23T15:47:33Z" changeset="125278063" uid="3497659" user="NKA">
		<tag k="name" v="Gjersvollen" />
		<tag k="place" v="farm" />
		<tag k="ssr:stedsnr" v="279991" />
	</node>
	<node id="9972699829" lat="61.0294417" lon="5.1326117" version="1" timestamp="2022-08-23T15:47:33Z" changeset="125278063" uid="3497659" user="NKA">
		<tag k="historic" v="shieling" />
		<tag k="name" v="Vatnestølen" />
		<tag k="place" v="isolated_dwelling" />
		<tag k="ssr:stedsnr" v="555579" />
	</node>
	<node id="9972699830" lat="60.9419477" lon="5.1401102" version="1" timestamp="2022-08-23T15:47:33Z" changeset="125278063" uid="3497659" user="NKA">
		<tag k="name" v="Lund" />
		<tag k="place" v="farm" />
		<tag k="ssr:stedsnr" v="251850" />
	</node>
	<node id="9972699831" lat="60.9669602" lon="5.1900028" version="1" timestamp="2022-08-23T15:47:33Z" changeset="125278063" uid="3497659" user="NKA">
		<tag k="name" v="Levra" />
		<tag k="place" v="isolated_dwelling" />
		<tag k="ssr:stedsnr" v="328866" />
	</node>
	<node id="9972699832" lat="60.9162527" lon="5.1144807" version="1" timestamp="2022-08-23T15:47:33Z" changeset="125278063" uid="3497659" user="NKA">
		<tag k="name" v="Vestervik" />
		<tag k="place" v="farm" />
		<tag k="ssr:stedsnr" v="1082701" />
	</node>
	<node id="9972699833" lat="61.0554263" lon="5.0837062" version="1" timestamp="2022-08-23T15:47:33Z" changeset="125278063" uid="3497659" user="NKA">
		<tag k="name" v="Vatne" />
		<tag k="place" v="hamlet" />
		<tag k="ssr:stedsnr" v="494447" />
	</node>
	<node id="9972699834" lat="60.9908157" lon="5.0905695" version="1" timestamp="2022-08-23T15:47:33Z" changeset="125278063" uid="3497659" user="NKA">
		<tag k="alt_name" v="Midtun" />
		<tag k="name" v="Midttun" />
		<tag k="place" v="hamlet" />
		<tag k="ssr:stedsnr" v="250355" />
	</node>
	<node id="9972699835" lat="61.0767732" lon="5.1607381" version="1" timestamp="2022-08-23T15:47:33Z" changeset="125278063" uid="3497659" user="NKA">
		<tag k="name" v="Rutle" />
		<tag k="place" v="hamlet" />
		<tag k="ssr:stedsnr" v="252544" />
	</node>
	<node id="9972699836" lat="60.9305892" lon="5.1703574" version="1" timestamp="2022-08-23T15:47:33Z" changeset="125278063" uid="3497659" user="NKA">
		<tag k="alt_name" v="Nerdale" />
		<tag k="name" v="Nerdal" />
		<tag k="place" v="farm" />
		<tag k="ssr:stedsnr" v="433874" />
	</node>
	<node id="9972699837" lat="61.0172449" lon="5.4961067" version="1" timestamp="2022-08-23T15:47:33Z" changeset="125278063" uid="3497659" user="NKA">
		<tag k="alt_name" v="Asseim" />
		<tag k="name" v="Asheim" />
		<tag k="place" v="hamlet" />
		<tag k="ssr:stedsnr" v="920017" />
	</node>
	<node id="9972699838" lat="60.919175" lon="5.3338394" version="1" timestamp="2022-08-23T15:47:33Z" changeset="125278063" uid="3497659" user="NKA">
		<tag k="name" v="Sandvikane" />
		<tag k="place" v="locality" />
		<tag k="ssr:stedsnr" v="461417" />
	</node>
	<node id="9972699839" lat="60.9880764" lon="5.0995435" version="1" timestamp="2022-08-23T15:47:33Z" changeset="125278063" uid="3497659" user="NKA">
		<tag k="name" v="Henriksbø" />
		<tag k="place" v="hamlet" />
		<tag k="ssr:stedsnr" v="190142" />
	</node>
	<node id="9972699840" lat="60.9961546" lon="4.8883061" version="1" timestamp="2022-08-23T15:47:33Z" changeset="125278063" uid="3497659" user="NKA">
		<tag k="name" v="Nordre Gladvær" />
		<tag k="place" v="farm" />
		<tag k="ssr:stedsnr" v="974733" />
	</node>
	<node id="9972699841" lat="60.9828245" lon="5.0433793" version="1" timestamp="2022-08-23T15:47:33Z" changeset="125278063" uid="3497659" user="NKA">
		<tag k="name" v="Grønevika" />
		<tag k="place" v="farm" />
		<tag k="ssr:stedsnr" v="128314" />
	</node>
	<node id="9972699842" lat="60.9336717" lon="5.0851197" version="1" timestamp="2022-08-23T15:47:33Z" changeset="125278063" uid="3497659" user="NKA">
		<tag k="name" v="Brandsdal" />
		<tag k="place" v="hamlet" />
		<tag k="ssr:stedsnr" v="615473" />
	</node>
	<node id="9972699843" lat="60.9296495" lon="5.3434695" version="1" timestamp="2022-08-23T15:47:33Z" changeset="125278063" uid="3497659" user="NKA">
		<tag k="name" v="Ropehaugen" />
		<tag k="place" v="farm" />
		<tag k="ssr:stedsnr" v="69904" />
	</node>
	<node id="9972699844" lat="60.8554371" lon="5.1151742" version="1" timestamp="2022-08-23T15:47:33Z" changeset="125278063" uid="3497659" user="NKA">
		<tag k="name" v="Steine" />
		<tag k="place" v="hamlet" />
		<tag k="ssr:stedsnr" v="312541" />
	</node>
	<node id="9972699845" lat="60.9921889" lon="5.4018811" version="1" timestamp="2022-08-23T15:47:33Z" changeset="125278063" uid="3497659" user="NKA">
		<tag k="name" v="Tjukkefarbroren" />
		<tag k="place" v="locality" />
		<tag k="ssr:stedsnr" v="703023" />
	</node>
	<node id="9972699846" lat="60.9472856" lon="5.150879" version="1" timestamp="2022-08-23T15:47:33Z" changeset="125278063" uid="3497659" user="NKA">
		<tag k="name" v="Omdal" />
		<tag k="place" v="farm" />
		<tag k="ssr:stedsnr" v="9816" />
	</node>
	<node id="9972699847" lat="60.9622938" lon="5.2230597" version="1" timestamp="2022-08-23T15:47:33Z" changeset="125278063" uid="3497659" user="NKA">
		<tag k="name" v="Nedre Oppdal" />
		<tag k="old_name" v="Uppdal, nedre;Nedre Uppdal" />
		<tag k="place" v="farm" />
		<tag k="ssr:stedsnr" v="130747" />
	</node>
	<node id="9972699848" lat="61.0204778" lon="5.5752782" version="1" timestamp="2022-08-23T15:47:33Z" changeset="125278063" uid="3497659" user="NKA">
		<tag k="alt_name" v="Dalsetra" />
		<tag k="historic" v="shieling" />
		<tag k="name" v="Dalsætre" />
		<tag k="place" v="isolated_dwelling" />
		<tag k="ssr:stedsnr" v="737021" />
	</node>
	<node id="9972699849" lat="60.9140204" lon="5.1353863" version="1" timestamp="2022-08-23T15:47:33Z" changeset="125278063" uid="3497659" user="NKA">
		<tag k="name" v="Galten" />
		<tag k="place" v="farm" />
		<tag k="ssr:stedsnr" v="676847" />
	</node>
	<node id="9972699850" lat="60.9357767" lon="5.1463927" version="1" timestamp="2022-08-23T15:47:33Z" changeset="125278063" uid="3497659" user="NKA">
		<tag k="name" v="Myre" />
		<tag k="place" v="farm" />
		<tag k="ssr:stedsnr" v="129867" />
	</node>
	<node id="9972699851" lat="60.9135643" lon="5.0312799" version="1" timestamp="2022-08-23T15:47:33Z" changeset="125278063" uid="3497659" user="NKA">
		<tag k="name" v="Neset" />
		<tag k="place" v="farm" />
		<tag k="ssr:stedsnr" v="946486" />
	</node>
	<node id="9972699852" lat="61.0456234" lon="5.2990364" version="1" timestamp="2022-08-23T15:47:33Z" changeset="125278063" uid="3497659" user="NKA">
		<tag k="alt_name" v="Hjartholm, ytre" />
		<tag k="name" v="Ytre Hjartholm" />
		<tag k="place" v="hamlet" />
		<tag k="ssr:stedsnr" v="373628" />
	</node>
	<node id="9972699853" lat="60.9515194" lon="5.2999756" version="1" timestamp="2022-08-23T15:47:33Z" changeset="125278063" uid="3497659" user="NKA">
		<tag k="alt_name" v="Transdalsstølen" />
		<tag k="historic" v="shieling" />
		<tag k="name" v="Transdalen" />
		<tag k="place" v="isolated_dwelling" />
		<tag k="ssr:stedsnr" v="311870" />
	</node>
	<node id="9972699854" lat="60.9333004" lon="5.1358678" version="1" timestamp="2022-08-23T15:47:33Z" changeset="125278063" uid="3497659" user="NKA">
		<tag k="name" v="Dalsøyra" />
		<tag k="place" v="village" />
		<tag k="ssr:stedsnr" v="919851" />
	</node>
	<node id="9972699855" lat="60.9489748" lon="5.2451934" version="1" timestamp="2022-08-23T15:47:33Z" changeset="125278063" uid="3497659" user="NKA">
		<tag k="alt_name" v="Kjelby;Kjelbju" />
		<tag k="name" v="Kjellbju" />
		<tag k="place" v="hamlet" />
		<tag k="ssr:stedsnr" v="129837" />
	</node>
	<node id="9972699856" lat="60.9444481" lon="5.1843003" version="1" timestamp="2022-08-23T15:47:33Z" changeset="125278063" uid="3497659" user="NKA">
		<tag k="alt_name" v="Norddal, l" />
		<tag k="name" v="Litle Norddal" />
		<tag k="place" v="farm" />
		<tag k="ssr:stedsnr" v="8849" />
	</node>
	<node id="9972699857" lat="60.9537556" lon="5.234467" version="1" timestamp="2022-08-23T15:47:33Z" changeset="125278063" uid="3497659" user="NKA">
		<tag k="name" v="Krossvoll" />
		<tag k="place" v="farm" />
		<tag k="ssr:stedsnr" v="8855" />
	</node>
	<node id="9972699858" lat="60.9313097" lon="5.144001" version="1" timestamp="2022-08-23T15:47:33Z" changeset="125278063" uid="3497659" user="NKA">
		<tag k="name" v="Lundvang" />
		<tag k="place" v="farm" />
		<tag k="ssr:stedsnr" v="880867" />
	</node>
	<node id="9972699859" lat="60.9166198" lon="5.0325794" version="1" timestamp="2022-08-23T15:47:33Z" changeset="125278063" uid="3497659" user="NKA">
		<tag k="alt_name" v="Furnes" />
		<tag k="name" v="Furenes" />
		<tag k="place" v="hamlet" />
		<tag k="ssr:stedsnr" v="615462" />
	</node>
	<node id="9972699860" lat="60.9344867" lon="5.1365353" version="1" timestamp="2022-08-23T15:47:33Z" changeset="125278063" uid="3497659" user="NKA">
		<tag k="name" v="Lihaug" />
		<tag k="place" v="neighbourhood" />
		<tag k="ssr:stedsnr" v="845890" />
	</node>
	<node id="9972699861" lat="61.0338775" lon="5.3166034" version="1" timestamp="2022-08-23T15:47:33Z" changeset="125278063" uid="3497659" user="NKA">
		<tag k="alt_name" v="Hjartholm, indre;Hjartholm Indre" />
		<tag k="name" v="Indre Hjartholm" />
		<tag k="place" v="hamlet" />
		<tag k="ssr:stedsnr" v="859870" />
	</node>
	<node id="9972699862" lat="61.0531555" lon="5.2353339" version="1" timestamp="2022-08-23T15:47:33Z" changeset="125278063" uid="3497659" user="NKA">
		<tag k="historic" v="shieling" />
		<tag k="name" v="Breiddalen" />
		<tag k="place" v="isolated_dwelling" />
		<tag k="ssr:stedsnr" v="677624" />
	</node>
	<node id="9972699863" lat="60.9326438" lon="5.1718316" version="1" timestamp="2022-08-23T15:47:33Z" changeset="125278063" uid="3497659" user="NKA">
		<tag k="name" v="Halland" />
		<tag k="place" v="farm" />
		<tag k="ssr:stedsnr" v="858879" />
	</node>
	<node id="9972699864" lat="60.9000175" lon="4.9642823" version="1" timestamp="2022-08-23T15:47:33Z" changeset="125278063" uid="3497659" user="NKA">
		<tag k="alt_name" v="Tunsberg" />
		<tag k="name" v="Tunsberget" />
		<tag k="place" v="farm" />
		<tag k="ssr:stedsnr" v="858465" />
	</node>
	<node id="9972699865" lat="60.9182521" lon="5.1326653" version="1" timestamp="2022-08-23T15:47:33Z" changeset="125278063" uid="3497659" user="NKA">
		<tag k="name" v="Rosendal" />
		<tag k="place" v="farm" />
		<tag k="ssr:stedsnr" v="450800" />
	</node>
	<node id="9972699866" lat="60.943741" lon="5.1738279" version="1" timestamp="2022-08-23T15:47:33Z" changeset="125278063" uid="3497659" user="NKA">
		<tag k="alt_name" v="Nordal;Norddal, store" />
		<tag k="name" v="Store Norddal" />
		<tag k="place" v="farm" />
		<tag k="ssr:stedsnr" v="675846" />
	</node>
	<node id="9972699867" lat="61.0450481" lon="5.2592115" version="1" timestamp="2022-08-23T15:47:33Z" changeset="125278063" uid="3497659" user="NKA">
		<tag k="historic" v="shieling" />
		<tag k="name" v="Øyrane" />
		<tag k="place" v="isolated_dwelling" />
		<tag k="ssr:stedsnr" v="616613" />
	</node>
	<node id="9972699868" lat="61.0253444" lon="5.4516393" version="1" timestamp="2022-08-23T15:47:33Z" changeset="125278063" uid="3497659" user="NKA">
		<tag k="name" v="Eggheim" />
		<tag k="place" v="farm" />
		<tag k="ssr:stedsnr" v="554898" />
	</node>
	<node id="9972699869" lat="60.9988806" lon="5.3391089" version="1" timestamp="2022-08-23T15:47:33Z" changeset="125278063" uid="3497659" user="NKA">
		<tag k="name" v="Træet" />
		<tag k="place" v="locality" />
		<tag k="ssr:stedsnr" v="521242" />
	</node>
	<node id="9972699870" lat="60.9281167" lon="5.0472452" version="1" timestamp="2022-08-23T15:47:33Z" changeset="125278063" uid="3497659" user="NKA">
		<tag k="alt_name" v="Kalvheim" />
		<tag k="name" v="Kalheim" />
		<tag k="place" v="farm" />
		<tag k="ssr:stedsnr" v="191473" />
	</node>
	<node id="9972699871" lat="60.9346267" lon="5.0034626" version="1" timestamp="2022-08-23T15:47:33Z" changeset="125278063" uid="3497659" user="NKA">
		<tag k="alt_name" v="Gråtnes" />
		<tag k="name" v="Grotteneset" />
		<tag k="place" v="farm" />
		<tag k="ssr:stedsnr" v="858248" />
	</node>
	<node id="9972699872" lat="61.0214361" lon="5.3528978" version="1" timestamp="2022-08-23T15:47:33Z" changeset="125278063" uid="3497659" user="NKA">
		<tag k="historic" v="shieling" />
		<tag k="name" v="Ytst-Taklestølen" />
		<tag k="old_name" v="Ytst Taklestølen" />
		<tag k="place" v="isolated_dwelling" />
		<tag k="ssr:stedsnr" v="554942" />
	</node>
	<node id="9972699873" lat="61.0294971" lon="5.3770846" version="1" timestamp="2022-08-23T15:47:33Z" changeset="125278063" uid="3497659" user="NKA">
		<tag k="alt_name" v="Ytre Takle" />
		<tag k="name" v="Ytst-Takle" />
		<tag k="place" v="farm" />
		<tag k="ssr:stedsnr" v="554897" />
	</node>
	<node id="9972699874" lat="60.9791917" lon="5.502017" version="1" timestamp="2022-08-23T15:47:33Z" changeset="125278063" uid="3497659" user="NKA">
		<tag k="historic" v="shieling" />
		<tag k="name" v="Gamlestølen" />
		<tag k="place" v="isolated_dwelling" />
		<tag k="ssr:stedsnr" v="642784" />
	</node>
	<node id="9972699875" lat="60.9953083" lon="4.9276952" version="1" timestamp="2022-08-23T15:47:33Z" changeset="125278063" uid="3497659" user="NKA">
		<tag k="alt_name" v="Rossnes" />
		<tag k="name" v="Rudsnes" />
		<tag k="place" v="farm" />
		<tag k="ssr:stedsnr" v="492352" />
	</node>
	<node id="9972699876" lat="60.9275306" lon="4.8616313" version="1" timestamp="2022-08-23T15:47:33Z" changeset="125278063" uid="3497659" user="NKA">
		<tag k="historic" v="shieling" />
		<tag k="name" v="Risøystølen" />
		<tag k="place" v="isolated_dwelling" />
		<tag k="ssr:stedsnr" v="946555" />
	</node>
	<node id="9972699877" lat="60.930627" lon="4.821042" version="1" timestamp="2022-08-23T15:47:33Z" changeset="125278063" uid="3497659" user="NKA">
		<tag k="name" v="Blomholmen" />
		<tag k="place" v="farm" />
		<tag k="ssr:stedsnr" v="974729" />
	</node>
	<node id="9972699878" lat="60.9016953" lon="4.9277332" version="1" timestamp="2022-08-23T15:47:33Z" changeset="125278063" uid="3497659" user="NKA">
		<tag k="name" v="Nappen" />
		<tag k="place" v="farm" />
		<tag k="ssr:stedsnr" v="493431" />
	</node>
	<node id="9972699879" lat="61.0549278" lon="5.1879701" version="1" timestamp="2022-08-23T15:47:33Z" changeset="125278063" uid="3497659" user="NKA">
		<tag k="alt_name" v="Granlund" />
		<tag k="name" v="Utløebotnen" />
		<tag k="place" v="farm" />
		<tag k="ssr:stedsnr" v="130587" />
	</node>
	<node id="9972699880" lat="61.06144" lon="5.0615361" version="1" timestamp="2022-08-23T15:47:33Z" changeset="125278063" uid="3497659" user="NKA">
		<tag k="name" v="Risa" />
		<tag k="place" v="farm" />
		<tag k="ssr:stedsnr" v="9238" />
	</node>
	<node id="9972699881" lat="61.0701892" lon="5.1880285" version="1" timestamp="2022-08-23T15:47:33Z" changeset="125278063" uid="3497659" user="NKA">
		<tag k="name" v="Rutledal" />
		<tag k="old_name" v="Rutledalen" />
		<tag k="place" v="hamlet" />
		<tag k="ssr:stedsnr" v="85034" />
	</node>
	<node id="9972699882" lat="61.0076389" lon="5.4084616" version="1" timestamp="2022-08-23T15:47:33Z" changeset="125278063" uid="3497659" user="NKA">
		<tag k="historic" v="shieling" />
		<tag k="name" v="Gamlestølen" />
		<tag k="place" v="isolated_dwelling" />
		<tag k="ssr:stedsnr" v="273678" />
	</node>
	<node id="9972699883" lat="60.9263825" lon="5.1740164" version="1" timestamp="2022-08-23T15:47:33Z" changeset="125278063" uid="3497659" user="NKA">
		<tag k="alt_name" v="Vyrkjesdal;Virkesdal" />
		<tag k="name" v="Vyrkesdal" />
		<tag k="place" v="farm" />
		<tag k="ssr:stedsnr" v="69914" />
	</node>
	<node id="9972699884" lat="61.0117898" lon="5.454048" version="1" timestamp="2022-08-23T15:47:33Z" changeset="125278063" uid="3497659" user="NKA">
		<tag k="name" v="Øvre Haugland" />
		<tag k="place" v="farm" />
		<tag k="ssr:stedsnr" v="769687" />
	</node>
	<node id="9972699885" lat="61.0203962" lon="5.4594427" version="1" timestamp="2022-08-23T15:47:33Z" changeset="125278063" uid="3497659" user="NKA">
		<tag k="name" v="Ytre Brekke" />
		<tag k="place" v="farm" />
		<tag k="ssr:stedsnr" v="974739" />
	</node>
	<node id="9972699886" lat="60.8498425" lon="5.0993634" version="1" timestamp="2022-08-23T15:47:33Z" changeset="125278063" uid="3497659" user="NKA">
		<tag k="alt_name" v="Halsvik" />
		<tag k="name" v="Halsvika" />
		<tag k="place" v="farm" />
		<tag k="ssr:stedsnr" v="433508" />
	</node>
	<node id="9972699887" lat="60.9867055" lon="5.4422699" version="1" timestamp="2022-08-23T15:47:33Z" changeset="125278063" uid="3497659" user="NKA">
		<tag k="name" v="Basestølen" />
		<tag k="place" v="locality" />
		<tag k="ssr:stedsnr" v="946010" />
	</node>
	<node id="9972699888" lat="61.0516056" lon="5.5200116" version="1" timestamp="2022-08-23T15:47:33Z" changeset="125278063" uid="3497659" user="NKA">
		<tag k="name" v="Storegjerdet" />
		<tag k="place" v="farm" />
		<tag k="ssr:stedsnr" v="737032" />
	</node>
	<node id="9972699889" lat="61.0257989" lon="5.0523651" version="1" timestamp="2022-08-23T15:47:33Z" changeset="125278063" uid="3497659" user="NKA">
		<tag k="name" v="Dingja" />
		<tag k="place" v="village" />
		<tag k="ssr:stedsnr" v="130420" />
	</node>
	<node id="9972699890" lat="60.982308" lon="5.0957253" version="1" timestamp="2022-08-23T15:47:33Z" changeset="125278063" uid="3497659" user="NKA">
		<tag k="name" v="Undertun" />
		<tag k="place" v="farm" />
		<tag k="ssr:stedsnr" v="433137" />
	</node>
	<node id="9972699891" lat="60.9399" lon="5.3959449" version="1" timestamp="2022-08-23T15:47:33Z" changeset="125278063" uid="3497659" user="NKA">
		<tag k="name" v="Øybøen" />
		<tag k="place" v="locality" />
		<tag k="ssr:stedsnr" v="461023" />
	</node>
	<node id="9972699892" lat="60.8953501" lon="5.0856496" version="1" timestamp="2022-08-23T15:47:33Z" changeset="125278063" uid="3497659" user="NKA">
		<tag k="name" v="Svardalen" />
		<tag k="place" v="hamlet" />
		<tag k="ssr:stedsnr" v="8480" />
	</node>
	<node id="9972699893" lat="60.9409666" lon="5.4408672" version="1" timestamp="2022-08-23T15:47:33Z" changeset="125278063" uid="3497659" user="NKA">
		<tag k="name" v="Tynningestølen" />
		<tag k="place" v="locality" />
		<tag k="ssr:stedsnr" v="312835" />
	</node>
	<node id="9972699894" lat="61.0035278" lon="5.4387699" version="1" timestamp="2022-08-23T15:47:33Z" changeset="125278063" uid="3497659" user="NKA">
		<tag k="name" v="Toregjerdet" />
		<tag k="place" v="farm" />
		<tag k="ssr:stedsnr" v="676913" />
	</node>
</osm>
