<?xml version="1.0" encoding="UTF-8"?>
<osm generator="osmapis" version="0.6">
	<node id="-791637" lat="70.4693611167" lon="24.2738248718">
		<tag k="name" v="Goradakneset" />
		<tag k="name:se" v="Goradakneset" />
		<tag k="natural" v="cape" />
		<tag k="ssr:stedsnr" v="296164" />
	</node>
	<node id="-792566" lat="70.6691750009" lon="24.2771304371">
		<tag k="name" v="Elvvika" />
		<tag k="natural" v="bay" />
		<tag k="ssr:stedsnr" v="748152" />
	</node>
	<node id="-792565" lat="70.642811117" lon="24.1109276614">
		<tag k="alt_name" v="Kalvika, in" />
		<tag k="fixme" v="multiple name tags, choose one and add the other to alt_name" />
		<tag k="name" v="Kalvika;Indre Kalvika" />
		<tag k="natural" v="bay" />
		<tag k="ssr:stedsnr" v="748145" />
	</node>
	<node id="-792564" lat="70.6461611186" lon="24.178383215">
		<tag k="name" v="Nyklakken" />
		<tag k="natural" v="shoal" />
		<tag k="place" v="locality" />
		<tag k="ssr:stedsnr" v="748146" />
	</node>
	<node id="-792160" lat="70.4937250051" lon="24.1973471068">
		<tag k="bay" v="fjord" />
		<tag k="name" v="Repparfjorden - Riehpovuotna" />
		<tag k="name:no" v="Repparfjorden" />
		<tag k="name:se" v="Riehpovuotna" />
		<tag k="natural" v="bay" />
		<tag k="old_name:se" v="Rieppuvuodna" />
		<tag k="ssr:stedsnr" v="263835" />
	</node>
	<node id="-792044" lat="70.4997805583" lon="24.0750165598">
		<tag k="name" v="Leirbukt" />
		<tag k="natural" v="bay" />
		<tag k="ssr:stedsnr" v="150996" />
	</node>
	<node id="-792042" lat="70.512477781" lon="24.0423693194">
		<tag k="name" v="Yttertappen" />
		<tag k="natural" v="cape" />
		<tag k="ssr:stedsnr" v="150990" />
	</node>
	<node id="-792551" lat="70.3888916665" lon="23.4816693478">
		<tag k="name" v="Olderbukta" />
		<tag k="natural" v="bay" />
		<tag k="ssr:stedsnr" v="747768" />
	</node>
	<node id="-792034" lat="70.5083000029" lon="23.8738499027">
		<tag k="name" v="Falkeredebukta" />
		<tag k="natural" v="bay" />
		<tag k="ssr:stedsnr" v="150545" />
	</node>
	<node id="-792032" lat="70.451411118" lon="23.7834915572">
		<tag k="fixme" v="consider seamark:type=rock or natural=shoal" />
		<tag k="name" v="Kvitnesskjæret" />
		<tag k="place" v="islet" />
		<tag k="ssr:stedsnr" v="146779" />
	</node>
	<node id="-791717" lat="70.6605000028" lon="24.2473387599">
		<tag k="name" v="Kråkefjellneset" />
		<tag k="natural" v="cape" />
		<tag k="ssr:stedsnr" v="383126" />
	</node>
	<node id="-792028" lat="70.437508337" lon="23.6365054593">
		<tag k="name" v="Rastabynes" />
		<tag k="natural" v="cape" />
		<tag k="ssr:stedsnr" v="141972" />
	</node>
	<node id="-792025" lat="70.4847500057" lon="24.2245359831">
		<tag k="name" v="Fægfjordneset - Veaiggosvuonnjárga" />
		<tag k="name:no" v="Fægfjordneset" />
		<tag k="name:se" v="Veaiggosvuonnjárga" />
		<tag k="natural" v="cape" />
		<tag k="old_name:se" v="Væigusvuonnjarga" />
		<tag k="ssr:stedsnr" v="141829" />
	</node>
	<node id="-792536" lat="70.4881944493" lon="24.1552721116">
		<tag k="name" v="Indre Fiskevik" />
		<tag k="natural" v="bay" />
		<tag k="ssr:stedsnr" v="720217" />
	</node>
	<node id="-792535" lat="70.6989500026" lon="24.3387526555">
		<tag k="name" v="Landbåen" />
		<tag k="natural" v="shoal" />
		<tag k="place" v="locality" />
		<tag k="ssr:stedsnr" v="715958" />
	</node>
	<node id="-792534" lat="70.4974916722" lon="24.2189776697">
		<tag k="name" v="Megrunnen" />
		<tag k="natural" v="shoal" />
		<tag k="place" v="locality" />
		<tag k="ssr:stedsnr" v="715815" />
	</node>
	<node id="-792009" lat="70.5660750073" lon="24.0412498797">
		<tag k="loc_name:se" v="Suovdeluokta" />
		<tag k="name" v="Toknebukta" />
		<tag k="name:no" v="Toknebukta" />
		<tag k="natural" v="bay" />
		<tag k="ssr:stedsnr" v="141785" />
	</node>
	<node id="-792007" lat="70.5239305609" lon="24.1792165612">
		<tag k="name" v="Oldervika - Leaibeluokta" />
		<tag k="name:no" v="Oldervika" />
		<tag k="name:se" v="Leaibeluokta" />
		<tag k="natural" v="bay" />
		<tag k="old_name:se" v="Læibeluokta" />
		<tag k="ssr:stedsnr" v="141763" />
	</node>
	<node id="-792737" lat="70.4975916695" lon="24.0883276737">
		<tag k="alt_name" v="Jakobsneset" />
		<tag k="name" v="Langøra" />
		<tag k="natural" v="cape" />
		<tag k="ssr:stedsnr" v="870825" />
	</node>
	<node id="-792515" lat="70.4805083319" lon="24.2217248845">
		<tag k="name" v="Fægfjorden - Veaiggosvuotna" />
		<tag k="name:no" v="Fægfjorden" />
		<tag k="name:se" v="Veaiggosvuotna" />
		<tag k="natural" v="bay" />
		<tag k="old_name:se" v="Væigusvuodna" />
		<tag k="ssr:stedsnr" v="688834" />
	</node>
	<node id="-792513" lat="70.5334944501" lon="24.1125804324">
		<tag k="name" v="Klubbukta" />
		<tag k="natural" v="bay" />
		<tag k="ssr:stedsnr" v="688793" />
	</node>
	<node id="-792512" lat="70.7263750038" lon="24.2351748761">
		<tag k="alt_name" v="Andøvergrunnen" />
		<tag k="name" v="Andøvegrunnen" />
		<tag k="natural" v="shoal" />
		<tag k="place" v="locality" />
		<tag k="ssr:stedsnr" v="688176" />
	</node>
	<node id="-791999" lat="70.7205638925" lon="24.3926554333">
		<tag k="name" v="Stakgrunnen" />
		<tag k="natural" v="shoal" />
		<tag k="place" v="locality" />
		<tag k="ssr:stedsnr" v="141183" />
	</node>
	<node id="-791998" lat="70.6491749999" lon="24.0710248761">
		<tag k="bay" v="fjord" />
		<tag k="name" v="Ytre Torskefjorden - Olggut Dorskavuotna" />
		<tag k="name:no" v="Ytre Torskefjorden" />
		<tag k="name:se" v="Olggut Dorskavuotna" />
		<tag k="natural" v="bay" />
		<tag k="old_name:se" v="Dårskavuodna ålgot" />
		<tag k="ssr:stedsnr" v="141154" />
	</node>
	<node id="-791997" lat="70.6832250028" lon="24.3236304353">
		<tag k="name" v="Bekkarbukta" />
		<tag k="natural" v="bay" />
		<tag k="ssr:stedsnr" v="141143" />
	</node>
	<node id="-791992" lat="70.4107888945" lon="23.5526721301">
		<tag k="alt_name:no" v="Oldervika" />
		<tag k="name" v="Olderbukta - Guicagohppi" />
		<tag k="name:no" v="Olderbukta" />
		<tag k="name:se" v="Guicagohppi" />
		<tag k="natural" v="bay" />
		<tag k="old_name:se" v="Guicagåppi" />
		<tag k="ssr:stedsnr" v="140988" />
	</node>
	<node id="-791986" lat="70.4791138922" lon="24.263399878">
		<tag k="name" v="Markoppneset" />
		<tag k="natural" v="cape" />
		<tag k="ssr:stedsnr" v="140847" />
	</node>
	<node id="-792496" lat="70.6404388911" lon="24.5647693145">
		<tag k="name" v="Turnesbukta - Durenjárgávva" />
		<tag k="name:no" v="Turnesbukta" />
		<tag k="name:se" v="Durenjárgávva" />
		<tag k="natural" v="bay" />
		<tag k="old_name:se" v="Durenjargavva" />
		<tag k="ssr:stedsnr" v="687774" />
	</node>
	<node id="-791982" lat="70.4572833399" lon="24.3193554177">
		<tag k="name" v="Strandnes" />
		<tag k="natural" v="cape" />
		<tag k="ssr:stedsnr" v="140863" />
	</node>
	<node id="-791965" lat="70.4866861117" lon="23.6655193395">
		<tag k="name" v="Skjærgrunnen" />
		<tag k="natural" v="shoal" />
		<tag k="place" v="locality" />
		<tag k="ssr:stedsnr" v="94163" />
	</node>
	<node id="-791967" lat="70.6327333383" lon="24.1721582122">
		<tag k="name" v="Lars-Henriks sette" />
		<tag k="natural" v="shoal" />
		<tag k="place" v="locality" />
		<tag k="ssr:stedsnr" v="108557" />
	</node>
	<node id="-791966" lat="70.484136112" lon="23.6525665668">
		<tag k="fixme" v="consider seamark:type=rock or natural=shoal" />
		<tag k="name" v="Komagskjæret" />
		<tag k="place" v="islet" />
		<tag k="ssr:stedsnr" v="94166" />
	</node>
	<node id="-792477" lat="70.6666777797" lon="24.4696220748">
		<tag k="name" v="Ljåvika - Liššagohppi" />
		<tag k="name:no" v="Ljåvika" />
		<tag k="name:se" v="Liššagohppi" />
		<tag k="natural" v="bay" />
		<tag k="old_name:se" v="Liššagåppi" />
		<tag k="ssr:stedsnr" v="687148" />
	</node>
	<node id="-792476" lat="70.6576305617" lon="24.5210415403">
		<tag k="name" v="Larsvika - Lásseluokta" />
		<tag k="name:no" v="Larsvika" />
		<tag k="name:se" v="Lásseluokta" />
		<tag k="natural" v="bay" />
		<tag k="old_name:se" v="Lasseluokta" />
		<tag k="ssr:stedsnr" v="687136" />
	</node>
	<node id="-792475" lat="70.6881999988" lon="24.4796054267">
		<tag k="name" v="Ljånesgrunnen" />
		<tag k="natural" v="shoal" />
		<tag k="place" v="locality" />
		<tag k="ssr:stedsnr" v="687130" />
	</node>
	<node id="-792469" lat="70.5406861145" lon="23.6837165629">
		<tag k="fixme" v="consider seamark:type=rock or natural=shoal" />
		<tag k="name" v="Skjåholmskjæret" />
		<tag k="place" v="islet" />
		<tag k="ssr:stedsnr" v="639793" />
	</node>
	<node id="-792468" lat="70.5583222217" lon="23.6498471308">
		<tag k="name" v="Grøtnesgrunnen" />
		<tag k="natural" v="shoal" />
		<tag k="place" v="locality" />
		<tag k="ssr:stedsnr" v="638394" />
	</node>
	<node id="-792467" lat="70.511822222" lon="24.0231443306">
		<tag k="name" v="Fribergbukta" />
		<tag k="natural" v="bay" />
		<tag k="ssr:stedsnr" v="635995" />
	</node>
	<node id="-792257" lat="70.6468333333" lon="24.0772443461">
		<tag k="name" v="Karineset" />
		<tag k="natural" v="cape" />
		<tag k="ssr:stedsnr" v="505146" />
	</node>
	<node id="-791950" lat="70.507694444" lon="23.9071943326">
		<tag k="name" v="Akkarnesbukta" />
		<tag k="natural" v="bay" />
		<tag k="ssr:stedsnr" v="89747" />
	</node>
	<node id="-792813" lat="70.7142805597" lon="24.3409804298">
		<tag k="alt_name" v="Nesegrunnen, øvre" />
		<tag k="name" v="Øvre Nesegrunnen" />
		<tag k="natural" v="shoal" />
		<tag k="place" v="locality" />
		<tag k="ssr:stedsnr" v="931191" />
	</node>
	<node id="-791948" lat="70.509536116" lon="23.8250332234">
		<tag k="name" v="Lábbágohppi" />
		<tag k="name:se" v="Lábbágohppi" />
		<tag k="natural" v="bay" />
		<tag k="ssr:stedsnr" v="89613" />
	</node>
	<node id="-792459" lat="70.509850007" lon="23.9663943467">
		<tag k="name" v="Solladabukta" />
		<tag k="natural" v="bay" />
		<tag k="ssr:stedsnr" v="635556" />
	</node>
	<node id="-792458" lat="70.4462694459" lon="23.7899860144">
		<tag k="bay" v="fjord" />
		<tag k="name" v="Neverfjorden" />
		<tag k="natural" v="bay" />
		<tag k="ssr:stedsnr" v="632800" />
	</node>
	<node id="-791943" lat="70.4477611154" lon="23.7780054635">
		<tag k="alt_name:no" v="Sørnes" />
		<tag k="name" v="Sørneset - Deansenjárga" />
		<tag k="name:no" v="Sørneset" />
		<tag k="name:se" v="Deansenjárga" />
		<tag k="natural" v="cape" />
		<tag k="old_name:se" v="Dænsenjarga" />
		<tag k="ssr:stedsnr" v="81980" />
	</node>
	<node id="-791941" lat="70.4833416698" lon="23.8230249134">
		<tag k="name" v="Gjevebukta - Geavluokta" />
		<tag k="name:no" v="Gjevebukta" />
		<tag k="name:se" v="Geavluokta" />
		<tag k="natural" v="bay" />
		<tag k="old_name:se" v="Gævluokta" />
		<tag k="ssr:stedsnr" v="81959" />
	</node>
	<node id="-791940" lat="70.470344449" lon="23.7889526901">
		<tag k="name" v="Kvitnes" />
		<tag k="natural" v="cape" />
		<tag k="ssr:stedsnr" v="81953" />
	</node>
	<node id="-791938" lat="70.4951361193" lon="23.8613193346">
		<tag k="name" v="Skáhpeluokta" />
		<tag k="name:se" v="Skáhpeluokta" />
		<tag k="natural" v="bay" />
		<tag k="old_name:se" v="Skappeluokta" />
		<tag k="ssr:stedsnr" v="81943" />
	</node>
	<node id="-792811" lat="70.4260444433" lon="23.6879749015">
		<tag k="alt_name" v="Oldervik, l" />
		<tag k="name" v="Lille Oldervik" />
		<tag k="natural" v="bay" />
		<tag k="ssr:stedsnr" v="930999" />
	</node>
	<node id="-792446" lat="70.5671305634" lon="24.1380220983">
		<tag k="name" v="Indre Brennsvik - Siskkit Buollánluokta" />
		<tag k="name:no" v="Indre Brennsvik" />
		<tag k="name:se" v="Siskkit Buollánluokta" />
		<tag k="natural" v="bay" />
		<tag k="old_name:se" v="Buollanluokta siskit" />
		<tag k="ssr:stedsnr" v="627814" />
	</node>
	<node id="-792444" lat="70.5550500004" lon="24.1072804318">
		<tag k="name" v="Enkenesbukta" />
		<tag k="natural" v="bay" />
		<tag k="ssr:stedsnr" v="627804" />
	</node>
	<node id="-791929" lat="70.6247500024" lon="24.1218360008">
		<tag k="name" v="Blomhola" />
		<tag k="natural" v="bay" />
		<tag k="ssr:stedsnr" v="81771" />
	</node>
	<node id="-792432" lat="70.4688111176" lon="24.3154137519">
		<tag k="name" v="Futbukta - Mohkki" />
		<tag k="name:no" v="Futbukta" />
		<tag k="name:se" v="Mohkki" />
		<tag k="natural" v="bay" />
		<tag k="old_name:se" v="Måkki" />
		<tag k="ssr:stedsnr" v="626864" />
	</node>
	<node id="-792426" lat="70.6219055565" lon="24.1249554307">
		<tag k="alt_name" v="Ytreneset" />
		<tag k="name" v="Ytterneset" />
		<tag k="natural" v="cape" />
		<tag k="ssr:stedsnr" v="626776" />
	</node>
	<node id="-792039" lat="70.4760805593" lon="24.3115776493">
		<tag k="name" v="Storstein" />
		<tag k="natural" v="beach" />
		<tag k="place" v="locality" />
		<tag k="ssr:stedsnr" v="150922" />
	</node>
	<node id="-791912" lat="70.6953833362" lon="24.2949304476">
		<tag k="name" v="Angogrunnen" />
		<tag k="natural" v="shoal" />
		<tag k="place" v="locality" />
		<tag k="ssr:stedsnr" v="81185" />
	</node>
	<node id="-791911" lat="70.6867583357" lon="24.3176943304">
		<tag k="name" v="Fembøringsbukta" />
		<tag k="natural" v="bay" />
		<tag k="ssr:stedsnr" v="81178" />
	</node>
	<node id="-791910" lat="70.5326972268" lon="24.1206498731">
		<tag k="name" v="Innerneset - Miefnjárga" />
		<tag k="name:no" v="Innerneset" />
		<tag k="name:se" v="Miefnjárga" />
		<tag k="natural" v="cape" />
		<tag k="old_name:se" v="Miefnjarga" />
		<tag k="ssr:stedsnr" v="81022" />
	</node>
	<node id="-791909" lat="70.6855416693" lon="24.3797998595">
		<tag k="name" v="Storvikneset" />
		<tag k="natural" v="cape" />
		<tag k="ssr:stedsnr" v="81019" />
	</node>
	<node id="-792418" lat="70.5394888898" lon="23.7244054702">
		<tag k="name" v="Elveneset" />
		<tag k="natural" v="cape" />
		<tag k="ssr:stedsnr" v="626227" />
	</node>
	<node id="-792417" lat="70.5248083343" lon="23.7360499017">
		<tag k="name" v="Kargeneset - Jiernáknjárga" />
		<tag k="name:no" v="Kargeneset" />
		<tag k="name:se" v="Jiernáknjárga" />
		<tag k="natural" v="cape" />
		<tag k="old_name:se" v="Jiernaknjarga" />
		<tag k="ssr:stedsnr" v="626223" />
	</node>
	<node id="-792413" lat="70.6631555619" lon="24.2793804507">
		<tag k="name" v="Teistbukta - Čielgohppi" />
		<tag k="name:no" v="Teistbukta" />
		<tag k="name:se" v="Čielgohppi" />
		<tag k="natural" v="bay" />
		<tag k="old_name:se" v="Čielgåppi" />
		<tag k="ssr:stedsnr" v="626183" />
	</node>
	<node id="-792412" lat="70.6480277791" lon="24.1031776724">
		<tag k="name" v="Storneset" />
		<tag k="natural" v="cape" />
		<tag k="ssr:stedsnr" v="626174" />
	</node>
	<node id="-792411" lat="70.6458750054" lon="24.1065248769">
		<tag k="alt_name" v="Kalvika, yt" />
		<tag k="name" v="Ytre Kalvika" />
		<tag k="natural" v="bay" />
		<tag k="ssr:stedsnr" v="626173" />
	</node>
	<node id="-791887" lat="70.461894449" lon="24.2687943263">
		<tag k="name" v="Dypelvbukta" />
		<tag k="natural" v="bay" />
		<tag k="ssr:stedsnr" v="80874" />
	</node>
	<node id="-792615" lat="70.6320944516" lon="24.6844193095">
		<tag k="fixme" v="consider seamark:type=rock or natural=shoal" />
		<tag k="loc_name:se" v="Ruoššalássá" />
		<tag k="name" v="Russeskjæret" />
		<tag k="name:no" v="Russeskjæret" />
		<tag k="place" v="islet" />
		<tag k="ssr:stedsnr" v="760131" />
	</node>
	<node id="-791876" lat="70.6756750057" lon="24.4752693035">
		<tag k="name" v="Danielsvikneset" />
		<tag k="natural" v="cape" />
		<tag k="ssr:stedsnr" v="80124" />
	</node>
	<node id="-792385" lat="70.4792694491" lon="23.8034971195">
		<tag k="fixme" v="multiple name tags, choose one and add the other to alt_name" />
		<tag k="name" v="Fiskelvneset;Fyrnes - Geavluovttnjárga" />
		<tag k="name:no" v="Fiskelvneset;Fyrnes" />
		<tag k="name:se" v="Geavluovttnjárga" />
		<tag k="natural" v="cape" />
		<tag k="old_name:se" v="Gævluovtnjarga" />
		<tag k="ssr:stedsnr" v="566955" />
	</node>
	<node id="-792384" lat="70.4872500015" lon="23.6405387892">
		<tag k="name" v="Komagnes - Gámanjárga" />
		<tag k="name:no" v="Komagnes" />
		<tag k="name:se" v="Gámanjárga" />
		<tag k="natural" v="cape" />
		<tag k="old_name:se" v="Gamanjarga" />
		<tag k="ssr:stedsnr" v="566953" />
	</node>
	<node id="-791871" lat="70.4216138896" lon="23.6766860053">
		<tag k="name" v="Store Oldervik" />
		<tag k="natural" v="bay" />
		<tag k="ssr:stedsnr" v="32145" />
	</node>
	<node id="-792382" lat="70.4945777826" lon="23.8562165646">
		<tag k="name" v="Skapeluftneset - Skáhpeluovttnjárga" />
		<tag k="name:no" v="Skapeluftneset" />
		<tag k="name:se" v="Skáhpeluovttnjárga" />
		<tag k="natural" v="cape" />
		<tag k="old_name:se" v="Skappeluovtnjarga" />
		<tag k="ssr:stedsnr" v="566938" />
	</node>
	<node id="-791869" lat="70.6254222294" lon="24.6795915104">
		<tag k="name" v="Gárgu" />
		<tag k="name:se" v="Gárgu" />
		<tag k="natural" v="beach" />
		<tag k="place" v="locality" />
		<tag k="ssr:stedsnr" v="32103" />
	</node>
	<node id="-791946" lat="70.5226416694" lon="23.9845360097">
		<tag k="name" v="Stállogárgoluokta" />
		<tag k="name:se" v="Stállogárgoluokta" />
		<tag k="natural" v="bay" />
		<tag k="ssr:stedsnr" v="89568" />
	</node>
	<node id="-792374" lat="70.5745361118" lon="24.0998082272">
		<tag k="name" v="Sammelsundet - Sámmálnuorri" />
		<tag k="name:no" v="Sammelsundet" />
		<tag k="name:se" v="Sámmálnuorri" />
		<tag k="natural" v="strait" />
		<tag k="old_name:se" v="Sammalnuorri" />
		<tag k="ssr:stedsnr" v="566821" />
	</node>
	<node id="-791858" lat="70.5086138908" lon="23.913269337">
		<tag k="name" v="Akkarneset" />
		<tag k="natural" v="cape" />
		<tag k="ssr:stedsnr" v="29716" />
	</node>
	<node id="-791854" lat="70.4892361136" lon="23.8383526729">
		<tag k="name" v="Skapeluftlandet" />
		<tag k="natural" v="beach" />
		<tag k="place" v="locality" />
		<tag k="ssr:stedsnr" v="25809" />
	</node>
	<node id="-792365" lat="70.6280499991" lon="24.1212304498">
		<tag k="name" v="Holmeneset" />
		<tag k="natural" v="cape" />
		<tag k="ssr:stedsnr" v="566775" />
	</node>
	<node id="-792362" lat="70.5969638969" lon="24.1219665436">
		<tag k="name" v="Fagerbukta" />
		<tag k="natural" v="bay" />
		<tag k="ssr:stedsnr" v="566757" />
	</node>
	<node id="-792540" lat="70.6817833318" lon="24.2977859984">
		<tag k="name" v="Rekvika" />
		<tag k="natural" v="bay" />
		<tag k="ssr:stedsnr" v="747121" />
	</node>
	<node id="-792645" lat="70.3828416651" lon="23.4710999209">
		<tag k="name" v="Olderfjordholmen - Leaibevuonsuolu" />
		<tag k="name:no" v="Olderfjordholmen" />
		<tag k="name:se" v="Leaibevuonsuolu" />
		<tag k="old_name:se" v="Læibevuonsuolo" />
		<tag k="place" v="islet" />
		<tag k="ssr:stedsnr" v="808766" />
	</node>
	<node id="-791835" lat="70.4841888951" lon="24.248352644">
		<tag k="name" v="Fægfjordholmen" />
		<tag k="place" v="islet" />
		<tag k="ssr:stedsnr" v="20848" />
	</node>
	<node id="-791834" lat="70.4861277777" lon="24.2053387672">
		<tag k="name" v="Ollineset" />
		<tag k="natural" v="cape" />
		<tag k="ssr:stedsnr" v="20847" />
	</node>
	<node id="-791830" lat="70.5453750059" lon="24.0008248866">
		<tag k="name" v="Storbukta - Goavdeluokta" />
		<tag k="name:no" v="Storbukta" />
		<tag k="name:se" v="Goavdeluokta" />
		<tag k="natural" v="bay" />
		<tag k="ssr:stedsnr" v="20811" />
	</node>
	<node id="-791827" lat="70.6368777843" lon="24.2299498939">
		<tag k="name" v="Sommarvikneset" />
		<tag k="natural" v="cape" />
		<tag k="ssr:stedsnr" v="20797" />
	</node>
	<node id="-791825" lat="70.5905444489" lon="24.1129998764">
		<tag k="alt_name" v="Kråkeneset, l" />
		<tag k="name" v="Lille Kråkeneset" />
		<tag k="natural" v="cape" />
		<tag k="ssr:stedsnr" v="20780" />
	</node>
	<node id="-791818" lat="70.6559888957" lon="24.5417470848">
		<tag k="name" v="Fuglholmen - Lássá" />
		<tag k="name:no" v="Fuglholmen" />
		<tag k="name:se" v="Lássá" />
		<tag k="old_name:se" v="Lassa" />
		<tag k="place" v="islet" />
		<tag k="ssr:stedsnr" v="20141" />
	</node>
	<node id="-791817" lat="70.6831027811" lon="24.3834054276">
		<tag k="name" v="Lille Gåtevika - Uhca Gohttaluovttaš" />
		<tag k="name:no" v="Lille Gåtevika" />
		<tag k="name:se" v="Uhca Gohttaluovttaš" />
		<tag k="natural" v="bay" />
		<tag k="old_name:se" v="Gåttaluovtaš, ucca" />
		<tag k="ssr:stedsnr" v="20131" />
	</node>
	<node id="-792328" lat="70.671763894" lon="24.4710137652">
		<tag k="name" v="Danielsvika - Dánelluokta" />
		<tag k="name:no" v="Danielsvika" />
		<tag k="name:se" v="Dánelluokta" />
		<tag k="natural" v="bay" />
		<tag k="old_name:se" v="Danelluokta" />
		<tag k="ssr:stedsnr" v="565135" />
	</node>
	<node id="-792327" lat="70.6821916683" lon="24.4622887425">
		<tag k="name" v="Ljåneset" />
		<tag k="natural" v="cape" />
		<tag k="ssr:stedsnr" v="565117" />
	</node>
	<node id="-792425" lat="70.5994333342" lon="24.1999110031">
		<tag k="name" v="Molfjæra" />
		<tag k="natural" v="bay" />
		<tag k="ssr:stedsnr" v="626770" />
	</node>
	<node id="-792022" lat="70.6142611167" lon="24.1263860003">
		<tag k="name" v="Indreneset" />
		<tag k="natural" v="cape" />
		<tag k="ssr:stedsnr" v="141741" />
	</node>
	<node id="-792322" lat="70.5187250013" lon="23.9725443291">
		<tag k="name" v="Trolløyra" />
		<tag k="natural" v="beach" />
		<tag k="place" v="locality" />
		<tag k="ssr:stedsnr" v="533210" />
	</node>
	<node id="-792319" lat="70.4991083365" lon="23.6381387902">
		<tag k="name" v="Lysgrunnen" />
		<tag k="natural" v="shoal" />
		<tag k="place" v="locality" />
		<tag k="ssr:stedsnr" v="519147" />
	</node>
	<node id="-792827" lat="70.455997221" lon="23.7582165682">
		<tag k="name" v="Kvitnesgrunnen" />
		<tag k="natural" v="shoal" />
		<tag k="place" v="locality" />
		<tag k="ssr:stedsnr" v="944177" />
	</node>
	<node id="-792826" lat="70.4362361107" lon="23.7088054494">
		<tag k="name" v="Segelnesgrunnen" />
		<tag k="natural" v="shoal" />
		<tag k="place" v="locality" />
		<tag k="ssr:stedsnr" v="944165" />
	</node>
	<node id="-792703" lat="70.6234722222" lon="24.5974470775">
		<tag k="name" v="Storjordneset" />
		<tag k="natural" v="cape" />
		<tag k="ssr:stedsnr" v="821117" />
	</node>
	<node id="-792822" lat="70.5124555592" lon="24.0282471184">
		<tag k="name" v="Hannoneset" />
		<tag k="natural" v="cape" />
		<tag k="ssr:stedsnr" v="939994" />
	</node>
	<node id="-792821" lat="70.5347138907" lon="24.0975915551">
		<tag k="name" v="Seineset" />
		<tag k="natural" v="cape" />
		<tag k="ssr:stedsnr" v="939969" />
	</node>
	<node id="-792820" lat="70.5336472259" lon="24.1060470969">
		<tag k="name" v="Ytterneset" />
		<tag k="natural" v="cape" />
		<tag k="ssr:stedsnr" v="939968" />
	</node>
	<node id="-791934" lat="70.5487833318" lon="24.1004193357">
		<tag k="name" v="Bårdbukta" />
		<tag k="natural" v="bay" />
		<tag k="ssr:stedsnr" v="81800" />
	</node>
	<node id="-791792" lat="70.4164277771" lon="23.6122665793">
		<tag k="name" v="Kvenklubbgrunnen" />
		<tag k="natural" v="shoal" />
		<tag k="place" v="locality" />
		<tag k="ssr:stedsnr" v="883477" />
	</node>
	<node id="-792616" lat="70.634944452" lon="24.6933665316">
		<tag k="name" v="Selkopp" />
		<tag k="natural" v="beach" />
		<tag k="place" v="locality" />
		<tag k="ssr:stedsnr" v="760134" />
	</node>
	<node id="-792301" lat="70.535580558" lon="24.0046999032">
		<tag k="name" v="Šelgošnjárga" />
		<tag k="name:se" v="Šelgošnjárga" />
		<tag k="natural" v="cape" />
		<tag k="old_name:se" v="Šelgušnjarga" />
		<tag k="ssr:stedsnr" v="506781" />
	</node>
	<node id="-792300" lat="70.6936583373" lon="24.3602026495">
		<tag k="name" v="Revsneset - Áhpenjárga" />
		<tag k="name:no" v="Revsneset" />
		<tag k="name:se" v="Áhpenjárga" />
		<tag k="natural" v="cape" />
		<tag k="old_name:se" v="Appenjarga" />
		<tag k="ssr:stedsnr" v="506192" />
	</node>
	<node id="-791787" lat="70.4899555576" lon="24.143855446">
		<tag k="name" v="Ytre Fiskevik" />
		<tag k="natural" v="bay" />
		<tag k="ssr:stedsnr" v="478193" />
	</node>
	<node id="-791786" lat="70.6764833356" lon="24.2755470967">
		<tag k="name" v="Teistberget" />
		<tag k="natural" v="cape" />
		<tag k="ssr:stedsnr" v="412949" />
	</node>
	<node id="-791785" lat="70.6343361147" lon="24.6525831805">
		<tag k="loc_name:se" v="Gaskaboađđu" />
		<tag k="name" v="Midtergrunnen" />
		<tag k="name:no" v="Midtergrunnen" />
		<tag k="natural" v="shoal" />
		<tag k="place" v="locality" />
		<tag k="ssr:stedsnr" v="412667" />
	</node>
	<node id="-791783" lat="70.6161527786" lon="24.6534276183">
		<tag k="name" v="Riddu" />
		<tag k="name:se" v="Riddu" />
		<tag k="natural" v="beach" />
		<tag k="place" v="locality" />
		<tag k="ssr:stedsnr" v="396182" />
	</node>
	<node id="-792806" lat="70.4866916649" lon="23.6259526901">
		<tag k="name" v="Komagnesbukta - Gámanjárgohppi" />
		<tag k="name:no" v="Komagnesbukta" />
		<tag k="name:se" v="Gámanjárgohppi" />
		<tag k="natural" v="bay" />
		<tag k="old_name:se" v="Gamanjargåppi" />
		<tag k="ssr:stedsnr" v="930964" />
	</node>
	<node id="-791779" lat="70.5084416698" lon="23.948927663">
		<tag k="name" v="Sundlandet" />
		<tag k="natural" v="beach" />
		<tag k="place" v="locality" />
		<tag k="ssr:stedsnr" v="393560" />
	</node>
	<node id="-791778" lat="70.568161118" lon="24.1428887724">
		<tag k="name" v="Brennsvika" />
		<tag k="natural" v="bay" />
		<tag k="ssr:stedsnr" v="392981" />
	</node>
	<node id="-792784" lat="70.3888222237" lon="23.5793165884">
		<tag k="alt_name" v="Sarabynes" />
		<tag k="name" v="Sarabyneset" />
		<tag k="natural" v="cape" />
		<tag k="ssr:stedsnr" v="930792" />
	</node>
	<node id="-791773" lat="70.4958944491" lon="24.2778832113">
		<tag k="name" v="Vágginjárga" />
		<tag k="name:se" v="Vágginjárga" />
		<tag k="natural" v="cape" />
		<tag k="ssr:stedsnr" v="392929" />
	</node>
	<node id="-791769" lat="70.5066472254" lon="23.9913443347">
		<tag k="name" v="Steinnes" />
		<tag k="natural" v="cape" />
		<tag k="ssr:stedsnr" v="388791" />
	</node>
	<node id="-792791" lat="70.4920500016" lon="24.2826498633">
		<tag k="name" v="Linneset" />
		<tag k="natural" v="cape" />
		<tag k="ssr:stedsnr" v="930842" />
	</node>
	<node id="-792789" lat="70.5638527824" lon="24.1284610017">
		<tag k="name" v="Steinbukta" />
		<tag k="natural" v="bay" />
		<tag k="ssr:stedsnr" v="930819" />
	</node>
	<node id="-792276" lat="70.5690333344" lon="24.0561776738">
		<tag k="name" v="Toknebuktneset" />
		<tag k="natural" v="cape" />
		<tag k="ssr:stedsnr" v="505813" />
	</node>
	<node id="-792787" lat="70.6522138961" lon="24.5421276543">
		<tag k="name" v="Šloavka" />
		<tag k="name:se" v="Šloavka" />
		<tag k="natural" v="cape" />
		<tag k="ssr:stedsnr" v="930803" />
	</node>
	<node id="-791760" lat="70.6461916744" lon="24.6829304155">
		<tag k="name" v="Lammevika - Láppesluokta" />
		<tag k="name:no" v="Lammevika" />
		<tag k="name:se" v="Láppesluokta" />
		<tag k="natural" v="bay" />
		<tag k="old_name:se" v="Labbesluokta" />
		<tag k="ssr:stedsnr" v="384842" />
	</node>
	<node id="-792783" lat="70.6177555603" lon="24.1222110001">
		<tag k="bay" v="fjord" />
		<tag k="loc_name:se" v="Unna Dorskavuotna" />
		<tag k="name" v="Indre Torskefjorden - Uhca Dorskavuotna" />
		<tag k="name:no" v="Indre Torskefjorden" />
		<tag k="name:se" v="Uhca Dorskavuotna" />
		<tag k="natural" v="bay" />
		<tag k="old_name:se" v="Dårskavuodna ucca" />
		<tag k="ssr:stedsnr" v="930791" />
	</node>
	<node id="-791756" lat="70.4865027784" lon="24.1646637637">
		<tag k="name" v="Kvitbergbukta" />
		<tag k="natural" v="bay" />
		<tag k="ssr:stedsnr" v="384817" />
	</node>
	<node id="-791867" lat="70.5345055618" lon="24.1011470992">
		<tag k="name" v="Mollfjæra" />
		<tag k="natural" v="beach" />
		<tag k="place" v="locality" />
		<tag k="ssr:stedsnr" v="29977" />
	</node>
	<node id="-791752" lat="70.5582694485" lon="24.0280082143">
		<tag k="name" v="Monsneset" />
		<tag k="natural" v="cape" />
		<tag k="ssr:stedsnr" v="384790" />
	</node>
	<node id="-792769" lat="70.6533138907" lon="24.1483915465">
		<tag k="name" v="Storklakken" />
		<tag k="natural" v="shoal" />
		<tag k="place" v="locality" />
		<tag k="ssr:stedsnr" v="930149" />
	</node>
	<node id="-792768" lat="70.6839000041" lon="24.3511943325">
		<tag k="name" v="Revsneshamna" />
		<tag k="natural" v="bay" />
		<tag k="ssr:stedsnr" v="930141" />
	</node>
	<node id="-791743" lat="70.5305916714" lon="23.738102693">
		<tag k="name" v="Kargenesbukta - Eandagohppi" />
		<tag k="name:no" v="Kargenesbukta" />
		<tag k="name:se" v="Eandagohppi" />
		<tag k="natural" v="bay" />
		<tag k="old_name:se" v="Ændagåppi" />
		<tag k="ssr:stedsnr" v="384222" />
	</node>
	<node id="-792254" lat="70.6813833334" lon="24.4433304299">
		<tag k="name" v="Liššanjárga" />
		<tag k="name:se" v="Liššanjárga" />
		<tag k="natural" v="cape" />
		<tag k="old_name:se" v="Liššanjarga" />
		<tag k="ssr:stedsnr" v="505135" />
	</node>
	<node id="-791741" lat="70.5085055568" lon="23.8631748989">
		<tag k="loc_name:se" v="Veažernjárga" />
		<tag k="name" v="Hammarneset" />
		<tag k="name:no" v="Hammarneset" />
		<tag k="natural" v="cape" />
		<tag k="ssr:stedsnr" v="384183" />
	</node>
	<node id="-791739" lat="70.5060138882" lon="23.8891304522">
		<tag k="alt_name:no" v="Alnes" />
		<tag k="loc_name:se" v="Vuojahatnjárga" />
		<tag k="name" v="Alneset" />
		<tag k="name:no" v="Alneset" />
		<tag k="natural" v="cape" />
		<tag k="ssr:stedsnr" v="384177" />
	</node>
	<node id="-792762" lat="70.4859111176" lon="24.1726415392">
		<tag k="name" v="Kvitberget" />
		<tag k="natural" v="cape" />
		<tag k="ssr:stedsnr" v="878992" />
	</node>
	<node id="-792761" lat="70.511855561" lon="24.0473360146">
		<tag k="name" v="Innertappen" />
		<tag k="natural" v="cape" />
		<tag k="ssr:stedsnr" v="878990" />
	</node>
	<node id="-791735" lat="70.4100722261" lon="23.6471554684">
		<tag k="name" v="Kvenklubbukta - Gielddavárgohppi" />
		<tag k="name:no" v="Kvenklubbukta" />
		<tag k="name:se" v="Gielddavárgohppi" />
		<tag k="natural" v="bay" />
		<tag k="old_name:se" v="Gieldavargåppi" />
		<tag k="ssr:stedsnr" v="383987" />
	</node>
	<node id="-792246" lat="70.4377138944" lon="23.6739971181">
		<tag k="name" v="Klakken" />
		<tag k="natural" v="shoal" />
		<tag k="place" v="locality" />
		<tag k="ssr:stedsnr" v="458199" />
	</node>
	<node id="-792243" lat="70.6373750005" lon="24.6826220785">
		<tag k="name" v="Selkoppklubben" />
		<tag k="natural" v="cape" />
		<tag k="ssr:stedsnr" v="457114" />
	</node>
	<node id="-791729" lat="70.3940361171" lon="23.519111022">
		<tag k="name" v="Gressnes - Rássenjárga" />
		<tag k="name:no" v="Gressnes" />
		<tag k="name:se" v="Rássenjárga" />
		<tag k="natural" v="cape" />
		<tag k="old_name:se" v="Rassenjarga" />
		<tag k="ssr:stedsnr" v="383777" />
	</node>
	<node id="-792750" lat="70.6451500038" lon="24.146872115">
		<tag k="bay" v="fjord" />
		<tag k="name" v="Torskefjorden" />
		<tag k="natural" v="bay" />
		<tag k="ssr:stedsnr" v="873740" />
	</node>
	<node id="-791719" lat="70.6859638875" lon="24.2999332144">
		<tag k="fixme" v="consider seamark:type=rock or natural=shoal" />
		<tag k="name" v="Ákŋolásis" />
		<tag k="name:se" v="Ákŋolásis" />
		<tag k="old_name:se" v="Agŋulasis" />
		<tag k="place" v="islet" />
		<tag k="ssr:stedsnr" v="383133" />
	</node>
	<node id="-791718" lat="70.6834777852" lon="24.4474637614">
		<tag k="name" v="Langkeilneset" />
		<tag k="natural" v="cape" />
		<tag k="ssr:stedsnr" v="383131" />
	</node>
	<node id="-792229" lat="70.4628194516" lon="23.7782165706">
		<tag k="alt_name" v="Klubben, in" />
		<tag k="fixme" v="multiple name tags, choose one and add the other to alt_name" />
		<tag k="name" v="Klubben;Indre Klubben" />
		<tag k="natural" v="cape" />
		<tag k="ssr:stedsnr" v="445961" />
	</node>
	<node id="-792739" lat="70.6266138944" lon="24.6878998616">
		<tag k="name" v="Gárggu" />
		<tag k="name:se" v="Gárggu" />
		<tag k="natural" v="bay" />
		<tag k="old_name:se" v="Gargo" />
		<tag k="ssr:stedsnr" v="870844" />
	</node>
	<node id="-792738" lat="70.4953138902" lon="24.0936415571">
		<tag k="name" v="Ørsnippen" />
		<tag k="natural" v="cape" />
		<tag k="ssr:stedsnr" v="870827" />
	</node>
	<node id="-791713" lat="70.6389333361" lon="24.6445554027">
		<tag k="loc_name:se" v="Davvegoađđu" />
		<tag k="name" v="Nordgrunnen" />
		<tag k="name:no" v="Nordgrunnen" />
		<tag k="natural" v="shoal" />
		<tag k="place" v="locality" />
		<tag k="ssr:stedsnr" v="351710" />
	</node>
	<node id="-791712" lat="70.6524277792" lon="24.5663304202">
		<tag k="name" v="Sommarbåen" />
		<tag k="natural" v="shoal" />
		<tag k="place" v="locality" />
		<tag k="ssr:stedsnr" v="351639" />
	</node>
	<node id="-791920" lat="70.5631583362" lon="24.0342998786">
		<tag k="name" v="Bergeneset" />
		<tag k="natural" v="cape" />
		<tag k="ssr:stedsnr" v="81813" />
	</node>
	<node id="-792222" lat="70.6408166716" lon="24.6814498438">
		<tag k="name" v="Birjavika - Birjjáluokta" />
		<tag k="name:no" v="Birjavika" />
		<tag k="name:se" v="Birjjáluokta" />
		<tag k="natural" v="bay" />
		<tag k="old_name:se" v="Birjaluokta" />
		<tag k="ssr:stedsnr" v="445877" />
	</node>
	<node id="-792732" lat="70.5276444494" lon="24.1519665491">
		<tag k="name" v="Oldervikneset" />
		<tag k="natural" v="cape" />
		<tag k="ssr:stedsnr" v="870785" />
	</node>
	<node id="-792219" lat="70.4858194445" lon="24.2168470979">
		<tag k="name" v="Bergstrand" />
		<tag k="natural" v="beach" />
		<tag k="place" v="locality" />
		<tag k="ssr:stedsnr" v="445845" />
	</node>
	<node id="-792730" lat="70.5327111109" lon="24.1292832235">
		<tag k="name" v="Innerbukta" />
		<tag k="natural" v="bay" />
		<tag k="ssr:stedsnr" v="870783" />
	</node>
	<node id="-792729" lat="70.5163833373" lon="23.9572415653">
		<tag k="name" v="Ikarneset" />
		<tag k="natural" v="cape" />
		<tag k="ssr:stedsnr" v="870237" />
	</node>
	<node id="-792728" lat="70.5442777828" lon="23.7229526871">
		<tag k="name" v="Skjåholmbukta - Gieldaluokta" />
		<tag k="name:no" v="Skjåholmbukta" />
		<tag k="name:se" v="Gieldaluokta" />
		<tag k="natural" v="bay" />
		<tag k="ssr:stedsnr" v="870215" />
	</node>
	<node id="-792727" lat="70.5094694439" lon="23.9744582213">
		<tag k="name" v="Handelsneset" />
		<tag k="natural" v="cape" />
		<tag k="ssr:stedsnr" v="870182" />
	</node>
	<node id="-792726" lat="70.5012055587" lon="23.8569693449">
		<tag k="name" v="Kvalsundet - Fálesnuorri" />
		<tag k="name:no" v="Kvalsundet" />
		<tag k="name:se" v="Fálesnuorri" />
		<tag k="natural" v="strait" />
		<tag k="old_name:se" v="Falesnuorri" />
		<tag k="ssr:stedsnr" v="870016" />
	</node>
	<node id="-792213" lat="70.6261194448" lon="24.15498876">
		<tag k="name" v="Oterbakken" />
		<tag k="natural" v="shoal" />
		<tag k="place" v="locality" />
		<tag k="ssr:stedsnr" v="445779" />
	</node>
	<node id="-791700" lat="70.5096583336" lon="23.8527054474">
		<tag k="name" v="Hammarnesbukta" />
		<tag k="natural" v="bay" />
		<tag k="ssr:stedsnr" v="332594" />
	</node>
	<node id="-792210" lat="70.6022500057" lon="24.2025554343">
		<tag k="name" v="Kvalvikneset" />
		<tag k="natural" v="cape" />
		<tag k="ssr:stedsnr" v="445759" />
	</node>
	<node id="-791697" lat="70.4194833362" lon="23.5784026919">
		<tag k="name" v="Trollstein" />
		<tag k="natural" v="cape" />
		<tag k="ssr:stedsnr" v="323990" />
	</node>
	<node id="-791695" lat="70.4536111086" lon="23.6291582503">
		<tag k="name" v="Torneneset" />
		<tag k="natural" v="cape" />
		<tag k="ssr:stedsnr" v="323981" />
	</node>
	<node id="-791693" lat="70.4409166679" lon="23.7426498998">
		<tag k="name" v="Segelnes - Borjjasnjárga" />
		<tag k="name:no" v="Segelnes" />
		<tag k="name:se" v="Borjjasnjárga" />
		<tag k="natural" v="cape" />
		<tag k="old_name:se" v="Bårjasnjarga" />
		<tag k="ssr:stedsnr" v="323973" />
	</node>
	<node id="-792712" lat="70.6612500024" lon="24.5018082001">
		<tag k="name" v="Seivika - Sáideluokta" />
		<tag k="name:no" v="Seivika" />
		<tag k="name:se" v="Sáideluokta" />
		<tag k="natural" v="bay" />
		<tag k="old_name:se" v="Saideluokta" />
		<tag k="ssr:stedsnr" v="869157" />
	</node>
	<node id="-792711" lat="70.6854555599" lon="24.4004470882">
		<tag k="name" v="Gohttaluohnjárga" />
		<tag k="name:se" v="Gohttaluohnjárga" />
		<tag k="natural" v="cape" />
		<tag k="old_name:se" v="Gåttaluoknjarga" />
		<tag k="ssr:stedsnr" v="869141" />
	</node>
	<node id="-792710" lat="70.6804166681" lon="24.4060248692">
		<tag k="name" v="Store Gåtevika - Gohttaluokta" />
		<tag k="name:no" v="Store Gåtevika" />
		<tag k="name:se" v="Gohttaluokta" />
		<tag k="natural" v="bay" />
		<tag k="old_name:se" v="Gåttaluokta" />
		<tag k="ssr:stedsnr" v="869142" />
	</node>
	<node id="-792197" lat="70.4621222294" lon="24.3114109907">
		<tag k="name" v="Brennsnes" />
		<tag k="natural" v="cape" />
		<tag k="ssr:stedsnr" v="444869" />
	</node>
	<node id="-792707" lat="70.6397777843" lon="24.6817248679">
		<tag k="name" v="Kalveneset" />
		<tag k="natural" v="cape" />
		<tag k="ssr:stedsnr" v="837721" />
	</node>
	<node id="-792192" lat="70.5120027827" lon="24.0446165587">
		<tag k="name" v="Tappen - Dáhppa" />
		<tag k="name:no" v="Tappen" />
		<tag k="name:se" v="Dáhppa" />
		<tag k="natural" v="cape" />
		<tag k="old_name:se" v="Dappa" />
		<tag k="ssr:stedsnr" v="444836" />
	</node>
	<node id="-792256" lat="70.6866583407" lon="24.3653998745">
		<tag k="fixme" v="multiple name tags, choose one and add the other to alt_name" />
		<tag k="name" v="Bunneset;Litleneset" />
		<tag k="natural" v="cape" />
		<tag k="ssr:stedsnr" v="505144" />
	</node>
	<node id="-792702" lat="70.5358138914" lon="24.0949693377">
		<tag k="name" v="Klubbekroken - Klubbogávva" />
		<tag k="name:no" v="Klubbekroken" />
		<tag k="name:se" v="Klubbogávva" />
		<tag k="natural" v="bay" />
		<tag k="ssr:stedsnr" v="818969" />
	</node>
	<node id="-791676" lat="70.6451277827" lon="24.7316665277">
		<tag k="name" v="Birjjájávri" />
		<tag k="name:se" v="Birjjájávri" />
		<tag k="natural" v="bay" />
		<tag k="old_name:se" v="Birjajavri" />
		<tag k="ssr:stedsnr" v="323859" />
	</node>
	<node id="-791914" lat="70.7098305582" lon="24.3408748672">
		<tag k="alt_name" v="Nesegrunnen, s" />
		<tag k="name" v="Søre Nesegrunnen" />
		<tag k="natural" v="shoal" />
		<tag k="place" v="locality" />
		<tag k="ssr:stedsnr" v="81194" />
	</node>
	<node id="-791913" lat="70.7025499999" lon="24.4544359822">
		<tag k="bay" v="fjord" />
		<tag k="loc_name:se" v="Jáhkovuonna" />
		<tag k="name" v="Revsbotn - Jáhkovuotna" />
		<tag k="name:no" v="Revsbotn" />
		<tag k="name:se" v="Jáhkovuotna" />
		<tag k="natural" v="bay" />
		<tag k="old_name:se" v="Jakkuvuodna" />
		<tag k="ssr:stedsnr" v="81190" />
	</node>
	<node id="-792689" lat="70.4645833365" lon="23.7738860119">
		<tag k="alt_name" v="Klubben, yt" />
		<tag k="fixme" v="multiple name tags, choose one and add the other to alt_name" />
		<tag k="name" v="Klubben;Ytre Klubben" />
		<tag k="natural" v="cape" />
		<tag k="ssr:stedsnr" v="809958" />
	</node>
	<node id="-792176" lat="70.509422227" lon="23.9994082378">
		<tag k="name" v="Russenes" />
		<tag k="natural" v="cape" />
		<tag k="ssr:stedsnr" v="267814" />
	</node>
	<node id="-792175" lat="70.4151805568" lon="23.6601999055">
		<tag k="name" v="Noppen" />
		<tag k="natural" v="cape" />
		<tag k="ssr:stedsnr" v="263988" />
	</node>
	<node id="-792812" lat="70.6980416691" lon="24.3674609813">
		<tag k="fixme" v="consider seamark:type=rock or natural=shoal" />
		<tag k="name" v="Revsnesskjæret" />
		<tag k="place" v="islet" />
		<tag k="ssr:stedsnr" v="931186" />
	</node>
	<node id="-791655" lat="70.3962805551" lon="23.6040721377">
		<tag k="alt_name" v="Porsastrand" />
		<tag k="name" v="Porsastranda" />
		<tag k="natural" v="beach" />
		<tag k="place" v="locality" />
		<tag k="ssr:stedsnr" v="323755" />
	</node>
	<node id="-792672" lat="70.643269446" lon="24.5671498534">
		<tag k="name" v="Turnes - Durenjárga" />
		<tag k="name:no" v="Turnes" />
		<tag k="name:se" v="Durenjárga" />
		<tag k="natural" v="cape" />
		<tag k="old_name:se" v="Durenjarga" />
		<tag k="ssr:stedsnr" v="809775" />
	</node>
	<node id="-791646" lat="70.701805563" lon="24.3254665469">
		<tag k="name" v="Storbåen" />
		<tag k="natural" v="shoal" />
		<tag k="place" v="locality" />
		<tag k="ssr:stedsnr" v="323191" />
	</node>
	<node id="-792155" lat="70.5541166718" lon="24.1049609962">
		<tag k="name" v="Enkeneset - Deafnjárga" />
		<tag k="name:no" v="Enkeneset" />
		<tag k="name:se" v="Deafnjárga" />
		<tag k="natural" v="cape" />
		<tag k="old_name:se" v="Dæfnjarga" />
		<tag k="ssr:stedsnr" v="263798" />
	</node>
	<node id="-792309" lat="70.4706222284" lon="24.3150276389">
		<tag k="name" v="Ytre Futbukta" />
		<tag k="natural" v="bay" />
		<tag k="ssr:stedsnr" v="514914" />
	</node>
	<node id="-792152" lat="70.6019611149" lon="24.2253582202">
		<tag k="name" v="Kvalvika - Fálesluokta" />
		<tag k="name:no" v="Kvalvika" />
		<tag k="name:se" v="Fálesluokta" />
		<tag k="natural" v="bay" />
		<tag k="old_name:se" v="Falesluokta" />
		<tag k="ssr:stedsnr" v="263760" />
	</node>
	<node id="-792663" lat="70.6584222313" lon="24.5555415199">
		<tag k="name" v="Rundbåen" />
		<tag k="natural" v="shoal" />
		<tag k="place" v="locality" />
		<tag k="ssr:stedsnr" v="809152" />
	</node>
	<node id="-792149" lat="70.5502944516" lon="23.7079082297">
		<tag k="name" v="Skjåholmen - Skadjasuolu" />
		<tag k="name:no" v="Skjåholmen" />
		<tag k="name:se" v="Skadjasuolu" />
		<tag k="old_name:se" v="Skaddjasuolo" />
		<tag k="place" v="islet" />
		<tag k="ssr:stedsnr" v="263218" />
	</node>
	<node id="-792148" lat="70.5101444452" lon="23.7744999033">
		<tag k="name" v="Stangnes - Stággonjárga" />
		<tag k="name:no" v="Stangnes" />
		<tag k="name:se" v="Stággonjárga" />
		<tag k="natural" v="cape" />
		<tag k="old_name:se" v="Staggunjarga" />
		<tag k="ssr:stedsnr" v="263188" />
	</node>
	<node id="-791635" lat="70.6395694479" lon="24.2023082187">
		<tag k="name" v="Nygrunnen" />
		<tag k="natural" v="shoal" />
		<tag k="place" v="locality" />
		<tag k="ssr:stedsnr" v="290459" />
	</node>
	<node id="-791665" lat="70.5718111186" lon="24.1591776638">
		<tag k="name" v="Store Brennsvik - Olggut Buollánluokta" />
		<tag k="name:no" v="Store Brennsvik" />
		<tag k="name:se" v="Olggut Buollánluokta" />
		<tag k="natural" v="bay" />
		<tag k="old_name:se" v="Buollanluokta ålgot" />
		<tag k="ssr:stedsnr" v="323804" />
	</node>
	<node id="-791632" lat="70.4583888936" lon="23.7006832402">
		<tag k="name" v="Storegrunnen" />
		<tag k="natural" v="shoal" />
		<tag k="place" v="locality" />
		<tag k="ssr:stedsnr" v="276222" />
	</node>
	<node id="-791630" lat="70.5241250019" lon="23.9906498925">
		<tag k="name" v="Lille Blankenes" />
		<tag k="natural" v="cape" />
		<tag k="ssr:stedsnr" v="272505" />
	</node>
	<node id="-791629" lat="70.52023334" lon="23.9779832305">
		<tag k="name" v="Andreasneset" />
		<tag k="natural" v="cape" />
		<tag k="ssr:stedsnr" v="272502" />
	</node>
	<node id="-792140" lat="70.4791916745" lon="24.2573637643">
		<tag k="name" v="Márgohppi" />
		<tag k="name:se" v="Márgohppi" />
		<tag k="natural" v="bay" />
		<tag k="old_name:se" v="Margåppi" />
		<tag k="ssr:stedsnr" v="262877" />
	</node>
	<node id="-791906" lat="70.6421361096" lon="24.1134637787">
		<tag k="name" v="Kalvikneset" />
		<tag k="natural" v="cape" />
		<tag k="ssr:stedsnr" v="81141" />
	</node>
	<node id="-791625" lat="70.5663833401" lon="24.1356304368">
		<tag k="alt_name" v="Johannesnestangen" />
		<tag k="name" v="Johannesnes" />
		<tag k="natural" v="cape" />
		<tag k="ssr:stedsnr" v="271984" />
	</node>
	<node id="-791621" lat="70.4907250039" lon="24.2864582141">
		<tag k="name" v="Roggeluftneset" />
		<tag k="natural" v="cape" />
		<tag k="ssr:stedsnr" v="271933" />
	</node>
	<node id="-791873" lat="70.6935555617" lon="24.4241693302">
		<tag k="name" v="Gåtevikgrunnen" />
		<tag k="natural" v="shoal" />
		<tag k="place" v="locality" />
		<tag k="ssr:stedsnr" v="48497" />
	</node>
	<node id="-791648" lat="70.5612972221" lon="23.6823165757">
		<tag k="alt_name:no" v="Grøtnes" />
		<tag k="name" v="Grøtneset - Guohcanjárga" />
		<tag k="name:no" v="Grøtneset" />
		<tag k="name:se" v="Guohcanjárga" />
		<tag k="natural" v="cape" />
		<tag k="old_name:se" v="Guoccanjarga" />
		<tag k="ssr:stedsnr" v="323212" />
	</node>
	<node id="-792121" lat="70.6820138913" lon="24.444860974">
		<tag k="name" v="Langkeila" />
		<tag k="natural" v="bay" />
		<tag k="ssr:stedsnr" v="262136" />
	</node>
	<node id="-792627" lat="70.5183083397" lon="24.1985693346">
		<tag k="name" v="Godderineset" />
		<tag k="natural" v="cape" />
		<tag k="ssr:stedsnr" v="869860" />
	</node>
	<node id="-792759" lat="70.4698972241" lon="24.2743498801">
		<tag k="name" v="Markopp" />
		<tag k="natural" v="cape" />
		<tag k="ssr:stedsnr" v="878954" />
	</node>
	<node id="-792113" lat="70.567775006" lon="24.1405332266">
		<tag k="name" v="Spira" />
		<tag k="natural" v="cape" />
		<tag k="ssr:stedsnr" v="211972" />
	</node>
	<node id="-792112" lat="70.546308341" lon="24.0965748874">
		<tag k="name" v="Jernneset" />
		<tag k="natural" v="cape" />
		<tag k="ssr:stedsnr" v="211968" />
	</node>
	<node id="-792617" lat="70.5769555569" lon="23.5743610221">
		<tag k="name" v="Ytrebukta" />
		<tag k="natural" v="bay" />
		<tag k="ssr:stedsnr" v="760388" />
	</node>
	<node id="-792104" lat="70.5246305578" lon="23.9933693424">
		<tag k="name" v="Plankenesbukta" />
		<tag k="natural" v="bay" />
		<tag k="ssr:stedsnr" v="207806" />
	</node>
	<node id="-792103" lat="70.5254861183" lon="23.9955887717">
		<tag k="name" v="Plankenes" />
		<tag k="natural" v="cape" />
		<tag k="ssr:stedsnr" v="207803" />
	</node>
	<node id="-792753" lat="70.5037805572" lon="23.9862360065">
		<tag k="name" v="Steinbakken" />
		<tag k="natural" v="beach" />
		<tag k="place" v="locality" />
		<tag k="ssr:stedsnr" v="878601" />
	</node>
	<node id="-792608" lat="70.5149111177" lon="23.9463471135">
		<tag k="name" v="Sundlandet - Nuoregáddi" />
		<tag k="name:no" v="Sundlandet" />
		<tag k="name:se" v="Nuoregáddi" />
		<tag k="natural" v="beach" />
		<tag k="place" v="locality" />
		<tag k="ssr:stedsnr" v="757532" />
	</node>
	<node id="-792600" lat="70.5066611133" lon="23.9847665658">
		<tag k="name" v="Kvalsundbukta" />
		<tag k="natural" v="bay" />
		<tag k="ssr:stedsnr" v="753795" />
	</node>
	<node id="-792598" lat="70.4539055622" lon="24.3074443129">
		<tag k="name" v="Repparfjordbotn" />
		<tag k="natural" v="bay" />
		<tag k="ssr:stedsnr" v="752745" />
	</node>
	<node id="-792597" lat="70.5061111182" lon="23.9771665504">
		<tag k="name" v="Leirstrand" />
		<tag k="natural" v="beach" />
		<tag k="place" v="locality" />
		<tag k="ssr:stedsnr" v="752497" />
	</node>
	<node id="-792084" lat="70.5867250053" lon="24.1085498817">
		<tag k="name" v="Kråkeneset" />
		<tag k="natural" v="cape" />
		<tag k="ssr:stedsnr" v="202827" />
	</node>
	<node id="-792083" lat="70.6300888953" lon="24.1052249037">
		<tag k="bay" v="fjord" />
		<tag k="name" v="Mellafjorden - Gaska-Dorskavuotna" />
		<tag k="name:no" v="Mellafjorden" />
		<tag k="name:se" v="Gaska-Dorskavuotna" />
		<tag k="natural" v="bay" />
		<tag k="old_name:no" v="Torskefjorden, midtre;m Torskefjord;Midtre Torskefjorden" />
		<tag k="old_name:se" v="Dårskavuodna gaska" />
		<tag k="ssr:stedsnr" v="202797" />
	</node>
	<node id="-792594" lat="70.4534305592" lon="23.7739387772">
		<tag k="alt_name:no" v="Kvitnes" />
		<tag k="name" v="Kvitneset - Vilgesnjárga" />
		<tag k="name:no" v="Kvitneset" />
		<tag k="name:se" v="Vilgesnjárga" />
		<tag k="natural" v="cape" />
		<tag k="old_name:se" v="Vilgesnjarga" />
		<tag k="ssr:stedsnr" v="748978" />
	</node>
	<node id="-792323" lat="70.6326638925" lon="24.6635109725">
		<tag k="loc_name:se" v="Gáddeboađđu" />
		<tag k="name" v="Landgrunnen" />
		<tag k="name:no" v="Landgrunnen" />
		<tag k="natural" v="shoal" />
		<tag k="place" v="locality" />
		<tag k="ssr:stedsnr" v="533734" />
	</node>
	<node id="-792664" lat="70.5093500043" lon="23.9605998925">
		<tag k="name" v="Sulladannjárga" />
		<tag k="name:se" v="Sulladannjárga" />
		<tag k="natural" v="cape" />
		<tag k="old_name:se" v="Sulladannjarga" />
		<tag k="ssr:stedsnr" v="809166" />
	</node>
	<node id="-792077" lat="70.6203388918" lon="24.5991720684">
		<tag k="name" v="Lasttaidgáddi" />
		<tag k="name:se" v="Lasttaidgáddi" />
		<tag k="natural" v="beach" />
		<tag k="old_name:se" v="Lastaidgaddi" />
		<tag k="place" v="locality" />
		<tag k="ssr:stedsnr" v="202773" />
	</node>
	<node id="-792588" lat="70.4982250043" lon="23.8839499081">
		<tag k="name" v="Nakken - Náhkki" />
		<tag k="name:no" v="Nakken" />
		<tag k="name:se" v="Náhkki" />
		<tag k="natural" v="cape" />
		<tag k="old_name:se" v="Nakki" />
		<tag k="ssr:stedsnr" v="748949" />
	</node>
	<node id="-791627" lat="70.4886972239" lon="24.1497748771">
		<tag k="name" v="Perneset" />
		<tag k="natural" v="cape" />
		<tag k="ssr:stedsnr" v="271991" />
	</node>
	<node id="-792582" lat="70.6577944504" lon="24.6561915328">
		<tag k="name" v="Kysserneset - Čussanjárga" />
		<tag k="name:no" v="Kysserneset" />
		<tag k="name:se" v="Čussanjárga" />
		<tag k="natural" v="cape" />
		<tag k="old_name:se" v="Čussanjarga" />
		<tag k="ssr:stedsnr" v="748872" />
	</node>
	<node id="-792579" lat="70.6530027814" lon="24.5855359678">
		<tag k="name" v="Stroppbåen" />
		<tag k="natural" v="shoal" />
		<tag k="place" v="locality" />
		<tag k="ssr:stedsnr" v="748797" />
	</node>
	<node id="-792578" lat="70.633808339" lon="24.2347998807">
		<tag k="name" v="Sommarvika - Gieldaluokta" />
		<tag k="name:no" v="Sommarvika" />
		<tag k="name:se" v="Gieldaluokta" />
		<tag k="natural" v="bay" />
		<tag k="ssr:stedsnr" v="748794" />
	</node>
	<node id="-792577" lat="70.6403027815" lon="24.1693887738">
		<tag k="name" v="Ryggen" />
		<tag k="natural" v="shoal" />
		<tag k="place" v="locality" />
		<tag k="ssr:stedsnr" v="748789" />
	</node>
</osm>
