<?xml version="1.0" encoding="UTF-8"?>
<osm generator="osmapis" version="0.6">
	<node id="-793917" lat="70.1245694446" lon="24.1558970926">
		<tag k="ford" v="yes" />
		<tag k="name" v="Čáhcesuohpa" />
		<tag k="name:se" v="Čáhcesuohpa" />
		<tag k="old_name:se" v="Čaccesuoppa" />
		<tag k="place" v="locality" />
		<tag k="ssr:stedsnr" v="686025" />
	</node>
	<node id="-794140" lat="70.5040166726" lon="23.9814471245">
		<tag k="landuse" v="harbour" />
		<tag k="name" v="Hamna" />
		<tag k="seamark:type" v="harbour" />
		<tag k="ssr:stedsnr" v="818549" />
	</node>
	<node id="-793847" lat="70.613391668" lon="24.632277633">
		<tag k="landuse" v="harbour" />
		<tag k="name" v="Hamna" />
		<tag k="seamark:type" v="harbour" />
		<tag k="ssr:stedsnr" v="578202" />
	</node>
	<node id="-793232" lat="70.5142888893" lon="23.9366971152">
		<tag k="layer" v="-1" />
		<tag k="name" v="Stallogargotunnelen" />
		<tag k="ssr:stedsnr" v="894731" />
		<tag k="tunnel" v="yes" />
	</node>
	<node id="-793213" lat="70.4461888913" lon="24.3415692983">
		<tag k="highway" v="path" />
		<tag k="name" v="Skillevegen" />
		<tag k="ssr:stedsnr" v="392944" />
	</node>
	<node id="-793761" lat="70.617327781" lon="24.6030970668">
		<tag k="landuse" v="harbour" />
		<tag k="name" v="Masterelva" />
		<tag k="seamark:type" v="harbour" />
		<tag k="ssr:stedsnr" v="518137" />
	</node>
</osm>
