<?xml version="1.0" encoding="UTF-8"?>
<osm generator="osmapis" version="0.6">
	<node id="-793081" lat="70.5170805583" lon="23.9605887743">
		<tag k="name" v="Ikarnes" />
		<tag k="place" v="hamlet" />
		<tag k="ssr:stedsnr" v="757540" />
	</node>
	<node id="-792568" lat="70.431711116" lon="23.611908249">
		<tag k="name" v="Rastaby" />
		<tag k="place" v="hamlet" />
		<tag k="ssr:stedsnr" v="202983" />
	</node>
	<node id="-792565" lat="70.5026000019" lon="24.7552665132">
		<tag k="name" v="Heastaskohppi" />
		<tag k="name:se" v="Heastaskohppi" />
		<tag k="old_name:se" v="Hæstaskåppi" />
		<tag k="place" v="locality" />
		<tag k="ssr:stedsnr" v="202965" />
	</node>
	<node id="-792563" lat="70.496208339" lon="23.9819887757">
		<tag k="name" v="Aritsjorda" />
		<tag k="place" v="locality" />
		<tag k="ssr:stedsnr" v="202953" />
	</node>
	<node id="-792561" lat="70.4466083346" lon="24.3191526376">
		<tag k="name" v="Ariselva" />
		<tag k="place" v="farm" />
		<tag k="ssr:stedsnr" v="202880" />
	</node>
	<node id="-792560" lat="70.4607722289" lon="24.2671332142">
		<tag k="name" v="Dypelva" />
		<tag k="place" v="isolated_dwelling" />
		<tag k="ssr:stedsnr" v="202873" />
	</node>
	<node id="-792559" lat="70.4915444495" lon="24.1135804301">
		<tag k="name" v="Tveelva" />
		<tag k="place" v="farm" />
		<tag k="ssr:stedsnr" v="202840" />
	</node>
	<node id="-793061" lat="70.4697416697" lon="23.6185776783">
		<tag k="name" v="Russelv - Ruoššajohka" />
		<tag k="name:no" v="Russelv" />
		<tag k="name:se" v="Ruoššajohka" />
		<tag k="old_name:se" v="Ruoššajåkka" />
		<tag k="place" v="hamlet" />
		<tag k="ssr:stedsnr" v="748959" />
	</node>
	<node id="-793060" lat="70.4998305596" lon="23.9827665628">
		<tag k="alt_name" v="Finnebyen" />
		<tag k="fixme" v="consider place=suburb, village or hamlet" />
		<tag k="name" v="Finnbyen" />
		<tag k="place" v="quarter" />
		<tag k="ssr:stedsnr" v="748950" />
	</node>
	<node id="-792541" lat="70.4416138933" lon="24.4662443168">
		<tag k="name" v="Enebakk" />
		<tag k="place" v="farm" />
		<tag k="ssr:stedsnr" v="202676" />
	</node>
	<node id="-793052" lat="70.5664388959" lon="24.1468026697">
		<tag k="name" v="Indre Brennsvik" />
		<tag k="old_name" v="Brennsvik, in" />
		<tag k="place" v="farm" />
		<tag k="ssr:stedsnr" v="748811" />
	</node>
	<node id="-792539" lat="70.5623053427" lon="23.6957107581">
		<tag k="name" v="Fløystad" />
		<tag k="place" v="locality" />
		<tag k="ssr:stedsnr" v="202197" />
	</node>
	<node id="-793039" lat="70.5102000061" lon="23.7783137939">
		<tag k="name" v="Stangnes" />
		<tag k="place" v="isolated_dwelling" />
		<tag k="ssr:stedsnr" v="748166" />
	</node>
	<node id="-793038" lat="70.5027444489" lon="23.9799749034">
		<tag k="name" v="Kvalsund - Ráhkkerávju" />
		<tag k="name:no" v="Kvalsund" />
		<tag k="name:se" v="Ráhkkerávju" />
		<tag k="old_name:se" v="Rakkeravjo" />
		<tag k="place" v="village" />
		<tag k="ssr:stedsnr" v="748162" />
	</node>
	<node id="-792520" lat="70.4834500033" lon="23.8260498905">
		<tag k="name" v="Gjevebukt" />
		<tag k="place" v="isolated_dwelling" />
		<tag k="ssr:stedsnr" v="154683" />
	</node>
	<node id="-792512" lat="70.471541672" lon="23.9377443341">
		<tag k="name" v="Fossvang" />
		<tag k="place" v="locality" />
		<tag k="ssr:stedsnr" v="150965" />
	</node>
	<node id="-792779" lat="70.4926055576" lon="24.283130429">
		<tag k="name" v="Linnes" />
		<tag k="place" v="isolated_dwelling" />
		<tag k="ssr:stedsnr" v="514883" />
	</node>
	<node id="-793013" lat="70.4776722226" lon="24.1956332024">
		<tag k="name" v="Øvergård" />
		<tag k="place" v="farm" />
		<tag k="ssr:stedsnr" v="747846" />
	</node>
	<node id="-792494" lat="70.6413805585" lon="24.563705403">
		<tag k="name" v="Turnes" />
		<tag k="place" v="locality" />
		<tag k="ssr:stedsnr" v="141750" />
	</node>
	<node id="-792491" lat="70.615450005" lon="24.6049693011">
		<tag k="name" v="Masterelv - Sivlejohka" />
		<tag k="name:no" v="Masterelv" />
		<tag k="name:se" v="Sivlejohka" />
		<tag k="old_name:se" v="Sivlejåkka" />
		<tag k="place" v="farm" />
		<tag k="ssr:stedsnr" v="141729" />
	</node>
	<node id="-793000" lat="70.5067861132" lon="24.2590887567">
		<tag k="name" v="Erdal" />
		<tag k="place" v="locality" />
		<tag k="ssr:stedsnr" v="696914" />
	</node>
	<node id="-792995" lat="70.4391527792" lon="23.7857693518">
		<tag k="fixme" v="consider place=hamlet" />
		<tag k="name" v="Neverfjord - Náivuotna" />
		<tag k="name:no" v="Neverfjord" />
		<tag k="name:se" v="Náivuotna" />
		<tag k="old_name:se" v="Naivuodna" />
		<tag k="place" v="village" />
		<tag k="ssr:stedsnr" v="688976" />
	</node>
	<node id="-792988" lat="70.6338750059" lon="24.6972887413">
		<tag k="name" v="Birjastrand - Birjjágáddi" />
		<tag k="name:no" v="Birjastrand" />
		<tag k="name:se" v="Birjjágáddi" />
		<tag k="old_name:se" v="Birjagaddi" />
		<tag k="place" v="farm" />
		<tag k="ssr:stedsnr" v="688853" />
	</node>
	<node id="-792467" lat="70.680272229" lon="24.3079221125">
		<tag k="name" v="Bekkarbukt - Gearretgohppi" />
		<tag k="name:no" v="Bekkarbukt" />
		<tag k="name:se" v="Gearretgohppi" />
		<tag k="old_name:se" v="Gærretgåppi" />
		<tag k="place" v="farm" />
		<tag k="ssr:stedsnr" v="141141" />
	</node>
	<node id="-792456" lat="70.480394444" lon="24.22329155">
		<tag k="name" v="Fægfjord" />
		<tag k="place" v="hamlet" />
		<tag k="ssr:stedsnr" v="140841" />
	</node>
	<node id="-792451" lat="70.466405558" lon="24.3192359754">
		<tag k="name" v="Futbukta" />
		<tag k="place" v="farm" />
		<tag k="ssr:stedsnr" v="140853" />
	</node>
	<node id="-793152" lat="70.4926555633" lon="24.0983471018">
		<tag k="fixme" v="consider place=hamlet" />
		<tag k="name" v="Gárgu" />
		<tag k="name:se" v="Gárgu" />
		<tag k="place" v="village" />
		<tag k="ssr:stedsnr" v="809836" />
	</node>
	<node id="-792949" lat="70.5190166657" lon="23.9706304479">
		<tag k="fixme" v="consider place=hamlet" />
		<tag k="name" v="Stallogargo - Stállogárggu" />
		<tag k="name:no" v="Stallogargo" />
		<tag k="name:se" v="Stállogárggu" />
		<tag k="old_name:no" v="Stállogárggu" />
		<tag k="place" v="village" />
		<tag k="ssr:stedsnr" v="687164" />
	</node>
	<node id="-792430" lat="70.5667777836" lon="24.1417471093">
		<tag k="name" v="Brennsvik" />
		<tag k="place" v="hamlet" />
		<tag k="ssr:stedsnr" v="89987" />
	</node>
	<node id="-792941" lat="70.614855608" lon="24.60621494">
		<tag k="fixme" v="multiple name tags, choose one and add the other to alt_name" />
		<tag k="name" v="Masterelv;Sivlejohka" />
		<tag k="name:se" v="Masterelv;Sivlejohka" />
		<tag k="place" v="hamlet" />
		<tag k="ssr:stedsnr" v="646356" />
	</node>
	<node id="-792936" lat="70.4537138903" lon="24.2806637484">
		<tag k="building" v="industrial" />
		<tag k="name" v="Folldal Verk" />
		<tag k="ssr:stedsnr" v="635918" />
	</node>
	<node id="-792423" lat="70.5167194509" lon="24.2197859974">
		<tag k="name" v="Gotterik" />
		<tag k="place" v="hamlet" />
		<tag k="ssr:stedsnr" v="89916" />
	</node>
	<node id="-792919" lat="70.4892305548" lon="24.2951109902">
		<tag k="name" v="Rågeluft - Roggeluokta" />
		<tag k="name:no" v="Rågeluft" />
		<tag k="name:se" v="Roggeluokta" />
		<tag k="old_name:se" v="Råggeluokta" />
		<tag k="place" v="hamlet" />
		<tag k="ssr:stedsnr" v="627859" />
	</node>
	<node id="-792918" lat="70.4849722276" lon="24.1875637716">
		<tag k="name" v="Kaggelv" />
		<tag k="place" v="farm" />
		<tag k="ssr:stedsnr" v="627851" />
	</node>
	<node id="-792907" lat="70.4453333368" lon="24.4031387599">
		<tag k="name" v="Solbakken" />
		<tag k="place" v="farm" />
		<tag k="ssr:stedsnr" v="626883" />
	</node>
	<node id="-792885" lat="70.5452027824" lon="23.9920971259">
		<tag k="name" v="Storbukt" />
		<tag k="place" v="hamlet" />
		<tag k="ssr:stedsnr" v="626206" />
	</node>
	<node id="-792368" lat="70.2690361135" lon="24.1008582207">
		<tag k="name" v="Áisaroaivi" />
		<tag k="name:se" v="Áisaroaivi" />
		<tag k="old_name:se" v="Aisaroaivi" />
		<tag k="place" v="hamlet" />
		<tag k="ssr:stedsnr" v="80708" />
	</node>
	<node id="-792365" lat="70.3522138942" lon="24.3566582094">
		<tag k="name" v="Knottheim" />
		<tag k="place" v="isolated_dwelling" />
		<tag k="ssr:stedsnr" v="80685" />
	</node>
	<node id="-792873" lat="70.4004472233" lon="23.6243193584">
		<tag k="name" v="Porsa" />
		<tag k="place" v="hamlet" />
		<tag k="ssr:stedsnr" v="578167" />
	</node>
	<node id="-792865" lat="70.4461305573" lon="24.3223026476">
		<tag k="name" v="Elvesletta" />
		<tag k="place" v="isolated_dwelling" />
		<tag k="ssr:stedsnr" v="574952" />
	</node>
	<node id="-792864" lat="70.4681944459" lon="24.3179887458">
		<tag k="name" v="Futbukt" />
		<tag k="place" v="hamlet" />
		<tag k="ssr:stedsnr" v="574951" />
	</node>
	<node id="-792343" lat="70.6172055646" lon="24.7040137344">
		<tag k="name" v="Solbakken" />
		<tag k="place" v="farm" />
		<tag k="ssr:stedsnr" v="32174" />
	</node>
	<node id="-792877" lat="70.6234750026" lon="24.6774081845">
		<tag k="fixme" v="multiple name tags, choose one and add the other to alt_name" />
		<tag k="name" v="Sealguohppi;Selkopp" />
		<tag k="name:se" v="Sealguohppi;Selkopp" />
		<tag k="place" v="hamlet" />
		<tag k="ssr:stedsnr" v="585378" />
	</node>
	<node id="-792837" lat="70.6488333368" lon="24.544913743">
		<tag k="name" v="Sommarjord - Geassegieddi" />
		<tag k="name:no" v="Sommarjord" />
		<tag k="name:se" v="Geassegieddi" />
		<tag k="old_name:se" v="Gæssegieddi" />
		<tag k="place" v="locality" />
		<tag k="ssr:stedsnr" v="566786" />
	</node>
	<node id="-792831" lat="70.5219138914" lon="23.7470193576">
		<tag k="name" v="Kargenes - Jiernáhkki" />
		<tag k="name:no" v="Kargenes" />
		<tag k="name:se" v="Jiernáhkki" />
		<tag k="old_name:se" v="Jiernakki" />
		<tag k="place" v="isolated_dwelling" />
		<tag k="ssr:stedsnr" v="566213" />
	</node>
	<node id="-792314" lat="70.4474250027" lon="24.3819804205">
		<tag k="name" v="Valle" />
		<tag k="place" v="farm" />
		<tag k="ssr:stedsnr" v="20884" />
	</node>
	<node id="-792614" lat="70.46667223" lon="24.267108204">
		<tag k="name" v="Govdedak - Gorahat" />
		<tag k="name:no" v="Govdedak" />
		<tag k="name:se" v="Gorahat" />
		<tag k="old_name:se" v="Gårahat" />
		<tag k="place" v="isolated_dwelling" />
		<tag k="ssr:stedsnr" v="262883" />
	</node>
	<node id="-792821" lat="70.450916668" lon="24.3389082055">
		<tag k="name" v="Lyngmo" />
		<tag k="place" v="isolated_dwelling" />
		<tag k="ssr:stedsnr" v="565872" />
	</node>
	<node id="-792308" lat="70.4736083339" lon="24.2561220829">
		<tag k="name" v="Dalheim" />
		<tag k="place" v="isolated_dwelling" />
		<tag k="ssr:stedsnr" v="20851" />
	</node>
	<node id="-793299" lat="70.5100555595" lon="24.0074721242">
		<tag k="name" v="Bjerkneseng" />
		<tag k="place" v="isolated_dwelling" />
		<tag k="ssr:stedsnr" v="958168" />
	</node>
	<node id="-792295" lat="70.4435388966" lon="24.3351248636">
		<tag k="name" v="Indrevoll" />
		<tag k="place" v="isolated_dwelling" />
		<tag k="ssr:stedsnr" v="20684" />
	</node>
	<node id="-792805" lat="70.4360888928" lon="24.4902720901">
		<tag k="name" v="Livheim" />
		<tag k="place" v="isolated_dwelling" />
		<tag k="ssr:stedsnr" v="565656" />
	</node>
	<node id="-792803" lat="70.4325388903" lon="24.5019665177">
		<tag k="fixme" v="consider place=hamlet" />
		<tag k="name" v="Skaidi" />
		<tag k="old_name" v="Skáidi" />
		<tag k="place" v="village" />
		<tag k="ssr:stedsnr" v="565653" />
	</node>
	<node id="-792290" lat="70.6664749998" lon="24.4666193173">
		<tag k="name" v="Jåvik" />
		<tag k="place" v="isolated_dwelling" />
		<tag k="ssr:stedsnr" v="20151" />
	</node>
	<node id="-792698" lat="70.4985749994" lon="23.8958193343">
		<tag k="name" v="Beritsjorda" />
		<tag k="place" v="isolated_dwelling" />
		<tag k="ssr:stedsnr" v="445944" />
	</node>
	<node id="-793303" lat="70.5661481019" lon="23.696002133">
		<tag k="name" v="Grøtnes" />
		<tag k="place" v="farm" />
		<tag k="ssr:stedsnr" v="979535" />
	</node>
	<node id="-792275" lat="70.3991777823" lon="24.4588137497">
		<tag k="alt_name" v="Muggheim" />
		<tag k="name" v="Myggheim" />
		<tag k="place" v="isolated_dwelling" />
		<tag k="ssr:stedsnr" v="19602" />
	</node>
	<node id="-792783" lat="70.5377222301" lon="24.1114276578">
		<tag k="name" v="Kildeberg" />
		<tag k="place" v="locality" />
		<tag k="ssr:stedsnr" v="514957" />
	</node>
	<node id="-792267" lat="70.6114509172" lon="24.6296331136">
		<tag k="alt_name" v="Kogelv vestre" />
		<tag k="name" v="Vestre Kokelv" />
		<tag k="place" v="farm" />
		<tag k="ssr:stedsnr" v="989676" />
	</node>
	<node id="-793289" lat="70.4331527812" lon="24.5210248682">
		<tag k="name" v="Repparfjord turisthotell" />
		<tag k="ssr:stedsnr" v="939621" />
		<tag k="tourism" v="hotel" />
	</node>
	<node id="-793286" lat="70.6101870742" lon="24.6410149753">
		<tag k="fixme" v="consider place=hamlet" />
		<tag k="loc_name:se" v="Goavkejohka;Jáhkovuonna" />
		<tag k="name" v="Kokelv - Jáhkovuotna" />
		<tag k="name:no" v="Kokelv" />
		<tag k="name:se" v="Jáhkovuotna" />
		<tag k="place" v="village" />
		<tag k="ssr:stedsnr" v="937917" />
	</node>
	<node id="-792260" lat="70.4321111139" lon="24.5046776219">
		<tag k="name" v="Skaidiplassen" />
		<tag k="place" v="square" />
		<tag k="ssr:stedsnr" v="898230" />
	</node>
	<node id="-792770" lat="70.4210388942" lon="23.67935268">
		<tag k="name" v="Oldervik - Leaibeluokta" />
		<tag k="name:no" v="Oldervik" />
		<tag k="name:se" v="Leaibeluokta" />
		<tag k="old_name:se" v="Læibeluokta" />
		<tag k="place" v="isolated_dwelling" />
		<tag k="ssr:stedsnr" v="506000" />
	</node>
	<node id="-792257" lat="70.4766861135" lon="23.6156388023">
		<tag k="name" v="Nordmannsjord" />
		<tag k="place" v="farm" />
		<tag k="ssr:stedsnr" v="883202" />
	</node>
	<node id="-792255" lat="70.5527555574" lon="23.7200387943">
		<tag k="name" v="Nordre Skjåholmen" />
		<tag k="place" v="farm" />
		<tag k="ssr:stedsnr" v="882714" />
	</node>
	<node id="-792250" lat="70.3898638896" lon="23.4790193474">
		<tag k="name" v="Olderbukta" />
		<tag k="place" v="isolated_dwelling" />
		<tag k="ssr:stedsnr" v="397554" />
	</node>
	<node id="-792247" lat="70.482250001" lon="23.8239137981">
		<tag k="name" v="Jeveluft" />
		<tag k="place" v="locality" />
		<tag k="ssr:stedsnr" v="393798" />
	</node>
	<node id="-793266" lat="70.4788361156" lon="24.310238774">
		<tag k="name" v="Stokkeberg" />
		<tag k="place" v="isolated_dwelling" />
		<tag k="ssr:stedsnr" v="930858" />
	</node>
	<node id="-793264" lat="70.5047416651" lon="24.0563193363">
		<tag k="fixme" v="consider place=hamlet" />
		<tag k="name" v="Slettelv - Šleafttajohka" />
		<tag k="name:no" v="Slettelv" />
		<tag k="name:se" v="Šleafttajohka" />
		<tag k="old_name:se" v="Šlæftajåkka" />
		<tag k="place" v="village" />
		<tag k="ssr:stedsnr" v="930850" />
	</node>
	<node id="-792750" lat="70.1761833364" lon="23.885258214">
		<tag k="name" v="Levdun" />
		<tag k="place" v="farm" />
		<tag k="ssr:stedsnr" v="505832" />
	</node>
	<node id="-792237" lat="70.5121888958" lon="23.8433943458">
		<tag k="name" v="Hanselv" />
		<tag k="place" v="hamlet" />
		<tag k="ssr:stedsnr" v="392660" />
	</node>
	<node id="-793253" lat="70.3849611186" lon="23.5826610178">
		<tag k="fixme" v="consider place=hamlet" />
		<tag k="name" v="Saraby - Jiepmaluokta" />
		<tag k="name:no" v="Saraby" />
		<tag k="name:se" v="Jiepmaluokta" />
		<tag k="old_name:se" v="Jiebmaluokta" />
		<tag k="place" v="village" />
		<tag k="ssr:stedsnr" v="930790" />
	</node>
	<node id="-792224" lat="70.6234750026" lon="24.6774081845">
		<tag k="name" v="Selkopp - Sealguohppi" />
		<tag k="name:no" v="Selkopp" />
		<tag k="name:se" v="Sealguohppi" />
		<tag k="old_name:se" v="Sælguoppi" />
		<tag k="place" v="farm" />
		<tag k="ssr:stedsnr" v="384826" />
	</node>
	<node id="-792219" lat="70.4989666685" lon="24.0707915401">
		<tag k="name" v="Leirbukt - Láiragohppi" />
		<tag k="name:no" v="Leirbukt" />
		<tag k="name:se" v="Láiragohppi" />
		<tag k="old_name:se" v="Lairagappi" />
		<tag k="place" v="farm" />
		<tag k="ssr:stedsnr" v="384810" />
	</node>
	<node id="-793241" lat="70.5112555556" lon="23.8457221252">
		<tag k="name" v="Hanselv" />
		<tag k="place" v="isolated_dwelling" />
		<tag k="ssr:stedsnr" v="930164" />
	</node>
	<node id="-792942" lat="70.5843194495" lon="23.8600498913">
		<tag k="fixme" v="consider tourism=alpine_hut or tourism=chalet" />
		<tag k="name" v="Svartfjellhytta" />
		<tag k="ssr:stedsnr" v="662574" />
		<tag k="tourism" v="wilderness_hut" />
	</node>
	<node id="-793234" lat="70.4843027771" lon="24.1902609918">
		<tag k="name" v="Kakelv" />
		<tag k="place" v="hamlet" />
		<tag k="ssr:stedsnr" v="878994" />
	</node>
	<node id="-792206" lat="70.5087638893" lon="23.8752248855">
		<tag k="name" v="Alnes" />
		<tag k="place" v="farm" />
		<tag k="ssr:stedsnr" v="384181" />
	</node>
	<node id="-793227" lat="70.4339444477" lon="24.501005404">
		<tag k="name" v="Skaidi gjestehus" />
		<tag k="ssr:stedsnr" v="878658" />
		<tag k="tourism" v="guest_house" />
	</node>
	<node id="-793223" lat="70.4987222268" lon="23.8978610149">
		<tag k="name" v="Beretsjord" />
		<tag k="place" v="hamlet" />
		<tag k="ssr:stedsnr" v="878595" />
	</node>
	<node id="-792186" lat="70.6820888924" lon="24.3490804378">
		<tag k="name" v="Revsneshamn - Áhpenjárgohppi" />
		<tag k="name:no" v="Revsneshamn" />
		<tag k="name:se" v="Áhpenjárgohppi" />
		<tag k="old_name:se" v="Appenjargåppi" />
		<tag k="place" v="farm" />
		<tag k="ssr:stedsnr" v="383137" />
	</node>
	<node id="-793207" lat="70.5701250044" lon="24.156580436">
		<tag k="name" v="Ytre Brennsvik" />
		<tag k="old_name" v="Brennsvik, yt" />
		<tag k="place" v="farm" />
		<tag k="ssr:stedsnr" v="870802" />
	</node>
	<node id="-792180" lat="70.4992861129" lon="24.0719610047">
		<tag k="name" v="Einarstrand" />
		<tag k="place" v="farm" />
		<tag k="ssr:stedsnr" v="351849" />
	</node>
	<node id="-792691" lat="70.4880055618" lon="24.295980417">
		<tag k="name" v="Lian" />
		<tag k="place" v="hamlet" />
		<tag k="ssr:stedsnr" v="445846" />
	</node>
	<node id="-792173" lat="70.4923944456" lon="24.1017610053">
		<tag k="alt_name" v="Langøra" />
		<tag k="name" v="Langør" />
		<tag k="place" v="farm" />
		<tag k="ssr:stedsnr" v="332981" />
	</node>
	<node id="-793195" lat="70.399813894" lon="23.6236388054">
		<tag k="name" v="Porsa - Borsi" />
		<tag k="name:no" v="Porsa" />
		<tag k="name:se" v="Borsi" />
		<tag k="old_name:se" v="Bårsi" />
		<tag k="place" v="farm" />
		<tag k="ssr:stedsnr" v="869987" />
	</node>
	<node id="-792168" lat="70.5475388899" lon="23.728247117">
		<tag k="name" v="Skjåholmen" />
		<tag k="place" v="hamlet" />
		<tag k="ssr:stedsnr" v="332602" />
	</node>
	<node id="-792165" lat="70.5111333361" lon="24.0252971112">
		<tag k="fixme" v="consider place=hamlet" />
		<tag k="name" v="Halsen" />
		<tag k="place" v="village" />
		<tag k="ssr:stedsnr" v="332565" />
	</node>
	<node id="-793177" lat="70.5428055584" lon="23.9946860143">
		<tag k="name" v="Johannesplass" />
		<tag k="place" v="isolated_dwelling" />
		<tag k="ssr:stedsnr" v="837202" />
	</node>
	<node id="-793176" lat="70.5113444435" lon="24.0379304501">
		<tag k="name" v="Indre Halsen" />
		<tag k="place" v="hamlet" />
		<tag k="ssr:stedsnr" v="837146" />
	</node>
	<node id="-793175" lat="70.4629944471" lon="23.7849110044">
		<tag k="name" v="Klubben" />
		<tag k="place" v="farm" />
		<tag k="ssr:stedsnr" v="822555" />
	</node>
	<node id="-792589" lat="70.612352785" lon="24.6284637334">
		<tag k="name" v="Goavkejohka" />
		<tag k="name:se" v="Goavkejohka" />
		<tag k="old_name:se" v="Goavkejåkka" />
		<tag k="place" v="hamlet" />
		<tag k="ssr:stedsnr" v="220315" />
	</node>
	<node id="-793162" lat="70.4338222212" lon="23.7221304605">
		<tag k="name" v="Varmelva" />
		<tag k="place" v="locality" />
		<tag k="ssr:stedsnr" v="809976" />
	</node>
	<node id="-793161" lat="70.4731361141" lon="23.7960665682">
		<tag k="name" v="Fiskelv - Hávgajohka" />
		<tag k="name:no" v="Fiskelv" />
		<tag k="name:se" v="Hávgajohka" />
		<tag k="old_name:se" v="Havgajåkka" />
		<tag k="place" v="farm" />
		<tag k="ssr:stedsnr" v="809968" />
	</node>
	<node id="-793159" lat="70.4981055574" lon="23.9749582262">
		<tag k="name" v="Storjorda" />
		<tag k="place" v="locality" />
		<tag k="ssr:stedsnr" v="809947" />
	</node>
	<node id="-792645" lat="70.4429583333" lon="23.6352360148">
		<tag k="name" v="Jernelv - Ruovdejohka" />
		<tag k="name:no" v="Jernelv" />
		<tag k="name:se" v="Ruovdejohka" />
		<tag k="old_name:se" v="Ruovdejåkka" />
		<tag k="place" v="isolated_dwelling" />
		<tag k="ssr:stedsnr" v="263977" />
	</node>
	<node id="-792128" lat="70.5255472223" lon="24.1760637628">
		<tag k="name" v="Oldervik" />
		<tag k="place" v="hamlet" />
		<tag k="ssr:stedsnr" v="323782" />
	</node>
	<node id="-792639" lat="70.5174138975" lon="24.7662442851">
		<tag k="name" v="Heastageađgi" />
		<tag k="name:se" v="Heastageađgi" />
		<tag k="old_name:se" v="Hæstagæđgi" />
		<tag k="place" v="isolated_dwelling" />
		<tag k="ssr:stedsnr" v="263921" />
	</node>
	<node id="-792124" lat="70.623447227" lon="24.5943498578">
		<tag k="alt_name:no" v="Storjorda" />
		<tag k="name" v="Storjord - Stuorragieddi" />
		<tag k="name:no" v="Storjord" />
		<tag k="name:se" v="Stuorragieddi" />
		<tag k="place" v="isolated_dwelling" />
		<tag k="ssr:stedsnr" v="323770" />
	</node>
	<node id="-792123" lat="70.3780749997" lon="23.5661721325">
		<tag k="name" v="Gárgu" />
		<tag k="name:se" v="Gárgu" />
		<tag k="old_name:se" v="Gargo" />
		<tag k="place" v="isolated_dwelling" />
		<tag k="ssr:stedsnr" v="323766" />
	</node>
	<node id="-793146" lat="70.5354500009" lon="24.1109776617">
		<tag k="alt_name:no" v="Klubbukta" />
		<tag k="fixme" v="consider place=hamlet" />
		<tag k="name" v="Klubbukt - Klubbu" />
		<tag k="name:no" v="Klubbukt" />
		<tag k="name:se" v="Klubbu" />
		<tag k="old_name:se" v="Klubbo" />
		<tag k="place" v="village" />
		<tag k="ssr:stedsnr" v="809797" />
	</node>
	<node id="-792113" lat="70.5657972222" lon="23.6956332312">
		<tag k="name" v="Gerdheim" />
		<tag k="place" v="farm" />
		<tag k="ssr:stedsnr" v="323208" />
	</node>
	<node id="-792624" lat="70.6265472261" lon="24.5850387408">
		<tag k="name" v="Sæterjord - Bađatluokta" />
		<tag k="name:no" v="Sæterjord" />
		<tag k="name:se" v="Bađatluokta" />
		<tag k="place" v="isolated_dwelling" />
		<tag k="ssr:stedsnr" v="263767" />
	</node>
	<node id="-792622" lat="70.5417083361" lon="23.7308026882">
		<tag k="alt_name" v="Søre Skjåholmen" />
		<tag k="name" v="Skjåholmen" />
		<tag k="place" v="farm" />
		<tag k="ssr:stedsnr" v="263248" />
	</node>
	<node id="-792618" lat="70.509036116" lon="23.8588249037">
		<tag k="name" v="Hammarnes" />
		<tag k="place" v="isolated_dwelling" />
		<tag k="ssr:stedsnr" v="263186" />
	</node>
	<node id="-792615" lat="70.4565166683" lon="24.2770831937">
		<tag k="name" v="Øyen" />
		<tag k="place" v="locality" />
		<tag k="ssr:stedsnr" v="262889" />
	</node>
	<node id="-792102" lat="70.5329222238" lon="24.1388970948">
		<tag k="name" v="Indre Klubbenes" />
		<tag k="place" v="hamlet" />
		<tag k="ssr:stedsnr" v="290853" />
	</node>
	<node id="-793122" lat="70.5046805588" lon="24.2603387685">
		<tag k="name" v="Indre Erdal - Earnjoaski" />
		<tag k="name:no" v="Indre Erdal" />
		<tag k="name:se" v="Earnjoaski" />
		<tag k="old_name:no" v="Erdal, in" />
		<tag k="old_name:se" v="Ærnjoaski" />
		<tag k="place" v="farm" />
		<tag k="ssr:stedsnr" v="808833" />
	</node>
	<node id="-793118" lat="70.3715166697" lon="23.5509443574">
		<tag k="name" v="Bonapart" />
		<tag k="place" v="locality" />
		<tag k="ssr:stedsnr" v="808773" />
	</node>
	<node id="-792665" lat="70.2233055588" lon="23.9661971128">
		<tag k="name" v="Gietkanášša" />
		<tag k="name:se" v="Gietkanášša" />
		<tag k="old_name:se" v="Gietkarnašša" />
		<tag k="place" v="locality" />
		<tag k="ssr:stedsnr" v="444850" />
	</node>
	<node id="-792664" lat="70.4749944463" lon="24.2568859755">
		<tag k="name" v="Markopp" />
		<tag k="old_name" v="Markop" />
		<tag k="place" v="hamlet" />
		<tag k="ssr:stedsnr" v="444845" />
	</node>
	<node id="-792590" lat="70.5355722244" lon="24.1140582082">
		<tag k="name" v="Ytre Klubbenes" />
		<tag k="place" v="hamlet" />
		<tag k="ssr:stedsnr" v="230851" />
	</node>
	<node id="-793261" lat="70.4899361179" lon="24.1378693223">
		<tag k="name" v="Fiskevik" />
		<tag k="place" v="isolated_dwelling" />
		<tag k="ssr:stedsnr" v="930838" />
	</node>
	<node id="-793099" lat="70.5172777854" lon="24.2184137572">
		<tag k="name" v="Ytre Erdal" />
		<tag k="old_name" v="Erdal, yt" />
		<tag k="place" v="farm" />
		<tag k="ssr:stedsnr" v="869862" />
	</node>
	<node id="-793095" lat="70.5105111139" lon="24.0217165623">
		<tag k="fixme" v="multiple name tags, choose one and add the other to alt_name; consider place=hamlet" />
		<tag k="name" v="Halsen;Ytre Halsen - Čeaváhaš" />
		<tag k="name:no" v="Halsen;Ytre Halsen" />
		<tag k="name:se" v="Čeaváhaš" />
		<tag k="old_name:se" v="Čævahaš" />
		<tag k="place" v="village" />
		<tag k="ssr:stedsnr" v="869815" />
	</node>
	<node id="-792581" lat="70.5337833335" lon="24.1362776644">
		<tag k="name" v="Vinterelv" />
		<tag k="place" v="hamlet" />
		<tag k="ssr:stedsnr" v="211952" />
	</node>
	<node id="-792579" lat="70.4708222267" lon="23.7912304453">
		<tag k="name" v="Gárgu" />
		<tag k="name:se" v="Gárgu" />
		<tag k="place" v="farm" />
		<tag k="ssr:stedsnr" v="211817" />
	</node>
</osm>
