<?xml version="1.0" encoding="UTF-8"?>
<osm generator="osmapis" version="0.6">
	<node id="-792576" lat="70.3623944521" lon="23.8550748941">
		<tag k="name" v="Holmvatnet - Gihtaidsuolojávri" />
		<tag k="name:no" v="Holmvatnet" />
		<tag k="name:se" v="Gihtaidsuolojávri" />
		<tag k="natural" v="water" />
		<tag k="old_name:se" v="Gittaidsuolujavri;Gittaidsuolojávri" />
		<tag k="ssr:stedsnr" v="748781" />
		<tag k="water" v="lake" />
	</node>
	<node id="-792573" lat="70.6064888946" lon="24.0078999061">
		<tag k="name" v="Fjellfinnvatnet" />
		<tag k="natural" v="water" />
		<tag k="ssr:stedsnr" v="748768" />
	</node>
	<node id="-792570" lat="70.5648305583" lon="23.7269332418">
		<tag k="name" v="Grøtneselva - Guohcajohka" />
		<tag k="name:no" v="Grøtneselva" />
		<tag k="name:se" v="Guohcajohka" />
		<tag k="old_name:se" v="Guoccajåkka" />
		<tag k="ssr:stedsnr" v="748190" />
		<tag k="waterway" v="river" />
	</node>
	<node id="-792563" lat="70.6740194516" lon="24.3646415315">
		<tag k="name" v="Njárgajávri" />
		<tag k="name:se" v="Njárgajávri" />
		<tag k="natural" v="water" />
		<tag k="old_name:se" v="Njargajavri" />
		<tag k="ssr:stedsnr" v="748137" />
		<tag k="water" v="lake" />
	</node>
	<node id="-792562" lat="70.5881388919" lon="24.5812581816">
		<tag k="name" v="Reinelva" />
		<tag k="ssr:stedsnr" v="748030" />
		<tag k="waterway" v="river" />
	</node>
	<node id="-792561" lat="70.5737694475" lon="24.2847221078">
		<tag k="name" v="Kvalvikelva - Fálesjohka" />
		<tag k="name:no" v="Kvalvikelva" />
		<tag k="name:se" v="Fálesjohka" />
		<tag k="old_name:se" v="Falesjåkka" />
		<tag k="ssr:stedsnr" v="748028" />
		<tag k="waterway" v="river" />
	</node>
	<node id="-792560" lat="70.2206833338" lon="24.1165470932">
		<tag k="name" v="Myrlandselva - Bastinjohka" />
		<tag k="name:no" v="Myrlandselva" />
		<tag k="name:se" v="Bastinjohka" />
		<tag k="old_name:se" v="Bastinjåkka" />
		<tag k="ssr:stedsnr" v="747995" />
		<tag k="waterway" v="river" />
	</node>
	<node id="-792559" lat="70.1475166716" lon="24.1625220841">
		<tag k="name" v="Linnjaluoppal" />
		<tag k="name:se" v="Linnjaluoppal" />
		<tag k="natural" v="water" />
		<tag k="old_name:se" v="Linnjaluobbal" />
		<tag k="ssr:stedsnr" v="747959" />
	</node>
	<node id="-792558" lat="70.1654722217" lon="24.0109804417">
		<tag k="name" v="Mađđejohka" />
		<tag k="name:se" v="Mađđejohka" />
		<tag k="old_name:se" v="Mađđejåkka" />
		<tag k="ssr:stedsnr" v="747956" />
		<tag k="waterway" v="river" />
	</node>
	<node id="-792557" lat="70.2022666706" lon="24.3055220721">
		<tag k="name" v="Opmojávri" />
		<tag k="name:se" v="Opmojávri" />
		<tag k="natural" v="water" />
		<tag k="old_name:se" v="Åbmujavri" />
		<tag k="ssr:stedsnr" v="747945" />
		<tag k="water" v="lake" />
	</node>
	<node id="-792555" lat="70.4566138952" lon="24.4896220701">
		<tag k="name" v="Fállebahjohka" />
		<tag k="name:se" v="Fállebahjohka" />
		<tag k="ssr:stedsnr" v="747868" />
		<tag k="waterway" v="river" />
	</node>
	<node id="-792554" lat="70.4590472278" lon="24.58025542">
		<tag k="name" v="Gobesisjávri" />
		<tag k="name:se" v="Gobesisjávri" />
		<tag k="natural" v="water" />
		<tag k="old_name:se" v="Gåbesisjavri" />
		<tag k="ssr:stedsnr" v="747866" />
	</node>
	<node id="-792553" lat="70.4570833417" lon="24.2270276478">
		<tag k="name" v="Langvatnet" />
		<tag k="natural" v="water" />
		<tag k="ssr:stedsnr" v="747856" />
	</node>
	<node id="-792552" lat="70.4643333323" lon="24.1398471091">
		<tag k="name" v="Svartfjellvatnet" />
		<tag k="natural" v="water" />
		<tag k="ssr:stedsnr" v="747853" />
	</node>
	<node id="-792550" lat="70.392302778" lon="23.7829026635">
		<tag k="alt_name" v="Falkvatn" />
		<tag k="name" v="Falkvatnan" />
		<tag k="natural" v="water" />
		<tag k="ssr:stedsnr" v="747766" />
		<tag k="water" v="lake" />
	</node>
	<node id="-792549" lat="70.4788000069" lon="24.6307665087">
		<tag k="name" v="Guorrujohgierratjávrrit" />
		<tag k="name:se" v="Guorrujohgierratjávrrit" />
		<tag k="natural" v="water" />
		<tag k="old_name:se" v="Guorrujåkgierratjavrit" />
		<tag k="ssr:stedsnr" v="747681" />
	</node>
	<node id="-792548" lat="70.3347833352" lon="24.0023971118">
		<tag k="name" v="Gárdejávri" />
		<tag k="name:se" v="Gárdejávri" />
		<tag k="natural" v="water" />
		<tag k="old_name:se" v="Gardejavri" />
		<tag k="ssr:stedsnr" v="747671" />
	</node>
	<node id="-792547" lat="70.3513583426" lon="24.4725915136">
		<tag k="name" v="Bajit Doggejávri" />
		<tag k="name:se" v="Bajit Doggejávri" />
		<tag k="natural" v="water" />
		<tag k="ssr:stedsnr" v="747668" />
		<tag k="water" v="lake" />
	</node>
	<node id="-792545" lat="70.4098944512" lon="24.2792859945">
		<tag k="name" v="Rødfjellvannet - Ruksesbávttejávri" />
		<tag k="name:no" v="Rødfjellvannet" />
		<tag k="name:se" v="Ruksesbávttejávri" />
		<tag k="natural" v="water" />
		<tag k="old_name:se" v="Ruksesbavtejavri" />
		<tag k="ssr:stedsnr" v="747638" />
		<tag k="water" v="lake" />
	</node>
	<node id="-792543" lat="70.388741669" lon="24.1891248839">
		<tag k="name" v="Govdavákjávrrit" />
		<tag k="name:se" v="Govdavákjávrrit" />
		<tag k="natural" v="water" />
		<tag k="old_name:se" v="Gåvdavagjavrit;Gavdarágjávri" />
		<tag k="ssr:stedsnr" v="747633" />
		<tag k="water" v="lake" />
	</node>
	<node id="-792538" lat="70.4691194452" lon="23.9465054465">
		<tag k="fixme" v="multiple name tags, choose one and add the other to alt_name" />
		<tag k="name" v="Korselva;Tverrelva - Suolojohka" />
		<tag k="name:no" v="Korselva;Tverrelva" />
		<tag k="name:se" v="Suolojohka" />
		<tag k="old_name:se" v="Suolujåkka" />
		<tag k="ssr:stedsnr" v="869562" />
		<tag k="waterway" v="river" />
	</node>
	<node id="-792528" lat="70.5031722258" lon="24.2749804381">
		<tag k="name" v="Kildeelva" />
		<tag k="ssr:stedsnr" v="696899" />
		<tag k="waterway" v="stream" />
	</node>
	<node id="-792520" lat="70.5896583394" lon="24.653049856">
		<tag k="alt_name:no" v="Rottelva" />
		<tag k="name" v="Råttelva - Guohcajohka" />
		<tag k="name:no" v="Råttelva" />
		<tag k="name:se" v="Guohcajohka" />
		<tag k="old_name:se" v="Guoccajåkka" />
		<tag k="ssr:stedsnr" v="688884" />
		<tag k="waterway" v="stream" />
	</node>
	<node id="-792519" lat="70.5822861168" lon="24.6556054201">
		<tag k="name" v="Råttvatnet - Guohcajávri" />
		<tag k="name:no" v="Råttvatnet" />
		<tag k="name:se" v="Guohcajávri" />
		<tag k="natural" v="water" />
		<tag k="old_name:se" v="Guoccajavri" />
		<tag k="ssr:stedsnr" v="688879" />
	</node>
	<node id="-792514" lat="70.538950002" lon="24.5073804152">
		<tag k="name" v="Goavkejávri" />
		<tag k="name:se" v="Goavkejávri" />
		<tag k="natural" v="water" />
		<tag k="old_name:se" v="Goavkejavri" />
		<tag k="ssr:stedsnr" v="688798" />
	</node>
	<node id="-792511" lat="70.2238611154" lon="24.1885915442">
		<tag k="name" v="Njunnásjohka" />
		<tag k="name:se" v="Njunnásjohka" />
		<tag k="old_name:se" v="Njunnasjåkka" />
		<tag k="ssr:stedsnr" v="687999" />
		<tag k="waterway" v="river" />
	</node>
	<node id="-792508" lat="70.4914055607" lon="23.5979249153">
		<tag k="name" v="Kirstenvatnet" />
		<tag k="natural" v="water" />
		<tag k="ssr:stedsnr" v="687969" />
	</node>
	<node id="-792504" lat="70.1995361124" lon="23.9588054496">
		<tag k="name" v="Áidejohka" />
		<tag k="name:se" v="Áidejohka" />
		<tag k="old_name:se" v="Aidejåkka" />
		<tag k="ssr:stedsnr" v="687878" />
		<tag k="waterway" v="river" />
	</node>
	<node id="-792503" lat="70.4574555603" lon="24.2101915359">
		<tag k="name" v="Dypelva - Čiekŋalisjohka" />
		<tag k="name:no" v="Dypelva" />
		<tag k="name:se" v="Čiekŋalisjohka" />
		<tag k="old_name:se" v="Čiegŋalisjåkka" />
		<tag k="ssr:stedsnr" v="687867" />
		<tag k="waterway" v="river" />
	</node>
	<node id="-792502" lat="70.5046500002" lon="24.3263304213">
		<tag k="name" v="Erdalselva - Earnjoasjohka" />
		<tag k="name:no" v="Erdalselva" />
		<tag k="name:se" v="Earnjoasjohka" />
		<tag k="old_name:se" v="Ærnjoasjåkka" />
		<tag k="ssr:stedsnr" v="687852" />
		<tag k="waterway" v="river" />
	</node>
	<node id="-792501" lat="70.5081500032" lon="24.3473165472">
		<tag k="name" v="Heargejohka" />
		<tag k="name:se" v="Heargejohka" />
		<tag k="old_name:se" v="Hærgejåkka" />
		<tag k="ssr:stedsnr" v="687851" />
		<tag k="waterway" v="stream" />
	</node>
	<node id="-792500" lat="70.3323861103" lon="23.8762082211">
		<tag k="name" v="Bajit Suhpodanjávri" />
		<tag k="name:se" v="Bajit Suhpodanjávri" />
		<tag k="natural" v="water" />
		<tag k="old_name:se" v="Suppudanjavri, bajit" />
		<tag k="ssr:stedsnr" v="687785" />
		<tag k="water" v="lake" />
	</node>
	<node id="-792497" lat="70.6235861147" lon="24.0954832343">
		<tag k="name" v="Halsevatnet" />
		<tag k="natural" v="water" />
		<tag k="ssr:stedsnr" v="687776" />
	</node>
	<node id="-792493" lat="70.3564833393" lon="24.0755387847">
		<tag k="name" v="Bohtaljávri" />
		<tag k="name:se" v="Bohtaljávri" />
		<tag k="natural" v="water" />
		<tag k="old_name:se" v="Båttaljavri" />
		<tag k="ssr:stedsnr" v="687692" />
	</node>
	<node id="-792492" lat="70.3460194481" lon="24.2159971062">
		<tag k="name" v="Fanasjohka" />
		<tag k="name:se" v="Fanasjohka" />
		<tag k="old_name:se" v="Fanasjåkka" />
		<tag k="ssr:stedsnr" v="687691" />
		<tag k="waterway" v="stream" />
	</node>
	<node id="-792491" lat="70.3451666724" lon="24.0423720972">
		<tag k="name" v="Ruohtojávri" />
		<tag k="name:se" v="Ruohtojávri" />
		<tag k="natural" v="water" />
		<tag k="old_name:se" v="Ruottujavri" />
		<tag k="ssr:stedsnr" v="687687" />
	</node>
	<node id="-792490" lat="70.4388333352" lon="24.2859609722">
		<tag k="name" v="Ytre Ariselv - Olggut Árešjohka" />
		<tag k="name:no" v="Ytre Ariselv" />
		<tag k="name:se" v="Olggut Árešjohka" />
		<tag k="old_name:no" v="Ariselv ytre" />
		<tag k="old_name:se" v="Arešjåkka, ålgot" />
		<tag k="ssr:stedsnr" v="687661" />
		<tag k="waterway" v="river" />
	</node>
	<node id="-792489" lat="70.4212916732" lon="24.0548860106">
		<tag k="name" v="Guoirratjohka" />
		<tag k="name:se" v="Guoirratjohka" />
		<tag k="old_name:se" v="Guoiratjåkka" />
		<tag k="ssr:stedsnr" v="687652" />
		<tag k="waterway" v="stream" />
	</node>
	<node id="-792485" lat="70.3995972224" lon="24.486744308">
		<tag k="name" v="Heastajohka" />
		<tag k="name:se" v="Heastajohka" />
		<tag k="old_name:se" v="Hæstajåkka" />
		<tag k="ssr:stedsnr" v="687634" />
		<tag k="waterway" v="stream" />
	</node>
	<node id="-792482" lat="70.2069083353" lon="23.8241693429">
		<tag k="name" v="Suolojohka" />
		<tag k="name:se" v="Suolojohka" />
		<tag k="old_name:se" v="Suolujåkka" />
		<tag k="ssr:stedsnr" v="687441" />
		<tag k="waterway" v="river" />
	</node>
	<node id="-792479" lat="70.5562583362" lon="23.7878332397">
		<tag k="name" v="Gieldaluokjávri" />
		<tag k="name:se" v="Gieldaluokjávri" />
		<tag k="natural" v="water" />
		<tag k="old_name:se" v="Gieldaluokjavri" />
		<tag k="ssr:stedsnr" v="687180" />
	</node>
	<node id="-792464" lat="70.4477194509" lon="24.3258720975">
		<tag k="name" v="Hestekulpen" />
		<tag k="place" v="locality" />
		<tag k="ssr:stedsnr" v="635913" />
	</node>
	<node id="-792463" lat="70.3276027797" lon="23.8984860036">
		<tag k="name" v="Bollevatnan" />
		<tag k="natural" v="water" />
		<tag k="ssr:stedsnr" v="635887" />
		<tag k="water" v="lake" />
	</node>
	<node id="-792462" lat="70.4988749994" lon="24.2758332055">
		<tag k="name" v="Vággijohka" />
		<tag k="name:se" v="Vággijohka" />
		<tag k="ssr:stedsnr" v="635873" />
		<tag k="waterway" v="stream" />
	</node>
	<node id="-792461" lat="70.532075" lon="24.0029832285">
		<tag k="name" v="Selgošgáddi" />
		<tag k="name:se" v="Selgošgáddi" />
		<tag k="natural" v="beach" />
		<tag k="ssr:stedsnr" v="635780" />
	</node>
	<node id="-792457" lat="70.3284138913" lon="23.901174895">
		<tag k="name" v="Vuolit Suhpodanjávri" />
		<tag k="name:se" v="Vuolit Suhpodanjávri" />
		<tag k="natural" v="water" />
		<tag k="old_name:se" v="Suppudanjavri, vuolit" />
		<tag k="ssr:stedsnr" v="632450" />
		<tag k="water" v="lake" />
	</node>
	<node id="-792456" lat="70.146266666" lon="24.1285665467">
		<tag k="fixme" v="multiple name tags, choose one and add the other to alt_name" />
		<tag k="name" v="Myrlandsvannet - Oarjjit Bastinjávri;Vuomejávri" />
		<tag k="name:no" v="Myrlandsvannet" />
		<tag k="name:se" v="Oarjjit Bastinjávri;Vuomejávri" />
		<tag k="natural" v="water" />
		<tag k="old_name:se" v="Bastinjavri, oarjit;Vuomejavri;Oarjit Bastinjávri" />
		<tag k="ssr:stedsnr" v="630953" />
		<tag k="water" v="lake" />
	</node>
	<node id="-792455" lat="70.4278805559" lon="23.4212888119">
		<tag k="name" v="Jiehkevuolesjávri" />
		<tag k="name:se" v="Jiehkevuolesjávri" />
		<tag k="natural" v="water" />
		<tag k="old_name:se" v="Jiekkevuolesjavri" />
		<tag k="ssr:stedsnr" v="627996" />
	</node>
	<node id="-792451" lat="70.516358336" lon="24.7708554047">
		<tag k="name" v="Smávvaguollejávrrit" />
		<tag k="name:se" v="Smávvaguollejávrrit" />
		<tag k="natural" v="water" />
		<tag k="old_name:se" v="Smavvaguollejavrit" />
		<tag k="ssr:stedsnr" v="627927" />
	</node>
	<node id="-792449" lat="70.5666111161" lon="24.7486276107">
		<tag k="name" v="Giđđajohka" />
		<tag k="name:se" v="Giđđajohka" />
		<tag k="old_name:se" v="Giđđajåkka" />
		<tag k="ssr:stedsnr" v="627898" />
		<tag k="waterway" v="stream" />
	</node>
	<node id="-792443" lat="70.5346500048" lon="24.1826304362">
		<tag k="name" v="Vinterelva - Dálvesaijohka" />
		<tag k="name:no" v="Vinterelva" />
		<tag k="name:se" v="Dálvesaijohka" />
		<tag k="old_name:se" v="Dalvesajjåkka" />
		<tag k="ssr:stedsnr" v="627798" />
		<tag k="waterway" v="river" />
	</node>
	<node id="-792440" lat="70.2182583349" lon="24.3197776354">
		<tag k="name" v="Bajit Gáhččalanjávri" />
		<tag k="name:se" v="Bajit Gáhččalanjávri" />
		<tag k="natural" v="water" />
		<tag k="old_name:se" v="Gaččalanjavri, bajit" />
		<tag k="ssr:stedsnr" v="626953" />
		<tag k="water" v="lake" />
	</node>
	<node id="-792437" lat="70.4483750019" lon="24.3172915387">
		<tag k="name" v="Oldernes" />
		<tag k="natural" v="cape" />
		<tag k="ssr:stedsnr" v="626885" />
	</node>
	<node id="-792435" lat="70.441925005" lon="24.1016915591">
		<tag k="name" v="Hoalloluoppal" />
		<tag k="name:se" v="Hoalloluoppal" />
		<tag k="natural" v="water" />
		<tag k="old_name:se" v="Hoalluluobbal" />
		<tag k="ssr:stedsnr" v="626878" />
	</node>
	<node id="-792434" lat="70.4482194496" lon="24.2395415369">
		<tag k="name" v="Geresjohka" />
		<tag k="name:se" v="Geresjohka" />
		<tag k="old_name:se" v="Geresjåkka" />
		<tag k="ssr:stedsnr" v="626875" />
		<tag k="waterway" v="stream" />
	</node>
	<node id="-792433" lat="70.4542027827" lon="24.1830971057">
		<tag k="name" v="Ásajávri" />
		<tag k="name:se" v="Ásajávri" />
		<tag k="natural" v="water" />
		<tag k="old_name:se" v="Asajavri" />
		<tag k="ssr:stedsnr" v="626867" />
		<tag k="water" v="lake" />
	</node>
	<node id="-792431" lat="70.4955138894" lon="24.0213387834">
		<tag k="fixme" v="multiple name tags, choose one and add the other to alt_name" />
		<tag k="name" v="Lille Halsevatn;Nedre Halsevatnet" />
		<tag k="natural" v="water" />
		<tag k="old_name" v="Halsevatnet, nedre" />
		<tag k="ssr:stedsnr" v="626847" />
	</node>
	<node id="-792429" lat="70.3461972245" lon="23.7151165767">
		<tag k="name" v="Gihtaidjohmohkki" />
		<tag k="name:se" v="Gihtaidjohmohkki" />
		<tag k="old_name:se" v="Gittaidjåkmåkki" />
		<tag k="ssr:stedsnr" v="626795" />
		<tag k="waterway" v="river" />
	</node>
	<node id="-792428" lat="70.3504583397" lon="23.8568304518">
		<tag k="name" v="Gressvatnet - Gievdnejávri" />
		<tag k="name:no" v="Gressvatnet" />
		<tag k="name:se" v="Gievdnejávri" />
		<tag k="natural" v="water" />
		<tag k="old_name:se" v="Gievdnejavri" />
		<tag k="ssr:stedsnr" v="626792" />
		<tag k="water" v="lake" />
	</node>
	<node id="-792424" lat="70.4258305579" lon="24.6655804103">
		<tag k="name" v="Suolojohka" />
		<tag k="name:se" v="Suolojohka" />
		<tag k="old_name:se" v="Suolujåkka" />
		<tag k="ssr:stedsnr" v="626741" />
		<tag k="waterway" v="stream" />
	</node>
	<node id="-792422" lat="70.2618499999" lon="24.1443498789">
		<tag k="name" v="Skadjavárjohka" />
		<tag k="name:se" v="Skadjavárjohka" />
		<tag k="old_name:se" v="Skaddjavarjåkka" />
		<tag k="ssr:stedsnr" v="626728" />
		<tag k="waterway" v="stream" />
	</node>
	<node id="-792419" lat="70.4372805572" lon="24.0627970981">
		<tag k="name" v="Langvatnet - Hoallojávri" />
		<tag k="name:no" v="Langvatnet" />
		<tag k="name:se" v="Hoallojávri" />
		<tag k="natural" v="water" />
		<tag k="old_name:se" v="Hoallujavri" />
		<tag k="ssr:stedsnr" v="626555" />
		<tag k="water" v="lake" />
	</node>
	<node id="-792416" lat="70.5269638957" lon="23.9335887838">
		<tag k="name" v="Nuorejávri" />
		<tag k="name:se" v="Nuorejávri" />
		<tag k="natural" v="water" />
		<tag k="ssr:stedsnr" v="626219" />
		<tag k="water" v="lake" />
	</node>
	<node id="-792408" lat="70.2967833386" lon="24.1524804192">
		<tag k="name" v="Fossen - Áisargorži" />
		<tag k="name:no" v="Fossen" />
		<tag k="name:se" v="Áisargorži" />
		<tag k="natural" v="waterfall" />
		<tag k="old_name:se" v="Aisargårzi" />
		<tag k="ssr:stedsnr" v="625647" />
	</node>
	<node id="-792405" lat="70.4086888879" lon="23.7057193476">
		<tag k="name" v="Barsvatn" />
		<tag k="natural" v="water" />
		<tag k="ssr:stedsnr" v="578215" />
	</node>
	<node id="-792404" lat="70.6094972313" lon="24.5834470748">
		<tag k="name" v="Trollskarvatnet" />
		<tag k="natural" v="water" />
		<tag k="ssr:stedsnr" v="578209" />
	</node>
	<node id="-792400" lat="70.5745305624" lon="24.8073637372">
		<tag k="name" v="Russeidet" />
		<tag k="natural" v="strait" />
		<tag k="ssr:stedsnr" v="578152" />
	</node>
	<node id="-792398" lat="70.5830416681" lon="24.6009887528">
		<tag k="name" v="Falkavatnet" />
		<tag k="natural" v="water" />
		<tag k="ssr:stedsnr" v="578128" />
	</node>
	<node id="-792396" lat="70.3467611101" lon="23.9138332338">
		<tag k="name" v="Rámsojávrrit" />
		<tag k="name:se" v="Rámsojávrrit" />
		<tag k="natural" v="water" />
		<tag k="old_name:se" v="Ramsujavrit" />
		<tag k="ssr:stedsnr" v="576206" />
		<tag k="water" v="lake" />
	</node>
	<node id="-792391" lat="70.5151222236" lon="23.7816110187">
		<tag k="name" v="Stagneselva" />
		<tag k="ssr:stedsnr" v="574639" />
		<tag k="waterway" v="stream" />
	</node>
	<node id="-792390" lat="70.4341083341" lon="23.8388082325">
		<tag k="alt_name:no" v="Nedre Neverfjordvatn" />
		<tag k="name" v="Nedre Neverfjordvatnet - Vuolit Fiettarjávri" />
		<tag k="name:no" v="Nedre Neverfjordvatnet" />
		<tag k="name:se" v="Vuolit Fiettarjávri" />
		<tag k="natural" v="water" />
		<tag k="old_name:no" v="Neverfjordvatnet, nedre" />
		<tag k="old_name:se" v="Fieddarjavri vuolit" />
		<tag k="ssr:stedsnr" v="566997" />
		<tag k="water" v="lake" />
	</node>
	<node id="-792386" lat="70.4721805624" lon="23.8304221237">
		<tag k="name" v="Nedre Fiskelvvatn - Vuolit Čoavddajávri" />
		<tag k="name:no" v="Nedre Fiskelvvatn" />
		<tag k="name:se" v="Vuolit Čoavddajávri" />
		<tag k="natural" v="water" />
		<tag k="old_name:se" v="Čoavdajavri, vuolit" />
		<tag k="ssr:stedsnr" v="566958" />
		<tag k="water" v="lake" />
	</node>
	<node id="-792381" lat="70.5227111121" lon="24.6712637367">
		<tag k="name" v="Bielločohkajávri" />
		<tag k="name:se" v="Bielločohkajávri" />
		<tag k="natural" v="water" />
		<tag k="old_name:se" v="Biellučåkkajavri" />
		<tag k="ssr:stedsnr" v="566921" />
	</node>
	<node id="-792378" lat="70.4787277787" lon="24.0427804287">
		<tag k="name" v="Bierajávri" />
		<tag k="name:se" v="Bierajávri" />
		<tag k="natural" v="water" />
		<tag k="old_name:se" v="Bierajavri" />
		<tag k="ssr:stedsnr" v="566850" />
		<tag k="water" v="lake" />
	</node>
	<node id="-792377" lat="70.2611111125" lon="23.992758222">
		<tag k="name" v="Issáhaguollejávri" />
		<tag k="name:se" v="Issáhaguollejávri" />
		<tag k="natural" v="water" />
		<tag k="old_name:se" v="Issaguollejavri" />
		<tag k="ssr:stedsnr" v="566837" />
	</node>
	<node id="-792376" lat="70.2564694493" lon="23.8094887759">
		<tag k="name" v="Dauingsvatnet - Jámešjávri" />
		<tag k="name:no" v="Dauingsvatnet" />
		<tag k="name:se" v="Jámešjávri" />
		<tag k="natural" v="water" />
		<tag k="old_name:se" v="Jamešjavri" />
		<tag k="ssr:stedsnr" v="566834" />
		<tag k="water" v="lake" />
	</node>
	<node id="-792375" lat="70.2609138943" lon="23.7783082337">
		<tag k="name" v="Guhkesluoppal" />
		<tag k="name:se" v="Guhkesluoppal" />
		<tag k="natural" v="water" />
		<tag k="old_name:se" v="Gukkesluobbal" />
		<tag k="ssr:stedsnr" v="566832" />
	</node>
	<node id="-792373" lat="70.5763500056" lon="24.5157304106">
		<tag k="name" v="Boazoluoppal" />
		<tag k="name:se" v="Boazoluoppal" />
		<tag k="natural" v="water" />
		<tag k="old_name:se" v="Boazuluobbal" />
		<tag k="ssr:stedsnr" v="566819" />
	</node>
	<node id="-792372" lat="70.5834277768" lon="24.5797526443">
		<tag k="name" v="Váibmobávččaganjávri" />
		<tag k="name:se" v="Váibmobávččaganjávri" />
		<tag k="natural" v="water" />
		<tag k="old_name:se" v="Vaibmubavčaganjavri" />
		<tag k="ssr:stedsnr" v="566817" />
	</node>
	<node id="-792370" lat="70.5606222223" lon="24.1674693136">
		<tag k="name" v="Brennsvikvatnet - Buollánluohjávri" />
		<tag k="name:no" v="Brennsvikvatnet" />
		<tag k="name:se" v="Buollánluohjávri" />
		<tag k="natural" v="water" />
		<tag k="old_name:se" v="Buollanluokjavri" />
		<tag k="ssr:stedsnr" v="566813" />
		<tag k="water" v="lake" />
	</node>
	<node id="-792369" lat="70.5984166705" lon="24.6288776268">
		<tag k="name" v="Kokelva - Goavkejohka" />
		<tag k="name:no" v="Kokelva" />
		<tag k="name:se" v="Goavkejohka" />
		<tag k="old_name:se" v="Goavkejåkka" />
		<tag k="ssr:stedsnr" v="566809" />
		<tag k="waterway" v="river" />
	</node>
	<node id="-792364" lat="70.6385972299" lon="24.5493387498">
		<tag k="name" v="Durejávri" />
		<tag k="name:se" v="Durejávri" />
		<tag k="natural" v="water" />
		<tag k="old_name:se" v="Durejavri" />
		<tag k="ssr:stedsnr" v="566773" />
	</node>
	<node id="-792361" lat="70.5431527778" lon="23.8042887789">
		<tag k="name" v="Skjåholmvatna - Cubbošjávrrit" />
		<tag k="name:no" v="Skjåholmvatna" />
		<tag k="name:se" v="Cubbošjávrrit" />
		<tag k="natural" v="water" />
		<tag k="old_name:se" v="Cubbušjavrit" />
		<tag k="ssr:stedsnr" v="566221" />
		<tag k="water" v="lake" />
	</node>
	<node id="-792358" lat="70.5570166695" lon="23.9000832412">
		<tag k="name" v="Bajimus Spártojávri" />
		<tag k="name:se" v="Bajimus Spártojávri" />
		<tag k="natural" v="water" />
		<tag k="old_name:se" v="Spartujavri, bajimus" />
		<tag k="ssr:stedsnr" v="566201" />
	</node>
	<node id="-792355" lat="70.6268388921" lon="24.2759693137">
		<tag k="name" v="Sommarvikelva - Gieldaluohjohka" />
		<tag k="name:no" v="Sommarvikelva" />
		<tag k="name:se" v="Gieldaluohjohka" />
		<tag k="old_name:se" v="Gieldaluokjåkka" />
		<tag k="ssr:stedsnr" v="566022" />
		<tag k="waterway" v="river" />
	</node>
	<node id="-792352" lat="70.1698583362" lon="24.1521998678">
		<tag k="name" v="Vuolit Gussaluoppal" />
		<tag k="name:se" v="Vuolit Gussaluoppal" />
		<tag k="natural" v="water" />
		<tag k="old_name:se" v="Gussaluobbal, vuolit" />
		<tag k="ssr:stedsnr" v="565957" />
		<tag k="water" v="lake" />
	</node>
	<node id="-792351" lat="70.4487277839" lon="24.0351165604">
		<tag k="name" v="Stangvatnet" />
		<tag k="natural" v="water" />
		<tag k="ssr:stedsnr" v="565873" />
	</node>
	<node id="-792348" lat="70.2028666663" lon="23.9653248865">
		<tag k="name" v="Áidejávri" />
		<tag k="name:se" v="Áidejávri" />
		<tag k="natural" v="water" />
		<tag k="old_name:se" v="Aidejavri" />
		<tag k="ssr:stedsnr" v="565868" />
	</node>
	<node id="-792347" lat="70.2186500059" lon="23.8041804613">
		<tag k="name" v="Holmvatnet - Suolojávri" />
		<tag k="name:no" v="Holmvatnet" />
		<tag k="name:se" v="Suolojávri" />
		<tag k="natural" v="water" />
		<tag k="old_name:se" v="Suolujavri" />
		<tag k="ssr:stedsnr" v="565858" />
		<tag k="water" v="lake" />
	</node>
	<node id="-792346" lat="70.3767833404" lon="23.7928137858">
		<tag k="alt_name:no" v="Indrevatn" />
		<tag k="name" v="Innervatnet - Mihkkalašgoahtesaijávri" />
		<tag k="name:no" v="Innervatnet" />
		<tag k="name:se" v="Mihkkalašgoahtesaijávri" />
		<tag k="natural" v="water" />
		<tag k="old_name:se" v="Mikkalašgoattesajavri" />
		<tag k="ssr:stedsnr" v="565788" />
		<tag k="water" v="lake" />
	</node>
	<node id="-792344" lat="70.2438555589" lon="23.8756554459">
		<tag k="name" v="Ođđaguollejohka" />
		<tag k="name:se" v="Ođđaguollejohka" />
		<tag k="old_name:se" v="Åđđáguollejåkka" />
		<tag k="ssr:stedsnr" v="565786" />
		<tag k="waterway" v="stream" />
	</node>
	<node id="-792343" lat="70.398116673" lon="23.4962943593">
		<tag k="name" v="Gressnesvatnet - Rássenjárvárejávri" />
		<tag k="name:no" v="Gressnesvatnet" />
		<tag k="name:se" v="Rássenjárvárejávri" />
		<tag k="natural" v="water" />
		<tag k="old_name:se" v="Rassenjarvarejavri" />
		<tag k="ssr:stedsnr" v="565771" />
	</node>
	<node id="-792342" lat="70.3554361134" lon="24.35419987">
		<tag k="name" v="Guovžagorži" />
		<tag k="name:se" v="Guovžagorži" />
		<tag k="natural" v="waterfall" />
		<tag k="old_name:se" v="Guovžagårži" />
		<tag k="ssr:stedsnr" v="565693" />
	</node>
	<node id="-792340" lat="70.3233611152" lon="24.1298082168">
		<tag k="name" v="Båtdalsvatnet - Áisarjávri" />
		<tag k="name:no" v="Båtdalsvatnet" />
		<tag k="name:se" v="Áisarjávri" />
		<tag k="natural" v="water" />
		<tag k="old_name:se" v="Aisarjavri" />
		<tag k="ssr:stedsnr" v="565680" />
		<tag k="water" v="lake" />
	</node>
	<node id="-792337" lat="70.3244305568" lon="24.2461582023">
		<tag k="name" v="Fiskehølen" />
		<tag k="place" v="locality" />
		<tag k="ssr:stedsnr" v="565672" />
	</node>
	<node id="-792335" lat="70.3116861183" lon="24.0765220953">
		<tag k="name" v="Mikkeldalsvatnet - Gaskavákjávri" />
		<tag k="name:no" v="Mikkeldalsvatnet" />
		<tag k="name:se" v="Gaskavákjávri" />
		<tag k="natural" v="water" />
		<tag k="old_name:se" v="Gaskavagjavri" />
		<tag k="ssr:stedsnr" v="565667" />
	</node>
	<node id="-792330" lat="70.599600003" lon="23.9628554581">
		<tag k="name" v="Unna Dorskavuonjávri" />
		<tag k="name:se" v="Unna Dorskavuonjávri" />
		<tag k="natural" v="water" />
		<tag k="old_name:se" v="Dårskavuonjavri, unna" />
		<tag k="ssr:stedsnr" v="565234" />
	</node>
	<node id="-792329" lat="70.5748833349" lon="23.941980462">
		<tag k="name" v="Suolojávri" />
		<tag k="name:se" v="Suolojávri" />
		<tag k="natural" v="water" />
		<tag k="old_name:se" v="Suolujavri" />
		<tag k="ssr:stedsnr" v="565224" />
	</node>
	<node id="-792318" lat="70.5851333393" lon="24.7884915179">
		<tag k="name" v="Russelvfoss" />
		<tag k="natural" v="waterfall" />
		<tag k="ssr:stedsnr" v="518223" />
	</node>
	<node id="-792314" lat="70.5705611156" lon="24.1646387736">
		<tag k="name" v="Brennsvikelva" />
		<tag k="ssr:stedsnr" v="514974" />
		<tag k="waterway" v="stream" />
	</node>
	<node id="-792311" lat="70.4315777847" lon="24.329338769">
		<tag k="name" v="Porselva" />
		<tag k="ssr:stedsnr" v="514945" />
		<tag k="waterway" v="river" />
	</node>
	<node id="-792307" lat="70.4267166709" lon="24.3668998613">
		<tag k="name" v="Lomvatnet" />
		<tag k="natural" v="water" />
		<tag k="ssr:stedsnr" v="514869" />
	</node>
	<node id="-792306" lat="70.4721805624" lon="23.8304221237">
		<tag k="name" v="Fiskelvvatnan" />
		<tag k="natural" v="water" />
		<tag k="ssr:stedsnr" v="514867" />
		<tag k="water" v="lake" />
	</node>
	<node id="-792297" lat="70.4116055599" lon="23.784036006">
		<tag k="alt_name" v="Marie Olsen vatnet" />
		<tag k="name" v="Marie Olsentjørna" />
		<tag k="natural" v="water" />
		<tag k="ssr:stedsnr" v="505984" />
	</node>
	<node id="-792295" lat="70.4846527779" lon="23.8580582289">
		<tag k="alt_name" v="Skabeluftvatnet" />
		<tag k="name" v="Svartbergvatnet" />
		<tag k="natural" v="water" />
		<tag k="ssr:stedsnr" v="505953" />
		<tag k="water" v="lake" />
	</node>
	<node id="-792293" lat="70.2134277843" lon="24.2247276456">
		<tag k="name" v="Vuolit Gáhččalanjávri" />
		<tag k="name:se" v="Vuolit Gáhččalanjávri" />
		<tag k="natural" v="water" />
		<tag k="old_name:se" v="Gaččalanjavri, vuolit" />
		<tag k="ssr:stedsnr" v="505923" />
		<tag k="water" v="lake" />
	</node>
	<node id="-792290" lat="70.5999388969" lon="24.8398581653">
		<tag k="name" v="Stuorrávžžejogaš" />
		<tag k="name:se" v="Stuorrávžžejogaš" />
		<tag k="old_name:se" v="Stuorravžejågaš" />
		<tag k="ssr:stedsnr" v="505890" />
		<tag k="waterway" v="stream" />
	</node>
	<node id="-792288" lat="70.444694451" lon="24.207630428">
		<tag k="name" v="Øyenvannan" />
		<tag k="natural" v="water" />
		<tag k="ssr:stedsnr" v="505864" />
		<tag k="water" v="lake" />
	</node>
	<node id="-792287" lat="70.4414333367" lon="24.0046915516">
		<tag k="name" v="Hoallojohka" />
		<tag k="name:se" v="Hoallojohka" />
		<tag k="old_name:se" v="Hoallujåkka" />
		<tag k="ssr:stedsnr" v="505856" />
		<tag k="waterway" v="stream" />
	</node>
	<node id="-792283" lat="70.4750166671" lon="24.0122304316">
		<tag k="alt_name" v="Bergvatn" />
		<tag k="name" v="Bergvatnet" />
		<tag k="natural" v="water" />
		<tag k="ssr:stedsnr" v="505843" />
	</node>
	<node id="-792282" lat="70.5116444518" lon="24.4117359875">
		<tag k="name" v="Earnjoasjávri" />
		<tag k="name:se" v="Earnjoasjávri" />
		<tag k="natural" v="water" />
		<tag k="old_name:se" v="Ærnjoasjavri" />
		<tag k="ssr:stedsnr" v="505840" />
	</node>
	<node id="-792280" lat="70.1745861169" lon="23.952130429">
		<tag k="fixme" v="multiple name tags, choose one and add the other to alt_name" />
		<tag k="name" v="Okselva;Okselva, øvre;Øvre Okselva - Vuoksajohka" />
		<tag k="name:no" v="Okselva;Okselva, øvre;Øvre Okselva" />
		<tag k="name:se" v="Vuoksajohka" />
		<tag k="old_name:se" v="Vuoksajåkka" />
		<tag k="ssr:stedsnr" v="505833" />
		<tag k="waterway" v="river" />
	</node>
	<node id="-792278" lat="70.2610000027" lon="23.8676026763">
		<tag k="name" v="Bikkobierluoppal" />
		<tag k="name:se" v="Bikkobierluoppal" />
		<tag k="natural" v="water" />
		<tag k="old_name:se" v="Biggubierluobbal" />
		<tag k="ssr:stedsnr" v="505826" />
	</node>
	<node id="-792277" lat="70.275816675" lon="23.9597971062">
		<tag k="name" v="Šlihparguollejávri" />
		<tag k="name:se" v="Šlihparguollejávri" />
		<tag k="natural" v="water" />
		<tag k="old_name:se" v="Šlipparguollejavri" />
		<tag k="ssr:stedsnr" v="505815" />
	</node>
	<node id="-792273" lat="70.6447611179" lon="24.4921137562">
		<tag k="name" v="Sáidejohka" />
		<tag k="name:se" v="Sáidejohka" />
		<tag k="old_name:se" v="Saidejåkka" />
		<tag k="ssr:stedsnr" v="505785" />
		<tag k="waterway" v="stream" />
	</node>
	<node id="-792272" lat="70.3299888885" lon="23.955544332">
		<tag k="name" v="Gárdejávri" />
		<tag k="name:se" v="Gárdejávri" />
		<tag k="natural" v="water" />
		<tag k="old_name:se" v="Gardejavri" />
		<tag k="ssr:stedsnr" v="505783" />
		<tag k="water" v="lake" />
	</node>
	<node id="-792271" lat="70.3717833311" lon="23.5689526958">
		<tag k="name" v="Gárggojávri" />
		<tag k="name:se" v="Gárggojávri" />
		<tag k="natural" v="water" />
		<tag k="old_name:se" v="Gargujavri" />
		<tag k="ssr:stedsnr" v="505781" />
	</node>
	<node id="-792270" lat="70.6320527811" lon="24.2617554381">
		<tag k="name" v="Sommarvikvatnet - Gieldaluohjávri" />
		<tag k="name:no" v="Sommarvikvatnet" />
		<tag k="name:se" v="Gieldaluohjávri" />
		<tag k="natural" v="water" />
		<tag k="old_name:se" v="Gieldaluokjavri" />
		<tag k="ssr:stedsnr" v="505778" />
	</node>
	<node id="-792269" lat="70.3880083376" lon="23.9545165636">
		<tag k="name" v="Triovatnan" />
		<tag k="natural" v="water" />
		<tag k="ssr:stedsnr" v="505776" />
		<tag k="water" v="lake" />
	</node>
	<node id="-792268" lat="70.6016444482" lon="24.595430413">
		<tag k="alt_name:se" v="Oaggojávri" />
		<tag k="name" v="Oaggunjávri" />
		<tag k="name:se" v="Oaggunjávri" />
		<tag k="natural" v="water" />
		<tag k="old_name:se" v="Oaggonjavri" />
		<tag k="ssr:stedsnr" v="505765" />
		<tag k="water" v="lake" />
	</node>
	<node id="-792267" lat="70.4795444525" lon="24.7073998391">
		<tag k="name" v="Njárgajávri" />
		<tag k="name:se" v="Njárgajávri" />
		<tag k="natural" v="water" />
		<tag k="old_name:se" v="Njargajavri" />
		<tag k="ssr:stedsnr" v="505711" />
	</node>
	<node id="-792264" lat="70.3684250009" lon="24.6021609562">
		<tag k="name" v="Čohttiljohka" />
		<tag k="name:se" v="Čohttiljohka" />
		<tag k="ssr:stedsnr" v="505698" />
		<tag k="waterway" v="stream" />
	</node>
	<node id="-792263" lat="70.2693222269" lon="24.096424878">
		<tag k="name" v="Repparfjordelva - Riehpovuonjohka" />
		<tag k="name:no" v="Repparfjordelva" />
		<tag k="name:se" v="Riehpovuonjohka" />
		<tag k="old_name:se" v="Rieppuvuonjåkka" />
		<tag k="ssr:stedsnr" v="505644" />
		<tag k="waterway" v="river" />
	</node>
	<node id="-792261" lat="70.5180055619" lon="23.8545665756">
		<tag k="name" v="Hanselva - Mártejohka" />
		<tag k="name:no" v="Hanselva" />
		<tag k="name:se" v="Mártejohka" />
		<tag k="old_name:se" v="Martejåkka" />
		<tag k="ssr:stedsnr" v="505218" />
		<tag k="waterway" v="river" />
	</node>
	<node id="-792253" lat="70.1358333357" lon="24.0611109899">
		<tag k="name" v="Ruššoleakjohka" />
		<tag k="name:se" v="Ruššoleakjohka" />
		<tag k="old_name:se" v="Ruššulækjåkka" />
		<tag k="ssr:stedsnr" v="504972" />
		<tag k="waterway" v="river" />
	</node>
	<node id="-792251" lat="70.2282694488" lon="23.9588387871">
		<tag k="name" v="Joavnnajohka" />
		<tag k="name:se" v="Joavnnajohka" />
		<tag k="old_name:se" v="Joavnajåkka" />
		<tag k="ssr:stedsnr" v="504841" />
		<tag k="waterway" v="stream" />
	</node>
	<node id="-792249" lat="70.3101027822" lon="24.423077627">
		<tag k="name" v="Guhkesgurjávri" />
		<tag k="name:se" v="Guhkesgurjávri" />
		<tag k="natural" v="water" />
		<tag k="old_name:se" v="Gukkesgurjavri" />
		<tag k="ssr:stedsnr" v="504659" />
		<tag k="water" v="lake" />
	</node>
	<node id="-792248" lat="70.3963111133" lon="24.3827748642">
		<tag k="name" v="Brattelvvatna - Virošjávrrit" />
		<tag k="name:no" v="Brattelvvatna" />
		<tag k="name:se" v="Virošjávrrit" />
		<tag k="natural" v="water" />
		<tag k="old_name:se" v="Virušjavrit" />
		<tag k="ssr:stedsnr" v="504634" />
	</node>
	<node id="-792242" lat="70.5484888963" lon="24.1391748771">
		<tag k="name" v="Nøkkelvatnet" />
		<tag k="natural" v="water" />
		<tag k="ssr:stedsnr" v="453972" />
	</node>
	<node id="-792241" lat="70.5460444462" lon="24.1141470941">
		<tag k="name" v="Lomvatnet" />
		<tag k="natural" v="water" />
		<tag k="ssr:stedsnr" v="453971" />
	</node>
	<node id="-792236" lat="70.5110222281" lon="23.91098044">
		<tag k="name" v="Ráššejohka" />
		<tag k="name:se" v="Ráššejohka" />
		<tag k="ssr:stedsnr" v="453573" />
		<tag k="waterway" v="stream" />
	</node>
	<node id="-792232" lat="70.4368250027" lon="23.4902110243">
		<tag k="name" v="Sáttojávri" />
		<tag k="name:se" v="Sáttojávri" />
		<tag k="natural" v="water" />
		<tag k="old_name:se" v="Saddujavri" />
		<tag k="ssr:stedsnr" v="445982" />
	</node>
	<node id="-792231" lat="70.4349444432" lon="23.7970415715">
		<tag k="name" v="Finnvatnet" />
		<tag k="natural" v="water" />
		<tag k="ssr:stedsnr" v="445977" />
	</node>
	<node id="-792228" lat="70.4981305629" lon="23.9374721165">
		<tag k="name" v="Trollvatnet - Hánddaljávri" />
		<tag k="name:no" v="Trollvatnet" />
		<tag k="name:se" v="Hánddaljávri" />
		<tag k="natural" v="water" />
		<tag k="old_name:se" v="Handaljavri" />
		<tag k="ssr:stedsnr" v="445946" />
		<tag k="water" v="lake" />
	</node>
	<node id="-792223" lat="70.44084445" lon="24.1135248745">
		<tag k="name" v="Rundvatnet" />
		<tag k="natural" v="water" />
		<tag k="ssr:stedsnr" v="445897" />
	</node>
	<node id="-792216" lat="70.6323138912" lon="24.0372721176">
		<tag k="name" v="Mannvatnet - Njárgajávri" />
		<tag k="name:no" v="Mannvatnet" />
		<tag k="name:se" v="Njárgajávri" />
		<tag k="natural" v="water" />
		<tag k="old_name:se" v="Njargajavri" />
		<tag k="ssr:stedsnr" v="445786" />
		<tag k="water" v="lake" />
	</node>
	<node id="-792215" lat="70.3535472229" lon="23.9017387832">
		<tag k="name" v="Gorsajávri" />
		<tag k="name:se" v="Gorsajávri" />
		<tag k="natural" v="water" />
		<tag k="old_name:se" v="Gårsajavri" />
		<tag k="ssr:stedsnr" v="445784" />
		<tag k="water" v="lake" />
	</node>
	<node id="-792214" lat="70.3666083397" lon="23.749238802">
		<tag k="alt_name" v="Hansvatn" />
		<tag k="name" v="Hansvatnet" />
		<tag k="natural" v="water" />
		<tag k="ssr:stedsnr" v="445780" />
		<tag k="water" v="lake" />
	</node>
	<node id="-792212" lat="70.6002583392" lon="24.0990082318">
		<tag k="name" v="Gorvatna - Roahkonášjávrrit" />
		<tag k="name:no" v="Gorvatna" />
		<tag k="name:se" v="Roahkonášjávrrit" />
		<tag k="natural" v="water" />
		<tag k="old_name:se" v="Roakkunašjavrit" />
		<tag k="ssr:stedsnr" v="445770" />
		<tag k="water" v="lake" />
	</node>
	<node id="-792208" lat="70.4214527839" lon="24.3260026613">
		<tag k="name" v="Ruksesbávttejohka" />
		<tag k="name:se" v="Ruksesbávttejohka" />
		<tag k="old_name:se" v="Ruksesbavte jåkka" />
		<tag k="ssr:stedsnr" v="445670" />
		<tag k="waterway" v="stream" />
	</node>
	<node id="-792204" lat="70.5424750006" lon="23.8926749047">
		<tag k="name" v="Spártojávrrit" />
		<tag k="name:se" v="Spártojávrrit" />
		<tag k="natural" v="water" />
		<tag k="old_name:se" v="Spartujavrit" />
		<tag k="ssr:stedsnr" v="445195" />
		<tag k="water" v="lake" />
	</node>
	<node id="-792202" lat="70.554363889" lon="23.9607082343">
		<tag k="name" v="Storbuktelva - Goavdeluokjohka" />
		<tag k="name:no" v="Storbuktelva" />
		<tag k="name:se" v="Goavdeluokjohka" />
		<tag k="old_name:se" v="Goavdeluokjåkka" />
		<tag k="ssr:stedsnr" v="445012" />
		<tag k="waterway" v="river" />
	</node>
	<node id="-792201" lat="70.2554777814" lon="24.1033665493">
		<tag k="name" v="Leavššejohka" />
		<tag k="name:se" v="Leavššejohka" />
		<tag k="old_name:se" v="Lævšejåkka" />
		<tag k="ssr:stedsnr" v="444982" />
		<tag k="waterway" v="stream" />
	</node>
	<node id="-792199" lat="70.1740083369" lon="24.2474693169">
		<tag k="name" v="Gussajávrrit" />
		<tag k="name:se" v="Gussajávrrit" />
		<tag k="natural" v="water" />
		<tag k="old_name:se" v="Gussajavrit" />
		<tag k="ssr:stedsnr" v="444956" />
		<tag k="water" v="lake" />
	</node>
	<node id="-792196" lat="70.4631472258" lon="24.3268637469">
		<tag k="name" v="Neselva" />
		<tag k="ssr:stedsnr" v="444867" />
		<tag k="waterway" v="stream" />
	</node>
	<node id="-792186" lat="70.3255888897" lon="24.2232332064">
		<tag k="name" v="Linnjajohka" />
		<tag k="name:se" v="Linnjajohka" />
		<tag k="old_name:se" v="Linnjajåkka" />
		<tag k="ssr:stedsnr" v="444655" />
		<tag k="waterway" v="stream" />
	</node>
	<node id="-792185" lat="70.3089138943" lon="24.2863998559">
		<tag k="name" v="Ráhpesvárjávrrit" />
		<tag k="name:se" v="Ráhpesvárjávrrit" />
		<tag k="natural" v="water" />
		<tag k="old_name:se" v="Rappesvarjavrit" />
		<tag k="ssr:stedsnr" v="444646" />
		<tag k="water" v="lake" />
	</node>
	<node id="-792183" lat="70.401486119" lon="24.5533831758">
		<tag k="name" v="Luoktabogejávrrit" />
		<tag k="name:se" v="Luoktabogejávrrit" />
		<tag k="natural" v="water" />
		<tag k="ssr:stedsnr" v="444619" />
		<tag k="water" v="lake" />
	</node>
	<node id="-792182" lat="70.369394452" lon="24.2001304354">
		<tag k="name" v="Govdavákluobbalat" />
		<tag k="name:se" v="Govdavákluobbalat" />
		<tag k="natural" v="water" />
		<tag k="old_name:se" v="Gåvdavagluobbalat" />
		<tag k="ssr:stedsnr" v="444609" />
	</node>
	<node id="-792177" lat="70.4704861108" lon="23.8509693311">
		<tag k="name" v="Øvre Fiskelvvatn - Bajit Čoavddajávri" />
		<tag k="name:no" v="Øvre Fiskelvvatn" />
		<tag k="name:se" v="Bajit Čoavddajávri" />
		<tag k="natural" v="water" />
		<tag k="old_name:se" v="Čoavdajavri, bajit" />
		<tag k="ssr:stedsnr" v="268424" />
		<tag k="water" v="lake" />
	</node>
	<node id="-792173" lat="70.4834166731" lon="23.981597117">
		<tag k="alt_name" v="Bergelva, l" />
		<tag k="name" v="Lille Bergelva" />
		<tag k="ssr:stedsnr" v="263968" />
		<tag k="waterway" v="stream" />
	</node>
	<node id="-792172" lat="70.4622833383" lon="23.5256665753">
		<tag k="name" v="Vuolit Ruollajávri" />
		<tag k="name:se" v="Vuolit Ruollajávri" />
		<tag k="natural" v="water" />
		<tag k="old_name:se" v="Ruollajavri, vuolit" />
		<tag k="ssr:stedsnr" v="263959" />
		<tag k="water" v="lake" />
	</node>
	<node id="-792163" lat="70.5829944467" lon="24.8560442838">
		<tag k="name" v="Oarjejohka" />
		<tag k="name:se" v="Oarjejohka" />
		<tag k="old_name:se" v="Oarjejåkka" />
		<tag k="ssr:stedsnr" v="263882" />
		<tag k="waterway" v="stream" />
	</node>
	<node id="-792161" lat="70.6450694467" lon="24.7636331903">
		<tag k="name" v="Dápmotláttu" />
		<tag k="name:se" v="Dápmotláttu" />
		<tag k="natural" v="water" />
		<tag k="old_name:se" v="Dabmutladdo" />
		<tag k="ssr:stedsnr" v="263855" />
	</node>
	<node id="-792159" lat="70.2722805568" lon="23.8600582232">
		<tag k="name" v="Varisjohka" />
		<tag k="name:se" v="Varisjohka" />
		<tag k="old_name:se" v="Varisjåkka" />
		<tag k="ssr:stedsnr" v="263813" />
		<tag k="waterway" v="river" />
	</node>
	<node id="-792156" lat="70.5676444471" lon="24.2080970996">
		<tag k="name" v="Njoammeljohka" />
		<tag k="name:se" v="Njoammeljohka" />
		<tag k="old_name:se" v="Njoammeljåkka" />
		<tag k="ssr:stedsnr" v="263801" />
		<tag k="waterway" v="stream" />
	</node>
	<node id="-792154" lat="70.5480999998" lon="24.1986526588">
		<tag k="name" v="Ruollajávri" />
		<tag k="name:se" v="Ruollajávri" />
		<tag k="natural" v="water" />
		<tag k="old_name:se" v="Ruollajavri" />
		<tag k="ssr:stedsnr" v="263792" />
	</node>
	<node id="-792150" lat="70.525680555" lon="23.8929193429">
		<tag k="name" v="Skrikarvatnet - Láttojávri" />
		<tag k="name:no" v="Skrikarvatnet" />
		<tag k="name:se" v="Láttojávri" />
		<tag k="natural" v="water" />
		<tag k="old_name:se" v="Laddujavri" />
		<tag k="ssr:stedsnr" v="263241" />
	</node>
	<node id="-792145" lat="70.1894444478" lon="24.0609443113">
		<tag k="name" v="Jovnnajohka" />
		<tag k="name:se" v="Jovnnajohka" />
		<tag k="old_name:se" v="Jåvnajåkka" />
		<tag k="ssr:stedsnr" v="262956" />
		<tag k="waterway" v="river" />
	</node>
	<node id="-792142" lat="70.4665444522" lon="24.4829276278">
		<tag k="name" v="Bávttevuolesjávri" />
		<tag k="name:se" v="Bávttevuolesjávri" />
		<tag k="natural" v="water" />
		<tag k="old_name:se" v="Bavtevuolesjavri" />
		<tag k="ssr:stedsnr" v="262881" />
	</node>
	<node id="-792139" lat="70.5048666673" lon="24.6077692974">
		<tag k="name" v="Bierffetjohka" />
		<tag k="name:se" v="Bierffetjohka" />
		<tag k="old_name:se" v="Bierfetjåkka" />
		<tag k="ssr:stedsnr" v="262875" />
		<tag k="waterway" v="river" />
	</node>
	<node id="-792138" lat="70.3590361124" lon="23.6934221192">
		<tag k="alt_name:no" v="Hermannvatn" />
		<tag k="name" v="Hermannvatnet - Golmmačiegatjávri" />
		<tag k="name:no" v="Hermannvatnet" />
		<tag k="name:se" v="Golmmačiegatjávri" />
		<tag k="natural" v="water" />
		<tag k="old_name:se" v="Gålmačiegatjavri" />
		<tag k="ssr:stedsnr" v="262798" />
		<tag k="water" v="lake" />
	</node>
	<node id="-792137" lat="70.3920861093" lon="23.6062415803">
		<tag k="name" v="Norddalsvatnet" />
		<tag k="natural" v="water" />
		<tag k="ssr:stedsnr" v="262797" />
	</node>
	<node id="-792136" lat="70.404261117" lon="23.7580693457">
		<tag k="alt_name" v="Sennavatnan, nedre" />
		<tag k="name" v="Nedre Sennavatn" />
		<tag k="natural" v="water" />
		<tag k="ssr:stedsnr" v="262792" />
		<tag k="water" v="lake" />
	</node>
	<node id="-792135" lat="70.3877666662" lon="23.7169137927">
		<tag k="name" v="Trekantvatnet" />
		<tag k="natural" v="water" />
		<tag k="ssr:stedsnr" v="262791" />
	</node>
	<node id="-792132" lat="70.3518333369" lon="24.5475970735">
		<tag k="name" v="Jovssebajávrrit" />
		<tag k="name:se" v="Jovssebajávrrit" />
		<tag k="natural" v="water" />
		<tag k="old_name:se" v="Jåvsebajavrit" />
		<tag k="ssr:stedsnr" v="262701" />
		<tag k="water" v="lake" />
	</node>
	<node id="-792131" lat="70.3248972244" lon="24.311608197">
		<tag k="name" v="Trangdalselva - Juovssajohka" />
		<tag k="name:no" v="Trangdalselva" />
		<tag k="name:se" v="Juovssajohka" />
		<tag k="old_name:se" v="Juovsajåkka" />
		<tag k="ssr:stedsnr" v="262683" />
		<tag k="waterway" v="stream" />
	</node>
	<node id="-792129" lat="70.2984416727" lon="24.0882609985">
		<tag k="name" v="Gaskavákjohka" />
		<tag k="name:se" v="Gaskavákjohka" />
		<tag k="old_name:se" v="Gaskavatjåkka" />
		<tag k="ssr:stedsnr" v="262665" />
		<tag k="waterway" v="river" />
	</node>
	<node id="-792127" lat="70.424088892" lon="24.5935776296">
		<tag k="name" v="Skaidielva - Skáiddejohka" />
		<tag k="name:no" v="Skaidielva" />
		<tag k="name:se" v="Skáiddejohka" />
		<tag k="ssr:stedsnr" v="262649" />
		<tag k="waterway" v="river" />
	</node>
	<node id="-792126" lat="70.3896222283" lon="24.4330220718">
		<tag k="name" v="Brattelva - Virošjohka" />
		<tag k="name:no" v="Brattelva" />
		<tag k="name:se" v="Virošjohka" />
		<tag k="old_name:se" v="Virušjåkka" />
		<tag k="ssr:stedsnr" v="262636" />
		<tag k="waterway" v="stream" />
	</node>
	<node id="-792125" lat="70.3728055599" lon="24.4580609664">
		<tag k="name" v="Doggejohka" />
		<tag k="name:se" v="Doggejohka" />
		<tag k="ssr:stedsnr" v="262626" />
		<tag k="waterway" v="stream" />
	</node>
	<node id="-792124" lat="70.2494250024" lon="24.2056109865">
		<tag k="name" v="Goahtemuorjohka" />
		<tag k="name:se" v="Goahtemuorjohka" />
		<tag k="old_name:se" v="Goattemuorjåkka" />
		<tag k="ssr:stedsnr" v="262465" />
		<tag k="waterway" v="river" />
	</node>
	<node id="-792123" lat="70.584466673" lon="23.9481221189">
		<tag k="name" v="Suolojohka" />
		<tag k="name:se" v="Suolojohka" />
		<tag k="old_name:se" v="Suolujåkka" />
		<tag k="ssr:stedsnr" v="262242" />
		<tag k="waterway" v="stream" />
	</node>
	<node id="-792122" lat="70.6468583404" lon="24.2754776546">
		<tag k="name" v="Kråkefjellvatnet - Guommajávri" />
		<tag k="name:no" v="Kråkefjellvatnet" />
		<tag k="name:se" v="Guommajávri" />
		<tag k="natural" v="water" />
		<tag k="old_name:se" v="Guommajavri" />
		<tag k="ssr:stedsnr" v="262147" />
		<tag k="water" v="lake" />
	</node>
	<node id="-792120" lat="70.673691667" lon="24.344238765">
		<tag k="name" v="Bekkarbuktvatnet" />
		<tag k="natural" v="water" />
		<tag k="ssr:stedsnr" v="262129" />
	</node>
	<node id="-792117" lat="70.6325333371" lon="24.7476303912">
		<tag k="name" v="Njukčunjohka" />
		<tag k="name:se" v="Njukčunjohka" />
		<tag k="ssr:stedsnr" v="215195" />
		<tag k="waterway" v="stream" />
	</node>
	<node id="-792116" lat="70.600783335" lon="24.6113803992">
		<tag k="name" v="Holmevatnet" />
		<tag k="natural" v="water" />
		<tag k="ssr:stedsnr" v="214198" />
	</node>
	<node id="-792115" lat="70.3930194503" lon="24.310797088">
		<tag k="name" v="Geaidnočohjávri" />
		<tag k="name:se" v="Geaidnočohjávri" />
		<tag k="natural" v="water" />
		<tag k="ssr:stedsnr" v="213366" />
		<tag k="water" v="lake" />
	</node>
	<node id="-792114" lat="70.4945972221" lon="24.0295137658">
		<tag k="name" v="Halsevatna" />
		<tag k="natural" v="water" />
		<tag k="ssr:stedsnr" v="211999" />
		<tag k="water" v="lake" />
	</node>
	<node id="-792107" lat="70.4673888904" lon="23.8001221166">
		<tag k="name" v="Fiskelva" />
		<tag k="ssr:stedsnr" v="211815" />
		<tag k="waterway" v="stream" />
	</node>
	<node id="-792102" lat="70.4499944457" lon="23.5374693591">
		<tag k="name" v="Bajit Ruollajávri" />
		<tag k="name:se" v="Bajit Ruollajávri" />
		<tag k="natural" v="water" />
		<tag k="old_name:se" v="Ruollajavri, bajit" />
		<tag k="ssr:stedsnr" v="207398" />
		<tag k="water" v="lake" />
	</node>
	<node id="-792101" lat="70.4185805587" lon="23.8065776774">
		<tag k="alt_name:no" v="Øvre Neverfjordvatn" />
		<tag k="name" v="Øvre Neverfjordvatnet - Bajit Fiettarjávri" />
		<tag k="name:no" v="Øvre Neverfjordvatnet" />
		<tag k="name:se" v="Bajit Fiettarjávri" />
		<tag k="natural" v="water" />
		<tag k="old_name:no" v="Neverfjordvatnet, øvre" />
		<tag k="old_name:se" v="Fieddarjavri bajit" />
		<tag k="ssr:stedsnr" v="202999" />
		<tag k="water" v="lake" />
	</node>
	<node id="-792099" lat="70.4084166663" lon="23.9735276629">
		<tag k="alt_name:no" v="Saltvatnet, øvre" />
		<tag k="name" v="Øvre Saltvatnet - Bajimus Suolojávri" />
		<tag k="name:no" v="Øvre Saltvatnet" />
		<tag k="name:se" v="Bajimus Suolojávri" />
		<tag k="natural" v="water" />
		<tag k="old_name:se" v="Suolujavri bajimus;Bajimus Suolojávre" />
		<tag k="ssr:stedsnr" v="202992" />
		<tag k="water" v="lake" />
	</node>
	<node id="-792096" lat="70.4408472212" lon="23.8605693368">
		<tag k="alt_name" v="Kjosen, midtre" />
		<tag k="name" v="Midtre Kjosen" />
		<tag k="place" v="locality" />
		<tag k="ssr:stedsnr" v="202978" />
	</node>
	<node id="-792093" lat="70.4766583399" lon="23.971294343">
		<tag k="alt_name" v="Bergelva, store" />
		<tag k="name" v="Store Bergelva" />
		<tag k="ssr:stedsnr" v="202962" />
		<tag k="waterway" v="stream" />
	</node>
	<node id="-792091" lat="70.6027000049" lon="24.6686443053">
		<tag k="name" v="Geađgejogaš" />
		<tag k="name:se" v="Geađgejogaš" />
		<tag k="old_name:se" v="Gæđgejågaš" />
		<tag k="ssr:stedsnr" v="202909" />
		<tag k="waterway" v="stream" />
	</node>
	<node id="-792087" lat="70.2652000085" lon="24.0635526532">
		<tag k="name" v="Nadjetjohka" />
		<tag k="name:se" v="Nadjetjohka" />
		<tag k="old_name:se" v="Naddjetjåkka" />
		<tag k="ssr:stedsnr" v="202836" />
		<tag k="waterway" v="river" />
	</node>
	<node id="-792086" lat="70.5931750067" lon="24.3691832162">
		<tag k="name" v="Ráššavuolejávri" />
		<tag k="name:se" v="Ráššavuolejávri" />
		<tag k="natural" v="water" />
		<tag k="old_name:se" v="Raššavuolejavri" />
		<tag k="ssr:stedsnr" v="202831" />
		<tag k="water" v="lake" />
	</node>
	<node id="-792079" lat="70.6350138946" lon="24.4930554227">
		<tag k="name" v="Nihkajávri" />
		<tag k="name:se" v="Nihkajávri" />
		<tag k="natural" v="water" />
		<tag k="old_name:se" v="Nikkajavri" />
		<tag k="ssr:stedsnr" v="202787" />
	</node>
	<node id="-792066" lat="70.6580027831" lon="24.4508137468">
		<tag k="name" v="Liššajohka" />
		<tag k="name:se" v="Liššajohka" />
		<tag k="old_name:se" v="Liššajåkka" />
		<tag k="ssr:stedsnr" v="202145" />
		<tag k="waterway" v="stream" />
	</node>
	<node id="-792065" lat="70.2463972278" lon="24.16179432">
		<tag k="name" v="Johkamohkki" />
		<tag k="name:se" v="Johkamohkki" />
		<tag k="natural" v="cape" />
		<tag k="old_name:se" v="Jåkkamåkki" />
		<tag k="ssr:stedsnr" v="201992" />
	</node>
	<node id="-792064" lat="70.2350527845" lon="23.9190276811">
		<tag k="name" v="Streaŋgajávri" />
		<tag k="name:se" v="Streaŋgajávri" />
		<tag k="natural" v="water" />
		<tag k="old_name:se" v="Stræŋgajavri" />
		<tag k="ssr:stedsnr" v="201835" />
	</node>
	<node id="-792061" lat="70.2888027786" lon="24.1801804217">
		<tag k="name" v="Rávnnajávri" />
		<tag k="name:se" v="Rávnnajávri" />
		<tag k="natural" v="water" />
		<tag k="old_name:se" v="Ravnajavri" />
		<tag k="ssr:stedsnr" v="201690" />
	</node>
	<node id="-792060" lat="70.2529888942" lon="24.012830453">
		<tag k="name" v="Voggenestjernet - Nadjetluoppal" />
		<tag k="name:no" v="Voggenestjernet" />
		<tag k="name:se" v="Nadjetluoppal" />
		<tag k="natural" v="water" />
		<tag k="old_name:se" v="Naddjetluobbal" />
		<tag k="ssr:stedsnr" v="201681" />
		<tag k="water" v="lake" />
	</node>
	<node id="-792058" lat="70.4927472243" lon="24.6665387224">
		<tag k="name" v="Bierfetjávri" />
		<tag k="name:se" v="Bierfetjávri" />
		<tag k="natural" v="water" />
		<tag k="ssr:stedsnr" v="201668" />
		<tag k="water" v="lake" />
	</node>
	<node id="-792056" lat="70.3524250089" lon="24.3988720816">
		<tag k="name" v="Guovžajohka" />
		<tag k="name:se" v="Guovžajohka" />
		<tag k="old_name:se" v="Guovžajåkka" />
		<tag k="ssr:stedsnr" v="201650" />
		<tag k="waterway" v="stream" />
	</node>
	<node id="-792055" lat="70.3456250064" lon="24.4488248684">
		<tag k="name" v="Ánddeš-Bierjohka" />
		<tag k="name:se" v="Ánddeš-Bierjohka" />
		<tag k="old_name:se" v="Andeš-Bierjåkka" />
		<tag k="ssr:stedsnr" v="201649" />
		<tag k="waterway" v="stream" />
	</node>
	<node id="-792054" lat="70.3178166755" lon="24.2664026412">
		<tag k="name" v="Ráhpesvárjogažat" />
		<tag k="name:se" v="Ráhpesvárjogažat" />
		<tag k="old_name:se" v="Rappesvarjågažat" />
		<tag k="ssr:stedsnr" v="201631" />
		<tag k="waterway" v="stream" />
	</node>
	<node id="-792053" lat="70.3052805637" lon="24.1394554322">
		<tag k="name" v="Båtdalselva - Áisarjohka" />
		<tag k="name:no" v="Båtdalselva" />
		<tag k="name:se" v="Áisarjohka" />
		<tag k="old_name:se" v="Aisarjåkka" />
		<tag k="ssr:stedsnr" v="201625" />
		<tag k="waterway" v="stream" />
	</node>
	<node id="-792050" lat="70.4193222233" lon="24.5631526284">
		<tag k="name" v="Luoktabogejohka" />
		<tag k="name:se" v="Luoktabogejohka" />
		<tag k="ssr:stedsnr" v="201604" />
		<tag k="waterway" v="stream" />
	</node>
	<node id="-792036" lat="70.455936109" lon="23.5397360338">
		<tag k="name" v="Trollvatnan" />
		<tag k="natural" v="water" />
		<tag k="ssr:stedsnr" v="150864" />
		<tag k="water" v="lake" />
	</node>
	<node id="-792033" lat="70.4166583381" lon="24.2843665395">
		<tag k="name" v="Lille Rødfjellvannet" />
		<tag k="natural" v="water" />
		<tag k="ssr:stedsnr" v="146873" />
		<tag k="water" v="lake" />
	</node>
	<node id="-792031" lat="70.423786111" lon="23.7676471309">
		<tag k="alt_name" v="Vesterdalsvatn" />
		<tag k="name" v="Vesterdalsvatnet" />
		<tag k="natural" v="water" />
		<tag k="ssr:stedsnr" v="141994" />
	</node>
	<node id="-792027" lat="70.5555194502" lon="24.8862887204">
		<tag k="name" v="Rivotláttojogaš" />
		<tag k="name:se" v="Rivotláttojogaš" />
		<tag k="old_name:se" v="Rivutladdujågaš" />
		<tag k="ssr:stedsnr" v="141915" />
		<tag k="waterway" v="stream" />
	</node>
	<node id="-792026" lat="70.4806527813" lon="23.9420109999">
		<tag k="name" v="Kvalsundelva" />
		<tag k="ssr:stedsnr" v="141955" />
		<tag k="waterway" v="river" />
	</node>
	<node id="-792024" lat="70.2578999992" lon="23.8479360035">
		<tag k="name" v="Jámešluoppal" />
		<tag k="name:se" v="Jámešluoppal" />
		<tag k="natural" v="water" />
		<tag k="old_name:se" v="Jamešluobbal" />
		<tag k="ssr:stedsnr" v="141805" />
	</node>
	<node id="-792018" lat="70.5083861131" lon="24.7736303935">
		<tag k="name" v="Heastajávri" />
		<tag k="name:se" v="Heastajávri" />
		<tag k="natural" v="water" />
		<tag k="old_name:se" v="Hæstajavri" />
		<tag k="ssr:stedsnr" v="141901" />
	</node>
	<node id="-792017" lat="70.5283361137" lon="24.668355404">
		<tag k="name" v="Lavnnjetjávri" />
		<tag k="name:se" v="Lavnnjetjávri" />
		<tag k="natural" v="water" />
		<tag k="old_name:se" v="Lavnjetjavri" />
		<tag k="ssr:stedsnr" v="141899" />
	</node>
	<node id="-792016" lat="70.5261777816" lon="24.7655915125">
		<tag k="name" v="Loddejávrrit" />
		<tag k="name:se" v="Loddejávrrit" />
		<tag k="natural" v="water" />
		<tag k="old_name:se" v="Låddejavrit" />
		<tag k="ssr:stedsnr" v="141898" />
		<tag k="water" v="lake" />
	</node>
	<node id="-792015" lat="70.6080416711" lon="24.7731165014">
		<tag k="name" v="Unnaávžžejogaš" />
		<tag k="name:se" v="Unnaávžžejogaš" />
		<tag k="old_name:se" v="Unnavžejågaš" />
		<tag k="ssr:stedsnr" v="141889" />
		<tag k="waterway" v="stream" />
	</node>
	<node id="-792006" lat="70.3569222223" lon="24.0096693205">
		<tag k="name" v="Rámsojávrrit" />
		<tag k="name:se" v="Rámsojávrrit" />
		<tag k="natural" v="water" />
		<tag k="old_name:se" v="Ramsujavrit" />
		<tag k="ssr:stedsnr" v="141754" />
		<tag k="water" v="lake" />
	</node>
	<node id="-792005" lat="70.4464916667" lon="24.3642859784">
		<tag k="name" v="Kendel-holmen" />
		<tag k="place" v="islet" />
		<tag k="ssr:stedsnr" v="141650" />
	</node>
	<node id="-792004" lat="70.411294451" lon="24.2428415296">
		<tag k="name" v="Arisvatnet - Árešjávri" />
		<tag k="name:no" v="Arisvatnet" />
		<tag k="name:se" v="Árešjávri" />
		<tag k="natural" v="water" />
		<tag k="old_name:se" v="Arešjavri" />
		<tag k="ssr:stedsnr" v="141643" />
		<tag k="water" v="lake" />
	</node>
	<node id="-792003" lat="70.4018138962" lon="24.6541331679">
		<tag k="name" v="Lásotjohka" />
		<tag k="name:se" v="Lásotjohka" />
		<tag k="old_name:se" v="Lasotjåkka" />
		<tag k="ssr:stedsnr" v="141543" />
		<tag k="waterway" v="stream" />
	</node>
	<node id="-792002" lat="70.2784861154" lon="24.0593137774">
		<tag k="name" v="Breidalselva - Geaidnojohka" />
		<tag k="name:no" v="Breidalselva" />
		<tag k="name:se" v="Geaidnojohka" />
		<tag k="old_name:se" v="Gæidnujåkka" />
		<tag k="ssr:stedsnr" v="141539" />
		<tag k="waterway" v="river" />
	</node>
	<node id="-792001" lat="70.4974611164" lon="23.5800443465">
		<tag k="name" v="Storvatnet - Čulkojávri" />
		<tag k="name:no" v="Storvatnet" />
		<tag k="name:se" v="Čulkojávri" />
		<tag k="natural" v="water" />
		<tag k="old_name:se" v="Čulkujavri" />
		<tag k="ssr:stedsnr" v="141534" />
		<tag k="water" v="lake" />
	</node>
	<node id="-791994" lat="70.2163833349" lon="24.1476304348">
		<tag k="name" v="Jeaggejávrráš" />
		<tag k="name:se" v="Jeaggejávrráš" />
		<tag k="natural" v="water" />
		<tag k="old_name:se" v="Jæggejavraš" />
		<tag k="ssr:stedsnr" v="141000" />
		<tag k="water" v="lake" />
	</node>
	<node id="-791993" lat="70.2405083382" lon="24.0509554411">
		<tag k="name" v="Rihccejávri" />
		<tag k="name:se" v="Rihccejávri" />
		<tag k="natural" v="water" />
		<tag k="old_name:se" v="Riccejavri" />
		<tag k="ssr:stedsnr" v="140991" />
	</node>
	<node id="-791991" lat="70.1513055575" lon="24.2074359886">
		<tag k="name" v="Linnjajávri" />
		<tag k="name:se" v="Linnjajávri" />
		<tag k="natural" v="water" />
		<tag k="old_name:se" v="Linnjajavri" />
		<tag k="ssr:stedsnr" v="140965" />
		<tag k="water" v="lake" />
	</node>
	<node id="-791990" lat="70.1686722286" lon="24.1873915275">
		<tag k="name" v="Bajit Gussaluoppal" />
		<tag k="name:se" v="Bajit Gussaluoppal" />
		<tag k="natural" v="water" />
		<tag k="old_name:se" v="Gussaluobbal, bajit" />
		<tag k="ssr:stedsnr" v="140960" />
		<tag k="water" v="lake" />
	</node>
	<node id="-791989" lat="70.178952779" lon="24.2734859835">
		<tag k="name" v="Gussasáiva" />
		<tag k="name:se" v="Gussasáiva" />
		<tag k="natural" v="water" />
		<tag k="old_name:se" v="Gussasaiva" />
		<tag k="ssr:stedsnr" v="140958" />
	</node>
	<node id="-791987" lat="70.4658555641" lon="24.2182109839">
		<tag k="name" v="Fiskevatna" />
		<tag k="natural" v="water" />
		<tag k="ssr:stedsnr" v="140849" />
	</node>
	<node id="-791983" lat="70.19496945" lon="23.8741332207">
		<tag k="name" v="Leavššeluoppal" />
		<tag k="name:se" v="Leavššeluoppal" />
		<tag k="natural" v="water" />
		<tag k="old_name:se" v="Lævšeluobbal" />
		<tag k="ssr:stedsnr" v="140868" />
	</node>
	<node id="-791981" lat="70.4555138894" lon="24.3886526456">
		<tag k="name" v="Čuovvárjohka" />
		<tag k="name:se" v="Čuovvárjohka" />
		<tag k="old_name:se" v="Čuovvarjåkka;Čuovvárrijohka" />
		<tag k="ssr:stedsnr" v="140859" />
		<tag k="waterway" v="river" />
	</node>
	<node id="-791979" lat="70.4323527846" lon="24.6787970675">
		<tag k="name" v="Suolojávri" />
		<tag k="name:se" v="Suolojávri" />
		<tag k="natural" v="water" />
		<tag k="old_name:se" v="Suolujavri" />
		<tag k="ssr:stedsnr" v="140717" />
	</node>
	<node id="-791978" lat="70.2362277787" lon="23.8031471123">
		<tag k="name" v="Juovvajávri" />
		<tag k="name:se" v="Juovvajávri" />
		<tag k="natural" v="water" />
		<tag k="old_name:se" v="Juovvajavri" />
		<tag k="ssr:stedsnr" v="140764" />
	</node>
	<node id="-791977" lat="70.2389333385" lon="23.8351471195">
		<tag k="name" v="Buoiddesguoljávri" />
		<tag k="name:se" v="Buoiddesguoljávri" />
		<tag k="natural" v="water" />
		<tag k="old_name:se" v="Buoidesguoljavri" />
		<tag k="ssr:stedsnr" v="140761" />
		<tag k="water" v="lake" />
	</node>
	<node id="-791976" lat="70.4906805569" lon="24.7172554107">
		<tag k="name" v="Gumpejávri" />
		<tag k="name:se" v="Gumpejávri" />
		<tag k="natural" v="water" />
		<tag k="ssr:stedsnr" v="140686" />
		<tag k="water" v="lake" />
	</node>
	<node id="-791975" lat="70.3711027801" lon="24.5325220772">
		<tag k="name" v="Doggejávri" />
		<tag k="name:se" v="Doggejávri" />
		<tag k="natural" v="water" />
		<tag k="ssr:stedsnr" v="140669" />
		<tag k="water" v="lake" />
	</node>
	<node id="-791974" lat="70.3286888918" lon="24.396655403">
		<tag k="name" v="Gávvajávri" />
		<tag k="name:se" v="Gávvajávri" />
		<tag k="natural" v="water" />
		<tag k="old_name:se" v="Gavvajavri" />
		<tag k="ssr:stedsnr" v="140654" />
		<tag k="water" v="lake" />
	</node>
	<node id="-791973" lat="70.4022250081" lon="24.3472248582">
		<tag k="name" v="Riehpovuonmohkejávri" />
		<tag k="name:se" v="Riehpovuonmohkejávri" />
		<tag k="natural" v="water" />
		<tag k="old_name:se" v="Rieppuvuonmåkkejavri" />
		<tag k="ssr:stedsnr" v="140629" />
	</node>
	<node id="-791972" lat="70.3953555586" lon="24.3036109875">
		<tag k="name" v="Geaidnočohjávrrit" />
		<tag k="name:se" v="Geaidnočohjávrrit" />
		<tag k="natural" v="water" />
		<tag k="old_name:se" v="Geidnučåkjavrit;Geaidnočohkjávrrit" />
		<tag k="ssr:stedsnr" v="140627" />
		<tag k="water" v="lake" />
	</node>
	<node id="-791971" lat="70.4024111183" lon="24.1277221134">
		<tag k="name" v="Guoirratjávrrit" />
		<tag k="name:se" v="Guoirratjávrrit" />
		<tag k="natural" v="water" />
		<tag k="old_name:se" v="Guoiratjavrit" />
		<tag k="ssr:stedsnr" v="140626" />
		<tag k="water" v="lake" />
	</node>
	<node id="-791969" lat="70.42296389" lon="23.3848915875">
		<tag k="name" v="Reatkajávrrit" />
		<tag k="name:se" v="Reatkajávrrit" />
		<tag k="natural" v="water" />
		<tag k="old_name:se" v="Rætkajavrit" />
		<tag k="ssr:stedsnr" v="140035" />
		<tag k="water" v="lake" />
	</node>
	<node id="-791963" lat="70.4255666709" lon="23.7248471237">
		<tag k="name" v="Varmelvvatnet" />
		<tag k="natural" v="water" />
		<tag k="ssr:stedsnr" v="93163" />
	</node>
	<node id="-791951" lat="70.4416361158" lon="24.4009554324">
		<tag k="name" v="Hauankulpen" />
		<tag k="place" v="locality" />
		<tag k="ssr:stedsnr" v="89890" />
	</node>
	<node id="-791945" lat="70.4197194465" lon="23.5268443569">
		<tag k="name" v="Vuolit Guicavákkejávri" />
		<tag k="name:se" v="Vuolit Guicavákkejávri" />
		<tag k="natural" v="water" />
		<tag k="old_name:se" v="Guicavaggejavri vuolit" />
		<tag k="ssr:stedsnr" v="81994" />
		<tag k="water" v="lake" />
	</node>
	<node id="-791944" lat="70.4250194462" lon="23.917349883">
		<tag k="name" v="Portvatnan" />
		<tag k="natural" v="water" />
		<tag k="ssr:stedsnr" v="81993" />
		<tag k="water" v="lake" />
	</node>
	<node id="-791942" lat="70.4790249986" lon="23.828177681">
		<tag k="alt_name:no" v="Jeveluftvatnet" />
		<tag k="name" v="Gjeveluftvatnet - Leansmanjávri" />
		<tag k="name:no" v="Gjeveluftvatnet" />
		<tag k="name:se" v="Leansmanjávri" />
		<tag k="natural" v="water" />
		<tag k="old_name:se" v="Lænsmanjavri" />
		<tag k="ssr:stedsnr" v="81962" />
		<tag k="water" v="lake" />
	</node>
	<node id="-791939" lat="70.4737583368" lon="23.9183804502">
		<tag k="name" v="Rundvatnet" />
		<tag k="natural" v="water" />
		<tag k="ssr:stedsnr" v="81952" />
	</node>
	<node id="-791937" lat="70.5531805628" lon="24.7033554107">
		<tag k="name" v="Biellogiellasjávrrit" />
		<tag k="name:se" v="Biellogiellasjávrrit" />
		<tag k="natural" v="water" />
		<tag k="old_name:se" v="Biellugiellasjavrit" />
		<tag k="ssr:stedsnr" v="81938" />
		<tag k="water" v="lake" />
	</node>
	<node id="-791936" lat="70.5382750057" lon="24.733899844">
		<tag k="name" v="Miessejávrrit" />
		<tag k="name:se" v="Miessejávrrit" />
		<tag k="natural" v="water" />
		<tag k="old_name:se" v="Miessejavrit" />
		<tag k="ssr:stedsnr" v="81933" />
		<tag k="water" v="lake" />
	</node>
	<node id="-791932" lat="70.5188500068" lon="24.2239054387">
		<tag k="name" v="Godderielva - Godderiiddjohka" />
		<tag k="name:no" v="Godderielva" />
		<tag k="name:se" v="Godderiiddjohka" />
		<tag k="old_name:se" v="Gådderiidjåkka" />
		<tag k="ssr:stedsnr" v="81789" />
		<tag k="waterway" v="stream" />
	</node>
	<node id="-791931" lat="70.5348638952" lon="24.475774877">
		<tag k="name" v="Doaresjávri" />
		<tag k="name:se" v="Doaresjávri" />
		<tag k="natural" v="water" />
		<tag k="old_name:se" v="Doaresjavri" />
		<tag k="ssr:stedsnr" v="81786" />
	</node>
	<node id="-791928" lat="70.6223944443" lon="24.5346943038">
		<tag k="name" v="Ráššageašjávri" />
		<tag k="name:se" v="Ráššageašjávri" />
		<tag k="natural" v="water" />
		<tag k="old_name:se" v="Raššagæšjavri" />
		<tag k="ssr:stedsnr" v="81768" />
	</node>
	<node id="-791923" lat="70.2653527821" lon="23.8717749032">
		<tag k="name" v="Stuoraluoppal" />
		<tag k="name:se" v="Stuoraluoppal" />
		<tag k="natural" v="water" />
		<tag k="old_name:se" v="Stuoraluobbal" />
		<tag k="ssr:stedsnr" v="81828" />
		<tag k="water" v="lake" />
	</node>
	<node id="-791921" lat="70.582505558" lon="24.3024415453">
		<tag k="name" v="Nuorttat Fálesjohka" />
		<tag k="name:se" v="Nuorttat Fálesjohka" />
		<tag k="old_name:se" v="Falesjåkka, nuortat" />
		<tag k="ssr:stedsnr" v="81820" />
		<tag k="waterway" v="stream" />
	</node>
	<node id="-791918" lat="70.5720000057" lon="23.7703165657">
		<tag k="name" v="Guohcajávrrit" />
		<tag k="name:se" v="Guohcajávrrit" />
		<tag k="natural" v="water" />
		<tag k="old_name:se" v="Guoccajavrit" />
		<tag k="ssr:stedsnr" v="81265" />
	</node>
	<node id="-791917" lat="70.5689416706" lon="23.8968998966">
		<tag k="name" v="Goavdeluokjávrrit" />
		<tag k="name:se" v="Goavdeluokjávrrit" />
		<tag k="natural" v="water" />
		<tag k="old_name:se" v="Goavdeluokjavrit" />
		<tag k="ssr:stedsnr" v="81264" />
	</node>
	<node id="-791916" lat="70.5322138878" lon="23.7657526838">
		<tag k="name" v="Skjåholmelva - Cubbošjohka" />
		<tag k="name:no" v="Skjåholmelva" />
		<tag k="name:se" v="Cubbošjohka" />
		<tag k="old_name:se" v="Cubbušjåkka" />
		<tag k="ssr:stedsnr" v="81227" />
		<tag k="waterway" v="river" />
	</node>
	<node id="-791908" lat="70.2162861179" lon="24.037594316">
		<tag k="name" v="Ribatjávri" />
		<tag k="name:se" v="Ribatjávri" />
		<tag k="natural" v="water" />
		<tag k="old_name:se" v="Ribatjavri" />
		<tag k="ssr:stedsnr" v="80999" />
		<tag k="water" v="lake" />
	</node>
	<node id="-791907" lat="70.6562027783" lon="24.2825998713">
		<tag k="name" v="Guommajohka" />
		<tag k="name:se" v="Guommajohka" />
		<tag k="old_name:se" v="Guommajåkka" />
		<tag k="ssr:stedsnr" v="81145" />
		<tag k="waterway" v="stream" />
	</node>
	<node id="-791905" lat="70.2090027794" lon="23.7991137745">
		<tag k="name" v="Čáhppesjohka" />
		<tag k="name:se" v="Čáhppesjohka" />
		<tag k="old_name:se" v="Čappesjåkka" />
		<tag k="ssr:stedsnr" v="80888" />
		<tag k="waterway" v="stream" />
	</node>
	<node id="-791904" lat="70.1770833386" lon="24.1346193301">
		<tag k="name" v="Gussajohka" />
		<tag k="name:se" v="Gussajohka" />
		<tag k="old_name:se" v="Gussajåkka" />
		<tag k="ssr:stedsnr" v="80957" />
		<tag k="waterway" v="stream" />
	</node>
	<node id="-791903" lat="70.2055527784" lon="24.14721377">
		<tag k="name" v="Gáhččalanluoppal" />
		<tag k="name:se" v="Gáhččalanluoppal" />
		<tag k="natural" v="water" />
		<tag k="old_name:se" v="Gaččalanluobbal" />
		<tag k="ssr:stedsnr" v="80952" />
	</node>
	<node id="-791901" lat="70.5180194483" lon="24.5295887381">
		<tag k="name" v="Ádjájávri" />
		<tag k="name:se" v="Ádjájávri" />
		<tag k="natural" v="water" />
		<tag k="old_name:se" v="Addjajavri" />
		<tag k="ssr:stedsnr" v="80847" />
	</node>
	<node id="-791896" lat="70.2676111151" lon="24.374008194">
		<tag k="name" v="Goahtemuorjávri" />
		<tag k="name:se" v="Goahtemuorjávri" />
		<tag k="natural" v="water" />
		<tag k="old_name:se" v="Goattemuorjavri" />
		<tag k="ssr:stedsnr" v="80709" />
	</node>
	<node id="-791895" lat="70.3556916691" lon="24.3270637468">
		<tag k="name" v="Dápmotjohka" />
		<tag k="name:se" v="Dápmotjohka" />
		<tag k="old_name:se" v="Dabmutjåkka" />
		<tag k="ssr:stedsnr" v="80688" />
		<tag k="waterway" v="stream" />
	</node>
	<node id="-791890" lat="70.4365777839" lon="24.3091943046">
		<tag k="name" v="Indre Ariselv - Siskkit Árešjohka" />
		<tag k="name:no" v="Indre Ariselv" />
		<tag k="name:se" v="Siskkit Árešjohka" />
		<tag k="old_name:no" v="Ariselv indre" />
		<tag k="old_name:se" v="Arešjåkka, siskit" />
		<tag k="ssr:stedsnr" v="80654" />
		<tag k="waterway" v="river" />
	</node>
	<node id="-791889" lat="70.4177222227" lon="24.4713081883">
		<tag k="name" v="Svartelva - Riehpovuonmohkejohka" />
		<tag k="name:no" v="Svartelva" />
		<tag k="name:se" v="Riehpovuonmohkejohka" />
		<tag k="old_name:se" v="Rieppuvuonmåkkejåkka" />
		<tag k="ssr:stedsnr" v="80642" />
		<tag k="waterway" v="river" />
	</node>
	<node id="-791888" lat="70.366291667" lon="24.0981748843">
		<tag k="name" v="Bohtaljohka" />
		<tag k="name:se" v="Bohtaljohka" />
		<tag k="old_name:se" v="Båttaljåkka" />
		<tag k="ssr:stedsnr" v="80632" />
		<tag k="waterway" v="stream" />
	</node>
	<node id="-791886" lat="70.2326027829" lon="23.8027415689">
		<tag k="name" v="Guhkesjávri" />
		<tag k="name:se" v="Guhkesjávri" />
		<tag k="natural" v="water" />
		<tag k="old_name:se" v="Gukkesjavri" />
		<tag k="ssr:stedsnr" v="80873" />
	</node>
	<node id="-791885" lat="70.4677500018" lon="24.2540026586">
		<tag k="name" v="Gorahatjávri" />
		<tag k="name:se" v="Gorahatjávri" />
		<tag k="natural" v="water" />
		<tag k="old_name:se" v="Gårhatjavri" />
		<tag k="ssr:stedsnr" v="80866" />
	</node>
	<node id="-791884" lat="70.4800611168" lon="24.3205082041">
		<tag k="name" v="Iselva - Iisajohka" />
		<tag k="name:no" v="Iselva" />
		<tag k="name:se" v="Iisajohka" />
		<tag k="old_name:se" v="Iisajåkka" />
		<tag k="ssr:stedsnr" v="80854" />
		<tag k="waterway" v="stream" />
	</node>
	<node id="-791882" lat="70.3552583382" lon="23.8072221149">
		<tag k="name" v="Gihtaidjohka" />
		<tag k="name:se" v="Gihtaidjohka" />
		<tag k="old_name:se" v="Gittaidjåkka" />
		<tag k="ssr:stedsnr" v="80776" />
		<tag k="waterway" v="river" />
	</node>
	<node id="-791881" lat="70.3976861155" lon="23.7204554458">
		<tag k="alt_name" v="Sennavatnan, øvre" />
		<tag k="name" v="Øvre Sennavatn" />
		<tag k="natural" v="water" />
		<tag k="ssr:stedsnr" v="80766" />
		<tag k="water" v="lake" />
	</node>
	<node id="-791880" lat="70.4002277811" lon="23.7345082382">
		<tag k="alt_name" v="Sennavatnan, midtre" />
		<tag k="name" v="Midtre Sennavatn" />
		<tag k="natural" v="water" />
		<tag k="ssr:stedsnr" v="80765" />
		<tag k="water" v="lake" />
	</node>
	<node id="-791879" lat="70.375800004" lon="24.0322165611">
		<tag k="name" v="Holmvatnet - Govdavák-Suolojávri" />
		<tag k="name:no" v="Holmvatnet" />
		<tag k="name:se" v="Govdavák-Suolojávri" />
		<tag k="natural" v="water" />
		<tag k="old_name:se" v="Gåvdavag-Suolujavri;Govdavág-Suolojávri" />
		<tag k="ssr:stedsnr" v="80539" />
		<tag k="water" v="lake" />
	</node>
	<node id="-791875" lat="70.6742777829" lon="24.4078637592">
		<tag k="name" v="Gohttaluohjávri" />
		<tag k="name:se" v="Gohttaluohjávri" />
		<tag k="natural" v="water" />
		<tag k="old_name:se" v="Gåttaluokjavri" />
		<tag k="ssr:stedsnr" v="80123" />
	</node>
	<node id="-791874" lat="70.2439305612" lon="24.0700193375">
		<tag k="name" v="Rihccejohka" />
		<tag k="name:se" v="Rihccejohka" />
		<tag k="old_name:se" v="Riccejåkka" />
		<tag k="ssr:stedsnr" v="49560" />
		<tag k="waterway" v="stream" />
	</node>
	<node id="-791868" lat="70.4069861166" lon="24.3179082037">
		<tag k="name" v="Bajit Geiadnočohjávri" />
		<tag k="name:se" v="Bajit Geiadnočohjávri" />
		<tag k="natural" v="water" />
		<tag k="ssr:stedsnr" v="31326" />
		<tag k="water" v="lake" />
	</node>
	<node id="-791866" lat="70.5459583389" lon="24.1472832091">
		<tag k="name" v="Rundvatnet" />
		<tag k="natural" v="water" />
		<tag k="ssr:stedsnr" v="29971" />
	</node>
	<node id="-791861" lat="70.3924250071" lon="24.3446637561">
		<tag k="name" v="Geaidnočohjohka" />
		<tag k="name:se" v="Geaidnočohjohka" />
		<tag k="ssr:stedsnr" v="29946" />
		<tag k="waterway" v="stream" />
	</node>
	<node id="-791860" lat="70.4042583358" lon="24.2611859745">
		<tag k="name" v="Vegdalsvatnet" />
		<tag k="natural" v="water" />
		<tag k="ssr:stedsnr" v="29944" />
	</node>
	<node id="-791857" lat="70.4323000021" lon="24.4905248441">
		<tag k="name" v="Trekanten" />
		<tag k="natural" v="cape" />
		<tag k="ssr:stedsnr" v="29611" />
	</node>
	<node id="-791853" lat="70.2750944445" lon="23.7569304623">
		<tag k="name" v="Bajit Varisjávri" />
		<tag k="name:se" v="Bajit Varisjávri" />
		<tag k="natural" v="water" />
		<tag k="old_name:se" v="Varisjavri, bajit" />
		<tag k="ssr:stedsnr" v="25418" />
		<tag k="water" v="lake" />
	</node>
	<node id="-791848" lat="70.4288277833" lon="23.720419347">
		<tag k="name" v="Varmelva - Báhkkajohka" />
		<tag k="name:no" v="Varmelva" />
		<tag k="name:se" v="Báhkkajohka" />
		<tag k="old_name:se" v="Bakkajåkka" />
		<tag k="ssr:stedsnr" v="20978" />
		<tag k="waterway" v="stream" />
	</node>
	<node id="-791847" lat="70.4384083326" lon="23.8562748998">
		<tag k="alt_name" v="Kjosen, øvre" />
		<tag k="name" v="Øvre Kjosen" />
		<tag k="place" v="locality" />
		<tag k="ssr:stedsnr" v="20977" />
	</node>
	<node id="-791844" lat="70.6118472246" lon="24.6813248527">
		<tag k="name" v="Riebangurjogaš" />
		<tag k="name:se" v="Riebangurjogaš" />
		<tag k="old_name:se" v="Riebangurjågaš" />
		<tag k="ssr:stedsnr" v="20903" />
		<tag k="waterway" v="stream" />
	</node>
	<node id="-791842" lat="70.6275861157" lon="24.7545359606">
		<tag k="name" v="Rávdoljohka" />
		<tag k="name:se" v="Rávdoljohka" />
		<tag k="old_name:se" v="Ravduljåkka" />
		<tag k="ssr:stedsnr" v="20877" />
		<tag k="waterway" v="river" />
	</node>
	<node id="-791840" lat="70.4525055588" lon="24.0216248977">
		<tag k="name" v="Goahtejogaš" />
		<tag k="name:se" v="Goahtejogaš" />
		<tag k="old_name:se" v="Goattejågaš" />
		<tag k="ssr:stedsnr" v="20867" />
		<tag k="waterway" v="stream" />
	</node>
	<node id="-791839" lat="70.4671305614" lon="24.2633665549">
		<tag k="name" v="Gorahatjohka" />
		<tag k="name:se" v="Gorahatjohka" />
		<tag k="old_name:se" v="Gårhatjåkka" />
		<tag k="ssr:stedsnr" v="20862" />
		<tag k="waterway" v="stream" />
	</node>
	<node id="-791836" lat="70.4908277825" lon="24.5249887461">
		<tag k="name" v="Čiŋkajávri" />
		<tag k="name:se" v="Čiŋkajávri" />
		<tag k="natural" v="water" />
		<tag k="old_name:se" v="Čiŋkajavri;Činkajávri" />
		<tag k="ssr:stedsnr" v="20850" />
		<tag k="water" v="lake" />
	</node>
	<node id="-791832" lat="70.2751000053" lon="23.9299471231">
		<tag k="name" v="Sievjogeinnodatjávri" />
		<tag k="name:se" v="Sievjogeinnodatjávri" />
		<tag k="natural" v="water" />
		<tag k="old_name:se" v="Sievjugenudatjavri" />
		<tag k="ssr:stedsnr" v="20825" />
	</node>
	<node id="-791828" lat="70.34405278" lon="23.8202943456">
		<tag k="name" v="Fjellvatnet" />
		<tag k="natural" v="water" />
		<tag k="ssr:stedsnr" v="20798" />
		<tag k="water" v="lake" />
	</node>
	<node id="-791826" lat="70.3672833397" lon="23.6987138053">
		<tag k="name" v="Bjørnstadvatnet" />
		<tag k="natural" v="water" />
		<tag k="ssr:stedsnr" v="20793" />
		<tag k="water" v="lake" />
	</node>
	<node id="-791823" lat="70.4087888926" lon="24.0000526627">
		<tag k="name" v="Fallbakkvatnet" />
		<tag k="natural" v="water" />
		<tag k="ssr:stedsnr" v="20676" />
	</node>
	<node id="-791820" lat="70.5305888887" lon="23.8607665519">
		<tag k="name" v="Mártejávrrit" />
		<tag k="name:se" v="Mártejávrrit" />
		<tag k="natural" v="water" />
		<tag k="old_name:se" v="Martejavrit" />
		<tag k="ssr:stedsnr" v="20196" />
	</node>
	<node id="-791813" lat="70.1808444492" lon="24.0839109943">
		<tag k="name" v="Guovttijohnjálbmi" />
		<tag k="name:se" v="Guovttijohnjálbmi" />
		<tag k="natural" v="bay" />
		<tag k="old_name:se" v="Guovtijåknjalbmi" />
		<tag k="ssr:stedsnr" v="19942" />
	</node>
	<node id="-791812" lat="70.228011113" lon="23.9444471001">
		<tag k="name" v="Jonasvatnet - Joavnnajávri" />
		<tag k="name:no" v="Jonasvatnet" />
		<tag k="name:se" v="Joavnnajávri" />
		<tag k="natural" v="water" />
		<tag k="old_name:se" v="Joavnajavri" />
		<tag k="ssr:stedsnr" v="19851" />
	</node>
	<node id="-791810" lat="70.1677805561" lon="23.9032082111">
		<tag k="name" v="Arturbekken" />
		<tag k="ssr:stedsnr" v="19809" />
		<tag k="waterway" v="stream" />
	</node>
	<node id="-791809" lat="70.2475222271" lon="23.8369304464">
		<tag k="name" v="Buoiddesguolluoppal" />
		<tag k="name:se" v="Buoiddesguolluoppal" />
		<tag k="natural" v="water" />
		<tag k="old_name:se" v="Buoidesguolluobbal" />
		<tag k="ssr:stedsnr" v="19769" />
	</node>
	<node id="-791806" lat="70.3544555587" lon="24.450394307">
		<tag k="name" v="Čellejávrrit" />
		<tag k="name:se" v="Čellejávrrit" />
		<tag k="natural" v="water" />
		<tag k="old_name:se" v="Čellejavrit" />
		<tag k="ssr:stedsnr" v="19670" />
	</node>
	<node id="-791770" lat="70.3762472232" lon="24.2011998634">
		<tag k="name" v="Breidalsvatnet - Stuora Govdavákjávri" />
		<tag k="name:no" v="Breidalsvatnet" />
		<tag k="name:se" v="Stuora Govdavákjávri" />
		<tag k="natural" v="water" />
		<tag k="old_name:se" v="Gåvdavagjavri, stuora" />
		<tag k="ssr:stedsnr" v="391669" />
		<tag k="water" v="lake" />
	</node>
	<node id="-791767" lat="70.4415777834" lon="23.4216443775">
		<tag k="name" v="Bajit Guhkesjávri" />
		<tag k="name:se" v="Bajit Guhkesjávri" />
		<tag k="natural" v="water" />
		<tag k="old_name:se" v="Gukkesjavri, bajit" />
		<tag k="ssr:stedsnr" v="384976" />
		<tag k="water" v="lake" />
	</node>
	<node id="-791766" lat="70.4583833375" lon="23.8079804552">
		<tag k="alt_name" v="Litlevatnet" />
		<tag k="name" v="Lillevatnet" />
		<tag k="natural" v="water" />
		<tag k="ssr:stedsnr" v="384971" />
	</node>
	<node id="-791764" lat="70.4917111153" lon="23.9654221211">
		<tag k="alt_name" v="Okseelva" />
		<tag k="name" v="Okselva" />
		<tag k="ssr:stedsnr" v="384931" />
		<tag k="waterway" v="stream" />
	</node>
	<node id="-791763" lat="70.6033777814" lon="24.6958692928">
		<tag k="name" v="Sámmolčohkajávri" />
		<tag k="name:se" v="Sámmolčohkajávri" />
		<tag k="natural" v="water" />
		<tag k="old_name:se" v="Sammulčåkkajavri" />
		<tag k="ssr:stedsnr" v="384894" />
	</node>
	<node id="-791762" lat="70.6004055626" lon="24.6634026331">
		<tag k="name" v="Gumppejogaš" />
		<tag k="name:se" v="Gumppejogaš" />
		<tag k="old_name:se" v="Gumpejågaš" />
		<tag k="ssr:stedsnr" v="384892" />
		<tag k="waterway" v="stream" />
	</node>
	<node id="-791761" lat="70.4387583372" lon="24.0321526737">
		<tag k="name" v="Randulvsvatnet" />
		<tag k="natural" v="water" />
		<tag k="ssr:stedsnr" v="384857" />
	</node>
	<node id="-791757" lat="70.4724972207" lon="24.1445276665">
		<tag k="name" v="Fægfjordvatnet" />
		<tag k="natural" v="water" />
		<tag k="ssr:stedsnr" v="384823" />
	</node>
	<node id="-791750" lat="70.444980561" lon="24.3500081912">
		<tag k="name" v="Stubbeborg" />
		<tag k="natural" v="cape" />
		<tag k="ssr:stedsnr" v="384662" />
	</node>
	<node id="-791749" lat="70.4629444495" lon="24.6096109507">
		<tag k="name" v="Guorrojohka" />
		<tag k="name:se" v="Guorrojohka" />
		<tag k="old_name:se" v="Guorrujåkka;Guorrujohka" />
		<tag k="ssr:stedsnr" v="384656" />
		<tag k="waterway" v="river" />
	</node>
	<node id="-791746" lat="70.4267138924" lon="24.3669026411">
		<tag k="alt_name" v="Lomvatnan" />
		<tag k="name" v="Lomvatna" />
		<tag k="natural" v="water" />
		<tag k="ssr:stedsnr" v="384647" />
	</node>
	<node id="-791742" lat="70.5413527794" lon="23.7736943422">
		<tag k="name" v="Gieldaluokjohka" />
		<tag k="name:se" v="Gieldaluokjohka" />
		<tag k="old_name:se" v="Gieldaluokjåkka" />
		<tag k="ssr:stedsnr" v="384208" />
		<tag k="waterway" v="river" />
	</node>
	<node id="-791738" lat="70.6600527812" lon="24.3082248715">
		<tag k="name" v="Guovdajohka" />
		<tag k="name:se" v="Guovdajohka" />
		<tag k="old_name:se" v="Guovdajåkka" />
		<tag k="ssr:stedsnr" v="384164" />
		<tag k="waterway" v="stream" />
	</node>
	<node id="-791737" lat="70.5891972293" lon="24.5836748673">
		<tag k="name" v="Boazojohka" />
		<tag k="name:se" v="Boazojohka" />
		<tag k="old_name:se" v="Boazujåkka;Boazujohka" />
		<tag k="ssr:stedsnr" v="384021" />
		<tag k="waterway" v="river" />
	</node>
	<node id="-791730" lat="70.1864444511" lon="23.9203248937">
		<tag k="name" v="Ádjájohka" />
		<tag k="name:se" v="Ádjájohka" />
		<tag k="old_name:se" v="Addjajåkka" />
		<tag k="ssr:stedsnr" v="383846" />
		<tag k="waterway" v="stream" />
	</node>
	<node id="-791728" lat="70.3859972243" lon="23.666311002">
		<tag k="fixme" v="multiple name tags, choose one and add the other to alt_name" />
		<tag k="name" v="Porsavatn;Storvatnet - Vuolit Borsejávri" />
		<tag k="name:no" v="Porsavatn;Storvatnet" />
		<tag k="name:se" v="Vuolit Borsejávri" />
		<tag k="natural" v="water" />
		<tag k="old_name:se" v="Bårsejavri, vuolit" />
		<tag k="ssr:stedsnr" v="383767" />
		<tag k="water" v="lake" />
	</node>
	<node id="-791726" lat="70.404122227" lon="23.9419249022">
		<tag k="name" v="Pinsevatnet" />
		<tag k="natural" v="water" />
		<tag k="ssr:stedsnr" v="383759" />
		<tag k="water" v="lake" />
	</node>
	<node id="-791725" lat="70.2773944518" lon="24.2382693063">
		<tag k="name" v="Suhpodanjávrrit" />
		<tag k="name:se" v="Suhpodanjávrrit" />
		<tag k="natural" v="water" />
		<tag k="old_name:se" v="Suppudanjavrit" />
		<tag k="ssr:stedsnr" v="383713" />
	</node>
	<node id="-791724" lat="70.2940666676" lon="24.2000804276">
		<tag k="name" v="Guhkesgurjohka" />
		<tag k="name:se" v="Guhkesgurjohka" />
		<tag k="old_name:se" v="Gukkesgurjåkka" />
		<tag k="ssr:stedsnr" v="383711" />
		<tag k="waterway" v="river" />
	</node>
	<node id="-791722" lat="70.4111750062" lon="24.4087248668">
		<tag k="name" v="Svartfjellvatnet" />
		<tag k="natural" v="water" />
		<tag k="ssr:stedsnr" v="383646" />
		<tag k="water" v="lake" />
	</node>
	<node id="-791721" lat="70.3412666685" lon="24.2630332098">
		<tag k="name" v="Breidalselva - Govdavákjohka" />
		<tag k="name:no" v="Breidalselva" />
		<tag k="name:se" v="Govdavákjohka" />
		<tag k="old_name:se" v="Gåvdavagjåkka" />
		<tag k="ssr:stedsnr" v="383639" />
		<tag k="waterway" v="river" />
	</node>
	<node id="-791716" lat="70.1339083409" lon="24.1226470855">
		<tag k="name" v="Hávskesjohka" />
		<tag k="name:se" v="Hávskesjohka" />
		<tag k="old_name:se" v="Havskesjåkka" />
		<tag k="ssr:stedsnr" v="383035" />
		<tag k="waterway" v="stream" />
	</node>
	<node id="-791710" lat="70.5920250033" lon="24.7998526256">
		<tag k="name" v="Ávžžijogaš" />
		<tag k="name:se" v="Ávžžijogaš" />
		<tag k="ssr:stedsnr" v="336184" />
		<tag k="waterway" v="stream" />
	</node>
	<node id="-791709" lat="70.5038111094" lon="24.048769342">
		<tag k="name" v="Slettelva" />
		<tag k="ssr:stedsnr" v="332999" />
		<tag k="waterway" v="river" />
	</node>
	<node id="-791708" lat="70.4626027811" lon="23.9207248951">
		<tag k="name" v="Reinkalvelva - Miessejohka" />
		<tag k="name:no" v="Reinkalvelva" />
		<tag k="name:se" v="Miessejohka" />
		<tag k="ssr:stedsnr" v="332983" />
		<tag k="waterway" v="stream" />
	</node>
	<node id="-791706" lat="70.5590083364" lon="24.1320304511">
		<tag k="name" v="Andersvatnet" />
		<tag k="natural" v="water" />
		<tag k="ssr:stedsnr" v="332972" />
	</node>
	<node id="-791694" lat="70.4438361135" lon="23.8646971137">
		<tag k="alt_name" v="Kjosen, nedre" />
		<tag k="name" v="Nedre Kjosen" />
		<tag k="place" v="locality" />
		<tag k="ssr:stedsnr" v="323972" />
	</node>
	<node id="-791692" lat="70.4695333372" lon="23.9446721189">
		<tag k="name" v="Korsfossen" />
		<tag k="natural" v="waterfall" />
		<tag k="ssr:stedsnr" v="323962" />
	</node>
	<node id="-791689" lat="70.2116027835" lon="24.0791915583">
		<tag k="name" v="Ribatjohka" />
		<tag k="name:se" v="Ribatjohka" />
		<tag k="old_name:se" v="Ribatjåkka" />
		<tag k="ssr:stedsnr" v="323941" />
		<tag k="waterway" v="stream" />
	</node>
	<node id="-791688" lat="70.5380638972" lon="24.7583692919">
		<tag k="name" v="Miessejávrreguotku" />
		<tag k="name:se" v="Miessejávrreguotku" />
		<tag k="natural" v="strait" />
		<tag k="old_name:se" v="Miessejavreguotko" />
		<tag k="ssr:stedsnr" v="323932" />
	</node>
	<node id="-791684" lat="70.5879222257" lon="24.7100803918">
		<tag k="name" v="Skillevatnet - Rátkkajávri" />
		<tag k="name:no" v="Skillevatnet" />
		<tag k="name:se" v="Rátkkajávri" />
		<tag k="natural" v="water" />
		<tag k="old_name:se" v="Ratkajavri" />
		<tag k="ssr:stedsnr" v="323887" />
	</node>
	<node id="-791682" lat="70.4380111118" lon="24.0178110087">
		<tag k="name" v="Bergvatnet" />
		<tag k="natural" v="water" />
		<tag k="ssr:stedsnr" v="323878" />
	</node>
	<node id="-791679" lat="70.4511305575" lon="24.0876526597">
		<tag k="name" v="Krokvatnet" />
		<tag k="natural" v="water" />
		<tag k="ssr:stedsnr" v="323865" />
	</node>
	<node id="-791678" lat="70.634680557" lon="24.7231331798">
		<tag k="name" v="Holmvatnet - Guollejávri" />
		<tag k="name:no" v="Holmvatnet" />
		<tag k="name:se" v="Guollejávri" />
		<tag k="natural" v="water" />
		<tag k="ssr:stedsnr" v="323863" />
	</node>
	<node id="-791677" lat="70.4657250036" lon="24.3684970887">
		<tag k="name" v="Neselvatnet - Njárgajávri" />
		<tag k="name:no" v="Neselvatnet" />
		<tag k="name:se" v="Njárgajávri" />
		<tag k="natural" v="water" />
		<tag k="old_name:se" v="Njargajavri" />
		<tag k="ssr:stedsnr" v="323860" />
	</node>
	<node id="-791673" lat="70.4672666714" lon="24.0089915455">
		<tag k="name" v="Nussirjávri" />
		<tag k="name:se" v="Nussirjávri" />
		<tag k="natural" v="water" />
		<tag k="old_name:se" v="Nussirjavri" />
		<tag k="ssr:stedsnr" v="323855" />
	</node>
	<node id="-791670" lat="70.4967777842" lon="24.574863752">
		<tag k="name" v="Čiŋkajohka" />
		<tag k="name:se" v="Čiŋkajohka" />
		<tag k="old_name:se" v="Čiŋkajåkka;Činkajohka" />
		<tag k="ssr:stedsnr" v="323839" />
		<tag k="waterway" v="river" />
	</node>
	<node id="-791669" lat="70.4916388928" lon="24.0239249006">
		<tag k="fixme" v="multiple name tags, choose one and add the other to alt_name" />
		<tag k="name" v="Store Halsevatn;Øvre Halsevatnet" />
		<tag k="natural" v="water" />
		<tag k="old_name" v="Halsevatnet, øvre" />
		<tag k="ssr:stedsnr" v="323832" />
	</node>
	<node id="-791668" lat="70.2577361131" lon="23.939641552">
		<tag k="name" v="Nadjetjávri" />
		<tag k="name:se" v="Nadjetjávri" />
		<tag k="natural" v="water" />
		<tag k="old_name:se" v="Naddjetjavri" />
		<tag k="ssr:stedsnr" v="323823" />
		<tag k="water" v="lake" />
	</node>
	<node id="-791667" lat="70.2750916673" lon="23.798430436">
		<tag k="name" v="Vuolit Varisjávri" />
		<tag k="name:se" v="Vuolit Varisjávri" />
		<tag k="natural" v="water" />
		<tag k="old_name:se" v="Varisjavri, vuolit" />
		<tag k="ssr:stedsnr" v="323815" />
		<tag k="water" v="lake" />
	</node>
	<node id="-791666" lat="70.5791861159" lon="24.0705943456">
		<tag k="name" v="Iselva" />
		<tag k="ssr:stedsnr" v="323812" />
		<tag k="waterway" v="stream" />
	</node>
	<node id="-791661" lat="70.6492861147" lon="24.506566538">
		<tag k="name" v="Nihkajohka" />
		<tag k="name:se" v="Nihkajohka" />
		<tag k="old_name:se" v="Nikkajåkka" />
		<tag k="ssr:stedsnr" v="323779" />
		<tag k="waterway" v="stream" />
	</node>
	<node id="-791660" lat="70.3679527798" lon="23.7946887768">
		<tag k="alt_name:no" v="Rustvatn" />
		<tag k="name" v="Rustvatnet - Állejávri" />
		<tag k="name:no" v="Rustvatnet" />
		<tag k="name:se" v="Állejávri" />
		<tag k="natural" v="water" />
		<tag k="old_name:se" v="Allejavri" />
		<tag k="ssr:stedsnr" v="323772" />
	</node>
	<node id="-791659" lat="70.3610805583" lon="23.6047304746">
		<tag k="name" v="Gosvikvatnan" />
		<tag k="natural" v="water" />
		<tag k="ssr:stedsnr" v="323771" />
		<tag k="water" v="lake" />
	</node>
	<node id="-791653" lat="70.3448861123" lon="24.0903693348">
		<tag k="name" v="Bajit Áisarjávri" />
		<tag k="name:se" v="Bajit Áisarjávri" />
		<tag k="natural" v="water" />
		<tag k="old_name:se" v="Aisarjavri, bajit" />
		<tag k="ssr:stedsnr" v="323688" />
	</node>
	<node id="-791652" lat="70.4242166653" lon="24.0326082225">
		<tag k="name" v="Gressneset" />
		<tag k="natural" v="cape" />
		<tag k="ssr:stedsnr" v="323666" />
	</node>
	<node id="-791645" lat="70.6616138944" lon="24.3770137628">
		<tag k="name" v="Unna Njeaiddánjávrráš" />
		<tag k="name:se" v="Unna Njeaiddánjávrráš" />
		<tag k="natural" v="water" />
		<tag k="old_name:se" v="Njæidanjavraš, unna" />
		<tag k="ssr:stedsnr" v="323164" />
	</node>
	<node id="-791644" lat="70.6740194516" lon="24.3646415315">
		<tag k="name" v="Revsnesvatnet" />
		<tag k="natural" v="water" />
		<tag k="ssr:stedsnr" v="323151" />
		<tag k="water" v="lake" />
	</node>
	<node id="-791643" lat="70.2306333352" lon="23.886210995">
		<tag k="name" v="Ođđaguollejávri" />
		<tag k="name:se" v="Ođđaguollejávri" />
		<tag k="natural" v="water" />
		<tag k="old_name:se" v="Åđđaguollejavri" />
		<tag k="ssr:stedsnr" v="322841" />
	</node>
	<node id="-791642" lat="70.2773888936" lon="24.2078526578">
		<tag k="name" v="Skadjajávri" />
		<tag k="name:se" v="Skadjajávri" />
		<tag k="natural" v="water" />
		<tag k="old_name:se" v="Skaddjajavri" />
		<tag k="ssr:stedsnr" v="322707" />
	</node>
	<node id="-791640" lat="70.4033194443" lon="24.4949943056">
		<tag k="name" v="Trollelva" />
		<tag k="ssr:stedsnr" v="322638" />
		<tag k="waterway" v="stream" />
	</node>
	<node id="-791631" lat="70.3909194515" lon="24.3875415381">
		<tag k="name" v="Brattelvvatnet" />
		<tag k="natural" v="water" />
		<tag k="ssr:stedsnr" v="272864" />
	</node>
	<node id="-791626" lat="70.4724027834" lon="23.9329610091">
		<tag k="name" v="Korselva" />
		<tag k="natural" v="bay" />
		<tag k="ssr:stedsnr" v="271986" />
	</node>
	<node id="-791624" lat="70.5447166723" lon="24.1416554515">
		<tag k="name" v="Buktavatnet" />
		<tag k="natural" v="water" />
		<tag k="ssr:stedsnr" v="271970" />
		<tag k="water" v="lake" />
	</node>
	<node id="-791622" lat="70.4665638962" lon="24.3242498612">
		<tag k="name" v="Neselva" />
		<tag k="ssr:stedsnr" v="271947" />
		<tag k="waterway" v="stream" />
	</node>
	<node id="-792825" lat="70.3924472247" lon="23.6965165775">
		<tag k="name" v="Dolomittholmen" />
		<tag k="place" v="islet" />
		<tag k="ssr:stedsnr" v="943212" />
	</node>
	<node id="-792824" lat="70.585288889" lon="24.6946415229">
		<tag k="name" v="Rátkkajávrrit" />
		<tag k="name:se" v="Rátkkajávrrit" />
		<tag k="natural" v="water" />
		<tag k="ssr:stedsnr" v="943155" />
	</node>
	<node id="-792823" lat="70.6373416701" lon="24.6991776369">
		<tag k="name" v="Birdaelva" />
		<tag k="ssr:stedsnr" v="943145" />
		<tag k="waterway" v="stream" />
	</node>
	<node id="-792809" lat="70.4502416709" lon="23.9979610103">
		<tag k="name" v="Vuolit Suololuoppal" />
		<tag k="name:se" v="Vuolit Suololuoppal" />
		<tag k="natural" v="water" />
		<tag k="old_name:se" v="Suoluluobbal, vuolit" />
		<tag k="ssr:stedsnr" v="930981" />
	</node>
	<node id="-792808" lat="70.4519777837" lon="23.8865387786">
		<tag k="name" v="Neverfjordelva - Fiettarjohka" />
		<tag k="name:no" v="Neverfjordelva" />
		<tag k="name:se" v="Fiettarjohka" />
		<tag k="old_name:se" v="Fieddarjåkka" />
		<tag k="ssr:stedsnr" v="930982" />
		<tag k="waterway" v="river" />
	</node>
	<node id="-792807" lat="70.4397083387" lon="23.9896943489">
		<tag k="name" v="Bajit Suololuoppal" />
		<tag k="name:se" v="Bajit Suololuoppal" />
		<tag k="old_name:se" v="Suoluluobbal, bajit" />
		<tag k="place" v="locality" />
		<tag k="ssr:stedsnr" v="930979" />
	</node>
	<node id="-792803" lat="70.2038416705" lon="24.1119109744">
		<tag k="name" v="Gáhččalanjohka" />
		<tag k="name:se" v="Gáhččalanjohka" />
		<tag k="old_name:se" v="Gaččalanjåkka" />
		<tag k="ssr:stedsnr" v="930943" />
		<tag k="waterway" v="stream" />
	</node>
	<node id="-792802" lat="70.5512972275" lon="24.7669109613">
		<tag k="name" v="Fierbmejávri" />
		<tag k="name:se" v="Fierbmejávri" />
		<tag k="natural" v="water" />
		<tag k="old_name:se" v="Fierbmejavri" />
		<tag k="ssr:stedsnr" v="930923" />
	</node>
	<node id="-792798" lat="70.4748055563" lon="24.5135498525">
		<tag k="name" v="Dápmotjávri" />
		<tag k="name:se" v="Dápmotjávri" />
		<tag k="natural" v="water" />
		<tag k="old_name:se" v="Dalmutjavri" />
		<tag k="ssr:stedsnr" v="930870" />
	</node>
	<node id="-792794" lat="70.5138527783" lon="24.5165304152">
		<tag k="name" v="Ákhojávri" />
		<tag k="name:se" v="Ákhojávri" />
		<tag k="natural" v="water" />
		<tag k="old_name:se" v="Akkujavri" />
		<tag k="ssr:stedsnr" v="930852" />
	</node>
	<node id="-792786" lat="70.6381916675" lon="24.3318609831">
		<tag k="name" v="Unna Guommajávrráš" />
		<tag k="name:se" v="Unna Guommajávrráš" />
		<tag k="natural" v="water" />
		<tag k="old_name:se" v="Guommajavraš, unna" />
		<tag k="ssr:stedsnr" v="930800" />
		<tag k="water" v="lake" />
	</node>
	<node id="-792785" lat="70.6150500034" lon="24.0738221095">
		<tag k="loc_name" v="Unna Dorskavuonjohka" />
		<tag k="name" v="Indrefjordelva" />
		<tag k="ssr:stedsnr" v="930795" />
		<tag k="waterway" v="river" />
	</node>
	<node id="-792781" lat="70.4016083315" lon="23.4692971387">
		<tag k="name" v="Birranvággejávri" />
		<tag k="name:se" v="Birranvággejávri" />
		<tag k="natural" v="water" />
		<tag k="old_name:se" v="Birranvaggejavri" />
		<tag k="ssr:stedsnr" v="930782" />
	</node>
	<node id="-792778" lat="70.4877500006" lon="24.7291359575">
		<tag k="name" v="Gumppeluoppal" />
		<tag k="name:se" v="Gumppeluoppal" />
		<tag k="natural" v="water" />
		<tag k="old_name:se" v="Gumpeluobbal" />
		<tag k="ssr:stedsnr" v="930725" />
	</node>
	<node id="-792777" lat="70.3412583357" lon="24.0135748726">
		<tag k="name" v="Háiggirjávri" />
		<tag k="name:se" v="Háiggirjávri" />
		<tag k="natural" v="water" />
		<tag k="old_name:se" v="Haigirjavri" />
		<tag k="ssr:stedsnr" v="930691" />
	</node>
	<node id="-792774" lat="70.3654500073" lon="24.6270165185">
		<tag k="name" v="Bavtevuolesjávri" />
		<tag k="name:se" v="Bavtevuolesjávri" />
		<tag k="natural" v="water" />
		<tag k="ssr:stedsnr" v="930532" />
	</node>
	<node id="-792773" lat="70.1922250019" lon="24.2058081927">
		<tag k="name" v="Opmojohka" />
		<tag k="name:se" v="Opmojohka" />
		<tag k="old_name:se" v="Åbmujåkka" />
		<tag k="ssr:stedsnr" v="930471" />
		<tag k="waterway" v="river" />
	</node>
	<node id="-792772" lat="70.5390138924" lon="23.9777582334">
		<tag k="name" v="Ánttejohka" />
		<tag k="name:se" v="Ánttejohka" />
		<tag k="ssr:stedsnr" v="930213" />
		<tag k="waterway" v="stream" />
	</node>
	<node id="-792771" lat="70.5200944488" lon="23.8668943376">
		<tag k="name" v="Láttojohka" />
		<tag k="name:se" v="Láttojohka" />
		<tag k="old_name:se" v="Laddujåkka" />
		<tag k="ssr:stedsnr" v="930207" />
		<tag k="waterway" v="stream" />
	</node>
	<node id="-792767" lat="70.3410138916" lon="24.4157943159">
		<tag k="name" v="Ánddeš-Bierjávri" />
		<tag k="name:se" v="Ánddeš-Bierjávri" />
		<tag k="natural" v="water" />
		<tag k="old_name:se" v="Andeš-Bierjavri" />
		<tag k="ssr:stedsnr" v="929648" />
	</node>
	<node id="-792766" lat="70.3190694534" lon="24.3364276379">
		<tag k="name" v="Nivatna - Juovssajávrrit" />
		<tag k="name:no" v="Nivatna" />
		<tag k="name:se" v="Juovssajávrrit" />
		<tag k="natural" v="water" />
		<tag k="old_name:se" v="Juovsajavrit" />
		<tag k="ssr:stedsnr" v="929637" />
		<tag k="water" v="lake" />
	</node>
	<node id="-792764" lat="70.417316672" lon="23.5291999274">
		<tag k="name" v="Olderbuktvatnan" />
		<tag k="natural" v="water" />
		<tag k="ssr:stedsnr" v="906570" />
		<tag k="water" v="lake" />
	</node>
	<node id="-792758" lat="70.4653555616" lon="24.3479637664">
		<tag k="name" v="Neselvvatnet" />
		<tag k="natural" v="water" />
		<tag k="ssr:stedsnr" v="878943" />
	</node>
	<node id="-792754" lat="70.4992416724" lon="23.9800776787">
		<tag k="name" v="Ariselv" />
		<tag k="ssr:stedsnr" v="878606" />
		<tag k="waterway" v="stream" />
	</node>
	<node id="-792746" lat="70.5005861165" lon="24.6519748509">
		<tag k="name" v="Bierffetluoppal" />
		<tag k="name:se" v="Bierffetluoppal" />
		<tag k="natural" v="water" />
		<tag k="old_name:se" v="Bierfetluobbal" />
		<tag k="ssr:stedsnr" v="870956" />
		<tag k="water" v="lake" />
	</node>
	<node id="-792744" lat="70.4771916661" lon="23.90074433">
		<tag k="name" v="Langvatnet - Rávdojávri" />
		<tag k="name:no" v="Langvatnet" />
		<tag k="name:se" v="Rávdojávri" />
		<tag k="natural" v="water" />
		<tag k="old_name:se" v="Ravdujavri" />
		<tag k="ssr:stedsnr" v="870952" />
		<tag k="water" v="lake" />
	</node>
	<node id="-792743" lat="70.4919888922" lon="23.8778721062">
		<tag k="name" v="Nakkelva - Náhkkejohka" />
		<tag k="name:no" v="Nakkelva" />
		<tag k="name:se" v="Náhkkejohka" />
		<tag k="ssr:stedsnr" v="870939" />
		<tag k="waterway" v="stream" />
	</node>
	<node id="-792742" lat="70.597138894" lon="24.6496053969">
		<tag k="name" v="Gáldojogaš" />
		<tag k="name:se" v="Gáldojogaš" />
		<tag k="old_name:se" v="Galdujågaš" />
		<tag k="ssr:stedsnr" v="870898" />
		<tag k="waterway" v="stream" />
	</node>
	<node id="-792741" lat="70.5629611138" lon="24.6331970804">
		<tag k="name" v="Lavnnjetjohka" />
		<tag k="name:se" v="Lavnnjetjohka" />
		<tag k="old_name:se" v="Lavnjetjåkka" />
		<tag k="ssr:stedsnr" v="870882" />
		<tag k="waterway" v="river" />
	</node>
	<node id="-792740" lat="70.6361638956" lon="24.7087248539">
		<tag k="name" v="Birjaelva - Ristenjohka" />
		<tag k="name:no" v="Birjaelva" />
		<tag k="name:se" v="Ristenjohka" />
		<tag k="ssr:stedsnr" v="870855" />
		<tag k="waterway" v="stream" />
	</node>
	<node id="-792734" lat="70.5531888928" lon="24.1290415521">
		<tag k="name" v="Smalvatnet - Skurčojávri" />
		<tag k="name:no" v="Smalvatnet" />
		<tag k="name:se" v="Skurčojávri" />
		<tag k="natural" v="water" />
		<tag k="old_name:se" v="Skurčujavri" />
		<tag k="ssr:stedsnr" v="870795" />
		<tag k="water" v="lake" />
	</node>
	<node id="-792725" lat="70.2515916708" lon="24.2819776498">
		<tag k="name" v="Goahtemuorskáidi" />
		<tag k="name:se" v="Goahtemuorskáidi" />
		<tag k="natural" v="cape" />
		<tag k="old_name:se" v="Goattemuorskaidi" />
		<tag k="ssr:stedsnr" v="869991" />
	</node>
	<node id="-792721" lat="70.3931111143" lon="23.6421971354">
		<tag k="name" v="Dammen - Borseluoppal" />
		<tag k="name:no" v="Dammen" />
		<tag k="name:se" v="Borseluoppal" />
		<tag k="natural" v="water" />
		<tag k="old_name:se" v="Bårseluobbal" />
		<tag k="ssr:stedsnr" v="869792" />
	</node>
	<node id="-792718" lat="70.2760388885" lon="24.1824832058">
		<tag k="name" v="Sáiva" />
		<tag k="name:se" v="Sáiva" />
		<tag k="natural" v="water" />
		<tag k="old_name:se" v="Saiva" />
		<tag k="ssr:stedsnr" v="869747" />
		<tag k="water" v="lake" />
	</node>
	<node id="-792717" lat="70.2722611137" lon="24.2923276378">
		<tag k="name" v="Čáhppesjávri" />
		<tag k="name:se" v="Čáhppesjávri" />
		<tag k="natural" v="water" />
		<tag k="old_name:se" v="Čoppesjavri" />
		<tag k="ssr:stedsnr" v="869728" />
	</node>
	<node id="-792701" lat="70.5412638874" lon="24.113791559">
		<tag k="name" v="Áimajohka" />
		<tag k="name:se" v="Áimajohka" />
		<tag k="ssr:stedsnr" v="818961" />
		<tag k="waterway" v="stream" />
	</node>
	<node id="-792697" lat="70.4924916685" lon="23.9484332335">
		<tag k="name" v="Trollvasselva" />
		<tag k="ssr:stedsnr" v="818560" />
		<tag k="waterway" v="stream" />
	</node>
	<node id="-792692" lat="70.4300777845" lon="23.4706610176">
		<tag k="name" v="Guicavákkejávri" />
		<tag k="name:se" v="Guicavákkejávri" />
		<tag k="natural" v="water" />
		<tag k="old_name:se" v="Guicavaggejavri" />
		<tag k="ssr:stedsnr" v="809980" />
		<tag k="water" v="lake" />
	</node>
	<node id="-792687" lat="70.5372111181" lon="24.6517081972">
		<tag k="name" v="Lavnnjetluoppal" />
		<tag k="name:se" v="Lavnnjetluoppal" />
		<tag k="natural" v="water" />
		<tag k="old_name:se" v="Lavnjetluobbal" />
		<tag k="ssr:stedsnr" v="809941" />
	</node>
	<node id="-792686" lat="70.6036194488" lon="24.7178831931">
		<tag k="name" v="Moskkijogaš" />
		<tag k="name:se" v="Moskkijogaš" />
		<tag k="old_name:se" v="Måskijågaš" />
		<tag k="ssr:stedsnr" v="809910" />
		<tag k="waterway" v="stream" />
	</node>
	<node id="-792684" lat="70.6337083368" lon="24.8437803891">
		<tag k="name" v="Šáregašjogaš" />
		<tag k="name:se" v="Šáregašjogaš" />
		<tag k="old_name:se" v="Šaregašjågaš" />
		<tag k="ssr:stedsnr" v="809858" />
		<tag k="waterway" v="stream" />
	</node>
	<node id="-792683" lat="70.481594446" lon="24.0769832079">
		<tag k="name" v="Bierajohka" />
		<tag k="name:se" v="Bierajohka" />
		<tag k="old_name:se" v="Bierajåkka" />
		<tag k="ssr:stedsnr" v="809845" />
		<tag k="waterway" v="stream" />
	</node>
	<node id="-792682" lat="70.4880111144" lon="24.1033082212">
		<tag k="name" v="Tveelva" />
		<tag k="ssr:stedsnr" v="809837" />
		<tag k="waterway" v="stream" />
	</node>
	<node id="-792680" lat="70.2644916698" lon="23.9671221128">
		<tag k="name" v="Jovssebajávri" />
		<tag k="name:se" v="Jovssebajávri" />
		<tag k="natural" v="water" />
		<tag k="old_name:se" v="Jåvsebajavri" />
		<tag k="ssr:stedsnr" v="809819" />
	</node>
	<node id="-792674" lat="70.5283555586" lon="24.3353331992">
		<tag k="name" v="Heargejávri" />
		<tag k="name:se" v="Heargejávri" />
		<tag k="natural" v="water" />
		<tag k="old_name:se" v="Hærgejavri" />
		<tag k="ssr:stedsnr" v="809789" />
	</node>
	<node id="-792673" lat="70.3516722225" lon="23.783419348">
		<tag k="name" v="Trangvatnet" />
		<tag k="natural" v="water" />
		<tag k="ssr:stedsnr" v="809784" />
		<tag k="water" v="lake" />
	</node>
	<node id="-792670" lat="70.6125388896" lon="24.5596276292">
		<tag k="name" v="Masterelva - Sivlejohka" />
		<tag k="name:no" v="Masterelva" />
		<tag k="name:se" v="Sivlejohka" />
		<tag k="old_name:se" v="Sivlejåkka" />
		<tag k="ssr:stedsnr" v="809764" />
		<tag k="waterway" v="river" />
	</node>
	<node id="-792667" lat="70.4269750061" lon="24.0236693217">
		<tag k="alt_name:no" v="Saltvatnet ned" />
		<tag k="name" v="Nedre Saltvatnet - Nussir-Suolojávri" />
		<tag k="name:no" v="Nedre Saltvatnet" />
		<tag k="name:se" v="Nussir-Suolojávri" />
		<tag k="natural" v="water" />
		<tag k="old_name:se" v="Nussir-Suolujavri" />
		<tag k="ssr:stedsnr" v="809674" />
		<tag k="water" v="lake" />
	</node>
	<node id="-792666" lat="70.4064805578" lon="24.0848082282">
		<tag k="name" v="Skreivatnet" />
		<tag k="natural" v="water" />
		<tag k="ssr:stedsnr" v="809662" />
	</node>
	<node id="-792660" lat="70.6180055621" lon="24.6799332006">
		<tag k="name" v="Russelva - Ruoššajohka" />
		<tag k="name:no" v="Russelva" />
		<tag k="name:se" v="Ruoššajohka" />
		<tag k="old_name:se" v="Ruoššajåkka" />
		<tag k="ssr:stedsnr" v="809124" />
		<tag k="waterway" v="river" />
	</node>
	<node id="-792654" lat="70.2198277863" lon="23.8555554385">
		<tag k="name" v="Vuostájávri" />
		<tag k="name:se" v="Vuostájávri" />
		<tag k="natural" v="water" />
		<tag k="old_name:se" v="Vuostajavri" />
		<tag k="ssr:stedsnr" v="808842" />
	</node>
	<node id="-792652" lat="70.4738111183" lon="24.1707221113">
		<tag k="name" v="Fægfjordelva - Veaiggosvuonjohka" />
		<tag k="name:no" v="Fægfjordelva" />
		<tag k="name:se" v="Veaiggosvuonjohka" />
		<tag k="old_name:se" v="Væigusvuonjåkka" />
		<tag k="ssr:stedsnr" v="808835" />
		<tag k="waterway" v="river" />
	</node>
	<node id="-792650" lat="70.1432194485" lon="23.9424470968">
		<tag k="name" v="Návggastatjohka" />
		<tag k="name:se" v="Návggastatjohka" />
		<tag k="ssr:stedsnr" v="808825" />
		<tag k="waterway" v="river" />
	</node>
	<node id="-792649" lat="70.184452778" lon="23.8855748916">
		<tag k="name" v="Bierfaljávri" />
		<tag k="name:se" v="Bierfaljávri" />
		<tag k="natural" v="water" />
		<tag k="old_name:se" v="Bierfaljavri" />
		<tag k="ssr:stedsnr" v="808818" />
	</node>
	<node id="-792648" lat="70.1653472288" lon="23.9929804312">
		<tag k="name" v="Mađđejávri" />
		<tag k="name:se" v="Mađđejávri" />
		<tag k="natural" v="water" />
		<tag k="old_name:se" v="Mađđejavri" />
		<tag k="ssr:stedsnr" v="808815" />
		<tag k="water" v="lake" />
	</node>
	<node id="-792646" lat="70.3840916668" lon="23.6317832371">
		<tag k="name" v="Trollvatnet" />
		<tag k="natural" v="water" />
		<tag k="ssr:stedsnr" v="808772" />
	</node>
	<node id="-792641" lat="70.3629027859" lon="24.2863554263">
		<tag k="name" v="Dápmotjávri" />
		<tag k="name:se" v="Dápmotjávri" />
		<tag k="natural" v="water" />
		<tag k="old_name:se" v="Dabmutjavri" />
		<tag k="ssr:stedsnr" v="808677" />
	</node>
	<node id="-792639" lat="70.3275833396" lon="24.3376054204">
		<tag k="name" v="Buikojávrrit" />
		<tag k="name:se" v="Buikojávrrit" />
		<tag k="natural" v="water" />
		<tag k="old_name:se" v="Buikujavrit" />
		<tag k="ssr:stedsnr" v="808662" />
	</node>
	<node id="-792638" lat="70.3813972293" lon="24.1870470951">
		<tag k="name" v="Bajit Govdavákjávri" />
		<tag k="name:se" v="Bajit Govdavákjávri" />
		<tag k="natural" v="water" />
		<tag k="old_name:se" v="Gåvdavagjavri, bajit" />
		<tag k="ssr:stedsnr" v="808628" />
	</node>
	<node id="-792635" lat="70.3709972268" lon="24.195919328">
		<tag k="name" v="Breidalsvannan" />
		<tag k="natural" v="water" />
		<tag k="ssr:stedsnr" v="781528" />
		<tag k="water" v="lake" />
	</node>
	<node id="-792633" lat="70.2125444505" lon="23.929985997">
		<tag k="name" v="Voggeneselva - Gietkanašjohka" />
		<tag k="name:no" v="Voggeneselva" />
		<tag k="name:se" v="Gietkanašjohka" />
		<tag k="old_name:se" v="Gielkanašjåkka;Gietkanašjåkka" />
		<tag k="ssr:stedsnr" v="869882" />
		<tag k="waterway" v="river" />
	</node>
	<node id="-792631" lat="70.2155611154" lon="23.8627943369">
		<tag k="name" v="Vuostájohka" />
		<tag k="name:se" v="Vuostájohka" />
		<tag k="old_name:se" v="Vuostajåkka" />
		<tag k="ssr:stedsnr" v="869881" />
		<tag k="waterway" v="stream" />
	</node>
	<node id="-792629" lat="70.5154222245" lon="24.4733748743">
		<tag k="name" v="Ráššajávri" />
		<tag k="name:se" v="Ráššajávri" />
		<tag k="natural" v="water" />
		<tag k="old_name:se" v="Raššajavri" />
		<tag k="ssr:stedsnr" v="869863" />
	</node>
	<node id="-792626" lat="70.1897555569" lon="23.8539498792">
		<tag k="name" v="Sennalandvatna - Leavššejávrrit" />
		<tag k="name:no" v="Sennalandvatna" />
		<tag k="name:se" v="Leavššejávrrit" />
		<tag k="natural" v="water" />
		<tag k="old_name:se" v="Lævšejavrit" />
		<tag k="ssr:stedsnr" v="869842" />
		<tag k="water" v="lake" />
	</node>
	<node id="-792623" lat="70.6339944453" lon="24.3841137544">
		<tag k="name" v="Njeaiddánjávri" />
		<tag k="name:se" v="Njeaiddánjávri" />
		<tag k="natural" v="water" />
		<tag k="old_name:se" v="Njæidanjavri" />
		<tag k="ssr:stedsnr" v="869805" />
		<tag k="water" v="lake" />
	</node>
	<node id="-792622" lat="70.6437555582" lon="24.5296470941">
		<tag k="name" v="Šloavkajávri" />
		<tag k="name:se" v="Šloavkajávri" />
		<tag k="natural" v="water" />
		<tag k="old_name:se" v="Šloavkajavri" />
		<tag k="ssr:stedsnr" v="869804" />
	</node>
	<node id="-792621" lat="70.360738894" lon="23.880430451">
		<tag k="name" v="Čoalbmejávri" />
		<tag k="name:se" v="Čoalbmejávri" />
		<tag k="natural" v="water" />
		<tag k="old_name:se" v="Čoalbmejavri" />
		<tag k="ssr:stedsnr" v="869796" />
	</node>
	<node id="-792620" lat="70.3772472271" lon="23.7237582394">
		<tag k="alt_name:no" v="Gruvevatn" />
		<tag k="name" v="Gruvvatnet - Bajit Borsejávri" />
		<tag k="name:no" v="Gruvvatnet" />
		<tag k="name:se" v="Bajit Borsejávri" />
		<tag k="natural" v="water" />
		<tag k="old_name:se" v="Bårsejavri, bajit" />
		<tag k="ssr:stedsnr" v="869797" />
		<tag k="water" v="lake" />
	</node>
	<node id="-792611" lat="70.3964166713" lon="24.3824137496">
		<tag k="name" v="Virošjávri" />
		<tag k="name:se" v="Virošjávri" />
		<tag k="natural" v="water" />
		<tag k="ssr:stedsnr" v="757870" />
	</node>
	<node id="-792601" lat="70.2729944499" lon="23.7748137911">
		<tag k="name" v="Fjellvatnan" />
		<tag k="natural" v="water" />
		<tag k="ssr:stedsnr" v="753967" />
		<tag k="water" v="lake" />
	</node>
	<node id="-792596" lat="70.431713891" lon="23.8440582224">
		<tag k="name" v="Olebukta" />
		<tag k="natural" v="bay" />
		<tag k="ssr:stedsnr" v="748993" />
	</node>
	<node id="-792595" lat="70.429169447" lon="23.4447665893">
		<tag k="name" v="Langvatnet - Vuolit Guhkesjávri" />
		<tag k="name:no" v="Langvatnet" />
		<tag k="name:se" v="Vuolit Guhkesjávri" />
		<tag k="natural" v="water" />
		<tag k="old_name:se" v="Gukkesjavri, vuolit" />
		<tag k="ssr:stedsnr" v="748981" />
		<tag k="water" v="lake" />
	</node>
	<node id="-792592" lat="70.4888805615" lon="23.5626026897">
		<tag k="name" v="Reinvatnet - Boazojávri" />
		<tag k="name:no" v="Reinvatnet" />
		<tag k="name:se" v="Boazojávri" />
		<tag k="natural" v="water" />
		<tag k="old_name:se" v="Boazujavri" />
		<tag k="ssr:stedsnr" v="748962" />
	</node>
	<node id="-792591" lat="70.4632666665" lon="23.5772332524">
		<tag k="name" v="Russelvvatnet - Bákteleakjávri" />
		<tag k="name:no" v="Russelvvatnet" />
		<tag k="name:se" v="Bákteleakjávri" />
		<tag k="natural" v="water" />
		<tag k="old_name:se" v="Baktelækjavri" />
		<tag k="ssr:stedsnr" v="748961" />
		<tag k="water" v="lake" />
	</node>
	<node id="-792587" lat="70.5341166703" lon="24.8020776268">
		<tag k="name" v="Miessejohka" />
		<tag k="name:se" v="Miessejohka" />
		<tag k="old_name:se" v="Miessejåkka" />
		<tag k="ssr:stedsnr" v="748943" />
		<tag k="waterway" v="river" />
	</node>
	<node id="-792583" lat="70.5914444478" lon="24.6743553966">
		<tag k="name" v="Gáldojogašjávri" />
		<tag k="name:se" v="Gáldojogašjávri" />
		<tag k="natural" v="water" />
		<tag k="old_name:se" v="Galdujågašjavri" />
		<tag k="ssr:stedsnr" v="748895" />
	</node>
	<node id="-792580" lat="70.5587527785" lon="24.4174943043">
		<tag k="name" v="Boazojávri" />
		<tag k="name:se" v="Boazojávri" />
		<tag k="natural" v="water" />
		<tag k="old_name:se" v="Boazujavri" />
		<tag k="ssr:stedsnr" v="748807" />
	</node>
</osm>
