<?xml version="1.0" encoding="UTF-8"?>
<osm generator="osmapis" version="0.6">
	<node id="-792584" lat="70.6107333365" lon="24.6517609734">
		<tag k="amenity" v="place_of_worship" />
		<tag k="denomination" v="lutheran" />
		<tag k="name" v="Kokelv kirke" />
		<tag k="religion" v="christian" />
		<tag k="ssr:stedsnr" v="748911" />
	</node>
	<node id="-792421" lat="70.2685416714" lon="24.092266545">
		<tag k="amenity" v="place_of_worship" />
		<tag k="denomination" v="lutheran" />
		<tag k="loc_name:no" v="Sennalandet" />
		<tag k="name" v="Duottarsion" />
		<tag k="name:se" v="Duottarsion" />
		<tag k="old_name:se" v="Duoddarsion;Duoddar-sion" />
		<tag k="religion" v="christian" />
		<tag k="ssr:stedsnr" v="626726" />
	</node>
	<node id="-791964" lat="70.5017722248" lon="23.9773109949">
		<tag k="amenity" v="place_of_worship" />
		<tag k="denomination" v="lutheran" />
		<tag k="name" v="Kvalsund kirke" />
		<tag k="religion" v="christian" />
		<tag k="ssr:stedsnr" v="93761" />
	</node>
	<node id="-792699" lat="70.4477861123" lon="24.3884693167">
		<tag k="amenity" v="community_centre" />
		<tag k="name" v="Ungdomssentret" />
		<tag k="ssr:stedsnr" v="818644" />
	</node>
</osm>
