<?xml version="1.0" encoding="UTF-8"?>
<osm generator="osmapis" version="0.6">
	<node id="-793886" lat="70.2248166685" lon="24.0270665439">
		<tag k="name" v="Ribatjeakkit" />
		<tag k="name:se" v="Ribatjeakkit" />
		<tag k="natural" v="wetland" />
		<tag k="old_name:se" v="Ribatjæggit" />
		<tag k="ssr:stedsnr" v="626999" />
	</node>
	<node id="-793949" lat="70.2026583367" lon="24.0783165499">
		<tag k="name" v="Suoidneleakši" />
		<tag k="name:se" v="Suoidneleakši" />
		<tag k="natural" v="wetland" />
		<tag k="old_name:se" v="Suoidnelækši;Suoidnelæksi" />
		<tag k="ssr:stedsnr" v="687935" />
	</node>
	<node id="-794201" lat="70.4416833327" lon="24.3840637572">
		<tag k="name" v="Sandmelen" />
		<tag k="place" v="locality" />
		<tag k="ssr:stedsnr" v="878907" />
	</node>
	<node id="-793684" lat="70.5359000079" lon="24.1697998835">
		<tag k="name" v="Stormyra" />
		<tag k="natural" v="wetland" />
		<tag k="ssr:stedsnr" v="453963" />
	</node>
	<node id="-793590" lat="70.1671666676" lon="24.088977646">
		<tag k="name" v="Bastinleakši" />
		<tag k="name:se" v="Bastinleakši" />
		<tag k="natural" v="wetland" />
		<tag k="old_name:se" v="Bastinlækši" />
		<tag k="ssr:stedsnr" v="262965" />
	</node>
	<node id="-793966" lat="70.6039000072" lon="24.6416109594">
		<tag k="name" v="Stuorrajeaggi" />
		<tag k="name:se" v="Stuorrajeaggi" />
		<tag k="natural" v="wetland" />
		<tag k="old_name:se" v="Stuorrajæggi" />
		<tag k="ssr:stedsnr" v="688895" />
	</node>
	<node id="-793492" lat="70.5953611158" lon="24.7482165131">
		<tag k="name" v="Ruossavuovdi" />
		<tag k="name:se" v="Ruossavuovdi" />
		<tag k="place" v="locality" />
		<tag k="ssr:stedsnr" v="154247" />
	</node>
	<node id="-793198" lat="70.6247083371" lon="24.7550081831">
		<tag k="name" v="Bovnnahatjeakkit" />
		<tag k="name:se" v="Bovnnahatjeakkit" />
		<tag k="natural" v="wetland" />
		<tag k="old_name:se" v="Båvnahatjæggit" />
		<tag k="ssr:stedsnr" v="384828" />
	</node>
	<node id="-793682" lat="70.4489138969" lon="24.3529776425">
		<tag k="name" v="Forbygninga" />
		<tag k="place" v="locality" />
		<tag k="ssr:stedsnr" v="453924" />
	</node>
	<node id="-793839" lat="70.4822083393" lon="24.3066165341">
		<tag k="name" v="Lillejorda" />
		<tag k="place" v="locality" />
		<tag k="ssr:stedsnr" v="574961" />
	</node>
	<node id="-793166" lat="70.4079250061" lon="23.7220860229">
		<tag k="landuse" v="quarry" />
		<tag k="name" v="Bakkesgruvene" />
		<tag k="ssr:stedsnr" v="383764" />
	</node>
	<node id="-793458" lat="70.6147055615" lon="24.7398748604">
		<tag k="name" v="Stormyra" />
		<tag k="natural" v="wetland" />
		<tag k="ssr:stedsnr" v="141886" />
	</node>
	<node id="-794058" lat="70.5421055585" lon="24.1134637617">
		<tag k="name" v="Hestemyra" />
		<tag k="natural" v="wetland" />
		<tag k="ssr:stedsnr" v="757979" />
	</node>
	<node id="-793833" lat="70.414950001" lon="23.5678804711">
		<tag k="name" v="Russurda" />
		<tag k="natural" v="scree" />
		<tag k="ssr:stedsnr" v="566982" />
	</node>
	<node id="-793800" lat="70.5094194461" lon="23.9145998843">
		<tag k="name" v="Stalloen - Stállu" />
		<tag k="name:no" v="Stalloen" />
		<tag k="name:se" v="Stállu" />
		<tag k="natural" v="stone" />
		<tag k="ssr:stedsnr" v="566172" />
	</node>
	<node id="-793487" lat="70.504205561" lon="24.0389304527">
		<tag k="name" v="Langmyra" />
		<tag k="natural" v="wetland" />
		<tag k="ssr:stedsnr" v="150994" />
	</node>
	<node id="-793798" lat="70.1523000026" lon="24.1158220871">
		<tag k="name" v="Bastinvuopmi" />
		<tag k="name:se" v="Bastinvuopmi" />
		<tag k="old_name:se" v="Bastinvuobmi" />
		<tag k="place" v="locality" />
		<tag k="ssr:stedsnr" v="565966" />
	</node>
	<node id="-793668" lat="70.6082027782" lon="24.6746387324">
		<tag k="name" v="Miessejeaggi" />
		<tag k="name:se" v="Miessejeaggi" />
		<tag k="natural" v="wetland" />
		<tag k="old_name:se" v="Miessejæggi" />
		<tag k="ssr:stedsnr" v="445911" />
	</node>
	<node id="-794179" lat="70.5792527849" lon="24.6128637594">
		<tag k="name" v="Stuorajeaggi" />
		<tag k="name:se" v="Stuorajeaggi" />
		<tag k="natural" v="wetland" />
		<tag k="old_name:se" v="Stuorajæggi" />
		<tag k="ssr:stedsnr" v="870800" />
	</node>
	<node id="-793954" lat="70.2444138926" lon="24.2173054231">
		<tag k="name" v="Goahtemuorleakši" />
		<tag k="name:se" v="Goahtemuorleakši" />
		<tag k="natural" v="wetland" />
		<tag k="old_name:se" v="Goattemuorlækši" />
		<tag k="ssr:stedsnr" v="687992" />
	</node>
	<node id="-794273" lat="70.6515527853" lon="24.5311998544">
		<tag k="name" v="Ura" />
		<tag k="natural" v="scree" />
		<tag k="ssr:stedsnr" v="958750" />
	</node>
</osm>
