<?xml version="1.0" encoding="UTF-8"?>
<osm generator="osmapis" version="0.6">
	<node id="-792576" lat="70.5026916714" lon="24.0088554399">
		<tag k="fixme" v="consider natural=peak for the most distinct mountains in the district" />
		<tag k="name" v="Russenesfjellet" />
		<tag k="natural" v="hill" />
		<tag k="place" v="locality" />
		<tag k="ssr:stedsnr" v="211544" />
	</node>
	<node id="-792571" lat="70.428486116" lon="23.8077887905">
		<tag k="name" v="Finnvasshøgda" />
		<tag k="natural" v="hill" />
		<tag k="place" v="locality" />
		<tag k="ssr:stedsnr" v="202997" />
	</node>
	<node id="-792569" lat="70.4048722292" lon="23.6372943555">
		<tag k="name" v="Kvenklubben - Gielddavárri" />
		<tag k="name:no" v="Kvenklubben" />
		<tag k="name:se" v="Gielddavárri" />
		<tag k="natural" v="hill" />
		<tag k="old_name:se" v="Gieldavarri" />
		<tag k="place" v="locality" />
		<tag k="ssr:stedsnr" v="202990" />
	</node>
	<node id="-792566" lat="70.4657444458" lon="23.8887526586">
		<tag k="alt_name:no" v="Ørnhaugen" />
		<tag k="fixme" v="consider natural=peak for the most distinct mountains in the district" />
		<tag k="name" v="Ørnetinden - Goaskinčohkka" />
		<tag k="name:no" v="Ørnetinden" />
		<tag k="name:se" v="Goaskinčohkka" />
		<tag k="natural" v="hill" />
		<tag k="old_name:se" v="Goaskinčåkka" />
		<tag k="place" v="locality" />
		<tag k="ssr:stedsnr" v="202967" />
	</node>
	<node id="-792556" lat="70.5970999994" lon="24.5612082001">
		<tag k="fixme" v="consider natural=peak for the most distinct mountains in the district" />
		<tag k="name" v="Badjevárri" />
		<tag k="name:se" v="Badjevárri" />
		<tag k="natural" v="hill" />
		<tag k="old_name:se" v="Baddjevarri" />
		<tag k="place" v="locality" />
		<tag k="ssr:stedsnr" v="202829" />
	</node>
	<node id="-792553" lat="70.6205305578" lon="24.0045804558">
		<tag k="alt_name" v="Blåhukerten, l" />
		<tag k="fixme" v="consider natural=peak for the most distinct mountains in the district" />
		<tag k="name" v="Lille Blåhukerten" />
		<tag k="natural" v="hill" />
		<tag k="place" v="locality" />
		<tag k="ssr:stedsnr" v="202795" />
	</node>
	<node id="-792552" lat="70.3961027831" lon="24.0475971073">
		<tag k="fixme" v="consider natural=peak for the most distinct mountains in the district" />
		<tag k="name" v="Magerfjellet - Sahárášša" />
		<tag k="name:no" v="Magerfjellet" />
		<tag k="name:se" v="Sahárášša" />
		<tag k="natural" v="hill" />
		<tag k="old_name:se" v="Saharašša" />
		<tag k="place" v="locality" />
		<tag k="ssr:stedsnr" v="202794" />
	</node>
	<node id="-792551" lat="70.3779638949" lon="23.6187582482">
		<tag k="fixme" v="consider natural=peak for the most distinct mountains in the district" />
		<tag k="name" v="Sarabytinden - Jiepmaluovttoaivi" />
		<tag k="name:no" v="Sarabytinden" />
		<tag k="name:se" v="Jiepmaluovttoaivi" />
		<tag k="natural" v="hill" />
		<tag k="old_name:se" v="Jiebmaluovtoaivi" />
		<tag k="place" v="locality" />
		<tag k="ssr:stedsnr" v="202791" />
	</node>
	<node id="-792549" lat="70.6094305581" lon="24.1299776575">
		<tag k="name" v="Jernberget" />
		<tag k="natural" v="hill" />
		<tag k="place" v="locality" />
		<tag k="ssr:stedsnr" v="202776" />
	</node>
	<node id="-792547" lat="70.404650004" lon="23.8102887828">
		<tag k="name" v="Čiekŋalisvággi" />
		<tag k="name:se" v="Čiekŋalisvággi" />
		<tag k="natural" v="valley" />
		<tag k="old_name:se" v="Čiegnalisvaggi" />
		<tag k="place" v="locality" />
		<tag k="ssr:stedsnr" v="202772" />
	</node>
	<node id="-792546" lat="70.5996472285" lon="24.0267304562">
		<tag k="fixme" v="consider natural=peak for the most distinct mountains in the district" />
		<tag k="name" v="Klakkemea" />
		<tag k="natural" v="hill" />
		<tag k="place" v="locality" />
		<tag k="ssr:stedsnr" v="202770" />
	</node>
	<node id="-792545" lat="70.4048000063" lon="23.7228248984">
		<tag k="fixme" v="consider natural=peak for the most distinct mountains in the district" />
		<tag k="name" v="Bakkis - Ivttášvárri" />
		<tag k="name:no" v="Bakkis" />
		<tag k="name:se" v="Ivttášvárri" />
		<tag k="natural" v="hill" />
		<tag k="old_name:se" v="Ivtašvarri" />
		<tag k="place" v="locality" />
		<tag k="ssr:stedsnr" v="202768" />
	</node>
	<node id="-792543" lat="70.3980611116" lon="23.4562110358">
		<tag k="fixme" v="consider natural=peak for the most distinct mountains in the district" />
		<tag k="name" v="Leaibevuongáisá" />
		<tag k="name:se" v="Leaibevuongáisá" />
		<tag k="natural" v="hill" />
		<tag k="old_name:se" v="Læibevuongaisa" />
		<tag k="place" v="locality" />
		<tag k="ssr:stedsnr" v="202764" />
	</node>
	<node id="-792542" lat="70.4420805566" lon="24.6587692892">
		<tag k="name" v="Gieddeboldni" />
		<tag k="name:se" v="Gieddeboldni" />
		<tag k="natural" v="hill" />
		<tag k="old_name:se" v="Gieddebåldni" />
		<tag k="place" v="locality" />
		<tag k="ssr:stedsnr" v="202742" />
	</node>
	<node id="-792540" lat="70.5259583348" lon="23.7532610164">
		<tag k="fixme" v="consider natural=peak for the most distinct mountains in the district" />
		<tag k="name" v="Kargenesfjellet - Jiernákvárri" />
		<tag k="name:no" v="Kargenesfjellet" />
		<tag k="name:se" v="Jiernákvárri" />
		<tag k="natural" v="hill" />
		<tag k="old_name:se" v="Jiernakvarri" />
		<tag k="place" v="locality" />
		<tag k="ssr:stedsnr" v="202199" />
	</node>
	<node id="-792538" lat="70.5559944492" lon="23.7611332501">
		<tag k="fixme" v="consider natural=peak for the most distinct mountains in the district" />
		<tag k="name" v="Gieldaluokvárit" />
		<tag k="name:se" v="Gieldaluokvárit" />
		<tag k="natural" v="hill" />
		<tag k="old_name:se" v="Gieldaluokvarit" />
		<tag k="place" v="locality" />
		<tag k="ssr:stedsnr" v="202195" />
	</node>
	<node id="-792534" lat="70.5145944439" lon="23.9277443465">
		<tag k="name" v="Stallogargoflogan - Goaŋki" />
		<tag k="name:no" v="Stallogargoflogan" />
		<tag k="name:se" v="Goaŋki" />
		<tag k="natural" v="cliff" />
		<tag k="ssr:stedsnr" v="202204" />
	</node>
	<node id="-792533" lat="70.2796638926" lon="24.0624054411">
		<tag k="name" v="Breidalen" />
		<tag k="natural" v="valley" />
		<tag k="place" v="locality" />
		<tag k="ssr:stedsnr" v="201700" />
	</node>
	<node id="-792530" lat="70.3841555553" lon="24.3784443158">
		<tag k="fixme" v="consider natural=peak for the most distinct mountains in the district" />
		<tag k="name" v="Viroš" />
		<tag k="name:se" v="Viroš" />
		<tag k="natural" v="hill" />
		<tag k="old_name:se" v="Viruš" />
		<tag k="place" v="locality" />
		<tag k="ssr:stedsnr" v="201596" />
	</node>
	<node id="-792528" lat="70.3436638968" lon="24.2099332088">
		<tag k="name" v="Fanasvággi" />
		<tag k="name:se" v="Fanasvággi" />
		<tag k="natural" v="valley" />
		<tag k="old_name:se" v="Fanasvaggi" />
		<tag k="place" v="locality" />
		<tag k="ssr:stedsnr" v="201652" />
	</node>
	<node id="-792523" lat="70.4172027859" lon="24.4106915337">
		<tag k="name" v="Riehpovuonmohkki" />
		<tag k="name:se" v="Riehpovuonmohkki" />
		<tag k="natural" v="plateau" />
		<tag k="old_name:se" v="Rieppuvuonmåkki" />
		<tag k="ssr:stedsnr" v="201608" />
	</node>
	<node id="-792522" lat="70.4149527831" lon="24.3344193177">
		<tag k="fixme" v="consider natural=peak for the most distinct mountains in the district" />
		<tag k="name" v="Rødfjellet - Ruksesbávtterášša" />
		<tag k="name:no" v="Rødfjellet" />
		<tag k="name:se" v="Ruksesbávtterášša" />
		<tag k="natural" v="hill" />
		<tag k="old_name:se" v="Ruksesbavterašša" />
		<tag k="place" v="locality" />
		<tag k="ssr:stedsnr" v="201606" />
	</node>
	<node id="-792518" lat="70.4319027837" lon="23.5617221349">
		<tag k="fixme" v="consider natural=peak for the most distinct mountains in the district" />
		<tag k="name" v="Trollsteinfjell" />
		<tag k="natural" v="hill" />
		<tag k="place" v="locality" />
		<tag k="ssr:stedsnr" v="154233" />
	</node>
	<node id="-792517" lat="70.6170111137" lon="24.5965026448">
		<tag k="name" v="Muorranjunni" />
		<tag k="name:se" v="Muorranjunni" />
		<tag k="natural" v="hill" />
		<tag k="place" v="locality" />
		<tag k="ssr:stedsnr" v="153228" />
	</node>
	<node id="-792516" lat="70.3999527774" lon="23.6714026745">
		<tag k="name" v="Grønnlia" />
		<tag k="natural" v="slope" />
		<tag k="place" v="locality" />
		<tag k="ssr:stedsnr" v="153173" />
	</node>
	<node id="-792511" lat="70.5404694456" lon="24.1312971078">
		<tag k="name" v="Kokkeberget" />
		<tag k="natural" v="hill" />
		<tag k="place" v="locality" />
		<tag k="ssr:stedsnr" v="150957" />
	</node>
	<node id="-792509" lat="70.3994472227" lon="23.6286554693">
		<tag k="name" v="Todalen" />
		<tag k="natural" v="valley" />
		<tag k="place" v="locality" />
		<tag k="ssr:stedsnr" v="150908" />
	</node>
	<node id="-792508" lat="70.4968000028" lon="24.2753054305">
		<tag k="name" v="Vággi" />
		<tag k="name:se" v="Vággi" />
		<tag k="natural" v="valley" />
		<tag k="place" v="locality" />
		<tag k="ssr:stedsnr" v="150872" />
	</node>
	<node id="-792506" lat="70.4134361119" lon="24.5135526225">
		<tag k="name" v="Skaidilia" />
		<tag k="natural" v="slope" />
		<tag k="place" v="locality" />
		<tag k="ssr:stedsnr" v="150602" />
	</node>
	<node id="-792501" lat="70.4152916679" lon="23.5019693491">
		<tag k="fixme" v="consider natural=peak for the most distinct mountains in the district" />
		<tag k="name" v="Gressnesfjellet - Rássenjárvárri" />
		<tag k="name:no" v="Gressnesfjellet" />
		<tag k="name:se" v="Rássenjárvárri" />
		<tag k="natural" v="hill" />
		<tag k="old_name:se" v="Rassenjarvarri" />
		<tag k="place" v="locality" />
		<tag k="ssr:stedsnr" v="141984" />
	</node>
	<node id="-792500" lat="70.4405138916" lon="23.5266582549">
		<tag k="fixme" v="consider natural=peak for the most distinct mountains in the district" />
		<tag k="name" v="Duollorášša" />
		<tag k="name:se" v="Duollorášša" />
		<tag k="natural" v="hill" />
		<tag k="old_name:se" v="Duollurašša;Duollarášša" />
		<tag k="place" v="locality" />
		<tag k="ssr:stedsnr" v="141979" />
	</node>
	<node id="-792492" lat="70.6200583373" lon="24.2681526508">
		<tag k="fixme" v="consider natural=peak for the most distinct mountains in the district" />
		<tag k="name" v="Sommarviktind" />
		<tag k="natural" v="hill" />
		<tag k="place" v="locality" />
		<tag k="ssr:stedsnr" v="141742" />
	</node>
	<node id="-792490" lat="70.588436114" lon="24.090624883">
		<tag k="fixme" v="consider natural=peak for the most distinct mountains in the district" />
		<tag k="name" v="Holmfjellet" />
		<tag k="natural" v="hill" />
		<tag k="place" v="locality" />
		<tag k="ssr:stedsnr" v="141726" />
	</node>
	<node id="-792484" lat="70.5858416673" lon="24.8404692858">
		<tag k="fixme" v="consider natural=peak for the most distinct mountains in the district" />
		<tag k="name" v="Hárjedievvá" />
		<tag k="name:se" v="Hárjedievvá" />
		<tag k="natural" v="hill" />
		<tag k="old_name:se" v="Harjedievva" />
		<tag k="place" v="locality" />
		<tag k="ssr:stedsnr" v="141875" />
	</node>
	<node id="-792483" lat="70.5905722284" lon="24.2186748936">
		<tag k="name" v="Fálesluohhoaŋka" />
		<tag k="name:se" v="Fálesluohhoaŋka" />
		<tag k="natural" v="hill" />
		<tag k="old_name:se" v="Falesluokhoaŋka" />
		<tag k="place" v="locality" />
		<tag k="ssr:stedsnr" v="141800" />
	</node>
	<node id="-792482" lat="70.5975694504" lon="24.3217915401">
		<tag k="fixme" v="consider natural=peak for the most distinct mountains in the district" />
		<tag k="name" v="Rievdnjačeabet" />
		<tag k="name:se" v="Rievdnjačeabet" />
		<tag k="natural" v="hill" />
		<tag k="old_name:se" v="Rievdnjačæbet" />
		<tag k="place" v="locality" />
		<tag k="ssr:stedsnr" v="141799" />
	</node>
	<node id="-792481" lat="70.585638896" lon="24.4498637648">
		<tag k="fixme" v="consider natural=peak for the most distinct mountains in the district" />
		<tag k="name" v="Doggoaivi" />
		<tag k="name:se" v="Doggoaivi" />
		<tag k="natural" v="hill" />
		<tag k="old_name:se" v="Dåggoaivi" />
		<tag k="place" v="locality" />
		<tag k="ssr:stedsnr" v="141791" />
	</node>
	<node id="-792479" lat="70.5549444461" lon="24.1396359827">
		<tag k="fixme" v="consider natural=peak for the most distinct mountains in the district" />
		<tag k="name" v="Skurčočohkka" />
		<tag k="name:se" v="Skurčočohkka" />
		<tag k="natural" v="hill" />
		<tag k="place" v="locality" />
		<tag k="ssr:stedsnr" v="141777" />
	</node>
	<node id="-792471" lat="70.518119444" lon="23.9014693326">
		<tag k="fixme" v="consider natural=peak for the most distinct mountains in the district" />
		<tag k="name" v="Nuorevárri" />
		<tag k="name:se" v="Nuorevárri" />
		<tag k="natural" v="hill" />
		<tag k="place" v="locality" />
		<tag k="ssr:stedsnr" v="141210" />
	</node>
	<node id="-792466" lat="70.6425833375" lon="24.4599221039">
		<tag k="fixme" v="consider natural=peak for the most distinct mountains in the district" />
		<tag k="name" v="Čáhppesbákti" />
		<tag k="name:se" v="Čáhppesbákti" />
		<tag k="natural" v="hill" />
		<tag k="old_name:se" v="Čappesbakti" />
		<tag k="place" v="locality" />
		<tag k="ssr:stedsnr" v="141021" />
	</node>
	<node id="-792459" lat="70.185072226" lon="24.1511554219">
		<tag k="fixme" v="consider natural=peak for the most distinct mountains in the district" />
		<tag k="name" v="Vuovdečohkka" />
		<tag k="name:se" v="Vuovdečohkka" />
		<tag k="natural" v="hill" />
		<tag k="old_name:se" v="Vuovdečåkka" />
		<tag k="place" v="locality" />
		<tag k="ssr:stedsnr" v="140955" />
	</node>
	<node id="-792455" lat="70.2436083383" lon="23.8503498854">
		<tag k="fixme" v="consider natural=peak for the most distinct mountains in the district" />
		<tag k="name" v="Krattfjellet - Buoiddesguolčohkka" />
		<tag k="name:no" v="Krattfjellet" />
		<tag k="name:se" v="Buoiddesguolčohkka" />
		<tag k="natural" v="hill" />
		<tag k="old_name:se" v="Buoidesguolčåkka" />
		<tag k="place" v="locality" />
		<tag k="ssr:stedsnr" v="140766" />
	</node>
	<node id="-792441" lat="70.3621750004" lon="24.0233110013">
		<tag k="fixme" v="consider natural=peak for the most distinct mountains in the district" />
		<tag k="name" v="Lágurášša" />
		<tag k="name:se" v="Lágurášša" />
		<tag k="natural" v="hill" />
		<tag k="old_name:se" v="Lagorašša" />
		<tag k="place" v="locality" />
		<tag k="ssr:stedsnr" v="140618" />
	</node>
	<node id="-792433" lat="70.6326388943" lon="24.7313442898">
		<tag k="fixme" v="consider natural=peak for the most distinct mountains in the district" />
		<tag k="name" v="Jalgesvárváráš" />
		<tag k="name:se" v="Jalgesvárváráš" />
		<tag k="natural" v="hill" />
		<tag k="place" v="locality" />
		<tag k="ssr:stedsnr" v="93160" />
	</node>
	<node id="-792432" lat="70.5801000066" lon="24.6772748452">
		<tag k="name" v="Guvčavággi" />
		<tag k="name:se" v="Guvčavággi" />
		<tag k="natural" v="valley" />
		<tag k="place" v="locality" />
		<tag k="ssr:stedsnr" v="93118" />
	</node>
	<node id="-792431" lat="70.4979305564" lon="24.0349804553">
		<tag k="name" v="Multebærbakken" />
		<tag k="natural" v="slope" />
		<tag k="place" v="locality" />
		<tag k="ssr:stedsnr" v="89999" />
	</node>
	<node id="-792429" lat="70.4477222254" lon="23.8825693328">
		<tag k="name" v="Suppatrauet" />
		<tag k="natural" v="valley" />
		<tag k="place" v="locality" />
		<tag k="ssr:stedsnr" v="89986" />
	</node>
	<node id="-792428" lat="70.4810444451" lon="23.9363887792">
		<tag k="name" v="Rásseriidi" />
		<tag k="name:se" v="Rásseriidi" />
		<tag k="natural" v="hill" />
		<tag k="place" v="locality" />
		<tag k="ssr:stedsnr" v="89979" />
	</node>
	<node id="-792427" lat="70.5376666721" lon="24.1235804368">
		<tag k="name" v="Adamshaugen" />
		<tag k="natural" v="hill" />
		<tag k="place" v="locality" />
		<tag k="ssr:stedsnr" v="89972" />
	</node>
	<node id="-792426" lat="70.3304166689" lon="24.3332748642">
		<tag k="fixme" v="consider natural=peak for the most distinct mountains in the district" />
		<tag k="name" v="Ráhpesvárri" />
		<tag k="name:se" v="Ráhpesvárri" />
		<tag k="natural" v="hill" />
		<tag k="place" v="locality" />
		<tag k="ssr:stedsnr" v="89960" />
	</node>
	<node id="-792425" lat="70.3910805598" lon="23.6004499151">
		<tag k="name" v="Norddalen" />
		<tag k="natural" v="valley" />
		<tag k="place" v="locality" />
		<tag k="ssr:stedsnr" v="89929" />
	</node>
	<node id="-792424" lat="70.3846805553" lon="23.6273249022">
		<tag k="name" v="Sørdalen" />
		<tag k="natural" v="valley" />
		<tag k="place" v="locality" />
		<tag k="ssr:stedsnr" v="89930" />
	</node>
	<node id="-792420" lat="70.4088805616" lon="24.4959526375">
		<tag k="name" v="Nyholt" />
		<tag k="natural" v="slope" />
		<tag k="place" v="locality" />
		<tag k="ssr:stedsnr" v="89640" />
	</node>
	<node id="-792418" lat="70.5631902927" lon="23.6942750007">
		<tag k="name" v="Fløystad" />
		<tag k="place" v="locality" />
		<tag k="ssr:stedsnr" v="89614" />
	</node>
	<node id="-792406" lat="70.6120361147" lon="24.9168442797">
		<tag k="fixme" v="consider natural=peak for the most distinct mountains in the district" />
		<tag k="name" v="Gárdevárnjunni" />
		<tag k="name:se" v="Gárdevárnjunni" />
		<tag k="natural" v="hill" />
		<tag k="old_name:se" v="Gardevarnjunni" />
		<tag k="place" v="locality" />
		<tag k="ssr:stedsnr" v="81918" />
	</node>
	<node id="-792404" lat="70.3123722268" lon="23.8754498945">
		<tag k="fixme" v="consider natural=peak for the most distinct mountains in the district" />
		<tag k="name" v="Suhpodanhárji" />
		<tag k="name:se" v="Suhpodanhárji" />
		<tag k="natural" v="hill" />
		<tag k="old_name:se" v="Suppudanharji" />
		<tag k="place" v="locality" />
		<tag k="ssr:stedsnr" v="81793" />
	</node>
	<node id="-792401" lat="70.6288833389" lon="24.3639387559">
		<tag k="fixme" v="consider natural=peak for the most distinct mountains in the district" />
		<tag k="name" v="Háldečohkka" />
		<tag k="name:se" v="Háldečohkka" />
		<tag k="natural" v="hill" />
		<tag k="old_name:se" v="Haldečåkka" />
		<tag k="place" v="locality" />
		<tag k="ssr:stedsnr" v="81773" />
	</node>
	<node id="-792398" lat="70.6079666701" lon="24.1155915603">
		<tag k="loc_name:se" v="Roahkonášša" />
		<tag k="name" v="Grovasshaugen" />
		<tag k="name:no" v="Grovasshaugen" />
		<tag k="natural" v="hill" />
		<tag k="old_name:se" v="Roakkunašsa" />
		<tag k="place" v="locality" />
		<tag k="ssr:stedsnr" v="81765" />
	</node>
	<node id="-792397" lat="70.6189277865" lon="24.58831652">
		<tag k="name" v="Muorahatnjunni" />
		<tag k="name:se" v="Muorahatnjunni" />
		<tag k="natural" v="hill" />
		<tag k="place" v="locality" />
		<tag k="ssr:stedsnr" v="81761" />
	</node>
	<node id="-792396" lat="70.586941673" lon="24.1714915657">
		<tag k="alt_name" v="Lilleklubben" />
		<tag k="name" v="Bjørneklubben" />
		<tag k="natural" v="hill" />
		<tag k="place" v="locality" />
		<tag k="ssr:stedsnr" v="81759" />
	</node>
	<node id="-792395" lat="70.4877361171" lon="24.0489193229">
		<tag k="fixme" v="consider natural=peak for the most distinct mountains in the district" />
		<tag k="name" v="Barfjellet" />
		<tag k="natural" v="hill" />
		<tag k="place" v="locality" />
		<tag k="ssr:stedsnr" v="81840" />
	</node>
	<node id="-792393" lat="70.5839388884" lon="24.2706137685">
		<tag k="name" v="Kvalvikdalen - Fálesvággi" />
		<tag k="name:no" v="Kvalvikdalen" />
		<tag k="name:se" v="Fálesvággi" />
		<tag k="natural" v="valley" />
		<tag k="old_name:se" v="Falesvaggi" />
		<tag k="place" v="locality" />
		<tag k="ssr:stedsnr" v="81821" />
	</node>
	<node id="-792390" lat="70.560761116" lon="24.5221331865">
		<tag k="fixme" v="consider natural=peak for the most distinct mountains in the district" />
		<tag k="name" v="Látnjavárri" />
		<tag k="name:se" v="Látnjavárri" />
		<tag k="natural" v="hill" />
		<tag k="old_name:se" v="Ladnjavarri" />
		<tag k="place" v="locality" />
		<tag k="ssr:stedsnr" v="81804" />
	</node>
	<node id="-792386" lat="70.5636694438" lon="23.7392165628">
		<tag k="name" v="Prestesalen" />
		<tag k="natural" v="hill" />
		<tag k="place" v="locality" />
		<tag k="ssr:stedsnr" v="81216" />
	</node>
	<node id="-792373" lat="70.5043861177" lon="24.4724887413">
		<tag k="fixme" v="consider natural=peak for the most distinct mountains in the district" />
		<tag k="name" v="Čuovvárrášša" />
		<tag k="name:se" v="Čuovvárrášša" />
		<tag k="natural" v="hill" />
		<tag k="old_name:se" v="Čuovvarrašša" />
		<tag k="place" v="locality" />
		<tag k="ssr:stedsnr" v="80849" />
	</node>
	<node id="-792371" lat="70.175541673" lon="23.8524249056">
		<tag k="fixme" v="consider natural=peak for the most distinct mountains in the district" />
		<tag k="name" v="Duiskačohkka" />
		<tag k="name:se" v="Duiskačohkka" />
		<tag k="natural" v="hill" />
		<tag k="old_name:se" v="Duiskačåkka" />
		<tag k="place" v="locality" />
		<tag k="ssr:stedsnr" v="80835" />
	</node>
	<node id="-792370" lat="70.2847916694" lon="24.3525331923">
		<tag k="fixme" v="consider natural=peak for the most distinct mountains in the district" />
		<tag k="name" v="Čáhppesvárri" />
		<tag k="name:se" v="Čáhppesvárri" />
		<tag k="natural" v="hill" />
		<tag k="old_name:se" v="Čappesvarri" />
		<tag k="place" v="locality" />
		<tag k="ssr:stedsnr" v="80724" />
	</node>
	<node id="-792369" lat="70.2996250078" lon="24.1868248767">
		<tag k="name" v="Guhkesgurra" />
		<tag k="name:se" v="Guhkesgurra" />
		<tag k="natural" v="valley" />
		<tag k="old_name:se" v="Gukkesgurra" />
		<tag k="place" v="locality" />
		<tag k="ssr:stedsnr" v="80719" />
	</node>
	<node id="-792364" lat="70.3533166685" lon="24.3660582039">
		<tag k="name" v="Bjørnlia" />
		<tag k="natural" v="slope" />
		<tag k="place" v="locality" />
		<tag k="ssr:stedsnr" v="80678" />
	</node>
	<node id="-792363" lat="70.3538611184" lon="24.3980137476">
		<tag k="name" v="Bjørndalen" />
		<tag k="natural" v="valley" />
		<tag k="place" v="locality" />
		<tag k="ssr:stedsnr" v="80677" />
	</node>
	<node id="-792362" lat="70.3190361196" lon="24.4269526301">
		<tag k="fixme" v="consider natural=peak for the most distinct mountains in the district" />
		<tag k="name" v="Muvravárseaibbuš" />
		<tag k="name:se" v="Muvravárseaibbuš" />
		<tag k="natural" v="hill" />
		<tag k="old_name:se" v="Muvravarsæiboš" />
		<tag k="place" v="locality" />
		<tag k="ssr:stedsnr" v="80661" />
	</node>
	<node id="-792354" lat="70.4773138885" lon="24.335958213">
		<tag k="name" v="Iisavággi" />
		<tag k="name:se" v="Iisavággi" />
		<tag k="natural" v="valley" />
		<tag k="old_name:se" v="Iisavaggi" />
		<tag k="place" v="locality" />
		<tag k="ssr:stedsnr" v="80852" />
	</node>
	<node id="-792349" lat="70.1341527781" lon="24.0071998782">
		<tag k="fixme" v="consider natural=peak for the most distinct mountains in the district" />
		<tag k="name" v="Ságge-Návggastat" />
		<tag k="name:se" v="Ságge-Návggastat" />
		<tag k="natural" v="hill" />
		<tag k="place" v="locality" />
		<tag k="ssr:stedsnr" v="79018" />
	</node>
	<node id="-792348" lat="70.1303083361" lon="24.1106165468">
		<tag k="fixme" v="consider natural=peak for the most distinct mountains in the district" />
		<tag k="name" v="Hávskesčopma" />
		<tag k="name:se" v="Hávskesčopma" />
		<tag k="natural" v="hill" />
		<tag k="old_name:se" v="Havskesčåbma" />
		<tag k="place" v="locality" />
		<tag k="ssr:stedsnr" v="79019" />
	</node>
	<node id="-792341" lat="70.5744222258" lon="24.6523442932">
		<tag k="fixme" v="consider natural=peak for the most distinct mountains in the district" />
		<tag k="name" v="Áldorivárri" />
		<tag k="name:se" v="Áldorivárri" />
		<tag k="natural" v="hill" />
		<tag k="place" v="locality" />
		<tag k="ssr:stedsnr" v="32114" />
	</node>
	<node id="-792336" lat="70.5483722229" lon="24.1303832033">
		<tag k="fixme" v="consider natural=peak for the most distinct mountains in the district" />
		<tag k="name" v="Sámmolčohkka" />
		<tag k="name:se" v="Sámmolčohkka" />
		<tag k="natural" v="hill" />
		<tag k="place" v="locality" />
		<tag k="ssr:stedsnr" v="29969" />
	</node>
	<node id="-792335" lat="70.5486888891" lon="24.1121637806">
		<tag k="name" v="Čearru" />
		<tag k="name:se" v="Čearru" />
		<tag k="place" v="locality" />
		<tag k="ssr:stedsnr" v="29966" />
	</node>
	<node id="-792334" lat="70.5421611117" lon="24.1658943325">
		<tag k="name" v="Gáiskigurra" />
		<tag k="name:se" v="Gáiskigurra" />
		<tag k="natural" v="valley" />
		<tag k="place" v="locality" />
		<tag k="ssr:stedsnr" v="29963" />
	</node>
	<node id="-792333" lat="70.5387833403" lon="24.1664721047">
		<tag k="name" v="Lilleofro" />
		<tag k="natural" v="hill" />
		<tag k="place" v="locality" />
		<tag k="ssr:stedsnr" v="29954" />
	</node>
	<node id="-792330" lat="70.4744305616" lon="24.3230137599">
		<tag k="name" v="Skapørdalen" />
		<tag k="natural" v="valley" />
		<tag k="place" v="locality" />
		<tag k="ssr:stedsnr" v="29935" />
	</node>
	<node id="-792327" lat="70.4930694502" lon="23.9630526843">
		<tag k="name" v="Oksehaugen" />
		<tag k="natural" v="hill" />
		<tag k="place" v="locality" />
		<tag k="ssr:stedsnr" v="29541" />
	</node>
	<node id="-792326" lat="70.4862785062" lon="23.9000801155">
		<tag k="alt_name:no" v="Langvassfjellet" />
		<tag k="fixme" v="consider natural=peak for the most distinct mountains in the district" />
		<tag k="loc_name:no" v="Beritsjordfjellet" />
		<tag k="name" v="Langvasstinden - Unna Jeahkiraš" />
		<tag k="name:no" v="Langvasstinden" />
		<tag k="name:se" v="Unna Jeahkiraš" />
		<tag k="natural" v="hill" />
		<tag k="old_name:se" v="Jækkiraš, unna" />
		<tag k="place" v="locality" />
		<tag k="ssr:stedsnr" v="26925" />
	</node>
	<node id="-792323" lat="70.4659054514" lon="24.0992019252">
		<tag k="fixme" v="consider natural=peak for the most distinct mountains in the district" />
		<tag k="name" v="Steinfjellet - Nussir" />
		<tag k="name:no" v="Steinfjellet" />
		<tag k="name:se" v="Nussir" />
		<tag k="natural" v="hill" />
		<tag k="place" v="locality" />
		<tag k="ssr:stedsnr" v="21848" />
	</node>
	<node id="-792322" lat="70.4148305537" lon="23.4372721413">
		<tag k="fixme" v="consider natural=peak for the most distinct mountains in the district" />
		<tag k="name" v="Kastarfjellet - Kásttárvárri" />
		<tag k="name:no" v="Kastarfjellet" />
		<tag k="name:se" v="Kásttárvárri" />
		<tag k="natural" v="hill" />
		<tag k="old_name:se" v="Kastarvarri" />
		<tag k="place" v="locality" />
		<tag k="ssr:stedsnr" v="20999" />
	</node>
	<node id="-792321" lat="70.4107638932" lon="23.4585276953">
		<tag k="name" v="Olderdalen - Birranvággi" />
		<tag k="name:no" v="Olderdalen" />
		<tag k="name:se" v="Birranvággi" />
		<tag k="natural" v="valley" />
		<tag k="old_name:se" v="Birranvaggi" />
		<tag k="place" v="locality" />
		<tag k="ssr:stedsnr" v="20995" />
	</node>
	<node id="-792320" lat="70.4568472257" lon="23.8589999094">
		<tag k="alt_name:no" v="Stortind" />
		<tag k="fixme" v="consider natural=peak for the most distinct mountains in the district" />
		<tag k="name" v="Stortinden - Stuora Jeahkir" />
		<tag k="name:no" v="Stortinden" />
		<tag k="name:se" v="Stuora Jeahkir" />
		<tag k="natural" v="hill" />
		<tag k="old_name:se" v="Jækkir, stuora;Stuorra Jeahkir" />
		<tag k="place" v="locality" />
		<tag k="ssr:stedsnr" v="20984" />
	</node>
	<node id="-792317" lat="70.4831499991" lon="23.5549749012">
		<tag k="fixme" v="consider natural=peak for the most distinct mountains in the district" />
		<tag k="name" v="Reinfjellet - Boazovárri" />
		<tag k="name:no" v="Reinfjellet" />
		<tag k="name:se" v="Boazovárri" />
		<tag k="natural" v="hill" />
		<tag k="old_name:se" v="Boazuvarri" />
		<tag k="place" v="locality" />
		<tag k="ssr:stedsnr" v="20954" />
	</node>
	<node id="-792316" lat="70.537300001" lon="24.6858276193">
		<tag k="fixme" v="consider natural=peak for the most distinct mountains in the district" />
		<tag k="name" v="Lulit Biellogielas" />
		<tag k="name:se" v="Lulit Biellogielas" />
		<tag k="natural" v="hill" />
		<tag k="old_name:se" v="Biellugielas, lulit" />
		<tag k="place" v="locality" />
		<tag k="ssr:stedsnr" v="20948" />
	</node>
	<node id="-792312" lat="70.655127785" lon="24.6738526422">
		<tag k="name" v="Čussačohkka" />
		<tag k="name:se" v="Čussačohkka" />
		<tag k="natural" v="hill" />
		<tag k="old_name:se" v="Čussačåkka" />
		<tag k="place" v="locality" />
		<tag k="ssr:stedsnr" v="20873" />
	</node>
	<node id="-792309" lat="70.6210277793" lon="24.7205887291">
		<tag k="name" v="Skáidečohkka" />
		<tag k="name:se" v="Skáidečohkka" />
		<tag k="natural" v="hill" />
		<tag k="old_name:se" v="Skaidečåkka" />
		<tag k="place" v="locality" />
		<tag k="ssr:stedsnr" v="20854" />
	</node>
	<node id="-792304" lat="70.4978277847" lon="24.3047331958">
		<tag k="name" v="Bestefarberget - Ádjábákti" />
		<tag k="name:no" v="Bestefarberget" />
		<tag k="name:se" v="Ádjábákti" />
		<tag k="natural" v="hill" />
		<tag k="old_name:se" v="Addjabakti" />
		<tag k="place" v="locality" />
		<tag k="ssr:stedsnr" v="20842" />
	</node>
	<node id="-792302" lat="70.5682166684" lon="24.3497470804">
		<tag k="fixme" v="consider natural=peak for the most distinct mountains in the district" />
		<tag k="name" v="Fálesrášša" />
		<tag k="name:se" v="Fálesrášša" />
		<tag k="natural" v="hill" />
		<tag k="old_name:se" v="Falesrašša" />
		<tag k="place" v="locality" />
		<tag k="ssr:stedsnr" v="20815" />
	</node>
	<node id="-792300" lat="70.3513277801" lon="23.9687582256">
		<tag k="name" v="Láhku" />
		<tag k="name:se" v="Láhku" />
		<tag k="natural" v="plateau" />
		<tag k="old_name:se" v="Lakko" />
		<tag k="ssr:stedsnr" v="20800" />
	</node>
	<node id="-792293" lat="70.4003916659" lon="24.3988665401">
		<tag k="fixme" v="consider natural=peak for the most distinct mountains in the district" />
		<tag k="name" v="Svartfjellet" />
		<tag k="natural" v="hill" />
		<tag k="place" v="locality" />
		<tag k="ssr:stedsnr" v="20545" />
	</node>
	<node id="-792292" lat="70.5684722249" lon="23.7899443569">
		<tag k="name" v="Guohcačohkka" />
		<tag k="name:se" v="Guohcačohkka" />
		<tag k="natural" v="hill" />
		<tag k="old_name:se" v="Guoccačåkka" />
		<tag k="place" v="locality" />
		<tag k="ssr:stedsnr" v="20236" />
	</node>
	<node id="-792287" lat="70.2066694465" lon="24.02444156">
		<tag k="fixme" v="consider natural=peak for the most distinct mountains in the district" />
		<tag k="name" v="Stohkkečomat" />
		<tag k="name:se" v="Stohkkečomat" />
		<tag k="natural" v="hill" />
		<tag k="old_name:se" v="Ståkkečåmat;Stohkkečopma" />
		<tag k="place" v="locality" />
		<tag k="ssr:stedsnr" v="19989" />
	</node>
	<node id="-792286" lat="70.2343333331" lon="24.2358054347">
		<tag k="fixme" v="consider natural=peak for the most distinct mountains in the district" />
		<tag k="name" v="Njunnásbuolža" />
		<tag k="name:se" v="Njunnásbuolža" />
		<tag k="natural" v="hill" />
		<tag k="old_name:se" v="Njunnasbuolža" />
		<tag k="place" v="locality" />
		<tag k="ssr:stedsnr" v="19987" />
	</node>
	<node id="-792285" lat="70.1693527843" lon="24.258049864">
		<tag k="fixme" v="consider natural=peak for the most distinct mountains in the district" />
		<tag k="name" v="Leaktooaivi" />
		<tag k="name:se" v="Leaktooaivi" />
		<tag k="natural" v="hill" />
		<tag k="old_name:se" v="Læktuoaivi;Leaktoaivi" />
		<tag k="place" v="locality" />
		<tag k="ssr:stedsnr" v="19947" />
	</node>
	<node id="-792282" lat="70.1857027849" lon="23.8595137724">
		<tag k="name" v="Sennalandet" />
		<tag k="natural" v="mountain_range" />
		<tag k="ssr:stedsnr" v="19814" />
	</node>
	<node id="-792279" lat="70.2881750036" lon="24.1130693121">
		<tag k="name" v="Veslemoen" />
		<tag k="place" v="locality" />
		<tag k="ssr:stedsnr" v="19708" />
	</node>
	<node id="-792278" lat="70.2891611147" lon="24.2289887542">
		<tag k="fixme" v="consider natural=peak for the most distinct mountains in the district" />
		<tag k="name" v="Goahtenjunni" />
		<tag k="name:se" v="Goahtenjunni" />
		<tag k="natural" v="hill" />
		<tag k="old_name:se" v="Goattenjunni" />
		<tag k="place" v="locality" />
		<tag k="ssr:stedsnr" v="19706" />
	</node>
	<node id="-792276" lat="70.3321611139" lon="24.3757970886">
		<tag k="fixme" v="consider natural=peak for the most distinct mountains in the district" />
		<tag k="name" v="Buikočohkat" />
		<tag k="name:se" v="Buikočohkat" />
		<tag k="natural" v="hill" />
		<tag k="old_name:se" v="Buikučåkkat" />
		<tag k="place" v="locality" />
		<tag k="ssr:stedsnr" v="19649" />
	</node>
	<node id="-792274" lat="70.3790222266" lon="24.2880582171">
		<tag k="fixme" v="consider natural=peak for the most distinct mountains in the district" />
		<tag k="name" v="Breidalsfjellet - Muvrarášša" />
		<tag k="name:no" v="Breidalsfjellet" />
		<tag k="name:se" v="Muvrarášša" />
		<tag k="natural" v="hill" />
		<tag k="old_name:se" v="Muvrarašša" />
		<tag k="place" v="locality" />
		<tag k="ssr:stedsnr" v="19594" />
	</node>
	<node id="-792273" lat="70.466444446" lon="24.2241193324">
		<tag k="fixme" v="consider natural=peak for the most distinct mountains in the district" />
		<tag k="name" v="Veikjoven" />
		<tag k="natural" v="hill" />
		<tag k="place" v="locality" />
		<tag k="ssr:stedsnr" v="413944" />
	</node>
	<node id="-792261" lat="70.4093111131" lon="24.5314887485">
		<tag k="fixme" v="consider natural=peak for the most distinct mountains in the district" />
		<tag k="name" v="Luoktabogevárri" />
		<tag k="name:se" v="Luoktabogevárri" />
		<tag k="natural" v="hill" />
		<tag k="place" v="locality" />
		<tag k="ssr:stedsnr" v="898755" />
	</node>
	<node id="-792254" lat="70.4142722287" lon="23.7907998984">
		<tag k="name" v="Vesterkroken" />
		<tag k="natural" v="valley" />
		<tag k="place" v="locality" />
		<tag k="ssr:stedsnr" v="882211" />
	</node>
	<node id="-792248" lat="70.4649138936" lon="23.8015693379">
		<tag k="name" v="Skarhaugen" />
		<tag k="natural" v="hill" />
		<tag k="place" v="locality" />
		<tag k="ssr:stedsnr" v="393814" />
	</node>
	<node id="-792243" lat="70.5573694518" lon="24.1253637656">
		<tag k="fixme" v="consider natural=peak for the most distinct mountains in the district" />
		<tag k="name" v="Harefjellet" />
		<tag k="natural" v="hill" />
		<tag k="place" v="locality" />
		<tag k="ssr:stedsnr" v="392977" />
	</node>
	<node id="-792242" lat="70.4863833333" lon="24.2994054373">
		<tag k="name" v="Roggeluftberget" />
		<tag k="natural" v="hill" />
		<tag k="place" v="locality" />
		<tag k="ssr:stedsnr" v="392961" />
	</node>
	<node id="-792241" lat="70.4799861183" lon="24.3172831964">
		<tag k="fixme" v="consider natural=peak for the most distinct mountains in the district" />
		<tag k="name" v="Stokkebergtoppen" />
		<tag k="natural" v="hill" />
		<tag k="place" v="locality" />
		<tag k="ssr:stedsnr" v="392958" />
	</node>
	<node id="-792238" lat="70.3741944503" lon="24.4152859847">
		<tag k="name" v="Bjørnskog" />
		<tag k="natural" v="slope" />
		<tag k="place" v="locality" />
		<tag k="ssr:stedsnr" v="392927" />
	</node>
	<node id="-792234" lat="70.4163305619" lon="23.7766137965">
		<tag k="fixme" v="consider natural=peak for the most distinct mountains in the district" />
		<tag k="name" v="Middagstinden - Oggošhárji" />
		<tag k="name:no" v="Middagstinden" />
		<tag k="name:se" v="Oggošhárji" />
		<tag k="natural" v="hill" />
		<tag k="old_name:se" v="Åggušharji" />
		<tag k="place" v="locality" />
		<tag k="ssr:stedsnr" v="384998" />
	</node>
	<node id="-792231" lat="70.4546111105" lon="23.8868082371">
		<tag k="name" v="Kvalsunddalen" />
		<tag k="natural" v="valley" />
		<tag k="place" v="locality" />
		<tag k="ssr:stedsnr" v="384965" />
	</node>
	<node id="-792221" lat="70.4859000064" lon="24.0251721042">
		<tag k="fixme" v="consider natural=peak for the most distinct mountains in the district" />
		<tag k="name" v="Jalgesvárit" />
		<tag k="name:se" v="Jalgesvárit" />
		<tag k="natural" v="hill" />
		<tag k="old_name:se" v="Jalgesvarit" />
		<tag k="place" v="locality" />
		<tag k="ssr:stedsnr" v="384815" />
	</node>
	<node id="-792220" lat="70.2520861123" lon="23.8451415499">
		<tag k="fixme" v="consider natural=peak for the most distinct mountains in the district" />
		<tag k="name" v="Nadjetčohkka" />
		<tag k="name:se" v="Nadjetčohkka" />
		<tag k="natural" v="hill" />
		<tag k="old_name:se" v="Naddjetčåkka" />
		<tag k="place" v="locality" />
		<tag k="ssr:stedsnr" v="384809" />
	</node>
	<node id="-792217" lat="70.5407222218" lon="24.0991054426">
		<tag k="alt_name:no" v="Klubben" />
		<tag k="fixme" v="consider natural=peak for the most distinct mountains in the district" />
		<tag k="name" v="Storklubben - Klubbočohkka" />
		<tag k="name:no" v="Storklubben" />
		<tag k="name:se" v="Klubbočohkka" />
		<tag k="natural" v="hill" />
		<tag k="old_name:se" v="Klubbučåkka" />
		<tag k="place" v="locality" />
		<tag k="ssr:stedsnr" v="384781" />
	</node>
	<node id="-792214" lat="70.3709638926" lon="24.3647998556">
		<tag k="name" v="Repparfjorddalen" />
		<tag k="natural" v="valley" />
		<tag k="place" v="locality" />
		<tag k="ssr:stedsnr" v="384655" />
	</node>
	<node id="-792213" lat="70.4242722261" lon="24.1512637688">
		<tag k="fixme" v="consider natural=peak for the most distinct mountains in the district" />
		<tag k="name" v="Guoirratrášša" />
		<tag k="name:se" v="Guoirratrášša" />
		<tag k="natural" v="hill" />
		<tag k="old_name:se" v="Guoiratrašša" />
		<tag k="place" v="locality" />
		<tag k="ssr:stedsnr" v="384650" />
	</node>
	<node id="-792211" lat="70.6024083413" lon="24.1269165454">
		<tag k="name" v="Skarvberget" />
		<tag k="natural" v="hill" />
		<tag k="place" v="locality" />
		<tag k="ssr:stedsnr" v="384758" />
	</node>
	<node id="-792210" lat="70.6099638916" lon="24.5960609584">
		<tag k="fixme" v="consider natural=peak for the most distinct mountains in the district" />
		<tag k="name" v="Oaggunčopma" />
		<tag k="name:se" v="Oaggunčopma" />
		<tag k="natural" v="hill" />
		<tag k="old_name:se" v="Oaggončåbma" />
		<tag k="place" v="locality" />
		<tag k="ssr:stedsnr" v="384752" />
	</node>
	<node id="-792202" lat="70.4074916706" lon="23.7717693368">
		<tag k="name" v="Ivttášvággi" />
		<tag k="name:se" v="Ivttášvággi" />
		<tag k="natural" v="valley" />
		<tag k="old_name:se" v="Ivtašvaggi" />
		<tag k="place" v="locality" />
		<tag k="ssr:stedsnr" v="383990" />
	</node>
	<node id="-792200" lat="70.1635000061" lon="24.2019609692">
		<tag k="fixme" v="consider natural=peak for the most distinct mountains in the district" />
		<tag k="name" v="Leaktonjunni" />
		<tag k="name:se" v="Leaktonjunni" />
		<tag k="natural" v="hill" />
		<tag k="old_name:se" v="Læktunjunni" />
		<tag k="place" v="locality" />
		<tag k="ssr:stedsnr" v="383969" />
	</node>
	<node id="-792199" lat="70.1952000027" lon="24.276358196">
		<tag k="fixme" v="consider natural=peak for the most distinct mountains in the district" />
		<tag k="name" v="Opmobuolža" />
		<tag k="name:se" v="Opmobuolža" />
		<tag k="natural" v="hill" />
		<tag k="old_name:se" v="Åbmubuolža" />
		<tag k="place" v="locality" />
		<tag k="ssr:stedsnr" v="383957" />
	</node>
	<node id="-792198" lat="70.229069451" lon="23.9043415712">
		<tag k="name" v="Streaŋgahárji" />
		<tag k="name:se" v="Streaŋgahárji" />
		<tag k="natural" v="ridge" />
		<tag k="old_name:se" v="Stræŋgaharji" />
		<tag k="place" v="locality" />
		<tag k="ssr:stedsnr" v="383877" />
	</node>
	<node id="-792197" lat="70.4823944478" lon="24.5910387468">
		<tag k="fixme" v="consider natural=peak for the most distinct mountains in the district" />
		<tag k="name" v="Unna Čiŋkkáš" />
		<tag k="name:se" v="Unna Čiŋkkáš" />
		<tag k="natural" v="hill" />
		<tag k="old_name:se" v="Čiŋkaš, unna" />
		<tag k="place" v="locality" />
		<tag k="ssr:stedsnr" v="383872" />
	</node>
	<node id="-792189" lat="70.2979361191" lon="24.0478471076">
		<tag k="fixme" v="consider natural=peak for the most distinct mountains in the district" />
		<tag k="name" v="Ruksesvárri" />
		<tag k="name:se" v="Ruksesvárri" />
		<tag k="natural" v="hill" />
		<tag k="old_name:se" v="Ruksesvarri" />
		<tag k="place" v="locality" />
		<tag k="ssr:stedsnr" v="383666" />
	</node>
	<node id="-792181" lat="70.1016111182" lon="24.001802673">
		<tag k="fixme" v="consider natural=peak for the most distinct mountains in the district" />
		<tag k="name" v="Ruššoleakgierratvárri" />
		<tag k="name:se" v="Ruššoleakgierratvárri" />
		<tag k="natural" v="hill" />
		<tag k="old_name:se" v="Ruššulækgierratvarri" />
		<tag k="place" v="locality" />
		<tag k="ssr:stedsnr" v="383024" />
	</node>
	<node id="-792177" lat="70.5748388931" lon="24.7342220627">
		<tag k="fixme" v="consider natural=peak for the most distinct mountains in the district" />
		<tag k="name" v="Gaska Ruossavárri" />
		<tag k="name:se" v="Gaska Ruossavárri" />
		<tag k="natural" v="hill" />
		<tag k="place" v="locality" />
		<tag k="ssr:stedsnr" v="336186" />
	</node>
	<node id="-792171" lat="70.54411389" lon="24.1173137804">
		<tag k="name" v="Holmen" />
		<tag k="natural" v="hill" />
		<tag k="place" v="locality" />
		<tag k="ssr:stedsnr" v="332965" />
	</node>
	<node id="-792170" lat="70.5398277817" lon="24.1433137838">
		<tag k="fixme" v="consider natural=peak for the most distinct mountains in the district" />
		<tag k="name" v="Buktafjellet" />
		<tag k="natural" v="hill" />
		<tag k="place" v="locality" />
		<tag k="ssr:stedsnr" v="332947" />
	</node>
	<node id="-792169" lat="70.4202444443" lon="24.1597137602">
		<tag k="fixme" v="consider natural=peak for the most distinct mountains in the district" />
		<tag k="name" v="Steinfjellet" />
		<tag k="natural" v="hill" />
		<tag k="place" v="locality" />
		<tag k="ssr:stedsnr" v="332772" />
	</node>
	<node id="-792167" lat="70.5127583379" lon="23.8617860105">
		<tag k="name" v="Hammarnesdalen" />
		<tag k="natural" v="valley" />
		<tag k="place" v="locality" />
		<tag k="ssr:stedsnr" v="332596" />
	</node>
	<node id="-792164" lat="70.5114750027" lon="23.9200943351">
		<tag k="alt_name" v="Russen" />
		<tag k="name" v="Russeberget" />
		<tag k="natural" v="hill" />
		<tag k="place" v="locality" />
		<tag k="ssr:stedsnr" v="332101" />
	</node>
	<node id="-792162" lat="70.4155138917" lon="23.6617110237">
		<tag k="alt_name" v="Kvitberget" />
		<tag k="name" v="Kvitberg" />
		<tag k="natural" v="hill" />
		<tag k="place" v="locality" />
		<tag k="ssr:stedsnr" v="323985" />
	</node>
	<node id="-792157" lat="70.1790000038" lon="24.2294137458">
		<tag k="fixme" v="consider natural=peak for the most distinct mountains in the district" />
		<tag k="name" v="Gussoaivi" />
		<tag k="name:se" v="Gussoaivi" />
		<tag k="natural" v="hill" />
		<tag k="place" v="locality" />
		<tag k="ssr:stedsnr" v="323956" />
	</node>
	<node id="-792156" lat="70.2090916691" lon="24.3088859714">
		<tag k="fixme" v="consider natural=peak for the most distinct mountains in the district" />
		<tag k="name" v="Opmogielas" />
		<tag k="name:se" v="Opmogielas" />
		<tag k="natural" v="hill" />
		<tag k="old_name:se" v="Åbmugielas" />
		<tag k="place" v="locality" />
		<tag k="ssr:stedsnr" v="323951" />
	</node>
	<node id="-792153" lat="70.514038889" lon="24.7388915121">
		<tag k="fixme" v="consider natural=peak for the most distinct mountains in the district" />
		<tag k="name" v="Báktečohkka" />
		<tag k="name:se" v="Báktečohkka" />
		<tag k="natural" v="hill" />
		<tag k="old_name:se" v="Baktečåkka" />
		<tag k="place" v="locality" />
		<tag k="ssr:stedsnr" v="323914" />
	</node>
	<node id="-792152" lat="70.5952250055" lon="24.8087914956">
		<tag k="name" v="Stuorrávžžečohkat" />
		<tag k="name:se" v="Stuorrávžžečohkat" />
		<tag k="natural" v="hill" />
		<tag k="old_name:se" v="Stuorravžečåkkat" />
		<tag k="place" v="locality" />
		<tag k="ssr:stedsnr" v="323905" />
	</node>
	<node id="-792151" lat="70.6066055599" lon="24.7013359472">
		<tag k="alt_name:se" v="Ruossavárri" />
		<tag k="fixme" v="consider natural=peak for the most distinct mountains in the district" />
		<tag k="name" v="Ruoššavárit" />
		<tag k="name:se" v="Ruoššavárit" />
		<tag k="natural" v="hill" />
		<tag k="old_name:se" v="Ruoššavarit" />
		<tag k="place" v="locality" />
		<tag k="ssr:stedsnr" v="323903" />
	</node>
	<node id="-792149" lat="70.4362250064" lon="24.0259498917">
		<tag k="fixme" v="consider natural=peak for the most distinct mountains in the district" />
		<tag k="name" v="Hoalločohkat" />
		<tag k="name:se" v="Hoalločohkat" />
		<tag k="natural" v="hill" />
		<tag k="old_name:se" v="Hoallučåkkat" />
		<tag k="place" v="locality" />
		<tag k="ssr:stedsnr" v="323879" />
	</node>
	<node id="-792147" lat="70.4505944478" lon="24.2843498729">
		<tag k="name" v="Arisberget - Árešbákti" />
		<tag k="name:no" v="Arisberget" />
		<tag k="name:se" v="Árešbákti" />
		<tag k="natural" v="hill" />
		<tag k="old_name:se" v="Arešbakti" />
		<tag k="place" v="locality" />
		<tag k="ssr:stedsnr" v="323875" />
	</node>
	<node id="-792146" lat="70.4635638909" lon="24.5394387419">
		<tag k="fixme" v="consider natural=peak for the most distinct mountains in the district" />
		<tag k="name" v="Čiŋkarášša" />
		<tag k="name:se" v="Čiŋkarášša" />
		<tag k="natural" v="hill" />
		<tag k="old_name:se" v="Čiŋkarašša;Činkarášša" />
		<tag k="place" v="locality" />
		<tag k="ssr:stedsnr" v="323871" />
	</node>
	<node id="-792141" lat="70.471286117" lon="24.3314581958">
		<tag k="name" v="Storeberget" />
		<tag k="natural" v="hill" />
		<tag k="place" v="locality" />
		<tag k="ssr:stedsnr" v="323858" />
	</node>
	<node id="-792140" lat="70.631408342" lon="24.8880248334">
		<tag k="fixme" v="consider natural=peak for the most distinct mountains in the district" />
		<tag k="name" v="Šáregašdievvá" />
		<tag k="name:se" v="Šáregašdievvá" />
		<tag k="natural" v="hill" />
		<tag k="old_name:se" v="Šaregašdievva" />
		<tag k="place" v="locality" />
		<tag k="ssr:stedsnr" v="323856" />
	</node>
	<node id="-792138" lat="70.2188305577" lon="23.9119137843">
		<tag k="fixme" v="consider natural=peak for the most distinct mountains in the district" />
		<tag k="name" v="Joavnnahárji" />
		<tag k="name:se" v="Joavnnahárji" />
		<tag k="natural" v="hill" />
		<tag k="old_name:se" v="Joavnaharji" />
		<tag k="place" v="locality" />
		<tag k="ssr:stedsnr" v="323852" />
	</node>
	<node id="-792137" lat="70.491480561" lon="24.334274865">
		<tag k="fixme" v="consider natural=peak for the most distinct mountains in the district" />
		<tag k="name" v="Iisanjunni" />
		<tag k="name:se" v="Iisanjunni" />
		<tag k="natural" v="hill" />
		<tag k="place" v="locality" />
		<tag k="ssr:stedsnr" v="323842" />
	</node>
	<node id="-792130" lat="70.5532888906" lon="24.2890609768">
		<tag k="fixme" v="consider natural=peak for the most distinct mountains in the district" />
		<tag k="name" v="Godderiiddrášša" />
		<tag k="name:se" v="Godderiiddrášša" />
		<tag k="natural" v="hill" />
		<tag k="old_name:se" v="Gådderiidrašša" />
		<tag k="place" v="locality" />
		<tag k="ssr:stedsnr" v="323793" />
	</node>
	<node id="-792129" lat="70.5371138914" lon="24.3009831991">
		<tag k="fixme" v="consider natural=peak for the most distinct mountains in the district" />
		<tag k="name" v="Erdalsfjell - Heargerášša" />
		<tag k="name:no" v="Erdalsfjell" />
		<tag k="name:se" v="Heargerášša" />
		<tag k="natural" v="hill" />
		<tag k="old_name:se" v="Hærgerašša" />
		<tag k="place" v="locality" />
		<tag k="ssr:stedsnr" v="323791" />
	</node>
	<node id="-792122" lat="70.4134833395" lon="23.7015387986">
		<tag k="fixme" v="consider natural=peak for the most distinct mountains in the district" />
		<tag k="name" v="Kvitfjellet - Vilgesvárri" />
		<tag k="name:no" v="Kvitfjellet" />
		<tag k="name:se" v="Vilgesvárri" />
		<tag k="natural" v="hill" />
		<tag k="old_name:se" v="Vilgesvarri" />
		<tag k="place" v="locality" />
		<tag k="ssr:stedsnr" v="323756" />
	</node>
	<node id="-792120" lat="70.4303305569" lon="24.6305803975">
		<tag k="fixme" v="consider natural=peak for the most distinct mountains in the district" />
		<tag k="name" v="Unna Háhttiraš" />
		<tag k="name:se" v="Unna Háhttiraš" />
		<tag k="natural" v="hill" />
		<tag k="old_name:se" v="Hattiraš, unna" />
		<tag k="place" v="locality" />
		<tag k="ssr:stedsnr" v="323733" />
	</node>
	<node id="-792117" lat="70.4375277786" lon="24.6041081809">
		<tag k="name" v="Eallašgielas" />
		<tag k="name:se" v="Eallašgielas" />
		<tag k="natural" v="hill" />
		<tag k="old_name:se" v="Ællašgielas" />
		<tag k="place" v="locality" />
		<tag k="ssr:stedsnr" v="323665" />
	</node>
	<node id="-792116" lat="70.3610250052" lon="24.1541859984">
		<tag k="fixme" v="consider natural=peak for the most distinct mountains in the district" />
		<tag k="name" v="Govdavákrášša" />
		<tag k="name:se" v="Govdavákrášša" />
		<tag k="natural" v="hill" />
		<tag k="old_name:se" v="Gåvdavagrašša" />
		<tag k="place" v="locality" />
		<tag k="ssr:stedsnr" v="323644" />
	</node>
	<node id="-792115" lat="70.1716055578" lon="24.1030415338">
		<tag k="fixme" v="consider natural=peak for the most distinct mountains in the district" />
		<tag k="name" v="Vuovdečohkka" />
		<tag k="name:se" v="Vuovdečohkka" />
		<tag k="natural" v="hill" />
		<tag k="old_name:se" v="Vuovdečåkka" />
		<tag k="place" v="locality" />
		<tag k="ssr:stedsnr" v="323462" />
	</node>
	<node id="-792107" lat="70.3102583389" lon="24.0282526597">
		<tag k="fixme" v="consider natural=peak for the most distinct mountains in the district" />
		<tag k="name" v="Breiryggen - Geaidnovákgierratrášša" />
		<tag k="name:no" v="Breiryggen" />
		<tag k="name:se" v="Geaidnovákgierratrášša" />
		<tag k="natural" v="hill" />
		<tag k="old_name:se" v="Gædnuvaggierratrašša;Geaidnovággiertakrášša" />
		<tag k="place" v="locality" />
		<tag k="ssr:stedsnr" v="322657" />
	</node>
	<node id="-792094" lat="70.508783337" lon="24.0382026609">
		<tag k="name" v="Batteriet" />
		<tag k="natural" v="hill" />
		<tag k="place" v="locality" />
		<tag k="ssr:stedsnr" v="271996" />
	</node>
	<node id="-792089" lat="70.479086114" lon="24.3269304287">
		<tag k="fixme" v="consider natural=peak for the most distinct mountains in the district" />
		<tag k="name" v="Spihča" />
		<tag k="name:se" v="Spihča" />
		<tag k="natural" v="hill" />
		<tag k="place" v="locality" />
		<tag k="ssr:stedsnr" v="271950" />
	</node>
	<node id="-793290" lat="70.5106500042" lon="24.0083748922">
		<tag k="name" v="Hallbakken" />
		<tag k="natural" v="slope" />
		<tag k="place" v="locality" />
		<tag k="ssr:stedsnr" v="939591" />
	</node>
	<node id="-793288" lat="70.53485" lon="23.7364749148">
		<tag k="name" v="Skjåholmfloget" />
		<tag k="natural" v="cliff" />
		<tag k="ssr:stedsnr" v="939615" />
	</node>
	<node id="-793287" lat="70.5102722242" lon="23.7876471139">
		<tag k="name" v="Stagnes" />
		<tag k="place" v="locality" />
		<tag k="ssr:stedsnr" v="939605" />
	</node>
	<node id="-793285" lat="70.5344138939" lon="24.4064582045">
		<tag k="fixme" v="consider natural=peak for the most distinct mountains in the district" />
		<tag k="name" v="Doaresjohrášša" />
		<tag k="name:se" v="Doaresjohrášša" />
		<tag k="natural" v="hill" />
		<tag k="old_name:se" v="Doaresjåkrašša;Doaresjotrášša" />
		<tag k="place" v="locality" />
		<tag k="ssr:stedsnr" v="931815" />
	</node>
	<node id="-793281" lat="70.2345861167" lon="24.0424165382">
		<tag k="fixme" v="consider natural=peak for the most distinct mountains in the district" />
		<tag k="name" v="Suoidnečopma" />
		<tag k="name:se" v="Suoidnečopma" />
		<tag k="natural" v="hill" />
		<tag k="old_name:se" v="Suoidnečåbma" />
		<tag k="place" v="locality" />
		<tag k="ssr:stedsnr" v="930996" />
	</node>
	<node id="-793276" lat="70.4610583373" lon="23.9578693472">
		<tag k="name" v="Suolovággi" />
		<tag k="name:se" v="Suolovággi" />
		<tag k="natural" v="valley" />
		<tag k="old_name:se" v="Suoluvaggi" />
		<tag k="place" v="locality" />
		<tag k="ssr:stedsnr" v="930959" />
	</node>
	<node id="-793275" lat="70.5036054512" lon="23.9566534487">
		<tag k="alt_name:no" v="Handelstinden" />
		<tag k="fixme" v="consider natural=peak for the most distinct mountains in the district" />
		<tag k="loc_name:se" v="Hánddalčohkka" />
		<tag k="name" v="Handelstind" />
		<tag k="name:no" v="Handelstind" />
		<tag k="natural" v="hill" />
		<tag k="place" v="locality" />
		<tag k="ssr:stedsnr" v="930944" />
	</node>
	<node id="-793272" lat="70.6101972255" lon="24.7602415073">
		<tag k="name" v="Unnaávžžečohkka" />
		<tag k="name:se" v="Unnaávžžečohkka" />
		<tag k="natural" v="hill" />
		<tag k="old_name:se" v="Unnavžečåkka" />
		<tag k="place" v="locality" />
		<tag k="ssr:stedsnr" v="930902" />
	</node>
	<node id="-793271" lat="70.4540361165" lon="24.5623693046">
		<tag k="fixme" v="consider natural=peak for the most distinct mountains in the district" />
		<tag k="name" v="Čiŋkanjunni" />
		<tag k="name:se" v="Čiŋkanjunni" />
		<tag k="natural" v="hill" />
		<tag k="place" v="locality" />
		<tag k="ssr:stedsnr" v="930878" />
	</node>
	<node id="-793270" lat="70.4553027846" lon="24.3214471069">
		<tag k="name" v="Fjordbotn" />
		<tag k="natural" v="valley" />
		<tag k="place" v="locality" />
		<tag k="ssr:stedsnr" v="930873" />
	</node>
	<node id="-793268" lat="70.6317500004" lon="24.7994192913">
		<tag k="fixme" v="consider natural=peak for the most distinct mountains in the district" />
		<tag k="name" v="Šáregašnjunni" />
		<tag k="name:se" v="Šáregašnjunni" />
		<tag k="natural" v="hill" />
		<tag k="old_name:se" v="Šaregašnjunni" />
		<tag k="place" v="locality" />
		<tag k="ssr:stedsnr" v="930863" />
	</node>
	<node id="-793267" lat="70.2306305579" lon="23.9827971107">
		<tag k="fixme" v="consider natural=peak for the most distinct mountains in the district" />
		<tag k="name" v="Voggenessteinen - Gietkanaščohkka" />
		<tag k="name:no" v="Voggenessteinen" />
		<tag k="name:se" v="Gietkanaščohkka" />
		<tag k="natural" v="hill" />
		<tag k="old_name:se" v="Gietkanaščåkka" />
		<tag k="place" v="locality" />
		<tag k="ssr:stedsnr" v="930857" />
	</node>
	<node id="-793263" lat="70.5272583368" lon="24.2585276561">
		<tag k="name" v="Gumpenjunni" />
		<tag k="name:se" v="Gumpenjunni" />
		<tag k="natural" v="hill" />
		<tag k="place" v="locality" />
		<tag k="ssr:stedsnr" v="930845" />
	</node>
	<node id="-793259" lat="70.6527000009" lon="24.3968693054">
		<tag k="fixme" v="consider natural=peak for the most distinct mountains in the district" />
		<tag k="name" v="Stuora Njeaiddán" />
		<tag k="name:se" v="Stuora Njeaiddán" />
		<tag k="natural" v="hill" />
		<tag k="old_name:se" v="Njæidan, stuora" />
		<tag k="place" v="locality" />
		<tag k="ssr:stedsnr" v="930802" />
	</node>
	<node id="-793251" lat="70.2677055596" lon="24.2766276578">
		<tag k="fixme" v="consider natural=peak for the most distinct mountains in the district" />
		<tag k="name" v="Skáiddaduoddarváibmu" />
		<tag k="name:se" v="Skáiddaduoddarváibmu" />
		<tag k="natural" v="hill" />
		<tag k="old_name:se" v="Skaidaduoddarvaibmo" />
		<tag k="place" v="locality" />
		<tag k="ssr:stedsnr" v="930730" />
	</node>
	<node id="-793250" lat="70.2729750055" lon="24.25063875">
		<tag k="fixme" v="consider natural=peak for the most distinct mountains in the district" />
		<tag k="name" v="Čáhppesvárseaibbuš" />
		<tag k="name:se" v="Čáhppesvárseaibbuš" />
		<tag k="natural" v="hill" />
		<tag k="old_name:se" v="Čappesvarsæiboš" />
		<tag k="place" v="locality" />
		<tag k="ssr:stedsnr" v="930731" />
	</node>
	<node id="-793247" lat="70.4335916711" lon="24.2228109961">
		<tag k="fixme" v="consider natural=peak for the most distinct mountains in the district" />
		<tag k="name" v="Ulveryggen - Gumppenjunni" />
		<tag k="name:no" v="Ulveryggen" />
		<tag k="name:se" v="Gumppenjunni" />
		<tag k="natural" v="hill" />
		<tag k="old_name:se" v="Gumpenjunni" />
		<tag k="place" v="locality" />
		<tag k="ssr:stedsnr" v="930669" />
	</node>
	<node id="-793246" lat="70.4068527872" lon="24.677749839">
		<tag k="name" v="Skáidajohávži" />
		<tag k="name:se" v="Skáidajohávži" />
		<tag k="natural" v="valley" />
		<tag k="old_name:se" v="Skaidajåkavži" />
		<tag k="place" v="locality" />
		<tag k="ssr:stedsnr" v="930561" />
	</node>
	<node id="-793236" lat="70.3011916733" lon="24.1642304219">
		<tag k="fixme" v="consider natural=peak for the most distinct mountains in the district" />
		<tag k="name" v="Áisarnjunni" />
		<tag k="name:se" v="Áisarnjunni" />
		<tag k="natural" v="hill" />
		<tag k="old_name:se" v="Aisarnjunni" />
		<tag k="place" v="locality" />
		<tag k="ssr:stedsnr" v="929625" />
	</node>
	<node id="-793231" lat="70.4912972252" lon="24.1257832155">
		<tag k="name" v="Klemetstein" />
		<tag k="natural" v="slope" />
		<tag k="place" v="locality" />
		<tag k="ssr:stedsnr" v="878985" />
	</node>
	<node id="-793226" lat="70.5016611126" lon="24.029616551">
		<tag k="name" v="Brakkedalen" />
		<tag k="natural" v="valley" />
		<tag k="place" v="locality" />
		<tag k="ssr:stedsnr" v="878609" />
	</node>
	<node id="-793222" lat="70.4889166658" lon="23.943474899">
		<tag k="name" v="Ole Mathis dalen" />
		<tag k="natural" v="valley" />
		<tag k="place" v="locality" />
		<tag k="ssr:stedsnr" v="878590" />
	</node>
	<node id="-793220" lat="70.4308722286" lon="23.7772304649">
		<tag k="name" v="Vesterdalen" />
		<tag k="natural" v="valley" />
		<tag k="place" v="locality" />
		<tag k="ssr:stedsnr" v="871000" />
	</node>
	<node id="-793219" lat="70.458491665" lon="23.7853415729">
		<tag k="name" v="Ausa - Guksi" />
		<tag k="name:no" v="Ausa" />
		<tag k="name:se" v="Guksi" />
		<tag k="natural" v="hill" />
		<tag k="place" v="locality" />
		<tag k="ssr:stedsnr" v="870979" />
	</node>
	<node id="-793218" lat="70.4250555593" lon="23.7574415578">
		<tag k="fixme" v="consider natural=peak for the most distinct mountains in the district" />
		<tag k="name" v="Kaffetinden" />
		<tag k="natural" v="hill" />
		<tag k="place" v="locality" />
		<tag k="ssr:stedsnr" v="870973" />
	</node>
	<node id="-793216" lat="70.4669750038" lon="23.8205415726">
		<tag k="alt_name" v="Storhaugen" />
		<tag k="name" v="Solhaugen" />
		<tag k="natural" v="hill" />
		<tag k="place" v="locality" />
		<tag k="ssr:stedsnr" v="870957" />
	</node>
	<node id="-793204" lat="70.5558333411" lon="24.5530665328">
		<tag k="name" v="Unnačohkaš" />
		<tag k="name:se" v="Unnačohkaš" />
		<tag k="natural" v="hill" />
		<tag k="old_name:se" v="Unnačåkkaš" />
		<tag k="place" v="locality" />
		<tag k="ssr:stedsnr" v="870789" />
	</node>
	<node id="-793202" lat="70.5411333381" lon="24.1599637705">
		<tag k="fixme" v="consider natural=peak for the most distinct mountains in the district" />
		<tag k="name" v="Storofro - Ruollačohkka" />
		<tag k="name:no" v="Storofro" />
		<tag k="name:se" v="Ruollačohkka" />
		<tag k="natural" v="hill" />
		<tag k="old_name:se" v="Ruollačåkka" />
		<tag k="place" v="locality" />
		<tag k="ssr:stedsnr" v="870786" />
	</node>
	<node id="-793194" lat="70.1960777823" lon="24.1075582006">
		<tag k="fixme" v="consider natural=peak for the most distinct mountains in the district" />
		<tag k="name" v="Duolbagielas" />
		<tag k="name:se" v="Duolbagielas" />
		<tag k="natural" v="hill" />
		<tag k="place" v="locality" />
		<tag k="ssr:stedsnr" v="869943" />
	</node>
	<node id="-793193" lat="70.499566669" lon="23.5888054662">
		<tag k="fixme" v="consider natural=peak for the most distinct mountains in the district" />
		<tag k="name" v="Čulkovárri" />
		<tag k="name:se" v="Čulkovárri" />
		<tag k="natural" v="hill" />
		<tag k="old_name:se" v="Čulkuvarri" />
		<tag k="place" v="locality" />
		<tag k="ssr:stedsnr" v="869934" />
	</node>
	<node id="-793191" lat="70.4018138935" lon="23.7901887805">
		<tag k="alt_name" v="Østerkroken" />
		<tag k="name" v="Austerkroken" />
		<tag k="natural" v="valley" />
		<tag k="place" v="locality" />
		<tag k="ssr:stedsnr" v="869784" />
	</node>
	<node id="-793190" lat="70.4161388936" lon="24.7331804078">
		<tag k="fixme" v="consider natural=peak for the most distinct mountains in the district" />
		<tag k="name" v="Máttimuš Ráksevárri" />
		<tag k="name:se" v="Máttimuš Ráksevárri" />
		<tag k="natural" v="hill" />
		<tag k="place" v="locality" />
		<tag k="ssr:stedsnr" v="869753" />
	</node>
	<node id="-793187" lat="70.4696305591" lon="24.6314637502">
		<tag k="fixme" v="consider natural=peak for the most distinct mountains in the district" />
		<tag k="name" v="Guorrogielas" />
		<tag k="name:se" v="Guorrogielas" />
		<tag k="natural" v="hill" />
		<tag k="old_name:se" v="Guorrugielas" />
		<tag k="place" v="locality" />
		<tag k="ssr:stedsnr" v="869720" />
	</node>
	<node id="-793186" lat="70.3186027853" lon="24.2099609786">
		<tag k="name" v="Áisarguolbba" />
		<tag k="name:se" v="Áisarguolbba" />
		<tag k="old_name:se" v="Aisarguolba" />
		<tag k="place" v="locality" />
		<tag k="ssr:stedsnr" v="869687" />
	</node>
	<node id="-793185" lat="70.2890472286" lon="24.0603304324">
		<tag k="fixme" v="consider natural=peak for the most distinct mountains in the district" />
		<tag k="name" v="Jalgesvárri" />
		<tag k="name:se" v="Jalgesvárri" />
		<tag k="natural" v="hill" />
		<tag k="old_name:se" v="Jalgesvarri" />
		<tag k="place" v="locality" />
		<tag k="ssr:stedsnr" v="869684" />
	</node>
	<node id="-793184" lat="70.665891669" lon="24.3439915427">
		<tag k="fixme" v="consider natural=peak for the most distinct mountains in the district" />
		<tag k="name" v="Njárgahárji" />
		<tag k="name:se" v="Njárgahárji" />
		<tag k="natural" v="hill" />
		<tag k="old_name:se" v="Njargaharji" />
		<tag k="place" v="locality" />
		<tag k="ssr:stedsnr" v="869172" />
	</node>
	<node id="-793180" lat="70.1436388938" lon="24.2180248764">
		<tag k="fixme" v="consider natural=peak for the most distinct mountains in the district" />
		<tag k="name" v="Linnjavárri" />
		<tag k="name:se" v="Linnjavárri" />
		<tag k="natural" v="hill" />
		<tag k="old_name:se" v="Linnjavarri" />
		<tag k="place" v="locality" />
		<tag k="ssr:stedsnr" v="868953" />
	</node>
	<node id="-793179" lat="70.4776722247" lon="24.2560165462">
		<tag k="fixme" v="consider natural=peak for the most distinct mountains in the district" />
		<tag k="name" v="Márgopčohkat" />
		<tag k="name:se" v="Márgopčohkat" />
		<tag k="natural" v="hill" />
		<tag k="place" v="locality" />
		<tag k="ssr:stedsnr" v="842178" />
	</node>
	<node id="-793171" lat="70.301175004" lon="24.238960985">
		<tag k="fixme" v="consider natural=peak for the most distinct mountains in the district" />
		<tag k="name" v="Čiŋka-rášša" />
		<tag k="name:se" v="Čiŋka-rášša" />
		<tag k="natural" v="hill" />
		<tag k="place" v="locality" />
		<tag k="ssr:stedsnr" v="818953" />
	</node>
	<node id="-793169" lat="70.4200527817" lon="24.4550304143">
		<tag k="fixme" v="consider natural=peak for the most distinct mountains in the district" />
		<tag k="name" v="Svartfjellet" />
		<tag k="natural" v="hill" />
		<tag k="place" v="locality" />
		<tag k="ssr:stedsnr" v="818638" />
	</node>
	<node id="-793166" lat="70.5023222243" lon="23.9669526561">
		<tag k="fixme" v="consider natural=peak for the most distinct mountains in the district" />
		<tag k="name" v="Solbakken" />
		<tag k="natural" v="hill" />
		<tag k="place" v="locality" />
		<tag k="ssr:stedsnr" v="818548" />
	</node>
	<node id="-793164" lat="70.4188027833" lon="23.5202054821">
		<tag k="name" v="Guicavággi" />
		<tag k="name:se" v="Guicavággi" />
		<tag k="natural" v="valley" />
		<tag k="old_name:se" v="Guicavaggi" />
		<tag k="place" v="locality" />
		<tag k="ssr:stedsnr" v="809994" />
	</node>
	<node id="-793156" lat="70.6384250023" lon="24.7413887299">
		<tag k="name" v="Čuolločohkka" />
		<tag k="name:se" v="Čuolločohkka" />
		<tag k="natural" v="hill" />
		<tag k="old_name:se" v="Čuollučåkka" />
		<tag k="place" v="locality" />
		<tag k="ssr:stedsnr" v="809859" />
	</node>
	<node id="-793150" lat="70.5810027794" lon="24.216894324">
		<tag k="fixme" v="consider natural=peak for the most distinct mountains in the district" />
		<tag k="name" v="Kvalvikfjellet - Fálesluohrášša" />
		<tag k="name:no" v="Kvalvikfjellet" />
		<tag k="name:se" v="Fálesluohrášša" />
		<tag k="natural" v="hill" />
		<tag k="old_name:se" v="Falesluokrašša;Fálesluokrášša" />
		<tag k="place" v="locality" />
		<tag k="ssr:stedsnr" v="809811" />
	</node>
	<node id="-793149" lat="70.5679250023" lon="24.2614165455">
		<tag k="fixme" v="consider natural=peak for the most distinct mountains in the district" />
		<tag k="name" v="Gaskačohkka" />
		<tag k="name:se" v="Gaskačohkka" />
		<tag k="natural" v="hill" />
		<tag k="old_name:se" v="Gaskačåkka" />
		<tag k="place" v="locality" />
		<tag k="ssr:stedsnr" v="809806" />
	</node>
	<node id="-793148" lat="70.57435834" lon="24.5365776355">
		<tag k="fixme" v="consider natural=peak for the most distinct mountains in the district" />
		<tag k="name" v="Unna Goavkoaivváš" />
		<tag k="name:se" v="Unna Goavkoaivváš" />
		<tag k="natural" v="hill" />
		<tag k="old_name:se" v="Goavikoaivaš, unna" />
		<tag k="place" v="locality" />
		<tag k="ssr:stedsnr" v="809803" />
	</node>
	<node id="-793147" lat="70.3025916727" lon="23.822205459">
		<tag k="fixme" v="consider natural=peak for the most distinct mountains in the district" />
		<tag k="name" v="Guovttemuvrratrášša" />
		<tag k="name:se" v="Guovttemuvrratrášša" />
		<tag k="natural" v="hill" />
		<tag k="old_name:se" v="Guovtemuvratrašša;Guovttemuvrrášša" />
		<tag k="place" v="locality" />
		<tag k="ssr:stedsnr" v="809798" />
	</node>
	<node id="-793142" lat="70.6198000017" lon="24.1091248823">
		<tag k="fixme" v="consider natural=peak for the most distinct mountains in the district" />
		<tag k="name" v="Ørntind" />
		<tag k="natural" v="hill" />
		<tag k="place" v="locality" />
		<tag k="ssr:stedsnr" v="809774" />
	</node>
	<node id="-793140" lat="70.6099083395" lon="24.3261165498">
		<tag k="name" v="Gieldaluohvággi" />
		<tag k="name:se" v="Gieldaluohvággi" />
		<tag k="natural" v="valley" />
		<tag k="old_name:se" v="Gieldaluokvaggi" />
		<tag k="place" v="locality" />
		<tag k="ssr:stedsnr" v="809763" />
	</node>
	<node id="-793139" lat="70.4444388929" lon="24.4869165125">
		<tag k="name" v="Gorračopma" />
		<tag k="name:se" v="Gorračopma" />
		<tag k="natural" v="hill" />
		<tag k="old_name:se" v="Gårračåbma" />
		<tag k="place" v="locality" />
		<tag k="ssr:stedsnr" v="809676" />
	</node>
	<node id="-793136" lat="70.5369500015" lon="23.8984082195">
		<tag k="fixme" v="consider natural=peak for the most distinct mountains in the district" />
		<tag k="name" v="Bálggahatčohkka" />
		<tag k="name:se" v="Bálggahatčohkka" />
		<tag k="natural" v="hill" />
		<tag k="old_name:se" v="Balgahatčåkka" />
		<tag k="place" v="locality" />
		<tag k="ssr:stedsnr" v="809222" />
	</node>
	<node id="-793133" lat="70.6549083407" lon="24.4465693115">
		<tag k="name" v="Liššavággi" />
		<tag k="name:se" v="Liššavággi" />
		<tag k="natural" v="valley" />
		<tag k="old_name:se" v="Liššavaggi" />
		<tag k="place" v="locality" />
		<tag k="ssr:stedsnr" v="809150" />
	</node>
	<node id="-793132" lat="70.6767666699" lon="24.4141109834">
		<tag k="fixme" v="consider natural=peak for the most distinct mountains in the district" />
		<tag k="name" v="Gohttaluohčohkka" />
		<tag k="name:se" v="Gohttaluohčohkka" />
		<tag k="natural" v="hill" />
		<tag k="old_name:se" v="Gåttaluokčåkka" />
		<tag k="place" v="locality" />
		<tag k="ssr:stedsnr" v="809140" />
	</node>
	<node id="-793130" lat="70.2205611188" lon="24.247816545">
		<tag k="fixme" v="consider natural=peak for the most distinct mountains in the district" />
		<tag k="name" v="Gáhččalangielas" />
		<tag k="name:se" v="Gáhččalangielas" />
		<tag k="natural" v="hill" />
		<tag k="old_name:se" v="Gaččalangielas" />
		<tag k="place" v="locality" />
		<tag k="ssr:stedsnr" v="808996" />
	</node>
	<node id="-793129" lat="70.2352527828" lon="24.0185498904">
		<tag k="fixme" v="consider natural=peak for the most distinct mountains in the district" />
		<tag k="name" v="Gietkanášša" />
		<tag k="name:se" v="Gietkanášša" />
		<tag k="natural" v="hill" />
		<tag k="old_name:se" v="Gietkanašša" />
		<tag k="place" v="locality" />
		<tag k="ssr:stedsnr" v="808994" />
	</node>
	<node id="-793128" lat="70.2316888955" lon="24.2945832133">
		<tag k="fixme" v="consider natural=peak for the most distinct mountains in the district" />
		<tag k="name" v="Ráidobuolža" />
		<tag k="name:se" v="Ráidobuolža" />
		<tag k="natural" v="hill" />
		<tag k="old_name:se" v="Raidubuolža" />
		<tag k="place" v="locality" />
		<tag k="ssr:stedsnr" v="808991" />
	</node>
	<node id="-793127" lat="70.4020694489" lon="23.4436915868">
		<tag k="fixme" v="consider natural=peak for the most distinct mountains in the district" />
		<tag k="name" v="Gárdevárri" />
		<tag k="name:se" v="Gárdevárri" />
		<tag k="natural" v="hill" />
		<tag k="old_name:se" v="Gardevarri" />
		<tag k="place" v="locality" />
		<tag k="ssr:stedsnr" v="808988" />
	</node>
	<node id="-793126" lat="70.4620611113" lon="24.3644776456">
		<tag k="fixme" v="consider natural=peak for the most distinct mountains in the district" />
		<tag k="name" v="Čuovvárnjunni" />
		<tag k="name:se" v="Čuovvárnjunni" />
		<tag k="natural" v="hill" />
		<tag k="old_name:se" v="Čuovvarnjunni" />
		<tag k="place" v="locality" />
		<tag k="ssr:stedsnr" v="808853" />
	</node>
	<node id="-793124" lat="70.4813361183" lon="24.4711554281">
		<tag k="fixme" v="consider natural=peak for the most distinct mountains in the district" />
		<tag k="name" v="Fállebahvárri" />
		<tag k="name:se" v="Fállebahvárri" />
		<tag k="natural" v="hill" />
		<tag k="place" v="locality" />
		<tag k="ssr:stedsnr" v="808839" />
	</node>
	<node id="-793115" lat="70.3858277777" lon="23.6438443611">
		<tag k="fixme" v="multiple name tags, choose one and add the other to alt_name" />
		<tag k="name" v="Lille Sarabytinden;Porsahompen" />
		<tag k="natural" v="hill" />
		<tag k="place" v="locality" />
		<tag k="ssr:stedsnr" v="808764" />
	</node>
	<node id="-793114" lat="70.3975888895" lon="23.7043332476">
		<tag k="name" v="Ugleryggen" />
		<tag k="natural" v="hill" />
		<tag k="place" v="locality" />
		<tag k="ssr:stedsnr" v="808759" />
	</node>
	<node id="-793113" lat="70.257891666" lon="24.0391415498">
		<tag k="name" v="Oivoščopma" />
		<tag k="name:se" v="Oivoščopma" />
		<tag k="natural" v="hill" />
		<tag k="old_name:se" v="Åivuščåbma" />
		<tag k="place" v="locality" />
		<tag k="ssr:stedsnr" v="808706" />
	</node>
	<node id="-793111" lat="70.3495583368" lon="24.4150387496">
		<tag k="fixme" v="consider natural=peak for the most distinct mountains in the district" />
		<tag k="name" v="Ánddeš-Bierčohkat" />
		<tag k="name:se" v="Ánddeš-Bierčohkat" />
		<tag k="natural" v="hill" />
		<tag k="old_name:se" v="Andeš-Bierčåkkat" />
		<tag k="place" v="locality" />
		<tag k="ssr:stedsnr" v="808668" />
	</node>
	<node id="-793108" lat="70.1126361114" lon="24.1770998647">
		<tag k="fixme" v="consider natural=peak for the most distinct mountains in the district" />
		<tag k="name" v="Vuomoaivi" />
		<tag k="name:se" v="Vuomoaivi" />
		<tag k="natural" v="hill" />
		<tag k="place" v="locality" />
		<tag k="ssr:stedsnr" v="808018" />
	</node>
	<node id="-793103" lat="70.4494361148" lon="24.3305054302">
		<tag k="name" v="Lyngsletta" />
		<tag k="place" v="locality" />
		<tag k="ssr:stedsnr" v="869883" />
	</node>
	<node id="-793101" lat="70.4664444451" lon="24.2241165484">
		<tag k="fixme" v="consider natural=peak for the most distinct mountains in the district" />
		<tag k="name" v="Márgohpečohkat" />
		<tag k="name:se" v="Márgohpečohkat" />
		<tag k="natural" v="hill" />
		<tag k="old_name:se" v="Margåppečåkkat" />
		<tag k="place" v="locality" />
		<tag k="ssr:stedsnr" v="869867" />
	</node>
	<node id="-793096" lat="70.1686250071" lon="23.9226026596">
		<tag k="fixme" v="consider natural=peak for the most distinct mountains in the district" />
		<tag k="name" v="Ádjáčopma" />
		<tag k="name:se" v="Ádjáčopma" />
		<tag k="natural" v="hill" />
		<tag k="old_name:se" v="Addjačåbma" />
		<tag k="place" v="locality" />
		<tag k="ssr:stedsnr" v="869840" />
	</node>
	<node id="-793084" lat="70.5362166743" lon="24.126483212">
		<tag k="name" v="Buktasletta - Guolban" />
		<tag k="name:no" v="Buktasletta" />
		<tag k="name:se" v="Guolban" />
		<tag k="place" v="locality" />
		<tag k="ssr:stedsnr" v="757964" />
	</node>
	<node id="-793083" lat="70.4500333396" lon="24.3412248673">
		<tag k="name" v="Repparfjordsletta" />
		<tag k="place" v="locality" />
		<tag k="ssr:stedsnr" v="757928" />
	</node>
	<node id="-793080" lat="70.5219055589" lon="23.9573582145">
		<tag k="name" v="Stállogárgovárri" />
		<tag k="name:se" v="Stállogárgovárri" />
		<tag k="place" v="locality" />
		<tag k="ssr:stedsnr" v="757536" />
	</node>
	<node id="-793078" lat="70.5072805572" lon="24.0200915631">
		<tag k="name" v="Øversletta" />
		<tag k="place" v="locality" />
		<tag k="ssr:stedsnr" v="757529" />
	</node>
	<node id="-793077" lat="70.5068333398" lon="23.8826193526">
		<tag k="name" v="Sukkerberget" />
		<tag k="natural" v="hill" />
		<tag k="place" v="locality" />
		<tag k="ssr:stedsnr" v="757512" />
	</node>
	<node id="-793076" lat="70.490925001" lon="23.8591054638">
		<tag k="fixme" v="consider natural=peak for the most distinct mountains in the district" />
		<tag k="name" v="Skabeluftfjellet" />
		<tag k="natural" v="hill" />
		<tag k="place" v="locality" />
		<tag k="ssr:stedsnr" v="757510" />
	</node>
	<node id="-793075" lat="70.4909500009" lon="23.9327610121">
		<tag k="name" v="Skoletoppen" />
		<tag k="natural" v="hill" />
		<tag k="place" v="locality" />
		<tag k="ssr:stedsnr" v="757506" />
	</node>
	<node id="-793074" lat="70.1609138946" lon="23.9633026518">
		<tag k="fixme" v="consider natural=peak for the most distinct mountains in the district" />
		<tag k="name" v="Mađđoaivi" />
		<tag k="name:se" v="Mađđoaivi" />
		<tag k="natural" v="hill" />
		<tag k="place" v="locality" />
		<tag k="ssr:stedsnr" v="757490" />
	</node>
	<node id="-793070" lat="70.610038891" lon="24.2834859854">
		<tag k="fixme" v="consider natural=peak for the most distinct mountains in the district" />
		<tag k="name" v="Sommarvikfjellet - Rievdnja" />
		<tag k="name:no" v="Sommarvikfjellet" />
		<tag k="name:se" v="Rievdnja" />
		<tag k="natural" v="hill" />
		<tag k="place" v="locality" />
		<tag k="ssr:stedsnr" v="753711" />
	</node>
	<node id="-793064" lat="70.4806527845" lon="23.9726248848">
		<tag k="fixme" v="consider natural=peak for the most distinct mountains in the district" />
		<tag k="name" v="Ráhkkerávjovárit" />
		<tag k="name:se" v="Ráhkkerávjovárit" />
		<tag k="natural" v="hill" />
		<tag k="old_name:se" v="Rakkeravjuvarit" />
		<tag k="place" v="locality" />
		<tag k="ssr:stedsnr" v="748968" />
	</node>
	<node id="-793057" lat="70.523652782" lon="24.8081137268">
		<tag k="fixme" v="consider natural=peak for the most distinct mountains in the district" />
		<tag k="name" v="Lulit Miessoaivi" />
		<tag k="name:se" v="Lulit Miessoaivi" />
		<tag k="natural" v="hill" />
		<tag k="old_name:se" v="Miessoaivi, lulit" />
		<tag k="place" v="locality" />
		<tag k="ssr:stedsnr" v="748923" />
	</node>
	<node id="-793056" lat="70.6183666742" lon="24.9773026112">
		<tag k="fixme" v="consider natural=peak for the most distinct mountains in the district" />
		<tag k="name" v="Gárdevárri" />
		<tag k="name:se" v="Gárdevárri" />
		<tag k="natural" v="hill" />
		<tag k="old_name:se" v="Gardevarri" />
		<tag k="place" v="locality" />
		<tag k="ssr:stedsnr" v="748912" />
	</node>
	<node id="-793046" lat="70.614991673" lon="24.2364582146">
		<tag k="name" v="Sittarberget" />
		<tag k="natural" v="hill" />
		<tag k="place" v="locality" />
		<tag k="ssr:stedsnr" v="748774" />
	</node>
	<node id="-793045" lat="70.6079055624" lon="24.0320526769">
		<tag k="name" v="Siskkit Dorskavuonávži" />
		<tag k="name:se" v="Siskkit Dorskavuonávži" />
		<tag k="natural" v="valley" />
		<tag k="old_name:se" v="Dårskavuonavži, siskit" />
		<tag k="place" v="locality" />
		<tag k="ssr:stedsnr" v="748771" />
	</node>
	<node id="-793043" lat="70.4404722233" lon="24.1460665432">
		<tag k="name" v="Ásavággi" />
		<tag k="name:se" v="Ásavággi" />
		<tag k="natural" v="valley" />
		<tag k="old_name:se" v="Asavaggi" />
		<tag k="place" v="locality" />
		<tag k="ssr:stedsnr" v="748675" />
	</node>
	<node id="-793042" lat="70.5264277785" lon="23.825824911">
		<tag k="fixme" v="consider natural=peak for the most distinct mountains in the district" />
		<tag k="name" v="Hanselvfjellet - Duoddaraš" />
		<tag k="name:no" v="Hanselvfjellet" />
		<tag k="name:se" v="Duoddaraš" />
		<tag k="natural" v="hill" />
		<tag k="place" v="locality" />
		<tag k="ssr:stedsnr" v="748200" />
	</node>
	<node id="-793040" lat="70.549375" lon="23.9077887777">
		<tag k="fixme" v="consider natural=peak for the most distinct mountains in the district" />
		<tag k="name" v="Biennerášša" />
		<tag k="name:se" v="Biennerášša" />
		<tag k="natural" v="hill" />
		<tag k="old_name:se" v="Biennerašša" />
		<tag k="place" v="locality" />
		<tag k="ssr:stedsnr" v="748186" />
	</node>
	<node id="-793027" lat="70.2096000004" lon="23.9396859962">
		<tag k="alt_name:no" v="Okseberget l" />
		<tag k="name" v="Lille Okseberget - Unna Vuoksoaivi" />
		<tag k="name:no" v="Lille Okseberget" />
		<tag k="name:se" v="Unna Vuoksoaivi" />
		<tag k="natural" v="hill" />
		<tag k="old_name:se" v="Vuoksoaivi, unna" />
		<tag k="place" v="locality" />
		<tag k="ssr:stedsnr" v="747874" />
	</node>
	<node id="-793017" lat="70.3379638899" lon="24.2912220901">
		<tag k="name" v="Kroken" />
		<tag k="place" v="locality" />
		<tag k="ssr:stedsnr" v="747666" />
	</node>
	<node id="-793015" lat="70.3941444487" lon="24.2468915413">
		<tag k="fixme" v="consider natural=peak for the most distinct mountains in the district" />
		<tag k="name" v="Geaidnočohkka" />
		<tag k="name:se" v="Geaidnočohkka" />
		<tag k="natural" v="hill" />
		<tag k="old_name:se" v="Gæidnučåkka" />
		<tag k="place" v="locality" />
		<tag k="ssr:stedsnr" v="747635" />
	</node>
	<node id="-793012" lat="70.1462666691" lon="23.9550748809">
		<tag k="fixme" v="consider natural=peak for the most distinct mountains in the district" />
		<tag k="name" v="Ádjáčohkavárri" />
		<tag k="name:se" v="Ádjáčohkavárri" />
		<tag k="natural" v="hill" />
		<tag k="old_name:se" v="Addjačåkkavarri" />
		<tag k="place" v="locality" />
		<tag k="ssr:stedsnr" v="747844" />
	</node>
	<node id="-793010" lat="70.1187722252" lon="24.0840554395">
		<tag k="fixme" v="consider natural=peak for the most distinct mountains in the district" />
		<tag k="name" v="Buollánčopma" />
		<tag k="name:se" v="Buollánčopma" />
		<tag k="natural" v="hill" />
		<tag k="old_name:se" v="Buollančabma" />
		<tag k="place" v="locality" />
		<tag k="ssr:stedsnr" v="747016" />
	</node>
	<node id="-793004" lat="70.5174222237" lon="23.7765332437">
		<tag k="name" v="Stangnestind" />
		<tag k="natural" v="hill" />
		<tag k="place" v="locality" />
		<tag k="ssr:stedsnr" v="715219" />
	</node>
	<node id="-793003" lat="70.5063138938" lon="24.0375804406">
		<tag k="name" v="Kvitbergan" />
		<tag k="natural" v="hill" />
		<tag k="place" v="locality" />
		<tag k="ssr:stedsnr" v="696997" />
	</node>
	<node id="-793002" lat="70.5622388906" lon="24.1239693222">
		<tag k="name" v="Hallar" />
		<tag k="place" v="locality" />
		<tag k="ssr:stedsnr" v="696981" />
	</node>
	<node id="-793001" lat="70.5584916673" lon="24.1173832153">
		<tag k="name" v="Dypbergan" />
		<tag k="place" v="locality" />
		<tag k="ssr:stedsnr" v="696972" />
	</node>
	<node id="-792997" lat="70.415402776" lon="23.8838971263">
		<tag k="fixme" v="consider natural=peak for the most distinct mountains in the district" />
		<tag k="name" v="Skinnfjellet - Njahkkerášša" />
		<tag k="name:no" v="Skinnfjellet" />
		<tag k="name:se" v="Njahkkerášša" />
		<tag k="natural" v="hill" />
		<tag k="old_name:se" v="Njakkerašša" />
		<tag k="place" v="locality" />
		<tag k="ssr:stedsnr" v="692994" />
	</node>
	<node id="-792996" lat="70.5842888949" lon="23.859302676">
		<tag k="fixme" v="consider natural=peak for the most distinct mountains in the district" />
		<tag k="name" v="Svartfjellet - Muvrarášša" />
		<tag k="name:no" v="Svartfjellet" />
		<tag k="name:se" v="Muvrarášša" />
		<tag k="natural" v="hill" />
		<tag k="old_name:se" v="Muvraráššá;Muvrarašša" />
		<tag k="place" v="locality" />
		<tag k="ssr:stedsnr" v="691272" />
	</node>
	<node id="-792994" lat="70.6114888956" lon="24.8185859616">
		<tag k="fixme" v="consider natural=peak for the most distinct mountains in the district" />
		<tag k="name" v="Juovssaidčohkat" />
		<tag k="name:se" v="Juovssaidčohkat" />
		<tag k="natural" v="hill" />
		<tag k="old_name:se" v="Juovsaidčåkkat;Juovsaidčohkkat" />
		<tag k="place" v="locality" />
		<tag k="ssr:stedsnr" v="688898" />
	</node>
	<node id="-792992" lat="70.5687444484" lon="24.7030415253">
		<tag k="fixme" v="consider natural=peak for the most distinct mountains in the district" />
		<tag k="name" v="Guohcavárri" />
		<tag k="name:se" v="Guohcavárri" />
		<tag k="natural" v="hill" />
		<tag k="old_name:se" v="Guoccavarri" />
		<tag k="place" v="locality" />
		<tag k="ssr:stedsnr" v="688893" />
	</node>
	<node id="-792989" lat="70.6283416667" lon="24.7114637395">
		<tag k="fixme" v="consider natural=peak for the most distinct mountains in the district" />
		<tag k="name" v="Ringstadfjellet - Riŋstavárri" />
		<tag k="name:no" v="Ringstadfjellet" />
		<tag k="name:se" v="Riŋstavárri" />
		<tag k="natural" v="hill" />
		<tag k="old_name:se" v="Riŋstavarri" />
		<tag k="place" v="locality" />
		<tag k="ssr:stedsnr" v="688856" />
	</node>
	<node id="-792980" lat="70.2435277781" lon="24.0430026689">
		<tag k="fixme" v="consider natural=peak for the most distinct mountains in the district" />
		<tag k="name" v="Gárdečopma" />
		<tag k="name:se" v="Gárdečopma" />
		<tag k="natural" v="hill" />
		<tag k="old_name:se" v="Gardečåbma" />
		<tag k="place" v="locality" />
		<tag k="ssr:stedsnr" v="687988" />
	</node>
	<node id="-792978" lat="70.1539333409" lon="24.0437887603">
		<tag k="name" v="Ruššoleahki" />
		<tag k="name:se" v="Ruššoleahki" />
		<tag k="natural" v="valley" />
		<tag k="old_name:se" v="Ruššulækki" />
		<tag k="place" v="locality" />
		<tag k="ssr:stedsnr" v="687967" />
	</node>
	<node id="-792977" lat="70.1697222216" lon="24.0199248787">
		<tag k="fixme" v="consider natural=peak for the most distinct mountains in the district" />
		<tag k="name" v="Mađđoaivi" />
		<tag k="name:se" v="Mađđoaivi" />
		<tag k="natural" v="hill" />
		<tag k="place" v="locality" />
		<tag k="ssr:stedsnr" v="687950" />
	</node>
	<node id="-792970" lat="70.6375250003" lon="24.0984248742">
		<tag k="fixme" v="consider natural=peak for the most distinct mountains in the district" />
		<tag k="name" v="Slåka" />
		<tag k="natural" v="hill" />
		<tag k="place" v="locality" />
		<tag k="ssr:stedsnr" v="687782" />
	</node>
	<node id="-792969" lat="70.6217916728" lon="24.0784804486">
		<tag k="fixme" v="consider natural=peak for the most distinct mountains in the district" />
		<tag k="name" v="Middagsfjellet" />
		<tag k="natural" v="hill" />
		<tag k="place" v="locality" />
		<tag k="ssr:stedsnr" v="687777" />
	</node>
	<node id="-792966" lat="70.3955694476" lon="23.7686332354">
		<tag k="fixme" v="consider natural=peak for the most distinct mountains in the district" />
		<tag k="name" v="Midterfjellet - Luovosvárri" />
		<tag k="name:no" v="Midterfjellet" />
		<tag k="name:se" v="Luovosvárri" />
		<tag k="natural" v="hill" />
		<tag k="old_name:se" v="Luovusvarri" />
		<tag k="place" v="locality" />
		<tag k="ssr:stedsnr" v="687768" />
	</node>
	<node id="-792965" lat="70.2749833422" lon="24.0216332093">
		<tag k="fixme" v="consider natural=peak for the most distinct mountains in the district" />
		<tag k="name" v="Roabačohkka" />
		<tag k="name:se" v="Roabačohkka" />
		<tag k="natural" v="hill" />
		<tag k="old_name:se" v="Roabačåkka" />
		<tag k="place" v="locality" />
		<tag k="ssr:stedsnr" v="687719" />
	</node>
	<node id="-792959" lat="70.4201611108" lon="24.051502671">
		<tag k="name" v="Guoirratvággi" />
		<tag k="name:se" v="Guoirratvággi" />
		<tag k="natural" v="valley" />
		<tag k="old_name:se" v="Guoiratvaggi" />
		<tag k="place" v="locality" />
		<tag k="ssr:stedsnr" v="687651" />
	</node>
	<node id="-792958" lat="70.4277722294" lon="24.4987359751">
		<tag k="name" v="Skaidisletta - Skáiddeguolbba" />
		<tag k="name:no" v="Skaidisletta" />
		<tag k="name:se" v="Skáiddeguolbba" />
		<tag k="old_name:se" v="Skaideguolba" />
		<tag k="place" v="locality" />
		<tag k="ssr:stedsnr" v="687647" />
	</node>
	<node id="-792957" lat="70.4073027819" lon="24.5794193049">
		<tag k="fixme" v="consider natural=peak for the most distinct mountains in the district" />
		<tag k="name" v="Luoktabogevárit" />
		<tag k="name:se" v="Luoktabogevárit" />
		<tag k="natural" v="hill" />
		<tag k="place" v="locality" />
		<tag k="ssr:stedsnr" v="687635" />
	</node>
	<node id="-792955" lat="70.3887138942" lon="24.4139415204">
		<tag k="name" v="Virošgorsa" />
		<tag k="name:se" v="Virošgorsa" />
		<tag k="natural" v="valley" />
		<tag k="old_name:se" v="Virušgårsa" />
		<tag k="place" v="locality" />
		<tag k="ssr:stedsnr" v="687632" />
	</node>
	<node id="-792954" lat="70.3842611153" lon="24.5556081895">
		<tag k="fixme" v="consider natural=peak for the most distinct mountains in the district" />
		<tag k="name" v="Doggoaivi" />
		<tag k="name:se" v="Doggoaivi" />
		<tag k="natural" v="hill" />
		<tag k="place" v="locality" />
		<tag k="ssr:stedsnr" v="687628" />
	</node>
	<node id="-792952" lat="70.5310638905" lon="23.9786582257">
		<tag k="fixme" v="consider natural=peak for the most distinct mountains in the district" />
		<tag k="name" v="Blankeneshaugen - Gihpenjároaivi" />
		<tag k="name:no" v="Blankeneshaugen" />
		<tag k="name:se" v="Gihpenjároaivi" />
		<tag k="natural" v="hill" />
		<tag k="old_name:se" v="Gippenjaroaivi" />
		<tag k="place" v="locality" />
		<tag k="ssr:stedsnr" v="687216" />
	</node>
	<node id="-792951" lat="70.5570583336" lon="23.8521471194">
		<tag k="fixme" v="consider natural=peak for the most distinct mountains in the district" />
		<tag k="name" v="Boazorášša" />
		<tag k="name:se" v="Boazorášša" />
		<tag k="natural" v="hill" />
		<tag k="old_name:se" v="Boazurašša" />
		<tag k="place" v="locality" />
		<tag k="ssr:stedsnr" v="687181" />
	</node>
	<node id="-792945" lat="70.338294446" lon="24.0463470982">
		<tag k="fixme" v="consider natural=peak for the most distinct mountains in the district" />
		<tag k="name" v="Gaskavákgierratrášša" />
		<tag k="name:se" v="Gaskavákgierratrášša" />
		<tag k="natural" v="hill" />
		<tag k="old_name:se" v="Gaskavaggierratrašša;Gaskávaggierratrášša" />
		<tag k="place" v="locality" />
		<tag k="ssr:stedsnr" v="686677" />
	</node>
	<node id="-792937" lat="70.4749916649" lon="23.8620026826">
		<tag k="name" v="Morderhaugen" />
		<tag k="natural" v="hill" />
		<tag k="place" v="locality" />
		<tag k="ssr:stedsnr" v="635990" />
	</node>
	<node id="-792931" lat="70.4470250082" lon="24.4908276309">
		<tag k="name" v="Hatter - Háhttiraš" />
		<tag k="name:no" v="Hatter" />
		<tag k="name:se" v="Háhttiraš" />
		<tag k="natural" v="mountain_range" />
		<tag k="ssr:stedsnr" v="635602" />
	</node>
	<node id="-792925" lat="70.5541388978" lon="24.6457526247">
		<tag k="name" v="Lavnnjetvággi" />
		<tag k="name:se" v="Lavnnjetvággi" />
		<tag k="natural" v="valley" />
		<tag k="old_name:se" v="Lavnjetvaggi" />
		<tag k="place" v="locality" />
		<tag k="ssr:stedsnr" v="627948" />
	</node>
	<node id="-792924" lat="70.508677783" lon="24.6718192959">
		<tag k="name" v="Bierffetoaivválli" />
		<tag k="name:se" v="Bierffetoaivválli" />
		<tag k="natural" v="valley" />
		<tag k="old_name:se" v="Bierfetoaivalli" />
		<tag k="place" v="locality" />
		<tag k="ssr:stedsnr" v="627940" />
	</node>
	<node id="-792923" lat="70.5285500082" lon="24.6498359616">
		<tag k="fixme" v="consider natural=peak for the most distinct mountains in the district" />
		<tag k="name" v="Lavnnjetgielas" />
		<tag k="name:se" v="Lavnnjetgielas" />
		<tag k="natural" v="hill" />
		<tag k="old_name:se" v="Lavnjetgielas" />
		<tag k="place" v="locality" />
		<tag k="ssr:stedsnr" v="627936" />
	</node>
	<node id="-792921" lat="70.5568777831" lon="24.626630416">
		<tag k="fixme" v="consider natural=peak for the most distinct mountains in the district" />
		<tag k="name" v="Lavnnjetoaivi" />
		<tag k="name:se" v="Lavnnjetoaivi" />
		<tag k="natural" v="hill" />
		<tag k="old_name:se" v="Lavnjetoaivi" />
		<tag k="place" v="locality" />
		<tag k="ssr:stedsnr" v="627900" />
	</node>
	<node id="-792916" lat="70.5662083363" lon="24.1921776625">
		<tag k="fixme" v="consider natural=peak for the most distinct mountains in the district" />
		<tag k="name" v="Buollánluohhoaŋka" />
		<tag k="name:se" v="Buollánluohhoaŋka" />
		<tag k="natural" v="hill" />
		<tag k="old_name:se" v="Buollanluokhoaŋka" />
		<tag k="place" v="locality" />
		<tag k="ssr:stedsnr" v="627809" />
	</node>
	<node id="-792912" lat="70.4550055618" lon="23.8011332391">
		<tag k="fixme" v="consider natural=peak for the most distinct mountains in the district" />
		<tag k="name" v="Kvitnesfjellet" />
		<tag k="natural" v="hill" />
		<tag k="place" v="locality" />
		<tag k="ssr:stedsnr" v="626981" />
	</node>
	<node id="-792910" lat="70.2077250021" lon="24.065658204">
		<tag k="fixme" v="consider natural=peak for the most distinct mountains in the district" />
		<tag k="name" v="Jorehačopma" />
		<tag k="name:se" v="Jorehačopma" />
		<tag k="natural" v="hill" />
		<tag k="old_name:se" v="Jårehačåbma" />
		<tag k="place" v="locality" />
		<tag k="ssr:stedsnr" v="626949" />
	</node>
	<node id="-792909" lat="70.6122861159" lon="24.7115970641">
		<tag k="name" v="Storberget" />
		<tag k="natural" v="hill" />
		<tag k="place" v="locality" />
		<tag k="ssr:stedsnr" v="626908" />
	</node>
	<node id="-792901" lat="70.2696388973" lon="23.9816443252">
		<tag k="fixme" v="consider natural=peak for the most distinct mountains in the district" />
		<tag k="name" v="Roabanjunni" />
		<tag k="name:se" v="Roabanjunni" />
		<tag k="natural" v="hill" />
		<tag k="place" v="locality" />
		<tag k="ssr:stedsnr" v="626830" />
	</node>
	<node id="-792898" lat="70.6285583337" lon="24.2395998891">
		<tag k="name" v="Ivarberget - Ivvárbákti" />
		<tag k="name:no" v="Ivarberget" />
		<tag k="name:se" v="Ivvárbákti" />
		<tag k="natural" v="hill" />
		<tag k="old_name:se" v="Ivvarbakti" />
		<tag k="place" v="locality" />
		<tag k="ssr:stedsnr" v="626778" />
	</node>
	<node id="-792894" lat="70.2745500025" lon="24.148199885">
		<tag k="fixme" v="consider natural=peak for the most distinct mountains in the district" />
		<tag k="name" v="Skadjavárit" />
		<tag k="name:se" v="Skadjavárit" />
		<tag k="natural" v="hill" />
		<tag k="old_name:se" v="Skaddjavarit;Skaddjavárit" />
		<tag k="place" v="locality" />
		<tag k="ssr:stedsnr" v="626734" />
	</node>
	<node id="-792891" lat="70.4301305631" lon="24.5665970715">
		<tag k="name" v="Skaididalen - Skáiddajohávži" />
		<tag k="name:no" v="Skaididalen" />
		<tag k="name:se" v="Skáiddajohávži" />
		<tag k="natural" v="valley" />
		<tag k="old_name:se" v="Skaidajåkavži;Skáiddejohkávži" />
		<tag k="place" v="locality" />
		<tag k="ssr:stedsnr" v="626666" />
	</node>
	<node id="-792886" lat="70.5651500019" lon="23.7689888031">
		<tag k="name" v="Guohcahárji" />
		<tag k="name:se" v="Guohcahárji" />
		<tag k="natural" v="hill" />
		<tag k="old_name:se" v="Guoccaharji" />
		<tag k="place" v="locality" />
		<tag k="ssr:stedsnr" v="626211" />
	</node>
	<node id="-792881" lat="70.3185222295" lon="24.1698026542">
		<tag k="fixme" v="consider natural=peak for the most distinct mountains in the district" />
		<tag k="name" v="Repparfjordfjellet - Áisaroaivi" />
		<tag k="name:no" v="Repparfjordfjellet" />
		<tag k="name:se" v="Áisaroaivi" />
		<tag k="natural" v="hill" />
		<tag k="old_name:se" v="Aisaroaivi" />
		<tag k="place" v="locality" />
		<tag k="ssr:stedsnr" v="625669" />
	</node>
	<node id="-792880" lat="70.3083222281" lon="24.2652443201">
		<tag k="fixme" v="consider natural=peak for the most distinct mountains in the district" />
		<tag k="name" v="Ráhpesvárri" />
		<tag k="name:se" v="Ráhpesvárri" />
		<tag k="natural" v="hill" />
		<tag k="old_name:se" v="Rappesvarri" />
		<tag k="place" v="locality" />
		<tag k="ssr:stedsnr" v="625650" />
	</node>
	<node id="-792878" lat="70.135222227" lon="24.1078415337">
		<tag k="fixme" v="consider natural=peak for the most distinct mountains in the district" />
		<tag k="name" v="Hávskesoaivi" />
		<tag k="name:se" v="Hávskesoaivi" />
		<tag k="natural" v="hill" />
		<tag k="old_name:se" v="Havskesoaivi" />
		<tag k="place" v="locality" />
		<tag k="ssr:stedsnr" v="625016" />
	</node>
	<node id="-792872" lat="70.4347694447" lon="23.8249248889">
		<tag k="name" v="Skaret" />
		<tag k="natural" v="valley" />
		<tag k="place" v="locality" />
		<tag k="ssr:stedsnr" v="578159" />
	</node>
	<node id="-792870" lat="70.6342944508" lon="24.764683174">
		<tag k="fixme" v="consider natural=peak for the most distinct mountains in the district" />
		<tag k="name" v="Njukčunskáidi" />
		<tag k="name:se" v="Njukčunskáidi" />
		<tag k="natural" v="hill" />
		<tag k="place" v="locality" />
		<tag k="ssr:stedsnr" v="578146" />
	</node>
	<node id="-792868" lat="70.5855805644" lon="24.6415804065">
		<tag k="name" v="Suossavággi" />
		<tag k="name:se" v="Suossavággi" />
		<tag k="natural" v="valley" />
		<tag k="place" v="locality" />
		<tag k="ssr:stedsnr" v="578119" />
	</node>
	<node id="-792863" lat="70.3914722252" lon="23.5960999167">
		<tag k="name" v="Njárggačohkka" />
		<tag k="name:se" v="Njárggačohkka" />
		<tag k="natural" v="hill" />
		<tag k="place" v="locality" />
		<tag k="ssr:stedsnr" v="574950" />
	</node>
	<node id="-792859" lat="70.4293500051" lon="23.7756387888">
		<tag k="name" v="Náivuonvággi" />
		<tag k="name:se" v="Náivuonvággi" />
		<tag k="natural" v="valley" />
		<tag k="old_name:se" v="Naivuonvaggi" />
		<tag k="place" v="locality" />
		<tag k="ssr:stedsnr" v="566967" />
	</node>
	<node id="-792858" lat="70.4448305576" lon="23.5947221286">
		<tag k="name" v="Bákteleakvággi" />
		<tag k="name:se" v="Bákteleakvággi" />
		<tag k="natural" v="valley" />
		<tag k="old_name:se" v="Baktelækvaggi" />
		<tag k="place" v="locality" />
		<tag k="ssr:stedsnr" v="566966" />
	</node>
	<node id="-792854" lat="70.4746861137" lon="23.8750221263">
		<tag k="name" v="Čáhcebákvággi" />
		<tag k="name:se" v="Čáhcebákvággi" />
		<tag k="natural" v="valley" />
		<tag k="old_name:se" v="Čaccelbakvaggi" />
		<tag k="place" v="locality" />
		<tag k="ssr:stedsnr" v="566944" />
	</node>
	<node id="-792851" lat="70.5844111148" lon="24.6419109673">
		<tag k="name" v="Várdánčohkka" />
		<tag k="name:se" v="Várdánčohkka" />
		<tag k="natural" v="hill" />
		<tag k="old_name:se" v="Vardančåkka" />
		<tag k="place" v="locality" />
		<tag k="ssr:stedsnr" v="566899" />
	</node>
	<node id="-792850" lat="70.4808861101" lon="24.0184304452">
		<tag k="fixme" v="consider natural=peak for the most distinct mountains in the district" />
		<tag k="name" v="Halsevasshøgda" />
		<tag k="natural" v="hill" />
		<tag k="place" v="locality" />
		<tag k="ssr:stedsnr" v="566851" />
	</node>
	<node id="-792842" lat="70.5633250013" lon="24.01795823">
		<tag k="name" v="Monsneshaugen" />
		<tag k="natural" v="hill" />
		<tag k="place" v="locality" />
		<tag k="ssr:stedsnr" v="566815" />
	</node>
	<node id="-792839" lat="70.5509805649" lon="24.5675054053">
		<tag k="name" v="Goavkávži" />
		<tag k="name:se" v="Goavkávži" />
		<tag k="natural" v="valley" />
		<tag k="old_name:se" v="Goavkavži;Goavkávši" />
		<tag k="place" v="locality" />
		<tag k="ssr:stedsnr" v="566799" />
	</node>
	<node id="-792838" lat="70.5345444531" lon="24.5589331882">
		<tag k="fixme" v="consider natural=peak for the most distinct mountains in the district" />
		<tag k="name" v="Goavkoaivi" />
		<tag k="name:se" v="Goavkoaivi" />
		<tag k="natural" v="hill" />
		<tag k="place" v="locality" />
		<tag k="ssr:stedsnr" v="566789" />
	</node>
	<node id="-792834" lat="70.6075888933" lon="24.4357804343">
		<tag k="fixme" v="consider natural=peak for the most distinct mountains in the district" />
		<tag k="name" v="Sivlejohrášša" />
		<tag k="name:se" v="Sivlejohrášša" />
		<tag k="natural" v="hill" />
		<tag k="old_name:se" v="Sivlejåkrašša;Sivlejotrášša" />
		<tag k="place" v="locality" />
		<tag k="ssr:stedsnr" v="566760" />
	</node>
	<node id="-792830" lat="70.5625444489" lon="23.9562776777">
		<tag k="fixme" v="consider natural=peak for the most distinct mountains in the district" />
		<tag k="name" v="Gálbbefierranoaivi" />
		<tag k="name:se" v="Gálbbefierranoaivi" />
		<tag k="natural" v="hill" />
		<tag k="old_name:se" v="Galbefierranoaivi" />
		<tag k="place" v="locality" />
		<tag k="ssr:stedsnr" v="566206" />
	</node>
	<node id="-792824" lat="70.1568055584" lon="24.1423054176">
		<tag k="fixme" v="consider natural=peak for the most distinct mountains in the district" />
		<tag k="name" v="Oivoščopma" />
		<tag k="name:se" v="Oivoščopma" />
		<tag k="natural" v="hill" />
		<tag k="old_name:se" v="Åivuščåbma" />
		<tag k="place" v="locality" />
		<tag k="ssr:stedsnr" v="565963" />
	</node>
	<node id="-792820" lat="70.4568000008" lon="24.538885973">
		<tag k="fixme" v="consider natural=peak for the most distinct mountains in the district" />
		<tag k="name" v="Čiŋkačohkat" />
		<tag k="name:se" v="Čiŋkačohkat" />
		<tag k="natural" v="hill" />
		<tag k="old_name:se" v="Čiŋkačåkkat" />
		<tag k="place" v="locality" />
		<tag k="ssr:stedsnr" v="565871" />
	</node>
	<node id="-792816" lat="70.3551111121" lon="23.7475221244">
		<tag k="fixme" v="consider natural=peak for the most distinct mountains in the district" />
		<tag k="name" v="Gihtaidrášša" />
		<tag k="name:se" v="Gihtaidrášša" />
		<tag k="natural" v="hill" />
		<tag k="old_name:se" v="Gittaidrašša" />
		<tag k="place" v="locality" />
		<tag k="ssr:stedsnr" v="565787" />
	</node>
	<node id="-792812" lat="70.3455444473" lon="24.2615220921">
		<tag k="name" v="Breidalen - Govdavággi" />
		<tag k="name:no" v="Breidalen" />
		<tag k="name:se" v="Govdavággi" />
		<tag k="natural" v="valley" />
		<tag k="old_name:se" v="Gavdavaggi" />
		<tag k="place" v="locality" />
		<tag k="ssr:stedsnr" v="565683" />
	</node>
	<node id="-792810" lat="70.3192083372" lon="24.0573832281">
		<tag k="name" v="Gaskavággi" />
		<tag k="name:se" v="Gaskavággi" />
		<tag k="natural" v="valley" />
		<tag k="old_name:se" v="Gaskavaggi" />
		<tag k="place" v="locality" />
		<tag k="ssr:stedsnr" v="565679" />
	</node>
	<node id="-792809" lat="70.3325222257" lon="24.296874855">
		<tag k="name" v="Trangdalen" />
		<tag k="natural" v="valley" />
		<tag k="place" v="locality" />
		<tag k="ssr:stedsnr" v="565677" />
	</node>
	<node id="-792807" lat="70.3046500091" lon="24.1390498688">
		<tag k="name" v="Båtdalen" />
		<tag k="natural" v="valley" />
		<tag k="place" v="locality" />
		<tag k="ssr:stedsnr" v="565669" />
	</node>
	<node id="-792804" lat="70.4390555561" lon="24.5843637369">
		<tag k="name" v="Guorrovággi" />
		<tag k="name:se" v="Guorrovággi" />
		<tag k="natural" v="valley" />
		<tag k="old_name:se" v="Guorruvaggi" />
		<tag k="place" v="locality" />
		<tag k="ssr:stedsnr" v="565655" />
	</node>
	<node id="-792802" lat="70.3878888946" lon="24.4498137532">
		<tag k="name" v="Dåggeflogan - Doggeráhppát" />
		<tag k="name:no" v="Dåggeflogan" />
		<tag k="name:se" v="Doggeráhppát" />
		<tag k="natural" v="slope" />
		<tag k="place" v="locality" />
		<tag k="ssr:stedsnr" v="565638" />
	</node>
	<node id="-792797" lat="70.4243027756" lon="23.4009082526">
		<tag k="name" v="Reatkavággi" />
		<tag k="name:se" v="Reatkavággi" />
		<tag k="natural" v="valley" />
		<tag k="old_name:se" v="Rætkavaggi" />
		<tag k="place" v="locality" />
		<tag k="ssr:stedsnr" v="565044" />
	</node>
	<node id="-792795" lat="70.5038805615" lon="24.2885054368">
		<tag k="name" v="Erdalsfjellet" />
		<tag k="natural" v="hill" />
		<tag k="place" v="locality" />
		<tag k="ssr:stedsnr" v="533828" />
	</node>
	<node id="-792787" lat="70.5290361132" lon="24.1564471087">
		<tag k="fixme" v="consider natural=peak for the most distinct mountains in the district" />
		<tag k="name" v="Isakbergan" />
		<tag k="natural" v="hill" />
		<tag k="place" v="locality" />
		<tag k="ssr:stedsnr" v="514992" />
	</node>
	<node id="-792786" lat="70.5617527851" lon="24.1299359913">
		<tag k="name" v="Storbakken" />
		<tag k="place" v="locality" />
		<tag k="ssr:stedsnr" v="514980" />
	</node>
	<node id="-792784" lat="70.5452944461" lon="24.1766471133">
		<tag k="name" v="Korstoppan" />
		<tag k="natural" v="hill" />
		<tag k="place" v="locality" />
		<tag k="ssr:stedsnr" v="514959" />
	</node>
	<node id="-792781" lat="70.457163893" lon="24.3369887523">
		<tag k="fixme" v="consider natural=peak for the most distinct mountains in the district" />
		<tag k="name" v="Čuovvárri" />
		<tag k="name:se" v="Čuovvárri" />
		<tag k="natural" v="hill" />
		<tag k="place" v="locality" />
		<tag k="ssr:stedsnr" v="514918" />
	</node>
	<node id="-792776" lat="70.4436527817" lon="24.5458803991">
		<tag k="name" v="Čiŋka" />
		<tag k="name:se" v="Čiŋka" />
		<tag k="natural" v="hill" />
		<tag k="place" v="locality" />
		<tag k="ssr:stedsnr" v="514642" />
	</node>
	<node id="-792775" lat="70.4966388951" lon="23.994091565">
		<tag k="fixme" v="consider natural=peak for the most distinct mountains in the district" />
		<tag k="name" v="Arisfjell" />
		<tag k="natural" v="hill" />
		<tag k="place" v="locality" />
		<tag k="ssr:stedsnr" v="514569" />
	</node>
	<node id="-792773" lat="70.4286000057" lon="23.7349943552">
		<tag k="fixme" v="consider natural=peak for the most distinct mountains in the district" />
		<tag k="name" v="Segelnesfjellet" />
		<tag k="natural" v="hill" />
		<tag k="place" v="locality" />
		<tag k="ssr:stedsnr" v="512000" />
	</node>
	<node id="-792769" lat="70.4109666687" lon="23.4315193725">
		<tag k="name" v="Kásttárvággi" />
		<tag k="name:se" v="Kásttárvággi" />
		<tag k="natural" v="valley" />
		<tag k="old_name:se" v="Kastarvaggi" />
		<tag k="place" v="locality" />
		<tag k="ssr:stedsnr" v="505985" />
	</node>
	<node id="-792767" lat="70.4773583359" lon="23.8965471206">
		<tag k="name" v="Langvassloftan" />
		<tag k="natural" v="slope" />
		<tag k="place" v="locality" />
		<tag k="ssr:stedsnr" v="505954" />
	</node>
	<node id="-792765" lat="70.2053333384" lon="24.2422498565">
		<tag k="fixme" v="consider natural=peak for the most distinct mountains in the district" />
		<tag k="name" v="Jorbavárri" />
		<tag k="name:se" v="Jorbavárri" />
		<tag k="natural" v="hill" />
		<tag k="old_name:se" v="Jårbavarri" />
		<tag k="place" v="locality" />
		<tag k="ssr:stedsnr" v="505935" />
	</node>
	<node id="-792763" lat="70.2134222243" lon="24.184149883">
		<tag k="fixme" v="consider natural=peak for the most distinct mountains in the district" />
		<tag k="name" v="Gáhččalanbuolža" />
		<tag k="name:se" v="Gáhččalanbuolža" />
		<tag k="natural" v="hill" />
		<tag k="old_name:se" v="Gaččalanbuolža" />
		<tag k="place" v="locality" />
		<tag k="ssr:stedsnr" v="505921" />
	</node>
	<node id="-792762" lat="70.6102694463" lon="24.8524665047">
		<tag k="fixme" v="consider natural=peak for the most distinct mountains in the district" />
		<tag k="name" v="Duolboaivi" />
		<tag k="name:se" v="Duolboaivi" />
		<tag k="natural" v="hill" />
		<tag k="place" v="locality" />
		<tag k="ssr:stedsnr" v="505893" />
	</node>
	<node id="-792760" lat="70.5825027811" lon="24.6259887467">
		<tag k="name" v="Kokelvdalen - Goavkejohvággi" />
		<tag k="name:no" v="Kokelvdalen" />
		<tag k="name:se" v="Goavkejohvággi" />
		<tag k="natural" v="valley" />
		<tag k="old_name:se" v="Goavkejåkvaggi" />
		<tag k="place" v="locality" />
		<tag k="ssr:stedsnr" v="505870" />
	</node>
	<node id="-792757" lat="70.6434527794" lon="24.6861442942">
		<tag k="name" v="Kråkeberget - Gáranasčohkat" />
		<tag k="name:no" v="Kråkeberget" />
		<tag k="name:se" v="Gáranasčohkat" />
		<tag k="natural" v="hill" />
		<tag k="old_name:se" v="Garanasčåkkat" />
		<tag k="place" v="locality" />
		<tag k="ssr:stedsnr" v="505852" />
	</node>
	<node id="-792756" lat="70.4692055588" lon="24.4748776506">
		<tag k="name" v="Fállebákti" />
		<tag k="name:se" v="Fállebákti" />
		<tag k="natural" v="hill" />
		<tag k="place" v="locality" />
		<tag k="ssr:stedsnr" v="505850" />
	</node>
	<node id="-792755" lat="70.4633305638" lon="24.1597998728">
		<tag k="fixme" v="consider natural=peak for the most distinct mountains in the district" />
		<tag k="name" v="Svartfjellet" />
		<tag k="natural" v="hill" />
		<tag k="place" v="locality" />
		<tag k="ssr:stedsnr" v="505848" />
	</node>
	<node id="-792752" lat="70.4776487543" lon="24.1273347203">
		<tag k="fixme" v="consider natural=peak for the most distinct mountains in the district" />
		<tag k="name" v="Perfjell - Gurbeščohkat" />
		<tag k="name:no" v="Perfjell" />
		<tag k="name:se" v="Gurbeščohkat" />
		<tag k="natural" v="hill" />
		<tag k="old_name:se" v="Gurbeščåkkat" />
		<tag k="place" v="locality" />
		<tag k="ssr:stedsnr" v="505838" />
	</node>
	<node id="-792746" lat="70.5673361156" lon="24.2243415567">
		<tag k="fixme" v="consider natural=peak for the most distinct mountains in the district" />
		<tag k="name" v="Njoammelrášša" />
		<tag k="name:se" v="Njoammelrášša" />
		<tag k="natural" v="hill" />
		<tag k="old_name:se" v="Njoammelrašša" />
		<tag k="place" v="locality" />
		<tag k="ssr:stedsnr" v="505804" />
	</node>
	<node id="-792745" lat="70.3151472248" lon="23.9565498997">
		<tag k="name" v="Iselvdalen - Geaidnovággi" />
		<tag k="name:no" v="Iselvdalen" />
		<tag k="name:se" v="Geaidnovággi" />
		<tag k="natural" v="valley" />
		<tag k="old_name:se" v="Gæidnuvaggi" />
		<tag k="place" v="locality" />
		<tag k="ssr:stedsnr" v="505792" />
	</node>
	<node id="-792737" lat="70.3723416742" lon="24.4865137452">
		<tag k="fixme" v="consider natural=peak for the most distinct mountains in the district" />
		<tag k="name" v="Oaivvoščopma" />
		<tag k="name:se" v="Oaivvoščopma" />
		<tag k="natural" v="hill" />
		<tag k="old_name:se" v="Oaivuščåbma" />
		<tag k="place" v="locality" />
		<tag k="ssr:stedsnr" v="505700" />
	</node>
	<node id="-792736" lat="70.3549694486" lon="24.28113597">
		<tag k="fixme" v="consider natural=peak for the most distinct mountains in the district" />
		<tag k="name" v="Breidalsfjellet - Allavárri" />
		<tag k="name:no" v="Breidalsfjellet" />
		<tag k="name:se" v="Allavárri" />
		<tag k="natural" v="hill" />
		<tag k="old_name:se" v="Allavarri" />
		<tag k="place" v="locality" />
		<tag k="ssr:stedsnr" v="505699" />
	</node>
	<node id="-792733" lat="70.5749138948" lon="23.9906110078">
		<tag k="fixme" v="multiple name tags, choose one and add the other to alt_name; consider natural=peak for the most distinct mountains in the district" />
		<tag k="name" v="Kollfjellet;Torskefjellet;Torskefjordfjellet - Govččá" />
		<tag k="name:no" v="Kollfjellet;Torskefjellet;Torskefjordfjellet" />
		<tag k="name:se" v="Govččá" />
		<tag k="natural" v="hill" />
		<tag k="old_name:se" v="Gåvča;Govčča" />
		<tag k="place" v="locality" />
		<tag k="ssr:stedsnr" v="505247" />
	</node>
	<node id="-792731" lat="70.6568027764" lon="24.3063054376">
		<tag k="name" v="Čielgohvággi" />
		<tag k="name:se" v="Čielgohvággi" />
		<tag k="natural" v="valley" />
		<tag k="old_name:se" v="Čielgåpvaggi" />
		<tag k="place" v="locality" />
		<tag k="ssr:stedsnr" v="505155" />
	</node>
	<node id="-792730" lat="70.6404388954" lon="24.0473415484">
		<tag k="fixme" v="consider natural=peak for the most distinct mountains in the district" />
		<tag k="name" v="Gråkammen" />
		<tag k="natural" v="hill" />
		<tag k="place" v="locality" />
		<tag k="ssr:stedsnr" v="505151" />
	</node>
	<node id="-792729" lat="70.6470638959" lon="24.3331054434">
		<tag k="fixme" v="consider natural=peak for the most distinct mountains in the district" />
		<tag k="name" v="Čáhppesbákti" />
		<tag k="name:se" v="Čáhppesbákti" />
		<tag k="natural" v="hill" />
		<tag k="old_name:se" v="Čappesbakti" />
		<tag k="place" v="locality" />
		<tag k="ssr:stedsnr" v="505148" />
	</node>
	<node id="-792726" lat="70.6756250012" lon="24.2860221094">
		<tag k="fixme" v="consider natural=peak for the most distinct mountains in the district" />
		<tag k="name" v="Teistfjellet - Čielkabákti" />
		<tag k="name:no" v="Teistfjellet" />
		<tag k="name:se" v="Čielkabákti" />
		<tag k="natural" v="hill" />
		<tag k="old_name:se" v="Čielkabakti" />
		<tag k="place" v="locality" />
		<tag k="ssr:stedsnr" v="505137" />
	</node>
	<node id="-792723" lat="70.1205694521" lon="23.9650082064">
		<tag k="fixme" v="consider natural=peak for the most distinct mountains in the district" />
		<tag k="name" v="Unna Návggastat" />
		<tag k="name:se" v="Unna Návggastat" />
		<tag k="natural" v="hill" />
		<tag k="place" v="locality" />
		<tag k="ssr:stedsnr" v="504918" />
	</node>
	<node id="-792721" lat="70.3368361131" lon="24.4935526175">
		<tag k="fixme" v="consider natural=peak for the most distinct mountains in the district" />
		<tag k="name" v="Muvravárri" />
		<tag k="name:se" v="Muvravárri" />
		<tag k="natural" v="hill" />
		<tag k="old_name:se" v="Muvravarri" />
		<tag k="place" v="locality" />
		<tag k="ssr:stedsnr" v="504668" />
	</node>
	<node id="-792716" lat="70.4333833326" lon="23.8072887806">
		<tag k="name" v="Arondalen" />
		<tag k="natural" v="valley" />
		<tag k="place" v="locality" />
		<tag k="ssr:stedsnr" v="457158" />
	</node>
	<node id="-792715" lat="70.576900004" lon="24.5519998526">
		<tag k="name" v="Lamjjetvággi" />
		<tag k="name:se" v="Lamjjetvággi" />
		<tag k="natural" v="valley" />
		<tag k="place" v="locality" />
		<tag k="ssr:stedsnr" v="457129" />
	</node>
	<node id="-792710" lat="70.532125003" lon="24.1209415449">
		<tag k="name" v="Ørnehaugen - Gokkodaura" />
		<tag k="name:fkv" v="Gokkodaura" />
		<tag k="name:no" v="Ørnehaugen" />
		<tag k="natural" v="hill" />
		<tag k="place" v="locality" />
		<tag k="ssr:stedsnr" v="453961" />
	</node>
	<node id="-792708" lat="70.5004833377" lon="24.2696943289">
		<tag k="name" v="Slobobergan" />
		<tag k="natural" v="hill" />
		<tag k="place" v="locality" />
		<tag k="ssr:stedsnr" v="453903" />
	</node>
	<node id="-792706" lat="70.5043194472" lon="24.0156554392">
		<tag k="name" v="Fribergdalen" />
		<tag k="natural" v="valley" />
		<tag k="place" v="locality" />
		<tag k="ssr:stedsnr" v="453565" />
	</node>
	<node id="-792705" lat="70.2679027841" lon="23.8219693499">
		<tag k="fixme" v="consider natural=peak for the most distinct mountains in the district" />
		<tag k="name" v="Mattistinden - Bártnaščohkka" />
		<tag k="name:no" v="Mattistinden" />
		<tag k="name:se" v="Bártnaščohkka" />
		<tag k="natural" v="hill" />
		<tag k="old_name:se" v="Bardnaščåkka" />
		<tag k="place" v="locality" />
		<tag k="ssr:stedsnr" v="450797" />
	</node>
	<node id="-792704" lat="70.4490861142" lon="23.6028415717">
		<tag k="fixme" v="consider natural=peak for the most distinct mountains in the district" />
		<tag k="name" v="Bákteleakvárri" />
		<tag k="name:se" v="Bákteleakvárri" />
		<tag k="natural" v="hill" />
		<tag k="old_name:se" v="Baktelækvarri" />
		<tag k="place" v="locality" />
		<tag k="ssr:stedsnr" v="445987" />
	</node>
	<node id="-792701" lat="70.4773027809" lon="23.8480387951">
		<tag k="name" v="Čoavddavággi" />
		<tag k="name:se" v="Čoavddavággi" />
		<tag k="natural" v="valley" />
		<tag k="old_name:se" v="Čoavdavaggi" />
		<tag k="place" v="locality" />
		<tag k="ssr:stedsnr" v="445976" />
	</node>
	<node id="-792697" lat="70.5492416732" lon="24.7174109695">
		<tag k="fixme" v="consider natural=peak for the most distinct mountains in the district" />
		<tag k="name" v="Davit Biellogielas" />
		<tag k="name:se" v="Davit Biellogielas" />
		<tag k="natural" v="hill" />
		<tag k="old_name:se" v="Biellugielas, davit" />
		<tag k="place" v="locality" />
		<tag k="ssr:stedsnr" v="445932" />
	</node>
	<node id="-792696" lat="70.5053416693" lon="24.6993581773">
		<tag k="fixme" v="consider natural=peak for the most distinct mountains in the district" />
		<tag k="name" v="Bierffatoaivi" />
		<tag k="name:se" v="Bierffatoaivi" />
		<tag k="natural" v="hill" />
		<tag k="old_name:se" v="Bieerfetoaivi;Bierffetoaivi" />
		<tag k="place" v="locality" />
		<tag k="ssr:stedsnr" v="445924" />
	</node>
	<node id="-792692" lat="70.488872229" lon="24.3620943192">
		<tag k="fixme" v="consider natural=peak for the most distinct mountains in the district" />
		<tag k="name" v="Iisajokrášša" />
		<tag k="name:se" v="Iisajokrášša" />
		<tag k="natural" v="hill" />
		<tag k="old_name:se" v="Iisajåkrašša" />
		<tag k="place" v="locality" />
		<tag k="ssr:stedsnr" v="445848" />
	</node>
	<node id="-792689" lat="70.5035111166" lon="24.3782971018">
		<tag k="name" v="Erdalen - Earnjoasvággi" />
		<tag k="name:no" v="Erdalen" />
		<tag k="name:se" v="Earnjoasvággi" />
		<tag k="natural" v="valley" />
		<tag k="old_name:se" v="Ærnjoasvaggi" />
		<tag k="place" v="locality" />
		<tag k="ssr:stedsnr" v="445839" />
	</node>
	<node id="-792688" lat="70.6526861117" lon="24.3612054156">
		<tag k="fixme" v="consider natural=peak for the most distinct mountains in the district" />
		<tag k="name" v="Unna Njeaiddámaš" />
		<tag k="name:se" v="Unna Njeaiddámaš" />
		<tag k="natural" v="hill" />
		<tag k="old_name:se" v="Njæidamaš, unna" />
		<tag k="place" v="locality" />
		<tag k="ssr:stedsnr" v="445785" />
	</node>
	<node id="-792682" lat="70.610722225" lon="24.0974776639">
		<tag k="fixme" v="consider natural=peak for the most distinct mountains in the district" />
		<tag k="name" v="Kontefjellet" />
		<tag k="natural" v="hill" />
		<tag k="place" v="locality" />
		<tag k="ssr:stedsnr" v="445768" />
	</node>
	<node id="-792680" lat="70.4224805586" lon="24.4474470931">
		<tag k="fixme" v="consider natural=peak for the most distinct mountains in the district" />
		<tag k="name" v="Laššesvárri" />
		<tag k="name:se" v="Laššesvárri" />
		<tag k="natural" v="hill" />
		<tag k="old_name:se" v="Laššesvarri" />
		<tag k="place" v="locality" />
		<tag k="ssr:stedsnr" v="445669" />
	</node>
	<node id="-792678" lat="70.5350750014" lon="23.8750748937">
		<tag k="fixme" v="consider natural=peak for the most distinct mountains in the district" />
		<tag k="name" v="Bálggahat" />
		<tag k="name:se" v="Bálggahat" />
		<tag k="natural" v="hill" />
		<tag k="old_name:se" v="Balgahat" />
		<tag k="place" v="locality" />
		<tag k="ssr:stedsnr" v="445222" />
	</node>
	<node id="-792677" lat="70.5431138878" lon="23.7890387983">
		<tag k="fixme" v="consider natural=peak for the most distinct mountains in the district" />
		<tag k="name" v="Ruovddavárri" />
		<tag k="name:se" v="Ruovddavárri" />
		<tag k="natural" v="hill" />
		<tag k="old_name:se" v="Ruovdavarri" />
		<tag k="place" v="locality" />
		<tag k="ssr:stedsnr" v="445220" />
	</node>
	<node id="-792671" lat="70.1567305624" lon="24.0695748773">
		<tag k="fixme" v="consider natural=peak for the most distinct mountains in the district" />
		<tag k="name" v="Ruššoleakgielas" />
		<tag k="name:se" v="Ruššoleakgielas" />
		<tag k="natural" v="hill" />
		<tag k="old_name:se" v="Ruššulækgielas" />
		<tag k="place" v="locality" />
		<tag k="ssr:stedsnr" v="444960" />
	</node>
	<node id="-792669" lat="70.4639694514" lon="24.4393276297">
		<tag k="fixme" v="consider natural=peak for the most distinct mountains in the district" />
		<tag k="name" v="Bøttafjellet" />
		<tag k="natural" v="hill" />
		<tag k="place" v="locality" />
		<tag k="ssr:stedsnr" v="444875" />
	</node>
	<node id="-792666" lat="70.4750750091" lon="24.5464137357">
		<tag k="fixme" v="consider natural=peak for the most distinct mountains in the district" />
		<tag k="name" v="Stuora Čiŋká" />
		<tag k="name:se" v="Stuora Čiŋká" />
		<tag k="natural" v="hill" />
		<tag k="old_name:se" v="Čiŋka, stuora" />
		<tag k="place" v="locality" />
		<tag k="ssr:stedsnr" v="444863" />
	</node>
	<node id="-792662" lat="70.2692166713" lon="24.0338193347">
		<tag k="name" v="Småhaugane" />
		<tag k="natural" v="hill" />
		<tag k="place" v="locality" />
		<tag k="ssr:stedsnr" v="444696" />
	</node>
	<node id="-792661" lat="70.2678138977" lon="24.1404720909">
		<tag k="name" v="Goahtečohkka" />
		<tag k="name:se" v="Goahtečohkka" />
		<tag k="natural" v="hill" />
		<tag k="old_name:se" v="Goattečåkka" />
		<tag k="place" v="locality" />
		<tag k="ssr:stedsnr" v="444695" />
	</node>
	<node id="-792660" lat="70.2634750059" lon="24.1852609819">
		<tag k="fixme" v="consider natural=peak for the most distinct mountains in the district" />
		<tag k="name" v="Lulimus Skadjavárri" />
		<tag k="name:se" v="Lulimus Skadjavárri" />
		<tag k="natural" v="hill" />
		<tag k="old_name:se" v="Skaddjavarri, lulimus" />
		<tag k="place" v="locality" />
		<tag k="ssr:stedsnr" v="444692" />
	</node>
	<node id="-792659" lat="70.3627527855" lon="24.4098637594">
		<tag k="fixme" v="consider natural=peak for the most distinct mountains in the district" />
		<tag k="name" v="Guovžavárri" />
		<tag k="name:se" v="Guovžavárri" />
		<tag k="natural" v="hill" />
		<tag k="old_name:se" v="Guovžavarri" />
		<tag k="place" v="locality" />
		<tag k="ssr:stedsnr" v="444676" />
	</node>
	<node id="-792658" lat="70.3525361158" lon="24.1026359949">
		<tag k="fixme" v="consider natural=peak for the most distinct mountains in the district" />
		<tag k="name" v="Vilgesgeađggerášša" />
		<tag k="name:se" v="Vilgesgeađggerášša" />
		<tag k="natural" v="hill" />
		<tag k="old_name:se" v="Vilgesgæđgerašša" />
		<tag k="place" v="locality" />
		<tag k="ssr:stedsnr" v="444671" />
	</node>
	<node id="-792655" lat="70.3085638965" lon="24.3487054174">
		<tag k="fixme" v="consider natural=peak for the most distinct mountains in the district" />
		<tag k="name" v="Ráhpesvárgeahči" />
		<tag k="name:se" v="Ráhpesvárgeahči" />
		<tag k="natural" v="hill" />
		<tag k="old_name:se" v="Reppesvargæčči" />
		<tag k="place" v="locality" />
		<tag k="ssr:stedsnr" v="444644" />
	</node>
	<node id="-792652" lat="70.6413527804" lon="24.245119334">
		<tag k="fixme" v="consider natural=peak for the most distinct mountains in the district" />
		<tag k="name" v="Kråkefjella - Guommačohkat" />
		<tag k="name:no" v="Kråkefjella" />
		<tag k="name:se" v="Guommačohkat" />
		<tag k="natural" v="hill" />
		<tag k="old_name:se" v="Guommačåkkat" />
		<tag k="place" v="locality" />
		<tag k="ssr:stedsnr" v="444143" />
	</node>
	<node id="-792651" lat="70.6841277829" lon="24.307613762">
		<tag k="fixme" v="consider natural=peak for the most distinct mountains in the district" />
		<tag k="name" v="Ango - Ákŋu" />
		<tag k="name:no" v="Ango" />
		<tag k="name:se" v="Ákŋu" />
		<tag k="natural" v="hill" />
		<tag k="old_name:se" v="Agŋo" />
		<tag k="place" v="locality" />
		<tag k="ssr:stedsnr" v="444129" />
	</node>
	<node id="-792642" lat="70.4558138937" lon="23.5139137978">
		<tag k="name" v="Ruollavággi" />
		<tag k="name:se" v="Ruollavággi" />
		<tag k="natural" v="valley" />
		<tag k="old_name:se" v="Ruollavaggi" />
		<tag k="place" v="locality" />
		<tag k="ssr:stedsnr" v="263958" />
	</node>
	<node id="-792641" lat="70.5437611193" lon="24.80308874">
		<tag k="alt_name:se" v="Miesseoaivi" />
		<tag k="fixme" v="consider natural=peak for the most distinct mountains in the district" />
		<tag k="name" v="Davit Miessoaivi" />
		<tag k="name:se" v="Davit Miessoaivi" />
		<tag k="natural" v="hill" />
		<tag k="old_name:se" v="Miessoaivi, davit" />
		<tag k="place" v="locality" />
		<tag k="ssr:stedsnr" v="263931" />
	</node>
	<node id="-792640" lat="70.5107305568" lon="24.6318942818">
		<tag k="fixme" v="consider natural=peak for the most distinct mountains in the district" />
		<tag k="name" v="Bielločohkka" />
		<tag k="name:se" v="Bielločohkka" />
		<tag k="natural" v="hill" />
		<tag k="old_name:se" v="Biellučåkka" />
		<tag k="place" v="locality" />
		<tag k="ssr:stedsnr" v="263923" />
	</node>
	<node id="-792638" lat="70.574994446" lon="24.830469288">
		<tag k="name" v="Russelvdalen - Ruoššavággi" />
		<tag k="name:no" v="Russelvdalen" />
		<tag k="name:se" v="Ruoššavággi" />
		<tag k="natural" v="valley" />
		<tag k="old_name:se" v="Ruoššavaggi" />
		<tag k="place" v="locality" />
		<tag k="ssr:stedsnr" v="263901" />
	</node>
	<node id="-792637" lat="70.5760861197" lon="24.8942081729">
		<tag k="fixme" v="consider natural=peak for the most distinct mountains in the district" />
		<tag k="name" v="Oarječohkka" />
		<tag k="name:se" v="Oarječohkka" />
		<tag k="natural" v="hill" />
		<tag k="old_name:se" v="Oarječåkka" />
		<tag k="place" v="locality" />
		<tag k="ssr:stedsnr" v="263899" />
	</node>
	<node id="-792636" lat="70.5761944479" lon="24.857569291">
		<tag k="fixme" v="consider natural=peak for the most distinct mountains in the district" />
		<tag k="name" v="Oarjedievvá" />
		<tag k="name:se" v="Oarjedievvá" />
		<tag k="natural" v="hill" />
		<tag k="old_name:se" v="Oarjedievva" />
		<tag k="place" v="locality" />
		<tag k="ssr:stedsnr" v="263898" />
	</node>
	<node id="-792635" lat="70.5891583365" lon="24.6628442987">
		<tag k="name" v="Guohcavággi" />
		<tag k="name:se" v="Guohcavággi" />
		<tag k="natural" v="valley" />
		<tag k="old_name:se" v="Guoccavaggi" />
		<tag k="place" v="locality" />
		<tag k="ssr:stedsnr" v="263889" />
	</node>
	<node id="-792633" lat="70.6508944508" lon="24.68273042">
		<tag k="name" v="Vassberget" />
		<tag k="natural" v="hill" />
		<tag k="place" v="locality" />
		<tag k="ssr:stedsnr" v="263870" />
	</node>
	<node id="-792629" lat="70.5996138914" lon="24.5103359721">
		<tag k="fixme" v="consider natural=peak for the most distinct mountains in the district" />
		<tag k="name" v="Doggečohkka" />
		<tag k="name:se" v="Doggečohkka" />
		<tag k="natural" v="hill" />
		<tag k="old_name:se" v="Dåggečåkka" />
		<tag k="place" v="locality" />
		<tag k="ssr:stedsnr" v="263814" />
	</node>
	<node id="-792628" lat="70.2825972263" lon="23.9399415471">
		<tag k="name" v="Sievjogeinnodatvággi" />
		<tag k="name:se" v="Sievjogeinnodatvággi" />
		<tag k="natural" v="valley" />
		<tag k="old_name:se" v="Sievjugeinudatvaggi" />
		<tag k="place" v="locality" />
		<tag k="ssr:stedsnr" v="263810" />
	</node>
	<node id="-792612" lat="70.479866672" lon="24.3962859788">
		<tag k="fixme" v="consider natural=peak for the most distinct mountains in the district" />
		<tag k="name" v="Čuovvárri" />
		<tag k="name:se" v="Čuovvárri" />
		<tag k="natural" v="hill" />
		<tag k="old_name:se" v="Čuovvarri" />
		<tag k="place" v="locality" />
		<tag k="ssr:stedsnr" v="262876" />
	</node>
	<node id="-792605" lat="70.2721222253" lon="24.360916522">
		<tag k="name" v="Lásotgorsa" />
		<tag k="name:se" v="Lásotgorsa" />
		<tag k="natural" v="valley" />
		<tag k="old_name:se" v="Lasutgårsa" />
		<tag k="place" v="locality" />
		<tag k="ssr:stedsnr" v="262736" />
	</node>
	<node id="-792604" lat="70.2578583379" lon="24.3880470809">
		<tag k="fixme" v="consider natural=peak for the most distinct mountains in the district" />
		<tag k="name" v="Goahtemuorgielas" />
		<tag k="name:se" v="Goahtemuorgielas" />
		<tag k="natural" v="hill" />
		<tag k="old_name:se" v="Goattemuorgielas" />
		<tag k="place" v="locality" />
		<tag k="ssr:stedsnr" v="262722" />
	</node>
	<node id="-792601" lat="70.2985750058" lon="24.0974748711">
		<tag k="name" v="Mikkeldalen" />
		<tag k="natural" v="valley" />
		<tag k="place" v="locality" />
		<tag k="ssr:stedsnr" v="262667" />
	</node>
	<node id="-792599" lat="70.44029445" lon="24.5155748716">
		<tag k="name" v="Hofsethhøgda" />
		<tag k="natural" v="hill" />
		<tag k="place" v="locality" />
		<tag k="ssr:stedsnr" v="262653" />
	</node>
	<node id="-792582" lat="70.5425138911" lon="24.1317582066">
		<tag k="name" v="Buktahalsen" />
		<tag k="natural" v="hill" />
		<tag k="place" v="locality" />
		<tag k="ssr:stedsnr" v="211958" />
	</node>
	<node id="-792580" lat="70.3763833355" lon="23.5689415622">
		<tag k="fixme" v="consider natural=peak for the most distinct mountains in the district" />
		<tag k="name" v="Gárggovárri" />
		<tag k="name:se" v="Gárggovárri" />
		<tag k="natural" v="hill" />
		<tag k="place" v="locality" />
		<tag k="ssr:stedsnr" v="211919" />
	</node>
	<node id="-792577" lat="70.5106750039" lon="23.8250804535">
		<tag k="name" v="Volla" />
		<tag k="place" v="locality" />
		<tag k="ssr:stedsnr" v="211587" />
	</node>
</osm>
