<?xml version="1.0" encoding="UTF-8"?>
<osm generator="osmapis" version="0.6">
	<node id="-152928" lat="60.5908609473" lon="9.63819281559">
		<tag k="fixme" v="multiple name tags, choose one and add the other to alt_name" />
		<tag k="name" v="Austlandet;Østlandet" />
		<tag k="ssr:date" v="2018-01-09" />
		<tag k="ssr:gruppe" v="administrativeIndelinger" />
		<tag k="ssr:hovedgruppe" v="offentligAdministrasjon" />
		<tag k="ssr:stedsnr" v="974775" />
		<tag k="ssr:type" v="annenAdministrativInndeling" />
	</node>
	<node id="-152151" lat="61.0884194467" lon="8.98197222166">
		<tag k="name" v="Vestre Slidre kommune" />
		<tag k="ssr:date" v="2016-05-10" />
		<tag k="ssr:gruppe" v="administrativeIndelinger" />
		<tag k="ssr:hovedgruppe" v="offentligAdministrasjon" />
		<tag k="ssr:stedsnr" v="147475" />
		<tag k="ssr:type" v="kommune" />
	</node>
	<node id="-151958" lat="61.0732322086" lon="8.98608298255">
		<tag k="name" v="Geiteskallin" />
		<tag k="ssr:date" v="2019-05-30" />
		<tag k="ssr:gruppe" v="veg" />
		<tag k="ssr:hovedgruppe" v="infrastruktur" />
		<tag k="ssr:stedsnr" v="1016408" />
		<tag k="ssr:type" v="adressenavn" />
	</node>
	<node id="-151957" lat="60.9882528245" lon="8.97337328299">
		<tag k="name" v="Vasetlia grendehytter" />
		<tag k="ssr:date" v="2019-05-30" />
		<tag k="ssr:gruppe" v="veg" />
		<tag k="ssr:hovedgruppe" v="infrastruktur" />
		<tag k="ssr:stedsnr" v="1016399" />
		<tag k="ssr:type" v="adressenavn" />
	</node>
	<node id="-151956" lat="61.0530803737" lon="8.9007241442">
		<tag k="name" v="Briskehaugen" />
		<tag k="ssr:date" v="2019-05-30" />
		<tag k="ssr:gruppe" v="veg" />
		<tag k="ssr:hovedgruppe" v="infrastruktur" />
		<tag k="ssr:stedsnr" v="1016233" />
		<tag k="ssr:type" v="adressenavn" />
	</node>
	<node id="-151955" lat="61.0423878254" lon="8.94056586751">
		<tag k="name" v="Hagastigen" />
		<tag k="ssr:date" v="2019-05-30" />
		<tag k="ssr:gruppe" v="veg" />
		<tag k="ssr:hovedgruppe" v="infrastruktur" />
		<tag k="ssr:stedsnr" v="1016212" />
		<tag k="ssr:type" v="adressenavn" />
	</node>
	<node id="-151959" lat="61.0658306639" lon="8.77870984269">
		<tag k="name" v="Øvre Ristestølvegen" />
		<tag k="ssr:date" v="2019-05-30" />
		<tag k="ssr:gruppe" v="veg" />
		<tag k="ssr:hovedgruppe" v="infrastruktur" />
		<tag k="ssr:stedsnr" v="1016418" />
		<tag k="ssr:type" v="adressenavn" />
	</node>
</osm>
