<?xml version="1.0" encoding="UTF-8"?>
<osm generator="osmapis" version="0.6">
	<node id="-798720" lat="70.308400006" lon="25.4679219974">
		<tag k="name" v="Heastanjárga - Hestnes - Hesteniemi" />
		<tag k="name:fkv" v="Hesteniemi" />
		<tag k="name:no" v="Hestnes" />
		<tag k="name:se" v="Heastanjárga" />
		<tag k="place" v="hamlet" />
		<tag k="ssr:stedsnr" v="264906" />
	</node>
	<node id="-798715" lat="70.3625277866" lon="25.4714247614">
		<tag k="name" v="Čuolovuotna - Holmfjord - Suoluvuono" />
		<tag k="name:fkv" v="Suoluvuono" />
		<tag k="name:no" v="Holmfjord" />
		<tag k="name:se" v="Čuolovuotna" />
		<tag k="place" v="hamlet" />
		<tag k="ssr:stedsnr" v="263936" />
	</node>
	<node id="-799224" lat="69.8326694514" lon="25.0709914638">
		<tag k="name" v="Veines" />
		<tag k="name:no" v="Veines" />
		<tag k="place" v="farm" />
		<tag k="ssr:stedsnr" v="565523" />
	</node>
	<node id="-797686" lat="70.4516361129" lon="25.2198136898">
		<tag k="name" v="Myreng" />
		<tag k="name:no" v="Myreng" />
		<tag k="place" v="farm" />
		<tag k="ssr:stedsnr" v="473748" />
	</node>
	<node id="-797685" lat="70.1791047128" lon="24.8743898255">
		<tag k="name" v="Solbakken" />
		<tag k="name:no" v="Solbakken" />
		<tag k="place" v="isolated_dwelling" />
		<tag k="ssr:stedsnr" v="504082" />
	</node>
	<node id="-797684" lat="70.0381361207" lon="24.9774886872">
		<tag k="name" v="Storfyllingen" />
		<tag k="name:no" v="Storfyllingen" />
		<tag k="place" v="farm" />
		<tag k="ssr:stedsnr" v="565200" />
	</node>
	<node id="-798707" lat="70.3152750025" lon="25.0877442416">
		<tag k="name" v="Myrbakken" />
		<tag k="name:no" v="Myrbakken" />
		<tag k="place" v="farm" />
		<tag k="ssr:stedsnr" v="263609" />
	</node>
	<node id="-797682" lat="69.8258444507" lon="25.1474608737">
		<tag k="name" v="Øystad" />
		<tag k="name:no" v="Øystad" />
		<tag k="place" v="farm" />
		<tag k="ssr:stedsnr" v="80608" />
	</node>
	<node id="-797681" lat="70.2840888979" lon="25.3128497983">
		<tag k="name" v="Sommersetra - Luoviruto" />
		<tag k="name:fkv" v="Luoviruto" />
		<tag k="name:no" v="Sommersetra" />
		<tag k="place" v="isolated_dwelling" />
		<tag k="ssr:stedsnr" v="747448" />
	</node>
	<node id="-797680" lat="70.47394167" lon="25.1275109157">
		<tag k="name" v="Nordmannshaugen" />
		<tag k="name:no" v="Nordmannshaugen" />
		<tag k="place" v="farm" />
		<tag k="ssr:stedsnr" v="748625" />
	</node>
	<node id="-800239" lat="70.3204805647" lon="25.5637608654">
		<tag k="name" v="Brannengmyr - Palanheenkannonruđonjänkkä" />
		<tag k="name:fkv" v="Palanheenkannonruđonjänkkä" />
		<tag k="name:no" v="Brannengmyr" />
		<tag k="place" v="isolated_dwelling" />
		<tag k="ssr:stedsnr" v="821605" />
	</node>
	<node id="-800237" lat="70.4932833405" lon="25.1355275755">
		<tag k="name" v="Luhkka" />
		<tag k="name:se" v="Luhkka" />
		<tag k="place" v="locality" />
		<tag k="ssr:stedsnr" v="820850" />
	</node>
	<node id="-797676" lat="70.3493216471" lon="25.0613431942">
		<tag k="name" v="Skjellmo" />
		<tag k="name:no" v="Skjellmo" />
		<tag k="place" v="farm" />
		<tag k="ssr:stedsnr" v="1072679" />
	</node>
	<node id="-798187" lat="70.4955027873" lon="25.1064914798">
		<tag k="name" v="Dálvesadji - Gamnes" />
		<tag k="name:no" v="Gamnes" />
		<tag k="name:se" v="Dálvesadji" />
		<tag k="place" v="isolated_dwelling" />
		<tag k="ssr:stedsnr" v="140675" />
	</node>
	<node id="-797673" lat="70.0764962673" lon="24.9237604601">
		<tag k="loc_name:fkv" v="Kallokanniemi" />
		<tag k="loc_name:se" v="Gállotnjárga" />
		<tag k="name" v="Skallenes" />
		<tag k="name:no" v="Skallenes" />
		<tag k="place" v="farm" />
		<tag k="ssr:stedsnr" v="1071916" />
	</node>
	<node id="-798692" lat="70.3463666752" lon="25.0817775965">
		<tag k="name" v="Sommarset" />
		<tag k="name:no" v="Sommarset" />
		<tag k="place" v="isolated_dwelling" />
		<tag k="ssr:stedsnr" v="263554" />
	</node>
	<node id="-799227" lat="69.9728250065" lon="24.9481720144">
		<tag k="name" v="Revfossnes - Repokoski" />
		<tag k="name:fkv" v="Repokoski" />
		<tag k="name:no" v="Revfossnes" />
		<tag k="place" v="farm" />
		<tag k="ssr:stedsnr" v="565534" />
	</node>
	<node id="-798945" lat="70.0512000041" lon="25.0682164503">
		<tag k="name" v="Slettvoll" />
		<tag k="name:no" v="Slettvoll" />
		<tag k="place" v="farm" />
		<tag k="ssr:stedsnr" v="504173" />
	</node>
	<node id="-797660" lat="70.3193361145" lon="25.0479748064">
		<tag k="name" v="Bjørk" />
		<tag k="name:no" v="Bjørk" />
		<tag k="place" v="farm" />
		<tag k="ssr:stedsnr" v="881983" />
	</node>
	<node id="-800374" lat="70.4076777825" lon="25.2332720079">
		<tag k="name" v="Rinjárgohppi - Veinesjorda" />
		<tag k="name:no" v="Veinesjorda" />
		<tag k="name:se" v="Rinjárgohppi" />
		<tag k="place" v="farm" />
		<tag k="ssr:stedsnr" v="870406" />
	</node>
	<node id="-799706" lat="70.4737972321" lon="25.0712970399">
		<tag k="fixme" v="consider place=hamlet" />
		<tag k="name" v="Leaibevuotna - Olderfjord - Leipovuono" />
		<tag k="name:fkv" v="Leipovuono" />
		<tag k="name:no" v="Olderfjord" />
		<tag k="name:se" v="Leaibevuotna" />
		<tag k="place" v="village" />
		<tag k="ssr:stedsnr" v="687756" />
	</node>
	<node id="-799705" lat="70.4741750074" lon="25.0583248176">
		<tag k="name" v="Seljeslett" />
		<tag k="name:no" v="Seljeslett" />
		<tag k="place" v="farm" />
		<tag k="ssr:stedsnr" v="687753" />
	</node>
	<node id="-798680" lat="70.5001000024" lon="25.0628664819">
		<tag k="name" v="Bergstad" />
		<tag k="name:no" v="Bergstad" />
		<tag k="place" v="farm" />
		<tag k="ssr:stedsnr" v="262974" />
	</node>
	<node id="-797655" lat="70.4716833423" lon="25.0602248123">
		<tag k="name" v="Tofta" />
		<tag k="name:no" v="Tofta" />
		<tag k="place" v="farm" />
		<tag k="ssr:stedsnr" v="473700" />
	</node>
	<node id="-797654" lat="69.9894027854" lon="24.9334025886">
		<tag k="name" v="Heimdal" />
		<tag k="name:no" v="Heimdal" />
		<tag k="place" v="farm" />
		<tag k="ssr:stedsnr" v="410233" />
	</node>
	<node id="-799189" lat="70.0427527837" lon="25.0390247844">
		<tag k="name" v="Nyberg" />
		<tag k="name:no" v="Nyberg" />
		<tag k="place" v="farm" />
		<tag k="ssr:stedsnr" v="565238" />
	</node>
	<node id="-799700" lat="70.2897305647" lon="25.0713914856">
		<tag k="name" v="Vonheim" />
		<tag k="name:no" v="Vonheim" />
		<tag k="place" v="farm" />
		<tag k="ssr:stedsnr" v="687625" />
	</node>
	<node id="-799187" lat="70.0366500108" lon="25.108635895">
		<tag k="name" v="Fossestrand - Kurkkionväli" />
		<tag k="name:fkv" v="Kurkkionväli" />
		<tag k="name:no" v="Fossestrand" />
		<tag k="place" v="farm" />
		<tag k="ssr:stedsnr" v="565218" />
	</node>
	<node id="-799185" lat="70.0349888955" lon="24.9163886999">
		<tag k="name" v="Musvannsbakken - Hiirijärvenluokka" />
		<tag k="name:fkv" v="Hiirijärvenluokka" />
		<tag k="name:no" v="Musvannsbakken" />
		<tag k="place" v="farm" />
		<tag k="ssr:stedsnr" v="565203" />
	</node>
	<node id="-799184" lat="70.0340944478" lon="24.9366498111">
		<tag k="name" v="Holmen" />
		<tag k="name:no" v="Holmen" />
		<tag k="place" v="farm" />
		<tag k="ssr:stedsnr" v="565199" />
	</node>
	<node id="-798157" lat="70.2954777878" lon="25.5191219918">
		<tag k="name" v="Veahkir - Vækker - Väkkärä" />
		<tag k="name:fkv" v="Väkkärä" />
		<tag k="name:no" v="Vækker" />
		<tag k="name:se" v="Veahkir" />
		<tag k="place" v="farm" />
		<tag k="ssr:stedsnr" v="140454" />
	</node>
	<node id="-799292" lat="70.3245666728" lon="25.057319253">
		<tag k="name" v="Boahkkogieddi - Koppeng" />
		<tag k="name:no" v="Koppeng" />
		<tag k="name:se" v="Boahkkogieddi" />
		<tag k="place" v="farm" />
		<tag k="ssr:stedsnr" v="566540" />
	</node>
	<node id="-798663" lat="69.9865944495" lon="24.9409247961">
		<tag k="name" v="Stuenes" />
		<tag k="name:no" v="Stuenes" />
		<tag k="place" v="farm" />
		<tag k="ssr:stedsnr" v="262733" />
	</node>
	<node id="-800198" lat="70.3261250082" lon="25.4152136543">
		<tag k="name" v="Giksenjárga - Børselvnes - Kiksiniemi" />
		<tag k="name:fkv" v="Kiksiniemi" />
		<tag k="name:no" v="Børselvnes" />
		<tag k="name:se" v="Giksenjárga" />
		<tag k="place" v="hamlet" />
		<tag k="ssr:stedsnr" v="810919" />
	</node>
	<node id="-798148" lat="70.054036121" lon="24.9384637077">
		<tag k="name" v="Sandmo" />
		<tag k="name:no" v="Sandmo" />
		<tag k="place" v="farm" />
		<tag k="ssr:stedsnr" v="140193" />
	</node>
	<node id="-797634" lat="70.3190916724" lon="25.5582691956">
		<tag k="name" v="Branneng - Palanheenkannonruto" />
		<tag k="name:fkv" v="Palanheenkannonruto" />
		<tag k="name:no" v="Branneng" />
		<tag k="place" v="isolated_dwelling" />
		<tag k="ssr:stedsnr" v="396586" />
	</node>
	<node id="-799319" lat="70.5349055619" lon="25.1082998224">
		<tag k="name" v="Dollejohka - Brennelv" />
		<tag k="name:no" v="Brennelv" />
		<tag k="name:se" v="Dollejohka" />
		<tag k="old_name:se" v="Dållejåkka" />
		<tag k="place" v="farm" />
		<tag k="ssr:stedsnr" v="566922" />
	</node>
	<node id="-797628" lat="70.3108222276" lon="25.0604136961">
		<tag k="name" v="Indre Billefjord Øst" />
		<tag k="name:no" v="Indre Billefjord Øst" />
		<tag k="place" v="quarter" />
		<tag k="ssr:stedsnr" v="395975" />
	</node>
	<node id="-799561" lat="70.4448666742" lon="25.2128553703">
		<tag k="name" v="Alfheim" />
		<tag k="name:no" v="Alfheim" />
		<tag k="place" v="farm" />
		<tag k="ssr:stedsnr" v="637434" />
	</node>
	<node id="-797621" lat="70.3275944516" lon="25.1658108985">
		<tag k="name" v="Gálggošluokta - Ytre Sandvik - Kalkasenlahti" />
		<tag k="name:fkv" v="Kalkasenlahti" />
		<tag k="name:no" v="Ytre Sandvik" />
		<tag k="name:se" v="Gálggošluokta" />
		<tag k="place" v="hamlet" />
		<tag k="ssr:stedsnr" v="395604" />
	</node>
	<node id="-797620" lat="70.3783638931" lon="25.4893192092">
		<tag k="name" v="Paki" />
		<tag k="name:fkv" v="Paki" />
		<tag k="place" v="farm" />
		<tag k="ssr:stedsnr" v="395601" />
	</node>
	<node id="-800179" lat="70.2676888949" lon="25.073630367">
		<tag k="name" v="Anopset" />
		<tag k="name:no" v="Anopset" />
		<tag k="place" v="farm" />
		<tag k="ssr:stedsnr" v="809642" />
	</node>
	<node id="-798129" lat="70.2281388947" lon="24.9424692643">
		<tag k="name" v="Činajohka" />
		<tag k="name:se" v="Činajohka" />
		<tag k="place" v="farm" />
		<tag k="ssr:stedsnr" v="140027" />
	</node>
	<node id="-798640" lat="70.3666583358" lon="25.0758748032">
		<tag k="name" v="Daleng" />
		<tag k="name:no" v="Daleng" />
		<tag k="place" v="isolated_dwelling" />
		<tag k="ssr:stedsnr" v="262566" />
	</node>
	<node id="-797614" lat="70.3302888986" lon="25.6027080897">
		<tag k="name" v="Leppäruto" />
		<tag k="name:fkv" v="Leppäruto" />
		<tag k="place" v="farm" />
		<tag k="ssr:stedsnr" v="395461" />
	</node>
	<node id="-799149" lat="70.4090638972" lon="25.2233970132">
		<tag k="name" v="Ytre Veines" />
		<tag k="name:no" v="Ytre Veines" />
		<tag k="place" v="isolated_dwelling" />
		<tag k="ssr:stedsnr" v="533307" />
	</node>
	<node id="-800171" lat="70.5815888991" lon="25.9240636253">
		<tag k="name" v="Styrnes" />
		<tag k="name:no" v="Styrnes" />
		<tag k="place" v="farm" />
		<tag k="ssr:stedsnr" v="809603" />
	</node>
	<node id="-798023" lat="70.359616671" lon="25.0519609245">
		<tag k="name" v="Solrud" />
		<tag k="name:no" v="Solrud" />
		<tag k="place" v="farm" />
		<tag k="ssr:stedsnr" v="81568" />
	</node>
	<node id="-797607" lat="70.4373472301" lon="25.1996470243">
		<tag k="name" v="Bondejorda" />
		<tag k="name:no" v="Bondejorda" />
		<tag k="place" v="farm" />
		<tag k="ssr:stedsnr" v="395399" />
	</node>
	<node id="-798116" lat="70.0921055588" lon="25.0387164733">
		<tag k="name" v="Asphaug" />
		<tag k="name:no" v="Asphaug" />
		<tag k="place" v="farm" />
		<tag k="ssr:stedsnr" v="140144" />
	</node>
	<node id="-799137" lat="70.2116388918" lon="24.9246137096">
		<tag k="name" v="Bevkop" />
		<tag k="name:no" v="Bevkop" />
		<tag k="place" v="locality" />
		<tag k="ssr:stedsnr" v="517871" />
	</node>
	<node id="-800158" lat="70.3267027883" lon="25.5578219844">
		<tag k="name" v="Kratteng - Mätikkö" />
		<tag k="name:fkv" v="Mätikkö" />
		<tag k="name:no" v="Kratteng" />
		<tag k="place" v="farm" />
		<tag k="ssr:stedsnr" v="809514" />
	</node>
	<node id="-798329" lat="70.2432694501" lon="25.4351997564">
		<tag k="barrier" v="fence" />
		<tag k="name" v="Boazoáidi" />
		<tag k="name:se" v="Boazoáidi" />
		<tag k="ssr:stedsnr" v="153290" />
	</node>
	<node id="-798938" lat="70.1764916736" lon="24.9114081428">
		<tag k="name" v="Austmo" />
		<tag k="name:no" v="Austmo" />
		<tag k="place" v="farm" />
		<tag k="ssr:stedsnr" v="504080" />
	</node>
	<node id="-798104" lat="70.0585722244" lon="24.9307248065">
		<tag k="name" v="Rauttiinaitat" />
		<tag k="name:fkv" v="Rauttiinaitat" />
		<tag k="place" v="locality" />
		<tag k="ssr:stedsnr" v="100881" />
	</node>
	<node id="-797783" lat="70.3585000058" lon="25.464996986">
		<tag k="name" v="Krokmyra - Lammaskenttä" />
		<tag k="name:fkv" v="Lammaskenttä" />
		<tag k="name:no" v="Krokmyra" />
		<tag k="place" v="farm" />
		<tag k="ssr:stedsnr" v="20471" />
	</node>
	<node id="-800141" lat="70.5051027825" lon="25.0439220287">
		<tag k="name" v="Libakken" />
		<tag k="name:no" v="Libakken" />
		<tag k="place" v="farm" />
		<tag k="ssr:stedsnr" v="808955" />
	</node>
	<node id="-800140" lat="70.5039222301" lon="25.0234387003">
		<tag k="name" v="Eidsgard" />
		<tag k="name:no" v="Eidsgard" />
		<tag k="place" v="farm" />
		<tag k="ssr:stedsnr" v="808953" />
	</node>
	<node id="-800139" lat="70.5074638957" lon="24.9311303873">
		<tag k="alt_name:no" v="Leifset" />
		<tag k="name" v="Leivset" />
		<tag k="name:no" v="Leivset" />
		<tag k="place" v="farm" />
		<tag k="ssr:stedsnr" v="808951" />
	</node>
	<node id="-797578" lat="70.5145527809" lon="24.9632081657">
		<tag k="name" v="Myrstad" />
		<tag k="name:no" v="Myrstad" />
		<tag k="place" v="farm" />
		<tag k="ssr:stedsnr" v="384936" />
	</node>
	<node id="-800649" lat="70.4764805565" lon="25.0674387128">
		<tag k="name" v="Nyland" />
		<tag k="name:no" v="Nyland" />
		<tag k="place" v="farm" />
		<tag k="ssr:stedsnr" v="958720" />
	</node>
	<node id="-798599" lat="70.0601722308" lon="25.1167720189">
		<tag k="name" v="Fredheim" />
		<tag k="name:no" v="Fredheim" />
		<tag k="place" v="farm" />
		<tag k="ssr:stedsnr" v="262238" />
	</node>
	<node id="-798598" lat="70.0572083366" lon="25.1530608903">
		<tag k="name" v="Myrvang" />
		<tag k="name:no" v="Myrvang" />
		<tag k="place" v="farm" />
		<tag k="ssr:stedsnr" v="262236" />
	</node>
	<node id="-797573" lat="70.3190166731" lon="25.0400220244">
		<tag k="name" v="Høgli" />
		<tag k="name:no" v="Høgli" />
		<tag k="place" v="farm" />
		<tag k="ssr:stedsnr" v="384573" />
	</node>
	<node id="-799108" lat="70.0511194549" lon="25.0751331319">
		<tag k="name" v="Storskogen" />
		<tag k="name:no" v="Storskogen" />
		<tag k="place" v="farm" />
		<tag k="ssr:stedsnr" v="517360" />
	</node>
	<node id="-798595" lat="70.0372666745" lon="24.9376275759">
		<tag k="name" v="Øvre Smørstad - Rautio" />
		<tag k="name:fkv" v="Rautio" />
		<tag k="name:no" v="Øvre Smørstad" />
		<tag k="place" v="farm" />
		<tag k="ssr:stedsnr" v="262221" />
	</node>
	<node id="-798594" lat="70.0409361149" lon="24.9380470356">
		<tag k="name" v="Saarikenttä" />
		<tag k="name:fkv" v="Saarikenttä" />
		<tag k="place" v="farm" />
		<tag k="ssr:stedsnr" v="262220" />
	</node>
	<node id="-798593" lat="70.0622389005" lon="25.1562053415">
		<tag k="name" v="Langbuktbakken - Pitkäkopanluokka" />
		<tag k="name:fkv" v="Pitkäkopanluokka" />
		<tag k="name:no" v="Langbuktbakken" />
		<tag k="place" v="farm" />
		<tag k="ssr:stedsnr" v="262202" />
	</node>
	<node id="-797567" lat="70.3574611174" lon="25.0425248083">
		<tag k="name" v="Remmen" />
		<tag k="name:no" v="Remmen" />
		<tag k="place" v="farm" />
		<tag k="ssr:stedsnr" v="384542" />
	</node>
	<node id="-800126" lat="70.4323500061" lon="25.1844053527">
		<tag k="name" v="Bakketun" />
		<tag k="name:no" v="Bakketun" />
		<tag k="place" v="farm" />
		<tag k="ssr:stedsnr" v="808724" />
	</node>
	<node id="-800125" lat="70.4431083389" lon="25.2054442446">
		<tag k="name" v="Bergkroken" />
		<tag k="name:no" v="Bergkroken" />
		<tag k="place" v="farm" />
		<tag k="ssr:stedsnr" v="808719" />
	</node>
	<node id="-797564" lat="70.3495638954" lon="25.0386136883">
		<tag k="name" v="Helmerjord" />
		<tag k="name:no" v="Helmerjord" />
		<tag k="place" v="farm" />
		<tag k="ssr:stedsnr" v="384536" />
	</node>
	<node id="-797563" lat="70.3589694532" lon="25.0484970424">
		<tag k="name" v="Mikkelsborg" />
		<tag k="name:no" v="Mikkelsborg" />
		<tag k="place" v="farm" />
		<tag k="ssr:stedsnr" v="384532" />
	</node>
	<node id="-800121" lat="70.2928500052" lon="25.1066886841">
		<tag k="name" v="Slåtten" />
		<tag k="name:no" v="Slåtten" />
		<tag k="place" v="farm" />
		<tag k="ssr:stedsnr" v="808615" />
	</node>
	<node id="-798072" lat="70.045077784" lon="24.9391859259">
		<tag k="name" v="Niittykuru" />
		<tag k="name:fkv" v="Niittykuru" />
		<tag k="place" v="isolated_dwelling" />
		<tag k="ssr:stedsnr" v="92413" />
	</node>
	<node id="-800629" lat="70.3196305645" lon="25.5427969871">
		<tag k="name" v="Smibakken - Pajaruto" />
		<tag k="name:fkv" v="Pajaruto" />
		<tag k="name:no" v="Smibakken" />
		<tag k="place" v="isolated_dwelling" />
		<tag k="ssr:stedsnr" v="942602" />
	</node>
	<node id="-798014" lat="70.3135611197" lon="25.4633497614">
		<tag k="name" v="Dalheim" />
		<tag k="name:no" v="Dalheim" />
		<tag k="place" v="farm" />
		<tag k="ssr:stedsnr" v="81478" />
	</node>
	<node id="-800111" lat="69.7607194541" lon="25.2060886502">
		<tag k="name" v="Grøtterud" />
		<tag k="name:no" v="Grøtterud" />
		<tag k="place" v="farm" />
		<tag k="ssr:stedsnr" v="808557" />
	</node>
	<node id="-797550" lat="70.505469446" lon="25.0570192646">
		<tag k="name" v="Fagerfjell" />
		<tag k="name:no" v="Fagerfjell" />
		<tag k="place" v="farm" />
		<tag k="ssr:stedsnr" v="383970" />
	</node>
	<node id="-800109" lat="69.8398055592" lon="25.0782192249">
		<tag k="fixme" v="consider place=hamlet" />
		<tag k="loc_name:fkv" v="Skuukanvaara" />
		<tag k="name" v="Skuvvanvárri - Skoganvarre" />
		<tag k="name:no" v="Skoganvarre" />
		<tag k="name:se" v="Skuvvanvárri" />
		<tag k="old_name:no" v="Skoganvarri" />
		<tag k="place" v="village" />
		<tag k="ssr:stedsnr" v="808517" />
	</node>
	<node id="-799748" lat="70.2954750113" lon="25.5191191999">
		<tag k="name" v="Veahkir - Vækker - Väkkärä" />
		<tag k="name:fkv" v="Väkkärä" />
		<tag k="name:no" v="Vækker" />
		<tag k="name:se" v="Veahkir" />
		<tag k="place" v="hamlet" />
		<tag k="ssr:stedsnr" v="688923" />
	</node>
	<node id="-800619" lat="70.4073972307" lon="25.1669525821">
		<tag k="name" v="Polmasjok" />
		<tag k="name:no" v="Polmasjok" />
		<tag k="place" v="locality" />
		<tag k="ssr:stedsnr" v="942342" />
	</node>
	<node id="-800618" lat="70.4661555605" lon="25.2414914616">
		<tag k="name" v="Sjøstrand" />
		<tag k="name:no" v="Sjøstrand" />
		<tag k="place" v="farm" />
		<tag k="ssr:stedsnr" v="942340" />
	</node>
	<node id="-799593" lat="70.2454333426" lon="24.9949942545">
		<tag k="name" v="Jonsnes" />
		<tag k="name:no" v="Jonsnes" />
		<tag k="place" v="isolated_dwelling" />
		<tag k="ssr:stedsnr" v="638861" />
	</node>
	<node id="-799591" lat="70.20931112" lon="24.9352525963">
		<tag k="name" v="Risvik" />
		<tag k="name:no" v="Risvik" />
		<tag k="place" v="locality" />
		<tag k="ssr:stedsnr" v="638843" />
	</node>
	<node id="-797541" lat="70.4385555644" lon="25.1996525858">
		<tag k="fixme" v="consider place=hamlet" />
		<tag k="name" v="Čuđegieddi - Kistrand - Ryssämarkka" />
		<tag k="name:fkv" v="Ryssämarkka" />
		<tag k="name:no" v="Kistrand" />
		<tag k="name:se" v="Čuđegieddi" />
		<tag k="place" v="village" />
		<tag k="ssr:stedsnr" v="383721" />
	</node>
	<node id="-797539" lat="70.4928611181" lon="25.0478331427">
		<tag k="name" v="Engmyr" />
		<tag k="name:no" v="Engmyr" />
		<tag k="place" v="farm" />
		<tag k="ssr:stedsnr" v="383698" />
	</node>
	<node id="-798049" lat="70.3749305627" lon="25.0944164669">
		<tag k="alt_name:no" v="Sommersett" />
		<tag k="name" v="Sommerset" />
		<tag k="name:no" v="Sommerset" />
		<tag k="place" v="farm" />
		<tag k="ssr:stedsnr" v="85581" />
	</node>
	<node id="-799070" lat="70.2945388957" lon="25.1099914571">
		<tag k="name" v="Ellásmielli" />
		<tag k="name:se" v="Ellásmielli" />
		<tag k="place" v="farm" />
		<tag k="ssr:stedsnr" v="506609" />
	</node>
	<node id="-797216" lat="70.0823333381" lon="25.0498220289">
		<tag k="name" v="Myrdal" />
		<tag k="name:no" v="Myrdal" />
		<tag k="place" v="farm" />
		<tag k="ssr:stedsnr" v="273009" />
	</node>
	<node id="-798556" lat="70.5246166708" lon="25.7764164236">
		<tag k="name" v="Ytre Brenna" />
		<tag k="name:no" v="Ytre Brenna" />
		<tag k="place" v="farm" />
		<tag k="ssr:stedsnr" v="230387" />
	</node>
	<node id="-797498" lat="70.05353334" lon="25.1227081135">
		<tag k="name" v="Myrbukt - Jänkänmukka" />
		<tag k="name:fkv" v="Jänkänmukka" />
		<tag k="name:no" v="Myrbukt" />
		<tag k="place" v="locality" />
		<tag k="ssr:stedsnr" v="383262" />
	</node>
	<node id="-798040" lat="70.5153750042" lon="24.9611859307">
		<tag k="name" v="Fjellheim" />
		<tag k="name:no" v="Fjellheim" />
		<tag k="place" v="farm" />
		<tag k="ssr:stedsnr" v="81927" />
	</node>
	<node id="-799063" lat="70.5770305621" lon="25.2366803716">
		<tag k="fixme" v="consider place=hamlet" />
		<tag k="name" v="Indre Nordmannset" />
		<tag k="name:no" v="Indre Nordmannset" />
		<tag k="old_name:no" v="Nordmannset, indre" />
		<tag k="place" v="village" />
		<tag k="ssr:stedsnr" v="505974" />
	</node>
	<node id="-799062" lat="70.5895500046" lon="25.243760928">
		<tag k="fixme" v="multiple name tags, choose one and add the other to alt_name; consider place=hamlet" />
		<tag k="name" v="Nordmannset;Ytre Nordmannset" />
		<tag k="name:no" v="Nordmannset;Ytre Nordmannset" />
		<tag k="old_name:no" v="Nordmannset, ytre" />
		<tag k="place" v="village" />
		<tag k="ssr:stedsnr" v="505972" />
	</node>
	<node id="-797753" lat="69.8338416701" lon="25.11979422">
		<tag k="name" v="Soltun" />
		<tag k="name:no" v="Soltun" />
		<tag k="place" v="farm" />
		<tag k="ssr:stedsnr" v="19571" />
	</node>
	<node id="-799570" lat="70.1885694471" lon="24.911222042">
		<tag k="name" v="Stabbursnes vestre" />
		<tag k="name:no" v="Stabbursnes vestre" />
		<tag k="place" v="isolated_dwelling" />
		<tag k="ssr:stedsnr" v="638145" />
	</node>
	<node id="-797815" lat="70.3167888987" lon="25.0967859173">
		<tag k="name" v="Østli" />
		<tag k="name:no" v="Østli" />
		<tag k="place" v="farm" />
		<tag k="ssr:stedsnr" v="20625" />
	</node>
	<node id="-800515" lat="70.3049722293" lon="25.5281192059">
		<tag k="name" v="Børselv - Etelänpuoli" />
		<tag k="name:fkv" v="Etelänpuoli" />
		<tag k="name:no" v="Børselv" />
		<tag k="place" v="hamlet" />
		<tag k="ssr:stedsnr" v="930468" />
	</node>
	<node id="-799564" lat="70.3283027835" lon="25.6174886342">
		<tag k="name" v="Vuomaranta" />
		<tag k="name:fkv" v="Vuomaranta" />
		<tag k="place" v="farm" />
		<tag k="ssr:stedsnr" v="637482" />
	</node>
	<node id="-799563" lat="70.3285000106" lon="25.6085275405">
		<tag k="name" v="Aaponsammunkenttä" />
		<tag k="name:fkv" v="Aaponsammunkenttä" />
		<tag k="place" v="farm" />
		<tag k="ssr:stedsnr" v="637474" />
	</node>
	<node id="-798538" lat="70.3223527824" lon="25.0565525762">
		<tag k="name" v="Indre Billefjord Vest" />
		<tag k="name:no" v="Indre Billefjord Vest" />
		<tag k="place" v="quarter" />
		<tag k="ssr:stedsnr" v="213992" />
	</node>
	<node id="-797513" lat="70.3073555623" lon="25.5347553034">
		<tag k="name" v="Seljeenga - Juntintörmä" />
		<tag k="name:fkv" v="Juntintörmä" />
		<tag k="name:no" v="Seljeenga" />
		<tag k="place" v="farm" />
		<tag k="ssr:stedsnr" v="383460" />
	</node>
	<node id="-799048" lat="70.4726111161" lon="25.1298831523">
		<tag k="name" v="Øverset" />
		<tag k="name:no" v="Øverset" />
		<tag k="place" v="farm" />
		<tag k="ssr:stedsnr" v="505756" />
	</node>
	<node id="-798535" lat="70.303150008" lon="25.0653942646">
		<tag k="name" v="Nordvang" />
		<tag k="name:no" v="Nordvang" />
		<tag k="place" v="isolated_dwelling" />
		<tag k="ssr:stedsnr" v="213796" />
	</node>
	<node id="-800070" lat="70.0085000075" lon="24.9292720181">
		<tag k="name" v="Gjøkstad" />
		<tag k="name:no" v="Gjøkstad" />
		<tag k="place" v="farm" />
		<tag k="ssr:stedsnr" v="808254" />
	</node>
	<node id="-798689" lat="70.3909250108" lon="25.5680942151">
		<tag k="name" v="Kroken - Skoppi" />
		<tag k="name:fkv" v="Skoppi" />
		<tag k="name:no" v="Kroken" />
		<tag k="place" v="isolated_dwelling" />
		<tag k="ssr:stedsnr" v="263423" />
	</node>
	<node id="-798603" lat="70.0044222295" lon="24.9364636869">
		<tag k="name" v="Øvre Gjøkenes" />
		<tag k="name:no" v="Øvre Gjøkenes" />
		<tag k="place" v="farm" />
		<tag k="ssr:stedsnr" v="262263" />
	</node>
	<node id="-799040" lat="70.2994666761" lon="25.0823331306">
		<tag k="name" v="Nordskog" />
		<tag k="name:no" v="Nordskog" />
		<tag k="place" v="farm" />
		<tag k="ssr:stedsnr" v="505623" />
	</node>
	<node id="-798015" lat="70.317575011" lon="25.5928386342">
		<tag k="name" v="Fagerli" />
		<tag k="name:no" v="Fagerli" />
		<tag k="place" v="farm" />
		<tag k="ssr:stedsnr" v="81482" />
	</node>
	<node id="-799038" lat="70.315263892" lon="25.0461331414">
		<tag k="fixme" v="consider place=hamlet" />
		<tag k="name" v="Billávuotna - Indre Billefjord - Pillavuono" />
		<tag k="name:fkv" v="Pillavuono" />
		<tag k="name:no" v="Indre Billefjord" />
		<tag k="name:se" v="Billávuotna" />
		<tag k="place" v="village" />
		<tag k="ssr:stedsnr" v="505600" />
	</node>
	<node id="-800058" lat="70.059452779" lon="24.9258525938">
		<tag k="name" v="Grunnvik" />
		<tag k="name:no" v="Grunnvik" />
		<tag k="place" v="farm" />
		<tag k="ssr:stedsnr" v="808170" />
	</node>
	<node id="-800060" lat="70.0527250054" lon="24.9961914554">
		<tag k="name" v="Bergbukt - Lahtipahta" />
		<tag k="name:fkv" v="Lahtipahta" />
		<tag k="name:no" v="Bergbukt" />
		<tag k="place" v="farm" />
		<tag k="ssr:stedsnr" v="808177" />
	</node>
	<node id="-800570" lat="70.3075083398" lon="25.0256081471">
		<tag k="name" v="Dalstad" />
		<tag k="name:no" v="Dalstad" />
		<tag k="place" v="farm" />
		<tag k="ssr:stedsnr" v="931573" />
	</node>
	<node id="-800055" lat="70.092980565" lon="25.0758553485">
		<tag k="name" v="Hávdna - Hamnbukt - Hamina" />
		<tag k="name:fkv" v="Hamina" />
		<tag k="name:no" v="Hamnbukt" />
		<tag k="name:se" v="Hávdna" />
		<tag k="place" v="hamlet" />
		<tag k="ssr:stedsnr" v="808143" />
	</node>
	<node id="-797493" lat="70.0513250084" lon="24.971774797">
		<tag k="name" v="Leavdnja - Lakselv - Lemmijoki" />
		<tag k="name:fkv" v="Lemmijoki" />
		<tag k="name:no" v="Lakselv" />
		<tag k="name:se" v="Leavdnja" />
		<tag k="place" v="village" />
		<tag k="ssr:stedsnr" v="383209" />
	</node>
	<node id="-797492" lat="70.0684027832" lon="25.1664164609">
		<tag k="name" v="Fluberg" />
		<tag k="name:no" v="Fluberg" />
		<tag k="place" v="farm" />
		<tag k="ssr:stedsnr" v="383205" />
	</node>
	<node id="-797579" lat="70.4363027838" lon="25.6168247572">
		<tag k="name" v="Biesaidgohppi - Ytre Leirpollen - Piesankoppa" />
		<tag k="name:fkv" v="Piesankoppa" />
		<tag k="name:no" v="Ytre Leirpollen" />
		<tag k="name:se" v="Biesaidgohppi" />
		<tag k="place" v="hamlet" />
		<tag k="ssr:stedsnr" v="384974" />
	</node>
	<node id="-797482" lat="70.2139250042" lon="24.9121720517">
		<tag k="name" v="Steinli" />
		<tag k="name:no" v="Steinli" />
		<tag k="place" v="farm" />
		<tag k="ssr:stedsnr" v="383093" />
	</node>
	<node id="-799529" lat="70.2936111159" lon="25.1137664803">
		<tag k="name" v="Sarvvesvuotna - Kolvik - Sarvisvuono" />
		<tag k="name:fkv" v="Sarvisvuono" />
		<tag k="name:no" v="Kolvik" />
		<tag k="name:se" v="Sarvvesvuotna" />
		<tag k="place" v="hamlet" />
		<tag k="ssr:stedsnr" v="627961" />
	</node>
	<node id="-799527" lat="70.5298777872" lon="25.0894664792">
		<tag k="name" v="Litleng" />
		<tag k="name:no" v="Litleng" />
		<tag k="place" v="farm" />
		<tag k="ssr:stedsnr" v="627932" />
	</node>
	<node id="-800550" lat="70.437341673" lon="25.195580366">
		<tag k="name" v="Slettbakken" />
		<tag k="name:no" v="Slettbakken" />
		<tag k="place" v="farm" />
		<tag k="ssr:stedsnr" v="930756" />
	</node>
	<node id="-800035" lat="70.4121083401" lon="25.5661053113">
		<tag k="name" v="Krykkjebukt" />
		<tag k="name:no" v="Krykkjebukt" />
		<tag k="old_name:no" v="Midtre Leirpollen" />
		<tag k="place" v="farm" />
		<tag k="ssr:stedsnr" v="776403" />
	</node>
	<node id="-800334" lat="70.6069222333" lon="25.991285832">
		<tag k="fixme" v="consider place=hamlet" />
		<tag k="name" v="Kjæs - Dážagieddi - Keisi" />
		<tag k="name:fkv" v="Keisi" />
		<tag k="name:no" v="Kjæs" />
		<tag k="name:se" v="Dážagieddi" />
		<tag k="old_name:se" v="Dažagieddi" />
		<tag k="place" v="village" />
		<tag k="ssr:stedsnr" v="869592" />
	</node>
	<node id="-797613" lat="70.3275805614" lon="25.6146414098">
		<tag k="name" v="Leppäruto" />
		<tag k="name:fkv" v="Leppäruto" />
		<tag k="place" v="farm" />
		<tag k="ssr:stedsnr" v="395451" />
	</node>
	<node id="-798493" lat="70.2080694531" lon="24.9055664893">
		<tag k="name" v="Leaiberohtu" />
		<tag k="name:se" v="Leaiberohtu" />
		<tag k="place" v="farm" />
		<tag k="ssr:stedsnr" v="203093" />
	</node>
	<node id="-797467" lat="70.4134111198" lon="25.1967331378">
		<tag k="name" v="Indre Veines" />
		<tag k="name:no" v="Indre Veines" />
		<tag k="place" v="isolated_dwelling" />
		<tag k="ssr:stedsnr" v="351309" />
	</node>
	<node id="-797487" lat="70.0951416766" lon="25.0348747912">
		<tag k="name" v="Nordgård" />
		<tag k="name:no" v="Nordgård" />
		<tag k="place" v="farm" />
		<tag k="ssr:stedsnr" v="383172" />
	</node>
	<node id="-799512" lat="70.3134386987" lon="25.0734683239">
		<tag k="name" v="Sørli" />
		<tag k="name:no" v="Sørli" />
		<tag k="place" v="farm" />
		<tag k="ssr:stedsnr" v="627609" />
	</node>
	<node id="-798596" lat="70.0507250076" lon="24.9376970378">
		<tag k="name" v="Smørstad" />
		<tag k="name:no" v="Smørstad" />
		<tag k="place" v="quarter" />
		<tag k="ssr:stedsnr" v="262230" />
	</node>
	<node id="-799507" lat="70.3945083418" lon="25.5555997765">
		<tag k="name" v="Olderelva" />
		<tag k="name:no" v="Olderelva" />
		<tag k="place" v="farm" />
		<tag k="ssr:stedsnr" v="627425" />
	</node>
	<node id="-797453" lat="70.3251083443" lon="25.5851303068">
		<tag k="name" v="Myrskog - Kaiskiruto" />
		<tag k="name:fkv" v="Kaiskiruto" />
		<tag k="name:no" v="Myrskog" />
		<tag k="place" v="isolated_dwelling" />
		<tag k="ssr:stedsnr" v="335620" />
	</node>
	<node id="-798476" lat="70.2818166697" lon="25.1126997971">
		<tag k="name" v="Tømmernes" />
		<tag k="name:no" v="Tømmernes" />
		<tag k="place" v="farm" />
		<tag k="ssr:stedsnr" v="202625" />
	</node>
	<node id="-797570" lat="70.3060833366" lon="25.0585470186">
		<tag k="name" v="Skoger" />
		<tag k="name:no" v="Skoger" />
		<tag k="place" v="farm" />
		<tag k="ssr:stedsnr" v="384552" />
	</node>
	<node id="-800522" lat="70.3185750032" lon="25.5231553258">
		<tag k="name" v="Solbrått" />
		<tag k="name:no" v="Solbrått" />
		<tag k="place" v="farm" />
		<tag k="ssr:stedsnr" v="930514" />
	</node>
	<node id="-798985" lat="70.2131500038" lon="24.9207803779">
		<tag k="name" v="Skogmyr" />
		<tag k="name:no" v="Skogmyr" />
		<tag k="place" v="farm" />
		<tag k="ssr:stedsnr" v="505092" />
	</node>
	<node id="-799496" lat="70.5462555608" lon="25.8153664035">
		<tag k="name" v="Guhkesrohtu - Langskog" />
		<tag k="name:no" v="Langskog" />
		<tag k="name:se" v="Guhkesrohtu" />
		<tag k="old_name:se" v="Gukkesråtto" />
		<tag k="place" v="hamlet" />
		<tag k="ssr:stedsnr" v="626984" />
	</node>
	<node id="-798469" lat="70.3094583404" lon="25.0248525955">
		<tag k="name" v="Elvedal" />
		<tag k="name:no" v="Elvedal" />
		<tag k="place" v="farm" />
		<tag k="ssr:stedsnr" v="202606" />
	</node>
	<node id="-798017" lat="70.3260444565" lon="25.5507553118">
		<tag k="name" v="Sommerset - Väliruto" />
		<tag k="name:fkv" v="Väliruto" />
		<tag k="name:no" v="Sommerset" />
		<tag k="place" v="farm" />
		<tag k="ssr:stedsnr" v="81511" />
	</node>
	<node id="-798385" lat="70.0453888936" lon="25.0013664761">
		<tag k="name" v="Lilleberg" />
		<tag k="name:no" v="Lilleberg" />
		<tag k="place" v="farm" />
		<tag k="ssr:stedsnr" v="201221" />
	</node>
	<node id="-800512" lat="70.2644916728" lon="25.027408149">
		<tag k="name" v="Goarahat - Gåradak - Kuoratakka" />
		<tag k="name:fkv" v="Kuoratakka" />
		<tag k="name:no" v="Gåradak" />
		<tag k="name:se" v="Goarahat" />
		<tag k="place" v="hamlet" />
		<tag k="ssr:stedsnr" v="930441" />
	</node>
	<node id="-797369" lat="70.3293805665" lon="25.067233134">
		<tag k="name" v="Solborg" />
		<tag k="name:no" v="Solborg" />
		<tag k="place" v="farm" />
		<tag k="ssr:stedsnr" v="323549" />
	</node>
	<node id="-798677" lat="70.5044027851" lon="25.04878315">
		<tag k="fixme" v="consider place=hamlet" />
		<tag k="name" v="Smørfjord" />
		<tag k="name:no" v="Smørfjord" />
		<tag k="place" v="village" />
		<tag k="ssr:stedsnr" v="262972" />
	</node>
	<node id="-798971" lat="69.9904333362" lon="24.9573136891">
		<tag k="name" v="Aspelund" />
		<tag k="name:no" v="Aspelund" />
		<tag k="place" v="farm" />
		<tag k="ssr:stedsnr" v="504712" />
	</node>
	<node id="-798591" lat="70.0663000057" lon="25.1627831266">
		<tag k="name" v="Karenplass" />
		<tag k="name:no" v="Karenplass" />
		<tag k="place" v="farm" />
		<tag k="ssr:stedsnr" v="262190" />
	</node>
	<node id="-798456" lat="70.5039472266" lon="25.2209192521">
		<tag k="name" v="Forland" />
		<tag k="name:no" v="Forland" />
		<tag k="place" v="locality" />
		<tag k="ssr:stedsnr" v="202524" />
	</node>
	<node id="-798453" lat="70.3295000044" lon="25.5664191889">
		<tag k="name" v="Fosseng" />
		<tag k="name:no" v="Fosseng" />
		<tag k="place" v="farm" />
		<tag k="ssr:stedsnr" v="202496" />
	</node>
	<node id="-799475" lat="70.326863898" lon="25.0644109301">
		<tag k="name" v="Nyeng" />
		<tag k="name:no" v="Nyeng" />
		<tag k="place" v="farm" />
		<tag k="ssr:stedsnr" v="626570" />
	</node>
	<node id="-797426" lat="70.5211666778" lon="25.7676497442">
		<tag k="name" v="Brenna" />
		<tag k="name:no" v="Brenna" />
		<tag k="place" v="farm" />
		<tag k="ssr:stedsnr" v="333361" />
	</node>
	<node id="-797422" lat="70.6750000049" lon="25.4083331284">
		<tag k="name" v="Ytre Sortvik" />
		<tag k="name:no" v="Ytre Sortvik" />
		<tag k="place" v="locality" />
		<tag k="ssr:stedsnr" v="329375" />
	</node>
	<node id="-797932" lat="70.0412611186" lon="25.0437720247">
		<tag k="name" v="Øvergård" />
		<tag k="name:no" v="Øvergård" />
		<tag k="place" v="farm" />
		<tag k="ssr:stedsnr" v="80248" />
	</node>
	<node id="-798955" lat="70.0027027822" lon="24.9485248143">
		<tag k="name" v="Nyheim" />
		<tag k="name:no" v="Nyheim" />
		<tag k="place" v="farm" />
		<tag k="ssr:stedsnr" v="504233" />
	</node>
	<node id="-800346" lat="70.2709305582" lon="25.0639386896">
		<tag k="name" v="Sørdal" />
		<tag k="name:no" v="Sørdal" />
		<tag k="place" v="farm" />
		<tag k="ssr:stedsnr" v="869649" />
	</node>
	<node id="-800551" lat="70.4713583381" lon="25.0991025764">
		<tag k="name" v="Melbakken" />
		<tag k="name:no" v="Melbakken" />
		<tag k="place" v="isolated_dwelling" />
		<tag k="ssr:stedsnr" v="930769" />
	</node>
	<node id="-798952" lat="70.0424222302" lon="24.9501498148">
		<tag k="name" v="Hesjenes" />
		<tag k="name:no" v="Hesjenes" />
		<tag k="place" v="farm" />
		<tag k="ssr:stedsnr" v="504205" />
	</node>
	<node id="-798016" lat="70.3182555603" lon="25.5791580981">
		<tag k="name" v="Leirvollen" />
		<tag k="name:no" v="Leirvollen" />
		<tag k="place" v="farm" />
		<tag k="ssr:stedsnr" v="81483" />
	</node>
	<node id="-797990" lat="70.6874444471" lon="25.7786414281">
		<tag k="name" v="Biđđánluokta - Peiby" />
		<tag k="name:no" v="Peiby" />
		<tag k="name:se" v="Biđđánluokta" />
		<tag k="old_name:se" v="Biđđanluokta" />
		<tag k="place" v="locality" />
		<tag k="ssr:stedsnr" v="80989" />
	</node>
	<node id="-798946" lat="70.0534611204" lon="24.9342220219">
		<tag k="name" v="Grønnmo" />
		<tag k="name:no" v="Grønnmo" />
		<tag k="place" v="farm" />
		<tag k="ssr:stedsnr" v="504180" />
	</node>
	<node id="-799969" lat="69.9748972259" lon="24.947235923">
		<tag k="name" v="Klemetstad" />
		<tag k="name:no" v="Klemetstad" />
		<tag k="place" v="farm" />
		<tag k="ssr:stedsnr" v="869574" />
	</node>
	<node id="-798944" lat="70.0673500055" lon="24.9255109316">
		<tag k="name" v="Johannesøy" />
		<tag k="name:no" v="Johannesøy" />
		<tag k="place" v="farm" />
		<tag k="ssr:stedsnr" v="504167" />
	</node>
	<node id="-799453" lat="70.0133166728" lon="24.9397498075">
		<tag k="name" v="Bakkekroken" />
		<tag k="name:no" v="Bakkekroken" />
		<tag k="place" v="farm" />
		<tag k="ssr:stedsnr" v="626301" />
	</node>
	<node id="-798426" lat="69.9836166766" lon="24.9494414625">
		<tag k="name" v="Soldatnes" />
		<tag k="name:no" v="Soldatnes" />
		<tag k="place" v="farm" />
		<tag k="ssr:stedsnr" v="201680" />
	</node>
	<node id="-797399" lat="70.5750805618" lon="25.234735919">
		<tag k="name" v="Sørset" />
		<tag k="name:no" v="Sørset" />
		<tag k="place" v="farm" />
		<tag k="ssr:stedsnr" v="323984" />
	</node>
	<node id="-799445" lat="70.2091666711" lon="24.9162359331">
		<tag k="name" v="Lánjas - Baukophalsen" />
		<tag k="name:no" v="Baukophalsen" />
		<tag k="name:se" v="Lánjas" />
		<tag k="place" v="farm" />
		<tag k="ssr:stedsnr" v="626104" />
	</node>
	<node id="-798622" lat="70.3264027834" lon="25.4099664474">
		<tag k="name" v="Giksenjárga - Børselvnes - Kiksiniemi" />
		<tag k="name:fkv" v="Kiksiniemi" />
		<tag k="name:no" v="Børselvnes" />
		<tag k="name:se" v="Giksenjárga" />
		<tag k="place" v="farm" />
		<tag k="ssr:stedsnr" v="262514" />
	</node>
	<node id="-798237" lat="70.3145138927" lon="25.0608886837">
		<tag k="name" v="Solhaug" />
		<tag k="name:no" v="Solhaug" />
		<tag k="place" v="farm" />
		<tag k="ssr:stedsnr" v="141598" />
	</node>
	<node id="-800464" lat="70.0472333361" lon="25.028547023">
		<tag k="name" v="Asphaug" />
		<tag k="name:no" v="Asphaug" />
		<tag k="place" v="farm" />
		<tag k="ssr:stedsnr" v="929218" />
	</node>
	<node id="-800463" lat="70.0469916695" lon="25.0479025715">
		<tag k="name" v="Myrvoll" />
		<tag k="name:no" v="Myrvoll" />
		<tag k="place" v="farm" />
		<tag k="ssr:stedsnr" v="929216" />
	</node>
	<node id="-799950" lat="70.2770277803" lon="25.0319692629">
		<tag k="name" v="Vesterli" />
		<tag k="name:no" v="Vesterli" />
		<tag k="place" v="farm" />
		<tag k="ssr:stedsnr" v="748621" />
	</node>
	<node id="-799949" lat="70.2852194509" lon="25.0772331414">
		<tag k="name" v="Heia" />
		<tag k="name:no" v="Heia" />
		<tag k="place" v="farm" />
		<tag k="ssr:stedsnr" v="748620" />
	</node>
	<node id="-797900" lat="70.4123416727" lon="25.1982942533">
		<tag k="name" v="Čnomielli" />
		<tag k="name:se" v="Čnomielli" />
		<tag k="place" v="farm" />
		<tag k="ssr:stedsnr" v="55223" />
	</node>
	<node id="-797899" lat="70.4613277843" lon="25.224755362">
		<tag k="name" v="Skogro" />
		<tag k="name:no" v="Skogro" />
		<tag k="place" v="isolated_dwelling" />
		<tag k="ssr:stedsnr" v="48731" />
	</node>
	<node id="-797708" lat="70.1754277795" lon="24.9108275999">
		<tag k="name" v="Vestgård" />
		<tag k="name:no" v="Vestgård" />
		<tag k="place" v="farm" />
		<tag k="ssr:stedsnr" v="19100" />
	</node>
	<node id="-798921" lat="70.3141527806" lon="25.0340720182">
		<tag k="name" v="Løvdal" />
		<tag k="name:no" v="Løvdal" />
		<tag k="place" v="farm" />
		<tag k="ssr:stedsnr" v="466565" />
	</node>
	<node id="-798753" lat="70.0542416756" lon="25.0304637006">
		<tag k="name" v="Brennelv - Palo" />
		<tag k="name:fkv" v="Palo" />
		<tag k="name:no" v="Brennelv" />
		<tag k="place" v="hamlet" />
		<tag k="ssr:stedsnr" v="444172" />
	</node>
	<node id="-798916" lat="70.3269333368" lon="25.5963442035">
		<tag k="name" v="Leirbakken - Kouttankenttä" />
		<tag k="name:fkv" v="Kouttankenttä" />
		<tag k="name:no" v="Leirbakken" />
		<tag k="place" v="isolated_dwelling" />
		<tag k="ssr:stedsnr" v="457592" />
	</node>
	<node id="-797379" lat="70.2754388932" lon="25.0677748111">
		<tag k="name" v="Olsborg" />
		<tag k="name:no" v="Olsborg" />
		<tag k="place" v="farm" />
		<tag k="ssr:stedsnr" v="323619" />
	</node>
	<node id="-797890" lat="70.3218277854" lon="25.5866608568">
		<tag k="name" v="Nedre Myrskog - Alainen Kaiskiruto" />
		<tag k="name:fkv" v="Alainen Kaiskiruto" />
		<tag k="name:no" v="Nedre Myrskog" />
		<tag k="place" v="isolated_dwelling" />
		<tag k="ssr:stedsnr" v="32583" />
	</node>
	<node id="-799937" lat="70.6495166777" lon="26.0069636271">
		<tag k="name" v="Valjesgieddi" />
		<tag k="name:se" v="Valjesgieddi" />
		<tag k="old_name:se" v="Valljesgieddi" />
		<tag k="place" v="locality" />
		<tag k="ssr:stedsnr" v="748561" />
	</node>
	<node id="-799481" lat="70.4999583413" lon="25.0422137036">
		<tag k="name" v="Myrbakken" />
		<tag k="name:no" v="Myrbakken" />
		<tag k="place" v="farm" />
		<tag k="ssr:stedsnr" v="626722" />
	</node>
	<node id="-798399" lat="70.0506861164" lon="25.0675664485">
		<tag k="name" v="Øvre Brennelv - Yli-Palo" />
		<tag k="name:fkv" v="Yli-Palo" />
		<tag k="name:no" v="Øvre Brennelv" />
		<tag k="place" v="hamlet" />
		<tag k="ssr:stedsnr" v="201201" />
	</node>
	<node id="-799422" lat="69.8341833416" lon="25.0821719984">
		<tag k="name" v="Bakkenes" />
		<tag k="name:no" v="Bakkenes" />
		<tag k="place" v="farm" />
		<tag k="ssr:stedsnr" v="625519" />
	</node>
	<node id="-797373" lat="70.3017472295" lon="25.0633970177">
		<tag k="name" v="Bjørkås" />
		<tag k="name:no" v="Bjørkås" />
		<tag k="place" v="farm" />
		<tag k="ssr:stedsnr" v="323585" />
	</node>
	<node id="-797469" lat="70.4483222316" lon="25.2175609009">
		<tag k="name" v="Nygård" />
		<tag k="name:no" v="Nygård" />
		<tag k="place" v="isolated_dwelling" />
		<tag k="ssr:stedsnr" v="351745" />
	</node>
	<node id="-798392" lat="70.013161116" lon="24.9632747996">
		<tag k="name" v="Torbjørnsrud" />
		<tag k="name:no" v="Torbjørnsrud" />
		<tag k="place" v="farm" />
		<tag k="ssr:stedsnr" v="201255" />
	</node>
	<node id="-799926" lat="70.4617277867" lon="25.2267414722">
		<tag k="name" v="Saltmelen" />
		<tag k="name:no" v="Saltmelen" />
		<tag k="place" v="farm" />
		<tag k="ssr:stedsnr" v="748444" />
	</node>
	<node id="-797385" lat="70.469783339" lon="25.0841359355">
		<tag k="name" v="Myrland" />
		<tag k="name:no" v="Myrland" />
		<tag k="place" v="isolated_dwelling" />
		<tag k="ssr:stedsnr" v="323738" />
	</node>
	<node id="-800433" lat="70.3159472283" lon="25.540716425">
		<tag k="name" v="Solflata - Laatas" />
		<tag k="name:fkv" v="Laatas" />
		<tag k="name:no" v="Solflata" />
		<tag k="place" v="isolated_dwelling" />
		<tag k="ssr:stedsnr" v="881525" />
	</node>
	<node id="-798896" lat="70.3880222247" lon="25.118113684">
		<tag k="name" v="Sommersete" />
		<tag k="name:no" v="Sommersete" />
		<tag k="place" v="locality" />
		<tag k="ssr:stedsnr" v="456482" />
	</node>
	<node id="-798383" lat="70.1737500053" lon="24.8663581485">
		<tag k="name" v="Snihkkárnjárga - Snekkernes" />
		<tag k="name:no" v="Snekkernes" />
		<tag k="name:se" v="Snihkkárnjárga" />
		<tag k="place" v="farm" />
		<tag k="ssr:stedsnr" v="201099" />
	</node>
	<node id="-800429" lat="70.3242222338" lon="25.5907941955">
		<tag k="name" v="Alaouta" />
		<tag k="name:fkv" v="Alaouta" />
		<tag k="place" v="farm" />
		<tag k="ssr:stedsnr" v="881430" />
	</node>
	<node id="-800427" lat="70.0512166712" lon="24.9912581331">
		<tag k="name" v="Myrlund" />
		<tag k="name:no" v="Myrlund" />
		<tag k="place" v="isolated_dwelling" />
		<tag k="ssr:stedsnr" v="881394" />
	</node>
	<node id="-798378" lat="70.2139750097" lon="24.9159553686">
		<tag k="fixme" v="consider place=hamlet" />
		<tag k="name" v="Ikkaldas - Igeldas" />
		<tag k="name:no" v="Igeldas" />
		<tag k="name:se" v="Ikkaldas" />
		<tag k="place" v="village" />
		<tag k="ssr:stedsnr" v="201073" />
	</node>
	<node id="-798889" lat="70.325194453" lon="25.5855580875">
		<tag k="name" v="Ylinen Kaiskiruto" />
		<tag k="name:fkv" v="Ylinen Kaiskiruto" />
		<tag k="place" v="farm" />
		<tag k="ssr:stedsnr" v="456439" />
	</node>
	<node id="-800423" lat="70.4422972306" lon="25.214016477">
		<tag k="name" v="Russemark" />
		<tag k="name:no" v="Russemark" />
		<tag k="place" v="farm" />
		<tag k="ssr:stedsnr" v="881370" />
	</node>
	<node id="-797723" lat="70.0483916709" lon="24.9914720221">
		<tag k="name" v="Nymo" />
		<tag k="name:no" v="Nymo" />
		<tag k="place" v="farm" />
		<tag k="ssr:stedsnr" v="19229" />
	</node>
	<node id="-797417" lat="70.3543500049" lon="25.0385081449">
		<tag k="name" v="Gorbovuotna - Ytre Billefjord - Korpivuono" />
		<tag k="name:fkv" v="Korpivuono" />
		<tag k="name:no" v="Ytre Billefjord" />
		<tag k="name:se" v="Gorbovuotna" />
		<tag k="place" v="hamlet" />
		<tag k="ssr:stedsnr" v="324961" />
	</node>
	<node id="-799901" lat="70.4972583382" lon="25.198530356">
		<tag k="name" v="Vuohpoš - Bringnesjorda" />
		<tag k="name:no" v="Bringnesjorda" />
		<tag k="name:se" v="Vuohpoš" />
		<tag k="place" v="locality" />
		<tag k="ssr:stedsnr" v="747686" />
	</node>
	<node id="-798575" lat="70.230705561" lon="24.9353887026">
		<tag k="name" v="Ráigeája - Reikälähđet" />
		<tag k="name:fkv" v="Reikälähđet" />
		<tag k="name:se" v="Ráigeája" />
		<tag k="old_name:no" v="Ytre Ikkaldas;Ytre Igeldas" />
		<tag k="place" v="hamlet" />
		<tag k="ssr:stedsnr" v="262042" />
	</node>
	<node id="-797335" lat="70.0305916756" lon="24.9293831458">
		<tag k="name" v="Lakevann - Mađetjärvi" />
		<tag k="name:fkv" v="Mađetjärvi" />
		<tag k="name:no" v="Lakevann" />
		<tag k="place" v="farm" />
		<tag k="ssr:stedsnr" v="323264" />
	</node>
	<node id="-797333" lat="70.0208805624" lon="24.9330748043">
		<tag k="name" v="Lunden" />
		<tag k="name:no" v="Lunden" />
		<tag k="place" v="farm" />
		<tag k="ssr:stedsnr" v="323257" />
	</node>
	<node id="-798356" lat="70.4704638959" lon="25.0762692671">
		<tag k="name" v="Øvrejord" />
		<tag k="name:no" v="Øvrejord" />
		<tag k="place" v="farm" />
		<tag k="ssr:stedsnr" v="169695" />
	</node>
	<node id="-797330" lat="70.1049500037" lon="25.006813685">
		<tag k="name" v="Steinnes" />
		<tag k="name:no" v="Steinnes" />
		<tag k="place" v="farm" />
		<tag k="ssr:stedsnr" v="323186" />
	</node>
	<node id="-799377" lat="70.3558027852" lon="25.0405498015">
		<tag k="name" v="Strandli" />
		<tag k="name:no" v="Strandli" />
		<tag k="place" v="farm" />
		<tag k="ssr:stedsnr" v="577949" />
	</node>
	<node id="-799375" lat="70.2999861184" lon="25.0756109117">
		<tag k="name" v="Breidablikk" />
		<tag k="name:no" v="Breidablikk" />
		<tag k="place" v="isolated_dwelling" />
		<tag k="ssr:stedsnr" v="577786" />
	</node>
	<node id="-799374" lat="70.2996138952" lon="25.0642386922">
		<tag k="name" v="Friborg" />
		<tag k="name:no" v="Friborg" />
		<tag k="place" v="farm" />
		<tag k="ssr:stedsnr" v="577782" />
	</node>
	<node id="-799938" lat="70.3315333393" lon="25.0743497959">
		<tag k="name" v="Tverrnes" />
		<tag k="name:no" v="Tverrnes" />
		<tag k="place" v="farm" />
		<tag k="ssr:stedsnr" v="748563" />
	</node>
	<node id="-798743" lat="70.1837388956" lon="24.9103831563">
		<tag k="name" v="Čohkavuolli" />
		<tag k="name:se" v="Čohkavuolli" />
		<tag k="place" v="isolated_dwelling" />
		<tag k="ssr:stedsnr" v="444112" />
	</node>
	<node id="-798856" lat="70.5206944524" lon="25.0748498231">
		<tag k="name" v="Solbakken" />
		<tag k="name:no" v="Solbakken" />
		<tag k="place" v="farm" />
		<tag k="ssr:stedsnr" v="445925" />
	</node>
	<node id="-797804" lat="70.3222305631" lon="25.1729581287">
		<tag k="name" v="Cuoppogieddi - Indre Sandvik" />
		<tag k="name:no" v="Indre Sandvik" />
		<tag k="name:se" v="Cuoppogieddi" />
		<tag k="place" v="hamlet" />
		<tag k="ssr:stedsnr" v="20593" />
	</node>
	<node id="-798341" lat="70.2293694469" lon="24.9406109339">
		<tag k="name" v="Vedhuggnes" />
		<tag k="name:no" v="Vedhuggnes" />
		<tag k="place" v="isolated_dwelling" />
		<tag k="ssr:stedsnr" v="153867" />
	</node>
	<node id="-798850" lat="70.2843527809" lon="25.1063025892">
		<tag k="name" v="Stuorragieddi" />
		<tag k="name:se" v="Stuorragieddi" />
		<tag k="place" v="farm" />
		<tag k="ssr:stedsnr" v="445621" />
	</node>
	<node id="-798848" lat="70.315900008" lon="25.0796609231">
		<tag k="name" v="Stabbureng" />
		<tag k="name:no" v="Stabbureng" />
		<tag k="place" v="farm" />
		<tag k="ssr:stedsnr" v="445604" />
	</node>
	<node id="-799357" lat="69.9987222311" lon="24.9909136876">
		<tag k="name" v="Karalaks" />
		<tag k="name:no" v="Karalaks" />
		<tag k="place" v="isolated_dwelling" />
		<tag k="ssr:stedsnr" v="577468" />
	</node>
	<node id="-797819" lat="70.2690833367" lon="25.0764442357">
		<tag k="name" v="Øvre Berghaugen" />
		<tag k="name:no" v="Øvre Berghaugen" />
		<tag k="place" v="farm" />
		<tag k="ssr:stedsnr" v="20645" />
	</node>
	<node id="-797818" lat="70.2744750028" lon="25.0608692365">
		<tag k="name" v="Veiland" />
		<tag k="name:no" v="Veiland" />
		<tag k="place" v="farm" />
		<tag k="ssr:stedsnr" v="20639" />
	</node>
	<node id="-798841" lat="70.5702527869" lon="25.8838664063">
		<tag k="name" v="Sløkevika" />
		<tag k="name:no" v="Sløkevika" />
		<tag k="place" v="locality" />
		<tag k="ssr:stedsnr" v="445579" />
	</node>
	<node id="-797721" lat="70.0544472311" lon="25.0865608965">
		<tag k="name" v="Salomonsumpen" />
		<tag k="name:no" v="Salomonsumpen" />
		<tag k="place" v="farm" />
		<tag k="ssr:stedsnr" v="19223" />
	</node>
	<node id="-798839" lat="70.3706305662" lon="25.0905831319">
		<tag k="name" v="Sálletjohka - Elvenes" />
		<tag k="name:no" v="Elvenes" />
		<tag k="name:se" v="Sálletjohka" />
		<tag k="old_name:se" v="Salletjåkka" />
		<tag k="place" v="farm" />
		<tag k="ssr:stedsnr" v="445567" />
	</node>
	<node id="-799862" lat="70.0844611203" lon="25.202841463">
		<tag k="name" v="Časkilbekk" />
		<tag k="name:no" v="Časkilbekk" />
		<tag k="place" v="farm" />
		<tag k="ssr:stedsnr" v="747202" />
	</node>
	<node id="-799081" lat="70.3811722293" lon="25.4955219878">
		<tag k="name" v="Gieddi - Leirpollen - Kenttä" />
		<tag k="name:fkv" v="Kenttä" />
		<tag k="name:no" v="Leirpollen" />
		<tag k="name:se" v="Gieddi" />
		<tag k="place" v="hamlet" />
		<tag k="ssr:stedsnr" v="506902" />
	</node>
	<node id="-799860" lat="70.0536277859" lon="24.9879942541">
		<tag k="name" v="Bergskog" />
		<tag k="name:no" v="Bergskog" />
		<tag k="place" v="farm" />
		<tag k="ssr:stedsnr" v="747189" />
	</node>
	<node id="-799859" lat="70.0606111208" lon="24.9263859161">
		<tag k="name" v="Sarppula" />
		<tag k="name:fkv" v="Sarppula" />
		<tag k="place" v="farm" />
		<tag k="ssr:stedsnr" v="747185" />
	</node>
	<node id="-797810" lat="70.3246000058" lon="25.1489998138">
		<tag k="name" v="Vindjord" />
		<tag k="name:no" v="Vindjord" />
		<tag k="place" v="farm" />
		<tag k="ssr:stedsnr" v="20613" />
	</node>
	<node id="-798995" lat="70.0099694548" lon="24.9252636914">
		<tag k="name" v="Gjøkenes - Köykiniemi" />
		<tag k="name:fkv" v="Köykiniemi" />
		<tag k="name:no" v="Gjøkenes" />
		<tag k="place" v="farm" />
		<tag k="ssr:stedsnr" v="505281" />
	</node>
	<node id="-798832" lat="70.3177695871" lon="25.5657965858">
		<tag k="fixme" v="consider place=hamlet" />
		<tag k="name" v="Bissojohka - Børselv - Pyssyjoki" />
		<tag k="name:fkv" v="Pyssyjoki" />
		<tag k="name:no" v="Børselv" />
		<tag k="name:se" v="Bissojohka" />
		<tag k="place" v="village" />
		<tag k="ssr:stedsnr" v="445472" />
	</node>
	<node id="-798831" lat="70.3110583383" lon="25.5736414274">
		<tag k="name" v="Skierrečohkka - Risbakken" />
		<tag k="name:no" v="Risbakken" />
		<tag k="name:se" v="Skierrečohkka" />
		<tag k="place" v="farm" />
		<tag k="ssr:stedsnr" v="445470" />
	</node>
	<node id="-800364" lat="70.5875916751" lon="25.2394442402">
		<tag k="name" v="Nordset" />
		<tag k="name:no" v="Nordset" />
		<tag k="place" v="farm" />
		<tag k="ssr:stedsnr" v="869977" />
	</node>
	<node id="-798004" lat="70.4023388922" lon="25.5583803164">
		<tag k="name" v="Movronnjárga - Mårnes - Mouruniemi" />
		<tag k="name:fkv" v="Mouruniemi" />
		<tag k="name:no" v="Mårnes" />
		<tag k="name:se" v="Movronnjárga" />
		<tag k="place" v="hamlet" />
		<tag k="ssr:stedsnr" v="81406" />
	</node>
	<node id="-797290" lat="70.0578916722" lon="25.128291454">
		<tag k="name" v="Lauvstrand" />
		<tag k="name:no" v="Lauvstrand" />
		<tag k="place" v="farm" />
		<tag k="ssr:stedsnr" v="322217" />
	</node>
	<node id="-798046" lat="70.6555555636" lon="25.3749997885">
		<tag k="name" v="Indre Sortvik" />
		<tag k="name:no" v="Indre Sortvik" />
		<tag k="place" v="locality" />
		<tag k="ssr:stedsnr" v="85340" />
	</node>
	<node id="-799336" lat="70.0572888975" lon="24.9403553756">
		<tag k="name" v="Saarila" />
		<tag k="name:fkv" v="Saarila" />
		<tag k="place" v="quarter" />
		<tag k="ssr:stedsnr" v="577015" />
	</node>
	<node id="-797799" lat="70.3587305594" lon="25.0461609161">
		<tag k="name" v="Skogbakken" />
		<tag k="name:no" v="Skogbakken" />
		<tag k="place" v="farm" />
		<tag k="ssr:stedsnr" v="20582" />
	</node>
	<node id="-798225" lat="70.3249000075" lon="25.5472469767">
		<tag k="name" v="Nygård" />
		<tag k="name:no" v="Nygård" />
		<tag k="place" v="farm" />
		<tag k="ssr:stedsnr" v="141497" />
	</node>
	<node id="-798820" lat="70.6662583375" lon="25.7942747503">
		<tag k="name" v="Klokkevika" />
		<tag k="name:no" v="Klokkevika" />
		<tag k="place" v="isolated_dwelling" />
		<tag k="ssr:stedsnr" v="444999" />
	</node>
	<node id="-800354" lat="70.4818444517" lon="25.0780526068">
		<tag k="name" v="Nesbakken" />
		<tag k="name:no" v="Nesbakken" />
		<tag k="place" v="isolated_dwelling" />
		<tag k="ssr:stedsnr" v="869773" />
	</node>
	<node id="-799839" lat="70.0496500053" lon="25.0341636744">
		<tag k="name" v="Bergeng" />
		<tag k="name:no" v="Bergeng" />
		<tag k="place" v="farm" />
		<tag k="ssr:stedsnr" v="747241" />
	</node>
	<node id="-799838" lat="70.033969447" lon="24.9951470334">
		<tag k="name" v="Bjørkås" />
		<tag k="name:no" v="Bjørkås" />
		<tag k="place" v="farm" />
		<tag k="ssr:stedsnr" v="747226" />
	</node>
	<node id="-798309" lat="70.4926750073" lon="25.1673636868">
		<tag k="name" v="Stuorragoahti" />
		<tag k="name:se" v="Stuorragoahti" />
		<tag k="place" v="locality" />
		<tag k="ssr:stedsnr" v="152873" />
	</node>
	<node id="-798915" lat="70.3227805579" lon="25.5744053224">
		<tag k="name" v="Seljemark - Paivuruto" />
		<tag k="name:fkv" v="Paivuruto" />
		<tag k="name:no" v="Seljemark" />
		<tag k="place" v="isolated_dwelling" />
		<tag k="ssr:stedsnr" v="457591" />
	</node>
	<node id="-797786" lat="70.334252786" lon="25.6315080848">
		<tag k="name" v="Fredheim" />
		<tag k="name:no" v="Fredheim" />
		<tag k="place" v="farm" />
		<tag k="ssr:stedsnr" v="20499" />
	</node>
	<node id="-800345" lat="70.2761111137" lon="24.9936748221">
		<tag k="name" v="Bajábealjávri - Oppgård" />
		<tag k="name:no" v="Oppgård" />
		<tag k="name:se" v="Bajábealjávri" />
		<tag k="place" v="farm" />
		<tag k="ssr:stedsnr" v="869637" />
	</node>
	<node id="-800344" lat="69.8332333423" lon="25.1241386598">
		<tag k="name" v="Trygstad" />
		<tag k="name:no" v="Trygstad" />
		<tag k="place" v="farm" />
		<tag k="ssr:stedsnr" v="869636" />
	</node>
	<node id="-797796" lat="70.3621138924" lon="25.0630192412">
		<tag k="name" v="Bakkejord" />
		<tag k="name:no" v="Bakkejord" />
		<tag k="place" v="farm" />
		<tag k="ssr:stedsnr" v="20567" />
	</node>
	<node id="-799829" lat="69.9711055657" lon="24.9593081314">
		<tag k="name" v="Revfossnes" />
		<tag k="name:no" v="Revfossnes" />
		<tag k="place" v="hamlet" />
		<tag k="ssr:stedsnr" v="713225" />
	</node>
	<node id="-798292" lat="70.5260805578" lon="25.0902831432">
		<tag k="name" v="Smørfjord" />
		<tag k="name:no" v="Smørfjord" />
		<tag k="place" v="hamlet" />
		<tag k="ssr:stedsnr" v="152386" />
	</node>
	<node id="-797779" lat="70.3103944534" lon="25.4657108806">
		<tag k="name" v="Jernbukt - Rautakoppa" />
		<tag k="name:fkv" v="Rautakoppa" />
		<tag k="name:no" v="Jernbukt" />
		<tag k="place" v="farm" />
		<tag k="ssr:stedsnr" v="20442" />
	</node>
	<node id="-797264" lat="70.741261117" lon="25.6581247774">
		<tag k="name" v="Innerbukta" />
		<tag k="name:no" v="Innerbukta" />
		<tag k="place" v="farm" />
		<tag k="ssr:stedsnr" v="291054" />
	</node>
	<node id="-798799" lat="69.9844166719" lon="24.9598137008">
		<tag k="name" v="Soldatslett" />
		<tag k="name:no" v="Soldatslett" />
		<tag k="place" v="farm" />
		<tag k="ssr:stedsnr" v="444700" />
	</node>
	<node id="-798798" lat="70.4899222306" lon="25.0531998116">
		<tag k="name" v="Øverland" />
		<tag k="name:no" v="Øverland" />
		<tag k="place" v="farm" />
		<tag k="ssr:stedsnr" v="444680" />
	</node>
	<node id="-800333" lat="70.6130583431" lon="25.9842136264">
		<tag k="name" v="Báŋka" />
		<tag k="name:se" v="Báŋka" />
		<tag k="old_name:se" v="Baŋka" />
		<tag k="place" v="farm" />
		<tag k="ssr:stedsnr" v="869590" />
	</node>
	<node id="-799842" lat="70.012350006" lon="24.920758151">
		<tag k="name" v="Sandslett" />
		<tag k="name:no" v="Sandslett" />
		<tag k="place" v="farm" />
		<tag k="ssr:stedsnr" v="747261" />
	</node>
	<node id="-798794" lat="70.2876083426" lon="25.0884636938">
		<tag k="name" v="Solstad" />
		<tag k="name:no" v="Solstad" />
		<tag k="place" v="farm" />
		<tag k="ssr:stedsnr" v="444603" />
	</node>
	<node id="-797380" lat="70.2970250053" lon="25.0673025743">
		<tag k="name" v="Løvhaug" />
		<tag k="name:no" v="Løvhaug" />
		<tag k="place" v="farm" />
		<tag k="ssr:stedsnr" v="323624" />
	</node>
	<node id="-799303" lat="70.3155305646" lon="25.0412748115">
		<tag k="name" v="Elvenes" />
		<tag k="name:no" v="Elvenes" />
		<tag k="place" v="farm" />
		<tag k="ssr:stedsnr" v="566588" />
	</node>
	<node id="-799302" lat="70.320747232" lon="25.0995886883">
		<tag k="name" v="Suovdi" />
		<tag k="name:se" v="Suovdi" />
		<tag k="place" v="farm" />
		<tag k="ssr:stedsnr" v="566578" />
	</node>
	<node id="-799301" lat="70.5858722271" lon="25.9297608309">
		<tag k="name" v="Styrnes" />
		<tag k="name:no" v="Styrnes" />
		<tag k="place" v="hamlet" />
		<tag k="ssr:stedsnr" v="566577" />
	</node>
	<node id="-797762" lat="70.4730750068" lon="25.1239331524">
		<tag k="name" v="Nordli" />
		<tag k="name:no" v="Nordli" />
		<tag k="place" v="farm" />
		<tag k="ssr:stedsnr" v="19736" />
	</node>
	<node id="-797761" lat="70.4690000028" lon="25.0701581507">
		<tag k="name" v="Solset" />
		<tag k="name:no" v="Solset" />
		<tag k="place" v="isolated_dwelling" />
		<tag k="ssr:stedsnr" v="19734" />
	</node>
	<node id="-798914" lat="70.3120000038" lon="25.5641941956">
		<tag k="name" v="Ulveskog - Hukkaruto" />
		<tag k="name:fkv" v="Hukkaruto" />
		<tag k="name:no" v="Ulveskog" />
		<tag k="place" v="isolated_dwelling" />
		<tag k="ssr:stedsnr" v="457589" />
	</node>
	<node id="-799804" lat="70.3300194514" lon="25.6123052999">
		<tag k="name" v="Aaponsammunlaatas" />
		<tag k="name:fkv" v="Aaponsammunlaatas" />
		<tag k="place" v="farm" />
		<tag k="ssr:stedsnr" v="699435" />
	</node>
	<node id="-798777" lat="70.5062111192" lon="25.7318803055">
		<tag k="fixme" v="consider place=hamlet" />
		<tag k="name" v="Breannjá - Brenna - Prännä" />
		<tag k="name:fkv" v="Prännä" />
		<tag k="name:no" v="Brenna" />
		<tag k="name:se" v="Breannjá" />
		<tag k="place" v="village" />
		<tag k="ssr:stedsnr" v="444492" />
	</node>
	<node id="-798776" lat="69.9035472306" lon="24.9993636874">
		<tag k="fixme" v="consider place=suburb, village or hamlet" />
		<tag k="name" v="Porsangmoen" />
		<tag k="name:no" v="Porsangmoen" />
		<tag k="old_name:no" v="Porsangermoen" />
		<tag k="place" v="quarter" />
		<tag k="ssr:stedsnr" v="444490" />
	</node>
	<node id="-797750" lat="69.7634416701" lon="25.1965803281">
		<tag k="name" v="Karisdat" />
		<tag k="name:no" v="Karisdat" />
		<tag k="place" v="isolated_dwelling" />
		<tag k="ssr:stedsnr" v="19542" />
	</node>
	<node id="-798261" lat="70.3225472323" lon="25.1379331311">
		<tag k="name" v="Njárga - Sandvik" />
		<tag k="name:no" v="Sandvik" />
		<tag k="name:se" v="Njárga" />
		<tag k="place" v="hamlet" />
		<tag k="ssr:stedsnr" v="142627" />
	</node>
	<node id="-799283" lat="70.394938893" lon="25.5597108779">
		<tag k="name" v="Krattskogen" />
		<tag k="name:no" v="Krattskogen" />
		<tag k="place" v="farm" />
		<tag k="ssr:stedsnr" v="566408" />
	</node>
	<node id="-799822" lat="70.3003500098" lon="25.167263694">
		<tag k="name" v="Činavuohppi - Trollholmsund" />
		<tag k="name:no" v="Trollholmsund" />
		<tag k="name:se" v="Činavuohppi" />
		<tag k="place" v="hamlet" />
		<tag k="ssr:stedsnr" v="699747" />
	</node>
	<node id="-799667" lat="70.2549361168" lon="25.0239803556">
		<tag k="name" v="Innerbukta" />
		<tag k="name:no" v="Innerbukta" />
		<tag k="place" v="isolated_dwelling" />
		<tag k="ssr:stedsnr" v="687406" />
	</node>
	<node id="-800303" lat="70.0597805595" lon="25.1200109058">
		<tag k="name" v="Svingen" />
		<tag k="name:no" v="Svingen" />
		<tag k="place" v="farm" />
		<tag k="ssr:stedsnr" v="869267" />
	</node>
	<node id="-797683" lat="70.4968916761" lon="25.0950831469">
		<tag k="name" v="Risskjåen" />
		<tag k="name:no" v="Risskjåen" />
		<tag k="place" v="farm" />
		<tag k="ssr:stedsnr" v="80691" />
	</node>
	<node id="-800299" lat="70.0400444492" lon="24.9532831388">
		<tag k="name" v="Slåttebakken" />
		<tag k="name:no" v="Slåttebakken" />
		<tag k="place" v="farm" />
		<tag k="ssr:stedsnr" v="869240" />
	</node>
	<node id="-798250" lat="70.5248805592" lon="25.19975536">
		<tag k="fixme" v="multiple name tags, choose one and add the other to alt_name" />
		<tag k="name" v="Ankervik;Litlevik" />
		<tag k="name:no" v="Ankervik;Litlevik" />
		<tag k="place" v="isolated_dwelling" />
		<tag k="ssr:stedsnr" v="141908" />
	</node>
	<node id="-799269" lat="70.5923083347" lon="25.2669525856">
		<tag k="name" v="Hønsa" />
		<tag k="name:no" v="Hønsa" />
		<tag k="place" v="locality" />
		<tag k="ssr:stedsnr" v="565977" />
	</node>
	<node id="-798243" lat="70.2721055579" lon="25.0602525942">
		<tag k="name" v="Áigir" />
		<tag k="name:se" v="Áigir" />
		<tag k="place" v="hamlet" />
		<tag k="ssr:stedsnr" v="141614" />
	</node>
	<node id="-798754" lat="70.0545833408" lon="24.9408720401">
		<tag k="name" v="Langmyr" />
		<tag k="name:no" v="Langmyr" />
		<tag k="place" v="farm" />
		<tag k="ssr:stedsnr" v="444178" />
	</node>
	<node id="-800289" lat="70.0804111141" lon="25.0486970131">
		<tag k="name" v="Skogende - Ruđonpää" />
		<tag k="name:fkv" v="Ruđonpää" />
		<tag k="name:no" v="Skogende" />
		<tag k="place" v="hamlet" />
		<tag k="ssr:stedsnr" v="869186" />
	</node>
	<node id="-798752" lat="70.0622250036" lon="24.9380525956">
		<tag k="name" v="Nedre Smørstad" />
		<tag k="name:no" v="Nedre Smørstad" />
		<tag k="place" v="farm" />
		<tag k="ssr:stedsnr" v="444169" />
	</node>
	<node id="-798384" lat="70.0477138935" lon="25.0150025893">
		<tag k="name" v="Dulerohtu - Ildskog - Tyllyruto" />
		<tag k="name:fkv" v="Tyllyruto" />
		<tag k="name:no" v="Ildskog" />
		<tag k="name:se" v="Dulerohtu" />
		<tag k="place" v="hamlet" />
		<tag k="ssr:stedsnr" v="201218" />
	</node>
	<node id="-798238" lat="70.314250006" lon="25.125066473">
		<tag k="name" v="Nygren" />
		<tag k="name:no" v="Nygren" />
		<tag k="place" v="farm" />
		<tag k="ssr:stedsnr" v="141599" />
	</node>
	<node id="-799261" lat="70.4773527815" lon="25.0661303783">
		<tag k="name" v="Buktkroken" />
		<tag k="name:no" v="Buktkroken" />
		<tag k="place" v="farm" />
		<tag k="ssr:stedsnr" v="565765" />
	</node>
	<node id="-798235" lat="70.3223361201" lon="25.1727331307">
		<tag k="name" v="Indre Sandvik" />
		<tag k="name:no" v="Indre Sandvik" />
		<tag k="place" v="farm" />
		<tag k="ssr:stedsnr" v="141595" />
	</node>
	<node id="-797722" lat="70.0543333439" lon="25.1025303449">
		<tag k="name" v="Bakkevoll" />
		<tag k="name:no" v="Bakkevoll" />
		<tag k="place" v="farm" />
		<tag k="ssr:stedsnr" v="19224" />
	</node>
	<node id="-798981" lat="70.2083222239" lon="24.9139831579">
		<tag k="name" v="Beavgohppi - Bevkop" />
		<tag k="name:no" v="Bevkop" />
		<tag k="name:se" v="Beavgohppi" />
		<tag k="place" v="hamlet" />
		<tag k="ssr:stedsnr" v="505072" />
	</node>
	<node id="-799256" lat="70.468213892" lon="25.0763275908">
		<tag k="name" v="Åsheim" />
		<tag k="name:no" v="Åsheim" />
		<tag k="place" v="farm" />
		<tag k="ssr:stedsnr" v="565750" />
	</node>
	<node id="-799767" lat="70.515850004" lon="25.7521747442">
		<tag k="name" v="Saltán" />
		<tag k="name:se" v="Saltán" />
		<tag k="place" v="isolated_dwelling" />
		<tag k="ssr:stedsnr" v="697346" />
	</node>
	<node id="-797718" lat="70.0321722268" lon="24.9232942567">
		<tag k="name" v="Sløkeng" />
		<tag k="name:no" v="Sløkeng" />
		<tag k="place" v="farm" />
		<tag k="ssr:stedsnr" v="19206" />
	</node>
	<node id="-798227" lat="70.3263361185" lon="25.0614998025">
		<tag k="name" v="Mikkeljord" />
		<tag k="name:no" v="Mikkeljord" />
		<tag k="place" v="farm" />
		<tag k="ssr:stedsnr" v="141553" />
	</node>
	<node id="-798467" lat="70.3608250026" lon="25.0611664865">
		<tag k="name" v="Solbakken" />
		<tag k="name:no" v="Solbakken" />
		<tag k="place" v="farm" />
		<tag k="ssr:stedsnr" v="202592" />
	</node>
	<node id="-800498" lat="70.0253138922" lon="24.9469914795">
		<tag k="name" v="Stangnes - Patoniemi" />
		<tag k="name:fkv" v="Patoniemi" />
		<tag k="name:no" v="Stangnes" />
		<tag k="place" v="farm" />
		<tag k="ssr:stedsnr" v="930273" />
	</node>
	<node id="-799245" lat="70.2755333363" lon="25.0477220255">
		<tag k="name" v="Dalen" />
		<tag k="name:no" v="Dalen" />
		<tag k="place" v="farm" />
		<tag k="ssr:stedsnr" v="565616" />
	</node>
	<node id="-800174" lat="70.3185611134" lon="25.0960192482">
		<tag k="name" v="Oppgård" />
		<tag k="name:no" v="Oppgård" />
		<tag k="place" v="farm" />
		<tag k="ssr:stedsnr" v="809613" />
	</node>
	<node id="-799753" lat="70.5433833409" lon="25.1464581435">
		<tag k="name" v="Uhcagiettáš - Innerjorda" />
		<tag k="name:no" v="Innerjorda" />
		<tag k="name:se" v="Uhcagiettáš" />
		<tag k="old_name:se" v="Uccagieddaš" />
		<tag k="place" v="locality" />
		<tag k="ssr:stedsnr" v="688940" />
	</node>
	<node id="-798216" lat="70.3276944517" lon="25.5155941957">
		<tag k="name" v="Sommerdalen" />
		<tag k="name:no" v="Sommerdalen" />
		<tag k="place" v="farm" />
		<tag k="ssr:stedsnr" v="141503" />
	</node>
	<node id="-798727" lat="70.0215194538" lon="24.9325636954">
		<tag k="name" v="Vestervoll" />
		<tag k="name:no" v="Vestervoll" />
		<tag k="place" v="farm" />
		<tag k="ssr:stedsnr" v="444227" />
	</node>
	<node id="-799749" lat="70.5253250102" lon="25.0843942532">
		<tag k="name" v="Solberg" />
		<tag k="name:no" v="Solberg" />
		<tag k="place" v="farm" />
		<tag k="ssr:stedsnr" v="688929" />
	</node>
	<node id="-799236" lat="70.3067416754" lon="25.0828498164">
		<tag k="name" v="Hansrud" />
		<tag k="name:no" v="Hansrud" />
		<tag k="place" v="farm" />
		<tag k="ssr:stedsnr" v="565578" />
	</node>
	<node id="-799235" lat="70.3098305608" lon="25.0910498021">
		<tag k="name" v="Breili" />
		<tag k="name:no" v="Breili" />
		<tag k="place" v="farm" />
		<tag k="ssr:stedsnr" v="565577" />
	</node>
	<node id="-800258" lat="70.4300666739" lon="25.1811053522">
		<tag k="alt_name:no" v="Myrnes" />
		<tag k="name" v="Bukta" />
		<tag k="name:no" v="Bukta" />
		<tag k="place" v="farm" />
		<tag k="ssr:stedsnr" v="837754" />
	</node>
	<node id="-797355" lat="70.3205250087" lon="25.5459803233">
		<tag k="name" v="Høybakken - Korkealuokka" />
		<tag k="name:fkv" v="Korkealuokka" />
		<tag k="name:no" v="Høybakken" />
		<tag k="place" v="farm" />
		<tag k="ssr:stedsnr" v="323468" />
	</node>
</osm>
