<?xml version="1.0" encoding="UTF-8"?>
<osm version="0.6" generator="osmapis">
	<node id="32576096" lat="62.1100913" lon="7.1212147" version="9" timestamp="2022-08-13T06:07:46Z" changeset="124841038" uid="3497659" user="NKA">
		<tag k="disused" v="yes" />
		<tag k="ele" v="250" />
		<tag k="name" v="Skageflå" />
		<tag k="place" v="isolated_dwelling" />
		<tag k="ssr:stedsnr" v="799402" />
	</node>
	<node id="85999899" lat="62.3081252" lon="6.9473718" version="6" timestamp="2022-08-13T06:07:46Z" changeset="124841038" uid="3497659" user="NKA">
		<tag k="name" v="Stranda" />
		<tag k="place" v="village" />
		<tag k="population" v="2908" />
		<tag k="population:date" v="2021-01-01" />
		<tag k="ref:ssb_tettsted" v="6111" />
		<tag k="source:population" v="SSB - befolkning i tettstedet" />
		<tag k="ssr:stedsnr" v="618607" />
	</node>
	<node id="85999900" lat="62.085337" lon="6.8696967" version="7" timestamp="2022-08-13T06:07:46Z" changeset="124841038" uid="3497659" user="NKA">
		<tag k="name" v="Hellesylt" />
		<tag k="place" v="village" />
		<tag k="population" v="254" />
		<tag k="population:date" v="2021-01-01" />
		<tag k="ref:ssb_tettsted" v="6112" />
		<tag k="source:population" v="SSB - befolkning i tettstedet" />
		<tag k="ssr:stedsnr" v="10385" />
	</node>
	<node id="85999901" lat="62.100629" lon="7.2062419" version="8" timestamp="2022-08-13T06:07:46Z" changeset="124841038" uid="3497659" user="NKA">
		<tag k="name" v="Geiranger" />
		<tag k="place" v="village" />
		<tag k="ssr:stedsnr" v="617420" />
		<tag k="wikidata" v="Q1019493" />
		<tag k="wikipedia" v="en:Geiranger" />
	</node>
	<node id="289187982" lat="62.0386947" lon="6.959448" version="3" timestamp="2022-08-13T06:07:46Z" changeset="124841038" uid="3497659" user="NKA">
		<tag k="name" v="Frøysa" />
		<tag k="place" v="hamlet" />
		<tag k="ssr:stedsnr" v="72438" />
	</node>
	<node id="289188317" lat="62.0333885" lon="7.0085146" version="3" timestamp="2022-08-13T06:07:46Z" changeset="124841038" uid="3497659" user="NKA">
		<tag k="name" v="Bjørdal" />
		<tag k="place" v="hamlet" />
		<tag k="ssr:stedsnr" v="518591" />
	</node>
	<node id="289188322" lat="62.0200125" lon="7.0194946" version="3" timestamp="2022-08-13T06:07:46Z" changeset="124841038" uid="3497659" user="NKA">
		<tag k="name" v="Vollset" />
		<tag k="place" v="hamlet" />
		<tag k="ssr:stedsnr" v="254442" />
	</node>
	<node id="312010136" lat="62.1076395" lon="7.1804258" version="5" timestamp="2022-08-13T06:07:46Z" changeset="124841038" uid="3497659" user="NKA">
		<tag k="name" v="Homlung" />
		<tag k="place" v="hamlet" />
		<tag k="ssr:stedsnr" v="435442" />
	</node>
	<node id="1334318110" lat="62.0739899" lon="6.8027816" version="2" timestamp="2022-08-13T06:07:46Z" changeset="124841038" uid="3497659" user="NKA">
		<tag k="name" v="Tryggestad" />
		<tag k="place" v="hamlet" />
		<tag k="ssr:stedsnr" v="556472" />
	</node>
	<node id="1834602981" lat="62.0960659" lon="7.2447487" version="2" timestamp="2022-08-13T06:07:46Z" changeset="124841038" uid="3497659" user="NKA">
		<tag k="historic" v="shieling" />
		<tag k="name" v="Grinddalssætra" />
		<tag k="place" v="isolated_dwelling" />
		<tag k="ssr:stedsnr" v="800103" />
	</node>
	<node id="1834602982" lat="62.083406" lon="7.2387966" version="2" timestamp="2022-08-13T06:07:46Z" changeset="124841038" uid="3497659" user="NKA">
		<tag k="historic" v="shieling" />
		<tag k="name" v="Vinsåssætra" />
		<tag k="place" v="farm" />
		<tag k="ssr:stedsnr" v="738134" />
	</node>
	<node id="2440721560" lat="62.3127349" lon="7.0222562" version="3" timestamp="2022-08-13T06:07:46Z" changeset="124841038" uid="3497659" user="NKA">
		<tag k="name" v="Ansok" />
		<tag k="place" v="farm" />
		<tag k="ssr:stedsnr" v="72595" />
	</node>
	<node id="3519999054" lat="62.3101902" lon="7.0712948" version="4" timestamp="2022-08-24T06:00:01Z" changeset="125298225" uid="12904042" user="DianaDemchuk">
		<tag k="name" v="Liabygda" />
		<tag k="place" v="village" />
		<tag k="ssr:stedsnr" v="678618" />
	</node>
	<node id="3520000778" lat="62.3152832" lon="7.0487035" version="3" timestamp="2022-08-13T06:07:46Z" changeset="124841038" uid="3497659" user="NKA">
		<tag k="name" v="Ringset" />
		<tag k="place" v="hamlet" />
		<tag k="ssr:stedsnr" v="557492" />
	</node>
	<node id="3715808731" lat="61.9938606" lon="6.8106833" version="2" timestamp="2022-08-13T06:07:46Z" changeset="124841038" uid="3497659" user="NKA">
		<tag k="historic" v="shieling" />
		<tag k="name" v="Røyrhussætra" />
		<tag k="place" v="hamlet" />
		<tag k="ssr:stedsnr" v="617250" />
	</node>
	<node id="3717336844" lat="62.109708" lon="6.7381848" version="2" timestamp="2022-08-13T06:07:46Z" changeset="124841038" uid="3497659" user="NKA">
		<tag k="name" v="Fivelstadhaugen" />
		<tag k="place" v="farm" />
		<tag k="ssr:stedsnr" v="557362" />
	</node>
	<node id="3717457473" lat="62.2470129" lon="6.8044985" version="2" timestamp="2022-08-13T06:07:46Z" changeset="124841038" uid="3497659" user="NKA">
		<tag k="historic" v="shieling" />
		<tag k="name" v="Liasætra" />
		<tag k="place" v="isolated_dwelling" />
		<tag k="ssr:stedsnr" v="132248" />
	</node>
	<node id="4880472367" lat="62.3111922" lon="7.0676463" version="2" timestamp="2022-08-13T06:07:46Z" changeset="124841038" uid="3497659" user="NKA">
		<tag k="name" v="Austlid" />
		<tag k="place" v="farm" />
		<tag k="ssr:stedsnr" v="636037" />
	</node>
	<node id="4880472368" lat="62.3114028" lon="7.0512084" version="2" timestamp="2022-08-13T06:07:46Z" changeset="124841038" uid="3497659" user="NKA">
		<tag k="name" v="Brauta" />
		<tag k="place" v="farm" />
		<tag k="ssr:stedsnr" v="314640" />
	</node>
	<node id="4880472369" lat="62.3092308" lon="7.0075805" version="2" timestamp="2022-08-13T06:07:46Z" changeset="124841038" uid="3497659" user="NKA">
		<tag k="name" v="Grova" />
		<tag k="place" v="farm" />
		<tag k="ssr:stedsnr" v="375591" />
	</node>
	<node id="4880478323" lat="62.3131919" lon="7.0617919" version="3" timestamp="2022-08-24T06:00:28Z" changeset="125298248" uid="12904042" user="DianaDemchuk">
		<tag k="name" v="Li" />
		<tag k="place" v="hamlet" />
		<tag k="ssr:stedsnr" v="800624" />
	</node>
	<node id="4880478326" lat="62.3140947" lon="7.064037" version="2" timestamp="2022-08-13T06:07:46Z" changeset="124841038" uid="3497659" user="NKA">
		<tag k="name" v="Reitane" />
		<tag k="place" v="farm" />
		<tag k="ssr:stedsnr" v="455036" />
	</node>
	<node id="4880478492" lat="62.3052059" lon="7.0941114" version="2" timestamp="2022-08-13T06:07:46Z" changeset="124841038" uid="3497659" user="NKA">
		<tag k="name" v="Ovrå" />
		<tag k="place" v="hamlet" />
		<tag k="ssr:stedsnr" v="739623" />
	</node>
	<node id="4880478547" lat="62.305971" lon="7.0973209" version="2" timestamp="2022-08-13T06:07:46Z" changeset="124841038" uid="3497659" user="NKA">
		<tag k="name" v="Furuly" />
		<tag k="place" v="farm" />
		<tag k="ssr:stedsnr" v="819168" />
	</node>
	<node id="5037574868" lat="62.1122667" lon="7.133269" version="2" timestamp="2022-08-13T06:07:46Z" changeset="124841038" uid="3497659" user="NKA">
		<tag k="historic" v="shieling" />
		<tag k="name" v="Homlungsætra" />
		<tag k="place" v="isolated_dwelling" />
		<tag k="ssr:stedsnr" v="617413" />
	</node>
	<node id="8310953460" lat="62.1095627" lon="7.0966126" version="3" timestamp="2022-08-13T06:07:46Z" changeset="124841038" uid="3497659" user="NKA">
		<tag k="name" v="Knivsflå" />
		<tag k="place" v="isolated_dwelling" />
		<tag k="ssr:stedsnr" v="678410" />
	</node>
	<node id="8370784479" lat="62.1309454" lon="7.117218" version="2" timestamp="2022-08-13T06:07:46Z" changeset="124841038" uid="3497659" user="NKA">
		<tag k="name" v="Gomsdalen" />
		<tag k="place" v="isolated_dwelling" />
		<tag k="ssr:stedsnr" v="11369" />
	</node>
	<node id="9385869493" lat="62.0424484" lon="7.0966027" version="2" timestamp="2022-08-13T06:07:46Z" changeset="124841038" uid="3497659" user="NKA">
		<tag k="alt_name" v="Bjørdalstølen" />
		<tag k="name" v="Bjørdalssætra" />
		<tag k="place" v="isolated_dwelling" />
		<tag k="ssr:stedsnr" v="11459" />
	</node>
	<node id="9385869494" lat="62.0440769" lon="7.0972496" version="2" timestamp="2022-08-13T06:07:46Z" changeset="124841038" uid="3497659" user="NKA">
		<tag k="alt_name" v="Holesætra" />
		<tag k="name" v="Holestølen" />
		<tag k="place" v="hamlet" />
		<tag k="ssr:stedsnr" v="254421" />
	</node>
	<node id="9385869516" lat="62.1002002" lon="7.127473" version="2" timestamp="2022-08-13T06:07:46Z" changeset="124841038" uid="3497659" user="NKA">
		<tag k="name" v="Skagedalssætra" />
		<tag k="place" v="isolated_dwelling" />
		<tag k="ssr:stedsnr" v="374429" />
	</node>
	<node id="9950517536" lat="62.1263139" lon="6.7398085" version="1" timestamp="2022-08-13T06:07:46Z" changeset="124841038" uid="3497659" user="NKA">
		<tag k="name" v="Fivelstadstølen" />
		<tag k="place" v="locality" />
		<tag k="ssr:stedsnr" v="760078" />
	</node>
	<node id="9950517537" lat="62.2889051" lon="6.8924134" version="1" timestamp="2022-08-13T06:07:46Z" changeset="124841038" uid="3497659" user="NKA">
		<tag k="name" v="Bergereiten" />
		<tag k="place" v="farm" />
		<tag k="ssr:stedsnr" v="824818" />
	</node>
	<node id="9950517538" lat="62.075564" lon="6.8213987" version="1" timestamp="2022-08-13T06:07:46Z" changeset="124841038" uid="3497659" user="NKA">
		<tag k="name" v="Nedsthaugen" />
		<tag k="place" v="farm" />
		<tag k="ssr:stedsnr" v="456588" />
	</node>
	<node id="9950517539" lat="62.0762478" lon="6.8182925" version="1" timestamp="2022-08-13T06:07:46Z" changeset="124841038" uid="3497659" user="NKA">
		<tag k="name" v="Øvsthaugen" />
		<tag k="place" v="farm" />
		<tag k="ssr:stedsnr" v="456584" />
	</node>
	<node id="9950517540" lat="62.2718464" lon="6.8632991" version="1" timestamp="2022-08-13T06:07:46Z" changeset="124841038" uid="3497659" user="NKA">
		<tag k="name" v="Nedrelia" />
		<tag k="place" v="farm" />
		<tag k="ssr:stedsnr" v="455644" />
	</node>
	<node id="9950517541" lat="62.2956949" lon="6.8336155" version="1" timestamp="2022-08-13T06:07:46Z" changeset="124841038" uid="3497659" user="NKA">
		<tag k="alt_name" v="Hevsdalssætra" />
		<tag k="historic" v="shieling" />
		<tag k="name" v="Hevsdalen" />
		<tag k="place" v="isolated_dwelling" />
		<tag k="ssr:stedsnr" v="690931" />
	</node>
	<node id="9950517542" lat="62.1724666" lon="6.9957724" version="1" timestamp="2022-08-13T06:07:46Z" changeset="124841038" uid="3497659" user="NKA">
		<tag k="name" v="Plassen" />
		<tag k="place" v="locality" />
		<tag k="ssr:stedsnr" v="678357" />
	</node>
	<node id="9950517543" lat="62.0899248" lon="6.849836" version="1" timestamp="2022-08-13T06:07:46Z" changeset="124841038" uid="3497659" user="NKA">
		<tag k="name" v="Øgarden" />
		<tag k="place" v="farm" />
		<tag k="ssr:stedsnr" v="217794" />
	</node>
	<node id="9950517544" lat="62.267177" lon="6.8391" version="1" timestamp="2022-08-13T06:07:46Z" changeset="124841038" uid="3497659" user="NKA">
		<tag k="name" v="Arneberg" />
		<tag k="place" v="farm" />
		<tag k="ssr:stedsnr" v="678559" />
	</node>
	<node id="9950517545" lat="62.2840898" lon="6.9703034" version="1" timestamp="2022-08-13T06:07:46Z" changeset="124841038" uid="3497659" user="NKA">
		<tag k="alt_name" v="Hessegjerdet" />
		<tag k="name" v="Hessgjerdet" />
		<tag k="place" v="farm" />
		<tag k="ssr:stedsnr" v="800596" />
	</node>
	<node id="9950517546" lat="62.2956972" lon="6.9019085" version="1" timestamp="2022-08-13T06:07:46Z" changeset="124841038" uid="3497659" user="NKA">
		<tag k="name" v="Sløgstad" />
		<tag k="place" v="farm" />
		<tag k="ssr:stedsnr" v="618576" />
	</node>
	<node id="9950517547" lat="62.0650052" lon="6.8407101" version="1" timestamp="2022-08-13T06:07:46Z" changeset="124841038" uid="3497659" user="NKA">
		<tag k="name" v="Toskedalssætra" />
		<tag k="place" v="isolated_dwelling" />
		<tag k="ssr:stedsnr" v="800421" />
	</node>
	<node id="9950517548" lat="62.097856" lon="6.7599866" version="1" timestamp="2022-08-13T06:07:46Z" changeset="124841038" uid="3497659" user="NKA">
		<tag k="alt_name" v="Sæter" />
		<tag k="name" v="Sætra" />
		<tag k="place" v="hamlet" />
		<tag k="ssr:stedsnr" v="435450" />
	</node>
	<node id="9950517549" lat="62.2425509" lon="6.9092002" version="1" timestamp="2022-08-13T06:07:46Z" changeset="124841038" uid="3497659" user="NKA">
		<tag k="name" v="Rødset" />
		<tag k="place" v="hamlet" />
		<tag k="ssr:stedsnr" v="678285" />
	</node>
	<node id="9950517550" lat="62.2731537" lon="6.8934001" version="1" timestamp="2022-08-13T06:07:46Z" changeset="124841038" uid="3497659" user="NKA">
		<tag k="name" v="Gjerde" />
		<tag k="place" v="farm" />
		<tag k="ssr:stedsnr" v="436551" />
	</node>
	<node id="9950517551" lat="62.2822264" lon="6.8741592" version="1" timestamp="2022-08-13T06:07:46Z" changeset="124841038" uid="3497659" user="NKA">
		<tag k="name" v="Øvre Furset" />
		<tag k="place" v="farm" />
		<tag k="ssr:stedsnr" v="152607" />
	</node>
	<node id="9950517552" lat="61.9958632" lon="7.0417902" version="1" timestamp="2022-08-13T06:07:46Z" changeset="124841038" uid="3497659" user="NKA">
		<tag k="historic" v="shieling" />
		<tag k="name" v="Nedstevassætra" />
		<tag k="place" v="isolated_dwelling" />
		<tag k="ssr:stedsnr" v="798382" />
	</node>
	<node id="9950517553" lat="62.2470436" lon="6.909845" version="1" timestamp="2022-08-13T06:07:46Z" changeset="124841038" uid="3497659" user="NKA">
		<tag k="name" v="Kallbakken" />
		<tag k="place" v="farm" />
		<tag k="ssr:stedsnr" v="576661" />
	</node>
	<node id="9950517554" lat="62.0700449" lon="6.9202004" version="1" timestamp="2022-08-13T06:07:46Z" changeset="124841038" uid="3497659" user="NKA">
		<tag k="name" v="Sunnylvsbygda" />
		<tag k="place" v="hamlet" />
		<tag k="ssr:stedsnr" v="617459" />
	</node>
	<node id="9950517555" lat="62.0897417" lon="6.7781307" version="1" timestamp="2022-08-13T06:07:46Z" changeset="124841038" uid="3497659" user="NKA">
		<tag k="name" v="Fredheim" />
		<tag k="place" v="farm" />
		<tag k="ssr:stedsnr" v="882780" />
	</node>
	<node id="9950517556" lat="62.2890434" lon="6.9062241" version="1" timestamp="2022-08-13T06:07:46Z" changeset="124841038" uid="3497659" user="NKA">
		<tag k="name" v="Neset" />
		<tag k="place" v="farm" />
		<tag k="ssr:stedsnr" v="703828" />
	</node>
	<node id="9950517557" lat="62.2618167" lon="6.8943213" version="1" timestamp="2022-08-13T06:07:46Z" changeset="124841038" uid="3497659" user="NKA">
		<tag k="name" v="Habostad" />
		<tag k="place" v="hamlet" />
		<tag k="ssr:stedsnr" v="800917" />
	</node>
	<node id="9950517558" lat="62.0319122" lon="6.7359484" version="1" timestamp="2022-08-13T06:07:46Z" changeset="124841038" uid="3497659" user="NKA">
		<tag k="name" v="Seljehaugen" />
		<tag k="place" v="isolated_dwelling" />
		<tag k="ssr:stedsnr" v="638250" />
	</node>
	<node id="9950517559" lat="62.0734777" lon="6.9047153" version="1" timestamp="2022-08-13T06:07:46Z" changeset="124841038" uid="3497659" user="NKA">
		<tag k="name" v="Stadheim" />
		<tag k="place" v="hamlet" />
		<tag k="ssr:stedsnr" v="800430" />
	</node>
	<node id="9950517560" lat="61.9994055" lon="6.993175" version="1" timestamp="2022-08-13T06:07:46Z" changeset="124841038" uid="3497659" user="NKA">
		<tag k="name" v="Vollsæter" />
		<tag k="place" v="locality" />
		<tag k="ssr:stedsnr" v="374410" />
	</node>
	<node id="9950517561" lat="62.1190489" lon="6.9224795" version="1" timestamp="2022-08-13T06:07:46Z" changeset="124841038" uid="3497659" user="NKA">
		<tag k="name" v="Nedre Ljøen" />
		<tag k="place" v="hamlet" />
		<tag k="ssr:stedsnr" v="132346" />
	</node>
	<node id="9950517562" lat="62.0821389" lon="6.9296502" version="1" timestamp="2022-08-13T06:07:46Z" changeset="124841038" uid="3497659" user="NKA">
		<tag k="historic" v="shieling" />
		<tag k="name" v="Vindholen" />
		<tag k="place" v="isolated_dwelling" />
		<tag k="ssr:stedsnr" v="860471" />
	</node>
	<node id="9950517563" lat="62.0667645" lon="6.9353354" version="1" timestamp="2022-08-13T06:07:46Z" changeset="124841038" uid="3497659" user="NKA">
		<tag k="name" v="Øye" />
		<tag k="place" v="hamlet" />
		<tag k="ssr:stedsnr" v="193453" />
	</node>
	<node id="9950517564" lat="62.3233195" lon="7.0786973" version="1" timestamp="2022-08-13T06:07:46Z" changeset="124841038" uid="3497659" user="NKA">
		<tag k="historic" v="shieling" />
		<tag k="name" v="Øvstestølen" />
		<tag k="place" v="isolated_dwelling" />
		<tag k="ssr:stedsnr" v="940137" />
	</node>
	<node id="9950517565" lat="62.0844916" lon="6.8262139" version="1" timestamp="2022-08-13T06:07:46Z" changeset="124841038" uid="3497659" user="NKA">
		<tag k="name" v="Øvstesætra" />
		<tag k="place" v="locality" />
		<tag k="ssr:stedsnr" v="637643" />
	</node>
	<node id="9950517566" lat="62.3316861" lon="7.0512056" version="1" timestamp="2022-08-13T06:07:46Z" changeset="124841038" uid="3497659" user="NKA">
		<tag k="historic" v="shieling" />
		<tag k="name" v="Gamlesætra" />
		<tag k="place" v="isolated_dwelling" />
		<tag k="ssr:stedsnr" v="861478" />
	</node>
	<node id="9950517567" lat="62.0178277" lon="7.0021057" version="1" timestamp="2022-08-13T06:07:46Z" changeset="124841038" uid="3497659" user="NKA">
		<tag k="historic" v="shieling" />
		<tag k="name" v="Fedalssætra" />
		<tag k="place" v="isolated_dwelling" />
		<tag k="ssr:stedsnr" v="921501" />
	</node>
	<node id="9950517568" lat="62.3051083" lon="7.1352251" version="1" timestamp="2022-08-13T06:07:46Z" changeset="124841038" uid="3497659" user="NKA">
		<tag k="name" v="Gamlestøylen" />
		<tag k="place" v="locality" />
		<tag k="ssr:stedsnr" v="273194" />
	</node>
	<node id="9950517569" lat="62.0479934" lon="6.9439677" version="1" timestamp="2022-08-13T06:07:46Z" changeset="124841038" uid="3497659" user="NKA">
		<tag k="alt_name" v="Myrane" />
		<tag k="name" v="Frøysøye" />
		<tag k="place" v="farm" />
		<tag k="ssr:stedsnr" v="556480" />
	</node>
	<node id="9950517570" lat="62.0952258" lon="6.8562921" version="1" timestamp="2022-08-13T06:07:46Z" changeset="124841038" uid="3497659" user="NKA">
		<tag k="name" v="Ringdalen" />
		<tag k="place" v="hamlet" />
		<tag k="ssr:stedsnr" v="921428" />
	</node>
	<node id="9950517571" lat="62.25945" lon="6.8373334" version="1" timestamp="2022-08-13T06:07:46Z" changeset="124841038" uid="3497659" user="NKA">
		<tag k="historic" v="shieling" />
		<tag k="name" v="Svefonna" />
		<tag k="place" v="isolated_dwelling" />
		<tag k="ssr:stedsnr" v="800915" />
	</node>
	<node id="9950517572" lat="62.0357077" lon="6.7633082" version="1" timestamp="2022-08-13T06:07:46Z" changeset="124841038" uid="3497659" user="NKA">
		<tag k="name" v="Solheim" />
		<tag k="place" v="farm" />
		<tag k="ssr:stedsnr" v="821377" />
	</node>
	<node id="9950517573" lat="62.1250159" lon="7.1777388" version="1" timestamp="2022-08-13T06:07:46Z" changeset="124841038" uid="3497659" user="NKA">
		<tag k="alt_name" v="Mølsæter" />
		<tag k="name" v="Møllsæter" />
		<tag k="place" v="hamlet" />
		<tag k="ssr:stedsnr" v="739379" />
	</node>
	<node id="9950517574" lat="62.1768353" lon="7.0098741" version="1" timestamp="2022-08-13T06:07:46Z" changeset="124841038" uid="3497659" user="NKA">
		<tag k="historic" v="shieling" />
		<tag k="name" v="Litlesætra" />
		<tag k="place" v="isolated_dwelling" />
		<tag k="ssr:stedsnr" v="395719" />
	</node>
	<node id="9950517575" lat="62.1315655" lon="7.1931684" version="1" timestamp="2022-08-13T06:07:46Z" changeset="124841038" uid="3497659" user="NKA">
		<tag k="historic" v="shieling" />
		<tag k="loc_name" v="Møllssætra" />
		<tag k="name" v="Møllsætrane" />
		<tag k="place" v="isolated_dwelling" />
		<tag k="ssr:stedsnr" v="314407" />
	</node>
	<node id="9950517576" lat="62.1425972" lon="7.1792779" version="1" timestamp="2022-08-13T06:07:46Z" changeset="124841038" uid="3497659" user="NKA">
		<tag k="historic" v="shieling" />
		<tag k="name" v="Resstølen" />
		<tag k="place" v="isolated_dwelling" />
		<tag k="ssr:stedsnr" v="399575" />
	</node>
	<node id="9950517577" lat="62.0803209" lon="6.881328" version="1" timestamp="2022-08-13T06:07:46Z" changeset="124841038" uid="3497659" user="NKA">
		<tag k="name" v="Korsbrekke" />
		<tag k="place" v="hamlet" />
		<tag k="ssr:stedsnr" v="800400" />
	</node>
	<node id="9950517578" lat="62.2552691" lon="6.9775411" version="1" timestamp="2022-08-13T06:07:46Z" changeset="124841038" uid="3497659" user="NKA">
		<tag k="historic" v="shieling" />
		<tag k="name" v="Uksagsætra" />
		<tag k="place" v="hamlet" />
		<tag k="ssr:stedsnr" v="799925" />
	</node>
	<node id="9950517579" lat="62.1278269" lon="7.1851896" version="1" timestamp="2022-08-13T06:07:46Z" changeset="124841038" uid="3497659" user="NKA">
		<tag k="name" v="Storeløene" />
		<tag k="place" v="locality" />
		<tag k="ssr:stedsnr" v="96990" />
	</node>
	<node id="9950517580" lat="62.0761785" lon="6.89175" version="1" timestamp="2022-08-13T06:07:46Z" changeset="124841038" uid="3497659" user="NKA">
		<tag k="name" v="Husøya" />
		<tag k="place" v="farm" />
		<tag k="ssr:stedsnr" v="217812" />
	</node>
	<node id="9950517581" lat="62.1607529" lon="7.0309409" version="1" timestamp="2022-08-13T06:07:46Z" changeset="124841038" uid="3497659" user="NKA">
		<tag k="name" v="Seljefloten" />
		<tag k="place" v="farm" />
		<tag k="ssr:stedsnr" v="375301" />
	</node>
	<node id="9950517582" lat="62.1446056" lon="6.9996306" version="1" timestamp="2022-08-13T06:07:46Z" changeset="124841038" uid="3497659" user="NKA">
		<tag k="name" v="Furneset" />
		<tag k="place" v="farm" />
		<tag k="ssr:stedsnr" v="72328" />
	</node>
	<node id="9950517583" lat="62.2257268" lon="6.9142477" version="1" timestamp="2022-08-13T06:07:46Z" changeset="124841038" uid="3497659" user="NKA">
		<tag k="alt_name" v="Heim-Fjørstad;Heimste Fjørstad;Fjørstad, heimste" />
		<tag k="name" v="Fjørstad" />
		<tag k="place" v="hamlet" />
		<tag k="ssr:stedsnr" v="496298" />
	</node>
	<node id="9950517584" lat="62.0522444" lon="6.793603" version="1" timestamp="2022-08-13T06:07:46Z" changeset="124841038" uid="3497659" user="NKA">
		<tag k="name" v="Tronstad" />
		<tag k="place" v="farm" />
		<tag k="ssr:stedsnr" v="739447" />
	</node>
	<node id="9950517585" lat="62.2815287" lon="6.9822529" version="1" timestamp="2022-08-13T06:07:46Z" changeset="124841038" uid="3497659" user="NKA">
		<tag k="name" v="Uksvika" />
		<tag k="place" v="hamlet" />
		<tag k="ssr:stedsnr" v="800566" />
	</node>
	<node id="9950517586" lat="62.1629861" lon="7.0416778" version="1" timestamp="2022-08-13T06:07:46Z" changeset="124841038" uid="3497659" user="NKA">
		<tag k="historic" v="shieling" />
		<tag k="name" v="Stokkesætra" />
		<tag k="place" v="isolated_dwelling" />
		<tag k="ssr:stedsnr" v="11326" />
	</node>
	<node id="9950517587" lat="62.1238469" lon="7.1197166" version="1" timestamp="2022-08-13T06:07:46Z" changeset="124841038" uid="3497659" user="NKA">
		<tag k="name" v="Bringa" />
		<tag k="place" v="locality" />
		<tag k="ssr:stedsnr" v="921411" />
	</node>
	<node id="9950517588" lat="62.3223472" lon="6.9888057" version="1" timestamp="2022-08-13T06:07:46Z" changeset="124841038" uid="3497659" user="NKA">
		<tag k="historic" v="shieling" />
		<tag k="name" v="Klebergsætra" />
		<tag k="place" v="isolated_dwelling" />
		<tag k="ssr:stedsnr" v="679456" />
	</node>
	<node id="9950517589" lat="62.178272" lon="7.016411" version="1" timestamp="2022-08-13T06:07:46Z" changeset="124841038" uid="3497659" user="NKA">
		<tag k="name" v="Åkernesodden" />
		<tag k="place" v="locality" />
		<tag k="ssr:stedsnr" v="638680" />
	</node>
	<node id="9950517590" lat="62.0429312" lon="6.7901063" version="1" timestamp="2022-08-13T06:07:46Z" changeset="124841038" uid="3497659" user="NKA">
		<tag k="name" v="Tronstad" />
		<tag k="place" v="hamlet" />
		<tag k="ssr:stedsnr" v="496495" />
	</node>
	<node id="9950517591" lat="62.2746098" lon="6.8605879" version="1" timestamp="2022-08-13T06:07:46Z" changeset="124841038" uid="3497659" user="NKA">
		<tag k="name" v="Nordlia" />
		<tag k="place" v="isolated_dwelling" />
		<tag k="ssr:stedsnr" v="941572" />
	</node>
	<node id="9950517592" lat="62.0852269" lon="7.2157124" version="1" timestamp="2022-08-13T06:07:46Z" changeset="124841038" uid="3497659" user="NKA">
		<tag k="name" v="Gjerdet" />
		<tag k="place" v="farm" />
		<tag k="ssr:stedsnr" v="699220" />
	</node>
	<node id="9950517593" lat="62.2709125" lon="6.8567279" version="1" timestamp="2022-08-13T06:07:46Z" changeset="124841038" uid="3497659" user="NKA">
		<tag k="name" v="Lia" />
		<tag k="place" v="hamlet" />
		<tag k="ssr:stedsnr" v="253588" />
	</node>
	<node id="9950517594" lat="62.1532863" lon="7.0465543" version="1" timestamp="2022-08-13T06:07:46Z" changeset="124841038" uid="3497659" user="NKA">
		<tag k="name" v="Dammen" />
		<tag k="place" v="isolated_dwelling" />
		<tag k="ssr:stedsnr" v="517306" />
	</node>
	<node id="9950517595" lat="62.0360528" lon="6.7610639" version="1" timestamp="2022-08-13T06:07:46Z" changeset="124841038" uid="3497659" user="NKA">
		<tag k="name" v="Langøylia" />
		<tag k="place" v="farm" />
		<tag k="ssr:stedsnr" v="436443" />
	</node>
	<node id="9950517596" lat="62.08501" lon="7.223499" version="1" timestamp="2022-08-13T06:07:46Z" changeset="124841038" uid="3497659" user="NKA">
		<tag k="alt_name" v="Flydal" />
		<tag k="name" v="Flydalen" />
		<tag k="place" v="hamlet" />
		<tag k="ssr:stedsnr" v="678710" />
	</node>
	<node id="9950517597" lat="62.085325" lon="7.2169751" version="1" timestamp="2022-08-13T06:07:46Z" changeset="124841038" uid="3497659" user="NKA">
		<tag k="name" v="Flydal" />
		<tag k="place" v="farm" />
		<tag k="ssr:stedsnr" v="496462" />
	</node>
	<node id="9950517598" lat="62.1348681" lon="7.1924624" version="1" timestamp="2022-08-13T06:07:46Z" changeset="124841038" uid="3497659" user="NKA">
		<tag k="name" v="Grandesætra" />
		<tag k="place" v="isolated_dwelling" />
		<tag k="ssr:stedsnr" v="496403" />
	</node>
	<node id="9950517599" lat="62.3038781" lon="6.9538465" version="1" timestamp="2022-08-13T06:07:46Z" changeset="124841038" uid="3497659" user="NKA">
		<tag k="name" v="Hagen" />
		<tag k="place" v="hamlet" />
		<tag k="ssr:stedsnr" v="375574" />
	</node>
	<node id="9950517600" lat="62.2697716" lon="6.8842763" version="1" timestamp="2022-08-13T06:07:46Z" changeset="124841038" uid="3497659" user="NKA">
		<tag k="name" v="Sve" />
		<tag k="place" v="hamlet" />
		<tag k="ssr:stedsnr" v="436554" />
	</node>
	<node id="9950517601" lat="62.2936044" lon="6.9568368" version="1" timestamp="2022-08-13T06:07:46Z" changeset="124841038" uid="3497659" user="NKA">
		<tag k="name" v="Helsem" />
		<tag k="place" v="hamlet" />
		<tag k="ssr:stedsnr" v="679535" />
	</node>
	<node id="9950517602" lat="62.0466259" lon="6.7996164" version="1" timestamp="2022-08-13T06:07:46Z" changeset="124841038" uid="3497659" user="NKA">
		<tag k="name" v="Tronstadslettene" />
		<tag k="place" v="farm" />
		<tag k="ssr:stedsnr" v="375394" />
	</node>
	<node id="9950517603" lat="62.3012387" lon="6.9451619" version="1" timestamp="2022-08-13T06:07:46Z" changeset="124841038" uid="3497659" user="NKA">
		<tag k="alt_name" v="Kjølvås" />
		<tag k="name" v="Kjølås" />
		<tag k="place" v="hamlet" />
		<tag k="ssr:stedsnr" v="375556" />
	</node>
	<node id="9950517604" lat="62.0557406" lon="6.9438097" version="1" timestamp="2022-08-13T06:07:46Z" changeset="124841038" uid="3497659" user="NKA">
		<tag k="name" v="Helset" />
		<tag k="place" v="hamlet" />
		<tag k="ssr:stedsnr" v="800445" />
	</node>
	<node id="9950517605" lat="62.0368944" lon="7.0028338" version="1" timestamp="2022-08-13T06:07:46Z" changeset="124841038" uid="3497659" user="NKA">
		<tag k="name" v="Par" />
		<tag k="place" v="farm" />
		<tag k="ssr:stedsnr" v="132440" />
	</node>
	<node id="9950517606" lat="62.0447861" lon="7.0244362" version="1" timestamp="2022-08-13T06:07:46Z" changeset="124841038" uid="3497659" user="NKA">
		<tag k="name" v="Heimstesetra" />
		<tag k="place" v="locality" />
		<tag k="ssr:stedsnr" v="821615" />
	</node>
	<node id="9950517607" lat="62.2778547" lon="6.9046807" version="1" timestamp="2022-08-13T06:07:46Z" changeset="124841038" uid="3497659" user="NKA">
		<tag k="historic" v="shieling" />
		<tag k="name" v="Dregesætra" />
		<tag k="place" v="isolated_dwelling" />
		<tag k="ssr:stedsnr" v="375545" />
	</node>
	<node id="9950517608" lat="62.0165208" lon="6.7643853" version="1" timestamp="2022-08-13T06:07:46Z" changeset="124841038" uid="3497659" user="NKA">
		<tag k="name" v="Røyrhus" />
		<tag k="place" v="hamlet" />
		<tag k="ssr:stedsnr" v="11487" />
	</node>
	<node id="9950517609" lat="62.0393548" lon="7.0097369" version="1" timestamp="2022-08-13T06:07:46Z" changeset="124841038" uid="3497659" user="NKA">
		<tag k="name" v="Gjerdebakken" />
		<tag k="place" v="farm" />
		<tag k="ssr:stedsnr" v="333629" />
	</node>
	<node id="9950517610" lat="62.303297" lon="6.9427162" version="1" timestamp="2022-08-13T06:07:46Z" changeset="124841038" uid="3497659" user="NKA">
		<tag k="name" v="Lunde" />
		<tag k="place" v="farm" />
		<tag k="ssr:stedsnr" v="35853" />
	</node>
	<node id="9950517611" lat="62.2660682" lon="6.9654354" version="1" timestamp="2022-08-13T06:07:46Z" changeset="124841038" uid="3497659" user="NKA">
		<tag k="alt_name" v="Opsviksetra" />
		<tag k="historic" v="shieling" />
		<tag k="name" v="Uksviksætra" />
		<tag k="place" v="isolated_dwelling" />
		<tag k="ssr:stedsnr" v="132917" />
	</node>
	<node id="9950517612" lat="62.0483111" lon="7.0000667" version="1" timestamp="2022-08-13T06:07:46Z" changeset="124841038" uid="3497659" user="NKA">
		<tag k="name" v="Helsetsætra" />
		<tag k="place" v="isolated_dwelling" />
		<tag k="ssr:stedsnr" v="72420" />
	</node>
	<node id="9950517613" lat="62.28407" lon="6.9802927" version="1" timestamp="2022-08-13T06:07:46Z" changeset="124841038" uid="3497659" user="NKA">
		<tag k="loc_name" v="Sandvika" />
		<tag k="name" v="Sandvik" />
		<tag k="place" v="farm" />
		<tag k="ssr:stedsnr" v="11566" />
	</node>
	<node id="9950517614" lat="62.2891876" lon="6.8882632" version="1" timestamp="2022-08-13T06:07:46Z" changeset="124841038" uid="3497659" user="NKA">
		<tag k="name" v="Kjølen" />
		<tag k="place" v="hamlet" />
		<tag k="ssr:stedsnr" v="72560" />
	</node>
	<node id="9950517615" lat="62.2727917" lon="6.9140613" version="1" timestamp="2022-08-13T06:07:46Z" changeset="124841038" uid="3497659" user="NKA">
		<tag k="historic" v="shieling" />
		<tag k="name" v="Dalebotn" />
		<tag k="place" v="isolated_dwelling" />
		<tag k="ssr:stedsnr" v="11573" />
	</node>
	<node id="9950517616" lat="62.0768987" lon="7.2414834" version="1" timestamp="2022-08-13T06:07:46Z" changeset="124841038" uid="3497659" user="NKA">
		<tag k="name" v="Ørjasætra" />
		<tag k="place" v="hamlet" />
		<tag k="ssr:stedsnr" v="131125" />
	</node>
	<node id="9950517617" lat="62.2989587" lon="6.9499557" version="1" timestamp="2022-08-13T06:07:46Z" changeset="124841038" uid="3497659" user="NKA">
		<tag k="name" v="Giskehaug" />
		<tag k="place" v="hamlet" />
		<tag k="ssr:stedsnr" v="193613" />
	</node>
	<node id="9950517618" lat="62.0284884" lon="6.7256299" version="1" timestamp="2022-08-13T06:07:46Z" changeset="124841038" uid="3497659" user="NKA">
		<tag k="alt_name" v="Kjellstadli" />
		<tag k="name" v="Kjellstadlia" />
		<tag k="place" v="hamlet" />
		<tag k="ssr:stedsnr" v="557433" />
	</node>
	<node id="9950517619" lat="62.0528207" lon="6.790448" version="1" timestamp="2022-08-13T06:07:46Z" changeset="124841038" uid="3497659" user="NKA">
		<tag k="name" v="Strandhaugen" />
		<tag k="place" v="farm" />
		<tag k="ssr:stedsnr" v="759792" />
	</node>
	<node id="9950517620" lat="62.0956083" lon="7.1147029" version="1" timestamp="2022-08-13T06:07:46Z" changeset="124841038" uid="3497659" user="NKA">
		<tag k="name" v="Skageflåsætra" />
		<tag k="place" v="locality" />
		<tag k="ssr:stedsnr" v="93564" />
	</node>
	<node id="9950517621" lat="62.2954689" lon="6.8715194" version="1" timestamp="2022-08-13T06:07:46Z" changeset="124841038" uid="3497659" user="NKA">
		<tag k="historic" v="shieling" />
		<tag k="name" v="Ringstadsætra" />
		<tag k="place" v="hamlet" />
		<tag k="ssr:stedsnr" v="193606" />
	</node>
	<node id="9950517622" lat="62.1207838" lon="7.181459" version="1" timestamp="2022-08-13T06:07:46Z" changeset="124841038" uid="3497659" user="NKA">
		<tag k="name" v="Møllsbygda" />
		<tag k="place" v="hamlet" />
		<tag k="ssr:stedsnr" v="92614" />
	</node>
	<node id="9950517623" lat="62.15693" lon="7.043535" version="1" timestamp="2022-08-13T06:07:46Z" changeset="124841038" uid="3497659" user="NKA">
		<tag k="name" v="Øvstegarden" />
		<tag k="place" v="farm" />
		<tag k="ssr:stedsnr" v="921375" />
	</node>
	<node id="9950517624" lat="62.0533583" lon="6.7909556" version="1" timestamp="2022-08-13T06:07:46Z" changeset="124841038" uid="3497659" user="NKA">
		<tag k="name" v="Leite" />
		<tag k="place" v="farm" />
		<tag k="ssr:stedsnr" v="395831" />
	</node>
	<node id="9950517625" lat="62.0848527" lon="7.2095668" version="1" timestamp="2022-08-13T06:07:46Z" changeset="124841038" uid="3497659" user="NKA">
		<tag k="name" v="Klonken" />
		<tag k="place" v="isolated_dwelling" />
		<tag k="ssr:stedsnr" v="760261" />
	</node>
	<node id="9950517626" lat="62.0970584" lon="7.2040937" version="1" timestamp="2022-08-13T06:07:46Z" changeset="124841038" uid="3497659" user="NKA">
		<tag k="name" v="Gjørva" />
		<tag k="place" v="hamlet" />
		<tag k="ssr:stedsnr" v="739413" />
	</node>
	<node id="9950517627" lat="62.2769715" lon="6.9419702" version="1" timestamp="2022-08-13T06:07:46Z" changeset="124841038" uid="3497659" user="NKA">
		<tag k="historic" v="shieling" />
		<tag k="name" v="Helsemsetra" />
		<tag k="place" v="isolated_dwelling" />
		<tag k="ssr:stedsnr" v="702716" />
	</node>
	<node id="9950517628" lat="62.073179" lon="6.8191632" version="1" timestamp="2022-08-13T06:07:46Z" changeset="124841038" uid="3497659" user="NKA">
		<tag k="name" v="Karbø" />
		<tag k="place" v="farm" />
		<tag k="ssr:stedsnr" v="921471" />
	</node>
	<node id="9950517629" lat="62.1144472" lon="7.1057612" version="1" timestamp="2022-08-13T06:07:46Z" changeset="124841038" uid="3497659" user="NKA">
		<tag k="name" v="Knivsnaustet" />
		<tag k="place" v="locality" />
		<tag k="ssr:stedsnr" v="760627" />
	</node>
	<node id="9950517630" lat="62.158016" lon="7.0381017" version="1" timestamp="2022-08-13T06:07:46Z" changeset="124841038" uid="3497659" user="NKA">
		<tag k="alt_name" v="Midgarden" />
		<tag k="name" v="Megarden" />
		<tag k="place" v="farm" />
		<tag k="ssr:stedsnr" v="436307" />
	</node>
	<node id="9950517631" lat="62.0771667" lon="7.2158696" version="1" timestamp="2022-08-13T06:07:46Z" changeset="124841038" uid="3497659" user="NKA">
		<tag k="historic" v="shieling" />
		<tag k="name" v="Flydalsætra" />
		<tag k="place" v="isolated_dwelling" />
		<tag k="ssr:stedsnr" v="739417" />
	</node>
	<node id="9950517632" lat="62.2840415" lon="6.8776473" version="1" timestamp="2022-08-13T06:07:46Z" changeset="124841038" uid="3497659" user="NKA">
		<tag k="name" v="Vollane" />
		<tag k="place" v="farm" />
		<tag k="ssr:stedsnr" v="698557" />
	</node>
	<node id="9950517633" lat="62.0936861" lon="7.1223694" version="1" timestamp="2022-08-13T06:07:46Z" changeset="124841038" uid="3497659" user="NKA">
		<tag k="name" v="Tverrabøsætra" />
		<tag k="place" v="locality" />
		<tag k="ssr:stedsnr" v="193444" />
	</node>
	<node id="9950517634" lat="62.1217194" lon="7.161539" version="1" timestamp="2022-08-13T06:07:46Z" changeset="124841038" uid="3497659" user="NKA">
		<tag k="name" v="Hysket" />
		<tag k="place" v="isolated_dwelling" />
		<tag k="ssr:stedsnr" v="193416" />
	</node>
	<node id="9950517635" lat="62.2776382" lon="6.9409784" version="1" timestamp="2022-08-13T06:07:46Z" changeset="124841038" uid="3497659" user="NKA">
		<tag k="historic" v="shieling" />
		<tag k="name" v="Smørhola" />
		<tag k="place" v="isolated_dwelling" />
		<tag k="ssr:stedsnr" v="679541" />
	</node>
	<node id="9950517636" lat="62.129375" lon="7.1746111" version="1" timestamp="2022-08-13T06:07:46Z" changeset="124841038" uid="3497659" user="NKA">
		<tag k="alt_name" v="Hausetsætrane" />
		<tag k="historic" v="shieling" />
		<tag k="name" v="Haugset" />
		<tag k="place" v="isolated_dwelling" />
		<tag k="ssr:stedsnr" v="193393" />
	</node>
	<node id="9950517637" lat="62.2771455" lon="6.8702351" version="1" timestamp="2022-08-13T06:07:46Z" changeset="124841038" uid="3497659" user="NKA">
		<tag k="name" v="Nedre Furset" />
		<tag k="place" v="farm" />
		<tag k="ssr:stedsnr" v="637612" />
	</node>
	<node id="9950517638" lat="62.331108" lon="6.9133236" version="1" timestamp="2022-08-13T06:07:46Z" changeset="124841038" uid="3497659" user="NKA">
		<tag k="name" v="Espehjelle" />
		<tag k="place" v="farm" />
		<tag k="ssr:stedsnr" v="618510" />
	</node>
	<node id="9950517639" lat="62.097852" lon="7.2112388" version="1" timestamp="2022-08-13T06:07:46Z" changeset="124841038" uid="3497659" user="NKA">
		<tag k="name" v="Vinje" />
		<tag k="place" v="hamlet" />
		<tag k="ssr:stedsnr" v="629211" />
	</node>
	<node id="9950517640" lat="62.3096361" lon="6.9358224" version="1" timestamp="2022-08-13T06:07:46Z" changeset="124841038" uid="3497659" user="NKA">
		<tag k="name" v="Orreneset" />
		<tag k="place" v="locality" />
		<tag k="ssr:stedsnr" v="568930" />
	</node>
	<node id="9950517641" lat="62.2694016" lon="6.8569429" version="1" timestamp="2022-08-13T06:07:46Z" changeset="124841038" uid="3497659" user="NKA">
		<tag k="name" v="Fremstelia" />
		<tag k="place" v="farm" />
		<tag k="ssr:stedsnr" v="455679" />
	</node>
	<node id="9950517642" lat="62.0648138" lon="7.2567334" version="1" timestamp="2022-08-13T06:07:46Z" changeset="124841038" uid="3497659" user="NKA">
		<tag k="name" v="Kleivasætra" />
		<tag k="place" v="locality" />
		<tag k="ssr:stedsnr" v="517971" />
	</node>
	<node id="9950517643" lat="62.0363349" lon="7.0095099" version="1" timestamp="2022-08-13T06:07:46Z" changeset="124841038" uid="3497659" user="NKA">
		<tag k="name" v="Ytre Bjørdal" />
		<tag k="place" v="farm" />
		<tag k="ssr:stedsnr" v="151631" />
	</node>
	<node id="9950517644" lat="62.2676009" lon="6.8558276" version="1" timestamp="2022-08-13T06:07:46Z" changeset="124841038" uid="3497659" user="NKA">
		<tag k="name" v="Ytstehaugen" />
		<tag k="place" v="farm" />
		<tag k="ssr:stedsnr" v="455684" />
	</node>
	<node id="9950517645" lat="62.308833" lon="6.9466177" version="1" timestamp="2022-08-13T06:07:46Z" changeset="124841038" uid="3497659" user="NKA">
		<tag k="name" v="Sløgstad" />
		<tag k="place" v="farm" />
		<tag k="ssr:stedsnr" v="278808" />
	</node>
	<node id="9950517646" lat="62.2871639" lon="6.967611" version="1" timestamp="2022-08-13T06:07:46Z" changeset="124841038" uid="3497659" user="NKA">
		<tag k="alt_name" v="Vike" />
		<tag k="name" v="Vikane" />
		<tag k="place" v="farm" />
		<tag k="ssr:stedsnr" v="496607" />
	</node>
	<node id="9950517647" lat="62.2232928" lon="6.9072411" version="1" timestamp="2022-08-13T06:07:46Z" changeset="124841038" uid="3497659" user="NKA">
		<tag k="name" v="Emdalen" />
		<tag k="place" v="hamlet" />
		<tag k="ssr:stedsnr" v="617321" />
	</node>
	<node id="9950517648" lat="62.0869222" lon="7.2163278" version="1" timestamp="2022-08-13T06:07:46Z" changeset="124841038" uid="3497659" user="NKA">
		<tag k="name" v="Hautuftene" />
		<tag k="place" v="farm" />
		<tag k="ssr:stedsnr" v="153296" />
	</node>
	<node id="9950517649" lat="62.291493" lon="6.8531414" version="1" timestamp="2022-08-13T06:07:46Z" changeset="124841038" uid="3497659" user="NKA">
		<tag k="name" v="Hjellhaugen" />
		<tag k="place" v="isolated_dwelling" />
		<tag k="ssr:stedsnr" v="278853" />
	</node>
	<node id="9950517650" lat="62.3568945" lon="6.8847717" version="1" timestamp="2022-08-13T06:07:46Z" changeset="124841038" uid="3497659" user="NKA">
		<tag k="name" v="Brune" />
		<tag k="place" v="farm" />
		<tag k="ssr:stedsnr" v="496579" />
	</node>
	<node id="9950517651" lat="62.0999139" lon="7.2054705" version="1" timestamp="2022-08-13T06:07:46Z" changeset="124841038" uid="3497659" user="NKA">
		<tag k="name" v="Maråk" />
		<tag k="place" v="farm" />
		<tag k="ssr:stedsnr" v="556459" />
	</node>
	<node id="9950517652" lat="62.2835223" lon="6.8944405" version="1" timestamp="2022-08-13T06:07:46Z" changeset="124841038" uid="3497659" user="NKA">
		<tag k="name" v="Hesjevollen" />
		<tag k="place" v="farm" />
		<tag k="ssr:stedsnr" v="152617" />
	</node>
	<node id="9950517653" lat="62.018044" lon="6.9369891" version="1" timestamp="2022-08-13T06:07:46Z" changeset="124841038" uid="3497659" user="NKA">
		<tag k="alt_name" v="Frøysadal" />
		<tag k="name" v="Frøysadalen" />
		<tag k="place" v="hamlet" />
		<tag k="ssr:stedsnr" v="800468" />
	</node>
	<node id="9950517654" lat="62.3133034" lon="7.0118251" version="1" timestamp="2022-08-13T06:07:46Z" changeset="124841038" uid="3497659" user="NKA">
		<tag k="alt_name" v="Klevberg" />
		<tag k="name" v="Kleberg" />
		<tag k="place" v="farm" />
		<tag k="ssr:stedsnr" v="679472" />
	</node>
	<node id="9950517655" lat="62.0502" lon="6.9126501" version="1" timestamp="2022-08-13T06:07:46Z" changeset="124841038" uid="3497659" user="NKA">
		<tag k="historic" v="shieling" />
		<tag k="name" v="Haugestølen" />
		<tag k="place" v="isolated_dwelling" />
		<tag k="ssr:stedsnr" v="921473" />
	</node>
	<node id="9950517656" lat="62.1406917" lon="7.08435" version="1" timestamp="2022-08-13T06:07:46Z" changeset="124841038" uid="3497659" user="NKA">
		<tag k="name" v="Storvasshytta" />
		<tag k="place" v="isolated_dwelling" />
		<tag k="ssr:stedsnr" v="314396" />
	</node>
	<node id="9950517657" lat="62.0385042" lon="6.9989141" version="1" timestamp="2022-08-13T06:07:46Z" changeset="124841038" uid="3497659" user="NKA">
		<tag k="name" v="Hole" />
		<tag k="place" v="hamlet" />
		<tag k="ssr:stedsnr" v="375421" />
	</node>
	<node id="9950517658" lat="62.0265908" lon="7.0141665" version="1" timestamp="2022-08-13T06:07:46Z" changeset="124841038" uid="3497659" user="NKA">
		<tag k="name" v="Brekke" />
		<tag k="place" v="farm" />
		<tag k="ssr:stedsnr" v="758653" />
	</node>
	<node id="9950517659" lat="62.263325" lon="6.813453" version="1" timestamp="2022-08-13T06:07:46Z" changeset="124841038" uid="3497659" user="NKA">
		<tag k="name" v="Øvstesætra" />
		<tag k="place" v="isolated_dwelling" />
		<tag k="ssr:stedsnr" v="375915" />
	</node>
	<node id="9950517660" lat="62.2615722" lon="6.8237335" version="1" timestamp="2022-08-13T06:07:46Z" changeset="124841038" uid="3497659" user="NKA">
		<tag k="alt_name" v="Litlesætra" />
		<tag k="historic" v="shieling" />
		<tag k="name" v="Engesetsætra" />
		<tag k="place" v="isolated_dwelling" />
		<tag k="ssr:stedsnr" v="739905" />
	</node>
	<node id="9950517661" lat="62.2025284" lon="6.8214459" version="1" timestamp="2022-08-13T06:07:46Z" changeset="124841038" uid="3497659" user="NKA">
		<tag k="historic" v="shieling" />
		<tag k="name" v="Instesætra" />
		<tag k="place" v="hamlet" />
		<tag k="ssr:stedsnr" v="799327" />
	</node>
	<node id="9950517662" lat="62.0846452" lon="7.0281223" version="1" timestamp="2022-08-13T06:07:46Z" changeset="124841038" uid="3497659" user="NKA">
		<tag k="name" v="Syltavika" />
		<tag k="place" v="farm" />
		<tag k="ssr:stedsnr" v="132392" />
	</node>
	<node id="9950517663" lat="62.1026262" lon="6.8510503" version="1" timestamp="2022-08-13T06:07:46Z" changeset="124841038" uid="3497659" user="NKA">
		<tag k="name" v="Bruene" />
		<tag k="old_name" v="Brua" />
		<tag k="place" v="locality" />
		<tag k="ssr:stedsnr" v="738401" />
	</node>
	<node id="9950517664" lat="62.0979278" lon="6.7656307" version="1" timestamp="2022-08-13T06:07:46Z" changeset="124841038" uid="3497659" user="NKA">
		<tag k="name" v="Tuftene" />
		<tag k="place" v="locality" />
		<tag k="ssr:stedsnr" v="759619" />
	</node>
	<node id="9950517665" lat="62.1032359" lon="6.7538843" version="1" timestamp="2022-08-13T06:07:46Z" changeset="124841038" uid="3497659" user="NKA">
		<tag k="name" v="Fivelstad" />
		<tag k="place" v="hamlet" />
		<tag k="ssr:stedsnr" v="738379" />
	</node>
	<node id="9950517666" lat="62.0135417" lon="6.9468612" version="1" timestamp="2022-08-13T06:07:46Z" changeset="124841038" uid="3497659" user="NKA">
		<tag k="historic" v="shieling" />
		<tag k="name" v="Djupgjølet" />
		<tag k="place" v="isolated_dwelling" />
		<tag k="ssr:stedsnr" v="131444" />
	</node>
	<node id="9950517667" lat="62.1330139" lon="6.8308391" version="1" timestamp="2022-08-13T06:07:46Z" changeset="124841038" uid="3497659" user="NKA">
		<tag k="name" v="Dalen" />
		<tag k="place" v="isolated_dwelling" />
		<tag k="ssr:stedsnr" v="698713" />
	</node>
	<node id="9950517668" lat="62.099525" lon="7.0681891" version="1" timestamp="2022-08-13T06:07:46Z" changeset="124841038" uid="3497659" user="NKA">
		<tag k="name" v="Megardsplassen" />
		<tag k="place" v="locality" />
		<tag k="ssr:stedsnr" v="690895" />
	</node>
	<node id="9950517669" lat="62.0595705" lon="6.9393925" version="1" timestamp="2022-08-13T06:07:46Z" changeset="124841038" uid="3497659" user="NKA">
		<tag k="name" v="Hauge" />
		<tag k="place" v="hamlet" />
		<tag k="ssr:stedsnr" v="678472" />
	</node>
	<node id="9950517670" lat="62.0693387" lon="7.253193" version="1" timestamp="2022-08-13T06:07:46Z" changeset="124841038" uid="3497659" user="NKA">
		<tag k="name" v="Opplendskedalen" />
		<tag k="place" v="hamlet" />
		<tag k="ssr:stedsnr" v="314098" />
	</node>
	<node id="9950517671" lat="62.3233306" lon="7.0744067" version="1" timestamp="2022-08-13T06:07:46Z" changeset="124841038" uid="3497659" user="NKA">
		<tag k="historic" v="shieling" />
		<tag k="name" v="Nedstestølen" />
		<tag k="place" v="isolated_dwelling" />
		<tag k="ssr:stedsnr" v="394119" />
	</node>
	<node id="9950517672" lat="62.0546096" lon="6.937593" version="1" timestamp="2022-08-13T06:07:46Z" changeset="124841038" uid="3497659" user="NKA">
		<tag k="name" v="Storstein" />
		<tag k="place" v="hamlet" />
		<tag k="ssr:stedsnr" v="436418" />
	</node>
	<node id="9950517673" lat="62.1334083" lon="6.9289585" version="1" timestamp="2022-08-13T06:07:46Z" changeset="124841038" uid="3497659" user="NKA">
		<tag k="name" v="Litlesætra" />
		<tag k="place" v="locality" />
		<tag k="ssr:stedsnr" v="943800" />
	</node>
	<node id="9950517674" lat="62.0448721" lon="6.7829863" version="1" timestamp="2022-08-13T06:07:46Z" changeset="124841038" uid="3497659" user="NKA">
		<tag k="name" v="Kjellstad" />
		<tag k="place" v="farm" />
		<tag k="ssr:stedsnr" v="314496" />
	</node>
	<node id="9950517675" lat="62.2823863" lon="6.9863613" version="1" timestamp="2022-08-13T06:07:46Z" changeset="124841038" uid="3497659" user="NKA">
		<tag k="name" v="Uksag" />
		<tag k="place" v="farm" />
		<tag k="ssr:stedsnr" v="315547" />
	</node>
	<node id="9950517676" lat="62.0318402" lon="7.010269" version="1" timestamp="2022-08-13T06:07:46Z" changeset="124841038" uid="3497659" user="NKA">
		<tag k="name" v="Indre Bjørdal" />
		<tag k="place" v="farm" />
		<tag k="ssr:stedsnr" v="273647" />
	</node>
	<node id="9950517677" lat="62.3341" lon="7.0511084" version="1" timestamp="2022-08-13T06:07:46Z" changeset="124841038" uid="3497659" user="NKA">
		<tag k="historic" v="shieling" />
		<tag k="name" v="Stavsengsætra" />
		<tag k="place" v="isolated_dwelling" />
		<tag k="ssr:stedsnr" v="375474" />
	</node>
	<node id="9950517678" lat="62.3249202" lon="7.0579297" version="1" timestamp="2022-08-13T06:07:46Z" changeset="124841038" uid="3497659" user="NKA">
		<tag k="name" v="Bjørkheim" />
		<tag k="place" v="farm" />
		<tag k="ssr:stedsnr" v="333168" />
	</node>
	<node id="9950517679" lat="62.3023" lon="7.1205057" version="1" timestamp="2022-08-13T06:07:46Z" changeset="124841038" uid="3497659" user="NKA">
		<tag k="historic" v="shieling" />
		<tag k="name" v="Ovråsætra" />
		<tag k="place" v="isolated_dwelling" />
		<tag k="ssr:stedsnr" v="254581" />
	</node>
	<node id="9950517680" lat="62.3144666" lon="7.0892945" version="1" timestamp="2022-08-13T06:07:46Z" changeset="124841038" uid="3497659" user="NKA">
		<tag k="name" v="Nakkesetra" />
		<tag k="place" v="locality" />
		<tag k="ssr:stedsnr" v="333146" />
	</node>
	<node id="9950517681" lat="62.0830722" lon="7.2250667" version="1" timestamp="2022-08-13T06:07:46Z" changeset="124841038" uid="3497659" user="NKA">
		<tag k="name" v="Haugane" />
		<tag k="place" v="farm" />
		<tag k="ssr:stedsnr" v="578058" />
	</node>
	<node id="9950517682" lat="62.3201278" lon="7.0310015" version="1" timestamp="2022-08-13T06:07:46Z" changeset="124841038" uid="3497659" user="NKA">
		<tag k="historic" v="shieling" />
		<tag k="name" v="Ansoksætra" />
		<tag k="place" v="isolated_dwelling" />
		<tag k="ssr:stedsnr" v="254479" />
	</node>
	<node id="9950517683" lat="62.0136917" lon="6.9458085" version="1" timestamp="2022-08-13T06:07:46Z" changeset="124841038" uid="3497659" user="NKA">
		<tag k="name" v="Frøysasætra" />
		<tag k="place" v="isolated_dwelling" />
		<tag k="ssr:stedsnr" v="154696" />
	</node>
	<node id="9950517684" lat="62.2416723" lon="7.0012171" version="1" timestamp="2022-08-13T06:07:46Z" changeset="124841038" uid="3497659" user="NKA">
		<tag k="name" v="Duken" />
		<tag k="place" v="locality" />
		<tag k="ssr:stedsnr" v="314298" />
	</node>
	<node id="9950517685" lat="62.3151837" lon="7.0024064" version="1" timestamp="2022-08-13T06:07:46Z" changeset="124841038" uid="3497659" user="NKA">
		<tag k="name" v="Hammaren" />
		<tag k="place" v="locality" />
		<tag k="ssr:stedsnr" v="133459" />
	</node>
	<node id="9950517686" lat="62.11235" lon="7.2602029" version="1" timestamp="2022-08-13T06:07:46Z" changeset="124841038" uid="3497659" user="NKA">
		<tag k="historic" v="shieling" />
		<tag k="name" v="Vesteråssætra" />
		<tag k="place" v="isolated_dwelling" />
		<tag k="ssr:stedsnr" v="375056" />
	</node>
	<node id="9950517687" lat="62.1807927" lon="7.0137541" version="1" timestamp="2022-08-13T06:07:46Z" changeset="124841038" uid="3497659" user="NKA">
		<tag k="name" v="Ytste Åkerneset" />
		<tag k="place" v="isolated_dwelling" />
		<tag k="ssr:stedsnr" v="691443" />
	</node>
	<node id="9950517688" lat="62.081662" lon="7.0358774" version="1" timestamp="2022-08-13T06:07:46Z" changeset="124841038" uid="3497659" user="NKA">
		<tag k="alt_name" v="Holten" />
		<tag k="name" v="Blomberg" />
		<tag k="place" v="farm" />
		<tag k="ssr:stedsnr" v="678466" />
	</node>
	<node id="9950517689" lat="62.1737103" lon="7.0016508" version="1" timestamp="2022-08-13T06:07:46Z" changeset="124841038" uid="3497659" user="NKA">
		<tag k="name" v="Me-Åkerneset" />
		<tag k="place" v="hamlet" />
		<tag k="ssr:stedsnr" v="814337" />
	</node>
	<node id="9950517690" lat="62.113002" lon="6.9739638" version="1" timestamp="2022-08-13T06:07:46Z" changeset="124841038" uid="3497659" user="NKA">
		<tag k="name" v="Matvika" />
		<tag k="place" v="farm" />
		<tag k="ssr:stedsnr" v="556432" />
	</node>
	<node id="9950517691" lat="62.3167109" lon="7.0496596" version="1" timestamp="2022-08-13T06:07:46Z" changeset="124841038" uid="3497659" user="NKA">
		<tag k="name" v="Plassen" />
		<tag k="place" v="farm" />
		<tag k="ssr:stedsnr" v="758945" />
	</node>
	<node id="9950517692" lat="62.1013374" lon="7.2153508" version="1" timestamp="2022-08-13T06:07:46Z" changeset="124841038" uid="3497659" user="NKA">
		<tag k="name" v="Vesterås" />
		<tag k="place" v="farm" />
		<tag k="ssr:stedsnr" v="390939" />
	</node>
	<node id="9950517693" lat="62.3280163" lon="7.0587985" version="1" timestamp="2022-08-13T06:07:46Z" changeset="124841038" uid="3497659" user="NKA">
		<tag k="name" v="Stavseng" />
		<tag k="place" v="hamlet" />
		<tag k="ssr:stedsnr" v="618489" />
	</node>
	<node id="9950517694" lat="62.0629778" lon="7.2479695" version="1" timestamp="2022-08-13T06:07:46Z" changeset="124841038" uid="3497659" user="NKA">
		<tag k="alt_name" v="Dalssætra" />
		<tag k="historic" v="shieling" />
		<tag k="name" v="Opplendskedalsætra" />
		<tag k="place" v="isolated_dwelling" />
		<tag k="ssr:stedsnr" v="71095" />
	</node>
	<node id="9950517695" lat="62.0615889" lon="7.268425" version="1" timestamp="2022-08-13T06:07:46Z" changeset="124841038" uid="3497659" user="NKA">
		<tag k="historic" v="shieling" />
		<tag k="name" v="Kvanndalssætra" />
		<tag k="place" v="isolated_dwelling" />
		<tag k="ssr:stedsnr" v="71093" />
	</node>
	<node id="9950517696" lat="62.3238917" lon="7.0796639" version="1" timestamp="2022-08-13T06:07:46Z" changeset="124841038" uid="3497659" user="NKA">
		<tag k="alt_name" v="Lisetra" />
		<tag k="historic" v="shieling" />
		<tag k="name" v="Liasætra" />
		<tag k="place" v="isolated_dwelling" />
		<tag k="ssr:stedsnr" v="679460" />
	</node>
	<node id="9950517697" lat="62.1231469" lon="7.1737502" version="1" timestamp="2022-08-13T06:07:46Z" changeset="124841038" uid="3497659" user="NKA">
		<tag k="name" v="Årset" />
		<tag k="place" v="farm" />
		<tag k="ssr:stedsnr" v="678417" />
	</node>
	<node id="9950517698" lat="62.1085361" lon="6.9077585" version="1" timestamp="2022-08-13T06:07:46Z" changeset="124841038" uid="3497659" user="NKA">
		<tag k="name" v="Bjørkneset" />
		<tag k="place" v="locality" />
		<tag k="ssr:stedsnr" v="375341" />
	</node>
	<node id="9950517699" lat="62.0938508" lon="7.2244462" version="1" timestamp="2022-08-13T06:07:46Z" changeset="124841038" uid="3497659" user="NKA">
		<tag k="name" v="Hole" />
		<tag k="place" v="hamlet" />
		<tag k="ssr:stedsnr" v="193109" />
	</node>
	<node id="9950517700" lat="62.3134195" lon="7.0521724" version="1" timestamp="2022-08-13T06:07:46Z" changeset="124841038" uid="3497659" user="NKA">
		<tag k="name" v="Bakken" />
		<tag k="place" v="farm" />
		<tag k="ssr:stedsnr" v="576044" />
	</node>
	<node id="9950517701" lat="62.297855" lon="7.1038747" version="1" timestamp="2022-08-13T06:07:46Z" changeset="124841038" uid="3497659" user="NKA">
		<tag k="name" v="Nesheim" />
		<tag k="place" v="farm" />
		<tag k="ssr:stedsnr" v="91185" />
	</node>
	<node id="9950517702" lat="62.1606462" lon="7.0347289" version="1" timestamp="2022-08-13T06:07:46Z" changeset="124841038" uid="3497659" user="NKA">
		<tag k="name" v="Oaldsbygda" />
		<tag k="place" v="hamlet" />
		<tag k="ssr:stedsnr" v="617375" />
	</node>
	<node id="9950517703" lat="62.1164744" lon="7.1833846" version="1" timestamp="2022-08-13T06:07:46Z" changeset="124841038" uid="3497659" user="NKA">
		<tag k="name" v="Grande" />
		<tag k="place" v="farm" />
		<tag k="ssr:stedsnr" v="860440" />
	</node>
	<node id="9950517704" lat="62.3156405" lon="7.0498863" version="1" timestamp="2022-08-13T06:07:46Z" changeset="124841038" uid="3497659" user="NKA">
		<tag k="name" v="Nedre Ringset" />
		<tag k="place" v="farm" />
		<tag k="ssr:stedsnr" v="30952" />
	</node>
	<node id="9950517705" lat="62.2342333" lon="6.8603223" version="1" timestamp="2022-08-13T06:07:46Z" changeset="124841038" uid="3497659" user="NKA">
		<tag k="name" v="Litlestølen" />
		<tag k="place" v="locality" />
		<tag k="ssr:stedsnr" v="699449" />
	</node>
	<node id="9950517706" lat="62.119674" lon="7.1838632" version="1" timestamp="2022-08-13T06:07:46Z" changeset="124841038" uid="3497659" user="NKA">
		<tag k="name" v="Møll" />
		<tag k="place" v="farm" />
		<tag k="ssr:stedsnr" v="557378" />
	</node>
	<node id="9950517707" lat="62.10325" lon="7.2308806" version="1" timestamp="2022-08-13T06:07:46Z" changeset="124841038" uid="3497659" user="NKA">
		<tag k="historic" v="shieling" />
		<tag k="name" v="Litlesætra" />
		<tag k="place" v="isolated_dwelling" />
		<tag k="ssr:stedsnr" v="278624" />
	</node>
	<node id="9950517708" lat="62.3053024" lon="6.9278135" version="1" timestamp="2022-08-13T06:07:46Z" changeset="124841038" uid="3497659" user="NKA">
		<tag k="name" v="Klipe" />
		<tag k="place" v="farm" />
		<tag k="ssr:stedsnr" v="521842" />
	</node>
	<node id="9950517709" lat="62.2787454" lon="6.8892999" version="1" timestamp="2022-08-13T06:07:46Z" changeset="124841038" uid="3497659" user="NKA">
		<tag k="alt_name" v="Øvste Rystene" />
		<tag k="name" v="Rustene" />
		<tag k="place" v="farm" />
		<tag k="ssr:stedsnr" v="800590" />
	</node>
	<node id="9950517710" lat="62.2943019" lon="6.9032955" version="1" timestamp="2022-08-13T06:07:46Z" changeset="124841038" uid="3497659" user="NKA">
		<tag k="name" v="Korsbakken" />
		<tag k="place" v="farm" />
		<tag k="ssr:stedsnr" v="521816" />
	</node>
	<node id="9950517711" lat="62.2539639" lon="6.9948584" version="1" timestamp="2022-08-13T06:07:46Z" changeset="124841038" uid="3497659" user="NKA">
		<tag k="name" v="Lisætra" />
		<tag k="place" v="locality" />
		<tag k="ssr:stedsnr" v="457848" />
	</node>
	<node id="9950517712" lat="62.2675919" lon="6.8775918" version="1" timestamp="2022-08-13T06:07:46Z" changeset="124841038" uid="3497659" user="NKA">
		<tag k="name" v="Svemorka" />
		<tag k="place" v="neighbourhood" />
		<tag k="ssr:stedsnr" v="447914" />
	</node>
	<node id="9950517713" lat="62.1062306" lon="7.2326751" version="1" timestamp="2022-08-13T06:07:46Z" changeset="124841038" uid="3497659" user="NKA">
		<tag k="historic" v="shieling" />
		<tag k="name" v="Storsætra" />
		<tag k="place" v="isolated_dwelling" />
		<tag k="ssr:stedsnr" v="436072" />
	</node>
	<node id="9950517714" lat="62.2471096" lon="6.9045882" version="1" timestamp="2022-08-13T06:07:46Z" changeset="124841038" uid="3497659" user="NKA">
		<tag k="name" v="Gjerde" />
		<tag k="place" v="hamlet" />
		<tag k="ssr:stedsnr" v="496647" />
	</node>
	<node id="9950517715" lat="62.0209193" lon="7.0225105" version="1" timestamp="2022-08-13T06:07:46Z" changeset="124841038" uid="3497659" user="NKA">
		<tag k="name" v="Ekre" />
		<tag k="place" v="farm" />
		<tag k="ssr:stedsnr" v="942965" />
	</node>
	<node id="9950517716" lat="62.285925" lon="6.9263584" version="1" timestamp="2022-08-13T06:07:46Z" changeset="124841038" uid="3497659" user="NKA">
		<tag k="historic" v="shieling" />
		<tag k="name" v="Høgmyrhaugane" />
		<tag k="place" v="isolated_dwelling" />
		<tag k="ssr:stedsnr" v="217763" />
	</node>
	<node id="9950517717" lat="62.3159861" lon="6.9284938" version="1" timestamp="2022-08-13T06:07:46Z" changeset="124841038" uid="3497659" user="NKA">
		<tag k="name" v="Øygarden" />
		<tag k="place" v="hamlet" />
		<tag k="ssr:stedsnr" v="375459" />
	</node>
	<node id="9950517718" lat="62.2611889" lon="6.8287556" version="1" timestamp="2022-08-13T06:07:46Z" changeset="124841038" uid="3497659" user="NKA">
		<tag k="name" v="Helsemstølen" />
		<tag k="place" v="locality" />
		<tag k="ssr:stedsnr" v="516965" />
	</node>
	<node id="9950517719" lat="62.286029" lon="6.8991707" version="1" timestamp="2022-08-13T06:07:46Z" changeset="124841038" uid="3497659" user="NKA">
		<tag k="name" v="Drege" />
		<tag k="place" v="hamlet" />
		<tag k="ssr:stedsnr" v="315561" />
	</node>
	<node id="9950517720" lat="62.3055257" lon="6.9357728" version="1" timestamp="2022-08-13T06:07:46Z" changeset="124841038" uid="3497659" user="NKA">
		<tag k="alt_name" v="Hjelle" />
		<tag k="name" v="Hjellane" />
		<tag k="place" v="farm" />
		<tag k="ssr:stedsnr" v="314643" />
	</node>
	<node id="9950517721" lat="61.9898898" lon="7.0420149" version="1" timestamp="2022-08-13T06:07:46Z" changeset="124841038" uid="3497659" user="NKA">
		<tag k="name" v="Skavlen" />
		<tag k="place" v="isolated_dwelling" />
		<tag k="ssr:stedsnr" v="699964" />
	</node>
	<node id="9950517722" lat="62.176325" lon="6.9235918" version="1" timestamp="2022-08-13T06:07:46Z" changeset="124841038" uid="3497659" user="NKA">
		<tag k="name" v="Sætra" />
		<tag k="place" v="locality" />
		<tag k="ssr:stedsnr" v="396127" />
	</node>
	<node id="9950517723" lat="62.3309765" lon="6.9617926" version="1" timestamp="2022-08-13T06:07:46Z" changeset="124841038" uid="3497659" user="NKA">
		<tag k="name" v="Urda" />
		<tag k="place" v="locality" />
		<tag k="ssr:stedsnr" v="133479" />
	</node>
	<node id="9950517724" lat="62.1636231" lon="6.923003" version="1" timestamp="2022-08-13T06:07:46Z" changeset="124841038" uid="3497659" user="NKA">
		<tag k="historic" v="shieling" />
		<tag k="name" v="Herdalen" />
		<tag k="place" v="hamlet" />
		<tag k="ssr:stedsnr" v="11314" />
	</node>
	<node id="9950517725" lat="62.2172274" lon="6.9171318" version="1" timestamp="2022-08-13T06:07:46Z" changeset="124841038" uid="3497659" user="NKA">
		<tag k="name" v="Lillebø" />
		<tag k="place" v="farm" />
		<tag k="ssr:stedsnr" v="214784" />
	</node>
	<node id="9950517726" lat="62.3030921" lon="6.9232502" version="1" timestamp="2022-08-13T06:07:46Z" changeset="124841038" uid="3497659" user="NKA">
		<tag k="name" v="Framhus" />
		<tag k="place" v="hamlet" />
		<tag k="ssr:stedsnr" v="72573" />
	</node>
	<node id="9950517727" lat="62.2469531" lon="6.8936271" version="1" timestamp="2022-08-13T06:07:46Z" changeset="124841038" uid="3497659" user="NKA">
		<tag k="name" v="Øye" />
		<tag k="place" v="hamlet" />
		<tag k="ssr:stedsnr" v="375211" />
	</node>
	<node id="9950517728" lat="62.2086885" lon="6.8239004" version="1" timestamp="2022-08-13T06:07:46Z" changeset="124841038" uid="3497659" user="NKA">
		<tag k="historic" v="shieling" />
		<tag k="name" v="Rødsetstølen" />
		<tag k="place" v="isolated_dwelling" />
		<tag k="ssr:stedsnr" v="314327" />
	</node>
	<node id="9950517729" lat="62.2844278" lon="6.9258279" version="1" timestamp="2022-08-13T06:07:46Z" changeset="124841038" uid="3497659" user="NKA">
		<tag k="historic" v="shieling" />
		<tag k="name" v="Heimerhaugane" />
		<tag k="old_name" v="Heimarhaugane" />
		<tag k="place" v="isolated_dwelling" />
		<tag k="ssr:stedsnr" v="11584" />
	</node>
	<node id="9950517730" lat="62.1425778" lon="6.987964" version="1" timestamp="2022-08-13T06:07:46Z" changeset="124841038" uid="3497659" user="NKA">
		<tag k="name" v="Almane" />
		<tag k="place" v="locality" />
		<tag k="ssr:stedsnr" v="253422" />
	</node>
	<node id="9950517731" lat="62.3095528" lon="6.9228192" version="1" timestamp="2022-08-13T06:07:46Z" changeset="124841038" uid="3497659" user="NKA">
		<tag k="name" v="Ringstad" />
		<tag k="place" v="hamlet" />
		<tag k="ssr:stedsnr" v="72590" />
	</node>
	<node id="9950517732" lat="62.1000671" lon="7.0776096" version="1" timestamp="2022-08-13T06:07:46Z" changeset="124841038" uid="3497659" user="NKA">
		<tag k="name" v="Horvadraget" />
		<tag k="place" v="locality" />
		<tag k="ssr:stedsnr" v="253455" />
	</node>
	<node id="9950517733" lat="62.3149431" lon="6.9259211" version="1" timestamp="2022-08-13T06:07:46Z" changeset="124841038" uid="3497659" user="NKA">
		<tag k="name" v="Ødegård" />
		<tag k="place" v="farm" />
		<tag k="ssr:stedsnr" v="1081465" />
	</node>
	<node id="9950517734" lat="62.1651332" lon="6.9209493" version="1" timestamp="2022-08-13T06:07:46Z" changeset="124841038" uid="3497659" user="NKA">
		<tag k="name" v="Ruppen" />
		<tag k="place" v="farm" />
		<tag k="ssr:stedsnr" v="578150" />
	</node>
	<node id="9950517735" lat="62.2891333" lon="6.8405445" version="1" timestamp="2022-08-13T06:07:46Z" changeset="124841038" uid="3497659" user="NKA">
		<tag k="historic" v="shieling" />
		<tag k="name" v="Fursetsætra" />
		<tag k="place" v="isolated_dwelling" />
		<tag k="ssr:stedsnr" v="11583" />
	</node>
	<node id="9950517736" lat="62.2533799" lon="6.9710735" version="1" timestamp="2022-08-13T06:07:46Z" changeset="124841038" uid="3497659" user="NKA">
		<tag k="historic" v="shieling" />
		<tag k="name" v="Vassetsætra" />
		<tag k="place" v="hamlet" />
		<tag k="ssr:stedsnr" v="800912" />
	</node>
	<node id="9950517737" lat="62.3018168" lon="6.9369106" version="1" timestamp="2022-08-13T06:07:46Z" changeset="124841038" uid="3497659" user="NKA">
		<tag k="name" v="Skogadalen" />
		<tag k="place" v="farm" />
		<tag k="ssr:stedsnr" v="884708" />
	</node>
	<node id="9950517738" lat="62.2196778" lon="6.9011502" version="1" timestamp="2022-08-13T06:07:46Z" changeset="124841038" uid="3497659" user="NKA">
		<tag k="name" v="Kvitleplassen" />
		<tag k="place" v="locality" />
		<tag k="ssr:stedsnr" v="819737" />
	</node>
	<node id="9950517739" lat="62.1169604" lon="6.9637574" version="1" timestamp="2022-08-13T06:07:46Z" changeset="124841038" uid="3497659" user="NKA">
		<tag k="name" v="Lundaneset" />
		<tag k="place" v="farm" />
		<tag k="ssr:stedsnr" v="83038" />
	</node>
	<node id="9950517740" lat="62.1290397" lon="6.9151423" version="1" timestamp="2022-08-13T06:07:46Z" changeset="124841038" uid="3497659" user="NKA">
		<tag k="name" v="Ljøsætra" />
		<tag k="place" v="isolated_dwelling" />
		<tag k="ssr:stedsnr" v="11351" />
	</node>
	<node id="9950517741" lat="62.1665831" lon="6.9872594" version="1" timestamp="2022-08-13T06:07:46Z" changeset="124841038" uid="3497659" user="NKA">
		<tag k="name" v="Inste Åkerneset" />
		<tag k="place" v="locality" />
		<tag k="ssr:stedsnr" v="71380" />
	</node>
	<node id="9950517742" lat="62.1209083" lon="6.9197778" version="1" timestamp="2022-08-13T06:07:46Z" changeset="124841038" uid="3497659" user="NKA">
		<tag k="name" v="Ljøbakken" />
		<tag k="place" v="farm" />
		<tag k="ssr:stedsnr" v="11364" />
	</node>
	<node id="9950517743" lat="62.2888513" lon="6.9631472" version="1" timestamp="2022-08-13T06:07:46Z" changeset="124841038" uid="3497659" user="NKA">
		<tag k="name" v="Skorbøen" />
		<tag k="place" v="hamlet" />
		<tag k="ssr:stedsnr" v="861546" />
	</node>
	<node id="9950517744" lat="62.1862076" lon="6.9277381" version="1" timestamp="2022-08-13T06:07:46Z" changeset="124841038" uid="3497659" user="NKA">
		<tag k="name" v="Røyr" />
		<tag k="place" v="hamlet" />
		<tag k="ssr:stedsnr" v="739300" />
	</node>
	<node id="9950517745" lat="62.2385792" lon="6.9109876" version="1" timestamp="2022-08-13T06:07:46Z" changeset="124841038" uid="3497659" user="NKA">
		<tag k="name" v="Sakrisplassen" />
		<tag k="place" v="farm" />
		<tag k="ssr:stedsnr" v="881400" />
	</node>
	<node id="9950517746" lat="62.3067695" lon="6.9108224" version="1" timestamp="2022-08-13T06:07:46Z" changeset="124841038" uid="3497659" user="NKA">
		<tag k="name" v="Storgjerde" />
		<tag k="place" v="neighbourhood" />
		<tag k="ssr:stedsnr" v="628911" />
	</node>
	<node id="9950517747" lat="62.0747" lon="6.8980641" version="1" timestamp="2022-08-13T06:07:46Z" changeset="124841038" uid="3497659" user="NKA">
		<tag k="name" v="Hølsbakken" />
		<tag k="place" v="farm" />
		<tag k="ssr:stedsnr" v="536442" />
	</node>
	<node id="9950517748" lat="62.0965306" lon="6.8616723" version="1" timestamp="2022-08-13T06:07:46Z" changeset="124841038" uid="3497659" user="NKA">
		<tag k="name" v="Holten" />
		<tag k="place" v="locality" />
		<tag k="ssr:stedsnr" v="334262" />
	</node>
	<node id="9950517749" lat="62.1628639" lon="7.033547" version="1" timestamp="2022-08-13T06:07:46Z" changeset="124841038" uid="3497659" user="NKA">
		<tag k="name" v="Stokke" />
		<tag k="place" v="farm" />
		<tag k="ssr:stedsnr" v="314371" />
	</node>
	<node id="9950517750" lat="62.2155139" lon="6.8923" version="1" timestamp="2022-08-13T06:07:46Z" changeset="124841038" uid="3497659" user="NKA">
		<tag k="name" v="Framfjørstadsætra" />
		<tag k="place" v="isolated_dwelling" />
		<tag k="ssr:stedsnr" v="496304" />
	</node>
	<node id="9950517751" lat="62.2090718" lon="6.9231439" version="1" timestamp="2022-08-13T06:07:46Z" changeset="124841038" uid="3497659" user="NKA">
		<tag k="name" v="Overvollen" />
		<tag k="place" v="hamlet" />
		<tag k="ssr:stedsnr" v="556356" />
	</node>
	<node id="9950517752" lat="62.2263223" lon="6.8407446" version="1" timestamp="2022-08-13T06:07:46Z" changeset="124841038" uid="3497659" user="NKA">
		<tag k="name" v="Mesætra" />
		<tag k="place" v="isolated_dwelling" />
		<tag k="ssr:stedsnr" v="617316" />
	</node>
	<node id="9950517753" lat="62.21935" lon="6.9335084" version="1" timestamp="2022-08-13T06:07:46Z" changeset="124841038" uid="3497659" user="NKA">
		<tag k="historic" v="shieling" />
		<tag k="name" v="Heimfjørstadsætra" />
		<tag k="place" v="isolated_dwelling" />
		<tag k="ssr:stedsnr" v="192317" />
	</node>
	<node id="9950517754" lat="62.3310889" lon="7.0342723" version="1" timestamp="2022-08-13T06:07:46Z" changeset="124841038" uid="3497659" user="NKA">
		<tag k="alt_name" v="Ringsetsetra" />
		<tag k="historic" v="shieling" />
		<tag k="name" v="Ringsetsætra" />
		<tag k="place" v="isolated_dwelling" />
		<tag k="ssr:stedsnr" v="801490" />
	</node>
	<node id="9950517755" lat="62.1702223" lon="6.9808417" version="1" timestamp="2022-08-13T06:07:46Z" changeset="124841038" uid="3497659" user="NKA">
		<tag k="name" v="Inste Åknessætra" />
		<tag k="place" v="locality" />
		<tag k="ssr:stedsnr" v="457080" />
	</node>
	<node id="9950517756" lat="62.2313" lon="6.9039945" version="1" timestamp="2022-08-13T06:07:46Z" changeset="124841038" uid="3497659" user="NKA">
		<tag k="name" v="Emdalsgjerdet" />
		<tag k="place" v="farm" />
		<tag k="ssr:stedsnr" v="628177" />
	</node>
	<node id="9950517757" lat="62.3148628" lon="7.0472731" version="1" timestamp="2022-08-13T06:07:46Z" changeset="124841038" uid="3497659" user="NKA">
		<tag k="name" v="Øvre Ringset" />
		<tag k="place" v="farm" />
		<tag k="ssr:stedsnr" v="665114" />
	</node>
	<node id="9950517758" lat="62.2175472" lon="6.8901917" version="1" timestamp="2022-08-13T06:07:46Z" changeset="124841038" uid="3497659" user="NKA">
		<tag k="name" v="Emdalssetra" />
		<tag k="place" v="locality" />
		<tag k="ssr:stedsnr" v="455687" />
	</node>
	<node id="9950517759" lat="62.1164386" lon="6.9141748" version="1" timestamp="2022-08-13T06:07:46Z" changeset="124841038" uid="3497659" user="NKA">
		<tag k="name" v="Øvre Ljøen" />
		<tag k="place" v="hamlet" />
		<tag k="ssr:stedsnr" v="557352" />
	</node>
	<node id="9950517760" lat="62.2332875" lon="6.9061135" version="1" timestamp="2022-08-13T06:07:46Z" changeset="124841038" uid="3497659" user="NKA">
		<tag k="name" v="Slettvollen" />
		<tag k="place" v="hamlet" />
		<tag k="ssr:stedsnr" v="314306" />
	</node>
	<node id="9950517761" lat="62.1172305" lon="6.9746306" version="1" timestamp="2022-08-13T06:07:46Z" changeset="124841038" uid="3497659" user="NKA">
		<tag k="name" v="Robben" />
		<tag k="place" v="locality" />
		<tag k="ssr:stedsnr" v="32833" />
	</node>
	<node id="9950517762" lat="62.2211077" lon="6.91492" version="1" timestamp="2022-08-13T06:07:46Z" changeset="124841038" uid="3497659" user="NKA">
		<tag k="alt_name" v="Fjørstad" />
		<tag k="name" v="Fram-Fjørstad" />
		<tag k="place" v="farm" />
		<tag k="ssr:stedsnr" v="374310" />
	</node>
	<node id="9950517763" lat="62.1133889" lon="6.849764" version="1" timestamp="2022-08-13T06:07:46Z" changeset="124841038" uid="3497659" user="NKA">
		<tag k="name" v="Vårsætra" />
		<tag k="place" v="locality" />
		<tag k="ssr:stedsnr" v="456512" />
	</node>
	<node id="9950517764" lat="62.3067203" lon="6.9410635" version="1" timestamp="2022-08-13T06:07:46Z" changeset="124841038" uid="3497659" user="NKA">
		<tag k="name" v="Os" />
		<tag k="place" v="hamlet" />
		<tag k="ssr:stedsnr" v="678624" />
	</node>
	<node id="9950517765" lat="62.0704525" lon="6.9347173" version="1" timestamp="2022-08-13T06:07:46Z" changeset="124841038" uid="3497659" user="NKA">
		<tag k="name" v="Hellebostad" />
		<tag k="place" v="hamlet" />
		<tag k="ssr:stedsnr" v="678456" />
	</node>
	<node id="9950517766" lat="62.2798847" lon="6.8739907" version="1" timestamp="2022-08-13T06:07:46Z" changeset="124841038" uid="3497659" user="NKA">
		<tag k="name" v="Furset" />
		<tag k="place" v="hamlet" />
		<tag k="ssr:stedsnr" v="679549" />
	</node>
	<node id="9950517767" lat="62.2786278" lon="6.9781362" version="1" timestamp="2022-08-13T06:07:46Z" changeset="124841038" uid="3497659" user="NKA">
		<tag k="historic" v="shieling" />
		<tag k="name" v="Geilfjøsane" />
		<tag k="place" v="isolated_dwelling" />
		<tag k="ssr:stedsnr" v="157850" />
	</node>
	<node id="9950517768" lat="62.1882528" lon="6.9277168" version="1" timestamp="2022-08-13T06:07:46Z" changeset="124841038" uid="3497659" user="NKA">
		<tag k="name" v="Hans Jøran plassen" />
		<tag k="place" v="locality" />
		<tag k="ssr:stedsnr" v="274752" />
	</node>
	<node id="9950517769" lat="62.3133104" lon="6.9325392" version="1" timestamp="2022-08-13T06:07:46Z" changeset="124841038" uid="3497659" user="NKA">
		<tag k="name" v="Hjelle" />
		<tag k="place" v="farm" />
		<tag k="ssr:stedsnr" v="35813" />
	</node>
	<node id="9950517770" lat="62.2428361" lon="6.7977362" version="1" timestamp="2022-08-13T06:07:46Z" changeset="124841038" uid="3497659" user="NKA">
		<tag k="name" v="Grusstølen" />
		<tag k="place" v="locality" />
		<tag k="ssr:stedsnr" v="213540" />
	</node>
	<node id="9950517771" lat="62.1369972" lon="6.8251584" version="1" timestamp="2022-08-13T06:07:46Z" changeset="124841038" uid="3497659" user="NKA">
		<tag k="historic" v="shieling" />
		<tag k="name" v="Bygdastølen" />
		<tag k="place" v="isolated_dwelling" />
		<tag k="ssr:stedsnr" v="556418" />
	</node>
	<node id="9950517772" lat="62.1154639" lon="6.9107751" version="1" timestamp="2022-08-13T06:07:46Z" changeset="124841038" uid="3497659" user="NKA">
		<tag k="name" v="Kleivane" />
		<tag k="place" v="farm" />
		<tag k="ssr:stedsnr" v="22158" />
	</node>
	<node id="9950517773" lat="62.1367083" lon="6.8264085" version="1" timestamp="2022-08-13T06:07:46Z" changeset="124841038" uid="3497659" user="NKA">
		<tag k="historic" v="shieling" />
		<tag k="name" v="Ringdalsstølen" />
		<tag k="place" v="hamlet" />
		<tag k="ssr:stedsnr" v="739336" />
	</node>
	<node id="9950517774" lat="62.1531706" lon="6.9521298" version="1" timestamp="2022-08-13T06:07:46Z" changeset="124841038" uid="3497659" user="NKA">
		<tag k="name" v="Tindbjørgane" />
		<tag k="place" v="locality" />
		<tag k="ssr:stedsnr" v="436310" />
	</node>
	<node id="9950517775" lat="62.0815676" lon="6.8921709" version="1" timestamp="2022-08-13T06:07:46Z" changeset="124841038" uid="3497659" user="NKA">
		<tag k="name" v="Åsen" />
		<tag k="place" v="hamlet" />
		<tag k="ssr:stedsnr" v="11409" />
	</node>
	<node id="9950517776" lat="62.2190139" lon="6.828889" version="1" timestamp="2022-08-13T06:07:46Z" changeset="124841038" uid="3497659" user="NKA">
		<tag k="name" v="Gøtsetra" />
		<tag k="place" v="locality" />
		<tag k="ssr:stedsnr" v="30164" />
	</node>
	<node id="9950517777" lat="62.2647361" lon="6.8643112" version="1" timestamp="2022-08-13T06:07:46Z" changeset="124841038" uid="3497659" user="NKA">
		<tag k="name" v="Litlebrauta" />
		<tag k="place" v="isolated_dwelling" />
		<tag k="ssr:stedsnr" v="516551" />
	</node>
	<node id="9950517778" lat="62.2998778" lon="6.9185335" version="1" timestamp="2022-08-13T06:07:46Z" changeset="124841038" uid="3497659" user="NKA">
		<tag k="alt_name" v="Framhusreitane" />
		<tag k="name" v="Reitane" />
		<tag k="place" v="farm" />
		<tag k="ssr:stedsnr" v="678586" />
	</node>
	<node id="9950517779" lat="62.1320089" lon="6.8316644" version="1" timestamp="2022-08-13T06:07:46Z" changeset="124841038" uid="3497659" user="NKA">
		<tag k="historic" v="shieling" />
		<tag k="name" v="Moldskreddalen" />
		<tag k="place" v="isolated_dwelling" />
		<tag k="ssr:stedsnr" v="678385" />
	</node>
	<node id="9950517780" lat="62.2647871" lon="6.9953539" version="1" timestamp="2022-08-13T06:07:46Z" changeset="124841038" uid="3497659" user="NKA">
		<tag k="alt_name" v="Opshauglied;Li;Lie" />
		<tag k="name" v="Liene" />
		<tag k="place" v="farm" />
		<tag k="ssr:stedsnr" v="193912" />
	</node>
	<node id="9950517781" lat="62.1235473" lon="6.8448556" version="1" timestamp="2022-08-13T06:07:46Z" changeset="124841038" uid="3497659" user="NKA">
		<tag k="name" v="Gammelsætra" />
		<tag k="place" v="locality" />
		<tag k="ssr:stedsnr" v="576734" />
	</node>
	<node id="9950517782" lat="62.0763237" lon="6.8208003" version="1" timestamp="2022-08-13T06:07:46Z" changeset="124841038" uid="3497659" user="NKA">
		<tag k="name" v="Langeland" />
		<tag k="place" v="hamlet" />
		<tag k="ssr:stedsnr" v="374435" />
	</node>
	<node id="9950517783" lat="62.0880138" lon="6.8461988" version="1" timestamp="2022-08-13T06:07:46Z" changeset="124841038" uid="3497659" user="NKA">
		<tag k="name" v="Nybø" />
		<tag k="place" v="farm" />
		<tag k="ssr:stedsnr" v="496432" />
	</node>
	<node id="9950517784" lat="62.2543412" lon="6.8984589" version="1" timestamp="2022-08-13T06:07:46Z" changeset="124841038" uid="3497659" user="NKA">
		<tag k="name" v="Helstad" />
		<tag k="place" v="hamlet" />
		<tag k="ssr:stedsnr" v="496900" />
	</node>
	<node id="9950517785" lat="62.33965" lon="6.9174889" version="1" timestamp="2022-08-13T06:07:46Z" changeset="124841038" uid="3497659" user="NKA">
		<tag k="name" v="Skotsknutplassen" />
		<tag k="place" v="locality" />
		<tag k="ssr:stedsnr" v="880901" />
	</node>
	<node id="9950517786" lat="62.2748194" lon="6.8412195" version="1" timestamp="2022-08-13T06:07:46Z" changeset="124841038" uid="3497659" user="NKA">
		<tag k="historic" v="shieling" />
		<tag k="name" v="Gamlesætra" />
		<tag k="place" v="isolated_dwelling" />
		<tag k="ssr:stedsnr" v="334548" />
	</node>
	<node id="9950517787" lat="62.2526844" lon="6.8900667" version="1" timestamp="2022-08-13T06:07:46Z" changeset="124841038" uid="3497659" user="NKA">
		<tag k="name" v="Myklebust" />
		<tag k="place" v="hamlet" />
		<tag k="ssr:stedsnr" v="375904" />
	</node>
	<node id="9950517788" lat="62.0924583" lon="6.8550362" version="1" timestamp="2022-08-13T06:07:46Z" changeset="124841038" uid="3497659" user="NKA">
		<tag k="name" v="Humlemyra" />
		<tag k="place" v="farm" />
		<tag k="ssr:stedsnr" v="496431" />
	</node>
	<node id="9950517789" lat="62.3398611" lon="6.8749141" version="1" timestamp="2022-08-13T06:07:46Z" changeset="124841038" uid="3497659" user="NKA">
		<tag k="alt_name" v="Sætra" />
		<tag k="name" v="Fausasætra" />
		<tag k="place" v="isolated_dwelling" />
		<tag k="ssr:stedsnr" v="872946" />
	</node>
	<node id="9950517790" lat="62.3573981" lon="6.8760048" version="1" timestamp="2022-08-13T06:07:46Z" changeset="124841038" uid="3497659" user="NKA">
		<tag k="name" v="Fausa" />
		<tag k="place" v="hamlet" />
		<tag k="ssr:stedsnr" v="739682" />
	</node>
	<node id="9950517792" lat="62.3458472" lon="6.8701" version="1" timestamp="2022-08-13T06:07:46Z" changeset="124841038" uid="3497659" user="NKA">
		<tag k="name" v="Berget" />
		<tag k="place" v="isolated_dwelling" />
		<tag k="ssr:stedsnr" v="455973" />
	</node>
	<node id="9950517793" lat="62.3560803" lon="6.8627391" version="1" timestamp="2022-08-13T06:07:46Z" changeset="124841038" uid="3497659" user="NKA">
		<tag k="name" v="Stigane" />
		<tag k="old_name" v="Fremmerfausa" />
		<tag k="place" v="farm" />
		<tag k="ssr:stedsnr" v="799722" />
	</node>
	<node id="9950517794" lat="62.0911084" lon="6.8503864" version="1" timestamp="2022-08-13T06:07:46Z" changeset="124841038" uid="3497659" user="NKA">
		<tag k="name" v="Holen" />
		<tag k="place" v="farm" />
		<tag k="ssr:stedsnr" v="132374" />
	</node>
	<node id="9950517795" lat="62.2337611" lon="6.8554195" version="1" timestamp="2022-08-13T06:07:46Z" changeset="124841038" uid="3497659" user="NKA">
		<tag k="name" v="Myklebustsætra" />
		<tag k="place" v="isolated_dwelling" />
		<tag k="ssr:stedsnr" v="132257" />
	</node>
	<node id="9950517796" lat="62.1264389" lon="6.7343863" version="1" timestamp="2022-08-13T06:07:46Z" changeset="124841038" uid="3497659" user="NKA">
		<tag k="name" v="Longskredstølen" />
		<tag k="place" v="locality" />
		<tag k="ssr:stedsnr" v="881058" />
	</node>
	<node id="9950517797" lat="62.2512362" lon="6.8944809" version="1" timestamp="2022-08-13T06:07:46Z" changeset="124841038" uid="3497659" user="NKA">
		<tag k="name" v="Nesheim" />
		<tag k="place" v="farm" />
		<tag k="ssr:stedsnr" v="941328" />
	</node>
	<node id="9950517798" lat="62.2454996" lon="6.8043162" version="1" timestamp="2022-08-13T06:07:46Z" changeset="124841038" uid="3497659" user="NKA">
		<tag k="historic" v="shieling" />
		<tag k="name" v="Habostadsætra" />
		<tag k="place" v="hamlet" />
		<tag k="ssr:stedsnr" v="11258" />
	</node>
	<node id="9950517799" lat="62.2968377" lon="6.8166462" version="1" timestamp="2022-08-13T06:07:46Z" changeset="124841038" uid="3497659" user="NKA">
		<tag k="historic" v="shieling" />
		<tag k="name" v="Langlosætra" />
		<tag k="place" v="hamlet" />
		<tag k="ssr:stedsnr" v="25739" />
	</node>
	<node id="9950517800" lat="62.0772421" lon="6.8271837" version="1" timestamp="2022-08-13T06:07:46Z" changeset="124841038" uid="3497659" user="NKA">
		<tag k="name" v="Gjerdet" />
		<tag k="place" v="farm" />
		<tag k="ssr:stedsnr" v="820616" />
	</node>
	<node id="9950517801" lat="62.0606417" lon="6.7941806" version="1" timestamp="2022-08-13T06:07:46Z" changeset="124841038" uid="3497659" user="NKA">
		<tag k="name" v="Fjelltun" />
		<tag k="place" v="farm" />
		<tag k="ssr:stedsnr" v="72398" />
	</node>
	<node id="9950517802" lat="62.2906192" lon="6.8980056" version="1" timestamp="2022-08-13T06:07:46Z" changeset="124841038" uid="3497659" user="NKA">
		<tag k="name" v="Berge" />
		<tag k="place" v="hamlet" />
		<tag k="ssr:stedsnr" v="921614" />
	</node>
	<node id="9950517803" lat="62.1087083" lon="6.7437357" version="1" timestamp="2022-08-13T06:07:46Z" changeset="124841038" uid="3497659" user="NKA">
		<tag k="name" v="Lundheim" />
		<tag k="place" v="isolated_dwelling" />
		<tag k="ssr:stedsnr" v="395609" />
	</node>
	<node id="9950517804" lat="62.279875" lon="6.8857719" version="1" timestamp="2022-08-13T06:07:46Z" changeset="124841038" uid="3497659" user="NKA">
		<tag k="name" v="Rysteplassen" />
		<tag k="place" v="farm" />
		<tag k="ssr:stedsnr" v="941995" />
	</node>
	<node id="9950517805" lat="62.3109685" lon="6.9132716" version="1" timestamp="2022-08-13T06:07:46Z" changeset="124841038" uid="3497659" user="NKA">
		<tag k="name" v="Langlo" />
		<tag k="place" v="hamlet" />
		<tag k="ssr:stedsnr" v="800627" />
	</node>
	<node id="9950517806" lat="62.2660607" lon="6.8560922" version="1" timestamp="2022-08-13T06:07:46Z" changeset="124841038" uid="3497659" user="NKA">
		<tag k="name" v="Engeset" />
		<tag k="place" v="hamlet" />
		<tag k="ssr:stedsnr" v="921594" />
	</node>
	<node id="9950517807" lat="62.0378334" lon="6.8130056" version="1" timestamp="2022-08-13T06:07:46Z" changeset="124841038" uid="3497659" user="NKA">
		<tag k="name" v="Tronstadsætra" />
		<tag k="place" v="isolated_dwelling" />
		<tag k="ssr:stedsnr" v="193476" />
	</node>
	<node id="9950517808" lat="62.0722886" lon="6.7971814" version="1" timestamp="2022-08-13T06:07:46Z" changeset="124841038" uid="3497659" user="NKA">
		<tag k="alt_name" v="Litlebø" />
		<tag k="name" v="Litlebøen" />
		<tag k="place" v="farm" />
		<tag k="ssr:stedsnr" v="71456" />
	</node>
	<node id="9950517809" lat="62.0772084" lon="6.9316501" version="1" timestamp="2022-08-13T06:07:46Z" changeset="124841038" uid="3497659" user="NKA">
		<tag k="name" v="Litlesætra" />
		<tag k="place" v="locality" />
		<tag k="ssr:stedsnr" v="760267" />
	</node>
	<node id="9950517810" lat="62.0335111" lon="6.7194778" version="1" timestamp="2022-08-13T06:07:46Z" changeset="124841038" uid="3497659" user="NKA">
		<tag k="name" v="Liasætra" />
		<tag k="place" v="locality" />
		<tag k="ssr:stedsnr" v="638463" />
	</node>
	<node id="9950517811" lat="62.3051489" lon="6.9012356" version="1" timestamp="2022-08-13T06:07:46Z" changeset="124841038" uid="3497659" user="NKA">
		<tag k="name" v="Storgjerdet" />
		<tag k="place" v="farm" />
		<tag k="ssr:stedsnr" v="521840" />
	</node>
	<node id="9950517812" lat="62.2721033" lon="6.8584807" version="1" timestamp="2022-08-13T06:07:46Z" changeset="124841038" uid="3497659" user="NKA">
		<tag k="name" v="Øvstelia" />
		<tag k="place" v="farm" />
		<tag k="ssr:stedsnr" v="576685" />
	</node>
</osm>
