<?xml version="1.0" encoding="UTF-8"?>
<osm version="0.6" generator="osmapis">
	<node lat="62.93213315752674" lon="11.10728704089214" id="-83215">
		<tag k="name" v="Haltdalsvegen" />
		<tag k="ssr:date" v="2019-05-30" />
		<tag k="ssr:gruppe" v="veg" />
		<tag k="ssr:hovedgruppe" v="infrastruktur" />
		<tag k="ssr:stedsnr" v="163808" />
		<tag k="ssr:type" v="adressenavn" />
	</node>
	<node lat="62.94094862209412" lon="11.078509552244732" id="-83217">
		<tag k="name" v="Bringenvegen" />
		<tag k="ssr:date" v="2019-05-30" />
		<tag k="ssr:gruppe" v="veg" />
		<tag k="ssr:hovedgruppe" v="infrastruktur" />
		<tag k="ssr:stedsnr" v="163962" />
		<tag k="ssr:type" v="adressenavn" />
	</node>
	<node lat="62.82306600023909" lon="11.347988606106078" id="-83272">
		<tag k="name" v="Kalvhåggån" />
		<tag k="ssr:date" v="2019-05-30" />
		<tag k="ssr:gruppe" v="veg" />
		<tag k="ssr:hovedgruppe" v="infrastruktur" />
		<tag k="ssr:stedsnr" v="224789" />
		<tag k="ssr:type" v="adressenavn" />
	</node>
	<node lat="62.789276920520095" lon="11.180531553502902" id="-83274">
		<tag k="name" v="Pålsgruvvegen" />
		<tag k="ssr:date" v="2019-05-30" />
		<tag k="ssr:gruppe" v="veg" />
		<tag k="ssr:hovedgruppe" v="infrastruktur" />
		<tag k="ssr:stedsnr" v="224795" />
		<tag k="ssr:type" v="adressenavn" />
	</node>
	<node lat="62.720049269154345" lon="11.002209289928173" id="-83277">
		<tag k="name" v="Elgsjøvegen" />
		<tag k="ssr:date" v="2019-05-30" />
		<tag k="ssr:gruppe" v="veg" />
		<tag k="ssr:hovedgruppe" v="infrastruktur" />
		<tag k="ssr:stedsnr" v="224944" />
		<tag k="ssr:type" v="adressenavn" />
	</node>
	<node lat="62.80827993429916" lon="11.498530550661327" id="-83278">
		<tag k="name" v="Finnlandsvollvegen" />
		<tag k="ssr:date" v="2019-05-30" />
		<tag k="ssr:gruppe" v="veg" />
		<tag k="ssr:hovedgruppe" v="infrastruktur" />
		<tag k="ssr:stedsnr" v="224806" />
		<tag k="ssr:type" v="adressenavn" />
	</node>
	<node lat="62.80899246979642" lon="11.456047303213396" id="-83371">
		<tag k="name" v="Håvegen" />
		<tag k="ssr:date" v="2019-05-30" />
		<tag k="ssr:gruppe" v="veg" />
		<tag k="ssr:hovedgruppe" v="infrastruktur" />
		<tag k="ssr:stedsnr" v="466824" />
		<tag k="ssr:type" v="adressenavn" />
	</node>
	<node lat="62.80623572065065" lon="11.331596348493152" id="-83372">
		<tag k="name" v="Buvollvegen" />
		<tag k="ssr:date" v="2019-05-30" />
		<tag k="ssr:gruppe" v="veg" />
		<tag k="ssr:hovedgruppe" v="infrastruktur" />
		<tag k="ssr:stedsnr" v="466831" />
		<tag k="ssr:type" v="adressenavn" />
	</node>
	<node lat="62.95960833021775" lon="11.10470555302273" id="-83444">
		<tag k="name" v="Bringenvegen" />
		<tag k="ssr:date" v="2018-01-09" />
		<tag k="ssr:gruppe" v="veg" />
		<tag k="ssr:hovedgruppe" v="infrastruktur" />
		<tag k="ssr:stedsnr" v="349364" />
		<tag k="ssr:type" v="vegstrekning" />
	</node>
	<node lat="62.81070277420268" lon="11.15973332818252" id="-83665">
		<tag k="name" v="Øyungsvegen" />
		<tag k="ssr:date" v="2018-01-09" />
		<tag k="ssr:gruppe" v="veg" />
		<tag k="ssr:hovedgruppe" v="infrastruktur" />
		<tag k="ssr:stedsnr" v="531417" />
		<tag k="ssr:type" v="vegstrekning" />
	</node>
	<node lat="62.84466965055484" lon="11.275946050688646" id="-83717">
		<tag k="name" v="Rønningslia" />
		<tag k="ssr:date" v="2019-05-30" />
		<tag k="ssr:gruppe" v="veg" />
		<tag k="ssr:hovedgruppe" v="infrastruktur" />
		<tag k="ssr:stedsnr" v="586858" />
		<tag k="ssr:type" v="adressenavn" />
	</node>
	<node lat="62.743158846378755" lon="11.170049878778762" id="-83718">
		<tag k="name" v="Borrvegen" />
		<tag k="ssr:date" v="2019-05-30" />
		<tag k="ssr:gruppe" v="veg" />
		<tag k="ssr:hovedgruppe" v="infrastruktur" />
		<tag k="ssr:stedsnr" v="588814" />
		<tag k="ssr:type" v="adressenavn" />
	</node>
	<node lat="62.81028734982889" lon="11.37984549291998" id="-83720">
		<tag k="name" v="Riastvegen" />
		<tag k="ssr:date" v="2019-05-30" />
		<tag k="ssr:gruppe" v="veg" />
		<tag k="ssr:hovedgruppe" v="infrastruktur" />
		<tag k="ssr:stedsnr" v="588824" />
		<tag k="ssr:type" v="adressenavn" />
	</node>
	<node lat="62.695565035126215" lon="11.156469280788745" id="-83721">
		<tag k="name" v="Hessjøvegen" />
		<tag k="ssr:date" v="2019-05-30" />
		<tag k="ssr:gruppe" v="veg" />
		<tag k="ssr:hovedgruppe" v="infrastruktur" />
		<tag k="ssr:stedsnr" v="588826" />
		<tag k="ssr:type" v="adressenavn" />
	</node>
	<node lat="62.91986110897325" lon="11.18645277054092" id="-83723">
		<tag k="name" v="Gjelvegen" />
		<tag k="ssr:date" v="2018-01-09" />
		<tag k="ssr:gruppe" v="veg" />
		<tag k="ssr:hovedgruppe" v="infrastruktur" />
		<tag k="ssr:stedsnr" v="591255" />
		<tag k="ssr:type" v="vegstrekning" />
	</node>
	<node lat="62.926986115036804" lon="11.193602775801429" id="-83763">
		<tag k="name" v="Aunvegen" />
		<tag k="ssr:date" v="2018-01-09" />
		<tag k="ssr:gruppe" v="veg" />
		<tag k="ssr:hovedgruppe" v="infrastruktur" />
		<tag k="ssr:stedsnr" v="649786" />
		<tag k="ssr:type" v="vegstrekning" />
	</node>
	<node lat="62.92697622330761" lon="11.141137247842458" id="-83770">
		<tag k="name" v="Jordmorbakken" />
		<tag k="ssr:date" v="2019-05-30" />
		<tag k="ssr:gruppe" v="veg" />
		<tag k="ssr:hovedgruppe" v="infrastruktur" />
		<tag k="ssr:stedsnr" v="707851" />
		<tag k="ssr:type" v="adressenavn" />
	</node>
	<node lat="62.953216347111564" lon="11.24508263127578" id="-83789">
		<tag k="name" v="Jamtvollvegen" />
		<tag k="ssr:date" v="2019-05-30" />
		<tag k="ssr:gruppe" v="veg" />
		<tag k="ssr:hovedgruppe" v="infrastruktur" />
		<tag k="ssr:stedsnr" v="709940" />
		<tag k="ssr:type" v="adressenavn" />
	</node>
	<node lat="62.8396821069154" lon="11.31633059920848" id="-83790">
		<tag k="name" v="Svarthåggån" />
		<tag k="ssr:date" v="2019-05-30" />
		<tag k="ssr:gruppe" v="veg" />
		<tag k="ssr:hovedgruppe" v="infrastruktur" />
		<tag k="ssr:stedsnr" v="890873" />
		<tag k="ssr:type" v="adressenavn" />
	</node>
	<node lat="62.851248402617266" lon="11.205649478486379" id="-83791">
		<tag k="name" v="Morkavegen" />
		<tag k="ssr:date" v="2019-05-30" />
		<tag k="ssr:gruppe" v="veg" />
		<tag k="ssr:hovedgruppe" v="infrastruktur" />
		<tag k="ssr:stedsnr" v="890876" />
		<tag k="ssr:type" v="adressenavn" />
	</node>
	<node lat="62.86728055785862" lon="11.214127773220534" id="-83830">
		<tag k="alt_name" v="Gammelvegen" />
		<tag k="name" v="Gamle Kongsveg" />
		<tag k="ssr:date" v="2018-01-09" />
		<tag k="ssr:gruppe" v="veg" />
		<tag k="ssr:hovedgruppe" v="infrastruktur" />
		<tag k="ssr:stedsnr" v="896429" />
		<tag k="ssr:type" v="vegstrekning" />
	</node>
	<node lat="62.914834471952" lon="11.13928178321216" id="-83846">
		<tag k="name" v="Løvåsvegen" />
		<tag k="ssr:date" v="2019-05-30" />
		<tag k="ssr:gruppe" v="veg" />
		<tag k="ssr:hovedgruppe" v="infrastruktur" />
		<tag k="ssr:stedsnr" v="709788" />
		<tag k="ssr:type" v="adressenavn" />
	</node>
	<node lat="62.73852935624084" lon="11.093742602995713" id="-83992">
		<tag k="name" v="Øyungen hyttefelt" />
		<tag k="ssr:date" v="2019-05-30" />
		<tag k="ssr:gruppe" v="veg" />
		<tag k="ssr:hovedgruppe" v="infrastruktur" />
		<tag k="ssr:stedsnr" v="831940" />
		<tag k="ssr:type" v="adressenavn" />
	</node>
	<node lat="62.918993868974425" lon="11.174196931590515" id="-84062">
		<tag k="name" v="Haugavegen" />
		<tag k="ssr:date" v="2019-05-30" />
		<tag k="ssr:gruppe" v="veg" />
		<tag k="ssr:hovedgruppe" v="infrastruktur" />
		<tag k="ssr:stedsnr" v="891813" />
		<tag k="ssr:type" v="adressenavn" />
	</node>
	<node lat="62.743346675124805" lon="11.009916615445594" id="-84063">
		<tag k="name" v="Meiåvegen" />
		<tag k="ssr:date" v="2019-05-30" />
		<tag k="ssr:gruppe" v="veg" />
		<tag k="ssr:hovedgruppe" v="infrastruktur" />
		<tag k="ssr:stedsnr" v="892924" />
		<tag k="ssr:type" v="adressenavn" />
	</node>
	<node lat="62.79539144577245" lon="11.353603754056072" id="-84064">
		<tag k="name" v="Skordalsvegen" />
		<tag k="ssr:date" v="2019-05-30" />
		<tag k="ssr:gruppe" v="veg" />
		<tag k="ssr:hovedgruppe" v="infrastruktur" />
		<tag k="ssr:stedsnr" v="892926" />
		<tag k="ssr:type" v="adressenavn" />
	</node>
	<node lat="62.83513055584886" lon="11.358263887580968" id="-84075">
		<tag k="name" v="Slættvegen" />
		<tag k="ssr:date" v="2018-01-09" />
		<tag k="ssr:gruppe" v="veg" />
		<tag k="ssr:hovedgruppe" v="infrastruktur" />
		<tag k="ssr:stedsnr" v="896226" />
		<tag k="ssr:type" v="vegstrekning" />
	</node>
	<node lat="62.94507777340153" lon="11.030019453125094" id="-84078">
		<tag k="name" v="Dambekkøyan" />
		<tag k="ssr:date" v="2018-01-09" />
		<tag k="ssr:gruppe" v="sjøbunn" />
		<tag k="ssr:hovedgruppe" v="sjø" />
		<tag k="ssr:stedsnr" v="896574" />
		<tag k="ssr:type" v="renneKløftISjø" />
	</node>
	<node lat="62.73009770037587" lon="11.142033851809417" id="-84125">
		<tag k="name" v="Øyungsvegen" />
		<tag k="ssr:date" v="2019-05-30" />
		<tag k="ssr:gruppe" v="veg" />
		<tag k="ssr:hovedgruppe" v="infrastruktur" />
		<tag k="ssr:stedsnr" v="952949" />
		<tag k="ssr:type" v="adressenavn" />
	</node>
	<node lat="62.84371263435909" lon="11.276790086354584" id="-84199">
		<tag k="name" v="Stenslivegen" />
		<tag k="ssr:date" v="2019-05-30" />
		<tag k="ssr:gruppe" v="veg" />
		<tag k="ssr:hovedgruppe" v="infrastruktur" />
		<tag k="ssr:stedsnr" v="40879" />
		<tag k="ssr:type" v="adressenavn" />
	</node>
	<node lat="62.901367381851955" lon="11.189011518913938" id="-84200">
		<tag k="name" v="Moavegen" />
		<tag k="ssr:date" v="2019-05-30" />
		<tag k="ssr:gruppe" v="veg" />
		<tag k="ssr:hovedgruppe" v="infrastruktur" />
		<tag k="ssr:stedsnr" v="42760" />
		<tag k="ssr:type" v="adressenavn" />
	</node>
	<node lat="62.83818066296573" lon="11.308548416763976" id="-84298">
		<tag k="name" v="Lunderengshaugan" />
		<tag k="ssr:date" v="2019-05-30" />
		<tag k="ssr:gruppe" v="veg" />
		<tag k="ssr:hovedgruppe" v="infrastruktur" />
		<tag k="ssr:stedsnr" v="101879" />
		<tag k="ssr:type" v="adressenavn" />
	</node>
	<node lat="62.953236948363305" lon="11.04050242192289" id="-84387">
		<tag k="name" v="Bergavegen" />
		<tag k="ssr:date" v="2019-05-30" />
		<tag k="ssr:gruppe" v="veg" />
		<tag k="ssr:hovedgruppe" v="infrastruktur" />
		<tag k="ssr:stedsnr" v="163801" />
		<tag k="ssr:type" v="adressenavn" />
	</node>
	<node lat="62.953272222435885" lon="10.974583331028743" id="-84420">
		<tag k="name" v="Klokkarmyra" />
		<tag k="ssr:date" v="2018-01-09" />
		<tag k="ssr:gruppe" v="sjøbunn" />
		<tag k="ssr:hovedgruppe" v="sjø" />
		<tag k="ssr:stedsnr" v="167589" />
		<tag k="ssr:type" v="renneKløftISjø" />
	</node>
	<node lat="62.84298544976951" lon="11.291526360373052" id="-84536">
		<tag k="name" v="Bakkavegen" />
		<tag k="ssr:date" v="2019-05-30" />
		<tag k="ssr:gruppe" v="veg" />
		<tag k="ssr:hovedgruppe" v="infrastruktur" />
		<tag k="ssr:stedsnr" v="283865" />
		<tag k="ssr:type" v="adressenavn" />
	</node>
	<node lat="62.92506714629464" lon="11.14668351512278" id="-84537">
		<tag k="name" v="Aunvegen" />
		<tag k="ssr:date" v="2019-05-30" />
		<tag k="ssr:gruppe" v="veg" />
		<tag k="ssr:hovedgruppe" v="infrastruktur" />
		<tag k="ssr:stedsnr" v="285811" />
		<tag k="ssr:type" v="adressenavn" />
	</node>
	<node lat="62.95002499849087" lon="11.020752783525747" id="-84570">
		<tag k="name" v="Gråfloen" />
		<tag k="ssr:date" v="2018-01-09" />
		<tag k="ssr:gruppe" v="sjøbunn" />
		<tag k="ssr:hovedgruppe" v="sjø" />
		<tag k="ssr:stedsnr" v="289567" />
		<tag k="ssr:type" v="renneKløftISjø" />
	</node>
	<node lat="62.768465887728254" lon="11.047311208254461" id="-84627">
		<tag k="name" v="Båttjønndalsvegen" />
		<tag k="ssr:date" v="2019-05-30" />
		<tag k="ssr:gruppe" v="veg" />
		<tag k="ssr:hovedgruppe" v="infrastruktur" />
		<tag k="ssr:stedsnr" v="345794" />
		<tag k="ssr:type" v="adressenavn" />
	</node>
	<node lat="62.954621192559834" lon="11.248087382820223" id="-84717">
		<tag k="name" v="Nordaunvegen" />
		<tag k="ssr:date" v="2019-05-30" />
		<tag k="ssr:gruppe" v="veg" />
		<tag k="ssr:hovedgruppe" v="infrastruktur" />
		<tag k="ssr:stedsnr" v="406948" />
		<tag k="ssr:type" v="adressenavn" />
	</node>
	<node lat="62.76122270649151" lon="11.17758750893744" id="-84851">
		<tag k="name" v="Grønåsvegen" />
		<tag k="ssr:date" v="2019-05-30" />
		<tag k="ssr:gruppe" v="veg" />
		<tag k="ssr:hovedgruppe" v="infrastruktur" />
		<tag k="ssr:stedsnr" v="527793" />
		<tag k="ssr:type" v="adressenavn" />
	</node>
	<node lat="62.81896871987418" lon="11.583652688456597" id="-84854">
		<tag k="name" v="Bønsåsvegen" />
		<tag k="ssr:date" v="2019-05-30" />
		<tag k="ssr:gruppe" v="veg" />
		<tag k="ssr:hovedgruppe" v="infrastruktur" />
		<tag k="ssr:stedsnr" v="527951" />
		<tag k="ssr:type" v="adressenavn" />
	</node>
	<node lat="62.93067778009412" lon="11.134333330841503" id="-84877">
		<tag k="name" v="Ruskåsvegen" />
		<tag k="ssr:date" v="2018-01-09" />
		<tag k="ssr:gruppe" v="veg" />
		<tag k="ssr:hovedgruppe" v="infrastruktur" />
		<tag k="ssr:stedsnr" v="531290" />
		<tag k="ssr:type" v="vegstrekning" />
	</node>
	<node lat="62.86986944005769" lon="11.180672227838512" id="-84880">
		<tag k="name" v="Åsvegen" />
		<tag k="ssr:date" v="2018-01-09" />
		<tag k="ssr:gruppe" v="veg" />
		<tag k="ssr:hovedgruppe" v="infrastruktur" />
		<tag k="ssr:stedsnr" v="531540" />
		<tag k="ssr:type" v="vegstrekning" />
	</node>
	<node lat="62.84322046964018" lon="11.292493759805208" id="-84943">
		<tag k="name" v="Holtålen kommune" />
		<tag k="ssr:date" v="2019-03-05" />
		<tag k="ssr:gruppe" v="administrativeIndelinger" />
		<tag k="ssr:hovedgruppe" v="offentligAdministrasjon" />
		<tag k="ssr:stedsnr" v="571960" />
		<tag k="ssr:type" v="kommune" />
	</node>
	<node lat="62.84853139806172" lon="11.245415434489969" id="-84946">
		<tag k="name" v="Hessdalsvegen" />
		<tag k="ssr:date" v="2019-05-30" />
		<tag k="ssr:gruppe" v="veg" />
		<tag k="ssr:hovedgruppe" v="infrastruktur" />
		<tag k="ssr:stedsnr" v="588836" />
		<tag k="ssr:type" v="adressenavn" />
	</node>
	<node lat="62.94103236660516" lon="11.072298841414684" id="-85047">
		<tag k="name" v="Grønsetvegen" />
		<tag k="ssr:date" v="2019-05-30" />
		<tag k="ssr:gruppe" v="veg" />
		<tag k="ssr:hovedgruppe" v="infrastruktur" />
		<tag k="ssr:stedsnr" v="648966" />
		<tag k="ssr:type" v="adressenavn" />
	</node>
	<node lat="62.84273556090103" lon="11.303947112760817" id="-85048">
		<tag k="name" v="Nørvegen" />
		<tag k="ssr:date" v="2019-05-30" />
		<tag k="ssr:gruppe" v="veg" />
		<tag k="ssr:hovedgruppe" v="infrastruktur" />
		<tag k="ssr:stedsnr" v="648975" />
		<tag k="ssr:type" v="adressenavn" />
	</node>
	<node lat="62.9182950708115" lon="11.176361233786384" id="-85184">
		<tag k="name" v="Lønaberget" />
		<tag k="ssr:date" v="2019-05-30" />
		<tag k="ssr:gruppe" v="veg" />
		<tag k="ssr:hovedgruppe" v="infrastruktur" />
		<tag k="ssr:stedsnr" v="768870" />
		<tag k="ssr:type" v="adressenavn" />
	</node>
	<node lat="62.84629565783503" lon="11.253138121593576" id="-85185">
		<tag k="name" v="Gåttågjelan" />
		<tag k="ssr:date" v="2019-05-30" />
		<tag k="ssr:gruppe" v="veg" />
		<tag k="ssr:hovedgruppe" v="infrastruktur" />
		<tag k="ssr:stedsnr" v="768874" />
		<tag k="ssr:type" v="adressenavn" />
	</node>
	<node lat="62.76268699746462" lon="11.180130014639508" id="-85187">
		<tag k="name" v="Grøtådalsvegen" />
		<tag k="ssr:date" v="2019-05-30" />
		<tag k="ssr:gruppe" v="veg" />
		<tag k="ssr:hovedgruppe" v="infrastruktur" />
		<tag k="ssr:stedsnr" v="770788" />
		<tag k="ssr:type" v="adressenavn" />
	</node>
	<node lat="62.79902508045125" lon="11.334387440791803" id="-85188">
		<tag k="name" v="Hollvegen" />
		<tag k="ssr:date" v="2019-05-30" />
		<tag k="ssr:gruppe" v="veg" />
		<tag k="ssr:hovedgruppe" v="infrastruktur" />
		<tag k="ssr:stedsnr" v="770789" />
		<tag k="ssr:type" v="adressenavn" />
	</node>
	<node lat="62.936420840951556" lon="11.070501958508585" id="-85189">
		<tag k="name" v="Ledalsvegen" />
		<tag k="ssr:date" v="2019-05-30" />
		<tag k="ssr:gruppe" v="veg" />
		<tag k="ssr:hovedgruppe" v="infrastruktur" />
		<tag k="ssr:stedsnr" v="770946" />
		<tag k="ssr:type" v="adressenavn" />
	</node>
	<node lat="62.76927193456075" lon="11.339928432561992" id="-85274">
		<tag k="name" v="Hollvollvegen" />
		<tag k="ssr:date" v="2019-05-30" />
		<tag k="ssr:gruppe" v="veg" />
		<tag k="ssr:hovedgruppe" v="infrastruktur" />
		<tag k="ssr:stedsnr" v="831946" />
		<tag k="ssr:type" v="adressenavn" />
	</node>
</osm>
