<?xml version="1.0" encoding="UTF-8"?>
<osm generator="osmapis" version="0.6">
	<node id="-15072" lat="59.7502777791" lon="11.2943361131">
		<tag k="bridge" v="yes" />
		<tag k="layer" v="1" />
		<tag k="name" v="Hultebrua" />
		<tag k="ssr:stedsnr" v="692636" />
	</node>
	<node id="-14591" lat="59.6477222209" lon="11.2636249968">
		<tag k="bridge" v="yes" />
		<tag k="layer" v="1" />
		<tag k="name" v="Mønster" />
		<tag k="ssr:stedsnr" v="106532" />
	</node>
	<node id="-14750" lat="59.754772224" lon="11.2542833381">
		<tag k="man_made" v="quay" />
		<tag k="name" v="Seterbrygga" />
		<tag k="place" v="locality" />
		<tag k="ssr:stedsnr" v="266658" />
	</node>
	<node id="-15325" lat="59.6721444456" lon="11.3333194383">
		<tag k="bridge" v="yes" />
		<tag k="layer" v="1" />
		<tag k="name" v="Gullerud" />
		<tag k="ssr:stedsnr" v="955568" />
	</node>
	<node id="-14462" lat="59.615202782" lon="11.4089694511">
		<tag k="bridge" v="yes" />
		<tag k="layer" v="1" />
		<tag k="name" v="Havnås" />
		<tag k="ssr:stedsnr" v="895531" />
	</node>
	<node id="-14898" lat="59.6095472215" lon="11.4201138838">
		<tag k="junction" v="yes" />
		<tag k="name" v="Fiskerudhaugen" />
		<tag k="place" v="locality" />
		<tag k="ssr:stedsnr" v="569253" />
	</node>
	<node id="-15155" lat="59.7578166646" lon="11.2600250045">
		<tag k="junction" v="yes" />
		<tag k="name" v="Møtern" />
		<tag k="place" v="locality" />
		<tag k="ssr:stedsnr" v="812696" />
	</node>
	<node id="-14671" lat="59.6324861107" lon="11.2499805495">
		<tag k="fixme" v="consider highway=path" />
		<tag k="highway" v="track" />
		<tag k="name" v="Øddestegen" />
		<tag k="ssr:stedsnr" v="206247" />
	</node>
	<node id="-14461" lat="59.6665194458" lon="11.3757611131">
		<tag k="bridge" v="yes" />
		<tag k="layer" v="1" />
		<tag k="name" v="Østre Sentvedt" />
		<tag k="ssr:stedsnr" v="895517" />
	</node>
	<node id="-15177" lat="59.6696861123" lon="11.3871722308">
		<tag k="junction" v="yes" />
		<tag k="name" v="Vassbånn" />
		<tag k="place" v="locality" />
		<tag k="ssr:stedsnr" v="813479" />
	</node>
	<node id="-15016" lat="59.6118888892" lon="11.3978999949">
		<tag k="bridge" v="yes" />
		<tag k="layer" v="1" />
		<tag k="name" v="Langseter" />
		<tag k="ssr:stedsnr" v="652555" />
	</node>
	<node id="-15015" lat="59.6573444402" lon="11.3790249941">
		<tag k="bridge" v="yes" />
		<tag k="layer" v="1" />
		<tag k="name" v="Haug" />
		<tag k="ssr:stedsnr" v="652554" />
	</node>
	<node id="-14850" lat="59.6449027783" lon="11.338738894">
		<tag k="junction" v="yes" />
		<tag k="name" v="Verpet" />
		<tag k="place" v="locality" />
		<tag k="ssr:stedsnr" v="509468" />
	</node>
</osm>
