<?xml version="1.0" encoding="UTF-8"?>
<osm generator="osmapis" version="0.6">
	<node id="-14336" lat="59.6044777792" lon="11.2621388863">
		<tag k="alt_name" v="Kjesegg østre;Kjesegg" />
		<tag k="name" v="Østre Kjesegg" />
		<tag k="place" v="farm" />
		<tag k="ssr:stedsnr" v="307884" />
	</node>
	<node id="-14335" lat="59.6020638902" lon="11.3266499928">
		<tag k="name" v="Riser" />
		<tag k="place" v="farm" />
		<tag k="ssr:stedsnr" v="307877" />
	</node>
	<node id="-14333" lat="59.7020638867" lon="11.2986249922">
		<tag k="fixme" v="consider place=suburb, village or hamlet" />
		<tag k="loc_name" v="Båstad;Heiåsbyen" />
		<tag k="name" v="Heiås" />
		<tag k="place" v="quarter" />
		<tag k="ssr:stedsnr" v="307847" />
	</node>
	<node id="-14331" lat="59.6763555572" lon="11.3342666747">
		<tag k="name" v="Gullerud" />
		<tag k="place" v="farm" />
		<tag k="ssr:stedsnr" v="307787" />
	</node>
	<node id="-14329" lat="59.6613611118" lon="11.2771555508">
		<tag k="name" v="Haugtomt" />
		<tag k="place" v="farm" />
		<tag k="ssr:stedsnr" v="307771" />
	</node>
	<node id="-14328" lat="59.652227776" lon="11.2893888843">
		<tag k="name" v="Haugland" />
		<tag k="place" v="farm" />
		<tag k="ssr:stedsnr" v="307760" />
	</node>
	<node id="-14327" lat="59.6548638866" lon="11.2824138946">
		<tag k="name" v="Busterud" />
		<tag k="place" v="farm" />
		<tag k="ssr:stedsnr" v="307758" />
	</node>
	<node id="-14326" lat="59.6588500042" lon="11.2257166616">
		<tag k="name" v="Mørkfoss" />
		<tag k="place" v="hamlet" />
		<tag k="ssr:stedsnr" v="307756" />
	</node>
	<node id="-14325" lat="59.7248888898" lon="11.2653777699">
		<tag k="name" v="Brøsholen" />
		<tag k="place" v="farm" />
		<tag k="ssr:stedsnr" v="307115" />
	</node>
	<node id="-14324" lat="59.7291750039" lon="11.2638888874">
		<tag k="name" v="Trollerud" />
		<tag k="place" v="farm" />
		<tag k="ssr:stedsnr" v="307103" />
	</node>
	<node id="-14323" lat="59.6376861117" lon="11.4715361124">
		<tag k="name" v="Kurud" />
		<tag k="place" v="farm" />
		<tag k="ssr:stedsnr" v="307329" />
	</node>
	<node id="-15321" lat="59.6180277782" lon="11.3162305519">
		<tag k="alt_name" v="Stensrud østre" />
		<tag k="name" v="Østre Stensrud" />
		<tag k="place" v="farm" />
		<tag k="ssr:stedsnr" v="934965" />
	</node>
	<node id="-15320" lat="59.6238888863" lon="11.3109777818">
		<tag k="name" v="Høntorp" />
		<tag k="place" v="farm" />
		<tag k="ssr:stedsnr" v="934948" />
	</node>
	<node id="-15319" lat="59.6640027804" lon="11.4657138894">
		<tag k="name" v="Kampelykkja" />
		<tag k="place" v="isolated_dwelling" />
		<tag k="ssr:stedsnr" v="934923" />
	</node>
	<node id="-15318" lat="59.6614055567" lon="11.3984694529">
		<tag k="name" v="Kallak" />
		<tag k="place" v="farm" />
		<tag k="ssr:stedsnr" v="934911" />
	</node>
	<node id="-15317" lat="59.5916138921" lon="11.3952944439">
		<tag k="name" v="Løkkeborg" />
		<tag k="place" v="farm" />
		<tag k="ssr:stedsnr" v="934899" />
	</node>
	<node id="-15316" lat="59.5886277809" lon="11.299752777">
		<tag k="name" v="Stubberud" />
		<tag k="place" v="locality" />
		<tag k="ssr:stedsnr" v="934875" />
	</node>
	<node id="-15315" lat="59.585930552" lon="11.2871666638">
		<tag k="alt_name" v="Henningsmoen øvre" />
		<tag k="name" v="Øvre Henningsmoen" />
		<tag k="place" v="farm" />
		<tag k="ssr:stedsnr" v="934874" />
	</node>
	<node id="-15314" lat="59.5985277782" lon="11.3806888935">
		<tag k="name" v="Holtet" />
		<tag k="place" v="isolated_dwelling" />
		<tag k="ssr:stedsnr" v="934863" />
	</node>
	<node id="-15312" lat="59.6124527803" lon="11.4156250049">
		<tag k="alt_name" v="Lier nedre" />
		<tag k="name" v="Nedre Lier" />
		<tag k="place" v="farm" />
		<tag k="ssr:stedsnr" v="934822" />
	</node>
	<node id="-15311" lat="59.6101638859" lon="11.4242361114">
		<tag k="alt_name" v="Lier øvre" />
		<tag k="name" v="Øvre Lier" />
		<tag k="place" v="farm" />
		<tag k="ssr:stedsnr" v="934820" />
	</node>
	<node id="-15309" lat="59.6197555576" lon="11.414588893">
		<tag k="name" v="Faugli" />
		<tag k="place" v="farm" />
		<tag k="ssr:stedsnr" v="934811" />
	</node>
	<node id="-15307" lat="59.6516833356" lon="11.4403861077">
		<tag k="name" v="Hestehagen" />
		<tag k="place" v="farm" />
		<tag k="ssr:stedsnr" v="934785" />
	</node>
	<node id="-15306" lat="59.6202555535" lon="11.4104222287">
		<tag k="name" v="Fauglihaugen" />
		<tag k="place" v="farm" />
		<tag k="ssr:stedsnr" v="934781" />
	</node>
	<node id="-15305" lat="59.649491664" lon="11.2194388838">
		<tag k="alt_name" v="Grevegg søndre" />
		<tag k="name" v="Søndre Grevegg" />
		<tag k="place" v="farm" />
		<tag k="ssr:stedsnr" v="934699" />
	</node>
	<node id="-15302" lat="59.6799284484" lon="11.2654323439">
		<tag k="alt_name" v="Håkås nordre" />
		<tag k="name" v="Nordre Håkås" />
		<tag k="place" v="farm" />
		<tag k="ssr:stedsnr" v="934678" />
	</node>
	<node id="-15300" lat="59.6401138854" lon="11.2358166616">
		<tag k="name" v="Åstorp" />
		<tag k="place" v="farm" />
		<tag k="ssr:stedsnr" v="934664" />
	</node>
	<node id="-15297" lat="59.6453500003" lon="11.2547083266">
		<tag k="alt_name" v="Rud øvre" />
		<tag k="name" v="Øvre Rud" />
		<tag k="place" v="farm" />
		<tag k="ssr:stedsnr" v="934640" />
	</node>
	<node id="-15296" lat="59.7559416668" lon="11.2614833249">
		<tag k="name" v="Gammel-Seter" />
		<tag k="place" v="farm" />
		<tag k="ssr:stedsnr" v="934625" />
	</node>
	<node id="-15295" lat="59.7146305529" lon="11.2701472221">
		<tag k="name" v="Ovrum" />
		<tag k="place" v="farm" />
		<tag k="ssr:stedsnr" v="934596" />
	</node>
	<node id="-15294" lat="59.6841444414" lon="11.2685444391">
		<tag k="name" v="Gammelgård" />
		<tag k="place" v="farm" />
		<tag k="ssr:stedsnr" v="934577" />
	</node>
	<node id="-15293" lat="59.7146833324" lon="11.3083999925">
		<tag k="name" v="Smådal" />
		<tag k="place" v="farm" />
		<tag k="ssr:stedsnr" v="934562" />
	</node>
	<node id="-15290" lat="59.7106888863" lon="11.2918194479">
		<tag k="name" v="Delingsrud" />
		<tag k="place" v="farm" />
		<tag k="ssr:stedsnr" v="934511" />
	</node>
	<node id="-15289" lat="59.6666833358" lon="11.3574472313">
		<tag k="name" v="Keiserud" />
		<tag k="place" v="farm" />
		<tag k="ssr:stedsnr" v="934507" />
	</node>
	<node id="-15287" lat="59.6699999994" lon="11.2893972189">
		<tag k="alt_name" v="Krokstad nordre" />
		<tag k="name" v="Nordre Krokstad" />
		<tag k="place" v="farm" />
		<tag k="ssr:stedsnr" v="934439" />
	</node>
	<node id="-15283" lat="59.6521055528" lon="11.1946166674">
		<tag k="name" v="Vittenberg" />
		<tag k="place" v="farm" />
		<tag k="ssr:stedsnr" v="915000" />
	</node>
	<node id="-15282" lat="59.6361027794" lon="11.2378888969">
		<tag k="name" v="Torp" />
		<tag k="place" v="farm" />
		<tag k="ssr:stedsnr" v="914972" />
	</node>
	<node id="-15281" lat="59.6397405306" lon="11.2870287465">
		<tag k="fixme" v="consider place=hamlet" />
		<tag k="name" v="Hjensegg" />
		<tag k="place" v="farm" />
		<tag k="ssr:stedsnr" v="914970" />
	</node>
	<node id="-15280" lat="59.6358083333" lon="11.4372944437">
		<tag k="name" v="Ånnerud" />
		<tag k="place" v="farm" />
		<tag k="ssr:stedsnr" v="914966" />
	</node>
	<node id="-15279" lat="59.6151083354" lon="11.3954083273">
		<tag k="alt_name" v="Langset, søndre;Langseter søndre;Søndre Langseter" />
		<tag k="fixme" v="consider place=hamlet" />
		<tag k="name" v="Søndre Langset" />
		<tag k="place" v="farm" />
		<tag k="ssr:stedsnr" v="914931" />
	</node>
	<node id="-15278" lat="59.614152774" lon="11.317375004">
		<tag k="name" v="Haugen" />
		<tag k="place" v="farm" />
		<tag k="ssr:stedsnr" v="914907" />
	</node>
	<node id="-15277" lat="59.6028388888" lon="11.3972416746">
		<tag k="alt_name" v="Sander" />
		<tag k="name" v="Sanner" />
		<tag k="place" v="farm" />
		<tag k="ssr:stedsnr" v="914882" />
	</node>
	<node id="-15275" lat="59.7149805582" lon="11.3551666595">
		<tag k="historic" v="shieling" />
		<tag k="name" v="Haugstøl" />
		<tag k="place" v="locality" />
		<tag k="ssr:stedsnr" v="914872" />
	</node>
	<node id="-15273" lat="59.7100583367" lon="11.3334666696">
		<tag k="name" v="Kudalen" />
		<tag k="place" v="farm" />
		<tag k="ssr:stedsnr" v="914857" />
	</node>
	<node id="-15271" lat="59.7038861133" lon="11.3284500068">
		<tag k="alt_name" v="Måstadskog" />
		<tag k="name" v="Måstadskogen" />
		<tag k="place" v="farm" />
		<tag k="ssr:stedsnr" v="914835" />
	</node>
	<node id="-15270" lat="59.6978999961" lon="11.2873166614">
		<tag k="name" v="Kirkeby" />
		<tag k="place" v="farm" />
		<tag k="ssr:stedsnr" v="914827" />
	</node>
	<node id="-15269" lat="59.6853027749" lon="11.3643833309">
		<tag k="alt_name" v="Ordrerud" />
		<tag k="name" v="Oldrud" />
		<tag k="place" v="farm" />
		<tag k="ssr:stedsnr" v="914807" />
	</node>
	<node id="-15263" lat="59.6668777783" lon="11.356941658">
		<tag k="name" v="Foss" />
		<tag k="place" v="isolated_dwelling" />
		<tag k="ssr:stedsnr" v="914775" />
	</node>
	<node id="-15262" lat="59.6552694426" lon="11.3415694474">
		<tag k="name" v="Sørli" />
		<tag k="place" v="farm" />
		<tag k="ssr:stedsnr" v="914764" />
	</node>
	<node id="-15261" lat="59.5890388932" lon="11.2750805533">
		<tag k="alt_name" v="Kongerud store;Kongerud" />
		<tag k="name" v="Store Kongerud" />
		<tag k="place" v="farm" />
		<tag k="ssr:stedsnr" v="914611" />
	</node>
	<node id="-15257" lat="59.6324972221" lon="11.3825444463">
		<tag k="name" v="Kloppneset" />
		<tag k="place" v="isolated_dwelling" />
		<tag k="ssr:stedsnr" v="873987" />
	</node>
	<node id="-15253" lat="59.6461247174" lon="11.348824461">
		<tag k="alt_name" v="Djupedal søndre" />
		<tag k="name" v="Søndre Djupedal" />
		<tag k="place" v="farm" />
		<tag k="ssr:stedsnr" v="873934" />
	</node>
	<node id="-15249" lat="59.6076305545" lon="11.4391749996">
		<tag k="name" v="Fossum" />
		<tag k="place" v="farm" />
		<tag k="ssr:stedsnr" v="873820" />
	</node>
	<node id="-15245" lat="59.6512388931" lon="11.2266194469">
		<tag k="name" v="Bråten" />
		<tag k="place" v="farm" />
		<tag k="ssr:stedsnr" v="873680" />
	</node>
	<node id="-15244" lat="59.7076194477" lon="11.254861116">
		<tag k="name" v="Gillingsrud" />
		<tag k="place" v="farm" />
		<tag k="ssr:stedsnr" v="873670" />
	</node>
	<node id="-15243" lat="59.6731027761" lon="11.2733222212">
		<tag k="name" v="Passopp" />
		<tag k="place" v="farm" />
		<tag k="ssr:stedsnr" v="873667" />
	</node>
	<node id="-15242" lat="59.6334972243" lon="11.2245194531">
		<tag k="name" v="Myrås" />
		<tag k="place" v="isolated_dwelling" />
		<tag k="ssr:stedsnr" v="873655" />
	</node>
	<node id="-15240" lat="59.6479694462" lon="11.2659583284">
		<tag k="name" v="Mønsteret" />
		<tag k="place" v="isolated_dwelling" />
		<tag k="ssr:stedsnr" v="873651" />
	</node>
	<node id="-15237" lat="59.7606388904" lon="11.2572972241">
		<tag k="alt_name" v="Seter nordre" />
		<tag k="name" v="Nordre Seter" />
		<tag k="place" v="farm" />
		<tag k="ssr:stedsnr" v="873626" />
	</node>
	<node id="-15236" lat="59.7078416629" lon="11.2799805604">
		<tag k="name" v="Skjennum" />
		<tag k="place" v="farm" />
		<tag k="ssr:stedsnr" v="873604" />
	</node>
	<node id="-15235" lat="59.712033331" lon="11.2546972288">
		<tag k="name" v="Dammerud" />
		<tag k="place" v="locality" />
		<tag k="ssr:stedsnr" v="873598" />
	</node>
	<node id="-15234" lat="59.7501638877" lon="11.2647611038">
		<tag k="alt_name" v="Fjøs søndre" />
		<tag k="name" v="Søndre Fjøs" />
		<tag k="place" v="farm" />
		<tag k="ssr:stedsnr" v="873596" />
	</node>
	<node id="-15233" lat="59.691899996" lon="11.2682694486">
		<tag k="name" v="Dramstad" />
		<tag k="place" v="farm" />
		<tag k="ssr:stedsnr" v="873589" />
	</node>
	<node id="-15232" lat="59.6991055511" lon="11.2563333395">
		<tag k="name" v="Skattalen" />
		<tag k="place" v="farm" />
		<tag k="ssr:stedsnr" v="873585" />
	</node>
	<node id="-15226" lat="59.6160083362" lon="11.2391777804">
		<tag k="name" v="Brånån" />
		<tag k="place" v="farm" />
		<tag k="ssr:stedsnr" v="873246" />
	</node>
	<node id="-15223" lat="59.6721083369" lon="11.3775416733">
		<tag k="alt_name" v="Årstad østre" />
		<tag k="name" v="Østre Årstad" />
		<tag k="place" v="farm" />
		<tag k="ssr:stedsnr" v="873515" />
	</node>
	<node id="-15221" lat="59.6485611105" lon="11.3247916611">
		<tag k="name" v="Gopperud" />
		<tag k="place" v="farm" />
		<tag k="ssr:stedsnr" v="854991" />
	</node>
	<node id="-15220" lat="59.6414249993" lon="11.3680916699">
		<tag k="name" v="Skog" />
		<tag k="place" v="farm" />
		<tag k="ssr:stedsnr" v="854989" />
	</node>
	<node id="-15218" lat="59.6362333316" lon="11.2202805599">
		<tag k="name" v="Bøkkelstad" />
		<tag k="place" v="farm" />
		<tag k="ssr:stedsnr" v="854973" />
	</node>
	<node id="-15217" lat="59.6342805591" lon="11.2204888926">
		<tag k="name" v="Torud" />
		<tag k="place" v="farm" />
		<tag k="ssr:stedsnr" v="854971" />
	</node>
	<node id="-15216" lat="59.6225916661" lon="11.3171916668">
		<tag k="name" v="Steinsrud" />
		<tag k="place" v="farm" />
		<tag k="ssr:stedsnr" v="854927" />
	</node>
	<node id="-15215" lat="59.6122249974" lon="11.2941638914">
		<tag k="alt_name" v="Gutu nordre" />
		<tag k="name" v="Gutu" />
		<tag k="place" v="farm" />
		<tag k="ssr:stedsnr" v="854911" />
	</node>
	<node id="-15214" lat="59.6030505643" lon="11.2540267111">
		<tag k="alt_name" v="Kjesegg vestre" />
		<tag k="fixme" v="multiple name tags, choose one and add the other to alt_name" />
		<tag k="name" v="Ødegården;Vestre Kjesegg" />
		<tag k="place" v="farm" />
		<tag k="ssr:stedsnr" v="854895" />
	</node>
	<node id="-15213" lat="59.5999277819" lon="11.4295388957">
		<tag k="name" v="Rudi" />
		<tag k="place" v="farm" />
		<tag k="ssr:stedsnr" v="854890" />
	</node>
	<node id="-15212" lat="59.7146444449" lon="11.3087861107">
		<tag k="name" v="Smådal" />
		<tag k="place" v="farm" />
		<tag k="ssr:stedsnr" v="854872" />
	</node>
	<node id="-15211" lat="59.7191361067" lon="11.3382250031">
		<tag k="name" v="Ånnerud" />
		<tag k="place" v="farm" />
		<tag k="ssr:stedsnr" v="854871" />
	</node>
	<node id="-15210" lat="59.6755555591" lon="11.2894527775">
		<tag k="name" v="Nordli" />
		<tag k="place" v="farm" />
		<tag k="ssr:stedsnr" v="854798" />
	</node>
	<node id="-15209" lat="59.6757694486" lon="11.3520777699">
		<tag k="name" v="Prinsdal" />
		<tag k="place" v="farm" />
		<tag k="ssr:stedsnr" v="854770" />
	</node>
	<node id="-15208" lat="59.6620361126" lon="11.2930388909">
		<tag k="name" v="Bjørnstad" />
		<tag k="place" v="farm" />
		<tag k="ssr:stedsnr" v="854759" />
	</node>
	<node id="-15207" lat="59.6620694431" lon="11.2642999917">
		<tag k="name" v="Gimmingsrud" />
		<tag k="place" v="farm" />
		<tag k="ssr:stedsnr" v="854755" />
	</node>
	<node id="-15206" lat="59.6510694407" lon="11.400363886">
		<tag k="name" v="Dillevik" />
		<tag k="place" v="farm" />
		<tag k="ssr:stedsnr" v="854744" />
	</node>
	<node id="-15205" lat="59.63439167" lon="11.2892194489">
		<tag k="name" v="Bredegg" />
		<tag k="place" v="farm" />
		<tag k="ssr:stedsnr" v="853977" />
	</node>
	<node id="-15204" lat="59.6254888854" lon="11.374469451">
		<tag k="name" v="Haug" />
		<tag k="place" v="farm" />
		<tag k="ssr:stedsnr" v="853948" />
	</node>
	<node id="-15203" lat="59.7036777742" lon="11.2503083319">
		<tag k="name" v="Muggeby" />
		<tag k="place" v="farm" />
		<tag k="ssr:stedsnr" v="853829" />
	</node>
	<node id="-15201" lat="59.5923379943" lon="11.3391347216">
		<tag k="alt_name" v="Skrikerud, m;Skrikerud mellom" />
		<tag k="name" v="Mellom-Skrikerud" />
		<tag k="place" v="farm" />
		<tag k="ssr:stedsnr" v="853565" />
	</node>
	<node id="-15200" lat="59.641198794" lon="11.4760168161">
		<tag k="fixme" v="consider place=hamlet" />
		<tag k="name" v="Nes nordre" />
		<tag k="place" v="farm" />
		<tag k="ssr:stedsnr" v="839078" />
	</node>
	<node id="-15199" lat="59.6063126076" lon="11.4725327153">
		<tag k="name" v="Sætra" />
		<tag k="place" v="locality" />
		<tag k="ssr:stedsnr" v="835692" />
	</node>
	<node id="-15198" lat="59.6453527793" lon="11.4642027738">
		<tag k="name" v="Gylta" />
		<tag k="place" v="isolated_dwelling" />
		<tag k="ssr:stedsnr" v="825804" />
	</node>
	<node id="-15189" lat="59.7576250001" lon="11.2929166741">
		<tag k="name" v="Solvang" />
		<tag k="place" v="isolated_dwelling" />
		<tag k="ssr:stedsnr" v="813641" />
	</node>
	<node id="-15188" lat="59.7112166642" lon="11.300638892">
		<tag k="name" v="Venta" />
		<tag k="place" v="farm" />
		<tag k="ssr:stedsnr" v="813580" />
	</node>
	<node id="-15186" lat="59.7438472266" lon="11.2897305585">
		<tag k="name" v="Burås" />
		<tag k="place" v="farm" />
		<tag k="ssr:stedsnr" v="813539" />
	</node>
	<node id="-15185" lat="59.7254333378" lon="11.2922055487">
		<tag k="name" v="Årmo" />
		<tag k="place" v="farm" />
		<tag k="ssr:stedsnr" v="813533" />
	</node>
	<node id="-15184" lat="59.7270277738" lon="11.2878333411">
		<tag k="name" v="Eikeberg" />
		<tag k="place" v="farm" />
		<tag k="ssr:stedsnr" v="813531" />
	</node>
	<node id="-15179" lat="59.663461108" lon="11.3622805614">
		<tag k="name" v="Kverne" />
		<tag k="place" v="farm" />
		<tag k="ssr:stedsnr" v="813492" />
	</node>
	<node id="-15175" lat="59.689558335" lon="11.3255777787">
		<tag k="name" v="Hensrud" />
		<tag k="place" v="farm" />
		<tag k="ssr:stedsnr" v="813450" />
	</node>
	<node id="-15174" lat="59.6662472215" lon="11.3041444401">
		<tag k="name" v="Vesterby" />
		<tag k="place" v="locality" />
		<tag k="ssr:stedsnr" v="813437" />
	</node>
	<node id="-15173" lat="59.6632916642" lon="11.3108138816">
		<tag k="name" v="Tuen" />
		<tag k="place" v="farm" />
		<tag k="ssr:stedsnr" v="813433" />
	</node>
	<node id="-15172" lat="59.6601810705" lon="11.3034894863">
		<tag k="alt_name" v="Løken lille" />
		<tag k="fixme" v="consider place=hamlet" />
		<tag k="name" v="Lille Løken" />
		<tag k="place" v="farm" />
		<tag k="ssr:stedsnr" v="813429" />
	</node>
	<node id="-15169" lat="59.6470861079" lon="11.4071305568">
		<tag k="name" v="Myrvoll" />
		<tag k="place" v="farm" />
		<tag k="ssr:stedsnr" v="812938" />
	</node>
	<node id="-15167" lat="59.5856527755" lon="11.2901416652">
		<tag k="alt_name" v="Henningsmoen nedre" />
		<tag k="name" v="Nedre Henningsmoen" />
		<tag k="place" v="farm" />
		<tag k="ssr:stedsnr" v="812911" />
	</node>
	<node id="-15165" lat="59.6057888857" lon="11.4736583296">
		<tag k="alt_name" v="Setra søndre" />
		<tag k="name" v="Søndre Setra" />
		<tag k="place" v="farm" />
		<tag k="ssr:stedsnr" v="812880" />
	</node>
	<node id="-15164" lat="59.6128833377" lon="11.4078555585">
		<tag k="name" v="Hakabru" />
		<tag k="place" v="farm" />
		<tag k="ssr:stedsnr" v="812870" />
	</node>
	<node id="-15163" lat="59.6081180787" lon="11.4431826916">
		<tag k="fixme" v="multiple name tags, choose one and add the other to alt_name" />
		<tag k="name" v="Delingsrud;Kølabånn" />
		<tag k="place" v="farm" />
		<tag k="ssr:stedsnr" v="812859" />
	</node>
	<node id="-15162" lat="59.607016663" lon="11.4421972208">
		<tag k="name" v="Barhytta" />
		<tag k="place" v="locality" />
		<tag k="ssr:stedsnr" v="812858" />
	</node>
	<node id="-15158" lat="59.6467083292" lon="11.2289444486">
		<tag k="alt_name" v="Hestehagen søndre" />
		<tag k="name" v="Søndre Hestehagen" />
		<tag k="place" v="farm" />
		<tag k="ssr:stedsnr" v="812739" />
	</node>
	<node id="-15152" lat="59.7040972236" lon="11.2855027711">
		<tag k="name" v="Lunder" />
		<tag k="place" v="farm" />
		<tag k="ssr:stedsnr" v="812656" />
	</node>
	<node id="-15151" lat="59.6288222263" lon="11.2326361156">
		<tag k="name" v="Olasrud" />
		<tag k="place" v="isolated_dwelling" />
		<tag k="ssr:stedsnr" v="812289" />
	</node>
	<node id="-15150" lat="59.6117805523" lon="11.2473888892">
		<tag k="name" v="Skogen" />
		<tag k="place" v="isolated_dwelling" />
		<tag k="ssr:stedsnr" v="812267" />
	</node>
	<node id="-15149" lat="59.6477555592" lon="11.2033305521">
		<tag k="alt_name" v="Skabben" />
		<tag k="name" v="Solheim" />
		<tag k="place" v="farm" />
		<tag k="ssr:stedsnr" v="793994" />
	</node>
	<node id="-15148" lat="59.6407555538" lon="11.231030555">
		<tag k="name" v="Myrer" />
		<tag k="place" v="farm" />
		<tag k="ssr:stedsnr" v="793981" />
	</node>
	<node id="-15147" lat="59.6384861139" lon="11.2343055516">
		<tag k="fixme" v="consider place=hamlet" />
		<tag k="name" v="Tosebygda" />
		<tag k="place" v="village" />
		<tag k="ssr:stedsnr" v="793978" />
	</node>
	<node id="-15146" lat="59.6085777793" lon="11.4174361103">
		<tag k="name" v="Fiskerud" />
		<tag k="place" v="farm" />
		<tag k="ssr:stedsnr" v="793920" />
	</node>
	<node id="-15145" lat="59.6078325289" lon="11.37087779">
		<tag k="alt_name" v="Strengen nordre;Strengen lille" />
		<tag k="name" v="Nordre Strengen" />
		<tag k="place" v="farm" />
		<tag k="ssr:stedsnr" v="793916" />
	</node>
	<node id="-15144" lat="59.7590166628" lon="11.2575999997">
		<tag k="alt_name" v="Sæter, nordre;Seter nordre" />
		<tag k="name" v="Nordre Seter" />
		<tag k="place" v="farm" />
		<tag k="ssr:stedsnr" v="793894" />
	</node>
	<node id="-15143" lat="59.6773694466" lon="11.266288893">
		<tag k="name" v="Håkås" />
		<tag k="place" v="farm" />
		<tag k="ssr:stedsnr" v="793821" />
	</node>
	<node id="-15142" lat="59.6586805595" lon="11.4396500031">
		<tag k="name" v="Ravneberget" />
		<tag k="place" v="farm" />
		<tag k="ssr:stedsnr" v="793799" />
	</node>
	<node id="-15141" lat="59.6571583296" lon="11.4555361161">
		<tag k="name" v="Tyrihjellen" />
		<tag k="place" v="farm" />
		<tag k="ssr:stedsnr" v="793797" />
	</node>
	<node id="-15140" lat="59.653766663" lon="11.4281416736">
		<tag k="name" v="Grimsrud" />
		<tag k="place" v="farm" />
		<tag k="ssr:stedsnr" v="793783" />
	</node>
	<node id="-15137" lat="59.6408972247" lon="11.3159083343">
		<tag k="alt_name" v="Sjønhaug" />
		<tag k="name" v="Skjønhaug" />
		<tag k="place" v="village" />
		<tag k="ssr:stedsnr" v="792973" />
	</node>
	<node id="-15136" lat="59.6260738392" lon="11.3182255532">
		<tag k="fixme" v="consider place=hamlet" />
		<tag k="name" v="Tveiten" />
		<tag k="place" v="farm" />
		<tag k="ssr:stedsnr" v="792952" />
	</node>
	<node id="-15134" lat="59.6231805514" lon="11.2715916622">
		<tag k="alt_name" v="Bjerkerud" />
		<tag k="name" v="Bjørkerud" />
		<tag k="place" v="farm" />
		<tag k="ssr:stedsnr" v="792925" />
	</node>
	<node id="-15132" lat="59.6887916644" lon="11.2929666696">
		<tag k="name" v="Olberg" />
		<tag k="place" v="farm" />
		<tag k="ssr:stedsnr" v="792795" />
	</node>
	<node id="-15131" lat="59.6626919328" lon="11.3398775416">
		<tag k="fixme" v="consider place=hamlet" />
		<tag k="name" v="Brattås" />
		<tag k="place" v="farm" />
		<tag k="ssr:stedsnr" v="792753" />
	</node>
	<node id="-15130" lat="59.590778328" lon="11.3436551358">
		<tag k="alt_name" v="Skrikerud, s" />
		<tag k="name" v="Søndre Skrikerud" />
		<tag k="place" v="farm" />
		<tag k="ssr:stedsnr" v="792566" />
	</node>
	<node id="-15127" lat="59.645863886" lon="11.458027777">
		<tag k="name" v="Bingslia" />
		<tag k="place" v="isolated_dwelling" />
		<tag k="ssr:stedsnr" v="764840" />
	</node>
	<node id="-15121" lat="59.669683329" lon="11.4196194502">
		<tag k="name" v="Romerike" />
		<tag k="place" v="farm" />
		<tag k="ssr:stedsnr" v="752911" />
	</node>
	<node id="-15119" lat="59.5823888854" lon="11.3286055495">
		<tag k="name" v="Geiterudåsen" />
		<tag k="place" v="farm" />
		<tag k="ssr:stedsnr" v="752886" />
	</node>
	<node id="-15113" lat="59.6688388868" lon="11.2522750044">
		<tag k="alt_name" v="Sand nedre" />
		<tag k="name" v="Nedre Sand" />
		<tag k="place" v="farm" />
		<tag k="ssr:stedsnr" v="752703" />
	</node>
	<node id="-15111" lat="59.7348666638" lon="11.2578166739">
		<tag k="name" v="Sand" />
		<tag k="place" v="locality" />
		<tag k="ssr:stedsnr" v="752612" />
	</node>
	<node id="-15109" lat="59.7162666675" lon="11.2607249931">
		<tag k="name" v="Gapestad" />
		<tag k="place" v="farm" />
		<tag k="ssr:stedsnr" v="752601" />
	</node>
	<node id="-15108" lat="59.7033666694" lon="11.2650277851">
		<tag k="name" v="Evenby" />
		<tag k="place" v="farm" />
		<tag k="ssr:stedsnr" v="752595" />
	</node>
	<node id="-15107" lat="59.7186083302" lon="11.2593527804">
		<tag k="name" v="Rognerud" />
		<tag k="place" v="locality" />
		<tag k="ssr:stedsnr" v="752591" />
	</node>
	<node id="-15105" lat="59.7040194436" lon="11.3190972217">
		<tag k="name" v="Huseby" />
		<tag k="place" v="locality" />
		<tag k="ssr:stedsnr" v="752570" />
	</node>
	<node id="-15104" lat="59.7155833371" lon="11.330638896">
		<tag k="name" v="Måstad" />
		<tag k="place" v="farm" />
		<tag k="ssr:stedsnr" v="752564" />
	</node>
	<node id="-15103" lat="59.7081166683" lon="11.3292833386">
		<tag k="name" v="Måstad" />
		<tag k="place" v="farm" />
		<tag k="ssr:stedsnr" v="752560" />
	</node>
	<node id="-15102" lat="59.6867222252" lon="11.297927772">
		<tag k="name" v="Halterud" />
		<tag k="place" v="farm" />
		<tag k="ssr:stedsnr" v="752546" />
	</node>
	<node id="-15098" lat="59.6597916659" lon="11.3152250073">
		<tag k="name" v="Lybekk" />
		<tag k="place" v="farm" />
		<tag k="ssr:stedsnr" v="752502" />
	</node>
	<node id="-15096" lat="59.6902694449" lon="11.3199583266">
		<tag k="name" v="Ringstad" />
		<tag k="place" v="farm" />
		<tag k="ssr:stedsnr" v="752470" />
	</node>
	<node id="-15095" lat="59.6764833376" lon="11.2926277756">
		<tag k="alt_name" v="Gimsingrud nordre" />
		<tag k="name" v="Nordre Gimsingrud" />
		<tag k="place" v="farm" />
		<tag k="ssr:stedsnr" v="752459" />
	</node>
	<node id="-15093" lat="59.6803000033" lon="11.3172972233">
		<tag k="name" v="Rovabråten" />
		<tag k="place" v="farm" />
		<tag k="ssr:stedsnr" v="752431" />
	</node>
	<node id="-15090" lat="59.6589694418" lon="11.2687972151">
		<tag k="name" v="Tangen" />
		<tag k="place" v="farm" />
		<tag k="ssr:stedsnr" v="751704" />
	</node>
	<node id="-15089" lat="59.7508111152" lon="11.2634472181">
		<tag k="name" v="Fjøs" />
		<tag k="place" v="farm" />
		<tag k="ssr:stedsnr" v="733904" />
	</node>
	<node id="-15088" lat="59.7572311317" lon="11.2576204652">
		<tag k="alt_name" v="Sæter, s;Seter søndre" />
		<tag k="name" v="Søndre Seter" />
		<tag k="place" v="farm" />
		<tag k="ssr:stedsnr" v="733880" />
	</node>
	<node id="-15087" lat="59.6385083367" lon="11.3664499951">
		<tag k="name" v="Rødholen" />
		<tag k="place" v="farm" />
		<tag k="ssr:stedsnr" v="732973" />
	</node>
	<node id="-15086" lat="59.6068997752" lon="11.3927463358">
		<tag k="fixme" v="consider place=hamlet" />
		<tag k="name" v="Auten" />
		<tag k="place" v="farm" />
		<tag k="ssr:stedsnr" v="732908" />
	</node>
	<node id="-15085" lat="59.6049967475" lon="11.3720981992">
		<tag k="alt_name" v="Strengen lille mellem;Strengen m;Strengen mellom" />
		<tag k="name" v="Mellom-Strengen" />
		<tag k="place" v="farm" />
		<tag k="ssr:stedsnr" v="732897" />
	</node>
	<node id="-15084" lat="59.7117750011" lon="11.297402776">
		<tag k="name" v="Venta" />
		<tag k="place" v="farm" />
		<tag k="ssr:stedsnr" v="732848" />
	</node>
	<node id="-15082" lat="59.6721388894" lon="11.3780555521">
		<tag k="fixme" v="consider place=hamlet" />
		<tag k="name" v="Årstad" />
		<tag k="place" v="farm" />
		<tag k="ssr:stedsnr" v="732784" />
	</node>
	<node id="-15081" lat="59.6673000029" lon="11.4594750082">
		<tag k="alt_name" v="Kråkevika" />
		<tag k="name" v="Krakevika" />
		<tag k="place" v="farm" />
		<tag k="ssr:stedsnr" v="732782" />
	</node>
	<node id="-15080" lat="59.6762500025" lon="11.3161250017">
		<tag k="name" v="Løvestad" />
		<tag k="place" v="farm" />
		<tag k="ssr:stedsnr" v="732781" />
	</node>
	<node id="-15079" lat="59.6706805564" lon="11.3657500051">
		<tag k="name" v="Rud" />
		<tag k="place" v="farm" />
		<tag k="ssr:stedsnr" v="732780" />
	</node>
	<node id="-15078" lat="59.6603194419" lon="11.3273472243">
		<tag k="name" v="Solberg" />
		<tag k="place" v="farm" />
		<tag k="ssr:stedsnr" v="732773" />
	</node>
	<node id="-15077" lat="59.6640333314" lon="11.2748166685">
		<tag k="alt_name" v="Torkilsrud" />
		<tag k="name" v="Torkildsrud" />
		<tag k="place" v="farm" />
		<tag k="ssr:stedsnr" v="732766" />
	</node>
	<node id="-15076" lat="59.6561277741" lon="11.2991333253">
		<tag k="name" v="Enger" />
		<tag k="place" v="farm" />
		<tag k="ssr:stedsnr" v="732758" />
	</node>
	<node id="-15073" lat="59.5857083318" lon="11.2908861135">
		<tag k="name" v="Henningsmoen" />
		<tag k="place" v="farm" />
		<tag k="ssr:stedsnr" v="732036" />
	</node>
	<node id="-15070" lat="59.6222888854" lon="11.3704166686">
		<tag k="alt_name" v="Haugen nedre" />
		<tag k="name" v="Nedre Haugen" />
		<tag k="place" v="farm" />
		<tag k="ssr:stedsnr" v="691984" />
	</node>
	<node id="-15069" lat="59.6298194452" lon="11.3280583397">
		<tag k="name" v="Skarpsno" />
		<tag k="place" v="isolated_dwelling" />
		<tag k="ssr:stedsnr" v="691974" />
	</node>
	<node id="-15068" lat="59.6251805562" lon="11.3222916665">
		<tag k="alt_name" v="Tveiten østre" />
		<tag k="name" v="Østre Tveiten" />
		<tag k="place" v="farm" />
		<tag k="ssr:stedsnr" v="691964" />
	</node>
	<node id="-15067" lat="59.6215666636" lon="11.3310527726">
		<tag k="alt_name" v="Langsrud nordre" />
		<tag k="name" v="Nordre Langsrud" />
		<tag k="place" v="farm" />
		<tag k="ssr:stedsnr" v="691963" />
	</node>
	<node id="-15066" lat="59.6196166709" lon="11.3329722195">
		<tag k="alt_name" v="Langsrud søndre" />
		<tag k="name" v="Søndre Langsrud" />
		<tag k="place" v="farm" />
		<tag k="ssr:stedsnr" v="691962" />
	</node>
	<node id="-15062" lat="59.6722861127" lon="11.4163444499">
		<tag k="name" v="Bergerud" />
		<tag k="place" v="farm" />
		<tag k="ssr:stedsnr" v="691895" />
	</node>
	<node id="-15061" lat="59.5845555531" lon="11.3951833323">
		<tag k="name" v="Åsengen" />
		<tag k="place" v="farm" />
		<tag k="ssr:stedsnr" v="691894" />
	</node>
	<node id="-15060" lat="59.5930833297" lon="11.3969416732">
		<tag k="name" v="Fosser" />
		<tag k="place" v="isolated_dwelling" />
		<tag k="ssr:stedsnr" v="691892" />
	</node>
	<node id="-15059" lat="59.6015722261" lon="11.3817361079">
		<tag k="alt_name" v="Holtet nordre eller Olafsrud" />
		<tag k="name" v="Olasrud" />
		<tag k="place" v="farm" />
		<tag k="ssr:stedsnr" v="691872" />
	</node>
	<node id="-15057" lat="59.6143388861" lon="11.3105694451">
		<tag k="name" v="Brattvet" />
		<tag k="place" v="farm" />
		<tag k="ssr:stedsnr" v="691868" />
	</node>
	<node id="-15056" lat="59.6110666685" lon="11.3334805637">
		<tag k="name" v="Sariberget" />
		<tag k="place" v="farm" />
		<tag k="ssr:stedsnr" v="691861" />
	</node>
	<node id="-15055" lat="59.6073027767" lon="11.312727775">
		<tag k="name" v="Steinbøl" />
		<tag k="place" v="farm" />
		<tag k="ssr:stedsnr" v="691854" />
	</node>
	<node id="-15054" lat="59.6038555534" lon="11.4185361106">
		<tag k="alt_name" v="Åmot store" />
		<tag k="name" v="Store Åmot" />
		<tag k="place" v="farm" />
		<tag k="ssr:stedsnr" v="691836" />
	</node>
	<node id="-15053" lat="59.6009194414" lon="11.4492694496">
		<tag k="alt_name" v="Vølen østre" />
		<tag k="name" v="Østre Vølen" />
		<tag k="place" v="farm" />
		<tag k="ssr:stedsnr" v="691832" />
	</node>
	<node id="-15052" lat="59.615808332" lon="11.4045527845">
		<tag k="name" v="Holen" />
		<tag k="place" v="isolated_dwelling" />
		<tag k="ssr:stedsnr" v="691823" />
	</node>
	<node id="-15048" lat="59.6359000044" lon="11.4073222206">
		<tag k="name" v="Skjæringsrud (Nedgården)" />
		<tag k="place" v="farm" />
		<tag k="ssr:stedsnr" v="691786" />
	</node>
	<node id="-15046" lat="59.7044472193" lon="11.2506666619">
		<tag k="name" v="Muggeby" />
		<tag k="place" v="farm" />
		<tag k="ssr:stedsnr" v="691699" />
	</node>
	<node id="-15045" lat="59.6469277763" lon="11.2606361191">
		<tag k="alt_name" v="Rud nedre" />
		<tag k="name" v="Nedre Rud" />
		<tag k="place" v="farm" />
		<tag k="ssr:stedsnr" v="691677" />
	</node>
	<node id="-15044" lat="59.7414194408" lon="11.2732972297">
		<tag k="name" v="Lund" />
		<tag k="place" v="farm" />
		<tag k="ssr:stedsnr" v="691660" />
	</node>
	<node id="-15043" lat="59.7204861115" lon="11.2866333331">
		<tag k="name" v="Pukerud" />
		<tag k="place" v="farm" />
		<tag k="ssr:stedsnr" v="691636" />
	</node>
	<node id="-15042" lat="59.7014750007" lon="11.2637638826">
		<tag k="name" v="Evenby" />
		<tag k="place" v="farm" />
		<tag k="ssr:stedsnr" v="691613" />
	</node>
	<node id="-15040" lat="59.7119805572" lon="11.2903250059">
		<tag k="name" v="Åsgård" />
		<tag k="place" v="farm" />
		<tag k="ssr:stedsnr" v="691541" />
	</node>
	<node id="-15039" lat="59.6621833315" lon="11.3409555579">
		<tag k="alt_name" v="Brattås østre" />
		<tag k="name" v="Østre Brattås" />
		<tag k="place" v="farm" />
		<tag k="ssr:stedsnr" v="691536" />
	</node>
	<node id="-15038" lat="59.6752416694" lon="11.3730916688">
		<tag k="alt_name" v="Årstad nordre" />
		<tag k="name" v="Nordre Årstad" />
		<tag k="place" v="farm" />
		<tag k="ssr:stedsnr" v="691525" />
	</node>
	<node id="-15037" lat="59.639341665" lon="11.2924166643">
		<tag k="alt_name" v="Bruer østre" />
		<tag k="name" v="Østre Bruer" />
		<tag k="place" v="farm" />
		<tag k="ssr:stedsnr" v="691514" />
	</node>
	<node id="-15034" lat="59.6809499999" lon="11.3409694481">
		<tag k="loc_name" v="Myrvollen" />
		<tag k="name" v="Myrvold" />
		<tag k="place" v="farm" />
		<tag k="ssr:stedsnr" v="691504" />
	</node>
	<node id="-15033" lat="59.6316444441" lon="11.2773638975">
		<tag k="name" v="Øgarden" />
		<tag k="place" v="locality" />
		<tag k="ssr:stedsnr" v="691286" />
	</node>
	<node id="-15032" lat="59.7588555583" lon="11.290094438">
		<tag k="name" v="Krokedal" />
		<tag k="place" v="farm" />
		<tag k="ssr:stedsnr" v="672899" />
	</node>
	<node id="-15031" lat="59.6306527745" lon="11.3631111111">
		<tag k="name" v="Grottenberg" />
		<tag k="place" v="farm" />
		<tag k="ssr:stedsnr" v="671955" />
	</node>
	<node id="-15028" lat="59.6127611155" lon="11.2782083248">
		<tag k="name" v="Skipsrud" />
		<tag k="place" v="farm" />
		<tag k="ssr:stedsnr" v="671919" />
	</node>
	<node id="-15026" lat="59.7096611105" lon="11.2743333314">
		<tag k="name" v="Væte" />
		<tag k="place" v="farm" />
		<tag k="ssr:stedsnr" v="671862" />
	</node>
	<node id="-15025" lat="59.6772916679" lon="11.3104055535">
		<tag k="name" v="Kavlen" />
		<tag k="place" v="farm" />
		<tag k="ssr:stedsnr" v="671806" />
	</node>
	<node id="-15024" lat="59.6814416659" lon="11.3645750078">
		<tag k="name" v="Dal" />
		<tag k="place" v="farm" />
		<tag k="ssr:stedsnr" v="671794" />
	</node>
	<node id="-15022" lat="59.6727833352" lon="11.3178916738">
		<tag k="name" v="Berger" />
		<tag k="place" v="farm" />
		<tag k="ssr:stedsnr" v="671776" />
	</node>
	<node id="-15020" lat="59.5822583337" lon="11.2852305567">
		<tag k="alt_name" v="Henningsmoen søndre" />
		<tag k="name" v="Henningsmoen" />
		<tag k="place" v="farm" />
		<tag k="ssr:stedsnr" v="671617" />
	</node>
	<node id="-15019" lat="59.5953333292" lon="11.3027416617">
		<tag k="alt_name" v="Jørentvet vestre" />
		<tag k="name" v="Vestre Jørentvet" />
		<tag k="place" v="farm" />
		<tag k="ssr:stedsnr" v="671595" />
	</node>
	<node id="-15018" lat="59.6375638849" lon="11.4855972268">
		<tag k="alt_name" v="Øgdern" />
		<tag k="name" v="Øgderen" />
		<tag k="place" v="farm" />
		<tag k="ssr:stedsnr" v="671306" />
	</node>
	<node id="-15017" lat="59.7242111073" lon="11.2583055605">
		<tag k="name" v="Bjørnstad" />
		<tag k="place" v="farm" />
		<tag k="ssr:stedsnr" v="671099" />
	</node>
	<node id="-15012" lat="59.7464694461" lon="11.2983999955">
		<tag k="name" v="Eriksbråten" />
		<tag k="place" v="farm" />
		<tag k="ssr:stedsnr" v="631658" />
	</node>
	<node id="-15005" lat="59.6225611081" lon="11.3701527689">
		<tag k="alt_name" v="Haugen øvre" />
		<tag k="name" v="Øvre Haugen" />
		<tag k="place" v="farm" />
		<tag k="ssr:stedsnr" v="630974" />
	</node>
	<node id="-15004" lat="59.6604694483" lon="11.4658277707">
		<tag k="name" v="Nordslora" />
		<tag k="place" v="neighbourhood" />
		<tag k="ssr:stedsnr" v="630914" />
	</node>
	<node id="-15002" lat="59.6647472258" lon="11.4111666717">
		<tag k="alt_name" v="Nordbråte søndre" />
		<tag k="name" v="Søndre Nordbråte" />
		<tag k="place" v="farm" />
		<tag k="ssr:stedsnr" v="630903" />
	</node>
	<node id="-15001" lat="59.6635861114" lon="11.4131416665">
		<tag k="name" v="Gunnersrud" />
		<tag k="place" v="isolated_dwelling" />
		<tag k="ssr:stedsnr" v="630900" />
	</node>
	<node id="-14996" lat="59.6008305568" lon="11.3306972192">
		<tag k="name" v="Haugbakk" />
		<tag k="place" v="locality" />
		<tag k="ssr:stedsnr" v="630827" />
	</node>
	<node id="-14995" lat="59.6090694433" lon="11.3300250024">
		<tag k="name" v="Nybråten" />
		<tag k="place" v="locality" />
		<tag k="ssr:stedsnr" v="630824" />
	</node>
	<node id="-14994" lat="59.6123101604" lon="11.2609844481">
		<tag k="alt_name" v="Eikeberg søndre" />
		<tag k="name" v="Søndre Eikeberg" />
		<tag k="place" v="farm" />
		<tag k="ssr:stedsnr" v="630821" />
	</node>
	<node id="-14993" lat="59.5963388932" lon="11.4343333356">
		<tag k="alt_name" v="Rudi søndre" />
		<tag k="name" v="Søndre Rudi" />
		<tag k="place" v="farm" />
		<tag k="ssr:stedsnr" v="630805" />
	</node>
	<node id="-14992" lat="59.5999527778" lon="11.4283916698">
		<tag k="alt_name" v="Rudi nordre" />
		<tag k="name" v="Nordre Rudi" />
		<tag k="place" v="farm" />
		<tag k="ssr:stedsnr" v="630796" />
	</node>
	<node id="-14988" lat="59.6344416657" lon="11.4089027691">
		<tag k="alt_name" v="Skjæringsrud øvre" />
		<tag k="name" v="Øvre Skjæringsrud" />
		<tag k="place" v="farm" />
		<tag k="ssr:stedsnr" v="630758" />
	</node>
	<node id="-14987" lat="59.6384916692" lon="11.2223666663">
		<tag k="name" v="Haslum" />
		<tag k="place" v="farm" />
		<tag k="ssr:stedsnr" v="630674" />
	</node>
	<node id="-14986" lat="59.6802583348" lon="11.2796194472">
		<tag k="alt_name" v="Utveien nordre" />
		<tag k="name" v="Nordre Utveien" />
		<tag k="place" v="farm" />
		<tag k="ssr:stedsnr" v="630660" />
	</node>
	<node id="-14985" lat="59.6437555537" lon="11.27885833">
		<tag k="name" v="Fløtta" />
		<tag k="place" v="farm" />
		<tag k="ssr:stedsnr" v="630634" />
	</node>
	<node id="-14983" lat="59.6563722196" lon="11.2594611184">
		<tag k="name" v="Tangeberga" />
		<tag k="place" v="isolated_dwelling" />
		<tag k="ssr:stedsnr" v="630619" />
	</node>
	<node id="-14982" lat="59.7335722214" lon="11.2756833317">
		<tag k="name" v="Kopperud" />
		<tag k="place" v="farm" />
		<tag k="ssr:stedsnr" v="630613" />
	</node>
	<node id="-14981" lat="59.7416944435" lon="11.2837638827">
		<tag k="name" v="Berget" />
		<tag k="place" v="farm" />
		<tag k="ssr:stedsnr" v="630608" />
	</node>
	<node id="-14979" lat="59.7099805571" lon="11.2695472167">
		<tag k="name" v="Væte" />
		<tag k="place" v="farm" />
		<tag k="ssr:stedsnr" v="630578" />
	</node>
	<node id="-14977" lat="59.6968472185" lon="11.2528055485">
		<tag k="alt_name" v="Båstad nordre" />
		<tag k="name" v="Nordre Båstad" />
		<tag k="place" v="farm" />
		<tag k="ssr:stedsnr" v="630558" />
	</node>
	<node id="-14976" lat="59.723355557" lon="11.2679638931">
		<tag k="name" v="Brøsholen" />
		<tag k="place" v="farm" />
		<tag k="ssr:stedsnr" v="630549" />
	</node>
	<node id="-14974" lat="59.6720833379" lon="11.3754249923">
		<tag k="alt_name" v="Årstad vestre" />
		<tag k="name" v="Vestre Årstad" />
		<tag k="place" v="farm" />
		<tag k="ssr:stedsnr" v="630486" />
	</node>
	<node id="-14972" lat="59.6670833322" lon="11.301680548">
		<tag k="name" v="Jørnerud" />
		<tag k="place" v="farm" />
		<tag k="ssr:stedsnr" v="630452" />
	</node>
	<node id="-14971" lat="59.6680694485" lon="11.2940416606">
		<tag k="alt_name" v="Krokstad søndre" />
		<tag k="name" v="Søndre Krokstad" />
		<tag k="place" v="farm" />
		<tag k="ssr:stedsnr" v="630449" />
	</node>
	<node id="-14969" lat="59.6291111143" lon="11.2430666731">
		<tag k="name" v="Hauerlykkja" />
		<tag k="place" v="isolated_dwelling" />
		<tag k="ssr:stedsnr" v="630266" />
	</node>
	<node id="-14968" lat="59.6343027762" lon="11.230480547">
		<tag k="name" v="Heiestad" />
		<tag k="place" v="farm" />
		<tag k="ssr:stedsnr" v="630259" />
	</node>
	<node id="-14964" lat="59.6449249966" lon="11.3910361064">
		<tag k="name" v="Vassvik" />
		<tag k="place" v="farm" />
		<tag k="ssr:stedsnr" v="611993" />
	</node>
	<node id="-14962" lat="59.6382055602" lon="11.2980833258">
		<tag k="alt_name" v="Vestreng" />
		<tag k="name" v="Vestereng" />
		<tag k="place" v="farm" />
		<tag k="ssr:stedsnr" v="610973" />
	</node>
	<node id="-14960" lat="59.6196583347" lon="11.3501027798">
		<tag k="name" v="Midtås" />
		<tag k="place" v="farm" />
		<tag k="ssr:stedsnr" v="610949" />
	</node>
	<node id="-14959" lat="59.6152416672" lon="11.4090527863">
		<tag k="alt_name" v="Hamnås" />
		<tag k="fixme" v="consider place=suburb, village or hamlet" />
		<tag k="name" v="Havnås" />
		<tag k="old_name" v="Havnaas" />
		<tag k="place" v="quarter" />
		<tag k="ssr:stedsnr" v="610946" />
	</node>
	<node id="-14958" lat="59.607958331" lon="11.2852750031">
		<tag k="name" v="Oppdal" />
		<tag k="place" v="farm" />
		<tag k="ssr:stedsnr" v="610941" />
	</node>
	<node id="-14957" lat="59.6085611099" lon="11.3066944512">
		<tag k="alt_name" v="Risertangen" />
		<tag k="name" v="Tangen" />
		<tag k="place" v="farm" />
		<tag k="ssr:stedsnr" v="610940" />
	</node>
	<node id="-14956" lat="59.7207027818" lon="11.3426749917">
		<tag k="name" v="Askedalen" />
		<tag k="place" v="farm" />
		<tag k="ssr:stedsnr" v="610894" />
	</node>
	<node id="-14954" lat="59.712055559" lon="11.3175861136">
		<tag k="name" v="Røbringen" />
		<tag k="place" v="farm" />
		<tag k="ssr:stedsnr" v="610880" />
	</node>
	<node id="-14953" lat="59.7103499969" lon="11.3176638842">
		<tag k="name" v="Søpler" />
		<tag k="place" v="farm" />
		<tag k="ssr:stedsnr" v="610879" />
	</node>
	<node id="-14952" lat="59.6961583361" lon="11.3158638878">
		<tag k="name" v="Melleby" />
		<tag k="place" v="farm" />
		<tag k="ssr:stedsnr" v="610856" />
	</node>
	<node id="-14950" lat="59.6835805546" lon="11.2508444507">
		<tag k="name" v="Agnes" />
		<tag k="place" v="farm" />
		<tag k="ssr:stedsnr" v="610841" />
	</node>
	<node id="-14949" lat="59.6825694446" lon="11.3019916667">
		<tag k="name" v="Eikås" />
		<tag k="place" v="farm" />
		<tag k="ssr:stedsnr" v="610816" />
	</node>
	<node id="-14948" lat="59.668602779" lon="11.2526999979">
		<tag k="name" v="Sand" />
		<tag k="place" v="farm" />
		<tag k="ssr:stedsnr" v="610812" />
	</node>
	<node id="-14947" lat="59.660099997" lon="11.4170777817">
		<tag k="alt_name" v="Heer nordre" />
		<tag k="name" v="Heer" />
		<tag k="place" v="farm" />
		<tag k="ssr:stedsnr" v="610788" />
	</node>
	<node id="-14946" lat="59.6585083374" lon="11.3699555569">
		<tag k="alt_name" v="Hærset" />
		<tag k="name" v="Hærseter" />
		<tag k="place" v="farm" />
		<tag k="ssr:stedsnr" v="610783" />
	</node>
	<node id="-14945" lat="59.6513500022" lon="11.3199444387">
		<tag k="name" v="Frøshov" />
		<tag k="place" v="farm" />
		<tag k="ssr:stedsnr" v="610773" />
	</node>
	<node id="-14944" lat="59.5803277792" lon="11.3188944483">
		<tag k="fixme" v="consider place=hamlet" />
		<tag k="name" v="Laslett" />
		<tag k="old_name" v="Laurslet;Laslet;Laugslet;Larslet" />
		<tag k="place" v="farm" />
		<tag k="ssr:stedsnr" v="610637" />
	</node>
	<node id="-14943" lat="59.6068027759" lon="11.4724166631">
		<tag k="alt_name" v="Setra nordre" />
		<tag k="name" v="Nordre Setra" />
		<tag k="place" v="farm" />
		<tag k="ssr:stedsnr" v="610506" />
	</node>
	<node id="-14942" lat="59.6362555576" lon="11.4920638897">
		<tag k="alt_name" v="Nes søndre;Nes" />
		<tag k="name" v="Søndre Nes" />
		<tag k="place" v="farm" />
		<tag k="ssr:stedsnr" v="610341" />
	</node>
	<node id="-14940" lat="59.7271777742" lon="11.2819694444">
		<tag k="name" v="Rud" />
		<tag k="place" v="farm" />
		<tag k="ssr:stedsnr" v="610121" />
	</node>
	<node id="-14939" lat="59.611572223" lon="11.2485611114">
		<tag k="alt_name" v="Skoger" />
		<tag k="name" v="Skogen" />
		<tag k="place" v="farm" />
		<tag k="ssr:stedsnr" v="601431" />
	</node>
	<node id="-14936" lat="59.7233222183" lon="11.321358338">
		<tag k="name" v="Jeriko" />
		<tag k="place" v="farm" />
		<tag k="ssr:stedsnr" v="570484" />
	</node>
	<node id="-14935" lat="59.6259027815" lon="11.3184416611">
		<tag k="alt_name" v="Tveiten vestre" />
		<tag k="name" v="Vestre Tveiten" />
		<tag k="place" v="farm" />
		<tag k="ssr:stedsnr" v="569972" />
	</node>
	<node id="-14934" lat="59.6349583365" lon="11.3652444472">
		<tag k="name" v="Nedre Skratalsrud" />
		<tag k="place" v="farm" />
		<tag k="ssr:stedsnr" v="569967" />
	</node>
	<node id="-14933" lat="59.6355472237" lon="11.3719194474">
		<tag k="name" v="Grønnbakk" />
		<tag k="place" v="locality" />
		<tag k="ssr:stedsnr" v="569964" />
	</node>
	<node id="-14931" lat="59.6209055516" lon="11.3048861062">
		<tag k="alt_name" v="Høntorp lille" />
		<tag k="name" v="Lille Høntorp" />
		<tag k="place" v="farm" />
		<tag k="ssr:stedsnr" v="569942" />
	</node>
	<node id="-14929" lat="59.6560361129" lon="11.3239472209">
		<tag k="name" v="Kolbjørnrud" />
		<tag k="place" v="farm" />
		<tag k="ssr:stedsnr" v="569925" />
	</node>
	<node id="-14928" lat="59.6548722189" lon="11.334819438">
		<tag k="name" v="Solum" />
		<tag k="place" v="farm" />
		<tag k="ssr:stedsnr" v="569922" />
	</node>
	<node id="-14927" lat="59.6555722185" lon="11.4239111062">
		<tag k="alt_name" v="Grimsrud nedre" />
		<tag k="name" v="Nedre Grimsrud" />
		<tag k="place" v="farm" />
		<tag k="ssr:stedsnr" v="569909" />
	</node>
	<node id="-14924" lat="59.6075138878" lon="11.3929361128">
		<tag k="alt_name" v="Auten øvre" />
		<tag k="name" v="Øvre Auten" />
		<tag k="place" v="farm" />
		<tag k="ssr:stedsnr" v="569864" />
	</node>
	<node id="-14923" lat="59.6098000026" lon="11.4365305496">
		<tag k="name" v="Fossby" />
		<tag k="place" v="farm" />
		<tag k="ssr:stedsnr" v="569847" />
	</node>
	<node id="-14920" lat="59.6048000005" lon="11.4086583327">
		<tag k="name" v="Tangen" />
		<tag k="place" v="farm" />
		<tag k="ssr:stedsnr" v="569830" />
	</node>
	<node id="-14919" lat="59.6224277817" lon="11.4246944519">
		<tag k="name" v="Bråten" />
		<tag k="place" v="farm" />
		<tag k="ssr:stedsnr" v="569813" />
	</node>
	<node id="-14917" lat="59.6400249976" lon="11.4498111104">
		<tag k="name" v="Enga" />
		<tag k="place" v="farm" />
		<tag k="ssr:stedsnr" v="569794" />
	</node>
	<node id="-14915" lat="59.6768666676" lon="11.2665250077">
		<tag k="alt_name" v="Håkås mellem" />
		<tag k="name" v="Mellom-Håkås" />
		<tag k="place" v="farm" />
		<tag k="ssr:stedsnr" v="569695" />
	</node>
	<node id="-14914" lat="59.6681833328" lon="11.28389166">
		<tag k="name" v="Skofsrud" />
		<tag k="place" v="farm" />
		<tag k="ssr:stedsnr" v="569692" />
	</node>
	<node id="-14912" lat="59.722402776" lon="11.2753166585">
		<tag k="name" v="Østreng" />
		<tag k="place" v="farm" />
		<tag k="ssr:stedsnr" v="569647" />
	</node>
	<node id="-14911" lat="59.7178694432" lon="11.2651722267">
		<tag k="name" v="Rognerud" />
		<tag k="place" v="isolated_dwelling" />
		<tag k="ssr:stedsnr" v="569645" />
	</node>
	<node id="-14910" lat="59.7102277795" lon="11.2743999938">
		<tag k="name" v="Vætelund" />
		<tag k="place" v="farm" />
		<tag k="ssr:stedsnr" v="569641" />
	</node>
	<node id="-14909" lat="59.7095499978" lon="11.2792611021">
		<tag k="name" v="Væte" />
		<tag k="place" v="farm" />
		<tag k="ssr:stedsnr" v="569640" />
	</node>
	<node id="-14908" lat="59.7145611101" lon="11.2547277775">
		<tag k="name" v="Eikhaugen" />
		<tag k="place" v="isolated_dwelling" />
		<tag k="ssr:stedsnr" v="569632" />
	</node>
	<node id="-14907" lat="59.7507555544" lon="11.2637861194">
		<tag k="alt_name" v="Fjøs nordre" />
		<tag k="name" v="Nordre Fjøs" />
		<tag k="place" v="farm" />
		<tag k="ssr:stedsnr" v="569629" />
	</node>
	<node id="-14905" lat="59.7146638918" lon="11.3216833256">
		<tag k="name" v="Galteby" />
		<tag k="place" v="isolated_dwelling" />
		<tag k="ssr:stedsnr" v="569607" />
	</node>
	<node id="-14904" lat="59.6589972221" lon="11.3954666604">
		<tag k="name" v="Anonrud" />
		<tag k="place" v="locality" />
		<tag k="ssr:stedsnr" v="569540" />
	</node>
	<node id="-14902" lat="59.6513916651" lon="11.3198277763">
		<tag k="alt_name" v="Frøshov søndre" />
		<tag k="name" v="Søndre Frøshov" />
		<tag k="place" v="farm" />
		<tag k="ssr:stedsnr" v="569533" />
	</node>
	<node id="-14901" lat="59.6350861145" lon="11.2892527717">
		<tag k="alt_name" v="Bredegg østre" />
		<tag k="name" v="Østre Bredegg" />
		<tag k="place" v="farm" />
		<tag k="ssr:stedsnr" v="569291" />
	</node>
	<node id="-14900" lat="59.6329027786" lon="11.2679944514">
		<tag k="name" v="Haga" />
		<tag k="place" v="locality" />
		<tag k="ssr:stedsnr" v="569270" />
	</node>
	<node id="-14899" lat="59.6226444416" lon="11.2814527819">
		<tag k="alt_name" v="Øyestad nordre" />
		<tag k="name" v="Nordre Øyestad" />
		<tag k="place" v="farm" />
		<tag k="ssr:stedsnr" v="569266" />
	</node>
	<node id="-14897" lat="59.6418777818" lon="11.2931750001">
		<tag k="alt_name" v="Snelltorp" />
		<tag k="name" v="Sneltorp" />
		<tag k="old_name" v="Smelltorp" />
		<tag k="place" v="farm" />
		<tag k="ssr:stedsnr" v="550987" />
	</node>
	<node id="-14896" lat="59.6414666675" lon="11.3781916592">
		<tag k="alt_name" v="Mansås søndre" />
		<tag k="name" v="Søndre Mansås" />
		<tag k="place" v="farm" />
		<tag k="ssr:stedsnr" v="550986" />
	</node>
	<node id="-14895" lat="59.6431972224" lon="11.4387027692">
		<tag k="alt_name" v="Bingen;Bingen vestre" />
		<tag k="name" v="Vestre Bingen" />
		<tag k="place" v="farm" />
		<tag k="ssr:stedsnr" v="550984" />
	</node>
	<node id="-14894" lat="59.6218611089" lon="11.3699944522">
		<tag k="name" v="Haugen" />
		<tag k="place" v="farm" />
		<tag k="ssr:stedsnr" v="550943" />
	</node>
	<node id="-14893" lat="59.6085805575" lon="11.319849999">
		<tag k="alt_name" v="Mansrud" />
		<tag k="name" v="Mannsrud" />
		<tag k="place" v="farm" />
		<tag k="ssr:stedsnr" v="550907" />
	</node>
	<node id="-14891" lat="59.7145500044" lon="11.2688916706">
		<tag k="name" v="Ovrum" />
		<tag k="place" v="farm" />
		<tag k="ssr:stedsnr" v="550870" />
	</node>
	<node id="-14890" lat="59.6910972239" lon="11.2580666615">
		<tag k="alt_name" v="Østby" />
		<tag k="name" v="Øresby" />
		<tag k="place" v="farm" />
		<tag k="ssr:stedsnr" v="550811" />
	</node>
	<node id="-14889" lat="59.6664944458" lon="11.290413882">
		<tag k="name" v="Gutu" />
		<tag k="place" v="farm" />
		<tag k="ssr:stedsnr" v="550766" />
	</node>
	<node id="-14888" lat="59.6540055554" lon="11.3568361151">
		<tag k="fixme" v="consider place=hamlet" />
		<tag k="name" v="Finsrud" />
		<tag k="place" v="farm" />
		<tag k="ssr:stedsnr" v="550753" />
	</node>
	<node id="-14887" lat="59.6592499958" lon="11.2942333341">
		<tag k="name" v="Nygård" />
		<tag k="place" v="farm" />
		<tag k="ssr:stedsnr" v="550750" />
	</node>
	<node id="-14886" lat="59.6547999963" lon="11.2919777736">
		<tag k="name" v="Søtland" />
		<tag k="place" v="farm" />
		<tag k="ssr:stedsnr" v="550749" />
	</node>
	<node id="-14885" lat="59.7395833303" lon="11.2933861112">
		<tag k="name" v="Komnes" />
		<tag k="place" v="farm" />
		<tag k="ssr:stedsnr" v="550136" />
	</node>
	<node id="-14884" lat="59.7338555599" lon="11.2777444506">
		<tag k="name" v="Kopperud" />
		<tag k="place" v="farm" />
		<tag k="ssr:stedsnr" v="550116" />
	</node>
	<node id="-14883" lat="59.7292237334" lon="11.3404876171">
		<tag k="alt_name" v="Bjerke nordre" />
		<tag k="fixme" v="multiple name tags, choose one and add the other to alt_name" />
		<tag k="name" v="Sammerud;Nordre Bjerke" />
		<tag k="place" v="farm" />
		<tag k="ssr:stedsnr" v="550103" />
	</node>
	<node id="-14882" lat="59.6358166659" lon="11.3644000054">
		<tag k="alt_name" v="Øvre Skratalsrud" />
		<tag k="name" v="Skratalrud" />
		<tag k="place" v="farm" />
		<tag k="ssr:stedsnr" v="549970" />
	</node>
	<node id="-14881" lat="59.6272694474" lon="11.2416999951">
		<tag k="name" v="Moen" />
		<tag k="place" v="farm" />
		<tag k="ssr:stedsnr" v="549954" />
	</node>
	<node id="-14880" lat="59.702199998" lon="11.2590250086">
		<tag k="name" v="Evenrud" />
		<tag k="place" v="farm" />
		<tag k="ssr:stedsnr" v="549818" />
	</node>
	<node id="-14879" lat="59.6528916666" lon="11.460352783">
		<tag k="name" v="Nyenga" />
		<tag k="place" v="isolated_dwelling" />
		<tag k="ssr:stedsnr" v="522797" />
	</node>
	<node id="-14876" lat="59.6063444451" lon="11.3058027717">
		<tag k="name" v="Høgås" />
		<tag k="place" v="farm" />
		<tag k="ssr:stedsnr" v="509998" />
	</node>
	<node id="-14874" lat="59.618666667" lon="11.3610666639">
		<tag k="name" v="Hagasletta" />
		<tag k="place" v="farm" />
		<tag k="ssr:stedsnr" v="509968" />
	</node>
	<node id="-14873" lat="59.6306749999" lon="11.3224583281">
		<tag k="name" v="Kjellås" />
		<tag k="place" v="isolated_dwelling" />
		<tag k="ssr:stedsnr" v="509959" />
	</node>
	<node id="-14868" lat="59.5788166624" lon="11.2906527773">
		<tag k="alt_name" v="Franserud mellom" />
		<tag k="name" v="Mellom-Franserud" />
		<tag k="place" v="isolated_dwelling" />
		<tag k="ssr:stedsnr" v="509878" />
	</node>
	<node id="-14867" lat="59.6054777778" lon="11.3655277796">
		<tag k="name" v="Tretterud" />
		<tag k="place" v="farm" />
		<tag k="ssr:stedsnr" v="509849" />
	</node>
	<node id="-14866" lat="59.6078083374" lon="11.3668444434">
		<tag k="name" v="Jorudenga" />
		<tag k="place" v="isolated_dwelling" />
		<tag k="ssr:stedsnr" v="509848" />
	</node>
	<node id="-14864" lat="59.6144916647" lon="11.4131833408">
		<tag k="alt_name" v="Havnås nedre" />
		<tag k="name" v="Nedre Havnås" />
		<tag k="place" v="farm" />
		<tag k="ssr:stedsnr" v="509819" />
	</node>
	<node id="-14863" lat="59.6342944467" lon="11.4960166748">
		<tag k="name" v="Nes" />
		<tag k="place" v="farm" />
		<tag k="ssr:stedsnr" v="509814" />
	</node>
	<node id="-14862" lat="59.601130558" lon="11.4514472311">
		<tag k="alt_name" v="Vølen nye" />
		<tag k="name" v="Nye Vølen" />
		<tag k="place" v="farm" />
		<tag k="ssr:stedsnr" v="509809" />
	</node>
	<node id="-14860" lat="59.6308527765" lon="11.4160083265">
		<tag k="name" v="Delingsrud" />
		<tag k="place" v="locality" />
		<tag k="ssr:stedsnr" v="509788" />
	</node>
	<node id="-14859" lat="59.6502944471" lon="11.4281083293">
		<tag k="name" v="Nordli" />
		<tag k="place" v="farm" />
		<tag k="ssr:stedsnr" v="509769" />
	</node>
	<node id="-14855" lat="59.7083499962" lon="11.2728500079">
		<tag k="name" v="Skjennum" />
		<tag k="place" v="farm" />
		<tag k="ssr:stedsnr" v="509594" />
	</node>
	<node id="-14851" lat="59.6658666676" lon="11.3584555594">
		<tag k="name" v="Dammen" />
		<tag k="place" v="farm" />
		<tag k="ssr:stedsnr" v="509496" />
	</node>
	<node id="-14849" lat="59.6398027819" lon="11.3082027801">
		<tag k="name" v="Åsgård" />
		<tag k="place" v="farm" />
		<tag k="ssr:stedsnr" v="509469" />
	</node>
	<node id="-14848" lat="59.6826888871" lon="11.3290277756">
		<tag k="name" v="Halangen" />
		<tag k="place" v="farm" />
		<tag k="ssr:stedsnr" v="509465" />
	</node>
	<node id="-14847" lat="59.6665472236" lon="11.2953583407">
		<tag k="name" v="Sammerud" />
		<tag k="place" v="farm" />
		<tag k="ssr:stedsnr" v="509446" />
	</node>
	<node id="-14846" lat="59.6120666627" lon="11.2563944397">
		<tag k="alt_name" v="Eikeberg vestre" />
		<tag k="fixme" v="multiple name tags, choose one and add the other to alt_name" />
		<tag k="name" v="Eikebergengen;Vestre Eikeberg" />
		<tag k="place" v="farm" />
		<tag k="ssr:stedsnr" v="509274" />
	</node>
	<node id="-14845" lat="59.6364944448" lon="11.2603055532">
		<tag k="name" v="Veiby" />
		<tag k="place" v="locality" />
		<tag k="ssr:stedsnr" v="509242" />
	</node>
	<node id="-14844" lat="59.6222638863" lon="11.281675">
		<tag k="alt_name" v="Øyestad søndre" />
		<tag k="name" v="Søndre Øyestad" />
		<tag k="place" v="farm" />
		<tag k="ssr:stedsnr" v="509236" />
	</node>
	<node id="-14840" lat="59.6521173076" lon="11.2698064682">
		<tag k="alt_name" v="Strønes nordre" />
		<tag k="fixme" v="consider place=hamlet" />
		<tag k="name" v="Nordre Strønes" />
		<tag k="place" v="farm" />
		<tag k="ssr:stedsnr" v="489998" />
	</node>
	<node id="-14839" lat="59.6434055585" lon="11.2885583331">
		<tag k="name" v="Haugbakk" />
		<tag k="place" v="farm" />
		<tag k="ssr:stedsnr" v="489995" />
	</node>
	<node id="-14838" lat="59.647480555" lon="11.2712861057">
		<tag k="alt_name" v="Strønes, søndre;Strønes søndre" />
		<tag k="fixme" v="consider place=hamlet" />
		<tag k="name" v="Søndre Strønes" />
		<tag k="place" v="farm" />
		<tag k="ssr:stedsnr" v="489994" />
	</node>
	<node id="-14837" lat="59.6409194445" lon="11.2420055582">
		<tag k="name" v="Østby" />
		<tag k="place" v="farm" />
		<tag k="ssr:stedsnr" v="489975" />
	</node>
	<node id="-14836" lat="59.6416500038" lon="11.2809138964">
		<tag k="name" v="Bakker" />
		<tag k="place" v="farm" />
		<tag k="ssr:stedsnr" v="489974" />
	</node>
	<node id="-14835" lat="59.6392027766" lon="11.3583166591">
		<tag k="alt_name" v="Kjekerud" />
		<tag k="name" v="Kjeikerud" />
		<tag k="place" v="farm" />
		<tag k="ssr:stedsnr" v="489971" />
	</node>
	<node id="-14834" lat="59.6276694448" lon="11.2325194397">
		<tag k="name" v="Rullestad" />
		<tag k="place" v="farm" />
		<tag k="ssr:stedsnr" v="489956" />
	</node>
	<node id="-14833" lat="59.6200027748" lon="11.3838916667">
		<tag k="alt_name" v="Langset, nordre;Langseter nordre;Nordre Langseter" />
		<tag k="fixme" v="consider place=hamlet" />
		<tag k="name" v="Nordre Langset" />
		<tag k="place" v="farm" />
		<tag k="ssr:stedsnr" v="489928" />
	</node>
	<node id="-14830" lat="59.5960111082" lon="11.3744249934">
		<tag k="alt_name" v="Nygård søndre" />
		<tag k="name" v="Søndre Nygård" />
		<tag k="place" v="farm" />
		<tag k="ssr:stedsnr" v="489881" />
	</node>
	<node id="-14829" lat="59.59768333" lon="11.332033327">
		<tag k="name" v="Ruken" />
		<tag k="place" v="farm" />
		<tag k="ssr:stedsnr" v="489878" />
	</node>
	<node id="-14828" lat="59.6930277804" lon="11.3172305512">
		<tag k="name" v="Ringstad" />
		<tag k="place" v="farm" />
		<tag k="ssr:stedsnr" v="489831" />
	</node>
	<node id="-14827" lat="59.6725555587" lon="11.3027999921">
		<tag k="name" v="Tårånrud" />
		<tag k="place" v="farm" />
		<tag k="ssr:stedsnr" v="489817" />
	</node>
	<node id="-14826" lat="59.6717611079" lon="11.2819833332">
		<tag k="name" v="Raknerud" />
		<tag k="place" v="farm" />
		<tag k="ssr:stedsnr" v="489818" />
	</node>
	<node id="-14825" lat="59.6764361149" lon="11.3981305596">
		<tag k="alt_name" v="Aslerud" />
		<tag k="name" v="Haslerud" />
		<tag k="place" v="farm" />
		<tag k="ssr:stedsnr" v="489807" />
	</node>
	<node id="-14824" lat="59.6861111079" lon="11.2745027712">
		<tag k="name" v="Nattrud" />
		<tag k="place" v="farm" />
		<tag k="ssr:stedsnr" v="489802" />
	</node>
	<node id="-14822" lat="59.6708222233" lon="11.3184472213">
		<tag k="alt_name" v="Hov, nordre;Hov nordre" />
		<tag k="name" v="Nordre Hov" />
		<tag k="place" v="farm" />
		<tag k="ssr:stedsnr" v="489785" />
	</node>
	<node id="-14821" lat="59.6605910935" lon="11.3069378868">
		<tag k="name" v="Løken" />
		<tag k="place" v="hamlet" />
		<tag k="ssr:stedsnr" v="489774" />
	</node>
	<node id="-14820" lat="59.6530250009" lon="11.2323416595">
		<tag k="name" v="Sammerud" />
		<tag k="place" v="farm" />
		<tag k="ssr:stedsnr" v="489765" />
	</node>
	<node id="-14817" lat="59.7316500006" lon="11.3389055528">
		<tag k="alt_name" v="Stiklen" />
		<tag k="name" v="Stikla" />
		<tag k="place" v="farm" />
		<tag k="ssr:stedsnr" v="489134" />
	</node>
	<node id="-14814" lat="59.6164892354" lon="11.295081229">
		<tag k="alt_name" v="Sukken" />
		<tag k="fixme" v="consider place=hamlet" />
		<tag k="name" v="Sukka" />
		<tag k="place" v="farm" />
		<tag k="ssr:stedsnr" v="449975" />
	</node>
	<node id="-14812" lat="59.6157333324" lon="11.2975277721">
		<tag k="alt_name" v="Sukken østre" />
		<tag k="name" v="Østre Sukken" />
		<tag k="place" v="farm" />
		<tag k="ssr:stedsnr" v="449938" />
	</node>
	<node id="-14811" lat="59.6174083295" lon="11.3075527807">
		<tag k="name" v="Grammeltvet" />
		<tag k="place" v="farm" />
		<tag k="ssr:stedsnr" v="449935" />
	</node>
	<node id="-14810" lat="59.6298555525" lon="11.2985277707">
		<tag k="name" v="Stønnum" />
		<tag k="place" v="locality" />
		<tag k="ssr:stedsnr" v="449920" />
	</node>
	<node id="-14806" lat="59.5777055564" lon="11.2915861105">
		<tag k="alt_name" v="Franserud søndre" />
		<tag k="name" v="Søndre Franserud" />
		<tag k="place" v="isolated_dwelling" />
		<tag k="ssr:stedsnr" v="449869" />
	</node>
	<node id="-14803" lat="59.6453249991" lon="11.2393749917">
		<tag k="name" v="Bråtå" />
		<tag k="place" v="farm" />
		<tag k="ssr:stedsnr" v="449686" />
	</node>
	<node id="-14802" lat="59.7355888869" lon="11.2675472247">
		<tag k="name" v="Saksegård" />
		<tag k="place" v="farm" />
		<tag k="ssr:stedsnr" v="449653" />
	</node>
	<node id="-14801" lat="59.72870278" lon="11.2798361107">
		<tag k="name" v="Rud" />
		<tag k="place" v="farm" />
		<tag k="ssr:stedsnr" v="449627" />
	</node>
	<node id="-14800" lat="59.7303888846" lon="11.2866027687">
		<tag k="name" v="Tuen" />
		<tag k="place" v="farm" />
		<tag k="ssr:stedsnr" v="449625" />
	</node>
	<node id="-14796" lat="59.7243277785" lon="11.3264611175">
		<tag k="name" v="Trandum" />
		<tag k="place" v="farm" />
		<tag k="ssr:stedsnr" v="449526" />
	</node>
	<node id="-14795" lat="59.7208222199" lon="11.2887777771">
		<tag k="name" v="Pukerud" />
		<tag k="place" v="farm" />
		<tag k="ssr:stedsnr" v="449514" />
	</node>
	<node id="-14793" lat="59.652383337" lon="11.3201277842">
		<tag k="alt_name" v="Frøshov nordre" />
		<tag k="name" v="Nordre Frøshov" />
		<tag k="place" v="farm" />
		<tag k="ssr:stedsnr" v="449483" />
	</node>
	<node id="-14790" lat="59.623063891" lon="11.3088277827">
		<tag k="alt_name" v="Høntorp østre" />
		<tag k="name" v="Østre Høntorp" />
		<tag k="place" v="farm" />
		<tag k="ssr:stedsnr" v="449274" />
	</node>
	<node id="-14789" lat="59.6498277746" lon="11.2197444521">
		<tag k="alt_name" v="Grevegg nordre" />
		<tag k="name" v="Nordre Grevegg" />
		<tag k="place" v="farm" />
		<tag k="ssr:stedsnr" v="448749" />
	</node>
	<node id="-14787" lat="59.6788305549" lon="11.254188897">
		<tag k="name" v="Haugen" />
		<tag k="place" v="farm" />
		<tag k="ssr:stedsnr" v="448741" />
	</node>
	<node id="-14786" lat="59.6332638908" lon="11.2250194514">
		<tag k="name" v="Holtet" />
		<tag k="place" v="isolated_dwelling" />
		<tag k="ssr:stedsnr" v="448724" />
	</node>
	<node id="-14782" lat="59.7533694472" lon="11.2589444498">
		<tag k="alt_name" v="Ny-seter" />
		<tag k="name" v="Nysæter" />
		<tag k="place" v="farm" />
		<tag k="ssr:stedsnr" v="430912" />
	</node>
	<node id="-14781" lat="59.610324999" lon="11.4394555562">
		<tag k="name" v="Fossby" />
		<tag k="place" v="farm" />
		<tag k="ssr:stedsnr" v="429912" />
	</node>
	<node id="-14780" lat="59.6028388929" lon="11.2992888945">
		<tag k="alt_name" v="Gutu;Gutu østre" />
		<tag k="name" v="Østre Gutu" />
		<tag k="place" v="farm" />
		<tag k="ssr:stedsnr" v="429883" />
	</node>
	<node id="-14779" lat="59.6895555591" lon="11.2539277793">
		<tag k="name" v="Aslakby" />
		<tag k="place" v="farm" />
		<tag k="ssr:stedsnr" v="429822" />
	</node>
	<node id="-14778" lat="59.6808416679" lon="11.2794027815">
		<tag k="name" v="Utveien" />
		<tag k="place" v="farm" />
		<tag k="ssr:stedsnr" v="429807" />
	</node>
	<node id="-14777" lat="59.6822277756" lon="11.3197527819">
		<tag k="alt_name" v="Halangen" />
		<tag k="name" v="Hallangen" />
		<tag k="place" v="farm" />
		<tag k="ssr:stedsnr" v="429804" />
	</node>
	<node id="-14776" lat="59.6561833352" lon="11.2277583364">
		<tag k="name" v="Grevseng" />
		<tag k="place" v="isolated_dwelling" />
		<tag k="ssr:stedsnr" v="429747" />
	</node>
	<node id="-14775" lat="59.6535666629" lon="11.2204000068">
		<tag k="name" v="Åsrud" />
		<tag k="place" v="farm" />
		<tag k="ssr:stedsnr" v="429744" />
	</node>
	<node id="-14773" lat="59.7237805565" lon="11.3265805561">
		<tag k="name" v="Trandum" />
		<tag k="place" v="farm" />
		<tag k="ssr:stedsnr" v="429100" />
	</node>
	<node id="-14770" lat="59.7438638865" lon="11.2688138914">
		<tag k="name" v="Lund" />
		<tag k="place" v="farm" />
		<tag k="ssr:stedsnr" v="429059" />
	</node>
	<node id="-14769" lat="59.7079972206" lon="11.2726138905">
		<tag k="name" v="Skjennum" />
		<tag k="place" v="farm" />
		<tag k="ssr:stedsnr" v="428864" />
	</node>
	<node id="-14768" lat="59.7111000037" lon="11.3112611182">
		<tag k="name" v="Torp" />
		<tag k="place" v="farm" />
		<tag k="ssr:stedsnr" v="428862" />
	</node>
	<node id="-14765" lat="59.6977500037" lon="11.2571277817">
		<tag k="name" v="Skattalen" />
		<tag k="place" v="farm" />
		<tag k="ssr:stedsnr" v="428832" />
	</node>
	<node id="-14764" lat="59.7586583296" lon="11.2933444425">
		<tag k="name" v="Krokedal" />
		<tag k="place" v="farm" />
		<tag k="ssr:stedsnr" v="267626" />
	</node>
	<node id="-14761" lat="59.6198055528" lon="11.3264249921">
		<tag k="name" v="Garsrud" />
		<tag k="place" v="farm" />
		<tag k="ssr:stedsnr" v="266964" />
	</node>
	<node id="-14759" lat="59.6032416695" lon="11.4486749996">
		<tag k="name" v="Østby" />
		<tag k="place" v="farm" />
		<tag k="ssr:stedsnr" v="266854" />
	</node>
	<node id="-14757" lat="59.639608331" lon="11.4427555622">
		<tag k="name" v="Nygård" />
		<tag k="place" v="farm" />
		<tag k="ssr:stedsnr" v="266820" />
	</node>
	<node id="-14756" lat="59.6459055598" lon="11.4481111102">
		<tag k="alt_name" v="Bingen østre" />
		<tag k="name" v="Østre Bingen" />
		<tag k="place" v="farm" />
		<tag k="ssr:stedsnr" v="266815" />
	</node>
	<node id="-14755" lat="59.6707527824" lon="11.2548694368">
		<tag k="name" v="Engen" />
		<tag k="place" v="farm" />
		<tag k="ssr:stedsnr" v="266716" />
	</node>
	<node id="-14753" lat="59.6749611139" lon="11.2687055576">
		<tag k="alt_name" v="Håkås søndre" />
		<tag k="name" v="Søndre Håkås" />
		<tag k="old_name" v="Håkas" />
		<tag k="place" v="farm" />
		<tag k="ssr:stedsnr" v="266696" />
	</node>
	<node id="-14749" lat="59.7166361129" lon="11.2649111192">
		<tag k="alt_name" v="Hvesse" />
		<tag k="name" v="Hvesser" />
		<tag k="place" v="farm" />
		<tag k="ssr:stedsnr" v="266634" />
	</node>
	<node id="-14747" lat="59.713363893" lon="11.3082916703">
		<tag k="name" v="Smådal" />
		<tag k="place" v="farm" />
		<tag k="ssr:stedsnr" v="266607" />
	</node>
	<node id="-14745" lat="59.7230694443" lon="11.3264444403">
		<tag k="name" v="Trandum" />
		<tag k="place" v="farm" />
		<tag k="ssr:stedsnr" v="266594" />
	</node>
	<node id="-14744" lat="59.7214222263" lon="11.324586109">
		<tag k="name" v="Trandum" />
		<tag k="place" v="farm" />
		<tag k="ssr:stedsnr" v="266595" />
	</node>
	<node id="-14740" lat="59.6606416698" lon="11.34120277">
		<tag k="alt_name" v="Brattås søndre" />
		<tag k="name" v="Søndre Brattås" />
		<tag k="place" v="farm" />
		<tag k="ssr:stedsnr" v="266538" />
	</node>
	<node id="-14739" lat="59.668522219" lon="11.3825805586">
		<tag k="alt_name" v="Sentvet øvre" />
		<tag k="name" v="Øvre Sentvet" />
		<tag k="place" v="farm" />
		<tag k="ssr:stedsnr" v="266529" />
	</node>
	<node id="-14738" lat="59.6936166656" lon="11.3323083361">
		<tag k="name" v="Linderud" />
		<tag k="place" v="locality" />
		<tag k="ssr:stedsnr" v="266508" />
	</node>
	<node id="-14736" lat="59.6725416636" lon="11.320188881">
		<tag k="name" v="Bergerødegården" />
		<tag k="place" v="farm" />
		<tag k="ssr:stedsnr" v="266493" />
	</node>
	<node id="-14735" lat="59.6351416641" lon="11.2741250063">
		<tag k="name" v="Hjensegghytta" />
		<tag k="place" v="locality" />
		<tag k="ssr:stedsnr" v="266271" />
	</node>
	<node id="-14734" lat="59.6257527818" lon="11.2715916646">
		<tag k="name" v="Steffenrud" />
		<tag k="place" v="locality" />
		<tag k="ssr:stedsnr" v="266270" />
	</node>
	<node id="-14732" lat="59.6467166651" lon="11.2762694367">
		<tag k="name" v="Fransvoll" />
		<tag k="place" v="farm" />
		<tag k="ssr:stedsnr" v="247993" />
	</node>
	<node id="-14731" lat="59.6451000018" lon="11.3780749973">
		<tag k="alt_name" v="Mansås nordre" />
		<tag k="name" v="Nordre Mansås" />
		<tag k="place" v="farm" />
		<tag k="ssr:stedsnr" v="247987" />
	</node>
	<node id="-14730" lat="59.6474083365" lon="11.3725583256">
		<tag k="name" v="Holmen" />
		<tag k="place" v="farm" />
		<tag k="ssr:stedsnr" v="247986" />
	</node>
	<node id="-14729" lat="59.6092944462" lon="11.2735416629">
		<tag k="name" v="Ringstad" />
		<tag k="place" v="farm" />
		<tag k="ssr:stedsnr" v="247921" />
	</node>
	<node id="-14728" lat="59.6103250028" lon="11.4230749919">
		<tag k="name" v="Lier" />
		<tag k="place" v="farm" />
		<tag k="ssr:stedsnr" v="247911" />
	</node>
	<node id="-14727" lat="59.6088138926" lon="11.4482444504">
		<tag k="name" v="Jordbrånen" />
		<tag k="place" v="farm" />
		<tag k="ssr:stedsnr" v="247905" />
	</node>
	<node id="-14726" lat="59.6130361118" lon="11.333630555">
		<tag k="name" v="Skallerud" />
		<tag k="place" v="farm" />
		<tag k="ssr:stedsnr" v="247903" />
	</node>
	<node id="-14725" lat="59.7638750002" lon="11.2585444391">
		<tag k="name" v="Flåtten" />
		<tag k="place" v="farm" />
		<tag k="ssr:stedsnr" v="247875" />
	</node>
	<node id="-14724" lat="59.7320777758" lon="11.2780861104">
		<tag k="name" v="Hvammer" />
		<tag k="place" v="farm" />
		<tag k="ssr:stedsnr" v="247094" />
	</node>
	<node id="-14723" lat="59.730224997" lon="11.346850006">
		<tag k="name" v="Munkerud" />
		<tag k="place" v="farm" />
		<tag k="ssr:stedsnr" v="247088" />
	</node>
	<node id="-14722" lat="59.6397130678" lon="11.2921388495">
		<tag k="fixme" v="consider place=hamlet" />
		<tag k="name" v="Bruer" />
		<tag k="place" v="farm" />
		<tag k="ssr:stedsnr" v="246969" />
	</node>
	<node id="-14721" lat="59.632380552" lon="11.3685166628">
		<tag k="name" v="Hove" />
		<tag k="place" v="farm" />
		<tag k="ssr:stedsnr" v="246957" />
	</node>
	<node id="-14720" lat="59.6316666709" lon="11.2219500045">
		<tag k="alt_name" v="Asgerrud" />
		<tag k="name" v="Asgjerrud" />
		<tag k="place" v="farm" />
		<tag k="ssr:stedsnr" v="246946" />
	</node>
	<node id="-14719" lat="59.6295999963" lon="11.2258194507">
		<tag k="name" v="Myra" />
		<tag k="place" v="farm" />
		<tag k="ssr:stedsnr" v="246947" />
	</node>
	<node id="-14718" lat="59.6308555544" lon="11.3104777815">
		<tag k="name" v="Grav" />
		<tag k="place" v="farm" />
		<tag k="ssr:stedsnr" v="246939" />
	</node>
	<node id="-14717" lat="59.6259555568" lon="11.2788722179">
		<tag k="name" v="Heggestad" />
		<tag k="place" v="farm" />
		<tag k="ssr:stedsnr" v="246940" />
	</node>
	<node id="-14716" lat="59.6199361079" lon="11.2949388936">
		<tag k="name" v="Auten" />
		<tag k="place" v="farm" />
		<tag k="ssr:stedsnr" v="246923" />
	</node>
	<node id="-14715" lat="59.6938944426" lon="11.2727000018">
		<tag k="name" v="Dramstad" />
		<tag k="place" v="farm" />
		<tag k="ssr:stedsnr" v="246791" />
	</node>
	<node id="-14714" lat="59.6942777753" lon="11.2523472295">
		<tag k="alt_name" v="Båstad;Båstad søndre" />
		<tag k="name" v="Søndre Båstad" />
		<tag k="place" v="farm" />
		<tag k="ssr:stedsnr" v="246785" />
	</node>
	<node id="-14713" lat="59.5833777775" lon="11.3221166656">
		<tag k="name" v="Geiterud" />
		<tag k="place" v="farm" />
		<tag k="ssr:stedsnr" v="246582" />
	</node>
	<node id="-14712" lat="59.7435638897" lon="11.2845999998">
		<tag k="name" v="Gullberg" />
		<tag k="place" v="farm" />
		<tag k="ssr:stedsnr" v="246065" />
	</node>
	<node id="-14711" lat="59.757364051" lon="11.2584976791">
		<tag k="fixme" v="consider place=hamlet" />
		<tag k="name" v="Sæter" />
		<tag k="place" v="farm" />
		<tag k="ssr:stedsnr" v="227633" />
	</node>
	<node id="-14709" lat="59.6279194448" lon="11.3600138802">
		<tag k="name" v="Evenby" />
		<tag k="place" v="locality" />
		<tag k="ssr:stedsnr" v="206987" />
	</node>
	<node id="-14708" lat="59.635977781" lon="11.3076222155">
		<tag k="name" v="Trøgstad prestegård" />
		<tag k="place" v="farm" />
		<tag k="ssr:stedsnr" v="206980" />
	</node>
	<node id="-14707" lat="59.6176333307" lon="11.3156555604">
		<tag k="alt_name" v="Stensrud vestre" />
		<tag k="name" v="Vestre Stensrud" />
		<tag k="place" v="farm" />
		<tag k="ssr:stedsnr" v="206964" />
	</node>
	<node id="-14706" lat="59.6378944446" lon="11.3568111027">
		<tag k="name" v="Fjellingen" />
		<tag k="place" v="farm" />
		<tag k="ssr:stedsnr" v="206933" />
	</node>
	<node id="-14705" lat="59.6468333331" lon="11.4146527799">
		<tag k="name" v="Nøkleby" />
		<tag k="place" v="farm" />
		<tag k="ssr:stedsnr" v="206924" />
	</node>
	<node id="-14703" lat="59.6663249988" lon="11.4113499975">
		<tag k="alt_name" v="Nordbråte vestre" />
		<tag k="name" v="Vestre Nordbråte" />
		<tag k="place" v="farm" />
		<tag k="ssr:stedsnr" v="206911" />
	</node>
	<node id="-14702" lat="59.6662611141" lon="11.4123944532">
		<tag k="alt_name" v="Nordbråte østre" />
		<tag k="name" v="Østre Nordbråte" />
		<tag k="place" v="farm" />
		<tag k="ssr:stedsnr" v="206905" />
	</node>
	<node id="-14695" lat="59.63758889" lon="11.4485166717">
		<tag k="name" v="Engebråten" />
		<tag k="place" v="farm" />
		<tag k="ssr:stedsnr" v="206817" />
	</node>
	<node id="-14693" lat="59.6537000023" lon="11.4285666588">
		<tag k="alt_name" v="Grimsrud øvre" />
		<tag k="name" v="Øvre Grimsrud" />
		<tag k="place" v="farm" />
		<tag k="ssr:stedsnr" v="206808" />
	</node>
	<node id="-14692" lat="59.6298555512" lon="11.4110749999">
		<tag k="name" v="Jasserud" />
		<tag k="place" v="isolated_dwelling" />
		<tag k="ssr:stedsnr" v="206795" />
	</node>
	<node id="-14690" lat="59.6695611126" lon="11.2562638838">
		<tag k="alt_name" v="Sand øvre" />
		<tag k="name" v="Øvre Sand" />
		<tag k="place" v="farm" />
		<tag k="ssr:stedsnr" v="206725" />
	</node>
	<node id="-14689" lat="59.6604166675" lon="11.2743611117">
		<tag k="name" v="Grinen" />
		<tag k="place" v="farm" />
		<tag k="ssr:stedsnr" v="206715" />
	</node>
	<node id="-14687" lat="59.6573972234" lon="11.4451138873">
		<tag k="name" v="Ravneberget" />
		<tag k="place" v="farm" />
		<tag k="ssr:stedsnr" v="206804" />
	</node>
	<node id="-14684" lat="59.6883194457" lon="11.2743888956">
		<tag k="name" v="Nattrud" />
		<tag k="place" v="farm" />
		<tag k="ssr:stedsnr" v="206586" />
	</node>
	<node id="-14683" lat="59.7063138858" lon="11.3306138931">
		<tag k="name" v="Dæli" />
		<tag k="place" v="farm" />
		<tag k="ssr:stedsnr" v="206560" />
	</node>
	<node id="-14680" lat="59.7324444481" lon="11.3250499944">
		<tag k="name" v="Fossum" />
		<tag k="place" v="locality" />
		<tag k="ssr:stedsnr" v="206527" />
	</node>
	<node id="-14679" lat="59.662980554" lon="11.3395027798">
		<tag k="alt_name" v="Brattås mellem" />
		<tag k="name" v="Mellom-Brattås" />
		<tag k="place" v="farm" />
		<tag k="ssr:stedsnr" v="206507" />
	</node>
	<node id="-14678" lat="59.6488305556" lon="11.2928333362">
		<tag k="name" v="Haug" />
		<tag k="place" v="locality" />
		<tag k="ssr:stedsnr" v="206494" />
	</node>
	<node id="-14676" lat="59.6554722197" lon="11.3018249945">
		<tag k="name" v="Sletner" />
		<tag k="place" v="farm" />
		<tag k="ssr:stedsnr" v="206485" />
	</node>
	<node id="-14675" lat="59.6398944477" lon="11.3192277815">
		<tag k="name" v="Sjønberg" />
		<tag k="place" v="farm" />
		<tag k="ssr:stedsnr" v="206482" />
	</node>
	<node id="-14673" lat="59.6733222203" lon="11.296816667">
		<tag k="name" v="Tiste" />
		<tag k="place" v="farm" />
		<tag k="ssr:stedsnr" v="206453" />
	</node>
	<node id="-14672" lat="59.637766667" lon="11.2396166714">
		<tag k="alt_name" v="Torp nordre" />
		<tag k="name" v="Nordre Torp" />
		<tag k="place" v="farm" />
		<tag k="ssr:stedsnr" v="206250" />
	</node>
	<node id="-14670" lat="59.6221027821" lon="11.28271112">
		<tag k="alt_name" v="Øyestad østre" />
		<tag k="name" v="Østre Øyestad" />
		<tag k="place" v="farm" />
		<tag k="ssr:stedsnr" v="206682" />
	</node>
	<node id="-14667" lat="59.6387916657" lon="11.2563805638">
		<tag k="name" v="Tømmerholen" />
		<tag k="place" v="farm" />
		<tag k="ssr:stedsnr" v="206663" />
	</node>
	<node id="-14664" lat="59.7192555543" lon="11.2791222302">
		<tag k="name" v="Haga" />
		<tag k="place" v="locality" />
		<tag k="ssr:stedsnr" v="206610" />
	</node>
	<node id="-14662" lat="59.6433305533" lon="11.2983805534">
		<tag k="name" v="Haga" />
		<tag k="place" v="farm" />
		<tag k="ssr:stedsnr" v="186992" />
	</node>
	<node id="-14661" lat="59.7143888885" lon="11.3298388938">
		<tag k="name" v="Måstad" />
		<tag k="place" v="farm" />
		<tag k="ssr:stedsnr" v="186870" />
	</node>
	<node id="-14660" lat="59.630202776" lon="11.3840277843">
		<tag k="name" v="Kalsrud" />
		<tag k="place" v="farm" />
		<tag k="ssr:stedsnr" v="186945" />
	</node>
	<node id="-14659" lat="59.6140222214" lon="11.3760888845">
		<tag k="alt_name" v="Smedby, nedre;Smedby nedre" />
		<tag k="name" v="Nedre Smedby" />
		<tag k="place" v="farm" />
		<tag k="ssr:stedsnr" v="186929" />
	</node>
	<node id="-14658" lat="59.6992166645" lon="11.3332111105">
		<tag k="alt_name" v="Linto nordre" />
		<tag k="name" v="Nordre Linto" />
		<tag k="place" v="farm" />
		<tag k="ssr:stedsnr" v="186845" />
	</node>
	<node id="-14657" lat="59.6581583361" lon="11.4213055625">
		<tag k="name" v="Sletsrud" />
		<tag k="place" v="farm" />
		<tag k="ssr:stedsnr" v="186794" />
	</node>
	<node id="-14656" lat="59.6672277792" lon="11.2677694424">
		<tag k="alt_name" v="Sørli" />
		<tag k="name" v="Sørlia" />
		<tag k="place" v="farm" />
		<tag k="ssr:stedsnr" v="186784" />
	</node>
	<node id="-14655" lat="59.6525833333" lon="11.4140250071">
		<tag k="name" v="Sørbråte" />
		<tag k="place" v="farm" />
		<tag k="ssr:stedsnr" v="186775" />
	</node>
	<node id="-14653" lat="59.6829249968" lon="11.3371416634">
		<tag k="name" v="Sluppen" />
		<tag k="place" v="farm" />
		<tag k="ssr:stedsnr" v="186814" />
	</node>
	<node id="-14652" lat="59.6442972222" lon="11.479652776">
		<tag k="alt_name" v="Nes" />
		<tag k="name" v="Nordre Nes" />
		<tag k="place" v="farm" />
		<tag k="ssr:stedsnr" v="186303" />
	</node>
	<node id="-14651" lat="59.7253416682" lon="11.291972226">
		<tag k="name" v="Årmo" />
		<tag k="place" v="farm" />
		<tag k="ssr:stedsnr" v="186105" />
	</node>
	<node id="-14650" lat="59.7248500018" lon="11.3504222255">
		<tag k="alt_name" v="Møllerbakken;Møllerbak" />
		<tag k="name" v="Møllebakk" />
		<tag k="place" v="farm" />
		<tag k="ssr:stedsnr" v="186100" />
	</node>
	<node id="-14649" lat="59.7100500017" lon="11.2522499989">
		<tag k="name" v="Gillingsrud" />
		<tag k="place" v="farm" />
		<tag k="ssr:stedsnr" v="185836" />
	</node>
	<node id="-14648" lat="59.6992277815" lon="11.3110277805">
		<tag k="name" v="Ås" />
		<tag k="place" v="farm" />
		<tag k="ssr:stedsnr" v="185834" />
	</node>
	<node id="-14647" lat="59.593742028" lon="11.3338932891">
		<tag k="alt_name" v="Skrikerud, nordre;Skrikerud nordre" />
		<tag k="fixme" v="consider place=hamlet" />
		<tag k="name" v="Nordre Skrikerud" />
		<tag k="place" v="farm" />
		<tag k="ssr:stedsnr" v="185536" />
	</node>
	<node id="-14646" lat="59.6051699684" lon="11.3753343144">
		<tag k="fixme" v="consider place=hamlet" />
		<tag k="name" v="Strengen" />
		<tag k="place" v="farm" />
		<tag k="ssr:stedsnr" v="176284" />
	</node>
	<node id="-14645" lat="59.6028611086" lon="11.305705555">
		<tag k="name" v="Nyborg" />
		<tag k="place" v="farm" />
		<tag k="ssr:stedsnr" v="145999" />
	</node>
	<node id="-14642" lat="59.6169249964" lon="11.2911722206">
		<tag k="alt_name" v="Sukken vestre" />
		<tag k="name" v="Vestre Sukken" />
		<tag k="place" v="farm" />
		<tag k="ssr:stedsnr" v="145964" />
	</node>
	<node id="-14639" lat="59.6220567547" lon="11.310446704">
		<tag k="alt_name" v="Høntorp østre" />
		<tag k="name" v="Østre Høntorp" />
		<tag k="place" v="farm" />
		<tag k="ssr:stedsnr" v="145952" />
	</node>
	<node id="-14637" lat="59.6537444405" lon="11.357105562">
		<tag k="alt_name" v="Finsrud østre" />
		<tag k="name" v="Østre Finsrud" />
		<tag k="place" v="farm" />
		<tag k="ssr:stedsnr" v="145947" />
	</node>
	<node id="-14636" lat="59.6467222239" lon="11.3479694405">
		<tag k="alt_name" v="Djupedal nordre" />
		<tag k="name" v="Nordre Djupedal" />
		<tag k="place" v="farm" />
		<tag k="ssr:stedsnr" v="145937" />
	</node>
	<node id="-14635" lat="59.640624998" lon="11.4214305559">
		<tag k="name" v="Narvestad" />
		<tag k="place" v="farm" />
		<tag k="ssr:stedsnr" v="145931" />
	</node>
	<node id="-14634" lat="59.5773222186" lon="11.3219138914">
		<tag k="name" v="Kølabånn" />
		<tag k="place" v="farm" />
		<tag k="ssr:stedsnr" v="145891" />
	</node>
	<node id="-14633" lat="59.6066694468" lon="11.3943277739">
		<tag k="alt_name" v="Auten nedre" />
		<tag k="name" v="Nedre Auten" />
		<tag k="place" v="farm" />
		<tag k="ssr:stedsnr" v="145885" />
	</node>
	<node id="-14628" lat="59.6358694466" lon="11.4376583398">
		<tag k="alt_name" v="Ånnerud søndre" />
		<tag k="name" v="Søndre Ånnerud" />
		<tag k="place" v="farm" />
		<tag k="ssr:stedsnr" v="145830" />
	</node>
	<node id="-14625" lat="59.6417250034" lon="11.4478055515">
		<tag k="name" v="Haugen" />
		<tag k="place" v="farm" />
		<tag k="ssr:stedsnr" v="145814" />
	</node>
	<node id="-14620" lat="59.7303750008" lon="11.2802333342">
		<tag k="alt_name" v="Hvammer søndre" />
		<tag k="name" v="Søndre Hvammer" />
		<tag k="place" v="farm" />
		<tag k="ssr:stedsnr" v="145633" />
	</node>
	<node id="-14619" lat="59.7183333299" lon="11.2784166656">
		<tag k="name" v="Buer" />
		<tag k="place" v="locality" />
		<tag k="ssr:stedsnr" v="145629" />
	</node>
	<node id="-14618" lat="59.7087361102" lon="11.2848055493">
		<tag k="name" v="Heier" />
		<tag k="place" v="farm" />
		<tag k="ssr:stedsnr" v="145620" />
	</node>
	<node id="-14617" lat="59.6946694421" lon="11.2650638872">
		<tag k="name" v="Båstadhagan" />
		<tag k="place" v="isolated_dwelling" />
		<tag k="ssr:stedsnr" v="145607" />
	</node>
	<node id="-14613" lat="59.6537777804" lon="11.3052944437">
		<tag k="name" v="Sørby" />
		<tag k="place" v="farm" />
		<tag k="ssr:stedsnr" v="145511" />
	</node>
	<node id="-14610" lat="59.7328333295" lon="11.2829805566">
		<tag k="name" v="Hvammer" />
		<tag k="place" v="farm" />
		<tag k="ssr:stedsnr" v="145263" />
	</node>
	<node id="-14608" lat="59.7578527762" lon="11.2737888938">
		<tag k="name" v="Eikelund" />
		<tag k="place" v="farm" />
		<tag k="ssr:stedsnr" v="126901" />
	</node>
	<node id="-14607" lat="59.6436527821" lon="11.2329249944">
		<tag k="name" v="Berger" />
		<tag k="place" v="farm" />
		<tag k="ssr:stedsnr" v="125996" />
	</node>
	<node id="-14606" lat="59.6434861139" lon="11.3554583368">
		<tag k="alt_name" v="Løvås" />
		<tag k="name" v="Lauvås" />
		<tag k="place" v="farm" />
		<tag k="ssr:stedsnr" v="125990" />
	</node>
	<node id="-14605" lat="59.6418861069" lon="11.4670194469">
		<tag k="name" v="Gylta" />
		<tag k="place" v="farm" />
		<tag k="ssr:stedsnr" v="125987" />
	</node>
	<node id="-14604" lat="59.616630553" lon="11.3914750053">
		<tag k="alt_name" v="Langset, m;Langseter mellem;Mellem Langseter;Mellom-Langseter;Langset" />
		<tag k="name" v="Mellom-Langset" />
		<tag k="place" v="farm" />
		<tag k="ssr:stedsnr" v="125933" />
	</node>
	<node id="-14603" lat="59.6105305586" lon="11.2928250062">
		<tag k="name" v="Smedby" />
		<tag k="place" v="farm" />
		<tag k="ssr:stedsnr" v="125926" />
	</node>
	<node id="-14601" lat="59.6614305528" lon="11.399225006">
		<tag k="name" v="Kallak" />
		<tag k="place" v="farm" />
		<tag k="ssr:stedsnr" v="125791" />
	</node>
	<node id="-14600" lat="59.6682361115" lon="11.2929666616">
		<tag k="name" v="Krokstad" />
		<tag k="place" v="farm" />
		<tag k="ssr:stedsnr" v="125786" />
	</node>
	<node id="-14599" lat="59.6579749984" lon="11.2787194428">
		<tag k="name" v="Fagerås" />
		<tag k="place" v="farm" />
		<tag k="ssr:stedsnr" v="125772" />
	</node>
	<node id="-14598" lat="59.7180833333" lon="11.2884638971">
		<tag k="name" v="Enger" />
		<tag k="place" v="farm" />
		<tag k="ssr:stedsnr" v="125883" />
	</node>
	<node id="-14596" lat="59.6924388914" lon="11.2954027784">
		<tag k="name" v="Bergerud" />
		<tag k="place" v="farm" />
		<tag k="ssr:stedsnr" v="125832" />
	</node>
	<node id="-14594" lat="59.5885666686" lon="11.2841194365">
		<tag k="name" v="Saktmoen" />
		<tag k="place" v="farm" />
		<tag k="ssr:stedsnr" v="125629" />
	</node>
	<node id="-14593" lat="59.6379222241" lon="11.2322388967">
		<tag k="alt_name" v="Thorshov" />
		<tag k="name" v="Torshov" />
		<tag k="place" v="farm" />
		<tag k="ssr:stedsnr" v="124974" />
	</node>
	<node id="-14587" lat="59.604877782" lon="11.3312944508">
		<tag k="name" v="Holen" />
		<tag k="place" v="locality" />
		<tag k="ssr:stedsnr" v="84888" />
	</node>
	<node id="-14583" lat="59.6411833331" lon="11.3677222229">
		<tag k="alt_name" v="Skog søndre" />
		<tag k="name" v="Søndre Skog" />
		<tag k="place" v="farm" />
		<tag k="ssr:stedsnr" v="84954" />
	</node>
	<node id="-14582" lat="59.6449805588" lon="11.4200750019">
		<tag k="name" v="Narvestad" />
		<tag k="place" v="farm" />
		<tag k="ssr:stedsnr" v="84950" />
	</node>
	<node id="-14581" lat="59.580455551" lon="11.2914000085">
		<tag k="alt_name" v="Franserud nordre" />
		<tag k="name" v="Nordre Franserud" />
		<tag k="place" v="isolated_dwelling" />
		<tag k="ssr:stedsnr" v="84922" />
	</node>
	<node id="-14578" lat="59.6448777809" lon="11.2065166631">
		<tag k="name" v="Solli" />
		<tag k="place" v="farm" />
		<tag k="ssr:stedsnr" v="84727" />
	</node>
	<node id="-14576" lat="59.6384555558" lon="11.2349777779">
		<tag k="name" v="Bjørkeflåtten" />
		<tag k="place" v="farm" />
		<tag k="ssr:stedsnr" v="84708" />
	</node>
	<node id="-14575" lat="59.6494916685" lon="11.2305138977">
		<tag k="name" v="Nordli" />
		<tag k="place" v="farm" />
		<tag k="ssr:stedsnr" v="84709" />
	</node>
	<node id="-14574" lat="59.6422027776" lon="11.2334527835">
		<tag k="name" v="Vestby" />
		<tag k="place" v="farm" />
		<tag k="ssr:stedsnr" v="84707" />
	</node>
	<node id="-14572" lat="59.602247226" lon="11.4470444477">
		<tag k="alt_name" v="Vølen vestre" />
		<tag k="name" v="Vestre Vølen" />
		<tag k="place" v="locality" />
		<tag k="ssr:stedsnr" v="84861" />
	</node>
	<node id="-14571" lat="59.7030833365" lon="11.287583337">
		<tag k="name" v="Bleikerud" />
		<tag k="place" v="farm" />
		<tag k="ssr:stedsnr" v="84575" />
	</node>
	<node id="-14569" lat="59.6736388861" lon="11.3503333373">
		<tag k="name" v="Prinsrud" />
		<tag k="place" v="farm" />
		<tag k="ssr:stedsnr" v="84568" />
	</node>
	<node id="-14568" lat="59.6778749988" lon="11.3922861079">
		<tag k="name" v="Nygård" />
		<tag k="place" v="farm" />
		<tag k="ssr:stedsnr" v="84567" />
	</node>
	<node id="-14567" lat="59.7265833291" lon="11.2823583355">
		<tag k="name" v="Rud" />
		<tag k="place" v="farm" />
		<tag k="ssr:stedsnr" v="84665" />
	</node>
	<node id="-14566" lat="59.7037000018" lon="11.2799305616">
		<tag k="name" v="Lunder" />
		<tag k="place" v="farm" />
		<tag k="ssr:stedsnr" v="84651" />
	</node>
	<node id="-14561" lat="59.6754888898" lon="11.2905166645">
		<tag k="alt_name" v="Gimsingrud søndre" />
		<tag k="name" v="Søndre Gimsingrud" />
		<tag k="place" v="farm" />
		<tag k="ssr:stedsnr" v="84543" />
	</node>
	<node id="-14557" lat="59.6614305541" lon="11.3104194445">
		<tag k="name" v="Teigen" />
		<tag k="place" v="farm" />
		<tag k="ssr:stedsnr" v="84533" />
	</node>
	<node id="-14556" lat="59.6639972265" lon="11.2870694521">
		<tag k="name" v="Gutuskog" />
		<tag k="place" v="farm" />
		<tag k="ssr:stedsnr" v="84528" />
	</node>
	<node id="-14555" lat="59.639419443" lon="11.2864416671">
		<tag k="alt_name" v="Bruer vestre" />
		<tag k="name" v="Vestre Bruer" />
		<tag k="place" v="farm" />
		<tag k="ssr:stedsnr" v="84553" />
	</node>
	<node id="-14553" lat="59.6499555571" lon="11.2189166582">
		<tag k="name" v="Grevegg" />
		<tag k="place" v="farm" />
		<tag k="ssr:stedsnr" v="65998" />
	</node>
	<node id="-14552" lat="59.6461357525" lon="11.3482084881">
		<tag k="fixme" v="consider place=hamlet" />
		<tag k="name" v="Djupedal" />
		<tag k="place" v="farm" />
		<tag k="ssr:stedsnr" v="65991" />
	</node>
	<node id="-14551" lat="59.6117333326" lon="11.4337416697">
		<tag k="name" v="Lia" />
		<tag k="place" v="farm" />
		<tag k="ssr:stedsnr" v="65926" />
	</node>
	<node id="-14550" lat="59.5997944435" lon="11.3766166743">
		<tag k="alt_name" v="Nygård nordre" />
		<tag k="name" v="Nordre Nygård" />
		<tag k="place" v="locality" />
		<tag k="ssr:stedsnr" v="65901" />
	</node>
	<node id="-14549" lat="59.7152500025" lon="11.2855666722">
		<tag k="name" v="Skjenneberg" />
		<tag k="place" v="farm" />
		<tag k="ssr:stedsnr" v="65890" />
	</node>
	<node id="-14548" lat="59.6654606523" lon="11.4114216307">
		<tag k="fixme" v="consider place=hamlet" />
		<tag k="name" v="Bråte" />
		<tag k="place" v="farm" />
		<tag k="ssr:stedsnr" v="65792" />
	</node>
	<node id="-14546" lat="59.7289888893" lon="11.2888888876">
		<tag k="name" v="Sletta" />
		<tag k="place" v="farm" />
		<tag k="ssr:stedsnr" v="65085" />
	</node>
	<node id="-14545" lat="59.6398138868" lon="11.2997027788">
		<tag k="name" v="Voll" />
		<tag k="place" v="farm" />
		<tag k="ssr:stedsnr" v="64974" />
	</node>
	<node id="-14544" lat="59.6290638933" lon="11.2957277826">
		<tag k="name" v="Kverner" />
		<tag k="place" v="farm" />
		<tag k="ssr:stedsnr" v="64965" />
	</node>
	<node id="-14543" lat="59.6237805555" lon="11.2324916619">
		<tag k="alt_name" v="Bergenhus" />
		<tag k="name" v="Bernhus" />
		<tag k="place" v="farm" />
		<tag k="ssr:stedsnr" v="64958" />
	</node>
	<node id="-14541" lat="59.6988000027" lon="11.2809999967">
		<tag k="alt_name" v="Kvakestad" />
		<tag k="name" v="Kvakstad" />
		<tag k="place" v="farm" />
		<tag k="ssr:stedsnr" v="64852" />
	</node>
	<node id="-14540" lat="59.7012555595" lon="11.2527055616">
		<tag k="name" v="Evenby" />
		<tag k="place" v="farm" />
		<tag k="ssr:stedsnr" v="64850" />
	</node>
	<node id="-14537" lat="59.6871305527" lon="11.3255111133">
		<tag k="name" v="Ringstad" />
		<tag k="place" v="farm" />
		<tag k="ssr:stedsnr" v="64841" />
	</node>
	<node id="-14536" lat="59.6873583297" lon="11.266358337">
		<tag k="name" v="Veiby" />
		<tag k="place" v="farm" />
		<tag k="ssr:stedsnr" v="64824" />
	</node>
	<node id="-14535" lat="59.6806111096" lon="11.3207611144">
		<tag k="name" v="Rova" />
		<tag k="place" v="farm" />
		<tag k="ssr:stedsnr" v="64811" />
	</node>
	<node id="-14534" lat="59.6665222189" lon="11.315261103">
		<tag k="alt_name" v="Hov, søndre;Hov søndre" />
		<tag k="name" v="Søndre Hov" />
		<tag k="place" v="farm" />
		<tag k="ssr:stedsnr" v="64776" />
	</node>
	<node id="-14533" lat="59.6621000007" lon="11.2806333401">
		<tag k="name" v="Totorp" />
		<tag k="place" v="farm" />
		<tag k="ssr:stedsnr" v="64773" />
	</node>
	<node id="-14532" lat="59.6654916688" lon="11.2850888966">
		<tag k="name" v="Skofsrud" />
		<tag k="place" v="farm" />
		<tag k="ssr:stedsnr" v="64774" />
	</node>
	<node id="-14530" lat="59.6161968905" lon="11.2582137748">
		<tag k="alt_name" v="Eikeberg nordre" />
		<tag k="name" v="Nordre Eikeberg" />
		<tag k="place" v="farm" />
		<tag k="ssr:stedsnr" v="38479" />
	</node>
	<node id="-14528" lat="59.642150001" lon="11.3674194512">
		<tag k="alt_name" v="Skog nordre" />
		<tag k="name" v="Nordre Skog" />
		<tag k="place" v="farm" />
		<tag k="ssr:stedsnr" v="24948" />
	</node>
	<node id="-14526" lat="59.6392222211" lon="11.3792583313">
		<tag k="name" v="Skotta" />
		<tag k="place" v="farm" />
		<tag k="ssr:stedsnr" v="24941" />
	</node>
	<node id="-14525" lat="59.6546222236" lon="11.4155166585">
		<tag k="name" v="Heer" />
		<tag k="place" v="farm" />
		<tag k="ssr:stedsnr" v="24927" />
	</node>
	<node id="-14524" lat="59.6602999987" lon="11.4537250062">
		<tag k="alt_name" v="Bjørnemyren" />
		<tag k="name" v="Bjørnemyra" />
		<tag k="place" v="farm" />
		<tag k="ssr:stedsnr" v="24918" />
	</node>
	<node id="-14522" lat="59.6041371768" lon="11.3740942825">
		<tag k="name" v="Gulbrandstrengen" />
		<tag k="place" v="farm" />
		<tag k="ssr:stedsnr" v="24887" />
	</node>
	<node id="-14519" lat="59.6053749971" lon="11.4203472215">
		<tag k="alt_name" v="Åmot lille" />
		<tag k="name" v="Lille Åmot" />
		<tag k="place" v="farm" />
		<tag k="ssr:stedsnr" v="24851" />
	</node>
	<node id="-14516" lat="59.625458336" lon="11.4019972211">
		<tag k="name" v="Sandvik" />
		<tag k="place" v="farm" />
		<tag k="ssr:stedsnr" v="24810" />
	</node>
	<node id="-14513" lat="59.647844447" lon="11.2276166746">
		<tag k="alt_name" v="Hestehagen nordre" />
		<tag k="name" v="Nordre Hestehagen" />
		<tag k="place" v="farm" />
		<tag k="ssr:stedsnr" v="24722" />
	</node>
	<node id="-14512" lat="59.6676861101" lon="11.2820999928">
		<tag k="name" v="Skofsrud" />
		<tag k="place" v="farm" />
		<tag k="ssr:stedsnr" v="24707" />
	</node>
	<node id="-14509" lat="59.7593555593" lon="11.270902781">
		<tag k="name" v="Stubberud" />
		<tag k="place" v="farm" />
		<tag k="ssr:stedsnr" v="24652" />
	</node>
	<node id="-14508" lat="59.7216444425" lon="11.2765083325">
		<tag k="name" v="Østreng" />
		<tag k="place" v="farm" />
		<tag k="ssr:stedsnr" v="24631" />
	</node>
	<node id="-14507" lat="59.7175444462" lon="11.3274833274">
		<tag k="name" v="Fuglesangen" />
		<tag k="place" v="farm" />
		<tag k="ssr:stedsnr" v="24596" />
	</node>
	<node id="-14503" lat="59.7021777781" lon="11.2868472247">
		<tag k="name" v="Bergerud" />
		<tag k="place" v="farm" />
		<tag k="ssr:stedsnr" v="24542" />
	</node>
	<node id="-14500" lat="59.6449611123" lon="11.3203055576">
		<tag k="name" v="Skrammerud" />
		<tag k="place" v="farm" />
		<tag k="ssr:stedsnr" v="24511" />
	</node>
	<node id="-14499" lat="59.6383666662" lon="11.3065083325">
		<tag k="name" v="Åsgård" />
		<tag k="place" v="farm" />
		<tag k="ssr:stedsnr" v="24504" />
	</node>
	<node id="-14497" lat="59.6365027786" lon="11.237899992">
		<tag k="alt_name" v="Torp søndre" />
		<tag k="name" v="Søndre Torp" />
		<tag k="place" v="farm" />
		<tag k="ssr:stedsnr" v="24234" />
	</node>
	<node id="-14495" lat="59.6337944473" lon="11.2622000054">
		<tag k="name" v="Delingsrud" />
		<tag k="place" v="locality" />
		<tag k="ssr:stedsnr" v="24231" />
	</node>
	<node id="-14493" lat="59.7545166659" lon="11.3192805599">
		<tag k="name" v="Holtet" />
		<tag k="place" v="farm" />
		<tag k="ssr:stedsnr" v="5907" />
	</node>
	<node id="-14492" lat="59.6523083304" lon="11.2124499911">
		<tag k="name" v="Hol" />
		<tag k="place" v="farm" />
		<tag k="ssr:stedsnr" v="4999" />
	</node>
	<node id="-14491" lat="59.6507777816" lon="11.1996111086">
		<tag k="alt_name" v="Åser, nordre;Åser" />
		<tag k="name" v="Nordre Åser" />
		<tag k="old_name" v="Aaser" />
		<tag k="place" v="farm" />
		<tag k="ssr:stedsnr" v="4996" />
	</node>
	<node id="-14490" lat="59.6472833304" lon="11.2601583332">
		<tag k="name" v="Rud" />
		<tag k="place" v="farm" />
		<tag k="ssr:stedsnr" v="4994" />
	</node>
	<node id="-14488" lat="59.6215083347" lon="11.3304416616">
		<tag k="name" v="Langsrud" />
		<tag k="place" v="farm" />
		<tag k="ssr:stedsnr" v="4947" />
	</node>
	<node id="-14487" lat="59.6229037114" lon="11.2828648208">
		<tag k="fixme" v="consider place=hamlet" />
		<tag k="name" v="Øyestad" />
		<tag k="place" v="farm" />
		<tag k="ssr:stedsnr" v="4943" />
	</node>
	<node id="-14486" lat="59.6201666635" lon="11.4228805617">
		<tag k="alt_name" v="Fuglli;Faugli østre" />
		<tag k="name" v="Østre Faugli" />
		<tag k="place" v="farm" />
		<tag k="ssr:stedsnr" v="4932" />
	</node>
	<node id="-14485" lat="59.605725002" lon="11.4425777865">
		<tag k="name" v="Langnes" />
		<tag k="place" v="farm" />
		<tag k="ssr:stedsnr" v="4926" />
	</node>
	<node id="-14483" lat="59.7334694451" lon="11.2822750032">
		<tag k="alt_name" v="Åsrud" />
		<tag k="name" v="Årsrud" />
		<tag k="place" v="farm" />
		<tag k="ssr:stedsnr" v="4119" />
	</node>
	<node id="-14480" lat="59.6277249997" lon="11.3686694525">
		<tag k="name" v="Hundstorp" />
		<tag k="place" v="farm" />
		<tag k="ssr:stedsnr" v="3953" />
	</node>
	<node id="-14479" lat="59.5937249986" lon="11.3110250025">
		<tag k="alt_name" v="Jørentvet søndre" />
		<tag k="name" v="Søndre Jørentvet" />
		<tag k="place" v="farm" />
		<tag k="ssr:stedsnr" v="3553" />
	</node>
	<node id="-14475" lat="59.7314722231" lon="11.2895055538">
		<tag k="name" v="Langedal" />
		<tag k="place" v="isolated_dwelling" />
		<tag k="ssr:stedsnr" v="267512" />
	</node>
	<node id="-14473" lat="59.6530055558" lon="11.3246250041">
		<tag k="name" v="Lund" />
		<tag k="place" v="locality" />
		<tag k="ssr:stedsnr" v="266939" />
	</node>
	<node id="-14469" lat="59.6636127325" lon="11.3137650239">
		<tag k="fixme" v="consider place=hamlet" />
		<tag k="name" v="Store Løken" />
		<tag k="place" v="farm" />
		<tag k="ssr:stedsnr" v="990645" />
	</node>
	<node id="-14468" lat="59.6499677621" lon="11.271062486">
		<tag k="name" v="Strønes" />
		<tag k="place" v="hamlet" />
		<tag k="ssr:stedsnr" v="990580" />
	</node>
	<node id="-14457" lat="59.6410277822" lon="11.4758638884">
		<tag k="alt_name" v="Nes mellem" />
		<tag k="fixme" v="multiple name tags, choose one and add the other to alt_name" />
		<tag k="name" v="Nes nordre;Mellom-Nes" />
		<tag k="place" v="farm" />
		<tag k="ssr:stedsnr" v="400810" />
	</node>
	<node id="-14456" lat="59.7303055518" lon="11.3277666716">
		<tag k="name" v="Lundhagen" />
		<tag k="place" v="farm" />
		<tag k="ssr:stedsnr" v="388526" />
	</node>
	<node id="-14449" lat="59.6472694414" lon="11.3649750057">
		<tag k="name" v="Bulterud" />
		<tag k="place" v="farm" />
		<tag k="ssr:stedsnr" v="387955" />
	</node>
	<node id="-14448" lat="59.6512472238" lon="11.3987472208">
		<tag k="name" v="Dillevik" />
		<tag k="place" v="farm" />
		<tag k="ssr:stedsnr" v="387949" />
	</node>
	<node id="-14444" lat="59.6093583364" lon="11.3730694422">
		<tag k="name" v="Korperud" />
		<tag k="place" v="farm" />
		<tag k="ssr:stedsnr" v="387892" />
	</node>
	<node id="-14441" lat="59.6138972208" lon="11.4166500079">
		<tag k="alt_name" v="Havnås øvre" />
		<tag k="name" v="Øvre Havnås" />
		<tag k="place" v="farm" />
		<tag k="ssr:stedsnr" v="387843" />
	</node>
	<node id="-14440" lat="59.6030555567" lon="11.4513027846">
		<tag k="name" v="Borgås" />
		<tag k="place" v="farm" />
		<tag k="ssr:stedsnr" v="387837" />
	</node>
	<node id="-14439" lat="59.679100002" lon="11.2837638963">
		<tag k="alt_name" v="Utveien søndre" />
		<tag k="name" v="Søndre Utveien" />
		<tag k="place" v="farm" />
		<tag k="ssr:stedsnr" v="387694" />
	</node>
	<node id="-14438" lat="59.6542777768" lon="11.2290749928">
		<tag k="name" v="Greverud" />
		<tag k="place" v="farm" />
		<tag k="ssr:stedsnr" v="387692" />
	</node>
	<node id="-14437" lat="59.622633335" lon="11.2655805585">
		<tag k="name" v="Neset" />
		<tag k="place" v="locality" />
		<tag k="ssr:stedsnr" v="387688" />
	</node>
	<node id="-14433" lat="59.7046805598" lon="11.2777916642">
		<tag k="name" v="Vestby" />
		<tag k="place" v="farm" />
		<tag k="ssr:stedsnr" v="387636" />
	</node>
	<node id="-14432" lat="59.7184194446" lon="11.257297216">
		<tag k="name" v="Hvesser" />
		<tag k="place" v="farm" />
		<tag k="ssr:stedsnr" v="387632" />
	</node>
	<node id="-14431" lat="59.6859611102" lon="11.2818333299">
		<tag k="name" v="Åstorp" />
		<tag k="place" v="farm" />
		<tag k="ssr:stedsnr" v="387626" />
	</node>
	<node id="-14430" lat="59.6982027743" lon="11.2554555641">
		<tag k="name" v="Skattalen" />
		<tag k="place" v="farm" />
		<tag k="ssr:stedsnr" v="387620" />
	</node>
	<node id="-14426" lat="59.6614583372" lon="11.3356666658">
		<tag k="name" v="Kongsberg" />
		<tag k="place" v="farm" />
		<tag k="ssr:stedsnr" v="387532" />
	</node>
	<node id="-14425" lat="59.6686333325" lon="11.33481666">
		<tag k="alt_name" v="Brattås nordre" />
		<tag k="name" v="Nordre Brattås" />
		<tag k="place" v="farm" />
		<tag k="ssr:stedsnr" v="387531" />
	</node>
	<node id="-14424" lat="59.671883337" lon="11.3137305536">
		<tag k="alt_name" v="Hov lille" />
		<tag k="name" v="Lille Hov" />
		<tag k="place" v="farm" />
		<tag k="ssr:stedsnr" v="387527" />
	</node>
	<node id="-14423" lat="59.6242722191" lon="11.2475666722">
		<tag k="name" v="Toffelbakke" />
		<tag k="place" v="isolated_dwelling" />
		<tag k="ssr:stedsnr" v="387296" />
	</node>
	<node id="-14419" lat="59.6425068667" lon="11.3590079579">
		<tag k="fixme" v="consider place=hamlet" />
		<tag k="name" v="Kreppa" />
		<tag k="place" v="farm" />
		<tag k="ssr:stedsnr" v="368994" />
	</node>
	<node id="-14418" lat="59.6458805533" lon="11.4070388968">
		<tag k="name" v="Myrvoll" />
		<tag k="place" v="farm" />
		<tag k="ssr:stedsnr" v="368990" />
	</node>
	<node id="-14417" lat="59.6119694473" lon="11.3809083317">
		<tag k="alt_name" v="Smedby, øvre;Smedby øvre" />
		<tag k="name" v="Øvre Smedby" />
		<tag k="place" v="farm" />
		<tag k="ssr:stedsnr" v="368938" />
	</node>
	<node id="-14416" lat="59.6038250036" lon="11.4178916631">
		<tag k="name" v="Åmot" />
		<tag k="place" v="farm" />
		<tag k="ssr:stedsnr" v="368918" />
	</node>
	<node id="-14415" lat="59.6034382839" lon="11.3805489422">
		<tag k="alt_name" v="Strengen store" />
		<tag k="name" v="Store Strengen" />
		<tag k="place" v="farm" />
		<tag k="ssr:stedsnr" v="368911" />
	</node>
	<node id="-14413" lat="59.7570527799" lon="11.325136114">
		<tag k="name" v="Midtfjellet" />
		<tag k="place" v="farm" />
		<tag k="ssr:stedsnr" v="368897" />
	</node>
	<node id="-14412" lat="59.6687194438" lon="11.3773861069">
		<tag k="name" v="Sentvet" />
		<tag k="place" v="farm" />
		<tag k="ssr:stedsnr" v="368821" />
	</node>
	<node id="-14411" lat="59.6726833323" lon="11.3452527832">
		<tag k="alt_name" v="Slorby" />
		<tag k="name" v="Sloreby" />
		<tag k="place" v="farm" />
		<tag k="ssr:stedsnr" v="368819" />
	</node>
	<node id="-14410" lat="59.6578416699" lon="11.2631250057">
		<tag k="name" v="Tangen" />
		<tag k="place" v="farm" />
		<tag k="ssr:stedsnr" v="368791" />
	</node>
	<node id="-14409" lat="59.7326916662" lon="11.260744448">
		<tag k="name" v="Nes" />
		<tag k="place" v="farm" />
		<tag k="ssr:stedsnr" v="368126" />
	</node>
	<node id="-14408" lat="59.739166671" lon="11.2776249984">
		<tag k="name" v="Klufterud" />
		<tag k="place" v="farm" />
		<tag k="ssr:stedsnr" v="368127" />
	</node>
	<node id="-14407" lat="59.725397225" lon="11.3321888901">
		<tag k="alt_name" v="Bjerke søndre;Bjerke" />
		<tag k="name" v="Søndre Bjerke" />
		<tag k="place" v="farm" />
		<tag k="ssr:stedsnr" v="368118" />
	</node>
	<node id="-14406" lat="59.7289499985" lon="11.3279361134">
		<tag k="name" v="Pella" />
		<tag k="place" v="farm" />
		<tag k="ssr:stedsnr" v="368119" />
	</node>
	<node id="-14404" lat="59.7479194439" lon="11.2860888863">
		<tag k="name" v="Langholen" />
		<tag k="place" v="farm" />
		<tag k="ssr:stedsnr" v="368081" />
	</node>
	<node id="-14403" lat="59.642124999" lon="11.2347222142">
		<tag k="name" v="Mellegård" />
		<tag k="place" v="farm" />
		<tag k="ssr:stedsnr" v="367969" />
	</node>
	<node id="-14402" lat="59.6368444422" lon="11.2637861197">
		<tag k="name" v="Persbråten" />
		<tag k="place" v="farm" />
		<tag k="ssr:stedsnr" v="367966" />
	</node>
	<node id="-14401" lat="59.6349500027" lon="11.4090583374">
		<tag k="name" v="Skjærungrud" />
		<tag k="place" v="farm" />
		<tag k="ssr:stedsnr" v="367956" />
	</node>
	<node id="-14400" lat="59.6238000023" lon="11.4085277833">
		<tag k="name" v="Grefsli" />
		<tag k="place" v="farm" />
		<tag k="ssr:stedsnr" v="367941" />
	</node>
	<node id="-14399" lat="59.6964972216" lon="11.3317777808">
		<tag k="alt_name" v="Linto søndre" />
		<tag k="name" v="Søndre Linto" />
		<tag k="place" v="farm" />
		<tag k="ssr:stedsnr" v="367824" />
	</node>
	<node id="-14398" lat="59.5974611097" lon="11.3104861164">
		<tag k="alt_name" v="Jørentvet nordre" />
		<tag k="name" v="Nordre Jørentvet" />
		<tag k="place" v="farm" />
		<tag k="ssr:stedsnr" v="367550" />
	</node>
	<node id="-14397" lat="59.5927249976" lon="11.326694436">
		<tag k="name" v="Tangen" />
		<tag k="place" v="farm" />
		<tag k="ssr:stedsnr" v="367549" />
	</node>
	<node id="-14396" lat="59.590491667" lon="11.2708749972">
		<tag k="alt_name" v="Kongerud lille" />
		<tag k="name" v="Lille Kongerud" />
		<tag k="place" v="farm" />
		<tag k="ssr:stedsnr" v="367547" />
	</node>
	<node id="-14395" lat="59.6770666658" lon="11.2664138974">
		<tag k="fixme" v="consider place=hamlet" />
		<tag k="name" v="Håkås" />
		<tag k="place" v="farm" />
		<tag k="ssr:stedsnr" v="358318" />
	</node>
	<node id="-14394" lat="59.6166333336" lon="11.3914555569">
		<tag k="name" v="Langset" />
		<tag k="place" v="hamlet" />
		<tag k="ssr:stedsnr" v="358295" />
	</node>
	<node id="-14391" lat="59.7366527816" lon="11.2798611149">
		<tag k="name" v="Åser" />
		<tag k="place" v="farm" />
		<tag k="ssr:stedsnr" v="328643" />
	</node>
	<node id="-14390" lat="59.7445805589" lon="11.2919694404">
		<tag k="name" v="Glansås" />
		<tag k="place" v="farm" />
		<tag k="ssr:stedsnr" v="328555" />
	</node>
	<node id="-14385" lat="59.6164111091" lon="11.3193638836">
		<tag k="alt_name" v="Stensrud søndre" />
		<tag k="name" v="Søndre Stensrud" />
		<tag k="place" v="farm" />
		<tag k="ssr:stedsnr" v="327951" />
	</node>
	<node id="-14384" lat="59.6223222242" lon="11.3172000008">
		<tag k="name" v="Vollene" />
		<tag k="place" v="isolated_dwelling" />
		<tag k="ssr:stedsnr" v="327945" />
	</node>
	<node id="-14383" lat="59.653333333" lon="11.3560833252">
		<tag k="alt_name" v="Finsrud vestre" />
		<tag k="name" v="Vestre Finsrud" />
		<tag k="place" v="farm" />
		<tag k="ssr:stedsnr" v="327933" />
	</node>
	<node id="-14380" lat="59.6581333375" lon="11.4228888826">
		<tag k="name" v="Gutu" />
		<tag k="place" v="isolated_dwelling" />
		<tag k="ssr:stedsnr" v="327893" />
	</node>
	<node id="-14379" lat="59.5937000042" lon="11.3355722233">
		<tag k="alt_name" v="Skrikerud nordre" />
		<tag k="name" v="Nordre Skrikerud" />
		<tag k="place" v="farm" />
		<tag k="ssr:stedsnr" v="327870" />
	</node>
	<node id="-14374" lat="59.6529388856" lon="11.431813889">
		<tag k="alt_name" v="Grimsrud østre" />
		<tag k="name" v="Østre Grimsrud" />
		<tag k="place" v="farm" />
		<tag k="ssr:stedsnr" v="327760" />
	</node>
	<node id="-14371" lat="59.6693083295" lon="11.283861115">
		<tag k="name" v="Skofsrud" />
		<tag k="place" v="farm" />
		<tag k="ssr:stedsnr" v="327673" />
	</node>
	<node id="-14369" lat="59.7566388866" lon="11.2600888852">
		<tag k="name" v="Setervang" />
		<tag k="place" v="farm" />
		<tag k="ssr:stedsnr" v="327625" />
	</node>
	<node id="-14368" lat="59.7040416671" lon="11.3030805612">
		<tag k="name" v="Åsum" />
		<tag k="place" v="farm" />
		<tag k="ssr:stedsnr" v="327580" />
	</node>
	<node id="-14367" lat="59.702986109" lon="11.3187055498">
		<tag k="name" v="Sørli" />
		<tag k="place" v="farm" />
		<tag k="ssr:stedsnr" v="327578" />
	</node>
	<node id="-14365" lat="59.6960277785" lon="11.2954222306">
		<tag k="name" v="Kirkeby" />
		<tag k="place" v="farm" />
		<tag k="ssr:stedsnr" v="327568" />
	</node>
	<node id="-14364" lat="59.6943527768" lon="11.2957138867">
		<tag k="name" v="Kirkås" />
		<tag k="place" v="farm" />
		<tag k="ssr:stedsnr" v="327565" />
	</node>
	<node id="-14362" lat="59.6683083313" lon="11.3794388942">
		<tag k="alt_name" v="Sentvet nedre" />
		<tag k="name" v="Nedre Sentvet" />
		<tag k="place" v="farm" />
		<tag k="ssr:stedsnr" v="327509" />
	</node>
	<node id="-14361" lat="59.6618611118" lon="11.3332638868">
		<tag k="name" v="Nordli" />
		<tag k="place" v="farm" />
		<tag k="ssr:stedsnr" v="327461" />
	</node>
	<node id="-14357" lat="59.6365611149" lon="11.2844555584">
		<tag k="alt_name" v="Bredegg vestre" />
		<tag k="name" v="Vestre Bredegg" />
		<tag k="place" v="farm" />
		<tag k="ssr:stedsnr" v="327248" />
	</node>
	<node id="-14356" lat="59.6101083318" lon="11.2548111147">
		<tag k="name" v="Bjørklund" />
		<tag k="place" v="farm" />
		<tag k="ssr:stedsnr" v="327236" />
	</node>
	<node id="-14355" lat="59.7517999986" lon="11.2912861095">
		<tag k="name" v="Fjell" />
		<tag k="place" v="farm" />
		<tag k="ssr:stedsnr" v="308918" />
	</node>
	<node id="-14354" lat="59.7556388895" lon="11.2941666623">
		<tag k="name" v="Hovelsrud" />
		<tag k="place" v="farm" />
		<tag k="ssr:stedsnr" v="308919" />
	</node>
	<node id="-14353" lat="59.7590055525" lon="11.28611666">
		<tag k="name" v="Brånen" />
		<tag k="place" v="farm" />
		<tag k="ssr:stedsnr" v="308885" />
	</node>
	<node id="-14352" lat="59.6440083347" lon="11.3144694411">
		<tag k="name" v="Sjønhaug" />
		<tag k="place" v="farm" />
		<tag k="ssr:stedsnr" v="307992" />
	</node>
	<node id="-14351" lat="59.6447388875" lon="11.2835749912">
		<tag k="name" v="Haugerud" />
		<tag k="place" v="farm" />
		<tag k="ssr:stedsnr" v="307993" />
	</node>
	<node id="-14350" lat="59.6448166687" lon="11.4142555579">
		<tag k="name" v="Nøkleby" />
		<tag k="place" v="farm" />
		<tag k="ssr:stedsnr" v="307986" />
	</node>
	<node id="-14349" lat="59.6384166658" lon="11.4433222274">
		<tag k="name" v="Orderud" />
		<tag k="place" v="farm" />
		<tag k="ssr:stedsnr" v="307984" />
	</node>
	<node id="-14348" lat="59.6391666689" lon="11.2177944522">
		<tag k="name" v="Aslerud" />
		<tag k="place" v="farm" />
		<tag k="ssr:stedsnr" v="307975" />
	</node>
	<node id="-14347" lat="59.6259916685" lon="11.2465999967">
		<tag k="name" v="Hvitstein" />
		<tag k="place" v="farm" />
		<tag k="ssr:stedsnr" v="307957" />
	</node>
	<node id="-14346" lat="59.6338638866" lon="11.2475305627">
		<tag k="name" v="Dammen" />
		<tag k="place" v="locality" />
		<tag k="ssr:stedsnr" v="307958" />
	</node>
	<node id="-14344" lat="59.6275555518" lon="11.4211250032">
		<tag k="name" v="Helgerud" />
		<tag k="place" v="farm" />
		<tag k="ssr:stedsnr" v="307942" />
	</node>
	<node id="-14343" lat="59.6147000042" lon="11.3239944496">
		<tag k="name" v="Skrene" />
		<tag k="place" v="farm" />
		<tag k="ssr:stedsnr" v="307931" />
	</node>
	<node id="-14342" lat="59.618899996" lon="11.3718583281">
		<tag k="name" v="Risbråte" />
		<tag k="place" v="farm" />
		<tag k="ssr:stedsnr" v="307927" />
	</node>
	<node id="-14341" lat="59.61696389" lon="11.3008416613">
		<tag k="name" v="Mellegård" />
		<tag k="place" v="farm" />
		<tag k="ssr:stedsnr" v="307925" />
	</node>
	<node id="-14340" lat="59.6231172175" lon="11.3034022039">
		<tag k="name" v="Høntorp" />
		<tag k="place" v="hamlet" />
		<tag k="ssr:stedsnr" v="307923" />
	</node>
	<node id="-14339" lat="59.6161194415" lon="11.2578027857">
		<tag k="name" v="Eikeberg" />
		<tag k="place" v="hamlet" />
		<tag k="ssr:stedsnr" v="307913" />
	</node>
	<node id="-14338" lat="59.6134749981" lon="11.3718833327">
		<tag k="name" v="Jorud" />
		<tag k="place" v="farm" />
		<tag k="ssr:stedsnr" v="307900" />
	</node>
	<node id="-14337" lat="59.6034694432" lon="11.2934083355">
		<tag k="name" v="Bråten" />
		<tag k="place" v="farm" />
		<tag k="ssr:stedsnr" v="307887" />
	</node>
</osm>
