<?xml version="1.0" encoding="UTF-8"?>
<osm generator="osmapis" version="0.6">
	<node id="-14720" lat="59.7104916633" lon="11.2948472175">
		<tag k="name" v="Overgangen" />
		<tag k="place" v="locality" />
		<tag k="ssr:stedsnr" v="266609" />
	</node>
	<node id="-14335" lat="59.6773083376" lon="11.3893666661">
		<tag k="name" v="Persbråten" />
		<tag k="place" v="locality" />
		<tag k="ssr:stedsnr" v="327514" />
	</node>
	<node id="-14613" lat="59.6271222215" lon="11.3276944389">
		<tag k="name" v="Roligheten" />
		<tag k="place" v="locality" />
		<tag k="ssr:stedsnr" v="145959" />
	</node>
	<node id="-14588" lat="59.7022777787" lon="11.3327694527">
		<tag k="name" v="Løkkeby" />
		<tag k="place" v="locality" />
		<tag k="ssr:stedsnr" v="145588" />
	</node>
	<node id="-14331" lat="59.6332166696" lon="11.2377166713">
		<tag k="name" v="Petterhytta" />
		<tag k="place" v="locality" />
		<tag k="ssr:stedsnr" v="327257" />
	</node>
	<node id="-15226" lat="59.6389694459" lon="11.3126361079">
		<tag k="name" v="Kirkeng" />
		<tag k="place" v="locality" />
		<tag k="ssr:stedsnr" v="873940" />
	</node>
	<node id="-15224" lat="59.6712972217" lon="11.4194500023">
		<tag k="name" v="Åser" />
		<tag k="place" v="locality" />
		<tag k="ssr:stedsnr" v="873909" />
	</node>
	<node id="-15095" lat="59.6561194454" lon="11.3807944388">
		<tag k="name" v="Haugbru" />
		<tag k="place" v="locality" />
		<tag k="ssr:stedsnr" v="752941" />
	</node>
	<node id="-14453" lat="59.6366305593" lon="11.3126500085">
		<tag k="amenity" v="place_of_worship" />
		<tag k="denomination" v="lutheran" />
		<tag k="name" v="Trøgstad kirke" />
		<tag k="religion" v="christian" />
		<tag k="ssr:stedsnr" v="3972" />
	</node>
	<node id="-15220" lat="59.632994448" lon="11.4327305479">
		<tag k="name" v="Pekstad" />
		<tag k="place" v="locality" />
		<tag k="ssr:stedsnr" v="873813" />
	</node>
	<node id="-15218" lat="59.6480166632" lon="11.2196083387">
		<tag k="name" v="Slottet" />
		<tag k="place" v="locality" />
		<tag k="ssr:stedsnr" v="873684" />
	</node>
	<node id="-14833" lat="59.6230499979" lon="11.4195972288">
		<tag k="name" v="Halltorp" />
		<tag k="place" v="locality" />
		<tag k="ssr:stedsnr" v="509796" />
	</node>
	<node id="-15086" lat="59.6383555571" lon="11.4545333362">
		<tag k="name" v="Moserud" />
		<tag k="place" v="locality" />
		<tag k="ssr:stedsnr" v="752803" />
	</node>
	<node id="-15213" lat="59.6436972261" lon="11.2687944396">
		<tag k="name" v="Verksholen" />
		<tag k="place" v="locality" />
		<tag k="ssr:stedsnr" v="873654" />
	</node>
	<node id="-15084" lat="59.733211113" lon="11.2855861108">
		<tag k="name" v="Tuåsen" />
		<tag k="place" v="locality" />
		<tag k="ssr:stedsnr" v="752639" />
	</node>
	<node id="-15210" lat="59.6526694465" lon="11.2615722167">
		<tag k="name" v="Sanddyna" />
		<tag k="place" v="locality" />
		<tag k="ssr:stedsnr" v="873643" />
	</node>
	<node id="-15126" lat="59.752575" lon="11.2764250048">
		<tag k="name" v="Bakken" />
		<tag k="place" v="locality" />
		<tag k="ssr:stedsnr" v="812690" />
	</node>
	<node id="-14444" lat="59.5873027792" lon="11.3092277712">
		<tag k="name" v="Hallerud" />
		<tag k="place" v="locality" />
		<tag k="ssr:stedsnr" v="266913" />
	</node>
	<node id="-14587" lat="59.7569194416" lon="11.320874998">
		<tag k="name" v="Hovelsrudbråtan" />
		<tag k="place" v="locality" />
		<tag k="ssr:stedsnr" v="145563" />
	</node>
	<node id="-15199" lat="59.6322388926" lon="11.2456694424">
		<tag k="name" v="Holtet" />
		<tag k="place" v="locality" />
		<tag k="ssr:stedsnr" v="873265" />
	</node>
	<node id="-15197" lat="59.7333249986" lon="11.3442555556">
		<tag k="name" v="Pappbråtan" />
		<tag k="place" v="locality" />
		<tag k="ssr:stedsnr" v="873533" />
	</node>
	<node id="-15196" lat="59.6794194406" lon="11.3958055545">
		<tag k="name" v="Vestli" />
		<tag k="place" v="locality" />
		<tag k="ssr:stedsnr" v="873520" />
	</node>
	<node id="-14427" lat="59.6090027748" lon="11.3104861022">
		<tag k="name" v="Kattesundet" />
		<tag k="place" v="locality" />
		<tag k="ssr:stedsnr" v="387999" />
	</node>
	<node id="-14552" lat="59.6467027775" lon="11.4506555604">
		<tag k="name" v="Blekket" />
		<tag k="place" v="locality" />
		<tag k="ssr:stedsnr" v="84830" />
	</node>
	<node id="-14423" lat="59.6343916652" lon="11.3108472177">
		<tag k="name" v="Rognerud" />
		<tag k="place" v="locality" />
		<tag k="ssr:stedsnr" v="387960" />
	</node>
	<node id="-15273" lat="59.6455250033" lon="11.2314027764">
		<tag k="name" v="Ilehøgda" />
		<tag k="place" v="locality" />
		<tag k="ssr:stedsnr" v="934670" />
	</node>
	<node id="-14408" lat="59.6437000016" lon="11.2535166602">
		<tag k="name" v="Vollene" />
		<tag k="place" v="locality" />
		<tag k="ssr:stedsnr" v="387676" />
	</node>
	<node id="-14407" lat="59.7576083362" lon="11.2793305608">
		<tag k="name" v="Grina" />
		<tag k="place" v="locality" />
		<tag k="ssr:stedsnr" v="387656" />
	</node>
	<node id="-14561" lat="59.7508305598" lon="11.3080277701">
		<tag k="name" v="Styggdråga" />
		<tag k="place" v="locality" />
		<tag k="ssr:stedsnr" v="85486" />
	</node>
	<node id="-14657" lat="59.7467750017" lon="11.2778805489">
		<tag k="name" v="Hagan" />
		<tag k="place" v="locality" />
		<tag k="ssr:stedsnr" v="206593" />
	</node>
	<node id="-15167" lat="59.58422778" lon="11.3027805526">
		<tag k="name" v="Myrene" />
		<tag k="place" v="locality" />
		<tag k="ssr:stedsnr" v="813883" />
	</node>
	<node id="-14654" lat="59.6812555518" lon="11.2982638948">
		<tag k="name" v="Vinhus" />
		<tag k="place" v="locality" />
		<tag k="ssr:stedsnr" v="206543" />
	</node>
	<node id="-14909" lat="59.7432583342" lon="11.3241638862">
		<tag k="name" v="Måsaby" />
		<tag k="place" v="locality" />
		<tag k="ssr:stedsnr" v="570495" />
	</node>
	<node id="-14394" lat="59.6583638884" lon="11.2276416587">
		<tag k="name" v="Elvestadsletta" />
		<tag k="place" v="locality" />
		<tag k="ssr:stedsnr" v="387722" />
	</node>
	<node id="-14393" lat="59.6731611127" lon="11.2553694525">
		<tag k="amenity" v="place_of_worship" />
		<tag k="denomination" v="lutheran" />
		<tag k="name" v="Bechs kapell" />
		<tag k="religion" v="christian" />
		<tag k="ssr:stedsnr" v="387720" />
	</node>
	<node id="-14392" lat="59.6494750025" lon="11.2268555532">
		<tag k="name" v="Farvelgrinda" />
		<tag k="place" v="locality" />
		<tag k="ssr:stedsnr" v="387713" />
	</node>
	<node id="-15154" lat="59.7355305583" lon="11.3575777711">
		<tag k="name" v="Tjernsmo" />
		<tag k="place" v="locality" />
		<tag k="ssr:stedsnr" v="813508" />
	</node>
	<node id="-14641" lat="59.6537722187" lon="11.2372055507">
		<tag k="name" v="Vaskestedet" />
		<tag k="place" v="locality" />
		<tag k="ssr:stedsnr" v="206678" />
	</node>
	<node id="-15152" lat="59.6633666669" lon="11.3690027689">
		<tag k="name" v="Verkhaugen" />
		<tag k="place" v="locality" />
		<tag k="ssr:stedsnr" v="813494" />
	</node>
	<node id="-14638" lat="59.6437555546" lon="11.250236115">
		<tag k="name" v="Galteryggen" />
		<tag k="place" v="locality" />
		<tag k="ssr:stedsnr" v="206654" />
	</node>
	<node id="-15069" lat="59.643102776" lon="11.3191305579">
		<tag k="name" v="Vesle-Skrammerud" />
		<tag k="place" v="locality" />
		<tag k="ssr:stedsnr" v="752478" />
	</node>
	<node id="-15019" lat="59.6437861071" lon="11.2173416716">
		<tag k="name" v="Nordeng" />
		<tag k="place" v="locality" />
		<tag k="ssr:stedsnr" v="691704" />
	</node>
	<node id="-14983" lat="59.7276388873" lon="11.2924277814">
		<tag k="name" v="Pesate" />
		<tag k="place" v="locality" />
		<tag k="ssr:stedsnr" v="631550" />
	</node>
	<node id="-14760" lat="59.6395694435" lon="11.2255083375">
		<tag k="name" v="Bjerkli" />
		<tag k="place" v="locality" />
		<tag k="ssr:stedsnr" v="448745" />
	</node>
	<node id="-15271" lat="59.6187333296" lon="11.2806388852">
		<tag k="name" v="Pepperhusa" />
		<tag k="place" v="locality" />
		<tag k="ssr:stedsnr" v="934657" />
	</node>
	<node id="-15270" lat="59.6550999975" lon="11.2362277825">
		<tag k="name" v="Hvitensand" />
		<tag k="place" v="locality" />
		<tag k="ssr:stedsnr" v="934650" />
	</node>
	<node id="-15128" lat="59.6410722235" lon="11.2745972177">
		<tag k="name" v="Høybakke" />
		<tag k="place" v="locality" />
		<tag k="ssr:stedsnr" v="812712" />
	</node>
	<node id="-14939" lat="59.6333749957" lon="11.2656833304">
		<tag k="name" v="Grinda" />
		<tag k="place" v="locality" />
		<tag k="ssr:stedsnr" v="630254" />
	</node>
	<node id="-15260" lat="59.6798916664" lon="11.3930861131">
		<tag k="name" v="Nygård" />
		<tag k="place" v="locality" />
		<tag k="ssr:stedsnr" v="934457" />
	</node>
	<node id="-14514" lat="59.694988885" lon="11.2952611052">
		<tag k="amenity" v="place_of_worship" />
		<tag k="denomination" v="lutheran" />
		<tag k="name" v="Båstad kirke" />
		<tag k="religion" v="christian" />
		<tag k="ssr:stedsnr" v="64851" />
	</node>
	<node id="-15129" lat="59.6328138855" lon="11.2261249943">
		<tag k="name" v="Bøkkelstadheia" />
		<tag k="place" v="locality" />
		<tag k="ssr:stedsnr" v="812713" />
	</node>
	<node id="-14616" lat="59.6230027785" lon="11.3919277839">
		<tag k="name" v="Knarrestad" />
		<tag k="place" v="locality" />
		<tag k="ssr:stedsnr" v="145985" />
	</node>
	<node id="-14663" lat="59.6548444451" lon="11.2072972233">
		<tag k="name" v="Holshytta" />
		<tag k="place" v="locality" />
		<tag k="ssr:stedsnr" v="206729" />
	</node>
	<node id="-14486" lat="59.6586138862" lon="11.2250305567">
		<tag k="name" v="Gåsenakken" />
		<tag k="place" v="locality" />
		<tag k="ssr:stedsnr" v="24733" />
	</node>
	<node id="-15125" lat="59.7571222205" lon="11.285724993">
		<tag k="name" v="Gaukelund" />
		<tag k="place" v="locality" />
		<tag k="ssr:stedsnr" v="812687" />
	</node>
	<node id="-14830" lat="59.6503694408" lon="11.2089888807">
		<tag k="name" v="Askelia" />
		<tag k="place" v="locality" />
		<tag k="ssr:stedsnr" v="509690" />
	</node>
	<node id="-14735" lat="59.6075722192" lon="11.3029444528">
		<tag k="name" v="Bråteneset" />
		<tag k="place" v="locality" />
		<tag k="ssr:stedsnr" v="266998" />
	</node>
	<node id="-14829" lat="59.6474361121" lon="11.2388583399">
		<tag k="name" v="Riholen" />
		<tag k="place" v="locality" />
		<tag k="ssr:stedsnr" v="509673" />
	</node>
	<node id="-14348" lat="59.6120472191" lon="11.450380564">
		<tag k="name" v="Sørli" />
		<tag k="place" v="locality" />
		<tag k="ssr:stedsnr" v="327812" />
	</node>
	<node id="-14345" lat="59.6503250042" lon="11.2067333267">
		<tag k="name" v="Grønnbakke" />
		<tag k="place" v="locality" />
		<tag k="ssr:stedsnr" v="327701" />
	</node>
	<node id="-14344" lat="59.6474194415" lon="11.2172083395">
		<tag k="name" v="Lurele" />
		<tag k="place" v="locality" />
		<tag k="ssr:stedsnr" v="327689" />
	</node>
	<node id="-14828" lat="59.6485833344" lon="11.1927750056">
		<tag k="name" v="Opp og ned" />
		<tag k="place" v="locality" />
		<tag k="ssr:stedsnr" v="509652" />
	</node>
	<node id="-14401" lat="59.713288885" lon="11.3384277738">
		<tag k="name" v="Rauveien" />
		<tag k="place" v="locality" />
		<tag k="ssr:stedsnr" v="387609" />
	</node>
	<node id="-14724" lat="59.6509277819" lon="11.2400694442">
		<tag k="name" v="Løytnantsberget" />
		<tag k="place" v="locality" />
		<tag k="ssr:stedsnr" v="266691" />
	</node>
	<node id="-14723" lat="59.6521888869" lon="11.191519449">
		<tag k="name" v="Hagalykkja" />
		<tag k="place" v="locality" />
		<tag k="ssr:stedsnr" v="266678" />
	</node>
	<node id="-14850" lat="59.7237055586" lon="11.2529222289">
		<tag k="name" v="Sagbakken" />
		<tag k="place" v="locality" />
		<tag k="ssr:stedsnr" v="510680" />
	</node>
</osm>
