<?xml version="1.0" encoding="UTF-8"?>
<osm generator="osmapis" version="0.6">
	<node id="-14332" lat="59.6768083305" lon="11.412672227">
		<tag k="alt_name" v="Skjertjernet" />
		<tag k="name" v="Skjærtjern" />
		<tag k="natural" v="water" />
		<tag k="ssr:stedsnr" v="307804" />
	</node>
	<node id="-14843" lat="59.6639398591" lon="11.450617219">
		<tag k="name" v="Asketjern" />
		<tag k="natural" v="water" />
		<tag k="ssr:stedsnr" v="509233" />
		<tag k="water" v="lake" />
	</node>
	<node id="-14842" lat="59.6127638887" lon="11.4696527826">
		<tag k="name" v="Nybånntjern" />
		<tag k="natural" v="water" />
		<tag k="ssr:stedsnr" v="509224" />
	</node>
	<node id="-14322" lat="59.618302782" lon="11.4725749935">
		<tag k="alt_name" v="Lierdamtjern øvre" />
		<tag k="name" v="Damtjern" />
		<tag k="natural" v="water" />
		<tag k="ssr:stedsnr" v="307320" />
	</node>
	<node id="-14321" lat="59.653638893" lon="11.4692499989">
		<tag k="name" v="Delingsvika" />
		<tag k="natural" v="bay" />
		<tag k="ssr:stedsnr" v="279817" />
	</node>
	<node id="-14832" lat="59.6225277813" lon="11.4019277867">
		<tag k="name" v="Grefslisjøen" />
		<tag k="natural" v="water" />
		<tag k="ssr:stedsnr" v="489919" />
		<tag k="water" v="lake" />
	</node>
	<node id="-14823" lat="59.6671444432" lon="11.4182611131">
		<tag k="alt_name" v="Nordbråtetjern" />
		<tag k="name" v="Bråtetjern" />
		<tag k="natural" v="water" />
		<tag k="ssr:stedsnr" v="489789" />
	</node>
	<node id="-14819" lat="59.5962750036" lon="11.292772226">
		<tag k="name" v="Stuputbekken" />
		<tag k="ssr:stedsnr" v="489625" />
		<tag k="waterway" v="stream" />
	</node>
	<node id="-15324" lat="59.7487638898" lon="11.3399805612">
		<tag k="name" v="Hagatjern" />
		<tag k="natural" v="water" />
		<tag k="ssr:stedsnr" v="935572" />
		<tag k="water" v="lake" />
	</node>
	<node id="-14809" lat="59.659369449" lon="11.4646444382">
		<tag k="name" v="Tangevika" />
		<tag k="natural" v="bay" />
		<tag k="ssr:stedsnr" v="449895" />
	</node>
	<node id="-14414" lat="59.7681777777" lon="11.2601694454">
		<tag k="name" v="Teigsåa" />
		<tag k="ssr:stedsnr" v="368898" />
		<tag k="waterway" v="stream" />
	</node>
	<node id="-14799" lat="59.7083694485" lon="11.3552944401">
		<tag k="name" v="Skreddertjern" />
		<tag k="natural" v="water" />
		<tag k="ssr:stedsnr" v="449578" />
		<tag k="water" v="lake" />
	</node>
	<node id="-15308" lat="59.6198189501" lon="11.4656343564">
		<tag k="name" v="Mellem Lierdamtjern" />
		<tag k="natural" v="water" />
		<tag k="ssr:stedsnr" v="934797" />
		<tag k="water" v="lake" />
	</node>
	<node id="-14792" lat="59.699223133" lon="11.3468552815">
		<tag k="name" v="Lintotjern" />
		<tag k="natural" v="water" />
		<tag k="ssr:stedsnr" v="449458" />
		<tag k="water" v="lake" />
	</node>
	<node id="-15303" lat="59.6787166676" lon="11.2504138916">
		<tag k="name" v="Agnesvika" />
		<tag k="natural" v="bay" />
		<tag k="ssr:stedsnr" v="934683" />
	</node>
	<node id="-14785" lat="59.7133305514" lon="11.2559750025">
		<tag k="name" v="Grønntangen" />
		<tag k="natural" v="cape" />
		<tag k="ssr:stedsnr" v="448669" />
	</node>
	<node id="-14784" lat="59.7460611145" lon="11.2666361069">
		<tag k="name" v="Lundsåa" />
		<tag k="natural" v="bay" />
		<tag k="ssr:stedsnr" v="448664" />
	</node>
	<node id="-15291" lat="59.7052666635" lon="11.3569944411">
		<tag k="name" v="Vikstjern" />
		<tag k="natural" v="water" />
		<tag k="ssr:stedsnr" v="934544" />
		<tag k="water" v="lake" />
	</node>
	<node id="-15286" lat="59.7585861111" lon="11.3041305542">
		<tag k="name" v="Krokedalsbekken" />
		<tag k="ssr:stedsnr" v="934255" />
		<tag k="waterway" v="stream" />
	</node>
	<node id="-14772" lat="59.721691671" lon="11.3612083286">
		<tag k="alt_name" v="Måstadtjernet" />
		<tag k="name" v="Måstadtjern" />
		<tag k="natural" v="water" />
		<tag k="old_name" v="Mastadtjernet" />
		<tag k="ssr:stedsnr" v="429092" />
	</node>
	<node id="-14771" lat="59.7262583321" lon="11.2494250006">
		<tag k="alt_name" v="Hanseholmen" />
		<tag k="name" v="Hansholmen" />
		<tag k="place" v="islet" />
		<tag k="ssr:stedsnr" v="429079" />
	</node>
	<node id="-14579" lat="59.6558888859" lon="11.2028027819">
		<tag k="name" v="Holsvika" />
		<tag k="natural" v="bay" />
		<tag k="ssr:stedsnr" v="84733" />
	</node>
	<node id="-14767" lat="59.6971333353" lon="11.2302333413">
		<tag k="name" v="Øyeren" />
		<tag k="natural" v="water" />
		<tag k="ssr:stedsnr" v="428839" />
		<tag k="water" v="lake" />
	</node>
	<node id="-15274" lat="59.7114166647" lon="11.2572999971">
		<tag k="name" v="Dammerudbekken" />
		<tag k="ssr:stedsnr" v="914859" />
		<tag k="waterway" v="stream" />
	</node>
	<node id="-14754" lat="59.7143277735" lon="11.2475611161">
		<tag k="name" v="Gillingsrudnabben" />
		<tag k="natural" v="cape" />
		<tag k="ssr:stedsnr" v="266700" />
	</node>
	<node id="-15264" lat="59.6639361137" lon="11.3904888877">
		<tag k="alt_name" v="Kallakken" />
		<tag k="name" v="Kallaksjøen" />
		<tag k="natural" v="water" />
		<tag k="ssr:stedsnr" v="914778" />
	</node>
	<node id="-15258" lat="59.724180555" lon="11.2492000028">
		<tag k="name" v="Gåseholmen" />
		<tag k="place" v="islet" />
		<tag k="ssr:stedsnr" v="874664" />
	</node>
	<node id="-15255" lat="59.654277776" lon="11.3759416745">
		<tag k="name" v="Hærseterøya" />
		<tag k="natural" v="cape" />
		<tag k="ssr:stedsnr" v="873950" />
	</node>
	<node id="-14742" lat="59.7069083327" lon="11.3576277692">
		<tag k="name" v="Fela" />
		<tag k="natural" v="water" />
		<tag k="ssr:stedsnr" v="266589" />
		<tag k="water" v="lake" />
	</node>
	<node id="-15239" lat="59.6494472208" lon="11.253066672">
		<tag k="name" v="Rudslandet" />
		<tag k="natural" v="beach" />
		<tag k="ssr:stedsnr" v="873647" />
	</node>
	<node id="-15229" lat="59.6351833306" lon="11.251011118">
		<tag k="name" v="Kvernhusbekken" />
		<tag k="ssr:stedsnr" v="873273" />
		<tag k="waterway" v="stream" />
	</node>
	<node id="-15219" lat="59.6413083323" lon="11.4631916671">
		<tag k="name" v="Gyltetjernet" />
		<tag k="natural" v="water" />
		<tag k="ssr:stedsnr" v="854982" />
	</node>
	<node id="-14704" lat="59.6618663246" lon="11.4320458953">
		<tag k="name" v="Linntjern" />
		<tag k="natural" v="water" />
		<tag k="ssr:stedsnr" v="206914" />
		<tag k="water" v="lake" />
	</node>
	<node id="-14698" lat="59.6215916698" lon="11.4391750033">
		<tag k="name" v="Abbortjern" />
		<tag k="natural" v="water" />
		<tag k="ssr:stedsnr" v="206825" />
	</node>
	<node id="-14688" lat="59.7042249963" lon="11.242669437">
		<tag k="name" v="Nøkkevika" />
		<tag k="natural" v="bay" />
		<tag k="ssr:stedsnr" v="206705" />
	</node>
	<node id="-14686" lat="59.7170111115" lon="11.2504083314">
		<tag k="name" v="Tjoretangen" />
		<tag k="natural" v="cape" />
		<tag k="ssr:stedsnr" v="206598" />
	</node>
	<node id="-14677" lat="59.6482499992" lon="11.3008694444">
		<tag k="name" v="Sønnabekken" />
		<tag k="ssr:stedsnr" v="206491" />
		<tag k="waterway" v="stream" />
	</node>
	<node id="-15187" lat="59.7085805514" lon="11.3676472278">
		<tag k="name" v="Gjeddeskjærtjern" />
		<tag k="natural" v="water" />
		<tag k="ssr:stedsnr" v="813555" />
	</node>
	<node id="-14563" lat="59.7205596926" lon="11.3530977173">
		<tag k="name" v="Lindtjern" />
		<tag k="natural" v="water" />
		<tag k="ssr:stedsnr" v="84615" />
		<tag k="water" v="lake" />
	</node>
	<node id="-14588" lat="59.6248416658" lon="11.397397227">
		<tag k="name" v="Sandvikøya" />
		<tag k="place" v="island" />
		<tag k="ssr:stedsnr" v="84995" />
	</node>
	<node id="-14665" lat="59.7285361145" lon="11.248780553">
		<tag k="name" v="Johannesskjæret" />
		<tag k="place" v="islet" />
		<tag k="ssr:stedsnr" v="206623" />
	</node>
	<node id="-14663" lat="59.6511885793" lon="11.26134054">
		<tag k="alt_name" v="Mønsteret" />
		<tag k="name" v="Mønstervika" />
		<tag k="natural" v="bay" />
		<tag k="ssr:stedsnr" v="186995" />
	</node>
	<node id="-15168" lat="59.6674083323" lon="11.4314583255">
		<tag k="name" v="Svarthølet" />
		<tag k="natural" v="water" />
		<tag k="ssr:stedsnr" v="812934" />
		<tag k="water" v="lake" />
	</node>
	<node id="-14654" lat="59.6505333355" lon="11.3824888906">
		<tag k="alt_name" v="Dilleviksjøen" />
		<tag k="name" v="Hærsetsjøen" />
		<tag k="natural" v="water" />
		<tag k="ssr:stedsnr" v="186774" />
	</node>
	<node id="-15161" lat="59.6176202883" lon="11.4463668585">
		<tag k="name" v="Gørdryppelen" />
		<tag k="natural" v="water" />
		<tag k="ssr:stedsnr" v="812848" />
		<tag k="water" v="lake" />
	</node>
	<node id="-15160" lat="59.6215083378" lon="11.4647972205">
		<tag k="name" v="Tyrihjellvika" />
		<tag k="natural" v="bay" />
		<tag k="ssr:stedsnr" v="812841" />
	</node>
	<node id="-15159" lat="59.6206722238" lon="11.4595388835">
		<tag k="name" v="Askedalsbekken" />
		<tag k="ssr:stedsnr" v="812838" />
		<tag k="waterway" v="stream" />
	</node>
	<node id="-14643" lat="59.6304277767" lon="11.3308333277">
		<tag k="name" v="Håtjern" />
		<tag k="natural" v="water" />
		<tag k="ssr:stedsnr" v="145973" />
		<tag k="water" v="lake" />
	</node>
	<node id="-14638" lat="59.6516250005" lon="11.3630999949">
		<tag k="name" v="Bustebekken" />
		<tag k="ssr:stedsnr" v="145948" />
		<tag k="waterway" v="stream" />
	</node>
	<node id="-14630" lat="59.5992555566" lon="11.3494444361">
		<tag k="name" v="Skrikerudtjern" />
		<tag k="natural" v="water" />
		<tag k="ssr:stedsnr" v="145873" />
		<tag k="water" v="lake" />
	</node>
	<node id="-14627" lat="59.6261777821" lon="11.4730500008">
		<tag k="name" v="Søndre Haugetjern" />
		<tag k="natural" v="water" />
		<tag k="ssr:stedsnr" v="145823" />
	</node>
	<node id="-15138" lat="59.6227611113" lon="11.4891666639">
		<tag k="alt_name" v="Damtjern, m" />
		<tag k="name" v="Mellom-Nesdamtjern" />
		<tag k="natural" v="water" />
		<tag k="ssr:stedsnr" v="793284" />
	</node>
	<node id="-14624" lat="59.6602805534" lon="11.2273611035">
		<tag k="name" v="Gåsa" />
		<tag k="place" v="island" />
		<tag k="ssr:stedsnr" v="145707" />
	</node>
	<node id="-15135" lat="59.6237527791" lon="11.2644111181">
		<tag k="fixme" v="multiple name tags, choose one and add the other to alt_name" />
		<tag k="name" v="Smalelva;Vestelva" />
		<tag k="ssr:stedsnr" v="792938" />
		<tag k="waterway" v="stream" />
	</node>
	<node id="-15133" lat="59.6979000001" lon="11.3524944385">
		<tag k="alt_name" v="Stortjernet" />
		<tag k="name" v="Stortjern" />
		<tag k="natural" v="water" />
		<tag k="ssr:stedsnr" v="792825" />
	</node>
	<node id="-15128" lat="59.748669449" lon="11.3401333264">
		<tag k="name" v="Holmetjern" />
		<tag k="natural" v="water" />
		<tag k="ssr:stedsnr" v="792067" />
	</node>
	<node id="-15118" lat="59.5987201855" lon="11.3928581256">
		<tag k="name" v="Autentjern" />
		<tag k="natural" v="water" />
		<tag k="ssr:stedsnr" v="752880" />
		<tag k="water" v="lake" />
	</node>
	<node id="-15115" lat="59.617455552" lon="11.4557388906">
		<tag k="name" v="Håkonussen" />
		<tag k="natural" v="bay" />
		<tag k="ssr:stedsnr" v="752810" />
	</node>
	<node id="-14602" lat="59.7604408274" lon="11.2475974197">
		<tag k="fixme" v="multiple name tags, choose one and add the other to alt_name" />
		<tag k="name" v="Nordseterholmen;Seterholmen" />
		<tag k="place" v="islet" />
		<tag k="ssr:stedsnr" v="125914" />
	</node>
	<node id="-15110" lat="59.7405305541" lon="11.257558335">
		<tag k="name" v="Lundskjæret" />
		<tag k="place" v="islet" />
		<tag k="ssr:stedsnr" v="752613" />
	</node>
	<node id="-14595" lat="59.668675003" lon="11.2496833314">
		<tag k="name" v="Sandstangen" />
		<tag k="natural" v="cape" />
		<tag k="ssr:stedsnr" v="125826" />
	</node>
	<node id="-15106" lat="59.7497583312" lon="11.2574888828">
		<tag k="name" v="Trosvika" />
		<tag k="natural" v="bay" />
		<tag k="ssr:stedsnr" v="752588" />
	</node>
	<node id="-14592" lat="59.6410083345" lon="11.2656638844">
		<tag k="name" v="Østelva" />
		<tag k="ssr:stedsnr" v="124971" />
		<tag k="waterway" v="stream" />
	</node>
	<node id="-14590" lat="59.6402527802" lon="11.4920416664">
		<tag k="name" v="Øya" />
		<tag k="natural" v="cape" />
		<tag k="ssr:stedsnr" v="98100" />
	</node>
	<node id="-15100" lat="59.7467027744" lon="11.3224638808">
		<tag k="name" v="Måsabytjern" />
		<tag k="natural" v="water" />
		<tag k="ssr:stedsnr" v="752535" />
		<tag k="water" v="lake" />
	</node>
	<node id="-14585" lat="59.6253777803" lon="11.3474388921">
		<tag k="name" v="Olatjern" />
		<tag k="natural" v="water" />
		<tag k="ssr:stedsnr" v="84987" />
		<tag k="water" v="lake" />
	</node>
	<node id="-15094" lat="59.7005112268" lon="11.358259108">
		<tag k="name" v="Svarttjern" />
		<tag k="natural" v="water" />
		<tag k="ssr:stedsnr" v="752457" />
		<tag k="water" v="lake" />
	</node>
	<node id="-15092" lat="59.6209916665" lon="11.4597027738">
		<tag k="name" v="Spontjern" />
		<tag k="natural" v="water" />
		<tag k="ssr:stedsnr" v="752214" />
	</node>
	<node id="-15091" lat="59.6061046495" lon="11.4775114677">
		<tag k="name" v="Kavringtjern" />
		<tag k="natural" v="water" />
		<tag k="ssr:stedsnr" v="752212" />
	</node>
	<node id="-14577" lat="59.6603638853" lon="11.2225194523">
		<tag k="name" v="Mørkfoss" />
		<tag k="natural" v="waterfall" />
		<tag k="ssr:stedsnr" v="84721" />
	</node>
	<node id="-14573" lat="59.7380916658" lon="11.2704194368">
		<tag k="name" v="Klufterudbekken" />
		<tag k="ssr:stedsnr" v="84685" />
		<tag k="waterway" v="stream" />
	</node>
	<node id="-14565" lat="59.7161916666" lon="11.2510638924">
		<tag k="name" v="Vinterlandet" />
		<tag k="natural" v="beach" />
		<tag k="ssr:stedsnr" v="84647" />
	</node>
	<node id="-14564" lat="59.6856305592" lon="11.2442166746">
		<tag k="name" v="Tangen" />
		<tag k="natural" v="cape" />
		<tag k="ssr:stedsnr" v="84634" />
	</node>
	<node id="-15075" lat="59.6245694465" lon="11.4810000004">
		<tag k="alt_name" v="Damtjern, øvre" />
		<tag k="name" v="Øvre Nesdamtjern" />
		<tag k="natural" v="water" />
		<tag k="ssr:stedsnr" v="732289" />
	</node>
	<node id="-15074" lat="59.7483805583" lon="11.3087999995">
		<tag k="alt_name" v="Langtjern" />
		<tag k="name" v="Langtjernet" />
		<tag k="natural" v="water" />
		<tag k="ssr:stedsnr" v="732071" />
	</node>
	<node id="-14554" lat="59.6351194421" lon="11.3356638823">
		<tag k="name" v="Gravstjern" />
		<tag k="natural" v="water" />
		<tag k="ssr:stedsnr" v="84275" />
		<tag k="water" v="lake" />
	</node>
	<node id="-15065" lat="59.6384463513" lon="11.389815075">
		<tag k="name" v="Skottasjøen" />
		<tag k="natural" v="water" />
		<tag k="ssr:stedsnr" v="691935" />
		<tag k="water" v="lake" />
	</node>
	<node id="-15063" lat="59.6774005033" lon="11.4096954709">
		<tag k="name" v="Skjærvengen" />
		<tag k="natural" v="water" />
		<tag k="ssr:stedsnr" v="691896" />
		<tag k="water" v="lake" />
	</node>
	<node id="-15041" lat="59.704211109" lon="11.3518027773">
		<tag k="name" v="Grastjern" />
		<tag k="natural" v="water" />
		<tag k="ssr:stedsnr" v="691583" />
		<tag k="water" v="lake" />
	</node>
	<node id="-14623" lat="59.6796166634" lon="11.2476138935">
		<tag k="name" v="Agnestangen" />
		<tag k="natural" v="cape" />
		<tag k="ssr:stedsnr" v="145702" />
	</node>
	<node id="-15029" lat="59.6180611136" lon="11.4596444452">
		<tag k="alt_name" v="Lierdamtjern nedre" />
		<tag k="name" v="Lier-Damtjern" />
		<tag k="natural" v="water" />
		<tag k="ssr:stedsnr" v="671921" />
	</node>
	<node id="-14511" lat="59.6483888925" lon="11.2451888965">
		<tag k="name" v="Bergerleira" />
		<tag k="natural" v="beach" />
		<tag k="ssr:stedsnr" v="24701" />
	</node>
	<node id="-15021" lat="59.6580777823" lon="11.3847305514">
		<tag k="name" v="Hæra" />
		<tag k="ssr:stedsnr" v="671772" />
		<tag k="waterway" v="river" />
	</node>
	<node id="-14504" lat="59.7381416688" lon="11.3406972252">
		<tag k="name" v="Svartebekk" />
		<tag k="ssr:stedsnr" v="24559" />
		<tag k="waterway" v="stream" />
	</node>
	<node id="-15014" lat="59.6562666625" lon="11.4700277863">
		<tag k="name" v="Rundflu" />
		<tag k="place" v="island" />
		<tag k="ssr:stedsnr" v="643805" />
	</node>
	<node id="-14496" lat="59.6195527772" lon="11.4056722216">
		<tag k="name" v="Faugliholmen" />
		<tag k="natural" v="cape" />
		<tag k="ssr:stedsnr" v="24230" />
	</node>
	<node id="-14999" lat="59.5816361105" lon="11.3024972194">
		<tag k="name" v="Blekkemyrsbekken" />
		<tag k="ssr:stedsnr" v="630886" />
		<tag k="waterway" v="stream" />
	</node>
	<node id="-14482" lat="59.7354083355" lon="11.2595777708">
		<tag k="name" v="Nesodden" />
		<tag k="natural" v="cape" />
		<tag k="ssr:stedsnr" v="4107" />
	</node>
	<node id="-14990" lat="59.6164888918" lon="11.4727083318">
		<tag k="name" v="Setervika" />
		<tag k="natural" v="bay" />
		<tag k="ssr:stedsnr" v="630776" />
	</node>
	<node id="-14474" lat="59.7394598023" lon="11.3402256946">
		<tag k="name" v="Ørekytetjern" />
		<tag k="natural" v="water" />
		<tag k="ssr:stedsnr" v="267510" />
		<tag k="water" v="lake" />
	</node>
	<node id="-14984" lat="59.6551472232" lon="11.2601777811">
		<tag k="name" v="Kaninøya" />
		<tag k="place" v="island" />
		<tag k="ssr:stedsnr" v="630625" />
	</node>
	<node id="-14980" lat="59.73104444" lon="11.2596416708">
		<tag k="name" v="Sørvika" />
		<tag k="natural" v="bay" />
		<tag k="ssr:stedsnr" v="630593" />
	</node>
	<node id="-14973" lat="59.6999709982" lon="11.3557678919">
		<tag k="name" v="Blåtjern" />
		<tag k="natural" v="water" />
		<tag k="ssr:stedsnr" v="630459" />
		<tag k="water" v="lake" />
	</node>
	<node id="-14458" lat="59.6560666703" lon="11.4634972261">
		<tag k="name" v="Bingsvika" />
		<tag k="natural" v="bay" />
		<tag k="ssr:stedsnr" v="400817" />
	</node>
	<node id="-14453" lat="59.6239111082" lon="11.383513894">
		<tag k="alt_name" v="Langsetertjern" />
		<tag k="name" v="Langsettjern" />
		<tag k="natural" v="water" />
		<tag k="ssr:stedsnr" v="387990" />
		<tag k="water" v="lake" />
	</node>
	<node id="-14961" lat="59.6238628006" lon="11.4537818623">
		<tag k="fixme" v="multiple name tags, choose one and add the other to alt_name" />
		<tag k="name" v="Kroktjern;Krokvannet" />
		<tag k="natural" v="water" />
		<tag k="ssr:stedsnr" v="610957" />
	</node>
	<node id="-14446" lat="59.6648636943" lon="11.4448773151">
		<tag k="name" v="Abbortjern" />
		<tag k="natural" v="water" />
		<tag k="ssr:stedsnr" v="387920" />
		<tag k="water" v="lake" />
	</node>
	<node id="-14955" lat="59.7136416634" lon="11.2517416648">
		<tag k="name" v="Eikhaugvika" />
		<tag k="natural" v="bay" />
		<tag k="ssr:stedsnr" v="610883" />
	</node>
	<node id="-14442" lat="59.5983916705" lon="11.3354361145">
		<tag k="name" v="Tjernsbekken" />
		<tag k="ssr:stedsnr" v="387876" />
		<tag k="waterway" v="stream" />
	</node>
	<node id="-14434" lat="59.7273361122" lon="11.2685166673">
		<tag k="name" v="Trollerudbekken" />
		<tag k="ssr:stedsnr" v="387645" />
		<tag k="waterway" v="stream" />
	</node>
	<node id="-14941" lat="59.6228138863" lon="11.4972388816">
		<tag k="alt_name" v="Damtjern, nedre" />
		<tag k="name" v="Nedre Nesdamtjern" />
		<tag k="natural" v="water" />
		<tag k="ssr:stedsnr" v="610318" />
	</node>
	<node id="-14926" lat="59.589488891" lon="11.3288666747">
		<tag k="name" v="Geiterudbekken" />
		<tag k="ssr:stedsnr" v="569876" />
		<tag k="waterway" v="stream" />
	</node>
	<node id="-14925" lat="59.6145888931" lon="11.3911166665">
		<tag k="name" v="Risbråtebekken" />
		<tag k="ssr:stedsnr" v="569868" />
		<tag k="waterway" v="stream" />
	</node>
	<node id="-14922" lat="59.5996805536" lon="11.4712972258">
		<tag k="name" v="Butjern" />
		<tag k="natural" v="water" />
		<tag k="ssr:stedsnr" v="569842" />
	</node>
	<node id="-14921" lat="59.6287611078" lon="11.4898416724">
		<tag k="name" v="Haratjern" />
		<tag k="natural" v="water" />
		<tag k="ssr:stedsnr" v="569831" />
	</node>
	<node id="-14918" lat="59.628947225" lon="11.4694750013">
		<tag k="name" v="Nordre Haugetjern" />
		<tag k="natural" v="water" />
		<tag k="ssr:stedsnr" v="569807" />
	</node>
	<node id="-14405" lat="59.72996667" lon="11.2521500068">
		<tag k="name" v="Bukkeholmen" />
		<tag k="place" v="islet" />
		<tag k="ssr:stedsnr" v="368108" />
	</node>
	<node id="-14774" lat="59.7344749996" lon="11.3557944415">
		<tag k="alt_name" v="Stikletjernet" />
		<tag k="name" v="Stiklatjern" />
		<tag k="natural" v="water" />
		<tag k="ssr:stedsnr" v="429117" />
	</node>
	<node id="-14913" lat="59.7371111088" lon="11.2678972269">
		<tag k="name" v="Kopperudvika" />
		<tag k="natural" v="bay" />
		<tag k="ssr:stedsnr" v="569674" />
	</node>
	<node id="-14517" lat="59.6268861072" lon="11.4629722179">
		<tag k="name" v="Småtjerna" />
		<tag k="natural" v="water" />
		<tag k="ssr:stedsnr" v="24832" />
	</node>
	<node id="-14393" lat="59.6467666663" lon="11.4769611058">
		<tag k="name" v="Hestevika" />
		<tag k="natural" v="bay" />
		<tag k="ssr:stedsnr" v="340804" />
	</node>
	<node id="-14903" lat="59.6643611144" lon="11.3791222236">
		<tag k="name" v="Bruneset" />
		<tag k="natural" v="cape" />
		<tag k="ssr:stedsnr" v="569538" />
	</node>
	<node id="-14375" lat="59.6292500031" lon="11.4620472139">
		<tag k="name" v="Bingslitjern" />
		<tag k="natural" v="water" />
		<tag k="ssr:stedsnr" v="327782" />
	</node>
	<node id="-14370" lat="59.7336750008" lon="11.2640194459">
		<tag k="name" v="Nordvika" />
		<tag k="natural" v="bay" />
		<tag k="ssr:stedsnr" v="327635" />
	</node>
	<node id="-14871" lat="59.6577666675" lon="11.3240500072">
		<tag k="name" v="Skvalderbekken" />
		<tag k="ssr:stedsnr" v="509922" />
		<tag k="waterway" v="stream" />
	</node>
	<node id="-14854" lat="59.7027323717" lon="11.3498458853">
		<tag k="name" v="Kulpa" />
		<tag k="natural" v="water" />
		<tag k="ssr:stedsnr" v="509557" />
		<tag k="water" v="lake" />
	</node>
	<node id="-14853" lat="59.703841663" lon="11.3669027772">
		<tag k="name" v="Djupedaltjern" />
		<tag k="natural" v="water" />
		<tag k="ssr:stedsnr" v="509555" />
	</node>
	<node id="-14852" lat="59.7110416696" lon="11.3646027837">
		<tag k="name" v="Janetjern" />
		<tag k="natural" v="water" />
		<tag k="ssr:stedsnr" v="509553" />
		<tag k="water" v="lake" />
	</node>
</osm>
