<?xml version="1.0" encoding="UTF-8"?>
<osm generator="osmapis" version="0.6">
	<node id="-14334" lat="59.704126803" lon="11.3630992441">
		<tag k="fixme" v="multiple name tags, choose one and add the other to alt_name; consider natural=peak for the most distinct mountains in the district" />
		<tag k="name" v="Vikstjernåsen;Viktjernhøgda" />
		<tag k="natural" v="hill" />
		<tag k="place" v="locality" />
		<tag k="ssr:stedsnr" v="307857" />
	</node>
	<node id="-15310" lat="59.6075944404" lon="11.4338888946">
		<tag k="fixme" v="consider natural=peak for the most distinct mountains in the district" />
		<tag k="name" v="Beljeåsen" />
		<tag k="natural" v="hill" />
		<tag k="place" v="locality" />
		<tag k="ssr:stedsnr" v="934814" />
	</node>
	<node id="-14330" lat="59.6624416627" lon="11.350399994">
		<tag k="fixme" v="consider natural=peak for the most distinct mountains in the district" />
		<tag k="name" v="Brattåsen" />
		<tag k="natural" v="hill" />
		<tag k="place" v="locality" />
		<tag k="ssr:stedsnr" v="307775" />
	</node>
	<node id="-14841" lat="59.7527305554" lon="11.3115916618">
		<tag k="alt_name" v="Lauvbærhøgda" />
		<tag k="fixme" v="consider natural=peak for the most distinct mountains in the district" />
		<tag k="name" v="Lauvberghøgda" />
		<tag k="natural" v="hill" />
		<tag k="place" v="locality" />
		<tag k="ssr:stedsnr" v="490904" />
	</node>
	<node id="-14320" lat="59.6463722206" lon="11.4596444531">
		<tag k="name" v="Soldaterbakken" />
		<tag k="place" v="locality" />
		<tag k="ssr:stedsnr" v="279815" />
	</node>
	<node id="-14831" lat="59.6160583321" lon="11.4399249976">
		<tag k="fixme" v="consider natural=peak for the most distinct mountains in the district" />
		<tag k="name" v="Hamnåsåsen" />
		<tag k="natural" v="hill" />
		<tag k="place" v="locality" />
		<tag k="ssr:stedsnr" v="489917" />
	</node>
	<node id="-14818" lat="59.5719869075" lon="11.3007720773">
		<tag k="fixme" v="consider natural=peak for the most distinct mountains in the district" />
		<tag k="name" v="Monaryggen" />
		<tag k="natural" v="hill" />
		<tag k="place" v="locality" />
		<tag k="ssr:stedsnr" v="489595" />
	</node>
	<node id="-14816" lat="59.7424138869" lon="11.3306166737">
		<tag k="alt_name" v="Faksen" />
		<tag k="fixme" v="consider natural=peak for the most distinct mountains in the district" />
		<tag k="name" v="Foksen" />
		<tag k="natural" v="hill" />
		<tag k="place" v="locality" />
		<tag k="ssr:stedsnr" v="489081" />
	</node>
	<node id="-14501" lat="59.6789972225" lon="11.3987416681">
		<tag k="name" v="Krotoa" />
		<tag k="place" v="locality" />
		<tag k="ssr:stedsnr" v="24525" />
	</node>
	<node id="-15323" lat="59.6261277737" lon="11.362777783">
		<tag k="fixme" v="consider natural=peak for the most distinct mountains in the district" />
		<tag k="name" v="Kjellås" />
		<tag k="natural" v="hill" />
		<tag k="place" v="locality" />
		<tag k="ssr:stedsnr" v="934982" />
	</node>
	<node id="-15322" lat="59.6358194444" lon="11.3607972217">
		<tag k="fixme" v="consider natural=peak for the most distinct mountains in the district" />
		<tag k="name" v="Tressåsen" />
		<tag k="natural" v="hill" />
		<tag k="place" v="locality" />
		<tag k="ssr:stedsnr" v="934968" />
	</node>
	<node id="-14807" lat="59.6709361097" lon="11.4209361133">
		<tag k="name" v="Bjørndalen" />
		<tag k="natural" v="valley" />
		<tag k="place" v="locality" />
		<tag k="ssr:stedsnr" v="449878" />
	</node>
	<node id="-14804" lat="59.6177305525" lon="11.4644833335">
		<tag k="name" v="Sælaputtronga" />
		<tag k="natural" v="valley" />
		<tag k="place" v="locality" />
		<tag k="ssr:stedsnr" v="449791" />
	</node>
	<node id="-14798" lat="59.731666668" lon="11.2942000076">
		<tag k="fixme" v="consider natural=peak for the most distinct mountains in the district" />
		<tag k="name" v="Høgåsen" />
		<tag k="natural" v="hill" />
		<tag k="place" v="locality" />
		<tag k="ssr:stedsnr" v="449546" />
	</node>
	<node id="-14794" lat="59.6773138921" lon="11.3579083391">
		<tag k="name" v="Åsrud" />
		<tag k="place" v="locality" />
		<tag k="ssr:stedsnr" v="449495" />
	</node>
	<node id="-15304" lat="59.6514694478" lon="11.2231194471">
		<tag k="fixme" v="consider natural=peak for the most distinct mountains in the district" />
		<tag k="name" v="Lokkeråsen" />
		<tag k="natural" v="hill" />
		<tag k="place" v="locality" />
		<tag k="ssr:stedsnr" v="934693" />
	</node>
	<node id="-15292" lat="59.7227083353" lon="11.35473612">
		<tag k="fixme" v="consider natural=peak for the most distinct mountains in the district" />
		<tag k="name" v="Slottet" />
		<tag k="natural" v="hill" />
		<tag k="place" v="locality" />
		<tag k="ssr:stedsnr" v="934546" />
	</node>
	<node id="-15285" lat="59.7564611146" lon="11.2988722312">
		<tag k="name" v="Stokkedal" />
		<tag k="natural" v="valley" />
		<tag k="place" v="locality" />
		<tag k="ssr:stedsnr" v="935665" />
	</node>
	<node id="-14766" lat="59.6976249979" lon="11.3037027863">
		<tag k="alt_name" v="Vardåsen" />
		<tag k="fixme" v="consider natural=peak for the most distinct mountains in the district" />
		<tag k="name" v="Vardås" />
		<tag k="natural" v="hill" />
		<tag k="place" v="locality" />
		<tag k="ssr:stedsnr" v="428836" />
	</node>
	<node id="-15276" lat="59.6004916687" lon="11.3638972299">
		<tag k="alt_name" v="Gulbrandsfjellet" />
		<tag k="fixme" v="consider natural=peak for the most distinct mountains in the district" />
		<tag k="name" v="Guldbrandsfjell" />
		<tag k="natural" v="hill" />
		<tag k="place" v="locality" />
		<tag k="ssr:stedsnr" v="914881" />
	</node>
	<node id="-14762" lat="59.6018277755" lon="11.2903583373">
		<tag k="name" v="Langholen" />
		<tag k="natural" v="ridge" />
		<tag k="place" v="locality" />
		<tag k="ssr:stedsnr" v="266996" />
	</node>
	<node id="-15272" lat="59.7067555566" lon="11.2510305619">
		<tag k="fixme" v="consider natural=peak for the most distinct mountains in the district" />
		<tag k="name" v="Muggebyåsen" />
		<tag k="natural" v="hill" />
		<tag k="place" v="locality" />
		<tag k="ssr:stedsnr" v="914840" />
	</node>
	<node id="-14758" lat="59.620555554" lon="11.4336027759">
		<tag k="name" v="Ilebekk" />
		<tag k="place" v="locality" />
		<tag k="ssr:stedsnr" v="266832" />
	</node>
	<node id="-15268" lat="59.6863333291" lon="11.3100694361">
		<tag k="fixme" v="consider natural=peak for the most distinct mountains in the district" />
		<tag k="name" v="Eikåsen" />
		<tag k="natural" v="hill" />
		<tag k="place" v="locality" />
		<tag k="ssr:stedsnr" v="914803" />
	</node>
	<node id="-15266" lat="59.6667805573" lon="11.4283555497">
		<tag k="fixme" v="consider natural=peak for the most distinct mountains in the district" />
		<tag k="name" v="Heståsen" />
		<tag k="natural" v="hill" />
		<tag k="place" v="locality" />
		<tag k="ssr:stedsnr" v="914780" />
	</node>
	<node id="-15260" lat="59.6310555601" lon="11.4798444377">
		<tag k="fixme" v="consider natural=peak for the most distinct mountains in the district" />
		<tag k="name" v="Haratjernshøgda" />
		<tag k="natural" v="hill" />
		<tag k="place" v="locality" />
		<tag k="ssr:stedsnr" v="914313" />
	</node>
	<node id="-15259" lat="59.7277861135" lon="11.3149916634">
		<tag k="alt_name" v="Stinjulen" />
		<tag k="fixme" v="consider natural=peak for the most distinct mountains in the district" />
		<tag k="name" v="Steinjulen" />
		<tag k="natural" v="hill" />
		<tag k="place" v="locality" />
		<tag k="ssr:stedsnr" v="914121" />
	</node>
	<node id="-14746" lat="59.7085472225" lon="11.3408527737">
		<tag k="fixme" v="consider natural=peak for the most distinct mountains in the district" />
		<tag k="name" v="Kudalsåsen" />
		<tag k="natural" v="hill" />
		<tag k="place" v="locality" />
		<tag k="ssr:stedsnr" v="266599" />
	</node>
	<node id="-15256" lat="59.6236861103" lon="11.3376361194">
		<tag k="name" v="Måsarød" />
		<tag k="place" v="locality" />
		<tag k="ssr:stedsnr" v="873963" />
	</node>
	<node id="-14743" lat="59.7165222263" lon="11.36201944">
		<tag k="fixme" v="consider natural=peak for the most distinct mountains in the district" />
		<tag k="name" v="Haukereiråsen" />
		<tag k="natural" v="hill" />
		<tag k="place" v="locality" />
		<tag k="ssr:stedsnr" v="266593" />
	</node>
	<node id="-14741" lat="59.6664472261" lon="11.3550861158">
		<tag k="name" v="Finnskott" />
		<tag k="place" v="locality" />
		<tag k="ssr:stedsnr" v="266541" />
	</node>
	<node id="-14737" lat="59.6704416668" lon="11.3306805636">
		<tag k="name" v="Slora" />
		<tag k="place" v="locality" />
		<tag k="ssr:stedsnr" v="266496" />
	</node>
	<node id="-15247" lat="59.6397638919" lon="11.4411861178">
		<tag k="fixme" v="consider natural=peak for the most distinct mountains in the district" />
		<tag k="name" v="Kjonåsen" />
		<tag k="natural" v="hill" />
		<tag k="place" v="locality" />
		<tag k="ssr:stedsnr" v="873796" />
	</node>
	<node id="-14733" lat="59.6191583325" lon="11.4493027858">
		<tag k="name" v="Leggdalen" />
		<tag k="natural" v="valley" />
		<tag k="place" v="locality" />
		<tag k="ssr:stedsnr" v="266256" />
	</node>
	<node id="-15231" lat="59.6813361144" lon="11.3975611101">
		<tag k="fixme" v="consider natural=peak for the most distinct mountains in the district" />
		<tag k="name" v="Aslerudåsen" />
		<tag k="natural" v="hill" />
		<tag k="place" v="locality" />
		<tag k="ssr:stedsnr" v="873499" />
	</node>
	<node id="-15230" lat="59.6269083296" lon="11.251041663">
		<tag k="fixme" v="consider natural=peak for the most distinct mountains in the district" />
		<tag k="name" v="Smellerudåsen" />
		<tag k="natural" v="hill" />
		<tag k="place" v="locality" />
		<tag k="ssr:stedsnr" v="873274" />
	</node>
	<node id="-15228" lat="59.6309388896" lon="11.2386305477">
		<tag k="fixme" v="consider natural=peak for the most distinct mountains in the district" />
		<tag k="name" v="Kaserudåsen" />
		<tag k="natural" v="hill" />
		<tag k="place" v="locality" />
		<tag k="ssr:stedsnr" v="873268" />
	</node>
	<node id="-15222" lat="59.657944443" lon="11.2915222215">
		<tag k="fixme" v="consider natural=peak for the most distinct mountains in the district" />
		<tag k="name" v="Revåsen" />
		<tag k="natural" v="hill" />
		<tag k="place" v="locality" />
		<tag k="ssr:stedsnr" v="873512" />
	</node>
	<node id="-14701" lat="59.611622218" lon="11.3645416734">
		<tag k="fixme" v="consider natural=peak for the most distinct mountains in the district" />
		<tag k="name" v="Jorudtusten" />
		<tag k="natural" v="hill" />
		<tag k="place" v="locality" />
		<tag k="ssr:stedsnr" v="206874" />
	</node>
	<node id="-14700" lat="59.6111416677" lon="11.3403638818">
		<tag k="fixme" v="consider natural=peak for the most distinct mountains in the district" />
		<tag k="name" v="Skallerudåsen" />
		<tag k="natural" v="hill" />
		<tag k="place" v="locality" />
		<tag k="ssr:stedsnr" v="206860" />
	</node>
	<node id="-14699" lat="59.6152083324" lon="11.3272944367">
		<tag k="name" v="Østhaugen" />
		<tag k="place" v="locality" />
		<tag k="ssr:stedsnr" v="206858" />
	</node>
	<node id="-14697" lat="59.6319138916" lon="11.4207305619">
		<tag k="name" v="Linkerud" />
		<tag k="place" v="locality" />
		<tag k="ssr:stedsnr" v="206824" />
	</node>
	<node id="-14696" lat="59.6148750023" lon="11.4634777786">
		<tag k="fixme" v="consider natural=peak for the most distinct mountains in the district" />
		<tag k="name" v="Trollkjerka" />
		<tag k="natural" v="hill" />
		<tag k="place" v="locality" />
		<tag k="ssr:stedsnr" v="206821" />
	</node>
	<node id="-14694" lat="59.6489861078" lon="11.4501111151">
		<tag k="fixme" v="consider natural=peak for the most distinct mountains in the district" />
		<tag k="name" v="Sandåsen" />
		<tag k="natural" v="hill" />
		<tag k="place" v="locality" />
		<tag k="ssr:stedsnr" v="206815" />
	</node>
	<node id="-15196" lat="59.6606805538" lon="11.4435250044">
		<tag k="fixme" v="consider natural=peak for the most distinct mountains in the district" />
		<tag k="name" v="Korpåsen" />
		<tag k="natural" v="hill" />
		<tag k="place" v="locality" />
		<tag k="ssr:stedsnr" v="813899" />
	</node>
	<node id="-15193" lat="59.6150166657" lon="11.362725007">
		<tag k="fixme" v="consider natural=peak for the most distinct mountains in the district" />
		<tag k="name" v="Jorudåsen" />
		<tag k="natural" v="hill" />
		<tag k="place" v="locality" />
		<tag k="ssr:stedsnr" v="813858" />
	</node>
	<node id="-15192" lat="59.6069249967" lon="11.3479750073">
		<tag k="name" v="Bjørndalen" />
		<tag k="natural" v="valley" />
		<tag k="place" v="locality" />
		<tag k="ssr:stedsnr" v="813852" />
	</node>
	<node id="-15191" lat="59.6064111089" lon="11.3253944502">
		<tag k="fixme" v="consider natural=peak for the most distinct mountains in the district" />
		<tag k="name" v="Furuåsen" />
		<tag k="natural" v="hill" />
		<tag k="place" v="locality" />
		<tag k="ssr:stedsnr" v="813847" />
	</node>
	<node id="-15190" lat="59.6279805568" lon="11.4114361132">
		<tag k="fixme" v="consider natural=peak for the most distinct mountains in the district" />
		<tag k="name" v="Ormåsen" />
		<tag k="natural" v="hill" />
		<tag k="place" v="locality" />
		<tag k="ssr:stedsnr" v="813792" />
	</node>
	<node id="-14674" lat="59.6500444424" lon="11.3340583404">
		<tag k="fixme" v="consider natural=peak for the most distinct mountains in the district" />
		<tag k="name" v="Frøshovåsen" />
		<tag k="natural" v="hill" />
		<tag k="place" v="locality" />
		<tag k="ssr:stedsnr" v="206480" />
	</node>
	<node id="-15181" lat="59.6589472218" lon="11.3610749911">
		<tag k="fixme" v="consider natural=peak for the most distinct mountains in the district" />
		<tag k="name" v="Kverneåsen" />
		<tag k="natural" v="hill" />
		<tag k="place" v="locality" />
		<tag k="ssr:stedsnr" v="813495" />
	</node>
	<node id="-14668" lat="59.6445000003" lon="11.2742416604">
		<tag k="name" v="Ulvestudalen" />
		<tag k="natural" v="valley" />
		<tag k="place" v="locality" />
		<tag k="ssr:stedsnr" v="206662" />
	</node>
	<node id="-15178" lat="59.6763749973" lon="11.3530833412">
		<tag k="name" v="Berget" />
		<tag k="natural" v="hill" />
		<tag k="place" v="locality" />
		<tag k="ssr:stedsnr" v="813486" />
	</node>
	<node id="-15176" lat="59.6484500019" lon="11.312436113">
		<tag k="name" v="Nordbydalen" />
		<tag k="natural" v="valley" />
		<tag k="place" v="locality" />
		<tag k="ssr:stedsnr" v="813464" />
	</node>
	<node id="-15171" lat="59.6279805598" lon="11.391377778">
		<tag k="name" v="Åmon" />
		<tag k="place" v="locality" />
		<tag k="ssr:stedsnr" v="812991" />
	</node>
	<node id="-15170" lat="59.636155558" lon="11.3853944377">
		<tag k="name" v="Bergtranga" />
		<tag k="natural" v="valley" />
		<tag k="place" v="locality" />
		<tag k="ssr:stedsnr" v="812989" />
	</node>
	<node id="-15166" lat="59.6125749976" lon="11.4259333252">
		<tag k="fixme" v="consider natural=peak for the most distinct mountains in the district" />
		<tag k="name" v="Hovelsrudåsen" />
		<tag k="natural" v="hill" />
		<tag k="place" v="locality" />
		<tag k="ssr:stedsnr" v="812884" />
	</node>
	<node id="-14559" lat="59.7002444452" lon="11.3640888898">
		<tag k="fixme" v="consider natural=peak for the most distinct mountains in the district" />
		<tag k="name" v="Stangrøyshøgda" />
		<tag k="natural" v="hill" />
		<tag k="place" v="locality" />
		<tag k="ssr:stedsnr" v="84536" />
	</node>
	<node id="-14640" lat="59.6169416694" lon="11.3389222289">
		<tag k="fixme" v="consider natural=peak for the most distinct mountains in the district" />
		<tag k="name" v="Tullebekkåsen" />
		<tag k="natural" v="hill" />
		<tag k="place" v="locality" />
		<tag k="ssr:stedsnr" v="145957" />
	</node>
	<node id="-14632" lat="59.5963499966" lon="11.3506749965">
		<tag k="fixme" v="consider natural=peak for the most distinct mountains in the district" />
		<tag k="name" v="Skrikerudåsen" />
		<tag k="natural" v="hill" />
		<tag k="place" v="locality" />
		<tag k="ssr:stedsnr" v="145879" />
	</node>
	<node id="-14631" lat="59.6026722224" lon="11.3616444387">
		<tag k="name" v="Raudkleiva" />
		<tag k="natural" v="slope" />
		<tag k="place" v="locality" />
		<tag k="ssr:stedsnr" v="145878" />
	</node>
	<node id="-14629" lat="59.6096583336" lon="11.4432027789">
		<tag k="name" v="Kastet" />
		<tag k="natural" v="cliff" />
		<tag k="ssr:stedsnr" v="145841" />
	</node>
	<node id="-15139" lat="59.650461114" lon="11.4615083315">
		<tag k="fixme" v="consider natural=peak for the most distinct mountains in the district" />
		<tag k="name" v="Sundbyåsen" />
		<tag k="natural" v="hill" />
		<tag k="place" v="locality" />
		<tag k="ssr:stedsnr" v="793782" />
	</node>
	<node id="-14626" lat="59.6184583377" lon="11.4626222206">
		<tag k="fixme" v="consider natural=peak for the most distinct mountains in the district" />
		<tag k="name" v="Storsameia" />
		<tag k="natural" v="hill" />
		<tag k="place" v="locality" />
		<tag k="ssr:stedsnr" v="145821" />
	</node>
	<node id="-14622" lat="59.626852774" lon="11.2248972138">
		<tag k="fixme" v="consider natural=peak for the most distinct mountains in the district" />
		<tag k="name" v="Asgerrudåsen" />
		<tag k="natural" v="hill" />
		<tag k="place" v="locality" />
		<tag k="ssr:stedsnr" v="145682" />
	</node>
	<node id="-14621" lat="59.7560611095" lon="11.2892833346">
		<tag k="fixme" v="consider natural=peak for the most distinct mountains in the district" />
		<tag k="name" v="Krokedalåsen" />
		<tag k="natural" v="hill" />
		<tag k="place" v="locality" />
		<tag k="ssr:stedsnr" v="145644" />
	</node>
	<node id="-15129" lat="59.7421416708" lon="11.3133861171">
		<tag k="fixme" v="consider natural=peak for the most distinct mountains in the district" />
		<tag k="name" v="Stiklaåsen" />
		<tag k="natural" v="hill" />
		<tag k="place" v="locality" />
		<tag k="ssr:stedsnr" v="792068" />
	</node>
	<node id="-14966" lat="59.6263833331" lon="11.2612583334">
		<tag k="name" v="Odalen" />
		<tag k="natural" v="valley" />
		<tag k="place" v="locality" />
		<tag k="ssr:stedsnr" v="630247" />
	</node>
	<node id="-15126" lat="59.6368388934" lon="11.4650694432">
		<tag k="name" v="Hvitefjell" />
		<tag k="natural" v="hill" />
		<tag k="place" v="locality" />
		<tag k="ssr:stedsnr" v="764828" />
	</node>
	<node id="-15122" lat="59.6629499982" lon="11.4306583367">
		<tag k="fixme" v="consider natural=peak for the most distinct mountains in the district" />
		<tag k="name" v="Røysås" />
		<tag k="natural" v="hill" />
		<tag k="place" v="locality" />
		<tag k="ssr:stedsnr" v="752916" />
	</node>
	<node id="-14609" lat="59.6581361102" lon="11.4604000047">
		<tag k="fixme" v="consider natural=peak for the most distinct mountains in the district" />
		<tag k="name" v="Storåsen" />
		<tag k="natural" v="hill" />
		<tag k="place" v="locality" />
		<tag k="ssr:stedsnr" v="145236" />
	</node>
	<node id="-14597" lat="59.7022944488" lon="11.314333339">
		<tag k="fixme" v="consider natural=peak for the most distinct mountains in the district" />
		<tag k="name" v="Husebyåsen" />
		<tag k="natural" v="hill" />
		<tag k="place" v="locality" />
		<tag k="ssr:stedsnr" v="125850" />
	</node>
	<node id="-15101" lat="59.6941472206" lon="11.3084083289">
		<tag k="fixme" v="consider natural=peak for the most distinct mountains in the district" />
		<tag k="name" v="Mellebyåsen" />
		<tag k="natural" v="hill" />
		<tag k="place" v="locality" />
		<tag k="ssr:stedsnr" v="752541" />
	</node>
	<node id="-14586" lat="59.6145055549" lon="11.4515527855">
		<tag k="name" v="Moserud" />
		<tag k="place" v="locality" />
		<tag k="ssr:stedsnr" v="84884" />
	</node>
	<node id="-14584" lat="59.6463444473" lon="11.353091671">
		<tag k="fixme" v="consider natural=peak for the most distinct mountains in the district" />
		<tag k="name" v="Djupedalsåsen" />
		<tag k="natural" v="hill" />
		<tag k="place" v="locality" />
		<tag k="ssr:stedsnr" v="84958" />
	</node>
	<node id="-15083" lat="59.6679444402" lon="11.4415277755">
		<tag k="fixme" v="consider natural=peak for the most distinct mountains in the district" />
		<tag k="name" v="Maurneshøgda" />
		<tag k="natural" v="hill" />
		<tag k="place" v="locality" />
		<tag k="ssr:stedsnr" v="732789" />
	</node>
	<node id="-14562" lat="59.7193250044" lon="11.3500527788">
		<tag k="fixme" v="consider natural=peak for the most distinct mountains in the district" />
		<tag k="name" v="Måstadåsen" />
		<tag k="natural" v="hill" />
		<tag k="place" v="locality" />
		<tag k="ssr:stedsnr" v="84614" />
	</node>
	<node id="-14560" lat="59.6937416697" lon="11.369530547">
		<tag k="fixme" v="consider natural=peak for the most distinct mountains in the district" />
		<tag k="name" v="Korpåsen" />
		<tag k="natural" v="hill" />
		<tag k="place" v="locality" />
		<tag k="ssr:stedsnr" v="84538" />
	</node>
	<node id="-15071" lat="59.5973527798" lon="11.3407333334">
		<tag k="fixme" v="consider natural=peak for the most distinct mountains in the district" />
		<tag k="name" v="Hagelåsen" />
		<tag k="natural" v="hill" />
		<tag k="place" v="locality" />
		<tag k="ssr:stedsnr" v="691998" />
	</node>
	<node id="-14547" lat="59.735505558" lon="11.3245638979">
		<tag k="name" v="Stikladalen" />
		<tag k="natural" v="valley" />
		<tag k="place" v="locality" />
		<tag k="ssr:stedsnr" v="65111" />
	</node>
	<node id="-15058" lat="59.6008249961" lon="11.35951388">
		<tag k="name" v="Delingsdalen" />
		<tag k="natural" v="valley" />
		<tag k="place" v="locality" />
		<tag k="ssr:stedsnr" v="691870" />
	</node>
	<node id="-15051" lat="59.6358277814" lon="11.4190444449">
		<tag k="name" v="Tinghaug" />
		<tag k="place" v="locality" />
		<tag k="ssr:stedsnr" v="691816" />
	</node>
	<node id="-15050" lat="59.6501361103" lon="11.4370249928">
		<tag k="name" v="Lidalen" />
		<tag k="natural" v="valley" />
		<tag k="place" v="locality" />
		<tag k="ssr:stedsnr" v="691801" />
	</node>
	<node id="-15049" lat="59.6536611126" lon="11.4393583371">
		<tag k="fixme" v="consider natural=peak for the most distinct mountains in the district" />
		<tag k="name" v="Haraberget" />
		<tag k="natural" v="hill" />
		<tag k="place" v="locality" />
		<tag k="ssr:stedsnr" v="691796" />
	</node>
	<node id="-14531" lat="59.7410027759" lon="11.3607888921">
		<tag k="fixme" v="consider natural=peak for the most distinct mountains in the district" />
		<tag k="name" v="Gaupeknatten" />
		<tag k="natural" v="hill" />
		<tag k="place" v="locality" />
		<tag k="ssr:stedsnr" v="64060" />
	</node>
	<node id="-14539" lat="59.6910499997" lon="11.3585166618">
		<tag k="alt_name" v="Kamrøyshøgda" />
		<tag k="fixme" v="consider natural=peak for the most distinct mountains in the district" />
		<tag k="name" v="Kamrøysåsen" />
		<tag k="natural" v="hill" />
		<tag k="place" v="locality" />
		<tag k="ssr:stedsnr" v="64844" />
	</node>
	<node id="-14527" lat="59.6509111113" lon="11.3757027728">
		<tag k="name" v="Ulvelangen" />
		<tag k="place" v="locality" />
		<tag k="ssr:stedsnr" v="24943" />
	</node>
	<node id="-15036" lat="59.6874999977" lon="11.3513750072">
		<tag k="fixme" v="consider natural=peak for the most distinct mountains in the district" />
		<tag k="name" v="Rundfotåsen" />
		<tag k="natural" v="hill" />
		<tag k="place" v="locality" />
		<tag k="ssr:stedsnr" v="691509" />
	</node>
	<node id="-14538" lat="59.6923916692" lon="11.343327771">
		<tag k="fixme" v="consider natural=peak for the most distinct mountains in the district" />
		<tag k="name" v="Linnerudåsen" />
		<tag k="natural" v="hill" />
		<tag k="place" v="locality" />
		<tag k="ssr:stedsnr" v="64842" />
	</node>
	<node id="-14521" lat="59.6090444411" lon="11.3344749934">
		<tag k="fixme" v="consider natural=peak for the most distinct mountains in the district" />
		<tag k="name" v="Jonsrud" />
		<tag k="natural" v="hill" />
		<tag k="place" v="locality" />
		<tag k="ssr:stedsnr" v="24871" />
	</node>
	<node id="-14520" lat="59.6130722238" lon="11.4595500061">
		<tag k="name" v="Elgsgrava" />
		<tag k="place" v="locality" />
		<tag k="ssr:stedsnr" v="24865" />
	</node>
	<node id="-15030" lat="59.6213611113" lon="11.2515888929">
		<tag k="fixme" v="consider natural=peak for the most distinct mountains in the district" />
		<tag k="name" v="Eikebergåsen" />
		<tag k="natural" v="hill" />
		<tag k="place" v="locality" />
		<tag k="ssr:stedsnr" v="671936" />
	</node>
	<node id="-15027" lat="59.7203444415" lon="11.26008889">
		<tag k="name" v="Jammerdalen" />
		<tag k="natural" v="valley" />
		<tag k="place" v="locality" />
		<tag k="ssr:stedsnr" v="671876" />
	</node>
	<node id="-15023" lat="59.6835666652" lon="11.3545416697">
		<tag k="fixme" v="consider natural=peak for the most distinct mountains in the district" />
		<tag k="name" v="Rudsåsen" />
		<tag k="natural" v="hill" />
		<tag k="place" v="locality" />
		<tag k="ssr:stedsnr" v="671785" />
	</node>
	<node id="-14505" lat="59.7319027784" lon="11.2957083374">
		<tag k="name" v="Bjørneklemma" />
		<tag k="natural" v="valley" />
		<tag k="place" v="locality" />
		<tag k="ssr:stedsnr" v="24562" />
	</node>
	<node id="-14502" lat="59.6764027808" lon="11.3454638863">
		<tag k="fixme" v="consider natural=peak for the most distinct mountains in the district" />
		<tag k="name" v="Slorbyåsen" />
		<tag k="natural" v="hill" />
		<tag k="place" v="locality" />
		<tag k="ssr:stedsnr" v="24527" />
	</node>
	<node id="-15013" lat="59.6465805553" lon="11.4691916702">
		<tag k="fixme" v="consider natural=peak for the most distinct mountains in the district" />
		<tag k="name" v="Hytteåsen" />
		<tag k="natural" v="hill" />
		<tag k="place" v="locality" />
		<tag k="ssr:stedsnr" v="643801" />
	</node>
	<node id="-15010" lat="59.7381527755" lon="11.310108333">
		<tag k="name" v="Stiksdalen" />
		<tag k="natural" v="valley" />
		<tag k="place" v="locality" />
		<tag k="ssr:stedsnr" v="631544" />
	</node>
	<node id="-15008" lat="59.7318000024" lon="11.3326194482">
		<tag k="name" v="Haugen" />
		<tag k="place" v="locality" />
		<tag k="ssr:stedsnr" v="631531" />
	</node>
	<node id="-15003" lat="59.6668305566" lon="11.4340472259">
		<tag k="fixme" v="consider natural=peak for the most distinct mountains in the district" />
		<tag k="name" v="Torgjerberget" />
		<tag k="natural" v="hill" />
		<tag k="place" v="locality" />
		<tag k="ssr:stedsnr" v="630911" />
	</node>
	<node id="-14489" lat="59.6480249985" lon="11.4324472267">
		<tag k="fixme" v="consider natural=peak for the most distinct mountains in the district" />
		<tag k="name" v="Buråsen" />
		<tag k="natural" v="hill" />
		<tag k="place" v="locality" />
		<tag k="ssr:stedsnr" v="4990" />
	</node>
	<node id="-15000" lat="59.6644361151" lon="11.4264666647">
		<tag k="fixme" v="consider natural=peak for the most distinct mountains in the district" />
		<tag k="name" v="Laudalsåsen" />
		<tag k="natural" v="hill" />
		<tag k="place" v="locality" />
		<tag k="ssr:stedsnr" v="630899" />
	</node>
	<node id="-14998" lat="59.5970611154" lon="11.3630777782">
		<tag k="fixme" v="consider natural=peak for the most distinct mountains in the district" />
		<tag k="name" v="Majorhogget" />
		<tag k="natural" v="hill" />
		<tag k="place" v="locality" />
		<tag k="ssr:stedsnr" v="630848" />
	</node>
	<node id="-14997" lat="59.5987694453" lon="11.3534861194">
		<tag k="fixme" v="consider natural=peak for the most distinct mountains in the district" />
		<tag k="name" v="Kongemoen" />
		<tag k="natural" v="hill" />
		<tag k="place" v="locality" />
		<tag k="ssr:stedsnr" v="630834" />
	</node>
	<node id="-14484" lat="59.6241277744" lon="11.4771166618">
		<tag k="alt_name" v="Oppskott" />
		<tag k="name" v="Oppskot" />
		<tag k="natural" v="hill" />
		<tag k="place" v="locality" />
		<tag k="ssr:stedsnr" v="4280" />
	</node>
	<node id="-14991" lat="59.6235333363" lon="11.4598194463">
		<tag k="name" v="Svenskelægeret" />
		<tag k="place" v="locality" />
		<tag k="ssr:stedsnr" v="630781" />
	</node>
	<node id="-14989" lat="59.6475777796" lon="11.44278334">
		<tag k="fixme" v="consider natural=peak for the most distinct mountains in the district" />
		<tag k="name" v="Vardåsen" />
		<tag k="natural" v="hill" />
		<tag k="place" v="locality" />
		<tag k="ssr:stedsnr" v="630764" />
	</node>
	<node id="-14360" lat="59.6781555545" lon="11.3141111074">
		<tag k="name" v="Hammerstadbakken" />
		<tag k="natural" v="slope" />
		<tag k="place" v="locality" />
		<tag k="ssr:stedsnr" v="327456" />
	</node>
	<node id="-14614" lat="59.7033999992" lon="11.2925305622">
		<tag k="fixme" v="consider natural=peak for the most distinct mountains in the district" />
		<tag k="name" v="Kirkebyåsen" />
		<tag k="natural" v="hill" />
		<tag k="place" v="locality" />
		<tag k="ssr:stedsnr" v="145528" />
	</node>
	<node id="-14978" lat="59.694097224" lon="11.2824944497">
		<tag k="name" v="Korsdalen" />
		<tag k="natural" v="valley" />
		<tag k="place" v="locality" />
		<tag k="ssr:stedsnr" v="630563" />
	</node>
	<node id="-14454" lat="59.5950055554" lon="11.3161166605">
		<tag k="fixme" v="consider natural=peak for the most distinct mountains in the district" />
		<tag k="name" v="Jørentvetåsen" />
		<tag k="natural" v="hill" />
		<tag k="place" v="locality" />
		<tag k="ssr:stedsnr" v="387994" />
	</node>
	<node id="-14963" lat="59.6333499993" lon="11.3431500056">
		<tag k="fixme" v="consider natural=peak for the most distinct mountains in the district" />
		<tag k="name" v="Trøgstad varde" />
		<tag k="natural" v="hill" />
		<tag k="place" v="locality" />
		<tag k="ssr:stedsnr" v="610976" />
	</node>
	<node id="-14445" lat="59.6631722255" lon="11.4379527811">
		<tag k="name" v="Toredraget" />
		<tag k="natural" v="valley" />
		<tag k="place" v="locality" />
		<tag k="ssr:stedsnr" v="387918" />
	</node>
	<node id="-14951" lat="59.6908861068" lon="11.3657555515">
		<tag k="alt_name" v="Ørderuddalen" />
		<tag k="name" v="Oldruddalen" />
		<tag k="natural" v="valley" />
		<tag k="place" v="locality" />
		<tag k="ssr:stedsnr" v="610845" />
	</node>
	<node id="-15035" lat="59.6837972201" lon="11.3423749977">
		<tag k="name" v="Fjellstad" />
		<tag k="place" v="locality" />
		<tag k="ssr:stedsnr" v="691506" />
	</node>
	<node id="-14428" lat="59.718330553" lon="11.3648499916">
		<tag k="name" v="Bjørndalen" />
		<tag k="natural" v="valley" />
		<tag k="place" v="locality" />
		<tag k="ssr:stedsnr" v="387602" />
	</node>
	<node id="-14938" lat="59.7536972217" lon="11.3256722213">
		<tag k="name" v="Langbråtan" />
		<tag k="place" v="locality" />
		<tag k="ssr:stedsnr" v="570510" />
	</node>
	<node id="-14930" lat="59.6513277796" lon="11.343661114">
		<tag k="fixme" v="consider natural=peak for the most distinct mountains in the district" />
		<tag k="name" v="Svartåsen" />
		<tag k="natural" v="hill" />
		<tag k="place" v="locality" />
		<tag k="ssr:stedsnr" v="569934" />
	</node>
	<node id="-14358" lat="59.6349833293" lon="11.2490472249">
		<tag k="name" v="Sagfjella" />
		<tag k="natural" v="hill" />
		<tag k="place" v="locality" />
		<tag k="ssr:stedsnr" v="327253" />
	</node>
	<node id="-14477" lat="59.7487944478" lon="11.3118555577">
		<tag k="name" v="Grasdalen" />
		<tag k="natural" v="valley" />
		<tag k="place" v="locality" />
		<tag k="ssr:stedsnr" v="267522" />
	</node>
	<node id="-14916" lat="59.657050003" lon="11.4479111179">
		<tag k="name" v="Iskleiva" />
		<tag k="natural" v="slope" />
		<tag k="place" v="locality" />
		<tag k="ssr:stedsnr" v="569783" />
	</node>
	<node id="-14518" lat="59.6060805524" lon="11.4365972144">
		<tag k="fixme" v="consider natural=peak for the most distinct mountains in the district" />
		<tag k="name" v="Festningsåsen" />
		<tag k="natural" v="hill" />
		<tag k="place" v="locality" />
		<tag k="ssr:stedsnr" v="24841" />
	</node>
	<node id="-14906" lat="59.7147999982" lon="11.3176361142">
		<tag k="fixme" v="consider natural=peak for the most distinct mountains in the district" />
		<tag k="name" v="Galtebyåsen" />
		<tag k="natural" v="hill" />
		<tag k="place" v="locality" />
		<tag k="ssr:stedsnr" v="569606" />
	</node>
	<node id="-14392" lat="59.6564916705" lon="11.4614000001">
		<tag k="name" v="Slora" />
		<tag k="place" v="locality" />
		<tag k="ssr:stedsnr" v="340796" />
	</node>
	<node id="-14388" lat="59.7270694404" lon="11.3404388917">
		<tag k="fixme" v="consider natural=peak for the most distinct mountains in the district" />
		<tag k="name" v="Gullknappen" />
		<tag k="natural" v="hill" />
		<tag k="place" v="locality" />
		<tag k="ssr:stedsnr" v="328528" />
	</node>
	<node id="-14387" lat="59.7268111116" lon="11.3459361195">
		<tag k="name" v="Høgda" />
		<tag k="place" v="locality" />
		<tag k="ssr:stedsnr" v="328523" />
	</node>
	<node id="-14386" lat="59.6286666656" lon="11.3758694469">
		<tag k="fixme" v="consider natural=peak for the most distinct mountains in the district" />
		<tag k="name" v="Bergeråsen" />
		<tag k="natural" v="hill" />
		<tag k="place" v="locality" />
		<tag k="ssr:stedsnr" v="327985" />
	</node>
	<node id="-14382" lat="59.6433166686" lon="11.3456027713">
		<tag k="fixme" v="consider natural=peak for the most distinct mountains in the district" />
		<tag k="name" v="Solbergåsen" />
		<tag k="natural" v="hill" />
		<tag k="place" v="locality" />
		<tag k="ssr:stedsnr" v="327918" />
	</node>
	<node id="-14381" lat="59.6375138909" lon="11.4293138962">
		<tag k="name" v="Raen" />
		<tag k="natural" v="ridge" />
		<tag k="place" v="locality" />
		<tag k="ssr:stedsnr" v="327910" />
	</node>
	<node id="-14892" lat="59.6051055571" lon="11.3529861109">
		<tag k="fixme" v="consider natural=peak for the most distinct mountains in the district" />
		<tag k="name" v="Lauvhøgda" />
		<tag k="natural" v="hill" />
		<tag k="old_name" v="Lauhøgda" />
		<tag k="place" v="locality" />
		<tag k="ssr:stedsnr" v="550906" />
	</node>
	<node id="-14378" lat="59.6063194473" lon="11.3835277714">
		<tag k="fixme" v="consider natural=peak for the most distinct mountains in the district" />
		<tag k="name" v="Revehiåsen" />
		<tag k="natural" v="hill" />
		<tag k="place" v="locality" />
		<tag k="ssr:stedsnr" v="327846" />
	</node>
	<node id="-14877" lat="59.7328861132" lon="11.317858338">
		<tag k="name" v="Tuen" />
		<tag k="place" v="locality" />
		<tag k="ssr:stedsnr" v="510557" />
	</node>
	<node id="-14875" lat="59.6231749972" lon="11.3566472193">
		<tag k="fixme" v="consider natural=peak for the most distinct mountains in the district" />
		<tag k="name" v="Raudås" />
		<tag k="natural" v="hill" />
		<tag k="place" v="locality" />
		<tag k="ssr:stedsnr" v="509979" />
	</node>
	<node id="-14872" lat="59.6507305556" lon="11.340813888">
		<tag k="name" v="Myrene" />
		<tag k="place" v="locality" />
		<tag k="ssr:stedsnr" v="509929" />
	</node>
	<node id="-14870" lat="59.6631666689" lon="11.4465472239">
		<tag k="fixme" v="consider natural=peak for the most distinct mountains in the district" />
		<tag k="name" v="Abbortjernhøgda" />
		<tag k="natural" v="hill" />
		<tag k="place" v="locality" />
		<tag k="ssr:stedsnr" v="509895" />
	</node>
	<node id="-14869" lat="59.6659888919" lon="11.4221750084">
		<tag k="name" v="Laudalen" />
		<tag k="natural" v="valley" />
		<tag k="place" v="locality" />
		<tag k="ssr:stedsnr" v="509891" />
	</node>
	<node id="-14865" lat="59.6122305561" lon="11.3275138966">
		<tag k="name" v="Vipa" />
		<tag k="place" v="locality" />
		<tag k="ssr:stedsnr" v="509841" />
	</node>
	<node id="-14345" lat="59.6269361103" lon="11.3360138925">
		<tag k="alt_name" v="Tveitenåsen" />
		<tag k="fixme" v="consider natural=peak for the most distinct mountains in the district" />
		<tag k="name" v="Tveitåsen" />
		<tag k="natural" v="hill" />
		<tag k="place" v="locality" />
		<tag k="ssr:stedsnr" v="307952" />
	</node>
</osm>
