<?xml version="1.0" encoding="UTF-8"?>
<osm generator="osmapis" version="0.6">
	<node id="-15097" lat="59.6202944478" lon="11.376325004">
		<tag k="name" v="Kirkejordet" />
		<tag k="place" v="locality" />
		<tag k="ssr:stedsnr" v="752972" />
	</node>
	<node id="-15096" lat="59.6248499994" lon="11.2879527699">
		<tag k="name" v="Myra" />
		<tag k="place" v="locality" />
		<tag k="ssr:stedsnr" v="752951" />
	</node>
	<node id="-15223" lat="59.5899111079" lon="11.3227833284">
		<tag k="name" v="Måsan" />
		<tag k="natural" v="wetland" />
		<tag k="ssr:stedsnr" v="873893" />
	</node>
	<node id="-15222" lat="59.6135583292" lon="11.45472778">
		<tag k="name" v="Svartemyra" />
		<tag k="natural" v="wetland" />
		<tag k="ssr:stedsnr" v="873843" />
	</node>
	<node id="-15092" lat="59.5913444465" lon="11.3306250057">
		<tag k="name" v="Torvmåsan" />
		<tag k="natural" v="wetland" />
		<tag k="ssr:stedsnr" v="752901" />
	</node>
	<node id="-15169" lat="59.5941722188" lon="11.3241583262">
		<tag k="name" v="Snippen" />
		<tag k="place" v="locality" />
		<tag k="ssr:stedsnr" v="813996" />
	</node>
	<node id="-14450" lat="59.7579222238" lon="11.3200361111">
		<tag k="name" v="Vestre Midtfjellmyra" />
		<tag k="natural" v="wetland" />
		<tag k="ssr:stedsnr" v="267527" />
	</node>
	<node id="-15089" lat="59.6070888934" lon="11.4575361047">
		<tag k="name" v="Setermosen" />
		<tag k="natural" v="wetland" />
		<tag k="ssr:stedsnr" v="752846" />
	</node>
	<node id="-14448" lat="59.7380277753" lon="11.2937083416">
		<tag k="name" v="Sorgenfri" />
		<tag k="place" v="locality" />
		<tag k="ssr:stedsnr" v="267520" />
	</node>
	<node id="-14443" lat="59.6094833378" lon="11.3476583353">
		<tag k="name" v="Garsrudmyra" />
		<tag k="natural" v="wetland" />
		<tag k="ssr:stedsnr" v="266885" />
	</node>
	<node id="-14780" lat="59.6671138916" lon="11.4356638948">
		<tag k="name" v="Bjørnemosen" />
		<tag k="natural" v="wetland" />
		<tag k="ssr:stedsnr" v="449890" />
	</node>
	<node id="-14947" lat="59.7153027749" lon="11.3559055492">
		<tag k="name" v="Ånnerudlangmåsan" />
		<tag k="natural" v="wetland" />
		<tag k="ssr:stedsnr" v="630539" />
	</node>
	<node id="-14338" lat="59.7067638908" lon="11.3492083413">
		<tag k="name" v="Stegmåsan" />
		<tag k="natural" v="wetland" />
		<tag k="ssr:stedsnr" v="327572" />
	</node>
	<node id="-15071" lat="59.7279694476" lon="11.2981805525">
		<tag k="name" v="Årmomåsan" />
		<tag k="natural" v="wetland" />
		<tag k="ssr:stedsnr" v="752530" />
	</node>
	<node id="-14942" lat="59.6761666629" lon="11.3290361078">
		<tag k="name" v="Haga" />
		<tag k="place" v="locality" />
		<tag k="ssr:stedsnr" v="630445" />
	</node>
	<node id="-14682" lat="59.6443111078" lon="11.4588555602">
		<tag k="name" v="Bingslimosen" />
		<tag k="natural" v="wetland" />
		<tag k="ssr:stedsnr" v="219816" />
	</node>
	<node id="-14937" lat="59.6196472245" lon="11.2464083268">
		<tag k="name" v="Måsån" />
		<tag k="place" v="locality" />
		<tag k="ssr:stedsnr" v="630239" />
	</node>
	<node id="-14424" lat="59.6167055517" lon="11.3511750077">
		<tag k="name" v="Delingsmyra" />
		<tag k="natural" v="wetland" />
		<tag k="ssr:stedsnr" v="387984" />
	</node>
	<node id="-14422" lat="59.628002781" lon="11.2863750067">
		<tag k="name" v="Flekken" />
		<tag k="place" v="locality" />
		<tag k="ssr:stedsnr" v="387957" />
	</node>
	<node id="-14419" lat="59.6624305545" lon="11.4627388914">
		<tag k="name" v="Seterbakken" />
		<tag k="place" v="locality" />
		<tag k="ssr:stedsnr" v="387926" />
	</node>
	<node id="-14584" lat="59.6910833293" lon="11.3664305611">
		<tag k="name" v="Utenga" />
		<tag k="place" v="locality" />
		<tag k="ssr:stedsnr" v="145484" />
	</node>
	<node id="-14415" lat="59.6137805566" lon="11.3473916622">
		<tag k="name" v="Bankemåsan" />
		<tag k="natural" v="wetland" />
		<tag k="ssr:stedsnr" v="387883" />
	</node>
	<node id="-14542" lat="59.730499998" lon="11.3531138826">
		<tag k="name" v="Bjørnemåsan" />
		<tag k="natural" v="wetland" />
		<tag k="ssr:stedsnr" v="84576" />
	</node>
	<node id="-14583" lat="59.6750361078" lon="11.3019944475">
		<tag k="landuse" v="meadow" />
		<tag k="name" v="Vestereng" />
		<tag k="ssr:stedsnr" v="145479" />
	</node>
	<node id="-15088" lat="59.601952778" lon="11.4256305537">
		<tag k="name" v="Haga" />
		<tag k="place" v="locality" />
		<tag k="ssr:stedsnr" v="752827" />
	</node>
	<node id="-15174" lat="59.6872166623" lon="11.3906111197">
		<tag k="alt_name" v="Kløvsrøys" />
		<tag k="name" v="Kløvrøys" />
		<tag k="natural" v="stone" />
		<tag k="ssr:stedsnr" v="853825" />
	</node>
	<node id="-14787" lat="59.7404027751" lon="11.3457083261">
		<tag k="alt_name" v="Breidmosen" />
		<tag k="name" v="Breimåsan" />
		<tag k="natural" v="wetland" />
		<tag k="ssr:stedsnr" v="489078" />
	</node>
	<node id="-14530" lat="59.686644448" lon="11.3544444432">
		<tag k="name" v="Delingsmyra" />
		<tag k="natural" v="wetland" />
		<tag k="ssr:stedsnr" v="84534" />
	</node>
	<node id="-14785" lat="59.6326194486" lon="11.3559250008">
		<tag k="name" v="Vardemyrene" />
		<tag k="natural" v="wetland" />
		<tag k="ssr:stedsnr" v="449947" />
	</node>
	<node id="-14399" lat="59.639522221" lon="11.3401388906">
		<tag k="name" v="Svenskemyra" />
		<tag k="natural" v="wetland" />
		<tag k="ssr:stedsnr" v="387557" />
	</node>
	<node id="-15166" lat="59.5868333373" lon="11.3220916634">
		<tag k="name" v="Geiterudmåsan" />
		<tag k="natural" v="wetland" />
		<tag k="ssr:stedsnr" v="813880" />
	</node>
	<node id="-14653" lat="59.7494277786" lon="11.3064888915">
		<tag k="name" v="Fjellsmåsan" />
		<tag k="natural" v="wetland" />
		<tag k="ssr:stedsnr" v="206537" />
	</node>
	<node id="-15036" lat="59.6680861079" lon="11.4409750062">
		<tag k="name" v="Stangrøys" />
		<tag k="natural" v="stone" />
		<tag k="ssr:stedsnr" v="691909" />
	</node>
	<node id="-14777" lat="59.604775004" lon="11.3482166755">
		<tag k="name" v="Jonsrudmåsan" />
		<tag k="natural" v="wetland" />
		<tag k="ssr:stedsnr" v="449839" />
	</node>
	<node id="-14904" lat="59.6345916695" lon="11.3715527764">
		<tag k="name" v="Hovemåsan" />
		<tag k="natural" v="wetland" />
		<tag k="ssr:stedsnr" v="569961" />
	</node>
	<node id="-15285" lat="59.6141555525" lon="11.4288499979">
		<tag k="landuse" v="meadow" />
		<tag k="name" v="Fjellengen" />
		<tag k="ssr:stedsnr" v="934847" />
	</node>
	<node id="-15155" lat="59.7275055512" lon="11.3103333385">
		<tag k="name" v="Grisemyra" />
		<tag k="natural" v="wetland" />
		<tag k="ssr:stedsnr" v="813523" />
	</node>
	<node id="-14769" lat="59.7251499988" lon="11.329650006">
		<tag k="name" v="Bråta" />
		<tag k="place" v="locality" />
		<tag k="ssr:stedsnr" v="449536" />
	</node>
	<node id="-14763" lat="59.6848027784" lon="11.3535666715">
		<tag k="name" v="Rudsmåsan" />
		<tag k="natural" v="wetland" />
		<tag k="ssr:stedsnr" v="449453" />
	</node>
	<node id="-14501" lat="59.6336055525" lon="11.3923083332">
		<tag k="name" v="Myråsmåsan" />
		<tag k="natural" v="wetland" />
		<tag k="ssr:stedsnr" v="24986" />
	</node>
	<node id="-14755" lat="59.6361388923" lon="11.2508083376">
		<tag k="name" v="Nordhagen" />
		<tag k="place" v="locality" />
		<tag k="ssr:stedsnr" v="448293" />
	</node>
	<node id="-14495" lat="59.5890444408" lon="11.3174611107">
		<tag k="name" v="Jørentvetmåsan" />
		<tag k="natural" v="wetland" />
		<tag k="ssr:stedsnr" v="24901" />
	</node>
	<node id="-15237" lat="59.6628694477" lon="11.3759777859">
		<tag k="name" v="Hærsetmosen" />
		<tag k="natural" v="wetland" />
		<tag k="ssr:stedsnr" v="914779" />
	</node>
	<node id="-14361" lat="59.7421888877" lon="11.3028944488">
		<tag k="name" v="Stiksdalsmyra" />
		<tag k="natural" v="wetland" />
		<tag k="ssr:stedsnr" v="328536" />
	</node>
	<node id="-14487" lat="59.6328444452" lon="11.3999361074">
		<tag k="name" v="Skjæringsrudmosen" />
		<tag k="natural" v="wetland" />
		<tag k="ssr:stedsnr" v="24809" />
	</node>
	<node id="-14478" lat="59.6810861112" lon="11.2868138887">
		<tag k="landuse" v="meadow" />
		<tag k="name" v="Østreng" />
		<tag k="ssr:stedsnr" v="24577" />
	</node>
	<node id="-14349" lat="59.6113333344" lon="11.3571111133">
		<tag k="landuse" v="meadow" />
		<tag k="name" v="Tyrihjellen" />
		<tag k="ssr:stedsnr" v="327843" />
	</node>
	<node id="-14732" lat="59.6339416673" lon="11.3140444508">
		<tag k="name" v="Gravshagen" />
		<tag k="place" v="locality" />
		<tag k="ssr:stedsnr" v="266954" />
	</node>
	<node id="-14466" lat="59.6226999976" lon="11.238719446">
		<tag k="name" v="Eikebergmåsan" />
		<tag k="natural" v="wetland" />
		<tag k="ssr:stedsnr" v="24218" />
	</node>
	<node id="-15239" lat="59.6694499968" lon="11.4014500083">
		<tag k="name" v="Kallakmosen" />
		<tag k="natural" v="wetland" />
		<tag k="ssr:stedsnr" v="914793" />
	</node>
	<node id="-14470" lat="59.6858249958" lon="11.3455722168">
		<tag k="name" v="Tassemåsan" />
		<tag k="natural" v="wetland" />
		<tag k="ssr:stedsnr" v="24498" />
	</node>
	<node id="-14981" lat="59.7314666652" lon="11.3301777698">
		<tag k="name" v="Haga" />
		<tag k="place" v="locality" />
		<tag k="ssr:stedsnr" v="631534" />
	</node>
	<node id="-14979" lat="59.605136111" lon="11.2901750087">
		<tag k="name" v="Mellegårdshagan" />
		<tag k="place" v="locality" />
		<tag k="ssr:stedsnr" v="631000" />
	</node>
	<node id="-14978" lat="59.6262472241" lon="11.358566675">
		<tag k="name" v="Raudmåsan" />
		<tag k="natural" v="wetland" />
		<tag k="ssr:stedsnr" v="630975" />
	</node>
</osm>
