<?xml version="1.0" encoding="UTF-8"?>
<osm generator="osmapis" version="0.6">
	<node id="-38010" lat="60.122513887" lon="11.4656999921">
		<tag k="name" v="Nes kommune" />
		<tag k="ssr:date" v="2016-05-10" />
		<tag k="ssr:gruppe" v="administrativeIndelinger" />
		<tag k="ssr:hovedgruppe" v="offentligAdministrasjon" />
		<tag k="ssr:stedsnr" v="389273" />
		<tag k="ssr:type" v="kommune" />
	</node>
	<node id="-37753" lat="60.2729222252" lon="11.4775777826">
		<tag k="name" v="Kvernhaugveien" />
		<tag k="ssr:date" v="2016-05-10" />
		<tag k="ssr:gruppe" v="veg" />
		<tag k="ssr:hovedgruppe" v="infrastruktur" />
		<tag k="ssr:stedsnr" v="298852" />
		<tag k="ssr:type" v="vegstrekning" />
	</node>
	<node id="-38151" lat="60.2723961882" lon="11.3266300416">
		<tag k="name" v="Nesvegen" />
		<tag k="ssr:date" v="2019-05-31" />
		<tag k="ssr:gruppe" v="veg" />
		<tag k="ssr:hovedgruppe" v="infrastruktur" />
		<tag k="ssr:stedsnr" v="1071201" />
		<tag k="ssr:type" v="adressenavn" />
	</node>
	<node id="-39791" lat="60.3001666704" lon="11.4510055569">
		<tag k="name" v="Sjursteinveien" />
		<tag k="ssr:date" v="2016-05-10" />
		<tag k="ssr:gruppe" v="veg" />
		<tag k="ssr:hovedgruppe" v="infrastruktur" />
		<tag k="ssr:stedsnr" v="662639" />
		<tag k="ssr:type" v="vegstrekning" />
	</node>
	<node id="-38894" lat="60.1119666643" lon="11.5861472212">
		<tag k="name" v="Sjømyrveien" />
		<tag k="ssr:date" v="2016-05-10" />
		<tag k="ssr:gruppe" v="veg" />
		<tag k="ssr:hovedgruppe" v="infrastruktur" />
		<tag k="ssr:stedsnr" v="238134" />
		<tag k="ssr:type" v="vegstrekning" />
	</node>
	<node id="-39404" lat="60.2882166643" lon="11.5250388887">
		<tag k="name" v="Bjønnmyrveien" />
		<tag k="ssr:date" v="2016-05-10" />
		<tag k="ssr:gruppe" v="veg" />
		<tag k="ssr:hovedgruppe" v="infrastruktur" />
		<tag k="ssr:stedsnr" v="541546" />
		<tag k="ssr:type" v="vegstrekning" />
	</node>
	<node id="-38162" lat="60.1706367626" lon="11.5479011605">
		<tag k="name" v="Vognvegen" />
		<tag k="ssr:date" v="2019-05-30" />
		<tag k="ssr:gruppe" v="veg" />
		<tag k="ssr:hovedgruppe" v="infrastruktur" />
		<tag k="ssr:stedsnr" v="991775" />
		<tag k="ssr:type" v="adressenavn" />
	</node>
	<node id="-39015" lat="60.2732861149" lon="11.5160916707">
		<tag k="name" v="Langeveiene" />
		<tag k="ssr:date" v="2016-05-10" />
		<tag k="ssr:gruppe" v="veg" />
		<tag k="ssr:hovedgruppe" v="infrastruktur" />
		<tag k="ssr:stedsnr" v="419866" />
		<tag k="ssr:type" v="vegstrekning" />
	</node>
	<node id="-39782" lat="60.3008166653" lon="11.4576777849">
		<tag k="name" v="Dalsveien" />
		<tag k="ssr:date" v="2016-05-10" />
		<tag k="ssr:gruppe" v="veg" />
		<tag k="ssr:hovedgruppe" v="infrastruktur" />
		<tag k="ssr:stedsnr" v="662595" />
		<tag k="ssr:type" v="vegstrekning" />
	</node>
	<node id="-37730" lat="60.0689916696" lon="11.6562638932">
		<tag k="name" v="Løkenliveien" />
		<tag k="ssr:date" v="2016-05-10" />
		<tag k="ssr:gruppe" v="veg" />
		<tag k="ssr:hovedgruppe" v="infrastruktur" />
		<tag k="ssr:stedsnr" v="298287" />
		<tag k="ssr:type" v="vegstrekning" />
	</node>
	<node id="-39006" lat="60.2470111149" lon="11.4565361149">
		<tag k="name" v="Fyrivangveien" />
		<tag k="ssr:date" v="2016-05-10" />
		<tag k="ssr:gruppe" v="veg" />
		<tag k="ssr:hovedgruppe" v="infrastruktur" />
		<tag k="ssr:stedsnr" v="480062" />
		<tag k="ssr:type" v="vegstrekning" />
	</node>
	<node id="-38870" lat="60.2620305535" lon="11.5666138842">
		<tag k="name" v="Fløytaveien" />
		<tag k="ssr:date" v="2016-05-10" />
		<tag k="ssr:gruppe" v="veg" />
		<tag k="ssr:hovedgruppe" v="infrastruktur" />
		<tag k="ssr:stedsnr" v="237870" />
		<tag k="ssr:type" v="vegstrekning" />
	</node>
	<node id="-38508" lat="60.2485611135" lon="11.4842305623">
		<tag k="name" v="Setraveien" />
		<tag k="ssr:date" v="2016-05-10" />
		<tag k="ssr:gruppe" v="veg" />
		<tag k="ssr:hovedgruppe" v="infrastruktur" />
		<tag k="ssr:stedsnr" v="116824" />
		<tag k="ssr:type" v="vegstrekning" />
	</node>
	<node id="-38480" lat="60.0727416704" lon="11.654280559">
		<tag k="name" v="Gravdalsveien" />
		<tag k="ssr:date" v="2016-05-10" />
		<tag k="ssr:gruppe" v="veg" />
		<tag k="ssr:hovedgruppe" v="infrastruktur" />
		<tag k="ssr:stedsnr" v="116288" />
		<tag k="ssr:type" v="vegstrekning" />
	</node>
	<node id="-39626" lat="60.3020583314" lon="11.4633833271">
		<tag k="name" v="Elgheimveien" />
		<tag k="ssr:date" v="2016-05-10" />
		<tag k="ssr:gruppe" v="veg" />
		<tag k="ssr:hovedgruppe" v="infrastruktur" />
		<tag k="ssr:stedsnr" v="602627" />
		<tag k="ssr:type" v="vegstrekning" />
	</node>
	<node id="-40125" lat="60.0475444448" lon="11.7005972307">
		<tag k="name" v="Grueveien" />
		<tag k="ssr:date" v="2016-05-11" />
		<tag k="ssr:gruppe" v="veg" />
		<tag k="ssr:hovedgruppe" v="infrastruktur" />
		<tag k="ssr:stedsnr" v="769927" />
		<tag k="ssr:type" v="vegstrekning" />
	</node>
	<node id="-40507" lat="60.2435972191" lon="11.5419499937">
		<tag k="name" v="Østre Dystland" />
		<tag k="ssr:date" v="2016-05-11" />
		<tag k="ssr:gruppe" v="veg" />
		<tag k="ssr:hovedgruppe" v="infrastruktur" />
		<tag k="ssr:stedsnr" v="910415" />
		<tag k="ssr:type" v="adressetilleggsnavn" />
	</node>
	<node id="-40713" lat="60.176770381" lon="11.5088471896">
		<tag k="name" v="Granlikroken" />
		<tag k="ssr:date" v="2019-05-30" />
		<tag k="ssr:gruppe" v="veg" />
		<tag k="ssr:hovedgruppe" v="infrastruktur" />
		<tag k="ssr:stedsnr" v="979217" />
		<tag k="ssr:type" v="adressenavn" />
	</node>
	<node id="-39598" lat="60.2873305542" lon="11.4426249986">
		<tag k="name" v="Torvtjernveien" />
		<tag k="ssr:date" v="2016-05-10" />
		<tag k="ssr:gruppe" v="veg" />
		<tag k="ssr:hovedgruppe" v="infrastruktur" />
		<tag k="ssr:stedsnr" v="601616" />
		<tag k="ssr:type" v="vegstrekning" />
	</node>
	<node id="-40711" lat="60.5908609473" lon="9.63819281559">
		<tag k="fixme" v="multiple name tags, choose one and add the other to alt_name" />
		<tag k="name" v="Austlandet;Østlandet" />
		<tag k="ssr:date" v="2018-01-09" />
		<tag k="ssr:gruppe" v="administrativeIndelinger" />
		<tag k="ssr:hovedgruppe" v="offentligAdministrasjon" />
		<tag k="ssr:stedsnr" v="974775" />
		<tag k="ssr:type" v="annenAdministrativInndeling" />
	</node>
	<node id="-38150" lat="60.1171895501" lon="11.3483555143">
		<tag k="name" v="Dragen" />
		<tag k="ssr:date" v="2019-05-31" />
		<tag k="ssr:gruppe" v="veg" />
		<tag k="ssr:hovedgruppe" v="infrastruktur" />
		<tag k="ssr:stedsnr" v="1069729" />
		<tag k="ssr:type" v="adressenavn" />
	</node>
	<node id="-38305" lat="60.2701833365" lon="11.5678472138">
		<tag k="name" v="Togstadveien" />
		<tag k="ssr:date" v="2016-05-10" />
		<tag k="ssr:gruppe" v="veg" />
		<tag k="ssr:hovedgruppe" v="infrastruktur" />
		<tag k="ssr:stedsnr" v="56626" />
		<tag k="ssr:type" v="vegstrekning" />
	</node>
	<node id="-39431" lat="60.2620305568" lon="11.5818916646">
		<tag k="name" v="Bjønnstokkveien" />
		<tag k="ssr:date" v="2016-05-10" />
		<tag k="ssr:gruppe" v="veg" />
		<tag k="ssr:hovedgruppe" v="infrastruktur" />
		<tag k="ssr:stedsnr" v="541903" />
		<tag k="ssr:type" v="vegstrekning" />
	</node>
	<node id="-38682" lat="60.289247225" lon="11.5075666722">
		<tag k="name" v="Gusterudveien" />
		<tag k="ssr:date" v="2016-05-10" />
		<tag k="ssr:gruppe" v="veg" />
		<tag k="ssr:hovedgruppe" v="infrastruktur" />
		<tag k="ssr:stedsnr" v="177546" />
		<tag k="ssr:type" v="vegstrekning" />
	</node>
	<node id="-38677" lat="60.211483332" lon="11.4858472183">
		<tag k="name" v="Brattås-søndagsmyrveien" />
		<tag k="ssr:date" v="2016-05-10" />
		<tag k="ssr:gruppe" v="veg" />
		<tag k="ssr:hovedgruppe" v="infrastruktur" />
		<tag k="ssr:stedsnr" v="177381" />
		<tag k="ssr:type" v="vegstrekning" />
	</node>
	<node id="-39188" lat="60.1346166626" lon="11.4751083296">
		<tag k="name" v="Høiekroken" />
		<tag k="ssr:date" v="2019-05-30" />
		<tag k="ssr:gruppe" v="veg" />
		<tag k="ssr:hovedgruppe" v="infrastruktur" />
		<tag k="ssr:stedsnr" v="467906" />
		<tag k="ssr:type" v="adressenavn" />
	</node>
	<node id="-38163" lat="60.0571212359" lon="11.6418333476">
		<tag k="name" v="Lundbergsetervegen" />
		<tag k="ssr:date" v="2019-05-30" />
		<tag k="ssr:gruppe" v="veg" />
		<tag k="ssr:hovedgruppe" v="infrastruktur" />
		<tag k="ssr:stedsnr" v="992043" />
		<tag k="ssr:type" v="adressenavn" />
	</node>
	<node id="-39826" lat="60.095280558" lon="11.6197194515">
		<tag k="name" v="Storliveien" />
		<tag k="ssr:date" v="2016-05-10" />
		<tag k="ssr:gruppe" v="veg" />
		<tag k="ssr:hovedgruppe" v="infrastruktur" />
		<tag k="ssr:stedsnr" v="662976" />
		<tag k="ssr:type" v="vegstrekning" />
	</node>
	<node id="-38161" lat="60.1705886984" lon="11.5497455309">
		<tag k="name" v="Papirvegen" />
		<tag k="ssr:date" v="2019-05-30" />
		<tag k="ssr:gruppe" v="veg" />
		<tag k="ssr:hovedgruppe" v="infrastruktur" />
		<tag k="ssr:stedsnr" v="991774" />
		<tag k="ssr:type" v="adressenavn" />
	</node>
	<node id="-38160" lat="60.1138367169" lon="11.4621924889">
		<tag k="name" v="Evangjordet" />
		<tag k="ssr:date" v="2019-05-30" />
		<tag k="ssr:gruppe" v="veg" />
		<tag k="ssr:hovedgruppe" v="infrastruktur" />
		<tag k="ssr:stedsnr" v="991771" />
		<tag k="ssr:type" v="adressenavn" />
	</node>
	<node id="-38159" lat="60.1250651857" lon="11.4690253033">
		<tag k="name" v="Sagbruksgata" />
		<tag k="ssr:date" v="2019-05-30" />
		<tag k="ssr:gruppe" v="veg" />
		<tag k="ssr:hovedgruppe" v="infrastruktur" />
		<tag k="ssr:stedsnr" v="991053" />
		<tag k="ssr:type" v="adressenavn" />
	</node>
	<node id="-38158" lat="60.1245187247" lon="11.4684622259">
		<tag k="name" v="Høvlerigata" />
		<tag k="ssr:date" v="2019-05-30" />
		<tag k="ssr:gruppe" v="veg" />
		<tag k="ssr:hovedgruppe" v="infrastruktur" />
		<tag k="ssr:stedsnr" v="991052" />
		<tag k="ssr:type" v="adressenavn" />
	</node>
	<node id="-38157" lat="60.1768689008" lon="11.5192780058">
		<tag k="name" v="Mangsetvegen" />
		<tag k="ssr:date" v="2019-05-30" />
		<tag k="ssr:gruppe" v="veg" />
		<tag k="ssr:hovedgruppe" v="infrastruktur" />
		<tag k="ssr:stedsnr" v="991050" />
		<tag k="ssr:type" v="adressenavn" />
	</node>
	<node id="-40716" lat="60.1327927241" lon="11.4785369919">
		<tag k="name" v="Glitrevegen" />
		<tag k="ssr:date" v="2019-05-30" />
		<tag k="ssr:gruppe" v="veg" />
		<tag k="ssr:hovedgruppe" v="infrastruktur" />
		<tag k="ssr:stedsnr" v="979222" />
		<tag k="ssr:type" v="adressenavn" />
	</node>
	<node id="-40715" lat="60.1177933784" lon="11.4629902959">
		<tag k="name" v="Raumnessaga" />
		<tag k="ssr:date" v="2019-05-30" />
		<tag k="ssr:gruppe" v="veg" />
		<tag k="ssr:hovedgruppe" v="infrastruktur" />
		<tag k="ssr:stedsnr" v="979223" />
		<tag k="ssr:type" v="adressenavn" />
	</node>
	<node id="-40714" lat="60.1772284485" lon="11.5083772048">
		<tag k="name" v="Granlistubben" />
		<tag k="ssr:date" v="2019-05-30" />
		<tag k="ssr:gruppe" v="veg" />
		<tag k="ssr:hovedgruppe" v="infrastruktur" />
		<tag k="ssr:stedsnr" v="979218" />
		<tag k="ssr:type" v="adressenavn" />
	</node>
	<node id="-40010" lat="60.2627027777" lon="11.5802083294">
		<tag k="name" v="Grasbergveien" />
		<tag k="ssr:date" v="2016-05-11" />
		<tag k="ssr:gruppe" v="veg" />
		<tag k="ssr:hovedgruppe" v="infrastruktur" />
		<tag k="ssr:stedsnr" v="723853" />
		<tag k="ssr:type" v="vegstrekning" />
	</node>
	<node id="-40071" lat="60.1795555519" lon="11.5154083316">
		<tag k="name" v="Oppaker" />
		<tag k="ssr:date" v="2016-05-11" />
		<tag k="ssr:gruppe" v="administrativeIndelinger" />
		<tag k="ssr:hovedgruppe" v="offentligAdministrasjon" />
		<tag k="ssr:stedsnr" v="752668" />
		<tag k="ssr:type" v="poststed" />
	</node>
	<node id="-40454" lat="60.2422305511" lon="11.291430562">
		<tag k="name" v="Brattstupveien" />
		<tag k="ssr:date" v="2016-05-11" />
		<tag k="ssr:gruppe" v="veg" />
		<tag k="ssr:hovedgruppe" v="infrastruktur" />
		<tag k="ssr:stedsnr" v="905091" />
		<tag k="ssr:type" v="vegstrekning" />
	</node>
	<node id="-40706" lat="60.2146111146" lon="11.3830527867">
		<tag k="name" v="Østerengtunet" />
		<tag k="ssr:date" v="2019-05-30" />
		<tag k="ssr:gruppe" v="veg" />
		<tag k="ssr:hovedgruppe" v="infrastruktur" />
		<tag k="ssr:stedsnr" v="967596" />
		<tag k="ssr:type" v="adressenavn" />
	</node>
</osm>
