<?xml version="1.0" encoding="UTF-8"?>
<osm version="0.6" generator="osmapis">
	<node id="27129690" lat="69.7271478" lon="30.0448971" version="16" timestamp="2022-07-11T04:55:47Z" changeset="123454106" uid="3497659" user="NKA">
		<tag k="name" v="Kirkenes - Girkonjárga - Kirkkoniemi" />
		<tag k="name:fi" v="Kirkkoniemi" />
		<tag k="name:fkv" v="Kirkkoniemi" />
		<tag k="name:no" v="Kirkenes" />
		<tag k="name:ru" v="Киркенес" />
		<tag k="name:se" v="Girkonjárga" />
		<tag k="name:zh" v="希尔克内斯" />
		<tag k="place" v="town" />
		<tag k="population" v="3459" />
		<tag k="population:date" v="2021-01-01" />
		<tag k="ref:ssb_tettsted" v="8684" />
		<tag k="source:population" v="SSB - befolkning i tettstedet" />
		<tag k="ssr:stedsnr" v="140217" />
		<tag k="wikidata" v="Q209423" />
	</node>
	<node id="27130087" lat="69.2564779" lon="29.2521959" version="4" timestamp="2022-07-11T04:55:47Z" changeset="123454106" uid="3497659" user="NKA">
		<tag k="name" v="Skogly" />
		<tag k="place" v="hamlet" />
		<tag k="ssr:stedsnr" v="807110" />
	</node>
	<node id="29339304" lat="69.972965" lon="29.6420545" version="3" timestamp="2022-07-11T04:55:47Z" changeset="123454106" uid="3497659" user="NKA">
		<tag k="name" v="Bugøynes - Buođggák - Pykeijä" />
		<tag k="name:fi" v="Pykeija" />
		<tag k="name:fkv" v="Pykeijä" />
		<tag k="name:no" v="Bugøynes" />
		<tag k="name:se" v="Buođggák" />
		<tag k="place" v="village" />
		<tag k="ssr:stedsnr" v="747169" />
	</node>
	<node id="390043488" lat="69.4537776" lon="30.0497748" version="4" timestamp="2022-07-11T04:55:47Z" changeset="123454106" uid="3497659" user="NKA">
		<tag k="loc_name:fkv" v="Jouttenlahti" />
		<tag k="name" v="Svanvik" />
		<tag k="name:no" v="Svanvik" />
		<tag k="place" v="village" />
		<tag k="ssr:stedsnr" v="200980" />
	</node>
	<node id="400964535" lat="69.445507" lon="30.0514694" version="2" timestamp="2022-07-11T04:55:47Z" changeset="123454106" uid="3497659" user="NKA">
		<tag k="name" v="Utnes - Ulkoniemi" />
		<tag k="name:fkv" v="Ulkoniemi" />
		<tag k="name:no" v="Utnes" />
		<tag k="place" v="neighbourhood" />
		<tag k="ssr:stedsnr" v="241224" />
	</node>
	<node id="572659030" lat="69.6673657" lon="29.9872241" version="14" timestamp="2022-07-11T04:55:47Z" changeset="123454106" uid="3497659" user="NKA">
		<tag k="description" v="Site of former iron ore mine" />
		<tag k="loc_name:sms" v="Kuõbǯǯjäuʹrr" />
		<tag k="name" v="Bjørnevatn - Guovžajávri - Kruuvakylä" />
		<tag k="name:fi" v="Kruuvakylä" />
		<tag k="name:fkv" v="Kruuvakylä" />
		<tag k="name:no" v="Bjørnevatn" />
		<tag k="name:se" v="Guovžajávri" />
		<tag k="place" v="village" />
		<tag k="population" v="2572" />
		<tag k="population:date" v="2021-01-01" />
		<tag k="ref:ssb_tettsted" v="8683" />
		<tag k="source:population" v="SSB - befolkning i tettstedet" />
		<tag k="ssr:stedsnr" v="869112" />
		<tag k="wikidata" v="Q2796487" />
		<tag k="wikipedia" v="no:Bjørnevatn" />
	</node>
	<node id="572659031" lat="69.6868198" lon="29.9973303" version="7" timestamp="2022-07-11T04:55:47Z" changeset="123454106" uid="3497659" user="NKA">
		<tag k="loc_name:fkv" v="Hessenki" />
		<tag k="name" v="Hesseng" />
		<tag k="name:no" v="Hesseng" />
		<tag k="name:ru" v="Хессенг" />
		<tag k="place" v="village" />
		<tag k="population" v="1735" />
		<tag k="population:date" v="2021-01-01" />
		<tag k="ref:ssb_tettsted" v="8682" />
		<tag k="source:population" v="SSB - befolkning i tettstedet" />
		<tag k="ssr:stedsnr" v="444086" />
		<tag k="wikidata" v="Q2656931" />
	</node>
	<node id="2074786266" lat="69.7910108" lon="30.7964308" version="4" timestamp="2022-07-11T04:55:47Z" changeset="123454106" uid="3497659" user="NKA">
		<tag k="loc_name:se" v="Vuorjám" />
		<tag k="loc_name:sms" v="Vueʹrjemjokk" />
		<tag k="name" v="Grense Jakobselv - Vuorjánjohka - Vuoremijoki" />
		<tag k="name:ca" v="Grense Jakobselv" />
		<tag k="name:de" v="Grenze Jakobsfluss" />
		<tag k="name:fkv" v="Vuoremijoki" />
		<tag k="name:no" v="Grense Jakobselv" />
		<tag k="name:se" v="Vuorjánjohka" />
		<tag k="place" v="hamlet" />
		<tag k="ssr:stedsnr" v="625434" />
	</node>
	<node id="2353385555" lat="69.670292" lon="30.335858" version="2" timestamp="2018-05-02T17:03:50Z" changeset="58620907" uid="3497659" user="NKA">
		<tag k="name" v="Sandbukta" />
		<tag k="name:no" v="Sandbukta" />
		<tag k="natural" v="bay" />
		<tag k="source" v="Kartverket" />
		<tag k="ssr:stedsnr" v="756195" />
	</node>
	<node id="2354581526" lat="69.7899987" lon="30.1818497" version="3" timestamp="2022-07-11T04:55:47Z" changeset="123454106" uid="3497659" user="NKA">
		<tag k="name" v="Kjosen" />
		<tag k="name:no" v="Kjosen" />
		<tag k="place" v="farm" />
		<tag k="ssr:stedsnr" v="714247" />
	</node>
	<node id="2605807505" lat="69.7010441" lon="29.2515095" version="2" timestamp="2022-07-11T04:55:47Z" changeset="123454106" uid="3497659" user="NKA">
		<tag k="alt_name:no" v="Veines" />
		<tag k="name" v="Øvre Neiden - Badje-Njávdán - Pâʹjj Njauddâm - Yli-Näätämö" />
		<tag k="name:fkv" v="Yli-Näätämö" />
		<tag k="name:no" v="Øvre Neiden" />
		<tag k="name:se" v="Badje-Njávdán" />
		<tag k="name:sms" v="Pâʹjj Njauddâm" />
		<tag k="old_name:no" v="Neiden, øvre" />
		<tag k="old_name:se" v="Baddjenjavdan" />
		<tag k="place" v="hamlet" />
		<tag k="ssr:stedsnr" v="382010" />
	</node>
	<node id="2927826744" lat="69.8682565" lon="29.3458777" version="4" timestamp="2022-07-11T04:55:47Z" changeset="123454106" uid="3497659" user="NKA">
		<tag k="name" v="Bugøyfjord - Reaisvuonna - Reisivuono" />
		<tag k="name:fkv" v="Reisivuono" />
		<tag k="name:no" v="Bugøyfjord" />
		<tag k="name:se" v="Reaisvuonna" />
		<tag k="old_name:se" v="Boudggák" />
		<tag k="place" v="village" />
		<tag k="ssr:stedsnr" v="747119" />
	</node>
	<node id="2940305651" lat="69.6952816" lon="29.379154" version="4" timestamp="2022-07-11T04:55:47Z" changeset="123454106" uid="3497659" user="NKA">
		<tag k="name" v="Neiden - Njávdán - Njauddâm - Näätämö" />
		<tag k="name:fi" v="Näätämö" />
		<tag k="name:fkv" v="Näätämö" />
		<tag k="name:nb" v="Neiden" />
		<tag k="name:no" v="Neiden" />
		<tag k="name:ru" v="Нейден" />
		<tag k="name:se" v="Njávdán" />
		<tag k="name:sms" v="Njauddâm" />
		<tag k="place" v="village" />
		<tag k="ssr:stedsnr" v="929006" />
		<tag k="wikipedia" v="no:Neiden" />
	</node>
	<node id="3510700518" lat="69.1647086" lon="29.2452115" version="3" timestamp="2022-07-11T04:55:47Z" changeset="123454106" uid="3497659" user="NKA">
		<tag k="name" v="Noatun" />
		<tag k="place" v="isolated_dwelling" />
		<tag k="ssr:stedsnr" v="564036" />
	</node>
	<node id="3510892926" lat="69.1470245" lon="29.2436172" version="2" timestamp="2022-07-11T04:55:47Z" changeset="123454106" uid="3497659" user="NKA">
		<tag k="loc_name:fkv" v="Nyyruudi" />
		<tag k="name" v="Nyrud" />
		<tag k="name:no" v="Nyrud" />
		<tag k="place" v="neighbourhood" />
		<tag k="ssr:stedsnr" v="929022" />
	</node>
	<node id="4978856570" lat="69.7287325" lon="30.124722" version="2" timestamp="2022-07-11T04:55:47Z" changeset="123454106" uid="3497659" user="NKA">
		<tag k="loc_name:sms" v="Leavanjargg" />
		<tag k="name" v="Jakobsnes - Lávvonjárga - Jaakonniemi" />
		<tag k="name:fkv" v="Jaakonniemi" />
		<tag k="name:no" v="Jakobsnes" />
		<tag k="name:se" v="Lávvonjárga" />
		<tag k="place" v="village" />
		<tag k="ssr:stedsnr" v="564202" />
	</node>
	<node id="6746757957" lat="69.1927037" lon="29.2821103" version="2" timestamp="2022-07-11T04:55:47Z" changeset="123454106" uid="3497659" user="NKA">
		<tag k="name" v="Lyngmo" />
		<tag k="place" v="farm" />
		<tag k="ssr:stedsnr" v="928769" />
	</node>
	<node id="6746780450" lat="69.2089797" lon="29.2640552" version="2" timestamp="2022-07-11T04:55:47Z" changeset="123454106" uid="3497659" user="NKA">
		<tag k="name" v="Solvang" />
		<tag k="place" v="isolated_dwelling" />
		<tag k="ssr:stedsnr" v="139788" />
	</node>
	<node id="6746780451" lat="69.2137312" lon="29.2584252" version="2" timestamp="2022-07-11T04:55:47Z" changeset="123454106" uid="3497659" user="NKA">
		<tag k="name" v="Kilebukt" />
		<tag k="place" v="farm" />
		<tag k="ssr:stedsnr" v="592467" />
	</node>
	<node id="6746780452" lat="69.2131128" lon="29.2546392" version="2" timestamp="2022-07-11T04:55:47Z" changeset="123454106" uid="3497659" user="NKA">
		<tag k="name" v="Nyheim" />
		<tag k="place" v="locality" />
		<tag k="ssr:stedsnr" v="443775" />
	</node>
	<node id="6746780471" lat="69.2164783" lon="29.2927564" version="2" timestamp="2022-07-11T04:55:47Z" changeset="123454106" uid="3497659" user="NKA">
		<tag k="alt_name" v="Svanvold" />
		<tag k="name" v="Svanvoll" />
		<tag k="place" v="farm" />
		<tag k="ssr:stedsnr" v="928786" />
	</node>
	<node id="6746780484" lat="69.2277725" lon="29.3016495" version="2" timestamp="2022-07-11T04:55:47Z" changeset="123454106" uid="3497659" user="NKA">
		<tag k="name" v="Nesheim" />
		<tag k="place" v="locality" />
		<tag k="ssr:stedsnr" v="928739" />
	</node>
	<node id="6746823552" lat="69.4166619" lon="29.5837353" version="2" timestamp="2022-07-11T04:55:47Z" changeset="123454106" uid="3497659" user="NKA">
		<tag k="name" v="Malbekkoia - Njearreveajbarta" />
		<tag k="name:no" v="Malbekkoia" />
		<tag k="name:se" v="Njearreveajbarta" />
		<tag k="place" v="isolated_dwelling" />
		<tag k="ssr:stedsnr" v="19930" />
	</node>
	<node id="6750733521" lat="69.5301069" lon="30.1073246" version="2" timestamp="2022-07-11T04:55:47Z" changeset="123454106" uid="3497659" user="NKA">
		<tag k="name" v="Saga" />
		<tag k="place" v="hamlet" />
		<tag k="ssr:stedsnr" v="350317" />
	</node>
	<node id="6750733609" lat="69.5345842" lon="30.1520119" version="2" timestamp="2022-07-11T04:55:47Z" changeset="123454106" uid="3497659" user="NKA">
		<tag k="name" v="Fossgård" />
		<tag k="place" v="isolated_dwelling" />
		<tag k="ssr:stedsnr" v="168272" />
	</node>
	<node id="6750733627" lat="69.5380053" lon="30.1605676" version="2" timestamp="2022-07-11T04:55:47Z" changeset="123454106" uid="3497659" user="NKA">
		<tag k="name" v="Nordmo" />
		<tag k="place" v="hamlet" />
		<tag k="ssr:stedsnr" v="775249" />
	</node>
	<node id="6750733628" lat="69.5390904" lon="30.1657484" version="2" timestamp="2022-07-11T04:55:47Z" changeset="123454106" uid="3497659" user="NKA">
		<tag k="name" v="Dale" />
		<tag k="place" v="farm" />
		<tag k="ssr:stedsnr" v="807798" />
	</node>
	<node id="6851897452" lat="69.9360559" lon="29.5657979" version="2" timestamp="2022-07-11T04:55:47Z" changeset="123454106" uid="3497659" user="NKA">
		<tag k="name" v="Ranvika" />
		<tag k="place" v="isolated_dwelling" />
		<tag k="ssr:stedsnr" v="19165" />
	</node>
	<node id="7295461190" lat="69.6626599" lon="29.9656564" version="2" timestamp="2022-01-26T06:08:00Z" changeset="116609992" uid="3497659" user="NKA">
		<tag k="junction" v="yes" />
		<tag k="name" v="Håpet" />
		<tag k="ssr:stedsnr" v="640760" />
	</node>
	<node id="7295496947" lat="69.70261" lon="29.365529" version="2" timestamp="2022-01-26T06:08:00Z" changeset="116609992" uid="3497659" user="NKA">
		<tag k="junction" v="yes" />
		<tag k="name" v="Øvre Neiden veidele" />
		<tag k="ssr:stedsnr" v="519422" />
	</node>
	<node id="7295497225" lat="69.4126633" lon="29.7791181" version="2" timestamp="2022-01-26T06:08:00Z" changeset="116609992" uid="3497659" user="NKA">
		<tag k="junction" v="yes" />
		<tag k="name" v="Melkefosskrysset" />
		<tag k="ssr:stedsnr" v="443931" />
	</node>
	<node id="7295497541" lat="69.428824" lon="29.835191" version="2" timestamp="2022-01-26T06:08:00Z" changeset="116609992" uid="3497659" user="NKA">
		<tag k="junction" v="yes" />
		<tag k="name" v="Stenbakkrysset" />
		<tag k="ssr:stedsnr" v="868910" />
	</node>
	<node id="7295497758" lat="69.5089635" lon="30.0885736" version="2" timestamp="2022-01-26T06:08:00Z" changeset="116609992" uid="3497659" user="NKA">
		<tag k="junction" v="yes" />
		<tag k="name" v="Rødsandkrysset" />
		<tag k="ssr:stedsnr" v="471267" />
	</node>
	<node id="7295498069" lat="69.695884" lon="29.377021" version="2" timestamp="2022-01-26T06:08:00Z" changeset="116609992" uid="3497659" user="NKA">
		<tag k="junction" v="yes" />
		<tag k="name" v="Nedre Neiden veidele" />
		<tag k="ssr:stedsnr" v="95339" />
	</node>
	<node id="7295498137" lat="69.692841" lon="29.417048" version="2" timestamp="2022-01-26T06:08:00Z" changeset="116609992" uid="3497659" user="NKA">
		<tag k="junction" v="yes" />
		<tag k="name" v="Arvolakrysset" />
		<tag k="ssr:stedsnr" v="397517" />
	</node>
	<node id="7295498142" lat="69.684055" lon="29.4144" version="2" timestamp="2022-01-26T06:08:00Z" changeset="116609992" uid="3497659" user="NKA">
		<tag k="junction" v="yes" />
		<tag k="name" v="Bordevarri-krysset" />
		<tag k="ssr:stedsnr" v="216052" />
	</node>
	<node id="7295498535" lat="69.4732616" lon="29.8712208" version="3" timestamp="2022-03-15T20:23:13Z" changeset="118526252" uid="32112" user="SverigeFan">
		<tag k="junction" v="yes" />
		<tag k="name" v="Kaivokrysset" />
		<tag k="ssr:stedsnr" v="108505" />
	</node>
	<node id="7295498743" lat="69.452908" lon="29.987846" version="2" timestamp="2022-01-26T06:08:00Z" changeset="116609992" uid="3497659" user="NKA">
		<tag k="junction" v="yes" />
		<tag k="name" v="Skrøytneskrysset" />
		<tag k="ssr:stedsnr" v="471540" />
	</node>
	<node id="7295498745" lat="69.5649" lon="30.075505" version="2" timestamp="2022-01-26T06:08:00Z" changeset="116609992" uid="3497659" user="NKA">
		<tag k="junction" v="yes" />
		<tag k="name" v="Brattlikrysset" />
		<tag k="ssr:stedsnr" v="756515" />
	</node>
	<node id="7295500037" lat="69.500635" lon="30.014881" version="2" timestamp="2022-01-26T06:08:00Z" changeset="116609992" uid="3497659" user="NKA">
		<tag k="junction" v="yes" />
		<tag k="name" v="Ryengkrysset" />
		<tag k="ssr:stedsnr" v="957567" />
	</node>
	<node id="7295500547" lat="69.687591" lon="29.988142" version="2" timestamp="2022-01-26T06:08:00Z" changeset="116609992" uid="3497659" user="NKA">
		<tag k="junction" v="yes" />
		<tag k="name" v="Hessengkrysset" />
		<tag k="ssr:stedsnr" v="883883" />
	</node>
	<node id="7417634349" lat="69.6663533" lon="30.1183781" version="2" timestamp="2022-07-11T04:55:47Z" changeset="123454106" uid="3497659" user="NKA">
		<tag k="name" v="Skafferhollet" />
		<tag k="place" v="farm" />
		<tag k="ssr:stedsnr" v="505799" />
	</node>
	<node id="8109739065" lat="69.6791719" lon="30.1051655" version="3" timestamp="2022-07-11T04:55:47Z" changeset="123454106" uid="3497659" user="NKA">
		<tag k="loc_name:sms" v="Jokknjargg" />
		<tag k="name" v="Elvenes - Johkanjárga - Jokiniemi" />
		<tag k="name:fkv" v="Jokiniemi" />
		<tag k="name:no" v="Elvenes" />
		<tag k="name:se" v="Johkanjárga" />
		<tag k="old_name:no" v="Elvnes" />
		<tag k="place" v="village" />
		<tag k="ssr:stedsnr" v="626801" />
	</node>
	<node id="9449005836" lat="69.671959" lon="29.9558035" version="1" timestamp="2022-01-26T06:08:00Z" changeset="116609992" uid="3497659" user="NKA">
		<tag k="junction" v="yes" />
		<tag k="name" v="Sandneskrysset" />
		<tag k="ssr:stedsnr" v="397835" />
	</node>
	<node id="9581039809" lat="69.4493105" lon="30.0557407" version="2" timestamp="2022-07-11T04:55:47Z" changeset="123454106" uid="3497659" user="NKA">
		<tag k="name" v="Langnes" />
		<tag k="place" v="farm" />
		<tag k="ssr:stedsnr" v="337587" />
	</node>
	<node id="9880243557" lat="69.2451507" lon="29.2177014" version="1" timestamp="2022-07-11T04:55:47Z" changeset="123454106" uid="3497659" user="NKA">
		<tag k="name" v="Storsteinneset" />
		<tag k="place" v="hamlet" />
		<tag k="ssr:stedsnr" v="19771" />
	</node>
	<node id="9880243558" lat="69.529647" lon="30.1081805" version="1" timestamp="2022-07-11T04:55:47Z" changeset="123454106" uid="3497659" user="NKA">
		<tag k="name" v="Fjell" />
		<tag k="place" v="farm" />
		<tag k="ssr:stedsnr" v="322798" />
	</node>
	<node id="9880243559" lat="69.7056253" lon="29.4955657" version="1" timestamp="2022-07-11T04:55:47Z" changeset="123454106" uid="3497659" user="NKA">
		<tag k="name" v="Nordli" />
		<tag k="place" v="farm" />
		<tag k="ssr:stedsnr" v="168222" />
	</node>
	<node id="9880243560" lat="69.7050614" lon="29.5031489" version="1" timestamp="2022-07-11T04:55:47Z" changeset="123454106" uid="3497659" user="NKA">
		<tag k="name" v="Mygglund" />
		<tag k="place" v="farm" />
		<tag k="ssr:stedsnr" v="228216" />
	</node>
	<node id="9880243561" lat="69.6523426" lon="29.4727961" version="1" timestamp="2022-07-11T04:55:47Z" changeset="123454106" uid="3497659" user="NKA">
		<tag k="name" v="Myrbakken" />
		<tag k="old_name" v="Sommarplassen" />
		<tag k="place" v="isolated_dwelling" />
		<tag k="ssr:stedsnr" v="383120" />
	</node>
	<node id="9880243562" lat="69.507165" lon="30.0785148" version="1" timestamp="2022-07-11T04:55:47Z" changeset="123454106" uid="3497659" user="NKA">
		<tag k="alt_name" v="Rognrøst" />
		<tag k="name" v="Rognrøstet" />
		<tag k="place" v="farm" />
		<tag k="ssr:stedsnr" v="140823" />
	</node>
	<node id="9880243563" lat="69.4742977" lon="30.0130198" version="1" timestamp="2022-07-11T04:55:47Z" changeset="123454106" uid="3497659" user="NKA">
		<tag k="name" v="Bakkeslett" />
		<tag k="place" v="farm" />
		<tag k="ssr:stedsnr" v="261979" />
	</node>
	<node id="9880243564" lat="69.8994615" lon="29.7985074" version="1" timestamp="2022-07-11T04:55:47Z" changeset="123454106" uid="3497659" user="NKA">
		<tag k="alt_name" v="Revøysund" />
		<tag k="loc_name" v="Revøysundet" />
		<tag k="name" v="Revholmsundet" />
		<tag k="place" v="isolated_dwelling" />
		<tag k="ssr:stedsnr" v="687219" />
	</node>
	<node id="9880243565" lat="69.4151449" lon="29.9309353" version="1" timestamp="2022-07-11T04:55:47Z" changeset="123454106" uid="3497659" user="NKA">
		<tag k="alt_name" v="Karlsbu" />
		<tag k="name" v="Karlsbø" />
		<tag k="place" v="farm" />
		<tag k="ssr:stedsnr" v="116177" />
	</node>
	<node id="9880243566" lat="69.7933172" lon="30.1740659" version="1" timestamp="2022-07-11T04:55:47Z" changeset="123454106" uid="3497659" user="NKA">
		<tag k="name" v="Fjeldli" />
		<tag k="place" v="farm" />
		<tag k="ssr:stedsnr" v="410296" />
	</node>
	<node id="9880243567" lat="69.4467854" lon="29.9942434" version="1" timestamp="2022-07-11T04:55:47Z" changeset="123454106" uid="3497659" user="NKA">
		<tag k="name" v="Nyland" />
		<tag k="place" v="farm" />
		<tag k="ssr:stedsnr" v="79982" />
	</node>
	<node id="9880243568" lat="69.5006451" lon="30.0421015" version="1" timestamp="2022-07-11T04:55:47Z" changeset="123454106" uid="3497659" user="NKA">
		<tag k="name" v="Furulund" />
		<tag k="place" v="farm" />
		<tag k="ssr:stedsnr" v="200897" />
	</node>
	<node id="9880243569" lat="69.4282213" lon="29.9956268" version="1" timestamp="2022-07-11T04:55:47Z" changeset="123454106" uid="3497659" user="NKA">
		<tag k="alt_name:no" v="Nedre Skrøytnes" />
		<tag k="name" v="Nordre Skrøytnes" />
		<tag k="old_name" v="N.Skrotnes" />
		<tag k="place" v="farm" />
		<tag k="ssr:stedsnr" v="1078794" />
	</node>
	<node id="9880243570" lat="69.5293421" lon="29.9612402" version="1" timestamp="2022-07-11T04:55:47Z" changeset="123454106" uid="3497659" user="NKA">
		<tag k="name" v="Steinnes" />
		<tag k="place" v="farm" />
		<tag k="ssr:stedsnr" v="201183" />
	</node>
	<node id="9880243571" lat="69.5204643" lon="29.962757" version="1" timestamp="2022-07-11T04:55:47Z" changeset="123454106" uid="3497659" user="NKA">
		<tag k="alt_name" v="Tjæradalen" />
		<tag k="name" v="Tjæredalen" />
		<tag k="place" v="farm" />
		<tag k="ssr:stedsnr" v="869231" />
	</node>
	<node id="9880243572" lat="69.509781" lon="29.9749595" version="1" timestamp="2022-07-11T04:55:47Z" changeset="123454106" uid="3497659" user="NKA">
		<tag k="name" v="Vidjelund" />
		<tag k="place" v="farm" />
		<tag k="ssr:stedsnr" v="202200" />
	</node>
	<node id="9880243573" lat="69.153503" lon="29.1166798" version="1" timestamp="2022-07-11T04:55:47Z" changeset="123454106" uid="3497659" user="NKA">
		<tag k="name" v="Gjøkvasskoia - Giehkajárstohpu" />
		<tag k="name:no" v="Gjøkvasskoia" />
		<tag k="name:se" v="Giehkajárstohpu" />
		<tag k="place" v="isolated_dwelling" />
		<tag k="ssr:stedsnr" v="200061" />
	</node>
	<node id="9880243574" lat="69.4252032" lon="29.8274849" version="1" timestamp="2022-07-11T04:55:47Z" changeset="123454106" uid="3497659" user="NKA">
		<tag k="name" v="Solheim" />
		<tag k="place" v="farm" />
		<tag k="ssr:stedsnr" v="746913" />
	</node>
	<node id="9880243575" lat="69.6725033" lon="29.9537654" version="1" timestamp="2022-07-11T04:55:47Z" changeset="123454106" uid="3497659" user="NKA">
		<tag k="name" v="Gresselvdalen" />
		<tag k="place" v="neighbourhood" />
		<tag k="ssr:stedsnr" v="33840" />
	</node>
	<node id="9880243576" lat="69.4160227" lon="29.826332" version="1" timestamp="2022-07-11T04:55:47Z" changeset="123454106" uid="3497659" user="NKA">
		<tag k="name" v="Myrvang" />
		<tag k="place" v="farm" />
		<tag k="ssr:stedsnr" v="746924" />
	</node>
	<node id="9880243577" lat="69.4313115" lon="29.847537" version="1" timestamp="2022-07-11T04:55:47Z" changeset="123454106" uid="3497659" user="NKA">
		<tag k="name" v="Håland" />
		<tag k="place" v="farm" />
		<tag k="ssr:stedsnr" v="714736" />
	</node>
	<node id="9880243578" lat="69.4268944" lon="29.8689033" version="1" timestamp="2022-07-11T04:55:47Z" changeset="123454106" uid="3497659" user="NKA">
		<tag k="name" v="Kløvereng" />
		<tag k="place" v="farm" />
		<tag k="ssr:stedsnr" v="746909" />
	</node>
	<node id="9880243579" lat="69.4049711" lon="29.7929251" version="1" timestamp="2022-07-11T04:55:47Z" changeset="123454106" uid="3497659" user="NKA">
		<tag k="name" v="Brenngammen" />
		<tag k="place" v="farm" />
		<tag k="ssr:stedsnr" v="715950" />
	</node>
	<node id="9880243580" lat="69.785367" lon="29.6864427" version="1" timestamp="2022-07-11T04:55:47Z" changeset="123454106" uid="3497659" user="NKA">
		<tag k="name" v="Coagalm - Sokolmi" />
		<tag k="name:fkv" v="Sokolmi" />
		<tag k="name:se" v="Coagalm" />
		<tag k="place" v="isolated_dwelling" />
		<tag k="ssr:stedsnr" v="323032" />
	</node>
	<node id="9880243581" lat="69.426995" lon="29.8289769" version="1" timestamp="2022-07-11T04:55:47Z" changeset="123454106" uid="3497659" user="NKA">
		<tag k="name" v="Rogndal" />
		<tag k="place" v="farm" />
		<tag k="ssr:stedsnr" v="532712" />
	</node>
	<node id="9880243582" lat="69.4240074" lon="29.8512713" version="1" timestamp="2022-07-11T04:55:47Z" changeset="123454106" uid="3497659" user="NKA">
		<tag k="name" v="Myrslett" />
		<tag k="place" v="farm" />
		<tag k="ssr:stedsnr" v="229736" />
	</node>
	<node id="9880243583" lat="69.4155726" lon="29.8246653" version="1" timestamp="2022-07-11T04:55:47Z" changeset="123454106" uid="3497659" user="NKA">
		<tag k="name" v="Solbakken" />
		<tag k="place" v="farm" />
		<tag k="ssr:stedsnr" v="290654" />
	</node>
	<node id="9880243584" lat="69.4149243" lon="29.799781" version="1" timestamp="2022-07-11T04:55:47Z" changeset="123454106" uid="3497659" user="NKA">
		<tag k="name" v="Huldreheimen" />
		<tag k="place" v="farm" />
		<tag k="ssr:stedsnr" v="47710" />
	</node>
	<node id="9880243585" lat="69.4117383" lon="29.8097513" version="1" timestamp="2022-07-11T04:55:47Z" changeset="123454106" uid="3497659" user="NKA">
		<tag k="name" v="Mikkelstad" />
		<tag k="place" v="farm" />
		<tag k="ssr:stedsnr" v="139923" />
	</node>
	<node id="9880243586" lat="69.5314435" lon="29.9600919" version="1" timestamp="2022-07-11T04:55:47Z" changeset="123454106" uid="3497659" user="NKA">
		<tag k="alt_name" v="Kildemo" />
		<tag k="name" v="Kjeldemo" />
		<tag k="place" v="farm" />
		<tag k="ssr:stedsnr" v="444168" />
	</node>
	<node id="9880243587" lat="69.443149" lon="29.8715827" version="1" timestamp="2022-07-11T04:55:47Z" changeset="123454106" uid="3497659" user="NKA">
		<tag k="name" v="Øverli" />
		<tag k="place" v="isolated_dwelling" />
		<tag k="ssr:stedsnr" v="139897" />
	</node>
	<node id="9880243588" lat="69.513256" lon="29.9880759" version="1" timestamp="2022-07-11T04:55:47Z" changeset="123454106" uid="3497659" user="NKA">
		<tag k="name" v="Karlsbakken" />
		<tag k="place" v="farm" />
		<tag k="ssr:stedsnr" v="714542" />
	</node>
	<node id="9880243589" lat="69.7972392" lon="29.7104367" version="1" timestamp="2022-07-11T04:55:47Z" changeset="123454106" uid="3497659" user="NKA">
		<tag k="name" v="Solbakken" />
		<tag k="place" v="isolated_dwelling" />
		<tag k="ssr:stedsnr" v="505027" />
	</node>
	<node id="9880243590" lat="69.7741032" lon="29.8398955" version="1" timestamp="2022-07-11T04:55:47Z" changeset="123454106" uid="3497659" user="NKA">
		<tag k="name" v="Jensbukt" />
		<tag k="place" v="isolated_dwelling" />
		<tag k="ssr:stedsnr" v="411534" />
	</node>
	<node id="9880243591" lat="69.5178644" lon="29.9625763" version="1" timestamp="2022-07-11T04:55:47Z" changeset="123454106" uid="3497659" user="NKA">
		<tag k="name" v="Wangseth" />
		<tag k="place" v="farm" />
		<tag k="ssr:stedsnr" v="653627" />
	</node>
	<node id="9880243592" lat="69.7773476" lon="29.8295123" version="1" timestamp="2022-07-11T04:55:47Z" changeset="123454106" uid="3497659" user="NKA">
		<tag k="name" v="Sør-Leirvåg" />
		<tag k="place" v="isolated_dwelling" />
		<tag k="ssr:stedsnr" v="532685" />
	</node>
	<node id="9880243593" lat="69.5045589" lon="30.0732906" version="1" timestamp="2022-07-11T04:55:47Z" changeset="123454106" uid="3497659" user="NKA">
		<tag k="alt_name" v="Lauvli" />
		<tag k="name" v="Løvli" />
		<tag k="place" v="farm" />
		<tag k="ssr:stedsnr" v="653256" />
	</node>
	<node id="9880243594" lat="69.5348914" lon="29.954194" version="1" timestamp="2022-07-11T04:55:47Z" changeset="123454106" uid="3497659" user="NKA">
		<tag k="name" v="Langnes" />
		<tag k="place" v="farm" />
		<tag k="ssr:stedsnr" v="383215" />
	</node>
	<node id="9880243595" lat="69.8978867" lon="29.797665" version="1" timestamp="2022-07-11T04:55:47Z" changeset="123454106" uid="3497659" user="NKA">
		<tag k="name" v="Laksfiskebuer" />
		<tag k="place" v="locality" />
		<tag k="ssr:stedsnr" v="291934" />
	</node>
	<node id="9880243596" lat="69.8986171" lon="29.8971136" version="1" timestamp="2022-07-11T04:55:47Z" changeset="123454106" uid="3497659" user="NKA">
		<tag k="name" v="Skogerøyværet - Skuvgit" />
		<tag k="name:no" v="Skogerøyværet" />
		<tag k="name:se" v="Skuvgit" />
		<tag k="place" v="isolated_dwelling" />
		<tag k="ssr:stedsnr" v="262217" />
	</node>
	<node id="9880243597" lat="69.5614339" lon="30.1309976" version="1" timestamp="2022-07-11T04:55:47Z" changeset="123454106" uid="3497659" user="NKA">
		<tag k="alt_name" v="Bekkevold" />
		<tag k="name" v="Bekkevoll" />
		<tag k="place" v="farm" />
		<tag k="ssr:stedsnr" v="443806" />
	</node>
	<node id="9880243598" lat="69.5102085" lon="30.0970605" version="1" timestamp="2022-07-11T04:55:47Z" changeset="123454106" uid="3497659" user="NKA">
		<tag k="name" v="Nordgård" />
		<tag k="place" v="farm" />
		<tag k="ssr:stedsnr" v="410273" />
	</node>
	<node id="9880243599" lat="69.5278838" lon="30.136939" version="1" timestamp="2022-07-11T04:55:47Z" changeset="123454106" uid="3497659" user="NKA">
		<tag k="name" v="Karistua" />
		<tag k="place" v="locality" />
		<tag k="ssr:stedsnr" v="410287" />
	</node>
	<node id="9880243600" lat="69.5405801" lon="30.0945859" version="1" timestamp="2022-07-11T04:55:47Z" changeset="123454106" uid="3497659" user="NKA">
		<tag k="name" v="Solvang" />
		<tag k="place" v="farm" />
		<tag k="ssr:stedsnr" v="409266" />
	</node>
	<node id="9880243601" lat="69.9676768" lon="29.6427043" version="1" timestamp="2022-07-11T04:55:47Z" changeset="123454106" uid="3497659" user="NKA">
		<tag k="name" v="Pipola" />
		<tag k="place" v="hamlet" />
		<tag k="ssr:stedsnr" v="94124" />
	</node>
	<node id="9880243602" lat="69.8094254" lon="29.8037046" version="1" timestamp="2022-07-11T04:55:47Z" changeset="123454106" uid="3497659" user="NKA">
		<tag k="name" v="Søreng" />
		<tag k="place" v="isolated_dwelling" />
		<tag k="ssr:stedsnr" v="47508" />
	</node>
	<node id="9880243603" lat="69.5357866" lon="30.106401" version="1" timestamp="2022-07-11T04:55:47Z" changeset="123454106" uid="3497659" user="NKA">
		<tag k="name" v="Nordvik" />
		<tag k="place" v="farm" />
		<tag k="ssr:stedsnr" v="322805" />
	</node>
	<node id="9880243604" lat="69.506181" lon="29.9800289" version="1" timestamp="2022-07-11T04:55:47Z" changeset="123454106" uid="3497659" user="NKA">
		<tag k="name" v="Alstad" />
		<tag k="place" v="locality" />
		<tag k="ssr:stedsnr" v="262209" />
	</node>
	<node id="9880243605" lat="69.5205016" lon="29.9776062" version="1" timestamp="2022-07-11T04:55:47Z" changeset="123454106" uid="3497659" user="NKA">
		<tag k="name" v="Østlyng" />
		<tag k="place" v="farm" />
		<tag k="ssr:stedsnr" v="532604" />
	</node>
	<node id="9880243606" lat="69.7984513" lon="30.1683949" version="1" timestamp="2022-07-11T04:55:47Z" changeset="123454106" uid="3497659" user="NKA">
		<tag k="alt_name" v="Stenland" />
		<tag k="name" v="Steinland" />
		<tag k="place" v="hamlet" />
		<tag k="ssr:stedsnr" v="687105" />
	</node>
	<node id="9880243607" lat="69.4718672" lon="30.0931984" version="1" timestamp="2022-07-11T04:55:47Z" changeset="123454106" uid="3497659" user="NKA">
		<tag k="name" v="Orestad" />
		<tag k="place" v="farm" />
		<tag k="ssr:stedsnr" v="261975" />
	</node>
	<node id="9880243608" lat="69.7905727" lon="30.1811297" version="1" timestamp="2022-07-11T04:55:47Z" changeset="123454106" uid="3497659" user="NKA">
		<tag k="name" v="Reinøysund" />
		<tag k="place" v="farm" />
		<tag k="ssr:stedsnr" v="939742" />
	</node>
	<node id="9880243609" lat="69.5112339" lon="30.1019173" version="1" timestamp="2022-07-11T04:55:47Z" changeset="123454106" uid="3497659" user="NKA">
		<tag k="name" v="Bjørnstrand" />
		<tag k="place" v="farm" />
		<tag k="ssr:stedsnr" v="201802" />
	</node>
	<node id="9880243610" lat="69.5075965" lon="29.9953449" version="1" timestamp="2022-07-11T04:55:47Z" changeset="123454106" uid="3497659" user="NKA">
		<tag k="name" v="Bergly" />
		<tag k="place" v="farm" />
		<tag k="ssr:stedsnr" v="228657" />
	</node>
	<node id="9880243611" lat="69.5085727" lon="29.9926256" version="1" timestamp="2022-07-11T04:55:47Z" changeset="123454106" uid="3497659" user="NKA">
		<tag k="alt_name" v="Ryengen" />
		<tag k="name" v="Ryeng" />
		<tag k="place" v="hamlet" />
		<tag k="ssr:stedsnr" v="202212" />
	</node>
	<node id="9880243612" lat="69.5425533" lon="30.0952498" version="1" timestamp="2022-07-11T04:55:47Z" changeset="123454106" uid="3497659" user="NKA">
		<tag k="alt_name" v="Myrseth" />
		<tag k="name" v="Myrset" />
		<tag k="place" v="hamlet" />
		<tag k="ssr:stedsnr" v="504831" />
	</node>
	<node id="9880243613" lat="69.505334" lon="30.0907375" version="1" timestamp="2022-07-11T04:55:47Z" changeset="123454106" uid="3497659" user="NKA">
		<tag k="name" v="Bjørkheim" />
		<tag k="place" v="farm" />
		<tag k="ssr:stedsnr" v="79808" />
	</node>
	<node id="9880243614" lat="69.6892896" lon="30.4856993" version="1" timestamp="2022-07-11T04:55:47Z" changeset="123454106" uid="3497659" user="NKA">
		<tag k="name" v="Vassbotn" />
		<tag k="place" v="farm" />
		<tag k="ssr:stedsnr" v="626798" />
	</node>
	<node id="9880243615" lat="69.5108255" lon="30.0914679" version="1" timestamp="2022-07-11T04:55:47Z" changeset="123454106" uid="3497659" user="NKA">
		<tag k="alt_name" v="Bergslåttan" />
		<tag k="name" v="Bergslåtten" />
		<tag k="place" v="farm" />
		<tag k="ssr:stedsnr" v="79804" />
	</node>
	<node id="9880243616" lat="69.4626949" lon="30.0719434" version="1" timestamp="2022-07-11T04:55:47Z" changeset="123454106" uid="3497659" user="NKA">
		<tag k="alt_name" v="Seljelid" />
		<tag k="name" v="Seljeli" />
		<tag k="place" v="farm" />
		<tag k="ssr:stedsnr" v="503972" />
	</node>
	<node id="9880257417" lat="69.4694429" lon="30.1042543" version="1" timestamp="2022-07-11T04:55:47Z" changeset="123454106" uid="3497659" user="NKA">
		<tag k="name" v="Bjerke" />
		<tag k="place" v="farm" />
		<tag k="ssr:stedsnr" v="261991" />
	</node>
	<node id="9880257418" lat="69.4732394" lon="30.1038732" version="1" timestamp="2022-07-11T04:55:47Z" changeset="123454106" uid="3497659" user="NKA">
		<tag k="alt_name" v="Bjørnebukt" />
		<tag k="name" v="Bjørnbukt" />
		<tag k="place" v="farm" />
		<tag k="ssr:stedsnr" v="928976" />
	</node>
	<node id="9880257419" lat="69.4590699" lon="30.0648631" version="1" timestamp="2022-07-11T04:55:47Z" changeset="123454106" uid="3497659" user="NKA">
		<tag k="name" v="Knutamo" />
		<tag k="place" v="farm" />
		<tag k="ssr:stedsnr" v="155534" />
	</node>
	<node id="9880257420" lat="69.4174949" lon="29.9856677" version="1" timestamp="2022-07-11T04:55:47Z" changeset="123454106" uid="3497659" user="NKA">
		<tag k="name" v="Svanebukt" />
		<tag k="place" v="isolated_dwelling" />
		<tag k="ssr:stedsnr" v="471533" />
	</node>
	<node id="9880257421" lat="69.4901653" lon="30.0128429" version="1" timestamp="2022-07-11T04:55:47Z" changeset="123454106" uid="3497659" user="NKA">
		<tag k="alt_name" v="Midtveis" />
		<tag k="name" v="Midtvegs" />
		<tag k="place" v="isolated_dwelling" />
		<tag k="ssr:stedsnr" v="928904" />
	</node>
	<node id="9880257422" lat="69.4586565" lon="30.0330924" version="1" timestamp="2022-07-11T04:55:47Z" changeset="123454106" uid="3497659" user="NKA">
		<tag k="name" v="Skillebekk" />
		<tag k="place" v="farm" />
		<tag k="ssr:stedsnr" v="200982" />
	</node>
	<node id="9880257423" lat="69.6935177" lon="30.9137269" version="1" timestamp="2022-07-11T04:55:47Z" changeset="123454106" uid="3497659" user="NKA">
		<tag k="name" v="Engelskgammen" />
		<tag k="place" v="locality" />
		<tag k="ssr:stedsnr" v="726157" />
	</node>
	<node id="9880257424" lat="69.4311562" lon="29.8373749" version="1" timestamp="2022-07-11T04:55:47Z" changeset="123454106" uid="3497659" user="NKA">
		<tag k="name" v="Nyheim" />
		<tag k="place" v="isolated_dwelling" />
		<tag k="ssr:stedsnr" v="322930" />
	</node>
	<node id="9880257425" lat="69.4339426" lon="29.8439991" version="1" timestamp="2022-07-11T04:55:47Z" changeset="123454106" uid="3497659" user="NKA">
		<tag k="name" v="Grotten" />
		<tag k="place" v="farm" />
		<tag k="ssr:stedsnr" v="472744" />
	</node>
	<node id="9880257426" lat="69.6609977" lon="29.9656846" version="1" timestamp="2022-07-11T04:55:47Z" changeset="123454106" uid="3497659" user="NKA">
		<tag k="name" v="Solheim" />
		<tag k="place" v="farm" />
		<tag k="ssr:stedsnr" v="944765" />
	</node>
	<node id="9880257427" lat="69.4684561" lon="30.0772571" version="1" timestamp="2022-07-11T04:55:47Z" changeset="123454106" uid="3497659" user="NKA">
		<tag k="name" v="Ulvestad" />
		<tag k="place" v="farm" />
		<tag k="ssr:stedsnr" v="200970" />
	</node>
	<node id="9880257428" lat="69.4798299" lon="30.0131705" version="1" timestamp="2022-07-11T04:55:47Z" changeset="123454106" uid="3497659" user="NKA">
		<tag k="name" v="Heimdal" />
		<tag k="place" v="farm" />
		<tag k="ssr:stedsnr" v="868963" />
	</node>
	<node id="9880257429" lat="69.4165834" lon="29.9815767" version="1" timestamp="2022-07-11T04:55:47Z" changeset="123454106" uid="3497659" user="NKA">
		<tag k="alt_name" v="Bjørkholdt" />
		<tag k="name" v="Bjørkholt" />
		<tag k="place" v="farm" />
		<tag k="ssr:stedsnr" v="201934" />
	</node>
	<node id="9880257430" lat="69.4249922" lon="29.9887703" version="1" timestamp="2022-07-11T04:55:47Z" changeset="123454106" uid="3497659" user="NKA">
		<tag k="alt_name" v="Bjørkeng" />
		<tag k="name" v="Bjerkeng" />
		<tag k="place" v="farm" />
		<tag k="ssr:stedsnr" v="844192" />
	</node>
	<node id="9880257431" lat="69.4620699" lon="30.0183031" version="1" timestamp="2022-07-11T04:55:47Z" changeset="123454106" uid="3497659" user="NKA">
		<tag k="name" v="Eide" />
		<tag k="place" v="farm" />
		<tag k="ssr:stedsnr" v="640259" />
	</node>
	<node id="9880257432" lat="69.4573101" lon="30.0631158" version="1" timestamp="2022-07-11T04:55:47Z" changeset="123454106" uid="3497659" user="NKA">
		<tag k="alt_name" v="Bjørnemo" />
		<tag k="name" v="Bjørnsund" />
		<tag k="place" v="farm" />
		<tag k="ssr:stedsnr" v="564980" />
	</node>
	<node id="9880257433" lat="69.4706839" lon="30.0841571" version="1" timestamp="2022-07-11T04:55:47Z" changeset="123454106" uid="3497659" user="NKA">
		<tag k="name" v="Heggeli" />
		<tag k="place" v="farm" />
		<tag k="ssr:stedsnr" v="519575" />
	</node>
	<node id="9880257434" lat="69.7035141" lon="29.2486583" version="1" timestamp="2022-07-11T04:55:47Z" changeset="123454106" uid="3497659" user="NKA">
		<tag k="name" v="Badjenjávdán" />
		<tag k="name:se" v="Badjenjávdán" />
		<tag k="old_name:se" v="Baddjenjavdan" />
		<tag k="place" v="farm" />
		<tag k="ssr:stedsnr" v="443015" />
	</node>
	<node id="9880257435" lat="69.7059368" lon="30.4867602" version="1" timestamp="2022-07-11T04:55:47Z" changeset="123454106" uid="3497659" user="NKA">
		<tag k="loc_name:fkv" v="Vintervolli" />
		<tag k="loc_name:se" v="Gazzaboahkán" />
		<tag k="name" v="Vintervollen" />
		<tag k="name:no" v="Vintervollen" />
		<tag k="place" v="hamlet" />
		<tag k="ssr:stedsnr" v="383822" />
	</node>
	<node id="9880257436" lat="69.4230754" lon="29.9856671" version="1" timestamp="2022-07-11T04:55:47Z" changeset="123454106" uid="3497659" user="NKA">
		<tag k="name" v="Rydningen" />
		<tag k="place" v="farm" />
		<tag k="ssr:stedsnr" v="625937" />
	</node>
	<node id="9880257437" lat="69.4924136" lon="30.0126398" version="1" timestamp="2022-07-11T04:55:47Z" changeset="123454106" uid="3497659" user="NKA">
		<tag k="name" v="Vestly" />
		<tag k="place" v="farm" />
		<tag k="ssr:stedsnr" v="836464" />
	</node>
	<node id="9880257438" lat="69.6705293" lon="29.5496518" version="1" timestamp="2022-07-11T04:55:47Z" changeset="123454106" uid="3497659" user="NKA">
		<tag k="name" v="Vegnes" />
		<tag k="place" v="hamlet" />
		<tag k="ssr:stedsnr" v="930117" />
	</node>
	<node id="9880257439" lat="69.474431" lon="30.0121643" version="1" timestamp="2022-07-11T04:55:47Z" changeset="123454106" uid="3497659" user="NKA">
		<tag k="name" v="Åsheim" />
		<tag k="place" v="farm" />
		<tag k="ssr:stedsnr" v="458283" />
	</node>
	<node id="9880257440" lat="69.4965866" lon="30.0833958" version="1" timestamp="2022-07-11T04:55:47Z" changeset="123454106" uid="3497659" user="NKA">
		<tag k="name" v="Lia" />
		<tag k="place" v="farm" />
		<tag k="ssr:stedsnr" v="289262" />
	</node>
	<node id="9880257441" lat="69.4205532" lon="29.9863205" version="1" timestamp="2022-07-11T04:55:47Z" changeset="123454106" uid="3497659" user="NKA">
		<tag k="alt_name" v="Sunde" />
		<tag k="name" v="Søndre Sunde" />
		<tag k="place" v="farm" />
		<tag k="ssr:stedsnr" v="532487" />
	</node>
	<node id="9880257442" lat="69.5934976" lon="29.9650846" version="1" timestamp="2022-07-11T04:55:47Z" changeset="123454106" uid="3497659" user="NKA">
		<tag k="name" v="Solheim" />
		<tag k="place" v="farm" />
		<tag k="ssr:stedsnr" v="775280" />
	</node>
	<node id="9880257443" lat="69.4148143" lon="29.9756011" version="1" timestamp="2022-07-11T04:55:47Z" changeset="123454106" uid="3497659" user="NKA">
		<tag k="name" v="Sørgård" />
		<tag k="place" v="farm" />
		<tag k="ssr:stedsnr" v="897474" />
	</node>
	<node id="9880257444" lat="69.4359031" lon="29.9981353" version="1" timestamp="2022-07-11T04:55:47Z" changeset="123454106" uid="3497659" user="NKA">
		<tag k="name" v="Myreng" />
		<tag k="place" v="farm" />
		<tag k="ssr:stedsnr" v="350493" />
	</node>
	<node id="9880257445" lat="69.4898254" lon="30.0074643" version="1" timestamp="2022-07-11T04:55:47Z" changeset="123454106" uid="3497659" user="NKA">
		<tag k="name" v="Barheim" />
		<tag k="place" v="farm" />
		<tag k="ssr:stedsnr" v="108516" />
	</node>
	<node id="9880257446" lat="69.7502862" lon="30.8613141" version="1" timestamp="2022-07-11T04:55:47Z" changeset="123454106" uid="3497659" user="NKA">
		<tag k="name" v="Hjertemoen" />
		<tag k="place" v="farm" />
		<tag k="ssr:stedsnr" v="168153" />
	</node>
	<node id="9880257447" lat="69.4533742" lon="30.0604252" version="1" timestamp="2022-07-11T04:55:47Z" changeset="123454106" uid="3497659" user="NKA">
		<tag k="alt_name" v="Mellesmo" />
		<tag k="name" v="Mellesmoen" />
		<tag k="place" v="farm" />
		<tag k="ssr:stedsnr" v="139982" />
	</node>
	<node id="9880257448" lat="69.4193033" lon="29.9864787" version="1" timestamp="2022-07-11T04:55:47Z" changeset="123454106" uid="3497659" user="NKA">
		<tag k="name" v="Kariheimen" />
		<tag k="place" v="farm" />
		<tag k="ssr:stedsnr" v="47502" />
	</node>
	<node id="9880257449" lat="69.530031" lon="30.1221004" version="1" timestamp="2022-07-11T04:55:47Z" changeset="123454106" uid="3497659" user="NKA">
		<tag k="name" v="Sætra" />
		<tag k="place" v="locality" />
		<tag k="ssr:stedsnr" v="471338" />
	</node>
	<node id="9880257450" lat="69.4256782" lon="29.8721561" version="1" timestamp="2022-07-11T04:55:47Z" changeset="123454106" uid="3497659" user="NKA">
		<tag k="name" v="Bjørkeslåtten" />
		<tag k="old_name" v="Perslåtta" />
		<tag k="place" v="farm" />
		<tag k="ssr:stedsnr" v="443920" />
	</node>
	<node id="9880257451" lat="69.4421242" lon="29.8725064" version="1" timestamp="2022-07-11T04:55:47Z" changeset="123454106" uid="3497659" user="NKA">
		<tag k="name" v="Bekkeli" />
		<tag k="place" v="farm" />
		<tag k="ssr:stedsnr" v="504915" />
	</node>
	<node id="9880257452" lat="69.6628509" lon="30.9288403" version="1" timestamp="2022-07-11T04:55:47Z" changeset="123454106" uid="3497659" user="NKA">
		<tag k="alt_name" v="Elveheim" />
		<tag k="name" v="Elvheim" />
		<tag k="place" v="isolated_dwelling" />
		<tag k="ssr:stedsnr" v="808912" />
	</node>
	<node id="9880257453" lat="69.4325222" lon="29.9997885" version="1" timestamp="2022-07-11T04:55:47Z" changeset="123454106" uid="3497659" user="NKA">
		<tag k="name" v="Tangen" />
		<tag k="place" v="farm" />
		<tag k="ssr:stedsnr" v="290453" />
	</node>
	<node id="9880257454" lat="69.4374039" lon="29.8538274" version="1" timestamp="2022-07-11T04:55:47Z" changeset="123454106" uid="3497659" user="NKA">
		<tag k="name" v="Fredvang" />
		<tag k="place" v="farm" />
		<tag k="ssr:stedsnr" v="200917" />
	</node>
	<node id="9880257455" lat="69.4772961" lon="29.9797975" version="1" timestamp="2022-07-11T04:55:47Z" changeset="123454106" uid="3497659" user="NKA">
		<tag k="name" v="Sverregård" />
		<tag k="place" v="farm" />
		<tag k="ssr:stedsnr" v="47479" />
	</node>
	<node id="9880257456" lat="69.523124" lon="29.9773665" version="1" timestamp="2022-07-11T04:55:47Z" changeset="123454106" uid="3497659" user="NKA">
		<tag k="loc_name:fkv" v="Järvenpää" />
		<tag k="name" v="Strand" />
		<tag k="name:no" v="Strand" />
		<tag k="place" v="hamlet" />
		<tag k="ssr:stedsnr" v="714569" />
	</node>
	<node id="9880257457" lat="69.5566921" lon="29.9776676" version="1" timestamp="2022-07-11T04:55:47Z" changeset="123454106" uid="3497659" user="NKA">
		<tag k="name" v="Namdalen" />
		<tag k="place" v="hamlet" />
		<tag k="ssr:stedsnr" v="869191" />
	</node>
	<node id="9880257458" lat="69.522956" lon="29.9808954" version="1" timestamp="2022-07-11T04:55:47Z" changeset="123454106" uid="3497659" user="NKA">
		<tag k="name" v="Myre" />
		<tag k="place" v="farm" />
		<tag k="ssr:stedsnr" v="714566" />
	</node>
	<node id="9880257459" lat="69.416156" lon="29.9281132" version="1" timestamp="2022-07-11T04:55:47Z" changeset="123454106" uid="3497659" user="NKA">
		<tag k="name" v="Karinstad" />
		<tag k="place" v="farm" />
		<tag k="ssr:stedsnr" v="648112" />
	</node>
	<node id="9880257460" lat="69.4210393" lon="29.978887" version="1" timestamp="2022-07-11T04:55:47Z" changeset="123454106" uid="3497659" user="NKA">
		<tag k="name" v="Svaneng" />
		<tag k="place" v="farm" />
		<tag k="ssr:stedsnr" v="653516" />
	</node>
	<node id="9880257461" lat="69.4210599" lon="29.9804642" version="1" timestamp="2022-07-11T04:55:47Z" changeset="123454106" uid="3497659" user="NKA">
		<tag k="name" v="Nessvang" />
		<tag k="place" v="farm" />
		<tag k="ssr:stedsnr" v="653515" />
	</node>
	<node id="9880257462" lat="69.4272111" lon="29.8606673" version="1" timestamp="2022-07-11T04:55:47Z" changeset="123454106" uid="3497659" user="NKA">
		<tag k="name" v="Elvestad" />
		<tag k="place" v="farm" />
		<tag k="ssr:stedsnr" v="504927" />
	</node>
	<node id="9880257463" lat="69.4274184" lon="29.9900752" version="1" timestamp="2022-07-11T04:55:47Z" changeset="123454106" uid="3497659" user="NKA">
		<tag k="name" v="Grana" />
		<tag k="place" v="farm" />
		<tag k="ssr:stedsnr" v="653502" />
	</node>
	<node id="9880257464" lat="69.4200227" lon="29.975404" version="1" timestamp="2022-07-11T04:55:47Z" changeset="123454106" uid="3497659" user="NKA">
		<tag k="name" v="Kronstad" />
		<tag k="place" v="farm" />
		<tag k="ssr:stedsnr" v="836473" />
	</node>
	<node id="9880257465" lat="69.4271906" lon="29.993881" version="1" timestamp="2022-07-11T04:55:47Z" changeset="123454106" uid="3497659" user="NKA">
		<tag k="alt_name:no" v="Skrotnes" />
		<tag k="name" v="Skrøytnes - Roskaniemi" />
		<tag k="name:fkv" v="Roskaniemi" />
		<tag k="name:no" v="Skrøytnes" />
		<tag k="place" v="hamlet" />
		<tag k="ssr:stedsnr" v="564918" />
	</node>
	<node id="9880257466" lat="69.3216927" lon="29.3367353" version="1" timestamp="2022-07-11T04:55:47Z" changeset="123454106" uid="3497659" user="NKA">
		<tag k="name" v="Skogum" />
		<tag k="place" v="farm" />
		<tag k="ssr:stedsnr" v="685113" />
	</node>
	<node id="9880257467" lat="69.7578038" lon="30.8586295" version="1" timestamp="2022-07-11T04:55:47Z" changeset="123454106" uid="3497659" user="NKA">
		<tag k="alt_name" v="Brækka" />
		<tag k="name" v="Brekkan" />
		<tag k="place" v="farm" />
		<tag k="ssr:stedsnr" v="201403" />
	</node>
	<node id="9880257468" lat="69.468249" lon="30.0977439" version="1" timestamp="2022-07-11T04:55:47Z" changeset="123454106" uid="3497659" user="NKA">
		<tag k="name" v="Furumo" />
		<tag k="place" v="farm" />
		<tag k="ssr:stedsnr" v="807987" />
	</node>
	<node id="9880257469" lat="69.5940198" lon="29.9539685" version="1" timestamp="2022-07-11T04:55:47Z" changeset="123454106" uid="3497659" user="NKA">
		<tag k="name" v="Stormstad" />
		<tag k="place" v="farm" />
		<tag k="ssr:stedsnr" v="514258" />
	</node>
	<node id="9880257470" lat="69.9017781" lon="29.4389027" version="1" timestamp="2022-07-11T04:55:47Z" changeset="123454106" uid="3497659" user="NKA">
		<tag k="name" v="Eigard" />
		<tag k="place" v="isolated_dwelling" />
		<tag k="ssr:stedsnr" v="392368" />
	</node>
	<node id="9880257471" lat="69.7864798" lon="29.6819564" version="1" timestamp="2022-07-11T04:55:47Z" changeset="123454106" uid="3497659" user="NKA">
		<tag k="name" v="Øverdal" />
		<tag k="place" v="farm" />
		<tag k="ssr:stedsnr" v="775982" />
	</node>
	<node id="9880257472" lat="69.6991532" lon="29.9302993" version="1" timestamp="2022-07-11T04:55:47Z" changeset="123454106" uid="3497659" user="NKA">
		<tag k="name" v="Strømsdalen" />
		<tag k="place" v="farm" />
		<tag k="ssr:stedsnr" v="25547" />
	</node>
	<node id="9880257473" lat="69.5869506" lon="29.9443926" version="1" timestamp="2022-07-11T04:55:47Z" changeset="123454106" uid="3497659" user="NKA">
		<tag k="alt_name" v="Langfjordbund Vestre" />
		<tag k="name" v="Langfjordbotn" />
		<tag k="place" v="farm" />
		<tag k="ssr:stedsnr" v="929151" />
	</node>
	<node id="9880257474" lat="69.6760503" lon="30.1477112" version="1" timestamp="2022-07-11T04:55:47Z" changeset="123454106" uid="3497659" user="NKA">
		<tag k="name" v="Myrdal" />
		<tag k="place" v="farm" />
		<tag k="ssr:stedsnr" v="268633" />
	</node>
	<node id="9880257475" lat="69.8514658" lon="29.3742425" version="1" timestamp="2022-07-11T04:55:47Z" changeset="123454106" uid="3497659" user="NKA">
		<tag k="name" v="Nedre Rynes" />
		<tag k="place" v="farm" />
		<tag k="ssr:stedsnr" v="108207" />
	</node>
	<node id="9880257476" lat="69.5840699" lon="29.9423295" version="1" timestamp="2022-07-11T04:55:47Z" changeset="123454106" uid="3497659" user="NKA">
		<tag k="name" v="Myrbekken" />
		<tag k="place" v="farm" />
		<tag k="ssr:stedsnr" v="593294" />
	</node>
	<node id="9880257477" lat="69.2131697" lon="29.1562099" version="1" timestamp="2022-07-11T04:55:47Z" changeset="123454106" uid="3497659" user="NKA">
		<tag k="name" v="Steinuri" />
		<tag k="place" v="locality" />
		<tag k="ssr:stedsnr" v="957447" />
	</node>
	<node id="9880257478" lat="69.721156" lon="30.0637324" version="1" timestamp="2022-07-11T04:55:47Z" changeset="123454106" uid="3497659" user="NKA">
		<tag k="name" v="Langøra" />
		<tag k="place" v="neighbourhood" />
		<tag k="ssr:stedsnr" v="823317" />
	</node>
	<node id="9880257479" lat="69.4237643" lon="29.9890896" version="1" timestamp="2022-07-11T04:55:47Z" changeset="123454106" uid="3497659" user="NKA">
		<tag k="name" v="Mellesmyren" />
		<tag k="place" v="farm" />
		<tag k="ssr:stedsnr" v="168489" />
	</node>
	<node id="9880257480" lat="69.7933449" lon="29.8143155" version="1" timestamp="2022-07-11T04:55:47Z" changeset="123454106" uid="3497659" user="NKA">
		<tag k="name" v="Klemetselva" />
		<tag k="place" v="isolated_dwelling" />
		<tag k="ssr:stedsnr" v="47696" />
	</node>
	<node id="9880257481" lat="69.7837088" lon="30.1345639" version="1" timestamp="2022-07-11T04:55:47Z" changeset="123454106" uid="3497659" user="NKA">
		<tag k="name" v="Killi" />
		<tag k="place" v="isolated_dwelling" />
		<tag k="ssr:stedsnr" v="756754" />
	</node>
	<node id="9880257482" lat="69.170596" lon="29.208225" version="1" timestamp="2022-07-11T04:55:47Z" changeset="123454106" uid="3497659" user="NKA">
		<tag k="name" v="Gaukstad" />
		<tag k="place" v="farm" />
		<tag k="ssr:stedsnr" v="504784" />
	</node>
	<node id="9880257483" lat="69.7137392" lon="29.6430604" version="1" timestamp="2022-07-11T04:55:47Z" changeset="123454106" uid="3497659" user="NKA">
		<tag k="name" v="Stonga - Oažželuovta - Stonka" />
		<tag k="name:fkv" v="Stonka" />
		<tag k="name:no" v="Stonga" />
		<tag k="name:se" v="Oažželuovta" />
		<tag k="place" v="hamlet" />
		<tag k="ssr:stedsnr" v="525963" />
	</node>
	<node id="9880257484" lat="69.525908" lon="29.9637953" version="1" timestamp="2022-07-11T04:55:47Z" changeset="123454106" uid="3497659" user="NKA">
		<tag k="name" v="Steinrabben" />
		<tag k="place" v="farm" />
		<tag k="ssr:stedsnr" v="80208" />
	</node>
	<node id="9880257485" lat="69.7333244" lon="30.0208339" version="1" timestamp="2022-07-11T04:55:47Z" changeset="123454106" uid="3497659" user="NKA">
		<tag k="name" v="Lillevik" />
		<tag k="place" v="farm" />
		<tag k="ssr:stedsnr" v="388542" />
	</node>
	<node id="9880257486" lat="69.8095948" lon="29.8045185" version="1" timestamp="2022-07-11T04:55:47Z" changeset="123454106" uid="3497659" user="NKA">
		<tag k="name" v="Nord-Leirvåg" />
		<tag k="place" v="hamlet" />
		<tag k="ssr:stedsnr" v="565012" />
	</node>
	<node id="9880257487" lat="69.7290366" lon="30.0493799" version="1" timestamp="2022-07-11T04:55:47Z" changeset="123454106" uid="3497659" user="NKA">
		<tag k="name" v="Haganes" />
		<tag k="place" v="neighbourhood" />
		<tag k="ssr:stedsnr" v="762289" />
	</node>
	<node id="9880257488" lat="69.6764625" lon="30.3505871" version="1" timestamp="2022-07-11T04:55:47Z" changeset="123454106" uid="3497659" user="NKA">
		<tag k="name" v="Haga" />
		<tag k="place" v="hamlet" />
		<tag k="ssr:stedsnr" v="808791" />
	</node>
	<node id="9880257489" lat="69.6708393" lon="29.956182" version="1" timestamp="2022-07-11T04:55:47Z" changeset="123454106" uid="3497659" user="NKA">
		<tag k="name" v="Elverhøy" />
		<tag k="place" v="neighbourhood" />
		<tag k="ssr:stedsnr" v="337828" />
	</node>
	<node id="9880257490" lat="69.2141889" lon="29.1542411" version="1" timestamp="2022-07-11T04:55:47Z" changeset="123454106" uid="3497659" user="NKA">
		<tag k="loc_name:sms" v="Vââggtemjäuʹrr" />
		<tag k="name" v="Vaggatem - Vagatamjávri - Vouvatus" />
		<tag k="name:fkv" v="Vouvatus" />
		<tag k="name:no" v="Vaggatem" />
		<tag k="name:se" v="Vagatamjávri" />
		<tag k="place" v="hamlet" />
		<tag k="ssr:stedsnr" v="564800" />
	</node>
	<node id="9880257491" lat="69.2116829" lon="29.1474975" version="1" timestamp="2022-07-11T04:55:47Z" changeset="123454106" uid="3497659" user="NKA">
		<tag k="name" v="Myrvold" />
		<tag k="place" v="farm" />
		<tag k="ssr:stedsnr" v="229444" />
	</node>
	<node id="9880257492" lat="69.7368535" lon="30.4668024" version="1" timestamp="2022-07-11T04:55:47Z" changeset="123454106" uid="3497659" user="NKA">
		<tag k="name" v="Moheim" />
		<tag k="place" v="isolated_dwelling" />
		<tag k="ssr:stedsnr" v="775212" />
	</node>
	<node id="9880257493" lat="69.695578" lon="29.4465609" version="1" timestamp="2022-07-11T04:55:47Z" changeset="123454106" uid="3497659" user="NKA">
		<tag k="name" v="Dypdal" />
		<tag k="place" v="locality" />
		<tag k="ssr:stedsnr" v="216010" />
	</node>
	<node id="9880257494" lat="69.7048298" lon="29.2144787" version="1" timestamp="2022-07-11T04:55:47Z" changeset="123454106" uid="3497659" user="NKA">
		<tag k="name" v="Lakselven" />
		<tag k="place" v="farm" />
		<tag k="ssr:stedsnr" v="168328" />
	</node>
	<node id="9880257495" lat="69.4289163" lon="29.8349141" version="1" timestamp="2022-07-11T04:55:47Z" changeset="123454106" uid="3497659" user="NKA">
		<tag k="name" v="Stenbakk" />
		<tag k="place" v="hamlet" />
		<tag k="ssr:stedsnr" v="27151" />
	</node>
	<node id="9880257496" lat="69.2137781" lon="29.1571886" version="1" timestamp="2022-07-11T04:55:47Z" changeset="123454106" uid="3497659" user="NKA">
		<tag k="name" v="Ellenelv" />
		<tag k="place" v="locality" />
		<tag k="ssr:stedsnr" v="350411" />
	</node>
	<node id="9880257497" lat="69.2323963" lon="29.1600091" version="1" timestamp="2022-07-11T04:55:47Z" changeset="123454106" uid="3497659" user="NKA">
		<tag k="name" v="Steinbekken" />
		<tag k="place" v="farm" />
		<tag k="ssr:stedsnr" v="139736" />
	</node>
	<node id="9880257498" lat="69.6634117" lon="30.2902045" version="1" timestamp="2022-07-11T04:55:47Z" changeset="123454106" uid="3497659" user="NKA">
		<tag k="name" v="Botn" />
		<tag k="place" v="isolated_dwelling" />
		<tag k="ssr:stedsnr" v="756461" />
	</node>
	<node id="9880257499" lat="69.7670505" lon="30.1971956" version="1" timestamp="2022-07-11T04:55:47Z" changeset="123454106" uid="3497659" user="NKA">
		<tag k="name" v="Bakkejord" />
		<tag k="place" v="farm" />
		<tag k="ssr:stedsnr" v="470412" />
	</node>
	<node id="9880257500" lat="69.6867386" lon="29.3787276" version="1" timestamp="2022-07-11T04:55:47Z" changeset="123454106" uid="3497659" user="NKA">
		<tag k="name" v="Viljestad" />
		<tag k="place" v="farm" />
		<tag k="ssr:stedsnr" v="761050" />
	</node>
	<node id="9880257501" lat="69.3248714" lon="29.3337413" version="1" timestamp="2022-07-11T04:55:47Z" changeset="123454106" uid="3497659" user="NKA">
		<tag k="name" v="Elgtrøa" />
		<tag k="place" v="isolated_dwelling" />
		<tag k="ssr:stedsnr" v="633762" />
	</node>
	<node id="9880257502" lat="69.5644046" lon="30.0802167" version="1" timestamp="2022-07-11T04:55:47Z" changeset="123454106" uid="3497659" user="NKA">
		<tag k="name" v="Brattli" />
		<tag k="place" v="hamlet" />
		<tag k="ssr:stedsnr" v="696528" />
	</node>
	<node id="9880257503" lat="69.243201" lon="29.1781753" version="1" timestamp="2022-07-11T04:55:47Z" changeset="123454106" uid="3497659" user="NKA">
		<tag k="name" v="Elveli" />
		<tag k="place" v="farm" />
		<tag k="ssr:stedsnr" v="140771" />
	</node>
	<node id="9880257504" lat="69.736103" lon="30.4666269" version="1" timestamp="2022-07-11T04:55:47Z" changeset="123454106" uid="3497659" user="NKA">
		<tag k="name" v="Brennbekken" />
		<tag k="place" v="farm" />
		<tag k="ssr:stedsnr" v="957223" />
	</node>
	<node id="9880257505" lat="69.4192726" lon="29.8341708" version="1" timestamp="2022-07-11T04:55:47Z" changeset="123454106" uid="3497659" user="NKA">
		<tag k="alt_name" v="Solvold" />
		<tag k="name" v="Solvoll" />
		<tag k="place" v="farm" />
		<tag k="ssr:stedsnr" v="382873" />
	</node>
	<node id="9880257506" lat="69.7055871" lon="30.4876629" version="1" timestamp="2022-07-11T04:55:47Z" changeset="123454106" uid="3497659" user="NKA">
		<tag k="name" v="Vintervolden" />
		<tag k="place" v="farm" />
		<tag k="ssr:stedsnr" v="774061" />
	</node>
	<node id="9880257507" lat="69.4336171" lon="29.9933591" version="1" timestamp="2022-07-11T04:55:47Z" changeset="123454106" uid="3497659" user="NKA">
		<tag k="alt_name" v="Granås" />
		<tag k="name" v="Laugen" />
		<tag k="place" v="farm" />
		<tag k="ssr:stedsnr" v="261900" />
	</node>
	<node id="9880257508" lat="69.6736705" lon="30.1649272" version="1" timestamp="2022-07-11T04:55:47Z" changeset="123454106" uid="3497659" user="NKA">
		<tag k="name" v="Myrslett" />
		<tag k="place" v="farm" />
		<tag k="ssr:stedsnr" v="510649" />
	</node>
	<node id="9880257509" lat="69.4413452" lon="29.9969882" version="1" timestamp="2022-07-11T04:55:47Z" changeset="123454106" uid="3497659" user="NKA">
		<tag k="name" v="Dalheim" />
		<tag k="place" v="farm" />
		<tag k="ssr:stedsnr" v="322925" />
	</node>
	<node id="9880257510" lat="69.0830252" lon="29.0345892" version="1" timestamp="2022-07-11T04:55:47Z" changeset="123454106" uid="3497659" user="NKA">
		<tag k="name" v="Ødevasskoia" />
		<tag k="place" v="isolated_dwelling" />
		<tag k="ssr:stedsnr" v="868015" />
	</node>
	<node id="9880257511" lat="69.7656561" lon="30.1999402" version="1" timestamp="2022-07-11T04:55:47Z" changeset="123454106" uid="3497659" user="NKA">
		<tag k="name" v="Ropelvbu" />
		<tag k="place" v="isolated_dwelling" />
		<tag k="ssr:stedsnr" v="166461" />
	</node>
	<node id="9880257512" lat="69.0924029" lon="28.8458721" version="1" timestamp="2022-07-11T04:55:47Z" changeset="123454106" uid="3497659" user="NKA">
		<tag k="name" v="Grenseparvasshytta" />
		<tag k="place" v="isolated_dwelling" />
		<tag k="ssr:stedsnr" v="564010" />
	</node>
	<node id="9880257513" lat="69.1858863" lon="28.8374082" version="1" timestamp="2022-07-11T04:55:47Z" changeset="123454106" uid="3497659" user="NKA">
		<tag k="name" v="Hemingkoia" />
		<tag k="place" v="isolated_dwelling" />
		<tag k="ssr:stedsnr" v="322766" />
	</node>
	<node id="9880257514" lat="69.9841337" lon="29.5378044" version="1" timestamp="2022-07-11T04:55:47Z" changeset="123454106" uid="3497659" user="NKA">
		<tag k="name" v="Brenngammen" />
		<tag k="place" v="locality" />
		<tag k="ssr:stedsnr" v="80185" />
	</node>
	<node id="9880257515" lat="69.8528913" lon="29.3589043" version="1" timestamp="2022-07-11T04:55:47Z" changeset="123454106" uid="3497659" user="NKA">
		<tag k="name" v="Myrheim" />
		<tag k="place" v="farm" />
		<tag k="ssr:stedsnr" v="168194" />
	</node>
	<node id="9880257516" lat="69.5150949" lon="29.9854647" version="1" timestamp="2022-07-11T04:55:47Z" changeset="123454106" uid="3497659" user="NKA">
		<tag k="name" v="Nyheim" />
		<tag k="place" v="farm" />
		<tag k="ssr:stedsnr" v="957561" />
	</node>
	<node id="9880257517" lat="69.8733016" lon="29.3636375" version="1" timestamp="2022-07-11T04:55:47Z" changeset="123454106" uid="3497659" user="NKA">
		<tag k="name" v="Solbakken" />
		<tag k="place" v="farm" />
		<tag k="ssr:stedsnr" v="47142" />
	</node>
	<node id="9880257518" lat="69.7004072" lon="29.3541775" version="1" timestamp="2022-07-11T04:55:47Z" changeset="123454106" uid="3497659" user="NKA">
		<tag k="alt_name" v="Fosbugten" />
		<tag k="name" v="Fosshaug" />
		<tag k="place" v="farm" />
		<tag k="ssr:stedsnr" v="944455" />
	</node>
	<node id="9880257519" lat="69.8549475" lon="29.4190364" version="1" timestamp="2022-07-11T04:55:47Z" changeset="123454106" uid="3497659" user="NKA">
		<tag k="name" v="Nilsbakken" />
		<tag k="place" v="farm" />
		<tag k="ssr:stedsnr" v="532008" />
	</node>
	<node id="9880257520" lat="69.6481552" lon="29.4746115" version="1" timestamp="2022-07-11T04:55:47Z" changeset="123454106" uid="3497659" user="NKA">
		<tag k="name" v="Munkefjord" />
		<tag k="place" v="hamlet" />
		<tag k="ssr:stedsnr" v="332675" />
	</node>
	<node id="9880257521" lat="69.4727004" lon="29.7473862" version="1" timestamp="2022-07-11T04:55:47Z" changeset="123454106" uid="3497659" user="NKA">
		<tag k="name" v="Eidekoia" />
		<tag k="place" v="isolated_dwelling" />
		<tag k="ssr:stedsnr" v="443101" />
	</node>
	<node id="9880257522" lat="69.8564447" lon="29.4283473" version="1" timestamp="2022-07-11T04:55:47Z" changeset="123454106" uid="3497659" user="NKA">
		<tag k="name" v="Vággi" />
		<tag k="name:se" v="Vággi" />
		<tag k="old_name:se" v="Vaggi" />
		<tag k="place" v="hamlet" />
		<tag k="ssr:stedsnr" v="201110" />
	</node>
	<node id="9880257523" lat="69.659142" lon="29.5250097" version="1" timestamp="2022-07-11T04:55:47Z" changeset="123454106" uid="3497659" user="NKA">
		<tag k="name" v="Olestad" />
		<tag k="place" v="isolated_dwelling" />
		<tag k="ssr:stedsnr" v="332672" />
	</node>
	<node id="9880257524" lat="69.3804753" lon="29.6948512" version="1" timestamp="2022-07-11T04:55:47Z" changeset="123454106" uid="3497659" user="NKA">
		<tag k="name" v="Fosslund" />
		<tag k="place" v="farm" />
		<tag k="ssr:stedsnr" v="140896" />
	</node>
	<node id="9880257525" lat="69.2931652" lon="29.2556091" version="1" timestamp="2022-07-11T04:55:47Z" changeset="123454106" uid="3497659" user="NKA">
		<tag k="name" v="Morud" />
		<tag k="place" v="isolated_dwelling" />
		<tag k="ssr:stedsnr" v="208739" />
	</node>
	<node id="9880257526" lat="69.3741463" lon="29.6933099" version="1" timestamp="2022-07-11T04:55:47Z" changeset="123454106" uid="3497659" user="NKA">
		<tag k="loc_name:se" v="Remáguoiká" />
		<tag k="name" v="Skogfoss - Reamal - Hakokoski" />
		<tag k="name:fkv" v="Hakokoski" />
		<tag k="name:no" v="Skogfoss" />
		<tag k="name:se" v="Reamal" />
		<tag k="place" v="hamlet" />
		<tag k="ssr:stedsnr" v="382890" />
	</node>
	<node id="9880257527" lat="69.343031" lon="29.5988359" version="1" timestamp="2022-07-11T04:55:47Z" changeset="123454106" uid="3497659" user="NKA">
		<tag k="name" v="Leite" />
		<tag k="place" v="farm" />
		<tag k="ssr:stedsnr" v="79883" />
	</node>
	<node id="9880257528" lat="69.3823244" lon="29.7027796" version="1" timestamp="2022-07-11T04:55:47Z" changeset="123454106" uid="3497659" user="NKA">
		<tag k="name" v="Bjørklund" />
		<tag k="place" v="farm" />
		<tag k="ssr:stedsnr" v="686877" />
	</node>
	<node id="9880257529" lat="69.214253" lon="29.1592987" version="1" timestamp="2022-07-11T04:55:47Z" changeset="123454106" uid="3497659" user="NKA">
		<tag k="name" v="Hage" />
		<tag k="place" v="farm" />
		<tag k="ssr:stedsnr" v="897423" />
	</node>
	<node id="9880257530" lat="69.2094162" lon="29.149582" version="1" timestamp="2022-07-11T04:55:47Z" changeset="123454106" uid="3497659" user="NKA">
		<tag k="name" v="Sørlia" />
		<tag k="place" v="farm" />
		<tag k="ssr:stedsnr" v="168441" />
	</node>
	<node id="9880257531" lat="69.6643509" lon="30.2924851" version="1" timestamp="2022-07-11T04:55:47Z" changeset="123454106" uid="3497659" user="NKA">
		<tag k="name" v="Trollhaugen" />
		<tag k="place" v="isolated_dwelling" />
		<tag k="ssr:stedsnr" v="955499" />
	</node>
	<node id="9880257532" lat="69.3847284" lon="29.7036701" version="1" timestamp="2022-07-11T04:55:47Z" changeset="123454106" uid="3497659" user="NKA">
		<tag k="name" v="Sommerro" />
		<tag k="place" v="farm" />
		<tag k="ssr:stedsnr" v="168955" />
	</node>
	<node id="9880257533" lat="69.3772885" lon="29.6967394" version="1" timestamp="2022-07-11T04:55:47Z" changeset="123454106" uid="3497659" user="NKA">
		<tag k="name" v="Skogtun" />
		<tag k="place" v="farm" />
		<tag k="ssr:stedsnr" v="168066" />
	</node>
	<node id="9880257534" lat="69.6856798" lon="30.0500263" version="1" timestamp="2022-07-11T04:55:47Z" changeset="123454106" uid="3497659" user="NKA">
		<tag k="name" v="Tunstadhytta" />
		<tag k="place" v="isolated_dwelling" />
		<tag k="ssr:stedsnr" v="823650" />
	</node>
	<node id="9880257535" lat="69.6573865" lon="29.9601709" version="1" timestamp="2022-07-11T04:55:47Z" changeset="123454106" uid="3497659" user="NKA">
		<tag k="name" v="Dalen" />
		<tag k="place" v="farm" />
		<tag k="ssr:stedsnr" v="397768" />
	</node>
	<node id="9880257536" lat="69.3602687" lon="29.6642622" version="1" timestamp="2022-07-11T04:55:47Z" changeset="123454106" uid="3497659" user="NKA">
		<tag k="name" v="Solvang" />
		<tag k="place" v="farm" />
		<tag k="ssr:stedsnr" v="564884" />
	</node>
	<node id="9880257537" lat="69.4185115" lon="29.9197383" version="1" timestamp="2022-07-11T04:55:47Z" changeset="123454106" uid="3497659" user="NKA">
		<tag k="name" v="Soleng" />
		<tag k="place" v="farm" />
		<tag k="ssr:stedsnr" v="322933" />
	</node>
	<node id="9880257538" lat="69.3513418" lon="29.6190029" version="1" timestamp="2022-07-11T04:55:47Z" changeset="123454106" uid="3497659" user="NKA">
		<tag k="name" v="Skogmo" />
		<tag k="place" v="hamlet" />
		<tag k="ssr:stedsnr" v="382893" />
	</node>
	<node id="9880257539" lat="69.4446295" lon="29.9993646" version="1" timestamp="2022-07-11T04:55:47Z" changeset="123454106" uid="3497659" user="NKA">
		<tag k="alt_name" v="Andnes" />
		<tag k="name" v="Andsnes" />
		<tag k="place" v="farm" />
		<tag k="ssr:stedsnr" v="94289" />
	</node>
	<node id="9880257540" lat="69.6850895" lon="30.3865827" version="1" timestamp="2022-07-11T04:55:47Z" changeset="123454106" uid="3497659" user="NKA">
		<tag k="name" v="Bangen" />
		<tag k="place" v="farm" />
		<tag k="ssr:stedsnr" v="592117" />
	</node>
	<node id="9880257541" lat="69.5958193" lon="29.952063" version="1" timestamp="2022-07-11T04:55:47Z" changeset="123454106" uid="3497659" user="NKA">
		<tag k="name" v="Bratli" />
		<tag k="place" v="farm" />
		<tag k="ssr:stedsnr" v="714278" />
	</node>
	<node id="9880257542" lat="69.5946389" lon="29.9555721" version="1" timestamp="2022-07-11T04:55:47Z" changeset="123454106" uid="3497659" user="NKA">
		<tag k="name" v="Steinli" />
		<tag k="place" v="farm" />
		<tag k="ssr:stedsnr" v="411302" />
	</node>
	<node id="9880257543" lat="69.6708181" lon="30.4222082" version="1" timestamp="2022-07-11T04:55:47Z" changeset="123454106" uid="3497659" user="NKA">
		<tag k="name" v="Flatmo" />
		<tag k="place" v="farm" />
		<tag k="ssr:stedsnr" v="774017" />
	</node>
	<node id="9880257544" lat="69.5857559" lon="29.937541" version="1" timestamp="2022-07-11T04:55:47Z" changeset="123454106" uid="3497659" user="NKA">
		<tag k="name" v="Heggdal" />
		<tag k="place" v="farm" />
		<tag k="ssr:stedsnr" v="140137" />
	</node>
	<node id="9880257545" lat="69.5872369" lon="29.9785637" version="1" timestamp="2022-07-11T04:55:47Z" changeset="123454106" uid="3497659" user="NKA">
		<tag k="name" v="Slettmyr" />
		<tag k="place" v="farm" />
		<tag k="ssr:stedsnr" v="532294" />
	</node>
	<node id="9880257546" lat="69.5873112" lon="29.9452959" version="1" timestamp="2022-07-11T04:55:47Z" changeset="123454106" uid="3497659" user="NKA">
		<tag k="loc_name:sms" v="Uʹccvuõnnmueʹtǩǩ" />
		<tag k="name" v="Langvasseid - Uhcavuonmuotki - Vuononperä" />
		<tag k="name:fkv" v="Vuononperä" />
		<tag k="name:no" v="Langvasseid" />
		<tag k="name:se" v="Uhcavuonmuotki" />
		<tag k="place" v="hamlet" />
		<tag k="ssr:stedsnr" v="444156" />
	</node>
	<node id="9880257547" lat="69.8582447" lon="29.4266278" version="1" timestamp="2022-07-11T04:55:47Z" changeset="123454106" uid="3497659" user="NKA">
		<tag k="name" v="Østerelva" />
		<tag k="place" v="farm" />
		<tag k="ssr:stedsnr" v="653010" />
	</node>
	<node id="9880257548" lat="69.5644109" lon="30.0923638" version="1" timestamp="2022-07-11T04:55:47Z" changeset="123454106" uid="3497659" user="NKA">
		<tag k="name" v="Sollien" />
		<tag k="place" v="farm" />
		<tag k="ssr:stedsnr" v="955256" />
	</node>
	<node id="9880257549" lat="69.7654728" lon="30.1857266" version="1" timestamp="2022-07-11T04:55:47Z" changeset="123454106" uid="3497659" user="NKA">
		<tag k="name" v="Fosseng" />
		<tag k="place" v="farm" />
		<tag k="ssr:stedsnr" v="773451" />
	</node>
	<node id="9880257550" lat="69.8466863" lon="29.3751454" version="1" timestamp="2022-07-11T04:55:47Z" changeset="123454106" uid="3497659" user="NKA">
		<tag k="name" v="Kildemo" />
		<tag k="place" v="farm" />
		<tag k="ssr:stedsnr" v="411214" />
	</node>
	<node id="9880257551" lat="69.7018698" lon="29.464692" version="1" timestamp="2022-07-11T04:55:47Z" changeset="123454106" uid="3497659" user="NKA">
		<tag k="name" v="Myrland" />
		<tag k="place" v="farm" />
		<tag k="ssr:stedsnr" v="747061" />
	</node>
	<node id="9880257552" lat="69.7004197" lon="29.3330545" version="1" timestamp="2022-07-11T04:55:47Z" changeset="123454106" uid="3497659" user="NKA">
		<tag k="name" v="Fossnæs" />
		<tag k="place" v="farm" />
		<tag k="ssr:stedsnr" v="580328" />
	</node>
	<node id="9880257553" lat="69.6887586" lon="29.4031117" version="1" timestamp="2022-07-11T04:55:47Z" changeset="123454106" uid="3497659" user="NKA">
		<tag k="name" v="Enbusk" />
		<tag k="place" v="farm" />
		<tag k="ssr:stedsnr" v="944055" />
	</node>
	<node id="9880257554" lat="69.6887204" lon="29.377807" version="1" timestamp="2022-07-11T04:55:47Z" changeset="123454106" uid="3497659" user="NKA">
		<tag k="name" v="Skoltebyen - Sää'msijdd - Kolttakylä" />
		<tag k="name:fkv" v="Kolttakylä" />
		<tag k="name:no" v="Skoltebyen" />
		<tag k="name:se" v="Sää'msijdd" />
		<tag k="place" v="hamlet" />
		<tag k="ssr:stedsnr" v="216389" />
	</node>
	<node id="9880257555" lat="69.8528836" lon="29.4354333" version="1" timestamp="2022-07-11T04:55:47Z" changeset="123454106" uid="3497659" user="NKA">
		<tag k="name" v="Østerelva" />
		<tag k="place" v="farm" />
		<tag k="ssr:stedsnr" v="532006" />
	</node>
	<node id="9880257556" lat="69.4228585" lon="29.8149232" version="1" timestamp="2022-07-11T04:55:47Z" changeset="123454106" uid="3497659" user="NKA">
		<tag k="name" v="Furuly" />
		<tag k="place" v="farm" />
		<tag k="ssr:stedsnr" v="929929" />
	</node>
	<node id="9880257557" lat="69.884292" lon="29.4049754" version="1" timestamp="2022-07-11T04:55:47Z" changeset="123454106" uid="3497659" user="NKA">
		<tag k="name" v="Sopnes" />
		<tag k="place" v="isolated_dwelling" />
		<tag k="ssr:stedsnr" v="231801" />
	</node>
	<node id="9880257558" lat="69.7003391" lon="29.3430432" version="1" timestamp="2022-07-11T04:55:47Z" changeset="123454106" uid="3497659" user="NKA">
		<tag k="name" v="Midtgård" />
		<tag k="place" v="farm" />
		<tag k="ssr:stedsnr" v="155387" />
	</node>
	<node id="9880257559" lat="69.6640977" lon="29.9836369" version="1" timestamp="2022-07-11T04:55:47Z" changeset="123454106" uid="3497659" user="NKA">
		<tag k="name" v="Selskapsjordet" />
		<tag k="place" v="neighbourhood" />
		<tag k="ssr:stedsnr" v="883811" />
	</node>
	<node id="9880257560" lat="69.3296724" lon="29.3304022" version="1" timestamp="2022-07-11T04:55:47Z" changeset="123454106" uid="3497659" user="NKA">
		<tag k="name" v="Pasvikdalen - Báhčaveajji - Paaččjokk - Paatsjoki" />
		<tag k="name:fkv" v="Paatsjoki" />
		<tag k="name:no" v="Pasvikdalen" />
		<tag k="name:se" v="Báhčaveajji" />
		<tag k="name:sms" v="Paaččjokk" />
		<tag k="place" v="hamlet" />
		<tag k="ssr:stedsnr" v="985748" />
	</node>
	<node id="9880257561" lat="69.209964" lon="29.1202243" version="1" timestamp="2022-07-11T04:55:47Z" changeset="123454106" uid="3497659" user="NKA">
		<tag k="loc_name:se" v="Ealjeluobbalbarta" />
		<tag k="name" v="Ellentjørnkoia" />
		<tag k="name:no" v="Ellentjørnkoia" />
		<tag k="place" v="isolated_dwelling" />
		<tag k="ssr:stedsnr" v="928794" />
	</node>
	<node id="9880257562" lat="69.6675949" lon="29.9846064" version="1" timestamp="2022-07-11T04:55:47Z" changeset="123454106" uid="3497659" user="NKA">
		<tag k="name" v="Gartnerjordet" />
		<tag k="place" v="neighbourhood" />
		<tag k="ssr:stedsnr" v="883812" />
	</node>
	<node id="9880257563" lat="69.6726116" lon="29.9624986" version="1" timestamp="2022-07-11T04:55:47Z" changeset="123454106" uid="3497659" user="NKA">
		<tag k="name" v="Malmgrenjordet" />
		<tag k="place" v="neighbourhood" />
		<tag k="ssr:stedsnr" v="458624" />
	</node>
	<node id="9880257564" lat="69.7068558" lon="29.5069295" version="1" timestamp="2022-07-11T04:55:47Z" changeset="123454106" uid="3497659" user="NKA">
		<tag k="name" v="Flatheim" />
		<tag k="place" v="farm" />
		<tag k="ssr:stedsnr" v="747057" />
	</node>
	<node id="9880257565" lat="69.875553" lon="29.3501623" version="1" timestamp="2022-07-11T04:55:47Z" changeset="123454106" uid="3497659" user="NKA">
		<tag k="name" v="Grundvik" />
		<tag k="place" v="hamlet" />
		<tag k="ssr:stedsnr" v="19819" />
	</node>
	<node id="9880257566" lat="69.6711144" lon="29.9863535" version="1" timestamp="2022-07-11T04:55:47Z" changeset="123454106" uid="3497659" user="NKA">
		<tag k="name" v="Sundquistjordet" />
		<tag k="place" v="neighbourhood" />
		<tag k="ssr:stedsnr" v="458622" />
	</node>
	<node id="9880257567" lat="69.6228699" lon="29.96449" version="1" timestamp="2022-07-11T04:55:47Z" changeset="123454106" uid="3497659" user="NKA">
		<tag k="name" v="Bjørndal" />
		<tag k="place" v="farm" />
		<tag k="ssr:stedsnr" v="411538" />
	</node>
	<node id="9880257568" lat="69.7070263" lon="29.9607666" version="1" timestamp="2022-07-11T04:55:47Z" changeset="123454106" uid="3497659" user="NKA">
		<tag k="alt_name" v="Strandstykket" />
		<tag k="name" v="Langfjordstrømmen" />
		<tag k="place" v="farm" />
		<tag k="ssr:stedsnr" v="28726" />
	</node>
	<node id="9880257569" lat="69.7006847" lon="29.3901657" version="1" timestamp="2022-07-11T04:55:47Z" changeset="123454106" uid="3497659" user="NKA">
		<tag k="name" v="Mikkelvold" />
		<tag k="place" v="farm" />
		<tag k="ssr:stedsnr" v="883565" />
	</node>
	<node id="9880257570" lat="69.8884988" lon="29.4058664" version="1" timestamp="2022-07-11T04:55:47Z" changeset="123454106" uid="3497659" user="NKA">
		<tag k="name" v="Elvegård" />
		<tag k="place" v="farm" />
		<tag k="ssr:stedsnr" v="653003" />
	</node>
	<node id="9880257571" lat="69.6973065" lon="29.4771722" version="1" timestamp="2022-07-11T04:55:47Z" changeset="123454106" uid="3497659" user="NKA">
		<tag k="alt_name" v="Elvebugten" />
		<tag k="name" v="Elvebukt" />
		<tag k="place" v="farm" />
		<tag k="ssr:stedsnr" v="262076" />
	</node>
	<node id="9880257572" lat="69.869515" lon="29.3483751" version="1" timestamp="2022-07-11T04:55:47Z" changeset="123454106" uid="3497659" user="NKA">
		<tag k="name" v="Bohttejohka" />
		<tag k="name:se" v="Bohttejohka" />
		<tag k="place" v="farm" />
		<tag k="ssr:stedsnr" v="654141" />
	</node>
	<node id="9880257573" lat="69.6682005" lon="29.9593012" version="1" timestamp="2022-07-11T04:55:47Z" changeset="123454106" uid="3497659" user="NKA">
		<tag k="name" v="Solstad" />
		<tag k="place" v="neighbourhood" />
		<tag k="ssr:stedsnr" v="155746" />
	</node>
	<node id="9880257574" lat="69.6918588" lon="29.9993144" version="1" timestamp="2022-07-11T04:55:47Z" changeset="123454106" uid="3497659" user="NKA">
		<tag k="name" v="Ensomhet" />
		<tag k="place" v="neighbourhood" />
		<tag k="ssr:stedsnr" v="276896" />
	</node>
	<node id="9880257575" lat="69.698903" lon="29.3270462" version="1" timestamp="2022-07-11T04:55:47Z" changeset="123454106" uid="3497659" user="NKA">
		<tag k="name" v="Kroknes" />
		<tag k="place" v="farm" />
		<tag k="ssr:stedsnr" v="458481" />
	</node>
	<node id="9880257576" lat="69.6974308" lon="29.3341767" version="1" timestamp="2022-07-11T04:55:47Z" changeset="123454106" uid="3497659" user="NKA">
		<tag k="name" v="Jernhøgda" />
		<tag k="place" v="farm" />
		<tag k="ssr:stedsnr" v="640409" />
	</node>
	<node id="9880257577" lat="69.886342" lon="29.3967727" version="1" timestamp="2022-07-11T04:55:47Z" changeset="123454106" uid="3497659" user="NKA">
		<tag k="alt_name" v="Finnhullet" />
		<tag k="name" v="Finnholet" />
		<tag k="place" v="farm" />
		<tag k="ssr:stedsnr" v="878398" />
	</node>
	<node id="9880257578" lat="69.8457587" lon="29.375145" version="1" timestamp="2022-07-11T04:55:47Z" changeset="123454106" uid="3497659" user="NKA">
		<tag k="name" v="Nyrud" />
		<tag k="place" v="farm" />
		<tag k="ssr:stedsnr" v="654217" />
	</node>
	<node id="9880257579" lat="69.6680839" lon="30.3119984" version="1" timestamp="2022-07-11T04:55:47Z" changeset="123454106" uid="3497659" user="NKA">
		<tag k="name" v="Strømsnes" />
		<tag k="place" v="isolated_dwelling" />
		<tag k="ssr:stedsnr" v="955500" />
	</node>
	<node id="9880257580" lat="69.6590423" lon="30.4228872" version="1" timestamp="2022-07-11T04:55:47Z" changeset="123454106" uid="3497659" user="NKA">
		<tag k="name" v="Maritsletten" />
		<tag k="place" v="farm" />
		<tag k="ssr:stedsnr" v="957420" />
	</node>
	<node id="9880257581" lat="69.6690589" lon="30.1834211" version="1" timestamp="2022-07-11T04:55:47Z" changeset="123454106" uid="3497659" user="NKA">
		<tag k="name" v="Borgenhaugen" />
		<tag k="place" v="farm" />
		<tag k="ssr:stedsnr" v="328634" />
	</node>
	<node id="9880257582" lat="69.6857118" lon="30.0417776" version="1" timestamp="2022-07-11T04:55:47Z" changeset="123454106" uid="3497659" user="NKA">
		<tag k="name" v="Skihytta" />
		<tag k="place" v="isolated_dwelling" />
		<tag k="ssr:stedsnr" v="337675" />
	</node>
	<node id="9880257583" lat="69.7335812" lon="30.1485546" version="1" timestamp="2022-07-11T04:55:47Z" changeset="123454106" uid="3497659" user="NKA">
		<tag k="alt_name" v="Myrvold" />
		<tag k="name" v="Myrvoll" />
		<tag k="place" v="farm" />
		<tag k="ssr:stedsnr" v="383239" />
	</node>
	<node id="9880257584" lat="69.6794089" lon="30.1612494" version="1" timestamp="2022-07-11T04:55:47Z" changeset="123454106" uid="3497659" user="NKA">
		<tag k="name" v="Svartli" />
		<tag k="place" v="locality" />
		<tag k="ssr:stedsnr" v="268636" />
	</node>
	<node id="9880257585" lat="69.6692199" lon="30.3167353" version="1" timestamp="2022-07-11T04:55:47Z" changeset="123454106" uid="3497659" user="NKA">
		<tag k="name" v="Sorgenfri" />
		<tag k="place" v="isolated_dwelling" />
		<tag k="ssr:stedsnr" v="470494" />
	</node>
	<node id="9880257586" lat="69.7365449" lon="30.0280304" version="1" timestamp="2022-07-11T04:55:47Z" changeset="123454106" uid="3497659" user="NKA">
		<tag k="name" v="Bergli" />
		<tag k="place" v="farm" />
		<tag k="ssr:stedsnr" v="267521" />
	</node>
	<node id="9880257587" lat="69.5661901" lon="30.1069744" version="1" timestamp="2022-07-11T04:55:47Z" changeset="123454106" uid="3497659" user="NKA">
		<tag k="name" v="Bekkeli" />
		<tag k="place" v="farm" />
		<tag k="ssr:stedsnr" v="712223" />
	</node>
	<node id="9880257588" lat="69.7375302" lon="30.111489" version="1" timestamp="2022-07-11T04:55:47Z" changeset="123454106" uid="3497659" user="NKA">
		<tag k="name" v="Nilsheim" />
		<tag k="place" v="farm" />
		<tag k="ssr:stedsnr" v="267542" />
	</node>
	<node id="9880257589" lat="69.6746289" lon="30.3152107" version="1" timestamp="2022-07-11T04:55:47Z" changeset="123454106" uid="3497659" user="NKA">
		<tag k="loc_name:sms" v="Ruʹvddvuõnnpõtt" />
		<tag k="name" v="Jarfjordbotn - Ruovdevuonbahta - Rautavuononperä" />
		<tag k="name:fkv" v="Rautavuononperä" />
		<tag k="name:no" v="Jarfjordbotn" />
		<tag k="name:se" v="Ruovdevuonbahta" />
		<tag k="place" v="hamlet" />
		<tag k="ssr:stedsnr" v="514481" />
	</node>
	<node id="9880257590" lat="69.7289754" lon="30.0588657" version="1" timestamp="2022-07-11T04:55:47Z" changeset="123454106" uid="3497659" user="NKA">
		<tag k="name" v="Saga" />
		<tag k="place" v="neighbourhood" />
		<tag k="ssr:stedsnr" v="155309" />
	</node>
	<node id="9880257591" lat="69.6764644" lon="30.06546" version="1" timestamp="2022-07-11T04:55:47Z" changeset="123454106" uid="3497659" user="NKA">
		<tag k="name" v="Vesterlia" />
		<tag k="place" v="farm" />
		<tag k="ssr:stedsnr" v="155668" />
	</node>
	<node id="9880257592" lat="69.6624326" lon="30.2897493" version="1" timestamp="2022-07-11T04:55:47Z" changeset="123454106" uid="3497659" user="NKA">
		<tag k="name" v="Taraldshaugen" />
		<tag k="place" v="isolated_dwelling" />
		<tag k="ssr:stedsnr" v="505784" />
	</node>
	<node id="9880257593" lat="69.6725117" lon="30.4142562" version="1" timestamp="2022-07-11T04:55:47Z" changeset="123454106" uid="3497659" user="NKA">
		<tag k="name" v="Lille Karpdal" />
		<tag k="place" v="isolated_dwelling" />
		<tag k="ssr:stedsnr" v="774022" />
	</node>
	<node id="9880257594" lat="69.7362313" lon="30.4683163" version="1" timestamp="2022-07-11T04:55:47Z" changeset="123454106" uid="3497659" user="NKA">
		<tag k="name" v="Kjosen" />
		<tag k="place" v="farm" />
		<tag k="ssr:stedsnr" v="514431" />
	</node>
	<node id="9880257595" lat="69.6774616" lon="30.1663799" version="1" timestamp="2022-07-11T04:55:47Z" changeset="123454106" uid="3497659" user="NKA">
		<tag k="alt_name" v="Siljelund" />
		<tag k="name" v="Seljelund" />
		<tag k="place" v="farm" />
		<tag k="ssr:stedsnr" v="146614" />
	</node>
	<node id="9880257596" lat="69.6890007" lon="30.4708662" version="1" timestamp="2022-07-11T04:55:47Z" changeset="123454106" uid="3497659" user="NKA">
		<tag k="name" v="Rognli" />
		<tag k="place" v="farm" />
		<tag k="ssr:stedsnr" v="471086" />
	</node>
	<node id="9880257597" lat="69.6850551" lon="30.4648036" version="1" timestamp="2022-07-11T04:55:47Z" changeset="123454106" uid="3497659" user="NKA">
		<tag k="name" v="Bestemorshaugen" />
		<tag k="place" v="farm" />
		<tag k="ssr:stedsnr" v="471035" />
	</node>
	<node id="9880257598" lat="69.6741592" lon="30.442819" version="1" timestamp="2022-07-11T04:55:47Z" changeset="123454106" uid="3497659" user="NKA">
		<tag k="loc_name:fkv" v="Toorni" />
		<tag k="loc_name:se" v="Toardna;Toartnavuolli" />
		<tag k="name" v="Tårnet" />
		<tag k="name:no" v="Tårnet" />
		<tag k="place" v="hamlet" />
		<tag k="ssr:stedsnr" v="929783" />
	</node>
	<node id="9880257599" lat="69.6259821" lon="29.9675825" version="1" timestamp="2022-07-11T04:55:47Z" changeset="123454106" uid="3497659" user="NKA">
		<tag k="name" v="Nymoen" />
		<tag k="place" v="farm" />
		<tag k="ssr:stedsnr" v="757441" />
	</node>
	<node id="9880257600" lat="69.7352173" lon="30.4495919" version="1" timestamp="2022-07-11T04:55:47Z" changeset="123454106" uid="3497659" user="NKA">
		<tag k="name" v="Valnes" />
		<tag k="place" v="farm" />
		<tag k="ssr:stedsnr" v="774047" />
	</node>
	<node id="9880257601" lat="69.69992" lon="30.1257031" version="1" timestamp="2022-07-11T04:55:47Z" changeset="123454106" uid="3497659" user="NKA">
		<tag k="alt_name" v="Myrbak" />
		<tag k="name" v="Myrbakk" />
		<tag k="place" v="farm" />
		<tag k="ssr:stedsnr" v="25633" />
	</node>
	<node id="9880257602" lat="69.6792172" lon="30.2991405" version="1" timestamp="2022-07-11T04:55:47Z" changeset="123454106" uid="3497659" user="NKA">
		<tag k="name" v="Bekkeng" />
		<tag k="place" v="farm" />
		<tag k="ssr:stedsnr" v="288462" />
	</node>
	<node id="9880257603" lat="69.7041311" lon="30.1332251" version="1" timestamp="2022-07-11T04:55:47Z" changeset="123454106" uid="3497659" user="NKA">
		<tag k="name" v="Eidet" />
		<tag k="place" v="farm" />
		<tag k="ssr:stedsnr" v="25634" />
	</node>
	<node id="9880257604" lat="69.6779894" lon="30.127178" version="1" timestamp="2022-07-11T04:55:47Z" changeset="123454106" uid="3497659" user="NKA">
		<tag k="name" v="Myrdal" />
		<tag k="place" v="farm" />
		<tag k="ssr:stedsnr" v="935641" />
	</node>
	<node id="9880257605" lat="69.7398993" lon="30.1077563" version="1" timestamp="2022-07-11T04:55:47Z" changeset="123454106" uid="3497659" user="NKA">
		<tag k="name" v="Ytre Lid" />
		<tag k="place" v="hamlet" />
		<tag k="ssr:stedsnr" v="935589" />
	</node>
	<node id="9880257606" lat="69.9735413" lon="29.6354052" version="1" timestamp="2022-07-11T04:55:47Z" changeset="123454106" uid="3497659" user="NKA">
		<tag k="name" v="Neset" />
		<tag k="place" v="neighbourhood" />
		<tag k="ssr:stedsnr" v="701112" />
	</node>
	<node id="9880257607" lat="69.7071643" lon="29.8996387" version="1" timestamp="2022-07-11T04:55:47Z" changeset="123454106" uid="3497659" user="NKA">
		<tag k="name" v="Strømsbukt - Guohcagohppi - Virtalahti" />
		<tag k="name:fkv" v="Virtalahti" />
		<tag k="name:no" v="Strømsbukt" />
		<tag k="name:se" v="Guohcagohppi" />
		<tag k="old_name:no" v="Straumsbukt" />
		<tag k="place" v="farm" />
		<tag k="ssr:stedsnr" v="631519" />
	</node>
	<node id="9880257608" lat="69.5889949" lon="29.9487959" version="1" timestamp="2022-07-11T04:55:47Z" changeset="123454106" uid="3497659" user="NKA">
		<tag k="name" v="Langfjordbund Østre" />
		<tag k="place" v="farm" />
		<tag k="ssr:stedsnr" v="593296" />
	</node>
	<node id="9880257609" lat="69.6734256" lon="30.3096542" version="1" timestamp="2022-07-11T04:55:47Z" changeset="123454106" uid="3497659" user="NKA">
		<tag k="name" v="Klaustrøa" />
		<tag k="place" v="locality" />
		<tag k="ssr:stedsnr" v="409488" />
	</node>
	<node id="9880257610" lat="69.7319004" lon="29.6670209" version="1" timestamp="2022-07-11T04:55:47Z" changeset="123454106" uid="3497659" user="NKA">
		<tag k="name" v="Lillestonga" />
		<tag k="place" v="hamlet" />
		<tag k="ssr:stedsnr" v="472976" />
	</node>
	<node id="9880257611" lat="69.6271282" lon="29.9626097" version="1" timestamp="2022-07-11T04:55:47Z" changeset="123454106" uid="3497659" user="NKA">
		<tag k="name" v="Furulund" />
		<tag k="place" v="farm" />
		<tag k="ssr:stedsnr" v="957300" />
	</node>
	<node id="9880257612" lat="69.7365734" lon="30.1169856" version="1" timestamp="2022-07-11T04:55:47Z" changeset="123454106" uid="3497659" user="NKA">
		<tag k="name" v="Indre Li" />
		<tag k="place" v="isolated_dwelling" />
		<tag k="ssr:stedsnr" v="29057" />
	</node>
	<node id="9880257613" lat="69.6912338" lon="30.0999732" version="1" timestamp="2022-07-11T04:55:47Z" changeset="123454106" uid="3497659" user="NKA">
		<tag k="name" v="Bergheim" />
		<tag k="place" v="farm" />
		<tag k="ssr:stedsnr" v="813603" />
	</node>
	<node id="9880257614" lat="69.6741265" lon="30.3148677" version="1" timestamp="2022-07-11T04:55:47Z" changeset="123454106" uid="3497659" user="NKA">
		<tag k="name" v="Solvang" />
		<tag k="place" v="farm" />
		<tag k="ssr:stedsnr" v="150294" />
	</node>
	<node id="9880257615" lat="69.6780327" lon="30.0712179" version="1" timestamp="2022-07-11T04:55:47Z" changeset="123454106" uid="3497659" user="NKA">
		<tag k="name" v="Rundvassli" />
		<tag k="place" v="hamlet" />
		<tag k="ssr:stedsnr" v="201769" />
	</node>
	<node id="9880257616" lat="69.7379005" lon="30.0345551" version="1" timestamp="2022-07-11T04:55:47Z" changeset="123454106" uid="3497659" user="NKA">
		<tag k="name" v="Pedersenjord" />
		<tag k="place" v="isolated_dwelling" />
		<tag k="ssr:stedsnr" v="878742" />
	</node>
	<node id="9880257617" lat="69.661322" lon="30.2939559" version="1" timestamp="2022-07-11T04:55:47Z" changeset="123454106" uid="3497659" user="NKA">
		<tag k="name" v="Tofte" />
		<tag k="place" v="hamlet" />
		<tag k="ssr:stedsnr" v="149183" />
	</node>
	<node id="9880257618" lat="69.7271255" lon="30.0418938" version="1" timestamp="2022-07-11T04:55:47Z" changeset="123454106" uid="3497659" user="NKA">
		<tag k="name" v="Behrens plass" />
		<tag k="place" v="neighbourhood" />
		<tag k="ssr:stedsnr" v="762295" />
	</node>
	<node id="9880257619" lat="69.7723918" lon="30.4082828" version="1" timestamp="2022-07-11T04:55:47Z" changeset="123454106" uid="3497659" user="NKA">
		<tag k="name" v="Spirdegieddi" />
		<tag k="name:se" v="Spirdegieddi" />
		<tag k="place" v="locality" />
		<tag k="ssr:stedsnr" v="747387" />
	</node>
	<node id="9880257620" lat="69.769395" lon="30.180274" version="1" timestamp="2022-07-11T04:55:47Z" changeset="123454106" uid="3497659" user="NKA">
		<tag k="name" v="Brønniknes" />
		<tag k="place" v="isolated_dwelling" />
		<tag k="ssr:stedsnr" v="714408" />
	</node>
	<node id="9880257621" lat="69.7680441" lon="30.1885066" version="1" timestamp="2022-07-11T04:55:47Z" changeset="123454106" uid="3497659" user="NKA">
		<tag k="loc_name:fkv" v="Ruuppelva;Ruuppijoki" />
		<tag k="loc_name:se" v="Juramgohppi;Juranjohka" />
		<tag k="loc_name:sms" v="Jurânjokk" />
		<tag k="name" v="Ropelv" />
		<tag k="name:no" v="Ropelv" />
		<tag k="place" v="hamlet" />
		<tag k="ssr:stedsnr" v="868379" />
	</node>
	<node id="9880257622" lat="69.4479865" lon="29.7177619" version="1" timestamp="2022-07-11T04:55:47Z" changeset="123454106" uid="3497659" user="NKA">
		<tag k="name" v="Lundhytta" />
		<tag k="place" v="isolated_dwelling" />
		<tag k="ssr:stedsnr" v="746895" />
	</node>
	<node id="9880257623" lat="69.6858134" lon="30.4577474" version="1" timestamp="2022-07-11T04:55:47Z" changeset="123454106" uid="3497659" user="NKA">
		<tag k="loc_name:fkv" v="Isomukka" />
		<tag k="name" v="Storbukt - Stuorragohppi" />
		<tag k="name:no" v="Storbukt" />
		<tag k="name:se" v="Stuorragohppi" />
		<tag k="place" v="hamlet" />
		<tag k="ssr:stedsnr" v="444776" />
	</node>
	<node id="9880257624" lat="69.7845616" lon="30.1162587" version="1" timestamp="2022-07-11T04:55:47Z" changeset="123454106" uid="3497659" user="NKA">
		<tag k="name" v="Strandheim" />
		<tag k="place" v="isolated_dwelling" />
		<tag k="ssr:stedsnr" v="714246" />
	</node>
	<node id="9880257625" lat="69.6697367" lon="30.3467559" version="1" timestamp="2022-07-11T04:55:47Z" changeset="123454106" uid="3497659" user="NKA">
		<tag k="name" v="Vierbekk" />
		<tag k="place" v="farm" />
		<tag k="ssr:stedsnr" v="80777" />
	</node>
	<node id="9880257626" lat="69.7808262" lon="30.2000428" version="1" timestamp="2022-07-11T04:55:47Z" changeset="123454106" uid="3497659" user="NKA">
		<tag k="alt_name" v="Ropelv, l" />
		<tag k="name" v="Lille Ropelv" />
		<tag k="place" v="hamlet" />
		<tag k="ssr:stedsnr" v="140097" />
	</node>
	<node id="9880257627" lat="69.5022144" lon="30.0941513" version="1" timestamp="2022-07-11T04:55:47Z" changeset="123454106" uid="3497659" user="NKA">
		<tag k="name" v="Bjørnset" />
		<tag k="place" v="farm" />
		<tag k="ssr:stedsnr" v="783164" />
	</node>
	<node id="9880257628" lat="69.6615942" lon="30.2032338" version="1" timestamp="2022-07-11T04:55:47Z" changeset="123454106" uid="3497659" user="NKA">
		<tag k="alt_name" v="M1299 SKOGSETH" />
		<tag k="name" v="Skogset" />
		<tag k="place" v="farm" />
		<tag k="ssr:stedsnr" v="1076158" />
	</node>
	<node id="9880257629" lat="69.7696339" lon="30.2012957" version="1" timestamp="2022-07-11T04:55:47Z" changeset="123454106" uid="3497659" user="NKA">
		<tag k="name" v="Heimro" />
		<tag k="place" v="farm" />
		<tag k="ssr:stedsnr" v="348434" />
	</node>
	<node id="9880257630" lat="69.7690061" lon="30.1978819" version="1" timestamp="2022-07-11T04:55:47Z" changeset="123454106" uid="3497659" user="NKA">
		<tag k="name" v="Bergly" />
		<tag k="place" v="isolated_dwelling" />
		<tag k="ssr:stedsnr" v="834432" />
	</node>
	<node id="9880257631" lat="69.7703394" lon="30.2030123" version="1" timestamp="2022-07-11T04:55:47Z" changeset="123454106" uid="3497659" user="NKA">
		<tag k="name" v="Østre Ropelv" />
		<tag k="place" v="isolated_dwelling" />
		<tag k="ssr:stedsnr" v="530473" />
	</node>
	<node id="9880257632" lat="69.6604422" lon="30.2064623" version="1" timestamp="2022-07-11T04:55:47Z" changeset="123454106" uid="3497659" user="NKA">
		<tag k="name" v="Storskog - Stuorravuovdi" />
		<tag k="name:no" v="Storskog" />
		<tag k="name:se" v="Stuorravuovdi" />
		<tag k="place" v="hamlet" />
		<tag k="ssr:stedsnr" v="147169" />
	</node>
	<node id="9880257633" lat="69.6707617" lon="30.3518169" version="1" timestamp="2022-07-11T04:55:47Z" changeset="123454106" uid="3497659" user="NKA">
		<tag k="loc_name:no" v="Pandorneset" />
		<tag k="loc_name:se" v="Pánddonjárga" />
		<tag k="name" v="Pandurnes" />
		<tag k="name:no" v="Pandurnes" />
		<tag k="place" v="hamlet" />
		<tag k="ssr:stedsnr" v="332186" />
	</node>
	<node id="9880257634" lat="69.7109979" lon="30.4814827" version="1" timestamp="2022-07-11T04:55:47Z" changeset="123454106" uid="3497659" user="NKA">
		<tag k="name" v="Tamaråsen" />
		<tag k="place" v="farm" />
		<tag k="ssr:stedsnr" v="472241" />
	</node>
	<node id="9880257635" lat="69.6753729" lon="30.3088953" version="1" timestamp="2022-07-11T04:55:47Z" changeset="123454106" uid="3497659" user="NKA">
		<tag k="name" v="Bråten" />
		<tag k="place" v="farm" />
		<tag k="ssr:stedsnr" v="591486" />
	</node>
	<node id="9880257636" lat="69.7063252" lon="29.299152" version="1" timestamp="2022-07-11T04:55:47Z" changeset="123454106" uid="3497659" user="NKA">
		<tag k="name" v="Grytnes" />
		<tag k="place" v="farm" />
		<tag k="ssr:stedsnr" v="746001" />
	</node>
	<node id="9880257637" lat="69.6719923" lon="30.3992265" version="1" timestamp="2022-07-11T04:55:47Z" changeset="123454106" uid="3497659" user="NKA">
		<tag k="name" v="Vesterheim" />
		<tag k="place" v="farm" />
		<tag k="ssr:stedsnr" v="29300" />
	</node>
	<node id="9880257638" lat="69.6758977" lon="30.1436555" version="1" timestamp="2022-07-11T04:55:47Z" changeset="123454106" uid="3497659" user="NKA">
		<tag k="name" v="Myrhaug" />
		<tag k="place" v="farm" />
		<tag k="ssr:stedsnr" v="632610" />
	</node>
	<node id="9880257639" lat="69.785756" lon="29.8213235" version="1" timestamp="2022-07-11T04:55:47Z" changeset="123454106" uid="3497659" user="NKA">
		<tag k="name" v="Sør-Leirvåg" />
		<tag k="place" v="farm" />
		<tag k="ssr:stedsnr" v="328127" />
	</node>
	<node id="9880257640" lat="69.7160894" lon="30.1319723" version="1" timestamp="2022-07-11T04:55:47Z" changeset="123454106" uid="3497659" user="NKA">
		<tag k="name" v="Svartaksla" />
		<tag k="place" v="hamlet" />
		<tag k="ssr:stedsnr" v="565232" />
	</node>
	<node id="9880257641" lat="69.7252922" lon="30.1301141" version="1" timestamp="2022-07-11T04:55:47Z" changeset="123454106" uid="3497659" user="NKA">
		<tag k="alt_name" v="Solsvik" />
		<tag k="name" v="Solsvikt" />
		<tag k="place" v="farm" />
		<tag k="ssr:stedsnr" v="630540" />
	</node>
	<node id="9880257642" lat="69.7607005" lon="29.958068" version="1" timestamp="2022-07-11T04:55:47Z" changeset="123454106" uid="3497659" user="NKA">
		<tag k="name" v="Gamnes" />
		<tag k="place" v="farm" />
		<tag k="ssr:stedsnr" v="929040" />
	</node>
	<node id="9880257643" lat="69.6620908" lon="30.2931163" version="1" timestamp="2022-07-11T04:55:47Z" changeset="123454106" uid="3497659" user="NKA">
		<tag k="name" v="Pandortjernet" />
		<tag k="old_name" v="RV 886 HP01 - PANDURTJERN" />
		<tag k="place" v="farm" />
		<tag k="ssr:stedsnr" v="1078802" />
	</node>
	<node id="9880257644" lat="69.6558562" lon="30.428801" version="1" timestamp="2022-07-11T04:55:47Z" changeset="123454106" uid="3497659" user="NKA">
		<tag k="name" v="Nyjord" />
		<tag k="place" v="farm" />
		<tag k="ssr:stedsnr" v="201745" />
	</node>
	<node id="9880257645" lat="69.6687332" lon="30.1745846" version="1" timestamp="2022-07-11T04:55:47Z" changeset="123454106" uid="3497659" user="NKA">
		<tag k="name" v="Fredheim" />
		<tag k="place" v="farm" />
		<tag k="ssr:stedsnr" v="383808" />
	</node>
	<node id="9880257646" lat="69.7939424" lon="30.4263535" version="1" timestamp="2022-07-11T04:55:47Z" changeset="123454106" uid="3497659" user="NKA">
		<tag k="name" v="Nyhamn" />
		<tag k="place" v="isolated_dwelling" />
		<tag k="ssr:stedsnr" v="505130" />
	</node>
	<node id="9880257647" lat="69.707062" lon="30.0917174" version="1" timestamp="2022-07-11T04:55:47Z" changeset="123454106" uid="3497659" user="NKA">
		<tag k="alt_name" v="Langøyra" />
		<tag k="name" v="Langøra" />
		<tag k="place" v="farm" />
		<tag k="ssr:stedsnr" v="328618" />
	</node>
	<node id="9880257648" lat="69.670002" lon="30.3452695" version="1" timestamp="2022-07-11T04:55:47Z" changeset="123454106" uid="3497659" user="NKA">
		<tag k="name" v="Holmen" />
		<tag k="place" v="farm" />
		<tag k="ssr:stedsnr" v="651490" />
	</node>
	<node id="9880257649" lat="69.7836199" lon="30.1435582" version="1" timestamp="2022-07-11T04:55:47Z" changeset="123454106" uid="3497659" user="NKA">
		<tag k="name" v="Reinøybakken" />
		<tag k="place" v="isolated_dwelling" />
		<tag k="ssr:stedsnr" v="349333" />
	</node>
	<node id="9880257650" lat="69.7428951" lon="30.4764745" version="1" timestamp="2022-07-11T04:55:47Z" changeset="123454106" uid="3497659" user="NKA">
		<tag k="name" v="Harevold" />
		<tag k="place" v="farm" />
		<tag k="ssr:stedsnr" v="714158" />
	</node>
	<node id="9880257651" lat="69.7651728" lon="30.1644132" version="1" timestamp="2022-07-11T04:55:47Z" changeset="123454106" uid="3497659" user="NKA">
		<tag k="name" v="Rødberget" />
		<tag k="place" v="isolated_dwelling" />
		<tag k="ssr:stedsnr" v="349524" />
	</node>
	<node id="9880257652" lat="69.6711621" lon="30.4419138" version="1" timestamp="2022-07-11T04:55:47Z" changeset="123454106" uid="3497659" user="NKA">
		<tag k="name" v="Krokli" />
		<tag k="place" v="farm" />
		<tag k="ssr:stedsnr" v="714022" />
	</node>
	<node id="9880257653" lat="69.6731986" lon="30.3124911" version="1" timestamp="2022-07-11T04:55:47Z" changeset="123454106" uid="3497659" user="NKA">
		<tag k="name" v="Vestre Strømsnes" />
		<tag k="place" v="farm" />
		<tag k="ssr:stedsnr" v="712482" />
	</node>
	<node id="9880257654" lat="69.4121003" lon="29.812324" version="1" timestamp="2022-07-11T04:55:47Z" changeset="123454106" uid="3497659" user="NKA">
		<tag k="name" v="Myreng" />
		<tag k="place" v="farm" />
		<tag k="ssr:stedsnr" v="957710" />
	</node>
	<node id="9880257655" lat="69.6520454" lon="29.5012692" version="1" timestamp="2022-07-11T04:55:47Z" changeset="123454106" uid="3497659" user="NKA">
		<tag k="alt_name" v="Harebakken" />
		<tag k="name" v="Harebukt" />
		<tag k="place" v="farm" />
		<tag k="ssr:stedsnr" v="868110" />
	</node>
	<node id="9880257656" lat="69.6771422" lon="30.0783625" version="1" timestamp="2022-07-11T04:55:47Z" changeset="123454106" uid="3497659" user="NKA">
		<tag k="name" v="Solbakken" />
		<tag k="place" v="farm" />
		<tag k="ssr:stedsnr" v="276741" />
	</node>
	<node id="9880257657" lat="69.6653146" lon="30.3805745" version="1" timestamp="2022-07-11T04:55:47Z" changeset="123454106" uid="3497659" user="NKA">
		<tag k="loc_name:fkv" v="Karpukta" />
		<tag k="name" v="Karpbukt - Siideluovta" />
		<tag k="name:no" v="Karpbukt" />
		<tag k="name:se" v="Siideluovta" />
		<tag k="place" v="hamlet" />
		<tag k="ssr:stedsnr" v="712373" />
	</node>
	<node id="9880257658" lat="69.7431535" lon="30.4665385" version="1" timestamp="2022-07-11T04:55:47Z" changeset="123454106" uid="3497659" user="NKA">
		<tag k="name" v="Bye" />
		<tag k="place" v="farm" />
		<tag k="ssr:stedsnr" v="653169" />
	</node>
	<node id="9880257659" lat="69.6802464" lon="30.4490933" version="1" timestamp="2022-07-11T04:55:47Z" changeset="123454106" uid="3497659" user="NKA">
		<tag k="name" v="Tårnstua" />
		<tag k="place" v="locality" />
		<tag k="ssr:stedsnr" v="653098" />
	</node>
	<node id="9880257660" lat="69.6807201" lon="30.3778189" version="1" timestamp="2022-07-11T04:55:47Z" changeset="123454106" uid="3497659" user="NKA">
		<tag k="name" v="Limgamberget" />
		<tag k="place" v="isolated_dwelling" />
		<tag k="ssr:stedsnr" v="696205" />
	</node>
	<node id="9880257661" lat="69.6797255" lon="30.0981953" version="1" timestamp="2022-07-11T04:55:47Z" changeset="123454106" uid="3497659" user="NKA">
		<tag k="name" v="Bekkevold" />
		<tag k="place" v="farm" />
		<tag k="ssr:stedsnr" v="276739" />
	</node>
	<node id="9880257662" lat="69.6732479" lon="30.4412978" version="1" timestamp="2022-07-11T04:55:47Z" changeset="123454106" uid="3497659" user="NKA">
		<tag k="name" v="Tårnsletta" />
		<tag k="place" v="farm" />
		<tag k="ssr:stedsnr" v="592012" />
	</node>
	<node id="9880257663" lat="69.6724497" lon="30.4269925" version="1" timestamp="2022-07-11T04:55:47Z" changeset="123454106" uid="3497659" user="NKA">
		<tag k="name" v="Lillemo" />
		<tag k="place" v="farm" />
		<tag k="ssr:stedsnr" v="896011" />
	</node>
	<node id="9880257664" lat="69.6583243" lon="30.283182" version="1" timestamp="2022-07-11T04:55:47Z" changeset="123454106" uid="3497659" user="NKA">
		<tag k="alt_name" v="Storslåtten" />
		<tag k="name" v="Storslåtta" />
		<tag k="place" v="farm" />
		<tag k="ssr:stedsnr" v="565795" />
	</node>
	<node id="9880257665" lat="69.68152" lon="30.1580023" version="1" timestamp="2022-07-11T04:55:47Z" changeset="123454106" uid="3497659" user="NKA">
		<tag k="name" v="Fjeldly" />
		<tag k="place" v="farm" />
		<tag k="ssr:stedsnr" v="146619" />
	</node>
	<node id="9880257666" lat="69.6602601" lon="30.3850247" version="1" timestamp="2022-07-11T04:55:47Z" changeset="123454106" uid="3497659" user="NKA">
		<tag k="name" v="Fossmoen" />
		<tag k="place" v="farm" />
		<tag k="ssr:stedsnr" v="895421" />
	</node>
	<node id="9880257667" lat="69.7392817" lon="29.7139244" version="1" timestamp="2022-07-11T04:55:47Z" changeset="123454106" uid="3497659" user="NKA">
		<tag k="name" v="Dalen" />
		<tag k="place" v="isolated_dwelling" />
		<tag k="ssr:stedsnr" v="453691" />
	</node>
	<node id="9880257668" lat="69.6869063" lon="30.400742" version="1" timestamp="2022-07-11T04:55:47Z" changeset="123454106" uid="3497659" user="NKA">
		<tag k="name" v="Kjerrisneset - Beahcenjárga - Kieresniemi" />
		<tag k="name:fkv" v="Kieresniemi" />
		<tag k="name:no" v="Kjerrisneset" />
		<tag k="name:se" v="Beahcenjárga" />
		<tag k="place" v="hamlet" />
		<tag k="ssr:stedsnr" v="982968" />
	</node>
	<node id="9880257669" lat="69.6674617" lon="30.3617861" version="1" timestamp="2022-07-11T04:55:47Z" changeset="123454106" uid="3497659" user="NKA">
		<tag k="name" v="Østberg" />
		<tag k="place" v="farm" />
		<tag k="ssr:stedsnr" v="895457" />
	</node>
	<node id="9880257670" lat="69.4036513" lon="29.7866344" version="1" timestamp="2022-07-11T04:55:47Z" changeset="123454106" uid="3497659" user="NKA">
		<tag k="name" v="Melkefoss - Máiddik - Mââjdõk - Maitokoski" />
		<tag k="name:fkv" v="Maitokoski" />
		<tag k="name:no" v="Melkefoss" />
		<tag k="name:se" v="Máiddik" />
		<tag k="name:sms" v="Mââjdõk" />
		<tag k="place" v="hamlet" />
		<tag k="ssr:stedsnr" v="868844" />
	</node>
	<node id="9880257671" lat="69.7326173" lon="30.4625582" version="1" timestamp="2022-07-11T04:55:47Z" changeset="123454106" uid="3497659" user="NKA">
		<tag k="name" v="Myrstad" />
		<tag k="place" v="farm" />
		<tag k="ssr:stedsnr" v="836188" />
	</node>
	<node id="9880257672" lat="69.7479729" lon="30.4598638" version="1" timestamp="2022-07-11T04:55:47Z" changeset="123454106" uid="3497659" user="NKA">
		<tag k="name" v="Gammelheimen" />
		<tag k="place" v="locality" />
		<tag k="ssr:stedsnr" v="896190" />
	</node>
	<node id="9880257673" lat="69.7221755" lon="30.0440384" version="1" timestamp="2022-07-11T04:55:47Z" changeset="123454106" uid="3497659" user="NKA">
		<tag k="name" v="Myra" />
		<tag k="place" v="neighbourhood" />
		<tag k="ssr:stedsnr" v="89748" />
	</node>
	<node id="9880257674" lat="69.7421088" lon="30.1063395" version="1" timestamp="2022-07-11T04:55:47Z" changeset="123454106" uid="3497659" user="NKA">
		<tag k="name" v="Solli" />
		<tag k="place" v="farm" />
		<tag k="ssr:stedsnr" v="85561" />
	</node>
	<node id="9880257675" lat="69.6920783" lon="30.0966066" version="1" timestamp="2022-07-11T04:55:47Z" changeset="123454106" uid="3497659" user="NKA">
		<tag k="name" v="Vestgård" />
		<tag k="place" v="farm" />
		<tag k="ssr:stedsnr" v="85543" />
	</node>
	<node id="9880257676" lat="69.7546395" lon="30.445742" version="1" timestamp="2022-07-11T04:55:47Z" changeset="123454106" uid="3497659" user="NKA">
		<tag k="alt_name" v="Lijorda" />
		<tag k="name" v="Fagerheim" />
		<tag k="place" v="locality" />
		<tag k="ssr:stedsnr" v="383414" />
	</node>
	<node id="9880257677" lat="69.6702921" lon="29.901447" version="1" timestamp="2022-07-11T04:55:47Z" changeset="123454106" uid="3497659" user="NKA">
		<tag k="name" v="Rosheim" />
		<tag k="place" v="locality" />
		<tag k="ssr:stedsnr" v="276877" />
	</node>
	<node id="9880257678" lat="69.7279423" lon="30.4705995" version="1" timestamp="2022-07-11T04:55:47Z" changeset="123454106" uid="3497659" user="NKA">
		<tag k="name" v="Åsmo" />
		<tag k="place" v="isolated_dwelling" />
		<tag k="ssr:stedsnr" v="411237" />
	</node>
	<node id="9880257679" lat="69.734834" lon="30.4690359" version="1" timestamp="2022-07-11T04:55:47Z" changeset="123454106" uid="3497659" user="NKA">
		<tag k="name" v="Liland" />
		<tag k="place" v="farm" />
		<tag k="ssr:stedsnr" v="411235" />
	</node>
	<node id="9880257680" lat="69.6751679" lon="30.3184559" version="1" timestamp="2022-07-11T04:55:47Z" changeset="123454106" uid="3497659" user="NKA">
		<tag k="name" v="Brevik" />
		<tag k="place" v="farm" />
		<tag k="ssr:stedsnr" v="409489" />
	</node>
	<node id="9880257681" lat="69.7138229" lon="30.4438281" version="1" timestamp="2022-07-11T04:55:47Z" changeset="123454106" uid="3497659" user="NKA">
		<tag k="name" v="Ørretelv - Dámmošjohka" />
		<tag k="name:no" v="Ørretelv" />
		<tag k="name:se" v="Dámmošjohka" />
		<tag k="place" v="farm" />
		<tag k="ssr:stedsnr" v="411233" />
	</node>
	<node id="9880257682" lat="69.2152252" lon="29.1495434" version="1" timestamp="2022-07-11T04:55:47Z" changeset="123454106" uid="3497659" user="NKA">
		<tag k="name" v="Ellenstad" />
		<tag k="place" v="farm" />
		<tag k="ssr:stedsnr" v="411424" />
	</node>
	<node id="9880257683" lat="69.6886692" lon="30.4604435" version="1" timestamp="2022-07-11T04:55:47Z" changeset="123454106" uid="3497659" user="NKA">
		<tag k="name" v="Morgenro" />
		<tag k="place" v="farm" />
		<tag k="ssr:stedsnr" v="410054" />
	</node>
	<node id="9880257684" lat="69.6969336" lon="29.5180569" version="1" timestamp="2022-07-11T04:55:47Z" changeset="123454106" uid="3497659" user="NKA">
		<tag k="name" v="Fjellheim" />
		<tag k="place" v="farm" />
		<tag k="ssr:stedsnr" v="322084" />
	</node>
	<node id="9880257685" lat="69.6893201" lon="30.4519196" version="1" timestamp="2022-07-11T04:55:47Z" changeset="123454106" uid="3497659" user="NKA">
		<tag k="name" v="Jernhaugen" />
		<tag k="place" v="farm" />
		<tag k="ssr:stedsnr" v="532054" />
	</node>
	<node id="9880257686" lat="69.6848563" lon="30.4606749" version="1" timestamp="2022-07-11T04:55:47Z" changeset="123454106" uid="3497659" user="NKA">
		<tag k="name" v="Myrland" />
		<tag k="place" v="farm" />
		<tag k="ssr:stedsnr" v="349049" />
	</node>
	<node id="9880257687" lat="69.67386" lon="30.4328385" version="1" timestamp="2022-07-11T04:55:47Z" changeset="123454106" uid="3497659" user="NKA">
		<tag k="name" v="Sandbukten" />
		<tag k="place" v="farm" />
		<tag k="ssr:stedsnr" v="289013" />
	</node>
	<node id="9880257688" lat="69.7078003" lon="29.5287068" version="1" timestamp="2022-07-11T04:55:47Z" changeset="123454106" uid="3497659" user="NKA">
		<tag k="name" v="Kyperelven" />
		<tag k="place" v="farm" />
		<tag k="ssr:stedsnr" v="653199" />
	</node>
	<node id="9880257689" lat="69.6717845" lon="30.4393836" version="1" timestamp="2022-07-11T04:55:47Z" changeset="123454106" uid="3497659" user="NKA">
		<tag k="name" v="Myren" />
		<tag k="place" v="farm" />
		<tag k="ssr:stedsnr" v="349024" />
	</node>
	<node id="9880257690" lat="69.8566864" lon="29.4151224" version="1" timestamp="2022-07-11T04:55:47Z" changeset="123454106" uid="3497659" user="NKA">
		<tag k="name" v="Steinmo" />
		<tag k="place" v="farm" />
		<tag k="ssr:stedsnr" v="228016" />
	</node>
	<node id="9880257691" lat="69.6762505" lon="30.3362455" version="1" timestamp="2022-07-11T04:55:47Z" changeset="123454106" uid="3497659" user="NKA">
		<tag k="name" v="Lyngli" />
		<tag k="place" v="locality" />
		<tag k="ssr:stedsnr" v="530520" />
	</node>
	<node id="9880257692" lat="69.7315785" lon="30.4657302" version="1" timestamp="2022-07-11T04:55:47Z" changeset="123454106" uid="3497659" user="NKA">
		<tag k="name" v="Løkland" />
		<tag k="place" v="farm" />
		<tag k="ssr:stedsnr" v="229238" />
	</node>
	<node id="9880257693" lat="69.7135396" lon="30.4436003" version="1" timestamp="2022-07-11T04:55:47Z" changeset="123454106" uid="3497659" user="NKA">
		<tag k="name" v="Sætra" />
		<tag k="place" v="isolated_dwelling" />
		<tag k="ssr:stedsnr" v="201207" />
	</node>
	<node id="9880257694" lat="69.654434" lon="30.4117068" version="1" timestamp="2022-07-11T04:55:47Z" changeset="123454106" uid="3497659" user="NKA">
		<tag k="name" v="Kulpmo" />
		<tag k="old_name" v="Kulpmoen" />
		<tag k="place" v="farm" />
		<tag k="ssr:stedsnr" v="147159" />
	</node>
	<node id="9880257695" lat="69.8500056" lon="29.3669722" version="1" timestamp="2022-07-11T04:55:47Z" changeset="123454106" uid="3497659" user="NKA">
		<tag k="name" v="Øvre Rynes" />
		<tag k="place" v="farm" />
		<tag k="ssr:stedsnr" v="108210" />
	</node>
	<node id="9880257696" lat="69.7539917" lon="29.6060551" version="1" timestamp="2022-07-11T04:55:47Z" changeset="123454106" uid="3497659" user="NKA">
		<tag k="name" v="Braselv - Guolleveadji" />
		<tag k="name:no" v="Braselv" />
		<tag k="name:se" v="Guolleveadji" />
		<tag k="old_name:se" v="Guollevæddji" />
		<tag k="place" v="farm" />
		<tag k="ssr:stedsnr" v="262059" />
	</node>
	<node id="9880257697" lat="69.694459" lon="30.448542" version="1" timestamp="2022-07-11T04:55:47Z" changeset="123454106" uid="3497659" user="NKA">
		<tag k="name" v="Sjøholmen" />
		<tag k="place" v="farm" />
		<tag k="ssr:stedsnr" v="140808" />
	</node>
	<node id="9880257698" lat="69.5032678" lon="30.1064331" version="1" timestamp="2022-07-11T04:55:47Z" changeset="123454106" uid="3497659" user="NKA">
		<tag k="alt_name" v="Sletta" />
		<tag k="name" v="Sletten" />
		<tag k="place" v="farm" />
		<tag k="ssr:stedsnr" v="929825" />
	</node>
	<node id="9880257699" lat="69.8751947" lon="29.3837119" version="1" timestamp="2022-07-11T04:55:47Z" changeset="123454106" uid="3497659" user="NKA">
		<tag k="name" v="Bakkeli" />
		<tag k="place" v="farm" />
		<tag k="ssr:stedsnr" v="868127" />
	</node>
	<node id="9880257700" lat="69.686609" lon="30.3961433" version="1" timestamp="2022-07-11T04:55:47Z" changeset="123454106" uid="3497659" user="NKA">
		<tag k="name" v="Midtgård" />
		<tag k="place" v="farm" />
		<tag k="ssr:stedsnr" v="90251" />
	</node>
	<node id="9880257701" lat="69.7372911" lon="30.4640614" version="1" timestamp="2022-07-11T04:55:47Z" changeset="123454106" uid="3497659" user="NKA">
		<tag k="loc_name:se" v="Coagangohppi" />
		<tag k="name" v="Lanabukta - Laanapukta" />
		<tag k="name:fkv" v="Laanapukta" />
		<tag k="name:no" v="Lanabukta" />
		<tag k="place" v="hamlet" />
		<tag k="ssr:stedsnr" v="140218" />
	</node>
	<node id="9880257702" lat="69.4829558" lon="30.0226045" version="1" timestamp="2022-07-11T04:55:47Z" changeset="123454106" uid="3497659" user="NKA">
		<tag k="name" v="Heggelund" />
		<tag k="place" v="farm" />
		<tag k="ssr:stedsnr" v="686979" />
	</node>
	<node id="9880257703" lat="69.6746173" lon="30.3242814" version="1" timestamp="2022-07-11T04:55:47Z" changeset="123454106" uid="3497659" user="NKA">
		<tag k="name" v="Hergenes" />
		<tag k="place" v="farm" />
		<tag k="ssr:stedsnr" v="89207" />
	</node>
	<node id="9880257704" lat="69.3364059" lon="29.5375207" version="1" timestamp="2022-07-11T04:55:47Z" changeset="123454106" uid="3497659" user="NKA">
		<tag k="alt_name" v="Haakseth" />
		<tag k="name" v="Håkset" />
		<tag k="place" v="farm" />
		<tag k="ssr:stedsnr" v="503854" />
	</node>
	<node id="9880257705" lat="69.6638062" lon="30.3585723" version="1" timestamp="2022-07-11T04:55:47Z" changeset="123454106" uid="3497659" user="NKA">
		<tag k="name" v="Nordmo" />
		<tag k="place" v="farm" />
		<tag k="ssr:stedsnr" v="106483" />
	</node>
	<node id="9880257706" lat="69.5553255" lon="29.9847176" version="1" timestamp="2022-07-11T04:55:47Z" changeset="123454106" uid="3497659" user="NKA">
		<tag k="name" v="Fagerlien" />
		<tag k="place" v="farm" />
		<tag k="ssr:stedsnr" v="714520" />
	</node>
	<node id="9880257707" lat="69.6709645" lon="30.3514168" version="1" timestamp="2022-07-11T04:55:47Z" changeset="123454106" uid="3497659" user="NKA">
		<tag k="name" v="Langnes" />
		<tag k="place" v="farm" />
		<tag k="ssr:stedsnr" v="106493" />
	</node>
	<node id="9880257708" lat="69.563395" lon="30.1234616" version="1" timestamp="2022-07-11T04:55:47Z" changeset="123454106" uid="3497659" user="NKA">
		<tag k="name" v="Nygård" />
		<tag k="place" v="farm" />
		<tag k="ssr:stedsnr" v="712212" />
	</node>
	<node id="9880257709" lat="69.3044411" lon="29.2630174" version="1" timestamp="2022-07-11T04:55:47Z" changeset="123454106" uid="3497659" user="NKA">
		<tag k="name" v="Sandvik" />
		<tag k="place" v="farm" />
		<tag k="ssr:stedsnr" v="471488" />
	</node>
	<node id="9880257710" lat="69.4662587" lon="29.7271089" version="1" timestamp="2022-07-11T04:55:47Z" changeset="123454106" uid="3497659" user="NKA">
		<tag k="name" v="Myrbekkoia" />
		<tag k="place" v="isolated_dwelling" />
		<tag k="ssr:stedsnr" v="686898" />
	</node>
	<node id="9880257711" lat="69.3903059" lon="29.7102705" version="1" timestamp="2022-07-11T04:55:47Z" changeset="123454106" uid="3497659" user="NKA">
		<tag k="name" v="Strømmen" />
		<tag k="place" v="farm" />
		<tag k="ssr:stedsnr" v="957946" />
	</node>
	<node id="9880257712" lat="69.718878" lon="29.317299" version="1" timestamp="2022-07-11T04:55:47Z" changeset="123454106" uid="3497659" user="NKA">
		<tag k="name" v="Ferdly" />
		<tag k="place" v="farm" />
		<tag k="ssr:stedsnr" v="746008" />
	</node>
	<node id="9880257713" lat="69.416706" lon="29.9841398" version="1" timestamp="2022-07-11T04:55:47Z" changeset="123454106" uid="3497659" user="NKA">
		<tag k="name" v="Svanestrand" />
		<tag k="place" v="farm" />
		<tag k="ssr:stedsnr" v="601176" />
	</node>
	<node id="9880257714" lat="69.3045946" lon="29.2607752" version="1" timestamp="2022-07-11T04:55:47Z" changeset="123454106" uid="3497659" user="NKA">
		<tag k="name" v="Emanuelbekken" />
		<tag k="place" v="farm" />
		<tag k="ssr:stedsnr" v="746120" />
	</node>
	<node id="9880257715" lat="69.5583647" lon="30.0705563" version="1" timestamp="2022-07-11T04:55:47Z" changeset="123454106" uid="3497659" user="NKA">
		<tag k="name" v="Vestdal" />
		<tag k="place" v="farm" />
		<tag k="ssr:stedsnr" v="834263" />
	</node>
	<node id="9880257716" lat="69.3952414" lon="29.7108154" version="1" timestamp="2022-07-11T04:55:47Z" changeset="123454106" uid="3497659" user="NKA">
		<tag k="name" v="Tun" />
		<tag k="place" v="farm" />
		<tag k="ssr:stedsnr" v="79864" />
	</node>
	<node id="9880257717" lat="69.5880782" lon="29.9780121" version="1" timestamp="2022-07-11T04:55:47Z" changeset="123454106" uid="3497659" user="NKA">
		<tag k="name" v="Krokmyr" />
		<tag k="place" v="farm" />
		<tag k="ssr:stedsnr" v="411299" />
	</node>
	<node id="9880257718" lat="69.7048753" lon="29.3150381" version="1" timestamp="2022-07-11T04:55:47Z" changeset="123454106" uid="3497659" user="NKA">
		<tag k="name" v="Bakkerud" />
		<tag k="place" v="farm" />
		<tag k="ssr:stedsnr" v="761461" />
	</node>
	<node id="9880257719" lat="69.5656911" lon="30.1155593" version="1" timestamp="2022-07-11T04:55:47Z" changeset="123454106" uid="3497659" user="NKA">
		<tag k="name" v="Fjellheim" />
		<tag k="place" v="farm" />
		<tag k="ssr:stedsnr" v="929835" />
	</node>
	<node id="9880257720" lat="69.5410328" lon="29.9577828" version="1" timestamp="2022-07-11T04:55:47Z" changeset="123454106" uid="3497659" user="NKA">
		<tag k="name" v="Langli" />
		<tag k="place" v="farm" />
		<tag k="ssr:stedsnr" v="957547" />
	</node>
	<node id="9880257721" lat="69.7041285" lon="29.248991" version="1" timestamp="2022-07-11T04:55:47Z" changeset="123454106" uid="3497659" user="NKA">
		<tag k="name" v="Veinæs" />
		<tag k="place" v="farm" />
		<tag k="ssr:stedsnr" v="714289" />
	</node>
	<node id="9880257722" lat="69.7007669" lon="29.3610956" version="1" timestamp="2022-07-11T04:55:47Z" changeset="123454106" uid="3497659" user="NKA">
		<tag k="name" v="Øvernes" />
		<tag k="place" v="farm" />
		<tag k="ssr:stedsnr" v="944460" />
	</node>
	<node id="9880257723" lat="69.4983588" lon="29.8816893" version="1" timestamp="2022-07-11T04:55:47Z" changeset="123454106" uid="3497659" user="NKA">
		<tag k="name" v="Væinøkoia" />
		<tag k="place" v="isolated_dwelling" />
		<tag k="ssr:stedsnr" v="746103" />
	</node>
	<node id="9880257724" lat="69.5900005" lon="30.1535358" version="1" timestamp="2022-07-11T04:55:47Z" changeset="123454106" uid="3497659" user="NKA">
		<tag k="alt_name" v="Tølleivheimen;Tøllefheimen" />
		<tag k="name" v="Tøllevheimen" />
		<tag k="place" v="farm" />
		<tag k="ssr:stedsnr" v="139836" />
	</node>
	<node id="9880257725" lat="69.6974949" lon="30.123517" version="1" timestamp="2022-07-11T04:55:47Z" changeset="123454106" uid="3497659" user="NKA">
		<tag k="name" v="Bergli" />
		<tag k="place" v="farm" />
		<tag k="ssr:stedsnr" v="935624" />
	</node>
	<node id="9880257726" lat="69.4526043" lon="29.9813813" version="1" timestamp="2022-07-11T04:55:47Z" changeset="123454106" uid="3497659" user="NKA">
		<tag k="name" v="Lekvold" />
		<tag k="old_name" v="Bekkevoll" />
		<tag k="place" v="farm" />
		<tag k="ssr:stedsnr" v="746886" />
	</node>
	<node id="9880257727" lat="69.6719447" lon="29.9559927" version="1" timestamp="2022-07-11T04:55:47Z" changeset="123454106" uid="3497659" user="NKA">
		<tag k="loc_name:sms" v="Kueʹttjokk" />
		<tag k="name" v="Sandnes - Goađak - Kotajoki" />
		<tag k="name:fkv" v="Kotajoki" />
		<tag k="name:no" v="Sandnes" />
		<tag k="name:se" v="Goađak" />
		<tag k="place" v="village" />
		<tag k="ssr:stedsnr" v="808088" />
	</node>
	<node id="9880257728" lat="69.5360949" lon="30.1424334" version="1" timestamp="2022-07-11T04:55:47Z" changeset="123454106" uid="3497659" user="NKA">
		<tag k="name" v="Holmfoss" />
		<tag k="place" v="hamlet" />
		<tag k="ssr:stedsnr" v="957334" />
	</node>
	<node id="9880257729" lat="69.813481" lon="29.796499" version="1" timestamp="2022-07-11T04:55:47Z" changeset="123454106" uid="3497659" user="NKA">
		<tag k="name" v="Østerdal" />
		<tag k="place" v="isolated_dwelling" />
		<tag k="ssr:stedsnr" v="47532" />
	</node>
	<node id="9880257730" lat="69.667831" lon="29.910269" version="1" timestamp="2022-07-11T04:55:47Z" changeset="123454106" uid="3497659" user="NKA">
		<tag k="alt_name" v="Elvevold" />
		<tag k="name" v="Elvevoll" />
		<tag k="place" v="farm" />
		<tag k="ssr:stedsnr" v="565107" />
	</node>
	<node id="9880257731" lat="69.4557588" lon="29.9696512" version="1" timestamp="2022-07-11T04:55:47Z" changeset="123454106" uid="3497659" user="NKA">
		<tag k="name" v="Solberg" />
		<tag k="place" v="farm" />
		<tag k="ssr:stedsnr" v="761271" />
	</node>
	<node id="9880257732" lat="69.4616612" lon="30.0643469" version="1" timestamp="2022-07-11T04:55:47Z" changeset="123454106" uid="3497659" user="NKA">
		<tag k="alt_name" v="Nybrått" />
		<tag k="name" v="Nybrott" />
		<tag k="place" v="farm" />
		<tag k="ssr:stedsnr" v="746980" />
	</node>
	<node id="9880257733" lat="69.7324838" lon="29.8914665" version="1" timestamp="2022-07-11T04:55:47Z" changeset="123454106" uid="3497659" user="NKA">
		<tag k="name" v="Solgård" />
		<tag k="place" v="farm" />
		<tag k="ssr:stedsnr" v="631557" />
	</node>
	<node id="9880257734" lat="69.1652752" lon="29.21807" version="1" timestamp="2022-07-11T04:55:47Z" changeset="123454106" uid="3497659" user="NKA">
		<tag k="name" v="Skogstue" />
		<tag k="place" v="isolated_dwelling" />
		<tag k="ssr:stedsnr" v="957438" />
	</node>
	<node id="9880257735" lat="69.4092671" lon="29.8016687" version="1" timestamp="2022-07-11T04:55:47Z" changeset="123454106" uid="3497659" user="NKA">
		<tag k="name" v="Skoglund" />
		<tag k="place" v="farm" />
		<tag k="ssr:stedsnr" v="443858" />
	</node>
	<node id="9880257736" lat="69.7657672" lon="30.1804018" version="1" timestamp="2022-07-11T04:55:47Z" changeset="123454106" uid="3497659" user="NKA">
		<tag k="name" v="Vestre Ropelv" />
		<tag k="place" v="farm" />
		<tag k="ssr:stedsnr" v="955467" />
	</node>
	<node id="9880257737" lat="69.4002015" lon="29.7179048" version="1" timestamp="2022-07-11T04:55:47Z" changeset="123454106" uid="3497659" user="NKA">
		<tag k="loc_name:se" v="Sámet" />
		<tag k="loc_name:sms" v="Seämõk" />
		<tag k="name" v="Sameti" />
		<tag k="name:no" v="Sameti" />
		<tag k="place" v="hamlet" />
		<tag k="ssr:stedsnr" v="331184" />
	</node>
	<node id="9880257738" lat="69.7076948" lon="29.5186125" version="1" timestamp="2022-07-11T04:55:47Z" changeset="123454106" uid="3497659" user="NKA">
		<tag k="name" v="Sandmoen" />
		<tag k="place" v="farm" />
		<tag k="ssr:stedsnr" v="107199" />
	</node>
	<node id="9880257739" lat="69.3902559" lon="29.7193091" version="1" timestamp="2022-07-11T04:55:47Z" changeset="123454106" uid="3497659" user="NKA">
		<tag k="name" v="Vidjedal" />
		<tag k="place" v="farm" />
		<tag k="ssr:stedsnr" v="229941" />
	</node>
	<node id="9880257740" lat="70.0011336" lon="29.4521579" version="1" timestamp="2022-07-11T04:55:47Z" changeset="123454106" uid="3497659" user="NKA">
		<tag k="name" v="Mattisbukta" />
		<tag k="place" v="farm" />
		<tag k="ssr:stedsnr" v="687506" />
	</node>
	<node id="9880257741" lat="69.4379921" lon="29.9920312" version="1" timestamp="2022-07-11T04:55:47Z" changeset="123454106" uid="3497659" user="NKA">
		<tag k="alt_name" v="Fram" />
		<tag k="name" v="Framrabben" />
		<tag k="place" v="farm" />
		<tag k="ssr:stedsnr" v="686913" />
	</node>
	<node id="9880257742" lat="69.7620447" lon="29.5969722" version="1" timestamp="2022-07-11T04:55:47Z" changeset="123454106" uid="3497659" user="NKA">
		<tag k="name" v="Eide" />
		<tag k="place" v="farm" />
		<tag k="ssr:stedsnr" v="593999" />
	</node>
	<node id="9880257743" lat="69.200921" lon="29.1477229" version="1" timestamp="2022-07-11T04:55:47Z" changeset="123454106" uid="3497659" user="NKA">
		<tag k="name" v="Kveldro" />
		<tag k="place" v="farm" />
		<tag k="ssr:stedsnr" v="261757" />
	</node>
	<node id="9880257744" lat="69.8481789" lon="29.3561478" version="1" timestamp="2022-07-11T04:55:47Z" changeset="123454106" uid="3497659" user="NKA">
		<tag k="name" v="Vingmyr" />
		<tag k="place" v="farm" />
		<tag k="ssr:stedsnr" v="229218" />
	</node>
	<node id="9880257745" lat="69.3566919" lon="29.4541942" version="1" timestamp="2022-07-11T04:55:47Z" changeset="123454106" uid="3497659" user="NKA">
		<tag k="name" v="Enevold" />
		<tag k="place" v="farm" />
		<tag k="ssr:stedsnr" v="290360" />
	</node>
	<node id="9880257746" lat="69.4661005" lon="30.0817071" version="1" timestamp="2022-07-11T04:55:47Z" changeset="123454106" uid="3497659" user="NKA">
		<tag k="alt_name" v="Vierlund" />
		<tag k="name" v="Vielund" />
		<tag k="place" v="farm" />
		<tag k="ssr:stedsnr" v="944584" />
	</node>
	<node id="9880257747" lat="69.687134" lon="30.4584389" version="1" timestamp="2022-07-11T04:55:47Z" changeset="123454106" uid="3497659" user="NKA">
		<tag k="name" v="Stenli" />
		<tag k="place" v="farm" />
		<tag k="ssr:stedsnr" v="46086" />
	</node>
	<node id="9880257748" lat="69.7019197" lon="29.3192101" version="1" timestamp="2022-07-11T04:55:47Z" changeset="123454106" uid="3497659" user="NKA">
		<tag k="name" v="Fossli" />
		<tag k="place" v="farm" />
		<tag k="ssr:stedsnr" v="337416" />
	</node>
	<node id="9880257749" lat="69.3003827" lon="29.2550854" version="1" timestamp="2022-07-11T04:55:47Z" changeset="123454106" uid="3497659" user="NKA">
		<tag k="name" v="Hauge" />
		<tag k="place" v="hamlet" />
		<tag k="ssr:stedsnr" v="139124" />
	</node>
	<node id="9880257750" lat="69.4208719" lon="29.8939125" version="1" timestamp="2022-07-11T04:55:47Z" changeset="123454106" uid="3497659" user="NKA">
		<tag k="name" v="Nilsrud" />
		<tag k="place" v="farm" />
		<tag k="ssr:stedsnr" v="443922" />
	</node>
	<node id="9880257751" lat="69.4374442" lon="29.8490135" version="1" timestamp="2022-07-11T04:55:47Z" changeset="123454106" uid="3497659" user="NKA">
		<tag k="name" v="Heimly" />
		<tag k="place" v="farm" />
		<tag k="ssr:stedsnr" v="382926" />
	</node>
	<node id="9880257752" lat="69.7350954" lon="30.8854167" version="1" timestamp="2022-07-11T04:55:47Z" changeset="123454106" uid="3497659" user="NKA">
		<tag k="name" v="Storneset" />
		<tag k="place" v="isolated_dwelling" />
		<tag k="ssr:stedsnr" v="957164" />
	</node>
	<node id="9880257753" lat="69.6668837" lon="29.898011" version="1" timestamp="2022-07-11T04:55:47Z" changeset="123454106" uid="3497659" user="NKA">
		<tag k="name" v="Østli" />
		<tag k="place" v="farm" />
		<tag k="ssr:stedsnr" v="33826" />
	</node>
	<node id="9880257754" lat="69.3894789" lon="29.7065834" version="1" timestamp="2022-07-11T04:55:47Z" changeset="123454106" uid="3497659" user="NKA">
		<tag k="name" v="Skogstad" />
		<tag k="place" v="farm" />
		<tag k="ssr:stedsnr" v="201870" />
	</node>
	<node id="9880257755" lat="69.7353053" lon="30.8828328" version="1" timestamp="2022-07-11T04:55:47Z" changeset="123454106" uid="3497659" user="NKA">
		<tag k="name" v="Holmen" />
		<tag k="place" v="farm" />
		<tag k="ssr:stedsnr" v="957163" />
	</node>
	<node id="9880257756" lat="69.4064691" lon="29.7437367" version="1" timestamp="2022-07-11T04:55:47Z" changeset="123454106" uid="3497659" user="NKA">
		<tag k="name" v="Grorud" />
		<tag k="place" v="farm" />
		<tag k="ssr:stedsnr" v="625879" />
	</node>
	<node id="9880257757" lat="69.6568982" lon="30.9277653" version="1" timestamp="2022-07-11T04:55:47Z" changeset="123454106" uid="3497659" user="NKA">
		<tag k="name" v="Skogsgammen" />
		<tag k="place" v="locality" />
		<tag k="ssr:stedsnr" v="726156" />
	</node>
	<node id="9880257758" lat="69.392121" lon="29.708901" version="1" timestamp="2022-07-11T04:55:47Z" changeset="123454106" uid="3497659" user="NKA">
		<tag k="name" v="Kildetun" />
		<tag k="place" v="farm" />
		<tag k="ssr:stedsnr" v="411944" />
	</node>
	<node id="9880257759" lat="69.7291448" lon="29.8716364" version="1" timestamp="2022-07-11T04:55:47Z" changeset="123454106" uid="3497659" user="NKA">
		<tag k="name" v="Høybukt" />
		<tag k="place" v="farm" />
		<tag k="ssr:stedsnr" v="625057" />
	</node>
	<node id="9880257760" lat="69.3546329" lon="29.6446545" version="1" timestamp="2022-07-11T04:55:47Z" changeset="123454106" uid="3497659" user="NKA">
		<tag k="name" v="Fjellbakken" />
		<tag k="place" v="farm" />
		<tag k="ssr:stedsnr" v="653417" />
	</node>
	<node id="9880257761" lat="69.3653385" lon="29.6790449" version="1" timestamp="2022-07-11T04:55:47Z" changeset="123454106" uid="3497659" user="NKA">
		<tag k="name" v="Myrvik" />
		<tag k="place" v="farm" />
		<tag k="ssr:stedsnr" v="897402" />
	</node>
	<node id="9880257762" lat="69.3554206" lon="29.6457536" version="1" timestamp="2022-07-11T04:55:47Z" changeset="123454106" uid="3497659" user="NKA">
		<tag k="name" v="Vangen" />
		<tag k="place" v="farm" />
		<tag k="ssr:stedsnr" v="957417" />
	</node>
	<node id="9880257763" lat="69.3584587" lon="29.6536659" version="1" timestamp="2022-07-11T04:55:47Z" changeset="123454106" uid="3497659" user="NKA">
		<tag k="name" v="Lidarheim" />
		<tag k="place" v="farm" />
		<tag k="ssr:stedsnr" v="714361" />
	</node>
	<node id="9880257764" lat="69.3390942" lon="29.5828766" version="1" timestamp="2022-07-11T04:55:47Z" changeset="123454106" uid="3497659" user="NKA">
		<tag k="name" v="Nymo" />
		<tag k="place" v="farm" />
		<tag k="ssr:stedsnr" v="411404" />
	</node>
	<node id="9880257765" lat="69.3560941" lon="29.6554344" version="1" timestamp="2022-07-11T04:55:47Z" changeset="123454106" uid="3497659" user="NKA">
		<tag k="name" v="Solås" />
		<tag k="place" v="isolated_dwelling" />
		<tag k="ssr:stedsnr" v="868866" />
	</node>
	<node id="9880257766" lat="69.4072531" lon="29.6224887" version="1" timestamp="2022-07-11T04:55:47Z" changeset="123454106" uid="3497659" user="NKA">
		<tag k="name" v="Jussikoia" />
		<tag k="place" v="isolated_dwelling" />
		<tag k="ssr:stedsnr" v="564870" />
	</node>
	<node id="9880257767" lat="69.872867" lon="29.3705509" version="1" timestamp="2022-07-11T04:55:47Z" changeset="123454106" uid="3497659" user="NKA">
		<tag k="name" v="Fagerli" />
		<tag k="place" v="farm" />
		<tag k="ssr:stedsnr" v="775136" />
	</node>
	<node id="9880257768" lat="69.3429836" lon="29.5122656" version="1" timestamp="2022-07-11T04:55:47Z" changeset="123454106" uid="3497659" user="NKA">
		<tag k="name" v="Nordheim" />
		<tag k="place" v="locality" />
		<tag k="ssr:stedsnr" v="411364" />
	</node>
	<node id="9880257769" lat="69.7195172" lon="30.8753862" version="1" timestamp="2022-07-11T04:55:47Z" changeset="123454106" uid="3497659" user="NKA">
		<tag k="name" v="Bjørnstad" />
		<tag k="place" v="hamlet" />
		<tag k="ssr:stedsnr" v="382930" />
	</node>
	<node id="9880257770" lat="69.3531777" lon="29.6255425" version="1" timestamp="2022-07-11T04:55:47Z" changeset="123454106" uid="3497659" user="NKA">
		<tag k="name" v="Fagermo" />
		<tag k="place" v="farm" />
		<tag k="ssr:stedsnr" v="18865" />
	</node>
	<node id="9880257771" lat="69.3452574" lon="29.6063333" version="1" timestamp="2022-07-11T04:55:47Z" changeset="123454106" uid="3497659" user="NKA">
		<tag k="name" v="Krokvik" />
		<tag k="place" v="farm" />
		<tag k="ssr:stedsnr" v="868872" />
	</node>
	<node id="9880257772" lat="69.7211071" lon="30.8817291" version="1" timestamp="2022-07-11T04:55:47Z" changeset="123454106" uid="3497659" user="NKA">
		<tag k="name" v="Heggstad" />
		<tag k="place" v="farm" />
		<tag k="ssr:stedsnr" v="321910" />
	</node>
	<node id="9880257773" lat="69.6986947" lon="29.3573762" version="1" timestamp="2022-07-11T04:55:47Z" changeset="123454106" uid="3497659" user="NKA">
		<tag k="name" v="Nedre Lunnamo" />
		<tag k="place" v="farm" />
		<tag k="ssr:stedsnr" v="944462" />
	</node>
	<node id="9880257774" lat="69.6937898" lon="29.3955973" version="1" timestamp="2022-07-11T04:55:47Z" changeset="123454106" uid="3497659" user="NKA">
		<tag k="name" v="Nedremo" />
		<tag k="place" v="hamlet" />
		<tag k="ssr:stedsnr" v="701520" />
	</node>
	<node id="9880257775" lat="69.7019777" lon="29.4080889" version="1" timestamp="2022-07-11T04:55:47Z" changeset="123454106" uid="3497659" user="NKA">
		<tag k="name" v="Gammelheimen" />
		<tag k="place" v="farm" />
		<tag k="ssr:stedsnr" v="216431" />
	</node>
	<node id="9880257776" lat="69.3502115" lon="29.6146637" version="1" timestamp="2022-07-11T04:55:47Z" changeset="123454106" uid="3497659" user="NKA">
		<tag k="alt_name" v="Lauvhaug" />
		<tag k="name" v="Løvhaug" />
		<tag k="place" v="farm" />
		<tag k="ssr:stedsnr" v="564887" />
	</node>
	<node id="9880257777" lat="69.6500975" lon="29.4582913" version="1" timestamp="2022-07-11T04:55:47Z" changeset="123454106" uid="3497659" user="NKA">
		<tag k="name" v="Munkelv - Uvdujohka - Uutuanjoki" />
		<tag k="name:fkv" v="Uutuanjoki" />
		<tag k="name:no" v="Munkelv" />
		<tag k="name:se" v="Uvdujohka" />
		<tag k="place" v="farm" />
		<tag k="ssr:stedsnr" v="950177" />
	</node>
	<node id="9880257778" lat="69.7019431" lon="29.4070548" version="1" timestamp="2022-07-11T04:55:47Z" changeset="123454106" uid="3497659" user="NKA">
		<tag k="name" v="Midtvold" />
		<tag k="place" v="farm" />
		<tag k="ssr:stedsnr" v="397505" />
	</node>
	<node id="9880257779" lat="69.7053161" lon="29.4718767" version="1" timestamp="2022-07-11T04:55:47Z" changeset="123454106" uid="3497659" user="NKA">
		<tag k="name" v="Slettmo" />
		<tag k="place" v="farm" />
		<tag k="ssr:stedsnr" v="653226" />
	</node>
	<node id="9880257780" lat="69.3943935" lon="29.5376833" version="1" timestamp="2022-07-11T04:55:47Z" changeset="123454106" uid="3497659" user="NKA">
		<tag k="name" v="Saimakoia" />
		<tag k="place" v="isolated_dwelling" />
		<tag k="ssr:stedsnr" v="868852" />
	</node>
	<node id="9880257781" lat="69.3360364" lon="29.5643947" version="1" timestamp="2022-07-11T04:55:47Z" changeset="123454106" uid="3497659" user="NKA">
		<tag k="name" v="Bjerkli" />
		<tag k="place" v="farm" />
		<tag k="ssr:stedsnr" v="836387" />
	</node>
	<node id="9880257782" lat="69.6954682" lon="29.3815691" version="1" timestamp="2022-07-11T04:55:47Z" changeset="123454106" uid="3497659" user="NKA">
		<tag k="name" v="Myrheim" />
		<tag k="place" v="farm" />
		<tag k="ssr:stedsnr" v="519477" />
	</node>
	<node id="9880257783" lat="69.6985252" lon="29.3612206" version="1" timestamp="2022-07-11T04:55:47Z" changeset="123454106" uid="3497659" user="NKA">
		<tag k="name" v="Elvebakken" />
		<tag k="place" v="farm" />
		<tag k="ssr:stedsnr" v="884355" />
	</node>
	<node id="9880257784" lat="69.6967045" lon="29.4774064" version="1" timestamp="2022-07-11T04:55:47Z" changeset="123454106" uid="3497659" user="NKA">
		<tag k="name" v="Haredal" />
		<tag k="place" v="farm" />
		<tag k="ssr:stedsnr" v="410221" />
	</node>
	<node id="9880257785" lat="69.686839" lon="29.383678" version="1" timestamp="2022-07-11T04:55:47Z" changeset="123454106" uid="3497659" user="NKA">
		<tag k="alt_name" v="Neiden, in" />
		<tag k="name" v="Indre Neiden" />
		<tag k="place" v="hamlet" />
		<tag k="ssr:stedsnr" v="19004" />
	</node>
	<node id="9880257786" lat="69.7005538" lon="29.4475553" version="1" timestamp="2022-07-11T04:55:47Z" changeset="123454106" uid="3497659" user="NKA">
		<tag k="name" v="Nedre Næs" />
		<tag k="place" v="farm" />
		<tag k="ssr:stedsnr" v="33018" />
	</node>
	<node id="9880257787" lat="69.695817" lon="29.4529081" version="1" timestamp="2022-07-11T04:55:47Z" changeset="123454106" uid="3497659" user="NKA">
		<tag k="name" v="Grundtvik" />
		<tag k="place" v="farm" />
		<tag k="ssr:stedsnr" v="19075" />
	</node>
	<node id="9880257788" lat="69.7620004" lon="29.6170386" version="1" timestamp="2022-07-11T04:55:47Z" changeset="123454106" uid="3497659" user="NKA">
		<tag k="name" v="Storbukt" />
		<tag k="place" v="hamlet" />
		<tag k="ssr:stedsnr" v="929039" />
	</node>
	<node id="9880257789" lat="69.7012002" lon="29.4501248" version="1" timestamp="2022-07-11T04:55:47Z" changeset="123454106" uid="3497659" user="NKA">
		<tag k="name" v="Vidjenæs" />
		<tag k="place" v="farm" />
		<tag k="ssr:stedsnr" v="33022" />
	</node>
	<node id="9880257790" lat="69.6485459" lon="29.4573968" version="1" timestamp="2022-07-11T04:55:47Z" changeset="123454106" uid="3497659" user="NKA">
		<tag k="alt_name" v="Munkebakken" />
		<tag k="name" v="Munkbakken" />
		<tag k="place" v="hamlet" />
		<tag k="ssr:stedsnr" v="625127" />
	</node>
	<node id="9880257791" lat="69.771701" lon="30.8344746" version="1" timestamp="2022-07-11T04:55:47Z" changeset="123454106" uid="3497659" user="NKA">
		<tag k="alt_name" v="Lyngmo" />
		<tag k="name" v="Lyngmoen" />
		<tag k="place" v="farm" />
		<tag k="ssr:stedsnr" v="747408" />
	</node>
	<node id="9880257792" lat="69.7278895" lon="30.8873232" version="1" timestamp="2022-07-11T04:55:47Z" changeset="123454106" uid="3497659" user="NKA">
		<tag k="name" v="Heimdal" />
		<tag k="place" v="isolated_dwelling" />
		<tag k="ssr:stedsnr" v="714129" />
	</node>
	<node id="9880257793" lat="69.7019336" lon="29.430025" version="1" timestamp="2022-07-11T04:55:47Z" changeset="123454106" uid="3497659" user="NKA">
		<tag k="name" v="Kotala" />
		<tag k="name:fkv" v="Kotala" />
		<tag k="place" v="hamlet" />
		<tag k="ssr:stedsnr" v="397009" />
	</node>
	<node id="9880257794" lat="69.7010036" lon="29.3928326" version="1" timestamp="2022-07-11T04:55:47Z" changeset="123454106" uid="3497659" user="NKA">
		<tag k="name" v="Normannseng" />
		<tag k="place" v="farm" />
		<tag k="ssr:stedsnr" v="276537" />
	</node>
	<node id="9880257795" lat="69.7017751" lon="29.4027835" version="1" timestamp="2022-07-11T04:55:47Z" changeset="123454106" uid="3497659" user="NKA">
		<tag k="alt_name" v="Sannæs" />
		<tag k="name" v="Sandnes" />
		<tag k="place" v="farm" />
		<tag k="ssr:stedsnr" v="19001" />
	</node>
	<node id="9880257796" lat="69.6978919" lon="29.3748398" version="1" timestamp="2022-07-11T04:55:47Z" changeset="123454106" uid="3497659" user="NKA">
		<tag k="name" v="Elveli" />
		<tag k="place" v="farm" />
		<tag k="ssr:stedsnr" v="640413" />
	</node>
	<node id="9880257797" lat="69.7331842" lon="30.8743393" version="1" timestamp="2022-07-11T04:55:47Z" changeset="123454106" uid="3497659" user="NKA">
		<tag k="name" v="Bjørnhaugskaret" />
		<tag k="place" v="farm" />
		<tag k="ssr:stedsnr" v="896172" />
	</node>
	<node id="9880257798" lat="69.6857364" lon="29.383426" version="1" timestamp="2022-07-11T04:55:47Z" changeset="123454106" uid="3497659" user="NKA">
		<tag k="name" v="Oppheim" />
		<tag k="place" v="farm" />
		<tag k="ssr:stedsnr" v="337057" />
	</node>
	<node id="9880257799" lat="69.6977641" lon="29.3507541" version="1" timestamp="2022-07-11T04:55:47Z" changeset="123454106" uid="3497659" user="NKA">
		<tag k="name" v="Lunnamo" />
		<tag k="place" v="farm" />
		<tag k="ssr:stedsnr" v="34359" />
	</node>
	<node id="9880257800" lat="69.6954558" lon="29.3730482" version="1" timestamp="2022-07-11T04:55:47Z" changeset="123454106" uid="3497659" user="NKA">
		<tag k="name" v="Bakkejord" />
		<tag k="place" v="farm" />
		<tag k="ssr:stedsnr" v="459358" />
	</node>
	<node id="9880257801" lat="69.6484725" lon="29.4609664" version="1" timestamp="2022-07-11T04:55:47Z" changeset="123454106" uid="3497659" user="NKA">
		<tag k="name" v="Sandheimen" />
		<tag k="place" v="farm" />
		<tag k="ssr:stedsnr" v="155417" />
	</node>
	<node id="9880257802" lat="69.7475926" lon="30.8695479" version="1" timestamp="2022-07-11T04:55:47Z" changeset="123454106" uid="3497659" user="NKA">
		<tag k="name" v="Heggdalsmo" />
		<tag k="place" v="isolated_dwelling" />
		<tag k="ssr:stedsnr" v="290142" />
	</node>
	<node id="9880257803" lat="69.7288566" lon="29.8761941" version="1" timestamp="2022-07-11T04:55:47Z" changeset="123454106" uid="3497659" user="NKA">
		<tag k="loc_name:se" v="Nuovusgohppi" />
		<tag k="name" v="Høybukta" />
		<tag k="name:no" v="Høybukta" />
		<tag k="place" v="hamlet" />
		<tag k="ssr:stedsnr" v="982833" />
	</node>
	<node id="9880257804" lat="69.738974" lon="30.8763588" version="1" timestamp="2022-07-11T04:55:47Z" changeset="123454106" uid="3497659" user="NKA">
		<tag k="name" v="Eggemoen" />
		<tag k="place" v="isolated_dwelling" />
		<tag k="ssr:stedsnr" v="228160" />
	</node>
	<node id="9880257805" lat="69.7569315" lon="30.8593704" version="1" timestamp="2022-07-11T04:55:47Z" changeset="123454106" uid="3497659" user="NKA">
		<tag k="name" v="Sommerro" />
		<tag k="place" v="farm" />
		<tag k="ssr:stedsnr" v="107119" />
	</node>
	<node id="9880257806" lat="69.6622169" lon="29.4874714" version="1" timestamp="2022-07-11T04:55:47Z" changeset="123454106" uid="3497659" user="NKA">
		<tag k="name" v="Geassebáiki" />
		<tag k="name:se" v="Geassebáiki" />
		<tag k="place" v="locality" />
		<tag k="ssr:stedsnr" v="411204" />
	</node>
	<node id="9880257807" lat="69.7443118" lon="29.7623641" version="1" timestamp="2022-07-11T04:55:47Z" changeset="123454106" uid="3497659" user="NKA">
		<tag k="name" v="Luŋkos" />
		<tag k="name:se" v="Luŋkos" />
		<tag k="old_name:se" v="Juŋkos" />
		<tag k="place" v="isolated_dwelling" />
		<tag k="ssr:stedsnr" v="261051" />
	</node>
	<node id="9880257808" lat="69.7868259" lon="30.7990697" version="1" timestamp="2022-07-11T04:55:47Z" changeset="123454106" uid="3497659" user="NKA">
		<tag k="name" v="Lillesand" />
		<tag k="place" v="locality" />
		<tag k="ssr:stedsnr" v="108125" />
	</node>
	<node id="9880257809" lat="69.6705259" lon="29.5496422" version="1" timestamp="2022-07-11T04:55:47Z" changeset="123454106" uid="3497659" user="NKA">
		<tag k="name" v="Ytre Veines" />
		<tag k="place" v="farm" />
		<tag k="ssr:stedsnr" v="653045" />
	</node>
	<node id="9880257810" lat="69.6734857" lon="30.1460833" version="1" timestamp="2022-07-11T04:55:47Z" changeset="123454106" uid="3497659" user="NKA">
		<tag k="name" v="Myrstad" />
		<tag k="place" v="farm" />
		<tag k="ssr:stedsnr" v="929780" />
	</node>
	<node id="9880257811" lat="69.6872142" lon="29.3854119" version="1" timestamp="2022-07-11T04:55:47Z" changeset="123454106" uid="3497659" user="NKA">
		<tag k="name" v="Nedreeng" />
		<tag k="place" v="farm" />
		<tag k="ssr:stedsnr" v="701042" />
	</node>
	<node id="9880257812" lat="69.6886671" lon="29.9944284" version="1" timestamp="2022-07-11T04:55:47Z" changeset="123454106" uid="3497659" user="NKA">
		<tag k="name" v="Bjørkheim" />
		<tag k="place" v="neighbourhood" />
		<tag k="ssr:stedsnr" v="701833" />
	</node>
	<node id="9880257813" lat="69.7433481" lon="30.8623592" version="1" timestamp="2022-07-11T04:55:47Z" changeset="123454106" uid="3497659" user="NKA">
		<tag k="name" v="Liland" />
		<tag k="place" v="locality" />
		<tag k="ssr:stedsnr" v="957122" />
	</node>
	<node id="9880257814" lat="69.809948" lon="30.5779879" version="1" timestamp="2022-07-11T04:55:47Z" changeset="123454106" uid="3497659" user="NKA">
		<tag k="name" v="Pasvik" />
		<tag k="place" v="locality" />
		<tag k="ssr:stedsnr" v="808098" />
	</node>
	<node id="9880257815" lat="69.6694976" lon="29.937474" version="1" timestamp="2022-07-11T04:55:47Z" changeset="123454106" uid="3497659" user="NKA">
		<tag k="name" v="Lærerjordet" />
		<tag k="place" v="neighbourhood" />
		<tag k="ssr:stedsnr" v="337833" />
	</node>
	<node id="9880257816" lat="69.707767" lon="29.6360326" version="1" timestamp="2022-07-11T04:55:47Z" changeset="123454106" uid="3497659" user="NKA">
		<tag k="name" v="Søndre Stonga" />
		<tag k="place" v="farm" />
		<tag k="ssr:stedsnr" v="229079" />
	</node>
	<node id="9880257817" lat="69.7827009" lon="30.8188691" version="1" timestamp="2022-07-11T04:55:47Z" changeset="123454106" uid="3497659" user="NKA">
		<tag k="name" v="Bekkland" />
		<tag k="place" v="farm" />
		<tag k="ssr:stedsnr" v="785123" />
	</node>
	<node id="9880257818" lat="69.7006919" lon="29.392763" version="1" timestamp="2022-07-11T04:55:47Z" changeset="123454106" uid="3497659" user="NKA">
		<tag k="name" v="Enighet" />
		<tag k="place" v="farm" />
		<tag k="ssr:stedsnr" v="337465" />
	</node>
	<node id="9880257819" lat="69.7094588" lon="30.07256" version="1" timestamp="2022-07-11T04:55:47Z" changeset="123454106" uid="3497659" user="NKA">
		<tag k="name" v="Stokvoldjordet" />
		<tag k="place" v="farm" />
		<tag k="ssr:stedsnr" v="388583" />
	</node>
	<node id="9880257820" lat="69.7017199" lon="29.2222366" version="1" timestamp="2022-07-11T04:55:47Z" changeset="123454106" uid="3497659" user="NKA">
		<tag k="alt_name" v="Bjørknes" />
		<tag k="name" v="Nedre Bjørknes" />
		<tag k="place" v="farm" />
		<tag k="ssr:stedsnr" v="807013" />
	</node>
	<node id="9880257821" lat="69.7364255" lon="30.0317746" version="1" timestamp="2022-07-11T04:55:47Z" changeset="123454106" uid="3497659" user="NKA">
		<tag k="alt_name" v="Revnes;Revsnes" />
		<tag k="name" v="Rævnes" />
		<tag k="place" v="farm" />
		<tag k="ssr:stedsnr" v="388544" />
	</node>
	<node id="9880257822" lat="69.7207783" lon="30.0545853" version="1" timestamp="2022-07-11T04:55:47Z" changeset="123454106" uid="3497659" user="NKA">
		<tag k="name" v="Jomfrulia" />
		<tag k="place" v="neighbourhood" />
		<tag k="ssr:stedsnr" v="696731" />
	</node>
	<node id="9880257823" lat="69.8614994" lon="29.3526475" version="1" timestamp="2022-07-11T04:55:47Z" changeset="123454106" uid="3497659" user="NKA">
		<tag k="name" v="Bakkely" />
		<tag k="place" v="farm" />
		<tag k="ssr:stedsnr" v="472166" />
	</node>
	<node id="9880257824" lat="69.70175" lon="29.2202645" version="1" timestamp="2022-07-11T04:55:47Z" changeset="123454106" uid="3497659" user="NKA">
		<tag k="name" v="Øvre Bjørknes" />
		<tag k="place" v="farm" />
		<tag k="ssr:stedsnr" v="228378" />
	</node>
	<node id="9880257825" lat="69.7456726" lon="29.766069" version="1" timestamp="2022-07-11T04:55:47Z" changeset="123454106" uid="3497659" user="NKA">
		<tag k="name" v="Lonkuselv" />
		<tag k="place" v="hamlet" />
		<tag k="ssr:stedsnr" v="694573" />
	</node>
	<node id="9880257826" lat="69.7567269" lon="29.8270387" version="1" timestamp="2022-07-11T04:55:47Z" changeset="123454106" uid="3497659" user="NKA">
		<tag k="name" v="Steinskjærnes" />
		<tag k="place" v="hamlet" />
		<tag k="ssr:stedsnr" v="393082" />
	</node>
	<node id="9880257827" lat="69.6996919" lon="29.2426935" version="1" timestamp="2022-07-11T04:55:47Z" changeset="123454106" uid="3497659" user="NKA">
		<tag k="name" v="Trollstua" />
		<tag k="place" v="farm" />
		<tag k="ssr:stedsnr" v="411323" />
	</node>
	<node id="9880257828" lat="69.7033949" lon="29.9464914" version="1" timestamp="2022-07-11T04:55:47Z" changeset="123454106" uid="3497659" user="NKA">
		<tag k="alt_name" v="Avolajok" />
		<tag k="name" v="Avaljohka" />
		<tag k="place" v="farm" />
		<tag k="ssr:stedsnr" v="207515" />
	</node>
	<node id="9880257829" lat="69.8869308" lon="29.4002506" version="1" timestamp="2022-07-11T04:55:47Z" changeset="123454106" uid="3497659" user="NKA">
		<tag k="name" v="Valen" />
		<tag k="place" v="hamlet" />
		<tag k="ssr:stedsnr" v="80833" />
	</node>
	<node id="9880257830" lat="69.6734861" lon="29.9090605" version="1" timestamp="2022-07-11T04:55:47Z" changeset="123454106" uid="3497659" user="NKA">
		<tag k="name" v="Berg" />
		<tag k="place" v="farm" />
		<tag k="ssr:stedsnr" v="140091" />
	</node>
	<node id="9880257831" lat="69.705067" lon="29.5006294" version="1" timestamp="2022-07-11T04:55:47Z" changeset="123454106" uid="3497659" user="NKA">
		<tag k="name" v="Litlevoll" />
		<tag k="place" v="farm" />
		<tag k="ssr:stedsnr" v="929064" />
	</node>
	<node id="9880257832" lat="69.4765069" lon="29.9807053" version="1" timestamp="2022-07-11T04:55:47Z" changeset="123454106" uid="3497659" user="NKA">
		<tag k="name" v="Torshov" />
		<tag k="place" v="farm" />
		<tag k="ssr:stedsnr" v="471511" />
	</node>
	<node id="9880257833" lat="69.5186309" lon="29.978797" version="1" timestamp="2022-07-11T04:55:47Z" changeset="123454106" uid="3497659" user="NKA">
		<tag k="name" v="Nedre Solbakken" />
		<tag k="place" v="farm" />
		<tag k="ssr:stedsnr" v="957586" />
	</node>
	<node id="9880257834" lat="69.8086032" lon="29.8092349" version="1" timestamp="2022-07-11T04:55:47Z" changeset="123454106" uid="3497659" user="NKA">
		<tag k="name" v="Solli" />
		<tag k="place" v="isolated_dwelling" />
		<tag k="ssr:stedsnr" v="653529" />
	</node>
	<node id="9880257835" lat="69.7221782" lon="30.066735" version="1" timestamp="2022-07-11T04:55:47Z" changeset="123454106" uid="3497659" user="NKA">
		<tag k="name" v="Væggerjordet" />
		<tag k="place" v="neighbourhood" />
		<tag k="ssr:stedsnr" v="817752" />
	</node>
	<node id="9880257836" lat="69.4539804" lon="30.0397615" version="1" timestamp="2022-07-11T04:55:47Z" changeset="123454106" uid="3497659" user="NKA">
		<tag k="name" v="Svanhovd" />
		<tag k="place" v="farm" />
		<tag k="ssr:stedsnr" v="79979" />
	</node>
	<node id="9880257837" lat="69.774695" lon="30.1974458" version="1" timestamp="2022-07-11T04:55:47Z" changeset="123454106" uid="3497659" user="NKA">
		<tag k="name" v="Skoltegammen" />
		<tag k="place" v="locality" />
		<tag k="ssr:stedsnr" v="45451" />
	</node>
	<node id="9880257838" lat="69.5716921" lon="29.9507655" version="1" timestamp="2022-07-11T04:55:47Z" changeset="123454106" uid="3497659" user="NKA">
		<tag k="alt_name" v="Nyelv" />
		<tag k="name" v="Oveplassen" />
		<tag k="place" v="farm" />
		<tag k="ssr:stedsnr" v="322168" />
	</node>
	<node id="9880257839" lat="69.415831" lon="29.9797261" version="1" timestamp="2022-07-11T04:55:47Z" changeset="123454106" uid="3497659" user="NKA">
		<tag k="name" v="Bjørknes" />
		<tag k="place" v="farm" />
		<tag k="ssr:stedsnr" v="929939" />
	</node>
	<node id="9880257840" lat="69.6655597" lon="30.2563099" version="1" timestamp="2022-07-11T04:55:47Z" changeset="123454106" uid="3497659" user="NKA">
		<tag k="name" v="Ulveskaret" />
		<tag k="place" v="farm" />
		<tag k="ssr:stedsnr" v="895471" />
	</node>
	<node id="9880257841" lat="69.508939" lon="30.089072" version="1" timestamp="2022-07-11T04:55:47Z" changeset="123454106" uid="3497659" user="NKA">
		<tag k="name" v="Rødsand" />
		<tag k="place" v="hamlet" />
		<tag k="ssr:stedsnr" v="957273" />
	</node>
	<node id="9880257842" lat="69.7387254" lon="29.7039535" version="1" timestamp="2022-07-11T04:55:47Z" changeset="123454106" uid="3497659" user="NKA">
		<tag k="name" v="Buholmen" />
		<tag k="place" v="farm" />
		<tag k="ssr:stedsnr" v="957115" />
	</node>
	<node id="9880257843" lat="69.7010138" lon="29.4368486" version="1" timestamp="2022-07-11T04:55:47Z" changeset="123454106" uid="3497659" user="NKA">
		<tag k="name" v="Nedre oppkjøringen" />
		<tag k="place" v="farm" />
		<tag k="ssr:stedsnr" v="944019" />
	</node>
	<node id="9880257844" lat="69.4657357" lon="30.0754282" version="1" timestamp="2022-07-11T04:55:47Z" changeset="123454106" uid="3497659" user="NKA">
		<tag k="loc_name:sms" v="Kuõbǯǯčuäʹlmm" />
		<tag k="name" v="Bjørnsund - Guovžačoalbmi - Kontiosunti" />
		<tag k="name:fkv" v="Kontiosunti" />
		<tag k="name:no" v="Bjørnsund" />
		<tag k="name:se" v="Guovžačoalbmi" />
		<tag k="place" v="hamlet" />
		<tag k="ssr:stedsnr" v="928986" />
	</node>
	<node id="9880257845" lat="69.6543304" lon="29.5125648" version="1" timestamp="2022-07-11T04:55:47Z" changeset="123454106" uid="3497659" user="NKA">
		<tag k="name" v="Kjeldenes - Gožjohka" />
		<tag k="name:no" v="Kjeldenes" />
		<tag k="name:se" v="Gožjohka" />
		<tag k="place" v="farm" />
		<tag k="ssr:stedsnr" v="635649" />
	</node>
	<node id="9880257846" lat="69.4233115" lon="29.8475123" version="1" timestamp="2022-07-11T04:55:47Z" changeset="123454106" uid="3497659" user="NKA">
		<tag k="name" v="Stenbakk" />
		<tag k="place" v="isolated_dwelling" />
		<tag k="ssr:stedsnr" v="686922" />
	</node>
	<node id="9880257847" lat="69.4812554" lon="30.1085436" version="1" timestamp="2022-07-11T04:55:47Z" changeset="123454106" uid="3497659" user="NKA">
		<tag k="alt_name" v="Ospeli" />
		<tag k="name" v="Aspeli" />
		<tag k="place" v="farm" />
		<tag k="ssr:stedsnr" v="503960" />
	</node>
	<node id="9880257848" lat="69.4671415" lon="30.0124111" version="1" timestamp="2022-07-11T04:55:47Z" changeset="123454106" uid="3497659" user="NKA">
		<tag k="name" v="Salmovaara" />
		<tag k="name:fkv" v="Salmovaara" />
		<tag k="old_name:fkv" v="Salmovara" />
		<tag k="place" v="isolated_dwelling" />
		<tag k="ssr:stedsnr" v="443979" />
	</node>
	<node id="9880257849" lat="69.54814" lon="30.0827283" version="1" timestamp="2022-07-11T04:55:47Z" changeset="123454106" uid="3497659" user="NKA">
		<tag k="alt_name" v="Nergård" />
		<tag k="name" v="Nedregård" />
		<tag k="place" v="farm" />
		<tag k="ssr:stedsnr" v="443819" />
	</node>
	<node id="7295447926" lat="69.4008097" lon="29.7192863" version="1" timestamp="2020-03-14T22:52:26Z" changeset="82205656" uid="3497659" user="NKA" />
	<node id="7295465438" lat="69.4006791" lon="29.7191204" version="1" timestamp="2020-03-14T22:52:29Z" changeset="82205657" uid="3497659" user="NKA" />
	<node id="7295461615" lat="69.692968" lon="29.370979" version="1" timestamp="2020-03-14T22:52:29Z" changeset="82205657" uid="3497659" user="NKA" />
	<node id="7295499912" lat="69.692508" lon="29.371048" version="1" timestamp="2020-03-14T22:52:41Z" changeset="82205665" uid="3497659" user="NKA" />
	<node id="7295500511" lat="69.693062" lon="29.370966" version="1" timestamp="2020-03-14T22:52:41Z" changeset="82205665" uid="3497659" user="NKA" />
	<node id="7295500149" lat="69.70075" lon="29.928196" version="1" timestamp="2020-03-14T22:52:41Z" changeset="82205665" uid="3497659" user="NKA" />
	<node id="7295500160" lat="69.700325" lon="29.929505" version="1" timestamp="2020-03-14T22:52:41Z" changeset="82205665" uid="3497659" user="NKA" />
	<node id="7295448440" lat="69.687354" lon="30.004178" version="1" timestamp="2020-03-14T22:52:26Z" changeset="82205656" uid="3497659" user="NKA" />
	<node id="7295448441" lat="69.687387" lon="30.004121" version="1" timestamp="2020-03-14T22:52:26Z" changeset="82205656" uid="3497659" user="NKA" />
	<node id="7295448442" lat="69.687423" lon="30.004084" version="1" timestamp="2020-03-14T22:52:26Z" changeset="82205656" uid="3497659" user="NKA" />
	<node id="7295448443" lat="69.687494" lon="30.004086" version="1" timestamp="2020-03-14T22:52:26Z" changeset="82205656" uid="3497659" user="NKA" />
	<node id="7295448444" lat="69.687528" lon="30.004123" version="1" timestamp="2020-03-14T22:52:26Z" changeset="82205656" uid="3497659" user="NKA" />
	<node id="7295448445" lat="69.687553" lon="30.004165" version="1" timestamp="2020-03-14T22:52:26Z" changeset="82205656" uid="3497659" user="NKA" />
	<node id="7295448446" lat="69.687586" lon="30.004254" version="1" timestamp="2020-03-14T22:52:26Z" changeset="82205656" uid="3497659" user="NKA" />
	<node id="7295448447" lat="69.687604" lon="30.004342" version="1" timestamp="2020-03-14T22:52:26Z" changeset="82205656" uid="3497659" user="NKA" />
	<node id="7295448448" lat="69.687617" lon="30.004472" version="1" timestamp="2020-03-14T22:52:26Z" changeset="82205656" uid="3497659" user="NKA" />
	<node id="7295448449" lat="69.687617" lon="30.004614" version="1" timestamp="2020-03-14T22:52:26Z" changeset="82205656" uid="3497659" user="NKA" />
	<node id="7295448450" lat="69.687592" lon="30.004792" version="1" timestamp="2020-03-14T22:52:26Z" changeset="82205656" uid="3497659" user="NKA" />
	<node id="7295448451" lat="69.687566" lon="30.004882" version="1" timestamp="2020-03-14T22:52:26Z" changeset="82205656" uid="3497659" user="NKA" />
	<node id="7295448452" lat="69.687538" lon="30.00494" version="1" timestamp="2020-03-14T22:52:26Z" changeset="82205656" uid="3497659" user="NKA" />
	<node id="7295448453" lat="69.687471" lon="30.005002" version="1" timestamp="2020-03-14T22:52:26Z" changeset="82205656" uid="3497659" user="NKA" />
	<node id="7295448454" lat="69.687444" lon="30.005002" version="1" timestamp="2020-03-14T22:52:26Z" changeset="82205656" uid="3497659" user="NKA" />
	<node id="7295448455" lat="69.68741" lon="30.004984" version="1" timestamp="2020-03-14T22:52:26Z" changeset="82205656" uid="3497659" user="NKA" />
	<node id="7295448456" lat="69.687352" lon="30.004893" version="1" timestamp="2020-03-14T22:52:26Z" changeset="82205656" uid="3497659" user="NKA" />
	<node id="7295448457" lat="69.687308" lon="30.004723" version="1" timestamp="2020-03-14T22:52:26Z" changeset="82205656" uid="3497659" user="NKA" />
	<node id="7295448458" lat="69.687295" lon="30.004527" version="1" timestamp="2020-03-14T22:52:26Z" changeset="82205656" uid="3497659" user="NKA" />
	<node id="7295448459" lat="69.687297" lon="30.004448" version="1" timestamp="2020-03-14T22:52:26Z" changeset="82205656" uid="3497659" user="NKA" />
	<node id="7295448460" lat="69.687314" lon="30.004326" version="1" timestamp="2020-03-14T22:52:26Z" changeset="82205656" uid="3497659" user="NKA" />
	<node id="7295496137" lat="69.687297" lon="30.004612" version="1" timestamp="2020-03-14T22:52:37Z" changeset="82205662" uid="3497659" user="NKA" />
	<node id="7295498123" lat="69.687612" lon="30.004674" version="1" timestamp="2020-03-14T22:52:37Z" changeset="82205662" uid="3497659" user="NKA" />
	<node id="7295498294" lat="69.687505" lon="30.004982" version="1" timestamp="2020-03-14T22:52:37Z" changeset="82205662" uid="3497659" user="NKA" />
	<node id="7295498418" lat="69.687327" lon="30.004811" version="1" timestamp="2020-03-14T22:52:37Z" changeset="82205662" uid="3497659" user="NKA" />
	<node id="7295498419" lat="69.687386" lon="30.004957" version="1" timestamp="2020-03-14T22:52:37Z" changeset="82205662" uid="3497659" user="NKA" />
	<node id="7295498424" lat="69.68746" lon="30.004074" version="1" timestamp="2020-03-14T22:52:37Z" changeset="82205662" uid="3497659" user="NKA" />
	<node id="7295498426" lat="69.687328" lon="30.004261" version="1" timestamp="2020-03-14T22:52:37Z" changeset="82205662" uid="3497659" user="NKA" />
	<node id="7295496962" lat="69.697406" lon="30.0168012" version="1" timestamp="2020-03-14T22:52:37Z" changeset="82205662" uid="3497659" user="NKA" />
	<node id="7295496966" lat="69.6973494" lon="30.0168589" version="1" timestamp="2020-03-14T22:52:37Z" changeset="82205662" uid="3497659" user="NKA" />
	<node id="7295497804" lat="69.6808776" lon="30.112701" version="1" timestamp="2020-03-14T22:52:37Z" changeset="82205662" uid="3497659" user="NKA" />
	<node id="9448191253" lat="69.6810288" lon="30.1117063" version="1" timestamp="2022-01-25T18:21:17Z" changeset="116596754" uid="3497659" user="NKA">
		<tag k="bridge:support" v="pier" />
	</node>
	<node id="7295500372" lat="69.680507" lon="30.115139" version="1" timestamp="2020-03-14T22:52:41Z" changeset="82205665" uid="3497659" user="NKA" />
	<node id="7295497940" lat="69.681599" lon="30.107956" version="1" timestamp="2020-03-14T22:52:37Z" changeset="82205662" uid="3497659" user="NKA" />
	<node id="9448191254" lat="69.6814685" lon="30.1088141" version="1" timestamp="2022-01-25T18:21:17Z" changeset="116596754" uid="3497659" user="NKA">
		<tag k="bridge:support" v="pier" />
	</node>
	<way id="7001062" version="9" timestamp="2022-01-21T07:16:18Z" changeset="116415148" uid="3497659" user="NKA">
		<tag k="bicycle" v="yes" />
		<tag k="bridge" v="yes" />
		<tag k="bridge:description" v="Langfjordstrømmen" />
		<tag k="bridge:structure" v="beam" />
		<tag k="highway" v="trunk" />
		<tag k="layer" v="1" />
		<tag k="loc_name:fkv" v="Virransilta" />
		<tag k="loc_name:se" v="Rivnnjišaldi" />
		<tag k="maxspeed" v="80" />
		<tag k="name" v="Strømmen bru" />
		<tag k="name:no" v="Strømmen bru" />
		<tag k="ref" v="E 6" />
		<tag k="ssr:stedsnr" v="25548" />
		<tag k="surface" v="concrete" />
		<nd ref="7295500149" />
		<nd ref="7295500160" />
	</way>
	<way id="204367097" version="10" timestamp="2022-01-26T06:08:00Z" changeset="116609992" uid="3497659" user="NKA">
		<tag k="bicycle" v="yes" />
		<tag k="highway" v="trunk" />
		<tag k="junction" v="roundabout" />
		<tag k="maxspeed" v="50" />
		<tag k="name" v="Bjørkheimkrysset" />
		<tag k="oneway" v="yes" />
		<tag k="ref" v="E 6" />
		<tag k="ssr:stedsnr" v="701843" />
		<tag k="surface" v="asphalt" />
		<nd ref="7295498426" />
		<nd ref="7295448460" />
		<nd ref="7295448459" />
		<nd ref="7295448458" />
		<nd ref="7295496137" />
		<nd ref="7295448457" />
		<nd ref="7295498418" />
		<nd ref="7295448456" />
		<nd ref="7295498419" />
		<nd ref="7295448455" />
		<nd ref="7295448454" />
		<nd ref="7295448453" />
		<nd ref="7295498294" />
		<nd ref="7295448452" />
		<nd ref="7295448451" />
		<nd ref="7295448450" />
		<nd ref="7295498123" />
		<nd ref="7295448449" />
		<nd ref="7295448448" />
		<nd ref="7295448447" />
		<nd ref="7295448446" />
		<nd ref="7295448445" />
		<nd ref="7295448444" />
		<nd ref="7295448443" />
		<nd ref="7295498424" />
		<nd ref="7295448442" />
		<nd ref="7295448441" />
		<nd ref="7295448440" />
		<nd ref="7295498426" />
	</way>
	<way id="204367865" version="7" timestamp="2022-01-21T07:16:18Z" changeset="116415148" uid="3497659" user="NKA">
		<tag k="bridge" v="yes" />
		<tag k="foot" v="yes" />
		<tag k="highway" v="track" />
		<tag k="layer" v="1" />
		<tag k="name" v="Tangen bru" />
		<tag k="ssr:stedsnr" v="761880" />
		<nd ref="7295496962" />
		<nd ref="7295496966" />
	</way>
	<way id="259471568" version="7" timestamp="2022-01-25T18:21:17Z" changeset="116596754" uid="3497659" user="NKA">
		<tag k="bridge" v="yes" />
		<tag k="bridge:structure" v="arch" />
		<tag k="highway" v="trunk" />
		<tag k="layer" v="1" />
		<tag k="maxspeed" v="80" />
		<tag k="name" v="Bøkfjordbrua - Báhčaveaivuonšaldi - Paatsivuononsilta" />
		<tag k="name:fkv" v="Paatsivuononsilta" />
		<tag k="name:no" v="Bøkfjordbrua" />
		<tag k="name:se" v="Báhčaveaivuonšaldi" />
		<tag k="ref" v="E 105" />
		<tag k="ssr:stedsnr" v="163770" />
		<tag k="surface" v="asphalt" />
		<tag k="wikidata" v="Q31079799" />
		<nd ref="7295497940" />
		<nd ref="9448191254" />
		<nd ref="9448191253" />
		<nd ref="7295497804" />
	</way>
	<way id="288097018" version="5" timestamp="2022-01-21T07:16:18Z" changeset="116415148" uid="3497659" user="NKA">
		<tag k="bicycle" v="yes" />
		<tag k="bridge" v="yes" />
		<tag k="bridge:description" v="Neiden" />
		<tag k="highway" v="trunk" />
		<tag k="layer" v="1" />
		<tag k="maxspeed" v="60" />
		<tag k="name" v="Neiden bru" />
		<tag k="ref" v="E 6" />
		<tag k="ssr:stedsnr" v="640460" />
		<tag k="surface" v="asphalt" />
		<nd ref="7295500511" />
		<nd ref="7295461615" />
		<nd ref="7295499912" />
	</way>
	<way id="334073171" version="5" timestamp="2022-01-21T07:16:18Z" changeset="116415148" uid="3497659" user="NKA">
		<tag k="bridge" v="yes" />
		<tag k="highway" v="secondary" />
		<tag k="layer" v="1" />
		<tag k="maxspeed" v="70" />
		<tag k="name" v="Sametibrua" />
		<tag k="old_ref" v="885" />
		<tag k="ref" v="8850" />
		<tag k="ssr:stedsnr" v="261847" />
		<tag k="surface" v="asphalt" />
		<nd ref="7295447926" />
		<nd ref="7295465438" />
	</way>
	<way id="781417993" version="4" timestamp="2022-01-25T18:21:17Z" changeset="116596754" uid="3497659" user="NKA">
		<tag k="bridge" v="yes" />
		<tag k="bridge:structure" v="beam" />
		<tag k="highway" v="trunk" />
		<tag k="layer" v="1" />
		<tag k="maxspeed" v="60" />
		<tag k="name" v="Bøkfjordbrua - Báhčaveaivuonšaldi - Paatsivuononsilta" />
		<tag k="name:fkv" v="Paatsivuononsilta" />
		<tag k="name:no" v="Bøkfjordbrua" />
		<tag k="name:se" v="Báhčaveaivuonšaldi" />
		<tag k="ref" v="E 105" />
		<tag k="ssr:stedsnr" v="163770" />
		<tag k="surface" v="asphalt" />
		<nd ref="7295497804" />
		<nd ref="7295500372" />
	</way>
</osm>
