<?xml version="1.0" encoding="UTF-8"?>
<osm generator="osmapis" version="0.6">
	<node id="-538624" lat="61.8058555555" lon="4.85543055419">
		<tag k="name" v="Botnaneset" />
		<tag k="natural" v="cape" />
		<tag k="ssr:stedsnr" v="778055" />
	</node>
	<node id="-538623" lat="61.8010361146" lon="4.86860833202">
		<tag k="name" v="Ånnevikholmen" />
		<tag k="place" v="islet" />
		<tag k="ssr:stedsnr" v="778054" />
	</node>
	<node id="-536571" lat="61.8265361155" lon="5.68156111239">
		<tag k="name" v="Svinevikneset" />
		<tag k="natural" v="cape" />
		<tag k="ssr:stedsnr" v="414223" />
	</node>
	<node id="-538615" lat="61.8485555555" lon="5.74567776836">
		<tag k="name" v="Instevika" />
		<tag k="natural" v="bay" />
		<tag k="ssr:stedsnr" v="767423" />
	</node>
	<node id="-538613" lat="61.7968194401" lon="4.87374166567">
		<tag k="name" v="Ramsøgrøa" />
		<tag k="natural" v="bay" />
		<tag k="ssr:stedsnr" v="754731" />
	</node>
	<node id="-538612" lat="61.7786944416" lon="4.90544444315">
		<tag k="name" v="Søre Steinholmen" />
		<tag k="place" v="islet" />
		<tag k="ssr:stedsnr" v="754721" />
	</node>
	<node id="-538608" lat="61.9261222238" lon="4.89699166878">
		<tag k="name" v="Seiabåane" />
		<tag k="natural" v="shoal" />
		<tag k="place" v="locality" />
		<tag k="ssr:stedsnr" v="738972" />
	</node>
	<node id="-536557" lat="61.9051555569" lon="4.92744167373">
		<tag k="name" v="Festeneset" />
		<tag k="natural" v="cape" />
		<tag k="ssr:stedsnr" v="374984" />
	</node>
	<node id="-536549" lat="61.783241668" lon="4.81431667134">
		<tag k="name" v="Langeneset" />
		<tag k="natural" v="cape" />
		<tag k="ssr:stedsnr" v="374846" />
	</node>
	<node id="-537254" lat="61.8695666675" lon="5.30045277942">
		<tag k="name" v="Tjuveholmsundet" />
		<tag k="natural" v="strait" />
		<tag k="ssr:stedsnr" v="171614" />
	</node>
	<node id="-538594" lat="61.8620805528" lon="4.82751110838">
		<tag k="name" v="Hengjaneset" />
		<tag k="natural" v="cape" />
		<tag k="ssr:stedsnr" v="738904" />
	</node>
	<node id="-538592" lat="61.7790333294" lon="4.90177221607">
		<tag k="alt_name" v="Frøyaneset" />
		<tag k="name" v="Frøynes" />
		<tag k="natural" v="cape" />
		<tag k="ssr:stedsnr" v="738861" />
	</node>
	<node id="-538591" lat="61.7900916709" lon="4.94323055634">
		<tag k="name" v="Fløholmane" />
		<tag k="place" v="islet" />
		<tag k="ssr:stedsnr" v="738852" />
	</node>
	<node id="-538590" lat="61.7882611069" lon="5.01634165826">
		<tag k="name" v="Bytteneset" />
		<tag k="natural" v="cape" />
		<tag k="ssr:stedsnr" v="738848" />
	</node>
	<node id="-536541" lat="61.8948555558" lon="5.35526388987">
		<tag k="name" v="Grunneneset" />
		<tag k="natural" v="cape" />
		<tag k="ssr:stedsnr" v="374235" />
	</node>
	<node id="-536539" lat="61.8728194436" lon="5.21860555394">
		<tag k="name" v="Skatestraumen" />
		<tag k="natural" v="strait" />
		<tag k="ssr:stedsnr" v="374225" />
	</node>
	<node id="-536538" lat="61.8805999982" lon="5.18887221633">
		<tag k="name" v="Tangane" />
		<tag k="natural" v="cape" />
		<tag k="ssr:stedsnr" v="374224" />
	</node>
	<node id="-538276" lat="61.760522221" lon="5.18124443699">
		<tag k="name" v="Tretteskjervik" />
		<tag k="natural" v="bay" />
		<tag k="ssr:stedsnr" v="656814" />
	</node>
	<node id="-538580" lat="61.8911194477" lon="5.21929722253">
		<tag k="alt_name" v="Skorpeholmen" />
		<tag k="name" v="Skorpeholmane" />
		<tag k="place" v="islet" />
		<tag k="ssr:stedsnr" v="738218" />
	</node>
	<node id="-538275" lat="61.7620055581" lon="5.24176666024">
		<tag k="name" v="Notastonga" />
		<tag k="natural" v="beach" />
		<tag k="place" v="locality" />
		<tag k="ssr:stedsnr" v="656812" />
	</node>
	<node id="-536523" lat="61.7521555574" lon="4.82224999729">
		<tag k="name" v="Verøya" />
		<tag k="place" v="island" />
		<tag k="ssr:stedsnr" v="373855" />
	</node>
	<node id="-536522" lat="61.7662333317" lon="4.78931388348">
		<tag k="fixme" v="consider seamark:type=rock or natural=shoal" />
		<tag k="name" v="Svarteskjeret" />
		<tag k="place" v="islet" />
		<tag k="ssr:stedsnr" v="373852" />
	</node>
	<node id="-538565" lat="61.7637055566" lon="5.26933056287">
		<tag k="name" v="Breivika" />
		<tag k="natural" v="bay" />
		<tag k="ssr:stedsnr" v="738081" />
	</node>
	<node id="-538560" lat="61.7343083344" lon="4.713258329">
		<tag k="name" v="Frøya-Skorpeflua" />
		<tag k="natural" v="shoal" />
		<tag k="place" v="locality" />
		<tag k="ssr:stedsnr" v="737475" />
	</node>
	<node id="-536508" lat="61.7513300101" lon="5.14040746697">
		<tag k="name" v="Ternøya" />
		<tag k="place" v="islet" />
		<tag k="ssr:stedsnr" v="372807" />
	</node>
	<node id="-538555" lat="61.7336694432" lon="5.14695000815">
		<tag k="name" v="Sleneset" />
		<tag k="natural" v="cape" />
		<tag k="ssr:stedsnr" v="736845" />
	</node>
	<node id="-536506" lat="61.7360333315" lon="4.80934167087">
		<tag k="fixme" v="consider seamark:type=rock or natural=shoal" />
		<tag k="name" v="Sponga" />
		<tag k="place" v="islet" />
		<tag k="ssr:stedsnr" v="372504" />
	</node>
	<node id="-537247" lat="61.8430944475" lon="5.25291110239">
		<tag k="name" v="Rikeneset" />
		<tag k="natural" v="cape" />
		<tag k="ssr:stedsnr" v="171572" />
	</node>
	<node id="-538552" lat="61.7390111084" lon="4.74904444416">
		<tag k="name" v="Raudskjerflua" />
		<tag k="natural" v="shoal" />
		<tag k="place" v="locality" />
		<tag k="ssr:stedsnr" v="736473" />
	</node>
	<node id="-538551" lat="61.7367277751" lon="4.81322777733">
		<tag k="fixme" v="consider seamark:type=rock or natural=shoal" />
		<tag k="name" v="Frøyaskjera" />
		<tag k="place" v="islet" />
		<tag k="ssr:stedsnr" v="736471" />
	</node>
	<node id="-538549" lat="61.7446194458" lon="4.87389165897">
		<tag k="name" v="Storeflua" />
		<tag k="natural" v="shoal" />
		<tag k="place" v="locality" />
		<tag k="ssr:stedsnr" v="736456" />
	</node>
	<node id="-538548" lat="61.7477194461" lon="5.01747499827">
		<tag k="name" v="Gudbrandsneset" />
		<tag k="natural" v="cape" />
		<tag k="ssr:stedsnr" v="736455" />
	</node>
	<node id="-536499" lat="61.7201694456" lon="4.738894451">
		<tag k="name" v="Botna-Skorpeflua" />
		<tag k="natural" v="shoal" />
		<tag k="place" v="locality" />
		<tag k="ssr:stedsnr" v="357920" />
	</node>
	<node id="-536498" lat="61.7797999989" lon="4.67965555458">
		<tag k="name" v="Ersgrunnen" />
		<tag k="natural" v="shoal" />
		<tag k="place" v="locality" />
		<tag k="ssr:stedsnr" v="357885" />
	</node>
	<node id="-536497" lat="61.8002388868" lon="4.91343889443">
		<tag k="fixme" v="consider seamark:type=rock or natural=shoal" />
		<tag k="name" v="Kjerpesettaska" />
		<tag k="place" v="islet" />
		<tag k="ssr:stedsnr" v="357634" />
	</node>
	<node id="-536496" lat="61.8091972235" lon="4.9073249936">
		<tag k="name" v="Bakkeneset" />
		<tag k="natural" v="cape" />
		<tag k="ssr:stedsnr" v="357624" />
	</node>
	<node id="-538543" lat="61.8834888904" lon="4.92729722916">
		<tag k="name" v="Midtvikane" />
		<tag k="natural" v="bay" />
		<tag k="ssr:stedsnr" v="721852" />
	</node>
	<node id="-538542" lat="61.7963611144" lon="4.919975001">
		<tag k="name" v="Standalsvika" />
		<tag k="natural" v="bay" />
		<tag k="ssr:stedsnr" v="721639" />
	</node>
	<node id="-536493" lat="61.7290416687" lon="4.80585832797">
		<tag k="fixme" v="consider seamark:type=rock or natural=shoal" />
		<tag k="name" v="Baren" />
		<tag k="place" v="islet" />
		<tag k="ssr:stedsnr" v="357454" />
	</node>
	<node id="-538540" lat="61.8742944488" lon="5.21501667326">
		<tag k="name" v="Bremagrunnen" />
		<tag k="natural" v="shoal" />
		<tag k="place" v="locality" />
		<tag k="ssr:stedsnr" v="720938" />
	</node>
	<node id="-538539" lat="61.821280552" lon="4.94821388877">
		<tag k="name" v="Spildretaren" />
		<tag k="natural" v="shoal" />
		<tag k="place" v="locality" />
		<tag k="ssr:stedsnr" v="720816" />
	</node>
	<node id="-538538" lat="61.875924999" lon="5.21868056237">
		<tag k="name" v="Hamnaholmen" />
		<tag k="place" v="islet" />
		<tag k="ssr:stedsnr" v="720796" />
	</node>
	<node id="-538537" lat="61.8355138848" lon="4.95320000742">
		<tag k="name" v="Torvangerflua" />
		<tag k="natural" v="shoal" />
		<tag k="place" v="locality" />
		<tag k="ssr:stedsnr" v="720787" />
	</node>
	<node id="-536488" lat="61.7715527779" lon="4.9218444535">
		<tag k="name" v="Sildegarnsneset" />
		<tag k="natural" v="cape" />
		<tag k="ssr:stedsnr" v="356792" />
	</node>
	<node id="-536487" lat="61.7407500043" lon="5.14620000492">
		<tag k="name" v="Skarvenesflua" />
		<tag k="natural" v="shoal" />
		<tag k="place" v="locality" />
		<tag k="ssr:stedsnr" v="356696" />
	</node>
	<node id="-538534" lat="61.7119333318" lon="5.17269721977">
		<tag k="fixme" v="consider seamark:type=rock or natural=shoal" />
		<tag k="name" v="Storsteinen" />
		<tag k="place" v="islet" />
		<tag k="ssr:stedsnr" v="720701" />
	</node>
	<node id="-538533" lat="61.7776416654" lon="5.25204444005">
		<tag k="name" v="Lindelivika" />
		<tag k="natural" v="bay" />
		<tag k="ssr:stedsnr" v="720197" />
	</node>
	<node id="-536484" lat="61.7624750035" lon="4.93188611696">
		<tag k="name" v="Fiskholmsundet" />
		<tag k="natural" v="strait" />
		<tag k="ssr:stedsnr" v="356573" />
	</node>
	<node id="-538531" lat="61.7911055549" lon="5.11949444984">
		<tag k="name" v="Flua" />
		<tag k="natural" v="shoal" />
		<tag k="place" v="locality" />
		<tag k="ssr:stedsnr" v="720124" />
	</node>
	<node id="-536482" lat="61.7926694463" lon="5.02378610298">
		<tag k="name" v="Holmevika" />
		<tag k="natural" v="bay" />
		<tag k="ssr:stedsnr" v="356558" />
	</node>
	<node id="-536481" lat="61.8780277782" lon="5.12165833107">
		<tag k="name" v="Setevika" />
		<tag k="natural" v="bay" />
		<tag k="ssr:stedsnr" v="356333" />
	</node>
	<node id="-536480" lat="61.8769888933" lon="5.12716110807">
		<tag k="name" v="Lågeidneset" />
		<tag k="natural" v="cape" />
		<tag k="ssr:stedsnr" v="356328" />
	</node>
	<node id="-536478" lat="61.7607777773" lon="5.09986110421">
		<tag k="name" v="Flateneset" />
		<tag k="natural" v="cape" />
		<tag k="ssr:stedsnr" v="354831" />
	</node>
	<node id="-538525" lat="61.7751472198" lon="5.27798611105">
		<tag k="name" v="Framstevika" />
		<tag k="natural" v="bay" />
		<tag k="ssr:stedsnr" v="718761" />
	</node>
	<node id="-536473" lat="61.8796722212" lon="5.08967500286">
		<tag k="name" v="Sørholmen" />
		<tag k="place" v="islet" />
		<tag k="ssr:stedsnr" v="354668" />
	</node>
	<node id="-538520" lat="61.7702055519" lon="4.90630277735">
		<tag k="alt_name" v="Bukkholmen" />
		<tag k="name" v="Bukkeholmen" />
		<tag k="place" v="islet" />
		<tag k="ssr:stedsnr" v="718449" />
	</node>
	<node id="-536469" lat="61.817016663" lon="4.90643055663">
		<tag k="name" v="Novene" />
		<tag k="natural" v="cape" />
		<tag k="ssr:stedsnr" v="354029" />
	</node>
	<node id="-536466" lat="61.7651305557" lon="5.27907223042">
		<tag k="name" v="Gardsenden" />
		<tag k="natural" v="beach" />
		<tag k="place" v="locality" />
		<tag k="ssr:stedsnr" v="354024" />
	</node>
	<node id="-538511" lat="61.8178833336" lon="5.64307778254">
		<tag k="name" v="Orevika" />
		<tag k="natural" v="bay" />
		<tag k="ssr:stedsnr" v="718156" />
	</node>
	<node id="-536462" lat="61.8813611139" lon="4.92581111004">
		<tag k="name" v="Sanden" />
		<tag k="natural" v="beach" />
		<tag k="place" v="locality" />
		<tag k="ssr:stedsnr" v="354010" />
	</node>
	<node id="-538509" lat="61.8365583305" lon="4.91777499262">
		<tag k="name" v="Kvernhusvika" />
		<tag k="natural" v="bay" />
		<tag k="ssr:stedsnr" v="718042" />
	</node>
	<node id="-536460" lat="61.8465222202" lon="4.86105833626">
		<tag k="name" v="Lending" />
		<tag k="natural" v="beach" />
		<tag k="place" v="locality" />
		<tag k="ssr:stedsnr" v="354003" />
	</node>
	<node id="-536459" lat="61.704655551" lon="4.97904443963">
		<tag k="name" v="Bugen" />
		<tag k="natural" v="bay" />
		<tag k="ssr:stedsnr" v="353983" />
	</node>
	<node id="-538505" lat="61.8796527793" lon="4.91452221273">
		<tag k="name" v="Molvika" />
		<tag k="natural" v="bay" />
		<tag k="ssr:stedsnr" v="718016" />
	</node>
	<node id="-538504" lat="61.8481361107" lon="4.87314999702">
		<tag k="name" v="Kringla" />
		<tag k="natural" v="cape" />
		<tag k="ssr:stedsnr" v="718003" />
	</node>
	<node id="-536451" lat="61.7286166671" lon="5.21856389685">
		<tag k="name" v="Sagevika" />
		<tag k="natural" v="bay" />
		<tag k="ssr:stedsnr" v="353892" />
	</node>
	<node id="-536446" lat="61.7216611154" lon="5.21237777622">
		<tag k="name" v="Djupevika" />
		<tag k="natural" v="bay" />
		<tag k="ssr:stedsnr" v="353883" />
	</node>
	<node id="-538493" lat="61.7258472259" lon="5.14978333892">
		<tag k="name" v="Skåtevika" />
		<tag k="natural" v="bay" />
		<tag k="ssr:stedsnr" v="717866" />
	</node>
	<node id="-536444" lat="61.7320722263" lon="5.11723055173">
		<tag k="name" v="Kastevikberget" />
		<tag k="natural" v="beach" />
		<tag k="place" v="locality" />
		<tag k="ssr:stedsnr" v="353868" />
	</node>
	<node id="-538490" lat="61.7717888869" lon="5.18357500739">
		<tag k="name" v="Sagevika" />
		<tag k="natural" v="bay" />
		<tag k="ssr:stedsnr" v="717799" />
	</node>
	<node id="-536441" lat="61.8693944478" lon="5.72870832928">
		<tag k="name" v="Gunnaneset" />
		<tag k="natural" v="cape" />
		<tag k="ssr:stedsnr" v="353795" />
	</node>
	<node id="-538488" lat="61.7601972197" lon="5.21132499645">
		<tag k="name" v="Resaneset" />
		<tag k="natural" v="cape" />
		<tag k="ssr:stedsnr" v="717788" />
	</node>
	<node id="-538487" lat="61.7613444487" lon="5.17932777778">
		<tag k="fixme" v="consider seamark:type=rock or natural=shoal" />
		<tag k="name" v="Tretteskjeret" />
		<tag k="place" v="islet" />
		<tag k="ssr:stedsnr" v="717784" />
	</node>
	<node id="-538485" lat="61.7633777803" lon="5.2475833358">
		<tag k="name" v="Båtvika" />
		<tag k="natural" v="bay" />
		<tag k="ssr:stedsnr" v="717777" />
	</node>
	<node id="-536435" lat="61.8455250017" lon="5.7360361069">
		<tag k="name" v="Korsvika" />
		<tag k="natural" v="bay" />
		<tag k="ssr:stedsnr" v="353758" />
	</node>
	<node id="-536434" lat="61.8483111089" lon="5.74480833083">
		<tag k="name" v="Tjuvebåsen" />
		<tag k="natural" v="bay" />
		<tag k="ssr:stedsnr" v="353756" />
	</node>
	<node id="-538478" lat="61.887863886" lon="5.33348888335">
		<tag k="alt_name" v="Kirkenes" />
		<tag k="name" v="Kyrkjeneset" />
		<tag k="natural" v="cape" />
		<tag k="ssr:stedsnr" v="717619" />
	</node>
	<node id="-536425" lat="61.8776333373" lon="5.32023054788">
		<tag k="name" v="Svinevika" />
		<tag k="natural" v="bay" />
		<tag k="ssr:stedsnr" v="353608" />
	</node>
	<node id="-536424" lat="61.8737750028" lon="5.22842500122">
		<tag k="name" v="Kalveholmsundet" />
		<tag k="natural" v="strait" />
		<tag k="ssr:stedsnr" v="353606" />
	</node>
	<node id="-538470" lat="61.787183336" lon="4.79857221775">
		<tag k="name" v="Muleholmen" />
		<tag k="place" v="islet" />
		<tag k="ssr:stedsnr" v="717482" />
	</node>
	<node id="-536421" lat="61.8678916675" lon="5.27346945233">
		<tag k="name" v="Langeholmsundet" />
		<tag k="natural" v="strait" />
		<tag k="ssr:stedsnr" v="353599" />
	</node>
	<node id="-536420" lat="61.8720611146" lon="5.31181388191">
		<tag k="alt_name" v="Skjelholmen" />
		<tag k="name" v="Skjeljeholmen" />
		<tag k="place" v="islet" />
		<tag k="ssr:stedsnr" v="353597" />
	</node>
	<node id="-536418" lat="61.8822166687" lon="5.19735833431">
		<tag k="name" v="Vestre Ørnavika" />
		<tag k="natural" v="bay" />
		<tag k="ssr:stedsnr" v="353595" />
	</node>
	<node id="-538464" lat="61.7993222219" lon="5.04248056301">
		<tag k="name" v="Sletteneset" />
		<tag k="natural" v="cape" />
		<tag k="ssr:stedsnr" v="717434" />
	</node>
	<node id="-538463" lat="61.7947750017" lon="5.03419444992">
		<tag k="name" v="Tjørnneset" />
		<tag k="natural" v="cape" />
		<tag k="ssr:stedsnr" v="717433" />
	</node>
	<node id="-538462" lat="61.8064527817" lon="5.06536667293">
		<tag k="name" v="Fløsholmen" />
		<tag k="place" v="islet" />
		<tag k="ssr:stedsnr" v="717426" />
	</node>
	<node id="-536413" lat="61.8365305537" lon="5.29811111111">
		<tag k="name" v="Lyrevikane" />
		<tag k="natural" v="bay" />
		<tag k="ssr:stedsnr" v="353578" />
	</node>
	<node id="-538460" lat="61.7879583361" lon="5.01461110201">
		<tag k="name" v="Byttevika" />
		<tag k="natural" v="bay" />
		<tag k="ssr:stedsnr" v="717418" />
	</node>
	<node id="-538458" lat="61.7516638926" lon="4.85384999002">
		<tag k="fixme" v="consider seamark:type=rock or natural=shoal" />
		<tag k="name" v="Kyraskjeret" />
		<tag k="place" v="islet" />
		<tag k="ssr:stedsnr" v="717412" />
	</node>
	<node id="-538456" lat="61.7594500032" lon="4.87704721399">
		<tag k="name" v="Lambereva" />
		<tag k="natural" v="cape" />
		<tag k="ssr:stedsnr" v="717410" />
	</node>
	<node id="-536407" lat="61.8330833329" lon="5.21296944706">
		<tag k="name" v="Simåvikneset" />
		<tag k="natural" v="cape" />
		<tag k="ssr:stedsnr" v="353557" />
	</node>
	<node id="-536406" lat="61.7833194445" lon="4.80994999123">
		<tag k="name" v="Langenesholmen" />
		<tag k="place" v="islet" />
		<tag k="ssr:stedsnr" v="353512" />
	</node>
	<node id="-536405" lat="61.7813416681" lon="4.82524999131">
		<tag k="name" v="Rasmusberget" />
		<tag k="natural" v="cape" />
		<tag k="ssr:stedsnr" v="353508" />
	</node>
	<node id="-536404" lat="61.7460833357" lon="4.83580000098">
		<tag k="name" v="Hovdeholmane" />
		<tag k="place" v="islet" />
		<tag k="ssr:stedsnr" v="353497" />
	</node>
	<node id="-538451" lat="61.8749888886" lon="5.15175278233">
		<tag k="name" v="Ytste Lågeidvika" />
		<tag k="natural" v="bay" />
		<tag k="ssr:stedsnr" v="717590" />
	</node>
	<node id="-538450" lat="61.9030944409" lon="5.54274445033">
		<tag k="name" v="Ekornneset" />
		<tag k="natural" v="cape" />
		<tag k="ssr:stedsnr" v="717589" />
	</node>
	<node id="-538449" lat="61.9064444477" lon="5.51563889426">
		<tag k="name" v="Fananeset" />
		<tag k="natural" v="cape" />
		<tag k="ssr:stedsnr" v="717585" />
	</node>
	<node id="-536400" lat="61.7879611153" lon="4.80121388399">
		<tag k="name" v="Ytste Mulevika" />
		<tag k="natural" v="bay" />
		<tag k="ssr:stedsnr" v="353471" />
	</node>
	<node id="-536398" lat="61.7757499992" lon="4.9498277865">
		<tag k="name" v="Marlaukøya" />
		<tag k="place" v="islet" />
		<tag k="ssr:stedsnr" v="353452" />
	</node>
	<node id="-536397" lat="61.7857444441" lon="4.93612500542">
		<tag k="name" v="Teinevika" />
		<tag k="natural" v="bay" />
		<tag k="ssr:stedsnr" v="353443" />
	</node>
	<node id="-538444" lat="61.8453249968" lon="5.29130556403">
		<tag k="name" v="Storevika" />
		<tag k="natural" v="bay" />
		<tag k="ssr:stedsnr" v="717572" />
	</node>
	<node id="-538443" lat="61.8334805581" lon="5.20889444731">
		<tag k="name" v="Simåvika" />
		<tag k="natural" v="bay" />
		<tag k="ssr:stedsnr" v="717551" />
	</node>
	<node id="-536394" lat="61.7502416659" lon="4.84099166008">
		<tag k="name" v="Geitholmane" />
		<tag k="place" v="islet" />
		<tag k="ssr:stedsnr" v="353403" />
	</node>
	<node id="-536393" lat="61.7525750022" lon="4.84107221826">
		<tag k="name" v="Espeholmane" />
		<tag k="place" v="islet" />
		<tag k="ssr:stedsnr" v="353404" />
	</node>
	<node id="-536489" lat="61.8532166659" lon="5.33522222735">
		<tag k="name" v="Lognesstranda" />
		<tag k="natural" v="beach" />
		<tag k="place" v="locality" />
		<tag k="ssr:stedsnr" v="357034" />
	</node>
	<node id="-538429" lat="61.8127555522" lon="5.66160834113">
		<tag k="name" v="Sørevika" />
		<tag k="natural" v="bay" />
		<tag k="ssr:stedsnr" v="717114" />
	</node>
	<node id="-536375" lat="61.8244055578" lon="5.66150000211">
		<tag k="name" v="Mortekråna" />
		<tag k="natural" v="bay" />
		<tag k="ssr:stedsnr" v="353171" />
	</node>
	<node id="-536374" lat="61.8232138913" lon="5.65615554788">
		<tag k="name" v="Timbrevika" />
		<tag k="natural" v="bay" />
		<tag k="ssr:stedsnr" v="353170" />
	</node>
	<node id="-536373" lat="61.8099888885" lon="4.84883888475">
		<tag k="name" v="Sjåberget" />
		<tag k="natural" v="cape" />
		<tag k="ssr:stedsnr" v="414053" />
	</node>
	<node id="-538419" lat="61.7646611074" lon="4.90213332453">
		<tag k="name" v="Kommandørflua" />
		<tag k="natural" v="shoal" />
		<tag k="place" v="locality" />
		<tag k="ssr:stedsnr" v="693578" />
	</node>
	<node id="-538418" lat="61.7625388905" lon="5.24107221955">
		<tag k="name" v="Velsneset" />
		<tag k="natural" v="cape" />
		<tag k="ssr:stedsnr" v="688240" />
	</node>
	<node id="-536369" lat="61.8121083331" lon="5.65060555987">
		<tag k="name" v="Svarthammaren" />
		<tag k="natural" v="cape" />
		<tag k="ssr:stedsnr" v="353147" />
	</node>
	<node id="-538415" lat="61.8844027815" lon="5.70692500489">
		<tag k="name" v="Iseneset" />
		<tag k="natural" v="cape" />
		<tag k="ssr:stedsnr" v="687507" />
	</node>
	<node id="-536366" lat="61.8114527785" lon="4.84477777159">
		<tag k="name" v="Nesjesundet" />
		<tag k="natural" v="strait" />
		<tag k="ssr:stedsnr" v="353048" />
	</node>
	<node id="-538411" lat="61.8978944453" lon="4.989880547">
		<tag k="name" v="Fåkeila" />
		<tag k="natural" v="bay" />
		<tag k="ssr:stedsnr" v="678953" />
	</node>
	<node id="-536199" lat="61.7949472248" lon="4.91929443779">
		<tag k="name" v="Kjerpesetholmen" />
		<tag k="place" v="islet" />
		<tag k="ssr:stedsnr" v="293057" />
	</node>
	<node id="-538407" lat="61.8243861126" lon="4.94776388557">
		<tag k="name" v="Løvikneset" />
		<tag k="natural" v="cape" />
		<tag k="ssr:stedsnr" v="677944" />
	</node>
	<node id="-538405" lat="61.8357833374" lon="4.89871666448">
		<tag k="name" v="Kyrkjeholmane" />
		<tag k="place" v="islet" />
		<tag k="ssr:stedsnr" v="677920" />
	</node>
	<node id="-536356" lat="61.8953777744" lon="4.85334167393">
		<tag k="fixme" v="consider seamark:type=rock or natural=shoal" />
		<tag k="name" v="Kollaren" />
		<tag k="place" v="islet" />
		<tag k="ssr:stedsnr" v="313976" />
	</node>
	<node id="-538402" lat="61.8628750038" lon="4.8320861098">
		<tag k="name" v="Brosmevika" />
		<tag k="natural" v="bay" />
		<tag k="ssr:stedsnr" v="677898" />
	</node>
	<node id="-536353" lat="61.7633722208" lon="4.93163333934">
		<tag k="name" v="Fuglen" />
		<tag k="place" v="islet" />
		<tag k="ssr:stedsnr" v="313881" />
	</node>
	<node id="-536352" lat="61.7633500035" lon="4.80446389283">
		<tag k="fixme" v="consider seamark:type=rock or natural=shoal" />
		<tag k="name" v="Heimkomeskjeret" />
		<tag k="place" v="islet" />
		<tag k="ssr:stedsnr" v="313876" />
	</node>
	<node id="-536351" lat="61.7584694422" lon="4.76094721504">
		<tag k="name" v="Løynefallet" />
		<tag k="natural" v="shoal" />
		<tag k="place" v="locality" />
		<tag k="ssr:stedsnr" v="313874" />
	</node>
	<node id="-536350" lat="61.7647452394" lon="4.88020384118">
		<tag k="name" v="Kalvøya" />
		<tag k="place" v="islet" />
		<tag k="ssr:stedsnr" v="313869" />
	</node>
	<node id="-536348" lat="61.7810095912" lon="4.90957893791">
		<tag k="name" v="Vardøya" />
		<tag k="place" v="islet" />
		<tag k="ssr:stedsnr" v="313861" />
	</node>
	<node id="-536347" lat="61.8464250026" lon="5.74266665776">
		<tag k="name" v="Kalvneset" />
		<tag k="natural" v="cape" />
		<tag k="ssr:stedsnr" v="313858" />
	</node>
	<node id="-536343" lat="61.8958777769" lon="5.62334721361">
		<tag k="name" v="Høgeneset" />
		<tag k="natural" v="cape" />
		<tag k="ssr:stedsnr" v="313422" />
	</node>
	<node id="-536339" lat="61.8500370588" lon="5.77106310149">
		<tag k="name" v="Holmane" />
		<tag k="place" v="islet" />
		<tag k="ssr:stedsnr" v="313370" />
	</node>
	<node id="-538383" lat="61.8890722253" lon="5.26504999554">
		<tag k="name" v="Hella" />
		<tag k="natural" v="cape" />
		<tag k="ssr:stedsnr" v="677184" />
	</node>
	<node id="-538381" lat="61.8714272238" lon="5.21011405229">
		<tag k="name" v="Klubben" />
		<tag k="natural" v="cape" />
		<tag k="ssr:stedsnr" v="677163" />
	</node>
	<node id="-536322" lat="61.8111027782" lon="5.2115027748">
		<tag k="name" v="Hennøysundet" />
		<tag k="natural" v="strait" />
		<tag k="ssr:stedsnr" v="313137" />
	</node>
	<node id="-536321" lat="61.8147750022" lon="5.09655278429">
		<tag k="alt_name" v="Gottraneset" />
		<tag k="name" v="Gotraneset" />
		<tag k="natural" v="cape" />
		<tag k="ssr:stedsnr" v="313132" />
	</node>
	<node id="-536320" lat="61.8116388877" lon="5.18253889582">
		<tag k="name" v="Inste Bårdvikneset" />
		<tag k="natural" v="cape" />
		<tag k="ssr:stedsnr" v="313133" />
	</node>
	<node id="-538360" lat="61.731855146" lon="4.82267753626">
		<tag k="name" v="Gåsøya" />
		<tag k="place" v="islet" />
		<tag k="ssr:stedsnr" v="675480" />
	</node>
	<node id="-538359" lat="61.7336027746" lon="4.81569999257">
		<tag k="fixme" v="consider seamark:type=rock or natural=shoal" />
		<tag k="name" v="Joskjera" />
		<tag k="place" v="islet" />
		<tag k="ssr:stedsnr" v="675475" />
	</node>
	<node id="-538358" lat="61.7472472259" lon="4.78477500005">
		<tag k="name" v="Steinen" />
		<tag k="natural" v="shoal" />
		<tag k="place" v="locality" />
		<tag k="ssr:stedsnr" v="660972" />
	</node>
	<node id="-538357" lat="61.8334499991" lon="4.98824999706">
		<tag k="name" v="Fosseflua" />
		<tag k="natural" v="shoal" />
		<tag k="place" v="locality" />
		<tag k="ssr:stedsnr" v="660958" />
	</node>
	<node id="-538356" lat="61.8986972244" lon="4.8781083421">
		<tag k="name" v="Veststeinsundet" />
		<tag k="natural" v="strait" />
		<tag k="ssr:stedsnr" v="660834" />
	</node>
	<node id="-538355" lat="61.7972805514" lon="4.92002222742">
		<tag k="name" v="Standalsneset" />
		<tag k="natural" v="cape" />
		<tag k="ssr:stedsnr" v="660661" />
	</node>
	<node id="-538354" lat="61.8138444478" lon="5.08627777419">
		<tag k="name" v="Skarsteinsvika" />
		<tag k="natural" v="bay" />
		<tag k="ssr:stedsnr" v="660452" />
	</node>
	<node id="-536305" lat="61.7363444468" lon="5.13566111081">
		<tag k="name" v="Ramsvika" />
		<tag k="natural" v="bay" />
		<tag k="ssr:stedsnr" v="311864" />
	</node>
	<node id="-538352" lat="61.8980666655" lon="5.36488333669">
		<tag k="name" v="Geitebruvika" />
		<tag k="natural" v="bay" />
		<tag k="ssr:stedsnr" v="660022" />
	</node>
	<node id="-536303" lat="61.7353277753" lon="4.76593054642">
		<tag k="name" v="Raudskjerskukken" />
		<tag k="natural" v="shoal" />
		<tag k="place" v="locality" />
		<tag k="ssr:stedsnr" v="311521" />
	</node>
	<node id="-536302" lat="61.7416777777" lon="4.76885277709">
		<tag k="name" v="Tobåane" />
		<tag k="natural" v="shoal" />
		<tag k="place" v="locality" />
		<tag k="ssr:stedsnr" v="311519" />
	</node>
	<node id="-538349" lat="61.7496611143" lon="5.09297778388">
		<tag k="name" v="Allmenningsvika" />
		<tag k="natural" v="bay" />
		<tag k="ssr:stedsnr" v="659814" />
	</node>
	<node id="-538348" lat="61.7702739035" lon="4.94519267048">
		<tag k="name" v="Rotaflu" />
		<tag k="natural" v="strait" />
		<tag k="ssr:stedsnr" v="659815" />
	</node>
	<node id="-538347" lat="61.8171194419" lon="4.94030556462">
		<tag k="name" v="Bakjaskallen" />
		<tag k="natural" v="shoal" />
		<tag k="place" v="locality" />
		<tag k="ssr:stedsnr" v="659798" />
	</node>
	<node id="-538346" lat="61.725058331" lon="5.10401666688">
		<tag k="name" v="Elvaneset" />
		<tag k="natural" v="cape" />
		<tag k="ssr:stedsnr" v="659788" />
	</node>
	<node id="-538344" lat="61.7665027819" lon="4.91082499648">
		<tag k="fixme" v="consider seamark:type=rock or natural=shoal" />
		<tag k="name" v="Guleskjeret" />
		<tag k="place" v="islet" />
		<tag k="ssr:stedsnr" v="659600" />
	</node>
	<node id="-538343" lat="61.8030583292" lon="5.05326944113">
		<tag k="name" v="Verpe" />
		<tag k="natural" v="cape" />
		<tag k="ssr:stedsnr" v="659537" />
	</node>
	<node id="-538341" lat="61.7766000023" lon="5.24353611316">
		<tag k="name" v="Brynenesvika" />
		<tag k="natural" v="bay" />
		<tag k="ssr:stedsnr" v="659190" />
	</node>
	<node id="-536289" lat="61.8691361096" lon="5.24915277803">
		<tag k="name" v="Midtflua" />
		<tag k="natural" v="shoal" />
		<tag k="place" v="locality" />
		<tag k="ssr:stedsnr" v="296918" />
	</node>
	<node id="-536288" lat="61.841877777" lon="4.84578611005">
		<tag k="name" v="Vestre Løynefallet" />
		<tag k="natural" v="shoal" />
		<tag k="place" v="locality" />
		<tag k="ssr:stedsnr" v="296911" />
	</node>
	<node id="-536287" lat="61.801374999" lon="4.78876389736">
		<tag k="name" v="Bataldskukkane" />
		<tag k="natural" v="shoal" />
		<tag k="place" v="locality" />
		<tag k="ssr:stedsnr" v="296893" />
	</node>
	<node id="-536286" lat="61.8730083319" lon="5.24186389204">
		<tag k="name" v="Nygårdsneset" />
		<tag k="natural" v="cape" />
		<tag k="ssr:stedsnr" v="296873" />
	</node>
	<node id="-536285" lat="61.7747416674" lon="4.90073332989">
		<tag k="fixme" v="consider seamark:type=rock or natural=shoal" />
		<tag k="name" v="Vollaskjeret" />
		<tag k="place" v="islet" />
		<tag k="ssr:stedsnr" v="296727" />
	</node>
	<node id="-536284" lat="61.7975805562" lon="4.90269999841">
		<tag k="name" v="Sjåtaren" />
		<tag k="natural" v="shoal" />
		<tag k="place" v="locality" />
		<tag k="ssr:stedsnr" v="296645" />
	</node>
	<node id="-536283" lat="61.8349722257" lon="5.28568888963">
		<tag k="name" v="Marøyflua" />
		<tag k="natural" v="shoal" />
		<tag k="place" v="locality" />
		<tag k="ssr:stedsnr" v="296025" />
	</node>
	<node id="-536282" lat="61.8828638898" lon="5.20049444736">
		<tag k="name" v="Klubbeneset" />
		<tag k="natural" v="cape" />
		<tag k="ssr:stedsnr" v="295824" />
	</node>
	<node id="-536281" lat="61.8288666641" lon="4.96194721754">
		<tag k="fixme" v="consider seamark:type=rock or natural=shoal" />
		<tag k="name" v="Løvikskjeret" />
		<tag k="place" v="islet" />
		<tag k="ssr:stedsnr" v="295803" />
	</node>
	<node id="-536280" lat="61.8351583341" lon="4.99192499868">
		<tag k="name" v="Førdspollen" />
		<tag k="natural" v="bay" />
		<tag k="ssr:stedsnr" v="295800" />
	</node>
	<node id="-536278" lat="61.7444444449" lon="5.14808889484">
		<tag k="name" v="Kvieneset" />
		<tag k="natural" v="cape" />
		<tag k="ssr:stedsnr" v="295688" />
	</node>
	<node id="-536277" lat="61.8400888898" lon="5.25571110272">
		<tag k="name" v="Hælkrona" />
		<tag k="natural" v="bay" />
		<tag k="ssr:stedsnr" v="295207" />
	</node>
	<node id="-538324" lat="61.8733972219" lon="5.72288610565">
		<tag k="name" v="Skoganeset" />
		<tag k="natural" v="cape" />
		<tag k="ssr:stedsnr" v="657782" />
	</node>
	<node id="-536275" lat="61.7654432261" lon="5.14385509679">
		<tag k="name" v="Hessvikneset" />
		<tag k="natural" v="cape" />
		<tag k="ssr:stedsnr" v="295155" />
	</node>
	<node id="-536274" lat="61.7797138929" lon="5.10290276949">
		<tag k="name" v="Slåtteneset" />
		<tag k="natural" v="cape" />
		<tag k="ssr:stedsnr" v="295117" />
	</node>
	<node id="-538321" lat="61.8806083303" lon="5.71556665838">
		<tag k="name" v="Stiganeset" />
		<tag k="natural" v="cape" />
		<tag k="ssr:stedsnr" v="657762" />
	</node>
	<node id="-538317" lat="61.8400972232" lon="5.74062499525">
		<tag k="name" v="Orevika" />
		<tag k="natural" v="bay" />
		<tag k="ssr:stedsnr" v="657732" />
	</node>
	<node id="-538316" lat="61.8505777803" lon="5.77347222831">
		<tag k="name" v="Litleholmen" />
		<tag k="place" v="islet" />
		<tag k="ssr:stedsnr" v="657726" />
	</node>
	<node id="-536256" lat="61.72375833" lon="5.15837778693">
		<tag k="name" v="Geileneset" />
		<tag k="natural" v="cape" />
		<tag k="ssr:stedsnr" v="293910" />
	</node>
	<node id="-536255" lat="61.714338891" lon="5.10665000106">
		<tag k="name" v="Vageneset" />
		<tag k="natural" v="cape" />
		<tag k="ssr:stedsnr" v="293908" />
	</node>
	<node id="-536254" lat="61.7344388866" lon="5.1463166706">
		<tag k="name" v="Sleneset" />
		<tag k="natural" v="cape" />
		<tag k="ssr:stedsnr" v="293892" />
	</node>
	<node id="-536181" lat="61.8198861111" lon="4.91040278197">
		<tag k="alt_name" v="Novene" />
		<tag k="fixme" v="consider seamark:type=rock or natural=shoal" />
		<tag k="name" v="Noveskjera" />
		<tag k="place" v="islet" />
		<tag k="ssr:stedsnr" v="293038" />
	</node>
	<node id="-536252" lat="61.7413944406" lon="5.12368332873">
		<tag k="name" v="Austrevik" />
		<tag k="natural" v="bay" />
		<tag k="ssr:stedsnr" v="293890" />
	</node>
	<node id="-536251" lat="61.7344638871" lon="5.14196389161">
		<tag k="alt_name" v="Slenesvik" />
		<tag k="name" v="Slenesvika" />
		<tag k="natural" v="bay" />
		<tag k="ssr:stedsnr" v="293887" />
	</node>
	<node id="-538298" lat="61.8402138848" lon="5.68386666593">
		<tag k="name" v="Oreneset" />
		<tag k="natural" v="cape" />
		<tag k="ssr:stedsnr" v="657241" />
	</node>
	<node id="-536248" lat="61.8885861093" lon="5.66410000335">
		<tag k="name" v="Fureneset" />
		<tag k="natural" v="cape" />
		<tag k="ssr:stedsnr" v="293838" />
	</node>
	<node id="-536247" lat="61.7642333316" lon="5.12206388427">
		<tag k="alt_name" v="Nesvika" />
		<tag k="name" v="Nesbøvika" />
		<tag k="natural" v="bay" />
		<tag k="ssr:stedsnr" v="293830" />
	</node>
	<node id="-536246" lat="61.7584722205" lon="5.13290000339">
		<tag k="name" v="Grasvika" />
		<tag k="natural" v="bay" />
		<tag k="ssr:stedsnr" v="293828" />
	</node>
	<node id="-536245" lat="61.8838666629" lon="5.71019166469">
		<tag k="name" v="Uravika" />
		<tag k="natural" v="bay" />
		<tag k="ssr:stedsnr" v="293807" />
	</node>
	<node id="-538292" lat="61.8196805512" lon="4.91701388502">
		<tag k="name" v="Storegjølsvika" />
		<tag k="natural" v="bay" />
		<tag k="ssr:stedsnr" v="657031" />
	</node>
	<node id="-536825" lat="61.8246388875" lon="5.66550278428">
		<tag k="name" v="Rekevika" />
		<tag k="natural" v="bay" />
		<tag k="ssr:stedsnr" v="50142" />
	</node>
	<node id="-538286" lat="61.7252305557" lon="4.99251666407">
		<tag k="name" v="Hjellneset" />
		<tag k="natural" v="cape" />
		<tag k="ssr:stedsnr" v="656967" />
	</node>
	<node id="-536236" lat="61.8433361128" lon="5.16242499685">
		<tag k="name" v="Hestevika" />
		<tag k="natural" v="bay" />
		<tag k="ssr:stedsnr" v="293635" />
	</node>
	<node id="-536235" lat="61.8491861112" lon="5.16519721912">
		<tag k="name" v="Kvernevika" />
		<tag k="natural" v="bay" />
		<tag k="ssr:stedsnr" v="293624" />
	</node>
	<node id="-536233" lat="61.8454083326" lon="5.15134999737">
		<tag k="name" v="Nørvika" />
		<tag k="natural" v="bay" />
		<tag k="ssr:stedsnr" v="293620" />
	</node>
	<node id="-538280" lat="61.735716666" lon="5.11723334103">
		<tag k="name" v="Kallavika" />
		<tag k="natural" v="bay" />
		<tag k="ssr:stedsnr" v="656882" />
	</node>
	<node id="-538325" lat="61.7507861086" lon="5.14144167027">
		<tag k="name" v="Skottehamnen" />
		<tag k="natural" v="bay" />
		<tag k="ssr:stedsnr" v="657795" />
	</node>
	<node id="-536694" lat="61.871077779" lon="5.72553055409">
		<tag k="name" v="Gråten" />
		<tag k="natural" v="beach" />
		<tag k="place" v="locality" />
		<tag k="ssr:stedsnr" v="475803" />
	</node>
	<node id="-538277" lat="61.7580194448" lon="5.1972777845">
		<tag k="name" v="Liavika" />
		<tag k="natural" v="bay" />
		<tag k="ssr:stedsnr" v="656816" />
	</node>
	<node id="-536228" lat="61.8673666684" lon="5.27606666114">
		<tag k="name" v="Litleholmen" />
		<tag k="place" v="islet" />
		<tag k="ssr:stedsnr" v="293591" />
	</node>
	<node id="-536227" lat="61.8743416686" lon="5.1612000014">
		<tag k="name" v="Inste Lågeidvika" />
		<tag k="natural" v="bay" />
		<tag k="ssr:stedsnr" v="293588" />
	</node>
	<node id="-536226" lat="61.9057388902" lon="5.52253888946">
		<tag k="name" v="Grasneset" />
		<tag k="natural" v="cape" />
		<tag k="ssr:stedsnr" v="293582" />
	</node>
	<node id="-536859" lat="61.8893805516" lon="5.54700000632">
		<tag k="name" v="Sandvika" />
		<tag k="natural" v="bay" />
		<tag k="ssr:stedsnr" v="50535" />
	</node>
	<node id="-536224" lat="61.8842555542" lon="5.21076389073">
		<tag k="name" v="Strandaneset" />
		<tag k="natural" v="cape" />
		<tag k="ssr:stedsnr" v="293576" />
	</node>
	<node id="-536222" lat="61.7840388861" lon="4.81301110931">
		<tag k="name" v="Ytste Langenesvika" />
		<tag k="natural" v="bay" />
		<tag k="ssr:stedsnr" v="293524" />
	</node>
	<node id="-536221" lat="61.7507305578" lon="4.81757221329">
		<tag k="name" v="Likvika" />
		<tag k="natural" v="bay" />
		<tag k="ssr:stedsnr" v="293509" />
	</node>
	<node id="-538267" lat="61.8810444485" lon="5.3183638877">
		<tag k="name" v="Klubbeneset" />
		<tag k="natural" v="cape" />
		<tag k="ssr:stedsnr" v="656618" />
	</node>
	<node id="-538265" lat="61.8884861139" lon="5.26088888465">
		<tag k="name" v="Stokkevik" />
		<tag k="natural" v="bay" />
		<tag k="ssr:stedsnr" v="656600" />
	</node>
	<node id="-538262" lat="61.8442027731" lon="5.27688332611">
		<tag k="name" v="Grønevika" />
		<tag k="natural" v="bay" />
		<tag k="ssr:stedsnr" v="656586" />
	</node>
	<node id="-538259" lat="61.8336695324" lon="5.24688625515">
		<tag k="name" v="Hælen" />
		<tag k="natural" v="cape" />
		<tag k="ssr:stedsnr" v="656551" />
	</node>
	<node id="-538257" lat="61.7712166682" lon="4.83508889146">
		<tag k="fixme" v="consider seamark:type=rock or natural=shoal" />
		<tag k="name" v="Minnet" />
		<tag k="place" v="islet" />
		<tag k="ssr:stedsnr" v="656520" />
	</node>
	<node id="-538256" lat="61.7458694428" lon="4.82287777311">
		<tag k="name" v="Lyreholmane" />
		<tag k="place" v="islet" />
		<tag k="ssr:stedsnr" v="656499" />
	</node>
	<node id="-538255" lat="61.7490249989" lon="4.83151666272">
		<tag k="name" v="Havmannen" />
		<tag k="place" v="islet" />
		<tag k="ssr:stedsnr" v="656496" />
	</node>
	<node id="-538254" lat="61.7480333295" lon="4.82996667256">
		<tag k="name" v="Tueholmane" />
		<tag k="place" v="islet" />
		<tag k="ssr:stedsnr" v="656494" />
	</node>
	<node id="-536205" lat="61.8355694419" lon="4.9938055632">
		<tag k="alt_name" v="Førsholmen" />
		<tag k="fixme" v="consider seamark:type=rock or natural=shoal" />
		<tag k="name" v="Førdsholmen" />
		<tag k="place" v="islet" />
		<tag k="ssr:stedsnr" v="293312" />
	</node>
	<node id="-538252" lat="61.7575999962" lon="4.81011943565">
		<tag k="name" v="Storeneset" />
		<tag k="natural" v="cape" />
		<tag k="ssr:stedsnr" v="656489" />
	</node>
	<node id="-538251" lat="61.7868222217" lon="4.80618888672">
		<tag k="name" v="Inste Mulevika" />
		<tag k="natural" v="bay" />
		<tag k="ssr:stedsnr" v="656469" />
	</node>
	<node id="-536200" lat="61.8056777821" lon="4.83106667458">
		<tag k="name" v="Kalvegjerdsneset" />
		<tag k="natural" v="cape" />
		<tag k="ssr:stedsnr" v="293066" />
	</node>
	<node id="-538247" lat="61.7545499977" lon="4.86784166038">
		<tag k="name" v="Indrevågen" />
		<tag k="natural" v="bay" />
		<tag k="ssr:stedsnr" v="656393" />
	</node>
	<node id="-536188" lat="61.768330559" lon="5.09544165711">
		<tag k="alt_name" v="Trælvik" />
		<tag k="name" v="Trælvika" />
		<tag k="natural" v="bay" />
		<tag k="ssr:stedsnr" v="292817" />
	</node>
	<node id="-536187" lat="61.7713388868" lon="5.20039167513">
		<tag k="alt_name" v="Romsvika" />
		<tag k="name" v="Ramsvika" />
		<tag k="natural" v="bay" />
		<tag k="ssr:stedsnr" v="292802" />
	</node>
	<node id="-536185" lat="61.7630416696" lon="5.23775555769">
		<tag k="name" v="Kastet" />
		<tag k="natural" v="bay" />
		<tag k="ssr:stedsnr" v="292791" />
	</node>
	<node id="-536183" lat="61.8209472199" lon="4.92484165853">
		<tag k="name" v="Grotnesvika" />
		<tag k="natural" v="bay" />
		<tag k="ssr:stedsnr" v="293039" />
	</node>
	<node id="-538230" lat="61.7881277791" lon="4.8893138839">
		<tag k="name" v="Stranda" />
		<tag k="natural" v="beach" />
		<tag k="place" v="locality" />
		<tag k="ssr:stedsnr" v="656040" />
	</node>
	<node id="-538229" lat="61.8030222217" lon="4.86703334117">
		<tag k="name" v="Buvika" />
		<tag k="natural" v="bay" />
		<tag k="ssr:stedsnr" v="656026" />
	</node>
	<node id="-536178" lat="61.8802222208" lon="4.90552777142">
		<tag k="name" v="Uraneset" />
		<tag k="natural" v="cape" />
		<tag k="ssr:stedsnr" v="293015" />
	</node>
	<node id="-536176" lat="61.8503027789" lon="4.81950555641">
		<tag k="fixme" v="consider seamark:type=rock or natural=shoal" />
		<tag k="name" v="Leiaskjer" />
		<tag k="place" v="islet" />
		<tag k="ssr:stedsnr" v="293006" />
	</node>
	<node id="-536175" lat="61.9137361148" lon="5.41024167246">
		<tag k="name" v="Busta" />
		<tag k="natural" v="beach" />
		<tag k="place" v="locality" />
		<tag k="ssr:stedsnr" v="292598" />
	</node>
	<node id="-538222" lat="61.9062499984" lon="4.86351666355">
		<tag k="fixme" v="consider seamark:type=rock or natural=shoal" />
		<tag k="name" v="Nørdreskjera" />
		<tag k="place" v="islet" />
		<tag k="ssr:stedsnr" v="617978" />
	</node>
	<node id="-538221" lat="61.8972638924" lon="4.91233332403">
		<tag k="name" v="Lavik" />
		<tag k="natural" v="bay" />
		<tag k="ssr:stedsnr" v="617969" />
	</node>
	<node id="-538220" lat="61.7896694452" lon="4.89488611456">
		<tag k="name" v="Nordre Olderøya" />
		<tag k="place" v="islet" />
		<tag k="ssr:stedsnr" v="617844" />
	</node>
	<node id="-538219" lat="61.8023722187" lon="5.05726944505">
		<tag k="name" v="Skipperdalsneset" />
		<tag k="natural" v="cape" />
		<tag k="ssr:stedsnr" v="617834" />
	</node>
	<node id="-536170" lat="61.8519277819" lon="5.27026665885">
		<tag k="bay" v="fjord" />
		<tag k="fixme" v="multiple name tags, choose one and add the other to alt_name" />
		<tag k="name" v="Hornelsfjorden;Marøyfjorden" />
		<tag k="natural" v="bay" />
		<tag k="ssr:stedsnr" v="292545" />
	</node>
	<node id="-536167" lat="61.8369944424" lon="5.25755278248">
		<tag k="loc_name" v="Hælkråna" />
		<tag k="name" v="Hælkråa" />
		<tag k="natural" v="bay" />
		<tag k="ssr:stedsnr" v="292521" />
	</node>
	<node id="-538213" lat="61.8929250036" lon="5.00289721744">
		<tag k="name" v="Fåstranda" />
		<tag k="natural" v="beach" />
		<tag k="place" v="locality" />
		<tag k="ssr:stedsnr" v="616994" />
	</node>
	<node id="-538212" lat="61.9245611069" lon="4.84528332781">
		<tag k="name" v="Tøytemulen" />
		<tag k="natural" v="shoal" />
		<tag k="place" v="locality" />
		<tag k="ssr:stedsnr" v="616970" />
	</node>
	<node id="-538211" lat="61.9526138854" lon="4.82056111221">
		<tag k="name" v="Fallet" />
		<tag k="natural" v="shoal" />
		<tag k="place" v="locality" />
		<tag k="ssr:stedsnr" v="616962" />
	</node>
	<node id="-536507" lat="61.7425833296" lon="4.828319452">
		<tag k="name" v="Tobørsholmen" />
		<tag k="place" v="islet" />
		<tag k="ssr:stedsnr" v="372506" />
	</node>
	<node id="-538203" lat="61.7697444436" lon="4.91949999755">
		<tag k="name" v="Bukkholmen" />
		<tag k="place" v="islet" />
		<tag k="ssr:stedsnr" v="616862" />
	</node>
	<node id="-536154" lat="61.8122583292" lon="5.64859444195">
		<tag k="name" v="Øykjevika" />
		<tag k="natural" v="bay" />
		<tag k="ssr:stedsnr" v="292114" />
	</node>
	<node id="-536150" lat="61.8967805584" lon="4.99327777425">
		<tag k="alt_name" v="Tufteneset" />
		<tag k="name" v="Tuftenes" />
		<tag k="natural" v="cape" />
		<tag k="ssr:stedsnr" v="276889" />
	</node>
	<node id="-536149" lat="61.7689472229" lon="4.9147111199">
		<tag k="fixme" v="consider seamark:type=rock or natural=shoal" />
		<tag k="name" v="Svarteskjeret" />
		<tag k="place" v="islet" />
		<tag k="ssr:stedsnr" v="269638" />
	</node>
	<node id="-536504" lat="61.7315111149" lon="4.72445278512">
		<tag k="name" v="Persflua" />
		<tag k="natural" v="shoal" />
		<tag k="place" v="locality" />
		<tag k="ssr:stedsnr" v="372485" />
	</node>
	<node id="-537214" lat="61.8273805569" lon="5.6830666738">
		<tag k="name" v="Mortekråna" />
		<tag k="natural" v="bay" />
		<tag k="ssr:stedsnr" v="171190" />
	</node>
	<node id="-538187" lat="61.8306999986" lon="5.67063610268">
		<tag k="name" v="Sigdestadvika" />
		<tag k="natural" v="bay" />
		<tag k="ssr:stedsnr" v="616299" />
	</node>
	<node id="-536503" lat="61.7454499973" lon="4.64404165988">
		<tag k="name" v="Søreflua" />
		<tag k="natural" v="shoal" />
		<tag k="place" v="locality" />
		<tag k="ssr:stedsnr" v="372406" />
	</node>
	<node id="-538177" lat="61.8688583368" lon="5.30152778379">
		<tag k="alt_name" v="Tjuveholmen" />
		<tag k="name" v="Tjuvaholmen" />
		<tag k="place" v="islet" />
		<tag k="ssr:stedsnr" v="616150" />
	</node>
	<node id="-538330" lat="61.7065750012" lon="5.17072778406">
		<tag k="alt_name" v="Fagrebuktneset" />
		<tag k="name" v="Faglebuktneset" />
		<tag k="natural" v="cape" />
		<tag k="ssr:stedsnr" v="657891" />
	</node>
	<node id="-538169" lat="61.8072888909" lon="5.15739721902">
		<tag k="alt_name" v="Bårdvikneset, Ytste;Ytste Bårdviknes" />
		<tag k="name" v="Ytste Bårdvikneset" />
		<tag k="natural" v="cape" />
		<tag k="ssr:stedsnr" v="616113" />
	</node>
	<node id="-536500" lat="61.745594446" lon="4.77485554916">
		<tag k="name" v="Skjerbåen" />
		<tag k="natural" v="shoal" />
		<tag k="place" v="locality" />
		<tag k="ssr:stedsnr" v="357974" />
	</node>
	<node id="-538162" lat="61.7389472255" lon="5.15914166511">
		<tag k="name" v="Hjellvika" />
		<tag k="natural" v="bay" />
		<tag k="ssr:stedsnr" v="615818" />
	</node>
	<node id="-538161" lat="61.737105556" lon="5.18300555453">
		<tag k="name" v="Fagrevika" />
		<tag k="natural" v="bay" />
		<tag k="ssr:stedsnr" v="615810" />
	</node>
	<node id="-538155" lat="61.7426277745" lon="5.11908334036">
		<tag k="alt_name" v="Mulehamnnes" />
		<tag k="name" v="Mulehamn" />
		<tag k="natural" v="cape" />
		<tag k="ssr:stedsnr" v="614808" />
	</node>
	<node id="-538152" lat="61.7233749964" lon="4.80869445084">
		<tag k="fixme" v="consider seamark:type=rock or natural=shoal" />
		<tag k="name" v="Stabben" />
		<tag k="place" v="islet" />
		<tag k="ssr:stedsnr" v="614444" />
	</node>
	<node id="-538149" lat="61.9068944419" lon="5.46709445233">
		<tag k="name" v="Endalsbukta" />
		<tag k="natural" v="bay" />
		<tag k="ssr:stedsnr" v="603595" />
	</node>
	<node id="-538148" lat="61.76765833" lon="4.85266388963">
		<tag k="name" v="Småvågane" />
		<tag k="natural" v="bay" />
		<tag k="ssr:stedsnr" v="599992" />
	</node>
	<node id="-538147" lat="61.8310388931" lon="4.88737499664">
		<tag k="name" v="Åpnarfluene" />
		<tag k="natural" v="shoal" />
		<tag k="place" v="locality" />
		<tag k="ssr:stedsnr" v="599924" />
	</node>
	<node id="-538146" lat="61.8372777738" lon="4.8780749967">
		<tag k="name" v="Brusen" />
		<tag k="natural" v="shoal" />
		<tag k="place" v="locality" />
		<tag k="ssr:stedsnr" v="599921" />
	</node>
	<node id="-538145" lat="61.8422638884" lon="4.79522777483">
		<tag k="name" v="Bataldflua" />
		<tag k="natural" v="shoal" />
		<tag k="place" v="locality" />
		<tag k="ssr:stedsnr" v="599918" />
	</node>
	<node id="-538144" lat="61.7627583359" lon="4.62650834141">
		<tag k="name" v="Nordreflua" />
		<tag k="natural" v="shoal" />
		<tag k="place" v="locality" />
		<tag k="ssr:stedsnr" v="599905" />
	</node>
	<node id="-538143" lat="61.7950527786" lon="4.80248888458">
		<tag k="fixme" v="consider seamark:type=rock or natural=shoal" />
		<tag k="name" v="Maraskjeret" />
		<tag k="place" v="islet" />
		<tag k="ssr:stedsnr" v="599895" />
	</node>
	<node id="-538141" lat="61.7877999956" lon="4.80171388403">
		<tag k="name" v="Mulevika" />
		<tag k="natural" v="bay" />
		<tag k="ssr:stedsnr" v="599893" />
	</node>
	<node id="-538140" lat="61.8041916659" lon="4.91036667395">
		<tag k="name" v="Kalveneset" />
		<tag k="natural" v="cape" />
		<tag k="ssr:stedsnr" v="599657" />
	</node>
	<node id="-538139" lat="61.7766888856" lon="4.92497777215">
		<tag k="name" v="Gapet" />
		<tag k="natural" v="bay" />
		<tag k="ssr:stedsnr" v="599653" />
	</node>
	<node id="-538138" lat="61.8047555524" lon="5.05825832851">
		<tag k="name" v="Skipperdalsvika" />
		<tag k="natural" v="bay" />
		<tag k="ssr:stedsnr" v="599440" />
	</node>
	<node id="-536495" lat="61.8188500036" lon="4.88142222915">
		<tag k="name" v="Fjærefluene" />
		<tag k="natural" v="shoal" />
		<tag k="place" v="locality" />
		<tag k="ssr:stedsnr" v="357619" />
	</node>
	<node id="-538135" lat="61.7707638887" lon="4.9240361121">
		<tag k="name" v="Jakobhamn" />
		<tag k="natural" v="bay" />
		<tag k="ssr:stedsnr" v="598775" />
	</node>
	<node id="-538133" lat="61.7309249997" lon="5.1171861076">
		<tag k="name" v="Kastevikneset" />
		<tag k="natural" v="cape" />
		<tag k="ssr:stedsnr" v="598663" />
	</node>
	<node id="-538132" lat="61.813194442" lon="5.19446944003">
		<tag k="name" v="Ytste Øyaneset" />
		<tag k="natural" v="cape" />
		<tag k="ssr:stedsnr" v="598078" />
	</node>
	<node id="-536494" lat="61.7366000027" lon="4.79933056295">
		<tag k="fixme" v="consider seamark:type=rock or natural=shoal" />
		<tag k="name" v="Litle Raudskjeret" />
		<tag k="place" v="islet" />
		<tag k="ssr:stedsnr" v="357459" />
	</node>
	<node id="-538127" lat="61.8138805583" lon="4.9508277724">
		<tag k="name" v="Myrevika" />
		<tag k="natural" v="bay" />
		<tag k="ssr:stedsnr" v="597014" />
	</node>
	<node id="-536492" lat="61.833480553" lon="5.14299722234">
		<tag k="fixme" v="consider seamark:type=rock or natural=shoal" />
		<tag k="name" v="Kobbesteinen" />
		<tag k="place" v="islet" />
		<tag k="ssr:stedsnr" v="357379" />
	</node>
	<node id="-536491" lat="61.8414611095" lon="5.27311388747">
		<tag k="name" v="Skarvehammaren" />
		<tag k="natural" v="cape" />
		<tag k="ssr:stedsnr" v="357044" />
	</node>
	<node id="-538111" lat="61.7491111142" lon="5.09476943748">
		<tag k="name" v="Pervika" />
		<tag k="natural" v="bay" />
		<tag k="ssr:stedsnr" v="596827" />
	</node>
	<node id="-538109" lat="61.7612166645" lon="5.10373055341">
		<tag k="name" v="Klubbeneset" />
		<tag k="natural" v="cape" />
		<tag k="ssr:stedsnr" v="596815" />
	</node>
	<node id="-538108" lat="61.8942583348" lon="5.63007778477">
		<tag k="name" v="Juvika" />
		<tag k="natural" v="bay" />
		<tag k="ssr:stedsnr" v="596808" />
	</node>
	<node id="-536490" lat="61.8271305599" lon="5.31252500658">
		<tag k="fixme" v="consider seamark:type=rock or natural=shoal" />
		<tag k="name" v="Avløysingsskjeret" />
		<tag k="place" v="islet" />
		<tag k="ssr:stedsnr" v="357036" />
	</node>
	<node id="-538105" lat="61.7722694439" lon="5.20576665789">
		<tag k="name" v="Stølsborvika" />
		<tag k="natural" v="bay" />
		<tag k="ssr:stedsnr" v="596748" />
	</node>
	<node id="-538104" lat="61.7748305519" lon="5.2240361093">
		<tag k="name" v="Gaddeneset" />
		<tag k="natural" v="cape" />
		<tag k="ssr:stedsnr" v="596747" />
	</node>
	<node id="-538102" lat="61.7772222183" lon="5.24729445194">
		<tag k="name" v="Lindelineset" />
		<tag k="natural" v="cape" />
		<tag k="ssr:stedsnr" v="596744" />
	</node>
	<node id="-538101" lat="61.7749583318" lon="5.27458055161">
		<tag k="name" v="Framstevikneset" />
		<tag k="natural" v="cape" />
		<tag k="ssr:stedsnr" v="596742" />
	</node>
	<node id="-538096" lat="61.8334611136" lon="5.69547500917">
		<tag k="name" v="Flevikneset" />
		<tag k="natural" v="cape" />
		<tag k="ssr:stedsnr" v="596725" />
	</node>
	<node id="-538095" lat="61.8328138852" lon="5.13442777105">
		<tag k="name" v="Furneset" />
		<tag k="natural" v="cape" />
		<tag k="ssr:stedsnr" v="596632" />
	</node>
	<node id="-538092" lat="61.8731472214" lon="5.22713055741">
		<tag k="name" v="Kalveholmen" />
		<tag k="place" v="islet" />
		<tag k="ssr:stedsnr" v="596565" />
	</node>
	<node id="-538087" lat="61.8776333362" lon="5.20628888069">
		<tag k="name" v="Røyrvågen" />
		<tag k="natural" v="bay" />
		<tag k="ssr:stedsnr" v="596546" />
	</node>
	<node id="-538086" lat="61.8905222228" lon="5.55848887979">
		<tag k="name" v="Leikvollvika" />
		<tag k="natural" v="bay" />
		<tag k="ssr:stedsnr" v="596542" />
	</node>
	<node id="-538085" lat="61.8395583312" lon="5.27153333346">
		<tag k="alt_name" v="Marøykalven" />
		<tag k="name" v="Kalven" />
		<tag k="place" v="islet" />
		<tag k="ssr:stedsnr" v="596540" />
	</node>
	<node id="-536486" lat="61.7384111126" lon="5.13233332909">
		<tag k="name" v="Bratthammarvika" />
		<tag k="natural" v="bay" />
		<tag k="ssr:stedsnr" v="356676" />
	</node>
	<node id="-538081" lat="61.8748555566" lon="5.22472778097">
		<tag k="name" v="Gardvika" />
		<tag k="natural" v="bay" />
		<tag k="ssr:stedsnr" v="596522" />
	</node>
	<node id="-538078" lat="61.8132944404" lon="5.21707778151">
		<tag k="name" v="Holvikneset" />
		<tag k="natural" v="cape" />
		<tag k="ssr:stedsnr" v="596484" />
	</node>
	<node id="-536485" lat="61.7339027787" lon="4.94936389586">
		<tag k="name" v="Skadvengsflua" />
		<tag k="natural" v="shoal" />
		<tag k="place" v="locality" />
		<tag k="ssr:stedsnr" v="356642" />
	</node>
	<node id="-538076" lat="61.7640194445" lon="4.8868722128">
		<tag k="name" v="Flatholmen" />
		<tag k="place" v="islet" />
		<tag k="ssr:stedsnr" v="596453" />
	</node>
	<node id="-538072" lat="61.7824916673" lon="4.95121389332">
		<tag k="name" v="Gullurholmane" />
		<tag k="place" v="islet" />
		<tag k="ssr:stedsnr" v="596405" />
	</node>
	<node id="-538532" lat="61.7649916701" lon="5.14232777321">
		<tag k="name" v="Hessvika" />
		<tag k="natural" v="bay" />
		<tag k="ssr:stedsnr" v="720185" />
	</node>
	<node id="-538069" lat="61.7518361158" lon="4.86442500524">
		<tag k="fixme" v="consider seamark:type=rock or natural=shoal" />
		<tag k="name" v="Kamsen" />
		<tag k="place" v="islet" />
		<tag k="ssr:stedsnr" v="596379" />
	</node>
	<node id="-538067" lat="61.7712972244" lon="4.89834166161">
		<tag k="alt_name" v="Stangholmen" />
		<tag k="name" v="Stongholmen" />
		<tag k="place" v="islet" />
		<tag k="ssr:stedsnr" v="596368" />
	</node>
	<node id="-536483" lat="61.7881194475" lon="4.95488610714">
		<tag k="name" v="Otreneset" />
		<tag k="natural" v="cape" />
		<tag k="ssr:stedsnr" v="356560" />
	</node>
	<node id="-538056" lat="61.8852944428" lon="5.06251667094">
		<tag k="name" v="Lanes" />
		<tag k="natural" v="cape" />
		<tag k="ssr:stedsnr" v="596290" />
	</node>
	<node id="-538529" lat="61.710324996" lon="5.1221444497">
		<tag k="name" v="Kalveneset" />
		<tag k="natural" v="cape" />
		<tag k="ssr:stedsnr" v="718895" />
	</node>
	<node id="-538052" lat="61.8912888888" lon="4.90878334286">
		<tag k="name" v="Stegleitet" />
		<tag k="natural" v="beach" />
		<tag k="place" v="locality" />
		<tag k="ssr:stedsnr" v="596121" />
	</node>
	<node id="-538049" lat="61.8023194443" lon="4.82683889141">
		<tag k="name" v="Inste Kupa" />
		<tag k="natural" v="bay" />
		<tag k="ssr:stedsnr" v="596043" />
	</node>
	<node id="-538048" lat="61.768444445" lon="5.28948055509">
		<tag k="name" v="Øyra" />
		<tag k="natural" v="cape" />
		<tag k="ssr:stedsnr" v="596027" />
	</node>
	<node id="-538045" lat="61.7206361141" lon="4.9948861016">
		<tag k="name" v="Korsnesvika" />
		<tag k="natural" v="bay" />
		<tag k="ssr:stedsnr" v="595952" />
	</node>
	<node id="-536885" lat="61.7727916685" lon="5.16636388629">
		<tag k="name" v="Øygardsvika" />
		<tag k="natural" v="bay" />
		<tag k="ssr:stedsnr" v="50753" />
	</node>
	<node id="-538038" lat="61.7574694483" lon="5.15752777291">
		<tag k="name" v="Litleholmen" />
		<tag k="place" v="islet" />
		<tag k="ssr:stedsnr" v="595788" />
	</node>
	<node id="-538185" lat="61.8828388774" lon="5.12014574978">
		<tag k="name" v="Bjørnøya" />
		<tag k="place" v="islet" />
		<tag k="ssr:stedsnr" v="616174" />
	</node>
	<node id="-536612" lat="61.7809250042" lon="4.82700833995">
		<tag k="name" v="Molvika" />
		<tag k="natural" v="bay" />
		<tag k="ssr:stedsnr" v="474513" />
	</node>
	<node id="-538526" lat="61.7601388844" lon="5.12845832791">
		<tag k="name" v="Ytste Leirvikneset" />
		<tag k="natural" v="cape" />
		<tag k="ssr:stedsnr" v="718808" />
	</node>
	<node id="-538031" lat="61.7897388914" lon="4.94888054913">
		<tag k="name" v="Trongesundholmen" />
		<tag k="place" v="islet" />
		<tag k="ssr:stedsnr" v="598497" />
	</node>
	<node id="-538026" lat="61.8873222234" lon="5.67642221359">
		<tag k="name" v="Isestranda" />
		<tag k="natural" v="beach" />
		<tag k="place" v="locality" />
		<tag k="ssr:stedsnr" v="585804" />
	</node>
	<node id="-538025" lat="61.8953944434" lon="5.56896944799">
		<tag k="name" v="Svartekari" />
		<tag k="natural" v="cape" />
		<tag k="ssr:stedsnr" v="585795" />
	</node>
	<node id="-536174" lat="61.896588888" lon="5.36230833493">
		<tag k="name" v="Snekkevika" />
		<tag k="natural" v="bay" />
		<tag k="ssr:stedsnr" v="292595" />
	</node>
	<node id="-538018" lat="61.9164444454" lon="4.91705277827">
		<tag k="name" v="Brunebåen" />
		<tag k="natural" v="shoal" />
		<tag k="place" v="locality" />
		<tag k="ssr:stedsnr" v="556983" />
	</node>
	<node id="-538016" lat="61.8215583329" lon="4.9330277819">
		<tag k="name" v="Lyngneset" />
		<tag k="natural" v="cape" />
		<tag k="ssr:stedsnr" v="556928" />
	</node>
	<node id="-538015" lat="61.8046833317" lon="4.82847499562">
		<tag k="name" v="Slåttevikneset" />
		<tag k="natural" v="cape" />
		<tag k="ssr:stedsnr" v="556924" />
	</node>
	<node id="-538013" lat="61.8274722203" lon="4.92878332734">
		<tag k="bay" v="fjord" />
		<tag k="name" v="Bremangerpollen" />
		<tag k="natural" v="bay" />
		<tag k="ssr:stedsnr" v="556902" />
	</node>
	<node id="-538012" lat="61.7889321933" lon="4.9157981651">
		<tag k="name" v="Nordre Kjersøya" />
		<tag k="place" v="islet" />
		<tag k="ssr:stedsnr" v="556843" />
	</node>
	<node id="-538008" lat="61.8578694448" lon="5.3009694456">
		<tag k="fixme" v="multiple name tags, choose one and add the other to alt_name" />
		<tag k="name" v="Lofnespynten;Verpeneset" />
		<tag k="natural" v="cape" />
		<tag k="ssr:stedsnr" v="556195" />
	</node>
	<node id="-537156" lat="61.8300444433" lon="5.31570833232">
		<tag k="alt_name" v="Vingen" />
		<tag k="name" v="Vingepollen" />
		<tag k="natural" v="bay" />
		<tag k="ssr:stedsnr" v="131117" />
	</node>
	<node id="-538002" lat="61.8484527805" lon="5.15998055484">
		<tag k="name" v="Berlepollen" />
		<tag k="natural" v="bay" />
		<tag k="ssr:stedsnr" v="556170" />
	</node>
	<node id="-537995" lat="61.7734805551" lon="5.21666945001">
		<tag k="name" v="Trolleneset" />
		<tag k="natural" v="cape" />
		<tag k="ssr:stedsnr" v="556109" />
	</node>
	<node id="-537994" lat="61.7693250014" lon="5.25590000377">
		<tag k="name" v="Langeneset" />
		<tag k="natural" v="cape" />
		<tag k="ssr:stedsnr" v="556106" />
	</node>
	<node id="-537993" lat="61.7712750023" lon="5.20291944158">
		<tag k="name" v="Støylsspordneset" />
		<tag k="natural" v="cape" />
		<tag k="ssr:stedsnr" v="556107" />
	</node>
	<node id="-537989" lat="61.8417694416" lon="4.89685277395">
		<tag k="name" v="Grotlesholmen" />
		<tag k="place" v="islet" />
		<tag k="ssr:stedsnr" v="555892" />
	</node>
	<node id="-537975" lat="61.8916583336" lon="5.33204721414">
		<tag k="name" v="Sundsneset" />
		<tag k="natural" v="cape" />
		<tag k="ssr:stedsnr" v="555144" />
	</node>
	<node id="-537965" lat="61.733877779" lon="4.98460000776">
		<tag k="name" v="Røysaneset" />
		<tag k="natural" v="cape" />
		<tag k="ssr:stedsnr" v="554491" />
	</node>
	<node id="-537964" lat="61.7233888864" lon="4.79830833308">
		<tag k="fixme" v="consider seamark:type=rock or natural=shoal" />
		<tag k="name" v="Søtingen" />
		<tag k="place" v="islet" />
		<tag k="ssr:stedsnr" v="554485" />
	</node>
	<node id="-537963" lat="61.7174916638" lon="4.96993333592">
		<tag k="name" v="Opnarhella" />
		<tag k="natural" v="cape" />
		<tag k="ssr:stedsnr" v="554474" />
	</node>
	<node id="-537962" lat="61.7404111155" lon="4.70025555831">
		<tag k="name" v="Frøyagrunnene" />
		<tag k="natural" v="shoal" />
		<tag k="place" v="locality" />
		<tag k="ssr:stedsnr" v="554409" />
	</node>
	<node id="-537959" lat="61.9100472189" lon="4.77197222553">
		<tag k="name" v="Skorpefluene" />
		<tag k="natural" v="shoal" />
		<tag k="place" v="locality" />
		<tag k="ssr:stedsnr" v="539995" />
	</node>
	<node id="-537958" lat="61.8356388927" lon="4.85347778677">
		<tag k="name" v="Skukken" />
		<tag k="natural" v="shoal" />
		<tag k="place" v="locality" />
		<tag k="ssr:stedsnr" v="539893" />
	</node>
	<node id="-537957" lat="61.7513555526" lon="4.65216110742">
		<tag k="name" v="Gnetaflua" />
		<tag k="natural" v="shoal" />
		<tag k="place" v="locality" />
		<tag k="ssr:stedsnr" v="539883" />
	</node>
	<node id="-537956" lat="61.7615027819" lon="4.65774722048">
		<tag k="name" v="Skorperauva" />
		<tag k="natural" v="shoal" />
		<tag k="place" v="locality" />
		<tag k="ssr:stedsnr" v="539882" />
	</node>
	<node id="-537955" lat="61.8274277752" lon="5.16018054824">
		<tag k="name" v="Indre Flua" />
		<tag k="natural" v="shoal" />
		<tag k="place" v="locality" />
		<tag k="ssr:stedsnr" v="539369" />
	</node>
	<node id="-537954" lat="61.8341333297" lon="5.24430833336">
		<tag k="name" v="Hælvika" />
		<tag k="natural" v="bay" />
		<tag k="ssr:stedsnr" v="539364" />
	</node>
	<node id="-537953" lat="61.8719722239" lon="5.21391388143">
		<tag k="name" v="Skrukken" />
		<tag k="natural" v="shoal" />
		<tag k="place" v="locality" />
		<tag k="ssr:stedsnr" v="538931" />
	</node>
	<node id="-537952" lat="61.7090222223" lon="5.12007499173">
		<tag k="alt_name" v="Nørevika" />
		<tag k="name" v="Nørdrevika" />
		<tag k="natural" v="bay" />
		<tag k="ssr:stedsnr" v="538682" />
	</node>
	<node id="-537951" lat="61.770497224" lon="4.94505832696">
		<tag k="name" v="Rotaflua" />
		<tag k="natural" v="shoal" />
		<tag k="place" v="locality" />
		<tag k="ssr:stedsnr" v="538579" />
	</node>
	<node id="-537950" lat="61.7969222218" lon="4.94707778286">
		<tag k="name" v="Fløholmen" />
		<tag k="place" v="islet" />
		<tag k="ssr:stedsnr" v="538543" />
	</node>
	<node id="-537949" lat="61.7942888925" lon="4.95378889195">
		<tag k="name" v="Bukta" />
		<tag k="natural" v="bay" />
		<tag k="ssr:stedsnr" v="538528" />
	</node>
	<node id="-537948" lat="61.9291444468" lon="4.89225556342">
		<tag k="name" v="Kisteflua" />
		<tag k="natural" v="shoal" />
		<tag k="place" v="locality" />
		<tag k="ssr:stedsnr" v="538434" />
	</node>
	<node id="-537942" lat="61.7538499987" lon="5.07703333905">
		<tag k="name" v="Skakastet" />
		<tag k="natural" v="beach" />
		<tag k="place" v="locality" />
		<tag k="ssr:stedsnr" v="536945" />
	</node>
	<node id="-537939" lat="61.7573444458" lon="5.03435555147">
		<tag k="alt_name" v="Heianeset" />
		<tag k="name" v="Heieneset" />
		<tag k="natural" v="cape" />
		<tag k="ssr:stedsnr" v="536930" />
	</node>
	<node id="-537935" lat="61.7523611125" lon="5.08844166258">
		<tag k="name" v="Ytsteneset" />
		<tag k="natural" v="cape" />
		<tag k="ssr:stedsnr" v="536835" />
	</node>
	<node id="-537934" lat="61.7484277736" lon="5.09706389075">
		<tag k="name" v="Almenningsneset" />
		<tag k="natural" v="cape" />
		<tag k="ssr:stedsnr" v="536834" />
	</node>
	<node id="-537933" lat="61.7626583311" lon="5.10984166816">
		<tag k="name" v="Djupevika" />
		<tag k="natural" v="bay" />
		<tag k="ssr:stedsnr" v="536831" />
	</node>
	<node id="-537926" lat="61.8790083317" lon="5.10640832575">
		<tag k="name" v="Svoraneset" />
		<tag k="natural" v="cape" />
		<tag k="ssr:stedsnr" v="536657" />
	</node>
	<node id="-537915" lat="61.7683027815" lon="5.28304445104">
		<tag k="name" v="Naustneset" />
		<tag k="natural" v="cape" />
		<tag k="ssr:stedsnr" v="536035" />
	</node>
	<node id="-537914" lat="61.8352666657" lon="4.94645277424">
		<tag k="name" v="Buholmen" />
		<tag k="place" v="islet" />
		<tag k="ssr:stedsnr" v="536027" />
	</node>
	<node id="-537912" lat="61.8583194403" lon="4.82292499923">
		<tag k="name" v="Skauevika" />
		<tag k="natural" v="bay" />
		<tag k="ssr:stedsnr" v="536011" />
	</node>
	<node id="-537140" lat="61.7220111139" lon="5.202888893">
		<tag k="name" v="Instevika" />
		<tag k="natural" v="bay" />
		<tag k="ssr:stedsnr" v="129822" />
	</node>
	<node id="-537907" lat="61.7251833307" lon="4.98054165764">
		<tag k="name" v="Klasneset" />
		<tag k="natural" v="cape" />
		<tag k="ssr:stedsnr" v="535972" />
	</node>
	<node id="-537905" lat="61.7198000042" lon="5.00159165819">
		<tag k="name" v="Flatholmen" />
		<tag k="place" v="islet" />
		<tag k="ssr:stedsnr" v="535960" />
	</node>
	<node id="-537901" lat="61.7127361107" lon="5.16591944886">
		<tag k="name" v="Hjellvika" />
		<tag k="natural" v="bay" />
		<tag k="ssr:stedsnr" v="535910" />
	</node>
	<node id="-537900" lat="61.7220500044" lon="5.16190555062">
		<tag k="name" v="Kallavikneset" />
		<tag k="natural" v="cape" />
		<tag k="ssr:stedsnr" v="535907" />
	</node>
	<node id="-537893" lat="61.7404055545" lon="5.12999722308">
		<tag k="name" v="Bratthammarnes" />
		<tag k="natural" v="cape" />
		<tag k="ssr:stedsnr" v="535865" />
	</node>
	<node id="-537892" lat="61.7303222255" lon="5.11720833029">
		<tag k="name" v="Kastevika" />
		<tag k="natural" v="bay" />
		<tag k="ssr:stedsnr" v="535863" />
	</node>
	<node id="-537882" lat="61.7600833364" lon="5.21324166489">
		<tag k="name" v="Svinevika" />
		<tag k="natural" v="bay" />
		<tag k="ssr:stedsnr" v="535776" />
	</node>
	<node id="-537878" lat="61.8880805536" lon="5.34066945053">
		<tag k="name" v="Vågsneset" />
		<tag k="natural" v="cape" />
		<tag k="ssr:stedsnr" v="535611" />
	</node>
	<node id="-537874" lat="61.9017805582" lon="5.37236945114">
		<tag k="name" v="Sletteneset" />
		<tag k="natural" v="cape" />
		<tag k="ssr:stedsnr" v="535596" />
	</node>
	<node id="-537873" lat="61.9083666625" lon="5.38485555247">
		<tag k="name" v="Klaua" />
		<tag k="natural" v="cape" />
		<tag k="ssr:stedsnr" v="535595" />
	</node>
	<node id="-537867" lat="61.8837999962" lon="5.2079444541">
		<tag k="name" v="Strandavika" />
		<tag k="natural" v="bay" />
		<tag k="ssr:stedsnr" v="535575" />
	</node>
	<node id="-537855" lat="61.8334972226" lon="5.23360833885">
		<tag k="name" v="Berlestranda" />
		<tag k="natural" v="beach" />
		<tag k="place" v="locality" />
		<tag k="ssr:stedsnr" v="535545" />
	</node>
	<node id="-537854" lat="61.8174666688" lon="5.22705555678">
		<tag k="fixme" v="consider seamark:type=rock or natural=shoal" />
		<tag k="name" v="Skjeret" />
		<tag k="place" v="islet" />
		<tag k="ssr:stedsnr" v="535532" />
	</node>
	<node id="-537852" lat="61.7602222178" lon="4.81321388575">
		<tag k="name" v="Humresundet" />
		<tag k="natural" v="strait" />
		<tag k="ssr:stedsnr" v="535489" />
	</node>
	<node id="-537851" lat="61.7605166681" lon="4.82996387973">
		<tag k="name" v="Håøyvika" />
		<tag k="natural" v="bay" />
		<tag k="ssr:stedsnr" v="535487" />
	</node>
	<node id="-537850" lat="61.7567611129" lon="4.83134443885">
		<tag k="fixme" v="consider seamark:type=rock or natural=shoal" />
		<tag k="name" v="Auseskjera" />
		<tag k="place" v="islet" />
		<tag k="ssr:stedsnr" v="535483" />
	</node>
	<node id="-537844" lat="61.7621805519" lon="4.84641110297">
		<tag k="name" v="Kvannevika" />
		<tag k="natural" v="bay" />
		<tag k="ssr:stedsnr" v="535409" />
	</node>
	<node id="-537842" lat="61.7485083379" lon="4.85003334058">
		<tag k="name" v="Lakseneset" />
		<tag k="natural" v="cape" />
		<tag k="ssr:stedsnr" v="535402" />
	</node>
	<node id="-537841" lat="61.7617722192" lon="4.87796111107">
		<tag k="name" v="Botnelabo" />
		<tag k="natural" v="bay" />
		<tag k="ssr:stedsnr" v="535397" />
	</node>
	<node id="-537839" lat="61.7675277822" lon="4.85055833951">
		<tag k="name" v="Rognholmane" />
		<tag k="place" v="islet" />
		<tag k="ssr:stedsnr" v="535378" />
	</node>
	<node id="-537837" lat="61.8494916711" lon="5.34736111686">
		<tag k="name" v="Tjukkeneset" />
		<tag k="natural" v="cape" />
		<tag k="ssr:stedsnr" v="535370" />
	</node>
	<node id="-537127" lat="61.8181916678" lon="4.90650556362">
		<tag k="name" v="Novesundet" />
		<tag k="natural" v="strait" />
		<tag k="ssr:stedsnr" v="114699" />
	</node>
	<node id="-537819" lat="61.9006027816" lon="5.54127777841">
		<tag k="name" v="Hola" />
		<tag k="natural" v="bay" />
		<tag k="ssr:stedsnr" v="525909" />
	</node>
	<node id="-537816" lat="61.771725004" lon="5.20797777625">
		<tag k="name" v="Støylssporden" />
		<tag k="natural" v="cape" />
		<tag k="ssr:stedsnr" v="506235" />
	</node>
	<node id="-537124" lat="61.7358083349" lon="4.77911944373">
		<tag k="alt_name" v="Raudskjeret" />
		<tag k="fixme" v="consider seamark:type=rock or natural=shoal" />
		<tag k="name" v="Store Raudskjeret" />
		<tag k="place" v="islet" />
		<tag k="ssr:stedsnr" v="114510" />
	</node>
	<node id="-537123" lat="61.736269447" lon="4.82823054606">
		<tag k="fixme" v="consider seamark:type=rock or natural=shoal" />
		<tag k="name" v="Litle Gåsøya" />
		<tag k="place" v="islet" />
		<tag k="ssr:stedsnr" v="114506" />
	</node>
	<node id="-537808" lat="61.8638000003" lon="5.00601111041">
		<tag k="name" v="Bremangerlandet" />
		<tag k="place" v="island" />
		<tag k="ssr:stedsnr" v="495987" />
	</node>
	<node id="-537807" lat="61.9024805537" lon="4.91815277151">
		<tag k="name" v="Kviteneset" />
		<tag k="natural" v="cape" />
		<tag k="ssr:stedsnr" v="495984" />
	</node>
	<node id="-537806" lat="61.9090888924" lon="4.95379444241">
		<tag k="alt_name" v="Skarvenykjen" />
		<tag k="name" v="Nyken" />
		<tag k="natural" v="cape" />
		<tag k="ssr:stedsnr" v="495978" />
	</node>
	<node id="-537805" lat="61.7997499989" lon="4.81351111695">
		<tag k="name" v="Grønneset" />
		<tag k="natural" v="cape" />
		<tag k="ssr:stedsnr" v="495934" />
	</node>
	<node id="-537804" lat="61.8203888904" lon="4.78911944305">
		<tag k="name" v="Rognfluene" />
		<tag k="natural" v="shoal" />
		<tag k="place" v="locality" />
		<tag k="ssr:stedsnr" v="495926" />
	</node>
	<node id="-537122" lat="61.7140777797" lon="4.78756944909">
		<tag k="name" v="Torsgrunnen" />
		<tag k="natural" v="shoal" />
		<tag k="place" v="locality" />
		<tag k="ssr:stedsnr" v="114502" />
	</node>
	<node id="-537802" lat="61.8486249992" lon="4.82756944946">
		<tag k="name" v="Smøyholmen" />
		<tag k="place" v="islet" />
		<tag k="ssr:stedsnr" v="495918" />
	</node>
	<node id="-537798" lat="61.8407444421" lon="4.85596666644">
		<tag k="fixme" v="consider seamark:type=rock or natural=shoal" />
		<tag k="name" v="Vissholmskjera" />
		<tag k="place" v="islet" />
		<tag k="ssr:stedsnr" v="495910" />
	</node>
	<node id="-537121" lat="61.9032611124" lon="5.00065000879">
		<tag k="name" v="Ribba" />
		<tag k="natural" v="shoal" />
		<tag k="place" v="locality" />
		<tag k="ssr:stedsnr" v="114428" />
	</node>
	<node id="-537796" lat="61.8641444479" lon="4.83397777615">
		<tag k="name" v="Gyttane" />
		<tag k="natural" v="cape" />
		<tag k="ssr:stedsnr" v="495903" />
	</node>
	<node id="-537794" lat="61.7537666657" lon="4.80004167402">
		<tag k="alt_name" v="Gjenneskjer" />
		<tag k="fixme" v="consider seamark:type=rock or natural=shoal" />
		<tag k="name" v="Gjenneskjeret" />
		<tag k="place" v="islet" />
		<tag k="ssr:stedsnr" v="495878" />
	</node>
	<node id="-537793" lat="61.7736361067" lon="4.95250000006">
		<tag k="name" v="Vardeholmane" />
		<tag k="place" v="islet" />
		<tag k="ssr:stedsnr" v="495876" />
	</node>
	<node id="-537792" lat="61.7621611104" lon="4.93019999421">
		<tag k="name" v="Fiskholmen" />
		<tag k="place" v="islet" />
		<tag k="ssr:stedsnr" v="495866" />
	</node>
	<node id="-537791" lat="61.7881444484" lon="4.9049444516">
		<tag k="name" v="Vederskytten" />
		<tag k="place" v="island" />
		<tag k="ssr:stedsnr" v="495850" />
	</node>
	<node id="-536437" lat="61.7774277794" lon="5.25928333652">
		<tag k="name" v="Ryggjaneset" />
		<tag k="natural" v="cape" />
		<tag k="ssr:stedsnr" v="353764" />
	</node>
	<node id="-537119" lat="61.7131750032" lon="5.16574444765">
		<tag k="name" v="Gjelvikneset" />
		<tag k="natural" v="cape" />
		<tag k="ssr:stedsnr" v="113675" />
	</node>
	<node id="-537779" lat="61.8247444401" lon="5.67857776962">
		<tag k="name" v="Svinevika" />
		<tag k="natural" v="bay" />
		<tag k="ssr:stedsnr" v="495322" />
	</node>
	<node id="-537776" lat="61.8374166645" lon="5.70442778071">
		<tag k="alt_name" v="Ålfotefjorden" />
		<tag k="bay" v="fjord" />
		<tag k="name" v="Ålfoten" />
		<tag k="natural" v="bay" />
		<tag k="ssr:stedsnr" v="495314" />
	</node>
	<node id="-537117" lat="61.8378250028" lon="4.97404167406">
		<tag k="name" v="Haugsvika" />
		<tag k="natural" v="bay" />
		<tag k="ssr:stedsnr" v="113755" />
	</node>
	<node id="-537769" lat="61.8567916667" lon="5.31468334026">
		<tag k="name" v="Lofnes" />
		<tag k="natural" v="cape" />
		<tag k="ssr:stedsnr" v="495172" />
	</node>
	<node id="-537116" lat="61.7711861081" lon="4.95322222356">
		<tag k="name" v="Vardeholmflua" />
		<tag k="natural" v="shoal" />
		<tag k="place" v="locality" />
		<tag k="ssr:stedsnr" v="113525" />
	</node>
	<node id="-537764" lat="61.7633555558" lon="5.1686138967">
		<tag k="name" v="Holmaneset" />
		<tag k="natural" v="cape" />
		<tag k="ssr:stedsnr" v="495109" />
	</node>
	<node id="-537762" lat="61.7581666665" lon="5.13081667263">
		<tag k="name" v="Leirvikneset" />
		<tag k="natural" v="cape" />
		<tag k="ssr:stedsnr" v="495083" />
	</node>
	<node id="-537115" lat="61.7923500037" lon="4.94996111941">
		<tag k="name" v="Vågane" />
		<tag k="natural" v="bay" />
		<tag k="ssr:stedsnr" v="113479" />
	</node>
	<node id="-537759" lat="61.7240333306" lon="5.2058027694">
		<tag k="alt_name" v="Myklebust-Langenes" />
		<tag k="name" v="Langeneset" />
		<tag k="natural" v="cape" />
		<tag k="ssr:stedsnr" v="494791" />
	</node>
	<node id="-537758" lat="61.7235972225" lon="4.71088334042">
		<tag k="name" v="Aldeflua" />
		<tag k="natural" v="shoal" />
		<tag k="place" v="locality" />
		<tag k="ssr:stedsnr" v="494456" />
	</node>
	<node id="-537755" lat="61.7339249977" lon="4.95569166956">
		<tag k="name" v="Langevengen" />
		<tag k="place" v="islet" />
		<tag k="ssr:stedsnr" v="493445" />
	</node>
	<node id="-537754" lat="61.7262944409" lon="4.85415556473">
		<tag k="bay" v="fjord" />
		<tag k="name" v="Frøysjøen" />
		<tag k="natural" v="bay" />
		<tag k="ssr:stedsnr" v="493430" />
	</node>
	<node id="-536772" lat="61.7694722233" lon="5.2238777699">
		<tag k="bay" v="fjord" />
		<tag k="name" v="Nordgulen" />
		<tag k="natural" v="bay" />
		<tag k="ssr:stedsnr" v="10097" />
	</node>
	<node id="-537742" lat="61.841036108" lon="4.81721389758">
		<tag k="name" v="Brørne" />
		<tag k="natural" v="shoal" />
		<tag k="place" v="locality" />
		<tag k="ssr:stedsnr" v="435905" />
	</node>
	<node id="-537741" lat="61.8212055571" lon="5.67400556339">
		<tag k="name" v="Fureneset" />
		<tag k="natural" v="cape" />
		<tag k="ssr:stedsnr" v="435860" />
	</node>
	<node id="-537715" lat="61.8828972186" lon="5.07350833296">
		<tag k="name" v="Oldeidsneset" />
		<tag k="natural" v="cape" />
		<tag k="ssr:stedsnr" v="434986" />
	</node>
	<node id="-537713" lat="61.7791888852" lon="4.92355278016">
		<tag k="name" v="Gildreneset" />
		<tag k="natural" v="cape" />
		<tag k="ssr:stedsnr" v="434794" />
	</node>
	<node id="-537711" lat="61.7798138906" lon="4.82837499173">
		<tag k="name" v="Molvikhalsen" />
		<tag k="natural" v="cape" />
		<tag k="ssr:stedsnr" v="434806" />
	</node>
	<node id="-536422" lat="61.8728666712" lon="5.26155833871">
		<tag k="name" v="Kleivaneset" />
		<tag k="natural" v="cape" />
		<tag k="ssr:stedsnr" v="353601" />
	</node>
	<node id="-537695" lat="61.7283944434" lon="5.17519722152">
		<tag k="name" v="Midtgulen" />
		<tag k="natural" v="bay" />
		<tag k="ssr:stedsnr" v="433836" />
	</node>
	<node id="-537690" lat="61.7226555577" lon="4.77096944101">
		<tag k="fixme" v="consider seamark:type=rock or natural=shoal" />
		<tag k="name" v="Toddeskjeret" />
		<tag k="place" v="islet" />
		<tag k="ssr:stedsnr" v="433457" />
	</node>
	<node id="-537686" lat="61.721722224" lon="4.99929445052">
		<tag k="name" v="Korsneset" />
		<tag k="natural" v="cape" />
		<tag k="ssr:stedsnr" v="433438" />
	</node>
	<node id="-537684" lat="61.7483999998" lon="4.6852750032">
		<tag k="name" v="Grunnebåen" />
		<tag k="natural" v="shoal" />
		<tag k="place" v="locality" />
		<tag k="ssr:stedsnr" v="433367" />
	</node>
	<node id="-537682" lat="61.6982666688" lon="4.98384167485">
		<tag k="name" v="Buaneset" />
		<tag k="natural" v="cape" />
		<tag k="ssr:stedsnr" v="433043" />
	</node>
	<node id="-537678" lat="61.7534666652" lon="4.54581944564">
		<tag k="name" v="Nordre Grunnskallen" />
		<tag k="natural" v="shoal" />
		<tag k="place" v="locality" />
		<tag k="ssr:stedsnr" v="418973" />
	</node>
	<node id="-537677" lat="61.833847221" lon="4.97327222017">
		<tag k="name" v="Klubbenesflua" />
		<tag k="natural" v="shoal" />
		<tag k="place" v="locality" />
		<tag k="ssr:stedsnr" v="418964" />
	</node>
	<node id="-537675" lat="61.7554611065" lon="4.66453888347">
		<tag k="name" v="Hatleflua" />
		<tag k="natural" v="shoal" />
		<tag k="place" v="locality" />
		<tag k="ssr:stedsnr" v="418883" />
	</node>
	<node id="-537674" lat="61.8048833339" lon="4.69784443674">
		<tag k="name" v="Skorpegrunnen" />
		<tag k="natural" v="shoal" />
		<tag k="place" v="locality" />
		<tag k="ssr:stedsnr" v="418882" />
	</node>
	<node id="-537673" lat="61.7809222204" lon="4.79811666844">
		<tag k="fixme" v="consider seamark:type=rock or natural=shoal" />
		<tag k="name" v="Nordre Flatskjeret" />
		<tag k="place" v="islet" />
		<tag k="ssr:stedsnr" v="418864" />
	</node>
	<node id="-537672" lat="61.7781416691" lon="4.80364165768">
		<tag k="fixme" v="consider seamark:type=rock or natural=shoal" />
		<tag k="name" v="Søre Flatskjeret" />
		<tag k="place" v="islet" />
		<tag k="ssr:stedsnr" v="418863" />
	</node>
	<node id="-537671" lat="61.776099996" lon="4.91884722847">
		<tag k="name" v="Rundeholmen" />
		<tag k="place" v="islet" />
		<tag k="ssr:stedsnr" v="418614" />
	</node>
	<node id="-537670" lat="61.9144444477" lon="5.41226389594">
		<tag k="name" v="Torskevika" />
		<tag k="natural" v="bay" />
		<tag k="ssr:stedsnr" v="418603" />
	</node>
	<node id="-537669" lat="61.9046431899" lon="5.37754497833">
		<tag k="name" v="Årvika" />
		<tag k="natural" v="bay" />
		<tag k="ssr:stedsnr" v="418586" />
	</node>
	<node id="-537667" lat="61.8221805565" lon="5.27801944408">
		<tag k="name" v="Furevika" />
		<tag k="natural" v="bay" />
		<tag k="ssr:stedsnr" v="418037" />
	</node>
	<node id="-537666" lat="61.7195666691" lon="5.11376666088">
		<tag k="name" v="Sagebøflua" />
		<tag k="natural" v="shoal" />
		<tag k="place" v="locality" />
		<tag k="ssr:stedsnr" v="417724" />
	</node>
	<node id="-537664" lat="61.7836888868" lon="5.00467500359">
		<tag k="name" v="Tjuvenesflua" />
		<tag k="natural" v="shoal" />
		<tag k="place" v="locality" />
		<tag k="ssr:stedsnr" v="417585" />
	</node>
	<node id="-537663" lat="61.7962361133" lon="4.94065555876">
		<tag k="name" v="Lammeflua" />
		<tag k="natural" v="shoal" />
		<tag k="place" v="locality" />
		<tag k="ssr:stedsnr" v="417559" />
	</node>
	<node id="-537662" lat="61.7721694456" lon="5.1572722168">
		<tag k="name" v="Bratthammarsvika" />
		<tag k="natural" v="bay" />
		<tag k="ssr:stedsnr" v="417173" />
	</node>
	<node id="-537661" lat="61.7757833325" lon="5.27150832735">
		<tag k="name" v="Mevikneset" />
		<tag k="natural" v="cape" />
		<tag k="ssr:stedsnr" v="415809" />
	</node>
	<node id="-537659" lat="61.8794333293" lon="5.09650833472">
		<tag k="alt_name" v="Naustholmen" />
		<tag k="name" v="Steinholmen" />
		<tag k="place" v="islet" />
		<tag k="ssr:stedsnr" v="415690" />
	</node>
	<node id="-537654" lat="61.9086333337" lon="4.95114166532">
		<tag k="name" v="Nyken" />
		<tag k="natural" v="cape" />
		<tag k="ssr:stedsnr" v="415122" />
	</node>
	<node id="-536414" lat="61.8827583346" lon="5.20371388036">
		<tag k="name" v="Ørnavika" />
		<tag k="natural" v="bay" />
		<tag k="ssr:stedsnr" v="353582" />
	</node>
	<node id="-537649" lat="61.8082000013" lon="4.90382221328">
		<tag k="name" v="Bakkeholmen" />
		<tag k="place" v="islet" />
		<tag k="ssr:stedsnr" v="415026" />
	</node>
	<node id="-536754" lat="61.8462509645" lon="5.83190453895">
		<tag k="name" v="Merselsneset" />
		<tag k="natural" v="cape" />
		<tag k="ssr:stedsnr" v="475783" />
	</node>
	<node id="-537641" lat="61.722077774" lon="4.96933888621">
		<tag k="name" v="Landsyningsvika" />
		<tag k="natural" v="bay" />
		<tag k="ssr:stedsnr" v="414946" />
	</node>
	<node id="-537634" lat="61.7127500032" lon="5.10662221593">
		<tag k="name" v="Litleneset" />
		<tag k="natural" v="cape" />
		<tag k="ssr:stedsnr" v="414891" />
	</node>
	<node id="-537144" lat="61.7548083332" lon="5.15130276844">
		<tag k="name" v="Kvieneset" />
		<tag k="natural" v="cape" />
		<tag k="ssr:stedsnr" v="131065" />
	</node>
	<node id="-537626" lat="61.8931111156" lon="5.63546111249">
		<tag k="name" v="Tobbeberget" />
		<tag k="natural" v="cape" />
		<tag k="ssr:stedsnr" v="414803" />
	</node>
	<node id="-537624" lat="61.7592305549" lon="5.17325000241">
		<tag k="name" v="Djupevika" />
		<tag k="natural" v="bay" />
		<tag k="ssr:stedsnr" v="414779" />
	</node>
	<node id="-537623" lat="61.7620111102" lon="5.16457221887">
		<tag k="name" v="Holmesundet" />
		<tag k="natural" v="strait" />
		<tag k="ssr:stedsnr" v="414774" />
	</node>
	<node id="-537622" lat="61.7601638921" lon="5.18856388074">
		<tag k="name" v="Blokkebærneset" />
		<tag k="natural" v="cape" />
		<tag k="ssr:stedsnr" v="414772" />
	</node>
	<node id="-537618" lat="61.8503527794" lon="5.76811388847">
		<tag k="name" v="Storholmen" />
		<tag k="place" v="islet" />
		<tag k="ssr:stedsnr" v="414732" />
	</node>
	<node id="-537614" lat="61.8925055531" lon="5.33073610378">
		<tag k="alt_name" v="Knarrholmen" />
		<tag k="name" v="Knarreholmen" />
		<tag k="place" v="islet" />
		<tag k="ssr:stedsnr" v="414623" />
	</node>
	<node id="-537609" lat="61.9075305596" lon="5.3828194427">
		<tag k="name" v="Tuenes" />
		<tag k="natural" v="cape" />
		<tag k="ssr:stedsnr" v="414609" />
	</node>
	<node id="-536624" lat="61.8192666644" lon="5.10350832478">
		<tag k="name" v="Tussevika" />
		<tag k="natural" v="bay" />
		<tag k="ssr:stedsnr" v="474619" />
	</node>
	<node id="-537605" lat="61.8823277799" lon="5.31858055435">
		<tag k="name" v="Jakteholmen" />
		<tag k="natural" v="cape" />
		<tag k="ssr:stedsnr" v="414600" />
	</node>
	<node id="-537600" lat="61.8903111106" lon="5.52928611914">
		<tag k="name" v="Harneset" />
		<tag k="natural" v="cape" />
		<tag k="ssr:stedsnr" v="414575" />
	</node>
	<node id="-537598" lat="61.8730583304" lon="5.23602777655">
		<tag k="name" v="Splintehola" />
		<tag k="natural" v="bay" />
		<tag k="ssr:stedsnr" v="414564" />
	</node>
	<node id="-536461" lat="61.8423666646" lon="4.89543888904">
		<tag k="name" v="Storholmen" />
		<tag k="place" v="islet" />
		<tag k="ssr:stedsnr" v="354006" />
	</node>
	<node id="-537596" lat="61.8330111118" lon="5.20408611524">
		<tag k="name" v="Skukkevika" />
		<tag k="natural" v="bay" />
		<tag k="ssr:stedsnr" v="414547" />
	</node>
	<node id="-537595" lat="61.7529000003" lon="4.81930277788">
		<tag k="name" v="Rognholmen" />
		<tag k="place" v="islet" />
		<tag k="ssr:stedsnr" v="414484" />
	</node>
	<node id="-537594" lat="61.7608666682" lon="4.87917221441">
		<tag k="alt_name" v="Hamarneset" />
		<tag k="name" v="Havreneset" />
		<tag k="natural" v="cape" />
		<tag k="ssr:stedsnr" v="414476" />
	</node>
	<node id="-537588" lat="61.7771277805" lon="4.96954167323">
		<tag k="alt_name" v="Visholmen" />
		<tag k="name" v="Vessholmen" />
		<tag k="place" v="islet" />
		<tag k="ssr:stedsnr" v="414406" />
	</node>
	<node id="-536403" lat="61.7592166645" lon="4.88889166648">
		<tag k="fixme" v="consider seamark:type=rock or natural=shoal" />
		<tag k="name" v="Langeskjera" />
		<tag k="place" v="islet" />
		<tag k="ssr:stedsnr" v="353494" />
	</node>
	<node id="-537582" lat="61.8210250012" lon="4.92106389281">
		<tag k="name" v="Grotneset" />
		<tag k="natural" v="cape" />
		<tag k="ssr:stedsnr" v="263009" />
	</node>
	<node id="-537085" lat="61.7284055573" lon="5.14844166333">
		<tag k="name" v="Litleneset" />
		<tag k="natural" v="cape" />
		<tag k="ssr:stedsnr" v="111858" />
	</node>
	<node id="-537580" lat="61.8913694425" lon="5.00972778316">
		<tag k="name" v="Molvika" />
		<tag k="natural" v="bay" />
		<tag k="ssr:stedsnr" v="253998" />
	</node>
	<node id="-537579" lat="61.9077277802" lon="4.9320555525">
		<tag k="name" v="Vernet" />
		<tag k="natural" v="cape" />
		<tag k="ssr:stedsnr" v="253985" />
	</node>
	<node id="-537578" lat="61.8942138865" lon="4.90224445083">
		<tag k="name" v="Styreneset" />
		<tag k="natural" v="cape" />
		<tag k="ssr:stedsnr" v="253981" />
	</node>
	<node id="-537576" lat="61.785352779" lon="4.84828332712">
		<tag k="name" v="Frøya" />
		<tag k="place" v="island" />
		<tag k="ssr:stedsnr" v="253850" />
	</node>
	<node id="-537572" lat="61.7915305562" lon="4.79140554754">
		<tag k="alt_name" v="Muleneset" />
		<tag k="name" v="Mulen" />
		<tag k="natural" v="cape" />
		<tag k="ssr:stedsnr" v="253813" />
	</node>
	<node id="-537082" lat="61.8603972201" lon="5.73847223036">
		<tag k="name" v="Englestadvika" />
		<tag k="natural" v="bay" />
		<tag k="ssr:stedsnr" v="111774" />
	</node>
	<node id="-537557" lat="61.8238694433" lon="5.13526943579">
		<tag k="name" v="Kviteneset" />
		<tag k="natural" v="cape" />
		<tag k="ssr:stedsnr" v="253127" />
	</node>
	<node id="-537545" lat="61.7716129234" lon="4.91219023534">
		<tag k="alt_name" v="Hamrøy" />
		<tag k="name" v="Hamrøya" />
		<tag k="place" v="islet" />
		<tag k="ssr:stedsnr" v="252817" />
	</node>
	<node id="-536395" lat="61.7642305586" lon="4.84589721535">
		<tag k="name" v="Langevågen" />
		<tag k="natural" v="bay" />
		<tag k="ssr:stedsnr" v="353410" />
	</node>
	<node id="-537524" lat="61.7353555558" lon="4.95658333375">
		<tag k="name" v="Vengane" />
		<tag k="place" v="islet" />
		<tag k="ssr:stedsnr" v="251483" />
	</node>
	<node id="-537523" lat="61.7273500013" lon="4.74057221447">
		<tag k="name" v="Jakobsflua" />
		<tag k="natural" v="shoal" />
		<tag k="place" v="locality" />
		<tag k="ssr:stedsnr" v="251467" />
	</node>
	<node id="-537519" lat="61.8280027818" lon="4.7872972237">
		<tag k="name" v="Nordre Rognflua" />
		<tag k="natural" v="shoal" />
		<tag k="place" v="locality" />
		<tag k="ssr:stedsnr" v="236899" />
	</node>
	<node id="-537518" lat="61.7692694485" lon="4.73810832671">
		<tag k="name" v="Hamrane" />
		<tag k="natural" v="shoal" />
		<tag k="place" v="locality" />
		<tag k="ssr:stedsnr" v="236876" />
	</node>
	<node id="-537517" lat="61.8639611095" lon="5.14275832998">
		<tag k="name" v="Botnen" />
		<tag k="natural" v="bay" />
		<tag k="ssr:stedsnr" v="236427" />
	</node>
	<node id="-537516" lat="61.8442055543" lon="5.29645833986">
		<tag k="name" v="Tussurdskallen" />
		<tag k="natural" v="shoal" />
		<tag k="place" v="locality" />
		<tag k="ssr:stedsnr" v="236041" />
	</node>
	<node id="-537515" lat="61.8173055544" lon="5.24250832957">
		<tag k="name" v="Løypingneset" />
		<tag k="natural" v="cape" />
		<tag k="ssr:stedsnr" v="236040" />
	</node>
	<node id="-537514" lat="61.898972223" lon="5.36653054704">
		<tag k="name" v="Brurahammaren" />
		<tag k="natural" v="cape" />
		<tag k="ssr:stedsnr" v="236026" />
	</node>
	<node id="-537512" lat="61.8812833299" lon="5.1348055477">
		<tag k="name" v="Bjørnøyflua" />
		<tag k="natural" v="shoal" />
		<tag k="place" v="locality" />
		<tag k="ssr:stedsnr" v="235832" />
	</node>
	<node id="-537511" lat="61.750911108" lon="4.86364445295">
		<tag k="name" v="Naustflua" />
		<tag k="natural" v="shoal" />
		<tag k="place" v="locality" />
		<tag k="ssr:stedsnr" v="235822" />
	</node>
	<node id="-537510" lat="61.8081472192" lon="4.8887500098">
		<tag k="name" v="Tellebåane" />
		<tag k="natural" v="shoal" />
		<tag k="place" v="locality" />
		<tag k="ssr:stedsnr" v="235688" />
	</node>
	<node id="-537509" lat="61.7785527737" lon="4.92725277328">
		<tag k="name" v="Makrellvågen" />
		<tag k="natural" v="bay" />
		<tag k="ssr:stedsnr" v="235682" />
	</node>
	<node id="-537508" lat="61.8060666684" lon="5.05947500345">
		<tag k="name" v="Avløysingen" />
		<tag k="natural" v="shoal" />
		<tag k="place" v="locality" />
		<tag k="ssr:stedsnr" v="235485" />
	</node>
	<node id="-537506" lat="61.7708638846" lon="5.28694444448">
		<tag k="name" v="Flua" />
		<tag k="natural" v="shoal" />
		<tag k="place" v="locality" />
		<tag k="ssr:stedsnr" v="235200" />
	</node>
	<node id="-537505" lat="61.763141665" lon="5.2413666588">
		<tag k="name" v="Notastanga" />
		<tag k="natural" v="cape" />
		<tag k="ssr:stedsnr" v="235196" />
	</node>
	<node id="-537503" lat="61.7981805568" lon="4.94643889011">
		<tag k="name" v="Vågen" />
		<tag k="natural" v="bay" />
		<tag k="ssr:stedsnr" v="235549" />
	</node>
	<node id="-537499" lat="61.8780222249" lon="5.09744445358">
		<tag k="name" v="Gangholmen" />
		<tag k="place" v="islet" />
		<tag k="ssr:stedsnr" v="233673" />
	</node>
	<node id="-537494" lat="61.8348138885" lon="4.932513896">
		<tag k="fixme" v="consider seamark:type=rock or natural=shoal" />
		<tag k="name" v="Sandhaugskjeret" />
		<tag k="place" v="islet" />
		<tag k="ssr:stedsnr" v="233008" />
	</node>
	<node id="-537486" lat="61.7241833332" lon="4.98127777802">
		<tag k="name" v="Neset" />
		<tag k="natural" v="cape" />
		<tag k="ssr:stedsnr" v="232961" />
	</node>
	<node id="-536727" lat="61.7975999959" lon="4.91301111409">
		<tag k="fixme" v="consider seamark:type=rock or natural=shoal" />
		<tag k="name" v="Fiskeskjeret" />
		<tag k="place" v="islet" />
		<tag k="ssr:stedsnr" v="478667" />
	</node>
	<node id="-537478" lat="61.7246083345" lon="5.10338333935">
		<tag k="name" v="Tobbehola" />
		<tag k="natural" v="beach" />
		<tag k="place" v="locality" />
		<tag k="ssr:stedsnr" v="232879" />
	</node>
	<node id="-537476" lat="61.7362694441" lon="5.13795556045">
		<tag k="name" v="Ramseviknes" />
		<tag k="natural" v="cape" />
		<tag k="ssr:stedsnr" v="232877" />
	</node>
	<node id="-537475" lat="61.7281305551" lon="5.11814443752">
		<tag k="name" v="Arnestokken" />
		<tag k="natural" v="beach" />
		<tag k="place" v="locality" />
		<tag k="ssr:stedsnr" v="232865" />
	</node>
	<node id="-537474" lat="61.7419361099" lon="5.14815832709">
		<tag k="name" v="Skarveneset" />
		<tag k="natural" v="cape" />
		<tag k="ssr:stedsnr" v="232860" />
	</node>
	<node id="-537473" lat="61.7360611127" lon="5.16515277866">
		<tag k="name" v="Furenesholmen" />
		<tag k="natural" v="bay" />
		<tag k="ssr:stedsnr" v="232858" />
	</node>
	<node id="-536725" lat="61.8098194408" lon="5.08160277498">
		<tag k="name" v="Skarsteinsfluene" />
		<tag k="natural" v="shoal" />
		<tag k="place" v="locality" />
		<tag k="ssr:stedsnr" v="478450" />
	</node>
	<node id="-537468" lat="61.7624305534" lon="5.16976944865">
		<tag k="name" v="Olavika" />
		<tag k="natural" v="bay" />
		<tag k="ssr:stedsnr" v="232768" />
	</node>
	<node id="-537463" lat="61.8417972178" lon="5.75886389038">
		<tag k="name" v="Fureneset" />
		<tag k="natural" v="cape" />
		<tag k="ssr:stedsnr" v="232730" />
	</node>
	<node id="-537462" lat="61.8448527805" lon="5.71688611629">
		<tag k="name" v="Kummeneset" />
		<tag k="natural" v="cape" />
		<tag k="ssr:stedsnr" v="232716" />
	</node>
	<node id="-537459" lat="61.8390638904" lon="5.72551944325">
		<tag k="name" v="Sageneset" />
		<tag k="natural" v="cape" />
		<tag k="ssr:stedsnr" v="232704" />
	</node>
	<node id="-537456" lat="61.8288638917" lon="5.12213332751">
		<tag k="name" v="Vågen" />
		<tag k="natural" v="strait" />
		<tag k="ssr:stedsnr" v="232568" />
	</node>
	<node id="-537455" lat="61.8901861087" lon="5.33348888319">
		<tag k="name" v="Grisevika" />
		<tag k="natural" v="bay" />
		<tag k="ssr:stedsnr" v="232565" />
	</node>
	<node id="-537454" lat="61.8923944409" lon="5.32697222606">
		<tag k="name" v="Klungreholmane" />
		<tag k="place" v="islet" />
		<tag k="ssr:stedsnr" v="232563" />
	</node>
	<node id="-537452" lat="61.8917527817" lon="5.35351666274">
		<tag k="name" v="Grunnesvika" />
		<tag k="natural" v="bay" />
		<tag k="ssr:stedsnr" v="232549" />
	</node>
	<node id="-537446" lat="61.8385722266" lon="5.29409444242">
		<tag k="alt_name" v="Djupet" />
		<tag k="name" v="Marøydjupet" />
		<tag k="natural" v="strait" />
		<tag k="ssr:stedsnr" v="232515" />
	</node>
	<node id="-537445" lat="61.8404416693" lon="5.30564722969">
		<tag k="name" v="Gardsvika" />
		<tag k="natural" v="bay" />
		<tag k="ssr:stedsnr" v="232514" />
	</node>
	<node id="-537444" lat="61.8344777822" lon="5.29498888661">
		<tag k="fixme" v="consider seamark:type=rock or natural=shoal" />
		<tag k="name" v="Hella" />
		<tag k="place" v="islet" />
		<tag k="ssr:stedsnr" v="232509" />
	</node>
	<node id="-537062" lat="61.8366777736" lon="5.2774916737">
		<tag k="name" v="Søre Marøyneset" />
		<tag k="natural" v="cape" />
		<tag k="ssr:stedsnr" v="111548" />
	</node>
	<node id="-537442" lat="61.8658805587" lon="5.24383889439">
		<tag k="name" v="Fureneset" />
		<tag k="natural" v="cape" />
		<tag k="ssr:stedsnr" v="232495" />
	</node>
	<node id="-536402" lat="61.7649277821" lon="4.82531666703">
		<tag k="name" v="Litlhavrøya" />
		<tag k="place" v="islet" />
		<tag k="ssr:stedsnr" v="353489" />
	</node>
	<node id="-537439" lat="61.8026666705" lon="5.14462221297">
		<tag k="name" v="Nordavindshamnen" />
		<tag k="natural" v="bay" />
		<tag k="ssr:stedsnr" v="232468" />
	</node>
	<node id="-537438" lat="61.776933333" lon="4.81930555019">
		<tag k="fixme" v="consider seamark:type=rock or natural=shoal" />
		<tag k="name" v="Molvikskjeret" />
		<tag k="place" v="islet" />
		<tag k="ssr:stedsnr" v="232454" />
	</node>
	<node id="-537437" lat="61.7666388864" lon="4.81613889726">
		<tag k="name" v="Havrøyvika" />
		<tag k="natural" v="bay" />
		<tag k="ssr:stedsnr" v="232433" />
	</node>
	<node id="-537432" lat="61.7824861131" lon="4.96611110339">
		<tag k="name" v="Vika" />
		<tag k="natural" v="bay" />
		<tag k="ssr:stedsnr" v="232378" />
	</node>
	<node id="-537430" lat="61.7648305513" lon="4.88398333334">
		<tag k="name" v="Djupholmen" />
		<tag k="place" v="islet" />
		<tag k="ssr:stedsnr" v="232358" />
	</node>
	<node id="-537428" lat="61.7701166694" lon="4.84280556343">
		<tag k="name" v="Vågeneset" />
		<tag k="natural" v="cape" />
		<tag k="ssr:stedsnr" v="232353" />
	</node>
	<node id="-537057" lat="61.7446777771" lon="4.81296945225">
		<tag k="fixme" v="consider seamark:type=rock or natural=shoal" />
		<tag k="name" v="Simosteinen" />
		<tag k="place" v="islet" />
		<tag k="ssr:stedsnr" v="111462" />
	</node>
	<node id="-537411" lat="61.7938472233" lon="4.8865361045">
		<tag k="name" v="Varenesvika" />
		<tag k="natural" v="bay" />
		<tag k="ssr:stedsnr" v="232036" />
	</node>
	<node id="-536715" lat="61.7784611107" lon="4.95666666025">
		<tag k="name" v="Brendeholmen" />
		<tag k="place" v="islet" />
		<tag k="ssr:stedsnr" v="477579" />
	</node>
	<node id="-537056" lat="61.75864167" lon="4.83088887911">
		<tag k="name" v="Ausa" />
		<tag k="natural" v="cape" />
		<tag k="ssr:stedsnr" v="111450" />
	</node>
	<node id="-537406" lat="61.8931138865" lon="5.55396943565">
		<tag k="name" v="Davika" />
		<tag k="natural" v="bay" />
		<tag k="ssr:stedsnr" v="221797" />
	</node>
	<node id="-537404" lat="61.8127027803" lon="4.85843888321">
		<tag k="name" v="Nesjeryggen" />
		<tag k="natural" v="shoal" />
		<tag k="place" v="locality" />
		<tag k="ssr:stedsnr" v="208745" />
	</node>
	<node id="-536371" lat="61.793222225" lon="4.8880583277">
		<tag k="name" v="Vareneset" />
		<tag k="natural" v="cape" />
		<tag k="ssr:stedsnr" v="414037" />
	</node>
	<node id="-537391" lat="61.7635388933" lon="4.76447777586">
		<tag k="fixme" v="consider seamark:type=rock or natural=shoal" />
		<tag k="name" v="Ytsteskjeret" />
		<tag k="place" v="islet" />
		<tag k="ssr:stedsnr" v="192876" />
	</node>
	<node id="-537387" lat="61.8061916661" lon="4.90992777128">
		<tag k="name" v="Bremnes" />
		<tag k="natural" v="cape" />
		<tag k="ssr:stedsnr" v="192848" />
	</node>
	<node id="-538202" lat="61.7672975723" lon="4.81930655366">
		<tag k="name" v="Havrøya" />
		<tag k="place" v="island" />
		<tag k="ssr:stedsnr" v="616859" />
	</node>
	<node id="-537385" lat="61.8326888926" lon="5.21860834109">
		<tag k="name" v="Klubben" />
		<tag k="natural" v="cape" />
		<tag k="ssr:stedsnr" v="192820" />
	</node>
	<node id="-537379" lat="61.9052333363" lon="5.52011666183">
		<tag k="name" v="Uglestranda" />
		<tag k="natural" v="beach" />
		<tag k="place" v="locality" />
		<tag k="ssr:stedsnr" v="192443" />
	</node>
	<node id="-537367" lat="61.8893472256" lon="5.31651666269">
		<tag k="name" v="Kråkevågen" />
		<tag k="natural" v="bay" />
		<tag k="ssr:stedsnr" v="192224" />
	</node>
	<node id="-536726" lat="61.8215277781" lon="5.11692221938">
		<tag k="name" v="Kreksa" />
		<tag k="natural" v="shoal" />
		<tag k="place" v="locality" />
		<tag k="ssr:stedsnr" v="478459" />
	</node>
	<node id="-537361" lat="61.8409947691" lon="5.28278429052">
		<tag k="name" v="Marøya" />
		<tag k="place" v="island" />
		<tag k="ssr:stedsnr" v="192160" />
	</node>
	<node id="-537357" lat="61.8151944409" lon="5.20704445283">
		<tag k="name" v="Hennøya" />
		<tag k="place" v="island" />
		<tag k="ssr:stedsnr" v="192134" />
	</node>
	<node id="-538071" lat="61.778763889" lon="4.94735000852">
		<tag k="name" v="Kvernavika" />
		<tag k="natural" v="bay" />
		<tag k="ssr:stedsnr" v="596406" />
	</node>
	<node id="-537352" lat="61.7626499982" lon="5.16274723136">
		<tag k="name" v="Storeholmen" />
		<tag k="place" v="islet" />
		<tag k="ssr:stedsnr" v="192098" />
	</node>
	<node id="-537343" lat="61.7176666649" lon="4.79558333714">
		<tag k="fixme" v="consider seamark:type=rock or natural=shoal" />
		<tag k="name" v="Tåa" />
		<tag k="place" v="islet" />
		<tag k="ssr:stedsnr" v="190485" />
	</node>
	<node id="-537342" lat="61.7362861143" lon="4.94887778464">
		<tag k="name" v="Skadvengen" />
		<tag k="place" v="islet" />
		<tag k="ssr:stedsnr" v="190474" />
	</node>
	<node id="-537341" lat="61.7189388912" lon="4.80242222916">
		<tag k="name" v="Tåboen" />
		<tag k="natural" v="shoal" />
		<tag k="place" v="locality" />
		<tag k="ssr:stedsnr" v="190461" />
	</node>
	<node id="-537340" lat="61.7261611079" lon="4.80846389861">
		<tag k="fixme" v="consider seamark:type=rock or natural=shoal" />
		<tag k="name" v="Kobbeskjeret" />
		<tag k="place" v="islet" />
		<tag k="ssr:stedsnr" v="190459" />
	</node>
	<node id="-537338" lat="61.835311113" lon="4.98359445185">
		<tag k="name" v="Erkeflua" />
		<tag k="natural" v="shoal" />
		<tag k="place" v="locality" />
		<tag k="ssr:stedsnr" v="175964" />
	</node>
	<node id="-536703" lat="61.7175972267" lon="5.10685278139">
		<tag k="name" v="Klubbeneset" />
		<tag k="natural" v="cape" />
		<tag k="ssr:stedsnr" v="475907" />
	</node>
	<node id="-537336" lat="61.834694441" lon="4.92548610409">
		<tag k="name" v="Storesandtaren" />
		<tag k="natural" v="shoal" />
		<tag k="place" v="locality" />
		<tag k="ssr:stedsnr" v="175907" />
	</node>
	<node id="-537335" lat="61.8274111074" lon="4.74621388983">
		<tag k="name" v="Nordre Håskallen" />
		<tag k="natural" v="shoal" />
		<tag k="place" v="locality" />
		<tag k="ssr:stedsnr" v="175893" />
	</node>
	<node id="-537334" lat="61.8023888876" lon="4.80600833904">
		<tag k="fixme" v="consider seamark:type=rock or natural=shoal" />
		<tag k="name" v="Hovmannsskjeret" />
		<tag k="place" v="islet" />
		<tag k="ssr:stedsnr" v="175887" />
	</node>
	<node id="-537333" lat="61.7996861112" lon="4.91510832448">
		<tag k="name" v="Marineset" />
		<tag k="natural" v="cape" />
		<tag k="ssr:stedsnr" v="175661" />
	</node>
	<node id="-537332" lat="61.798272221" lon="4.91687221364">
		<tag k="name" v="Buaholmen" />
		<tag k="place" v="islet" />
		<tag k="ssr:stedsnr" v="175657" />
	</node>
	<node id="-537330" lat="61.797236612" lon="4.9143785671">
		<tag k="fixme" v="consider seamark:type=rock or natural=shoal" />
		<tag k="name" v="Kjerpesetskjera" />
		<tag k="place" v="islet" />
		<tag k="ssr:stedsnr" v="175645" />
	</node>
	<node id="-537329" lat="61.8136138855" lon="4.88811389614">
		<tag k="name" v="Langebåen" />
		<tag k="natural" v="shoal" />
		<tag k="place" v="locality" />
		<tag k="ssr:stedsnr" v="175641" />
	</node>
	<node id="-537327" lat="61.731888889" lon="4.78500000121">
		<tag k="name" v="Brørne" />
		<tag k="natural" v="shoal" />
		<tag k="place" v="locality" />
		<tag k="ssr:stedsnr" v="175484" />
	</node>
	<node id="-537325" lat="61.8480305547" lon="5.34972500564">
		<tag k="bay" v="fjord" />
		<tag k="name" v="Bortnefjorden" />
		<tag k="natural" v="bay" />
		<tag k="ssr:stedsnr" v="175022" />
	</node>
	<node id="-537324" lat="61.8895055564" lon="5.34295278059">
		<tag k="fixme" v="consider seamark:type=rock or natural=shoal" />
		<tag k="name" v="Saltsteinen" />
		<tag k="place" v="islet" />
		<tag k="ssr:stedsnr" v="175020" />
	</node>
	<node id="-537323" lat="61.8906361115" lon="4.84623611279">
		<tag k="name" v="Breifluene" />
		<tag k="natural" v="shoal" />
		<tag k="place" v="locality" />
		<tag k="ssr:stedsnr" v="174873" />
	</node>
	<node id="-537322" lat="61.706338892" lon="5.11104166609">
		<tag k="name" v="Sørevika" />
		<tag k="natural" v="bay" />
		<tag k="ssr:stedsnr" v="174708" />
	</node>
	<node id="-537320" lat="61.7767000011" lon="4.95728054625">
		<tag k="name" v="Benken" />
		<tag k="natural" v="cape" />
		<tag k="ssr:stedsnr" v="174588" />
	</node>
	<node id="-537317" lat="61.9131555529" lon="4.90858889428">
		<tag k="name" v="Kvitnesflua" />
		<tag k="natural" v="shoal" />
		<tag k="place" v="locality" />
		<tag k="ssr:stedsnr" v="174455" />
	</node>
	<node id="-537316" lat="61.9089750044" lon="4.90798611908">
		<tag k="name" v="Feste" />
		<tag k="natural" v="shoal" />
		<tag k="place" v="locality" />
		<tag k="ssr:stedsnr" v="174454" />
	</node>
	<node id="-537315" lat="61.7512388894" lon="5.13079721456">
		<tag k="name" v="Ternøyskukken" />
		<tag k="natural" v="shoal" />
		<tag k="place" v="locality" />
		<tag k="ssr:stedsnr" v="174211" />
	</node>
	<node id="-536699" lat="61.7088361127" lon="5.12198056308">
		<tag k="name" v="Jakteneset" />
		<tag k="natural" v="cape" />
		<tag k="ssr:stedsnr" v="475887" />
	</node>
	<node id="-537312" lat="61.7528750035" lon="5.08776110883">
		<tag k="name" v="Haldevik" />
		<tag k="natural" v="bay" />
		<tag k="ssr:stedsnr" v="172862" />
	</node>
	<node id="-536357" lat="61.9071000026" lon="4.77213056399">
		<tag k="name" v="Skurken" />
		<tag k="natural" v="shoal" />
		<tag k="place" v="locality" />
		<tag k="ssr:stedsnr" v="313982" />
	</node>
	<node id="-536698" lat="61.7094388855" lon="5.10789721749">
		<tag k="name" v="Legeneset" />
		<tag k="natural" v="cape" />
		<tag k="ssr:stedsnr" v="475886" />
	</node>
	<node id="-539351" lat="61.7433222202" lon="4.7202361033">
		<tag k="name" v="Grunneflua" />
		<tag k="natural" v="shoal" />
		<tag k="place" v="locality" />
		<tag k="ssr:stedsnr" v="964920" />
	</node>
	<node id="-539350" lat="61.8333888898" lon="4.90274722593">
		<tag k="name" v="Kyrkjeflua" />
		<tag k="natural" v="shoal" />
		<tag k="place" v="locality" />
		<tag k="ssr:stedsnr" v="964886" />
	</node>
	<node id="-537301" lat="61.7917083324" lon="4.91260832492">
		<tag k="name" v="Avlaupet" />
		<tag k="place" v="islet" />
		<tag k="ssr:stedsnr" v="172033" />
	</node>
	<node id="-539348" lat="61.8736972225" lon="5.24996666955">
		<tag k="name" v="Nygårdsvika" />
		<tag k="natural" v="bay" />
		<tag k="ssr:stedsnr" v="963911" />
	</node>
	<node id="-539347" lat="61.7443138847" lon="5.09934443703">
		<tag k="name" v="Stegevika" />
		<tag k="natural" v="bay" />
		<tag k="ssr:stedsnr" v="963824" />
	</node>
	<node id="-539346" lat="61.8922083295" lon="5.21508611414">
		<tag k="name" v="Skorpeflua" />
		<tag k="natural" v="shoal" />
		<tag k="place" v="locality" />
		<tag k="ssr:stedsnr" v="963820" />
	</node>
	<node id="-539345" lat="61.838566668" lon="4.99014722134">
		<tag k="name" v="Struenhamn" />
		<tag k="natural" v="bay" />
		<tag k="ssr:stedsnr" v="963778" />
	</node>
	<node id="-536696" lat="61.7613861086" lon="5.11150833614">
		<tag k="name" v="Merkingsneset" />
		<tag k="natural" v="cape" />
		<tag k="ssr:stedsnr" v="475819" />
	</node>
	<node id="-539342" lat="61.7436555585" lon="5.13607222767">
		<tag k="name" v="Revet" />
		<tag k="natural" v="shoal" />
		<tag k="place" v="locality" />
		<tag k="ssr:stedsnr" v="963707" />
	</node>
	<node id="-537293" lat="61.7575416664" lon="5.0378527787">
		<tag k="name" v="Litlesommaren" />
		<tag k="natural" v="beach" />
		<tag k="place" v="locality" />
		<tag k="ssr:stedsnr" v="171930" />
	</node>
	<node id="-537288" lat="61.7190999991" lon="5.17309443549">
		<tag k="name" v="Pollaneset" />
		<tag k="natural" v="cape" />
		<tag k="ssr:stedsnr" v="171912" />
	</node>
	<node id="-537287" lat="61.7151916695" lon="4.97115277461">
		<tag k="name" v="Tarevika" />
		<tag k="natural" v="bay" />
		<tag k="ssr:stedsnr" v="171991" />
	</node>
	<node id="-539334" lat="61.8833138861" lon="5.11233889593">
		<tag k="name" v="Vestre Bjørnøytangen" />
		<tag k="natural" v="cape" />
		<tag k="ssr:stedsnr" v="961663" />
	</node>
	<node id="-539331" lat="61.8003305572" lon="4.88593055382">
		<tag k="fixme" v="consider seamark:type=rock or natural=shoal" />
		<tag k="name" v="Maltsekken" />
		<tag k="place" v="islet" />
		<tag k="ssr:stedsnr" v="961109" />
	</node>
	<node id="-539330" lat="61.7901555531" lon="4.92779443668">
		<tag k="name" v="Skutevika" />
		<tag k="natural" v="bay" />
		<tag k="ssr:stedsnr" v="961048" />
	</node>
	<node id="-539329" lat="61.8138833358" lon="4.90296389112">
		<tag k="name" v="Korsvika" />
		<tag k="natural" v="bay" />
		<tag k="ssr:stedsnr" v="961022" />
	</node>
	<node id="-539327" lat="61.8493750039" lon="4.82725276858">
		<tag k="name" v="Smeisundvika" />
		<tag k="natural" v="bay" />
		<tag k="ssr:stedsnr" v="961002" />
	</node>
	<node id="-539322" lat="61.7099166692" lon="4.97489166953">
		<tag k="name" v="Dyrevomma" />
		<tag k="natural" v="cape" />
		<tag k="ssr:stedsnr" v="960987" />
	</node>
	<node id="-537271" lat="61.7206416676" lon="5.10571944173">
		<tag k="name" v="Sagebøneset" />
		<tag k="natural" v="cape" />
		<tag k="ssr:stedsnr" v="171907" />
	</node>
	<node id="-539318" lat="61.7241611111" lon="4.97846111488">
		<tag k="name" v="Sørbottenvika" />
		<tag k="natural" v="bay" />
		<tag k="ssr:stedsnr" v="960964" />
	</node>
	<node id="-537267" lat="61.7517805581" lon="5.14796389067">
		<tag k="alt_name" v="Tennøysundet" />
		<tag k="name" v="Ternøysundet" />
		<tag k="natural" v="strait" />
		<tag k="ssr:stedsnr" v="171801" />
	</node>
	<node id="-537266" lat="61.7758944405" lon="5.23510277129">
		<tag k="name" v="Litle Bryneneset" />
		<tag k="natural" v="cape" />
		<tag k="ssr:stedsnr" v="171786" />
	</node>
	<node id="-537264" lat="61.8432583367" lon="5.69726389578">
		<tag k="name" v="Huken" />
		<tag k="natural" v="beach" />
		<tag k="place" v="locality" />
		<tag k="ssr:stedsnr" v="171771" />
	</node>
	<node id="-539311" lat="61.7220194472" lon="5.17533611483">
		<tag k="name" v="Ivavika" />
		<tag k="natural" v="bay" />
		<tag k="ssr:stedsnr" v="960896" />
	</node>
	<node id="-539310" lat="61.7044972203" lon="5.16056110975">
		<tag k="name" v="Kviteneset" />
		<tag k="natural" v="cape" />
		<tag k="ssr:stedsnr" v="960893" />
	</node>
	<node id="-538973" lat="61.8477888866" lon="4.88227222368">
		<tag k="name" v="Grottesvika" />
		<tag k="natural" v="bay" />
		<tag k="ssr:stedsnr" v="843903" />
	</node>
	<node id="-537257" lat="61.8687416664" lon="5.25889167165">
		<tag k="alt_name" v="Gloføkholmen" />
		<tag k="name" v="Gloføykholmen" />
		<tag k="place" v="islet" />
		<tag k="ssr:stedsnr" v="171619" />
	</node>
	<node id="-537256" lat="61.8711888858" lon="5.26937499855">
		<tag k="name" v="Molvika" />
		<tag k="natural" v="bay" />
		<tag k="ssr:stedsnr" v="171616" />
	</node>
	<node id="-539302" lat="61.7286416698" lon="5.1039583246">
		<tag k="alt_name" v="Stegen" />
		<tag k="name" v="Stegneset" />
		<tag k="natural" v="cape" />
		<tag k="ssr:stedsnr" v="960852" />
	</node>
	<node id="-539300" lat="61.738555554" lon="5.15134166547">
		<tag k="name" v="Nesodden" />
		<tag k="natural" v="cape" />
		<tag k="ssr:stedsnr" v="960849" />
	</node>
	<node id="-537251" lat="61.814061114" lon="5.19571388805">
		<tag k="name" v="Litle Hennøya" />
		<tag k="natural" v="cape" />
		<tag k="ssr:stedsnr" v="171531" />
	</node>
	<node id="-537248" lat="61.8751472216" lon="5.21924443935">
		<tag k="fixme" v="consider seamark:type=rock or natural=shoal" />
		<tag k="name" v="Hamnaskjeret" />
		<tag k="place" v="islet" />
		<tag k="ssr:stedsnr" v="171579" />
	</node>
	<node id="-539295" lat="61.7725916636" lon="5.16314999324">
		<tag k="name" v="Klubbeneset" />
		<tag k="natural" v="cape" />
		<tag k="ssr:stedsnr" v="960770" />
	</node>
	<node id="-539291" lat="61.8425666661" lon="5.76593054896">
		<tag k="name" v="Skutevika" />
		<tag k="natural" v="bay" />
		<tag k="ssr:stedsnr" v="960742" />
	</node>
	<node id="-537242" lat="61.7525388931" lon="4.85544443812">
		<tag k="name" v="Lisetvika" />
		<tag k="natural" v="bay" />
		<tag k="ssr:stedsnr" v="171394" />
	</node>
	<node id="-537241" lat="61.7525583326" lon="4.86481388677">
		<tag k="name" v="Storeneset" />
		<tag k="natural" v="cape" />
		<tag k="ssr:stedsnr" v="171392" />
	</node>
	<node id="-539288" lat="61.8412249993" lon="5.14851110682">
		<tag k="name" v="Langeneset" />
		<tag k="natural" v="cape" />
		<tag k="ssr:stedsnr" v="960613" />
	</node>
	<node id="-537240" lat="61.7533944452" lon="4.86697778084">
		<tag k="name" v="Litleneset" />
		<tag k="natural" v="cape" />
		<tag k="ssr:stedsnr" v="171389" />
	</node>
	<node id="-539282" lat="61.8571555548" lon="5.31321945298">
		<tag k="name" v="Porsneset" />
		<tag k="natural" v="cape" />
		<tag k="ssr:stedsnr" v="960596" />
	</node>
	<node id="-539279" lat="61.9055638922" lon="5.52703611055">
		<tag k="name" v="Stomnaneset" />
		<tag k="natural" v="cape" />
		<tag k="ssr:stedsnr" v="960585" />
	</node>
	<node id="-539276" lat="61.9066888884" lon="5.46528332503">
		<tag k="name" v="Botnen" />
		<tag k="natural" v="beach" />
		<tag k="place" v="locality" />
		<tag k="ssr:stedsnr" v="960580" />
	</node>
	<node id="-539275" lat="61.8851361149" lon="5.22384165838">
		<tag k="name" v="Skorpepollen" />
		<tag k="natural" v="bay" />
		<tag k="ssr:stedsnr" v="960577" />
	</node>
	<node id="-539270" lat="61.8651805542" lon="5.24699444936">
		<tag k="name" v="Furnesvika" />
		<tag k="natural" v="bay" />
		<tag k="ssr:stedsnr" v="960558" />
	</node>
	<node id="-539266" lat="61.810213891" lon="5.20208054674">
		<tag k="name" v="Langeneset" />
		<tag k="natural" v="cape" />
		<tag k="ssr:stedsnr" v="960526" />
	</node>
	<node id="-539264" lat="61.8168249963" lon="5.19741944029">
		<tag k="name" v="Inste Hennøyholmen" />
		<tag k="place" v="islet" />
		<tag k="ssr:stedsnr" v="960519" />
	</node>
	<node id="-539263" lat="61.8118805555" lon="5.20893889045">
		<tag k="alt_name" v="Litle Hennøya" />
		<tag k="name" v="Holmen" />
		<tag k="place" v="islet" />
		<tag k="ssr:stedsnr" v="960517" />
	</node>
	<node id="-539262" lat="61.7544000012" lon="4.81630833855">
		<tag k="name" v="Belgetoten" />
		<tag k="natural" v="cape" />
		<tag k="ssr:stedsnr" v="960479" />
	</node>
	<node id="-536721" lat="61.8159666672" lon="4.94182778127">
		<tag k="name" v="Klubbetaren" />
		<tag k="natural" v="shoal" />
		<tag k="place" v="locality" />
		<tag k="ssr:stedsnr" v="477834" />
	</node>
	<node id="-537212" lat="61.8003555558" lon="4.82115278686">
		<tag k="name" v="Ytste Kupa" />
		<tag k="natural" v="bay" />
		<tag k="ssr:stedsnr" v="171043" />
	</node>
	<node id="-539257" lat="61.7857277774" lon="4.95614166681">
		<tag k="name" v="Buktaneset" />
		<tag k="natural" v="cape" />
		<tag k="ssr:stedsnr" v="960439" />
	</node>
	<node id="-537208" lat="61.8129249955" lon="5.65611943845">
		<tag k="name" v="Sørevikneset" />
		<tag k="natural" v="cape" />
		<tag k="ssr:stedsnr" v="171112" />
	</node>
	<node id="-539255" lat="61.7799555554" lon="4.92846945098">
		<tag k="name" v="Sildegarnneset" />
		<tag k="natural" v="cape" />
		<tag k="ssr:stedsnr" v="960430" />
	</node>
	<node id="-539253" lat="61.7629722215" lon="4.84583334175">
		<tag k="name" v="Tobbeneset" />
		<tag k="natural" v="cape" />
		<tag k="ssr:stedsnr" v="960401" />
	</node>
	<node id="-537203" lat="61.9046277819" lon="5.53550555177">
		<tag k="name" v="Einestineset" />
		<tag k="natural" v="cape" />
		<tag k="ssr:stedsnr" v="160921" />
	</node>
	<node id="-537202" lat="61.8973194432" lon="5.57949445296">
		<tag k="name" v="Stranda" />
		<tag k="natural" v="beach" />
		<tag k="place" v="locality" />
		<tag k="ssr:stedsnr" v="160800" />
	</node>
	<node id="-537201" lat="61.758044436" lon="5.08803356194">
		<tag k="bay" v="fjord" />
		<tag k="name" v="Gulen" />
		<tag k="natural" v="bay" />
		<tag k="ssr:stedsnr" v="146319" />
	</node>
	<node id="-537199" lat="61.8158277779" lon="4.90473056501">
		<tag k="name" v="Grønevika" />
		<tag k="natural" v="bay" />
		<tag k="ssr:stedsnr" v="142007" />
	</node>
	<node id="-539239" lat="61.8263944402" lon="5.67707222925">
		<tag k="name" v="Sigdestadholmen" />
		<tag k="place" v="islet" />
		<tag k="ssr:stedsnr" v="960196" />
	</node>
	<node id="-537188" lat="61.7634305524" lon="5.09236665876">
		<tag k="name" v="Ospeneset" />
		<tag k="natural" v="cape" />
		<tag k="ssr:stedsnr" v="131901" />
	</node>
	<node id="-539232" lat="61.8119583312" lon="4.84614443701">
		<tag k="fixme" v="consider seamark:type=rock or natural=shoal" />
		<tag k="name" v="Skjertåa" />
		<tag k="place" v="islet" />
		<tag k="ssr:stedsnr" v="960043" />
	</node>
	<node id="-536720" lat="61.8939916668" lon="5.31106389304">
		<tag k="name" v="Kråkevågflua" />
		<tag k="natural" v="shoal" />
		<tag k="place" v="locality" />
		<tag k="ssr:stedsnr" v="477828" />
	</node>
	<node id="-539230" lat="61.7959416697" lon="4.87743332417">
		<tag k="name" v="Breivika" />
		<tag k="natural" v="bay" />
		<tag k="ssr:stedsnr" v="960025" />
	</node>
	<node id="-537181" lat="61.7934194483" lon="5.12482222363">
		<tag k="name" v="Fureneset" />
		<tag k="natural" v="cape" />
		<tag k="ssr:stedsnr" v="131823" />
	</node>
	<node id="-539225" lat="61.9115638933" lon="5.56263888858">
		<tag k="bay" v="fjord" />
		<tag k="name" v="Davikfjorden" />
		<tag k="natural" v="bay" />
		<tag k="ssr:stedsnr" v="949810" />
	</node>
	<node id="-539224" lat="61.8000583348" lon="4.86840555294">
		<tag k="name" v="Holmetaren" />
		<tag k="natural" v="shoal" />
		<tag k="place" v="locality" />
		<tag k="ssr:stedsnr" v="936707" />
	</node>
	<node id="-539223" lat="61.7801222236" lon="4.90506389507">
		<tag k="name" v="Nordre Steinholmen" />
		<tag k="place" v="islet" />
		<tag k="ssr:stedsnr" v="936694" />
	</node>
	<node id="-539222" lat="61.759680555" lon="4.90389721748">
		<tag k="name" v="Storeflua" />
		<tag k="natural" v="shoal" />
		<tag k="place" v="locality" />
		<tag k="ssr:stedsnr" v="936602" />
	</node>
	<node id="-539218" lat="61.8855166692" lon="4.91026666122">
		<tag k="name" v="Vetvika" />
		<tag k="natural" v="bay" />
		<tag k="ssr:stedsnr" v="921000" />
	</node>
	<node id="-536675" lat="61.8637666701" lon="5.30446945118">
		<tag k="name" v="Sveneset" />
		<tag k="natural" v="cape" />
		<tag k="ssr:stedsnr" v="475603" />
	</node>
	<node id="-539213" lat="61.8257111097" lon="4.7697388835">
		<tag k="name" v="Håskallen" />
		<tag k="natural" v="shoal" />
		<tag k="place" v="locality" />
		<tag k="ssr:stedsnr" v="920911" />
	</node>
	<node id="-537163" lat="61.8800523162" lon="5.32529714011">
		<tag k="alt_name" v="Storøyna" />
		<tag k="name" v="Storøya" />
		<tag k="place" v="island" />
		<tag k="ssr:stedsnr" v="131177" />
	</node>
	<node id="-539209" lat="61.7618972237" lon="4.83342221633">
		<tag k="name" v="Håøya" />
		<tag k="place" v="island" />
		<tag k="ssr:stedsnr" v="920877" />
	</node>
	<node id="-539208" lat="61.7752722231" lon="4.95978056195">
		<tag k="name" v="Vågeneset" />
		<tag k="natural" v="cape" />
		<tag k="ssr:stedsnr" v="920874" />
	</node>
	<node id="-539205" lat="61.7969972252" lon="4.88414445194">
		<tag k="name" v="Sleneset" />
		<tag k="natural" v="cape" />
		<tag k="ssr:stedsnr" v="920840" />
	</node>
	<node id="-539204" lat="61.7869249999" lon="4.79835833655">
		<tag k="name" v="Muleholmane" />
		<tag k="place" v="islet" />
		<tag k="ssr:stedsnr" v="920833" />
	</node>
	<node id="-539196" lat="61.8456416664" lon="5.72600000872">
		<tag k="name" v="Ladberget" />
		<tag k="natural" v="cape" />
		<tag k="ssr:stedsnr" v="920344" />
	</node>
	<node id="-539192" lat="61.8850834708" lon="5.32923941489">
		<tag k="alt_name" v="Litleøyna" />
		<tag k="name" v="Litleøya" />
		<tag k="place" v="islet" />
		<tag k="ssr:stedsnr" v="920178" />
	</node>
	<node id="-539190" lat="61.8509833376" lon="5.3441805492">
		<tag k="name" v="Mjånes" />
		<tag k="natural" v="cape" />
		<tag k="ssr:stedsnr" v="920152" />
	</node>
	<node id="-539189" lat="61.8467486731" lon="5.32632138749">
		<tag k="name" v="Bortneskora" />
		<tag k="natural" v="cape" />
		<tag k="ssr:stedsnr" v="920142" />
	</node>
	<node id="-539188" lat="61.8470805583" lon="5.37526389011">
		<tag k="name" v="Bortnepollen" />
		<tag k="natural" v="bay" />
		<tag k="ssr:stedsnr" v="920140" />
	</node>
	<node id="-539186" lat="61.8286638854" lon="5.16540555338">
		<tag k="alt_name" v="Bådehaugen" />
		<tag k="name" v="Båtnehaugen" />
		<tag k="natural" v="cape" />
		<tag k="ssr:stedsnr" v="920133" />
	</node>
	<node id="-539184" lat="61.7685916669" lon="5.19044443782">
		<tag k="name" v="Langeneset" />
		<tag k="natural" v="cape" />
		<tag k="ssr:stedsnr" v="920103" />
	</node>
	<node id="-537135" lat="61.7766888921" lon="4.90301666532">
		<tag k="fixme" v="consider seamark:type=rock or natural=shoal" />
		<tag k="name" v="Skjeljeskjeret" />
		<tag k="place" v="islet" />
		<tag k="ssr:stedsnr" v="120728" />
	</node>
	<node id="-537133" lat="61.8997416705" lon="4.78921666306">
		<tag k="name" v="Bataldfluene" />
		<tag k="natural" v="shoal" />
		<tag k="place" v="locality" />
		<tag k="ssr:stedsnr" v="114999" />
	</node>
	<node id="-537132" lat="61.8356583302" lon="4.92919999619">
		<tag k="name" v="Årevikneset" />
		<tag k="natural" v="cape" />
		<tag k="ssr:stedsnr" v="114934" />
	</node>
	<node id="-537131" lat="61.843177782" lon="4.86796110828">
		<tag k="name" v="Vikaflua" />
		<tag k="natural" v="shoal" />
		<tag k="place" v="locality" />
		<tag k="ssr:stedsnr" v="114927" />
	</node>
	<node id="-537129" lat="61.8529472259" lon="4.81357221555">
		<tag k="fixme" v="consider seamark:type=rock or natural=shoal" />
		<tag k="name" v="Midtskjeret" />
		<tag k="place" v="islet" />
		<tag k="ssr:stedsnr" v="114919" />
	</node>
	<node id="-537128" lat="61.8082166699" lon="4.81376388796">
		<tag k="name" v="Hornflua" />
		<tag k="natural" v="shoal" />
		<tag k="place" v="locality" />
		<tag k="ssr:stedsnr" v="114908" />
	</node>
	<node id="-539175" lat="61.7357787058" lon="5.1081110793">
		<tag k="name" v="Notaberget" />
		<tag k="natural" v="cape" />
		<tag k="ssr:stedsnr" v="918838" />
	</node>
	<node id="-537126" lat="61.817591664" lon="4.89793888389">
		<tag k="name" v="Fausken" />
		<tag k="natural" v="shoal" />
		<tag k="place" v="locality" />
		<tag k="ssr:stedsnr" v="114663" />
	</node>
	<node id="-537125" lat="61.9051530051" lon="5.37897886642">
		<tag k="name" v="Årvikneset" />
		<tag k="natural" v="cape" />
		<tag k="ssr:stedsnr" v="114639" />
	</node>
	<node id="-539172" lat="61.7226638856" lon="5.0013333333">
		<tag k="name" v="Pollen" />
		<tag k="natural" v="bay" />
		<tag k="ssr:stedsnr" v="918493" />
	</node>
	<node id="-539171" lat="61.833133338" lon="4.98323334068">
		<tag k="name" v="Fløholmen" />
		<tag k="natural" v="shoal" />
		<tag k="place" v="locality" />
		<tag k="ssr:stedsnr" v="903973" />
	</node>
	<node id="-539170" lat="61.837744443" lon="4.98135555358">
		<tag k="name" v="Blåhella" />
		<tag k="natural" v="cape" />
		<tag k="ssr:stedsnr" v="903964" />
	</node>
	<node id="-539169" lat="61.8297583308" lon="4.81438055586">
		<tag k="name" v="Rabbefluene" />
		<tag k="natural" v="shoal" />
		<tag k="place" v="locality" />
		<tag k="ssr:stedsnr" v="903910" />
	</node>
	<node id="-537120" lat="61.8109944441" lon="5.19620555052">
		<tag k="name" v="Flua" />
		<tag k="natural" v="shoal" />
		<tag k="place" v="locality" />
		<tag k="ssr:stedsnr" v="114078" />
	</node>
	<node id="-539167" lat="61.7788805535" lon="4.76107499213">
		<tag k="name" v="Nordre Håskallen" />
		<tag k="natural" v="shoal" />
		<tag k="place" v="locality" />
		<tag k="ssr:stedsnr" v="903882" />
	</node>
	<node id="-539166" lat="61.7873861077" lon="4.89249444313">
		<tag k="name" v="Ariholmane" />
		<tag k="place" v="islet" />
		<tag k="ssr:stedsnr" v="903712" />
	</node>
	<node id="-539165" lat="61.7978527811" lon="4.91121110733">
		<tag k="fixme" v="consider seamark:type=rock or natural=shoal" />
		<tag k="name" v="Høgeskjeret" />
		<tag k="place" v="islet" />
		<tag k="ssr:stedsnr" v="903648" />
	</node>
	<node id="-539164" lat="61.7968555537" lon="4.9094444363">
		<tag k="fixme" v="consider seamark:type=rock or natural=shoal" />
		<tag k="name" v="Guleskjeret" />
		<tag k="place" v="islet" />
		<tag k="ssr:stedsnr" v="903649" />
	</node>
	<node id="-539163" lat="61.7983472212" lon="4.89765834243">
		<tag k="name" v="Svarteskjertaren" />
		<tag k="natural" v="shoal" />
		<tag k="place" v="locality" />
		<tag k="ssr:stedsnr" v="903639" />
	</node>
	<node id="-539162" lat="61.8005972188" lon="4.90134723047">
		<tag k="fixme" v="consider seamark:type=rock or natural=shoal" />
		<tag k="name" v="Svarteskjera" />
		<tag k="place" v="islet" />
		<tag k="ssr:stedsnr" v="903623" />
	</node>
	<node id="-539161" lat="61.8794166675" lon="5.08221943636">
		<tag k="name" v="Oldeidvika" />
		<tag k="natural" v="bay" />
		<tag k="ssr:stedsnr" v="903327" />
	</node>
	<node id="-537112" lat="61.881600004" lon="5.12976945201">
		<tag k="name" v="Austre Bjørnøytangen" />
		<tag k="natural" v="cape" />
		<tag k="ssr:stedsnr" v="112641" />
	</node>
	<node id="-539159" lat="61.7684361119" lon="4.94195277673">
		<tag k="fixme" v="consider seamark:type=rock or natural=shoal" />
		<tag k="name" v="Rotaskjera" />
		<tag k="place" v="islet" />
		<tag k="ssr:stedsnr" v="902598" />
	</node>
	<node id="-539158" lat="61.7848055514" lon="4.9562138869">
		<tag k="name" v="Øyasundet" />
		<tag k="natural" v="strait" />
		<tag k="ssr:stedsnr" v="902586" />
	</node>
	<node id="-539157" lat="61.9013777795" lon="4.99523611294">
		<tag k="fixme" v="consider seamark:type=rock or natural=shoal" />
		<tag k="name" v="Fåskjeret" />
		<tag k="place" v="islet" />
		<tag k="ssr:stedsnr" v="902443" />
	</node>
	<node id="-536240" lat="61.7772611127" lon="5.26472500261">
		<tag k="name" v="Klyveren" />
		<tag k="natural" v="cape" />
		<tag k="ssr:stedsnr" v="293771" />
	</node>
	<node id="-537099" lat="61.7556194452" lon="5.06599444251">
		<tag k="name" v="Omsneset" />
		<tag k="natural" v="cape" />
		<tag k="ssr:stedsnr" v="111928" />
	</node>
	<node id="-536663" lat="61.85198889" lon="5.34101666782">
		<tag k="name" v="Melkeneset" />
		<tag k="natural" v="cape" />
		<tag k="ssr:stedsnr" v="475385" />
	</node>
	<node id="-539144" lat="61.7319972266" lon="5.14750277569">
		<tag k="name" v="Notaberget" />
		<tag k="natural" v="beach" />
		<tag k="place" v="locality" />
		<tag k="ssr:stedsnr" v="900878" />
	</node>
	<node id="-537092" lat="61.7391638868" lon="5.10594445026">
		<tag k="alt_name" v="Hatlevik" />
		<tag k="name" v="Hatlevika" />
		<tag k="natural" v="bay" />
		<tag k="ssr:stedsnr" v="111874" />
	</node>
	<node id="-537003" lat="61.8322250042" lon="5.69200832994">
		<tag k="name" v="Stilleneset" />
		<tag k="natural" v="cape" />
		<tag k="ssr:stedsnr" v="81533" />
	</node>
	<node id="-539133" lat="61.7728888904" lon="5.21306111254">
		<tag k="name" v="Trollenesvika" />
		<tag k="natural" v="bay" />
		<tag k="ssr:stedsnr" v="900775" />
	</node>
	<node id="-539132" lat="61.7763472235" lon="5.26840556192">
		<tag k="name" v="Gjelvikneset" />
		<tag k="natural" v="cape" />
		<tag k="ssr:stedsnr" v="900767" />
	</node>
	<node id="-539130" lat="61.8436527765" lon="5.79385833935">
		<tag k="name" v="Klubbevika" />
		<tag k="natural" v="bay" />
		<tag k="ssr:stedsnr" v="900764" />
	</node>
	<node id="-537081" lat="61.8298500016" lon="5.6881583308">
		<tag k="name" v="Lyrura" />
		<tag k="natural" v="beach" />
		<tag k="place" v="locality" />
		<tag k="ssr:stedsnr" v="111773" />
	</node>
	<node id="-537080" lat="61.8853333332" lon="5.69908610756">
		<tag k="name" v="Haugeneset" />
		<tag k="natural" v="cape" />
		<tag k="ssr:stedsnr" v="111767" />
	</node>
	<node id="-539127" lat="61.8347222253" lon="5.70243888427">
		<tag k="name" v="Loddfoten" />
		<tag k="natural" v="cape" />
		<tag k="ssr:stedsnr" v="900750" />
	</node>
	<node id="-537073" lat="61.8322888897" lon="5.19161666706">
		<tag k="name" v="Storlineset" />
		<tag k="natural" v="cape" />
		<tag k="ssr:stedsnr" v="111607" />
	</node>
	<node id="-537072" lat="61.8814638898" lon="5.33341111296">
		<tag k="alt_name" v="Straumen" />
		<tag k="name" v="Rugsundstraumen" />
		<tag k="natural" v="strait" />
		<tag k="ssr:stedsnr" v="111606" />
	</node>
	<node id="-539118" lat="61.8301777817" lon="5.15802500143">
		<tag k="name" v="Breivika" />
		<tag k="natural" v="bay" />
		<tag k="ssr:stedsnr" v="900640" />
	</node>
	<node id="-539116" lat="61.841599999" lon="5.14134167127">
		<tag k="name" v="Murvika" />
		<tag k="natural" v="bay" />
		<tag k="ssr:stedsnr" v="900629" />
	</node>
	<node id="-537066" lat="61.8939499984" lon="5.53316111508">
		<tag k="name" v="Haugesanden" />
		<tag k="natural" v="beach" />
		<tag k="place" v="locality" />
		<tag k="ssr:stedsnr" v="111563" />
	</node>
	<node id="-539113" lat="61.8911527804" lon="5.29476666794">
		<tag k="alt_name" v="Flatefjærneset" />
		<tag k="name" v="Flatfjerneset" />
		<tag k="natural" v="cape" />
		<tag k="ssr:stedsnr" v="900608" />
	</node>
	<node id="-539112" lat="61.8743277782" lon="5.24903333077">
		<tag k="fixme" v="consider seamark:type=rock or natural=shoal" />
		<tag k="name" v="Taddeskjeret" />
		<tag k="place" v="islet" />
		<tag k="ssr:stedsnr" v="900606" />
	</node>
	<node id="-539111" lat="61.8688305583" lon="5.28560834149">
		<tag k="name" v="Haukedalsstranda" />
		<tag k="natural" v="beach" />
		<tag k="place" v="locality" />
		<tag k="ssr:stedsnr" v="900603" />
	</node>
	<node id="-539110" lat="61.876113885" lon="5.31779722277">
		<tag k="name" v="Kjeltringsleia" />
		<tag k="natural" v="strait" />
		<tag k="ssr:stedsnr" v="900600" />
	</node>
	<node id="-539109" lat="61.9057749991" lon="5.4847333396">
		<tag k="name" v="Nibben" />
		<tag k="natural" v="cape" />
		<tag k="ssr:stedsnr" v="900591" />
	</node>
	<node id="-539106" lat="61.7787833297" lon="4.83423888484">
		<tag k="name" v="Skaneset" />
		<tag k="natural" v="cape" />
		<tag k="ssr:stedsnr" v="900514" />
	</node>
	<node id="-539105" lat="61.7703361095" lon="4.81818611225">
		<tag k="name" v="Halen" />
		<tag k="natural" v="cape" />
		<tag k="ssr:stedsnr" v="900512" />
	</node>
	<node id="-539104" lat="61.7568916691" lon="4.84425277219">
		<tag k="fixme" v="consider seamark:type=rock or natural=shoal" />
		<tag k="name" v="Espeskjera" />
		<tag k="place" v="islet" />
		<tag k="ssr:stedsnr" v="900400" />
	</node>
	<node id="-537055" lat="61.7785888922" lon="4.90534444008">
		<tag k="name" v="Tveholmen" />
		<tag k="place" v="islet" />
		<tag k="ssr:stedsnr" v="111408" />
	</node>
	<node id="-537052" lat="61.784011115" lon="5.00288056229">
		<tag k="name" v="Tjuveneset" />
		<tag k="natural" v="cape" />
		<tag k="ssr:stedsnr" v="111388" />
	</node>
	<node id="-539090" lat="61.828438892" lon="5.68365554996">
		<tag k="name" v="Andersvika" />
		<tag k="natural" v="bay" />
		<tag k="ssr:stedsnr" v="900253" />
	</node>
	<node id="-539088" lat="61.8963111111" lon="4.9117527761">
		<tag k="name" v="Lavika" />
		<tag k="natural" v="bay" />
		<tag k="ssr:stedsnr" v="900129" />
	</node>
	<node id="-539085" lat="61.7800777818" lon="4.90527222627">
		<tag k="name" v="Steinholmen" />
		<tag k="place" v="islet" />
		<tag k="ssr:stedsnr" v="900119" />
	</node>
	<node id="-539082" lat="61.8350111079" lon="4.94145000669">
		<tag k="alt_name" v="Katteskjeret" />
		<tag k="name" v="Katta" />
		<tag k="place" v="islet" />
		<tag k="ssr:stedsnr" v="900036" />
	</node>
	<node id="-537032" lat="61.8381916642" lon="4.98934999478">
		<tag k="name" v="Struen" />
		<tag k="natural" v="cape" />
		<tag k="ssr:stedsnr" v="111256" />
	</node>
	<node id="-539079" lat="61.8763305553" lon="4.866761113">
		<tag k="alt_name" v="Økseneset;Neset, yt;Ytre Neset" />
		<tag k="name" v="Øksaneset" />
		<tag k="natural" v="cape" />
		<tag k="ssr:stedsnr" v="900012" />
	</node>
	<node id="-537030" lat="61.8382747471" lon="4.95831463413">
		<tag k="name" v="Holmen" />
		<tag k="place" v="islet" />
		<tag k="ssr:stedsnr" v="111251" />
	</node>
	<node id="-536651" lat="61.8465583305" lon="4.846719439">
		<tag k="fixme" v="consider seamark:type=rock or natural=shoal" />
		<tag k="name" v="Hatlesundskjer" />
		<tag k="place" v="islet" />
		<tag k="ssr:stedsnr" v="475004" />
	</node>
	<node id="-539071" lat="61.7228611078" lon="5.21650832711">
		<tag k="name" v="Slettevika" />
		<tag k="natural" v="bay" />
		<tag k="ssr:stedsnr" v="899893" />
	</node>
	<node id="-539070" lat="61.770630559" lon="5.15168889341">
		<tag k="name" v="Furebakksnes" />
		<tag k="natural" v="cape" />
		<tag k="ssr:stedsnr" v="899829" />
	</node>
	<node id="-539068" lat="61.7624333293" lon="5.17145555715">
		<tag k="name" v="Olavikneset" />
		<tag k="natural" v="cape" />
		<tag k="ssr:stedsnr" v="899817" />
	</node>
	<node id="-539067" lat="61.7595222252" lon="5.18490833195">
		<tag k="name" v="Setrevik" />
		<tag k="natural" v="bay" />
		<tag k="ssr:stedsnr" v="899812" />
	</node>
	<node id="-539063" lat="61.833977774" lon="5.24206388403">
		<tag k="name" v="Litle Klubben" />
		<tag k="natural" v="cape" />
		<tag k="ssr:stedsnr" v="899548" />
	</node>
	<node id="-537012" lat="61.7539972254" lon="5.1509833318">
		<tag k="name" v="Kvia" />
		<tag k="natural" v="beach" />
		<tag k="place" v="locality" />
		<tag k="ssr:stedsnr" v="110818" />
	</node>
	<node id="-537011" lat="61.7693250027" lon="5.19546667504">
		<tag k="name" v="Ramsvikneset" />
		<tag k="natural" v="cape" />
		<tag k="ssr:stedsnr" v="110816" />
	</node>
	<node id="-539058" lat="61.7608166645" lon="4.81226111134">
		<tag k="name" v="Humresundneset" />
		<tag k="natural" v="cape" />
		<tag k="ssr:stedsnr" v="900482" />
	</node>
	<node id="-537007" lat="61.8894999967" lon="5.65133888763">
		<tag k="name" v="Mortevika" />
		<tag k="natural" v="bay" />
		<tag k="ssr:stedsnr" v="100794" />
	</node>
	<node id="-539053" lat="61.7875027744" lon="4.79431388533">
		<tag k="name" v="Ytste Muleholmen" />
		<tag k="place" v="islet" />
		<tag k="ssr:stedsnr" v="899468" />
	</node>
	<node id="-539051" lat="61.8576166639" lon="5.7516472141">
		<tag k="name" v="Breidvikneset" />
		<tag k="natural" v="cape" />
		<tag k="ssr:stedsnr" v="870516" />
	</node>
	<node id="-537002" lat="61.9127416692" lon="4.98179444824">
		<tag k="bay" v="fjord" />
		<tag k="name" v="Fåfjorden" />
		<tag k="natural" v="bay" />
		<tag k="ssr:stedsnr" v="71996" />
	</node>
	<node id="-539047" lat="61.9359083341" lon="4.81479444889">
		<tag k="name" v="Vetrungane" />
		<tag k="natural" v="shoal" />
		<tag k="place" v="locality" />
		<tag k="ssr:stedsnr" v="860981" />
	</node>
	<node id="-539046" lat="61.8058388865" lon="4.86574445343">
		<tag k="name" v="Sjyneset" />
		<tag k="natural" v="cape" />
		<tag k="ssr:stedsnr" v="860944" />
	</node>
	<node id="-539041" lat="61.7858270777" lon="4.89624479234">
		<tag k="name" v="Søre Olderøya" />
		<tag k="place" v="islet" />
		<tag k="ssr:stedsnr" v="860857" />
	</node>
	<node id="-539040" lat="61.7862026873" lon="4.91597000771">
		<tag k="alt_name" v="Søre Kjersøya" />
		<tag k="name" v="Tveholmen" />
		<tag k="place" v="islet" />
		<tag k="ssr:stedsnr" v="860854" />
	</node>
	<node id="-536304" lat="61.7386555521" lon="5.15127500016">
		<tag k="name" v="Kjelkenes" />
		<tag k="natural" v="cape" />
		<tag k="ssr:stedsnr" v="311862" />
	</node>
	<node id="-539029" lat="61.8770944485" lon="5.74009444762">
		<tag k="bay" v="fjord" />
		<tag k="name" v="Isefjorden" />
		<tag k="natural" v="bay" />
		<tag k="ssr:stedsnr" v="860438" />
	</node>
	<node id="-536975" lat="61.8805777821" lon="5.25435832889">
		<tag k="name" v="Rugsundøya" />
		<tag k="place" v="island" />
		<tag k="ssr:stedsnr" v="71210" />
	</node>
	<node id="-536301" lat="61.737091668" lon="4.98910555077">
		<tag k="name" v="Søreflua" />
		<tag k="place" v="locality" />
		<tag k="seamark:type" v="rock" />
		<tag k="ssr:stedsnr" v="311507" />
	</node>
	<node id="-539020" lat="61.8509527813" lon="5.2523861192">
		<tag k="name" v="Lavika" />
		<tag k="natural" v="bay" />
		<tag k="ssr:stedsnr" v="860177" />
	</node>
	<node id="-539168" lat="61.801397221" lon="4.64501943616">
		<tag k="name" v="Bataldgrunnen" />
		<tag k="natural" v="shoal" />
		<tag k="place" v="locality" />
		<tag k="ssr:stedsnr" v="903901" />
	</node>
	<node id="-536968" lat="61.7617416705" lon="5.22025555753">
		<tag k="name" v="Steinvika" />
		<tag k="natural" v="bay" />
		<tag k="ssr:stedsnr" v="71062" />
	</node>
	<node id="-536300" lat="61.7362361149" lon="4.84129443717">
		<tag k="fixme" v="consider seamark:type=rock or natural=shoal" />
		<tag k="name" v="Gangvadskjeret" />
		<tag k="place" v="islet" />
		<tag k="ssr:stedsnr" v="311500" />
	</node>
	<node id="-539014" lat="61.8216694481" lon="5.27504166951">
		<tag k="alt_name" v="Fureneset" />
		<tag k="name" v="Fura" />
		<tag k="natural" v="cape" />
		<tag k="ssr:stedsnr" v="860133" />
	</node>
	<node id="-536964" lat="61.782272225" lon="4.99678887951">
		<tag k="name" v="Håmanneset" />
		<tag k="natural" v="cape" />
		<tag k="ssr:stedsnr" v="70832" />
	</node>
	<node id="-539010" lat="61.8791444408" lon="4.89016666325">
		<tag k="name" v="Kasseneset" />
		<tag k="natural" v="cape" />
		<tag k="ssr:stedsnr" v="859990" />
	</node>
	<node id="-536849" lat="61.7740527816" lon="4.84018611766">
		<tag k="name" v="Gunnavikneset" />
		<tag k="natural" v="cape" />
		<tag k="ssr:stedsnr" v="50368" />
	</node>
	<node id="-539006" lat="61.8730472244" lon="4.87474444218">
		<tag k="alt_name" v="Neset, in" />
		<tag k="name" v="Indre Neset" />
		<tag k="natural" v="cape" />
		<tag k="ssr:stedsnr" v="859860" />
	</node>
	<node id="-536981" lat="61.8596055588" lon="5.25952777633">
		<tag k="name" v="Hornelsneset" />
		<tag k="natural" v="cape" />
		<tag k="ssr:stedsnr" v="71183" />
	</node>
	<node id="-539003" lat="61.7570472234" lon="4.81440833088">
		<tag k="name" v="Nigardsøya" />
		<tag k="place" v="island" />
		<tag k="ssr:stedsnr" v="859840" />
	</node>
	<node id="-536576" lat="61.8311583342" lon="4.97495832835">
		<tag k="alt_name" v="Klubbenes" />
		<tag k="name" v="Klubbeneset" />
		<tag k="natural" v="cape" />
		<tag k="ssr:stedsnr" v="414269" />
	</node>
	<node id="-536946" lat="61.7408361131" lon="5.10598334094">
		<tag k="name" v="Ramtangen" />
		<tag k="natural" v="cape" />
		<tag k="ssr:stedsnr" v="69808" />
	</node>
	<node id="-538992" lat="61.8527083335" lon="5.77636388899">
		<tag k="name" v="Hjeltneset" />
		<tag k="natural" v="cape" />
		<tag k="ssr:stedsnr" v="859329" />
	</node>
	<node id="-536943" lat="61.7269833323" lon="4.950138898">
		<tag k="fixme" v="consider seamark:type=rock or natural=shoal" />
		<tag k="name" v="Olaskjeret" />
		<tag k="place" v="islet" />
		<tag k="ssr:stedsnr" v="69485" />
	</node>
	<node id="-536941" lat="61.8315611092" lon="4.85688054919">
		<tag k="name" v="Vissflua" />
		<tag k="natural" v="shoal" />
		<tag k="place" v="locality" />
		<tag k="ssr:stedsnr" v="54919" />
	</node>
	<node id="-536940" lat="61.7670333291" lon="4.90268889392">
		<tag k="fixme" v="consider seamark:type=rock or natural=shoal" />
		<tag k="name" v="Leiskjera" />
		<tag k="place" v="islet" />
		<tag k="ssr:stedsnr" v="54738" />
	</node>
	<node id="-536938" lat="61.7919527746" lon="4.92196389026">
		<tag k="name" v="Gapet" />
		<tag k="natural" v="bay" />
		<tag k="ssr:stedsnr" v="54625" />
	</node>
	<node id="-536936" lat="61.9063888912" lon="4.91446944773">
		<tag k="name" v="Festebåen" />
		<tag k="natural" v="shoal" />
		<tag k="place" v="locality" />
		<tag k="ssr:stedsnr" v="53888" />
	</node>
	<node id="-536935" lat="61.8256277787" lon="4.95353334247">
		<tag k="fixme" v="consider seamark:type=rock or natural=shoal" />
		<tag k="name" v="Rundeskjeret" />
		<tag k="place" v="islet" />
		<tag k="ssr:stedsnr" v="53803" />
	</node>
	<node id="-536934" lat="61.724644446" lon="5.22003332705">
		<tag k="name" v="Øyrhamrane" />
		<tag k="natural" v="cape" />
		<tag k="ssr:stedsnr" v="53703" />
	</node>
	<node id="-536933" lat="61.7419305511" lon="4.95788332508">
		<tag k="name" v="Storevikgrynna" />
		<tag k="natural" v="shoal" />
		<tag k="place" v="locality" />
		<tag k="ssr:stedsnr" v="53666" />
	</node>
	<node id="-536932" lat="61.7841722222" lon="4.96679444706">
		<tag k="name" v="Vågane" />
		<tag k="natural" v="bay" />
		<tag k="ssr:stedsnr" v="53571" />
	</node>
	<node id="-538979" lat="61.7182944488" lon="4.76950277532">
		<tag k="name" v="Djupsundskubbane" />
		<tag k="natural" v="shoal" />
		<tag k="place" v="locality" />
		<tag k="ssr:stedsnr" v="858482" />
	</node>
	<node id="-536930" lat="61.8157166695" lon="5.23052499858">
		<tag k="name" v="Vika" />
		<tag k="natural" v="bay" />
		<tag k="ssr:stedsnr" v="53106" />
	</node>
	<node id="-536929" lat="61.8085444475" lon="5.16368332931">
		<tag k="name" v="Inste Bårdvika" />
		<tag k="natural" v="bay" />
		<tag k="ssr:stedsnr" v="53102" />
	</node>
	<node id="-538976" lat="61.7452249982" lon="4.54511389556">
		<tag k="alt_name" v="Grunnskallen, s" />
		<tag k="name" v="Søre Grunnskallen" />
		<tag k="natural" v="shoal" />
		<tag k="place" v="locality" />
		<tag k="ssr:stedsnr" v="858395" />
	</node>
	<node id="-538975" lat="61.7696555511" lon="4.84584722149">
		<tag k="name" v="Storevågane" />
		<tag k="natural" v="bay" />
		<tag k="ssr:stedsnr" v="843986" />
	</node>
	<node id="-538974" lat="61.8448750046" lon="4.85869445243">
		<tag k="name" v="Vissholmsundet" />
		<tag k="natural" v="strait" />
		<tag k="ssr:stedsnr" v="843907" />
	</node>
	<node id="-536925" lat="61.8134555556" lon="4.95932222687">
		<tag k="name" v="Rylandholmen" />
		<tag k="place" v="islet" />
		<tag k="ssr:stedsnr" v="51426" />
	</node>
	<node id="-538972" lat="61.7714527787" lon="4.82131111876">
		<tag k="name" v="Haleflua" />
		<tag k="natural" v="shoal" />
		<tag k="place" v="locality" />
		<tag k="ssr:stedsnr" v="843878" />
	</node>
	<node id="-538971" lat="61.7682833348" lon="4.90956389099">
		<tag k="fixme" v="consider seamark:type=rock or natural=shoal" />
		<tag k="name" v="Bratteskjera" />
		<tag k="place" v="islet" />
		<tag k="ssr:stedsnr" v="843759" />
	</node>
	<node id="-538970" lat="61.8245444467" lon="5.30257500497">
		<tag k="name" v="Flatefjøra" />
		<tag k="natural" v="cape" />
		<tag k="ssr:stedsnr" v="843031" />
	</node>
	<node id="-538969" lat="61.873794446" lon="5.31399166099">
		<tag k="name" v="Nordre Kollsetegrunnen" />
		<tag k="natural" v="shoal" />
		<tag k="place" v="locality" />
		<tag k="ssr:stedsnr" v="843012" />
	</node>
	<node id="-538968" lat="61.8908222254" lon="4.70493055069">
		<tag k="name" v="Sigurdskallen" />
		<tag k="natural" v="shoal" />
		<tag k="place" v="locality" />
		<tag k="ssr:stedsnr" v="843000" />
	</node>
	<node id="-538966" lat="61.8664305568" lon="5.26033333547">
		<tag k="name" v="Hornelsflua" />
		<tag k="natural" v="shoal" />
		<tag k="place" v="locality" />
		<tag k="ssr:stedsnr" v="842935" />
	</node>
	<node id="-538965" lat="61.873280552" lon="5.21247778087">
		<tag k="name" v="Skaten" />
		<tag k="natural" v="shoal" />
		<tag k="place" v="locality" />
		<tag k="ssr:stedsnr" v="842934" />
	</node>
	<node id="-538964" lat="61.7528111086" lon="5.08992500772">
		<tag k="name" v="Myrhjellflua" />
		<tag k="natural" v="shoal" />
		<tag k="place" v="locality" />
		<tag k="ssr:stedsnr" v="842798" />
	</node>
	<node id="-538963" lat="61.7552527773" lon="5.07159722821">
		<tag k="name" v="Løkane" />
		<tag k="natural" v="bay" />
		<tag k="ssr:stedsnr" v="842796" />
	</node>
	<node id="-538962" lat="61.7705111109" lon="4.93830000285">
		<tag k="name" v="Smørhamnsundet" />
		<tag k="natural" v="strait" />
		<tag k="ssr:stedsnr" v="842788" />
	</node>
	<node id="-536913" lat="61.8180388935" lon="4.9468444522">
		<tag k="name" v="Rylandspollen" />
		<tag k="natural" v="bay" />
		<tag k="ssr:stedsnr" v="51017" />
	</node>
	<node id="-538960" lat="61.7215472257" lon="5.20035277388">
		<tag k="name" v="Klubben" />
		<tag k="natural" v="cape" />
		<tag k="ssr:stedsnr" v="842697" />
	</node>
	<node id="-538959" lat="61.7221638866" lon="5.215524995">
		<tag k="name" v="Skjeljeneset" />
		<tag k="natural" v="cape" />
		<tag k="ssr:stedsnr" v="842696" />
	</node>
	<node id="-538957" lat="61.7679750026" lon="4.9340055599">
		<tag k="name" v="Otraholet" />
		<tag k="natural" v="bay" />
		<tag k="ssr:stedsnr" v="842569" />
	</node>
	<node id="-538956" lat="61.7925277732" lon="4.94621388043">
		<tag k="fixme" v="consider seamark:type=rock or natural=shoal" />
		<tag k="name" v="Skarveskjeret" />
		<tag k="place" v="islet" />
		<tag k="ssr:stedsnr" v="842523" />
	</node>
	<node id="-538955" lat="61.7698777744" lon="5.1508222142">
		<tag k="name" v="Furubakksvika" />
		<tag k="natural" v="bay" />
		<tag k="ssr:stedsnr" v="842165" />
	</node>
	<node id="-536903" lat="61.7228972218" lon="5.19015833293">
		<tag k="name" v="Havgulekroken" />
		<tag k="natural" v="cape" />
		<tag k="ssr:stedsnr" v="50905" />
	</node>
	<node id="-536900" lat="61.7218666677" lon="5.10380833329">
		<tag k="name" v="Sagebøvik" />
		<tag k="natural" v="bay" />
		<tag k="ssr:stedsnr" v="50885" />
	</node>
	<node id="-538961" lat="61.8893472199" lon="5.28815833523">
		<tag k="name" v="Hilleren" />
		<tag k="natural" v="cape" />
		<tag k="ssr:stedsnr" v="842776" />
	</node>
	<node id="-538942" lat="61.8263611084" lon="4.95943056333">
		<tag k="name" v="Løvika" />
		<tag k="natural" v="bay" />
		<tag k="ssr:stedsnr" v="840365" />
	</node>
	<node id="-536892" lat="61.7094555544" lon="5.11576111707">
		<tag k="name" v="Neset" />
		<tag k="natural" v="cape" />
		<tag k="ssr:stedsnr" v="50862" />
	</node>
	<node id="-536890" lat="61.7390749975" lon="5.11637221996">
		<tag k="name" v="Hellevika" />
		<tag k="natural" v="bay" />
		<tag k="ssr:stedsnr" v="50852" />
	</node>
	<node id="-538933" lat="61.8014888851" lon="4.91365000525">
		<tag k="name" v="Magnhildvika" />
		<tag k="natural" v="bay" />
		<tag k="ssr:stedsnr" v="840038" />
	</node>
	<node id="-536884" lat="61.7593972239" lon="5.19235278402">
		<tag k="name" v="Kvieneset" />
		<tag k="natural" v="cape" />
		<tag k="ssr:stedsnr" v="50734" />
	</node>
	<node id="-539299" lat="61.7351805589" lon="5.16205555514">
		<tag k="name" v="Fureneset" />
		<tag k="natural" v="cape" />
		<tag k="ssr:stedsnr" v="960844" />
	</node>
	<node id="-536875" lat="61.8290277806" lon="5.1509388862">
		<tag k="name" v="Kyrkjehaugen" />
		<tag k="natural" v="cape" />
		<tag k="ssr:stedsnr" v="50587" />
	</node>
	<node id="-539015" lat="61.8321083319" lon="5.29647222162">
		<tag k="name" v="Vingeneset" />
		<tag k="natural" v="cape" />
		<tag k="ssr:stedsnr" v="860145" />
	</node>
	<node id="-538920" lat="61.7293222243" lon="4.98310555482">
		<tag k="alt_name" v="Sletteneset" />
		<tag k="name" v="Slettneset" />
		<tag k="natural" v="cape" />
		<tag k="ssr:stedsnr" v="839965" />
	</node>
	<node id="-538918" lat="61.7367388908" lon="4.9882388958">
		<tag k="name" v="Frivika" />
		<tag k="natural" v="bay" />
		<tag k="ssr:stedsnr" v="839937" />
	</node>
	<node id="-538916" lat="61.7599194446" lon="5.0513888876">
		<tag k="alt_name" v="Guleskjær" />
		<tag k="fixme" v="consider seamark:type=rock or natural=shoal" />
		<tag k="name" v="Guleskjeret" />
		<tag k="place" v="islet" />
		<tag k="ssr:stedsnr" v="839918" />
	</node>
	<node id="-538915" lat="61.7214972217" lon="5.196155556">
		<tag k="name" v="Myklebustvika" />
		<tag k="natural" v="bay" />
		<tag k="ssr:stedsnr" v="839909" />
	</node>
	<node id="-536864" lat="61.8913277771" lon="5.30216112005">
		<tag k="name" v="Hestevika" />
		<tag k="natural" v="bay" />
		<tag k="ssr:stedsnr" v="50558" />
	</node>
	<node id="-538911" lat="61.731149998" lon="5.2098861085">
		<tag k="name" v="Skåtevika" />
		<tag k="natural" v="bay" />
		<tag k="ssr:stedsnr" v="839874" />
	</node>
	<node id="-538908" lat="61.7295194433" lon="5.10374167377">
		<tag k="name" v="Stegvika" />
		<tag k="natural" v="bay" />
		<tag k="ssr:stedsnr" v="839860" />
	</node>
	<node id="-538907" lat="61.7375972221" lon="5.17337778253">
		<tag k="name" v="Sandvika" />
		<tag k="natural" v="bay" />
		<tag k="ssr:stedsnr" v="839854" />
	</node>
	<node id="-538906" lat="61.73617778" lon="5.1902416694">
		<tag k="name" v="Hesteberget" />
		<tag k="natural" v="cape" />
		<tag k="ssr:stedsnr" v="839847" />
	</node>
	<node id="-538905" lat="61.7432305532" lon="5.14838332559">
		<tag k="name" v="Kovevika" />
		<tag k="natural" v="bay" />
		<tag k="ssr:stedsnr" v="839838" />
	</node>
	<node id="-536854" lat="61.7570166624" lon="4.87187500257">
		<tag k="name" v="Kongskjenna" />
		<tag k="natural" v="cape" />
		<tag k="ssr:stedsnr" v="50387" />
	</node>
	<node id="-538900" lat="61.7627083355" lon="5.22428611439">
		<tag k="name" v="Eikelandsneset" />
		<tag k="natural" v="cape" />
		<tag k="ssr:stedsnr" v="839776" />
	</node>
	<node id="-538897" lat="61.8452222252" lon="5.72745555209">
		<tag k="name" v="Kuvika" />
		<tag k="natural" v="bay" />
		<tag k="ssr:stedsnr" v="839758" />
	</node>
	<node id="-536847" lat="61.8484777823" lon="5.36871111535">
		<tag k="alt_name" v="Holeneset" />
		<tag k="name" v="Holneset" />
		<tag k="natural" v="cape" />
		<tag k="ssr:stedsnr" v="50361" />
	</node>
	<node id="-538888" lat="61.8753416639" lon="5.31935556307">
		<tag k="name" v="Grummeholmen" />
		<tag k="place" v="islet" />
		<tag k="ssr:stedsnr" v="839611" />
	</node>
	<node id="-538887" lat="61.874666669" lon="5.15586666817">
		<tag k="name" v="Mehammeren" />
		<tag k="natural" v="cape" />
		<tag k="ssr:stedsnr" v="839610" />
	</node>
	<node id="-538885" lat="61.872683331" lon="5.19247500748">
		<tag k="name" v="Saltkjerneset" />
		<tag k="natural" v="cape" />
		<tag k="ssr:stedsnr" v="839605" />
	</node>
	<node id="-538884" lat="61.9068499963" lon="5.50402500072">
		<tag k="name" v="Ugleneset" />
		<tag k="natural" v="cape" />
		<tag k="ssr:stedsnr" v="839602" />
	</node>
	<node id="-538883" lat="61.8215777767" lon="5.27952500059">
		<tag k="name" v="Brattestranda" />
		<tag k="natural" v="beach" />
		<tag k="place" v="locality" />
		<tag k="ssr:stedsnr" v="839587" />
	</node>
	<node id="-536831" lat="61.8298888873" lon="5.67530277275">
		<tag k="name" v="Sigdestadneset" />
		<tag k="natural" v="cape" />
		<tag k="ssr:stedsnr" v="50205" />
	</node>
	<node id="-538877" lat="61.8181833374" lon="5.20793054603">
		<tag k="name" v="Hilleneset" />
		<tag k="natural" v="cape" />
		<tag k="ssr:stedsnr" v="839525" />
	</node>
	<node id="-538876" lat="61.7832305515" lon="4.81598055646">
		<tag k="name" v="Inste Langenesvika" />
		<tag k="natural" v="bay" />
		<tag k="ssr:stedsnr" v="839508" />
	</node>
	<node id="-538875" lat="61.7511499988" lon="4.82725000929">
		<tag k="name" v="Litlværøya" />
		<tag k="place" v="islet" />
		<tag k="ssr:stedsnr" v="839494" />
	</node>
	<node id="-538874" lat="61.8880166679" lon="4.91936110628">
		<tag k="name" v="Nørevikane" />
		<tag k="natural" v="bay" />
		<tag k="ssr:stedsnr" v="842868" />
	</node>
	<node id="-538873" lat="61.7545138866" lon="4.87585000176">
		<tag k="name" v="Litleflua" />
		<tag k="natural" v="shoal" />
		<tag k="place" v="locality" />
		<tag k="ssr:stedsnr" v="842812" />
	</node>
	<node id="-538869" lat="61.8489583302" lon="5.35890278139">
		<tag k="name" v="Skrubben" />
		<tag k="natural" v="cape" />
		<tag k="ssr:stedsnr" v="839367" />
	</node>
	<node id="-536816" lat="61.9009250026" lon="4.97964444126">
		<tag k="name" v="Korsvika" />
		<tag k="natural" v="bay" />
		<tag k="ssr:stedsnr" v="33859" />
	</node>
	<node id="-536811" lat="61.8747916678" lon="4.87538333147">
		<tag k="alt_name" v="Tussevika;Øksevika" />
		<tag k="name" v="Ytste Tussevika" />
		<tag k="natural" v="bay" />
		<tag k="ssr:stedsnr" v="10989" />
	</node>
	<node id="-536810" lat="61.903388886" lon="4.85961666666">
		<tag k="name" v="Veststeinen" />
		<tag k="place" v="island" />
		<tag k="ssr:stedsnr" v="10977" />
	</node>
	<node id="-536807" lat="61.8438000039" lon="4.86065277166">
		<tag k="name" v="Vissholmen" />
		<tag k="place" v="islet" />
		<tag k="ssr:stedsnr" v="10905" />
	</node>
	<node id="-536806" lat="61.8368111136" lon="4.72904443673">
		<tag k="name" v="Håøygrunnen" />
		<tag k="natural" v="shoal" />
		<tag k="place" v="locality" />
		<tag k="ssr:stedsnr" v="10903" />
	</node>
	<node id="-536273" lat="61.8166722246" lon="5.22828056153">
		<tag k="name" v="Flua" />
		<tag k="natural" v="shoal" />
		<tag k="place" v="locality" />
		<tag k="ssr:stedsnr" v="295103" />
	</node>
	<node id="-536802" lat="61.7670499976" lon="4.93583332769">
		<tag k="name" v="Rota" />
		<tag k="place" v="islet" />
		<tag k="ssr:stedsnr" v="10864" />
	</node>
	<node id="-538849" lat="61.8072805597" lon="4.85097500348">
		<tag k="name" v="Kviteneset" />
		<tag k="natural" v="cape" />
		<tag k="ssr:stedsnr" v="839044" />
	</node>
	<node id="-536800" lat="61.7799148867" lon="4.93528133561">
		<tag k="name" v="Smørhamnsøya" />
		<tag k="place" v="island" />
		<tag k="ssr:stedsnr" v="10844" />
	</node>
	<node id="-536613" lat="61.8151166634" lon="5.19249721552">
		<tag k="name" v="Ytste Hennøyholmen" />
		<tag k="place" v="islet" />
		<tag k="ssr:stedsnr" v="474519" />
	</node>
	<node id="-538839" lat="61.7977500023" lon="4.86938055774">
		<tag k="name" v="Kvernhusvika" />
		<tag k="natural" v="bay" />
		<tag k="ssr:stedsnr" v="815721" />
	</node>
	<node id="-538838" lat="61.7810999976" lon="4.90170833512">
		<tag k="name" v="Oldersundet" />
		<tag k="natural" v="strait" />
		<tag k="ssr:stedsnr" v="815719" />
	</node>
	<node id="-538834" lat="61.8976111152" lon="5.54931945102">
		<tag k="fixme" v="consider seamark:type=rock or natural=shoal" />
		<tag k="name" v="Daven" />
		<tag k="place" v="islet" />
		<tag k="ssr:stedsnr" v="809535" />
	</node>
	<node id="-538831" lat="61.9084249968" lon="4.94345555263">
		<tag k="name" v="Smellen" />
		<tag k="natural" v="cape" />
		<tag k="ssr:stedsnr" v="799985" />
	</node>
	<node id="-536269" lat="61.8188305578" lon="4.96161667429">
		<tag k="alt_name" v="Setraneset" />
		<tag k="name" v="Setreneset" />
		<tag k="natural" v="cape" />
		<tag k="ssr:stedsnr" v="294383" />
	</node>
	<node id="-536779" lat="61.8866777739" lon="5.22279721812">
		<tag k="name" v="Skorpeneset" />
		<tag k="natural" v="cape" />
		<tag k="ssr:stedsnr" v="10201" />
	</node>
	<node id="-536775" lat="61.8179673156" lon="5.22340358804">
		<tag k="alt_name" v="Inste Øyaneset" />
		<tag k="name" v="Øyaneset" />
		<tag k="natural" v="cape" />
		<tag k="ssr:stedsnr" v="10130" />
	</node>
	<node id="-536229" lat="61.8727805584" lon="5.26539999433">
		<tag k="name" v="Haukedalsvika" />
		<tag k="natural" v="bay" />
		<tag k="ssr:stedsnr" v="293592" />
	</node>
	<node id="-538820" lat="61.7868222248" lon="4.93147222056">
		<tag k="name" v="Trongesundet" />
		<tag k="natural" v="strait" />
		<tag k="ssr:stedsnr" v="799855" />
	</node>
	<node id="-538818" lat="61.7932111152" lon="5.02952499154">
		<tag k="alt_name" v="Holmen" />
		<tag k="name" v="Rylandsholmen" />
		<tag k="place" v="islet" />
		<tag k="ssr:stedsnr" v="799848" />
	</node>
	<node id="-538817" lat="61.8010583365" lon="5.05134166445">
		<tag k="name" v="Storevikneset" />
		<tag k="natural" v="cape" />
		<tag k="ssr:stedsnr" v="799842" />
	</node>
	<node id="-536763" lat="61.7421194477" lon="4.81370832367">
		<tag k="fixme" v="consider seamark:type=rock or natural=shoal" />
		<tag k="name" v="Rasmusskjeret" />
		<tag k="place" v="islet" />
		<tag k="ssr:stedsnr" v="8504" />
	</node>
	<node id="-536760" lat="61.7321277811" lon="4.83604722451">
		<tag k="name" v="Gangvadboen" />
		<tag k="natural" v="shoal" />
		<tag k="place" v="locality" />
		<tag k="ssr:stedsnr" v="8484" />
	</node>
	<node id="-538802" lat="61.8963500041" lon="5.27597221722">
		<tag k="alt_name" v="Nordfjorden" />
		<tag k="bay" v="fjord" />
		<tag k="name" v="Nordfjord" />
		<tag k="natural" v="bay" />
		<tag k="ssr:stedsnr" v="799219" />
	</node>
	<node id="-538798" lat="61.8915666689" lon="5.31186667517">
		<tag k="name" v="Kråkevågneset" />
		<tag k="natural" v="cape" />
		<tag k="ssr:stedsnr" v="799195" />
	</node>
	<node id="-537243" lat="61.7627888899" lon="4.88337777074">
		<tag k="name" v="Høgholmen" />
		<tag k="place" v="islet" />
		<tag k="ssr:stedsnr" v="171399" />
	</node>
	<node id="-536944" lat="61.7240944417" lon="4.7469527779">
		<tag k="name" v="Hoggeflua" />
		<tag k="natural" v="shoal" />
		<tag k="place" v="locality" />
		<tag k="ssr:stedsnr" v="69492" />
	</node>
	<node id="-538781" lat="61.775672218" lon="5.2395499974">
		<tag k="name" v="Brynneset" />
		<tag k="natural" v="cape" />
		<tag k="ssr:stedsnr" v="799088" />
	</node>
	<node id="-536732" lat="61.8231361075" lon="4.74461943833">
		<tag k="name" v="Vestre Håskallen" />
		<tag k="natural" v="shoal" />
		<tag k="place" v="locality" />
		<tag k="ssr:stedsnr" v="478898" />
	</node>
	<node id="-536731" lat="61.8089416697" lon="4.73632499156">
		<tag k="name" v="Grunnska" />
		<tag k="natural" v="shoal" />
		<tag k="place" v="locality" />
		<tag k="ssr:stedsnr" v="478897" />
	</node>
	<node id="-536730" lat="61.867511115" lon="5.27099166016">
		<tag k="name" v="Haukedalsholmane" />
		<tag k="place" v="islet" />
		<tag k="ssr:stedsnr" v="478891" />
	</node>
	<node id="-536729" lat="61.7965000006" lon="4.79279443797">
		<tag k="fixme" v="consider seamark:type=rock or natural=shoal" />
		<tag k="name" v="Englane" />
		<tag k="place" v="islet" />
		<tag k="ssr:stedsnr" v="478889" />
	</node>
	<node id="-536728" lat="61.8806500008" lon="4.91348611219">
		<tag k="name" v="Sørevikane" />
		<tag k="natural" v="bay" />
		<tag k="ssr:stedsnr" v="478860" />
	</node>
	<node id="-537114" lat="61.7704055568" lon="5.09645278658">
		<tag k="name" v="Trælvikneset" />
		<tag k="natural" v="cape" />
		<tag k="ssr:stedsnr" v="113147" />
	</node>
	<node id="-538774" lat="61.7761823035" lon="4.91131498629">
		<tag k="alt_name" v="Store Sundsøya" />
		<tag k="name" v="Sundsøya" />
		<tag k="place" v="islet" />
		<tag k="ssr:stedsnr" v="798799" />
	</node>
	<node id="-538773" lat="61.8548583352" lon="4.81879167428">
		<tag k="name" v="Olderveggen" />
		<tag k="natural" v="cape" />
		<tag k="ssr:stedsnr" v="798864" />
	</node>
	<node id="-536724" lat="61.8259416646" lon="5.15519722802">
		<tag k="name" v="Ytre Flua" />
		<tag k="natural" v="shoal" />
		<tag k="place" v="locality" />
		<tag k="ssr:stedsnr" v="478406" />
	</node>
	<node id="-536723" lat="61.7579444465" lon="4.87417499813">
		<tag k="fixme" v="consider seamark:type=rock or natural=shoal" />
		<tag k="name" v="Kongskjelda" />
		<tag k="place" v="islet" />
		<tag k="ssr:stedsnr" v="477865" />
	</node>
	<node id="-536722" lat="61.7604916633" lon="5.04437223002">
		<tag k="name" v="Sælebotstaren" />
		<tag k="natural" v="shoal" />
		<tag k="place" v="locality" />
		<tag k="ssr:stedsnr" v="477845" />
	</node>
	<node id="-538769" lat="61.7817200689" lon="4.95785581118">
		<tag k="name" v="Vågøya" />
		<tag k="place" v="islet" />
		<tag k="ssr:stedsnr" v="798811" />
	</node>
	<node id="-538768" lat="61.7756055526" lon="4.8381888844">
		<tag k="name" v="Fagreskarvika" />
		<tag k="natural" v="bay" />
		<tag k="ssr:stedsnr" v="798803" />
	</node>
	<node id="-536719" lat="61.8190694425" lon="4.93670277811">
		<tag k="name" v="Baket" />
		<tag k="natural" v="cape" />
		<tag k="ssr:stedsnr" v="477827" />
	</node>
	<node id="-536718" lat="61.893019448" lon="5.25618889138">
		<tag k="name" v="Etreskallen" />
		<tag k="natural" v="shoal" />
		<tag k="place" v="locality" />
		<tag k="ssr:stedsnr" v="477826" />
	</node>
	<node id="-536717" lat="61.8245444415" lon="4.94546388303">
		<tag k="name" v="Kinnambaren" />
		<tag k="natural" v="shoal" />
		<tag k="place" v="locality" />
		<tag k="ssr:stedsnr" v="477794" />
	</node>
	<node id="-536716" lat="61.7642750014" lon="4.93051111693">
		<tag k="name" v="Fuglesundet" />
		<tag k="natural" v="strait" />
		<tag k="ssr:stedsnr" v="477589" />
	</node>
	<node id="-538763" lat="61.7226749985" lon="5.10839166531">
		<tag k="name" v="Sørgulen" />
		<tag k="natural" v="bay" />
		<tag k="ssr:stedsnr" v="797838" />
	</node>
	<node id="-536714" lat="61.9009944426" lon="4.91713333198">
		<tag k="name" v="Lavikebruna" />
		<tag k="natural" v="cape" />
		<tag k="ssr:stedsnr" v="477419" />
	</node>
	<node id="-536713" lat="61.8101277789" lon="5.17370555593">
		<tag k="name" v="Ytste Bårdvika" />
		<tag k="natural" v="bay" />
		<tag k="ssr:stedsnr" v="477090" />
	</node>
	<node id="-538759" lat="61.7053555589" lon="5.16580554822">
		<tag k="name" v="Vindspollen" />
		<tag k="natural" v="bay" />
		<tag k="ssr:stedsnr" v="797828" />
	</node>
	<node id="-538757" lat="61.748433337" lon="4.84656666678">
		<tag k="name" v="Storehovden" />
		<tag k="place" v="islet" />
		<tag k="ssr:stedsnr" v="797479" />
	</node>
	<node id="-538756" lat="61.7450999962" lon="4.8439444406">
		<tag k="alt_name" v="Matlandsholmane" />
		<tag k="name" v="Mattlandsholmane" />
		<tag k="place" v="islet" />
		<tag k="ssr:stedsnr" v="797454" />
	</node>
	<node id="-538755" lat="61.7286583369" lon="4.82366667378">
		<tag k="name" v="Gåsøybåen" />
		<tag k="natural" v="shoal" />
		<tag k="place" v="locality" />
		<tag k="ssr:stedsnr" v="797450" />
	</node>
	<node id="-538754" lat="61.8366265468" lon="5.25709799879">
		<tag k="loc_name" v="Hælneset" />
		<tag k="name" v="Hæleneset" />
		<tag k="natural" v="cape" />
		<tag k="ssr:stedsnr" v="788359" />
	</node>
	<node id="-538752" lat="61.7585722223" lon="4.84800832392">
		<tag k="name" v="Osane" />
		<tag k="natural" v="bay" />
		<tag k="ssr:stedsnr" v="782985" />
	</node>
	<node id="-538751" lat="61.7487583362" lon="4.74929445007">
		<tag k="name" v="Ytstebåen" />
		<tag k="natural" v="shoal" />
		<tag k="place" v="locality" />
		<tag k="ssr:stedsnr" v="782963" />
	</node>
	<node id="-536704" lat="61.7157777756" lon="5.10694721588">
		<tag k="name" v="Langeneset" />
		<tag k="natural" v="cape" />
		<tag k="ssr:stedsnr" v="475911" />
	</node>
	<node id="-538749" lat="61.8355083356" lon="4.81745555108">
		<tag k="name" v="Seilbåen" />
		<tag k="natural" v="shoal" />
		<tag k="place" v="locality" />
		<tag k="ssr:stedsnr" v="782882" />
	</node>
	<node id="-538748" lat="61.7746861107" lon="4.7620333395">
		<tag k="name" v="Søre Håskallen" />
		<tag k="natural" v="shoal" />
		<tag k="place" v="locality" />
		<tag k="ssr:stedsnr" v="782852" />
	</node>
	<node id="-538747" lat="61.7729944452" lon="4.78067499712">
		<tag k="name" v="Minneflua" />
		<tag k="natural" v="shoal" />
		<tag k="place" v="locality" />
		<tag k="ssr:stedsnr" v="782853" />
	</node>
	<node id="-538746" lat="61.7684527775" lon="4.89299443861">
		<tag k="fixme" v="consider seamark:type=rock or natural=shoal" />
		<tag k="name" v="Kråkeskjeret" />
		<tag k="place" v="islet" />
		<tag k="ssr:stedsnr" v="782701" />
	</node>
	<node id="-538745" lat="61.795219444" lon="4.88631943753">
		<tag k="fixme" v="consider seamark:type=rock or natural=shoal" />
		<tag k="name" v="Lakseskjeret" />
		<tag k="place" v="islet" />
		<tag k="ssr:stedsnr" v="782693" />
	</node>
	<node id="-538744" lat="61.7403222197" lon="4.83878888827">
		<tag k="name" v="Stompeskjer-taren" />
		<tag k="natural" v="shoal" />
		<tag k="place" v="locality" />
		<tag k="ssr:stedsnr" v="782443" />
	</node>
	<node id="-538743" lat="61.8267666681" lon="5.12604999877">
		<tag k="name" v="Klittepynten" />
		<tag k="natural" v="cape" />
		<tag k="ssr:stedsnr" v="782372" />
	</node>
	<node id="-538742" lat="61.8253638908" lon="4.95742777065">
		<tag k="name" v="Løvikstranda" />
		<tag k="natural" v="beach" />
		<tag k="place" v="locality" />
		<tag k="ssr:stedsnr" v="781766" />
	</node>
	<node id="-538741" lat="61.7429833368" lon="5.00206943775">
		<tag k="name" v="Hjellberget" />
		<tag k="natural" v="cape" />
		<tag k="ssr:stedsnr" v="781666" />
	</node>
	<node id="-538740" lat="61.7480277793" lon="5.13167499109">
		<tag k="name" v="Ternøyfluene" />
		<tag k="natural" v="shoal" />
		<tag k="place" v="locality" />
		<tag k="ssr:stedsnr" v="781183" />
	</node>
	<node id="-536691" lat="61.7675250031" lon="5.25253055242">
		<tag k="name" v="Småholmane" />
		<tag k="place" v="islet" />
		<tag k="ssr:stedsnr" v="475787" />
	</node>
	<node id="-536688" lat="61.7723305545" lon="5.28601389281">
		<tag k="name" v="Sandsneset" />
		<tag k="natural" v="cape" />
		<tag k="ssr:stedsnr" v="475767" />
	</node>
	<node id="-536686" lat="61.7742722258" lon="5.29022777195">
		<tag k="name" v="Kreken" />
		<tag k="natural" v="beach" />
		<tag k="place" v="locality" />
		<tag k="ssr:stedsnr" v="475765" />
	</node>
	<node id="-536206" lat="61.8383805548" lon="4.97001389536">
		<tag k="alt_name" v="Haugsnes" />
		<tag k="name" v="Haugsneset" />
		<tag k="natural" v="cape" />
		<tag k="ssr:stedsnr" v="293315" />
	</node>
	<node id="-536697" lat="61.7370361074" lon="5.17975276994">
		<tag k="name" v="Fagreviknes" />
		<tag k="natural" v="cape" />
		<tag k="ssr:stedsnr" v="475868" />
	</node>
	<node id="-538727" lat="61.8903916637" lon="4.91633055506">
		<tag k="name" v="Jyttane" />
		<tag k="natural" v="beach" />
		<tag k="place" v="locality" />
		<tag k="ssr:stedsnr" v="779100" />
	</node>
	<node id="-536676" lat="61.8615472251" lon="5.31058611211">
		<tag k="name" v="Leirgulpollen" />
		<tag k="natural" v="bay" />
		<tag k="ssr:stedsnr" v="475604" />
	</node>
	<node id="-538723" lat="61.8219527815" lon="4.93144721461">
		<tag k="name" v="Fjøsholmen" />
		<tag k="place" v="islet" />
		<tag k="ssr:stedsnr" v="779023" />
	</node>
	<node id="-538721" lat="61.8152055574" lon="4.9380305587">
		<tag k="alt_name" v="Holsvika" />
		<tag k="name" v="Holevika" />
		<tag k="natural" v="bay" />
		<tag k="ssr:stedsnr" v="779017" />
	</node>
	<node id="-536670" lat="61.8768222201" lon="5.20441110459">
		<tag k="alt_name" v="Mjåholmane" />
		<tag k="name" v="Mjåholmen" />
		<tag k="natural" v="cape" />
		<tag k="ssr:stedsnr" v="475577" />
	</node>
	<node id="-536668" lat="61.7727444432" lon="4.9084055545">
		<tag k="name" v="Litlesundøya" />
		<tag k="place" v="islet" />
		<tag k="ssr:stedsnr" v="475439" />
	</node>
	<node id="-537274" lat="61.7372833359" lon="5.16523055389">
		<tag k="name" v="Furenesvågen" />
		<tag k="natural" v="bay" />
		<tag k="ssr:stedsnr" v="171885" />
	</node>
	<node id="-536666" lat="61.780472223" lon="4.98177777099">
		<tag k="name" v="Vågestranda" />
		<tag k="natural" v="beach" />
		<tag k="place" v="locality" />
		<tag k="ssr:stedsnr" v="475419" />
	</node>
	<node id="-538980" lat="61.7325555526" lon="4.98483056422">
		<tag k="name" v="Gardsvika" />
		<tag k="natural" v="bay" />
		<tag k="ssr:stedsnr" v="858486" />
	</node>
	<node id="-538707" lat="61.7586833321" lon="5.0454638956">
		<tag k="name" v="Sæleboto" />
		<tag k="natural" v="beach" />
		<tag k="place" v="locality" />
		<tag k="ssr:stedsnr" v="778916" />
	</node>
	<node id="-536652" lat="61.8767777763" lon="4.88548611048">
		<tag k="alt_name" v="Indre Tussevika" />
		<tag k="name" v="Inste Tussevika" />
		<tag k="natural" v="bay" />
		<tag k="ssr:stedsnr" v="475018" />
	</node>
	<node id="-538699" lat="61.7435194471" lon="5.15411111267">
		<tag k="name" v="Nesavågen" />
		<tag k="natural" v="bay" />
		<tag k="ssr:stedsnr" v="778860" />
	</node>
	<node id="-538698" lat="61.7241111122" lon="5.15185833143">
		<tag k="name" v="Mulivik" />
		<tag k="natural" v="bay" />
		<tag k="ssr:stedsnr" v="778814" />
	</node>
	<node id="-538697" lat="61.898461111" lon="5.59475833634">
		<tag k="name" v="Stranda" />
		<tag k="natural" v="beach" />
		<tag k="place" v="locality" />
		<tag k="ssr:stedsnr" v="778801" />
	</node>
	<node id="-536645" lat="61.7201416651" lon="4.96955833243">
		<tag k="name" v="Vesle Åpnarhella" />
		<tag k="natural" v="cape" />
		<tag k="ssr:stedsnr" v="474958" />
	</node>
	<node id="-538692" lat="61.7593833376" lon="5.15942222505">
		<tag k="name" v="Meholmen" />
		<tag k="place" v="islet" />
		<tag k="ssr:stedsnr" v="778776" />
	</node>
	<node id="-538690" lat="61.82576389" lon="5.12439165753">
		<tag k="name" v="Litleneset" />
		<tag k="natural" v="cape" />
		<tag k="ssr:stedsnr" v="778619" />
	</node>
	<node id="-538687" lat="61.8852777746" lon="5.32672221484">
		<tag k="name" v="Litløystraumen" />
		<tag k="natural" v="strait" />
		<tag k="ssr:stedsnr" v="778612" />
	</node>
	<node id="-536638" lat="61.7229944414" lon="5.20867222792">
		<tag k="name" v="Rotanes" />
		<tag k="natural" v="cape" />
		<tag k="ssr:stedsnr" v="474878" />
	</node>
	<node id="-538681" lat="61.9113694475" lon="5.39911944453">
		<tag k="alt_name" v="Brusenes" />
		<tag k="name" v="Bruseneset" />
		<tag k="natural" v="cape" />
		<tag k="ssr:stedsnr" v="778597" />
	</node>
	<node id="-536628" lat="61.857127777" lon="5.15681943906">
		<tag k="name" v="Buvika" />
		<tag k="natural" v="bay" />
		<tag k="ssr:stedsnr" v="474635" />
	</node>
	<node id="-538270" lat="61.8921277745" lon="5.3305333282">
		<tag k="name" v="Knarreholmsundet" />
		<tag k="natural" v="strait" />
		<tag k="ssr:stedsnr" v="656636" />
	</node>
	<node id="-538674" lat="61.8729111107" lon="5.18579722074">
		<tag k="name" v="Elvaneset" />
		<tag k="natural" v="cape" />
		<tag k="ssr:stedsnr" v="778567" />
	</node>
	<node id="-538672" lat="61.8888527738" lon="5.28596110868">
		<tag k="name" v="Hellersvika" />
		<tag k="natural" v="bay" />
		<tag k="ssr:stedsnr" v="778564" />
	</node>
	<node id="-538669" lat="61.8903194418" lon="5.23699444636">
		<tag k="fixme" v="consider seamark:type=rock or natural=shoal" />
		<tag k="name" v="Sangsteinane" />
		<tag k="place" v="islet" />
		<tag k="ssr:stedsnr" v="778560" />
	</node>
	<node id="-536633" lat="61.8989805557" lon="5.60305555967">
		<tag k="name" v="Berastøa" />
		<tag k="natural" v="beach" />
		<tag k="place" v="locality" />
		<tag k="ssr:stedsnr" v="474809" />
	</node>
	<node id="-536617" lat="61.8725722199" lon="5.19481666645">
		<tag k="name" v="Saltkjervika" />
		<tag k="natural" v="bay" />
		<tag k="ssr:stedsnr" v="474590" />
	</node>
	<node id="-538661" lat="61.8196555572" lon="5.2592138818">
		<tag k="name" v="Håvika" />
		<tag k="natural" v="bay" />
		<tag k="ssr:stedsnr" v="778514" />
	</node>
	<node id="-538660" lat="61.8179222245" lon="5.24965834238">
		<tag k="fixme" v="consider seamark:type=rock or natural=shoal" />
		<tag k="name" v="Løypingskjeret" />
		<tag k="place" v="islet" />
		<tag k="ssr:stedsnr" v="778505" />
	</node>
	<node id="-536611" lat="61.754333329" lon="4.82602499195">
		<tag k="name" v="Sandsundet" />
		<tag k="natural" v="strait" />
		<tag k="ssr:stedsnr" v="474496" />
	</node>
	<node id="-538658" lat="61.7518083328" lon="4.83269443926">
		<tag k="name" v="Steinholmane" />
		<tag k="place" v="islet" />
		<tag k="ssr:stedsnr" v="778485" />
	</node>
	<node id="-536608" lat="61.8010638909" lon="5.0485111193">
		<tag k="name" v="Storevika" />
		<tag k="natural" v="bay" />
		<tag k="ssr:stedsnr" v="474425" />
	</node>
	<node id="-539312" lat="61.7227361113" lon="5.17917500911">
		<tag k="name" v="Flævika" />
		<tag k="natural" v="bay" />
		<tag k="ssr:stedsnr" v="960898" />
	</node>
	<node id="-537263" lat="61.8899222244" lon="5.34648610964">
		<tag k="name" v="Vågsstranda" />
		<tag k="natural" v="beach" />
		<tag k="place" v="locality" />
		<tag k="ssr:stedsnr" v="171655" />
	</node>
	<node id="-538648" lat="61.7838222257" lon="4.96490833998">
		<tag k="name" v="Rognholmen" />
		<tag k="place" v="islet" />
		<tag k="ssr:stedsnr" v="778415" />
	</node>
	<node id="-538646" lat="61.7680361127" lon="4.84595556108">
		<tag k="fixme" v="consider seamark:type=rock or natural=shoal" />
		<tag k="name" v="Sildegarnskjeret" />
		<tag k="place" v="islet" />
		<tag k="ssr:stedsnr" v="778402" />
	</node>
	<node id="-538643" lat="61.7673083304" lon="4.88002500411">
		<tag k="name" v="Myrnesvika" />
		<tag k="natural" v="bay" />
		<tag k="ssr:stedsnr" v="778371" />
	</node>
	<node id="-536579" lat="61.8100694475" lon="4.95242500699">
		<tag k="name" v="Myrastranda" />
		<tag k="natural" v="beach" />
		<tag k="place" v="locality" />
		<tag k="ssr:stedsnr" v="391841" />
	</node>
	<node id="-536578" lat="61.7871305533" lon="4.92363054937">
		<tag k="name" v="Rotaneset" />
		<tag k="natural" v="cape" />
		<tag k="ssr:stedsnr" v="390599" />
	</node>
</osm>
