<?xml version="1.0" encoding="UTF-8"?>
<osm generator="osmapis" version="0.6">
	<node id="-537568" lat="61.8788999983" lon="5.47394166925">
		<tag k="name" v="Blåfjellmurane" />
		<tag k="place" v="locality" />
		<tag k="ssr:stedsnr" v="253442" />
	</node>
	<node id="-537567" lat="61.878475002" lon="5.52039999666">
		<tag k="name" v="Tungesela" />
		<tag k="place" v="locality" />
		<tag k="ssr:stedsnr" v="253438" />
	</node>
	<node id="-538394" lat="61.855122225" lon="5.52514445352">
		<tag k="name" v="Uglestøylen" />
		<tag k="place" v="locality" />
		<tag k="ssr:stedsnr" v="677367" />
	</node>
	<node id="-536377" lat="61.8319472216" lon="5.58917778163">
		<tag k="name" v="Laksegarden" />
		<tag k="place" v="locality" />
		<tag k="ssr:stedsnr" v="353188" />
	</node>
	<node id="-537366" lat="61.8872361095" lon="5.34419444201">
		<tag k="alt_name" v="Rugsund" />
		<tag k="amenity" v="place_of_worship" />
		<tag k="denomination" v="lutheran" />
		<tag k="name" v="Rugsund kyrkje" />
		<tag k="religion" v="christian" />
		<tag k="ssr:stedsnr" v="192210" />
	</node>
	<node id="-538165" lat="61.7665694439" lon="5.28442500869">
		<tag k="alt_name" v="Svelgen" />
		<tag k="amenity" v="place_of_worship" />
		<tag k="denomination" v="lutheran" />
		<tag k="name" v="Svelgen kapell" />
		<tag k="religion" v="christian" />
		<tag k="ssr:stedsnr" v="616079" />
	</node>
	<node id="-538452" lat="61.892116667" lon="5.53231667611">
		<tag k="amenity" v="place_of_worship" />
		<tag k="denomination" v="lutheran" />
		<tag k="name" v="Davik kyrkje" />
		<tag k="religion" v="christian" />
		<tag k="ssr:stedsnr" v="717591" />
	</node>
	<node id="-537714" lat="61.7756965613" lon="4.89751551459">
		<tag k="alt_name" v="Frøya" />
		<tag k="amenity" v="place_of_worship" />
		<tag k="denomination" v="lutheran" />
		<tag k="name" v="Frøya kyrkje" />
		<tag k="religion" v="christian" />
		<tag k="ssr:stedsnr" v="434796" />
	</node>
	<node id="-537200" lat="61.8396343786" lon="5.67807750595">
		<tag k="alt_name" v="Ålfoten" />
		<tag k="amenity" v="place_of_worship" />
		<tag k="denomination" v="lutheran" />
		<tag k="name" v="Ålfoten kyrkje" />
		<tag k="religion" v="christian" />
		<tag k="ssr:stedsnr" v="146315" />
	</node>
	<node id="-538828" lat="61.8434305583" lon="4.96628610335">
		<tag k="alt_name" v="Bremanger;Bremanger kapell" />
		<tag k="amenity" v="place_of_worship" />
		<tag k="denomination" v="lutheran" />
		<tag k="name" v="Bremanger kyrkje" />
		<tag k="religion" v="christian" />
		<tag k="ssr:stedsnr" v="799928" />
	</node>
	<node id="-539179" lat="61.7402750021" lon="5.16315834051">
		<tag k="alt_name" v="Midtgulen" />
		<tag k="amenity" v="place_of_worship" />
		<tag k="denomination" v="lutheran" />
		<tag k="name" v="Midtgulen kyrkje" />
		<tag k="religion" v="christian" />
		<tag k="ssr:stedsnr" v="919831" />
	</node>
	<node id="-538376" lat="61.8277833363" lon="5.11514445276">
		<tag k="alt_name" v="Berle;Berle kapell" />
		<tag k="amenity" v="place_of_worship" />
		<tag k="denomination" v="lutheran" />
		<tag k="name" v="Berle kyrkje" />
		<tag k="religion" v="christian" />
		<tag k="ssr:stedsnr" v="677129" />
	</node>
	<node id="-539271" lat="61.8978027771" lon="5.5477027805">
		<tag k="name" v="Daven sjømerke" />
		<tag k="place" v="locality" />
		<tag k="ssr:stedsnr" v="960563" />
	</node>
	<node id="-536342" lat="61.8816472203" lon="5.48906388445">
		<tag k="name" v="Kaldgrø" />
		<tag k="place" v="locality" />
		<tag k="ssr:stedsnr" v="313418" />
	</node>
</osm>
