<?xml version="1.0" encoding="UTF-8"?>
<osm generator="osmapis" version="0.6">
	<node id="-539640" lat="61.8360500014" lon="5.59883611897">
		<tag k="ford" v="yes" />
		<tag k="name" v="Litlestøylvadet" />
		<tag k="place" v="locality" />
		<tag k="ssr:stedsnr" v="839157" />
	</node>
	<node id="-539635" lat="61.8488944423" lon="5.36759999412">
		<tag k="bridge" v="yes" />
		<tag k="layer" v="1" />
		<tag k="name" v="Bortne halvbru" />
		<tag k="ssr:stedsnr" v="836629" />
	</node>
	<node id="-539634" lat="61.9046138867" lon="5.48283610942">
		<tag k="bridge" v="yes" />
		<tag k="layer" v="1" />
		<tag k="name" v="Endal" />
		<tag k="ssr:stedsnr" v="836625" />
	</node>
	<node id="-538609" lat="61.7211555593" lon="5.21236111536">
		<tag k="bridge" v="yes" />
		<tag k="layer" v="1" />
		<tag k="name" v="Myklebust" />
		<tag k="ssr:stedsnr" v="533662" />
	</node>
	<node id="-538608" lat="61.7213638865" lon="5.18553056347">
		<tag k="bridge" v="yes" />
		<tag k="layer" v="1" />
		<tag k="name" v="Myklebust" />
		<tag k="ssr:stedsnr" v="533661" />
	</node>
	<node id="-538607" lat="61.8944638918" lon="5.53002221881">
		<tag k="bridge" v="yes" />
		<tag k="layer" v="1" />
		<tag k="name" v="Berge" />
		<tag k="ssr:stedsnr" v="533645" />
	</node>
	<node id="-538604" lat="61.7683999987" lon="5.30208334293">
		<tag k="layer" v="-1" />
		<tag k="name" v="Storefosstunnelen" />
		<tag k="ssr:stedsnr" v="506496" />
		<tag k="tunnel" v="yes" />
	</node>
	<node id="-540138" lat="61.825294446" lon="5.38988888457">
		<tag k="layer" v="-1" />
		<tag k="name" v="Bortnetunnelen" />
		<tag k="ssr:stedsnr" v="965612" />
		<tag k="tunnel" v="yes" />
	</node>
	<node id="-540126" lat="61.7733722259" lon="5.2946472136">
		<tag k="man_made" v="quay" />
		<tag k="name" v="Verkskaia" />
		<tag k="place" v="locality" />
		<tag k="ssr:stedsnr" v="963183" />
	</node>
	<node id="-537537" lat="61.8150979498" lon="5.22996705643">
		<tag k="man_made" v="quay" />
		<tag k="name" v="Hennøystranda" />
		<tag k="place" v="locality" />
		<tag k="ssr:stedsnr" v="1073477" />
	</node>
	<node id="-538611" lat="61.8094611071" lon="4.84377500443">
		<tag k="man_made" v="cairn" />
		<tag k="name" v="Vardane" />
		<tag k="place" v="locality" />
		<tag k="ssr:stedsnr" v="535038" />
	</node>
	<node id="-538539" lat="61.773430557" lon="5.3148472131">
		<tag k="bridge" v="yes" />
		<tag k="layer" v="1" />
		<tag k="name" v="Storefossvann" />
		<tag k="ssr:stedsnr" v="472631" />
	</node>
	<node id="-538538" lat="61.8743888858" lon="5.07642222034">
		<tag k="layer" v="-1" />
		<tag k="name" v="Oldeide" />
		<tag k="ssr:stedsnr" v="469357" />
		<tag k="tunnel" v="yes" />
	</node>
	<node id="-538537" lat="61.8727416653" lon="5.30599166617">
		<tag k="layer" v="-1" />
		<tag k="name" v="Krakevik" />
		<tag k="ssr:stedsnr" v="469275" />
		<tag k="tunnel" v="yes" />
	</node>
	<node id="-537497" lat="61.7687972186" lon="5.29286388534">
		<tag k="bridge" v="yes" />
		<tag k="layer" v="1" />
		<tag k="name" v="Rise-Elv" />
		<tag k="ssr:stedsnr" v="897618" />
	</node>
	<node id="-537496" lat="61.8751416694" lon="5.32767221316">
		<tag k="bridge" v="yes" />
		<tag k="layer" v="1" />
		<tag k="name" v="Olsbøbru" />
		<tag k="ssr:stedsnr" v="897615" />
	</node>
	<node id="-537495" lat="61.8619472204" lon="5.31468332544">
		<tag k="bridge" v="yes" />
		<tag k="layer" v="1" />
		<tag k="name" v="Leirgulen" />
		<tag k="ssr:stedsnr" v="897613" />
	</node>
	<node id="-537494" lat="61.7621611072" lon="5.26462500097">
		<tag k="bridge" v="yes" />
		<tag k="layer" v="1" />
		<tag k="name" v="Breivik" />
		<tag k="ssr:stedsnr" v="897598" />
	</node>
	<node id="-537493" lat="61.7730888851" lon="5.18238056459">
		<tag k="bridge" v="yes" />
		<tag k="layer" v="1" />
		<tag k="name" v="Dyrstad" />
		<tag k="ssr:stedsnr" v="897597" />
	</node>
	<node id="-539537" lat="61.7409861149" lon="4.73468611268">
		<tag k="name" v="Søre Raudskjerleia" />
		<tag k="place" v="locality" />
		<tag k="ssr:stedsnr" v="782933" />
	</node>
	<node id="-537993" lat="61.7700638869" lon="5.29742500683">
		<tag k="bridge" v="yes" />
		<tag k="layer" v="1" />
		<tag k="name" v="Svelgfoss" />
		<tag k="ssr:stedsnr" v="168655" />
	</node>
	<node id="-539628" lat="61.7755111072" lon="5.31355833247">
		<tag k="layer" v="-1" />
		<tag k="name" v="Storefoss" />
		<tag k="ssr:stedsnr" v="833710" />
		<tag k="tunnel" v="yes" />
	</node>
	<node id="-539526" lat="61.7696222207" lon="5.29088889424">
		<tag k="man_made" v="quay" />
		<tag k="name" v="Kommunekaia" />
		<tag k="place" v="locality" />
		<tag k="ssr:stedsnr" v="781180" />
	</node>
	<node id="-539013" lat="61.8334805578" lon="5.46821110861">
		<tag k="bridge" v="yes" />
		<tag k="layer" v="1" />
		<tag k="name" v="Langesjøbrua" />
		<tag k="ssr:stedsnr" v="654641" />
	</node>
	<node id="-538006" lat="61.8327749983" lon="5.60083334">
		<tag k="ford" v="yes" />
		<tag k="name" v="Veltevadet" />
		<tag k="place" v="locality" />
		<tag k="ssr:stedsnr" v="171143" />
	</node>
	<node id="-536949" lat="61.7393111086" lon="5.21660833828">
		<tag k="fixme" v="consider highway=path" />
		<tag k="highway" v="track" />
		<tag k="name" v="Nyhjellvegen" />
		<tag k="ssr:stedsnr" v="292885" />
	</node>
	<node id="-536945" lat="61.7595722202" lon="5.16502222792">
		<tag k="fixme" v="verify maritime location" />
		<tag k="mooring" v="yes" />
		<tag k="name" v="Lendingen" />
		<tag k="place" v="locality" />
		<tag k="ssr:stedsnr" v="292799" />
	</node>
	<node id="-540014" lat="61.7028722231" lon="5.19388611893">
		<tag k="bridge" v="yes" />
		<tag k="layer" v="1" />
		<tag k="name" v="Magnhildskar" />
		<tag k="ssr:stedsnr" v="958673" />
	</node>
	<node id="-540013" lat="61.7449138919" lon="5.01007777938">
		<tag k="bridge" v="yes" />
		<tag k="layer" v="1" />
		<tag k="name" v="Elva" />
		<tag k="ssr:stedsnr" v="957623" />
	</node>
	<node id="-540012" lat="61.8689250023" lon="5.27313610756">
		<tag k="layer" v="-1" />
		<tag k="name" v="Haukedal" />
		<tag k="ssr:stedsnr" v="954483" />
		<tag k="tunnel" v="yes" />
	</node>
	<node id="-536912" lat="61.831574996" lon="4.9895916642">
		<tag k="bridge" v="yes" />
		<tag k="layer" v="1" />
		<tag k="name" v="Naustdal" />
		<tag k="ssr:stedsnr" v="290580" />
	</node>
	<node id="-536911" lat="61.8864666682" lon="5.3480527715">
		<tag k="bridge" v="yes" />
		<tag k="layer" v="1" />
		<tag k="name" v="Hessevåg" />
		<tag k="ssr:stedsnr" v="290572" />
	</node>
	<node id="-536910" lat="61.8190444408" lon="4.96528334196">
		<tag k="bridge" v="yes" />
		<tag k="layer" v="1" />
		<tag k="name" v="Eikeset" />
		<tag k="ssr:stedsnr" v="290568" />
	</node>
	<node id="-539457" lat="61.9062611132" lon="5.48059999085">
		<tag k="fixme" v="verify maritime location" />
		<tag k="mooring" v="yes" />
		<tag k="name" v="Syrestøda" />
		<tag k="place" v="locality" />
		<tag k="ssr:stedsnr" v="778561" />
	</node>
	<node id="-539437" lat="61.7781583364" lon="4.88641111847">
		<tag k="man_made" v="cairn" />
		<tag k="name" v="Høgevarden" />
		<tag k="place" v="locality" />
		<tag k="ssr:stedsnr" v="778431" />
	</node>
	<node id="-539938" lat="61.7945777791" lon="5.34326111425">
		<tag k="highway" v="path" />
		<tag k="name" v="Årdalvegen" />
		<tag k="ssr:stedsnr" v="900973" />
	</node>
	<node id="-538905" lat="61.7048472187" lon="5.11495555465">
		<tag k="highway" v="path" />
		<tag k="name" v="Timbreløypet" />
		<tag k="ssr:stedsnr" v="596902" />
	</node>
	<node id="-539408" lat="61.8811349672" lon="5.71518842826">
		<tag k="amenity" v="ferry_terminal" />
		<tag k="name" v="Isane ferjekai" />
		<tag k="ssr:stedsnr" v="775630" />
	</node>
	<node id="-539407" lat="61.7775999971" lon="5.26384445264">
		<tag k="bridge" v="yes" />
		<tag k="layer" v="1" />
		<tag k="name" v="Klyveren" />
		<tag k="ssr:stedsnr" v="775628" />
	</node>
	<node id="-539406" lat="61.7724944443" lon="4.91974722168">
		<tag k="bridge" v="yes" />
		<tag k="layer" v="1" />
		<tag k="name" v="Hamrøy" />
		<tag k="ssr:stedsnr" v="775618" />
	</node>
	<node id="-539405" lat="61.7299444483" lon="5.21586110406">
		<tag k="bridge" v="yes" />
		<tag k="layer" v="1" />
		<tag k="name" v="Indrehus" />
		<tag k="ssr:stedsnr" v="775614" />
	</node>
	<node id="-539404" lat="61.8475972185" lon="5.38610554687">
		<tag k="bridge" v="yes" />
		<tag k="layer" v="1" />
		<tag k="name" v="Bortne" />
		<tag k="ssr:stedsnr" v="775610" />
	</node>
	<node id="-539403" lat="61.7586888928" lon="5.19341110539">
		<tag k="bridge" v="yes" />
		<tag k="layer" v="1" />
		<tag k="name" v="Birkelid" />
		<tag k="ssr:stedsnr" v="775600" />
	</node>
	<node id="-539398" lat="61.8767222202" lon="5.22460555812">
		<tag k="layer" v="-1" />
		<tag k="name" v="Skatestraumtunnelen" />
		<tag k="ssr:stedsnr" v="749403" />
		<tag k="tunnel" v="yes" />
	</node>
	<node id="-538370" lat="61.7610138843" lon="5.2376111022">
		<tag k="layer" v="-1" />
		<tag k="name" v="Eikelandstunnelen" />
		<tag k="ssr:stedsnr" v="263524" />
		<tag k="tunnel" v="yes" />
	</node>
	<node id="-537342" lat="61.7202250039" lon="5.1020194461">
		<tag k="bridge" v="yes" />
		<tag k="layer" v="1" />
		<tag k="name" v="Sagelva" />
		<tag k="ssr:stedsnr" v="411640" />
	</node>
	<node id="-537341" lat="61.8767472238" lon="5.22460000066">
		<tag k="layer" v="-1" />
		<tag k="name" v="Skatestraum" />
		<tag k="ssr:stedsnr" v="408745" />
		<tag k="tunnel" v="yes" />
	</node>
	<node id="-537326" lat="61.8727305519" lon="5.30602222508">
		<tag k="layer" v="-1" />
		<tag k="name" v="Krakeviktunnelen" />
		<tag k="ssr:stedsnr" v="384391" />
		<tag k="tunnel" v="yes" />
	</node>
	<node id="-538327" lat="61.8133805579" lon="5.66617499523">
		<tag k="landuse" v="industrial" />
		<tag k="name" v="Åskåra Kraftverk" />
		<tag k="old_name" v="Åskora kraftstasjon" />
		<tag k="power" v="plant" />
		<tag k="ssr:stedsnr" v="252308" />
	</node>
	<node id="-537807" lat="61.7391194442" lon="5.21313332722">
		<tag k="fixme" v="consider highway=path" />
		<tag k="highway" v="track" />
		<tag k="name" v="Setrevegen" />
		<tag k="ssr:stedsnr" v="110886" />
	</node>
	<node id="-537799" lat="61.7169972266" lon="5.10516388402">
		<tag k="bridge" v="yes" />
		<tag k="layer" v="1" />
		<tag k="name" v="Trollefjellselva" />
		<tag k="ssr:stedsnr" v="108660" />
	</node>
	<node id="-537798" lat="61.8393666623" lon="4.99003333748">
		<tag k="bridge" v="yes" />
		<tag k="layer" v="1" />
		<tag k="name" v="Kanalen" />
		<tag k="ssr:stedsnr" v="108649" />
	</node>
	<node id="-537795" lat="61.8478722259" lon="5.72295555947">
		<tag k="layer" v="-1" />
		<tag k="name" v="Isetunnelen" />
		<tag k="ssr:stedsnr" v="82478" />
		<tag k="tunnel" v="yes" />
	</node>
	<node id="-538817" lat="61.8539861121" lon="4.99234721348">
		<tag k="bridge" v="yes" />
		<tag k="layer" v="1" />
		<tag k="name" v="Svarstad" />
		<tag k="ssr:stedsnr" v="593598" />
	</node>
	<node id="-538816" lat="61.7704083343" lon="5.30478610326">
		<tag k="bridge" v="yes" />
		<tag k="layer" v="1" />
		<tag k="name" v="Svelgsfoss" />
		<tag k="ssr:stedsnr" v="593599" />
	</node>
	<node id="-538815" lat="61.7755416677" lon="5.29113611484">
		<tag k="bridge" v="yes" />
		<tag k="layer" v="1" />
		<tag k="name" v="Sande" />
		<tag k="ssr:stedsnr" v="593595" />
	</node>
	<node id="-538814" lat="61.7240138867" lon="5.10355834257">
		<tag k="bridge" v="yes" />
		<tag k="layer" v="1" />
		<tag k="name" v="Mørkedalselva" />
		<tag k="ssr:stedsnr" v="593590" />
	</node>
	<node id="-538291" lat="61.7711111123" lon="5.2957916635">
		<tag k="man_made" v="quay" />
		<tag k="name" v="Stasjonskaia" />
		<tag k="place" v="locality" />
		<tag k="ssr:stedsnr" v="235193" />
	</node>
	<node id="-539846" lat="61.7619888896" lon="4.8927638868">
		<tag k="man_made" v="cairn" />
		<tag k="name" v="Langeskjervarden" />
		<tag k="place" v="locality" />
		<tag k="ssr:stedsnr" v="900486" />
	</node>
	<node id="-537226" lat="61.7611444409" lon="5.28877221626">
		<tag k="fixme" v="verify maritime location" />
		<tag k="mooring" v="yes" />
		<tag k="name" v="Lendingen" />
		<tag k="place" v="locality" />
		<tag k="ssr:stedsnr" v="354026" />
	</node>
	<node id="-537224" lat="61.7508277803" lon="5.28412499273">
		<tag k="highway" v="path" />
		<tag k="name" v="Rikeloftstigen" />
		<tag k="ssr:stedsnr" v="354020" />
	</node>
	<node id="-539269" lat="61.8492888894" lon="5.74202500531">
		<tag k="highway" v="path" />
		<tag k="name" v="Hagestien" />
		<tag k="ssr:stedsnr" v="717752" />
	</node>
	<node id="-538238" lat="61.8903777816" lon="5.30722222351">
		<tag k="fixme" v="verify maritime location" />
		<tag k="mooring" v="yes" />
		<tag k="name" v="Kråkevåg" />
		<tag k="place" v="locality" />
		<tag k="ssr:stedsnr" v="232538" />
	</node>
	<node id="-538747" lat="61.8485083347" lon="5.3738416626">
		<tag k="layer" v="-1" />
		<tag k="name" v="Holnestunnelen" />
		<tag k="ssr:stedsnr" v="540594" />
		<tag k="tunnel" v="yes" />
	</node>
	<node id="-538216" lat="61.7770222204" lon="4.8802777871">
		<tag k="man_made" v="cairn" />
		<tag k="name" v="Lægdevarden" />
		<tag k="place" v="locality" />
		<tag k="ssr:stedsnr" v="232356" />
	</node>
	<node id="-539232" lat="61.8480666673" lon="5.28895833359">
		<tag k="fixme" v="verify maritime location" />
		<tag k="mooring" v="yes" />
		<tag k="name" v="Marøyhamnen" />
		<tag k="place" v="locality" />
		<tag k="ssr:stedsnr" v="717575" />
	</node>
	<node id="-538718" lat="61.7855888865" lon="5.30833055004">
		<tag k="fixme" v="verify maritime location" />
		<tag k="mooring" v="yes" />
		<tag k="name" v="Lendingen" />
		<tag k="place" v="locality" />
		<tag k="ssr:stedsnr" v="536770" />
	</node>
	<node id="-539741" lat="61.7617888905" lon="5.0982194416">
		<tag k="fixme" v="verify maritime location" />
		<tag k="mooring" v="yes" />
		<tag k="name" v="Ospehamn" />
		<tag k="place" v="locality" />
		<tag k="ssr:stedsnr" v="840843" />
	</node>
	<node id="-538196" lat="61.7866444447" lon="4.93032777502">
		<tag k="bridge" v="yes" />
		<tag k="layer" v="1" />
		<tag k="name" v="Trangesundet" />
		<tag k="ssr:stedsnr" v="229667" />
	</node>
	<node id="-538195" lat="61.7517805516" lon="5.02673888274">
		<tag k="bridge" v="yes" />
		<tag k="layer" v="1" />
		<tag k="name" v="Skudalselva" />
		<tag k="ssr:stedsnr" v="229666" />
	</node>
	<node id="-538194" lat="61.7683888893" lon="5.30200834131">
		<tag k="layer" v="-1" />
		<tag k="name" v="Litlevatn" />
		<tag k="ssr:stedsnr" v="226345" />
		<tag k="tunnel" v="yes" />
	</node>
	<node id="-537681" lat="61.8979027816" lon="5.58381110862">
		<tag k="highway" v="path" />
		<tag k="name" v="Stigen" />
		<tag k="ssr:stedsnr" v="50857" />
	</node>
	<node id="-538704" lat="61.8344361086" lon="5.63514722068">
		<tag k="ford" v="yes" />
		<tag k="name" v="Breivadet" />
		<tag k="place" v="locality" />
		<tag k="ssr:stedsnr" v="536209" />
	</node>
	<node id="-539213" lat="61.8606027786" lon="5.31128056196">
		<tag k="bridge" v="yes" />
		<tag k="layer" v="1" />
		<tag k="name" v="Lofnes" />
		<tag k="ssr:stedsnr" v="715651" />
	</node>
	<node id="-539212" lat="61.837197222" lon="5.00093610229">
		<tag k="bridge" v="yes" />
		<tag k="layer" v="1" />
		<tag k="name" v="Førde" />
		<tag k="ssr:stedsnr" v="715641" />
	</node>
	<node id="-539211" lat="61.8705694421" lon="5.14664721797">
		<tag k="layer" v="-1" />
		<tag k="name" v="Berletunnelen" />
		<tag k="ssr:stedsnr" v="706965" />
		<tag k="tunnel" v="yes" />
	</node>
	<node id="-537612" lat="61.7310388868" lon="5.21196110595">
		<tag k="bridge" v="yes" />
		<tag k="layer" v="1" />
		<tag k="name" v="Sætreelva" />
		<tag k="ssr:stedsnr" v="47662" />
	</node>
	<node id="-539187" lat="61.76995583" lon="4.93251554198">
		<tag k="man_made" v="quay" />
		<tag k="name" v="Smørhamn" />
		<tag k="place" v="locality" />
		<tag k="ssr:stedsnr" v="677859" />
	</node>
	<node id="-537647" lat="61.8708222213" lon="5.34398055657">
		<tag k="man_made" v="cairn" />
		<tag k="name" v="Varden" />
		<tag k="place" v="locality" />
		<tag k="ssr:stedsnr" v="50428" />
	</node>
	<node id="-537009" lat="61.8784888913" lon="5.5775055614">
		<tag k="highway" v="path" />
		<tag k="name" v="Sørstigen" />
		<tag k="ssr:stedsnr" v="293886" />
	</node>
	<node id="-537123" lat="61.8792709551" lon="5.0781477642">
		<tag k="amenity" v="ferry_terminal" />
		<tag k="name" v="Oldeide ferjekai" />
		<tag k="ssr:stedsnr" v="350627" />
	</node>
	<node id="-537122" lat="61.8588999987" lon="5.03527222526">
		<tag k="bridge" v="yes" />
		<tag k="layer" v="1" />
		<tag k="name" v="Klungreset" />
		<tag k="ssr:stedsnr" v="350622" />
	</node>
	<node id="-537121" lat="61.8408805534" lon="4.97026111772">
		<tag k="bridge" v="yes" />
		<tag k="layer" v="1" />
		<tag k="name" v="Haugselva" />
		<tag k="ssr:stedsnr" v="350621" />
	</node>
	<node id="-537120" lat="61.8417499984" lon="5.80275277527">
		<tag k="landuse" v="industrial" />
		<tag k="name" v="Øksneelvane Kraftverk" />
		<tag k="old_name" v="Yksneelvane kraftverk;Yksnelva kraftstasjon" />
		<tag k="power" v="plant" />
		<tag k="ssr:stedsnr" v="330534" />
	</node>
	<node id="-537119" lat="61.8742777799" lon="5.07646944953">
		<tag k="layer" v="-1" />
		<tag k="name" v="Oldeidstunnelen" />
		<tag k="ssr:stedsnr" v="324494" />
		<tag k="tunnel" v="yes" />
	</node>
	<node id="-538124" lat="61.7148444403" lon="4.7383027833">
		<tag k="name" v="Toddeskjerleia" />
		<tag k="place" v="locality" />
		<tag k="ssr:stedsnr" v="175925" />
	</node>
	<node id="-537611" lat="61.7432944412" lon="5.15511944592">
		<tag k="amenity" v="ferry_terminal" />
		<tag k="name" v="Kjelkenes ferjekai" />
		<tag k="ssr:stedsnr" v="47647" />
	</node>
	<node id="-537610" lat="61.7623500037" lon="5.26813888684">
		<tag k="bridge" v="yes" />
		<tag k="layer" v="1" />
		<tag k="name" v="Langeneset" />
		<tag k="ssr:stedsnr" v="47644" />
	</node>
	<node id="-537609" lat="61.7560388875" lon="5.05967222243">
		<tag k="bridge" v="yes" />
		<tag k="layer" v="1" />
		<tag k="name" v="Gulestø" />
		<tag k="ssr:stedsnr" v="47643" />
	</node>
	<node id="-537608" lat="61.7016861145" lon="5.16187777352">
		<tag k="bridge" v="yes" />
		<tag k="layer" v="1" />
		<tag k="name" v="Flatøyr" />
		<tag k="ssr:stedsnr" v="47633" />
	</node>
	<node id="-537607" lat="61.7610111078" lon="5.237605562">
		<tag k="layer" v="-1" />
		<tag k="name" v="Eikeland" />
		<tag k="ssr:stedsnr" v="44392" />
		<tag k="tunnel" v="yes" />
	</node>
</osm>
