<?xml version="1.0" encoding="UTF-8"?>
<osm generator="osmapis" version="0.6">
	<node id="-539648" lat="61.8438638927" lon="5.6830666646">
		<tag k="name" v="Einehaugen" />
		<tag k="place" v="locality" />
		<tag k="ssr:stedsnr" v="839240" />
	</node>
	<node id="-537088" lat="61.8732616378" lon="5.3073276535">
		<tag k="fixme" v="consider place=hamlet" />
		<tag k="name" v="Krakevika" />
		<tag k="place" v="farm" />
		<tag k="ssr:stedsnr" v="313189" />
	</node>
	<node id="-537598" lat="61.80105556" lon="4.84116666626">
		<tag k="name" v="Plassen" />
		<tag k="place" v="locality" />
		<tag k="ssr:stedsnr" v="10928" />
	</node>
	<node id="-538621" lat="61.8611134728" lon="5.01789461489">
		<tag k="fixme" v="consider place=hamlet" />
		<tag k="name" v="Varpe" />
		<tag k="place" v="farm" />
		<tag k="ssr:stedsnr" v="535304" />
	</node>
	<node id="-539132" lat="61.7181902862" lon="5.01126161335">
		<tag k="fixme" v="consider place=hamlet" />
		<tag k="name" v="Øvrebotnen" />
		<tag k="place" v="farm" />
		<tag k="ssr:stedsnr" v="659746" />
	</node>
	<node id="-538619" lat="61.8594662282" lon="5.03434296957">
		<tag k="fixme" v="consider place=hamlet" />
		<tag k="name" v="Klungreset" />
		<tag k="place" v="farm" />
		<tag k="ssr:stedsnr" v="535290" />
	</node>
	<node id="-537855" lat="61.8929722216" lon="5.43958611667">
		<tag k="name" v="Skarsliflata" />
		<tag k="place" v="isolated_dwelling" />
		<tag k="ssr:stedsnr" v="111567" />
	</node>
	<node id="-540151" lat="61.887882146" lon="5.64506509144">
		<tag k="fixme" v="consider place=hamlet" />
		<tag k="name" v="Dombestein" />
		<tag k="place" v="farm" />
		<tag k="ssr:stedsnr" v="973834" />
	</node>
	<node id="-540150" lat="61.8847915435" lon="5.34373115156">
		<tag k="alt_name" v="Hessevågbakke" />
		<tag k="fixme" v="consider place=hamlet" />
		<tag k="name" v="Hessevågbakken" />
		<tag k="place" v="farm" />
		<tag k="ssr:stedsnr" v="973832" />
	</node>
	<node id="-540149" lat="61.880565507" lon="5.07508457303">
		<tag k="fixme" v="consider place=hamlet" />
		<tag k="name" v="Oldeide" />
		<tag k="place" v="farm" />
		<tag k="ssr:stedsnr" v="973825" />
	</node>
	<node id="-540148" lat="61.8820970568" lon="5.12641658059">
		<tag k="fixme" v="consider place=hamlet" />
		<tag k="name" v="Bjørnøyna" />
		<tag k="place" v="farm" />
		<tag k="ssr:stedsnr" v="973822" />
	</node>
	<node id="-540147" lat="61.7237666502" lon="5.14747940633">
		<tag k="fixme" v="consider place=hamlet" />
		<tag k="name" v="Mullia" />
		<tag k="place" v="farm" />
		<tag k="ssr:stedsnr" v="973821" />
	</node>
	<node id="-540146" lat="61.721808816" lon="5.18666408798">
		<tag k="fixme" v="consider place=hamlet" />
		<tag k="name" v="Myklebust" />
		<tag k="place" v="farm" />
		<tag k="ssr:stedsnr" v="973819" />
	</node>
	<node id="-540145" lat="61.7419928488" lon="5.15557227612">
		<tag k="fixme" v="consider place=hamlet" />
		<tag k="name" v="Kjelkenes" />
		<tag k="place" v="farm" />
		<tag k="ssr:stedsnr" v="973817" />
	</node>
	<node id="-540144" lat="61.7700640794" lon="4.93013800464">
		<tag k="fixme" v="consider place=hamlet" />
		<tag k="name" v="Smørhamn" />
		<tag k="place" v="farm" />
		<tag k="ssr:stedsnr" v="973815" />
	</node>
	<node id="-540143" lat="61.8263899737" lon="4.96194518032">
		<tag k="alt_name" v="Løvik" />
		<tag k="fixme" v="consider place=hamlet" />
		<tag k="name" v="Løvika" />
		<tag k="place" v="farm" />
		<tag k="ssr:stedsnr" v="973814" />
	</node>
	<node id="-540142" lat="61.8381026661" lon="4.95925625299">
		<tag k="fixme" v="consider place=hamlet" />
		<tag k="name" v="Holmen" />
		<tag k="place" v="farm" />
		<tag k="ssr:stedsnr" v="973812" />
	</node>
	<node id="-540141" lat="61.8395187368" lon="4.94905956482">
		<tag k="fixme" v="consider place=hamlet" />
		<tag k="name" v="Torvanger" />
		<tag k="place" v="farm" />
		<tag k="ssr:stedsnr" v="973811" />
	</node>
	<node id="-537068" lat="61.7305747087" lon="5.2153395193">
		<tag k="fixme" v="consider place=hamlet" />
		<tag k="name" v="Indrehus" />
		<tag k="place" v="farm" />
		<tag k="ssr:stedsnr" v="312805" />
	</node>
	<node id="-537067" lat="61.7235991361" lon="5.14958952591">
		<tag k="name" v="Store Mullia" />
		<tag k="place" v="farm" />
		<tag k="ssr:stedsnr" v="312802" />
	</node>
	<node id="-538602" lat="61.8424388894" lon="5.05786388636">
		<tag k="historic" v="shieling" />
		<tag k="name" v="Hesjedalen" />
		<tag k="place" v="locality" />
		<tag k="ssr:stedsnr" v="506010" />
	</node>
	<node id="-539624" lat="61.8566931887" lon="5.32247184005">
		<tag k="name" v="Lofnes" />
		<tag k="place" v="farm" />
		<tag k="ssr:stedsnr" v="813710" />
	</node>
	<node id="-539623" lat="61.8502126633" lon="5.34691064178">
		<tag k="fixme" v="consider place=hamlet" />
		<tag k="name" v="Mjånes" />
		<tag k="place" v="farm" />
		<tag k="ssr:stedsnr" v="813686" />
	</node>
	<node id="-538790" lat="61.8626777803" lon="5.40669999275">
		<tag k="name" v="Huldrehaugen" />
		<tag k="place" v="locality" />
		<tag k="ssr:stedsnr" v="556187" />
	</node>
	<node id="-540130" lat="61.7780638917" lon="4.89550556052">
		<tag k="name" v="Røys" />
		<tag k="place" v="farm" />
		<tag k="ssr:stedsnr" v="963752" />
	</node>
	<node id="-539617" lat="61.8068388859" lon="4.91263611498">
		<tag k="name" v="Novelandet" />
		<tag k="place" v="hamlet" />
		<tag k="ssr:stedsnr" v="799943" />
	</node>
	<node id="-539616" lat="61.8378988352" lon="5.00862106322">
		<tag k="fixme" v="consider place=hamlet" />
		<tag k="name" v="Førde" />
		<tag k="place" v="farm" />
		<tag k="ssr:stedsnr" v="799934" />
	</node>
	<node id="-537567" lat="61.8605464691" lon="5.37716076033">
		<tag k="fixme" v="consider place=hamlet" />
		<tag k="name" v="Blålida" />
		<tag k="place" v="farm" />
		<tag k="ssr:stedsnr" v="10164" />
	</node>
	<node id="-539614" lat="61.8378208614" lon="4.91891306192">
		<tag k="alt_name" v="Grotle, in;Grotle Indre" />
		<tag k="fixme" v="consider place=hamlet" />
		<tag k="name" v="Indre Grotle" />
		<tag k="place" v="farm" />
		<tag k="ssr:stedsnr" v="799926" />
	</node>
	<node id="-538587" lat="61.8571646431" lon="4.99314901653">
		<tag k="fixme" v="consider place=hamlet" />
		<tag k="name" v="Svarstad" />
		<tag k="place" v="farm" />
		<tag k="ssr:stedsnr" v="495914" />
	</node>
	<node id="-538582" lat="61.7529783705" lon="5.08277407962">
		<tag k="name" v="Hjellen" />
		<tag k="place" v="farm" />
		<tag k="ssr:stedsnr" v="495888" />
	</node>
	<node id="-538361" lat="61.7850166625" lon="4.93393334084">
		<tag k="alt_name" v="Nybø" />
		<tag k="name" v="Nybøen" />
		<tag k="place" v="farm" />
		<tag k="ssr:stedsnr" v="253841" />
	</node>
	<node id="-537934" lat="61.7573129609" lon="5.19687832218">
		<tag k="fixme" v="consider place=hamlet" />
		<tag k="name" v="Byrkjelia" />
		<tag k="place" v="farm" />
		<tag k="ssr:stedsnr" v="131070" />
	</node>
	<node id="-538577" lat="61.8006059393" lon="4.91726480162">
		<tag k="fixme" v="consider place=hamlet" />
		<tag k="name" v="Kjerpeset" />
		<tag k="place" v="farm" />
		<tag k="ssr:stedsnr" v="495846" />
	</node>
	<node id="-539600" lat="61.8533722211" lon="5.48731666793">
		<tag k="historic" v="shieling" />
		<tag k="name" v="Bortnestøylen" />
		<tag k="place" v="locality" />
		<tag k="ssr:stedsnr" v="799387" />
	</node>
	<node id="-539598" lat="61.8763888854" lon="5.68808888743">
		<tag k="alt_name" v="Førssetra" />
		<tag k="historic" v="shieling" />
		<tag k="name" v="Forsætra" />
		<tag k="place" v="locality" />
		<tag k="ssr:stedsnr" v="799381" />
	</node>
	<node id="-538573" lat="61.8440856263" lon="5.78485696315">
		<tag k="name" v="Gjegnalunden" />
		<tag k="place" v="farm" />
		<tag k="ssr:stedsnr" v="495371" />
	</node>
	<node id="-537035" lat="61.7627166624" lon="5.27322778288">
		<tag k="name" v="Breivik" />
		<tag k="place" v="isolated_dwelling" />
		<tag k="ssr:stedsnr" v="295185" />
	</node>
	<node id="-537056" lat="61.8137258868" lon="4.96468041545">
		<tag k="fixme" v="consider place=hamlet" />
		<tag k="name" v="Ryland" />
		<tag k="place" v="farm" />
		<tag k="ssr:stedsnr" v="313935" />
	</node>
	<node id="-538056" lat="61.8785527788" lon="5.71499234835">
		<tag k="name" v="Ytre Isane" />
		<tag k="place" v="farm" />
		<tag k="ssr:stedsnr" v="171805" />
	</node>
	<node id="-537541" lat="61.7764466375" lon="5.27764604322">
		<tag k="name" v="Framstevika" />
		<tag k="place" v="quarter" />
		<tag k="ssr:stedsnr" v="982070" />
	</node>
	<node id="-539588" lat="61.8968972221" lon="5.42628889608">
		<tag k="alt_name" v="Eldesetra" />
		<tag k="historic" v="shieling" />
		<tag k="name" v="Eldesætra" />
		<tag k="place" v="locality" />
		<tag k="ssr:stedsnr" v="799216" />
	</node>
	<node id="-538870" lat="61.8941489591" lon="5.52820898219">
		<tag k="fixme" v="consider place=hamlet" />
		<tag k="name" v="Ytre Davik" />
		<tag k="place" v="farm" />
		<tag k="ssr:stedsnr" v="596528" />
	</node>
	<node id="-539586" lat="61.8905611094" lon="5.45867222397">
		<tag k="alt_name" v="Gamlesetra" />
		<tag k="historic" v="shieling" />
		<tag k="name" v="Gamlesætra" />
		<tag k="place" v="locality" />
		<tag k="ssr:stedsnr" v="799203" />
	</node>
	<node id="-537931" lat="61.689752779" lon="5.10720555596">
		<tag k="historic" v="shieling" />
		<tag k="name" v="Sørgulestøylen" />
		<tag k="place" v="locality" />
		<tag k="ssr:stedsnr" v="130847" />
	</node>
	<node id="-538560" lat="61.8831289291" lon="5.33625076211">
		<tag k="fixme" v="consider place=hamlet" />
		<tag k="name" v="Straumen" />
		<tag k="place" v="farm" />
		<tag k="ssr:stedsnr" v="495198" />
	</node>
	<node id="-539582" lat="61.8852222267" lon="5.39935000575">
		<tag k="historic" v="shieling" />
		<tag k="name" v="Kyrhaugen" />
		<tag k="place" v="locality" />
		<tag k="ssr:stedsnr" v="799185" />
	</node>
	<node id="-538045" lat="61.8817027782" lon="5.31743334113">
		<tag k="name" v="Vaulen" />
		<tag k="place" v="farm" />
		<tag k="ssr:stedsnr" v="171623" />
	</node>
	<node id="-539580" lat="61.875980555" lon="5.3831333401">
		<tag k="historic" v="shieling" />
		<tag k="name" v="Rauddalen" />
		<tag k="old_name" v="Rauddalssætra" />
		<tag k="place" v="locality" />
		<tag k="ssr:stedsnr" v="799177" />
	</node>
	<node id="-539579" lat="61.8643222248" lon="5.30664166258">
		<tag k="name" v="Liljedal" />
		<tag k="place" v="farm" />
		<tag k="ssr:stedsnr" v="799170" />
	</node>
	<node id="-539066" lat="61.8901416696" lon="5.64247499335">
		<tag k="name" v="Høgebakken" />
		<tag k="place" v="farm" />
		<tag k="ssr:stedsnr" v="656847" />
	</node>
	<node id="-539577" lat="61.830177781" lon="5.12629999534">
		<tag k="name" v="Hauge" />
		<tag k="place" v="farm" />
		<tag k="ssr:stedsnr" v="799144" />
	</node>
	<node id="-538039" lat="61.8888972185" lon="5.5370888821">
		<tag k="name" v="Nybø" />
		<tag k="place" v="farm" />
		<tag k="ssr:stedsnr" v="171609" />
	</node>
	<node id="-538550" lat="61.7514888907" lon="5.26640832505">
		<tag k="alt_name" v="Risesetra" />
		<tag k="historic" v="shieling" />
		<tag k="name" v="Risesætra" />
		<tag k="place" v="locality" />
		<tag k="ssr:stedsnr" v="495092" />
	</node>
	<node id="-537983" lat="61.814933377" lon="4.93591373765">
		<tag k="fixme" v="consider place=hamlet" />
		<tag k="name" v="Nøtset" />
		<tag k="place" v="farm" />
		<tag k="ssr:stedsnr" v="131949" />
	</node>
	<node id="-540084" lat="61.7340055591" lon="5.20178611979">
		<tag k="name" v="Vikabø" />
		<tag k="place" v="farm" />
		<tag k="ssr:stedsnr" v="960841" />
	</node>
	<node id="-539570" lat="61.765958242" lon="5.14205234222">
		<tag k="name" v="Hessvika" />
		<tag k="place" v="farm" />
		<tag k="ssr:stedsnr" v="799093" />
	</node>
	<node id="-539569" lat="61.7790166629" lon="5.12720555361">
		<tag k="alt_name" v="Ospenessætra" />
		<tag k="historic" v="shieling" />
		<tag k="name" v="Dalestølen" />
		<tag k="place" v="locality" />
		<tag k="ssr:stedsnr" v="799090" />
	</node>
	<node id="-539565" lat="61.7614583326" lon="5.12835276962">
		<tag k="name" v="Leirvika" />
		<tag k="place" v="farm" />
		<tag k="ssr:stedsnr" v="799056" />
	</node>
	<node id="-540076" lat="61.839938888" lon="5.75043610433">
		<tag k="name" v="Gaupetegane" />
		<tag k="place" v="locality" />
		<tag k="ssr:stedsnr" v="960733" />
	</node>
	<node id="-537089" lat="61.9004972179" lon="5.46047777422">
		<tag k="historic" v="shieling" />
		<tag k="name" v="Endalsætrane" />
		<tag k="place" v="locality" />
		<tag k="ssr:stedsnr" v="313203" />
	</node>
	<node id="-538536" lat="61.7411842584" lon="5.11855920019">
		<tag k="fixme" v="consider place=hamlet" />
		<tag k="name" v="Mulehamn" />
		<tag k="place" v="farm" />
		<tag k="ssr:stedsnr" v="450679" />
	</node>
	<node id="-538534" lat="61.7764361106" lon="5.14927222035">
		<tag k="historic" v="shieling" />
		<tag k="name" v="Hessvikstøylen" />
		<tag k="place" v="locality" />
		<tag k="ssr:stedsnr" v="445224" />
	</node>
	<node id="-539557" lat="61.7547239409" lon="4.86407090487">
		<tag k="fixme" v="consider place=hamlet" />
		<tag k="name" v="Liset" />
		<tag k="place" v="farm" />
		<tag k="ssr:stedsnr" v="798820" />
	</node>
	<node id="-537539" lat="61.8443137681" lon="4.97550115181">
		<tag k="name" v="Håksskaret" />
		<tag k="place" v="quarter" />
		<tag k="ssr:stedsnr" v="982067" />
	</node>
	<node id="-539551" lat="61.7390999967" lon="5.16363333729">
		<tag k="name" v="Furnes" />
		<tag k="place" v="farm" />
		<tag k="ssr:stedsnr" v="797842" />
	</node>
	<node id="-539549" lat="61.7280885509" lon="5.1468178907">
		<tag k="alt_name" v="Mullia, l;Mullia;Litle Muleli" />
		<tag k="name" v="Litle Mullia" />
		<tag k="place" v="farm" />
		<tag k="ssr:stedsnr" v="797837" />
	</node>
	<node id="-539548" lat="61.7212833305" lon="5.18725833956">
		<tag k="fixme" v="consider place=hamlet" />
		<tag k="name" v="Myklebust" />
		<tag k="place" v="village" />
		<tag k="ssr:stedsnr" v="797834" />
	</node>
	<node id="-537583" lat="61.894730555" lon="5.52770832459">
		<tag k="name" v="Bøen" />
		<tag k="place" v="farm" />
		<tag k="ssr:stedsnr" v="10403" />
	</node>
	<node id="-537293" lat="61.8755972235" lon="5.45183889712">
		<tag k="name" v="Fessene" />
		<tag k="place" v="locality" />
		<tag k="ssr:stedsnr" v="374188" />
	</node>
	<node id="-538796" lat="61.8634579671" lon="5.72907935935">
		<tag k="fixme" v="consider place=hamlet" />
		<tag k="name" v="Englestad" />
		<tag k="place" v="farm" />
		<tag k="ssr:stedsnr" v="556410" />
	</node>
	<node id="-538517" lat="61.9064571802" lon="5.38735879011">
		<tag k="fixme" v="consider place=hamlet" />
		<tag k="name" v="Elde" />
		<tag k="place" v="farm" />
		<tag k="ssr:stedsnr" v="435249" />
	</node>
	<node id="-538516" lat="61.9169491037" lon="5.43248826844">
		<tag k="fixme" v="consider place=hamlet" />
		<tag k="name" v="Oteren" />
		<tag k="place" v="farm" />
		<tag k="ssr:stedsnr" v="435247" />
	</node>
	<node id="-540051" lat="61.813241664" lon="5.23333610395">
		<tag k="name" v="Gardfjøstunet" />
		<tag k="place" v="farm" />
		<tag k="ssr:stedsnr" v="960522" />
	</node>
	<node id="-538514" lat="61.8871621744" lon="5.347441634">
		<tag k="fixme" v="consider place=hamlet" />
		<tag k="name" v="Hessevågen" />
		<tag k="place" v="farm" />
		<tag k="ssr:stedsnr" v="435222" />
	</node>
	<node id="-538513" lat="61.885605552" lon="5.42547500626">
		<tag k="name" v="Fossen" />
		<tag k="place" v="locality" />
		<tag k="ssr:stedsnr" v="435218" />
	</node>
	<node id="-538455" lat="61.8258232965" lon="5.11148295625">
		<tag k="fixme" v="consider place=hamlet" />
		<tag k="name" v="Ytre Hauge" />
		<tag k="place" v="farm" />
		<tag k="ssr:stedsnr" v="418435" />
	</node>
	<node id="-538510" lat="61.8694996652" lon="5.31130734133">
		<tag k="fixme" v="consider place=hamlet" />
		<tag k="name" v="Kollsete" />
		<tag k="place" v="farm" />
		<tag k="ssr:stedsnr" v="435205" />
	</node>
	<node id="-538093" lat="61.7747611092" lon="5.30389444825">
		<tag k="name" v="Borgestad" />
		<tag k="place" v="locality" />
		<tag k="ssr:stedsnr" v="172796" />
	</node>
	<node id="-537995" lat="61.8085694417" lon="4.84849721585">
		<tag k="name" v="Sørestø" />
		<tag k="place" v="isolated_dwelling" />
		<tag k="ssr:stedsnr" v="171060" />
	</node>
	<node id="-538506" lat="61.7964999983" lon="5.24357223053">
		<tag k="historic" v="shieling" />
		<tag k="name" v="Hennøysætra" />
		<tag k="place" v="locality" />
		<tag k="ssr:stedsnr" v="435131" />
	</node>
	<node id="-537992" lat="61.8982472262" lon="5.53192500764">
		<tag k="name" v="Bakken" />
		<tag k="place" v="farm" />
		<tag k="ssr:stedsnr" v="160923" />
	</node>
	<node id="-538503" lat="61.7878805516" lon="5.27087777849">
		<tag k="name" v="Sandesætra" />
		<tag k="place" v="locality" />
		<tag k="ssr:stedsnr" v="435106" />
	</node>
	<node id="-539798" lat="61.7539638919" lon="5.24754443581">
		<tag k="historic" v="shieling" />
		<tag k="name" v="Eikelandssætra" />
		<tag k="place" v="locality" />
		<tag k="ssr:stedsnr" v="860080" />
	</node>
	<node id="-537747" lat="61.8155527794" lon="5.6280944385">
		<tag k="name" v="Førde" />
		<tag k="place" v="farm" />
		<tag k="ssr:stedsnr" v="70297" />
	</node>
	<node id="-538496" lat="61.831675062" lon="5.66687734503">
		<tag k="fixme" v="consider place=hamlet" />
		<tag k="name" v="Sigdestad" />
		<tag k="place" v="farm" />
		<tag k="ssr:stedsnr" v="434328" />
	</node>
	<node id="-539519" lat="61.8306249997" lon="4.97884999833">
		<tag k="name" v="Grasneset" />
		<tag k="place" v="isolated_dwelling" />
		<tag k="ssr:stedsnr" v="779384" />
	</node>
	<node id="-537582" lat="61.8929194464" lon="5.56497778011">
		<tag k="name" v="Haggarden" />
		<tag k="place" v="locality" />
		<tag k="ssr:stedsnr" v="10401" />
	</node>
	<node id="-539004" lat="61.8729468221" lon="5.72078861629">
		<tag k="alt_name" v="Isane, midtre" />
		<tag k="fixme" v="consider place=hamlet" />
		<tag k="name" v="Midtre Isane" />
		<tag k="place" v="farm" />
		<tag k="ssr:stedsnr" v="617427" />
	</node>
	<node id="-536955" lat="61.7845916658" lon="5.33642221401">
		<tag k="name" v="Årdalshytta" />
		<tag k="place" v="isolated_dwelling" />
		<tag k="ssr:stedsnr" v="292972" />
	</node>
	<node id="-539001" lat="61.8677495536" lon="5.72777856473">
		<tag k="alt_name" v="Isane, indre" />
		<tag k="fixme" v="consider place=hamlet" />
		<tag k="name" v="Indre Isane" />
		<tag k="place" v="farm" />
		<tag k="ssr:stedsnr" v="617374" />
	</node>
	<node id="-538487" lat="61.8393277743" lon="5.67626389465">
		<tag k="fixme" v="consider place=hamlet" />
		<tag k="name" v="Ålfoten" />
		<tag k="place" v="village" />
		<tag k="ssr:stedsnr" v="434265" />
	</node>
	<node id="-538997" lat="61.8388249964" lon="4.95025276886">
		<tag k="fixme" v="consider place=hamlet" />
		<tag k="name" v="Torvanger" />
		<tag k="place" v="village" />
		<tag k="ssr:stedsnr" v="616933" />
	</node>
	<node id="-538996" lat="61.8397055535" lon="4.9894861204">
		<tag k="fixme" v="consider place=hamlet" />
		<tag k="name" v="Bremanger" />
		<tag k="place" v="village" />
		<tag k="ssr:stedsnr" v="616932" />
	</node>
	<node id="-537918" lat="61.8753972211" lon="5.22205833752">
		<tag k="name" v="Skatestraumen" />
		<tag k="place" v="farm" />
		<tag k="ssr:stedsnr" v="114924" />
	</node>
	<node id="-538771" lat="61.9055829385" lon="5.48097825095">
		<tag k="fixme" v="consider place=hamlet" />
		<tag k="name" v="Endal" />
		<tag k="place" v="farm" />
		<tag k="ssr:stedsnr" v="555402" />
	</node>
	<node id="-538479" lat="61.7156583377" lon="5.25253334099">
		<tag k="name" v="Storeteigen" />
		<tag k="place" v="locality" />
		<tag k="ssr:stedsnr" v="433826" />
	</node>
	<node id="-538478" lat="61.733244447" lon="5.01766110372">
		<tag k="historic" v="shieling" />
		<tag k="name" v="Huldrastøylen" />
		<tag k="place" v="locality" />
		<tag k="ssr:stedsnr" v="433463" />
	</node>
	<node id="-538987" lat="61.8925115963" lon="5.51809072833">
		<tag k="fixme" v="consider place=hamlet" />
		<tag k="name" v="Hausle" />
		<tag k="place" v="farm" />
		<tag k="ssr:stedsnr" v="616398" />
	</node>
	<node id="-538986" lat="61.868719447" lon="5.49242500861">
		<tag k="historic" v="shieling" />
		<tag k="name" v="Kvitsanden" />
		<tag k="place" v="locality" />
		<tag k="ssr:stedsnr" v="616392" />
	</node>
	<node id="-540135" lat="61.7752055591" lon="4.89484444065">
		<tag k="name" v="Oppigard" />
		<tag k="place" v="farm" />
		<tag k="ssr:stedsnr" v="964399" />
	</node>
	<node id="-537138" lat="61.8328944489" lon="5.56680833144">
		<tag k="name" v="Vaulegrobakken" />
		<tag k="place" v="locality" />
		<tag k="ssr:stedsnr" v="353209" />
	</node>
	<node id="-537959" lat="61.867349953" lon="5.70684986137">
		<tag k="historic" v="shieling" />
		<tag k="name" v="Gunnarssætra" />
		<tag k="place" v="locality" />
		<tag k="ssr:stedsnr" v="131330" />
	</node>
	<node id="-540003" lat="61.8308166704" lon="4.98956111078">
		<tag k="name" v="Fossheim" />
		<tag k="place" v="farm" />
		<tag k="ssr:stedsnr" v="920937" />
	</node>
	<node id="-537954" lat="61.8902499997" lon="5.44056111768">
		<tag k="alt_name" v="Dalesetra" />
		<tag k="historic" v="shieling" />
		<tag k="name" v="Dalesætrane" />
		<tag k="place" v="locality" />
		<tag k="ssr:stedsnr" v="131185" />
	</node>
	<node id="-537952" lat="61.8751665325" lon="5.14768480044">
		<tag k="fixme" v="consider place=hamlet" />
		<tag k="name" v="Lågeidet" />
		<tag k="place" v="farm" />
		<tag k="ssr:stedsnr" v="131178" />
	</node>
	<node id="-538463" lat="61.8309194433" lon="4.9849694449">
		<tag k="name" v="Heia" />
		<tag k="place" v="farm" />
		<tag k="ssr:stedsnr" v="418963" />
	</node>
	<node id="-537949" lat="61.8401802805" lon="5.13130401415">
		<tag k="fixme" v="consider place=hamlet" />
		<tag k="name" v="Lisete" />
		<tag k="place" v="farm" />
		<tag k="ssr:stedsnr" v="131140" />
	</node>
	<node id="-538971" lat="61.8896472248" lon="5.39633610642">
		<tag k="historic" v="shieling" />
		<tag k="name" v="Bakkenosa" />
		<tag k="place" v="locality" />
		<tag k="ssr:stedsnr" v="616169" />
	</node>
	<node id="-539993" lat="61.7662666677" lon="4.87528055557">
		<tag k="name" v="Kalvåg" />
		<tag k="place" v="village" />
		<tag k="ssr:stedsnr" v="920864" />
	</node>
	<node id="-539992" lat="61.7856166689" lon="4.88864722455">
		<tag k="name" v="Stranda" />
		<tag k="place" v="farm" />
		<tag k="ssr:stedsnr" v="920849" />
	</node>
	<node id="-537431" lat="61.8877499965" lon="5.27958054981">
		<tag k="name" v="Plassen" />
		<tag k="place" v="farm" />
		<tag k="ssr:stedsnr" v="475584" />
	</node>
	<node id="-538966" lat="61.8844111096" lon="5.45664443533">
		<tag k="historic" v="shieling" />
		<tag k="name" v="Daviknessætra" />
		<tag k="place" v="locality" />
		<tag k="ssr:stedsnr" v="616157" />
	</node>
	<node id="-538169" lat="61.8878504902" lon="5.54473476478">
		<tag k="fixme" v="consider place=hamlet" />
		<tag k="name" v="Prestegarden" />
		<tag k="place" v="farm" />
		<tag k="ssr:stedsnr" v="192458" />
	</node>
	<node id="-538452" lat="61.7036305598" lon="5.10873054719">
		<tag k="name" v="Miskje" />
		<tag k="place" v="isolated_dwelling" />
		<tag k="ssr:stedsnr" v="417723" />
	</node>
	<node id="-539986" lat="61.8902652088" lon="5.64533839177">
		<tag k="fixme" v="consider place=hamlet" />
		<tag k="name" v="Dombestein" />
		<tag k="place" v="village" />
		<tag k="ssr:stedsnr" v="920395" />
	</node>
	<node id="-537937" lat="61.7660121583" lon="5.12284105364">
		<tag k="fixme" v="consider place=hamlet" />
		<tag k="name" v="Nesbø" />
		<tag k="place" v="farm" />
		<tag k="ssr:stedsnr" v="131091" />
	</node>
	<node id="-538960" lat="61.8307901807" lon="5.11737950757">
		<tag k="fixme" v="consider place=hamlet" />
		<tag k="name" v="Berle" />
		<tag k="place" v="farm" />
		<tag k="ssr:stedsnr" v="616123" />
	</node>
	<node id="-539983" lat="61.877397222" lon="5.71505278666">
		<tag k="fixme" v="consider place=hamlet" />
		<tag k="name" v="Isane" />
		<tag k="place" v="village" />
		<tag k="ssr:stedsnr" v="920348" />
	</node>
	<node id="-538958" lat="61.8355916627" lon="5.3436361159">
		<tag k="name" v="Jorda" />
		<tag k="place" v="locality" />
		<tag k="ssr:stedsnr" v="616118" />
	</node>
	<node id="-537933" lat="61.7602472244" lon="5.13385000471">
		<tag k="name" v="Roland" />
		<tag k="place" v="farm" />
		<tag k="ssr:stedsnr" v="131068" />
	</node>
	<node id="-539467" lat="61.8612694487" lon="5.31918055532">
		<tag k="name" v="Midtbø" />
		<tag k="place" v="farm" />
		<tag k="ssr:stedsnr" v="778592" />
	</node>
	<node id="-537418" lat="61.836091666" lon="5.64170277298">
		<tag k="name" v="Vollen" />
		<tag k="place" v="locality" />
		<tag k="ssr:stedsnr" v="475225" />
	</node>
	<node id="-539977" lat="61.8675777762" lon="5.37831945207">
		<tag k="name" v="Raudehaugen" />
		<tag k="place" v="locality" />
		<tag k="ssr:stedsnr" v="920155" />
	</node>
	<node id="-537416" lat="61.8815694413" lon="4.9206305468">
		<tag k="fixme" v="consider place=hamlet" />
		<tag k="name" v="Vetvik" />
		<tag k="place" v="farm" />
		<tag k="ssr:stedsnr" v="475110" />
	</node>
	<node id="-538081" lat="61.72455" lon="5.25894444895">
		<tag k="historic" v="shieling" />
		<tag k="name" v="Indrehussetra" />
		<tag k="place" v="locality" />
		<tag k="ssr:stedsnr" v="171932" />
	</node>
	<node id="-537924" lat="61.8387964925" lon="4.90456448042">
		<tag k="name" v="Grotle" />
		<tag k="place" v="hamlet" />
		<tag k="ssr:stedsnr" v="121111" />
	</node>
	<node id="-537227" lat="61.8241333344" lon="4.95463333217">
		<tag k="name" v="Nesodden" />
		<tag k="place" v="farm" />
		<tag k="ssr:stedsnr" v="354028" />
	</node>
	<node id="-539967" lat="61.7051792038" lon="5.10800596524">
		<tag k="fixme" v="consider place=hamlet" />
		<tag k="name" v="Sørgulen" />
		<tag k="place" v="farm" />
		<tag k="ssr:stedsnr" v="919858" />
	</node>
	<node id="-539966" lat="61.6999722185" lon="5.18086112008">
		<tag k="historic" v="shieling" />
		<tag k="name" v="Myklebuststølane" />
		<tag k="place" v="locality" />
		<tag k="ssr:stedsnr" v="919853" />
	</node>
	<node id="-537141" lat="61.840189844" lon="4.99432515121">
		<tag k="fixme" v="consider place=hamlet" />
		<tag k="name" v="Senneset" />
		<tag k="place" v="farm" />
		<tag k="ssr:stedsnr" v="353287" />
	</node>
	<node id="-539964" lat="61.7374197031" lon="5.19510902033">
		<tag k="fixme" v="consider place=hamlet" />
		<tag k="name" v="Ytrehus" />
		<tag k="place" v="farm" />
		<tag k="ssr:stedsnr" v="919827" />
	</node>
	<node id="-537055" lat="61.8413083339" lon="4.96525278477">
		<tag k="alt_name" v="Hauge, yt;Hauge" />
		<tag k="name" v="Ytre Hauge" />
		<tag k="place" v="village" />
		<tag k="ssr:stedsnr" v="313928" />
	</node>
	<node id="-538763" lat="61.8879336794" lon="5.33131661695">
		<tag k="fixme" v="consider place=hamlet" />
		<tag k="name" v="Rugsund" />
		<tag k="place" v="farm" />
		<tag k="ssr:stedsnr" v="555146" />
	</node>
	<node id="-537054" lat="61.7941249973" lon="5.29541112079">
		<tag k="name" v="Sandesætra" />
		<tag k="place" v="locality" />
		<tag k="ssr:stedsnr" v="71106" />
	</node>
	<node id="-538108" lat="61.7070166638" lon="5.1165222303">
		<tag k="name" v="Sørgulen" />
		<tag k="place" v="farm" />
		<tag k="ssr:stedsnr" v="174706" />
	</node>
	<node id="-537085" lat="61.848427776" lon="5.14779166991">
		<tag k="name" v="Kleiva" />
		<tag k="place" v="locality" />
		<tag k="ssr:stedsnr" v="313172" />
	</node>
	<node id="-538504" lat="61.7772222239" lon="5.16413611191">
		<tag k="alt_name" v="Dyrstadsetra" />
		<tag k="historic" v="shieling" />
		<tag k="name" v="Dyrstadsætra" />
		<tag k="place" v="locality" />
		<tag k="ssr:stedsnr" v="435112" />
	</node>
	<node id="-538924" lat="61.8187944446" lon="5.0918027789">
		<tag k="name" v="Heimly" />
		<tag k="place" v="farm" />
		<tag k="ssr:stedsnr" v="599436" />
	</node>
	<node id="-538923" lat="61.8778750021" lon="5.08110277466">
		<tag k="name" v="Melsnes" />
		<tag k="place" v="isolated_dwelling" />
		<tag k="ssr:stedsnr" v="599318" />
	</node>
	<node id="-537386" lat="61.8838509869" lon="5.33170360833">
		<tag k="fixme" v="consider place=hamlet" />
		<tag k="name" v="Storøyna" />
		<tag k="place" v="farm" />
		<tag k="ssr:stedsnr" v="474632" />
	</node>
	<node id="-537735" lat="61.736797218" lon="5.06475554871">
		<tag k="name" v="Vollane" />
		<tag k="place" v="locality" />
		<tag k="ssr:stedsnr" v="69500" />
	</node>
	<node id="-539184" lat="61.8821444435" lon="5.52219999074">
		<tag k="historic" v="shieling" />
		<tag k="name" v="Sætra" />
		<tag k="place" v="locality" />
		<tag k="ssr:stedsnr" v="677403" />
	</node>
	<node id="-539934" lat="61.7580055581" lon="5.04969166734">
		<tag k="name" v="Stovedalen" />
		<tag k="place" v="locality" />
		<tag k="ssr:stedsnr" v="900920" />
	</node>
	<node id="-539597" lat="61.8517274275" lon="5.77318695566">
		<tag k="fixme" v="consider place=hamlet" />
		<tag k="name" v="Askevika" />
		<tag k="place" v="farm" />
		<tag k="ssr:stedsnr" v="799373" />
	</node>
	<node id="-538330" lat="61.8867083321" lon="5.56015277095">
		<tag k="name" v="Bakkelia" />
		<tag k="place" v="farm" />
		<tag k="ssr:stedsnr" v="252389" />
	</node>
	<node id="-538906" lat="61.7195500007" lon="5.16360556083">
		<tag k="name" v="Fredheim" />
		<tag k="place" v="farm" />
		<tag k="ssr:stedsnr" v="596909" />
	</node>
	<node id="-539439" lat="61.8595704085" lon="5.30926752033">
		<tag k="alt_name" v="Ytre Lognes" />
		<tag k="fixme" v="consider place=hamlet" />
		<tag k="name" v="Lofnes" />
		<tag k="place" v="farm" />
		<tag k="ssr:stedsnr" v="778445" />
	</node>
	<node id="-537368" lat="61.8737500024" lon="5.3637361158">
		<tag k="name" v="Plassen" />
		<tag k="place" v="locality" />
		<tag k="ssr:stedsnr" v="474455" />
	</node>
	<node id="-537906" lat="61.8378800762" lon="4.98865684649">
		<tag k="name" v="Struen" />
		<tag k="place" v="farm" />
		<tag k="ssr:stedsnr" v="113757" />
	</node>
	<node id="-538900" lat="61.7365749966" lon="5.19643610643">
		<tag k="name" v="Ytrehus" />
		<tag k="old_name" v="Ytre Hus" />
		<tag k="place" v="farm" />
		<tag k="ssr:stedsnr" v="596873" />
	</node>
	<node id="-539923" lat="61.8840166677" lon="5.68871943587">
		<tag k="name" v="Stranda" />
		<tag k="place" v="locality" />
		<tag k="ssr:stedsnr" v="900796" />
	</node>
	<node id="-539922" lat="61.8776338746" lon="5.71821417154">
		<tag k="name" v="Kolmila" />
		<tag k="place" v="locality" />
		<tag k="ssr:stedsnr" v="900792" />
	</node>
	<node id="-537412" lat="61.8065088278" lon="4.91174815532">
		<tag k="fixme" v="consider place=hamlet" />
		<tag k="name" v="Bremnes" />
		<tag k="place" v="farm" />
		<tag k="ssr:stedsnr" v="475021" />
	</node>
	<node id="-537305" lat="61.8123623622" lon="5.0732424256">
		<tag k="fixme" v="consider place=hamlet" />
		<tag k="name" v="Skarstein" />
		<tag k="place" v="farm" />
		<tag k="ssr:stedsnr" v="374839" />
	</node>
	<node id="-538374" lat="61.7728277024" lon="4.89057880717">
		<tag k="alt_name" v="Frøyen nedre;Negarden" />
		<tag k="fixme" v="consider place=hamlet" />
		<tag k="name" v="Nedre Frøyen" />
		<tag k="place" v="farm" />
		<tag k="ssr:stedsnr" v="414378" />
	</node>
	<node id="-539396" lat="61.8790027788" lon="5.07840833008">
		<tag k="name" v="Oldeide" />
		<tag k="place" v="hamlet" />
		<tag k="ssr:stedsnr" v="738989" />
	</node>
	<node id="-538645" lat="61.8712327898" lon="5.20994840407">
		<tag k="fixme" v="consider place=hamlet" />
		<tag k="name" v="Klubben" />
		<tag k="place" v="farm" />
		<tag k="ssr:stedsnr" v="535554" />
	</node>
	<node id="-539394" lat="61.8105879676" lon="4.90883954626">
		<tag k="fixme" v="consider place=hamlet" />
		<tag k="name" v="Bakke" />
		<tag k="place" v="farm" />
		<tag k="ssr:stedsnr" v="738945" />
	</node>
	<node id="-539391" lat="61.8162111119" lon="5.08511944131">
		<tag k="name" v="Myrvang" />
		<tag k="place" v="farm" />
		<tag k="ssr:stedsnr" v="738936" />
	</node>
	<node id="-539390" lat="61.8437804102" lon="4.99425789372">
		<tag k="name" v="Senneset" />
		<tag k="place" v="farm" />
		<tag k="ssr:stedsnr" v="738930" />
	</node>
	<node id="-537851" lat="61.8990583373" lon="5.53092499597">
		<tag k="name" v="Rabben" />
		<tag k="place" v="locality" />
		<tag k="ssr:stedsnr" v="111559" />
	</node>
	<node id="-539385" lat="61.8388076817" lon="4.93952474609">
		<tag k="fixme" v="consider place=hamlet" />
		<tag k="name" v="Igland" />
		<tag k="place" v="farm" />
		<tag k="ssr:stedsnr" v="738920" />
	</node>
	<node id="-537336" lat="61.8574360584" lon="5.06124659478">
		<tag k="fixme" v="consider place=hamlet" />
		<tag k="name" v="Dalsbotnen" />
		<tag k="place" v="farm" />
		<tag k="ssr:stedsnr" v="389358" />
	</node>
	<node id="-539894" lat="61.8873965191" lon="5.55565902262">
		<tag k="fixme" v="consider place=hamlet" />
		<tag k="name" v="Indre Davik" />
		<tag k="place" v="farm" />
		<tag k="ssr:stedsnr" v="900585" />
	</node>
	<node id="-538356" lat="61.8746416667" lon="5.68894722788">
		<tag k="historic" v="shieling" />
		<tag k="name" v="Persætra" />
		<tag k="place" v="locality" />
		<tag k="ssr:stedsnr" v="253447" />
	</node>
	<node id="-538494" lat="61.8466967356" lon="5.72097616417">
		<tag k="fixme" v="consider place=hamlet" />
		<tag k="name" v="Vik" />
		<tag k="place" v="farm" />
		<tag k="ssr:stedsnr" v="434319" />
	</node>
	<node id="-538353" lat="61.8625583346" lon="5.7081388903">
		<tag k="historic" v="shieling" />
		<tag k="name" v="Gamlesætra" />
		<tag k="place" v="locality" />
		<tag k="ssr:stedsnr" v="253403" />
	</node>
	<node id="-538351" lat="61.8781277786" lon="5.45931388643">
		<tag k="name" v="Rinden" />
		<tag k="place" v="locality" />
		<tag k="ssr:stedsnr" v="253193" />
	</node>
	<node id="-538346" lat="61.8590638879" lon="5.39045555327">
		<tag k="alt_name" v="Setra" />
		<tag k="name" v="Sætra" />
		<tag k="place" v="locality" />
		<tag k="ssr:stedsnr" v="253171" />
	</node>
	<node id="-538342" lat="61.763669448" lon="5.10648889427">
		<tag k="name" v="Løypedal" />
		<tag k="place" v="farm" />
		<tag k="ssr:stedsnr" v="253087" />
	</node>
	<node id="-537809" lat="61.7181944456" lon="5.00418055744">
		<tag k="name" v="Skjerven" />
		<tag k="place" v="locality" />
		<tag k="ssr:stedsnr" v="110950" />
	</node>
	<node id="-539364" lat="61.8767888881" lon="5.29971111618">
		<tag k="historic" v="shieling" />
		<tag k="name" v="Haukedalssætra" />
		<tag k="place" v="locality" />
		<tag k="ssr:stedsnr" v="738182" />
	</node>
	<node id="-539363" lat="61.8745146174" lon="5.32630400121">
		<tag k="fixme" v="consider place=hamlet" />
		<tag k="name" v="Olsbøen" />
		<tag k="place" v="farm" />
		<tag k="ssr:stedsnr" v="738172" />
	</node>
	<node id="-539362" lat="61.8722305554" lon="5.31505277159">
		<tag k="name" v="Strand" />
		<tag k="place" v="farm" />
		<tag k="ssr:stedsnr" v="738171" />
	</node>
	<node id="-538337" lat="61.8602999987" lon="5.02633333852">
		<tag k="name" v="Klungreset" />
		<tag k="place" v="farm" />
		<tag k="ssr:stedsnr" v="252883" />
	</node>
	<node id="-539360" lat="61.8347202932" lon="5.12166208338">
		<tag k="alt_name" v="Indre Hauge;Inste Hauge" />
		<tag k="fixme" v="consider place=hamlet" />
		<tag k="name" v="Hauge" />
		<tag k="place" v="farm" />
		<tag k="ssr:stedsnr" v="738152" />
	</node>
	<node id="-537311" lat="61.8403111113" lon="4.97856387959">
		<tag k="alt_name" v="Hauge, in" />
		<tag k="name" v="Indre Hauge" />
		<tag k="place" v="village" />
		<tag k="ssr:stedsnr" v="374921" />
	</node>
	<node id="-538334" lat="61.7568453063" lon="5.05987015605">
		<tag k="alt_name" v="Gulestø" />
		<tag k="fixme" v="consider place=hamlet" />
		<tag k="name" v="Gulestøa" />
		<tag k="place" v="farm" />
		<tag k="ssr:stedsnr" v="252840" />
	</node>
	<node id="-537309" lat="61.7852895845" lon="4.96785844276">
		<tag k="fixme" v="consider place=hamlet" />
		<tag k="name" v="Vågane" />
		<tag k="place" v="farm" />
		<tag k="ssr:stedsnr" v="374851" />
	</node>
	<node id="-539356" lat="61.7697638846" lon="5.295444443">
		<tag k="name" v="Svelgen" />
		<tag k="place" v="village" />
		<tag k="ssr:stedsnr" v="738103" />
	</node>
	<node id="-539354" lat="61.779763893" lon="5.18037500341">
		<tag k="alt_name" v="Dyrstadstølen" />
		<tag k="historic" v="shieling" />
		<tag k="name" v="Dyrstadstøylen" />
		<tag k="place" v="locality" />
		<tag k="ssr:stedsnr" v="738097" />
	</node>
	<node id="-537817" lat="61.8340333368" lon="5.59279444575">
		<tag k="name" v="Vassbakken" />
		<tag k="place" v="locality" />
		<tag k="ssr:stedsnr" v="111179" />
	</node>
	<node id="-537816" lat="61.8321888853" lon="5.57507499889">
		<tag k="name" v="Vaulen" />
		<tag k="place" v="locality" />
		<tag k="ssr:stedsnr" v="111180" />
	</node>
	<node id="-537302" lat="61.8796333357" lon="5.51074443931">
		<tag k="historic" v="shieling" />
		<tag k="name" v="Mosehaugane" />
		<tag k="place" v="locality" />
		<tag k="ssr:stedsnr" v="374388" />
	</node>
	<node id="-539349" lat="61.7161673615" lon="5.16529461174">
		<tag k="alt_name" v="Vindspoll" />
		<tag k="fixme" v="consider place=hamlet" />
		<tag k="name" v="Vindspollen" />
		<tag k="place" v="farm" />
		<tag k="ssr:stedsnr" v="737821" />
	</node>
	<node id="-537632" lat="61.8232055549" lon="5.48495555754">
		<tag k="historic" v="shieling" />
		<tag k="name" v="Fjelleryggen" />
		<tag k="place" v="locality" />
		<tag k="ssr:stedsnr" v="50310" />
	</node>
	<node id="-538062" lat="61.7092972212" lon="5.11620000647">
		<tag k="name" v="Gamlehjellen" />
		<tag k="place" v="locality" />
		<tag k="ssr:stedsnr" v="171892" />
	</node>
	<node id="-538322" lat="61.8832305531" lon="5.40146943854">
		<tag k="historic" v="shieling" />
		<tag k="name" v="Skjervane" />
		<tag k="place" v="locality" />
		<tag k="ssr:stedsnr" v="252141" />
	</node>
	<node id="-538321" lat="61.8828777787" lon="5.45438333699">
		<tag k="historic" v="shieling" />
		<tag k="name" v="Skitmunnen" />
		<tag k="place" v="locality" />
		<tag k="ssr:stedsnr" v="252137" />
	</node>
	<node id="-537083" lat="61.8345015773" lon="5.15488563802">
		<tag k="fixme" v="consider place=hamlet" />
		<tag k="name" v="Hestevik" />
		<tag k="place" v="farm" />
		<tag k="ssr:stedsnr" v="313160" />
	</node>
	<node id="-539341" lat="61.7475224307" lon="5.09449251346">
		<tag k="fixme" v="consider place=hamlet" />
		<tag k="name" v="Allmenningen" />
		<tag k="place" v="farm" />
		<tag k="ssr:stedsnr" v="736804" />
	</node>
	<node id="-538314" lat="61.7202833377" lon="5.10522500405">
		<tag k="name" v="Sagebø" />
		<tag k="place" v="farm" />
		<tag k="ssr:stedsnr" v="251860" />
	</node>
	<node id="-538633" lat="61.7917549746" lon="5.02014070743">
		<tag k="alt_name" v="Rylandholmen" />
		<tag k="fixme" v="consider place=hamlet" />
		<tag k="name" v="Rylandsholmen" />
		<tag k="place" v="farm" />
		<tag k="ssr:stedsnr" v="535431" />
	</node>
	<node id="-537285" lat="61.7745589916" lon="5.28275098934">
		<tag k="fixme" v="consider place=hamlet" />
		<tag k="name" v="Sande" />
		<tag k="place" v="farm" />
		<tag k="ssr:stedsnr" v="374098" />
	</node>
	<node id="-538307" lat="61.8319903014" lon="5.11299146563">
		<tag k="fixme" v="consider place=hamlet" />
		<tag k="name" v="Øgarden" />
		<tag k="place" v="farm" />
		<tag k="ssr:stedsnr" v="242268" />
	</node>
	<node id="-537280" lat="61.8826166649" lon="5.46960000225">
		<tag k="historic" v="shieling" />
		<tag k="name" v="Stabrekka" />
		<tag k="place" v="locality" />
		<tag k="ssr:stedsnr" v="373439" />
	</node>
	<node id="-537279" lat="61.8845055538" lon="5.55879999623">
		<tag k="name" v="Høyland" />
		<tag k="place" v="farm" />
		<tag k="ssr:stedsnr" v="373434" />
	</node>
	<node id="-537278" lat="61.901944267" lon="5.53795927539">
		<tag k="alt_name" v="Daviknes" />
		<tag k="fixme" v="consider place=hamlet" />
		<tag k="name" v="Davikneset" />
		<tag k="place" v="farm" />
		<tag k="ssr:stedsnr" v="373415" />
	</node>
	<node id="-538087" lat="61.7662527738" lon="5.29036944302">
		<tag k="name" v="Kvelve" />
		<tag k="place" v="farm" />
		<tag k="ssr:stedsnr" v="172026" />
	</node>
	<node id="-539323" lat="61.8384916683" lon="4.94023610839">
		<tag k="fixme" v="consider place=hamlet" />
		<tag k="name" v="Iglandsvika" />
		<tag k="place" v="village" />
		<tag k="ssr:stedsnr" v="720785" />
	</node>
	<node id="-539322" lat="61.8467016588" lon="5.32877090393">
		<tag k="fixme" v="consider place=hamlet" />
		<tag k="name" v="Bortneskår" />
		<tag k="old_name" v="Bortneskora" />
		<tag k="place" v="farm" />
		<tag k="ssr:stedsnr" v="720732" />
	</node>
	<node id="-538809" lat="61.808204309" lon="4.8481316676">
		<tag k="fixme" v="consider place=hamlet" />
		<tag k="name" v="Nesje" />
		<tag k="place" v="farm" />
		<tag k="ssr:stedsnr" v="571947" />
	</node>
	<node id="-539832" lat="61.8000446972" lon="4.86538314351">
		<tag k="fixme" v="consider place=hamlet" />
		<tag k="name" v="Ånnevika" />
		<tag k="place" v="farm" />
		<tag k="ssr:stedsnr" v="860943" />
	</node>
	<node id="-538806" lat="61.8834833313" lon="4.9644111085">
		<tag k="historic" v="shieling" />
		<tag k="name" v="Hellerane" />
		<tag k="place" v="locality" />
		<tag k="ssr:stedsnr" v="566003" />
	</node>
	<node id="-538313" lat="61.7200972264" lon="5.22789999197">
		<tag k="name" v="Reset" />
		<tag k="place" v="isolated_dwelling" />
		<tag k="ssr:stedsnr" v="251849" />
	</node>
	<node id="-537780" lat="61.8582499982" lon="5.5732361083">
		<tag k="name" v="Bortnedalsmunnen" />
		<tag k="place" v="locality" />
		<tag k="ssr:stedsnr" v="71383" />
	</node>
	<node id="-538786" lat="61.8324333312" lon="5.13736667115">
		<tag k="name" v="Lisete" />
		<tag k="place" v="farm" />
		<tag k="ssr:stedsnr" v="556153" />
	</node>
	<node id="-538801" lat="61.8332138892" lon="4.99793055258">
		<tag k="name" v="Naustdal" />
		<tag k="place" v="farm" />
		<tag k="ssr:stedsnr" v="556907" />
	</node>
	<node id="-537776" lat="61.8795416682" lon="5.69278055632">
		<tag k="historic" v="shieling" />
		<tag k="name" v="Langemyra" />
		<tag k="place" v="locality" />
		<tag k="ssr:stedsnr" v="71415" />
	</node>
	<node id="-537775" lat="61.8700111151" lon="5.17438055095">
		<tag k="alt_name" v="Klubbesetra" />
		<tag k="historic" v="shieling" />
		<tag k="name" v="Klubbesætra" />
		<tag k="place" v="locality" />
		<tag k="ssr:stedsnr" v="71197" />
	</node>
	<node id="-537260" lat="61.8247138906" lon="5.63538333633">
		<tag k="name" v="Litledalen" />
		<tag k="place" v="locality" />
		<tag k="ssr:stedsnr" v="414135" />
	</node>
	<node id="-539817" lat="61.8797805579" lon="5.71333054971">
		<tag k="name" v="Stranda" />
		<tag k="place" v="farm" />
		<tag k="ssr:stedsnr" v="860437" />
	</node>
	<node id="-538792" lat="61.8624741108" lon="5.32728006811">
		<tag k="fixme" v="consider place=hamlet" />
		<tag k="name" v="Leirgulen" />
		<tag k="place" v="farm" />
		<tag k="ssr:stedsnr" v="556190" />
	</node>
	<node id="-539815" lat="61.8758091045" lon="5.71607562232">
		<tag k="alt_name" v="Isane, ytre" />
		<tag k="fixme" v="consider place=hamlet" />
		<tag k="name" v="Ytre Isane" />
		<tag k="place" v="farm" />
		<tag k="ssr:stedsnr" v="860436" />
	</node>
	<node id="-539814" lat="61.878303207" lon="5.269500421">
		<tag k="historic" v="shieling" />
		<tag k="name" v="Gloføyksætra" />
		<tag k="place" v="locality" />
		<tag k="ssr:stedsnr" v="860215" />
	</node>
	<node id="-537766" lat="61.8793444443" lon="5.25496665822">
		<tag k="historic" v="shieling" />
		<tag k="name" v="Nygårdssætra" />
		<tag k="place" v="locality" />
		<tag k="ssr:stedsnr" v="71215" />
	</node>
	<node id="-537764" lat="61.8121097446" lon="5.23049421466">
		<tag k="fixme" v="consider place=hamlet" />
		<tag k="name" v="Hennøyna" />
		<tag k="place" v="farm" />
		<tag k="ssr:stedsnr" v="71092" />
	</node>
	<node id="-537763" lat="61.7731416483" lon="5.17283227176">
		<tag k="fixme" v="consider place=hamlet" />
		<tag k="name" v="Dyrstad" />
		<tag k="place" v="farm" />
		<tag k="ssr:stedsnr" v="71086" />
	</node>
	<node id="-537762" lat="61.7636138884" lon="5.10359444776">
		<tag k="name" v="Hatledal" />
		<tag k="place" v="locality" />
		<tag k="ssr:stedsnr" v="71083" />
	</node>
	<node id="-537883" lat="61.7184277741" lon="5.12066944192">
		<tag k="name" v="Øygard" />
		<tag k="place" v="locality" />
		<tag k="ssr:stedsnr" v="111885" />
	</node>
	<node id="-537768" lat="61.8191027768" lon="5.3064777833">
		<tag k="alt_name" v="Vingesetra" />
		<tag k="historic" v="shieling" />
		<tag k="name" v="Vingesætra" />
		<tag k="place" v="locality" />
		<tag k="ssr:stedsnr" v="71132" />
	</node>
	<node id="-539804" lat="61.8463406276" lon="5.38448310248">
		<tag k="fixme" v="consider place=hamlet" />
		<tag k="name" v="Bortnen" />
		<tag k="place" v="farm" />
		<tag k="ssr:stedsnr" v="860160" />
	</node>
	<node id="-537752" lat="61.8841027775" lon="5.5862972215">
		<tag k="historic" v="shieling" />
		<tag k="name" v="Vassdalen" />
		<tag k="place" v="locality" />
		<tag k="ssr:stedsnr" v="70399" />
	</node>
	<node id="-537751" lat="61.8336611079" lon="5.58061943732">
		<tag k="historic" v="shieling" />
		<tag k="name" v="Myklebustsætra" />
		<tag k="place" v="locality" />
		<tag k="ssr:stedsnr" v="70345" />
	</node>
	<node id="-537830" lat="61.8583583356" lon="5.00358055834">
		<tag k="name" v="Varpe" />
		<tag k="place" v="farm" />
		<tag k="ssr:stedsnr" v="111302" />
	</node>
	<node id="-538772" lat="61.9059808734" lon="5.50157817739">
		<tag k="fixme" v="consider place=hamlet" />
		<tag k="name" v="Askeland" />
		<tag k="place" v="farm" />
		<tag k="ssr:stedsnr" v="555404" />
	</node>
	<node id="-539795" lat="61.8411469869" lon="4.90310880073">
		<tag k="alt_name" v="Grotle, yt;Grotle" />
		<tag k="fixme" v="consider place=hamlet" />
		<tag k="name" v="Ytre Grotle" />
		<tag k="place" v="farm" />
		<tag k="ssr:stedsnr" v="859899" />
	</node>
	<node id="-538770" lat="61.887113887" lon="5.47049999238">
		<tag k="name" v="Vasslidmuren" />
		<tag k="place" v="locality" />
		<tag k="ssr:stedsnr" v="555373" />
	</node>
	<node id="-538769" lat="61.885458334" lon="5.50100277295">
		<tag k="historic" v="shieling" />
		<tag k="name" v="Gadden" />
		<tag k="place" v="locality" />
		<tag k="ssr:stedsnr" v="555369" />
	</node>
	<node id="-539637" lat="61.8163589771" lon="5.63695789062">
		<tag k="fixme" v="consider place=hamlet" />
		<tag k="name" v="Førde" />
		<tag k="place" v="farm" />
		<tag k="ssr:stedsnr" v="839135" />
	</node>
	<node id="-538766" lat="61.8383773137" lon="5.67445704531">
		<tag k="fixme" v="consider place=hamlet" />
		<tag k="name" v="Myklebust" />
		<tag k="place" v="farm" />
		<tag k="ssr:stedsnr" v="555257" />
	</node>
	<node id="-538765" lat="61.8787896885" lon="5.10547603371">
		<tag k="alt_name" v="Svoren" />
		<tag k="fixme" v="consider place=hamlet" />
		<tag k="name" v="Svora" />
		<tag k="place" v="farm" />
		<tag k="ssr:stedsnr" v="555152" />
	</node>
	<node id="-537739" lat="61.7146611118" lon="5.23911389325">
		<tag k="name" v="Litleteigen" />
		<tag k="place" v="locality" />
		<tag k="ssr:stedsnr" v="69846" />
	</node>
	<node id="-539786" lat="61.8866859017" lon="5.52425983356">
		<tag k="fixme" v="consider place=hamlet" />
		<tag k="name" v="Hamrane" />
		<tag k="place" v="farm" />
		<tag k="ssr:stedsnr" v="859402" />
	</node>
	<node id="-538761" lat="61.8834666693" lon="5.33491388348">
		<tag k="name" v="Haugland" />
		<tag k="place" v="farm" />
		<tag k="ssr:stedsnr" v="555135" />
	</node>
	<node id="-538760" lat="61.8721907581" lon="5.27104438948">
		<tag k="fixme" v="consider place=hamlet" />
		<tag k="name" v="Haukedalen" />
		<tag k="place" v="farm" />
		<tag k="ssr:stedsnr" v="555128" />
	</node>
	<node id="-538759" lat="61.6970944474" lon="5.13597777253">
		<tag k="historic" v="shieling" />
		<tag k="name" v="Mullistøylane" />
		<tag k="place" v="locality" />
		<tag k="ssr:stedsnr" v="554893" />
	</node>
	<node id="-539782" lat="61.8915888864" lon="5.53161111816">
		<tag k="fixme" v="consider place=hamlet" />
		<tag k="name" v="Davik" />
		<tag k="place" v="village" />
		<tag k="ssr:stedsnr" v="859373" />
	</node>
	<node id="-539783" lat="61.8971085567" lon="5.52936494512">
		<tag k="fixme" v="consider place=hamlet" />
		<tag k="name" v="Ekornbakken" />
		<tag k="place" v="farm" />
		<tag k="ssr:stedsnr" v="859376" />
	</node>
	<node id="-538755" lat="61.7416861123" lon="5.26339444714">
		<tag k="name" v="Ingebrekthola" />
		<tag k="place" v="isolated_dwelling" />
		<tag k="ssr:stedsnr" v="554866" />
	</node>
	<node id="-539499" lat="61.7824805592" lon="5.33611110436">
		<tag k="name" v="Amsterdam" />
		<tag k="place" v="locality" />
		<tag k="ssr:stedsnr" v="778972" />
	</node>
	<node id="-537727" lat="61.7722833315" lon="4.89187500625">
		<tag k="name" v="Frøya" />
		<tag k="place" v="hamlet" />
		<tag k="ssr:stedsnr" v="54391" />
	</node>
	<node id="-539774" lat="61.6911138914" lon="5.15050555864">
		<tag k="historic" v="shieling" />
		<tag k="name" v="Pollastøylane" />
		<tag k="place" v="locality" />
		<tag k="ssr:stedsnr" v="858875" />
	</node>
	<node id="-539773" lat="61.6803527737" lon="5.09779722802">
		<tag k="name" v="Langhamrane" />
		<tag k="place" v="locality" />
		<tag k="ssr:stedsnr" v="858873" />
	</node>
	<node id="-537211" lat="61.7531555534" lon="5.34330833397">
		<tag k="name" v="Tåene" />
		<tag k="place" v="isolated_dwelling" />
		<tag k="ssr:stedsnr" v="353902" />
	</node>
	<node id="-537721" lat="61.8147194409" lon="5.23313610509">
		<tag k="loc_name" v="Inste Hennøyna" />
		<tag k="name" v="Hennøyna" />
		<tag k="place" v="locality" />
		<tag k="ssr:stedsnr" v="53113" />
	</node>
	<node id="-537108" lat="61.7652931898" lon="4.85369933255">
		<tag k="fixme" v="consider place=hamlet" />
		<tag k="name" v="Steinset" />
		<tag k="place" v="farm" />
		<tag k="ssr:stedsnr" v="313868" />
	</node>
	<node id="-537718" lat="61.8108416637" lon="5.22090277593">
		<tag k="loc_name" v="Yste Hennøyna" />
		<tag k="name" v="Hennøyna" />
		<tag k="place" v="locality" />
		<tag k="ssr:stedsnr" v="53099" />
	</node>
	<node id="-537540" lat="61.776689618" lon="5.27333651905">
		<tag k="name" v="Mevika" />
		<tag k="place" v="quarter" />
		<tag k="ssr:stedsnr" v="982069" />
	</node>
	<node id="-538558" lat="61.8738972225" lon="5.31983887983">
		<tag k="name" v="Nybøen" />
		<tag k="place" v="farm" />
		<tag k="ssr:stedsnr" v="495184" />
	</node>
	<node id="-538899" lat="61.7358222258" lon="5.19800833704">
		<tag k="name" v="Runnane" />
		<tag k="place" v="farm" />
		<tag k="ssr:stedsnr" v="596871" />
	</node>
	<node id="-538557" lat="61.8495027817" lon="5.18144166088">
		<tag k="name" v="Hesteviksætra" />
		<tag k="place" v="locality" />
		<tag k="ssr:stedsnr" v="495174" />
	</node>
	<node id="-537195" lat="61.8399416633" lon="5.76004166354">
		<tag k="name" v="Askevikteigen" />
		<tag k="place" v="locality" />
		<tag k="ssr:stedsnr" v="353762" />
	</node>
	<node id="-539754" lat="61.7215348564" lon="4.97810620715">
		<tag k="fixme" v="consider place=hamlet" />
		<tag k="name" v="Sørbotnen" />
		<tag k="place" v="farm" />
		<tag k="ssr:stedsnr" v="842957" />
	</node>
	<node id="-538698" lat="61.8368944464" lon="4.92917221879">
		<tag k="name" v="Vellene" />
		<tag k="place" v="farm" />
		<tag k="ssr:stedsnr" v="536006" />
	</node>
	<node id="-537317" lat="61.8896483986" lon="4.9271068119">
		<tag k="fixme" v="consider place=hamlet" />
		<tag k="name" v="Solheim" />
		<tag k="place" v="farm" />
		<tag k="ssr:stedsnr" v="374999" />
	</node>
	<node id="-537702" lat="61.8985388904" lon="5.5360861069">
		<tag k="name" v="Flata" />
		<tag k="place" v="farm" />
		<tag k="ssr:stedsnr" v="50988" />
	</node>
	<node id="-538968" lat="61.8744806891" lon="5.25078462097">
		<tag k="fixme" v="consider place=hamlet" />
		<tag k="name" v="Gloføyke" />
		<tag k="place" v="farm" />
		<tag k="ssr:stedsnr" v="616163" />
	</node>
	<node id="-538811" lat="61.8714861089" lon="5.72192777476">
		<tag k="name" v="Skogen" />
		<tag k="place" v="isolated_dwelling" />
		<tag k="ssr:stedsnr" v="585390" />
	</node>
	<node id="-538101" lat="61.7733888854" lon="5.29623889166">
		<tag k="building" v="industrial" />
		<tag k="industrial" v="factory" />
		<tag k="name" v="Smelteverk" />
		<tag k="ssr:stedsnr" v="174204" />
	</node>
	<node id="-537078" lat="61.8231393452" lon="5.28885540435">
		<tag k="alt_name" v="Vingelven" />
		<tag k="fixme" v="consider place=hamlet" />
		<tag k="name" v="Vingelva" />
		<tag k="place" v="farm" />
		<tag k="ssr:stedsnr" v="313129" />
	</node>
	<node id="-537095" lat="61.8643638917" lon="5.72517777218">
		<tag k="alt_name" v="Haugen" />
		<tag k="fixme" v="consider place=hamlet" />
		<tag k="name" v="Isehaugen" />
		<tag k="place" v="farm" />
		<tag k="ssr:stedsnr" v="313341" />
	</node>
	<node id="-539228" lat="61.8523416698" lon="5.37487499378">
		<tag k="historic" v="shieling" />
		<tag k="name" v="Mjånesstølen" />
		<tag k="place" v="locality" />
		<tag k="ssr:stedsnr" v="717383" />
	</node>
	<node id="-539810" lat="61.8690206683" lon="5.22302088006">
		<tag k="fixme" v="consider place=hamlet" />
		<tag k="name" v="Hornskor" />
		<tag k="place" v="farm" />
		<tag k="ssr:stedsnr" v="860202" />
	</node>
	<node id="-538527" lat="61.7940861078" lon="4.95667500993">
		<tag k="name" v="Bukta" />
		<tag k="place" v="farm" />
		<tag k="ssr:stedsnr" v="435852" />
	</node>
	<node id="-537688" lat="61.7126833338" lon="5.0919527703">
		<tag k="historic" v="shieling" />
		<tag k="name" v="Sagebøstølen" />
		<tag k="place" v="locality" />
		<tag k="ssr:stedsnr" v="50875" />
	</node>
	<node id="-537174" lat="61.888669444" lon="5.27122778213">
		<tag k="name" v="Nerdal" />
		<tag k="place" v="locality" />
		<tag k="ssr:stedsnr" v="353586" />
	</node>
	<node id="-539730" lat="61.8253752474" lon="4.95561974063">
		<tag k="name" v="Løviknes" />
		<tag k="place" v="farm" />
		<tag k="ssr:stedsnr" v="840368" />
	</node>
	<node id="-538787" lat="61.8281196449" lon="5.11178157445">
		<tag k="fixme" v="consider place=hamlet" />
		<tag k="name" v="Litle Hauge" />
		<tag k="place" v="farm" />
		<tag k="ssr:stedsnr" v="556155" />
	</node>
	<node id="-537947" lat="61.8315111134" lon="5.11269167572">
		<tag k="loc_name" v="Øygarden" />
		<tag k="name" v="Øgarden" />
		<tag k="place" v="farm" />
		<tag k="ssr:stedsnr" v="131133" />
	</node>
	<node id="-537769" lat="61.8533638854" lon="5.43510555939">
		<tag k="historic" v="shieling" />
		<tag k="name" v="Nyken" />
		<tag k="place" v="locality" />
		<tag k="ssr:stedsnr" v="71165" />
	</node>
	<node id="-539722" lat="61.8828861087" lon="4.93138332573">
		<tag k="name" v="Vollen" />
		<tag k="place" v="isolated_dwelling" />
		<tag k="ssr:stedsnr" v="840118" />
	</node>
	<node id="-539207" lat="61.8422180855" lon="4.96946204586">
		<tag k="fixme" v="consider place=hamlet" />
		<tag k="name" v="Hauge" />
		<tag k="place" v="farm" />
		<tag k="ssr:stedsnr" v="693936" />
	</node>
	<node id="-538182" lat="61.8595166711" lon="5.00890834038">
		<tag k="name" v="Varpe" />
		<tag k="place" v="farm" />
		<tag k="ssr:stedsnr" v="192914" />
	</node>
	<node id="-539370" lat="61.8134749976" lon="5.58697777384">
		<tag k="historic" v="shieling" />
		<tag k="name" v="Førdssætra" />
		<tag k="place" v="locality" />
		<tag k="ssr:stedsnr" v="738338" />
	</node>
	<node id="-538038" lat="61.8134675376" lon="5.19981574623">
		<tag k="fixme" v="multiple name tags, choose one and add the other to alt_name" />
		<tag k="name" v="Litle Hennøyna;Jorda" />
		<tag k="place" v="locality" />
		<tag k="ssr:stedsnr" v="171531" />
	</node>
	<node id="-537077" lat="61.8228805564" lon="5.10943333757">
		<tag k="name" v="Steinset" />
		<tag k="place" v="farm" />
		<tag k="ssr:stedsnr" v="313126" />
	</node>
	<node id="-537663" lat="61.8578888912" lon="5.14708889729">
		<tag k="name" v="Lisetfjøsane" />
		<tag k="place" v="locality" />
		<tag k="ssr:stedsnr" v="50583" />
	</node>
	<node id="-538850" lat="61.8544194432" lon="5.32709443681">
		<tag k="alt_name" v="Loftnes;Indre Lognes" />
		<tag k="name" v="Lofnes" />
		<tag k="place" v="farm" />
		<tag k="ssr:stedsnr" v="596348" />
	</node>
	<node id="-537269" lat="61.7248944464" lon="5.10428332362">
		<tag k="name" v="Skjervane" />
		<tag k="place" v="isolated_dwelling" />
		<tag k="ssr:stedsnr" v="372846" />
	</node>
	<node id="-539195" lat="61.8209592304" lon="4.96487022365">
		<tag k="fixme" v="consider place=hamlet" />
		<tag k="name" v="Eikeset" />
		<tag k="place" v="farm" />
		<tag k="ssr:stedsnr" v="677946" />
	</node>
	<node id="-539387" lat="61.8318531118" lon="4.99276721964">
		<tag k="alt_name" v="Fossen" />
		<tag k="fixme" v="consider place=hamlet" />
		<tag k="name" v="Fossane" />
		<tag k="place" v="farm" />
		<tag k="ssr:stedsnr" v="738924" />
	</node>
	<node id="-539193" lat="61.8137447403" lon="4.94700833034">
		<tag k="fixme" v="consider place=hamlet" />
		<tag k="name" v="Myra" />
		<tag k="place" v="farm" />
		<tag k="ssr:stedsnr" v="677934" />
	</node>
	<node id="-538168" lat="61.8888862051" lon="5.55939718237">
		<tag k="alt_name" v="Davik, indre" />
		<tag k="name" v="Indre Davik" />
		<tag k="place" v="farm" />
		<tag k="ssr:stedsnr" v="192452" />
	</node>
	<node id="-538165" lat="61.8901305587" lon="5.53666665992">
		<tag k="name" v="Frimannslund" />
		<tag k="place" v="farm" />
		<tag k="ssr:stedsnr" v="192437" />
	</node>
	<node id="-538676" lat="61.8889472203" lon="5.62729166034">
		<tag k="historic" v="shieling" />
		<tag k="name" v="Sætra" />
		<tag k="place" v="locality" />
		<tag k="ssr:stedsnr" v="535807" />
	</node>
	<node id="-538162" lat="61.8803944409" lon="5.63801945181">
		<tag k="historic" v="shieling" />
		<tag k="name" v="Legene" />
		<tag k="place" v="locality" />
		<tag k="ssr:stedsnr" v="192399" />
	</node>
	<node id="-538161" lat="61.8303111073" lon="5.58002499663">
		<tag k="historic" v="shieling" />
		<tag k="name" v="Vikasætra" />
		<tag k="place" v="locality" />
		<tag k="ssr:stedsnr" v="192396" />
	</node>
	<node id="-537963" lat="61.8336166666" lon="5.51529999511">
		<tag k="name" v="Dalsete" />
		<tag k="place" v="isolated_dwelling" />
		<tag k="ssr:stedsnr" v="131351" />
	</node>
	<node id="-537646" lat="61.8612944446" lon="5.32218056109">
		<tag k="name" v="Midtbø" />
		<tag k="place" v="farm" />
		<tag k="ssr:stedsnr" v="50425" />
	</node>
	<node id="-537656" lat="61.8605916666" lon="5.3112583245">
		<tag k="fixme" v="consider place=hamlet" />
		<tag k="name" v="Leirgulen" />
		<tag k="place" v="village" />
		<tag k="ssr:stedsnr" v="50562" />
	</node>
	<node id="-538155" lat="61.8840362243" lon="5.22035391241">
		<tag k="name" v="Skorpa" />
		<tag k="place" v="farm" />
		<tag k="ssr:stedsnr" v="192228" />
	</node>
	<node id="-537641" lat="61.7784972218" lon="4.89883055124">
		<tag k="fixme" v="consider place=hamlet" />
		<tag k="name" v="Frøynes" />
		<tag k="place" v="farm" />
		<tag k="ssr:stedsnr" v="50380" />
	</node>
	<node id="-537640" lat="61.7702134071" lon="4.88384933363">
		<tag k="alt_name" v="Frøyen ytre;Utigarden" />
		<tag k="fixme" v="consider place=hamlet" />
		<tag k="name" v="Ytre Frøyen" />
		<tag k="place" v="farm" />
		<tag k="ssr:stedsnr" v="50377" />
	</node>
	<node id="-537549" lat="61.7291861108" lon="4.98585555569">
		<tag k="name" v="Sletta" />
		<tag k="place" v="farm" />
		<tag k="ssr:stedsnr" v="8470" />
	</node>
	<node id="-539172" lat="61.9048477444" lon="5.43276947224">
		<tag k="historic" v="shieling" />
		<tag k="name" v="Otrasætra" />
		<tag k="place" v="locality" />
		<tag k="ssr:stedsnr" v="677195" />
	</node>
	<node id="-539171" lat="61.8878736516" lon="5.28411053552">
		<tag k="fixme" v="consider place=hamlet" />
		<tag k="name" v="Syrhelleren" />
		<tag k="place" v="farm" />
		<tag k="ssr:stedsnr" v="677187" />
	</node>
	<node id="-537076" lat="61.7835972221" lon="5.14607777183">
		<tag k="alt_name" v="Nesbøstølen" />
		<tag k="historic" v="shieling" />
		<tag k="name" v="Nesbøstøylen" />
		<tag k="place" v="locality" />
		<tag k="ssr:stedsnr" v="313116" />
	</node>
	<node id="-539169" lat="61.8773534111" lon="5.22142454281">
		<tag k="fixme" v="consider place=hamlet" />
		<tag k="name" v="Hamnen" />
		<tag k="place" v="farm" />
		<tag k="ssr:stedsnr" v="677173" />
	</node>
	<node id="-538656" lat="61.8584527793" lon="5.30429722858">
		<tag k="name" v="Verpe" />
		<tag k="place" v="farm" />
		<tag k="ssr:stedsnr" v="535588" />
	</node>
	<node id="-538143" lat="61.8286298597" lon="5.31961096014">
		<tag k="fixme" v="consider place=hamlet" />
		<tag k="name" v="Vingen" />
		<tag k="place" v="farm" />
		<tag k="ssr:stedsnr" v="192127" />
	</node>
	<node id="-537629" lat="61.8325666677" lon="5.55050832442">
		<tag k="name" v="Litlevassbakken" />
		<tag k="place" v="locality" />
		<tag k="ssr:stedsnr" v="50305" />
	</node>
	<node id="-538138" lat="61.7725833368" lon="5.18300556316">
		<tag k="name" v="Sagetun" />
		<tag k="place" v="farm" />
		<tag k="ssr:stedsnr" v="192097" />
	</node>
	<node id="-538135" lat="61.7612256454" lon="5.22718572391">
		<tag k="fixme" v="consider place=hamlet" />
		<tag k="name" v="Eikeland" />
		<tag k="place" v="farm" />
		<tag k="ssr:stedsnr" v="192081" />
	</node>
	<node id="-538134" lat="61.7640265297" lon="5.28440109384">
		<tag k="fixme" v="consider place=hamlet" />
		<tag k="name" v="Rise" />
		<tag k="place" v="farm" />
		<tag k="ssr:stedsnr" v="192077" />
	</node>
	<node id="-538969" lat="61.8754870712" lon="5.23304228912">
		<tag k="fixme" v="consider place=hamlet" />
		<tag k="name" v="Nygård" />
		<tag k="place" v="farm" />
		<tag k="ssr:stedsnr" v="616164" />
	</node>
	<node id="-538132" lat="61.7015555533" lon="5.20972222137">
		<tag k="historic" v="shieling" />
		<tag k="name" v="Vikastøylane" />
		<tag k="place" v="locality" />
		<tag k="ssr:stedsnr" v="190876" />
	</node>
	<node id="-538131" lat="61.7391217663" lon="5.17617943604">
		<tag k="fixme" v="consider place=hamlet" />
		<tag k="name" v="Sandvik" />
		<tag k="place" v="farm" />
		<tag k="ssr:stedsnr" v="190863" />
	</node>
	<node id="-539151" lat="61.7271004951" lon="4.9926080538">
		<tag k="fixme" v="consider place=hamlet" />
		<tag k="name" v="Nordbotnen" />
		<tag k="place" v="farm" />
		<tag k="ssr:stedsnr" v="676441" />
	</node>
	<node id="-536973" lat="61.7763839407" lon="4.89597016249">
		<tag k="alt_name" v="Frøyen øvre" />
		<tag k="fixme" v="consider place=hamlet" />
		<tag k="name" v="Øvre Frøyen" />
		<tag k="place" v="farm" />
		<tag k="ssr:stedsnr" v="293424" />
	</node>
	<node id="-537100" lat="61.8953009725" lon="5.5103673663">
		<tag k="fixme" v="consider place=hamlet" />
		<tag k="name" v="Lida" />
		<tag k="place" v="farm" />
		<tag k="ssr:stedsnr" v="313401" />
	</node>
	<node id="-538967" lat="61.8767305543" lon="5.33811666612">
		<tag k="name" v="Rabben" />
		<tag k="place" v="farm" />
		<tag k="ssr:stedsnr" v="616159" />
	</node>
	<node id="-538540" lat="61.7231944451" lon="4.98474444736">
		<tag k="alt_name" v="Sørbotten" />
		<tag k="fixme" v="consider place=hamlet" />
		<tag k="name" v="Botnane" />
		<tag k="place" v="village" />
		<tag k="ssr:stedsnr" v="493425" />
	</node>
	<node id="-539182" lat="61.8899565439" lon="5.51995677816">
		<tag k="fixme" v="consider place=hamlet" />
		<tag k="name" v="Åsane" />
		<tag k="place" v="farm" />
		<tag k="ssr:stedsnr" v="677384" />
	</node>
	<node id="-538113" lat="61.775243702" lon="4.89748525295">
		<tag k="name" v="Vollane" />
		<tag k="place" v="farm" />
		<tag k="ssr:stedsnr" v="175753" />
	</node>
	<node id="-539581" lat="61.8686361117" lon="5.17238889528">
		<tag k="historic" v="shieling" />
		<tag k="name" v="Hornskorsætra" />
		<tag k="place" v="locality" />
		<tag k="ssr:stedsnr" v="799182" />
	</node>
	<node id="-537942" lat="61.8007222219" lon="5.29241111194">
		<tag k="name" v="Vingedalssætra" />
		<tag k="place" v="locality" />
		<tag k="ssr:stedsnr" v="131110" />
	</node>
	<node id="-539138" lat="61.8704138865" lon="5.31359722798">
		<tag k="name" v="Indre Kollsete" />
		<tag k="place" v="farm" />
		<tag k="ssr:stedsnr" v="660016" />
	</node>
	<node id="-539137" lat="61.8689872687" lon="5.31155386057">
		<tag k="name" v="Ytre Kollsete" />
		<tag k="place" v="farm" />
		<tag k="ssr:stedsnr" v="660013" />
	</node>
</osm>
