<?xml version="1.0" encoding="UTF-8"?>
<osm generator="osmapis" version="0.6">
	<node id="-135008" lat="60.2554916704" lon="10.6622833246">
		<tag k="amenity" v="place_of_worship" />
		<tag k="denomination" v="lutheran" />
		<tag k="name" v="Grua kirke" />
		<tag k="religion" v="christian" />
		<tag k="ssr:stedsnr" v="67756" />
	</node>
	<node id="-135808" lat="60.29933611" lon="10.7294166723">
		<tag k="name" v="Bruene" />
		<tag k="place" v="locality" />
		<tag k="ssr:stedsnr" v="951416" />
	</node>
	<node id="-135038" lat="60.2986222194" lon="10.5969305551">
		<tag k="name" v="Follum Minne" />
		<tag k="place" v="locality" />
		<tag k="ssr:stedsnr" v="100095" />
	</node>
	<node id="-135100" lat="60.3074666662" lon="10.5570861066">
		<tag k="amenity" v="place_of_worship" />
		<tag k="denomination" v="lutheran" />
		<tag k="name" v="Lunner kirke" />
		<tag k="religion" v="christian" />
		<tag k="ssr:stedsnr" v="127903" />
	</node>
	<node id="-134960" lat="60.2931277798" lon="10.5778583399">
		<tag k="amenity" v="community_centre" />
		<tag k="name" v="Folkets hus" />
		<tag k="ssr:stedsnr" v="39075" />
	</node>
	<node id="-134958" lat="60.2904666682" lon="10.5532083261">
		<tag k="name" v="Engen kalkverk" />
		<tag k="place" v="locality" />
		<tag k="ssr:stedsnr" v="39059" />
	</node>
	<node id="-135776" lat="60.3036916692" lon="10.6492222177">
		<tag k="amenity" v="place_of_worship" />
		<tag k="denomination" v="lutheran" />
		<tag k="name" v="Oppdalen kapell" />
		<tag k="religion" v="christian" />
		<tag k="ssr:stedsnr" v="916919" />
	</node>
	<node id="-135496" lat="60.2602083341" lon="10.6624472138">
		<tag k="amenity" v="community_centre" />
		<tag k="name" v="Grua gamle skole" />
		<tag k="ssr:stedsnr" v="647335" />
	</node>
	<node id="-134822" lat="60.2782388917" lon="10.5728444357">
		<tag k="name" v="Jonsrudutsikten" />
		<tag k="ssr:stedsnr" v="403081" />
		<tag k="tourism" v="viewpoint" />
	</node>
	<node id="-135105" lat="60.2109694484" lon="10.7524666686">
		<tag k="name" v="Solobservatoriet" />
		<tag k="place" v="locality" />
		<tag k="ssr:stedsnr" v="147350" />
	</node>
</osm>
