<?xml version="1.0" encoding="UTF-8"?>
<osm generator="osmapis" version="0.6">
	<node id="-135679" lat="60.3029833296" lon="10.698605562">
		<tag k="fixme" v="consider natural=peak for the most distinct mountains in the district" />
		<tag k="name" v="Storhaugen" />
		<tag k="natural" v="hill" />
		<tag k="place" v="locality" />
		<tag k="ssr:stedsnr" v="795900" />
	</node>
	<node id="-135162" lat="60.2725083322" lon="10.7937361029">
		<tag k="name" v="Granlia" />
		<tag k="natural" v="slope" />
		<tag k="place" v="locality" />
		<tag k="ssr:stedsnr" v="188357" />
	</node>
	<node id="-135159" lat="60.2409805583" lon="10.7912055533">
		<tag k="alt_name" v="Bukkehaugen" />
		<tag k="name" v="Bukkehøgda" />
		<tag k="natural" v="hill" />
		<tag k="place" v="locality" />
		<tag k="ssr:stedsnr" v="187816" />
	</node>
	<node id="-135157" lat="60.2104499975" lon="10.5655611184">
		<tag k="name" v="Syversdalen" />
		<tag k="natural" v="valley" />
		<tag k="place" v="locality" />
		<tag k="ssr:stedsnr" v="187458" />
	</node>
	<node id="-135422" lat="60.1939388922" lon="10.764202779">
		<tag k="name" v="Piperlia" />
		<tag k="natural" v="slope" />
		<tag k="place" v="locality" />
		<tag k="ssr:stedsnr" v="585678" />
	</node>
	<node id="-135151" lat="60.2425194416" lon="10.658825001">
		<tag k="alt_name" v="Varden" />
		<tag k="fixme" v="consider natural=peak for the most distinct mountains in the district" />
		<tag k="name" v="Klattertjernberget" />
		<tag k="natural" v="hill" />
		<tag k="place" v="locality" />
		<tag k="ssr:stedsnr" v="187352" />
	</node>
	<node id="-135150" lat="60.1419777779" lon="10.6239916598">
		<tag k="alt_name" v="Refshammeren" />
		<tag k="fixme" v="consider natural=peak for the most distinct mountains in the district" />
		<tag k="name" v="Revshammaren" />
		<tag k="natural" v="hill" />
		<tag k="place" v="locality" />
		<tag k="ssr:stedsnr" v="187101" />
	</node>
	<node id="-135146" lat="60.1505722189" lon="10.6604972295">
		<tag k="fixme" v="consider natural=peak for the most distinct mountains in the district" />
		<tag k="name" v="Daltjuvmåna" />
		<tag k="natural" v="hill" />
		<tag k="place" v="locality" />
		<tag k="ssr:stedsnr" v="187008" />
	</node>
	<node id="-135137" lat="60.214005558" lon="10.6104388886">
		<tag k="alt_name" v="Bjønnjele" />
		<tag k="name" v="Bjørnhjellen" />
		<tag k="natural" v="slope" />
		<tag k="place" v="locality" />
		<tag k="ssr:stedsnr" v="162509" />
	</node>
	<node id="-135136" lat="60.2911805525" lon="10.8018611038">
		<tag k="name" v="Midtmoen" />
		<tag k="place" v="locality" />
		<tag k="ssr:stedsnr" v="162503" />
	</node>
	<node id="-135646" lat="60.1637500029" lon="10.619436104">
		<tag k="fixme" v="consider natural=peak for the most distinct mountains in the district" />
		<tag k="name" v="Bekkehøgda" />
		<tag k="natural" v="hill" />
		<tag k="place" v="locality" />
		<tag k="ssr:stedsnr" v="792053" />
	</node>
	<node id="-135133" lat="60.2572361107" lon="10.6847416597">
		<tag k="name" v="Milsteinhagahaugen" />
		<tag k="natural" v="hill" />
		<tag k="place" v="locality" />
		<tag k="ssr:stedsnr" v="162321" />
	</node>
	<node id="-135637" lat="60.2519277742" lon="10.7396638881">
		<tag k="name" v="Tjagdalen" />
		<tag k="natural" v="valley" />
		<tag k="place" v="locality" />
		<tag k="ssr:stedsnr" v="769566" />
	</node>
	<node id="-135124" lat="60.1888750045" lon="10.7379361088">
		<tag k="name" v="Harestulia" />
		<tag k="natural" v="slope" />
		<tag k="place" v="locality" />
		<tag k="ssr:stedsnr" v="160639" />
	</node>
	<node id="-135122" lat="60.1988888932" lon="10.6930111193">
		<tag k="name" v="Korpeberget" />
		<tag k="natural" v="hill" />
		<tag k="place" v="locality" />
		<tag k="ssr:stedsnr" v="160365" />
	</node>
	<node id="-135633" lat="60.2620555576" lon="10.662497218">
		<tag k="name" v="Milsteinberget" />
		<tag k="natural" v="hill" />
		<tag k="place" v="locality" />
		<tag k="ssr:stedsnr" v="768289" />
	</node>
	<node id="-135631" lat="60.3223250022" lon="10.6612472252">
		<tag k="name" v="Lisberget" />
		<tag k="natural" v="hill" />
		<tag k="place" v="locality" />
		<tag k="ssr:stedsnr" v="767955" />
	</node>
	<node id="-135626" lat="60.2029222254" lon="10.6124416713">
		<tag k="name" v="Gjerdingslia" />
		<tag k="natural" v="slope" />
		<tag k="place" v="locality" />
		<tag k="ssr:stedsnr" v="767486" />
	</node>
	<node id="-135113" lat="60.1971027792" lon="10.6688361165">
		<tag k="name" v="Djupdalen" />
		<tag k="natural" v="valley" />
		<tag k="place" v="locality" />
		<tag k="ssr:stedsnr" v="160025" />
	</node>
	<node id="-135112" lat="60.1952888849" lon="10.692616668">
		<tag k="name" v="Tømte" />
		<tag k="place" v="locality" />
		<tag k="ssr:stedsnr" v="160022" />
	</node>
	<node id="-135612" lat="60.2117583378" lon="10.5973694506">
		<tag k="name" v="Syljuseterlia" />
		<tag k="natural" v="slope" />
		<tag k="place" v="locality" />
		<tag k="ssr:stedsnr" v="760252" />
	</node>
	<node id="-135225" lat="60.1790500026" lon="10.6343666601">
		<tag k="fixme" v="consider natural=peak for the most distinct mountains in the district" />
		<tag k="name" v="Almedalshøgda" />
		<tag k="natural" v="hill" />
		<tag k="place" v="locality" />
		<tag k="ssr:stedsnr" v="248038" />
	</node>
	<node id="-135083" lat="60.2407472246" lon="10.7593166676">
		<tag k="alt_name" v="Høgesset" />
		<tag k="name" v="Høgeset" />
		<tag k="natural" v="hill" />
		<tag k="place" v="locality" />
		<tag k="ssr:stedsnr" v="126819" />
	</node>
	<node id="-135495" lat="60.272602774" lon="10.6611055507">
		<tag k="name" v="Tunnelltoppen" />
		<tag k="natural" v="hill" />
		<tag k="place" v="locality" />
		<tag k="ssr:stedsnr" v="647269" />
	</node>
	<node id="-135592" lat="60.2629500028" lon="10.7349305553">
		<tag k="alt_name" v="Korsvasshøgda, nordre;Nordre Korsvatnhaugen" />
		<tag k="name" v="Nordre Korsvasshøgda" />
		<tag k="natural" v="hill" />
		<tag k="place" v="locality" />
		<tag k="ssr:stedsnr" v="734402" />
	</node>
	<node id="-135589" lat="60.2113305566" lon="10.5834111167">
		<tag k="name" v="Styggdalen" />
		<tag k="natural" v="valley" />
		<tag k="place" v="locality" />
		<tag k="ssr:stedsnr" v="733447" />
	</node>
	<node id="-135581" lat="60.3074611092" lon="10.8001833389">
		<tag k="name" v="Skriverbrudalen" />
		<tag k="natural" v="valley" />
		<tag k="place" v="locality" />
		<tag k="ssr:stedsnr" v="719904" />
	</node>
	<node id="-135063" lat="60.2494666679" lon="10.7049388805">
		<tag k="name" v="Rogndalen" />
		<tag k="natural" v="valley" />
		<tag k="place" v="locality" />
		<tag k="ssr:stedsnr" v="101293" />
	</node>
	<node id="-135574" lat="60.277669443" lon="10.7256166684">
		<tag k="name" v="Gammelholmen" />
		<tag k="natural" v="hill" />
		<tag k="place" v="locality" />
		<tag k="ssr:stedsnr" v="708547" />
	</node>
	<node id="-135571" lat="60.2954305574" lon="10.7349861129">
		<tag k="name" v="Morstadseterhaugen" />
		<tag k="natural" v="hill" />
		<tag k="place" v="locality" />
		<tag k="ssr:stedsnr" v="708426" />
	</node>
	<node id="-135568" lat="60.2566166654" lon="10.6314611049">
		<tag k="name" v="Larmerudshaugen" />
		<tag k="natural" v="hill" />
		<tag k="place" v="locality" />
		<tag k="ssr:stedsnr" v="708310" />
	</node>
	<node id="-135054" lat="60.2713055556" lon="10.6555416669">
		<tag k="name" v="Røsteberga" />
		<tag k="natural" v="hill" />
		<tag k="place" v="locality" />
		<tag k="ssr:stedsnr" v="100762" />
	</node>
	<node id="-135053" lat="60.1577416631" lon="10.7640305612">
		<tag k="name" v="Varplia" />
		<tag k="natural" v="slope" />
		<tag k="place" v="locality" />
		<tag k="ssr:stedsnr" v="100705" />
	</node>
	<node id="-135563" lat="60.1850361088" lon="10.7619750054">
		<tag k="name" v="Paradisdalen" />
		<tag k="natural" v="valley" />
		<tag k="place" v="locality" />
		<tag k="ssr:stedsnr" v="706748" />
	</node>
	<node id="-135575" lat="60.2535888881" lon="10.7186055574">
		<tag k="name" v="Tømmerbakken" />
		<tag k="natural" v="slope" />
		<tag k="place" v="locality" />
		<tag k="ssr:stedsnr" v="708554" />
	</node>
	<node id="-135558" lat="60.2129722184" lon="10.6952361092">
		<tag k="name" v="Stubbengmoen" />
		<tag k="place" v="locality" />
		<tag k="ssr:stedsnr" v="706370" />
	</node>
	<node id="-135555" lat="60.2727583377" lon="10.7072916652">
		<tag k="fixme" v="consider natural=peak for the most distinct mountains in the district" />
		<tag k="name" v="Nyseterhøgda" />
		<tag k="natural" v="hill" />
		<tag k="place" v="locality" />
		<tag k="ssr:stedsnr" v="706231" />
	</node>
	<node id="-135554" lat="60.2819138907" lon="10.7085166716">
		<tag k="name" v="Hestahagaberget" />
		<tag k="natural" v="hill" />
		<tag k="place" v="locality" />
		<tag k="ssr:stedsnr" v="706232" />
	</node>
	<node id="-135041" lat="60.2673250026" lon="10.5891555597">
		<tag k="name" v="Lundberghaugen" />
		<tag k="natural" v="hill" />
		<tag k="place" v="locality" />
		<tag k="ssr:stedsnr" v="100104" />
	</node>
	<node id="-135552" lat="60.140597226" lon="10.6372527774">
		<tag k="name" v="Kalveberget" />
		<tag k="natural" v="hill" />
		<tag k="place" v="locality" />
		<tag k="ssr:stedsnr" v="706052" />
	</node>
	<node id="-135037" lat="60.2702305552" lon="10.555336107">
		<tag k="name" v="Øverlia" />
		<tag k="natural" v="slope" />
		<tag k="place" v="locality" />
		<tag k="ssr:stedsnr" v="100083" />
	</node>
	<node id="-135548" lat="60.1517722219" lon="10.6406083303">
		<tag k="name" v="Torsbrenna" />
		<tag k="natural" v="hill" />
		<tag k="place" v="locality" />
		<tag k="ssr:stedsnr" v="706027" />
	</node>
	<node id="-135547" lat="60.1459916704" lon="10.6527916594">
		<tag k="name" v="Ingvalsflaten" />
		<tag k="place" v="locality" />
		<tag k="ssr:stedsnr" v="706024" />
	</node>
	<node id="-135031" lat="60.1425999986" lon="10.6266111177">
		<tag k="name" v="Refshammerdalen" />
		<tag k="natural" v="valley" />
		<tag k="place" v="locality" />
		<tag k="ssr:stedsnr" v="99021" />
	</node>
	<node id="-135028" lat="60.2105333359" lon="10.559788882">
		<tag k="fixme" v="consider natural=peak for the most distinct mountains in the district" />
		<tag k="name" v="Syversdalsbrenna" />
		<tag k="natural" v="hill" />
		<tag k="place" v="locality" />
		<tag k="ssr:stedsnr" v="93265" />
	</node>
	<node id="-135538" lat="60.3092527778" lon="10.5276388951">
		<tag k="name" v="Lunnerbakkhøgda" />
		<tag k="natural" v="hill" />
		<tag k="place" v="locality" />
		<tag k="ssr:stedsnr" v="697799" />
	</node>
	<node id="-135228" lat="60.1352777788" lon="10.6187333365">
		<tag k="alt_name" v="Kyrkjeberget" />
		<tag k="fixme" v="consider natural=peak for the most distinct mountains in the district" />
		<tag k="name" v="Kjerkeberget" />
		<tag k="natural" v="hill" />
		<tag k="old_name" v="Kirkebjerget" />
		<tag k="place" v="locality" />
		<tag k="ssr:stedsnr" v="248393" />
	</node>
	<node id="-135524" lat="60.2400611152" lon="10.7209777806">
		<tag k="fixme" v="consider natural=peak for the most distinct mountains in the district" />
		<tag k="name" v="Bjørgesæterfjellet" />
		<tag k="natural" v="hill" />
		<tag k="place" v="locality" />
		<tag k="ssr:stedsnr" v="673834" />
	</node>
	<node id="-135523" lat="60.2410916712" lon="10.7412999961">
		<tag k="alt_name" v="Leihaugen" />
		<tag k="name" v="Leidhaugen" />
		<tag k="natural" v="hill" />
		<tag k="place" v="locality" />
		<tag k="ssr:stedsnr" v="673833" />
	</node>
	<node id="-135295" lat="60.1832777771" lon="10.6800333316">
		<tag k="name" v="Holodalen" />
		<tag k="natural" v="valley" />
		<tag k="place" v="locality" />
		<tag k="ssr:stedsnr" v="464014" />
	</node>
	<node id="-135513" lat="60.2942277737" lon="10.7229861071">
		<tag k="alt_name" v="Bredehaugen" />
		<tag k="name" v="Breidhaugen" />
		<tag k="natural" v="hill" />
		<tag k="place" v="locality" />
		<tag k="ssr:stedsnr" v="673307" />
	</node>
	<node id="-135000" lat="60.3136972181" lon="10.8504777786">
		<tag k="name" v="Hellerhøgda" />
		<tag k="natural" v="hill" />
		<tag k="place" v="locality" />
		<tag k="ssr:stedsnr" v="67287" />
	</node>
	<node id="-135510" lat="60.1670027785" lon="10.6381222293">
		<tag k="name" v="Karidalstomta" />
		<tag k="place" v="locality" />
		<tag k="ssr:stedsnr" v="671043" />
	</node>
	<node id="-135509" lat="60.2224277782" lon="10.5718777726">
		<tag k="alt_name" v="Åssjøknarten" />
		<tag k="fixme" v="consider natural=peak for the most distinct mountains in the district" />
		<tag k="name" v="Ålsjøknarten" />
		<tag k="natural" v="hill" />
		<tag k="old_name" v="Åsjøknarten" />
		<tag k="place" v="locality" />
		<tag k="ssr:stedsnr" v="660478" />
	</node>
	<node id="-134996" lat="60.2044250035" lon="10.7658277817">
		<tag k="name" v="Piperberget" />
		<tag k="natural" v="hill" />
		<tag k="place" v="locality" />
		<tag k="ssr:stedsnr" v="66774" />
	</node>
	<node id="-135507" lat="60.3121138896" lon="10.7751722218">
		<tag k="name" v="Geiteberga" />
		<tag k="natural" v="hill" />
		<tag k="place" v="locality" />
		<tag k="ssr:stedsnr" v="658904" />
	</node>
	<node id="-134993" lat="60.1988138845" lon="10.6713055549">
		<tag k="fixme" v="consider natural=peak for the most distinct mountains in the district" />
		<tag k="name" v="Sørlihøgda" />
		<tag k="natural" v="hill" />
		<tag k="place" v="locality" />
		<tag k="ssr:stedsnr" v="66430" />
	</node>
	<node id="-135504" lat="60.1380472185" lon="10.6674277827">
		<tag k="name" v="Skinnskatthøgda" />
		<tag k="natural" v="hill" />
		<tag k="place" v="locality" />
		<tag k="ssr:stedsnr" v="647810" />
	</node>
	<node id="-135502" lat="60.253349996" lon="10.7535527763">
		<tag k="name" v="Svarttjernshaugen" />
		<tag k="natural" v="hill" />
		<tag k="place" v="locality" />
		<tag k="ssr:stedsnr" v="647565" />
	</node>
	<node id="-134989" lat="60.1821527771" lon="10.7631888976">
		<tag k="alt_name" v="Paradispipern" />
		<tag k="fixme" v="consider natural=peak for the most distinct mountains in the district" />
		<tag k="name" v="Paradiskollen" />
		<tag k="natural" v="hill" />
		<tag k="place" v="locality" />
		<tag k="ssr:stedsnr" v="66806" />
	</node>
	<node id="-134988" lat="60.1689472226" lon="10.6507611139">
		<tag k="name" v="Kraftstasjonsdalen" />
		<tag k="natural" v="valley" />
		<tag k="place" v="locality" />
		<tag k="ssr:stedsnr" v="64035" />
	</node>
	<node id="-135497" lat="60.2542611089" lon="10.6746861086">
		<tag k="name" v="Engberget" />
		<tag k="natural" v="hill" />
		<tag k="place" v="locality" />
		<tag k="ssr:stedsnr" v="647340" />
	</node>
	<node id="-134983" lat="60.2171805546" lon="10.6495027753">
		<tag k="alt_name" v="Bråstadalen" />
		<tag k="name" v="Bråstaddalen" />
		<tag k="natural" v="valley" />
		<tag k="place" v="locality" />
		<tag k="ssr:stedsnr" v="41501" />
	</node>
	<node id="-134980" lat="60.2842722185" lon="10.7516277783">
		<tag k="name" v="Kalvedalsvegen" />
		<tag k="natural" v="valley" />
		<tag k="place" v="locality" />
		<tag k="ssr:stedsnr" v="41486" />
	</node>
	<node id="-134979" lat="60.248258337" lon="10.7661138979">
		<tag k="name" v="Svenskesletta" />
		<tag k="natural" v="slope" />
		<tag k="place" v="locality" />
		<tag k="ssr:stedsnr" v="40558" />
	</node>
	<node id="-135489" lat="60.2323055533" lon="10.7490555479">
		<tag k="name" v="Tronsbotnbakken" />
		<tag k="natural" v="slope" />
		<tag k="place" v="locality" />
		<tag k="ssr:stedsnr" v="645465" />
	</node>
	<node id="-134976" lat="60.2543166628" lon="10.6810249978">
		<tag k="name" v="Styggdalen" />
		<tag k="natural" v="valley" />
		<tag k="place" v="locality" />
		<tag k="ssr:stedsnr" v="40314" />
	</node>
	<node id="-135487" lat="60.2072000001" lon="10.6967361167">
		<tag k="name" v="Tangenmoen" />
		<tag k="place" v="locality" />
		<tag k="ssr:stedsnr" v="645378" />
	</node>
	<node id="-134970" lat="60.1950999975" lon="10.7517666731">
		<tag k="name" v="Tømmerbakken" />
		<tag k="natural" v="slope" />
		<tag k="place" v="locality" />
		<tag k="ssr:stedsnr" v="39626" />
	</node>
	<node id="-135481" lat="60.273208332" lon="10.5535861099">
		<tag k="name" v="Nerlia" />
		<tag k="natural" v="slope" />
		<tag k="place" v="locality" />
		<tag k="ssr:stedsnr" v="645071" />
	</node>
	<node id="-134968" lat="60.2664666653" lon="10.7352444391">
		<tag k="name" v="Rinilhaugen" />
		<tag k="natural" v="hill" />
		<tag k="place" v="locality" />
		<tag k="ssr:stedsnr" v="39479" />
	</node>
	<node id="-134966" lat="60.1898861072" lon="10.6320250088">
		<tag k="name" v="Lonndalen" />
		<tag k="natural" v="valley" />
		<tag k="place" v="locality" />
		<tag k="ssr:stedsnr" v="39404" />
	</node>
	<node id="-135476" lat="60.1720583314" lon="10.6572944411">
		<tag k="name" v="Havredalen" />
		<tag k="natural" v="valley" />
		<tag k="place" v="locality" />
		<tag k="ssr:stedsnr" v="645036" />
	</node>
	<node id="-135475" lat="60.1737472203" lon="10.6470583316">
		<tag k="name" v="Almedalen" />
		<tag k="natural" v="valley" />
		<tag k="place" v="locality" />
		<tag k="ssr:stedsnr" v="645030" />
	</node>
	<node id="-135474" lat="60.1873361147" lon="10.6652472168">
		<tag k="name" v="Bardunflågan" />
		<tag k="natural" v="hill" />
		<tag k="place" v="locality" />
		<tag k="ssr:stedsnr" v="645017" />
	</node>
	<node id="-134961" lat="60.2386272208" lon="10.5797387237">
		<tag k="name" v="Myllslia" />
		<tag k="natural" v="slope" />
		<tag k="place" v="locality" />
		<tag k="ssr:stedsnr" v="39128" />
	</node>
	<node id="-134959" lat="60.2748194405" lon="10.5726416577">
		<tag k="name" v="Lykjetoppen" />
		<tag k="natural" v="hill" />
		<tag k="place" v="locality" />
		<tag k="ssr:stedsnr" v="39067" />
	</node>
	<node id="-135566" lat="60.1540638865" lon="10.6733916714">
		<tag k="name" v="Handkleputthøgda" />
		<tag k="natural" v="hill" />
		<tag k="place" v="locality" />
		<tag k="ssr:stedsnr" v="708265" />
	</node>
	<node id="-134954" lat="60.2683888925" lon="10.5397527793">
		<tag k="name" v="Skarpsno" />
		<tag k="natural" v="slope" />
		<tag k="place" v="locality" />
		<tag k="ssr:stedsnr" v="32969" />
	</node>
	<node id="-134950" lat="60.3120527792" lon="10.6117666692">
		<tag k="name" v="Råstadtoppen" />
		<tag k="natural" v="hill" />
		<tag k="place" v="locality" />
		<tag k="ssr:stedsnr" v="29286" />
	</node>
	<node id="-135453" lat="60.1910138861" lon="10.7607972155">
		<tag k="name" v="Puttehøgda" />
		<tag k="natural" v="hill" />
		<tag k="place" v="locality" />
		<tag k="ssr:stedsnr" v="612761" />
	</node>
	<node id="-134935" lat="60.275824999" lon="10.700416668">
		<tag k="fixme" v="consider natural=peak for the most distinct mountains in the district" />
		<tag k="name" v="Dalasjøhøgda" />
		<tag k="natural" v="hill" />
		<tag k="place" v="locality" />
		<tag k="ssr:stedsnr" v="6799" />
	</node>
	<node id="-135444" lat="60.2452055567" lon="10.753441675">
		<tag k="name" v="Skotterudbrenna" />
		<tag k="natural" v="hill" />
		<tag k="place" v="locality" />
		<tag k="ssr:stedsnr" v="611940" />
	</node>
	<node id="-134930" lat="60.3121777803" lon="10.7475638917">
		<tag k="alt_name" v="Kampehaugen" />
		<tag k="fixme" v="consider natural=peak for the most distinct mountains in the district" />
		<tag k="name" v="Kampen" />
		<tag k="natural" v="hill" />
		<tag k="place" v="locality" />
		<tag k="ssr:stedsnr" v="6333" />
	</node>
	<node id="-134928" lat="60.2427916672" lon="10.7694638867">
		<tag k="alt_name" v="Sølvtjernshaugen" />
		<tag k="name" v="Sølvtjernshøgda" />
		<tag k="natural" v="hill" />
		<tag k="place" v="locality" />
		<tag k="ssr:stedsnr" v="5910" />
	</node>
	<node id="-135439" lat="60.1617277798" lon="10.6572249948">
		<tag k="fixme" v="multiple name tags, choose one and add the other to alt_name; consider natural=peak for the most distinct mountains in the district" />
		<tag k="name" v="Daltjuvhøgda;Daltjuvmana" />
		<tag k="natural" v="hill" />
		<tag k="place" v="locality" />
		<tag k="ssr:stedsnr" v="609033" />
	</node>
	<node id="-134926" lat="60.1680666702" lon="10.7581805488">
		<tag k="name" v="Svartberget" />
		<tag k="natural" v="hill" />
		<tag k="place" v="locality" />
		<tag k="ssr:stedsnr" v="5690" />
	</node>
	<node id="-135433" lat="60.249947222" lon="10.7618361117">
		<tag k="name" v="Sølvtjerntoppen" />
		<tag k="natural" v="hill" />
		<tag k="place" v="locality" />
		<tag k="ssr:stedsnr" v="586558" />
	</node>
	<node id="-134918" lat="60.1795250017" lon="10.57739723">
		<tag k="name" v="Rankedalen" />
		<tag k="natural" v="valley" />
		<tag k="place" v="locality" />
		<tag k="ssr:stedsnr" v="5026" />
	</node>
	<node id="-134917" lat="60.176697226" lon="10.7042361051">
		<tag k="alt_name" v="Glitrahøgda" />
		<tag k="fixme" v="consider natural=peak for the most distinct mountains in the district" />
		<tag k="name" v="Glitrehøgda" />
		<tag k="natural" v="hill" />
		<tag k="place" v="locality" />
		<tag k="ssr:stedsnr" v="5013" />
	</node>
	<node id="-134916" lat="60.1588666698" lon="10.7031694442">
		<tag k="fixme" v="consider natural=peak for the most distinct mountains in the district" />
		<tag k="name" v="Fiskeløysåsen" />
		<tag k="natural" v="hill" />
		<tag k="place" v="locality" />
		<tag k="ssr:stedsnr" v="5006" />
	</node>
	<node id="-135423" lat="60.1727249961" lon="10.7546472179">
		<tag k="name" v="Smellbakk" />
		<tag k="natural" v="slope" />
		<tag k="place" v="locality" />
		<tag k="ssr:stedsnr" v="585722" />
	</node>
	<node id="-134910" lat="60.1347222237" lon="10.5716611029">
		<tag k="name" v="Nordmarka" />
		<tag k="natural" v="wood" />
		<tag k="ssr:stedsnr" v="874528" />
	</node>
	<node id="-135421" lat="60.2377416666" lon="10.7581222163">
		<tag k="name" v="Framstadberget" />
		<tag k="natural" v="hill" />
		<tag k="place" v="locality" />
		<tag k="ssr:stedsnr" v="585526" />
	</node>
	<node id="-135419" lat="60.1893777745" lon="10.624977785">
		<tag k="fixme" v="consider natural=peak for the most distinct mountains in the district" />
		<tag k="name" v="Svartvasshøgda" />
		<tag k="natural" v="hill" />
		<tag k="place" v="locality" />
		<tag k="ssr:stedsnr" v="585438" />
	</node>
	<node id="-135417" lat="60.2412083377" lon="10.6213388825">
		<tag k="name" v="Bjønnputthaugen" />
		<tag k="natural" v="hill" />
		<tag k="place" v="locality" />
		<tag k="ssr:stedsnr" v="585250" />
	</node>
	<node id="-135411" lat="60.1783777785" lon="10.6622361083">
		<tag k="name" v="Ørnebolia" />
		<tag k="natural" v="slope" />
		<tag k="place" v="locality" />
		<tag k="ssr:stedsnr" v="585060" />
	</node>
	<node id="-135406" lat="60.2561722186" lon="10.5385916702">
		<tag k="alt_name" v="Ballangrudseterhøgda;Balangrudsæterhøgda;Ballangrudkollen;Ballangrudhøgda" />
		<tag k="fixme" v="consider natural=peak for the most distinct mountains in the district" />
		<tag k="name" v="Ballangrudsæterhøgda" />
		<tag k="natural" v="hill" />
		<tag k="old_name" v="Ballangerudsæterhøiden;Ballangrudhøgden" />
		<tag k="place" v="locality" />
		<tag k="ssr:stedsnr" v="582777" />
	</node>
	<node id="-135397" lat="60.2513249981" lon="10.7360499985">
		<tag k="alt_name" v="Korsvasshøgda, søndre;Søndre Korsvatnhaugen" />
		<tag k="name" v="Søndre Korsvasshøgda" />
		<tag k="natural" v="hill" />
		<tag k="place" v="locality" />
		<tag k="ssr:stedsnr" v="552394" />
	</node>
	<node id="-135376" lat="60.3047916643" lon="10.8085138912">
		<tag k="name" v="Bergseterlia" />
		<tag k="natural" v="slope" />
		<tag k="place" v="locality" />
		<tag k="ssr:stedsnr" v="526485" />
	</node>
	<node id="-134874" lat="60.2670722233" lon="10.6583333375">
		<tag k="name" v="Kariberget" />
		<tag k="natural" v="hill" />
		<tag k="place" v="locality" />
		<tag k="ssr:stedsnr" v="890326" />
	</node>
	<node id="-134871" lat="60.318291664" lon="10.7108361092">
		<tag k="name" v="Skjervemoen" />
		<tag k="place" v="locality" />
		<tag k="ssr:stedsnr" v="889939" />
	</node>
	<node id="-134870" lat="60.2926194426" lon="10.6932888895">
		<tag k="name" v="Jørstadløkka" />
		<tag k="place" v="locality" />
		<tag k="ssr:stedsnr" v="889930" />
	</node>
	<node id="-135374" lat="60.2906000003" lon="10.7402611161">
		<tag k="name" v="Morstadseterlia" />
		<tag k="natural" v="slope" />
		<tag k="place" v="locality" />
		<tag k="ssr:stedsnr" v="526411" />
	</node>
	<node id="-135378" lat="60.2130666687" lon="10.7667888926">
		<tag k="name" v="Botntjernslia" />
		<tag k="natural" v="slope" />
		<tag k="place" v="locality" />
		<tag k="ssr:stedsnr" v="526514" />
	</node>
	<node id="-134864" lat="60.1939027773" lon="10.6564027744">
		<tag k="fixme" v="consider natural=peak for the most distinct mountains in the district" />
		<tag k="name" v="Lortholhøgda" />
		<tag k="natural" v="hill" />
		<tag k="place" v="locality" />
		<tag k="ssr:stedsnr" v="889454" />
	</node>
	<node id="-134863" lat="60.2166333324" lon="10.6648361075">
		<tag k="name" v="Lauvbrenna" />
		<tag k="natural" v="slope" />
		<tag k="place" v="locality" />
		<tag k="ssr:stedsnr" v="889386" />
	</node>
	<node id="-134862" lat="60.229155554" lon="10.6727722293">
		<tag k="name" v="Gjerdeberget" />
		<tag k="natural" v="hill" />
		<tag k="place" v="locality" />
		<tag k="ssr:stedsnr" v="889354" />
	</node>
	<node id="-135307" lat="60.1751527774" lon="10.7297500069">
		<tag k="name" v="Vangenlia" />
		<tag k="natural" v="slope" />
		<tag k="place" v="locality" />
		<tag k="ssr:stedsnr" v="464764" />
	</node>
	<node id="-134856" lat="60.2696638897" lon="10.5939861171">
		<tag k="name" v="Smørhaugen" />
		<tag k="natural" v="hill" />
		<tag k="place" v="locality" />
		<tag k="ssr:stedsnr" v="889126" />
	</node>
	<node id="-135365" lat="60.2665861129" lon="10.6150277726">
		<tag k="name" v="Kjørvensæteråsen" />
		<tag k="natural" v="hill" />
		<tag k="place" v="locality" />
		<tag k="ssr:stedsnr" v="524777" />
	</node>
	<node id="-134851" lat="60.2543916704" lon="10.5982555472">
		<tag k="name" v="Bjønnputthaugen" />
		<tag k="natural" v="hill" />
		<tag k="place" v="locality" />
		<tag k="ssr:stedsnr" v="888074" />
	</node>
	<node id="-134849" lat="60.1448888846" lon="10.659347217">
		<tag k="name" v="Dritrennberget" />
		<tag k="natural" v="hill" />
		<tag k="place" v="locality" />
		<tag k="ssr:stedsnr" v="888025" />
	</node>
	<node id="-135359" lat="60.2394861081" lon="10.7431583405">
		<tag k="name" v="Griniberget" />
		<tag k="natural" v="hill" />
		<tag k="place" v="locality" />
		<tag k="ssr:stedsnr" v="524493" />
	</node>
	<node id="-135357" lat="60.2688444463" lon="10.7447305568">
		<tag k="name" v="Djupdalen" />
		<tag k="natural" v="valley" />
		<tag k="place" v="locality" />
		<tag k="ssr:stedsnr" v="524469" />
	</node>
	<node id="-134843" lat="60.2532999984" lon="10.7415777718">
		<tag k="name" v="Rognbråtefjellet" />
		<tag k="natural" v="hill" />
		<tag k="place" v="locality" />
		<tag k="ssr:stedsnr" v="405591" />
	</node>
	<node id="-135199" lat="60.2400972209" lon="10.7288972255">
		<tag k="name" v="Arndalslia" />
		<tag k="natural" v="slope" />
		<tag k="place" v="locality" />
		<tag k="ssr:stedsnr" v="221526" />
	</node>
	<node id="-134839" lat="60.2714083297" lon="10.6916444412">
		<tag k="fixme" v="consider natural=peak for the most distinct mountains in the district" />
		<tag k="name" v="Tveitmarktoppen" />
		<tag k="natural" v="hill" />
		<tag k="place" v="locality" />
		<tag k="ssr:stedsnr" v="405262" />
	</node>
	<node id="-134832" lat="60.1853555589" lon="10.6236194373">
		<tag k="name" v="Tunelltippen" />
		<tag k="place" v="locality" />
		<tag k="ssr:stedsnr" v="403445" />
	</node>
	<node id="-134831" lat="60.1920361128" lon="10.6577416718">
		<tag k="name" v="Hololia" />
		<tag k="natural" v="slope" />
		<tag k="place" v="locality" />
		<tag k="ssr:stedsnr" v="403439" />
	</node>
	<node id="-135709" lat="60.257616669" lon="10.7033611094">
		<tag k="name" v="Abrahamsdalen" />
		<tag k="natural" v="valley" />
		<tag k="place" v="locality" />
		<tag k="ssr:stedsnr" v="830290" />
	</node>
	<node id="-134827" lat="60.2071027819" lon="10.6676111042">
		<tag k="fixme" v="consider natural=peak for the most distinct mountains in the district" />
		<tag k="name" v="Seterberget" />
		<tag k="natural" v="hill" />
		<tag k="place" v="locality" />
		<tag k="ssr:stedsnr" v="403379" />
	</node>
	<node id="-135329" lat="60.2629000038" lon="10.6822000006">
		<tag k="fixme" v="consider natural=peak for the most distinct mountains in the district" />
		<tag k="name" v="Tveitmarkhøgda" />
		<tag k="natural" v="hill" />
		<tag k="place" v="locality" />
		<tag k="ssr:stedsnr" v="491791" />
	</node>
	<node id="-134812" lat="60.3206083357" lon="10.46490278">
		<tag k="name" v="Styggdalen" />
		<tag k="natural" v="valley" />
		<tag k="place" v="locality" />
		<tag k="ssr:stedsnr" v="393132" />
	</node>
	<node id="-135321" lat="60.1594055594" lon="10.6149944393">
		<tag k="fixme" v="consider natural=peak for the most distinct mountains in the district" />
		<tag k="name" v="Branntjernhøgda" />
		<tag k="natural" v="hill" />
		<tag k="place" v="locality" />
		<tag k="ssr:stedsnr" v="490021" />
	</node>
	<node id="-135310" lat="60.2528777755" lon="10.7112388976">
		<tag k="name" v="Tørrgranhaugen" />
		<tag k="natural" v="hill" />
		<tag k="place" v="locality" />
		<tag k="ssr:stedsnr" v="465306" />
	</node>
	<node id="-135277" lat="60.2541500012" lon="10.6986388812">
		<tag k="fixme" v="consider natural=peak for the most distinct mountains in the district" />
		<tag k="name" v="Nysæterbrenna" />
		<tag k="natural" v="hill" />
		<tag k="place" v="locality" />
		<tag k="ssr:stedsnr" v="431771" />
	</node>
	<node id="-135308" lat="60.2706694442" lon="10.6159194531">
		<tag k="name" v="Jørnsbrannshaugen" />
		<tag k="natural" v="hill" />
		<tag k="place" v="locality" />
		<tag k="ssr:stedsnr" v="464830" />
	</node>
	<node id="-134795" lat="60.2820750025" lon="10.7355500012">
		<tag k="name" v="Kalvedalen" />
		<tag k="natural" v="valley" />
		<tag k="place" v="locality" />
		<tag k="ssr:stedsnr" v="370672" />
	</node>
	<node id="-134794" lat="60.2676777742" lon="10.7802999962">
		<tag k="alt_name" v="Snellingshaugen" />
		<tag k="name" v="Snellingshøgda" />
		<tag k="natural" v="hill" />
		<tag k="place" v="locality" />
		<tag k="ssr:stedsnr" v="370418" />
	</node>
	<node id="-135304" lat="60.2694999962" lon="10.7350277738">
		<tag k="name" v="Styggdalen" />
		<tag k="natural" v="valley" />
		<tag k="place" v="locality" />
		<tag k="ssr:stedsnr" v="464541" />
	</node>
	<node id="-135276" lat="60.2783000021" lon="10.7595277698">
		<tag k="name" v="Kalvehaugen" />
		<tag k="natural" v="hill" />
		<tag k="place" v="locality" />
		<tag k="ssr:stedsnr" v="431371" />
	</node>
	<node id="-135361" lat="60.1896583339" lon="10.7682888809">
		<tag k="name" v="Paradislia" />
		<tag k="natural" v="slope" />
		<tag k="place" v="locality" />
		<tag k="ssr:stedsnr" v="524662" />
	</node>
	<node id="-134788" lat="60.221658335" lon="10.5934305503">
		<tag k="alt_name" v="Venhaugene" />
		<tag k="fixme" v="consider natural=peak for the most distinct mountains in the district" />
		<tag k="name" v="Venehaugane" />
		<tag k="natural" v="hill" />
		<tag k="place" v="locality" />
		<tag k="ssr:stedsnr" v="369431" />
	</node>
	<node id="-134785" lat="60.2097277798" lon="10.6270694531">
		<tag k="alt_name" v="Fjellsjøberget" />
		<tag k="fixme" v="consider natural=peak for the most distinct mountains in the district" />
		<tag k="name" v="Fjellsjøhøgda" />
		<tag k="natural" v="hill" />
		<tag k="place" v="locality" />
		<tag k="ssr:stedsnr" v="369397" />
	</node>
	<node id="-134784" lat="60.2462277754" lon="10.6174777768">
		<tag k="alt_name" v="Knippahaugen" />
		<tag k="fixme" v="consider natural=peak for the most distinct mountains in the district" />
		<tag k="name" v="Knippehøgda" />
		<tag k="natural" v="hill" />
		<tag k="place" v="locality" />
		<tag k="ssr:stedsnr" v="369352" />
	</node>
	<node id="-134783" lat="60.1929472262" lon="10.6349138825">
		<tag k="alt_name" v="Lonndalshøgda" />
		<tag k="fixme" v="consider natural=peak for the most distinct mountains in the district" />
		<tag k="name" v="Løndalshøgda" />
		<tag k="natural" v="hill" />
		<tag k="place" v="locality" />
		<tag k="ssr:stedsnr" v="369035" />
	</node>
	<node id="-135291" lat="60.3133694458" lon="10.6189833272">
		<tag k="name" v="Blisteintoppen" />
		<tag k="natural" v="hill" />
		<tag k="place" v="locality" />
		<tag k="ssr:stedsnr" v="454276" />
	</node>
	<node id="-135801" lat="60.1768500001" lon="10.7627777705">
		<tag k="name" v="Kroktjernsdalen" />
		<tag k="natural" v="valley" />
		<tag k="place" v="locality" />
		<tag k="ssr:stedsnr" v="949719" />
	</node>
	<node id="-135800" lat="60.1815944482" lon="10.7398777813">
		<tag k="name" v="Monsrudlia" />
		<tag k="natural" v="slope" />
		<tag k="place" v="locality" />
		<tag k="ssr:stedsnr" v="949663" />
	</node>
	<node id="-134774" lat="60.2479611111" lon="10.7316805552">
		<tag k="name" v="Ranglet" />
		<tag k="place" v="locality" />
		<tag k="ssr:stedsnr" v="344572" />
	</node>
	<node id="-135797" lat="60.2440861118" lon="10.6067249958">
		<tag k="name" v="Damhaugen" />
		<tag k="natural" v="hill" />
		<tag k="place" v="locality" />
		<tag k="ssr:stedsnr" v="949269" />
	</node>
	<node id="-134772" lat="60.2802138924" lon="10.7503972159">
		<tag k="name" v="Simahaugdalen" />
		<tag k="natural" v="valley" />
		<tag k="place" v="locality" />
		<tag k="ssr:stedsnr" v="344499" />
	</node>
	<node id="-134769" lat="60.2514222254" lon="10.6950777747">
		<tag k="fixme" v="consider natural=peak for the most distinct mountains in the district" />
		<tag k="name" v="Ellingsrudberget" />
		<tag k="natural" v="hill" />
		<tag k="place" v="locality" />
		<tag k="ssr:stedsnr" v="344315" />
	</node>
	<node id="-135791" lat="60.3058666627" lon="10.5659333305">
		<tag k="name" v="Lunnerkollen" />
		<tag k="natural" v="hill" />
		<tag k="place" v="locality" />
		<tag k="ssr:stedsnr" v="949081" />
	</node>
	<node id="-134766" lat="60.29175833" lon="10.6932361166">
		<tag k="name" v="Mørkomdalen" />
		<tag k="natural" v="valley" />
		<tag k="place" v="locality" />
		<tag k="ssr:stedsnr" v="342901" />
	</node>
	<node id="-135789" lat="60.143147219" lon="10.6574777765">
		<tag k="name" v="Dritrenna" />
		<tag k="natural" v="valley" />
		<tag k="place" v="locality" />
		<tag k="ssr:stedsnr" v="949033" />
	</node>
	<node id="-135788" lat="60.1856555519" lon="10.679938883">
		<tag k="name" v="Sponbakken" />
		<tag k="natural" v="slope" />
		<tag k="place" v="locality" />
		<tag k="ssr:stedsnr" v="949018" />
	</node>
	<node id="-135442" lat="60.2387888907" lon="10.67635555">
		<tag k="fixme" v="consider natural=peak for the most distinct mountains in the district" />
		<tag k="name" v="Svaraberget" />
		<tag k="natural" v="hill" />
		<tag k="place" v="locality" />
		<tag k="ssr:stedsnr" v="611417" />
	</node>
	<node id="-134762" lat="60.2779527795" lon="10.7466166605">
		<tag k="name" v="Simahaugen" />
		<tag k="natural" v="hill" />
		<tag k="place" v="locality" />
		<tag k="ssr:stedsnr" v="342466" />
	</node>
	<node id="-135784" lat="60.3173527781" lon="10.6196027795">
		<tag k="name" v="Ulsrudberget" />
		<tag k="natural" v="ridge" />
		<tag k="place" v="locality" />
		<tag k="ssr:stedsnr" v="940267" />
	</node>
	<node id="-135271" lat="60.2188277807" lon="10.5931944446">
		<tag k="alt_name" v="Syljuseterhaugen" />
		<tag k="fixme" v="consider natural=peak for the most distinct mountains in the district" />
		<tag k="name" v="Syljusæterkollen" />
		<tag k="natural" v="hill" />
		<tag k="place" v="locality" />
		<tag k="ssr:stedsnr" v="430464" />
	</node>
	<node id="-134756" lat="60.2299361154" lon="10.550958337">
		<tag k="name" v="Hosotjernsdalen" />
		<tag k="natural" v="valley" />
		<tag k="place" v="locality" />
		<tag k="ssr:stedsnr" v="342157" />
	</node>
	<node id="-135798" lat="60.2180083301" lon="10.7107277752">
		<tag k="name" v="Haneknemoen" />
		<tag k="place" v="locality" />
		<tag k="ssr:stedsnr" v="949357" />
	</node>
	<node id="-135265" lat="60.2285055596" lon="10.6029555491">
		<tag k="alt_name" v="Bislingsflaka" />
		<tag k="fixme" v="consider natural=peak for the most distinct mountains in the district" />
		<tag k="name" v="Bislingflaka" />
		<tag k="natural" v="hill" />
		<tag k="place" v="locality" />
		<tag k="ssr:stedsnr" v="430379" />
	</node>
	<node id="-135259" lat="60.1657888927" lon="10.6521916751">
		<tag k="name" v="Daltjuvtomta" />
		<tag k="place" v="locality" />
		<tag k="ssr:stedsnr" v="428039" />
	</node>
	<node id="-135258" lat="60.1662527768" lon="10.6315861197">
		<tag k="name" v="Åstjernslia" />
		<tag k="natural" v="slope" />
		<tag k="place" v="locality" />
		<tag k="ssr:stedsnr" v="428035" />
	</node>
	<node id="-134742" lat="60.2124694467" lon="10.5737583394">
		<tag k="name" v="Belgedalen" />
		<tag k="natural" v="valley" />
		<tag k="place" v="locality" />
		<tag k="ssr:stedsnr" v="335244" />
	</node>
	<node id="-134741" lat="60.212780557" lon="10.5793833255">
		<tag k="name" v="Styggdalshaugen" />
		<tag k="natural" v="hill" />
		<tag k="place" v="locality" />
		<tag k="ssr:stedsnr" v="335242" />
	</node>
	<node id="-135252" lat="60.2851000017" lon="10.7060333271">
		<tag k="fixme" v="consider natural=peak for the most distinct mountains in the district" />
		<tag k="name" v="Sæterberget" />
		<tag k="natural" v="hill" />
		<tag k="place" v="locality" />
		<tag k="ssr:stedsnr" v="249807" />
	</node>
	<node id="-135251" lat="60.2681999958" lon="10.6534138833">
		<tag k="fixme" v="consider natural=peak for the most distinct mountains in the district" />
		<tag k="name" v="Olsknappen" />
		<tag k="natural" v="hill" />
		<tag k="place" v="locality" />
		<tag k="ssr:stedsnr" v="249790" />
	</node>
	<node id="-135246" lat="60.3069361074" lon="10.822866661">
		<tag k="name" v="Glåmtjernshaugen" />
		<tag k="natural" v="hill" />
		<tag k="place" v="locality" />
		<tag k="ssr:stedsnr" v="249304" />
	</node>
	<node id="-135239" lat="60.2130583344" lon="10.7537305488">
		<tag k="alt_name" v="Gunnershøgda" />
		<tag k="name" v="Gunnarshaugen" />
		<tag k="natural" v="hill" />
		<tag k="place" v="locality" />
		<tag k="ssr:stedsnr" v="248865" />
	</node>
	<node id="-134724" lat="60.2668111122" lon="10.5446055634">
		<tag k="fixme" v="consider natural=peak for the most distinct mountains in the district" />
		<tag k="name" v="Holtåsen" />
		<tag k="natural" v="hill" />
		<tag k="place" v="locality" />
		<tag k="ssr:stedsnr" v="309801" />
	</node>
	<node id="-135235" lat="60.2282527767" lon="10.7162805502">
		<tag k="fixme" v="consider natural=peak for the most distinct mountains in the district" />
		<tag k="name" v="Geithaugen" />
		<tag k="natural" v="hill" />
		<tag k="place" v="locality" />
		<tag k="ssr:stedsnr" v="248474" />
	</node>
	<node id="-134721" lat="60.2573916639" lon="10.6204999951">
		<tag k="alt_name" v="Ristirevberge" />
		<tag k="fixme" v="consider natural=peak for the most distinct mountains in the district" />
		<tag k="name" v="Ristirauvfjellet" />
		<tag k="natural" v="hill" />
		<tag k="place" v="locality" />
		<tag k="ssr:stedsnr" v="309752" />
	</node>
	<node id="-135740" lat="60.2536750029" lon="10.8005833278">
		<tag k="alt_name" v="Storvatnhaugen" />
		<tag k="name" v="Storvasshaugen" />
		<tag k="natural" v="hill" />
		<tag k="place" v="locality" />
		<tag k="ssr:stedsnr" v="856397" />
	</node>
	<node id="-135737" lat="60.248191667" lon="10.7419361122">
		<tag k="fixme" v="multiple name tags, choose one and add the other to alt_name" />
		<tag k="name" v="Korsvasshøgda;Tullebrennhaugen" />
		<tag k="natural" v="hill" />
		<tag k="place" v="locality" />
		<tag k="ssr:stedsnr" v="855928" />
	</node>
	<node id="-135224" lat="60.1711000018" lon="10.5814027799">
		<tag k="fixme" v="consider natural=peak for the most distinct mountains in the district" />
		<tag k="name" v="Katnoshøgda" />
		<tag k="natural" v="hill" />
		<tag k="place" v="locality" />
		<tag k="ssr:stedsnr" v="248024" />
	</node>
	<node id="-135733" lat="60.1746999979" lon="10.7633111088">
		<tag k="name" v="Kroktjernsberget" />
		<tag k="natural" v="hill" />
		<tag k="place" v="locality" />
		<tag k="ssr:stedsnr" v="855718" />
	</node>
	<node id="-134704" lat="60.2605388851" lon="10.7591749983">
		<tag k="name" v="Finnbråten" />
		<tag k="natural" v="hill" />
		<tag k="place" v="locality" />
		<tag k="ssr:stedsnr" v="283493" />
	</node>
	<node id="-135726" lat="60.2323166653" lon="10.5573611137">
		<tag k="name" v="Massebrenna" />
		<tag k="place" v="locality" />
		<tag k="ssr:stedsnr" v="855393" />
	</node>
	<node id="-135212" lat="60.2838416655" lon="10.7418861074">
		<tag k="name" v="Skotterudbakken" />
		<tag k="natural" v="slope" />
		<tag k="place" v="locality" />
		<tag k="ssr:stedsnr" v="223499" />
	</node>
	<node id="-135723" lat="60.1529722213" lon="10.6386944506">
		<tag k="name" v="Guribrenna" />
		<tag k="natural" v="slope" />
		<tag k="place" v="locality" />
		<tag k="ssr:stedsnr" v="855117" />
	</node>
	<node id="-134696" lat="60.176408334" lon="10.7238944526">
		<tag k="name" v="Strandrøe" />
		<tag k="natural" v="slope" />
		<tag k="place" v="locality" />
		<tag k="ssr:stedsnr" v="282730" />
	</node>
	<node id="-135438" lat="60.3060638884" lon="10.7793777785">
		<tag k="name" v="Geiteberglia" />
		<tag k="natural" v="slope" />
		<tag k="place" v="locality" />
		<tag k="ssr:stedsnr" v="597937" />
	</node>
	<node id="-134692" lat="60.1981249997" lon="10.6313166579">
		<tag k="name" v="Styggdalen" />
		<tag k="natural" v="valley" />
		<tag k="place" v="locality" />
		<tag k="ssr:stedsnr" v="282466" />
	</node>
	<node id="-135202" lat="60.2902583309" lon="10.6969972142">
		<tag k="name" v="Manbakken" />
		<tag k="natural" v="slope" />
		<tag k="place" v="locality" />
		<tag k="ssr:stedsnr" v="221909" />
	</node>
	<node id="-135201" lat="60.2890388899" lon="10.7021861099">
		<tag k="name" v="Mana" />
		<tag k="natural" v="hill" />
		<tag k="place" v="locality" />
		<tag k="ssr:stedsnr" v="221907" />
	</node>
	<node id="-135344" lat="60.3118305537" lon="10.5274805572">
		<tag k="name" v="Finnlaushøgda" />
		<tag k="natural" v="hill" />
		<tag k="place" v="locality" />
		<tag k="ssr:stedsnr" v="515808" />
	</node>
	<node id="-134686" lat="60.2300805568" lon="10.6236666693">
		<tag k="name" v="Flisbanen" />
		<tag k="place" v="locality" />
		<tag k="ssr:stedsnr" v="282251" />
	</node>
	<node id="-134685" lat="60.2746333365" lon="10.7081416669">
		<tag k="name" v="Paradishaugen" />
		<tag k="natural" v="hill" />
		<tag k="place" v="locality" />
		<tag k="ssr:stedsnr" v="282218" />
	</node>
	<node id="-134681" lat="60.1605638926" lon="10.6645027787">
		<tag k="name" v="Nyseterlia" />
		<tag k="natural" v="slope" />
		<tag k="place" v="locality" />
		<tag k="ssr:stedsnr" v="282049" />
	</node>
	<node id="-135704" lat="60.273986113" lon="10.6343777856">
		<tag k="name" v="Monseberget" />
		<tag k="natural" v="hill" />
		<tag k="place" v="locality" />
		<tag k="ssr:stedsnr" v="828761" />
	</node>
	<node id="-135699" lat="60.2030166646" lon="10.6857055511">
		<tag k="name" v="Stokkdalen" />
		<tag k="natural" v="valley" />
		<tag k="place" v="locality" />
		<tag k="ssr:stedsnr" v="828393" />
	</node>
	<node id="-135186" lat="60.1739694475" lon="10.5962888954">
		<tag k="fixme" v="consider natural=peak for the most distinct mountains in the district" />
		<tag k="name" v="Ringåsen" />
		<tag k="natural" v="hill" />
		<tag k="place" v="locality" />
		<tag k="ssr:stedsnr" v="214894" />
	</node>
	<node id="-135184" lat="60.2241388911" lon="10.5717611103">
		<tag k="alt_name" v="Åssjøbrenna" />
		<tag k="fixme" v="consider natural=peak for the most distinct mountains in the district" />
		<tag k="name" v="Ålsjøbrenna" />
		<tag k="natural" v="hill" />
		<tag k="old_name" v="Aalsjö Brendn" />
		<tag k="place" v="locality" />
		<tag k="ssr:stedsnr" v="214168" />
	</node>
	<node id="-134687" lat="60.2320916627" lon="10.6384055514">
		<tag k="name" v="Nilsebrenna" />
		<tag k="natural" v="hill" />
		<tag k="place" v="locality" />
		<tag k="ssr:stedsnr" v="282254" />
	</node>
	<node id="-135812" lat="60.2477833354" lon="10.7887194504">
		<tag k="name" v="Bukkelia" />
		<tag k="natural" v="slope" />
		<tag k="place" v="locality" />
		<tag k="ssr:stedsnr" v="951596" />
	</node>
</osm>
