<?xml version="1.0" encoding="UTF-8"?>
<osm generator="osmapis" version="0.6">
	<node id="-134779" lat="60.269422221" lon="10.6657805562">
		<tag k="bridge" v="yes" />
		<tag k="layer" v="1" />
		<tag k="name" v="Kleven" />
		<tag k="ssr:stedsnr" v="349101" />
	</node>
	<node id="-134778" lat="60.3238694474" lon="10.7029222202">
		<tag k="bridge" v="yes" />
		<tag k="layer" v="1" />
		<tag k="name" v="Skjerva" />
		<tag k="ssr:stedsnr" v="349097" />
	</node>
	<node id="-134777" lat="60.2749333322" lon="10.7550111178">
		<tag k="bridge" v="yes" />
		<tag k="layer" v="1" />
		<tag k="name" v="Brovollvegen bru" />
		<tag k="ssr:stedsnr" v="349082" />
	</node>
	<node id="-134776" lat="60.2672555545" lon="10.6730194358">
		<tag k="layer" v="-1" />
		<tag k="name" v="Lunnertunnelen" />
		<tag k="ssr:stedsnr" v="347312" />
		<tag k="tunnel" v="yes" />
	</node>
	<node id="-135316" lat="60.2899305542" lon="10.5543249988">
		<tag k="bridge" v="yes" />
		<tag k="layer" v="1" />
		<tag k="name" v="Engen undergang" />
		<tag k="ssr:stedsnr" v="471058" />
	</node>
	<node id="-135486" lat="60.2241805537" lon="10.6437833274">
		<tag k="bridge" v="yes" />
		<tag k="layer" v="1" />
		<tag k="name" v="Storhogstbrua" />
		<tag k="ssr:stedsnr" v="645315" />
	</node>
	<node id="-135025" lat="60.3050061603" lon="10.5845115926">
		<tag k="name" v="Lunner stasjon" />
		<tag k="railway" v="station" />
		<tag k="ssr:stedsnr" v="67895" />
		<tag k="train" v="yes" />
	</node>
	<node id="-135506" lat="60.1678916694" lon="10.7102055595">
		<tag k="bridge" v="yes" />
		<tag k="layer" v="1" />
		<tag k="name" v="Stryken" />
		<tag k="ssr:stedsnr" v="653075" />
	</node>
	<node id="-135143" lat="60.2105388887" lon="10.7087472204">
		<tag k="bridge" v="yes" />
		<tag k="layer" v="1" />
		<tag k="name" v="Harestua" />
		<tag k="ssr:stedsnr" v="168076" />
	</node>
	<node id="-135142" lat="60.15954722" lon="10.7187444429">
		<tag k="bridge" v="yes" />
		<tag k="layer" v="1" />
		<tag k="name" v="Jensrudvegen" />
		<tag k="ssr:stedsnr" v="168075" />
	</node>
	<node id="-134883" lat="60.2907305566" lon="10.6156416673">
		<tag k="bridge" v="yes" />
		<tag k="layer" v="1" />
		<tag k="name" v="Kildal" />
		<tag k="ssr:stedsnr" v="896076" />
	</node>
	<node id="-134882" lat="60.2698277782" lon="10.6650027793">
		<tag k="layer" v="-1" />
		<tag k="name" v="Røstetunnelen" />
		<tag k="ssr:stedsnr" v="894765" />
		<tag k="tunnel" v="yes" />
	</node>
	<node id="-135517" lat="60.1655978655" lon="10.7200744894">
		<tag k="name" v="Stryken stasjon" />
		<tag k="railway" v="station" />
		<tag k="ssr:stedsnr" v="673713" />
		<tag k="train" v="yes" />
	</node>
	<node id="-135643" lat="60.1523999957" lon="10.7411222299">
		<tag k="bridge" v="yes" />
		<tag k="layer" v="1" />
		<tag k="name" v="Svartberget" />
		<tag k="ssr:stedsnr" v="774091" />
	</node>
	<node id="-135642" lat="60.2885888925" lon="10.5495083248">
		<tag k="bridge" v="yes" />
		<tag k="layer" v="1" />
		<tag k="name" v="Skøyen" />
		<tag k="ssr:stedsnr" v="774088" />
	</node>
	<node id="-135641" lat="60.2506249963" lon="10.6778055607">
		<tag k="bridge" v="yes" />
		<tag k="layer" v="1" />
		<tag k="name" v="Bakken" />
		<tag k="ssr:stedsnr" v="774068" />
	</node>
	<node id="-134994" lat="60.2059927393" lon="10.7224714795">
		<tag k="name" v="Harestua holdeplass" />
		<tag k="railway" v="halt" />
		<tag k="ssr:stedsnr" v="66757" />
		<tag k="train" v="yes" />
	</node>
	<node id="-135505" lat="60.2910138872" lon="10.5579805528">
		<tag k="bridge" v="yes" />
		<tag k="layer" v="1" />
		<tag k="name" v="Engen" />
		<tag k="ssr:stedsnr" v="653054" />
	</node>
	<node id="-134987" lat="60.192474996" lon="10.7032361122">
		<tag k="bridge" v="yes" />
		<tag k="layer" v="1" />
		<tag k="name" v="Kartisvika" />
		<tag k="ssr:stedsnr" v="46081" />
	</node>
	<node id="-134986" lat="60.2228166629" lon="10.700597231">
		<tag k="bridge" v="yes" />
		<tag k="layer" v="1" />
		<tag k="name" v="Enga" />
		<tag k="ssr:stedsnr" v="46058" />
	</node>
	<node id="-134985" lat="60.2521111143" lon="10.6765055644">
		<tag k="layer" v="-1" />
		<tag k="name" v="Gruatunnelen" />
		<tag k="ssr:stedsnr" v="44440" />
		<tag k="tunnel" v="yes" />
	</node>
	<node id="-135627" lat="60.2641333359" lon="10.7709777755">
		<tag k="fixme" v="consider highway=path" />
		<tag k="highway" v="track" />
		<tag k="name" v="Snellingsvegen" />
		<tag k="ssr:stedsnr" v="767530" />
	</node>
	<node id="-134846" lat="60.2240500042" lon="10.6448944402">
		<tag k="amenity" v="parking" />
		<tag k="name" v="Svartbekken" />
		<tag k="ssr:stedsnr" v="406678" />
	</node>
	<node id="-135356" lat="60.2721805565" lon="10.7594416649">
		<tag k="bridge" v="yes" />
		<tag k="layer" v="1" />
		<tag k="name" v="Storebro" />
		<tag k="ssr:stedsnr" v="524464" />
	</node>
	<node id="-135690" lat="60.1765111091" lon="10.6424027758">
		<tag k="junction" v="yes" />
		<tag k="name" v="Almedalskrysset" />
		<tag k="place" v="locality" />
		<tag k="ssr:stedsnr" v="828031" />
	</node>
	<node id="-134842" lat="60.2685027817" lon="10.7801972209">
		<tag k="man_made" v="cairn" />
		<tag k="name" v="Varden" />
		<tag k="place" v="locality" />
		<tag k="ssr:stedsnr" v="405503" />
	</node>
	<node id="-134708" lat="60.2939472232" lon="10.6112250062">
		<tag k="bridge" v="yes" />
		<tag k="layer" v="1" />
		<tag k="name" v="Sand søndre" />
		<tag k="ssr:stedsnr" v="289077" />
	</node>
	<node id="-135219" lat="60.1872361147" lon="10.7025305636">
		<tag k="bridge" v="yes" />
		<tag k="layer" v="1" />
		<tag k="name" v="Skillingen" />
		<tag k="ssr:stedsnr" v="228087" />
	</node>
	<node id="-135218" lat="60.2748444477" lon="10.7438527805">
		<tag k="bridge" v="yes" />
		<tag k="layer" v="1" />
		<tag k="name" v="Brakalltjernbekken kulvert" />
		<tag k="ssr:stedsnr" v="228071" />
	</node>
	<node id="-135217" lat="60.2872333302" lon="10.6270888973">
		<tag k="bridge" v="yes" />
		<tag k="layer" v="1" />
		<tag k="name" v="Halvorsbråte" />
		<tag k="ssr:stedsnr" v="228062" />
	</node>
	<node id="-135216" lat="60.2947611078" lon="10.6116416578">
		<tag k="bridge" v="yes" />
		<tag k="layer" v="1" />
		<tag k="name" v="Hyttabekken" />
		<tag k="ssr:stedsnr" v="228063" />
	</node>
	<node id="-135215" lat="60.2877055528" lon="10.6281305555">
		<tag k="bridge" v="yes" />
		<tag k="layer" v="1" />
		<tag k="name" v="Halvorsbråte" />
		<tag k="ssr:stedsnr" v="228061" />
	</node>
	<node id="-135717" lat="60.2966166698" lon="10.5892333258">
		<tag k="bridge" v="yes" />
		<tag k="layer" v="1" />
		<tag k="name" v="Ramsrud" />
		<tag k="ssr:stedsnr" v="835083" />
	</node>
	<node id="-135716" lat="60.2111583356" lon="10.6973916632">
		<tag k="bridge" v="yes" />
		<tag k="layer" v="1" />
		<tag k="name" v="Vestbygdvegen" />
		<tag k="ssr:stedsnr" v="835071" />
	</node>
	<node id="-135071" lat="60.302488889" lon="10.4631472164">
		<tag k="bridge" v="yes" />
		<tag k="layer" v="1" />
		<tag k="name" v="Sverigebekk" />
		<tag k="ssr:stedsnr" v="107066" />
	</node>
	<node id="-135580" lat="60.1529361147" lon="10.7326472145">
		<tag k="bridge" v="yes" />
		<tag k="layer" v="1" />
		<tag k="name" v="Strekan" />
		<tag k="ssr:stedsnr" v="714081" />
	</node>
	<node id="-135579" lat="60.2082861068" lon="10.6980944441">
		<tag k="bridge" v="yes" />
		<tag k="layer" v="1" />
		<tag k="name" v="Tangenmoen" />
		<tag k="ssr:stedsnr" v="714072" />
	</node>
	<node id="-135578" lat="60.295130557" lon="10.5934749968">
		<tag k="bridge" v="yes" />
		<tag k="layer" v="1" />
		<tag k="name" v="Berge" />
		<tag k="ssr:stedsnr" v="714057" />
	</node>
	<node id="-135319" lat="60.3097027744" lon="10.5950083276">
		<tag k="bridge" v="yes" />
		<tag k="layer" v="1" />
		<tag k="name" v="Volla" />
		<tag k="ssr:stedsnr" v="471078" />
	</node>
	<node id="-135318" lat="60.2105277803" lon="10.7058944374">
		<tag k="bridge" v="yes" />
		<tag k="layer" v="1" />
		<tag k="name" v="Sveselva" />
		<tag k="ssr:stedsnr" v="471077" />
	</node>
	<node id="-135317" lat="60.2756333378" lon="10.7958555497">
		<tag k="bridge" v="yes" />
		<tag k="layer" v="1" />
		<tag k="name" v="Granlia bru" />
		<tag k="ssr:stedsnr" v="471059" />
	</node>
	<node id="-134932" lat="60.2589172216" lon="10.6648324927">
		<tag k="name" v="Grua stasjon" />
		<tag k="railway" v="station" />
		<tag k="ssr:stedsnr" v="6762" />
		<tag k="train" v="yes" />
	</node>
	<node id="-134799" lat="60.2836520895" lon="10.6207038871">
		<tag k="name" v="Roa stasjon" />
		<tag k="railway" v="station" />
		<tag k="ssr:stedsnr" v="370832" />
		<tag k="train" v="yes" />
	</node>
	<node id="-135437" lat="60.2043027797" lon="10.6992305483">
		<tag k="bridge" v="yes" />
		<tag k="layer" v="1" />
		<tag k="name" v="Løken" />
		<tag k="ssr:stedsnr" v="592083" />
	</node>
	<node id="-135436" lat="60.2966277779" lon="10.6080027754">
		<tag k="bridge" v="yes" />
		<tag k="layer" v="1" />
		<tag k="name" v="Løken" />
		<tag k="ssr:stedsnr" v="592081" />
	</node>
	<node id="-135435" lat="60.2765750003" lon="10.8165166645">
		<tag k="bridge" v="yes" />
		<tag k="layer" v="1" />
		<tag k="name" v="Leirsjøbrua" />
		<tag k="ssr:stedsnr" v="592079" />
	</node>
	<node id="-135434" lat="60.2083749995" lon="10.711361108">
		<tag k="bridge" v="yes" />
		<tag k="layer" v="1" />
		<tag k="name" v="Harestua" />
		<tag k="ssr:stedsnr" v="592059" />
	</node>
	<node id="-135431" lat="60.2056499958" lon="10.721966667">
		<tag k="bridge" v="yes" />
		<tag k="layer" v="1" />
		<tag k="name" v="Piperundergangen" />
		<tag k="ssr:stedsnr" v="586513" />
	</node>
	<node id="-135562" lat="60.275358329" lon="10.7543500035">
		<tag k="bridge" v="yes" />
		<tag k="layer" v="1" />
		<tag k="name" v="Lillebro" />
		<tag k="ssr:stedsnr" v="706488" />
	</node>
</osm>
