<?xml version="1.0" encoding="UTF-8"?>
<osm generator="osmapis" version="0.6">
	<node id="-134840" lat="60.1432500044" lon="10.5985333402">
		<tag k="name" v="Storløken" />
		<tag k="natural" v="water" />
		<tag k="ssr:stedsnr" v="309104" />
	</node>
	<node id="-135164" lat="60.1669222201" lon="10.7093416734">
		<tag k="name" v="Myseputten" />
		<tag k="natural" v="water" />
		<tag k="ssr:stedsnr" v="100017" />
	</node>
	<node id="-135338" lat="60.2504666713" lon="10.6036694382">
		<tag k="name" v="Svesvika" />
		<tag k="natural" v="bay" />
		<tag k="ssr:stedsnr" v="223305" />
	</node>
	<node id="-135161" lat="60.2830638895" lon="10.5222638917">
		<tag k="name" v="Hallumsbekken" />
		<tag k="ssr:stedsnr" v="93945" />
		<tag k="waterway" v="stream" />
	</node>
	<node id="-135160" lat="60.1879177086" lon="10.6001005984">
		<tag k="name" v="Svartvika" />
		<tag k="natural" v="bay" />
		<tag k="ssr:stedsnr" v="93424" />
	</node>
	<node id="-135334" lat="60.3214222254" lon="10.6722166745">
		<tag k="name" v="Lisputten" />
		<tag k="natural" v="water" />
		<tag k="ssr:stedsnr" v="221923" />
	</node>
	<node id="-135154" lat="60.3009166678" lon="10.4647666641">
		<tag k="name" v="Sverigetjernet" />
		<tag k="natural" v="water" />
		<tag k="ssr:stedsnr" v="67888" />
	</node>
	<node id="-135848" lat="60.1674055547" lon="10.6984388921">
		<tag k="name" v="Musevika" />
		<tag k="natural" v="bay" />
		<tag k="ssr:stedsnr" v="855009" />
	</node>
	<node id="-135662" lat="60.2976833316" lon="10.5385777744">
		<tag k="alt_name" v="Karusputten" />
		<tag k="name" v="Karussputten" />
		<tag k="natural" v="water" />
		<tag k="ssr:stedsnr" v="674845" />
	</node>
	<node id="-135148" lat="60.2914361147" lon="10.5659500022">
		<tag k="alt_name" v="Kalvsjø" />
		<tag k="name" v="Kalvsjøtjernet" />
		<tag k="natural" v="water" />
		<tag k="ssr:stedsnr" v="67857" />
	</node>
	<node id="-135659" lat="60.2502972247" lon="10.7671111132">
		<tag k="name" v="Sølvtjernet" />
		<tag k="natural" v="water" />
		<tag k="ssr:stedsnr" v="673935" />
	</node>
	<node id="-135676" lat="60.1780694412" lon="10.7175694464">
		<tag k="name" v="Langøya" />
		<tag k="place" v="islet" />
		<tag k="ssr:stedsnr" v="706014" />
	</node>
	<node id="-135141" lat="60.2771138912" lon="10.7052750036">
		<tag k="name" v="Dalasjøen" />
		<tag k="natural" v="water" />
		<tag k="ssr:stedsnr" v="67790" />
	</node>
	<node id="-135652" lat="60.2615999955" lon="10.6333611136">
		<tag k="alt_name" v="Nordre Småtjernet" />
		<tag k="name" v="Småtjernet" />
		<tag k="natural" v="water" />
		<tag k="ssr:stedsnr" v="673802" />
	</node>
	<node id="-135879" lat="60.2993578716" lon="10.6676240367">
		<tag k="name" v="Nordtjernet" />
		<tag k="natural" v="water" />
		<tag k="ssr:stedsnr" v="856917" />
	</node>
	<node id="-135138" lat="60.3262073015" lon="10.6660724404">
		<tag k="alt_name" v="Karrusputten" />
		<tag k="fixme" v="multiple name tags, choose one and add the other to alt_name" />
		<tag k="name" v="Ensrudputten;Karussputten" />
		<tag k="natural" v="water" />
		<tag k="ssr:stedsnr" v="67961" />
	</node>
	<node id="-135248" lat="60.2432666677" lon="10.6137694518">
		<tag k="name" v="Knippahøla" />
		<tag k="place" v="locality" />
		<tag k="ssr:stedsnr" v="160249" />
	</node>
	<node id="-135646" lat="60.2038805532" lon="10.6534277687">
		<tag k="name" v="Fønntjerna" />
		<tag k="natural" v="water" />
		<tag k="ssr:stedsnr" v="673475" />
		<tag k="water" v="lake" />
	</node>
	<node id="-135645" lat="60.1983598891" lon="10.6442230759">
		<tag k="name" v="Fjellsjøen" />
		<tag k="natural" v="water" />
		<tag k="ssr:stedsnr" v="673474" />
		<tag k="water" v="lake" />
	</node>
	<node id="-135759" lat="60.3008305573" lon="10.6965555522">
		<tag k="name" v="Vestre Gobakkputten" />
		<tag k="natural" v="water" />
		<tag k="ssr:stedsnr" v="767945" />
	</node>
	<node id="-135639" lat="60.1675250037" lon="10.5954499968">
		<tag k="alt_name" v="Skjortjernet, øvre" />
		<tag k="name" v="Øvre Skjortjernet" />
		<tag k="natural" v="water" />
		<tag k="ssr:stedsnr" v="660025" />
	</node>
	<node id="-135126" lat="60.2007534154" lon="10.738283434">
		<tag k="alt_name" v="Monsrudtjerna, vestre" />
		<tag k="fixme" v="multiple name tags, choose one and add the other to alt_name" />
		<tag k="name" v="Brannrudsputten;Vestre Monsrudtjernet" />
		<tag k="natural" v="water" />
		<tag k="ssr:stedsnr" v="66758" />
	</node>
	<node id="-135632" lat="60.2817972263" lon="10.7220194359">
		<tag k="name" v="Andtjernet" />
		<tag k="natural" v="water" />
		<tag k="ssr:stedsnr" v="647483" />
	</node>
	<node id="-135889" lat="60.231183337" lon="10.6812416615">
		<tag k="alt_name" v="Klattertjernet, l" />
		<tag k="name" v="Vesle Klattertjernet" />
		<tag k="natural" v="water" />
		<tag k="ssr:stedsnr" v="915462" />
	</node>
	<node id="-135630" lat="60.2685472258" lon="10.701494437">
		<tag k="name" v="Søndre Munkerudstjernet" />
		<tag k="natural" v="water" />
		<tag k="ssr:stedsnr" v="647348" />
	</node>
	<node id="-135113" lat="60.2140138893" lon="10.6335444444">
		<tag k="name" v="Hulderputten" />
		<tag k="natural" v="water" />
		<tag k="ssr:stedsnr" v="41499" />
	</node>
	<node id="-135200" lat="60.2595027774" lon="10.8061194472">
		<tag k="name" v="Lamøya" />
		<tag k="place" v="island" />
		<tag k="ssr:stedsnr" v="101566" />
	</node>
	<node id="-135622" lat="60.234283335" lon="10.765355553">
		<tag k="name" v="Måråputten" />
		<tag k="natural" v="water" />
		<tag k="ssr:stedsnr" v="645528" />
	</node>
	<node id="-135108" lat="60.1896722223" lon="10.6101083396">
		<tag k="name" v="Gjerdingsdammen" />
		<tag k="ssr:stedsnr" v="40284" />
		<tag k="waterway" v="dam" />
	</node>
	<node id="-135615" lat="60.2606222247" lon="10.5807277707">
		<tag k="name" v="Kalstjernbekken" />
		<tag k="ssr:stedsnr" v="645100" />
		<tag k="waterway" v="stream" />
	</node>
	<node id="-135102" lat="60.1579722206" lon="10.7230833294">
		<tag k="name" v="Ytterstryken" />
		<tag k="natural" v="bay" />
		<tag k="ssr:stedsnr" v="39697" />
	</node>
	<node id="-135716" lat="60.1531666634" lon="10.5813444525">
		<tag k="name" v="Stortangen" />
		<tag k="natural" v="cape" />
		<tag k="ssr:stedsnr" v="733133" />
	</node>
	<node id="-135098" lat="60.2046194466" lon="10.6572833337">
		<tag k="name" v="Tvillingtjernet" />
		<tag k="natural" v="water" />
		<tag k="ssr:stedsnr" v="39438" />
	</node>
	<node id="-135327" lat="60.2498277816" lon="10.5837166622">
		<tag k="loc_name" v="Kaldrassen" />
		<tag k="name" v="Kalrasen" />
		<tag k="natural" v="water" />
		<tag k="old_name" v="Kalras" />
		<tag k="ssr:stedsnr" v="221093" />
	</node>
	<node id="-135094" lat="60.2275833329" lon="10.6471333321">
		<tag k="name" v="Aurtjernsbekken" />
		<tag k="ssr:stedsnr" v="39274" />
		<tag k="waterway" v="stream" />
	</node>
	<node id="-135604" lat="60.1794249967" lon="10.7138583406">
		<tag k="name" v="Gustavsvika" />
		<tag k="natural" v="bay" />
		<tag k="ssr:stedsnr" v="645014" />
	</node>
	<node id="-135603" lat="60.1912805598" lon="10.7050944447">
		<tag k="name" v="Kartisvika" />
		<tag k="natural" v="bay" />
		<tag k="ssr:stedsnr" v="645011" />
	</node>
	<node id="-135087" lat="60.1788999986" lon="10.6906861026">
		<tag k="name" v="Skillingselva" />
		<tag k="ssr:stedsnr" v="39010" />
		<tag k="waterway" v="stream" />
	</node>
	<node id="-135086" lat="60.2901166688" lon="10.4828083399">
		<tag k="name" v="Markatjernet" />
		<tag k="natural" v="water" />
		<tag k="ssr:stedsnr" v="34283" />
	</node>
	<node id="-135581" lat="60.2655750021" lon="10.7940249913">
		<tag k="alt_name" v="Snellingen, lille;Vesle Snellingsvannet" />
		<tag k="name" v="Vesle Snellingen" />
		<tag k="natural" v="water" />
		<tag k="ssr:stedsnr" v="612388" />
	</node>
	<node id="-135666" lat="60.3141583368" lon="10.5018083421">
		<tag k="name" v="Korsrudbekken" />
		<tag k="ssr:stedsnr" v="698314" />
		<tag k="waterway" v="stream" />
	</node>
	<node id="-135495" lat="60.2748166645" lon="10.639308327">
		<tag k="name" v="Ryatjernet" />
		<tag k="natural" v="water" />
		<tag k="ssr:stedsnr" v="524772" />
	</node>
	<node id="-135582" lat="60.3333083291" lon="10.7121250007">
		<tag k="name" v="Nordtangen" />
		<tag k="natural" v="cape" />
		<tag k="ssr:stedsnr" v="612657" />
	</node>
	<node id="-135069" lat="60.2653745902" lon="10.716647167">
		<tag k="name" v="Langvatnet" />
		<tag k="natural" v="water" />
		<tag k="ssr:stedsnr" v="6810" />
		<tag k="water" v="lake" />
	</node>
	<node id="-135580" lat="60.2801805598" lon="10.8041027712">
		<tag k="name" v="Leirsjøen" />
		<tag k="natural" v="water" />
		<tag k="old_name" v="Lerisjøen" />
		<tag k="ssr:stedsnr" v="612351" />
	</node>
	<node id="-135579" lat="60.1345164816" lon="10.6098984506">
		<tag k="name" v="Katnostjernet" />
		<tag k="natural" v="water" />
		<tag k="ssr:stedsnr" v="612110" />
	</node>
	<node id="-135578" lat="60.1646222267" lon="10.6157361182">
		<tag k="fixme" v="multiple name tags, choose one and add the other to alt_name" />
		<tag k="name" v="Bekkehogsttjernet;Båhus-Branntjernet" />
		<tag k="natural" v="water" />
		<tag k="ssr:stedsnr" v="612033" />
	</node>
	<node id="-135064" lat="60.2630833323" lon="10.5817805518">
		<tag k="alt_name" v="Karlstjernet" />
		<tag k="name" v="Øvre Karlstjernet" />
		<tag k="natural" v="water" />
		<tag k="old_name" v="Karlstj, øv" />
		<tag k="ssr:stedsnr" v="6770" />
	</node>
	<node id="-135574" lat="60.154477779" lon="10.768108328">
		<tag k="alt_name" v="Varpebekken" />
		<tag k="name" v="Varpsbekken" />
		<tag k="ssr:stedsnr" v="611728" />
		<tag k="waterway" v="stream" />
	</node>
	<node id="-135572" lat="60.2419499976" lon="10.6044055468">
		<tag k="name" v="Fløyta" />
		<tag k="natural" v="water" />
		<tag k="ssr:stedsnr" v="611393" />
	</node>
	<node id="-135571" lat="60.1749444448" lon="10.701658328">
		<tag k="alt_name" v="Glitratjernet" />
		<tag k="name" v="Glitra" />
		<tag k="natural" v="water" />
		<tag k="ssr:stedsnr" v="611023" />
	</node>
	<node id="-135576" lat="60.1695944472" lon="10.6116555637">
		<tag k="name" v="Lauvputten" />
		<tag k="natural" v="water" />
		<tag k="ssr:stedsnr" v="612031" />
	</node>
	<node id="-135054" lat="60.2051777793" lon="10.6062916655">
		<tag k="name" v="Grytbekken" />
		<tag k="ssr:stedsnr" v="5423" />
		<tag k="waterway" v="stream" />
	</node>
	<node id="-135053" lat="60.2376083346" lon="10.6494388904">
		<tag k="name" v="Heimputten" />
		<tag k="natural" v="water" />
		<tag k="ssr:stedsnr" v="5363" />
	</node>
	<node id="-135052" lat="60.2424666661" lon="10.5861333289">
		<tag k="name" v="Svarttangen" />
		<tag k="natural" v="cape" />
		<tag k="ssr:stedsnr" v="5361" />
	</node>
	<node id="-135051" lat="60.1463388908" lon="10.6221333417">
		<tag k="alt_name" v="Branntjernet, s" />
		<tag k="name" v="Søndre Branntjernet" />
		<tag k="natural" v="water" />
		<tag k="ssr:stedsnr" v="5113" />
	</node>
	<node id="-135205" lat="60.2314527783" lon="10.6027916641">
		<tag k="alt_name" v="Bånntjernet" />
		<tag k="name" v="Bonntjernet" />
		<tag k="natural" v="water" />
		<tag k="ssr:stedsnr" v="114410" />
	</node>
	<node id="-135831" lat="60.2362916651" lon="10.7306111095">
		<tag k="name" v="Arnedalsputten" />
		<tag k="natural" v="water" />
		<tag k="ssr:stedsnr" v="828464" />
	</node>
	<node id="-135557" lat="60.2563749972" lon="10.6093916656">
		<tag k="name" v="Svartvika" />
		<tag k="natural" v="bay" />
		<tag k="old_name" v="Starvika" />
		<tag k="ssr:stedsnr" v="586311" />
	</node>
	<node id="-135556" lat="60.2579666649" lon="10.6108305603">
		<tag k="name" v="Myssmørvika" />
		<tag k="natural" v="bay" />
		<tag k="ssr:stedsnr" v="586312" />
	</node>
	<node id="-135555" lat="60.3109388868" lon="10.7037277866">
		<tag k="name" v="Skjervedammen" />
		<tag k="ssr:stedsnr" v="585932" />
		<tag k="waterway" v="dam" />
	</node>
	<node id="-135042" lat="60.2424908137" lon="10.6013555143">
		<tag k="name" v="Myllsdammen" />
		<tag k="ssr:stedsnr" v="991065" />
		<tag k="waterway" v="dam" />
	</node>
	<node id="-135403" lat="60.2155416676" lon="10.6041083335">
		<tag k="name" v="Mariputten" />
		<tag k="natural" v="water" />
		<tag k="ssr:stedsnr" v="430465" />
	</node>
	<node id="-135040" lat="60.1566285471" lon="10.5682137114">
		<tag k="loc_name" v="Kattnosa" />
		<tag k="name" v="Katnosa" />
		<tag k="natural" v="water" />
		<tag k="ssr:stedsnr" v="490002" />
		<tag k="water" v="lake" />
	</node>
	<node id="-135549" lat="60.1827611073" lon="10.6209444358">
		<tag k="name" v="Grimstjernsputten" />
		<tag k="natural" v="water" />
		<tag k="ssr:stedsnr" v="585416" />
	</node>
	<node id="-135547" lat="60.2354833335" lon="10.6353638873">
		<tag k="name" v="Liekersputten" />
		<tag k="natural" v="water" />
		<tag k="ssr:stedsnr" v="585247" />
	</node>
	<node id="-135364" lat="60.2245027793" lon="10.5587055631">
		<tag k="alt_name" v="Åssjøen" />
		<tag k="name" v="Ålsjøen" />
		<tag k="natural" v="water" />
		<tag k="old_name" v="Aalsjö;Aalsjõen" />
		<tag k="ssr:stedsnr" v="248464" />
		<tag k="water" v="lake" />
	</node>
	<node id="-135316" lat="60.2198027778" lon="10.5652444457">
		<tag k="name" v="Knartputten" />
		<tag k="natural" v="water" />
		<tag k="ssr:stedsnr" v="214280" />
		<tag k="water" v="pond" />
	</node>
	<node id="-135486" lat="60.2043916701" lon="10.6976222178">
		<tag k="name" v="Løken" />
		<tag k="natural" v="water" />
		<tag k="ssr:stedsnr" v="524368" />
		<tag k="water" v="lake" />
	</node>
	<node id="-135203" lat="60.3239277749" lon="10.7331500073">
		<tag k="name" v="Bormarkputtene" />
		<tag k="natural" v="water" />
		<tag k="ssr:stedsnr" v="112591" />
	</node>
	<node id="-135536" lat="60.2160555538" lon="10.578900003">
		<tag k="name" v="Sandbekken" />
		<tag k="ssr:stedsnr" v="578355" />
		<tag k="waterway" v="stream" />
	</node>
	<node id="-135023" lat="60.3087390057" lon="10.4671444937">
		<tag k="name" v="Veloelva​" />
		<tag k="ssr:stedsnr" v="987349" />
		<tag k="waterway" v="river" />
	</node>
	<node id="-135022" lat="60.3150114025" lon="10.4603864038">
		<tag k="name" v="Rostedbekken" />
		<tag k="ssr:stedsnr" v="987348" />
		<tag k="waterway" v="stream" />
	</node>
	<node id="-135019" lat="60.2879410053" lon="10.4725345918">
		<tag k="name" v="Galtedalstjerna" />
		<tag k="natural" v="water" />
		<tag k="ssr:stedsnr" v="795825" />
		<tag k="water" v="lake" />
	</node>
	<node id="-135018" lat="60.1911500002" lon="10.774836115">
		<tag k="alt_name" v="Dampipern" />
		<tag k="name" v="Dampiperen" />
		<tag k="natural" v="water" />
		<tag k="ssr:stedsnr" v="369746" />
	</node>
	<node id="-135529" lat="60.275750003" lon="10.7174277844">
		<tag k="alt_name" v="Flåtatjern;Flåtetjernet" />
		<tag k="name" v="Flåtåtjernet" />
		<tag k="natural" v="water" />
		<tag k="ssr:stedsnr" v="552813" />
	</node>
	<node id="-135527" lat="60.287354124" lon="10.7651999923">
		<tag k="name" v="Avalsjøen" />
		<tag k="natural" v="water" />
		<tag k="ssr:stedsnr" v="552366" />
		<tag k="water" v="lake" />
	</node>
	<node id="-135013" lat="60.1265722191" lon="10.6054111183">
		<tag k="name" v="Katnoselva" />
		<tag k="ssr:stedsnr" v="430067" />
		<tag k="waterway" v="river" />
	</node>
	<node id="-135012" lat="60.1380360279" lon="10.5951296403">
		<tag k="name" v="Lenseløken" />
		<tag k="natural" v="water" />
		<tag k="ssr:stedsnr" v="491101" />
	</node>
	<node id="-135523" lat="60.2189199519" lon="10.6124014196">
		<tag k="alt_name" v="Svarttjern" />
		<tag k="fixme" v="multiple name tags, choose one and add the other to alt_name" />
		<tag k="name" v="Svartbekktjernet;Svarttjernet" />
		<tag k="natural" v="water" />
		<tag k="ssr:stedsnr" v="551483" />
	</node>
	<node id="-135521" lat="60.2202111107" lon="10.5786500003">
		<tag k="name" v="Svarttjernet" />
		<tag k="natural" v="water" />
		<tag k="ssr:stedsnr" v="551457" />
	</node>
	<node id="-135008" lat="60.3197494398" lon="10.6274835183">
		<tag k="name" v="Kruggerudtjernet" />
		<tag k="natural" v="water" />
		<tag k="ssr:stedsnr" v="90275" />
	</node>
	<node id="-135312" lat="60.3126472193" lon="10.6383805582">
		<tag k="name" v="Vesletjernet" />
		<tag k="natural" v="water" />
		<tag k="ssr:stedsnr" v="211368" />
		<tag k="water" v="pond" />
	</node>
	<node id="-135517" lat="60.1709361094" lon="10.6507444515">
		<tag k="name" v="Løkebekken" />
		<tag k="ssr:stedsnr" v="551020" />
		<tag k="waterway" v="stream" />
	</node>
	<node id="-135516" lat="60.1689694479" lon="10.6568500061">
		<tag k="name" v="Kraftstasjonsbekken" />
		<tag k="ssr:stedsnr" v="550043" />
		<tag k="waterway" v="stream" />
	</node>
	<node id="-135515" lat="60.1698444453" lon="10.6336277692">
		<tag k="name" v="Grimstjernsbekken" />
		<tag k="ssr:stedsnr" v="550044" />
		<tag k="waterway" v="stream" />
	</node>
	<node id="-135514" lat="60.3122527792" lon="10.8299749998">
		<tag k="name" v="Langvassputten" />
		<tag k="natural" v="water" />
		<tag k="ssr:stedsnr" v="537916" />
	</node>
	<node id="-135001" lat="60.2816555559" lon="10.7655972268">
		<tag k="name" v="Kalven" />
		<tag k="natural" v="bay" />
		<tag k="ssr:stedsnr" v="890489" />
	</node>
	<node id="-135000" lat="60.2991722195" lon="10.7442805634">
		<tag k="name" v="Minnestufossen" />
		<tag k="natural" v="waterfall" />
		<tag k="ssr:stedsnr" v="890408" />
	</node>
	<node id="-134999" lat="60.222336109" lon="10.7079305559">
		<tag k="name" v="Haneknetjernet" />
		<tag k="natural" v="water" />
		<tag k="ssr:stedsnr" v="890362" />
	</node>
	<node id="-134997" lat="60.2556833322" lon="10.6432750013">
		<tag k="name" v="Muttabekken" />
		<tag k="ssr:stedsnr" v="890310" />
		<tag k="waterway" v="stream" />
	</node>
	<node id="-135768" lat="60.2562055531" lon="10.7505194445">
		<tag k="name" v="Svarttjernsbekken" />
		<tag k="ssr:stedsnr" v="769567" />
		<tag k="waterway" v="stream" />
	</node>
	<node id="-135504" lat="60.2634055526" lon="10.6994555567">
		<tag k="name" v="Nysetertjernet" />
		<tag k="natural" v="water" />
		<tag k="ssr:stedsnr" v="526316" />
	</node>
	<node id="-135503" lat="60.2607722247" lon="10.6870861183">
		<tag k="name" v="Nyseterbekken" />
		<tag k="ssr:stedsnr" v="526313" />
		<tag k="waterway" v="stream" />
	</node>
	<node id="-134990" lat="60.1736833361" lon="10.7605916685">
		<tag k="name" v="Smellbakkputtene" />
		<tag k="natural" v="water" />
		<tag k="ssr:stedsnr" v="889743" />
	</node>
	<node id="-134989" lat="60.1835722235" lon="10.722922224">
		<tag k="name" v="Monsrudvika" />
		<tag k="natural" v="bay" />
		<tag k="ssr:stedsnr" v="889683" />
	</node>
	<node id="-135500" lat="60.3248861131" lon="10.70404723">
		<tag k="name" v="Framnes" />
		<tag k="natural" v="cape" />
		<tag k="ssr:stedsnr" v="524937" />
	</node>
	<node id="-135650" lat="60.1772138888" lon="10.7686750051">
		<tag k="alt_name" v="Kroktjernet" />
		<tag k="name" v="Kroktjerna" />
		<tag k="natural" v="water" />
		<tag k="ssr:stedsnr" v="673785" />
	</node>
	<node id="-134983" lat="60.2805583347" lon="10.673725004">
		<tag k="name" v="Dalasjøbekken" />
		<tag k="ssr:stedsnr" v="889257" />
		<tag k="waterway" v="stream" />
	</node>
	<node id="-135494" lat="60.1475277774" lon="10.5924194402">
		<tag k="name" v="Katnosdammen" />
		<tag k="ssr:stedsnr" v="524753" />
		<tag k="waterway" v="dam" />
	</node>
	<node id="-135493" lat="60.1915083348" lon="10.7615861067">
		<tag k="name" v="Høgputtene" />
		<tag k="natural" v="water" />
		<tag k="ssr:stedsnr" v="524668" />
	</node>
	<node id="-134978" lat="60.1558972232" lon="10.6227361055">
		<tag k="alt_name" v="Lille Kalvetjernet" />
		<tag k="name" v="Vesle Kalvetjernet" />
		<tag k="natural" v="water" />
		<tag k="ssr:stedsnr" v="889042" />
	</node>
	<node id="-134977" lat="60.1943944437" lon="10.7175500072">
		<tag k="name" v="Stasjonsvika" />
		<tag k="natural" v="bay" />
		<tag k="ssr:stedsnr" v="889033" />
	</node>
	<node id="-134976" lat="60.1876722206" lon="10.7081250025">
		<tag k="name" v="Hansøya" />
		<tag k="place" v="islet" />
		<tag k="ssr:stedsnr" v="889025" />
	</node>
	<node id="-134974" lat="60.2515749992" lon="10.6014249995">
		<tag k="name" v="Vikabekken" />
		<tag k="ssr:stedsnr" v="888068" />
		<tag k="waterway" v="stream" />
	</node>
	<node id="-135485" lat="60.2407777785" lon="10.5450333416">
		<tag k="name" v="Oksøya" />
		<tag k="place" v="islet" />
		<tag k="ssr:stedsnr" v="524128" />
	</node>
	<node id="-135379" lat="60.2504000025" lon="10.6456666721">
		<tag k="name" v="Sveselva" />
		<tag k="ssr:stedsnr" v="249758" />
		<tag k="waterway" v="river" />
	</node>
	<node id="-135481" lat="60.2980944408" lon="10.6009638883">
		<tag k="name" v="Kalvsjøbekken" />
		<tag k="ssr:stedsnr" v="524059" />
		<tag k="waterway" v="stream" />
	</node>
	<node id="-134968" lat="60.247625004" lon="10.7988138813">
		<tag k="name" v="Svartputtbekken" />
		<tag k="ssr:stedsnr" v="405601" />
		<tag k="waterway" v="stream" />
	</node>
	<node id="-135476" lat="60.219236112" lon="10.5738166705">
		<tag k="name" v="Bjønnputten" />
		<tag k="natural" v="water" />
		<tag k="ssr:stedsnr" v="517289" />
		<tag k="water" v="pond" />
	</node>
	<node id="-135478" lat="60.165688893" lon="10.6647999958">
		<tag k="name" v="Løkeputten" />
		<tag k="natural" v="water" />
		<tag k="ssr:stedsnr" v="524034" />
		<tag k="water" v="pond" />
	</node>
	<node id="-135477" lat="60.289327776" lon="10.5159888912">
		<tag k="name" v="Dælsbekken" />
		<tag k="ssr:stedsnr" v="517772" />
		<tag k="waterway" v="stream" />
	</node>
	<node id="-134964" lat="60.226930554" lon="10.7068277803">
		<tag k="name" v="Kverndammen" />
		<tag k="ssr:stedsnr" v="405391" />
		<tag k="waterway" v="dam" />
	</node>
	<node id="-135208" lat="60.1830583351" lon="10.5741972219">
		<tag k="alt_name" v="Fyllingen, l;Lille Fyllingen" />
		<tag k="name" v="Vesle Fyllingen" />
		<tag k="natural" v="water" />
		<tag k="old_name" v="l. Fidlingen" />
		<tag k="ssr:stedsnr" v="126053" />
	</node>
	<node id="-135326" lat="60.2559222221" lon="10.5763222247">
		<tag k="loc_name" v="Selahøvret" />
		<tag k="name" v="Selehøvre" />
		<tag k="natural" v="water" />
		<tag k="old_name" v="Sælahøvret" />
		<tag k="ssr:stedsnr" v="221087" />
	</node>
	<node id="-135276" lat="60.1600735578" lon="10.6503210514">
		<tag k="alt_name" v="Daltjuven" />
		<tag k="name" v="Store Daltjuven" />
		<tag k="natural" v="water" />
		<tag k="ssr:stedsnr" v="187009" />
		<tag k="water" v="lake" />
	</node>
	<node id="-134948" lat="60.233736111" lon="10.6785583258">
		<tag k="name" v="Borkeliputten" />
		<tag k="natural" v="water" />
		<tag k="ssr:stedsnr" v="403344" />
	</node>
	<node id="-135459" lat="60.268063887" lon="10.7014583293">
		<tag k="name" v="Munkerudstjerna" />
		<tag k="natural" v="water" />
		<tag k="ssr:stedsnr" v="491781" />
		<tag k="water" v="lake" />
	</node>
	<node id="-135458" lat="60.2744000018" lon="10.7664500073">
		<tag k="alt_name" v="Suluelva" />
		<tag k="name" v="Sulua" />
		<tag k="ssr:stedsnr" v="491344" />
		<tag k="waterway" v="stream" />
	</node>
	<node id="-135457" lat="60.3063611116" lon="10.8332277757">
		<tag k="name" v="Glåmtjern" />
		<tag k="natural" v="water" />
		<tag k="ssr:stedsnr" v="491327" />
	</node>
	<node id="-134944" lat="60.1328472232" lon="10.6462888907">
		<tag k="name" v="Kalvesundet" />
		<tag k="natural" v="strait" />
		<tag k="ssr:stedsnr" v="403058" />
	</node>
	<node id="-134943" lat="60.3263638911" lon="10.5500166742">
		<tag k="name" v="Høybytjernet" />
		<tag k="natural" v="water" />
		<tag k="ssr:stedsnr" v="403055" />
	</node>
	<node id="-135454" lat="60.1823694416" lon="10.61570277">
		<tag k="name" v="Grimvassputten" />
		<tag k="natural" v="water" />
		<tag k="ssr:stedsnr" v="490061" />
	</node>
	<node id="-135453" lat="60.1632749999" lon="10.5815083255">
		<tag k="name" v="Ekornputten" />
		<tag k="natural" v="water" />
		<tag k="ssr:stedsnr" v="490036" />
	</node>
	<node id="-135451" lat="60.1728972249" lon="10.6104166604">
		<tag k="name" v="Bahustjernet" />
		<tag k="natural" v="water" />
		<tag k="ssr:stedsnr" v="489048" />
	</node>
	<node id="-134938" lat="60.1882291208" lon="10.5925383041">
		<tag k="name" v="Rødsandvika" />
		<tag k="natural" v="bay" />
		<tag k="ssr:stedsnr" v="396474" />
	</node>
	<node id="-135727" lat="60.2573499983" lon="10.5837444498">
		<tag k="alt_name" v="Karlstjernet" />
		<tag k="name" v="Nedre Karlstjernet" />
		<tag k="natural" v="water" />
		<tag k="old_name" v="Karlstj, ned" />
		<tag k="ssr:stedsnr" v="734687" />
	</node>
	<node id="-134935" lat="60.3204444406" lon="10.514994451">
		<tag k="name" v="Korsrudtjernet" />
		<tag k="natural" v="water" />
		<tag k="ssr:stedsnr" v="370978" />
	</node>
	<node id="-135446" lat="60.2997166651" lon="10.8010861087">
		<tag k="name" v="Karpeputten" />
		<tag k="natural" v="water" />
		<tag k="ssr:stedsnr" v="465463" />
	</node>
	<node id="-135897" lat="60.249290754" lon="10.6092201502">
		<tag k="alt_name" v="Svea, yt;Ytre Svea" />
		<tag k="name" v="Yttersvea" />
		<tag k="natural" v="water" />
		<tag k="ssr:stedsnr" v="916414" />
	</node>
	<node id="-134932" lat="60.3169133413" lon="10.6970364717">
		<tag k="name" v="Skjerva" />
		<tag k="natural" v="water" />
		<tag k="ssr:stedsnr" v="370927" />
		<tag k="water" v="lake" />
	</node>
	<node id="-135442" lat="60.3006638884" lon="10.7376083393">
		<tag k="name" v="Minnestuhøla" />
		<tag k="place" v="locality" />
		<tag k="ssr:stedsnr" v="465392" />
	</node>
	<node id="-134929" lat="60.2962420247" lon="10.6697625763">
		<tag k="alt_name" v="Grøntjernet" />
		<tag k="name" v="Grønntjernet" />
		<tag k="natural" v="water" />
		<tag k="ssr:stedsnr" v="370886" />
	</node>
	<node id="-135896" lat="60.3055749963" lon="10.8531972136">
		<tag k="name" v="Knapptjern" />
		<tag k="natural" v="water" />
		<tag k="ssr:stedsnr" v="916337" />
	</node>
	<node id="-134925" lat="60.2923893005" lon="10.4945356403">
		<tag k="alt_name" v="Vassjøtjernet" />
		<tag k="name" v="Vassjø" />
		<tag k="natural" v="water" />
		<tag k="ssr:stedsnr" v="370858" />
		<tag k="water" v="lake" />
	</node>
	<node id="-135434" lat="60.2749111081" lon="10.7465055467">
		<tag k="name" v="Brakaltjernbekken" />
		<tag k="ssr:stedsnr" v="464538" />
		<tag k="waterway" v="stream" />
	</node>
	<node id="-134921" lat="60.2769171908" lon="10.5918757634">
		<tag k="name" v="Oppentjernet" />
		<tag k="natural" v="water" />
		<tag k="ssr:stedsnr" v="370807" />
	</node>
	<node id="-135431" lat="60.2195361093" lon="10.7114111139">
		<tag k="name" v="Ormputten" />
		<tag k="natural" v="water" />
		<tag k="ssr:stedsnr" v="464429" />
	</node>
	<node id="-134917" lat="60.2531388855" lon="10.7508749939">
		<tag k="alt_name" v="Svarttjernet" />
		<tag k="name" v="Svartvatnet" />
		<tag k="natural" v="water" />
		<tag k="ssr:stedsnr" v="370405" />
	</node>
	<node id="-135940" lat="60.2420000026" lon="10.7219111035">
		<tag k="name" v="Hjalmarputten" />
		<tag k="natural" v="water" />
		<tag k="ssr:stedsnr" v="951576" />
	</node>
	<node id="-135939" lat="60.2835833361" lon="10.7935638818">
		<tag k="name" v="Mellomsjøelva" />
		<tag k="ssr:stedsnr" v="951488" />
		<tag k="waterway" v="river" />
	</node>
	<node id="-134914" lat="60.3050805558" lon="10.7225249917">
		<tag k="name" v="Åklangselva" />
		<tag k="ssr:stedsnr" v="370355" />
		<tag k="waterway" v="river" />
	</node>
	<node id="-134913" lat="60.3022750004" lon="10.808633325">
		<tag k="alt_name" v="Bergstjern, nordre" />
		<tag k="name" v="Nordre Bergstjernet" />
		<tag k="natural" v="water" />
		<tag k="ssr:stedsnr" v="370352" />
	</node>
	<node id="-135936" lat="60.2596194454" lon="10.7135305582">
		<tag k="name" v="Aulibekken" />
		<tag k="ssr:stedsnr" v="951302" />
		<tag k="waterway" v="stream" />
	</node>
	<node id="-135935" lat="60.2613611111" lon="10.6252888807">
		<tag k="name" v="Østre Småtjernet" />
		<tag k="natural" v="water" />
		<tag k="ssr:stedsnr" v="951294" />
	</node>
	<node id="-135893" lat="60.2916027804" lon="10.8168750081">
		<tag k="alt_name" v="Bergstjern, søndre" />
		<tag k="name" v="Søndre Bergstjernet" />
		<tag k="natural" v="water" />
		<tag k="ssr:stedsnr" v="916298" />
	</node>
	<node id="-135932" lat="60.2817916682" lon="10.6049305548">
		<tag k="name" v="Bjønnbekken" />
		<tag k="ssr:stedsnr" v="949779" />
		<tag k="waterway" v="stream" />
	</node>
	<node id="-134905" lat="60.162494446" lon="10.6471027831">
		<tag k="name" v="Torsteinstangen" />
		<tag k="natural" v="cape" />
		<tag k="ssr:stedsnr" v="367027" />
	</node>
	<node id="-135325" lat="60.2896166689" lon="10.5612749962">
		<tag k="name" v="Tangen" />
		<tag k="natural" v="cape" />
		<tag k="ssr:stedsnr" v="221068" />
	</node>
	<node id="-135412" lat="60.2646767416" lon="10.6094399225">
		<tag k="name" v="Kalven" />
		<tag k="natural" v="water" />
		<tag k="ssr:stedsnr" v="431824" />
	</node>
	<node id="-135409" lat="60.2546871003" lon="10.6056737803">
		<tag k="name" v="Svea" />
		<tag k="natural" v="water" />
		<tag k="ssr:stedsnr" v="431788" />
		<tag k="water" v="lake" />
	</node>
	<node id="-134895" lat="60.2774777818" lon="10.7771583386">
		<tag k="name" v="Brattfossen" />
		<tag k="natural" v="waterfall" />
		<tag k="ssr:stedsnr" v="344494" />
	</node>
	<node id="-134894" lat="60.2746611083" lon="10.7954055475">
		<tag k="name" v="Snellingsbekken" />
		<tag k="ssr:stedsnr" v="344492" />
		<tag k="waterway" v="stream" />
	</node>
	<node id="-135405" lat="60.1814250032" lon="10.7271055532">
		<tag k="name" v="Smellbakkbekken" />
		<tag k="ssr:stedsnr" v="430780" />
		<tag k="waterway" v="stream" />
	</node>
	<node id="-135916" lat="60.3155972209" lon="10.6354583309">
		<tag k="name" v="Solliputten" />
		<tag k="natural" v="water" />
		<tag k="ssr:stedsnr" v="940366" />
		<tag k="water" v="pond" />
	</node>
	<node id="-134891" lat="60.2504777806" lon="10.6066861084">
		<tag k="name" v="Vikatangen" />
		<tag k="natural" v="cape" />
		<tag k="ssr:stedsnr" v="344301" />
	</node>
	<node id="-135401" lat="60.2292055534" lon="10.6770583371">
		<tag k="name" v="Merraputten" />
		<tag k="natural" v="water" />
		<tag k="ssr:stedsnr" v="430456" />
	</node>
	<node id="-135912" lat="60.2787777765" lon="10.7139749963">
		<tag k="name" v="Hestehagatjernet" />
		<tag k="natural" v="water" />
		<tag k="ssr:stedsnr" v="917839" />
	</node>
	<node id="-135399" lat="60.1986666669" lon="10.6012416739">
		<tag k="name" v="Storøya" />
		<tag k="place" v="islet" />
		<tag k="ssr:stedsnr" v="430438" />
	</node>
	<node id="-135909" lat="60.3286105059" lon="10.7183240756">
		<tag k="name" v="Grøa" />
		<tag k="natural" v="water" />
		<tag k="ssr:stedsnr" v="916961" />
		<tag k="water" v="lake" />
	</node>
	<node id="-135908" lat="60.309822223" lon="10.5173972277">
		<tag k="alt_name" v="Huldertjernet" />
		<tag k="name" v="Høltjernet" />
		<tag k="natural" v="water" />
		<tag k="ssr:stedsnr" v="916937" />
	</node>
	<node id="-135395" lat="60.2484657734" lon="10.5922840641">
		<tag k="alt_name" v="Beltern" />
		<tag k="name" v="Belteren" />
		<tag k="natural" v="water" />
		<tag k="ssr:stedsnr" v="430375" />
	</node>
	<node id="-134882" lat="60.2765222185" lon="10.683652773">
		<tag k="name" v="Lognabekken" />
		<tag k="ssr:stedsnr" v="342226" />
		<tag k="waterway" v="stream" />
	</node>
	<node id="-135905" lat="60.3020722266" lon="10.5335972248">
		<tag k="name" v="Kjevlingen" />
		<tag k="natural" v="water" />
		<tag k="ssr:stedsnr" v="916912" />
	</node>
	<node id="-135393" lat="60.1793272569" lon="10.6159786266">
		<tag k="fixme" v="multiple name tags, choose one and add the other to alt_name" />
		<tag k="name" v="Båhussvarttjernet;Svarttjernet" />
		<tag k="natural" v="water" />
		<tag k="ssr:stedsnr" v="430036" />
	</node>
	<node id="-134879" lat="60.243930552" lon="10.5540805599">
		<tag k="name" v="Jordeskjæret" />
		<tag k="place" v="islet" />
		<tag k="ssr:stedsnr" v="342111" />
	</node>
	<node id="-134878" lat="60.2577555589" lon="10.5951722192">
		<tag k="name" v="Lauvbekken" />
		<tag k="ssr:stedsnr" v="342091" />
		<tag k="waterway" v="stream" />
	</node>
	<node id="-134877" lat="60.2465944399" lon="10.5902166711">
		<tag k="name" v="Stuttbekken" />
		<tag k="old_name" v="Stuttbakken" />
		<tag k="ssr:stedsnr" v="342081" />
		<tag k="waterway" v="stream" />
	</node>
	<node id="-135388" lat="60.3182027787" lon="10.4594749954">
		<tag k="name" v="Mjørputten" />
		<tag k="natural" v="water" />
		<tag k="ssr:stedsnr" v="249925" />
	</node>
	<node id="-134873" lat="60.1966027756" lon="10.7150444413">
		<tag k="name" v="Gråmerrtangen" />
		<tag k="natural" v="cape" />
		<tag k="ssr:stedsnr" v="342025" />
	</node>
	<node id="-134872" lat="60.1879583329" lon="10.6710138859">
		<tag k="name" v="Holobekken" />
		<tag k="ssr:stedsnr" v="342022" />
		<tag k="waterway" v="stream" />
	</node>
	<node id="-134871" lat="60.1916305559" lon="10.7076722139">
		<tag k="name" v="Brannodden" />
		<tag k="natural" v="cape" />
		<tag k="ssr:stedsnr" v="342017" />
	</node>
	<node id="-135894" lat="60.2934249998" lon="10.7691333402">
		<tag k="name" v="Surkesand" />
		<tag k="natural" v="beach" />
		<tag k="ssr:stedsnr" v="916299" />
	</node>
	<node id="-134869" lat="60.1773027813" lon="10.6889583254">
		<tag k="name" v="Attholdsdammen" />
		<tag k="ssr:stedsnr" v="342012" />
		<tag k="waterway" v="dam" />
	</node>
	<node id="-135892" lat="60.1352305597" lon="10.662566659">
		<tag k="alt_name" v="Bjønnputten" />
		<tag k="name" v="Bjørnputten" />
		<tag k="natural" v="water" />
		<tag k="ssr:stedsnr" v="916097" />
	</node>
	<node id="-134867" lat="60.2778527764" lon="10.53556111">
		<tag k="name" v="Holteputten" />
		<tag k="natural" v="water" />
		<tag k="ssr:stedsnr" v="335964" />
		<tag k="water" v="pond" />
	</node>
	<node id="-135890" lat="60.1541166675" lon="10.7277999974">
		<tag k="name" v="Strekan" />
		<tag k="natural" v="water" />
		<tag k="ssr:stedsnr" v="915706" />
	</node>
	<node id="-135563" lat="60.2540111087" lon="10.7691555556">
		<tag k="name" v="Sølvtjernsbekken" />
		<tag k="ssr:stedsnr" v="586555" />
		<tag k="waterway" v="stream" />
	</node>
	<node id="-134863" lat="60.314477782" lon="10.7152888978">
		<tag k="name" v="Abborputten" />
		<tag k="natural" v="water" />
		<tag k="ssr:stedsnr" v="342912" />
	</node>
	<node id="-134862" lat="60.3105361094" lon="10.704761103">
		<tag k="name" v="Elvestubben" />
		<tag k="ssr:stedsnr" v="342909" />
		<tag k="waterway" v="river" />
	</node>
	<node id="-135885" lat="60.1738250043" lon="10.6255611072">
		<tag k="alt_name" v="Grimsvatnet" />
		<tag k="name" v="Grimstjernet" />
		<tag k="natural" v="water" />
		<tag k="ssr:stedsnr" v="915039" />
	</node>
	<node id="-135884" lat="60.1829527806" lon="10.7087250073">
		<tag k="name" v="Fataburet" />
		<tag k="natural" v="water" />
		<tag k="ssr:stedsnr" v="915032" />
	</node>
	<node id="-134857" lat="60.2840333358" lon="10.7153499983">
		<tag k="name" v="Sætertjernet" />
		<tag k="natural" v="water" />
		<tag k="ssr:stedsnr" v="310814" />
	</node>
	<node id="-134856" lat="60.2564777758" lon="10.7293138933">
		<tag k="name" v="Korsvatnet" />
		<tag k="natural" v="water" />
		<tag k="ssr:stedsnr" v="310358" />
	</node>
	<node id="-135367" lat="60.1980444486" lon="10.7484972258">
		<tag k="alt_name" v="Monsrudtjerna, nordre" />
		<tag k="name" v="Nordre Monsrudtjernet" />
		<tag k="natural" v="water" />
		<tag k="ssr:stedsnr" v="248796" />
	</node>
	<node id="-135365" lat="60.2316138902" lon="10.6459944446">
		<tag k="alt_name" v="Aurtjernet" />
		<tag k="name" v="Auretjernet" />
		<tag k="natural" v="water" />
		<tag k="ssr:stedsnr" v="248470" />
	</node>
	<node id="-134852" lat="60.3130166686" lon="10.6430111093">
		<tag k="name" v="Stumnetjernet" />
		<tag k="natural" v="water" />
		<tag k="ssr:stedsnr" v="309883" />
	</node>
	<node id="-135363" lat="60.2033538312" lon="10.5941567344">
		<tag k="name" v="Sandvika" />
		<tag k="natural" v="bay" />
		<tag k="ssr:stedsnr" v="248435" />
	</node>
	<node id="-135871" lat="60.2664749969" lon="10.732400007">
		<tag k="alt_name" v="Måraputten" />
		<tag k="name" v="Måratjern" />
		<tag k="natural" v="water" />
		<tag k="ssr:stedsnr" v="856411" />
	</node>
	<node id="-135358" lat="60.1468833333" lon="10.6636972215">
		<tag k="alt_name" v="Måntjernet" />
		<tag k="name" v="Mantjernet" />
		<tag k="natural" v="water" />
		<tag k="old_name" v="Manntjernet;Manntjern" />
		<tag k="ssr:stedsnr" v="248118" />
	</node>
	<node id="-135869" lat="60.3019749958" lon="10.7926527759">
		<tag k="alt_name" v="Damtjernet" />
		<tag k="name" v="Damtjern" />
		<tag k="natural" v="water" />
		<tag k="ssr:stedsnr" v="856325" />
	</node>
	<node id="-134843" lat="60.2593996184" lon="10.6407348739">
		<tag k="name" v="Muttatjernet" />
		<tag k="natural" v="water" />
		<tag k="ssr:stedsnr" v="309748" />
	</node>
	<node id="-135866" lat="60.2242305566" lon="10.744902773">
		<tag k="name" v="Sæterbekken" />
		<tag k="ssr:stedsnr" v="855877" />
		<tag k="waterway" v="stream" />
	</node>
	<node id="-134841" lat="60.1554103141" lon="10.5713601965">
		<tag k="name" v="Losøya" />
		<tag k="place" v="island" />
		<tag k="ssr:stedsnr" v="309124" />
	</node>
	<node id="-135864" lat="60.2065833293" lon="10.7497916618">
		<tag k="alt_name" v="Piperen, nordre;Stoltpipern" />
		<tag k="name" v="Nordre Piperen" />
		<tag k="natural" v="water" />
		<tag k="ssr:stedsnr" v="855809" />
	</node>
	<node id="-134838" lat="60.1620333292" lon="10.7189138931">
		<tag k="alt_name" v="Strykvannet" />
		<tag k="name" v="Strykenvatnet" />
		<tag k="natural" v="water" />
		<tag k="ssr:stedsnr" v="308698" />
	</node>
	<node id="-135625" lat="60.2991083338" lon="10.693916666">
		<tag k="name" v="Helvetesputten" />
		<tag k="natural" v="water" />
		<tag k="ssr:stedsnr" v="645938" />
	</node>
	<node id="-134836" lat="60.2356944427" lon="10.6609722181">
		<tag k="name" v="Store Klattertjernet" />
		<tag k="natural" v="water" />
		<tag k="ssr:stedsnr" v="308438" />
	</node>
	<node id="-135859" lat="60.1923247248" lon="10.6293989965">
		<tag k="alt_name" v="Lonndalstjernet" />
		<tag k="name" v="Løndalstjernet" />
		<tag k="natural" v="water" />
		<tag k="ssr:stedsnr" v="855442" />
	</node>
	<node id="-135858" lat="60.1930916635" lon="10.5908249931">
		<tag k="name" v="Gjerdingen" />
		<tag k="natural" v="water" />
		<tag k="ssr:stedsnr" v="855438" />
		<tag k="water" v="lake" />
	</node>
	<node id="-134833" lat="60.1829805532" lon="10.6498361024">
		<tag k="name" v="Gjerdingselva" />
		<tag k="ssr:stedsnr" v="308014" />
		<tag k="waterway" v="river" />
	</node>
	<node id="-135344" lat="60.2747611136" lon="10.7251638908">
		<tag k="name" v="Langvatnbekken" />
		<tag k="ssr:stedsnr" v="223501" />
		<tag k="waterway" v="stream" />
	</node>
	<node id="-135854" lat="60.1528972258" lon="10.6979055549">
		<tag k="name" v="Nordre Djupdalstjernet" />
		<tag k="natural" v="water" />
		<tag k="ssr:stedsnr" v="855120" />
	</node>
	<node id="-135852" lat="60.1341944479" lon="10.6013722269">
		<tag k="name" v="Sæterløken" />
		<tag k="natural" v="water" />
		<tag k="ssr:stedsnr" v="855088" />
	</node>
	<node id="-134827" lat="60.2576527738" lon="10.7296249982">
		<tag k="name" v="Fiskøya" />
		<tag k="place" v="islet" />
		<tag k="ssr:stedsnr" v="283487" />
	</node>
	<node id="-135850" lat="60.1886944461" lon="10.5826055499">
		<tag k="alt_name" v="Kaldputt" />
		<tag k="name" v="Kaldputten" />
		<tag k="natural" v="water" />
		<tag k="ssr:stedsnr" v="855049" />
	</node>
	<node id="-135849" lat="60.1695416669" lon="10.7019722224">
		<tag k="name" v="Langvika" />
		<tag k="natural" v="bay" />
		<tag k="ssr:stedsnr" v="855019" />
	</node>
	<node id="-134824" lat="60.2952638882" lon="10.7565388812">
		<tag k="name" v="Avalsjøoset" />
		<tag k="natural" v="bay" />
		<tag k="ssr:stedsnr" v="283334" />
	</node>
	<node id="-134822" lat="60.3027805526" lon="10.7009833332">
		<tag k="name" v="Østre Gobakkputten" />
		<tag k="natural" v="water" />
		<tag k="ssr:stedsnr" v="282948" />
	</node>
	<node id="-135777" lat="60.1642555592" lon="10.574911103">
		<tag k="name" v="Mariputten" />
		<tag k="natural" v="water" />
		<tag k="ssr:stedsnr" v="794001" />
	</node>
	<node id="-135391" lat="60.1851999966" lon="10.6991972204">
		<tag k="alt_name" v="Skillingen, l" />
		<tag k="name" v="Vesle Skillingen" />
		<tag k="natural" v="water" />
		<tag k="ssr:stedsnr" v="430027" />
	</node>
	<node id="-135195" lat="60.2964638844" lon="10.7907361192">
		<tag k="name" v="Surkefløyta" />
		<tag k="natural" v="water" />
		<tag k="ssr:stedsnr" v="101471" />
		<tag k="water" v="pond" />
	</node>
	<node id="-135328" lat="60.1833527773" lon="10.649233326">
		<tag k="name" v="Rennedammen" />
		<tag k="ssr:stedsnr" v="221424" />
		<tag k="waterway" v="dam" />
	</node>
	<node id="-135024" lat="60.3040193039" lon="10.4623734386">
		<tag k="name" v="Rustadelva​" />
		<tag k="ssr:stedsnr" v="987350" />
		<tag k="waterway" v="river" />
	</node>
	<node id="-134814" lat="60.1874055573" lon="10.64023056">
		<tag k="name" v="Fjellsjøbekken" />
		<tag k="ssr:stedsnr" v="282437" />
		<tag k="waterway" v="stream" />
	</node>
	<node id="-135877" lat="60.2968666698" lon="10.5338444405">
		<tag k="alt_name" v="Fiskumtjernet" />
		<tag k="name" v="Nyborgtjernet" />
		<tag k="natural" v="water" />
		<tag k="ssr:stedsnr" v="856861" />
	</node>
	<node id="-135835" lat="60.2720305517" lon="10.6352666597">
		<tag k="name" v="Omdalsbekken" />
		<tag k="ssr:stedsnr" v="828768" />
		<tag k="waterway" v="stream" />
	</node>
	<node id="-135280" lat="60.1524666658" lon="10.670319453">
		<tag k="alt_name" v="Handkledputten;Håndkleputten" />
		<tag k="name" v="Handkleputten" />
		<tag k="natural" v="water" />
		<tag k="ssr:stedsnr" v="187122" />
	</node>
	<node id="-135321" lat="60.1696722229" lon="10.6859777726">
		<tag k="name" v="Nysetervika" />
		<tag k="natural" v="bay" />
		<tag k="ssr:stedsnr" v="221037" />
	</node>
	<node id="-135320" lat="60.1680777814" lon="10.6974333326">
		<tag k="name" v="Langvika" />
		<tag k="natural" v="bay" />
		<tag k="ssr:stedsnr" v="221017" />
	</node>
	<node id="-134807" lat="60.2483055593" lon="10.5872638879">
		<tag k="name" v="Smaugbekken" />
		<tag k="ssr:stedsnr" v="282103" />
		<tag k="waterway" v="stream" />
	</node>
	<node id="-135830" lat="60.1849722184" lon="10.640472222">
		<tag k="name" v="Muttatjernet" />
		<tag k="natural" v="water" />
		<tag k="ssr:stedsnr" v="828433" />
	</node>
	<node id="-134804" lat="60.2378916652" lon="10.541475004">
		<tag k="name" v="Storøya" />
		<tag k="place" v="islet" />
		<tag k="ssr:stedsnr" v="275895" />
	</node>
	<node id="-135827" lat="60.2296222208" lon="10.6671222169">
		<tag k="name" v="Huldreputten" />
		<tag k="natural" v="water" />
		<tag k="ssr:stedsnr" v="828360" />
	</node>
	<node id="-135825" lat="60.2424138931" lon="10.5930999927">
		<tag k="name" v="Kutangen" />
		<tag k="natural" v="cape" />
		<tag k="ssr:stedsnr" v="828107" />
	</node>
	<node id="-135824" lat="60.2444166694" lon="10.5768083371">
		<tag k="name" v="Lensmannsvika" />
		<tag k="natural" v="bay" />
		<tag k="ssr:stedsnr" v="828105" />
	</node>
	<node id="-135823" lat="60.2471888882" lon="10.6015499948">
		<tag k="name" v="Gørrvomma" />
		<tag k="natural" v="water" />
		<tag k="ssr:stedsnr" v="828083" />
	</node>
	<node id="-135309" lat="60.2992012431" lon="10.6469385844">
		<tag k="alt_name" v="Elsjøen" />
		<tag k="name" v="Elgsjøen" />
		<tag k="natural" v="water" />
		<tag k="ssr:stedsnr" v="188915" />
		<tag k="water" v="lake" />
	</node>
	<node id="-135818" lat="60.2139305588" lon="10.5886499941">
		<tag k="name" v="Myssmørputten" />
		<tag k="natural" v="water" />
		<tag k="ssr:stedsnr" v="821236" />
		<tag k="water" v="pond" />
	</node>
	<node id="-135191" lat="60.3231277765" lon="10.7034694417">
		<tag k="name" v="Damtjernet" />
		<tag k="natural" v="water" />
		<tag k="ssr:stedsnr" v="100934" />
	</node>
	<node id="-135816" lat="60.3224055587" lon="10.5303472285">
		<tag k="name" v="Korsrudputten" />
		<tag k="natural" v="water" />
		<tag k="ssr:stedsnr" v="819083" />
		<tag k="water" v="pond" />
	</node>
	<node id="-135303" lat="60.2068527771" lon="10.7323527857">
		<tag k="name" v="Piperbekken" />
		<tag k="ssr:stedsnr" v="188860" />
		<tag k="waterway" v="stream" />
	</node>
	<node id="-135301" lat="60.281361113" lon="10.5326944493">
		<tag k="alt_name" v="Hallumstjernet" />
		<tag k="name" v="Hallomtjernet" />
		<tag k="natural" v="water" />
		<tag k="ssr:stedsnr" v="188846" />
	</node>
	<node id="-135287" lat="60.2173194433" lon="10.5481500008">
		<tag k="alt_name" v="Kollernputtene" />
		<tag k="loc_name" v="Kollerputta" />
		<tag k="name" v="Kollerputtane" />
		<tag k="natural" v="water" />
		<tag k="old_name" v="Kollernputta" />
		<tag k="ssr:stedsnr" v="187456" />
	</node>
	<node id="-135286" lat="60.2050694461" lon="10.6459111113">
		<tag k="name" v="Kalven" />
		<tag k="natural" v="water" />
		<tag k="ssr:stedsnr" v="187431" />
	</node>
	<node id="-135797" lat="60.27058078" lon="10.6229190492">
		<tag k="name" v="Omdalsvatnet" />
		<tag k="natural" v="water" />
		<tag k="ssr:stedsnr" v="795798" />
	</node>
	<node id="-135284" lat="60.2292306559" lon="10.5501019037">
		<tag k="fixme" v="multiple name tags, choose one and add the other to alt_name" />
		<tag k="name" v="Hosotjernet;Mosatjernet" />
		<tag k="natural" v="water" />
		<tag k="ssr:stedsnr" v="187365" />
	</node>
	<node id="-135795" lat="60.2367419949" lon="10.783533379">
		<tag k="alt_name" v="Nordre Fjellsjøen" />
		<tag k="name" v="Fjellsjøen" />
		<tag k="natural" v="water" />
		<tag k="ssr:stedsnr" v="794823" />
	</node>
	<node id="-135723" lat="60.2583599323" lon="10.8041154802">
		<tag k="alt_name" v="Snellingen, store;Storesnellingsvannet" />
		<tag k="name" v="Store Snellingen" />
		<tag k="natural" v="water" />
		<tag k="ssr:stedsnr" v="734409" />
		<tag k="water" v="lake" />
	</node>
	<node id="-135793" lat="60.170486114" lon="10.7544333299">
		<tag k="alt_name" v="Smellbakktjernet" />
		<tag k="name" v="Smellbakktjern" />
		<tag k="natural" v="water" />
		<tag k="ssr:stedsnr" v="794714" />
	</node>
	<node id="-135792" lat="60.2187138896" lon="10.6052555613">
		<tag k="alt_name" v="Grøntjernet" />
		<tag k="name" v="Grønntjernet" />
		<tag k="natural" v="water" />
		<tag k="ssr:stedsnr" v="794478" />
	</node>
	<node id="-135791" lat="60.2121305593" lon="10.552780563">
		<tag k="alt_name" v="Gudbrandstjern" />
		<tag k="name" v="Gudbrandstjernet" />
		<tag k="natural" v="water" />
		<tag k="ssr:stedsnr" v="794474" />
	</node>
	<node id="-135278" lat="60.1893416661" lon="10.5846583339">
		<tag k="name" v="Kaldputtangen" />
		<tag k="natural" v="cape" />
		<tag k="ssr:stedsnr" v="187047" />
	</node>
	<node id="-135357" lat="60.1934611126" lon="10.6512277767">
		<tag k="name" v="Sæterputten" />
		<tag k="natural" v="water" />
		<tag k="ssr:stedsnr" v="248048" />
	</node>
	<node id="-135788" lat="60.1961750027" lon="10.5879999993">
		<tag k="name" v="Hollendertangen" />
		<tag k="natural" v="cape" />
		<tag k="ssr:stedsnr" v="794440" />
	</node>
	<node id="-135275" lat="60.1761011097" lon="10.5687594477">
		<tag k="alt_name" v="Fyllingen, store" />
		<tag k="name" v="Store Fyllingen" />
		<tag k="natural" v="water" />
		<tag k="old_name" v="Storfyllingen;st Fidlingen" />
		<tag k="ssr:stedsnr" v="175026" />
		<tag k="water" v="lake" />
	</node>
	<node id="-135786" lat="60.2474694466" lon="10.6851833333">
		<tag k="name" v="Putten" />
		<tag k="natural" v="water" />
		<tag k="ssr:stedsnr" v="794365" />
	</node>
	<node id="-135372" lat="60.3112000001" lon="10.4722305601">
		<tag k="name" v="Orentjernet" />
		<tag k="natural" v="water" />
		<tag k="ssr:stedsnr" v="248941" />
	</node>
	<node id="-135784" lat="60.238027781" lon="10.5606333257">
		<tag k="alt_name" v="Assjøvika;Åsjøvika;Åssjøvika" />
		<tag k="name" v="Ålsjøvika" />
		<tag k="natural" v="bay" />
		<tag k="ssr:stedsnr" v="794354" />
	</node>
	<node id="-135783" lat="60.2410472227" lon="10.5678555644">
		<tag k="name" v="Skrikertangen" />
		<tag k="natural" v="cape" />
		<tag k="ssr:stedsnr" v="794352" />
	</node>
	<node id="-135406" lat="60.3040500033" lon="10.7663416636">
		<tag k="name" v="Himtjernsbekken" />
		<tag k="ssr:stedsnr" v="431328" />
		<tag k="waterway" v="stream" />
	</node>
	<node id="-135781" lat="60.1869402612" lon="10.714989545">
		<tag k="alt_name" v="Harestuvannet" />
		<tag k="name" v="Harestuvatnet" />
		<tag k="natural" v="water" />
		<tag k="ssr:stedsnr" v="794046" />
		<tag k="water" v="lake" />
	</node>
	<node id="-135782" lat="60.1526388893" lon="10.615327769">
		<tag k="alt_name" v="N. Branntjern" />
		<tag k="name" v="Nordre Branntjernet" />
		<tag k="natural" v="water" />
		<tag k="old_name" v="n Brandtj" />
		<tag k="ssr:stedsnr" v="794116" />
	</node>
	<node id="-135266" lat="60.3008277733" lon="10.7864416708">
		<tag k="name" v="Damtjernputten" />
		<tag k="natural" v="water" />
		<tag k="ssr:stedsnr" v="162500" />
	</node>
	<node id="-135265" lat="60.2533111126" lon="10.5945194527">
		<tag k="name" v="Bjønnputten" />
		<tag k="natural" v="water" />
		<tag k="ssr:stedsnr" v="162418" />
	</node>
	<node id="-135774" lat="60.2981611124" lon="10.5471472264">
		<tag k="name" v="Valborgtjernet" />
		<tag k="natural" v="water" />
		<tag k="ssr:stedsnr" v="774269" />
	</node>
	<node id="-135261" lat="60.1511083358" lon="10.642302779">
		<tag k="name" v="Guribrennputten" />
		<tag k="natural" v="water" />
		<tag k="ssr:stedsnr" v="162260" />
	</node>
	<node id="-135525" lat="60.2271305547" lon="10.7509999916">
		<tag k="name" v="Skotjernbekken" />
		<tag k="ssr:stedsnr" v="551839" />
		<tag k="waterway" v="stream" />
	</node>
	<node id="-135354" lat="60.16319722" lon="10.629488881">
		<tag k="name" v="Åstjernet" />
		<tag k="natural" v="water" />
		<tag k="ssr:stedsnr" v="248020" />
	</node>
	<node id="-135258" lat="60.292400076" lon="10.6727615595">
		<tag k="name" v="Harpetjernet" />
		<tag k="natural" v="water" />
		<tag k="ssr:stedsnr" v="160778" />
	</node>
	<node id="-135257" lat="60.2957055513" lon="10.6620583332">
		<tag k="name" v="Hyttaputten" />
		<tag k="natural" v="water" />
		<tag k="ssr:stedsnr" v="160779" />
	</node>
	<node id="-135256" lat="60.184063889" lon="10.7392861169">
		<tag k="name" v="Monsrudbekken" />
		<tag k="ssr:stedsnr" v="160663" />
		<tag k="waterway" v="stream" />
	</node>
	<node id="-135254" lat="60.2266583351" lon="10.7789694408">
		<tag k="alt_name" v="Lille Skotjernet" />
		<tag k="name" v="Vesle Skotjernet" />
		<tag k="natural" v="water" />
		<tag k="ssr:stedsnr" v="160489" />
	</node>
	<node id="-135353" lat="60.1540499962" lon="10.7106805534">
		<tag k="name" v="Fiskeløysa" />
		<tag k="natural" v="water" />
		<tag k="ssr:stedsnr" v="248012" />
	</node>
	<node id="-135269" lat="60.2492000022" lon="10.7200527816">
		<tag k="name" v="Tellatjernputten" />
		<tag k="natural" v="water" />
		<tag k="ssr:stedsnr" v="162580" />
	</node>
	<node id="-135251" lat="60.2165722267" lon="10.6716000024">
		<tag k="name" v="Kubbdammen" />
		<tag k="ssr:stedsnr" v="160350" />
		<tag k="waterway" v="dam" />
	</node>
	<node id="-135762" lat="60.3205027804" lon="10.6826055535">
		<tag k="name" v="Fløyta" />
		<tag k="natural" v="water" />
		<tag k="ssr:stedsnr" v="767956" />
	</node>
	<node id="-135779" lat="60.1882277786" lon="10.7029222208">
		<tag k="name" v="Kartrudvika" />
		<tag k="natural" v="bay" />
		<tag k="ssr:stedsnr" v="794034" />
	</node>
	<node id="-135760" lat="60.3044611118" lon="10.7114194464">
		<tag k="name" v="Svarttjernet" />
		<tag k="natural" v="water" />
		<tag k="ssr:stedsnr" v="767949" />
	</node>
	<node id="-135247" lat="60.240769446" lon="10.5584638844">
		<tag k="name" v="Skrikartangen" />
		<tag k="natural" v="cape" />
		<tag k="ssr:stedsnr" v="160124" />
	</node>
	<node id="-135246" lat="60.2436250046" lon="10.5519861029">
		<tag k="name" v="Furuøya" />
		<tag k="place" v="islet" />
		<tag k="ssr:stedsnr" v="160099" />
	</node>
	<node id="-135181" lat="60.2022249963" lon="10.642466665">
		<tag k="name" v="Lauvtangen" />
		<tag k="natural" v="cape" />
		<tag k="ssr:stedsnr" v="100463" />
	</node>
	<node id="-135369" lat="60.2170916675" lon="10.7233499917">
		<tag k="alt_name" v="Klemmaelva" />
		<tag k="name" v="Klemma" />
		<tag k="ssr:stedsnr" v="248863" />
		<tag k="waterway" v="stream" />
	</node>
	<node id="-135241" lat="60.1999888891" lon="10.656372229">
		<tag k="name" v="Fønnetjernet" />
		<tag k="natural" v="water" />
		<tag k="ssr:stedsnr" v="160430" />
	</node>
	<node id="-135240" lat="60.2040444475" lon="10.6530472195">
		<tag k="name" v="Fønnetjernet" />
		<tag k="natural" v="water" />
		<tag k="ssr:stedsnr" v="160427" />
	</node>
	<node id="-135749" lat="60.2666166633" lon="10.5507305479">
		<tag k="name" v="Holteputten" />
		<tag k="natural" v="water" />
		<tag k="ssr:stedsnr" v="767096" />
	</node>
	<node id="-135862" lat="60.2254277759" lon="10.6503249992">
		<tag k="alt_name" v="Myllelva" />
		<tag k="name" v="Myllselva" />
		<tag k="ssr:stedsnr" v="855476" />
		<tag k="waterway" v="river" />
	</node>
	<node id="-135744" lat="60.1777472219" lon="10.6805805569">
		<tag k="name" v="Skillingsoset" />
		<tag k="natural" v="bay" />
		<tag k="ssr:stedsnr" v="767013" />
	</node>
	<node id="-135218" lat="60.3130861101" lon="10.7313361152">
		<tag k="name" v="Øytjern" />
		<tag k="natural" v="water" />
		<tag k="ssr:stedsnr" v="127332" />
	</node>
	<node id="-135739" lat="60.3284308226" lon="10.7028606536">
		<tag k="alt_name" v="Skjelbreia" />
		<tag k="name" v="Skjellbreia" />
		<tag k="natural" v="water" />
		<tag k="ssr:stedsnr" v="734954" />
	</node>
	<node id="-135225" lat="60.3080388914" lon="10.7105250072">
		<tag k="name" v="Aklangen" />
		<tag k="natural" v="water" />
		<tag k="ssr:stedsnr" v="127892" />
	</node>
	<node id="-135222" lat="60.2065583344" lon="10.577624995">
		<tag k="alt_name" v="Belgjen" />
		<tag k="name" v="Belgen" />
		<tag k="natural" v="bay" />
		<tag k="ssr:stedsnr" v="127480" />
	</node>
	<node id="-135285" lat="60.1966138891" lon="10.6207194506">
		<tag k="alt_name" v="Karusputten" />
		<tag k="name" v="Karussputten" />
		<tag k="natural" v="water" />
		<tag k="ssr:stedsnr" v="187430" />
	</node>
	<node id="-135219" lat="60.2506871217" lon="10.5750350909">
		<tag k="alt_name" v="Viggern" />
		<tag k="name" v="Viggeren" />
		<tag k="natural" v="water" />
		<tag k="ssr:stedsnr" v="127450" />
	</node>
	<node id="-135730" lat="60.2888194428" lon="10.5225916755">
		<tag k="alt_name" v="Dælstjernet" />
		<tag k="name" v="Dalstjernet" />
		<tag k="natural" v="water" />
		<tag k="ssr:stedsnr" v="734819" />
	</node>
	<node id="-135336" lat="60.2570694436" lon="10.7311777833">
		<tag k="name" v="Lomsundet" />
		<tag k="natural" v="strait" />
		<tag k="ssr:stedsnr" v="223577" />
	</node>
	<node id="-135215" lat="60.190580554" lon="10.7441500003">
		<tag k="alt_name" v="Monsrudtjern, s" />
		<tag k="name" v="Søndre Monsrudtjernet" />
		<tag k="natural" v="water" />
		<tag k="ssr:stedsnr" v="126736" />
	</node>
	<node id="-135213" lat="60.1996388906" lon="10.7605555564">
		<tag k="alt_name" v="Langpipern" />
		<tag k="name" v="Langpiperen" />
		<tag k="natural" v="water" />
		<tag k="ssr:stedsnr" v="126752" />
	</node>
	<node id="-135212" lat="60.2236555582" lon="10.6303916632">
		<tag k="alt_name" v="Svarttjernsbekken" />
		<tag k="name" v="Svartbekken" />
		<tag k="ssr:stedsnr" v="126495" />
		<tag k="waterway" v="stream" />
	</node>
	<node id="-134834" lat="60.17350278" lon="10.6031583424">
		<tag k="name" v="Grøntjernet" />
		<tag k="natural" v="water" />
		<tag k="ssr:stedsnr" v="308037" />
	</node>
	<node id="-135210" lat="60.2287250036" lon="10.6114888921">
		<tag k="alt_name" v="Fålåputten" />
		<tag k="name" v="Folaputten" />
		<tag k="natural" v="water" />
		<tag k="ssr:stedsnr" v="126385" />
	</node>
	<node id="-135209" lat="60.2413416647" lon="10.6322138834">
		<tag k="alt_name" v="Bjørneputten" />
		<tag k="name" v="Bjønnputten" />
		<tag k="natural" v="water" />
		<tag k="ssr:stedsnr" v="126380" />
	</node>
	<node id="-135720" lat="60.1382138872" lon="10.6474305638">
		<tag k="name" v="Sandungskalven" />
		<tag k="natural" v="water" />
		<tag k="ssr:stedsnr" v="734106" />
	</node>
	<node id="-135260" lat="60.3224388845" lon="10.7165361122">
		<tag k="name" v="Grøvika" />
		<tag k="natural" v="bay" />
		<tag k="ssr:stedsnr" v="160940" />
	</node>
	<node id="-135206" lat="60.1623666706" lon="10.6435361109">
		<tag k="name" v="Torsteinsvika" />
		<tag k="natural" v="bay" />
		<tag k="ssr:stedsnr" v="124037" />
	</node>
	<node id="-135455" lat="60.2309722179" lon="10.6333944463">
		<tag k="name" v="Storfløyta" />
		<tag k="natural" v="water" />
		<tag k="ssr:stedsnr" v="490378" />
	</node>
	<node id="-135204" lat="60.1633249961" lon="10.5871999997">
		<tag k="alt_name" v="Skjortjernet, nedre" />
		<tag k="name" v="Nedre Skjortjernet" />
		<tag k="natural" v="water" />
		<tag k="ssr:stedsnr" v="114030" />
	</node>
	<node id="-135715" lat="60.1809222181" lon="10.637722228">
		<tag k="name" v="Almedalsputten" />
		<tag k="natural" v="water" />
		<tag k="ssr:stedsnr" v="733054" />
	</node>
	<node id="-135714" lat="60.185291682" lon="10.6320945816">
		<tag k="name" v="Svartvatn" />
		<tag k="natural" v="water" />
		<tag k="ssr:stedsnr" v="733047" />
	</node>
	<node id="-135713" lat="60.1722389891" lon="10.6914744836">
		<tag k="alt_name" v="Skillingen" />
		<tag k="name" v="Store Skillingen" />
		<tag k="natural" v="water" />
		<tag k="ssr:stedsnr" v="733032" />
		<tag k="water" v="lake" />
	</node>
	<node id="-135712" lat="60.1559305595" lon="10.7030694505">
		<tag k="alt_name" v="Bjørneputten" />
		<tag k="name" v="Bjønnputten" />
		<tag k="natural" v="water" />
		<tag k="ssr:stedsnr" v="733015" />
	</node>
	<node id="-135198" lat="60.2755861153" lon="10.7300805628">
		<tag k="name" v="Brakaltjernet" />
		<tag k="natural" v="water" />
		<tag k="ssr:stedsnr" v="101537" />
	</node>
	<node id="-135196" lat="60.2975222206" lon="10.8062000076">
		<tag k="name" v="Karpeputten" />
		<tag k="natural" v="water" />
		<tag k="ssr:stedsnr" v="101474" />
	</node>
	<node id="-135707" lat="60.2573833311" lon="10.7283944488">
		<tag k="name" v="Furuholmen" />
		<tag k="place" v="islet" />
		<tag k="ssr:stedsnr" v="708562" />
	</node>
	<node id="-135706" lat="60.262177781" lon="10.7272055603">
		<tag k="name" v="Svartsidalsputten" />
		<tag k="natural" v="water" />
		<tag k="ssr:stedsnr" v="708560" />
	</node>
	<node id="-135250" lat="60.2297277793" lon="10.6904222256">
		<tag k="name" v="Dammen" />
		<tag k="ssr:stedsnr" v="160329" />
		<tag k="waterway" v="dam" />
	</node>
	<node id="-135192" lat="60.2011166672" lon="10.705505555">
		<tag k="name" v="Oset" />
		<tag k="natural" v="bay" />
		<tag k="ssr:stedsnr" v="101255" />
	</node>
	<node id="-134916" lat="60.256350002" lon="10.7936277868">
		<tag k="name" v="Tranbærtjern" />
		<tag k="natural" v="water" />
		<tag k="ssr:stedsnr" v="370404" />
	</node>
	<node id="-135513" lat="60.3141000041" lon="10.7186527805">
		<tag k="name" v="Hesterær" />
		<tag k="natural" v="water" />
		<tag k="ssr:stedsnr" v="537911" />
	</node>
	<node id="-135188" lat="60.291603757" lon="10.6676675484">
		<tag k="name" v="Gørrvomma" />
		<tag k="natural" v="water" />
		<tag k="ssr:stedsnr" v="100769" />
	</node>
	<node id="-135187" lat="60.2683027755" lon="10.6086805529">
		<tag k="name" v="Møllåa" />
		<tag k="ssr:stedsnr" v="100766" />
		<tag k="waterway" v="stream" />
	</node>
	<node id="-135427" lat="60.1966916705" lon="10.7030722136">
		<tag k="name" v="Oseputten" />
		<tag k="natural" v="water" />
		<tag k="ssr:stedsnr" v="464024" />
	</node>
	<node id="-135352" lat="60.1564138883" lon="10.6252611193">
		<tag k="alt_name" v="Store Kalvetjernet" />
		<tag k="name" v="Kalvetjernet" />
		<tag k="natural" v="water" />
		<tag k="ssr:stedsnr" v="248013" />
	</node>
	<node id="-135695" lat="60.2701472198" lon="10.7035166705">
		<tag k="name" v="Nordre Munkerudstjernet" />
		<tag k="natural" v="water" />
		<tag k="ssr:stedsnr" v="708263" />
	</node>
	<node id="-135182" lat="60.2018111077" lon="10.639113882">
		<tag k="name" v="Setervika" />
		<tag k="natural" v="bay" />
		<tag k="ssr:stedsnr" v="100468" />
	</node>
	<node id="-135886" lat="60.2426869854" lon="10.5667751562">
		<tag k="name" v="Mylla" />
		<tag k="natural" v="water" />
		<tag k="ssr:stedsnr" v="915355" />
		<tag k="water" v="lake" />
	</node>
	<node id="-135180" lat="60.1989361089" lon="10.7070750034">
		<tag k="name" v="Fiskeskjær" />
		<tag k="natural" v="cape" />
		<tag k="ssr:stedsnr" v="100395" />
	</node>
	<node id="-135691" lat="60.1991611078" lon="10.6393916671">
		<tag k="name" v="Ketiltangen" />
		<tag k="natural" v="cape" />
		<tag k="ssr:stedsnr" v="706455" />
	</node>
	<node id="-135511" lat="60.24304444" lon="10.7630916706">
		<tag k="name" v="Gulliksrudputten" />
		<tag k="natural" v="water" />
		<tag k="ssr:stedsnr" v="526579" />
	</node>
	<node id="-135176" lat="60.2273722236" lon="10.6142194516">
		<tag k="name" v="Fålåputtbekken" />
		<tag k="ssr:stedsnr" v="100259" />
		<tag k="waterway" v="stream" />
	</node>
	<node id="-135425" lat="60.2462166696" lon="10.5514861067">
		<tag k="name" v="Brattholtvika" />
		<tag k="natural" v="bay" />
		<tag k="ssr:stedsnr" v="463091" />
	</node>
	<node id="-135279" lat="60.1504888869" lon="10.5927083255">
		<tag k="name" v="Leveringsvika" />
		<tag k="natural" v="bay" />
		<tag k="ssr:stedsnr" v="187121" />
	</node>
	<node id="-135851" lat="60.1844138908" lon="10.6786861152">
		<tag k="name" v="Lunnerputten" />
		<tag k="natural" v="water" />
		<tag k="ssr:stedsnr" v="855050" />
	</node>
</osm>
