<?xml version="1.0" encoding="UTF-8"?>
<osm generator="osmapis" version="0.6">
	<node id="-333824" lat="58.1155833319" lon="7.9583722216">
		<tag k="name" v="Flødemelka" />
		<tag k="natural" v="wetland" />
		<tag k="ssr:stedsnr" v="835437" />
	</node>
	<node id="-333820" lat="58.2089805543" lon="8.03876667164">
		<tag k="name" v="Myra" />
		<tag k="natural" v="wetland" />
		<tag k="ssr:stedsnr" v="835382" />
	</node>
	<node id="-331769" lat="58.218797219" lon="8.10715555326">
		<tag k="name" v="Vollene" />
		<tag k="place" v="locality" />
		<tag k="ssr:stedsnr" v="45061" />
	</node>
	<node id="-333801" lat="58.1739027765" lon="7.96040277213">
		<tag k="name" v="Migamyr" />
		<tag k="natural" v="wetland" />
		<tag k="ssr:stedsnr" v="834936" />
	</node>
	<node id="-333800" lat="58.1748250045" lon="7.97422777957">
		<tag k="name" v="Urane" />
		<tag k="natural" v="scree" />
		<tag k="ssr:stedsnr" v="834935" />
	</node>
	<node id="-333796" lat="58.1700972252" lon="8.13172222535">
		<tag k="name" v="Øygardskjerrane" />
		<tag k="natural" v="wetland" />
		<tag k="ssr:stedsnr" v="834886" />
	</node>
	<node id="-331743" lat="58.1994972251" lon="7.95814166669">
		<tag k="name" v="Storemyr" />
		<tag k="natural" v="wetland" />
		<tag k="ssr:stedsnr" v="28345" />
	</node>
	<node id="-331741" lat="58.27449167" lon="8.08990554982">
		<tag k="name" v="Perslåtta" />
		<tag k="place" v="locality" />
		<tag k="ssr:stedsnr" v="28330" />
	</node>
	<node id="-331739" lat="58.2680833304" lon="8.13324444985">
		<tag k="alt_name" v="Pinesdalsmyr" />
		<tag k="name" v="Pinedalsmyr" />
		<tag k="natural" v="wetland" />
		<tag k="ssr:stedsnr" v="28302" />
	</node>
	<node id="-331738" lat="58.2702277778" lon="8.13033332849">
		<tag k="name" v="Grøftemyr" />
		<tag k="natural" v="wetland" />
		<tag k="ssr:stedsnr" v="28300" />
	</node>
	<node id="-331734" lat="58.2704944445" lon="8.1649916633">
		<tag k="name" v="Krogen" />
		<tag k="natural" v="wetland" />
		<tag k="ssr:stedsnr" v="28280" />
	</node>
	<node id="-331732" lat="58.2408138858" lon="8.07431388746">
		<tag k="name" v="Ormestadmyr" />
		<tag k="natural" v="wetland" />
		<tag k="ssr:stedsnr" v="28257" />
	</node>
	<node id="-333776" lat="58.2178500011" lon="8.11838889082">
		<tag k="name" v="Fagermoen" />
		<tag k="place" v="locality" />
		<tag k="ssr:stedsnr" v="834055" />
	</node>
	<node id="-331724" lat="58.2470388884" lon="8.04236945281">
		<tag k="name" v="Posmyr" />
		<tag k="natural" v="wetland" />
		<tag k="ssr:stedsnr" v="28079" />
	</node>
	<node id="-331722" lat="58.2038499974" lon="7.96193610827">
		<tag k="name" v="Korrekjerran" />
		<tag k="natural" v="wetland" />
		<tag k="ssr:stedsnr" v="28352" />
	</node>
	<node id="-331719" lat="58.2422138857" lon="8.11573889085">
		<tag k="name" v="Tranlemyr" />
		<tag k="natural" v="wetland" />
		<tag k="ssr:stedsnr" v="28240" />
	</node>
	<node id="-331714" lat="58.218861111" lon="7.87986944333">
		<tag k="name" v="Stuemyr" />
		<tag k="natural" v="wetland" />
		<tag k="ssr:stedsnr" v="28123" />
	</node>
	<node id="-331713" lat="58.2219277803" lon="7.87038055396">
		<tag k="name" v="Tvillingmyr" />
		<tag k="natural" v="wetland" />
		<tag k="ssr:stedsnr" v="28118" />
	</node>
	<node id="-333759" lat="58.2198444406" lon="8.17303889583">
		<tag k="name" v="Langemyr" />
		<tag k="natural" v="wetland" />
		<tag k="ssr:stedsnr" v="817405" />
	</node>
	<node id="-331708" lat="58.1953944417" lon="7.86811389406">
		<tag k="name" v="Kjøbmannsheimyra" />
		<tag k="natural" v="wetland" />
		<tag k="ssr:stedsnr" v="25912" />
	</node>
	<node id="-333753" lat="58.2287722181" lon="8.00215554783">
		<tag k="name" v="Åses slåtter" />
		<tag k="natural" v="wetland" />
		<tag k="ssr:stedsnr" v="817361" />
	</node>
	<node id="-333750" lat="58.2000916684" lon="7.98027222352">
		<tag k="name" v="Røyrmyr" />
		<tag k="natural" v="wetland" />
		<tag k="ssr:stedsnr" v="817332" />
	</node>
	<node id="-333747" lat="58.270213891" lon="8.12416388395">
		<tag k="name" v="Krossmyr" />
		<tag k="natural" v="wetland" />
		<tag k="ssr:stedsnr" v="817287" />
	</node>
	<node id="-331698" lat="58.2144194448" lon="7.9049083389">
		<tag k="name" v="Langemyr" />
		<tag k="natural" v="wetland" />
		<tag k="ssr:stedsnr" v="24044" />
	</node>
	<node id="-333744" lat="58.2467444409" lon="8.10194999871">
		<tag k="alt_name" v="Kjørjedalsmyr" />
		<tag k="name" v="Kjørgildalsmyr" />
		<tag k="natural" v="wetland" />
		<tag k="ssr:stedsnr" v="817260" />
	</node>
	<node id="-333743" lat="58.2581055585" lon="8.09332222253">
		<tag k="name" v="Byttingsmyr" />
		<tag k="natural" v="wetland" />
		<tag k="ssr:stedsnr" v="817254" />
	</node>
	<node id="-331693" lat="58.1909111143" lon="7.89701667037">
		<tag k="name" v="Bjelkekjerr" />
		<tag k="natural" v="wetland" />
		<tag k="ssr:stedsnr" v="24014" />
	</node>
	<node id="-333736" lat="58.2240194424" lon="8.01286111678">
		<tag k="name" v="Bjørkekjerr" />
		<tag k="natural" v="wetland" />
		<tag k="ssr:stedsnr" v="817184" />
	</node>
	<node id="-333735" lat="58.2272861084" lon="8.01468889129">
		<tag k="name" v="Hessmyr" />
		<tag k="natural" v="wetland" />
		<tag k="ssr:stedsnr" v="817183" />
	</node>
	<node id="-333731" lat="58.2355083297" lon="7.88067222488">
		<tag k="name" v="Drogmyr" />
		<tag k="natural" v="wetland" />
		<tag k="ssr:stedsnr" v="817138" />
	</node>
	<node id="-333726" lat="58.2440555518" lon="7.9923638851">
		<tag k="name" v="Ryttermyr" />
		<tag k="natural" v="wetland" />
		<tag k="ssr:stedsnr" v="817080" />
	</node>
	<node id="-333723" lat="58.1753416668" lon="7.91168333186">
		<tag k="name" v="Redjemyr" />
		<tag k="natural" v="wetland" />
		<tag k="ssr:stedsnr" v="817008" />
	</node>
	<node id="-333720" lat="58.1945138916" lon="7.87333054925">
		<tag k="name" v="Ramseheimyra" />
		<tag k="natural" v="wetland" />
		<tag k="ssr:stedsnr" v="814918" />
	</node>
	<node id="-333712" lat="58.195225002" lon="7.86193611775">
		<tag k="name" v="Sirismyr" />
		<tag k="natural" v="wetland" />
		<tag k="ssr:stedsnr" v="813053" />
	</node>
	<node id="-332098" lat="58.2004333375" lon="7.90296389415">
		<tag k="name" v="Vassmyr" />
		<tag k="natural" v="wetland" />
		<tag k="ssr:stedsnr" v="145027" />
	</node>
	<node id="-331644" lat="58.2541406977" lon="8.16032697181">
		<tag k="name" v="Drangsholtmyra" />
		<tag k="place" v="locality" />
		<tag k="ssr:stedsnr" v="943993" />
	</node>
	<node id="-333668" lat="58.1954027811" lon="7.91797500574">
		<tag k="name" v="Godestø" />
		<tag k="natural" v="wetland" />
		<tag k="ssr:stedsnr" v="774896" />
	</node>
	<node id="-333658" lat="58.1136333304" lon="7.90631667237">
		<tag k="name" v="Bjorstemsmyra" />
		<tag k="natural" v="wetland" />
		<tag k="ssr:stedsnr" v="774605" />
	</node>
	<node id="-333652" lat="58.2134305549" lon="7.91466666692">
		<tag k="name" v="Stokkemyr" />
		<tag k="natural" v="wetland" />
		<tag k="ssr:stedsnr" v="774450" />
	</node>
	<node id="-333648" lat="58.1866416651" lon="8.09742778127">
		<tag k="name" v="Bjørnemyr" />
		<tag k="natural" v="wetland" />
		<tag k="ssr:stedsnr" v="774390" />
	</node>
	<node id="-333646" lat="58.1910666654" lon="8.1006638951">
		<tag k="name" v="Kringlemyr" />
		<tag k="natural" v="wetland" />
		<tag k="ssr:stedsnr" v="774388" />
	</node>
	<node id="-333637" lat="58.2160499994" lon="8.13115556277">
		<tag k="name" v="Beresmyr" />
		<tag k="natural" v="wetland" />
		<tag k="ssr:stedsnr" v="774352" />
	</node>
	<node id="-333636" lat="58.2313888891" lon="8.10793055704">
		<tag k="name" v="Suggemyr" />
		<tag k="natural" v="wetland" />
		<tag k="ssr:stedsnr" v="774351" />
	</node>
	<node id="-333630" lat="58.2529222243" lon="8.03619444197">
		<tag k="name" v="Kyrkleivslåttene" />
		<tag k="place" v="locality" />
		<tag k="ssr:stedsnr" v="774233" />
	</node>
	<node id="-333621" lat="58.1924444487" lon="7.92182221474">
		<tag k="name" v="Kalvekjerr" />
		<tag k="natural" v="wetland" />
		<tag k="ssr:stedsnr" v="773950" />
	</node>
	<node id="-333620" lat="58.175886109" lon="7.97095833307">
		<tag k="name" v="Brudesteinen" />
		<tag k="natural" v="stone" />
		<tag k="ssr:stedsnr" v="773935" />
	</node>
	<node id="-333619" lat="58.1242527789" lon="7.90653054863">
		<tag k="name" v="Lamannsmyra" />
		<tag k="natural" v="wetland" />
		<tag k="ssr:stedsnr" v="773922" />
	</node>
	<node id="-333613" lat="58.1940194471" lon="8.04969444157">
		<tag k="landuse" v="meadow" />
		<tag k="name" v="Jernesvolden" />
		<tag k="ssr:stedsnr" v="773644" />
	</node>
	<node id="-333611" lat="58.1539583351" lon="8.1413333404">
		<tag k="name" v="Blåmyra" />
		<tag k="natural" v="wetland" />
		<tag k="ssr:stedsnr" v="773605" />
	</node>
	<node id="-333602" lat="58.2274944473" lon="8.03173888047">
		<tag k="name" v="Kalvehaven" />
		<tag k="place" v="locality" />
		<tag k="ssr:stedsnr" v="773139" />
	</node>
	<node id="-333601" lat="58.2172499994" lon="8.018561106">
		<tag k="name" v="Solmyr" />
		<tag k="natural" v="wetland" />
		<tag k="ssr:stedsnr" v="773127" />
	</node>
	<node id="-331551" lat="58.2224444428" lon="8.00155277349">
		<tag k="name" v="Øygarden" />
		<tag k="place" v="locality" />
		<tag k="ssr:stedsnr" v="896882" />
	</node>
	<node id="-333597" lat="58.234763887" lon="8.10283610886">
		<tag k="landuse" v="meadow" />
		<tag k="name" v="Karlseng" />
		<tag k="ssr:stedsnr" v="773092" />
	</node>
	<node id="-333594" lat="58.2257722243" lon="8.13279445184">
		<tag k="name" v="Perskjerr" />
		<tag k="natural" v="wetland" />
		<tag k="ssr:stedsnr" v="773072" />
	</node>
	<node id="-333593" lat="58.2213805572" lon="8.1201666705">
		<tag k="name" v="Børresmoen" />
		<tag k="place" v="locality" />
		<tag k="ssr:stedsnr" v="773058" />
	</node>
	<node id="-331541" lat="58.0858777749" lon="8.00597222721">
		<tag k="name" v="Storemyra" />
		<tag k="natural" v="wetland" />
		<tag k="ssr:stedsnr" v="896601" />
	</node>
	<node id="-331533" lat="58.2406472262" lon="8.11863611139">
		<tag k="name" v="Tommåsmyr" />
		<tag k="natural" v="wetland" />
		<tag k="ssr:stedsnr" v="896383" />
	</node>
	<node id="-331528" lat="58.0721944468" lon="7.98994445059">
		<tag k="name" v="Hallekjerret" />
		<tag k="natural" v="wetland" />
		<tag k="ssr:stedsnr" v="896349" />
	</node>
	<node id="-331525" lat="58.2312305582" lon="8.10295832813">
		<tag k="name" v="Skreddermyr" />
		<tag k="natural" v="wetland" />
		<tag k="ssr:stedsnr" v="896329" />
	</node>
	<node id="-333571" lat="58.2321277816" lon="8.09909167003">
		<tag k="name" v="Pallemyr" />
		<tag k="natural" v="wetland" />
		<tag k="ssr:stedsnr" v="756447" />
	</node>
	<node id="-333570" lat="58.2331888911" lon="8.099083336">
		<tag k="name" v="Hestemyr" />
		<tag k="natural" v="wetland" />
		<tag k="ssr:stedsnr" v="756446" />
	</node>
	<node id="-333567" lat="58.2308027761" lon="8.18673055355">
		<tag k="name" v="Krossemyrane" />
		<tag k="natural" v="wetland" />
		<tag k="ssr:stedsnr" v="756384" />
	</node>
	<node id="-333565" lat="58.2062777806" lon="8.00170555074">
		<tag k="name" v="Grostølmyrane" />
		<tag k="natural" v="wetland" />
		<tag k="ssr:stedsnr" v="756375" />
	</node>
	<node id="-333560" lat="58.1997583336" lon="7.97259166643">
		<tag k="name" v="Bjorstemyr" />
		<tag k="natural" v="wetland" />
		<tag k="ssr:stedsnr" v="756329" />
	</node>
	<node id="-333556" lat="58.2544500038" lon="8.07720832915">
		<tag k="name" v="Vassbotnmyr" />
		<tag k="natural" v="wetland" />
		<tag k="ssr:stedsnr" v="756244" />
	</node>
	<node id="-333545" lat="58.2653138889" lon="8.05457499589">
		<tag k="name" v="Hellingsmyr" />
		<tag k="natural" v="wetland" />
		<tag k="ssr:stedsnr" v="756159" />
	</node>
	<node id="-333542" lat="58.2150638873" lon="8.07591667137">
		<tag k="name" v="Brennevinskjerr" />
		<tag k="natural" v="wetland" />
		<tag k="ssr:stedsnr" v="756142" />
	</node>
	<node id="-333536" lat="58.2285999966" lon="7.8580499943">
		<tag k="name" v="Løemyr" />
		<tag k="natural" v="wetland" />
		<tag k="ssr:stedsnr" v="756103" />
	</node>
	<node id="-333531" lat="58.2454472216" lon="7.98924445269">
		<tag k="name" v="Surtemyr" />
		<tag k="natural" v="wetland" />
		<tag k="ssr:stedsnr" v="756061" />
	</node>
	<node id="-333526" lat="58.2089444449" lon="7.85048055735">
		<tag k="name" v="Granekjerret" />
		<tag k="natural" v="wetland" />
		<tag k="ssr:stedsnr" v="752907" />
	</node>
	<node id="-331477" lat="58.2096000009" lon="8.0807972155">
		<tag k="name" v="Myra" />
		<tag k="natural" v="wetland" />
		<tag k="ssr:stedsnr" v="896503" />
	</node>
	<node id="-333521" lat="58.1998694474" lon="7.91417222216">
		<tag k="name" v="Fuglekjerrane" />
		<tag k="natural" v="wetland" />
		<tag k="ssr:stedsnr" v="752038" />
	</node>
	<node id="-333519" lat="58.1850694464" lon="7.88501945245">
		<tag k="name" v="Lellanesmyr" />
		<tag k="natural" v="wetland" />
		<tag k="ssr:stedsnr" v="752026" />
	</node>
	<node id="-331468" lat="58.2206166687" lon="8.11759167449">
		<tag k="name" v="Olsegra" />
		<tag k="place" v="locality" />
		<tag k="ssr:stedsnr" v="895048" />
	</node>
	<node id="-333513" lat="58.2558416684" lon="8.12128610509">
		<tag k="name" v="Storemyr" />
		<tag k="natural" v="wetland" />
		<tag k="ssr:stedsnr" v="728670" />
	</node>
	<node id="-331443" lat="58.1929305601" lon="7.95477778484">
		<tag k="name" v="Øygarden" />
		<tag k="place" v="locality" />
		<tag k="ssr:stedsnr" v="410853" />
	</node>
	<node id="-331434" lat="58.0864583338" lon="8.00430278498">
		<tag k="name" v="Knudsmyr" />
		<tag k="natural" v="wetland" />
		<tag k="ssr:stedsnr" v="410569" />
	</node>
	<node id="-331429" lat="58.149974998" lon="7.92977222112">
		<tag k="name" v="Revemyr" />
		<tag k="natural" v="wetland" />
		<tag k="ssr:stedsnr" v="410496" />
	</node>
	<node id="-331419" lat="58.1812194479" lon="8.12386389295">
		<tag k="name" v="Skjørningsmyrer" />
		<tag k="natural" v="wetland" />
		<tag k="ssr:stedsnr" v="410353" />
	</node>
	<node id="-331418" lat="58.0692972235" lon="7.98880833004">
		<tag k="name" v="Myra" />
		<tag k="natural" v="wetland" />
		<tag k="ssr:stedsnr" v="410350" />
	</node>
	<node id="-331417" lat="58.2070138859" lon="8.12538610742">
		<tag k="name" v="Lille Fænmyr" />
		<tag k="natural" v="wetland" />
		<tag k="ssr:stedsnr" v="410347" />
	</node>
	<node id="-333453" lat="58.1950138915" lon="7.98146666793">
		<tag k="name" v="Gamleøygard" />
		<tag k="natural" v="wetland" />
		<tag k="ssr:stedsnr" v="713841" />
	</node>
	<node id="-333450" lat="58.192249996" lon="8.05126389703">
		<tag k="landuse" v="meadow" />
		<tag k="name" v="Monen" />
		<tag k="ssr:stedsnr" v="713715" />
	</node>
	<node id="-331401" lat="58.1278361105" lon="7.9149888892">
		<tag k="name" v="Stålslått" />
		<tag k="natural" v="wetland" />
		<tag k="ssr:stedsnr" v="409942" />
	</node>
	<node id="-331400" lat="58.2213111079" lon="8.10716667439">
		<tag k="name" v="Borgemyr" />
		<tag k="natural" v="wetland" />
		<tag k="ssr:stedsnr" v="409881" />
	</node>
	<node id="-333438" lat="58.1489027791" lon="8.12123333137">
		<tag k="landuse" v="meadow" />
		<tag k="name" v="Kleivane" />
		<tag k="ssr:stedsnr" v="713620" />
	</node>
	<node id="-331387" lat="58.0873027777" lon="7.99006388633">
		<tag k="name" v="Hattesteinen" />
		<tag k="natural" v="stone" />
		<tag k="ssr:stedsnr" v="409464" />
	</node>
	<node id="-331378" lat="58.2372722207" lon="8.04371945158">
		<tag k="name" v="Einerhaven" />
		<tag k="place" v="locality" />
		<tag k="ssr:stedsnr" v="409159" />
	</node>
	<node id="-331376" lat="58.2379805538" lon="8.04851389689">
		<tag k="name" v="Lihaven" />
		<tag k="place" v="locality" />
		<tag k="ssr:stedsnr" v="409154" />
	</node>
	<node id="-331374" lat="58.222816668" lon="8.02487499828">
		<tag k="name" v="Fuglefænet" />
		<tag k="natural" v="wetland" />
		<tag k="ssr:stedsnr" v="409141" />
	</node>
	<node id="-331372" lat="58.2658388865" lon="8.16381667388">
		<tag k="name" v="Vollene" />
		<tag k="place" v="locality" />
		<tag k="ssr:stedsnr" v="409132" />
	</node>
	<node id="-333418" lat="58.1543277747" lon="7.90286389132">
		<tag k="name" v="Liljeholmyra" />
		<tag k="natural" v="wetland" />
		<tag k="ssr:stedsnr" v="713417" />
	</node>
	<node id="-331363" lat="58.2203138852" lon="8.09318888578">
		<tag k="name" v="Gjessmoen" />
		<tag k="place" v="locality" />
		<tag k="ssr:stedsnr" v="409068" />
	</node>
	<node id="-331361" lat="58.2779749984" lon="8.07598333957">
		<tag k="landuse" v="quarry" />
		<tag k="name" v="Gruene" />
		<tag k="ssr:stedsnr" v="409004" />
	</node>
	<node id="-331348" lat="58.2232666624" lon="8.06535278136">
		<tag k="name" v="Pinnemyr" />
		<tag k="natural" v="wetland" />
		<tag k="ssr:stedsnr" v="392477" />
	</node>
	<node id="-331345" lat="58.217641665" lon="8.17484721503">
		<tag k="name" v="Øygardsmyr" />
		<tag k="natural" v="wetland" />
		<tag k="ssr:stedsnr" v="392418" />
	</node>
	<node id="-331338" lat="58.202405559" lon="7.96471944365">
		<tag k="alt_name" v="Nilsemyr" />
		<tag k="name" v="Nilsesmyr" />
		<tag k="natural" v="wetland" />
		<tag k="ssr:stedsnr" v="392356" />
	</node>
	<node id="-331335" lat="58.233547219" lon="8.16177500213">
		<tag k="name" v="Kringlemyr" />
		<tag k="natural" v="wetland" />
		<tag k="ssr:stedsnr" v="392333" />
	</node>
	<node id="-333374" lat="58.2443138899" lon="8.1751083317">
		<tag k="name" v="Porskjerr" />
		<tag k="natural" v="wetland" />
		<tag k="ssr:stedsnr" v="696372" />
	</node>
	<node id="-333371" lat="58.2644555519" lon="8.08466388684">
		<tag k="name" v="Stølekjerrene" />
		<tag k="natural" v="wetland" />
		<tag k="ssr:stedsnr" v="696274" />
	</node>
	<node id="-331322" lat="58.2347305596" lon="8.04191389309">
		<tag k="name" v="Heiehaven" />
		<tag k="natural" v="wetland" />
		<tag k="ssr:stedsnr" v="392188" />
	</node>
	<node id="-331321" lat="58.230249998" lon="7.85616666311">
		<tag k="name" v="Persmyr" />
		<tag k="natural" v="wetland" />
		<tag k="ssr:stedsnr" v="392133" />
	</node>
	<node id="-333367" lat="58.2685750023" lon="8.08886388432">
		<tag k="name" v="Kringlemyr" />
		<tag k="natural" v="wetland" />
		<tag k="ssr:stedsnr" v="696319" />
	</node>
	<node id="-333363" lat="58.2533138872" lon="8.09929722398">
		<tag k="name" v="Langemyr" />
		<tag k="natural" v="wetland" />
		<tag k="ssr:stedsnr" v="695272" />
	</node>
	<node id="-331309" lat="58.2091305537" lon="7.88797777007">
		<tag k="name" v="Buheimyra" />
		<tag k="natural" v="wetland" />
		<tag k="ssr:stedsnr" v="388887" />
	</node>
	<node id="-331308" lat="58.1662944424" lon="7.90429166031">
		<tag k="name" v="Storemyr" />
		<tag k="natural" v="wetland" />
		<tag k="ssr:stedsnr" v="388881" />
	</node>
	<node id="-331306" lat="58.1625805537" lon="7.9364777771">
		<tag k="name" v="Mellommyra" />
		<tag k="natural" v="wetland" />
		<tag k="ssr:stedsnr" v="388875" />
	</node>
	<node id="-331301" lat="58.1979888845" lon="7.94539445193">
		<tag k="name" v="Svinekjerr" />
		<tag k="natural" v="wetland" />
		<tag k="ssr:stedsnr" v="388035" />
	</node>
	<node id="-333347" lat="58.2420444473" lon="7.89994444235">
		<tag k="name" v="Kattetjønnmyr" />
		<tag k="natural" v="wetland" />
		<tag k="ssr:stedsnr" v="695124" />
	</node>
	<node id="-331294" lat="58.1846999988" lon="7.91283055838">
		<tag k="name" v="Lislegard" />
		<tag k="natural" v="wetland" />
		<tag k="ssr:stedsnr" v="388018" />
	</node>
	<node id="-333337" lat="58.2015277814" lon="7.86942778512">
		<tag k="name" v="Hågånmyr" />
		<tag k="natural" v="wetland" />
		<tag k="ssr:stedsnr" v="692056" />
	</node>
	<node id="-331012" lat="58.1922861132" lon="8.04640277615">
		<tag k="landuse" v="meadow" />
		<tag k="name" v="Løevolden" />
		<tag k="ssr:stedsnr" v="288598" />
	</node>
	<node id="-333333" lat="58.1984805583" lon="7.92618333142">
		<tag k="name" v="Engvanningsmyra" />
		<tag k="natural" v="wetland" />
		<tag k="ssr:stedsnr" v="692039" />
	</node>
	<node id="-333318" lat="58.2239749971" lon="8.09434167391">
		<tag k="alt_name" v="Småslettane" />
		<tag k="name" v="Småslettene" />
		<tag k="place" v="locality" />
		<tag k="ssr:stedsnr" v="667302" />
	</node>
	<node id="-333300" lat="58.0749194438" lon="7.98619444642">
		<tag k="name" v="Krelesteinen" />
		<tag k="natural" v="stone" />
		<tag k="ssr:stedsnr" v="653313" />
	</node>
	<node id="-331249" lat="58.1588222217" lon="8.14312778138">
		<tag k="name" v="Myra" />
		<tag k="natural" v="wetland" />
		<tag k="ssr:stedsnr" v="349894" />
	</node>
	<node id="-332029" lat="58.1756055544" lon="7.95091944817">
		<tag k="name" v="Storemyrvann" />
		<tag k="natural" v="wetland" />
		<tag k="ssr:stedsnr" v="107423" />
	</node>
	<node id="-331243" lat="58.1001500006" lon="7.92757778356">
		<tag k="name" v="Sørmyr" />
		<tag k="natural" v="wetland" />
		<tag k="ssr:stedsnr" v="349620" />
	</node>
	<node id="-331228" lat="58.2242222254" lon="8.10398611337">
		<tag k="name" v="Småmyrene" />
		<tag k="natural" v="wetland" />
		<tag k="ssr:stedsnr" v="349370" />
	</node>
	<node id="-333267" lat="58.1387416668" lon="8.16620000112">
		<tag k="name" v="Myra" />
		<tag k="natural" v="wetland" />
		<tag k="ssr:stedsnr" v="652634" />
	</node>
	<node id="-333253" lat="58.1925638921" lon="8.0924361088">
		<tag k="name" v="Slåttemyr" />
		<tag k="natural" v="wetland" />
		<tag k="ssr:stedsnr" v="652423" />
	</node>
	<node id="-331203" lat="58.2188944418" lon="8.09694443962">
		<tag k="name" v="Tranmoen" />
		<tag k="place" v="locality" />
		<tag k="ssr:stedsnr" v="348871" />
	</node>
	<node id="-333247" lat="58.1010722254" lon="7.93038054754">
		<tag k="name" v="Kringlen" />
		<tag k="place" v="locality" />
		<tag k="ssr:stedsnr" v="652377" />
	</node>
	<node id="-332021" lat="58.1816694437" lon="8.12877222717">
		<tag k="name" v="Maldalsmyr" />
		<tag k="natural" v="wetland" />
		<tag k="ssr:stedsnr" v="107329" />
	</node>
	<node id="-331190" lat="58.104094446" lon="7.93569443711">
		<tag k="name" v="Orekjerr" />
		<tag k="natural" v="wetland" />
		<tag k="ssr:stedsnr" v="348404" />
	</node>
	<node id="-333235" lat="58.2463333353" lon="8.12507499489">
		<tag k="name" v="Dyblemyr" />
		<tag k="natural" v="wetland" />
		<tag k="ssr:stedsnr" v="652279" />
	</node>
	<node id="-331183" lat="58.2225611149" lon="8.09621388503">
		<tag k="name" v="Langkjerrene" />
		<tag k="natural" v="wetland" />
		<tag k="ssr:stedsnr" v="348046" />
	</node>
	<node id="-330994" lat="58.2362638918" lon="8.10777221938">
		<tag k="name" v="Nordsida" />
		<tag k="place" v="locality" />
		<tag k="ssr:stedsnr" v="288084" />
	</node>
	<node id="-333221" lat="58.2161805559" lon="8.09669166008">
		<tag k="name" v="Mannslåtta" />
		<tag k="place" v="locality" />
		<tag k="ssr:stedsnr" v="652031" />
	</node>
	<node id="-331165" lat="58.2266000024" lon="8.13927777837">
		<tag k="name" v="Pers have" />
		<tag k="place" v="locality" />
		<tag k="ssr:stedsnr" v="331310" />
	</node>
	<node id="-331159" lat="58.2720944449" lon="8.12563611285">
		<tag k="name" v="Skåttemyr" />
		<tag k="natural" v="wetland" />
		<tag k="ssr:stedsnr" v="331285" />
	</node>
	<node id="-331158" lat="58.2706305531" lon="8.10728610935">
		<tag k="name" v="Kirkemyr" />
		<tag k="natural" v="wetland" />
		<tag k="ssr:stedsnr" v="331281" />
	</node>
	<node id="-331152" lat="58.2498666694" lon="8.07120277559">
		<tag k="alt_name" v="Bålemyrene" />
		<tag k="name" v="Balemyrene" />
		<tag k="natural" v="wetland" />
		<tag k="ssr:stedsnr" v="331234" />
	</node>
	<node id="-333195" lat="58.2339472228" lon="8.00238611388">
		<tag k="name" v="Kringlemyr" />
		<tag k="natural" v="wetland" />
		<tag k="ssr:stedsnr" v="634380" />
	</node>
	<node id="-331142" lat="58.2152833329" lon="8.06813333045">
		<tag k="name" v="Bjørnemyr" />
		<tag k="natural" v="wetland" />
		<tag k="ssr:stedsnr" v="331158" />
	</node>
	<node id="-331136" lat="58.2188305542" lon="7.8730222196">
		<tag k="alt_name" v="Stølekjerr" />
		<tag k="name" v="Støleskjerr" />
		<tag k="natural" v="wetland" />
		<tag k="ssr:stedsnr" v="331108" />
	</node>
	<node id="-333183" lat="58.2473777755" lon="8.10788611701">
		<tag k="name" v="Svartebergmyr" />
		<tag k="natural" v="wetland" />
		<tag k="ssr:stedsnr" v="634280" />
	</node>
	<node id="-331130" lat="58.2506861153" lon="7.99113332965">
		<tag k="name" v="Bogasteinen" />
		<tag k="natural" v="stone" />
		<tag k="ssr:stedsnr" v="331064" />
	</node>
	<node id="-331128" lat="58.2481805562" lon="8.04779721903">
		<tag k="name" v="Hånka" />
		<tag k="place" v="locality" />
		<tag k="ssr:stedsnr" v="331054" />
	</node>
	<node id="-333175" lat="58.2786666678" lon="8.04616111795">
		<tag k="name" v="Trollmyr" />
		<tag k="natural" v="wetland" />
		<tag k="ssr:stedsnr" v="634155" />
	</node>
	<node id="-333174" lat="58.1633555515" lon="8.13798334073">
		<tag k="name" v="Bumyr" />
		<tag k="natural" v="wetland" />
		<tag k="ssr:stedsnr" v="634149" />
	</node>
	<node id="-331119" lat="58.1966888905" lon="7.86128333327">
		<tag k="name" v="Uremyra" />
		<tag k="natural" v="wetland" />
		<tag k="ssr:stedsnr" v="327894" />
	</node>
	<node id="-331118" lat="58.207783334" lon="7.87956944455">
		<tag k="name" v="Auslandsmyr" />
		<tag k="natural" v="wetland" />
		<tag k="ssr:stedsnr" v="327871" />
	</node>
	<node id="-331117" lat="58.2094944413" lon="7.87791110554">
		<tag k="name" v="Storemyr" />
		<tag k="natural" v="wetland" />
		<tag k="ssr:stedsnr" v="327868" />
	</node>
	<node id="-333163" lat="58.1944472196" lon="7.87591944404">
		<tag k="alt_name" v="Kleivmyr" />
		<tag k="name" v="Kleivemyr" />
		<tag k="natural" v="wetland" />
		<tag k="ssr:stedsnr" v="631921" />
	</node>
	<node id="-333158" lat="58.2111972187" lon="7.87419167451">
		<tag k="name" v="Kartmyrane" />
		<tag k="natural" v="wetland" />
		<tag k="ssr:stedsnr" v="630880" />
	</node>
	<node id="-333157" lat="58.1651027759" lon="7.94354166206">
		<tag k="name" v="Trandlemyr" />
		<tag k="natural" v="wetland" />
		<tag k="ssr:stedsnr" v="630866" />
	</node>
	<node id="-331102" lat="58.1933722181" lon="7.87093610582">
		<tag k="name" v="Kringlemyr" />
		<tag k="natural" v="wetland" />
		<tag k="ssr:stedsnr" v="327031" />
	</node>
	<node id="-333145" lat="58.1878249995" lon="7.8743388835">
		<tag k="name" v="Skrubbekjerret" />
		<tag k="natural" v="wetland" />
		<tag k="ssr:stedsnr" v="630031" />
	</node>
	<node id="-333143" lat="58.1836472196" lon="7.87847777025">
		<tag k="name" v="Helleren" />
		<tag k="place" v="locality" />
		<tag k="ssr:stedsnr" v="630024" />
	</node>
	<node id="-331069" lat="58.2384444489" lon="7.86623054907">
		<tag k="name" v="Røyrmyr" />
		<tag k="natural" v="wetland" />
		<tag k="ssr:stedsnr" v="289821" />
	</node>
	<node id="-331063" lat="58.092641665" lon="7.92833333928">
		<tag k="alt_name" v="Sandviksmyra" />
		<tag k="name" v="Sandvigsmyra" />
		<tag k="natural" v="wetland" />
		<tag k="ssr:stedsnr" v="289615" />
	</node>
	<node id="-333106" lat="58.2075305568" lon="7.94344722524">
		<tag k="name" v="Storemyr" />
		<tag k="natural" v="wetland" />
		<tag k="ssr:stedsnr" v="592915" />
	</node>
	<node id="-331056" lat="58.1531499985" lon="7.92841943956">
		<tag k="name" v="Lille Kartemyr" />
		<tag k="natural" v="wetland" />
		<tag k="ssr:stedsnr" v="289521" />
	</node>
	<node id="-331052" lat="58.1525444403" lon="7.90452499591">
		<tag k="name" v="Røysmyra" />
		<tag k="natural" v="wetland" />
		<tag k="ssr:stedsnr" v="289421" />
	</node>
	<node id="-331050" lat="58.1518249998" lon="7.91339166923">
		<tag k="name" v="Jentetjønnsmyra" />
		<tag k="natural" v="wetland" />
		<tag k="ssr:stedsnr" v="289411" />
	</node>
	<node id="-333097" lat="58.1009444461" lon="7.92643888636">
		<tag k="name" v="Nordmyr" />
		<tag k="natural" v="wetland" />
		<tag k="ssr:stedsnr" v="592602" />
	</node>
	<node id="-333092" lat="58.1880944466" lon="8.1030000024">
		<tag k="name" v="Svarttjønnmyra" />
		<tag k="natural" v="wetland" />
		<tag k="ssr:stedsnr" v="592476" />
	</node>
	<node id="-333085" lat="58.2172055599" lon="8.09233889538">
		<tag k="name" v="Klædalsmyr" />
		<tag k="natural" v="wetland" />
		<tag k="ssr:stedsnr" v="592387" />
	</node>
	<node id="-333083" lat="58.0748694464" lon="8.00314445217">
		<tag k="name" v="Kilebrekka" />
		<tag k="place" v="locality" />
		<tag k="ssr:stedsnr" v="592361" />
	</node>
	<node id="-333080" lat="58.0714416663" lon="7.98255556392">
		<tag k="name" v="Kilura" />
		<tag k="natural" v="scree" />
		<tag k="ssr:stedsnr" v="592345" />
	</node>
	<node id="-333077" lat="58.2434805586" lon="8.11545278389">
		<tag k="name" v="Askekjerr" />
		<tag k="natural" v="wetland" />
		<tag k="ssr:stedsnr" v="592328" />
	</node>
	<node id="-333073" lat="58.0847694446" lon="8.00607778457">
		<tag k="name" v="Langemyra" />
		<tag k="natural" v="wetland" />
		<tag k="ssr:stedsnr" v="592311" />
	</node>
	<node id="-331023" lat="58.1545166673" lon="7.96916666533">
		<tag k="name" v="Myra" />
		<tag k="natural" v="wetland" />
		<tag k="ssr:stedsnr" v="288955" />
	</node>
	<node id="-333064" lat="58.2229888872" lon="8.15850833871">
		<tag k="name" v="Skåtmyr" />
		<tag k="natural" v="wetland" />
		<tag k="ssr:stedsnr" v="592172" />
	</node>
	<node id="-331013" lat="58.1982111081" lon="8.03217777723">
		<tag k="landuse" v="meadow" />
		<tag k="name" v="Jodra" />
		<tag k="ssr:stedsnr" v="288621" />
	</node>
	<node id="-333060" lat="58.1552444461" lon="7.9156694432">
		<tag k="name" v="Lillejordet" />
		<tag k="place" v="locality" />
		<tag k="ssr:stedsnr" v="591966" />
	</node>
	<node id="-333354" lat="58.2470749991" lon="8.04901388137">
		<tag k="name" v="Knaresteinen" />
		<tag k="natural" v="stone" />
		<tag k="ssr:stedsnr" v="695060" />
	</node>
	<node id="-333049" lat="58.1640138855" lon="7.90321944563">
		<tag k="alt_name" v="Eigebjønndalsmyra" />
		<tag k="name" v="Eigebjørndalsmyra" />
		<tag k="natural" v="wetland" />
		<tag k="ssr:stedsnr" v="591680" />
	</node>
	<node id="-333048" lat="58.1992777772" lon="8.03996110813">
		<tag k="name" v="Kalvehaven" />
		<tag k="place" v="locality" />
		<tag k="ssr:stedsnr" v="591644" />
	</node>
	<node id="-333042" lat="58.1901888885" lon="7.94601110639">
		<tag k="name" v="Gjellesteinen" />
		<tag k="natural" v="stone" />
		<tag k="ssr:stedsnr" v="591594" />
	</node>
	<node id="-333039" lat="58.1186638846" lon="8.11993888445">
		<tag k="name" v="Lillemyr" />
		<tag k="natural" v="wetland" />
		<tag k="ssr:stedsnr" v="591576" />
	</node>
	<node id="-334032" lat="58.1858194472" lon="7.89275000108">
		<tag k="name" v="Svinemyra" />
		<tag k="natural" v="wetland" />
		<tag k="ssr:stedsnr" v="935016" />
	</node>
	<node id="-330960" lat="58.2733972252" lon="8.13319999213">
		<tag k="alt_name" v="Spennekjær" />
		<tag k="name" v="Spennekjerr" />
		<tag k="natural" v="wetland" />
		<tag k="ssr:stedsnr" v="271345" />
	</node>
	<node id="-330958" lat="58.2647472196" lon="8.10568889074">
		<tag k="alt_name" v="Aneskumyr" />
		<tag k="name" v="Åneskumyr" />
		<tag k="natural" v="wetland" />
		<tag k="ssr:stedsnr" v="271315" />
	</node>
	<node id="-333002" lat="58.2468027746" lon="8.1749499922">
		<tag k="name" v="Jonskjerr" />
		<tag k="natural" v="wetland" />
		<tag k="ssr:stedsnr" v="574399" />
	</node>
	<node id="-330953" lat="58.2460361081" lon="8.12283610351">
		<tag k="name" v="Fænmyr" />
		<tag k="natural" v="wetland" />
		<tag k="ssr:stedsnr" v="271251" />
	</node>
	<node id="-330952" lat="58.2600472187" lon="8.12302221759">
		<tag k="name" v="Hestemyr" />
		<tag k="natural" v="wetland" />
		<tag k="ssr:stedsnr" v="271237" />
	</node>
	<node id="-330948" lat="58.2679750021" lon="8.03898333211">
		<tag k="alt_name" v="Skrovelkjerr" />
		<tag k="name" v="Skrovellkjerr" />
		<tag k="natural" v="wetland" />
		<tag k="ssr:stedsnr" v="271199" />
	</node>
	<node id="-332993" lat="58.2241499963" lon="8.13483054951">
		<tag k="name" v="Pilemyr" />
		<tag k="natural" v="wetland" />
		<tag k="ssr:stedsnr" v="574336" />
	</node>
	<node id="-332992" lat="58.2188305592" lon="8.14580556105">
		<tag k="name" v="Tranlemyrane" />
		<tag k="natural" v="wetland" />
		<tag k="ssr:stedsnr" v="574325" />
	</node>
	<node id="-332990" lat="58.2736722189" lon="8.12636389651">
		<tag k="name" v="Eikedalsmyra" />
		<tag k="natural" v="wetland" />
		<tag k="ssr:stedsnr" v="574316" />
	</node>
	<node id="-330941" lat="58.1879638901" lon="7.99048333003">
		<tag k="name" v="Stuemyr" />
		<tag k="natural" v="wetland" />
		<tag k="ssr:stedsnr" v="271110" />
	</node>
	<node id="-332987" lat="58.2555305522" lon="8.08223888962">
		<tag k="name" v="Åsnesmyr" />
		<tag k="natural" v="wetland" />
		<tag k="ssr:stedsnr" v="574281" />
	</node>
	<node id="-332985" lat="58.241680554" lon="8.10744166099">
		<tag k="name" v="Hellerdalsmyr" />
		<tag k="natural" v="wetland" />
		<tag k="ssr:stedsnr" v="574260" />
	</node>
	<node id="-333342" lat="58.2038611121" lon="7.86723333543">
		<tag k="name" v="Røyrmyr" />
		<tag k="natural" v="wetland" />
		<tag k="ssr:stedsnr" v="692901" />
	</node>
	<node id="-332972" lat="58.2310972263" lon="7.89224443589">
		<tag k="name" v="Skippesmyr" />
		<tag k="natural" v="wetland" />
		<tag k="ssr:stedsnr" v="574128" />
	</node>
	<node id="-332969" lat="58.2346500017" lon="7.89963889362">
		<tag k="name" v="Storemyr" />
		<tag k="natural" v="wetland" />
		<tag k="ssr:stedsnr" v="574104" />
	</node>
	<node id="-332965" lat="58.2526111094" lon="8.03580555101">
		<tag k="name" v="Kyrkleivslåttene" />
		<tag k="natural" v="wetland" />
		<tag k="ssr:stedsnr" v="574065" />
	</node>
	<node id="-332964" lat="58.1767944488" lon="7.90760832923">
		<tag k="name" v="Torvmyra" />
		<tag k="natural" v="wetland" />
		<tag k="ssr:stedsnr" v="574007" />
	</node>
	<node id="-332958" lat="58.2056333295" lon="7.84987222836">
		<tag k="name" v="Snømyr" />
		<tag k="natural" v="wetland" />
		<tag k="ssr:stedsnr" v="570902" />
	</node>
	<node id="-332954" lat="58.1696027759" lon="7.90641944341">
		<tag k="name" v="Bjønnsokkjerr" />
		<tag k="natural" v="wetland" />
		<tag k="ssr:stedsnr" v="570880" />
	</node>
	<node id="-330944" lat="58.2090249963" lon="8.16320833036">
		<tag k="name" v="Havsynmyra" />
		<tag k="natural" v="wetland" />
		<tag k="ssr:stedsnr" v="271158" />
	</node>
	<node id="-332895" lat="58.2025888922" lon="8.00667778304">
		<tag k="name" v="Malermyra" />
		<tag k="natural" v="wetland" />
		<tag k="ssr:stedsnr" v="531649" />
	</node>
	<node id="-332894" lat="58.204819444" lon="8.01200555862">
		<tag k="name" v="Kringlemyr" />
		<tag k="natural" v="wetland" />
		<tag k="ssr:stedsnr" v="531648" />
	</node>
	<node id="-332891" lat="58.2085555564" lon="8.01108888697">
		<tag k="name" v="Vølemyr" />
		<tag k="natural" v="wetland" />
		<tag k="ssr:stedsnr" v="531639" />
	</node>
	<node id="-332870" lat="58.0848083326" lon="7.94498333322">
		<tag k="name" v="Breivikskjerran" />
		<tag k="natural" v="wetland" />
		<tag k="ssr:stedsnr" v="531418" />
	</node>
	<node id="-332833" lat="58.2473333331" lon="8.100288884">
		<tag k="name" v="Grankjerr" />
		<tag k="natural" v="wetland" />
		<tag k="ssr:stedsnr" v="530126" />
	</node>
	<node id="-332832" lat="58.2499694469" lon="8.14971110862">
		<tag k="name" v="Madshaven" />
		<tag k="place" v="locality" />
		<tag k="ssr:stedsnr" v="530113" />
	</node>
	<node id="-332827" lat="58.2293472182" lon="8.13027500149">
		<tag k="name" v="Dyreskueplassen" />
		<tag k="place" v="locality" />
		<tag k="ssr:stedsnr" v="530087" />
	</node>
	<node id="-332823" lat="58.2168944442" lon="8.10788611754">
		<tag k="name" v="Karten" />
		<tag k="place" v="locality" />
		<tag k="ssr:stedsnr" v="530064" />
	</node>
	<node id="-332797" lat="58.2141527783" lon="8.17468888139">
		<tag k="name" v="Bjørnekjerr" />
		<tag k="natural" v="wetland" />
		<tag k="ssr:stedsnr" v="513406" />
	</node>
	<node id="-332793" lat="58.2421694481" lon="8.05254722334">
		<tag k="name" v="Kleppemyra" />
		<tag k="place" v="locality" />
		<tag k="ssr:stedsnr" v="513390" />
	</node>
	<node id="-332788" lat="58.2767388926" lon="8.08129999386">
		<tag k="name" v="Erkleivmyr" />
		<tag k="natural" v="wetland" />
		<tag k="ssr:stedsnr" v="513350" />
	</node>
	<node id="-332786" lat="58.236686109" lon="8.15302777135">
		<tag k="name" v="Store Engemyr" />
		<tag k="natural" v="wetland" />
		<tag k="ssr:stedsnr" v="513339" />
	</node>
	<node id="-332781" lat="58.2673583333" lon="8.13658333304">
		<tag k="name" v="Skåtebergmyr" />
		<tag k="natural" v="wetland" />
		<tag k="ssr:stedsnr" v="513317" />
	</node>
	<node id="-332780" lat="58.257719446" lon="8.09781388222">
		<tag k="name" v="Kringla" />
		<tag k="natural" v="wetland" />
		<tag k="ssr:stedsnr" v="513281" />
	</node>
	<node id="-332779" lat="58.2399222213" lon="8.11506388477">
		<tag k="name" v="Mollkleivmyr" />
		<tag k="natural" v="wetland" />
		<tag k="ssr:stedsnr" v="513235" />
	</node>
	<node id="-332778" lat="58.2529500036" lon="8.11837500003">
		<tag k="name" v="Løemyr" />
		<tag k="natural" v="wetland" />
		<tag k="ssr:stedsnr" v="513228" />
	</node>
	<node id="-332776" lat="58.2560277805" lon="8.12719444082">
		<tag k="name" v="Sannes Langemyr" />
		<tag k="natural" v="wetland" />
		<tag k="ssr:stedsnr" v="513216" />
	</node>
	<node id="-332767" lat="58.1899416694" lon="7.96583889321">
		<tag k="name" v="Skråstadmyra" />
		<tag k="natural" v="wetland" />
		<tag k="ssr:stedsnr" v="513091" />
	</node>
	<node id="-332764" lat="58.2572166654" lon="8.01953333799">
		<tag k="alt_name" v="Kalkgruene" />
		<tag k="landuse" v="quarry" />
		<tag k="name" v="Kalkgruvene" />
		<tag k="ssr:stedsnr" v="513082" />
	</node>
	<node id="-332756" lat="58.208602774" lon="7.87455000524">
		<tag k="name" v="Glømstremyr" />
		<tag k="natural" v="wetland" />
		<tag k="ssr:stedsnr" v="509885" />
	</node>
	<node id="-332753" lat="58.1635055559" lon="7.90240277568">
		<tag k="name" v="Eigebjønndalsmyra" />
		<tag k="natural" v="wetland" />
		<tag k="ssr:stedsnr" v="509875" />
	</node>
	<node id="-332748" lat="58.1941833336" lon="7.921663887">
		<tag k="name" v="Storemyr" />
		<tag k="natural" v="wetland" />
		<tag k="ssr:stedsnr" v="509035" />
	</node>
	<node id="-332747" lat="58.1926583331" lon="7.85816389059">
		<tag k="name" v="Bjønnsmyr" />
		<tag k="natural" v="wetland" />
		<tag k="ssr:stedsnr" v="509026" />
	</node>
	<node id="-332703" lat="58.1913416639" lon="8.00651945249">
		<tag k="name" v="Kvernhusmyra" />
		<tag k="natural" v="wetland" />
		<tag k="ssr:stedsnr" v="471621" />
	</node>
	<node id="-332697" lat="58.1513222258" lon="7.92564722438">
		<tag k="name" v="Store Kartemyr" />
		<tag k="natural" v="wetland" />
		<tag k="ssr:stedsnr" v="471502" />
	</node>
	<node id="-332696" lat="58.0728666652" lon="7.97481667321">
		<tag k="name" v="Myrane" />
		<tag k="natural" v="wetland" />
		<tag k="ssr:stedsnr" v="471418" />
	</node>
	<node id="-332690" lat="58.0735916654" lon="7.98102499534">
		<tag k="name" v="Kalvehagen" />
		<tag k="place" v="locality" />
		<tag k="ssr:stedsnr" v="471331" />
	</node>
	<node id="-332675" lat="58.2156361111" lon="8.10293055357">
		<tag k="name" v="Tunga" />
		<tag k="place" v="locality" />
		<tag k="ssr:stedsnr" v="470973" />
	</node>
	<node id="-332674" lat="58.1233805513" lon="7.90446389253">
		<tag k="name" v="Porrekjerret" />
		<tag k="natural" v="wetland" />
		<tag k="ssr:stedsnr" v="470942" />
	</node>
	<node id="-332657" lat="58.1526527792" lon="7.94358055694">
		<tag k="name" v="Hestefallsmyra" />
		<tag k="natural" v="wetland" />
		<tag k="ssr:stedsnr" v="470461" />
	</node>
	<node id="-332654" lat="58.0712250033" lon="7.98890833578">
		<tag k="name" v="Hallekjerr" />
		<tag k="natural" v="wetland" />
		<tag k="ssr:stedsnr" v="470433" />
	</node>
	<node id="-332637" lat="58.2234777797" lon="8.09286111193">
		<tag k="name" v="Stokken" />
		<tag k="place" v="locality" />
		<tag k="ssr:stedsnr" v="470044" />
	</node>
	<node id="-332635" lat="58.2046861144" lon="8.11698611881">
		<tag k="name" v="Steane" />
		<tag k="natural" v="wetland" />
		<tag k="ssr:stedsnr" v="470032" />
	</node>
	<node id="-332614" lat="58.2143749999" lon="8.18335278584">
		<tag k="name" v="Instemyr" />
		<tag k="natural" v="wetland" />
		<tag k="ssr:stedsnr" v="453379" />
	</node>
	<node id="-332609" lat="58.232080552" lon="8.14640000034">
		<tag k="name" v="Lille Krogemyr" />
		<tag k="natural" v="wetland" />
		<tag k="ssr:stedsnr" v="453326" />
	</node>
	<node id="-332605" lat="58.2551194487" lon="8.0947861116">
		<tag k="name" v="Raftemyr" />
		<tag k="natural" v="wetland" />
		<tag k="ssr:stedsnr" v="453282" />
	</node>
	<node id="-332592" lat="58.2346888904" lon="7.86141666742">
		<tag k="name" v="Kartemyr" />
		<tag k="natural" v="wetland" />
		<tag k="ssr:stedsnr" v="453139" />
	</node>
	<node id="-332591" lat="58.2327944477" lon="7.88681110511">
		<tag k="name" v="Lusemyr" />
		<tag k="natural" v="wetland" />
		<tag k="ssr:stedsnr" v="453133" />
	</node>
	<node id="-332590" lat="58.2254583289" lon="7.86667499271">
		<tag k="name" v="Vardemyr" />
		<tag k="natural" v="wetland" />
		<tag k="ssr:stedsnr" v="453123" />
	</node>
	<node id="-332589" lat="58.2287972225" lon="7.91643889728">
		<tag k="name" v="Beinmyr" />
		<tag k="natural" v="wetland" />
		<tag k="ssr:stedsnr" v="453120" />
	</node>
	<node id="-332587" lat="58.1852999957" lon="7.99758889426">
		<tag k="name" v="Skårmyr" />
		<tag k="natural" v="wetland" />
		<tag k="ssr:stedsnr" v="453100" />
	</node>
	<node id="-332581" lat="58.1776972218" lon="7.91386666935">
		<tag k="name" v="Beindalskjerrane" />
		<tag k="natural" v="wetland" />
		<tag k="ssr:stedsnr" v="453011" />
	</node>
	<node id="-332579" lat="58.1614111098" lon="7.94516666198">
		<tag k="name" v="Smalemyr" />
		<tag k="natural" v="wetland" />
		<tag k="ssr:stedsnr" v="449860" />
	</node>
	<node id="-332577" lat="58.1712944465" lon="7.90994166035">
		<tag k="name" v="Røyrmyr" />
		<tag k="natural" v="wetland" />
		<tag k="ssr:stedsnr" v="449831" />
	</node>
	<node id="-332569" lat="58.1910416684" lon="7.88361944438">
		<tag k="name" v="Røyrmyr" />
		<tag k="natural" v="wetland" />
		<tag k="ssr:stedsnr" v="449020" />
	</node>
	<node id="-332568" lat="58.1898055515" lon="7.86449444531">
		<tag k="name" v="Ramseheimyrane" />
		<tag k="natural" v="wetland" />
		<tag k="ssr:stedsnr" v="449018" />
	</node>
	<node id="-332507" lat="58.2079861113" lon="7.94275277566">
		<tag k="name" v="Storemyr" />
		<tag k="natural" v="wetland" />
		<tag k="ssr:stedsnr" v="267032" />
	</node>
	<node id="-333599" lat="58.2706833325" lon="8.16917777754">
		<tag k="name" v="Krogen" />
		<tag k="place" v="locality" />
		<tag k="ssr:stedsnr" v="773113" />
	</node>
	<node id="-333937" lat="58.2475166641" lon="8.13270556347">
		<tag k="name" v="Skiansmyr" />
		<tag k="natural" v="wetland" />
		<tag k="ssr:stedsnr" v="878231" />
	</node>
	<node id="-331205" lat="58.197713892" lon="8.17246945275">
		<tag k="name" v="Nordkjerr" />
		<tag k="natural" v="wetland" />
		<tag k="ssr:stedsnr" v="348877" />
	</node>
	<node id="-332444" lat="58.073366665" lon="7.97692777732">
		<tag k="name" v="Ladersfidja" />
		<tag k="natural" v="wetland" />
		<tag k="ssr:stedsnr" v="228460" />
	</node>
	<node id="-332435" lat="58.2076027777" lon="8.13026388657">
		<tag k="name" v="Grimsmyra" />
		<tag k="natural" v="wetland" />
		<tag k="ssr:stedsnr" v="228335" />
	</node>
	<node id="-332434" lat="58.0892083337" lon="8.00190278514">
		<tag k="name" v="Davidsmyr" />
		<tag k="natural" v="wetland" />
		<tag k="ssr:stedsnr" v="228324" />
	</node>
	<node id="-332424" lat="58.2057583363" lon="8.05367777075">
		<tag k="name" v="Skjulesteinen" />
		<tag k="natural" v="stone" />
		<tag k="ssr:stedsnr" v="227995" />
	</node>
	<node id="-332419" lat="58.2068472255" lon="8.06657500823">
		<tag k="landuse" v="quarry" />
		<tag k="name" v="Mangangrua" />
		<tag k="ssr:stedsnr" v="227975" />
	</node>
	<node id="-333589" lat="58.1964694412" lon="8.0144638952">
		<tag k="name" v="Sagekleivkjerr" />
		<tag k="natural" v="wetland" />
		<tag k="ssr:stedsnr" v="772520" />
	</node>
	<node id="-332412" lat="58.170280555" lon="7.95420277686">
		<tag k="name" v="Torvmyra" />
		<tag k="natural" v="wetland" />
		<tag k="ssr:stedsnr" v="227939" />
	</node>
	<node id="-332403" lat="58.1982111094" lon="8.03551944043">
		<tag k="name" v="Nodefidja" />
		<tag k="natural" v="wetland" />
		<tag k="ssr:stedsnr" v="227639" />
	</node>
	<node id="-332357" lat="58.2201916678" lon="8.06333888384">
		<tag k="name" v="Storemyr" />
		<tag k="natural" v="wetland" />
		<tag k="ssr:stedsnr" v="210446" />
	</node>
	<node id="-332356" lat="58.2309722266" lon="8.09568055873">
		<tag k="name" v="Kjerregårdsmyrane" />
		<tag k="natural" v="wetland" />
		<tag k="ssr:stedsnr" v="210437" />
	</node>
	<node id="-332345" lat="58.2231472245" lon="8.15873056017">
		<tag k="name" v="Skåtmyr" />
		<tag k="natural" v="wetland" />
		<tag k="ssr:stedsnr" v="210327" />
	</node>
	<node id="-332341" lat="58.2753333356" lon="8.13213610472">
		<tag k="name" v="Lyngmyr" />
		<tag k="natural" v="wetland" />
		<tag k="ssr:stedsnr" v="210314" />
	</node>
	<node id="-332338" lat="58.260511112" lon="8.07243611056">
		<tag k="name" v="Steane" />
		<tag k="place" v="locality" />
		<tag k="ssr:stedsnr" v="210297" />
	</node>
	<node id="-332336" lat="58.2505138886" lon="8.1035361143">
		<tag k="alt_name" v="Vinkjellemyr" />
		<tag k="name" v="Vinkjellermyr" />
		<tag k="natural" v="wetland" />
		<tag k="ssr:stedsnr" v="210285" />
	</node>
	<node id="-332330" lat="58.250916667" lon="8.1328305595">
		<tag k="name" v="Kråkemyr" />
		<tag k="natural" v="wetland" />
		<tag k="ssr:stedsnr" v="210242" />
	</node>
	<node id="-332328" lat="58.2761194431" lon="8.0467749997">
		<tag k="name" v="Blautekjerr" />
		<tag k="natural" v="wetland" />
		<tag k="ssr:stedsnr" v="210193" />
	</node>
	<node id="-332327" lat="58.2341666684" lon="8.04431943724">
		<tag k="name" v="Storemyr" />
		<tag k="natural" v="wetland" />
		<tag k="ssr:stedsnr" v="210187" />
	</node>
	<node id="-332324" lat="58.2619916671" lon="8.04060556134">
		<tag k="name" v="Øygardsmyr" />
		<tag k="natural" v="wetland" />
		<tag k="ssr:stedsnr" v="210167" />
	</node>
	<node id="-332321" lat="58.2152944476" lon="8.15589167093">
		<tag k="name" v="Røyrmyr" />
		<tag k="natural" v="wetland" />
		<tag k="ssr:stedsnr" v="210141" />
	</node>
	<node id="-332310" lat="58.1736027772" lon="7.90685000377">
		<tag k="name" v="Teinelaget" />
		<tag k="natural" v="wetland" />
		<tag k="ssr:stedsnr" v="210009" />
	</node>
	<node id="-331523" lat="58.2455833372" lon="8.11473610962">
		<tag k="name" v="Lyngmyr" />
		<tag k="natural" v="wetland" />
		<tag k="ssr:stedsnr" v="896325" />
	</node>
	<node id="-332303" lat="58.2122527768" lon="7.8813749968">
		<tag k="name" v="Surtemyr" />
		<tag k="natural" v="wetland" />
		<tag k="ssr:stedsnr" v="206907" />
	</node>
	<node id="-332296" lat="58.1908638859" lon="7.88564167513">
		<tag k="name" v="Gamle Jons kjerr" />
		<tag k="natural" v="wetland" />
		<tag k="ssr:stedsnr" v="206039" />
	</node>
	<node id="-332295" lat="58.1808333318" lon="7.89998888593">
		<tag k="name" v="Øygardsmyra" />
		<tag k="natural" v="wetland" />
		<tag k="ssr:stedsnr" v="206013" />
	</node>
	<node id="-332245" lat="58.2271833375" lon="8.01524165832">
		<tag k="name" v="Hessemyr" />
		<tag k="natural" v="wetland" />
		<tag k="ssr:stedsnr" v="168127" />
	</node>
	<node id="-332241" lat="58.1798555512" lon="7.99015000175">
		<tag k="name" v="Sødalsmyra" />
		<tag k="natural" v="wetland" />
		<tag k="ssr:stedsnr" v="167851" />
	</node>
	<node id="-332238" lat="58.1855638897" lon="8.0094416678">
		<tag k="landuse" v="meadow" />
		<tag k="name" v="Skivollen" />
		<tag k="ssr:stedsnr" v="167693" />
	</node>
	<node id="-332231" lat="58.1979166658" lon="8.02002500004">
		<tag k="name" v="Jakobsmyr" />
		<tag k="natural" v="wetland" />
		<tag k="ssr:stedsnr" v="167636" />
	</node>
	<node id="-332221" lat="58.0720527765" lon="7.98548055533">
		<tag k="name" v="Ytterkjerr" />
		<tag k="natural" v="wetland" />
		<tag k="ssr:stedsnr" v="167491" />
	</node>
	<node id="-332209" lat="58.1981111093" lon="8.16472777817">
		<tag k="name" v="Øygardsmyra" />
		<tag k="natural" v="wetland" />
		<tag k="ssr:stedsnr" v="167350" />
	</node>
	<node id="-332191" lat="58.1266388869" lon="7.90822222472">
		<tag k="name" v="Moldkleivdalsmyra" />
		<tag k="natural" v="wetland" />
		<tag k="ssr:stedsnr" v="166949" />
	</node>
	<node id="-332172" lat="58.2229749974" lon="8.11735556407">
		<tag k="name" v="Fløda" />
		<tag k="place" v="locality" />
		<tag k="ssr:stedsnr" v="166075" />
	</node>
	<node id="-332170" lat="58.1974277803" lon="8.16791388249">
		<tag k="name" v="Biskopkjerr" />
		<tag k="natural" v="wetland" />
		<tag k="ssr:stedsnr" v="166037" />
	</node>
	<node id="-332153" lat="58.2106000007" lon="8.17553888176">
		<tag k="name" v="Graskjerr" />
		<tag k="natural" v="wetland" />
		<tag k="ssr:stedsnr" v="149376" />
	</node>
	<node id="-332149" lat="58.2200694453" lon="8.0007083249">
		<tag k="name" v="Takstedalsjordet" />
		<tag k="natural" v="wetland" />
		<tag k="ssr:stedsnr" v="149347" />
	</node>
	<node id="-332146" lat="58.1944944415" lon="7.99292222528">
		<tag k="name" v="Bestefarskjerret" />
		<tag k="natural" v="wetland" />
		<tag k="ssr:stedsnr" v="149324" />
	</node>
	<node id="-334185" lat="58.1555153282" lon="7.92269342945">
		<tag k="name" v="Grokjerr" />
		<tag k="place" v="locality" />
		<tag k="ssr:stedsnr" v="974717" />
	</node>
	<node id="-332129" lat="58.2479222205" lon="8.07010556335">
		<tag k="name" v="Kongemyr" />
		<tag k="natural" v="wetland" />
		<tag k="ssr:stedsnr" v="149209" />
	</node>
	<node id="-334173" lat="58.2088444458" lon="7.94771388746">
		<tag k="name" v="Gunnusplass" />
		<tag k="natural" v="wetland" />
		<tag k="ssr:stedsnr" v="956897" />
	</node>
	<node id="-332124" lat="58.2618944483" lon="8.02774167148">
		<tag k="name" v="Røyrmyr" />
		<tag k="natural" v="wetland" />
		<tag k="ssr:stedsnr" v="149133" />
	</node>
	<node id="-334171" lat="58.2200194476" lon="8.00073334155">
		<tag k="name" v="Takstedalsjordet" />
		<tag k="place" v="locality" />
		<tag k="ssr:stedsnr" v="956854" />
	</node>
	<node id="-332117" lat="58.2206777798" lon="7.86915000667">
		<tag k="name" v="Bjønnskjeggmyr" />
		<tag k="natural" v="wetland" />
		<tag k="ssr:stedsnr" v="149106" />
	</node>
	<node id="-332115" lat="58.2315277761" lon="7.90769166553">
		<tag k="name" v="Tranlemyr" />
		<tag k="natural" v="wetland" />
		<tag k="ssr:stedsnr" v="149096" />
	</node>
	<node id="-332105" lat="58.2017916679" lon="7.88958888192">
		<tag k="name" v="Langemyr" />
		<tag k="natural" v="wetland" />
		<tag k="ssr:stedsnr" v="145927" />
	</node>
	<node id="-334146" lat="58.2146166668" lon="7.91065278217">
		<tag k="name" v="Storemyr" />
		<tag k="natural" v="wetland" />
		<tag k="ssr:stedsnr" v="956441" />
	</node>
	<node id="-334143" lat="58.217063885" lon="8.02261388544">
		<tag k="name" v="Føreidmyra" />
		<tag k="natural" v="wetland" />
		<tag k="ssr:stedsnr" v="956396" />
	</node>
	<node id="-334142" lat="58.2421333327" lon="8.05232223032">
		<tag k="name" v="Kleppemyra" />
		<tag k="natural" v="wetland" />
		<tag k="ssr:stedsnr" v="956391" />
	</node>
	<node id="-334137" lat="58.1687833368" lon="8.13506111221">
		<tag k="name" v="Hellingsmyr" />
		<tag k="natural" v="wetland" />
		<tag k="ssr:stedsnr" v="956372" />
	</node>
	<node id="-334136" lat="58.0818472231" lon="8.01269165846">
		<tag k="landuse" v="meadow" />
		<tag k="name" v="Fidja" />
		<tag k="ssr:stedsnr" v="956360" />
	</node>
	<node id="-334134" lat="58.0853388929" lon="8.01026944066">
		<tag k="name" v="Revemyra" />
		<tag k="natural" v="wetland" />
		<tag k="ssr:stedsnr" v="956331" />
	</node>
	<node id="-334114" lat="58.1485166649" lon="8.13670000726">
		<tag k="landuse" v="meadow" />
		<tag k="name" v="Rossåsegra" />
		<tag k="ssr:stedsnr" v="955964" />
	</node>
	<node id="-334103" lat="58.1951277797" lon="8.03439443708">
		<tag k="landuse" v="meadow" />
		<tag k="name" v="Kalvehagen" />
		<tag k="ssr:stedsnr" v="955650" />
	</node>
	<node id="-334097" lat="58.2240305563" lon="8.10264166055">
		<tag k="name" v="Revura" />
		<tag k="natural" v="scree" />
		<tag k="ssr:stedsnr" v="955076" />
	</node>
	<node id="-332039" lat="58.1515222229" lon="8.12375833767">
		<tag k="landuse" v="meadow" />
		<tag k="name" v="Rørvika" />
		<tag k="ssr:stedsnr" v="107619" />
	</node>
	<node id="-332031" lat="58.1529277781" lon="7.93969444545">
		<tag k="name" v="Limbindermyra" />
		<tag k="natural" v="wetland" />
		<tag k="ssr:stedsnr" v="107486" />
	</node>
	<node id="-332030" lat="58.1167277794" lon="8.12061666455">
		<tag k="name" v="Storemyr" />
		<tag k="natural" v="wetland" />
		<tag k="ssr:stedsnr" v="107429" />
	</node>
	<node id="-334077" lat="58.2159527819" lon="8.17277222643">
		<tag k="name" v="Skåtmyr" />
		<tag k="natural" v="wetland" />
		<tag k="ssr:stedsnr" v="938369" />
	</node>
	<node id="-334076" lat="58.2047499984" lon="8.16433889039">
		<tag k="name" v="Langemyrane" />
		<tag k="natural" v="wetland" />
		<tag k="ssr:stedsnr" v="938368" />
	</node>
	<node id="-334075" lat="58.2408944466" lon="8.17423888471">
		<tag k="name" v="Tømmerstokkmyr" />
		<tag k="natural" v="wetland" />
		<tag k="ssr:stedsnr" v="938366" />
	</node>
	<node id="-334074" lat="58.2375222225" lon="8.17418055075">
		<tag k="name" v="Daumannskjerr" />
		<tag k="natural" v="wetland" />
		<tag k="ssr:stedsnr" v="938364" />
	</node>
	<node id="-334069" lat="58.236172224" lon="7.99186388039">
		<tag k="name" v="Snømyr" />
		<tag k="natural" v="wetland" />
		<tag k="ssr:stedsnr" v="938334" />
	</node>
	<node id="-334068" lat="58.2659638874" lon="8.07213055463">
		<tag k="name" v="Krossemyr" />
		<tag k="place" v="locality" />
		<tag k="ssr:stedsnr" v="938316" />
	</node>
	<node id="-334067" lat="58.2322527737" lon="8.14803055326">
		<tag k="name" v="Store Krogemyr" />
		<tag k="natural" v="wetland" />
		<tag k="ssr:stedsnr" v="938307" />
	</node>
	<node id="-334061" lat="58.2454250022" lon="8.08676944678">
		<tag k="name" v="Krogtjønnmyra" />
		<tag k="natural" v="wetland" />
		<tag k="ssr:stedsnr" v="938229" />
	</node>
	<node id="-334052" lat="58.2651888901" lon="8.04506110519">
		<tag k="name" v="Snømyr" />
		<tag k="natural" v="wetland" />
		<tag k="ssr:stedsnr" v="938134" />
	</node>
	<node id="-334051" lat="58.2649611132" lon="8.03255834071">
		<tag k="name" v="Vierkjerr" />
		<tag k="natural" v="wetland" />
		<tag k="ssr:stedsnr" v="938131" />
	</node>
	<node id="-334049" lat="58.1973777739" lon="8.11768888855">
		<tag k="name" v="Storemyr" />
		<tag k="natural" v="wetland" />
		<tag k="ssr:stedsnr" v="938120" />
	</node>
	<node id="-334048" lat="58.1912416631" lon="8.10967221499">
		<tag k="name" v="Heimreøygard" />
		<tag k="natural" v="wetland" />
		<tag k="ssr:stedsnr" v="938119" />
	</node>
	<node id="-334047" lat="58.2108888859" lon="8.15047499489">
		<tag k="name" v="Hellermyrer" />
		<tag k="natural" v="wetland" />
		<tag k="ssr:stedsnr" v="938112" />
	</node>
	<node id="-334043" lat="58.1928527795" lon="7.97758888653">
		<tag k="name" v="Trøymyr" />
		<tag k="natural" v="wetland" />
		<tag k="ssr:stedsnr" v="938083" />
	</node>
	<node id="-331992" lat="58.1788666637" lon="8.0171055512">
		<tag k="name" v="Rossemyr" />
		<tag k="natural" v="wetland" />
		<tag k="ssr:stedsnr" v="106707" />
	</node>
	<node id="-331987" lat="58.151675001" lon="8.12771388886">
		<tag k="name" v="Støvelstykket" />
		<tag k="place" v="locality" />
		<tag k="ssr:stedsnr" v="106653" />
	</node>
	<node id="-331985" lat="58.1613222214" lon="7.98204999781">
		<tag k="name" v="Bølgane" />
		<tag k="place" v="locality" />
		<tag k="ssr:stedsnr" v="106637" />
	</node>
	<node id="-331984" lat="58.1877888869" lon="8.01718333157">
		<tag k="landuse" v="meadow" />
		<tag k="name" v="Svinevrengen" />
		<tag k="ssr:stedsnr" v="106631" />
	</node>
	<node id="-334030" lat="58.209208334" lon="7.85850833544">
		<tag k="alt_name" v="Løuløkjerret" />
		<tag k="name" v="Lauløkjerret" />
		<tag k="natural" v="wetland" />
		<tag k="ssr:stedsnr" v="934910" />
	</node>
	<node id="-334029" lat="58.206711113" lon="7.87202499454">
		<tag k="name" v="Tereleigsmyr" />
		<tag k="natural" v="wetland" />
		<tag k="ssr:stedsnr" v="934898" />
	</node>
	<node id="-334028" lat="58.1671305512" lon="7.91597777598">
		<tag k="name" v="Kolåsmyrane" />
		<tag k="natural" v="wetland" />
		<tag k="ssr:stedsnr" v="934891" />
	</node>
	<node id="-334027" lat="58.1620138877" lon="7.93891666208">
		<tag k="name" v="Langemyr" />
		<tag k="natural" v="wetland" />
		<tag k="ssr:stedsnr" v="934878" />
	</node>
	<node id="-331961" lat="58.2424833313" lon="8.1406722141">
		<tag k="name" v="Busegra" />
		<tag k="place" v="locality" />
		<tag k="ssr:stedsnr" v="106101" />
	</node>
	<node id="-331958" lat="58.2182500045" lon="8.09592777828">
		<tag k="name" v="Stukjerr" />
		<tag k="natural" v="wetland" />
		<tag k="ssr:stedsnr" v="106048" />
	</node>
	<node id="-331955" lat="58.214405558" lon="8.13512222133">
		<tag k="name" v="Kvassekleivkjerr" />
		<tag k="natural" v="wetland" />
		<tag k="ssr:stedsnr" v="106041" />
	</node>
	<node id="-331936" lat="58.2618722181" lon="8.12404999765">
		<tag k="name" v="Fosselangemyr" />
		<tag k="natural" v="wetland" />
		<tag k="ssr:stedsnr" v="89397" />
	</node>
	<node id="-331933" lat="58.2777416679" lon="8.09741667294">
		<tag k="name" v="Danmarksmyr" />
		<tag k="natural" v="wetland" />
		<tag k="ssr:stedsnr" v="89341" />
	</node>
	<node id="-331932" lat="58.270994445" lon="8.08003332541">
		<tag k="name" v="Pålsmyr" />
		<tag k="natural" v="wetland" />
		<tag k="ssr:stedsnr" v="89336" />
	</node>
	<node id="-331931" lat="58.2365388911" lon="8.14498889376">
		<tag k="name" v="Askekjerr" />
		<tag k="natural" v="wetland" />
		<tag k="ssr:stedsnr" v="89331" />
	</node>
	<node id="-331925" lat="58.2670527735" lon="8.10520278126">
		<tag k="landuse" v="quarry" />
		<tag k="name" v="Kalkgrua" />
		<tag k="ssr:stedsnr" v="89297" />
	</node>
	<node id="-331921" lat="58.2580472181" lon="8.11209167201">
		<tag k="name" v="Ufredskjerrene" />
		<tag k="natural" v="wetland" />
		<tag k="ssr:stedsnr" v="89269" />
	</node>
	<node id="-331918" lat="58.2447888893" lon="8.07717223008">
		<tag k="name" v="Stråmyr" />
		<tag k="natural" v="wetland" />
		<tag k="ssr:stedsnr" v="89242" />
	</node>
	<node id="-331916" lat="58.2442805571" lon="8.0151916676">
		<tag k="name" v="Nokkedalsmyra" />
		<tag k="natural" v="wetland" />
		<tag k="ssr:stedsnr" v="89194" />
	</node>
	<node id="-331904" lat="58.2232999984" lon="8.11306944102">
		<tag k="alt_name" v="Jordfaldet" />
		<tag k="name" v="Jordfall" />
		<tag k="place" v="locality" />
		<tag k="ssr:stedsnr" v="86350" />
	</node>
	<node id="-331902" lat="58.2060999993" lon="7.89327777927">
		<tag k="name" v="Varpkjerrane" />
		<tag k="natural" v="wetland" />
		<tag k="ssr:stedsnr" v="85913" />
	</node>
	<node id="-331896" lat="58.1336694419" lon="7.90518332972">
		<tag k="name" v="Godthola" />
		<tag k="natural" v="wetland" />
		<tag k="ssr:stedsnr" v="85867" />
	</node>
	<node id="-333943" lat="58.2708027747" lon="8.13544722374">
		<tag k="name" v="Store Kleivemyr" />
		<tag k="natural" v="wetland" />
		<tag k="ssr:stedsnr" v="878314" />
	</node>
	<node id="-331892" lat="58.2143444467" lon="7.89843333826">
		<tag k="name" v="Kringlemyr" />
		<tag k="natural" v="wetland" />
		<tag k="ssr:stedsnr" v="85043" />
	</node>
	<node id="-331889" lat="58.2010138912" lon="7.90784722399">
		<tag k="name" v="Småmyran" />
		<tag k="natural" v="wetland" />
		<tag k="ssr:stedsnr" v="85027" />
	</node>
	<node id="-333927" lat="58.2187638883" lon="7.8761500027">
		<tag k="name" v="Storemyr" />
		<tag k="natural" v="wetland" />
		<tag k="ssr:stedsnr" v="878125" />
	</node>
	<node id="-333924" lat="58.2200277759" lon="7.88029444715">
		<tag k="name" v="Lyngmyr" />
		<tag k="natural" v="wetland" />
		<tag k="ssr:stedsnr" v="878109" />
	</node>
	<node id="-333923" lat="58.1916750033" lon="7.99536666352">
		<tag k="name" v="Jerdalsmyra" />
		<tag k="natural" v="wetland" />
		<tag k="ssr:stedsnr" v="878106" />
	</node>
	<node id="-333922" lat="58.2278888895" lon="7.92058611427">
		<tag k="name" v="Kleivmyr" />
		<tag k="natural" v="wetland" />
		<tag k="ssr:stedsnr" v="878103" />
	</node>
	<node id="-333919" lat="58.1794000022" lon="7.91006389514">
		<tag k="name" v="Slåttemyr" />
		<tag k="natural" v="wetland" />
		<tag k="ssr:stedsnr" v="878011" />
	</node>
	<node id="-333914" lat="58.2514916654" lon="8.12814999449">
		<tag k="name" v="Sovedalsmyra" />
		<tag k="natural" v="wetland" />
		<tag k="ssr:stedsnr" v="877230" />
	</node>
	<node id="-333910" lat="58.2095555546" lon="7.85493054803">
		<tag k="name" v="Firføsselkjerret" />
		<tag k="natural" v="wetland" />
		<tag k="ssr:stedsnr" v="874898" />
	</node>
	<node id="-333905" lat="58.187497224" lon="7.88931944401">
		<tag k="name" v="Rundemyr" />
		<tag k="natural" v="wetland" />
		<tag k="ssr:stedsnr" v="874032" />
	</node>
	<node id="-333902" lat="58.1943805585" lon="7.90980833659">
		<tag k="name" v="Magnhildsmyrane" />
		<tag k="natural" v="wetland" />
		<tag k="ssr:stedsnr" v="874023" />
	</node>
	<node id="-331979" lat="58.2123638898" lon="7.92743055489">
		<tag k="landuse" v="peat_cutting" />
		<tag k="name" v="Torve" />
		<tag k="ssr:stedsnr" v="106529" />
	</node>
	<node id="-331844" lat="58.2014472259" lon="7.95436666662">
		<tag k="name" v="Snømyr" />
		<tag k="natural" v="wetland" />
		<tag k="ssr:stedsnr" v="46832" />
	</node>
	<node id="-331839" lat="58.0717166666" lon="7.99126667342">
		<tag k="name" v="Forsmyra" />
		<tag k="natural" v="wetland" />
		<tag k="ssr:stedsnr" v="46604" />
	</node>
	<node id="-331829" lat="58.1909055574" lon="8.05309444772">
		<tag k="name" v="Myra" />
		<tag k="natural" v="wetland" />
		<tag k="ssr:stedsnr" v="46462" />
	</node>
	<node id="-331828" lat="58.0712500036" lon="7.97703333226">
		<tag k="name" v="Grunnevoll" />
		<tag k="natural" v="wetland" />
		<tag k="ssr:stedsnr" v="46456" />
	</node>
	<node id="-331825" lat="58.1541138917" lon="7.91942222494">
		<tag k="name" v="Bjørkelimyrene" />
		<tag k="natural" v="wetland" />
		<tag k="ssr:stedsnr" v="46444" />
	</node>
	<node id="-331823" lat="58.0790472217" lon="7.99624443864">
		<tag k="name" v="Myra" />
		<tag k="natural" v="wetland" />
		<tag k="ssr:stedsnr" v="46370" />
	</node>
	<node id="-331810" lat="58.0915055552" lon="7.99872778457">
		<tag k="name" v="Flekksundmyra" />
		<tag k="natural" v="wetland" />
		<tag k="ssr:stedsnr" v="46314" />
	</node>
	<node id="-333847" lat="58.2281277741" lon="8.00962499727">
		<tag k="name" v="Gåmollfallet" />
		<tag k="place" v="locality" />
		<tag k="ssr:stedsnr" v="836100" />
	</node>
	<node id="-331792" lat="58.206716668" lon="8.10944166139">
		<tag k="name" v="Krogemyra" />
		<tag k="natural" v="wetland" />
		<tag k="ssr:stedsnr" v="45893" />
	</node>
	<node id="-333839" lat="58.0835916652" lon="8.00162776989">
		<tag k="name" v="Skiddmyra" />
		<tag k="natural" v="wetland" />
		<tag k="ssr:stedsnr" v="835654" />
	</node>
	<node id="-333838" lat="58.2061666636" lon="8.01425000837">
		<tag k="name" v="Vølemoen" />
		<tag k="natural" v="wetland" />
		<tag k="ssr:stedsnr" v="835651" />
	</node>
</osm>
