<?xml version="1.0" encoding="UTF-8"?>
<osm generator="osmapis" version="0.6">
	<node id="-333822" lat="58.1487055551" lon="7.95579722815">
		<tag k="amenity" v="school" />
		<tag k="name" v="Karl Johans minne skole" />
		<tag k="ssr:stedsnr" v="835416" />
	</node>
	<node id="-331773" lat="58.2556916698" lon="8.16347499186">
		<tag k="name" v="Myrkroken" />
		<tag k="place" v="farm" />
		<tag k="ssr:stedsnr" v="45093" />
	</node>
	<node id="-331771" lat="58.2534666683" lon="8.15074166057">
		<tag k="name" v="Sannes" />
		<tag k="place" v="hamlet" />
		<tag k="ssr:stedsnr" v="45087" />
	</node>
	<node id="-331092" lat="58.2140499995" lon="8.10509166142">
		<tag k="name" v="Borgevoll" />
		<tag k="place" v="farm" />
		<tag k="ssr:stedsnr" v="303455" />
	</node>
	<node id="-331765" lat="58.1838305589" lon="8.09492222867">
		<tag k="name" v="Sandehaven" />
		<tag k="place" v="hamlet" />
		<tag k="ssr:stedsnr" v="45035" />
	</node>
	<node id="-331764" lat="58.1810638908" lon="8.08831666302">
		<tag k="building" v="commercial" />
		<tag k="name" v="Hånes senter" />
		<tag k="ssr:stedsnr" v="45031" />
	</node>
	<node id="-331774" lat="58.2546499994" lon="8.16296388358">
		<tag k="name" v="Myren" />
		<tag k="place" v="hamlet" />
		<tag k="ssr:stedsnr" v="45094" />
	</node>
	<node id="-333808" lat="58.1674333308" lon="8.01618332793">
		<tag k="building" v="commercial" />
		<tag k="name" v="Statsarkivet" />
		<tag k="ssr:stedsnr" v="835156" />
	</node>
	<node id="-333807" lat="58.1329638892" lon="7.96067221892">
		<tag k="amenity" v="school" />
		<tag k="name" v="Slettheia skole" />
		<tag k="ssr:stedsnr" v="835119" />
	</node>
	<node id="-331090" lat="58.2435611143" lon="8.13477221988">
		<tag k="fixme" v="consider place=hamlet" />
		<tag k="name" v="Kråkebumoen" />
		<tag k="place" v="village" />
		<tag k="ssr:stedsnr" v="303362" />
	</node>
	<node id="-331753" lat="58.0978972249" lon="7.97315277491">
		<tag k="name" v="Vik" />
		<tag k="place" v="isolated_dwelling" />
		<tag k="ssr:stedsnr" v="36202" />
	</node>
	<node id="-331749" lat="58.1771666661" lon="8.09036111367">
		<tag k="name" v="Hånes" />
		<tag k="place" v="suburb" />
		<tag k="ssr:stedsnr" v="31792" />
	</node>
	<node id="-331085" lat="58.1444277816" lon="7.92732499285">
		<tag k="name" v="Fidjane" />
		<tag k="place" v="farm" />
		<tag k="ssr:stedsnr" v="303207" />
	</node>
	<node id="-333767" lat="58.1122027775" lon="7.96478054791">
		<tag k="fixme" v="consider place=suburb, village or hamlet" />
		<tag k="name" v="Voie" />
		<tag k="place" v="quarter" />
		<tag k="ssr:stedsnr" v="826225" />
	</node>
	<node id="-331709" lat="58.1462444465" lon="7.93295832489">
		<tag k="name" v="Hellemyr" />
		<tag k="place" v="suburb" />
		<tag k="ssr:stedsnr" v="26127" />
	</node>
	<node id="-333751" lat="58.1081305566" lon="8.13822777619">
		<tag k="name" v="Buane vestre" />
		<tag k="place" v="farm" />
		<tag k="ssr:stedsnr" v="817349" />
	</node>
	<node id="-333748" lat="58.2731194406" lon="8.09556389416">
		<tag k="name" v="Osen" />
		<tag k="place" v="farm" />
		<tag k="ssr:stedsnr" v="817311" />
	</node>
	<node id="-331080" lat="58.2252055583" lon="7.9336722209">
		<tag k="alt_name" v="Mosby, øvre" />
		<tag k="fixme" v="consider place=hamlet" />
		<tag k="name" v="Øvre Mosby" />
		<tag k="place" v="farm" />
		<tag k="ssr:stedsnr" v="303104" />
	</node>
	<node id="-331688" lat="58.2151570739" lon="8.09408937423">
		<tag k="fixme" v="consider place=hamlet" />
		<tag k="name" v="Bøen" />
		<tag k="place" v="farm" />
		<tag k="ssr:stedsnr" v="736" />
	</node>
	<node id="-331686" lat="58.1304083316" lon="8.14736110581">
		<tag k="name" v="Romstøl" />
		<tag k="place" v="farm" />
		<tag k="ssr:stedsnr" v="538" />
	</node>
	<node id="-331681" lat="58.234883336" lon="8.12600000634">
		<tag k="name" v="Nygård" />
		<tag k="place" v="farm" />
		<tag k="ssr:stedsnr" v="281" />
	</node>
	<node id="-331077" lat="58.1799638884" lon="7.93764167205">
		<tag k="name" v="Langemyr" />
		<tag k="place" v="quarter" />
		<tag k="ssr:stedsnr" v="303041" />
	</node>
	<node id="-331676" lat="58.126602034" lon="7.96646875443">
		<tag k="name" v="Fiskå" />
		<tag k="old_name" v="Fiska" />
		<tag k="place" v="suburb" />
		<tag k="ssr:stedsnr" v="240" />
	</node>
	<node id="-331672" lat="58.1003749993" lon="7.93145832523">
		<tag k="name" v="Holskogen" />
		<tag k="place" v="farm" />
		<tag k="ssr:stedsnr" v="164" />
	</node>
	<node id="-333719" lat="58.1441499997" lon="7.97773332795">
		<tag k="name" v="Bellevue" />
		<tag k="place" v="quarter" />
		<tag k="ssr:stedsnr" v="814421" />
	</node>
	<node id="-331670" lat="58.1252472191" lon="8.08440000642">
		<tag k="alt_name" v="Rabbesvika;Rabbersvik" />
		<tag k="name" v="Rabbersvig" />
		<tag k="place" v="farm" />
		<tag k="ssr:stedsnr" v="146" />
	</node>
	<node id="-331668" lat="58.215027778" lon="7.88921667017">
		<tag k="fixme" v="consider place=hamlet" />
		<tag k="name" v="Mestad" />
		<tag k="place" v="farm" />
		<tag k="ssr:stedsnr" v="135" />
	</node>
	<node id="-331667" lat="58.2168861073" lon="7.92173333975">
		<tag k="alt_name" v="Mosby, ytre" />
		<tag k="fixme" v="consider place=hamlet" />
		<tag k="name" v="Ytre Mosby" />
		<tag k="place" v="farm" />
		<tag k="ssr:stedsnr" v="120" />
	</node>
	<node id="-331666" lat="58.2139499977" lon="7.93700556261">
		<tag k="alt_name" v="Glattetræ" />
		<tag k="fixme" v="consider place=hamlet" />
		<tag k="name" v="Glattetre" />
		<tag k="place" v="farm" />
		<tag k="ssr:stedsnr" v="117" />
	</node>
	<node id="-331665" lat="58.2232333357" lon="7.91254444831">
		<tag k="alt_name" v="Høie" />
		<tag k="building" v="industrial" />
		<tag k="industrial" v="factory" />
		<tag k="name" v="Høye" />
		<tag k="ssr:stedsnr" v="101" />
	</node>
	<node id="-333702" lat="58.227929045" lon="8.02664561786">
		<tag k="fixme" v="consider place=hamlet" />
		<tag k="name" v="Kostøl" />
		<tag k="place" v="farm" />
		<tag k="ssr:stedsnr" v="789746" />
	</node>
	<node id="-333699" lat="58.1442260488" lon="8.115548834">
		<tag k="fixme" v="consider place=hamlet" />
		<tag k="name" v="Bjørnestad" />
		<tag k="place" v="farm" />
		<tag k="ssr:stedsnr" v="789583" />
	</node>
	<node id="-333696" lat="58.1087250043" lon="8.13724443735">
		<tag k="alt_name" v="Buene, vestre" />
		<tag k="name" v="Vestre Buene" />
		<tag k="place" v="isolated_dwelling" />
		<tag k="ssr:stedsnr" v="789517" />
	</node>
	<node id="-331072" lat="58.146797224" lon="7.99531944577">
		<tag k="leisure" v="park" />
		<tag k="name" v="Wergelandsparken" />
		<tag k="ssr:stedsnr" v="290000" />
	</node>
	<node id="-333690" lat="58.1570638856" lon="8.05459444416">
		<tag k="fixme" v="consider place=hamlet" />
		<tag k="name" v="Torsvik" />
		<tag k="place" v="farm" />
		<tag k="ssr:stedsnr" v="789207" />
	</node>
	<node id="-333688" lat="58.1110500044" lon="7.9448166717">
		<tag k="name" v="Solås" />
		<tag k="place" v="farm" />
		<tag k="ssr:stedsnr" v="789128" />
	</node>
	<node id="-333683" lat="58.1349722209" lon="8.16418610707">
		<tag k="fixme" v="consider place=hamlet" />
		<tag k="name" v="Eftevåg" />
		<tag k="place" v="farm" />
		<tag k="ssr:stedsnr" v="788528" />
	</node>
	<node id="-333679" lat="58.1494361144" lon="8.03103610306">
		<tag k="landuse" v="military" />
		<tag k="name" v="Marvika" />
		<tag k="ssr:stedsnr" v="788208" />
	</node>
	<node id="-333677" lat="58.1698750015" lon="7.94741110354">
		<tag k="name" v="Glitre" />
		<tag k="place" v="farm" />
		<tag k="ssr:stedsnr" v="788053" />
	</node>
	<node id="-333670" lat="58.1499416626" lon="8.02382778172">
		<tag k="amenity" v="school" />
		<tag k="name" v="Wilds minne skole" />
		<tag k="ssr:stedsnr" v="774979" />
	</node>
	<node id="-333650" lat="58.1482833342" lon="7.97042221988">
		<tag k="amenity" v="school" />
		<tag k="name" v="Grim skole" />
		<tag k="ssr:stedsnr" v="774431" />
	</node>
	<node id="-333624" lat="58.142613891" lon="8.0544249979">
		<tag k="name" v="Veslegard" />
		<tag k="place" v="farm" />
		<tag k="ssr:stedsnr" v="774000" />
	</node>
	<node id="-331575" lat="58.0987924959" lon="8.10255693485">
		<tag k="amenity" v="school" />
		<tag k="name" v="Haraldvigen" />
		<tag k="ssr:stedsnr" v="983328" />
	</node>
	<node id="-333622" lat="58.2147277802" lon="8.10003332787">
		<tag k="name" v="Stabbeteig" />
		<tag k="place" v="farm" />
		<tag k="ssr:stedsnr" v="773971" />
	</node>
	<node id="-333617" lat="58.1516138854" lon="8.07997778179">
		<tag k="amenity" v="kindergarten" />
		<tag k="name" v="Veslefrikk barnehage" />
		<tag k="ssr:stedsnr" v="773848" />
	</node>
	<node id="-333615" lat="58.1511444455" lon="7.99886389221">
		<tag k="amenity" v="nursing_home" />
		<tag k="name" v="Sykehjemmet" />
		<tag k="ssr:stedsnr" v="773677" />
	</node>
	<node id="-333609" lat="58.1468750014" lon="8.00488332928">
		<tag k="amenity" v="school" />
		<tag k="name" v="Kristiansand tekniske skole" />
		<tag k="ssr:stedsnr" v="773532" />
	</node>
	<node id="-331557" lat="58.1463305592" lon="7.99599722778">
		<tag k="name" v="Torvet" />
		<tag k="place" v="square" />
		<tag k="ssr:stedsnr" v="896999" />
	</node>
	<node id="-331556" lat="58.1467944477" lon="7.99691388402">
		<tag k="amenity" v="townhall" />
		<tag k="name" v="Rådhuset" />
		<tag k="ssr:stedsnr" v="896994" />
	</node>
	<node id="-331555" lat="58.146766663" lon="8.00348055108">
		<tag k="amenity" v="school" />
		<tag k="name" v="Husflidskole" />
		<tag k="ssr:stedsnr" v="896993" />
	</node>
	<node id="-331554" lat="58.1525638899" lon="7.9750861175">
		<tag k="amenity" v="nursing_home" />
		<tag k="name" v="Grimtunet sykehjem" />
		<tag k="ssr:stedsnr" v="896981" />
	</node>
	<node id="-331549" lat="58.1841220291" lon="8.00739518283">
		<tag k="amenity" v="cafe" />
		<tag k="name" v="Gillshytta" />
		<tag k="ssr:stedsnr" v="896718" />
	</node>
	<node id="-331547" lat="58.1006055572" lon="7.94805277954">
		<tag k="amenity" v="school" />
		<tag k="name" v="Torkelsmyra skole" />
		<tag k="ssr:stedsnr" v="896686" />
	</node>
	<node id="-332079" lat="58.1161583296" lon="8.108783331">
		<tag k="name" v="Kirkevika" />
		<tag k="place" v="isolated_dwelling" />
		<tag k="ssr:stedsnr" v="121515" />
	</node>
	<node id="-333590" lat="58.262922224" lon="8.0727777711">
		<tag k="name" v="Rosseland" />
		<tag k="place" v="hamlet" />
		<tag k="ssr:stedsnr" v="773005" />
	</node>
	<node id="-333588" lat="58.1482916704" lon="8.02254999941">
		<tag k="name" v="Valhalla" />
		<tag k="place" v="suburb" />
		<tag k="ssr:stedsnr" v="769036" />
	</node>
	<node id="-333587" lat="58.1457999962" lon="8.05914166046">
		<tag k="name" v="Himmelknuten" />
		<tag k="place" v="farm" />
		<tag k="ssr:stedsnr" v="769025" />
	</node>
	<node id="-331537" lat="58.1253416624" lon="7.95674445168">
		<tag k="amenity" v="sports_centre" />
		<tag k="name" v="Vågsbygd idrettshall" />
		<tag k="ssr:stedsnr" v="896427" />
	</node>
	<node id="-331536" lat="58.1580944442" lon="8.06606667004">
		<tag k="amenity" v="school" />
		<tag k="name" v="Haumyrheia skole" />
		<tag k="ssr:stedsnr" v="896428" />
	</node>
	<node id="-331535" lat="58.1786472185" lon="8.09123610421">
		<tag k="amenity" v="school" />
		<tag k="name" v="Hånes skole" />
		<tag k="ssr:stedsnr" v="896425" />
	</node>
	<node id="-331534" lat="58.1556444421" lon="7.95510556184">
		<tag k="building" v="industrial" />
		<tag k="name" v="Jernbaneverkstedet" />
		<tag k="ssr:stedsnr" v="896412" />
	</node>
	<node id="-331532" lat="58.105999996" lon="7.97546388439">
		<tag k="amenity" v="nursing_home" />
		<tag k="name" v="Ternevig sykehjem" />
		<tag k="ssr:stedsnr" v="896374" />
	</node>
	<node id="-331531" lat="58.1061638913" lon="7.95987778301">
		<tag k="amenity" v="kindergarten" />
		<tag k="name" v="Tryggheim barnehage" />
		<tag k="ssr:stedsnr" v="896371" />
	</node>
	<node id="-333572" lat="58.1523749956" lon="8.05895000047">
		<tag k="fixme" v="consider place=suburb, village or hamlet" />
		<tag k="name" v="Søm" />
		<tag k="place" v="quarter" />
		<tag k="ssr:stedsnr" v="759788" />
	</node>
	<node id="-331509" lat="58.2105805557" lon="8.09742221982">
		<tag k="name" v="Brattestø" />
		<tag k="place" v="isolated_dwelling" />
		<tag k="ssr:stedsnr" v="895982" />
	</node>
	<node id="-331507" lat="58.2159944489" lon="8.0997888835">
		<tag k="name" v="Nyborg" />
		<tag k="place" v="farm" />
		<tag k="ssr:stedsnr" v="895972" />
	</node>
	<node id="-331475" lat="58.2380555562" lon="8.03380278311">
		<tag k="name" v="Øygarden" />
		<tag k="place" v="farm" />
		<tag k="ssr:stedsnr" v="895116" />
	</node>
	<node id="-333514" lat="58.1005194419" lon="8.13520832849">
		<tag k="name" v="Stranda" />
		<tag k="place" v="farm" />
		<tag k="ssr:stedsnr" v="728685" />
	</node>
	<node id="-333512" lat="58.167997225" lon="8.09995832835">
		<tag k="fixme" v="consider place=hamlet" />
		<tag k="name" v="Berhus" />
		<tag k="place" v="farm" />
		<tag k="ssr:stedsnr" v="728581" />
	</node>
	<node id="-333510" lat="58.1477666634" lon="8.13755555501">
		<tag k="name" v="Hestehagen" />
		<tag k="place" v="farm" />
		<tag k="ssr:stedsnr" v="728572" />
	</node>
	<node id="-333505" lat="58.1130694448" lon="8.12798055064">
		<tag k="name" v="Holmen" />
		<tag k="place" v="isolated_dwelling" />
		<tag k="ssr:stedsnr" v="728517" />
	</node>
	<node id="-333504" lat="58.1126388888" lon="8.10661388179">
		<tag k="fixme" v="consider place=hamlet" />
		<tag k="name" v="Stokken" />
		<tag k="place" v="farm" />
		<tag k="ssr:stedsnr" v="728516" />
	</node>
	<node id="-333503" lat="58.1091861131" lon="8.15223332945">
		<tag k="name" v="Vågen" />
		<tag k="place" v="farm" />
		<tag k="ssr:stedsnr" v="728509" />
	</node>
	<node id="-333501" lat="58.2187472183" lon="8.18124721708">
		<tag k="alt_name" v="Hauglands hytte" />
		<tag k="name" v="Hytta" />
		<tag k="place" v="farm" />
		<tag k="ssr:stedsnr" v="728434" />
	</node>
	<node id="-333500" lat="58.2177972187" lon="8.11607778299">
		<tag k="name" v="Dønnestad" />
		<tag k="place" v="farm" />
		<tag k="ssr:stedsnr" v="728431" />
	</node>
	<node id="-333499" lat="58.2134250022" lon="8.11693055614">
		<tag k="alt_name" v="Vesholt" />
		<tag k="name" v="Vesholta" />
		<tag k="place" v="farm" />
		<tag k="ssr:stedsnr" v="728430" />
	</node>
	<node id="-333497" lat="58.2447777821" lon="8.16356388863">
		<tag k="name" v="Kildalen" />
		<tag k="place" v="farm" />
		<tag k="ssr:stedsnr" v="728319" />
	</node>
	<node id="-333496" lat="58.2465000027" lon="8.16115555645">
		<tag k="name" v="Kilåsen" />
		<tag k="place" v="farm" />
		<tag k="ssr:stedsnr" v="728317" />
	</node>
	<node id="-331447" lat="58.1490388905" lon="7.99230556067">
		<tag k="leisure" v="park" />
		<tag k="name" v="Stener Heyerdahls park" />
		<tag k="ssr:stedsnr" v="411000" />
	</node>
	<node id="-333494" lat="58.2308972235" lon="8.11484999476">
		<tag k="name" v="Lundtveit" />
		<tag k="place" v="farm" />
		<tag k="ssr:stedsnr" v="728265" />
	</node>
	<node id="-331445" lat="58.150122226" lon="7.97026944167">
		<tag k="building" v="industrial" />
		<tag k="industrial" v="factory" />
		<tag k="name" v="Christiansands møller A/S" />
		<tag k="ssr:stedsnr" v="410978" />
	</node>
	<node id="-333492" lat="58.1216083372" lon="7.9539472243">
		<tag k="name" v="Augland" />
		<tag k="place" v="village" />
		<tag k="ssr:stedsnr" v="728202" />
	</node>
	<node id="-333491" lat="58.1328638926" lon="7.96954722771">
		<tag k="alt_name" v="Myra" />
		<tag k="name" v="Myren" />
		<tag k="place" v="farm" />
		<tag k="ssr:stedsnr" v="728190" />
	</node>
	<node id="-331441" lat="58.1610666696" lon="8.0090305481">
		<tag k="amenity" v="sports_centre" />
		<tag k="name" v="Gimlehallen" />
		<tag k="ssr:stedsnr" v="410659" />
	</node>
	<node id="-333486" lat="58.0742737863" lon="7.97728994147">
		<tag k="fixme" v="consider place=hamlet" />
		<tag k="name" v="Berge" />
		<tag k="place" v="farm" />
		<tag k="ssr:stedsnr" v="728155" />
	</node>
	<node id="-331436" lat="58.1991638914" lon="8.03790277798">
		<tag k="name" v="Vigvoll" />
		<tag k="place" v="farm" />
		<tag k="ssr:stedsnr" v="410618" />
	</node>
	<node id="-333482" lat="58.2221194405" lon="8.04125278637">
		<tag k="alt_name" v="Kvevik;Kvevika" />
		<tag k="name" v="Kvivika" />
		<tag k="place" v="farm" />
		<tag k="ssr:stedsnr" v="728088" />
	</node>
	<node id="-333481" lat="58.2128583361" lon="8.03850277916">
		<tag k="fixme" v="consider place=hamlet" />
		<tag k="name" v="Føreid" />
		<tag k="place" v="farm" />
		<tag k="ssr:stedsnr" v="728086" />
	</node>
	<node id="-333478" lat="58.1759472194" lon="8.08360833121">
		<tag k="name" v="Vigvoll" />
		<tag k="place" v="farm" />
		<tag k="ssr:stedsnr" v="728049" />
	</node>
	<node id="-333477" lat="58.2714555586" lon="8.04765833471">
		<tag k="name" v="Skåra" />
		<tag k="place" v="farm" />
		<tag k="ssr:stedsnr" v="728042" />
	</node>
	<node id="-333475" lat="58.1937638884" lon="7.9435333278">
		<tag k="name" v="Tunga" />
		<tag k="place" v="farm" />
		<tag k="ssr:stedsnr" v="728003" />
	</node>
	<node id="-333474" lat="58.19795833" lon="7.93681389122">
		<tag k="alt_name" v="Liane" />
		<tag k="name" v="Lian" />
		<tag k="place" v="farm" />
		<tag k="ssr:stedsnr" v="728002" />
	</node>
	<node id="-332059" lat="58.2170921817" lon="7.93191429314">
		<tag k="fixme" v="consider place=hamlet" />
		<tag k="name" v="Haus" />
		<tag k="place" v="farm" />
		<tag k="ssr:stedsnr" v="121123" />
	</node>
	<node id="-333472" lat="58.2173277813" lon="7.92326944871">
		<tag k="fixme" v="consider place=suburb, village or hamlet" />
		<tag k="name" v="Mosby" />
		<tag k="place" v="quarter" />
		<tag k="ssr:stedsnr" v="725278" />
	</node>
	<node id="-331423" lat="58.1475805555" lon="7.93545277767">
		<tag k="amenity" v="school" />
		<tag k="name" v="Hellemyr skole" />
		<tag k="ssr:stedsnr" v="410406" />
	</node>
	<node id="-331420" lat="58.1042555561" lon="7.97286944723">
		<tag k="amenity" v="school" />
		<tag k="name" v="Møvik skole" />
		<tag k="ssr:stedsnr" v="410365" />
	</node>
	<node id="-333462" lat="58.2118583322" lon="8.10304167028">
		<tag k="building" v="industrial" />
		<tag k="name" v="Bullverket" />
		<tag k="ssr:stedsnr" v="713975" />
	</node>
	<node id="-333461" lat="58.1494527742" lon="8.12457778112">
		<tag k="name" v="Solgård" />
		<tag k="place" v="farm" />
		<tag k="ssr:stedsnr" v="713973" />
	</node>
	<node id="-333460" lat="58.1554666637" lon="8.09307500403">
		<tag k="name" v="Torp" />
		<tag k="place" v="farm" />
		<tag k="ssr:stedsnr" v="713971" />
	</node>
	<node id="-331410" lat="58.1248277754" lon="7.95300555699">
		<tag k="building" v="commercial" />
		<tag k="name" v="Vågsbygd senter" />
		<tag k="ssr:stedsnr" v="410106" />
	</node>
	<node id="-331409" lat="58.1238444465" lon="7.95626944136">
		<tag k="amenity" v="school" />
		<tag k="name" v="Vågsbygd skole" />
		<tag k="ssr:stedsnr" v="410105" />
	</node>
	<node id="-331407" lat="58.1439194465" lon="8.05135832928">
		<tag k="name" v="Vestre Fuglevik" />
		<tag k="place" v="farm" />
		<tag k="ssr:stedsnr" v="410000" />
	</node>
	<node id="-331404" lat="58.2152083372" lon="8.09288611213">
		<tag k="name" v="Heslebrekka" />
		<tag k="place" v="farm" />
		<tag k="ssr:stedsnr" v="409981" />
	</node>
	<node id="-333449" lat="58.1480999986" lon="8.05056667404">
		<tag k="name" v="Søm" />
		<tag k="place" v="farm" />
		<tag k="ssr:stedsnr" v="713710" />
	</node>
	<node id="-333447" lat="58.1969055583" lon="8.03106665912">
		<tag k="fixme" v="consider place=suburb, village or hamlet" />
		<tag k="name" v="Justvik" />
		<tag k="place" v="quarter" />
		<tag k="ssr:stedsnr" v="713701" />
	</node>
	<node id="-331394" lat="58.1603416662" lon="8.01256944998">
		<tag k="name" v="Oddernes" />
		<tag k="place" v="farm" />
		<tag k="ssr:stedsnr" v="409691" />
	</node>
	<node id="-331393" lat="58.1795583325" lon="8.14873055696">
		<tag k="amenity" v="sports_centre" />
		<tag k="name" v="Sørlandshallen" />
		<tag k="ssr:stedsnr" v="409684" />
	</node>
	<node id="-331377" lat="58.1196777793" lon="7.94778888099">
		<tag k="amenity" v="school" />
		<tag k="name" v="Åsane skole" />
		<tag k="ssr:stedsnr" v="409156" />
	</node>
	<node id="-331373" lat="58.2299249964" lon="8.02339166861">
		<tag k="name" v="Rosenborg" />
		<tag k="place" v="farm" />
		<tag k="ssr:stedsnr" v="409135" />
	</node>
	<node id="-331370" lat="58.2510944419" lon="8.16230832751">
		<tag k="name" v="Renneteigen" />
		<tag k="place" v="farm" />
		<tag k="ssr:stedsnr" v="409118" />
	</node>
	<node id="-331369" lat="58.2487805587" lon="8.16586944434">
		<tag k="name" v="Flaten" />
		<tag k="place" v="farm" />
		<tag k="ssr:stedsnr" v="409116" />
	</node>
	<node id="-333414" lat="58.1273972207" lon="8.11497777262">
		<tag k="amenity" v="school" />
		<tag k="name" v="Kringsjå skole" />
		<tag k="ssr:stedsnr" v="713391" />
	</node>
	<node id="-333412" lat="58.1255111095" lon="7.95534999294">
		<tag k="amenity" v="school" />
		<tag k="name" v="Vågsbygd videregående skole" />
		<tag k="ssr:stedsnr" v="713382" />
	</node>
	<node id="-333411" lat="58.1022333323" lon="8.11589166413">
		<tag k="name" v="Larsbakke" />
		<tag k="place" v="farm" />
		<tag k="ssr:stedsnr" v="713379" />
	</node>
	<node id="-331356" lat="58.124238892" lon="7.96809999824">
		<tag k="name" v="Lumber" />
		<tag k="place" v="quarter" />
		<tag k="ssr:stedsnr" v="400139" />
	</node>
	<node id="-333399" lat="58.1260666711" lon="7.95427500201">
		<tag k="amenity" v="school" />
		<tag k="name" v="Fiskå skole" />
		<tag k="ssr:stedsnr" v="713109" />
	</node>
	<node id="-333398" lat="58.2308166638" lon="8.02279999682">
		<tag k="name" v="Norden" />
		<tag k="place" v="farm" />
		<tag k="ssr:stedsnr" v="713099" />
	</node>
	<node id="-333396" lat="58.236630558" lon="8.13102221989">
		<tag k="name" v="Voll" />
		<tag k="place" v="farm" />
		<tag k="ssr:stedsnr" v="713069" />
	</node>
	<node id="-333394" lat="58.1018888905" lon="8.11514166383">
		<tag k="name" v="Øyna" />
		<tag k="place" v="farm" />
		<tag k="ssr:stedsnr" v="713063" />
	</node>
	<node id="-333387" lat="58.1203578934" lon="8.09196458753">
		<tag k="name" v="Tømmerstø" />
		<tag k="place" v="farm" />
		<tag k="ssr:stedsnr" v="712497" />
	</node>
	<node id="-333377" lat="58.1580444451" lon="7.9885333302">
		<tag k="name" v="Eg" />
		<tag k="place" v="quarter" />
		<tag k="ssr:stedsnr" v="699783" />
	</node>
	<node id="-331075" lat="58.1202861096" lon="8.09189443626">
		<tag k="fixme" v="consider tourism=alpine_hut or tourism=chalet" />
		<tag k="name" v="Tømmerstø" />
		<tag k="ssr:stedsnr" v="298854" />
		<tag k="tourism" v="wilderness_hut" />
	</node>
	<node id="-333373" lat="58.2446138894" lon="8.13546666783">
		<tag k="name" v="Krageboen" />
		<tag k="place" v="hamlet" />
		<tag k="ssr:stedsnr" v="696361" />
	</node>
	<node id="-333368" lat="58.2672027792" lon="8.07739166422">
		<tag k="name" v="Krossen" />
		<tag k="place" v="farm" />
		<tag k="ssr:stedsnr" v="696321" />
	</node>
	<node id="-331700" lat="58.2111833292" lon="8.00576666411">
		<tag k="historic" v="shieling" />
		<tag k="name" v="Grostøl" />
		<tag k="place" v="locality" />
		<tag k="ssr:stedsnr" v="24416" />
	</node>
	<node id="-331303" lat="58.1646833323" lon="8.00741945091">
		<tag k="fixme" v="consider place=hamlet" />
		<tag k="name" v="Jegersberg" />
		<tag k="place" v="farm" />
		<tag k="ssr:stedsnr" v="388398" />
	</node>
	<node id="-333348" lat="58.2060583313" lon="8.16082777677">
		<tag k="name" v="Olas Øygard" />
		<tag k="place" v="locality" />
		<tag k="ssr:stedsnr" v="695136" />
	</node>
	<node id="-333340" lat="58.0790138931" lon="7.98116389084">
		<tag k="fixme" v="consider place=hamlet" />
		<tag k="name" v="Andås" />
		<tag k="place" v="farm" />
		<tag k="ssr:stedsnr" v="692413" />
	</node>
	<node id="-331286" lat="58.2527722199" lon="8.16958333932">
		<tag k="alt_name" v="Kolekra" />
		<tag k="name" v="Kålegra" />
		<tag k="place" v="farm" />
		<tag k="ssr:stedsnr" v="364728" />
	</node>
	<node id="-331282" lat="58.1311055576" lon="8.10033332896">
		<tag k="fixme" v="consider place=hamlet" />
		<tag k="name" v="Holte" />
		<tag k="place" v="farm" />
		<tag k="ssr:stedsnr" v="364567" />
	</node>
	<node id="-331280" lat="58.1107305541" lon="8.15376389524">
		<tag k="name" v="Plassen" />
		<tag k="place" v="isolated_dwelling" />
		<tag k="ssr:stedsnr" v="364527" />
	</node>
	<node id="-333324" lat="58.1196361096" lon="8.10136388643">
		<tag k="name" v="Sildevika" />
		<tag k="place" v="isolated_dwelling" />
		<tag k="ssr:stedsnr" v="667480" />
	</node>
	<node id="-331275" lat="58.2438833298" lon="8.16585000549">
		<tag k="name" v="Åsen" />
		<tag k="place" v="farm" />
		<tag k="ssr:stedsnr" v="364367" />
	</node>
	<node id="-331273" lat="58.2379277752" lon="8.12276388451">
		<tag k="name" v="Eikelia" />
		<tag k="place" v="farm" />
		<tag k="ssr:stedsnr" v="364282" />
	</node>
	<node id="-333320" lat="58.2484861089" lon="8.16427777683">
		<tag k="name" v="Kroken" />
		<tag k="place" v="farm" />
		<tag k="ssr:stedsnr" v="667343" />
	</node>
	<node id="-333319" lat="58.251188893" lon="8.16426943658">
		<tag k="fixme" v="consider place=hamlet" />
		<tag k="name" v="Drangsholt" />
		<tag k="place" v="farm" />
		<tag k="ssr:stedsnr" v="667341" />
	</node>
	<node id="-333317" lat="58.2208444472" lon="8.09943889045">
		<tag k="name" v="Høgstad" />
		<tag k="place" v="farm" />
		<tag k="ssr:stedsnr" v="667284" />
	</node>
	<node id="-331261" lat="58.1832666216" lon="7.86877429944">
		<tag k="fixme" v="consider place=hamlet" />
		<tag k="name" v="Rypestøl" />
		<tag k="place" v="farm" />
		<tag k="ssr:stedsnr" v="364045" />
	</node>
	<node id="-331260" lat="58.2021305573" lon="8.05112222684">
		<tag k="alt_name" v="Gjernes" />
		<tag k="fixme" v="consider place=hamlet" />
		<tag k="name" v="Jærnes" />
		<tag k="place" v="farm" />
		<tag k="ssr:stedsnr" v="364027" />
	</node>
	<node id="-331258" lat="58.1912944414" lon="8.04066665993">
		<tag k="alt_name" v="Gjusnes" />
		<tag k="fixme" v="consider place=hamlet" />
		<tag k="name" v="Justnes" />
		<tag k="place" v="farm" />
		<tag k="ssr:stedsnr" v="364016" />
	</node>
	<node id="-331255" lat="58.1686333297" lon="7.9887944416">
		<tag k="name" v="Skaugo" />
		<tag k="place" v="quarter" />
		<tag k="ssr:stedsnr" v="361831" />
	</node>
	<node id="-331254" lat="58.2724416694" lon="8.12853055858">
		<tag k="historic" v="shieling" />
		<tag k="name" v="Pålsdalsstøa" />
		<tag k="place" v="locality" />
		<tag k="ssr:stedsnr" v="350198" />
	</node>
	<node id="-331234" lat="58.2369500021" lon="8.11798888517">
		<tag k="leisure" v="pitch" />
		<tag k="name" v="Slengheia hoppbakke" />
		<tag k="ssr:stedsnr" v="349459" />
	</node>
	<node id="-333279" lat="58.2373277773" lon="8.12932221636">
		<tag k="name" v="Egeli" />
		<tag k="place" v="farm" />
		<tag k="ssr:stedsnr" v="652889" />
	</node>
	<node id="-331229" lat="58.11141389" lon="7.90213055942">
		<tag k="name" v="Monte Rosso" />
		<tag k="place" v="isolated_dwelling" />
		<tag k="ssr:stedsnr" v="349377" />
	</node>
	<node id="-333276" lat="58.2618333342" lon="8.15815832909">
		<tag k="name" v="Foss" />
		<tag k="place" v="hamlet" />
		<tag k="ssr:stedsnr" v="652875" />
	</node>
	<node id="-333275" lat="58.1875138868" lon="8.12483611586">
		<tag k="historic" v="shieling" />
		<tag k="name" v="Jons Øygard" />
		<tag k="place" v="locality" />
		<tag k="ssr:stedsnr" v="652819" />
	</node>
	<node id="-333274" lat="58.2033972245" lon="7.97535832921">
		<tag k="amenity" v="sports_centre" />
		<tag k="name" v="Slottehallen" />
		<tag k="ssr:stedsnr" v="652805" />
	</node>
	<node id="-333273" lat="58.1834914171" lon="7.86996658444">
		<tag k="name" v="Rypestøl" />
		<tag k="place" v="hamlet" />
		<tag k="ssr:stedsnr" v="652792" />
	</node>
	<node id="-333270" lat="58.1534972267" lon="8.13850554751">
		<tag k="name" v="Skarpevold" />
		<tag k="place" v="farm" />
		<tag k="ssr:stedsnr" v="652682" />
	</node>
	<node id="-331220" lat="58.1533750033" lon="7.96619722937">
		<tag k="leisure" v="pitch" />
		<tag k="name" v="Klappane skibakke" />
		<tag k="ssr:stedsnr" v="349129" />
	</node>
	<node id="-333260" lat="58.1947555587" lon="8.08091944209">
		<tag k="name" v="Nygård" />
		<tag k="place" v="farm" />
		<tag k="ssr:stedsnr" v="652541" />
	</node>
	<node id="-331201" lat="58.1580611107" lon="8.01448055749">
		<tag k="building" v="commercial" />
		<tag k="name" v="Tobienborg" />
		<tag k="ssr:stedsnr" v="348696" />
	</node>
	<node id="-333248" lat="58.0846888845" lon="7.94358611647">
		<tag k="name" v="Torvik" />
		<tag k="place" v="hamlet" />
		<tag k="ssr:stedsnr" v="652380" />
	</node>
	<node id="-333245" lat="58.2442638859" lon="8.13989167415">
		<tag k="building" v="industrial" />
		<tag k="industrial" v="factory" />
		<tag k="name" v="Boen bruk" />
		<tag k="ssr:stedsnr" v="652366" />
	</node>
	<node id="-333244" lat="58.175813889" lon="8.08947221779">
		<tag k="amenity" v="school" />
		<tag k="name" v="Vigvoll skole" />
		<tag k="ssr:stedsnr" v="652360" />
	</node>
	<node id="-331194" lat="58.2033777734" lon="7.87472778172">
		<tag k="amenity" v="sports_centre" />
		<tag k="name" v="Trollheihallan" />
		<tag k="ssr:stedsnr" v="348567" />
	</node>
	<node id="-333241" lat="58.1473027755" lon="7.97141388385">
		<tag k="amenity" v="kindergarten" />
		<tag k="name" v="Møllestua barnehage" />
		<tag k="ssr:stedsnr" v="652344" />
	</node>
	<node id="-331186" lat="58.2471444486" lon="8.14699167345">
		<tag k="alt_name" v="Moen" />
		<tag k="name" v="Bumoen" />
		<tag k="place" v="hamlet" />
		<tag k="ssr:stedsnr" v="348082" />
	</node>
	<node id="-331184" lat="58.2306972199" lon="8.1192027826">
		<tag k="fixme" v="consider place=suburb, village or hamlet" />
		<tag k="name" v="Kvalemoen" />
		<tag k="place" v="quarter" />
		<tag k="ssr:stedsnr" v="348072" />
	</node>
	<node id="-333228" lat="58.2518277814" lon="8.1455472146">
		<tag k="name" v="Einermoen" />
		<tag k="place" v="farm" />
		<tag k="ssr:stedsnr" v="652067" />
	</node>
	<node id="-333227" lat="58.2460055527" lon="8.14449723033">
		<tag k="name" v="Hovet" />
		<tag k="place" v="hamlet" />
		<tag k="ssr:stedsnr" v="652065" />
	</node>
	<node id="-333222" lat="58.223041666" lon="8.11259166755">
		<tag k="name" v="Jordfall" />
		<tag k="place" v="farm" />
		<tag k="ssr:stedsnr" v="652039" />
	</node>
	<node id="-333217" lat="58.1596793064" lon="8.02371615615">
		<tag k="amenity" v="hospital" />
		<tag k="name" v="Kongsgårdheimen" />
		<tag k="ssr:stedsnr" v="651701" />
	</node>
	<node id="-333215" lat="58.1270305513" lon="8.07564166647">
		<tag k="name" v="Ødegård" />
		<tag k="place" v="farm" />
		<tag k="ssr:stedsnr" v="651544" />
	</node>
	<node id="-333211" lat="58.1388277748" lon="7.97148055125">
		<tag k="building" v="industrial" />
		<tag k="industrial" v="factory" />
		<tag k="name" v="Falconbridge nikkelverk" />
		<tag k="ssr:stedsnr" v="647045" />
	</node>
	<node id="-333205" lat="58.1593861085" lon="8.05959999737">
		<tag k="name" v="Fjelly" />
		<tag k="place" v="farm" />
		<tag k="ssr:stedsnr" v="643080" />
	</node>
	<node id="-333203" lat="58.1483166642" lon="8.00731111286">
		<tag k="building" v="industrial" />
		<tag k="name" v="Kongens verft" />
		<tag k="ssr:stedsnr" v="641173" />
	</node>
	<node id="-333200" lat="58.1455527738" lon="8.05916111024">
		<tag k="amenity" v="school" />
		<tag k="name" v="Vardåsen skole" />
		<tag k="ssr:stedsnr" v="634416" />
	</node>
	<node id="-331137" lat="58.23880833" lon="7.8659805636">
		<tag k="name" v="Røyrmyr" />
		<tag k="place" v="farm" />
		<tag k="ssr:stedsnr" v="331116" />
	</node>
	<node id="-333162" lat="58.1070861072" lon="7.9721361057">
		<tag k="fixme" v="consider place=hamlet" />
		<tag k="name" v="Brøvik" />
		<tag k="place" v="farm" />
		<tag k="ssr:stedsnr" v="631410" />
	</node>
	<node id="-331100" lat="58.2672972186" lon="8.09823055922">
		<tag k="alt_name" v="Skotane;Skådene" />
		<tag k="name" v="Skådane" />
		<tag k="place" v="farm" />
		<tag k="ssr:stedsnr" v="303729" />
	</node>
	<node id="-331099" lat="58.2624972203" lon="8.15720554891">
		<tag k="fixme" v="consider place=hamlet" />
		<tag k="name" v="Foss" />
		<tag k="place" v="farm" />
		<tag k="ssr:stedsnr" v="303708" />
	</node>
	<node id="-331098" lat="58.1534666674" lon="8.09694999316">
		<tag k="alt_name" v="Benestad" />
		<tag k="fixme" v="consider place=hamlet" />
		<tag k="name" v="Beinestad" />
		<tag k="place" v="farm" />
		<tag k="ssr:stedsnr" v="303610" />
	</node>
	<node id="-331097" lat="58.1495472243" lon="8.12811667235">
		<tag k="alt_name" v="Kjærrene" />
		<tag k="name" v="Kjerrane" />
		<tag k="place" v="farm" />
		<tag k="ssr:stedsnr" v="303590" />
	</node>
	<node id="-331094" lat="58.1170861127" lon="8.11341944882">
		<tag k="name" v="Kongshavn" />
		<tag k="place" v="hamlet" />
		<tag k="ssr:stedsnr" v="303517" />
	</node>
	<node id="-331093" lat="58.1975694408" lon="8.1719416663">
		<tag k="name" v="Nordkjerr" />
		<tag k="place" v="isolated_dwelling" />
		<tag k="ssr:stedsnr" v="303489" />
	</node>
	<node id="-333140" lat="58.1553222183" lon="8.12764166163">
		<tag k="alt_name" v="Løkkedrange;Lykkedrange" />
		<tag k="fixme" v="consider place=hamlet" />
		<tag k="name" v="Lykkedrang" />
		<tag k="place" v="farm" />
		<tag k="ssr:stedsnr" v="606566" />
	</node>
	<node id="-333139" lat="58.1300138901" lon="8.12141389441">
		<tag k="alt_name" v="Frikstad, nedre" />
		<tag k="name" v="Nedre Frikstad" />
		<tag k="place" v="farm" />
		<tag k="ssr:stedsnr" v="606553" />
	</node>
	<node id="-333138" lat="58.1249305519" lon="8.09714722993">
		<tag k="name" v="Bordalen" />
		<tag k="place" v="farm" />
		<tag k="ssr:stedsnr" v="606545" />
	</node>
	<node id="-333137" lat="58.1341083309" lon="8.17767499612">
		<tag k="name" v="Neset" />
		<tag k="place" v="isolated_dwelling" />
		<tag k="ssr:stedsnr" v="606530" />
	</node>
	<node id="-333136" lat="58.1412277796" lon="8.16389165911">
		<tag k="name" v="Myrane" />
		<tag k="place" v="farm" />
		<tag k="ssr:stedsnr" v="606527" />
	</node>
	<node id="-331087" lat="58.1301416712" lon="8.08828889542">
		<tag k="fixme" v="consider place=hamlet" />
		<tag k="name" v="Fidje" />
		<tag k="place" v="farm" />
		<tag k="ssr:stedsnr" v="303242" />
	</node>
	<node id="-331086" lat="58.1461500005" lon="7.99573333589">
		<tag k="name" v="Kristiansand" />
		<tag k="place" v="town" />
		<tag k="ssr:stedsnr" v="303227" />
	</node>
	<node id="-333133" lat="58.2422166627" lon="8.14288056267">
		<tag k="name" v="Flekkevika" />
		<tag k="place" v="isolated_dwelling" />
		<tag k="ssr:stedsnr" v="606324" />
	</node>
	<node id="-331083" lat="58.1604222219" lon="8.08403611531">
		<tag k="name" v="Strømme" />
		<tag k="place" v="farm" />
		<tag k="ssr:stedsnr" v="303193" />
	</node>
	<node id="-333130" lat="58.2376416707" lon="8.1362277716">
		<tag k="alt_name" v="Lillebua;Lilleboen" />
		<tag k="name" v="Lille Bua" />
		<tag k="place" v="farm" />
		<tag k="ssr:stedsnr" v="606256" />
	</node>
	<node id="-333129" lat="58.2406805578" lon="8.13676388925">
		<tag k="alt_name" v="Boen gård" />
		<tag k="fixme" v="consider place=hamlet" />
		<tag k="loc_name" v="Boen" />
		<tag k="name" v="Bua" />
		<tag k="place" v="farm" />
		<tag k="ssr:stedsnr" v="606257" />
	</node>
	<node id="-333128" lat="58.2326027781" lon="8.12665832594">
		<tag k="alt_name" v="Østre Vollane;Østre Vollene" />
		<tag k="name" v="Vollane" />
		<tag k="place" v="farm" />
		<tag k="ssr:stedsnr" v="606254" />
	</node>
	<node id="-333127" lat="58.234783337" lon="8.17003888174">
		<tag k="alt_name" v="Drangsholtstøa" />
		<tag k="name" v="Polioheim" />
		<tag k="place" v="isolated_dwelling" />
		<tag k="ssr:stedsnr" v="606253" />
	</node>
	<node id="-333125" lat="58.1277000042" lon="8.07678054979">
		<tag k="name" v="Dvergsnes" />
		<tag k="place" v="farm" />
		<tag k="ssr:stedsnr" v="606228" />
	</node>
	<node id="-333124" lat="58.1373555545" lon="7.93456665919">
		<tag k="name" v="Slettheia" />
		<tag k="place" v="quarter" />
		<tag k="ssr:stedsnr" v="606220" />
	</node>
	<node id="-333123" lat="58.152927777" lon="8.09780000353">
		<tag k="fixme" v="multiple name tags, choose one and add the other to alt_name" />
		<tag k="name" v="Beines;Beinestad" />
		<tag k="place" v="farm" />
		<tag k="ssr:stedsnr" v="606198" />
	</node>
	<node id="-333122" lat="58.1637777764" lon="8.06865834059">
		<tag k="name" v="Rodenes" />
		<tag k="place" v="farm" />
		<tag k="ssr:stedsnr" v="606186" />
	</node>
	<node id="-333120" lat="58.0740972226" lon="8.00279166667">
		<tag k="alt_name" v="Mebø;Medbø" />
		<tag k="fixme" v="consider place=suburb, village or hamlet" />
		<tag k="name" v="Mæbø" />
		<tag k="place" v="quarter" />
		<tag k="ssr:stedsnr" v="606178" />
	</node>
	<node id="-333119" lat="58.0840333373" lon="7.94349444206">
		<tag k="alt_name" v="Torvika;Torvik" />
		<tag k="name" v="Torviga" />
		<tag k="place" v="farm" />
		<tag k="ssr:stedsnr" v="606165" />
	</node>
	<node id="-333118" lat="58.0857583298" lon="7.95579444814">
		<tag k="name" v="Vikane" />
		<tag k="place" v="isolated_dwelling" />
		<tag k="ssr:stedsnr" v="606149" />
	</node>
	<node id="-333116" lat="58.2315249961" lon="7.93112777382">
		<tag k="alt_name" v="Myrvoll;Mørevoll" />
		<tag k="name" v="Mørevollen" />
		<tag k="place" v="farm" />
		<tag k="ssr:stedsnr" v="606104" />
	</node>
	<node id="-333115" lat="58.2264805516" lon="7.87435833347">
		<tag k="fixme" v="consider place=hamlet" />
		<tag k="name" v="Espestøl" />
		<tag k="place" v="farm" />
		<tag k="ssr:stedsnr" v="606100" />
	</node>
	<node id="-333114" lat="58.241302782" lon="7.88264444982">
		<tag k="name" v="Dale" />
		<tag k="place" v="farm" />
		<tag k="ssr:stedsnr" v="606092" />
	</node>
	<node id="-333113" lat="58.1618361117" lon="8.03890277665">
		<tag k="fixme" v="consider place=hamlet" />
		<tag k="name" v="Vige" />
		<tag k="place" v="farm" />
		<tag k="ssr:stedsnr" v="606048" />
	</node>
	<node id="-333110" lat="58.182061108" lon="8.00934443814">
		<tag k="alt_name" v="Gjel, nedre" />
		<tag k="name" v="Nedre Gill" />
		<tag k="place" v="farm" />
		<tag k="ssr:stedsnr" v="606031" />
	</node>
	<node id="-333108" lat="58.1470499996" lon="8.00125277444">
		<tag k="amenity" v="school" />
		<tag k="name" v="Kongens gate skole" />
		<tag k="ssr:stedsnr" v="592998" />
	</node>
	<node id="-333104" lat="58.230067327" lon="7.87482624372">
		<tag k="name" v="Stølen" />
		<tag k="place" v="hamlet" />
		<tag k="ssr:stedsnr" v="592834" />
	</node>
	<node id="-331049" lat="58.1474361136" lon="7.96968888916">
		<tag k="amenity" v="school" />
		<tag k="name" v="Solholmen skole" />
		<tag k="ssr:stedsnr" v="289389" />
	</node>
	<node id="-331048" lat="58.2042555596" lon="7.92703611316">
		<tag k="alt_name" v="Ytre Torridal skole" />
		<tag k="amenity" v="school" />
		<tag k="name" v="Torridal skole" />
		<tag k="ssr:stedsnr" v="289388" />
	</node>
	<node id="-333091" lat="58.2041000001" lon="8.02986944223">
		<tag k="amenity" v="school" />
		<tag k="name" v="Justvik skole" />
		<tag k="ssr:stedsnr" v="592429" />
	</node>
	<node id="-333090" lat="58.1829583318" lon="8.0838194442">
		<tag k="amenity" v="school" />
		<tag k="name" v="Ansgarskolen" />
		<tag k="ssr:stedsnr" v="592426" />
	</node>
	<node id="-333089" lat="58.1695527757" lon="7.94412777866">
		<tag k="building" v="industrial" />
		<tag k="industrial" v="factory" />
		<tag k="name" v="Kristiansand jernstøperi" />
		<tag k="ssr:stedsnr" v="592424" />
	</node>
	<node id="-331027" lat="58.1267361079" lon="8.09453889437">
		<tag k="name" v="Fidje" />
		<tag k="place" v="farm" />
		<tag k="ssr:stedsnr" v="288979" />
	</node>
	<node id="-331022" lat="58.1791999965" lon="7.96291945111">
		<tag k="name" v="Nedre Blokkedal" />
		<tag k="place" v="locality" />
		<tag k="ssr:stedsnr" v="288949" />
	</node>
	<node id="-331021" lat="58.1819777817" lon="7.96003888789">
		<tag k="name" v="Øvre Blokkedal" />
		<tag k="place" v="locality" />
		<tag k="ssr:stedsnr" v="288947" />
	</node>
	<node id="-331017" lat="58.1404444489" lon="8.12016666161">
		<tag k="name" v="Bjørnestad" />
		<tag k="place" v="farm" />
		<tag k="ssr:stedsnr" v="288644" />
	</node>
	<node id="-331015" lat="58.1547166698" lon="8.09174721867">
		<tag k="name" v="Torp" />
		<tag k="place" v="farm" />
		<tag k="ssr:stedsnr" v="288640" />
	</node>
	<node id="-333062" lat="58.129191671" lon="7.96194166662">
		<tag k="building" v="commercial" />
		<tag k="name" v="Trekanten senter" />
		<tag k="ssr:stedsnr" v="592105" />
	</node>
	<node id="-333043" lat="58.2022722229" lon="7.93088055872">
		<tag k="name" v="Øvre Stray" />
		<tag k="place" v="farm" />
		<tag k="ssr:stedsnr" v="591598" />
	</node>
	<node id="-330993" lat="58.0744194459" lon="7.97684444086">
		<tag k="name" v="Berge" />
		<tag k="place" v="hamlet" />
		<tag k="ssr:stedsnr" v="288077" />
	</node>
	<node id="-330991" lat="58.222244445" lon="8.11079445267">
		<tag k="name" v="Hektorsmoen" />
		<tag k="place" v="farm" />
		<tag k="ssr:stedsnr" v="288073" />
	</node>
	<node id="-333024" lat="58.2252527813" lon="8.11653610863">
		<tag k="building" v="industrial" />
		<tag k="name" v="Kalkverket" />
		<tag k="ssr:stedsnr" v="591061" />
	</node>
	<node id="-330972" lat="58.1595833379" lon="8.02387222895">
		<tag k="name" v="Nedre Kongsgård" />
		<tag k="place" v="farm" />
		<tag k="ssr:stedsnr" v="279039" />
	</node>
	<node id="-333008" lat="58.1992861111" lon="8.09720000774">
		<tag k="fixme" v="consider place=hamlet" />
		<tag k="name" v="Hamre" />
		<tag k="place" v="farm" />
		<tag k="ssr:stedsnr" v="580806" />
	</node>
	<node id="-332994" lat="58.2694916656" lon="8.07588055502">
		<tag k="name" v="Aslaksdal" />
		<tag k="place" v="farm" />
		<tag k="ssr:stedsnr" v="574349" />
	</node>
	<node id="-330942" lat="58.2298744208" lon="7.87464088102">
		<tag k="fixme" v="consider place=hamlet" />
		<tag k="name" v="Stølen" />
		<tag k="place" v="farm" />
		<tag k="ssr:stedsnr" v="271144" />
	</node>
	<node id="-332960" lat="58.1846499958" lon="8.14688889343">
		<tag k="name" v="Kristiansand dyrepark" />
		<tag k="old_name" v="Dyreparken" />
		<tag k="ssr:stedsnr" v="571313" />
		<tag k="tourism" v="theme_park" />
	</node>
	<node id="-332949" lat="58.1648916623" lon="8.02264166777">
		<tag k="fixme" v="consider place=hamlet" />
		<tag k="name" v="Bjørndalen" />
		<tag k="place" v="farm" />
		<tag k="ssr:stedsnr" v="570375" />
	</node>
	<node id="-332942" lat="58.2704749979" lon="8.16964722938">
		<tag k="name" v="Kroken" />
		<tag k="place" v="locality" />
		<tag k="ssr:stedsnr" v="546697" />
	</node>
	<node id="-332941" lat="58.1636416689" lon="8.10071667143">
		<tag k="alt_name" v="Timenes, nedre" />
		<tag k="fixme" v="consider place=hamlet" />
		<tag k="name" v="Nedre Timenes" />
		<tag k="place" v="farm" />
		<tag k="ssr:stedsnr" v="546556" />
	</node>
	<node id="-332939" lat="58.1318777818" lon="8.11815555063">
		<tag k="alt_name" v="Frikstad, øvre;Frikstad" />
		<tag k="name" v="Øvre Frikstad" />
		<tag k="place" v="farm" />
		<tag k="ssr:stedsnr" v="546514" />
	</node>
	<node id="-332937" lat="58.10693611" lon="8.14146389382">
		<tag k="alt_name" v="Buene, østre;Buane østre" />
		<tag k="name" v="Østre Buene" />
		<tag k="place" v="farm" />
		<tag k="ssr:stedsnr" v="546480" />
	</node>
	<node id="-332935" lat="58.1202611093" lon="8.09374999284">
		<tag k="alt_name" v="Vabo" />
		<tag k="name" v="Vadbua" />
		<tag k="place" v="isolated_dwelling" />
		<tag k="ssr:stedsnr" v="546474" />
	</node>
	<node id="-332930" lat="58.2482972213" lon="8.16036389092">
		<tag k="name" v="Kiløyna" />
		<tag k="place" v="farm" />
		<tag k="ssr:stedsnr" v="546332" />
	</node>
	<node id="-332925" lat="58.1395472233" lon="8.0589861108">
		<tag k="fixme" v="consider place=hamlet" />
		<tag k="name" v="Rosenlund" />
		<tag k="place" v="farm" />
		<tag k="ssr:stedsnr" v="546215" />
	</node>
	<node id="-331060" lat="58.1092388889" lon="8.15211111193">
		<tag k="name" v="Sodefjed" />
		<tag k="place" v="farm" />
		<tag k="ssr:stedsnr" v="289579" />
	</node>
	<node id="-332922" lat="58.1558248443" lon="7.92221540763">
		<tag k="name" v="Kjerrane" />
		<tag k="place" v="farm" />
		<tag k="ssr:stedsnr" v="546194" />
	</node>
	<node id="-332920" lat="58.2422000009" lon="8.05240000104">
		<tag k="name" v="Fredholt" />
		<tag k="place" v="farm" />
		<tag k="ssr:stedsnr" v="546089" />
	</node>
	<node id="-332914" lat="58.2019500017" lon="7.93045555626">
		<tag k="alt_name" v="Strai, øvre" />
		<tag k="fixme" v="consider place=hamlet" />
		<tag k="name" v="Øvre Strai" />
		<tag k="place" v="farm" />
		<tag k="ssr:stedsnr" v="546002" />
	</node>
	<node id="-332912" lat="58.190024997" lon="7.92640832843">
		<tag k="alt_name" v="Strai, yt;Strai, ytre" />
		<tag k="fixme" v="consider place=hamlet" />
		<tag k="name" v="Ytre Strai" />
		<tag k="place" v="farm" />
		<tag k="ssr:stedsnr" v="543309" />
	</node>
	<node id="-332902" lat="58.1663388848" lon="8.00998334067">
		<tag k="amenity" v="school" />
		<tag k="name" v="Presteheia skole" />
		<tag k="ssr:stedsnr" v="531881" />
	</node>
	<node id="-332901" lat="58.1697805544" lon="8.09018054738">
		<tag k="name" v="Hånes" />
		<tag k="place" v="farm" />
		<tag k="ssr:stedsnr" v="531780" />
	</node>
	<node id="-332896" lat="58.2311861137" lon="7.92610000591">
		<tag k="name" v="Dalane" />
		<tag k="place" v="farm" />
		<tag k="ssr:stedsnr" v="531651" />
	</node>
	<node id="-332893" lat="58.1467472244" lon="7.97338055563">
		<tag k="leisure" v="pitch" />
		<tag k="name" v="Idrettsplassen" />
		<tag k="ssr:stedsnr" v="531647" />
	</node>
	<node id="-332888" lat="58.1565027809" lon="8.05551943917">
		<tag k="amenity" v="nursing_home" />
		<tag k="name" v="Randesundheimen" />
		<tag k="ssr:stedsnr" v="531590" />
	</node>
	<node id="-332880" lat="58.0780555584" lon="7.98440278463">
		<tag k="name" v="Døsset" />
		<tag k="place" v="hamlet" />
		<tag k="ssr:stedsnr" v="531489" />
	</node>
	<node id="-332873" lat="58.0845444403" lon="8.00219167221">
		<tag k="name" v="Lindebø" />
		<tag k="place" v="hamlet" />
		<tag k="ssr:stedsnr" v="531448" />
	</node>
	<node id="-332869" lat="58.1551805531" lon="8.08172222515">
		<tag k="amenity" v="nursing_home" />
		<tag k="name" v="Strømme senter" />
		<tag k="ssr:stedsnr" v="531410" />
	</node>
	<node id="-332868" lat="58.2075916685" lon="8.11093889731">
		<tag k="amenity" v="school" />
		<tag k="name" v="Ve skole" />
		<tag k="ssr:stedsnr" v="531399" />
	</node>
	<node id="-332849" lat="58.2107166661" lon="8.09834443934">
		<tag k="name" v="Haugene" />
		<tag k="place" v="isolated_dwelling" />
		<tag k="ssr:stedsnr" v="530980" />
	</node>
	<node id="-331272" lat="58.1320735923" lon="8.07826349163">
		<tag k="fixme" v="consider place=hamlet" />
		<tag k="name" v="Dvergsnes" />
		<tag k="place" v="farm" />
		<tag k="ssr:stedsnr" v="364247" />
	</node>
	<node id="-332846" lat="58.2009333364" lon="7.88207777284">
		<tag k="name" v="Aurebekk" />
		<tag k="place" v="hamlet" />
		<tag k="ssr:stedsnr" v="530905" />
	</node>
	<node id="-332845" lat="58.1707166623" lon="8.10128888167">
		<tag k="name" v="Øvre Timenes" />
		<tag k="place" v="quarter" />
		<tag k="ssr:stedsnr" v="530898" />
	</node>
	<node id="-332842" lat="58.1527666685" lon="7.96668334089">
		<tag k="amenity" v="nursing_home" />
		<tag k="name" v="Solvang psyk. sykehjem" />
		<tag k="ssr:stedsnr" v="530707" />
	</node>
	<node id="-331271" lat="58.1529444423" lon="7.96114999731">
		<tag k="fixme" v="consider place=suburb, village or hamlet" />
		<tag k="name" v="Krossen" />
		<tag k="place" v="quarter" />
		<tag k="ssr:stedsnr" v="364223" />
	</node>
	<node id="-332839" lat="58.2078166641" lon="8.11037777425">
		<tag k="amenity" v="school" />
		<tag k="name" v="Ve skole" />
		<tag k="ssr:stedsnr" v="530563" />
	</node>
	<node id="-331952" lat="58.186355552" lon="8.08897222086">
		<tag k="name" v="Fjellet" />
		<tag k="place" v="hamlet" />
		<tag k="ssr:stedsnr" v="106027" />
	</node>
	<node id="-331269" lat="58.0701305587" lon="7.98878055031">
		<tag k="fixme" v="consider place=hamlet" />
		<tag k="name" v="Kjere" />
		<tag k="place" v="farm" />
		<tag k="ssr:stedsnr" v="364205" />
	</node>
	<node id="-332828" lat="58.2243777756" lon="8.12490000216">
		<tag k="name" v="Gundersgard" />
		<tag k="place" v="farm" />
		<tag k="ssr:stedsnr" v="530088" />
	</node>
	<node id="-332822" lat="58.2168166643" lon="8.11731667178">
		<tag k="name" v="Bjørkevollen" />
		<tag k="place" v="hamlet" />
		<tag k="ssr:stedsnr" v="530058" />
	</node>
	<node id="-332814" lat="58.1931222236" lon="8.08312500576">
		<tag k="name" v="Hamresanden Camping" />
		<tag k="ssr:stedsnr" v="523762" />
		<tag k="tourism" v="camp_site" />
	</node>
	<node id="-332809" lat="58.1247083334" lon="8.06255000205">
		<tag k="name" v="Havøy" />
		<tag k="place" v="farm" />
		<tag k="ssr:stedsnr" v="520183" />
	</node>
	<node id="-332796" lat="58.2039555529" lon="8.18204166628">
		<tag k="name" v="Gamle Studeid" />
		<tag k="place" v="locality" />
		<tag k="ssr:stedsnr" v="513403" />
	</node>
	<node id="-332787" lat="58.2739555533" lon="8.07013611722">
		<tag k="name" v="Tronstad" />
		<tag k="place" v="farm" />
		<tag k="ssr:stedsnr" v="513346" />
	</node>
	<node id="-331942" lat="58.1504416669" lon="8.00675833459">
		<tag k="building" v="industrial" />
		<tag k="name" v="Lahelle verft" />
		<tag k="ssr:stedsnr" v="95172" />
	</node>
	<node id="-332766" lat="58.1931027772" lon="7.95470277985">
		<tag k="name" v="Øygarden" />
		<tag k="place" v="locality" />
		<tag k="ssr:stedsnr" v="513090" />
	</node>
	<node id="-332763" lat="58.1274611098" lon="8.09042777803">
		<tag k="name" v="Tømmerstø" />
		<tag k="place" v="quarter" />
		<tag k="ssr:stedsnr" v="511188" />
	</node>
	<node id="-331940" lat="58.1394666686" lon="7.97271943764">
		<tag k="building" v="industrial" />
		<tag k="industrial" v="factory" />
		<tag k="name" v="Falconbridge nikkelverk A/S" />
		<tag k="ssr:stedsnr" v="95100" />
	</node>
	<node id="-332740" lat="58.250991669" lon="8.16599999482">
		<tag k="fixme" v="consider place=hamlet" />
		<tag k="name" v="Drangsholt" />
		<tag k="place" v="farm" />
		<tag k="ssr:stedsnr" v="485896" />
	</node>
	<node id="-332737" lat="58.0959666627" lon="8.11683611027">
		<tag k="alt_name" v="Vikvoll" />
		<tag k="name" v="Vigvoll" />
		<tag k="place" v="isolated_dwelling" />
		<tag k="ssr:stedsnr" v="485664" />
	</node>
	<node id="-332736" lat="58.1425375867" lon="8.15101402272">
		<tag k="fixme" v="consider place=hamlet" />
		<tag k="name" v="Vatne" />
		<tag k="place" v="farm" />
		<tag k="ssr:stedsnr" v="485542" />
	</node>
	<node id="-332735" lat="58.1136611101" lon="8.11784166712">
		<tag k="fixme" v="consider place=hamlet" />
		<tag k="name" v="Vadvika" />
		<tag k="place" v="farm" />
		<tag k="ssr:stedsnr" v="485478" />
	</node>
	<node id="-332730" lat="58.2128861124" lon="8.10200832924">
		<tag k="alt_name" v="Borgen" />
		<tag k="fixme" v="consider place=hamlet" />
		<tag k="name" v="Borga" />
		<tag k="place" v="farm" />
		<tag k="ssr:stedsnr" v="485393" />
	</node>
	<node id="-332729" lat="58.1710083315" lon="8.10192500405">
		<tag k="alt_name" v="Timenes, øvre;Timenes" />
		<tag k="fixme" v="consider place=hamlet" />
		<tag k="name" v="Øvre Timenes" />
		<tag k="place" v="farm" />
		<tag k="ssr:stedsnr" v="485344" />
	</node>
	<node id="-332723" lat="58.1407043067" lon="8.05534886197">
		<tag k="alt_name" v="Knarrevik" />
		<tag k="fixme" v="consider place=hamlet" />
		<tag k="name" v="Kjellevika" />
		<tag k="old_name" v="Kjellvik" />
		<tag k="place" v="farm" />
		<tag k="ssr:stedsnr" v="485169" />
	</node>
	<node id="-332722" lat="58.1538833306" lon="7.95176111371">
		<tag k="fixme" v="consider place=suburb, village or hamlet" />
		<tag k="name" v="Suldalen" />
		<tag k="place" v="quarter" />
		<tag k="ssr:stedsnr" v="485161" />
	</node>
	<node id="-332718" lat="58.1811388933" lon="8.0247194452">
		<tag k="fixme" v="consider place=hamlet" />
		<tag k="name" v="Greppestøl" />
		<tag k="place" v="farm" />
		<tag k="ssr:stedsnr" v="485038" />
	</node>
	<node id="-332716" lat="58.1930249979" lon="8.08451666689">
		<tag k="name" v="Hamre" />
		<tag k="place" v="hamlet" />
		<tag k="ssr:stedsnr" v="485020" />
	</node>
	<node id="-332715" lat="58.279933332" lon="8.06680554986">
		<tag k="fixme" v="consider place=hamlet" />
		<tag k="name" v="Erkleiv" />
		<tag k="place" v="farm" />
		<tag k="ssr:stedsnr" v="485011" />
	</node>
	<node id="-332713" lat="58.2010416684" lon="7.88518888239">
		<tag k="fixme" v="consider place=hamlet" />
		<tag k="name" v="Aurebekk" />
		<tag k="place" v="farm" />
		<tag k="ssr:stedsnr" v="485008" />
	</node>
	<node id="-332712" lat="58.1166000038" lon="7.940874999">
		<tag k="name" v="Vågsbygda" />
		<tag k="place" v="suburb" />
		<tag k="ssr:stedsnr" v="485116" />
	</node>
	<node id="-332709" lat="58.160108329" lon="8.01028889646">
		<tag k="amenity" v="school" />
		<tag k="name" v="Gimle videregående skole" />
		<tag k="ssr:stedsnr" v="471661" />
	</node>
	<node id="-332701" lat="58.1085861151" lon="8.13835278253">
		<tag k="name" v="Buene" />
		<tag k="place" v="farm" />
		<tag k="ssr:stedsnr" v="471536" />
	</node>
	<node id="-332695" lat="58.1538000003" lon="7.95409999874">
		<tag k="amenity" v="school" />
		<tag k="name" v="Krossen skole" />
		<tag k="ssr:stedsnr" v="471382" />
	</node>
	<node id="-332693" lat="58.1017583309" lon="7.9758694457">
		<tag k="amenity" v="school" />
		<tag k="name" v="Sjøstrand skole" />
		<tag k="ssr:stedsnr" v="471353" />
	</node>
	<node id="-332673" lat="58.148019442" lon="7.97919444848">
		<tag k="building" v="industrial" />
		<tag k="industrial" v="factory" />
		<tag k="name" v="Christiansands bryggeri" />
		<tag k="ssr:stedsnr" v="470926" />
	</node>
	<node id="-332672" lat="58.2059999971" lon="8.10037222914">
		<tag k="name" v="Vestvoller" />
		<tag k="place" v="farm" />
		<tag k="ssr:stedsnr" v="470920" />
	</node>
	<node id="-332669" lat="58.235288891" lon="8.1215666645">
		<tag k="building" v="industrial" />
		<tag k="name" v="Agder fjernhjelpleir" />
		<tag k="ssr:stedsnr" v="470893" />
	</node>
	<node id="-332656" lat="58.1178777813" lon="8.09208889306">
		<tag k="alt_name" v="Kjellevik" />
		<tag k="name" v="Kjellevika" />
		<tag k="place" v="farm" />
		<tag k="ssr:stedsnr" v="470457" />
	</node>
	<node id="-332655" lat="58.0707805581" lon="7.98791666956">
		<tag k="name" v="Kjære" />
		<tag k="place" v="hamlet" />
		<tag k="ssr:stedsnr" v="470443" />
	</node>
	<node id="-332640" lat="58.234002775" lon="8.12455277561">
		<tag k="name" v="Myrstad" />
		<tag k="place" v="farm" />
		<tag k="ssr:stedsnr" v="470065" />
	</node>
	<node id="-332634" lat="58.2135694462" lon="8.11331111546">
		<tag k="name" v="Vesholt" />
		<tag k="place" v="farm" />
		<tag k="ssr:stedsnr" v="470030" />
	</node>
	<node id="-332633" lat="58.2690138881" lon="8.07805555878">
		<tag k="name" v="Aslaksdal" />
		<tag k="place" v="hamlet" />
		<tag k="ssr:stedsnr" v="470005" />
	</node>
	<node id="-332632" lat="58.2153222182" lon="8.11021110485">
		<tag k="name" v="Ryen" />
		<tag k="place" v="farm" />
		<tag k="ssr:stedsnr" v="469551" />
	</node>
	<node id="-332623" lat="58.1069083319" lon="7.97557499476">
		<tag k="name" v="Brøvik" />
		<tag k="place" v="isolated_dwelling" />
		<tag k="ssr:stedsnr" v="461242" />
	</node>
	<node id="-332616" lat="58.2235638931" lon="8.10979443593">
		<tag k="name" v="Tveit" />
		<tag k="place" v="suburb" />
		<tag k="ssr:stedsnr" v="456795" />
	</node>
	<node id="-332575" lat="58.1763416686" lon="7.93919722138">
		<tag k="name" v="Dalane" />
		<tag k="place" v="quarter" />
		<tag k="ssr:stedsnr" v="449408" />
	</node>
	<node id="-332574" lat="58.1718777756" lon="8.02996111641">
		<tag k="name" v="Gimlekollen" />
		<tag k="place" v="quarter" />
		<tag k="ssr:stedsnr" v="449401" />
	</node>
	<node id="-332573" lat="58.1124222259" lon="7.97631667039">
		<tag k="name" v="Andøya" />
		<tag k="place" v="suburb" />
		<tag k="ssr:stedsnr" v="449397" />
	</node>
	<node id="-332559" lat="58.1471055543" lon="8.1420722142">
		<tag k="name" v="Bjørkestøl" />
		<tag k="place" v="farm" />
		<tag k="ssr:stedsnr" v="425569" />
	</node>
	<node id="-332557" lat="58.1583138908" lon="8.14364999985">
		<tag k="name" v="Myra" />
		<tag k="place" v="farm" />
		<tag k="ssr:stedsnr" v="425553" />
	</node>
	<node id="-332555" lat="58.1307250008" lon="8.17259722853">
		<tag k="alt_name" v="Grønnevold" />
		<tag k="fixme" v="consider place=hamlet" />
		<tag k="name" v="Grønevoll" />
		<tag k="place" v="farm" />
		<tag k="ssr:stedsnr" v="425525" />
	</node>
	<node id="-332553" lat="58.1167069067" lon="8.10988612002">
		<tag k="fixme" v="consider place=hamlet" />
		<tag k="name" v="Vrånes" />
		<tag k="place" v="farm" />
		<tag k="ssr:stedsnr" v="425497" />
	</node>
	<node id="-332544" lat="58.2354583316" lon="8.13467777812">
		<tag k="name" v="Knarrestad" />
		<tag k="place" v="isolated_dwelling" />
		<tag k="ssr:stedsnr" v="425269" />
	</node>
	<node id="-332542" lat="58.1137694485" lon="7.95164444287">
		<tag k="alt_name" v="Kjos gård" />
		<tag k="fixme" v="consider place=hamlet" />
		<tag k="name" v="Kjos" />
		<tag k="place" v="farm" />
		<tag k="ssr:stedsnr" v="425247" />
	</node>
	<node id="-332538" lat="58.1508611135" lon="8.05115832778">
		<tag k="fixme" v="consider place=hamlet" />
		<tag k="name" v="Søm" />
		<tag k="place" v="farm" />
		<tag k="ssr:stedsnr" v="425195" />
	</node>
	<node id="-332537" lat="58.1567291495" lon="7.97404087237">
		<tag k="alt_name" v="Ramnedalen" />
		<tag k="leisure" v="park" />
		<tag k="name" v="Ravnedalen" />
		<tag k="ssr:stedsnr" v="425193" />
	</node>
	<node id="-332536" lat="58.0839000022" lon="8.00125554849">
		<tag k="name" v="Lindebø" />
		<tag k="place" v="isolated_dwelling" />
		<tag k="ssr:stedsnr" v="425170" />
	</node>
	<node id="-332533" lat="58.2215694454" lon="8.01529167203">
		<tag k="name" v="Jordet" />
		<tag k="place" v="farm" />
		<tag k="ssr:stedsnr" v="425105" />
	</node>
	<node id="-332532" lat="58.2468027763" lon="8.05222778304">
		<tag k="fixme" v="consider place=hamlet" />
		<tag k="name" v="Klepp" />
		<tag k="place" v="farm" />
		<tag k="ssr:stedsnr" v="425074" />
	</node>
	<node id="-332531" lat="58.2460222226" lon="8.00127222078">
		<tag k="name" v="Dalane" />
		<tag k="place" v="farm" />
		<tag k="ssr:stedsnr" v="425072" />
	</node>
	<node id="-332529" lat="58.167966665" lon="8.04570555988">
		<tag k="name" v="Topdalsstø" />
		<tag k="place" v="farm" />
		<tag k="ssr:stedsnr" v="425048" />
	</node>
	<node id="-332528" lat="58.2628229819" lon="8.01762697811">
		<tag k="name" v="Røssebrekka" />
		<tag k="place" v="farm" />
		<tag k="ssr:stedsnr" v="425046" />
	</node>
	<node id="-332527" lat="58.1632305564" lon="8.00137500353">
		<tag k="landuse" v="military" />
		<tag k="name" v="Gimlemoen" />
		<tag k="ssr:stedsnr" v="425040" />
	</node>
	<node id="-332525" lat="58.2516972255" lon="8.05398610772">
		<tag k="fixme" v="consider place=hamlet" />
		<tag k="name" v="Bjelle" />
		<tag k="place" v="farm" />
		<tag k="ssr:stedsnr" v="425036" />
	</node>
	<node id="-332522" lat="58.1261555555" lon="8.15132777183">
		<tag k="fixme" v="consider place=hamlet" />
		<tag k="name" v="Kvarenes" />
		<tag k="place" v="farm" />
		<tag k="ssr:stedsnr" v="268368" />
	</node>
	<node id="-332491" lat="58.1149333345" lon="8.12568889374">
		<tag k="alt_name" v="Ringene" />
		<tag k="name" v="Ringane" />
		<tag k="place" v="isolated_dwelling" />
		<tag k="ssr:stedsnr" v="243517" />
	</node>
	<node id="-332487" lat="58.218550001" lon="8.1011416671">
		<tag k="name" v="Røllend" />
		<tag k="place" v="farm" />
		<tag k="ssr:stedsnr" v="243271" />
	</node>
	<node id="-332486" lat="58.1345361138" lon="7.96061667178">
		<tag k="name" v="Hannevika" />
		<tag k="place" v="suburb" />
		<tag k="ssr:stedsnr" v="243207" />
	</node>
	<node id="-332485" lat="58.1418388887" lon="8.08023333753">
		<tag k="fixme" v="consider place=hamlet" />
		<tag k="name" v="Korsvik" />
		<tag k="place" v="farm" />
		<tag k="ssr:stedsnr" v="243197" />
	</node>
	<node id="-332481" lat="58.2513527735" lon="8.05099721771">
		<tag k="fixme" v="consider place=hamlet" />
		<tag k="name" v="Lømsland" />
		<tag k="place" v="farm" />
		<tag k="ssr:stedsnr" v="243032" />
	</node>
	<node id="-332477" lat="58.1272872921" lon="8.12643858073">
		<tag k="fixme" v="consider place=hamlet" />
		<tag k="name" v="Støle" />
		<tag k="place" v="farm" />
		<tag k="ssr:stedsnr" v="242526" />
	</node>
	<node id="-332476" lat="58.1386583345" lon="8.16709167312">
		<tag k="name" v="Myra" />
		<tag k="place" v="farm" />
		<tag k="ssr:stedsnr" v="242496" />
	</node>
	<node id="-332470" lat="58.1624631343" lon="8.02942921959">
		<tag k="alt_name" v="Kongsgard" />
		<tag k="fixme" v="consider place=hamlet" />
		<tag k="name" v="Kongsgård" />
		<tag k="place" v="farm" />
		<tag k="ssr:stedsnr" v="242045" />
	</node>
	<node id="-332465" lat="58.1526916643" lon="7.97415277548">
		<tag k="amenity" v="kindergarten" />
		<tag k="name" v="Ravnedalen barnehage" />
		<tag k="ssr:stedsnr" v="228983" />
	</node>
	<node id="-332464" lat="58.1570138892" lon="8.01454721761">
		<tag k="amenity" v="school" />
		<tag k="name" v="Oddemarka skole" />
		<tag k="ssr:stedsnr" v="228947" />
	</node>
	<node id="-332463" lat="58.2453194467" lon="7.87531666027">
		<tag k="name" v="Skodan" />
		<tag k="place" v="hamlet" />
		<tag k="ssr:stedsnr" v="228793" />
	</node>
	<node id="-332456" lat="58.1605833379" lon="8.01390278448">
		<tag k="fixme" v="consider place=hamlet" />
		<tag k="name" v="Prestegården" />
		<tag k="place" v="farm" />
		<tag k="ssr:stedsnr" v="228661" />
	</node>
	<node id="-332441" lat="58.1759249966" lon="8.09460555292">
		<tag k="amenity" v="school" />
		<tag k="name" v="Heståsen skole" />
		<tag k="ssr:stedsnr" v="228433" />
	</node>
	<node id="-331200" lat="58.1470472247" lon="8.00495278094">
		<tag k="amenity" v="school" />
		<tag k="name" v="Tangen" />
		<tag k="ssr:stedsnr" v="348691" />
	</node>
	<node id="-332405" lat="58.1561987281" lon="7.9213347302">
		<tag k="amenity" v="cafe" />
		<tag k="name" v="Kjærrane" />
		<tag k="ssr:stedsnr" v="227676" />
	</node>
	<node id="-332404" lat="58.206238885" lon="8.07704721486">
		<tag k="name" v="Espelunden" />
		<tag k="place" v="quarter" />
		<tag k="ssr:stedsnr" v="227665" />
	</node>
	<node id="-332395" lat="58.0775222239" lon="7.98065555338">
		<tag k="name" v="Andås" />
		<tag k="place" v="hamlet" />
		<tag k="ssr:stedsnr" v="227473" />
	</node>
	<node id="-332386" lat="58.2365388923" lon="8.02650833379">
		<tag k="name" v="Eidet" />
		<tag k="place" v="farm" />
		<tag k="ssr:stedsnr" v="227138" />
	</node>
	<node id="-332384" lat="58.2733861075" lon="8.17020277469">
		<tag k="name" v="Ferjestaden" />
		<tag k="place" v="farm" />
		<tag k="ssr:stedsnr" v="227114" />
	</node>
	<node id="-332381" lat="58.2278888867" lon="8.1204277849">
		<tag k="fixme" v="consider place=hamlet" />
		<tag k="name" v="Tveit prestegård" />
		<tag k="place" v="farm" />
		<tag k="ssr:stedsnr" v="227093" />
	</node>
	<node id="-332374" lat="58.2670194477" lon="8.07936944034">
		<tag k="name" v="Krossen" />
		<tag k="place" v="hamlet" />
		<tag k="ssr:stedsnr" v="227005" />
	</node>
	<node id="-332366" lat="58.1271444478" lon="7.96849166352">
		<tag k="building" v="industrial" />
		<tag k="industrial" v="factory" />
		<tag k="name" v="Fiskå verk" />
		<tag k="ssr:stedsnr" v="219146" />
	</node>
	<node id="-332353" lat="58.2300555545" lon="8.17705278341">
		<tag k="historic" v="shieling" />
		<tag k="name" v="Fiskesåda" />
		<tag k="place" v="locality" />
		<tag k="ssr:stedsnr" v="210399" />
	</node>
	<node id="-332300" lat="58.2148416648" lon="7.89683611502">
		<tag k="name" v="Øygarden" />
		<tag k="place" v="locality" />
		<tag k="ssr:stedsnr" v="206065" />
	</node>
	<node id="-332287" lat="58.2756472215" lon="8.10678333441">
		<tag k="alt_name" v="Brennevatn" />
		<tag k="fixme" v="consider place=hamlet" />
		<tag k="name" v="Brennevann" />
		<tag k="place" v="farm" />
		<tag k="ssr:stedsnr" v="182724" />
	</node>
	<node id="-332285" lat="58.1666833303" lon="8.14003888111">
		<tag k="name" v="Nygård" />
		<tag k="place" v="farm" />
		<tag k="ssr:stedsnr" v="182592" />
	</node>
	<node id="-332279" lat="58.1364138906" lon="8.15919722523">
		<tag k="name" v="Stemvollen" />
		<tag k="place" v="isolated_dwelling" />
		<tag k="ssr:stedsnr" v="182521" />
	</node>
	<node id="-332277" lat="58.1009666682" lon="8.10994999906">
		<tag k="name" v="Buhagen" />
		<tag k="place" v="farm" />
		<tag k="ssr:stedsnr" v="182510" />
	</node>
	<node id="-332274" lat="58.2136805544" lon="8.1842777737">
		<tag k="alt_name" v="Studeid" />
		<tag k="name" v="Stuteid" />
		<tag k="place" v="locality" />
		<tag k="ssr:stedsnr" v="182453" />
	</node>
	<node id="-332273" lat="58.215041667" lon="8.11757499839">
		<tag k="name" v="Dynjane" />
		<tag k="place" v="farm" />
		<tag k="ssr:stedsnr" v="182450" />
	</node>
	<node id="-332272" lat="58.2061722261" lon="8.12182777296">
		<tag k="alt_name" v="Myrene" />
		<tag k="name" v="Myrane" />
		<tag k="place" v="farm" />
		<tag k="ssr:stedsnr" v="182448" />
	</node>
	<node id="-332264" lat="58.1455499963" lon="7.9554500059">
		<tag k="name" v="Tinnheia" />
		<tag k="place" v="quarter" />
		<tag k="ssr:stedsnr" v="182195" />
	</node>
	<node id="-331174" lat="58.2019416653" lon="8.01190556119">
		<tag k="name" v="Tussevangen" />
		<tag k="place" v="farm" />
		<tag k="ssr:stedsnr" v="331541" />
	</node>
	<node id="-332257" lat="58.2278083346" lon="8.02846666133">
		<tag k="name" v="Myra" />
		<tag k="place" v="farm" />
		<tag k="ssr:stedsnr" v="182107" />
	</node>
	<node id="-332252" lat="58.1887277786" lon="7.95245000049">
		<tag k="fixme" v="consider place=hamlet" />
		<tag k="name" v="Skråstad" />
		<tag k="place" v="farm" />
		<tag k="ssr:stedsnr" v="182024" />
	</node>
	<node id="-332248" lat="58.2573527808" lon="8.03431110527">
		<tag k="historic" v="shieling" />
		<tag k="name" v="Kjørkestøa" />
		<tag k="place" v="locality" />
		<tag k="ssr:stedsnr" v="168196" />
	</node>
	<node id="-332244" lat="58.1496361145" lon="7.99372778096">
		<tag k="amenity" v="school" />
		<tag k="name" v="Samfundets skole" />
		<tag k="ssr:stedsnr" v="167996" />
	</node>
	<node id="-332243" lat="58.1446194462" lon="8.00134445251">
		<tag k="name" v="Reranchementet" />
		<tag k="place" v="square" />
		<tag k="ssr:stedsnr" v="167990" />
	</node>
	<node id="-332242" lat="58.1470861107" lon="7.99833055656">
		<tag k="building" v="commercial" />
		<tag k="name" v="Politihuset" />
		<tag k="ssr:stedsnr" v="167938" />
	</node>
	<node id="-331446" lat="58.1597638891" lon="8.01550555467">
		<tag k="amenity" v="school" />
		<tag k="name" v="Oddernes skole" />
		<tag k="ssr:stedsnr" v="410979" />
	</node>
	<node id="-332215" lat="58.1528527743" lon="8.08105556409">
		<tag k="amenity" v="school" />
		<tag k="name" v="Strømme skole" />
		<tag k="ssr:stedsnr" v="167403" />
	</node>
	<node id="-332199" lat="58.1539861077" lon="7.9371361041">
		<tag k="amenity" v="sports_centre" />
		<tag k="name" v="Skytterhuset" />
		<tag k="ssr:stedsnr" v="167115" />
	</node>
	<node id="-332198" lat="58.1035916667" lon="7.95801943696">
		<tag k="amenity" v="school" />
		<tag k="name" v="Voie skole" />
		<tag k="ssr:stedsnr" v="167055" />
	</node>
	<node id="-332195" lat="58.207297218" lon="8.01517778543">
		<tag k="name" v="Hemningsrud" />
		<tag k="place" v="farm" />
		<tag k="ssr:stedsnr" v="166992" />
	</node>
	<node id="-332189" lat="58.1804694488" lon="8.08597776954">
		<tag k="name" v="Salbostad" />
		<tag k="place" v="hamlet" />
		<tag k="ssr:stedsnr" v="166917" />
	</node>
	<node id="-332187" lat="58.2230749963" lon="8.11952777032">
		<tag k="name" v="Dønnestad" />
		<tag k="place" v="hamlet" />
		<tag k="ssr:stedsnr" v="166885" />
	</node>
	<node id="-332186" lat="58.1905638852" lon="8.01545832658">
		<tag k="name" v="Dalen" />
		<tag k="place" v="farm" />
		<tag k="ssr:stedsnr" v="166702" />
	</node>
	<node id="-332185" lat="58.151438885" lon="7.99431111824">
		<tag k="amenity" v="townhall" />
		<tag k="name" v="Fylkeshuset" />
		<tag k="ssr:stedsnr" v="166695" />
	</node>
	<node id="-332183" lat="58.1586500006" lon="8.00304722326">
		<tag k="name" v="Gimle gård" />
		<tag k="place" v="farm" />
		<tag k="ssr:stedsnr" v="166691" />
	</node>
	<node id="-332177" lat="58.1995111077" lon="7.86785833531">
		<tag k="amenity" v="sports_centre" />
		<tag k="name" v="Kjøbmannsheihallan" />
		<tag k="ssr:stedsnr" v="166577" />
	</node>
	<node id="-332171" lat="58.2227861142" lon="8.1050999958">
		<tag k="fixme" v="consider place=suburb, village or hamlet" />
		<tag k="name" v="Rønnemoen" />
		<tag k="place" v="quarter" />
		<tag k="ssr:stedsnr" v="166060" />
	</node>
	<node id="-334217" lat="58.2046646362" lon="8.07022303897">
		<tag k="fixme" v="consider place=hamlet" />
		<tag k="name" v="Kjevik" />
		<tag k="place" v="farm" />
		<tag k="ssr:stedsnr" v="977767" />
	</node>
	<node id="-332168" lat="58.1913027823" lon="8.10909722629">
		<tag k="historic" v="shieling" />
		<tag k="name" v="Heime Øygard" />
		<tag k="place" v="locality" />
		<tag k="ssr:stedsnr" v="166029" />
	</node>
	<node id="-334215" lat="58.242840981" lon="8.13366173705">
		<tag k="fixme" v="consider place=hamlet" />
		<tag k="name" v="Krageboen" />
		<tag k="place" v="farm" />
		<tag k="ssr:stedsnr" v="977764" />
	</node>
	<node id="-334214" lat="58.195619323" lon="8.16706259508">
		<tag k="fixme" v="consider place=hamlet" />
		<tag k="name" v="Vråls-Ødegården" />
		<tag k="place" v="farm" />
		<tag k="ssr:stedsnr" v="977759" />
	</node>
	<node id="-334213" lat="58.2048320448" lon="8.18193970537">
		<tag k="name" v="Stuteid" />
		<tag k="place" v="locality" />
		<tag k="ssr:stedsnr" v="977757" />
	</node>
	<node id="-334212" lat="58.203207365" lon="8.09738188836">
		<tag k="fixme" v="consider place=hamlet" />
		<tag k="name" v="Ve" />
		<tag k="place" v="farm" />
		<tag k="ssr:stedsnr" v="977754" />
	</node>
	<node id="-334211" lat="58.1169284607" lon="8.09124047741">
		<tag k="name" v="Silleviken" />
		<tag k="place" v="locality" />
		<tag k="ssr:stedsnr" v="977746" />
	</node>
	<node id="-334210" lat="58.1192901936" lon="8.08471838259">
		<tag k="fixme" v="consider place=hamlet" />
		<tag k="name" v="Herøya" />
		<tag k="place" v="farm" />
		<tag k="ssr:stedsnr" v="977747" />
	</node>
	<node id="-334209" lat="58.1259089633" lon="8.11090010378">
		<tag k="fixme" v="consider place=hamlet" />
		<tag k="name" v="Roshagen" />
		<tag k="place" v="farm" />
		<tag k="ssr:stedsnr" v="977742" />
	</node>
	<node id="-334208" lat="58.1058601158" lon="8.10956489892">
		<tag k="fixme" v="consider place=hamlet" />
		<tag k="name" v="Randøya" />
		<tag k="place" v="farm" />
		<tag k="ssr:stedsnr" v="977676" />
	</node>
	<node id="-334207" lat="58.1098369988" lon="8.12439353417">
		<tag k="fixme" v="consider place=hamlet" />
		<tag k="name" v="Trollenes" />
		<tag k="place" v="farm" />
		<tag k="ssr:stedsnr" v="977675" />
	</node>
	<node id="-334206" lat="58.1005333681" lon="8.13820881425">
		<tag k="fixme" v="consider place=hamlet" />
		<tag k="name" v="Torsøya" />
		<tag k="place" v="farm" />
		<tag k="ssr:stedsnr" v="977674" />
	</node>
	<node id="-334205" lat="58.1075511097" lon="8.1415980702">
		<tag k="fixme" v="consider place=hamlet" />
		<tag k="name" v="Buene" />
		<tag k="place" v="farm" />
		<tag k="ssr:stedsnr" v="977673" />
	</node>
	<node id="-334204" lat="58.1314984938" lon="8.11698073536">
		<tag k="fixme" v="consider place=hamlet" />
		<tag k="name" v="Frikstad" />
		<tag k="place" v="farm" />
		<tag k="ssr:stedsnr" v="977672" />
	</node>
	<node id="-334203" lat="58.1644123232" lon="8.09235605498">
		<tag k="fixme" v="consider place=hamlet" />
		<tag k="name" v="Øvre Strømme" />
		<tag k="place" v="farm" />
		<tag k="ssr:stedsnr" v="977631" />
	</node>
	<node id="-334202" lat="58.1593814489" lon="8.08485372723">
		<tag k="fixme" v="consider place=hamlet" />
		<tag k="name" v="Ytre Strømme" />
		<tag k="place" v="farm" />
		<tag k="ssr:stedsnr" v="977630" />
	</node>
	<node id="-334201" lat="58.1522437838" lon="8.07710529316">
		<tag k="fixme" v="consider place=hamlet" />
		<tag k="name" v="Liene" />
		<tag k="place" v="farm" />
		<tag k="ssr:stedsnr" v="977629" />
	</node>
	<node id="-334200" lat="58.1396356497" lon="8.04878798833">
		<tag k="fixme" v="consider place=hamlet" />
		<tag k="name" v="Lyngøya" />
		<tag k="place" v="farm" />
		<tag k="ssr:stedsnr" v="977619" />
	</node>
	<node id="-334199" lat="58.1434571664" lon="8.06614703327">
		<tag k="fixme" v="consider place=hamlet" />
		<tag k="name" v="Salbostad" />
		<tag k="place" v="farm" />
		<tag k="ssr:stedsnr" v="977621" />
	</node>
	<node id="-334198" lat="58.1308239051" lon="8.04417353088">
		<tag k="fixme" v="consider place=hamlet" />
		<tag k="name" v="Sjursøya" />
		<tag k="place" v="farm" />
		<tag k="ssr:stedsnr" v="977618" />
	</node>
	<node id="-334197" lat="58.1096695336" lon="8.05828656724">
		<tag k="fixme" v="consider place=hamlet" />
		<tag k="name" v="Dvergsøya" />
		<tag k="place" v="farm" />
		<tag k="ssr:stedsnr" v="977617" />
	</node>
	<node id="-334196" lat="58.165898168" lon="8.04014011241">
		<tag k="fixme" v="consider place=hamlet" />
		<tag k="name" v="Narviken" />
		<tag k="place" v="farm" />
		<tag k="ssr:stedsnr" v="977613" />
	</node>
	<node id="-334195" lat="58.1638003336" lon="8.02068479463">
		<tag k="fixme" v="consider place=hamlet" />
		<tag k="name" v="Frydendal" />
		<tag k="place" v="farm" />
		<tag k="ssr:stedsnr" v="977612" />
	</node>
	<node id="-334194" lat="58.15820176" lon="8.01484727322">
		<tag k="fixme" v="consider place=hamlet" />
		<tag k="name" v="Tobienborg" />
		<tag k="place" v="farm" />
		<tag k="ssr:stedsnr" v="977610" />
	</node>
	<node id="-334193" lat="58.1595962441" lon="7.99760133042">
		<tag k="fixme" v="consider place=hamlet" />
		<tag k="name" v="Gimle" />
		<tag k="place" v="farm" />
		<tag k="ssr:stedsnr" v="977605" />
	</node>
	<node id="-334192" lat="58.1576528563" lon="8.00018493663">
		<tag k="fixme" v="consider place=hamlet" />
		<tag k="name" v="Prestegårdsløkkene" />
		<tag k="place" v="farm" />
		<tag k="ssr:stedsnr" v="977601" />
	</node>
	<node id="-334191" lat="58.1833126142" lon="8.00963016826">
		<tag k="fixme" v="consider place=hamlet" />
		<tag k="name" v="Gil" />
		<tag k="place" v="farm" />
		<tag k="ssr:stedsnr" v="977597" />
	</node>
	<node id="-334190" lat="58.1697340921" lon="7.98302297056">
		<tag k="fixme" v="consider place=hamlet" />
		<tag k="name" v="Sødal" />
		<tag k="place" v="farm" />
		<tag k="ssr:stedsnr" v="977596" />
	</node>
	<node id="-334189" lat="58.2054702912" lon="7.92150198232">
		<tag k="fixme" v="consider place=hamlet" />
		<tag k="name" v="Øvre Augland" />
		<tag k="place" v="farm" />
		<tag k="ssr:stedsnr" v="977595" />
	</node>
	<node id="-334187" lat="58.1285669349" lon="7.96683699359">
		<tag k="name" v="Fiskå" />
		<tag k="place" v="locality" />
		<tag k="ssr:stedsnr" v="977586" />
	</node>
	<node id="-334184" lat="58.1221593722" lon="7.96344730651">
		<tag k="fixme" v="consider place=hamlet" />
		<tag k="name" v="Augland Ytre" />
		<tag k="place" v="farm" />
		<tag k="ssr:stedsnr" v="972831" />
	</node>
	<node id="-334183" lat="58.1197321911" lon="7.99283211375">
		<tag k="fixme" v="consider place=hamlet" />
		<tag k="name" v="Bragdøya" />
		<tag k="place" v="farm" />
		<tag k="ssr:stedsnr" v="972481" />
	</node>
	<node id="-334182" lat="58.1115128222" lon="7.97987971764">
		<tag k="fixme" v="consider place=hamlet" />
		<tag k="name" v="Andøya" />
		<tag k="place" v="farm" />
		<tag k="ssr:stedsnr" v="972478" />
	</node>
	<node id="-334181" lat="58.1013218625" lon="7.97193871131">
		<tag k="fixme" v="consider place=hamlet" />
		<tag k="name" v="Møvik" />
		<tag k="place" v="farm" />
		<tag k="ssr:stedsnr" v="972475" />
	</node>
	<node id="-334180" lat="58.0851873531" lon="7.99540039759">
		<tag k="name" v="Lindebø" />
		<tag k="place" v="locality" />
		<tag k="ssr:stedsnr" v="972471" />
	</node>
	<node id="-334179" lat="58.0814126564" lon="8.01683762947">
		<tag k="name" v="Skålevik" />
		<tag k="place" v="locality" />
		<tag k="ssr:stedsnr" v="972469" />
	</node>
	<node id="-334176" lat="58.1360694436" lon="7.96585277652">
		<tag k="building" v="industrial" />
		<tag k="industrial" v="factory" />
		<tag k="name" v="Hennig Olsen" />
		<tag k="ssr:stedsnr" v="956961" />
	</node>
	<node id="-334174" lat="58.1502388892" lon="7.99222777919">
		<tag k="amenity" v="school" />
		<tag k="name" v="Tordenskjolds gate skole" />
		<tag k="ssr:stedsnr" v="956921" />
	</node>
	<node id="-334168" lat="58.0789249971" lon="7.995444446">
		<tag k="amenity" v="school" />
		<tag k="name" v="Flekkerøy skole" />
		<tag k="ssr:stedsnr" v="956677" />
	</node>
	<node id="-334167" lat="58.2144583348" lon="7.91936944158">
		<tag k="name" v="Kleivane" />
		<tag k="place" v="farm" />
		<tag k="ssr:stedsnr" v="956676" />
	</node>
	<node id="-332101" lat="58.1474055536" lon="8.03122222639">
		<tag k="name" v="Roligheden" />
		<tag k="old_name" v="Roligheten" />
		<tag k="ssr:stedsnr" v="145418" />
		<tag k="tourism" v="camp_site" />
	</node>
	<node id="-334145" lat="58.1341333345" lon="8.07611110956">
		<tag k="amenity" v="school" />
		<tag k="name" v="Dvergsnes skole" />
		<tag k="ssr:stedsnr" v="956434" />
	</node>
	<node id="-334144" lat="58.1490361099" lon="7.95665555359">
		<tag k="amenity" v="sports_centre" />
		<tag k="name" v="Vigørhallen" />
		<tag k="ssr:stedsnr" v="956412" />
	</node>
	<node id="-332092" lat="58.2530500007" lon="8.15185554934">
		<tag k="alt_name" v="Sannes" />
		<tag k="fixme" v="consider place=hamlet" />
		<tag k="name" v="Sandnes" />
		<tag k="place" v="farm" />
		<tag k="ssr:stedsnr" v="121900" />
	</node>
	<node id="-332090" lat="58.1538000044" lon="8.14102777066">
		<tag k="alt_name" v="Blåmyr" />
		<tag k="name" v="Bossmyra" />
		<tag k="place" v="farm" />
		<tag k="ssr:stedsnr" v="121582" />
	</node>
	<node id="-332089" lat="58.1581138884" lon="8.14294722301">
		<tag k="name" v="Snømyra" />
		<tag k="place" v="farm" />
		<tag k="ssr:stedsnr" v="121581" />
	</node>
	<node id="-332083" lat="58.1374138925" lon="8.17340277213">
		<tag k="name" v="Unndalen" />
		<tag k="place" v="farm" />
		<tag k="ssr:stedsnr" v="121537" />
	</node>
	<node id="-334216" lat="58.2358087245" lon="8.03454391815">
		<tag k="fixme" v="consider place=hamlet" />
		<tag k="name" v="Ålefjær" />
		<tag k="place" v="farm" />
		<tag k="ssr:stedsnr" v="977769" />
	</node>
	<node id="-332077" lat="58.1173823118" lon="8.13492565299">
		<tag k="fixme" v="consider place=hamlet" />
		<tag k="name" v="Stangenes" />
		<tag k="place" v="farm" />
		<tag k="ssr:stedsnr" v="121503" />
	</node>
	<node id="-332068" lat="58.2289527818" lon="8.13285000147">
		<tag k="alt_name" v="Karlsmonen" />
		<tag k="fixme" v="consider place=hamlet" />
		<tag k="name" v="Karlsmoen" />
		<tag k="place" v="farm" />
		<tag k="ssr:stedsnr" v="121306" />
	</node>
	<node id="-332067" lat="58.2243444417" lon="8.12203055578">
		<tag k="fixme" v="consider place=hamlet" />
		<tag k="name" v="Dønnestad" />
		<tag k="place" v="farm" />
		<tag k="ssr:stedsnr" v="121305" />
	</node>
	<node id="-334113" lat="58.1665722206" lon="8.08946111927">
		<tag k="name" v="Øvre Strømme" />
		<tag k="place" v="hamlet" />
		<tag k="ssr:stedsnr" v="955963" />
	</node>
	<node id="-332064" lat="58.2328722211" lon="8.11577222047">
		<tag k="alt_name" v="Egerhei" />
		<tag k="name" v="Ekerher" />
		<tag k="place" v="farm" />
		<tag k="ssr:stedsnr" v="121276" />
	</node>
	<node id="-331824" lat="58.1222888863" lon="7.9528611083">
		<tag k="amenity" v="nursing_home" />
		<tag k="name" v="Vågsbygdtunet" />
		<tag k="ssr:stedsnr" v="46415" />
	</node>
	<node id="-332061" lat="58.0787611121" lon="7.99708888709">
		<tag k="name" v="Myra" />
		<tag k="place" v="isolated_dwelling" />
		<tag k="ssr:stedsnr" v="121159" />
	</node>
	<node id="-334107" lat="58.1770694428" lon="8.14240277472">
		<tag k="name" v="Stemmene" />
		<tag k="place" v="farm" />
		<tag k="ssr:stedsnr" v="955893" />
	</node>
	<node id="-334104" lat="58.1539944404" lon="8.09286388187">
		<tag k="name" v="Torp" />
		<tag k="place" v="farm" />
		<tag k="ssr:stedsnr" v="955682" />
	</node>
	<node id="-332054" lat="58.2745777783" lon="8.05191110313">
		<tag k="alt_name" v="Gangtjørn" />
		<tag k="name" v="Gangtjønn" />
		<tag k="place" v="farm" />
		<tag k="ssr:stedsnr" v="121060" />
	</node>
	<node id="-334100" lat="58.278202774" lon="8.06823611002">
		<tag k="name" v="Erkleiv" />
		<tag k="place" v="hamlet" />
		<tag k="ssr:stedsnr" v="955232" />
	</node>
	<node id="-332051" lat="58.1838694463" lon="8.08581945212">
		<tag k="name" v="Grovika" />
		<tag k="place" v="farm" />
		<tag k="ssr:stedsnr" v="121042" />
	</node>
	<node id="-332050" lat="58.2101777809" lon="7.92942221919">
		<tag k="fixme" v="consider place=hamlet" />
		<tag k="name" v="Hagen" />
		<tag k="place" v="farm" />
		<tag k="ssr:stedsnr" v="121023" />
	</node>
	<node id="-332049" lat="58.1975933834" lon="8.03010512238">
		<tag k="alt_name" v="Gjusvik" />
		<tag k="fixme" v="consider place=hamlet" />
		<tag k="name" v="Justvik" />
		<tag k="place" v="farm" />
		<tag k="ssr:stedsnr" v="121005" />
	</node>
	<node id="-332046" lat="58.1704722266" lon="8.08708611798">
		<tag k="name" v="Hånes" />
		<tag k="place" v="farm" />
		<tag k="ssr:stedsnr" v="111807" />
	</node>
	<node id="-332044" lat="58.1413222242" lon="7.99501944027">
		<tag k="amenity" v="sports_centre" />
		<tag k="name" v="Fiskehallen" />
		<tag k="ssr:stedsnr" v="107943" />
	</node>
	<node id="-332043" lat="58.1425222229" lon="7.98231666998">
		<tag k="building" v="industrial" />
		<tag k="name" v="Jens Knutsen mek.verksted" />
		<tag k="ssr:stedsnr" v="107924" />
	</node>
	<node id="-334084" lat="58.105775003" lon="7.95573611377">
		<tag k="name" v="Voiebyen" />
		<tag k="place" v="quarter" />
		<tag k="ssr:stedsnr" v="942793" />
	</node>
	<node id="-334083" lat="58.1375333299" lon="8.07824444615">
		<tag k="name" v="Odderhei" />
		<tag k="place" v="quarter" />
		<tag k="ssr:stedsnr" v="942787" />
	</node>
	<node id="-332025" lat="58.1799055527" lon="8.12988889274">
		<tag k="building" v="commercial" />
		<tag k="name" v="Sørlandssenteret" />
		<tag k="ssr:stedsnr" v="107398" />
	</node>
	<node id="-332024" lat="58.2203194423" lon="7.92482222596">
		<tag k="amenity" v="school" />
		<tag k="name" v="Mosby skole" />
		<tag k="ssr:stedsnr" v="107388" />
	</node>
	<node id="-332156" lat="58.1337888933" lon="8.11798056181">
		<tag k="name" v="Randesund" />
		<tag k="place" v="suburb" />
		<tag k="ssr:stedsnr" v="152801" />
	</node>
	<node id="-332006" lat="58.2506194403" lon="8.04722778055">
		<tag k="name" v="Lømsland" />
		<tag k="place" v="farm" />
		<tag k="ssr:stedsnr" v="107209" />
	</node>
	<node id="-332155" lat="58.1492805556" lon="7.97186945036">
		<tag k="fixme" v="consider place=suburb, village or hamlet" />
		<tag k="name" v="Grim" />
		<tag k="place" v="quarter" />
		<tag k="ssr:stedsnr" v="152811" />
	</node>
	<node id="-331998" lat="58.1301083312" lon="7.96511944589">
		<tag k="building" v="industrial" />
		<tag k="industrial" v="factory" />
		<tag k="name" v="Christiansands Æskefabrikk" />
		<tag k="ssr:stedsnr" v="107088" />
	</node>
	<node id="-331997" lat="58.153802781" lon="7.94648056191">
		<tag k="leisure" v="pitch" />
		<tag k="name" v="Tinnheia skibakke" />
		<tag k="ssr:stedsnr" v="107085" />
	</node>
	<node id="-331995" lat="58.149038892" lon="8.00115277713">
		<tag k="amenity" v="school" />
		<tag k="name" v="Kvadraturen videregående skole" />
		<tag k="ssr:stedsnr" v="106899" />
	</node>
	<node id="-331994" lat="58.2190027758" lon="8.10459165962">
		<tag k="fixme" v="consider place=hamlet" />
		<tag k="name" v="Ryen" />
		<tag k="place" v="farm" />
		<tag k="ssr:stedsnr" v="106892" />
	</node>
	<node id="-331990" lat="58.1508999961" lon="8.00707222667">
		<tag k="amenity" v="school" />
		<tag k="name" v="Lahelle skole" />
		<tag k="ssr:stedsnr" v="106701" />
	</node>
	<node id="-331988" lat="58.1492861119" lon="8.12641943735">
		<tag k="name" v="Solgård" />
		<tag k="place" v="farm" />
		<tag k="ssr:stedsnr" v="106684" />
	</node>
	<node id="-334019" lat="58.1639583306" lon="7.98256945295">
		<tag k="alt_name" v="Eik" />
		<tag k="name" v="Eg" />
		<tag k="place" v="suburb" />
		<tag k="ssr:stedsnr" v="934059" />
	</node>
	<node id="-331966" lat="58.2767813605" lon="8.06298563421">
		<tag k="name" v="Mållskåret" />
		<tag k="place" v="farm" />
		<tag k="ssr:stedsnr" v="106238" />
	</node>
	<node id="-334006" lat="58.1542277813" lon="8.10705277661">
		<tag k="alt_name" v="Sommarro" />
		<tag k="fixme" v="consider place=hamlet" />
		<tag k="name" v="Sommerro" />
		<tag k="place" v="farm" />
		<tag k="ssr:stedsnr" v="910610" />
	</node>
	<node id="-331956" lat="58.2118944441" lon="8.12683334037">
		<tag k="name" v="Moen" />
		<tag k="place" v="farm" />
		<tag k="ssr:stedsnr" v="106043" />
	</node>
	<node id="-334003" lat="58.1254472262" lon="8.10832221586">
		<tag k="alt_name" v="Rosshagen" />
		<tag k="name" v="Rossa" />
		<tag k="place" v="farm" />
		<tag k="ssr:stedsnr" v="910574" />
	</node>
	<node id="-334002" lat="58.1418888878" lon="8.09718055349">
		<tag k="alt_name" v="Sukkerstøl" />
		<tag k="fixme" v="consider place=hamlet" />
		<tag k="name" v="Sukkestøl" />
		<tag k="place" v="farm" />
		<tag k="ssr:stedsnr" v="910557" />
	</node>
	<node id="-334000" lat="58.134802774" lon="8.13095000817">
		<tag k="alt_name" v="Dollsvåg" />
		<tag k="fixme" v="consider place=hamlet" />
		<tag k="name" v="Dolsvåg" />
		<tag k="place" v="farm" />
		<tag k="ssr:stedsnr" v="910543" />
	</node>
	<node id="-333998" lat="58.1169666641" lon="8.14950277739">
		<tag k="alt_name" v="Sotefed" />
		<tag k="fixme" v="consider place=hamlet" />
		<tag k="name" v="Sodefjed" />
		<tag k="place" v="farm" />
		<tag k="ssr:stedsnr" v="910522" />
	</node>
	<node id="-333995" lat="58.2213611131" lon="8.11830555268">
		<tag k="name" v="Moen" />
		<tag k="place" v="farm" />
		<tag k="ssr:stedsnr" v="910459" />
	</node>
	<node id="-333994" lat="58.2076277809" lon="8.11053054829">
		<tag k="alt_name" v="Krogemyra" />
		<tag k="name" v="Krokemyra" />
		<tag k="place" v="farm" />
		<tag k="ssr:stedsnr" v="910456" />
	</node>
	<node id="-333990" lat="58.1953222264" lon="8.16615556066">
		<tag k="alt_name" v="Vråls Ødegård" />
		<tag k="name" v="Oygarden" />
		<tag k="place" v="locality" />
		<tag k="ssr:stedsnr" v="910374" />
	</node>
	<node id="-333989" lat="58.2469694408" lon="8.14626943825">
		<tag k="name" v="Bumoen" />
		<tag k="place" v="farm" />
		<tag k="ssr:stedsnr" v="910359" />
	</node>
	<node id="-333988" lat="58.2461277748" lon="8.13717777862">
		<tag k="alt_name" v="Krageboen" />
		<tag k="name" v="Kråkebua" />
		<tag k="place" v="isolated_dwelling" />
		<tag k="ssr:stedsnr" v="910358" />
	</node>
	<node id="-333987" lat="58.2491444413" lon="8.14544166482">
		<tag k="name" v="Sandnes" />
		<tag k="place" v="farm" />
		<tag k="ssr:stedsnr" v="910356" />
	</node>
	<node id="-333986" lat="58.225647218" lon="8.11315555587">
		<tag k="fixme" v="consider place=hamlet" />
		<tag k="name" v="Bakken" />
		<tag k="place" v="farm" />
		<tag k="ssr:stedsnr" v="910304" />
	</node>
	<node id="-333985" lat="58.2364944441" lon="8.10808055422">
		<tag k="alt_name" v="Nordsida" />
		<tag k="name" v="Nordsia" />
		<tag k="place" v="farm" />
		<tag k="ssr:stedsnr" v="910276" />
	</node>
	<node id="-333984" lat="58.2401244781" lon="8.13227474214">
		<tag k="fixme" v="consider place=hamlet" />
		<tag k="name" v="Buestad" />
		<tag k="place" v="farm" />
		<tag k="ssr:stedsnr" v="910274" />
	</node>
	<node id="-333980" lat="58.1361527735" lon="8.07304999813">
		<tag k="name" v="Leirkilen" />
		<tag k="place" v="isolated_dwelling" />
		<tag k="ssr:stedsnr" v="910227" />
	</node>
	<node id="-333975" lat="58.0795527789" lon="8.01601944174">
		<tag k="fixme" v="consider place=suburb, village or hamlet" />
		<tag k="name" v="Skålevik" />
		<tag k="place" v="quarter" />
		<tag k="ssr:stedsnr" v="910184" />
	</node>
	<node id="-331845" lat="58.1534250021" lon="8.00219167267">
		<tag k="leisure" v="pitch" />
		<tag k="name" v="Roklubben" />
		<tag k="ssr:stedsnr" v="46931" />
	</node>
	<node id="-333967" lat="58.2203305589" lon="7.91003055841">
		<tag k="name" v="Liane" />
		<tag k="place" v="farm" />
		<tag k="ssr:stedsnr" v="910127" />
	</node>
	<node id="-333966" lat="58.2373944428" lon="8.03513888142">
		<tag k="name" v="Ålefjær" />
		<tag k="place" v="hamlet" />
		<tag k="ssr:stedsnr" v="910113" />
	</node>
	<node id="-333963" lat="58.1718666694" lon="7.98193611278">
		<tag k="name" v="Sødal" />
		<tag k="place" v="quarter" />
		<tag k="ssr:stedsnr" v="910074" />
	</node>
	<node id="-333957" lat="58.1801388866" lon="8.03849443637">
		<tag k="name" v="Fagerholt" />
		<tag k="place" v="quarter" />
		<tag k="ssr:stedsnr" v="910049" />
	</node>
	<node id="-331894" lat="58.1441416644" lon="8.02380278231">
		<tag k="name" v="Kuholmen" />
		<tag k="place" v="hamlet" />
		<tag k="ssr:stedsnr" v="85349" />
	</node>
	<node id="-331795" lat="58.2134555548" lon="8.09233056198">
		<tag k="name" v="Buplassen" />
		<tag k="place" v="isolated_dwelling" />
		<tag k="ssr:stedsnr" v="45974" />
	</node>
	<node id="-331794" lat="58.2123527749" lon="8.10781667115">
		<tag k="name" v="Hallingen" />
		<tag k="place" v="farm" />
		<tag k="ssr:stedsnr" v="45960" />
	</node>
	<node id="-331879" lat="58.1653999974" lon="8.09320833029">
		<tag k="name" v="Strømme" />
		<tag k="place" v="farm" />
		<tag k="ssr:stedsnr" v="61590" />
	</node>
	<node id="-331874" lat="58.2162961694" lon="8.10705515522">
		<tag k="name" v="Karten" />
		<tag k="place" v="farm" />
		<tag k="ssr:stedsnr" v="61449" />
	</node>
	<node id="-331873" lat="58.2235722192" lon="8.10984722627">
		<tag k="fixme" v="consider place=suburb, village or hamlet" />
		<tag k="name" v="Ryen" />
		<tag k="place" v="quarter" />
		<tag k="ssr:stedsnr" v="61288" />
	</node>
	<node id="-331868" lat="58.1391972214" lon="7.94252499572">
		<tag k="name" v="Rige" />
		<tag k="place" v="farm" />
		<tag k="ssr:stedsnr" v="61213" />
	</node>
	<node id="-331863" lat="58.1116305588" lon="7.9635861056">
		<tag k="fixme" v="consider place=hamlet" />
		<tag k="name" v="Voie" />
		<tag k="place" v="farm" />
		<tag k="ssr:stedsnr" v="61127" />
	</node>
	<node id="-331861" lat="58.2695666676" lon="8.07843889177">
		<tag k="name" v="Kleivane" />
		<tag k="place" v="farm" />
		<tag k="ssr:stedsnr" v="61050" />
	</node>
	<node id="-331859" lat="58.184424996" lon="7.95547777579">
		<tag k="alt_name" v="Prestøya" />
		<tag k="fixme" v="consider place=hamlet" />
		<tag k="name" v="Prestøyna" />
		<tag k="place" v="farm" />
		<tag k="ssr:stedsnr" v="61027" />
	</node>
	<node id="-331857" lat="58.1893000045" lon="7.92826110881">
		<tag k="fixme" v="consider place=suburb, village or hamlet" />
		<tag k="name" v="Strai" />
		<tag k="place" v="quarter" />
		<tag k="ssr:stedsnr" v="61019" />
	</node>
	<node id="-331856" lat="58.2062999958" lon="7.92225555322">
		<tag k="alt_name" v="Aukland" />
		<tag k="fixme" v="consider place=hamlet" />
		<tag k="name" v="Augland" />
		<tag k="place" v="village" />
		<tag k="ssr:stedsnr" v="61010" />
	</node>
	<node id="-331854" lat="58.1411861067" lon="8.17511388957">
		<tag k="alt_name" v="Ådnevik" />
		<tag k="fixme" v="consider place=hamlet" />
		<tag k="name" v="Ånevik" />
		<tag k="place" v="farm" />
		<tag k="ssr:stedsnr" v="60501" />
	</node>
	<node id="-331851" lat="58.1039666689" lon="7.97375833799">
		<tag k="alt_name" v="Møvig" />
		<tag k="name" v="Møvik" />
		<tag k="place" v="village" />
		<tag k="ssr:stedsnr" v="60159" />
	</node>
	<node id="-331848" lat="58.1407166639" lon="7.99461388093">
		<tag k="name" v="Gravane" />
		<tag k="place" v="village" />
		<tag k="ssr:stedsnr" v="46997" />
	</node>
	<node id="-333894" lat="58.1491500005" lon="8.12533888141">
		<tag k="name" v="Tippen" />
		<tag k="place" v="farm" />
		<tag k="ssr:stedsnr" v="850585" />
	</node>
	<node id="-333893" lat="58.1534861091" lon="8.13816943637">
		<tag k="alt_name" v="Skarpevoll" />
		<tag k="name" v="Skarpaln" />
		<tag k="place" v="farm" />
		<tag k="ssr:stedsnr" v="850570" />
	</node>
	<node id="-333892" lat="58.1513138898" lon="8.13617777219">
		<tag k="fixme" v="consider place=hamlet" />
		<tag k="name" v="Drange" />
		<tag k="place" v="farm" />
		<tag k="ssr:stedsnr" v="850565" />
	</node>
	<node id="-331843" lat="58.2260944405" lon="7.87275833022">
		<tag k="name" v="Espestøl" />
		<tag k="place" v="hamlet" />
		<tag k="ssr:stedsnr" v="46802" />
	</node>
	<node id="-333890" lat="58.1175749961" lon="8.13869166872">
		<tag k="name" v="Skaffan" />
		<tag k="place" v="farm" />
		<tag k="ssr:stedsnr" v="850519" />
	</node>
	<node id="-333887" lat="58.2215361106" lon="8.12133054842">
		<tag k="alt_name" v="Børresmonen" />
		<tag k="name" v="Børresmoen" />
		<tag k="place" v="farm" />
		<tag k="ssr:stedsnr" v="850469" />
	</node>
	<node id="-333885" lat="58.2422749984" lon="8.14286666955">
		<tag k="name" v="Arvehuset" />
		<tag k="place" v="farm" />
		<tag k="ssr:stedsnr" v="850375" />
	</node>
	<node id="-331835" lat="58.1795138877" lon="8.03366111567">
		<tag k="amenity" v="school" />
		<tag k="name" v="Fagerholt skole" />
		<tag k="ssr:stedsnr" v="46596" />
	</node>
	<node id="-331444" lat="58.1467277742" lon="8.00655832577">
		<tag k="amenity" v="sports_centre" />
		<tag k="name" v="Svømmehallen" />
		<tag k="ssr:stedsnr" v="410932" />
	</node>
	<node id="-333877" lat="58.1461777806" lon="8.06356111039">
		<tag k="alt_name" v="Myrene" />
		<tag k="name" v="Myra" />
		<tag k="place" v="farm" />
		<tag k="ssr:stedsnr" v="850213" />
	</node>
	<node id="-333876" lat="58.1523972264" lon="8.00884444429">
		<tag k="fixme" v="consider place=suburb, village or hamlet" />
		<tag k="name" v="Lund" />
		<tag k="place" v="quarter" />
		<tag k="ssr:stedsnr" v="850197" />
	</node>
	<node id="-333872" lat="58.225466666" lon="8.0218555604">
		<tag k="name" v="Kostøl" />
		<tag k="place" v="farm" />
		<tag k="ssr:stedsnr" v="850126" />
	</node>
	<node id="-333871" lat="58.2176249989" lon="7.95453333678">
		<tag k="alt_name" v="Skou-Skou;Skov-Skov" />
		<tag k="name" v="Skau-Skau" />
		<tag k="place" v="farm" />
		<tag k="ssr:stedsnr" v="850118" />
	</node>
	<node id="-333868" lat="58.2357343411" lon="7.87467049427">
		<tag k="fixme" v="consider place=hamlet" />
		<tag k="name" v="Dalane" />
		<tag k="place" v="farm" />
		<tag k="ssr:stedsnr" v="850107" />
	</node>
	<node id="-333866" lat="58.2608500038" lon="8.07083611043">
		<tag k="name" v="Rosseland" />
		<tag k="place" v="farm" />
		<tag k="ssr:stedsnr" v="850052" />
	</node>
	<node id="-333865" lat="58.2693555519" lon="8.04170277333">
		<tag k="alt_name" v="Ramnevatn" />
		<tag k="fixme" v="consider place=hamlet" />
		<tag k="name" v="Ravnevann" />
		<tag k="place" v="farm" />
		<tag k="ssr:stedsnr" v="850042" />
	</node>
	<node id="-333863" lat="58.1866861129" lon="8.00457221889">
		<tag k="alt_name" v="Gjel, øvre" />
		<tag k="name" v="Øvre Gill" />
		<tag k="place" v="farm" />
		<tag k="ssr:stedsnr" v="850032" />
	</node>
	<node id="-333860" lat="58.2110019224" lon="8.1104015083">
		<tag k="alt_name" v="Gjersdalen" />
		<tag k="name" v="Gjendalen" />
		<tag k="place" v="farm" />
		<tag k="ssr:stedsnr" v="849481" />
	</node>
	<node id="-333859" lat="58.2083916626" lon="8.10302778367">
		<tag k="name" v="Ve" />
		<tag k="place" v="hamlet" />
		<tag k="ssr:stedsnr" v="849471" />
	</node>
	<node id="-333855" lat="58.1761083348" lon="8.04189444794">
		<tag k="alt_name" v="Bleket" />
		<tag k="name" v="Bleget" />
		<tag k="place" v="isolated_dwelling" />
		<tag k="ssr:stedsnr" v="849084" />
	</node>
	<node id="-333854" lat="58.1710305527" lon="8.08672499659">
		<tag k="fixme" v="consider place=hamlet" />
		<tag k="name" v="Hånes" />
		<tag k="place" v="farm" />
		<tag k="ssr:stedsnr" v="849080" />
	</node>
	<node id="-333846" lat="58.1565027777" lon="8.00865556141">
		<tag k="amenity" v="school" />
		<tag k="name" v="Lovisenlund skole" />
		<tag k="ssr:stedsnr" v="835984" />
	</node>
	<node id="-333844" lat="58.2359329914" lon="7.87478296407">
		<tag k="name" v="Dalane" />
		<tag k="place" v="hamlet" />
		<tag k="ssr:stedsnr" v="835796" />
	</node>
	<node id="-333843" lat="58.1590694448" lon="8.00886388946">
		<tag k="amenity" v="school" />
		<tag k="name" v="Kristiansand katedralskole" />
		<tag k="ssr:stedsnr" v="835703" />
	</node>
	<node id="-333842" lat="58.150469443" lon="8.07799443841">
		<tag k="name" v="Ytre Strømme" />
		<tag k="place" v="farm" />
		<tag k="ssr:stedsnr" v="835696" />
	</node>
	<node id="-334091" lat="58.0793555516" lon="8.01966944032">
		<tag k="name" v="Stegehavn" />
		<tag k="place" v="farm" />
		<tag k="ssr:stedsnr" v="949703" />
	</node>
	<node id="-331788" lat="58.1475388887" lon="7.99862222899">
		<tag k="building" v="commercial" />
		<tag k="name" v="Tinghuset" />
		<tag k="ssr:stedsnr" v="45697" />
	</node>
	<node id="-331784" lat="58.1550388911" lon="8.08748334146">
		<tag k="name" v="Strømme" />
		<tag k="place" v="farm" />
		<tag k="ssr:stedsnr" v="45601" />
	</node>
</osm>
