<?xml version="1.0" encoding="UTF-8"?>
<osm generator="osmapis" version="0.6">
	<node id="-333816" lat="58.1002222252" lon="7.91136666273">
		<tag k="name" v="Støa" />
		<tag k="natural" v="bay" />
		<tag k="ssr:stedsnr" v="835325" />
	</node>
	<node id="-331766" lat="58.1934138847" lon="8.10922222078">
		<tag k="name" v="Harenebben" />
		<tag k="natural" v="cape" />
		<tag k="ssr:stedsnr" v="45040" />
	</node>
	<node id="-333812" lat="58.1225416687" lon="7.9128222174">
		<tag k="name" v="Bispebekken" />
		<tag k="ssr:stedsnr" v="835274" />
		<tag k="waterway" v="stream" />
	</node>
	<node id="-333811" lat="58.1665911882" lon="7.96749628536">
		<tag k="name" v="Øvre Hellerstøvann" />
		<tag k="natural" v="water" />
		<tag k="ssr:stedsnr" v="835266" />
		<tag k="water" v="lake" />
	</node>
	<node id="-333810" lat="58.1653388889" lon="7.96909166267">
		<tag k="name" v="Nedre Hellerstøvann" />
		<tag k="natural" v="water" />
		<tag k="ssr:stedsnr" v="835265" />
		<tag k="water" v="lake" />
	</node>
	<node id="-333802" lat="58.1868111121" lon="7.95149167393">
		<tag k="name" v="Bjønnholmen" />
		<tag k="place" v="islet" />
		<tag k="ssr:stedsnr" v="834954" />
	</node>
	<node id="-333795" lat="58.1837500022" lon="8.02831943824">
		<tag k="name" v="Gåsetangen" />
		<tag k="natural" v="cape" />
		<tag k="ssr:stedsnr" v="834723" />
	</node>
	<node id="-331746" lat="58.2312305553" lon="8.17281944797">
		<tag k="name" v="Falkodden" />
		<tag k="natural" v="cape" />
		<tag k="ssr:stedsnr" v="28400" />
	</node>
	<node id="-331744" lat="58.2091694409" lon="7.98131110978">
		<tag k="alt_name" v="Igletjønna" />
		<tag k="name" v="Igletjønn" />
		<tag k="natural" v="water" />
		<tag k="ssr:stedsnr" v="28347" />
	</node>
	<node id="-333791" lat="58.1967305511" lon="8.03358332567">
		<tag k="name" v="Rundglipen" />
		<tag k="natural" v="strait" />
		<tag k="ssr:stedsnr" v="834657" />
	</node>
	<node id="-331733" lat="58.1864861074" lon="8.12398055575">
		<tag k="name" v="Stemmen" />
		<tag k="natural" v="water" />
		<tag k="ssr:stedsnr" v="28262" />
		<tag k="water" v="lake" />
	</node>
	<node id="-333779" lat="58.2394250033" lon="8.13297777463">
		<tag k="name" v="Blegehåla" />
		<tag k="place" v="locality" />
		<tag k="ssr:stedsnr" v="834097" />
	</node>
	<node id="-331730" lat="58.2715861153" lon="8.05224166933">
		<tag k="name" v="Store Gangtjønn" />
		<tag k="natural" v="water" />
		<tag k="ssr:stedsnr" v="28189" />
	</node>
	<node id="-331728" lat="58.2111722248" lon="8.07303332785">
		<tag k="name" v="Spordalstjønn" />
		<tag k="natural" v="water" />
		<tag k="ssr:stedsnr" v="28152" />
	</node>
	<node id="-331725" lat="58.2523944438" lon="7.99911945007">
		<tag k="name" v="Igletjønn" />
		<tag k="natural" v="water" />
		<tag k="ssr:stedsnr" v="28083" />
	</node>
	<node id="-333772" lat="58.1910444448" lon="8.10384723022">
		<tag k="name" v="Ørneredeholmen" />
		<tag k="place" v="islet" />
		<tag k="ssr:stedsnr" v="834038" />
	</node>
	<node id="-331723" lat="58.2499841618" lon="8.02108027969">
		<tag k="name" v="Husdalstjønnene" />
		<tag k="natural" v="water" />
		<tag k="ssr:stedsnr" v="28080" />
	</node>
	<node id="-331721" lat="58.2493583357" lon="8.06394166104">
		<tag k="name" v="Hålebekk" />
		<tag k="ssr:stedsnr" v="28251" />
		<tag k="waterway" v="stream" />
	</node>
	<node id="-331425" lat="58.147197221" lon="7.91379445108">
		<tag k="name" v="Bydalstjønna" />
		<tag k="natural" v="water" />
		<tag k="ssr:stedsnr" v="410443" />
	</node>
	<node id="-333754" lat="58.2165138875" lon="7.99176945237">
		<tag k="name" v="Murtetjønn" />
		<tag k="natural" v="water" />
		<tag k="ssr:stedsnr" v="817365" />
	</node>
	<node id="-331704" lat="58.1590422599" lon="7.90477783337">
		<tag k="name" v="Anestjønn" />
		<tag k="natural" v="water" />
		<tag k="ssr:stedsnr" v="24893" />
	</node>
	<node id="-331703" lat="58.1361149133" lon="7.90827638914">
		<tag k="name" v="Bjørkedalstjønna" />
		<tag k="natural" v="water" />
		<tag k="ssr:stedsnr" v="24888" />
	</node>
	<node id="-331702" lat="58.1309444402" lon="7.89929721561">
		<tag k="name" v="Haugetjønn" />
		<tag k="natural" v="water" />
		<tag k="ssr:stedsnr" v="24884" />
	</node>
	<node id="-333749" lat="58.2734805575" lon="8.09834722425">
		<tag k="alt_name" v="Brennevann" />
		<tag k="name" v="Brennevannet" />
		<tag k="natural" v="water" />
		<tag k="ssr:stedsnr" v="817314" />
		<tag k="water" v="lake" />
	</node>
	<node id="-331696" lat="58.1956750021" lon="7.89833889528">
		<tag k="name" v="Gyråstjønn" />
		<tag k="natural" v="water" />
		<tag k="ssr:stedsnr" v="24035" />
	</node>
	<node id="-331690" lat="58.2661416632" lon="8.1221416684">
		<tag k="alt_name" v="Stemtjørn" />
		<tag k="name" v="Stemtjønn" />
		<tag k="natural" v="water" />
		<tag k="ssr:stedsnr" v="737" />
	</node>
	<node id="-333733" lat="58.2032305557" lon="8.1494861185">
		<tag k="name" v="Gjenbutjønn" />
		<tag k="natural" v="water" />
		<tag k="ssr:stedsnr" v="817151" />
	</node>
	<node id="-331684" lat="58.1792561708" lon="8.13950531289">
		<tag k="alt_name" v="Barselvatnet" />
		<tag k="name" v="Barselvannet" />
		<tag k="natural" v="water" />
		<tag k="ssr:stedsnr" v="432" />
	</node>
	<node id="-331078" lat="58.2413444487" lon="8.01755554997">
		<tag k="alt_name" v="Skeisvatnet" />
		<tag k="name" v="Skjedvannet" />
		<tag k="natural" v="water" />
		<tag k="ssr:stedsnr" v="303079" />
	</node>
	<node id="-331678" lat="58.2338432516" lon="8.19860062448">
		<tag k="alt_name" v="Omtjønnane" />
		<tag k="name" v="Omtjørnane" />
		<tag k="natural" v="water" />
		<tag k="ssr:stedsnr" v="275" />
	</node>
	<node id="-331675" lat="58.1316361154" lon="7.92543055611">
		<tag k="alt_name" v="Fiskåvatnet;Fiskåvann" />
		<tag k="name" v="Fiskåvannet" />
		<tag k="natural" v="water" />
		<tag k="ssr:stedsnr" v="231" />
		<tag k="water" v="lake" />
	</node>
	<node id="-333717" lat="58.1986194437" lon="7.88550000569">
		<tag k="name" v="Skrubben" />
		<tag k="place" v="islet" />
		<tag k="ssr:stedsnr" v="813902" />
	</node>
	<node id="-333716" lat="58.1959194427" lon="7.88334166913">
		<tag k="name" v="Rypekilen" />
		<tag k="natural" v="bay" />
		<tag k="ssr:stedsnr" v="813901" />
	</node>
	<node id="-333715" lat="58.1707018904" lon="7.91970356832">
		<tag k="name" v="Raudetjønn" />
		<tag k="natural" v="water" />
		<tag k="ssr:stedsnr" v="813849" />
	</node>
	<node id="-331663" lat="58.1599166643" lon="7.97501944443">
		<tag k="alt_name" v="Bånetjørn" />
		<tag k="name" v="Bånetjønn" />
		<tag k="natural" v="water" />
		<tag k="ssr:stedsnr" v="51" />
	</node>
	<node id="-331661" lat="58.1441416641" lon="8.01308333332">
		<tag k="alt_name" v="Otri" />
		<tag k="name" v="Otra" />
		<tag k="ssr:stedsnr" v="28" />
		<tag k="waterway" v="river" />
	</node>
	<node id="-331659" lat="58.1897416685" lon="7.99349999537">
		<tag k="alt_name" v="Øygardstjørn" />
		<tag k="name" v="Øygardstjønn" />
		<tag k="natural" v="water" />
		<tag k="ssr:stedsnr" v="25" />
	</node>
	<node id="-333706" lat="58.1795869879" lon="7.88514450059">
		<tag k="name" v="Bergsvann" />
		<tag k="natural" v="water" />
		<tag k="ssr:stedsnr" v="813019" />
	</node>
	<node id="-331657" lat="58.2083749996" lon="7.8990805518">
		<tag k="alt_name" v="Lonene" />
		<tag k="name" v="Lonane" />
		<tag k="natural" v="water" />
		<tag k="ssr:stedsnr" v="13" />
	</node>
	<node id="-333700" lat="58.1421249975" lon="8.14715278047">
		<tag k="alt_name" v="Vassvatnet" />
		<tag k="name" v="Vassvann" />
		<tag k="natural" v="water" />
		<tag k="ssr:stedsnr" v="789582" />
		<tag k="water" v="lake" />
	</node>
	<node id="-333698" lat="58.1493249991" lon="8.13546110328">
		<tag k="alt_name" v="Drangetjønn" />
		<tag k="name" v="Drangstjørna" />
		<tag k="natural" v="water" />
		<tag k="ssr:stedsnr" v="789581" />
	</node>
	<node id="-333697" lat="58.1102444446" lon="8.14652222524">
		<tag k="alt_name" v="Rundetjønn;Rundtjønn" />
		<tag k="name" v="Rundtjørn" />
		<tag k="natural" v="water" />
		<tag k="ssr:stedsnr" v="789529" />
	</node>
	<node id="-333686" lat="58.2561250033" lon="8.0673638919">
		<tag k="alt_name" v="Haugevatnet" />
		<tag k="name" v="Haugevannet" />
		<tag k="natural" v="water" />
		<tag k="ssr:stedsnr" v="789038" />
	</node>
	<node id="-333684" lat="58.1286666687" lon="8.12653888823">
		<tag k="alt_name" v="Støletjønn" />
		<tag k="name" v="Støletjørna" />
		<tag k="natural" v="water" />
		<tag k="ssr:stedsnr" v="788544" />
	</node>
	<node id="-333682" lat="58.2002361079" lon="8.14828888265">
		<tag k="alt_name" v="Krokvatnet;Krogevann" />
		<tag k="name" v="Krogevannet" />
		<tag k="natural" v="water" />
		<tag k="ssr:stedsnr" v="788470" />
		<tag k="water" v="lake" />
	</node>
	<node id="-333681" lat="58.2125166682" lon="8.12919722821">
		<tag k="alt_name" v="Frøtjønn" />
		<tag k="name" v="Frøtjørn" />
		<tag k="natural" v="water" />
		<tag k="ssr:stedsnr" v="788437" />
	</node>
	<node id="-333680" lat="58.1776527805" lon="8.14770278594">
		<tag k="alt_name" v="Igletjørn, øvre;Igletjønn" />
		<tag k="name" v="Øvre Igletjørn" />
		<tag k="natural" v="water" />
		<tag k="ssr:stedsnr" v="788409" />
	</node>
	<node id="-333663" lat="58.169391664" lon="7.99882777801">
		<tag k="name" v="Nedre Jegersbergvann" />
		<tag k="natural" v="water" />
		<tag k="ssr:stedsnr" v="774663" />
		<tag k="water" v="lake" />
	</node>
	<node id="-333661" lat="58.2121527787" lon="8.02876111075">
		<tag k="name" v="Sauetangen" />
		<tag k="natural" v="cape" />
		<tag k="ssr:stedsnr" v="774654" />
	</node>
	<node id="-333659" lat="58.1063046051" lon="7.95919241531">
		<tag k="name" v="Fåretjønn" />
		<tag k="natural" v="water" />
		<tag k="ssr:stedsnr" v="774617" />
	</node>
	<node id="-333657" lat="58.2224638914" lon="8.02264722602">
		<tag k="name" v="Kostøltjønn" />
		<tag k="natural" v="water" />
		<tag k="ssr:stedsnr" v="774550" />
	</node>
	<node id="-333655" lat="58.2135138847" lon="7.92565000679">
		<tag k="name" v="Tjønna" />
		<tag k="natural" v="water" />
		<tag k="ssr:stedsnr" v="774522" />
	</node>
	<node id="-333654" lat="58.156194444" lon="7.92558333477">
		<tag k="name" v="Kvislevannsbekken" />
		<tag k="ssr:stedsnr" v="774518" />
		<tag k="waterway" v="stream" />
	</node>
	<node id="-333653" lat="58.1537194484" lon="8.10177499385">
		<tag k="name" v="Rundetjønn" />
		<tag k="natural" v="water" />
		<tag k="ssr:stedsnr" v="774462" />
	</node>
	<node id="-333649" lat="58.119883332" lon="7.92812500754">
		<tag k="name" v="Skjebbetjønn" />
		<tag k="natural" v="water" />
		<tag k="ssr:stedsnr" v="774421" />
	</node>
	<node id="-333647" lat="58.1590861072" lon="8.11028888696">
		<tag k="name" v="Stavkleivbukta" />
		<tag k="natural" v="bay" />
		<tag k="ssr:stedsnr" v="774387" />
	</node>
	<node id="-332087" lat="58.1302611086" lon="8.10898610838">
		<tag k="alt_name" v="Rossatjørn;Rosshagetjønna;Rosshagetjønn" />
		<tag k="name" v="Rosshavetjønn" />
		<tag k="natural" v="water" />
		<tag k="ssr:stedsnr" v="121561" />
	</node>
	<node id="-333640" lat="58.2450638862" lon="8.13909999656">
		<tag k="name" v="Boenfoss" />
		<tag k="natural" v="waterfall" />
		<tag k="ssr:stedsnr" v="774368" />
	</node>
	<node id="-333632" lat="58.1287883345" lon="7.9155240535">
		<tag k="name" v="Svartetjønn" />
		<tag k="natural" v="water" />
		<tag k="ssr:stedsnr" v="774287" />
	</node>
	<node id="-331574" lat="58.2409505879" lon="7.86477831116">
		<tag k="name" v="Buetjønn" />
		<tag k="natural" v="water" />
		<tag k="ssr:stedsnr" v="532990" />
	</node>
	<node id="-331057" lat="58.2221694486" lon="8.02769722755">
		<tag k="name" v="Gruetjønn" />
		<tag k="natural" v="water" />
		<tag k="ssr:stedsnr" v="289527" />
	</node>
	<node id="-332080" lat="58.113033334" lon="8.14562500301">
		<tag k="alt_name" v="Langetjønn;Langtjønn" />
		<tag k="name" v="Langetjørn" />
		<tag k="natural" v="water" />
		<tag k="ssr:stedsnr" v="121519" />
	</node>
	<node id="-331550" lat="58.1991222248" lon="8.14344445029">
		<tag k="name" v="Heimre Stegeneskilen" />
		<tag k="natural" v="bay" />
		<tag k="ssr:stedsnr" v="896874" />
	</node>
	<node id="-331544" lat="58.2031666645" lon="8.02803056201">
		<tag k="name" v="Urevika" />
		<tag k="natural" v="bay" />
		<tag k="ssr:stedsnr" v="896654" />
	</node>
	<node id="-331543" lat="58.1763416639" lon="7.99838333937">
		<tag k="name" v="Slåttebekken" />
		<tag k="ssr:stedsnr" v="896642" />
		<tag k="waterway" v="stream" />
	</node>
	<node id="-331542" lat="58.1462194472" lon="8.12068056047">
		<tag k="name" v="Lilletjønn" />
		<tag k="natural" v="water" />
		<tag k="ssr:stedsnr" v="896622" />
	</node>
	<node id="-331538" lat="58.1435500021" lon="7.90945277116">
		<tag k="name" v="Grauthellertjønn" />
		<tag k="natural" v="water" />
		<tag k="ssr:stedsnr" v="896439" />
	</node>
	<node id="-331529" lat="58.1077888879" lon="7.93993888656">
		<tag k="name" v="Bladdalstjønn" />
		<tag k="natural" v="water" />
		<tag k="ssr:stedsnr" v="896361" />
	</node>
	<node id="-331526" lat="58.2758361084" lon="8.10903888969">
		<tag k="name" v="Åltjønn" />
		<tag k="natural" v="water" />
		<tag k="ssr:stedsnr" v="896332" />
	</node>
	<node id="-333568" lat="58.2191828907" lon="8.17765142899">
		<tag k="alt_name" v="Bortjønn" />
		<tag k="name" v="Bjortjønn" />
		<tag k="natural" v="water" />
		<tag k="ssr:stedsnr" v="756387" />
	</node>
	<node id="-331518" lat="58.1182607412" lon="7.91158715202">
		<tag k="name" v="Svingerlitjønna" />
		<tag k="natural" v="water" />
		<tag k="ssr:stedsnr" v="896269" />
	</node>
	<node id="-333564" lat="58.2345861122" lon="7.9908500003">
		<tag k="alt_name" v="Okseskafttjønn" />
		<tag k="name" v="Økseskafttjønn" />
		<tag k="natural" v="water" />
		<tag k="ssr:stedsnr" v="756349" />
	</node>
	<node id="-333559" lat="58.2726833345" lon="8.07218611828">
		<tag k="name" v="Torvetjønn" />
		<tag k="natural" v="water" />
		<tag k="ssr:stedsnr" v="756322" />
	</node>
	<node id="-333558" lat="58.2601972204" lon="8.14738333812">
		<tag k="name" v="Hengefoss" />
		<tag k="natural" v="waterfall" />
		<tag k="ssr:stedsnr" v="756278" />
	</node>
	<node id="-333557" lat="58.2772833323" lon="8.15359722347">
		<tag k="name" v="Lonane" />
		<tag k="natural" v="water" />
		<tag k="ssr:stedsnr" v="756261" />
		<tag k="water" v="lake" />
	</node>
	<node id="-333555" lat="58.2381805563" lon="8.10435555869">
		<tag k="name" v="Gamledalsbukt" />
		<tag k="natural" v="bay" />
		<tag k="ssr:stedsnr" v="756236" />
	</node>
	<node id="-331731" lat="58.2438194488" lon="8.00473332889">
		<tag k="alt_name" v="Dalandstjønn" />
		<tag k="name" v="Dalandstjønna" />
		<tag k="natural" v="water" />
		<tag k="ssr:stedsnr" v="28198" />
	</node>
	<node id="-333547" lat="58.2712916675" lon="8.04505000526">
		<tag k="name" v="Skåretjønn" />
		<tag k="natural" v="water" />
		<tag k="ssr:stedsnr" v="756165" />
	</node>
	<node id="-333535" lat="58.2171638874" lon="7.85485000148">
		<tag k="name" v="Hesteheitjønn" />
		<tag k="natural" v="water" />
		<tag k="ssr:stedsnr" v="756089" />
	</node>
	<node id="-333522" lat="58.2010861131" lon="7.94077499386">
		<tag k="name" v="Klovebekken" />
		<tag k="ssr:stedsnr" v="752042" />
		<tag k="waterway" v="stream" />
	</node>
	<node id="-333517" lat="58.1868055547" lon="7.91244167359">
		<tag k="name" v="Ristjønn" />
		<tag k="natural" v="water" />
		<tag k="ssr:stedsnr" v="752018" />
	</node>
	<node id="-333502" lat="58.1226638897" lon="8.10830555237">
		<tag k="alt_name" v="Hoksvatnet;Hoksvann" />
		<tag k="name" v="Hoksvannet" />
		<tag k="natural" v="water" />
		<tag k="ssr:stedsnr" v="728508" />
	</node>
	<node id="-333489" lat="58.1456638904" lon="7.94439167376">
		<tag k="alt_name" v="Eiksvatna" />
		<tag k="name" v="Indre Eigevann" />
		<tag k="natural" v="water" />
		<tag k="ssr:stedsnr" v="728177" />
	</node>
	<node id="-333488" lat="58.1533816744" lon="7.98644214771">
		<tag k="alt_name" v="Stampetjørn;Øvre Stampetjørnane" />
		<tag k="name" v="3. Stampe" />
		<tag k="natural" v="water" />
		<tag k="ssr:stedsnr" v="728169" />
	</node>
	<node id="-331438" lat="58.1407611109" lon="8.08277778549">
		<tag k="name" v="Korsviktjønna" />
		<tag k="natural" v="water" />
		<tag k="ssr:stedsnr" v="410632" />
	</node>
	<node id="-331437" lat="58.1711777775" lon="8.00534722155">
		<tag k="name" v="Øvre Jegersbergvann" />
		<tag k="natural" v="water" />
		<tag k="ssr:stedsnr" v="410619" />
		<tag k="water" v="lake" />
	</node>
	<node id="-331435" lat="58.1842361069" lon="8.03070554912">
		<tag k="alt_name" v="Sandvika" />
		<tag k="name" v="Sandviga" />
		<tag k="natural" v="bay" />
		<tag k="ssr:stedsnr" v="410607" />
	</node>
	<node id="-333480" lat="58.2454138865" lon="7.88399999926">
		<tag k="alt_name" v="Eptevatnet" />
		<tag k="name" v="Eptevann" />
		<tag k="natural" v="water" />
		<tag k="ssr:stedsnr" v="728064" />
	</node>
	<node id="-333479" lat="58.1694000028" lon="7.88978333162">
		<tag k="alt_name" v="Straisvatnet" />
		<tag k="name" v="Straisvann" />
		<tag k="natural" v="water" />
		<tag k="ssr:stedsnr" v="728055" />
		<tag k="water" v="lake" />
	</node>
	<node id="-331430" lat="58.2361472247" lon="8.03283054835">
		<tag k="name" v="Ålefjærbekken" />
		<tag k="ssr:stedsnr" v="410505" />
		<tag k="waterway" v="stream" />
	</node>
	<node id="-333476" lat="58.2111318013" lon="7.97441545884">
		<tag k="alt_name" v="Krokvatnet" />
		<tag k="name" v="Krogvannet" />
		<tag k="natural" v="water" />
		<tag k="ssr:stedsnr" v="728018" />
	</node>
	<node id="-331426" lat="58.201130557" lon="8.10301944864">
		<tag k="name" v="Hamrevannsbekken" />
		<tag k="ssr:stedsnr" v="410457" />
		<tag k="waterway" v="stream" />
	</node>
	<node id="-333473" lat="58.1973939715" lon="7.88630660229">
		<tag k="alt_name" v="Aurebekkvatnet;Aurebekkvann" />
		<tag k="name" v="Aurebekkvannet" />
		<tag k="natural" v="water" />
		<tag k="ssr:stedsnr" v="728001" />
		<tag k="water" v="lake" />
	</node>
	<node id="-331424" lat="58.1441666691" lon="7.91382221544">
		<tag k="name" v="Tvitjønn" />
		<tag k="natural" v="water" />
		<tag k="ssr:stedsnr" v="410430" />
	</node>
	<node id="-331422" lat="58.1965111146" lon="8.01203888653">
		<tag k="name" v="Bjortjønn" />
		<tag k="natural" v="water" />
		<tag k="ssr:stedsnr" v="410383" />
	</node>
	<node id="-333464" lat="58.201188888" lon="8.09377778198">
		<tag k="name" v="Stubben" />
		<tag k="natural" v="cape" />
		<tag k="ssr:stedsnr" v="713989" />
	</node>
	<node id="-331415" lat="58.1166111141" lon="7.91960832821">
		<tag k="name" v="Stølsheitjønna" />
		<tag k="natural" v="water" />
		<tag k="ssr:stedsnr" v="410282" />
	</node>
	<node id="-331412" lat="58.0689900271" lon="7.98234900474">
		<tag k="name" v="Storetjønna" />
		<tag k="natural" v="water" />
		<tag k="ssr:stedsnr" v="410261" />
	</node>
	<node id="-333457" lat="58.1508166701" lon="7.97385556052">
		<tag k="name" v="Grimsbekken" />
		<tag k="ssr:stedsnr" v="713911" />
		<tag k="waterway" v="stream" />
	</node>
	<node id="-333455" lat="58.1928694467" lon="8.13701667147">
		<tag k="name" v="Landåstjønn" />
		<tag k="natural" v="water" />
		<tag k="ssr:stedsnr" v="713849" />
	</node>
	<node id="-331397" lat="58.1972361088" lon="8.15777499227">
		<tag k="name" v="Lille Tømmerholmen" />
		<tag k="place" v="islet" />
		<tag k="ssr:stedsnr" v="409865" />
	</node>
	<node id="-333437" lat="58.147947219" lon="8.11962778401">
		<tag k="name" v="Storetjønn" />
		<tag k="natural" v="water" />
		<tag k="ssr:stedsnr" v="713611" />
	</node>
	<node id="-333435" lat="58.1442472261" lon="8.16131667011">
		<tag k="name" v="Hannebutjønn" />
		<tag k="natural" v="water" />
		<tag k="ssr:stedsnr" v="713603" />
	</node>
	<node id="-333434" lat="58.1541470644" lon="8.08875179079">
		<tag k="name" v="Jorestjønn" />
		<tag k="natural" v="water" />
		<tag k="ssr:stedsnr" v="713601" />
	</node>
	<node id="-333433" lat="58.0903460016" lon="7.93951415252">
		<tag k="name" v="Røyrmyrtjønn" />
		<tag k="natural" v="water" />
		<tag k="ssr:stedsnr" v="713599" />
	</node>
	<node id="-333425" lat="58.2172444452" lon="7.92625832728">
		<tag k="name" v="Høiebekken" />
		<tag k="ssr:stedsnr" v="713491" />
		<tag k="waterway" v="stream" />
	</node>
	<node id="-333423" lat="58.1751583357" lon="8.08859166524">
		<tag k="name" v="Vigvolltjønna" />
		<tag k="natural" v="water" />
		<tag k="ssr:stedsnr" v="713473" />
	</node>
	<node id="-333421" lat="58.1673388863" lon="8.14259167008">
		<tag k="alt_name" v="Nygårdstjernet" />
		<tag k="name" v="Nygårdstjønn" />
		<tag k="natural" v="water" />
		<tag k="ssr:stedsnr" v="713444" />
	</node>
	<node id="-333420" lat="58.1860250005" lon="8.15392778205">
		<tag k="name" v="Grasvann" />
		<tag k="natural" v="water" />
		<tag k="ssr:stedsnr" v="713438" />
		<tag k="water" v="lake" />
	</node>
	<node id="-333410" lat="58.1273611067" lon="7.9348472195">
		<tag k="name" v="Nordtjønn" />
		<tag k="natural" v="water" />
		<tag k="ssr:stedsnr" v="713378" />
	</node>
	<node id="-333407" lat="58.2517444447" lon="8.06444166104">
		<tag k="name" v="Smalsund" />
		<tag k="natural" v="strait" />
		<tag k="ssr:stedsnr" v="713329" />
	</node>
	<node id="-333406" lat="58.2197388903" lon="8.0989694369">
		<tag k="name" v="Dalebekken" />
		<tag k="ssr:stedsnr" v="713312" />
		<tag k="waterway" v="stream" />
	</node>
	<node id="-331706" lat="58.2108194425" lon="7.87815833339">
		<tag k="name" v="Surtetjønn" />
		<tag k="natural" v="water" />
		<tag k="ssr:stedsnr" v="24900" />
	</node>
	<node id="-333395" lat="58.2421861126" lon="8.13581111064">
		<tag k="name" v="Skredderen" />
		<tag k="ssr:stedsnr" v="713067" />
		<tag k="waterway" v="rapids" />
	</node>
	<node id="-333389" lat="58.1600999979" lon="8.02140278303">
		<tag k="name" v="Vollebekken" />
		<tag k="ssr:stedsnr" v="712695" />
		<tag k="waterway" v="stream" />
	</node>
	<node id="-331340" lat="58.2183436621" lon="7.9602031788">
		<tag k="name" v="Sagevannet" />
		<tag k="natural" v="water" />
		<tag k="ssr:stedsnr" v="392384" />
		<tag k="water" v="lake" />
	</node>
	<node id="-331330" lat="58.2499055579" lon="8.07926666587">
		<tag k="name" v="Pinketjønn" />
		<tag k="natural" v="water" />
		<tag k="ssr:stedsnr" v="392282" />
	</node>
	<node id="-331329" lat="58.2544194453" lon="8.06736944108">
		<tag k="name" v="Midtholmen" />
		<tag k="natural" v="cape" />
		<tag k="ssr:stedsnr" v="392273" />
	</node>
	<node id="-331327" lat="58.192091668" lon="8.11890277315">
		<tag k="name" v="Isdalskilen" />
		<tag k="natural" v="bay" />
		<tag k="ssr:stedsnr" v="392268" />
	</node>
	<node id="-331325" lat="58.2417416696" lon="8.09292777388">
		<tag k="name" v="Indre Grønnevik" />
		<tag k="natural" v="bay" />
		<tag k="ssr:stedsnr" v="392259" />
	</node>
	<node id="-331319" lat="58.2237888923" lon="7.87273610271">
		<tag k="name" v="Hellertjønn" />
		<tag k="natural" v="water" />
		<tag k="ssr:stedsnr" v="392118" />
	</node>
	<node id="-331317" lat="58.2178361072" lon="7.89223611585">
		<tag k="name" v="Mestadtjønn" />
		<tag k="natural" v="water" />
		<tag k="ssr:stedsnr" v="392107" />
	</node>
	<node id="-331315" lat="58.2522500016" lon="8.03889723011">
		<tag k="name" v="Kyrkleivtjønn" />
		<tag k="natural" v="water" />
		<tag k="ssr:stedsnr" v="392073" />
	</node>
	<node id="-333362" lat="58.2550250011" lon="8.09997777297">
		<tag k="name" v="Heietjønn" />
		<tag k="natural" v="water" />
		<tag k="ssr:stedsnr" v="695269" />
	</node>
	<node id="-333355" lat="58.2552555583" lon="8.04367778132">
		<tag k="name" v="Trolltjønn" />
		<tag k="natural" v="water" />
		<tag k="ssr:stedsnr" v="695065" />
	</node>
	<node id="-331302" lat="58.2063722241" lon="7.9459805552">
		<tag k="name" v="Hengedytjønn" />
		<tag k="natural" v="water" />
		<tag k="ssr:stedsnr" v="388040" />
	</node>
	<node id="-331299" lat="58.1969527792" lon="7.90972221594">
		<tag k="name" v="Vesttjønn" />
		<tag k="natural" v="water" />
		<tag k="ssr:stedsnr" v="388031" />
	</node>
	<node id="-331296" lat="58.1850777742" lon="7.86871111456">
		<tag k="name" v="Rypevann" />
		<tag k="natural" v="water" />
		<tag k="ssr:stedsnr" v="388029" />
		<tag k="water" v="lake" />
	</node>
	<node id="-331295" lat="58.1756333305" lon="7.89535555003">
		<tag k="name" v="Øygardstjønn" />
		<tag k="natural" v="water" />
		<tag k="ssr:stedsnr" v="388024" />
	</node>
	<node id="-333335" lat="58.2110166627" lon="7.9023583347">
		<tag k="name" v="Gåsetjønn" />
		<tag k="natural" v="water" />
		<tag k="ssr:stedsnr" v="692053" />
	</node>
	<node id="-331285" lat="58.1582250001" lon="8.10965277178">
		<tag k="alt_name" v="Drangsvatna;Drangsvann" />
		<tag k="name" v="Drangsvannane" />
		<tag k="natural" v="water" />
		<tag k="ssr:stedsnr" v="364614" />
		<tag k="water" v="lake" />
	</node>
	<node id="-331284" lat="58.1629305589" lon="8.1156249932">
		<tag k="alt_name" v="Fivatnet;Fivvann" />
		<tag k="name" v="Fievann" />
		<tag k="natural" v="water" />
		<tag k="ssr:stedsnr" v="364613" />
	</node>
	<node id="-333331" lat="58.1878803008" lon="7.88506887316">
		<tag k="name" v="Undalstjønn" />
		<tag k="natural" v="water" />
		<tag k="ssr:stedsnr" v="692016" />
	</node>
	<node id="-331278" lat="58.2049123851" lon="8.18461565311">
		<tag k="alt_name" v="Aurtjønn" />
		<tag k="name" v="Auretjørna" />
		<tag k="natural" v="water" />
		<tag k="ssr:stedsnr" v="364490" />
	</node>
	<node id="-331277" lat="58.2160306497" lon="8.13767471151">
		<tag k="alt_name" v="Stemtjønn" />
		<tag k="name" v="Stemtjørnane" />
		<tag k="natural" v="water" />
		<tag k="ssr:stedsnr" v="364456" />
	</node>
	<node id="-333322" lat="58.2199638894" lon="8.13587221407">
		<tag k="alt_name" v="Steinsvatn" />
		<tag k="name" v="Steinsvann" />
		<tag k="natural" v="water" />
		<tag k="ssr:stedsnr" v="667424" />
	</node>
	<node id="-333321" lat="58.1933972209" lon="8.10998056013">
		<tag k="alt_name" v="Hamrevatnet" />
		<tag k="name" v="Hamrevannet" />
		<tag k="natural" v="water" />
		<tag k="ssr:stedsnr" v="667386" />
		<tag k="water" v="lake" />
	</node>
	<node id="-333316" lat="58.2380166673" lon="8.09915554982">
		<tag k="alt_name" v="Tveitvatn;Tveidvann" />
		<tag k="name" v="Tveitvannet" />
		<tag k="natural" v="water" />
		<tag k="ssr:stedsnr" v="667274" />
		<tag k="water" v="lake" />
	</node>
	<node id="-333315" lat="58.2338189854" lon="8.15411362819">
		<tag k="alt_name" v="Søndretjønn" />
		<tag k="name" v="Søndretjørn" />
		<tag k="natural" v="water" />
		<tag k="ssr:stedsnr" v="667266" />
	</node>
	<node id="-331264" lat="58.2279055529" lon="7.87869167283">
		<tag k="alt_name" v="Stølevatnet;Stølevann" />
		<tag k="name" v="Stølevannet" />
		<tag k="natural" v="water" />
		<tag k="ssr:stedsnr" v="364109" />
	</node>
	<node id="-333310" lat="58.2352583339" lon="8.02158888681">
		<tag k="alt_name" v="Skraptjørn" />
		<tag k="name" v="Tjønna" />
		<tag k="natural" v="water" />
		<tag k="ssr:stedsnr" v="667130" />
	</node>
	<node id="-333309" lat="58.2668916634" lon="8.03290555213">
		<tag k="alt_name" v="Ramnevatnet;Ravnevann" />
		<tag k="name" v="Ravnevannet" />
		<tag k="natural" v="water" />
		<tag k="ssr:stedsnr" v="667067" />
	</node>
	<node id="-331259" lat="58.1881249979" lon="7.97767500621">
		<tag k="alt_name" v="Salvestjørn" />
		<tag k="name" v="Salvestjønn" />
		<tag k="natural" v="water" />
		<tag k="ssr:stedsnr" v="364019" />
	</node>
	<node id="-331246" lat="58.1663777746" lon="7.99897222098">
		<tag k="name" v="Nedre Jegersbergvann" />
		<tag k="natural" v="water" />
		<tag k="ssr:stedsnr" v="349666" />
		<tag k="water" v="lake" />
	</node>
	<node id="-331245" lat="58.1592055526" lon="8.07553054947">
		<tag k="name" v="Lyngåstjønna" />
		<tag k="natural" v="water" />
		<tag k="ssr:stedsnr" v="349649" />
	</node>
	<node id="-331242" lat="58.1096449722" lon="7.90376557801">
		<tag k="name" v="Aberdalstjønn" />
		<tag k="natural" v="water" />
		<tag k="ssr:stedsnr" v="349608" />
	</node>
	<node id="-331236" lat="58.1407416676" lon="7.9448611119">
		<tag k="name" v="Fjellrotjønn" />
		<tag k="natural" v="water" />
		<tag k="ssr:stedsnr" v="349518" />
	</node>
	<node id="-333282" lat="58.1960638865" lon="8.15757222034">
		<tag k="name" v="Store Tømmerholmen" />
		<tag k="place" v="islet" />
		<tag k="ssr:stedsnr" v="652902" />
	</node>
	<node id="-331231" lat="58.1127222212" lon="7.92388056189">
		<tag k="alt_name" v="Nordre Lindalstjønn" />
		<tag k="name" v="Nordre Linddalstjønn" />
		<tag k="natural" v="water" />
		<tag k="ssr:stedsnr" v="349400" />
	</node>
	<node id="-331227" lat="58.1025666633" lon="7.90486945079">
		<tag k="name" v="Skriverholmen" />
		<tag k="place" v="islet" />
		<tag k="ssr:stedsnr" v="349369" />
	</node>
	<node id="-331223" lat="58.1003333377" lon="7.95377221838">
		<tag k="name" v="Blandtjønn" />
		<tag k="natural" v="water" />
		<tag k="ssr:stedsnr" v="349319" />
	</node>
	<node id="-331222" lat="58.2065416704" lon="7.94591110814">
		<tag k="name" v="Hengdytjønn" />
		<tag k="natural" v="water" />
		<tag k="ssr:stedsnr" v="349295" />
	</node>
	<node id="-331221" lat="58.1744055546" lon="7.88596666619">
		<tag k="name" v="Tigetjønn" />
		<tag k="natural" v="water" />
		<tag k="ssr:stedsnr" v="349285" />
	</node>
	<node id="-333265" lat="58.200872223" lon="8.0216499954">
		<tag k="name" v="Urdalstjønn" />
		<tag k="natural" v="water" />
		<tag k="ssr:stedsnr" v="652596" />
	</node>
	<node id="-333264" lat="58.1323805593" lon="8.13851943658">
		<tag k="name" v="Dolsvågkilen" />
		<tag k="natural" v="bay" />
		<tag k="ssr:stedsnr" v="652574" />
	</node>
	<node id="-331202" lat="58.1958138846" lon="8.03300555177">
		<tag k="name" v="Rona" />
		<tag k="natural" v="bay" />
		<tag k="ssr:stedsnr" v="348701" />
	</node>
	<node id="-331195" lat="58.156872223" lon="8.1083722254">
		<tag k="name" v="Skauholmen" />
		<tag k="place" v="islet" />
		<tag k="ssr:stedsnr" v="348586" />
	</node>
	<node id="-333242" lat="58.1274805527" lon="7.94033888609">
		<tag k="name" v="Blåbærtjønn" />
		<tag k="natural" v="water" />
		<tag k="ssr:stedsnr" v="652346" />
	</node>
	<node id="-333240" lat="58.2096472192" lon="8.03891666469">
		<tag k="name" v="Bevertjønn(Føreidtjønn)" />
		<tag k="natural" v="water" />
		<tag k="ssr:stedsnr" v="652340" />
	</node>
	<node id="-333238" lat="58.2438583352" lon="8.13766111184">
		<tag k="alt_name" v="Sandvika" />
		<tag k="name" v="Sandviga" />
		<tag k="natural" v="bay" />
		<tag k="ssr:stedsnr" v="652285" />
	</node>
	<node id="-333237" lat="58.2625944435" lon="8.15942777207">
		<tag k="name" v="Fiebekken" />
		<tag k="ssr:stedsnr" v="652283" />
		<tag k="waterway" v="stream" />
	</node>
	<node id="-331185" lat="58.2403000021" lon="8.13415278498">
		<tag k="name" v="Sveftet" />
		<tag k="ssr:stedsnr" v="348075" />
		<tag k="waterway" v="rapids" />
	</node>
	<node id="-333232" lat="58.1303638932" lon="7.90548055635">
		<tag k="alt_name" v="Heststjønn" />
		<tag k="name" v="Hestetjønn" />
		<tag k="natural" v="water" />
		<tag k="ssr:stedsnr" v="652231" />
	</node>
	<node id="-331172" lat="58.2301444458" lon="8.17036666882">
		<tag k="alt_name" v="Hegermannsskjerbunes" />
		<tag k="name" v="Hegermanns Skjerbunes" />
		<tag k="natural" v="cape" />
		<tag k="ssr:stedsnr" v="331379" />
	</node>
	<node id="-331171" lat="58.2415888865" lon="8.19743334047">
		<tag k="name" v="Svartetjønn" />
		<tag k="natural" v="water" />
		<tag k="ssr:stedsnr" v="331363" />
	</node>
	<node id="-333218" lat="58.2174999986" lon="8.11178333428">
		<tag k="name" v="Sultemannshåla" />
		<tag k="place" v="locality" />
		<tag k="ssr:stedsnr" v="652022" />
	</node>
	<node id="-331166" lat="58.2327722225" lon="8.16355000388">
		<tag k="name" v="Bukilen" />
		<tag k="natural" v="bay" />
		<tag k="ssr:stedsnr" v="331311" />
	</node>
	<node id="-333213" lat="58.1860611087" lon="7.95441943966">
		<tag k="name" v="Torridalselva" />
		<tag k="ssr:stedsnr" v="648125" />
		<tag k="waterway" v="river" />
	</node>
	<node id="-331162" lat="58.2174305534" lon="8.13558333685">
		<tag k="name" v="Lintjønn" />
		<tag k="natural" v="water" />
		<tag k="ssr:stedsnr" v="331301" />
	</node>
	<node id="-331161" lat="58.2814916656" lon="8.06001388543">
		<tag k="name" v="Fosstjønn" />
		<tag k="natural" v="water" />
		<tag k="ssr:stedsnr" v="331300" />
	</node>
	<node id="-331154" lat="58.2430388895" lon="8.06202221429">
		<tag k="name" v="Mellomtjønn" />
		<tag k="natural" v="water" />
		<tag k="ssr:stedsnr" v="331241" />
	</node>
	<node id="-331153" lat="58.2457256003" lon="8.0591113042">
		<tag k="name" v="Lilletjønn" />
		<tag k="natural" v="water" />
		<tag k="ssr:stedsnr" v="331239" />
	</node>
	<node id="-331149" lat="58.2532055529" lon="8.13506388129">
		<tag k="name" v="Einermobekken" />
		<tag k="ssr:stedsnr" v="331218" />
		<tag k="waterway" v="stream" />
	</node>
	<node id="-333196" lat="58.2392083317" lon="8.19767500774">
		<tag k="name" v="Småtjønnene" />
		<tag k="natural" v="water" />
		<tag k="ssr:stedsnr" v="634387" />
	</node>
	<node id="-331144" lat="58.2795829261" lon="8.05457367164">
		<tag k="name" v="Lilletjønn" />
		<tag k="natural" v="water" />
		<tag k="ssr:stedsnr" v="331172" />
	</node>
	<node id="-331143" lat="58.1581888915" lon="8.10564443899">
		<tag k="name" v="Lyngholmen" />
		<tag k="place" v="islet" />
		<tag k="ssr:stedsnr" v="331168" />
	</node>
	<node id="-333189" lat="58.2265805525" lon="8.16179443917">
		<tag k="name" v="Løebukta" />
		<tag k="natural" v="bay" />
		<tag k="ssr:stedsnr" v="634331" />
	</node>
	<node id="-333179" lat="58.2397472213" lon="8.00871667099">
		<tag k="name" v="Søråsbekken" />
		<tag k="ssr:stedsnr" v="634173" />
		<tag k="waterway" v="stream" />
	</node>
	<node id="-333176" lat="58.2161555573" lon="8.01495832769">
		<tag k="name" v="Surtetjønn" />
		<tag k="natural" v="water" />
		<tag k="ssr:stedsnr" v="634157" />
	</node>
	<node id="-331127" lat="58.1787749982" lon="7.92107778206">
		<tag k="name" v="Slogdalstjønna" />
		<tag k="natural" v="water" />
		<tag k="ssr:stedsnr" v="331008" />
	</node>
	<node id="-331126" lat="58.1758821625" lon="7.92355202811">
		<tag k="name" v="Øvre Tvitjønnane" />
		<tag k="natural" v="water" />
		<tag k="ssr:stedsnr" v="331006" />
	</node>
	<node id="-333171" lat="58.2068141055" lon="8.15075894867">
		<tag k="name" v="Heljestjønn" />
		<tag k="natural" v="water" />
		<tag k="ssr:stedsnr" v="634113" />
	</node>
	<node id="-333164" lat="58.2373672226" lon="7.89217486814">
		<tag k="name" v="Bjortjønn" />
		<tag k="natural" v="water" />
		<tag k="ssr:stedsnr" v="634008" />
	</node>
	<node id="-331115" lat="58.1699694431" lon="7.91323611734">
		<tag k="name" v="Kolåstjønn" />
		<tag k="natural" v="water" />
		<tag k="ssr:stedsnr" v="327817" />
	</node>
	<node id="-333160" lat="58.1994611088" lon="7.89289166709">
		<tag k="name" v="Bjones" />
		<tag k="natural" v="cape" />
		<tag k="ssr:stedsnr" v="630915" />
	</node>
	<node id="-333155" lat="58.1356249957" lon="7.90159999694">
		<tag k="name" v="Lone" />
		<tag k="natural" v="water" />
		<tag k="ssr:stedsnr" v="630862" />
		<tag k="water" v="lake" />
	</node>
	<node id="-333154" lat="58.1373888861" lon="7.92108056006">
		<tag k="name" v="Indre Fiskåvannet" />
		<tag k="natural" v="water" />
		<tag k="ssr:stedsnr" v="630854" />
		<tag k="water" v="lake" />
	</node>
	<node id="-331096" lat="58.1273388914" lon="8.13848888502">
		<tag k="alt_name" v="Kvarenesvatnet" />
		<tag k="name" v="Kvarenesvann" />
		<tag k="natural" v="water" />
		<tag k="ssr:stedsnr" v="303552" />
	</node>
	<node id="-331095" lat="58.1378666658" lon="8.14553889277">
		<tag k="alt_name" v="Eidsvatnet" />
		<tag k="name" v="Eidsvann" />
		<tag k="natural" v="water" />
		<tag k="ssr:stedsnr" v="303551" />
	</node>
	<node id="-331091" lat="58.2094067225" lon="8.14111756707">
		<tag k="alt_name" v="Tvitjønnane" />
		<tag k="name" v="Tvitjørn" />
		<tag k="natural" v="water" />
		<tag k="ssr:stedsnr" v="303450" />
	</node>
	<node id="-333134" lat="58.1846777791" lon="8.10645833615">
		<tag k="alt_name" v="Lauvåstjønna" />
		<tag k="name" v="Lauvåstjørna" />
		<tag k="natural" v="water" />
		<tag k="ssr:stedsnr" v="606403" />
	</node>
	<node id="-331084" lat="58.1494773363" lon="7.93420092151">
		<tag k="alt_name" v="Revetjørn" />
		<tag k="name" v="Revetjønn" />
		<tag k="natural" v="water" />
		<tag k="ssr:stedsnr" v="303208" />
	</node>
	<node id="-331082" lat="58.2165138915" lon="7.99177222682">
		<tag k="name" v="Murtetjørnane" />
		<tag k="natural" v="water" />
		<tag k="ssr:stedsnr" v="303112" />
	</node>
	<node id="-331081" lat="58.2303115108" lon="7.8619375343">
		<tag k="alt_name" v="Bjorvatnet;Bjorvann" />
		<tag k="name" v="Bjorvannet" />
		<tag k="natural" v="water" />
		<tag k="ssr:stedsnr" v="303107" />
	</node>
	<node id="-333126" lat="58.1157083341" lon="7.90389444052">
		<tag k="alt_name" v="Svingelivatnet;Svingervann" />
		<tag k="name" v="Svingervannet" />
		<tag k="natural" v="water" />
		<tag k="ssr:stedsnr" v="606232" />
	</node>
	<node id="-331074" lat="58.2356638857" lon="8.06380277085">
		<tag k="name" v="Langetangen" />
		<tag k="natural" v="cape" />
		<tag k="ssr:stedsnr" v="46710" />
	</node>
	<node id="-331067" lat="58.2335722179" lon="8.06857500652">
		<tag k="name" v="Langholmen" />
		<tag k="place" v="islet" />
		<tag k="ssr:stedsnr" v="289713" />
	</node>
	<node id="-333112" lat="58.1829833942" lon="7.9139604164">
		<tag k="alt_name" v="Aktjørn" />
		<tag k="name" v="Aktjønn" />
		<tag k="natural" v="water" />
		<tag k="ssr:stedsnr" v="606039" />
	</node>
	<node id="-333111" lat="58.1753948105" lon="7.94709120721">
		<tag k="alt_name" v="Bjortjørn" />
		<tag k="name" v="Bjortjønn" />
		<tag k="natural" v="water" />
		<tag k="ssr:stedsnr" v="606034" />
	</node>
	<node id="-331058" lat="58.1991972188" lon="8.15591667419">
		<tag k="name" v="Grisetjønnkilen" />
		<tag k="natural" v="bay" />
		<tag k="ssr:stedsnr" v="289537" />
	</node>
	<node id="-333105" lat="58.1943027736" lon="8.13860554846">
		<tag k="name" v="Urdalstjønn" />
		<tag k="natural" v="water" />
		<tag k="ssr:stedsnr" v="592892" />
	</node>
	<node id="-333103" lat="58.2368416671" lon="8.05862221601">
		<tag k="name" v="Smieodden" />
		<tag k="natural" v="cape" />
		<tag k="ssr:stedsnr" v="592695" />
	</node>
	<node id="-331054" lat="58.1681972248" lon="8.13140832596">
		<tag k="name" v="Bordalstjønn" />
		<tag k="natural" v="water" />
		<tag k="ssr:stedsnr" v="289449" />
	</node>
	<node id="-333100" lat="58.1762722238" lon="8.02540277913">
		<tag k="name" v="Svarttjønn" />
		<tag k="natural" v="water" />
		<tag k="ssr:stedsnr" v="592645" />
	</node>
	<node id="-331051" lat="58.1513638869" lon="7.91794722955">
		<tag k="name" v="Hestetjønn" />
		<tag k="natural" v="water" />
		<tag k="ssr:stedsnr" v="289415" />
	</node>
	<node id="-331046" lat="58.2333194459" lon="8.02521110499">
		<tag k="name" v="Gudmundsbekk" />
		<tag k="ssr:stedsnr" v="289358" />
		<tag k="waterway" v="stream" />
	</node>
	<node id="-333093" lat="58.2378555522" lon="8.06096388681">
		<tag k="name" v="Kilen" />
		<tag k="natural" v="bay" />
		<tag k="ssr:stedsnr" v="592523" />
	</node>
	<node id="-331044" lat="58.2744416657" lon="8.10930833087">
		<tag k="name" v="Langtjønn" />
		<tag k="natural" v="water" />
		<tag k="ssr:stedsnr" v="289319" />
	</node>
	<node id="-333087" lat="58.1992777766" lon="8.0137472165">
		<tag k="name" v="Ufredstjønn" />
		<tag k="natural" v="water" />
		<tag k="ssr:stedsnr" v="592408" />
	</node>
	<node id="-333086" lat="58.2113000006" lon="8.03003333801">
		<tag k="name" v="Sauvika" />
		<tag k="natural" v="bay" />
		<tag k="ssr:stedsnr" v="592406" />
	</node>
	<node id="-333081" lat="58.0990048938" lon="7.95007209811">
		<tag k="name" v="Torkeldalstjønn" />
		<tag k="natural" v="water" />
		<tag k="ssr:stedsnr" v="592358" />
	</node>
	<node id="-334041" lat="58.2523027782" lon="8.05679166706">
		<tag k="name" v="Tvibekkene" />
		<tag k="ssr:stedsnr" v="938075" />
		<tag k="waterway" v="stream" />
	</node>
	<node id="-331747" lat="58.1970916655" lon="8.00271667191">
		<tag k="name" v="Groholmen" />
		<tag k="place" v="islet" />
		<tag k="ssr:stedsnr" v="28416" />
	</node>
	<node id="-333074" lat="58.2126472206" lon="8.14226389222">
		<tag k="name" v="Trolletjønn" />
		<tag k="natural" v="water" />
		<tag k="ssr:stedsnr" v="592312" />
	</node>
	<node id="-331025" lat="58.1957305514" lon="7.94063889323">
		<tag k="name" v="Leirbekk" />
		<tag k="ssr:stedsnr" v="288961" />
		<tag k="waterway" v="stream" />
	</node>
	<node id="-333071" lat="58.2523527803" lon="8.05707500799">
		<tag k="name" v="Tyibekkene" />
		<tag k="ssr:stedsnr" v="592301" />
		<tag k="waterway" v="stream" />
	</node>
	<node id="-331019" lat="58.2070333311" lon="8.02156666939">
		<tag k="name" v="Heltenes" />
		<tag k="natural" v="cape" />
		<tag k="ssr:stedsnr" v="288684" />
	</node>
	<node id="-333052" lat="58.2475166699" lon="8.16049999369">
		<tag k="name" v="Kiløyna" />
		<tag k="place" v="island" />
		<tag k="ssr:stedsnr" v="591880" />
	</node>
	<node id="-333051" lat="58.1906583368" lon="8.02674166387">
		<tag k="name" v="Lauvstuholmen" />
		<tag k="place" v="islet" />
		<tag k="ssr:stedsnr" v="591700" />
	</node>
	<node id="-331064" lat="58.1411194443" lon="8.16531388127">
		<tag k="name" v="Bestatjønn" />
		<tag k="natural" v="water" />
		<tag k="ssr:stedsnr" v="289625" />
	</node>
	<node id="-330995" lat="58.2469111143" lon="8.14195833709">
		<tag k="name" v="Lundsholmen" />
		<tag k="place" v="islet" />
		<tag k="ssr:stedsnr" v="288093" />
	</node>
	<node id="-330980" lat="58.2397750024" lon="8.01721389718">
		<tag k="name" v="Holmeheia" />
		<tag k="natural" v="cape" />
		<tag k="ssr:stedsnr" v="28203" />
	</node>
	<node id="-330979" lat="58.242088888" lon="8.01385277895">
		<tag k="name" v="Brånen" />
		<tag k="natural" v="cape" />
		<tag k="ssr:stedsnr" v="28201" />
	</node>
	<node id="-330963" lat="58.2139083291" lon="7.95186945062">
		<tag k="name" v="Byttingstjønn" />
		<tag k="natural" v="water" />
		<tag k="ssr:stedsnr" v="271436" />
	</node>
	<node id="-333005" lat="58.2151305564" lon="7.9998861107">
		<tag k="name" v="Murtetjønn" />
		<tag k="natural" v="water" />
		<tag k="ssr:stedsnr" v="574426" />
	</node>
	<node id="-333004" lat="58.2137111083" lon="7.97839445041">
		<tag k="name" v="Krogvannsbekken" />
		<tag k="ssr:stedsnr" v="574422" />
		<tag k="waterway" v="stream" />
	</node>
	<node id="-333003" lat="58.2047027788" lon="8.178747225">
		<tag k="name" v="Karlsvannsbekken" />
		<tag k="ssr:stedsnr" v="574414" />
		<tag k="waterway" v="stream" />
	</node>
	<node id="-333001" lat="58.2212416667" lon="7.9829472157">
		<tag k="name" v="Takstetjønn" />
		<tag k="natural" v="water" />
		<tag k="ssr:stedsnr" v="574391" />
	</node>
	<node id="-333000" lat="58.2294055592" lon="8.00338055913">
		<tag k="name" v="Igletjønn" />
		<tag k="natural" v="water" />
		<tag k="ssr:stedsnr" v="574386" />
	</node>
	<node id="-330956" lat="58.2772666671" lon="8.1585555596">
		<tag k="name" v="Kverndalsbekken" />
		<tag k="ssr:stedsnr" v="271303" />
		<tag k="waterway" v="stream" />
	</node>
	<node id="-330950" lat="58.2686999978" lon="8.04593054929">
		<tag k="name" v="Granetjønn" />
		<tag k="natural" v="water" />
		<tag k="ssr:stedsnr" v="271206" />
	</node>
	<node id="-330946" lat="58.16039167" lon="8.13346665979">
		<tag k="name" v="Hellingstjønn" />
		<tag k="natural" v="water" />
		<tag k="ssr:stedsnr" v="271187" />
	</node>
	<node id="-330939" lat="58.2499981851" lon="8.00688249645">
		<tag k="name" v="Nokkedalstjønn" />
		<tag k="natural" v="water" />
		<tag k="ssr:stedsnr" v="271077" />
	</node>
	<node id="-330938" lat="58.1734472203" lon="7.93389443907">
		<tag k="name" v="Langetjønn" />
		<tag k="natural" v="water" />
		<tag k="ssr:stedsnr" v="271009" />
	</node>
	<node id="-330937" lat="58.1770444436" lon="7.8982944439">
		<tag k="name" v="Øygardsbekken" />
		<tag k="ssr:stedsnr" v="271004" />
		<tag k="waterway" v="stream" />
	</node>
	<node id="-332980" lat="58.229394442" lon="8.05266667038">
		<tag k="name" v="Svartetjønn" />
		<tag k="natural" v="water" />
		<tag k="ssr:stedsnr" v="574210" />
	</node>
	<node id="-330951" lat="58.2769944408" lon="8.05404999557">
		<tag k="name" v="Svartetjønn" />
		<tag k="natural" v="water" />
		<tag k="ssr:stedsnr" v="271204" />
	</node>
	<node id="-332953" lat="58.1400777762" lon="7.8980388944">
		<tag k="name" v="Bukksteinsvannet" />
		<tag k="natural" v="water" />
		<tag k="ssr:stedsnr" v="570872" />
		<tag k="water" v="lake" />
	</node>
	<node id="-332938" lat="58.1360222182" lon="8.11693332913">
		<tag k="alt_name" v="Frikstadtjørna;Frikstadtjønn" />
		<tag k="name" v="Frikstadtjønna" />
		<tag k="natural" v="water" />
		<tag k="ssr:stedsnr" v="546502" />
	</node>
	<node id="-332931" lat="58.1899527814" lon="8.12522499534">
		<tag k="alt_name" v="Eiesdalstjønn" />
		<tag k="name" v="Eiesdalstjørna" />
		<tag k="natural" v="water" />
		<tag k="ssr:stedsnr" v="546365" />
	</node>
	<node id="-332927" lat="58.2363928441" lon="8.18459922726">
		<tag k="alt_name" v="Øygardstjønn" />
		<tag k="name" v="Øygardstjørna" />
		<tag k="natural" v="water" />
		<tag k="ssr:stedsnr" v="546258" />
	</node>
	<node id="-332926" lat="58.1218527811" lon="7.91852777328">
		<tag k="alt_name" v="Storvatnet;Storevann" />
		<tag k="name" v="Storvannet" />
		<tag k="natural" v="water" />
		<tag k="ssr:stedsnr" v="546236" />
	</node>
	<node id="-332919" lat="58.1752361113" lon="7.95220277574">
		<tag k="alt_name" v="Stormyrvatnet" />
		<tag k="name" v="Storemyrvannet" />
		<tag k="natural" v="water" />
		<tag k="ssr:stedsnr" v="546065" />
	</node>
	<node id="-332918" lat="58.1773250021" lon="7.89111666796">
		<tag k="alt_name" v="Stokkebuvatnet;Stokkebøtjønn" />
		<tag k="name" v="Stokkebutjønna" />
		<tag k="natural" v="water" />
		<tag k="ssr:stedsnr" v="546049" />
	</node>
	<node id="-332917" lat="58.1912027776" lon="7.90672499482">
		<tag k="alt_name" v="Fiskevatnet" />
		<tag k="name" v="Fiskevann" />
		<tag k="natural" v="water" />
		<tag k="ssr:stedsnr" v="546037" />
	</node>
	<node id="-332915" lat="58.2006833352" lon="8.01789444731">
		<tag k="alt_name" v="Langtjørn" />
		<tag k="name" v="Langetjønn" />
		<tag k="natural" v="water" />
		<tag k="ssr:stedsnr" v="546006" />
	</node>
	<node id="-331283" lat="58.1421638905" lon="8.16884167229">
		<tag k="alt_name" v="Ånevikvatnet" />
		<tag k="name" v="Ådnevikvann" />
		<tag k="natural" v="water" />
		<tag k="ssr:stedsnr" v="364607" />
	</node>
	<node id="-332899" lat="58.234844447" lon="8.0682277755">
		<tag k="name" v="Røyegrunnen" />
		<tag k="natural" v="shoal" />
		<tag k="place" v="locality" />
		<tag k="ssr:stedsnr" v="531701" />
	</node>
	<node id="-332892" lat="58.1769805563" lon="8.02903611283">
		<tag k="name" v="Lindtjønn" />
		<tag k="natural" v="water" />
		<tag k="ssr:stedsnr" v="531644" />
	</node>
	<node id="-332887" lat="58.1595500013" lon="7.99299721712">
		<tag k="name" v="Notøen" />
		<tag k="place" v="islet" />
		<tag k="ssr:stedsnr" v="531570" />
	</node>
	<node id="-332882" lat="58.2220694464" lon="8.01932777667">
		<tag k="name" v="Jordetjønn" />
		<tag k="natural" v="water" />
		<tag k="ssr:stedsnr" v="531538" />
	</node>
	<node id="-332877" lat="58.1407416639" lon="7.95112499843">
		<tag k="name" v="Ytre Eigevann" />
		<tag k="natural" v="water" />
		<tag k="ssr:stedsnr" v="531481" />
		<tag k="water" v="lake" />
	</node>
	<node id="-332865" lat="58.2063194466" lon="8.10823055093">
		<tag k="name" v="Garverifossen" />
		<tag k="natural" v="waterfall" />
		<tag k="ssr:stedsnr" v="531348" />
	</node>
	<node id="-332863" lat="58.2251416674" lon="8.12115554798">
		<tag k="name" v="Kålebekk" />
		<tag k="ssr:stedsnr" v="531330" />
		<tag k="waterway" v="stream" />
	</node>
	<node id="-332859" lat="58.1054527734" lon="7.95068610852">
		<tag k="name" v="Stemtjønn" />
		<tag k="natural" v="water" />
		<tag k="ssr:stedsnr" v="531289" />
	</node>
	<node id="-332855" lat="58.2107972205" lon="7.87781388051">
		<tag k="name" v="Svartetjønn" />
		<tag k="natural" v="water" />
		<tag k="ssr:stedsnr" v="531256" />
	</node>
	<node id="-332853" lat="58.1549777782" lon="7.94354166979">
		<tag k="name" v="Grotjønnstemmen" />
		<tag k="ssr:stedsnr" v="531110" />
		<tag k="waterway" v="dam" />
	</node>
	<node id="-332800" lat="58.2122722243" lon="7.95772777095">
		<tag k="name" v="Holetjønn" />
		<tag k="natural" v="water" />
		<tag k="ssr:stedsnr" v="513415" />
	</node>
	<node id="-332799" lat="58.2102805586" lon="7.95821388095">
		<tag k="name" v="Stolen" />
		<tag k="natural" v="cape" />
		<tag k="ssr:stedsnr" v="513413" />
	</node>
	<node id="-332790" lat="58.2061722211" lon="7.95671388912">
		<tag k="name" v="Fossbekk" />
		<tag k="ssr:stedsnr" v="513371" />
		<tag k="waterway" v="stream" />
	</node>
	<node id="-332783" lat="58.2237666688" lon="8.16324444686">
		<tag k="name" v="Drangsholtvannsbekken" />
		<tag k="ssr:stedsnr" v="513328" />
		<tag k="waterway" v="stream" />
	</node>
	<node id="-332782" lat="58.269797223" lon="8.15838332495">
		<tag k="name" v="Jordfallbekken" />
		<tag k="ssr:stedsnr" v="513320" />
		<tag k="waterway" v="stream" />
	</node>
	<node id="-332773" lat="58.2695750025" lon="8.0219222244">
		<tag k="name" v="Slåttemyrtjønn" />
		<tag k="natural" v="water" />
		<tag k="ssr:stedsnr" v="513177" />
	</node>
	<node id="-332772" lat="58.2766750007" lon="8.03026667082">
		<tag k="name" v="Fiskelausvannet" />
		<tag k="natural" v="water" />
		<tag k="ssr:stedsnr" v="513169" />
		<tag k="water" v="lake" />
	</node>
	<node id="-332769" lat="58.2291444421" lon="7.8867027695">
		<tag k="name" v="Svartetjønn" />
		<tag k="natural" v="water" />
		<tag k="ssr:stedsnr" v="513114" />
	</node>
	<node id="-332759" lat="58.1822027801" lon="7.87521945201">
		<tag k="name" v="Kuliabekken" />
		<tag k="ssr:stedsnr" v="510014" />
		<tag k="waterway" v="stream" />
	</node>
	<node id="-332741" lat="58.2430472248" lon="7.87901943829">
		<tag k="name" v="Storebekk" />
		<tag k="ssr:stedsnr" v="513005" />
		<tag k="waterway" v="stream" />
	</node>
	<node id="-332732" lat="58.1998027801" lon="8.1566777713">
		<tag k="alt_name" v="Gristjønn" />
		<tag k="name" v="Gristjørna" />
		<tag k="natural" v="water" />
		<tag k="ssr:stedsnr" v="485420" />
	</node>
	<node id="-332731" lat="58.2217027763" lon="8.15009721663">
		<tag k="alt_name" v="Rokketjønn" />
		<tag k="name" v="Rokketjørn" />
		<tag k="natural" v="water" />
		<tag k="ssr:stedsnr" v="485397" />
	</node>
	<node id="-332720" lat="58.1682861141" lon="8.03197778195">
		<tag k="alt_name" v="Vollevatnet;Vollevann" />
		<tag k="name" v="Vollevannet" />
		<tag k="natural" v="water" />
		<tag k="ssr:stedsnr" v="485053" />
	</node>
	<node id="-332717" lat="58.1929527785" lon="8.08315833874">
		<tag k="alt_name" v="Hamresand" />
		<tag k="name" v="Hamresanden" />
		<tag k="natural" v="beach" />
		<tag k="ssr:stedsnr" v="485022" />
	</node>
	<node id="-332714" lat="58.2107555581" lon="8.02137778388">
		<tag k="alt_name" v="Hemmingsvatnet" />
		<tag k="loc_name" v="Hemingsvannet" />
		<tag k="name" v="Hemningsvannet" />
		<tag k="natural" v="water" />
		<tag k="ssr:stedsnr" v="485009" />
		<tag k="water" v="lake" />
	</node>
	<node id="-332708" lat="58.2324111152" lon="8.06952499966">
		<tag k="name" v="Spelholmen" />
		<tag k="place" v="islet" />
		<tag k="ssr:stedsnr" v="471658" />
	</node>
	<node id="-332707" lat="58.23191667" lon="8.06774721702">
		<tag k="name" v="Midtholmen" />
		<tag k="place" v="islet" />
		<tag k="ssr:stedsnr" v="471657" />
	</node>
	<node id="-332702" lat="58.1283027814" lon="7.9495555524">
		<tag k="name" v="Karusstjønn" />
		<tag k="natural" v="water" />
		<tag k="ssr:stedsnr" v="471599" />
	</node>
	<node id="-333978" lat="58.1456722215" lon="8.09232223055">
		<tag k="alt_name" v="Sukkevatnet;Sokkevatnet" />
		<tag k="name" v="Sukkevannet" />
		<tag k="natural" v="water" />
		<tag k="ssr:stedsnr" v="910212" />
		<tag k="water" v="lake" />
	</node>
	<node id="-332682" lat="58.0910611098" lon="7.95999721493">
		<tag k="name" v="Stemtjønn" />
		<tag k="natural" v="water" />
		<tag k="ssr:stedsnr" v="471268" />
	</node>
	<node id="-332676" lat="58.2036750029" lon="8.09369721366">
		<tag k="name" v="Neset" />
		<tag k="natural" v="cape" />
		<tag k="ssr:stedsnr" v="470984" />
	</node>
	<node id="-332662" lat="58.1860222244" lon="8.02058889633">
		<tag k="name" v="Greppestølholmen" />
		<tag k="place" v="islet" />
		<tag k="ssr:stedsnr" v="470628" />
	</node>
	<node id="-332649" lat="58.23644722" lon="8.13784999524">
		<tag k="name" v="Knarrestadbekken" />
		<tag k="ssr:stedsnr" v="470295" />
		<tag k="waterway" v="stream" />
	</node>
	<node id="-332648" lat="58.2444805532" lon="8.12179721844">
		<tag k="name" v="Kløftebekk" />
		<tag k="ssr:stedsnr" v="470292" />
		<tag k="waterway" v="stream" />
	</node>
	<node id="-332647" lat="58.1618861087" lon="7.9220861129">
		<tag k="name" v="Tjuvtjønn" />
		<tag k="natural" v="water" />
		<tag k="ssr:stedsnr" v="470245" />
	</node>
	<node id="-332643" lat="58.2542027788" lon="8.15571945076">
		<tag k="name" v="Sannesholmen" />
		<tag k="place" v="islet" />
		<tag k="ssr:stedsnr" v="470081" />
	</node>
	<node id="-332641" lat="58.2580999979" lon="8.15495833696">
		<tag k="name" v="Rosshaven" />
		<tag k="natural" v="strait" />
		<tag k="ssr:stedsnr" v="470074" />
	</node>
	<node id="-332603" lat="58.2450944455" lon="8.0940083407">
		<tag k="name" v="Støa" />
		<tag k="natural" v="bay" />
		<tag k="ssr:stedsnr" v="453262" />
	</node>
	<node id="-332600" lat="58.243258335" lon="8.04262499188">
		<tag k="name" v="Tellenes" />
		<tag k="natural" v="cape" />
		<tag k="ssr:stedsnr" v="453208" />
	</node>
	<node id="-332595" lat="58.2608305585" lon="8.02022222224">
		<tag k="name" v="Kvernhusfossen" />
		<tag k="natural" v="waterfall" />
		<tag k="ssr:stedsnr" v="453165" />
	</node>
	<node id="-332594" lat="58.2060499968" lon="8.13673333658">
		<tag k="name" v="Grunnetjønn" />
		<tag k="natural" v="water" />
		<tag k="ssr:stedsnr" v="453162" />
	</node>
	<node id="-332586" lat="58.1824805539" lon="7.99538610739">
		<tag k="name" v="Lomtjønn" />
		<tag k="natural" v="water" />
		<tag k="ssr:stedsnr" v="453098" />
	</node>
	<node id="-332584" lat="58.2403277757" lon="7.98769444134">
		<tag k="alt_name" v="Bytingstjønn" />
		<tag k="name" v="Byttingstjønn" />
		<tag k="natural" v="water" />
		<tag k="ssr:stedsnr" v="453083" />
	</node>
	<node id="-332563" lat="58.282411114" lon="8.09909166541">
		<tag k="name" v="Fiskelausvatn" />
		<tag k="natural" v="water" />
		<tag k="old_name" v="Fiskelaus;Fiskelausvannet" />
		<tag k="ssr:stedsnr" v="425750" />
	</node>
	<node id="-332558" lat="58.1501750026" lon="8.15066388913">
		<tag k="alt_name" v="Sandvatnet" />
		<tag k="name" v="Sandvann" />
		<tag k="natural" v="water" />
		<tag k="ssr:stedsnr" v="425556" />
	</node>
	<node id="-332551" lat="58.1690936569" lon="8.12031597876">
		<tag k="alt_name" v="Bautjønn" />
		<tag k="name" v="Bauetjørn" />
		<tag k="natural" v="water" />
		<tag k="ssr:stedsnr" v="425413" />
	</node>
	<node id="-332550" lat="58.1872055525" lon="8.14844999521">
		<tag k="alt_name" v="Grasvatnet;Grasvann" />
		<tag k="name" v="Grasvannet" />
		<tag k="natural" v="water" />
		<tag k="ssr:stedsnr" v="425398" />
		<tag k="water" v="lake" />
	</node>
	<node id="-332549" lat="58.2451888852" lon="8.18265277388">
		<tag k="alt_name" v="Stemtjønn" />
		<tag k="name" v="Stemtjørn" />
		<tag k="natural" v="water" />
		<tag k="ssr:stedsnr" v="425356" />
	</node>
	<node id="-332543" lat="58.2403393377" lon="8.16601639286">
		<tag k="alt_name" v="Kiletjønn" />
		<tag k="name" v="Kiletjørn" />
		<tag k="natural" v="water" />
		<tag k="ssr:stedsnr" v="425267" />
	</node>
	<node id="-332540" lat="58.1271249979" lon="7.93520833666">
		<tag k="alt_name" v="Auglandstjerna" />
		<tag k="name" v="Auglandstjønn" />
		<tag k="natural" v="water" />
		<tag k="ssr:stedsnr" v="425227" />
	</node>
	<node id="-332535" lat="58.2117000004" lon="7.86456666728">
		<tag k="alt_name" v="Homevatnet" />
		<tag k="name" v="Homevann" />
		<tag k="natural" v="water" />
		<tag k="ssr:stedsnr" v="425112" />
		<tag k="water" v="lake" />
	</node>
	<node id="-332534" lat="58.2201444453" lon="7.90343333851">
		<tag k="alt_name" v="Hestevatnet;Hestevann;Hestevannet" />
		<tag k="name" v="Hestvannet" />
		<tag k="natural" v="water" />
		<tag k="ssr:stedsnr" v="425111" />
	</node>
	<node id="-332530" lat="58.2419416691" lon="8.04170834171">
		<tag k="alt_name" v="Bjåvatnet" />
		<tag k="name" v="Bjåvannet" />
		<tag k="natural" v="water" />
		<tag k="ssr:stedsnr" v="425070" />
		<tag k="water" v="lake" />
	</node>
	<node id="-332526" lat="58.1792555531" lon="7.88473054951">
		<tag k="alt_name" v="Bergsvann;Bergsvatnet" />
		<tag k="name" v="Øvre Bergsvann" />
		<tag k="natural" v="water" />
		<tag k="ssr:stedsnr" v="425037" />
		<tag k="water" v="lake" />
	</node>
	<node id="-332524" lat="58.2079805572" lon="8.00787500392">
		<tag k="alt_name" v="Grostøltjørn" />
		<tag k="name" v="Grostøltjønn" />
		<tag k="natural" v="water" />
		<tag k="ssr:stedsnr" v="425007" />
	</node>
	<node id="-332523" lat="58.2021944478" lon="7.84904443936">
		<tag k="alt_name" v="Hågenvatnet" />
		<tag k="name" v="Hågenvann" />
		<tag k="natural" v="water" />
		<tag k="ssr:stedsnr" v="425003" />
	</node>
	<node id="-332517" lat="58.2033166664" lon="7.85498888932">
		<tag k="name" v="Knutstangen" />
		<tag k="natural" v="cape" />
		<tag k="ssr:stedsnr" v="267917" />
	</node>
	<node id="-332494" lat="58.2597166691" lon="8.11653888506">
		<tag k="alt_name" v="Sandnesvatnet" />
		<tag k="name" v="Sannesvannet" />
		<tag k="natural" v="water" />
		<tag k="ssr:stedsnr" v="243730" />
		<tag k="water" v="lake" />
	</node>
	<node id="-332493" lat="58.1519916703" lon="8.10403334051">
		<tag k="alt_name" v="Langetjørna;Sommerrotjønnane;Langetjønna" />
		<tag k="name" v="Langetjønn" />
		<tag k="natural" v="water" />
		<tag k="ssr:stedsnr" v="243609" />
	</node>
	<node id="-332489" lat="58.1924305562" lon="8.15003889257">
		<tag k="alt_name" v="Langsvatn;Langvannet" />
		<tag k="name" v="Langsvannet" />
		<tag k="natural" v="water" />
		<tag k="ssr:stedsnr" v="243403" />
	</node>
	<node id="-333343" lat="58.197052774" lon="7.88884722065">
		<tag k="name" v="Storholmen" />
		<tag k="place" v="islet" />
		<tag k="ssr:stedsnr" v="692909" />
	</node>
	<node id="-332483" lat="58.2393527812" lon="8.08795555711">
		<tag k="alt_name" v="Mørkestøltjørn" />
		<tag k="name" v="Mørkestøltjønn" />
		<tag k="natural" v="water" />
		<tag k="ssr:stedsnr" v="243092" />
	</node>
	<node id="-332482" lat="58.2453833298" lon="8.08619722264">
		<tag k="alt_name" v="Krogtjønn" />
		<tag k="name" v="Kroktjønn" />
		<tag k="natural" v="water" />
		<tag k="ssr:stedsnr" v="243070" />
	</node>
	<node id="-332478" lat="58.1970916655" lon="8.00271667191">
		<tag k="alt_name" v="Grovatnet;Grovann" />
		<tag k="name" v="Grovannet" />
		<tag k="natural" v="water" />
		<tag k="ssr:stedsnr" v="243002" />
		<tag k="water" v="lake" />
	</node>
	<node id="-332472" lat="58.0938491489" lon="7.94860517989">
		<tag k="alt_name" v="Buvatnet;Buvann" />
		<tag k="name" v="Buvannet" />
		<tag k="natural" v="water" />
		<tag k="ssr:stedsnr" v="242134" />
	</node>
	<node id="-331116" lat="58.1290555515" lon="7.90095833807">
		<tag k="name" v="Langevann" />
		<tag k="natural" v="water" />
		<tag k="ssr:stedsnr" v="327854" />
	</node>
	<node id="-332459" lat="58.1764833315" lon="7.9843944522">
		<tag k="name" v="Kroktjønn" />
		<tag k="natural" v="water" />
		<tag k="ssr:stedsnr" v="228676" />
	</node>
	<node id="-332454" lat="58.1157722225" lon="7.94326388675">
		<tag k="name" v="Kvernbekken" />
		<tag k="ssr:stedsnr" v="228624" />
		<tag k="waterway" v="stream" />
	</node>
	<node id="-331658" lat="58.1852666663" lon="7.90785833289">
		<tag k="alt_name" v="Risvatnet;Risvann" />
		<tag k="name" v="Risvannet" />
		<tag k="natural" v="water" />
		<tag k="ssr:stedsnr" v="26" />
	</node>
	<node id="-332447" lat="58.161516671" lon="8.01599443641">
		<tag k="name" v="Prestebekken" />
		<tag k="ssr:stedsnr" v="228546" />
		<tag k="waterway" v="stream" />
	</node>
	<node id="-332446" lat="58.2026305512" lon="8.09556665856">
		<tag k="name" v="Nessetjønn" />
		<tag k="natural" v="water" />
		<tag k="ssr:stedsnr" v="228539" />
	</node>
	<node id="-332445" lat="58.1354916658" lon="7.90195555655">
		<tag k="name" v="Lona" />
		<tag k="natural" v="water" />
		<tag k="ssr:stedsnr" v="228524" />
	</node>
	<node id="-332442" lat="58.1523441165" lon="7.94234292932">
		<tag k="name" v="Hestefallstjønn" />
		<tag k="natural" v="water" />
		<tag k="ssr:stedsnr" v="228451" />
	</node>
	<node id="-332440" lat="58.1502388918" lon="7.98608056307">
		<tag k="name" v="Kristianiafjorden" />
		<tag k="natural" v="water" />
		<tag k="ssr:stedsnr" v="228411" />
	</node>
	<node id="-332436" lat="58.2467472236" lon="8.16075833375">
		<tag k="name" v="Drangsholtkilen" />
		<tag k="natural" v="bay" />
		<tag k="ssr:stedsnr" v="228346" />
	</node>
	<node id="-332429" lat="58.1207722257" lon="7.90970556374">
		<tag k="name" v="Bispetjønn" />
		<tag k="natural" v="water" />
		<tag k="ssr:stedsnr" v="228264" />
	</node>
	<node id="-332415" lat="58.2150333377" lon="7.93089166112">
		<tag k="name" v="Stavsøyra" />
		<tag k="place" v="islet" />
		<tag k="ssr:stedsnr" v="227959" />
	</node>
	<node id="-332409" lat="58.209030552" lon="8.01912500235">
		<tag k="name" v="Halveis" />
		<tag k="natural" v="cape" />
		<tag k="ssr:stedsnr" v="227711" />
	</node>
	<node id="-333566" lat="58.2149805594" lon="7.98967777005">
		<tag k="name" v="Svartetjønn" />
		<tag k="natural" v="water" />
		<tag k="ssr:stedsnr" v="756376" />
	</node>
	<node id="-332385" lat="58.2687416636" lon="8.1697638932">
		<tag k="name" v="Gullringholmen" />
		<tag k="place" v="islet" />
		<tag k="ssr:stedsnr" v="227116" />
	</node>
	<node id="-332383" lat="58.2438833298" lon="8.13862221428">
		<tag k="name" v="Flekkeskjær" />
		<tag k="natural" v="shoal" />
		<tag k="place" v="locality" />
		<tag k="ssr:stedsnr" v="227107" />
	</node>
	<node id="-332376" lat="58.1997333339" lon="8.14590554888">
		<tag k="name" v="Heimre Stegenes" />
		<tag k="natural" v="cape" />
		<tag k="ssr:stedsnr" v="227051" />
	</node>
	<node id="-331314" lat="58.1753435609" lon="7.90135659608">
		<tag k="name" v="Fluetjønn" />
		<tag k="natural" v="water" />
		<tag k="ssr:stedsnr" v="392005" />
	</node>
	<node id="-332355" lat="58.2281722265" lon="8.16875832788">
		<tag k="name" v="Karlsmonens Skjerbunes" />
		<tag k="natural" v="cape" />
		<tag k="ssr:stedsnr" v="210407" />
	</node>
	<node id="-332351" lat="58.2024638932" lon="7.98023054956">
		<tag k="name" v="Kolsdalstjønna" />
		<tag k="natural" v="water" />
		<tag k="ssr:stedsnr" v="210357" />
	</node>
	<node id="-332349" lat="58.273577775" lon="8.06131388226">
		<tag k="name" v="Langetjønn" />
		<tag k="natural" v="water" />
		<tag k="ssr:stedsnr" v="210342" />
	</node>
	<node id="-332340" lat="58.2714717382" lon="8.11839007243">
		<tag k="alt_name" v="Tretjønnene" />
		<tag k="name" v="Tretjønnane" />
		<tag k="natural" v="water" />
		<tag k="ssr:stedsnr" v="210310" />
	</node>
	<node id="-333918" lat="58.178797222" lon="7.90585000132">
		<tag k="name" v="Mumletjønn" />
		<tag k="natural" v="water" />
		<tag k="ssr:stedsnr" v="878009" />
	</node>
	<node id="-332332" lat="58.2402083372" lon="8.09356111312">
		<tag k="name" v="Ytre Grønnevik" />
		<tag k="natural" v="bay" />
		<tag k="ssr:stedsnr" v="210264" />
	</node>
	<node id="-332329" lat="58.2305361094" lon="8.0422777811">
		<tag k="name" v="Ålebekken" />
		<tag k="ssr:stedsnr" v="210211" />
		<tag k="waterway" v="stream" />
	</node>
	<node id="-332320" lat="58.2419944466" lon="7.89715555">
		<tag k="name" v="Kattetjønn" />
		<tag k="natural" v="water" />
		<tag k="ssr:stedsnr" v="210129" />
	</node>
	<node id="-332316" lat="58.2332194419" lon="7.90850832757">
		<tag k="alt_name" v="Ribåstjønn;Ribåtjønn" />
		<tag k="name" v="Rebåstjønna" />
		<tag k="natural" v="water" />
		<tag k="ssr:stedsnr" v="210100" />
	</node>
	<node id="-332311" lat="58.1749444431" lon="7.93596666825">
		<tag k="name" v="Lomtjønn" />
		<tag k="natural" v="water" />
		<tag k="ssr:stedsnr" v="210010" />
	</node>
	<node id="-332309" lat="58.1741388888" lon="7.91174444165">
		<tag k="name" v="Litjønn" />
		<tag k="natural" v="water" />
		<tag k="ssr:stedsnr" v="210001" />
	</node>
	<node id="-332302" lat="58.2044777792" lon="7.85376944195">
		<tag k="name" v="Trebenkilen" />
		<tag k="natural" v="bay" />
		<tag k="ssr:stedsnr" v="206903" />
	</node>
	<node id="-332301" lat="58.1319903237" lon="7.90096715204">
		<tag k="name" v="Asjerstjønn" />
		<tag k="natural" v="water" />
		<tag k="ssr:stedsnr" v="206876" />
	</node>
	<node id="-332299" lat="58.208663891" lon="7.90246944131">
		<tag k="name" v="Rakkarkilen" />
		<tag k="natural" v="bay" />
		<tag k="ssr:stedsnr" v="206055" />
	</node>
	<node id="-333903" lat="58.1830833337" lon="7.88180555739">
		<tag k="name" v="Rauvasstjønn" />
		<tag k="natural" v="water" />
		<tag k="ssr:stedsnr" v="874026" />
	</node>
	<node id="-332284" lat="58.1402944441" lon="8.13925556018">
		<tag k="alt_name" v="Røyrvatnet;Rørvann" />
		<tag k="name" v="Røyrvann" />
		<tag k="natural" v="water" />
		<tag k="ssr:stedsnr" v="182590" />
		<tag k="water" v="lake" />
	</node>
	<node id="-332276" lat="58.1986888912" lon="8.12308889474">
		<tag k="alt_name" v="Vesvatn;Vesvann" />
		<tag k="name" v="Vesvannet" />
		<tag k="natural" v="water" />
		<tag k="ssr:stedsnr" v="182475" />
		<tag k="water" v="lake" />
	</node>
	<node id="-332275" lat="58.1973750019" lon="8.13706666707">
		<tag k="alt_name" v="Langetjønn" />
		<tag k="name" v="Langtjørn" />
		<tag k="natural" v="water" />
		<tag k="ssr:stedsnr" v="182473" />
	</node>
	<node id="-332271" lat="58.2037777813" lon="8.10058054865">
		<tag k="name" v="Vesbekken" />
		<tag k="ssr:stedsnr" v="182438" />
		<tag k="waterway" v="stream" />
	</node>
	<node id="-332270" lat="58.193916671" lon="8.12568611912">
		<tag k="alt_name" v="Øygårdstjønn" />
		<tag k="name" v="Øygardstjørna" />
		<tag k="natural" v="water" />
		<tag k="ssr:stedsnr" v="182394" />
	</node>
	<node id="-332269" lat="58.2482722178" lon="8.12078889171">
		<tag k="alt_name" v="Guritjønn" />
		<tag k="name" v="Guritjørn" />
		<tag k="natural" v="water" />
		<tag k="ssr:stedsnr" v="182352" />
	</node>
	<node id="-332268" lat="58.2405765227" lon="8.18516585687">
		<tag k="alt_name" v="Bjorvatnet" />
		<tag k="name" v="Bjorvannet" />
		<tag k="natural" v="water" />
		<tag k="ssr:stedsnr" v="182348" />
	</node>
	<node id="-332265" lat="58.1145361146" lon="7.92994999208">
		<tag k="alt_name" v="Bråvatnet" />
		<tag k="name" v="Bråvann" />
		<tag k="natural" v="water" />
		<tag k="ssr:stedsnr" v="182232" />
	</node>
	<node id="-332256" lat="58.2596361077" lon="8.05116665988">
		<tag k="alt_name" v="Sørtjørn" />
		<tag k="name" v="Sørtjønn" />
		<tag k="natural" v="water" />
		<tag k="ssr:stedsnr" v="182045" />
	</node>
	<node id="-332254" lat="58.2565694441" lon="8.02822778475">
		<tag k="alt_name" v="Jovatnet" />
		<tag k="name" v="Jovannet" />
		<tag k="natural" v="water" />
		<tag k="ssr:stedsnr" v="182030" />
	</node>
	<node id="-332251" lat="58.2095888931" lon="7.95813333504">
		<tag k="alt_name" v="Glattetrævatnet" />
		<tag k="name" v="Glattetrevannet" />
		<tag k="natural" v="water" />
		<tag k="ssr:stedsnr" v="182014" />
	</node>
	<node id="-332249" lat="58.1290277776" lon="7.90684722447">
		<tag k="name" v="Slåttejønn" />
		<tag k="natural" v="water" />
		<tag k="ssr:stedsnr" v="181073" />
	</node>
	<node id="-332224" lat="58.2013223413" lon="8.09551131313">
		<tag k="name" v="Kattetjønn" />
		<tag k="natural" v="water" />
		<tag k="ssr:stedsnr" v="167523" />
	</node>
	<node id="-332214" lat="58.1324444489" lon="7.94280277372">
		<tag k="name" v="Fiskåbekken" />
		<tag k="ssr:stedsnr" v="167395" />
		<tag k="waterway" v="stream" />
	</node>
	<node id="-332194" lat="58.1993222186" lon="8.09133334083">
		<tag k="name" v="Hommeren" />
		<tag k="natural" v="cape" />
		<tag k="ssr:stedsnr" v="166986" />
	</node>
	<node id="-332182" lat="58.1492611069" lon="7.95474999916">
		<tag k="name" v="Tinntjønn" />
		<tag k="natural" v="water" />
		<tag k="ssr:stedsnr" v="166687" />
	</node>
	<node id="-332158" lat="58.1512944451" lon="7.9872472212">
		<tag k="name" v="Nedre Stampetjørnane" />
		<tag k="natural" v="water" />
		<tag k="ssr:stedsnr" v="155195" />
	</node>
	<node id="-332144" lat="58.2738722236" lon="8.1121194461">
		<tag k="name" v="Løgntjønn" />
		<tag k="natural" v="water" />
		<tag k="ssr:stedsnr" v="149307" />
	</node>
	<node id="-332143" lat="58.2735083371" lon="8.09916111801">
		<tag k="name" v="Galapagos" />
		<tag k="place" v="islet" />
		<tag k="ssr:stedsnr" v="149304" />
	</node>
	<node id="-332134" lat="58.2644454416" lon="8.06470051671">
		<tag k="name" v="Krossetjønn" />
		<tag k="natural" v="water" />
		<tag k="ssr:stedsnr" v="149244" />
	</node>
	<node id="-332133" lat="58.2505999981" lon="8.08405000752">
		<tag k="name" v="Øygardstjønn" />
		<tag k="natural" v="water" />
		<tag k="ssr:stedsnr" v="149236" />
	</node>
	<node id="-332131" lat="58.2577694479" lon="8.06431944011">
		<tag k="name" v="Gåsetjønn" />
		<tag k="natural" v="water" />
		<tag k="ssr:stedsnr" v="149223" />
	</node>
	<node id="-332122" lat="58.2085416678" lon="8.13468888054">
		<tag k="name" v="Krogevannsbekken" />
		<tag k="ssr:stedsnr" v="149119" />
		<tag k="waterway" v="stream" />
	</node>
	<node id="-332116" lat="58.2241166655" lon="7.86576943989">
		<tag k="alt_name" v="Skjeddvannstjønna;Skjeddevannstjønn" />
		<tag k="name" v="Skjeddvannstjønn" />
		<tag k="natural" v="water" />
		<tag k="ssr:stedsnr" v="149101" />
	</node>
	<node id="-334163" lat="58.1553166668" lon="7.98657221859">
		<tag k="name" v="Svarttjønn" />
		<tag k="natural" v="water" />
		<tag k="ssr:stedsnr" v="956647" />
	</node>
	<node id="-332112" lat="58.1751048083" lon="7.91731459398">
		<tag k="name" v="Nedre Tvitjønnane" />
		<tag k="natural" v="water" />
		<tag k="ssr:stedsnr" v="149009" />
	</node>
	<node id="-331148" lat="58.2195104618" lon="8.03088880555">
		<tag k="name" v="Kråketjønn" />
		<tag k="natural" v="water" />
		<tag k="ssr:stedsnr" v="331191" />
	</node>
	<node id="-334147" lat="58.2240194427" lon="7.91464166443">
		<tag k="name" v="Stemmen" />
		<tag k="natural" v="water" />
		<tag k="ssr:stedsnr" v="956443" />
	</node>
	<node id="-332088" lat="58.1582277772" lon="8.1546194397">
		<tag k="alt_name" v="Karitjønn" />
		<tag k="name" v="Karistjørn" />
		<tag k="natural" v="water" />
		<tag k="ssr:stedsnr" v="121578" />
	</node>
	<node id="-334135" lat="58.2078333317" lon="8.13693889427">
		<tag k="name" v="Storefoss" />
		<tag k="natural" v="waterfall" />
		<tag k="ssr:stedsnr" v="956354" />
	</node>
	<node id="-332085" lat="58.1411333377" lon="8.11974722993">
		<tag k="alt_name" v="Bjørnestadtjørna;Bjørnestadtjønn" />
		<tag k="name" v="Bjørnestadtjønna" />
		<tag k="natural" v="water" />
		<tag k="ssr:stedsnr" v="121549" />
	</node>
	<node id="-332084" lat="58.1349083365" lon="8.12623333269">
		<tag k="alt_name" v="Dollsvatnet" />
		<tag k="name" v="Dolsvann" />
		<tag k="natural" v="water" />
		<tag k="ssr:stedsnr" v="121548" />
	</node>
	<node id="-334129" lat="58.2706583325" lon="8.03122222916">
		<tag k="name" v="Gruetjønn" />
		<tag k="natural" v="water" />
		<tag k="ssr:stedsnr" v="956302" />
	</node>
	<node id="-334128" lat="58.0954888874" lon="7.96069167415">
		<tag k="name" v="Svarttjønn" />
		<tag k="natural" v="water" />
		<tag k="ssr:stedsnr" v="956296" />
	</node>
	<node id="-332074" lat="58.2093888891" lon="8.1156555556">
		<tag k="alt_name" v="Jersdalstjønna;Jersdalstjønn" />
		<tag k="name" v="Vestjørn" />
		<tag k="natural" v="water" />
		<tag k="ssr:stedsnr" v="121434" />
	</node>
	<node id="-332073" lat="58.1876117622" lon="8.11819695586">
		<tag k="alt_name" v="Nordåstjønn" />
		<tag k="name" v="Nordåstjørna" />
		<tag k="natural" v="water" />
		<tag k="ssr:stedsnr" v="121399" />
	</node>
	<node id="-332070" lat="58.2410751085" lon="8.15547255913">
		<tag k="alt_name" v="Nordretjønn" />
		<tag k="name" v="Nordretjørn" />
		<tag k="natural" v="water" />
		<tag k="ssr:stedsnr" v="121352" />
	</node>
	<node id="-332066" lat="58.2318499996" lon="8.19101389188">
		<tag k="alt_name" v="Gåselitjønnane" />
		<tag k="name" v="Gåselitjørna" />
		<tag k="natural" v="water" />
		<tag k="ssr:stedsnr" v="121298" />
	</node>
	<node id="-332058" lat="58.2251972188" lon="7.90418054974">
		<tag k="alt_name" v="Sagevatnet;Sagetjønn" />
		<tag k="name" v="Sagtjønn" />
		<tag k="natural" v="water" />
		<tag k="ssr:stedsnr" v="121108" />
	</node>
	<node id="-332057" lat="58.2331694437" lon="8.06635000789">
		<tag k="alt_name" v="Farvatnet" />
		<tag k="name" v="Farvannet" />
		<tag k="natural" v="water" />
		<tag k="ssr:stedsnr" v="121104" />
		<tag k="water" v="lake" />
	</node>
	<node id="-332056" lat="58.1684333325" lon="7.926922221">
		<tag k="alt_name" v="Krokevatnet" />
		<tag k="name" v="Krokevann" />
		<tag k="natural" v="water" />
		<tag k="ssr:stedsnr" v="121074" />
	</node>
	<node id="-332055" lat="58.1728333349" lon="8.02644999639">
		<tag k="alt_name" v="Tretjørn" />
		<tag k="name" v="Tretjønn" />
		<tag k="natural" v="water" />
		<tag k="ssr:stedsnr" v="121070" />
	</node>
	<node id="-332053" lat="58.1827315668" lon="7.9492241062">
		<tag k="alt_name" v="Tvitjørna;Tvitjønn" />
		<tag k="name" v="Tvitjønnane" />
		<tag k="natural" v="water" />
		<tag k="ssr:stedsnr" v="121053" />
	</node>
	<node id="-332052" lat="58.1786833324" lon="7.94961944519">
		<tag k="alt_name" v="Grunnevatnet;Grunnevann" />
		<tag k="name" v="Grunnevannet" />
		<tag k="natural" v="water" />
		<tag k="ssr:stedsnr" v="121051" />
	</node>
	<node id="-334098" lat="58.2302027797" lon="8.12796111188">
		<tag k="name" v="Karlsmoøyra" />
		<tag k="place" v="island" />
		<tag k="ssr:stedsnr" v="955086" />
	</node>
	<node id="-334096" lat="58.1984888853" lon="8.14926666051">
		<tag k="name" v="Midtersholmen" />
		<tag k="place" v="islet" />
		<tag k="ssr:stedsnr" v="955039" />
	</node>
	<node id="-332038" lat="58.1498055584" lon="8.07552222146">
		<tag k="name" v="Liantjønna" />
		<tag k="natural" v="water" />
		<tag k="ssr:stedsnr" v="107588" />
	</node>
	<node id="-332032" lat="58.1953861102" lon="8.15451666324">
		<tag k="name" v="Bjønnsløpet" />
		<tag k="natural" v="strait" />
		<tag k="ssr:stedsnr" v="107522" />
	</node>
	<node id="-334079" lat="58.2245250022" lon="8.17751110483">
		<tag k="name" v="Ånensholmen" />
		<tag k="place" v="islet" />
		<tag k="ssr:stedsnr" v="938387" />
	</node>
	<node id="-332028" lat="58.1514583338" lon="7.91224721863">
		<tag k="name" v="Jentetjønn" />
		<tag k="natural" v="water" />
		<tag k="ssr:stedsnr" v="107417" />
	</node>
	<node id="-332020" lat="58.2077805598" lon="8.12350555632">
		<tag k="name" v="Myransbekken" />
		<tag k="ssr:stedsnr" v="107324" />
		<tag k="waterway" v="stream" />
	</node>
	<node id="-332016" lat="58.2440194463" lon="8.00380277561">
		<tag k="name" v="Dalanstjønn" />
		<tag k="natural" v="water" />
		<tag k="ssr:stedsnr" v="107282" />
	</node>
	<node id="-334062" lat="58.191950002" lon="8.13608889405">
		<tag k="name" v="Tømmeråstjønn" />
		<tag k="natural" v="water" />
		<tag k="ssr:stedsnr" v="938244" />
	</node>
	<node id="-331474" lat="58.2501916706" lon="8.15690276971">
		<tag k="name" v="Hægermanns holme" />
		<tag k="place" v="islet" />
		<tag k="ssr:stedsnr" v="895090" />
	</node>
	<node id="-333861" lat="58.1990083308" lon="8.14363333251">
		<tag k="alt_name" v="Heimre Stegeneskilen" />
		<tag k="name" v="Heimre-Stegeneskilen" />
		<tag k="natural" v="water" />
		<tag k="ssr:stedsnr" v="849507" />
		<tag k="water" v="lake" />
	</node>
	<node id="-334042" lat="58.1936638853" lon="7.98412222885">
		<tag k="name" v="Butjønn" />
		<tag k="natural" v="water" />
		<tag k="ssr:stedsnr" v="938084" />
	</node>
	<node id="-331993" lat="58.1559527768" lon="8.11230000431">
		<tag k="name" v="Engeholmen" />
		<tag k="place" v="islet" />
		<tag k="ssr:stedsnr" v="106887" />
	</node>
	<node id="-331991" lat="58.1860138869" lon="8.0156222163">
		<tag k="name" v="Gillsholmen" />
		<tag k="place" v="islet" />
		<tag k="ssr:stedsnr" v="106703" />
	</node>
	<node id="-334031" lat="58.2054156528" lon="7.88019562406">
		<tag k="name" v="Tvitjønnan" />
		<tag k="natural" v="water" />
		<tag k="ssr:stedsnr" v="934926" />
	</node>
	<node id="-331981" lat="58.1439333359" lon="8.11033610447">
		<tag k="name" v="Stavetjønn" />
		<tag k="natural" v="water" />
		<tag k="ssr:stedsnr" v="106591" />
	</node>
	<node id="-331980" lat="58.1614000045" lon="8.02282222464">
		<tag k="name" v="Vollebekken" />
		<tag k="ssr:stedsnr" v="106539" />
		<tag k="waterway" v="stream" />
	</node>
	<node id="-334013" lat="58.1884797787" lon="7.86003486161">
		<tag k="name" v="Bånetjønn" />
		<tag k="natural" v="water" />
		<tag k="ssr:stedsnr" v="934019" />
	</node>
	<node id="-334012" lat="58.7088805532" lon="8.33939166212">
		<tag k="alt_name" v="Topdalselva;Tovdalselva;Tovdalsvassdraget;Tovdalsåni" />
		<tag k="name" v="Tovdalsåna" />
		<tag k="ssr:stedsnr" v="911490" />
		<tag k="waterway" v="river" />
	</node>
	<node id="-334008" lat="58.2639166698" lon="8.110777778">
		<tag k="alt_name" v="Tritjørn;Tretjønnene" />
		<tag k="name" v="Tretjønnane" />
		<tag k="natural" v="water" />
		<tag k="ssr:stedsnr" v="910713" />
	</node>
	<node id="-334005" lat="58.1593972216" lon="8.14374721614">
		<tag k="alt_name" v="Stortjønn" />
		<tag k="name" v="Stortjørn" />
		<tag k="natural" v="water" />
		<tag k="ssr:stedsnr" v="910599" />
	</node>
	<node id="-334004" lat="58.1223999971" lon="8.09970000686">
		<tag k="alt_name" v="Vadbutjørna" />
		<tag k="name" v="Vabotjønn" />
		<tag k="natural" v="water" />
		<tag k="ssr:stedsnr" v="910573" />
	</node>
	<node id="-334001" lat="58.1359166659" lon="8.15346666886">
		<tag k="alt_name" v="Stemvatnet" />
		<tag k="name" v="Stemvann" />
		<tag k="natural" v="water" />
		<tag k="ssr:stedsnr" v="910545" />
	</node>
	<node id="-333996" lat="58.2078722189" lon="8.18497500616">
		<tag k="alt_name" v="Tretjørnane" />
		<tag k="name" v="Tretjønnane" />
		<tag k="natural" v="water" />
		<tag k="ssr:stedsnr" v="910497" />
	</node>
	<node id="-333992" lat="58.1712861075" lon="8.14340000707">
		<tag k="alt_name" v="Bjorvatnet" />
		<tag k="name" v="Bjorvann" />
		<tag k="natural" v="water" />
		<tag k="ssr:stedsnr" v="910419" />
	</node>
	<node id="-331938" lat="58.2146611138" lon="7.98644167292">
		<tag k="name" v="Karitjønn" />
		<tag k="natural" v="water" />
		<tag k="ssr:stedsnr" v="89429" />
	</node>
	<node id="-333982" lat="58.1215163407" lon="7.90136475387">
		<tag k="name" v="Bispelona" />
		<tag k="natural" v="water" />
		<tag k="ssr:stedsnr" v="910235" />
	</node>
	<node id="-333979" lat="58.1312956601" lon="7.91221969042">
		<tag k="alt_name" v="Bjorstøtjørn" />
		<tag k="name" v="Bjorstøtjønn" />
		<tag k="natural" v="water" />
		<tag k="ssr:stedsnr" v="910221" />
	</node>
	<node id="-331930" lat="58.2211093085" lon="8.14990732062">
		<tag k="name" v="Gonilstjønn" />
		<tag k="natural" v="water" />
		<tag k="ssr:stedsnr" v="89318" />
	</node>
	<node id="-333965" lat="58.2227777793" lon="7.85767499554">
		<tag k="alt_name" v="Skeivatnet;Skjeddvann;Skjeddevann" />
		<tag k="name" v="Skjeddvannet" />
		<tag k="natural" v="water" />
		<tag k="ssr:stedsnr" v="910108" />
	</node>
	<node id="-331914" lat="58.2735611124" lon="8.05282778516">
		<tag k="alt_name" v="Gangtjønn" />
		<tag k="name" v="Lille Gangtjønn" />
		<tag k="natural" v="water" />
		<tag k="ssr:stedsnr" v="89189" />
	</node>
	<node id="-331913" lat="58.2818079846" lon="8.05755412923">
		<tag k="name" v="Fosstjønn" />
		<tag k="natural" v="water" />
		<tag k="ssr:stedsnr" v="89180" />
	</node>
	<node id="-331911" lat="58.2009583296" lon="8.14425832959">
		<tag k="name" v="Krogevannsodden" />
		<tag k="natural" v="cape" />
		<tag k="ssr:stedsnr" v="89162" />
	</node>
	<node id="-333958" lat="58.183408337" lon="8.03511944126">
		<tag k="name" v="Eidet" />
		<tag k="natural" v="strait" />
		<tag k="ssr:stedsnr" v="910051" />
	</node>
	<node id="-331903" lat="58.2027805601" lon="7.88503055769">
		<tag k="name" v="Nordtjønn" />
		<tag k="natural" v="water" />
		<tag k="ssr:stedsnr" v="85915" />
	</node>
	<node id="-333950" lat="58.2793388909" lon="8.08971666992">
		<tag k="name" v="Kristgjerstjønn" />
		<tag k="natural" v="water" />
		<tag k="ssr:stedsnr" v="878366" />
	</node>
	<node id="-333940" lat="58.2626713639" lon="8.1090955801">
		<tag k="name" v="Fuglekornstjønn" />
		<tag k="natural" v="water" />
		<tag k="ssr:stedsnr" v="878291" />
	</node>
	<node id="-331890" lat="58.2085527745" lon="7.90911943941">
		<tag k="name" v="Igletjønn" />
		<tag k="natural" v="water" />
		<tag k="ssr:stedsnr" v="85037" />
	</node>
	<node id="-333936" lat="58.2230916624" lon="8.03757222495">
		<tag k="name" v="Kveviktjønn" />
		<tag k="natural" v="water" />
		<tag k="ssr:stedsnr" v="878208" />
	</node>
	<node id="-333929" lat="58.2019750032" lon="8.13542777325">
		<tag k="name" v="Tvitjønnane" />
		<tag k="natural" v="water" />
		<tag k="ssr:stedsnr" v="878158" />
	</node>
	<node id="-330957" lat="58.2625305582" lon="8.06631111787">
		<tag k="name" v="Gunsteintjønn" />
		<tag k="natural" v="water" />
		<tag k="ssr:stedsnr" v="271308" />
	</node>
	<node id="-331877" lat="58.1428015432" lon="8.10140440246">
		<tag k="name" v="Grisetjørna" />
		<tag k="natural" v="water" />
		<tag k="ssr:stedsnr" v="61532" />
	</node>
	<node id="-331875" lat="58.2214089628" lon="8.14066391692">
		<tag k="alt_name" v="Seltjønn" />
		<tag k="name" v="Guritjørn" />
		<tag k="natural" v="water" />
		<tag k="ssr:stedsnr" v="61453" />
	</node>
	<node id="-331872" lat="58.227083331" lon="8.17426666067">
		<tag k="alt_name" v="Drangsholtvatnet" />
		<tag k="name" v="Drangsholtvannet" />
		<tag k="natural" v="water" />
		<tag k="ssr:stedsnr" v="61286" />
		<tag k="water" v="lake" />
	</node>
	<node id="-331870" lat="58.1243055568" lon="7.92728055713">
		<tag k="alt_name" v="Grimsvatnet;Grimsvann" />
		<tag k="name" v="Grimsvannet" />
		<tag k="natural" v="water" />
		<tag k="ssr:stedsnr" v="61228" />
	</node>
	<node id="-331860" lat="58.1833499957" lon="7.9891555585">
		<tag k="alt_name" v="Kyrtjørn" />
		<tag k="name" v="Kyrtjønn" />
		<tag k="natural" v="water" />
		<tag k="ssr:stedsnr" v="61028" />
	</node>
	<node id="-331858" lat="58.1874388869" lon="8.02338611399">
		<tag k="alt_name" v="Gjelsvatnet;Gillsvann" />
		<tag k="name" v="Gillsvannet" />
		<tag k="natural" v="water" />
		<tag k="ssr:stedsnr" v="61025" />
		<tag k="water" v="lake" />
	</node>
	<node id="-331855" lat="58.1313416667" lon="8.16090000313">
		<tag k="alt_name" v="Skyldviktjønn" />
		<tag k="name" v="Skyldviktjørna" />
		<tag k="natural" v="water" />
		<tag k="ssr:stedsnr" v="60520" />
	</node>
	<node id="-331853" lat="58.183025004" lon="8.1170611154">
		<tag k="alt_name" v="Ravnåstjønnane;Ravnåstjønn" />
		<tag k="name" v="Ravnåstjørna" />
		<tag k="natural" v="water" />
		<tag k="ssr:stedsnr" v="60414" />
	</node>
	<node id="-333895" lat="58.1662027781" lon="8.15582500413">
		<tag k="alt_name" v="Rossevatn" />
		<tag k="name" v="Rossevann" />
		<tag k="natural" v="water" />
		<tag k="ssr:stedsnr" v="850590" />
	</node>
	<node id="-333889" lat="58.119047219" lon="8.13993055337">
		<tag k="alt_name" v="Stangenestjønn" />
		<tag k="name" v="Stangenestjørna" />
		<tag k="natural" v="water" />
		<tag k="ssr:stedsnr" v="850511" />
	</node>
	<node id="-333888" lat="58.2156500023" lon="8.1668027761">
		<tag k="alt_name" v="Karlsvatnet" />
		<tag k="name" v="Karlsvannet" />
		<tag k="natural" v="water" />
		<tag k="ssr:stedsnr" v="850472" />
		<tag k="water" v="lake" />
	</node>
	<node id="-331836" lat="58.1119777797" lon="7.91751667061">
		<tag k="name" v="Søndre Linddalstjønn" />
		<tag k="natural" v="water" />
		<tag k="ssr:stedsnr" v="46597" />
	</node>
	<node id="-331831" lat="58.1491027777" lon="7.93704999282">
		<tag k="name" v="Revetjønnbekken" />
		<tag k="ssr:stedsnr" v="46507" />
		<tag k="waterway" v="stream" />
	</node>
	<node id="-333191" lat="58.2749444423" lon="8.10445833595">
		<tag k="name" v="Heftetjønn" />
		<tag k="natural" v="water" />
		<tag k="ssr:stedsnr" v="634339" />
	</node>
	<node id="-333874" lat="58.1552972237" lon="7.9362222271">
		<tag k="alt_name" v="Grotjern" />
		<tag k="name" v="Grotjønn" />
		<tag k="natural" v="water" />
		<tag k="ssr:stedsnr" v="850195" />
	</node>
	<node id="-333869" lat="58.2322027795" lon="8.05236666051">
		<tag k="alt_name" v="Ålefjærtjørnane" />
		<tag k="name" v="Storetjønn" />
		<tag k="natural" v="water" />
		<tag k="ssr:stedsnr" v="850113" />
	</node>
	<node id="-333864" lat="58.1769666668" lon="8.00812499283">
		<tag k="alt_name" v="Stitjørn" />
		<tag k="name" v="Stitjønn" />
		<tag k="natural" v="water" />
		<tag k="ssr:stedsnr" v="850033" />
	</node>
	<node id="-331815" lat="58.1031527815" lon="7.90255000678">
		<tag k="name" v="Søgneneset" />
		<tag k="natural" v="cape" />
		<tag k="ssr:stedsnr" v="46323" />
	</node>
	<node id="-331814" lat="58.2305277795" lon="8.12553888519">
		<tag k="name" v="Østerbekk" />
		<tag k="ssr:stedsnr" v="46322" />
		<tag k="waterway" v="stream" />
	</node>
	<node id="-331813" lat="58.2282555574" lon="8.11813333692">
		<tag k="name" v="Prestebekken" />
		<tag k="ssr:stedsnr" v="46321" />
		<tag k="waterway" v="stream" />
	</node>
	<node id="-333856" lat="58.1707733125" lon="7.96026276857">
		<tag k="name" v="Bervannet" />
		<tag k="natural" v="water" />
		<tag k="ssr:stedsnr" v="849088" />
		<tag k="water" v="lake" />
	</node>
	<node id="-331440" lat="58.1136194467" lon="8.14220277277">
		<tag k="name" v="Bertestjønn" />
		<tag k="natural" v="water" />
		<tag k="ssr:stedsnr" v="410638" />
	</node>
	<node id="-331806" lat="58.1897333325" lon="7.93088610776">
		<tag k="name" v="Lillebekk" />
		<tag k="ssr:stedsnr" v="46270" />
		<tag k="waterway" v="stream" />
	</node>
	<node id="-331805" lat="58.1899444466" lon="7.91760555388">
		<tag k="name" v="Fiskevannsbekken" />
		<tag k="ssr:stedsnr" v="46268" />
		<tag k="waterway" v="stream" />
	</node>
	<node id="-333845" lat="58.2128305597" lon="7.86016111051">
		<tag k="name" v="Lagmannsholmen" />
		<tag k="place" v="islet" />
		<tag k="ssr:stedsnr" v="835818" />
	</node>
	<node id="-331789" lat="58.2111972265" lon="8.01281944201">
		<tag k="name" v="Butangen" />
		<tag k="natural" v="cape" />
		<tag k="ssr:stedsnr" v="45698" />
	</node>
	<node id="-333834" lat="58.1122749959" lon="7.90019167249">
		<tag k="name" v="Bjorstemsbekken" />
		<tag k="ssr:stedsnr" v="835585" />
		<tag k="waterway" v="stream" />
	</node>
	<node id="-333831" lat="58.1875972215" lon="8.13332776994">
		<tag k="name" v="Hjelmetjønn" />
		<tag k="natural" v="water" />
		<tag k="ssr:stedsnr" v="835546" />
	</node>
	<node id="-333825" lat="58.2073194406" lon="7.91696388752">
		<tag k="name" v="Sagbekken" />
		<tag k="ssr:stedsnr" v="835441" />
		<tag k="waterway" v="stream" />
	</node>
</osm>
