<?xml version="1.0" encoding="UTF-8"?>
<osm generator="osmapis" version="0.6">
	<node id="-333823" lat="58.0910805586" lon="8.0886861081">
		<tag k="name" v="Måkeholmen" />
		<tag k="place" v="islet" />
		<tag k="ssr:stedsnr" v="835417" />
	</node>
	<node id="-331770" lat="58.0596166642" lon="7.98296111054">
		<tag k="name" v="Kjæreneset" />
		<tag k="natural" v="cape" />
		<tag k="ssr:stedsnr" v="45062" />
	</node>
	<node id="-333817" lat="58.0785500024" lon="8.02169166413">
		<tag k="name" v="Målen" />
		<tag k="natural" v="beach" />
		<tag k="place" v="locality" />
		<tag k="ssr:stedsnr" v="835337" />
	</node>
	<node id="-333815" lat="58.0879138877" lon="8.01101943842">
		<tag k="alt_name" v="Kragevika" />
		<tag k="name" v="Krageviga" />
		<tag k="natural" v="bay" />
		<tag k="ssr:stedsnr" v="835313" />
	</node>
	<node id="-333814" lat="58.0926250028" lon="8.11186944847">
		<tag k="name" v="Buholmsanden" />
		<tag k="natural" v="beach" />
		<tag k="place" v="locality" />
		<tag k="ssr:stedsnr" v="835297" />
	</node>
	<node id="-333813" lat="58.0970944447" lon="8.1370499967">
		<tag k="name" v="Torsøyvågen" />
		<tag k="natural" v="bay" />
		<tag k="ssr:stedsnr" v="835287" />
	</node>
	<node id="-331763" lat="58.1212638867" lon="8.08575277947">
		<tag k="name" v="Sønningsholmen" />
		<tag k="place" v="islet" />
		<tag k="ssr:stedsnr" v="44534" />
	</node>
	<node id="-333806" lat="58.0835722235" lon="7.95524167087">
		<tag k="alt_name" v="Vragevika" />
		<tag k="name" v="Vrageviga" />
		<tag k="natural" v="bay" />
		<tag k="ssr:stedsnr" v="835029" />
	</node>
	<node id="-331757" lat="58.1158333291" lon="8.10386110645">
		<tag k="name" v="Martesodden" />
		<tag k="natural" v="cape" />
		<tag k="ssr:stedsnr" v="39668" />
	</node>
	<node id="-331756" lat="58.1159805539" lon="8.10548611957">
		<tag k="name" v="Ankerbåen" />
		<tag k="natural" v="shoal" />
		<tag k="place" v="locality" />
		<tag k="ssr:stedsnr" v="39666" />
	</node>
	<node id="-331755" lat="58.0491111082" lon="8.0419138947">
		<tag k="name" v="Hullergrunnen" />
		<tag k="natural" v="shoal" />
		<tag k="place" v="locality" />
		<tag k="ssr:stedsnr" v="39629" />
	</node>
	<node id="-331754" lat="58.1493527751" lon="8.04882222104">
		<tag k="name" v="Sømsodden" />
		<tag k="natural" v="cape" />
		<tag k="ssr:stedsnr" v="37062" />
	</node>
	<node id="-331752" lat="58.1076172035" lon="7.99211117897">
		<tag k="name" v="Daudmannsholmen" />
		<tag k="place" v="islet" />
		<tag k="ssr:stedsnr" v="36185" />
	</node>
	<node id="-331751" lat="58.1245277817" lon="8.0504000082">
		<tag k="name" v="Tua" />
		<tag k="place" v="islet" />
		<tag k="ssr:stedsnr" v="34203" />
	</node>
	<node id="-331750" lat="58.1209833345" lon="8.00830833863">
		<tag k="name" v="Gjeiteva" />
		<tag k="natural" v="shoal" />
		<tag k="place" v="locality" />
		<tag k="ssr:stedsnr" v="34192" />
	</node>
	<node id="-333790" lat="58.1194416652" lon="8.08196111336">
		<tag k="name" v="Sildeholmen" />
		<tag k="place" v="islet" />
		<tag k="ssr:stedsnr" v="834537" />
	</node>
	<node id="-332111" lat="58.1432333342" lon="8.0437194412">
		<tag k="name" v="Smedholmen" />
		<tag k="place" v="islet" />
		<tag k="ssr:stedsnr" v="146356" />
	</node>
	<node id="-332110" lat="58.1235055551" lon="8.07759166136">
		<tag k="name" v="Kones" />
		<tag k="natural" v="cape" />
		<tag k="ssr:stedsnr" v="146345" />
	</node>
	<node id="-332109" lat="58.1766694457" lon="8.04788889332">
		<tag k="name" v="Hestnestangen" />
		<tag k="natural" v="cape" />
		<tag k="ssr:stedsnr" v="146308" />
	</node>
	<node id="-333770" lat="58.0665344684" lon="7.9625320897">
		<tag k="name" v="Pumpebåen" />
		<tag k="place" v="locality" />
		<tag k="seamark:type" v="rock" />
		<tag k="ssr:stedsnr" v="828504" />
	</node>
	<node id="-333769" lat="58.1043194422" lon="7.97978888725">
		<tag k="name" v="Flatholmen" />
		<tag k="place" v="islet" />
		<tag k="ssr:stedsnr" v="826230" />
	</node>
	<node id="-333768" lat="58.1135694477" lon="7.95851111486">
		<tag k="name" v="Kjosbukta" />
		<tag k="natural" v="bay" />
		<tag k="ssr:stedsnr" v="826227" />
	</node>
	<node id="-332108" lat="58.1730833324" lon="8.04397223023">
		<tag k="alt_name" v="Vollevika" />
		<tag k="name" v="Volleviga" />
		<tag k="natural" v="bay" />
		<tag k="ssr:stedsnr" v="146307" />
	</node>
	<node id="-333766" lat="58.0971166708" lon="7.98321666019">
		<tag k="name" v="Loppeholmen" />
		<tag k="place" v="islet" />
		<tag k="ssr:stedsnr" v="825138" />
	</node>
	<node id="-333765" lat="58.1382944402" lon="8.00398889509">
		<tag k="name" v="Bendiksbukta" />
		<tag k="natural" v="bay" />
		<tag k="ssr:stedsnr" v="823179" />
	</node>
	<node id="-333758" lat="58.1267722231" lon="7.9992055594">
		<tag k="alt_name" v="Dypingen" />
		<tag k="name" v="Dybingen" />
		<tag k="place" v="island" />
		<tag k="ssr:stedsnr" v="817388" />
	</node>
	<node id="-331701" lat="58.078886108" lon="8.18649722762">
		<tag k="name" v="Nilsesgrunnen" />
		<tag k="natural" v="shoal" />
		<tag k="place" v="locality" />
		<tag k="ssr:stedsnr" v="24442" />
	</node>
	<node id="-331692" lat="58.0858388873" lon="8.10746111676">
		<tag k="alt_name" v="Måkeskjærene" />
		<tag k="name" v="Måkeskjærane" />
		<tag k="place" v="islet" />
		<tag k="ssr:stedsnr" v="23492" />
	</node>
	<node id="-333737" lat="58.217075003" lon="8.0492055616">
		<tag k="name" v="Katterompa" />
		<tag k="natural" v="cape" />
		<tag k="ssr:stedsnr" v="817196" />
	</node>
	<node id="-331687" lat="58.0809694472" lon="8.10076667468">
		<tag k="name" v="Svarten" />
		<tag k="place" v="islet" />
		<tag k="ssr:stedsnr" v="733" />
	</node>
	<node id="-331682" lat="58.0469277762" lon="7.96730832887">
		<tag k="name" v="Flanderen" />
		<tag k="place" v="islet" />
		<tag k="ssr:stedsnr" v="367" />
	</node>
	<node id="-331677" lat="58.1307444425" lon="8.04474721663">
		<tag k="name" v="Sjursøya" />
		<tag k="place" v="island" />
		<tag k="ssr:stedsnr" v="245" />
	</node>
	<node id="-331673" lat="58.0848325419" lon="8.02626030053">
		<tag k="alt_name" v="Sunderholmen;Sudreholmen" />
		<tag k="name" v="Suderholmen" />
		<tag k="place" v="islet" />
		<tag k="ssr:stedsnr" v="189" />
	</node>
	<node id="-331671" lat="58.1083184732" lon="8.05973666726">
		<tag k="name" v="Dvergsøya" />
		<tag k="old_name" v="Dvergs-øya" />
		<tag k="place" v="island" />
		<tag k="ssr:stedsnr" v="158" />
	</node>
	<node id="-331669" lat="58.1166888847" lon="8.08573889067">
		<tag k="name" v="Herøya" />
		<tag k="place" v="island" />
		<tag k="ssr:stedsnr" v="144" />
	</node>
	<node id="-333713" lat="58.0854555521" lon="7.95623611596">
		<tag k="alt_name" v="Fossevika;Vikane" />
		<tag k="name" v="Fosseviga" />
		<tag k="natural" v="bay" />
		<tag k="ssr:stedsnr" v="813384" />
	</node>
	<node id="-331664" lat="58.1741611154" lon="8.07363888505">
		<tag k="name" v="Hånestangen" />
		<tag k="natural" v="cape" />
		<tag k="ssr:stedsnr" v="57" />
	</node>
	<node id="-333704" lat="58.1000000035" lon="8.09794722049">
		<tag k="name" v="Kalvøyskjærane" />
		<tag k="place" v="locality" />
		<tag k="seamark:type" v="rock" />
		<tag k="ssr:stedsnr" v="812485" />
	</node>
	<node id="-333703" lat="58.0887749982" lon="8.15177500785">
		<tag k="name" v="Makrelhausen" />
		<tag k="natural" v="shoal" />
		<tag k="place" v="locality" />
		<tag k="ssr:stedsnr" v="812461" />
	</node>
	<node id="-333701" lat="58.0929972234" lon="8.19216388458">
		<tag k="alt_name" v="Meholmskjær" />
		<tag k="fixme" v="consider seamark:type=rock or natural=shoal" />
		<tag k="name" v="Meholmskjer" />
		<tag k="place" v="islet" />
		<tag k="ssr:stedsnr" v="789737" />
	</node>
	<node id="-333695" lat="58.0981249292" lon="8.10250667283">
		<tag k="alt_name" v="Kalvøya, in;Indre Kalvøya" />
		<tag k="name" v="Indre Kalvøy" />
		<tag k="place" v="island" />
		<tag k="ssr:stedsnr" v="789518" />
	</node>
	<node id="-333694" lat="58.1116166657" lon="8.15685833759">
		<tag k="alt_name" v="Mellomholmen" />
		<tag k="name" v="Midtholmen" />
		<tag k="place" v="islet" />
		<tag k="ssr:stedsnr" v="789512" />
	</node>
	<node id="-333689" lat="58.0734638917" lon="8.03771666318">
		<tag k="alt_name" v="Grønningene" />
		<tag k="name" v="Grønningane" />
		<tag k="place" v="islet" />
		<tag k="ssr:stedsnr" v="789195" />
	</node>
	<node id="-333685" lat="58.1929972186" lon="8.05141388327">
		<tag k="alt_name" v="Gjusnesøya" />
		<tag k="name" v="Justnesøya" />
		<tag k="place" v="island" />
		<tag k="ssr:stedsnr" v="789019" />
	</node>
	<node id="-333676" lat="58.1213611067" lon="8.17629443838">
		<tag k="fixme" v="consider seamark:type=rock or natural=shoal" />
		<tag k="name" v="Rabbeskjærane" />
		<tag k="place" v="islet" />
		<tag k="ssr:stedsnr" v="786878" />
	</node>
	<node id="-333666" lat="58.1150555559" lon="8.10558056304">
		<tag k="name" v="Vrengen" />
		<tag k="natural" v="strait" />
		<tag k="ssr:stedsnr" v="774681" />
	</node>
	<node id="-333665" lat="58.1383972261" lon="8.18957778449">
		<tag k="bay" v="fjord" />
		<tag k="name" v="Kvåsefjorden" />
		<tag k="natural" v="bay" />
		<tag k="ssr:stedsnr" v="774671" />
	</node>
	<node id="-333664" lat="58.1358027787" lon="8.17787222609">
		<tag k="name" v="Unnevika" />
		<tag k="natural" v="bay" />
		<tag k="ssr:stedsnr" v="774668" />
	</node>
	<node id="-333662" lat="58.1434083369" lon="8.01944721599">
		<tag k="name" v="Kirkebukta" />
		<tag k="natural" v="bay" />
		<tag k="ssr:stedsnr" v="774656" />
	</node>
	<node id="-333651" lat="58.0956194479" lon="8.03196666155">
		<tag k="name" v="Kinn" />
		<tag k="place" v="island" />
		<tag k="ssr:stedsnr" v="774441" />
	</node>
	<node id="-333644" lat="58.0728166681" lon="7.98494999526">
		<tag k="name" v="Skjevetreane" />
		<tag k="natural" v="bay" />
		<tag k="ssr:stedsnr" v="774380" />
	</node>
	<node id="-333643" lat="58.0731777796" lon="7.98303332991">
		<tag k="name" v="Brattestø" />
		<tag k="natural" v="bay" />
		<tag k="ssr:stedsnr" v="774381" />
	</node>
	<node id="-333642" lat="58.0827305554" lon="7.99571944775">
		<tag k="fixme" v="consider seamark:type=rock or natural=shoal" />
		<tag k="name" v="Olavskjær" />
		<tag k="place" v="islet" />
		<tag k="ssr:stedsnr" v="774377" />
	</node>
	<node id="-333639" lat="58.0790499977" lon="8.02483333195">
		<tag k="fixme" v="consider seamark:type=rock or natural=shoal" />
		<tag k="name" v="Stegeskjær" />
		<tag k="place" v="islet" />
		<tag k="ssr:stedsnr" v="774366" />
	</node>
	<node id="-333635" lat="58.108719448" lon="7.99804444083">
		<tag k="name" v="Piningsundet" />
		<tag k="natural" v="strait" />
		<tag k="ssr:stedsnr" v="774347" />
	</node>
	<node id="-333634" lat="58.0797972206" lon="8.02483611556">
		<tag k="alt_name" v="Skålevika" />
		<tag k="name" v="Skåleviga" />
		<tag k="natural" v="bay" />
		<tag k="ssr:stedsnr" v="774335" />
	</node>
	<node id="-333633" lat="58.1050916625" lon="8.1437083327">
		<tag k="name" v="Ramsvika" />
		<tag k="natural" v="bay" />
		<tag k="ssr:stedsnr" v="774311" />
	</node>
	<node id="-333631" lat="58.1125583337" lon="7.98404167093">
		<tag k="name" v="Løviga" />
		<tag k="natural" v="bay" />
		<tag k="ssr:stedsnr" v="774259" />
	</node>
	<node id="-333627" lat="58.0580194481" lon="7.98399166829">
		<tag k="fixme" v="consider seamark:type=rock or natural=shoal" />
		<tag k="name" v="Saltskjær" />
		<tag k="place" v="islet" />
		<tag k="ssr:stedsnr" v="774049" />
	</node>
	<node id="-333626" lat="58.0563194442" lon="7.98251389345">
		<tag k="fixme" v="consider seamark:type=rock or natural=shoal" />
		<tag k="name" v="Tjeldskjær" />
		<tag k="place" v="islet" />
		<tag k="ssr:stedsnr" v="774043" />
	</node>
	<node id="-333625" lat="58.0834888898" lon="7.93798333393">
		<tag k="name" v="Furuholmen" />
		<tag k="place" v="islet" />
		<tag k="ssr:stedsnr" v="774035" />
	</node>
	<node id="-331571" lat="58.231705458" lon="8.03073331183">
		<tag k="name" v="Kostølbukta" />
		<tag k="natural" v="bay" />
		<tag k="ssr:stedsnr" v="983041" />
	</node>
	<node id="-331782" lat="58.0748444407" lon="8.02729443687">
		<tag k="name" v="Kvistholmen" />
		<tag k="place" v="islet" />
		<tag k="ssr:stedsnr" v="45478" />
	</node>
	<node id="-331833" lat="58.0580777792" lon="7.96680000002">
		<tag k="fixme" v="consider seamark:type=rock or natural=shoal" />
		<tag k="name" v="Store Saltskjær" />
		<tag k="place" v="islet" />
		<tag k="ssr:stedsnr" v="46562" />
	</node>
	<node id="-331561" lat="58.0780296496" lon="8.0889956127">
		<tag k="name" v="Grønningsteinen" />
		<tag k="natural" v="shoal" />
		<tag k="place" v="locality" />
		<tag k="ssr:stedsnr" v="982798" />
	</node>
	<node id="-333608" lat="58.123636115" lon="8.08198055088">
		<tag k="name" v="Furuholmen" />
		<tag k="place" v="islet" />
		<tag k="ssr:stedsnr" v="773513" />
	</node>
	<node id="-331559" lat="58.1213080044" lon="8.08323016843">
		<tag k="name" v="Teistholmflaket" />
		<tag k="natural" v="strait" />
		<tag k="ssr:stedsnr" v="982750" />
	</node>
	<node id="-333606" lat="58.0713694415" lon="8.02336667073">
		<tag k="name" v="Vestre Akstholmsund" />
		<tag k="natural" v="strait" />
		<tag k="ssr:stedsnr" v="773467" />
	</node>
	<node id="-333604" lat="58.0972527818" lon="8.1113944499">
		<tag k="name" v="Pynten" />
		<tag k="natural" v="cape" />
		<tag k="ssr:stedsnr" v="773404" />
	</node>
	<node id="-331548" lat="58.1751611077" lon="8.04323055706">
		<tag k="name" v="Blegebukta" />
		<tag k="natural" v="bay" />
		<tag k="ssr:stedsnr" v="896694" />
	</node>
	<node id="-331546" lat="58.200463888" lon="8.04877777285">
		<tag k="name" v="Jærnesbukta" />
		<tag k="natural" v="bay" />
		<tag k="ssr:stedsnr" v="896679" />
	</node>
	<node id="-331545" lat="58.0691333309" lon="8.00906666849">
		<tag k="name" v="Skyllevigholmen" />
		<tag k="place" v="islet" />
		<tag k="ssr:stedsnr" v="896664" />
	</node>
	<node id="-331540" lat="58.1366805574" lon="8.18654167227">
		<tag k="name" v="Ådnevikholmen" />
		<tag k="place" v="islet" />
		<tag k="ssr:stedsnr" v="896575" />
	</node>
	<node id="-333585" lat="58.0822805548" lon="8.04038056099">
		<tag k="name" v="Steinen" />
		<tag k="place" v="locality" />
		<tag k="seamark:type" v="rock" />
		<tag k="ssr:stedsnr" v="767717" />
	</node>
	<node id="-333584" lat="58.0474611093" lon="8.00839721589">
		<tag k="name" v="Småseibåane" />
		<tag k="place" v="locality" />
		<tag k="seamark:type" v="rock" />
		<tag k="ssr:stedsnr" v="767547" />
	</node>
	<node id="-333583" lat="58.0439416667" lon="7.96233333306">
		<tag k="name" v="Blåstholmbåen" />
		<tag k="place" v="locality" />
		<tag k="seamark:type" v="rock" />
		<tag k="ssr:stedsnr" v="767505" />
	</node>
	<node id="-333582" lat="58.1476777785" lon="8.03751666019">
		<tag k="name" v="Gleodden" />
		<tag k="natural" v="cape" />
		<tag k="ssr:stedsnr" v="765059" />
	</node>
	<node id="-333581" lat="58.115955555" lon="7.97781110502">
		<tag k="alt_name" v="Lyngholmene" />
		<tag k="name" v="Lyngholmane" />
		<tag k="place" v="islet" />
		<tag k="ssr:stedsnr" v="764198" />
	</node>
	<node id="-333580" lat="58.1060222264" lon="7.98165833187">
		<tag k="name" v="Kastholmen" />
		<tag k="place" v="islet" />
		<tag k="ssr:stedsnr" v="764186" />
	</node>
	<node id="-333579" lat="58.1281555569" lon="7.97810555892">
		<tag k="name" v="Geitholmen" />
		<tag k="natural" v="cape" />
		<tag k="ssr:stedsnr" v="764130" />
	</node>
	<node id="-333578" lat="58.1380972192" lon="8.00631944751">
		<tag k="name" v="Karanteneholmen" />
		<tag k="place" v="islet" />
		<tag k="ssr:stedsnr" v="762207" />
	</node>
	<node id="-333577" lat="58.1234138884" lon="8.04912221852">
		<tag k="name" v="Tueboen" />
		<tag k="place" v="islet" />
		<tag k="ssr:stedsnr" v="762205" />
	</node>
	<node id="-333576" lat="58.1061666673" lon="8.06347777731">
		<tag k="name" v="Terneholmen" />
		<tag k="place" v="islet" />
		<tag k="ssr:stedsnr" v="762182" />
	</node>
	<node id="-333575" lat="58.1314361132" lon="8.0470388831">
		<tag k="name" v="Kjerkesundet" />
		<tag k="natural" v="strait" />
		<tag k="ssr:stedsnr" v="762046" />
	</node>
	<node id="-333574" lat="58.1357750036" lon="8.04796110749">
		<tag k="name" v="Lyngøysundet" />
		<tag k="natural" v="strait" />
		<tag k="ssr:stedsnr" v="762044" />
	</node>
	<node id="-333573" lat="58.1211083357" lon="8.05908055922">
		<tag k="name" v="Trollholmen" />
		<tag k="place" v="islet" />
		<tag k="ssr:stedsnr" v="762035" />
	</node>
	<node id="-331522" lat="58.0781888846" lon="8.01837221859">
		<tag k="name" v="Teinebakken" />
		<tag k="natural" v="bay" />
		<tag k="ssr:stedsnr" v="896320" />
	</node>
	<node id="-331521" lat="58.0726777798" lon="8.02562221425">
		<tag k="name" v="Østre Akstholmsund" />
		<tag k="natural" v="strait" />
		<tag k="ssr:stedsnr" v="896309" />
	</node>
	<node id="-331520" lat="58.0961527823" lon="8.10746111341">
		<tag k="name" v="Tangesund" />
		<tag k="natural" v="strait" />
		<tag k="ssr:stedsnr" v="896292" />
	</node>
	<node id="-331519" lat="58.063827777" lon="7.97765278357">
		<tag k="alt_name" v="Beltevika" />
		<tag k="name" v="Belteviga" />
		<tag k="natural" v="bay" />
		<tag k="ssr:stedsnr" v="896274" />
	</node>
	<node id="-331517" lat="58.0800861106" lon="7.98111388836">
		<tag k="alt_name" v="Kjeldevika" />
		<tag k="name" v="Kjeldeviga" />
		<tag k="natural" v="bay" />
		<tag k="ssr:stedsnr" v="896257" />
	</node>
	<node id="-331506" lat="58.190497222" lon="8.08119999645">
		<tag k="name" v="Hamresanden" />
		<tag k="natural" v="beach" />
		<tag k="place" v="locality" />
		<tag k="ssr:stedsnr" v="895915" />
	</node>
	<node id="-333543" lat="58.2151527742" lon="8.05912222878">
		<tag k="alt_name" v="Kjevik-hvalvika" />
		<tag k="name" v="Hvalvika" />
		<tag k="natural" v="bay" />
		<tag k="ssr:stedsnr" v="756144" />
	</node>
	<node id="-331489" lat="58.0684722204" lon="8.01986665975">
		<tag k="fixme" v="consider seamark:type=rock or natural=shoal" />
		<tag k="name" v="Straboskjær" />
		<tag k="place" v="islet" />
		<tag k="ssr:stedsnr" v="895480" />
	</node>
	<node id="-332069" lat="58.0542499983" lon="8.01869721517">
		<tag k="alt_name" v="Svarten, store" />
		<tag k="fixme" v="consider seamark:type=rock or natural=shoal" />
		<tag k="name" v="Store Svarten" />
		<tag k="place" v="islet" />
		<tag k="ssr:stedsnr" v="121327" />
	</node>
	<node id="-333530" lat="58.1390861068" lon="8.04281110635">
		<tag k="name" v="Kjeltringholmen" />
		<tag k="place" v="islet" />
		<tag k="ssr:stedsnr" v="753342" />
	</node>
	<node id="-333529" lat="58.135386157" lon="7.98039539848">
		<tag k="name" v="Binesboen" />
		<tag k="place" v="locality" />
		<tag k="seamark:type" v="rock" />
		<tag k="ssr:stedsnr" v="753340" />
	</node>
	<node id="-331480" lat="58.0477194452" lon="7.96442500587">
		<tag k="fixme" v="consider seamark:type=rock or natural=shoal" />
		<tag k="name" v="Kristenskjær" />
		<tag k="place" v="islet" />
		<tag k="ssr:stedsnr" v="896562" />
	</node>
	<node id="-331479" lat="58.0770444403" lon="8.05356111317">
		<tag k="name" v="Oksøyholmen" />
		<tag k="place" v="islet" />
		<tag k="ssr:stedsnr" v="896553" />
	</node>
	<node id="-331478" lat="58.2079027754" lon="8.0632722289">
		<tag k="alt_name" v="Bjerkvika" />
		<tag k="name" v="Bjørkvika" />
		<tag k="natural" v="bay" />
		<tag k="ssr:stedsnr" v="896504" />
	</node>
	<node id="-331471" lat="58.0640388852" lon="7.97351110546">
		<tag k="name" v="Volleholmen" />
		<tag k="place" v="islet" />
		<tag k="ssr:stedsnr" v="895061" />
	</node>
	<node id="-333516" lat="58.109811112" lon="8.15573888241">
		<tag k="alt_name" v="Revsund" />
		<tag k="name" v="Revsundet" />
		<tag k="natural" v="strait" />
		<tag k="ssr:stedsnr" v="751432" />
	</node>
	<node id="-333515" lat="58.1044976022" lon="8.1462763444">
		<tag k="name" v="Stangodden" />
		<tag k="natural" v="cape" />
		<tag k="ssr:stedsnr" v="728689" />
	</node>
	<node id="-331383" lat="58.0615722245" lon="7.99417221493">
		<tag k="fixme" v="consider seamark:type=rock or natural=shoal" />
		<tag k="name" v="Saltskjær" />
		<tag k="place" v="islet" />
		<tag k="ssr:stedsnr" v="409443" />
	</node>
	<node id="-331460" lat="58.117939177" lon="8.10698390861">
		<tag k="name" v="Vrånesbukta" />
		<tag k="natural" v="bay" />
		<tag k="ssr:stedsnr" v="888729" />
	</node>
	<node id="-331459" lat="58.0575083345" lon="8.0194722225">
		<tag k="fixme" v="consider seamark:type=rock or natural=shoal" />
		<tag k="name" v="Bryteskjærene" />
		<tag k="place" v="islet" />
		<tag k="ssr:stedsnr" v="888524" />
	</node>
	<node id="-331458" lat="58.0999888919" lon="7.98308610618">
		<tag k="name" v="Nesebukta" />
		<tag k="natural" v="bay" />
		<tag k="ssr:stedsnr" v="279245" />
	</node>
	<node id="-331457" lat="58.1067499965" lon="7.97700555612">
		<tag k="name" v="Nattholmen" />
		<tag k="place" v="islet" />
		<tag k="ssr:stedsnr" v="886223" />
	</node>
	<node id="-331456" lat="58.1184305532" lon="7.97188333483">
		<tag k="name" v="Fiskåbukta" />
		<tag k="natural" v="bay" />
		<tag k="ssr:stedsnr" v="886220" />
	</node>
	<node id="-331455" lat="58.1444444474" lon="8.03055555589">
		<tag k="name" v="Kuholmane" />
		<tag k="place" v="islet" />
		<tag k="ssr:stedsnr" v="884182" />
	</node>
	<node id="-331454" lat="58.1200833338" lon="7.99796110378">
		<tag k="name" v="Bragdøyrenna" />
		<tag k="natural" v="strait" />
		<tag k="ssr:stedsnr" v="884177" />
	</node>
	<node id="-331453" lat="58.1289333302" lon="8.00148056048">
		<tag k="name" v="Dybingen" />
		<tag k="natural" v="strait" />
		<tag k="ssr:stedsnr" v="884178" />
	</node>
	<node id="-333498" lat="58.0490722186" lon="8.01721111776">
		<tag k="alt_name" v="Svarten, lille" />
		<tag k="fixme" v="consider seamark:type=rock or natural=shoal" />
		<tag k="name" v="Lille Svarten" />
		<tag k="place" v="islet" />
		<tag k="ssr:stedsnr" v="728329" />
	</node>
	<node id="-333495" lat="58.069105559" lon="8.03281667372">
		<tag k="name" v="Grønningrenna" />
		<tag k="natural" v="strait" />
		<tag k="ssr:stedsnr" v="728291" />
	</node>
	<node id="-333485" lat="58.0913166711" lon="8.01811944884">
		<tag k="alt_name" v="Risøya, lille" />
		<tag k="name" v="Lille Risøya" />
		<tag k="place" v="islet" />
		<tag k="ssr:stedsnr" v="728139" />
	</node>
	<node id="-333484" lat="58.1031305512" lon="8.01346945149">
		<tag k="name" v="Skjede" />
		<tag k="place" v="islet" />
		<tag k="ssr:stedsnr" v="728128" />
	</node>
	<node id="-331432" lat="58.0678527798" lon="8.03813333244">
		<tag k="name" v="Smågrønningane" />
		<tag k="place" v="islet" />
		<tag k="ssr:stedsnr" v="410535" />
	</node>
	<node id="-331431" lat="58.0692361079" lon="8.05406944274">
		<tag k="fixme" v="consider seamark:type=rock or natural=shoal" />
		<tag k="name" v="Andersskjær" />
		<tag k="place" v="islet" />
		<tag k="ssr:stedsnr" v="410532" />
	</node>
	<node id="-331428" lat="58.1981527736" lon="8.07046667422">
		<tag k="name" v="Langesanden" />
		<tag k="natural" v="beach" />
		<tag k="place" v="locality" />
		<tag k="ssr:stedsnr" v="410487" />
	</node>
	<node id="-331427" lat="58.1751138882" lon="8.08099167162">
		<tag k="name" v="Vigvollsbukta" />
		<tag k="natural" v="bay" />
		<tag k="ssr:stedsnr" v="410463" />
	</node>
	<node id="-333468" lat="58.078477779" lon="8.01719165844">
		<tag k="name" v="Gamlestranda" />
		<tag k="natural" v="beach" />
		<tag k="place" v="locality" />
		<tag k="ssr:stedsnr" v="714274" />
	</node>
	<node id="-333467" lat="58.0746249999" lon="7.98431388184">
		<tag k="alt_name" v="Grønnevika" />
		<tag k="name" v="Grønneviga" />
		<tag k="natural" v="bay" />
		<tag k="ssr:stedsnr" v="714221" />
	</node>
	<node id="-331416" lat="58.0844583375" lon="8.01989444979">
		<tag k="name" v="Steinviga" />
		<tag k="natural" v="bay" />
		<tag k="ssr:stedsnr" v="410320" />
	</node>
	<node id="-331414" lat="58.0948333311" lon="7.97384999401">
		<tag k="name" v="Kjerregårdsbukta" />
		<tag k="natural" v="bay" />
		<tag k="ssr:stedsnr" v="410276" />
	</node>
	<node id="-331413" lat="58.0617777789" lon="7.98650000647">
		<tag k="name" v="Stemdalsfjorden" />
		<tag k="natural" v="bay" />
		<tag k="ssr:stedsnr" v="410267" />
	</node>
	<node id="-331408" lat="58.0583083322" lon="7.97911110733">
		<tag k="name" v="Daumannsholmen" />
		<tag k="place" v="islet" />
		<tag k="ssr:stedsnr" v="410039" />
	</node>
	<node id="-333445" lat="58.1273222259" lon="8.17051943608">
		<tag k="name" v="Bremnes" />
		<tag k="natural" v="cape" />
		<tag k="ssr:stedsnr" v="713676" />
	</node>
	<node id="-333443" lat="58.166100003" lon="8.04146666424">
		<tag k="name" v="Narviga" />
		<tag k="natural" v="strait" />
		<tag k="ssr:stedsnr" v="713653" />
	</node>
	<node id="-333441" lat="58.1906916648" lon="8.05583334006">
		<tag k="alt_name" v="Solvika" />
		<tag k="name" v="Solviga" />
		<tag k="natural" v="bay" />
		<tag k="ssr:stedsnr" v="713645" />
	</node>
	<node id="-331392" lat="58.1618555532" lon="8.07948055203">
		<tag k="name" v="Nottangen" />
		<tag k="natural" v="cape" />
		<tag k="ssr:stedsnr" v="409665" />
	</node>
	<node id="-331391" lat="58.1938055531" lon="8.04122500421">
		<tag k="name" v="Hatten" />
		<tag k="natural" v="cape" />
		<tag k="ssr:stedsnr" v="409628" />
	</node>
	<node id="-332100" lat="58.1208166674" lon="7.99736388871">
		<tag k="name" v="Langøya" />
		<tag k="place" v="island" />
		<tag k="ssr:stedsnr" v="145344" />
	</node>
	<node id="-333436" lat="58.1224944435" lon="8.07342777304">
		<tag k="name" v="Furuholmen" />
		<tag k="place" v="islet" />
		<tag k="ssr:stedsnr" v="713605" />
	</node>
	<node id="-333432" lat="58.0669194422" lon="7.97454722821">
		<tag k="alt_name" v="Engelsvika" />
		<tag k="name" v="Engelsviga" />
		<tag k="natural" v="bay" />
		<tag k="ssr:stedsnr" v="713593" />
	</node>
	<node id="-333431" lat="58.1344222223" lon="8.17468889682">
		<tag k="name" v="Neset" />
		<tag k="natural" v="cape" />
		<tag k="ssr:stedsnr" v="713558" />
	</node>
	<node id="-333430" lat="58.1334833343" lon="8.18330833549">
		<tag k="name" v="Unnevikholmen" />
		<tag k="place" v="islet" />
		<tag k="ssr:stedsnr" v="713552" />
	</node>
	<node id="-333429" lat="58.0548166651" lon="7.97210832508">
		<tag k="fixme" v="consider seamark:type=rock or natural=shoal" />
		<tag k="name" v="Trivelskjærane" />
		<tag k="place" v="islet" />
		<tag k="ssr:stedsnr" v="713551" />
	</node>
	<node id="-331380" lat="58.1074694487" lon="8.08749165996">
		<tag k="name" v="Ledholmen" />
		<tag k="place" v="islet" />
		<tag k="ssr:stedsnr" v="409396" />
	</node>
	<node id="-333427" lat="58.0832277804" lon="8.03092500401">
		<tag k="fixme" v="consider seamark:type=rock or natural=shoal" />
		<tag k="name" v="Seilskjær" />
		<tag k="place" v="islet" />
		<tag k="ssr:stedsnr" v="713504" />
	</node>
	<node id="-333426" lat="58.0842444421" lon="8.02799722645">
		<tag k="fixme" v="consider seamark:type=rock or natural=shoal" />
		<tag k="name" v="Langeskjær" />
		<tag k="place" v="islet" />
		<tag k="ssr:stedsnr" v="713499" />
	</node>
	<node id="-333424" lat="58.0979777769" lon="7.98180277547">
		<tag k="fixme" v="consider seamark:type=rock or natural=shoal" />
		<tag k="name" v="Ringskjær" />
		<tag k="place" v="islet" />
		<tag k="ssr:stedsnr" v="713486" />
	</node>
	<node id="-333422" lat="58.0905638924" lon="7.9919611054">
		<tag k="name" v="Naudetangen" />
		<tag k="natural" v="cape" />
		<tag k="ssr:stedsnr" v="713448" />
	</node>
	<node id="-333419" lat="58.1332722182" lon="8.06722222444">
		<tag k="alt_name" v="Valsvik" />
		<tag k="name" v="Valsvig" />
		<tag k="natural" v="bay" />
		<tag k="ssr:stedsnr" v="713435" />
	</node>
	<node id="-331367" lat="58.0597333346" lon="7.97608332941">
		<tag k="name" v="Ytre Gråholmene" />
		<tag k="place" v="islet" />
		<tag k="ssr:stedsnr" v="409091" />
	</node>
	<node id="-333416" lat="58.09058889" lon="7.92900277752">
		<tag k="name" v="Fløa" />
		<tag k="natural" v="bay" />
		<tag k="ssr:stedsnr" v="713403" />
	</node>
	<node id="-333415" lat="58.0634944478" lon="7.95699721913">
		<tag k="fixme" v="consider seamark:type=rock or natural=shoal" />
		<tag k="name" v="Ankerskjær" />
		<tag k="place" v="islet" />
		<tag k="ssr:stedsnr" v="713396" />
	</node>
	<node id="-333413" lat="58.0905805561" lon="8.10280832976">
		<tag k="name" v="Ytre Kalvøy" />
		<tag k="place" v="island" />
		<tag k="ssr:stedsnr" v="713387" />
	</node>
	<node id="-333408" lat="58.231341664" lon="8.02308333067">
		<tag k="name" v="Holumsbukta" />
		<tag k="natural" v="bay" />
		<tag k="ssr:stedsnr" v="713349" />
	</node>
	<node id="-331359" lat="58.0554416704" lon="7.99514444712">
		<tag k="name" v="Blakken" />
		<tag k="place" v="locality" />
		<tag k="seamark:type" v="rock" />
		<tag k="ssr:stedsnr" v="403541" />
	</node>
	<node id="-331358" lat="58.0433138852" lon="8.00407499401">
		<tag k="name" v="Hallkjerbåane" />
		<tag k="place" v="locality" />
		<tag k="seamark:type" v="rock" />
		<tag k="ssr:stedsnr" v="403536" />
	</node>
	<node id="-333405" lat="58.0799277794" lon="8.00306666057">
		<tag k="name" v="Ytre Lindebøkil" />
		<tag k="natural" v="bay" />
		<tag k="ssr:stedsnr" v="713283" />
	</node>
	<node id="-331355" lat="58.1584361089" lon="8.04691389718">
		<tag k="name" v="Vikeboen" />
		<tag k="place" v="locality" />
		<tag k="seamark:type" v="rock" />
		<tag k="ssr:stedsnr" v="400062" />
	</node>
	<node id="-331353" lat="58.1588833303" lon="8.04394445262">
		<tag k="name" v="Ringknuteodden" />
		<tag k="natural" v="cape" />
		<tag k="ssr:stedsnr" v="400060" />
	</node>
	<node id="-331352" lat="58.1426527734" lon="8.00556389628">
		<tag k="name" v="Østerhavna" />
		<tag k="natural" v="bay" />
		<tag k="old_name" v="Austerhavna" />
		<tag k="ssr:stedsnr" v="398208" />
	</node>
	<node id="-331351" lat="58.1407166672" lon="8.04575555439">
		<tag k="name" v="Lyngøybukta" />
		<tag k="natural" v="bay" />
		<tag k="ssr:stedsnr" v="398041" />
	</node>
	<node id="-333393" lat="58.0645500029" lon="7.97531388914">
		<tag k="name" v="Engelsholmane" />
		<tag k="place" v="islet" />
		<tag k="ssr:stedsnr" v="713052" />
	</node>
	<node id="-331341" lat="58.1252416689" lon="8.08441388409">
		<tag k="name" v="Rabbersvik" />
		<tag k="natural" v="bay" />
		<tag k="ssr:stedsnr" v="392385" />
	</node>
	<node id="-333383" lat="58.0615611132" lon="8.05522221758">
		<tag k="name" v="Torkelsbåane" />
		<tag k="natural" v="shoal" />
		<tag k="place" v="locality" />
		<tag k="ssr:stedsnr" v="706670" />
	</node>
	<node id="-333382" lat="58.1356277767" lon="7.98361389026">
		<tag k="bay" v="fjord" />
		<tag k="name" v="Vesterhavn" />
		<tag k="natural" v="bay" />
		<tag k="ssr:stedsnr" v="704147" />
	</node>
	<node id="-333381" lat="58.1218777817" lon="7.97274999415">
		<tag k="name" v="Ytre Jaktoddboen" />
		<tag k="place" v="locality" />
		<tag k="seamark:type" v="rock" />
		<tag k="ssr:stedsnr" v="704140" />
	</node>
	<node id="-333380" lat="58.1435611122" lon="8.01958888299">
		<tag k="name" v="Blomsbukta" />
		<tag k="natural" v="bay" />
		<tag k="old_name" v="Sogndalstøbukta" />
		<tag k="ssr:stedsnr" v="702186" />
	</node>
	<node id="-333379" lat="58.1452861068" lon="8.01366388741">
		<tag k="fixme" v="consider seamark:type=rock or natural=shoal" />
		<tag k="name" v="Sugga" />
		<tag k="place" v="islet" />
		<tag k="ssr:stedsnr" v="702183" />
	</node>
	<node id="-333378" lat="58.1385250039" lon="7.99319722222">
		<tag k="fixme" v="consider seamark:type=rock or natural=shoal" />
		<tag k="name" v="Gravskjæra" />
		<tag k="place" v="islet" />
		<tag k="ssr:stedsnr" v="702137" />
	</node>
	<node id="-333365" lat="58.1152083298" lon="8.10915000495">
		<tag k="alt_name" v="Kirkevik" />
		<tag k="name" v="Kirkeviga" />
		<tag k="natural" v="bay" />
		<tag k="ssr:stedsnr" v="695355" />
	</node>
	<node id="-331311" lat="58.197108332" lon="8.0411138857">
		<tag k="name" v="Terneholmen" />
		<tag k="place" v="islet" />
		<tag k="ssr:stedsnr" v="389368" />
	</node>
	<node id="-333358" lat="58.2215666661" lon="8.04606666856">
		<tag k="name" v="Gråmsløpet" />
		<tag k="natural" v="strait" />
		<tag k="ssr:stedsnr" v="695200" />
	</node>
	<node id="-331357" lat="58.1118888852" lon="7.97388610668">
		<tag k="name" v="Kyresundet" />
		<tag k="natural" v="strait" />
		<tag k="old_name" v="Kyrsundet" />
		<tag k="ssr:stedsnr" v="400213" />
	</node>
	<node id="-333352" lat="58.2124666678" lon="8.06059165873">
		<tag k="name" v="Kjevikhvalvika" />
		<tag k="natural" v="bay" />
		<tag k="ssr:stedsnr" v="695167" />
	</node>
	<node id="-332037" lat="58.0654361147" lon="8.00248611047">
		<tag k="alt_name" v="Barlønnvika" />
		<tag k="name" v="Barlønnviga" />
		<tag k="natural" v="bay" />
		<tag k="ssr:stedsnr" v="107581" />
	</node>
	<node id="-331292" lat="58.0613805543" lon="8.01119721808">
		<tag k="alt_name" v="Saltskjær" />
		<tag k="fixme" v="consider seamark:type=rock or natural=shoal" />
		<tag k="name" v="Saltskjer" />
		<tag k="place" v="islet" />
		<tag k="ssr:stedsnr" v="387566" />
	</node>
	<node id="-331291" lat="58.0921833323" lon="8.15389722621">
		<tag k="name" v="Vestre Seihausane" />
		<tag k="natural" v="shoal" />
		<tag k="place" v="locality" />
		<tag k="ssr:stedsnr" v="387449" />
	</node>
	<node id="-333338" lat="58.1198916644" lon="8.05748334028">
		<tag k="fixme" v="consider seamark:type=rock or natural=shoal" />
		<tag k="name" v="Saltsekken" />
		<tag k="place" v="islet" />
		<tag k="ssr:stedsnr" v="692338" />
	</node>
	<node id="-331289" lat="58.1037611123" lon="8.15784999504">
		<tag k="name" v="Toveboen" />
		<tag k="place" v="locality" />
		<tag k="seamark:type" v="rock" />
		<tag k="ssr:stedsnr" v="387411" />
	</node>
	<node id="-331287" lat="58.0999750001" lon="8.13131111421">
		<tag k="name" v="Strandholmen" />
		<tag k="place" v="islet" />
		<tag k="ssr:stedsnr" v="364736" />
	</node>
	<node id="-333330" lat="58.079641666" lon="8.10734444597">
		<tag k="name" v="Rabbehausen" />
		<tag k="natural" v="shoal" />
		<tag k="place" v="locality" />
		<tag k="ssr:stedsnr" v="691469" />
	</node>
	<node id="-333329" lat="58.0833916624" lon="8.20732221872">
		<tag k="name" v="Sørenshausen" />
		<tag k="natural" v="shoal" />
		<tag k="place" v="locality" />
		<tag k="ssr:stedsnr" v="691467" />
	</node>
	<node id="-333328" lat="58.0778833304" lon="8.13365276966">
		<tag k="name" v="Østre Skogrunnen" />
		<tag k="natural" v="shoal" />
		<tag k="place" v="locality" />
		<tag k="ssr:stedsnr" v="691444" />
	</node>
	<node id="-331279" lat="58.1132666695" lon="8.15803610472">
		<tag k="name" v="Storholmen" />
		<tag k="place" v="islet" />
		<tag k="ssr:stedsnr" v="364526" />
	</node>
	<node id="-333326" lat="58.0881416642" lon="8.11922500025">
		<tag k="name" v="Randholmen" />
		<tag k="place" v="islet" />
		<tag k="ssr:stedsnr" v="667673" />
	</node>
	<node id="-331274" lat="58.0606777821" lon="8.01465554806">
		<tag k="alt_name" v="Lindøy, ytre" />
		<tag k="name" v="Ytre Lindøy" />
		<tag k="place" v="islet" />
		<tag k="ssr:stedsnr" v="364338" />
	</node>
	<node id="-331268" lat="58.073299996" lon="7.98492778377">
		<tag k="alt_name" v="Kjørskilen;Kjerskilen;Kilen" />
		<tag k="name" v="Kjærskilen" />
		<tag k="natural" v="bay" />
		<tag k="ssr:stedsnr" v="364189" />
	</node>
	<node id="-331267" lat="58.094344442" lon="7.99979443924">
		<tag k="alt_name" v="Flekkholmen" />
		<tag k="name" v="Flekkeholmen" />
		<tag k="place" v="islet" />
		<tag k="ssr:stedsnr" v="364187" />
	</node>
	<node id="-333313" lat="58.0970138929" lon="7.99171944605">
		<tag k="name" v="Vestergapet" />
		<tag k="natural" v="strait" />
		<tag k="ssr:stedsnr" v="667177" />
	</node>
	<node id="-333312" lat="58.093391669" lon="7.97510833277">
		<tag k="name" v="Kroodden" />
		<tag k="natural" v="cape" />
		<tag k="ssr:stedsnr" v="667175" />
	</node>
	<node id="-331256" lat="58.1217277763" lon="8.18871388085">
		<tag k="name" v="Klovholmskjær" />
		<tag k="place" v="islet" />
		<tag k="ssr:stedsnr" v="361872" />
	</node>
	<node id="-333301" lat="58.0910888927" lon="7.92503333566">
		<tag k="alt_name" v="Sandvikdalsbukta" />
		<tag k="name" v="Sandvigdalsbukta" />
		<tag k="natural" v="bay" />
		<tag k="ssr:stedsnr" v="653329" />
	</node>
	<node id="-333298" lat="58.0790055589" lon="8.01388333949">
		<tag k="name" v="Skibbusundet" />
		<tag k="natural" v="strait" />
		<tag k="ssr:stedsnr" v="653292" />
	</node>
	<node id="-333296" lat="58.0605222195" lon="7.98257221831">
		<tag k="alt_name" v="Østre Langevik" />
		<tag k="name" v="Østre Langeviga" />
		<tag k="natural" v="bay" />
		<tag k="ssr:stedsnr" v="653244" />
	</node>
	<node id="-331241" lat="58.0809833357" lon="8.00410277182">
		<tag k="alt_name" v="Sellevik" />
		<tag k="name" v="Selleviga" />
		<tag k="natural" v="bay" />
		<tag k="ssr:stedsnr" v="349601" />
	</node>
	<node id="-331240" lat="58.0792535491" lon="8.00883025028">
		<tag k="name" v="Bursholmen" />
		<tag k="place" v="islet" />
		<tag k="ssr:stedsnr" v="349558" />
	</node>
	<node id="-331239" lat="58.0905944412" lon="8.03063888362">
		<tag k="fixme" v="consider seamark:type=rock or natural=shoal" />
		<tag k="name" v="Nilsesskjærane" />
		<tag k="place" v="islet" />
		<tag k="ssr:stedsnr" v="349548" />
	</node>
	<node id="-331238" lat="58.1222722186" lon="8.08809167238">
		<tag k="alt_name" v="Karensvika" />
		<tag k="name" v="Karensviga" />
		<tag k="natural" v="bay" />
		<tag k="ssr:stedsnr" v="349533" />
	</node>
	<node id="-333285" lat="58.1844527785" lon="8.08538610403">
		<tag k="name" v="Grovika" />
		<tag k="natural" v="bay" />
		<tag k="ssr:stedsnr" v="652926" />
	</node>
	<node id="-331235" lat="58.0649888902" lon="7.97144721593">
		<tag k="name" v="Ugelholmen" />
		<tag k="place" v="islet" />
		<tag k="ssr:stedsnr" v="349476" />
	</node>
	<node id="-331226" lat="58.0823500034" lon="8.02659444294">
		<tag k="name" v="Kjøgebukta" />
		<tag k="natural" v="bay" />
		<tag k="ssr:stedsnr" v="349357" />
	</node>
	<node id="-331225" lat="58.101488886" lon="8.10323333055">
		<tag k="name" v="Kirkesund" />
		<tag k="natural" v="strait" />
		<tag k="ssr:stedsnr" v="349353" />
	</node>
	<node id="-331224" lat="58.0943916624" lon="8.1016333341">
		<tag k="name" v="Kalvøysund" />
		<tag k="natural" v="strait" />
		<tag k="ssr:stedsnr" v="349347" />
	</node>
	<node id="-333268" lat="58.1955666674" lon="8.05016110376">
		<tag k="name" v="Grautholmen" />
		<tag k="place" v="islet" />
		<tag k="ssr:stedsnr" v="652673" />
	</node>
	<node id="-331216" lat="58.0838416641" lon="7.96946667126">
		<tag k="name" v="Lille Fosseholmen" />
		<tag k="place" v="islet" />
		<tag k="ssr:stedsnr" v="349065" />
	</node>
	<node id="-333263" lat="58.1026194416" lon="7.93401110528">
		<tag k="alt_name" v="Sandvika" />
		<tag k="name" v="Sandviga" />
		<tag k="natural" v="bay" />
		<tag k="ssr:stedsnr" v="652567" />
	</node>
	<node id="-331214" lat="58.064224997" lon="7.97180833481">
		<tag k="name" v="Persknagg" />
		<tag k="natural" v="cape" />
		<tag k="ssr:stedsnr" v="349042" />
	</node>
	<node id="-333261" lat="58.0759472224" lon="8.0265250071">
		<tag k="name" v="Krossholmsundet" />
		<tag k="natural" v="strait" />
		<tag k="ssr:stedsnr" v="652551" />
	</node>
	<node id="-333259" lat="58.1294250041" lon="8.18217500731">
		<tag k="name" v="Pålsholmen" />
		<tag k="place" v="islet" />
		<tag k="ssr:stedsnr" v="652525" />
	</node>
	<node id="-333258" lat="58.0552749956" lon="7.96567221637">
		<tag k="fixme" v="consider seamark:type=rock or natural=shoal" />
		<tag k="name" v="Boelskjær" />
		<tag k="place" v="islet" />
		<tag k="ssr:stedsnr" v="652517" />
	</node>
	<node id="-333257" lat="58.083644441" lon="8.02883054821">
		<tag k="fixme" v="consider seamark:type=rock or natural=shoal" />
		<tag k="name" v="Rundeskjær" />
		<tag k="place" v="islet" />
		<tag k="ssr:stedsnr" v="652477" />
	</node>
	<node id="-333255" lat="58.0854972198" lon="7.99047499764">
		<tag k="name" v="Bråbenken" />
		<tag k="place" v="islet" />
		<tag k="ssr:stedsnr" v="652457" />
	</node>
	<node id="-333254" lat="58.0765527809" lon="7.98986667044">
		<tag k="name" v="Naudetangen" />
		<tag k="natural" v="cape" />
		<tag k="ssr:stedsnr" v="652447" />
	</node>
	<node id="-333249" lat="58.1026749961" lon="7.93506388975">
		<tag k="name" v="Kilstøa" />
		<tag k="natural" v="bay" />
		<tag k="ssr:stedsnr" v="652383" />
	</node>
	<node id="-333243" lat="58.1072694478" lon="8.11000555601">
		<tag k="name" v="Sauetangen" />
		<tag k="natural" v="cape" />
		<tag k="ssr:stedsnr" v="652351" />
	</node>
	<node id="-333239" lat="58.1697055601" lon="8.08239722854">
		<tag k="name" v="Slagedalsbukta" />
		<tag k="natural" v="bay" />
		<tag k="ssr:stedsnr" v="652301" />
	</node>
	<node id="-331189" lat="58.1107444468" lon="8.11411110627">
		<tag k="alt_name" v="Mannevik" />
		<tag k="name" v="Manneviga" />
		<tag k="natural" v="bay" />
		<tag k="ssr:stedsnr" v="348362" />
	</node>
	<node id="-333234" lat="58.076155559" lon="8.00581388546">
		<tag k="name" v="Vraget" />
		<tag k="natural" v="cape" />
		<tag k="ssr:stedsnr" v="652270" />
	</node>
	<node id="-333233" lat="58.1010888859" lon="8.14283054829">
		<tag k="name" v="Diggensvika" />
		<tag k="natural" v="bay" />
		<tag k="ssr:stedsnr" v="652241" />
	</node>
	<node id="-333231" lat="58.0596083297" lon="7.97030555402">
		<tag k="name" v="Verevika" />
		<tag k="natural" v="bay" />
		<tag k="ssr:stedsnr" v="652228" />
	</node>
	<node id="-333230" lat="58.0844972225" lon="7.99367778488">
		<tag k="alt_name" v="Skudevika" />
		<tag k="name" v="Skudeviga" />
		<tag k="natural" v="bay" />
		<tag k="ssr:stedsnr" v="652205" />
	</node>
	<node id="-331179" lat="58.0715666698" lon="8.04561944238">
		<tag k="fixme" v="consider seamark:type=rock or natural=shoal" />
		<tag k="name" v="Åleskjærane" />
		<tag k="place" v="islet" />
		<tag k="ssr:stedsnr" v="342641" />
	</node>
	<node id="-331178" lat="58.0512055595" lon="8.02438888319">
		<tag k="name" v="Lybsken" />
		<tag k="place" v="locality" />
		<tag k="seamark:type" v="rock" />
		<tag k="ssr:stedsnr" v="342637" />
	</node>
	<node id="-331177" lat="58.0568444464" lon="8.05407777635">
		<tag k="name" v="Haraldsbåane" />
		<tag k="natural" v="shoal" />
		<tag k="place" v="locality" />
		<tag k="ssr:stedsnr" v="342634" />
	</node>
	<node id="-331176" lat="58.0445472225" lon="7.98284722263">
		<tag k="name" v="Larsbåane" />
		<tag k="place" v="locality" />
		<tag k="seamark:type" v="rock" />
		<tag k="ssr:stedsnr" v="342450" />
	</node>
	<node id="-331175" lat="58.1500222244" lon="8.05079166488">
		<tag k="name" v="Søndre Sømsbukt" />
		<tag k="natural" v="bay" />
		<tag k="ssr:stedsnr" v="340058" />
	</node>
	<node id="-333216" lat="58.159158334" lon="8.04407500274">
		<tag k="alt_name" v="Urvika" />
		<tag k="name" v="Urviga" />
		<tag k="natural" v="bay" />
		<tag k="ssr:stedsnr" v="651699" />
	</node>
	<node id="-333210" lat="58.0547972214" lon="8.03949166182">
		<tag k="name" v="Indre Jakobsbåen" />
		<tag k="place" v="locality" />
		<tag k="seamark:type" v="rock" />
		<tag k="ssr:stedsnr" v="645667" />
	</node>
	<node id="-333209" lat="58.1038666682" lon="7.98596111361">
		<tag k="name" v="Gjessestredet" />
		<tag k="natural" v="strait" />
		<tag k="ssr:stedsnr" v="643248" />
	</node>
	<node id="-333208" lat="58.1320305554" lon="7.97201666027">
		<tag k="name" v="Myrbukta" />
		<tag k="natural" v="bay" />
		<tag k="ssr:stedsnr" v="643169" />
	</node>
	<node id="-333207" lat="58.1220416627" lon="7.97974166747">
		<tag k="name" v="Lille Timlingen" />
		<tag k="place" v="islet" />
		<tag k="ssr:stedsnr" v="643162" />
	</node>
	<node id="-333206" lat="58.1217277822" lon="7.96956388084">
		<tag k="name" v="Jaktodden" />
		<tag k="natural" v="cape" />
		<tag k="ssr:stedsnr" v="643159" />
	</node>
	<node id="-333204" lat="58.1530888885" lon="8.05126944802">
		<tag k="name" v="Nordre Sømsbukt" />
		<tag k="natural" v="bay" />
		<tag k="ssr:stedsnr" v="643068" />
	</node>
	<node id="-333202" lat="58.1346138877" lon="8.06121944081">
		<tag k="name" v="Knarrevikholmen" />
		<tag k="old_name" v="Knarvikholmen" />
		<tag k="place" v="islet" />
		<tag k="ssr:stedsnr" v="641034" />
	</node>
	<node id="-331145" lat="58.217130557" lon="8.05402223018">
		<tag k="name" v="Gyrestolen" />
		<tag k="natural" v="cape" />
		<tag k="ssr:stedsnr" v="331176" />
	</node>
	<node id="-330986" lat="58.0845972186" lon="7.94129722384">
		<tag k="alt_name" v="Breivika" />
		<tag k="name" v="Breiviga" />
		<tag k="natural" v="bay" />
		<tag k="ssr:stedsnr" v="288051" />
	</node>
	<node id="-331125" lat="58.1424333341" lon="8.01749722323">
		<tag k="name" v="Galgebergtangen" />
		<tag k="natural" v="cape" />
		<tag k="ssr:stedsnr" v="328359" />
	</node>
	<node id="-331124" lat="58.1392583321" lon="8.03601110625">
		<tag k="alt_name" v="Kjerkeboen" />
		<tag k="name" v="Kirkeboen" />
		<tag k="place" v="locality" />
		<tag k="seamark:type" v="rock" />
		<tag k="ssr:stedsnr" v="328353" />
	</node>
	<node id="-331123" lat="58.1219277816" lon="8.0051249938">
		<tag k="name" v="Ragnhildsholmen" />
		<tag k="place" v="islet" />
		<tag k="ssr:stedsnr" v="328350" />
	</node>
	<node id="-331122" lat="58.1205861134" lon="7.98083611015">
		<tag k="fixme" v="multiple name tags, choose one and add the other to alt_name" />
		<tag k="name" v="Store Timlingen;Timlingen" />
		<tag k="place" v="islet" />
		<tag k="ssr:stedsnr" v="328348" />
	</node>
	<node id="-331121" lat="58.2030722201" lon="8.05330554983">
		<tag k="alt_name" v="Bellevika" />
		<tag k="name" v="Belleviga" />
		<tag k="natural" v="bay" />
		<tag k="ssr:stedsnr" v="328287" />
	</node>
	<node id="-331113" lat="58.0833666674" lon="8.11461111366">
		<tag k="name" v="Randholmskjæret" />
		<tag k="place" v="islet" />
		<tag k="ssr:stedsnr" v="327451" />
	</node>
	<node id="-331112" lat="58.0801972203" lon="8.18767222612">
		<tag k="name" v="Ytre Hausane" />
		<tag k="natural" v="shoal" />
		<tag k="place" v="locality" />
		<tag k="ssr:stedsnr" v="327450" />
	</node>
	<node id="-331111" lat="58.0906833362" lon="8.19852500511">
		<tag k="name" v="Fisken" />
		<tag k="place" v="locality" />
		<tag k="seamark:type" v="rock" />
		<tag k="ssr:stedsnr" v="327403" />
	</node>
	<node id="-331110" lat="58.0877055584" lon="8.13034443756">
		<tag k="name" v="Vestboen" />
		<tag k="place" v="locality" />
		<tag k="seamark:type" v="rock" />
		<tag k="ssr:stedsnr" v="327401" />
	</node>
	<node id="-331109" lat="58.1034805551" lon="8.17258333817">
		<tag k="name" v="Leidegrunnen" />
		<tag k="natural" v="shoal" />
		<tag k="place" v="locality" />
		<tag k="ssr:stedsnr" v="327372" />
	</node>
	<node id="-331108" lat="58.1185000037" lon="8.02767778274">
		<tag k="bay" v="fjord" />
		<tag k="fixme" v="multiple name tags, choose one and add the other to alt_name" />
		<tag k="name" v="Byfjorden;Kristiansandsfjorden" />
		<tag k="natural" v="bay" />
		<tag k="ssr:stedsnr" v="327331" />
	</node>
	<node id="-333030" lat="58.0967472236" lon="8.1048027849">
		<tag k="name" v="Tjuvholmen" />
		<tag k="place" v="islet" />
		<tag k="ssr:stedsnr" v="591385" />
	</node>
	<node id="-333153" lat="58.0761777821" lon="8.10553333491">
		<tag k="name" v="Ytre Steinen" />
		<tag k="natural" v="shoal" />
		<tag k="place" v="locality" />
		<tag k="ssr:stedsnr" v="630474" />
	</node>
	<node id="-333152" lat="58.0830638909" lon="8.10866666884">
		<tag k="alt_name" v="Langskjærene" />
		<tag k="name" v="Langskjærane" />
		<tag k="place" v="islet" />
		<tag k="ssr:stedsnr" v="630437" />
	</node>
	<node id="-333151" lat="58.0826000002" lon="8.13134999444">
		<tag k="name" v="Teinegrunnen" />
		<tag k="natural" v="shoal" />
		<tag k="place" v="locality" />
		<tag k="ssr:stedsnr" v="630431" />
	</node>
	<node id="-333150" lat="58.0996444406" lon="8.12430278506">
		<tag k="name" v="Engelsboen" />
		<tag k="place" v="locality" />
		<tag k="seamark:type" v="rock" />
		<tag k="ssr:stedsnr" v="630407" />
	</node>
	<node id="-333149" lat="58.1044638897" lon="7.98667500789">
		<tag k="name" v="Madeira" />
		<tag k="place" v="island" />
		<tag k="ssr:stedsnr" v="630376" />
	</node>
	<node id="-333148" lat="58.1010555516" lon="8.08602499674">
		<tag k="name" v="Selskjær" />
		<tag k="place" v="locality" />
		<tag k="seamark:type" v="rock" />
		<tag k="ssr:stedsnr" v="630366" />
	</node>
	<node id="-331089" lat="58.0648694445" lon="8.04380555306">
		<tag k="name" v="Oksøykalven" />
		<tag k="place" v="islet" />
		<tag k="ssr:stedsnr" v="303331" />
	</node>
	<node id="-331088" lat="58.0690277733" lon="7.98949999633">
		<tag k="alt_name" v="Flekkerøy" />
		<tag k="name" v="Flekkerøya" />
		<tag k="place" v="island" />
		<tag k="ssr:stedsnr" v="303324" />
	</node>
	<node id="-333132" lat="58.0694249982" lon="8.04221665928">
		<tag k="name" v="Skorenna" />
		<tag k="natural" v="strait" />
		<tag k="ssr:stedsnr" v="606313" />
	</node>
	<node id="-333131" lat="58.0655722182" lon="8.01931944002">
		<tag k="alt_name" v="Lindøy, indre" />
		<tag k="name" v="Indre Lindøy" />
		<tag k="place" v="islet" />
		<tag k="ssr:stedsnr" v="606309" />
	</node>
	<node id="-333117" lat="58.1025111084" lon="7.98642221973">
		<tag k="name" v="Sumatra" />
		<tag k="place" v="islet" />
		<tag k="ssr:stedsnr" v="606147" />
	</node>
	<node id="-331066" lat="58.0715472187" lon="7.96354167295">
		<tag k="alt_name" v="Mannevika" />
		<tag k="name" v="Manneviga" />
		<tag k="natural" v="bay" />
		<tag k="ssr:stedsnr" v="289688" />
	</node>
	<node id="-331065" lat="58.1525833373" lon="8.12491111601">
		<tag k="name" v="Drangestrand" />
		<tag k="natural" v="bay" />
		<tag k="ssr:stedsnr" v="289652" />
	</node>
	<node id="-331062" lat="58.0670277783" lon="8.00313889132">
		<tag k="alt_name" v="Stølsvika" />
		<tag k="name" v="Stølsviga" />
		<tag k="natural" v="bay" />
		<tag k="ssr:stedsnr" v="289608" />
	</node>
	<node id="-333109" lat="58.1566138887" lon="8.04687776929">
		<tag k="bay" v="fjord" />
		<tag k="name" v="Topdalsfjorden" />
		<tag k="natural" v="bay" />
		<tag k="old_name" v="Tovdalsfjorden" />
		<tag k="ssr:stedsnr" v="606028" />
	</node>
	<node id="-331059" lat="58.0586194482" lon="7.96238333878">
		<tag k="fixme" v="consider seamark:type=rock or natural=shoal" />
		<tag k="name" v="Hansskjær" />
		<tag k="place" v="islet" />
		<tag k="ssr:stedsnr" v="289557" />
	</node>
	<node id="-331055" lat="58.1682694472" lon="8.08314444753">
		<tag k="name" v="Hånesbukta" />
		<tag k="natural" v="bay" />
		<tag k="ssr:stedsnr" v="289455" />
	</node>
	<node id="-333102" lat="58.1160416625" lon="8.14962777266">
		<tag k="name" v="Sodefjedkilen" />
		<tag k="natural" v="bay" />
		<tag k="ssr:stedsnr" v="592676" />
	</node>
	<node id="-333101" lat="58.0694000028" lon="8.00772777073">
		<tag k="name" v="Skylleviga" />
		<tag k="natural" v="bay" />
		<tag k="ssr:stedsnr" v="592657" />
	</node>
	<node id="-333099" lat="58.1648999974" lon="8.07092221846">
		<tag k="name" v="Ronsbukta" />
		<tag k="natural" v="bay" />
		<tag k="ssr:stedsnr" v="592639" />
	</node>
	<node id="-333098" lat="58.1311888934" lon="8.14244443966">
		<tag k="name" v="Dolsvågkilen" />
		<tag k="natural" v="bay" />
		<tag k="ssr:stedsnr" v="592618" />
	</node>
	<node id="-333096" lat="58.0659111083" lon="7.97782500729">
		<tag k="name" v="Raufidja" />
		<tag k="natural" v="bay" />
		<tag k="ssr:stedsnr" v="592599" />
	</node>
	<node id="-333095" lat="58.0738527808" lon="8.05393333386">
		<tag k="name" v="Oksøy" />
		<tag k="place" v="island" />
		<tag k="ssr:stedsnr" v="592562" />
	</node>
	<node id="-333094" lat="58.0543916655" lon="7.96516944095">
		<tag k="name" v="Knutsknupp" />
		<tag k="place" v="islet" />
		<tag k="ssr:stedsnr" v="592556" />
	</node>
	<node id="-331045" lat="58.0967888881" lon="7.93267777499">
		<tag k="name" v="Rona" />
		<tag k="place" v="locality" />
		<tag k="ssr:stedsnr" v="289340" />
	</node>
	<node id="-331040" lat="58.0780138853" lon="8.00789166941">
		<tag k="name" v="Mæbøsfjorden" />
		<tag k="natural" v="bay" />
		<tag k="ssr:stedsnr" v="289290" />
	</node>
	<node id="-331039" lat="58.1077916632" lon="8.10844722572">
		<tag k="name" v="Stokksund" />
		<tag k="natural" v="strait" />
		<tag k="ssr:stedsnr" v="289277" />
	</node>
	<node id="-331038" lat="58.0685138908" lon="7.97631666083">
		<tag k="name" v="Hvalbukta" />
		<tag k="natural" v="bay" />
		<tag k="ssr:stedsnr" v="289253" />
	</node>
	<node id="-331037" lat="58.0788166659" lon="7.97474999221">
		<tag k="alt_name" v="Rislevika" />
		<tag k="name" v="Risleviga" />
		<tag k="natural" v="bay" />
		<tag k="ssr:stedsnr" v="289250" />
	</node>
	<node id="-331036" lat="58.0827972203" lon="7.99425556244">
		<tag k="name" v="Lindebøkilen" />
		<tag k="natural" v="bay" />
		<tag k="ssr:stedsnr" v="289228" />
	</node>
	<node id="-333082" lat="58.0698027745" lon="7.96361944651">
		<tag k="alt_name" v="Laksevika" />
		<tag k="name" v="Lakseviga" />
		<tag k="natural" v="bay" />
		<tag k="ssr:stedsnr" v="592359" />
	</node>
	<node id="-333078" lat="58.0750027763" lon="8.00755832991">
		<tag k="fixme" v="consider seamark:type=rock or natural=shoal" />
		<tag k="name" v="Kondeskjær" />
		<tag k="place" v="islet" />
		<tag k="ssr:stedsnr" v="592342" />
	</node>
	<node id="-333076" lat="58.1123944409" lon="8.09632222143">
		<tag k="fixme" v="consider seamark:type=rock or natural=shoal" />
		<tag k="name" v="Bakmannskjær" />
		<tag k="place" v="islet" />
		<tag k="ssr:stedsnr" v="592322" />
	</node>
	<node id="-333075" lat="58.2208555584" lon="8.04224166237">
		<tag k="name" v="Kvevika" />
		<tag k="natural" v="bay" />
		<tag k="ssr:stedsnr" v="592321" />
	</node>
	<node id="-333072" lat="58.1067138893" lon="8.10117222031">
		<tag k="alt_name" v="Vrakevika" />
		<tag k="name" v="Vrageviga" />
		<tag k="natural" v="bay" />
		<tag k="ssr:stedsnr" v="592303" />
	</node>
	<node id="-333070" lat="58.0795416643" lon="7.95706111748">
		<tag k="name" v="Båsen" />
		<tag k="natural" v="bay" />
		<tag k="ssr:stedsnr" v="592294" />
	</node>
	<node id="-333069" lat="58.0879722247" lon="7.99153333263">
		<tag k="alt_name" v="Kvennesvika" />
		<tag k="name" v="Kvennesviga" />
		<tag k="natural" v="bay" />
		<tag k="ssr:stedsnr" v="592274" />
	</node>
	<node id="-333068" lat="58.0822001769" lon="7.98833923997">
		<tag k="name" v="Søylekilene" />
		<tag k="natural" v="bay" />
		<tag k="ssr:stedsnr" v="592271" />
	</node>
	<node id="-331018" lat="58.1970888851" lon="8.03471389163">
		<tag k="name" v="Tangen" />
		<tag k="natural" v="cape" />
		<tag k="ssr:stedsnr" v="288683" />
	</node>
	<node id="-333061" lat="58.1273944448" lon="8.08228888275">
		<tag k="name" v="Mortensholmen" />
		<tag k="place" v="islet" />
		<tag k="ssr:stedsnr" v="591991" />
	</node>
	<node id="-331007" lat="58.0755555523" lon="8.02221111546">
		<tag k="name" v="Mågeholmen" />
		<tag k="place" v="islet" />
		<tag k="ssr:stedsnr" v="288465" />
	</node>
	<node id="-331006" lat="58.07942222" lon="8.00646666888">
		<tag k="name" v="Kvistholmen" />
		<tag k="place" v="islet" />
		<tag k="ssr:stedsnr" v="288454" />
	</node>
	<node id="-331004" lat="58.0741361069" lon="8.02433889135">
		<tag k="name" v="Persholmen" />
		<tag k="place" v="islet" />
		<tag k="ssr:stedsnr" v="288440" />
	</node>
	<node id="-331003" lat="58.096388887" lon="7.98304999576">
		<tag k="alt_name" v="Fredriksholmen" />
		<tag k="name" v="Fredriksholm" />
		<tag k="place" v="islet" />
		<tag k="ssr:stedsnr" v="288428" />
	</node>
	<node id="-331001" lat="58.0596388926" lon="7.96413888146">
		<tag k="fixme" v="consider seamark:type=rock or natural=shoal" />
		<tag k="name" v="Anniskjær" />
		<tag k="place" v="islet" />
		<tag k="ssr:stedsnr" v="288385" />
	</node>
	<node id="-331000" lat="58.0834388877" lon="8.10134999191">
		<tag k="fixme" v="consider seamark:type=rock or natural=shoal" />
		<tag k="name" v="Kråkerøyskjærene" />
		<tag k="place" v="islet" />
		<tag k="ssr:stedsnr" v="288360" />
	</node>
	<node id="-333038" lat="58.0774777801" lon="8.01721944838">
		<tag k="fixme" v="consider seamark:type=rock or natural=shoal" />
		<tag k="name" v="Geiderøyskjærane" />
		<tag k="place" v="islet" />
		<tag k="ssr:stedsnr" v="591479" />
	</node>
	<node id="-333037" lat="58.0780222227" lon="8.01415833522">
		<tag k="name" v="Store Geiderøy" />
		<tag k="place" v="islet" />
		<tag k="ssr:stedsnr" v="591480" />
	</node>
	<node id="-333036" lat="58.0778527789" lon="8.02022222896">
		<tag k="name" v="Eigenes" />
		<tag k="natural" v="cape" />
		<tag k="ssr:stedsnr" v="591457" />
	</node>
	<node id="-333035" lat="58.1161416636" lon="7.97929999979">
		<tag k="name" v="Grasholmen" />
		<tag k="place" v="islet" />
		<tag k="ssr:stedsnr" v="591454" />
	</node>
	<node id="-333034" lat="58.0802444475" lon="7.98258888843">
		<tag k="name" v="Kjeldeviktangen" />
		<tag k="natural" v="cape" />
		<tag k="ssr:stedsnr" v="591445" />
	</node>
	<node id="-330984" lat="58.1361416656" lon="8.05883888348">
		<tag k="name" v="Gåseholmen" />
		<tag k="place" v="islet" />
		<tag k="ssr:stedsnr" v="287567" />
	</node>
	<node id="-330982" lat="58.2293777751" lon="8.04263056162">
		<tag k="name" v="Breivika" />
		<tag k="natural" v="bay" />
		<tag k="ssr:stedsnr" v="28209" />
	</node>
	<node id="-333027" lat="58.1106666653" lon="8.11950834023">
		<tag k="name" v="Grønnvik" />
		<tag k="natural" v="bay" />
		<tag k="ssr:stedsnr" v="591349" />
	</node>
	<node id="-330978" lat="58.0674611117" lon="8.05749166121">
		<tag k="name" v="Dollen" />
		<tag k="place" v="locality" />
		<tag k="seamark:type" v="rock" />
		<tag k="ssr:stedsnr" v="282676" />
	</node>
	<node id="-330977" lat="58.0748222183" lon="8.06285833143">
		<tag k="name" v="Skipbåen" />
		<tag k="place" v="locality" />
		<tag k="seamark:type" v="rock" />
		<tag k="ssr:stedsnr" v="282675" />
	</node>
	<node id="-330976" lat="58.0519333321" lon="8.03626388455">
		<tag k="name" v="Mellom Jakobsbåen" />
		<tag k="place" v="locality" />
		<tag k="seamark:type" v="rock" />
		<tag k="ssr:stedsnr" v="282652" />
	</node>
	<node id="-330975" lat="58.0518388871" lon="8.01561111126">
		<tag k="name" v="Eriksbåen" />
		<tag k="place" v="locality" />
		<tag k="seamark:type" v="rock" />
		<tag k="ssr:stedsnr" v="282551" />
	</node>
	<node id="-333022" lat="58.0806722229" lon="7.96247222058">
		<tag k="fixme" v="consider seamark:type=rock or natural=shoal" />
		<tag k="name" v="Svarteskjær" />
		<tag k="place" v="islet" />
		<tag k="ssr:stedsnr" v="591036" />
	</node>
	<node id="-330971" lat="58.1419111069" lon="8.01863055649">
		<tag k="fixme" v="consider seamark:type=rock or natural=shoal" />
		<tag k="name" v="Ånenskjæret" />
		<tag k="place" v="islet" />
		<tag k="ssr:stedsnr" v="277173" />
	</node>
	<node id="-330970" lat="58.0957833337" lon="7.999930558">
		<tag k="fixme" v="consider seamark:type=rock or natural=shoal" />
		<tag k="name" v="Flekkholmskjæret" />
		<tag k="place" v="islet" />
		<tag k="ssr:stedsnr" v="277166" />
	</node>
	<node id="-330969" lat="58.1374611119" lon="7.9757999991">
		<tag k="name" v="Nordodden" />
		<tag k="natural" v="cape" />
		<tag k="ssr:stedsnr" v="277114" />
	</node>
	<node id="-330968" lat="58.1425527743" lon="7.98032500498">
		<tag k="name" v="Rundingen" />
		<tag k="natural" v="cape" />
		<tag k="ssr:stedsnr" v="277112" />
	</node>
	<node id="-333013" lat="58.1912805554" lon="8.07063055227">
		<tag k="name" v="Fugløyna" />
		<tag k="natural" v="cape" />
		<tag k="ssr:stedsnr" v="590006" />
	</node>
	<node id="-333011" lat="58.0911666639" lon="7.97605832827">
		<tag k="name" v="Driterholmen" />
		<tag k="place" v="islet" />
		<tag k="ssr:stedsnr" v="584760" />
	</node>
	<node id="-333010" lat="58.0597388919" lon="8.02434445263">
		<tag k="name" v="Indre Stølsvikbåen" />
		<tag k="place" v="locality" />
		<tag k="seamark:type" v="rock" />
		<tag k="ssr:stedsnr" v="584710" />
	</node>
	<node id="-333009" lat="58.0442277822" lon="8.01881945046">
		<tag k="name" v="Storseibåen" />
		<tag k="place" v="locality" />
		<tag k="seamark:type" v="rock" />
		<tag k="ssr:stedsnr" v="584570" />
	</node>
	<node id="-333007" lat="58.1421611097" lon="8.05043888328">
		<tag k="name" v="Furuholmen" />
		<tag k="place" v="islet" />
		<tag k="ssr:stedsnr" v="580031" />
	</node>
	<node id="-330947" lat="58.2294333378" lon="8.03530277288">
		<tag k="fixme" v="consider seamark:type=rock or natural=shoal" />
		<tag k="name" v="Selskjærane" />
		<tag k="place" v="islet" />
		<tag k="ssr:stedsnr" v="271194" />
	</node>
	<node id="-331976" lat="58.076719444" lon="8.02606944056">
		<tag k="name" v="Simensholmen" />
		<tag k="place" v="islet" />
		<tag k="ssr:stedsnr" v="106472" />
	</node>
	<node id="-331975" lat="58.0864805542" lon="8.02452222411">
		<tag k="fixme" v="consider seamark:type=rock or natural=shoal" />
		<tag k="name" v="Vasskjær" />
		<tag k="place" v="islet" />
		<tag k="ssr:stedsnr" v="106471" />
	</node>
	<node id="-331974" lat="58.0752653148" lon="8.0256930638">
		<tag k="name" v="Krossholmen" />
		<tag k="place" v="islet" />
		<tag k="ssr:stedsnr" v="106469" />
	</node>
	<node id="-332961" lat="58.2086194482" lon="8.05028333521">
		<tag k="alt_name" v="Selviktangen" />
		<tag k="name" v="Selvigtangen" />
		<tag k="natural" v="cape" />
		<tag k="ssr:stedsnr" v="571339" />
	</node>
	<node id="-331973" lat="58.0927999981" lon="7.99643889694">
		<tag k="name" v="Flekkerøyodden" />
		<tag k="natural" v="cape" />
		<tag k="ssr:stedsnr" v="106440" />
	</node>
	<node id="-331290" lat="58.1009833291" lon="8.06828056388">
		<tag k="name" v="Kuttinggrunnen" />
		<tag k="natural" v="shoal" />
		<tag k="place" v="locality" />
		<tag k="ssr:stedsnr" v="387419" />
	</node>
	<node id="-332952" lat="58.0795416641" lon="8.12928888337">
		<tag k="name" v="Vestre Skogrunnen" />
		<tag k="natural" v="shoal" />
		<tag k="place" v="locality" />
		<tag k="ssr:stedsnr" v="570393" />
	</node>
	<node id="-332945" lat="58.0997194424" lon="8.1469500039">
		<tag k="alt_name" v="Lille Håskjær" />
		<tag k="name" v="Håskjærane" />
		<tag k="place" v="locality" />
		<tag k="seamark:type" v="rock" />
		<tag k="ssr:stedsnr" v="569444" />
	</node>
	<node id="-332944" lat="58.0967000014" lon="8.153486108">
		<tag k="name" v="Nordre Knattane" />
		<tag k="natural" v="shoal" />
		<tag k="place" v="locality" />
		<tag k="ssr:stedsnr" v="569433" />
	</node>
	<node id="-332943" lat="58.108666668" lon="7.99906110903">
		<tag k="name" v="Andholmen" />
		<tag k="place" v="islet" />
		<tag k="ssr:stedsnr" v="569393" />
	</node>
	<node id="-332936" lat="58.1210527803" lon="8.12565554762">
		<tag k="name" v="Stølekilen" />
		<tag k="natural" v="bay" />
		<tag k="ssr:stedsnr" v="546477" />
	</node>
	<node id="-332929" lat="58.0519666635" lon="7.95737222458">
		<tag k="alt_name" v="Kjøbenhavnskjer;Københavnskjær" />
		<tag k="name" v="Kjøbenhavnskjær" />
		<tag k="place" v="islet" />
		<tag k="ssr:stedsnr" v="546306" />
	</node>
	<node id="-332928" lat="58.05651389" lon="7.96574443921">
		<tag k="alt_name" v="Trehøvlingen" />
		<tag k="name" v="Trehøvlingane" />
		<tag k="place" v="islet" />
		<tag k="ssr:stedsnr" v="546304" />
	</node>
	<node id="-332916" lat="58.1881861116" lon="8.05230277375">
		<tag k="name" v="Kristofferholmen" />
		<tag k="place" v="islet" />
		<tag k="ssr:stedsnr" v="546028" />
	</node>
	<node id="-332904" lat="58.1452888875" lon="8.0252083265">
		<tag k="name" v="Kuholmsbukta" />
		<tag k="natural" v="bay" />
		<tag k="ssr:stedsnr" v="531944" />
	</node>
	<node id="-332903" lat="58.1443361106" lon="8.03034167454">
		<tag k="name" v="Fantholmen" />
		<tag k="place" v="islet" />
		<tag k="ssr:stedsnr" v="531936" />
	</node>
	<node id="-331281" lat="58.1321194488" lon="8.19371666516">
		<tag k="alt_name" v="Svarteskjær" />
		<tag k="fixme" v="consider seamark:type=rock or natural=shoal" />
		<tag k="name" v="Svarteskjer" />
		<tag k="place" v="islet" />
		<tag k="ssr:stedsnr" v="364561" />
	</node>
	<node id="-332898" lat="58.0831888866" lon="8.09073888687">
		<tag k="name" v="Terneholmen" />
		<tag k="place" v="islet" />
		<tag k="ssr:stedsnr" v="531664" />
	</node>
	<node id="-332890" lat="58.0890749991" lon="7.93428334053">
		<tag k="name" v="Bukkenesbukta" />
		<tag k="natural" v="bay" />
		<tag k="ssr:stedsnr" v="531612" />
	</node>
	<node id="-332889" lat="58.111586115" lon="8.10206945036">
		<tag k="alt_name" v="Pramvika" />
		<tag k="name" v="Pramviga" />
		<tag k="natural" v="bay" />
		<tag k="ssr:stedsnr" v="531604" />
	</node>
	<node id="-332886" lat="58.0558861146" lon="7.96248332949">
		<tag k="fixme" v="consider seamark:type=rock or natural=shoal" />
		<tag k="name" v="Skipper Andersens skjær" />
		<tag k="place" v="islet" />
		<tag k="ssr:stedsnr" v="531565" />
	</node>
	<node id="-332885" lat="58.0491861104" lon="7.97002500184">
		<tag k="fixme" v="consider seamark:type=rock or natural=shoal" />
		<tag k="name" v="Flanderku" />
		<tag k="place" v="islet" />
		<tag k="ssr:stedsnr" v="531559" />
	</node>
	<node id="-332884" lat="58.0669499995" lon="8.05033889595">
		<tag k="fixme" v="consider seamark:type=rock or natural=shoal" />
		<tag k="name" v="Ingebretskjærane" />
		<tag k="place" v="islet" />
		<tag k="ssr:stedsnr" v="531552" />
	</node>
	<node id="-332883" lat="58.0658111079" lon="8.05663610602">
		<tag k="fixme" v="consider seamark:type=rock or natural=shoal" />
		<tag k="name" v="Makrellskjærane" />
		<tag k="place" v="islet" />
		<tag k="ssr:stedsnr" v="531551" />
	</node>
	<node id="-332881" lat="58.073358333" lon="8.02689167188">
		<tag k="name" v="Klovholmen" />
		<tag k="place" v="islet" />
		<tag k="ssr:stedsnr" v="531503" />
	</node>
	<node id="-332879" lat="58.0809750038" lon="7.98632777158">
		<tag k="name" v="Sildenestangen" />
		<tag k="natural" v="cape" />
		<tag k="ssr:stedsnr" v="531484" />
	</node>
	<node id="-332878" lat="58.0732194426" lon="7.98692778347">
		<tag k="name" v="Strandebakken" />
		<tag k="natural" v="bay" />
		<tag k="ssr:stedsnr" v="531482" />
	</node>
	<node id="-332876" lat="58.0711416695" lon="8.00975555169">
		<tag k="name" v="Børsholmen" />
		<tag k="place" v="islet" />
		<tag k="ssr:stedsnr" v="531479" />
	</node>
	<node id="-332875" lat="58.0834027777" lon="7.99499999415">
		<tag k="name" v="Fidjestø" />
		<tag k="natural" v="bay" />
		<tag k="ssr:stedsnr" v="531471" />
	</node>
	<node id="-332874" lat="58.1203861097" lon="8.09898610505">
		<tag k="name" v="Holterona" />
		<tag k="natural" v="bay" />
		<tag k="ssr:stedsnr" v="531455" />
	</node>
	<node id="-332867" lat="58.2118055515" lon="8.04578610539">
		<tag k="name" v="Føreidbukta" />
		<tag k="natural" v="bay" />
		<tag k="ssr:stedsnr" v="531382" />
	</node>
	<node id="-332866" lat="58.092819441" lon="7.93275000488">
		<tag k="name" v="Holskogkilen" />
		<tag k="natural" v="bay" />
		<tag k="ssr:stedsnr" v="531356" />
	</node>
	<node id="-332862" lat="58.0843250004" lon="8.024247226">
		<tag k="name" v="Høyemed" />
		<tag k="natural" v="strait" />
		<tag k="ssr:stedsnr" v="531329" />
	</node>
	<node id="-332861" lat="58.0805861072" lon="8.02960555238">
		<tag k="name" v="Senholmsundet" />
		<tag k="natural" v="strait" />
		<tag k="ssr:stedsnr" v="531317" />
	</node>
	<node id="-332860" lat="58.080319441" lon="8.00991943624">
		<tag k="name" v="Kvennesviga" />
		<tag k="natural" v="bay" />
		<tag k="ssr:stedsnr" v="531292" />
	</node>
	<node id="-332858" lat="58.1312361112" lon="8.17779722186">
		<tag k="name" v="Kilen" />
		<tag k="natural" v="bay" />
		<tag k="ssr:stedsnr" v="531283" />
	</node>
	<node id="-332857" lat="58.0862194449" lon="7.95932499454">
		<tag k="name" v="Kålandsbukt" />
		<tag k="natural" v="bay" />
		<tag k="ssr:stedsnr" v="531279" />
	</node>
	<node id="-332856" lat="58.0615611068" lon="7.9829249928">
		<tag k="name" v="Sildeholet" />
		<tag k="natural" v="bay" />
		<tag k="ssr:stedsnr" v="531265" />
	</node>
	<node id="-332852" lat="58.0740361118" lon="7.96490555144">
		<tag k="name" v="Svåane" />
		<tag k="natural" v="bay" />
		<tag k="ssr:stedsnr" v="531043" />
	</node>
	<node id="-332843" lat="58.139469447" lon="8.06075833255">
		<tag k="name" v="Knarrevik" />
		<tag k="natural" v="bay" />
		<tag k="ssr:stedsnr" v="530747" />
	</node>
	<node id="-332841" lat="58.1907194481" lon="8.05706944096">
		<tag k="name" v="Øynetangen" />
		<tag k="natural" v="cape" />
		<tag k="ssr:stedsnr" v="530683" />
	</node>
	<node id="-332840" lat="58.1249277813" lon="8.1707888828">
		<tag k="name" v="Grevholmen" />
		<tag k="place" v="islet" />
		<tag k="ssr:stedsnr" v="530641" />
	</node>
	<node id="-332838" lat="58.1227388877" lon="8.08423610833">
		<tag k="name" v="Lamholmen" />
		<tag k="place" v="islet" />
		<tag k="ssr:stedsnr" v="530554" />
	</node>
	<node id="-332818" lat="58.069722223" lon="8.01786666662">
		<tag k="bay" v="fjord" />
		<tag k="name" v="Målsfjorden" />
		<tag k="natural" v="bay" />
		<tag k="ssr:stedsnr" v="524673" />
	</node>
	<node id="-332817" lat="58.0526305578" lon="8.03095833562">
		<tag k="name" v="Bjørnen" />
		<tag k="place" v="locality" />
		<tag k="seamark:type" v="rock" />
		<tag k="ssr:stedsnr" v="524652" />
	</node>
	<node id="-332816" lat="58.0554805595" lon="7.99988889056">
		<tag k="fixme" v="consider seamark:type=rock or natural=shoal" />
		<tag k="name" v="Bryteskjæret" />
		<tag k="place" v="islet" />
		<tag k="ssr:stedsnr" v="524495" />
	</node>
	<node id="-332815" lat="58.0564888934" lon="8.01518056106">
		<tag k="name" v="Haraldsbåen" />
		<tag k="place" v="locality" />
		<tag k="seamark:type" v="rock" />
		<tag k="ssr:stedsnr" v="524492" />
	</node>
	<node id="-332813" lat="58.0998861139" lon="7.98914444869">
		<tag k="fixme" v="consider seamark:type=rock or natural=shoal" />
		<tag k="name" v="Tvillingskjæra" />
		<tag k="place" v="islet" />
		<tag k="ssr:stedsnr" v="522250" />
	</node>
	<node id="-332811" lat="58.1205999973" lon="7.97794722401">
		<tag k="name" v="Timlingboen" />
		<tag k="place" v="locality" />
		<tag k="seamark:type" v="rock" />
		<tag k="ssr:stedsnr" v="522147" />
	</node>
	<node id="-332810" lat="58.1423333364" lon="8.03260000013">
		<tag k="name" v="Kuholmboen" />
		<tag k="place" v="locality" />
		<tag k="seamark:type" v="rock" />
		<tag k="ssr:stedsnr" v="520188" />
	</node>
	<node id="-332808" lat="58.1426027779" lon="7.98436665857">
		<tag k="alt_name" v="Sandvika" />
		<tag k="name" v="Sandviga" />
		<tag k="natural" v="bay" />
		<tag k="ssr:stedsnr" v="520107" />
	</node>
	<node id="-332807" lat="58.0965138877" lon="8.03294166022">
		<tag k="name" v="Kinn" />
		<tag k="natural" v="shoal" />
		<tag k="place" v="locality" />
		<tag k="ssr:stedsnr" v="519207" />
	</node>
	<node id="-332798" lat="58.1499944467" lon="8.03388610914">
		<tag k="name" v="Marviksbukta" />
		<tag k="natural" v="bay" />
		<tag k="ssr:stedsnr" v="513408" />
	</node>
	<node id="-332762" lat="58.128233332" lon="7.98919167454">
		<tag k="name" v="Kjerkeboen" />
		<tag k="place" v="locality" />
		<tag k="seamark:type" v="rock" />
		<tag k="ssr:stedsnr" v="510364" />
	</node>
	<node id="-332761" lat="58.1934472181" lon="8.05837777416">
		<tag k="name" v="Børresholmen" />
		<tag k="place" v="islet" />
		<tag k="ssr:stedsnr" v="510320" />
	</node>
	<node id="-332745" lat="58.0942138877" lon="8.15269722839">
		<tag k="name" v="Søndre Knattane" />
		<tag k="natural" v="shoal" />
		<tag k="place" v="locality" />
		<tag k="ssr:stedsnr" v="508496" />
	</node>
	<node id="-332744" lat="58.0910333335" lon="8.1591499987">
		<tag k="name" v="Østre Seihausane" />
		<tag k="natural" v="shoal" />
		<tag k="place" v="locality" />
		<tag k="ssr:stedsnr" v="508486" />
	</node>
	<node id="-332743" lat="58.0857444476" lon="8.18998610548">
		<tag k="name" v="Tustegrunnen" />
		<tag k="natural" v="shoal" />
		<tag k="place" v="locality" />
		<tag k="ssr:stedsnr" v="508479" />
	</node>
	<node id="-332742" lat="58.1082194409" lon="8.09156111678">
		<tag k="alt_name" v="Gåsholmen" />
		<tag k="name" v="Gåseholmen" />
		<tag k="place" v="islet" />
		<tag k="ssr:stedsnr" v="508460" />
	</node>
	<node id="-332734" lat="58.1112305538" lon="8.10926388046">
		<tag k="alt_name" v="Stokkholmene" />
		<tag k="name" v="Stokkholmane" />
		<tag k="place" v="islet" />
		<tag k="ssr:stedsnr" v="485477" />
	</node>
	<node id="-332499" lat="58.1042750008" lon="8.13133333409">
		<tag k="name" v="Gurisholmen" />
		<tag k="place" v="islet" />
		<tag k="ssr:stedsnr" v="266398" />
	</node>
	<node id="-332728" lat="58.0686499974" lon="8.02380834048">
		<tag k="name" v="Langøya" />
		<tag k="place" v="islet" />
		<tag k="ssr:stedsnr" v="485270" />
	</node>
	<node id="-332727" lat="58.0509138926" lon="7.96177499371">
		<tag k="alt_name" v="Flateskjer, store;Store Flateskjær" />
		<tag k="fixme" v="consider seamark:type=rock or natural=shoal" />
		<tag k="name" v="Store Fladeskjær" />
		<tag k="place" v="islet" />
		<tag k="ssr:stedsnr" v="485269" />
	</node>
	<node id="-332725" lat="58.1140833299" lon="8.00376388915">
		<tag k="alt_name" v="Hestehodet;Hesthodet" />
		<tag k="name" v="Hestehaue" />
		<tag k="place" v="islet" />
		<tag k="ssr:stedsnr" v="485200" />
	</node>
	<node id="-332724" lat="58.1177722243" lon="8.00138610351">
		<tag k="name" v="Bragdøya" />
		<tag k="place" v="island" />
		<tag k="ssr:stedsnr" v="485198" />
	</node>
	<node id="-331053" lat="58.1323694421" lon="8.08661666105">
		<tag k="name" v="Fidjekilen" />
		<tag k="natural" v="bay" />
		<tag k="ssr:stedsnr" v="289435" />
	</node>
	<node id="-332711" lat="58.1060444409" lon="7.98582499668">
		<tag k="alt_name" v="Brøvikbukta" />
		<tag k="bay" v="fjord" />
		<tag k="name" v="Brøvigbukta" />
		<tag k="natural" v="bay" />
		<tag k="ssr:stedsnr" v="485113" />
	</node>
	<node id="-332710" lat="58.1198333366" lon="8.07900833002">
		<tag k="alt_name" v="Teistholme" />
		<tag k="name" v="Teistholmen" />
		<tag k="place" v="islet" />
		<tag k="ssr:stedsnr" v="485105" />
	</node>
	<node id="-332705" lat="58.1772388891" lon="8.0476972154">
		<tag k="name" v="Paradisbukta" />
		<tag k="natural" v="bay" />
		<tag k="ssr:stedsnr" v="471631" />
	</node>
	<node id="-332704" lat="58.0794583344" lon="8.10038889165">
		<tag k="name" v="Sveringen" />
		<tag k="place" v="islet" />
		<tag k="ssr:stedsnr" v="471630" />
	</node>
	<node id="-332700" lat="58.0800333294" lon="8.08952500433">
		<tag k="name" v="Grønningen" />
		<tag k="place" v="islet" />
		<tag k="ssr:stedsnr" v="471526" />
	</node>
	<node id="-332699" lat="58.0574611082" lon="7.96306665983">
		<tag k="fixme" v="consider seamark:type=rock or natural=shoal" />
		<tag k="name" v="Ånesskjær" />
		<tag k="place" v="islet" />
		<tag k="ssr:stedsnr" v="471522" />
	</node>
	<node id="-332698" lat="58.0697666696" lon="8.0505944396">
		<tag k="fixme" v="consider seamark:type=rock or natural=shoal" />
		<tag k="name" v="Oksøyskjær" />
		<tag k="place" v="islet" />
		<tag k="ssr:stedsnr" v="471517" />
	</node>
	<node id="-332689" lat="58.091961107" lon="7.99270278471">
		<tag k="fixme" v="consider seamark:type=rock or natural=shoal" />
		<tag k="name" v="Svarteskjær" />
		<tag k="place" v="islet" />
		<tag k="ssr:stedsnr" v="471325" />
	</node>
	<node id="-332688" lat="58.0767211047" lon="7.99277006699">
		<tag k="alt_name" v="Lille Alsvikholmen" />
		<tag k="name" v="Lille Alsvigholmen" />
		<tag k="place" v="islet" />
		<tag k="ssr:stedsnr" v="471317" />
	</node>
	<node id="-332685" lat="58.0795833296" lon="8.01193611824">
		<tag k="name" v="Brattestø" />
		<tag k="natural" v="bay" />
		<tag k="ssr:stedsnr" v="471305" />
	</node>
	<node id="-332684" lat="58.0932944478" lon="7.99886666632">
		<tag k="name" v="Flekksund" />
		<tag k="natural" v="strait" />
		<tag k="ssr:stedsnr" v="471295" />
	</node>
	<node id="-332683" lat="58.0874055555" lon="8.11180277123">
		<tag k="alt_name" v="Burholmsvika" />
		<tag k="name" v="Burholmsviga" />
		<tag k="natural" v="bay" />
		<tag k="ssr:stedsnr" v="471275" />
	</node>
	<node id="-332681" lat="58.0630888873" lon="7.98906388337">
		<tag k="alt_name" v="Skiftesvika" />
		<tag k="name" v="Skiftesviga" />
		<tag k="natural" v="bay" />
		<tag k="ssr:stedsnr" v="471260" />
	</node>
	<node id="-332680" lat="58.0823000023" lon="7.99033611044">
		<tag k="name" v="Kårholmsundet" />
		<tag k="natural" v="strait" />
		<tag k="ssr:stedsnr" v="471247" />
	</node>
	<node id="-332665" lat="58.1977222197" lon="8.04096667152">
		<tag k="fixme" v="consider seamark:type=rock or natural=shoal" />
		<tag k="name" v="Luseskjæret" />
		<tag k="place" v="islet" />
		<tag k="ssr:stedsnr" v="470664" />
	</node>
	<node id="-332660" lat="58.0725896173" lon="8.01710706812">
		<tag k="fixme" v="consider seamark:type=rock or natural=shoal" />
		<tag k="name" v="Vedelskjær" />
		<tag k="place" v="islet" />
		<tag k="ssr:stedsnr" v="470481" />
	</node>
	<node id="-332659" lat="58.0732861094" lon="8.01195278581">
		<tag k="name" v="Nodeholmane" />
		<tag k="place" v="islet" />
		<tag k="ssr:stedsnr" v="470480" />
	</node>
	<node id="-332658" lat="58.1969111112" lon="8.07090555993">
		<tag k="name" v="Kjevikgrunnen" />
		<tag k="natural" v="shoal" />
		<tag k="place" v="locality" />
		<tag k="ssr:stedsnr" v="470466" />
	</node>
	<node id="-332653" lat="58.0900444489" lon="7.92837500414">
		<tag k="alt_name" v="Sandvikdalsholmen" />
		<tag k="name" v="Sandvigdalsholmen" />
		<tag k="place" v="islet" />
		<tag k="ssr:stedsnr" v="470378" />
	</node>
	<node id="-332651" lat="58.1113972236" lon="8.10494721857">
		<tag k="name" v="Stokken" />
		<tag k="place" v="island" />
		<tag k="ssr:stedsnr" v="470357" />
	</node>
	<node id="-332650" lat="58.1104027817" lon="8.11632777935">
		<tag k="name" v="Lervik" />
		<tag k="natural" v="bay" />
		<tag k="ssr:stedsnr" v="470337" />
	</node>
	<node id="-332644" lat="58.1224638888" lon="8.08739166147">
		<tag k="name" v="Sønningstangen" />
		<tag k="natural" v="cape" />
		<tag k="ssr:stedsnr" v="470093" />
	</node>
	<node id="-331579" lat="58.0701832932" lon="7.9441708745">
		<tag k="alt_name" v="Ryvingen" />
		<tag k="name" v="Store Ryvingen" />
		<tag k="place" v="island" />
		<tag k="ssr:stedsnr" v="627915" />
	</node>
	<node id="-332638" lat="58.0613361069" lon="7.97612778013">
		<tag k="name" v="Indre Gråholmene" />
		<tag k="place" v="islet" />
		<tag k="ssr:stedsnr" v="470050" />
	</node>
	<node id="-331237" lat="58.0798388855" lon="7.98842499253">
		<tag k="alt_name" v="Hestevika" />
		<tag k="name" v="Hesteviga" />
		<tag k="natural" v="bay" />
		<tag k="ssr:stedsnr" v="349525" />
	</node>
	<node id="-331577" lat="58.0712071554" lon="8.01775747147">
		<tag k="name" v="Merrabåen" />
		<tag k="place" v="locality" />
		<tag k="seamark:type" v="rock" />
		<tag k="ssr:stedsnr" v="983657" />
	</node>
	<node id="-332626" lat="58.0912472257" lon="8.08212222827">
		<tag k="name" v="Kjerkeboane" />
		<tag k="place" v="locality" />
		<tag k="seamark:type" v="rock" />
		<tag k="ssr:stedsnr" v="463745" />
	</node>
	<node id="-332625" lat="58.0526305578" lon="8.03095833562">
		<tag k="name" v="Flaget" />
		<tag k="place" v="locality" />
		<tag k="seamark:type" v="rock" />
		<tag k="ssr:stedsnr" v="463691" />
	</node>
	<node id="-332624" lat="58.0499916645" lon="8.0359444406">
		<tag k="name" v="Ytre Jakobsbåen" />
		<tag k="place" v="locality" />
		<tag k="seamark:type" v="rock" />
		<tag k="ssr:stedsnr" v="463673" />
	</node>
	<node id="-332622" lat="58.1182249971" lon="7.96435278051">
		<tag k="alt_name" v="Storenes" />
		<tag k="name" v="Storeneset" />
		<tag k="natural" v="cape" />
		<tag k="ssr:stedsnr" v="461233" />
	</node>
	<node id="-332621" lat="58.1135916655" lon="7.9878916735">
		<tag k="name" v="Halvveisodden" />
		<tag k="natural" v="cape" />
		<tag k="ssr:stedsnr" v="461228" />
	</node>
	<node id="-332620" lat="58.1298194407" lon="7.97846666707">
		<tag k="name" v="Myrodden" />
		<tag k="natural" v="cape" />
		<tag k="ssr:stedsnr" v="461147" />
	</node>
	<node id="-332619" lat="58.1425611118" lon="8.01569167322">
		<tag k="fixme" v="consider seamark:type=rock or natural=shoal" />
		<tag k="name" v="Galten" />
		<tag k="place" v="islet" />
		<tag k="ssr:stedsnr" v="459197" />
	</node>
	<node id="-332618" lat="58.0972666691" lon="8.03478610487">
		<tag k="name" v="Kinnskjæret" />
		<tag k="place" v="islet" />
		<tag k="ssr:stedsnr" v="459192" />
	</node>
	<node id="-332617" lat="58.1350027795" lon="7.99874722833">
		<tag k="name" v="Flisebukta" />
		<tag k="natural" v="bay" />
		<tag k="ssr:stedsnr" v="459182" />
	</node>
	<node id="-332613" lat="58.1194222231" lon="8.09876666629">
		<tag k="alt_name" v="Sillevika" />
		<tag k="name" v="Silleviga" />
		<tag k="natural" v="bay" />
		<tag k="ssr:stedsnr" v="453365" />
	</node>
	<node id="-331809" lat="58.0776555513" lon="8.02634722989">
		<tag k="name" v="Asperøysundet" />
		<tag k="natural" v="strait" />
		<tag k="ssr:stedsnr" v="46302" />
	</node>
	<node id="-332580" lat="58.198161108" lon="8.04367222584">
		<tag k="name" v="Skinnertangen" />
		<tag k="natural" v="cape" />
		<tag k="ssr:stedsnr" v="450329" />
	</node>
	<node id="-332576" lat="58.0784361089" lon="8.11117222387">
		<tag k="name" v="Seihausen" />
		<tag k="natural" v="shoal" />
		<tag k="place" v="locality" />
		<tag k="ssr:stedsnr" v="449418" />
	</node>
	<node id="-332566" lat="58.0794583298" lon="8.10066945125">
		<tag k="fixme" v="multiple name tags, choose one and add the other to alt_name; consider seamark:type=rock or natural=shoal" />
		<tag k="name" v="Svarten;Svertingen" />
		<tag k="place" v="islet" />
		<tag k="ssr:stedsnr" v="448524" />
	</node>
	<node id="-332565" lat="58.0748777773" lon="7.94904167208">
		<tag k="name" v="Kobbernaglen" />
		<tag k="place" v="locality" />
		<tag k="seamark:type" v="rock" />
		<tag k="ssr:stedsnr" v="448497" />
	</node>
	<node id="-332564" lat="58.1097333324" lon="8.11400832997">
		<tag k="alt_name" v="Mannevikodden" />
		<tag k="name" v="Mannevigodden" />
		<tag k="natural" v="cape" />
		<tag k="ssr:stedsnr" v="448438" />
	</node>
	<node id="-332562" lat="58.1005499996" lon="8.12748055064">
		<tag k="name" v="Stangholmen" />
		<tag k="place" v="islet" />
		<tag k="ssr:stedsnr" v="425736" />
	</node>
	<node id="-332560" lat="58.1053499973" lon="8.16262500728">
		<tag k="name" v="Toveholmen" />
		<tag k="place" v="islet" />
		<tag k="ssr:stedsnr" v="425733" />
	</node>
	<node id="-332554" lat="58.1040186465" lon="8.10680071787">
		<tag k="alt_name" v="Vestre Randøy" />
		<tag k="name" v="Vestre Randøya" />
		<tag k="place" v="island" />
		<tag k="ssr:stedsnr" v="425502" />
	</node>
	<node id="-332546" lat="58.0579027793" lon="8.01142778396">
		<tag k="alt_name" v="Flateskjer" />
		<tag k="fixme" v="consider seamark:type=rock or natural=shoal" />
		<tag k="name" v="Fladeskjær" />
		<tag k="place" v="islet" />
		<tag k="ssr:stedsnr" v="425327" />
	</node>
	<node id="-332541" lat="58.1180916635" lon="8.05825833042">
		<tag k="alt_name" v="Olafsholme;Olafsholmen" />
		<tag k="name" v="Olavsholmen" />
		<tag k="place" v="islet" />
		<tag k="ssr:stedsnr" v="425246" />
	</node>
	<node id="-332539" lat="58.1456277758" lon="8.03148888184">
		<tag k="name" v="Bertesbukta" />
		<tag k="natural" v="bay" />
		<tag k="ssr:stedsnr" v="425211" />
	</node>
	<node id="-331388" lat="58.0769444441" lon="8.03163611067">
		<tag k="fixme" v="consider seamark:type=rock or natural=shoal" />
		<tag k="name" v="Lille Senskjær" />
		<tag k="place" v="islet" />
		<tag k="ssr:stedsnr" v="409475" />
	</node>
	<node id="-331560" lat="58.118880786" lon="8.09343020169">
		<tag k="fixme" v="consider seamark:type=rock or natural=shoal" />
		<tag k="name" v="Gulholmskjæret" />
		<tag k="place" v="islet" />
		<tag k="ssr:stedsnr" v="982751" />
	</node>
	<node id="-332521" lat="58.2271388903" lon="8.03743889017">
		<tag k="name" v="Storeskjær" />
		<tag k="place" v="islet" />
		<tag k="ssr:stedsnr" v="268346" />
	</node>
	<node id="-331558" lat="58.1209895762" lon="8.08893066558">
		<tag k="name" v="Herøyfløa" />
		<tag k="natural" v="bay" />
		<tag k="ssr:stedsnr" v="982749" />
	</node>
	<node id="-332514" lat="58.1200027821" lon="8.0642194424">
		<tag k="name" v="Dvergsnestangen" />
		<tag k="natural" v="cape" />
		<tag k="ssr:stedsnr" v="267392" />
	</node>
	<node id="-332510" lat="58.1200611136" lon="8.09587777013">
		<tag k="name" v="Vaodden" />
		<tag k="natural" v="cape" />
		<tag k="ssr:stedsnr" v="267318" />
	</node>
	<node id="-332502" lat="58.0984611109" lon="8.19656944337">
		<tag k="name" v="Sjågrunnen" />
		<tag k="natural" v="shoal" />
		<tag k="place" v="locality" />
		<tag k="ssr:stedsnr" v="266432" />
	</node>
	<node id="-332501" lat="58.0898305592" lon="7.99344999174">
		<tag k="alt_name" v="Sandvika" />
		<tag k="name" v="Sandviga" />
		<tag k="natural" v="bay" />
		<tag k="ssr:stedsnr" v="266421" />
	</node>
	<node id="-332500" lat="58.0882583291" lon="8.19259443792">
		<tag k="name" v="Indre Hausane" />
		<tag k="natural" v="shoal" />
		<tag k="place" v="locality" />
		<tag k="ssr:stedsnr" v="266419" />
	</node>
	<node id="-333262" lat="58.0629166655" lon="7.9892972185">
		<tag k="name" v="Gryda" />
		<tag k="natural" v="bay" />
		<tag k="ssr:stedsnr" v="652559" />
	</node>
	<node id="-332498" lat="58.1047138911" lon="8.05404722277">
		<tag k="name" v="Dvergsøyboen" />
		<tag k="place" v="locality" />
		<tag k="seamark:type" v="rock" />
		<tag k="ssr:stedsnr" v="266396" />
	</node>
	<node id="-332497" lat="58.1072527794" lon="8.19793333386">
		<tag k="name" v="Tavlane" />
		<tag k="place" v="islet" />
		<tag k="ssr:stedsnr" v="263770" />
	</node>
	<node id="-332496" lat="58.0941499959" lon="8.07015556212">
		<tag k="name" v="Dvergsøyhausen" />
		<tag k="natural" v="shoal" />
		<tag k="place" v="locality" />
		<tag k="ssr:stedsnr" v="258748" />
	</node>
	<node id="-332488" lat="58.0475138854" lon="7.96336389168">
		<tag k="alt_name" v="Flateskjer, l;Lille Flateskjær" />
		<tag k="fixme" v="consider seamark:type=rock or natural=shoal" />
		<tag k="name" v="Lille Fladeskjær" />
		<tag k="place" v="islet" />
		<tag k="ssr:stedsnr" v="243309" />
	</node>
	<node id="-332473" lat="58.0934555589" lon="8.02074167359">
		<tag k="alt_name" v="Risøya, store" />
		<tag k="name" v="Store Risøya" />
		<tag k="place" v="islet" />
		<tag k="ssr:stedsnr" v="242152" />
	</node>
	<node id="-332461" lat="58.111483334" lon="8.12948055939">
		<tag k="name" v="Stangenesfjorden" />
		<tag k="natural" v="bay" />
		<tag k="ssr:stedsnr" v="228693" />
	</node>
	<node id="-332460" lat="58.1904416705" lon="8.05208333847">
		<tag k="alt_name" v="Partevika" />
		<tag k="name" v="Parteviga" />
		<tag k="natural" v="bay" />
		<tag k="ssr:stedsnr" v="228690" />
	</node>
	<node id="-332455" lat="58.0757166622" lon="7.96638888108">
		<tag k="alt_name" v="Skiftensvika" />
		<tag k="name" v="Skiftesviga" />
		<tag k="natural" v="bay" />
		<tag k="ssr:stedsnr" v="228626" />
	</node>
	<node id="-332453" lat="58.062477777" lon="7.99416667262">
		<tag k="name" v="Ovnen" />
		<tag k="natural" v="strait" />
		<tag k="ssr:stedsnr" v="228623" />
	</node>
	<node id="-332452" lat="58.0747027769" lon="8.02419444378">
		<tag k="name" v="Mergelsund" />
		<tag k="natural" v="strait" />
		<tag k="ssr:stedsnr" v="228619" />
	</node>
	<node id="-332451" lat="58.091611114" lon="8.00293889378">
		<tag k="alt_name" v="Steinvika" />
		<tag k="name" v="Steinviga" />
		<tag k="natural" v="bay" />
		<tag k="ssr:stedsnr" v="228616" />
	</node>
	<node id="-332450" lat="58.0560694489" lon="7.96764999893">
		<tag k="name" v="Knuppen" />
		<tag k="natural" v="cape" />
		<tag k="ssr:stedsnr" v="228584" />
	</node>
	<node id="-332449" lat="58.0473472186" lon="7.96646665943">
		<tag k="fixme" v="consider seamark:type=rock or natural=shoal" />
		<tag k="name" v="Flanderskjær" />
		<tag k="place" v="islet" />
		<tag k="ssr:stedsnr" v="228574" />
	</node>
	<node id="-332448" lat="58.2351555586" lon="8.03120000535">
		<tag k="name" v="Ålefjærvika" />
		<tag k="natural" v="bay" />
		<tag k="ssr:stedsnr" v="228552" />
	</node>
	<node id="-332443" lat="58.0662555536" lon="7.97545555864">
		<tag k="name" v="Lille Engelsholmen" />
		<tag k="place" v="islet" />
		<tag k="ssr:stedsnr" v="228457" />
	</node>
	<node id="-332433" lat="58.0909194438" lon="8.10415277783">
		<tag k="name" v="Kalvøyvågen" />
		<tag k="natural" v="bay" />
		<tag k="ssr:stedsnr" v="228307" />
	</node>
	<node id="-332432" lat="58.0900805593" lon="8.11908333988">
		<tag k="name" v="Randholmvågen" />
		<tag k="natural" v="bay" />
		<tag k="ssr:stedsnr" v="228300" />
	</node>
	<node id="-332431" lat="58.0987638918" lon="8.14200000263">
		<tag k="name" v="Humlevika" />
		<tag k="natural" v="bay" />
		<tag k="ssr:stedsnr" v="228292" />
	</node>
	<node id="-332430" lat="58.0769333351" lon="7.96920832915">
		<tag k="alt_name" v="Lindvika" />
		<tag k="name" v="Lindviga" />
		<tag k="natural" v="bay" />
		<tag k="ssr:stedsnr" v="228265" />
	</node>
	<node id="-332428" lat="58.0879999975" lon="7.96926389672">
		<tag k="alt_name" v="Hellevika" />
		<tag k="name" v="Helleviga" />
		<tag k="natural" v="bay" />
		<tag k="ssr:stedsnr" v="228260" />
	</node>
	<node id="-332425" lat="58.1043361124" lon="8.1226305616">
		<tag k="name" v="Selldalsholmene" />
		<tag k="place" v="islet" />
		<tag k="ssr:stedsnr" v="228064" />
	</node>
	<node id="-332423" lat="58.2102111098" lon="8.04724166705">
		<tag k="name" v="Føreidholmene" />
		<tag k="place" v="islet" />
		<tag k="ssr:stedsnr" v="227993" />
	</node>
	<node id="-332421" lat="58.205213885" lon="8.05250554971">
		<tag k="alt_name" v="Bjørnskroken" />
		<tag k="name" v="Bjørnskrogen" />
		<tag k="natural" v="bay" />
		<tag k="ssr:stedsnr" v="227980" />
	</node>
	<node id="-332418" lat="58.1290638927" lon="8.08393054864">
		<tag k="name" v="Trandleholmen" />
		<tag k="place" v="islet" />
		<tag k="ssr:stedsnr" v="227974" />
	</node>
	<node id="-332401" lat="58.1175638915" lon="8.06723333155">
		<tag k="name" v="Tangholmen" />
		<tag k="place" v="islet" />
		<tag k="ssr:stedsnr" v="227539" />
	</node>
	<node id="-332399" lat="58.0767111075" lon="8.00639721421">
		<tag k="name" v="Vragholmen" />
		<tag k="place" v="islet" />
		<tag k="ssr:stedsnr" v="227500" />
	</node>
	<node id="-332398" lat="58.0710333317" lon="8.01581111187">
		<tag k="fixme" v="consider seamark:type=rock or natural=shoal" />
		<tag k="name" v="Bjørneskjærane" />
		<tag k="place" v="islet" />
		<tag k="ssr:stedsnr" v="227497" />
	</node>
	<node id="-332397" lat="58.0764249979" lon="8.02826944279">
		<tag k="name" v="Grasholmen" />
		<tag k="place" v="islet" />
		<tag k="ssr:stedsnr" v="227488" />
	</node>
	<node id="-332396" lat="58.0998111114" lon="7.98936667375">
		<tag k="alt_name" v="Tvillingskjærene" />
		<tag k="fixme" v="consider seamark:type=rock or natural=shoal" />
		<tag k="name" v="Tvillingskjærane" />
		<tag k="place" v="islet" />
		<tag k="ssr:stedsnr" v="227481" />
	</node>
	<node id="-332394" lat="58.0923777799" lon="7.99384445284">
		<tag k="name" v="Varholmen" />
		<tag k="place" v="islet" />
		<tag k="ssr:stedsnr" v="227460" />
	</node>
	<node id="-332391" lat="58.0878305593" lon="8.10066944668">
		<tag k="name" v="Kråkerøyholmen" />
		<tag k="place" v="islet" />
		<tag k="ssr:stedsnr" v="227402" />
	</node>
	<node id="-332390" lat="58.1078111128" lon="8.10521944453">
		<tag k="name" v="Stokkeid" />
		<tag k="place" v="locality" />
		<tag k="ssr:stedsnr" v="227387" />
	</node>
	<node id="-330974" lat="58.0479111112" lon="8.06434167314">
		<tag k="name" v="Oksøygrunnane" />
		<tag k="natural" v="shoal" />
		<tag k="place" v="locality" />
		<tag k="ssr:stedsnr" v="282549" />
	</node>
	<node id="-332378" lat="58.061599998" lon="7.99119166961">
		<tag k="name" v="Daudmannsholmen" />
		<tag k="place" v="islet" />
		<tag k="ssr:stedsnr" v="227068" />
	</node>
	<node id="-332377" lat="58.0783539443" lon="7.94892456459">
		<tag k="name" v="Torsteinsneset" />
		<tag k="natural" v="cape" />
		<tag k="ssr:stedsnr" v="227058" />
	</node>
	<node id="-332371" lat="58.16130278" lon="8.06007500819">
		<tag k="name" v="Hånesodden" />
		<tag k="natural" v="cape" />
		<tag k="ssr:stedsnr" v="223031" />
	</node>
	<node id="-332370" lat="58.0842583328" lon="8.16017500095">
		<tag k="name" v="Rasmushausen" />
		<tag k="natural" v="shoal" />
		<tag k="place" v="locality" />
		<tag k="ssr:stedsnr" v="221678" />
	</node>
	<node id="-332369" lat="58.0701249961" lon="8.06423611899">
		<tag k="name" v="Midtbåen" />
		<tag k="place" v="locality" />
		<tag k="seamark:type" v="rock" />
		<tag k="ssr:stedsnr" v="221652" />
	</node>
	<node id="-332368" lat="58.0580305518" lon="8.041911119">
		<tag k="name" v="Stangebåen" />
		<tag k="place" v="locality" />
		<tag k="seamark:type" v="rock" />
		<tag k="ssr:stedsnr" v="221635" />
	</node>
	<node id="-332367" lat="58.0449277752" lon="8.07395833697">
		<tag k="name" v="Steinen" />
		<tag k="natural" v="shoal" />
		<tag k="place" v="locality" />
		<tag k="ssr:stedsnr" v="221517" />
	</node>
	<node id="-332365" lat="58.1231833306" lon="7.97211943605">
		<tag k="name" v="Skoltebukta" />
		<tag k="natural" v="bay" />
		<tag k="ssr:stedsnr" v="219143" />
	</node>
	<node id="-332364" lat="58.1393694454" lon="8.0095305563">
		<tag k="name" v="Bleikerøyboen" />
		<tag k="place" v="locality" />
		<tag k="seamark:type" v="rock" />
		<tag k="ssr:stedsnr" v="216185" />
	</node>
	<node id="-332363" lat="58.141872593" lon="8.0249815879">
		<tag k="name" v="Prestboen" />
		<tag k="place" v="locality" />
		<tag k="seamark:type" v="rock" />
		<tag k="ssr:stedsnr" v="216182" />
	</node>
	<node id="-332362" lat="58.1158027822" lon="8.00300277637">
		<tag k="name" v="Havna" />
		<tag k="natural" v="bay" />
		<tag k="ssr:stedsnr" v="216174" />
	</node>
	<node id="-332361" lat="58.1408611153" lon="7.99922777329">
		<tag k="name" v="Nodevika" />
		<tag k="natural" v="bay" />
		<tag k="old_name" v="Store Noddevika" />
		<tag k="ssr:stedsnr" v="216169" />
	</node>
	<node id="-332360" lat="58.13902222" lon="7.97665554827">
		<tag k="name" v="Kolsdalsbukta" />
		<tag k="natural" v="bay" />
		<tag k="ssr:stedsnr" v="216105" />
	</node>
	<node id="-333428" lat="58.0872583321" lon="8.02019722904">
		<tag k="name" v="Paulens Geiderøy" />
		<tag k="place" v="islet" />
		<tag k="ssr:stedsnr" v="713506" />
	</node>
	<node id="-331382" lat="58.061697225" lon="8.0047694364">
		<tag k="alt_name" v="Lille Blåstholmen" />
		<tag k="name" v="Indre Blåstholmen" />
		<tag k="place" v="islet" />
		<tag k="ssr:stedsnr" v="409440" />
	</node>
	<node id="-331381" lat="58.0628583334" lon="8.00089167087">
		<tag k="name" v="Kanonen" />
		<tag k="natural" v="cape" />
		<tag k="ssr:stedsnr" v="409441" />
	</node>
	<node id="-331865" lat="58.0796861076" lon="8.043077782">
		<tag k="alt_name" v="Fugleskjera" />
		<tag k="fixme" v="consider seamark:type=rock or natural=shoal" />
		<tag k="name" v="Fugleskjærane" />
		<tag k="place" v="islet" />
		<tag k="ssr:stedsnr" v="61171" />
	</node>
	<node id="-332294" lat="58.0726777761" lon="8.14922221747">
		<tag k="name" v="Skadden" />
		<tag k="natural" v="shoal" />
		<tag k="place" v="locality" />
		<tag k="ssr:stedsnr" v="205580" />
	</node>
	<node id="-332293" lat="58.0777527743" lon="8.1058833388">
		<tag k="name" v="Indre Steinen" />
		<tag k="natural" v="shoal" />
		<tag k="place" v="locality" />
		<tag k="ssr:stedsnr" v="205577" />
	</node>
	<node id="-332292" lat="58.0816111116" lon="8.112722216">
		<tag k="name" v="Blindeboen" />
		<tag k="place" v="locality" />
		<tag k="seamark:type" v="rock" />
		<tag k="ssr:stedsnr" v="205545" />
	</node>
	<node id="-332290" lat="58.1123388846" lon="8.09619167039">
		<tag k="name" v="Rakmannskjær" />
		<tag k="place" v="islet" />
		<tag k="ssr:stedsnr" v="205464" />
	</node>
	<node id="-332289" lat="58.112933332" lon="8.16335277135">
		<tag k="alt_name" v="Svartskjærene" />
		<tag k="name" v="Svarteskjærane" />
		<tag k="place" v="islet" />
		<tag k="ssr:stedsnr" v="205454" />
	</node>
	<node id="-332288" lat="58.0835222232" lon="7.96810556088">
		<tag k="alt_name" v="Fosseholmene" />
		<tag k="name" v="Fosseholmane" />
		<tag k="place" v="islet" />
		<tag k="ssr:stedsnr" v="196463" />
	</node>
	<node id="-332286" lat="58.0885638922" lon="8.11123611534">
		<tag k="name" v="Burholmen" />
		<tag k="place" v="islet" />
		<tag k="ssr:stedsnr" v="182711" />
	</node>
	<node id="-332282" lat="58.1250750028" lon="8.18802500411">
		<tag k="alt_name" v="Tjønnholmane" />
		<tag k="name" v="Tjørnholmen" />
		<tag k="place" v="islet" />
		<tag k="ssr:stedsnr" v="182543" />
	</node>
	<node id="-332280" lat="58.134686114" lon="8.19215000043">
		<tag k="name" v="Ribeholmane" />
		<tag k="place" v="islet" />
		<tag k="ssr:stedsnr" v="182525" />
	</node>
	<node id="-332278" lat="58.1011315743" lon="8.11653985547">
		<tag k="alt_name" v="Østre Randøy" />
		<tag k="name" v="Østre Randøya" />
		<tag k="place" v="island" />
		<tag k="ssr:stedsnr" v="182511" />
	</node>
	<node id="-332267" lat="58.0632555512" lon="8.02331111816">
		<tag k="name" v="Hugøya" />
		<tag k="place" v="islet" />
		<tag k="ssr:stedsnr" v="182326" />
	</node>
	<node id="-332266" lat="58.1151416706" lon="7.98703333115">
		<tag k="name" v="Steinsundet" />
		<tag k="natural" v="strait" />
		<tag k="ssr:stedsnr" v="182236" />
	</node>
	<node id="-332262" lat="58.0680000007" lon="8.01304444784">
		<tag k="name" v="Ormsøya" />
		<tag k="place" v="islet" />
		<tag k="ssr:stedsnr" v="182178" />
	</node>
	<node id="-332260" lat="58.0936555571" lon="8.09163889038">
		<tag k="alt_name" v="Indre Grønningen" />
		<tag k="name" v="Grønningen" />
		<tag k="place" v="islet" />
		<tag k="ssr:stedsnr" v="182149" />
	</node>
	<node id="-332258" lat="58.1098333356" lon="7.99196944999">
		<tag k="alt_name" v="Breidalsholmen;Bredalsholmane" />
		<tag k="name" v="Breiddalsholmen" />
		<tag k="place" v="islet" />
		<tag k="ssr:stedsnr" v="182126" />
	</node>
	<node id="-332255" lat="58.1816944475" lon="8.04159444009">
		<tag k="alt_name" v="Eidebukta" />
		<tag k="name" v="Eidsbukta" />
		<tag k="natural" v="bay" />
		<tag k="ssr:stedsnr" v="182034" />
	</node>
	<node id="-332253" lat="58.1975222261" lon="8.03786944143">
		<tag k="alt_name" v="Gjusvika" />
		<tag k="name" v="Justvikbukta" />
		<tag k="natural" v="bay" />
		<tag k="ssr:stedsnr" v="182028" />
	</node>
	<node id="-332237" lat="58.1931861144" lon="8.04278611443">
		<tag k="name" v="Justnessundet" />
		<tag k="natural" v="strait" />
		<tag k="ssr:stedsnr" v="167675" />
	</node>
	<node id="-332236" lat="58.1939444448" lon="8.04356110391">
		<tag k="alt_name" v="Skudevika" />
		<tag k="name" v="Skudeviga" />
		<tag k="natural" v="bay" />
		<tag k="ssr:stedsnr" v="167669" />
	</node>
	<node id="-332235" lat="58.1877055574" lon="8.04826666601">
		<tag k="alt_name" v="Steffensvika" />
		<tag k="name" v="Steffensviga" />
		<tag k="natural" v="bay" />
		<tag k="ssr:stedsnr" v="167666" />
	</node>
	<node id="-332233" lat="58.1842333347" lon="8.04941666543">
		<tag k="alt_name" v="Olavsvika" />
		<tag k="name" v="Olavsviga" />
		<tag k="natural" v="bay" />
		<tag k="ssr:stedsnr" v="167660" />
	</node>
	<node id="-332232" lat="58.1625277796" lon="8.07692500736">
		<tag k="name" v="Ronsbukta" />
		<tag k="natural" v="bay" />
		<tag k="ssr:stedsnr" v="167650" />
	</node>
	<node id="-331852" lat="58.0871888909" lon="8.03170000329">
		<tag k="alt_name" v="Gråskjera" />
		<tag k="fixme" v="consider seamark:type=rock or natural=shoal" />
		<tag k="name" v="Gråskjærane" />
		<tag k="place" v="islet" />
		<tag k="ssr:stedsnr" v="60169" />
	</node>
	<node id="-332230" lat="58.1375666696" lon="8.1821499956">
		<tag k="name" v="Ådnevikneset" />
		<tag k="natural" v="cape" />
		<tag k="ssr:stedsnr" v="167575" />
	</node>
	<node id="-332229" lat="58.0763383165" lon="8.01808232353">
		<tag k="name" v="Skibbuholmen" />
		<tag k="place" v="islet" />
		<tag k="ssr:stedsnr" v="167558" />
	</node>
	<node id="-332228" lat="58.0678305562" lon="8.0271194471">
		<tag k="fixme" v="consider seamark:type=rock or natural=shoal" />
		<tag k="name" v="Inkjeskjæret" />
		<tag k="place" v="islet" />
		<tag k="ssr:stedsnr" v="167557" />
	</node>
	<node id="-332227" lat="58.0652083356" lon="8.0251250074">
		<tag k="name" v="Nordre Hugøy" />
		<tag k="place" v="island" />
		<tag k="ssr:stedsnr" v="167555" />
	</node>
	<node id="-332226" lat="58.0748194403" lon="8.01413888192">
		<tag k="name" v="Kvistholmen" />
		<tag k="place" v="islet" />
		<tag k="ssr:stedsnr" v="167545" />
	</node>
	<node id="-332225" lat="58.083330552" lon="8.01968610328">
		<tag k="fixme" v="consider seamark:type=rock or natural=shoal" />
		<tag k="name" v="Årekjerr" />
		<tag k="place" v="islet" />
		<tag k="ssr:stedsnr" v="167536" />
	</node>
	<node id="-332223" lat="58.0893111137" lon="7.99025555295">
		<tag k="name" v="Gyngeholmen" />
		<tag k="place" v="islet" />
		<tag k="ssr:stedsnr" v="167499" />
	</node>
	<node id="-331850" lat="58.1093944416" lon="8.20278888933">
		<tag k="name" v="Fugleholmane" />
		<tag k="place" v="islet" />
		<tag k="ssr:stedsnr" v="58780" />
	</node>
	<node id="-332217" lat="58.0594555529" lon="8.00425554981">
		<tag k="alt_name" v="Store Blåstholmen" />
		<tag k="name" v="Ytre Blåstholmen" />
		<tag k="place" v="islet" />
		<tag k="ssr:stedsnr" v="167467" />
	</node>
	<node id="-332216" lat="58.0611916678" lon="7.96574999996">
		<tag k="fixme" v="consider seamark:type=rock or natural=shoal" />
		<tag k="name" v="Drammeskjær" />
		<tag k="place" v="islet" />
		<tag k="ssr:stedsnr" v="167424" />
	</node>
	<node id="-332211" lat="58.1131444425" lon="8.12598333995">
		<tag k="name" v="Holmen" />
		<tag k="place" v="islet" />
		<tag k="ssr:stedsnr" v="167377" />
	</node>
	<node id="-332210" lat="58.0760694462" lon="7.98946667308">
		<tag k="name" v="Nordre Skudevik" />
		<tag k="natural" v="bay" />
		<tag k="ssr:stedsnr" v="167354" />
	</node>
	<node id="-332206" lat="58.0981972228" lon="8.10587221525">
		<tag k="name" v="Vesterfjorden" />
		<tag k="natural" v="strait" />
		<tag k="ssr:stedsnr" v="167305" />
	</node>
	<node id="-332205" lat="58.0886666674" lon="8.10649722077">
		<tag k="name" v="Flaget" />
		<tag k="natural" v="shoal" />
		<tag k="place" v="locality" />
		<tag k="ssr:stedsnr" v="167301" />
	</node>
	<node id="-332204" lat="58.1063277796" lon="8.14717777478">
		<tag k="name" v="Bjørnvika" />
		<tag k="natural" v="bay" />
		<tag k="ssr:stedsnr" v="167289" />
	</node>
	<node id="-332202" lat="58.065177779" lon="7.97113055222">
		<tag k="name" v="Ugelen" />
		<tag k="natural" v="bay" />
		<tag k="ssr:stedsnr" v="167269" />
	</node>
	<node id="-332197" lat="58.0589972212" lon="7.98424166625">
		<tag k="name" v="Nedholmen" />
		<tag k="place" v="islet" />
		<tag k="ssr:stedsnr" v="167043" />
	</node>
	<node id="-332181" lat="58.2007027734" lon="8.05373055942">
		<tag k="name" v="Jærnestangen" />
		<tag k="natural" v="cape" />
		<tag k="ssr:stedsnr" v="166654" />
	</node>
	<node id="-332180" lat="58.1917194448" lon="8.0535194447">
		<tag k="name" v="Østerøya" />
		<tag k="place" v="islet" />
		<tag k="ssr:stedsnr" v="166652" />
	</node>
	<node id="-332175" lat="58.1204305542" lon="8.08749445064">
		<tag k="fixme" v="consider seamark:type=rock or natural=shoal" />
		<tag k="name" v="Vareskjær" />
		<tag k="place" v="islet" />
		<tag k="ssr:stedsnr" v="166522" />
	</node>
	<node id="-332167" lat="58.0813277799" lon="8.04266110439">
		<tag k="fixme" v="consider seamark:type=rock or natural=shoal" />
		<tag k="name" v="Yste Steinen" />
		<tag k="place" v="islet" />
		<tag k="ssr:stedsnr" v="160692" />
	</node>
	<node id="-332166" lat="58.0539861103" lon="8.04640833655">
		<tag k="name" v="Håbåane" />
		<tag k="natural" v="shoal" />
		<tag k="place" v="locality" />
		<tag k="ssr:stedsnr" v="160650" />
	</node>
	<node id="-332165" lat="58.0749749974" lon="7.96228055546">
		<tag k="name" v="Småvardeboen" />
		<tag k="place" v="locality" />
		<tag k="seamark:type" v="rock" />
		<tag k="ssr:stedsnr" v="160457" />
	</node>
	<node id="-332164" lat="58.1013944453" lon="7.98915277279">
		<tag k="name" v="Griserumpa" />
		<tag k="natural" v="cape" />
		<tag k="ssr:stedsnr" v="158256" />
	</node>
	<node id="-332163" lat="58.1056972232" lon="7.97898611429">
		<tag k="name" v="Gulholmen" />
		<tag k="place" v="islet" />
		<tag k="ssr:stedsnr" v="158248" />
	</node>
	<node id="-332162" lat="58.1440499966" lon="8.01170832504">
		<tag k="name" v="Tangen" />
		<tag k="natural" v="cape" />
		<tag k="ssr:stedsnr" v="155218" />
	</node>
	<node id="-332161" lat="58.1452555583" lon="8.02827221637">
		<tag k="name" v="Kuvika" />
		<tag k="natural" v="bay" />
		<tag k="ssr:stedsnr" v="155211" />
	</node>
	<node id="-332160" lat="58.0988055583" lon="8.03294722449">
		<tag k="name" v="Kinnsgrunnen" />
		<tag k="natural" v="shoal" />
		<tag k="place" v="locality" />
		<tag k="ssr:stedsnr" v="155206" />
	</node>
	<node id="-332159" lat="58.1042666625" lon="8.00605833902">
		<tag k="name" v="Skjedeflaket" />
		<tag k="natural" v="shoal" />
		<tag k="place" v="locality" />
		<tag k="ssr:stedsnr" v="155204" />
	</node>
	<node id="-332157" lat="58.1232861084" lon="8.05997499944">
		<tag k="name" v="Børresvåg" />
		<tag k="natural" v="bay" />
		<tag k="ssr:stedsnr" v="155193" />
	</node>
	<node id="-331834" lat="58.0494250013" lon="7.96167777457">
		<tag k="fixme" v="consider seamark:type=rock or natural=shoal" />
		<tag k="name" v="Enderskjær" />
		<tag k="place" v="islet" />
		<tag k="ssr:stedsnr" v="46568" />
	</node>
	<node id="-334169" lat="58.1947833324" lon="8.03891666058">
		<tag k="name" v="Vagelen" />
		<tag k="natural" v="cape" />
		<tag k="ssr:stedsnr" v="956741" />
	</node>
	<node id="-334166" lat="58.1854138848" lon="8.04976666538">
		<tag k="alt_name" v="Åsmundsvika" />
		<tag k="name" v="Åsmundsviga" />
		<tag k="natural" v="bay" />
		<tag k="ssr:stedsnr" v="956674" />
	</node>
	<node id="-334165" lat="58.1075055517" lon="7.98455278349">
		<tag k="name" v="Paradisbukta" />
		<tag k="natural" v="bay" />
		<tag k="ssr:stedsnr" v="956666" />
	</node>
	<node id="-334161" lat="58.0633972244" lon="7.98421110515">
		<tag k="alt_name" v="Kvåvika" />
		<tag k="name" v="Kvåviga" />
		<tag k="natural" v="bay" />
		<tag k="ssr:stedsnr" v="956622" />
	</node>
	<node id="-334160" lat="58.0746611154" lon="8.01324445108">
		<tag k="name" v="Kirkesundet" />
		<tag k="natural" v="strait" />
		<tag k="ssr:stedsnr" v="956614" />
	</node>
	<node id="-334159" lat="58.1007777769" lon="7.98760000446">
		<tag k="name" v="Odderklauva" />
		<tag k="natural" v="bay" />
		<tag k="ssr:stedsnr" v="956616" />
	</node>
	<node id="-334158" lat="58.116750003" lon="8.00463055165">
		<tag k="name" v="Bragdøytangen" />
		<tag k="natural" v="cape" />
		<tag k="ssr:stedsnr" v="956572" />
	</node>
	<node id="-334157" lat="58.0679000012" lon="8.04547778597">
		<tag k="fixme" v="consider seamark:type=rock or natural=shoal" />
		<tag k="name" v="Skarveskjærane" />
		<tag k="place" v="islet" />
		<tag k="ssr:stedsnr" v="956567" />
	</node>
	<node id="-334156" lat="58.0669083362" lon="8.02640555188">
		<tag k="fixme" v="consider seamark:type=rock or natural=shoal" />
		<tag k="name" v="Langøyskjæret" />
		<tag k="place" v="islet" />
		<tag k="ssr:stedsnr" v="956558" />
	</node>
	<node id="-334155" lat="58.0742861075" lon="8.01321944893">
		<tag k="name" v="Barlønnholmen" />
		<tag k="place" v="islet" />
		<tag k="ssr:stedsnr" v="956540" />
	</node>
	<node id="-334154" lat="58.1830888886" lon="8.03993333643">
		<tag k="alt_name" v="Mannevika" />
		<tag k="name" v="Manneviga" />
		<tag k="natural" v="bay" />
		<tag k="ssr:stedsnr" v="956519" />
	</node>
	<node id="-334153" lat="58.0719388871" lon="8.02522777702">
		<tag k="name" v="Akstholmen" />
		<tag k="place" v="islet" />
		<tag k="ssr:stedsnr" v="956512" />
	</node>
	<node id="-334151" lat="58.0664666711" lon="8.01596110802">
		<tag k="name" v="Løpet" />
		<tag k="natural" v="strait" />
		<tag k="ssr:stedsnr" v="956488" />
	</node>
	<node id="-334149" lat="58.189752775" lon="8.07973055773">
		<tag k="alt_name" v="Hamresandenbukta" />
		<tag k="name" v="Hamresandbukta" />
		<tag k="natural" v="bay" />
		<tag k="ssr:stedsnr" v="956475" />
	</node>
	<node id="-334148" lat="58.0614055529" lon="7.97950833456">
		<tag k="name" v="Trekroner" />
		<tag k="place" v="islet" />
		<tag k="ssr:stedsnr" v="956447" />
	</node>
	<node id="-331830" lat="58.1350750008" lon="8.0652333272">
		<tag k="bay" v="fjord" />
		<tag k="name" v="Korsvikfjorden" />
		<tag k="natural" v="bay" />
		<tag k="ssr:stedsnr" v="46470" />
	</node>
	<node id="-332095" lat="58.0808888863" lon="8.13478332842">
		<tag k="name" v="Odhausen" />
		<tag k="natural" v="shoal" />
		<tag k="place" v="locality" />
		<tag k="ssr:stedsnr" v="144511" />
	</node>
	<node id="-332094" lat="58.0935916662" lon="8.19930833084">
		<tag k="name" v="Steinen" />
		<tag k="natural" v="shoal" />
		<tag k="place" v="locality" />
		<tag k="ssr:stedsnr" v="144468" />
	</node>
	<node id="-332093" lat="58.1022500038" lon="8.16026110361">
		<tag k="name" v="Indre Tovegrunnen" />
		<tag k="natural" v="shoal" />
		<tag k="place" v="locality" />
		<tag k="ssr:stedsnr" v="144429" />
	</node>
	<node id="-334140" lat="58.0809611088" lon="7.99566111549">
		<tag k="name" v="Hovde" />
		<tag k="natural" v="cape" />
		<tag k="ssr:stedsnr" v="956387" />
	</node>
	<node id="-334139" lat="58.1859472237" lon="8.08725555184">
		<tag k="name" v="Kvernhusvika" />
		<tag k="natural" v="bay" />
		<tag k="ssr:stedsnr" v="956377" />
	</node>
	<node id="-334138" lat="58.1780999963" lon="8.0824611125">
		<tag k="name" v="Piningen" />
		<tag k="natural" v="cape" />
		<tag k="ssr:stedsnr" v="956374" />
	</node>
	<node id="-332086" lat="58.1288083318" lon="8.19002222295">
		<tag k="alt_name" v="Brattholmane" />
		<tag k="name" v="Brattholmen" />
		<tag k="place" v="islet" />
		<tag k="ssr:stedsnr" v="121553" />
	</node>
	<node id="-334133" lat="58.0851861093" lon="8.02282777486">
		<tag k="name" v="Paulen" />
		<tag k="natural" v="bay" />
		<tag k="ssr:stedsnr" v="956329" />
	</node>
	<node id="-334132" lat="58.1017611112" lon="8.11255556236">
		<tag k="name" v="Skippergada" />
		<tag k="natural" v="strait" />
		<tag k="ssr:stedsnr" v="956319" />
	</node>
	<node id="-334131" lat="58.0894388915" lon="8.11674721905">
		<tag k="name" v="Randholmsund" />
		<tag k="natural" v="strait" />
		<tag k="ssr:stedsnr" v="956309" />
	</node>
	<node id="-334130" lat="58.1001722213" lon="8.11925277742">
		<tag k="name" v="Brødvika" />
		<tag k="natural" v="bay" />
		<tag k="ssr:stedsnr" v="956305" />
	</node>
	<node id="-332081" lat="58.1093398173" lon="8.12463699699">
		<tag k="name" v="Trollenes" />
		<tag k="natural" v="cape" />
		<tag k="ssr:stedsnr" v="121530" />
	</node>
	<node id="-334127" lat="58.0610194453" lon="7.98066944501">
		<tag k="name" v="Knipen" />
		<tag k="natural" v="bay" />
		<tag k="ssr:stedsnr" v="956285" />
	</node>
	<node id="-334126" lat="58.0851833343" lon="7.985847225">
		<tag k="name" v="Gammeløysundet" />
		<tag k="natural" v="strait" />
		<tag k="ssr:stedsnr" v="956270" />
	</node>
	<node id="-334125" lat="58.1018999965" lon="7.98481111109">
		<tag k="name" v="Kyresundet" />
		<tag k="natural" v="strait" />
		<tag k="ssr:stedsnr" v="956266" />
	</node>
	<node id="-332076" lat="58.1190583361" lon="8.16445832906">
		<tag k="name" v="Kvarodden" />
		<tag k="natural" v="cape" />
		<tag k="ssr:stedsnr" v="121501" />
	</node>
	<node id="-334120" lat="58.0975583306" lon="7.97464444161">
		<tag k="name" v="Spinneren" />
		<tag k="natural" v="cape" />
		<tag k="ssr:stedsnr" v="956061" />
	</node>
	<node id="-334117" lat="58.0841250006" lon="7.95888055822">
		<tag k="name" v="Hermansholmane" />
		<tag k="place" v="islet" />
		<tag k="ssr:stedsnr" v="956042" />
	</node>
	<node id="-332062" lat="58.1262722241" lon="8.04245555295">
		<tag k="name" v="Revholmane" />
		<tag k="place" v="islet" />
		<tag k="ssr:stedsnr" v="121231" />
	</node>
	<node id="-334109" lat="58.1908833307" lon="8.07451667427">
		<tag k="name" v="Buøyna" />
		<tag k="natural" v="beach" />
		<tag k="place" v="locality" />
		<tag k="ssr:stedsnr" v="955910" />
	</node>
	<node id="-331482" lat="58.0998777751" lon="8.14578056219">
		<tag k="fixme" v="consider seamark:type=rock or natural=shoal" />
		<tag k="name" v="Store Håskjær" />
		<tag k="place" v="islet" />
		<tag k="ssr:stedsnr" v="895362" />
	</node>
	<node id="-334102" lat="58.1404166637" lon="8.05591667479">
		<tag k="alt_name" v="Kjellevik" />
		<tag k="name" v="Kjelleviga" />
		<tag k="natural" v="bay" />
		<tag k="ssr:stedsnr" v="955535" />
	</node>
	<node id="-331481" lat="58.1140305544" lon="8.11886388699">
		<tag k="name" v="Vadvik" />
		<tag k="natural" v="bay" />
		<tag k="ssr:stedsnr" v="895357" />
	</node>
	<node id="-331781" lat="58.0830194484" lon="7.98955277192">
		<tag k="name" v="Kårholmen" />
		<tag k="place" v="islet" />
		<tag k="ssr:stedsnr" v="45473" />
	</node>
	<node id="-332048" lat="58.1284027752" lon="8.15028889525">
		<tag k="name" v="Kvareneskilen" />
		<tag k="natural" v="bay" />
		<tag k="ssr:stedsnr" v="118864" />
	</node>
	<node id="-333528" lat="58.1818666695" lon="8.04972222855">
		<tag k="name" v="Katterumpa" />
		<tag k="place" v="islet" />
		<tag k="ssr:stedsnr" v="753293" />
	</node>
	<node id="-334090" lat="58.0564472263" lon="8.03470277285">
		<tag k="name" v="Ytre Stølsvikbåen" />
		<tag k="place" v="locality" />
		<tag k="seamark:type" v="rock" />
		<tag k="ssr:stedsnr" v="949650" />
	</node>
	<node id="-334089" lat="58.0521250023" lon="7.97920832786">
		<tag k="name" v="Teistebåane" />
		<tag k="place" v="locality" />
		<tag k="seamark:type" v="rock" />
		<tag k="ssr:stedsnr" v="949451" />
	</node>
	<node id="-334088" lat="58.10785833" lon="7.98998888767">
		<tag k="name" v="Sølvbukta" />
		<tag k="natural" v="bay" />
		<tag k="ssr:stedsnr" v="947227" />
	</node>
	<node id="-334086" lat="58.1409805599" lon="8.05239166188">
		<tag k="alt_name" v="Fugleviksundet" />
		<tag k="name" v="Fuglevigsundet" />
		<tag k="natural" v="strait" />
		<tag k="ssr:stedsnr" v="945033" />
	</node>
	<node id="-334085" lat="58.116094446" lon="8.0577194374">
		<tag k="alt_name" v="Olafsundet" />
		<tag k="name" v="Olavsundet" />
		<tag k="natural" v="strait" />
		<tag k="ssr:stedsnr" v="945029" />
	</node>
	<node id="-332035" lat="58.1281277776" lon="8.18389444497">
		<tag k="name" v="Risholmen" />
		<tag k="place" v="islet" />
		<tag k="ssr:stedsnr" v="107557" />
	</node>
	<node id="-332034" lat="58.1268805546" lon="8.17961388914">
		<tag k="alt_name" v="Vaholmen" />
		<tag k="name" v="Vaholmane" />
		<tag k="place" v="islet" />
		<tag k="ssr:stedsnr" v="107555" />
	</node>
	<node id="-334078" lat="58.0765416669" lon="8.03161110684">
		<tag k="alt_name" v="Store Senskjær" />
		<tag k="fixme" v="consider seamark:type=rock or natural=shoal" />
		<tag k="name" v="Store Senskjer" />
		<tag k="place" v="islet" />
		<tag k="ssr:stedsnr" v="938386" />
	</node>
	<node id="-332022" lat="58.0908972196" lon="7.93330833305">
		<tag k="name" v="Søylekilen" />
		<tag k="natural" v="bay" />
		<tag k="ssr:stedsnr" v="107333" />
	</node>
	<node id="-332018" lat="58.0787583315" lon="8.02812221837">
		<tag k="name" v="Sildebukta" />
		<tag k="natural" v="bay" />
		<tag k="ssr:stedsnr" v="107292" />
	</node>
	<node id="-332017" lat="58.1587916689" lon="8.1028694477">
		<tag k="name" v="Indre Rona" />
		<tag k="natural" v="strait" />
		<tag k="ssr:stedsnr" v="107288" />
	</node>
	<node id="-332015" lat="58.0953916708" lon="8.11020555734">
		<tag k="name" v="Kalvøyfjord" />
		<tag k="natural" v="strait" />
		<tag k="ssr:stedsnr" v="107280" />
	</node>
	<node id="-332014" lat="58.0957222248" lon="8.11913611055">
		<tag k="name" v="Havvika" />
		<tag k="natural" v="bay" />
		<tag k="ssr:stedsnr" v="107277" />
	</node>
	<node id="-332013" lat="58.0847166699" lon="7.96396945061">
		<tag k="name" v="Fosseholmsundet" />
		<tag k="natural" v="strait" />
		<tag k="ssr:stedsnr" v="107267" />
	</node>
	<node id="-332012" lat="58.0613611087" lon="7.97090278242">
		<tag k="name" v="Målebukta" />
		<tag k="natural" v="bay" />
		<tag k="ssr:stedsnr" v="107261" />
	</node>
	<node id="-332011" lat="58.0892527745" lon="7.97364166621">
		<tag k="name" v="Gunnersnesbukta" />
		<tag k="natural" v="bay" />
		<tag k="ssr:stedsnr" v="107256" />
	</node>
	<node id="-332010" lat="58.0599138886" lon="7.98012222133">
		<tag k="alt_name" v="Vestre Langevik" />
		<tag k="name" v="Vestre Langeviga" />
		<tag k="natural" v="bay" />
		<tag k="ssr:stedsnr" v="107254" />
	</node>
	<node id="-332009" lat="58.0724277818" lon="7.98361667315">
		<tag k="alt_name" v="Skyllevika" />
		<tag k="name" v="Skylleviga" />
		<tag k="natural" v="bay" />
		<tag k="ssr:stedsnr" v="107250" />
	</node>
	<node id="-332008" lat="58.0769333331" lon="7.99193610752">
		<tag k="alt_name" v="Alsvika" />
		<tag k="name" v="Alsviga" />
		<tag k="natural" v="bay" />
		<tag k="ssr:stedsnr" v="107247" />
	</node>
	<node id="-332007" lat="58.0844583307" lon="7.9876055597">
		<tag k="name" v="Sildesundet" />
		<tag k="natural" v="strait" />
		<tag k="ssr:stedsnr" v="107242" />
	</node>
	<node id="-334036" lat="58.153436112" lon="8.03171944316">
		<tag k="alt_name" v="Torsvika" />
		<tag k="name" v="Torsviga" />
		<tag k="natural" v="bay" />
		<tag k="ssr:stedsnr" v="935385" />
	</node>
	<node id="-334035" lat="58.1406083294" lon="8.04361945013">
		<tag k="alt_name" v="Hesteholmen" />
		<tag k="name" v="Hestholmen" />
		<tag k="place" v="islet" />
		<tag k="ssr:stedsnr" v="935381" />
	</node>
	<node id="-331977" lat="58.0773666674" lon="8.01343055181">
		<tag k="name" v="Lille Geiderøy" />
		<tag k="place" v="islet" />
		<tag k="ssr:stedsnr" v="106490" />
	</node>
	<node id="-334024" lat="58.0867666695" lon="8.1376611179">
		<tag k="name" v="Østboen" />
		<tag k="place" v="locality" />
		<tag k="seamark:type" v="rock" />
		<tag k="ssr:stedsnr" v="934385" />
	</node>
	<node id="-334023" lat="58.0858333371" lon="8.18135277876">
		<tag k="name" v="Hausesloa" />
		<tag k="natural" v="shoal" />
		<tag k="place" v="locality" />
		<tag k="ssr:stedsnr" v="934383" />
	</node>
	<node id="-334022" lat="58.1102833312" lon="8.07750834054">
		<tag k="name" v="Skromla" />
		<tag k="place" v="locality" />
		<tag k="seamark:type" v="rock" />
		<tag k="ssr:stedsnr" v="934357" />
	</node>
	<node id="-334021" lat="58.1018972228" lon="8.09448888315">
		<tag k="name" v="Bogrunnen" />
		<tag k="place" v="locality" />
		<tag k="seamark:type" v="rock" />
		<tag k="ssr:stedsnr" v="934351" />
	</node>
	<node id="-331968" lat="58.1094277771" lon="8.12626389128">
		<tag k="name" v="Trollenesholmen" />
		<tag k="place" v="islet" />
		<tag k="ssr:stedsnr" v="106365" />
	</node>
	<node id="-331967" lat="58.1052694489" lon="8.1162777753">
		<tag k="name" v="Nordøya" />
		<tag k="natural" v="cape" />
		<tag k="ssr:stedsnr" v="106362" />
	</node>
	<node id="-331963" lat="58.2289916629" lon="8.02891666602">
		<tag k="name" v="Tyholmen" />
		<tag k="place" v="islet" />
		<tag k="ssr:stedsnr" v="106112" />
	</node>
	<node id="-334010" lat="58.0978722193" lon="8.14020278434">
		<tag k="name" v="Torsøya" />
		<tag k="place" v="island" />
		<tag k="ssr:stedsnr" v="910714" />
	</node>
	<node id="-334009" lat="58.1025416683" lon="8.13233611536">
		<tag k="name" v="Brattholmen" />
		<tag k="place" v="islet" />
		<tag k="ssr:stedsnr" v="910712" />
	</node>
	<node id="-334007" lat="58.0885722207" lon="8.13464167108">
		<tag k="alt_name" v="Østre Svarten" />
		<tag k="fixme" v="consider seamark:type=rock or natural=shoal" />
		<tag k="name" v="Svarten" />
		<tag k="place" v="islet" />
		<tag k="ssr:stedsnr" v="910709" />
	</node>
	<node id="-331954" lat="58.0803861116" lon="7.95955000036">
		<tag k="name" v="Kjeholmen" />
		<tag k="place" v="islet" />
		<tag k="ssr:stedsnr" v="106034" />
	</node>
	<node id="-333999" lat="58.110549996" lon="8.15679443964">
		<tag k="name" v="Revsundholmen" />
		<tag k="place" v="islet" />
		<tag k="ssr:stedsnr" v="910532" />
	</node>
	<node id="-333997" lat="58.121727777" lon="8.18537777831">
		<tag k="name" v="Klovholmen" />
		<tag k="place" v="islet" />
		<tag k="ssr:stedsnr" v="910520" />
	</node>
	<node id="-331948" lat="58.0411972206" lon="8.0220194404">
		<tag k="name" v="Sandgrunnane" />
		<tag k="natural" v="shoal" />
		<tag k="place" v="locality" />
		<tag k="ssr:stedsnr" v="100543" />
	</node>
	<node id="-331947" lat="58.0814555532" lon="8.07324999938">
		<tag k="name" v="Langgrunnen" />
		<tag k="natural" v="shoal" />
		<tag k="place" v="locality" />
		<tag k="ssr:stedsnr" v="99780" />
	</node>
	<node id="-331946" lat="58.0645305589" lon="8.0644499922">
		<tag k="name" v="Seibåane" />
		<tag k="natural" v="shoal" />
		<tag k="place" v="locality" />
		<tag k="ssr:stedsnr" v="99739" />
	</node>
	<node id="-331945" lat="58.0520861114" lon="7.9897833379">
		<tag k="name" v="Rennelbåane" />
		<tag k="place" v="locality" />
		<tag k="seamark:type" v="rock" />
		<tag k="ssr:stedsnr" v="99553" />
	</node>
	<node id="-331944" lat="58.1149861145" lon="7.96682221824">
		<tag k="name" v="Kornholmen" />
		<tag k="place" v="islet" />
		<tag k="ssr:stedsnr" v="97228" />
	</node>
	<node id="-331943" lat="58.0991166706" lon="7.9862999981">
		<tag k="name" v="Batteriodden" />
		<tag k="natural" v="cape" />
		<tag k="ssr:stedsnr" v="97195" />
	</node>
	<node id="-333983" lat="58.1124500025" lon="7.97891110338">
		<tag k="name" v="Andøya" />
		<tag k="place" v="island" />
		<tag k="ssr:stedsnr" v="910246" />
	</node>
	<node id="-333981" lat="58.1385666668" lon="8.04874999777">
		<tag k="name" v="Lyngøya" />
		<tag k="place" v="island" />
		<tag k="ssr:stedsnr" v="910229" />
	</node>
	<node id="-333976" lat="58.0720083375" lon="8.01198333801">
		<tag k="alt_name" v="Skuteholmen" />
		<tag k="name" v="Skudeholmen" />
		<tag k="place" v="islet" />
		<tag k="ssr:stedsnr" v="910188" />
	</node>
	<node id="-333973" lat="58.0833194415" lon="7.9646638948">
		<tag k="alt_name" v="Fosseholmen;Store Fossholmen" />
		<tag k="name" v="Store Fosseholmen" />
		<tag k="place" v="islet" />
		<tag k="ssr:stedsnr" v="910178" />
	</node>
	<node id="-333971" lat="58.0878166683" lon="8.01488333573">
		<tag k="alt_name" v="Laksevika" />
		<tag k="name" v="Lakseviga" />
		<tag k="natural" v="bay" />
		<tag k="ssr:stedsnr" v="910174" />
	</node>
	<node id="-333970" lat="58.0976805548" lon="8.05773054725">
		<tag k="name" v="Østergapet" />
		<tag k="natural" v="strait" />
		<tag k="ssr:stedsnr" v="910171" />
	</node>
	<node id="-333969" lat="58.085758335" lon="7.98446110422">
		<tag k="alt_name" v="Gamleøya" />
		<tag k="name" v="Gammeløya" />
		<tag k="place" v="island" />
		<tag k="ssr:stedsnr" v="910159" />
	</node>
	<node id="-333959" lat="58.1620000013" lon="8.04996111734">
		<tag k="alt_name" v="Vareodden" />
		<tag k="name" v="Varodden" />
		<tag k="natural" v="cape" />
		<tag k="ssr:stedsnr" v="910060" />
	</node>
	<node id="-331907" lat="58.137550002" lon="8.00890000787">
		<tag k="alt_name" v="Bleikerøya" />
		<tag k="name" v="Blegerøya" />
		<tag k="place" v="islet" />
		<tag k="ssr:stedsnr" v="86402" />
	</node>
	<node id="-331906" lat="58.1335500043" lon="8.03523333595">
		<tag k="name" v="Villmannsgrunnen" />
		<tag k="natural" v="shoal" />
		<tag k="place" v="locality" />
		<tag k="ssr:stedsnr" v="86400" />
	</node>
	<node id="-331905" lat="58.1275166708" lon="7.97805556141">
		<tag k="name" v="Kjeholmen" />
		<tag k="natural" v="cape" />
		<tag k="ssr:stedsnr" v="86395" />
	</node>
	<node id="-333952" lat="58.1082444474" lon="8.1517805578">
		<tag k="name" v="Plassevågen" />
		<tag k="natural" v="bay" />
		<tag k="ssr:stedsnr" v="878397" />
	</node>
	<node id="-331893" lat="58.1161722214" lon="8.10865556232">
		<tag k="name" v="Kjerkeodden" />
		<tag k="natural" v="cape" />
		<tag k="ssr:stedsnr" v="85283" />
	</node>
	<node id="-331887" lat="58.100141663" lon="8.16058055375">
		<tag k="name" v="Ytre Tovegrunnen" />
		<tag k="natural" v="shoal" />
		<tag k="place" v="locality" />
		<tag k="ssr:stedsnr" v="84473" />
	</node>
	<node id="-331885" lat="58.1077722212" lon="8.09557778589">
		<tag k="name" v="Slettholmen" />
		<tag k="place" v="islet" />
		<tag k="ssr:stedsnr" v="84407" />
	</node>
	<node id="-331883" lat="58.1036555584" lon="8.09415555393">
		<tag k="name" v="Bogrunnskjærane" />
		<tag k="place" v="islet" />
		<tag k="ssr:stedsnr" v="84386" />
	</node>
	<node id="-331882" lat="58.0861472178" lon="8.10255000369">
		<tag k="alt_name" v="Kråkerøy" />
		<tag k="name" v="Kråkerøya" />
		<tag k="place" v="islet" />
		<tag k="ssr:stedsnr" v="61723" />
	</node>
	<node id="-331881" lat="58.0958166698" lon="8.19746111619">
		<tag k="name" v="Meholmen" />
		<tag k="place" v="islet" />
		<tag k="ssr:stedsnr" v="61724" />
	</node>
	<node id="-331880" lat="58.1041611104" lon="8.13828610719">
		<tag k="name" v="Stanggapet" />
		<tag k="natural" v="strait" />
		<tag k="ssr:stedsnr" v="61716" />
	</node>
	<node id="-331876" lat="58.1079055591" lon="8.11734722123">
		<tag k="name" v="Randøysund" />
		<tag k="natural" v="strait" />
		<tag k="ssr:stedsnr" v="61501" />
	</node>
	<node id="-331871" lat="58.1235249968" lon="7.98779443839">
		<tag k="name" v="Svensholmen" />
		<tag k="place" v="islet" />
		<tag k="ssr:stedsnr" v="61234" />
	</node>
	<node id="-331869" lat="58.1304305562" lon="7.97177499575">
		<tag k="name" v="Fiskåtangen" />
		<tag k="natural" v="cape" />
		<tag k="ssr:stedsnr" v="61224" />
	</node>
	<node id="-331867" lat="58.1354583355" lon="7.96980277132">
		<tag k="name" v="Hannevikbukta" />
		<tag k="natural" v="bay" />
		<tag k="ssr:stedsnr" v="61212" />
	</node>
	<node id="-331866" lat="58.1563138863" lon="8.03582222451">
		<tag k="alt_name" v="Kongsgardsbukta" />
		<tag k="name" v="Kongsgårdbukta" />
		<tag k="natural" v="bay" />
		<tag k="ssr:stedsnr" v="61196" />
	</node>
	<node id="-333913" lat="58.1320250043" lon="7.99832222378">
		<tag k="name" v="Hideboen" />
		<tag k="place" v="locality" />
		<tag k="seamark:type" v="rock" />
		<tag k="ssr:stedsnr" v="875394" />
	</node>
	<node id="-333912" lat="58.2295666652" lon="8.03533055422">
		<tag k="fixme" v="consider seamark:type=rock or natural=shoal" />
		<tag k="name" v="Småskjærane" />
		<tag k="place" v="islet" />
		<tag k="ssr:stedsnr" v="875367" />
	</node>
	<node id="-333911" lat="58.1845972182" lon="8.0818083278">
		<tag k="name" v="Gromåsodden" />
		<tag k="natural" v="cape" />
		<tag k="ssr:stedsnr" v="875353" />
	</node>
	<node id="-331862" lat="58.2164194485" lon="8.05169444964">
		<tag k="bay" v="fjord" />
		<tag k="name" v="Ålefjærfjorden" />
		<tag k="natural" v="bay" />
		<tag k="ssr:stedsnr" v="61108" />
	</node>
	<node id="-333900" lat="58.0985111098" lon="7.98789443906">
		<tag k="name" v="Mettesholmen" />
		<tag k="place" v="islet" />
		<tag k="ssr:stedsnr" v="873448" />
	</node>
	<node id="-333899" lat="58.0962777789" lon="8.16608334101">
		<tag k="name" v="Kvaregrunnen" />
		<tag k="natural" v="shoal" />
		<tag k="place" v="locality" />
		<tag k="ssr:stedsnr" v="873436" />
	</node>
	<node id="-333898" lat="58.0920444476" lon="8.13063055163">
		<tag k="name" v="Vestre Svarten" />
		<tag k="place" v="islet" />
		<tag k="ssr:stedsnr" v="873429" />
	</node>
	<node id="-333897" lat="58.0966222203" lon="8.13317500775">
		<tag k="name" v="Ærholmen" />
		<tag k="place" v="islet" />
		<tag k="ssr:stedsnr" v="850707" />
	</node>
	<node id="-333896" lat="58.0917333354" lon="8.10975000137">
		<tag k="name" v="Buholmen" />
		<tag k="place" v="islet" />
		<tag k="ssr:stedsnr" v="850700" />
	</node>
	<node id="-331847" lat="58.141208336" lon="7.99736388442">
		<tag k="name" v="Nodeviga" />
		<tag k="natural" v="bay" />
		<tag k="ssr:stedsnr" v="46993" />
	</node>
	<node id="-331846" lat="58.1362166706" lon="8.0077305573">
		<tag k="name" v="Kjerregårdsbukta" />
		<tag k="natural" v="bay" />
		<tag k="ssr:stedsnr" v="46937" />
	</node>
	<node id="-332047" lat="58.049211111" lon="7.98998333889">
		<tag k="name" v="Bentsbåen" />
		<tag k="place" v="locality" />
		<tag k="seamark:type" v="rock" />
		<tag k="ssr:stedsnr" v="118133" />
	</node>
	<node id="-331365" lat="58.0599472191" lon="7.97100277854">
		<tag k="name" v="Bergesneset" />
		<tag k="natural" v="cape" />
		<tag k="ssr:stedsnr" v="409086" />
	</node>
	<node id="-331840" lat="58.0997749988" lon="7.97953333972">
		<tag k="name" v="Tollbuhola" />
		<tag k="natural" v="bay" />
		<tag k="ssr:stedsnr" v="46606" />
	</node>
	<node id="-331838" lat="58.0621055558" lon="7.99069165891">
		<tag k="alt_name" v="Marviksundet" />
		<tag k="name" v="Marvigsundet" />
		<tag k="natural" v="strait" />
		<tag k="ssr:stedsnr" v="46602" />
	</node>
	<node id="-331837" lat="58.0750972186" lon="7.98850000143">
		<tag k="alt_name" v="Skudevika" />
		<tag k="name" v="Skudeviga" />
		<tag k="natural" v="bay" />
		<tag k="ssr:stedsnr" v="46601" />
	</node>
	<node id="-333884" lat="58.0626638891" lon="7.95992499548">
		<tag k="alt_name" v="Ankerholmen" />
		<tag k="name" v="Ankersholmen" />
		<tag k="place" v="islet" />
		<tag k="ssr:stedsnr" v="850347" />
	</node>
	<node id="-333883" lat="58.0687055583" lon="8.05709999574">
		<tag k="alt_name" v="Lamboskjera" />
		<tag k="fixme" v="consider seamark:type=rock or natural=shoal" />
		<tag k="name" v="Lamboskjærane" />
		<tag k="place" v="islet" />
		<tag k="ssr:stedsnr" v="850336" />
	</node>
	<node id="-333882" lat="58.0624444462" lon="7.97370833579">
		<tag k="alt_name" v="Grunnvågkilen;Grunnevollkilen" />
		<tag k="name" v="Grunnevågkilen" />
		<tag k="natural" v="bay" />
		<tag k="ssr:stedsnr" v="850329" />
	</node>
	<node id="-333881" lat="58.1197583309" lon="7.96517222922">
		<tag k="name" v="Auglandsbukta" />
		<tag k="natural" v="bay" />
		<tag k="ssr:stedsnr" v="850249" />
	</node>
	<node id="-331832" lat="58.0753472194" lon="8.04685833036">
		<tag k="fixme" v="consider seamark:type=rock or natural=shoal" />
		<tag k="name" v="Oksø Skarveskjær" />
		<tag k="place" v="islet" />
		<tag k="ssr:stedsnr" v="46551" />
	</node>
	<node id="-333879" lat="58.1329416667" lon="8.04885000168">
		<tag k="name" v="Prestøya" />
		<tag k="place" v="island" />
		<tag k="ssr:stedsnr" v="850223" />
	</node>
	<node id="-333878" lat="58.1333888918" lon="8.0074694366">
		<tag k="name" v="Odderøya" />
		<tag k="place" v="island" />
		<tag k="ssr:stedsnr" v="850220" />
	</node>
	<node id="-331785" lat="58.163613888" lon="8.06892222682">
		<tag k="name" v="Rodenes" />
		<tag k="natural" v="cape" />
		<tag k="ssr:stedsnr" v="45619" />
	</node>
	<node id="-331827" lat="58.0761749976" lon="7.96824721862">
		<tag k="name" v="Kirka" />
		<tag k="natural" v="bay" />
		<tag k="ssr:stedsnr" v="46454" />
	</node>
	<node id="-333873" lat="58.0797444423" lon="8.03111944141">
		<tag k="name" v="Senholmen" />
		<tag k="place" v="islet" />
		<tag k="ssr:stedsnr" v="850184" />
	</node>
	<node id="-331822" lat="58.072672226" lon="7.96448055222">
		<tag k="alt_name" v="Steinvika" />
		<tag k="name" v="Steinviga" />
		<tag k="natural" v="bay" />
		<tag k="ssr:stedsnr" v="46366" />
	</node>
	<node id="-331821" lat="58.0680055583" lon="7.96228055153">
		<tag k="alt_name" v="Kjettevika" />
		<tag k="name" v="Kjetteviga" />
		<tag k="natural" v="bay" />
		<tag k="ssr:stedsnr" v="46364" />
	</node>
	<node id="-331820" lat="58.0762527803" lon="7.98608611316">
		<tag k="name" v="Pålestø" />
		<tag k="natural" v="bay" />
		<tag k="ssr:stedsnr" v="46350" />
	</node>
	<node id="-331818" lat="58.0769222229" lon="8.01523054828">
		<tag k="name" v="Tjuvholmane" />
		<tag k="place" v="islet" />
		<tag k="ssr:stedsnr" v="46338" />
	</node>
	<node id="-331812" lat="58.0731444422" lon="8.01138611156">
		<tag k="name" v="Skudesundet" />
		<tag k="natural" v="strait" />
		<tag k="ssr:stedsnr" v="46317" />
	</node>
	<node id="-331811" lat="58.0740055576" lon="8.01234444928">
		<tag k="name" v="Tørjesundet" />
		<tag k="natural" v="strait" />
		<tag k="ssr:stedsnr" v="46318" />
	</node>
	<node id="-333858" lat="58.1255494083" lon="8.16390086002">
		<tag k="bay" v="fjord" />
		<tag k="name" v="Kvarenesfjorden" />
		<tag k="natural" v="bay" />
		<tag k="ssr:stedsnr" v="849577" />
	</node>
	<node id="-333857" lat="58.0994361121" lon="7.97239444314">
		<tag k="alt_name" v="Sandvika" />
		<tag k="name" v="Sandviga" />
		<tag k="natural" v="bay" />
		<tag k="ssr:stedsnr" v="849171" />
	</node>
	<node id="-331808" lat="58.088152781" lon="8.10209166569">
		<tag k="name" v="Kråkerøysund" />
		<tag k="natural" v="strait" />
		<tag k="ssr:stedsnr" v="46300" />
	</node>
	<node id="-331807" lat="58.0614138893" lon="7.96772223039">
		<tag k="alt_name" v="Vragevika" />
		<tag k="name" v="Vrageviga" />
		<tag k="natural" v="bay" />
		<tag k="ssr:stedsnr" v="46276" />
	</node>
	<node id="-333853" lat="58.0483972246" lon="7.97241944672">
		<tag k="name" v="Brytebåen" />
		<tag k="place" v="locality" />
		<tag k="seamark:type" v="rock" />
		<tag k="ssr:stedsnr" v="847163" />
	</node>
	<node id="-331803" lat="58.090855558" lon="7.99380278581">
		<tag k="name" v="Gåsevolla" />
		<tag k="natural" v="bay" />
		<tag k="ssr:stedsnr" v="46254" />
	</node>
	<node id="-333841" lat="58.0817500034" lon="7.9936611158">
		<tag k="name" v="Eigedalsholmen" />
		<tag k="place" v="islet" />
		<tag k="ssr:stedsnr" v="835671" />
	</node>
	<node id="-333837" lat="58.120855558" lon="8.11746666397">
		<tag k="fixme" v="consider seamark:type=rock or natural=shoal" />
		<tag k="name" v="Surtekjær" />
		<tag k="place" v="islet" />
		<tag k="ssr:stedsnr" v="835650" />
	</node>
	<node id="-333835" lat="58.0870749978" lon="7.93833332565">
		<tag k="name" v="Leifsbukt" />
		<tag k="natural" v="bay" />
		<tag k="ssr:stedsnr" v="835598" />
	</node>
	<node id="-331786" lat="58.1952083338" lon="8.04760833501">
		<tag k="fixme" v="consider seamark:type=rock or natural=shoal" />
		<tag k="name" v="Selskjær" />
		<tag k="place" v="islet" />
		<tag k="ssr:stedsnr" v="45648" />
	</node>
	<node id="-333833" lat="58.1093666682" lon="8.10596388276">
		<tag k="alt_name" v="Sandvika" />
		<tag k="name" v="Sandviga" />
		<tag k="natural" v="bay" />
		<tag k="ssr:stedsnr" v="835584" />
	</node>
	<node id="-333832" lat="58.0519638856" lon="7.99842777075">
		<tag k="fixme" v="consider seamark:type=rock or natural=shoal" />
		<tag k="name" v="Rennelen" />
		<tag k="place" v="islet" />
		<tag k="ssr:stedsnr" v="835564" />
	</node>
	<node id="-333830" lat="58.0806611127" lon="8.02722500111">
		<tag k="name" v="Asperøya" />
		<tag k="natural" v="cape" />
		<tag k="ssr:stedsnr" v="835517" />
	</node>
	<node id="-333829" lat="58.0810305565" lon="8.03146666972">
		<tag k="fixme" v="consider seamark:type=rock or natural=shoal" />
		<tag k="name" v="Kodeskjær" />
		<tag k="place" v="islet" />
		<tag k="ssr:stedsnr" v="835515" />
	</node>
	<node id="-333828" lat="58.0972944485" lon="7.98334443756">
		<tag k="name" v="Minerholmen" />
		<tag k="place" v="islet" />
		<tag k="ssr:stedsnr" v="835511" />
	</node>
	<node id="-333827" lat="58.0846999967" lon="7.98598889319">
		<tag k="name" v="Kranholmene" />
		<tag k="place" v="islet" />
		<tag k="ssr:stedsnr" v="835510" />
	</node>
	<node id="-333826" lat="58.0617555527" lon="7.97948055655">
		<tag k="fixme" v="consider seamark:type=rock or natural=shoal" />
		<tag k="name" v="Knibskjær" />
		<tag k="place" v="islet" />
		<tag k="ssr:stedsnr" v="835452" />
	</node>
</osm>
