<?xml version="1.0" encoding="UTF-8"?>
<osm generator="osmapis" version="0.6">
	<node id="-331772" lat="58.2464138886" lon="8.13964443906">
		<tag k="alt_name" v="Boen" />
		<tag k="bridge" v="yes" />
		<tag k="layer" v="1" />
		<tag k="name" v="Boen bru" />
		<tag k="ssr:stedsnr" v="45092" />
	</node>
	<node id="-333303" lat="58.069419448" lon="7.9772611193">
		<tag k="name" v="Kanalen" />
		<tag k="ssr:stedsnr" v="653554" />
		<tag k="waterway" v="canal" />
	</node>
	<node id="-331253" lat="58.2490777739" lon="8.1568694425">
		<tag k="bridge" v="yes" />
		<tag k="layer" v="1" />
		<tag k="name" v="Kiland" />
		<tag k="ssr:stedsnr" v="350161" />
	</node>
	<node id="-331252" lat="58.1393638903" lon="7.96605833131">
		<tag k="bridge" v="yes" />
		<tag k="layer" v="1" />
		<tag k="name" v="Kolsdalen" />
		<tag k="ssr:stedsnr" v="350160" />
	</node>
	<node id="-331250" lat="58.1554222259" lon="8.00113055448">
		<tag k="bridge" v="yes" />
		<tag k="layer" v="1" />
		<tag k="name" v="Oddernesbrua nordre" />
		<tag k="ssr:stedsnr" v="350121" />
	</node>
	<node id="-331760" lat="58.1559694416" lon="7.99273610621">
		<tag k="layer" v="-1" />
		<tag k="name" v="Baneheia 10" />
		<tag k="ssr:stedsnr" v="44084" />
		<tag k="tunnel" v="yes" />
	</node>
	<node id="-333295" lat="58.1783499963" lon="8.13489444786">
		<tag k="bridge" v="yes" />
		<tag k="layer" v="1" />
		<tag k="name" v="Barstøl" />
		<tag k="ssr:stedsnr" v="653165" />
	</node>
	<node id="-331758" lat="58.1747944449" lon="7.97272221683">
		<tag k="barrier" v="toll_booth" />
		<tag k="name" v="Sødal" />
		<tag k="ssr:stedsnr" v="41898" />
	</node>
	<node id="-333805" lat="58.21150556" lon="8.10540000159">
		<tag k="man_made" v="quay" />
		<tag k="name" v="Ve brygge" />
		<tag k="place" v="locality" />
		<tag k="ssr:stedsnr" v="834965" />
	</node>
	<node id="-331244" lat="58.11840556" lon="7.96572777323">
		<tag k="man_made" v="quay" />
		<tag k="name" v="Benjaminsens brygge" />
		<tag k="place" v="locality" />
		<tag k="ssr:stedsnr" v="349635" />
	</node>
	<node id="-333794" lat="58.1450111092" lon="8.00580277946">
		<tag k="leisure" v="marina" />
		<tag k="name" v="Christiansholm båthavn" />
		<tag k="ssr:stedsnr" v="834710" />
	</node>
	<node id="-331230" lat="58.0729527749" lon="7.98663610794">
		<tag k="man_made" v="quay" />
		<tag k="name" v="Kjære brygge" />
		<tag k="place" v="locality" />
		<tag k="ssr:stedsnr" v="349387" />
	</node>
	<node id="-333787" lat="58.129602779" lon="8.14658611007">
		<tag k="bridge" v="yes" />
		<tag k="layer" v="1" />
		<tag k="name" v="Romstøl" />
		<tag k="ssr:stedsnr" v="834160" />
	</node>
	<node id="-333786" lat="58.1163194435" lon="8.12988889228">
		<tag k="bridge" v="yes" />
		<tag k="layer" v="1" />
		<tag k="name" v="Stølerona" />
		<tag k="ssr:stedsnr" v="834144" />
	</node>
	<node id="-332247" lat="58.0786416626" lon="8.0157972264">
		<tag k="bridge" v="yes" />
		<tag k="layer" v="1" />
		<tag k="name" v="Geiderøy bru" />
		<tag k="ssr:stedsnr" v="168174" />
	</node>
	<node id="-332246" lat="58.1648888895" lon="8.04168889357">
		<tag k="bridge" v="yes" />
		<tag k="layer" v="1" />
		<tag k="name" v="Narvika" />
		<tag k="ssr:stedsnr" v="168137" />
	</node>
	<node id="-331217" lat="58.0994083376" lon="7.97676667057">
		<tag k="man_made" v="quay" />
		<tag k="name" v="Møvik brygge" />
		<tag k="place" v="locality" />
		<tag k="ssr:stedsnr" v="349067" />
	</node>
	<node id="-332751" lat="58.1111861106" lon="7.98573610758">
		<tag k="landuse" v="harbour" />
		<tag k="name" v="Indre Kongshavn" />
		<tag k="seamark:type" v="harbour" />
		<tag k="ssr:stedsnr" v="509383" />
	</node>
	<node id="-332026" lat="58.1060055552" lon="7.97708333393">
		<tag k="leisure" v="marina" />
		<tag k="name" v="Ternevig båthavn" />
		<tag k="ssr:stedsnr" v="107416" />
	</node>
	<node id="-333773" lat="58.1904333345" lon="8.10729444676">
		<tag k="bridge" v="yes" />
		<tag k="layer" v="1" />
		<tag k="name" v="Ravnåsbrua" />
		<tag k="ssr:stedsnr" v="834039" />
	</node>
	<node id="-331212" lat="58.1963722254" lon="8.08358332554">
		<tag k="man_made" v="quay" />
		<tag k="name" v="Hamrebrygga" />
		<tag k="place" v="locality" />
		<tag k="ssr:stedsnr" v="348990" />
	</node>
	<node id="-333771" lat="58.1501972238" lon="7.99103055312">
		<tag k="layer" v="-1" />
		<tag k="name" v="Baneheia 3" />
		<tag k="ssr:stedsnr" v="833073" />
		<tag k="tunnel" v="yes" />
	</node>
	<node id="-330998" lat="58.1445333342" lon="7.89337776926">
		<tag k="bridge" v="yes" />
		<tag k="layer" v="1" />
		<tag k="name" v="Vestre Fidjane" />
		<tag k="ssr:stedsnr" v="288136" />
	</node>
	<node id="-333236" lat="58.2208833325" lon="8.07794722911">
		<tag k="fixme" v="consider highway=path" />
		<tag k="highway" v="track" />
		<tag k="name" v="Mollkleiv" />
		<tag k="ssr:stedsnr" v="652282" />
	</node>
	<node id="-333229" lat="58.1479972208" lon="7.98788611493">
		<tag k="bridge" v="yes" />
		<tag k="layer" v="1" />
		<tag k="name" v="Vesterbrua" />
		<tag k="ssr:stedsnr" v="652110" />
	</node>
	<node id="-332203" lat="58.0643027773" lon="7.96679165928">
		<tag k="man_made" v="quay" />
		<tag k="name" v="Biskopshavn" />
		<tag k="place" v="locality" />
		<tag k="ssr:stedsnr" v="167276" />
	</node>
	<node id="-333226" lat="58.2325222179" lon="8.11199165976">
		<tag k="bridge" v="yes" />
		<tag k="layer" v="1" />
		<tag k="name" v="Fleskebru" />
		<tag k="ssr:stedsnr" v="652057" />
	</node>
	<node id="-333224" lat="58.2245500005" lon="8.12560832843">
		<tag k="name" v="Flegeplassen" />
		<tag k="place" v="locality" />
		<tag k="ssr:stedsnr" v="652044" />
	</node>
	<node id="-331155" lat="58.2427055573" lon="8.10688889111">
		<tag k="highway" v="path" />
		<tag k="name" v="Mollkleivveien" />
		<tag k="ssr:stedsnr" v="331243" />
	</node>
	<node id="-332192" lat="58.2097972257" lon="7.92494165889">
		<tag k="highway" v="path" />
		<tag k="name" v="Kleivia" />
		<tag k="ssr:stedsnr" v="166971" />
	</node>
	<node id="-333214" lat="58.1629444407" lon="8.01807777555">
		<tag k="layer" v="-1" />
		<tag k="name" v="Presteheia" />
		<tag k="ssr:stedsnr" v="651375" />
		<tag k="tunnel" v="yes" />
	</node>
	<node id="-333212" lat="58.1346805596" lon="8.00576944738">
		<tag k="man_made" v="tower" />
		<tag k="name" v="Odderøya tv-mast" />
		<tag k="ssr:stedsnr" v="647049" />
		<tag k="tower:type" v="communications" />
	</node>
	<node id="-331759" lat="58.150413886" lon="7.99153333282">
		<tag k="layer" v="-1" />
		<tag k="name" v="Baneheia 6" />
		<tag k="ssr:stedsnr" v="44081" />
		<tag k="tunnel" v="yes" />
	</node>
	<node id="-332691" lat="58.0807805569" lon="7.99739444669">
		<tag k="man_made" v="quay" />
		<tag k="name" v="Lindebø brygge" />
		<tag k="place" v="locality" />
		<tag k="ssr:stedsnr" v="471345" />
	</node>
	<node id="-333714" lat="58.1611361143" lon="8.05609999614">
		<tag k="alt_name" v="Varodden" />
		<tag k="bridge" v="yes" />
		<tag k="layer" v="1" />
		<tag k="name" v="Varoddbrua" />
		<tag k="old_name" v="Vareoddbrua" />
		<tag k="ssr:stedsnr" v="813385" />
	</node>
	<node id="-332179" lat="58.1595361109" lon="8.05776110969">
		<tag k="man_made" v="quay" />
		<tag k="name" v="Fjelly brygge" />
		<tag k="place" v="locality" />
		<tag k="ssr:stedsnr" v="166629" />
	</node>
	<node id="-334188" lat="58.1358338516" lon="7.96121395995">
		<tag k="junction" v="yes" />
		<tag k="name" v="Hannevik" />
		<tag k="place" v="locality" />
		<tag k="ssr:stedsnr" v="977587" />
	</node>
	<node id="-333675" lat="58.238694447" lon="8.05492221468">
		<tag k="bridge" v="yes" />
		<tag k="layer" v="1" />
		<tag k="name" v="Kleppe" />
		<tag k="ssr:stedsnr" v="775161" />
	</node>
	<node id="-333674" lat="58.2310666672" lon="8.02273056001">
		<tag k="bridge" v="yes" />
		<tag k="layer" v="1" />
		<tag k="name" v="Jentebekk" />
		<tag k="ssr:stedsnr" v="775152" />
	</node>
	<node id="-333671" lat="58.1466083312" lon="8.01369999441">
		<tag k="leisure" v="marina" />
		<tag k="name" v="Prestvika småbåthavn" />
		<tag k="ssr:stedsnr" v="774997" />
	</node>
	<node id="-334177" lat="58.1488777781" lon="7.97836944591">
		<tag k="bridge" v="yes" />
		<tag k="layer" v="1" />
		<tag k="name" v="Grim" />
		<tag k="ssr:stedsnr" v="957167" />
	</node>
	<node id="-332639" lat="58.2316027817" lon="8.13142778356">
		<tag k="fixme" v="consider highway=path" />
		<tag k="highway" v="track" />
		<tag k="name" v="Rennekleiv" />
		<tag k="ssr:stedsnr" v="470054" />
	</node>
	<node id="-332631" lat="58.1612916671" lon="8.06290555079">
		<tag k="layer" v="-1" />
		<tag k="name" v="Haumyrheia 3" />
		<tag k="ssr:stedsnr" v="469516" />
		<tag k="tunnel" v="yes" />
	</node>
	<node id="-332630" lat="58.1561805586" lon="8.00324721587">
		<tag k="layer" v="-1" />
		<tag k="name" v="Oddernes 2" />
		<tag k="ssr:stedsnr" v="469354" />
		<tag k="tunnel" v="yes" />
	</node>
	<node id="-334164" lat="58.1422638849" lon="8.00335278293">
		<tag k="landuse" v="harbour" />
		<tag k="name" v="Østre havn" />
		<tag k="seamark:type" v="harbour" />
		<tag k="ssr:stedsnr" v="956664" />
	</node>
	<node id="-332627" lat="58.1624833316" lon="8.02498333835">
		<tag k="barrier" v="toll_booth" />
		<tag k="name" v="Bjørndalssletta" />
		<tag k="ssr:stedsnr" v="465910" />
	</node>
	<node id="-333645" lat="58.0767055565" lon="7.99117499768">
		<tag k="alt_name" v="Alsvik brygge" />
		<tag k="man_made" v="quay" />
		<tag k="name" v="Alsvig brygge" />
		<tag k="place" v="locality" />
		<tag k="ssr:stedsnr" v="774386" />
	</node>
	<node id="-333638" lat="58.0785777773" lon="8.01583888252">
		<tag k="man_made" v="quay" />
		<tag k="name" v="Skålevik brygge" />
		<tag k="place" v="locality" />
		<tag k="ssr:stedsnr" v="774362" />
	</node>
	<node id="-332001" lat="58.1409166659" lon="8.07791388789">
		<tag k="bridge" v="yes" />
		<tag k="layer" v="1" />
		<tag k="name" v="Korsvik bru" />
		<tag k="ssr:stedsnr" v="107136" />
	</node>
	<node id="-332608" lat="58.2618083375" lon="8.07496667063">
		<tag k="fixme" v="consider highway=path" />
		<tag k="highway" v="track" />
		<tag k="name" v="Samsonvei" />
		<tag k="ssr:stedsnr" v="453295" />
	</node>
	<node id="-331070" lat="58.1543944474" lon="7.99738611793">
		<tag k="bridge" v="yes" />
		<tag k="layer" v="1" />
		<tag k="name" v="Oddernesbrua" />
		<tag k="ssr:stedsnr" v="289960" />
	</node>
	<node id="-331576" lat="58.0776940247" lon="8.02149782997">
		<tag k="landuse" v="harbour" />
		<tag k="name" v="Stegehavn" />
		<tag k="seamark:type" v="harbour" />
		<tag k="ssr:stedsnr" v="983654" />
	</node>
	<node id="-331572" lat="58.1082843329" lon="7.99242454533">
		<tag k="landuse" v="harbour" />
		<tag k="name" v="Ytre Kongshavn" />
		<tag k="seamark:type" v="harbour" />
		<tag k="ssr:stedsnr" v="983043" />
	</node>
	<node id="-331570" lat="58.1443422739" lon="7.98903937161">
		<tag k="man_made" v="quay" />
		<tag k="name" v="Smiths kai" />
		<tag k="place" v="locality" />
		<tag k="ssr:stedsnr" v="982982" />
	</node>
	<node id="-331569" lat="58.1426723361" lon="7.99139744536">
		<tag k="man_made" v="quay" />
		<tag k="name" v="Moens brygge" />
		<tag k="place" v="locality" />
		<tag k="ssr:stedsnr" v="982979" />
	</node>
	<node id="-331568" lat="58.1420843314" lon="7.99171855263">
		<tag k="man_made" v="quay" />
		<tag k="name" v="Kystterminalen" />
		<tag k="place" v="locality" />
		<tag k="ssr:stedsnr" v="982976" />
	</node>
	<node id="-331567" lat="58.1404000685" lon="7.9916804352">
		<tag k="man_made" v="quay" />
		<tag k="name" v="Lagmannskaia" />
		<tag k="place" v="locality" />
		<tag k="ssr:stedsnr" v="982975" />
	</node>
	<node id="-331566" lat="58.1405902116" lon="7.98910922876">
		<tag k="man_made" v="quay" />
		<tag k="name" v="Agderkaia" />
		<tag k="place" v="locality" />
		<tag k="ssr:stedsnr" v="982974" />
	</node>
	<node id="-331565" lat="58.1398105514" lon="7.99576927782">
		<tag k="man_made" v="quay" />
		<tag k="name" v="Fiskebrygga" />
		<tag k="place" v="locality" />
		<tag k="ssr:stedsnr" v="982972" />
	</node>
	<node id="-331564" lat="58.1397840071" lon="7.9965109717">
		<tag k="man_made" v="quay" />
		<tag k="name" v="Ballastbrygga" />
		<tag k="place" v="locality" />
		<tag k="ssr:stedsnr" v="982970" />
	</node>
	<node id="-331563" lat="58.133839407" lon="7.99874737099">
		<tag k="man_made" v="quay" />
		<tag k="name" v="Oljekaia" />
		<tag k="place" v="locality" />
		<tag k="ssr:stedsnr" v="982837" />
	</node>
	<node id="-331047" lat="58.2380888878" lon="8.17334721484">
		<tag k="fixme" v="consider highway=path" />
		<tag k="highway" v="track" />
		<tag k="name" v="Steinkleiva" />
		<tag k="ssr:stedsnr" v="289366" />
	</node>
	<node id="-334116" lat="58.1974611101" lon="8.08344166234">
		<tag k="man_made" v="quay" />
		<tag k="name" v="Kjevikbrygga" />
		<tag k="place" v="locality" />
		<tag k="ssr:stedsnr" v="955990" />
	</node>
	<node id="-333603" lat="58.2373750013" lon="8.03556666809">
		<tag k="bridge" v="yes" />
		<tag k="layer" v="1" />
		<tag k="name" v="Ålefjær" />
		<tag k="ssr:stedsnr" v="773156" />
	</node>
	<node id="-331553" lat="58.1451250005" lon="8.02821111843">
		<tag k="leisure" v="marina" />
		<tag k="name" v="Kuholmen båthavn" />
		<tag k="ssr:stedsnr" v="896944" />
	</node>
	<node id="-331034" lat="58.1390694468" lon="7.96693333619">
		<tag k="bridge" v="yes" />
		<tag k="layer" v="1" />
		<tag k="name" v="Falconbridge" />
		<tag k="ssr:stedsnr" v="289181" />
	</node>
	<node id="-331033" lat="58.1476166637" lon="7.98703888751">
		<tag k="bridge" v="yes" />
		<tag k="layer" v="1" />
		<tag k="name" v="Frobusdalen" />
		<tag k="ssr:stedsnr" v="289178" />
	</node>
	<node id="-331032" lat="58.1817222235" lon="8.14797500217">
		<tag k="bridge" v="yes" />
		<tag k="layer" v="1" />
		<tag k="name" v="Dyreparken" />
		<tag k="ssr:stedsnr" v="289170" />
	</node>
	<node id="-333079" lat="58.073908335" lon="8.00644166781">
		<tag k="man_made" v="quay" />
		<tag k="name" v="Mæbø brygge" />
		<tag k="place" v="locality" />
		<tag k="ssr:stedsnr" v="592341" />
	</node>
	<node id="-331030" lat="58.2499805562" lon="8.15806110382">
		<tag k="bridge" v="yes" />
		<tag k="layer" v="1" />
		<tag k="name" v="Kilebo" />
		<tag k="ssr:stedsnr" v="289165" />
	</node>
	<node id="-334101" lat="58.196894443" lon="8.00908055133">
		<tag k="fixme" v="verify maritime location" />
		<tag k="mooring" v="yes" />
		<tag k="name" v="Støa" />
		<tag k="place" v="locality" />
		<tag k="ssr:stedsnr" v="955516" />
	</node>
	<node id="-334099" lat="58.1609305596" lon="8.06121943794">
		<tag k="bridge" v="yes" />
		<tag k="layer" v="1" />
		<tag k="name" v="Varoddbrua" />
		<tag k="ssr:stedsnr" v="955142" />
	</node>
	<node id="-334093" lat="58.1525111132" lon="7.99048889168">
		<tag k="layer" v="-1" />
		<tag k="name" v="Baneheia 4" />
		<tag k="ssr:stedsnr" v="954081" />
		<tag k="tunnel" v="yes" />
	</node>
	<node id="-334092" lat="58.1541305586" lon="7.99550278144">
		<tag k="layer" v="-1" />
		<tag k="name" v="Baneheia 2" />
		<tag k="ssr:stedsnr" v="954078" />
		<tag k="tunnel" v="yes" />
	</node>
	<node id="-333066" lat="58.1962833364" lon="8.03490832591">
		<tag k="bridge" v="yes" />
		<tag k="layer" v="1" />
		<tag k="name" v="Justvik" />
		<tag k="ssr:stedsnr" v="592183" />
	</node>
	<node id="-333065" lat="58.2179555552" lon="7.92331945155">
		<tag k="bridge" v="yes" />
		<tag k="layer" v="1" />
		<tag k="name" v="Høiebekk" />
		<tag k="ssr:stedsnr" v="592177" />
	</node>
	<node id="-333063" lat="58.1605972219" lon="8.01702222519">
		<tag k="bridge" v="yes" />
		<tag k="layer" v="1" />
		<tag k="name" v="Prestebekken, Øvre" />
		<tag k="ssr:stedsnr" v="592130" />
	</node>
	<node id="-330966" lat="58.2162805596" lon="8.07220555662">
		<tag k="highway" v="path" />
		<tag k="name" v="Ålefjær kirkevei" />
		<tag k="ssr:stedsnr" v="271482" />
	</node>
	<node id="-331989" lat="58.1430658231" lon="7.99175206103">
		<tag k="loc_name" v="Gamle Honnørbrygga" />
		<tag k="man_made" v="quay" />
		<tag k="name" v="Honnørbrygga" />
		<tag k="place" v="locality" />
		<tag k="ssr:stedsnr" v="106699" />
	</node>
	<node id="-333563" lat="58.1356305513" lon="8.13338333939">
		<tag k="man_made" v="tower" />
		<tag k="name" v="Dolsveten" />
		<tag k="ssr:stedsnr" v="756343" />
		<tag k="tower:type" v="communications" />
	</node>
	<node id="-331514" lat="58.1501694478" lon="8.00601943806">
		<tag k="bridge" v="yes" />
		<tag k="layer" v="1" />
		<tag k="name" v="Jegersberg" />
		<tag k="ssr:stedsnr" v="896170" />
	</node>
	<node id="-331513" lat="58.1928888927" lon="8.15955000022">
		<tag k="bridge" v="yes" />
		<tag k="layer" v="1" />
		<tag k="name" v="Krokvatn" />
		<tag k="ssr:stedsnr" v="896122" />
	</node>
	<node id="-334072" lat="58.2468500011" lon="8.17370833251">
		<tag k="highway" v="path" />
		<tag k="name" v="Gamle Høvågvei" />
		<tag k="ssr:stedsnr" v="938360" />
	</node>
	<node id="-330999" lat="58.2610333317" lon="8.01948054985">
		<tag k="bridge" v="yes" />
		<tag k="layer" v="1" />
		<tag k="name" v="Ravnevassbekk" />
		<tag k="ssr:stedsnr" v="288147" />
	</node>
	<node id="-334070" lat="58.1202337913" lon="8.09206403039">
		<tag k="man_made" v="quay" />
		<tag k="name" v="Tømmerstø" />
		<tag k="place" v="locality" />
		<tag k="ssr:stedsnr" v="938344" />
	</node>
	<node id="-330997" lat="58.1438111085" lon="8.0707027806">
		<tag k="bridge" v="yes" />
		<tag k="layer" v="1" />
		<tag k="name" v="Søylekilen" />
		<tag k="ssr:stedsnr" v="288134" />
	</node>
	<node id="-330990" lat="58.222749996" lon="8.1117750077">
		<tag k="fixme" v="consider highway=path" />
		<tag k="highway" v="track" />
		<tag k="name" v="Steivorskleiv" />
		<tag k="ssr:stedsnr" v="288074" />
	</node>
	<node id="-331499" lat="58.2102861151" lon="8.09981944981">
		<tag k="alt_name" v="Kjevik" />
		<tag k="bridge" v="yes" />
		<tag k="layer" v="1" />
		<tag k="name" v="Bøen bru" />
		<tag k="ssr:stedsnr" v="895678" />
	</node>
	<node id="-331497" lat="58.1375276293" lon="7.99702143083">
		<tag k="alt_name" v="Odderøy kai" />
		<tag k="man_made" v="quay" />
		<tag k="name" v="Silokaia" />
		<tag k="place" v="locality" />
		<tag k="ssr:stedsnr" v="895610" />
	</node>
	<node id="-334055" lat="58.2232916684" lon="8.04829165828">
		<tag k="highway" v="path" />
		<tag k="name" v="Kirkeveien" />
		<tag k="ssr:stedsnr" v="938176" />
	</node>
	<node id="-332004" lat="58.1308472242" lon="8.08580278159">
		<tag k="bridge" v="yes" />
		<tag k="layer" v="1" />
		<tag k="name" v="Fidjekilen" />
		<tag k="ssr:stedsnr" v="107152" />
	</node>
	<node id="-332003" lat="58.1307972236" lon="8.08584722762">
		<tag k="bridge" v="yes" />
		<tag k="layer" v="1" />
		<tag k="name" v="Fidje" />
		<tag k="ssr:stedsnr" v="107149" />
	</node>
	<node id="-333026" lat="58.1643249959" lon="8.04389722444">
		<tag k="bridge" v="yes" />
		<tag k="layer" v="1" />
		<tag k="name" v="Varen" />
		<tag k="ssr:stedsnr" v="591116" />
	</node>
	<node id="-333025" lat="58.2294333308" lon="8.02661389515">
		<tag k="leisure" v="marina" />
		<tag k="name" v="Verven" />
		<tag k="ssr:stedsnr" v="591097" />
	</node>
	<node id="-332000" lat="58.2023361151" lon="8.0981055612">
		<tag k="bridge" v="yes" />
		<tag k="layer" v="1" />
		<tag k="name" v="Hamresvassbekk" />
		<tag k="ssr:stedsnr" v="107134" />
	</node>
	<node id="-334115" lat="58.2113361145" lon="8.10203333159">
		<tag k="man_made" v="quay" />
		<tag k="name" v="Bøensbrygge" />
		<tag k="place" v="locality" />
		<tag k="ssr:stedsnr" v="955975" />
	</node>
	<node id="-333020" lat="58.161444444" lon="8.06835000282">
		<tag k="layer" v="-1" />
		<tag k="name" v="Haumyrheia 1" />
		<tag k="ssr:stedsnr" v="590500" />
		<tag k="tunnel" v="yes" />
	</node>
	<node id="-333019" lat="58.0947833359" lon="7.97247777914">
		<tag k="layer" v="-1" />
		<tag k="name" v="Flekkerøy" />
		<tag k="ssr:stedsnr" v="590420" />
		<tag k="tunnel" v="yes" />
	</node>
	<node id="-333018" lat="58.1555000043" lon="8.00186388738">
		<tag k="layer" v="-1" />
		<tag k="name" v="Oddernes 3" />
		<tag k="ssr:stedsnr" v="590357" />
		<tag k="tunnel" v="yes" />
	</node>
	<node id="-333017" lat="58.1551222258" lon="7.99254722906">
		<tag k="layer" v="-1" />
		<tag k="name" v="Baneheia 9" />
		<tag k="ssr:stedsnr" v="590092" />
		<tag k="tunnel" v="yes" />
	</node>
	<node id="-333016" lat="58.1541722215" lon="7.99542777697">
		<tag k="layer" v="-1" />
		<tag k="name" v="Baneheia 8" />
		<tag k="ssr:stedsnr" v="590091" />
		<tag k="tunnel" v="yes" />
	</node>
	<node id="-333015" lat="58.14875833" lon="7.98877499774">
		<tag k="layer" v="-1" />
		<tag k="name" v="Baneheia 7" />
		<tag k="ssr:stedsnr" v="590089" />
		<tag k="tunnel" v="yes" />
	</node>
	<node id="-333014" lat="58.1498861151" lon="7.98882499158">
		<tag k="layer" v="-1" />
		<tag k="name" v="Baneheia 1" />
		<tag k="ssr:stedsnr" v="590086" />
		<tag k="tunnel" v="yes" />
	</node>
	<node id="-334037" lat="58.1160888893" lon="8.11352777202">
		<tag k="landuse" v="harbour" />
		<tag k="name" v="Kongshavn" />
		<tag k="seamark:type" v="harbour" />
		<tag k="ssr:stedsnr" v="935428" />
	</node>
	<node id="-333012" lat="58.1400555544" lon="7.96689445052">
		<tag k="barrier" v="toll_booth" />
		<tag k="name" v="Vesterveien" />
		<tag k="ssr:stedsnr" v="586901" />
	</node>
	<node id="-331986" lat="58.1575527817" lon="8.05494167366">
		<tag k="man_made" v="quay" />
		<tag k="name" v="Torsvik fergested" />
		<tag k="place" v="locality" />
		<tag k="ssr:stedsnr" v="106642" />
	</node>
	<node id="-334033" lat="58.2024111132" lon="8.07450833055">
		<tag k="aeroway" v="aerodrome" />
		<tag k="alt_name" v="Kjevik" />
		<tag k="name" v="Kristiansand lufthavn, Kjevik" />
		<tag k="ssr:stedsnr" v="935020" />
	</node>
	<node id="-331470" lat="58.2211222246" lon="8.09758611364">
		<tag k="bridge" v="yes" />
		<tag k="layer" v="1" />
		<tag k="name" v="Dalebru" />
		<tag k="ssr:stedsnr" v="895054" />
	</node>
	<node id="-331965" lat="58.1651555579" lon="8.03374167234">
		<tag k="bridge" v="yes" />
		<tag k="layer" v="1" />
		<tag k="name" v="Ålefjærvegen" />
		<tag k="ssr:stedsnr" v="106138" />
	</node>
	<node id="-331964" lat="58.1630305594" lon="8.08319721889">
		<tag k="bridge" v="yes" />
		<tag k="layer" v="1" />
		<tag k="name" v="Strømsdalen G/S Und." />
		<tag k="ssr:stedsnr" v="106132" />
	</node>
	<node id="-331451" lat="58.1407694422" lon="7.96804445016">
		<tag k="bridge" v="yes" />
		<tag k="layer" v="1" />
		<tag k="name" v="Falconbridge Armco." />
		<tag k="ssr:stedsnr" v="411189" />
	</node>
	<node id="-331450" lat="58.1474166642" lon="7.98735278093">
		<tag k="bridge" v="yes" />
		<tag k="layer" v="1" />
		<tag k="name" v="Gartnerløkka" />
		<tag k="ssr:stedsnr" v="411185" />
	</node>
	<node id="-331449" lat="58.1807111113" lon="8.13906111911">
		<tag k="bridge" v="yes" />
		<tag k="layer" v="1" />
		<tag k="name" v="Barstølveien bru" />
		<tag k="ssr:stedsnr" v="411182" />
	</node>
	<node id="-331448" lat="58.2273527753" lon="8.02667500069">
		<tag k="bridge" v="yes" />
		<tag k="layer" v="1" />
		<tag k="name" v="Kostøl" />
		<tag k="ssr:stedsnr" v="411170" />
	</node>
	<node id="-332468" lat="58.2758805567" lon="8.16886666616">
		<tag k="bridge" v="yes" />
		<tag k="layer" v="1" />
		<tag k="name" v="Raen" />
		<tag k="ssr:stedsnr" v="229140" />
	</node>
	<node id="-332467" lat="58.1504527778" lon="7.97020000456">
		<tag k="bridge" v="yes" />
		<tag k="layer" v="1" />
		<tag k="name" v="Møllene" />
		<tag k="ssr:stedsnr" v="229135" />
	</node>
	<node id="-331442" lat="58.1971694426" lon="7.96043889638">
		<tag k="man_made" v="cairn" />
		<tag k="name" v="Skråstadvarden" />
		<tag k="place" v="locality" />
		<tag k="ssr:stedsnr" v="410822" />
	</node>
	<node id="-331951" lat="58.193802778" lon="8.11228333748">
		<tag k="fixme" v="verify maritime location" />
		<tag k="mooring" v="yes" />
		<tag k="name" v="Nordåsstøa" />
		<tag k="place" v="locality" />
		<tag k="ssr:stedsnr" v="106028" />
	</node>
	<node id="-332462" lat="58.2361833326" lon="8.06136943978">
		<tag k="bridge" v="yes" />
		<tag k="layer" v="1" />
		<tag k="name" v="Sunde bru" />
		<tag k="ssr:stedsnr" v="228709" />
	</node>
	<node id="-331949" lat="58.1473444407" lon="7.98287222063">
		<tag k="barrier" v="toll_booth" />
		<tag k="name" v="Setesdalsveien" />
		<tag k="ssr:stedsnr" v="101922" />
	</node>
	<node id="-331804" lat="58.0634972216" lon="7.99400555639">
		<tag k="man_made" v="quay" />
		<tag k="name" v="Okslehavn" />
		<tag k="place" v="locality" />
		<tag k="ssr:stedsnr" v="46256" />
	</node>
	<node id="-333050" lat="58.1960416697" lon="8.03644166956">
		<tag k="leisure" v="marina" />
		<tag k="name" v="Gjødselbrygga" />
		<tag k="ssr:stedsnr" v="591695" />
	</node>
	<node id="-331801" lat="58.1166083367" lon="8.11393055022">
		<tag k="bridge" v="yes" />
		<tag k="layer" v="1" />
		<tag k="name" v="Kongshavn" />
		<tag k="ssr:stedsnr" v="46175" />
	</node>
	<node id="-333972" lat="58.0791791867" lon="7.97773850228">
		<tag k="alt_name" v="Åshamn;Åshamna;Åshavn brygge" />
		<tag k="landuse" v="harbour" />
		<tag k="name" v="Åshavn" />
		<tag k="seamark:type" v="harbour" />
		<tag k="ssr:stedsnr" v="910177" />
	</node>
	<node id="-331800" lat="58.2286416659" lon="8.11642777817">
		<tag k="bridge" v="yes" />
		<tag k="layer" v="1" />
		<tag k="name" v="Prestegårdsbrua" />
		<tag k="ssr:stedsnr" v="46131" />
	</node>
	<node id="-332427" lat="58.256233329" lon="8.05643332551">
		<tag k="bridge" v="yes" />
		<tag k="layer" v="1" />
		<tag k="name" v="Gjermundstad" />
		<tag k="ssr:stedsnr" v="228179" />
	</node>
	<node id="-331031" lat="58.1548777776" lon="8.00365834001">
		<tag k="bridge" v="yes" />
		<tag k="layer" v="1" />
		<tag k="name" v="Enkesete" />
		<tag k="ssr:stedsnr" v="289169" />
	</node>
	<node id="-332420" lat="58.1989805596" lon="8.07045000501">
		<tag k="man_made" v="quay" />
		<tag k="name" v="Sjøflyhavna" />
		<tag k="place" v="locality" />
		<tag k="ssr:stedsnr" v="227981" />
	</node>
	<node id="-333439" lat="58.1380277757" lon="7.99388888172">
		<tag k="landuse" v="harbour" />
		<tag k="name" v="Vestre havn" />
		<tag k="seamark:type" v="harbour" />
		<tag k="ssr:stedsnr" v="713631" />
	</node>
	<node id="-331796" lat="58.2128583332" lon="8.08672499518">
		<tag k="highway" v="path" />
		<tag k="name" v="Urstien" />
		<tag k="ssr:stedsnr" v="45977" />
	</node>
	<node id="-331379" lat="58.1936972187" lon="7.93149445109">
		<tag k="bridge" v="yes" />
		<tag k="layer" v="1" />
		<tag k="name" v="Strai nedre" />
		<tag k="ssr:stedsnr" v="409179" />
	</node>
	<node id="-332911" lat="58.1825555536" lon="8.0355083358">
		<tag k="bridge" v="yes" />
		<tag k="layer" v="1" />
		<tag k="name" v="Eidet" />
		<tag k="ssr:stedsnr" v="532155" />
	</node>
	<node id="-332910" lat="58.1218472263" lon="8.0993749959">
		<tag k="bridge" v="yes" />
		<tag k="layer" v="1" />
		<tag k="name" v="Hoksvassbekk" />
		<tag k="ssr:stedsnr" v="532148" />
	</node>
	<node id="-332909" lat="58.2079277794" lon="7.92387222851">
		<tag k="bridge" v="yes" />
		<tag k="layer" v="1" />
		<tag k="name" v="Auglandsdalen bru" />
		<tag k="ssr:stedsnr" v="532135" />
	</node>
	<node id="-332908" lat="58.1621722199" lon="8.0808416668">
		<tag k="bridge" v="yes" />
		<tag k="layer" v="1" />
		<tag k="name" v="Nottangen bru" />
		<tag k="ssr:stedsnr" v="532113" />
	</node>
	<node id="-332907" lat="58.2262888859" lon="7.9355916666">
		<tag k="bridge" v="yes" />
		<tag k="layer" v="1" />
		<tag k="name" v="Kvarstein" />
		<tag k="ssr:stedsnr" v="532107" />
	</node>
	<node id="-332388" lat="58.1947361098" lon="7.93198888936">
		<tag k="bridge" v="yes" />
		<tag k="layer" v="1" />
		<tag k="name" v="Strai øvre" />
		<tag k="ssr:stedsnr" v="227143" />
	</node>
	<node id="-332387" lat="58.1644583292" lon="8.08493055204">
		<tag k="bridge" v="yes" />
		<tag k="layer" v="1" />
		<tag k="name" v="Strømsheia" />
		<tag k="ssr:stedsnr" v="227144" />
	</node>
	<node id="-331360" lat="58.1551222258" lon="7.99254722906">
		<tag k="layer" v="-1" />
		<tag k="name" v="Baneheia 5" />
		<tag k="ssr:stedsnr" v="408092" />
		<tag k="tunnel" v="yes" />
	</node>
	<node id="-333402" lat="58.1605999984" lon="8.06082500596">
		<tag k="bridge" v="yes" />
		<tag k="layer" v="1" />
		<tag k="name" v="Torsvik" />
		<tag k="ssr:stedsnr" v="713130" />
	</node>
	<node id="-333401" lat="58.1523416663" lon="8.08320000587">
		<tag k="bridge" v="yes" />
		<tag k="layer" v="1" />
		<tag k="name" v="Strømme undergang" />
		<tag k="ssr:stedsnr" v="713126" />
	</node>
	<node id="-332373" lat="58.1433638889" lon="7.98070556223">
		<tag k="layer" v="-1" />
		<tag k="name" v="Vestervegen" />
		<tag k="ssr:stedsnr" v="226679" />
		<tag k="tunnel" v="yes" />
	</node>
	<node id="-332372" lat="58.1555333347" lon="8.00180833958">
		<tag k="layer" v="-1" />
		<tag k="name" v="Oddernes 4" />
		<tag k="ssr:stedsnr" v="226401" />
		<tag k="tunnel" v="yes" />
	</node>
	<node id="-332045" lat="58.1623166646" lon="8.05032777463">
		<tag k="bridge" v="yes" />
		<tag k="layer" v="1" />
		<tag k="name" v="Varoddbrua" />
		<tag k="ssr:stedsnr" v="107982" />
	</node>
	<node id="-333386" lat="58.1989444417" lon="8.00536388465">
		<tag k="fixme" v="verify maritime location" />
		<tag k="mooring" v="yes" />
		<tag k="name" v="Nyestø" />
		<tag k="place" v="locality" />
		<tag k="ssr:stedsnr" v="712493" />
	</node>
	<node id="-333385" lat="58.1607722196" lon="8.06212222343">
		<tag k="layer" v="-1" />
		<tag k="name" v="Haumyrheia 2" />
		<tag k="ssr:stedsnr" v="712464" />
		<tag k="tunnel" v="yes" />
	</node>
	<node id="-333384" lat="58.1671944443" lon="8.01258054885">
		<tag k="barrier" v="toll_booth" />
		<tag k="name" v="Gimlekollen" />
		<tag k="ssr:stedsnr" v="708899" />
	</node>
	<node id="-331842" lat="58.1615249955" lon="8.08167221671">
		<tag k="name" v="Rona" />
		<tag k="ssr:stedsnr" v="46686" />
		<tag k="waterway" v="canal" />
	</node>
	<node id="-332352" lat="58.2018388925" lon="7.99797776992">
		<tag k="highway" v="path" />
		<tag k="name" v="Den gamle Postveien" />
		<tag k="ssr:stedsnr" v="210393" />
	</node>
	<node id="-331188" lat="58.2260277754" lon="7.90645000302">
		<tag k="bridge" v="yes" />
		<tag k="layer" v="1" />
		<tag k="name" v="Sagtjønn" />
		<tag k="ssr:stedsnr" v="348157" />
	</node>
	<node id="-334087" lat="58.149766663" lon="8.00533332999">
		<tag k="alt_name" v="Thygesons Minde" />
		<tag k="bridge" v="yes" />
		<tag k="layer" v="1" />
		<tag k="name" v="Lundsbrua" />
		<tag k="ssr:stedsnr" v="945188" />
	</node>
	<node id="-332837" lat="58.1713527811" lon="8.10652499867">
		<tag k="bridge" v="yes" />
		<tag k="layer" v="1" />
		<tag k="name" v="Timenesbakken" />
		<tag k="ssr:stedsnr" v="530164" />
	</node>
	<node id="-332836" lat="58.2383888927" lon="8.11912777085">
		<tag k="fixme" v="consider highway=path" />
		<tag k="highway" v="track" />
		<tag k="name" v="Mollkleiv" />
		<tag k="ssr:stedsnr" v="530141" />
	</node>
	<node id="-332831" lat="58.2371277753" lon="8.09636945076">
		<tag k="fixme" v="consider highway=path" />
		<tag k="highway" v="track" />
		<tag k="name" v="Timmerkleiv" />
		<tag k="ssr:stedsnr" v="530103" />
	</node>
	<node id="-333852" lat="58.133380553" lon="8.07602500733">
		<tag k="bridge" v="yes" />
		<tag k="layer" v="1" />
		<tag k="name" v="Dvergsnes" />
		<tag k="ssr:stedsnr" v="836136" />
	</node>
	<node id="-333851" lat="58.2475638872" lon="7.99843333582">
		<tag k="bridge" v="yes" />
		<tag k="layer" v="1" />
		<tag k="name" v="Daland" />
		<tag k="ssr:stedsnr" v="836135" />
	</node>
	<node id="-333850" lat="58.1362972209" lon="8.16111945245">
		<tag k="bridge" v="yes" />
		<tag k="layer" v="1" />
		<tag k="name" v="Eftevåg" />
		<tag k="ssr:stedsnr" v="836134" />
	</node>
	<node id="-333849" lat="58.13708889" lon="7.96178889183">
		<tag k="bridge" v="yes" />
		<tag k="layer" v="1" />
		<tag k="name" v="Hannevikdalen" />
		<tag k="ssr:stedsnr" v="836130" />
	</node>
	<node id="-333848" lat="58.165808335" lon="8.08990278557">
		<tag k="bridge" v="yes" />
		<tag k="layer" v="1" />
		<tag k="name" v="Hånesveien" />
		<tag k="ssr:stedsnr" v="836129" />
	</node>
	<node id="-331799" lat="58.2628277752" lon="8.07225278062">
		<tag k="bridge" v="yes" />
		<tag k="layer" v="1" />
		<tag k="name" v="Petersborg" />
		<tag k="ssr:stedsnr" v="46130" />
	</node>
	<node id="-331798" lat="58.1492972224" lon="8.07757499974">
		<tag k="bridge" v="yes" />
		<tag k="layer" v="1" />
		<tag k="name" v="Liatjønn" />
		<tag k="ssr:stedsnr" v="46125" />
	</node>
	<node id="-332820" lat="58.1924138856" lon="8.10221389245">
		<tag k="fixme" v="verify maritime location" />
		<tag k="mooring" v="yes" />
		<tag k="name" v="Haugenstøa" />
		<tag k="place" v="locality" />
		<tag k="ssr:stedsnr" v="530037" />
	</node>
	<node id="-332819" lat="58.1393166653" lon="7.96504445113">
		<tag k="layer" v="-1" />
		<tag k="name" v="Hannevika" />
		<tag k="ssr:stedsnr" v="529452" />
		<tag k="tunnel" v="yes" />
	</node>
	<node id="-331181" lat="58.1604222204" lon="8.01664722987">
		<tag k="layer" v="-1" />
		<tag k="name" v="Oddernes 1" />
		<tag k="ssr:stedsnr" v="347361" />
		<tag k="tunnel" v="yes" />
	</node>
	<node id="-332812" lat="58.0977194442" lon="7.97794166704">
		<tag k="landuse" v="harbour" />
		<tag k="name" v="Indre Flekkerøyhavn" />
		<tag k="seamark:type" v="harbour" />
		<tag k="ssr:stedsnr" v="522248" />
	</node>
	<node id="-332804" lat="58.2329472232" lon="8.08066944404">
		<tag k="highway" v="path" />
		<tag k="name" v="Lømsland kirkevei" />
		<tag k="ssr:stedsnr" v="513471" />
	</node>
	<node id="-332291" lat="58.0986388901" lon="7.97477777832">
		<tag k="name" v="Flekkerøyhavn" />
		<tag k="place" v="locality" />
		<tag k="ssr:stedsnr" v="205510" />
	</node>
	<node id="-333314" lat="58.1400472181" lon="7.99174167111">
		<tag k="man_made" v="quay" />
		<tag k="name" v="Lagmannsholmen" />
		<tag k="place" v="locality" />
		<tag k="ssr:stedsnr" v="667225" />
	</node>
	<node id="-331777" lat="58.1616999969" lon="8.08163332583">
		<tag k="bridge" v="yes" />
		<tag k="layer" v="1" />
		<tag k="name" v="Rona" />
		<tag k="ssr:stedsnr" v="45146" />
	</node>
</osm>
