<?xml version="1.0" encoding="UTF-8"?>
<osm generator="osmapis" version="0.6">
	<node id="-276458" lat="58.3358611086" lon="8.58194166916">
		<tag k="bridge" v="yes" />
		<tag k="layer" v="1" />
		<tag k="name" v="Grooseveien" />
		<tag k="ssr:stedsnr" v="713071" />
	</node>
	<node id="-276985" lat="58.2585833331" lon="8.4693333286">
		<tag k="fixme" v="verify maritime location" />
		<tag k="mooring" v="yes" />
		<tag k="name" v="Østerlødstøa" />
		<tag k="place" v="locality" />
		<tag k="ssr:stedsnr" v="819440" />
	</node>
	<node id="-274166" lat="58.3275777809" lon="8.43486388352">
		<tag k="highway" v="path" />
		<tag k="name" v="Udjus kleiver" />
		<tag k="ssr:stedsnr" v="412754" />
	</node>
	<node id="-276201" lat="58.3905777777" lon="8.64614722952">
		<tag k="bridge" v="yes" />
		<tag k="layer" v="1" />
		<tag k="name" v="Lia" />
		<tag k="ssr:stedsnr" v="652069" />
	</node>
	<node id="-274366" lat="58.3035888901" lon="8.51346111178">
		<tag k="bridge" v="yes" />
		<tag k="layer" v="1" />
		<tag k="name" v="Nørholmen" />
		<tag k="ssr:stedsnr" v="45090" />
	</node>
	<node id="-274162" lat="58.3412194437" lon="8.56599445036">
		<tag k="bridge" v="yes" />
		<tag k="layer" v="1" />
		<tag k="name" v="Øygardsdalen" />
		<tag k="ssr:stedsnr" v="410089" />
	</node>
	<node id="-274161" lat="58.3635416684" lon="8.61499722534">
		<tag k="bridge" v="yes" />
		<tag k="layer" v="1" />
		<tag k="name" v="Vikkilen" />
		<tag k="ssr:stedsnr" v="410087" />
	</node>
	<node id="-274160" lat="58.3872777788" lon="8.41149721428">
		<tag k="bridge" v="yes" />
		<tag k="layer" v="1" />
		<tag k="name" v="Valborgland" />
		<tag k="ssr:stedsnr" v="410086" />
	</node>
	<node id="-276719" lat="58.4076305595" lon="8.40021666182">
		<tag k="bridge" v="yes" />
		<tag k="layer" v="1" />
		<tag k="name" v="Øye" />
		<tag k="ssr:stedsnr" v="774098" />
	</node>
	<node id="-276718" lat="58.3990388879" lon="8.50879999414">
		<tag k="bridge" v="yes" />
		<tag k="layer" v="1" />
		<tag k="name" v="Rønning" />
		<tag k="ssr:stedsnr" v="774085" />
	</node>
	<node id="-276717" lat="58.3862861117" lon="8.67940277847">
		<tag k="bridge" v="yes" />
		<tag k="layer" v="1" />
		<tag k="name" v="Birketveit" />
		<tag k="ssr:stedsnr" v="774072" />
	</node>
	<node id="-276460" lat="58.3402305589" lon="8.58210554902">
		<tag k="bridge" v="yes" />
		<tag k="layer" v="1" />
		<tag k="name" v="Vassbekk vestre" />
		<tag k="ssr:stedsnr" v="714083" />
	</node>
	<node id="-274155" lat="58.3748666702" lon="8.63975833975">
		<tag k="layer" v="-1" />
		<tag k="name" v="Grimstadporten" />
		<tag k="ssr:stedsnr" v="408483" />
		<tag k="tunnel" v="yes" />
	</node>
	<node id="-276202" lat="58.3918944477" lon="8.6979333311">
		<tag k="bridge" v="yes" />
		<tag k="layer" v="1" />
		<tag k="name" v="Vessøy vegkryss" />
		<tag k="ssr:stedsnr" v="653077" />
	</node>
	<node id="-276713" lat="58.3531277781" lon="8.59682222238">
		<tag k="layer" v="-1" />
		<tag k="name" v="Bieheia" />
		<tag k="ssr:stedsnr" v="772125" />
		<tag k="tunnel" v="yes" />
	</node>
	<node id="-275687" lat="58.3628777771" lon="8.60152778626">
		<tag k="bridge" v="yes" />
		<tag k="layer" v="1" />
		<tag k="name" v="Nygård" />
		<tag k="ssr:stedsnr" v="531074" />
	</node>
	<node id="-275686" lat="58.4020166645" lon="8.64363333191">
		<tag k="bridge" v="yes" />
		<tag k="layer" v="1" />
		<tag k="name" v="Lunde" />
		<tag k="ssr:stedsnr" v="531071" />
	</node>
	<node id="-275685" lat="58.3777750015" lon="8.38365832939">
		<tag k="bridge" v="yes" />
		<tag k="layer" v="1" />
		<tag k="name" v="Granmyr" />
		<tag k="ssr:stedsnr" v="531062" />
	</node>
	<node id="-275940" lat="58.3677111118" lon="8.60685556366">
		<tag k="bridge" v="yes" />
		<tag k="layer" v="1" />
		<tag k="name" v="Sævelidalen" />
		<tag k="ssr:stedsnr" v="592077" />
	</node>
	<node id="-275939" lat="58.3977416649" lon="8.69705554734">
		<tag k="bridge" v="yes" />
		<tag k="layer" v="1" />
		<tag k="name" v="Kanneholmen" />
		<tag k="ssr:stedsnr" v="591077" />
	</node>
	<node id="-276706" lat="58.3410277761" lon="8.63252777821">
		<tag k="fixme" v="verify maritime location" />
		<tag k="mooring" v="yes" />
		<tag k="name" v="Kivestø" />
		<tag k="place" v="locality" />
		<tag k="ssr:stedsnr" v="758532" />
	</node>
	<node id="-274269" lat="58.3362805551" lon="8.42210554844">
		<tag k="highway" v="path" />
		<tag k="name" v="Stigsveien" />
		<tag k="ssr:stedsnr" v="897752" />
	</node>
	<node id="-274649" lat="58.4556475837" lon="8.39121573584">
		<tag k="man_made" v="cairn" />
		<tag k="name" v="Gluggvarden" />
		<tag k="place" v="locality" />
		<tag k="ssr:stedsnr" v="113233" />
	</node>
	<node id="-275684" lat="58.3699305574" lon="8.61829721876">
		<tag k="bridge" v="yes" />
		<tag k="layer" v="1" />
		<tag k="name" v="Bringsværmyra syd" />
		<tag k="ssr:stedsnr" v="531056" />
	</node>
	<node id="-274261" lat="58.3182500007" lon="8.53980000118">
		<tag k="bridge" v="yes" />
		<tag k="layer" v="1" />
		<tag k="name" v="Ågre" />
		<tag k="ssr:stedsnr" v="896080" />
	</node>
	<node id="-274260" lat="58.3184361078" lon="8.5353305475">
		<tag k="bridge" v="yes" />
		<tag k="layer" v="1" />
		<tag k="name" v="Tjore" />
		<tag k="ssr:stedsnr" v="896075" />
	</node>
	<node id="-274259" lat="58.3889666704" lon="8.64631943919">
		<tag k="bridge" v="yes" />
		<tag k="layer" v="1" />
		<tag k="name" v="Lia" />
		<tag k="ssr:stedsnr" v="895083" />
	</node>
	<node id="-274258" lat="58.3781499989" lon="8.65067222974">
		<tag k="bridge" v="yes" />
		<tag k="layer" v="1" />
		<tag k="name" v="Hausland" />
		<tag k="ssr:stedsnr" v="895078" />
	</node>
	<node id="-274257" lat="58.3894138931" lon="8.47656111239">
		<tag k="bridge" v="yes" />
		<tag k="layer" v="1" />
		<tag k="name" v="Grøsle" />
		<tag k="ssr:stedsnr" v="895077" />
	</node>
	<node id="-275661" lat="58.349944445" lon="8.56741666575">
		<tag k="junction" v="yes" />
		<tag k="name" v="Kryssen" />
		<tag k="place" v="locality" />
		<tag k="ssr:stedsnr" v="515301" />
	</node>
	<node id="-273855" lat="58.3923583325" lon="8.66856944412">
		<tag k="bridge" v="yes" />
		<tag k="layer" v="1" />
		<tag k="name" v="Skotta" />
		<tag k="ssr:stedsnr" v="349098" />
	</node>
	<node id="-273804" lat="58.3919166702" lon="8.59144443634">
		<tag k="fixme" v="verify maritime location" />
		<tag k="mooring" v="yes" />
		<tag k="name" v="Stoa" />
		<tag k="place" v="locality" />
		<tag k="ssr:stedsnr" v="90246" />
	</node>
	<node id="-276677" lat="58.3734722248" lon="8.59363889623">
		<tag k="highway" v="path" />
		<tag k="name" v="Bjørnestien" />
		<tag k="ssr:stedsnr" v="758331" />
	</node>
	<node id="-273603" lat="58.420408332" lon="8.37891111866">
		<tag k="bridge" v="yes" />
		<tag k="layer" v="1" />
		<tag k="name" v="Metveit" />
		<tag k="ssr:stedsnr" v="288090" />
	</node>
	<node id="-273602" lat="58.401605552" lon="8.64713888284">
		<tag k="bridge" v="yes" />
		<tag k="layer" v="1" />
		<tag k="name" v="Kvikshaug" />
		<tag k="ssr:stedsnr" v="288089" />
	</node>
	<node id="-277569" lat="58.4434861133" lon="8.50073889047">
		<tag k="highway" v="path" />
		<tag k="name" v="Presteveien" />
		<tag k="ssr:stedsnr" v="963398" />
	</node>
	<node id="-276417" lat="58.2519166682" lon="8.45036111381">
		<tag k="man_made" v="cairn" />
		<tag k="name" v="Varden" />
		<tag k="place" v="locality" />
		<tag k="ssr:stedsnr" v="697284" />
	</node>
	<node id="-274367" lat="58.384988887" lon="8.67793889416">
		<tag k="bridge" v="yes" />
		<tag k="layer" v="1" />
		<tag k="name" v="Trålum" />
		<tag k="ssr:stedsnr" v="46080" />
	</node>
	<node id="-275518" lat="58.3668638873" lon="8.61497776969">
		<tag k="bridge" v="yes" />
		<tag k="layer" v="1" />
		<tag k="name" v="Sevelid" />
		<tag k="ssr:stedsnr" v="470071" />
	</node>
	<node id="-275517" lat="58.3836500008" lon="8.65986388261">
		<tag k="bridge" v="yes" />
		<tag k="layer" v="1" />
		<tag k="name" v="Rosenlunde" />
		<tag k="ssr:stedsnr" v="470068" />
	</node>
	<node id="-274364" lat="58.3953472181" lon="8.45747777097">
		<tag k="bridge" v="yes" />
		<tag k="layer" v="1" />
		<tag k="name" v="Granold" />
		<tag k="ssr:stedsnr" v="45082" />
	</node>
	<node id="-277307" lat="58.4258472195" lon="8.52575555871">
		<tag k="highway" v="path" />
		<tag k="name" v="Stien" />
		<tag k="ssr:stedsnr" v="902556" />
	</node>
	<node id="-276154" lat="58.4192500029" lon="8.59136111585">
		<tag k="fixme" v="verify maritime location" />
		<tag k="mooring" v="yes" />
		<tag k="name" v="Timmerstø" />
		<tag k="place" v="locality" />
		<tag k="ssr:stedsnr" v="636270" />
	</node>
	<node id="-276203" lat="58.3682305521" lon="8.62318333302">
		<tag k="bridge" v="yes" />
		<tag k="layer" v="1" />
		<tag k="name" v="Vikkrysset" />
		<tag k="ssr:stedsnr" v="653079" />
	</node>
	<node id="-274157" lat="58.2780305526" lon="8.49874721707">
		<tag k="bridge" v="yes" />
		<tag k="layer" v="1" />
		<tag k="name" v="Enge" />
		<tag k="ssr:stedsnr" v="410063" />
	</node>
	<node id="-274615" lat="58.3847666694" lon="8.52891111349">
		<tag k="bridge" v="yes" />
		<tag k="layer" v="1" />
		<tag k="name" v="Skiftenes" />
		<tag k="ssr:stedsnr" v="107064" />
	</node>
	<node id="-274614" lat="58.348975004" lon="8.58529167439">
		<tag k="bridge" v="yes" />
		<tag k="layer" v="1" />
		<tag k="name" v="Frivolldalen øvre" />
		<tag k="ssr:stedsnr" v="106085" />
	</node>
	<node id="-274613" lat="58.3297000043" lon="8.49471944432">
		<tag k="bridge" v="yes" />
		<tag k="layer" v="1" />
		<tag k="name" v="Dalholt" />
		<tag k="ssr:stedsnr" v="106084" />
	</node>
	<node id="-276658" lat="58.2890222267" lon="8.43854722959">
		<tag k="alt_name" v="Svennevik" />
		<tag k="bridge" v="yes" />
		<tag k="layer" v="1" />
		<tag k="name" v="Svennevig" />
		<tag k="old_name" v="Svennevig bru" />
		<tag k="ssr:stedsnr" v="749830" />
	</node>
	<node id="-273574" lat="58.4071444404" lon="8.60477777607">
		<tag k="fixme" v="verify maritime location" />
		<tag k="mooring" v="yes" />
		<tag k="name" v="Lillestø" />
		<tag k="place" v="locality" />
		<tag k="ssr:stedsnr" v="272368" />
	</node>
	<node id="-273838" lat="58.2734166701" lon="8.48813888653">
		<tag k="man_made" v="quay" />
		<tag k="name" v="Prestebrygga" />
		<tag k="place" v="locality" />
		<tag k="ssr:stedsnr" v="333453" />
	</node>
	<node id="-273854" lat="58.3387972206" lon="8.44687499835">
		<tag k="bridge" v="yes" />
		<tag k="layer" v="1" />
		<tag k="name" v="Fjørbruna" />
		<tag k="ssr:stedsnr" v="349085" />
	</node>
	<node id="-277011" lat="58.3700027777" lon="8.61416943636">
		<tag k="bridge" v="yes" />
		<tag k="layer" v="1" />
		<tag k="name" v="Spedalen" />
		<tag k="ssr:stedsnr" v="835077" />
	</node>
	<node id="-274854" lat="58.3329916628" lon="8.58111110306">
		<tag k="bridge" v="yes" />
		<tag k="layer" v="1" />
		<tag k="name" v="Groos" />
		<tag k="ssr:stedsnr" v="167068" />
	</node>
	<node id="-274853" lat="58.3360638894" lon="8.58145833135">
		<tag k="bridge" v="yes" />
		<tag k="layer" v="1" />
		<tag k="name" v="Groosebekken" />
		<tag k="ssr:stedsnr" v="167067" />
	</node>
	<node id="-275516" lat="58.3371611131" lon="8.59182500566">
		<tag k="layer" v="-1" />
		<tag k="name" v="Vesterled" />
		<tag k="ssr:stedsnr" v="469663" />
		<tag k="tunnel" v="yes" />
	</node>
	<node id="-274594" lat="58.2706666666" lon="8.46991666937">
		<tag k="name" v="Kanalen" />
		<tag k="ssr:stedsnr" v="90397" />
		<tag k="waterway" v="canal" />
	</node>
	<node id="-275104" lat="58.3005083359" lon="8.53087777099">
		<tag k="man_made" v="cairn" />
		<tag k="name" v="Stølevarde" />
		<tag k="place" v="locality" />
		<tag k="ssr:stedsnr" v="230463" />
	</node>
	<node id="-274591" lat="58.4039027763" lon="8.64260833455">
		<tag k="alt_name" v="Stru" />
		<tag k="bridge" v="yes" />
		<tag k="layer" v="1" />
		<tag k="name" v="Strubru" />
		<tag k="ssr:stedsnr" v="90371" />
	</node>
	<node id="-274365" lat="58.3973611104" lon="8.45322499598">
		<tag k="bridge" v="yes" />
		<tag k="layer" v="1" />
		<tag k="name" v="Krosshøl" />
		<tag k="ssr:stedsnr" v="45085" />
	</node>
	<node id="-274373" lat="58.3593499991" lon="8.45711389065">
		<tag k="highway" v="path" />
		<tag k="name" v="Dårestien" />
		<tag k="ssr:stedsnr" v="48229" />
	</node>
	<node id="-275475" lat="58.2568611118" lon="8.51050000164">
		<tag k="man_made" v="quay" />
		<tag k="name" v="Smibrygga" />
		<tag k="place" v="locality" />
		<tag k="ssr:stedsnr" v="454422" />
	</node>
	<node id="-275349" lat="58.4090805581" lon="8.51337223047">
		<tag k="man_made" v="cairn" />
		<tag k="name" v="Voreheivarden" />
		<tag k="place" v="locality" />
		<tag k="ssr:stedsnr" v="417842" />
	</node>
	<node id="-274158" lat="58.3980833371" lon="8.51477499704">
		<tag k="bridge" v="yes" />
		<tag k="layer" v="1" />
		<tag k="name" v="Helleland" />
		<tag k="ssr:stedsnr" v="410071" />
	</node>
	<node id="-277010" lat="58.346677777" lon="8.58065556275">
		<tag k="bridge" v="yes" />
		<tag k="layer" v="1" />
		<tag k="name" v="Frivoll" />
		<tag k="ssr:stedsnr" v="835067" />
	</node>
	<node id="-277009" lat="58.3597722178" lon="8.5985444476">
		<tag k="bridge" v="yes" />
		<tag k="layer" v="1" />
		<tag k="name" v="Gjømle" />
		<tag k="ssr:stedsnr" v="835065" />
	</node>
	<node id="-277008" lat="58.3027638878" lon="8.5291805542">
		<tag k="highway" v="path" />
		<tag k="name" v="Krappsti" />
		<tag k="ssr:stedsnr" v="836210" />
	</node>
	<node id="-273853" lat="58.3713861086" lon="8.61624999236">
		<tag k="bridge" v="yes" />
		<tag k="layer" v="1" />
		<tag k="name" v="Bringsværmyra" />
		<tag k="ssr:stedsnr" v="349084" />
	</node>
	<node id="-274925" lat="58.4076333329" lon="8.40022777248">
		<tag k="bridge" v="yes" />
		<tag k="layer" v="1" />
		<tag k="name" v="Øyebrua" />
		<tag k="ssr:stedsnr" v="174905" />
	</node>
	<node id="-277516" lat="58.3879166687" lon="8.6636416724">
		<tag k="bridge" v="yes" />
		<tag k="layer" v="1" />
		<tag k="name" v="Skarsdalsbekken" />
		<tag k="ssr:stedsnr" v="956094" />
	</node>
	<node id="-273930" lat="58.3928472237" lon="8.38235554794">
		<tag k="man_made" v="cairn" />
		<tag k="name" v="Gluggvarden" />
		<tag k="place" v="locality" />
		<tag k="ssr:stedsnr" v="356950" />
	</node>
	<node id="-274620" lat="58.3168333317" lon="8.42425556231">
		<tag k="highway" v="path" />
		<tag k="name" v="Olstadvegen" />
		<tag k="ssr:stedsnr" v="108644" />
	</node>
	<node id="-274156" lat="58.3552888918" lon="8.59819445266">
		<tag k="bridge" v="yes" />
		<tag k="layer" v="1" />
		<tag k="name" v="Bie" />
		<tag k="ssr:stedsnr" v="410058" />
	</node>
	<node id="-277254" lat="58.3379722184" lon="8.55805555704">
		<tag k="junction" v="yes" />
		<tag k="name" v="Risdal" />
		<tag k="place" v="locality" />
		<tag k="ssr:stedsnr" v="879324" />
	</node>
	<node id="-273601" lat="58.3913583378" lon="8.66727499841">
		<tag k="bridge" v="yes" />
		<tag k="layer" v="1" />
		<tag k="name" v="Esketveit" />
		<tag k="ssr:stedsnr" v="288085" />
	</node>
	<node id="-276459" lat="58.3823861151" lon="8.39860555533">
		<tag k="bridge" v="yes" />
		<tag k="layer" v="1" />
		<tag k="name" v="Gusdal" />
		<tag k="ssr:stedsnr" v="713073" />
	</node>
</osm>
