<?xml version="1.0" encoding="UTF-8"?>
<osm generator="osmapis" version="0.6">
	<node id="-276471" lat="58.3399611108" lon="8.61959166476">
		<tag k="fixme" v="consider place=hamlet" />
		<tag k="name" v="Hagen" />
		<tag k="place" v="farm" />
		<tag k="ssr:stedsnr" v="788205" />
	</node>
	<node id="-274422" lat="58.3931916697" lon="8.50110832623">
		<tag k="name" v="Stølen" />
		<tag k="place" v="farm" />
		<tag k="ssr:stedsnr" v="121564" />
	</node>
	<node id="-274420" lat="58.4028638858" lon="8.64781110755">
		<tag k="fixme" v="consider place=hamlet" />
		<tag k="name" v="Kvikshaug" />
		<tag k="place" v="farm" />
		<tag k="ssr:stedsnr" v="121559" />
	</node>
	<node id="-274415" lat="58.3938222235" lon="8.70043610385">
		<tag k="name" v="Vessøya" />
		<tag k="place" v="farm" />
		<tag k="ssr:stedsnr" v="121540" />
	</node>
	<node id="-274414" lat="58.3904305544" lon="8.6737444464">
		<tag k="fixme" v="consider place=hamlet" />
		<tag k="name" v="Skotta" />
		<tag k="place" v="farm" />
		<tag k="ssr:stedsnr" v="121539" />
	</node>
	<node id="-274413" lat="58.3900221738" lon="8.63469257859">
		<tag k="fixme" v="consider place=hamlet" />
		<tag k="name" v="Bjørnetrø" />
		<tag k="place" v="farm" />
		<tag k="ssr:stedsnr" v="121535" />
	</node>
	<node id="-274409" lat="58.3618194431" lon="8.51457222434">
		<tag k="name" v="Furuly" />
		<tag k="place" v="farm" />
		<tag k="ssr:stedsnr" v="121525" />
	</node>
	<node id="-274408" lat="58.3754055549" lon="8.62326388649">
		<tag k="fixme" v="consider place=hamlet" />
		<tag k="name" v="Bringsvær" />
		<tag k="place" v="farm" />
		<tag k="ssr:stedsnr" v="121522" />
	</node>
	<node id="-275987" lat="58.4137439698" lon="8.38031721421">
		<tag k="fixme" v="consider place=hamlet" />
		<tag k="name" v="Metveit" />
		<tag k="place" v="farm" />
		<tag k="ssr:stedsnr" v="667411" />
	</node>
	<node id="-274402" lat="58.3523222242" lon="8.61795555799">
		<tag k="name" v="Eikeli" />
		<tag k="place" v="farm" />
		<tag k="ssr:stedsnr" v="121508" />
	</node>
	<node id="-274401" lat="58.3567333371" lon="8.50859167259">
		<tag k="fixme" v="consider place=hamlet" />
		<tag k="name" v="Rånnen" />
		<tag k="place" v="farm" />
		<tag k="ssr:stedsnr" v="121507" />
	</node>
	<node id="-276447" lat="58.2744333359" lon="8.50035833103">
		<tag k="name" v="Ospelia" />
		<tag k="place" v="quarter" />
		<tag k="ssr:stedsnr" v="787319" />
	</node>
	<node id="-276446" lat="58.3685888891" lon="8.62683889702">
		<tag k="name" v="Viktoppen" />
		<tag k="place" v="quarter" />
		<tag k="ssr:stedsnr" v="787159" />
	</node>
	<node id="-274423" lat="58.4346138928" lon="8.50365554929">
		<tag k="fixme" v="multiple name tags, choose one and add the other to alt_name" />
		<tag k="name" v="Tønnesøl;Tønnesøl og Skifte østre" />
		<tag k="place" v="farm" />
		<tag k="ssr:stedsnr" v="121600" />
	</node>
	<node id="-274375" lat="58.3698611075" lon="8.58611111048">
		<tag k="fixme" v="consider place=hamlet" />
		<tag k="name" v="Fjæremoen" />
		<tag k="place" v="farm" />
		<tag k="ssr:stedsnr" v="121224" />
	</node>
	<node id="-274373" lat="58.346766665" lon="8.63759445284">
		<tag k="fixme" v="consider place=hamlet" />
		<tag k="name" v="Øvre Hesnes" />
		<tag k="place" v="farm" />
		<tag k="ssr:stedsnr" v="121203" />
	</node>
	<node id="-274371" lat="58.3653944405" lon="8.62142221379">
		<tag k="fixme" v="consider place=hamlet" />
		<tag k="name" v="Vik" />
		<tag k="place" v="farm" />
		<tag k="ssr:stedsnr" v="121185" />
	</node>
	<node id="-274370" lat="58.3539361107" lon="8.63174443636">
		<tag k="fixme" v="consider place=hamlet" />
		<tag k="name" v="Søndre Eskedal" />
		<tag k="place" v="farm" />
		<tag k="ssr:stedsnr" v="121184" />
	</node>
	<node id="-276411" lat="58.3804055587" lon="8.52111666768">
		<tag k="name" v="Solnes" />
		<tag k="place" v="isolated_dwelling" />
		<tag k="ssr:stedsnr" v="781388" />
	</node>
	<node id="-274354" lat="58.3296305566" lon="8.57628056088">
		<tag k="fixme" v="consider place=hamlet" />
		<tag k="name" v="Groos" />
		<tag k="place" v="farm" />
		<tag k="ssr:stedsnr" v="120820" />
	</node>
	<node id="-274340" lat="58.3239472214" lon="8.56106944124">
		<tag k="name" v="Rørmoenheia" />
		<tag k="place" v="neighbourhood" />
		<tag k="ssr:stedsnr" v="119321" />
	</node>
	<node id="-276387" lat="58.4379694431" lon="8.40778888857">
		<tag k="name" v="Øygarden" />
		<tag k="place" v="locality" />
		<tag k="ssr:stedsnr" v="781040" />
	</node>
	<node id="-274338" lat="58.3722527808" lon="8.62710834023">
		<tag k="name" v="Bringsværmoen" />
		<tag k="place" v="quarter" />
		<tag k="ssr:stedsnr" v="119167" />
	</node>
	<node id="-274337" lat="58.3415749958" lon="8.60097500044">
		<tag k="name" v="Hasseltangen" />
		<tag k="place" v="quarter" />
		<tag k="ssr:stedsnr" v="119161" />
	</node>
	<node id="-276377" lat="58.3394365221" lon="8.52937883222">
		<tag k="name" v="Ronneng" />
		<tag k="place" v="farm" />
		<tag k="ssr:stedsnr" v="776929" />
	</node>
	<node id="-276374" lat="58.3419083351" lon="8.45533611613">
		<tag k="name" v="Torpegrenda" />
		<tag k="place" v="hamlet" />
		<tag k="ssr:stedsnr" v="776771" />
	</node>
	<node id="-274317" lat="58.3746333315" lon="8.54391110416">
		<tag k="name" v="Pedersplass" />
		<tag k="place" v="locality" />
		<tag k="ssr:stedsnr" v="114399" />
	</node>
	<node id="-276344" lat="58.3583611109" lon="8.61963888754">
		<tag k="name" v="Stølen" />
		<tag k="place" v="isolated_dwelling" />
		<tag k="ssr:stedsnr" v="758527" />
	</node>
	<node id="-276340" lat="58.2806388899" lon="8.4500555582">
		<tag k="name" v="Krakåsen" />
		<tag k="place" v="farm" />
		<tag k="ssr:stedsnr" v="758467" />
	</node>
	<node id="-274281" lat="58.3345249999" lon="8.45672500676">
		<tag k="name" v="Vasshagen" />
		<tag k="place" v="farm" />
		<tag k="ssr:stedsnr" v="109795" />
	</node>
	<node id="-276328" lat="58.391883334" lon="8.61786665899">
		<tag k="name" v="Steinsmoen" />
		<tag k="place" v="isolated_dwelling" />
		<tag k="ssr:stedsnr" v="758411" />
	</node>
	<node id="-276325" lat="58.3165000006" lon="8.54902777754">
		<tag k="fixme" v="consider place=hamlet" />
		<tag k="name" v="Tingvoll" />
		<tag k="place" v="farm" />
		<tag k="ssr:stedsnr" v="758393" />
	</node>
	<node id="-274273" lat="58.3389444424" lon="8.54723611468">
		<tag k="name" v="Bergemoen" />
		<tag k="place" v="quarter" />
		<tag k="ssr:stedsnr" v="109914" />
	</node>
	<node id="-274271" lat="58.3249027781" lon="8.52239167496">
		<tag k="name" v="Ågreneset" />
		<tag k="place" v="farm" />
		<tag k="ssr:stedsnr" v="109902" />
	</node>
	<node id="-274268" lat="58.3233611084" lon="8.44980834003">
		<tag k="name" v="Holmen" />
		<tag k="place" v="farm" />
		<tag k="ssr:stedsnr" v="109252" />
	</node>
	<node id="-276306" lat="58.2668027757" lon="8.44259722274">
		<tag k="name" v="Store Arnevig" />
		<tag k="place" v="farm" />
		<tag k="ssr:stedsnr" v="755704" />
	</node>
	<node id="-274252" lat="58.3243055593" lon="8.56705555093">
		<tag k="amenity" v="school" />
		<tag k="name" v="Holvika barneskole" />
		<tag k="ssr:stedsnr" v="91345" />
	</node>
	<node id="-276297" lat="58.3208138856" lon="8.54545277906">
		<tag k="fixme" v="consider place=hamlet" />
		<tag k="name" v="Molland" />
		<tag k="place" v="village" />
		<tag k="ssr:stedsnr" v="728994" />
	</node>
	<node id="-276293" lat="58.3094999984" lon="8.47600277891">
		<tag k="fixme" v="consider place=hamlet" />
		<tag k="name" v="Inntjore" />
		<tag k="place" v="farm" />
		<tag k="ssr:stedsnr" v="728986" />
	</node>
	<node id="-276292" lat="58.3056490076" lon="8.52646457106">
		<tag k="alt_name" v="Hegdekjerr" />
		<tag k="name" v="Hegdekjær" />
		<tag k="place" v="farm" />
		<tag k="ssr:stedsnr" v="728985" />
	</node>
	<node id="-276290" lat="58.3366388881" lon="8.47948333191">
		<tag k="name" v="Hesthagen" />
		<tag k="place" v="farm" />
		<tag k="ssr:stedsnr" v="728978" />
	</node>
	<node id="-274240" lat="58.352249997" lon="8.61736110874">
		<tag k="name" v="Solheim" />
		<tag k="place" v="farm" />
		<tag k="ssr:stedsnr" v="90459" />
	</node>
	<node id="-276287" lat="58.2701337336" lon="8.47561102429">
		<tag k="fixme" v="consider place=hamlet" />
		<tag k="name" v="Eide" />
		<tag k="place" v="farm" />
		<tag k="ssr:stedsnr" v="728968" />
	</node>
	<node id="-274227" lat="58.3389083333" lon="8.58727222895">
		<tag k="fixme" v="consider place=suburb, village or hamlet" />
		<tag k="name" v="Lauvstø" />
		<tag k="place" v="quarter" />
		<tag k="ssr:stedsnr" v="90300" />
	</node>
	<node id="-274221" lat="58.3192499965" lon="8.57439167038">
		<tag k="name" v="Klarodden" />
		<tag k="place" v="locality" />
		<tag k="ssr:stedsnr" v="87803" />
	</node>
	<node id="-277127" lat="58.3111666665" lon="8.55441667461">
		<tag k="name" v="Borkedalen" />
		<tag k="place" v="farm" />
		<tag k="ssr:stedsnr" v="940333" />
	</node>
	<node id="-274215" lat="58.2913138934" lon="8.55518055749">
		<tag k="name" v="Hals" />
		<tag k="place" v="locality" />
		<tag k="ssr:stedsnr" v="87627" />
	</node>
	<node id="-274214" lat="58.3632277811" lon="8.65333611162">
		<tag k="fixme" v="consider place=hamlet" />
		<tag k="name" v="Ytre Grefstad" />
		<tag k="place" v="farm" />
		<tag k="ssr:stedsnr" v="87275" />
	</node>
	<node id="-274213" lat="58.4527861146" lon="8.49448889456">
		<tag k="name" v="Helleland" />
		<tag k="place" v="farm" />
		<tag k="ssr:stedsnr" v="85292" />
	</node>
	<node id="-274208" lat="58.3210861135" lon="8.49478610734">
		<tag k="fixme" v="consider place=hamlet" />
		<tag k="name" v="Koksnes" />
		<tag k="place" v="farm" />
		<tag k="ssr:stedsnr" v="61987" />
	</node>
	<node id="-274206" lat="58.3339329015" lon="8.50221481268">
		<tag k="fixme" v="consider place=hamlet" />
		<tag k="name" v="Havstad" />
		<tag k="place" v="farm" />
		<tag k="ssr:stedsnr" v="61964" />
	</node>
	<node id="-274205" lat="58.3390222221" lon="8.57512778268">
		<tag k="fixme" v="consider place=hamlet" />
		<tag k="name" v="Tønnevoll" />
		<tag k="place" v="farm" />
		<tag k="ssr:stedsnr" v="61963" />
	</node>
	<node id="-276249" lat="58.3996444467" lon="8.64408333726">
		<tag k="name" v="Have" />
		<tag k="place" v="farm" />
		<tag k="ssr:stedsnr" v="728538" />
	</node>
	<node id="-274197" lat="58.3973222242" lon="8.66434166199">
		<tag k="fixme" v="consider place=hamlet" />
		<tag k="name" v="Esketveit" />
		<tag k="place" v="farm" />
		<tag k="ssr:stedsnr" v="61524" />
	</node>
	<node id="-276244" lat="58.3928565549" lon="8.59317912498">
		<tag k="fixme" v="consider place=hamlet" />
		<tag k="name" v="Taule" />
		<tag k="place" v="farm" />
		<tag k="ssr:stedsnr" v="728523" />
	</node>
	<node id="-274194" lat="58.3904583315" lon="8.71062222158">
		<tag k="fixme" v="consider place=hamlet" />
		<tag k="name" v="Søm" />
		<tag k="place" v="farm" />
		<tag k="ssr:stedsnr" v="61506" />
	</node>
	<node id="-276241" lat="58.375627782" lon="8.53806944572">
		<tag k="fixme" v="consider place=hamlet" />
		<tag k="name" v="Storenes" />
		<tag k="place" v="farm" />
		<tag k="ssr:stedsnr" v="728513" />
	</node>
	<node id="-274192" lat="58.3653972203" lon="8.59309999168">
		<tag k="fixme" v="consider place=hamlet" />
		<tag k="name" v="Fjære" />
		<tag k="place" v="farm" />
		<tag k="ssr:stedsnr" v="61499" />
	</node>
	<node id="-274190" lat="58.3813972218" lon="8.70009443745">
		<tag k="name" v="Ruager" />
		<tag k="place" v="farm" />
		<tag k="ssr:stedsnr" v="61489" />
	</node>
	<node id="-274188" lat="58.4192777799" lon="8.39449999993">
		<tag k="fixme" v="consider place=hamlet" />
		<tag k="name" v="Vollen" />
		<tag k="place" v="farm" />
		<tag k="ssr:stedsnr" v="61400" />
	</node>
	<node id="-274186" lat="58.3883888869" lon="8.46414722437">
		<tag k="fixme" v="consider place=hamlet" />
		<tag k="name" v="Grøsle" />
		<tag k="place" v="farm" />
		<tag k="ssr:stedsnr" v="61320" />
	</node>
	<node id="-274185" lat="58.3986361116" lon="8.44137221438">
		<tag k="name" v="Risbruna" />
		<tag k="place" v="farm" />
		<tag k="ssr:stedsnr" v="61309" />
	</node>
	<node id="-274184" lat="58.3393203609" lon="8.45680335306">
		<tag k="alt_name" v="Midstue" />
		<tag k="fixme" v="consider place=hamlet" />
		<tag k="name" v="Midstu" />
		<tag k="place" v="farm" />
		<tag k="ssr:stedsnr" v="61248" />
	</node>
	<node id="-276227" lat="58.4090027795" lon="8.46280555123">
		<tag k="fixme" v="consider place=hamlet" />
		<tag k="name" v="Hardeberg" />
		<tag k="place" v="farm" />
		<tag k="ssr:stedsnr" v="728399" />
	</node>
	<node id="-276215" lat="58.3793055522" lon="8.46229722134">
		<tag k="alt_name" v="Bjørkos" />
		<tag k="name" v="Nedre Bjørkos" />
		<tag k="place" v="isolated_dwelling" />
		<tag k="ssr:stedsnr" v="728293" />
	</node>
	<node id="-276168" lat="58.3720527754" lon="8.66788333833">
		<tag k="name" v="Strand Hotel" />
		<tag k="old_name" v="Strand Hotell" />
		<tag k="ssr:stedsnr" v="723418" />
		<tag k="tourism" v="hotel" />
	</node>
	<node id="-276163" lat="58.435897219" lon="8.50480554752">
		<tag k="fixme" v="consider place=hamlet" />
		<tag k="name" v="Tønnesøl" />
		<tag k="place" v="farm" />
		<tag k="ssr:stedsnr" v="721713" />
	</node>
	<node id="-274037" lat="58.3403777739" lon="8.51596389288">
		<tag k="name" v="Ringsenga" />
		<tag k="place" v="farm" />
		<tag k="ssr:stedsnr" v="48869" />
	</node>
	<node id="-274100" lat="58.3547611076" lon="8.5605666603">
		<tag k="fixme" v="consider place=hamlet" />
		<tag k="name" v="Østre Frivold" />
		<tag k="place" v="farm" />
		<tag k="ssr:stedsnr" v="59807" />
	</node>
	<node id="-274095" lat="58.3466388887" lon="8.63942221534">
		<tag k="name" v="Drottningborg" />
		<tag k="place" v="quarter" />
		<tag k="ssr:stedsnr" v="59182" />
	</node>
	<node id="-276124" lat="58.3280611133" lon="8.47282221566">
		<tag k="name" v="Åbålviga" />
		<tag k="place" v="farm" />
		<tag k="ssr:stedsnr" v="716820" />
	</node>
	<node id="-276106" lat="58.2840777774" lon="8.45441110915">
		<tag k="name" v="Kilehaven" />
		<tag k="place" v="isolated_dwelling" />
		<tag k="ssr:stedsnr" v="715424" />
	</node>
	<node id="-276104" lat="58.3059249981" lon="8.44653610716">
		<tag k="name" v="Svarthusdalen" />
		<tag k="place" v="locality" />
		<tag k="ssr:stedsnr" v="715355" />
	</node>
	<node id="-274051" lat="58.3849416671" lon="8.44410276995">
		<tag k="fixme" v="consider place=hamlet" />
		<tag k="name" v="Øvre Bjørkos" />
		<tag k="place" v="farm" />
		<tag k="ssr:stedsnr" v="53123" />
	</node>
	<node id="-276098" lat="58.3507916676" lon="8.55229721429">
		<tag k="name" v="Klomreheia" />
		<tag k="place" v="quarter" />
		<tag k="ssr:stedsnr" v="709316" />
	</node>
	<node id="-276097" lat="58.2688694488" lon="8.50844722048">
		<tag k="name" v="Jortveit" />
		<tag k="place" v="quarter" />
		<tag k="ssr:stedsnr" v="709317" />
	</node>
	<node id="-276092" lat="58.3890833306" lon="8.72280556186">
		<tag k="name" v="Hasleøya" />
		<tag k="place" v="farm" />
		<tag k="ssr:stedsnr" v="698423" />
	</node>
	<node id="-276088" lat="58.3942805549" lon="8.65049167164">
		<tag k="name" v="Grosvold" />
		<tag k="place" v="farm" />
		<tag k="ssr:stedsnr" v="697729" />
	</node>
	<node id="-276086" lat="58.3871583319" lon="8.67251111419">
		<tag k="name" v="Skarsdalen" />
		<tag k="place" v="farm" />
		<tag k="ssr:stedsnr" v="697713" />
	</node>
	<node id="-276085" lat="58.3772861147" lon="8.64125555739">
		<tag k="name" v="Rønningen" />
		<tag k="place" v="farm" />
		<tag k="ssr:stedsnr" v="697707" />
	</node>
	<node id="-276078" lat="58.3591388882" lon="8.6099722151">
		<tag k="building" v="industrial" />
		<tag k="name" v="Nymo mek. verksted" />
		<tag k="ssr:stedsnr" v="697460" />
	</node>
	<node id="-276065" lat="58.3465277781" lon="8.56875000656">
		<tag k="name" v="Klingremoen" />
		<tag k="place" v="farm" />
		<tag k="ssr:stedsnr" v="697309" />
	</node>
	<node id="-276063" lat="58.3640555597" lon="8.60074999706">
		<tag k="name" v="Flådda" />
		<tag k="place" v="farm" />
		<tag k="ssr:stedsnr" v="697304" />
	</node>
	<node id="-276061" lat="58.3960000018" lon="8.56025000687">
		<tag k="name" v="Svartodde" />
		<tag k="place" v="locality" />
		<tag k="ssr:stedsnr" v="697303" />
	</node>
	<node id="-276057" lat="58.2765277795" lon="8.49622221623">
		<tag k="name" v="Lille Buhaven" />
		<tag k="place" v="isolated_dwelling" />
		<tag k="ssr:stedsnr" v="697126" />
	</node>
	<node id="-276044" lat="58.3150611142" lon="8.48294444311">
		<tag k="fixme" v="consider place=hamlet" />
		<tag k="name" v="Hesthagen" />
		<tag k="place" v="farm" />
		<tag k="ssr:stedsnr" v="667997" />
	</node>
	<node id="-276041" lat="58.3372750005" lon="8.46680277835">
		<tag k="alt_name" v="Jåvoll" />
		<tag k="fixme" v="consider place=hamlet" />
		<tag k="name" v="Jåvold" />
		<tag k="place" v="farm" />
		<tag k="ssr:stedsnr" v="667984" />
	</node>
	<node id="-276040" lat="58.3350666521" lon="8.49068898068">
		<tag k="fixme" v="consider place=hamlet" />
		<tag k="name" v="Dolholt" />
		<tag k="place" v="farm" />
		<tag k="ssr:stedsnr" v="667977" />
	</node>
	<node id="-276037" lat="58.2791055543" lon="8.50555833012">
		<tag k="fixme" v="consider place=hamlet" />
		<tag k="name" v="Espevig" />
		<tag k="place" v="farm" />
		<tag k="ssr:stedsnr" v="667971" />
	</node>
	<node id="-276035" lat="58.2935472263" lon="8.53465277096">
		<tag k="name" v="Nesvoll" />
		<tag k="place" v="isolated_dwelling" />
		<tag k="ssr:stedsnr" v="667934" />
	</node>
	<node id="-273974" lat="58.3214166698" lon="8.56383333332">
		<tag k="amenity" v="school" />
		<tag k="name" v="Langemyr skole" />
		<tag k="ssr:stedsnr" v="30359" />
	</node>
	<node id="-273969" lat="58.345583329" lon="8.59216665968">
		<tag k="leisure" v="pitch" />
		<tag k="name" v="Levermyr" />
		<tag k="ssr:stedsnr" v="30302" />
	</node>
	<node id="-273966" lat="58.338969448" lon="8.59258333124">
		<tag k="name" v="Odden" />
		<tag k="place" v="locality" />
		<tag k="ssr:stedsnr" v="27725" />
	</node>
	<node id="-273959" lat="58.2738083323" lon="8.43593332586">
		<tag k="name" v="Gullura" />
		<tag k="place" v="isolated_dwelling" />
		<tag k="ssr:stedsnr" v="21872" />
	</node>
	<node id="-273957" lat="58.3424333316" lon="8.60873611046">
		<tag k="fixme" v="consider place=hamlet" />
		<tag k="name" v="Ulenes" />
		<tag k="place" v="farm" />
		<tag k="ssr:stedsnr" v="988" />
	</node>
	<node id="-273955" lat="58.3388972259" lon="8.60361667066">
		<tag k="fixme" v="consider place=suburb, village or hamlet" />
		<tag k="name" v="Rønnes" />
		<tag k="place" v="quarter" />
		<tag k="ssr:stedsnr" v="979" />
	</node>
	<node id="-273954" lat="58.2813861134" lon="8.52108611345">
		<tag k="name" v="Helle" />
		<tag k="place" v="isolated_dwelling" />
		<tag k="ssr:stedsnr" v="976" />
	</node>
	<node id="-273952" lat="58.2788770626" lon="8.52459927832">
		<tag k="fixme" v="consider place=hamlet" />
		<tag k="name" v="Havnevåg" />
		<tag k="place" v="farm" />
		<tag k="ssr:stedsnr" v="972" />
	</node>
	<node id="-275999" lat="58.4143749982" lon="8.59686111531">
		<tag k="name" v="Tørvolt" />
		<tag k="place" v="farm" />
		<tag k="ssr:stedsnr" v="667551" />
	</node>
	<node id="-275998" lat="58.3943666641" lon="8.50652778207">
		<tag k="name" v="Skiftenes" />
		<tag k="place" v="farm" />
		<tag k="ssr:stedsnr" v="667527" />
	</node>
	<node id="-275995" lat="58.3724416703" lon="8.66986389593">
		<tag k="name" v="Strand" />
		<tag k="place" v="village" />
		<tag k="ssr:stedsnr" v="667488" />
	</node>
	<node id="-273945" lat="58.3842555571" lon="8.67722777493">
		<tag k="fixme" v="consider place=hamlet" />
		<tag k="name" v="Trålum" />
		<tag k="place" v="village" />
		<tag k="ssr:stedsnr" v="536" />
	</node>
	<node id="-275992" lat="58.3404638846" lon="8.59336944073">
		<tag k="name" v="Grimstad" />
		<tag k="place" v="town" />
		<tag k="ssr:stedsnr" v="667482" />
	</node>
	<node id="-275991" lat="58.3481527755" lon="8.57664166625">
		<tag k="fixme" v="consider place=suburb, village or hamlet" />
		<tag k="name" v="Frivoll" />
		<tag k="place" v="quarter" />
		<tag k="ssr:stedsnr" v="667479" />
	</node>
	<node id="-275990" lat="58.4737388932" lon="8.44510000193">
		<tag k="fixme" v="consider place=hamlet" />
		<tag k="name" v="Toskedal" />
		<tag k="place" v="farm" />
		<tag k="ssr:stedsnr" v="667442" />
	</node>
	<node id="-273940" lat="58.3657166675" lon="8.64690277329">
		<tag k="fixme" v="consider place=hamlet" />
		<tag k="name" v="Moy" />
		<tag k="place" v="farm" />
		<tag k="ssr:stedsnr" v="516" />
	</node>
	<node id="-273939" lat="58.3514555524" lon="8.53718333558">
		<tag k="name" v="Roresand" />
		<tag k="place" v="village" />
		<tag k="ssr:stedsnr" v="513" />
	</node>
	<node id="-273938" lat="58.3700805522" lon="8.64463889563">
		<tag k="name" v="Moy Moner" />
		<tag k="place" v="farm" />
		<tag k="ssr:stedsnr" v="509" />
	</node>
	<node id="-273937" lat="58.3597361095" lon="8.56226667189">
		<tag k="fixme" v="consider place=hamlet" />
		<tag k="name" v="Rosholt" />
		<tag k="place" v="farm" />
		<tag k="ssr:stedsnr" v="510" />
	</node>
	<node id="-273936" lat="58.3587527814" lon="8.63622222239">
		<tag k="fixme" v="consider place=hamlet" />
		<tag k="name" v="Hodnebrog" />
		<tag k="place" v="farm" />
		<tag k="ssr:stedsnr" v="504" />
	</node>
	<node id="-273934" lat="58.3970194424" lon="8.37246945174">
		<tag k="fixme" v="consider place=hamlet" />
		<tag k="name" v="Solli" />
		<tag k="place" v="farm" />
		<tag k="ssr:stedsnr" v="438" />
	</node>
	<node id="-273931" lat="58.3448222211" lon="8.39595555298">
		<tag k="name" v="Nordli" />
		<tag k="place" v="farm" />
		<tag k="ssr:stedsnr" v="377" />
	</node>
	<node id="-273929" lat="58.3432371997" lon="8.45485209559">
		<tag k="fixme" v="consider place=hamlet" />
		<tag k="name" v="Torp" />
		<tag k="place" v="farm" />
		<tag k="ssr:stedsnr" v="266" />
	</node>
	<node id="-275974" lat="58.4020944432" lon="8.4560361066">
		<tag k="alt_name" v="Øygard" />
		<tag k="name" v="Øygarden" />
		<tag k="place" v="isolated_dwelling" />
		<tag k="ssr:stedsnr" v="667313" />
	</node>
	<node id="-275961" lat="58.3460277799" lon="8.46372499432">
		<tag k="fixme" v="consider place=hamlet" />
		<tag k="name" v="Østerhus" />
		<tag k="place" v="farm" />
		<tag k="ssr:stedsnr" v="667254" />
	</node>
	<node id="-275960" lat="58.3435808842" lon="8.44666641498">
		<tag k="fixme" v="consider place=hamlet" />
		<tag k="name" v="Einertrø" />
		<tag k="place" v="farm" />
		<tag k="ssr:stedsnr" v="667253" />
	</node>
	<node id="-275956" lat="58.3398472239" lon="8.65578611624">
		<tag k="fixme" v="consider place=hamlet" />
		<tag k="name" v="Kvaløya" />
		<tag k="place" v="farm" />
		<tag k="ssr:stedsnr" v="667208" />
	</node>
	<node id="-273897" lat="58.3012388916" lon="8.53459722563">
		<tag k="name" v="Støle" />
		<tag k="place" v="quarter" />
		<tag k="ssr:stedsnr" v="891341" />
	</node>
	<node id="-275937" lat="58.3593361084" lon="8.60499445111">
		<tag k="fixme" v="consider place=hamlet" />
		<tag k="name" v="Vestre Ugland" />
		<tag k="place" v="farm" />
		<tag k="ssr:stedsnr" v="666789" />
	</node>
	<node id="-275923" lat="58.3283861132" lon="8.5696527815">
		<tag k="name" v="Søndre Groosåsen" />
		<tag k="place" v="quarter" />
		<tag k="ssr:stedsnr" v="664171" />
	</node>
	<node id="-275922" lat="58.3456777774" lon="8.55398332938">
		<tag k="name" v="Rore hageby" />
		<tag k="place" v="quarter" />
		<tag k="ssr:stedsnr" v="664154" />
	</node>
	<node id="-274339" lat="58.3239472214" lon="8.56106944124">
		<tag k="name" v="Langemyrjordet" />
		<tag k="place" v="quarter" />
		<tag k="ssr:stedsnr" v="119314" />
	</node>
	<node id="-273869" lat="58.4249999963" lon="8.42363055211">
		<tag k="name" v="Kvernevollen" />
		<tag k="place" v="isolated_dwelling" />
		<tag k="ssr:stedsnr" v="477313" />
	</node>
	<node id="-275914" lat="58.3975361152" lon="8.45265833165">
		<tag k="name" v="Krosshøl" />
		<tag k="place" v="farm" />
		<tag k="ssr:stedsnr" v="659806" />
	</node>
	<node id="-273996" lat="58.3663888892" lon="8.60508333221">
		<tag k="name" v="Nygård" />
		<tag k="place" v="farm" />
		<tag k="ssr:stedsnr" v="30486" />
	</node>
	<node id="-275907" lat="58.3856416707" lon="8.5354611061">
		<tag k="fixme" v="consider place=hamlet" />
		<tag k="name" v="Bomdalen" />
		<tag k="place" v="farm" />
		<tag k="ssr:stedsnr" v="659383" />
	</node>
	<node id="-273833" lat="58.3096805596" lon="8.53471945109">
		<tag k="fixme" v="consider place=hamlet" />
		<tag k="name" v="Skodde" />
		<tag k="place" v="farm" />
		<tag k="ssr:stedsnr" v="473324" />
	</node>
	<node id="-275873" lat="58.3298722225" lon="8.54275556083">
		<tag k="name" v="Madsmyr" />
		<tag k="place" v="farm" />
		<tag k="ssr:stedsnr" v="655903" />
	</node>
	<node id="-273813" lat="58.339616665" lon="8.43547778515">
		<tag k="name" v="Stigsvoll" />
		<tag k="place" v="farm" />
		<tag k="ssr:stedsnr" v="411768" />
	</node>
	<node id="-273795" lat="58.3555916701" lon="8.55389165925">
		<tag k="name" v="Nordås" />
		<tag k="place" v="quarter" />
		<tag k="ssr:stedsnr" v="405304" />
	</node>
	<node id="-273794" lat="58.3669972186" lon="8.61730277727">
		<tag k="name" v="Vestre Vik" />
		<tag k="place" v="quarter" />
		<tag k="ssr:stedsnr" v="241157" />
	</node>
	<node id="-275841" lat="58.3340583342" lon="8.54480555573">
		<tag k="name" v="Væråsplassen" />
		<tag k="place" v="farm" />
		<tag k="ssr:stedsnr" v="648908" />
	</node>
	<node id="-273792" lat="58.3938944483" lon="8.69204999892">
		<tag k="name" v="Bødkerhaven" />
		<tag k="place" v="isolated_dwelling" />
		<tag k="ssr:stedsnr" v="394755" />
	</node>
	<node id="-275839" lat="58.3366777788" lon="8.53138333162">
		<tag k="name" v="Myråsen" />
		<tag k="place" v="quarter" />
		<tag k="ssr:stedsnr" v="646282" />
	</node>
	<node id="-273789" lat="58.3800944436" lon="8.70588889021">
		<tag k="name" v="Haugenes" />
		<tag k="place" v="quarter" />
		<tag k="ssr:stedsnr" v="394734" />
	</node>
	<node id="-273788" lat="58.3758722264" lon="8.67645000402">
		<tag k="name" v="Fevik nedre" />
		<tag k="place" v="village" />
		<tag k="ssr:stedsnr" v="394730" />
	</node>
	<node id="-274193" lat="58.3880249997" lon="8.65067777993">
		<tag k="name" v="Lia" />
		<tag k="place" v="farm" />
		<tag k="ssr:stedsnr" v="61504" />
	</node>
	<node id="-275824" lat="58.3511797143" lon="8.6160970554">
		<tag k="name" v="Plassen" />
		<tag k="place" v="locality" />
		<tag k="ssr:stedsnr" v="636472" />
	</node>
	<node id="-275817" lat="58.2797972853" lon="8.46718253397">
		<tag k="fixme" v="consider place=hamlet" />
		<tag k="name" v="Østerlød" />
		<tag k="place" v="farm" />
		<tag k="ssr:stedsnr" v="636421" />
	</node>
	<node id="-273767" lat="58.2796111153" lon="8.45111110725">
		<tag k="name" v="Skredderen" />
		<tag k="place" v="farm" />
		<tag k="ssr:stedsnr" v="394432" />
	</node>
	<node id="-277125" lat="58.3343611135" lon="8.58494444637">
		<tag k="name" v="Helmershus" />
		<tag k="ssr:stedsnr" v="940324" />
		<tag k="tourism" v="hotel" />
	</node>
	<node id="-275807" lat="58.3408833306" lon="8.55488056372">
		<tag k="name" v="Bergemoen" />
		<tag k="place" v="quarter" />
		<tag k="ssr:stedsnr" v="636336" />
	</node>
	<node id="-275804" lat="58.3866944479" lon="8.57613889381">
		<tag k="name" v="Østre Liene" />
		<tag k="place" v="locality" />
		<tag k="ssr:stedsnr" v="636320" />
	</node>
	<node id="-275781" lat="58.3600166639" lon="8.58234444878">
		<tag k="fixme" v="consider place=hamlet" />
		<tag k="name" v="Bråstad" />
		<tag k="place" v="farm" />
		<tag k="ssr:stedsnr" v="607525" />
	</node>
	<node id="-275780" lat="58.3234666703" lon="8.57633610273">
		<tag k="name" v="Holviga" />
		<tag k="place" v="isolated_dwelling" />
		<tag k="ssr:stedsnr" v="606999" />
	</node>
	<node id="-273731" lat="58.3822972266" lon="8.71508889496">
		<tag k="name" v="Plassene" />
		<tag k="place" v="locality" />
		<tag k="ssr:stedsnr" v="390624" />
	</node>
	<node id="-275778" lat="58.3484138934" lon="8.64174444786">
		<tag k="alt_name" v="Drotningborg vg.skole" />
		<tag k="amenity" v="school" />
		<tag k="name" v="Drottningborg" />
		<tag k="ssr:stedsnr" v="606978" />
	</node>
	<node id="-275777" lat="58.3379083294" lon="8.54132222837">
		<tag k="name" v="Myra" />
		<tag k="place" v="farm" />
		<tag k="ssr:stedsnr" v="606974" />
	</node>
	<node id="-275769" lat="58.2868333299" lon="8.50533610586">
		<tag k="fixme" v="consider place=hamlet" />
		<tag k="name" v="Vågsholt" />
		<tag k="place" v="farm" />
		<tag k="ssr:stedsnr" v="606935" />
	</node>
	<node id="-275743" lat="58.3763607924" lon="8.52759108648">
		<tag k="fixme" v="consider place=hamlet" />
		<tag k="name" v="Liene" />
		<tag k="place" v="farm" />
		<tag k="ssr:stedsnr" v="606516" />
	</node>
	<node id="-275739" lat="58.3606972251" lon="8.60385278229">
		<tag k="name" v="Ugland" />
		<tag k="place" v="hamlet" />
		<tag k="ssr:stedsnr" v="606504" />
	</node>
	<node id="-275738" lat="58.3517499983" lon="8.59747500503">
		<tag k="name" v="Bie" />
		<tag k="place" v="hamlet" />
		<tag k="ssr:stedsnr" v="606501" />
	</node>
	<node id="-275737" lat="58.3563749965" lon="8.57548333868">
		<tag k="fixme" v="consider place=hamlet" />
		<tag k="name" v="Dømmesmoen" />
		<tag k="place" v="farm" />
		<tag k="ssr:stedsnr" v="606495" />
	</node>
	<node id="-273688" lat="58.2624527805" lon="8.49728333602">
		<tag k="name" v="Robertsvig" />
		<tag k="place" v="isolated_dwelling" />
		<tag k="ssr:stedsnr" v="364967" />
	</node>
	<node id="-273687" lat="58.27923056" lon="8.52145000654">
		<tag k="alt_name" v="Kjækstad" />
		<tag k="name" v="Kjekstad" />
		<tag k="place" v="farm" />
		<tag k="ssr:stedsnr" v="364964" />
	</node>
	<node id="-273686" lat="58.3130027752" lon="8.57023333681">
		<tag k="name" v="Krågeviga" />
		<tag k="place" v="isolated_dwelling" />
		<tag k="ssr:stedsnr" v="364960" />
	</node>
	<node id="-273684" lat="58.3513888879" lon="8.62427777805">
		<tag k="name" v="Eskedal vestre" />
		<tag k="place" v="farm" />
		<tag k="ssr:stedsnr" v="364778" />
	</node>
	<node id="-273683" lat="58.4401805545" lon="8.49281666159">
		<tag k="name" v="Båtreis" />
		<tag k="place" v="isolated_dwelling" />
		<tag k="ssr:stedsnr" v="364623" />
	</node>
	<node id="-273681" lat="58.3900361099" lon="8.50232778234">
		<tag k="alt_name" v="Westermoen" />
		<tag k="name" v="Vestermoen" />
		<tag k="place" v="hamlet" />
		<tag k="ssr:stedsnr" v="364574" />
	</node>
	<node id="-275728" lat="58.3783111145" lon="8.33923611046">
		<tag k="fixme" v="consider place=hamlet" />
		<tag k="name" v="Røyneland" />
		<tag k="place" v="farm" />
		<tag k="ssr:stedsnr" v="606307" />
	</node>
	<node id="-273679" lat="58.4024027773" lon="8.55003611272">
		<tag k="alt_name" v="Salvestjern" />
		<tag k="fixme" v="consider place=hamlet" />
		<tag k="name" v="Salvestjenn" />
		<tag k="place" v="farm" />
		<tag k="ssr:stedsnr" v="364560" />
	</node>
	<node id="-273678" lat="58.3875750032" lon="8.70667777513">
		<tag k="fixme" v="consider place=hamlet" />
		<tag k="name" v="Espenes" />
		<tag k="place" v="farm" />
		<tag k="ssr:stedsnr" v="364544" />
	</node>
	<node id="-273677" lat="58.3912083355" lon="8.6759972155">
		<tag k="fixme" v="consider place=hamlet" />
		<tag k="name" v="Birketveit" />
		<tag k="place" v="farm" />
		<tag k="ssr:stedsnr" v="364538" />
	</node>
	<node id="-273675" lat="58.358730553" lon="8.6362194433">
		<tag k="name" v="Vikstølen" />
		<tag k="place" v="farm" />
		<tag k="ssr:stedsnr" v="364518" />
	</node>
	<node id="-273671" lat="58.4551313462" lon="8.42033332466">
		<tag k="alt_name" v="Borkedal" />
		<tag k="fixme" v="consider place=hamlet" />
		<tag k="name" v="Birkedal" />
		<tag k="old_name" v="Bjørkedal;Børkedal" />
		<tag k="place" v="farm" />
		<tag k="ssr:stedsnr" v="364493" />
	</node>
	<node id="-275329" lat="58.3033027758" lon="8.54359445099">
		<tag k="name" v="Ruhaven" />
		<tag k="place" v="farm" />
		<tag k="ssr:stedsnr" v="532228" />
	</node>
	<node id="-273666" lat="58.3745472207" lon="8.36954166404">
		<tag k="fixme" v="consider place=hamlet" />
		<tag k="name" v="Austland" />
		<tag k="place" v="farm" />
		<tag k="ssr:stedsnr" v="364350" />
	</node>
	<node id="-275713" lat="58.353458336" lon="8.62836667147">
		<tag k="fixme" v="consider place=hamlet" />
		<tag k="name" v="Nordre Eskedal" />
		<tag k="place" v="farm" />
		<tag k="ssr:stedsnr" v="606173" />
	</node>
	<node id="-273276" lat="58.3475222207" lon="8.53006110622">
		<tag k="name" v="Sandkleiv" />
		<tag k="place" v="hamlet" />
		<tag k="ssr:stedsnr" v="291927" />
	</node>
	<node id="-273275" lat="58.3373749986" lon="8.51125832622">
		<tag k="name" v="Øvre Havstad" />
		<tag k="place" v="farm" />
		<tag k="ssr:stedsnr" v="291917" />
	</node>
	<node id="-275670" lat="58.3821749969" lon="8.68654999969">
		<tag k="name" v="Trolldalstunet" />
		<tag k="place" v="quarter" />
		<tag k="ssr:stedsnr" v="604157" />
	</node>
	<node id="-273602" lat="58.3538333328" lon="8.63675277961">
		<tag k="name" v="Eskedal Østre" />
		<tag k="place" v="farm" />
		<tag k="ssr:stedsnr" v="363175" />
	</node>
	<node id="-275316" lat="58.271194444" lon="8.47191666151">
		<tag k="fixme" v="consider place=hamlet" />
		<tag k="name" v="Hauge" />
		<tag k="place" v="farm" />
		<tag k="ssr:stedsnr" v="515419" />
	</node>
	<node id="-273950" lat="58.2951777752" lon="8.50666667339">
		<tag k="name" v="Ødegård" />
		<tag k="old_name" v="Øygarden" />
		<tag k="place" v="hamlet" />
		<tag k="ssr:stedsnr" v="957" />
	</node>
	<node id="-273583" lat="58.3499694443" lon="8.642516675">
		<tag k="name" v="Myraveien" />
		<tag k="place" v="quarter" />
		<tag k="ssr:stedsnr" v="362148" />
	</node>
	<node id="-273578" lat="58.3328666692" lon="8.57397222381">
		<tag k="name" v="Nordre Groosåsen" />
		<tag k="place" v="quarter" />
		<tag k="ssr:stedsnr" v="360155" />
	</node>
	<node id="-273947" lat="58.2540499996" lon="8.44481666873">
		<tag k="alt_name" v="Såviga" />
		<tag k="name" v="Såvika" />
		<tag k="place" v="farm" />
		<tag k="ssr:stedsnr" v="706" />
	</node>
	<node id="-275614" lat="58.3433138928" lon="8.53314999631">
		<tag k="fixme" v="consider place=hamlet" />
		<tag k="name" v="Hommedal prestegård" />
		<tag k="place" v="farm" />
		<tag k="ssr:stedsnr" v="594917" />
	</node>
	<node id="-275612" lat="58.327372221" lon="8.47915278356">
		<tag k="fixme" v="consider place=hamlet" />
		<tag k="name" v="Hefteviga" />
		<tag k="place" v="farm" />
		<tag k="ssr:stedsnr" v="594851" />
	</node>
	<node id="-273562" lat="58.3989250024" lon="8.52267500269">
		<tag k="name" v="Halvorsvika" />
		<tag k="place" v="farm" />
		<tag k="ssr:stedsnr" v="356767" />
	</node>
	<node id="-273561" lat="58.39816111" lon="8.50659722465">
		<tag k="name" v="Rynningen" />
		<tag k="place" v="farm" />
		<tag k="ssr:stedsnr" v="356764" />
	</node>
	<node id="-275993" lat="58.357599996" lon="8.60820833482">
		<tag k="name" v="Skjeviga" />
		<tag k="place" v="farm" />
		<tag k="ssr:stedsnr" v="667483" />
	</node>
	<node id="-275604" lat="58.2934694427" lon="8.51384999823">
		<tag k="fixme" v="consider place=hamlet" />
		<tag k="name" v="Vågsnes" />
		<tag k="place" v="farm" />
		<tag k="ssr:stedsnr" v="594469" />
	</node>
	<node id="-275598" lat="58.3064527792" lon="8.54545000084">
		<tag k="name" v="Moen" />
		<tag k="place" v="locality" />
		<tag k="ssr:stedsnr" v="594261" />
	</node>
	<node id="-273549" lat="58.4182444403" lon="8.38245555585">
		<tag k="name" v="Saga" />
		<tag k="place" v="locality" />
		<tag k="ssr:stedsnr" v="356271" />
	</node>
	<node id="-273543" lat="58.4619833317" lon="8.44057777219">
		<tag k="name" v="Kolland" />
		<tag k="place" v="locality" />
		<tag k="ssr:stedsnr" v="356182" />
	</node>
	<node id="-275572" lat="58.2807777733" lon="8.52316666251">
		<tag k="name" v="Bufjord camping" />
		<tag k="ssr:stedsnr" v="576441" />
		<tag k="tourism" v="camp_site" />
	</node>
	<node id="-273521" lat="58.3370916662" lon="8.52404444904">
		<tag k="name" v="Rosshaven" />
		<tag k="place" v="farm" />
		<tag k="ssr:stedsnr" v="351920" />
	</node>
	<node id="-273520" lat="58.3267000002" lon="8.53700834057">
		<tag k="fixme" v="consider place=hamlet" />
		<tag k="name" v="Ågre" />
		<tag k="place" v="farm" />
		<tag k="ssr:stedsnr" v="351908" />
	</node>
	<node id="-275565" lat="58.332222226" lon="8.56938889301">
		<tag k="name" v="Lauvåsvollen" />
		<tag k="place" v="farm" />
		<tag k="ssr:stedsnr" v="576330" />
	</node>
	<node id="-275560" lat="58.364555555" lon="8.59269444122">
		<tag k="name" v="Vestre Fjære" />
		<tag k="place" v="farm" />
		<tag k="ssr:stedsnr" v="576269" />
	</node>
	<node id="-275555" lat="58.3804166629" lon="8.67633888959">
		<tag k="name" v="Fevik øvre" />
		<tag k="place" v="village" />
		<tag k="ssr:stedsnr" v="575701" />
	</node>
	<node id="-273500" lat="58.3063777805" lon="8.50763611525">
		<tag k="name" v="Gamlegård" />
		<tag k="place" v="locality" />
		<tag k="ssr:stedsnr" v="351288" />
	</node>
	<node id="-273499" lat="58.35075556" lon="8.45786665965">
		<tag k="name" v="Haugemyra" />
		<tag k="place" v="farm" />
		<tag k="ssr:stedsnr" v="351263" />
	</node>
	<node id="-275543" lat="58.2734444473" lon="8.52075000133">
		<tag k="name" v="Østre Hove" />
		<tag k="place" v="farm" />
		<tag k="ssr:stedsnr" v="575102" />
	</node>
	<node id="-275542" lat="58.2773611149" lon="8.50763888745">
		<tag k="name" v="Bukjær" />
		<tag k="place" v="farm" />
		<tag k="ssr:stedsnr" v="575103" />
	</node>
	<node id="-273491" lat="58.4005722244" lon="8.66931111096">
		<tag k="name" v="Lysthaven" />
		<tag k="place" v="farm" />
		<tag k="ssr:stedsnr" v="333727" />
	</node>
	<node id="-273490" lat="58.3706611125" lon="8.62164166389">
		<tag k="amenity" v="school" />
		<tag k="name" v="Vik skole" />
		<tag k="ssr:stedsnr" v="333721" />
	</node>
	<node id="-275534" lat="58.4021805559" lon="8.70596110773">
		<tag k="name" v="Store Kaninholmen" />
		<tag k="place" v="farm" />
		<tag k="ssr:stedsnr" v="572749" />
	</node>
	<node id="-275533" lat="58.3780166676" lon="8.71248888193">
		<tag k="name" v="Haugenebba" />
		<tag k="place" v="locality" />
		<tag k="ssr:stedsnr" v="572706" />
	</node>
	<node id="-273480" lat="58.3492499981" lon="8.61488888691">
		<tag k="name" v="Monen" />
		<tag k="place" v="farm" />
		<tag k="ssr:stedsnr" v="333489" />
	</node>
	<node id="-275525" lat="58.3285462201" lon="8.57323593067">
		<tag k="fixme" v="consider place=suburb, village or hamlet" />
		<tag k="name" v="Groos" />
		<tag k="place" v="quarter" />
		<tag k="ssr:stedsnr" v="546997" />
	</node>
	<node id="-275522" lat="58.344327775" lon="8.58022221981">
		<tag k="fixme" v="consider place=hamlet" />
		<tag k="name" v="Berge" />
		<tag k="place" v="farm" />
		<tag k="ssr:stedsnr" v="546978" />
	</node>
	<node id="-275521" lat="58.3448861103" lon="8.64246388967">
		<tag k="name" v="Hesnes" />
		<tag k="place" v="hamlet" />
		<tag k="ssr:stedsnr" v="546975" />
	</node>
	<node id="-275518" lat="58.3414999981" lon="8.5127805603">
		<tag k="name" v="Ringsdalen" />
		<tag k="place" v="farm" />
		<tag k="ssr:stedsnr" v="546967" />
	</node>
	<node id="-275517" lat="58.3289499995" lon="8.48258889086">
		<tag k="alt_name" v="Råkleiv" />
		<tag k="name" v="Roklev" />
		<tag k="place" v="farm" />
		<tag k="ssr:stedsnr" v="546953" />
	</node>
	<node id="-275516" lat="58.2681694488" lon="8.51086111344">
		<tag k="name" v="Homborsund" />
		<tag k="place" v="hamlet" />
		<tag k="ssr:stedsnr" v="546947" />
	</node>
	<node id="-273465" lat="58.3677222252" lon="8.59916666577">
		<tag k="building" v="industrial" />
		<tag k="name" v="Nymo" />
		<tag k="ssr:stedsnr" v="333332" />
	</node>
	<node id="-275509" lat="58.3813805585" lon="8.52539445024">
		<tag k="alt_name" v="Tjarrandsplassen" />
		<tag k="name" v="Tjaransplass" />
		<tag k="place" v="farm" />
		<tag k="ssr:stedsnr" v="546499" />
	</node>
	<node id="-275507" lat="58.3911332125" lon="8.64124316415">
		<tag k="fixme" v="consider place=hamlet" />
		<tag k="name" v="Håbbestad" />
		<tag k="place" v="farm" />
		<tag k="ssr:stedsnr" v="546492" />
	</node>
	<node id="-275506" lat="58.3835333331" lon="8.56750834047">
		<tag k="name" v="Liene" />
		<tag k="place" v="farm" />
		<tag k="ssr:stedsnr" v="546491" />
	</node>
	<node id="-275505" lat="58.3648555561" lon="8.6128138843">
		<tag k="name" v="Sæveli" />
		<tag k="place" v="hamlet" />
		<tag k="ssr:stedsnr" v="546489" />
	</node>
	<node id="-275503" lat="58.4379416698" lon="8.44107221423">
		<tag k="fixme" v="consider place=hamlet" />
		<tag k="name" v="Lonebu" />
		<tag k="place" v="farm" />
		<tag k="ssr:stedsnr" v="546370" />
	</node>
	<node id="-275500" lat="58.3867750019" lon="8.33313888814">
		<tag k="fixme" v="consider place=hamlet" />
		<tag k="name" v="Tolleholmen" />
		<tag k="place" v="farm" />
		<tag k="ssr:stedsnr" v="546300" />
	</node>
	<node id="-275499" lat="58.4025444452" lon="8.42936389412">
		<tag k="name" v="Stalleland" />
		<tag k="place" v="farm" />
		<tag k="ssr:stedsnr" v="546295" />
	</node>
	<node id="-275498" lat="58.3350666654" lon="8.44720832641">
		<tag k="fixme" v="consider place=hamlet" />
		<tag k="name" v="Reddal" />
		<tag k="place" v="village" />
		<tag k="ssr:stedsnr" v="546251" />
	</node>
	<node id="-273443" lat="58.4714666625" lon="8.4949499948">
		<tag k="alt_name" v="Bærli" />
		<tag k="fixme" v="consider place=hamlet" />
		<tag k="name" v="Bæreli" />
		<tag k="place" v="farm" />
		<tag k="ssr:stedsnr" v="304676" />
	</node>
	<node id="-273440" lat="58.3173111104" lon="8.55411665931">
		<tag k="name" v="Østerhus" />
		<tag k="place" v="farm" />
		<tag k="ssr:stedsnr" v="303993" />
	</node>
	<node id="-273435" lat="58.2986333352" lon="8.50465833471">
		<tag k="alt_name" v="Hasledalen" />
		<tag k="name" v="Hasseldalen" />
		<tag k="place" v="farm" />
		<tag k="ssr:stedsnr" v="303955" />
	</node>
	<node id="-273408" lat="58.3911611117" lon="8.53032222362">
		<tag k="name" v="Heia" />
		<tag k="place" v="farm" />
		<tag k="ssr:stedsnr" v="303568" />
	</node>
	<node id="-273401" lat="58.3849361091" lon="8.70714722017">
		<tag k="fixme" v="consider place=hamlet" />
		<tag k="name" v="Bukjerr" />
		<tag k="place" v="farm" />
		<tag k="ssr:stedsnr" v="303525" />
	</node>
	<node id="-273397" lat="58.3429611093" lon="8.46261388038">
		<tag k="fixme" v="consider place=hamlet" />
		<tag k="name" v="Møretrø" />
		<tag k="place" v="farm" />
		<tag k="ssr:stedsnr" v="303515" />
	</node>
	<node id="-275427" lat="58.3348666698" lon="8.6534277811">
		<tag k="fixme" v="consider place=hamlet" />
		<tag k="name" v="Østre Hesnesøya" />
		<tag k="place" v="farm" />
		<tag k="ssr:stedsnr" v="545198" />
	</node>
	<node id="-273376" lat="58.3903749979" lon="8.40887500686">
		<tag k="fixme" v="consider place=hamlet" />
		<tag k="name" v="Valborgland" />
		<tag k="place" v="farm" />
		<tag k="ssr:stedsnr" v="303315" />
	</node>
	<node id="-275412" lat="58.3239472214" lon="8.56106944124">
		<tag k="name" v="Lillemyr" />
		<tag k="place" v="quarter" />
		<tag k="ssr:stedsnr" v="544310" />
	</node>
	<node id="-274933" lat="58.3074821178" lon="8.45695184532">
		<tag k="fixme" v="consider place=hamlet" />
		<tag k="name" v="Tyssekil" />
		<tag k="place" v="farm" />
		<tag k="ssr:stedsnr" v="243991" />
	</node>
	<node id="-273337" lat="58.3280444472" lon="8.54812778571">
		<tag k="name" v="Morholt" />
		<tag k="place" v="farm" />
		<tag k="ssr:stedsnr" v="301978" />
	</node>
	<node id="-275383" lat="58.4368583349" lon="8.50509999766">
		<tag k="fixme" v="multiple name tags, choose one and add the other to alt_name" />
		<tag k="name" v="Tønnesøl;Øvre Tønnesøl" />
		<tag k="place" v="farm" />
		<tag k="ssr:stedsnr" v="538388" />
	</node>
	<node id="-273334" lat="58.3528611114" lon="8.59055556375">
		<tag k="name" v="Bieheia" />
		<tag k="place" v="quarter" />
		<tag k="ssr:stedsnr" v="300208" />
	</node>
	<node id="-273319" lat="58.3926388923" lon="8.50587778136">
		<tag k="name" v="Vestegård" />
		<tag k="place" v="farm" />
		<tag k="ssr:stedsnr" v="296745" />
	</node>
	<node id="-275360" lat="58.3403972267" lon="8.52320278588">
		<tag k="name" v="Statens forsøksgård" />
		<tag k="place" v="farm" />
		<tag k="ssr:stedsnr" v="534871" />
	</node>
	<node id="-275357" lat="58.3261499991" lon="8.45499999996">
		<tag k="name" v="Viken" />
		<tag k="place" v="farm" />
		<tag k="ssr:stedsnr" v="534823" />
	</node>
	<node id="-275349" lat="58.3537444443" lon="8.53496944381">
		<tag k="name" v="Resvika" />
		<tag k="place" v="farm" />
		<tag k="ssr:stedsnr" v="534347" />
	</node>
	<node id="-275339" lat="58.2877500033" lon="8.48518888091">
		<tag k="name" v="Smedplassen" />
		<tag k="place" v="isolated_dwelling" />
		<tag k="ssr:stedsnr" v="533411" />
	</node>
	<node id="-275338" lat="58.3013472233" lon="8.49023888217">
		<tag k="name" v="Betlehem" />
		<tag k="place" v="isolated_dwelling" />
		<tag k="ssr:stedsnr" v="533412" />
	</node>
	<node id="-277381" lat="58.3393632741" lon="8.593085201">
		<tag k="leisure" v="park" />
		<tag k="name" v="Byhaven" />
		<tag k="ssr:stedsnr" v="973727" />
	</node>
	<node id="-277379" lat="58.3066110174" lon="8.5218237515">
		<tag k="fixme" v="consider place=hamlet" />
		<tag k="name" v="Tjorestranden" />
		<tag k="place" v="farm" />
		<tag k="ssr:stedsnr" v="971096" />
	</node>
	<node id="-277378" lat="58.2926403892" lon="8.50071934266">
		<tag k="fixme" v="consider place=hamlet" />
		<tag k="name" v="Rappestad" />
		<tag k="place" v="farm" />
		<tag k="ssr:stedsnr" v="971095" />
	</node>
	<node id="-277377" lat="58.250377313" lon="8.48532889415">
		<tag k="fixme" v="consider place=hamlet" />
		<tag k="name" v="Ålesøen" />
		<tag k="place" v="farm" />
		<tag k="ssr:stedsnr" v="971093" />
	</node>
	<node id="-277376" lat="58.2770386591" lon="8.521870098">
		<tag k="fixme" v="consider place=hamlet" />
		<tag k="name" v="Kjekstad" />
		<tag k="place" v="farm" />
		<tag k="ssr:stedsnr" v="971092" />
	</node>
	<node id="-277375" lat="58.2716111621" lon="8.51779293161">
		<tag k="name" v="Hove" />
		<tag k="place" v="hamlet" />
		<tag k="ssr:stedsnr" v="971091" />
	</node>
	<node id="-277374" lat="58.2539749947" lon="8.50753268298">
		<tag k="fixme" v="consider place=hamlet" />
		<tag k="name" v="Homborøen" />
		<tag k="place" v="farm" />
		<tag k="ssr:stedsnr" v="971090" />
	</node>
	<node id="-277373" lat="58.2631806847" lon="8.49834147701">
		<tag k="fixme" v="consider place=hamlet" />
		<tag k="name" v="Robertsvik" />
		<tag k="place" v="farm" />
		<tag k="ssr:stedsnr" v="971089" />
	</node>
	<node id="-277372" lat="58.2694510671" lon="8.44712873154">
		<tag k="name" v="Arnevik" />
		<tag k="place" v="hamlet" />
		<tag k="ssr:stedsnr" v="971087" />
	</node>
	<node id="-277371" lat="58.2533523269" lon="8.45065656557">
		<tag k="fixme" v="consider place=hamlet" />
		<tag k="name" v="Auesøen" />
		<tag k="place" v="farm" />
		<tag k="ssr:stedsnr" v="971086" />
	</node>
	<node id="-277370" lat="58.2650957225" lon="8.44903353345">
		<tag k="fixme" v="consider place=hamlet" />
		<tag k="name" v="Store Arnevik" />
		<tag k="place" v="farm" />
		<tag k="ssr:stedsnr" v="971085" />
	</node>
	<node id="-277369" lat="58.3618277796" lon="8.52942586513">
		<tag k="fixme" v="consider place=hamlet" />
		<tag k="name" v="Imenes" />
		<tag k="place" v="farm" />
		<tag k="ssr:stedsnr" v="971084" />
	</node>
	<node id="-277368" lat="58.3751990162" lon="8.50280121096">
		<tag k="fixme" v="consider place=hamlet" />
		<tag k="name" v="Søndledsøen" />
		<tag k="place" v="farm" />
		<tag k="ssr:stedsnr" v="971083" />
	</node>
	<node id="-277367" lat="58.3970711999" lon="8.51244761765">
		<tag k="fixme" v="consider place=hamlet" />
		<tag k="name" v="Skiftenes" />
		<tag k="place" v="farm" />
		<tag k="ssr:stedsnr" v="971082" />
	</node>
	<node id="-277366" lat="58.3856148623" lon="8.53791029027">
		<tag k="fixme" v="consider place=hamlet" />
		<tag k="name" v="Neset" />
		<tag k="place" v="farm" />
		<tag k="ssr:stedsnr" v="971080" />
	</node>
	<node id="-277365" lat="58.4374551875" lon="8.50335290478">
		<tag k="fixme" v="consider place=hamlet" />
		<tag k="name" v="Tønnesøl" />
		<tag k="place" v="farm" />
		<tag k="ssr:stedsnr" v="971079" />
	</node>
	<node id="-277364" lat="58.4544199721" lon="8.49358092483">
		<tag k="fixme" v="consider place=hamlet" />
		<tag k="name" v="Helleland" />
		<tag k="place" v="farm" />
		<tag k="ssr:stedsnr" v="971076" />
	</node>
	<node id="-277363" lat="58.4325705873" lon="8.40187957641">
		<tag k="fixme" v="consider place=hamlet" />
		<tag k="name" v="Håland" />
		<tag k="place" v="farm" />
		<tag k="ssr:stedsnr" v="971074" />
	</node>
	<node id="-277362" lat="58.3825850923" lon="8.45226341971">
		<tag k="name" v="Bjørkos" />
		<tag k="place" v="hamlet" />
		<tag k="ssr:stedsnr" v="971072" />
	</node>
	<node id="-277361" lat="58.3981955599" lon="8.46377904939">
		<tag k="name" v="Hardeberg" />
		<tag k="place" v="hamlet" />
		<tag k="ssr:stedsnr" v="971071" />
	</node>
	<node id="-277360" lat="58.3775178924" lon="8.46078100463">
		<tag k="fixme" v="consider place=hamlet" />
		<tag k="name" v="Nedre Bjørkos" />
		<tag k="place" v="farm" />
		<tag k="ssr:stedsnr" v="971068" />
	</node>
	<node id="-277359" lat="58.3905385677" lon="8.4784129231">
		<tag k="fixme" v="consider place=hamlet" />
		<tag k="name" v="Lille Hardeberg" />
		<tag k="place" v="farm" />
		<tag k="ssr:stedsnr" v="971070" />
	</node>
	<node id="-277358" lat="58.3387573845" lon="8.5221630803">
		<tag k="fixme" v="consider place=hamlet" />
		<tag k="name" v="Landvik" />
		<tag k="place" v="farm" />
		<tag k="ssr:stedsnr" v="971054" />
	</node>
	<node id="-277357" lat="58.3209908348" lon="8.54325328561">
		<tag k="fixme" v="consider place=hamlet" />
		<tag k="name" v="Bakke" />
		<tag k="place" v="farm" />
		<tag k="ssr:stedsnr" v="971043" />
	</node>
	<node id="-277356" lat="58.3193737255" lon="8.54711871596">
		<tag k="fixme" v="consider place=hamlet" />
		<tag k="name" v="Molland" />
		<tag k="place" v="farm" />
		<tag k="ssr:stedsnr" v="971042" />
	</node>
	<node id="-277355" lat="58.3228804944" lon="8.56349694903">
		<tag k="fixme" v="consider place=hamlet" />
		<tag k="name" v="Liensekre" />
		<tag k="place" v="farm" />
		<tag k="ssr:stedsnr" v="971041" />
	</node>
	<node id="-277354" lat="58.3208149321" lon="8.55115366789">
		<tag k="fixme" v="consider place=hamlet" />
		<tag k="name" v="Lien" />
		<tag k="place" v="farm" />
		<tag k="ssr:stedsnr" v="971039" />
	</node>
	<node id="-277353" lat="58.3191776563" lon="8.55379706583">
		<tag k="fixme" v="consider place=hamlet" />
		<tag k="name" v="Ytre Østerhus" />
		<tag k="place" v="farm" />
		<tag k="ssr:stedsnr" v="971038" />
	</node>
	<node id="-277352" lat="58.2905793773" lon="8.54777227262">
		<tag k="fixme" v="consider place=hamlet" />
		<tag k="name" v="Bjorøy" />
		<tag k="place" v="farm" />
		<tag k="ssr:stedsnr" v="971036" />
	</node>
	<node id="-277351" lat="58.3030827383" lon="8.59326701525">
		<tag k="fixme" v="consider place=hamlet" />
		<tag k="name" v="Håøy" />
		<tag k="place" v="farm" />
		<tag k="ssr:stedsnr" v="971037" />
	</node>
	<node id="-277350" lat="58.3971480361" lon="8.69791816648">
		<tag k="fixme" v="consider place=hamlet" />
		<tag k="name" v="Vessøen" />
		<tag k="place" v="farm" />
		<tag k="ssr:stedsnr" v="971033" />
	</node>
	<node id="-277349" lat="58.3951029778" lon="8.65057342977">
		<tag k="fixme" v="consider place=hamlet" />
		<tag k="name" v="Ådnerød" />
		<tag k="place" v="farm" />
		<tag k="ssr:stedsnr" v="971034" />
	</node>
	<node id="-277348" lat="58.386434666" lon="8.69204850777">
		<tag k="fixme" v="consider place=hamlet" />
		<tag k="name" v="Evenvoll" />
		<tag k="place" v="farm" />
		<tag k="ssr:stedsnr" v="971032" />
	</node>
	<node id="-277347" lat="58.3840455761" lon="8.67607811596">
		<tag k="name" v="Trålum" />
		<tag k="place" v="hamlet" />
		<tag k="ssr:stedsnr" v="971031" />
	</node>
	<node id="-277346" lat="58.3834936591" lon="8.67513142636">
		<tag k="fixme" v="consider place=hamlet" />
		<tag k="name" v="Nedre Trålum" />
		<tag k="place" v="farm" />
		<tag k="ssr:stedsnr" v="971030" />
	</node>
	<node id="-277345" lat="58.3788634698" lon="8.68336477082">
		<tag k="fixme" v="consider place=hamlet" />
		<tag k="name" v="Fevikmoen" />
		<tag k="place" v="farm" />
		<tag k="ssr:stedsnr" v="971028" />
	</node>
	<node id="-277344" lat="58.3837638506" lon="8.67857044363">
		<tag k="fixme" v="consider place=hamlet" />
		<tag k="name" v="Nedre Trålum" />
		<tag k="place" v="farm" />
		<tag k="ssr:stedsnr" v="971029" />
	</node>
	<node id="-277343" lat="58.376791501" lon="8.68329255936">
		<tag k="fixme" v="consider place=hamlet" />
		<tag k="name" v="Fevik" />
		<tag k="place" v="farm" />
		<tag k="ssr:stedsnr" v="971027" />
	</node>
	<node id="-277342" lat="58.3750240729" lon="8.65428453699">
		<tag k="fixme" v="consider place=hamlet" />
		<tag k="name" v="Øvre Huseland" />
		<tag k="place" v="farm" />
		<tag k="ssr:stedsnr" v="971025" />
	</node>
	<node id="-277340" lat="58.378967139" lon="8.64034320695">
		<tag k="fixme" v="consider place=hamlet" />
		<tag k="name" v="Klepp" />
		<tag k="place" v="farm" />
		<tag k="ssr:stedsnr" v="971023" />
	</node>
	<node id="-277339" lat="58.3766429755" lon="8.65164127135">
		<tag k="fixme" v="consider place=hamlet" />
		<tag k="name" v="Nedre Huseland" />
		<tag k="place" v="farm" />
		<tag k="ssr:stedsnr" v="971024" />
	</node>
	<node id="-277338" lat="58.3872890812" lon="8.65008403834">
		<tag k="fixme" v="consider place=hamlet" />
		<tag k="name" v="Lien med Kleven" />
		<tag k="place" v="farm" />
		<tag k="ssr:stedsnr" v="971022" />
	</node>
	<node id="-273241" lat="58.3611861105" lon="8.65880833926">
		<tag k="name" v="Grefstad" />
		<tag k="place" v="neighbourhood" />
		<tag k="ssr:stedsnr" v="282172" />
	</node>
	<node id="-273240" lat="58.3611861105" lon="8.65880833926">
		<tag k="name" v="Hoveneset" />
		<tag k="place" v="neighbourhood" />
		<tag k="ssr:stedsnr" v="282168" />
	</node>
	<node id="-275285" lat="58.3181694478" lon="8.51836389306">
		<tag k="fixme" v="consider place=hamlet" />
		<tag k="name" v="Tjore" />
		<tag k="place" v="farm" />
		<tag k="ssr:stedsnr" v="485998" />
	</node>
	<node id="-275284" lat="58.3421305537" lon="8.58089721447">
		<tag k="fixme" v="consider place=hamlet" />
		<tag k="name" v="Grøm" />
		<tag k="place" v="farm" />
		<tag k="ssr:stedsnr" v="485986" />
	</node>
	<node id="-273235" lat="58.3733388878" lon="8.64025277613">
		<tag k="name" v="Kleppekjerr" />
		<tag k="place" v="farm" />
		<tag k="ssr:stedsnr" v="273357" />
	</node>
	<node id="-273232" lat="58.3248888856" lon="8.56561111542">
		<tag k="amenity" v="school" />
		<tag k="name" v="Holvika ungdomsskole" />
		<tag k="ssr:stedsnr" v="273329" />
	</node>
	<node id="-273228" lat="58.3803666647" lon="8.68773055942">
		<tag k="name" v="Hammene" />
		<tag k="place" v="farm" />
		<tag k="ssr:stedsnr" v="272679" />
	</node>
	<node id="-273227" lat="58.3824805514" lon="8.69383334048">
		<tag k="name" v="Trolldalen" />
		<tag k="place" v="quarter" />
		<tag k="ssr:stedsnr" v="272678" />
	</node>
	<node id="-273212" lat="58.3415749958" lon="8.60097500044">
		<tag k="name" v="Hasseldalen" />
		<tag k="place" v="quarter" />
		<tag k="ssr:stedsnr" v="272315" />
	</node>
	<node id="-273210" lat="58.3698611075" lon="8.58611111048">
		<tag k="fixme" v="multiple name tags, choose one and add the other to alt_name" />
		<tag k="name" v="Fjæremoen;Lillemoen" />
		<tag k="place" v="farm" />
		<tag k="ssr:stedsnr" v="272294" />
	</node>
	<node id="-273208" lat="58.3931944435" lon="8.59672221915">
		<tag k="name" v="Øygarden" />
		<tag k="place" v="locality" />
		<tag k="ssr:stedsnr" v="272264" />
	</node>
	<node id="-273205" lat="58.3578222212" lon="8.6211444476">
		<tag k="name" v="Støene" />
		<tag k="place" v="locality" />
		<tag k="ssr:stedsnr" v="269827" />
	</node>
	<node id="-275252" lat="58.4288861091" lon="8.52191666309">
		<tag k="fixme" v="consider place=hamlet" />
		<tag k="name" v="Bjorhuslia" />
		<tag k="place" v="farm" />
		<tag k="ssr:stedsnr" v="485551" />
	</node>
	<node id="-273203" lat="58.3571777735" lon="8.64734721393">
		<tag k="fixme" v="consider place=hamlet" />
		<tag k="name" v="Langfoss" />
		<tag k="place" v="farm" />
		<tag k="ssr:stedsnr" v="269717" />
	</node>
	<node id="-275244" lat="58.4034722202" lon="8.61233332566">
		<tag k="name" v="Krokmoen" />
		<tag k="place" v="farm" />
		<tag k="ssr:stedsnr" v="485497" />
	</node>
	<node id="-277291" lat="58.3668666664" lon="8.60352499378">
		<tag k="fixme" v="consider place=hamlet" />
		<tag k="name" v="Norde Sæveli" />
		<tag k="place" v="farm" />
		<tag k="ssr:stedsnr" v="970355" />
	</node>
	<node id="-277287" lat="58.3360666653" lon="8.64624166941">
		<tag k="fixme" v="consider place=hamlet" />
		<tag k="name" v="Vestre Hesnesøya" />
		<tag k="place" v="farm" />
		<tag k="ssr:stedsnr" v="970301" />
	</node>
	<node id="-275236" lat="58.37917778" lon="8.69132778386">
		<tag k="name" v="Randviga" />
		<tag k="place" v="farm" />
		<tag k="ssr:stedsnr" v="485473" />
	</node>
	<node id="-275232" lat="58.3692416692" lon="8.61119166938">
		<tag k="fixme" v="consider place=hamlet" />
		<tag k="name" v="Spedalen" />
		<tag k="place" v="farm" />
		<tag k="ssr:stedsnr" v="485445" />
	</node>
	<node id="-275231" lat="58.3676722198" lon="8.65906943647">
		<tag k="fixme" v="consider place=hamlet" />
		<tag k="name" v="Øvre Grefstad" />
		<tag k="place" v="farm" />
		<tag k="ssr:stedsnr" v="485442" />
	</node>
	<node id="-275221" lat="58.3484194449" lon="8.35932500157">
		<tag k="name" v="Sørheim" />
		<tag k="place" v="farm" />
		<tag k="ssr:stedsnr" v="485308" />
	</node>
	<node id="-275202" lat="58.3483305578" lon="8.41018055534">
		<tag k="name" v="Stømne" />
		<tag k="place" v="farm" />
		<tag k="ssr:stedsnr" v="485212" />
	</node>
	<node id="-275201" lat="58.3449416651" lon="8.39464443846">
		<tag k="name" v="Nygrenda" />
		<tag k="place" v="hamlet" />
		<tag k="ssr:stedsnr" v="485211" />
	</node>
	<node id="-275200" lat="58.3645944472" lon="8.61266110265">
		<tag k="fixme" v="consider place=hamlet" />
		<tag k="name" v="Søndre Sæveli" />
		<tag k="place" v="farm" />
		<tag k="ssr:stedsnr" v="485190" />
	</node>
	<node id="-275198" lat="58.2643499995" lon="8.47881943795">
		<tag k="fixme" v="consider place=hamlet" />
		<tag k="name" v="Rørmoen" />
		<tag k="place" v="farm" />
		<tag k="ssr:stedsnr" v="485969" />
	</node>
	<node id="-275197" lat="58.2667340555" lon="8.47020485712">
		<tag k="fixme" v="consider place=hamlet" />
		<tag k="name" v="Fossdal" />
		<tag k="place" v="farm" />
		<tag k="ssr:stedsnr" v="485968" />
	</node>
	<node id="-277240" lat="58.2763222207" lon="8.51489166466">
		<tag k="name" v="Østerhus" />
		<tag k="place" v="quarter" />
		<tag k="ssr:stedsnr" v="967153" />
	</node>
	<node id="-277239" lat="58.3419555561" lon="8.54081111489">
		<tag k="name" v="Prestegårdskogen" />
		<tag k="place" v="quarter" />
		<tag k="ssr:stedsnr" v="967150" />
	</node>
	<node id="-277236" lat="58.30666667" lon="8.53275277672">
		<tag k="name" v="Mollands-kjær" />
		<tag k="place" v="farm" />
		<tag k="ssr:stedsnr" v="966358" />
	</node>
	<node id="-275182" lat="58.3507083351" lon="8.60039166314">
		<tag k="fixme" v="consider place=hamlet" />
		<tag k="name" v="Ytre Bie" />
		<tag k="place" v="farm" />
		<tag k="ssr:stedsnr" v="484808" />
	</node>
	<node id="-275921" lat="58.3904583315" lon="8.71062222158">
		<tag k="name" v="Hasla" />
		<tag k="place" v="farm" />
		<tag k="ssr:stedsnr" v="663393" />
	</node>
	<node id="-277213" lat="58.3745972221" lon="8.52948611171">
		<tag k="name" v="Brentebakken" />
		<tag k="place" v="farm" />
		<tag k="ssr:stedsnr" v="963426" />
	</node>
	<node id="-275156" lat="58.3958749995" lon="8.68986111335">
		<tag k="name" v="Mikkelshave" />
		<tag k="place" v="farm" />
		<tag k="ssr:stedsnr" v="455737" />
	</node>
	<node id="-275150" lat="58.362083332" lon="8.64758334036">
		<tag k="name" v="Tveiden" />
		<tag k="place" v="farm" />
		<tag k="ssr:stedsnr" v="455469" />
	</node>
	<node id="-275136" lat="58.2792222188" lon="8.46369444948">
		<tag k="name" v="Smutta" />
		<tag k="place" v="farm" />
		<tag k="ssr:stedsnr" v="455388" />
	</node>
	<node id="-277183" lat="58.3092333305" lon="8.54788611335">
		<tag k="name" v="Hasseldalen" />
		<tag k="place" v="isolated_dwelling" />
		<tag k="ssr:stedsnr" v="959263" />
	</node>
	<node id="-277174" lat="58.3335722237" lon="8.48589444052">
		<tag k="name" v="Rønningen" />
		<tag k="place" v="locality" />
		<tag k="ssr:stedsnr" v="958849" />
	</node>
	<node id="-275121" lat="58.3499444434" lon="8.57747222589">
		<tag k="amenity" v="nursing_home" />
		<tag k="name" v="Grimstad sykehjem" />
		<tag k="ssr:stedsnr" v="455260" />
	</node>
	<node id="-275119" lat="58.3942222231" lon="8.59050000792">
		<tag k="name" v="Tuftene" />
		<tag k="place" v="locality" />
		<tag k="ssr:stedsnr" v="455244" />
	</node>
	<node id="-275115" lat="58.2736944453" lon="8.44202778496">
		<tag k="fixme" v="consider place=hamlet" />
		<tag k="name" v="Knarrdal" />
		<tag k="place" v="farm" />
		<tag k="ssr:stedsnr" v="454413" />
	</node>
	<node id="-275106" lat="58.3206416628" lon="8.55073055807">
		<tag k="name" v="Lia" />
		<tag k="place" v="farm" />
		<tag k="ssr:stedsnr" v="425994" />
	</node>
	<node id="-277152" lat="58.3926166633" lon="8.62963611074">
		<tag k="name" v="Hattenborg" />
		<tag k="place" v="isolated_dwelling" />
		<tag k="ssr:stedsnr" v="940740" />
	</node>
	<node id="-275103" lat="58.3077472253" lon="8.53710277052">
		<tag k="name" v="Mollandskjer" />
		<tag k="place" v="farm" />
		<tag k="ssr:stedsnr" v="425986" />
	</node>
	<node id="-275102" lat="58.3410194404" lon="8.5228861129">
		<tag k="fixme" v="consider place=hamlet" />
		<tag k="name" v="Landvik" />
		<tag k="place" v="village" />
		<tag k="ssr:stedsnr" v="425981" />
	</node>
	<node id="-275098" lat="58.3036166704" lon="8.51234999481">
		<tag k="fixme" v="consider place=hamlet" />
		<tag k="name" v="Nørholmen" />
		<tag k="place" v="farm" />
		<tag k="ssr:stedsnr" v="425944" />
	</node>
	<node id="-277145" lat="58.3413333309" lon="8.62583334034">
		<tag k="name" v="Slotte" />
		<tag k="place" v="isolated_dwelling" />
		<tag k="ssr:stedsnr" v="940470" />
	</node>
	<node id="-277144" lat="58.3358333321" lon="8.61438888052">
		<tag k="name" v="Eriks" />
		<tag k="place" v="isolated_dwelling" />
		<tag k="ssr:stedsnr" v="940468" />
	</node>
	<node id="-275092" lat="58.449505557" lon="8.49604721476">
		<tag k="name" v="Haugen" />
		<tag k="place" v="farm" />
		<tag k="ssr:stedsnr" v="425629" />
	</node>
	<node id="-275089" lat="58.4067333311" lon="8.59304722554">
		<tag k="name" v="Kroken" />
		<tag k="place" v="farm" />
		<tag k="ssr:stedsnr" v="425552" />
	</node>
	<node id="-275088" lat="58.3842164843" lon="8.65680498373">
		<tag k="fixme" v="consider place=hamlet" />
		<tag k="name" v="Ribe" />
		<tag k="place" v="farm" />
		<tag k="ssr:stedsnr" v="425522" />
	</node>
	<node id="-275087" lat="58.3835972205" lon="8.54068334092">
		<tag k="name" v="Neset" />
		<tag k="place" v="isolated_dwelling" />
		<tag k="ssr:stedsnr" v="425520" />
	</node>
	<node id="-277133" lat="58.2513611083" lon="8.50619444434">
		<tag k="name" v="Klevoll" />
		<tag k="place" v="isolated_dwelling" />
		<tag k="ssr:stedsnr" v="940384" />
	</node>
	<node id="-275083" lat="58.3469333291" lon="8.38719443619">
		<tag k="name" v="Mofjell" />
		<tag k="place" v="farm" />
		<tag k="ssr:stedsnr" v="425374" />
	</node>
	<node id="-275082" lat="58.356526281" lon="8.35895542691">
		<tag k="fixme" v="consider place=hamlet" />
		<tag k="name" v="Beisland" />
		<tag k="place" v="farm" />
		<tag k="ssr:stedsnr" v="425365" />
	</node>
	<node id="-275080" lat="58.3721666661" lon="8.39959443632">
		<tag k="name" v="Gumbulia" />
		<tag k="place" v="farm" />
		<tag k="ssr:stedsnr" v="425348" />
	</node>
	<node id="-275079" lat="58.3773944488" lon="8.37030834164">
		<tag k="alt_name" v="Søyland" />
		<tag k="name" v="Søyla" />
		<tag k="place" v="isolated_dwelling" />
		<tag k="ssr:stedsnr" v="425342" />
	</node>
	<node id="-275077" lat="58.3297166625" lon="8.44845277285">
		<tag k="fixme" v="consider place=hamlet" />
		<tag k="name" v="Dokkedal" />
		<tag k="place" v="farm" />
		<tag k="ssr:stedsnr" v="425280" />
	</node>
	<node id="-277120" lat="58.3966388855" lon="8.5922777821">
		<tag k="name" v="Jenses plass" />
		<tag k="place" v="locality" />
		<tag k="ssr:stedsnr" v="940275" />
	</node>
	<node id="-277114" lat="58.3435388879" lon="8.63002500044">
		<tag k="fixme" v="consider place=hamlet" />
		<tag k="name" v="Nedre Hesnes" />
		<tag k="place" v="farm" />
		<tag k="ssr:stedsnr" v="940081" />
	</node>
	<node id="-274196" lat="58.3954861117" lon="8.66321111256">
		<tag k="name" v="Ånerød" />
		<tag k="place" v="farm" />
		<tag k="ssr:stedsnr" v="61520" />
	</node>
	<node id="-277109" lat="58.2933583343" lon="8.51703055678">
		<tag k="name" v="Vågsnes" />
		<tag k="place" v="farm" />
		<tag k="ssr:stedsnr" v="937691" />
	</node>
	<node id="-277106" lat="58.2834548077" lon="8.44295933197">
		<tag k="fixme" v="consider place=hamlet" />
		<tag k="name" v="Svennevik" />
		<tag k="place" v="farm" />
		<tag k="ssr:stedsnr" v="911754" />
	</node>
	<node id="-277102" lat="58.3285805599" lon="8.55050833841">
		<tag k="fixme" v="consider place=hamlet" />
		<tag k="name" v="Morholt" />
		<tag k="place" v="farm" />
		<tag k="ssr:stedsnr" v="910999" />
	</node>
	<node id="-277095" lat="58.3385138892" lon="8.53676667365">
		<tag k="fixme" v="consider place=hamlet" />
		<tag k="name" v="Åsen" />
		<tag k="place" v="farm" />
		<tag k="ssr:stedsnr" v="910980" />
	</node>
	<node id="-277093" lat="58.2739597913" lon="8.50846961173">
		<tag k="alt_name" v="Jordtveit" />
		<tag k="fixme" v="consider place=hamlet" />
		<tag k="name" v="Jortveit" />
		<tag k="place" v="farm" />
		<tag k="ssr:stedsnr" v="910972" />
	</node>
	<node id="-277092" lat="58.2700611075" lon="8.51758333263">
		<tag k="name" v="Hove" />
		<tag k="place" v="farm" />
		<tag k="ssr:stedsnr" v="910971" />
	</node>
	<node id="-277091" lat="58.2785773533" lon="8.47107407629">
		<tag k="name" v="Hombor" />
		<tag k="place" v="farm" />
		<tag k="ssr:stedsnr" v="910968" />
	</node>
	<node id="-277089" lat="58.3082249988" lon="8.56511943923">
		<tag k="name" v="Saltviga" />
		<tag k="place" v="isolated_dwelling" />
		<tag k="ssr:stedsnr" v="910954" />
	</node>
	<node id="-276580" lat="58.4331611118" lon="8.51250000338">
		<tag k="alt_name" v="Haugebu" />
		<tag k="fixme" v="consider place=hamlet" />
		<tag k="name" v="Haugebo" />
		<tag k="place" v="farm" />
		<tag k="ssr:stedsnr" v="789587" />
	</node>
	<node id="-277074" lat="58.274642368" lon="8.45507574714">
		<tag k="fixme" v="consider place=hamlet" />
		<tag k="name" v="Lille Arnevig" />
		<tag k="place" v="farm" />
		<tag k="ssr:stedsnr" v="910716" />
	</node>
	<node id="-273507" lat="58.29794722" lon="8.51157500799">
		<tag k="name" v="Lille Ødegård" />
		<tag k="place" v="farm" />
		<tag k="ssr:stedsnr" v="351368" />
	</node>
	<node id="-277059" lat="58.3968470314" lon="8.64281557158">
		<tag k="fixme" v="consider place=hamlet" />
		<tag k="name" v="Tøra" />
		<tag k="place" v="farm" />
		<tag k="ssr:stedsnr" v="910563" />
	</node>
	<node id="-277057" lat="58.382316489" lon="8.64884967093">
		<tag k="fixme" v="consider place=hamlet" />
		<tag k="name" v="Konnestad" />
		<tag k="place" v="farm" />
		<tag k="ssr:stedsnr" v="910559" />
	</node>
	<node id="-277056" lat="58.3880777798" lon="8.69223889622">
		<tag k="alt_name" v="Møssevold" />
		<tag k="fixme" v="consider place=hamlet" />
		<tag k="name" v="Møssevoll" />
		<tag k="place" v="farm" />
		<tag k="ssr:stedsnr" v="910551" />
	</node>
	<node id="-277054" lat="58.3708777806" lon="8.62971943696">
		<tag k="name" v="Moen" />
		<tag k="place" v="farm" />
		<tag k="ssr:stedsnr" v="910536" />
	</node>
	<node id="-274996" lat="58.3838222225" lon="8.69106665815">
		<tag k="name" v="Trolldalslia" />
		<tag k="place" v="quarter" />
		<tag k="ssr:stedsnr" v="423153" />
	</node>
	<node id="-277036" lat="58.4354194427" lon="8.37070832636">
		<tag k="fixme" v="consider place=hamlet" />
		<tag k="name" v="Urdalen" />
		<tag k="place" v="farm" />
		<tag k="ssr:stedsnr" v="910401" />
	</node>
	<node id="-277030" lat="58.3835972265" lon="8.35775832532">
		<tag k="name" v="Bakken" />
		<tag k="place" v="farm" />
		<tag k="ssr:stedsnr" v="910330" />
	</node>
	<node id="-274959" lat="58.387538886" lon="8.41071944832">
		<tag k="name" v="Lunden" />
		<tag k="place" v="farm" />
		<tag k="ssr:stedsnr" v="417224" />
	</node>
	<node id="-277000" lat="58.3265611077" lon="8.59955555121">
		<tag k="fixme" v="consider place=hamlet" />
		<tag k="name" v="Maløen" />
		<tag k="place" v="farm" />
		<tag k="ssr:stedsnr" v="909811" />
	</node>
	<node id="-276981" lat="58.3481083372" lon="8.59379444655">
		<tag k="name" v="Fladefjell" />
		<tag k="place" v="quarter" />
		<tag k="ssr:stedsnr" v="908171" />
	</node>
	<node id="-274931" lat="58.2732611146" lon="8.49349999507">
		<tag k="name" v="Enge" />
		<tag k="place" v="farm" />
		<tag k="ssr:stedsnr" v="243971" />
	</node>
	<node id="-274930" lat="58.2752379372" lon="8.46665734145">
		<tag k="fixme" v="consider place=hamlet" />
		<tag k="name" v="Berg" />
		<tag k="place" v="farm" />
		<tag k="ssr:stedsnr" v="243968" />
	</node>
	<node id="-274929" lat="58.2967027813" lon="8.53133888039">
		<tag k="name" v="Alsand" />
		<tag k="place" v="farm" />
		<tag k="ssr:stedsnr" v="243948" />
	</node>
	<node id="-274927" lat="58.2869903863" lon="8.49005394341">
		<tag k="fixme" v="consider place=hamlet" />
		<tag k="name" v="Omre" />
		<tag k="place" v="farm" />
		<tag k="ssr:stedsnr" v="243937" />
	</node>
	<node id="-277245" lat="58.366444441" lon="8.63028054946">
		<tag k="name" v="Vikheia" />
		<tag k="place" v="quarter" />
		<tag k="ssr:stedsnr" v="969175" />
	</node>
	<node id="-274923" lat="58.4023000026" lon="8.6424777849">
		<tag k="name" v="Lunde" />
		<tag k="place" v="farm" />
		<tag k="ssr:stedsnr" v="243563" />
	</node>
	<node id="-274922" lat="58.4011472252" lon="8.51035278325">
		<tag k="alt_name" v="Kvernhusmoen" />
		<tag k="name" v="Kvennhusmoen" />
		<tag k="place" v="farm" />
		<tag k="ssr:stedsnr" v="243562" />
	</node>
	<node id="-274918" lat="58.3598027816" lon="8.59623889337">
		<tag k="fixme" v="consider place=hamlet" />
		<tag k="name" v="Gjømle" />
		<tag k="place" v="farm" />
		<tag k="ssr:stedsnr" v="243536" />
	</node>
	<node id="-274917" lat="58.3683333323" lon="8.62270555749">
		<tag k="name" v="Vik" />
		<tag k="place" v="village" />
		<tag k="ssr:stedsnr" v="243505" />
	</node>
	<node id="-274916" lat="58.4666204943" lon="8.45256485555">
		<tag k="fixme" v="consider place=hamlet" />
		<tag k="name" v="Hunsdal" />
		<tag k="place" v="farm" />
		<tag k="ssr:stedsnr" v="243489" />
	</node>
	<node id="-276937" lat="58.4135861154" lon="8.37450000243">
		<tag k="name" v="Brombakken" />
		<tag k="place" v="isolated_dwelling" />
		<tag k="ssr:stedsnr" v="902283" />
	</node>
	<node id="-274877" lat="58.4238638901" lon="8.47315556304">
		<tag k="name" v="Hardebergdalen" />
		<tag k="place" v="isolated_dwelling" />
		<tag k="ssr:stedsnr" v="242575" />
	</node>
	<node id="-276918" lat="58.3816222246" lon="8.67978056375">
		<tag k="amenity" v="school" />
		<tag k="name" v="Fevik skole" />
		<tag k="ssr:stedsnr" v="879707" />
	</node>
	<node id="-276912" lat="58.3346944448" lon="8.61508333233">
		<tag k="name" v="Marivoll" />
		<tag k="place" v="farm" />
		<tag k="ssr:stedsnr" v="879473" />
	</node>
	<node id="-273477" lat="58.2614444477" lon="8.45980556164">
		<tag k="name" v="Bjørnsvik" />
		<tag k="place" v="farm" />
		<tag k="ssr:stedsnr" v="333438" />
	</node>
	<node id="-276891" lat="58.3605555556" lon="8.58916666472">
		<tag k="name" v="Killegård" />
		<tag k="place" v="farm" />
		<tag k="ssr:stedsnr" v="879289" />
	</node>
	<node id="-274830" lat="58.3502388903" lon="8.62033611133">
		<tag k="fixme" v="consider place=hamlet" />
		<tag k="name" v="Vestre Eskedal" />
		<tag k="place" v="farm" />
		<tag k="ssr:stedsnr" v="242160" />
	</node>
	<node id="-274826" lat="58.33990556" lon="8.56322778387">
		<tag k="fixme" v="consider place=hamlet" />
		<tag k="name" v="Skaregrøm" />
		<tag k="place" v="farm" />
		<tag k="ssr:stedsnr" v="241817" />
	</node>
	<node id="-274825" lat="58.3476694431" lon="8.57985832532">
		<tag k="fixme" v="consider place=hamlet" />
		<tag k="name" v="Vestre Frivold" />
		<tag k="place" v="farm" />
		<tag k="ssr:stedsnr" v="241810" />
	</node>
	<node id="-276871" lat="58.3141777788" lon="8.53482221682">
		<tag k="alt_name" v="Dynemyr" />
		<tag k="name" v="Dynemyra" />
		<tag k="place" v="isolated_dwelling" />
		<tag k="ssr:stedsnr" v="850995" />
	</node>
	<node id="-276870" lat="58.334588889" lon="8.54885833448">
		<tag k="name" v="Lundevoll" />
		<tag k="place" v="isolated_dwelling" />
		<tag k="ssr:stedsnr" v="850973" />
	</node>
	<node id="-276869" lat="58.3277166653" lon="8.47554444927">
		<tag k="name" v="Lauvnes" />
		<tag k="place" v="farm" />
		<tag k="ssr:stedsnr" v="850968" />
	</node>
	<node id="-276867" lat="58.3017444469" lon="8.53761111614">
		<tag k="fixme" v="consider place=hamlet" />
		<tag k="name" v="Støle" />
		<tag k="place" v="farm" />
		<tag k="ssr:stedsnr" v="850935" />
	</node>
	<node id="-276866" lat="58.2800694414" lon="8.45712221505">
		<tag k="fixme" v="consider place=hamlet" />
		<tag k="name" v="Lindtveit" />
		<tag k="place" v="farm" />
		<tag k="ssr:stedsnr" v="850876" />
	</node>
	<node id="-276863" lat="58.3893388915" lon="8.57975278411">
		<tag k="alt_name" v="Havesletta" />
		<tag k="name" v="Hagesletta" />
		<tag k="place" v="isolated_dwelling" />
		<tag k="ssr:stedsnr" v="850537" />
	</node>
	<node id="-276862" lat="58.3954138898" lon="8.53353611792">
		<tag k="fixme" v="consider place=hamlet" />
		<tag k="name" v="Gurebu" />
		<tag k="old_name" v="Gurrebu;Gurrebo" />
		<tag k="place" v="farm" />
		<tag k="ssr:stedsnr" v="850535" />
	</node>
	<node id="-276859" lat="58.4001944465" lon="8.35146666414">
		<tag k="fixme" v="consider place=hamlet" />
		<tag k="name" v="Risdal" />
		<tag k="place" v="farm" />
		<tag k="ssr:stedsnr" v="850447" />
	</node>
	<node id="-276858" lat="58.4027583297" lon="8.39571111301">
		<tag k="fixme" v="consider place=hamlet" />
		<tag k="name" v="Øye" />
		<tag k="place" v="farm" />
		<tag k="ssr:stedsnr" v="850446" />
	</node>
	<node id="-276856" lat="58.4231333301" lon="8.42280833629">
		<tag k="fixme" v="consider place=hamlet" />
		<tag k="name" v="Kiland" />
		<tag k="place" v="farm" />
		<tag k="ssr:stedsnr" v="850412" />
	</node>
	<node id="-276854" lat="58.4463406582" lon="8.4136368403">
		<tag k="fixme" v="consider place=hamlet" />
		<tag k="name" v="Igland" />
		<tag k="place" v="farm" />
		<tag k="ssr:stedsnr" v="850399" />
	</node>
	<node id="-276852" lat="58.380415532" lon="8.39067476789">
		<tag k="fixme" v="consider place=hamlet" />
		<tag k="name" v="Gusdal" />
		<tag k="place" v="farm" />
		<tag k="ssr:stedsnr" v="850333" />
	</node>
	<node id="-276851" lat="58.334844444" lon="8.44876943778">
		<tag k="fixme" v="consider place=hamlet" />
		<tag k="name" v="Udjus" />
		<tag k="place" v="farm" />
		<tag k="ssr:stedsnr" v="850256" />
	</node>
	<node id="-276850" lat="58.3398097085" lon="8.44589914401">
		<tag k="fixme" v="consider place=hamlet" />
		<tag k="name" v="Nærebø" />
		<tag k="place" v="farm" />
		<tag k="ssr:stedsnr" v="850255" />
	</node>
	<node id="-274801" lat="58.3820222252" lon="8.32731665809">
		<tag k="name" v="Bjørkelia" />
		<tag k="place" v="farm" />
		<tag k="ssr:stedsnr" v="235788" />
	</node>
	<node id="-273469" lat="58.3265833366" lon="8.56802778542">
		<tag k="name" v="Langemyr" />
		<tag k="place" v="farm" />
		<tag k="ssr:stedsnr" v="333369" />
	</node>
	<node id="-274792" lat="58.3871222229" lon="8.5293999983">
		<tag k="name" v="Øygarden" />
		<tag k="place" v="farm" />
		<tag k="ssr:stedsnr" v="235398" />
	</node>
	<node id="-276810" lat="58.3505611131" lon="8.52190000373">
		<tag k="name" v="Bakken" />
		<tag k="place" v="isolated_dwelling" />
		<tag k="ssr:stedsnr" v="849538" />
	</node>
	<node id="-273680" lat="58.4013055578" lon="8.70240555542">
		<tag k="name" v="Neset" />
		<tag k="place" v="farm" />
		<tag k="ssr:stedsnr" v="364565" />
	</node>
	<node id="-274753" lat="58.3367888933" lon="8.48240277981">
		<tag k="fixme" v="consider place=hamlet" />
		<tag k="name" v="Fladen" />
		<tag k="place" v="farm" />
		<tag k="ssr:stedsnr" v="230791" />
	</node>
	<node id="-276795" lat="58.4326381133" lon="8.39715655736">
		<tag k="name" v="Håland" />
		<tag k="place" v="farm" />
		<tag k="ssr:stedsnr" v="849415" />
	</node>
	<node id="-276792" lat="58.3489694488" lon="8.36740278363">
		<tag k="name" v="Breivoll" />
		<tag k="place" v="farm" />
		<tag k="ssr:stedsnr" v="849377" />
	</node>
	<node id="-274741" lat="58.3015583343" lon="8.52334444608">
		<tag k="name" v="Sørlia" />
		<tag k="place" v="isolated_dwelling" />
		<tag k="ssr:stedsnr" v="230369" />
	</node>
	<node id="-274730" lat="58.328516669" lon="8.58681388604">
		<tag k="name" v="Vessøy" />
		<tag k="place" v="farm" />
		<tag k="ssr:stedsnr" v="223657" />
	</node>
	<node id="-274729" lat="58.3973444438" lon="8.70098888829">
		<tag k="name" v="Vessøya" />
		<tag k="place" v="neighbourhood" />
		<tag k="ssr:stedsnr" v="222097" />
	</node>
	<node id="-274724" lat="58.3912749957" lon="8.70657777834">
		<tag k="name" v="Lillenes" />
		<tag k="place" v="farm" />
		<tag k="ssr:stedsnr" v="212750" />
	</node>
	<node id="-274705" lat="58.4063027818" lon="8.63243334028">
		<tag k="name" v="Hjemteland" />
		<tag k="place" v="locality" />
		<tag k="ssr:stedsnr" v="212377" />
	</node>
	<node id="-274702" lat="58.3143888849" lon="8.55347221915">
		<tag k="name" v="Bergimellom" />
		<tag k="place" v="farm" />
		<tag k="ssr:stedsnr" v="212348" />
	</node>
	<node id="-274692" lat="58.2686946607" lon="8.51811246552">
		<tag k="fixme" v="consider place=hamlet" />
		<tag k="name" v="Vestre Hove" />
		<tag k="place" v="farm" />
		<tag k="ssr:stedsnr" v="212093" />
	</node>
	<node id="-274690" lat="58.3099138872" lon="8.55213056201">
		<tag k="name" v="Morviga" />
		<tag k="place" v="farm" />
		<tag k="ssr:stedsnr" v="209820" />
	</node>
	<node id="-274683" lat="58.3501222232" lon="8.60244999918">
		<tag k="fixme" v="consider place=hamlet" />
		<tag k="name" v="Naksbø" />
		<tag k="place" v="farm" />
		<tag k="ssr:stedsnr" v="209661" />
	</node>
	<node id="-274681" lat="58.4005916629" lon="8.42746667283">
		<tag k="fixme" v="consider place=hamlet" />
		<tag k="name" v="Stalleland" />
		<tag k="place" v="farm" />
		<tag k="ssr:stedsnr" v="206352" />
	</node>
	<node id="-274679" lat="58.2743249991" lon="8.43946111632">
		<tag k="fixme" v="consider place=hamlet" />
		<tag k="name" v="Bjelleråsen" />
		<tag k="place" v="farm" />
		<tag k="ssr:stedsnr" v="204864" />
	</node>
	<node id="-274678" lat="58.3241361109" lon="8.53223611376">
		<tag k="name" v="Nedre Ågre" />
		<tag k="place" v="farm" />
		<tag k="ssr:stedsnr" v="183000" />
	</node>
	<node id="-274670" lat="58.2865527809" lon="8.51703055134">
		<tag k="alt_name" v="Kjerrviga" />
		<tag k="fixme" v="consider place=hamlet" />
		<tag k="name" v="Kjervika" />
		<tag k="old_name" v="Kjerrvika" />
		<tag k="place" v="farm" />
		<tag k="ssr:stedsnr" v="182958" />
	</node>
	<node id="-274669" lat="58.2638138916" lon="8.50691666882">
		<tag k="name" v="Dannevig" />
		<tag k="place" v="isolated_dwelling" />
		<tag k="ssr:stedsnr" v="182949" />
	</node>
	<node id="-274663" lat="58.4213305538" lon="8.53360832819">
		<tag k="fixme" v="consider place=hamlet" />
		<tag k="name" v="Helleren" />
		<tag k="place" v="farm" />
		<tag k="ssr:stedsnr" v="182589" />
	</node>
	<node id="-274660" lat="58.3873444471" lon="8.48151389602">
		<tag k="alt_name" v="Grøsle" />
		<tag k="name" v="Nedre Grøsle" />
		<tag k="place" v="farm" />
		<tag k="ssr:stedsnr" v="182552" />
	</node>
	<node id="-274657" lat="58.354738886" lon="8.63060833426">
		<tag k="name" v="Eskedal" />
		<tag k="place" v="hamlet" />
		<tag k="ssr:stedsnr" v="182499" />
	</node>
	<node id="-274654" lat="58.344347222" lon="8.39412778048">
		<tag k="name" v="Jordås" />
		<tag k="place" v="farm" />
		<tag k="ssr:stedsnr" v="182366" />
	</node>
	<node id="-274651" lat="58.3078249993" lon="8.45551943911">
		<tag k="name" v="Tyssekil" />
		<tag k="place" v="isolated_dwelling" />
		<tag k="ssr:stedsnr" v="182282" />
	</node>
	<node id="-274650" lat="58.3487459306" lon="8.45393764944">
		<tag k="fixme" v="consider place=hamlet" />
		<tag k="name" v="Lunden" />
		<tag k="place" v="farm" />
		<tag k="ssr:stedsnr" v="182246" />
	</node>
	<node id="-273335" lat="58.3694277819" lon="8.61571944028">
		<tag k="name" v="Spedalen" />
		<tag k="place" v="quarter" />
		<tag k="ssr:stedsnr" v="301149" />
	</node>
	<node id="-274632" lat="58.3510388876" lon="8.59442500286">
		<tag k="fixme" v="consider place=hamlet" />
		<tag k="name" v="Øvre Bie" />
		<tag k="place" v="farm" />
		<tag k="ssr:stedsnr" v="181823" />
	</node>
	<node id="-274631" lat="58.3620555574" lon="8.60766388795">
		<tag k="fixme" v="consider place=hamlet" />
		<tag k="name" v="Østre Ugland" />
		<tag k="place" v="farm" />
		<tag k="ssr:stedsnr" v="181818" />
	</node>
	<node id="-276657" lat="58.3304833368" lon="8.43816110941">
		<tag k="name" v="Tverrkjerr" />
		<tag k="place" v="farm" />
		<tag k="ssr:stedsnr" v="836785" />
	</node>
	<node id="-276648" lat="58.3676722198" lon="8.65906943647">
		<tag k="name" v="Grefstad" />
		<tag k="place" v="hamlet" />
		<tag k="ssr:stedsnr" v="829168" />
	</node>
	<node id="-274576" lat="58.2763222207" lon="8.51489166466">
		<tag k="name" v="Veddeskogen" />
		<tag k="place" v="neighbourhood" />
		<tag k="ssr:stedsnr" v="179205" />
	</node>
	<node id="-276608" lat="58.3508888929" lon="8.57511110969">
		<tag k="amenity" v="nursing_home" />
		<tag k="name" v="Egra" />
		<tag k="ssr:stedsnr" v="819312" />
	</node>
	<node id="-276606" lat="58.3562916706" lon="8.58515555848">
		<tag k="fixme" v="consider place=hamlet" />
		<tag k="name" v="Øde Ugland" />
		<tag k="place" v="farm" />
		<tag k="ssr:stedsnr" v="819306" />
	</node>
	<node id="-274556" lat="58.4007222207" lon="8.51378889288">
		<tag k="name" v="Nyhagen" />
		<tag k="place" v="farm" />
		<tag k="ssr:stedsnr" v="174792" />
	</node>
	<node id="-275135" lat="58.3969916634" lon="8.63773889202">
		<tag k="name" v="Tøraplassen" />
		<tag k="place" v="farm" />
		<tag k="ssr:stedsnr" v="455353" />
	</node>
	<node id="-276600" lat="58.2592305587" lon="8.46991388803">
		<tag k="name" v="Nordmannsviga" />
		<tag k="place" v="locality" />
		<tag k="ssr:stedsnr" v="815801" />
	</node>
	<node id="-276588" lat="58.3111027747" lon="8.50422222793">
		<tag k="name" v="Haneto" />
		<tag k="place" v="farm" />
		<tag k="ssr:stedsnr" v="789988" />
	</node>
	<node id="-276587" lat="58.2795666682" lon="8.49027499315">
		<tag k="fixme" v="consider place=hamlet" />
		<tag k="name" v="Amtedal" />
		<tag k="place" v="farm" />
		<tag k="ssr:stedsnr" v="789967" />
	</node>
	<node id="-276583" lat="58.29400556" lon="8.50861666065">
		<tag k="fixme" v="consider place=hamlet" />
		<tag k="name" v="Krømpe" />
		<tag k="place" v="farm" />
		<tag k="ssr:stedsnr" v="789934" />
	</node>
	<node id="-276581" lat="58.4586479378" lon="8.4812483208">
		<tag k="fixme" v="consider place=hamlet" />
		<tag k="name" v="Hørte" />
		<tag k="place" v="farm" />
		<tag k="ssr:stedsnr" v="789637" />
	</node>
	<node id="-274532" lat="58.3844388899" lon="8.50167777476">
		<tag k="name" v="Suggelia" />
		<tag k="place" v="locality" />
		<tag k="ssr:stedsnr" v="174117" />
	</node>
	<node id="-276579" lat="58.4048646099" lon="8.60597326742">
		<tag k="alt_name" v="Kroklia" />
		<tag k="name" v="Krokelia" />
		<tag k="place" v="farm" />
		<tag k="ssr:stedsnr" v="789573" />
	</node>
	<node id="-276578" lat="58.3771500034" lon="8.64124444016">
		<tag k="name" v="Klepp" />
		<tag k="place" v="farm" />
		<tag k="ssr:stedsnr" v="789546" />
	</node>
	<node id="-276577" lat="58.3782027795" lon="8.6760138912">
		<tag k="name" v="Fevik" />
		<tag k="place" v="village" />
		<tag k="ssr:stedsnr" v="789547" />
	</node>
	<node id="-276576" lat="58.3852277748" lon="8.52902500576">
		<tag k="name" v="Bruna" />
		<tag k="place" v="isolated_dwelling" />
		<tag k="ssr:stedsnr" v="789542" />
	</node>
	<node id="-276575" lat="58.3647583295" lon="8.52780556086">
		<tag k="name" v="Imenes" />
		<tag k="place" v="farm" />
		<tag k="ssr:stedsnr" v="789531" />
	</node>
	<node id="-276571" lat="58.3753944473" lon="8.65891111281">
		<tag k="alt_name" v="Huseland" />
		<tag k="name" v="Hausland" />
		<tag k="place" v="farm" />
		<tag k="ssr:stedsnr" v="789520" />
	</node>
	<node id="-276566" lat="58.3655333376" lon="8.33612500541">
		<tag k="fixme" v="consider place=hamlet" />
		<tag k="name" v="Hundland" />
		<tag k="place" v="farm" />
		<tag k="ssr:stedsnr" v="789377" />
	</node>
	<node id="-276564" lat="58.3701916632" lon="8.35765000299">
		<tag k="fixme" v="consider place=hamlet" />
		<tag k="name" v="Fillingtveit" />
		<tag k="place" v="farm" />
		<tag k="ssr:stedsnr" v="789368" />
	</node>
	<node id="-274514" lat="58.3533916667" lon="8.46547221457">
		<tag k="name" v="Mellvika" />
		<tag k="place" v="locality" />
		<tag k="ssr:stedsnr" v="170285" />
	</node>
	<node id="-274510" lat="58.3404222226" lon="8.54138610578">
		<tag k="name" v="Klokkergården" />
		<tag k="place" v="farm" />
		<tag k="ssr:stedsnr" v="169918" />
	</node>
	<node id="-276547" lat="58.2807999968" lon="8.5047361112">
		<tag k="name" v="Busteinen" />
		<tag k="place" v="farm" />
		<tag k="ssr:stedsnr" v="788835" />
	</node>
	<node id="-274497" lat="58.3180638912" lon="8.47890833909">
		<tag k="fixme" v="consider place=hamlet" />
		<tag k="name" v="Vatnestrand" />
		<tag k="place" v="farm" />
		<tag k="ssr:stedsnr" v="169342" />
	</node>
	<node id="-274493" lat="58.3320861109" lon="8.61996665939">
		<tag k="name" v="Marivoll" />
		<tag k="place" v="neighbourhood" />
		<tag k="ssr:stedsnr" v="162300" />
	</node>
	<node id="-274491" lat="58.3047222184" lon="8.55436111661">
		<tag k="name" v="Guleodde" />
		<tag k="place" v="isolated_dwelling" />
		<tag k="ssr:stedsnr" v="152464" />
	</node>
	<node id="-274489" lat="58.3982388864" lon="8.65158055356">
		<tag k="name" v="Klemma" />
		<tag k="place" v="isolated_dwelling" />
		<tag k="ssr:stedsnr" v="151754" />
	</node>
	<node id="-276518" lat="58.455355554" lon="8.49123611299">
		<tag k="name" v="Helleland" />
		<tag k="place" v="farm" />
		<tag k="ssr:stedsnr" v="788618" />
	</node>
	<node id="-274456" lat="58.3440555522" lon="8.62152778552">
		<tag k="name" v="Engene" />
		<tag k="place" v="farm" />
		<tag k="ssr:stedsnr" v="151276" />
	</node>
	<node id="-274454" lat="58.2768333309" lon="8.5181388879">
		<tag k="name" v="Øygarden" />
		<tag k="place" v="locality" />
		<tag k="ssr:stedsnr" v="151110" />
	</node>
	<node id="-276499" lat="58.3522916685" lon="8.55865000184">
		<tag k="alt_name" v="Naudenes" />
		<tag k="name" v="Nautenes" />
		<tag k="place" v="farm" />
		<tag k="ssr:stedsnr" v="788504" />
	</node>
	<node id="-274445" lat="58.3416083367" lon="8.54733610752">
		<tag k="name" v="Prestdalen" />
		<tag k="place" v="farm" />
		<tag k="ssr:stedsnr" v="121986" />
	</node>
	<node id="-274439" lat="58.3006222231" lon="8.52832499971">
		<tag k="fixme" v="consider place=hamlet" />
		<tag k="name" v="Strandfjorden" />
		<tag k="place" v="farm" />
		<tag k="ssr:stedsnr" v="121949" />
	</node>
</osm>
