<?xml version="1.0" encoding="UTF-8"?>
<osm generator="osmapis" version="0.6">
	<node id="-274410" lat="58.3646805585" lon="8.49679721897">
		<tag k="name" v="Flatholmen" />
		<tag k="place" v="islet" />
		<tag k="ssr:stedsnr" v="121526" />
	</node>
	<node id="-274400" lat="58.4486638858" lon="8.411380554">
		<tag k="name" v="Sandvannet" />
		<tag k="natural" v="water" />
		<tag k="ssr:stedsnr" v="121488" />
	</node>
	<node id="-274397" lat="58.4210277806" lon="8.37963055792">
		<tag k="name" v="Krosshøl" />
		<tag k="natural" v="water" />
		<tag k="ssr:stedsnr" v="121407" />
	</node>
	<node id="-276436" lat="58.3918388855" lon="8.37055834135">
		<tag k="name" v="Holmvasstjenn" />
		<tag k="natural" v="water" />
		<tag k="ssr:stedsnr" v="781937" />
	</node>
	<node id="-274387" lat="58.3939055536" lon="8.32023333193">
		<tag k="name" v="Svartetjenn" />
		<tag k="natural" v="water" />
		<tag k="ssr:stedsnr" v="121322" />
	</node>
	<node id="-276433" lat="58.3902749982" lon="8.4186527746">
		<tag k="name" v="Austertjenn" />
		<tag k="natural" v="water" />
		<tag k="ssr:stedsnr" v="781842" />
	</node>
	<node id="-276429" lat="58.3836027758" lon="8.32442500275">
		<tag k="name" v="Hansesoddane" />
		<tag k="natural" v="cape" />
		<tag k="ssr:stedsnr" v="781796" />
	</node>
	<node id="-276422" lat="58.4312472192" lon="8.4814249923">
		<tag k="name" v="Fossetjenn" />
		<tag k="natural" v="water" />
		<tag k="ssr:stedsnr" v="781683" />
	</node>
	<node id="-274081" lat="58.3983749956" lon="8.49683332888">
		<tag k="name" v="Urdalstjenn" />
		<tag k="natural" v="water" />
		<tag k="ssr:stedsnr" v="53776" />
	</node>
	<node id="-276420" lat="58.4174500025" lon="8.49148332619">
		<tag k="name" v="Lille Ustadtjenn" />
		<tag k="natural" v="water" />
		<tag k="ssr:stedsnr" v="781608" />
	</node>
	<node id="-276416" lat="58.4386472267" lon="8.46261111955">
		<tag k="name" v="Bjortjønn" />
		<tag k="natural" v="water" />
		<tag k="ssr:stedsnr" v="781479" />
	</node>
	<node id="-276128" lat="58.3855361145" lon="8.49834721743">
		<tag k="name" v="Kjeøysund" />
		<tag k="natural" v="strait" />
		<tag k="ssr:stedsnr" v="720115" />
	</node>
	<node id="-276412" lat="58.3796222208" lon="8.50419166986">
		<tag k="name" v="Øynesund" />
		<tag k="natural" v="strait" />
		<tag k="ssr:stedsnr" v="781401" />
	</node>
	<node id="-276410" lat="58.4329583331" lon="8.49632221998">
		<tag k="name" v="Synninga" />
		<tag k="natural" v="cape" />
		<tag k="ssr:stedsnr" v="781361" />
	</node>
	<node id="-276405" lat="58.4683138915" lon="8.40470555243">
		<tag k="name" v="Storevatn" />
		<tag k="natural" v="water" />
		<tag k="ssr:stedsnr" v="781214" />
		<tag k="water" v="lake" />
	</node>
	<node id="-275167" lat="58.3419944451" lon="8.38653055543">
		<tag k="name" v="Store Linddalstjenn" />
		<tag k="natural" v="water" />
		<tag k="ssr:stedsnr" v="472843" />
	</node>
	<node id="-276401" lat="58.378658331" lon="8.33221111947">
		<tag k="name" v="Ålkjærvannet" />
		<tag k="natural" v="water" />
		<tag k="ssr:stedsnr" v="781164" />
		<tag k="water" v="lake" />
	</node>
	<node id="-276400" lat="58.4726500037" lon="8.48681388755">
		<tag k="name" v="Møra" />
		<tag k="natural" v="bay" />
		<tag k="ssr:stedsnr" v="781161" />
	</node>
	<node id="-276398" lat="58.471863892" lon="8.49248332593">
		<tag k="name" v="Badstutjønn" />
		<tag k="natural" v="water" />
		<tag k="ssr:stedsnr" v="781155" />
	</node>
	<node id="-276394" lat="58.3829527788" lon="8.48594722346">
		<tag k="name" v="Lensmannsneset" />
		<tag k="natural" v="cape" />
		<tag k="ssr:stedsnr" v="781113" />
	</node>
	<node id="-276388" lat="58.4419722232" lon="8.40960832929">
		<tag k="name" v="Vestertjønn" />
		<tag k="natural" v="water" />
		<tag k="ssr:stedsnr" v="781044" />
	</node>
	<node id="-276380" lat="58.3498472264" lon="8.35293611382">
		<tag k="name" v="Surtetjenn" />
		<tag k="natural" v="water" />
		<tag k="ssr:stedsnr" v="776975" />
	</node>
	<node id="-276379" lat="58.3650500044" lon="8.31962222571">
		<tag k="name" v="Stigselva" />
		<tag k="ssr:stedsnr" v="776954" />
		<tag k="waterway" v="river" />
	</node>
	<node id="-276121" lat="58.3621999961" lon="8.50960277294">
		<tag k="name" v="Verkilen" />
		<tag k="natural" v="bay" />
		<tag k="ssr:stedsnr" v="716376" />
	</node>
	<node id="-274316" lat="58.4351666636" lon="8.49833332778">
		<tag k="name" v="Kalvodden" />
		<tag k="natural" v="cape" />
		<tag k="ssr:stedsnr" v="114383" />
	</node>
	<node id="-274310" lat="58.4640277768" lon="8.47716110669">
		<tag k="name" v="Hunsdalstjønn" />
		<tag k="natural" v="water" />
		<tag k="ssr:stedsnr" v="114157" />
	</node>
	<node id="-276356" lat="58.362602778" lon="8.50281945266">
		<tag k="name" v="Brattholmen" />
		<tag k="place" v="islet" />
		<tag k="ssr:stedsnr" v="776342" />
	</node>
	<node id="-276355" lat="58.3669388915" lon="8.53674999806">
		<tag k="name" v="Østreplass" />
		<tag k="natural" v="strait" />
		<tag k="ssr:stedsnr" v="776318" />
	</node>
	<node id="-276353" lat="58.3031333293" lon="8.45238888796">
		<tag k="alt_name" v="Tyssekiltjenn, vestre" />
		<tag k="fixme" v="multiple name tags, choose one and add the other to alt_name" />
		<tag k="name" v="Vestertjenn;Vestre Tyssekiltjenn" />
		<tag k="natural" v="water" />
		<tag k="ssr:stedsnr" v="768278" />
	</node>
	<node id="-274303" lat="58.4144222221" lon="8.52980000126">
		<tag k="name" v="Langemyrtjenn" />
		<tag k="natural" v="water" />
		<tag k="ssr:stedsnr" v="113979" />
	</node>
	<node id="-274301" lat="58.3698750016" lon="8.42309722981">
		<tag k="name" v="Havåstjenn" />
		<tag k="natural" v="water" />
		<tag k="ssr:stedsnr" v="114065" />
	</node>
	<node id="-274299" lat="58.4521277789" lon="8.39373610325">
		<tag k="name" v="Kjerrbærstjønn" />
		<tag k="natural" v="water" />
		<tag k="ssr:stedsnr" v="114047" />
	</node>
	<node id="-274297" lat="58.4759305575" lon="8.46959722171">
		<tag k="name" v="Rautelitangen" />
		<tag k="natural" v="cape" />
		<tag k="ssr:stedsnr" v="114002" />
	</node>
	<node id="-274293" lat="58.4184361109" lon="8.54507778165">
		<tag k="name" v="Askedalsbekken" />
		<tag k="ssr:stedsnr" v="113489" />
		<tag k="waterway" v="stream" />
	</node>
	<node id="-273255" lat="58.362358333" lon="8.4836527729">
		<tag k="name" v="Kjeholmen" />
		<tag k="place" v="islet" />
		<tag k="ssr:stedsnr" v="291289" />
	</node>
	<node id="-274279" lat="58.3398472222" lon="8.41900277909">
		<tag k="name" v="Lauvstadtjenn" />
		<tag k="natural" v="water" />
		<tag k="ssr:stedsnr" v="109739" />
	</node>
	<node id="-274277" lat="58.3368111129" lon="8.41533055469">
		<tag k="name" v="Stemmen" />
		<tag k="place" v="locality" />
		<tag k="ssr:stedsnr" v="109714" />
	</node>
	<node id="-274276" lat="58.3519666686" lon="8.41552777613">
		<tag k="name" v="Stemtjenn" />
		<tag k="natural" v="water" />
		<tag k="ssr:stedsnr" v="109500" />
	</node>
	<node id="-274274" lat="58.3625000033" lon="8.33638889257">
		<tag k="name" v="Hundlandsvatn" />
		<tag k="natural" v="water" />
		<tag k="ssr:stedsnr" v="109944" />
		<tag k="water" v="lake" />
	</node>
	<node id="-276320" lat="58.3759166675" lon="8.58605555917">
		<tag k="name" v="Tvitjennene" />
		<tag k="natural" v="water" />
		<tag k="ssr:stedsnr" v="758335" />
	</node>
	<node id="-276317" lat="58.355583331" lon="8.55772221483">
		<tag k="name" v="Lille Rosholttjenn" />
		<tag k="natural" v="water" />
		<tag k="old_name" v="Lille Rosholtjenn" />
		<tag k="ssr:stedsnr" v="758328" />
	</node>
	<node id="-276315" lat="58.4023055525" lon="8.57838888681">
		<tag k="name" v="Store Bjørnvik" />
		<tag k="natural" v="bay" />
		<tag k="ssr:stedsnr" v="758315" />
	</node>
	<node id="-276314" lat="58.3982500025" lon="8.5750555537">
		<tag k="name" v="Byttingsvika" />
		<tag k="natural" v="bay" />
		<tag k="ssr:stedsnr" v="758311" />
	</node>
	<node id="-276313" lat="58.3960277778" lon="8.57986110474">
		<tag k="name" v="Ronsebakktjenn" />
		<tag k="natural" v="water" />
		<tag k="ssr:stedsnr" v="758309" />
	</node>
	<node id="-274249" lat="58.4131944438" lon="8.58869443756">
		<tag k="name" v="Haslevika" />
		<tag k="natural" v="bay" />
		<tag k="ssr:stedsnr" v="91270" />
	</node>
	<node id="-274247" lat="58.3909333369" lon="8.69604444301">
		<tag k="name" v="Allemannsbekken" />
		<tag k="ssr:stedsnr" v="90719" />
		<tag k="waterway" v="stream" />
	</node>
	<node id="-274246" lat="58.4048939626" lon="8.64473351693">
		<tag k="name" v="Kalvehagfossen" />
		<tag k="natural" v="waterfall" />
		<tag k="ssr:stedsnr" v="90711" />
	</node>
	<node id="-276289" lat="58.3297416698" lon="8.51420000822">
		<tag k="name" v="Landvikvannet" />
		<tag k="natural" v="water" />
		<tag k="ssr:stedsnr" v="728975" />
		<tag k="water" v="lake" />
	</node>
	<node id="-276251" lat="58.4027000023" lon="8.48950832645">
		<tag k="name" v="Holvannet" />
		<tag k="natural" v="water" />
		<tag k="ssr:stedsnr" v="728545" />
		<tag k="water" v="lake" />
	</node>
	<node id="-274200" lat="58.3920722204" lon="8.55567222646">
		<tag k="name" v="Stemvannet" />
		<tag k="natural" v="water" />
		<tag k="ssr:stedsnr" v="61895" />
		<tag k="water" v="lake" />
	</node>
	<node id="-274199" lat="58.4601611156" lon="8.49693889587">
		<tag k="name" v="Smedvann" />
		<tag k="natural" v="water" />
		<tag k="ssr:stedsnr" v="61622" />
	</node>
	<node id="-274198" lat="58.4122222255" lon="8.53834444211">
		<tag k="name" v="Grunnvannet" />
		<tag k="natural" v="water" />
		<tag k="ssr:stedsnr" v="61555" />
	</node>
	<node id="-276245" lat="58.3659833319" lon="8.55140278086">
		<tag k="name" v="Rore" />
		<tag k="natural" v="water" />
		<tag k="ssr:stedsnr" v="728522" />
		<tag k="water" v="lake" />
	</node>
	<node id="-274189" lat="58.4640833333" lon="8.44095833023">
		<tag k="name" v="Kollandsvannet" />
		<tag k="natural" v="water" />
		<tag k="ssr:stedsnr" v="61473" />
		<tag k="water" v="lake" />
	</node>
	<node id="-274187" lat="58.3617694474" lon="8.44840556385">
		<tag k="name" v="Lundetjenn" />
		<tag k="natural" v="water" />
		<tag k="ssr:stedsnr" v="61349" />
	</node>
	<node id="-276228" lat="58.4092999994" lon="8.32621111689">
		<tag k="name" v="Røyrtjønn" />
		<tag k="natural" v="water" />
		<tag k="ssr:stedsnr" v="728406" />
	</node>
	<node id="-276225" lat="58.417888887" lon="8.44255278328">
		<tag k="name" v="Knabevanna" />
		<tag k="natural" v="water" />
		<tag k="ssr:stedsnr" v="728383" />
		<tag k="water" v="lake" />
	</node>
	<node id="-276223" lat="58.4383749984" lon="8.38777499408">
		<tag k="name" v="Stemtjenn" />
		<tag k="natural" v="water" />
		<tag k="ssr:stedsnr" v="728374" />
	</node>
	<node id="-276219" lat="58.3615361135" lon="8.4022194439">
		<tag k="alt_name" v="Nedre Rosstjenn;Rossvann, nedre" />
		<tag k="fixme" v="multiple name tags, choose one and add the other to alt_name" />
		<tag k="name" v="Nedre Rossvann;Nedre Rossetjenn" />
		<tag k="natural" v="water" />
		<tag k="ssr:stedsnr" v="728314" />
	</node>
	<node id="-276216" lat="58.3695111124" lon="8.36458889449">
		<tag k="name" v="Austlandsvannet" />
		<tag k="natural" v="water" />
		<tag k="ssr:stedsnr" v="728298" />
	</node>
	<node id="-276209" lat="58.3206305526" lon="8.45351110884">
		<tag k="name" v="Reddalsvannet" />
		<tag k="natural" v="water" />
		<tag k="ssr:stedsnr" v="728252" />
		<tag k="water" v="lake" />
	</node>
	<node id="-276206" lat="58.3313972212" lon="8.41459166905">
		<tag k="name" v="Kvennsevannet" />
		<tag k="natural" v="water" />
		<tag k="ssr:stedsnr" v="728238" />
	</node>
	<node id="-276205" lat="58.3384027777" lon="8.40845000604">
		<tag k="name" v="Nerebøtjenn" />
		<tag k="natural" v="water" />
		<tag k="old_name" v="Nærebøtjenner" />
		<tag k="ssr:stedsnr" v="728232" />
	</node>
	<node id="-276165" lat="58.4197861131" lon="8.42138333863">
		<tag k="name" v="Skarkeholtjenn" />
		<tag k="natural" v="water" />
		<tag k="ssr:stedsnr" v="721666" />
	</node>
	<node id="-276159" lat="58.4069694467" lon="8.37756389181">
		<tag k="name" v="Stemtjenn" />
		<tag k="natural" v="water" />
		<tag k="ssr:stedsnr" v="720966" />
		<tag k="water" v="lake" />
	</node>
	<node id="-276156" lat="58.3958027754" lon="8.42698610827">
		<tag k="name" v="Kyrkjetjenn" />
		<tag k="natural" v="water" />
		<tag k="ssr:stedsnr" v="720876" />
	</node>
	<node id="-276155" lat="58.3983694421" lon="8.48159445138">
		<tag k="name" v="Granebekk" />
		<tag k="ssr:stedsnr" v="720875" />
		<tag k="waterway" v="stream" />
	</node>
	<node id="-276154" lat="58.3999888854" lon="8.46139999696">
		<tag k="name" v="Larsestjenn" />
		<tag k="natural" v="water" />
		<tag k="ssr:stedsnr" v="720822" />
	</node>
	<node id="-276149" lat="58.3718777781" lon="8.52945833434">
		<tag k="name" v="Buvika" />
		<tag k="natural" v="bay" />
		<tag k="ssr:stedsnr" v="720390" />
	</node>
	<node id="-276148" lat="58.3720722192" lon="8.54037778006">
		<tag k="name" v="Sandvikholmen" />
		<tag k="natural" v="cape" />
		<tag k="ssr:stedsnr" v="720387" />
	</node>
	<node id="-276141" lat="58.4786722258" lon="8.4993083355">
		<tag k="name" v="Tjærodden" />
		<tag k="natural" v="cape" />
		<tag k="ssr:stedsnr" v="720225" />
	</node>
	<node id="-276138" lat="58.3716388904" lon="8.36537222268">
		<tag k="name" v="Burodden" />
		<tag k="natural" v="cape" />
		<tag k="ssr:stedsnr" v="720190" />
	</node>
	<node id="-274087" lat="58.3907638933" lon="8.32152222671">
		<tag k="name" v="Fleketjenn" />
		<tag k="natural" v="water" />
		<tag k="ssr:stedsnr" v="53967" />
	</node>
	<node id="-276132" lat="58.4503222261" lon="8.43619166062">
		<tag k="name" v="Middagstjønn" />
		<tag k="natural" v="water" />
		<tag k="ssr:stedsnr" v="720034" />
	</node>
	<node id="-276129" lat="58.3842361139" lon="8.49560833092">
		<tag k="name" v="Kjeøya" />
		<tag k="place" v="island" />
		<tag k="ssr:stedsnr" v="720125" />
	</node>
	<node id="-274080" lat="58.4115388917" lon="8.40031665991">
		<tag k="name" v="Øyna" />
		<tag k="place" v="islet" />
		<tag k="ssr:stedsnr" v="53714" />
	</node>
	<node id="-274073" lat="58.4168222232" lon="8.50041389384">
		<tag k="name" v="Søylesundet" />
		<tag k="natural" v="strait" />
		<tag k="ssr:stedsnr" v="53520" />
	</node>
	<node id="-276120" lat="58.3247611114" lon="8.49081944743">
		<tag k="name" v="Reddalskanalen" />
		<tag k="natural" v="strait" />
		<tag k="ssr:stedsnr" v="716319" />
	</node>
	<node id="-276116" lat="58.3356805521" lon="8.41748055317">
		<tag k="name" v="Bleibekk" />
		<tag k="ssr:stedsnr" v="715780" />
		<tag k="waterway" v="stream" />
	</node>
	<node id="-274066" lat="58.4376833359" lon="8.52383333196">
		<tag k="name" v="Futjenn" />
		<tag k="natural" v="water" />
		<tag k="ssr:stedsnr" v="53364" />
	</node>
	<node id="-276105" lat="58.3234861101" lon="8.45148055433">
		<tag k="name" v="Holmebukta" />
		<tag k="natural" v="bay" />
		<tag k="ssr:stedsnr" v="715371" />
	</node>
	<node id="-274056" lat="58.3782027758" lon="8.37536666981">
		<tag k="name" v="Svartetjenn" />
		<tag k="natural" v="water" />
		<tag k="ssr:stedsnr" v="53193" />
	</node>
	<node id="-276103" lat="58.3504638903" lon="8.51200277738">
		<tag k="name" v="Lille Luetjenn" />
		<tag k="natural" v="water" />
		<tag k="ssr:stedsnr" v="715349" />
	</node>
	<node id="-274049" lat="58.3727861103" lon="8.4775111088">
		<tag k="name" v="Heirenes" />
		<tag k="natural" v="cape" />
		<tag k="ssr:stedsnr" v="53110" />
	</node>
	<node id="-274047" lat="58.4383527788" lon="8.36445833409">
		<tag k="name" v="Djupetjønn" />
		<tag k="natural" v="water" />
		<tag k="ssr:stedsnr" v="53096" />
	</node>
	<node id="-274046" lat="58.4442638887" lon="8.39856388321">
		<tag k="name" v="Stemtjønn" />
		<tag k="natural" v="water" />
		<tag k="ssr:stedsnr" v="53046" />
	</node>
	<node id="-274038" lat="58.3659777741" lon="8.3489750052">
		<tag k="name" v="Fillingtveittjenn" />
		<tag k="natural" v="water" />
		<tag k="ssr:stedsnr" v="48944" />
	</node>
	<node id="-276084" lat="58.3802416663" lon="8.61223611896">
		<tag k="name" v="Brennteigbekken" />
		<tag k="ssr:stedsnr" v="697696" />
		<tag k="waterway" v="stream" />
	</node>
	<node id="-274035" lat="58.3453611109" lon="8.40743054921">
		<tag k="name" v="Stomnetjenn" />
		<tag k="natural" v="water" />
		<tag k="ssr:stedsnr" v="48756" />
	</node>
	<node id="-274034" lat="58.3484583365" lon="8.38208888753">
		<tag k="name" v="Stormedalstjenn" />
		<tag k="natural" v="water" />
		<tag k="ssr:stedsnr" v="48466" />
	</node>
	<node id="-274026" lat="58.3223333335" lon="8.49509444085">
		<tag k="name" v="Inntjorkilen" />
		<tag k="natural" v="bay" />
		<tag k="ssr:stedsnr" v="48414" />
	</node>
	<node id="-274025" lat="58.3209277775" lon="8.52886110386">
		<tag k="name" v="Flødvika" />
		<tag k="natural" v="bay" />
		<tag k="ssr:stedsnr" v="48397" />
	</node>
	<node id="-274024" lat="58.3512861082" lon="8.48529444677">
		<tag k="name" v="Bjortjenn" />
		<tag k="natural" v="water" />
		<tag k="ssr:stedsnr" v="48334" />
	</node>
	<node id="-276069" lat="58.4073555584" lon="8.61240833368">
		<tag k="name" v="Hestholmen" />
		<tag k="place" v="islet" />
		<tag k="ssr:stedsnr" v="697380" />
	</node>
	<node id="-274018" lat="58.3618138865" lon="8.46504721798">
		<tag k="name" v="Lundesanden" />
		<tag k="natural" v="beach" />
		<tag k="ssr:stedsnr" v="48246" />
	</node>
	<node id="-274017" lat="58.3508361079" lon="8.4732027765">
		<tag k="name" v="Svennevika" />
		<tag k="natural" v="bay" />
		<tag k="ssr:stedsnr" v="48240" />
	</node>
	<node id="-274011" lat="58.3220444477" lon="8.47330277643">
		<tag k="name" v="Bjønnen" />
		<tag k="place" v="islet" />
		<tag k="ssr:stedsnr" v="47349" />
	</node>
	<node id="-274010" lat="58.3208250004" lon="8.45680000438">
		<tag k="name" v="Lyngholmen" />
		<tag k="place" v="islet" />
		<tag k="ssr:stedsnr" v="47348" />
	</node>
	<node id="-274001" lat="58.40327778" lon="8.64549722894">
		<tag k="name" v="Kvikshaughølen" />
		<tag k="place" v="locality" />
		<tag k="ssr:stedsnr" v="30744" />
	</node>
	<node id="-273975" lat="58.4060416682" lon="8.61955000204">
		<tag k="name" v="Rekevika" />
		<tag k="natural" v="bay" />
		<tag k="ssr:stedsnr" v="30369" />
	</node>
	<node id="-273973" lat="58.3915555563" lon="8.57266666616">
		<tag k="name" v="Bjelkebukt" />
		<tag k="natural" v="bay" />
		<tag k="ssr:stedsnr" v="30282" />
	</node>
	<node id="-273971" lat="58.3893888924" lon="8.57722221686">
		<tag k="name" v="Sveltumtjenn" />
		<tag k="natural" v="water" />
		<tag k="ssr:stedsnr" v="30276" />
	</node>
	<node id="-275833" lat="58.3760222208" lon="8.69847776929">
		<tag k="name" v="Vaodden" />
		<tag k="natural" v="cape" />
		<tag k="ssr:stedsnr" v="636744" />
	</node>
	<node id="-273956" lat="58.3425250023" lon="8.72920555819">
		<tag k="name" v="Sandoddryggene" />
		<tag k="place" v="locality" />
		<tag k="ssr:stedsnr" v="982" />
	</node>
	<node id="-273328" lat="58.4093305549" lon="8.45457777279">
		<tag k="name" v="Knabevassbekken" />
		<tag k="ssr:stedsnr" v="296814" />
		<tag k="waterway" v="stream" />
	</node>
	<node id="-273949" lat="58.2988444432" lon="8.47890555444">
		<tag k="fixme" v="multiple name tags, choose one and add the other to alt_name" />
		<tag k="name" v="Inntjore Kroktjenn;Kverntjern" />
		<tag k="natural" v="water" />
		<tag k="ssr:stedsnr" v="951" />
	</node>
	<node id="-273946" lat="58.400549996" lon="8.5947083364">
		<tag k="alt_name" v="Bjortjenn" />
		<tag k="name" v="Bjortjern" />
		<tag k="natural" v="water" />
		<tag k="ssr:stedsnr" v="539" />
	</node>
	<node id="-273943" lat="58.358949998" lon="8.47809167132">
		<tag k="name" v="Lyngholmen" />
		<tag k="place" v="islet" />
		<tag k="ssr:stedsnr" v="521" />
	</node>
	<node id="-273933" lat="58.4303083333" lon="8.46261111656">
		<tag k="name" v="Grunnevannet" />
		<tag k="natural" v="water" />
		<tag k="ssr:stedsnr" v="426" />
	</node>
	<node id="-273932" lat="58.4187583351" lon="8.43265832806">
		<tag k="name" v="Sandtjenn" />
		<tag k="natural" v="water" />
		<tag k="ssr:stedsnr" v="421" />
	</node>
	<node id="-273930" lat="58.4741888926" lon="8.47705276958">
		<tag k="name" v="Snøløsvann" />
		<tag k="natural" v="water" />
		<tag k="ssr:stedsnr" v="651" />
		<tag k="water" v="lake" />
	</node>
	<node id="-273921" lat="58.3287944482" lon="8.42011945284">
		<tag k="name" v="Lonene" />
		<tag k="natural" v="water" />
		<tag k="ssr:stedsnr" v="898760" />
		<tag k="water" v="lake" />
	</node>
	<node id="-273918" lat="58.3675166647" lon="8.50992777812">
		<tag k="name" v="Halmstad" />
		<tag k="natural" v="cape" />
		<tag k="ssr:stedsnr" v="898351" />
	</node>
	<node id="-273911" lat="58.3526416686" lon="8.47209722286">
		<tag k="name" v="Bærholmen" />
		<tag k="natural" v="cape" />
		<tag k="ssr:stedsnr" v="898243" />
	</node>
	<node id="-273909" lat="58.3195805596" lon="8.42741388148">
		<tag k="name" v="Madlausbekken" />
		<tag k="ssr:stedsnr" v="897606" />
		<tag k="waterway" v="stream" />
	</node>
	<node id="-273904" lat="58.3232000043" lon="8.4768055507">
		<tag k="name" v="Kjenningøya" />
		<tag k="place" v="island" />
		<tag k="ssr:stedsnr" v="897335" />
	</node>
	<node id="-273895" lat="58.4168166633" lon="8.40897500143">
		<tag k="name" v="Tyttebærholmen" />
		<tag k="place" v="islet" />
		<tag k="ssr:stedsnr" v="478693" />
	</node>
	<node id="-273891" lat="58.3991388895" lon="8.47243055167">
		<tag k="name" v="Barlindtjenn" />
		<tag k="natural" v="water" />
		<tag k="ssr:stedsnr" v="477888" />
	</node>
	<node id="-273888" lat="58.3968694424" lon="8.49598888314">
		<tag k="name" v="Tvitjenn" />
		<tag k="natural" v="water" />
		<tag k="ssr:stedsnr" v="477796" />
	</node>
	<node id="-273317" lat="58.4231916692" lon="8.45840277514">
		<tag k="name" v="Grastjenn" />
		<tag k="natural" v="water" />
		<tag k="ssr:stedsnr" v="296581" />
	</node>
	<node id="-273877" lat="58.4359305598" lon="8.43694444259">
		<tag k="name" v="Lonebulona" />
		<tag k="natural" v="water" />
		<tag k="ssr:stedsnr" v="477459" />
		<tag k="water" v="lake" />
	</node>
	<node id="-275924" lat="58.4687861103" lon="8.4889777751">
		<tag k="alt_name" v="Bærlivannet" />
		<tag k="name" v="Bærelivannet" />
		<tag k="natural" v="water" />
		<tag k="ssr:stedsnr" v="664642" />
	</node>
	<node id="-273875" lat="58.3682666699" lon="8.53822500502">
		<tag k="name" v="Plassetangen" />
		<tag k="natural" v="cape" />
		<tag k="ssr:stedsnr" v="477411" />
	</node>
	<node id="-275919" lat="58.4237638888" lon="8.50007777355">
		<tag k="name" v="Åsesto" />
		<tag k="natural" v="cape" />
		<tag k="ssr:stedsnr" v="659986" />
	</node>
	<node id="-275918" lat="58.3937138927" lon="8.31301944208">
		<tag k="name" v="Febutjenn" />
		<tag k="natural" v="water" />
		<tag k="ssr:stedsnr" v="659975" />
	</node>
	<node id="-275912" lat="58.3960222209" lon="8.50754722731">
		<tag k="name" v="Slorpe" />
		<tag k="natural" v="water" />
		<tag k="ssr:stedsnr" v="659761" />
	</node>
	<node id="-273863" lat="58.4721722187" lon="8.41193888239">
		<tag k="name" v="Trytetjønn" />
		<tag k="natural" v="water" />
		<tag k="ssr:stedsnr" v="477217" />
	</node>
	<node id="-275910" lat="58.4158444418" lon="8.419977777">
		<tag k="name" v="Yttertjenn" />
		<tag k="natural" v="water" />
		<tag k="ssr:stedsnr" v="659700" />
	</node>
	<node id="-275906" lat="58.4280194477" lon="8.3567444504">
		<tag k="name" v="Svartetjenn" />
		<tag k="natural" v="water" />
		<tag k="ssr:stedsnr" v="659370" />
	</node>
	<node id="-273857" lat="58.4654416667" lon="8.49575556245">
		<tag k="name" v="Myrtjønn" />
		<tag k="natural" v="water" />
		<tag k="ssr:stedsnr" v="477117" />
	</node>
	<node id="-275903" lat="58.4177861087" lon="8.43662778242">
		<tag k="name" v="Søyletjenn" />
		<tag k="natural" v="water" />
		<tag k="ssr:stedsnr" v="659298" />
	</node>
	<node id="-273852" lat="58.478238886" lon="8.47783055103">
		<tag k="name" v="Sjuershol" />
		<tag k="natural" v="bay" />
		<tag k="ssr:stedsnr" v="477063" />
	</node>
	<node id="-273848" lat="58.4513638901" lon="8.41197777461">
		<tag k="name" v="Sandene" />
		<tag k="natural" v="beach" />
		<tag k="ssr:stedsnr" v="477041" />
	</node>
	<node id="-275894" lat="58.3844444443" lon="8.34526111143">
		<tag k="name" v="Nordtjenn" />
		<tag k="natural" v="water" />
		<tag k="ssr:stedsnr" v="659162" />
	</node>
	<node id="-273842" lat="58.4181444408" lon="8.37359167085">
		<tag k="name" v="Midtstetjenn" />
		<tag k="natural" v="water" />
		<tag k="ssr:stedsnr" v="477264" />
		<tag k="water" v="lake" />
	</node>
	<node id="-273836" lat="58.3274444415" lon="8.46761666304">
		<tag k="name" v="Terkelsholmen" />
		<tag k="place" v="islet" />
		<tag k="ssr:stedsnr" v="473838" />
	</node>
	<node id="-273835" lat="58.3307527769" lon="8.45963611731">
		<tag k="name" v="Åna" />
		<tag k="ssr:stedsnr" v="473800" />
		<tag k="waterway" v="river" />
	</node>
	<node id="-275881" lat="58.4367111156" lon="8.40444999402">
		<tag k="name" v="Hålandsbekken" />
		<tag k="ssr:stedsnr" v="659057" />
		<tag k="waterway" v="stream" />
	</node>
	<node id="-275877" lat="58.4423999986" lon="8.42522221795">
		<tag k="name" v="Heibrotstjønn" />
		<tag k="natural" v="water" />
		<tag k="ssr:stedsnr" v="659043" />
	</node>
	<node id="-273828" lat="58.3540416661" lon="8.35976389418">
		<tag k="name" v="Beislandstjenn" />
		<tag k="natural" v="water" />
		<tag k="ssr:stedsnr" v="412973" />
	</node>
	<node id="-273826" lat="58.3291416654" lon="8.52037777003">
		<tag k="name" v="Røodd" />
		<tag k="natural" v="cape" />
		<tag k="ssr:stedsnr" v="412891" />
	</node>
	<node id="-273820" lat="58.3227555514" lon="8.52217777976">
		<tag k="name" v="Munken" />
		<tag k="natural" v="cape" />
		<tag k="ssr:stedsnr" v="412405" />
	</node>
	<node id="-275864" lat="58.3200944443" lon="8.50797222898">
		<tag k="name" v="Småholmane" />
		<tag k="natural" v="cape" />
		<tag k="ssr:stedsnr" v="655443" />
	</node>
	<node id="-275863" lat="58.3584805528" lon="8.53157500332">
		<tag k="name" v="Igletjenn" />
		<tag k="natural" v="water" />
		<tag k="ssr:stedsnr" v="655323" />
	</node>
	<node id="-275859" lat="58.3598138925" lon="8.48610556211">
		<tag k="name" v="Koglesund" />
		<tag k="natural" v="strait" />
		<tag k="ssr:stedsnr" v="655275" />
	</node>
	<node id="-275853" lat="58.2926249985" lon="8.45633610669">
		<tag k="name" v="Bånetjenn" />
		<tag k="natural" v="water" />
		<tag k="ssr:stedsnr" v="654409" />
	</node>
	<node id="-275851" lat="58.3209333311" lon="8.48259999966">
		<tag k="name" v="Tvieidtjenn" />
		<tag k="natural" v="water" />
		<tag k="ssr:stedsnr" v="654355" />
	</node>
	<node id="-275850" lat="58.3226138872" lon="8.45168333907">
		<tag k="name" v="Holmeodden" />
		<tag k="natural" v="cape" />
		<tag k="ssr:stedsnr" v="654353" />
	</node>
	<node id="-275849" lat="58.3033805584" lon="8.45383333655">
		<tag k="name" v="Fiskesåda" />
		<tag k="natural" v="cape" />
		<tag k="ssr:stedsnr" v="654328" />
	</node>
	<node id="-273793" lat="58.3417194407" lon="8.6377638901">
		<tag k="name" v="Saulebukta" />
		<tag k="natural" v="bay" />
		<tag k="ssr:stedsnr" v="237445" />
	</node>
	<node id="-273790" lat="58.388716663" lon="8.67566111146">
		<tag k="name" v="Kvernhusdalsbekken" />
		<tag k="ssr:stedsnr" v="394738" />
		<tag k="waterway" v="stream" />
	</node>
	<node id="-275835" lat="58.3786750035" lon="8.66018611385">
		<tag k="name" v="Huselandstjenn" />
		<tag k="natural" v="water" />
		<tag k="ssr:stedsnr" v="636759" />
	</node>
	<node id="-273785" lat="58.3768444419" lon="8.69648611131">
		<tag k="name" v="Lillesand" />
		<tag k="natural" v="beach" />
		<tag k="ssr:stedsnr" v="394718" />
	</node>
	<node id="-275832" lat="58.3759722184" lon="8.70107500151">
		<tag k="name" v="Dyviga" />
		<tag k="natural" v="bay" />
		<tag k="ssr:stedsnr" v="636745" />
	</node>
	<node id="-273776" lat="58.3613611116" lon="8.66311111203">
		<tag k="name" v="Grefstadbekken" />
		<tag k="ssr:stedsnr" v="394474" />
		<tag k="waterway" v="stream" />
	</node>
	<node id="-275821" lat="58.3645833313" lon="8.64941667411">
		<tag k="name" v="Grefstadbekken" />
		<tag k="ssr:stedsnr" v="636455" />
		<tag k="waterway" v="stream" />
	</node>
	<node id="-273759" lat="58.4055527782" lon="8.6105333399">
		<tag k="name" v="Tangen" />
		<tag k="natural" v="cape" />
		<tag k="ssr:stedsnr" v="394367" />
	</node>
	<node id="-275802" lat="58.3641944479" lon="8.57499999929">
		<tag k="name" v="Bukketjenn" />
		<tag k="natural" v="water" />
		<tag k="ssr:stedsnr" v="636311" />
	</node>
	<node id="-273749" lat="58.3293333292" lon="8.57441666478">
		<tag k="name" v="Støyterbekken" />
		<tag k="ssr:stedsnr" v="394299" />
		<tag k="waterway" v="stream" />
	</node>
	<node id="-273746" lat="58.3715277768" lon="8.57877778007">
		<tag k="name" v="Orrtjenn" />
		<tag k="natural" v="water" />
		<tag k="ssr:stedsnr" v="394291" />
	</node>
	<node id="-273744" lat="58.4019722217" lon="8.57686110931">
		<tag k="name" v="Gunnarsholmen" />
		<tag k="place" v="islet" />
		<tag k="ssr:stedsnr" v="394279" />
	</node>
	<node id="-273741" lat="58.4106388884" lon="8.6005555521">
		<tag k="name" v="Furunes" />
		<tag k="natural" v="cape" />
		<tag k="ssr:stedsnr" v="394255" />
	</node>
	<node id="-275782" lat="58.4366277817" lon="8.49891944016">
		<tag k="name" v="Tønnesølvannet" />
		<tag k="natural" v="water" />
		<tag k="ssr:stedsnr" v="607617" />
		<tag k="water" v="lake" />
	</node>
	<node id="-276704" lat="58.3825388899" lon="8.39753610832">
		<tag k="name" v="Ingridstjenn" />
		<tag k="natural" v="water" />
		<tag k="ssr:stedsnr" v="842221" />
	</node>
	<node id="-274994" lat="58.4051805532" lon="8.40621388484">
		<tag k="name" v="Vamyrkilen" />
		<tag k="natural" v="water" />
		<tag k="old_name" v="Vamrkilen" />
		<tag k="ssr:stedsnr" v="417912" />
	</node>
	<node id="-275751" lat="58.4079805561" lon="8.52590834162">
		<tag k="alt_name" v="Lomtjern" />
		<tag k="name" v="Lomtjenn" />
		<tag k="natural" v="water" />
		<tag k="ssr:stedsnr" v="606554" />
	</node>
	<node id="-275741" lat="58.3770722193" lon="8.51436944415">
		<tag k="name" v="Syndle" />
		<tag k="natural" v="water" />
		<tag k="ssr:stedsnr" v="606509" />
		<tag k="water" v="lake" />
	</node>
	<node id="-275736" lat="58.45563333" lon="8.44893889235">
		<tag k="name" v="Bjortjenn" />
		<tag k="natural" v="water" />
		<tag k="ssr:stedsnr" v="606475" />
	</node>
	<node id="-273682" lat="58.4221833294" lon="8.48841667428">
		<tag k="name" v="Ustadvann" />
		<tag k="natural" v="water" />
		<tag k="ssr:stedsnr" v="364610" />
		<tag k="water" v="lake" />
	</node>
	<node id="-273669" lat="58.4085833316" lon="8.40279443749">
		<tag k="name" v="Kilandsvannet" />
		<tag k="natural" v="water" />
		<tag k="ssr:stedsnr" v="364422" />
		<tag k="water" v="lake" />
	</node>
	<node id="-273668" lat="58.4336638863" lon="8.45008610506">
		<tag k="name" v="Flekevannet" />
		<tag k="natural" v="water" />
		<tag k="ssr:stedsnr" v="364413" />
		<tag k="water" v="lake" />
	</node>
	<node id="-276693" lat="58.3832277802" lon="8.36177499501">
		<tag k="name" v="Dolholttjenn" />
		<tag k="natural" v="water" />
		<tag k="ssr:stedsnr" v="842145" />
	</node>
	<node id="-275665" lat="58.4073833368" lon="8.53040555119">
		<tag k="name" v="Tvitjennene" />
		<tag k="natural" v="water" />
		<tag k="ssr:stedsnr" v="599814" />
	</node>
	<node id="-275658" lat="58.4219138882" lon="8.46086389215">
		<tag k="name" v="Tvitjennene" />
		<tag k="natural" v="water" />
		<tag k="ssr:stedsnr" v="599625" />
	</node>
	<node id="-275656" lat="58.4118444462" lon="8.45716666518">
		<tag k="name" v="Knabetjenn" />
		<tag k="natural" v="water" />
		<tag k="ssr:stedsnr" v="599588" />
	</node>
	<node id="-275655" lat="58.3821166698" lon="8.4077583365">
		<tag k="name" v="Gusdalslonene" />
		<tag k="natural" v="water" />
		<tag k="ssr:stedsnr" v="599206" />
		<tag k="water" v="lake" />
	</node>
	<node id="-275650" lat="58.3777861088" lon="8.32843333785">
		<tag k="name" v="Ålekjerrvannet" />
		<tag k="natural" v="water" />
		<tag k="ssr:stedsnr" v="599140" />
		<tag k="water" v="lake" />
	</node>
	<node id="-275647" lat="58.3739861139" lon="8.43386665901">
		<tag k="name" v="Kringletjenn" />
		<tag k="natural" v="water" />
		<tag k="ssr:stedsnr" v="599035" />
	</node>
	<node id="-275646" lat="58.4047722215" lon="8.34886388271">
		<tag k="name" v="Lille Sandtjenn" />
		<tag k="natural" v="water" />
		<tag k="ssr:stedsnr" v="598992" />
	</node>
	<node id="-275643" lat="58.3888444484" lon="8.32595277832">
		<tag k="name" v="Bjelletjenn" />
		<tag k="natural" v="water" />
		<tag k="ssr:stedsnr" v="598947" />
	</node>
	<node id="-275636" lat="58.3690111078" lon="8.54549167383">
		<tag k="name" v="Mjølpund" />
		<tag k="place" v="islet" />
		<tag k="ssr:stedsnr" v="598390" />
	</node>
	<node id="-275634" lat="58.4437555582" lon="8.52019167316">
		<tag k="name" v="Ålesåt" />
		<tag k="natural" v="shoal" />
		<tag k="place" v="locality" />
		<tag k="ssr:stedsnr" v="598329" />
	</node>
	<node id="-275622" lat="58.3683638848" lon="8.49537221583">
		<tag k="name" v="Store Øykall" />
		<tag k="natural" v="cape" />
		<tag k="ssr:stedsnr" v="598107" />
	</node>
	<node id="-273573" lat="58.4083777753" lon="8.3704138945">
		<tag k="name" v="Store Kalvetjenn" />
		<tag k="natural" v="water" />
		<tag k="ssr:stedsnr" v="356955" />
	</node>
	<node id="-275613" lat="58.3253388932" lon="8.51686388283">
		<tag k="name" v="Ågreneset" />
		<tag k="natural" v="cape" />
		<tag k="ssr:stedsnr" v="594901" />
	</node>
	<node id="-275611" lat="58.3305222232" lon="8.37391667347">
		<tag k="name" v="Lindvannstemmen" />
		<tag k="place" v="locality" />
		<tag k="ssr:stedsnr" v="594844" />
	</node>
	<node id="-273552" lat="58.3715361128" lon="8.52800276981">
		<tag k="name" v="Iversnes" />
		<tag k="natural" v="cape" />
		<tag k="ssr:stedsnr" v="356401" />
	</node>
	<node id="-273551" lat="58.3833555588" lon="8.53199999306">
		<tag k="name" v="Bruholmen" />
		<tag k="place" v="islet" />
		<tag k="ssr:stedsnr" v="356388" />
	</node>
	<node id="-275596" lat="58.3527083348" lon="8.48097776933">
		<tag k="name" v="Ranneiskil" />
		<tag k="natural" v="bay" />
		<tag k="ssr:stedsnr" v="594259" />
	</node>
	<node id="-275595" lat="58.3309555517" lon="8.43087500296">
		<tag k="name" v="Øygardstjennene" />
		<tag k="natural" v="water" />
		<tag k="ssr:stedsnr" v="593728" />
	</node>
	<node id="-275592" lat="58.3097638865" lon="8.43821945162">
		<tag k="name" v="Lauvviga" />
		<tag k="natural" v="bay" />
		<tag k="ssr:stedsnr" v="593582" />
	</node>
	<node id="-273540" lat="58.464238886" lon="8.48399722647">
		<tag k="name" v="Lislevatn" />
		<tag k="natural" v="water" />
		<tag k="ssr:stedsnr" v="356132" />
		<tag k="water" v="lake" />
	</node>
	<node id="-275587" lat="58.2993444407" lon="8.49153055061">
		<tag k="name" v="Langtjenn" />
		<tag k="natural" v="water" />
		<tag k="ssr:stedsnr" v="593374" />
	</node>
	<node id="-275586" lat="58.2933611101" lon="8.47156388944">
		<tag k="name" v="Omre Kroktjenn" />
		<tag k="natural" v="water" />
		<tag k="ssr:stedsnr" v="593370" />
	</node>
	<node id="-273527" lat="58.350972225" lon="8.36292777515">
		<tag k="name" v="Ålekjærtjenn" />
		<tag k="natural" v="water" />
		<tag k="ssr:stedsnr" v="352976" />
	</node>
	<node id="-273523" lat="58.3654361147" lon="8.36658889021">
		<tag k="name" v="Snelletjenn" />
		<tag k="natural" v="water" />
		<tag k="ssr:stedsnr" v="351998" />
	</node>
	<node id="-273518" lat="58.3287638905" lon="8.49305000036">
		<tag k="name" v="Dalholtbekken" />
		<tag k="ssr:stedsnr" v="351860" />
		<tag k="waterway" v="stream" />
	</node>
	<node id="-273517" lat="58.3272861139" lon="8.48881388947">
		<tag k="name" v="Ingeborgsholmen" />
		<tag k="place" v="islet" />
		<tag k="ssr:stedsnr" v="351857" />
	</node>
	<node id="-275562" lat="58.3392777758" lon="8.581638885">
		<tag k="name" v="Vossbekken" />
		<tag k="ssr:stedsnr" v="576323" />
		<tag k="waterway" v="stream" />
	</node>
	<node id="-276327" lat="58.4078222215" lon="8.61718610876">
		<tag k="name" v="Kjellerfoss" />
		<tag k="natural" v="waterfall" />
		<tag k="ssr:stedsnr" v="758404" />
	</node>
	<node id="-275559" lat="58.4041111151" lon="8.58069443901">
		<tag k="name" v="Lindvika" />
		<tag k="natural" v="bay" />
		<tag k="ssr:stedsnr" v="576263" />
	</node>
	<node id="-275558" lat="58.4023611138" lon="8.59677776988">
		<tag k="name" v="Kvernbekken" />
		<tag k="ssr:stedsnr" v="576257" />
		<tag k="waterway" v="stream" />
	</node>
	<node id="-275557" lat="58.393083336" lon="8.57230555189">
		<tag k="name" v="Tauleneset" />
		<tag k="natural" v="cape" />
		<tag k="ssr:stedsnr" v="576245" />
	</node>
	<node id="-275556" lat="58.3906388914" lon="8.56744444308">
		<tag k="name" v="Finnskotneset" />
		<tag k="natural" v="cape" />
		<tag k="ssr:stedsnr" v="576244" />
	</node>
	<node id="-275554" lat="58.3859611154" lon="8.67094444837">
		<tag k="name" v="Skarsdalsbekken" />
		<tag k="ssr:stedsnr" v="575699" />
		<tag k="waterway" v="stream" />
	</node>
	<node id="-273505" lat="58.3666555582" lon="8.54108889417">
		<tag k="name" v="Oddeholmen" />
		<tag k="place" v="islet" />
		<tag k="ssr:stedsnr" v="351339" />
	</node>
	<node id="-275552" lat="58.379522226" lon="8.61221388361">
		<tag k="name" v="Tuetjenn" />
		<tag k="natural" v="water" />
		<tag k="ssr:stedsnr" v="575678" />
		<tag k="water" v="pond" />
	</node>
	<node id="-273503" lat="58.3123000029" lon="8.53513888336">
		<tag k="name" v="Strålesund" />
		<tag k="natural" v="strait" />
		<tag k="ssr:stedsnr" v="351307" />
	</node>
	<node id="-275549" lat="58.2755555576" lon="8.46422221845">
		<tag k="name" v="Bergtjønn" />
		<tag k="natural" v="water" />
		<tag k="ssr:stedsnr" v="575403" />
	</node>
	<node id="-273475" lat="58.2436111123" lon="8.5199999955">
		<tag k="name" v="Høye Vassfloss" />
		<tag k="place" v="islet" />
		<tag k="ssr:stedsnr" v="333416" />
	</node>
	<node id="-273473" lat="58.4081722261" lon="8.61804166873">
		<tag k="name" v="Smedholmen" />
		<tag k="place" v="islet" />
		<tag k="ssr:stedsnr" v="333397" />
	</node>
	<node id="-275515" lat="58.2954555575" lon="8.47518889207">
		<tag k="alt_name" v="Kroktjønn" />
		<tag k="fixme" v="multiple name tags, choose one and add the other to alt_name" />
		<tag k="name" v="Gullknapptjenn;Kroktjern" />
		<tag k="natural" v="water" />
		<tag k="ssr:stedsnr" v="546935" />
	</node>
	<node id="-275513" lat="58.4151722185" lon="8.49852778108">
		<tag k="name" v="Midtvann" />
		<tag k="natural" v="water" />
		<tag k="ssr:stedsnr" v="546545" />
	</node>
	<node id="-275511" lat="58.3825750042" lon="8.63565000107">
		<tag k="name" v="Temse" />
		<tag k="natural" v="water" />
		<tag k="ssr:stedsnr" v="546504" />
		<tag k="water" v="lake" />
	</node>
	<node id="-275510" lat="58.3794444432" lon="8.54649443894">
		<tag k="alt_name" v="Lilleneset" />
		<tag k="name" v="Lillenes" />
		<tag k="natural" v="cape" />
		<tag k="ssr:stedsnr" v="546501" />
	</node>
	<node id="-275502" lat="58.4366972201" lon="8.43293888559">
		<tag k="name" v="Fosstjenn" />
		<tag k="natural" v="water" />
		<tag k="ssr:stedsnr" v="546368" />
	</node>
	<node id="-275501" lat="58.3782333313" lon="8.34749166922">
		<tag k="name" v="Røynelandsvannet" />
		<tag k="natural" v="water" />
		<tag k="ssr:stedsnr" v="546312" />
	</node>
	<node id="-273442" lat="58.3674750015" lon="8.40392222279">
		<tag k="alt_name" v="Rossvann, øvre" />
		<tag k="fixme" v="multiple name tags, choose one and add the other to alt_name" />
		<tag k="name" v="Øvre Rossetjenn;Øvre Rossvann" />
		<tag k="natural" v="water" />
		<tag k="ssr:stedsnr" v="304355" />
	</node>
	<node id="-273405" lat="58.4016444476" lon="8.5407111118">
		<tag k="alt_name" v="Åbåltjern" />
		<tag k="name" v="Åbåltjenn" />
		<tag k="natural" v="water" />
		<tag k="ssr:stedsnr" v="303554" />
	</node>
	<node id="-273574" lat="58.393252775" lon="8.34762777703">
		<tag k="name" v="Langetjenn" />
		<tag k="natural" v="water" />
		<tag k="ssr:stedsnr" v="356971" />
	</node>
	<node id="-275402" lat="58.4141777816" lon="8.49713610469">
		<tag k="name" v="Teinlaget" />
		<tag k="natural" v="strait" />
		<tag k="ssr:stedsnr" v="538982" />
	</node>
	<node id="-275401" lat="58.4153499975" lon="8.55122499999">
		<tag k="name" v="Askedalsholmen" />
		<tag k="place" v="islet" />
		<tag k="ssr:stedsnr" v="538979" />
	</node>
	<node id="-275399" lat="58.4131833314" lon="8.54690277164">
		<tag k="name" v="Loppebekk" />
		<tag k="ssr:stedsnr" v="538976" />
		<tag k="waterway" v="stream" />
	</node>
	<node id="-275397" lat="58.4089083368" lon="8.3848500014">
		<tag k="name" v="Svartetjenn" />
		<tag k="natural" v="water" />
		<tag k="ssr:stedsnr" v="538954" />
	</node>
	<node id="-275391" lat="58.4124499983" lon="8.41937500798">
		<tag k="name" v="Tvitjennene" />
		<tag k="natural" v="water" />
		<tag k="ssr:stedsnr" v="538694" />
	</node>
	<node id="-275386" lat="58.368780559" lon="8.54385000647">
		<tag k="name" v="Saltpund" />
		<tag k="place" v="islet" />
		<tag k="ssr:stedsnr" v="538432" />
	</node>
	<node id="-275385" lat="58.4331249962" lon="8.52186389419">
		<tag k="name" v="Haugebohølen" />
		<tag k="place" v="locality" />
		<tag k="ssr:stedsnr" v="538399" />
	</node>
	<node id="-275381" lat="58.4313722247" lon="8.43003889066">
		<tag k="name" v="Lonebulona" />
		<tag k="natural" v="water" />
		<tag k="ssr:stedsnr" v="538304" />
		<tag k="water" v="lake" />
	</node>
	<node id="-275379" lat="58.3858861147" lon="8.40622222451">
		<tag k="name" v="Lundetjenn" />
		<tag k="natural" v="water" />
		<tag k="ssr:stedsnr" v="538241" />
	</node>
	<node id="-275376" lat="58.4675361088" lon="8.48165833284">
		<tag k="name" v="Lisletjønn" />
		<tag k="natural" v="water" />
		<tag k="ssr:stedsnr" v="538223" />
	</node>
	<node id="-273324" lat="58.3954555523" lon="8.54369444523">
		<tag k="name" v="Stemvannet" />
		<tag k="natural" v="water" />
		<tag k="ssr:stedsnr" v="296801" />
		<tag k="water" v="lake" />
	</node>
	<node id="-275368" lat="58.4698638923" lon="8.50198888233">
		<tag k="name" v="Trytetjønn" />
		<tag k="natural" v="water" />
		<tag k="ssr:stedsnr" v="538120" />
	</node>
	<node id="-273318" lat="58.4224916622" lon="8.38789444663">
		<tag k="name" v="Svartetjenn" />
		<tag k="natural" v="water" />
		<tag k="ssr:stedsnr" v="296669" />
	</node>
	<node id="-275365" lat="58.3600500044" lon="8.37491388348">
		<tag k="name" v="Fisketjenn" />
		<tag k="natural" v="water" />
		<tag k="ssr:stedsnr" v="534985" />
	</node>
	<node id="-275362" lat="58.3344249964" lon="8.49762500692">
		<tag k="name" v="Dolholtbekken" />
		<tag k="ssr:stedsnr" v="534913" />
		<tag k="waterway" v="stream" />
	</node>
	<node id="-275359" lat="58.3130249985" lon="8.53502222361">
		<tag k="name" v="Reddalskanalen" />
		<tag k="natural" v="strait" />
		<tag k="ssr:stedsnr" v="534869" />
	</node>
	<node id="-273310" lat="58.382299998" lon="8.34326389623">
		<tag k="name" v="Sørtjenn" />
		<tag k="natural" v="water" />
		<tag k="ssr:stedsnr" v="296119" />
	</node>
	<node id="-275356" lat="58.3360194443" lon="8.46556944589">
		<tag k="name" v="Jåvoldbekken" />
		<tag k="ssr:stedsnr" v="534813" />
		<tag k="waterway" v="stream" />
	</node>
	<node id="-273306" lat="58.4134694487" lon="8.38917777773">
		<tag k="name" v="Metveitkilen" />
		<tag k="natural" v="bay" />
		<tag k="ssr:stedsnr" v="295702" />
	</node>
	<node id="-275350" lat="58.3595527743" lon="8.49956388224">
		<tag k="name" v="Oksefoten" />
		<tag k="place" v="islet" />
		<tag k="ssr:stedsnr" v="534353" />
	</node>
	<node id="-273299" lat="58.4475138855" lon="8.51551388047">
		<tag k="name" v="Sandøyren" />
		<tag k="natural" v="cape" />
		<tag k="ssr:stedsnr" v="295342" />
	</node>
	<node id="-275345" lat="58.3226972207" lon="8.42637777473">
		<tag k="name" v="Talebu" />
		<tag k="natural" v="bay" />
		<tag k="ssr:stedsnr" v="533663" />
	</node>
	<node id="-274924" lat="58.4493472243" lon="8.48239721766">
		<tag k="name" v="Kvernvannet" />
		<tag k="natural" v="water" />
		<tag k="ssr:stedsnr" v="243611" />
		<tag k="water" v="lake" />
	</node>
	<node id="-275331" lat="58.3145055529" lon="8.45323889264">
		<tag k="name" v="Sandvika" />
		<tag k="natural" v="bay" />
		<tag k="ssr:stedsnr" v="533334" />
	</node>
	<node id="-273282" lat="58.3646250042" lon="8.35668056004">
		<tag k="name" v="Rokketjenn" />
		<tag k="natural" v="water" />
		<tag k="ssr:stedsnr" v="291990" />
	</node>
	<node id="-273270" lat="58.3252500005" lon="8.44100554936">
		<tag k="name" v="Kvennebekken" />
		<tag k="ssr:stedsnr" v="291829" />
		<tag k="waterway" v="stream" />
	</node>
	<node id="-275304" lat="58.3705833303" lon="8.5993611127">
		<tag k="name" v="Holletjenn" />
		<tag k="natural" v="water" />
		<tag k="ssr:stedsnr" v="515308" />
	</node>
	<node id="-275303" lat="58.3564444405" lon="8.56841665828">
		<tag k="name" v="Sannerbekken" />
		<tag k="ssr:stedsnr" v="515303" />
		<tag k="waterway" v="stream" />
	</node>
	<node id="-275300" lat="58.3654999985" lon="8.58669443621">
		<tag k="name" v="Skytebanetjenn" />
		<tag k="natural" v="water" />
		<tag k="ssr:stedsnr" v="515288" />
	</node>
	<node id="-273249" lat="58.3535305543" lon="8.49565278075">
		<tag k="name" v="Holbekktjenn" />
		<tag k="natural" v="bay" />
		<tag k="ssr:stedsnr" v="290316" />
	</node>
	<node id="-273248" lat="58.3224333301" lon="8.52185277676">
		<tag k="name" v="Ågresundet" />
		<tag k="natural" v="strait" />
		<tag k="ssr:stedsnr" v="291466" />
	</node>
	<node id="-273247" lat="58.3180027767" lon="8.50794721998">
		<tag k="name" v="Borvika" />
		<tag k="natural" v="bay" />
		<tag k="ssr:stedsnr" v="291463" />
	</node>
	<node id="-274913" lat="58.3855750009" lon="8.32527777374">
		<tag k="name" v="Steinsvannet" />
		<tag k="natural" v="water" />
		<tag k="ssr:stedsnr" v="243320" />
		<tag k="water" v="lake" />
	</node>
	<node id="-273214" lat="58.4006555565" lon="8.60829722417">
		<tag k="name" v="Patjenn" />
		<tag k="natural" v="water" />
		<tag k="ssr:stedsnr" v="272367" />
	</node>
	<node id="-275246" lat="58.410566664" lon="8.51885277006">
		<tag k="alt_name" v="Andtjern" />
		<tag k="name" v="Andetjenn" />
		<tag k="natural" v="water" />
		<tag k="ssr:stedsnr" v="485509" />
	</node>
	<node id="-275588" lat="58.2954388867" lon="8.47987222897">
		<tag k="name" v="Bånetjenn" />
		<tag k="natural" v="water" />
		<tag k="ssr:stedsnr" v="593376" />
	</node>
	<node id="-275222" lat="58.4268361075" lon="8.39801110748">
		<tag k="name" v="Kjerringtjenn" />
		<tag k="natural" v="water" />
		<tag k="ssr:stedsnr" v="485329" />
	</node>
	<node id="-275213" lat="58.3804472267" lon="8.45718889602">
		<tag k="name" v="Bjørkoselva" />
		<tag k="ssr:stedsnr" v="485274" />
		<tag k="waterway" v="river" />
	</node>
	<node id="-275211" lat="58.3883194463" lon="8.36066110961">
		<tag k="name" v="Holmevannet" />
		<tag k="natural" v="water" />
		<tag k="ssr:stedsnr" v="485263" />
	</node>
	<node id="-276609" lat="58.3566666658" lon="8.56258333217">
		<tag k="name" v="Rosholttjenn" />
		<tag k="natural" v="water" />
		<tag k="old_name" v="Rosholtjenn" />
		<tag k="ssr:stedsnr" v="819314" />
	</node>
	<node id="-277235" lat="58.319041663" lon="8.59907778584">
		<tag k="name" v="Lyngholmen" />
		<tag k="place" v="islet" />
		<tag k="ssr:stedsnr" v="965608" />
	</node>
	<node id="-277230" lat="58.3879611123" lon="8.33275833012">
		<tag k="name" v="Steinsvann" />
		<tag k="natural" v="water" />
		<tag k="ssr:stedsnr" v="963977" />
		<tag k="water" v="lake" />
	</node>
	<node id="-277225" lat="58.3965638894" lon="8.50385555512">
		<tag k="name" v="Urdalstjenn" />
		<tag k="natural" v="water" />
		<tag k="ssr:stedsnr" v="963777" />
	</node>
	<node id="-277224" lat="58.3916111069" lon="8.50281389341">
		<tag k="name" v="Støletjenn" />
		<tag k="natural" v="water" />
		<tag k="ssr:stedsnr" v="963775" />
	</node>
	<node id="-277223" lat="58.4174916626" lon="8.3912666635">
		<tag k="name" v="Volletjenn" />
		<tag k="natural" v="water" />
		<tag k="ssr:stedsnr" v="963717" />
	</node>
	<node id="-277215" lat="58.4364277782" lon="8.49118056185">
		<tag k="name" v="Litjønn" />
		<tag k="natural" v="water" />
		<tag k="ssr:stedsnr" v="963499" />
	</node>
	<node id="-277212" lat="58.3788416662" lon="8.53970555857">
		<tag k="name" v="Liekilen" />
		<tag k="natural" v="water" />
		<tag k="ssr:stedsnr" v="963422" />
	</node>
	<node id="-277208" lat="58.4253361092" lon="8.37721666153">
		<tag k="name" v="Lille Rosevatn" />
		<tag k="natural" v="water" />
		<tag k="ssr:stedsnr" v="963279" />
	</node>
	<node id="-277207" lat="58.4544527744" lon="8.4343138839">
		<tag k="name" v="Søyletjønn" />
		<tag k="natural" v="water" />
		<tag k="ssr:stedsnr" v="963262" />
	</node>
	<node id="-277206" lat="58.4702194473" lon="8.48231666197">
		<tag k="name" v="Ommundstjønn" />
		<tag k="natural" v="water" />
		<tag k="ssr:stedsnr" v="963243" />
	</node>
	<node id="-277204" lat="58.3775444424" lon="8.36022500763">
		<tag k="name" v="Stemtjenn" />
		<tag k="natural" v="water" />
		<tag k="ssr:stedsnr" v="963201" />
	</node>
	<node id="-273870" lat="58.4392638902" lon="8.51305278512">
		<tag k="name" v="Saulebukta" />
		<tag k="natural" v="bay" />
		<tag k="ssr:stedsnr" v="477361" />
	</node>
	<node id="-275153" lat="58.37530833" lon="8.64293332777">
		<tag k="name" v="Kleppebekken" />
		<tag k="ssr:stedsnr" v="455693" />
		<tag k="waterway" v="stream" />
	</node>
	<node id="-277195" lat="58.437958331" lon="8.41265277388">
		<tag k="name" v="Kringletjønn" />
		<tag k="natural" v="water" />
		<tag k="ssr:stedsnr" v="963043" />
	</node>
	<node id="-277191" lat="58.3662444443" lon="8.37581667232">
		<tag k="name" v="Osevatnet" />
		<tag k="natural" v="water" />
		<tag k="ssr:stedsnr" v="959998" />
		<tag k="water" v="lake" />
	</node>
	<node id="-277190" lat="58.3521555515" lon="8.33184166195">
		<tag k="name" v="Byttingsholmen" />
		<tag k="place" v="islet" />
		<tag k="ssr:stedsnr" v="959971" />
	</node>
	<node id="-277185" lat="58.2860555512" lon="8.50153332912">
		<tag k="name" v="Vågsholttjenna" />
		<tag k="natural" v="water" />
		<tag k="ssr:stedsnr" v="959449" />
	</node>
	<node id="-275133" lat="58.390677781" lon="8.60886666515">
		<tag k="name" v="Tvitjennene" />
		<tag k="natural" v="water" />
		<tag k="ssr:stedsnr" v="455347" />
	</node>
	<node id="-275132" lat="58.4092449765" lon="8.60550291523">
		<tag k="name" v="Storestrøm" />
		<tag k="natural" v="strait" />
		<tag k="ssr:stedsnr" v="455346" />
	</node>
	<node id="-277178" lat="58.3556638908" lon="8.49109721616">
		<tag k="name" v="Nordstrand" />
		<tag k="natural" v="beach" />
		<tag k="ssr:stedsnr" v="959223" />
	</node>
	<node id="-275126" lat="58.3883888876" lon="8.59877777033">
		<tag k="name" v="Skrubbedalstjenn" />
		<tag k="natural" v="water" />
		<tag k="ssr:stedsnr" v="455283" />
	</node>
	<node id="-275571" lat="58.3962944485" lon="8.61697221856">
		<tag k="name" v="Stemtjenn" />
		<tag k="natural" v="water" />
		<tag k="ssr:stedsnr" v="576386" />
	</node>
	<node id="-277160" lat="58.3544472203" lon="8.51517777197">
		<tag k="name" v="Store Luetjenn" />
		<tag k="natural" v="water" />
		<tag k="ssr:stedsnr" v="957308" />
	</node>
	<node id="-277156" lat="58.3443666632" lon="8.38598332842">
		<tag k="name" v="Jordåstjenn" />
		<tag k="natural" v="water" />
		<tag k="ssr:stedsnr" v="945850" />
	</node>
	<node id="-275091" lat="58.4200027805" lon="8.51796388529">
		<tag k="alt_name" v="Igletjern" />
		<tag k="name" v="Igletjenn" />
		<tag k="natural" v="water" />
		<tag k="ssr:stedsnr" v="425568" />
	</node>
	<node id="-275084" lat="58.4244777809" lon="8.34836110336">
		<tag k="name" v="Lomstjenn" />
		<tag k="natural" v="water" />
		<tag k="ssr:stedsnr" v="425394" />
	</node>
	<node id="-275081" lat="58.36783333" lon="8.44031667315">
		<tag k="alt_name" v="Savalstjenn" />
		<tag k="name" v="Såvaldstjenn" />
		<tag k="natural" v="water" />
		<tag k="ssr:stedsnr" v="425351" />
	</node>
	<node id="-275078" lat="58.3248333343" lon="8.42724999883">
		<tag k="alt_name" v="Stemvann" />
		<tag k="name" v="Stemvannet" />
		<tag k="natural" v="water" />
		<tag k="ssr:stedsnr" v="425287" />
	</node>
	<node id="-277123" lat="58.4027777765" lon="8.58594443858">
		<tag k="name" v="Sesstjenn" />
		<tag k="natural" v="water" />
		<tag k="ssr:stedsnr" v="940289" />
	</node>
	<node id="-277119" lat="58.4153611082" lon="8.55136110787">
		<tag k="name" v="Askedalsholmen" />
		<tag k="place" v="islet" />
		<tag k="ssr:stedsnr" v="940265" />
	</node>
	<node id="-273855" lat="58.4339749981" lon="8.38120277123">
		<tag k="name" v="Barlindtjønn" />
		<tag k="natural" v="water" />
		<tag k="ssr:stedsnr" v="477102" />
	</node>
	<node id="-277105" lat="58.4673999998" lon="8.46843055922">
		<tag k="name" v="Hunsdalsvann" />
		<tag k="natural" v="water" />
		<tag k="ssr:stedsnr" v="911657" />
		<tag k="water" v="lake" />
	</node>
	<node id="-277104" lat="58.4462138859" lon="8.45221667465">
		<tag k="name" v="Bjørnetjenn" />
		<tag k="natural" v="water" />
		<tag k="ssr:stedsnr" v="911404" />
	</node>
	<node id="-277103" lat="58.3634250016" lon="8.42257777031">
		<tag k="name" v="Myranstjenn" />
		<tag k="natural" v="water" />
		<tag k="ssr:stedsnr" v="911367" />
	</node>
	<node id="-277072" lat="58.4778111126" lon="8.49736944334">
		<tag k="name" v="Hemningtveitvann" />
		<tag k="natural" v="water" />
		<tag k="old_name" v="Hemningtveitvatn;Hemningstveitvatn" />
		<tag k="ssr:stedsnr" v="910667" />
		<tag k="water" v="lake" />
	</node>
	<node id="-273846" lat="58.4383638907" lon="8.43557778624">
		<tag k="name" v="Storsteintjønn" />
		<tag k="natural" v="water" />
		<tag k="ssr:stedsnr" v="477034" />
	</node>
	<node id="-277042" lat="58.4737472244" lon="8.45543610835">
		<tag k="name" v="Snøløsvannet" />
		<tag k="natural" v="water" />
		<tag k="ssr:stedsnr" v="910463" />
		<tag k="water" v="lake" />
	</node>
	<node id="-274993" lat="58.402572218" lon="8.42649721857">
		<tag k="name" v="Strandtjenn" />
		<tag k="natural" v="water" />
		<tag k="ssr:stedsnr" v="417908" />
	</node>
	<node id="-277039" lat="58.4120750012" lon="8.33672500098">
		<tag k="name" v="Moltetjenn" />
		<tag k="natural" v="water" />
		<tag k="ssr:stedsnr" v="910408" />
	</node>
	<node id="-273501" lat="58.3169916681" lon="8.53678055683">
		<tag k="name" v="Dannevika" />
		<tag k="natural" v="bay" />
		<tag k="ssr:stedsnr" v="351294" />
	</node>
	<node id="-274984" lat="58.4160555541" lon="8.38793056274">
		<tag k="name" v="Juten" />
		<tag k="natural" v="cape" />
		<tag k="ssr:stedsnr" v="417734" />
	</node>
	<node id="-274982" lat="58.4191499995" lon="8.44357778569">
		<tag k="name" v="Øvre Knabevann" />
		<tag k="natural" v="water" />
		<tag k="ssr:stedsnr" v="417635" />
		<tag k="water" v="lake" />
	</node>
	<node id="-274976" lat="58.3730166707" lon="8.51268055382">
		<tag k="name" v="Jettebrona" />
		<tag k="natural" v="cape" />
		<tag k="ssr:stedsnr" v="417431" />
	</node>
	<node id="-274973" lat="58.3885166709" lon="8.51853054722">
		<tag k="name" v="Gangdalstjenn" />
		<tag k="natural" v="water" />
		<tag k="ssr:stedsnr" v="417413" />
	</node>
	<node id="-274970" lat="58.4328055539" lon="8.49728055638">
		<tag k="name" v="Galten" />
		<tag k="place" v="islet" />
		<tag k="ssr:stedsnr" v="417396" />
	</node>
	<node id="-274968" lat="58.4436027759" lon="8.51918055354">
		<tag k="name" v="Jomfruland" />
		<tag k="place" v="islet" />
		<tag k="ssr:stedsnr" v="417380" />
	</node>
	<node id="-274966" lat="58.4450166665" lon="8.5170111187">
		<tag k="name" v="Sandnes" />
		<tag k="natural" v="cape" />
		<tag k="ssr:stedsnr" v="417366" />
	</node>
	<node id="-274962" lat="58.4298722229" lon="8.37567500214">
		<tag k="name" v="Storøya" />
		<tag k="place" v="island" />
		<tag k="ssr:stedsnr" v="417269" />
	</node>
	<node id="-274520" lat="58.3665333361" lon="8.39300556376">
		<tag k="name" v="Iletjenn" />
		<tag k="natural" v="water" />
		<tag k="ssr:stedsnr" v="170511" />
	</node>
	<node id="-274957" lat="58.4713916678" lon="8.40883610901">
		<tag k="name" v="Auretjønn" />
		<tag k="natural" v="water" />
		<tag k="ssr:stedsnr" v="417214" />
	</node>
	<node id="-274955" lat="58.4750111091" lon="8.50781388255">
		<tag k="name" v="Rindetjønn" />
		<tag k="natural" v="water" />
		<tag k="ssr:stedsnr" v="417206" />
	</node>
	<node id="-274952" lat="58.371258329" lon="8.35339444633">
		<tag k="name" v="Fisketjenn" />
		<tag k="natural" v="water" />
		<tag k="ssr:stedsnr" v="417177" />
	</node>
	<node id="-274946" lat="58.4758055536" lon="8.49215277021">
		<tag k="name" v="Kvennåna" />
		<tag k="ssr:stedsnr" v="417064" />
		<tag k="waterway" v="river" />
	</node>
	<node id="-276976" lat="58.4052611132" lon="8.36755833545">
		<tag k="name" v="Lille Kalvetjenn" />
		<tag k="natural" v="water" />
		<tag k="ssr:stedsnr" v="903939" />
	</node>
	<node id="-276972" lat="58.4123694454" lon="8.4461833263">
		<tag k="name" v="Nedre Knabevann" />
		<tag k="natural" v="water" />
		<tag k="ssr:stedsnr" v="903566" />
		<tag k="water" v="lake" />
	</node>
	<node id="-274919" lat="58.3813638897" lon="8.59703333231">
		<tag k="alt_name" v="Steintjenn" />
		<tag k="name" v="Steinstjern" />
		<tag k="natural" v="water" />
		<tag k="ssr:stedsnr" v="243551" />
	</node>
	<node id="-276966" lat="58.3757694446" lon="8.37347222062">
		<tag k="name" v="Søyletjenn" />
		<tag k="natural" v="water" />
		<tag k="ssr:stedsnr" v="903160" />
	</node>
	<node id="-276561" lat="58.4032722185" lon="8.45234166717">
		<tag k="name" v="Ormetjenn" />
		<tag k="natural" v="water" />
		<tag k="ssr:stedsnr" v="789331" />
	</node>
	<node id="-276963" lat="58.3999361093" lon="8.36679166397">
		<tag k="name" v="Blektjenn" />
		<tag k="natural" v="water" />
		<tag k="ssr:stedsnr" v="902959" />
	</node>
	<node id="-274914" lat="58.366755554" lon="8.39312499233">
		<tag k="name" v="Iletjønn" />
		<tag k="natural" v="water" />
		<tag k="ssr:stedsnr" v="243353" />
	</node>
	<node id="-276961" lat="58.3961194428" lon="8.42276388972">
		<tag k="name" v="Hølen" />
		<tag k="natural" v="water" />
		<tag k="ssr:stedsnr" v="902876" />
	</node>
	<node id="-274912" lat="58.393061113" lon="8.43590832537">
		<tag k="name" v="Holetjenn" />
		<tag k="natural" v="water" />
		<tag k="ssr:stedsnr" v="243314" />
	</node>
	<node id="-274910" lat="58.3342638857" lon="8.37545834014">
		<tag k="name" v="Lindvannet" />
		<tag k="natural" v="water" />
		<tag k="ssr:stedsnr" v="243247" />
		<tag k="water" v="lake" />
	</node>
	<node id="-276947" lat="58.4301361076" lon="8.51962778523">
		<tag k="name" v="Bjorhuslitjenn" />
		<tag k="natural" v="water" />
		<tag k="ssr:stedsnr" v="902550" />
	</node>
	<node id="-276946" lat="58.4328527752" lon="8.4567972239">
		<tag k="name" v="Grastjenn" />
		<tag k="natural" v="water" />
		<tag k="ssr:stedsnr" v="902533" />
	</node>
	<node id="-276942" lat="58.3735416701" lon="8.54072777025">
		<tag k="name" v="Sandvika" />
		<tag k="natural" v="bay" />
		<tag k="ssr:stedsnr" v="902413" />
	</node>
	<node id="-276939" lat="58.4142916653" lon="8.36021388899">
		<tag k="name" v="Kingredalstjønn" />
		<tag k="natural" v="water" />
		<tag k="ssr:stedsnr" v="902291" />
	</node>
	<node id="-276927" lat="58.4872472186" lon="8.49781111538">
		<tag k="name" v="Nordbekk" />
		<tag k="ssr:stedsnr" v="902053" />
		<tag k="waterway" v="stream" />
	</node>
	<node id="-276924" lat="58.4428916671" lon="8.43356389246">
		<tag k="name" v="Dabelstjønn" />
		<tag k="natural" v="water" />
		<tag k="ssr:stedsnr" v="902035" />
	</node>
	<node id="-276923" lat="58.4406888847" lon="8.43811389668">
		<tag k="name" v="Spangreitjønn" />
		<tag k="natural" v="water" />
		<tag k="ssr:stedsnr" v="902031" />
	</node>
	<node id="-276922" lat="58.3816388925" lon="8.71308333262">
		<tag k="name" v="Kvennebekken" />
		<tag k="ssr:stedsnr" v="880451" />
		<tag k="waterway" v="stream" />
	</node>
	<node id="-276919" lat="58.377261109" lon="8.70920555165">
		<tag k="name" v="Kudabben" />
		<tag k="natural" v="water" />
		<tag k="ssr:stedsnr" v="879714" />
		<tag k="water" v="pond" />
	</node>
	<node id="-276914" lat="58.3827249968" lon="8.61840555236">
		<tag k="name" v="Mørkvegbekken" />
		<tag k="ssr:stedsnr" v="879678" />
		<tag k="waterway" v="stream" />
	</node>
	<node id="-276901" lat="58.4068527795" lon="8.62261944714">
		<tag k="name" v="Neset" />
		<tag k="natural" v="cape" />
		<tag k="ssr:stedsnr" v="879375" />
	</node>
	<node id="-276894" lat="58.3287222248" lon="8.57733333416">
		<tag k="name" v="Groosedammen" />
		<tag k="natural" v="water" />
		<tag k="old_name" v="Goosedammen" />
		<tag k="ssr:stedsnr" v="879310" />
		<tag k="water" v="pond" />
	</node>
	<node id="-276892" lat="58.3745277736" lon="8.60336110727">
		<tag k="name" v="Holltretjennene" />
		<tag k="natural" v="water" />
		<tag k="ssr:stedsnr" v="879300" />
	</node>
	<node id="-273816" lat="58.3090055521" lon="8.52843889493">
		<tag k="name" v="Skarbekk" />
		<tag k="ssr:stedsnr" v="412253" />
		<tag k="waterway" v="stream" />
	</node>
	<node id="-276865" lat="58.4040694404" lon="8.55049166074">
		<tag k="name" v="Salvestjern" />
		<tag k="natural" v="water" />
		<tag k="ssr:stedsnr" v="850566" />
	</node>
	<node id="-276864" lat="58.409677775" lon="8.49809722666">
		<tag k="name" v="Stemvannet" />
		<tag k="natural" v="water" />
		<tag k="ssr:stedsnr" v="850556" />
		<tag k="water" v="lake" />
	</node>
	<node id="-274811" lat="58.4089833351" lon="8.32708055922">
		<tag k="name" v="Rørtjenn" />
		<tag k="natural" v="water" />
		<tag k="ssr:stedsnr" v="235981" />
	</node>
	<node id="-274810" lat="58.3960999956" lon="8.35092500094">
		<tag k="name" v="Tvillingtjennene" />
		<tag k="natural" v="water" />
		<tag k="ssr:stedsnr" v="235975" />
	</node>
	<node id="-276857" lat="58.4298027779" lon="8.45136389621">
		<tag k="name" v="Midtvannet" />
		<tag k="natural" v="water" />
		<tag k="ssr:stedsnr" v="850440" />
		<tag k="water" v="lake" />
	</node>
	<node id="-274806" lat="58.3941222213" lon="8.43170555383">
		<tag k="name" v="Kleivtjenn" />
		<tag k="natural" v="water" />
		<tag k="ssr:stedsnr" v="235871" />
	</node>
	<node id="-276853" lat="58.4468777789" lon="8.43118055129">
		<tag k="name" v="Kvernevannet" />
		<tag k="natural" v="water" />
		<tag k="ssr:stedsnr" v="850397" />
	</node>
	<node id="-274794" lat="58.3682416673" lon="8.50234443708">
		<tag k="name" v="Lille Øykall" />
		<tag k="natural" v="cape" />
		<tag k="ssr:stedsnr" v="235417" />
	</node>
	<node id="-274793" lat="58.3721722244" lon="8.54663332826">
		<tag k="name" v="Storenesodden" />
		<tag k="natural" v="cape" />
		<tag k="ssr:stedsnr" v="235399" />
	</node>
	<node id="-274782" lat="58.3681472203" lon="8.36781943884">
		<tag k="name" v="Nesa" />
		<tag k="natural" v="cape" />
		<tag k="ssr:stedsnr" v="235223" />
	</node>
	<node id="-274779" lat="58.4705916708" lon="8.48989166264">
		<tag k="name" v="Bærelineset" />
		<tag k="natural" v="cape" />
		<tag k="ssr:stedsnr" v="235171" />
	</node>
	<node id="-274777" lat="58.4651527749" lon="8.47385556249">
		<tag k="name" v="Blomreismyrodden" />
		<tag k="natural" v="cape" />
		<tag k="ssr:stedsnr" v="235143" />
	</node>
	<node id="-274771" lat="58.3863944447" lon="8.50101667369">
		<tag k="name" v="Smalsund" />
		<tag k="natural" v="strait" />
		<tag k="ssr:stedsnr" v="235106" />
	</node>
	<node id="-274768" lat="58.4862361143" lon="8.49552777324">
		<tag k="name" v="Svartekil" />
		<tag k="natural" v="bay" />
		<tag k="ssr:stedsnr" v="235066" />
	</node>
	<node id="-274766" lat="58.4301027796" lon="8.52490000759">
		<tag k="name" v="Monevatn" />
		<tag k="natural" v="water" />
		<tag k="ssr:stedsnr" v="235557" />
	</node>
	<node id="-274761" lat="58.328258337" lon="8.50661667298">
		<tag k="name" v="Havsøya" />
		<tag k="place" v="island" />
		<tag k="ssr:stedsnr" v="230919" />
	</node>
	<node id="-274760" lat="58.3315972235" lon="8.37490555065">
		<tag k="name" v="Osuldlon" />
		<tag k="natural" v="water" />
		<tag k="ssr:stedsnr" v="230841" />
		<tag k="water" v="lake" />
	</node>
	<node id="-274757" lat="58.3261250031" lon="8.47843333931">
		<tag k="name" v="Hesthommer" />
		<tag k="natural" v="cape" />
		<tag k="ssr:stedsnr" v="230808" />
	</node>
	<node id="-274756" lat="58.3286138888" lon="8.46253334085">
		<tag k="name" v="Alsøya" />
		<tag k="natural" v="cape" />
		<tag k="ssr:stedsnr" v="230803" />
	</node>
	<node id="-274752" lat="58.3363388857" lon="8.39468889364">
		<tag k="name" v="Lille Linddalstjenn" />
		<tag k="natural" v="water" />
		<tag k="ssr:stedsnr" v="230724" />
	</node>
	<node id="-276796" lat="58.429311107" lon="8.37415277199">
		<tag k="name" v="Rosevannet" />
		<tag k="natural" v="water" />
		<tag k="ssr:stedsnr" v="849417" />
		<tag k="water" v="lake" />
	</node>
	<node id="-276793" lat="58.3543750001" lon="8.39870832623">
		<tag k="name" v="Langetjenn" />
		<tag k="natural" v="water" />
		<tag k="ssr:stedsnr" v="849378" />
	</node>
	<node id="-274738" lat="58.3223000001" lon="8.44850832645">
		<tag k="name" v="Sagelebukta" />
		<tag k="natural" v="bay" />
		<tag k="ssr:stedsnr" v="230247" />
	</node>
	<node id="-274723" lat="58.3767861093" lon="8.70904721751">
		<tag k="name" v="Iversdabben" />
		<tag k="natural" v="water" />
		<tag k="ssr:stedsnr" v="212738" />
		<tag k="water" v="pond" />
	</node>
	<node id="-274720" lat="58.3782472212" lon="8.62750277819">
		<tag k="name" v="Bringsværbekken" />
		<tag k="ssr:stedsnr" v="212728" />
		<tag k="waterway" v="stream" />
	</node>
	<node id="-274704" lat="58.4066638926" lon="8.62797221859">
		<tag k="name" v="Lundeøya" />
		<tag k="place" v="islet" />
		<tag k="ssr:stedsnr" v="212376" />
	</node>
	<node id="-274696" lat="58.4008611145" lon="8.57708333277">
		<tag k="name" v="Lille Bjørnvik" />
		<tag k="natural" v="bay" />
		<tag k="ssr:stedsnr" v="212276" />
	</node>
	<node id="-274695" lat="58.3921944417" lon="8.58288888395">
		<tag k="name" v="Taulekilen" />
		<tag k="natural" v="bay" />
		<tag k="ssr:stedsnr" v="212268" />
	</node>
	<node id="-276725" lat="58.3879916688" lon="8.50192777942">
		<tag k="name" v="Vestermotjenn" />
		<tag k="natural" v="water" />
		<tag k="ssr:stedsnr" v="842760" />
	</node>
	<node id="-276723" lat="58.4218777757" lon="8.41454165842">
		<tag k="name" v="Hestehagodden" />
		<tag k="natural" v="cape" />
		<tag k="ssr:stedsnr" v="842710" />
	</node>
	<node id="-276722" lat="58.4140055586" lon="8.47546111372">
		<tag k="name" v="Ustadtjenn" />
		<tag k="natural" v="water" />
		<tag k="ssr:stedsnr" v="842606" />
	</node>
	<node id="-276718" lat="58.4417111092" lon="8.44176388168">
		<tag k="name" v="Vardetjenn" />
		<tag k="natural" v="water" />
		<tag k="ssr:stedsnr" v="842474" />
	</node>
	<node id="-276710" lat="58.4386722259" lon="8.52222778576">
		<tag k="name" v="Futjennkilen" />
		<tag k="natural" v="bay" />
		<tag k="ssr:stedsnr" v="842329" />
	</node>
	<node id="-274656" lat="58.4066444409" lon="8.33349999994">
		<tag k="alt_name" v="Venetjern" />
		<tag k="name" v="Venetjenn" />
		<tag k="natural" v="water" />
		<tag k="ssr:stedsnr" v="182419" />
	</node>
	<node id="-274655" lat="58.40453889" lon="8.34456944119">
		<tag k="name" v="Sandtjenn" />
		<tag k="natural" v="water" />
		<tag k="ssr:stedsnr" v="182420" />
	</node>
	<node id="-276700" lat="58.4745388933" lon="8.47946667444">
		<tag k="name" v="Falkholmen" />
		<tag k="place" v="islet" />
		<tag k="ssr:stedsnr" v="842199" />
	</node>
	<node id="-274809" lat="58.3965916704" lon="8.33980833636">
		<tag k="name" v="Risdaltjenn" />
		<tag k="natural" v="water" />
		<tag k="ssr:stedsnr" v="235973" />
		<tag k="water" v="lake" />
	</node>
	<node id="-276686" lat="58.4484277814" lon="8.38308333828">
		<tag k="fixme" v="multiple name tags, choose one and add the other to alt_name" />
		<tag k="name" v="Heievatn;Igelandsheivatn" />
		<tag k="natural" v="water" />
		<tag k="ssr:stedsnr" v="841123" />
		<tag k="water" v="lake" />
	</node>
	<node id="-276682" lat="58.4068444486" lon="8.43505554983">
		<tag k="name" v="Sauetjenn" />
		<tag k="natural" v="water" />
		<tag k="ssr:stedsnr" v="842895" />
	</node>
	<node id="-276679" lat="58.3883999992" lon="8.41114721921">
		<tag k="name" v="Valborglandstjenn" />
		<tag k="natural" v="water" />
		<tag k="ssr:stedsnr" v="842823" />
	</node>
	<node id="-276670" lat="58.3520777743" lon="8.53914722426">
		<tag k="name" v="Roresanden" />
		<tag k="natural" v="beach" />
		<tag k="ssr:stedsnr" v="838363" />
	</node>
	<node id="-276669" lat="58.360725001" lon="8.45088056352">
		<tag k="name" v="Pramstø" />
		<tag k="natural" v="bay" />
		<tag k="ssr:stedsnr" v="838299" />
	</node>
	<node id="-276667" lat="58.3262333372" lon="8.46745832698">
		<tag k="name" v="Mågeskjær" />
		<tag k="place" v="islet" />
		<tag k="ssr:stedsnr" v="837826" />
	</node>
	<node id="-276664" lat="58.3360500035" lon="8.40554721796">
		<tag k="name" v="Styggedalstjenn" />
		<tag k="natural" v="water" />
		<tag k="ssr:stedsnr" v="837764" />
	</node>
	<node id="-276658" lat="58.315322225" lon="8.50587499565">
		<tag k="name" v="Sandvika" />
		<tag k="natural" v="bay" />
		<tag k="ssr:stedsnr" v="837287" />
	</node>
	<node id="-276655" lat="58.3234388847" lon="8.4359861099">
		<tag k="name" v="Kvennebekken" />
		<tag k="ssr:stedsnr" v="836634" />
		<tag k="waterway" v="stream" />
	</node>
	<node id="-276644" lat="58.3686111153" lon="8.60939444786">
		<tag k="name" v="Sævelibekken" />
		<tag k="ssr:stedsnr" v="819755" />
		<tag k="waterway" v="stream" />
	</node>
	<node id="-276633" lat="58.3572777786" lon="8.6389722233">
		<tag k="name" v="Rennebekken" />
		<tag k="ssr:stedsnr" v="819481" />
		<tag k="waterway" v="stream" />
	</node>
	<node id="-276620" lat="58.3932805556" lon="8.61454165893">
		<tag k="name" v="Håbbestad Patjenn" />
		<tag k="natural" v="water" />
		<tag k="ssr:stedsnr" v="819382" />
	</node>
	<node id="-274571" lat="58.4223916708" lon="8.49738611375">
		<tag k="name" v="Tønnesøløyna" />
		<tag k="natural" v="cape" />
		<tag k="ssr:stedsnr" v="174988" />
	</node>
	<node id="-274568" lat="58.4015833303" lon="8.43359443698">
		<tag k="name" v="Ellingstjenn" />
		<tag k="natural" v="water" />
		<tag k="ssr:stedsnr" v="174917" />
	</node>
	<node id="-274567" lat="58.4069611078" lon="8.38750278199">
		<tag k="name" v="Bjortjenn" />
		<tag k="natural" v="water" />
		<tag k="ssr:stedsnr" v="174908" />
	</node>
	<node id="-276611" lat="58.3872499957" lon="8.5758888863">
		<tag k="name" v="Bjortjenn" />
		<tag k="natural" v="water" />
		<tag k="ssr:stedsnr" v="819330" />
	</node>
	<node id="-274562" lat="58.4015555579" lon="8.39129999274">
		<tag k="name" v="Øyesund" />
		<tag k="natural" v="water" />
		<tag k="ssr:stedsnr" v="174847" />
	</node>
	<node id="-274561" lat="58.391119444" lon="8.44650834074">
		<tag k="name" v="Stemtjenn" />
		<tag k="natural" v="water" />
		<tag k="ssr:stedsnr" v="174837" />
	</node>
	<node id="-274555" lat="58.4335805553" lon="8.39476111334">
		<tag k="name" v="Havetjønn" />
		<tag k="natural" v="water" />
		<tag k="ssr:stedsnr" v="174492" />
	</node>
	<node id="-274553" lat="58.4475694486" lon="8.44966666414">
		<tag k="name" v="Kjerringdalstjønn" />
		<tag k="natural" v="water" />
		<tag k="ssr:stedsnr" v="174481" />
	</node>
	<node id="-274552" lat="58.4515250009" lon="8.44032222193">
		<tag k="name" v="Tjærebergstjønn" />
		<tag k="natural" v="water" />
		<tag k="ssr:stedsnr" v="174476" />
	</node>
	<node id="-274548" lat="58.4365388907" lon="8.51982221879">
		<tag k="name" v="Torsteinsholmen" />
		<tag k="place" v="islet" />
		<tag k="ssr:stedsnr" v="174393" />
	</node>
	<node id="-274541" lat="58.373299999" lon="8.37328333902">
		<tag k="name" v="Granetjenn" />
		<tag k="natural" v="water" />
		<tag k="ssr:stedsnr" v="174202" />
	</node>
	<node id="-274539" lat="58.4385166693" lon="8.36699167335">
		<tag k="name" v="Paddetjønn" />
		<tag k="natural" v="water" />
		<tag k="ssr:stedsnr" v="174143" />
	</node>
	<node id="-274538" lat="58.387163893" lon="8.39745277927">
		<tag k="name" v="Smålitjenn" />
		<tag k="natural" v="water" />
		<tag k="ssr:stedsnr" v="174279" />
	</node>
	<node id="-274536" lat="58.383950003" lon="8.34404722252">
		<tag k="name" v="Mellemtjenn" />
		<tag k="natural" v="water" />
		<tag k="ssr:stedsnr" v="174163" />
	</node>
	<node id="-274535" lat="58.4399888928" lon="8.39505278123">
		<tag k="name" v="Bakringtjønnene" />
		<tag k="natural" v="water" />
		<tag k="ssr:stedsnr" v="174051" />
	</node>
	<node id="-276582" lat="58.4895222228" lon="8.49274166227">
		<tag k="alt_name" v="Gangvasstjern" />
		<tag k="name" v="Gangvasstjønn" />
		<tag k="natural" v="water" />
		<tag k="ssr:stedsnr" v="789702" />
	</node>
	<node id="-274533" lat="58.3865166651" lon="8.48530833461">
		<tag k="name" v="Grøsletjenn" />
		<tag k="natural" v="bay" />
		<tag k="ssr:stedsnr" v="174128" />
	</node>
	<node id="-276574" lat="58.3601249989" lon="8.51945277402">
		<tag k="alt_name" v="Imenestjernet" />
		<tag k="name" v="Imenestjenna" />
		<tag k="natural" v="water" />
		<tag k="ssr:stedsnr" v="789530" />
	</node>
	<node id="-276572" lat="58.3693777738" lon="8.53155000521">
		<tag k="name" v="Imeneskilen" />
		<tag k="natural" v="bay" />
		<tag k="ssr:stedsnr" v="789523" />
	</node>
	<node id="-276569" lat="58.374030552" lon="8.50432778619">
		<tag k="name" v="Syndlesøya" />
		<tag k="place" v="island" />
		<tag k="ssr:stedsnr" v="789514" />
	</node>
	<node id="-276568" lat="58.4503972225" lon="8.43124443978">
		<tag k="name" v="Sauetjenn" />
		<tag k="natural" v="water" />
		<tag k="ssr:stedsnr" v="789489" />
	</node>
	<node id="-276567" lat="58.398516664" lon="8.32191665984">
		<tag k="name" v="Langvannet" />
		<tag k="natural" v="water" />
		<tag k="ssr:stedsnr" v="789429" />
		<tag k="water" v="lake" />
	</node>
	<node id="-276563" lat="58.3839777759" lon="8.38735000604">
		<tag k="name" v="Stivann" />
		<tag k="natural" v="water" />
		<tag k="ssr:stedsnr" v="789353" />
	</node>
	<node id="-276562" lat="58.3780055587" lon="8.42091943746">
		<tag k="name" v="Lommetveittjenn" />
		<tag k="natural" v="water" />
		<tag k="ssr:stedsnr" v="789351" />
	</node>
	<node id="-274513" lat="58.3524638852" lon="8.4699777814">
		<tag k="name" v="Mellvika" />
		<tag k="natural" v="bay" />
		<tag k="ssr:stedsnr" v="170283" />
	</node>
	<node id="-276560" lat="58.3080194483" lon="8.46078333081">
		<tag k="alt_name" v="Tysskiltjenn, østre;Tyssekiltjenn østre" />
		<tag k="name" v="Østre Tyssekiltjenn" />
		<tag k="natural" v="water" />
		<tag k="ssr:stedsnr" v="789309" />
	</node>
	<node id="-274511" lat="58.3166527742" lon="8.44943888827">
		<tag k="name" v="Tjørrnes" />
		<tag k="natural" v="cape" />
		<tag k="ssr:stedsnr" v="170274" />
	</node>
	<node id="-274509" lat="58.3364083311" lon="8.51698889711">
		<tag k="name" v="Landvikstranda" />
		<tag k="natural" v="beach" />
		<tag k="ssr:stedsnr" v="169909" />
	</node>
	<node id="-274499" lat="58.3670749974" lon="8.41846389283">
		<tag k="name" v="Høytveittjenn" />
		<tag k="natural" v="water" />
		<tag k="ssr:stedsnr" v="169523" />
	</node>
	<node id="-274496" lat="58.3196361137" lon="8.48793889073">
		<tag k="name" v="Tangen" />
		<tag k="natural" v="cape" />
		<tag k="ssr:stedsnr" v="169324" />
	</node>
	<node id="-274488" lat="58.3693722213" lon="8.6816972295">
		<tag k="name" v="Lille Moviga" />
		<tag k="natural" v="bay" />
		<tag k="ssr:stedsnr" v="151745" />
	</node>
	<node id="-274482" lat="58.3877222196" lon="8.63560277038">
		<tag k="name" v="Bjørnetrøbekken" />
		<tag k="ssr:stedsnr" v="151702" />
		<tag k="waterway" v="stream" />
	</node>
	<node id="-276494" lat="58.4655083341" lon="8.42942777532">
		<tag k="alt_name" v="Åstjønn" />
		<tag k="name" v="Åstjenn" />
		<tag k="natural" v="water" />
		<tag k="old_name" v="Åstjern" />
		<tag k="ssr:stedsnr" v="788467" />
	</node>
	<node id="-276490" lat="58.4226499996" lon="8.36256943593">
		<tag k="name" v="Tingletjenn" />
		<tag k="natural" v="water" />
		<tag k="ssr:stedsnr" v="788374" />
	</node>
	<node id="-276484" lat="58.3525277751" lon="8.34595000478">
		<tag k="name" v="Beislandsvannet" />
		<tag k="natural" v="water" />
		<tag k="ssr:stedsnr" v="788343" />
		<tag k="water" v="lake" />
	</node>
</osm>
