<?xml version="1.0" encoding="UTF-8"?>
<osm version="0.6" generator="osmapis">
	<node lat="59.96174444725165" lon="8.40856388267038" id="-52856">
		<tag k="name" v="Hermann" />
		<tag k="ssr:date" v="2019-12-27" />
		<tag k="ssr:gruppe" v="veg" />
		<tag k="ssr:hovedgruppe" v="infrastruktur" />
		<tag k="ssr:stedsnr" v="46017" />
		<tag k="ssr:type" v="vegstrekning" />
	</node>
	<node lat="59.8786999975089" lon="8.594688890900905" id="-52963">
		<tag k="name" v="Tinn kommune" />
		<tag k="ssr:date" v="2019-12-27" />
		<tag k="ssr:gruppe" v="administrativeIndelinger" />
		<tag k="ssr:hovedgruppe" v="offentligAdministrasjon" />
		<tag k="ssr:stedsnr" v="85268" />
		<tag k="ssr:type" v="kommune" />
	</node>
	<node lat="60.06552222520431" lon="8.438755557169241" id="-54457">
		<tag k="name" v="Tovskroken" />
		<tag k="ssr:date" v="2019-12-27" />
		<tag k="ssr:gruppe" v="veg" />
		<tag k="ssr:hovedgruppe" v="infrastruktur" />
		<tag k="ssr:stedsnr" v="714400" />
		<tag k="ssr:type" v="vegstrekning" />
	</node>
	<node lat="60.06654722603925" lon="8.397941664126135" id="-55062">
		<tag k="name" v="Lindkvistsvingen" />
		<tag k="ssr:date" v="2019-12-27" />
		<tag k="ssr:gruppe" v="veg" />
		<tag k="ssr:hovedgruppe" v="infrastruktur" />
		<tag k="ssr:stedsnr" v="957453" />
		<tag k="ssr:type" v="vegstrekning" />
	</node>
	<node lat="59.92381142988944" lon="8.7483452703417" id="-55128">
		<tag k="name" v="Bjørkevegen" />
		<tag k="ssr:date" v="2019-12-27" />
		<tag k="ssr:gruppe" v="veg" />
		<tag k="ssr:hovedgruppe" v="infrastruktur" />
		<tag k="ssr:stedsnr" v="1048828" />
		<tag k="ssr:type" v="adressenavn" />
	</node>
	<node lat="59.87922840864157" lon="8.597766301086512" id="-55129">
		<tag k="name" v="Bjønnlandsveien" />
		<tag k="ssr:date" v="2019-12-27" />
		<tag k="ssr:gruppe" v="veg" />
		<tag k="ssr:hovedgruppe" v="infrastruktur" />
		<tag k="ssr:stedsnr" v="1048868" />
		<tag k="ssr:type" v="adressenavn" />
	</node>
	<node lat="59.98393195651526" lon="8.726453837324717" id="-55130">
		<tag k="name" v="Bjønnefosslie" />
		<tag k="ssr:date" v="2019-12-27" />
		<tag k="ssr:gruppe" v="veg" />
		<tag k="ssr:hovedgruppe" v="infrastruktur" />
		<tag k="ssr:stedsnr" v="1048961" />
		<tag k="ssr:type" v="adressenavn" />
	</node>
	<node lat="59.87854650548935" lon="8.585579179214442" id="-55136">
		<tag k="name" v="Arbeidergata" />
		<tag k="ssr:date" v="2019-12-27" />
		<tag k="ssr:gruppe" v="veg" />
		<tag k="ssr:hovedgruppe" v="infrastruktur" />
		<tag k="ssr:stedsnr" v="1049176" />
		<tag k="ssr:type" v="adressenavn" />
	</node>
	<node lat="59.87825769535278" lon="8.593372487704778" id="-55137">
		<tag k="name" v="Birkelands gate" />
		<tag k="ssr:date" v="2019-12-27" />
		<tag k="ssr:gruppe" v="veg" />
		<tag k="ssr:hovedgruppe" v="infrastruktur" />
		<tag k="ssr:stedsnr" v="1049259" />
		<tag k="ssr:type" v="adressenavn" />
	</node>
	<node lat="59.88293660409111" lon="8.675800328994903" id="-55140">
		<tag k="name" v="Birkelunden" />
		<tag k="ssr:date" v="2019-12-27" />
		<tag k="ssr:gruppe" v="veg" />
		<tag k="ssr:hovedgruppe" v="infrastruktur" />
		<tag k="ssr:stedsnr" v="1049223" />
		<tag k="ssr:type" v="adressenavn" />
	</node>
	<node lat="59.92498771877772" lon="8.803911657996546" id="-55141">
		<tag k="name" v="Bassengstien" />
		<tag k="ssr:date" v="2019-12-27" />
		<tag k="ssr:gruppe" v="veg" />
		<tag k="ssr:hovedgruppe" v="infrastruktur" />
		<tag k="ssr:stedsnr" v="1049307" />
		<tag k="ssr:type" v="adressenavn" />
	</node>
	<node lat="59.9265940243932" lon="8.747871255872148" id="-55142">
		<tag k="name" v="Barnålvegen" />
		<tag k="ssr:date" v="2019-12-27" />
		<tag k="ssr:gruppe" v="veg" />
		<tag k="ssr:hovedgruppe" v="infrastruktur" />
		<tag k="ssr:stedsnr" v="1049352" />
		<tag k="ssr:type" v="adressenavn" />
	</node>
	<node lat="59.87963840397015" lon="8.619585295199428" id="-55144">
		<tag k="name" v="Atrågata" />
		<tag k="ssr:date" v="2019-12-27" />
		<tag k="ssr:gruppe" v="veg" />
		<tag k="ssr:hovedgruppe" v="infrastruktur" />
		<tag k="ssr:stedsnr" v="1049471" />
		<tag k="ssr:type" v="adressenavn" />
	</node>
	<node lat="59.88822213964358" lon="8.690471612401316" id="-55145">
		<tag k="name" v="Bakhusvegen" />
		<tag k="ssr:date" v="2019-12-27" />
		<tag k="ssr:gruppe" v="veg" />
		<tag k="ssr:hovedgruppe" v="infrastruktur" />
		<tag k="ssr:stedsnr" v="1049396" />
		<tag k="ssr:type" v="adressenavn" />
	</node>
	<node lat="59.87936292421965" lon="8.582693556970028" id="-55148">
		<tag k="name" v="Villaveien" />
		<tag k="ssr:date" v="2019-12-27" />
		<tag k="ssr:gruppe" v="veg" />
		<tag k="ssr:hovedgruppe" v="infrastruktur" />
		<tag k="ssr:stedsnr" v="1050890" />
		<tag k="ssr:type" v="adressenavn" />
	</node>
	<node lat="59.87586037882134" lon="8.496114449577144" id="-55149">
		<tag k="name" v="Våer" />
		<tag k="ssr:date" v="2019-12-27" />
		<tag k="ssr:gruppe" v="veg" />
		<tag k="ssr:hovedgruppe" v="infrastruktur" />
		<tag k="ssr:stedsnr" v="1050895" />
		<tag k="ssr:type" v="adressenavn" />
	</node>
	<node lat="59.878711111461705" lon="8.652160683079964" id="-55151">
		<tag k="name" v="Gyvingjordet" />
		<tag k="ssr:date" v="2019-12-27" />
		<tag k="ssr:gruppe" v="veg" />
		<tag k="ssr:hovedgruppe" v="infrastruktur" />
		<tag k="ssr:stedsnr" v="1049844" />
		<tag k="ssr:type" v="adressenavn" />
	</node>
	<node lat="59.87979272671076" lon="8.587122336904141" id="-55157">
		<tag k="name" v="Haddelandsveien" />
		<tag k="ssr:date" v="2019-12-27" />
		<tag k="ssr:gruppe" v="veg" />
		<tag k="ssr:hovedgruppe" v="infrastruktur" />
		<tag k="ssr:stedsnr" v="1049928" />
		<tag k="ssr:type" v="adressenavn" />
	</node>
	<node lat="59.879671146678" lon="8.613801391945758" id="-55161">
		<tag k="name" v="Gunleiks gate" />
		<tag k="ssr:date" v="2019-12-27" />
		<tag k="ssr:gruppe" v="veg" />
		<tag k="ssr:hovedgruppe" v="infrastruktur" />
		<tag k="ssr:stedsnr" v="1050018" />
		<tag k="ssr:type" v="adressenavn" />
	</node>
	<node lat="59.92747994291558" lon="8.755610281657887" id="-55163">
		<tag k="name" v="Granvegen" />
		<tag k="ssr:date" v="2019-12-27" />
		<tag k="ssr:gruppe" v="veg" />
		<tag k="ssr:hovedgruppe" v="infrastruktur" />
		<tag k="ssr:stedsnr" v="1050022" />
		<tag k="ssr:type" v="adressenavn" />
	</node>
	<node lat="59.88962439735815" lon="8.69288401469992" id="-55168">
		<tag k="name" v="Gaustavegen" />
		<tag k="ssr:date" v="2019-12-27" />
		<tag k="ssr:gruppe" v="veg" />
		<tag k="ssr:hovedgruppe" v="infrastruktur" />
		<tag k="ssr:stedsnr" v="1050029" />
		<tag k="ssr:type" v="adressenavn" />
	</node>
	<node lat="59.92686243402396" lon="8.756263063790826" id="-55169">
		<tag k="name" v="Furuvegen" />
		<tag k="ssr:date" v="2019-12-27" />
		<tag k="ssr:gruppe" v="veg" />
		<tag k="ssr:hovedgruppe" v="infrastruktur" />
		<tag k="ssr:stedsnr" v="1050031" />
		<tag k="ssr:type" v="adressenavn" />
	</node>
	<node lat="59.994295789336185" lon="8.824078730542249" id="-55170">
		<tag k="name" v="Furulivegen" />
		<tag k="ssr:date" v="2019-12-27" />
		<tag k="ssr:gruppe" v="veg" />
		<tag k="ssr:hovedgruppe" v="infrastruktur" />
		<tag k="ssr:stedsnr" v="1050033" />
		<tag k="ssr:type" v="adressenavn" />
	</node>
	<node lat="59.86643894663539" lon="8.47395675489931" id="-55172">
		<tag k="name" v="Fossoveien" />
		<tag k="ssr:date" v="2019-12-27" />
		<tag k="ssr:gruppe" v="veg" />
		<tag k="ssr:hovedgruppe" v="infrastruktur" />
		<tag k="ssr:stedsnr" v="1049951" />
		<tag k="ssr:type" v="adressenavn" />
	</node>
	<node lat="59.9842985224581" lon="8.727688918861917" id="-55174">
		<tag k="name" v="Fossheimvegen" />
		<tag k="ssr:date" v="2019-12-27" />
		<tag k="ssr:gruppe" v="veg" />
		<tag k="ssr:hovedgruppe" v="infrastruktur" />
		<tag k="ssr:stedsnr" v="1049980" />
		<tag k="ssr:type" v="adressenavn" />
	</node>
	<node lat="59.87892772867972" lon="8.589148187898973" id="-55175">
		<tag k="name" v="Håndverkergata" />
		<tag k="ssr:date" v="2019-12-27" />
		<tag k="ssr:gruppe" v="veg" />
		<tag k="ssr:hovedgruppe" v="infrastruktur" />
		<tag k="ssr:stedsnr" v="1050048" />
		<tag k="ssr:type" v="adressenavn" />
	</node>
	<node lat="59.8809189090207" lon="8.631221827276843" id="-55176">
		<tag k="name" v="Håkons gate" />
		<tag k="ssr:date" v="2019-12-27" />
		<tag k="ssr:gruppe" v="veg" />
		<tag k="ssr:hovedgruppe" v="infrastruktur" />
		<tag k="ssr:stedsnr" v="1050058" />
		<tag k="ssr:type" v="adressenavn" />
	</node>
	<node lat="59.87863479397153" lon="8.621635997775817" id="-55177">
		<tag k="name" v="Ingeniør Waadens gate" />
		<tag k="ssr:date" v="2019-12-27" />
		<tag k="ssr:gruppe" v="veg" />
		<tag k="ssr:hovedgruppe" v="infrastruktur" />
		<tag k="ssr:stedsnr" v="1050063" />
		<tag k="ssr:type" v="adressenavn" />
	</node>
	<node lat="59.880524132370425" lon="8.627769008205796" id="-55183">
		<tag k="name" v="Haralds gate" />
		<tag k="ssr:date" v="2019-12-27" />
		<tag k="ssr:gruppe" v="veg" />
		<tag k="ssr:hovedgruppe" v="infrastruktur" />
		<tag k="ssr:stedsnr" v="1050084" />
		<tag k="ssr:type" v="adressenavn" />
	</node>
	<node lat="59.87890642585719" lon="8.594151336603373" id="-55185">
		<tag k="name" v="Bøens gate" />
		<tag k="ssr:date" v="2019-12-27" />
		<tag k="ssr:gruppe" v="veg" />
		<tag k="ssr:hovedgruppe" v="infrastruktur" />
		<tag k="ssr:stedsnr" v="1050138" />
		<tag k="ssr:type" v="adressenavn" />
	</node>
	<node lat="59.98947661287654" lon="8.725934046201106" id="-55186">
		<tag k="name" v="Høymyrvegen" />
		<tag k="ssr:date" v="2019-12-27" />
		<tag k="ssr:gruppe" v="veg" />
		<tag k="ssr:hovedgruppe" v="infrastruktur" />
		<tag k="ssr:stedsnr" v="1050113" />
		<tag k="ssr:type" v="adressenavn" />
	</node>
	<node lat="59.888495752613274" lon="8.686841130842133" id="-55192">
		<tag k="name" v="Haugåkervegen" />
		<tag k="ssr:date" v="2019-12-27" />
		<tag k="ssr:gruppe" v="veg" />
		<tag k="ssr:hovedgruppe" v="infrastruktur" />
		<tag k="ssr:stedsnr" v="1050127" />
		<tag k="ssr:type" v="adressenavn" />
	</node>
	<node lat="59.879413045336605" lon="8.579576804830694" id="-55193">
		<tag k="name" v="Bråvoldvegen" />
		<tag k="ssr:date" v="2019-12-27" />
		<tag k="ssr:gruppe" v="veg" />
		<tag k="ssr:hovedgruppe" v="infrastruktur" />
		<tag k="ssr:stedsnr" v="1050190" />
		<tag k="ssr:type" v="adressenavn" />
	</node>
	<node lat="59.994004906107726" lon="8.830178416736427" id="-55195">
		<tag k="name" v="Brynjulfsrud" />
		<tag k="ssr:date" v="2019-12-27" />
		<tag k="ssr:gruppe" v="veg" />
		<tag k="ssr:hovedgruppe" v="infrastruktur" />
		<tag k="ssr:stedsnr" v="1050196" />
		<tag k="ssr:type" v="adressenavn" />
	</node>
	<node lat="59.885022019588874" lon="8.68721479152192" id="-55196">
		<tag k="name" v="Bruflot" />
		<tag k="ssr:date" v="2019-12-27" />
		<tag k="ssr:gruppe" v="veg" />
		<tag k="ssr:hovedgruppe" v="infrastruktur" />
		<tag k="ssr:stedsnr" v="1050199" />
		<tag k="ssr:type" v="adressenavn" />
	</node>
	<node lat="59.87993716321741" lon="8.560311066137732" id="-55197">
		<tag k="name" v="Fjellveien" />
		<tag k="ssr:date" v="2019-12-27" />
		<tag k="ssr:gruppe" v="veg" />
		<tag k="ssr:hovedgruppe" v="infrastruktur" />
		<tag k="ssr:stedsnr" v="1050231" />
		<tag k="ssr:type" v="adressenavn" />
	</node>
	<node lat="59.88358614683422" lon="8.676257762194014" id="-55198">
		<tag k="name" v="Dalelia" />
		<tag k="ssr:date" v="2019-12-27" />
		<tag k="ssr:gruppe" v="veg" />
		<tag k="ssr:hovedgruppe" v="infrastruktur" />
		<tag k="ssr:stedsnr" v="1050288" />
		<tag k="ssr:type" v="adressenavn" />
	</node>
	<node lat="59.9245740544926" lon="8.801694381947028" id="-55199">
		<tag k="name" v="Buslåttvegen" />
		<tag k="ssr:date" v="2019-12-27" />
		<tag k="ssr:gruppe" v="veg" />
		<tag k="ssr:hovedgruppe" v="infrastruktur" />
		<tag k="ssr:stedsnr" v="1050142" />
		<tag k="ssr:type" v="adressenavn" />
	</node>
	<node lat="59.87928744594732" lon="8.57308258808334" id="-55200">
		<tag k="name" v="Bøhagenlia" />
		<tag k="ssr:date" v="2019-12-27" />
		<tag k="ssr:gruppe" v="veg" />
		<tag k="ssr:hovedgruppe" v="infrastruktur" />
		<tag k="ssr:stedsnr" v="1050157" />
		<tag k="ssr:type" v="adressenavn" />
	</node>
	<node lat="59.877289439760965" lon="8.602194579112101" id="-55202">
		<tag k="name" v="Brogata" />
		<tag k="ssr:date" v="2019-12-27" />
		<tag k="ssr:gruppe" v="veg" />
		<tag k="ssr:hovedgruppe" v="infrastruktur" />
		<tag k="ssr:stedsnr" v="1050164" />
		<tag k="ssr:type" v="adressenavn" />
	</node>
	<node lat="59.92734426713624" lon="8.74896578510436" id="-55203">
		<tag k="name" v="Briskevegen" />
		<tag k="ssr:date" v="2019-12-27" />
		<tag k="ssr:gruppe" v="veg" />
		<tag k="ssr:hovedgruppe" v="infrastruktur" />
		<tag k="ssr:stedsnr" v="1050170" />
		<tag k="ssr:type" v="adressenavn" />
	</node>
	<node lat="59.88080497901208" lon="8.639159704592066" id="-55209">
		<tag k="name" v="Bjørkhauglia" />
		<tag k="ssr:date" v="2019-12-27" />
		<tag k="ssr:gruppe" v="veg" />
		<tag k="ssr:hovedgruppe" v="infrastruktur" />
		<tag k="ssr:stedsnr" v="1050184" />
		<tag k="ssr:type" v="adressenavn" />
	</node>
	<node lat="59.880082873233285" lon="8.617352534432344" id="-55211">
		<tag k="name" v="Dalgata" />
		<tag k="ssr:date" v="2019-12-27" />
		<tag k="ssr:gruppe" v="veg" />
		<tag k="ssr:hovedgruppe" v="infrastruktur" />
		<tag k="ssr:stedsnr" v="1050270" />
		<tag k="ssr:type" v="adressenavn" />
	</node>
	<node lat="59.88040392784381" lon="8.614607297934924" id="-55212">
		<tag k="name" v="Ekornveien" />
		<tag k="ssr:date" v="2019-12-27" />
		<tag k="ssr:gruppe" v="veg" />
		<tag k="ssr:hovedgruppe" v="infrastruktur" />
		<tag k="ssr:stedsnr" v="1050295" />
		<tag k="ssr:type" v="adressenavn" />
	</node>
	<node lat="59.87995119837149" lon="8.596321493906107" id="-55215">
		<tag k="name" v="Delegata" />
		<tag k="ssr:date" v="2019-12-27" />
		<tag k="ssr:gruppe" v="veg" />
		<tag k="ssr:hovedgruppe" v="infrastruktur" />
		<tag k="ssr:stedsnr" v="1050305" />
		<tag k="ssr:type" v="adressenavn" />
	</node>
	<node lat="59.98455930383215" lon="8.728545452984148" id="-55217">
		<tag k="name" v="Nørstegard" />
		<tag k="ssr:date" v="2019-12-27" />
		<tag k="ssr:gruppe" v="veg" />
		<tag k="ssr:hovedgruppe" v="infrastruktur" />
		<tag k="ssr:stedsnr" v="1050329" />
		<tag k="ssr:type" v="adressenavn" />
	</node>
	<node lat="59.9245089305771" lon="8.80095164662073" id="-55218">
		<tag k="name" v="Nedre veg" />
		<tag k="ssr:date" v="2019-12-27" />
		<tag k="ssr:gruppe" v="veg" />
		<tag k="ssr:hovedgruppe" v="infrastruktur" />
		<tag k="ssr:stedsnr" v="1050330" />
		<tag k="ssr:type" v="adressenavn" />
	</node>
	<node lat="59.88460916016116" lon="8.681560297266373" id="-55219">
		<tag k="name" v="Mårvegen" />
		<tag k="ssr:date" v="2019-12-27" />
		<tag k="ssr:gruppe" v="veg" />
		<tag k="ssr:hovedgruppe" v="infrastruktur" />
		<tag k="ssr:stedsnr" v="1050334" />
		<tag k="ssr:type" v="adressenavn" />
	</node>
	<node lat="59.87814239707189" lon="8.593715684240092" id="-55221">
		<tag k="name" v="Månaveien" />
		<tag k="ssr:date" v="2019-12-27" />
		<tag k="ssr:gruppe" v="veg" />
		<tag k="ssr:hovedgruppe" v="infrastruktur" />
		<tag k="ssr:stedsnr" v="1050337" />
		<tag k="ssr:type" v="adressenavn" />
	</node>
	<node lat="59.99040857244984" lon="8.724189149421163" id="-55224">
		<tag k="name" v="Prestegardslie" />
		<tag k="ssr:date" v="2019-12-27" />
		<tag k="ssr:gruppe" v="veg" />
		<tag k="ssr:hovedgruppe" v="infrastruktur" />
		<tag k="ssr:stedsnr" v="1050345" />
		<tag k="ssr:type" v="adressenavn" />
	</node>
	<node lat="59.92833792225207" lon="8.754048514139825" id="-55225">
		<tag k="name" v="Orevegen" />
		<tag k="ssr:date" v="2019-12-27" />
		<tag k="ssr:gruppe" v="veg" />
		<tag k="ssr:hovedgruppe" v="infrastruktur" />
		<tag k="ssr:stedsnr" v="1050347" />
		<tag k="ssr:type" v="adressenavn" />
	</node>
	<node lat="59.880911288083034" lon="8.633621074092686" id="-55226">
		<tag k="name" v="Olavs gate" />
		<tag k="ssr:date" v="2019-12-27" />
		<tag k="ssr:gruppe" v="veg" />
		<tag k="ssr:hovedgruppe" v="infrastruktur" />
		<tag k="ssr:stedsnr" v="1050353" />
		<tag k="ssr:type" v="adressenavn" />
	</node>
	<node lat="59.92605747086078" lon="8.757390558047717" id="-55227">
		<tag k="name" v="Smedshusvegen" />
		<tag k="ssr:date" v="2019-12-27" />
		<tag k="ssr:gruppe" v="veg" />
		<tag k="ssr:hovedgruppe" v="infrastruktur" />
		<tag k="ssr:stedsnr" v="1050358" />
		<tag k="ssr:type" v="adressenavn" />
	</node>
	<node lat="59.879796526027015" lon="8.586180832557464" id="-55228">
		<tag k="name" v="Skriugata" />
		<tag k="ssr:date" v="2019-12-27" />
		<tag k="ssr:gruppe" v="veg" />
		<tag k="ssr:hovedgruppe" v="infrastruktur" />
		<tag k="ssr:stedsnr" v="1050359" />
		<tag k="ssr:type" v="adressenavn" />
	</node>
	<node lat="59.99514230425556" lon="8.82264949993659" id="-55229">
		<tag k="name" v="Skogvegen" />
		<tag k="ssr:date" v="2019-12-27" />
		<tag k="ssr:gruppe" v="veg" />
		<tag k="ssr:hovedgruppe" v="infrastruktur" />
		<tag k="ssr:stedsnr" v="1050363" />
		<tag k="ssr:type" v="adressenavn" />
	</node>
	<node lat="59.88026149710523" lon="8.625476921494768" id="-55236">
		<tag k="name" v="Solliveien" />
		<tag k="ssr:date" v="2019-12-27" />
		<tag k="ssr:gruppe" v="veg" />
		<tag k="ssr:hovedgruppe" v="infrastruktur" />
		<tag k="ssr:stedsnr" v="1050385" />
		<tag k="ssr:type" v="adressenavn" />
	</node>
	<node lat="59.92857997525366" lon="8.810652420748694" id="-55237">
		<tag k="name" v="Rollagvegen" />
		<tag k="ssr:date" v="2019-12-27" />
		<tag k="ssr:gruppe" v="veg" />
		<tag k="ssr:hovedgruppe" v="infrastruktur" />
		<tag k="ssr:stedsnr" v="1050393" />
		<tag k="ssr:type" v="adressenavn" />
	</node>
	<node lat="59.87901314712048" lon="8.612294659422338" id="-55238">
		<tag k="name" v="Skogveien" />
		<tag k="ssr:date" v="2019-12-27" />
		<tag k="ssr:gruppe" v="veg" />
		<tag k="ssr:hovedgruppe" v="infrastruktur" />
		<tag k="ssr:stedsnr" v="1050399" />
		<tag k="ssr:type" v="adressenavn" />
	</node>
	<node lat="59.92514436273043" lon="8.75364510731645" id="-55244">
		<tag k="name" v="Seljevegen" />
		<tag k="ssr:date" v="2019-12-27" />
		<tag k="ssr:gruppe" v="veg" />
		<tag k="ssr:hovedgruppe" v="infrastruktur" />
		<tag k="ssr:stedsnr" v="1050410" />
		<tag k="ssr:type" v="adressenavn" />
	</node>
	<node lat="59.87885176019282" lon="8.607334162409126" id="-55247">
		<tag k="name" v="Sam Eydes gate" />
		<tag k="ssr:date" v="2019-12-27" />
		<tag k="ssr:gruppe" v="veg" />
		<tag k="ssr:hovedgruppe" v="infrastruktur" />
		<tag k="ssr:stedsnr" v="1050416" />
		<tag k="ssr:type" v="adressenavn" />
	</node>
	<node lat="59.87942093944641" lon="8.557896291254048" id="-55248">
		<tag k="name" v="Kraftledningsveien" />
		<tag k="ssr:date" v="2019-12-27" />
		<tag k="ssr:gruppe" v="veg" />
		<tag k="ssr:hovedgruppe" v="infrastruktur" />
		<tag k="ssr:stedsnr" v="1050418" />
		<tag k="ssr:type" v="adressenavn" />
	</node>
	<node lat="59.87863479397153" lon="8.621635997775817" id="-55249">
		<tag k="name" v="Klonteigs gate" />
		<tag k="ssr:date" v="2019-12-27" />
		<tag k="ssr:gruppe" v="veg" />
		<tag k="ssr:hovedgruppe" v="infrastruktur" />
		<tag k="ssr:stedsnr" v="1050428" />
		<tag k="ssr:type" v="adressenavn" />
	</node>
	<node lat="59.87908459281698" lon="8.612345041820028" id="-55250">
		<tag k="name" v="Ligata" />
		<tag k="ssr:date" v="2019-12-27" />
		<tag k="ssr:gruppe" v="veg" />
		<tag k="ssr:hovedgruppe" v="infrastruktur" />
		<tag k="ssr:stedsnr" v="1050432" />
		<tag k="ssr:type" v="adressenavn" />
	</node>
	<node lat="59.88005164133473" lon="8.618395697885337" id="-55252">
		<tag k="name" v="Mælgata" />
		<tag k="ssr:date" v="2019-12-27" />
		<tag k="ssr:gruppe" v="veg" />
		<tag k="ssr:hovedgruppe" v="infrastruktur" />
		<tag k="ssr:stedsnr" v="1050487" />
		<tag k="ssr:type" v="adressenavn" />
	</node>
	<node lat="59.99478195764786" lon="8.825271227564333" id="-55253">
		<tag k="name" v="Moensletta" />
		<tag k="ssr:date" v="2019-12-27" />
		<tag k="ssr:gruppe" v="veg" />
		<tag k="ssr:hovedgruppe" v="infrastruktur" />
		<tag k="ssr:stedsnr" v="1050498" />
		<tag k="ssr:type" v="adressenavn" />
	</node>
	<node lat="59.92261689736041" lon="8.746539141360097" id="-55254">
		<tag k="name" v="Milandvegen" />
		<tag k="ssr:date" v="2019-12-27" />
		<tag k="ssr:gruppe" v="veg" />
		<tag k="ssr:hovedgruppe" v="infrastruktur" />
		<tag k="ssr:stedsnr" v="1050501" />
		<tag k="ssr:type" v="adressenavn" />
	</node>
	<node lat="59.887717612150276" lon="8.684778451025814" id="-55258">
		<tag k="name" v="Lyngvegen" />
		<tag k="ssr:date" v="2019-12-27" />
		<tag k="ssr:gruppe" v="veg" />
		<tag k="ssr:hovedgruppe" v="infrastruktur" />
		<tag k="ssr:stedsnr" v="1050505" />
		<tag k="ssr:type" v="adressenavn" />
	</node>
	<node lat="59.99663136629093" lon="8.82677659174133" id="-55264">
		<tag k="name" v="Myran" />
		<tag k="ssr:date" v="2019-12-27" />
		<tag k="ssr:gruppe" v="veg" />
		<tag k="ssr:hovedgruppe" v="infrastruktur" />
		<tag k="ssr:stedsnr" v="1050520" />
		<tag k="ssr:type" v="adressenavn" />
	</node>
	<node lat="59.88683335022997" lon="8.687971521706098" id="-55267">
		<tag k="name" v="Mosletta" />
		<tag k="ssr:date" v="2019-12-27" />
		<tag k="ssr:gruppe" v="veg" />
		<tag k="ssr:hovedgruppe" v="infrastruktur" />
		<tag k="ssr:stedsnr" v="1050525" />
		<tag k="ssr:type" v="adressenavn" />
	</node>
	<node lat="59.87816020596262" lon="8.589919064360117" id="-55269">
		<tag k="name" v="Mogata" />
		<tag k="ssr:date" v="2019-12-27" />
		<tag k="ssr:gruppe" v="veg" />
		<tag k="ssr:hovedgruppe" v="infrastruktur" />
		<tag k="ssr:stedsnr" v="1050528" />
		<tag k="ssr:type" v="adressenavn" />
	</node>
	<node lat="59.87912603502355" lon="8.623554123886839" id="-55274">
		<tag k="name" v="Jernbanegata" />
		<tag k="ssr:date" v="2019-12-27" />
		<tag k="ssr:gruppe" v="veg" />
		<tag k="ssr:hovedgruppe" v="infrastruktur" />
		<tag k="ssr:stedsnr" v="1050448" />
		<tag k="ssr:type" v="adressenavn" />
	</node>
	<node lat="59.879170839527845" lon="8.615507399406319" id="-55275">
		<tag k="name" v="Ingolfs gate" />
		<tag k="ssr:date" v="2019-12-27" />
		<tag k="ssr:gruppe" v="veg" />
		<tag k="ssr:hovedgruppe" v="infrastruktur" />
		<tag k="ssr:stedsnr" v="1050456" />
		<tag k="ssr:type" v="adressenavn" />
	</node>
	<node lat="59.887457590054225" lon="8.68315192388896" id="-55276">
		<tag k="name" v="Kleiva" />
		<tag k="ssr:date" v="2019-12-27" />
		<tag k="ssr:gruppe" v="veg" />
		<tag k="ssr:hovedgruppe" v="infrastruktur" />
		<tag k="ssr:stedsnr" v="1050465" />
		<tag k="ssr:type" v="adressenavn" />
	</node>
	<node lat="59.87719040977824" lon="8.586017626508365" id="-55280">
		<tag k="name" v="Jernbaneplassen" />
		<tag k="ssr:date" v="2019-12-27" />
		<tag k="ssr:gruppe" v="veg" />
		<tag k="ssr:hovedgruppe" v="infrastruktur" />
		<tag k="ssr:stedsnr" v="1050471" />
		<tag k="ssr:type" v="adressenavn" />
	</node>
	<node lat="59.8767485955506" lon="8.594985486744344" id="-55281">
		<tag k="name" v="Mælandsgata" />
		<tag k="ssr:date" v="2019-12-27" />
		<tag k="ssr:gruppe" v="veg" />
		<tag k="ssr:hovedgruppe" v="infrastruktur" />
		<tag k="ssr:stedsnr" v="1050475" />
		<tag k="ssr:type" v="adressenavn" />
	</node>
	<node lat="59.878215570397884" lon="8.607515399348877" id="-55282">
		<tag k="name" v="Mæland" />
		<tag k="ssr:date" v="2019-12-27" />
		<tag k="ssr:gruppe" v="veg" />
		<tag k="ssr:hovedgruppe" v="infrastruktur" />
		<tag k="ssr:stedsnr" v="1050483" />
		<tag k="ssr:type" v="adressenavn" />
	</node>
	<node lat="59.9240702560283" lon="8.800817971758262" id="-55283">
		<tag k="name" v="Mælsvingen" />
		<tag k="ssr:date" v="2019-12-27" />
		<tag k="ssr:gruppe" v="veg" />
		<tag k="ssr:hovedgruppe" v="infrastruktur" />
		<tag k="ssr:stedsnr" v="1050484" />
		<tag k="ssr:type" v="adressenavn" />
	</node>
	<node lat="59.8789835937416" lon="8.63075530777981" id="-55284">
		<tag k="name" v="Tinngata" />
		<tag k="ssr:date" v="2019-12-27" />
		<tag k="ssr:gruppe" v="veg" />
		<tag k="ssr:hovedgruppe" v="infrastruktur" />
		<tag k="ssr:stedsnr" v="1050538" />
		<tag k="ssr:type" v="adressenavn" />
	</node>
	<node lat="59.880185302954345" lon="8.624790927416031" id="-55286">
		<tag k="name" v="Telemarksgata" />
		<tag k="ssr:date" v="2019-12-27" />
		<tag k="ssr:gruppe" v="veg" />
		<tag k="ssr:hovedgruppe" v="infrastruktur" />
		<tag k="ssr:stedsnr" v="1050547" />
		<tag k="ssr:type" v="adressenavn" />
	</node>
	<node lat="59.87960886179061" lon="8.626335983114341" id="-55287">
		<tag k="name" v="Tveito alle" />
		<tag k="ssr:date" v="2019-12-27" />
		<tag k="ssr:gruppe" v="veg" />
		<tag k="ssr:hovedgruppe" v="infrastruktur" />
		<tag k="ssr:stedsnr" v="1050558" />
		<tag k="ssr:type" v="adressenavn" />
	</node>
	<node lat="59.87834331921043" lon="8.61682890096995" id="-55291">
		<tag k="name" v="Vestfjorddalsgata" />
		<tag k="ssr:date" v="2019-12-27" />
		<tag k="ssr:gruppe" v="veg" />
		<tag k="ssr:hovedgruppe" v="infrastruktur" />
		<tag k="ssr:stedsnr" v="1050563" />
		<tag k="ssr:type" v="adressenavn" />
	</node>
	<node lat="59.881664681288406" lon="8.664142149666537" id="-55296">
		<tag k="name" v="Tvergrot" />
		<tag k="ssr:date" v="2019-12-27" />
		<tag k="ssr:gruppe" v="veg" />
		<tag k="ssr:hovedgruppe" v="infrastruktur" />
		<tag k="ssr:stedsnr" v="1050569" />
		<tag k="ssr:type" v="adressenavn" />
	</node>
	<node lat="59.8809189090207" lon="8.631221827276843" id="-55299">
		<tag k="name" v="Tveitolia" />
		<tag k="ssr:date" v="2019-12-27" />
		<tag k="ssr:gruppe" v="veg" />
		<tag k="ssr:hovedgruppe" v="infrastruktur" />
		<tag k="ssr:stedsnr" v="1050573" />
		<tag k="ssr:type" v="adressenavn" />
	</node>
	<node lat="59.876895043246286" lon="8.590864034073215" id="-55301">
		<tag k="name" v="Såheimsveien" />
		<tag k="ssr:date" v="2019-12-27" />
		<tag k="ssr:gruppe" v="veg" />
		<tag k="ssr:hovedgruppe" v="infrastruktur" />
		<tag k="ssr:stedsnr" v="1050535" />
		<tag k="ssr:type" v="adressenavn" />
	</node>
	<node lat="59.87841146390815" lon="8.58922470609398" id="-55302">
		<tag k="name" v="Tjønnstadgata" />
		<tag k="ssr:date" v="2019-12-27" />
		<tag k="ssr:gruppe" v="veg" />
		<tag k="ssr:hovedgruppe" v="infrastruktur" />
		<tag k="ssr:stedsnr" v="1050597" />
		<tag k="ssr:type" v="adressenavn" />
	</node>
	<node lat="59.99160142121269" lon="8.721458970365646" id="-55304">
		<tag k="name" v="Torsetvegen" />
		<tag k="ssr:date" v="2019-12-27" />
		<tag k="ssr:gruppe" v="veg" />
		<tag k="ssr:hovedgruppe" v="infrastruktur" />
		<tag k="ssr:stedsnr" v="1050618" />
		<tag k="ssr:type" v="adressenavn" />
	</node>
	<node lat="59.878654289552834" lon="8.593848306586743" id="-55305">
		<tag k="name" v="Torget" />
		<tag k="ssr:date" v="2019-12-27" />
		<tag k="ssr:gruppe" v="veg" />
		<tag k="ssr:hovedgruppe" v="infrastruktur" />
		<tag k="ssr:stedsnr" v="1050619" />
		<tag k="ssr:type" v="adressenavn" />
	</node>
	<node lat="59.87977906487782" lon="8.608800541139894" id="-55306">
		<tag k="name" v="Sykehusveien" />
		<tag k="ssr:date" v="2019-12-27" />
		<tag k="ssr:gruppe" v="veg" />
		<tag k="ssr:hovedgruppe" v="infrastruktur" />
		<tag k="ssr:stedsnr" v="1050634" />
		<tag k="ssr:type" v="adressenavn" />
	</node>
	<node lat="59.87922892133737" lon="8.586364270898995" id="-55307">
		<tag k="name" v="Storgata" />
		<tag k="ssr:date" v="2019-12-27" />
		<tag k="ssr:gruppe" v="veg" />
		<tag k="ssr:hovedgruppe" v="infrastruktur" />
		<tag k="ssr:stedsnr" v="1050689" />
		<tag k="ssr:type" v="adressenavn" />
	</node>
	<node lat="59.880768947025715" lon="8.629900764795464" id="-55310">
		<tag k="name" v="Sverres gate" />
		<tag k="ssr:date" v="2019-12-27" />
		<tag k="ssr:gruppe" v="veg" />
		<tag k="ssr:hovedgruppe" v="infrastruktur" />
		<tag k="ssr:stedsnr" v="1050696" />
		<tag k="ssr:type" v="adressenavn" />
	</node>
	<node lat="59.878820764357776" lon="8.659023165350192" id="-55311">
		<tag k="name" v="Svaddevegen" />
		<tag k="ssr:date" v="2019-12-27" />
		<tag k="ssr:gruppe" v="veg" />
		<tag k="ssr:hovedgruppe" v="infrastruktur" />
		<tag k="ssr:stedsnr" v="1050698" />
		<tag k="ssr:type" v="adressenavn" />
	</node>
	<node lat="59.881915185160715" lon="8.680517015286133" id="-55313">
		<tag k="name" v="Svineroivegen" />
		<tag k="ssr:date" v="2019-12-27" />
		<tag k="ssr:gruppe" v="veg" />
		<tag k="ssr:hovedgruppe" v="infrastruktur" />
		<tag k="ssr:stedsnr" v="1050639" />
		<tag k="ssr:type" v="adressenavn" />
	</node>
	<node lat="59.878685196823376" lon="8.584983591278688" id="-55314">
		<tag k="name" v="Sølvvoldveien" />
		<tag k="ssr:date" v="2019-12-27" />
		<tag k="ssr:gruppe" v="veg" />
		<tag k="ssr:hovedgruppe" v="infrastruktur" />
		<tag k="ssr:stedsnr" v="1050675" />
		<tag k="ssr:type" v="adressenavn" />
	</node>
	<node lat="59.87850871590639" lon="8.590417225291178" id="-55315">
		<tag k="name" v="Storstulgata" />
		<tag k="ssr:date" v="2019-12-27" />
		<tag k="ssr:gruppe" v="veg" />
		<tag k="ssr:hovedgruppe" v="infrastruktur" />
		<tag k="ssr:stedsnr" v="1050678" />
		<tag k="ssr:type" v="adressenavn" />
	</node>
	<node lat="59.87808231214951" lon="8.621099013327207" id="-55316">
		<tag k="name" v="Østbygdens gate" />
		<tag k="ssr:date" v="2019-12-27" />
		<tag k="ssr:gruppe" v="veg" />
		<tag k="ssr:hovedgruppe" v="infrastruktur" />
		<tag k="ssr:stedsnr" v="1050877" />
		<tag k="ssr:type" v="adressenavn" />
	</node>
	<node lat="59.87834331921043" lon="8.61682890096995" id="-55317">
		<tag k="name" v="Øistein Hansens gate" />
		<tag k="ssr:date" v="2019-12-27" />
		<tag k="ssr:gruppe" v="veg" />
		<tag k="ssr:hovedgruppe" v="infrastruktur" />
		<tag k="ssr:stedsnr" v="1050879" />
		<tag k="ssr:type" v="adressenavn" />
	</node>
	<node lat="59.87965349782283" lon="8.626750633804233" id="-55318">
		<tag k="name" v="Åsmund Vinjes gate" />
		<tag k="ssr:date" v="2019-12-27" />
		<tag k="ssr:gruppe" v="veg" />
		<tag k="ssr:hovedgruppe" v="infrastruktur" />
		<tag k="ssr:stedsnr" v="1050883" />
		<tag k="ssr:type" v="adressenavn" />
	</node>
	<node lat="59.88222198584554" lon="8.675685930875986" id="-55320">
		<tag k="name" v="Øyan" />
		<tag k="ssr:date" v="2019-12-27" />
		<tag k="ssr:gruppe" v="veg" />
		<tag k="ssr:hovedgruppe" v="infrastruktur" />
		<tag k="ssr:stedsnr" v="1050885" />
		<tag k="ssr:type" v="adressenavn" />
	</node>
	<node lat="59.892911108653394" lon="8.969335935784837" id="-55321">
		<tag k="name" v="Gamle Hovinvegen" />
		<tag k="ssr:date" v="2019-12-27" />
		<tag k="ssr:gruppe" v="veg" />
		<tag k="ssr:hovedgruppe" v="infrastruktur" />
		<tag k="ssr:stedsnr" v="1073587" />
		<tag k="ssr:type" v="vegstrekning" />
	</node>
</osm>
