<?xml version="1.0" encoding="UTF-8"?>
<osm version="0.6" generator="osmapis">
	<node lat="59.99278888510468" lon="8.32922500816217" id="-35929">
		<tag k="name" v="Såte" />
		<tag k="natural" v="water" />
		<tag k="ssr:date" v="2019-12-27" />
		<tag k="ssr:gruppe" v="stilleståendeVann" />
		<tag k="ssr:hovedgruppe" v="ferskvann" />
		<tag k="ssr:stedsnr" v="229741" />
		<tag k="ssr:type" v="tjern" />
	</node>
	<node lat="60.0394888878949" lon="8.297488886043299" id="-35930">
		<tag k="name" v="Långetjønnbekken" />
		<tag k="ssr:date" v="2019-12-27" />
		<tag k="ssr:gruppe" v="rennendeVann" />
		<tag k="ssr:hovedgruppe" v="ferskvann" />
		<tag k="ssr:stedsnr" v="229823" />
		<tag k="ssr:type" v="bekk" />
		<tag k="waterway" v="stream" />
	</node>
	<node lat="60.031155556652784" lon="8.270588892169581" id="-35931">
		<tag k="name" v="Vångaren" />
		<tag k="natural" v="valley" />
		<tag k="place" v="locality" />
		<tag k="ssr:date" v="2019-12-27" />
		<tag k="ssr:gruppe" v="senkninger" />
		<tag k="ssr:hovedgruppe" v="terreng" />
		<tag k="ssr:stedsnr" v="229846" />
		<tag k="ssr:type" v="dal" />
	</node>
	<node lat="60.03879444369069" lon="8.281883339533772" id="-35932">
		<tag k="name" v="Vångarbekken" />
		<tag k="ssr:date" v="2019-12-27" />
		<tag k="ssr:gruppe" v="rennendeVann" />
		<tag k="ssr:hovedgruppe" v="ferskvann" />
		<tag k="ssr:stedsnr" v="229850" />
		<tag k="ssr:type" v="bekk" />
		<tag k="waterway" v="stream" />
	</node>
	<node lat="60.004161113485715" lon="8.419541674804098" id="-35933">
		<tag k="name" v="Nivstjønn" />
		<tag k="natural" v="water" />
		<tag k="ssr:date" v="2019-12-27" />
		<tag k="ssr:gruppe" v="stilleståendeVann" />
		<tag k="ssr:hovedgruppe" v="ferskvann" />
		<tag k="ssr:stedsnr" v="229863" />
		<tag k="ssr:type" v="tjern" />
	</node>
	<node lat="60.15218611398775" lon="8.357777775554597" id="-35934">
		<tag k="name" v="Hellervasslægret" />
		<tag k="place" v="isolated_dwelling" />
		<tag k="ssr:date" v="2019-12-27" />
		<tag k="ssr:gruppe" v="bolighus" />
		<tag k="ssr:hovedgruppe" v="bebyggelse" />
		<tag k="ssr:stedsnr" v="229951" />
		<tag k="ssr:type" v="fritidsbolig" />
	</node>
	<node lat="59.96199999893391" lon="8.508999994789521" id="-35935">
		<tag k="alt_name" v="Sandremtjønn" />
		<tag k="name" v="Sandremtjønni" />
		<tag k="natural" v="water" />
		<tag k="ssr:date" v="2019-12-27" />
		<tag k="ssr:gruppe" v="stilleståendeVann" />
		<tag k="ssr:hovedgruppe" v="ferskvann" />
		<tag k="ssr:stedsnr" v="3002" />
		<tag k="ssr:type" v="tjern" />
	</node>
	<node lat="59.95933333661947" lon="8.471830560469325" id="-35936">
		<tag k="name" v="Austitjønngryvlun" />
		<tag k="natural" v="hill" />
		<tag k="place" v="locality" />
		<tag k="ssr:date" v="2019-12-27" />
		<tag k="ssr:gruppe" v="høyder" />
		<tag k="ssr:hovedgruppe" v="terreng" />
		<tag k="ssr:stedsnr" v="3005" />
		<tag k="ssr:type" v="hei" />
	</node>
	<node lat="59.962341668287735" lon="8.493969439931012" id="-35937">
		<tag k="alt_name" v="Sandremåi" />
		<tag k="name" v="Sandremåe" />
		<tag k="ssr:date" v="2019-12-27" />
		<tag k="ssr:gruppe" v="rennendeVann" />
		<tag k="ssr:hovedgruppe" v="ferskvann" />
		<tag k="ssr:stedsnr" v="3006" />
		<tag k="ssr:type" v="bekk" />
		<tag k="waterway" v="stream" />
	</node>
	<node lat="59.97611666826008" lon="8.815416674933426" id="-35938">
		<tag k="name" v="Tinnsjå" />
		<tag k="natural" v="water" />
		<tag k="ssr:date" v="2019-12-27" />
		<tag k="ssr:gruppe" v="stilleståendeVann" />
		<tag k="ssr:hovedgruppe" v="ferskvann" />
		<tag k="ssr:stedsnr" v="3008" />
		<tag k="ssr:type" v="innsjø" />
		<tag k="water" v="lake" />
	</node>
	<node lat="59.94940000397246" lon="8.529772225643796" id="-35939">
		<tag k="alt_name" v="Løkjenuten" />
		<tag k="fixme" v="consider natural=peak for the most distinct mountains in the district" />
		<tag k="name" v="Løkjenut" />
		<tag k="natural" v="hill" />
		<tag k="place" v="locality" />
		<tag k="ssr:date" v="2019-12-27" />
		<tag k="ssr:gruppe" v="høyder" />
		<tag k="ssr:hovedgruppe" v="terreng" />
		<tag k="ssr:stedsnr" v="3013" />
		<tag k="ssr:type" v="ås" />
	</node>
	<node lat="59.97225833769979" lon="8.589388889094211" id="-35940">
		<tag k="name" v="Grysletjønn" />
		<tag k="natural" v="water" />
		<tag k="ssr:date" v="2019-12-27" />
		<tag k="ssr:gruppe" v="stilleståendeVann" />
		<tag k="ssr:hovedgruppe" v="ferskvann" />
		<tag k="ssr:stedsnr" v="3032" />
		<tag k="ssr:type" v="tjern" />
	</node>
	<node lat="59.8811305578763" lon="8.630366669648321" id="-35941">
		<tag k="alt_name" v="Tveitolii" />
		<tag k="fixme" v="consider place=suburb, village or hamlet" />
		<tag k="name" v="Tveitolia" />
		<tag k="place" v="quarter" />
		<tag k="ssr:date" v="2019-12-27" />
		<tag k="ssr:gruppe" v="bebyggelsesområder" />
		<tag k="ssr:hovedgruppe" v="bebyggelse" />
		<tag k="ssr:stedsnr" v="3124" />
		<tag k="ssr:type" v="tettbebyggelse" />
	</node>
	<node lat="59.93889722075159" lon="8.373977769371145" id="-35942">
		<tag k="fixme" v="consider natural=peak for the most distinct mountains in the district" />
		<tag k="name" v="Grottenuten" />
		<tag k="natural" v="hill" />
		<tag k="place" v="locality" />
		<tag k="ssr:date" v="2019-12-27" />
		<tag k="ssr:gruppe" v="høyder" />
		<tag k="ssr:hovedgruppe" v="terreng" />
		<tag k="ssr:stedsnr" v="3401" />
		<tag k="ssr:type" v="ås" />
	</node>
	<node lat="59.92621389191282" lon="8.216666658640916" id="-35943">
		<tag k="name" v="Grunnostjørni" />
		<tag k="natural" v="water" />
		<tag k="ssr:date" v="2019-12-27" />
		<tag k="ssr:gruppe" v="stilleståendeVann" />
		<tag k="ssr:hovedgruppe" v="ferskvann" />
		<tag k="ssr:stedsnr" v="3402" />
		<tag k="ssr:type" v="tjern" />
	</node>
	<node lat="59.92741944824749" lon="8.199125005987474" id="-35944">
		<tag k="fixme" v="consider natural=peak for the most distinct mountains in the district" />
		<tag k="name" v="Grunnospiggen" />
		<tag k="natural" v="hill" />
		<tag k="place" v="locality" />
		<tag k="ssr:date" v="2019-12-27" />
		<tag k="ssr:gruppe" v="høyder" />
		<tag k="ssr:hovedgruppe" v="terreng" />
		<tag k="ssr:stedsnr" v="3403" />
		<tag k="ssr:type" v="ås" />
	</node>
	<node lat="59.88019166352842" lon="9.067833340584423" id="-35945">
		<tag k="amenity" v="community_centre" />
		<tag k="name" v="Lonin" />
		<tag k="ssr:date" v="2019-12-27" />
		<tag k="ssr:gruppe" v="kulturinstitusjoner" />
		<tag k="ssr:hovedgruppe" v="kultur" />
		<tag k="ssr:stedsnr" v="3706" />
		<tag k="ssr:type" v="forsamlingshusKulturhus" />
	</node>
	<node lat="59.88176666967149" lon="9.016255546695254" id="-35946">
		<tag k="alt_name" v="Ondansnuten" />
		<tag k="name" v="Ondånmålnuten" />
		<tag k="natural" v="hill" />
		<tag k="place" v="locality" />
		<tag k="ssr:date" v="2019-12-27" />
		<tag k="ssr:gruppe" v="høyder" />
		<tag k="ssr:hovedgruppe" v="terreng" />
		<tag k="ssr:stedsnr" v="3709" />
		<tag k="ssr:type" v="haug" />
	</node>
	<node lat="59.88701388549568" lon="8.998119453177813" id="-35947">
		<tag k="historic" v="shieling" />
		<tag k="name" v="Olvestul" />
		<tag k="place" v="isolated_dwelling" />
		<tag k="ssr:date" v="2019-12-27" />
		<tag k="ssr:gruppe" v="gardsbebyggelse" />
		<tag k="ssr:hovedgruppe" v="bebyggelse" />
		<tag k="ssr:stedsnr" v="3725" />
		<tag k="ssr:type" v="seterStøl" />
	</node>
	<node lat="60.01956666550591" lon="8.700063883776755" id="-35948">
		<tag k="fixme" v="consider natural=peak for the most distinct mountains in the district" />
		<tag k="name" v="Torsetåsen" />
		<tag k="natural" v="hill" />
		<tag k="place" v="locality" />
		<tag k="ssr:date" v="2019-12-27" />
		<tag k="ssr:gruppe" v="høyder" />
		<tag k="ssr:hovedgruppe" v="terreng" />
		<tag k="ssr:stedsnr" v="4115" />
		<tag k="ssr:type" v="fjell" />
	</node>
	<node lat="59.99496944587826" lon="8.79179167423771" id="-35949">
		<tag k="name" v="Midtstrondbekken" />
		<tag k="ssr:date" v="2019-12-27" />
		<tag k="ssr:gruppe" v="rennendeVann" />
		<tag k="ssr:hovedgruppe" v="ferskvann" />
		<tag k="ssr:stedsnr" v="4118" />
		<tag k="ssr:type" v="bekk" />
		<tag k="waterway" v="stream" />
	</node>
	<node lat="59.99943889015278" lon="8.833477782044085" id="-35950">
		<tag k="name" v="Målarhaugen" />
		<tag k="place" v="farm" />
		<tag k="ssr:date" v="2019-12-27" />
		<tag k="ssr:gruppe" v="gardsbebyggelse" />
		<tag k="ssr:hovedgruppe" v="bebyggelse" />
		<tag k="ssr:stedsnr" v="4120" />
		<tag k="ssr:type" v="bruk" />
	</node>
	<node lat="59.867274996264634" lon="8.768116668216162" id="-35951">
		<tag k="alt_name" v="Sløkedalen" />
		<tag k="name" v="Sløkjedalen" />
		<tag k="natural" v="valley" />
		<tag k="place" v="locality" />
		<tag k="ssr:date" v="2019-12-27" />
		<tag k="ssr:gruppe" v="senkninger" />
		<tag k="ssr:hovedgruppe" v="terreng" />
		<tag k="ssr:stedsnr" v="4165" />
		<tag k="ssr:type" v="dal" />
	</node>
	<node lat="59.98091944541051" lon="8.630922219205122" id="-35952">
		<tag k="fixme" v="multiple name tags, choose one and add the other to alt_name" />
		<tag k="name" v="Store Finntjønnuten;Finntjønnutan" />
		<tag k="natural" v="hill" />
		<tag k="place" v="locality" />
		<tag k="ssr:date" v="2019-12-27" />
		<tag k="ssr:gruppe" v="høyder" />
		<tag k="ssr:hovedgruppe" v="terreng" />
		<tag k="ssr:stedsnr" v="4016" />
		<tag k="ssr:type" v="høyde" />
	</node>
	<node lat="59.98061944332173" lon="8.525102777607017" id="-35953">
		<tag k="alt_name" v="Flottetjønn, vesle" />
		<tag k="name" v="Vesle Fottetjønn" />
		<tag k="natural" v="water" />
		<tag k="ssr:date" v="2019-12-27" />
		<tag k="ssr:gruppe" v="stilleståendeVann" />
		<tag k="ssr:hovedgruppe" v="ferskvann" />
		<tag k="ssr:stedsnr" v="4020" />
		<tag k="ssr:type" v="tjern" />
	</node>
	<node lat="59.94231944036018" lon="8.642055552476341" id="-35954">
		<tag k="name" v="Jåntjønnbekken" />
		<tag k="ssr:date" v="2019-12-27" />
		<tag k="ssr:gruppe" v="rennendeVann" />
		<tag k="ssr:hovedgruppe" v="ferskvann" />
		<tag k="ssr:stedsnr" v="4032" />
		<tag k="ssr:type" v="bekk" />
		<tag k="waterway" v="stream" />
	</node>
	<node lat="59.98818333385346" lon="8.478647214239086" id="-35955">
		<tag k="name" v="Fitisettjønn" />
		<tag k="natural" v="water" />
		<tag k="ssr:date" v="2019-12-27" />
		<tag k="ssr:gruppe" v="stilleståendeVann" />
		<tag k="ssr:hovedgruppe" v="ferskvann" />
		<tag k="ssr:stedsnr" v="4096" />
		<tag k="ssr:type" v="tjern" />
	</node>
	<node lat="59.91315833328836" lon="9.010358327056741" id="-35956">
		<tag k="alt_name" v="Nedre Espeset" />
		<tag k="fixme" v="consider place=hamlet" />
		<tag k="name" v="Espeset" />
		<tag k="place" v="farm" />
		<tag k="ssr:date" v="2019-12-27" />
		<tag k="ssr:gruppe" v="gardsbebyggelse" />
		<tag k="ssr:hovedgruppe" v="bebyggelse" />
		<tag k="ssr:stedsnr" v="4522" />
		<tag k="ssr:type" v="gard" />
	</node>
	<node lat="59.897333332793934" lon="8.958769452757977" id="-35957">
		<tag k="alt_name" v="Lii" />
		<tag k="historic" v="shieling" />
		<tag k="name" v="Lie" />
		<tag k="place" v="isolated_dwelling" />
		<tag k="ssr:date" v="2019-12-27" />
		<tag k="ssr:gruppe" v="gardsbebyggelse" />
		<tag k="ssr:hovedgruppe" v="bebyggelse" />
		<tag k="ssr:stedsnr" v="4504" />
		<tag k="ssr:type" v="seterStøl" />
	</node>
	<node lat="59.908883332778295" lon="9.038375006896405" id="-35958">
		<tag k="historic" v="shieling" />
		<tag k="name" v="Stæne" />
		<tag k="place" v="isolated_dwelling" />
		<tag k="ssr:date" v="2019-12-27" />
		<tag k="ssr:gruppe" v="gardsbebyggelse" />
		<tag k="ssr:hovedgruppe" v="bebyggelse" />
		<tag k="ssr:stedsnr" v="4523" />
		<tag k="ssr:type" v="seterStøl" />
	</node>
	<node lat="59.91127705821683" lon="9.182668180768058" id="-35959">
		<tag k="alt_name" v="Kroktjørnan" />
		<tag k="name" v="Kroktjønnan" />
		<tag k="natural" v="water" />
		<tag k="ssr:date" v="2019-12-27" />
		<tag k="ssr:gruppe" v="stilleståendeVann" />
		<tag k="ssr:hovedgruppe" v="ferskvann" />
		<tag k="ssr:stedsnr" v="4511" />
		<tag k="ssr:type" v="tjern" />
	</node>
	<node lat="59.919561109479176" lon="9.005508340326633" id="-35960">
		<tag k="alt_name" v="Skardstålan" />
		<tag k="historic" v="shieling" />
		<tag k="name" v="Skarstul" />
		<tag k="place" v="isolated_dwelling" />
		<tag k="ssr:date" v="2019-12-27" />
		<tag k="ssr:gruppe" v="gardsbebyggelse" />
		<tag k="ssr:hovedgruppe" v="bebyggelse" />
		<tag k="ssr:stedsnr" v="4536" />
		<tag k="ssr:type" v="seterStøl" />
	</node>
	<node lat="59.93045555532064" lon="8.897152771977195" id="-35961">
		<tag k="name" v="Fagerberg" />
		<tag k="place" v="farm" />
		<tag k="ssr:date" v="2019-12-27" />
		<tag k="ssr:gruppe" v="gardsbebyggelse" />
		<tag k="ssr:hovedgruppe" v="bebyggelse" />
		<tag k="ssr:stedsnr" v="4543" />
		<tag k="ssr:type" v="bruk" />
	</node>
	<node lat="59.93431388696942" lon="9.145630546882249" id="-35962">
		<tag k="alt_name" v="Ulvedalstjørni" />
		<tag k="name" v="Ulvstjønn" />
		<tag k="natural" v="water" />
		<tag k="ssr:date" v="2019-12-27" />
		<tag k="ssr:gruppe" v="stilleståendeVann" />
		<tag k="ssr:hovedgruppe" v="ferskvann" />
		<tag k="ssr:stedsnr" v="4544" />
		<tag k="ssr:type" v="tjern" />
	</node>
	<node lat="59.89460000098286" lon="8.86075832919411" id="-35963">
		<tag k="alt_name" v="Trolltjørn" />
		<tag k="name" v="Trolltjønn" />
		<tag k="natural" v="water" />
		<tag k="ssr:date" v="2019-12-27" />
		<tag k="ssr:gruppe" v="stilleståendeVann" />
		<tag k="ssr:hovedgruppe" v="ferskvann" />
		<tag k="ssr:stedsnr" v="4402" />
		<tag k="ssr:type" v="tjern" />
	</node>
	<node lat="59.865711110722366" lon="8.198566660086595" id="-35964">
		<tag k="alt_name" v="Midtlii" />
		<tag k="name" v="Midtlie" />
		<tag k="place" v="isolated_dwelling" />
		<tag k="ssr:date" v="2019-12-27" />
		<tag k="ssr:gruppe" v="bolighus" />
		<tag k="ssr:hovedgruppe" v="bebyggelse" />
		<tag k="ssr:stedsnr" v="4469" />
		<tag k="ssr:type" v="fritidsbolig" />
	</node>
	<node lat="59.872372218327875" lon="8.271836111054588" id="-35965">
		<tag k="name" v="Hortå" />
		<tag k="ssr:date" v="2019-12-27" />
		<tag k="ssr:gruppe" v="rennendeVann" />
		<tag k="ssr:hovedgruppe" v="ferskvann" />
		<tag k="ssr:stedsnr" v="4478" />
		<tag k="ssr:type" v="elv" />
		<tag k="waterway" v="river" />
	</node>
	<node lat="59.84427500358862" lon="8.192322224003" id="-35966">
		<tag k="name" v="Sundet" />
		<tag k="natural" v="strait" />
		<tag k="ssr:date" v="2019-12-27" />
		<tag k="ssr:gruppe" v="ferskvannskontur" />
		<tag k="ssr:hovedgruppe" v="ferskvann" />
		<tag k="ssr:stedsnr" v="4482" />
		<tag k="ssr:type" v="sund" />
	</node>
	<node lat="59.849324998145946" lon="9.142755562143273" id="-35967">
		<tag k="name" v="Storebekk" />
		<tag k="ssr:date" v="2019-12-27" />
		<tag k="ssr:gruppe" v="rennendeVann" />
		<tag k="ssr:hovedgruppe" v="ferskvann" />
		<tag k="ssr:stedsnr" v="4670" />
		<tag k="ssr:type" v="bekk" />
		<tag k="waterway" v="stream" />
	</node>
	<node lat="59.84864444658443" lon="9.176644436776824" id="-35968">
		<tag k="name" v="Flottin" />
		<tag k="place" v="locality" />
		<tag k="ssr:date" v="2019-12-27" />
		<tag k="ssr:gruppe" v="flater" />
		<tag k="ssr:hovedgruppe" v="terreng" />
		<tag k="ssr:stedsnr" v="4671" />
		<tag k="ssr:type" v="slette" />
	</node>
	<node lat="59.8577111143481" lon="9.01589166872016" id="-35969">
		<tag k="fixme" v="multiple name tags, choose one and add the other to alt_name" />
		<tag k="name" v="Mellom Tveito;Tveito, midtre" />
		<tag k="place" v="farm" />
		<tag k="ssr:date" v="2019-12-27" />
		<tag k="ssr:gruppe" v="gardsbebyggelse" />
		<tag k="ssr:hovedgruppe" v="bebyggelse" />
		<tag k="ssr:stedsnr" v="4681" />
		<tag k="ssr:type" v="bruk" />
	</node>
	<node lat="59.85127222236827" lon="9.065836107495016" id="-35970">
		<tag k="alt_name" v="Skivdalsåsen" />
		<tag k="fixme" v="consider natural=peak for the most distinct mountains in the district" />
		<tag k="name" v="Skibdalsåsen" />
		<tag k="natural" v="hill" />
		<tag k="place" v="locality" />
		<tag k="ssr:date" v="2019-12-27" />
		<tag k="ssr:gruppe" v="høyder" />
		<tag k="ssr:hovedgruppe" v="terreng" />
		<tag k="ssr:stedsnr" v="4685" />
		<tag k="ssr:type" v="ås" />
	</node>
	<node lat="59.85319167070596" lon="9.053955549177784" id="-35971">
		<tag k="name" v="Berg" />
		<tag k="place" v="farm" />
		<tag k="ssr:date" v="2019-12-27" />
		<tag k="ssr:gruppe" v="gardsbebyggelse" />
		<tag k="ssr:hovedgruppe" v="bebyggelse" />
		<tag k="ssr:stedsnr" v="4686" />
		<tag k="ssr:type" v="bruk" />
	</node>
	<node lat="60.13925555362083" lon="8.574849999949137" id="-35972">
		<tag k="alt_name" v="Heggje" />
		<tag k="name" v="Hegge" />
		<tag k="place" v="isolated_dwelling" />
		<tag k="ssr:date" v="2019-12-27" />
		<tag k="ssr:gruppe" v="bolighus" />
		<tag k="ssr:hovedgruppe" v="bebyggelse" />
		<tag k="ssr:stedsnr" v="4804" />
		<tag k="ssr:type" v="fritidsbolig" />
	</node>
	<node lat="60.12623333066734" lon="8.632408332543953" id="-35973">
		<tag k="alt_name" v="Lislehovde" />
		<tag k="name" v="Lislehovda" />
		<tag k="natural" v="hill" />
		<tag k="place" v="locality" />
		<tag k="ssr:date" v="2019-12-27" />
		<tag k="ssr:gruppe" v="høyder" />
		<tag k="ssr:hovedgruppe" v="terreng" />
		<tag k="ssr:stedsnr" v="4807" />
		<tag k="ssr:type" v="haug" />
	</node>
	<node lat="60.129713892755426" lon="8.664713890200794" id="-35974">
		<tag k="alt_name" v="Vollan" />
		<tag k="name" v="Volland" />
		<tag k="place" v="farm" />
		<tag k="ssr:date" v="2019-12-27" />
		<tag k="ssr:gruppe" v="gardsbebyggelse" />
		<tag k="ssr:hovedgruppe" v="bebyggelse" />
		<tag k="ssr:stedsnr" v="4809" />
		<tag k="ssr:type" v="bruk" />
	</node>
	<node lat="59.85559166693335" lon="8.480019448611046" id="-35975">
		<tag k="fixme" v="consider natural=peak for the most distinct mountains in the district" />
		<tag k="name" v="Elgshovda" />
		<tag k="natural" v="hill" />
		<tag k="place" v="locality" />
		<tag k="ssr:date" v="2019-12-27" />
		<tag k="ssr:gruppe" v="høyder" />
		<tag k="ssr:hovedgruppe" v="terreng" />
		<tag k="ssr:stedsnr" v="4861" />
		<tag k="ssr:type" v="ås" />
	</node>
	<node lat="59.85809722259901" lon="8.489252774680931" id="-35976">
		<tag k="alt_name" v="Månelii" />
		<tag k="name" v="Vesle Månelie" />
		<tag k="place" v="isolated_dwelling" />
		<tag k="ssr:date" v="2019-12-27" />
		<tag k="ssr:gruppe" v="bolighus" />
		<tag k="ssr:hovedgruppe" v="bebyggelse" />
		<tag k="ssr:stedsnr" v="4863" />
		<tag k="ssr:type" v="fritidsbolig" />
	</node>
	<node lat="59.85095277419758" lon="8.827341671184904" id="-35977">
		<tag k="alt_name" v="Staulfjellet, øvre" />
		<tag k="name" v="Øvrestulfjell" />
		<tag k="natural" v="hill" />
		<tag k="place" v="locality" />
		<tag k="ssr:date" v="2019-12-27" />
		<tag k="ssr:gruppe" v="høyder" />
		<tag k="ssr:hovedgruppe" v="terreng" />
		<tag k="ssr:stedsnr" v="4864" />
		<tag k="ssr:type" v="høyde" />
	</node>
	<node lat="59.843588891526835" lon="8.48242222780741" id="-35978">
		<tag k="name" v="Såemsbotn" />
		<tag k="natural" v="water" />
		<tag k="ssr:date" v="2019-12-27" />
		<tag k="ssr:gruppe" v="stilleståendeVann" />
		<tag k="ssr:hovedgruppe" v="ferskvann" />
		<tag k="ssr:stedsnr" v="4865" />
		<tag k="ssr:type" v="vann" />
		<tag k="water" v="lake" />
	</node>
	<node lat="59.86155555744388" lon="9.009736109981803" id="-35979">
		<tag k="name" v="Dommerud" />
		<tag k="place" v="farm" />
		<tag k="ssr:date" v="2019-12-27" />
		<tag k="ssr:gruppe" v="gardsbebyggelse" />
		<tag k="ssr:hovedgruppe" v="bebyggelse" />
		<tag k="ssr:stedsnr" v="4701" />
		<tag k="ssr:type" v="bruk" />
	</node>
	<node lat="59.96819167011246" lon="8.98181943594561" id="-35980">
		<tag k="alt_name" v="Longevatn" />
		<tag k="name" v="Långevatn" />
		<tag k="natural" v="water" />
		<tag k="ssr:date" v="2019-12-27" />
		<tag k="ssr:gruppe" v="stilleståendeVann" />
		<tag k="ssr:hovedgruppe" v="ferskvann" />
		<tag k="ssr:stedsnr" v="4902" />
		<tag k="ssr:type" v="vann" />
		<tag k="water" v="lake" />
	</node>
	<node lat="59.96961389099566" lon="9.035336103248682" id="-35981">
		<tag k="fixme" v="consider natural=peak for the most distinct mountains in the district" />
		<tag k="name" v="Skinnatten" />
		<tag k="natural" v="hill" />
		<tag k="place" v="locality" />
		<tag k="ssr:date" v="2019-12-27" />
		<tag k="ssr:gruppe" v="høyder" />
		<tag k="ssr:hovedgruppe" v="terreng" />
		<tag k="ssr:stedsnr" v="4906" />
		<tag k="ssr:type" v="ås" />
	</node>
	<node lat="59.96976666518935" lon="8.993352775720787" id="-35982">
		<tag k="alt_name" v="Kåsabui" />
		<tag k="historic" v="shieling" />
		<tag k="name" v="Kåsåbue" />
		<tag k="place" v="isolated_dwelling" />
		<tag k="ssr:date" v="2019-12-27" />
		<tag k="ssr:gruppe" v="gardsbebyggelse" />
		<tag k="ssr:hovedgruppe" v="bebyggelse" />
		<tag k="ssr:stedsnr" v="4909" />
		<tag k="ssr:type" v="seterStøl" />
	</node>
	<node lat="59.99652778015435" lon="8.976852771734109" id="-35983">
		<tag k="historic" v="shieling" />
		<tag k="name" v="Nilsbu" />
		<tag k="place" v="isolated_dwelling" />
		<tag k="ssr:date" v="2019-12-27" />
		<tag k="ssr:gruppe" v="gardsbebyggelse" />
		<tag k="ssr:hovedgruppe" v="bebyggelse" />
		<tag k="ssr:stedsnr" v="4924" />
		<tag k="ssr:type" v="seterStøl" />
	</node>
	<node lat="60.07189444580606" lon="8.344775001680535" id="-35984">
		<tag k="fixme" v="consider natural=peak for the most distinct mountains in the district" />
		<tag k="name" v="Gryvlenut" />
		<tag k="natural" v="hill" />
		<tag k="place" v="locality" />
		<tag k="ssr:date" v="2019-12-27" />
		<tag k="ssr:gruppe" v="høyder" />
		<tag k="ssr:hovedgruppe" v="terreng" />
		<tag k="ssr:stedsnr" v="4925" />
		<tag k="ssr:type" v="ås" />
	</node>
	<node lat="60.05381944325713" lon="8.219500008371933" id="-35985">
		<tag k="name" v="Geitebuhovde" />
		<tag k="natural" v="hill" />
		<tag k="place" v="locality" />
		<tag k="ssr:date" v="2019-12-27" />
		<tag k="ssr:gruppe" v="høyder" />
		<tag k="ssr:hovedgruppe" v="terreng" />
		<tag k="ssr:stedsnr" v="4934" />
		<tag k="ssr:type" v="berg" />
	</node>
	<node lat="59.99122777361979" lon="8.851608326792384" id="-35986">
		<tag k="alt_name" v="Rudningen" />
		<tag k="name" v="Runningen" />
		<tag k="place" v="isolated_dwelling" />
		<tag k="ssr:date" v="2019-12-27" />
		<tag k="ssr:gruppe" v="bolighus" />
		<tag k="ssr:hovedgruppe" v="bebyggelse" />
		<tag k="ssr:stedsnr" v="4945" />
		<tag k="ssr:type" v="fritidsbolig" />
	</node>
	<node lat="60.00852499646633" lon="8.960647219928953" id="-35987">
		<tag k="alt_name" v="Elgstjørni" />
		<tag k="name" v="Elgstjønn" />
		<tag k="natural" v="water" />
		<tag k="ssr:date" v="2019-12-27" />
		<tag k="ssr:gruppe" v="stilleståendeVann" />
		<tag k="ssr:hovedgruppe" v="ferskvann" />
		<tag k="ssr:stedsnr" v="5313" />
		<tag k="ssr:type" v="tjern" />
	</node>
	<node lat="60.02510833374429" lon="8.906308339765635" id="-35988">
		<tag k="alt_name" v="Damtjørni" />
		<tag k="name" v="Damtjønn" />
		<tag k="natural" v="water" />
		<tag k="ssr:date" v="2019-12-27" />
		<tag k="ssr:gruppe" v="stilleståendeVann" />
		<tag k="ssr:hovedgruppe" v="ferskvann" />
		<tag k="ssr:stedsnr" v="5407" />
		<tag k="ssr:type" v="tjern" />
	</node>
	<node lat="60.061594446163525" lon="8.860472219556721" id="-35989">
		<tag k="historic" v="shieling" />
		<tag k="name" v="Myran" />
		<tag k="place" v="isolated_dwelling" />
		<tag k="ssr:date" v="2019-12-27" />
		<tag k="ssr:gruppe" v="gardsbebyggelse" />
		<tag k="ssr:hovedgruppe" v="bebyggelse" />
		<tag k="ssr:stedsnr" v="5626" />
		<tag k="ssr:type" v="seterStøl" />
	</node>
	<node lat="60.086230559005166" lon="8.55834445336016" id="-35990">
		<tag k="name" v="Nystaul" />
		<tag k="place" v="isolated_dwelling" />
		<tag k="ssr:date" v="2019-12-27" />
		<tag k="ssr:gruppe" v="bolighus" />
		<tag k="ssr:hovedgruppe" v="bebyggelse" />
		<tag k="ssr:stedsnr" v="5809" />
		<tag k="ssr:type" v="fritidsbolig" />
	</node>
	<node lat="60.07156944044289" lon="8.698452778490395" id="-35991">
		<tag k="name" v="Gausetdalen" />
		<tag k="natural" v="valley" />
		<tag k="place" v="locality" />
		<tag k="ssr:date" v="2019-12-27" />
		<tag k="ssr:gruppe" v="senkninger" />
		<tag k="ssr:hovedgruppe" v="terreng" />
		<tag k="ssr:stedsnr" v="5820" />
		<tag k="ssr:type" v="dal" />
	</node>
	<node lat="60.07778889212584" lon="8.610088888866665" id="-35992">
		<tag k="alt_name" v="Lågerjo" />
		<tag k="name" v="Lågarrjo" />
		<tag k="place" v="isolated_dwelling" />
		<tag k="ssr:date" v="2019-12-27" />
		<tag k="ssr:gruppe" v="bolighus" />
		<tag k="ssr:hovedgruppe" v="bebyggelse" />
		<tag k="ssr:stedsnr" v="5826" />
		<tag k="ssr:type" v="fritidsbolig" />
	</node>
	<node lat="60.10501944819481" lon="8.414080562178265" id="-35993">
		<tag k="name" v="Ljostjønn" />
		<tag k="natural" v="water" />
		<tag k="ssr:date" v="2021-06-08" />
		<tag k="ssr:gruppe" v="stilleståendeVann" />
		<tag k="ssr:hovedgruppe" v="ferskvann" />
		<tag k="ssr:stedsnr" v="5865" />
		<tag k="ssr:type" v="tjern" />
	</node>
	<node lat="60.09984149130484" lon="8.267518330373873" id="-35994">
		<tag k="name" v="Synken" />
		<tag k="place" v="locality" />
		<tag k="ssr:date" v="2020-02-03" />
		<tag k="ssr:gruppe" v="gardsbebyggelse" />
		<tag k="ssr:hovedgruppe" v="bebyggelse" />
		<tag k="ssr:stedsnr" v="5868" />
		<tag k="ssr:type" v="byggForJordbrukFiskeOgFangst" />
	</node>
	<node lat="60.09760277365617" lon="8.1620333323828" id="-35995">
		<tag k="name" v="Bunuten" />
		<tag k="natural" v="hill" />
		<tag k="place" v="locality" />
		<tag k="ssr:date" v="2019-12-27" />
		<tag k="ssr:gruppe" v="høyder" />
		<tag k="ssr:hovedgruppe" v="terreng" />
		<tag k="ssr:stedsnr" v="5869" />
		<tag k="ssr:type" v="berg" />
	</node>
	<node lat="60.09397500446187" lon="8.171511107697823" id="-35996">
		<tag k="name" v="Sudfjorden" />
		<tag k="natural" v="water" />
		<tag k="ssr:date" v="2019-12-27" />
		<tag k="ssr:gruppe" v="stilleståendeVann" />
		<tag k="ssr:hovedgruppe" v="ferskvann" />
		<tag k="ssr:stedsnr" v="5872" />
		<tag k="ssr:type" v="vann" />
		<tag k="water" v="lake" />
	</node>
	<node lat="60.07571667110817" lon="8.181727774399702" id="-35997">
		<tag k="name" v="Vedetjønn" />
		<tag k="natural" v="water" />
		<tag k="ssr:date" v="2021-06-08" />
		<tag k="ssr:gruppe" v="stilleståendeVann" />
		<tag k="ssr:hovedgruppe" v="ferskvann" />
		<tag k="ssr:stedsnr" v="5879" />
		<tag k="ssr:type" v="tjern" />
	</node>
	<node lat="60.07731666356926" lon="8.156258329632697" id="-35998">
		<tag k="name" v="Kverven" />
		<tag k="natural" v="valley" />
		<tag k="place" v="locality" />
		<tag k="ssr:date" v="2019-12-27" />
		<tag k="ssr:gruppe" v="senkninger" />
		<tag k="ssr:hovedgruppe" v="terreng" />
		<tag k="ssr:stedsnr" v="5880" />
		<tag k="ssr:type" v="botn" />
	</node>
	<node lat="60.0477500013503" lon="8.772316673791124" id="-35999">
		<tag k="name" v="Natten" />
		<tag k="natural" v="hill" />
		<tag k="place" v="locality" />
		<tag k="ssr:date" v="2019-12-27" />
		<tag k="ssr:gruppe" v="høyder" />
		<tag k="ssr:hovedgruppe" v="terreng" />
		<tag k="ssr:stedsnr" v="5759" />
		<tag k="ssr:type" v="høyde" />
	</node>
	<node lat="60.027799997215475" lon="8.554675008029548" id="-36000">
		<tag k="alt_name" v="Gjerdalen, gamle" />
		<tag k="historic" v="shieling" />
		<tag k="name" v="Gamle Gjerdalen" />
		<tag k="place" v="isolated_dwelling" />
		<tag k="ssr:date" v="2019-12-27" />
		<tag k="ssr:gruppe" v="gardsbebyggelse" />
		<tag k="ssr:hovedgruppe" v="bebyggelse" />
		<tag k="ssr:stedsnr" v="5767" />
		<tag k="ssr:type" v="seterStøl" />
	</node>
	<node lat="60.01786388917803" lon="8.615252773439996" id="-36001">
		<tag k="name" v="Ålykkja" />
		<tag k="place" v="locality" />
		<tag k="ssr:date" v="2019-12-27" />
		<tag k="ssr:gruppe" v="gardsbebyggelse" />
		<tag k="ssr:hovedgruppe" v="bebyggelse" />
		<tag k="ssr:stedsnr" v="5775" />
		<tag k="ssr:type" v="byggForJordbrukFiskeOgFangst" />
	</node>
	<node lat="60.06357500259015" lon="8.264016674114377" id="-36002">
		<tag k="name" v="Sprogstangan" />
		<tag k="natural" v="cape" />
		<tag k="ssr:date" v="2021-06-08" />
		<tag k="ssr:gruppe" v="ferskvannskontur" />
		<tag k="ssr:hovedgruppe" v="ferskvann" />
		<tag k="ssr:stedsnr" v="21136" />
		<tag k="ssr:type" v="nes" />
	</node>
	<node lat="60.13656110829074" lon="8.329880563062645" id="-36003">
		<tag k="name" v="Vesle Hellersvatn" />
		<tag k="natural" v="water" />
		<tag k="ssr:date" v="2021-06-08" />
		<tag k="ssr:gruppe" v="stilleståendeVann" />
		<tag k="ssr:hovedgruppe" v="ferskvann" />
		<tag k="ssr:stedsnr" v="21145" />
		<tag k="ssr:type" v="vann" />
		<tag k="water" v="lake" />
	</node>
	<node lat="59.989327776156834" lon="8.76931111248661" id="-36004">
		<tag k="name" v="Mårvik" />
		<tag k="natural" v="bay" />
		<tag k="ssr:date" v="2019-12-27" />
		<tag k="ssr:gruppe" v="ferskvannskontur" />
		<tag k="ssr:hovedgruppe" v="ferskvann" />
		<tag k="ssr:stedsnr" v="27308" />
		<tag k="ssr:type" v="vik" />
	</node>
	<node lat="59.8387333337651" lon="8.32581111952796" id="-36005">
		<tag k="historic" v="shieling" />
		<tag k="name" v="Storli" />
		<tag k="place" v="isolated_dwelling" />
		<tag k="ssr:date" v="2019-12-27" />
		<tag k="ssr:gruppe" v="gardsbebyggelse" />
		<tag k="ssr:hovedgruppe" v="bebyggelse" />
		<tag k="ssr:stedsnr" v="32401" />
		<tag k="ssr:type" v="seterStøl" />
	</node>
	<node lat="59.84250277967276" lon="8.324430552001314" id="-36006">
		<tag k="name" v="Nuten" />
		<tag k="place" v="locality" />
		<tag k="ssr:date" v="2019-12-27" />
		<tag k="ssr:gruppe" v="bolighus" />
		<tag k="ssr:hovedgruppe" v="bebyggelse" />
		<tag k="ssr:stedsnr" v="32407" />
		<tag k="ssr:type" v="gammelBosettingsplass" />
	</node>
	<node lat="59.84152499990325" lon="8.324058335744255" id="-36007">
		<tag k="name" v="Heitjønnbekken" />
		<tag k="ssr:date" v="2019-12-27" />
		<tag k="ssr:gruppe" v="rennendeVann" />
		<tag k="ssr:hovedgruppe" v="ferskvann" />
		<tag k="ssr:stedsnr" v="32409" />
		<tag k="ssr:type" v="bekk" />
		<tag k="waterway" v="stream" />
	</node>
	<node lat="59.860791662740134" lon="8.362299991748623" id="-36008">
		<tag k="name" v="Vaulie" />
		<tag k="natural" v="slope" />
		<tag k="place" v="locality" />
		<tag k="ssr:date" v="2019-12-27" />
		<tag k="ssr:gruppe" v="skråninger" />
		<tag k="ssr:hovedgruppe" v="terreng" />
		<tag k="ssr:stedsnr" v="32915" />
		<tag k="ssr:type" v="li" />
	</node>
	<node lat="59.85488611004059" lon="8.39959721487021" id="-36009">
		<tag k="name" v="Deildalen" />
		<tag k="natural" v="valley" />
		<tag k="place" v="locality" />
		<tag k="ssr:date" v="2019-12-27" />
		<tag k="ssr:gruppe" v="senkninger" />
		<tag k="ssr:hovedgruppe" v="terreng" />
		<tag k="ssr:stedsnr" v="33202" />
		<tag k="ssr:type" v="dal" />
	</node>
	<node lat="60.00562881913449" lon="8.747040224722399" id="-36010">
		<tag k="name" v="Espeset" />
		<tag k="place" v="locality" />
		<tag k="ssr:date" v="2021-12-15" />
		<tag k="ssr:gruppe" v="kulturminner" />
		<tag k="ssr:hovedgruppe" v="kultur" />
		<tag k="ssr:stedsnr" v="33278" />
		<tag k="ssr:type" v="annenKulturdetalj" />
	</node>
	<node lat="59.964424995587684" lon="8.760988884198229" id="-36011">
		<tag k="name" v="Stavedalen" />
		<tag k="natural" v="valley" />
		<tag k="place" v="locality" />
		<tag k="ssr:date" v="2019-12-27" />
		<tag k="ssr:gruppe" v="senkninger" />
		<tag k="ssr:hovedgruppe" v="terreng" />
		<tag k="ssr:stedsnr" v="33584" />
		<tag k="ssr:type" v="dal" />
	</node>
	<node lat="59.84091666905137" lon="8.418855563933239" id="-36012">
		<tag k="historic" v="shieling" />
		<tag k="name" v="Lia" />
		<tag k="place" v="isolated_dwelling" />
		<tag k="ssr:date" v="2019-12-27" />
		<tag k="ssr:gruppe" v="gardsbebyggelse" />
		<tag k="ssr:hovedgruppe" v="bebyggelse" />
		<tag k="ssr:stedsnr" v="33619" />
		<tag k="ssr:type" v="seterStøl" />
	</node>
	<node lat="59.985230557837575" lon="8.723852778323623" id="-36013">
		<tag k="name" v="Fossheim" />
		<tag k="place" v="farm" />
		<tag k="ssr:date" v="2019-12-27" />
		<tag k="ssr:gruppe" v="gardsbebyggelse" />
		<tag k="ssr:hovedgruppe" v="bebyggelse" />
		<tag k="ssr:stedsnr" v="33666" />
		<tag k="ssr:type" v="bruk" />
	</node>
	<node lat="59.853519446683066" lon="8.462277773570264" id="-36014">
		<tag k="historic" v="shieling" />
		<tag k="name" v="Måneli" />
		<tag k="place" v="isolated_dwelling" />
		<tag k="ssr:date" v="2019-12-27" />
		<tag k="ssr:gruppe" v="gardsbebyggelse" />
		<tag k="ssr:hovedgruppe" v="bebyggelse" />
		<tag k="ssr:stedsnr" v="33668" />
		<tag k="ssr:type" v="seterStøl" />
	</node>
	<node lat="59.97457778160789" lon="8.76717222394742" id="-36015">
		<tag k="name" v="Sveinskås" />
		<tag k="place" v="locality" />
		<tag k="ssr:date" v="2019-12-27" />
		<tag k="ssr:gruppe" v="bolighus" />
		<tag k="ssr:hovedgruppe" v="bebyggelse" />
		<tag k="ssr:stedsnr" v="33669" />
		<tag k="ssr:type" v="gammelBosettingsplass" />
	</node>
	<node lat="59.970902778672155" lon="8.653841666231429" id="-36016">
		<tag k="name" v="Knutstaulbekken" />
		<tag k="ssr:date" v="2019-12-27" />
		<tag k="ssr:gruppe" v="rennendeVann" />
		<tag k="ssr:hovedgruppe" v="ferskvann" />
		<tag k="ssr:stedsnr" v="33802" />
		<tag k="ssr:type" v="bekk" />
		<tag k="waterway" v="stream" />
	</node>
	<node lat="59.95053332983512" lon="8.445100001110275" id="-36017">
		<tag k="highway" v="path" />
		<tag k="name" v="Turistslepa" />
		<tag k="ssr:date" v="2019-12-27" />
		<tag k="ssr:gruppe" v="veg" />
		<tag k="ssr:hovedgruppe" v="infrastruktur" />
		<tag k="ssr:stedsnr" v="33762" />
		<tag k="ssr:type" v="sti" />
	</node>
	<node lat="59.96032500230646" lon="8.501250000757782" id="-36018">
		<tag k="man_made" v="cairn" />
		<tag k="name" v="Greven" />
		<tag k="place" v="locality" />
		<tag k="ssr:date" v="2019-12-27" />
		<tag k="ssr:gruppe" v="navigasjon" />
		<tag k="ssr:hovedgruppe" v="infrastruktur" />
		<tag k="ssr:stedsnr" v="34117" />
		<tag k="ssr:type" v="varde" />
	</node>
	<node lat="59.87781944134689" lon="8.790377785968557" id="-36019">
		<tag k="name" v="Vardehovet" />
		<tag k="natural" v="hill" />
		<tag k="place" v="locality" />
		<tag k="ssr:date" v="2019-12-27" />
		<tag k="ssr:gruppe" v="høyder" />
		<tag k="ssr:hovedgruppe" v="terreng" />
		<tag k="ssr:stedsnr" v="34118" />
		<tag k="ssr:type" v="haug" />
	</node>
	<node lat="59.87285000168876" lon="8.482638891941678" id="-36020">
		<tag k="name" v="Kvilingstadflåte" />
		<tag k="place" v="locality" />
		<tag k="ssr:date" v="2019-12-27" />
		<tag k="ssr:gruppe" v="kulturminner" />
		<tag k="ssr:hovedgruppe" v="kultur" />
		<tag k="ssr:stedsnr" v="33861" />
		<tag k="ssr:type" v="annenKulturdetalj" />
	</node>
	<node lat="59.975861113660955" lon="8.713033332916904" id="-36021">
		<tag k="name" v="Gravin" />
		<tag k="place" v="locality" />
		<tag k="ssr:date" v="2019-12-27" />
		<tag k="ssr:gruppe" v="bolighus" />
		<tag k="ssr:hovedgruppe" v="bebyggelse" />
		<tag k="ssr:stedsnr" v="33868" />
		<tag k="ssr:type" v="gammelBosettingsplass" />
	</node>
	<node lat="59.880949995938536" lon="8.665608338502611" id="-36022">
		<tag k="name" v="Svadde industriområde" />
		<tag k="place" v="quarter" />
		<tag k="ssr:date" v="2019-12-27" />
		<tag k="ssr:gruppe" v="bebyggelsesområder" />
		<tag k="ssr:hovedgruppe" v="bebyggelse" />
		<tag k="ssr:stedsnr" v="34360" />
		<tag k="ssr:type" v="industriområde" />
	</node>
	<node lat="59.879280552640786" lon="8.629775008294006" id="-36023">
		<tag k="name" v="Tveitotjønna" />
		<tag k="natural" v="water" />
		<tag k="ssr:date" v="2019-12-27" />
		<tag k="ssr:gruppe" v="stilleståendeVann" />
		<tag k="ssr:hovedgruppe" v="ferskvann" />
		<tag k="ssr:stedsnr" v="34363" />
		<tag k="ssr:type" v="tjern" />
	</node>
	<node lat="60.01649166691256" lon="8.658436102915317" id="-36024">
		<tag k="name" v="Øvre Dakkeset" />
		<tag k="place" v="locality" />
		<tag k="ssr:date" v="2019-12-27" />
		<tag k="ssr:gruppe" v="bolighus" />
		<tag k="ssr:hovedgruppe" v="bebyggelse" />
		<tag k="ssr:stedsnr" v="34310" />
		<tag k="ssr:type" v="gammelBosettingsplass" />
	</node>
	<node lat="59.87266111238545" lon="8.66700554971607" id="-36025">
		<tag k="name" v="Kjøvjåkoll" />
		<tag k="place" v="locality" />
		<tag k="ssr:date" v="2019-12-27" />
		<tag k="ssr:gruppe" v="skråninger" />
		<tag k="ssr:hovedgruppe" v="terreng" />
		<tag k="ssr:stedsnr" v="34422" />
		<tag k="ssr:type" v="fjellside" />
	</node>
	<node lat="59.90474166628096" lon="8.710927769900975" id="-36026">
		<tag k="name" v="Rotemyr" />
		<tag k="place" v="farm" />
		<tag k="ssr:date" v="2019-12-27" />
		<tag k="ssr:gruppe" v="gardsbebyggelse" />
		<tag k="ssr:hovedgruppe" v="bebyggelse" />
		<tag k="ssr:stedsnr" v="34594" />
		<tag k="ssr:type" v="bruk" />
	</node>
	<node lat="60.00205277824445" lon="8.712500006595208" id="-36027">
		<tag k="name" v="Svartetjønnbekken" />
		<tag k="ssr:date" v="2019-12-27" />
		<tag k="ssr:gruppe" v="rennendeVann" />
		<tag k="ssr:hovedgruppe" v="ferskvann" />
		<tag k="ssr:stedsnr" v="34699" />
		<tag k="ssr:type" v="bekk" />
		<tag k="waterway" v="stream" />
	</node>
	<node lat="59.92673055158662" lon="8.789608340534146" id="-36028">
		<tag k="name" v="Krosskeiøye" />
		<tag k="place" v="island" />
		<tag k="ssr:date" v="2019-12-27" />
		<tag k="ssr:gruppe" v="ferskvannskontur" />
		<tag k="ssr:hovedgruppe" v="ferskvann" />
		<tag k="ssr:stedsnr" v="34868" />
		<tag k="ssr:type" v="øy" />
	</node>
	<node lat="60.05770277898874" lon="8.83558888799134" id="-36029">
		<tag k="name" v="Tolismyr" />
		<tag k="natural" v="wetland" />
		<tag k="ssr:date" v="2019-12-27" />
		<tag k="ssr:gruppe" v="våtmark" />
		<tag k="ssr:hovedgruppe" v="markslag" />
		<tag k="ssr:stedsnr" v="35210" />
		<tag k="ssr:type" v="myr" />
	</node>
	<node lat="59.938402776776684" lon="8.929866665582606" id="-36030">
		<tag k="alt_name" v="Slettungdalen" />
		<tag k="name" v="Slettomdalen" />
		<tag k="place" v="farm" />
		<tag k="ssr:date" v="2019-12-27" />
		<tag k="ssr:gruppe" v="gardsbebyggelse" />
		<tag k="ssr:hovedgruppe" v="bebyggelse" />
		<tag k="ssr:stedsnr" v="35503" />
		<tag k="ssr:type" v="bruk" />
	</node>
	<node lat="60.03047040752178" lon="8.825290227145677" id="-36031">
		<tag k="name" v="Gollemogen" />
		<tag k="place" v="farm" />
		<tag k="ssr:date" v="2021-12-15" />
		<tag k="ssr:gruppe" v="gardsbebyggelse" />
		<tag k="ssr:hovedgruppe" v="bebyggelse" />
		<tag k="ssr:stedsnr" v="35517" />
		<tag k="ssr:type" v="bruk" />
	</node>
	<node lat="60.059063887328094" lon="8.731872226176936" id="-36032">
		<tag k="name" v="Sambu" />
		<tag k="place" v="isolated_dwelling" />
		<tag k="ssr:date" v="2019-12-27" />
		<tag k="ssr:gruppe" v="bolighus" />
		<tag k="ssr:hovedgruppe" v="bebyggelse" />
		<tag k="ssr:stedsnr" v="35578" />
		<tag k="ssr:type" v="eneboligMindreBoligbygg" />
	</node>
	<node lat="60.05195833176017" lon="8.754127779830004" id="-36033">
		<tag k="bridge" v="yes" />
		<tag k="layer" v="1" />
		<tag k="name" v="Alfarkloppe" />
		<tag k="ssr:date" v="2019-12-27" />
		<tag k="ssr:gruppe" v="samferdselsanlegg" />
		<tag k="ssr:hovedgruppe" v="infrastruktur" />
		<tag k="ssr:stedsnr" v="35615" />
		<tag k="ssr:type" v="klopp" />
	</node>
	<node lat="60.06177500032846" lon="8.752100001612394" id="-36034">
		<tag k="historic" v="shieling" />
		<tag k="name" v="Jonset" />
		<tag k="place" v="isolated_dwelling" />
		<tag k="ssr:date" v="2019-12-27" />
		<tag k="ssr:gruppe" v="gardsbebyggelse" />
		<tag k="ssr:hovedgruppe" v="bebyggelse" />
		<tag k="ssr:stedsnr" v="35625" />
		<tag k="ssr:type" v="seterStøl" />
	</node>
	<node lat="60.03485833249093" lon="8.733880552878023" id="-36035">
		<tag k="name" v="Kloppemyran" />
		<tag k="natural" v="wetland" />
		<tag k="ssr:date" v="2019-12-27" />
		<tag k="ssr:gruppe" v="våtmark" />
		<tag k="ssr:hovedgruppe" v="markslag" />
		<tag k="ssr:stedsnr" v="35914" />
		<tag k="ssr:type" v="myr" />
	</node>
	<node lat="60.067061109841966" lon="8.717536109352945" id="-36036">
		<tag k="name" v="Drugebubekken" />
		<tag k="ssr:date" v="2019-12-27" />
		<tag k="ssr:gruppe" v="rennendeVann" />
		<tag k="ssr:hovedgruppe" v="ferskvann" />
		<tag k="ssr:stedsnr" v="35819" />
		<tag k="ssr:type" v="bekk" />
		<tag k="waterway" v="stream" />
	</node>
	<node lat="59.80531666392477" lon="9.10725556159867" id="-36037">
		<tag k="name" v="Skorvin" />
		<tag k="place" v="locality" />
		<tag k="ssr:date" v="2019-12-27" />
		<tag k="ssr:gruppe" v="terrengdetaljer" />
		<tag k="ssr:hovedgruppe" v="terreng" />
		<tag k="ssr:stedsnr" v="36027" />
		<tag k="ssr:type" v="hylle" />
	</node>
	<node lat="59.98974166292603" lon="8.894155549764887" id="-36038">
		<tag k="name" v="Holhegna" />
		<tag k="place" v="locality" />
		<tag k="ssr:date" v="2019-12-27" />
		<tag k="ssr:gruppe" v="kulturminner" />
		<tag k="ssr:hovedgruppe" v="kultur" />
		<tag k="ssr:stedsnr" v="36029" />
		<tag k="ssr:type" v="annenKulturdetalj" />
	</node>
	<node lat="60.016969447197916" lon="8.891272230534408" id="-36039">
		<tag k="name" v="Gurispringhølen" />
		<tag k="place" v="locality" />
		<tag k="ssr:date" v="2019-12-27" />
		<tag k="ssr:gruppe" v="rennendeVann" />
		<tag k="ssr:hovedgruppe" v="ferskvann" />
		<tag k="ssr:stedsnr" v="36117" />
		<tag k="ssr:type" v="høl" />
	</node>
	<node lat="59.94080277872322" lon="9.0218611140454" id="-36040">
		<tag k="name" v="Spikesetbekken" />
		<tag k="ssr:date" v="2019-12-27" />
		<tag k="ssr:gruppe" v="rennendeVann" />
		<tag k="ssr:hovedgruppe" v="ferskvann" />
		<tag k="ssr:stedsnr" v="36177" />
		<tag k="ssr:type" v="bekk" />
		<tag k="waterway" v="stream" />
	</node>
	<node lat="60.05890833181401" lon="8.870705562157958" id="-36041">
		<tag k="name" v="Halfarbekken" />
		<tag k="ssr:date" v="2019-12-27" />
		<tag k="ssr:gruppe" v="rennendeVann" />
		<tag k="ssr:hovedgruppe" v="ferskvann" />
		<tag k="ssr:stedsnr" v="36408" />
		<tag k="ssr:type" v="bekk" />
		<tag k="waterway" v="stream" />
	</node>
	<node lat="59.95431111309652" lon="8.890377769226221" id="-36042">
		<tag k="name" v="Kolhusmyre" />
		<tag k="natural" v="wetland" />
		<tag k="ssr:date" v="2019-12-27" />
		<tag k="ssr:gruppe" v="våtmark" />
		<tag k="ssr:hovedgruppe" v="markslag" />
		<tag k="ssr:stedsnr" v="36504" />
		<tag k="ssr:type" v="myr" />
	</node>
	<node lat="59.95220278226712" lon="8.950386118058752" id="-36043">
		<tag k="name" v="Fjellstulbekken" />
		<tag k="ssr:date" v="2019-12-27" />
		<tag k="ssr:gruppe" v="rennendeVann" />
		<tag k="ssr:hovedgruppe" v="ferskvann" />
		<tag k="ssr:stedsnr" v="36563" />
		<tag k="ssr:type" v="bekk" />
		<tag k="waterway" v="stream" />
	</node>
	<node lat="59.95735277566669" lon="9.104616663204997" id="-36044">
		<tag k="name" v="Krokmyran" />
		<tag k="natural" v="wetland" />
		<tag k="ssr:date" v="2019-12-27" />
		<tag k="ssr:gruppe" v="våtmark" />
		<tag k="ssr:hovedgruppe" v="markslag" />
		<tag k="ssr:stedsnr" v="36460" />
		<tag k="ssr:type" v="myr" />
	</node>
	<node lat="59.86365832901556" lon="9.039277786223165" id="-36045">
		<tag k="name" v="Høysettjønne" />
		<tag k="natural" v="water" />
		<tag k="ssr:date" v="2019-12-27" />
		<tag k="ssr:gruppe" v="stilleståendeVann" />
		<tag k="ssr:hovedgruppe" v="ferskvann" />
		<tag k="ssr:stedsnr" v="36468" />
		<tag k="ssr:type" v="tjern" />
	</node>
	<node lat="59.976569442635345" lon="8.861808330436249" id="-36046">
		<tag k="name" v="Heitjønnbekken" />
		<tag k="ssr:date" v="2019-12-27" />
		<tag k="ssr:gruppe" v="rennendeVann" />
		<tag k="ssr:hovedgruppe" v="ferskvann" />
		<tag k="ssr:stedsnr" v="36619" />
		<tag k="ssr:type" v="bekk" />
		<tag k="waterway" v="stream" />
	</node>
	<node lat="59.92511111277722" lon="9.031236111144882" id="-36047">
		<tag k="name" v="Långemyr" />
		<tag k="natural" v="wetland" />
		<tag k="ssr:date" v="2019-12-27" />
		<tag k="ssr:gruppe" v="våtmark" />
		<tag k="ssr:hovedgruppe" v="markslag" />
		<tag k="ssr:stedsnr" v="36768" />
		<tag k="ssr:type" v="myr" />
	</node>
	<node lat="59.89876389142339" lon="9.033622217823549" id="-36048">
		<tag k="name" v="Torsteinkås" />
		<tag k="place" v="locality" />
		<tag k="ssr:date" v="2019-12-27" />
		<tag k="ssr:gruppe" v="kulturminner" />
		<tag k="ssr:hovedgruppe" v="kultur" />
		<tag k="ssr:stedsnr" v="36875" />
		<tag k="ssr:type" v="annenKulturdetalj" />
	</node>
	<node lat="59.84060277357006" lon="9.085933337761666" id="-36049">
		<tag k="name" v="Flomelveleie" />
		<tag k="place" v="locality" />
		<tag k="ssr:date" v="2019-12-27" />
		<tag k="ssr:gruppe" v="detaljerIFerskvann" />
		<tag k="ssr:hovedgruppe" v="ferskvann" />
		<tag k="ssr:stedsnr" v="36878" />
		<tag k="ssr:type" v="annenVanndetalj" />
	</node>
	<node lat="60.08642222347593" lon="8.764463881231194" id="-36050">
		<tag k="name" v="Hovmannsberget" />
		<tag k="natural" v="cape" />
		<tag k="ssr:date" v="2019-12-27" />
		<tag k="ssr:gruppe" v="ferskvannskontur" />
		<tag k="ssr:hovedgruppe" v="ferskvann" />
		<tag k="ssr:stedsnr" v="42788" />
		<tag k="ssr:type" v="nes" />
	</node>
	<node lat="59.91313332988184" lon="8.72082778343585" id="-36051">
		<tag k="name" v="Gaustå" />
		<tag k="place" v="farm" />
		<tag k="ssr:date" v="2019-12-27" />
		<tag k="ssr:gruppe" v="gardsbebyggelse" />
		<tag k="ssr:hovedgruppe" v="bebyggelse" />
		<tag k="ssr:stedsnr" v="237925" />
		<tag k="ssr:type" v="bruk" />
	</node>
	<node lat="60.115766665859965" lon="8.743450001669139" id="-36052">
		<tag k="name" v="Longelibekken" />
		<tag k="ssr:date" v="2019-12-27" />
		<tag k="ssr:gruppe" v="rennendeVann" />
		<tag k="ssr:hovedgruppe" v="ferskvann" />
		<tag k="ssr:stedsnr" v="45127" />
		<tag k="ssr:type" v="bekk" />
		<tag k="waterway" v="stream" />
	</node>
	<node lat="60.081825002678144" lon="8.653472223537129" id="-36053">
		<tag k="name" v="Stigkåse" />
		<tag k="natural" v="slope" />
		<tag k="place" v="locality" />
		<tag k="ssr:date" v="2019-12-27" />
		<tag k="ssr:gruppe" v="skråninger" />
		<tag k="ssr:hovedgruppe" v="terreng" />
		<tag k="ssr:stedsnr" v="46004" />
		<tag k="ssr:type" v="li" />
	</node>
	<node lat="60.07505555961534" lon="8.5775805608047" id="-36054">
		<tag k="name" v="Skarbekken" />
		<tag k="ssr:date" v="2019-12-27" />
		<tag k="ssr:gruppe" v="rennendeVann" />
		<tag k="ssr:hovedgruppe" v="ferskvann" />
		<tag k="ssr:stedsnr" v="46206" />
		<tag k="ssr:type" v="bekk" />
		<tag k="waterway" v="stream" />
	</node>
	<node lat="60.15426388950246" lon="8.617627769296195" id="-36055">
		<tag k="name" v="Juvet" />
		<tag k="natural" v="gorge" />
		<tag k="ssr:date" v="2019-12-27" />
		<tag k="ssr:gruppe" v="senkninger" />
		<tag k="ssr:hovedgruppe" v="terreng" />
		<tag k="ssr:stedsnr" v="46171" />
		<tag k="ssr:type" v="juv" />
	</node>
	<node lat="60.04004444590869" lon="8.587374991825186" id="-36056">
		<tag k="name" v="Bubekken" />
		<tag k="ssr:date" v="2019-12-27" />
		<tag k="ssr:gruppe" v="rennendeVann" />
		<tag k="ssr:hovedgruppe" v="ferskvann" />
		<tag k="ssr:stedsnr" v="46403" />
		<tag k="ssr:type" v="bekk" />
		<tag k="waterway" v="stream" />
	</node>
	<node lat="60.03455555684295" lon="8.578536119335253" id="-36057">
		<tag k="name" v="Furuløyte" />
		<tag k="natural" v="slope" />
		<tag k="place" v="locality" />
		<tag k="ssr:date" v="2019-12-27" />
		<tag k="ssr:gruppe" v="skråninger" />
		<tag k="ssr:hovedgruppe" v="terreng" />
		<tag k="ssr:stedsnr" v="46405" />
		<tag k="ssr:type" v="li" />
	</node>
	<node lat="60.117980555861564" lon="8.717052776071593" id="-36058">
		<tag k="name" v="Haugstad" />
		<tag k="place" v="farm" />
		<tag k="ssr:date" v="2021-12-08" />
		<tag k="ssr:gruppe" v="gardsbebyggelse" />
		<tag k="ssr:hovedgruppe" v="bebyggelse" />
		<tag k="ssr:stedsnr" v="46589" />
		<tag k="ssr:type" v="bruk" />
	</node>
	<node lat="60.15801111126506" lon="8.657594448266384" id="-36059">
		<tag k="name" v="Smørbukkhallin" />
		<tag k="natural" v="slope" />
		<tag k="place" v="locality" />
		<tag k="ssr:date" v="2019-12-27" />
		<tag k="ssr:gruppe" v="skråninger" />
		<tag k="ssr:hovedgruppe" v="terreng" />
		<tag k="ssr:stedsnr" v="46771" />
		<tag k="ssr:type" v="li" />
	</node>
	<node lat="59.99985555217543" lon="8.510163897102915" id="-36060">
		<tag k="fixme" v="consider natural=peak for the most distinct mountains in the district" />
		<tag k="name" v="Primosten" />
		<tag k="natural" v="hill" />
		<tag k="place" v="locality" />
		<tag k="ssr:date" v="2019-12-27" />
		<tag k="ssr:gruppe" v="høyder" />
		<tag k="ssr:hovedgruppe" v="terreng" />
		<tag k="ssr:stedsnr" v="46903" />
		<tag k="ssr:type" v="topp" />
	</node>
	<node lat="60.12985277812133" lon="8.699286111862694" id="-36061">
		<tag k="historic" v="shieling" />
		<tag k="name" v="Kjørkjeset" />
		<tag k="place" v="locality" />
		<tag k="ssr:date" v="2019-12-27" />
		<tag k="ssr:gruppe" v="dyrkamark" />
		<tag k="ssr:hovedgruppe" v="markslag" />
		<tag k="ssr:stedsnr" v="46678" />
		<tag k="ssr:type" v="setervoll" />
	</node>
	<node lat="60.06637499674578" lon="8.37944444250447" id="-36062">
		<tag k="name" v="Kalhovdtjønne" />
		<tag k="natural" v="water" />
		<tag k="ssr:date" v="2019-12-27" />
		<tag k="ssr:gruppe" v="stilleståendeVann" />
		<tag k="ssr:hovedgruppe" v="ferskvann" />
		<tag k="ssr:stedsnr" v="47773" />
		<tag k="ssr:type" v="tjern" />
	</node>
	<node lat="59.854225004194994" lon="9.025613890317432" id="-36063">
		<tag k="alt_name" v="Vestre Bakka" />
		<tag k="name" v="Bakka" />
		<tag k="place" v="farm" />
		<tag k="ssr:date" v="2019-12-27" />
		<tag k="ssr:gruppe" v="gardsbebyggelse" />
		<tag k="ssr:hovedgruppe" v="bebyggelse" />
		<tag k="ssr:stedsnr" v="60911" />
		<tag k="ssr:type" v="bruk" />
	</node>
	<node lat="59.87975555427753" lon="8.717230561558459" id="-36064">
		<tag k="name" v="Brennstaul" />
		<tag k="place" v="isolated_dwelling" />
		<tag k="ssr:date" v="2019-12-27" />
		<tag k="ssr:gruppe" v="bolighus" />
		<tag k="ssr:hovedgruppe" v="bebyggelse" />
		<tag k="ssr:stedsnr" v="64121" />
		<tag k="ssr:type" v="fritidsbolig" />
	</node>
	<node lat="59.86272777645281" lon="8.55303610294817" id="-36065">
		<tag k="alt_name" v="Leivdalsåi" />
		<tag k="name" v="Leivdalsåe" />
		<tag k="ssr:date" v="2019-12-27" />
		<tag k="ssr:gruppe" v="rennendeVann" />
		<tag k="ssr:hovedgruppe" v="ferskvann" />
		<tag k="ssr:stedsnr" v="64148" />
		<tag k="ssr:type" v="bekk" />
		<tag k="waterway" v="stream" />
	</node>
	<node lat="59.8688944462779" lon="8.61909722383779" id="-36066">
		<tag k="name" v="Svaddenipun" />
		<tag k="place" v="locality" />
		<tag k="ssr:date" v="2019-12-27" />
		<tag k="ssr:gruppe" v="høyder" />
		<tag k="ssr:hovedgruppe" v="terreng" />
		<tag k="ssr:stedsnr" v="64163" />
		<tag k="ssr:type" v="fjellkant" />
	</node>
	<node lat="59.86863610909728" lon="8.52935833459709" id="-36067">
		<tag k="historic" v="shieling" />
		<tag k="name" v="Fuglestein" />
		<tag k="place" v="isolated_dwelling" />
		<tag k="ssr:date" v="2019-12-27" />
		<tag k="ssr:gruppe" v="gardsbebyggelse" />
		<tag k="ssr:hovedgruppe" v="bebyggelse" />
		<tag k="ssr:stedsnr" v="64166" />
		<tag k="ssr:type" v="seterStøl" />
	</node>
	<node lat="59.9639444431831" lon="8.704394443777781" id="-36068">
		<tag k="fixme" v="consider natural=peak for the most distinct mountains in the district" />
		<tag k="name" v="Myrefitåsen" />
		<tag k="natural" v="hill" />
		<tag k="place" v="locality" />
		<tag k="ssr:date" v="2019-12-27" />
		<tag k="ssr:gruppe" v="høyder" />
		<tag k="ssr:hovedgruppe" v="terreng" />
		<tag k="ssr:stedsnr" v="64012" />
		<tag k="ssr:type" v="ås" />
	</node>
	<node lat="59.9581444415585" lon="8.572299993105542" id="-36069">
		<tag k="historic" v="shieling" />
		<tag k="name" v="Buin" />
		<tag k="place" v="isolated_dwelling" />
		<tag k="ssr:date" v="2019-12-27" />
		<tag k="ssr:gruppe" v="gardsbebyggelse" />
		<tag k="ssr:hovedgruppe" v="bebyggelse" />
		<tag k="ssr:stedsnr" v="64014" />
		<tag k="ssr:type" v="seterStøl" />
	</node>
	<node lat="59.97421110901718" lon="8.490277781927448" id="-36070">
		<tag k="alt_name" v="Torkjellstjønn" />
		<tag k="name" v="Torkjelstjønn" />
		<tag k="natural" v="water" />
		<tag k="ssr:date" v="2019-12-27" />
		<tag k="ssr:gruppe" v="stilleståendeVann" />
		<tag k="ssr:hovedgruppe" v="ferskvann" />
		<tag k="ssr:stedsnr" v="64025" />
		<tag k="ssr:type" v="tjern" />
	</node>
	<node lat="59.94645555821035" lon="8.633536108804867" id="-36071">
		<tag k="name" v="Trolltjønn" />
		<tag k="natural" v="water" />
		<tag k="ssr:date" v="2019-12-27" />
		<tag k="ssr:gruppe" v="stilleståendeVann" />
		<tag k="ssr:hovedgruppe" v="ferskvann" />
		<tag k="ssr:stedsnr" v="64033" />
		<tag k="ssr:type" v="tjern" />
	</node>
	<node lat="59.78958888480567" lon="8.310236113694556" id="-36072">
		<tag k="alt_name" v="Sutangråtjørni" />
		<tag k="name" v="Sutangrotjønne" />
		<tag k="natural" v="water" />
		<tag k="ssr:date" v="2019-12-27" />
		<tag k="ssr:gruppe" v="stilleståendeVann" />
		<tag k="ssr:hovedgruppe" v="ferskvann" />
		<tag k="ssr:stedsnr" v="64065" />
		<tag k="ssr:type" v="tjern" />
	</node>
	<node lat="59.933516664012934" lon="9.042708338804736" id="-36073">
		<tag k="alt_name" v="Svarttjørn" />
		<tag k="name" v="Svarttjønn" />
		<tag k="natural" v="water" />
		<tag k="ssr:date" v="2019-12-27" />
		<tag k="ssr:gruppe" v="stilleståendeVann" />
		<tag k="ssr:hovedgruppe" v="ferskvann" />
		<tag k="ssr:stedsnr" v="64539" />
		<tag k="ssr:type" v="tjern" />
	</node>
	<node lat="59.87913333203436" lon="8.271688896423528" id="-36074">
		<tag k="alt_name" v="Hardingroi" />
		<tag k="historic" v="shieling" />
		<tag k="name" v="Hardingroe" />
		<tag k="place" v="isolated_dwelling" />
		<tag k="ssr:date" v="2019-12-27" />
		<tag k="ssr:gruppe" v="gardsbebyggelse" />
		<tag k="ssr:hovedgruppe" v="bebyggelse" />
		<tag k="ssr:stedsnr" v="64464" />
		<tag k="ssr:type" v="seterStøl" />
	</node>
	<node lat="59.88185555408074" lon="8.239827775702162" id="-36075">
		<tag k="name" v="Bågåfjellbekken" />
		<tag k="ssr:date" v="2019-12-27" />
		<tag k="ssr:gruppe" v="rennendeVann" />
		<tag k="ssr:hovedgruppe" v="ferskvann" />
		<tag k="ssr:stedsnr" v="64465" />
		<tag k="ssr:type" v="bekk" />
		<tag k="waterway" v="stream" />
	</node>
	<node lat="59.87118888560472" lon="9.163299993705579" id="-36076">
		<tag k="alt_name" v="Midjunggrønuten" />
		<tag k="name" v="Mjedonggrønuten" />
		<tag k="natural" v="hill" />
		<tag k="place" v="locality" />
		<tag k="ssr:date" v="2019-12-27" />
		<tag k="ssr:gruppe" v="høyder" />
		<tag k="ssr:hovedgruppe" v="terreng" />
		<tag k="ssr:stedsnr" v="64708" />
		<tag k="ssr:type" v="høyde" />
	</node>
</osm>
