<?xml version="1.0" encoding="UTF-8"?>
<osm version="0.6" generator="osmapis">
	<node id="2353385725" lat="69.373247" lon="24.333606" version="2" timestamp="2018-05-02T17:03:50Z" changeset="58620907" uid="3497659" user="NKA">
		<tag k="name" v="Sisjávri" />
		<tag k="name:se" v="Sisjávri" />
		<tag k="natural" v="bay" />
		<tag k="source" v="Kartverket" />
		<tag k="ssr:stedsnr" v="89764" />
	</node>
	<node id="5814778347" lat="68.7662476" lon="22.549433" version="1" timestamp="2018-08-07T12:30:20Z" changeset="61433683" uid="3497659" user="NKA" />
	<node id="5814778348" lat="69.0558056" lon="22.0742743" version="1" timestamp="2018-08-07T12:30:20Z" changeset="61433683" uid="3497659" user="NKA" />
	<node id="5814778342" lat="69.3158958" lon="22.9573032" version="1" timestamp="2018-08-07T12:30:19Z" changeset="61433683" uid="3497659" user="NKA" />
	<node id="5814778346" lat="68.6865261" lon="24.8840277" version="1" timestamp="2018-08-07T12:30:20Z" changeset="61433683" uid="3497659" user="NKA" />
	<node id="5814778343" lat="69.7223925" lon="23.8265936" version="1" timestamp="2018-08-07T12:30:19Z" changeset="61433683" uid="3497659" user="NKA" />
	<node id="5814778345" lat="69.0155153" lon="25.5487006" version="1" timestamp="2018-08-07T12:30:20Z" changeset="61433683" uid="3497659" user="NKA" />
	<node id="6649883214" lat="69.3983288" lon="25.8435791" version="1" timestamp="2019-07-26T11:42:03Z" changeset="72682862" uid="3497659" user="NKA" />
	<node id="6649883215" lat="69.3982643" lon="25.8423358" version="1" timestamp="2019-07-26T11:42:03Z" changeset="72682862" uid="3497659" user="NKA" />
	<node id="5814778344" lat="69.7628088" lon="25.8933966" version="1" timestamp="2018-08-07T12:30:19Z" changeset="61433683" uid="3497659" user="NKA" />
	<way id="160406782" version="10" timestamp="2022-01-25T18:21:17Z" changeset="116596754" uid="3497659" user="NKA">
		<tag k="bicycle" v="yes" />
		<tag k="bridge" v="yes" />
		<tag k="bridge:structure" v="beam" />
		<tag k="highway" v="trunk" />
		<tag k="lanes" v="2" />
		<tag k="layer" v="1" />
		<tag k="lit" v="no" />
		<tag k="maxspeed" v="80" />
		<tag k="name" v="Grensen bru" />
		<tag k="name:fi" v="Norjantie" />
		<tag k="name:no" v="Grensen bru" />
		<tag k="ref" v="92" />
		<tag k="ssr:stedsnr" v="453969" />
		<tag k="start_date" v="1958" />
		<tag k="surface" v="concrete" />
		<nd ref="6649883214" />
		<nd ref="6649883215" />
	</way>
	<way id="614791809" version="58" timestamp="2020-03-08T19:59:43Z" changeset="81932379" uid="7589857" user="Marius Geitle_import">
		<tag k="name" v="Finnmarksvidda" />
		<tag k="natural" v="mountain_range" />
		<tag k="note" v="Please refine boundary based on local knowledge" />
		<tag k="ssr:stedsnr" v="754051" />
		<tag k="ssr:type" v="fjellområde" />
		<nd ref="5814778348" />
		<nd ref="5814778347" />
		<nd ref="5814778346" />
		<nd ref="5814778345" />
		<nd ref="5814778344" />
		<nd ref="5814778343" />
		<nd ref="5814778342" />
		<nd ref="5814778348" />
	</way>
</osm>
