<?xml version="1.0" encoding="UTF-8"?>
<osm version="0.6" generator="osmapis">
	<node lat="69.09528339442768" lon="29.168798503411093" id="-44532">
		<tag k="alt_name:no" v="Toppåsvatn" />
		<tag k="name" v="Toppåsvatnet - Pirivaarajärvi" />
		<tag k="name:fkv" v="Pirivaarajärvi" />
		<tag k="name:no" v="Toppåsvatnet" />
		<tag k="natural" v="water" />
		<tag k="ssr:stedsnr" v="18004" />
	</node>
	<node lat="69.22407783848585" lon="29.243017956521463" id="-44535">
		<tag k="loc_name:se" v="Ruhčečoalbmi" />
		<tag k="name" v="Sundet" />
		<tag k="name:no" v="Sundet" />
		<tag k="natural" v="strait" />
		<tag k="ssr:stedsnr" v="18703" />
	</node>
	<node lat="69.97477782855033" lon="29.609343028436804" id="-44537">
		<tag k="name" v="Dragetjern - Traakilampi" />
		<tag k="name:fkv" v="Traakilampi" />
		<tag k="name:no" v="Dragetjern" />
		<tag k="natural" v="water" />
		<tag k="old_name:fkv" v="Dragilambi" />
		<tag k="ssr:stedsnr" v="19150" />
	</node>
	<node lat="69.58250006406887" lon="29.901048225581984" id="-44538">
		<tag k="name" v="Harevatnet" />
		<tag k="natural" v="water" />
		<tag k="ssr:stedsnr" v="19151" />
	</node>
	<node lat="69.59274450644506" lon="29.88628713765028" id="-44539">
		<tag k="fixme" v="multiple name tags, choose one and add the other to alt_name" />
		<tag k="name" v="Ulvetjørna;Store Ulvetjern;Ulvetjønna - Susilampi" />
		<tag k="name:fkv" v="Susilampi" />
		<tag k="name:no" v="Ulvetjørna;Store Ulvetjern;Ulvetjønna" />
		<tag k="natural" v="water" />
		<tag k="old_name:fkv" v="Sosilambi" />
		<tag k="ssr:stedsnr" v="19155" />
	</node>
	<node lat="69.81543339272824" lon="29.951576083820903" id="-44543">
		<tag k="alt_name:no" v="Svanevatnet, store" />
		<tag k="name" v="Store Svanevatnet - Njukčajávri" />
		<tag k="name:no" v="Store Svanevatnet" />
		<tag k="name:se" v="Njukčajávri" />
		<tag k="natural" v="water" />
		<tag k="old_name:se" v="Njukčajavri" />
		<tag k="ssr:stedsnr" v="19002" />
		<tag k="water" v="lake" />
	</node>
	<node lat="69.52621952012515" lon="30.04238423344741" id="-44550">
		<tag k="name" v="Holmvatn" />
		<tag k="natural" v="water" />
		<tag k="ssr:stedsnr" v="19805" />
	</node>
	<node lat="69.84114725922987" lon="28.68311286361972" id="-44551">
		<tag k="name" v="Njoaskejávri" />
		<tag k="name:se" v="Njoaskejávri" />
		<tag k="natural" v="water" />
		<tag k="old_name:se" v="Njoaskejavri" />
		<tag k="ssr:stedsnr" v="19845" />
	</node>
	<node lat="69.69568618289394" lon="30.154853678094327" id="-44555">
		<tag k="name" v="Langnes" />
		<tag k="natural" v="cape" />
		<tag k="ssr:stedsnr" v="25630" />
	</node>
	<node lat="69.710738945498" lon="29.515998525062827" id="-44556">
		<tag k="alt_name" v="Bøkkerbekken" />
		<tag k="name" v="Bødkerbekken" />
		<tag k="ssr:stedsnr" v="28706" />
		<tag k="waterway" v="stream" />
	</node>
	<node lat="69.54345007401538" lon="30.117759182626017" id="-44562">
		<tag k="name" v="Gjeddebukta" />
		<tag k="natural" v="bay" />
		<tag k="ssr:stedsnr" v="45307" />
	</node>
	<node lat="69.69740560290415" lon="29.21218757495248" id="-44566">
		<tag k="name" v="Bøttebekken - Ämpärijoki" />
		<tag k="name:fkv" v="Ämpärijoki" />
		<tag k="name:no" v="Bøttebekken" />
		<tag k="ssr:stedsnr" v="46304" />
		<tag k="waterway" v="stream" />
	</node>
	<node lat="69.02363617169968" lon="29.062918000064272" id="-44568">
		<tag k="name" v="Heimbrentbukta - Pontikalahti" />
		<tag k="name:fkv" v="Pontikalahti" />
		<tag k="name:no" v="Heimbrentbukta" />
		<tag k="natural" v="bay" />
		<tag k="ssr:stedsnr" v="47019" />
	</node>
	<node lat="69.59541673777946" lon="29.988334309043992" id="-44571">
		<tag k="name" v="Salminiemi" />
		<tag k="name:fkv" v="Salminiemi" />
		<tag k="natural" v="cape" />
		<tag k="ssr:stedsnr" v="47324" />
	</node>
	<node lat="69.34643062296307" lon="29.5109622853653" id="-44572">
		<tag k="name" v="Kobbfossbekken" />
		<tag k="ssr:stedsnr" v="47389" />
		<tag k="waterway" v="stream" />
	</node>
	<node lat="69.4167778534278" lon="29.986764787224757" id="-44579">
		<tag k="name" v="Bjørknes" />
		<tag k="natural" v="cape" />
		<tag k="ssr:stedsnr" v="55187" />
	</node>
	<node lat="69.15019728092636" lon="28.86446257996718" id="-44581">
		<tag k="alt_name:no" v="Ivargammevatn" />
		<tag k="fixme" v="multiple name tags, choose one and add the other to alt_name" />
		<tag k="name" v="Ivargammevatnet - Njoammilsealgejávri;Ivvárgoahtejávrrit" />
		<tag k="name:no" v="Ivargammevatnet" />
		<tag k="name:se" v="Njoammilsealgejávri;Ivvárgoahtejávrrit" />
		<tag k="natural" v="water" />
		<tag k="ssr:stedsnr" v="79052" />
		<tag k="water" v="lake" />
	</node>
	<node lat="69.24478894717706" lon="29.193087441469903" id="-44582">
		<tag k="name" v="Lyngbukta" />
		<tag k="natural" v="bay" />
		<tag k="ssr:stedsnr" v="79749" />
	</node>
	<node lat="69.58906396963016" lon="30.47589781565997" id="-44585">
		<tag k="alt_name:no" v="Abbortjørnan" />
		<tag k="name" v="Abbortjønnan - Vuoskkojávrrit" />
		<tag k="name:no" v="Abbortjønnan" />
		<tag k="name:se" v="Vuoskkojávrrit" />
		<tag k="natural" v="water" />
		<tag k="old_name:se" v="Vuoskujavrit" />
		<tag k="ssr:stedsnr" v="79842" />
	</node>
	<node lat="69.62810007199492" lon="30.148828660411752" id="-44586">
		<tag k="name" v="Fossevatn - Geavgŋáluoppal" />
		<tag k="name:no" v="Fossevatn" />
		<tag k="name:se" v="Geavgŋáluoppal" />
		<tag k="natural" v="water" />
		<tag k="old_name:se" v="Gævgŋaluobbal" />
		<tag k="ssr:stedsnr" v="79848" />
		<tag k="water" v="lake" />
	</node>
	<node lat="69.82180283146398" lon="29.587256863737448" id="-44587">
		<tag k="name" v="Gollejávri" />
		<tag k="name:se" v="Gollejávri" />
		<tag k="natural" v="water" />
		<tag k="old_name:se" v="Gållejavri" />
		<tag k="ssr:stedsnr" v="80005" />
		<tag k="water" v="lake" />
	</node>
	<node lat="69.52573340558085" lon="30.094173090111326" id="-44589">
		<tag k="name" v="Sagbekken" />
		<tag k="ssr:stedsnr" v="79789" />
		<tag k="waterway" v="stream" />
	</node>
	<node lat="69.66718895041903" lon="29.856634408157483" id="-44596">
		<tag k="name" v="Trevatnet - Čoavvejávri" />
		<tag k="name:no" v="Trevatnet" />
		<tag k="name:se" v="Čoavvejávri" />
		<tag k="natural" v="water" />
		<tag k="old_name:se" v="Čoavvejavri" />
		<tag k="ssr:stedsnr" v="80119" />
	</node>
	<node lat="69.65565562143779" lon="29.872631628101654" id="-44598">
		<tag k="name" v="Posbekken" />
		<tag k="ssr:stedsnr" v="80122" />
		<tag k="waterway" v="stream" />
	</node>
	<node lat="69.64585838835887" lon="29.578623470050054" id="-44600">
		<tag k="name" v="Goahtesaijávri" />
		<tag k="name:se" v="Goahtesaijávri" />
		<tag k="natural" v="water" />
		<tag k="old_name:se" v="Goattesajjavri" />
		<tag k="ssr:stedsnr" v="80141" />
		<tag k="water" v="lake" />
	</node>
	<node lat="69.87483615594762" lon="29.215437621458115" id="-44601">
		<tag k="name" v="Holmvatn - Suolojávri" />
		<tag k="name:no" v="Holmvatn" />
		<tag k="name:se" v="Suolojávri" />
		<tag k="natural" v="water" />
		<tag k="old_name:se" v="Suolujavri" />
		<tag k="ssr:stedsnr" v="80142" />
		<tag k="water" v="lake" />
	</node>
	<node lat="69.77083338249845" lon="29.542504084629584" id="-44602">
		<tag k="alt_name:no" v="Braselvvatn" />
		<tag k="name" v="Braselvvatnet - Guolleveaijávri" />
		<tag k="name:no" v="Braselvvatnet" />
		<tag k="name:se" v="Guolleveaijávri" />
		<tag k="natural" v="water" />
		<tag k="old_name:se" v="Guollevæjjavri" />
		<tag k="ssr:stedsnr" v="80039" />
		<tag k="water" v="lake" />
	</node>
	<node lat="69.6926250581012" lon="29.67288454681384" id="-44606">
		<tag k="name" v="Gorrvatnet - Goŋatjávri" />
		<tag k="name:no" v="Gorrvatnet" />
		<tag k="name:se" v="Goŋatjávri" />
		<tag k="natural" v="water" />
		<tag k="old_name:se" v="Gåŋatjavri" />
		<tag k="ssr:stedsnr" v="80100" />
	</node>
	<node lat="69.79726118855211" lon="30.639283923493483" id="-44608">
		<tag k="name" v="Småstraumelva" />
		<tag k="ssr:stedsnr" v="80389" />
		<tag k="waterway" v="river" />
	</node>
	<node lat="69.75205841391333" lon="30.51920065752728" id="-44611">
		<tag k="name" v="Strimpvatnet" />
		<tag k="natural" v="water" />
		<tag k="ssr:stedsnr" v="80397" />
	</node>
	<node lat="69.57812786908195" lon="30.678008748750166" id="-44612">
		<tag k="name" v="Vierrajávri" />
		<tag k="name:se" v="Vierrajávri" />
		<tag k="natural" v="water" />
		<tag k="old_name:se" v="Vierrajavri" />
		<tag k="ssr:stedsnr" v="80902" />
	</node>
	<node lat="69.57973620761" lon="30.804103085345982" id="-44614">
		<tag k="name" v="Banebekken - Bánnajohka" />
		<tag k="name:no" v="Banebekken" />
		<tag k="name:se" v="Bánnajohka" />
		<tag k="old_name:se" v="Bannajåkka" />
		<tag k="ssr:stedsnr" v="80905" />
		<tag k="waterway" v="stream" />
	</node>
	<node lat="69.44294173917709" lon="30.044681408221635" id="-44617">
		<tag k="name" v="Sarasaari" />
		<tag k="name:fkv" v="Sarasaari" />
		<tag k="place" v="islet" />
		<tag k="ssr:stedsnr" v="87932" />
	</node>
	<node lat="69.29962505886286" lon="29.007440327130915" id="-44630">
		<tag k="name" v="Urvatn - Rakkajärvi" />
		<tag k="name:fkv" v="Rakkajärvi" />
		<tag k="name:no" v="Urvatn" />
		<tag k="natural" v="water" />
		<tag k="ssr:stedsnr" v="108023" />
	</node>
	<node lat="69.53346673068859" lon="29.86847600744417" id="-44633">
		<tag k="name" v="Staurvika - Luhtamukka" />
		<tag k="name:fkv" v="Luhtamukka" />
		<tag k="name:no" v="Staurvika" />
		<tag k="natural" v="bay" />
		<tag k="ssr:stedsnr" v="108504" />
	</node>
	<node lat="69.65032785362811" lon="30.38378126269856" id="-44636">
		<tag k="name" v="Tverrelva" />
		<tag k="ssr:stedsnr" v="108406" />
		<tag k="waterway" v="stream" />
	</node>
	<node lat="69.71436949329521" lon="29.410304144804137" id="-44638">
		<tag k="loc_name:fkv" v="Pahan Olli-oja" />
		<tag k="name" v="Norskebekken - Dážajohka" />
		<tag k="name:no" v="Norskebekken" />
		<tag k="name:se" v="Dážajohka" />
		<tag k="old_name:se" v="Dažajåkka" />
		<tag k="ssr:stedsnr" v="139004" />
		<tag k="waterway" v="stream" />
	</node>
	<node lat="69.10389450880064" lon="29.200406818213878" id="-44639">
		<tag k="name" v="Hestefossdammen" />
		<tag k="natural" v="water" />
		<tag k="ssr:stedsnr" v="139007" />
		<tag k="water" v="lake" />
	</node>
	<node lat="69.16353895049346" lon="28.981431967170874" id="-44640">
		<tag k="alt_name:no" v="Magesekkvatn" />
		<tag k="name" v="Magesekkvatnet - Rääppävattalompola" />
		<tag k="name:fkv" v="Rääppävattalompola" />
		<tag k="name:no" v="Magesekkvatnet" />
		<tag k="natural" v="water" />
		<tag k="ssr:stedsnr" v="139043" />
		<tag k="water" v="lake" />
	</node>
	<node lat="69.14551116579544" lon="28.877923677802453" id="-44641">
		<tag k="alt_name" v="Otertjørna;Otertjern" />
		<tag k="name" v="Otertjønna" />
		<tag k="natural" v="water" />
		<tag k="ssr:stedsnr" v="139046" />
	</node>
	<node lat="69.35546672178806" lon="29.25360411524632" id="-44642">
		<tag k="name" v="Klarbekkvatna" />
		<tag k="natural" v="water" />
		<tag k="ssr:stedsnr" v="139140" />
		<tag k="water" v="lake" />
	</node>
	<node lat="69.73828615922679" lon="29.343515291412427" id="-44644">
		<tag k="name" v="Linjevatnet" />
		<tag k="natural" v="water" />
		<tag k="ssr:stedsnr" v="139496" />
	</node>
	<node lat="69.20557227976953" lon="29.04557915925403" id="-44647">
		<tag k="alt_name" v="Tørrfurutjørna" />
		<tag k="name" v="Tørrfurutjønna" />
		<tag k="natural" v="water" />
		<tag k="ssr:stedsnr" v="139786" />
	</node>
	<node lat="69.16869450084133" lon="28.999037527859116" id="-44649">
		<tag k="name" v="Ellenelva - Ealjejohka - Ellijoki" />
		<tag k="name:fkv" v="Ellijoki" />
		<tag k="name:no" v="Ellenelva" />
		<tag k="name:se" v="Ealjejohka" />
		<tag k="old_name:fkv" v="Ellijågi" />
		<tag k="ssr:stedsnr" v="139793" />
		<tag k="waterway" v="river" />
	</node>
	<node lat="69.44755006650148" lon="29.743651069922183" id="-44656">
		<tag k="name" v="Myrbekken" />
		<tag k="ssr:stedsnr" v="139898" />
		<tag k="waterway" v="stream" />
	</node>
	<node lat="69.66948061594957" lon="29.803803891033525" id="-44659">
		<tag k="name" v="Strimppiidláttu" />
		<tag k="name:se" v="Strimppiidláttu" />
		<tag k="natural" v="water" />
		<tag k="old_name:se" v="Strimpiidladdo" />
		<tag k="ssr:stedsnr" v="140095" />
	</node>
	<node lat="69.90256393759269" lon="29.42243477357695" id="-44662">
		<tag k="name" v="Nordmannsbekken" />
		<tag k="ssr:stedsnr" v="140187" />
		<tag k="waterway" v="stream" />
	</node>
	<node lat="69.54995006603717" lon="29.93730096769279" id="-44663">
		<tag k="alt_name:no" v="Hårtjørna;Hårtjern" />
		<tag k="name" v="Hårtjønna - Karvalampi" />
		<tag k="name:fkv" v="Karvalampi" />
		<tag k="name:no" v="Hårtjønna" />
		<tag k="natural" v="water" />
		<tag k="old_name:fkv" v="Garvalambi" />
		<tag k="ssr:stedsnr" v="140191" />
	</node>
	<node lat="69.70198895610196" lon="30.083884287620943" id="-44665">
		<tag k="name" v="Huetjern - Gahpirláttu" />
		<tag k="name:no" v="Huetjern" />
		<tag k="name:se" v="Gahpirláttu" />
		<tag k="natural" v="water" />
		<tag k="ssr:stedsnr" v="140235" />
	</node>
	<node lat="69.70076673323344" lon="30.03071209713828" id="-44666">
		<tag k="name" v="Andrevatn - Stuorrajávri" />
		<tag k="name:no" v="Andrevatn" />
		<tag k="name:se" v="Stuorrajávri" />
		<tag k="natural" v="water" />
		<tag k="old_name:se" v="Stuorrajavri" />
		<tag k="ssr:stedsnr" v="140236" />
		<tag k="water" v="lake" />
	</node>
	<node lat="69.71916952265599" lon="30.35918686483747" id="-44667">
		<tag k="loc_name:se" v="Surokjávre" />
		<tag k="name" v="Myggvatn - Surotjávri" />
		<tag k="name:no" v="Myggvatn" />
		<tag k="name:se" v="Surotjávri" />
		<tag k="natural" v="water" />
		<tag k="old_name:se" v="Surutjavri" />
		<tag k="ssr:stedsnr" v="140239" />
		<tag k="water" v="lake" />
	</node>
	<node lat="69.84322504958455" lon="29.424554171547136" id="-44668">
		<tag k="name" v="Tennvatn - Čearretjávri" />
		<tag k="name:no" v="Tennvatn" />
		<tag k="name:se" v="Čearretjávri" />
		<tag k="natural" v="water" />
		<tag k="old_name:se" v="Čærretjavri" />
		<tag k="ssr:stedsnr" v="140242" />
		<tag k="water" v="lake" />
	</node>
	<node lat="69.28889171873983" lon="29.122151379283334" id="-44684">
		<tag k="name" v="Biehkanjohka" />
		<tag k="name:se" v="Biehkanjohka" />
		<tag k="ssr:stedsnr" v="147714" />
		<tag k="waterway" v="stream" />
	</node>
	<node lat="69.63248616819222" lon="29.49308740361103" id="-44687">
		<tag k="name" v="Margittaoja" />
		<tag k="name:fkv" v="Margittaoja" />
		<tag k="ssr:stedsnr" v="154560" />
		<tag k="waterway" v="stream" />
	</node>
	<node lat="69.85201948716053" lon="29.312493117882862" id="-44699">
		<tag k="name" v="Smalvatn - Guhkesjávri" />
		<tag k="name:no" v="Smalvatn" />
		<tag k="name:se" v="Guhkesjávri" />
		<tag k="natural" v="water" />
		<tag k="ssr:stedsnr" v="168161" />
		<tag k="water" v="lake" />
	</node>
	<node lat="69.53105285446729" lon="30.149156368108994" id="-44700">
		<tag k="alt_name" v="Litleholmen" />
		<tag k="name" v="Lilleholmen" />
		<tag k="place" v="islet" />
		<tag k="ssr:stedsnr" v="168271" />
	</node>
	<node lat="69.44673618664697" lon="29.900092629321016" id="-44702">
		<tag k="name" v="Russevatn" />
		<tag k="natural" v="water" />
		<tag k="ssr:stedsnr" v="168504" />
	</node>
	<node lat="69.55963340287082" lon="30.01979538429256" id="-44703">
		<tag k="name" v="Rødvatn" />
		<tag k="natural" v="water" />
		<tag k="ssr:stedsnr" v="168559" />
	</node>
	<node lat="69.1340028402313" lon="29.238323481931072" id="-44705">
		<tag k="name" v="Sauholmen" />
		<tag k="place" v="islet" />
		<tag k="ssr:stedsnr" v="261050" />
	</node>
	<node lat="69.6777278261556" lon="29.265376434234906" id="-44708">
		<tag k="name" v="Annkrøttvatnet - Ánnagrehtajávri" />
		<tag k="name:no" v="Annkrøttvatnet" />
		<tag k="name:se" v="Ánnagrehtajávri" />
		<tag k="natural" v="water" />
		<tag k="old_name:se" v="Annagrettajavri" />
		<tag k="ssr:stedsnr" v="261022" />
	</node>
	<node lat="69.12518894648896" lon="28.877607015221507" id="-44709">
		<tag k="name" v="Sauholmen" />
		<tag k="place" v="islet" />
		<tag k="ssr:stedsnr" v="261023" />
	</node>
	<node lat="69.120047279985" lon="28.904145887474307" id="-44710">
		<tag k="alt_name:no" v="Ellenvatn" />
		<tag k="name" v="Ellenvatnet - Ealjejávri - Ellijärvi" />
		<tag k="name:fkv" v="Ellijärvi" />
		<tag k="name:no" v="Ellenvatnet" />
		<tag k="name:se" v="Ealjejávri" />
		<tag k="natural" v="water" />
		<tag k="old_name:fkv" v="Ellijærvi" />
		<tag k="ssr:stedsnr" v="261024" />
		<tag k="water" v="lake" />
	</node>
	<node lat="69.10079449838743" lon="28.877237555225538" id="-44712">
		<tag k="alt_name:no" v="Parvatn" />
		<tag k="name" v="Parvatnet - Bárašjávri - Kertusjärvi" />
		<tag k="name:fkv" v="Kertusjärvi" />
		<tag k="name:no" v="Parvatnet" />
		<tag k="name:se" v="Bárašjávri" />
		<tag k="natural" v="water" />
		<tag k="old_name:se" v="Barašjavri" />
		<tag k="ssr:stedsnr" v="261028" />
		<tag k="water" v="lake" />
	</node>
	<node lat="69.12850562062843" lon="29.235948483495935" id="-44715">
		<tag k="name" v="Bjørnholmen" />
		<tag k="place" v="islet" />
		<tag k="ssr:stedsnr" v="261043" />
	</node>
	<node lat="69.12950006031996" lon="29.001012502987773" id="-44716">
		<tag k="name" v="Gåsereirvatnet" />
		<tag k="natural" v="water" />
		<tag k="ssr:stedsnr" v="261045" />
	</node>
	<node lat="69.82214450471943" lon="30.19146760167351" id="-44720">
		<tag k="name" v="Midtrevatnet" />
		<tag k="natural" v="water" />
		<tag k="ssr:stedsnr" v="262094" />
	</node>
	<node lat="69.7466000468952" lon="29.221451467247917" id="-44722">
		<tag k="alt_name:se" v="Galšjávri" />
		<tag k="name" v="Galšaluoppal - Kalsilompola" />
		<tag k="name:fkv" v="Kalsilompola" />
		<tag k="name:se" v="Galšaluoppal" />
		<tag k="natural" v="water" />
		<tag k="old_name:se" v="Galšaluobbal" />
		<tag k="ssr:stedsnr" v="261480" />
		<tag k="water" v="lake" />
	</node>
	<node lat="69.18011116958283" lon="28.918143120606615" id="-44724">
		<tag k="alt_name" v="Hattvatn" />
		<tag k="name" v="Hattvatnet" />
		<tag k="natural" v="water" />
		<tag k="ssr:stedsnr" v="261764" />
	</node>
	<node lat="69.18355005309294" lon="28.978590306137548" id="-44725">
		<tag k="alt_name" v="Smalvatn" />
		<tag k="name" v="Smalvatnet" />
		<tag k="natural" v="water" />
		<tag k="ssr:stedsnr" v="261769" />
	</node>
	<node lat="69.2194028437364" lon="29.224454072463722" id="-44726">
		<tag k="name" v="Ryengholmen" />
		<tag k="place" v="islet" />
		<tag k="ssr:stedsnr" v="261773" />
	</node>
	<node lat="69.19873061215675" lon="29.05124304728793" id="-44727">
		<tag k="alt_name" v="Galnetjørna" />
		<tag k="name" v="Galnetjønna" />
		<tag k="natural" v="water" />
		<tag k="ssr:stedsnr" v="261774" />
	</node>
	<node lat="69.53491119080104" lon="30.16772580092156" id="-44728">
		<tag k="alt_name" v="Fløterneset" />
		<tag k="name" v="Fløytarneset" />
		<tag k="natural" v="cape" />
		<tag k="ssr:stedsnr" v="261781" />
	</node>
	<node lat="69.5242806257531" lon="30.123700843287022" id="-44729">
		<tag k="alt_name:no" v="Bjørnvatn" />
		<tag k="name" v="Bjørnevatnet - Guvžajávri - Kontiojärvi" />
		<tag k="name:fkv" v="Kontiojärvi" />
		<tag k="name:no" v="Bjørnevatnet" />
		<tag k="name:se" v="Guvžajávri" />
		<tag k="natural" v="water" />
		<tag k="old_name:se" v="Guvžajavri" />
		<tag k="ssr:stedsnr" v="261789" />
		<tag k="water" v="lake" />
	</node>
	<node lat="69.50070563018471" lon="30.050711978959534" id="-44730">
		<tag k="alt_name" v="Fyllingvatn" />
		<tag k="name" v="Fyllingsvatn" />
		<tag k="natural" v="water" />
		<tag k="ssr:stedsnr" v="261791" />
	</node>
	<node lat="69.22276394208659" lon="28.880587593243767" id="-44731">
		<tag k="name" v="Kaurelijärvi" />
		<tag k="name:fkv" v="Kaurelijärvi" />
		<tag k="natural" v="water" />
		<tag k="old_name:fkv" v="Gavrelijærvi" />
		<tag k="ssr:stedsnr" v="261728" />
	</node>
	<node lat="69.64610563986926" lon="30.479497843459498" id="-44732">
		<tag k="alt_name" v="Josefvatnet" />
		<tag k="name" v="Blomstervatnet" />
		<tag k="natural" v="water" />
		<tag k="ssr:stedsnr" v="261731" />
	</node>
	<node lat="69.67671119773371" lon="30.84592257006291" id="-44735">
		<tag k="alt_name" v="Figenschoutjørna" />
		<tag k="name" v="Figenschoutjønna" />
		<tag k="natural" v="water" />
		<tag k="ssr:stedsnr" v="261889" />
	</node>
	<node lat="69.7036528674092" lon="30.89651143618433" id="-44737">
		<tag k="name" v="Storsteinneset" />
		<tag k="natural" v="cape" />
		<tag k="ssr:stedsnr" v="261904" />
	</node>
	<node lat="69.40929729782145" lon="29.941003704096225" id="-44738">
		<tag k="alt_name" v="Skogøy, l;Litle Skogøy" />
		<tag k="name" v="Lille Skogøy" />
		<tag k="place" v="islet" />
		<tag k="ssr:stedsnr" v="261906" />
	</node>
	<node lat="69.730700084673" lon="30.668800524173605" id="-44739">
		<tag k="name" v="Kløvervatnet" />
		<tag k="natural" v="water" />
		<tag k="ssr:stedsnr" v="261907" />
	</node>
	<node lat="69.73324175013002" lon="30.7177782617903" id="-44740">
		<tag k="name" v="Store Kobbholmsvatnet - Vuorkeljávri" />
		<tag k="name:no" v="Store Kobbholmsvatnet" />
		<tag k="name:se" v="Vuorkeljávri" />
		<tag k="natural" v="water" />
		<tag k="old_name:no" v="Kobbholmsvatnet, store" />
		<tag k="old_name:se" v="Vuorkeljavri" />
		<tag k="ssr:stedsnr" v="261909" />
		<tag k="water" v="lake" />
	</node>
	<node lat="69.56840009001985" lon="30.5610338494055" id="-44741">
		<tag k="name" v="Bissojohka" />
		<tag k="name:se" v="Bissojohka" />
		<tag k="old_name:se" v="Bissujåkka" />
		<tag k="ssr:stedsnr" v="261807" />
		<tag k="waterway" v="river" />
	</node>
	<node lat="69.70518616903848" lon="29.846964984169613" id="-44753">
		<tag k="alt_name:se" v="Nuvssuolojávri" />
		<tag k="name" v="Suolojávri" />
		<tag k="name:se" v="Suolojávri" />
		<tag k="natural" v="water" />
		<tag k="old_name:se" v="Suolujavri" />
		<tag k="ssr:stedsnr" v="262072" />
		<tag k="water" v="lake" />
	</node>
	<node lat="69.52051395434812" lon="29.69952891266897" id="-44758">
		<tag k="name" v="Kveitevatnet - Bálddesjávri" />
		<tag k="name:no" v="Kveitevatnet" />
		<tag k="name:se" v="Bálddesjávri" />
		<tag k="natural" v="water" />
		<tag k="old_name:se" v="Baldesjavri" />
		<tag k="ssr:stedsnr" v="262195" />
		<tag k="water" v="lake" />
	</node>
	<node lat="69.69218617381362" lon="29.866978879407704" id="-44761">
		<tag k="name" v="Gáhkkorláttu" />
		<tag k="name:se" v="Gáhkkorláttu" />
		<tag k="natural" v="water" />
		<tag k="old_name:se" v="Gakkurladdo" />
		<tag k="ssr:stedsnr" v="262083" />
	</node>
	<node lat="69.59379172349061" lon="29.728923360454093" id="-44762">
		<tag k="name" v="Gjeddebekken" />
		<tag k="ssr:stedsnr" v="262167" />
		<tag k="waterway" v="stream" />
	</node>
	<node lat="69.75335838497665" lon="29.376184738854022" id="-44763">
		<tag k="name" v="Uhcit Sáhkkarasjávri" />
		<tag k="name:se" v="Uhcit Sáhkkarasjávri" />
		<tag k="natural" v="water" />
		<tag k="old_name:se" v="Sakkarasjavri, uccit" />
		<tag k="ssr:stedsnr" v="262168" />
		<tag k="water" v="lake" />
	</node>
	<node lat="69.5480241168711" lon="29.61037991108614" id="-44764">
		<tag k="name" v="Sandneslangvatnet - Važžejávri" />
		<tag k="name:no" v="Sandneslangvatnet" />
		<tag k="name:se" v="Važžejávri" />
		<tag k="natural" v="water" />
		<tag k="ssr:stedsnr" v="262169" />
		<tag k="water" v="lake" />
	</node>
	<node lat="69.55440005451844" lon="29.479167943925138" id="-44765">
		<tag k="name" v="Langvatnet - Guhkesjávri" />
		<tag k="name:no" v="Langvatnet" />
		<tag k="name:se" v="Guhkesjávri" />
		<tag k="natural" v="water" />
		<tag k="old_name:se" v="Gukkesjavri" />
		<tag k="ssr:stedsnr" v="262171" />
		<tag k="water" v="lake" />
	</node>
	<node lat="69.83025561153946" lon="29.748717874458706" id="-44773">
		<tag k="name" v="Ruksesbákjávri" />
		<tag k="name:se" v="Ruksesbákjávri" />
		<tag k="natural" v="water" />
		<tag k="old_name:se" v="Ruksesbakjavri" />
		<tag k="ssr:stedsnr" v="262231" />
	</node>
	<node lat="69.66014174129111" lon="30.193270302729903" id="-44775">
		<tag k="alt_name:no" v="Pikevatn" />
		<tag k="loc_name:se" v="Bejeb Nieidajávre" />
		<tag k="name" v="Pikevatnet - Neitijärvi" />
		<tag k="name:fkv" v="Neitijärvi" />
		<tag k="name:no" v="Pikevatnet" />
		<tag k="natural" v="water" />
		<tag k="ssr:stedsnr" v="262810" />
		<tag k="water" v="lake" />
	</node>
	<node lat="69.70897508129181" lon="30.60234500201818" id="-44779">
		<tag k="alt_name:no" v="Djupvatnet, l;Lille Djupvann" />
		<tag k="name" v="Lille Djupvatnet - Nuvttejávrrit" />
		<tag k="name:no" v="Lille Djupvatnet" />
		<tag k="name:se" v="Nuvttejávrrit" />
		<tag k="natural" v="water" />
		<tag k="old_name:se" v="Nuvtejavrit" />
		<tag k="ssr:stedsnr" v="262835" />
		<tag k="water" v="lake" />
	</node>
	<node lat="69.93153337993147" lon="29.340640382925102" id="-44782">
		<tag k="name" v="Ádjábávváljávri" />
		<tag k="name:se" v="Ádjábávváljávri" />
		<tag k="natural" v="water" />
		<tag k="old_name:se" v="Addjabavvaljavri;Addjabavvaljávri" />
		<tag k="ssr:stedsnr" v="262854" />
		<tag k="water" v="lake" />
	</node>
	<node lat="69.95456948921998" lon="29.349926472783448" id="-44783">
		<tag k="name" v="Battervatnet - Stuorrajávri" />
		<tag k="name:no" v="Battervatnet" />
		<tag k="name:se" v="Stuorrajávri" />
		<tag k="natural" v="water" />
		<tag k="old_name:se" v="Stuorrajavri" />
		<tag k="ssr:stedsnr" v="262874" />
		<tag k="water" v="lake" />
	</node>
	<node lat="69.85325558831772" lon="28.505604606765374" id="-44784">
		<tag k="name" v="Gisttabealjávri" />
		<tag k="name:se" v="Gisttabealjávri" />
		<tag k="natural" v="water" />
		<tag k="old_name:se" v="Gistabæljavri" />
		<tag k="ssr:stedsnr" v="262878" />
		<tag k="water" v="lake" />
	</node>
	<node lat="69.64693620487269" lon="30.924544686304504" id="-44786">
		<tag k="alt_name:no" v="Sandvasselv" />
		<tag k="name" v="Sandvasselva - Sáttojohka" />
		<tag k="name:no" v="Sandvasselva" />
		<tag k="name:se" v="Sáttojohka" />
		<tag k="old_name:se" v="Saddujåkka" />
		<tag k="ssr:stedsnr" v="262926" />
		<tag k="waterway" v="river" />
	</node>
	<node lat="69.32079449776863" lon="29.18507912736325" id="-44787">
		<tag k="fixme" v="multiple name tags, choose one and add the other to alt_name" />
		<tag k="name" v="Spurvbekken;Spurvelva - Šiššajohka" />
		<tag k="name:no" v="Spurvbekken;Spurvelva" />
		<tag k="name:se" v="Šiššajohka" />
		<tag k="old_name:se" v="Šiššajåkka" />
		<tag k="ssr:stedsnr" v="200105" />
		<tag k="waterway" v="river" />
	</node>
	<node lat="69.07960561902199" lon="29.0516124665353" id="-44788">
		<tag k="alt_name" v="Røyskattjørna" />
		<tag k="name" v="Røyskattjønna" />
		<tag k="natural" v="water" />
		<tag k="ssr:stedsnr" v="200016" />
	</node>
	<node lat="69.15143894332695" lon="28.879032018917442" id="-44789">
		<tag k="alt_name:no" v="Børsebrekkevatn" />
		<tag k="name" v="Børsebekkvatnet - Pyssytaitamajärvi" />
		<tag k="name:fkv" v="Pyssytaitamajärvi" />
		<tag k="name:no" v="Børsebekkvatnet" />
		<tag k="natural" v="water" />
		<tag k="ssr:stedsnr" v="200053" />
	</node>
	<node lat="69.57058897259103" lon="30.540475539342985" id="-44791">
		<tag k="name" v="Evavatnet - Evvájávri" />
		<tag k="name:no" v="Evavatnet" />
		<tag k="name:se" v="Evvájávri" />
		<tag k="natural" v="water" />
		<tag k="old_name:se" v="Evvajavri" />
		<tag k="ssr:stedsnr" v="200814" />
	</node>
	<node lat="69.44388061713562" lon="29.515573434336247" id="-44793">
		<tag k="name" v="Fiskeløysvatnet - Rautujärvi" />
		<tag k="name:fkv" v="Rautujärvi" />
		<tag k="name:no" v="Fiskeløysvatnet" />
		<tag k="natural" v="water" />
		<tag k="old_name:fkv" v="Raudojærvi" />
		<tag k="ssr:stedsnr" v="200904" />
	</node>
	<node lat="69.83205283122328" lon="29.81729840251837" id="-44802">
		<tag k="name" v="Druknevatnet" />
		<tag k="natural" v="water" />
		<tag k="ssr:stedsnr" v="201209" />
	</node>
	<node lat="69.6312472888947" lon="29.97120099471534" id="-44805">
		<tag k="name" v="Bjørnungen" />
		<tag k="natural" v="water" />
		<tag k="ssr:stedsnr" v="201112" />
	</node>
	<node lat="69.58693618032954" lon="29.949189881683147" id="-44806">
		<tag k="name" v="Langfjordeid - Uhcavuonmuotki - Uʹccvuõnnmueʹtǩǩ" />
		<tag k="name:no" v="Langfjordeid" />
		<tag k="name:se" v="Uhcavuonmuotki" />
		<tag k="name:sms" v="Uʹccvuõnnmueʹtǩǩ" />
		<tag k="place" v="locality" />
		<tag k="ssr:stedsnr" v="201145" />
	</node>
	<node lat="69.75690559934885" lon="28.85379887736705" id="-44807">
		<tag k="name" v="Roavvejávri" />
		<tag k="name:se" v="Roavvejávri" />
		<tag k="natural" v="water" />
		<tag k="old_name:se" v="Roavvejavri" />
		<tag k="ssr:stedsnr" v="201146" />
		<tag k="water" v="lake" />
	</node>
	<node lat="69.8968639484023" lon="29.859206729906134" id="-44810">
		<tag k="name" v="Čoalbmejávri" />
		<tag k="name:se" v="Čoalbmejávri" />
		<tag k="natural" v="water" />
		<tag k="old_name:se" v="Čoalbmejavri" />
		<tag k="ssr:stedsnr" v="201195" />
		<tag k="water" v="lake" />
	</node>
	<node lat="69.77367508601627" lon="30.820583755926425" id="-44814">
		<tag k="name" v="Storbekken" />
		<tag k="ssr:stedsnr" v="201397" />
		<tag k="waterway" v="stream" />
	</node>
	<node lat="69.8439944998602" lon="29.655748495889974" id="-44815">
		<tag k="name" v="Holmvatnet - Suolojávri" />
		<tag k="name:no" v="Holmvatnet" />
		<tag k="name:se" v="Suolojávri" />
		<tag k="natural" v="water" />
		<tag k="old_name:se" v="Suolujavri" />
		<tag k="ssr:stedsnr" v="201448" />
		<tag k="water" v="lake" />
	</node>
	<node lat="69.68034173108003" lon="30.034750966583836" id="-44817">
		<tag k="alt_name" v="Åborvatn" />
		<tag k="name" v="Abborvatnet" />
		<tag k="natural" v="water" />
		<tag k="ssr:stedsnr" v="201794" />
	</node>
	<node lat="69.59416676136821" lon="30.743197601866353" id="-44818">
		<tag k="name" v="Urdalsvatna" />
		<tag k="natural" v="water" />
		<tag k="ssr:stedsnr" v="201904" />
		<tag k="water" v="lake" />
	</node>
	<node lat="69.63360286135006" lon="30.539972801849704" id="-44821">
		<tag k="name" v="Arnt-Ivarvatnet" />
		<tag k="natural" v="water" />
		<tag k="ssr:stedsnr" v="201842" />
	</node>
	<node lat="69.61056119921497" lon="30.73891150861445" id="-44823">
		<tag k="name" v="Svanevatnet" />
		<tag k="natural" v="water" />
		<tag k="ssr:stedsnr" v="201898" />
	</node>
	<node lat="69.38544173530241" lon="29.711976068978252" id="-44833">
		<tag k="name" v="Skogvatn - Räämälompola" />
		<tag k="name:fkv" v="Räämälompola" />
		<tag k="name:no" v="Skogvatn" />
		<tag k="natural" v="water" />
		<tag k="ssr:stedsnr" v="208950" />
		<tag k="water" v="lake" />
	</node>
	<node lat="69.71677506131682" lon="30.048992648591632" id="-44840">
		<tag k="name" v="Tennevatn" />
		<tag k="natural" v="water" />
		<tag k="ssr:stedsnr" v="271691" />
	</node>
	<node lat="69.59000006439952" lon="29.885392686357665" id="-44848">
		<tag k="name" v="Lille Ulvetjern" />
		<tag k="natural" v="water" />
		<tag k="ssr:stedsnr" v="229333" />
	</node>
	<node lat="69.6048278511853" lon="30.01389816954927" id="-44849">
		<tag k="name" v="Vargtjernet" />
		<tag k="natural" v="water" />
		<tag k="ssr:stedsnr" v="229334" />
	</node>
	<node lat="69.60972228899622" lon="30.01886484190205" id="-44850">
		<tag k="name" v="Langtjernet" />
		<tag k="natural" v="water" />
		<tag k="ssr:stedsnr" v="229335" />
	</node>
	<node lat="69.77296394026529" lon="29.595798495446214" id="-44856">
		<tag k="name" v="Boares Gáissejávri" />
		<tag k="name:se" v="Boares Gáissejávri" />
		<tag k="natural" v="water" />
		<tag k="ssr:stedsnr" v="229980" />
	</node>
	<node lat="69.28770838741156" lon="29.091023611528083" id="-44860">
		<tag k="name" v="Biehkanláttu" />
		<tag k="name:se" v="Biehkanláttu" />
		<tag k="natural" v="water" />
		<tag k="old_name:se" v="Biehkanlattu" />
		<tag k="ssr:stedsnr" v="451758" />
		<tag k="water" v="lake" />
	</node>
	<node lat="69.0964778382385" lon="28.992695824705944" id="-44863">
		<tag k="fixme" v="multiple name tags, choose one and add the other to alt_name" />
		<tag k="name" v="Ødevatnet, l;Hallervatn;Lille Ødevatnet - Áibmejávri - Pikkovettijärvi" />
		<tag k="name:fkv" v="Pikkovettijärvi" />
		<tag k="name:no" v="Ødevatnet, l;Hallervatn;Lille Ødevatnet" />
		<tag k="name:se" v="Áibmejávri" />
		<tag k="natural" v="water" />
		<tag k="ssr:stedsnr" v="261006" />
		<tag k="water" v="lake" />
	</node>
	<node lat="69.27019450365191" lon="29.108481926355253" id="-44866">
		<tag k="alt_name:no" v="Underbakkevatn" />
		<tag k="name" v="Underbakkvatnet - Törmäjärvi" />
		<tag k="name:fkv" v="Törmäjärvi" />
		<tag k="name:no" v="Underbakkvatnet" />
		<tag k="natural" v="water" />
		<tag k="old_name:fkv" v="Dørmæjærvi" />
		<tag k="ssr:stedsnr" v="261109" />
		<tag k="water" v="lake" />
	</node>
	<node lat="69.49465007009684" lon="29.859270441337546" id="-44867">
		<tag k="name" v="Djupvatnet" />
		<tag k="natural" v="water" />
		<tag k="ssr:stedsnr" v="261096" />
	</node>
	<node lat="69.19876394251328" lon="29.017854192123316" id="-44868">
		<tag k="alt_name" v="Bjørntjørna" />
		<tag k="name" v="Bjørntjønna" />
		<tag k="natural" v="water" />
		<tag k="ssr:stedsnr" v="261753" />
	</node>
	<node lat="69.67383061259845" lon="29.465001321794563" id="-44878">
		<tag k="name" v="Gaivatnet" />
		<tag k="natural" v="water" />
		<tag k="ssr:stedsnr" v="262108" />
	</node>
	<node lat="69.66770560919582" lon="29.46566798798629" id="-44880">
		<tag k="name" v="Gaivatnbekken" />
		<tag k="ssr:stedsnr" v="262116" />
		<tag k="waterway" v="stream" />
	</node>
	<node lat="69.8149444854447" lon="28.929062759591417" id="-44882">
		<tag k="name" v="Vuosttamušluobbalat" />
		<tag k="name:se" v="Vuosttamušluobbalat" />
		<tag k="natural" v="water" />
		<tag k="old_name:se" v="Vuostamušluobbalat" />
		<tag k="ssr:stedsnr" v="262153" />
		<tag k="water" v="lake" />
	</node>
	<node lat="69.77966396347134" lon="30.373717439687876" id="-44886">
		<tag k="name" v="Skipshamnvatnet - Goalsevágejávri" />
		<tag k="name:no" v="Skipshamnvatnet" />
		<tag k="name:se" v="Goalsevágejávri" />
		<tag k="natural" v="water" />
		<tag k="old_name:se" v="Goalsevagejavri" />
		<tag k="ssr:stedsnr" v="262405" />
	</node>
	<node lat="69.85416947435688" lon="28.598935125649582" id="-44891">
		<tag k="name" v="Holmvatnet - Geađgesuolojávri" />
		<tag k="name:no" v="Holmvatnet" />
		<tag k="name:se" v="Geađgesuolojávri" />
		<tag k="natural" v="water" />
		<tag k="old_name:se" v="Gædgesuolujavri;Geadgesuolojávri" />
		<tag k="ssr:stedsnr" v="262494" />
		<tag k="water" v="lake" />
	</node>
	<node lat="69.69741674286296" lon="30.359456294957614" id="-44892">
		<tag k="loc_name:se" v="Suoinnejávre" />
		<tag k="name" v="Dalvatnet" />
		<tag k="name:no" v="Dalvatnet" />
		<tag k="natural" v="water" />
		<tag k="ssr:stedsnr" v="262841" />
	</node>
	<node lat="69.65457784278308" lon="30.037750953744318" id="-44903">
		<tag k="name" v="Posevatn" />
		<tag k="natural" v="water" />
		<tag k="ssr:stedsnr" v="287315" />
	</node>
	<node lat="69.84608615332552" lon="29.342729223562827" id="-44905">
		<tag k="name" v="Badjelbávttjohka" />
		<tag k="name:se" v="Badjelbávttjohka" />
		<tag k="ssr:stedsnr" v="290210" />
		<tag k="waterway" v="stream" />
	</node>
	<node lat="69.71436951880328" lon="30.458506236443423" id="-44906">
		<tag k="name" v="Kjosen" />
		<tag k="natural" v="bay" />
		<tag k="ssr:stedsnr" v="290227" />
	</node>
	<node lat="69.54670285577818" lon="30.16310637439061" id="-44914">
		<tag k="fixme" v="multiple name tags, choose one and add the other to alt_name" />
		<tag k="name" v="Storbukta;Vintervegbukta" />
		<tag k="natural" v="bay" />
		<tag k="ssr:stedsnr" v="466346" />
	</node>
	<node lat="69.1330528374648" lon="29.23566237917252" id="-44915">
		<tag k="name" v="Litle Sauholmen" />
		<tag k="place" v="islet" />
		<tag k="ssr:stedsnr" v="466431" />
	</node>
	<node lat="69.30660283609693" lon="29.318673483608134" id="-44916">
		<tag k="fixme" v="multiple name tags, choose one and add the other to alt_name" />
		<tag k="name" v="Nordvestneset;Steinneset" />
		<tag k="natural" v="cape" />
		<tag k="ssr:stedsnr" v="466439" />
	</node>
	<node lat="69.49978618698198" lon="30.08829806754895" id="-44917">
		<tag k="name" v="Liabekken" />
		<tag k="ssr:stedsnr" v="468257" />
		<tag k="waterway" v="stream" />
	</node>
	<node lat="69.22079173071238" lon="29.28611237038643" id="-44919">
		<tag k="alt_name" v="Svanetjørna;Svantjern" />
		<tag k="name" v="Svanetjønna" />
		<tag k="natural" v="water" />
		<tag k="ssr:stedsnr" v="321785" />
	</node>
	<node lat="69.3645945064167" lon="29.430945660455833" id="-44920">
		<tag k="alt_name" v="Gærnætjørna;Kärnätjernet" />
		<tag k="name" v="Gærnætjønna" />
		<tag k="natural" v="water" />
		<tag k="ssr:stedsnr" v="321878" />
	</node>
	<node lat="69.33747505972397" lon="29.45336232356023" id="-44921">
		<tag k="alt_name:no" v="Hasetjørna;Hasseltjernet;Hasetjern" />
		<tag k="name" v="Hasetjønna - Gáddeluoppal - Kattolampola" />
		<tag k="name:fkv" v="Kattolampola" />
		<tag k="name:no" v="Hasetjønna" />
		<tag k="name:se" v="Gáddeluoppal" />
		<tag k="natural" v="bay" />
		<tag k="old_name:se" v="Gaddeluobbal" />
		<tag k="ssr:stedsnr" v="321884" />
	</node>
	<node lat="69.86758616493447" lon="29.636406854805063" id="-44923">
		<tag k="name" v="Gammevatnan - Goahtejávrrit" />
		<tag k="name:no" v="Gammevatnan" />
		<tag k="name:se" v="Goahtejávrrit" />
		<tag k="natural" v="water" />
		<tag k="old_name:se" v="Goattejavrit" />
		<tag k="ssr:stedsnr" v="322205" />
		<tag k="water" v="lake" />
	</node>
	<node lat="69.85011671767427" lon="29.709120702209734" id="-44925">
		<tag k="name" v="Simlevatnet - Áldojávri" />
		<tag k="name:no" v="Simlevatnet" />
		<tag k="name:se" v="Áldojávri" />
		<tag k="natural" v="water" />
		<tag k="old_name:se" v="Aldujavri" />
		<tag k="ssr:stedsnr" v="322227" />
	</node>
	<node lat="69.82478893548637" lon="29.330709770296565" id="-44927">
		<tag k="name" v="Markibekken - Márkkajohka" />
		<tag k="name:no" v="Markibekken" />
		<tag k="name:se" v="Márkkajohka" />
		<tag k="old_name:se" v="Markajåkka;Markajohka" />
		<tag k="ssr:stedsnr" v="322132" />
		<tag k="waterway" v="river" />
	</node>
	<node lat="69.6152000593562" lon="29.64694007848595" id="-44928">
		<tag k="name" v="Oaggunjávri - Onkajärvi" />
		<tag k="name:fkv" v="Onkajärvi" />
		<tag k="name:se" v="Oaggunjávri" />
		<tag k="natural" v="water" />
		<tag k="old_name:se" v="Oaggonjavri" />
		<tag k="ssr:stedsnr" v="322134" />
		<tag k="water" v="lake" />
	</node>
	<node lat="69.82332503805202" lon="29.135187660984727" id="-44929">
		<tag k="name" v="Trangdalsvatn - Ruovddášjávri" />
		<tag k="name:no" v="Trangdalsvatn" />
		<tag k="name:se" v="Ruovddášjávri" />
		<tag k="natural" v="water" />
		<tag k="old_name:se" v="Ruovdašjavri" />
		<tag k="ssr:stedsnr" v="322135" />
		<tag k="water" v="lake" />
	</node>
	<node lat="69.1842750554602" lon="28.93278755544237" id="-44933">
		<tag k="alt_name:no" v="Kolvatnet, l;Lille Kullvatn" />
		<tag k="name" v="Lille Kolvatnet - Hermannijärvi" />
		<tag k="name:fkv" v="Hermannijärvi" />
		<tag k="name:no" v="Lille Kolvatnet" />
		<tag k="natural" v="water" />
		<tag k="ssr:stedsnr" v="322774" />
	</node>
	<node lat="69.45500006283648" lon="29.499945678071406" id="-44935">
		<tag k="alt_name" v="Røyrvasstjørna" />
		<tag k="name" v="Røyrvasstjønna" />
		<tag k="natural" v="water" />
		<tag k="ssr:stedsnr" v="322905" />
	</node>
	<node lat="69.46123062572872" lon="29.807928799898132" id="-44936">
		<tag k="name" v="Rapalampi" />
		<tag k="name:fkv" v="Rapalampi" />
		<tag k="natural" v="water" />
		<tag k="old_name:fkv" v="Rabalambi" />
		<tag k="ssr:stedsnr" v="322908" />
	</node>
	<node lat="69.57308796322619" lon="30.938642928459803" id="-44938">
		<tag k="alt_name:no" v="Langvatn" />
		<tag k="name" v="Langvatnet - Guhkesjávri" />
		<tag k="name:no" v="Langvatnet" />
		<tag k="name:se" v="Guhkesjávri" />
		<tag k="natural" v="water" />
		<tag k="old_name:se" v="Gukkesjavri" />
		<tag k="ssr:stedsnr" v="322880" />
		<tag k="water" v="lake" />
	</node>
	<node lat="69.78434449363564" lon="29.44188193852816" id="-44939">
		<tag k="name" v="Storvatnet - Stuorrajávri" />
		<tag k="name:no" v="Storvatnet" />
		<tag k="name:se" v="Stuorrajávri" />
		<tag k="natural" v="water" />
		<tag k="old_name:se" v="Stuorrajavri" />
		<tag k="ssr:stedsnr" v="323025" />
		<tag k="water" v="lake" />
	</node>
	<node lat="69.54054451329198" lon="29.888439906078464" id="-44942">
		<tag k="alt_name:no" v="Sagvatn" />
		<tag k="name" v="Sagvatnet - Surotjávri - Surkkajärvi" />
		<tag k="name:fkv" v="Surkkajärvi" />
		<tag k="name:no" v="Sagvatnet" />
		<tag k="name:se" v="Surotjávri" />
		<tag k="natural" v="water" />
		<tag k="old_name:se" v="Surutjavri" />
		<tag k="ssr:stedsnr" v="323210" />
		<tag k="water" v="lake" />
	</node>
	<node lat="69.66308896266365" lon="30.30741466336151" id="-44948">
		<tag k="alt_name" v="Østerelva" />
		<tag k="name" v="Austerelva" />
		<tag k="ssr:stedsnr" v="323778" />
		<tag k="waterway" v="stream" />
	</node>
	<node lat="69.57505006902241" lon="30.131450851098244" id="-44950">
		<tag k="name" v="Lorttjønna" />
		<tag k="natural" v="water" />
		<tag k="ssr:stedsnr" v="470227" />
	</node>
	<node lat="69.70719728986761" lon="30.17492587920124" id="-44951">
		<tag k="name" v="Ørretvatnet" />
		<tag k="natural" v="water" />
		<tag k="ssr:stedsnr" v="328617" />
		<tag k="water" v="lake" />
	</node>
	<node lat="69.67920841062019" lon="30.47925620846308" id="-44957">
		<tag k="name" v="Snavlakvatnet - Snávlaláddu" />
		<tag k="name:no" v="Snavlakvatnet" />
		<tag k="name:se" v="Snávlaláddu" />
		<tag k="natural" v="water" />
		<tag k="ssr:stedsnr" v="471034" />
	</node>
	<node lat="69.38891118035933" lon="29.62997890366303" id="-44959">
		<tag k="name" v="Koievatn" />
		<tag k="natural" v="water" />
		<tag k="ssr:stedsnr" v="471055" />
	</node>
	<node lat="69.64232506677813" lon="29.962234342264537" id="-44960">
		<tag k="name" v="Natalievatn" />
		<tag k="natural" v="water" />
		<tag k="ssr:stedsnr" v="471300" />
	</node>
	<node lat="69.57079728868919" lon="29.913731548414383" id="-44966">
		<tag k="name" v="Djupvatn - Seavanjávrrit" />
		<tag k="name:no" v="Djupvatn" />
		<tag k="name:se" v="Seavanjávrrit" />
		<tag k="natural" v="water" />
		<tag k="ssr:stedsnr" v="471600" />
	</node>
	<node lat="69.68849449324054" lon="29.395468030586642" id="-44969">
		<tag k="name" v="Korbineset" />
		<tag k="natural" v="cape" />
		<tag k="ssr:stedsnr" v="337053" />
	</node>
	<node lat="69.53223339844047" lon="29.878006561887684" id="-44978">
		<tag k="name" v="Kalvholman - Vasikkasaaret" />
		<tag k="name:fkv" v="Vasikkasaaret" />
		<tag k="name:no" v="Kalvholman" />
		<tag k="place" v="islet" />
		<tag k="ssr:stedsnr" v="472598" />
	</node>
	<node lat="69.74505840525845" lon="30.237311983926745" id="-44980">
		<tag k="name" v="Varmhullvatnet" />
		<tag k="natural" v="water" />
		<tag k="ssr:stedsnr" v="348370" />
	</node>
	<node lat="69.64572785439336" lon="30.313842432338095" id="-44982">
		<tag k="name" v="Tverrelvvatnet" />
		<tag k="natural" v="water" />
		<tag k="ssr:stedsnr" v="348463" />
	</node>
	<node lat="69.64598618386127" lon="30.360622946547583" id="-44983">
		<tag k="name" v="Brandstjernan" />
		<tag k="natural" v="water" />
		<tag k="ssr:stedsnr" v="348465" />
	</node>
	<node lat="69.85476115617313" lon="29.393784762844316" id="-44986">
		<tag k="name" v="Gužžjohka" />
		<tag k="name:se" v="Gužžjohka" />
		<tag k="ssr:stedsnr" v="349022" />
		<tag k="waterway" v="stream" />
	</node>
	<node lat="69.7996722724058" lon="29.67496792337538" id="-44995">
		<tag k="name" v="Gressvatnet - Yli-Rasijärvi" />
		<tag k="name:fkv" v="Yli-Rasijärvi" />
		<tag k="name:no" v="Gressvatnet" />
		<tag k="natural" v="water" />
		<tag k="ssr:stedsnr" v="360522" />
	</node>
	<node lat="69.72196115862936" lon="29.082220974093755" id="-44997">
		<tag k="name" v="Hávgajávri - Haukijärvi" />
		<tag k="name:fkv" v="Haukijärvi" />
		<tag k="name:se" v="Hávgajávri" />
		<tag k="natural" v="water" />
		<tag k="old_name:se" v="Havgajavri" />
		<tag k="ssr:stedsnr" v="382004" />
	</node>
	<node lat="69.69507505044736" lon="29.158562603729308" id="-44999">
		<tag k="name" v="Knutbekken - Nuorttajohka" />
		<tag k="name:no" v="Knutbekken" />
		<tag k="name:se" v="Nuorttajohka" />
		<tag k="old_name:se" v="Nuortajåkka" />
		<tag k="ssr:stedsnr" v="382008" />
		<tag k="waterway" v="river" />
	</node>
	<node lat="69.56683063175576" lon="30.178981361696334" id="-45003">
		<tag k="alt_name:no" v="Fjellfrasnes;Fjellfrossneset" />
		<tag k="name" v="Fjellfrossnes - Geatkenjárga" />
		<tag k="name:no" v="Fjellfrossnes" />
		<tag k="name:se" v="Geatkenjárga" />
		<tag k="natural" v="cape" />
		<tag k="old_name:se" v="Gætkenjarga" />
		<tag k="ssr:stedsnr" v="382815" />
	</node>
	<node lat="69.6081056246694" lon="30.08286478033175" id="-45004">
		<tag k="alt_name:no" v="Store Fiskevatn" />
		<tag k="name" v="Store Fiskevatnet - Oaggunjávri" />
		<tag k="name:no" v="Store Fiskevatnet" />
		<tag k="name:se" v="Oaggunjávri" />
		<tag k="natural" v="water" />
		<tag k="old_name:no" v="Fiskevatnet, store" />
		<tag k="old_name:se" v="Oaggonjavri" />
		<tag k="ssr:stedsnr" v="382860" />
		<tag k="water" v="lake" />
	</node>
	<node lat="69.79995006492169" lon="30.189325936704314" id="-45006">
		<tag k="name" v="Skottelvvatna" />
		<tag k="natural" v="water" />
		<tag k="ssr:stedsnr" v="383103" />
	</node>
	<node lat="69.81213615720209" lon="29.21997373415613" id="-45008">
		<tag k="name" v="Čoavjejávri" />
		<tag k="name:se" v="Čoavjejávri" />
		<tag k="natural" v="water" />
		<tag k="old_name:se" v="Čoavjejavri" />
		<tag k="ssr:stedsnr" v="383152" />
		<tag k="water" v="lake" />
	</node>
	<node lat="69.53353895685046" lon="29.882695464588572" id="-45012">
		<tag k="alt_name" v="Kalveneset" />
		<tag k="name" v="Kalvneset" />
		<tag k="natural" v="cape" />
		<tag k="ssr:stedsnr" v="383204" />
	</node>
	<node lat="69.58267232445509" lon="30.94315574746749" id="-45018">
		<tag k="name" v="Rundvatn" />
		<tag k="natural" v="water" />
		<tag k="ssr:stedsnr" v="383908" />
	</node>
	<node lat="69.62305287335626" lon="30.94144467223269" id="-45019">
		<tag k="name" v="Rundholen" />
		<tag k="natural" v="water" />
		<tag k="ssr:stedsnr" v="383910" />
	</node>
	<node lat="69.64205564225007" lon="30.714864316690864" id="-45021">
		<tag k="name" v="Viksjøen - Guorgajávri" />
		<tag k="name:no" v="Viksjøen" />
		<tag k="name:se" v="Guorgajávri" />
		<tag k="natural" v="water" />
		<tag k="old_name:se" v="Guorgajavri" />
		<tag k="ssr:stedsnr" v="383917" />
		<tag k="water" v="lake" />
	</node>
	<node lat="69.555841757552" lon="30.651111561516643" id="-45024">
		<tag k="name" v="Išmmisjávri" />
		<tag k="name:se" v="Išmmisjávri" />
		<tag k="natural" v="water" />
		<tag k="old_name:se" v="Išmisjavri" />
		<tag k="ssr:stedsnr" v="383896" />
	</node>
	<node lat="69.54661398239227" lon="30.701589275482913" id="-45025">
		<tag k="name" v="Vuorjánláđvi" />
		<tag k="name:se" v="Vuorjánláđvi" />
		<tag k="natural" v="water" />
		<tag k="old_name:se" v="Vuoranlađvi" />
		<tag k="ssr:stedsnr" v="383897" />
	</node>
	<node lat="69.69587506769219" lon="30.022020424221264" id="-45039">
		<tag k="name" v="Tangen" />
		<tag k="place" v="locality" />
		<tag k="ssr:stedsnr" v="397881" />
	</node>
	<node lat="69.67637785886187" lon="30.44980621992218" id="-45043">
		<tag k="name" v="Lille elva" />
		<tag k="ssr:stedsnr" v="410108" />
		<tag k="waterway" v="stream" />
	</node>
	<node lat="69.28660005240337" lon="29.10229583351215" id="-45045">
		<tag k="name" v="Øvre Biehkanjávri" />
		<tag k="natural" v="water" />
		<tag k="ssr:stedsnr" v="411046" />
		<tag k="water" v="lake" />
	</node>
	<node lat="69.59737784915505" lon="29.9970981882469" id="-45051">
		<tag k="name" v="Høystakkmyrneset - Luovajänkäniemi" />
		<tag k="name:fkv" v="Luovajänkäniemi" />
		<tag k="name:no" v="Høystakkmyrneset" />
		<tag k="natural" v="cape" />
		<tag k="ssr:stedsnr" v="411304" />
	</node>
	<node lat="69.55489173161709" lon="29.88167601699734" id="-45055">
		<tag k="name" v="Djupdalsbekken - Syväkurujoki" />
		<tag k="name:fkv" v="Syväkurujoki" />
		<tag k="name:no" v="Djupdalsbekken" />
		<tag k="ssr:stedsnr" v="411546" />
		<tag k="waterway" v="stream" />
	</node>
	<node lat="69.20495838752831" lon="28.83376261403514" id="-45060">
		<tag k="name" v="Kapperijärvi" />
		<tag k="name:fkv" v="Kapperijärvi" />
		<tag k="natural" v="water" />
		<tag k="old_name:fkv" v="Gapperijærvi" />
		<tag k="ssr:stedsnr" v="443782" />
	</node>
	<node lat="69.20906672561327" lon="29.09744857613942" id="-45061">
		<tag k="name" v="Millionbukta - Millionamutka" />
		<tag k="name:fkv" v="Millionamutka" />
		<tag k="name:no" v="Millionbukta" />
		<tag k="natural" v="bay" />
		<tag k="ssr:stedsnr" v="443786" />
	</node>
	<node lat="69.67477509018504" lon="30.942780816255908" id="-45062">
		<tag k="name" v="Langletneset" />
		<tag k="natural" v="cape" />
		<tag k="ssr:stedsnr" v="443912" />
	</node>
	<node lat="69.43575006172041" lon="29.518706763193617" id="-45063">
		<tag k="alt_name" v="Urdtjørna" />
		<tag k="name" v="Urtjønna" />
		<tag k="natural" v="water" />
		<tag k="ssr:stedsnr" v="443914" />
	</node>
	<node lat="69.8141722721381" lon="29.557742986246033" id="-45068">
		<tag k="name" v="Beatnatluoppal" />
		<tag k="name:se" v="Beatnatluoppal" />
		<tag k="natural" v="water" />
		<tag k="old_name:se" v="Bædnatluobbal" />
		<tag k="ssr:stedsnr" v="444006" />
	</node>
	<node lat="69.81580838377783" lon="29.643929049735444" id="-45069">
		<tag k="name" v="Snauvatnelva - Roavvejohka" />
		<tag k="name:no" v="Snauvatnelva" />
		<tag k="name:se" v="Roavvejohka" />
		<tag k="old_name:se" v="Roavvejåkka" />
		<tag k="ssr:stedsnr" v="444008" />
		<tag k="waterway" v="stream" />
	</node>
	<node lat="69.78686393967268" lon="29.65247347791299" id="-45072">
		<tag k="name" v="Valenvatnan - Coagalmjávrrit" />
		<tag k="name:no" v="Valenvatnan" />
		<tag k="name:se" v="Coagalmjávrrit" />
		<tag k="natural" v="water" />
		<tag k="old_name:se" v="Coagalmjavrit" />
		<tag k="ssr:stedsnr" v="444018" />
	</node>
	<node lat="69.66948617083477" lon="29.602326231721808" id="-45076">
		<tag k="name" v="Suhpeláttu" />
		<tag k="name:se" v="Suhpeláttu" />
		<tag k="natural" v="water" />
		<tag k="old_name:se" v="Suppeladdo" />
		<tag k="ssr:stedsnr" v="444110" />
	</node>
	<node lat="69.76663341185238" lon="30.673794991345986" id="-45079">
		<tag k="name" v="Josarelva - Jussájohka" />
		<tag k="name:no" v="Josarelva" />
		<tag k="name:se" v="Jussájohka" />
		<tag k="old_name:se" v="Jussajåkka" />
		<tag k="ssr:stedsnr" v="444403" />
		<tag k="waterway" v="stream" />
	</node>
	<node lat="69.75320563832818" lon="30.725939380546812" id="-45080">
		<tag k="alt_name:no" v="Kobbholmvatnet, l" />
		<tag k="name" v="Lille Kobbholmvatnet - Vuorkelluoppal" />
		<tag k="name:no" v="Lille Kobbholmvatnet" />
		<tag k="name:se" v="Vuorkelluoppal" />
		<tag k="natural" v="water" />
		<tag k="old_name:se" v="Vuorkelluobbal" />
		<tag k="ssr:stedsnr" v="444407" />
		<tag k="water" v="lake" />
	</node>
	<node lat="69.68150840571107" lon="30.07781760476281" id="-45082">
		<tag k="alt_name" v="Rundvatn" />
		<tag k="name" v="Rundvatnet" />
		<tag k="natural" v="water" />
		<tag k="ssr:stedsnr" v="444805" />
		<tag k="water" v="lake" />
	</node>
	<node lat="69.9070750322919" lon="28.61902955627252" id="-45084">
		<tag k="name" v="Ođđagopskáidi" />
		<tag k="name:se" v="Ođđagopskáidi" />
		<tag k="natural" v="cape" />
		<tag k="old_name:se" v="Åđđagåpskaidi;Ođđagohpskáidi" />
		<tag k="ssr:stedsnr" v="444878" />
	</node>
	<node lat="69.70607504833141" lon="29.308462515799278" id="-45092">
		<tag k="name" v="Langnes" />
		<tag k="natural" v="cape" />
		<tag k="ssr:stedsnr" v="458512" />
	</node>
	<node lat="69.60584730229996" lon="30.373659021700025" id="-45095">
		<tag k="name" v="Serdivatnet - Siertijärvi" />
		<tag k="name:fkv" v="Siertijärvi" />
		<tag k="name:no" v="Serdivatnet" />
		<tag k="natural" v="water" />
		<tag k="ssr:stedsnr" v="466165" />
		<tag k="water" v="lake" />
	</node>
	<node lat="69.55066674506783" lon="30.16723692637634" id="-45096">
		<tag k="name" v="Saugjerdet" />
		<tag k="natural" v="cape" />
		<tag k="ssr:stedsnr" v="469303" />
	</node>
	<node lat="69.58466951425567" lon="29.990606507748492" id="-45101">
		<tag k="name" v="Sandbukta" />
		<tag k="natural" v="bay" />
		<tag k="ssr:stedsnr" v="471302" />
	</node>
	<node lat="69.53130841012003" lon="30.036417567625968" id="-45103">
		<tag k="name" v="Holmvassbekken" />
		<tag k="ssr:stedsnr" v="471361" />
		<tag k="waterway" v="stream" />
	</node>
	<node lat="69.52233618158405" lon="29.95463984031871" id="-45107">
		<tag k="name" v="Tjæradalsbekken" />
		<tag k="ssr:stedsnr" v="472574" />
		<tag k="waterway" v="stream" />
	</node>
	<node lat="69.79685561470015" lon="29.69273734649191" id="-45109">
		<tag k="name" v="Ala Rasijärvi" />
		<tag k="name:fkv" v="Ala Rasijärvi" />
		<tag k="natural" v="water" />
		<tag k="ssr:stedsnr" v="472975" />
	</node>
	<node lat="69.28187228067348" lon="29.279142961822192" id="-45111">
		<tag k="fixme" v="multiple name tags, choose one and add the other to alt_name" />
		<tag k="name" v="Lauvholmen;Kisteholmen;Lavholmen" />
		<tag k="place" v="islet" />
		<tag k="ssr:stedsnr" v="503102" />
	</node>
	<node lat="69.3100778330977" lon="29.189115232410206" id="-45112">
		<tag k="alt_name:no" v="Lille Spurvvatn" />
		<tag k="alt_name:se" v="Cizášluoppal" />
		<tag k="name" v="Lille Spurvvatnet - Šiššaluoppal" />
		<tag k="name:no" v="Lille Spurvvatnet" />
		<tag k="name:se" v="Šiššaluoppal" />
		<tag k="natural" v="water" />
		<tag k="old_name:no" v="Spurvvatnet, l" />
		<tag k="old_name:se" v="Šiššaluobbal" />
		<tag k="ssr:stedsnr" v="503107" />
		<tag k="water" v="lake" />
	</node>
	<node lat="69.34915283561647" lon="29.3669206958471" id="-45113">
		<tag k="name" v="Elgbekken" />
		<tag k="ssr:stedsnr" v="503109" />
		<tag k="waterway" v="stream" />
	</node>
	<node lat="69.71785841894707" lon="30.746283778336416" id="-45117">
		<tag k="name" v="Holmvassbekken" />
		<tag k="ssr:stedsnr" v="503903" />
		<tag k="waterway" v="stream" />
	</node>
	<node lat="69.7213973106755" lon="30.815580966500946" id="-45118">
		<tag k="alt_name" v="Skarvatn, første" />
		<tag k="name" v="Første Skarvatn" />
		<tag k="natural" v="water" />
		<tag k="ssr:stedsnr" v="503905" />
	</node>
	<node lat="69.0156306176095" lon="29.042215219180132" id="-45121">
		<tag k="alt_name" v="Grenseneset" />
		<tag k="name" v="Grensenesholmen" />
		<tag k="place" v="islet" />
		<tag k="ssr:stedsnr" v="504078" />
	</node>
	<node lat="69.73589452148673" lon="30.392828522962613" id="-45124">
		<tag k="alt_name" v="Grenelva" />
		<tag k="name" v="Greinelva" />
		<tag k="ssr:stedsnr" v="504204" />
		<tag k="waterway" v="stream" />
	</node>
	<node lat="69.82809449800364" lon="29.525843001981034" id="-45125">
		<tag k="name" v="Bajit Holvunjávri" />
		<tag k="name:se" v="Bajit Holvunjávri" />
		<tag k="natural" v="water" />
		<tag k="old_name:se" v="Hålvonjavrri, bajit" />
		<tag k="ssr:stedsnr" v="504209" />
		<tag k="water" v="lake" />
	</node>
	<node lat="69.7956639380125" lon="29.38357641563501" id="-45129">
		<tag k="name" v="Låsvannet - Čoallejávri" />
		<tag k="name:no" v="Låsvannet" />
		<tag k="name:se" v="Čoallejávri" />
		<tag k="natural" v="water" />
		<tag k="old_name:se" v="Čoallejavri" />
		<tag k="ssr:stedsnr" v="504107" />
		<tag k="water" v="lake" />
	</node>
	<node lat="69.60899728850416" lon="29.900842694188114" id="-45130">
		<tag k="alt_name" v="Gotmagavatn" />
		<tag k="name" v="Edvinvatnet" />
		<tag k="natural" v="water" />
		<tag k="ssr:stedsnr" v="504113" />
	</node>
	<node lat="69.76790841253366" lon="30.763225472157185" id="-45134">
		<tag k="name" v="Skogbuktvatna" />
		<tag k="natural" v="water" />
		<tag k="ssr:stedsnr" v="504417" />
	</node>
	<node lat="69.73862504140138" lon="29.0489821244329" id="-45136">
		<tag k="name" v="Hirsajávri" />
		<tag k="name:se" v="Hirsajávri" />
		<tag k="natural" v="water" />
		<tag k="old_name:se" v="Hirsajavri" />
		<tag k="ssr:stedsnr" v="504470" />
		<tag k="water" v="lake" />
	</node>
	<node lat="69.52873340620869" lon="30.144514700503983" id="-45137">
		<tag k="fixme" v="multiple name tags, choose one and add the other to alt_name" />
		<tag k="name" v="Grenseholmen;Holmen;Store Grenseholmen" />
		<tag k="place" v="islet" />
		<tag k="ssr:stedsnr" v="504808" />
	</node>
	<node lat="69.61818895891945" lon="30.103581449840426" id="-45138">
		<tag k="alt_name" v="Fiskevatnet, l;Lille Fiskevatn" />
		<tag k="name" v="Lille Fiskevatnet" />
		<tag k="natural" v="water" />
		<tag k="ssr:stedsnr" v="504868" />
	</node>
	<node lat="69.24413617435522" lon="29.260795740843484" id="-45142">
		<tag k="fixme" v="multiple name tags, choose one and add the other to alt_name" />
		<tag k="name" v="Værholmen;Telefonholmen;Sauholmen" />
		<tag k="place" v="islet" />
		<tag k="ssr:stedsnr" v="504775" />
	</node>
	<node lat="69.54144173021825" lon="29.782009424371243" id="-45145">
		<tag k="name" v="Čievanjohka" />
		<tag k="name:se" v="Čievanjohka" />
		<tag k="old_name:se" v="Čievanjåkka" />
		<tag k="ssr:stedsnr" v="505212" />
		<tag k="waterway" v="stream" />
	</node>
	<node lat="69.58491671851282" lon="29.331945807669726" id="-45160">
		<tag k="name" v="Jeageljávri" />
		<tag k="name:se" v="Jeageljávri" />
		<tag k="natural" v="water" />
		<tag k="old_name:se" v="Jægeljavri" />
		<tag k="ssr:stedsnr" v="685032" />
	</node>
	<node lat="69.42448895069403" lon="29.395140165918974" id="-45161">
		<tag k="name" v="Lille Oksvatnet" />
		<tag k="natural" v="water" />
		<tag k="old_name" v="Oksvatnet, l" />
		<tag k="ssr:stedsnr" v="685069" />
		<tag k="water" v="lake" />
	</node>
	<node lat="69.7323861727047" lon="29.913889967011308" id="-45163">
		<tag k="alt_name:se" v="Geassejohka" />
		<tag k="name" v="Goassajohka" />
		<tag k="name:se" v="Goassajohka" />
		<tag k="old_name:se" v="Goassajåkka" />
		<tag k="ssr:stedsnr" v="686056" />
		<tag k="waterway" v="stream" />
	</node>
	<node lat="69.24426949859698" lon="28.882309830564115" id="-45166">
		<tag k="alt_name" v="Veivatn" />
		<tag k="name" v="Veivatnet" />
		<tag k="natural" v="water" />
		<tag k="ssr:stedsnr" v="685730" />
	</node>
	<node lat="69.23416950618751" lon="29.14430412328096" id="-45167">
		<tag k="name" v="Villreinsbekken" />
		<tag k="ssr:stedsnr" v="685731" />
		<tag k="waterway" v="stream" />
	</node>
	<node lat="69.59824728395805" lon="29.810328869347373" id="-45170">
		<tag k="name" v="Skálvejávri" />
		<tag k="name:se" v="Skálvejávri" />
		<tag k="natural" v="water" />
		<tag k="old_name:se" v="Skalvejavri" />
		<tag k="ssr:stedsnr" v="686153" />
		<tag k="water" v="lake" />
	</node>
	<node lat="69.60488617740837" lon="29.994900953728358" id="-45171">
		<tag k="fixme" v="multiple name tags, choose one and add the other to alt_name" />
		<tag k="name" v="Øyvatnet;Lille Peskvatn" />
		<tag k="natural" v="water" />
		<tag k="ssr:stedsnr" v="686155" />
	</node>
	<node lat="69.70590560503115" lon="29.21465147713906" id="-45172">
		<tag k="alt_name" v="Bævernes" />
		<tag k="name" v="Bevernes" />
		<tag k="natural" v="cape" />
		<tag k="ssr:stedsnr" v="686010" />
	</node>
	<node lat="69.63386672791157" lon="29.689659498151105" id="-45174">
		<tag k="name" v="Nesvatnet - Njárgajávri" />
		<tag k="name:no" v="Nesvatnet" />
		<tag k="name:se" v="Njárgajávri" />
		<tag k="natural" v="water" />
		<tag k="old_name:se" v="Njargajavri" />
		<tag k="ssr:stedsnr" v="686108" />
	</node>
	<node lat="69.7130889500335" lon="29.702287307168895" id="-45177">
		<tag k="name" v="Øvre Buholmvatn - Čádjetjávri" />
		<tag k="name:no" v="Øvre Buholmvatn" />
		<tag k="name:se" v="Čádjetjávri" />
		<tag k="natural" v="water" />
		<tag k="old_name:se" v="Čaddjetjavri" />
		<tag k="ssr:stedsnr" v="686071" />
	</node>
	<node lat="69.5394945116495" lon="30.05975089578901" id="-45180">
		<tag k="name" v="Aspedalsvatn" />
		<tag k="natural" v="water" />
		<tag k="ssr:stedsnr" v="530289" />
	</node>
	<node lat="69.54115840173593" lon="30.062581452395065" id="-45181">
		<tag k="name" v="Tennvatn" />
		<tag k="natural" v="water" />
		<tag k="ssr:stedsnr" v="530291" />
		<tag k="water" v="pond" />
	</node>
	<node lat="69.64085005775732" lon="29.613667895102417" id="-45183">
		<tag k="name" v="Gánduljávri" />
		<tag k="name:se" v="Gánduljávri" />
		<tag k="natural" v="water" />
		<tag k="old_name:se" v="Gandoljavri" />
		<tag k="ssr:stedsnr" v="686117" />
		<tag k="water" v="lake" />
	</node>
	<node lat="69.73991952699171" lon="30.605436696159614" id="-45186">
		<tag k="name" v="Gravsjøen - Roggejávri" />
		<tag k="name:no" v="Gravsjøen" />
		<tag k="name:se" v="Roggejávri" />
		<tag k="natural" v="water" />
		<tag k="old_name:se" v="Råggejavri" />
		<tag k="ssr:stedsnr" v="686213" />
		<tag k="water" v="lake" />
	</node>
	<node lat="69.72954451525007" lon="30.314309137924614" id="-45187">
		<tag k="alt_name:no" v="Torvfjellvatna, in" />
		<tag k="loc_name:se" v="Mátteb Levnnjejávrrek" />
		<tag k="name" v="Indre Torvfjellvatna - Máttit Lavdnjejávrrit" />
		<tag k="name:no" v="Indre Torvfjellvatna" />
		<tag k="name:se" v="Máttit Lavdnjejávrrit" />
		<tag k="natural" v="water" />
		<tag k="old_name:se" v="Lavdnjejavrit maddit" />
		<tag k="ssr:stedsnr" v="686216" />
		<tag k="water" v="lake" />
	</node>
	<node lat="69.74213341154505" lon="30.470564579562676" id="-45191">
		<tag k="name" v="Trollbekken" />
		<tag k="ssr:stedsnr" v="686226" />
		<tag k="waterway" v="stream" />
	</node>
	<node lat="69.72206395558818" lon="30.188842558758136" id="-45194">
		<tag k="name" v="Langvatnet - Guhkesjávri" />
		<tag k="name:no" v="Langvatnet" />
		<tag k="name:se" v="Guhkesjávri" />
		<tag k="natural" v="water" />
		<tag k="old_name:se" v="Gukkesjavri" />
		<tag k="ssr:stedsnr" v="686236" />
		<tag k="water" v="lake" />
	</node>
	<node lat="69.35663062287456" lon="29.510648390181046" id="-45197">
		<tag k="name" v="Markkinabekken" />
		<tag k="ssr:stedsnr" v="532375" />
		<tag k="waterway" v="stream" />
	</node>
	<node lat="69.34900562289178" lon="29.492242843936918" id="-45198">
		<tag k="name" v="Horntjernet" />
		<tag k="natural" v="water" />
		<tag k="ssr:stedsnr" v="532377" />
	</node>
	<node lat="69.64939453194053" lon="30.613478296211955" id="-45206">
		<tag k="name" v="Trillingvatnet" />
		<tag k="natural" v="water" />
		<tag k="ssr:stedsnr" v="686751" />
		<tag k="water" v="lake" />
	</node>
	<node lat="69.24395283944932" lon="29.274445726225387" id="-45207">
		<tag k="name" v="Härkäniemi" />
		<tag k="name:fkv" v="Härkäniemi" />
		<tag k="natural" v="cape" />
		<tag k="ssr:stedsnr" v="686760" />
	</node>
	<node lat="69.19033617378751" lon="29.213131855318355" id="-45208">
		<tag k="alt_name" v="Liljetjørna" />
		<tag k="name" v="Liljetjønna" />
		<tag k="natural" v="water" />
		<tag k="ssr:stedsnr" v="686763" />
	</node>
	<node lat="69.19488894455078" lon="28.97996531126067" id="-45209">
		<tag k="name" v="Korsbekken" />
		<tag k="ssr:stedsnr" v="686768" />
		<tag k="waterway" v="stream" />
	</node>
	<node lat="69.21576116744919" lon="28.872468149546272" id="-45212">
		<tag k="name" v="Svabergvatnet" />
		<tag k="natural" v="water" />
		<tag k="ssr:stedsnr" v="686782" />
	</node>
	<node lat="69.54850563151189" lon="30.178525820154533" id="-45214">
		<tag k="name" v="Skolteholmen" />
		<tag k="place" v="islet" />
		<tag k="ssr:stedsnr" v="686818" />
	</node>
	<node lat="69.44978340119248" lon="29.78033715647875" id="-45217">
		<tag k="alt_name:no" v="Kaivobekken" />
		<tag k="name" v="Gaivobekken - Gáivojohka - Kaivojoki" />
		<tag k="name:fkv" v="Kaivojoki" />
		<tag k="name:no" v="Gaivobekken" />
		<tag k="name:se" v="Gáivojohka" />
		<tag k="old_name:se" v="Gaivujåkka" />
		<tag k="ssr:stedsnr" v="686901" />
		<tag k="waterway" v="river" />
	</node>
	<node lat="69.6283445264552" lon="30.640136603691484" id="-45218">
		<tag k="name" v="Čoarvesuolu" />
		<tag k="name:se" v="Čoarvesuolu" />
		<tag k="old_name:se" v="Čoarvesuolo" />
		<tag k="place" v="islet" />
		<tag k="ssr:stedsnr" v="686902" />
	</node>
	<node lat="69.37816117194089" lon="29.597756688841343" id="-45223">
		<tag k="name" v="Stallvatnet" />
		<tag k="natural" v="water" />
		<tag k="ssr:stedsnr" v="686878" />
	</node>
	<node lat="69.57500009212916" lon="30.828303079419836" id="-45224">
		<tag k="name" v="Oterbekken - Čeavrresmuorjohka" />
		<tag k="name:no" v="Oterbekken" />
		<tag k="name:se" v="Čeavrresmuorjohka" />
		<tag k="old_name:se" v="Čævresmuorjåkka" />
		<tag k="ssr:stedsnr" v="686884" />
		<tag k="waterway" v="river" />
	</node>
	<node lat="69.81779172157484" lon="29.684740128693985" id="-45228">
		<tag k="name" v="Kjerringvatnet - Áhkojávri" />
		<tag k="name:no" v="Kjerringvatnet" />
		<tag k="name:se" v="Áhkojávri" />
		<tag k="natural" v="water" />
		<tag k="old_name:se" v="Akkujavri" />
		<tag k="ssr:stedsnr" v="687002" />
		<tag k="water" v="lake" />
	</node>
	<node lat="69.81515006398135" lon="29.98165106089728" id="-45229">
		<tag k="alt_name" v="Svanevatnet, l" />
		<tag k="name" v="Lille Svanevatnet" />
		<tag k="natural" v="water" />
		<tag k="ssr:stedsnr" v="687010" />
		<tag k="water" v="lake" />
	</node>
	<node lat="69.79686672619741" lon="29.687840126594732" id="-45232">
		<tag k="name" v="Rássejávrrit" />
		<tag k="name:se" v="Rássejávrrit" />
		<tag k="natural" v="water" />
		<tag k="old_name:se" v="Rassejavrit" />
		<tag k="ssr:stedsnr" v="687018" />
		<tag k="water" v="lake" />
	</node>
	<node lat="69.66823061196408" lon="29.581026266318336" id="-45237">
		<tag k="name" v="Suoidneláttu" />
		<tag k="name:se" v="Suoidneláttu" />
		<tag k="natural" v="water" />
		<tag k="old_name:se" v="Suoidneladdo" />
		<tag k="ssr:stedsnr" v="687115" />
	</node>
	<node lat="69.50650006957537" lon="29.811164945083174" id="-45240">
		<tag k="name" v="Ylilompola" />
		<tag k="name:fkv" v="Ylilompola" />
		<tag k="natural" v="water" />
		<tag k="old_name:fkv" v="Ulilåmbåla" />
		<tag k="ssr:stedsnr" v="687202" />
	</node>
	<node lat="69.89539171240247" lon="29.576709667134054" id="-45241">
		<tag k="name" v="Bárdevuonjohka" />
		<tag k="name:se" v="Bárdevuonjohka" />
		<tag k="old_name:se" v="Bardevuonjåkka" />
		<tag k="ssr:stedsnr" v="687209" />
		<tag k="waterway" v="stream" />
	</node>
	<node lat="69.56441395592385" lon="29.94111765965313" id="-45245">
		<tag k="name" v="Sagelva - Surotjohka - Sahajoki" />
		<tag k="name:fkv" v="Sahajoki" />
		<tag k="name:no" v="Sagelva" />
		<tag k="name:se" v="Surotjohka" />
		<tag k="old_name:se" v="Surutjåkka" />
		<tag k="ssr:stedsnr" v="687174" />
		<tag k="waterway" v="stream" />
	</node>
	<node lat="69.96343893836608" lon="29.56440694281331" id="-45246">
		<tag k="name" v="Gressholmvatnet - Suoidnejávri" />
		<tag k="name:no" v="Gressholmvatnet" />
		<tag k="name:se" v="Suoidnejávri" />
		<tag k="natural" v="water" />
		<tag k="old_name:se" v="Suoidnejavri" />
		<tag k="ssr:stedsnr" v="687175" />
	</node>
	<node lat="69.97066115307422" lon="29.455601442114144" id="-45247">
		<tag k="name" v="Hornvatnet" />
		<tag k="natural" v="water" />
		<tag k="ssr:stedsnr" v="687177" />
	</node>
	<node lat="69.9388444868497" lon="29.295526503723263" id="-45254">
		<tag k="name" v="Konradjávri" />
		<tag k="name:se" v="Konradjávri" />
		<tag k="natural" v="water" />
		<tag k="old_name:se" v="Konradjavri" />
		<tag k="ssr:stedsnr" v="687815" />
		<tag k="water" v="lake" />
	</node>
	<node lat="69.9140583767883" lon="29.400423664991386" id="-45255">
		<tag k="name" v="Norskelva - Dážajohka" />
		<tag k="name:no" v="Norskelva" />
		<tag k="name:se" v="Dážajohka" />
		<tag k="old_name:se" v="Dažajåkka" />
		<tag k="ssr:stedsnr" v="687826" />
		<tag k="waterway" v="stream" />
	</node>
	<node lat="69.51890840522017" lon="30.110811954609506" id="-45259">
		<tag k="alt_name" v="Sandnes" />
		<tag k="name" v="Sandneset" />
		<tag k="natural" v="cape" />
		<tag k="ssr:stedsnr" v="564818" />
	</node>
	<node lat="69.2453500563198" lon="29.13843191308118" id="-45260">
		<tag k="alt_name" v="Lomtjørna" />
		<tag k="name" v="Lomtjønna" />
		<tag k="natural" v="water" />
		<tag k="ssr:stedsnr" v="564772" />
	</node>
	<node lat="69.46138618858703" lon="30.087500837654854" id="-45263">
		<tag k="name" v="Bjørnsund - Guovžačoalbmi - Kuõbǯǯčuäʹlmm - Kontiosunti" />
		<tag k="name:fkv" v="Kontiosunti" />
		<tag k="name:no" v="Bjørnsund" />
		<tag k="name:se" v="Guovžačoalbmi" />
		<tag k="name:sms" v="Kuõbǯǯčuäʹlmm" />
		<tag k="natural" v="strait" />
		<tag k="ssr:stedsnr" v="564978" />
	</node>
	<node lat="69.81269727634194" lon="29.70272067155102" id="-45266">
		<tag k="name" v="Jođáhatjávri" />
		<tag k="name:se" v="Jođáhatjávri" />
		<tag k="natural" v="water" />
		<tag k="old_name:se" v="Jåtahatjavri" />
		<tag k="ssr:stedsnr" v="565008" />
		<tag k="water" v="lake" />
	</node>
	<node lat="69.52788339630851" lon="29.80587605685381" id="-45272">
		<tag k="name" v="Ingebrigtinjärvi" />
		<tag k="name:fkv" v="Ingebrigtinjärvi" />
		<tag k="natural" v="water" />
		<tag k="old_name:fkv" v="Ingebrigtinjærvi" />
		<tag k="ssr:stedsnr" v="565170" />
	</node>
	<node lat="69.66942508244838" lon="30.679858807853005" id="-45277">
		<tag k="name" v="Lille Valvatnet - Duolbajávri" />
		<tag k="name:no" v="Lille Valvatnet" />
		<tag k="name:se" v="Duolbajávri" />
		<tag k="natural" v="water" />
		<tag k="old_name:no" v="Valvatnet, l" />
		<tag k="old_name:se" v="Duolbajavri" />
		<tag k="ssr:stedsnr" v="565402" />
		<tag k="water" v="lake" />
	</node>
	<node lat="69.76583063483615" lon="30.651242215649127" id="-45278">
		<tag k="name" v="Josarvatnet - Jussájávri" />
		<tag k="name:no" v="Josarvatnet" />
		<tag k="name:se" v="Jussájávri" />
		<tag k="natural" v="water" />
		<tag k="old_name:se" v="Jussajavri" />
		<tag k="ssr:stedsnr" v="565403" />
		<tag k="water" v="lake" />
	</node>
	<node lat="69.76934174627775" lon="30.81182265053033" id="-45280">
		<tag k="alt_name" v="Litlevatnet" />
		<tag k="name" v="Lillevatnet" />
		<tag k="natural" v="water" />
		<tag k="ssr:stedsnr" v="565406" />
	</node>
	<node lat="69.6931361790933" lon="30.15891477602093" id="-45281">
		<tag k="loc_name:se" v="Vuoleb Nieidajávre" />
		<tag k="name" v="Svartakselvannet - Vuolit Nieidajávri" />
		<tag k="name:no" v="Svartakselvannet" />
		<tag k="name:se" v="Vuolit Nieidajávri" />
		<tag k="natural" v="water" />
		<tag k="old_name:se" v="Neidajavri, vuolit" />
		<tag k="ssr:stedsnr" v="565817" />
		<tag k="water" v="lake" />
	</node>
	<node lat="69.69164451386229" lon="30.26773135663544" id="-45282">
		<tag k="name" v="Austerbukta" />
		<tag k="natural" v="bay" />
		<tag k="ssr:stedsnr" v="565818" />
	</node>
	<node lat="69.62806676404668" lon="30.87300584436835" id="-45283">
		<tag k="name" v="Sandvatnet - Sáttojávri" />
		<tag k="name:no" v="Sandvatnet" />
		<tag k="name:se" v="Sáttojávri" />
		<tag k="natural" v="water" />
		<tag k="old_name:se" v="Saddujavri" />
		<tag k="ssr:stedsnr" v="565905" />
	</node>
	<node lat="69.4476667459311" lon="30.02578975844655" id="-45284">
		<tag k="name" v="Svanvika - Kerkkoorinlahti" />
		<tag k="name:fkv" v="Kerkkoorinlahti" />
		<tag k="name:no" v="Svanvika" />
		<tag k="natural" v="bay" />
		<tag k="ssr:stedsnr" v="693294" />
	</node>
	<node lat="69.29441394819129" lon="29.243084657889224" id="-45288">
		<tag k="name" v="Svanebekken" />
		<tag k="ssr:stedsnr" v="572746" />
		<tag k="waterway" v="river" />
	</node>
	<node lat="69.25958061486834" lon="29.25702351918303" id="-45289">
		<tag k="name" v="Øksendalsneset" />
		<tag k="natural" v="cape" />
		<tag k="ssr:stedsnr" v="572748" />
	</node>
	<node lat="69.30017227422161" lon="29.065551407841188" id="-45291">
		<tag k="name" v="Overbakkevatn" />
		<tag k="natural" v="water" />
		<tag k="ssr:stedsnr" v="694731" />
		<tag k="water" v="lake" />
	</node>
	<node lat="69.45376118350504" lon="30.011200881726182" id="-45292">
		<tag k="name" v="Loken" />
		<tag k="natural" v="water" />
		<tag k="ssr:stedsnr" v="579251" />
		<tag k="water" v="lake" />
	</node>
	<node lat="69.19719450388885" lon="29.29100124893341" id="-45298">
		<tag k="name" v="Brodtkorbholmen" />
		<tag k="name:fkv" v="Brodtkorbholmen" />
		<tag k="place" v="islet" />
		<tag k="ssr:stedsnr" v="587404" />
	</node>
	<node lat="69.54876674016404" lon="30.127673057029998" id="-45306">
		<tag k="name" v="Stormyrvatn" />
		<tag k="natural" v="water" />
		<tag k="ssr:stedsnr" v="591274" />
	</node>
	<node lat="69.85750005024681" lon="29.454556941609855" id="-45308">
		<tag k="name" v="Skáidijávri" />
		<tag k="name:se" v="Skáidijávri" />
		<tag k="natural" v="water" />
		<tag k="ssr:stedsnr" v="592016" />
	</node>
	<node lat="69.85301671666802" lon="29.412512532404953" id="-45309">
		<tag k="name" v="Bircjohka" />
		<tag k="name:se" v="Bircjohka" />
		<tag k="ssr:stedsnr" v="592017" />
		<tag k="waterway" v="stream" />
	</node>
	<node lat="69.39520839590016" lon="29.626670551657874" id="-45312">
		<tag k="name" v="Frokostvatn" />
		<tag k="natural" v="water" />
		<tag k="ssr:stedsnr" v="593061" />
	</node>
	<node lat="69.7205611585742" lon="29.329768071196106" id="-45315">
		<tag k="name" v="Kotajärvi" />
		<tag k="name:fkv" v="Kotajärvi" />
		<tag k="natural" v="water" />
		<tag k="ssr:stedsnr" v="593322" />
	</node>
	<node lat="69.08682244177535" lon="28.84223543906296" id="-45323">
		<tag k="name" v="Finskebukta" />
		<tag k="natural" v="bay" />
		<tag k="ssr:stedsnr" v="624004" />
	</node>
	<node lat="69.97838615916928" lon="29.50260420003004" id="-45325">
		<tag k="name" v="Kimmonpuujärvi" />
		<tag k="name:fkv" v="Kimmonpuujärvi" />
		<tag k="natural" v="water" />
		<tag k="old_name:fkv" v="Gimåbjærvi" />
		<tag k="ssr:stedsnr" v="625155" />
	</node>
	<node lat="69.26188061208931" lon="29.09047638756351" id="-45326">
		<tag k="alt_name:no" v="Lakevatn" />
		<tag k="name" v="Lakevatnet - Madejärvi" />
		<tag k="name:fkv" v="Madejärvi" />
		<tag k="name:no" v="Lakevatnet" />
		<tag k="natural" v="water" />
		<tag k="old_name:fkv" v="Madejærvi" />
		<tag k="ssr:stedsnr" v="625105" />
	</node>
	<node lat="69.18833061733905" lon="29.05107638849139" id="-45334">
		<tag k="alt_name:no" v="Gåstjern" />
		<tag k="name" v="Gåsvatnet - Hanhilompola" />
		<tag k="name:fkv" v="Hanhilompola" />
		<tag k="name:no" v="Gåsvatnet" />
		<tag k="natural" v="water" />
		<tag k="ssr:stedsnr" v="625803" />
		<tag k="water" v="lake" />
	</node>
	<node lat="69.71224452174192" lon="30.521064514339947" id="-45336">
		<tag k="name" v="Vintervollvatnet - Gazzaboahkánluoppal" />
		<tag k="name:no" v="Vintervollvatnet" />
		<tag k="name:se" v="Gazzaboahkánluoppal" />
		<tag k="natural" v="water" />
		<tag k="old_name:se" v="Gazzaboakkanluobbal" />
		<tag k="ssr:stedsnr" v="625812" />
		<tag k="water" v="lake" />
	</node>
	<node lat="69.64589452691895" lon="30.621297734572416" id="-45338">
		<tag k="name" v="Hornvatna - Čoarveluobbalat" />
		<tag k="name:no" v="Hornvatna" />
		<tag k="name:se" v="Čoarveluobbalat" />
		<tag k="natural" v="water" />
		<tag k="ssr:stedsnr" v="625910" />
		<tag k="water" v="lake" />
	</node>
	<node lat="69.5672278387154" lon="29.755517775167736" id="-45340">
		<tag k="name" v="Gjeddebekkvatna" />
		<tag k="natural" v="water" />
		<tag k="ssr:stedsnr" v="626203" />
		<tag k="water" v="lake" />
	</node>
	<node lat="69.54520563009675" lon="29.9910592669205" id="-45341">
		<tag k="alt_name" v="Jensteinvatn" />
		<tag k="name" v="Jernsteinvatnet" />
		<tag k="natural" v="water" />
		<tag k="ssr:stedsnr" v="626208" />
	</node>
	<node lat="69.6843528507919" lon="30.26601469050757" id="-45347">
		<tag k="name" v="Vesterbukta" />
		<tag k="natural" v="bay" />
		<tag k="ssr:stedsnr" v="626800" />
	</node>
	<node lat="69.63551396004496" lon="30.136020331446375" id="-45366">
		<tag k="name" v="Mottakingsneset - Vastaanottoniemi" />
		<tag k="name:fkv" v="Vastaanottoniemi" />
		<tag k="name:no" v="Mottakingsneset" />
		<tag k="natural" v="cape" />
		<tag k="ssr:stedsnr" v="651289" />
	</node>
	<node lat="69.53002507697985" lon="30.116467513734435" id="-45373">
		<tag k="name" v="Laudalbukta" />
		<tag k="natural" v="bay" />
		<tag k="ssr:stedsnr" v="653327" />
	</node>
	<node lat="69.53658062587198" lon="29.96104539443571" id="-45375">
		<tag k="name" v="Langnesbukta" />
		<tag k="natural" v="bay" />
		<tag k="ssr:stedsnr" v="653640" />
	</node>
	<node lat="69.5390111820652" lon="29.88828434380957" id="-45376">
		<tag k="name" v="Frimannsaari" />
		<tag k="name:fkv" v="Frimannsaari" />
		<tag k="place" v="islet" />
		<tag k="ssr:stedsnr" v="653643" />
	</node>
	<node lat="69.99878060116644" lon="29.454554214356644" id="-45380">
		<tag k="name" v="Karlbekken" />
		<tag k="ssr:stedsnr" v="655897" />
		<tag k="waterway" v="stream" />
	</node>
	<node lat="69.43340007400592" lon="29.859153756819076" id="-45381">
		<tag k="name" v="Djupkjosen" />
		<tag k="ssr:stedsnr" v="660897" />
		<tag k="waterway" v="river" />
	</node>
	<node lat="69.46800563242905" lon="30.077059174433717" id="-45382">
		<tag k="name" v="Kaisabekken" />
		<tag k="ssr:stedsnr" v="661181" />
		<tag k="waterway" v="stream" />
	</node>
	<node lat="69.08030005958815" lon="29.074629115272124" id="-45385">
		<tag k="alt_name:no" v="Fiskevatn" />
		<tag k="name" v="Fiskevatnet - Joumusjärvi" />
		<tag k="name:fkv" v="Joumusjärvi" />
		<tag k="name:no" v="Fiskevatnet" />
		<tag k="natural" v="water" />
		<tag k="ssr:stedsnr" v="685017" />
		<tag k="water" v="lake" />
	</node>
	<node lat="69.36723616710776" lon="29.37602903924596" id="-45386">
		<tag k="name" v="Harrvatna" />
		<tag k="natural" v="water" />
		<tag k="ssr:stedsnr" v="685108" />
		<tag k="water" v="lake" />
	</node>
	<node lat="69.66679453280467" lon="30.865830873068827" id="-45388">
		<tag k="name" v="Holmsjøen - Stuorra Suolojávri" />
		<tag k="name:no" v="Holmsjøen" />
		<tag k="name:se" v="Stuorra Suolojávri" />
		<tag k="natural" v="water" />
		<tag k="old_name:se" v="Suolujavri, stuorra" />
		<tag k="ssr:stedsnr" v="685912" />
		<tag k="water" v="lake" />
	</node>
	<node lat="69.12890839522527" lon="29.15846520550348" id="-45389">
		<tag k="name" v="Blankvatnet" />
		<tag k="natural" v="water" />
		<tag k="ssr:stedsnr" v="686039" />
		<tag k="water" v="lake" />
	</node>
	<node lat="69.12860561077052" lon="28.896262553730054" id="-45390">
		<tag k="name" v="Heimbrentholmen" />
		<tag k="place" v="islet" />
		<tag k="ssr:stedsnr" v="686043" />
	</node>
	<node lat="69.73923339578077" lon="29.94245105741089" id="-45392">
		<tag k="name" v="Kvalbuktbekken" />
		<tag k="ssr:stedsnr" v="686050" />
		<tag k="waterway" v="stream" />
	</node>
	<node lat="69.28660005240337" lon="29.10229583351215" id="-45394">
		<tag k="name" v="Biehkanjávrrit" />
		<tag k="name:se" v="Biehkanjávrrit" />
		<tag k="natural" v="water" />
		<tag k="old_name:se" v="Biekkanjavrit;Bjehkanjávrrit" />
		<tag k="ssr:stedsnr" v="686099" />
		<tag k="water" v="lake" />
	</node>
	<node lat="69.76312504456304" lon="29.170826519817176" id="-45397">
		<tag k="name" v="Råvatn - Guhkesgálšajávri" />
		<tag k="name:no" v="Råvatn" />
		<tag k="name:se" v="Guhkesgálšajávri" />
		<tag k="natural" v="water" />
		<tag k="old_name:se" v="Gukkesgalšajavri" />
		<tag k="ssr:stedsnr" v="686144" />
		<tag k="water" v="lake" />
	</node>
	<node lat="69.74525564170163" lon="30.83587817446746" id="-45401">
		<tag k="alt_name:no" v="Krokvatn" />
		<tag k="name" v="Krokvatnet - Boahčejávri" />
		<tag k="name:no" v="Krokvatnet" />
		<tag k="name:se" v="Boahčejávri" />
		<tag k="natural" v="water" />
		<tag k="old_name:se" v="Boaččejavri" />
		<tag k="ssr:stedsnr" v="686806" />
		<tag k="water" v="lake" />
	</node>
	<node lat="69.58338896707195" lon="30.43224507414088" id="-45402">
		<tag k="alt_name:no" v="Grensevatn" />
		<tag k="name" v="Grensevatnet - Rajajärvi" />
		<tag k="name:fkv" v="Rajajärvi" />
		<tag k="name:no" v="Grensevatnet" />
		<tag k="natural" v="water" />
		<tag k="ssr:stedsnr" v="686839" />
	</node>
	<node lat="69.61955009178197" lon="30.770753158146047" id="-45404">
		<tag k="alt_name:no" v="Skarvatnet, store" />
		<tag k="name" v="Store Skarvatnet - Stuorra Hálsejávri" />
		<tag k="name:no" v="Store Skarvatnet" />
		<tag k="name:se" v="Stuorra Hálsejávri" />
		<tag k="natural" v="water" />
		<tag k="old_name:se" v="Halsejavri stuorra" />
		<tag k="ssr:stedsnr" v="686888" />
		<tag k="water" v="lake" />
	</node>
	<node lat="69.61629176292807" lon="30.950875202162806" id="-45406">
		<tag k="alt_name:no" v="Lasarustjern" />
		<tag k="name" v="Lasaruskulpen - Lásárluoppal" />
		<tag k="name:no" v="Lasaruskulpen" />
		<tag k="name:se" v="Lásárluoppal" />
		<tag k="natural" v="water" />
		<tag k="old_name:se" v="Lasarluobbal" />
		<tag k="ssr:stedsnr" v="686892" />
	</node>
	<node lat="69.68385562547245" lon="30.048867637120324" id="-45410">
		<tag k="alt_name" v="Ternevatn" />
		<tag k="name" v="Ternevatnet" />
		<tag k="natural" v="water" />
		<tag k="ssr:stedsnr" v="686794" />
	</node>
	<node lat="69.41230562566474" lon="29.72457050041649" id="-45412">
		<tag k="fixme" v="multiple name tags, choose one and add the other to alt_name" />
		<tag k="name" v="Sametielva;Husmoseelv - Sámetjohka - Samettijoki" />
		<tag k="name:fkv" v="Samettijoki" />
		<tag k="name:no" v="Sametielva;Husmoseelv" />
		<tag k="name:se" v="Sámetjohka" />
		<tag k="old_name:no" v="Husmoseelva" />
		<tag k="old_name:se" v="Sametjåkka" />
		<tag k="ssr:stedsnr" v="686907" />
		<tag k="waterway" v="river" />
	</node>
	<node lat="69.65828062934607" lon="30.299542435921055" id="-45427">
		<tag k="name" v="Tverrelva" />
		<tag k="ssr:stedsnr" v="687786" />
		<tag k="waterway" v="river" />
	</node>
	<node lat="69.68488619024306" lon="30.385781270770774" id="-45428">
		<tag k="loc_name:se" v="Suoinnejohka" />
		<tag k="name" v="Dalelva" />
		<tag k="name:no" v="Dalelva" />
		<tag k="ssr:stedsnr" v="687788" />
		<tag k="waterway" v="stream" />
	</node>
	<node lat="69.69133063753816" lon="30.57123112849137" id="-45429">
		<tag k="alt_name" v="Djupvatnet, store" />
		<tag k="name" v="Store Djupvatnet" />
		<tag k="natural" v="water" />
		<tag k="ssr:stedsnr" v="687796" />
		<tag k="water" v="lake" />
	</node>
	<node lat="69.6830389706019" lon="30.469056216815623" id="-45430">
		<tag k="name" v="Storbuktbekken - Snávlajohka" />
		<tag k="name:no" v="Storbuktbekken" />
		<tag k="name:se" v="Snávlajohka" />
		<tag k="ssr:stedsnr" v="687798" />
		<tag k="waterway" v="stream" />
	</node>
	<node lat="69.75462506706016" lon="30.150920377407015" id="-45436">
		<tag k="name" v="Rødbergvatnet" />
		<tag k="natural" v="water" />
		<tag k="ssr:stedsnr" v="895427" />
	</node>
	<node lat="69.56285285326784" lon="30.089917540065986" id="-45442">
		<tag k="name" v="Mortenneset" />
		<tag k="natural" v="cape" />
		<tag k="ssr:stedsnr" v="895236" />
	</node>
	<node lat="69.5670417364311" lon="30.087003660919102" id="-45443">
		<tag k="name" v="Lilleloken" />
		<tag k="natural" v="water" />
		<tag k="ssr:stedsnr" v="895240" />
	</node>
	<node lat="69.59170562297689" lon="30.06740090694322" id="-45444">
		<tag k="name" v="Sundtjernan - Salmilammit" />
		<tag k="name:fkv" v="Salmilammit" />
		<tag k="name:no" v="Sundtjernan" />
		<tag k="natural" v="water" />
		<tag k="ssr:stedsnr" v="895273" />
	</node>
	<node lat="69.69963893544573" lon="29.31550974446045" id="-45453">
		<tag k="name" v="Krokfossen" />
		<tag k="natural" v="waterfall" />
		<tag k="ssr:stedsnr" v="701469" />
	</node>
	<node lat="69.70891948877696" lon="29.150309834291583" id="-45454">
		<tag k="name" v="Langfossen - Pitkäkoski" />
		<tag k="name:fkv" v="Pitkäkoski" />
		<tag k="name:no" v="Langfossen" />
		<tag k="natural" v="waterfall" />
		<tag k="ssr:stedsnr" v="896310" />
	</node>
	<node lat="69.69753615588428" lon="29.124429290299762" id="-45455">
		<tag k="name" v="Muripukkajärvi" />
		<tag k="name:fkv" v="Muripukkajärvi" />
		<tag k="natural" v="water" />
		<tag k="ssr:stedsnr" v="896311" />
	</node>
	<node lat="69.74421115615228" lon="29.247173673120894" id="-45461">
		<tag k="name" v="Djevlebekken - Pirunoja" />
		<tag k="name:fkv" v="Pirunoja" />
		<tag k="name:no" v="Djevlebekken" />
		<tag k="ssr:stedsnr" v="897328" />
		<tag k="waterway" v="stream" />
	</node>
	<node lat="69.32415839988187" lon="29.461395640489236" id="-45464">
		<tag k="name" v="Hasseltjernet" />
		<tag k="natural" v="bay" />
		<tag k="ssr:stedsnr" v="897375" />
	</node>
	<node lat="69.3296500592914" lon="29.340273484400367" id="-45465">
		<tag k="name" v="Elgbekken" />
		<tag k="ssr:stedsnr" v="897380" />
		<tag k="waterway" v="stream" />
	</node>
	<node lat="69.26580838882576" lon="29.256245746668753" id="-45468">
		<tag k="name" v="Rampvik" />
		<tag k="natural" v="bay" />
		<tag k="ssr:stedsnr" v="897431" />
	</node>
	<node lat="69.62226395453547" lon="30.022498186219792" id="-45469">
		<tag k="name" v="Tverrdalstjernan" />
		<tag k="natural" v="water" />
		<tag k="ssr:stedsnr" v="897524" />
	</node>
	<node lat="69.54505007318951" lon="30.132725832866583" id="-45474">
		<tag k="name" v="Holmfossneset" />
		<tag k="natural" v="cape" />
		<tag k="ssr:stedsnr" v="712271" />
	</node>
	<node lat="69.5918972941876" lon="30.00461206695841" id="-45481">
		<tag k="name" v="Bakkeneset" />
		<tag k="natural" v="cape" />
		<tag k="ssr:stedsnr" v="714275" />
	</node>
	<node lat="69.59259729265358" lon="29.984723196222436" id="-45482">
		<tag k="name" v="Båtbukta" />
		<tag k="natural" v="bay" />
		<tag k="ssr:stedsnr" v="714277" />
	</node>
	<node lat="69.71266674387302" lon="30.48705620376866" id="-45485">
		<tag k="name" v="Hearggesjohka" />
		<tag k="name:se" v="Hearggesjohka" />
		<tag k="ssr:stedsnr" v="714202" />
		<tag k="waterway" v="stream" />
	</node>
	<node lat="69.61077506819657" lon="29.98523707512968" id="-45486">
		<tag k="name" v="Salmilammit" />
		<tag k="name:fkv" v="Salmilammit" />
		<tag k="natural" v="water" />
		<tag k="ssr:stedsnr" v="714513" />
	</node>
	<node lat="69.8188750441365" lon="29.367223651712184" id="-45490">
		<tag k="name" v="Bjørnbekken" />
		<tag k="ssr:stedsnr" v="715377" />
		<tag k="waterway" v="stream" />
	</node>
	<node lat="69.6928333892404" lon="29.370606931796146" id="-45494">
		<tag k="name" v="Skoltefossen" />
		<tag k="natural" v="waterfall" />
		<tag k="ssr:stedsnr" v="746012" />
	</node>
	<node lat="69.47818617019719" lon="29.44759849030495" id="-45496">
		<tag k="name" v="Abborbekken" />
		<tag k="ssr:stedsnr" v="746104" />
		<tag k="waterway" v="stream" />
	</node>
	<node lat="69.74901115136383" lon="28.97794604686102" id="-45498">
		<tag k="name" v="Vuoskkojávri" />
		<tag k="name:se" v="Vuoskkojávri" />
		<tag k="natural" v="water" />
		<tag k="old_name:se" v="Vuoskujavri" />
		<tag k="ssr:stedsnr" v="746476" />
	</node>
	<node lat="69.22172505164286" lon="28.911848698352152" id="-45499">
		<tag k="alt_name" v="Maurvatn" />
		<tag k="name" v="Maurvatnet" />
		<tag k="natural" v="water" />
		<tag k="ssr:stedsnr" v="746706" />
	</node>
	<node lat="69.58576673976867" lon="30.055953700347178" id="-45500">
		<tag k="alt_name" v="Langvatn" />
		<tag k="name" v="Langvatnet" />
		<tag k="natural" v="water" />
		<tag k="ssr:stedsnr" v="746818" />
	</node>
	<node lat="69.65513895174502" lon="29.704198387316175" id="-45503">
		<tag k="name" v="Gáre-Niillasgoahteláttu" />
		<tag k="name:se" v="Gáre-Niillasgoahteláttu" />
		<tag k="natural" v="water" />
		<tag k="old_name:se" v="Gareniilasgoalteladdo" />
		<tag k="ssr:stedsnr" v="747103" />
	</node>
	<node lat="69.63531949950537" lon="29.632942873766684" id="-45504">
		<tag k="name" v="Mikkelvatnet" />
		<tag k="natural" v="water" />
		<tag k="ssr:stedsnr" v="747106" />
		<tag k="water" v="lake" />
	</node>
	<node lat="69.63386395310238" lon="29.780209468010344" id="-45505">
		<tag k="name" v="Ørretbekken" />
		<tag k="ssr:stedsnr" v="747108" />
		<tag k="waterway" v="stream" />
	</node>
	<node lat="69.83776393433351" lon="29.268498692216074" id="-45507">
		<tag k="name" v="Stáinnatvuodjánjávri" />
		<tag k="name:se" v="Stáinnatvuodjánjávri" />
		<tag k="natural" v="water" />
		<tag k="old_name:se" v="Stainatvuoddjanjavri" />
		<tag k="ssr:stedsnr" v="747112" />
		<tag k="water" v="lake" />
	</node>
	<node lat="69.97184171677239" lon="29.499004187860198" id="-45512">
		<tag k="name" v="Kokonpuujärvi" />
		<tag k="name:fkv" v="Kokonpuujärvi" />
		<tag k="natural" v="water" />
		<tag k="old_name:fkv" v="Gågånbojærvi" />
		<tag k="ssr:stedsnr" v="747172" />
	</node>
	<node lat="69.51542507127634" lon="29.87712323710055" id="-45515">
		<tag k="alt_name:no" v="Fluetjernet" />
		<tag k="name" v="Fluevatnet - Kärpäslampi" />
		<tag k="name:fkv" v="Kärpäslampi" />
		<tag k="name:no" v="Fluevatnet" />
		<tag k="natural" v="water" />
		<tag k="ssr:stedsnr" v="747210" />
	</node>
	<node lat="69.90130560511929" lon="29.816281770473513" id="-45516">
		<tag k="name" v="Pulkbuktvatna" />
		<tag k="natural" v="water" />
		<tag k="ssr:stedsnr" v="747212" />
	</node>
	<node lat="69.58366951861504" lon="30.164320281835913" id="-45523">
		<tag k="alt_name" v="Kristenneset" />
		<tag k="name" v="Furuneset" />
		<tag k="natural" v="cape" />
		<tag k="ssr:stedsnr" v="747377" />
	</node>
	<node lat="69.76466951005176" lon="30.184528678806178" id="-45524">
		<tag k="name" v="Ropelva - Juranjohka - Jurânjokk - Ruuppelva" />
		<tag k="name:fkv" v="Ruuppelva" />
		<tag k="name:no" v="Ropelva" />
		<tag k="name:se" v="Juranjohka" />
		<tag k="name:sms" v="Jurânjokk" />
		<tag k="old_name:se" v="Juranjåkka" />
		<tag k="ssr:stedsnr" v="747379" />
		<tag k="waterway" v="river" />
	</node>
	<node lat="69.52210007548388" lon="30.079417545417122" id="-45526">
		<tag k="name" v="Sagdamman" />
		<tag k="natural" v="water" />
		<tag k="ssr:stedsnr" v="747816" />
	</node>
	<node lat="69.67483063457189" lon="30.45670898665222" id="-45529">
		<tag k="name" v="Tårnelva - Fálleveajjohka" />
		<tag k="name:no" v="Tårnelva" />
		<tag k="name:se" v="Fálleveajjohka" />
		<tag k="ssr:stedsnr" v="747778" />
		<tag k="waterway" v="river" />
	</node>
	<node lat="69.59253620426789" lon="30.792247567266116" id="-45530">
		<tag k="name" v="Toddyvatnet" />
		<tag k="natural" v="water" />
		<tag k="ssr:stedsnr" v="747904" />
	</node>
	<node lat="69.64515562841436" lon="30.10459257008186" id="-45546">
		<tag k="name" v="Georgsvatn - Iokonjärvi" />
		<tag k="name:fkv" v="Iokonjärvi" />
		<tag k="name:no" v="Georgsvatn" />
		<tag k="natural" v="water" />
		<tag k="ssr:stedsnr" v="769299" />
	</node>
	<node lat="69.66973618998682" lon="30.40502847139386" id="-45550">
		<tag k="name" v="Vesterelva" />
		<tag k="ssr:stedsnr" v="774110" />
		<tag k="waterway" v="stream" />
	</node>
	<node lat="69.7713723079416" lon="30.836111523060097" id="-45553">
		<tag k="name" v="Leirbekken" />
		<tag k="ssr:stedsnr" v="775115" />
		<tag k="waterway" v="stream" />
	</node>
	<node lat="69.53774174462156" lon="30.10766196490538" id="-45555">
		<tag k="name" v="Ørretbukta" />
		<tag k="natural" v="bay" />
		<tag k="ssr:stedsnr" v="775319" />
	</node>
	<node lat="69.52968340659186" lon="30.115434179685433" id="-45558">
		<tag k="name" v="Trondsvangen" />
		<tag k="natural" v="cape" />
		<tag k="ssr:stedsnr" v="783162" />
	</node>
	<node lat="69.61115564077456" lon="30.68673932025974" id="-45564">
		<tag k="name" v="Durvatnet - Jurrajávri" />
		<tag k="name:no" v="Durvatnet" />
		<tag k="name:se" v="Jurrajávri" />
		<tag k="natural" v="water" />
		<tag k="old_name:se" v="Jurrajavri" />
		<tag k="ssr:stedsnr" v="808905" />
		<tag k="water" v="lake" />
	</node>
	<node lat="69.69036951090406" lon="30.000942676038285" id="-45575">
		<tag k="name" v="Portvinbekken" />
		<tag k="ssr:stedsnr" v="822883" />
		<tag k="waterway" v="stream" />
	</node>
	<node lat="69.67538062177334" lon="29.97546489089154" id="-45577">
		<tag k="name" v="Åbortjern" />
		<tag k="natural" v="water" />
		<tag k="ssr:stedsnr" v="823484" />
	</node>
	<node lat="69.75758619826853" lon="30.85581148301614" id="-45578">
		<tag k="name" v="Brekkanbekken" />
		<tag k="ssr:stedsnr" v="835157" />
		<tag k="waterway" v="stream" />
	</node>
	<node lat="69.81609726537376" lon="29.310679225659154" id="-45582">
		<tag k="name" v="Marikkisbekken" />
		<tag k="ssr:stedsnr" v="836304" />
		<tag k="waterway" v="stream" />
	</node>
	<node lat="69.82548615992756" lon="29.305601456507222" id="-45583">
		<tag k="name" v="Lávrajohka" />
		<tag k="name:se" v="Lávrajohka" />
		<tag k="ssr:stedsnr" v="836305" />
		<tag k="waterway" v="stream" />
	</node>
	<node lat="69.534302845797" lon="30.07624810211308" id="-45585">
		<tag k="name" v="Norddammen" />
		<tag k="natural" v="water" />
		<tag k="ssr:stedsnr" v="836300" />
	</node>
	<node lat="69.79551394408836" lon="29.67657068507889" id="-45588">
		<tag k="name" v="Toppendammen" />
		<tag k="natural" v="water" />
		<tag k="ssr:stedsnr" v="836983" />
	</node>
	<node lat="69.54356671575063" lon="29.349031903019707" id="-45590">
		<tag k="name" v="Tverrvatnet - Rastájávri" />
		<tag k="name:no" v="Tverrvatnet" />
		<tag k="name:se" v="Rastájávri" />
		<tag k="natural" v="water" />
		<tag k="old_name:se" v="Rastajavri" />
		<tag k="ssr:stedsnr" v="928037" />
		<tag k="water" v="lake" />
	</node>
	<node lat="69.30370283927581" lon="29.322165154640413" id="-45592">
		<tag k="name" v="Vaggatemstryket" />
		<tag k="place" v="locality" />
		<tag k="ssr:stedsnr" v="928100" />
	</node>
	<node lat="69.24239171783486" lon="28.89629869775415" id="-45593">
		<tag k="name" v="Kontturijärvi" />
		<tag k="name:fkv" v="Kontturijärvi" />
		<tag k="natural" v="water" />
		<tag k="old_name:fkv" v="Gåntorijærvi" />
		<tag k="ssr:stedsnr" v="928734" />
	</node>
	<node lat="69.2223250575169" lon="28.966718102120364" id="-45595">
		<tag k="name" v="Føllelva - Vársaljohka - Varsselinjoki" />
		<tag k="name:fkv" v="Varsselinjoki" />
		<tag k="name:no" v="Føllelva" />
		<tag k="name:se" v="Vársaljohka" />
		<tag k="old_name:fkv" v="Varselijågi" />
		<tag k="ssr:stedsnr" v="928741" />
		<tag k="waterway" v="river" />
	</node>
	<node lat="69.72871119466063" lon="30.58016725448611" id="-45596">
		<tag k="alt_name" v="Jammerdalsvannet" />
		<tag k="name" v="Jammerdalsvatnet" />
		<tag k="natural" v="water" />
		<tag k="ssr:stedsnr" v="929223" />
	</node>
	<node lat="69.33115006778245" lon="29.505984498026976" id="-45600">
		<tag k="name" v="Kobbfossbukta" />
		<tag k="natural" v="bay" />
		<tag k="ssr:stedsnr" v="928895" />
	</node>
	<node lat="69.72790008988454" lon="30.816611505155095" id="-45605">
		<tag k="alt_name" v="Høgfjellsvatn, første" />
		<tag k="name" v="Første Høgfjellsvatn" />
		<tag k="natural" v="water" />
		<tag k="ssr:stedsnr" v="928937" />
	</node>
	<node lat="69.11760006084815" lon="29.114231871951862" id="-45611">
		<tag k="name" v="Tommabekken" />
		<tag k="ssr:stedsnr" v="929013" />
		<tag k="waterway" v="stream" />
	</node>
	<node lat="69.14263616434647" lon="28.881465354147856" id="-45614">
		<tag k="name" v="Ivargammebekken" />
		<tag k="ssr:stedsnr" v="929020" />
		<tag k="waterway" v="stream" />
	</node>
	<node lat="69.74183060828226" lon="29.52577909963584" id="-45618">
		<tag k="name" v="Ørretvatnet - Dápmotjávri" />
		<tag k="name:no" v="Ørretvatnet" />
		<tag k="name:se" v="Dápmotjávri" />
		<tag k="natural" v="water" />
		<tag k="old_name:se" v="Dabmutjavri" />
		<tag k="ssr:stedsnr" v="929032" />
	</node>
	<node lat="69.1299611659206" lon="28.871298690439456" id="-45619">
		<tag k="name" v="Tørrfiskholmen" />
		<tag k="place" v="islet" />
		<tag k="ssr:stedsnr" v="929033" />
	</node>
	<node lat="69.76635839066566" lon="29.754584525221894" id="-45620">
		<tag k="name" v="Suovkajohka" />
		<tag k="name:se" v="Suovkajohka" />
		<tag k="old_name:se" v="Suovkajåkka" />
		<tag k="ssr:stedsnr" v="929035" />
		<tag k="waterway" v="stream" />
	</node>
	<node lat="69.738663947697" lon="29.753042836940878" id="-45624">
		<tag k="name" v="Svanvatnet" />
		<tag k="natural" v="water" />
		<tag k="ssr:stedsnr" v="929041" />
	</node>
	<node lat="69.78252503921593" lon="28.821479444729682" id="-45627">
		<tag k="name" v="Uhca Gállotjávrráš" />
		<tag k="name:se" v="Uhca Gállotjávrráš" />
		<tag k="natural" v="water" />
		<tag k="old_name:se" v="Gallutjavraš, ucca" />
		<tag k="ssr:stedsnr" v="929135" />
		<tag k="water" v="lake" />
	</node>
	<node lat="69.61360839044566" lon="29.495609605476115" id="-45628">
		<tag k="name" v="Korsvatnet - Ristajávri" />
		<tag k="name:no" v="Korsvatnet" />
		<tag k="name:se" v="Ristajávri" />
		<tag k="natural" v="water" />
		<tag k="old_name:se" v="Ristajavri" />
		<tag k="ssr:stedsnr" v="929142" />
	</node>
	<node lat="69.81050559820605" lon="29.247226471999326" id="-45630">
		<tag k="name" v="Åstrømjávri" />
		<tag k="name:se" v="Åstrømjávri" />
		<tag k="natural" v="water" />
		<tag k="old_name:se" v="Åstrømjavri" />
		<tag k="ssr:stedsnr" v="929147" />
		<tag k="water" v="lake" />
	</node>
	<node lat="69.06460561279717" lon="28.98927083365827" id="-45631">
		<tag k="alt_name:no" v="Ødevatn" />
		<tag k="fixme" v="multiple name tags, choose one and add the other to alt_name" />
		<tag k="name" v="Ødevatnet - Ávdinjávri;Ávvedanjávri - Evettijärvi" />
		<tag k="name:fkv" v="Evettijärvi" />
		<tag k="name:no" v="Ødevatnet" />
		<tag k="name:se" v="Ávdinjávri;Ávvedanjávri" />
		<tag k="natural" v="water" />
		<tag k="old_name:fkv" v="Evettijærvi" />
		<tag k="ssr:stedsnr" v="929095" />
		<tag k="water" v="lake" />
	</node>
	<node lat="69.58693061283348" lon="29.514087379332754" id="-45633">
		<tag k="name" v="Antilavatnet" />
		<tag k="natural" v="water" />
		<tag k="ssr:stedsnr" v="929153" />
		<tag k="water" v="lake" />
	</node>
	<node lat="69.91998893579768" lon="29.44711254581965" id="-45635">
		<tag k="name" v="Storbuktvatnet" />
		<tag k="natural" v="water" />
		<tag k="ssr:stedsnr" v="929167" />
	</node>
	<node lat="69.17468061249562" lon="28.90142923593138" id="-45641">
		<tag k="alt_name:no" v="Kullvatn" />
		<tag k="name" v="Kolvatnet - Čáđđerjávri - Isoristirääppä" />
		<tag k="name:fkv" v="Isoristirääppä" />
		<tag k="name:no" v="Kolvatnet" />
		<tag k="name:se" v="Čáđđerjávri" />
		<tag k="natural" v="water" />
		<tag k="ssr:stedsnr" v="929784" />
		<tag k="water" v="lake" />
	</node>
	<node lat="69.67764174611642" lon="30.52091449849018" id="-45643">
		<tag k="name" v="Albmágáissjávri" />
		<tag k="name:se" v="Albmágáissjávri" />
		<tag k="natural" v="water" />
		<tag k="old_name:se" v="Albmagaisjavri" />
		<tag k="ssr:stedsnr" v="929792" />
		<tag k="water" v="lake" />
	</node>
	<node lat="69.81307225863222" lon="28.699185075971677" id="-45645">
		<tag k="name" v="Justinjohka" />
		<tag k="name:se" v="Justinjohka" />
		<tag k="old_name:se" v="Justinjåkka" />
		<tag k="ssr:stedsnr" v="929858" />
		<tag k="waterway" v="river" />
	</node>
	<node lat="69.75391673718674" lon="30.297648046567097" id="-45647">
		<tag k="name" v="Gåsvatnet" />
		<tag k="natural" v="water" />
		<tag k="ssr:stedsnr" v="929362" />
	</node>
	<node lat="69.78856393778311" lon="29.49885412265141" id="-45650">
		<tag k="name" v="Jerestanluoppal" />
		<tag k="name:se" v="Jerestanluoppal" />
		<tag k="natural" v="water" />
		<tag k="old_name:se" v="Jerestanluobbal" />
		<tag k="ssr:stedsnr" v="929446" />
		<tag k="water" v="lake" />
	</node>
	<node lat="69.57520008045933" lon="30.516628337685727" id="-45654">
		<tag k="name" v="Fjellrekvatnet" />
		<tag k="natural" v="water" />
		<tag k="ssr:stedsnr" v="929828" />
	</node>
	<node lat="69.55591395848374" lon="30.091378656708667" id="-45655">
		<tag k="fixme" v="multiple name tags, choose one and add the other to alt_name" />
		<tag k="name" v="Skrukkebukta;Neverskrukkebukt - Guoššeluokta" />
		<tag k="name:no" v="Skrukkebukta;Neverskrukkebukt" />
		<tag k="name:se" v="Guoššeluokta" />
		<tag k="natural" v="bay" />
		<tag k="ssr:stedsnr" v="929829" />
	</node>
	<node lat="69.60416674767141" lon="30.506297806659035" id="-45657">
		<tag k="loc_name:se" v="Suoinneluobbalak" />
		<tag k="name" v="Sennagrasvatna - Suoidneluobbalat" />
		<tag k="name:no" v="Sennagrasvatna" />
		<tag k="name:se" v="Suoidneluobbalat" />
		<tag k="natural" v="water" />
		<tag k="ssr:stedsnr" v="929839" />
		<tag k="water" v="lake" />
	</node>
	<node lat="69.57760843209967" lon="30.907908552795945" id="-45658">
		<tag k="alt_name:no" v="Korpelva" />
		<tag k="name" v="Korpvasselva - Gáranasjohka" />
		<tag k="name:no" v="Korpvasselva" />
		<tag k="name:se" v="Gáranasjohka" />
		<tag k="old_name:se" v="Garanasjåkka" />
		<tag k="ssr:stedsnr" v="929904" />
		<tag k="waterway" v="river" />
	</node>
	<node lat="69.62571952928664" lon="30.721825409431474" id="-45660">
		<tag k="name" v="Hálsejárjohka" />
		<tag k="name:se" v="Hálsejárjohka" />
		<tag k="old_name:se" v="Halsejarjåkka" />
		<tag k="ssr:stedsnr" v="929917" />
		<tag k="waterway" v="river" />
	</node>
	<node lat="69.39598617727945" lon="29.750364921164188" id="-45661">
		<tag k="name" v="Fuglebukta - Goalsejávri - Lintumukka" />
		<tag k="name:fkv" v="Lintumukka" />
		<tag k="name:no" v="Fuglebukta" />
		<tag k="name:se" v="Goalsejávri" />
		<tag k="natural" v="bay" />
		<tag k="old_name:se" v="Goalsejavri" />
		<tag k="ssr:stedsnr" v="929892" />
	</node>
	<node lat="69.46072506465387" lon="29.561881740713744" id="-45662">
		<tag k="name" v="Röynikkäjärvi" />
		<tag k="name:fkv" v="Röynikkäjärvi" />
		<tag k="natural" v="water" />
		<tag k="old_name:fkv" v="Røunikkajærvi" />
		<tag k="ssr:stedsnr" v="929919" />
		<tag k="water" v="lake" />
	</node>
	<node lat="69.43731395343195" lon="29.636595567941672" id="-45663">
		<tag k="name" v="Áhkajávri" />
		<tag k="name:se" v="Áhkajávri" />
		<tag k="natural" v="water" />
		<tag k="old_name:se" v="Akkajavri" />
		<tag k="ssr:stedsnr" v="929924" />
	</node>
	<node lat="69.79760005359822" lon="29.597331847754877" id="-45667">
		<tag k="alt_name:no" v="Snauvatnet, midtre" />
		<tag k="name" v="Midtre Snauvatnet - Gaskkamus Roavvejávri" />
		<tag k="name:no" v="Midtre Snauvatnet" />
		<tag k="name:se" v="Gaskkamus Roavvejávri" />
		<tag k="natural" v="water" />
		<tag k="old_name:se" v="Roavvejavri gaskamus" />
		<tag k="ssr:stedsnr" v="930022" />
		<tag k="water" v="lake" />
	</node>
	<node lat="69.77808060663054" lon="29.644501259612362" id="-45671">
		<tag k="name" v="Fárrenjávri" />
		<tag k="name:se" v="Fárrenjávri" />
		<tag k="natural" v="water" />
		<tag k="old_name:se" v="Farrenjavri" />
		<tag k="ssr:stedsnr" v="930030" />
	</node>
	<node lat="69.67221394872044" lon="29.878451077051324" id="-45672">
		<tag k="fixme" v="multiple name tags, choose one and add the other to alt_name" />
		<tag k="name" v="Snarevatnet;Vegtjern - Gárdejávri" />
		<tag k="name:no" v="Snarevatnet;Vegtjern" />
		<tag k="name:se" v="Gárdejávri" />
		<tag k="natural" v="water" />
		<tag k="old_name:se" v="Gardejavri" />
		<tag k="ssr:stedsnr" v="930113" />
	</node>
	<node lat="69.7150361659248" lon="29.36660694123312" id="-45676">
		<tag k="loc_name" v="Kirkebekken" />
		<tag k="name" v="Nordmannsbekken" />
		<tag k="ssr:stedsnr" v="868004" />
		<tag k="waterway" v="stream" />
	</node>
	<node lat="69.71900838015668" lon="29.307748630656487" id="-45678">
		<tag k="alt_name" v="Færdesbekken" />
		<tag k="name" v="Ferdesbekken" />
		<tag k="ssr:stedsnr" v="868010" />
		<tag k="waterway" v="stream" />
	</node>
	<node lat="69.07367784118183" lon="29.058215246642547" id="-45679">
		<tag k="name" v="Pirujärvi" />
		<tag k="name:fkv" v="Pirujärvi" />
		<tag k="natural" v="water" />
		<tag k="old_name:fkv" v="Birojærvi" />
		<tag k="ssr:stedsnr" v="868013" />
		<tag k="water" v="lake" />
	</node>
	<node lat="69.62594449317636" lon="29.330381926433304" id="-45681">
		<tag k="name" v="Ákšoguoika" />
		<tag k="name:se" v="Ákšoguoika" />
		<tag k="natural" v="water" />
		<tag k="old_name:se" v="Akšuguoika" />
		<tag k="ssr:stedsnr" v="868019" />
	</node>
	<node lat="69.11149450170207" lon="29.018298594828902" id="-45682">
		<tag k="name" v="Åsvatnan" />
		<tag k="natural" v="water" />
		<tag k="ssr:stedsnr" v="868024" />
		<tag k="water" v="lake" />
	</node>
	<node lat="69.59188338564728" lon="29.336931915500323" id="-45683">
		<tag k="name" v="Biehkanjávri" />
		<tag k="name:se" v="Biehkanjávri" />
		<tag k="natural" v="water" />
		<tag k="old_name:se" v="Biekkanjavri" />
		<tag k="ssr:stedsnr" v="868025" />
	</node>
	<node lat="69.14085005331538" lon="28.91590423192804" id="-45684">
		<tag k="alt_name:no" v="Tørrfurutjørna;Tørrfurutjern" />
		<tag k="name" v="Tørrfurutjønna - Soarveluoppal - Mutkanenlompola" />
		<tag k="name:fkv" v="Mutkanenlompola" />
		<tag k="name:no" v="Tørrfurutjønna" />
		<tag k="name:se" v="Soarveluoppal" />
		<tag k="natural" v="water" />
		<tag k="ssr:stedsnr" v="868026" />
	</node>
	<node lat="69.15680283018972" lon="28.840893165763365" id="-45686">
		<tag k="name" v="Jervbekken" />
		<tag k="ssr:stedsnr" v="868039" />
		<tag k="waterway" v="stream" />
	</node>
	<node lat="69.17043617569999" lon="29.26548735679763" id="-45687">
		<tag k="alt_name:no" v="Fjærvatn" />
		<tag k="fixme" v="multiple name tags, choose one and add the other to alt_name" />
		<tag k="name" v="Fjørvatnet - Bajjeeannu;Buhcajávri - Höyhenjärvi" />
		<tag k="name:fkv" v="Höyhenjärvi" />
		<tag k="name:no" v="Fjørvatnet" />
		<tag k="name:se" v="Bajjeeannu;Buhcajávri" />
		<tag k="natural" v="water" />
		<tag k="old_name:fkv" v="Høuhenjærvi" />
		<tag k="ssr:stedsnr" v="868044" />
		<tag k="water" v="lake" />
	</node>
	<node lat="69.6449778597341" lon="30.398061796185534" id="-45689">
		<tag k="name" v="Solmerkevatnet - Roavvejávri" />
		<tag k="name:no" v="Solmerkevatnet" />
		<tag k="name:se" v="Roavvejávri" />
		<tag k="natural" v="water" />
		<tag k="old_name:se" v="Roavvejavri" />
		<tag k="ssr:stedsnr" v="868721" />
	</node>
	<node lat="69.78303340317822" lon="30.223414779977098" id="-45690">
		<tag k="name" v="Smukvatnet - Ruhčeveaijávri" />
		<tag k="name:no" v="Smukvatnet" />
		<tag k="name:se" v="Ruhčeveaijávri" />
		<tag k="natural" v="water" />
		<tag k="old_name:se" v="Ruččevæjjavri" />
		<tag k="ssr:stedsnr" v="930122" />
		<tag k="water" v="lake" />
	</node>
	<node lat="69.59285008261844" lon="30.50923947324844" id="-45691">
		<tag k="name" v="Vuoskkojohka" />
		<tag k="name:se" v="Vuoskkojohka" />
		<tag k="old_name:se" v="Vuoskujåkka" />
		<tag k="ssr:stedsnr" v="868805" />
		<tag k="waterway" v="stream" />
	</node>
	<node lat="69.61764175196562" lon="30.558125565397496" id="-45692">
		<tag k="name" v="Ørretvatna - Goasojávrrit" />
		<tag k="name:no" v="Ørretvatna" />
		<tag k="name:se" v="Goasojávrrit" />
		<tag k="natural" v="water" />
		<tag k="old_name:se" v="Goasujavrit" />
		<tag k="ssr:stedsnr" v="868811" />
		<tag k="water" v="lake" />
	</node>
	<node lat="69.42448617443904" lon="29.476526225307378" id="-45693">
		<tag k="name" v="Langvatnet" />
		<tag k="natural" v="water" />
		<tag k="ssr:stedsnr" v="868904" />
	</node>
	<node lat="69.71091675513783" lon="30.76564486640206" id="-45694">
		<tag k="name" v="Holmvatnet - Duolbajávri" />
		<tag k="name:no" v="Holmvatnet" />
		<tag k="name:se" v="Duolbajávri" />
		<tag k="natural" v="water" />
		<tag k="old_name:se" v="Duolbajavri" />
		<tag k="ssr:stedsnr" v="868905" />
		<tag k="water" v="lake" />
	</node>
	<node lat="69.71432786948736" lon="30.864158691365027" id="-45695">
		<tag k="fixme" v="multiple name tags, choose one and add the other to alt_name" />
		<tag k="name" v="Gardsjøbekken;Tverrelva" />
		<tag k="ssr:stedsnr" v="868906" />
		<tag k="waterway" v="stream" />
	</node>
	<node lat="69.43318063326312" lon="30.027273074683364" id="-45697">
		<tag k="alt_name:no" v="Svanvatn" />
		<tag k="name" v="Svanevatn - Čoalbmejávri - Salmijärvi" />
		<tag k="name:fkv" v="Salmijärvi" />
		<tag k="name:no" v="Svanevatn" />
		<tag k="name:se" v="Čoalbmejávri" />
		<tag k="natural" v="water" />
		<tag k="ssr:stedsnr" v="868916" />
		<tag k="water" v="lake" />
	</node>
	<node lat="69.68610283440783" lon="29.58485404289085" id="-45700">
		<tag k="name" v="Vegnesbekken" />
		<tag k="ssr:stedsnr" v="869106" />
		<tag k="waterway" v="stream" />
	</node>
	<node lat="69.6751583973173" lon="29.7667733628908" id="-45701">
		<tag k="name" v="Villegoahteláttu" />
		<tag k="name:se" v="Villegoahteláttu" />
		<tag k="natural" v="water" />
		<tag k="old_name:se" v="Villegoatteladdo" />
		<tag k="ssr:stedsnr" v="869107" />
	</node>
	<node lat="69.6668611737559" lon="29.75092614368164" id="-45704">
		<tag k="name" v="Kraftlaghyttevatnet - Goddejávri" />
		<tag k="name:no" v="Kraftlaghyttevatnet" />
		<tag k="name:se" v="Goddejávri" />
		<tag k="natural" v="water" />
		<tag k="old_name:se" v="Gåddejavri" />
		<tag k="ssr:stedsnr" v="869119" />
		<tag k="water" v="lake" />
	</node>
	<node lat="69.67109449687587" lon="29.627409560911776" id="-45705">
		<tag k="fixme" v="multiple name tags, choose one and add the other to alt_name" />
		<tag k="name" v="Vegnesvatnet;Veidvatnet - Stuorrajávri" />
		<tag k="name:no" v="Vegnesvatnet;Veidvatnet" />
		<tag k="name:se" v="Stuorrajávri" />
		<tag k="natural" v="water" />
		<tag k="old_name:se" v="Stuorrajavri" />
		<tag k="ssr:stedsnr" v="869121" />
		<tag k="water" v="lake" />
	</node>
	<node lat="69.48844729319131" lon="30.029139785217808" id="-45708">
		<tag k="name" v="Martinusbekken" />
		<tag k="ssr:stedsnr" v="868883" />
		<tag k="waterway" v="stream" />
	</node>
	<node lat="69.81469171485138" lon="29.613287400428156" id="-45709">
		<tag k="alt_name:no" v="Snauvatnet, nedre" />
		<tag k="name" v="Nedre Snauvatnet - Vuolimus Roavvejávri" />
		<tag k="name:no" v="Nedre Snauvatnet" />
		<tag k="name:se" v="Vuolimus Roavvejávri" />
		<tag k="natural" v="water" />
		<tag k="old_name:se" v="Roavvejavri vuolimus" />
		<tag k="ssr:stedsnr" v="869012" />
		<tag k="water" v="lake" />
	</node>
	<node lat="69.70980283308039" lon="29.787306699279984" id="-45712">
		<tag k="name" v="Ørretvatnet - Dápmotjávri" />
		<tag k="name:no" v="Ørretvatnet" />
		<tag k="name:se" v="Dápmotjávri" />
		<tag k="natural" v="water" />
		<tag k="old_name:se" v="Dabmutjavri" />
		<tag k="ssr:stedsnr" v="869079" />
		<tag k="water" v="lake" />
	</node>
	<node lat="69.6156000599792" lon="29.519365165912347" id="-45714">
		<tag k="name" v="Korsdalsvatnet - Suohpášjávri" />
		<tag k="name:no" v="Korsdalsvatnet" />
		<tag k="name:se" v="Suohpášjávri" />
		<tag k="natural" v="water" />
		<tag k="old_name:se" v="Suoppašjavri" />
		<tag k="ssr:stedsnr" v="869170" />
	</node>
	<node lat="69.62802505713309" lon="29.637390080767716" id="-45715">
		<tag k="name" v="Teltgamvatnet - Lávvoriggejávri" />
		<tag k="name:no" v="Teltgamvatnet" />
		<tag k="name:se" v="Lávvoriggejávri" />
		<tag k="natural" v="water" />
		<tag k="old_name:se" v="Lavvuriggejavri" />
		<tag k="ssr:stedsnr" v="869174" />
		<tag k="water" v="lake" />
	</node>
	<node lat="69.83606949594262" lon="29.66899294598717" id="-45716">
		<tag k="name" v="Goahtejávri" />
		<tag k="name:se" v="Goahtejávri" />
		<tag k="natural" v="water" />
		<tag k="old_name:se" v="Goattejavri" />
		<tag k="ssr:stedsnr" v="869270" />
	</node>
	<node lat="69.77493895507834" lon="30.237684209658276" id="-45719">
		<tag k="name" v="Iselvvatna" />
		<tag k="natural" v="water" />
		<tag k="ssr:stedsnr" v="869449" />
	</node>
	<node lat="69.65090007277568" lon="30.256831343901993" id="-45721">
		<tag k="name" v="Botnelva" />
		<tag k="ssr:stedsnr" v="869780" />
		<tag k="waterway" v="river" />
	</node>
	<node lat="69.7773806231408" lon="30.218689773992114" id="-45724">
		<tag k="name" v="Damvatnet" />
		<tag k="natural" v="water" />
		<tag k="ssr:stedsnr" v="930415" />
	</node>
	<node lat="69.65196951266496" lon="30.074542610053015" id="-45725">
		<tag k="alt_name" v="Skavletjørna;Skavletjernet" />
		<tag k="name" v="Skavletjønna" />
		<tag k="natural" v="water" />
		<tag k="ssr:stedsnr" v="930783" />
	</node>
	<node lat="69.66683341319607" lon="30.596778329451524" id="-45726">
		<tag k="name" v="Tomasvatnet" />
		<tag k="natural" v="water" />
		<tag k="ssr:stedsnr" v="930784" />
	</node>
	<node lat="69.25556117022532" lon="29.09418472588079" id="-45730">
		<tag k="name" v="Lille Villreintjønna" />
		<tag k="natural" v="water" />
		<tag k="ssr:stedsnr" v="876362" />
		<tag k="water" v="lake" />
	</node>
	<node lat="69.29372228677589" lon="29.235301309373174" id="-45731">
		<tag k="name" v="Fossebekken" />
		<tag k="ssr:stedsnr" v="876759" />
		<tag k="waterway" v="river" />
	</node>
	<node lat="69.71730006569555" lon="30.054367654472397" id="-45739">
		<tag k="name" v="Fjellvatn" />
		<tag k="natural" v="water" />
		<tag k="ssr:stedsnr" v="878762" />
	</node>
	<node lat="69.73053895485319" lon="30.126745381617887" id="-45747">
		<tag k="name" v="Nilsbekken - Levijohka" />
		<tag k="name:no" v="Nilsbekken" />
		<tag k="name:se" v="Levijohka" />
		<tag k="ssr:stedsnr" v="934561" />
		<tag k="waterway" v="stream" />
	</node>
	<node lat="69.66375840397164" lon="30.267323033863647" id="-45751">
		<tag k="name" v="Svingbekken" />
		<tag k="ssr:stedsnr" v="895472" />
		<tag k="waterway" v="stream" />
	</node>
	<node lat="69.85173060137352" lon="29.439045850708276" id="-45752">
		<tag k="name" v="Vággijohka" />
		<tag k="name:se" v="Vággijohka" />
		<tag k="ssr:stedsnr" v="896008" />
		<tag k="waterway" v="stream" />
	</node>
	<node lat="69.73518619579724" lon="30.873183680681198" id="-45754">
		<tag k="name" v="Reingjerdbekken" />
		<tag k="ssr:stedsnr" v="896171" />
		<tag k="waterway" v="stream" />
	</node>
	<node lat="69.70438340619592" lon="30.47943400318686" id="-45756">
		<tag k="name" v="Langnes" />
		<tag k="natural" v="cape" />
		<tag k="ssr:stedsnr" v="896060" />
	</node>
	<node lat="69.57179728809919" lon="29.980039838622904" id="-45757">
		<tag k="name" v="Lille Fjellvatn" />
		<tag k="natural" v="water" />
		<tag k="ssr:stedsnr" v="896623" />
	</node>
	<node lat="69.2557056116353" lon="29.01456531365573" id="-45759">
		<tag k="name" v="Holmvatn - Saarijärvi" />
		<tag k="name:fkv" v="Saarijärvi" />
		<tag k="name:no" v="Holmvatn" />
		<tag k="natural" v="water" />
		<tag k="ssr:stedsnr" v="897022" />
	</node>
	<node lat="69.78568893893589" lon="29.67517069768936" id="-45765">
		<tag k="name" v="Valbekken" />
		<tag k="ssr:stedsnr" v="897970" />
		<tag k="waterway" v="stream" />
	</node>
	<node lat="69.08881949774481" lon="28.857651447869607" id="-45766">
		<tag k="alt_name:no" v="Grenseparvatn" />
		<tag k="name" v="Grenseparvatnet - Gearddošjávri - Rajakertusjärvi" />
		<tag k="name:fkv" v="Rajakertusjärvi" />
		<tag k="name:no" v="Grenseparvatnet" />
		<tag k="name:se" v="Gearddošjávri" />
		<tag k="natural" v="water" />
		<tag k="old_name:se" v="Gearddošjavri" />
		<tag k="ssr:stedsnr" v="928002" />
		<tag k="water" v="lake" />
	</node>
	<node lat="69.32518894705225" lon="29.202993015882043" id="-45768">
		<tag k="name" v="Klarbekken" />
		<tag k="ssr:stedsnr" v="928106" />
		<tag k="waterway" v="river" />
	</node>
	<node lat="69.34473338709365" lon="29.20691802699412" id="-45770">
		<tag k="alt_name:no" v="Store Spurvvatn" />
		<tag k="alt_name:se" v="Cizášjávri" />
		<tag k="name" v="Store Spurvvatnet - Šiššajávri" />
		<tag k="name:no" v="Store Spurvvatnet" />
		<tag k="name:se" v="Šiššajávri" />
		<tag k="natural" v="water" />
		<tag k="old_name:no" v="Spurvvatnet, store" />
		<tag k="old_name:se" v="Šiššajavri" />
		<tag k="ssr:stedsnr" v="928102" />
		<tag k="water" v="lake" />
	</node>
	<node lat="69.33446673253943" lon="29.541790037634872" id="-45774">
		<tag k="alt_name" v="Haaksethbukta" />
		<tag k="name" v="Håksetbukta" />
		<tag k="natural" v="bay" />
		<tag k="ssr:stedsnr" v="928900" />
	</node>
	<node lat="69.15944172464891" lon="29.056962493122686" id="-45777">
		<tag k="alt_name:no" v="Stabbursvatn" />
		<tag k="name" v="Stabbursvatnet - Nilijärvi" />
		<tag k="name:fkv" v="Nilijärvi" />
		<tag k="name:no" v="Stabbursvatnet" />
		<tag k="natural" v="water" />
		<tag k="old_name:fkv" v="Nilijærvi" />
		<tag k="ssr:stedsnr" v="929053" />
		<tag k="water" v="lake" />
	</node>
	<node lat="69.87263060140401" lon="29.54437079984363" id="-45787">
		<tag k="name" v="Boaresmárkanláttu" />
		<tag k="name:se" v="Boaresmárkanláttu" />
		<tag k="natural" v="water" />
		<tag k="old_name:se" v="Boaresmarkanladdo" />
		<tag k="ssr:stedsnr" v="929207" />
	</node>
	<node lat="69.73675007398111" lon="30.57841449471184" id="-45792">
		<tag k="name" v="Gåsevatnet" />
		<tag k="natural" v="water" />
		<tag k="ssr:stedsnr" v="929202" />
	</node>
	<node lat="69.75966395589394" lon="30.224417537377015" id="-45793">
		<tag k="name" v="Stallobukta - Stálogohppi" />
		<tag k="name:no" v="Stallobukta" />
		<tag k="name:se" v="Stálogohppi" />
		<tag k="natural" v="bay" />
		<tag k="old_name:se" v="Stalugåppi" />
		<tag k="ssr:stedsnr" v="929361" />
	</node>
	<node lat="69.63813618654909" lon="30.290509102647416" id="-45795">
		<tag k="name" v="Lomvatn" />
		<tag k="natural" v="water" />
		<tag k="ssr:stedsnr" v="929756" />
	</node>
	<node lat="69.82402506063244" lon="29.90253445905408" id="-45800">
		<tag k="name" v="Stabbursvatnet - Áitejávri" />
		<tag k="name:no" v="Stabbursvatnet" />
		<tag k="name:se" v="Áitejávri" />
		<tag k="natural" v="water" />
		<tag k="old_name:se" v="Aitejavri" />
		<tag k="ssr:stedsnr" v="930003" />
	</node>
	<node lat="69.80110562350717" lon="30.25576753949513" id="-45804">
		<tag k="name" v="Øretoppvatnet - Bealjáidjávrrit" />
		<tag k="name:no" v="Øretoppvatnet" />
		<tag k="name:se" v="Bealjáidjávrrit" />
		<tag k="natural" v="water" />
		<tag k="old_name:se" v="Bælljaidjavrit" />
		<tag k="ssr:stedsnr" v="930109" />
		<tag k="water" v="lake" />
	</node>
	<node lat="69.88861671843243" lon="29.826487296112795" id="-45807">
		<tag k="name" v="Vestrevatnet" />
		<tag k="natural" v="water" />
		<tag k="ssr:stedsnr" v="930205" />
		<tag k="water" v="lake" />
	</node>
	<node lat="69.67394451917612" lon="30.310853550303946" id="-45813">
		<tag k="name" v="Klausbekken" />
		<tag k="ssr:stedsnr" v="939209" />
		<tag k="waterway" v="stream" />
	</node>
	<node lat="69.63133894823143" lon="29.470262407200938" id="-45818">
		<tag k="name" v="Korsvassbekken" />
		<tag k="ssr:stedsnr" v="944479" />
		<tag k="waterway" v="stream" />
	</node>
</osm>
