<?xml version="1.0" encoding="UTF-8"?>
<osm version="0.6" generator="osmapis">
	<node lat="69.06265006501016" lon="29.08131243597234" id="-59343">
		<tag k="fixme" v="consider natural=peak for the most distinct mountains in the district" />
		<tag k="name" v="Kneppåsen - Kelhävaara" />
		<tag k="name:fkv" v="Kelhävaara" />
		<tag k="name:no" v="Kneppåsen" />
		<tag k="natural" v="hill" />
		<tag k="place" v="locality" />
		<tag k="ssr:stedsnr" v="18016" />
	</node>
	<node lat="69.61920284652581" lon="29.90397325642639" id="-59345">
		<tag k="alt_name:no" v="Midtfjordshøgda" />
		<tag k="fixme" v="consider natural=peak for the most distinct mountains in the district" />
		<tag k="name" v="Midtfjordfjellet - Puolivuonontunturi" />
		<tag k="name:fkv" v="Puolivuonontunturi" />
		<tag k="name:no" v="Midtfjordfjellet" />
		<tag k="natural" v="hill" />
		<tag k="old_name:fkv" v="Boålivoånondondori" />
		<tag k="place" v="locality" />
		<tag k="ssr:stedsnr" v="19143" />
	</node>
	<node lat="69.59261395841433" lon="29.92036767290431" id="-59349">
		<tag k="fixme" v="consider natural=peak for the most distinct mountains in the district" />
		<tag k="name" v="Pettersfjellet - Pekanpahta" />
		<tag k="name:fkv" v="Pekanpahta" />
		<tag k="name:no" v="Pettersfjellet" />
		<tag k="natural" v="hill" />
		<tag k="old_name:fkv" v="Beganbahta" />
		<tag k="place" v="locality" />
		<tag k="ssr:stedsnr" v="19156" />
	</node>
	<node lat="69.42827228753649" lon="29.771256598209956" id="-59350">
		<tag k="alt_name:no" v="Spillåsen" />
		<tag k="fixme" v="consider natural=peak for the most distinct mountains in the district" />
		<tag k="name" v="Spelåsen - Kiimavaara" />
		<tag k="name:fkv" v="Kiimavaara" />
		<tag k="name:no" v="Spelåsen" />
		<tag k="natural" v="hill" />
		<tag k="place" v="locality" />
		<tag k="ssr:stedsnr" v="18900" />
	</node>
	<node lat="69.67792506346659" lon="29.850023320601046" id="-59357">
		<tag k="name" v="Langvatndalen" />
		<tag k="natural" v="valley" />
		<tag k="place" v="locality" />
		<tag k="ssr:stedsnr" v="19095" />
	</node>
	<node lat="69.69945562069564" lon="30.080275952548654" id="-59361">
		<tag k="name" v="Appelsinsteinen" />
		<tag k="natural" v="hill" />
		<tag k="place" v="locality" />
		<tag k="ssr:stedsnr" v="24604" />
	</node>
	<node lat="69.7480528453989" lon="30.15351202943837" id="-59362">
		<tag k="fixme" v="consider natural=peak for the most distinct mountains in the district" />
		<tag k="name" v="Rundvassfjellet" />
		<tag k="natural" v="hill" />
		<tag k="place" v="locality" />
		<tag k="ssr:stedsnr" v="25580" />
	</node>
	<node lat="69.65076673442174" lon="29.971076012841337" id="-59369">
		<tag k="name" v="Vintervegskaret" />
		<tag k="natural" v="valley" />
		<tag k="place" v="locality" />
		<tag k="ssr:stedsnr" v="33822" />
	</node>
	<node lat="69.54036674103158" lon="30.141020289489603" id="-59372">
		<tag k="name" v="Kvapshaugen" />
		<tag k="natural" v="hill" />
		<tag k="place" v="locality" />
		<tag k="ssr:stedsnr" v="45312" />
	</node>
	<node lat="69.50696395936764" lon="30.046595325400894" id="-59376">
		<tag k="fixme" v="consider natural=peak for the most distinct mountains in the district" />
		<tag k="name" v="Risbrannfjellet" />
		<tag k="natural" v="hill" />
		<tag k="place" v="locality" />
		<tag k="ssr:stedsnr" v="46269" />
	</node>
	<node lat="69.73313896764674" lon="30.458053468875285" id="-59378">
		<tag k="name" v="Kråkhaugen" />
		<tag k="natural" v="hill" />
		<tag k="place" v="locality" />
		<tag k="ssr:stedsnr" v="47219" />
	</node>
	<node lat="69.85490837827466" lon="29.339259795978943" id="-59379">
		<tag k="name" v="Herkenčohkka" />
		<tag k="name:se" v="Herkenčohkka" />
		<tag k="natural" v="hill" />
		<tag k="place" v="locality" />
		<tag k="ssr:stedsnr" v="47174" />
	</node>
	<node lat="69.67903338586892" lon="29.58523458261494" id="-59399">
		<tag k="fixme" v="consider natural=peak for the most distinct mountains in the district" />
		<tag k="name" v="Sáttonjárvárri" />
		<tag k="name:se" v="Sáttonjárvárri" />
		<tag k="natural" v="hill" />
		<tag k="old_name:se" v="Saddunjarvarri" />
		<tag k="place" v="locality" />
		<tag k="ssr:stedsnr" v="80103" />
	</node>
	<node lat="69.66075282936166" lon="29.45143743267742" id="-59404">
		<tag k="name" v="Neidendalen" />
		<tag k="natural" v="valley" />
		<tag k="place" v="locality" />
		<tag k="ssr:stedsnr" v="80118" />
	</node>
	<node lat="69.7775639520559" lon="30.02108435428083" id="-59406">
		<tag k="name" v="Klubben - Snuordobeaski" />
		<tag k="name:no" v="Klubben" />
		<tag k="name:se" v="Snuordobeaski" />
		<tag k="natural" v="hill" />
		<tag k="old_name:se" v="Snuordubæski" />
		<tag k="place" v="locality" />
		<tag k="ssr:stedsnr" v="80120" />
	</node>
	<node lat="69.83949449235398" lon="29.20926817619827" id="-59408">
		<tag k="fixme" v="consider natural=peak for the most distinct mountains in the district" />
		<tag k="name" v="Jalgesoaivi" />
		<tag k="name:se" v="Jalgesoaivi" />
		<tag k="natural" v="hill" />
		<tag k="place" v="locality" />
		<tag k="ssr:stedsnr" v="80140" />
	</node>
	<node lat="69.75684451966987" lon="30.50007568396741" id="-59419">
		<tag k="name" v="Kuelvhøgda - Gusajohaláš" />
		<tag k="name:no" v="Kuelvhøgda" />
		<tag k="name:se" v="Gusajohaláš" />
		<tag k="natural" v="hill" />
		<tag k="old_name:se" v="Gusajåkalaš" />
		<tag k="place" v="locality" />
		<tag k="ssr:stedsnr" v="80392" />
	</node>
	<node lat="69.57984175698317" lon="30.711394833398924" id="-59422">
		<tag k="name" v="Vierramoen" />
		<tag k="place" v="locality" />
		<tag k="ssr:stedsnr" v="80903" />
	</node>
	<node lat="69.78388614630626" lon="28.664662861746073" id="-59424">
		<tag k="fixme" v="consider natural=peak for the most distinct mountains in the district" />
		<tag k="name" v="Áitoaivvit" />
		<tag k="name:se" v="Áitoaivvit" />
		<tag k="natural" v="hill" />
		<tag k="old_name:se" v="Aitoaivit" />
		<tag k="place" v="locality" />
		<tag k="ssr:stedsnr" v="80837" />
	</node>
	<node lat="69.73223617970628" lon="30.26588137920686" id="-59425">
		<tag k="name" v="Sotsodalen" />
		<tag k="natural" v="valley" />
		<tag k="place" v="locality" />
		<tag k="ssr:stedsnr" v="85912" />
	</node>
	<node lat="69.67699451284497" lon="30.01254542471128" id="-59432">
		<tag k="name" v="Tunnelhaugen" />
		<tag k="natural" v="hill" />
		<tag k="place" v="locality" />
		<tag k="ssr:stedsnr" v="94604" />
	</node>
	<node lat="69.63190007281304" lon="30.29471186824413" id="-59433">
		<tag k="fixme" v="consider natural=peak for the most distinct mountains in the district" />
		<tag k="name" v="Stuorrasulasoaivi" />
		<tag k="name:se" v="Stuorrasulasoaivi" />
		<tag k="natural" v="hill" />
		<tag k="place" v="locality" />
		<tag k="ssr:stedsnr" v="102169" />
	</node>
	<node lat="69.60748062166095" lon="30.107100889106956" id="-59434">
		<tag k="fixme" v="consider natural=peak for the most distinct mountains in the district" />
		<tag k="name" v="Fiskevassryggen" />
		<tag k="natural" v="hill" />
		<tag k="place" v="locality" />
		<tag k="ssr:stedsnr" v="106290" />
	</node>
	<node lat="69.48005840136408" lon="29.91874819320495" id="-59444">
		<tag k="fixme" v="consider natural=peak for the most distinct mountains in the district" />
		<tag k="name" v="Veståsen" />
		<tag k="natural" v="hill" />
		<tag k="place" v="locality" />
		<tag k="ssr:stedsnr" v="108520" />
	</node>
	<node lat="69.72832504761962" lon="29.05164878075721" id="-59454">
		<tag k="fixme" v="consider natural=peak for the most distinct mountains in the district" />
		<tag k="name" v="Hávgavárri" />
		<tag k="name:se" v="Hávgavárri" />
		<tag k="natural" v="hill" />
		<tag k="old_name:se" v="Havgavarri" />
		<tag k="place" v="locality" />
		<tag k="ssr:stedsnr" v="139498" />
	</node>
	<node lat="69.73152504591506" lon="29.005521027956096" id="-59455">
		<tag k="fixme" v="consider natural=peak for the most distinct mountains in the district" />
		<tag k="name" v="Soahkemuorvárri" />
		<tag k="name:se" v="Soahkemuorvárri" />
		<tag k="natural" v="hill" />
		<tag k="old_name:se" v="Soakkemuorvarri" />
		<tag k="place" v="locality" />
		<tag k="ssr:stedsnr" v="139499" />
	</node>
	<node lat="69.79431117970248" lon="30.309781397237664" id="-59459">
		<tag k="name" v="Jørgendalen" />
		<tag k="natural" v="valley" />
		<tag k="place" v="locality" />
		<tag k="ssr:stedsnr" v="140102" />
	</node>
	<node lat="69.84501114527232" lon="28.864251673919934" id="-59460">
		<tag k="fixme" v="consider natural=peak for the most distinct mountains in the district" />
		<tag k="name" v="Mákkáboalči" />
		<tag k="name:se" v="Mákkáboalči" />
		<tag k="natural" v="hill" />
		<tag k="old_name:se" v="Maggaboalči" />
		<tag k="place" v="locality" />
		<tag k="ssr:stedsnr" v="140106" />
	</node>
	<node lat="69.73540006216278" lon="29.92849828400144" id="-59466">
		<tag k="fixme" v="consider natural=peak for the most distinct mountains in the district" />
		<tag k="name" v="Káren-Rávnnoaivi" />
		<tag k="name:se" v="Káren-Rávnnoaivi" />
		<tag k="natural" v="hill" />
		<tag k="old_name:se" v="Karenravnoaivi" />
		<tag k="place" v="locality" />
		<tag k="ssr:stedsnr" v="140043" />
	</node>
	<node lat="69.69286396451335" lon="30.32145355248814" id="-59479">
		<tag k="alt_name" v="Raudfjellet" />
		<tag k="fixme" v="consider natural=peak for the most distinct mountains in the district" />
		<tag k="name" v="Rødfjellet" />
		<tag k="natural" v="hill" />
		<tag k="place" v="locality" />
		<tag k="ssr:stedsnr" v="140802" />
	</node>
	<node lat="69.69079175177515" lon="30.600970000781327" id="-59480">
		<tag k="fixme" v="consider natural=peak for the most distinct mountains in the district" />
		<tag k="name" v="Skáidi" />
		<tag k="name:se" v="Skáidi" />
		<tag k="natural" v="hill" />
		<tag k="old_name:se" v="Skaidi" />
		<tag k="place" v="locality" />
		<tag k="ssr:stedsnr" v="140784" />
	</node>
	<node lat="69.67060839838248" lon="30.150453669234274" id="-59482">
		<tag k="alt_name" v="Russefjell" />
		<tag k="name" v="Russehøgda" />
		<tag k="natural" v="hill" />
		<tag k="place" v="locality" />
		<tag k="ssr:stedsnr" v="140790" />
	</node>
	<node lat="69.84955282499443" lon="29.51706803381754" id="-59484">
		<tag k="fixme" v="consider natural=peak for the most distinct mountains in the district" />
		<tag k="name" v="Vaggetind - Vággegáisá" />
		<tag k="name:no" v="Vaggetind" />
		<tag k="name:se" v="Vággegáisá" />
		<tag k="natural" v="hill" />
		<tag k="old_name:se" v="Vaggegaisa" />
		<tag k="place" v="locality" />
		<tag k="ssr:stedsnr" v="144240" />
	</node>
	<node lat="69.80431393122457" lon="28.99360994796053" id="-59485">
		<tag k="fixme" v="consider natural=peak for the most distinct mountains in the district" />
		<tag k="name" v="Farkollen - Fárrennurki" />
		<tag k="name:no" v="Farkollen" />
		<tag k="name:se" v="Fárrennurki" />
		<tag k="natural" v="hill" />
		<tag k="old_name:se" v="Farrennurki" />
		<tag k="place" v="locality" />
		<tag k="ssr:stedsnr" v="145149" />
	</node>
	<node lat="69.70681117664687" lon="30.046381542446017" id="-59486">
		<tag k="name" v="Prestvasslia" />
		<tag k="natural" v="slope" />
		<tag k="place" v="locality" />
		<tag k="ssr:stedsnr" v="145605" />
	</node>
	<node lat="69.91066949208745" lon="29.33502924962859" id="-59487">
		<tag k="fixme" v="consider natural=peak for the most distinct mountains in the district" />
		<tag k="name" v="Haukberget - Fállenjunnás" />
		<tag k="name:no" v="Haukberget" />
		<tag k="name:se" v="Fállenjunnás" />
		<tag k="natural" v="hill" />
		<tag k="old_name:se" v="Fallenjunnas" />
		<tag k="place" v="locality" />
		<tag k="ssr:stedsnr" v="145805" />
	</node>
	<node lat="69.66874729464259" lon="30.11839535981427" id="-59494">
		<tag k="name" v="Skafferhollet - Goškeluovta" />
		<tag k="name:no" v="Skafferhollet" />
		<tag k="name:se" v="Goškeluovta" />
		<tag k="place" v="locality" />
		<tag k="ssr:stedsnr" v="147903" />
	</node>
	<node lat="69.68198616605777" lon="29.350401382963383" id="-59498">
		<tag k="name" v="Veimoen" />
		<tag k="place" v="locality" />
		<tag k="ssr:stedsnr" v="155422" />
	</node>
	<node lat="69.68181396400799" lon="30.46691731625055" id="-59505">
		<tag k="name" v="Gardekčohkka" />
		<tag k="name:se" v="Gardekčohkka" />
		<tag k="natural" v="hill" />
		<tag k="place" v="locality" />
		<tag k="ssr:stedsnr" v="168024" />
	</node>
	<node lat="69.6582889458008" lon="29.556037379060413" id="-59506">
		<tag k="fixme" v="consider natural=peak for the most distinct mountains in the district" />
		<tag k="name" v="Angelfjellet" />
		<tag k="natural" v="hill" />
		<tag k="place" v="locality" />
		<tag k="ssr:stedsnr" v="168056" />
	</node>
	<node lat="69.11286394497064" lon="28.991093057616805" id="-59522">
		<tag k="fixme" v="consider natural=peak for the most distinct mountains in the district" />
		<tag k="name" v="Hallerfjellet - Áibmevárri - Äimävaara" />
		<tag k="name:fkv" v="Äimävaara" />
		<tag k="name:no" v="Hallerfjellet" />
		<tag k="name:se" v="Áibmevárri" />
		<tag k="natural" v="hill" />
		<tag k="old_name:fkv" v="Æimævara" />
		<tag k="place" v="locality" />
		<tag k="ssr:stedsnr" v="261035" />
	</node>
	<node lat="69.30366671988352" lon="29.106718043141232" id="-59526">
		<tag k="name" v="Biehkanoaivi" />
		<tag k="name:se" v="Biehkanoaivi" />
		<tag k="natural" v="hill" />
		<tag k="old_name:se" v="Biekkanoaivi" />
		<tag k="place" v="locality" />
		<tag k="ssr:stedsnr" v="261114" />
	</node>
	<node lat="69.39761949609367" lon="29.220101365765327" id="-59528">
		<tag k="fixme" v="consider natural=peak for the most distinct mountains in the district" />
		<tag k="name" v="Njukčajárvárri" />
		<tag k="name:se" v="Njukčajárvárri" />
		<tag k="natural" v="hill" />
		<tag k="old_name:se" v="Njukčajarvarri" />
		<tag k="place" v="locality" />
		<tag k="ssr:stedsnr" v="261064" />
	</node>
	<node lat="69.83892503729186" lon="28.97077661378506" id="-59530">
		<tag k="fixme" v="consider natural=peak for the most distinct mountains in the district" />
		<tag k="name" v="Čáihnevárri" />
		<tag k="name:se" v="Čáihnevárri" />
		<tag k="natural" v="hill" />
		<tag k="old_name:se" v="Čaihnevarri" />
		<tag k="place" v="locality" />
		<tag k="ssr:stedsnr" v="262130" />
	</node>
	<node lat="69.73043615239742" lon="29.12207096636476" id="-59532">
		<tag k="fixme" v="consider natural=peak for the most distinct mountains in the district" />
		<tag k="name" v="Njukčanjunnás" />
		<tag k="name:se" v="Njukčanjunnás" />
		<tag k="natural" v="hill" />
		<tag k="old_name:se" v="Njukčanjunnas" />
		<tag k="place" v="locality" />
		<tag k="ssr:stedsnr" v="261486" />
	</node>
	<node lat="69.37330007110708" lon="29.66159552936431" id="-59542">
		<tag k="fixme" v="consider natural=peak for the most distinct mountains in the district" />
		<tag k="name" v="Svartfjellet - Mustavaara" />
		<tag k="name:fkv" v="Mustavaara" />
		<tag k="name:no" v="Svartfjellet" />
		<tag k="natural" v="hill" />
		<tag k="place" v="locality" />
		<tag k="ssr:stedsnr" v="261854" />
	</node>
	<node lat="69.44887507157141" lon="29.92512594068941" id="-59543">
		<tag k="alt_name" v="Seksognittihøgda;Gaivolahaugen;Kajulanmaa" />
		<tag k="name" v="Nittisekshøgda" />
		<tag k="natural" v="hill" />
		<tag k="place" v="locality" />
		<tag k="ssr:stedsnr" v="261885" />
	</node>
	<node lat="69.60886397236237" lon="30.581658868133683" id="-59551">
		<tag k="name" v="Ørretvasshøgda - Goasoaivi" />
		<tag k="name:no" v="Ørretvasshøgda" />
		<tag k="name:se" v="Goasoaivi" />
		<tag k="natural" v="hill" />
		<tag k="place" v="locality" />
		<tag k="ssr:stedsnr" v="261815" />
	</node>
	<node lat="69.59278619405032" lon="30.424992322579055" id="-59552">
		<tag k="fixme" v="multiple name tags, choose one and add the other to alt_name" />
		<tag k="name" v="Aborvassfjell;Nordre Abbortjørnhøgda - Vuovssoaivi" />
		<tag k="name:no" v="Aborvassfjell;Nordre Abbortjørnhøgda" />
		<tag k="name:se" v="Vuovssoaivi" />
		<tag k="natural" v="hill" />
		<tag k="old_name:no" v="Abbortjørnhøgda, nordre" />
		<tag k="old_name:se" v="Vuovsoaivi" />
		<tag k="place" v="locality" />
		<tag k="ssr:stedsnr" v="261826" />
	</node>
	<node lat="69.61624729117815" lon="30.01164819152118" id="-59553">
		<tag k="alt_name:no" v="Bjørnefjell" />
		<tag k="fixme" v="consider natural=peak for the most distinct mountains in the district" />
		<tag k="name" v="Bjørnefjellet - Guovžavárri" />
		<tag k="name:no" v="Bjørnefjellet" />
		<tag k="name:se" v="Guovžavárri" />
		<tag k="natural" v="hill" />
		<tag k="old_name:se" v="Guovžavarri" />
		<tag k="place" v="locality" />
		<tag k="ssr:stedsnr" v="261830" />
	</node>
	<node lat="69.41564728244455" lon="29.646548343248682" id="-59555">
		<tag k="fixme" v="consider natural=peak for the most distinct mountains in the district" />
		<tag k="name" v="Malbekkåsen" />
		<tag k="natural" v="hill" />
		<tag k="place" v="locality" />
		<tag k="ssr:stedsnr" v="261912" />
	</node>
	<node lat="69.77722228232679" lon="29.665276239085166" id="-59556">
		<tag k="alt_name:no" v="Kilberget" />
		<tag k="fixme" v="consider natural=peak for the most distinct mountains in the district" />
		<tag k="name" v="Kilefjellet - Ávnoaivi" />
		<tag k="name:no" v="Kilefjellet" />
		<tag k="name:se" v="Ávnoaivi" />
		<tag k="natural" v="hill" />
		<tag k="old_name:se" v="Avnoaivi" />
		<tag k="place" v="locality" />
		<tag k="ssr:stedsnr" v="262029" />
	</node>
	<node lat="69.76814172082011" lon="29.594504050530414" id="-59557">
		<tag k="name" v="Čehporasvárri" />
		<tag k="name:se" v="Čehporasvárri" />
		<tag k="natural" v="hill" />
		<tag k="old_name:se" v="Čeppurasvarri" />
		<tag k="place" v="locality" />
		<tag k="ssr:stedsnr" v="262035" />
	</node>
	<node lat="69.94471949211709" lon="29.459404212894032" id="-59575">
		<tag k="fixme" v="consider natural=peak for the most distinct mountains in the district" />
		<tag k="name" v="Gáranasčohkka" />
		<tag k="name:se" v="Gáranasčohkka" />
		<tag k="natural" v="hill" />
		<tag k="old_name:se" v="Garanasčåkka" />
		<tag k="place" v="locality" />
		<tag k="ssr:stedsnr" v="262174" />
	</node>
	<node lat="69.9446722678307" lon="29.56507358510376" id="-59576">
		<tag k="name" v="Ránagurra" />
		<tag k="name:se" v="Ránagurra" />
		<tag k="natural" v="valley" />
		<tag k="old_name:se" v="Ranagurra" />
		<tag k="place" v="locality" />
		<tag k="ssr:stedsnr" v="262177" />
	</node>
	<node lat="69.73529174322488" lon="30.407389623659824" id="-59581">
		<tag k="name" v="Skarvskiten" />
		<tag k="natural" v="hill" />
		<tag k="place" v="locality" />
		<tag k="ssr:stedsnr" v="262223" />
	</node>
	<node lat="69.65525007674658" lon="30.228634150907684" id="-59585">
		<tag k="name" v="Vardehaug" />
		<tag k="natural" v="hill" />
		<tag k="place" v="locality" />
		<tag k="ssr:stedsnr" v="262789" />
	</node>
	<node lat="69.71267785778244" lon="30.497822869759585" id="-59586">
		<tag k="alt_name" v="Hompen, midtre;Midtre Hompen" />
		<tag k="fixme" v="consider natural=peak for the most distinct mountains in the district" />
		<tag k="name" v="Midtre Humpen" />
		<tag k="natural" v="hill" />
		<tag k="place" v="locality" />
		<tag k="ssr:stedsnr" v="262829" />
	</node>
	<node lat="69.7043278504891" lon="30.390439619718826" id="-59587">
		<tag k="fixme" v="consider natural=peak for the most distinct mountains in the district" />
		<tag k="name" v="Kjerrisnesfjellet - Beazenjáraláš" />
		<tag k="name:no" v="Kjerrisnesfjellet" />
		<tag k="name:se" v="Beazenjáraláš" />
		<tag k="natural" v="hill" />
		<tag k="old_name:se" v="Bæzenjaralaš" />
		<tag k="place" v="locality" />
		<tag k="ssr:stedsnr" v="262834" />
	</node>
	<node lat="69.59998620278593" lon="30.811794771997526" id="-59589">
		<tag k="name" v="Toddyhaugen" />
		<tag k="natural" v="hill" />
		<tag k="place" v="locality" />
		<tag k="ssr:stedsnr" v="262911" />
	</node>
	<node lat="69.9420805917974" lon="28.903326676018505" id="-59590">
		<tag k="fixme" v="consider natural=peak for the most distinct mountains in the district" />
		<tag k="name" v="Gearretoaivi" />
		<tag k="name:se" v="Gearretoaivi" />
		<tag k="natural" v="hill" />
		<tag k="old_name:se" v="Gærretoaivi" />
		<tag k="place" v="locality" />
		<tag k="ssr:stedsnr" v="262850" />
	</node>
	<node lat="69.83764725650171" lon="28.652040652047848" id="-59594">
		<tag k="name" v="Ludnenjoaski" />
		<tag k="name:se" v="Ludnenjoaski" />
		<tag k="natural" v="valley" />
		<tag k="place" v="locality" />
		<tag k="ssr:stedsnr" v="262880" />
	</node>
	<node lat="69.67288061165996" lon="29.470498533689895" id="-59608">
		<tag k="fixme" v="consider natural=peak for the most distinct mountains in the district" />
		<tag k="name" v="Buktfjellet" />
		<tag k="natural" v="hill" />
		<tag k="place" v="locality" />
		<tag k="ssr:stedsnr" v="201101" />
	</node>
	<node lat="69.67545840764993" lon="30.30381467529279" id="-59625">
		<tag k="name" v="Johannesdalen" />
		<tag k="natural" v="valley" />
		<tag k="place" v="locality" />
		<tag k="ssr:stedsnr" v="201779" />
	</node>
	<node lat="69.62568063107419" lon="30.43988954098834" id="-59631">
		<tag k="name" v="Svartberget" />
		<tag k="natural" v="hill" />
		<tag k="place" v="locality" />
		<tag k="ssr:stedsnr" v="201853" />
	</node>
	<node lat="69.72971673643264" lon="30.166884244091843" id="-59639">
		<tag k="fixme" v="consider natural=peak for the most distinct mountains in the district" />
		<tag k="name" v="Tennvasshaugen" />
		<tag k="natural" v="hill" />
		<tag k="place" v="locality" />
		<tag k="ssr:stedsnr" v="206570" />
	</node>
	<node lat="69.7478139717443" lon="30.67485887666585" id="-59641">
		<tag k="fixme" v="consider natural=peak for the most distinct mountains in the district" />
		<tag k="name" v="Gravsjøfjellet - Roggejáraláš" />
		<tag k="name:no" v="Gravsjøfjellet" />
		<tag k="name:se" v="Roggejáraláš" />
		<tag k="natural" v="hill" />
		<tag k="old_name:se" v="Råggejaralaš" />
		<tag k="place" v="locality" />
		<tag k="ssr:stedsnr" v="208821" />
	</node>
	<node lat="69.46563896347075" lon="30.007037012586554" id="-59645">
		<tag k="fixme" v="consider natural=peak for the most distinct mountains in the district" />
		<tag k="name" v="Salmovaara" />
		<tag k="name:fkv" v="Salmovaara" />
		<tag k="natural" v="hill" />
		<tag k="place" v="locality" />
		<tag k="ssr:stedsnr" v="269946" />
	</node>
	<node lat="69.33337227985106" lon="29.353517926198155" id="-59651">
		<tag k="name" v="Pasvikdalen - Báhčaveajji - Paččjokk - Paatsjoki" />
		<tag k="name:fkv" v="Paatsjoki" />
		<tag k="name:no" v="Pasvikdalen" />
		<tag k="name:se" v="Báhčaveajji" />
		<tag k="name:sms" v="Paččjokk" />
		<tag k="natural" v="valley" />
		<tag k="place" v="locality" />
		<tag k="ssr:stedsnr" v="271861" />
	</node>
	<node lat="69.69616949404177" lon="29.175190386978425" id="-59652">
		<tag k="name" v="Knutmoen" />
		<tag k="place" v="locality" />
		<tag k="ssr:stedsnr" v="228313" />
	</node>
	<node lat="69.66871394314232" lon="29.42404855314766" id="-59656">
		<tag k="fixme" v="consider natural=peak for the most distinct mountains in the district" />
		<tag k="name" v="Bordevárri" />
		<tag k="name:se" v="Bordevárri" />
		<tag k="natural" v="hill" />
		<tag k="place" v="locality" />
		<tag k="ssr:stedsnr" v="229188" />
	</node>
	<node lat="69.7744306140769" lon="29.647001252350435" id="-59666">
		<tag k="name" v="Látnjoaivi" />
		<tag k="name:se" v="Látnjoaivi" />
		<tag k="natural" v="hill" />
		<tag k="place" v="locality" />
		<tag k="ssr:stedsnr" v="229989" />
	</node>
	<node lat="69.06822228983972" lon="29.146231845046344" id="-59673">
		<tag k="name" v="Tangenfossmoen" />
		<tag k="place" v="locality" />
		<tag k="ssr:stedsnr" v="261009" />
	</node>
	<node lat="69.71035004698263" lon="29.19854869158799" id="-59674">
		<tag k="name" v="Litlefjell" />
		<tag k="natural" v="hill" />
		<tag k="place" v="locality" />
		<tag k="ssr:stedsnr" v="261001" />
	</node>
	<node lat="69.1935833848365" lon="28.898015362081377" id="-59678">
		<tag k="alt_name:no" v="Sortåsen" />
		<tag k="fixme" v="consider natural=peak for the most distinct mountains in the district" />
		<tag k="name" v="Svartåsen - Mustavaara" />
		<tag k="name:fkv" v="Mustavaara" />
		<tag k="name:no" v="Svartåsen" />
		<tag k="natural" v="hill" />
		<tag k="old_name:fkv" v="Mostavara" />
		<tag k="place" v="locality" />
		<tag k="ssr:stedsnr" v="261755" />
	</node>
	<node lat="69.17124172388675" lon="29.176565204414146" id="-59680">
		<tag k="fixme" v="consider natural=peak for the most distinct mountains in the district" />
		<tag k="name" v="Husmoseåsen - Sammalvaara" />
		<tag k="name:fkv" v="Sammalvaara" />
		<tag k="name:no" v="Husmoseåsen" />
		<tag k="natural" v="hill" />
		<tag k="old_name:fkv" v="Sammalvara" />
		<tag k="place" v="locality" />
		<tag k="ssr:stedsnr" v="261761" />
	</node>
	<node lat="69.80180283130647" lon="29.803451165976053" id="-59683">
		<tag k="name" v="Mygghaugen - Čuoikadievvá" />
		<tag k="name:no" v="Mygghaugen" />
		<tag k="name:se" v="Čuoikadievvá" />
		<tag k="natural" v="hill" />
		<tag k="old_name:se" v="Čuoikadievva" />
		<tag k="place" v="locality" />
		<tag k="ssr:stedsnr" v="262019" />
	</node>
	<node lat="69.66635839420691" lon="29.689626198409496" id="-59688">
		<tag k="fixme" v="consider natural=peak for the most distinct mountains in the district" />
		<tag k="name" v="Skitfjellet - Baikgarranoaivi" />
		<tag k="name:no" v="Skitfjellet" />
		<tag k="name:se" v="Baikgarranoaivi" />
		<tag k="natural" v="hill" />
		<tag k="place" v="locality" />
		<tag k="ssr:stedsnr" v="262113" />
	</node>
	<node lat="69.79905837732377" lon="29.142384853393985" id="-59690">
		<tag k="fixme" v="consider natural=peak for the most distinct mountains in the district" />
		<tag k="name" v="Reinbogfjellet - Čoarbealvárri" />
		<tag k="name:no" v="Reinbogfjellet" />
		<tag k="name:se" v="Čoarbealvárri" />
		<tag k="natural" v="hill" />
		<tag k="old_name:se" v="Čoarbælvarri" />
		<tag k="place" v="locality" />
		<tag k="ssr:stedsnr" v="262146" />
	</node>
	<node lat="69.78612507670901" lon="30.784006024843436" id="-59697">
		<tag k="name" v="Sølvgruva" />
		<tag k="natural" v="slope" />
		<tag k="place" v="locality" />
		<tag k="ssr:stedsnr" v="262443" />
	</node>
	<node lat="69.7359417247428" lon="29.798117818037525" id="-59704">
		<tag k="fixme" v="consider natural=peak for the most distinct mountains in the district" />
		<tag k="name" v="Tusenvikfjellet" />
		<tag k="natural" v="hill" />
		<tag k="place" v="locality" />
		<tag k="ssr:stedsnr" v="267507" />
	</node>
	<node lat="69.73462229387616" lon="30.401522944589306" id="-59711">
		<tag k="name" v="Skarvfjell" />
		<tag k="natural" v="hill" />
		<tag k="place" v="locality" />
		<tag k="ssr:stedsnr" v="271275" />
	</node>
	<node lat="69.8002695122909" lon="30.14631205855721" id="-59713">
		<tag k="name" v="Værberget" />
		<tag k="natural" v="hill" />
		<tag k="place" v="locality" />
		<tag k="ssr:stedsnr" v="287495" />
	</node>
	<node lat="69.65444449609129" lon="29.536515169384327" id="-59716">
		<tag k="fixme" v="consider natural=peak for the most distinct mountains in the district" />
		<tag k="name" v="Angelfjellet" />
		<tag k="natural" v="hill" />
		<tag k="place" v="locality" />
		<tag k="ssr:stedsnr" v="290229" />
	</node>
	<node lat="69.85711948903818" lon="29.373198655096893" id="-59719">
		<tag k="name" v="Skáidi" />
		<tag k="name:se" v="Skáidi" />
		<tag k="natural" v="hill" />
		<tag k="place" v="locality" />
		<tag k="ssr:stedsnr" v="290176" />
	</node>
	<node lat="69.74760559662093" lon="29.11709041880397" id="-59722">
		<tag k="fixme" v="consider natural=peak for the most distinct mountains in the district" />
		<tag k="name" v="Svanefjell" />
		<tag k="natural" v="hill" />
		<tag k="place" v="locality" />
		<tag k="ssr:stedsnr" v="295587" />
	</node>
	<node lat="69.09078617693855" lon="29.14129852590371" id="-59727">
		<tag k="fixme" v="consider natural=peak for the most distinct mountains in the district" />
		<tag k="name" v="Gjeddeåsen - Hávgavárri" />
		<tag k="name:no" v="Gjeddeåsen" />
		<tag k="name:se" v="Hávgavárri" />
		<tag k="natural" v="hill" />
		<tag k="place" v="locality" />
		<tag k="ssr:stedsnr" v="321001" />
	</node>
	<node lat="69.73468618421077" lon="30.48112845234394" id="-59731">
		<tag k="alt_name" v="Gangasdalen" />
		<tag k="name" v="Kangasdalen" />
		<tag k="natural" v="valley" />
		<tag k="place" v="locality" />
		<tag k="ssr:stedsnr" v="322202" />
	</node>
	<node lat="69.73935285780217" lon="30.49625066527401" id="-59733">
		<tag k="alt_name:se" v="Coagangáisá" />
		<tag k="fixme" v="consider natural=peak for the most distinct mountains in the district" />
		<tag k="name" v="Lánagáisá" />
		<tag k="name:se" v="Lánagáisá" />
		<tag k="natural" v="hill" />
		<tag k="old_name:se" v="Lanagaissa" />
		<tag k="place" v="locality" />
		<tag k="ssr:stedsnr" v="322208" />
	</node>
	<node lat="69.71082507500832" lon="30.50326174822221" id="-59743">
		<tag k="alt_name" v="Hompen, austre;Hompen;Austre Hompen" />
		<tag k="fixme" v="multiple name tags, choose one and add the other to alt_name; consider natural=peak for the most distinct mountains in the district" />
		<tag k="name" v="Humpen;Austre Humpen" />
		<tag k="natural" v="hill" />
		<tag k="place" v="locality" />
		<tag k="ssr:stedsnr" v="322785" />
	</node>
	<node lat="69.7846028274724" lon="29.541404100742884" id="-59749">
		<tag k="fixme" v="consider natural=peak for the most distinct mountains in the district" />
		<tag k="name" v="Guolleveailuoppaloaivi" />
		<tag k="name:se" v="Guolleveailuoppaloaivi" />
		<tag k="natural" v="hill" />
		<tag k="old_name:se" v="Guollevæjluobbaloaivi" />
		<tag k="place" v="locality" />
		<tag k="ssr:stedsnr" v="323029" />
	</node>
	<node lat="69.5111889443462" lon="29.4976512455064" id="-59752">
		<tag k="name" v="Savetoaileahki" />
		<tag k="name:se" v="Savetoaileahki" />
		<tag k="natural" v="valley" />
		<tag k="old_name:se" v="Savetoailækki" />
		<tag k="place" v="locality" />
		<tag k="ssr:stedsnr" v="323214" />
	</node>
	<node lat="69.89069172000333" lon="29.73434846433751" id="-59753">
		<tag k="alt_name" v="Brasfjellet" />
		<tag k="fixme" v="consider natural=peak for the most distinct mountains in the district" />
		<tag k="name" v="Brashamnfjellet" />
		<tag k="natural" v="hill" />
		<tag k="place" v="locality" />
		<tag k="ssr:stedsnr" v="323223" />
	</node>
	<node lat="69.553577834945" lon="29.519348479651665" id="-59755">
		<tag k="fixme" v="consider natural=peak for the most distinct mountains in the district" />
		<tag k="name" v="Midtfjell" />
		<tag k="natural" v="hill" />
		<tag k="place" v="locality" />
		<tag k="ssr:stedsnr" v="323181" />
	</node>
	<node lat="69.56081395755128" lon="29.946309314111154" id="-59756">
		<tag k="name" v="Sagmoen" />
		<tag k="place" v="locality" />
		<tag k="ssr:stedsnr" v="323184" />
	</node>
	<node lat="69.73598339639412" lon="30.172387016811374" id="-59758">
		<tag k="name" v="Jakobsdalen" />
		<tag k="natural" v="valley" />
		<tag k="place" v="locality" />
		<tag k="ssr:stedsnr" v="327576" />
	</node>
	<node lat="69.66482782550719" lon="29.30195696450275" id="-59770">
		<tag k="name" v="Ljodinbori" />
		<tag k="name:se" v="Ljodinbori" />
		<tag k="natural" v="hill" />
		<tag k="place" v="locality" />
		<tag k="ssr:stedsnr" v="471329" />
	</node>
	<node lat="69.5247639652022" lon="30.106314731345822" id="-59772">
		<tag k="name" v="Brattberget" />
		<tag k="natural" v="hill" />
		<tag k="place" v="locality" />
		<tag k="ssr:stedsnr" v="471352" />
	</node>
	<node lat="69.68663895717579" lon="29.972289909029993" id="-59781">
		<tag k="name" v="Sandnesfjellet" />
		<tag k="natural" v="hill" />
		<tag k="place" v="locality" />
		<tag k="ssr:stedsnr" v="337819" />
	</node>
	<node lat="69.88118059856582" lon="29.321440352872596" id="-59782">
		<tag k="fixme" v="consider natural=peak for the most distinct mountains in the district" />
		<tag k="name" v="Rotnočohkka" />
		<tag k="name:se" v="Rotnočohkka" />
		<tag k="natural" v="hill" />
		<tag k="place" v="locality" />
		<tag k="ssr:stedsnr" v="472134" />
	</node>
	<node lat="69.81966671752899" lon="29.338101439430712" id="-59785">
		<tag k="name" v="Skálnjuokčanoaivi" />
		<tag k="name:se" v="Skálnjuokčanoaivi" />
		<tag k="natural" v="hill" />
		<tag k="place" v="locality" />
		<tag k="ssr:stedsnr" v="472333" />
	</node>
	<node lat="69.54809729201932" lon="30.006306494022322" id="-59786">
		<tag k="name" v="Jensteinhøgda" />
		<tag k="natural" v="hill" />
		<tag k="place" v="locality" />
		<tag k="ssr:stedsnr" v="472542" />
	</node>
	<node lat="69.66553618812752" lon="30.35633407864156" id="-59790">
		<tag k="fixme" v="consider natural=peak for the most distinct mountains in the district" />
		<tag k="name" v="Ovstarčohkka" />
		<tag k="name:se" v="Ovstarčohkka" />
		<tag k="natural" v="hill" />
		<tag k="place" v="locality" />
		<tag k="ssr:stedsnr" v="348462" />
	</node>
	<node lat="69.66770563663606" lon="30.447775662915074" id="-59793">
		<tag k="name" v="Skuordivárri" />
		<tag k="name:se" v="Skuordivárri" />
		<tag k="natural" v="hill" />
		<tag k="place" v="locality" />
		<tag k="ssr:stedsnr" v="349120" />
	</node>
	<node lat="69.67130841102012" lon="30.408122929036633" id="-59794">
		<tag k="name" v="Fritzevárri" />
		<tag k="name:se" v="Fritzevárri" />
		<tag k="natural" v="hill" />
		<tag k="place" v="locality" />
		<tag k="ssr:stedsnr" v="349123" />
	</node>
	<node lat="69.53695285237795" lon="30.13669527469594" id="-59799">
		<tag k="name" v="Tårnhaugen" />
		<tag k="natural" v="hill" />
		<tag k="place" v="locality" />
		<tag k="ssr:stedsnr" v="350302" />
	</node>
	<node lat="69.51188062255274" lon="29.903098214663046" id="-59801">
		<tag k="fixme" v="consider natural=peak for the most distinct mountains in the district" />
		<tag k="name" v="Brannfjellet - Roavvevárri" />
		<tag k="name:no" v="Brannfjellet" />
		<tag k="name:se" v="Roavvevárri" />
		<tag k="natural" v="hill" />
		<tag k="place" v="locality" />
		<tag k="ssr:stedsnr" v="350558" />
	</node>
	<node lat="69.53800840441642" lon="29.93340652918636" id="-59802">
		<tag k="fixme" v="consider natural=peak for the most distinct mountains in the district" />
		<tag k="name" v="Djupvassfjellet" />
		<tag k="natural" v="hill" />
		<tag k="place" v="locality" />
		<tag k="ssr:stedsnr" v="350590" />
	</node>
	<node lat="69.47037229490441" lon="29.887070431021687" id="-59805">
		<tag k="fixme" v="consider natural=peak for the most distinct mountains in the district" />
		<tag k="name" v="Hessengåsen" />
		<tag k="natural" v="hill" />
		<tag k="place" v="locality" />
		<tag k="ssr:stedsnr" v="382112" />
	</node>
	<node lat="69.69543337769883" lon="29.13400428732631" id="-59811">
		<tag k="fixme" v="consider natural=peak for the most distinct mountains in the district" />
		<tag k="name" v="Muvrabokvárri" />
		<tag k="name:se" v="Muvrabokvárri" />
		<tag k="natural" v="hill" />
		<tag k="old_name:se" v="Muvrabåkvarri;Muvrabohvárri" />
		<tag k="place" v="locality" />
		<tag k="ssr:stedsnr" v="382011" />
	</node>
	<node lat="69.63144449990708" lon="29.49002908334637" id="-59818">
		<tag k="name" v="Korsdalen" />
		<tag k="natural" v="valley" />
		<tag k="place" v="locality" />
		<tag k="ssr:stedsnr" v="383160" />
	</node>
	<node lat="69.8798306063345" lon="29.6658540680263" id="-59823">
		<tag k="name" v="Brastind - Urraláš" />
		<tag k="name:no" v="Brastind" />
		<tag k="name:se" v="Urraláš" />
		<tag k="natural" v="hill" />
		<tag k="old_name:se" v="Urralaš" />
		<tag k="place" v="locality" />
		<tag k="ssr:stedsnr" v="383256" />
	</node>
	<node lat="69.83116394418994" lon="29.758551212997002" id="-59825">
		<tag k="name" v="Áhkobákti" />
		<tag k="name:se" v="Áhkobákti" />
		<tag k="natural" v="hill" />
		<tag k="old_name:se" v="Akkubakti" />
		<tag k="place" v="locality" />
		<tag k="ssr:stedsnr" v="383260" />
	</node>
	<node lat="69.67393340621575" lon="30.25373136412139" id="-59826">
		<tag k="fixme" v="consider natural=peak for the most distinct mountains in the district" />
		<tag k="name" v="Taraldsfjellet - Máttavárri" />
		<tag k="name:no" v="Taraldsfjellet" />
		<tag k="name:se" v="Máttavárri" />
		<tag k="natural" v="hill" />
		<tag k="old_name:se" v="Maddavarri" />
		<tag k="place" v="locality" />
		<tag k="ssr:stedsnr" v="383799" />
	</node>
	<node lat="69.64278620143972" lon="30.867228065308392" id="-59829">
		<tag k="name" v="Huldrehøgda" />
		<tag k="natural" v="hill" />
		<tag k="place" v="locality" />
		<tag k="ssr:stedsnr" v="383915" />
	</node>
	<node lat="69.63036119844867" lon="30.776100359675105" id="-59831">
		<tag k="name" v="Skarvasshøgda - Hálsoaivi" />
		<tag k="name:no" v="Skarvasshøgda" />
		<tag k="name:se" v="Hálsoaivi" />
		<tag k="natural" v="hill" />
		<tag k="old_name:se" v="Halsoaivi" />
		<tag k="place" v="locality" />
		<tag k="ssr:stedsnr" v="383923" />
	</node>
	<node lat="69.56029176150916" lon="30.868580791280813" id="-59832">
		<tag k="alt_name:no" v="Korpfjell" />
		<tag k="fixme" v="consider natural=peak for the most distinct mountains in the district" />
		<tag k="name" v="Korpfjellet - Gáranasnjunni" />
		<tag k="name:no" v="Korpfjellet" />
		<tag k="name:se" v="Gáranasnjunni" />
		<tag k="natural" v="hill" />
		<tag k="old_name:se" v="Garanasnjunni" />
		<tag k="place" v="locality" />
		<tag k="ssr:stedsnr" v="383894" />
	</node>
	<node lat="69.75180840009072" lon="30.194395332718937" id="-59837">
		<tag k="fixme" v="consider natural=peak for the most distinct mountains in the district" />
		<tag k="name" v="Heargelavttvárri" />
		<tag k="name:se" v="Heargelavttvárri" />
		<tag k="natural" v="hill" />
		<tag k="place" v="locality" />
		<tag k="ssr:stedsnr" v="388555" />
	</node>
	<node lat="69.77657230486508" lon="30.68426164453996" id="-59842">
		<tag k="name" v="Fugleberget" />
		<tag k="natural" v="hill" />
		<tag k="place" v="locality" />
		<tag k="ssr:stedsnr" v="389613" />
	</node>
	<node lat="69.57088896006542" lon="29.920528778054205" id="-59853">
		<tag k="fixme" v="consider natural=peak for the most distinct mountains in the district" />
		<tag k="name" v="Djupvasshøgda" />
		<tag k="natural" v="hill" />
		<tag k="place" v="locality" />
		<tag k="ssr:stedsnr" v="410597" />
	</node>
	<node lat="69.85155004237019" lon="29.374390320431093" id="-59855">
		<tag k="name" v="Čohkoaivi" />
		<tag k="name:se" v="Čohkoaivi" />
		<tag k="natural" v="hill" />
		<tag k="place" v="locality" />
		<tag k="ssr:stedsnr" v="411163" />
	</node>
	<node lat="69.64745285637363" lon="30.472583955802264" id="-59861">
		<tag k="name" v="Rabban" />
		<tag k="natural" v="hill" />
		<tag k="place" v="locality" />
		<tag k="ssr:stedsnr" v="411388" />
	</node>
	<node lat="69.58451120987034" lon="30.924064104329865" id="-59867">
		<tag k="fixme" v="consider natural=peak for the most distinct mountains in the district" />
		<tag k="name" v="Langvassfjell" />
		<tag k="natural" v="hill" />
		<tag k="place" v="locality" />
		<tag k="ssr:stedsnr" v="423152" />
	</node>
	<node lat="69.7096806379279" lon="30.72105325750025" id="-59873">
		<tag k="fixme" v="consider natural=peak for the most distinct mountains in the district" />
		<tag k="name" v="Pettersengáisa" />
		<tag k="name:se" v="Pettersengáisa" />
		<tag k="natural" v="hill" />
		<tag k="old_name:se" v="Pettersengaisa" />
		<tag k="place" v="locality" />
		<tag k="ssr:stedsnr" v="443916" />
	</node>
	<node lat="69.80986672104913" lon="29.772087310707498" id="-59880">
		<tag k="fixme" v="consider natural=peak for the most distinct mountains in the district" />
		<tag k="name" v="Straumsnesfjellet - Rivdnjoaivi - Virtatunturi" />
		<tag k="name:fkv" v="Virtatunturi" />
		<tag k="name:no" v="Straumsnesfjellet" />
		<tag k="name:se" v="Rivdnjoaivi" />
		<tag k="natural" v="hill" />
		<tag k="place" v="locality" />
		<tag k="ssr:stedsnr" v="444011" />
	</node>
	<node lat="69.67495006151175" lon="29.98698155755887" id="-59884">
		<tag k="alt_name" v="Hallonenfjellet" />
		<tag k="fixme" v="consider natural=peak for the most distinct mountains in the district" />
		<tag k="name" v="Holterfjellet" />
		<tag k="natural" v="hill" />
		<tag k="place" v="locality" />
		<tag k="ssr:stedsnr" v="444107" />
	</node>
	<node lat="69.69161118201326" lon="30.117812043062912" id="-59890">
		<tag k="name" v="Kongsgamdalen" />
		<tag k="natural" v="valley" />
		<tag k="place" v="locality" />
		<tag k="ssr:stedsnr" v="444804" />
	</node>
	<node lat="69.91784170259626" lon="28.72229621224441" id="-59894">
		<tag k="fixme" v="consider natural=peak for the most distinct mountains in the district" />
		<tag k="name" v="Rivgonieida" />
		<tag k="name:se" v="Rivgonieida" />
		<tag k="natural" v="hill" />
		<tag k="old_name:se" v="Rivgunieida" />
		<tag k="place" v="locality" />
		<tag k="ssr:stedsnr" v="444880" />
	</node>
	<node lat="69.73928062250404" lon="30.161256456245223" id="-59895">
		<tag k="name" v="Nimannshaugen" />
		<tag k="natural" v="hill" />
		<tag k="place" v="locality" />
		<tag k="ssr:stedsnr" v="449587" />
	</node>
	<node lat="69.73412226984566" lon="29.182470945608905" id="-59896">
		<tag k="fixme" v="consider natural=peak for the most distinct mountains in the district" />
		<tag k="name" v="Svanehøgda" />
		<tag k="natural" v="hill" />
		<tag k="place" v="locality" />
		<tag k="ssr:stedsnr" v="451019" />
	</node>
	<node lat="69.96962504437488" lon="29.634340234866112" id="-59898">
		<tag k="name" v="Jonashaugen" />
		<tag k="natural" v="hill" />
		<tag k="place" v="locality" />
		<tag k="ssr:stedsnr" v="458118" />
	</node>
	<node lat="69.63477227657988" lon="29.495734634298323" id="-59902">
		<tag k="fixme" v="consider natural=peak for the most distinct mountains in the district" />
		<tag k="name" v="Margittavaara" />
		<tag k="name:fkv" v="Margittavaara" />
		<tag k="natural" v="hill" />
		<tag k="place" v="locality" />
		<tag k="ssr:stedsnr" v="458559" />
	</node>
	<node lat="69.73815006084604" lon="29.69632064852019" id="-59909">
		<tag k="name" v="Buholmhammeren" />
		<tag k="natural" v="hill" />
		<tag k="place" v="locality" />
		<tag k="ssr:stedsnr" v="471110" />
	</node>
	<node lat="69.42357506755346" lon="29.708773308322524" id="-59917">
		<tag k="fixme" v="consider natural=peak for the most distinct mountains in the district" />
		<tag k="name" v="Piera Jouninmaa" />
		<tag k="name:fkv" v="Piera Jouninmaa" />
		<tag k="natural" v="hill" />
		<tag k="place" v="locality" />
		<tag k="ssr:stedsnr" v="472703" />
	</node>
	<node lat="69.58680283219053" lon="29.232595858028287" id="-59924">
		<tag k="name" v="Grensemoen - Rádjeguolbba" />
		<tag k="name:no" v="Grensemoen" />
		<tag k="name:se" v="Rádjeguolbba" />
		<tag k="old_name:se" v="Raddjeguolba" />
		<tag k="place" v="locality" />
		<tag k="ssr:stedsnr" v="503023" />
	</node>
	<node lat="69.19810838922713" lon="28.959476429945767" id="-59925">
		<tag k="alt_name" v="Urdåsen" />
		<tag k="fixme" v="consider natural=peak for the most distinct mountains in the district" />
		<tag k="name" v="Uråsen" />
		<tag k="natural" v="hill" />
		<tag k="place" v="locality" />
		<tag k="ssr:stedsnr" v="503768" />
	</node>
	<node lat="69.60255005155047" lon="29.22804308822711" id="-59928">
		<tag k="name" v="Čáhppesroggi" />
		<tag k="name:se" v="Čáhppesroggi" />
		<tag k="natural" v="gorge" />
		<tag k="old_name:se" v="Čappesråggi" />
		<tag k="ssr:stedsnr" v="504019" />
	</node>
	<node lat="69.4833556275806" lon="30.0752119621276" id="-59935">
		<tag k="name" v="Bjørnsundhøgda" />
		<tag k="natural" v="hill" />
		<tag k="place" v="locality" />
		<tag k="ssr:stedsnr" v="503968" />
	</node>
	<node lat="69.73570838135446" lon="29.18070426087537" id="-59944">
		<tag k="fixme" v="consider natural=peak for the most distinct mountains in the district" />
		<tag k="name" v="Notsynene" />
		<tag k="natural" v="hill" />
		<tag k="place" v="locality" />
		<tag k="ssr:stedsnr" v="504469" />
	</node>
	<node lat="69.91266392410158" lon="28.794779510332535" id="-59948">
		<tag k="fixme" v="consider natural=peak for the most distinct mountains in the district" />
		<tag k="name" v="Skarvfjell - Skárfoaivi" />
		<tag k="name:no" v="Skarvfjell" />
		<tag k="name:se" v="Skárfoaivi" />
		<tag k="natural" v="hill" />
		<tag k="old_name:se" v="Skarfoaivi" />
		<tag k="place" v="locality" />
		<tag k="ssr:stedsnr" v="504876" />
	</node>
	<node lat="69.69065006636845" lon="29.92414270909482" id="-59952">
		<tag k="name" v="Vardhaugen - Urračohkka" />
		<tag k="name:no" v="Vardhaugen" />
		<tag k="name:se" v="Urračohkka" />
		<tag k="natural" v="hill" />
		<tag k="old_name:se" v="Urračåkka" />
		<tag k="place" v="locality" />
		<tag k="ssr:stedsnr" v="505103" />
	</node>
	<node lat="69.5441250680481" lon="29.848039927928948" id="-59955">
		<tag k="fixme" v="consider natural=peak for the most distinct mountains in the district" />
		<tag k="name" v="Sagvatnfjellet - Surotvárri" />
		<tag k="name:no" v="Sagvatnfjellet" />
		<tag k="name:se" v="Surotvárri" />
		<tag k="natural" v="hill" />
		<tag k="old_name:se" v="Surutvarri" />
		<tag k="place" v="locality" />
		<tag k="ssr:stedsnr" v="505215" />
	</node>
	<node lat="69.72256673736854" lon="30.127142596641505" id="-59956">
		<tag k="name" v="Reinberget" />
		<tag k="natural" v="hill" />
		<tag k="place" v="locality" />
		<tag k="ssr:stedsnr" v="509561" />
	</node>
	<node lat="69.7153195164093" lon="30.161014790443367" id="-59957">
		<tag k="name" v="Vikingdalen" />
		<tag k="natural" v="valley" />
		<tag k="place" v="locality" />
		<tag k="ssr:stedsnr" v="509564" />
	</node>
	<node lat="69.7325195058376" lon="29.82856224751854" id="-59958">
		<tag k="name" v="Tusenvikskaret" />
		<tag k="natural" v="valley" />
		<tag k="place" v="locality" />
		<tag k="ssr:stedsnr" v="510560" />
	</node>
	<node lat="69.68539598028607" lon="30.395500771479487" id="-59960">
		<tag k="loc_name:se" v="Sáidebávte" />
		<tag k="name" v="Seiberget" />
		<tag k="name:no" v="Seiberget" />
		<tag k="natural" v="hill" />
		<tag k="place" v="locality" />
		<tag k="ssr:stedsnr" v="514268" />
	</node>
	<node lat="69.97217504665475" lon="29.6463624489376" id="-59964">
		<tag k="name" v="Bryggberget" />
		<tag k="natural" v="hill" />
		<tag k="place" v="locality" />
		<tag k="ssr:stedsnr" v="519120" />
	</node>
	<node lat="69.713133393767" lon="30.04290654096283" id="-59965">
		<tag k="name" v="Skytterlia" />
		<tag k="natural" v="slope" />
		<tag k="place" v="locality" />
		<tag k="ssr:stedsnr" v="519375" />
	</node>
	<node lat="69.65928618162111" lon="29.984534323824793" id="-59967">
		<tag k="name" v="Kristensedalen" />
		<tag k="natural" v="valley" />
		<tag k="place" v="locality" />
		<tag k="ssr:stedsnr" v="519810" />
	</node>
	<node lat="69.09018617513706" lon="29.066531895467833" id="-59968">
		<tag k="fixme" v="consider natural=peak for the most distinct mountains in the district" />
		<tag k="name" v="Revsaksfjellet - Ruovddášvárri - Rautakuruvaara" />
		<tag k="name:fkv" v="Rautakuruvaara" />
		<tag k="name:no" v="Revsaksfjellet" />
		<tag k="name:se" v="Ruovddášvárri" />
		<tag k="natural" v="hill" />
		<tag k="old_name:fkv" v="Ravdagorovara" />
		<tag k="place" v="locality" />
		<tag k="ssr:stedsnr" v="685002" />
	</node>
	<node lat="69.75473339375235" lon="29.992026035408806" id="-59971">
		<tag k="fixme" v="consider natural=peak for the most distinct mountains in the district" />
		<tag k="name" v="Geresgopgáisá" />
		<tag k="name:se" v="Geresgopgáisá" />
		<tag k="natural" v="hill" />
		<tag k="old_name:se" v="Geresgåpgaisa" />
		<tag k="place" v="locality" />
		<tag k="ssr:stedsnr" v="686055" />
	</node>
	<node lat="69.69604453382546" lon="30.80104484636738" id="-59977">
		<tag k="fixme" v="consider natural=peak for the most distinct mountains in the district" />
		<tag k="name" v="Fosstjørnhøgda - Guoikaluoppalskáidi" />
		<tag k="name:no" v="Fosstjørnhøgda" />
		<tag k="name:se" v="Guoikaluoppalskáidi" />
		<tag k="natural" v="hill" />
		<tag k="old_name:se" v="Guoikaluobbalskaidi" />
		<tag k="place" v="locality" />
		<tag k="ssr:stedsnr" v="685924" />
	</node>
	<node lat="69.14825005862147" lon="28.964601433110055" id="-59982">
		<tag k="name" v="Speldraget" />
		<tag k="natural" v="ridge" />
		<tag k="place" v="locality" />
		<tag k="ssr:stedsnr" v="686036" />
	</node>
	<node lat="69.78162504543351" lon="29.35064863295708" id="-59993">
		<tag k="fixme" v="consider natural=peak for the most distinct mountains in the district" />
		<tag k="name" v="Sáhkkarasnjunni" />
		<tag k="name:se" v="Sáhkkarasnjunni" />
		<tag k="natural" v="hill" />
		<tag k="old_name:se" v="Sakkarasnjunni" />
		<tag k="place" v="locality" />
		<tag k="ssr:stedsnr" v="686127" />
	</node>
	<node lat="69.8710639380658" lon="29.713376248604362" id="-59998">
		<tag k="fixme" v="consider natural=peak for the most distinct mountains in the district" />
		<tag k="name" v="Dulkkaláš" />
		<tag k="name:se" v="Dulkkaláš" />
		<tag k="natural" v="hill" />
		<tag k="old_name:se" v="Dulkalaš" />
		<tag k="place" v="locality" />
		<tag k="ssr:stedsnr" v="686221" />
	</node>
	<node lat="69.74289729145646" lon="30.285223059965876" id="-60001">
		<tag k="name" v="Reingjerddalen" />
		<tag k="natural" v="valley" />
		<tag k="place" v="locality" />
		<tag k="ssr:stedsnr" v="686228" />
	</node>
	<node lat="69.7143139659961" lon="30.39119796672801" id="-60002">
		<tag k="name" v="Grunnbergan" />
		<tag k="natural" v="hill" />
		<tag k="place" v="locality" />
		<tag k="ssr:stedsnr" v="686233" />
	</node>
	<node lat="69.76297229881646" lon="30.439997941085288" id="-60013">
		<tag k="name" v="Kvitberget" />
		<tag k="natural" v="hill" />
		<tag k="place" v="locality" />
		<tag k="ssr:stedsnr" v="686385" />
	</node>
	<node lat="69.75338897006611" lon="30.797405989316953" id="-60014">
		<tag k="alt_name" v="Vardhompen" />
		<tag k="fixme" v="multiple name tags, choose one and add the other to alt_name" />
		<tag k="name" v="Vardberget;Vardhumpen" />
		<tag k="natural" v="hill" />
		<tag k="place" v="locality" />
		<tag k="ssr:stedsnr" v="686422" />
	</node>
	<node lat="69.57766397635127" lon="30.492281135417013" id="-60022">
		<tag k="name" v="Abbortjørnhøgda" />
		<tag k="natural" v="hill" />
		<tag k="place" v="locality" />
		<tag k="ssr:stedsnr" v="686812" />
	</node>
	<node lat="69.58663340010123" lon="30.032928706708198" id="-60024">
		<tag k="fixme" v="consider natural=peak for the most distinct mountains in the district" />
		<tag k="name" v="Kjellmannsåsen" />
		<tag k="natural" v="hill" />
		<tag k="place" v="locality" />
		<tag k="ssr:stedsnr" v="686830" />
	</node>
	<node lat="69.61985285843623" lon="30.350759052411153" id="-60028">
		<tag k="fixme" v="consider natural=peak for the most distinct mountains in the district" />
		<tag k="name" v="Klovsteinfjell" />
		<tag k="natural" v="hill" />
		<tag k="place" v="locality" />
		<tag k="ssr:stedsnr" v="686853" />
	</node>
	<node lat="69.39737784010612" lon="29.578484487923095" id="-60029">
		<tag k="name" v="Malbekkhøgda" />
		<tag k="natural" v="hill" />
		<tag k="place" v="locality" />
		<tag k="ssr:stedsnr" v="686865" />
	</node>
	<node lat="69.38201117033512" lon="29.46534566080035" id="-60030">
		<tag k="name" v="Triangelen" />
		<tag k="place" v="locality" />
		<tag k="ssr:stedsnr" v="686873" />
	</node>
	<node lat="69.79801116391656" lon="29.776326196069625" id="-60042">
		<tag k="fixme" v="consider natural=peak for the most distinct mountains in the district" />
		<tag k="name" v="Gárppoaivi - Kärpäntunturi" />
		<tag k="name:fkv" v="Kärpäntunturi" />
		<tag k="name:se" v="Gárppoaivi" />
		<tag k="natural" v="hill" />
		<tag k="old_name:se" v="Garpoaivi;Gárpoaivi" />
		<tag k="place" v="locality" />
		<tag k="ssr:stedsnr" v="687020" />
	</node>
	<node lat="69.97521671594957" lon="29.63781801284668" id="-60051">
		<tag k="name" v="Sankarihaugen" />
		<tag k="natural" v="hill" />
		<tag k="place" v="locality" />
		<tag k="ssr:stedsnr" v="687154" />
	</node>
	<node lat="69.94384449468288" lon="29.60176246652007" id="-60053">
		<tag k="name" v="Bukkskinn" />
		<tag k="natural" v="slope" />
		<tag k="place" v="locality" />
		<tag k="ssr:stedsnr" v="687167" />
	</node>
	<node lat="69.66520840497392" lon="30.254498029765973" id="-60060">
		<tag k="name" v="Ulveskaret" />
		<tag k="natural" v="valley" />
		<tag k="place" v="locality" />
		<tag k="ssr:stedsnr" v="687771" />
	</node>
	<node lat="69.67359174815466" lon="30.538375610076088" id="-60062">
		<tag k="fixme" v="consider natural=peak for the most distinct mountains in the district" />
		<tag k="name" v="Albmágáisa" />
		<tag k="name:se" v="Albmágáisa" />
		<tag k="natural" v="hill" />
		<tag k="old_name:se" v="Albmagaisa" />
		<tag k="place" v="locality" />
		<tag k="ssr:stedsnr" v="687781" />
	</node>
	<node lat="69.8922833732629" lon="29.153382108355704" id="-60065">
		<tag k="name" v="Áitegurra" />
		<tag k="name:se" v="Áitegurra" />
		<tag k="natural" v="valley" />
		<tag k="old_name:se" v="Aitegurra" />
		<tag k="place" v="locality" />
		<tag k="ssr:stedsnr" v="687832" />
	</node>
	<node lat="69.8000552605026" lon="28.515265499917042" id="-60066">
		<tag k="fixme" v="consider natural=peak for the most distinct mountains in the district" />
		<tag k="name" v="Storbergnasen - Stuorrageađgenjunis" />
		<tag k="name:no" v="Storbergnasen" />
		<tag k="name:se" v="Stuorrageađgenjunis" />
		<tag k="natural" v="hill" />
		<tag k="old_name:se" v="Stuorragæđgenjunis;Stuorrageađggenjunis" />
		<tag k="place" v="locality" />
		<tag k="ssr:stedsnr" v="687866" />
	</node>
	<node lat="69.74586119125871" lon="30.556375618188408" id="-60067">
		<tag k="fixme" v="consider natural=peak for the most distinct mountains in the district" />
		<tag k="name" v="Kosinfjellet - Kosenvárri" />
		<tag k="name:no" v="Kosinfjellet" />
		<tag k="name:se" v="Kosenvárri" />
		<tag k="natural" v="hill" />
		<tag k="old_name:se" v="Kåsenvarri" />
		<tag k="place" v="locality" />
		<tag k="ssr:stedsnr" v="691248" />
	</node>
	<node lat="69.72019452674449" lon="30.63406444834303" id="-60071">
		<tag k="alt_name" v="Snaufjellet, yt" />
		<tag k="fixme" v="consider natural=peak for the most distinct mountains in the district" />
		<tag k="name" v="Ytre Snaufjellet" />
		<tag k="natural" v="hill" />
		<tag k="place" v="locality" />
		<tag k="ssr:stedsnr" v="564922" />
	</node>
	<node lat="69.95878893566551" lon="29.47568196848878" id="-60080">
		<tag k="fixme" v="consider natural=peak for the most distinct mountains in the district" />
		<tag k="name" v="Bugøynesfjell - Báhttervárri" />
		<tag k="name:no" v="Bugøynesfjell" />
		<tag k="name:se" v="Báhttervárri" />
		<tag k="natural" v="hill" />
		<tag k="old_name:se" v="Battevarri" />
		<tag k="place" v="locality" />
		<tag k="ssr:stedsnr" v="565164" />
	</node>
	<node lat="69.9024083844354" lon="29.461220847989072" id="-60084">
		<tag k="name" v="Gihccebákti" />
		<tag k="name:se" v="Gihccebákti" />
		<tag k="natural" v="hill" />
		<tag k="old_name:se" v="Giccebakti" />
		<tag k="place" v="locality" />
		<tag k="ssr:stedsnr" v="565175" />
	</node>
	<node lat="69.76693064105645" lon="30.736050497872988" id="-60088">
		<tag k="alt_name:no" v="Nordstjerna" />
		<tag k="fixme" v="consider natural=peak for the most distinct mountains in the district" />
		<tag k="loc_name:se" v="Deavuknjáreláš" />
		<tag k="name" v="Kobbtinden - Deavutnjáraláš" />
		<tag k="name:no" v="Kobbtinden" />
		<tag k="name:se" v="Deavutnjáraláš" />
		<tag k="natural" v="hill" />
		<tag k="old_name:se" v="Dævotnjaralaš" />
		<tag k="place" v="locality" />
		<tag k="ssr:stedsnr" v="565405" />
	</node>
	<node lat="69.6888361818262" lon="30.14066478974069" id="-60094">
		<tag k="name" v="Rypdalen" />
		<tag k="natural" v="valley" />
		<tag k="place" v="locality" />
		<tag k="ssr:stedsnr" v="570570" />
	</node>
	<node lat="69.68561395864275" lon="30.011720432239976" id="-60102">
		<tag k="name" v="Ekhaugen" />
		<tag k="natural" v="hill" />
		<tag k="place" v="locality" />
		<tag k="ssr:stedsnr" v="579599" />
	</node>
	<node lat="69.63135285213936" lon="30.09278146191911" id="-60113">
		<tag k="name" v="Boddidalen" />
		<tag k="natural" v="valley" />
		<tag k="place" v="locality" />
		<tag k="ssr:stedsnr" v="591262" />
	</node>
	<node lat="69.55149730006688" lon="30.17146747604758" id="-60114">
		<tag k="name" v="Kvalhaugen" />
		<tag k="natural" v="hill" />
		<tag k="place" v="locality" />
		<tag k="ssr:stedsnr" v="591272" />
	</node>
	<node lat="69.72855837935174" lon="29.23917090081919" id="-60123">
		<tag k="name" v="Klokkerelvkroken - Lukkarijokimuotka" />
		<tag k="name:fkv" v="Lukkarijokimuotka" />
		<tag k="name:no" v="Klokkerelvkroken" />
		<tag k="place" v="locality" />
		<tag k="ssr:stedsnr" v="593308" />
	</node>
	<node lat="69.36007505773875" lon="29.38012347173254" id="-60125">
		<tag k="fixme" v="consider natural=peak for the most distinct mountains in the district" />
		<tag k="name" v="Stenbakkåsen" />
		<tag k="natural" v="hill" />
		<tag k="place" v="locality" />
		<tag k="ssr:stedsnr" v="593362" />
	</node>
	<node lat="69.61537228786985" lon="29.978362097572298" id="-60126">
		<tag k="fixme" v="consider natural=peak for the most distinct mountains in the district" />
		<tag k="name" v="Varden" />
		<tag k="natural" v="hill" />
		<tag k="place" v="locality" />
		<tag k="ssr:stedsnr" v="593518" />
	</node>
	<node lat="69.40921395615845" lon="29.659387224112468" id="-60127">
		<tag k="fixme" v="consider natural=peak for the most distinct mountains in the district" />
		<tag k="name" v="Moskvaåsen" />
		<tag k="natural" v="hill" />
		<tag k="place" v="locality" />
		<tag k="ssr:stedsnr" v="599356" />
	</node>
	<node lat="69.09762228787442" lon="29.1757762975224" id="-60133">
		<tag k="fixme" v="consider natural=peak for the most distinct mountains in the district" />
		<tag k="name" v="Toppåsen - Pirivaara" />
		<tag k="name:fkv" v="Pirivaara" />
		<tag k="name:no" v="Toppåsen" />
		<tag k="natural" v="hill" />
		<tag k="place" v="locality" />
		<tag k="ssr:stedsnr" v="624007" />
	</node>
	<node lat="69.02671950989769" lon="29.018776350903483" id="-60136">
		<tag k="alt_name:se" v="Rájjáváráš" />
		<tag k="name" v="Grenseberget - Rádjaváráš" />
		<tag k="name:no" v="Grenseberget" />
		<tag k="name:se" v="Rádjaváráš" />
		<tag k="natural" v="hill" />
		<tag k="place" v="locality" />
		<tag k="ssr:stedsnr" v="625108" />
	</node>
	<node lat="69.70051115838716" lon="29.1203570661803" id="-60138">
		<tag k="name" v="Muvrabohki" />
		<tag k="name:se" v="Muvrabohki" />
		<tag k="natural" v="valley" />
		<tag k="old_name:se" v="Muvrabåkki" />
		<tag k="place" v="locality" />
		<tag k="ssr:stedsnr" v="625009" />
	</node>
	<node lat="69.65917505073814" lon="29.281056984096494" id="-60140">
		<tag k="fixme" v="consider natural=peak for the most distinct mountains in the district" />
		<tag k="name" v="Oaivvát" />
		<tag k="name:se" v="Oaivvát" />
		<tag k="natural" v="hill" />
		<tag k="old_name:se" v="Oaivat" />
		<tag k="place" v="locality" />
		<tag k="ssr:stedsnr" v="625014" />
	</node>
	<node lat="69.7067056292688" lon="30.387261833056826" id="-60144">
		<tag k="name" v="Sponbuktdalen" />
		<tag k="natural" v="valley" />
		<tag k="place" v="locality" />
		<tag k="ssr:stedsnr" v="625811" />
	</node>
	<node lat="69.20908339695171" lon="29.183367991420848" id="-60146">
		<tag k="fixme" v="consider natural=peak for the most distinct mountains in the district" />
		<tag k="name" v="Rutsivaara" />
		<tag k="name:fkv" v="Rutsivaara" />
		<tag k="natural" v="hill" />
		<tag k="old_name:fkv" v="Rotsivara" />
		<tag k="place" v="locality" />
		<tag k="ssr:stedsnr" v="625817" />
	</node>
	<node lat="69.95293892580395" lon="29.050698841036276" id="-60154">
		<tag k="fixme" v="consider natural=peak for the most distinct mountains in the district" />
		<tag k="name" v="Fugletinden" />
		<tag k="name:no" v="Fugletinden" />
		<tag k="natural" v="hill" />
		<tag k="place" v="locality" />
		<tag k="ssr:stedsnr" v="626857" />
	</node>
	<node lat="69.73770839730902" lon="30.18292868330964" id="-60159">
		<tag k="fixme" v="consider natural=peak for the most distinct mountains in the district" />
		<tag k="name" v="Jakobsdalsfjellet" />
		<tag k="natural" v="hill" />
		<tag k="place" v="locality" />
		<tag k="ssr:stedsnr" v="630547" />
	</node>
	<node lat="69.70998895183911" lon="29.97863992302483" id="-60165">
		<tag k="name" v="Slettberget" />
		<tag k="natural" v="hill" />
		<tag k="place" v="locality" />
		<tag k="ssr:stedsnr" v="635709" />
	</node>
	<node lat="69.71145838047032" lon="29.436029133888063" id="-60171">
		<tag k="fixme" v="consider natural=peak for the most distinct mountains in the district" />
		<tag k="name" v="Riestofjellet - Riestontunturi" />
		<tag k="name:fkv" v="Riestontunturi" />
		<tag k="name:no" v="Riestofjellet" />
		<tag k="natural" v="hill" />
		<tag k="place" v="locality" />
		<tag k="ssr:stedsnr" v="640474" />
	</node>
	<node lat="69.54842786593758" lon="30.51445889290727" id="-60172">
		<tag k="name" v="Hundvasshaugan" />
		<tag k="natural" v="hill" />
		<tag k="place" v="locality" />
		<tag k="ssr:stedsnr" v="647185" />
	</node>
	<node lat="69.89261115590782" lon="29.393668112407116" id="-60178">
		<tag k="fixme" v="consider natural=peak for the most distinct mountains in the district" />
		<tag k="name" v="Guoccoaivi" />
		<tag k="name:se" v="Guoccoaivi" />
		<tag k="natural" v="hill" />
		<tag k="place" v="locality" />
		<tag k="ssr:stedsnr" v="653007" />
	</node>
	<node lat="69.79455561409712" lon="29.810976160675562" id="-60187">
		<tag k="name" v="Čuoikadievvá" />
		<tag k="name:se" v="Čuoikadievvá" />
		<tag k="natural" v="hill" />
		<tag k="place" v="locality" />
		<tag k="ssr:stedsnr" v="653709" />
	</node>
	<node lat="69.53731398155345" lon="30.76393365144809" id="-60192">
		<tag k="fixme" v="consider natural=peak for the most distinct mountains in the district" />
		<tag k="name" v="Saukonselka" />
		<tag k="name:fkv" v="Saukonselka" />
		<tag k="natural" v="hill" />
		<tag k="place" v="locality" />
		<tag k="ssr:stedsnr" v="709165" />
	</node>
	<node lat="69.08756672669165" lon="29.01254305049957" id="-60193">
		<tag k="fixme" v="consider natural=peak for the most distinct mountains in the district" />
		<tag k="name" v="Småfuruåsen - Karhakkama" />
		<tag k="name:fkv" v="Karhakkama" />
		<tag k="name:no" v="Småfuruåsen" />
		<tag k="natural" v="hill" />
		<tag k="place" v="locality" />
		<tag k="ssr:stedsnr" v="685015" />
	</node>
	<node lat="69.48393061635308" lon="29.700723330040493" id="-60202">
		<tag k="fixme" v="consider natural=peak for the most distinct mountains in the district" />
		<tag k="name" v="Sametifjellet" />
		<tag k="natural" v="hill" />
		<tag k="place" v="locality" />
		<tag k="ssr:stedsnr" v="686091" />
	</node>
	<node lat="69.71412506941238" lon="30.118423150750044" id="-60205">
		<tag k="alt_name" v="Prekestolen" />
		<tag k="name" v="Preikestolen" />
		<tag k="natural" v="hill" />
		<tag k="place" v="locality" />
		<tag k="ssr:stedsnr" v="686238" />
	</node>
	<node lat="69.75887782564743" lon="29.333084766833963" id="-60207">
		<tag k="fixme" v="consider natural=peak for the most distinct mountains in the district" />
		<tag k="name" v="Bohkkoaivi" />
		<tag k="name:se" v="Bohkkoaivi" />
		<tag k="natural" v="hill" />
		<tag k="old_name:se" v="Båkkoaivi" />
		<tag k="place" v="locality" />
		<tag k="ssr:stedsnr" v="686146" />
	</node>
	<node lat="69.88199449633161" lon="29.73250124266082" id="-60208">
		<tag k="name" v="Suohpanbákti" />
		<tag k="name:se" v="Suohpanbákti" />
		<tag k="natural" v="hill" />
		<tag k="old_name:se" v="Suoppanbakti" />
		<tag k="place" v="locality" />
		<tag k="ssr:stedsnr" v="686199" />
	</node>
	<node lat="69.63328618218182" lon="30.295322980883196" id="-60212">
		<tag k="fixme" v="consider natural=peak for the most distinct mountains in the district" />
		<tag k="name" v="Vardefjell" />
		<tag k="natural" v="hill" />
		<tag k="place" v="locality" />
		<tag k="ssr:stedsnr" v="686844" />
	</node>
	<node lat="69.62643064845723" lon="30.909597460511275" id="-60214">
		<tag k="name" v="Nordre Sandvasshøgda - Stuorát Sáttojároaivi" />
		<tag k="name:no" v="Nordre Sandvasshøgda" />
		<tag k="name:se" v="Stuorát Sáttojároaivi" />
		<tag k="natural" v="hill" />
		<tag k="old_name:no" v="Sandvasshøgda, nordre" />
		<tag k="old_name:se" v="Saddujaroaivi stuorat" />
		<tag k="place" v="locality" />
		<tag k="ssr:stedsnr" v="686890" />
	</node>
	<node lat="69.49335285071291" lon="30.031664772325573" id="-60216">
		<tag k="name" v="Kampen" />
		<tag k="natural" v="hill" />
		<tag k="place" v="locality" />
		<tag k="ssr:stedsnr" v="686893" />
	</node>
	<node lat="69.82091394054137" lon="29.56546519889778" id="-60218">
		<tag k="fixme" v="consider natural=peak for the most distinct mountains in the district" />
		<tag k="name" v="Beatnatluobbaloaivi" />
		<tag k="name:se" v="Beatnatluobbaloaivi" />
		<tag k="natural" v="hill" />
		<tag k="old_name:se" v="Bædnatluobbaloaivi" />
		<tag k="place" v="locality" />
		<tag k="ssr:stedsnr" v="687005" />
	</node>
	<node lat="69.69846396725134" lon="30.529708946385163" id="-60220">
		<tag k="fixme" v="consider natural=peak for the most distinct mountains in the district" />
		<tag k="name" v="Vardfjellet" />
		<tag k="natural" v="hill" />
		<tag k="place" v="locality" />
		<tag k="ssr:stedsnr" v="686796" />
	</node>
	<node lat="69.69629450194962" lon="29.695709527023105" id="-60224">
		<tag k="fixme" v="consider natural=peak for the most distinct mountains in the district" />
		<tag k="name" v="Sukkertoppfjell" />
		<tag k="natural" v="hill" />
		<tag k="place" v="locality" />
		<tag k="ssr:stedsnr" v="687092" />
	</node>
	<node lat="69.84083340174314" lon="30.370798036703263" id="-60226">
		<tag k="name" v="Skarvskiten" />
		<tag k="natural" v="cliff" />
		<tag k="ssr:stedsnr" v="687096" />
	</node>
	<node lat="69.68512505293279" lon="29.593312356706964" id="-60227">
		<tag k="name" v="Boiggáleahki" />
		<tag k="name:se" v="Boiggáleahki" />
		<tag k="natural" v="valley" />
		<tag k="old_name:se" v="Båigalækki" />
		<tag k="place" v="locality" />
		<tag k="ssr:stedsnr" v="687097" />
	</node>
	<node lat="69.8382333904731" lon="29.936951118952567" id="-60228">
		<tag k="fixme" v="consider natural=peak for the most distinct mountains in the district" />
		<tag k="name" v="Mádjelgáisá" />
		<tag k="name:se" v="Mádjelgáisá" />
		<tag k="natural" v="hill" />
		<tag k="old_name:se" v="Maddjelgaisa" />
		<tag k="place" v="locality" />
		<tag k="ssr:stedsnr" v="687238" />
	</node>
	<node lat="69.53966673270244" lon="29.97810094733029" id="-60232">
		<tag k="alt_name" v="Ramperberget" />
		<tag k="name" v="Rampeberget" />
		<tag k="natural" v="hill" />
		<tag k="place" v="locality" />
		<tag k="ssr:stedsnr" v="687199" />
	</node>
	<node lat="69.7942222998061" lon="30.546225676022335" id="-60234">
		<tag k="fixme" v="consider natural=peak for the most distinct mountains in the district" />
		<tag k="name" v="Áldoaivvit" />
		<tag k="name:se" v="Áldoaivvit" />
		<tag k="natural" v="hill" />
		<tag k="old_name:se" v="Aldoaivit;Áidoaivvit" />
		<tag k="place" v="locality" />
		<tag k="ssr:stedsnr" v="687400" />
	</node>
	<node lat="69.56098342544335" lon="30.79952808291614" id="-60240">
		<tag k="name" v="Čeavrresmuorat" />
		<tag k="name:se" v="Čeavrresmuorat" />
		<tag k="natural" v="valley" />
		<tag k="old_name:se" v="Čævresmuorat" />
		<tag k="place" v="locality" />
		<tag k="ssr:stedsnr" v="687891" />
	</node>
	<node lat="69.32526672324383" lon="29.057987529877487" id="-60241">
		<tag k="alt_name:no" v="Haggelklumpen" />
		<tag k="fixme" v="consider natural=peak for the most distinct mountains in the district" />
		<tag k="name" v="Haglklumpen - Čordnoaivi" />
		<tag k="name:no" v="Haglklumpen" />
		<tag k="name:se" v="Čordnoaivi" />
		<tag k="natural" v="hill" />
		<tag k="old_name:se" v="Čårdnoaivi" />
		<tag k="place" v="locality" />
		<tag k="ssr:stedsnr" v="691151" />
	</node>
	<node lat="69.63693896229583" lon="30.099314789544287" id="-60242">
		<tag k="name" v="Brandstoppen" />
		<tag k="natural" v="hill" />
		<tag k="place" v="locality" />
		<tag k="ssr:stedsnr" v="894335" />
	</node>
	<node lat="69.56123896073969" lon="30.075403679804456" id="-60250">
		<tag k="name" v="Lilleberget" />
		<tag k="natural" v="hill" />
		<tag k="place" v="locality" />
		<tag k="ssr:stedsnr" v="895234" />
	</node>
	<node lat="69.58279173453762" lon="30.09090367369608" id="-60254">
		<tag k="name" v="Roavvi" />
		<tag k="name:se" v="Roavvi" />
		<tag k="natural" v="valley" />
		<tag k="place" v="locality" />
		<tag k="ssr:stedsnr" v="895275" />
	</node>
	<node lat="69.5430167378638" lon="30.14248694522868" id="-60256">
		<tag k="name" v="Lauvstakkhaugen" />
		<tag k="natural" v="hill" />
		<tag k="place" v="locality" />
		<tag k="ssr:stedsnr" v="895290" />
	</node>
	<node lat="69.71208338438936" lon="29.38827638711269" id="-60260">
		<tag k="fixme" v="consider natural=peak for the most distinct mountains in the district" />
		<tag k="name" v="Kirkefjellet" />
		<tag k="natural" v="hill" />
		<tag k="place" v="locality" />
		<tag k="ssr:stedsnr" v="701511" />
	</node>
	<node lat="69.72380006748241" lon="30.022464880919657" id="-60265">
		<tag k="name" v="Småflogan" />
		<tag k="natural" v="cliff" />
		<tag k="ssr:stedsnr" v="701563" />
	</node>
	<node lat="69.68526673387663" lon="30.022412086683982" id="-60266">
		<tag k="fixme" v="consider natural=peak for the most distinct mountains in the district" />
		<tag k="name" v="Hessengfjellet" />
		<tag k="natural" v="hill" />
		<tag k="place" v="locality" />
		<tag k="ssr:stedsnr" v="701566" />
	</node>
	<node lat="69.72784451657282" lon="30.43672847357084" id="-60268">
		<tag k="name" v="Rødberget" />
		<tag k="natural" v="hill" />
		<tag k="place" v="locality" />
		<tag k="ssr:stedsnr" v="897229" />
	</node>
	<node lat="69.74223894120297" lon="29.313665309973782" id="-60271">
		<tag k="fixme" v="consider natural=peak for the most distinct mountains in the district" />
		<tag k="name" v="Bohkkoaivi" />
		<tag k="name:se" v="Bohkkoaivi" />
		<tag k="natural" v="hill" />
		<tag k="place" v="locality" />
		<tag k="ssr:stedsnr" v="897329" />
	</node>
</osm>
