<?xml version="1.0" encoding="UTF-8"?>
<<<<<<< HEAD
<osm version="0.6" generator="osmapis">
	<node lat="69.08362505785232" lon="29.111756874145918" id="-39445">
		<tag k="name" v="Tommamyra" />
=======
<osm generator="osmapis" version="0.6">
	<node id="-921600" lat="69.5447084042" lon="30.0241536835">
		<tag k="alt_name:no" v="Pinemyran" />
		<tag k="name" v="Pinemyra - Piinajänkä" />
		<tag k="name:fkv" v="Piinajänkä" />
		<tag k="name:no" v="Pinemyra" />
		<tag k="natural" v="wetland" />
		<tag k="ssr:stedsnr" v="747194" />
	</node>
	<node id="-921088" lat="69.6888639383" lon="29.3708569462">
		<tag k="name" v="Badstumelen - Saunamella" />
		<tag k="name:fkv" v="Saunamella" />
		<tag k="name:no" v="Badstumelen" />
		<tag k="place" v="locality" />
		<tag k="ssr:stedsnr" v="398372" />
	</node>
	<node id="-919038" lat="69.8188361702" lon="29.8210289615">
		<tag k="name" v="Stormyra - Stuorrajeaggi" />
		<tag k="name:no" v="Stormyra" />
		<tag k="name:se" v="Stuorrajeaggi" />
		<tag k="natural" v="wetland" />
		<tag k="old_name:se" v="Stuorrajæggi" />
		<tag k="ssr:stedsnr" v="201009" />
	</node>
	<node id="-920573" lat="69.8875805921" lon="28.8359850437">
		<tag k="name" v="Skárffarohtu" />
		<tag k="name:se" v="Skárffarohtu" />
		<tag k="old_name:se" v="Skarfaråtto" />
		<tag k="place" v="locality" />
		<tag k="ssr:stedsnr" v="140821" />
	</node>
	<node id="-919295" lat="69.6802028754" lon="30.9366474813">
		<tag k="alt_name" v="Djupholneset" />
		<tag k="name" v="Djupholmyran" />
		<tag k="natural" v="wetland" />
		<tag k="ssr:stedsnr" v="503883" />
	</node>
	<node id="-919539" lat="69.2010306213" lon="29.2281207253">
		<tag k="name" v="Knivsteinen" />
		<tag k="natural" v="stone" />
		<tag k="ssr:stedsnr" v="686774" />
	</node>
	<node id="-919538" lat="69.1907500602" lon="29.1035402454">
		<tag k="name" v="Langmyra - Pitkäjänkä" />
		<tag k="name:fkv" v="Pitkäjänkä" />
		<tag k="name:no" v="Langmyra" />
		<tag k="natural" v="wetland" />
		<tag k="old_name:fkv" v="Bitkæjænge" />
		<tag k="ssr:stedsnr" v="686772" />
	</node>
	<node id="-919025" lat="69.1582139524" lon="29.1679568594">
		<tag k="name" v="Gjøkmyra" />
		<tag k="natural" v="wetland" />
		<tag k="ssr:stedsnr" v="290294" />
	</node>
	<node id="-919024" lat="69.6423917183" lon="29.444220774">
		<tag k="name" v="Patojänkä" />
		<tag k="name:fkv" v="Patojänkä" />
		<tag k="natural" v="wetland" />
		<tag k="ssr:stedsnr" v="290231" />
	</node>
	<node id="-921577" lat="69.7583222797" lon="29.7740484033">
		<tag k="name" v="Kvitsteinen - Vilgesgeađgi" />
		<tag k="name:no" v="Kvitsteinen" />
		<tag k="name:se" v="Vilgesgeađgi" />
		<tag k="natural" v="stone" />
		<tag k="old_name:se" v="Vilgesgæđgi" />
		<tag k="ssr:stedsnr" v="747033" />
	</node>
	<node id="-921576" lat="69.7399695079" lon="29.958873284">
		<tag k="name" v="Gamnesbuktmyra - Geresjeaggi" />
		<tag k="name:no" v="Gamnesbuktmyra" />
		<tag k="name:se" v="Geresjeaggi" />
		<tag k="natural" v="wetland" />
		<tag k="old_name:se" v="Geresjæggi" />
		<tag k="ssr:stedsnr" v="747030" />
	</node>
	<node id="-919014" lat="69.7039417146" lon="29.156215399">
		<tag k="name" v="Palovaaranjänkä" />
		<tag k="name:fkv" v="Palovaaranjänkä" />
		<tag k="natural" v="wetland" />
		<tag k="ssr:stedsnr" v="289283" />
	</node>
	<node id="-920031" lat="69.7284083976" lon="29.9260871801">
		<tag k="name" v="Gárddatjeaggi" />
		<tag k="name:se" v="Gárddatjeaggi" />
		<tag k="natural" v="wetland" />
		<tag k="ssr:stedsnr" v="935581" />
	</node>
	<node id="-919006" lat="69.7242667139" lon="29.20159315">
		<tag k="name" v="Vestmyra - Västäjänkä" />
		<tag k="name:fkv" v="Västäjänkä" />
		<tag k="name:no" v="Vestmyra" />
		<tag k="natural" v="wetland" />
		<tag k="ssr:stedsnr" v="168319" />
	</node>
	<node id="-919004" lat="69.6111028275" lon="29.3205708193">
		<tag k="name" v="Piekanajänkä" />
		<tag k="name:fkv" v="Piekanajänkä" />
		<tag k="natural" v="wetland" />
		<tag k="ssr:stedsnr" v="168307" />
	</node>
	<node id="-921560" lat="69.634647288" lon="30.1121536789">
		<tag k="alt_name" v="Boddimyra" />
		<tag k="name" v="Bodimyra" />
		<tag k="natural" v="wetland" />
		<tag k="ssr:stedsnr" v="746826" />
	</node>
	<node id="-919510" lat="69.0448778399" lon="29.0104930282">
		<tag k="name" v="Saarimaajänkä" />
		<tag k="name:fkv" v="Saarimaajänkä" />
		<tag k="natural" v="wetland" />
		<tag k="old_name:fkv" v="Sarimajænge;Sarimajænkæ" />
		<tag k="ssr:stedsnr" v="686102" />
	</node>
	<node id="-920522" lat="69.6646000675" lon="29.9694815606">
		<tag k="name" v="Sandnesmyra" />
		<tag k="natural" v="wetland" />
		<tag k="ssr:stedsnr" v="140096" />
	</node>
	<node id="-920516" lat="69.6962056202" lon="29.9681565735">
		<tag k="name" v="Stormyra" />
		<tag k="natural" v="wetland" />
		<tag k="ssr:stedsnr" v="140073" />
	</node>
	<node id="-922049" lat="69.7647368094" lon="30.1924489985">
		<tag k="name" v="Jurangohpijeaggi" />
		<tag k="name:se" v="Jurangohpijeaggi" />
		<tag k="natural" v="wetland" />
		<tag k="ssr:stedsnr" v="982810" />
	</node>
	<node id="-921024" lat="69.5149278512" lon="29.9659814935">
		<tag k="name" v="Tervajoki" />
		<tag k="name:fkv" v="Tervajoki" />
		<tag k="natural" v="wetland" />
		<tag k="old_name:fkv" v="Dervajågi" />
		<tag k="ssr:stedsnr" v="383232" />
	</node>
	<node id="-920511" lat="69.7405000573" lon="29.8357511142">
		<tag k="name" v="Torvgamsletta" />
		<tag k="natural" v="wetland" />
		<tag k="ssr:stedsnr" v="140050" />
	</node>
	<node id="-922045" lat="69.7553250548" lon="29.714034543">
		<tag k="landuse" v="meadow" />
		<tag k="name" v="Skogerøynes" />
		<tag k="ssr:stedsnr" v="957728" />
	</node>
	<node id="-919996" lat="69.7889889502" lon="29.8014844968">
		<tag k="name" v="Sør-Leirvågmyra - Mikkelijänkä" />
		<tag k="name:fkv" v="Mikkelijänkä" />
		<tag k="name:no" v="Sør-Leirvågmyra" />
		<tag k="natural" v="wetland" />
		<tag k="ssr:stedsnr" v="930027" />
	</node>
	<node id="-919992" lat="69.3848306234" lon="29.6650622036">
		<tag k="name" v="Høymyra - Heinäjänkä" />
		<tag k="name:fkv" v="Heinäjänkä" />
		<tag k="name:no" v="Høymyra" />
		<tag k="natural" v="wetland" />
		<tag k="ssr:stedsnr" v="929896" />
	</node>
	<node id="-919284" lat="69.4866167389" lon="29.9665731663">
		<tag k="name" v="Strandmyran - Kaarreaapa" />
		<tag k="name:fkv" v="Kaarreaapa" />
		<tag k="name:no" v="Strandmyran" />
		<tag k="natural" v="wetland" />
		<tag k="ssr:stedsnr" v="503092" />
	</node>
	<node id="-918966" lat="69.5650250893" lon="30.6344948931">
		<tag k="name" v="Išmismyran - Išmmisjeakkit" />
		<tag k="name:no" v="Išmismyran" />
		<tag k="name:se" v="Išmmisjeakkit" />
		<tag k="natural" v="wetland" />
		<tag k="old_name:se" v="Išmisjæggit" />
		<tag k="ssr:stedsnr" v="140908" />
	</node>
	<node id="-922036" lat="69.8087806115" lon="29.820695604">
		<tag k="name" v="Lastajeaggi" />
		<tag k="name:se" v="Lastajeaggi" />
		<tag k="natural" v="wetland" />
		<tag k="ssr:stedsnr" v="957527" />
	</node>
	<node id="-920127" lat="69.0836250579" lon="29.1117568741">
		<tag k="name" v="Tommamyra" />
		<tag k="natural" v="wetland" />
		<tag k="ssr:stedsnr" v="18010" />
	</node>
	<node id="-918956" lat="69.6190500485" lon="29.3112958214">
		<tag k="name" v="Girdinjeaggi - Kipiänpoianjänkä" />
		<tag k="name:fkv" v="Kipiänpoianjänkä" />
		<tag k="name:se" v="Girdinjeaggi" />
		<tag k="natural" v="wetland" />
		<tag k="old_name:se" v="Girdinjæggi" />
		<tag k="ssr:stedsnr" v="140016" />
	</node>
	<node id="-920490" lat="69.2167222752" lon="28.9591125533">
		<tag k="name" v="Kontturijänkä" />
		<tag k="name:fkv" v="Kontturijänkä" />
		<tag k="natural" v="wetland" />
		<tag k="old_name:fkv" v="Gåntorijænge" />
		<tag k="ssr:stedsnr" v="139778" />
	</node>
	<node id="-919463" lat="69.85361671" lon="29.3527486644">
		<tag k="name" v="Ellenjárjeaggi" />
		<tag k="name:se" v="Ellenjárjeaggi" />
		<tag k="natural" v="wetland" />
		<tag k="old_name:se" v="Ellenjarjæggi" />
		<tag k="ssr:stedsnr" v="504104" />
	</node>
	<node id="-919462" lat="69.5951361614" lon="29.2247847622">
		<tag k="name" v="Čáhppesrokkejeaggi" />
		<tag k="name:se" v="Čáhppesrokkejeaggi" />
		<tag k="natural" v="wetland" />
		<tag k="old_name:se" v="Čappersråggejæggi" />
		<tag k="ssr:stedsnr" v="504020" />
	</node>
	<node id="-919460" lat="69.1099667188" lon="28.863093118">
		<tag k="name" v="Harrbekkmyra" />
		<tag k="natural" v="wetland" />
		<tag k="ssr:stedsnr" v="504013" />
	</node>
	<node id="-920993" lat="69.8105556143" lon="30.0494899036">
		<tag k="name" v="Svenskesteinan - Láttegeađggit" />
		<tag k="name:no" v="Svenskesteinan" />
		<tag k="name:se" v="Láttegeađggit" />
		<tag k="natural" v="stone" />
		<tag k="old_name:se" v="Laddegæđgit" />
		<tag k="ssr:stedsnr" v="383100" />
	</node>
	<node id="-921504" lat="69.689358384" lon="29.369495823">
		<tag k="name" v="Stormelen - Isomella" />
		<tag k="name:fkv" v="Isomella" />
		<tag k="name:no" v="Stormelen" />
		<tag k="place" v="locality" />
		<tag k="ssr:stedsnr" v="640452" />
	</node>
	<node id="-922015" lat="69.67026952" lon="30.4489673445">
		<tag k="name" v="Tårnmyra - Toartnajeaggi" />
		<tag k="name:no" v="Tårnmyra" />
		<tag k="name:se" v="Toartnajeaggi" />
		<tag k="natural" v="wetland" />
		<tag k="ssr:stedsnr" v="956112" />
	</node>
	<node id="-919621" lat="69.7305500863" lon="30.870933698">
		<tag k="name" v="Solstad" />
		<tag k="place" v="locality" />
		<tag k="ssr:stedsnr" v="544149" />
	</node>
	<node id="-920472" lat="69.1426306171" lon="29.1492374349">
		<tag k="name" v="Gjøkmyra" />
		<tag k="natural" v="wetland" />
		<tag k="ssr:stedsnr" v="139028" />
	</node>
	<node id="-919444" lat="69.7108667177" lon="29.6448734593">
		<tag k="landuse" v="meadow" />
		<tag k="name" v="Øverli" />
		<tag k="ssr:stedsnr" v="471026" />
	</node>
	<node id="-920456" lat="69.4880306282" lon="29.9149176272">
		<tag k="name" v="Venhenjänkä" />
		<tag k="name:fkv" v="Venhenjänkä" />
		<tag k="natural" v="wetland" />
		<tag k="ssr:stedsnr" v="108521" />
	</node>
	<node id="-921643" lat="69.8898694927" lon="29.3429736836">
		<tag k="name" v="Sopnesmyra - Suohpajeaggi" />
		<tag k="name:no" v="Sopnesmyra" />
		<tag k="name:se" v="Suohpajeaggi" />
		<tag k="natural" v="wetland" />
		<tag k="old_name:se" v="Suoppajæggi" />
		<tag k="ssr:stedsnr" v="747827" />
	</node>
	<node id="-918881" lat="69.445325066" lon="29.6501622283">
		<tag k="name" v="Njearreveaijeaggi" />
		<tag k="name:se" v="Njearreveaijeaggi" />
		<tag k="natural" v="wetland" />
		<tag k="old_name:se" v="Njærrevæjjæggi" />
		<tag k="ssr:stedsnr" v="261891" />
	</node>
	<node id="-919940" lat="69.8031028265" lon="29.3397903293">
		<tag k="alt_name:no" v="Sakrismyra" />
		<tag k="name" v="Sakrismyran - Sáhkkarasjeaggi" />
		<tag k="name:no" v="Sakrismyran" />
		<tag k="name:se" v="Sáhkkarasjeaggi" />
		<tag k="natural" v="wetland" />
		<tag k="old_name:se" v="Sakkarasjæggi" />
		<tag k="ssr:stedsnr" v="929129" />
	</node>
	<node id="-919427" lat="69.4887028472" lon="29.8919565453">
		<tag k="name" v="Indremyra" />
		<tag k="natural" v="wetland" />
		<tag k="ssr:stedsnr" v="443103" />
	</node>
	<node id="-919425" lat="69.6119889457" lon="29.330156927">
		<tag k="name" v="Uvdujeaggi" />
		<tag k="name:se" v="Uvdujeaggi" />
		<tag k="natural" v="wetland" />
		<tag k="old_name:se" v="Uvdojæggi;Uvdojeaggi" />
		<tag k="ssr:stedsnr" v="443022" />
	</node>
	<node id="-920958" lat="69.0574195065" lon="29.0780207846">
		<tag k="name" v="Kirkkokivijänkä" />
		<tag k="name:fkv" v="Kirkkokivijänkä" />
		<tag k="natural" v="wetland" />
		<tag k="old_name:fkv" v="Girkågivijænge" />
		<tag k="ssr:stedsnr" v="382125" />
	</node>
	<node id="-920953" lat="69.105138948" lon="29.1666457453">
		<tag k="name" v="Pirrivaarajänkä" />
		<tag k="name:fkv" v="Pirrivaarajänkä" />
		<tag k="natural" v="wetland" />
		<tag k="old_name:fkv" v="Birrivarajænge" />
		<tag k="ssr:stedsnr" v="382034" />
	</node>
	<node id="-920950" lat="69.0678389485" lon="29.1047401907">
		<tag k="name" v="Moslingbrann" />
		<tag k="place" v="locality" />
		<tag k="ssr:stedsnr" v="382015" />
	</node>
	<node id="-919017" lat="69.5619222894" lon="30.0036037076">
		<tag k="name" v="Høymyra" />
		<tag k="natural" v="wetland" />
		<tag k="ssr:stedsnr" v="289637" />
	</node>
	<node id="-920947" lat="69.0656528348" lon="28.8951069945">
		<tag k="name" v="Steinmyra - Pahajänkä" />
		<tag k="name:fkv" v="Pahajänkä" />
		<tag k="name:no" v="Steinmyra" />
		<tag k="natural" v="wetland" />
		<tag k="ssr:stedsnr" v="382009" />
	</node>
	<node id="-920502" lat="69.725425092" lon="30.8618170201">
		<tag k="name" v="Stormyra" />
		<tag k="natural" v="wetland" />
		<tag k="ssr:stedsnr" v="139910" />
	</node>
	<node id="-920945" lat="69.7221056062" lon="29.2463542404">
		<tag k="alt_name:no" v="Færdesmyra" />
		<tag k="name" v="Ferdesmyra - Fárrenjeaggi" />
		<tag k="name:no" v="Ferdesmyra" />
		<tag k="name:se" v="Fárrenjeaggi" />
		<tag k="natural" v="wetland" />
		<tag k="old_name:se" v="Farrenjæggi" />
		<tag k="ssr:stedsnr" v="382006" />
	</node>
	<node id="-919919" lat="69.5985889385" lon="29.285409729">
		<tag k="name" v="Biehkanjeaggi" />
		<tag k="name:se" v="Biehkanjeaggi" />
		<tag k="natural" v="wetland" />
		<tag k="old_name:se" v="Biekkanjæggi" />
		<tag k="ssr:stedsnr" v="929017" />
	</node>
	<node id="-921454" lat="69.6739000554" lon="29.444101341">
		<tag k="name" v="Buktmyra" />
		<tag k="natural" v="wetland" />
		<tag k="ssr:stedsnr" v="626140" />
	</node>
	<node id="-918845" lat="69.106183389" lon="28.8289792526">
		<tag k="name" v="Dårligmyra - Pahajänkä" />
		<tag k="name:fkv" v="Pahajänkä" />
		<tag k="name:no" v="Dårligmyra" />
		<tag k="natural" v="wetland" />
		<tag k="ssr:stedsnr" v="261025" />
	</node>
	<node id="-920426" lat="69.7097972699" lon="29.3201819756">
		<tag k="name" v="Furuneset" />
		<tag k="place" v="locality" />
		<tag k="ssr:stedsnr" v="94514" />
	</node>
	<node id="-918889" lat="69.4649945202" lon="30.0508147624">
		<tag k="alt_name:no" v="Skytemyra" />
		<tag k="name" v="Skyttermyra - Jäkäläjänkä" />
		<tag k="name:fkv" v="Jäkäläjänkä" />
		<tag k="name:no" v="Skyttermyra" />
		<tag k="natural" v="wetland" />
		<tag k="ssr:stedsnr" v="261976" />
	</node>
	<node id="-920933" lat="69.5311750796" lon="30.1324369417">
		<tag k="name" v="Sætermyra" />
		<tag k="natural" v="wetland" />
		<tag k="ssr:stedsnr" v="350297" />
	</node>
	<node id="-921442" lat="69.804961171" lon="29.9774427315">
		<tag k="name" v="Tverrbergmyra - Doaresoaijeaggi" />
		<tag k="name:no" v="Tverrbergmyra" />
		<tag k="name:se" v="Doaresoaijeaggi" />
		<tag k="natural" v="wetland" />
		<tag k="old_name:se" v="Doaresoaijæggi" />
		<tag k="ssr:stedsnr" v="626020" />
	</node>
	<node id="-921953" lat="69.6897250501" lon="29.4374152349">
		<tag k="name" v="Stormyra" />
		<tag k="natural" v="wetland" />
		<tag k="ssr:stedsnr" v="869103" />
	</node>
	<node id="-920926" lat="69.0909222835" lon="29.0236374779">
		<tag k="name" v="Kontturijänkä" />
		<tag k="name:fkv" v="Kontturijänkä" />
		<tag k="natural" v="wetland" />
		<tag k="ssr:stedsnr" v="350070" />
	</node>
	<node id="-918877" lat="69.6394250784" lon="30.4781367405">
		<tag k="name" v="Vassmyra" />
		<tag k="natural" v="wetland" />
		<tag k="ssr:stedsnr" v="261832" />
	</node>
	<node id="-920924" lat="69.6525195005" lon="29.3085652832">
		<tag k="name" v="Bordevárrejeaggi" />
		<tag k="name:se" v="Bordevárrejeaggi" />
		<tag k="natural" v="wetland" />
		<tag k="ssr:stedsnr" v="349382" />
	</node>
	<node id="-919780" lat="69.7104833902" lon="29.5193040765">
		<tag k="landuse" v="meadow" />
		<tag k="name" v="Elvekroken" />
		<tag k="ssr:stedsnr" v="714180" />
	</node>
	<node id="-921426" lat="69.6518750758" lon="30.4340756648">
		<tag k="name" v="Stormyra" />
		<tag k="natural" v="wetland" />
		<tag k="ssr:stedsnr" v="625776" />
	</node>
	<node id="-918857" lat="69.0565056182" lon="29.0648791076">
		<tag k="name" v="Ødemyra - Evettijänkä" />
		<tag k="name:fkv" v="Evettijänkä" />
		<tag k="name:no" v="Ødemyra" />
		<tag k="natural" v="wetland" />
		<tag k="ssr:stedsnr" v="261116" />
	</node>
	<node id="-919365" lat="69.451786185" lon="29.9596759078">
		<tag k="name" v="Heiskarimyra - Heiskarinjänkä" />
		<tag k="name:fkv" v="Heiskarinjänkä" />
		<tag k="name:no" v="Heiskarimyra" />
		<tag k="natural" v="wetland" />
		<tag k="ssr:stedsnr" v="504913" />
	</node>
	<node id="-919876" lat="69.5470167388" lon="30.1236175066">
		<tag k="name" v="Stormyra" />
		<tag k="natural" v="wetland" />
		<tag k="ssr:stedsnr" v="773320" />
	</node>
	<node id="-921923" lat="69.3491556241" lon="29.5290511668">
		<tag k="name" v="Kobbfossmyra" />
		<tag k="natural" v="wetland" />
		<tag k="ssr:stedsnr" v="868868" />
	</node>
	<node id="-918848" lat="69.1496056181" lon="29.2182873972">
		<tag k="name" v="Nyrudmyra" />
		<tag k="natural" v="wetland" />
		<tag k="ssr:stedsnr" v="261039" />
	</node>
	<node id="-919357" lat="69.8759639341" lon="29.3230597889">
		<tag k="name" v="Mállejeaggi - Mallijänkä" />
		<tag k="name:fkv" v="Mallijänkä" />
		<tag k="name:se" v="Mállejeaggi" />
		<tag k="natural" v="wetland" />
		<tag k="old_name:se" v="Mallejæggi" />
		<tag k="ssr:stedsnr" v="504815" />
	</node>
	<node id="-918841" lat="69.6437111576" lon="29.3304041696">
		<tag k="name" v="Bordejeaggi" />
		<tag k="name:se" v="Bordejeaggi" />
		<tag k="natural" v="wetland" />
		<tag k="old_name:se" v="Bårdejæggi" />
		<tag k="ssr:stedsnr" v="261017" />
	</node>
	<node id="-920376" lat="69.5783139569" lon="29.9384370991">
		<tag k="alt_name:no" v="Riståmyra" />
		<tag k="name" v="Kristamyra - Ristonjänkä" />
		<tag k="name:fkv" v="Ristonjänkä" />
		<tag k="name:no" v="Kristamyra" />
		<tag k="natural" v="wetland" />
		<tag k="ssr:stedsnr" v="80198" />
	</node>
	<node id="-921399" lat="69.492561183" lon="29.9247037443">
		<tag k="name" v="Ytremyra" />
		<tag k="natural" v="wetland" />
		<tag k="ssr:stedsnr" v="625091" />
	</node>
	<node id="-921390" lat="69.7364528357" lon="29.6748734508">
		<tag k="name" v="Njoammelrohtu" />
		<tag k="name:se" v="Njoammelrohtu" />
		<tag k="old_name:se" v="Njoammelråtto" />
		<tag k="place" v="locality" />
		<tag k="ssr:stedsnr" v="625060" />
	</node>
	<node id="-921388" lat="69.7285945045" lon="29.8504483375">
		<tag k="name" v="Høybuktmyran - Nuvvosjeaggi" />
		<tag k="name:no" v="Høybuktmyran" />
		<tag k="name:se" v="Nuvvosjeaggi" />
		<tag k="natural" v="wetland" />
		<tag k="old_name:se" v="Nuvvusjæggi" />
		<tag k="ssr:stedsnr" v="625056" />
	</node>
	<node id="-920362" lat="69.8336028218" lon="29.343037558">
		<tag k="name" v="Linddebákjeaggi" />
		<tag k="name:se" v="Linddebákjeaggi" />
		<tag k="natural" v="wetland" />
		<tag k="old_name:se" v="Lindebakjæggi" />
		<tag k="ssr:stedsnr" v="80137" />
	</node>
	<node id="-921891" lat="69.8368611546" lon="29.3610014449">
		<tag k="name" v="Áttejeaggi" />
		<tag k="name:se" v="Áttejeaggi" />
		<tag k="natural" v="wetland" />
		<tag k="old_name:se" v="Addejæggi;Addejeaggi" />
		<tag k="ssr:stedsnr" v="868120" />
	</node>
	<node id="-921376" lat="69.123850061" lon="29.0801346767">
		<tag k="name" v="Rømlingmyra - Karkulausjänkä" />
		<tag k="name:fkv" v="Karkulausjänkä" />
		<tag k="name:no" v="Rømlingmyra" />
		<tag k="natural" v="wetland" />
		<tag k="ssr:stedsnr" v="625012" />
	</node>
	<node id="-918814" lat="69.7420222687" lon="29.2400542439">
		<tag k="name" v="Bjørnmyra" />
		<tag k="natural" v="wetland" />
		<tag k="ssr:stedsnr" v="229339" />
	</node>
	<node id="-921879" lat="69.144911176" lon="29.1925012875">
		<tag k="name" v="Gjøkbuktmyra" />
		<tag k="natural" v="wetland" />
		<tag k="ssr:stedsnr" v="868028" />
	</node>
	<node id="-919317" lat="69.7701361712" lon="29.8045150507">
		<tag k="name" v="Skihpárjeaggi" />
		<tag k="name:se" v="Skihpárjeaggi" />
		<tag k="natural" v="wetland" />
		<tag k="old_name:se" v="Skipparjæggi" />
		<tag k="ssr:stedsnr" v="504028" />
	</node>
	<node id="-920336" lat="69.7386195084" lon="29.9029733033">
		<tag k="name" v="Ristenrohtu" />
		<tag k="name:se" v="Ristenrohtu" />
		<tag k="old_name:se" v="Ristenråtto" />
		<tag k="place" v="locality" />
		<tag k="ssr:stedsnr" v="80049" />
	</node>
	<node id="-920024" lat="69.9629306047" lon="29.6285096676">
		<tag k="name" v="Pipolamyra" />
		<tag k="natural" v="wetland" />
		<tag k="ssr:stedsnr" v="822109" />
	</node>
	<node id="-920332" lat="69.7740806108" lon="29.7812483879">
		<tag k="name" v="Suovkajeaggi" />
		<tag k="name:se" v="Suovkajeaggi" />
		<tag k="natural" v="wetland" />
		<tag k="old_name:se" v="Suovkajæggi" />
		<tag k="ssr:stedsnr" v="80030" />
	</node>
	<node id="-920331" lat="69.8055917205" lon="29.7705234055">
		<tag k="name" v="Straumsnesmyra" />
		<tag k="natural" v="wetland" />
		<tag k="ssr:stedsnr" v="80020" />
	</node>
	<node id="-918894" lat="69.7371306181" lon="29.8440094475">
		<tag k="name" v="Makkskjermyra - Máhkkalássjeaggi" />
		<tag k="name:no" v="Makkskjermyra" />
		<tag k="name:se" v="Máhkkalássjeaggi" />
		<tag k="natural" v="wetland" />
		<tag k="old_name:se" v="Makkalassjæggi" />
		<tag k="ssr:stedsnr" v="262048" />
	</node>
	<node id="-919815" lat="69.6375389442" lon="29.3998568918">
		<tag k="name" v="Syvänkurunjänkä" />
		<tag k="name:fkv" v="Syvänkurunjänkä" />
		<tag k="natural" v="wetland" />
		<tag k="ssr:stedsnr" v="897234" />
	</node>
	<node id="-921350" lat="69.5354056292" lon="30.1222563938">
		<tag k="name" v="Sumpmyra" />
		<tag k="natural" v="wetland" />
		<tag k="ssr:stedsnr" v="593302" />
	</node>
	<node id="-921861" lat="69.502630622" lon="29.9816342687">
		<tag k="name" v="Mosemyran - Sammalaapa" />
		<tag k="name:fkv" v="Sammalaapa" />
		<tag k="name:no" v="Mosemyran" />
		<tag k="natural" v="wetland" />
		<tag k="ssr:stedsnr" v="836540" />
	</node>
	<node id="-920834" lat="69.5303945214" lon="30.0931036384">
		<tag k="name" v="Sagmyra" />
		<tag k="natural" v="wetland" />
		<tag k="ssr:stedsnr" v="322803" />
	</node>
	<node id="-920321" lat="69.4633500707" lon="29.799284362">
		<tag k="name" v="Gaivomyra" />
		<tag k="natural" v="wetland" />
		<tag k="ssr:stedsnr" v="79903" />
	</node>
	<node id="-920319" lat="69.483180629" lon="30.0072314595">
		<tag k="name" v="Pernillemyra" />
		<tag k="natural" v="wetland" />
		<tag k="ssr:stedsnr" v="79899" />
	</node>
	<node id="-918782" lat="69.1527210642" lon="29.1435104505">
		<tag k="name" v="Desertørsteinen" />
		<tag k="natural" v="stone" />
		<tag k="ssr:stedsnr" v="19027" />
	</node>
	<node id="-921338" lat="69.7061444906" lon="29.0962932036">
		<tag k="name" v="Esipuu" />
		<tag k="name:fkv" v="Esipuu" />
		<tag k="place" v="locality" />
		<tag k="ssr:stedsnr" v="592316" />
	</node>
	<node id="-921848" lat="69.1822389525" lon="29.1368485516">
		<tag k="name" v="Máttajeaggi" />
		<tag k="name:se" v="Máttajeaggi" />
		<tag k="natural" v="wetland" />
		<tag k="ssr:stedsnr" v="836252" />
	</node>
	<node id="-921845" lat="69.698388938" lon="29.2393708952">
		<tag k="name" v="Marjajänkä" />
		<tag k="name:fkv" v="Marjajänkä" />
		<tag k="natural" v="wetland" />
		<tag k="ssr:stedsnr" v="835364" />
	</node>
	<node id="-921844" lat="69.6097306083" lon="29.3041847238">
		<tag k="name" v="Alakoskenjänkä" />
		<tag k="name:fkv" v="Alakoskenjänkä" />
		<tag k="natural" v="wetland" />
		<tag k="ssr:stedsnr" v="835318" />
	</node>
	<node id="-919786" lat="69.5417695199" lon="30.1513397184">
		<tag k="name" v="Holmfossmyra" />
		<tag k="natural" v="wetland" />
		<tag k="ssr:stedsnr" v="895287" />
	</node>
	<node id="-919285" lat="69.107044503" lon="29.1306346514">
		<tag k="alt_name:no" v="Kjeldemyra" />
		<tag k="name" v="Kildemyra - Kaltiojänkä" />
		<tag k="name:fkv" v="Kaltiojänkä" />
		<tag k="name:no" v="Kildemyra" />
		<tag k="natural" v="wetland" />
		<tag k="old_name:fkv" v="Galdiåjænge" />
		<tag k="ssr:stedsnr" v="503003" />
	</node>
	<node id="-920292" lat="69.1278528443" lon="29.1946096195">
		<tag k="name" v="Nilamyra - Niilanjänkä" />
		<tag k="name:fkv" v="Niilanjänkä" />
		<tag k="name:no" v="Nilamyra" />
		<tag k="natural" v="wetland" />
		<tag k="old_name:fkv" v="Nilanjænge" />
		<tag k="ssr:stedsnr" v="79036" />
	</node>
	<node id="-919699" lat="69.5140972876" lon="29.9407120763">
		<tag k="name" v="Venhenjänkä" />
		<tag k="name:fkv" v="Venhenjänkä" />
		<tag k="natural" v="wetland" />
		<tag k="ssr:stedsnr" v="714546" />
	</node>
	<node id="-921304" lat="69.6737556279" lon="30.1847925413">
		<tag k="name" v="Røversteinan" />
		<tag k="natural" v="stone" />
		<tag k="ssr:stedsnr" v="570586" />
	</node>
	<node id="-919251" lat="69.4672695162" lon="30.0901313887">
		<tag k="landuse" v="meadow" />
		<tag k="name" v="Hovland" />
		<tag k="ssr:stedsnr" v="519574" />
	</node>
	<node id="-920274" lat="69.499836177" lon="29.9379342887">
		<tag k="name" v="Ytre Skoltemyran - Venhenjänkä" />
		<tag k="name:fkv" v="Venhenjänkä" />
		<tag k="name:no" v="Ytre Skoltemyran" />
		<tag k="natural" v="wetland" />
		<tag k="ssr:stedsnr" v="47588" />
	</node>
	<node id="-918819" lat="69.5125306235" lon="29.9685064938">
		<tag k="name" v="Pernillemyran - Pernillejänkä" />
		<tag k="name:fkv" v="Pernillejänkä" />
		<tag k="name:no" v="Pernillemyran" />
		<tag k="natural" v="wetland" />
		<tag k="ssr:stedsnr" v="229584" />
	</node>
	<node id="-921294" lat="69.8025305922" lon="28.6800128554">
		<tag k="name" v="Justinvuopmi" />
		<tag k="name:se" v="Justinvuopmi" />
		<tag k="old_name:se" v="Justinvuobmi" />
		<tag k="place" v="locality" />
		<tag k="ssr:stedsnr" v="565839" />
	</node>
	<node id="-919242" lat="69.8059222661" lon="29.3216681128">
		<tag k="name" v="Mieskamarasjeaggi" />
		<tag k="name:se" v="Mieskamarasjeaggi" />
		<tag k="natural" v="wetland" />
		<tag k="ssr:stedsnr" v="472332" />
	</node>
	<node id="-920777" lat="69.2900361654" lon="29.2334402096">
		<tag k="name" v="Svanemyra" />
		<tag k="natural" v="wetland" />
		<tag k="ssr:stedsnr" v="321101" />
	</node>
	<node id="-919239" lat="69.8570722678" lon="29.3506181112">
		<tag k="name" v="Ellejeaggi" />
		<tag k="name:se" v="Ellejeaggi" />
		<tag k="natural" v="wetland" />
		<tag k="ssr:stedsnr" v="472167" />
	</node>
	<node id="-921973" lat="69.5650389572" lon="29.9277621045">
		<tag k="name" v="Måsemyran" />
		<tag k="natural" v="wetland" />
		<tag k="ssr:stedsnr" v="869199" />
	</node>
	<node id="-920249" lat="69.6951889392" lon="29.461829096">
		<tag k="landuse" v="meadow" />
		<tag k="name" v="Myrdal" />
		<tag k="ssr:stedsnr" v="46223" />
	</node>
	<node id="-921272" lat="69.5030778494" lon="29.9174259853">
		<tag k="alt_name:fkv" v="Venhenjänkä" />
		<tag k="fixme" v="multiple name tags, choose one and add the other to alt_name" />
		<tag k="name" v="Indre Skoltemyran;Skoltevollmyra - Veneenkenttäaapa" />
		<tag k="name:fkv" v="Veneenkenttäaapa" />
		<tag k="name:no" v="Indre Skoltemyran;Skoltevollmyra" />
		<tag k="natural" v="wetland" />
		<tag k="old_name:fkv" v="Venægentaba" />
		<tag k="ssr:stedsnr" v="565189" />
	</node>
	<node id="-919731" lat="69.2742083937" lon="29.2341540919">
		<tag k="name" v="Langmyra" />
>>>>>>> e1d4bc35ff8a6074a6f2e91616a996b547c36f15
		<tag k="natural" v="wetland" />
		<tag k="ssr:stedsnr" v="18010" />
	</node>
<<<<<<< HEAD
	<node lat="69.58675284864738" lon="30.158631394525493" id="-39476">
=======
	<node id="-920241" lat="69.5867528486" lon="30.1586313945">
>>>>>>> e1d4bc35ff8a6074a6f2e91616a996b547c36f15
		<tag k="name" v="Moltebærmyra" />
		<tag k="natural" v="wetland" />
		<tag k="ssr:stedsnr" v="45291" />
	</node>
<<<<<<< HEAD
	<node lat="69.70979726992555" lon="29.320181975606413" id="-39534">
		<tag k="name" v="Furuneset" />
		<tag k="place" v="locality" />
		<tag k="ssr:stedsnr" v="94514" />
	</node>
	<node lat="69.6646000674783" lon="29.96948156064682" id="-39572">
		<tag k="name" v="Sandnesmyra" />
=======
	<node id="-919209" lat="69.4423722903" lon="29.8330704382">
		<tag k="name" v="Mosemyran - Jäkäläjänkä" />
		<tag k="name:fkv" v="Jäkäläjänkä" />
		<tag k="name:no" v="Mosemyran" />
		<tag k="natural" v="wetland" />
		<tag k="ssr:stedsnr" v="290704" />
	</node>
	<node id="-919720" lat="69.6190667223" lon="29.3578930228">
		<tag k="name" v="Kemiläisjänkä" />
		<tag k="name:fkv" v="Kemiläisjänkä" />
		<tag k="natural" v="wetland" />
		<tag k="ssr:stedsnr" v="653291" />
	</node>
	<node id="-919719" lat="69.6202194975" lon="29.3407985991">
		<tag k="name" v="Aksojänkä" />
		<tag k="name:fkv" v="Aksojänkä" />
>>>>>>> e1d4bc35ff8a6074a6f2e91616a996b547c36f15
		<tag k="natural" v="wetland" />
		<tag k="ssr:stedsnr" v="140096" />
	</node>
<<<<<<< HEAD
	<node lat="69.64371115759035" lon="29.330404169622838" id="-39619">
		<tag k="name" v="Bordejeaggi" />
		<tag k="name:se" v="Bordejeaggi" />
		<tag k="natural" v="wetland" />
		<tag k="old_name:se" v="Bårdejæggi" />
		<tag k="ssr:stedsnr" v="261017" />
	</node>
	<node lat="69.1061833889546" lon="28.82897925264962" id="-39623">
		<tag k="name" v="Dårligmyra - Pahajänkä" />
		<tag k="name:fkv" v="Pahajänkä" />
		<tag k="name:no" v="Dårligmyra" />
=======
	<node id="-921758" lat="69.8100250659" lon="30.1847259254">
		<tag k="name" v="Pedermyra" />
>>>>>>> e1d4bc35ff8a6074a6f2e91616a996b547c36f15
		<tag k="natural" v="wetland" />
		<tag k="ssr:stedsnr" v="261025" />
	</node>
<<<<<<< HEAD
	<node lat="69.14960561805677" lon="29.218287397197678" id="-39626">
		<tag k="name" v="Nyrudmyra" />
		<tag k="natural" v="wetland" />
		<tag k="ssr:stedsnr" v="261039" />
	</node>
	<node lat="69.05650561824544" lon="29.06487910759939" id="-39630">
		<tag k="name" v="Ødemyra - Evettijänkä" />
		<tag k="name:fkv" v="Evettijänkä" />
		<tag k="name:no" v="Ødemyra" />
		<tag k="natural" v="wetland" />
		<tag k="ssr:stedsnr" v="261116" />
	</node>
	<node lat="69.4453250659868" lon="29.650162228298974" id="-39648">
		<tag k="name" v="Njearreveaijeaggi" />
		<tag k="name:se" v="Njearreveaijeaggi" />
		<tag k="natural" v="wetland" />
		<tag k="old_name:se" v="Njærrevæjjæggi" />
		<tag k="ssr:stedsnr" v="261891" />
	</node>
	<node lat="69.63942507838273" lon="30.478136740514255" id="-39657">
		<tag k="name" v="Vassmyra" />
=======
	<node id="-919918" lat="69.6049278297" lon="29.2474958724">
		<tag k="name" v="Svartdalsmyra" />
		<tag k="natural" v="wetland" />
		<tag k="ssr:stedsnr" v="929015" />
	</node>
	<node id="-921234" lat="69.800219499" lon="29.798590061">
		<tag k="name" v="Ándarasuvllájeaggi" />
		<tag k="name:se" v="Ándarasuvllájeaggi" />
		<tag k="natural" v="wetland" />
		<tag k="old_name:se" v="Andarasuvlajæggi" />
		<tag k="ssr:stedsnr" v="565018" />
	</node>
	<node id="-919695" lat="69.8114083925" lon="29.8026734122">
		<tag k="landuse" v="meadow" />
		<tag k="name" v="Nordeng" />
		<tag k="ssr:stedsnr" v="714483" />
	</node>
	<node id="-919179" lat="69.6847417199" lon="29.5655762731">
		<tag k="name" v="Skarvsteinen" />
		<tag k="natural" v="stone" />
		<tag k="ssr:stedsnr" v="453694" />
	</node>
	<node id="-920201" lat="69.576458431" lon="30.8687085856">
		<tag k="name" v="Korpmyran - Gáranasjeakkit" />
		<tag k="name:no" v="Korpmyran" />
		<tag k="name:se" v="Gáranasjeakkit" />
>>>>>>> e1d4bc35ff8a6074a6f2e91616a996b547c36f15
		<tag k="natural" v="wetland" />
		<tag k="ssr:stedsnr" v="261832" />
	</node>
<<<<<<< HEAD
	<node lat="69.46499452015922" lon="30.050814762420956" id="-39667">
		<tag k="alt_name:no" v="Skytemyra" />
		<tag k="name" v="Skyttermyra - Jäkäläjänkä" />
		<tag k="name:fkv" v="Jäkäläjänkä" />
		<tag k="name:no" v="Skyttermyra" />
		<tag k="natural" v="wetland" />
		<tag k="ssr:stedsnr" v="261976" />
	</node>
	<node lat="69.69520005555258" lon="29.468423564299417" id="-39671">
		<tag k="name" v="Skjeftegrasmyra" />
		<tag k="natural" v="wetland" />
		<tag k="ssr:stedsnr" v="262075" />
	</node>
	<node lat="69.47013340302394" lon="29.997373122051552" id="-39704">
		<tag k="alt_name:no" v="Gressmyran" />
		<tag k="loc_name:no" v="Grasmyr" />
		<tag k="name" v="Grasmyra - Heinäaapa" />
		<tag k="name:fkv" v="Heinäaapa" />
		<tag k="name:no" v="Grasmyra" />
=======
	<node id="-921732" lat="69.1829445027" lon="29.1792985186">
		<tag k="name" v="Mattismyra - Matinjänkä" />
		<tag k="name:fkv" v="Matinjänkä" />
		<tag k="name:no" v="Mattismyra" />
		<tag k="natural" v="wetland" />
		<tag k="old_name:fkv" v="Madinjænge" />
		<tag k="ssr:stedsnr" v="807774" />
	</node>
	<node id="-921729" lat="69.2253806148" lon="29.038884739">
		<tag k="name" v="Føllbrann" />
		<tag k="place" v="locality" />
		<tag k="ssr:stedsnr" v="807738" />
	</node>
	<node id="-918805" lat="69.1145000579" lon="29.0636652399">
		<tag k="name" v="Vinkelmyra" />
		<tag k="natural" v="wetland" />
		<tag k="ssr:stedsnr" v="229040" />
	</node>
	<node id="-921723" lat="69.4767528551" lon="30.0421147668">
		<tag k="name" v="Langmyra - Pitkäjänkä" />
		<tag k="name:fkv" v="Pitkäjänkä" />
		<tag k="name:no" v="Langmyra" />
>>>>>>> e1d4bc35ff8a6074a6f2e91616a996b547c36f15
		<tag k="natural" v="wetland" />
		<tag k="ssr:stedsnr" v="200903" />
	</node>
<<<<<<< HEAD
	<node lat="69.05983339339173" lon="29.082123554347586" id="-39710">
		<tag k="alt_name" v="Kjerkesteinen" />
		<tag k="name" v="Kirkesteinen" />
		<tag k="natural" v="stone" />
		<tag k="ssr:stedsnr" v="201095" />
	</node>
	<node lat="69.77240836991456" lon="28.82677945179128" id="-39720">
=======
	<node id="-921206" lat="69.1850417218" lon="29.1272485657">
		<tag k="name" v="Mosemyra" />
		<tag k="natural" v="wetland" />
		<tag k="ssr:stedsnr" v="564791" />
	</node>
	<node id="-920693" lat="69.7724083699" lon="28.8267794518">
>>>>>>> e1d4bc35ff8a6074a6f2e91616a996b547c36f15
		<tag k="name" v="Vuottasjeaggi" />
		<tag k="name:se" v="Vuottasjeaggi" />
		<tag k="natural" v="wetland" />
		<tag k="old_name:se" v="Vuoddasjæggi" />
		<tag k="ssr:stedsnr" v="201149" />
	</node>
<<<<<<< HEAD
	<node lat="69.79609173008221" lon="30.137870390343455" id="-39756">
		<tag k="name" v="Skipssteinan" />
		<tag k="natural" v="stone" />
		<tag k="ssr:stedsnr" v="228287" />
	</node>
	<node lat="69.11450005788342" lon="29.06366523987839" id="-39757">
		<tag k="name" v="Vinkelmyra" />
=======
	<node id="-921712" lat="69.1070583934" lon="28.9425041919">
		<tag k="name" v="Ellenbrann - Ellipalu" />
		<tag k="name:fkv" v="Ellipalu" />
		<tag k="name:no" v="Ellenbrann" />
		<tag k="place" v="locality" />
		<tag k="ssr:stedsnr" v="807030" />
	</node>
	<node id="-920687" lat="69.8237778247" lon="29.3462514312">
		<tag k="name" v="Skálnjuokčanjeaggi" />
		<tag k="name:se" v="Skálnjuokčanjeaggi" />
>>>>>>> e1d4bc35ff8a6074a6f2e91616a996b547c36f15
		<tag k="natural" v="wetland" />
		<tag k="ssr:stedsnr" v="229040" />
	</node>
<<<<<<< HEAD
	<node lat="69.74202226869274" lon="29.24005424394954" id="-39763">
		<tag k="name" v="Bjørnmyra" />
		<tag k="natural" v="wetland" />
		<tag k="ssr:stedsnr" v="229339" />
	</node>
	<node lat="69.51253062348184" lon="29.968506493815223" id="-39766">
		<tag k="name" v="Pernillemyran - Pernillejänkä" />
		<tag k="name:fkv" v="Pernillejänkä" />
		<tag k="name:no" v="Pernillemyran" />
=======
	<node id="-920253" lat="69.5656695103" lon="29.9149065573">
		<tag k="name" v="Sagvassmyra - Surkkajänkä" />
		<tag k="name:fkv" v="Surkkajänkä" />
		<tag k="name:no" v="Sagvassmyra" />
		<tag k="natural" v="wetland" />
		<tag k="ssr:stedsnr" v="46641" />
	</node>
	<node id="-919659" lat="69.6866500699" lon="30.0888009489">
		<tag k="name" v="Enojärvimyra" />
>>>>>>> e1d4bc35ff8a6074a6f2e91616a996b547c36f15
		<tag k="natural" v="wetland" />
		<tag k="ssr:stedsnr" v="229584" />
	</node>
<<<<<<< HEAD
	<node lat="69.68474171993134" lon="29.565576273079262" id="-39774">
		<tag k="name" v="Skarvsteinen" />
=======
	<node id="-920674" lat="69.0598333934" lon="29.0821235543">
		<tag k="alt_name" v="Kjerkesteinen" />
		<tag k="name" v="Kirkesteinen" />
>>>>>>> e1d4bc35ff8a6074a6f2e91616a996b547c36f15
		<tag k="natural" v="stone" />
		<tag k="ssr:stedsnr" v="453694" />
	</node>
<<<<<<< HEAD
	<node lat="69.73713061811559" lon="29.844009447540888" id="-39788">
		<tag k="name" v="Makkskjermyra - Máhkkalássjeaggi" />
		<tag k="name:no" v="Makkskjermyra" />
		<tag k="name:se" v="Máhkkalássjeaggi" />
		<tag k="natural" v="wetland" />
		<tag k="old_name:se" v="Makkalassjæggi" />
		<tag k="ssr:stedsnr" v="262048" />
	</node>
	<node lat="69.64239171829578" lon="29.44422077400785" id="-39820">
		<tag k="name" v="Patojänkä" />
		<tag k="name:fkv" v="Patojänkä" />
=======
	<node id="-918800" lat="69.7960917301" lon="30.1378703903">
		<tag k="name" v="Skipssteinan" />
		<tag k="natural" v="stone" />
		<tag k="ssr:stedsnr" v="228287" />
	</node>
	<node id="-919646" lat="69.6641333839" lon="29.3488902792">
		<tag k="alt_name:no" v="Enaremyran" />
		<tag k="name" v="Enaremyrane - Anárašsuotnju - Inarisjänkä" />
		<tag k="name:fkv" v="Inarisjänkä" />
		<tag k="name:no" v="Enaremyrane" />
		<tag k="name:se" v="Anárašsuotnju" />
		<tag k="natural" v="wetland" />
		<tag k="old_name:se" v="Anarašsuodnjo" />
		<tag k="ssr:stedsnr" v="564019" />
	</node>
	<node id="-921693" lat="69.7301806322" lon="30.4641729035">
		<tag k="name" v="Pavosmyra - Pávosjeaggi" />
		<tag k="name:no" v="Pavosmyra" />
		<tag k="name:se" v="Pávosjeaggi" />
>>>>>>> e1d4bc35ff8a6074a6f2e91616a996b547c36f15
		<tag k="natural" v="wetland" />
		<tag k="ssr:stedsnr" v="290231" />
	</node>
<<<<<<< HEAD
	<node lat="69.15821395238088" lon="29.167956859395343" id="-39821">
		<tag k="name" v="Gjøkmyra" />
		<tag k="natural" v="wetland" />
		<tag k="ssr:stedsnr" v="290294" />
	</node>
	<node lat="69.44237229025121" lon="29.833070438222883" id="-39823">
		<tag k="name" v="Mosemyran - Jäkäläjänkä" />
		<tag k="name:fkv" v="Jäkäläjänkä" />
		<tag k="name:no" v="Mosemyran" />
=======
	<node id="-921690" lat="69.688497272" lon="29.1672487228">
		<tag k="name" v="Nuottijänkä" />
		<tag k="name:fkv" v="Nuottijänkä" />
>>>>>>> e1d4bc35ff8a6074a6f2e91616a996b547c36f15
		<tag k="natural" v="wetland" />
		<tag k="ssr:stedsnr" v="290704" />
	</node>
<<<<<<< HEAD
	<node lat="69.53039452143243" lon="30.093103638440983" id="-39843">
		<tag k="name" v="Sagmyra" />
=======
	<node id="-920929" lat="69.6451139429" lon="29.4089346737">
		<tag k="name" v="Isojänkä" />
		<tag k="name:fkv" v="Isojänkä" />
		<tag k="natural" v="wetland" />
		<tag k="ssr:stedsnr" v="350218" />
	</node>
	<node id="-919681" lat="69.6948250524" lon="29.193962581">
		<tag k="name" v="Lapinjänkä" />
		<tag k="name:fkv" v="Lapinjänkä" />
		<tag k="natural" v="wetland" />
		<tag k="ssr:stedsnr" v="714258" />
	</node>
	<node id="-919122" lat="69.6891833833" lon="29.4955374232">
		<tag k="name" v="Hestemyr" />
>>>>>>> e1d4bc35ff8a6074a6f2e91616a996b547c36f15
		<tag k="natural" v="wetland" />
		<tag k="ssr:stedsnr" v="322803" />
	</node>
<<<<<<< HEAD
	<node lat="69.80592226607956" lon="29.321668112754864" id="-39887">
		<tag k="name" v="Mieskamarasjeaggi" />
		<tag k="name:se" v="Mieskamarasjeaggi" />
=======
	<node id="-921166" lat="69.6299056086" lon="29.362598572">
		<tag k="name" v="Aksojänkä" />
		<tag k="name:fkv" v="Aksojänkä" />
>>>>>>> e1d4bc35ff8a6074a6f2e91616a996b547c36f15
		<tag k="natural" v="wetland" />
		<tag k="ssr:stedsnr" v="472332" />
	</node>
<<<<<<< HEAD
	<node lat="69.64511394286126" lon="29.40893467374163" id="-39901">
		<tag k="name" v="Isojänkä" />
		<tag k="name:fkv" v="Isojänkä" />
=======
	<node id="-920653" lat="69.470133403" lon="29.9973731221">
		<tag k="alt_name:no" v="Gressmyran" />
		<tag k="loc_name:no" v="Grasmyr" />
		<tag k="name" v="Grasmyra - Heinäaapa" />
		<tag k="name:fkv" v="Heinäaapa" />
		<tag k="name:no" v="Grasmyra" />
>>>>>>> e1d4bc35ff8a6074a6f2e91616a996b547c36f15
		<tag k="natural" v="wetland" />
		<tag k="ssr:stedsnr" v="350218" />
	</node>
<<<<<<< HEAD
	<node lat="69.72210560620793" lon="29.246354240416334" id="-39910">
		<tag k="alt_name:no" v="Færdesmyra" />
		<tag k="name" v="Ferdesmyra - Fárrenjeaggi" />
		<tag k="name:no" v="Ferdesmyra" />
		<tag k="name:se" v="Fárrenjeaggi" />
=======
	<node id="-921186" lat="69.3401917257" lon="29.4048317984">
		<tag k="name" v="Skjelbekkmyra" />
		<tag k="natural" v="wetland" />
		<tag k="ssr:stedsnr" v="564104" />
	</node>
	<node id="-919623" lat="69.6761861771" lon="30.1537647753">
		<tag k="name" v="Karikoskimyra" />
>>>>>>> e1d4bc35ff8a6074a6f2e91616a996b547c36f15
		<tag k="natural" v="wetland" />
		<tag k="old_name:se" v="Farrenjæggi" />
		<tag k="ssr:stedsnr" v="382006" />
	</node>
<<<<<<< HEAD
	<node lat="69.0656528347631" lon="28.895106994539706" id="-39912">
		<tag k="name" v="Steinmyra - Pahajänkä" />
		<tag k="name:fkv" v="Pahajänkä" />
		<tag k="name:no" v="Steinmyra" />
=======
	<node id="-921441" lat="69.8153167219" lon="29.8244650462">
		<tag k="name" v="Ruoššavuonjeaggi" />
		<tag k="name:se" v="Ruoššavuonjeaggi" />
		<tag k="natural" v="wetland" />
		<tag k="old_name:se" v="Ruoššavuonjæggi" />
		<tag k="ssr:stedsnr" v="626011" />
	</node>
	<node id="-919109" lat="69.7302889544" lon="29.9409010542">
		<tag k="name" v="Dálasjeaggi" />
		<tag k="name:se" v="Dálasjeaggi" />
>>>>>>> e1d4bc35ff8a6074a6f2e91616a996b547c36f15
		<tag k="natural" v="wetland" />
		<tag k="ssr:stedsnr" v="382009" />
	</node>
<<<<<<< HEAD
	<node lat="69.6156278420627" lon="29.968562095705302" id="-39966">
		<tag k="name" v="Bjørnemyra" />
=======
	<node id="-918899" lat="69.6952000556" lon="29.4684235643">
		<tag k="name" v="Skjeftegrasmyra" />
		<tag k="natural" v="wetland" />
		<tag k="ssr:stedsnr" v="262075" />
	</node>
	<node id="-920639" lat="69.2294972781" lon="29.1244541296">
		<tag k="name" v="Isokivijänkä" />
		<tag k="name:fkv" v="Isokivijänkä" />
>>>>>>> e1d4bc35ff8a6074a6f2e91616a996b547c36f15
		<tag k="natural" v="wetland" />
		<tag k="ssr:stedsnr" v="411539" />
	</node>
	<node lat="69.41397784901372" lon="29.774339918247534" id="-39968">
		<tag k="landuse" v="meadow" />
		<tag k="name" v="Nygård" />
		<tag k="ssr:stedsnr" v="411714" />
	</node>
<<<<<<< HEAD
	<node lat="69.48870284720236" lon="29.891956545258893" id="-39971">
		<tag k="name" v="Indremyra" />
=======
	<node id="-921150" lat="69.7079944949" lon="29.4912652163">
		<tag k="name" v="Vuotsomyra" />
>>>>>>> e1d4bc35ff8a6074a6f2e91616a996b547c36f15
		<tag k="natural" v="wetland" />
		<tag k="ssr:stedsnr" v="443103" />
	</node>
<<<<<<< HEAD
	<node lat="69.71086671765056" lon="29.644873459273427" id="-40010">
		<tag k="landuse" v="meadow" />
		<tag k="name" v="Øverli" />
		<tag k="ssr:stedsnr" v="471026" />
	</node>
	<node lat="69.85707226779661" lon="29.35061811119748" id="-40018">
		<tag k="name" v="Ellejeaggi" />
		<tag k="name:se" v="Ellejeaggi" />
=======
	<node id="-921143" lat="69.6267667413" lon="30.110923115">
		<tag k="name" v="Rundmyra" />
>>>>>>> e1d4bc35ff8a6074a6f2e91616a996b547c36f15
		<tag k="natural" v="wetland" />
		<tag k="ssr:stedsnr" v="472167" />
	</node>
<<<<<<< HEAD
	<node lat="69.10704450300081" lon="29.130634651422554" id="-40026">
		<tag k="alt_name:no" v="Kjeldemyra" />
		<tag k="name" v="Kildemyra - Kaltiojänkä" />
		<tag k="name:fkv" v="Kaltiojänkä" />
		<tag k="name:no" v="Kildemyra" />
		<tag k="natural" v="wetland" />
		<tag k="old_name:fkv" v="Galdiåjænge" />
		<tag k="ssr:stedsnr" v="503003" />
	</node>
	<node lat="69.59513616144852" lon="29.224784762233874" id="-40032">
		<tag k="name" v="Čáhppesrokkejeaggi" />
		<tag k="name:se" v="Čáhppesrokkejeaggi" />
		<tag k="natural" v="wetland" />
		<tag k="old_name:se" v="Čappersråggejæggi" />
		<tag k="ssr:stedsnr" v="504020" />
	</node>
	<node lat="69.85361671001986" lon="29.352748664380922" id="-40040">
		<tag k="name" v="Ellenjárjeaggi" />
		<tag k="name:se" v="Ellenjárjeaggi" />
		<tag k="natural" v="wetland" />
		<tag k="old_name:se" v="Ellenjarjæggi" />
		<tag k="ssr:stedsnr" v="504104" />
	</node>
	<node lat="69.62676674132399" lon="30.110923114991817" id="-40091">
		<tag k="name" v="Rundmyra" />
		<tag k="natural" v="wetland" />
		<tag k="ssr:stedsnr" v="530320" />
	</node>
	<node lat="69.19075006023417" lon="29.10354024536917" id="-40122">
		<tag k="name" v="Langmyra - Pitkäjänkä" />
		<tag k="name:fkv" v="Pitkäjänkä" />
		<tag k="name:no" v="Langmyra" />
=======
	<node id="-919094" lat="69.4375417419" lon="29.9042037229">
		<tag k="name" v="Skrotnesmyran - Roskaniemijänkä" />
		<tag k="name:fkv" v="Roskaniemijänkä" />
		<tag k="name:no" v="Skrotnesmyran" />
		<tag k="natural" v="wetland" />
		<tag k="ssr:stedsnr" v="443927" />
	</node>
	<node id="-919602" lat="69.6525028432" lon="30.0248648613">
		<tag k="landuse" v="quarry" />
		<tag k="name" v="Bjørnevatn gruver" />
		<tag k="ssr:stedsnr" v="687779" />
	</node>
	<node id="-919088" lat="69.4517222878" lon="29.7452094004">
		<tag k="fixme" v="multiple name tags, choose one and add the other to alt_name" />
		<tag k="name" v="Sametimyra - Sámetjeaggi - Samettijängät;Samettiaapa" />
		<tag k="name:fkv" v="Samettijängät;Samettiaapa" />
		<tag k="name:no" v="Sametimyra" />
		<tag k="name:se" v="Sámetjeaggi" />
		<tag k="natural" v="wetland" />
		<tag k="old_name:se" v="Sametjæggi" />
		<tag k="ssr:stedsnr" v="443899" />
	</node>
	<node id="-919645" lat="69.685727829" lon="29.2044320229">
		<tag k="name" v="Bøttemyra - Eabbarašjeaggi" />
		<tag k="name:no" v="Bøttemyra" />
		<tag k="name:se" v="Eabbarašjeaggi" />
		<tag k="natural" v="wetland" />
		<tag k="old_name:se" v="Æbbarašjæggi" />
		<tag k="ssr:stedsnr" v="564014" />
	</node>
	<node id="-921132" lat="69.413977849" lon="29.7743399182">
		<tag k="landuse" v="meadow" />
		<tag k="name" v="Nygård" />
		<tag k="ssr:stedsnr" v="411714" />
	</node>
	<node id="-920619" lat="69.6879556053" lon="29.5239901826">
		<tag k="landuse" v="meadow" />
		<tag k="name" v="Lundvik" />
		<tag k="ssr:stedsnr" v="168228" />
	</node>
	<node id="-921129" lat="69.6156278421" lon="29.9685620957">
		<tag k="name" v="Bjørnemyra" />
>>>>>>> e1d4bc35ff8a6074a6f2e91616a996b547c36f15
		<tag k="natural" v="wetland" />
		<tag k="old_name:fkv" v="Bitkæjænge" />
		<tag k="ssr:stedsnr" v="686772" />
	</node>
	<node lat="69.20103062129387" lon="29.228120725342094" id="-40123">
		<tag k="name" v="Knivsteinen" />
		<tag k="natural" v="stone" />
		<tag k="ssr:stedsnr" v="686774" />
	</node>
<<<<<<< HEAD
	<node lat="69.43138340274565" lon="29.81298988751464" id="-40137">
		<tag k="name" v="Mosemyra" />
=======
	<node id="-919077" lat="69.5436528678" lon="30.6180976736">
		<tag k="fixme" v="multiple name tags, choose one and add the other to alt_name" />
		<tag k="name" v="Tardenmyran;Tordenmyra" />
>>>>>>> e1d4bc35ff8a6074a6f2e91616a996b547c36f15
		<tag k="natural" v="wetland" />
		<tag k="ssr:stedsnr" v="686909" />
	</node>
<<<<<<< HEAD
	<node lat="69.53433062036892" lon="29.911173210482982" id="-40160">
=======
	<node id="-919588" lat="69.5343306204" lon="29.9111732105">
>>>>>>> e1d4bc35ff8a6074a6f2e91616a996b547c36f15
		<tag k="alt_name:no" v="Reinmosemyran" />
		<tag k="name" v="Mosemyra - Jäkäläjänkkä" />
		<tag k="name:fkv" v="Jäkäläjänkkä" />
		<tag k="name:no" v="Mosemyra" />
		<tag k="natural" v="wetland" />
		<tag k="old_name:fkv" v="Jægælæjænkæ" />
		<tag k="ssr:stedsnr" v="687183" />
	</node>
<<<<<<< HEAD
	<node lat="69.65250284322413" lon="30.024864861327792" id="-40164">
		<tag k="landuse" v="quarry" />
		<tag k="name" v="Bjørnevatn gruver" />
		<tag k="ssr:stedsnr" v="687779" />
	</node>
	<node lat="69.67618617707096" lon="30.153764775314475" id="-40199">
		<tag k="name" v="Karikoskimyra" />
=======
	<node id="-920099" lat="69.8233833962" lon="30.2163370243">
		<tag k="name" v="Austerskogen" />
		<tag k="place" v="locality" />
		<tag k="ssr:stedsnr" v="930106" />
	</node>
	<node id="-921122" lat="69.7464500482" lon="29.2796042177">
		<tag k="name" v="Bogijeaggi" />
		<tag k="name:se" v="Bogijeaggi" />
>>>>>>> e1d4bc35ff8a6074a6f2e91616a996b547c36f15
		<tag k="natural" v="wetland" />
		<tag k="ssr:stedsnr" v="693649" />
	</node>
<<<<<<< HEAD
	<node lat="69.70614449063561" lon="29.096293203632705" id="-40222">
		<tag k="name" v="Esipuu" />
		<tag k="name:fkv" v="Esipuu" />
		<tag k="place" v="locality" />
		<tag k="ssr:stedsnr" v="592316" />
	</node>
	<node lat="69.5354056292074" lon="30.122256393775135" id="-40225">
		<tag k="name" v="Sumpmyra" />
=======
	<node id="-919067" lat="69.2166694982" lon="29.0912152582">
		<tag k="name" v="Kallebrann" />
		<tag k="place" v="locality" />
		<tag k="ssr:stedsnr" v="443727" />
	</node>
	<node id="-920088" lat="69.7376278495" lon="30.1674286875">
		<tag k="name" v="Stormyra" />
		<tag k="natural" v="wetland" />
		<tag k="ssr:stedsnr" v="929206" />
	</node>
	<node id="-919061" lat="69.632205609" lon="29.3410847206">
		<tag k="name" v="Nurmikkojänkä" />
		<tag k="name:fkv" v="Nurmikkojänkä" />
>>>>>>> e1d4bc35ff8a6074a6f2e91616a996b547c36f15
		<tag k="natural" v="wetland" />
		<tag k="ssr:stedsnr" v="593302" />
	</node>
<<<<<<< HEAD
	<node lat="69.12385006104792" lon="29.080134676749054" id="-40242">
		<tag k="name" v="Rømlingmyra - Karkulausjänkä" />
		<tag k="name:fkv" v="Karkulausjänkä" />
		<tag k="name:no" v="Rømlingmyra" />
=======
	<node id="-921615" lat="69.5822083983" lon="29.9745731987">
		<tag k="name" v="Rimpijänkkä" />
		<tag k="name:fkv" v="Rimpijänkkä" />
>>>>>>> e1d4bc35ff8a6074a6f2e91616a996b547c36f15
		<tag k="natural" v="wetland" />
		<tag k="ssr:stedsnr" v="625012" />
	</node>
<<<<<<< HEAD
	<node lat="69.49256118301722" lon="29.924703744285104" id="-40245">
		<tag k="name" v="Ytremyra" />
=======
	<node id="-919054" lat="69.5873667422" lon="30.1489480662">
		<tag k="name" v="Engebretmyra" />
>>>>>>> e1d4bc35ff8a6074a6f2e91616a996b547c36f15
		<tag k="natural" v="wetland" />
		<tag k="ssr:stedsnr" v="625091" />
	</node>
<<<<<<< HEAD
	<node lat="69.81531672187498" lon="29.824465046184656" id="-40251">
		<tag k="name" v="Ruoššavuonjeaggi" />
		<tag k="name:se" v="Ruoššavuonjeaggi" />
=======
	<node id="-920077" lat="69.4687639622" lon="29.9210981871">
		<tag k="name" v="Henrikmyran - Heikinjänkä" />
		<tag k="name:fkv" v="Heikinjänkä" />
		<tag k="name:no" v="Henrikmyran" />
>>>>>>> e1d4bc35ff8a6074a6f2e91616a996b547c36f15
		<tag k="natural" v="wetland" />
		<tag k="old_name:se" v="Ruoššavuonjæggi" />
		<tag k="ssr:stedsnr" v="626011" />
	</node>
<<<<<<< HEAD
	<node lat="69.04487783987634" lon="29.010493028227224" id="-40307">
		<tag k="name" v="Saarimaajänkä" />
		<tag k="name:fkv" v="Saarimaajänkä" />
=======
	<node id="-919564" lat="69.4313834027" lon="29.8129898875">
		<tag k="name" v="Mosemyra" />
>>>>>>> e1d4bc35ff8a6074a6f2e91616a996b547c36f15
		<tag k="natural" v="wetland" />
		<tag k="old_name:fkv" v="Sarimajænge;Sarimajænkæ" />
		<tag k="ssr:stedsnr" v="686102" />
	</node>
<<<<<<< HEAD
	<node lat="69.54176951985856" lon="30.15133971838383" id="-40358">
		<tag k="name" v="Holmfossmyra" />
		<tag k="natural" v="wetland" />
		<tag k="ssr:stedsnr" v="895287" />
	</node>
	<node lat="69.63753894420259" lon="29.39985689184081" id="-40372">
		<tag k="name" v="Syvänkurunjänkä" />
		<tag k="name:fkv" v="Syvänkurunjänkä" />
		<tag k="natural" v="wetland" />
		<tag k="ssr:stedsnr" v="897234" />
	</node>
	<node lat="69.46876396220485" lon="29.92109818710831" id="-40382">
		<tag k="name" v="Henrikmyran - Heikinjänkä" />
		<tag k="name:fkv" v="Heikinjänkä" />
		<tag k="name:no" v="Henrikmyran" />
		<tag k="natural" v="wetland" />
		<tag k="ssr:stedsnr" v="897461" />
	</node>
	<node lat="69.81140839246768" lon="29.802673412165838" id="-40400">
		<tag k="landuse" v="meadow" />
		<tag k="name" v="Nordeng" />
		<tag k="ssr:stedsnr" v="714483" />
	</node>
	<node lat="69.68849727203548" lon="29.167248722825814" id="-40464">
		<tag k="name" v="Nuorttijänkä" />
		<tag k="name:fkv" v="Nuorttijänkä" />
		<tag k="natural" v="wetland" />
		<tag k="ssr:stedsnr" v="774322" />
	</node>
	<node lat="69.96293060467241" lon="29.628509667616388" id="-40484">
		<tag k="name" v="Pipolamyra" />
		<tag k="natural" v="wetland" />
		<tag k="ssr:stedsnr" v="822109" />
	</node>
	<node lat="69.6049278297472" lon="29.2474958724386" id="-40524">
		<tag k="name" v="Svartdalsmyra" />
		<tag k="natural" v="wetland" />
		<tag k="ssr:stedsnr" v="929015" />
	</node>
	<node lat="69.59858893851904" lon="29.285409729017776" id="-40525">
		<tag k="name" v="Biehkanjeaggi" />
		<tag k="name:se" v="Biehkanjeaggi" />
		<tag k="natural" v="wetland" />
		<tag k="old_name:se" v="Biekkanjæggi" />
		<tag k="ssr:stedsnr" v="929017" />
	</node>
=======
>>>>>>> e1d4bc35ff8a6074a6f2e91616a996b547c36f15
</osm>
