<?xml version="1.0" encoding="UTF-8"?>
<osm version="0.6" generator="osmapis">
	<node lat="69.49971951241561" lon="30.00117869875278" id="-105302">
		<tag k="fixme" v="consider highway=path" />
		<tag k="highway" v="track" />
		<tag k="name" v="Veståsvegen" />
		<tag k="ssr:stedsnr" v="47490" />
	</node>
	<node lat="69.47348618147632" lon="29.87135099127907" id="-105360">
		<tag k="junction" v="yes" />
		<tag k="name" v="Kaivokrysset" />
		<tag k="place" v="locality" />
		<tag k="ssr:stedsnr" v="108505" />
	</node>
	<node lat="69.39944451908474" lon="29.78760378951552" id="-105418">
		<tag k="landuse" v="industrial" />
		<tag k="name" v="Melkefoss kraftverk" />
		<tag k="power" v="plant" />
		<tag k="ssr:stedsnr" v="163106" />
	</node>
	<node lat="69.67194173330181" lon="29.955717680097486" id="-105767">
		<tag k="junction" v="yes" />
		<tag k="name" v="Sandneskrysset" />
		<tag k="place" v="locality" />
		<tag k="ssr:stedsnr" v="397835" />
	</node>
	<node lat="69.41265285038655" lon="29.77916769277403" id="-105796">
		<tag k="junction" v="yes" />
		<tag k="name" v="Melkefosskrysset" />
		<tag k="place" v="locality" />
		<tag k="ssr:stedsnr" v="443931" />
	</node>
	<node lat="69.50893618228841" lon="30.08864530126971" id="-105831">
		<tag k="junction" v="yes" />
		<tag k="name" v="Rødsandkrysset" />
		<tag k="place" v="locality" />
		<tag k="ssr:stedsnr" v="471267" />
	</node>
	<node lat="69.4480972997208" lon="29.989289780954675" id="-105928">
		<tag k="highway" v="path" />
		<tag k="name" v="Olasundreika" />
		<tag k="ssr:stedsnr" v="532512" />
	</node>
	<node lat="69.68740839985558" lon="30.00465376274978" id="-106051">
		<tag k="junction" v="yes" />
		<tag k="name" v="Bjørkheimkrysset" />
		<tag k="place" v="locality" />
		<tag k="ssr:stedsnr" v="701843" />
	</node>
	<node lat="69.3728111758051" lon="29.6938093917588" id="-106094">
		<tag k="landuse" v="industrial" />
		<tag k="name" v="Skogfoss kraftverk" />
		<tag k="power" v="plant" />
		<tag k="ssr:stedsnr" v="648403" />
	</node>
	<node lat="69.72597311167304" lon="29.894442482596357" id="-106163">
		<tag k="aeroway" v="aerodrome" />
		<tag k="alt_name:no" v="Høybuktmoen" />
		<tag k="name" v="Kirkenes lufthavn" />
		<tag k="name:fkv" v="Kirkkoniemen lentohamina" />
		<tag k="name:no" v="Kirkenes lufthavn" />
		<tag k="name:se" v="Girkonjárgga girdihámman" />
		<tag k="ssr:stedsnr" v="692507" />
	</node>
	<node lat="69.56495006975514" lon="30.075642543461665" id="-106263">
		<tag k="junction" v="yes" />
		<tag k="name" v="Brattlikrysset" />
		<tag k="place" v="locality" />
		<tag k="ssr:stedsnr" v="756515" />
	</node>
	<node lat="69.70079552041982" lon="29.928062974743757" id="-106675">
		<tag k="bridge" v="yes" />
		<tag k="layer" v="1" />
		<tag k="loc_name:fkv" v="Virransilta" />
		<tag k="loc_name:se" v="Rivnnjišaldi" />
		<tag k="name" v="Strømmen bru" />
		<tag k="name:no" v="Strømmen bru" />
		<tag k="ssr:stedsnr" v="25548" />
	</node>
	<node lat="69.69588894087148" lon="29.377026368380687" id="-106840">
		<tag k="junction" v="yes" />
		<tag k="name" v="Nedre Neiden veidele" />
		<tag k="place" v="locality" />
		<tag k="ssr:stedsnr" v="95339" />
	</node>
	<node lat="69.6657500659234" lon="30.06134261878423" id="-106842">
		<tag k="highway" v="path" />
		<tag k="name" v="Sukkerstien" />
		<tag k="ssr:stedsnr" v="104298" />
	</node>
	<node lat="69.68407227621275" lon="29.41445967519222" id="-107111">
		<tag k="junction" v="yes" />
		<tag k="name" v="Bordevarri-krysset" />
		<tag k="place" v="locality" />
		<tag k="ssr:stedsnr" v="216052" />
	</node>
	<node lat="69.72057506849849" lon="30.03624821607891" id="-107114">
		<tag k="amenity" v="parking" />
		<tag k="name" v="Lokstallen" />
		<tag k="ssr:stedsnr" v="216483" />
	</node>
	<node lat="69.69280004851443" lon="29.417084680102377" id="-107426">
		<tag k="junction" v="yes" />
		<tag k="name" v="Arvolakrysset" />
		<tag k="place" v="locality" />
		<tag k="ssr:stedsnr" v="397517" />
	</node>
	<node lat="69.49738618495475" lon="29.98697314917937" id="-107461">
		<tag k="fixme" v="consider highway=path" />
		<tag k="highway" v="track" />
		<tag k="name" v="Fellesvegen" />
		<tag k="ssr:stedsnr" v="411480" />
	</node>
	<node lat="69.70257783075934" lon="29.365481954097334" id="-107683">
		<tag k="junction" v="yes" />
		<tag k="name" v="Øvre Neiden veidele" />
		<tag k="place" v="locality" />
		<tag k="ssr:stedsnr" v="519422" />
	</node>
	<node lat="69.69307168447715" lon="29.370954947997706" id="-107991">
		<tag k="bridge" v="yes" />
		<tag k="layer" v="1" />
		<tag k="name" v="Neiden bru" />
		<tag k="ssr:stedsnr" v="640460" />
	</node>
	<node lat="69.72620006647168" lon="30.06918707825741" id="-107993">
		<tag k="landuse" v="harbour" />
		<tag k="name" v="Småbåthamna" />
		<tag k="seamark:type" v="harbour" />
		<tag k="ssr:stedsnr" v="640363" />
	</node>
	<node lat="69.66266394910238" lon="29.965892683662425" id="-107996">
		<tag k="junction" v="yes" />
		<tag k="name" v="Håpet" />
		<tag k="place" v="locality" />
		<tag k="ssr:stedsnr" v="640760" />
	</node>
	<node lat="69.69741676208943" lon="30.016757456351385" id="-108189">
		<tag k="bridge" v="yes" />
		<tag k="layer" v="1" />
		<tag k="name" v="Tangen bru" />
		<tag k="ssr:stedsnr" v="761880" />
	</node>
	<node lat="69.62670840153079" lon="29.957198230147828" id="-108215">
		<tag k="fixme" v="consider highway=path" />
		<tag k="highway" v="track" />
		<tag k="name" v="Lundvegen" />
		<tag k="ssr:stedsnr" v="775535" />
	</node>
	<node lat="69.68756951095347" lon="29.988198228625603" id="-108501">
		<tag k="junction" v="yes" />
		<tag k="name" v="Hessengkrysset" />
		<tag k="place" v="locality" />
		<tag k="ssr:stedsnr" v="883883" />
	</node>
	<node lat="69.5018945190147" lon="30.006145357655132" id="-108542">
		<tag k="junction" v="yes" />
		<tag k="name" v="Ryengkrysset" />
		<tag k="place" v="locality" />
		<tag k="ssr:stedsnr" v="957567" />
	</node>
</osm>
