<?xml version="1.0" encoding="UTF-8"?>
<osm version="0.6" generator="osmapis">
	<node lat="69.39025561907391" lon="29.719337174744286" id="-44530">
		<tag k="name" v="Vidjedal" />
		<tag k="place" v="farm" />
		<tag k="ssr:stedsnr" v="229941" />
	</node>
	<node lat="69.88429171619828" lon="29.404998655505953" id="-44531">
		<tag k="name" v="Sopnes" />
		<tag k="place" v="isolated_dwelling" />
		<tag k="ssr:stedsnr" v="231801" />
	</node>
	<node lat="69.7018972781758" lon="29.403012475837688" id="-44542">
		<tag k="alt_name" v="Sannæs" />
		<tag k="name" v="Sandnes" />
		<tag k="place" v="farm" />
		<tag k="ssr:stedsnr" v="19001" />
	</node>
	<node lat="69.68702504808084" lon="29.382434695031385" id="-44545">
		<tag k="alt_name" v="Neiden, in" />
		<tag k="name" v="Indre Neiden" />
		<tag k="place" v="hamlet" />
		<tag k="ssr:stedsnr" v="19004" />
	</node>
	<node lat="69.70066671790399" lon="29.44784023409054" id="-44558">
		<tag k="name" v="Nedre Næs" />
		<tag k="place" v="farm" />
		<tag k="ssr:stedsnr" v="33018" />
	</node>
	<node lat="69.70120005450548" lon="29.450148564164028" id="-44559">
		<tag k="name" v="Vidjenæs" />
		<tag k="place" v="farm" />
		<tag k="ssr:stedsnr" v="33022" />
	</node>
	<node lat="69.68713340714955" lon="30.458483993534134" id="-44565">
		<tag k="name" v="Stenli" />
		<tag k="place" v="farm" />
		<tag k="ssr:stedsnr" v="46086" />
	</node>
	<node lat="69.41930284874168" lon="29.986512005050812" id="-44573">
		<tag k="name" v="Kariheimen" />
		<tag k="place" v="farm" />
		<tag k="ssr:stedsnr" v="47502" />
	</node>
	<node lat="69.809425057852" lon="29.80373451334824" id="-44574">
		<tag k="name" v="Søreng" />
		<tag k="place" v="isolated_dwelling" />
		<tag k="ssr:stedsnr" v="47508" />
	</node>
	<node lat="69.47740500625802" lon="29.980030248265916" id="-44575">
		<tag k="name" v="Sverregård" />
		<tag k="place" v="farm" />
		<tag k="ssr:stedsnr" v="47479" />
	</node>
	<node lat="69.41504729531738" lon="29.799984349591792" id="-44577">
		<tag k="name" v="Huldreheimen" />
		<tag k="place" v="farm" />
		<tag k="ssr:stedsnr" v="47710" />
	</node>
	<node lat="69.44572507914225" lon="30.050581407329023" id="-44580">
		<tag k="name" v="Utnes - Ulkoniemi" />
		<tag k="name:fkv" v="Ulkoniemi" />
		<tag k="name:no" v="Utnes" />
		<tag k="place" v="hamlet" />
		<tag k="ssr:stedsnr" v="241224" />
	</node>
	<node lat="69.51082507032336" lon="30.091503629495012" id="-44583">
		<tag k="alt_name" v="Bergslåttan" />
		<tag k="name" v="Bergslåtten" />
		<tag k="place" v="farm" />
		<tag k="ssr:stedsnr" v="79804" />
	</node>
	<node lat="69.50539174472756" lon="30.091014732585087" id="-44584">
		<tag k="name" v="Bjørkheim" />
		<tag k="place" v="farm" />
		<tag k="ssr:stedsnr" v="79808" />
	</node>
	<node lat="69.96774449290915" lon="29.642881896655602" id="-44620">
		<tag k="fixme" v="consider place=hamlet" />
		<tag k="name" v="Pipola" />
		<tag k="place" v="village" />
		<tag k="ssr:stedsnr" v="94124" />
	</node>
	<node lat="69.44470007538223" lon="29.999570334823016" id="-44621">
		<tag k="alt_name" v="Andnes" />
		<tag k="name" v="Andsnes" />
		<tag k="place" v="farm" />
		<tag k="ssr:stedsnr" v="94289" />
	</node>
	<node lat="69.66380563188129" lon="30.358614634251243" id="-44626">
		<tag k="name" v="Nordmo" />
		<tag k="place" v="farm" />
		<tag k="ssr:stedsnr" v="106483" />
	</node>
	<node lat="69.67096396214485" lon="30.351459063038888" id="-44627">
		<tag k="name" v="Langnes" />
		<tag k="place" v="farm" />
		<tag k="ssr:stedsnr" v="106493" />
	</node>
	<node lat="69.70769449730358" lon="29.518637418163383" id="-44628">
		<tag k="name" v="Sandmoen" />
		<tag k="place" v="farm" />
		<tag k="ssr:stedsnr" v="107199" />
	</node>
	<node lat="69.78682508490621" lon="30.799125461544094" id="-44629">
		<tag k="name" v="Lillesand" />
		<tag k="place" v="locality" />
		<tag k="ssr:stedsnr" v="108125" />
	</node>
	<node lat="69.85155004237019" lon="29.374390320431093" id="-44631">
		<tag k="name" v="Nedre Rynes" />
		<tag k="place" v="farm" />
		<tag k="ssr:stedsnr" v="108207" />
	</node>
	<node lat="69.85013893715201" lon="29.367179209998216" id="-44632">
		<tag k="name" v="Øvre Rynes" />
		<tag k="place" v="farm" />
		<tag k="ssr:stedsnr" v="108210" />
	</node>
	<node lat="69.23245005814627" lon="29.1606207846326" id="-44643">
		<tag k="name" v="Steinbekken" />
		<tag k="place" v="farm" />
		<tag k="ssr:stedsnr" v="139736" />
	</node>
	<node lat="69.20871673160823" lon="29.26406516934911" id="-44648">
		<tag k="name" v="Solvang" />
		<tag k="place" v="isolated_dwelling" />
		<tag k="ssr:stedsnr" v="139788" />
	</node>
	<node lat="69.58590562353898" lon="29.93775654808227" id="-44652">
		<tag k="name" v="Heggdal" />
		<tag k="place" v="farm" />
		<tag k="ssr:stedsnr" v="140137" />
	</node>
	<node lat="69.59000006970435" lon="30.15357306429377" id="-44654">
		<tag k="alt_name" v="Tølleivheimen;Tøllefheimen" />
		<tag k="name" v="Tøllevheimen" />
		<tag k="place" v="farm" />
		<tag k="ssr:stedsnr" v="139836" />
	</node>
	<node lat="69.44321951867737" lon="29.871850976697566" id="-44655">
		<tag k="name" v="Øverli" />
		<tag k="place" v="isolated_dwelling" />
		<tag k="ssr:stedsnr" v="139897" />
	</node>
	<node lat="69.67348572291357" lon="29.909092452695905" id="-44658">
		<tag k="name" v="Berg" />
		<tag k="place" v="farm" />
		<tag k="ssr:stedsnr" v="140091" />
	</node>
	<node lat="69.77952784343276" lon="30.202420337091194" id="-44661">
		<tag k="alt_name" v="Ropelv, l" />
		<tag k="name" v="Lille Ropelv" />
		<tag k="place" v="hamlet" />
		<tag k="ssr:stedsnr" v="140097" />
	</node>
	<node lat="69.67746117949005" lon="30.16641754433318" id="-44680">
		<tag k="alt_name" v="Siljelund" />
		<tag k="name" v="Seljelund" />
		<tag k="place" v="farm" />
		<tag k="ssr:stedsnr" v="146614" />
	</node>
	<node lat="69.68151951551036" lon="30.15803976550999" id="-44681">
		<tag k="name" v="Fjeldly" />
		<tag k="place" v="farm" />
		<tag k="ssr:stedsnr" v="146619" />
	</node>
	<node lat="69.65443341220085" lon="30.411750678911453" id="-44682">
		<tag k="name" v="Kulpmo" />
		<tag k="old_name" v="Kulpmoen" />
		<tag k="place" v="farm" />
		<tag k="ssr:stedsnr" v="147159" />
	</node>
	<node lat="69.66044173738189" lon="30.206500852845046" id="-44683">
		<tag k="name" v="Storskog - Stuorravuovdi" />
		<tag k="name:no" v="Storskog" />
		<tag k="name:se" v="Stuorravuovdi" />
		<tag k="place" v="hamlet" />
		<tag k="ssr:stedsnr" v="147169" />
	</node>
	<node lat="69.64847227354555" lon="29.4609902004695" id="-44688">
		<tag k="name" v="Sandheimen" />
		<tag k="place" v="farm" />
		<tag k="ssr:stedsnr" v="155417" />
	</node>
	<node lat="69.72897506944177" lon="30.05890097101762" id="-44690">
		<tag k="name" v="Saga" />
		<tag k="place" v="quarter" />
		<tag k="ssr:stedsnr" v="155309" />
	</node>
	<node lat="69.70033893789748" lon="29.343065297333634" id="-44691">
		<tag k="name" v="Midtgård" />
		<tag k="place" v="farm" />
		<tag k="ssr:stedsnr" v="155387" />
	</node>
	<node lat="69.66778063260274" lon="30.30001189263105" id="-44694">
		<tag k="amenity" v="cafe" />
		<tag k="name" v="Karistua" />
		<tag k="ssr:stedsnr" v="166505" />
	</node>
	<node lat="69.37745284811338" lon="29.69714829683774" id="-44698">
		<tag k="name" v="Skogtun" />
		<tag k="place" v="farm" />
		<tag k="ssr:stedsnr" v="168066" />
	</node>
	<node lat="69.53472784975133" lon="30.151559143862062" id="-44701">
		<tag k="name" v="Fossgård" />
		<tag k="place" v="farm" />
		<tag k="ssr:stedsnr" v="168272" />
	</node>
	<node lat="69.38486673497117" lon="29.703934394640793" id="-44704">
		<tag k="name" v="Sommerro" />
		<tag k="place" v="farm" />
		<tag k="ssr:stedsnr" v="168955" />
	</node>
	<node lat="69.74439727611804" lon="29.76249562005704" id="-44706">
		<tag k="name" v="Luŋkos" />
		<tag k="name:se" v="Luŋkos" />
		<tag k="old_name:se" v="Juŋkos" />
		<tag k="place" v="isolated_dwelling" />
		<tag k="ssr:stedsnr" v="261051" />
	</node>
	<node lat="69.75399142580726" lon="29.60608160633722" id="-44750">
		<tag k="name" v="Braselv - Guolleveadji" />
		<tag k="name:no" v="Braselv" />
		<tag k="name:se" v="Guolleveadji" />
		<tag k="old_name:se" v="Guollevæddji" />
		<tag k="place" v="farm" />
		<tag k="ssr:stedsnr" v="262059" />
	</node>
	<node lat="69.47186674576379" lon="30.0932341724913" id="-44754">
		<tag k="name" v="Orestad" />
		<tag k="place" v="farm" />
		<tag k="ssr:stedsnr" v="261975" />
	</node>
	<node lat="69.47429729881819" lon="30.01305368176381" id="-44756">
		<tag k="name" v="Bakkeslett" />
		<tag k="place" v="farm" />
		<tag k="ssr:stedsnr" v="261979" />
	</node>
	<node lat="69.46969452432056" lon="30.104014706673848" id="-44757">
		<tag k="name" v="Bjerke" />
		<tag k="place" v="farm" />
		<tag k="ssr:stedsnr" v="261991" />
	</node>
	<node lat="69.69770283337974" lon="29.47721244035841" id="-44760">
		<tag k="alt_name" v="Elvebugten" />
		<tag k="name" v="Elvebukt" />
		<tag k="place" v="farm" />
		<tag k="ssr:stedsnr" v="262076" />
	</node>
	<node lat="69.50618062695912" lon="29.980062051123372" id="-44770">
		<tag k="name" v="Alstad" />
		<tag k="place" v="locality" />
		<tag k="ssr:stedsnr" v="262209" />
	</node>
	<node lat="69.8986167236228" lon="29.897145609408113" id="-44771">
		<tag k="name" v="Skogerøyværet - Skuvgit" />
		<tag k="name:no" v="Skogerøyværet" />
		<tag k="name:se" v="Skuvgit" />
		<tag k="place" v="isolated_dwelling" />
		<tag k="ssr:stedsnr" v="262217" />
	</node>
	<node lat="69.1535028343219" lon="29.116698569193087" id="-44790">
		<tag k="name" v="Gjøkvasskoia - Giehkajárstohpu" />
		<tag k="name:no" v="Gjøkvasskoia" />
		<tag k="name:se" v="Giehkajárstohpu" />
		<tag k="place" v="isolated_dwelling" />
		<tag k="ssr:stedsnr" v="200061" />
	</node>
	<node lat="69.43749728746698" lon="29.85400376922976" id="-44794">
		<tag k="name" v="Fredvang" />
		<tag k="place" v="farm" />
		<tag k="ssr:stedsnr" v="200917" />
	</node>
	<node lat="69.50072785218478" lon="30.042378676292653" id="-44795">
		<tag k="name" v="Furulund" />
		<tag k="place" v="farm" />
		<tag k="ssr:stedsnr" v="200897" />
	</node>
	<node lat="69.71210283391503" lon="29.64616788713148" id="-44797">
		<tag k="name" v="Stonga" />
		<tag k="place" v="farm" />
		<tag k="ssr:stedsnr" v="201055" />
	</node>
	<node lat="69.7135389629159" lon="30.443645132085802" id="-44801">
		<tag k="name" v="Sætra" />
		<tag k="place" v="isolated_dwelling" />
		<tag k="ssr:stedsnr" v="201207" />
	</node>
	<node lat="69.85644448773495" lon="29.42837085380014" id="-44804">
		<tag k="name" v="Vággi" />
		<tag k="name:se" v="Vággi" />
		<tag k="old_name:se" v="Vaggi" />
		<tag k="place" v="hamlet" />
		<tag k="ssr:stedsnr" v="201110" />
	</node>
	<node lat="69.7365445066313" lon="30.02806488534373" id="-44820">
		<tag k="name" v="Bergli" />
		<tag k="place" v="farm" />
		<tag k="ssr:stedsnr" v="267521" />
	</node>
	<node lat="69.50978062576749" lon="29.974992599192067" id="-44824">
		<tag k="name" v="Vidjelund" />
		<tag k="place" v="farm" />
		<tag k="ssr:stedsnr" v="202200" />
	</node>
	<node lat="69.50857229050104" lon="29.99265924938219" id="-44825">
		<tag k="alt_name" v="Ryengen" />
		<tag k="name" v="Ryeng" />
		<tag k="place" v="farm" />
		<tag k="ssr:stedsnr" v="202212" />
	</node>
	<node lat="69.69557783282195" lon="29.446584685624913" id="-44837">
		<tag k="name" v="Dypdal" />
		<tag k="place" v="locality" />
		<tag k="ssr:stedsnr" v="216010" />
	</node>
	<node lat="69.6887500478859" lon="29.37480416055634" id="-44838">
		<tag k="fixme" v="consider place=hamlet" />
		<tag k="name" v="Skoltebyen - Sää'msijdd - Kolttakylä" />
		<tag k="name:fkv" v="Kolttakylä" />
		<tag k="name:no" v="Skoltebyen" />
		<tag k="name:se" v="Sää'msijdd" />
		<tag k="place" v="village" />
		<tag k="ssr:stedsnr" v="216389" />
	</node>
	<node lat="69.70776672252624" lon="29.636059573378812" id="-44852">
		<tag k="name" v="Søndre Stonga" />
		<tag k="place" v="farm" />
		<tag k="ssr:stedsnr" v="229079" />
	</node>
	<node lat="69.73157785587236" lon="30.46577569087987" id="-44853">
		<tag k="name" v="Løkland" />
		<tag k="place" v="farm" />
		<tag k="ssr:stedsnr" v="229238" />
	</node>
	<node lat="69.42423618466019" lon="29.85153153919217" id="-44855">
		<tag k="name" v="Myrslett" />
		<tag k="place" v="farm" />
		<tag k="ssr:stedsnr" v="229736" />
	</node>
	<node lat="69.73937227742454" lon="29.714312319027712" id="-44861">
		<tag k="name" v="Dalen" />
		<tag k="place" v="isolated_dwelling" />
		<tag k="ssr:stedsnr" v="453691" />
	</node>
	<node lat="69.20098894807595" lon="29.147954110059917" id="-44870">
		<tag k="name" v="Kveldro" />
		<tag k="place" v="farm" />
		<tag k="ssr:stedsnr" v="261757" />
	</node>
	<node lat="69.4336167395408" lon="29.99339255492773" id="-44872">
		<tag k="fixme" v="multiple name tags, choose one and add the other to alt_name" />
		<tag k="name" v="Laugen;Granås" />
		<tag k="place" v="farm" />
		<tag k="ssr:stedsnr" v="261900" />
	</node>
	<node lat="69.44489174297216" lon="30.05176752997827" id="-44877">
		<tag k="name" v="Utnes" />
		<tag k="place" v="isolated_dwelling" />
		<tag k="ssr:stedsnr" v="261995" />
	</node>
	<node lat="69.47443063238985" lon="30.012198116352582" id="-44894">
		<tag k="name" v="Åsheim" />
		<tag k="place" v="farm" />
		<tag k="ssr:stedsnr" v="458283" />
	</node>
	<node lat="69.73763062219938" lon="30.111714826212634" id="-44896">
		<tag k="name" v="Nilsheim" />
		<tag k="place" v="farm" />
		<tag k="ssr:stedsnr" v="267542" />
	</node>
	<node lat="69.6761139599007" lon="30.1479342162368" id="-44898">
		<tag k="name" v="Myrdal" />
		<tag k="place" v="farm" />
		<tag k="ssr:stedsnr" v="268633" />
	</node>
	<node lat="69.6794084016581" lon="30.16128699171787" id="-44899">
		<tag k="name" v="Svartli" />
		<tag k="place" v="locality" />
		<tag k="ssr:stedsnr" v="268636" />
	</node>
	<node lat="69.67261117594059" lon="29.96253158395227" id="-44900">
		<tag k="name" v="Malmgrenjordet" />
		<tag k="place" v="quarter" />
		<tag k="ssr:stedsnr" v="458624" />
	</node>
	<node lat="69.8978864143113" lon="29.797694991921137" id="-44912">
		<tag k="name" v="Laksfiskebuer" />
		<tag k="place" v="locality" />
		<tag k="ssr:stedsnr" v="291934" />
	</node>
	<node lat="69.53578618409296" lon="30.10643697383947" id="-44932">
		<tag k="name" v="Nordvik" />
		<tag k="place" v="farm" />
		<tag k="ssr:stedsnr" v="322805" />
	</node>
	<node lat="69.44140007538324" lon="29.997220329630597" id="-44937">
		<tag k="name" v="Dalheim" />
		<tag k="place" v="farm" />
		<tag k="ssr:stedsnr" v="322925" />
	</node>
	<node lat="69.78536672483976" lon="29.686470684617" id="-44941">
		<tag k="name" v="Coagalm - Sokolmi" />
		<tag k="name:fkv" v="Sokolmi" />
		<tag k="name:se" v="Coagalm" />
		<tag k="place" v="isolated_dwelling" />
		<tag k="ssr:stedsnr" v="323032" />
	</node>
	<node lat="69.70712506725897" lon="30.091934276136534" id="-44952">
		<tag k="alt_name" v="Langøyra" />
		<tag k="name" v="Langøra" />
		<tag k="place" v="farm" />
		<tag k="ssr:stedsnr" v="328618" />
	</node>
	<node lat="69.66934729633073" lon="30.31690911031922" id="-44954">
		<tag k="name" v="Sorgenfri" />
		<tag k="place" v="isolated_dwelling" />
		<tag k="ssr:stedsnr" v="470494" />
	</node>
	<node lat="69.68900007292713" lon="30.47091177336028" id="-44956">
		<tag k="name" v="Rognli" />
		<tag k="place" v="farm" />
		<tag k="ssr:stedsnr" v="471086" />
	</node>
	<node lat="69.68513896805128" lon="30.46503123097171" id="-44958">
		<tag k="name" v="Bestemorshaugen" />
		<tag k="place" v="farm" />
		<tag k="ssr:stedsnr" v="471035" />
	</node>
	<node lat="69.53003063175247" lon="30.122136942395986" id="-44962">
		<tag k="name" v="Sætra" />
		<tag k="place" v="locality" />
		<tag k="ssr:stedsnr" v="471338" />
	</node>
	<node lat="69.71099729860194" lon="30.481528435121724" id="-44964">
		<tag k="name" v="Tamaråsen" />
		<tag k="place" v="farm" />
		<tag k="ssr:stedsnr" v="472241" />
	</node>
	<node lat="69.30454450520575" lon="29.26327631339919" id="-44965">
		<tag k="name" v="Sandvik" />
		<tag k="place" v="farm" />
		<tag k="ssr:stedsnr" v="471488" />
	</node>
	<node lat="69.41749451721408" lon="29.985700876083772" id="-44967">
		<tag k="name" v="Svanebukt" />
		<tag k="place" v="isolated_dwelling" />
		<tag k="ssr:stedsnr" v="471533" />
	</node>
	<node lat="69.68585560887111" lon="29.383712483025523" id="-44970">
		<tag k="name" v="Oppheim" />
		<tag k="place" v="farm" />
		<tag k="ssr:stedsnr" v="337057" />
	</node>
	<node lat="69.70191948968697" lon="29.31923196823842" id="-44971">
		<tag k="name" v="Fossli" />
		<tag k="place" v="farm" />
		<tag k="ssr:stedsnr" v="337416" />
	</node>
	<node lat="69.43403896295406" lon="29.84430376126656" id="-44979">
		<tag k="name" v="Grotten" />
		<tag k="place" v="farm" />
		<tag k="ssr:stedsnr" v="472744" />
	</node>
	<node lat="69.67183618419247" lon="30.43961456761675" id="-44987">
		<tag k="name" v="Myren" />
		<tag k="place" v="farm" />
		<tag k="ssr:stedsnr" v="349024" />
	</node>
	<node lat="69.76517228506495" lon="30.164450932409306" id="-44988">
		<tag k="name" v="Rødberget" />
		<tag k="place" v="isolated_dwelling" />
		<tag k="ssr:stedsnr" v="349524" />
	</node>
	<node lat="69.21390287036617" lon="29.15737062761416" id="-44991">
		<tag k="name" v="Ellenelv" />
		<tag k="place" v="locality" />
		<tag k="ssr:stedsnr" v="350411" />
	</node>
	<node lat="69.70134171480115" lon="29.244234788122384" id="-45001">
		<tag k="fixme" v="multiple name tags, choose one and add the other to alt_name" />
		<tag k="name" v="Veines;Øvre Neiden - Badje-Njávdán - Pâʹjj Njauddâm - Yli-Näätämö" />
		<tag k="name:fkv" v="Yli-Näätämö" />
		<tag k="name:no" v="Veines;Øvre Neiden" />
		<tag k="name:se" v="Badje-Njávdán" />
		<tag k="name:sms" v="Pâʹjj Njauddâm" />
		<tag k="old_name:no" v="Neiden, øvre" />
		<tag k="old_name:se" v="Baddjenjavdan" />
		<tag k="place" v="hamlet" />
		<tag k="ssr:stedsnr" v="382010" />
	</node>
	<node lat="69.53499729034166" lon="29.95441208059101" id="-45013">
		<tag k="name" v="Langnes" />
		<tag k="place" v="farm" />
		<tag k="ssr:stedsnr" v="383215" />
	</node>
	<node lat="69.73343617629845" lon="30.021070450190706" id="-45026">
		<tag k="name" v="Lillevik" />
		<tag k="place" v="farm" />
		<tag k="ssr:stedsnr" v="388542" />
	</node>
	<node lat="69.73642506503542" lon="30.03180934615481" id="-45027">
		<tag k="alt_name" v="Revnes;Revsnes" />
		<tag k="name" v="Rævnes" />
		<tag k="place" v="farm" />
		<tag k="ssr:stedsnr" v="388544" />
	</node>
	<node lat="69.7564445019527" lon="29.827423370893708" id="-45035">
		<tag k="name" v="Steinskjærnes" />
		<tag k="place" v="hamlet" />
		<tag k="ssr:stedsnr" v="393082" />
	</node>
	<node lat="69.42211394830474" lon="29.38092906171159" id="-45036">
		<tag k="fixme" v="consider tourism=alpine_hut or tourism=chalet" />
		<tag k="name" v="Oksvannskoia" />
		<tag k="ssr:stedsnr" v="483954" />
		<tag k="tourism" v="wilderness_hut" />
	</node>
	<node lat="69.70193338978031" lon="29.43004856492171" id="-45037">
		<tag k="name" v="Kotala" />
		<tag k="name:fkv" v="Kotala" />
		<tag k="place" v="hamlet" />
		<tag k="ssr:stedsnr" v="397009" />
	</node>
	<node lat="69.67526674239146" lon="30.31871466514337" id="-45041">
		<tag k="name" v="Brevik" />
		<tag k="place" v="farm" />
		<tag k="ssr:stedsnr" v="409489" />
	</node>
	<node lat="69.66221671707929" lon="29.487495754658852" id="-45047">
		<tag k="name" v="Geassebáiki" />
		<tag k="name:se" v="Geassebáiki" />
		<tag k="place" v="locality" />
		<tag k="ssr:stedsnr" v="411204" />
	</node>
	<node lat="69.58807784208432" lon="29.978045419329263" id="-45048">
		<tag k="name" v="Krokmyr" />
		<tag k="place" v="farm" />
		<tag k="ssr:stedsnr" v="411299" />
	</node>
	<node lat="69.33919451052309" lon="29.583162229517676" id="-45049">
		<tag k="name" v="Nymo" />
		<tag k="place" v="farm" />
		<tag k="ssr:stedsnr" v="411404" />
	</node>
	<node lat="69.59473896042567" lon="29.955823210329648" id="-45050">
		<tag k="name" v="Steinli" />
		<tag k="place" v="farm" />
		<tag k="ssr:stedsnr" v="411302" />
	</node>
	<node lat="69.62286951034262" lon="29.964523205954517" id="-45053">
		<tag k="name" v="Bjørndal" />
		<tag k="place" v="farm" />
		<tag k="ssr:stedsnr" v="411538" />
	</node>
	<node lat="69.42567784596025" lon="29.872187075453223" id="-45065">
		<tag k="name" v="Bjørkeslåtten" />
		<tag k="old_name" v="Perslåtta" />
		<tag k="place" v="farm" />
		<tag k="ssr:stedsnr" v="443920" />
	</node>
	<node lat="69.42091951926172" lon="29.89421207687578" id="-45066">
		<tag k="name" v="Nilsrud" />
		<tag k="place" v="farm" />
		<tag k="ssr:stedsnr" v="443922" />
	</node>
	<node lat="69.6856972999608" lon="30.457717349048288" id="-45083">
		<tag k="loc_name:fkv" v="Isomukka" />
		<tag k="name" v="Storbukt - Stuorragohppi" />
		<tag k="name:no" v="Storbukt" />
		<tag k="name:se" v="Stuorragohppi" />
		<tag k="place" v="hamlet" />
		<tag k="ssr:stedsnr" v="444776" />
	</node>
	<node lat="69.69890282557212" lon="29.327068078787292" id="-45090">
		<tag k="name" v="Kroknes" />
		<tag k="place" v="farm" />
		<tag k="ssr:stedsnr" v="458481" />
	</node>
	<node lat="69.67111395622372" lon="29.986387104381308" id="-45091">
		<tag k="name" v="Sundquistjordet" />
		<tag k="place" v="quarter" />
		<tag k="ssr:stedsnr" v="458622" />
	</node>
	<node lat="69.69545561020446" lon="29.3730708308813" id="-45094">
		<tag k="name" v="Bakkejord" />
		<tag k="place" v="farm" />
		<tag k="ssr:stedsnr" v="459358" />
	</node>
	<node lat="69.76705006739536" lon="30.197234229384378" id="-45097">
		<tag k="name" v="Bakkejord" />
		<tag k="place" v="farm" />
		<tag k="ssr:stedsnr" v="470412" />
	</node>
	<node lat="69.47659729604963" lon="29.981031475346896" id="-45104">
		<tag k="name" v="Torshov" />
		<tag k="place" v="farm" />
		<tag k="ssr:stedsnr" v="471511" />
	</node>
	<node lat="69.86160004646487" lon="29.352870889972262" id="-45105">
		<tag k="name" v="Bakkely" />
		<tag k="place" v="farm" />
		<tag k="ssr:stedsnr" v="472166" />
	</node>
	<node lat="69.73190005583072" lon="29.667048456101227" id="-45110">
		<tag k="name" v="Lillestonga" />
		<tag k="place" v="neighbourhood" />
		<tag k="ssr:stedsnr" v="472976" />
	</node>
	<node lat="69.46269452255027" lon="30.071978617686277" id="-45127">
		<tag k="alt_name" v="Seljelid" />
		<tag k="name" v="Seljeli" />
		<tag k="place" v="farm" />
		<tag k="ssr:stedsnr" v="503972" />
	</node>
	<node lat="69.67453896450925" lon="30.315128547285976" id="-45154">
		<tag k="fixme" v="consider place=hamlet" />
		<tag k="loc_name:sms" v="Ruʹvddvuõnnpõtt" />
		<tag k="name" v="Jarfjordbotn - Ruovdevuonbahta - Rautavuononperä" />
		<tag k="name:fkv" v="Rautavuononperä" />
		<tag k="name:no" v="Jarfjordbotn" />
		<tag k="name:se" v="Ruovdevuonbahta" />
		<tag k="place" v="village" />
		<tag k="ssr:stedsnr" v="514481" />
	</node>
	<node lat="69.69555838839811" lon="29.381745822872748" id="-45157">
		<tag k="name" v="Myrheim" />
		<tag k="place" v="farm" />
		<tag k="ssr:stedsnr" v="519477" />
	</node>
	<node lat="69.65870285189273" lon="30.20413972503565" id="-45164">
		<tag k="building" v="civic" />
		<tag k="name" v="Storskog kontroll- og ekspedisjonsenhet - Stuorravuovdi" />
		<tag k="name:no" v="Storskog kontroll- og ekspedisjonsenhet" />
		<tag k="name:se" v="Stuorravuovdi" />
		<tag k="ssr:stedsnr" v="525177" />
	</node>
	<node lat="69.71373894252994" lon="29.643087347887352" id="-45165">
		<tag k="name" v="Stonga - Oažželuovta - Stonka" />
		<tag k="name:fkv" v="Stonka" />
		<tag k="name:no" v="Stonga" />
		<tag k="name:se" v="Oažželuovta" />
		<tag k="place" v="hamlet" />
		<tag k="ssr:stedsnr" v="525963" />
	</node>
	<node lat="69.67624998718922" lon="30.33628744823666" id="-45182">
		<tag k="name" v="Lyngli" />
		<tag k="place" v="locality" />
		<tag k="ssr:stedsnr" v="530520" />
	</node>
	<node lat="69.77033895689218" lon="30.203050889208363" id="-45185">
		<tag k="name" v="Østre Ropelv" />
		<tag k="place" v="isolated_dwelling" />
		<tag k="ssr:stedsnr" v="530473" />
	</node>
	<node lat="69.42055285503702" lon="29.986353667618516" id="-45200">
		<tag k="alt_name" v="Sunde" />
		<tag k="name" v="Søndre Sunde" />
		<tag k="place" v="farm" />
		<tag k="ssr:stedsnr" v="532487" />
	</node>
	<node lat="69.5205778480724" lon="29.977825939117718" id="-45201">
		<tag k="name" v="Østlyng" />
		<tag k="place" v="farm" />
		<tag k="ssr:stedsnr" v="532604" />
	</node>
	<node lat="69.77734727713528" lon="29.82954280985255" id="-45202">
		<tag k="name" v="Sør-Leirvåg" />
		<tag k="place" v="isolated_dwelling" />
		<tag k="ssr:stedsnr" v="532685" />
	</node>
	<node lat="69.38242507048643" lon="29.703034386651606" id="-45222">
		<tag k="name" v="Bjørklund" />
		<tag k="place" v="farm" />
		<tag k="ssr:stedsnr" v="686877" />
	</node>
	<node lat="69.43799173746436" lon="29.99206478409969" id="-45226">
		<tag k="alt_name" v="Fram" />
		<tag k="name" v="Framrabben" />
		<tag k="place" v="farm" />
		<tag k="ssr:stedsnr" v="686913" />
	</node>
	<node lat="69.42331118144841" lon="29.84754265003708" id="-45227">
		<tag k="name" v="Stenbakk" />
		<tag k="place" v="isolated_dwelling" />
		<tag k="ssr:stedsnr" v="686922" />
	</node>
	<node lat="69.48295538365254" lon="30.0226385636836" id="-45230">
		<tag k="name" v="Heggelund" />
		<tag k="place" v="farm" />
		<tag k="ssr:stedsnr" v="686979" />
	</node>
	<node lat="69.8994611675169" lon="29.79853734103609" id="-45249">
		<tag k="alt_name" v="Revøysund" />
		<tag k="loc_name" v="Revøysundet" />
		<tag k="name" v="Revholmsundet" />
		<tag k="place" v="isolated_dwelling" />
		<tag k="ssr:stedsnr" v="687219" />
	</node>
	<node lat="69.42738618510415" lon="29.99367867458584" id="-45261">
		<tag k="alt_name:no" v="Skrotnes" />
		<tag k="name" v="Skrøytnes - Roskaniemi" />
		<tag k="name:fkv" v="Roskaniemi" />
		<tag k="name:no" v="Skrøytnes" />
		<tag k="place" v="hamlet" />
		<tag k="ssr:stedsnr" v="564918" />
	</node>
	<node lat="69.45738063518071" lon="30.063373069520974" id="-45264">
		<tag k="fixme" v="multiple name tags, choose one and add the other to alt_name" />
		<tag k="name" v="Bjørnsund;Bjørnemo" />
		<tag k="place" v="farm" />
		<tag k="ssr:stedsnr" v="564980" />
	</node>
	<node lat="69.40725284255696" lon="29.622515025348523" id="-45265">
		<tag k="name" v="Jussikoia" />
		<tag k="place" v="isolated_dwelling" />
		<tag k="ssr:stedsnr" v="564870" />
	</node>
	<node lat="69.8095944977029" lon="29.804548406120723" id="-45268">
		<tag k="name" v="Nord-Leirvåg" />
		<tag k="place" v="farm" />
		<tag k="ssr:stedsnr" v="565012" />
	</node>
	<node lat="69.70041949148242" lon="29.333076407268" id="-45294">
		<tag k="name" v="Fossnæs" />
		<tag k="place" v="farm" />
		<tag k="ssr:stedsnr" v="580328" />
	</node>
	<node lat="69.72077784028218" lon="30.05462043094575" id="-45301">
		<tag k="name" v="Jomfrulia" />
		<tag k="place" v="quarter" />
		<tag k="ssr:stedsnr" v="696731" />
	</node>
	<node lat="69.6732473034319" lon="30.44134234439792" id="-45307">
		<tag k="name" v="Tårnsletta" />
		<tag k="place" v="farm" />
		<tag k="ssr:stedsnr" v="592012" />
	</node>
	<node lat="69.21362228311847" lon="29.258284606727404" id="-45311">
		<tag k="name" v="Kilebukt" />
		<tag k="place" v="farm" />
		<tag k="ssr:stedsnr" v="592467" />
	</node>
	<node lat="69.68721394073103" lon="29.38543470375866" id="-45319">
		<tag k="name" v="Nedreeng" />
		<tag k="place" v="farm" />
		<tag k="ssr:stedsnr" v="701042" />
	</node>
	<node lat="69.68866672837405" lon="29.994462117981776" id="-45321">
		<tag k="name" v="Bjørkheim" />
		<tag k="place" v="quarter" />
		<tag k="ssr:stedsnr" v="701833" />
	</node>
	<node lat="69.6892889704761" lon="30.485745096713586" id="-45346">
		<tag k="name" v="Vassbotn" />
		<tag k="place" v="farm" />
		<tag k="ssr:stedsnr" v="626798" />
	</node>
	<node lat="69.6793056185293" lon="30.10498703920288" id="-45348">
		<tag k="fixme" v="consider place=hamlet" />
		<tag k="loc_name:sms" v="Jokknjargg" />
		<tag k="name" v="Elvenes - Johkanjárga - Jokiniemi" />
		<tag k="name:fkv" v="Jokiniemi" />
		<tag k="name:no" v="Elvenes" />
		<tag k="name:se" v="Johkanjárga" />
		<tag k="old_name:no" v="Elvnes" />
		<tag k="place" v="village" />
		<tag k="ssr:stedsnr" v="626801" />
	</node>
	<node lat="69.72529173621302" lon="30.130150937910397" id="-45349">
		<tag k="alt_name" v="Solsvik" />
		<tag k="name" v="Solsvikt" />
		<tag k="place" v="farm" />
		<tag k="ssr:stedsnr" v="630540" />
	</node>
	<node lat="69.67589728828597" lon="30.14369257127447" id="-45352">
		<tag k="name" v="Myrhaug" />
		<tag k="place" v="farm" />
		<tag k="ssr:stedsnr" v="632610" />
	</node>
	<node lat="69.69743060382264" lon="29.33419861605061" id="-45360">
		<tag k="name" v="Jernhøgda" />
		<tag k="place" v="farm" />
		<tag k="ssr:stedsnr" v="640409" />
	</node>
	<node lat="69.69789171880112" lon="29.374862492901823" id="-45361">
		<tag k="name" v="Elveli" />
		<tag k="place" v="farm" />
		<tag k="ssr:stedsnr" v="640413" />
	</node>
	<node lat="69.41615563094167" lon="29.928145384621097" id="-45364">
		<tag k="name" v="Karinstad" />
		<tag k="place" v="farm" />
		<tag k="ssr:stedsnr" v="648112" />
	</node>
	<node lat="69.67010840595388" lon="30.345511849214898" id="-45367">
		<tag k="name" v="Holmen" />
		<tag k="place" v="farm" />
		<tag k="ssr:stedsnr" v="651490" />
	</node>
	<node lat="69.88860282072335" lon="29.406068088954736" id="-45368">
		<tag k="name" v="Elvegård" />
		<tag k="place" v="farm" />
		<tag k="ssr:stedsnr" v="653003" />
	</node>
	<node lat="69.85824449007558" lon="29.426651404371757" id="-45370">
		<tag k="name" v="Østerelva" />
		<tag k="place" v="farm" />
		<tag k="ssr:stedsnr" v="653010" />
	</node>
	<node lat="69.70539171931226" lon="29.472087445452416" id="-45371">
		<tag k="name" v="Slettmo" />
		<tag k="place" v="farm" />
		<tag k="ssr:stedsnr" v="653226" />
	</node>
	<node lat="69.35478206859868" lon="29.64479525090619" id="-45372">
		<tag k="name" v="Fjellbakken" />
		<tag k="place" v="farm" />
		<tag k="ssr:stedsnr" v="653417" />
	</node>
	<node lat="69.51786395891463" lon="29.962609275422135" id="-45374">
		<tag k="name" v="Wangseth" />
		<tag k="place" v="farm" />
		<tag k="ssr:stedsnr" v="653627" />
	</node>
	<node lat="69.86960560236956" lon="29.348607001672445" id="-45379">
		<tag k="name" v="Bohttejohka" />
		<tag k="name:se" v="Bohttejohka" />
		<tag k="place" v="farm" />
		<tag k="ssr:stedsnr" v="654141" />
	</node>
	<node lat="69.32191394757051" lon="29.336490155130534" id="-45387">
		<tag k="name" v="Skogum" />
		<tag k="place" v="farm" />
		<tag k="ssr:stedsnr" v="685113" />
	</node>
	<node lat="69.46625840202445" lon="29.727137203372223" id="-45408">
		<tag k="name" v="Myrbekkoia" />
		<tag k="place" v="isolated_dwelling" />
		<tag k="ssr:stedsnr" v="686898" />
	</node>
	<node lat="69.79875459044608" lon="30.16766026802353" id="-45413">
		<tag k="alt_name" v="Stenland" />
		<tag k="name" v="Steinland" />
		<tag k="place" v="farm" />
		<tag k="ssr:stedsnr" v="687105" />
	</node>
	<node lat="70.00113337469683" lon="29.452181997768207" id="-45426">
		<tag k="name" v="Mattisbukta" />
		<tag k="place" v="farm" />
		<tag k="ssr:stedsnr" v="687506" />
	</node>
	<node lat="69.74567228080582" lon="29.766098390819877" id="-45437">
		<tag k="name" v="Lonkuselv" />
		<tag k="place" v="hamlet" />
		<tag k="ssr:stedsnr" v="694573" />
	</node>
	<node lat="69.68071951604442" lon="30.3778618443771" id="-45438">
		<tag k="name" v="Limgamberget" />
		<tag k="place" v="isolated_dwelling" />
		<tag k="ssr:stedsnr" v="696205" />
	</node>
	<node lat="69.56461396248625" lon="30.0795119898432" id="-45439">
		<tag k="name" v="Brattli" />
		<tag k="place" v="hamlet" />
		<tag k="ssr:stedsnr" v="696528" />
	</node>
	<node lat="69.74797229539489" lon="30.459909039206313" id="-45448">
		<tag k="name" v="Gammelheimen" />
		<tag k="place" v="locality" />
		<tag k="ssr:stedsnr" v="896190" />
	</node>
	<node lat="69.97345282582928" lon="29.635442994572884" id="-45450">
		<tag k="fixme" v="consider place=hamlet" />
		<tag k="name" v="Neset" />
		<tag k="place" v="village" />
		<tag k="ssr:stedsnr" v="701112" />
	</node>
	<node lat="69.69366949416016" lon="29.394568032469966" id="-45452">
		<tag k="name" v="Nedremo" />
		<tag k="place" v="farm" />
		<tag k="ssr:stedsnr" v="701520" />
	</node>
	<node lat="69.36543583196132" lon="29.67925503535276" id="-45467">
		<tag k="name" v="Myrvik" />
		<tag k="place" v="farm" />
		<tag k="ssr:stedsnr" v="897402" />
	</node>
	<node lat="69.41481396480339" lon="29.975634228621267" id="-45471">
		<tag k="name" v="Sørgård" />
		<tag k="place" v="farm" />
		<tag k="ssr:stedsnr" v="897474" />
	</node>
	<node lat="69.72799731000362" lon="30.887592008457325" id="-45477">
		<tag k="name" v="Heimdal" />
		<tag k="place" v="isolated_dwelling" />
		<tag k="ssr:stedsnr" v="714129" />
	</node>
	<node lat="69.78456117763777" lon="30.116295400363768" id="-45479">
		<tag k="name" v="Strandheim" />
		<tag k="place" v="isolated_dwelling" />
		<tag k="ssr:stedsnr" v="714246" />
	</node>
	<node lat="69.79090284419277" lon="30.180984260886515" id="-45480">
		<tag k="name" v="Kjosen" />
		<tag k="place" v="farm" />
		<tag k="ssr:stedsnr" v="714247" />
	</node>
	<node lat="69.5958778418603" lon="29.952200984468163" id="-45483">
		<tag k="name" v="Bratli" />
		<tag k="place" v="farm" />
		<tag k="ssr:stedsnr" v="714278" />
	</node>
	<node lat="69.7041667145769" lon="29.24915700691875" id="-45484">
		<tag k="name" v="Veinæs" />
		<tag k="place" v="farm" />
		<tag k="ssr:stedsnr" v="714289" />
	</node>
	<node lat="69.55532506773643" lon="29.984750939631507" id="-45487">
		<tag k="name" v="Fagerlien" />
		<tag k="place" v="farm" />
		<tag k="ssr:stedsnr" v="714520" />
	</node>
	<node lat="69.71887782229261" lon="29.31732086312357" id="-45493">
		<tag k="name" v="Ferdly" />
		<tag k="place" v="farm" />
		<tag k="ssr:stedsnr" v="746008" />
	</node>
	<node lat="69.49835840674362" lon="29.88172043651139" id="-45495">
		<tag k="name" v="Væinøkoia" />
		<tag k="place" v="isolated_dwelling" />
		<tag k="ssr:stedsnr" v="746103" />
	</node>
	<node lat="69.97295004345162" lon="29.642306896538738" id="-45511">
		<tag k="name" v="Bugøynes - Buođggák - Pykeijä" />
		<tag k="name:fkv" v="Pykeijä" />
		<tag k="name:no" v="Bugøynes" />
		<tag k="name:se" v="Buođggák" />
		<tag k="place" v="village" />
		<tag k="ssr:stedsnr" v="747169" />
	</node>
	<node lat="69.77176397049728" lon="30.834675404039388" id="-45518">
		<tag k="alt_name" v="Lyngmo" />
		<tag k="name" v="Lyngmoen" />
		<tag k="place" v="farm" />
		<tag k="ssr:stedsnr" v="747408" />
	</node>
	<node lat="69.66341118915032" lon="30.29024522475928" id="-45536">
		<tag k="name" v="Botn" />
		<tag k="place" v="isolated_dwelling" />
		<tag k="ssr:stedsnr" v="756461" />
	</node>
	<node lat="69.78370839631887" lon="30.13460094487107" id="-45538">
		<tag k="name" v="Killi" />
		<tag k="place" v="isolated_dwelling" />
		<tag k="ssr:stedsnr" v="756754" />
	</node>
	<node lat="69.7395418832292" lon="30.10673827596883" id="-45540">
		<tag k="fixme" v="multiple name tags, choose one and add the other to alt_name" />
		<tag k="name" v="Ytre Lid;Lid" />
		<tag k="old_name" v="M0027 Lid" />
		<tag k="place" v="farm" />
		<tag k="ssr:stedsnr" v="756646" />
	</node>
	<node lat="69.69178616058453" lon="29.394409711224604" id="-45542">
		<tag k="name" v="Nedremo" />
		<tag k="place" v="farm" />
		<tag k="ssr:stedsnr" v="761047" />
	</node>
	<node lat="69.68681394018621" lon="29.37900415151596" id="-45543">
		<tag k="name" v="Viljestad" />
		<tag k="place" v="farm" />
		<tag k="ssr:stedsnr" v="761050" />
	</node>
	<node lat="69.72712506148687" lon="30.04192876563992" id="-45545">
		<tag k="name" v="Behrens plass" />
		<tag k="place" v="quarter" />
		<tag k="ssr:stedsnr" v="762295" />
	</node>
	<node lat="69.67094174562288" lon="30.422422920929183" id="-45548">
		<tag k="name" v="Flatmo" />
		<tag k="place" v="farm" />
		<tag k="ssr:stedsnr" v="774017" />
	</node>
	<node lat="69.67257785674789" lon="30.4143979288099" id="-45549">
		<tag k="name" v="Lille Karpdal" />
		<tag k="place" v="isolated_dwelling" />
		<tag k="ssr:stedsnr" v="774022" />
	</node>
	<node lat="69.50221396576367" lon="30.09418697340554" id="-45559">
		<tag k="name" v="Bjørnset" />
		<tag k="place" v="farm" />
		<tag k="ssr:stedsnr" v="783164" />
	</node>
	<node lat="69.67646191085794" lon="30.35062927887972" id="-45563">
		<tag k="name" v="Haga" />
		<tag k="place" v="farm" />
		<tag k="ssr:stedsnr" v="808791" />
	</node>
	<node lat="69.69123340253545" lon="30.10000926428171" id="-45565">
		<tag k="name" v="Bergheim" />
		<tag k="place" v="farm" />
		<tag k="ssr:stedsnr" v="813603" />
	</node>
	<node lat="69.45640285431227" lon="30.049992533010084" id="-45573">
		<tag k="amenity" v="school" />
		<tag k="name" v="Pasvik folkehøgskole - Báhčaveaje álbmotallaskuvla" />
		<tag k="name:no" v="Pasvik folkehøgskole" />
		<tag k="name:se" v="Báhčaveaje álbmotallaskuvla" />
		<tag k="ssr:stedsnr" v="822621" />
	</node>
	<node lat="69.7211556189285" lon="30.06376762911528" id="-45576">
		<tag k="name" v="Langøra" />
		<tag k="place" v="quarter" />
		<tag k="ssr:stedsnr" v="823317" />
	</node>
	<node lat="69.7326167472322" lon="30.462603463437592" id="-45580">
		<tag k="name" v="Myrstad" />
		<tag k="place" v="farm" />
		<tag k="ssr:stedsnr" v="836188" />
	</node>
	<node lat="69.22777228461635" lon="29.301670698137958" id="-45594">
		<tag k="name" v="Nesheim" />
		<tag k="place" v="isolated_dwelling" />
		<tag k="ssr:stedsnr" v="928739" />
	</node>
	<node lat="69.19277506671754" lon="29.282279034343453" id="-45597">
		<tag k="name" v="Lyngmo" />
		<tag k="place" v="farm" />
		<tag k="ssr:stedsnr" v="928769" />
	</node>
	<node lat="69.21612228599322" lon="29.293237378689287" id="-45598">
		<tag k="alt_name" v="Svanvold" />
		<tag k="name" v="Svanvoll" />
		<tag k="place" v="farm" />
		<tag k="ssr:stedsnr" v="928786" />
	</node>
	<node lat="69.20996394361649" lon="29.12024302682078" id="-45599">
		<tag k="loc_name:se" v="Ealjeluobbalbarta" />
		<tag k="name" v="Ellentjørnkoia" />
		<tag k="name:no" v="Ellentjørnkoia" />
		<tag k="place" v="isolated_dwelling" />
		<tag k="ssr:stedsnr" v="928794" />
	</node>
	<node lat="69.49004451475517" lon="30.01298422614667" id="-45601">
		<tag k="alt_name" v="Midtveis" />
		<tag k="name" v="Midtvegs" />
		<tag k="place" v="isolated_dwelling" />
		<tag k="ssr:stedsnr" v="928904" />
	</node>
	<node lat="69.70506671844262" lon="29.50065408448818" id="-45606">
		<tag k="name" v="Litlevoll" />
		<tag k="place" v="farm" />
		<tag k="ssr:stedsnr" v="929064" />
	</node>
	<node lat="69.47323896365475" lon="30.103909161926534" id="-45608">
		<tag k="alt_name" v="Bjørnebukt" />
		<tag k="name" v="Bjørnbukt" />
		<tag k="place" v="farm" />
		<tag k="ssr:stedsnr" v="928976" />
	</node>
	<node lat="69.45421396084697" lon="30.02411752905883" id="-45609">
		<tag k="name" v="Svanvik" />
		<tag k="place" v="farm" />
		<tag k="ssr:stedsnr" v="928982" />
	</node>
	<node lat="69.46404174359033" lon="30.08260916540472" id="-45610">
		<tag k="fixme" v="consider place=hamlet" />
		<tag k="loc_name:sms" v="Kuõbǯǯčuäʹlmm" />
		<tag k="name" v="Bjørnsund - Guovžačoalbmi - Kontiosunti" />
		<tag k="name:fkv" v="Kontiosunti" />
		<tag k="name:no" v="Bjørnsund" />
		<tag k="name:se" v="Guovžačoalbmi" />
		<tag k="place" v="village" />
		<tag k="ssr:stedsnr" v="928986" />
	</node>
	<node lat="69.14726117645058" lon="29.24387348173495" id="-45615">
		<tag k="building" v="civic" />
		<tag k="loc_name:fkv" v="Nyyruudi" />
		<tag k="name" v="Nyrud" />
		<tag k="name:no" v="Nyrud" />
		<tag k="ssr:stedsnr" v="929022" />
	</node>
	<node lat="69.7620000497746" lon="29.617065166790894" id="-45622">
		<tag k="name" v="Storbukt" />
		<tag k="place" v="hamlet" />
		<tag k="ssr:stedsnr" v="929039" />
	</node>
	<node lat="69.76070006350069" lon="29.958101075093893" id="-45623">
		<tag k="name" v="Gamnes" />
		<tag k="place" v="farm" />
		<tag k="ssr:stedsnr" v="929040" />
	</node>
	<node lat="69.15138061766362" lon="29.196798518147293" id="-45626">
		<tag k="landuse" v="military" />
		<tag k="name" v="Gjøkåsen" />
		<tag k="ssr:stedsnr" v="929048" />
	</node>
	<node lat="69.67348521054714" lon="30.14612063327157" id="-45639">
		<tag k="name" v="Myrstad" />
		<tag k="place" v="farm" />
		<tag k="ssr:stedsnr" v="929780" />
	</node>
	<node lat="69.67413618944795" lon="30.442295123505" id="-45640">
		<tag k="fixme" v="consider place=hamlet" />
		<tag k="loc_name:fkv" v="Toorni" />
		<tag k="loc_name:se" v="Toardna;Toartnavuolli" />
		<tag k="name" v="Tårnet" />
		<tag k="name:no" v="Tårnet" />
		<tag k="place" v="village" />
		<tag k="ssr:stedsnr" v="929783" />
	</node>
	<node lat="69.50335562942416" lon="30.106720285878087" id="-45652">
		<tag k="alt_name" v="Sletta" />
		<tag k="name" v="Sletten" />
		<tag k="place" v="farm" />
		<tag k="ssr:stedsnr" v="929825" />
	</node>
	<node lat="69.56575840888786" lon="30.115750872079698" id="-45656">
		<tag k="name" v="Fjellheim" />
		<tag k="place" v="farm" />
		<tag k="ssr:stedsnr" v="929835" />
	</node>
	<node lat="69.42296117920432" lon="29.815125994850852" id="-45664">
		<tag k="name" v="Furuly" />
		<tag k="place" v="farm" />
		<tag k="ssr:stedsnr" v="929929" />
	</node>
	<node lat="69.41583063443203" lon="29.97975922541715" id="-45665">
		<tag k="name" v="Bjørknes" />
		<tag k="place" v="farm" />
		<tag k="ssr:stedsnr" v="929939" />
	</node>
	<node lat="69.67061394177783" lon="29.549820710241868" id="-45674">
		<tag k="name" v="Vegnes" />
		<tag k="place" v="farm" />
		<tag k="ssr:stedsnr" v="930117" />
	</node>
	<node lat="69.08302506089301" lon="29.034606927518542" id="-45680">
		<tag k="name" v="Ødevasskoia" />
		<tag k="place" v="isolated_dwelling" />
		<tag k="ssr:stedsnr" v="868015" />
	</node>
	<node lat="69.66744728853678" lon="29.987214883624837" id="-45703">
		<tag k="loc_name:sms" v="Kuõbǯǯjäuʹrr" />
		<tag k="name" v="Bjørnevatn - Guovžajávri - Kruuvakylä" />
		<tag k="name:fkv" v="Kruuvakylä" />
		<tag k="name:no" v="Bjørnevatn" />
		<tag k="name:se" v="Guovžajávri" />
		<tag k="place" v="village" />
		<tag k="ssr:stedsnr" v="869112" />
	</node>
	<node lat="69.34534628148059" lon="29.606515002252113" id="-45707">
		<tag k="name" v="Krokvik" />
		<tag k="place" v="farm" />
		<tag k="ssr:stedsnr" v="868872" />
	</node>
	<node lat="69.6640972845408" lon="29.98367044710463" id="-45744">
		<tag k="name" v="Selskapsjordet" />
		<tag k="place" v="quarter" />
		<tag k="ssr:stedsnr" v="883811" />
	</node>
	<node lat="69.66759451225211" lon="29.98463989885931" id="-45745">
		<tag k="name" v="Gartnerjordet" />
		<tag k="place" v="quarter" />
		<tag k="ssr:stedsnr" v="883812" />
	</node>
	<node lat="69.69852504888892" lon="29.361243064436255" id="-45746">
		<tag k="name" v="Elvebakken" />
		<tag k="place" v="farm" />
		<tag k="ssr:stedsnr" v="884355" />
	</node>
	<node lat="69.66031396624227" lon="30.385139593613403" id="-45748">
		<tag k="name" v="Fossmoen" />
		<tag k="place" v="farm" />
		<tag k="ssr:stedsnr" v="895421" />
	</node>
	<node lat="69.66746118773193" lon="30.3618285187777" id="-45749">
		<tag k="name" v="Østberg" />
		<tag k="place" v="farm" />
		<tag k="ssr:stedsnr" v="895457" />
	</node>
	<node lat="69.66564729315236" lon="30.256642475969226" id="-45750">
		<tag k="name" v="Ulveskaret" />
		<tag k="place" v="farm" />
		<tag k="ssr:stedsnr" v="895471" />
	</node>
	<node lat="69.67250008065483" lon="30.427272901552534" id="-45753">
		<tag k="name" v="Lillemo" />
		<tag k="place" v="farm" />
		<tag k="ssr:stedsnr" v="896011" />
	</node>
	<node lat="69.73318341850505" lon="30.874397584318473" id="-45755">
		<tag k="name" v="Bjørnhaugskaret" />
		<tag k="place" v="farm" />
		<tag k="ssr:stedsnr" v="896172" />
	</node>
	<node lat="69.21425283428385" lon="29.159318003005115" id="-45763">
		<tag k="name" v="Hage" />
		<tag k="place" v="farm" />
		<tag k="ssr:stedsnr" v="897423" />
	</node>
	<node lat="69.695828753098" lon="29.377063220830472" id="-45776">
		<tag k="fixme" v="consider place=hamlet" />
		<tag k="name" v="Neiden - Njávdán - Njauddâm - Näätämö" />
		<tag k="name:fkv" v="Näätämö" />
		<tag k="name:no" v="Neiden" />
		<tag k="name:se" v="Njávdán" />
		<tag k="name:sms" v="Njauddâm" />
		<tag k="place" v="village" />
		<tag k="ssr:stedsnr" v="929006" />
	</node>
	<node lat="69.58701951506974" lon="29.94459543142851" id="-45790">
		<tag k="fixme" v="multiple name tags, choose one and add the other to alt_name" />
		<tag k="name" v="Langfjordbotn;Langfjordbund Vestre" />
		<tag k="place" v="farm" />
		<tag k="ssr:stedsnr" v="929151" />
	</node>
	<node lat="69.79064450847675" lon="30.181645358766197" id="-45817">
		<tag k="name" v="Reinøysund" />
		<tag k="place" v="hamlet" />
		<tag k="ssr:stedsnr" v="939742" />
	</node>
	<node lat="69.46610007143136" lon="30.081742507996495" id="-45819">
		<tag k="alt_name" v="Vierlund" />
		<tag k="name" v="Vielund" />
		<tag k="place" v="farm" />
		<tag k="ssr:stedsnr" v="944584" />
	</node>
	<node lat="69.65009727954217" lon="29.45831521056533" id="-45820">
		<tag k="name" v="Munkelv - Uvdujohka - Uutuanjoki" />
		<tag k="name:fkv" v="Uutuanjoki" />
		<tag k="name:no" v="Munkelv" />
		<tag k="name:se" v="Uvdujohka" />
		<tag k="place" v="hamlet" />
		<tag k="ssr:stedsnr" v="950177" />
	</node>
	<node lat="69.56451951148375" lon="30.092575882715387" id="-45823">
		<tag k="name" v="Sollien" />
		<tag k="place" v="farm" />
		<tag k="ssr:stedsnr" v="955256" />
	</node>
</osm>
