<?xml version="1.0" encoding="UTF-8"?>
<osm version="0.6" generator="osmapis">
	<node lat="69.46047229865187" lon="30.07063139806006" id="-106970">
		<tag k="name" v="Bjørklund gård" />
		<tag k="ssr:stedsnr" v="458628" />
		<tag k="tourism" v="museum" />
	</node>
	<node lat="69.67817507726247" lon="30.45061454879139" id="-107264">
		<tag k="amenity" v="community_centre" />
		<tag k="name" v="Tårnhallen" />
		<tag k="ssr:stedsnr" v="532095" />
	</node>
	<node lat="69.72830006496021" lon="30.04425655120609" id="-107365">
		<tag k="amenity" v="place_of_worship" />
		<tag k="denomination" v="lutheran" />
		<tag k="name" v="Kirkenes kirke" />
		<tag k="religion" v="christian" />
		<tag k="ssr:stedsnr" v="695863" />
	</node>
	<node lat="69.45311396592895" lon="30.05419529599889" id="-107640">
		<tag k="amenity" v="place_of_worship" />
		<tag k="denomination" v="lutheran" />
		<tag k="name" v="Svanvik kirke" />
		<tag k="religion" v="christian" />
		<tag k="ssr:stedsnr" v="819872" />
	</node>
	<node lat="69.97293338213665" lon="29.63477355460432" id="-107810">
		<tag k="alt_name" v="Bugøynes" />
		<tag k="amenity" v="place_of_worship" />
		<tag k="denomination" v="lutheran" />
		<tag k="name" v="Bugøynes kapell" />
		<tag k="religion" v="christian" />
		<tag k="ssr:stedsnr" v="879803" />
	</node>
	<node lat="69.70191671446025" lon="29.387912494805704" id="-107844">
		<tag k="amenity" v="place_of_worship" />
		<tag k="denomination" v="lutheran" />
		<tag k="name" v="Neiden kapell" />
		<tag k="religion" v="christian" />
		<tag k="ssr:stedsnr" v="929005" />
	</node>
	<node lat="69.52482784776356" lon="29.978648170404796" id="-108041">
		<tag k="name" v="Strand Internat" />
		<tag k="ssr:stedsnr" v="47586" />
		<tag k="tourism" v="museum" />
	</node>
	<node lat="69.78489748393903" lon="30.81122279872714" id="-108150">
		<tag k="alt_name" v="Oskar IIs kapell" />
		<tag k="amenity" v="place_of_worship" />
		<tag k="denomination" v="lutheran" />
		<tag k="name" v="Kong Oscar IIs kapell" />
		<tag k="religion" v="christian" />
		<tag k="ssr:stedsnr" v="80428" />
	</node>
	<node lat="69.67403896231825" lon="30.443420122666904" id="-108450">
		<tag k="alt_name" v="Tårnet" />
		<tag k="amenity" v="place_of_worship" />
		<tag k="denomination" v="lutheran" />
		<tag k="name" v="Tårnet skolekapell " />
		<tag k="religion" v="christian" />
		<tag k="ssr:stedsnr" v="215946" />
	</node>
	<node lat="69.50264174267227" lon="30.06332308469051" id="-109207">
		<tag k="amenity" v="community_centre" />
		<tag k="name" v="Haukreiret" />
		<tag k="ssr:stedsnr" v="592283" />
	</node>
	<node lat="69.73944174205201" lon="30.460845137899483" id="-109212">
		<tag k="name" v="Kokeriet" />
		<tag k="place" v="locality" />
		<tag k="ssr:stedsnr" v="593211" />
	</node>
	<node lat="69.68979171749864" lon="29.37959304865681" id="-109401">
		<tag k="amenity" v="place_of_worship" />
		<tag k="denomination" v="lutheran" />
		<tag k="name" v="St. Georgs kapell" />
		<tag k="religion" v="christian" />
		<tag k="ssr:stedsnr" v="746014" />
	</node>
	<node lat="69.18975561185377" lon="29.162065208109855" id="-109754">
		<tag k="name" v="Peilen" />
		<tag k="place" v="locality" />
		<tag k="ssr:stedsnr" v="868740" />
	</node>
</osm>
