<?xml version="1.0" encoding="UTF-8"?>
<osm version="0.6" generator="osmapis">
	<node lat="69.81393617041383" lon="29.909826108614556" id="-44544">
		<tag k="name" v="Reahpengohppi" />
		<tag k="name:se" v="Reahpengohppi" />
		<tag k="natural" v="bay" />
		<tag k="old_name:se" v="Ræppengåppi" />
		<tag k="ssr:stedsnr" v="19003" />
	</node>
	<node lat="69.75958617022079" lon="29.85011778510026" id="-44546">
		<tag k="alt_name:se" v="Rávnjinjárga" />
		<tag k="name" v="Råvaneset - Roavvenjárga" />
		<tag k="name:no" v="Råvaneset" />
		<tag k="name:se" v="Roavvenjárga" />
		<tag k="natural" v="cape" />
		<tag k="old_name:se" v="Roavvenjarga" />
		<tag k="ssr:stedsnr" v="19045" />
	</node>
	<node lat="69.89299728266234" lon="30.008853870019625" id="-44547">
		<tag k="alt_name:no" v="Svartskjeret" />
		<tag k="fixme" v="consider seamark:type=rock or natural=shoal" />
		<tag k="name" v="Svartskjæret - Gožolásis" />
		<tag k="name:no" v="Svartskjæret" />
		<tag k="name:se" v="Gožolásis" />
		<tag k="old_name:se" v="Gåžulasis" />
		<tag k="place" v="islet" />
		<tag k="ssr:stedsnr" v="19047" />
	</node>
	<node lat="69.78094452532379" lon="30.759942143932694" id="-44549">
		<tag k="alt_name" v="Skogbukta, l" />
		<tag k="name" v="Lille Skogbukta" />
		<tag k="natural" v="bay" />
		<tag k="ssr:stedsnr" v="19420" />
	</node>
	<node lat="69.80192785399736" lon="30.73504218507009" id="-44554">
		<tag k="name" v="Minnabukta" />
		<tag k="natural" v="bay" />
		<tag k="ssr:stedsnr" v="25590" />
	</node>
	<node lat="69.78361395481316" lon="30.141037056777634" id="-44557">
		<tag k="name" v="Reinøybakken" />
		<tag k="natural" v="cape" />
		<tag k="ssr:stedsnr" v="28772" />
	</node>
	<node lat="69.91409449106695" lon="29.518051379195917" id="-44578">
		<tag k="name" v="Trangholet" />
		<tag k="natural" v="bay" />
		<tag k="ssr:stedsnr" v="49781" />
	</node>
	<node lat="69.82379450048144" lon="29.730598451976267" id="-44588">
		<tag k="alt_name:no" v="Sporvfjorden" />
		<tag k="name" v="Spurvfjorden - Čižževuotna" />
		<tag k="name:no" v="Spurvfjorden" />
		<tag k="name:se" v="Čižževuotna" />
		<tag k="natural" v="bay" />
		<tag k="old_name:se" v="Čižževuodna" />
		<tag k="ssr:stedsnr" v="80007" />
	</node>
	<node lat="69.78708062225085" lon="30.185181484214382" id="-44591">
		<tag k="name" v="Sildkroken - Vuottasgohppi" />
		<tag k="name:no" v="Sildkroken" />
		<tag k="name:se" v="Vuottasgohppi" />
		<tag k="natural" v="bay" />
		<tag k="old_name:se" v="Vuoddasgåppi" />
		<tag k="ssr:stedsnr" v="80109" />
	</node>
	<node lat="69.67464171681239" lon="29.549412389444548" id="-44592">
		<tag k="alt_name" v="Veidneset;Dalnes" />
		<tag k="name" v="Vegneset" />
		<tag k="natural" v="cape" />
		<tag k="ssr:stedsnr" v="80111" />
	</node>
	<node lat="69.79281117860488" lon="30.174092597438907" id="-44593">
		<tag k="name" v="Martinneset" />
		<tag k="natural" v="cape" />
		<tag k="ssr:stedsnr" v="80112" />
	</node>
	<node lat="69.79341673451196" lon="30.13539539240276" id="-44594">
		<tag k="alt_name:no" v="Reinøy" />
		<tag k="name" v="Reinøya - Ođag" />
		<tag k="name:no" v="Reinøya" />
		<tag k="name:se" v="Ođag" />
		<tag k="old_name:se" v="Åđag" />
		<tag k="place" v="island" />
		<tag k="ssr:stedsnr" v="80113" />
	</node>
	<node lat="69.83920006443049" lon="30.323481400912527" id="-44603">
		<tag k="name" v="Storbukta" />
		<tag k="natural" v="bay" />
		<tag k="ssr:stedsnr" v="80091" />
	</node>
	<node lat="69.68928061184977" lon="29.534356849449168" id="-44604">
		<tag k="name" v="Kallkillebukta" />
		<tag k="natural" v="bay" />
		<tag k="ssr:stedsnr" v="80093" />
	</node>
	<node lat="69.80578339386612" lon="30.019609378561217" id="-44605">
		<tag k="name" v="Svenskesteinbukt" />
		<tag k="natural" v="bay" />
		<tag k="ssr:stedsnr" v="80095" />
	</node>
	<node lat="69.79959174485427" lon="30.66445334704501" id="-44607">
		<tag k="name" v="Festningen - Ladni" />
		<tag k="name:no" v="Festningen" />
		<tag k="name:se" v="Ladni" />
		<tag k="place" v="islet" />
		<tag k="ssr:stedsnr" v="80388" />
	</node>
	<node lat="69.80860285886804" lon="30.682092229412813" id="-44609">
		<tag k="name" v="Njálbmesuolu" />
		<tag k="name:se" v="Njálbmesuolu" />
		<tag k="old_name:se" v="Njalbmesuolo" />
		<tag k="place" v="islet" />
		<tag k="ssr:stedsnr" v="80390" />
	</node>
	<node lat="69.87588895111958" lon="30.294856452015107" id="-44618">
		<tag k="name" v="Holmengråneset" />
		<tag k="natural" v="cape" />
		<tag k="ssr:stedsnr" v="89217" />
	</node>
	<node lat="69.84676951150664" lon="30.271664791578804" id="-44619">
		<tag k="name" v="Straumneset" />
		<tag k="natural" v="cape" />
		<tag k="ssr:stedsnr" v="89224" />
	</node>
	<node lat="69.87026393160777" lon="29.35045421930354" id="-44637">
		<tag k="name" v="Sopnes" />
		<tag k="natural" v="cape" />
		<tag k="ssr:stedsnr" v="109735" />
	</node>
	<node lat="69.98144448849179" lon="29.571662486119585" id="-44653">
		<tag k="name" v="Smørvika" />
		<tag k="natural" v="bay" />
		<tag k="ssr:stedsnr" v="140138" />
	</node>
	<node lat="69.79803063584944" lon="30.73468383590208" id="-44664">
		<tag k="alt_name:no" v="Minnaholmen" />
		<tag k="fixme" v="consider seamark:type=rock or natural=shoal" />
		<tag k="name" v="Miennaskjeret - Miennalásis" />
		<tag k="name:no" v="Miennaskjeret" />
		<tag k="name:se" v="Miennalásis" />
		<tag k="old_name:se" v="Miennalasis" />
		<tag k="place" v="islet" />
		<tag k="ssr:stedsnr" v="140388" />
	</node>
	<node lat="69.70781395599944" lon="30.092331509994366" id="-44669">
		<tag k="name" v="Langnes" />
		<tag k="natural" v="cape" />
		<tag k="ssr:stedsnr" v="140243" />
	</node>
	<node lat="69.67558063165916" lon="30.4222867876529" id="-44672">
		<tag k="alt_name:no" v="Skoltneset" />
		<tag k="name" v="Skolteneset - Onsiidnjárga" />
		<tag k="name:no" v="Skolteneset" />
		<tag k="name:se" v="Onsiidnjárga" />
		<tag k="natural" v="cape" />
		<tag k="ssr:stedsnr" v="140786" />
	</node>
	<node lat="70.00701948913952" lon="29.378993140625838" id="-44674">
		<tag k="name" v="Njukčaváhki" />
		<tag k="name:se" v="Njukčaváhki" />
		<tag k="natural" v="bay" />
		<tag k="old_name:se" v="Njukčavakki" />
		<tag k="ssr:stedsnr" v="141586" />
	</node>
	<node lat="69.76296674393943" lon="30.71447551185573" id="-44679">
		<tag k="name" v="Fabrikkbukta" />
		<tag k="natural" v="bay" />
		<tag k="ssr:stedsnr" v="146512" />
	</node>
	<node lat="69.81857228050899" lon="30.021901040063877" id="-44686">
		<tag k="name" v="Torvneset" />
		<tag k="natural" v="cape" />
		<tag k="ssr:stedsnr" v="149655" />
	</node>
	<node lat="69.80261117707799" lon="30.136348192331507" id="-44693">
		<tag k="name" v="Klubbukta" />
		<tag k="natural" v="bay" />
		<tag k="ssr:stedsnr" v="166460" />
	</node>
	<node lat="69.85671949272844" lon="29.421268069818662" id="-44695">
		<tag k="name" v="Vággi" />
		<tag k="name:se" v="Vággi" />
		<tag k="natural" v="bay" />
		<tag k="ssr:stedsnr" v="168020" />
	</node>
	<node lat="69.76906950229434" lon="29.931689979535317" id="-44749">
		<tag k="bay" v="fjord" />
		<tag k="name" v="Korsfjorden - Ruossavuotna" />
		<tag k="name:no" v="Korsfjorden" />
		<tag k="name:se" v="Ruossavuotna" />
		<tag k="natural" v="bay" />
		<tag k="old_name:se" v="Ruossavuodna" />
		<tag k="ssr:stedsnr" v="262037" />
	</node>
	<node lat="69.72220283202996" lon="29.595154036173696" id="-44751">
		<tag k="name" v="Oterneset - Allanjárga" />
		<tag k="name:no" v="Oterneset" />
		<tag k="name:se" v="Allanjárga" />
		<tag k="natural" v="cape" />
		<tag k="old_name:se" v="Allanjarga" />
		<tag k="ssr:stedsnr" v="262061" />
	</node>
	<node lat="69.9037778290437" lon="29.682254057673628" id="-44768">
		<tag k="name" v="Oterfjorden - Čoahkenvuotna" />
		<tag k="name:no" v="Oterfjorden" />
		<tag k="name:se" v="Čoahkenvuotna" />
		<tag k="natural" v="bay" />
		<tag k="old_name:se" v="Čoakkenvuodna" />
		<tag k="ssr:stedsnr" v="262198" />
	</node>
	<node lat="69.90773060997768" lon="29.77623179761245" id="-44769">
		<tag k="name" v="Gievjobohki" />
		<tag k="name:se" v="Gievjobohki" />
		<tag k="natural" v="strait" />
		<tag k="old_name:se" v="Gievjubåkki;Gievjubohki" />
		<tag k="ssr:stedsnr" v="262199" />
	</node>
	<node lat="69.82438894342316" lon="29.593373540378952" id="-44774">
		<tag k="loc_name:no" v="Spurvneset" />
		<tag k="name" v="Čižženjárga" />
		<tag k="name:se" v="Čižženjárga" />
		<tag k="natural" v="cape" />
		<tag k="old_name:se" v="Čižženjarga" />
		<tag k="ssr:stedsnr" v="262234" />
	</node>
	<node lat="69.87927228292018" lon="30.06752049726438" id="-44796">
		<tag k="alt_name:no" v="Makkholet" />
		<tag k="name" v="Makkhola - Goahteváhki" />
		<tag k="name:no" v="Makkhola" />
		<tag k="name:se" v="Goahteváhki" />
		<tag k="natural" v="bay" />
		<tag k="old_name:se" v="Goattevakki" />
		<tag k="ssr:stedsnr" v="201047" />
	</node>
	<node lat="69.8745000542449" lon="29.990745537878766" id="-44800">
		<tag k="name" v="Laukbuktneset - Lávkeluovttnjárga" />
		<tag k="name:no" v="Laukbuktneset" />
		<tag k="name:se" v="Lávkeluovttnjárga" />
		<tag k="natural" v="cape" />
		<tag k="old_name:se" v="Lavkeluovtnjarga" />
		<tag k="ssr:stedsnr" v="201204" />
	</node>
	<node lat="69.80533896734076" lon="30.597089519351535" id="-44803">
		<tag k="bay" v="fjord" />
		<tag k="name" v="Vuottasváhki" />
		<tag k="name:se" v="Vuottasváhki" />
		<tag k="natural" v="bay" />
		<tag k="old_name:se" v="Vuoddasvakki" />
		<tag k="ssr:stedsnr" v="201103" />
	</node>
	<node lat="69.93759726859115" lon="29.575815247201657" id="-44809">
		<tag k="name" v="Marjaliisankuru" />
		<tag k="name:fkv" v="Marjaliisankuru" />
		<tag k="natural" v="bay" />
		<tag k="old_name:fkv" v="Marjalisangoro" />
		<tag k="ssr:stedsnr" v="201157" />
	</node>
	<node lat="69.89552504705192" lon="29.44319029689619" id="-44811">
		<tag k="name" v="Smella - Smiella" />
		<tag k="name:no" v="Smella" />
		<tag k="name:se" v="Smiella" />
		<tag k="place" v="islet" />
		<tag k="ssr:stedsnr" v="201196" />
	</node>
	<node lat="69.80113897041656" lon="30.65479224973529" id="-44812">
		<tag k="loc_name:se" v="Váltovuonna" />
		<tag k="name" v="Småstrauman - Váltovuotna" />
		<tag k="name:no" v="Småstrauman" />
		<tag k="name:se" v="Váltovuotna" />
		<tag k="natural" v="strait" />
		<tag k="old_name:se" v="Valtuvuodna" />
		<tag k="ssr:stedsnr" v="201359" />
	</node>
	<node lat="69.78917507659361" lon="30.716069961300327" id="-44813">
		<tag k="alt_name" v="Garaveineset" />
		<tag k="name" v="Varganeset" />
		<tag k="natural" v="cape" />
		<tag k="ssr:stedsnr" v="201360" />
	</node>
	<node lat="69.74192228749995" lon="30.0391787810412" id="-44819">
		<tag k="name" v="Dynamittneset" />
		<tag k="natural" v="cape" />
		<tag k="ssr:stedsnr" v="267497" />
	</node>
	<node lat="69.69834729514312" lon="30.11603147337156" id="-44826">
		<tag k="name" v="Ingridbukta" />
		<tag k="natural" v="bay" />
		<tag k="ssr:stedsnr" v="267596" />
	</node>
	<node lat="69.77354172468759" lon="30.017089923741487" id="-44827">
		<tag k="name" v="Bávkagohppi" />
		<tag k="name:se" v="Bávkagohppi" />
		<tag k="natural" v="bay" />
		<tag k="old_name:se" v="Bavkagåppi" />
		<tag k="ssr:stedsnr" v="202403" />
	</node>
	<node lat="69.79206396124648" lon="30.430734073555854" id="-44828">
		<tag k="name" v="Vuottaváhki" />
		<tag k="name:se" v="Vuottaváhki" />
		<tag k="natural" v="bay" />
		<tag k="old_name:se" v="Vuoddavakki" />
		<tag k="ssr:stedsnr" v="202401" />
	</node>
	<node lat="69.79764452434358" lon="30.67468668317071" id="-44829">
		<tag k="name" v="Fuglebergneset" />
		<tag k="natural" v="cape" />
		<tag k="ssr:stedsnr" v="268599" />
	</node>
	<node lat="69.8146556325934" lon="30.611861741680933" id="-44835">
		<tag k="name" v="Olakeila" />
		<tag k="natural" v="strait" />
		<tag k="ssr:stedsnr" v="211774" />
	</node>
	<node lat="69.83714728609225" lon="30.073109348824527" id="-44841">
		<tag k="name" v="Russevika" />
		<tag k="natural" v="cape" />
		<tag k="ssr:stedsnr" v="271748" />
	</node>
	<node lat="69.77097508541222" lon="30.845253168041367" id="-44846">
		<tag k="name" v="Øvre Finngamnes" />
		<tag k="natural" v="cape" />
		<tag k="ssr:stedsnr" v="229130" />
	</node>
	<node lat="69.79581394919687" lon="29.812545602453344" id="-44858">
		<tag k="name" v="Gárppagohppi" />
		<tag k="name:se" v="Gárppagohppi" />
		<tag k="natural" v="bay" />
		<tag k="old_name:se" v="Garpagåppi" />
		<tag k="ssr:stedsnr" v="450292" />
	</node>
	<node lat="69.81736117061814" lon="29.7763789799601" id="-44873">
		<tag k="alt_name:se" v="Pándorlássi" />
		<tag k="fixme" v="consider seamark:type=rock or natural=shoal" />
		<tag k="name" v="Pánddolásis" />
		<tag k="name:se" v="Pánddolásis" />
		<tag k="old_name:se" v="Pandulasis" />
		<tag k="place" v="islet" />
		<tag k="ssr:stedsnr" v="262003" />
	</node>
	<node lat="69.7745599824768" lon="29.700822849339943" id="-44875">
		<tag k="bay" v="fjord" />
		<tag k="name" v="Neidenfjorden - Njávdámvuonna" />
		<tag k="name:no" v="Neidenfjorden" />
		<tag k="name:se" v="Njávdámvuonna" />
		<tag k="natural" v="bay" />
		<tag k="old_name:se" v="Njavdanvuodna" />
		<tag k="ssr:stedsnr" v="262045" />
	</node>
	<node lat="69.91368616155792" lon="29.60945411758253" id="-44883">
		<tag k="name" v="Ásekiidgohppi" />
		<tag k="name:se" v="Ásekiidgohppi" />
		<tag k="natural" v="bay" />
		<tag k="old_name:se" v="Asekiidgåppi" />
		<tag k="ssr:stedsnr" v="262204" />
	</node>
	<node lat="69.84911393988337" lon="29.747648441302847" id="-44884">
		<tag k="name" v="Loddvika" />
		<tag k="natural" v="bay" />
		<tag k="ssr:stedsnr" v="262243" />
	</node>
	<node lat="69.78075840588298" lon="30.406717431714537" id="-44885">
		<tag k="name" v="Skipshamnholmen" />
		<tag k="place" v="islet" />
		<tag k="ssr:stedsnr" v="262404" />
	</node>
	<node lat="69.79359173722094" lon="30.25320922183121" id="-44887">
		<tag k="loc_name:se" v="Vinne" />
		<tag k="name" v="Vinni" />
		<tag k="name:se" v="Vinni" />
		<tag k="natural" v="cape" />
		<tag k="ssr:stedsnr" v="262412" />
	</node>
	<node lat="69.80754451703025" lon="30.64465059793256" id="-44889">
		<tag k="name" v="Lyngøybukta - Luovangohppi" />
		<tag k="name:no" v="Lyngøybukta" />
		<tag k="name:se" v="Luovangohppi" />
		<tag k="natural" v="bay" />
		<tag k="old_name:se" v="Luovangåppi" />
		<tag k="ssr:stedsnr" v="262397" />
	</node>
	<node lat="69.76003895323258" lon="30.117498182335197" id="-44890">
		<tag k="alt_name" v="Hælaneset" />
		<tag k="name" v="Hælneset" />
		<tag k="natural" v="cape" />
		<tag k="ssr:stedsnr" v="262401" />
	</node>
	<node lat="70.0126056012235" lon="29.347754281382304" id="-44893">
		<tag k="name" v="Mikkelsbukta - Mihkkalgohppi" />
		<tag k="name:no" v="Mikkelsbukta" />
		<tag k="name:se" v="Mihkkalgohppi" />
		<tag k="natural" v="bay" />
		<tag k="old_name:se" v="Mikkalgåppi" />
		<tag k="ssr:stedsnr" v="263596" />
	</node>
	<node lat="69.78131397059308" lon="30.75310048851198" id="-44926">
		<tag k="alt_name" v="Flatholmen" />
		<tag k="fixme" v="consider seamark:type=rock or natural=shoal" />
		<tag k="name" v="Flatskjeret" />
		<tag k="place" v="islet" />
		<tag k="ssr:stedsnr" v="322428" />
	</node>
	<node lat="69.92019171836026" lon="29.63183187970531" id="-44930">
		<tag k="name" v="Kasterholmen - Gaskasuolu" />
		<tag k="name:no" v="Kasterholmen" />
		<tag k="name:se" v="Gaskasuolu" />
		<tag k="old_name:se" v="Gaskasuolo" />
		<tag k="place" v="islet" />
		<tag k="ssr:stedsnr" v="322181" />
	</node>
	<node lat="69.78541118036455" lon="30.184081473402777" id="-44945">
		<tag k="alt_name" v="Sildakroknakken;Sildkroknes" />
		<tag k="name" v="Sildkrokneset" />
		<tag k="natural" v="cape" />
		<tag k="ssr:stedsnr" v="323137" />
	</node>
	<node lat="69.76621119206263" lon="30.69221164049037" id="-44953">
		<tag k="name" v="Jos Perbukta" />
		<tag k="natural" v="bay" />
		<tag k="ssr:stedsnr" v="329553" />
	</node>
	<node lat="69.87994728144469" lon="29.806117866130908" id="-44955">
		<tag k="name" v="Høynesbukta" />
		<tag k="natural" v="bay" />
		<tag k="ssr:stedsnr" v="331514" />
	</node>
	<node lat="69.65988060943486" lon="29.52225405379682" id="-44974">
		<tag k="name" v="Veines" />
		<tag k="natural" v="cape" />
		<tag k="ssr:stedsnr" v="472192" />
	</node>
	<node lat="70.01512504011741" lon="29.332679280383537" id="-44994">
		<tag k="name" v="Skitnbukta" />
		<tag k="natural" v="bay" />
		<tag k="ssr:stedsnr" v="352810" />
	</node>
	<node lat="69.81900005924267" lon="29.921767770481242" id="-45005">
		<tag k="name" v="Sølferbotn - Rivdnjebahta" />
		<tag k="name:no" v="Sølferbotn" />
		<tag k="name:se" v="Rivdnjebahta" />
		<tag k="natural" v="bay" />
		<tag k="old_name:se" v="Rivdnjebatta" />
		<tag k="ssr:stedsnr" v="383006" />
	</node>
	<node lat="69.80906674195603" lon="30.425397986351022" id="-45007">
		<tag k="alt_name:no" v="Jarfjorden, l" />
		<tag k="bay" v="fjord" />
		<tag k="loc_name:se" v="Civzzavuonna" />
		<tag k="name" v="Lille Jarfjorden - Civzzavuotna" />
		<tag k="name:no" v="Lille Jarfjorden" />
		<tag k="name:se" v="Civzzavuotna" />
		<tag k="natural" v="bay" />
		<tag k="old_name:se" v="Civzavuodna" />
		<tag k="ssr:stedsnr" v="383110" />
	</node>
	<node lat="69.76628616923153" lon="29.95210383276022" id="-45010">
		<tag k="name" v="Gamneset - Geresválla" />
		<tag k="name:no" v="Gamneset" />
		<tag k="name:se" v="Geresválla" />
		<tag k="natural" v="cape" />
		<tag k="old_name:se" v="Geresvalla" />
		<tag k="ssr:stedsnr" v="383053" />
	</node>
	<node lat="69.75696950579223" lon="29.828942818118012" id="-45011">
		<tag k="name" v="Steinskjernes - Goađášnjárga" />
		<tag k="name:no" v="Steinskjernes" />
		<tag k="name:se" v="Goađášnjárga" />
		<tag k="natural" v="cape" />
		<tag k="old_name:se" v="Goađašnjarga;Goađašnjárga" />
		<tag k="ssr:stedsnr" v="383056" />
	</node>
	<node lat="69.83281394867375" lon="29.806281743402067" id="-45015">
		<tag k="fixme" v="multiple name tags, choose one and add the other to alt_name" />
		<tag k="name" v="Saubukta;Varbukta" />
		<tag k="natural" v="bay" />
		<tag k="ssr:stedsnr" v="383259" />
	</node>
	<node lat="69.69384173476064" lon="30.115031476580533" id="-45029">
		<tag k="name" v="Kongsgambukta" />
		<tag k="natural" v="bay" />
		<tag k="ssr:stedsnr" v="388592" />
	</node>
	<node lat="69.7441806195922" lon="30.086400977600903" id="-45030">
		<tag k="alt_name" v="Engelsmannsskjæret;Engelsmannskjær;Engelskmannskjær" />
		<tag k="name" v="Engelskmannsskjæret" />
		<tag k="natural" v="shoal" />
		<tag k="place" v="locality" />
		<tag k="ssr:stedsnr" v="388607" />
	</node>
	<node lat="69.81028063311696" lon="30.713769970692276" id="-45031">
		<tag k="name" v="Måsegrunnen" />
		<tag k="natural" v="shoal" />
		<tag k="place" v="locality" />
		<tag k="ssr:stedsnr" v="389608" />
	</node>
	<node lat="69.80598341012872" lon="30.723361627392304" id="-45034">
		<tag k="fixme" v="consider seamark:type=rock or natural=shoal" />
		<tag k="name" v="Fredrikskjær" />
		<tag k="place" v="islet" />
		<tag k="ssr:stedsnr" v="389615" />
	</node>
	<node lat="69.76474728575424" lon="30.153156493642918" id="-45040">
		<tag k="name" v="Rødbergbukta" />
		<tag k="natural" v="bay" />
		<tag k="ssr:stedsnr" v="409445" />
	</node>
	<node lat="69.67070840505333" lon="30.310536874917013" id="-45042">
		<tag k="name" v="Melkeneset" />
		<tag k="natural" v="cape" />
		<tag k="ssr:stedsnr" v="409492" />
	</node>
	<node lat="69.76776950023833" lon="29.64712348528382" id="-45057">
		<tag k="name" v="Látnjnjárga" />
		<tag k="name:se" v="Látnjnjárga" />
		<tag k="natural" v="cape" />
		<tag k="ssr:stedsnr" v="411998" />
	</node>
	<node lat="69.80779727699027" lon="29.731912325923382" id="-45070">
		<tag k="alt_name:no" v="Natlibukt" />
		<tag k="name" v="Natlibukta - Náhteleigohppi" />
		<tag k="name:no" v="Natlibukta" />
		<tag k="name:se" v="Náhteleigohppi" />
		<tag k="natural" v="bay" />
		<tag k="old_name:se" v="Natteleigåppi" />
		<tag k="ssr:stedsnr" v="444009" />
	</node>
	<node lat="69.74459450695518" lon="29.830509463404027" id="-45073">
		<tag k="alt_name" v="Fiskebukta" />
		<tag k="name" v="Fiskbukta" />
		<tag k="natural" v="bay" />
		<tag k="ssr:stedsnr" v="444033" />
	</node>
	<node lat="69.7694222753545" lon="29.663259564398185" id="-45074">
		<tag k="name" v="Látnjagohppi" />
		<tag k="name:se" v="Látnjagohppi" />
		<tag k="natural" v="bay" />
		<tag k="old_name:se" v="Ladnjagåppi" />
		<tag k="ssr:stedsnr" v="444035" />
	</node>
	<node lat="69.73589450897062" lon="30.08630930683403" id="-45077">
		<tag k="alt_name" v="Sabelskjeret;Sabelholmen" />
		<tag k="fixme" v="consider seamark:type=rock or natural=shoal" />
		<tag k="name" v="Sabelskjæret" />
		<tag k="place" v="islet" />
		<tag k="ssr:stedsnr" v="444203" />
	</node>
	<node lat="69.86523616480068" lon="29.752145670790103" id="-45078">
		<tag k="name" v="Tolken" />
		<tag k="natural" v="cape" />
		<tag k="ssr:stedsnr" v="444204" />
	</node>
	<node lat="69.80682507430231" lon="30.603525612884567" id="-45088">
		<tag k="name" v="Slitbukta" />
		<tag k="natural" v="bay" />
		<tag k="ssr:stedsnr" v="454804" />
	</node>
	<node lat="69.67620840784487" lon="30.44099512863292" id="-45099">
		<tag k="name" v="Sirisnjárga" />
		<tag k="name:se" v="Sirisnjárga" />
		<tag k="natural" v="cape" />
		<tag k="ssr:stedsnr" v="471109" />
	</node>
	<node lat="69.86802505614509" lon="29.994053847220826" id="-45122">
		<tag k="name" v="Laukbukta - Lávkeluokta" />
		<tag k="name:no" v="Laukbukta" />
		<tag k="name:se" v="Lávkeluokta" />
		<tag k="natural" v="bay" />
		<tag k="old_name:se" v="Lavkeluokta" />
		<tag k="ssr:stedsnr" v="504202" />
	</node>
	<node lat="69.88114171579998" lon="29.43817919774076" id="-45123">
		<tag k="name" v="Bergholmen - Báktesuolu" />
		<tag k="name:no" v="Bergholmen" />
		<tag k="name:se" v="Báktesuolu" />
		<tag k="old_name:se" v="Baktesuolo" />
		<tag k="place" v="islet" />
		<tag k="ssr:stedsnr" v="504203" />
	</node>
	<node lat="69.90415560985507" lon="29.91590114606703" id="-45131">
		<tag k="name" v="Loddeneset - Šákšagoarrunjárga" />
		<tag k="name:no" v="Loddeneset" />
		<tag k="name:se" v="Šákšagoarrunjárga" />
		<tag k="natural" v="cape" />
		<tag k="old_name:se" v="Sakšagoarronjarga" />
		<tag k="ssr:stedsnr" v="504168" />
	</node>
	<node lat="69.91122505215857" lon="29.922098371802075" id="-45132">
		<tag k="name" v="Kim - Čoammir" />
		<tag k="name:no" v="Kim" />
		<tag k="name:se" v="Čoammir" />
		<tag k="place" v="islet" />
		<tag k="ssr:stedsnr" v="504169" />
	</node>
	<node lat="69.92321671967686" lon="29.611145773545314" id="-45133">
		<tag k="name" v="Ásekat" />
		<tag k="name:se" v="Ásekat" />
		<tag k="old_name:se" v="Asekat" />
		<tag k="place" v="island" />
		<tag k="ssr:stedsnr" v="504176" />
	</node>
	<node lat="69.81781116440582" lon="29.75190399418164" id="-45140">
		<tag k="alt_name:no" v="Norskbukta" />
		<tag k="name" v="Nordmannsbukta - Dážagohppi" />
		<tag k="name:no" v="Nordmannsbukta" />
		<tag k="name:se" v="Dážagohppi" />
		<tag k="natural" v="bay" />
		<tag k="old_name:se" v="Dažagåppi" />
		<tag k="ssr:stedsnr" v="505003" />
	</node>
	<node lat="69.80952505925731" lon="29.74269009859954" id="-45141">
		<tag k="name" v="Gárdenjárga - Paloniemi" />
		<tag k="name:fkv" v="Paloniemi" />
		<tag k="name:se" v="Gárdenjárga" />
		<tag k="natural" v="cape" />
		<tag k="old_name:se" v="Gardenjarga" />
		<tag k="ssr:stedsnr" v="505012" />
	</node>
	<node lat="69.78959453225133" lon="30.81901154091336" id="-45150">
		<tag k="name" v="Storflua" />
		<tag k="natural" v="shoal" />
		<tag k="place" v="locality" />
		<tag k="ssr:stedsnr" v="511539" />
	</node>
	<node lat="69.90934172245444" lon="29.819631767373096" id="-45152">
		<tag k="alt_name" v="Urdbukta" />
		<tag k="name" v="Urbukta" />
		<tag k="natural" v="bay" />
		<tag k="ssr:stedsnr" v="514471" />
	</node>
	<node lat="69.91451949720819" lon="29.815476216355034" id="-45153">
		<tag k="alt_name" v="Urdgrunnen" />
		<tag k="name" v="Urgrunnen" />
		<tag k="natural" v="shoal" />
		<tag k="place" v="locality" />
		<tag k="ssr:stedsnr" v="514472" />
	</node>
	<node lat="69.98880281992113" lon="29.50397641069041" id="-45169">
		<tag k="name" v="Pikkuhamina" />
		<tag k="name:fkv" v="Pikkuhamina" />
		<tag k="natural" v="bay" />
		<tag k="old_name:fkv" v="Bikkohamina" />
		<tag k="ssr:stedsnr" v="686151" />
	</node>
	<node lat="69.88351116792268" lon="30.024912169665924" id="-45175">
		<tag k="name" v="Gandholmen - Gánjasuolu" />
		<tag k="name:no" v="Gandholmen" />
		<tag k="name:se" v="Gánjasuolu" />
		<tag k="old_name:se" v="Ganjasuolo" />
		<tag k="place" v="islet" />
		<tag k="ssr:stedsnr" v="686058" />
	</node>
	<node lat="69.87723061774867" lon="30.254773140977036" id="-45176">
		<tag k="alt_name:no" v="Sultenvika, yt" />
		<tag k="name" v="Ytre Sultenvika - Olggut Rákkosváhki" />
		<tag k="name:no" v="Ytre Sultenvika" />
		<tag k="name:se" v="Olggut Rákkosváhki" />
		<tag k="natural" v="bay" />
		<tag k="old_name:se" v="Raggusvakki ålgut" />
		<tag k="ssr:stedsnr" v="686061" />
	</node>
	<node lat="69.87135562296592" lon="30.300309219286216" id="-45178">
		<tag k="fixme" v="multiple name tags, choose one and add the other to alt_name" />
		<tag k="name" v="Krykkjefjorden;Kvalbukta" />
		<tag k="natural" v="bay" />
		<tag k="ssr:stedsnr" v="686072" />
	</node>
	<node lat="69.7354000720978" lon="30.443242381586543" id="-45188">
		<tag k="name" v="Madvikneset" />
		<tag k="natural" v="cape" />
		<tag k="ssr:stedsnr" v="686219" />
	</node>
	<node lat="69.74813618639224" lon="30.41109796254486" id="-45190">
		<tag k="name" v="Torvneset" />
		<tag k="natural" v="cape" />
		<tag k="ssr:stedsnr" v="686224" />
	</node>
	<node lat="69.66932655518944" lon="30.377223496732796" id="-45196">
		<tag k="name" v="Karpbukta - Siidejohgohppi - Karpukta" />
		<tag k="name:fkv" v="Karpukta" />
		<tag k="name:no" v="Karpbukta" />
		<tag k="name:se" v="Siidejohgohppi" />
		<tag k="natural" v="bay" />
		<tag k="ssr:stedsnr" v="532097" />
	</node>
	<node lat="69.79430285844913" lon="30.726450510931244" id="-45203">
		<tag k="name" v="Garaveibukta - Gárátváhki" />
		<tag k="name:no" v="Garaveibukta" />
		<tag k="name:se" v="Gárátváhki" />
		<tag k="natural" v="bay" />
		<tag k="old_name:se" v="Garavakki" />
		<tag k="ssr:stedsnr" v="686384" />
	</node>
	<node lat="69.81165561140281" lon="29.742176225117536" id="-45231">
		<tag k="name" v="Rivdnjenjárga" />
		<tag k="name:se" v="Rivdnjenjárga" />
		<tag k="natural" v="cape" />
		<tag k="old_name:se" v="Rivdnjenjarga" />
		<tag k="ssr:stedsnr" v="687012" />
	</node>
	<node lat="69.78086394365714" lon="29.82827893125033" id="-45234">
		<tag k="name" v="Leirvåg" />
		<tag k="natural" v="bay" />
		<tag k="ssr:stedsnr" v="687027" />
	</node>
	<node lat="69.8602111752118" lon="30.211931481586937" id="-45235">
		<tag k="name" v="Uhca Vináš" />
		<tag k="name:se" v="Uhca Vináš" />
		<tag k="natural" v="cape" />
		<tag k="old_name:se" v="Vinaš, ucca" />
		<tag k="ssr:stedsnr" v="687076" />
	</node>
	<node lat="69.80105562615266" lon="30.393109107755457" id="-45238">
		<tag k="alt_name" v="Laksenes" />
		<tag k="name" v="Lakseneset" />
		<tag k="natural" v="cape" />
		<tag k="ssr:stedsnr" v="687116" />
	</node>
	<node lat="69.78487506038287" lon="30.170273160102017" id="-45239">
		<tag k="name" v="Øynasen" />
		<tag k="natural" v="cape" />
		<tag k="ssr:stedsnr" v="687120" />
	</node>
	<node lat="69.97982782677808" lon="29.584159706896852" id="-45243">
		<tag k="name" v="Palkani" />
		<tag k="name:fkv" v="Palkani" />
		<tag k="natural" v="cape" />
		<tag k="old_name:fkv" v="Balgami" />
		<tag k="ssr:stedsnr" v="687157" />
	</node>
	<node lat="69.76957784802102" lon="30.19572867858444" id="-45250">
		<tag k="name" v="Jurangohppi" />
		<tag k="name:se" v="Jurangohppi" />
		<tag k="natural" v="bay" />
		<tag k="old_name:se" v="Jurangåppi" />
		<tag k="ssr:stedsnr" v="687402" />
	</node>
	<node lat="69.71876672994544" lon="29.983223236390174" id="-45269">
		<tag k="alt_name" v="Hamnneset;Hamnnes" />
		<tag k="name" v="Gullgruveneset" />
		<tag k="natural" v="cape" />
		<tag k="ssr:stedsnr" v="565064" />
	</node>
	<node lat="69.83149172809495" lon="30.041301031285926" id="-45270">
		<tag k="name" v="Grasholmen - Gieddesuolu" />
		<tag k="name:no" v="Grasholmen" />
		<tag k="name:se" v="Gieddesuolu" />
		<tag k="old_name:se" v="Gieddesuolo" />
		<tag k="place" v="islet" />
		<tag k="ssr:stedsnr" v="565074" />
	</node>
	<node lat="69.90488894179043" lon="29.73767902747039" id="-45273">
		<tag k="name" v="Sildbukta - Sildegohppi" />
		<tag k="name:no" v="Sildbukta" />
		<tag k="name:se" v="Sildegohppi" />
		<tag k="natural" v="bay" />
		<tag k="old_name:se" v="Sildegåppi" />
		<tag k="ssr:stedsnr" v="565171" />
	</node>
	<node lat="69.90616949926641" lon="29.866501172237175" id="-45274">
		<tag k="name" v="Muotkalat" />
		<tag k="name:se" v="Muotkalat" />
		<tag k="natural" v="bay" />
		<tag k="ssr:stedsnr" v="565173" />
	</node>
	<node lat="69.91382782861862" lon="29.694023508717752" id="-45276">
		<tag k="alt_name:no" v="Oterfjordskjera" />
		<tag k="fixme" v="consider seamark:type=rock or natural=shoal" />
		<tag k="name" v="Oterfjordskjæret - Čoahkenlássát" />
		<tag k="name:no" v="Oterfjordskjæret" />
		<tag k="name:se" v="Čoahkenlássát" />
		<tag k="old_name:no" v="Oterfjordskjær" />
		<tag k="old_name:se" v="Čoakkenlassat" />
		<tag k="place" v="islet" />
		<tag k="ssr:stedsnr" v="565177" />
	</node>
	<node lat="69.83328060877164" lon="29.776070646051277" id="-45290">
		<tag k="name" v="Sporvneset" />
		<tag k="natural" v="cape" />
		<tag k="ssr:stedsnr" v="573405" />
	</node>
	<node lat="69.77165283888229" lon="29.8469761316024" id="-45295">
		<tag k="name" v="Sør-Leirvågen" />
		<tag k="natural" v="bay" />
		<tag k="ssr:stedsnr" v="695445" />
	</node>
	<node lat="69.90393615959756" lon="29.471856956567503" id="-45297">
		<tag k="name" v="Litlebukta" />
		<tag k="natural" v="bay" />
		<tag k="ssr:stedsnr" v="696355" />
	</node>
	<node lat="69.77953062050814" lon="30.19620645165787" id="-45299">
		<tag k="name" v="Ruhčeveadji" />
		<tag k="name:se" v="Ruhčeveadji" />
		<tag k="natural" v="bay" />
		<tag k="old_name:se" v="Ruččevæddji" />
		<tag k="ssr:stedsnr" v="696601" />
	</node>
	<node lat="69.75332783862437" lon="29.93431496116688" id="-45300">
		<tag k="name" v="Engelsbukta" />
		<tag k="natural" v="bay" />
		<tag k="ssr:stedsnr" v="696687" />
	</node>
	<node lat="69.80001951672939" lon="30.388789681532348" id="-45302">
		<tag k="name" v="Høybukta" />
		<tag k="natural" v="bay" />
		<tag k="ssr:stedsnr" v="696749" />
	</node>
	<node lat="69.80229728687866" lon="30.141887062049353" id="-45303">
		<tag k="name" v="Jendinabukta" />
		<tag k="natural" v="bay" />
		<tag k="ssr:stedsnr" v="590468" />
	</node>
	<node lat="69.97600004409892" lon="29.631090235904946" id="-45320">
		<tag k="name" v="Sankarineset" />
		<tag k="natural" v="cape" />
		<tag k="ssr:stedsnr" v="701094" />
	</node>
	<node lat="69.98406671727798" lon="29.623776360034753" id="-45328">
		<tag k="name" v="Svinøya - Spiidnesuolu" />
		<tag k="name:no" v="Svinøya" />
		<tag k="name:se" v="Spiidnesuolu" />
		<tag k="old_name:se" v="Spiidnesuolo" />
		<tag k="place" v="islet" />
		<tag k="ssr:stedsnr" v="625158" />
	</node>
	<node lat="69.83419450349795" lon="30.072184357020376" id="-45332">
		<tag k="name" v="Gullsmedvika - Cihcenjárluokta" />
		<tag k="name:no" v="Gullsmedvika" />
		<tag k="name:se" v="Cihcenjárluokta" />
		<tag k="natural" v="bay" />
		<tag k="old_name:se" v="Ciccenjarluokta" />
		<tag k="ssr:stedsnr" v="625089" />
	</node>
	<node lat="69.91157227102792" lon="29.715931815078868" id="-45342">
		<tag k="name" v="Skoalaidváhki" />
		<tag k="name:se" v="Skoalaidváhki" />
		<tag k="natural" v="bay" />
		<tag k="old_name:se" v="Skoalaidvakki" />
		<tag k="ssr:stedsnr" v="626209" />
	</node>
	<node lat="69.91765560803333" lon="29.639881881361532" id="-45343">
		<tag k="name" v="Davitsuolu" />
		<tag k="name:se" v="Davitsuolu" />
		<tag k="old_name:se" v="Davitsuolo" />
		<tag k="place" v="islet" />
		<tag k="ssr:stedsnr" v="626213" />
	</node>
	<node lat="69.91163893545107" lon="29.613942983780884" id="-45344">
		<tag k="name" v="Bárdenjárga" />
		<tag k="name:se" v="Bárdenjárga" />
		<tag k="natural" v="cape" />
		<tag k="old_name:se" v="Bardenjarga" />
		<tag k="ssr:stedsnr" v="626215" />
	</node>
	<node lat="69.7401389526136" lon="29.86513166874265" id="-45351">
		<tag k="name" v="Gáranasnjárga" />
		<tag k="name:se" v="Gáranasnjárga" />
		<tag k="natural" v="cape" />
		<tag k="ssr:stedsnr" v="631533" />
	</node>
	<node lat="69.86910562655736" lon="30.3327314057305" id="-45353">
		<tag k="fixme" v="consider seamark:type=rock or natural=shoal" />
		<tag k="name" v="Trifanskjæret - Triffanlásis - Triffananlaassa" />
		<tag k="name:fkv" v="Triffananlaassa" />
		<tag k="name:no" v="Trifanskjæret" />
		<tag k="name:se" v="Triffanlásis" />
		<tag k="place" v="islet" />
		<tag k="ssr:stedsnr" v="634200" />
	</node>
	<node lat="69.7171472915104" lon="30.128331486177217" id="-45355">
		<tag k="name" v="Svartakselbukta" />
		<tag k="natural" v="bay" />
		<tag k="ssr:stedsnr" v="635703" />
	</node>
	<node lat="69.78276117280103" lon="30.11343430390872" id="-45357">
		<tag k="name" v="Øyspissen" />
		<tag k="natural" v="cape" />
		<tag k="ssr:stedsnr" v="635716" />
	</node>
	<node lat="69.76995562200658" lon="30.183581458462807" id="-45358">
		<tag k="name" v="Brønnvikneset" />
		<tag k="natural" v="cape" />
		<tag k="ssr:stedsnr" v="635736" />
	</node>
	<node lat="69.97166116071821" lon="29.639679109846618" id="-45359">
		<tag k="name" v="Sanden" />
		<tag k="natural" v="beach" />
		<tag k="ssr:stedsnr" v="640119" />
	</node>
	<node lat="69.80081671740922" lon="29.718956785110702" id="-45377">
		<tag k="name" v="Bolkaniemi" />
		<tag k="name:fkv" v="Bolkaniemi" />
		<tag k="natural" v="cape" />
		<tag k="ssr:stedsnr" v="653534" />
	</node>
	<node lat="69.77199728121765" lon="29.677948461882252" id="-45391">
		<tag k="name" v="Kilbukta - Giillagohppi" />
		<tag k="name:no" v="Kilbukta" />
		<tag k="name:se" v="Giillagohppi" />
		<tag k="natural" v="bay" />
		<tag k="old_name:se" v="Giilagåppi" />
		<tag k="ssr:stedsnr" v="686044" />
	</node>
	<node lat="69.7815195281561" lon="30.727119964721194" id="-45400">
		<tag k="bay" v="fjord" />
		<tag k="loc_name:se" v="Vuorkelvuonna" />
		<tag k="loc_name:sms" v="Vïrkkl’vuonn" />
		<tag k="name" v="Kobbholmfjorden - Vuorkelvuotna" />
		<tag k="name:no" v="Kobbholmfjorden" />
		<tag k="name:se" v="Vuorkelvuotna" />
		<tag k="natural" v="bay" />
		<tag k="old_name:se" v="Vuorkelvuodna" />
		<tag k="ssr:stedsnr" v="686437" />
	</node>
	<node lat="69.8531722861299" lon="30.298753642120726" id="-45414">
		<tag k="name" v="Ytterhamna" />
		<tag k="natural" v="bay" />
		<tag k="ssr:stedsnr" v="687087" />
	</node>
	<node lat="69.83551672979395" lon="30.237112024512353" id="-45416">
		<tag k="name" v="Innerhamna" />
		<tag k="natural" v="bay" />
		<tag k="ssr:stedsnr" v="687095" />
	</node>
	<node lat="69.8898111688893" lon="29.844098405474544" id="-45420">
		<tag k="name" v="Skogerøya - Sállan" />
		<tag k="name:no" v="Skogerøya" />
		<tag k="name:se" v="Sállan" />
		<tag k="old_name:se" v="Sallan;Sallen" />
		<tag k="place" v="island" />
		<tag k="ssr:stedsnr" v="687240" />
	</node>
	<node lat="69.89704727619304" lon="29.79595677095753" id="-45421">
		<tag k="name" v="Revøysund - Guovllasbohki" />
		<tag k="name:no" v="Revøysund" />
		<tag k="name:se" v="Guovllasbohki" />
		<tag k="natural" v="strait" />
		<tag k="old_name:se" v="Guovlasbåkki" />
		<tag k="ssr:stedsnr" v="687187" />
	</node>
	<node lat="69.9079611614614" lon="29.84818453446721" id="-45422">
		<tag k="name" v="Russevika" />
		<tag k="natural" v="bay" />
		<tag k="ssr:stedsnr" v="687190" />
	</node>
	<node lat="69.90880560767872" lon="29.632148533439853" id="-45424">
		<tag k="name" v="Govdaváhki" />
		<tag k="name:se" v="Govdaváhki" />
		<tag k="natural" v="bay" />
		<tag k="old_name:se" v="Gåvdavakki" />
		<tag k="ssr:stedsnr" v="687201" />
	</node>
	<node lat="69.75296395549695" lon="30.041401006099846" id="-45435">
		<tag k="name" v="Leirpollnes" />
		<tag k="natural" v="cape" />
		<tag k="ssr:stedsnr" v="692513" />
	</node>
	<node lat="69.70117227386761" lon="29.559529054301382" id="-45440">
		<tag k="name" v="Sandtangen" />
		<tag k="natural" v="cape" />
		<tag k="ssr:stedsnr" v="696682" />
	</node>
	<node lat="69.67746674821058" lon="30.444117343632854" id="-45449">
		<tag k="name" v="Lyngnes" />
		<tag k="natural" v="cape" />
		<tag k="ssr:stedsnr" v="896095" />
	</node>
	<node lat="69.65928894509211" lon="29.48072908185099" id="-45458">
		<tag k="name" v="Råttenbukta - Gožegohppi" />
		<tag k="name:no" v="Råttenbukta" />
		<tag k="name:se" v="Gožegohppi" />
		<tag k="natural" v="bay" />
		<tag k="ssr:stedsnr" v="897188" />
	</node>
	<node lat="69.93456115806666" lon="29.56757636603761" id="-45508">
		<tag k="name" v="Ranvika" />
		<tag k="natural" v="bay" />
		<tag k="ssr:stedsnr" v="747166" />
	</node>
	<node lat="69.96151393699947" lon="29.659193001304157" id="-45509">
		<tag k="alt_name" v="Oterbergneset" />
		<tag k="name" v="Oterneset" />
		<tag k="natural" v="cape" />
		<tag k="ssr:stedsnr" v="747167" />
	</node>
	<node lat="69.89927227969967" lon="29.884484503736417" id="-45514">
		<tag k="name" v="Kimbukta - Skuvgegohppi" />
		<tag k="name:no" v="Kimbukta" />
		<tag k="name:se" v="Skuvgegohppi" />
		<tag k="natural" v="bay" />
		<tag k="old_name:se" v="Skuvgegåppi" />
		<tag k="ssr:stedsnr" v="747209" />
	</node>
	<node lat="69.78424730038041" lon="30.695136645894987" id="-45519">
		<tag k="fixme" v="multiple name tags, choose one and add the other to alt_name" />
		<tag k="name" v="Storbukta;Laksebukta - Stuorragohppi" />
		<tag k="name:no" v="Storbukta;Laksebukta" />
		<tag k="name:se" v="Stuorragohppi" />
		<tag k="natural" v="bay" />
		<tag k="old_name:se" v="Stuorragåppi" />
		<tag k="ssr:stedsnr" v="747414" />
	</node>
	<node lat="69.78766397003514" lon="30.783178230083948" id="-45520">
		<tag k="name" v="Levra" />
		<tag k="natural" v="cape" />
		<tag k="ssr:stedsnr" v="747416" />
	</node>
	<node lat="69.79828896722984" lon="30.69114777056907" id="-45521">
		<tag k="alt_name" v="Straumen, austre" />
		<tag k="name" v="Austre Straumen" />
		<tag k="natural" v="bay" />
		<tag k="ssr:stedsnr" v="747366" />
	</node>
	<node lat="69.78778619292346" lon="30.744939396219625" id="-45522">
		<tag k="alt_name:no" v="Kobbholmen, midtre" />
		<tag k="name" v="Midtre Kobbholmen - Stuorátsuolu" />
		<tag k="name:no" v="Midtre Kobbholmen" />
		<tag k="name:se" v="Stuorátsuolu" />
		<tag k="old_name:se" v="Stuoratsuolo" />
		<tag k="place" v="islet" />
		<tag k="ssr:stedsnr" v="747371" />
	</node>
	<node lat="69.93055560943186" lon="29.938053932588918" id="-45533">
		<tag k="name" v="Kimgrunnen" />
		<tag k="natural" v="shoal" />
		<tag k="place" v="locality" />
		<tag k="ssr:stedsnr" v="756207" />
	</node>
	<node lat="69.8157972867144" lon="30.014364945727625" id="-45539">
		<tag k="name" v="Holmbukta" />
		<tag k="natural" v="bay" />
		<tag k="ssr:stedsnr" v="756758" />
	</node>
	<node lat="69.70970006134247" lon="29.971503790662148" id="-45544">
		<tag k="name" v="Ytrenes" />
		<tag k="natural" v="cape" />
		<tag k="ssr:stedsnr" v="761892" />
	</node>
	<node lat="69.7888889684875" lon="30.743608831562884" id="-45560">
		<tag k="name" v="Kobbholman" />
		<tag k="place" v="islet" />
		<tag k="ssr:stedsnr" v="910622" />
	</node>
	<node lat="69.88014451029247" lon="30.19967040047952" id="-45567">
		<tag k="name" v="Hungerneset" />
		<tag k="natural" v="cape" />
		<tag k="ssr:stedsnr" v="817219" />
	</node>
	<node lat="69.80986118953486" lon="30.57941175532588" id="-45568">
		<tag k="name" v="Pasvikhamna" />
		<tag k="natural" v="bay" />
		<tag k="ssr:stedsnr" v="817385" />
	</node>
	<node lat="69.75485838314363" lon="29.636840146850197" id="-45569">
		<tag k="name" v="Sandbukta" />
		<tag k="natural" v="bay" />
		<tag k="ssr:stedsnr" v="817669" />
	</node>
	<node lat="69.77278340522147" lon="30.41329796258658" id="-45570">
		<tag k="name" v="Spergitholmen" />
		<tag k="place" v="islet" />
		<tag k="ssr:stedsnr" v="817773" />
	</node>
	<node lat="69.81545561421665" lon="29.757051214834345" id="-45586">
		<tag k="name" v="Virtaniemi" />
		<tag k="name:fkv" v="Virtaniemi" />
		<tag k="natural" v="cape" />
		<tag k="ssr:stedsnr" v="836506" />
	</node>
	<node lat="69.743461168346" lon="29.803056716285926" id="-45591">
		<tag k="alt_name" v="Tusenvik" />
		<tag k="name" v="Tusenvika" />
		<tag k="natural" v="bay" />
		<tag k="ssr:stedsnr" v="928043" />
	</node>
	<node lat="69.86576395323003" lon="30.07360936691325" id="-45607">
		<tag k="alt_name" v="Ranspervika" />
		<tag k="name" v="Transperbukta" />
		<tag k="natural" v="bay" />
		<tag k="ssr:stedsnr" v="929066" />
	</node>
	<node lat="69.75222228363833" lon="30.031609334240603" id="-45648">
		<tag k="name" v="Leirpollen - Šoaranluokta" />
		<tag k="name:no" v="Leirpollen" />
		<tag k="name:se" v="Šoaranluokta" />
		<tag k="natural" v="bay" />
		<tag k="ssr:stedsnr" v="929379" />
	</node>
	<node lat="69.80261116241819" lon="29.745059540347768" id="-45649">
		<tag k="alt_name:no" v="Strømsnes" />
		<tag k="alt_name:se" v="Gáddenjárga" />
		<tag k="name" v="Østre Straumsnes - Gieddenjárga" />
		<tag k="name:no" v="Østre Straumsnes" />
		<tag k="name:se" v="Gieddenjárga" />
		<tag k="natural" v="cape" />
		<tag k="old_name:se" v="Gieddenjarga;Gieđđenjárga" />
		<tag k="ssr:stedsnr" v="929445" />
	</node>
	<node lat="69.67939727984259" lon="29.518687408517327" id="-45673">
		<tag k="alt_name:no" v="Ulveneset" />
		<tag k="name" v="Ulvenes - Gumpenjárga" />
		<tag k="name:no" v="Ulvenes" />
		<tag k="name:se" v="Gumpenjárga" />
		<tag k="natural" v="cape" />
		<tag k="ssr:stedsnr" v="930115" />
	</node>
	<node lat="69.81670006958895" lon="30.453750747964804" id="-45699">
		<tag k="name" v="Hestefjorden" />
		<tag k="natural" v="bay" />
		<tag k="ssr:stedsnr" v="869104" />
	</node>
	<node lat="69.80020561611377" lon="30.0131316030978" id="-45702">
		<tag k="name" v="Svenskesteinneset - Álosrohtonjárga" />
		<tag k="name:no" v="Svenskesteinneset" />
		<tag k="name:se" v="Álosrohtonjárga" />
		<tag k="natural" v="cape" />
		<tag k="old_name:se" v="Alusråttunjarga" />
		<tag k="ssr:stedsnr" v="869110" />
	</node>
	<node lat="69.90784172154565" lon="29.812323429190112" id="-45706">
		<tag k="name" v="Pulkbukta - Geresgohppi" />
		<tag k="name:no" v="Pulkbukta" />
		<tag k="name:se" v="Geresgohppi" />
		<tag k="natural" v="bay" />
		<tag k="old_name:se" v="Geresgåppi" />
		<tag k="ssr:stedsnr" v="930197" />
	</node>
	<node lat="69.8600361716856" lon="30.09153990910058" id="-45711">
		<tag k="alt_name" v="Ransperodden" />
		<tag k="name" v="Transperodden" />
		<tag k="natural" v="cape" />
		<tag k="ssr:stedsnr" v="869077" />
	</node>
	<node lat="69.79903063583691" lon="30.731725507961055" id="-45717">
		<tag k="name" v="Heikeneset - Heaikkanjárga" />
		<tag k="name:no" v="Heikeneset" />
		<tag k="name:se" v="Heaikkanjárga" />
		<tag k="natural" v="cape" />
		<tag k="old_name:se" v="Hæikanjarga" />
		<tag k="ssr:stedsnr" v="869419" />
	</node>
	<node lat="69.8134000722915" lon="30.639422825922377" id="-45718">
		<tag k="name" v="Lyngøya - Luovan" />
		<tag k="name:no" v="Lyngøya" />
		<tag k="name:se" v="Luovan" />
		<tag k="place" v="island" />
		<tag k="ssr:stedsnr" v="869431" />
	</node>
	<node lat="69.78325562613327" lon="30.38065633748074" id="-45723">
		<tag k="alt_name:no" v="Skipshamn" />
		<tag k="name" v="Skipshamna - Goalseváhki" />
		<tag k="name:no" v="Skipshamna" />
		<tag k="name:se" v="Goalseváhki" />
		<tag k="natural" v="bay" />
		<tag k="old_name:se" v="Goalsevakki" />
		<tag k="ssr:stedsnr" v="930412" />
	</node>
	<node lat="69.84544729096865" lon="30.267539772595548" id="-45733">
		<tag k="name" v="Rypebukta" />
		<tag k="natural" v="bay" />
		<tag k="ssr:stedsnr" v="878225" />
	</node>
	<node lat="69.87981950765044" lon="30.174084312881657" id="-45734">
		<tag k="fixme" v="consider seamark:type=rock or natural=shoal" />
		<tag k="name" v="Skitnskjæret" />
		<tag k="place" v="islet" />
		<tag k="ssr:stedsnr" v="878227" />
	</node>
	<node lat="69.6755139640394" lon="30.43189236119691" id="-45735">
		<tag k="name" v="Tårnbukta - Sáddogohppi" />
		<tag k="name:no" v="Tårnbukta" />
		<tag k="name:se" v="Sáddogohppi" />
		<tag k="natural" v="bay" />
		<tag k="ssr:stedsnr" v="878265" />
	</node>
	<node lat="69.56325284737751" lon="30.079150886784774" id="-45736">
		<tag k="name" v="Brattlibukta" />
		<tag k="natural" v="bay" />
		<tag k="ssr:stedsnr" v="878568" />
	</node>
	<node lat="69.81832785327349" lon="30.520220142133965" id="-45740">
		<tag k="name" v="Bellonkeila" />
		<tag k="natural" v="bay" />
		<tag k="ssr:stedsnr" v="879753" />
	</node>
	<node lat="69.86732226817587" lon="29.389843100338098" id="-45772">
		<tag k="alt_name:no" v="Bugøyfjord" />
		<tag k="bay" v="fjord" />
		<tag k="name" v="Bugøyfjorden - Reaisvuonna - Reisivuono" />
		<tag k="name:fkv" v="Reisivuono" />
		<tag k="name:no" v="Bugøyfjorden" />
		<tag k="name:se" v="Reaisvuonna" />
		<tag k="natural" v="bay" />
		<tag k="old_name:se" v="Ræisavuodna" />
		<tag k="ssr:stedsnr" v="929127" />
	</node>
	<node lat="69.86469728183778" lon="30.041095505918193" id="-45778">
		<tag k="alt_name:no" v="Prestbukta" />
		<tag k="name" v="Prestebukta - Báhpagohppi" />
		<tag k="name:no" v="Prestebukta" />
		<tag k="name:se" v="Báhpagohppi" />
		<tag k="natural" v="bay" />
		<tag k="old_name:se" v="Bappagåppi" />
		<tag k="ssr:stedsnr" v="929054" />
	</node>
	<node lat="69.87381950589189" lon="30.04491771882452" id="-45780">
		<tag k="alt_name:no" v="Kjelmsøya" />
		<tag k="name" v="Kjelmøya - Dálmmat" />
		<tag k="name:no" v="Kjelmøya" />
		<tag k="name:se" v="Dálmmat" />
		<tag k="old_name:se" v="Dalmat" />
		<tag k="place" v="island" />
		<tag k="ssr:stedsnr" v="929057" />
	</node>
	<node lat="69.87746395174123" lon="30.222778713626187" id="-45782">
		<tag k="alt_name:no" v="Sultenvika, in" />
		<tag k="name" v="Indre Sultenvika - Rákkosváhki" />
		<tag k="name:no" v="Indre Sultenvika" />
		<tag k="name:se" v="Rákkosváhki" />
		<tag k="natural" v="bay" />
		<tag k="old_name:se" v="Raggusvakki" />
		<tag k="ssr:stedsnr" v="929061" />
	</node>
	<node lat="69.71262505853444" lon="29.64091235032862" id="-45783">
		<tag k="name" v="Oažželuovta" />
		<tag k="name:se" v="Oažželuovta" />
		<tag k="natural" v="bay" />
		<tag k="ssr:stedsnr" v="929062" />
	</node>
	<node lat="69.97947504557096" lon="29.59479302592028" id="-45791">
		<tag k="alt_name" v="Mortensand" />
		<tag k="name" v="Mortensanden" />
		<tag k="natural" v="beach" />
		<tag k="ssr:stedsnr" v="929152" />
	</node>
	<node lat="69.84405839981704" lon="30.354253603836987" id="-45805">
		<tag k="name" v="Luhčabávttnjárga" />
		<tag k="name:se" v="Luhčabávttnjárga" />
		<tag k="natural" v="cape" />
		<tag k="old_name:se" v="Luččabavtnjarga;Luččabavtnjárga" />
		<tag k="ssr:stedsnr" v="930097" />
	</node>
	<node lat="70.00535004327334" lon="29.380373698024318" id="-45808">
		<tag k="name" v="Storsand" />
		<tag k="natural" v="beach" />
		<tag k="ssr:stedsnr" v="930609" />
	</node>
	<node lat="69.79259175012771" lon="30.782453239679818" id="-45812">
		<tag k="fixme" v="consider seamark:type=rock or natural=shoal" />
		<tag k="name" v="Skarvskjæran" />
		<tag k="place" v="islet" />
		<tag k="ssr:stedsnr" v="936598" />
	</node>
	<node lat="69.83933617283984" lon="30.232295348844033" id="-45814">
		<tag k="name" v="Nordvestbukta" />
		<tag k="natural" v="bay" />
		<tag k="ssr:stedsnr" v="939210" />
	</node>
	<node lat="69.87993895034147" lon="30.174200962921088" id="-45816">
		<tag k="name" v="Skitnskjær" />
		<tag k="place" v="islet" />
		<tag k="ssr:stedsnr" v="939607" />
	</node>
</osm>
