<?xml version="1.0" encoding="UTF-8"?>
<osm generator="osmapis" version="0.6">
	<node id="-77311" lat="61.0199638886" lon="12.2424555592">
		<tag k="historic" v="boundary_stone" />
		<tag k="man_made" v="cairn" />
		<tag k="name" v="Badosen" />
		<tag k="old_name" v="Bagooset" />
		<tag k="place" v="locality" />
		<tag k="ssr:stedsnr" v="474269" />
	</node>
	<node id="-77310" lat="61.6146749975" lon="12.3412166711">
		<tag k="historic" v="boundary_stone" />
		<tag k="man_made" v="cairn" />
		<tag k="name" v="Midtskogknattsrøysa" />
		<tag k="old_name" v="Midskogsknatte Røset" />
		<tag k="place" v="locality" />
		<tag k="ssr:stedsnr" v="474026" />
	</node>
	<node id="-76245" lat="61.1014305581" lon="12.6948333358">
		<tag k="historic" v="boundary_stone" />
		<tag k="man_made" v="cairn" />
		<tag k="name" v="Borveggsrøysa" />
		<tag k="old_name" v="Borvigs Røset" />
		<tag k="place" v="locality" />
		<tag k="ssr:stedsnr" v="292389" />
	</node>
	<node id="-82166" lat="61.0465388847" lon="12.6103916591">
		<tag k="historic" v="boundary_stone" />
		<tag k="man_made" v="cairn" />
		<tag k="name" v="Sandkilderøysa" />
		<tag k="old_name" v="Sandkilde Røset" />
		<tag k="place" v="locality" />
		<tag k="ssr:stedsnr" v="717424" />
	</node>
	<node id="-78324" lat="61.3971722244" lon="12.2327388935">
		<tag k="historic" v="boundary_stone" />
		<tag k="man_made" v="cairn" />
		<tag k="name" v="Fjerdingsfurua" />
		<tag k="place" v="locality" />
		<tag k="ssr:stedsnr" v="114603" />
	</node>
	<node id="-79343" lat="61.5671166687" lon="12.4465944509">
		<tag k="historic" v="boundary_stone" />
		<tag k="man_made" v="cairn" />
		<tag k="name" v="Kvernkilderøysa" />
		<tag k="old_name" v="Qvarnkilde Røset" />
		<tag k="place" v="locality" />
		<tag k="ssr:stedsnr" v="231024" />
	</node>
	<node id="-79342" lat="61.6402450207" lon="12.2756330382">
		<tag k="historic" v="boundary_stone" />
		<tag k="loc_name" v="Litlfjellsrøysa" />
		<tag k="man_made" v="cairn" />
		<tag k="name" v="Lillefjellsrøysa" />
		<tag k="old_name" v="Lislefjelds Røset" />
		<tag k="place" v="locality" />
		<tag k="ssr:stedsnr" v="231013" />
	</node>
	<node id="-83819" lat="61.2571750045" lon="12.1773638818">
		<tag k="historic" v="boundary_stone" />
		<tag k="man_made" v="cairn" />
		<tag k="name" v="Åkrerøset" />
		<tag k="place" v="locality" />
		<tag k="ssr:stedsnr" v="907890" />
	</node>
	<node id="-76776" lat="61.356494448" lon="12.8708555487">
		<tag k="historic" v="boundary_stone" />
		<tag k="man_made" v="cairn" />
		<tag k="name" v="Mellomfjellsrøysa" />
		<tag k="old_name" v="Mellemste Faxefjelds Røset" />
		<tag k="place" v="locality" />
		<tag k="ssr:stedsnr" v="352501" />
	</node>
	<node id="-76775" lat="61.4044694483" lon="12.8051166586">
		<tag k="historic" v="boundary_stone" />
		<tag k="man_made" v="cairn" />
		<tag k="name" v="Vestertangrøysa" />
		<tag k="old_name" v="Vestre Tangs Røset" />
		<tag k="place" v="locality" />
		<tag k="ssr:stedsnr" v="352499" />
	</node>
	<node id="-76774" lat="61.0469944487" lon="12.5971861142">
		<tag k="historic" v="boundary_stone" />
		<tag k="man_made" v="cairn" />
		<tag k="name" v="Vestre Sandkildefossrøysa" />
		<tag k="old_name" v="Vestre Sandkild-fors Røset" />
		<tag k="place" v="locality" />
		<tag k="ssr:stedsnr" v="352401" />
	</node>
	<node id="-76773" lat="61.0271416675" lon="12.2948416724">
		<tag k="historic" v="boundary_stone" />
		<tag k="man_made" v="cairn" />
		<tag k="name" v="Høljefallsrøysa" />
		<tag k="old_name" v="Høljefald-Røset" />
		<tag k="place" v="locality" />
		<tag k="ssr:stedsnr" v="352255" />
	</node>
	<node id="-77794" lat="61.2584638921" lon="12.833841676">
		<tag k="historic" v="boundary_stone" />
		<tag k="man_made" v="cairn" />
		<tag k="name" v="Våldalsrøysa" />
		<tag k="old_name" v="Waatudalsyuns Røse" />
		<tag k="place" v="locality" />
		<tag k="ssr:stedsnr" v="49519" />
	</node>
	<node id="-79290" lat="61.4812999989" lon="12.6659972191">
		<tag k="fixme" v="consider boundary=protected_area and relevant protect_class if not nature reserve" />
		<tag k="leisure" v="nature_reserve" />
		<tag k="name" v="Fulufjellet nasjonalpark" />
		<tag k="ssr:stedsnr" v="222294" />
	</node>
	<node id="-81110" lat="61.0612111109" lon="12.6826138976">
		<tag k="historic" v="boundary_stone" />
		<tag k="man_made" v="cairn" />
		<tag k="name" v="Østre Kildegravsrøysa" />
		<tag k="old_name" v="Østre Kildegravs Røset" />
		<tag k="place" v="locality" />
		<tag k="ssr:stedsnr" v="595391" />
	</node>
	<node id="-81109" lat="61.0507333318" lon="12.447616671">
		<tag k="historic" v="boundary_stone" />
		<tag k="man_made" v="cairn" />
		<tag k="name" v="Varårøysa" />
		<tag k="old_name" v="Varaae Røset" />
		<tag k="place" v="locality" />
		<tag k="ssr:stedsnr" v="595239" />
	</node>
	<node id="-76243" lat="61.0206305599" lon="12.2473222236">
		<tag k="historic" v="boundary_stone" />
		<tag k="man_made" v="cairn" />
		<tag k="name" v="Badsjørøysa" />
		<tag k="old_name" v="Bagsiøe Røset" />
		<tag k="place" v="locality" />
		<tag k="ssr:stedsnr" v="292248" />
	</node>
	<node id="-76242" lat="61.0516388911" lon="12.4875916733">
		<tag k="historic" v="boundary_stone" />
		<tag k="man_made" v="cairn" />
		<tag k="name" v="Storbergs Granholtsrøysa" />
		<tag k="old_name" v="Storbergs-Granholts Røse" />
		<tag k="place" v="locality" />
		<tag k="ssr:stedsnr" v="292242" />
	</node>
	<node id="-78796" lat="61.0469833309" lon="12.5980388951">
		<tag k="historic" v="boundary_stone" />
		<tag k="man_made" v="cairn" />
		<tag k="name" v="Sandkildfossen" />
		<tag k="old_name" v="Holmen i Sandkildforsen" />
		<tag k="place" v="locality" />
		<tag k="ssr:stedsnr" v="170428" />
	</node>
	<node id="-78795" lat="61.0403194458" lon="12.3793527825">
		<tag k="historic" v="boundary_stone" />
		<tag k="man_made" v="cairn" />
		<tag k="name" v="Harbergsrøysa" />
		<tag k="old_name" v="Harbergs Røset" />
		<tag k="place" v="locality" />
		<tag k="ssr:stedsnr" v="170305" />
	</node>
	<node id="-80586" lat="61.5090277809" lon="12.654705554">
		<tag k="historic" v="boundary_stone" />
		<tag k="man_made" v="cairn" />
		<tag k="name" v="Slottshørøysa" />
		<tag k="old_name" v="Slotshøyds Røset" />
		<tag k="place" v="locality" />
		<tag k="ssr:stedsnr" v="535022" />
	</node>
	<node id="-83655" lat="61.0492916681" lon="12.5407277714">
		<tag k="historic" v="boundary_stone" />
		<tag k="man_made" v="cairn" />
		<tag k="name" v="Storbergsbakkerøysa" />
		<tag k="old_name" v="Storbergs-bakke Røset" />
		<tag k="place" v="locality" />
		<tag k="ssr:stedsnr" v="899409" />
	</node>
	<node id="-78277" lat="61.0521861129" lon="12.651691664">
		<tag k="alt_name" v="Vestre Kjeldgravrøysa" />
		<tag k="historic" v="boundary_stone" />
		<tag k="man_made" v="cairn" />
		<tag k="name" v="Vestre Kildegravsrøysa" />
		<tag k="old_name" v="Vestre Kildegravs Røset" />
		<tag k="place" v="locality" />
		<tag k="ssr:stedsnr" v="110433" />
	</node>
	<node id="-84164" lat="61.5687444423" lon="12.5693305503">
		<tag k="historic" v="boundary_stone" />
		<tag k="man_made" v="cairn" />
		<tag k="name" v="Brattfjellsrøysa" />
		<tag k="old_name" v="Bratfjeld Røset" />
		<tag k="place" v="locality" />
		<tag k="ssr:stedsnr" v="959025" />
	</node>
	<node id="-83778" lat="61.1101972178" lon="12.6841750069">
		<tag k="historic" v="boundary_stone" />
		<tag k="man_made" v="cairn" />
		<tag k="name" v="Borveggtårnet" />
		<tag k="place" v="locality" />
		<tag k="ssr:stedsnr" v="905394" />
	</node>
	<node id="-83259" lat="61.0464638918" lon="12.6001694526">
		<tag k="historic" v="boundary_stone" />
		<tag k="man_made" v="cairn" />
		<tag k="name" v="Østre Sandkildefossrøysa" />
		<tag k="old_name" v="Østre Sandkildfors Røset" />
		<tag k="place" v="locality" />
		<tag k="ssr:stedsnr" v="838443" />
	</node>
	<node id="-83258" lat="61.0189666698" lon="12.2397833279">
		<tag k="historic" v="boundary_stone" />
		<tag k="man_made" v="cairn" />
		<tag k="name" v="Badosrøysa" />
		<tag k="old_name" v="Bagoos Røset" />
		<tag k="place" v="locality" />
		<tag k="ssr:stedsnr" v="838281" />
	</node>
	<node id="-77493" lat="61.0554858755" lon="12.2621356289">
		<tag k="fixme" v="consider boundary=protected_area and relevant protect_class if not nature reserve" />
		<tag k="leisure" v="nature_reserve" />
		<tag k="name" v="Skjeftkjølen naturreservat" />
		<tag k="ssr:stedsnr" v="991090" />
	</node>
	<node id="-77491" lat="61.4051838405" lon="12.5667077695">
		<tag k="fixme" v="consider boundary=protected_area and relevant protect_class if not nature reserve" />
		<tag k="leisure" v="nature_reserve" />
		<tag k="name" v="Granbekken og Drevja naturreservat" />
		<tag k="ssr:stedsnr" v="982689" />
	</node>
	<node id="-77490" lat="61.0936428066" lon="12.2708679111">
		<tag k="fixme" v="consider boundary=protected_area and relevant protect_class if not nature reserve" />
		<tag k="leisure" v="nature_reserve" />
		<tag k="name" v="Regnåsen og Hisåsen naturreservat" />
		<tag k="ssr:stedsnr" v="982686" />
	</node>
	<node id="-84167" lat="61.3081194443" lon="12.8530888847">
		<tag k="historic" v="boundary_stone" />
		<tag k="man_made" v="cairn" />
		<tag k="name" v="Vestre Faksfjellrøysa" />
		<tag k="old_name" v="Vestre Faxefjelds Røset" />
		<tag k="place" v="locality" />
		<tag k="ssr:stedsnr" v="959464" />
	</node>
	<node id="-77216" lat="61.392641667" lon="12.0447611069">
		<tag k="fixme" v="consider boundary=protected_area and relevant protect_class if not nature reserve" />
		<tag k="leisure" v="nature_reserve" />
		<tag k="name" v="Hatten skogreservat" />
		<tag k="ssr:stedsnr" v="390714" />
	</node>
	<node id="-84165" lat="61.5629805512" lon="12.4196055521">
		<tag k="historic" v="boundary_stone" />
		<tag k="loc_name" v="Maurtuverøysa" />
		<tag k="man_made" v="cairn" />
		<tag k="name" v="Myrtuverøysa" />
		<tag k="old_name" v="Mørtetuv (Myrtuv) Røset" />
		<tag k="place" v="locality" />
		<tag k="ssr:stedsnr" v="959030" />
	</node>
	<node id="-83352" lat="61.4873805592" lon="12.1211138857">
		<tag k="historic" v="boundary_stone" />
		<tag k="man_made" v="cairn" />
		<tag k="name" v="Nils-Mess tallen" />
		<tag k="place" v="locality" />
		<tag k="ssr:stedsnr" v="843842" />
	</node>
	<node id="-82702" lat="61.197049999" lon="12.7903611131">
		<tag k="historic" v="boundary_stone" />
		<tag k="man_made" v="cairn" />
		<tag k="name" v="Brunntjønnrøysa" />
		<tag k="old_name" v="Brunhøydens Røse" />
		<tag k="place" v="locality" />
		<tag k="ssr:stedsnr" v="777501" />
	</node>
</osm>
