<?xml version="1.0" encoding="UTF-8"?>
<osm generator="osmapis" version="0.6">
	<node id="-76157" lat="61.2248555524" lon="12.7753638796">
		<tag k="name" v="Veltplassen" />
		<tag k="place" v="locality" />
		<tag k="ssr:stedsnr" v="42503" />
	</node>
	<node id="-79099" lat="61.383761111" lon="12.6854333394">
		<tag k="amenity" v="place_of_worship" />
		<tag k="denomination" v="lutheran" />
		<tag k="name" v="Ljørdalen kirke" />
		<tag k="religion" v="christian" />
		<tag k="ssr:stedsnr" v="191283" />
	</node>
	<node id="-78586" lat="61.2715944429" lon="12.0830722284">
		<tag k="name" v="Nordbylinja" />
		<tag k="place" v="locality" />
		<tag k="ssr:stedsnr" v="147433" />
	</node>
	<node id="-76558" lat="61.2812333311" lon="12.568519437">
		<tag k="name" v="Bjørsetkva" />
		<tag k="place" v="locality" />
		<tag k="ssr:stedsnr" v="102711" />
	</node>
	<node id="-77686" lat="61.2495861083" lon="12.0361027779">
		<tag k="amenity" v="community_centre" />
		<tag k="name" v="Sentrum" />
		<tag k="ssr:stedsnr" v="41686" />
	</node>
	<node id="-77682" lat="61.2842599851" lon="12.8414025728">
		<tag k="name" v="Persten" />
		<tag k="ssr:stedsnr" v="41658" />
		<tag k="tourism" v="attraction" />
	</node>
	<node id="-80625" lat="61.0678638927" lon="12.4074527868">
		<tag k="name" v="Klamperudvelta" />
		<tag k="place" v="locality" />
		<tag k="ssr:stedsnr" v="540045" />
	</node>
	<node id="-80363" lat="61.5255750011" lon="12.0806750042">
		<tag k="amenity" v="community_centre" />
		<tag k="name" v="Engerneset" />
		<tag k="old_name" v="Eidet" />
		<tag k="ssr:stedsnr" v="495594" />
	</node>
	<node id="-82410" lat="61.43046667" lon="12.2590027819">
		<tag k="name" v="Storflendammen" />
		<tag k="place" v="locality" />
		<tag k="ssr:stedsnr" v="736740" />
	</node>
	<node id="-76133" lat="61.2991500037" lon="12.8260861202">
		<tag k="name" v="Mosevelta" />
		<tag k="place" v="locality" />
		<tag k="ssr:stedsnr" v="284769" />
	</node>
	<node id="-79715" lat="61.5312916654" lon="12.3662972308">
		<tag k="cemetery" v="grave" />
		<tag k="name" v="Drevdalen kirkegård" />
		<tag k="place" v="locality" />
		<tag k="ssr:stedsnr" v="418938" />
	</node>
	<node id="-82783" lat="61.4148333341" lon="12.1376416575">
		<tag k="amenity" v="place_of_worship" />
		<tag k="denomination" v="lutheran" />
		<tag k="name" v="Nordre Trysil kirke" />
		<tag k="religion" v="christian" />
		<tag k="ssr:stedsnr" v="785235" />
	</node>
	<node id="-76126" lat="61.2836249994" lon="12.7951499931">
		<tag k="name" v="Martin Sæter-svingen" />
		<tag k="place" v="locality" />
		<tag k="ssr:stedsnr" v="284670" />
	</node>
	<node id="-77917" lat="61.1798027815" lon="11.9087333291">
		<tag k="amenity" v="community_centre" />
		<tag k="name" v="Fredheim" />
		<tag k="ssr:stedsnr" v="68063" />
	</node>
	<node id="-76117" lat="61.2555833374" lon="12.530416673">
		<tag k="amenity" v="place_of_worship" />
		<tag k="denomination" v="lutheran" />
		<tag k="name" v="Østby kirke" />
		<tag k="religion" v="christian" />
		<tag k="ssr:stedsnr" v="284288" />
	</node>
	<node id="-77139" lat="61.1522972226" lon="11.958552774">
		<tag k="name" v="Koierønningen" />
		<tag k="place" v="locality" />
		<tag k="ssr:stedsnr" v="390933" />
	</node>
	<node id="-80207" lat="61.1959861079" lon="12.3050638794">
		<tag k="name" v="Milskiftallen" />
		<tag k="place" v="locality" />
		<tag k="ssr:stedsnr" v="484773" />
	</node>
	<node id="-77900" lat="61.1948166627" lon="12.7153499904">
		<tag k="name" v="Tavla" />
		<tag k="place" v="locality" />
		<tag k="ssr:stedsnr" v="59903" />
	</node>
	<node id="-79820" lat="61.2034111111" lon="12.7103277825">
		<tag k="name" v="Knurkkvea" />
		<tag k="place" v="locality" />
		<tag k="ssr:stedsnr" v="423932" />
	</node>
	<node id="-80579" lat="61.3908666668" lon="12.1431999938">
		<tag k="name" v="Toregrova" />
		<tag k="place" v="locality" />
		<tag k="ssr:stedsnr" v="539540" />
	</node>
	<node id="-79678" lat="61.4273916683" lon="12.1434055559">
		<tag k="amenity" v="community_centre" />
		<tag k="name" v="Jordet samfunnshus" />
		<tag k="ssr:stedsnr" v="418046" />
	</node>
	<node id="-78139" lat="61.1907166628" lon="12.4871750005">
		<tag k="amenity" v="community_centre" />
		<tag k="name" v="Åsvang" />
		<tag k="ssr:stedsnr" v="101921" />
	</node>
	<node id="-80314" lat="61.1345361105" lon="12.1091833244">
		<tag k="amenity" v="place_of_worship" />
		<tag k="denomination" v="lutheran" />
		<tag k="name" v="Tørberget kirke" />
		<tag k="religion" v="christian" />
		<tag k="ssr:stedsnr" v="493999" />
	</node>
	<node id="-77369" lat="61.2812756141" lon="12.8351829853">
		<tag k="name" v="Bjønntallen" />
		<tag k="ssr:stedsnr" v="891670" />
		<tag k="tourism" v="attraction" />
	</node>
	<node id="-82615" lat="61.2535472225" lon="12.8102694433">
		<tag k="amenity" v="community_centre" />
		<tag k="name" v="Støa grendehus" />
		<tag k="ssr:stedsnr" v="770536" />
	</node>
	<node id="-83254" lat="61.5528166645" lon="12.1657111149">
		<tag k="amenity" v="community_centre" />
		<tag k="name" v="Gruntkirka" />
		<tag k="ssr:stedsnr" v="843530" />
	</node>
	<node id="-77621" lat="61.1928666627" lon="11.8933166706">
		<tag k="amenity" v="place_of_worship" />
		<tag k="fixme" v="specify religion=*, denomination=*, building=* etc" />
		<tag k="name" v="Hammeren leirsted" />
		<tag k="ssr:stedsnr" v="26902" />
	</node>
	<node id="-78772" lat="61.4615611153" lon="12.2586638869">
		<tag k="amenity" v="community_centre" />
		<tag k="name" v="Folkets hus" />
		<tag k="ssr:stedsnr" v="174986" />
	</node>
	<node id="-80814" lat="61.3629111098" lon="12.4838444526">
		<tag k="alt_name" v="Vorddammen" />
		<tag k="name" v="Voldammen" />
		<tag k="place" v="locality" />
		<tag k="ssr:stedsnr" v="554694" />
	</node>
	<node id="-82349" lat="61.1727861094" lon="11.914183333">
		<tag k="amenity" v="place_of_worship" />
		<tag k="denomination" v="lutheran" />
		<tag k="name" v="Søre Osen kirke" />
		<tag k="religion" v="christian" />
		<tag k="ssr:stedsnr" v="736128" />
	</node>
	<node id="-76108" lat="61.2193527755" lon="12.6428916584">
		<tag k="name" v="Gammelerik" />
		<tag k="place" v="locality" />
		<tag k="ssr:stedsnr" v="283750" />
	</node>
	<node id="-78378" lat="61.0979166631" lon="12.4002944359">
		<tag k="name" v="Kroktallen" />
		<tag k="place" v="locality" />
		<tag k="ssr:stedsnr" v="120469" />
	</node>
	<node id="-79913" lat="61.3169750032" lon="12.260983331">
		<tag k="amenity" v="place_of_worship" />
		<tag k="denomination" v="lutheran" />
		<tag k="name" v="Trysil kirke" />
		<tag k="religion" v="christian" />
		<tag k="ssr:stedsnr" v="433680" />
	</node>
	<node id="-77864" lat="61.2123416699" lon="12.2387833261">
		<tag k="name" v="Gammelsaga" />
		<tag k="place" v="locality" />
		<tag k="ssr:stedsnr" v="58614" />
	</node>
	<node id="-78175" lat="61.3522527762" lon="12.727883326">
		<tag k="name" v="Milfurua" />
		<tag k="ssr:stedsnr" v="102877" />
		<tag k="tourism" v="attraction" />
	</node>
	<node id="-84133" lat="61.5095361141" lon="12.2469611046">
		<tag k="amenity" v="community_centre" />
		<tag k="name" v="Vidsyn" />
		<tag k="ssr:stedsnr" v="963870" />
	</node>
	<node id="-80418" lat="61.1368805574" lon="11.9033638964">
		<tag k="name" v="Fjellinna" />
		<tag k="place" v="locality" />
		<tag k="ssr:stedsnr" v="511481" />
	</node>
	<node id="-83916" lat="61.3737277811" lon="11.9538750031">
		<tag k="amenity" v="community_centre" />
		<tag k="name" v="Slettås" />
		<tag k="ssr:stedsnr" v="919911" />
	</node>
	<node id="-76190" lat="61.5027777764" lon="12.5149638942">
		<tag k="name" v="Saga" />
		<tag k="place" v="locality" />
		<tag k="ssr:stedsnr" v="296229" />
	</node>
	<node id="-77596" lat="61.2641777818" lon="12.3209500024">
		<tag k="amenity" v="community_centre" />
		<tag k="name" v="Nybergsund samfunnshus" />
		<tag k="ssr:stedsnr" v="26355" />
	</node>
	<node id="-78742" lat="61.5055638866" lon="12.5155388799">
		<tag k="amenity" v="community_centre" />
		<tag k="name" v="Skåra grendestugu" />
		<tag k="ssr:stedsnr" v="174297" />
	</node>
	<node id="-81041" lat="61.4790972255" lon="12.2223527805">
		<tag k="name" v="Sagbenken" />
		<tag k="place" v="locality" />
		<tag k="ssr:stedsnr" v="599007" />
	</node>
	<node id="-80783" lat="61.317061115" lon="12.4330916675">
		<tag k="name" v="Brennholdammen" />
		<tag k="place" v="locality" />
		<tag k="ssr:stedsnr" v="554332" />
	</node>
	<node id="-83854" lat="61.1341166657" lon="12.5066888869">
		<tag k="amenity" v="place_of_worship" />
		<tag k="denomination" v="lutheran" />
		<tag k="name" v="Plassen kirke" />
		<tag k="religion" v="christian" />
		<tag k="ssr:stedsnr" v="918791" />
	</node>
	<node id="-79405" lat="61.1782944426" lon="12.2839500006">
		<tag k="name" v="Spannlokkhålan" />
		<tag k="place" v="locality" />
		<tag k="ssr:stedsnr" v="239888" />
	</node>
	<node id="-77705" lat="61.2630749984" lon="12.7972027752">
		<tag k="name" v="Lergruva" />
		<tag k="place" v="locality" />
		<tag k="ssr:stedsnr" v="42562" />
	</node>
	<node id="-82183" lat="61.4254944486" lon="12.3395444541">
		<tag k="name" v="Gammelsaga" />
		<tag k="place" v="locality" />
		<tag k="ssr:stedsnr" v="721886" />
	</node>
	<node id="-81899" lat="61.4242777737" lon="12.3008194431">
		<tag k="name" v="Hådammen" />
		<tag k="place" v="locality" />
		<tag k="ssr:stedsnr" v="676725" />
	</node>
	<node id="-84203" lat="61.3287138871" lon="12.594608342">
		<tag k="name" v="Finsensten" />
		<tag k="ssr:stedsnr" v="965721" />
		<tag k="tourism" v="attraction" />
	</node>
</osm>
