<?xml version="1.0" encoding="UTF-8"?>
<osm version="0.6" generator="osmapis">
	<node lat="68.91929722238264" lon="17.810469453463377" id="-39954">
		<tag k="name" v="Vinkelen" />
		<tag k="place" v="isolated_dwelling" />
		<tag k="ssr:date" v="2019-12-27" />
		<tag k="ssr:gruppe" v="bolighus" />
		<tag k="ssr:hovedgruppe" v="bebyggelse" />
		<tag k="ssr:stedsnr" v="18801" />
		<tag k="ssr:type" v="fritidsbolig" />
	</node>
	<node lat="68.919950002163" lon="17.909330560251103" id="-39955">
		<tag k="name" v="Mangevatnan" />
		<tag k="natural" v="water" />
		<tag k="ssr:date" v="2019-12-27" />
		<tag k="ssr:gruppe" v="stilleståendeVann" />
		<tag k="ssr:hovedgruppe" v="ferskvann" />
		<tag k="ssr:stedsnr" v="18806" />
		<tag k="ssr:type" v="gruppeAvTjern" />
		<tag k="water" v="lake" />
	</node>
	<node lat="68.90749444552814" lon="17.904072222068038" id="-39956">
		<tag k="name" v="Jerpedalen" />
		<tag k="natural" v="valley" />
		<tag k="place" v="locality" />
		<tag k="ssr:date" v="2019-12-27" />
		<tag k="ssr:gruppe" v="senkninger" />
		<tag k="ssr:hovedgruppe" v="terreng" />
		<tag k="ssr:stedsnr" v="18778" />
		<tag k="ssr:type" v="dal" />
	</node>
	<node lat="68.90790000473466" lon="17.967952770402405" id="-39957">
		<tag k="alt_name" v="Snauhaugen" />
		<tag k="name" v="Snauhågen" />
		<tag k="natural" v="hill" />
		<tag k="place" v="locality" />
		<tag k="ssr:date" v="2019-12-27" />
		<tag k="ssr:gruppe" v="høyder" />
		<tag k="ssr:hovedgruppe" v="terreng" />
		<tag k="ssr:stedsnr" v="18787" />
		<tag k="ssr:type" v="haug" />
	</node>
	<node lat="68.8504666643001" lon="18.10814999528419" id="-39958">
		<tag k="name" v="Krokåkeren" />
		<tag k="natural" v="slope" />
		<tag k="place" v="locality" />
		<tag k="ssr:date" v="2019-12-27" />
		<tag k="ssr:gruppe" v="skråninger" />
		<tag k="ssr:hovedgruppe" v="terreng" />
		<tag k="ssr:stedsnr" v="234148" />
		<tag k="ssr:type" v="bakke" />
	</node>
	<node lat="68.82842499771456" lon="18.12445833742921" id="-39959">
		<tag k="name" v="Nedre Snørkemyr" />
		<tag k="natural" v="wetland" />
		<tag k="ssr:date" v="2019-12-27" />
		<tag k="ssr:gruppe" v="våtmark" />
		<tag k="ssr:hovedgruppe" v="markslag" />
		<tag k="ssr:stedsnr" v="234244" />
		<tag k="ssr:type" v="myr" />
	</node>
	<node lat="68.84691110839917" lon="18.099294437655395" id="-39960">
		<tag k="name" v="Nils-Svensabekken" />
		<tag k="ssr:date" v="2019-12-27" />
		<tag k="ssr:gruppe" v="rennendeVann" />
		<tag k="ssr:hovedgruppe" v="ferskvann" />
		<tag k="ssr:stedsnr" v="234273" />
		<tag k="ssr:type" v="bekk" />
		<tag k="waterway" v="stream" />
	</node>
	<node lat="68.86443055493547" lon="17.556341672413335" id="-39961">
		<tag k="name" v="Oldervika" />
		<tag k="natural" v="bay" />
		<tag k="ssr:date" v="2019-12-27" />
		<tag k="ssr:gruppe" v="kystkontur" />
		<tag k="ssr:hovedgruppe" v="sjø" />
		<tag k="ssr:stedsnr" v="30674" />
		<tag k="ssr:type" v="vikISjø" />
	</node>
	<node lat="68.88463889019825" lon="17.60853332022194" id="-39962">
		<tag k="name" v="Laukvikneset" />
		<tag k="natural" v="cape" />
		<tag k="ssr:date" v="2019-12-27" />
		<tag k="ssr:gruppe" v="kystkontur" />
		<tag k="ssr:hovedgruppe" v="sjø" />
		<tag k="ssr:stedsnr" v="30703" />
		<tag k="ssr:type" v="nesISjø" />
	</node>
	<node lat="68.97212499694302" lon="17.76307222898808" id="-39963">
		<tag k="name" v="Litjegrønlia" />
		<tag k="natural" v="slope" />
		<tag k="place" v="locality" />
		<tag k="ssr:date" v="2019-12-27" />
		<tag k="ssr:gruppe" v="skråninger" />
		<tag k="ssr:hovedgruppe" v="terreng" />
		<tag k="ssr:stedsnr" v="237129" />
		<tag k="ssr:type" v="li" />
	</node>
	<node lat="68.82499722510069" lon="17.98832500027267" id="-39964">
		<tag k="name" v="Middagsskaret" />
		<tag k="natural" v="valley" />
		<tag k="place" v="locality" />
		<tag k="ssr:date" v="2019-12-27" />
		<tag k="ssr:gruppe" v="senkninger" />
		<tag k="ssr:hovedgruppe" v="terreng" />
		<tag k="ssr:stedsnr" v="237213" />
		<tag k="ssr:type" v="skar" />
	</node>
	<node lat="68.90162500065041" lon="17.826586116182707" id="-39965">
		<tag k="name" v="Ol-Lambriksaslåtten" />
		<tag k="place" v="locality" />
		<tag k="ssr:date" v="2019-12-27" />
		<tag k="ssr:gruppe" v="dyrkamark" />
		<tag k="ssr:hovedgruppe" v="markslag" />
		<tag k="ssr:stedsnr" v="238487" />
		<tag k="ssr:type" v="utmark" />
	</node>
	<node lat="68.90182500369737" lon="17.804736109990053" id="-39966">
		<tag k="name" v="Lølia" />
		<tag k="natural" v="slope" />
		<tag k="place" v="locality" />
		<tag k="ssr:date" v="2019-12-27" />
		<tag k="ssr:gruppe" v="skråninger" />
		<tag k="ssr:hovedgruppe" v="terreng" />
		<tag k="ssr:stedsnr" v="238488" />
		<tag k="ssr:type" v="li" />
	</node>
	<node lat="68.89440555271696" lon="17.7692999919592" id="-39967">
		<tag k="name" v="Tårlevika" />
		<tag k="natural" v="bay" />
		<tag k="ssr:date" v="2019-12-27" />
		<tag k="ssr:gruppe" v="kystkontur" />
		<tag k="ssr:hovedgruppe" v="sjø" />
		<tag k="ssr:stedsnr" v="238492" />
		<tag k="ssr:type" v="vikISjø" />
	</node>
	<node lat="68.97874999803427" lon="17.721627777594755" id="-39968">
		<tag k="name" v="Larselva" />
		<tag k="ssr:date" v="2019-12-27" />
		<tag k="ssr:gruppe" v="rennendeVann" />
		<tag k="ssr:hovedgruppe" v="ferskvann" />
		<tag k="ssr:stedsnr" v="238053" />
		<tag k="ssr:type" v="bekk" />
		<tag k="waterway" v="stream" />
	</node>
	<node lat="68.98523333098065" lon="17.73320553985991" id="-39969">
		<tag k="name" v="Bjørnberget" />
		<tag k="natural" v="hill" />
		<tag k="place" v="locality" />
		<tag k="ssr:date" v="2019-12-27" />
		<tag k="ssr:gruppe" v="høyder" />
		<tag k="ssr:hovedgruppe" v="terreng" />
		<tag k="ssr:stedsnr" v="238071" />
		<tag k="ssr:type" v="berg" />
	</node>
	<node lat="68.9898472261697" lon="17.701638896016007" id="-39970">
		<tag k="name" v="Bjørnmyra" />
		<tag k="natural" v="wetland" />
		<tag k="ssr:date" v="2019-12-27" />
		<tag k="ssr:gruppe" v="våtmark" />
		<tag k="ssr:hovedgruppe" v="markslag" />
		<tag k="ssr:stedsnr" v="238073" />
		<tag k="ssr:type" v="myr" />
	</node>
	<node lat="68.9858055574422" lon="17.706769433104927" id="-39971">
		<tag k="name" v="Litjevatnet" />
		<tag k="natural" v="water" />
		<tag k="ssr:date" v="2019-12-27" />
		<tag k="ssr:gruppe" v="stilleståendeVann" />
		<tag k="ssr:hovedgruppe" v="ferskvann" />
		<tag k="ssr:stedsnr" v="238074" />
		<tag k="ssr:type" v="tjern" />
	</node>
	<node lat="68.8315861145406" lon="17.88027500427681" id="-39972">
		<tag k="name" v="Eidemyra" />
		<tag k="natural" v="wetland" />
		<tag k="ssr:date" v="2019-12-27" />
		<tag k="ssr:gruppe" v="våtmark" />
		<tag k="ssr:hovedgruppe" v="markslag" />
		<tag k="ssr:stedsnr" v="238138" />
		<tag k="ssr:type" v="myr" />
	</node>
	<node lat="68.83750555782443" lon="17.896469454344434" id="-39973">
		<tag k="name" v="Nerflaten" />
		<tag k="place" v="locality" />
		<tag k="ssr:date" v="2019-12-27" />
		<tag k="ssr:gruppe" v="flater" />
		<tag k="ssr:hovedgruppe" v="terreng" />
		<tag k="ssr:stedsnr" v="238139" />
		<tag k="ssr:type" v="slette" />
	</node>
	<node lat="68.84033333253906" lon="17.98460278290111" id="-39974">
		<tag k="name" v="Fjellmoen" />
		<tag k="place" v="locality" />
		<tag k="ssr:date" v="2019-12-27" />
		<tag k="ssr:gruppe" v="flater" />
		<tag k="ssr:hovedgruppe" v="terreng" />
		<tag k="ssr:stedsnr" v="238126" />
		<tag k="ssr:type" v="mo" />
	</node>
	<node lat="68.86660277459151" lon="17.777288873094655" id="-39975">
		<tag k="name" v="Elemosletta" />
		<tag k="place" v="locality" />
		<tag k="ssr:date" v="2019-12-27" />
		<tag k="ssr:gruppe" v="flater" />
		<tag k="ssr:hovedgruppe" v="terreng" />
		<tag k="ssr:stedsnr" v="238255" />
		<tag k="ssr:type" v="slette" />
	</node>
	<node lat="68.86442221946939" lon="17.790347230784928" id="-39976">
		<tag k="name" v="Gihcegárdi" />
		<tag k="name:se" v="Gihcegárdi" />
		<tag k="place" v="locality" />
		<tag k="ssr:date" v="2019-12-27" />
		<tag k="ssr:gruppe" v="dyrkamark" />
		<tag k="ssr:hovedgruppe" v="markslag" />
		<tag k="ssr:stedsnr" v="238256" />
		<tag k="ssr:type" v="utmark" />
	</node>
	<node lat="68.88964722227641" lon="17.89831666351883" id="-39977">
		<tag k="name" v="Græslivatnet" />
		<tag k="natural" v="water" />
		<tag k="ssr:date" v="2019-12-27" />
		<tag k="ssr:gruppe" v="stilleståendeVann" />
		<tag k="ssr:hovedgruppe" v="ferskvann" />
		<tag k="ssr:stedsnr" v="238202" />
		<tag k="ssr:type" v="tjern" />
	</node>
	<node lat="68.89229999920883" lon="17.90748056124596" id="-39978">
		<tag k="name" v="Græslia" />
		<tag k="natural" v="slope" />
		<tag k="place" v="locality" />
		<tag k="ssr:date" v="2019-12-27" />
		<tag k="ssr:gruppe" v="skråninger" />
		<tag k="ssr:hovedgruppe" v="terreng" />
		<tag k="ssr:stedsnr" v="238206" />
		<tag k="ssr:type" v="li" />
	</node>
	<node lat="68.88953889205092" lon="17.822449998178563" id="-39979">
		<tag k="name" v="Mørkedalen" />
		<tag k="natural" v="valley" />
		<tag k="place" v="locality" />
		<tag k="ssr:date" v="2019-12-27" />
		<tag k="ssr:gruppe" v="senkninger" />
		<tag k="ssr:hovedgruppe" v="terreng" />
		<tag k="ssr:stedsnr" v="238317" />
		<tag k="ssr:type" v="dal" />
	</node>
	<node lat="68.90589444553241" lon="17.50801667362913" id="-39980">
		<tag k="name" v="Stornaustberget" />
		<tag k="natural" v="hill" />
		<tag k="place" v="locality" />
		<tag k="ssr:date" v="2019-12-27" />
		<tag k="ssr:gruppe" v="høyder" />
		<tag k="ssr:hovedgruppe" v="terreng" />
		<tag k="ssr:stedsnr" v="238584" />
		<tag k="ssr:type" v="berg" />
	</node>
	<node lat="68.90218889246879" lon="18.005461097644716" id="-39981">
		<tag k="name" v="Elvekrokan" />
		<tag k="natural" v="bay" />
		<tag k="ssr:date" v="2019-12-27" />
		<tag k="ssr:gruppe" v="ferskvannskontur" />
		<tag k="ssr:hovedgruppe" v="ferskvann" />
		<tag k="ssr:stedsnr" v="238445" />
		<tag k="ssr:type" v="vik" />
	</node>
	<node lat="68.93283333312671" lon="17.707880548939585" id="-39982">
		<tag k="name" v="Litjevika" />
		<tag k="natural" v="bay" />
		<tag k="ssr:date" v="2019-12-27" />
		<tag k="ssr:gruppe" v="kystkontur" />
		<tag k="ssr:hovedgruppe" v="sjø" />
		<tag k="ssr:stedsnr" v="238453" />
		<tag k="ssr:type" v="vikISjø" />
	</node>
	<node lat="68.91982222474154" lon="17.709827771434025" id="-39983">
		<tag k="name" v="Kleivspira" />
		<tag k="natural" v="cape" />
		<tag k="ssr:date" v="2019-12-27" />
		<tag k="ssr:gruppe" v="kystkontur" />
		<tag k="ssr:hovedgruppe" v="sjø" />
		<tag k="ssr:stedsnr" v="238458" />
		<tag k="ssr:type" v="nesISjø" />
	</node>
	<node lat="68.91900278129009" lon="17.744308338549654" id="-39984">
		<tag k="name" v="Medbylia" />
		<tag k="natural" v="slope" />
		<tag k="place" v="locality" />
		<tag k="ssr:date" v="2019-12-27" />
		<tag k="ssr:gruppe" v="skråninger" />
		<tag k="ssr:hovedgruppe" v="terreng" />
		<tag k="ssr:stedsnr" v="238466" />
		<tag k="ssr:type" v="li" />
	</node>
	<node lat="68.91690278103317" lon="17.749183332637138" id="-39985">
		<tag k="name" v="Einelia" />
		<tag k="natural" v="slope" />
		<tag k="place" v="locality" />
		<tag k="ssr:date" v="2019-12-27" />
		<tag k="ssr:gruppe" v="skråninger" />
		<tag k="ssr:hovedgruppe" v="terreng" />
		<tag k="ssr:stedsnr" v="238467" />
		<tag k="ssr:type" v="li" />
	</node>
	<node lat="68.90005555331594" lon="17.735180541633166" id="-39986">
		<tag k="name" v="Lamøyklubben" />
		<tag k="natural" v="cape" />
		<tag k="ssr:date" v="2019-12-27" />
		<tag k="ssr:gruppe" v="kystkontur" />
		<tag k="ssr:hovedgruppe" v="sjø" />
		<tag k="ssr:stedsnr" v="238540" />
		<tag k="ssr:type" v="nesISjø" />
	</node>
	<node lat="68.90271389145553" lon="17.795380546198217" id="-39987">
		<tag k="name" v="Yttergårdselva" />
		<tag k="ssr:date" v="2019-12-27" />
		<tag k="ssr:gruppe" v="rennendeVann" />
		<tag k="ssr:hovedgruppe" v="ferskvann" />
		<tag k="ssr:stedsnr" v="238494" />
		<tag k="ssr:type" v="bekk" />
		<tag k="waterway" v="stream" />
	</node>
	<node lat="68.82892500113604" lon="17.49725556314997" id="-39988">
		<tag k="name" v="Skogsletta" />
		<tag k="place" v="locality" />
		<tag k="ssr:date" v="2019-12-27" />
		<tag k="ssr:gruppe" v="flater" />
		<tag k="ssr:hovedgruppe" v="terreng" />
		<tag k="ssr:stedsnr" v="238562" />
		<tag k="ssr:type" v="slette" />
	</node>
	<node lat="68.91351388436338" lon="17.505091673281637" id="-39989">
		<tag k="name" v="Fjellbakken" />
		<tag k="natural" v="slope" />
		<tag k="place" v="locality" />
		<tag k="ssr:date" v="2019-12-27" />
		<tag k="ssr:gruppe" v="skråninger" />
		<tag k="ssr:hovedgruppe" v="terreng" />
		<tag k="ssr:stedsnr" v="238588" />
		<tag k="ssr:type" v="bakke" />
	</node>
	<node lat="68.91091388649654" lon="17.51631109595267" id="-39990">
		<tag k="name" v="Luggebakken" />
		<tag k="natural" v="slope" />
		<tag k="place" v="locality" />
		<tag k="ssr:date" v="2019-12-27" />
		<tag k="ssr:gruppe" v="skråninger" />
		<tag k="ssr:hovedgruppe" v="terreng" />
		<tag k="ssr:stedsnr" v="238589" />
		<tag k="ssr:type" v="bakke" />
	</node>
	<node lat="68.86200000363543" lon="17.5573777875286" id="-39991">
		<tag k="name" v="Maritelva" />
		<tag k="ssr:date" v="2019-12-27" />
		<tag k="ssr:gruppe" v="rennendeVann" />
		<tag k="ssr:hovedgruppe" v="ferskvann" />
		<tag k="ssr:stedsnr" v="238622" />
		<tag k="ssr:type" v="bekk" />
		<tag k="waterway" v="stream" />
	</node>
	<node lat="68.87842778274715" lon="17.670588877388525" id="-39992">
		<tag k="name" v="Vedvelta" />
		<tag k="natural" v="slope" />
		<tag k="place" v="locality" />
		<tag k="ssr:date" v="2019-12-27" />
		<tag k="ssr:gruppe" v="skråninger" />
		<tag k="ssr:hovedgruppe" v="terreng" />
		<tag k="ssr:stedsnr" v="238623" />
		<tag k="ssr:type" v="li" />
	</node>
	<node lat="68.95791111359614" lon="17.872594432852924" id="-39993">
		<tag k="name" v="Fossen" />
		<tag k="natural" v="waterfall" />
		<tag k="ssr:date" v="2019-12-27" />
		<tag k="ssr:gruppe" v="rennendeVann" />
		<tag k="ssr:hovedgruppe" v="ferskvann" />
		<tag k="ssr:stedsnr" v="238701" />
		<tag k="ssr:type" v="foss" />
	</node>
	<node lat="68.88488333663963" lon="17.6971083409265" id="-39994">
		<tag k="name" v="Finnhågsletta" />
		<tag k="place" v="locality" />
		<tag k="ssr:date" v="2019-12-27" />
		<tag k="ssr:gruppe" v="flater" />
		<tag k="ssr:hovedgruppe" v="terreng" />
		<tag k="ssr:stedsnr" v="238713" />
		<tag k="ssr:type" v="slette" />
	</node>
	<node lat="68.95302778018015" lon="17.894308336172415" id="-39995">
		<tag k="name" v="Grønlibotn" />
		<tag k="natural" v="valley" />
		<tag k="place" v="locality" />
		<tag k="ssr:date" v="2019-12-27" />
		<tag k="ssr:gruppe" v="senkninger" />
		<tag k="ssr:hovedgruppe" v="terreng" />
		<tag k="ssr:stedsnr" v="238718" />
		<tag k="ssr:type" v="botn" />
	</node>
	<node lat="68.88244721933708" lon="18.004522227083033" id="-39996">
		<tag k="name" v="Brennmoberget" />
		<tag k="natural" v="hill" />
		<tag k="place" v="locality" />
		<tag k="ssr:date" v="2019-12-27" />
		<tag k="ssr:gruppe" v="høyder" />
		<tag k="ssr:hovedgruppe" v="terreng" />
		<tag k="ssr:stedsnr" v="238650" />
		<tag k="ssr:type" v="berg" />
	</node>
	<node lat="68.88165833548943" lon="18.052813876400595" id="-39997">
		<tag k="name" v="Bjørnbåsen" />
		<tag k="natural" v="hill" />
		<tag k="place" v="locality" />
		<tag k="ssr:date" v="2019-12-27" />
		<tag k="ssr:gruppe" v="høyder" />
		<tag k="ssr:hovedgruppe" v="terreng" />
		<tag k="ssr:stedsnr" v="238656" />
		<tag k="ssr:type" v="haug" />
	</node>
	<node lat="68.88191388464381" lon="18.04099721679201" id="-39998">
		<tag k="name" v="Kalvedamman" />
		<tag k="natural" v="wetland" />
		<tag k="ssr:date" v="2019-12-27" />
		<tag k="ssr:gruppe" v="våtmark" />
		<tag k="ssr:hovedgruppe" v="markslag" />
		<tag k="ssr:stedsnr" v="238658" />
		<tag k="ssr:type" v="myr" />
	</node>
	<node lat="68.93224722661353" lon="17.66008610323568" id="-39999">
		<tag k="name" v="Rødbergelva" />
		<tag k="ssr:date" v="2019-12-27" />
		<tag k="ssr:gruppe" v="rennendeVann" />
		<tag k="ssr:hovedgruppe" v="ferskvann" />
		<tag k="ssr:stedsnr" v="238659" />
		<tag k="ssr:type" v="bekk" />
		<tag k="waterway" v="stream" />
	</node>
	<node lat="68.87541666777618" lon="18.011183339496714" id="-40000">
		<tag k="name" v="Stormyrmoen" />
		<tag k="place" v="locality" />
		<tag k="ssr:date" v="2019-12-27" />
		<tag k="ssr:gruppe" v="flater" />
		<tag k="ssr:hovedgruppe" v="terreng" />
		<tag k="ssr:stedsnr" v="238663" />
		<tag k="ssr:type" v="mo" />
	</node>
	<node lat="68.87472500334813" lon="18.006111099183883" id="-40001">
		<tag k="name" v="Kuneset" />
		<tag k="natural" v="cape" />
		<tag k="ssr:date" v="2019-12-27" />
		<tag k="ssr:gruppe" v="ferskvannskontur" />
		<tag k="ssr:hovedgruppe" v="ferskvann" />
		<tag k="ssr:stedsnr" v="238668" />
		<tag k="ssr:type" v="nes" />
	</node>
	<node lat="68.8776861153902" lon="18.062022208092667" id="-40002">
		<tag k="name" v="Rødmyrsirbakken" />
		<tag k="natural" v="slope" />
		<tag k="place" v="locality" />
		<tag k="ssr:date" v="2019-12-27" />
		<tag k="ssr:gruppe" v="skråninger" />
		<tag k="ssr:hovedgruppe" v="terreng" />
		<tag k="ssr:stedsnr" v="238672" />
		<tag k="ssr:type" v="bakke" />
	</node>
	<node lat="68.87262777805992" lon="18.06425833265927" id="-40003">
		<tag k="name" v="Storbakken" />
		<tag k="natural" v="slope" />
		<tag k="place" v="locality" />
		<tag k="ssr:date" v="2019-12-27" />
		<tag k="ssr:gruppe" v="skråninger" />
		<tag k="ssr:hovedgruppe" v="terreng" />
		<tag k="ssr:stedsnr" v="238676" />
		<tag k="ssr:type" v="bakke" />
	</node>
	<node lat="68.8794611103173" lon="17.69495556026295" id="-40004">
		<tag k="name" v="Ampen" />
		<tag k="natural" v="hill" />
		<tag k="place" v="locality" />
		<tag k="ssr:date" v="2019-12-27" />
		<tag k="ssr:gruppe" v="høyder" />
		<tag k="ssr:hovedgruppe" v="terreng" />
		<tag k="ssr:stedsnr" v="238759" />
		<tag k="ssr:type" v="berg" />
	</node>
	<node lat="68.88018333017105" lon="17.680558338270746" id="-40005">
		<tag k="name" v="Karineset" />
		<tag k="natural" v="cape" />
		<tag k="ssr:date" v="2019-12-27" />
		<tag k="ssr:gruppe" v="ferskvannskontur" />
		<tag k="ssr:hovedgruppe" v="ferskvann" />
		<tag k="ssr:stedsnr" v="238761" />
		<tag k="ssr:type" v="nes" />
	</node>
	<node lat="68.88073889196127" lon="17.694711117054702" id="-40006">
		<tag k="name" v="Vika" />
		<tag k="natural" v="bay" />
		<tag k="ssr:date" v="2019-12-27" />
		<tag k="ssr:gruppe" v="kystkontur" />
		<tag k="ssr:hovedgruppe" v="sjø" />
		<tag k="ssr:stedsnr" v="238770" />
		<tag k="ssr:type" v="vikISjø" />
	</node>
	<node lat="68.82583889296163" lon="18.01533332967657" id="-40007">
		<tag k="name" v="Holmevatnet" />
		<tag k="natural" v="water" />
		<tag k="ssr:date" v="2019-12-27" />
		<tag k="ssr:gruppe" v="stilleståendeVann" />
		<tag k="ssr:hovedgruppe" v="ferskvann" />
		<tag k="ssr:stedsnr" v="238771" />
		<tag k="ssr:type" v="tjern" />
	</node>
	<node lat="68.90297778201449" lon="17.886708334776287" id="-40008">
		<tag k="name" v="Barralátnja" />
		<tag k="name:se" v="Barralátnja" />
		<tag k="natural" v="slope" />
		<tag k="place" v="locality" />
		<tag k="ssr:date" v="2019-12-27" />
		<tag k="ssr:gruppe" v="skråninger" />
		<tag k="ssr:hovedgruppe" v="terreng" />
		<tag k="ssr:stedsnr" v="238801" />
		<tag k="ssr:type" v="li" />
	</node>
	<node lat="68.91234166540086" lon="17.880727785409082" id="-40009">
		<tag k="name" v="Kalkskjæringa" />
		<tag k="natural" v="valley" />
		<tag k="place" v="locality" />
		<tag k="ssr:date" v="2019-12-27" />
		<tag k="ssr:gruppe" v="senkninger" />
		<tag k="ssr:hovedgruppe" v="terreng" />
		<tag k="ssr:stedsnr" v="238820" />
		<tag k="ssr:type" v="skar" />
	</node>
	<node lat="68.87284722444386" lon="17.687480552285997" id="-40010">
		<tag k="fixme" v="consider natural=peak for the most distinct mountains in the district" />
		<tag k="name" v="Nerfjellet" />
		<tag k="natural" v="hill" />
		<tag k="place" v="locality" />
		<tag k="ssr:date" v="2019-12-27" />
		<tag k="ssr:gruppe" v="høyder" />
		<tag k="ssr:hovedgruppe" v="terreng" />
		<tag k="ssr:stedsnr" v="238772" />
		<tag k="ssr:type" v="fjell" />
	</node>
	<node lat="68.83269722286823" lon="17.51598055859066" id="-40011">
		<tag k="name" v="Kvithågen" />
		<tag k="natural" v="hill" />
		<tag k="place" v="locality" />
		<tag k="ssr:date" v="2019-12-27" />
		<tag k="ssr:gruppe" v="høyder" />
		<tag k="ssr:hovedgruppe" v="terreng" />
		<tag k="ssr:stedsnr" v="238989" />
		<tag k="ssr:type" v="haug" />
	</node>
	<node lat="68.86840000111003" lon="17.892897208226092" id="-40012">
		<tag k="name" v="Boldervika" />
		<tag k="natural" v="bay" />
		<tag k="ssr:date" v="2019-12-27" />
		<tag k="ssr:gruppe" v="ferskvannskontur" />
		<tag k="ssr:hovedgruppe" v="ferskvann" />
		<tag k="ssr:stedsnr" v="238991" />
		<tag k="ssr:type" v="vik" />
	</node>
	<node lat="68.83210555604397" lon="17.482266667789887" id="-40013">
		<tag k="name" v="Storbakken" />
		<tag k="natural" v="slope" />
		<tag k="place" v="locality" />
		<tag k="ssr:date" v="2019-12-27" />
		<tag k="ssr:gruppe" v="skråninger" />
		<tag k="ssr:hovedgruppe" v="terreng" />
		<tag k="ssr:stedsnr" v="238993" />
		<tag k="ssr:type" v="bakke" />
	</node>
	<node lat="68.83318333180142" lon="17.51146666063547" id="-40014">
		<tag k="name" v="Mosesteinan" />
		<tag k="natural" v="stone" />
		<tag k="ssr:date" v="2019-12-27" />
		<tag k="ssr:gruppe" v="løsmasseavsetninger" />
		<tag k="ssr:hovedgruppe" v="markslag" />
		<tag k="ssr:stedsnr" v="238996" />
		<tag k="ssr:type" v="stein" />
	</node>
	<node lat="68.88486110708797" lon="17.974872216267837" id="-40015">
		<tag k="name" v="Markeløa" />
		<tag k="natural" v="slope" />
		<tag k="place" v="locality" />
		<tag k="ssr:date" v="2019-12-27" />
		<tag k="ssr:gruppe" v="skråninger" />
		<tag k="ssr:hovedgruppe" v="terreng" />
		<tag k="ssr:stedsnr" v="238954" />
		<tag k="ssr:type" v="bakke" />
	</node>
	<node lat="68.88322777604273" lon="17.97579723051961" id="-40016">
		<tag k="name" v="Juopmojohka" />
		<tag k="name:se" v="Juopmojohka" />
		<tag k="ssr:date" v="2019-12-27" />
		<tag k="ssr:gruppe" v="rennendeVann" />
		<tag k="ssr:hovedgruppe" v="ferskvann" />
		<tag k="ssr:stedsnr" v="238961" />
		<tag k="ssr:type" v="bekk" />
		<tag k="waterway" v="stream" />
	</node>
	<node lat="68.8572888901538" lon="17.852930552380148" id="-40017">
		<tag k="highway" v="path" />
		<tag k="name" v="Røyholveien" />
		<tag k="ssr:date" v="2019-12-27" />
		<tag k="ssr:gruppe" v="veg" />
		<tag k="ssr:hovedgruppe" v="infrastruktur" />
		<tag k="ssr:stedsnr" v="238967" />
		<tag k="ssr:type" v="sti" />
	</node>
	<node lat="68.8648694477597" lon="18.02567221856389" id="-40018">
		<tag k="name" v="Alvildebakken" />
		<tag k="natural" v="slope" />
		<tag k="place" v="locality" />
		<tag k="ssr:date" v="2019-12-27" />
		<tag k="ssr:gruppe" v="skråninger" />
		<tag k="ssr:hovedgruppe" v="terreng" />
		<tag k="ssr:stedsnr" v="239545" />
		<tag k="ssr:type" v="bakke" />
	</node>
	<node lat="68.86770555546333" lon="18.047305546383747" id="-40019">
		<tag k="name" v="Vakkerdalen" />
		<tag k="natural" v="valley" />
		<tag k="place" v="locality" />
		<tag k="ssr:date" v="2019-12-27" />
		<tag k="ssr:gruppe" v="senkninger" />
		<tag k="ssr:hovedgruppe" v="terreng" />
		<tag k="ssr:stedsnr" v="239546" />
		<tag k="ssr:type" v="dal" />
	</node>
	<node lat="68.85318333495061" lon="18.054186114066074" id="-40020">
		<tag k="name" v="Branndalen" />
		<tag k="natural" v="valley" />
		<tag k="place" v="locality" />
		<tag k="ssr:date" v="2019-12-27" />
		<tag k="ssr:gruppe" v="senkninger" />
		<tag k="ssr:hovedgruppe" v="terreng" />
		<tag k="ssr:stedsnr" v="239548" />
		<tag k="ssr:type" v="dal" />
	</node>
	<node lat="68.85648333680118" lon="18.032830547348173" id="-40021">
		<tag k="name" v="Hestøyra" />
		<tag k="natural" v="cape" />
		<tag k="ssr:date" v="2019-12-27" />
		<tag k="ssr:gruppe" v="ferskvannskontur" />
		<tag k="ssr:hovedgruppe" v="ferskvann" />
		<tag k="ssr:stedsnr" v="239552" />
		<tag k="ssr:type" v="nes" />
	</node>
	<node lat="68.85251388871909" lon="18.00866945083223" id="-40022">
		<tag k="name" v="Storhaugen" />
		<tag k="natural" v="hill" />
		<tag k="place" v="locality" />
		<tag k="ssr:date" v="2019-12-27" />
		<tag k="ssr:gruppe" v="høyder" />
		<tag k="ssr:hovedgruppe" v="terreng" />
		<tag k="ssr:stedsnr" v="239561" />
		<tag k="ssr:type" v="haug" />
	</node>
	<node lat="68.8543944434452" lon="18.003377786179467" id="-40023">
		<tag k="name" v="Moldforhaugen" />
		<tag k="natural" v="hill" />
		<tag k="place" v="locality" />
		<tag k="ssr:date" v="2019-12-27" />
		<tag k="ssr:gruppe" v="høyder" />
		<tag k="ssr:hovedgruppe" v="terreng" />
		<tag k="ssr:stedsnr" v="239563" />
		<tag k="ssr:type" v="haug" />
	</node>
	<node lat="68.96797500303802" lon="17.75922778253146" id="-40024">
		<tag k="name" v="Holla" />
		<tag k="natural" v="valley" />
		<tag k="place" v="locality" />
		<tag k="ssr:date" v="2019-12-27" />
		<tag k="ssr:gruppe" v="senkninger" />
		<tag k="ssr:hovedgruppe" v="terreng" />
		<tag k="ssr:stedsnr" v="55003" />
		<tag k="ssr:type" v="søkk" />
	</node>
	<node lat="68.97688610943445" lon="17.729297223349878" id="-40025">
		<tag k="name" v="Gauthellaren" />
		<tag k="place" v="locality" />
		<tag k="ssr:date" v="2019-12-27" />
		<tag k="ssr:gruppe" v="terrengdetaljer" />
		<tag k="ssr:hovedgruppe" v="terreng" />
		<tag k="ssr:stedsnr" v="55016" />
		<tag k="ssr:type" v="hylle" />
	</node>
	<node lat="68.9691777785211" lon="17.730241654445337" id="-40026">
		<tag k="name" v="Tømmerneset" />
		<tag k="natural" v="cape" />
		<tag k="ssr:date" v="2019-12-27" />
		<tag k="ssr:gruppe" v="ferskvannskontur" />
		<tag k="ssr:hovedgruppe" v="ferskvann" />
		<tag k="ssr:stedsnr" v="55017" />
		<tag k="ssr:type" v="nes" />
	</node>
	<node lat="68.91072777684235" lon="17.757561096284043" id="-40027">
		<tag k="name" v="Brekka" />
		<tag k="natural" v="slope" />
		<tag k="place" v="locality" />
		<tag k="ssr:date" v="2019-12-27" />
		<tag k="ssr:gruppe" v="skråninger" />
		<tag k="ssr:hovedgruppe" v="terreng" />
		<tag k="ssr:stedsnr" v="55468" />
		<tag k="ssr:type" v="li" />
	</node>
	<node lat="68.83567777831338" lon="17.92509720952713" id="-40028">
		<tag k="name" v="Finnstadfossen" />
		<tag k="natural" v="waterfall" />
		<tag k="ssr:date" v="2019-12-27" />
		<tag k="ssr:gruppe" v="rennendeVann" />
		<tag k="ssr:hovedgruppe" v="ferskvann" />
		<tag k="ssr:stedsnr" v="56113" />
		<tag k="ssr:type" v="foss" />
	</node>
	<node lat="68.82890555967754" lon="17.931433328761415" id="-40029">
		<tag k="name" v="Froskeholtet" />
		<tag k="place" v="locality" />
		<tag k="ssr:date" v="2019-12-27" />
		<tag k="ssr:gruppe" v="vegetasjon" />
		<tag k="ssr:hovedgruppe" v="markslag" />
		<tag k="ssr:stedsnr" v="56118" />
		<tag k="ssr:type" v="skog" />
	</node>
	<node lat="68.83708888756003" lon="17.846755543656645" id="-40030">
		<tag k="name" v="Elgsvingen" />
		<tag k="place" v="locality" />
		<tag k="ssr:date" v="2019-12-27" />
		<tag k="ssr:gruppe" v="terrengdetaljer" />
		<tag k="ssr:hovedgruppe" v="terreng" />
		<tag k="ssr:stedsnr" v="56121" />
		<tag k="ssr:type" v="annenTerrengdetalj" />
	</node>
	<node lat="68.97140277516256" lon="17.731366674442395" id="-40031">
		<tag k="name" v="Osemyra" />
		<tag k="natural" v="wetland" />
		<tag k="ssr:date" v="2019-12-27" />
		<tag k="ssr:gruppe" v="våtmark" />
		<tag k="ssr:hovedgruppe" v="markslag" />
		<tag k="ssr:stedsnr" v="56043" />
		<tag k="ssr:type" v="myr" />
	</node>
	<node lat="68.97840833713451" lon="17.731758338540438" id="-40032">
		<tag k="name" v="Reingjerdelva" />
		<tag k="ssr:date" v="2019-12-27" />
		<tag k="ssr:gruppe" v="rennendeVann" />
		<tag k="ssr:hovedgruppe" v="ferskvann" />
		<tag k="ssr:stedsnr" v="56045" />
		<tag k="ssr:type" v="bekk" />
		<tag k="waterway" v="stream" />
	</node>
	<node lat="68.96618333691943" lon="17.763524986682583" id="-40033">
		<tag k="name" v="Steinbakken" />
		<tag k="natural" v="slope" />
		<tag k="place" v="locality" />
		<tag k="ssr:date" v="2019-12-27" />
		<tag k="ssr:gruppe" v="skråninger" />
		<tag k="ssr:hovedgruppe" v="terreng" />
		<tag k="ssr:stedsnr" v="56096" />
		<tag k="ssr:type" v="bakke" />
	</node>
	<node lat="68.88159444576291" lon="17.84399166672527" id="-40034">
		<tag k="name" v="Brennholtet" />
		<tag k="place" v="locality" />
		<tag k="ssr:date" v="2019-12-27" />
		<tag k="ssr:gruppe" v="vegetasjon" />
		<tag k="ssr:hovedgruppe" v="markslag" />
		<tag k="ssr:stedsnr" v="56175" />
		<tag k="ssr:type" v="skog" />
	</node>
	<node lat="68.92391666491469" lon="18.026102779230087" id="-40035">
		<tag k="name" v="Bekken" />
		<tag k="ssr:date" v="2019-12-27" />
		<tag k="ssr:gruppe" v="rennendeVann" />
		<tag k="ssr:hovedgruppe" v="ferskvann" />
		<tag k="ssr:stedsnr" v="56505" />
		<tag k="ssr:type" v="elv" />
		<tag k="waterway" v="river" />
	</node>
	<node lat="68.85384722607024" lon="17.77842777593549" id="-40036">
		<tag k="name" v="Láttorápma" />
		<tag k="name:se" v="Láttorápma" />
		<tag k="natural" v="slope" />
		<tag k="place" v="locality" />
		<tag k="ssr:date" v="2019-12-27" />
		<tag k="ssr:gruppe" v="skråninger" />
		<tag k="ssr:hovedgruppe" v="terreng" />
		<tag k="ssr:stedsnr" v="56267" />
		<tag k="ssr:type" v="li" />
	</node>
	<node lat="68.90935278153717" lon="17.760405547745446" id="-40037">
		<tag k="name" v="Stigbergan" />
		<tag k="natural" v="hill" />
		<tag k="place" v="locality" />
		<tag k="ssr:date" v="2019-12-27" />
		<tag k="ssr:gruppe" v="høyder" />
		<tag k="ssr:hovedgruppe" v="terreng" />
		<tag k="ssr:stedsnr" v="56474" />
		<tag k="ssr:type" v="berg" />
	</node>
	<node lat="68.90975555591586" lon="17.769255553643468" id="-40038">
		<tag k="name" v="Løhågen" />
		<tag k="natural" v="hill" />
		<tag k="place" v="locality" />
		<tag k="ssr:date" v="2019-12-27" />
		<tag k="ssr:gruppe" v="høyder" />
		<tag k="ssr:hovedgruppe" v="terreng" />
		<tag k="ssr:stedsnr" v="56487" />
		<tag k="ssr:type" v="haug" />
	</node>
	<node lat="68.91098333697262" lon="17.537824988854773" id="-40039">
		<tag k="name" v="Kviteberget" />
		<tag k="natural" v="hill" />
		<tag k="place" v="locality" />
		<tag k="ssr:date" v="2019-12-27" />
		<tag k="ssr:gruppe" v="høyder" />
		<tag k="ssr:hovedgruppe" v="terreng" />
		<tag k="ssr:stedsnr" v="56682" />
		<tag k="ssr:type" v="berg" />
	</node>
	<node lat="68.89410277295428" lon="17.85775278509458" id="-40040">
		<tag k="name" v="Flagghågen" />
		<tag k="natural" v="hill" />
		<tag k="place" v="locality" />
		<tag k="ssr:date" v="2019-12-27" />
		<tag k="ssr:gruppe" v="høyder" />
		<tag k="ssr:hovedgruppe" v="terreng" />
		<tag k="ssr:stedsnr" v="56808" />
		<tag k="ssr:type" v="haug" />
	</node>
	<node lat="68.90334444615395" lon="17.874497219303937" id="-40041">
		<tag k="name" v="Skadalen" />
		<tag k="natural" v="valley" />
		<tag k="place" v="locality" />
		<tag k="ssr:date" v="2019-12-27" />
		<tag k="ssr:gruppe" v="senkninger" />
		<tag k="ssr:hovedgruppe" v="terreng" />
		<tag k="ssr:stedsnr" v="56811" />
		<tag k="ssr:type" v="dal" />
	</node>
	<node lat="68.90245555307129" lon="17.46951110706054" id="-40042">
		<tag k="name" v="Storakselhågen" />
		<tag k="natural" v="hill" />
		<tag k="place" v="locality" />
		<tag k="ssr:date" v="2019-12-27" />
		<tag k="ssr:gruppe" v="høyder" />
		<tag k="ssr:hovedgruppe" v="terreng" />
		<tag k="ssr:stedsnr" v="56567" />
		<tag k="ssr:type" v="haug" />
	</node>
	<node lat="68.86879166597113" lon="18.05788055273166" id="-40043">
		<tag k="name" v="Litjelvdalen" />
		<tag k="natural" v="valley" />
		<tag k="place" v="locality" />
		<tag k="ssr:date" v="2019-12-27" />
		<tag k="ssr:gruppe" v="senkninger" />
		<tag k="ssr:hovedgruppe" v="terreng" />
		<tag k="ssr:stedsnr" v="56568" />
		<tag k="ssr:type" v="dal" />
	</node>
	<node lat="68.90586110957848" lon="17.499241673260848" id="-40044">
		<tag k="fixme" v="consider natural=peak for the most distinct mountains in the district" />
		<tag k="name" v="Høgholtet" />
		<tag k="natural" v="hill" />
		<tag k="place" v="locality" />
		<tag k="ssr:date" v="2019-12-27" />
		<tag k="ssr:gruppe" v="høyder" />
		<tag k="ssr:hovedgruppe" v="terreng" />
		<tag k="ssr:stedsnr" v="56577" />
		<tag k="ssr:type" v="ås" />
	</node>
	<node lat="68.8892583352085" lon="18.082874995665485" id="-40045">
		<tag k="name" v="Ørndalen" />
		<tag k="natural" v="valley" />
		<tag k="place" v="locality" />
		<tag k="ssr:date" v="2019-12-27" />
		<tag k="ssr:gruppe" v="senkninger" />
		<tag k="ssr:hovedgruppe" v="terreng" />
		<tag k="ssr:stedsnr" v="56701" />
		<tag k="ssr:type" v="dal" />
	</node>
	<node lat="68.88183888770259" lon="18.098399989517112" id="-40046">
		<tag k="name" v="Kvernbekkdalen" />
		<tag k="natural" v="valley" />
		<tag k="place" v="locality" />
		<tag k="ssr:date" v="2019-12-27" />
		<tag k="ssr:gruppe" v="senkninger" />
		<tag k="ssr:hovedgruppe" v="terreng" />
		<tag k="ssr:stedsnr" v="56707" />
		<tag k="ssr:type" v="dal" />
	</node>
	<node lat="68.88581666423347" lon="18.127816661500486" id="-40047">
		<tag k="fixme" v="consider natural=peak for the most distinct mountains in the district" />
		<tag k="name" v="Steinvasshøgda" />
		<tag k="natural" v="hill" />
		<tag k="place" v="locality" />
		<tag k="ssr:date" v="2019-12-27" />
		<tag k="ssr:gruppe" v="høyder" />
		<tag k="ssr:hovedgruppe" v="terreng" />
		<tag k="ssr:stedsnr" v="56712" />
		<tag k="ssr:type" v="ås" />
	</node>
	<node lat="68.84276944228523" lon="17.81237222778704" id="-40048">
		<tag k="highway" v="path" />
		<tag k="name" v="Mariveien" />
		<tag k="ssr:date" v="2019-12-27" />
		<tag k="ssr:gruppe" v="veg" />
		<tag k="ssr:hovedgruppe" v="infrastruktur" />
		<tag k="ssr:stedsnr" v="56715" />
		<tag k="ssr:type" v="sti" />
	</node>
	<node lat="68.81351666430325" lon="18.051236116538263" id="-40049">
		<tag k="name" v="Nedre Masterbakkvatn - Govlojávri" />
		<tag k="name:no" v="Nedre Masterbakkvatn" />
		<tag k="name:se" v="Govlojávri" />
		<tag k="natural" v="water" />
		<tag k="ssr:date" v="2019-12-27" />
		<tag k="ssr:gruppe" v="stilleståendeVann" />
		<tag k="ssr:hovedgruppe" v="ferskvann" />
		<tag k="ssr:stedsnr" v="56770" />
		<tag k="ssr:type" v="vann" />
		<tag k="water" v="lake" />
	</node>
	<node lat="68.858888893003" lon="17.85184443312857" id="-40050">
		<tag k="name" v="Stormyra" />
		<tag k="natural" v="wetland" />
		<tag k="ssr:date" v="2019-12-27" />
		<tag k="ssr:gruppe" v="våtmark" />
		<tag k="ssr:hovedgruppe" v="markslag" />
		<tag k="ssr:stedsnr" v="56983" />
		<tag k="ssr:type" v="myr" />
	</node>
	<node lat="68.90875555538184" lon="18.08948334032239" id="-40051">
		<tag k="name" v="Kviteberget" />
		<tag k="natural" v="hill" />
		<tag k="place" v="locality" />
		<tag k="ssr:date" v="2019-12-27" />
		<tag k="ssr:gruppe" v="høyder" />
		<tag k="ssr:hovedgruppe" v="terreng" />
		<tag k="ssr:stedsnr" v="57406" />
		<tag k="ssr:type" v="berg" />
	</node>
	<node lat="68.8522750044029" lon="18.057716654108077" id="-40052">
		<tag k="name" v="Kjørodden" />
		<tag k="natural" v="cape" />
		<tag k="ssr:date" v="2019-12-27" />
		<tag k="ssr:gruppe" v="ferskvannskontur" />
		<tag k="ssr:hovedgruppe" v="ferskvann" />
		<tag k="ssr:stedsnr" v="57522" />
		<tag k="ssr:type" v="nes" />
	</node>
	<node lat="68.86121666809589" lon="18.04328054526087" id="-40053">
		<tag k="name" v="Langedalen" />
		<tag k="natural" v="valley" />
		<tag k="place" v="locality" />
		<tag k="ssr:date" v="2019-12-27" />
		<tag k="ssr:gruppe" v="senkninger" />
		<tag k="ssr:hovedgruppe" v="terreng" />
		<tag k="ssr:stedsnr" v="57530" />
		<tag k="ssr:type" v="dal" />
	</node>
	<node lat="68.87241666361533" lon="18.004530541297964" id="-40054">
		<tag k="name" v="Bommeneset" />
		<tag k="natural" v="cape" />
		<tag k="ssr:date" v="2019-12-27" />
		<tag k="ssr:gruppe" v="ferskvannskontur" />
		<tag k="ssr:hovedgruppe" v="ferskvann" />
		<tag k="ssr:stedsnr" v="57623" />
		<tag k="ssr:type" v="nes" />
	</node>
	<node lat="68.94368611288382" lon="18.021075000681147" id="-40055">
		<tag k="name" v="Storfossbakkan" />
		<tag k="natural" v="slope" />
		<tag k="place" v="locality" />
		<tag k="ssr:date" v="2019-12-27" />
		<tag k="ssr:gruppe" v="skråninger" />
		<tag k="ssr:hovedgruppe" v="terreng" />
		<tag k="ssr:stedsnr" v="58473" />
		<tag k="ssr:type" v="bakke" />
	</node>
	<node lat="68.9350500043323" lon="18.091194446852462" id="-40056">
		<tag k="name" v="Klipa" />
		<tag k="natural" v="valley" />
		<tag k="place" v="locality" />
		<tag k="ssr:date" v="2019-12-27" />
		<tag k="ssr:gruppe" v="senkninger" />
		<tag k="ssr:hovedgruppe" v="terreng" />
		<tag k="ssr:stedsnr" v="240452" />
		<tag k="ssr:type" v="skar" />
	</node>
	<node lat="68.94093611260115" lon="18.053950001305477" id="-40057">
		<tag k="name" v="Myrslettbekkstrupet" />
		<tag k="natural" v="valley" />
		<tag k="place" v="locality" />
		<tag k="ssr:date" v="2019-12-27" />
		<tag k="ssr:gruppe" v="senkninger" />
		<tag k="ssr:hovedgruppe" v="terreng" />
		<tag k="ssr:stedsnr" v="240475" />
		<tag k="ssr:type" v="skar" />
	</node>
	<node lat="68.81820556025274" lon="17.876280546867942" id="-40058">
		<tag k="name" v="Tverrelva - Šleađđojohka" />
		<tag k="name:no" v="Tverrelva" />
		<tag k="name:se" v="Šleađđojohka" />
		<tag k="ssr:date" v="2019-12-27" />
		<tag k="ssr:gruppe" v="rennendeVann" />
		<tag k="ssr:hovedgruppe" v="ferskvann" />
		<tag k="ssr:stedsnr" v="78697" />
		<tag k="ssr:type" v="bekk" />
		<tag k="waterway" v="stream" />
	</node>
	<node lat="68.84743055747556" lon="17.771416653505966" id="-40059">
		<tag k="name" v="Spunshaugen" />
		<tag k="natural" v="hill" />
		<tag k="place" v="locality" />
		<tag k="ssr:date" v="2019-12-27" />
		<tag k="ssr:gruppe" v="høyder" />
		<tag k="ssr:hovedgruppe" v="terreng" />
		<tag k="ssr:stedsnr" v="78815" />
		<tag k="ssr:type" v="haug" />
	</node>
	<node lat="68.85250555702504" lon="17.562672225772026" id="-40060">
		<tag k="name" v="Rundkollen" />
		<tag k="natural" v="hill" />
		<tag k="place" v="locality" />
		<tag k="ssr:date" v="2019-12-27" />
		<tag k="ssr:gruppe" v="høyder" />
		<tag k="ssr:hovedgruppe" v="terreng" />
		<tag k="ssr:stedsnr" v="78816" />
		<tag k="ssr:type" v="haug" />
	</node>
	<node lat="68.91300832904945" lon="17.484736115852986" id="-40061">
		<tag k="fixme" v="consider natural=peak for the most distinct mountains in the district" />
		<tag k="name" v="Rennhammaren" />
		<tag k="natural" v="hill" />
		<tag k="place" v="locality" />
		<tag k="ssr:date" v="2019-12-27" />
		<tag k="ssr:gruppe" v="høyder" />
		<tag k="ssr:hovedgruppe" v="terreng" />
		<tag k="ssr:stedsnr" v="78845" />
		<tag k="ssr:type" v="ås" />
	</node>
	<node lat="68.8585944427032" lon="17.81416388083954" id="-40062">
		<tag k="name" v="Nysted" />
		<tag k="place" v="farm" />
		<tag k="ssr:date" v="2019-12-27" />
		<tag k="ssr:gruppe" v="gardsbebyggelse" />
		<tag k="ssr:hovedgruppe" v="bebyggelse" />
		<tag k="ssr:stedsnr" v="78754" />
		<tag k="ssr:type" v="bruk" />
	</node>
	<node lat="68.8319888865863" lon="17.475474986292042" id="-40063">
		<tag k="name" v="Lavangsneset" />
		<tag k="natural" v="cape" />
		<tag k="ssr:date" v="2019-12-27" />
		<tag k="ssr:gruppe" v="kystkontur" />
		<tag k="ssr:hovedgruppe" v="sjø" />
		<tag k="ssr:stedsnr" v="78799" />
		<tag k="ssr:type" v="nesISjø" />
	</node>
	<node lat="68.94144444112061" lon="17.739711115798418" id="-40064">
		<tag k="name" v="Myre" />
		<tag k="place" v="farm" />
		<tag k="ssr:date" v="2019-12-27" />
		<tag k="ssr:gruppe" v="gardsbebyggelse" />
		<tag k="ssr:hovedgruppe" v="bebyggelse" />
		<tag k="ssr:stedsnr" v="78948" />
		<tag k="ssr:type" v="bruk" />
	</node>
	<node lat="68.9007333310624" lon="17.786508325263004" id="-40065">
		<tag k="name" v="Yttergården" />
		<tag k="place" v="farm" />
		<tag k="ssr:date" v="2019-12-27" />
		<tag k="ssr:gruppe" v="gardsbebyggelse" />
		<tag k="ssr:hovedgruppe" v="bebyggelse" />
		<tag k="ssr:stedsnr" v="79846" />
		<tag k="ssr:type" v="bruk" />
	</node>
	<node lat="68.90132777979817" lon="17.70284999134974" id="-40066">
		<tag k="name" v="Rotvikneset" />
		<tag k="natural" v="cape" />
		<tag k="ssr:date" v="2019-12-27" />
		<tag k="ssr:gruppe" v="kystkontur" />
		<tag k="ssr:hovedgruppe" v="sjø" />
		<tag k="ssr:stedsnr" v="90604" />
		<tag k="ssr:type" v="nesISjø" />
	</node>
	<node lat="69.00341388771233" lon="17.72848332527893" id="-40067">
		<tag k="name" v="Østertuvnes" />
		<tag k="place" v="farm" />
		<tag k="ssr:date" v="2019-12-27" />
		<tag k="ssr:gruppe" v="gardsbebyggelse" />
		<tag k="ssr:hovedgruppe" v="bebyggelse" />
		<tag k="ssr:stedsnr" v="99511" />
		<tag k="ssr:type" v="bruk" />
	</node>
	<node lat="68.99023333209891" lon="17.70998889246878" id="-40068">
		<tag k="name" v="Sennestakken" />
		<tag k="natural" v="wetland" />
		<tag k="ssr:date" v="2019-12-27" />
		<tag k="ssr:gruppe" v="våtmark" />
		<tag k="ssr:hovedgruppe" v="markslag" />
		<tag k="ssr:stedsnr" v="99514" />
		<tag k="ssr:type" v="myr" />
	</node>
	<node lat="68.91573610842588" lon="17.784661112065077" id="-40069">
		<tag k="fixme" v="multiple name tags, choose one and add the other to alt_name" />
		<tag k="name" v="Vasshågen;Rognsahaugen" />
		<tag k="natural" v="hill" />
		<tag k="place" v="locality" />
		<tag k="ssr:date" v="2019-12-27" />
		<tag k="ssr:gruppe" v="høyder" />
		<tag k="ssr:hovedgruppe" v="terreng" />
		<tag k="ssr:stedsnr" v="249835" />
		<tag k="ssr:type" v="haug" />
	</node>
	<node lat="68.96437777349223" lon="17.75967777749989" id="-40070">
		<tag k="landuse" v="meadow" />
		<tag k="name" v="Elveteigen" />
		<tag k="ssr:date" v="2019-12-27" />
		<tag k="ssr:gruppe" v="dyrkamark" />
		<tag k="ssr:hovedgruppe" v="markslag" />
		<tag k="ssr:stedsnr" v="115003" />
		<tag k="ssr:type" v="eng" />
	</node>
	<node lat="68.96540555706206" lon="17.759980549304277" id="-40071">
		<tag k="name" v="Ruskholla" />
		<tag k="natural" v="valley" />
		<tag k="place" v="locality" />
		<tag k="ssr:date" v="2019-12-27" />
		<tag k="ssr:gruppe" v="senkninger" />
		<tag k="ssr:hovedgruppe" v="terreng" />
		<tag k="ssr:stedsnr" v="115007" />
		<tag k="ssr:type" v="søkk" />
	</node>
	<node lat="68.89929999914325" lon="17.717972207142854" id="-40072">
		<tag k="name" v="Båtvika" />
		<tag k="natural" v="bay" />
		<tag k="ssr:date" v="2019-12-27" />
		<tag k="ssr:gruppe" v="kystkontur" />
		<tag k="ssr:hovedgruppe" v="sjø" />
		<tag k="ssr:stedsnr" v="115471" />
		<tag k="ssr:type" v="vikISjø" />
	</node>
	<node lat="68.96204721935266" lon="17.763383321678216" id="-40073">
		<tag k="name" v="Storbakken" />
		<tag k="natural" v="slope" />
		<tag k="place" v="locality" />
		<tag k="ssr:date" v="2019-12-27" />
		<tag k="ssr:gruppe" v="skråninger" />
		<tag k="ssr:hovedgruppe" v="terreng" />
		<tag k="ssr:stedsnr" v="117119" />
		<tag k="ssr:type" v="bakke" />
	</node>
	<node lat="68.9684444426381" lon="17.76965833236795" id="-40074">
		<tag k="name" v="Grytan" />
		<tag k="natural" v="valley" />
		<tag k="place" v="locality" />
		<tag k="ssr:date" v="2019-12-27" />
		<tag k="ssr:gruppe" v="senkninger" />
		<tag k="ssr:hovedgruppe" v="terreng" />
		<tag k="ssr:stedsnr" v="117121" />
		<tag k="ssr:type" v="søkk" />
	</node>
	<node lat="68.84425000281365" lon="17.88102499576375" id="-40075">
		<tag k="name" v="Torvhågen" />
		<tag k="natural" v="hill" />
		<tag k="place" v="locality" />
		<tag k="ssr:date" v="2019-12-27" />
		<tag k="ssr:gruppe" v="høyder" />
		<tag k="ssr:hovedgruppe" v="terreng" />
		<tag k="ssr:stedsnr" v="117182" />
		<tag k="ssr:type" v="haug" />
	</node>
	<node lat="68.84566388923109" lon="17.89343610095113" id="-40076">
		<tag k="name" v="Piggsteinen" />
		<tag k="natural" v="stone" />
		<tag k="ssr:date" v="2019-12-27" />
		<tag k="ssr:gruppe" v="løsmasseavsetninger" />
		<tag k="ssr:hovedgruppe" v="markslag" />
		<tag k="ssr:stedsnr" v="117185" />
		<tag k="ssr:type" v="stein" />
	</node>
	<node lat="68.84017222626697" lon="17.906386102663227" id="-40077">
		<tag k="name" v="Gustavroggi" />
		<tag k="name:se" v="Gustavroggi" />
		<tag k="natural" v="valley" />
		<tag k="place" v="locality" />
		<tag k="ssr:date" v="2019-12-27" />
		<tag k="ssr:gruppe" v="senkninger" />
		<tag k="ssr:hovedgruppe" v="terreng" />
		<tag k="ssr:stedsnr" v="117187" />
		<tag k="ssr:type" v="skar" />
	</node>
	<node lat="68.88949444342907" lon="17.80396943706246" id="-40078">
		<tag k="name" v="Enigheten" />
		<tag k="place" v="farm" />
		<tag k="ssr:date" v="2019-12-27" />
		<tag k="ssr:gruppe" v="gardsbebyggelse" />
		<tag k="ssr:hovedgruppe" v="bebyggelse" />
		<tag k="ssr:stedsnr" v="117320" />
		<tag k="ssr:type" v="bruk" />
	</node>
	<node lat="68.8451250004964" lon="17.839138874043197" id="-40079">
		<tag k="name" v="Fosshågen" />
		<tag k="natural" v="hill" />
		<tag k="place" v="locality" />
		<tag k="ssr:date" v="2019-12-27" />
		<tag k="ssr:gruppe" v="høyder" />
		<tag k="ssr:hovedgruppe" v="terreng" />
		<tag k="ssr:stedsnr" v="117213" />
		<tag k="ssr:type" v="haug" />
	</node>
	<node lat="68.878858331428" lon="17.873308338193556" id="-40080">
		<tag k="name" v="Krokmyrhågen" />
		<tag k="natural" v="hill" />
		<tag k="place" v="locality" />
		<tag k="ssr:date" v="2019-12-27" />
		<tag k="ssr:gruppe" v="høyder" />
		<tag k="ssr:hovedgruppe" v="terreng" />
		<tag k="ssr:stedsnr" v="117223" />
		<tag k="ssr:type" v="haug" />
	</node>
	<node lat="68.89603888530891" lon="18.010602780062133" id="-40081">
		<tag k="name" v="Rundmyra" />
		<tag k="natural" v="wetland" />
		<tag k="ssr:date" v="2019-12-27" />
		<tag k="ssr:gruppe" v="våtmark" />
		<tag k="ssr:hovedgruppe" v="markslag" />
		<tag k="ssr:stedsnr" v="117436" />
		<tag k="ssr:type" v="myr" />
	</node>
	<node lat="68.93531666595875" lon="17.711455558702763" id="-40082">
		<tag k="name" v="Glunthågen" />
		<tag k="natural" v="hill" />
		<tag k="place" v="locality" />
		<tag k="ssr:date" v="2019-12-27" />
		<tag k="ssr:gruppe" v="høyder" />
		<tag k="ssr:hovedgruppe" v="terreng" />
		<tag k="ssr:stedsnr" v="117444" />
		<tag k="ssr:type" v="haug" />
	</node>
	<node lat="68.84931666676555" lon="18.07194999858098" id="-40083">
		<tag k="name" v="Orrehaugen" />
		<tag k="natural" v="hill" />
		<tag k="place" v="locality" />
		<tag k="ssr:date" v="2019-12-27" />
		<tag k="ssr:gruppe" v="høyder" />
		<tag k="ssr:hovedgruppe" v="terreng" />
		<tag k="ssr:stedsnr" v="117512" />
		<tag k="ssr:type" v="haug" />
	</node>
	<node lat="68.92977499900665" lon="18.013158341287383" id="-40084">
		<tag k="name" v="Falkefarhågen" />
		<tag k="natural" v="hill" />
		<tag k="place" v="locality" />
		<tag k="ssr:date" v="2019-12-27" />
		<tag k="ssr:gruppe" v="høyder" />
		<tag k="ssr:hovedgruppe" v="terreng" />
		<tag k="ssr:stedsnr" v="117519" />
		<tag k="ssr:type" v="haug" />
	</node>
	<node lat="68.86058055976166" lon="18.00531110223378" id="-40085">
		<tag k="name" v="Mikkelmoen" />
		<tag k="place" v="locality" />
		<tag k="ssr:date" v="2019-12-27" />
		<tag k="ssr:gruppe" v="flater" />
		<tag k="ssr:hovedgruppe" v="terreng" />
		<tag k="ssr:stedsnr" v="117575" />
		<tag k="ssr:type" v="mo" />
	</node>
	<node lat="68.85691944657638" lon="18.00421944809732" id="-40086">
		<tag k="landuse" v="meadow" />
		<tag k="name" v="Jennystua" />
		<tag k="ssr:date" v="2019-12-27" />
		<tag k="ssr:gruppe" v="dyrkamark" />
		<tag k="ssr:hovedgruppe" v="markslag" />
		<tag k="ssr:stedsnr" v="117576" />
		<tag k="ssr:type" v="eng" />
	</node>
	<node lat="68.89507777903835" lon="17.926202773662908" id="-40087">
		<tag k="name" v="Mellomlia" />
		<tag k="natural" v="slope" />
		<tag k="place" v="locality" />
		<tag k="ssr:date" v="2019-12-27" />
		<tag k="ssr:gruppe" v="skråninger" />
		<tag k="ssr:hovedgruppe" v="terreng" />
		<tag k="ssr:stedsnr" v="117705" />
		<tag k="ssr:type" v="li" />
	</node>
	<node lat="68.88662222125708" lon="17.707577779280697" id="-40088">
		<tag k="fixme" v="consider natural=peak for the most distinct mountains in the district" />
		<tag k="name" v="Kollan" />
		<tag k="natural" v="hill" />
		<tag k="place" v="locality" />
		<tag k="ssr:date" v="2019-12-27" />
		<tag k="ssr:gruppe" v="høyder" />
		<tag k="ssr:hovedgruppe" v="terreng" />
		<tag k="ssr:stedsnr" v="117711" />
		<tag k="ssr:type" v="ås" />
	</node>
	<node lat="68.88648611057629" lon="17.71712222885326" id="-40089">
		<tag k="name" v="Skansen" />
		<tag k="place" v="locality" />
		<tag k="ssr:date" v="2019-12-27" />
		<tag k="ssr:gruppe" v="flater" />
		<tag k="ssr:hovedgruppe" v="terreng" />
		<tag k="ssr:stedsnr" v="117712" />
		<tag k="ssr:type" v="slette" />
	</node>
	<node lat="68.97865555973236" lon="17.6695166559547" id="-40090">
		<tag k="name" v="Gunnelheimen" />
		<tag k="place" v="locality" />
		<tag k="ssr:date" v="2019-12-27" />
		<tag k="ssr:gruppe" v="bolighus" />
		<tag k="ssr:hovedgruppe" v="bebyggelse" />
		<tag k="ssr:stedsnr" v="117631" />
		<tag k="ssr:type" v="gammelBosettingsplass" />
	</node>
	<node lat="68.975577780009" lon="17.65859444728777" id="-40091">
		<tag k="name" v="Kua" />
		<tag k="natural" v="hill" />
		<tag k="place" v="locality" />
		<tag k="ssr:date" v="2019-12-27" />
		<tag k="ssr:gruppe" v="høyder" />
		<tag k="ssr:hovedgruppe" v="terreng" />
		<tag k="ssr:stedsnr" v="117632" />
		<tag k="ssr:type" v="haug" />
	</node>
	<node lat="68.88743888695916" lon="18.00756666535485" id="-40092">
		<tag k="name" v="Nedre Pjette-finnmyra" />
		<tag k="natural" v="wetland" />
		<tag k="ssr:date" v="2019-12-27" />
		<tag k="ssr:gruppe" v="våtmark" />
		<tag k="ssr:hovedgruppe" v="markslag" />
		<tag k="ssr:stedsnr" v="117638" />
		<tag k="ssr:type" v="myr" />
	</node>
	<node lat="68.87108610959514" lon="18.059119428871433" id="-40093">
		<tag k="name" v="Nikolai-dalmoen" />
		<tag k="place" v="locality" />
		<tag k="ssr:date" v="2019-12-27" />
		<tag k="ssr:gruppe" v="flater" />
		<tag k="ssr:hovedgruppe" v="terreng" />
		<tag k="ssr:stedsnr" v="117670" />
		<tag k="ssr:type" v="mo" />
	</node>
	<node lat="68.83728055236358" lon="17.826061102241553" id="-40094">
		<tag k="name" v="Sæterelva" />
		<tag k="ssr:date" v="2019-12-27" />
		<tag k="ssr:gruppe" v="rennendeVann" />
		<tag k="ssr:hovedgruppe" v="ferskvann" />
		<tag k="ssr:stedsnr" v="117680" />
		<tag k="ssr:type" v="bekk" />
		<tag k="waterway" v="stream" />
	</node>
	<node lat="68.88934722393378" lon="18.12288610021692" id="-40095">
		<tag k="name" v="Kvernbekkvassranen" />
		<tag k="natural" v="ridge" />
		<tag k="place" v="locality" />
		<tag k="ssr:date" v="2019-12-27" />
		<tag k="ssr:gruppe" v="høyder" />
		<tag k="ssr:hovedgruppe" v="terreng" />
		<tag k="ssr:stedsnr" v="117681" />
		<tag k="ssr:type" v="rygg" />
	</node>
	<node lat="68.8755472176744" lon="18.093908338094053" id="-40096">
		<tag k="name" v="Knausen" />
		<tag k="natural" v="hill" />
		<tag k="place" v="locality" />
		<tag k="ssr:date" v="2019-12-27" />
		<tag k="ssr:gruppe" v="høyder" />
		<tag k="ssr:hovedgruppe" v="terreng" />
		<tag k="ssr:stedsnr" v="117690" />
		<tag k="ssr:type" v="haug" />
	</node>
	<node lat="68.8784972254566" lon="18.083219449761163" id="-40097">
		<tag k="name" v="Basstuberget" />
		<tag k="natural" v="hill" />
		<tag k="place" v="locality" />
		<tag k="ssr:date" v="2019-12-27" />
		<tag k="ssr:gruppe" v="høyder" />
		<tag k="ssr:hovedgruppe" v="terreng" />
		<tag k="ssr:stedsnr" v="117692" />
		<tag k="ssr:type" v="berg" />
	</node>
	<node lat="68.87504722390904" lon="18.11141110223412" id="-40098">
		<tag k="name" v="Rismålskaret" />
		<tag k="natural" v="valley" />
		<tag k="place" v="locality" />
		<tag k="ssr:date" v="2019-12-27" />
		<tag k="ssr:gruppe" v="senkninger" />
		<tag k="ssr:hovedgruppe" v="terreng" />
		<tag k="ssr:stedsnr" v="117693" />
		<tag k="ssr:type" v="skar" />
	</node>
	<node lat="68.87524444870394" lon="18.10952222298016" id="-40099">
		<tag k="name" v="Rismålshaugen" />
		<tag k="natural" v="hill" />
		<tag k="place" v="locality" />
		<tag k="ssr:date" v="2019-12-27" />
		<tag k="ssr:gruppe" v="høyder" />
		<tag k="ssr:hovedgruppe" v="terreng" />
		<tag k="ssr:stedsnr" v="117695" />
		<tag k="ssr:type" v="haug" />
	</node>
	<node lat="68.90936944679993" lon="17.86862500711774" id="-40100">
		<tag k="name" v="Olderholla" />
		<tag k="natural" v="valley" />
		<tag k="place" v="locality" />
		<tag k="ssr:date" v="2019-12-27" />
		<tag k="ssr:gruppe" v="senkninger" />
		<tag k="ssr:hovedgruppe" v="terreng" />
		<tag k="ssr:stedsnr" v="117819" />
		<tag k="ssr:type" v="skar" />
	</node>
	<node lat="68.91272221966796" lon="17.88065277418357" id="-40101">
		<tag k="name" v="Kristitofta" />
		<tag k="natural" v="hill" />
		<tag k="place" v="locality" />
		<tag k="ssr:date" v="2019-12-27" />
		<tag k="ssr:gruppe" v="høyder" />
		<tag k="ssr:hovedgruppe" v="terreng" />
		<tag k="ssr:stedsnr" v="117821" />
		<tag k="ssr:type" v="haug" />
	</node>
	<node lat="68.87395555199383" lon="17.918236103338636" id="-40102">
		<tag k="name" v="Lihamran" />
		<tag k="natural" v="hill" />
		<tag k="place" v="locality" />
		<tag k="ssr:date" v="2019-12-27" />
		<tag k="ssr:gruppe" v="høyder" />
		<tag k="ssr:hovedgruppe" v="terreng" />
		<tag k="ssr:stedsnr" v="117934" />
		<tag k="ssr:type" v="berg" />
	</node>
	<node lat="68.85969722110866" lon="17.90852221089801" id="-40103">
		<tag k="name" v="Forrmyra" />
		<tag k="natural" v="wetland" />
		<tag k="ssr:date" v="2019-12-27" />
		<tag k="ssr:gruppe" v="våtmark" />
		<tag k="ssr:hovedgruppe" v="markslag" />
		<tag k="ssr:stedsnr" v="117973" />
		<tag k="ssr:type" v="myr" />
	</node>
	<node lat="68.83516666691827" lon="17.485241669780905" id="-40104">
		<tag k="name" v="Litjemyra" />
		<tag k="natural" v="wetland" />
		<tag k="ssr:date" v="2019-12-27" />
		<tag k="ssr:gruppe" v="våtmark" />
		<tag k="ssr:hovedgruppe" v="markslag" />
		<tag k="ssr:stedsnr" v="117985" />
		<tag k="ssr:type" v="myr" />
	</node>
	<node lat="68.94694721980834" lon="18.06926389533972" id="-40105">
		<tag k="name" v="Gråhammaren" />
		<tag k="natural" v="hill" />
		<tag k="place" v="locality" />
		<tag k="ssr:date" v="2019-12-27" />
		<tag k="ssr:gruppe" v="høyder" />
		<tag k="ssr:hovedgruppe" v="terreng" />
		<tag k="ssr:stedsnr" v="119473" />
		<tag k="ssr:type" v="berg" />
	</node>
	<node lat="68.84304999885259" lon="17.77320277536023" id="-40106">
		<tag k="name" v="Brynelvbotn" />
		<tag k="natural" v="valley" />
		<tag k="place" v="locality" />
		<tag k="ssr:date" v="2019-12-27" />
		<tag k="ssr:gruppe" v="senkninger" />
		<tag k="ssr:hovedgruppe" v="terreng" />
		<tag k="ssr:stedsnr" v="138802" />
		<tag k="ssr:type" v="botn" />
	</node>
	<node lat="68.84966389197415" lon="17.904647230792044" id="-40107">
		<tag k="name" v="Reingjerdskogtrollvatnet" />
		<tag k="natural" v="water" />
		<tag k="ssr:date" v="2019-12-27" />
		<tag k="ssr:gruppe" v="stilleståendeVann" />
		<tag k="ssr:hovedgruppe" v="ferskvann" />
		<tag k="ssr:stedsnr" v="138807" />
		<tag k="ssr:type" v="tjern" />
	</node>
	<node lat="68.92227499932132" lon="17.72217221399503" id="-40108">
		<tag k="name" v="Magesåsvika" />
		<tag k="natural" v="bay" />
		<tag k="ssr:date" v="2019-12-27" />
		<tag k="ssr:gruppe" v="kystkontur" />
		<tag k="ssr:hovedgruppe" v="sjø" />
		<tag k="ssr:stedsnr" v="138842" />
		<tag k="ssr:type" v="vikISjø" />
	</node>
	<node lat="68.90454167098177" lon="18.0887694374386" id="-40109">
		<tag k="name" v="Øvstevatnet" />
		<tag k="natural" v="water" />
		<tag k="ssr:date" v="2019-12-27" />
		<tag k="ssr:gruppe" v="stilleståendeVann" />
		<tag k="ssr:hovedgruppe" v="ferskvann" />
		<tag k="ssr:stedsnr" v="139589" />
		<tag k="ssr:type" v="tjern" />
	</node>
	<node lat="68.90513889119421" lon="18.076094444197548" id="-40110">
		<tag k="alt_name" v="Mellavatnet" />
		<tag k="name" v="Mellomvatnet" />
		<tag k="natural" v="water" />
		<tag k="ssr:date" v="2019-12-27" />
		<tag k="ssr:gruppe" v="stilleståendeVann" />
		<tag k="ssr:hovedgruppe" v="ferskvann" />
		<tag k="ssr:stedsnr" v="139590" />
		<tag k="ssr:type" v="tjern" />
	</node>
	<node lat="68.9853156661443" lon="17.689566147353357" id="-40111">
		<tag k="fixme" v="consider place=hamlet" />
		<tag k="name" v="Nattmålshaugen" />
		<tag k="place" v="farm" />
		<tag k="ssr:date" v="2020-06-19" />
		<tag k="ssr:gruppe" v="gardsbebyggelse" />
		<tag k="ssr:hovedgruppe" v="bebyggelse" />
		<tag k="ssr:stedsnr" v="139986" />
		<tag k="ssr:type" v="gard" />
	</node>
	<node lat="68.98975824214989" lon="17.728876137603162" id="-40112">
		<tag k="fixme" v="consider place=hamlet" />
		<tag k="name" v="Katrinehaugen" />
		<tag k="place" v="farm" />
		<tag k="ssr:date" v="2020-06-19" />
		<tag k="ssr:gruppe" v="gardsbebyggelse" />
		<tag k="ssr:hovedgruppe" v="bebyggelse" />
		<tag k="ssr:stedsnr" v="139987" />
		<tag k="ssr:type" v="gard" />
	</node>
	<node lat="68.88456667003972" lon="17.66819444507737" id="-40113">
		<tag k="name" v="Holmelva" />
		<tag k="ssr:date" v="2019-12-27" />
		<tag k="ssr:gruppe" v="rennendeVann" />
		<tag k="ssr:hovedgruppe" v="ferskvann" />
		<tag k="ssr:stedsnr" v="139838" />
		<tag k="ssr:type" v="bekk" />
		<tag k="waterway" v="stream" />
	</node>
	<node lat="68.88839444347825" lon="17.66061388707643" id="-40114">
		<tag k="alt_name" v="Nonshaugen" />
		<tag k="name" v="Nonshågen" />
		<tag k="natural" v="hill" />
		<tag k="place" v="locality" />
		<tag k="ssr:date" v="2019-12-27" />
		<tag k="ssr:gruppe" v="høyder" />
		<tag k="ssr:hovedgruppe" v="terreng" />
		<tag k="ssr:stedsnr" v="139839" />
		<tag k="ssr:type" v="haug" />
	</node>
	<node lat="68.89468611251002" lon="17.67666109785052" id="-40115">
		<tag k="name" v="Rotvika" />
		<tag k="natural" v="bay" />
		<tag k="ssr:date" v="2019-12-27" />
		<tag k="ssr:gruppe" v="kystkontur" />
		<tag k="ssr:hovedgruppe" v="sjø" />
		<tag k="ssr:stedsnr" v="151707" />
		<tag k="ssr:type" v="vikISjø" />
	</node>
	<node lat="68.82736389315916" lon="17.541297225878374" id="-40116">
		<tag k="name" v="Storelva" />
		<tag k="ssr:date" v="2019-12-27" />
		<tag k="ssr:gruppe" v="rennendeVann" />
		<tag k="ssr:hovedgruppe" v="ferskvann" />
		<tag k="ssr:stedsnr" v="260343" />
		<tag k="ssr:type" v="elv" />
		<tag k="waterway" v="river" />
	</node>
	<node lat="68.85824722625902" lon="18.00527222243791" id="-40117">
		<tag k="name" v="Moen" />
		<tag k="place" v="locality" />
		<tag k="ssr:date" v="2019-12-27" />
		<tag k="ssr:gruppe" v="flater" />
		<tag k="ssr:hovedgruppe" v="terreng" />
		<tag k="ssr:stedsnr" v="260532" />
		<tag k="ssr:type" v="mo" />
	</node>
	<node lat="68.85167174797061" lon="18.10380295480301" id="-40118">
		<tag k="fixme" v="consider place=hamlet" />
		<tag k="name" v="Skyssmoen" />
		<tag k="place" v="farm" />
		<tag k="ssr:date" v="2020-06-21" />
		<tag k="ssr:gruppe" v="gardsbebyggelse" />
		<tag k="ssr:hovedgruppe" v="bebyggelse" />
		<tag k="ssr:stedsnr" v="260540" />
		<tag k="ssr:type" v="gard" />
	</node>
	<node lat="68.92376111154685" lon="18.05863889370271" id="-40119">
		<tag k="name" v="Molund" />
		<tag k="place" v="farm" />
		<tag k="ssr:date" v="2019-12-27" />
		<tag k="ssr:gruppe" v="gardsbebyggelse" />
		<tag k="ssr:hovedgruppe" v="bebyggelse" />
		<tag k="ssr:stedsnr" v="260590" />
		<tag k="ssr:type" v="bruk" />
	</node>
	<node lat="68.87461854254636" lon="18.089956479283316" id="-40120">
		<tag k="name" v="Prestbakken" />
		<tag k="place" v="farm" />
		<tag k="ssr:date" v="2020-06-21" />
		<tag k="ssr:gruppe" v="gardsbebyggelse" />
		<tag k="ssr:hovedgruppe" v="bebyggelse" />
		<tag k="ssr:stedsnr" v="260638" />
		<tag k="ssr:type" v="bruk" />
	</node>
	<node lat="68.94423611531549" lon="18.143022209105638" id="-40121">
		<tag k="loc_name:se" v="Ceakkooaivi" />
		<tag k="name" v="Sekkhaugen - Seahkkoaivi" />
		<tag k="name:no" v="Sekkhaugen" />
		<tag k="name:se" v="Seahkkoaivi" />
		<tag k="natural" v="hill" />
		<tag k="old_name:se" v="Sækkoaivi" />
		<tag k="place" v="locality" />
		<tag k="ssr:date" v="2019-12-27" />
		<tag k="ssr:gruppe" v="høyder" />
		<tag k="ssr:hovedgruppe" v="terreng" />
		<tag k="ssr:stedsnr" v="260679" />
		<tag k="ssr:type" v="haug" />
	</node>
	<node lat="68.95045000432803" lon="18.176950000037024" id="-40122">
		<tag k="name" v="Lappehytta" />
		<tag k="place" v="locality" />
		<tag k="ssr:date" v="2019-12-27" />
		<tag k="ssr:gruppe" v="bolighus" />
		<tag k="ssr:hovedgruppe" v="bebyggelse" />
		<tag k="ssr:stedsnr" v="260681" />
		<tag k="ssr:type" v="gammelBosettingsplass" />
	</node>
	<node lat="68.93782936838097" lon="18.046412441620404" id="-40123">
		<tag k="fixme" v="consider place=hamlet" />
		<tag k="name" v="Haugli" />
		<tag k="place" v="farm" />
		<tag k="ssr:date" v="2020-06-19" />
		<tag k="ssr:gruppe" v="gardsbebyggelse" />
		<tag k="ssr:hovedgruppe" v="bebyggelse" />
		<tag k="ssr:stedsnr" v="260693" />
		<tag k="ssr:type" v="gard" />
	</node>
	<node lat="68.88423333184676" lon="17.606991672572942" id="-40124">
		<tag k="fixme" v="multiple name tags, choose one and add the other to alt_name" />
		<tag k="name" v="Laukvika;Løvika" />
		<tag k="natural" v="bay" />
		<tag k="ssr:date" v="2019-12-27" />
		<tag k="ssr:gruppe" v="kystkontur" />
		<tag k="ssr:hovedgruppe" v="sjø" />
		<tag k="ssr:stedsnr" v="260816" />
		<tag k="ssr:type" v="vikISjø" />
	</node>
	<node lat="68.85981666853898" lon="17.741427768215086" id="-40125">
		<tag k="name" v="Gardselva" />
		<tag k="ssr:date" v="2019-12-27" />
		<tag k="ssr:gruppe" v="rennendeVann" />
		<tag k="ssr:hovedgruppe" v="ferskvann" />
		<tag k="ssr:stedsnr" v="260794" />
		<tag k="ssr:type" v="bekk" />
		<tag k="waterway" v="stream" />
	</node>
	<node lat="68.91155833116193" lon="17.723244439519686" id="-40126">
		<tag k="fixme" v="consider place=suburb, village or hamlet" />
		<tag k="name" v="Salangsverket" />
		<tag k="place" v="quarter" />
		<tag k="ssr:date" v="2020-04-21" />
		<tag k="ssr:gruppe" v="bebyggelsesområder" />
		<tag k="ssr:hovedgruppe" v="bebyggelse" />
		<tag k="ssr:stedsnr" v="260863" />
		<tag k="ssr:type" v="tettbebyggelse" />
	</node>
	<node lat="68.8815194443761" lon="17.686658322071832" id="-40127">
		<tag k="fixme" v="consider place=hamlet" />
		<tag k="name" v="Dalen" />
		<tag k="place" v="village" />
		<tag k="ssr:date" v="2019-12-27" />
		<tag k="ssr:gruppe" v="bebyggelsesområder" />
		<tag k="ssr:hovedgruppe" v="bebyggelse" />
		<tag k="ssr:stedsnr" v="260818" />
		<tag k="ssr:type" v="bygdelagBygd" />
	</node>
	<node lat="68.83393055441447" lon="17.624219432122686" id="-40128">
		<tag k="fixme" v="consider natural=peak for the most distinct mountains in the district" />
		<tag k="name" v="Elveskardtindan" />
		<tag k="natural" v="hill" />
		<tag k="place" v="locality" />
		<tag k="ssr:date" v="2019-12-27" />
		<tag k="ssr:gruppe" v="høyder" />
		<tag k="ssr:hovedgruppe" v="terreng" />
		<tag k="ssr:stedsnr" v="260823" />
		<tag k="ssr:type" v="fjell" />
	</node>
	<node lat="68.8433361079891" lon="17.499797228631508" id="-40129">
		<tag k="name" v="Klemmingan" />
		<tag k="place" v="isolated_dwelling" />
		<tag k="ssr:date" v="2019-12-27" />
		<tag k="ssr:gruppe" v="bolighus" />
		<tag k="ssr:hovedgruppe" v="bebyggelse" />
		<tag k="ssr:stedsnr" v="260833" />
		<tag k="ssr:type" v="fritidsbolig" />
	</node>
	<node lat="68.85010833723268" lon="17.990136097263278" id="-40130">
		<tag k="name" v="Løskålelva" />
		<tag k="ssr:date" v="2019-12-27" />
		<tag k="ssr:gruppe" v="rennendeVann" />
		<tag k="ssr:hovedgruppe" v="ferskvann" />
		<tag k="ssr:stedsnr" v="260838" />
		<tag k="ssr:type" v="bekk" />
		<tag k="waterway" v="stream" />
	</node>
	<node lat="68.85105833004184" lon="17.830427773698066" id="-40131">
		<tag k="name" v="Sagelva - Cubbojohka" />
		<tag k="name:no" v="Sagelva" />
		<tag k="name:se" v="Cubbojohka" />
		<tag k="ssr:date" v="2021-06-08" />
		<tag k="ssr:gruppe" v="rennendeVann" />
		<tag k="ssr:hovedgruppe" v="ferskvann" />
		<tag k="ssr:stedsnr" v="260839" />
		<tag k="ssr:type" v="elv" />
		<tag k="waterway" v="river" />
	</node>
	<node lat="68.85233333762757" lon="17.876308324263636" id="-40132">
		<tag k="alt_name" v="Trollhollan" />
		<tag k="name" v="Trollholen" />
		<tag k="natural" v="valley" />
		<tag k="place" v="locality" />
		<tag k="ssr:date" v="2019-12-27" />
		<tag k="ssr:gruppe" v="senkninger" />
		<tag k="ssr:hovedgruppe" v="terreng" />
		<tag k="ssr:stedsnr" v="260840" />
		<tag k="ssr:type" v="botn" />
	</node>
	<node lat="68.95207222436672" lon="17.947000003532608" id="-40133">
		<tag k="name" v="Haugliskardet" />
		<tag k="natural" v="valley" />
		<tag k="place" v="locality" />
		<tag k="ssr:date" v="2019-12-27" />
		<tag k="ssr:gruppe" v="senkninger" />
		<tag k="ssr:hovedgruppe" v="terreng" />
		<tag k="ssr:stedsnr" v="260926" />
		<tag k="ssr:type" v="skar" />
	</node>
	<node lat="68.9222583296079" lon="17.93923333799334" id="-40134">
		<tag k="alt_name:no" v="Kirkhaugen" />
		<tag k="loc_name:se" v="Girkodievvá" />
		<tag k="name" v="Kjerkehaugen" />
		<tag k="name:no" v="Kjerkehaugen" />
		<tag k="natural" v="hill" />
		<tag k="place" v="locality" />
		<tag k="ssr:date" v="2021-07-06" />
		<tag k="ssr:gruppe" v="høyder" />
		<tag k="ssr:hovedgruppe" v="terreng" />
		<tag k="ssr:stedsnr" v="260871" />
		<tag k="ssr:type" v="haug" />
	</node>
	<node lat="68.95486666313857" lon="17.901511109438484" id="-40135">
		<tag k="name" v="Reingjerdan" />
		<tag k="natural" v="valley" />
		<tag k="place" v="locality" />
		<tag k="ssr:date" v="2019-12-27" />
		<tag k="ssr:gruppe" v="senkninger" />
		<tag k="ssr:hovedgruppe" v="terreng" />
		<tag k="ssr:stedsnr" v="260927" />
		<tag k="ssr:type" v="botn" />
	</node>
	<node lat="68.98331111198284" lon="17.759599995922947" id="-40136">
		<tag k="fixme" v="consider natural=peak for the most distinct mountains in the district" />
		<tag k="name" v="Varden" />
		<tag k="natural" v="hill" />
		<tag k="place" v="locality" />
		<tag k="ssr:date" v="2019-12-27" />
		<tag k="ssr:gruppe" v="høyder" />
		<tag k="ssr:hovedgruppe" v="terreng" />
		<tag k="ssr:stedsnr" v="260980" />
		<tag k="ssr:type" v="ås" />
	</node>
	<node lat="68.98369999639208" lon="17.66273056334516" id="-40137">
		<tag k="name" v="Okselva" />
		<tag k="ssr:date" v="2019-12-27" />
		<tag k="ssr:gruppe" v="rennendeVann" />
		<tag k="ssr:hovedgruppe" v="ferskvann" />
		<tag k="ssr:stedsnr" v="260983" />
		<tag k="ssr:type" v="bekk" />
		<tag k="waterway" v="stream" />
	</node>
	<node lat="68.84285833516276" lon="18.087375003977115" id="-40138">
		<tag k="name" v="Flodhestmyra" />
		<tag k="natural" v="wetland" />
		<tag k="ssr:date" v="2019-12-27" />
		<tag k="ssr:gruppe" v="våtmark" />
		<tag k="ssr:hovedgruppe" v="markslag" />
		<tag k="ssr:stedsnr" v="173262" />
		<tag k="ssr:type" v="myr" />
	</node>
	<node lat="68.8693499974347" lon="18.0775194445957" id="-40139">
		<tag k="name" v="Moekra" />
		<tag k="place" v="locality" />
		<tag k="ssr:date" v="2019-12-27" />
		<tag k="ssr:gruppe" v="flater" />
		<tag k="ssr:hovedgruppe" v="terreng" />
		<tag k="ssr:stedsnr" v="173167" />
		<tag k="ssr:type" v="mo" />
	</node>
	<node lat="68.96939721768013" lon="17.77400000499762" id="-40140">
		<tag k="name" v="Kvannholla" />
		<tag k="natural" v="valley" />
		<tag k="place" v="locality" />
		<tag k="ssr:date" v="2019-12-27" />
		<tag k="ssr:gruppe" v="senkninger" />
		<tag k="ssr:hovedgruppe" v="terreng" />
		<tag k="ssr:stedsnr" v="176005" />
		<tag k="ssr:type" v="søkk" />
	</node>
	<node lat="68.97713889230853" lon="17.76657498844892" id="-40141">
		<tag k="name" v="Bjørnhåglia" />
		<tag k="natural" v="slope" />
		<tag k="place" v="locality" />
		<tag k="ssr:date" v="2019-12-27" />
		<tag k="ssr:gruppe" v="skråninger" />
		<tag k="ssr:hovedgruppe" v="terreng" />
		<tag k="ssr:stedsnr" v="176007" />
		<tag k="ssr:type" v="li" />
	</node>
	<node lat="68.84278611507006" lon="17.82914721230532" id="-40142">
		<tag k="name" v="Sætersletta" />
		<tag k="place" v="locality" />
		<tag k="ssr:date" v="2019-12-27" />
		<tag k="ssr:gruppe" v="flater" />
		<tag k="ssr:hovedgruppe" v="terreng" />
		<tag k="ssr:stedsnr" v="177716" />
		<tag k="ssr:type" v="slette" />
	</node>
	<node lat="68.96968055435241" lon="17.690169447016537" id="-40143">
		<tag k="name" v="Tverrelva" />
		<tag k="ssr:date" v="2019-12-27" />
		<tag k="ssr:gruppe" v="rennendeVann" />
		<tag k="ssr:hovedgruppe" v="ferskvann" />
		<tag k="ssr:stedsnr" v="178057" />
		<tag k="ssr:type" v="bekk" />
		<tag k="waterway" v="stream" />
	</node>
	<node lat="68.89898055365742" lon="17.80250554394583" id="-40144">
		<tag k="name" v="Svenskåran" />
		<tag k="natural" v="valley" />
		<tag k="place" v="locality" />
		<tag k="ssr:date" v="2019-12-27" />
		<tag k="ssr:gruppe" v="senkninger" />
		<tag k="ssr:hovedgruppe" v="terreng" />
		<tag k="ssr:stedsnr" v="178068" />
		<tag k="ssr:type" v="skar" />
	</node>
	<node lat="68.91141944438048" lon="17.772402767812515" id="-40145">
		<tag k="name" v="Lia" />
		<tag k="natural" v="slope" />
		<tag k="place" v="locality" />
		<tag k="ssr:date" v="2019-12-27" />
		<tag k="ssr:gruppe" v="skråninger" />
		<tag k="ssr:hovedgruppe" v="terreng" />
		<tag k="ssr:stedsnr" v="178074" />
		<tag k="ssr:type" v="li" />
	</node>
	<node lat="68.94309444591097" lon="17.722419434336732" id="-40146">
		<tag k="fixme" v="consider natural=peak for the most distinct mountains in the district" />
		<tag k="name" v="Høgdan" />
		<tag k="natural" v="hill" />
		<tag k="place" v="locality" />
		<tag k="ssr:date" v="2019-12-27" />
		<tag k="ssr:gruppe" v="høyder" />
		<tag k="ssr:hovedgruppe" v="terreng" />
		<tag k="ssr:stedsnr" v="178105" />
		<tag k="ssr:type" v="ås" />
	</node>
	<node lat="68.93816388625572" lon="17.72824998747267" id="-40147">
		<tag k="name" v="Stordalen" />
		<tag k="natural" v="valley" />
		<tag k="place" v="locality" />
		<tag k="ssr:date" v="2019-12-27" />
		<tag k="ssr:gruppe" v="senkninger" />
		<tag k="ssr:hovedgruppe" v="terreng" />
		<tag k="ssr:stedsnr" v="178106" />
		<tag k="ssr:type" v="dal" />
	</node>
	<node lat="68.96126944090976" lon="17.77867222868316" id="-40148">
		<tag k="name" v="Tverrelva" />
		<tag k="ssr:date" v="2019-12-27" />
		<tag k="ssr:gruppe" v="rennendeVann" />
		<tag k="ssr:hovedgruppe" v="ferskvann" />
		<tag k="ssr:stedsnr" v="178117" />
		<tag k="ssr:type" v="bekk" />
		<tag k="waterway" v="stream" />
	</node>
	<node lat="68.84727221840797" lon="17.880572212061654" id="-40149">
		<tag k="fixme" v="consider natural=peak for the most distinct mountains in the district" />
		<tag k="name" v="Storhøgden" />
		<tag k="natural" v="hill" />
		<tag k="place" v="locality" />
		<tag k="ssr:date" v="2019-12-27" />
		<tag k="ssr:gruppe" v="høyder" />
		<tag k="ssr:hovedgruppe" v="terreng" />
		<tag k="ssr:stedsnr" v="178158" />
		<tag k="ssr:type" v="ås" />
	</node>
	<node lat="68.84493332926102" lon="17.88406943675587" id="-40150">
		<tag k="name" v="Torvmyra" />
		<tag k="natural" v="wetland" />
		<tag k="ssr:date" v="2019-12-27" />
		<tag k="ssr:gruppe" v="våtmark" />
		<tag k="ssr:hovedgruppe" v="markslag" />
		<tag k="ssr:stedsnr" v="178159" />
		<tag k="ssr:type" v="myr" />
	</node>
	<node lat="68.84161389043462" lon="17.844080544810154" id="-40151">
		<tag k="name" v="Gryta" />
		<tag k="natural" v="valley" />
		<tag k="place" v="locality" />
		<tag k="ssr:date" v="2019-12-27" />
		<tag k="ssr:gruppe" v="senkninger" />
		<tag k="ssr:hovedgruppe" v="terreng" />
		<tag k="ssr:stedsnr" v="178174" />
		<tag k="ssr:type" v="søkk" />
	</node>
	<node lat="68.89700277489499" lon="18.04969998627204" id="-40152">
		<tag k="name" v="Nerstehågen" />
		<tag k="natural" v="hill" />
		<tag k="place" v="locality" />
		<tag k="ssr:date" v="2019-12-27" />
		<tag k="ssr:gruppe" v="høyder" />
		<tag k="ssr:hovedgruppe" v="terreng" />
		<tag k="ssr:stedsnr" v="178412" />
		<tag k="ssr:type" v="haug" />
	</node>
	<node lat="68.92594722019183" lon="17.715291658235635" id="-40153">
		<tag k="fixme" v="consider seamark:type=rock or natural=shoal" />
		<tag k="name" v="Storskjæret" />
		<tag k="place" v="islet" />
		<tag k="ssr:date" v="2019-12-27" />
		<tag k="ssr:gruppe" v="grunnerISjø" />
		<tag k="ssr:hovedgruppe" v="sjø" />
		<tag k="ssr:stedsnr" v="178415" />
		<tag k="ssr:type" v="skjærISjø" />
	</node>
	<node lat="68.90413055923857" lon="18.00487777889374" id="-40154">
		<tag k="name" v="Storneset" />
		<tag k="natural" v="cape" />
		<tag k="ssr:date" v="2019-12-27" />
		<tag k="ssr:gruppe" v="ferskvannskontur" />
		<tag k="ssr:hovedgruppe" v="ferskvann" />
		<tag k="ssr:stedsnr" v="178433" />
		<tag k="ssr:type" v="nes" />
	</node>
	<node lat="68.90888611233208" lon="17.791825006224347" id="-40155">
		<tag k="name" v="Amundliskaret" />
		<tag k="natural" v="valley" />
		<tag k="place" v="locality" />
		<tag k="ssr:date" v="2019-12-27" />
		<tag k="ssr:gruppe" v="senkninger" />
		<tag k="ssr:hovedgruppe" v="terreng" />
		<tag k="ssr:stedsnr" v="178444" />
		<tag k="ssr:type" v="skar" />
	</node>
	<node lat="68.91468055725555" lon="17.80514722224318" id="-40156">
		<tag k="name" v="Svartvasstolan" />
		<tag k="natural" v="hill" />
		<tag k="place" v="locality" />
		<tag k="ssr:date" v="2019-12-27" />
		<tag k="ssr:gruppe" v="høyder" />
		<tag k="ssr:hovedgruppe" v="terreng" />
		<tag k="ssr:stedsnr" v="178456" />
		<tag k="ssr:type" v="haug" />
	</node>
	<node lat="68.90618332935404" lon="17.832127779743296" id="-40157">
		<tag k="name" v="Hesjehågenden" />
		<tag k="natural" v="hill" />
		<tag k="place" v="locality" />
		<tag k="ssr:date" v="2019-12-27" />
		<tag k="ssr:gruppe" v="høyder" />
		<tag k="ssr:hovedgruppe" v="terreng" />
		<tag k="ssr:stedsnr" v="178462" />
		<tag k="ssr:type" v="haug" />
	</node>
	<node lat="68.90491110796543" lon="17.814669443810164" id="-40158">
		<tag k="name" v="Reinskinnholla" />
		<tag k="natural" v="valley" />
		<tag k="place" v="locality" />
		<tag k="ssr:date" v="2019-12-27" />
		<tag k="ssr:gruppe" v="senkninger" />
		<tag k="ssr:hovedgruppe" v="terreng" />
		<tag k="ssr:stedsnr" v="178465" />
		<tag k="ssr:type" v="søkk" />
	</node>
	<node lat="68.90065833517171" lon="17.8226499936586" id="-40159">
		<tag k="name" v="Grøthågen" />
		<tag k="natural" v="hill" />
		<tag k="place" v="locality" />
		<tag k="ssr:date" v="2019-12-27" />
		<tag k="ssr:gruppe" v="høyder" />
		<tag k="ssr:hovedgruppe" v="terreng" />
		<tag k="ssr:stedsnr" v="178472" />
		<tag k="ssr:type" v="haug" />
	</node>
	<node lat="68.83660833549494" lon="17.486074996384076" id="-40160">
		<tag k="name" v="Skavsteinen" />
		<tag k="natural" v="stone" />
		<tag k="ssr:date" v="2019-12-27" />
		<tag k="ssr:gruppe" v="løsmasseavsetninger" />
		<tag k="ssr:hovedgruppe" v="markslag" />
		<tag k="ssr:stedsnr" v="178525" />
		<tag k="ssr:type" v="stein" />
	</node>
	<node lat="68.88368333209651" lon="18.06795555344982" id="-40161">
		<tag k="name" v="Skavlia" />
		<tag k="natural" v="slope" />
		<tag k="place" v="locality" />
		<tag k="ssr:date" v="2019-12-27" />
		<tag k="ssr:gruppe" v="skråninger" />
		<tag k="ssr:hovedgruppe" v="terreng" />
		<tag k="ssr:stedsnr" v="178615" />
		<tag k="ssr:type" v="li" />
	</node>
	<node lat="68.89831110882179" lon="17.861111097557995" id="-40162">
		<tag k="name" v="Veilidalen" />
		<tag k="natural" v="valley" />
		<tag k="place" v="locality" />
		<tag k="ssr:date" v="2019-12-27" />
		<tag k="ssr:gruppe" v="senkninger" />
		<tag k="ssr:hovedgruppe" v="terreng" />
		<tag k="ssr:stedsnr" v="178808" />
		<tag k="ssr:type" v="dal" />
	</node>
	<node lat="68.9066805558088" lon="17.870966670824878" id="-40163">
		<tag k="name" v="Nemskadalen" />
		<tag k="natural" v="valley" />
		<tag k="place" v="locality" />
		<tag k="ssr:date" v="2019-12-27" />
		<tag k="ssr:gruppe" v="senkninger" />
		<tag k="ssr:hovedgruppe" v="terreng" />
		<tag k="ssr:stedsnr" v="178815" />
		<tag k="ssr:type" v="dal" />
	</node>
	<node lat="68.87652222575572" lon="17.6810110983746" id="-40164">
		<tag k="name" v="Bergenabben" />
		<tag k="natural" v="hill" />
		<tag k="place" v="locality" />
		<tag k="ssr:date" v="2019-12-27" />
		<tag k="ssr:gruppe" v="høyder" />
		<tag k="ssr:hovedgruppe" v="terreng" />
		<tag k="ssr:stedsnr" v="178702" />
		<tag k="ssr:type" v="haug" />
	</node>
	<node lat="68.84834166529525" lon="18.035744452811628" id="-40165">
		<tag k="name" v="Tømmerhaugen" />
		<tag k="natural" v="hill" />
		<tag k="place" v="locality" />
		<tag k="ssr:date" v="2019-12-27" />
		<tag k="ssr:gruppe" v="høyder" />
		<tag k="ssr:hovedgruppe" v="terreng" />
		<tag k="ssr:stedsnr" v="178711" />
		<tag k="ssr:type" v="haug" />
	</node>
	<node lat="68.92292500251263" lon="17.92971943126933" id="-40166">
		<tag k="name" v="Mangevatnet" />
		<tag k="natural" v="water" />
		<tag k="ssr:date" v="2019-12-27" />
		<tag k="ssr:gruppe" v="stilleståendeVann" />
		<tag k="ssr:hovedgruppe" v="ferskvann" />
		<tag k="ssr:stedsnr" v="178764" />
		<tag k="ssr:type" v="tjern" />
	</node>
	<node lat="68.89271944553911" lon="17.70451389340871" id="-40167">
		<tag k="name" v="Dalenakken" />
		<tag k="natural" v="hill" />
		<tag k="place" v="locality" />
		<tag k="ssr:date" v="2019-12-27" />
		<tag k="ssr:gruppe" v="høyder" />
		<tag k="ssr:hovedgruppe" v="terreng" />
		<tag k="ssr:stedsnr" v="261827" />
		<tag k="ssr:type" v="haug" />
	</node>
	<node lat="68.86454722427312" lon="18.05209999962104" id="-40168">
		<tag k="name" v="Prestbakkmoen" />
		<tag k="place" v="locality" />
		<tag k="ssr:date" v="2019-12-27" />
		<tag k="ssr:gruppe" v="flater" />
		<tag k="ssr:hovedgruppe" v="terreng" />
		<tag k="ssr:stedsnr" v="199507" />
		<tag k="ssr:type" v="mo" />
	</node>
	<node lat="68.83333055344677" lon="17.558397209483832" id="-40169">
		<tag k="fixme" v="consider natural=peak for the most distinct mountains in the district" />
		<tag k="name" v="Reitetindan" />
		<tag k="natural" v="hill" />
		<tag k="place" v="locality" />
		<tag k="ssr:date" v="2019-12-27" />
		<tag k="ssr:gruppe" v="høyder" />
		<tag k="ssr:hovedgruppe" v="terreng" />
		<tag k="ssr:stedsnr" v="199803" />
		<tag k="ssr:type" v="fjell" />
	</node>
	<node lat="68.83667222646906" lon="17.581233320189764" id="-40170">
		<tag k="name" v="Isvatnan" />
		<tag k="natural" v="water" />
		<tag k="ssr:date" v="2019-12-27" />
		<tag k="ssr:gruppe" v="stilleståendeVann" />
		<tag k="ssr:hovedgruppe" v="ferskvann" />
		<tag k="ssr:stedsnr" v="199810" />
		<tag k="ssr:type" v="gruppeAvVann" />
		<tag k="water" v="lake" />
	</node>
	<node lat="68.79793610841429" lon="17.590547220981033" id="-40171">
		<tag k="bay" v="fjord" />
		<tag k="name" v="Loabákvuotna - Lavangen" />
		<tag k="name:no" v="Lavangen" />
		<tag k="name:se" v="Loabákvuotna" />
		<tag k="natural" v="bay" />
		<tag k="ssr:date" v="2021-06-08" />
		<tag k="ssr:gruppe" v="farvann" />
		<tag k="ssr:hovedgruppe" v="sjø" />
		<tag k="ssr:stedsnr" v="200691" />
		<tag k="ssr:type" v="fjord" />
	</node>
	<node lat="68.90353611398102" lon="17.458597208930257" id="-40172">
		<tag k="fixme" v="consider natural=peak for the most distinct mountains in the district" />
		<tag k="name" v="Vindhammaren" />
		<tag k="natural" v="hill" />
		<tag k="place" v="locality" />
		<tag k="ssr:date" v="2019-12-27" />
		<tag k="ssr:gruppe" v="høyder" />
		<tag k="ssr:hovedgruppe" v="terreng" />
		<tag k="ssr:stedsnr" v="200808" />
		<tag k="ssr:type" v="fjell" />
	</node>
	<node lat="68.90284444561891" lon="17.779391669048" id="-40173">
		<tag k="name" v="Demma" />
		<tag k="natural" v="cape" />
		<tag k="ssr:date" v="2019-12-27" />
		<tag k="ssr:gruppe" v="kystkontur" />
		<tag k="ssr:hovedgruppe" v="sjø" />
		<tag k="ssr:stedsnr" v="200798" />
		<tag k="ssr:type" v="nesISjø" />
	</node>
	<node lat="68.92719166321334" lon="17.716044445845124" id="-40174">
		<tag k="name" v="Haugneset" />
		<tag k="natural" v="cape" />
		<tag k="ssr:date" v="2019-12-27" />
		<tag k="ssr:gruppe" v="kystkontur" />
		<tag k="ssr:hovedgruppe" v="sjø" />
		<tag k="ssr:stedsnr" v="200908" />
		<tag k="ssr:type" v="nesISjø" />
	</node>
	<node lat="68.83453333538034" lon="17.47461667122377" id="-40175">
		<tag k="name" v="Ørvika" />
		<tag k="natural" v="bay" />
		<tag k="ssr:date" v="2019-12-27" />
		<tag k="ssr:gruppe" v="kystkontur" />
		<tag k="ssr:hovedgruppe" v="sjø" />
		<tag k="ssr:stedsnr" v="212682" />
		<tag k="ssr:type" v="vikISjø" />
	</node>
	<node lat="68.84703055721815" lon="18.104150004827645" id="-40176">
		<tag k="name" v="Ventarberget" />
		<tag k="natural" v="hill" />
		<tag k="place" v="locality" />
		<tag k="ssr:date" v="2019-12-27" />
		<tag k="ssr:gruppe" v="høyder" />
		<tag k="ssr:hovedgruppe" v="terreng" />
		<tag k="ssr:stedsnr" v="234282" />
		<tag k="ssr:type" v="berg" />
	</node>
	<node lat="68.84340833718407" lon="18.1023611145051" id="-40177">
		<tag k="name" v="Vinterholtet" />
		<tag k="natural" v="hill" />
		<tag k="place" v="locality" />
		<tag k="ssr:date" v="2019-12-27" />
		<tag k="ssr:gruppe" v="høyder" />
		<tag k="ssr:hovedgruppe" v="terreng" />
		<tag k="ssr:stedsnr" v="234285" />
		<tag k="ssr:type" v="haug" />
	</node>
	<node lat="68.87495732407906" lon="17.59090265944008" id="-40178">
		<tag k="alt_name" v="Håkavik" />
		<tag k="fixme" v="consider place=hamlet" />
		<tag k="name" v="Håkavika" />
		<tag k="place" v="farm" />
		<tag k="ssr:date" v="2020-06-21" />
		<tag k="ssr:gruppe" v="gardsbebyggelse" />
		<tag k="ssr:hovedgruppe" v="bebyggelse" />
		<tag k="ssr:stedsnr" v="450142" />
		<tag k="ssr:type" v="gard" />
	</node>
	<node lat="68.97509444818704" lon="17.732325005117602" id="-40179">
		<tag k="name" v="Ryet" />
		<tag k="natural" v="hill" />
		<tag k="place" v="locality" />
		<tag k="ssr:date" v="2019-12-27" />
		<tag k="ssr:gruppe" v="høyder" />
		<tag k="ssr:hovedgruppe" v="terreng" />
		<tag k="ssr:stedsnr" v="237012" />
		<tag k="ssr:type" v="haug" />
	</node>
	<node lat="68.90039444459363" lon="17.740902772760602" id="-40180">
		<tag k="name" v="Øysundet" />
		<tag k="natural" v="strait" />
		<tag k="ssr:date" v="2019-12-27" />
		<tag k="ssr:gruppe" v="kystkontur" />
		<tag k="ssr:hovedgruppe" v="sjø" />
		<tag k="ssr:stedsnr" v="237504" />
		<tag k="ssr:type" v="sundISjø" />
	</node>
	<node lat="68.9076444461008" lon="17.757277779133137" id="-40181">
		<tag k="name" v="Skorvhågen" />
		<tag k="natural" v="hill" />
		<tag k="place" v="locality" />
		<tag k="ssr:date" v="2019-12-27" />
		<tag k="ssr:gruppe" v="høyder" />
		<tag k="ssr:hovedgruppe" v="terreng" />
		<tag k="ssr:stedsnr" v="237506" />
		<tag k="ssr:type" v="haug" />
	</node>
	<node lat="68.96870000208422" lon="17.763916664788137" id="-40182">
		<tag k="name" v="Hollestrupen" />
		<tag k="natural" v="valley" />
		<tag k="place" v="locality" />
		<tag k="ssr:date" v="2019-12-27" />
		<tag k="ssr:gruppe" v="senkninger" />
		<tag k="ssr:hovedgruppe" v="terreng" />
		<tag k="ssr:stedsnr" v="238103" />
		<tag k="ssr:type" v="skar" />
	</node>
	<node lat="68.98431666481385" lon="17.69485832660381" id="-40183">
		<tag k="name" v="Solli" />
		<tag k="place" v="farm" />
		<tag k="ssr:date" v="2019-12-27" />
		<tag k="ssr:gruppe" v="gardsbebyggelse" />
		<tag k="ssr:hovedgruppe" v="bebyggelse" />
		<tag k="ssr:stedsnr" v="238082" />
		<tag k="ssr:type" v="bruk" />
	</node>
	<node lat="68.9379166657711" lon="17.739074998043172" id="-40184">
		<tag k="name" v="Rapet" />
		<tag k="natural" v="valley" />
		<tag k="place" v="locality" />
		<tag k="ssr:date" v="2019-12-27" />
		<tag k="ssr:gruppe" v="senkninger" />
		<tag k="ssr:hovedgruppe" v="terreng" />
		<tag k="ssr:stedsnr" v="238090" />
		<tag k="ssr:type" v="skar" />
	</node>
	<node lat="68.8516111112426" lon="18.068663881881477" id="-40185">
		<tag k="name" v="Kalvemyra" />
		<tag k="natural" v="wetland" />
		<tag k="ssr:date" v="2019-12-27" />
		<tag k="ssr:gruppe" v="våtmark" />
		<tag k="ssr:hovedgruppe" v="markslag" />
		<tag k="ssr:stedsnr" v="238519" />
		<tag k="ssr:type" v="myr" />
	</node>
	<node lat="68.86884166808996" lon="17.606872224701515" id="-40186">
		<tag k="fixme" v="consider natural=peak for the most distinct mountains in the district" />
		<tag k="name" v="Høgfjellskolten" />
		<tag k="natural" v="hill" />
		<tag k="place" v="locality" />
		<tag k="ssr:date" v="2019-12-27" />
		<tag k="ssr:gruppe" v="høyder" />
		<tag k="ssr:hovedgruppe" v="terreng" />
		<tag k="ssr:stedsnr" v="238639" />
		<tag k="ssr:type" v="fjell" />
	</node>
	<node lat="68.87696666897318" lon="18.092413883042532" id="-40187">
		<tag k="highway" v="path" />
		<tag k="name" v="Veiskjellet" />
		<tag k="ssr:date" v="2019-12-27" />
		<tag k="ssr:gruppe" v="veg" />
		<tag k="ssr:hovedgruppe" v="infrastruktur" />
		<tag k="ssr:stedsnr" v="238689" />
		<tag k="ssr:type" v="sti" />
	</node>
	<node lat="68.88483055389705" lon="17.68796665726468" id="-40188">
		<tag k="name" v="Rundhågen" />
		<tag k="natural" v="hill" />
		<tag k="place" v="locality" />
		<tag k="ssr:date" v="2019-12-27" />
		<tag k="ssr:gruppe" v="høyder" />
		<tag k="ssr:hovedgruppe" v="terreng" />
		<tag k="ssr:stedsnr" v="238703" />
		<tag k="ssr:type" v="haug" />
	</node>
	<node lat="68.88608333587474" lon="17.688291670882347" id="-40189">
		<tag k="name" v="Dalan" />
		<tag k="natural" v="valley" />
		<tag k="place" v="locality" />
		<tag k="ssr:date" v="2019-12-27" />
		<tag k="ssr:gruppe" v="senkninger" />
		<tag k="ssr:hovedgruppe" v="terreng" />
		<tag k="ssr:stedsnr" v="238708" />
		<tag k="ssr:type" v="dal" />
	</node>
	<node lat="68.84711111407697" lon="17.997347232543174" id="-40190">
		<tag k="highway" v="path" />
		<tag k="name" v="Russeveien" />
		<tag k="ssr:date" v="2019-12-27" />
		<tag k="ssr:gruppe" v="veg" />
		<tag k="ssr:hovedgruppe" v="infrastruktur" />
		<tag k="ssr:stedsnr" v="238733" />
		<tag k="ssr:type" v="sti" />
	</node>
	<node lat="68.91546944915656" lon="17.93364166178228" id="-40191">
		<tag k="name" v="Revberget" />
		<tag k="natural" v="hill" />
		<tag k="place" v="locality" />
		<tag k="ssr:date" v="2019-12-27" />
		<tag k="ssr:gruppe" v="høyder" />
		<tag k="ssr:hovedgruppe" v="terreng" />
		<tag k="ssr:stedsnr" v="239802" />
		<tag k="ssr:type" v="berg" />
	</node>
	<node lat="68.92278889037611" lon="17.98886109864685" id="-40192">
		<tag k="name" v="Garguheimhaugen" />
		<tag k="natural" v="hill" />
		<tag k="place" v="locality" />
		<tag k="ssr:date" v="2019-12-27" />
		<tag k="ssr:gruppe" v="høyder" />
		<tag k="ssr:hovedgruppe" v="terreng" />
		<tag k="ssr:stedsnr" v="239796" />
		<tag k="ssr:type" v="haug" />
	</node>
	<node lat="68.9126583303377" lon="17.708750001436858" id="-40193">
		<tag k="name" v="Teisteberget" />
		<tag k="natural" v="hill" />
		<tag k="place" v="locality" />
		<tag k="ssr:date" v="2019-12-27" />
		<tag k="ssr:gruppe" v="høyder" />
		<tag k="ssr:hovedgruppe" v="terreng" />
		<tag k="ssr:stedsnr" v="454546" />
		<tag k="ssr:type" v="berg" />
	</node>
	<node lat="68.89981546309274" lon="18.03699895550859" id="-40194">
		<tag k="name" v="Myrlund" />
		<tag k="place" v="farm" />
		<tag k="ssr:date" v="2021-10-06" />
		<tag k="ssr:gruppe" v="gardsbebyggelse" />
		<tag k="ssr:hovedgruppe" v="bebyggelse" />
		<tag k="ssr:stedsnr" v="260602" />
		<tag k="ssr:type" v="bruk" />
	</node>
	<node lat="68.9331645916252" lon="18.053840939984315" id="-40195">
		<tag k="name" v="Steinelvlund" />
		<tag k="place" v="farm" />
		<tag k="ssr:date" v="2021-10-06" />
		<tag k="ssr:gruppe" v="gardsbebyggelse" />
		<tag k="ssr:hovedgruppe" v="bebyggelse" />
		<tag k="ssr:stedsnr" v="260708" />
		<tag k="ssr:type" v="bruk" />
	</node>
	<node lat="68.92308611247515" lon="18.030797215111022" id="-40196">
		<tag k="name" v="Fjellsæter" />
		<tag k="place" v="farm" />
		<tag k="ssr:date" v="2019-12-27" />
		<tag k="ssr:gruppe" v="gardsbebyggelse" />
		<tag k="ssr:hovedgruppe" v="bebyggelse" />
		<tag k="ssr:stedsnr" v="260711" />
		<tag k="ssr:type" v="bruk" />
	</node>
	<node lat="68.86631388668913" lon="17.72264167091914" id="-40197">
		<tag k="name" v="Sommarsetforsen" />
		<tag k="natural" v="waterfall" />
		<tag k="ssr:date" v="2019-12-27" />
		<tag k="ssr:gruppe" v="rennendeVann" />
		<tag k="ssr:hovedgruppe" v="ferskvann" />
		<tag k="ssr:stedsnr" v="260802" />
		<tag k="ssr:type" v="foss" />
	</node>
	<node lat="68.87940265561178" lon="17.905319008646423" id="-40198">
		<tag k="name" v="Nervatnet" />
		<tag k="place" v="farm" />
		<tag k="ssr:date" v="2021-10-06" />
		<tag k="ssr:gruppe" v="gardsbebyggelse" />
		<tag k="ssr:hovedgruppe" v="bebyggelse" />
		<tag k="ssr:stedsnr" v="260812" />
		<tag k="ssr:type" v="bruk" />
	</node>
	<node lat="68.9049249982752" lon="17.808891664521447" id="-40199">
		<tag k="name" v="Hesjemoen" />
		<tag k="place" v="locality" />
		<tag k="ssr:date" v="2019-12-27" />
		<tag k="ssr:gruppe" v="flater" />
		<tag k="ssr:hovedgruppe" v="terreng" />
		<tag k="ssr:stedsnr" v="260854" />
		<tag k="ssr:type" v="mo" />
	</node>
	<node lat="68.89702777911363" lon="17.57659721844176" id="-40200">
		<tag k="bay" v="fjord" />
		<tag k="name" v="Salangen - Siellakvuotna" />
		<tag k="name:no" v="Salangen" />
		<tag k="name:se" v="Siellakvuotna" />
		<tag k="natural" v="bay" />
		<tag k="ssr:date" v="2021-06-08" />
		<tag k="ssr:gruppe" v="farvann" />
		<tag k="ssr:hovedgruppe" v="sjø" />
		<tag k="ssr:stedsnr" v="260857" />
		<tag k="ssr:type" v="fjord" />
	</node>
	<node lat="68.89737777716708" lon="17.800086105153227" id="-40201">
		<tag k="name" v="Storvollen" />
		<tag k="place" v="farm" />
		<tag k="ssr:date" v="2019-12-27" />
		<tag k="ssr:gruppe" v="gardsbebyggelse" />
		<tag k="ssr:hovedgruppe" v="bebyggelse" />
		<tag k="ssr:stedsnr" v="260896" />
		<tag k="ssr:type" v="bruk" />
	</node>
	<node lat="68.89622222627577" lon="17.8252222203415" id="-40202">
		<tag k="name" v="Skårvikdalen" />
		<tag k="natural" v="valley" />
		<tag k="place" v="locality" />
		<tag k="ssr:date" v="2019-12-27" />
		<tag k="ssr:gruppe" v="senkninger" />
		<tag k="ssr:hovedgruppe" v="terreng" />
		<tag k="ssr:stedsnr" v="260899" />
		<tag k="ssr:type" v="dal" />
	</node>
	<node lat="68.86411110780419" lon="17.862016674113615" id="-40203">
		<tag k="name" v="Elvelund" />
		<tag k="old_name" v="Elveland" />
		<tag k="place" v="farm" />
		<tag k="ssr:date" v="2019-12-27" />
		<tag k="ssr:gruppe" v="gardsbebyggelse" />
		<tag k="ssr:hovedgruppe" v="bebyggelse" />
		<tag k="ssr:stedsnr" v="260800" />
		<tag k="ssr:type" v="bruk" />
	</node>
	<node lat="68.89573055787352" lon="17.671905552147493" id="-40204">
		<tag k="alt_name" v="Kvitevaren" />
		<tag k="name" v="Kvitevarden" />
		<tag k="natural" v="hill" />
		<tag k="place" v="locality" />
		<tag k="ssr:date" v="2019-12-27" />
		<tag k="ssr:gruppe" v="høyder" />
		<tag k="ssr:hovedgruppe" v="terreng" />
		<tag k="ssr:stedsnr" v="260918" />
		<tag k="ssr:type" v="haug" />
	</node>
	<node lat="68.9506111148731" lon="17.69835276932066" id="-40205">
		<tag k="fixme" v="consider natural=peak for the most distinct mountains in the district" />
		<tag k="name" v="Høgkollen - Rotnovárri" />
		<tag k="name:no" v="Høgkollen" />
		<tag k="name:se" v="Rotnovárri" />
		<tag k="natural" v="hill" />
		<tag k="place" v="locality" />
		<tag k="ssr:date" v="2021-06-08" />
		<tag k="ssr:gruppe" v="høyder" />
		<tag k="ssr:hovedgruppe" v="terreng" />
		<tag k="ssr:stedsnr" v="260955" />
		<tag k="ssr:type" v="ås" />
	</node>
	<node lat="68.84273611066425" lon="18.10970554060102" id="-40206">
		<tag k="name" v="Rødberget" />
		<tag k="natural" v="hill" />
		<tag k="place" v="locality" />
		<tag k="ssr:date" v="2019-12-27" />
		<tag k="ssr:gruppe" v="høyder" />
		<tag k="ssr:hovedgruppe" v="terreng" />
		<tag k="ssr:stedsnr" v="294273" />
		<tag k="ssr:type" v="berg" />
	</node>
	<node lat="68.9705166703241" lon="17.758172219447548" id="-40207">
		<tag k="name" v="Svartdalen" />
		<tag k="natural" v="valley" />
		<tag k="place" v="locality" />
		<tag k="ssr:date" v="2019-12-27" />
		<tag k="ssr:gruppe" v="senkninger" />
		<tag k="ssr:hovedgruppe" v="terreng" />
		<tag k="ssr:stedsnr" v="297026" />
		<tag k="ssr:type" v="dal" />
	</node>
	<node lat="68.97322500458753" lon="17.81277499114085" id="-40208">
		<tag k="name" v="Løbakken" />
		<tag k="natural" v="slope" />
		<tag k="place" v="locality" />
		<tag k="ssr:date" v="2019-12-27" />
		<tag k="ssr:gruppe" v="skråninger" />
		<tag k="ssr:hovedgruppe" v="terreng" />
		<tag k="ssr:stedsnr" v="299102" />
		<tag k="ssr:type" v="bakke" />
	</node>
	<node lat="68.84698055285364" lon="17.880261116747725" id="-40209">
		<tag k="name" v="Karimyra" />
		<tag k="natural" v="wetland" />
		<tag k="ssr:date" v="2019-12-27" />
		<tag k="ssr:gruppe" v="våtmark" />
		<tag k="ssr:hovedgruppe" v="markslag" />
		<tag k="ssr:stedsnr" v="299147" />
		<tag k="ssr:type" v="myr" />
	</node>
	<node lat="68.84166667047181" lon="17.88555832400597" id="-40210">
		<tag k="name" v="Čogugoađit" />
		<tag k="name:se" v="Čogugoađit" />
		<tag k="natural" v="valley" />
		<tag k="place" v="locality" />
		<tag k="ssr:date" v="2019-12-27" />
		<tag k="ssr:gruppe" v="senkninger" />
		<tag k="ssr:hovedgruppe" v="terreng" />
		<tag k="ssr:stedsnr" v="299151" />
		<tag k="ssr:type" v="dal" />
	</node>
	<node lat="68.87779444528424" lon="17.835138887999854" id="-40211">
		<tag k="name" v="Rødberget" />
		<tag k="natural" v="hill" />
		<tag k="place" v="locality" />
		<tag k="ssr:date" v="2019-12-27" />
		<tag k="ssr:gruppe" v="høyder" />
		<tag k="ssr:hovedgruppe" v="terreng" />
		<tag k="ssr:stedsnr" v="299332" />
		<tag k="ssr:type" v="berg" />
	</node>
	<node lat="68.8830972255101" lon="17.833155548213686" id="-40212">
		<tag k="name" v="Karavikelva" />
		<tag k="ssr:date" v="2019-12-27" />
		<tag k="ssr:gruppe" v="rennendeVann" />
		<tag k="ssr:hovedgruppe" v="ferskvann" />
		<tag k="ssr:stedsnr" v="299333" />
		<tag k="ssr:type" v="bekk" />
		<tag k="waterway" v="stream" />
	</node>
	<node lat="68.87880832952831" lon="17.884849993063913" id="-40213">
		<tag k="fixme" v="consider natural=peak for the most distinct mountains in the district" />
		<tag k="name" v="Høgstelikollen" />
		<tag k="natural" v="hill" />
		<tag k="place" v="locality" />
		<tag k="ssr:date" v="2019-12-27" />
		<tag k="ssr:gruppe" v="høyder" />
		<tag k="ssr:hovedgruppe" v="terreng" />
		<tag k="ssr:stedsnr" v="299206" />
		<tag k="ssr:type" v="ås" />
	</node>
	<node lat="68.86316388535136" lon="17.829586102936318" id="-40214">
		<tag k="name" v="Lamoen" />
		<tag k="place" v="farm" />
		<tag k="ssr:date" v="2019-12-27" />
		<tag k="ssr:gruppe" v="gardsbebyggelse" />
		<tag k="ssr:hovedgruppe" v="bebyggelse" />
		<tag k="ssr:stedsnr" v="299275" />
		<tag k="ssr:type" v="bruk" />
	</node>
	<node lat="68.86145555990306" lon="17.790124995240337" id="-40215">
		<tag k="name" v="Suhpevađđa" />
		<tag k="name:se" v="Suhpevađđa" />
		<tag k="place" v="locality" />
		<tag k="ssr:date" v="2019-12-27" />
		<tag k="ssr:gruppe" v="flater" />
		<tag k="ssr:hovedgruppe" v="terreng" />
		<tag k="ssr:stedsnr" v="299292" />
		<tag k="ssr:type" v="slette" />
	</node>
	<node lat="68.8570694461179" lon="18.067155556079083" id="-40216">
		<tag k="name" v="Nerkåsa" />
		<tag k="natural" v="wetland" />
		<tag k="ssr:date" v="2019-12-27" />
		<tag k="ssr:gruppe" v="våtmark" />
		<tag k="ssr:hovedgruppe" v="markslag" />
		<tag k="ssr:stedsnr" v="299507" />
		<tag k="ssr:type" v="myr" />
	</node>
	<node lat="68.84981666571707" lon="18.057227779197934" id="-40217">
		<tag k="name" v="Litjeelva" />
		<tag k="ssr:date" v="2019-12-27" />
		<tag k="ssr:gruppe" v="rennendeVann" />
		<tag k="ssr:hovedgruppe" v="ferskvann" />
		<tag k="ssr:stedsnr" v="299508" />
		<tag k="ssr:type" v="bekk" />
		<tag k="waterway" v="stream" />
	</node>
	<node lat="68.90682222060117" lon="17.49566387766469" id="-40218">
		<tag k="name" v="Brudalen" />
		<tag k="natural" v="valley" />
		<tag k="place" v="locality" />
		<tag k="ssr:date" v="2019-12-27" />
		<tag k="ssr:gruppe" v="senkninger" />
		<tag k="ssr:hovedgruppe" v="terreng" />
		<tag k="ssr:stedsnr" v="299573" />
		<tag k="ssr:type" v="dal" />
	</node>
	<node lat="68.87624999961237" lon="18.110533322704736" id="-40219">
		<tag k="name" v="Skaret" />
		<tag k="natural" v="valley" />
		<tag k="place" v="locality" />
		<tag k="ssr:date" v="2019-12-27" />
		<tag k="ssr:gruppe" v="senkninger" />
		<tag k="ssr:hovedgruppe" v="terreng" />
		<tag k="ssr:stedsnr" v="299709" />
		<tag k="ssr:type" v="skar" />
	</node>
	<node lat="68.88323055399277" lon="17.696086098597185" id="-40220">
		<tag k="name" v="Moen" />
		<tag k="place" v="locality" />
		<tag k="ssr:date" v="2019-12-27" />
		<tag k="ssr:gruppe" v="flater" />
		<tag k="ssr:hovedgruppe" v="terreng" />
		<tag k="ssr:stedsnr" v="299724" />
		<tag k="ssr:type" v="mo" />
	</node>
	<node lat="68.90547499916224" lon="17.794583323020976" id="-40221">
		<tag k="name" v="Kattelibakken" />
		<tag k="natural" v="slope" />
		<tag k="place" v="locality" />
		<tag k="ssr:date" v="2019-12-27" />
		<tag k="ssr:gruppe" v="skråninger" />
		<tag k="ssr:hovedgruppe" v="terreng" />
		<tag k="ssr:stedsnr" v="299474" />
		<tag k="ssr:type" v="bakke" />
	</node>
	<node lat="68.90988055714705" lon="17.528577770777606" id="-40222">
		<tag k="highway" v="path" />
		<tag k="name" v="Orveien" />
		<tag k="ssr:date" v="2019-12-27" />
		<tag k="ssr:gruppe" v="veg" />
		<tag k="ssr:hovedgruppe" v="infrastruktur" />
		<tag k="ssr:stedsnr" v="299676" />
		<tag k="ssr:type" v="sti" />
	</node>
	<node lat="68.88060277420857" lon="18.068575000898782" id="-40223">
		<tag k="name" v="Brynberget" />
		<tag k="natural" v="hill" />
		<tag k="place" v="locality" />
		<tag k="ssr:date" v="2019-12-27" />
		<tag k="ssr:gruppe" v="høyder" />
		<tag k="ssr:hovedgruppe" v="terreng" />
		<tag k="ssr:stedsnr" v="299679" />
		<tag k="ssr:type" v="berg" />
	</node>
	<node lat="68.87767221857267" lon="18.041833340444505" id="-40224">
		<tag k="name" v="Skamferbakkan" />
		<tag k="natural" v="slope" />
		<tag k="place" v="locality" />
		<tag k="ssr:date" v="2019-12-27" />
		<tag k="ssr:gruppe" v="skråninger" />
		<tag k="ssr:hovedgruppe" v="terreng" />
		<tag k="ssr:stedsnr" v="299682" />
		<tag k="ssr:type" v="bakke" />
	</node>
	<node lat="68.87584722628141" lon="18.051886116337652" id="-40225">
		<tag k="name" v="Ytterhaugen" />
		<tag k="natural" v="hill" />
		<tag k="place" v="locality" />
		<tag k="ssr:date" v="2019-12-27" />
		<tag k="ssr:gruppe" v="høyder" />
		<tag k="ssr:hovedgruppe" v="terreng" />
		<tag k="ssr:stedsnr" v="299689" />
		<tag k="ssr:type" v="haug" />
	</node>
	<node lat="68.86258610669553" lon="17.86201945191424" id="-40226">
		<tag k="name" v="Stongelva" />
		<tag k="ssr:date" v="2019-12-27" />
		<tag k="ssr:gruppe" v="rennendeVann" />
		<tag k="ssr:hovedgruppe" v="ferskvann" />
		<tag k="ssr:stedsnr" v="299985" />
		<tag k="ssr:type" v="bekk" />
		<tag k="waterway" v="stream" />
	</node>
	<node lat="68.86507499785405" lon="17.86248887693571" id="-40227">
		<tag k="fixme" v="consider seamark:type=rock or natural=shoal" />
		<tag k="name" v="Bottelsteinen" />
		<tag k="place" v="islet" />
		<tag k="ssr:date" v="2019-12-27" />
		<tag k="ssr:gruppe" v="grunnerISjø" />
		<tag k="ssr:hovedgruppe" v="sjø" />
		<tag k="ssr:stedsnr" v="299988" />
		<tag k="ssr:type" v="skjærISjø" />
	</node>
	<node lat="68.94107499652301" lon="18.09755555391086" id="-40228">
		<tag k="name" v="Høghågen" />
		<tag k="natural" v="hill" />
		<tag k="place" v="locality" />
		<tag k="ssr:date" v="2019-12-27" />
		<tag k="ssr:gruppe" v="høyder" />
		<tag k="ssr:hovedgruppe" v="terreng" />
		<tag k="ssr:stedsnr" v="301425" />
		<tag k="ssr:type" v="haug" />
	</node>
	<node lat="68.9594555587929" lon="17.86125277407336" id="-40229">
		<tag k="name" v="Stormyra" />
		<tag k="natural" v="wetland" />
		<tag k="ssr:date" v="2019-12-27" />
		<tag k="ssr:gruppe" v="våtmark" />
		<tag k="ssr:hovedgruppe" v="markslag" />
		<tag k="ssr:stedsnr" v="320886" />
		<tag k="ssr:type" v="myr" />
	</node>
	<node lat="68.93544722299121" lon="17.75203611436012" id="-40230">
		<tag k="name" v="Tverrelva" />
		<tag k="ssr:date" v="2019-12-27" />
		<tag k="ssr:gruppe" v="rennendeVann" />
		<tag k="ssr:hovedgruppe" v="ferskvann" />
		<tag k="ssr:stedsnr" v="321283" />
		<tag k="ssr:type" v="bekk" />
		<tag k="waterway" v="stream" />
	</node>
	<node lat="68.84788333568886" lon="18.056297216776414" id="-40231">
		<tag k="name" v="Litleng" />
		<tag k="place" v="farm" />
		<tag k="ssr:date" v="2019-12-27" />
		<tag k="ssr:gruppe" v="gardsbebyggelse" />
		<tag k="ssr:hovedgruppe" v="bebyggelse" />
		<tag k="ssr:stedsnr" v="321488" />
		<tag k="ssr:type" v="bruk" />
	</node>
	<node lat="68.83671110845187" lon="18.100205544452773" id="-40232">
		<tag k="name" v="Sennemyra" />
		<tag k="natural" v="wetland" />
		<tag k="ssr:date" v="2019-12-27" />
		<tag k="ssr:gruppe" v="våtmark" />
		<tag k="ssr:hovedgruppe" v="markslag" />
		<tag k="ssr:stedsnr" v="321515" />
		<tag k="ssr:type" v="myr" />
	</node>
	<node lat="68.87427778185932" lon="18.0593861140323" id="-40233">
		<tag k="name" v="Uthaug" />
		<tag k="place" v="farm" />
		<tag k="ssr:date" v="2019-12-27" />
		<tag k="ssr:gruppe" v="gardsbebyggelse" />
		<tag k="ssr:hovedgruppe" v="bebyggelse" />
		<tag k="ssr:stedsnr" v="321582" />
		<tag k="ssr:type" v="bruk" />
	</node>
	<node lat="68.8725638928777" lon="18.091127767547924" id="-40234">
		<tag k="alt_name" v="Limo" />
		<tag k="name" v="Limoen" />
		<tag k="place" v="farm" />
		<tag k="ssr:date" v="2019-12-27" />
		<tag k="ssr:gruppe" v="gardsbebyggelse" />
		<tag k="ssr:hovedgruppe" v="bebyggelse" />
		<tag k="ssr:stedsnr" v="321586" />
		<tag k="ssr:type" v="bruk" />
	</node>
	<node lat="68.86971388761432" lon="17.77414721403565" id="-40235">
		<tag k="name" v="Gardsnes" />
		<tag k="natural" v="cape" />
		<tag k="old_name" v="Gardsneset" />
		<tag k="ssr:date" v="2019-12-27" />
		<tag k="ssr:gruppe" v="kystkontur" />
		<tag k="ssr:hovedgruppe" v="sjø" />
		<tag k="ssr:stedsnr" v="321731" />
		<tag k="ssr:type" v="nesISjø" />
	</node>
	<node lat="68.86291111413756" lon="17.996324999552716" id="-40236">
		<tag k="alt_name" v="Elvevoll" />
		<tag k="name" v="Elvevollen" />
		<tag k="place" v="locality" />
		<tag k="ssr:date" v="2019-12-27" />
		<tag k="ssr:gruppe" v="gardsbebyggelse" />
		<tag k="ssr:hovedgruppe" v="bebyggelse" />
		<tag k="ssr:stedsnr" v="321734" />
		<tag k="ssr:type" v="eiendom" />
	</node>
	<node lat="68.848213892922" lon="17.552755547979885" id="-40237">
		<tag k="name" v="Rundkollbotn" />
		<tag k="natural" v="valley" />
		<tag k="place" v="locality" />
		<tag k="ssr:date" v="2019-12-27" />
		<tag k="ssr:gruppe" v="senkninger" />
		<tag k="ssr:hovedgruppe" v="terreng" />
		<tag k="ssr:stedsnr" v="321779" />
		<tag k="ssr:type" v="botn" />
	</node>
	<node lat="68.85051111323881" lon="17.97553054229095" id="-40238">
		<tag k="alt_name" v="Sætran" />
		<tag k="name" v="Sætra" />
		<tag k="place" v="farm" />
		<tag k="ssr:date" v="2019-12-27" />
		<tag k="ssr:gruppe" v="gardsbebyggelse" />
		<tag k="ssr:hovedgruppe" v="bebyggelse" />
		<tag k="ssr:stedsnr" v="321783" />
		<tag k="ssr:type" v="bruk" />
	</node>
	<node lat="68.90688888575725" lon="17.75182499252331" id="-40239">
		<tag k="name" v="Neset" />
		<tag k="natural" v="cape" />
		<tag k="ssr:date" v="2019-12-27" />
		<tag k="ssr:gruppe" v="kystkontur" />
		<tag k="ssr:hovedgruppe" v="sjø" />
		<tag k="ssr:stedsnr" v="321804" />
		<tag k="ssr:type" v="nesISjø" />
	</node>
	<node lat="68.90773338836429" lon="17.50864666595479" id="-40240">
		<tag k="fixme" v="consider place=hamlet" />
		<tag k="name" v="Grøtland" />
		<tag k="place" v="farm" />
		<tag k="ssr:date" v="2020-06-18" />
		<tag k="ssr:gruppe" v="gardsbebyggelse" />
		<tag k="ssr:hovedgruppe" v="bebyggelse" />
		<tag k="ssr:stedsnr" v="321809" />
		<tag k="ssr:type" v="gard" />
	</node>
	<node lat="68.88666666314415" lon="17.611063879145128" id="-40241">
		<tag k="alt_name" v="Tennvika" />
		<tag k="name" v="Tennevika" />
		<tag k="natural" v="bay" />
		<tag k="ssr:date" v="2019-12-27" />
		<tag k="ssr:gruppe" v="kystkontur" />
		<tag k="ssr:hovedgruppe" v="sjø" />
		<tag k="ssr:stedsnr" v="321833" />
		<tag k="ssr:type" v="vikISjø" />
	</node>
	<node lat="68.96586944167863" lon="17.744022215794253" id="-40242">
		<tag k="name" v="Røyrbakkvatnet" />
		<tag k="natural" v="water" />
		<tag k="ssr:date" v="2019-12-27" />
		<tag k="ssr:gruppe" v="stilleståendeVann" />
		<tag k="ssr:hovedgruppe" v="ferskvann" />
		<tag k="ssr:stedsnr" v="321886" />
		<tag k="ssr:type" v="vann" />
		<tag k="water" v="lake" />
	</node>
	<node lat="68.93135833556302" lon="17.750011120663842" id="-40243">
		<tag k="name" v="Makkedalen" />
		<tag k="natural" v="valley" />
		<tag k="place" v="locality" />
		<tag k="ssr:date" v="2019-12-27" />
		<tag k="ssr:gruppe" v="senkninger" />
		<tag k="ssr:hovedgruppe" v="terreng" />
		<tag k="ssr:stedsnr" v="321892" />
		<tag k="ssr:type" v="dal" />
	</node>
	<node lat="68.87105555879181" lon="17.732419438717262" id="-40244">
		<tag k="alt_name" v="Sommersetbukta" />
		<tag k="name" v="Sommarsetbukta" />
		<tag k="natural" v="bay" />
		<tag k="ssr:date" v="2019-12-27" />
		<tag k="ssr:gruppe" v="kystkontur" />
		<tag k="ssr:hovedgruppe" v="sjø" />
		<tag k="ssr:stedsnr" v="323302" />
		<tag k="ssr:type" v="vikISjø" />
	</node>
	<node lat="68.9398388896426" lon="17.734522215469383" id="-40245">
		<tag k="fixme" v="multiple name tags, choose one and add the other to alt_name" />
		<tag k="name" v="Løkseelva;Løksebotnelva" />
		<tag k="ssr:date" v="2019-12-27" />
		<tag k="ssr:gruppe" v="rennendeVann" />
		<tag k="ssr:hovedgruppe" v="ferskvann" />
		<tag k="ssr:stedsnr" v="325635" />
		<tag k="ssr:type" v="elv" />
		<tag k="waterway" v="river" />
	</node>
	<node lat="68.89214999985242" lon="17.716072211202306" id="-40246">
		<tag k="fixme" v="consider natural=peak for the most distinct mountains in the district" />
		<tag k="name" v="Storlikollen" />
		<tag k="natural" v="hill" />
		<tag k="place" v="locality" />
		<tag k="ssr:date" v="2019-12-27" />
		<tag k="ssr:gruppe" v="høyder" />
		<tag k="ssr:hovedgruppe" v="terreng" />
		<tag k="ssr:stedsnr" v="334596" />
		<tag k="ssr:type" v="ås" />
	</node>
	<node lat="68.86708055834144" lon="18.096975009734418" id="-40247">
		<tag k="name" v="Langegga" />
		<tag k="natural" v="slope" />
		<tag k="place" v="locality" />
		<tag k="ssr:date" v="2019-12-27" />
		<tag k="ssr:gruppe" v="skråninger" />
		<tag k="ssr:hovedgruppe" v="terreng" />
		<tag k="ssr:stedsnr" v="355186" />
		<tag k="ssr:type" v="bakke" />
	</node>
	<node lat="68.92091666904895" lon="17.781674985767523" id="-40248">
		<tag k="name" v="Lølia" />
		<tag k="natural" v="slope" />
		<tag k="place" v="locality" />
		<tag k="ssr:date" v="2019-12-27" />
		<tag k="ssr:gruppe" v="skråninger" />
		<tag k="ssr:hovedgruppe" v="terreng" />
		<tag k="ssr:stedsnr" v="358450" />
		<tag k="ssr:type" v="li" />
	</node>
	<node lat="68.9273194440967" lon="17.835013897682156" id="-40249">
		<tag k="name" v="Øvre Strammen" />
		<tag k="natural" v="valley" />
		<tag k="place" v="locality" />
		<tag k="ssr:date" v="2019-12-27" />
		<tag k="ssr:gruppe" v="senkninger" />
		<tag k="ssr:hovedgruppe" v="terreng" />
		<tag k="ssr:stedsnr" v="358462" />
		<tag k="ssr:type" v="skar" />
	</node>
	<node lat="68.896874997816" lon="17.751624984428386" id="-40250">
		<tag k="name" v="Reinberget" />
		<tag k="natural" v="hill" />
		<tag k="place" v="locality" />
		<tag k="ssr:date" v="2019-12-27" />
		<tag k="ssr:gruppe" v="høyder" />
		<tag k="ssr:hovedgruppe" v="terreng" />
		<tag k="ssr:stedsnr" v="358503" />
		<tag k="ssr:type" v="berg" />
	</node>
	<node lat="68.97197221780857" lon="17.732286111463075" id="-40251">
		<tag k="name" v="Øverosen" />
		<tag k="natural" v="bay" />
		<tag k="ssr:date" v="2019-12-27" />
		<tag k="ssr:gruppe" v="rennendeVann" />
		<tag k="ssr:hovedgruppe" v="ferskvann" />
		<tag k="ssr:stedsnr" v="359050" />
		<tag k="ssr:type" v="os" />
	</node>
	<node lat="68.98164722012588" lon="17.827855542699034" id="-40252">
		<tag k="name" v="Revhian" />
		<tag k="place" v="locality" />
		<tag k="ssr:date" v="2019-12-27" />
		<tag k="ssr:gruppe" v="terrengdetaljer" />
		<tag k="ssr:hovedgruppe" v="terreng" />
		<tag k="ssr:stedsnr" v="359061" />
		<tag k="ssr:type" v="annenTerrengdetalj" />
	</node>
	<node lat="68.98273333433872" lon="17.713741656322135" id="-40253">
		<tag k="name" v="Halsen" />
		<tag k="natural" v="valley" />
		<tag k="place" v="locality" />
		<tag k="ssr:date" v="2019-12-27" />
		<tag k="ssr:gruppe" v="senkninger" />
		<tag k="ssr:hovedgruppe" v="terreng" />
		<tag k="ssr:stedsnr" v="359065" />
		<tag k="ssr:type" v="skar" />
	</node>
	<node lat="68.974780558518" lon="17.820197211313353" id="-40254">
		<tag k="name" v="Storsteinan" />
		<tag k="natural" v="stone" />
		<tag k="ssr:date" v="2019-12-27" />
		<tag k="ssr:gruppe" v="løsmasseavsetninger" />
		<tag k="ssr:hovedgruppe" v="markslag" />
		<tag k="ssr:stedsnr" v="359103" />
		<tag k="ssr:type" v="stein" />
	</node>
	<node lat="68.8568333344339" lon="17.83519166013181" id="-40255">
		<tag k="name" v="Bjørnholla" />
		<tag k="natural" v="valley" />
		<tag k="place" v="locality" />
		<tag k="ssr:date" v="2019-12-27" />
		<tag k="ssr:gruppe" v="senkninger" />
		<tag k="ssr:hovedgruppe" v="terreng" />
		<tag k="ssr:stedsnr" v="359357" />
		<tag k="ssr:type" v="søkk" />
	</node>
	<node lat="68.90430555801893" lon="17.814244454047053" id="-40256">
		<tag k="name" v="Skakken" />
		<tag k="natural" v="slope" />
		<tag k="place" v="locality" />
		<tag k="ssr:date" v="2019-12-27" />
		<tag k="ssr:gruppe" v="skråninger" />
		<tag k="ssr:hovedgruppe" v="terreng" />
		<tag k="ssr:stedsnr" v="359500" />
		<tag k="ssr:type" v="li" />
	</node>
	<node lat="68.92369167013969" lon="17.720549989291495" id="-40257">
		<tag k="name" v="Holmen" />
		<tag k="place" v="islet" />
		<tag k="ssr:date" v="2019-12-27" />
		<tag k="ssr:gruppe" v="kystkontur" />
		<tag k="ssr:hovedgruppe" v="sjø" />
		<tag k="ssr:stedsnr" v="359451" />
		<tag k="ssr:type" v="holmeISjø" />
	</node>
	<node lat="68.91606389057068" lon="17.757827787241382" id="-40258">
		<tag k="name" v="Grønlihågen" />
		<tag k="natural" v="hill" />
		<tag k="place" v="locality" />
		<tag k="ssr:date" v="2019-12-27" />
		<tag k="ssr:gruppe" v="høyder" />
		<tag k="ssr:hovedgruppe" v="terreng" />
		<tag k="ssr:stedsnr" v="359457" />
		<tag k="ssr:type" v="haug" />
	</node>
	<node lat="68.91450278235634" lon="18.030472209807872" id="-40259">
		<tag k="name" v="Leirbekken" />
		<tag k="ssr:date" v="2019-12-27" />
		<tag k="ssr:gruppe" v="rennendeVann" />
		<tag k="ssr:hovedgruppe" v="ferskvann" />
		<tag k="ssr:stedsnr" v="359502" />
		<tag k="ssr:type" v="bekk" />
		<tag k="waterway" v="stream" />
	</node>
	<node lat="68.9140916670604" lon="18.038969453096932" id="-40260">
		<tag k="name" v="Botnmyra" />
		<tag k="natural" v="wetland" />
		<tag k="ssr:date" v="2019-12-27" />
		<tag k="ssr:gruppe" v="våtmark" />
		<tag k="ssr:hovedgruppe" v="markslag" />
		<tag k="ssr:stedsnr" v="359504" />
		<tag k="ssr:type" v="myr" />
	</node>
	<node lat="68.82825555482032" lon="17.5183083245988" id="-40261">
		<tag k="highway" v="path" />
		<tag k="name" v="Høgstien" />
		<tag k="ssr:date" v="2019-12-27" />
		<tag k="ssr:gruppe" v="veg" />
		<tag k="ssr:hovedgruppe" v="infrastruktur" />
		<tag k="ssr:stedsnr" v="359600" />
		<tag k="ssr:type" v="sti" />
	</node>
	<node lat="68.89643333121579" lon="17.457683324301254" id="-40262">
		<tag k="fixme" v="consider seamark:type=rock or natural=shoal" />
		<tag k="name" v="Bukkeristeinen" />
		<tag k="place" v="islet" />
		<tag k="ssr:date" v="2019-12-27" />
		<tag k="ssr:gruppe" v="grunnerISjø" />
		<tag k="ssr:hovedgruppe" v="sjø" />
		<tag k="ssr:stedsnr" v="359560" />
		<tag k="ssr:type" v="skjærISjø" />
	</node>
	<node lat="68.89752500066665" lon="17.4721249992711" id="-40263">
		<tag k="fixme" v="consider natural=peak for the most distinct mountains in the district" />
		<tag k="name" v="Rypholtan" />
		<tag k="natural" v="hill" />
		<tag k="place" v="locality" />
		<tag k="ssr:date" v="2019-12-27" />
		<tag k="ssr:gruppe" v="høyder" />
		<tag k="ssr:hovedgruppe" v="terreng" />
		<tag k="ssr:stedsnr" v="359564" />
		<tag k="ssr:type" v="ås" />
	</node>
	<node lat="68.88563610975666" lon="17.6791027633366" id="-40264">
		<tag k="name" v="Småkleivan" />
		<tag k="natural" v="slope" />
		<tag k="place" v="locality" />
		<tag k="ssr:date" v="2019-12-27" />
		<tag k="ssr:gruppe" v="skråninger" />
		<tag k="ssr:hovedgruppe" v="terreng" />
		<tag k="ssr:stedsnr" v="359713" />
		<tag k="ssr:type" v="bakke" />
	</node>
	<node lat="68.88238888832495" lon="17.70163332858355" id="-40265">
		<tag k="name" v="Litjebåtvika" />
		<tag k="natural" v="bay" />
		<tag k="ssr:date" v="2019-12-27" />
		<tag k="ssr:gruppe" v="kystkontur" />
		<tag k="ssr:hovedgruppe" v="sjø" />
		<tag k="ssr:stedsnr" v="359750" />
		<tag k="ssr:type" v="vikISjø" />
	</node>
	<node lat="68.85020000085852" lon="17.8113027750948" id="-40266">
		<tag k="name" v="Labergsli" />
		<tag k="place" v="farm" />
		<tag k="ssr:date" v="2019-12-27" />
		<tag k="ssr:gruppe" v="gardsbebyggelse" />
		<tag k="ssr:hovedgruppe" v="bebyggelse" />
		<tag k="ssr:stedsnr" v="359658" />
		<tag k="ssr:type" v="bruk" />
	</node>
	<node lat="68.83300277892543" lon="17.485894445366714" id="-40267">
		<tag k="name" v="Hesjeflatan" />
		<tag k="place" v="locality" />
		<tag k="ssr:date" v="2019-12-27" />
		<tag k="ssr:gruppe" v="flater" />
		<tag k="ssr:hovedgruppe" v="terreng" />
		<tag k="ssr:stedsnr" v="359999" />
		<tag k="ssr:type" v="slette" />
	</node>
	<node lat="68.83486666319341" lon="17.4775111027134" id="-40268">
		<tag k="name" v="Gløttsteinen" />
		<tag k="natural" v="stone" />
		<tag k="ssr:date" v="2019-12-27" />
		<tag k="ssr:gruppe" v="løsmasseavsetninger" />
		<tag k="ssr:hovedgruppe" v="markslag" />
		<tag k="ssr:stedsnr" v="360000" />
		<tag k="ssr:type" v="stein" />
	</node>
	<node lat="68.83579722187811" lon="17.84619167557429" id="-40269">
		<tag k="name" v="Krokhesjan - Hánasarohtu" />
		<tag k="name:no" v="Krokhesjan" />
		<tag k="name:se" v="Hánasarohtu" />
		<tag k="place" v="locality" />
		<tag k="ssr:date" v="2019-12-27" />
		<tag k="ssr:gruppe" v="vegetasjon" />
		<tag k="ssr:hovedgruppe" v="markslag" />
		<tag k="ssr:stedsnr" v="360117" />
		<tag k="ssr:type" v="skog" />
	</node>
	<node lat="68.95713611214806" lon="17.763966662060774" id="-40270">
		<tag k="name" v="Brattebakkan" />
		<tag k="natural" v="slope" />
		<tag k="place" v="locality" />
		<tag k="ssr:date" v="2019-12-27" />
		<tag k="ssr:gruppe" v="skråninger" />
		<tag k="ssr:hovedgruppe" v="terreng" />
		<tag k="ssr:stedsnr" v="360066" />
		<tag k="ssr:type" v="bakke" />
	</node>
	<node lat="68.86842777954249" lon="18.05019167264856" id="-40271">
		<tag k="name" v="Krokdalen" />
		<tag k="natural" v="valley" />
		<tag k="place" v="locality" />
		<tag k="ssr:date" v="2019-12-27" />
		<tag k="ssr:gruppe" v="senkninger" />
		<tag k="ssr:hovedgruppe" v="terreng" />
		<tag k="ssr:stedsnr" v="360518" />
		<tag k="ssr:type" v="dal" />
	</node>
	<node lat="68.86488611259105" lon="18.039380561105908" id="-40272">
		<tag k="name" v="Oksholla" />
		<tag k="natural" v="valley" />
		<tag k="place" v="locality" />
		<tag k="ssr:date" v="2019-12-27" />
		<tag k="ssr:gruppe" v="senkninger" />
		<tag k="ssr:hovedgruppe" v="terreng" />
		<tag k="ssr:stedsnr" v="360520" />
		<tag k="ssr:type" v="søkk" />
	</node>
	<node lat="68.91175555353647" lon="18.00264998381173" id="-40273">
		<tag k="name" v="Nermobakken" />
		<tag k="natural" v="slope" />
		<tag k="place" v="locality" />
		<tag k="ssr:date" v="2019-12-27" />
		<tag k="ssr:gruppe" v="skråninger" />
		<tag k="ssr:hovedgruppe" v="terreng" />
		<tag k="ssr:stedsnr" v="360403" />
		<tag k="ssr:type" v="bakke" />
	</node>
	<node lat="68.90681666914193" lon="18.005244431008947" id="-40274">
		<tag k="name" v="Småholman" />
		<tag k="place" v="islet" />
		<tag k="ssr:date" v="2019-12-27" />
		<tag k="ssr:gruppe" v="ferskvannskontur" />
		<tag k="ssr:hovedgruppe" v="ferskvann" />
		<tag k="ssr:stedsnr" v="360404" />
		<tag k="ssr:type" v="holme" />
	</node>
	<node lat="68.8503777816145" lon="18.09667777607954" id="-40275">
		<tag k="name" v="Skjellnesen" />
		<tag k="natural" v="hill" />
		<tag k="place" v="locality" />
		<tag k="ssr:date" v="2019-12-27" />
		<tag k="ssr:gruppe" v="høyder" />
		<tag k="ssr:hovedgruppe" v="terreng" />
		<tag k="ssr:stedsnr" v="476156" />
		<tag k="ssr:type" v="haug" />
	</node>
	<node lat="68.96831388929554" lon="17.71014166253376" id="-40276">
		<tag k="name" v="Øverosholtan" />
		<tag k="place" v="locality" />
		<tag k="ssr:date" v="2019-12-27" />
		<tag k="ssr:gruppe" v="vegetasjon" />
		<tag k="ssr:hovedgruppe" v="markslag" />
		<tag k="ssr:stedsnr" v="479013" />
		<tag k="ssr:type" v="skog" />
	</node>
	<node lat="68.92080277573277" lon="17.761786110925556" id="-40277">
		<tag k="fixme" v="consider natural=peak for the most distinct mountains in the district" />
		<tag k="name" v="Resmålsåsen" />
		<tag k="natural" v="hill" />
		<tag k="place" v="locality" />
		<tag k="ssr:date" v="2019-12-27" />
		<tag k="ssr:gruppe" v="høyder" />
		<tag k="ssr:hovedgruppe" v="terreng" />
		<tag k="ssr:stedsnr" v="479449" />
		<tag k="ssr:type" v="ås" />
	</node>
	<node lat="68.92115000107516" lon="17.77245278345893" id="-40278">
		<tag k="name" v="Signelholtan" />
		<tag k="place" v="locality" />
		<tag k="ssr:date" v="2019-12-27" />
		<tag k="ssr:gruppe" v="vegetasjon" />
		<tag k="ssr:hovedgruppe" v="markslag" />
		<tag k="ssr:stedsnr" v="479454" />
		<tag k="ssr:type" v="skog" />
	</node>
	<node lat="68.84997500015523" lon="18.04884721815093" id="-40279">
		<tag k="name" v="Tutmyra" />
		<tag k="natural" v="wetland" />
		<tag k="ssr:date" v="2019-12-27" />
		<tag k="ssr:gruppe" v="våtmark" />
		<tag k="ssr:hovedgruppe" v="markslag" />
		<tag k="ssr:stedsnr" v="481513" />
		<tag k="ssr:type" v="myr" />
	</node>
	<node lat="68.90476110962138" lon="17.460849987379135" id="-40280">
		<tag k="name" v="Krinagamsletta" />
		<tag k="place" v="locality" />
		<tag k="ssr:date" v="2019-12-27" />
		<tag k="ssr:gruppe" v="flater" />
		<tag k="ssr:hovedgruppe" v="terreng" />
		<tag k="ssr:stedsnr" v="481550" />
		<tag k="ssr:type" v="slette" />
	</node>
	<node lat="68.90259166801131" lon="17.45201665999534" id="-40281">
		<tag k="name" v="Larsevika" />
		<tag k="natural" v="bay" />
		<tag k="ssr:date" v="2019-12-27" />
		<tag k="ssr:gruppe" v="kystkontur" />
		<tag k="ssr:hovedgruppe" v="sjø" />
		<tag k="ssr:stedsnr" v="481554" />
		<tag k="ssr:type" v="vikISjø" />
	</node>
	<node lat="68.81004722132364" lon="17.598558333314234" id="-40282">
		<tag k="name" v="Slåttelia" />
		<tag k="natural" v="slope" />
		<tag k="place" v="locality" />
		<tag k="ssr:date" v="2019-12-27" />
		<tag k="ssr:gruppe" v="skråninger" />
		<tag k="ssr:hovedgruppe" v="terreng" />
		<tag k="ssr:stedsnr" v="481625" />
		<tag k="ssr:type" v="li" />
	</node>
	<node lat="68.84599444634829" lon="17.807363895585205" id="-40283">
		<tag k="name" v="Oldersletta" />
		<tag k="place" v="locality" />
		<tag k="ssr:date" v="2019-12-27" />
		<tag k="ssr:gruppe" v="flater" />
		<tag k="ssr:hovedgruppe" v="terreng" />
		<tag k="ssr:stedsnr" v="481641" />
		<tag k="ssr:type" v="slette" />
	</node>
	<node lat="68.94098888595596" lon="17.721586099308684" id="-40284">
		<tag k="highway" v="path" />
		<tag k="name" v="Buveien" />
		<tag k="ssr:date" v="2019-12-27" />
		<tag k="ssr:gruppe" v="veg" />
		<tag k="ssr:hovedgruppe" v="infrastruktur" />
		<tag k="ssr:stedsnr" v="481096" />
		<tag k="ssr:type" v="sti" />
	</node>
	<node lat="68.94202500239865" lon="17.73985832060082" id="-40285">
		<tag k="name" v="Kasteng" />
		<tag k="place" v="farm" />
		<tag k="ssr:date" v="2019-12-27" />
		<tag k="ssr:gruppe" v="gardsbebyggelse" />
		<tag k="ssr:hovedgruppe" v="bebyggelse" />
		<tag k="ssr:stedsnr" v="481100" />
		<tag k="ssr:type" v="bruk" />
	</node>
	<node lat="68.97536944607768" lon="17.723533339077807" id="-40286">
		<tag k="name" v="Øverosmyra" />
		<tag k="natural" v="wetland" />
		<tag k="ssr:date" v="2019-12-27" />
		<tag k="ssr:gruppe" v="våtmark" />
		<tag k="ssr:hovedgruppe" v="markslag" />
		<tag k="ssr:stedsnr" v="481051" />
		<tag k="ssr:type" v="myr" />
	</node>
	<node lat="68.89429722180812" lon="17.803383328150286" id="-40287">
		<tag k="name" v="Aspeberget" />
		<tag k="natural" v="hill" />
		<tag k="place" v="locality" />
		<tag k="ssr:date" v="2019-12-27" />
		<tag k="ssr:gruppe" v="høyder" />
		<tag k="ssr:hovedgruppe" v="terreng" />
		<tag k="ssr:stedsnr" v="481054" />
		<tag k="ssr:type" v="berg" />
	</node>
	<node lat="68.96170833835444" lon="17.823572208905464" id="-40288">
		<tag k="name" v="Søstermoen" />
		<tag k="place" v="locality" />
		<tag k="ssr:date" v="2019-12-27" />
		<tag k="ssr:gruppe" v="flater" />
		<tag k="ssr:hovedgruppe" v="terreng" />
		<tag k="ssr:stedsnr" v="481113" />
		<tag k="ssr:type" v="mo" />
	</node>
	<node lat="68.96697777338434" lon="17.7753944475515" id="-40289">
		<tag k="name" v="Storhågen" />
		<tag k="natural" v="hill" />
		<tag k="place" v="locality" />
		<tag k="ssr:date" v="2019-12-27" />
		<tag k="ssr:gruppe" v="høyder" />
		<tag k="ssr:hovedgruppe" v="terreng" />
		<tag k="ssr:stedsnr" v="481116" />
		<tag k="ssr:type" v="haug" />
	</node>
	<node lat="68.9675777803809" lon="17.812777786261787" id="-40290">
		<tag k="name" v="Konglemyra" />
		<tag k="natural" v="wetland" />
		<tag k="ssr:date" v="2019-12-27" />
		<tag k="ssr:gruppe" v="våtmark" />
		<tag k="ssr:hovedgruppe" v="markslag" />
		<tag k="ssr:stedsnr" v="481118" />
		<tag k="ssr:type" v="myr" />
	</node>
	<node lat="68.97003611069107" lon="17.823813897837695" id="-40291">
		<tag k="name" v="Stormyra" />
		<tag k="natural" v="wetland" />
		<tag k="ssr:date" v="2019-12-27" />
		<tag k="ssr:gruppe" v="våtmark" />
		<tag k="ssr:hovedgruppe" v="markslag" />
		<tag k="ssr:stedsnr" v="481122" />
		<tag k="ssr:type" v="myr" />
	</node>
	<node lat="68.84798889037229" lon="17.952897222952974" id="-40292">
		<tag k="name" v="Stengholtan" />
		<tag k="place" v="locality" />
		<tag k="ssr:date" v="2019-12-27" />
		<tag k="ssr:gruppe" v="vegetasjon" />
		<tag k="ssr:hovedgruppe" v="markslag" />
		<tag k="ssr:stedsnr" v="481133" />
		<tag k="ssr:type" v="skog" />
	</node>
	<node lat="68.83108888507512" lon="17.942847218791208" id="-40293">
		<tag k="ford" v="yes" />
		<tag k="name" v="Lávkestat" />
		<tag k="name:se" v="Lávkestat" />
		<tag k="place" v="locality" />
		<tag k="ssr:date" v="2019-12-27" />
		<tag k="ssr:gruppe" v="veg" />
		<tag k="ssr:hovedgruppe" v="infrastruktur" />
		<tag k="ssr:stedsnr" v="481136" />
		<tag k="ssr:type" v="vad" />
	</node>
	<node lat="68.88452500308924" lon="17.873694433633997" id="-40294">
		<tag k="name" v="Storlia" />
		<tag k="natural" v="slope" />
		<tag k="place" v="locality" />
		<tag k="ssr:date" v="2019-12-27" />
		<tag k="ssr:gruppe" v="skråninger" />
		<tag k="ssr:hovedgruppe" v="terreng" />
		<tag k="ssr:stedsnr" v="481236" />
		<tag k="ssr:type" v="li" />
	</node>
	<node lat="68.86544999814313" lon="17.778066662178702" id="-40295">
		<tag k="name" v="Ájarohtu" />
		<tag k="name:se" v="Ájarohtu" />
		<tag k="place" v="locality" />
		<tag k="ssr:date" v="2019-12-27" />
		<tag k="ssr:gruppe" v="vegetasjon" />
		<tag k="ssr:hovedgruppe" v="markslag" />
		<tag k="ssr:stedsnr" v="481281" />
		<tag k="ssr:type" v="skog" />
	</node>
	<node lat="68.85475555768323" lon="17.82468332993443" id="-40296">
		<tag k="name" v="Tjønna" />
		<tag k="natural" v="water" />
		<tag k="ssr:date" v="2019-12-27" />
		<tag k="ssr:gruppe" v="stilleståendeVann" />
		<tag k="ssr:hovedgruppe" v="ferskvann" />
		<tag k="ssr:stedsnr" v="481300" />
		<tag k="ssr:type" v="tjern" />
	</node>
	<node lat="68.85168055818971" lon="17.80711387860458" id="-40297">
		<tag k="name" v="Elenhågen" />
		<tag k="natural" v="hill" />
		<tag k="place" v="locality" />
		<tag k="ssr:date" v="2019-12-27" />
		<tag k="ssr:gruppe" v="høyder" />
		<tag k="ssr:hovedgruppe" v="terreng" />
		<tag k="ssr:stedsnr" v="481301" />
		<tag k="ssr:type" v="haug" />
	</node>
	<node lat="68.91955555684454" lon="17.733230564033768" id="-40298">
		<tag k="name" v="Asphågen" />
		<tag k="natural" v="hill" />
		<tag k="place" v="locality" />
		<tag k="ssr:date" v="2019-12-27" />
		<tag k="ssr:gruppe" v="høyder" />
		<tag k="ssr:hovedgruppe" v="terreng" />
		<tag k="ssr:stedsnr" v="481474" />
		<tag k="ssr:type" v="haug" />
	</node>
	<node lat="68.82306111075657" lon="17.85563056331905" id="-40299">
		<tag k="name" v="Gahčarohtu" />
		<tag k="name:se" v="Gahčarohtu" />
		<tag k="place" v="locality" />
		<tag k="ssr:date" v="2019-12-27" />
		<tag k="ssr:gruppe" v="vegetasjon" />
		<tag k="ssr:hovedgruppe" v="markslag" />
		<tag k="ssr:stedsnr" v="481247" />
		<tag k="ssr:type" v="skog" />
	</node>
	<node lat="68.8673999969461" lon="17.732588878893903" id="-40300">
		<tag k="name" v="Svarthammaren" />
		<tag k="natural" v="hill" />
		<tag k="place" v="locality" />
		<tag k="ssr:date" v="2019-12-27" />
		<tag k="ssr:gruppe" v="høyder" />
		<tag k="ssr:hovedgruppe" v="terreng" />
		<tag k="ssr:stedsnr" v="481323" />
		<tag k="ssr:type" v="berg" />
	</node>
	<node lat="68.88725277426391" lon="17.828333329706805" id="-40301">
		<tag k="name" v="Mosemyran" />
		<tag k="natural" v="wetland" />
		<tag k="ssr:date" v="2019-12-27" />
		<tag k="ssr:gruppe" v="våtmark" />
		<tag k="ssr:hovedgruppe" v="markslag" />
		<tag k="ssr:stedsnr" v="481328" />
		<tag k="ssr:type" v="myr" />
	</node>
	<node lat="68.90043332977785" lon="18.020894441875065" id="-40302">
		<tag k="name" v="Josopvatnet" />
		<tag k="natural" v="water" />
		<tag k="ssr:date" v="2019-12-27" />
		<tag k="ssr:gruppe" v="stilleståendeVann" />
		<tag k="ssr:hovedgruppe" v="ferskvann" />
		<tag k="ssr:stedsnr" v="481444" />
		<tag k="ssr:type" v="tjern" />
	</node>
	<node lat="68.89689444747026" lon="18.008330556329955" id="-40303">
		<tag k="fixme" v="consider natural=peak for the most distinct mountains in the district" />
		<tag k="name" v="Rundmyrkollen" />
		<tag k="natural" v="hill" />
		<tag k="place" v="locality" />
		<tag k="ssr:date" v="2019-12-27" />
		<tag k="ssr:gruppe" v="høyder" />
		<tag k="ssr:hovedgruppe" v="terreng" />
		<tag k="ssr:stedsnr" v="481449" />
		<tag k="ssr:type" v="ås" />
	</node>
	<node lat="68.90128888788061" lon="18.004591656509778" id="-40304">
		<tag k="name" v="Neset" />
		<tag k="natural" v="cape" />
		<tag k="ssr:date" v="2019-12-27" />
		<tag k="ssr:gruppe" v="ferskvannskontur" />
		<tag k="ssr:hovedgruppe" v="ferskvann" />
		<tag k="ssr:stedsnr" v="481454" />
		<tag k="ssr:type" v="nes" />
	</node>
	<node lat="68.91420833429098" lon="17.79516387819325" id="-40305">
		<tag k="name" v="Vassberget" />
		<tag k="natural" v="hill" />
		<tag k="place" v="locality" />
		<tag k="ssr:date" v="2019-12-27" />
		<tag k="ssr:gruppe" v="høyder" />
		<tag k="ssr:hovedgruppe" v="terreng" />
		<tag k="ssr:stedsnr" v="481483" />
		<tag k="ssr:type" v="berg" />
	</node>
	<node lat="68.90746389062645" lon="17.81826110127071" id="-40306">
		<tag k="name" v="Tyskebotn" />
		<tag k="natural" v="valley" />
		<tag k="place" v="locality" />
		<tag k="ssr:date" v="2019-12-27" />
		<tag k="ssr:gruppe" v="senkninger" />
		<tag k="ssr:hovedgruppe" v="terreng" />
		<tag k="ssr:stedsnr" v="481489" />
		<tag k="ssr:type" v="botn" />
	</node>
	<node lat="68.90265277584605" lon="17.814383339207506" id="-40307">
		<tag k="name" v="Nemsjen" />
		<tag k="natural" v="slope" />
		<tag k="place" v="locality" />
		<tag k="ssr:date" v="2019-12-27" />
		<tag k="ssr:gruppe" v="skråninger" />
		<tag k="ssr:hovedgruppe" v="terreng" />
		<tag k="ssr:stedsnr" v="481497" />
		<tag k="ssr:type" v="li" />
	</node>
	<node lat="68.90363611367493" lon="17.805936110916733" id="-40308">
		<tag k="name" v="Gammelia" />
		<tag k="natural" v="slope" />
		<tag k="place" v="locality" />
		<tag k="ssr:date" v="2019-12-27" />
		<tag k="ssr:gruppe" v="skråninger" />
		<tag k="ssr:hovedgruppe" v="terreng" />
		<tag k="ssr:stedsnr" v="481498" />
		<tag k="ssr:type" v="li" />
	</node>
	<node lat="68.89766388823087" lon="17.79033333927604" id="-40309">
		<tag k="name" v="Larsholmen" />
		<tag k="natural" v="cape" />
		<tag k="ssr:date" v="2019-12-27" />
		<tag k="ssr:gruppe" v="kystkontur" />
		<tag k="ssr:hovedgruppe" v="sjø" />
		<tag k="ssr:stedsnr" v="481500" />
		<tag k="ssr:type" v="nesISjø" />
	</node>
	<node lat="68.87981944580227" lon="18.121044443761967" id="-40310">
		<tag k="name" v="Evertholla" />
		<tag k="natural" v="valley" />
		<tag k="place" v="locality" />
		<tag k="ssr:date" v="2019-12-27" />
		<tag k="ssr:gruppe" v="senkninger" />
		<tag k="ssr:hovedgruppe" v="terreng" />
		<tag k="ssr:stedsnr" v="481682" />
		<tag k="ssr:type" v="søkk" />
	</node>
	<node lat="68.89866111483467" lon="17.98806387522083" id="-40311">
		<tag k="name" v="Bekkemolian" />
		<tag k="natural" v="slope" />
		<tag k="place" v="locality" />
		<tag k="ssr:date" v="2019-12-27" />
		<tag k="ssr:gruppe" v="skråninger" />
		<tag k="ssr:hovedgruppe" v="terreng" />
		<tag k="ssr:stedsnr" v="481688" />
		<tag k="ssr:type" v="li" />
	</node>
	<node lat="68.86048888723371" lon="18.072280562894374" id="-40312">
		<tag k="name" v="Øyra" />
		<tag k="place" v="locality" />
		<tag k="ssr:date" v="2019-12-27" />
		<tag k="ssr:gruppe" v="løsmasseavsetninger" />
		<tag k="ssr:hovedgruppe" v="markslag" />
		<tag k="ssr:stedsnr" v="481576" />
		<tag k="ssr:type" v="øyr" />
	</node>
	<node lat="68.82340555240248" lon="17.55089721766026" id="-40313">
		<tag k="name" v="Sletta" />
		<tag k="place" v="locality" />
		<tag k="ssr:date" v="2019-12-27" />
		<tag k="ssr:gruppe" v="flater" />
		<tag k="ssr:hovedgruppe" v="terreng" />
		<tag k="ssr:stedsnr" v="481582" />
		<tag k="ssr:type" v="slette" />
	</node>
	<node lat="68.92782499877237" lon="17.639625005816512" id="-40314">
		<tag k="name" v="Gammelgårdselva" />
		<tag k="ssr:date" v="2019-12-27" />
		<tag k="ssr:gruppe" v="rennendeVann" />
		<tag k="ssr:hovedgruppe" v="ferskvann" />
		<tag k="ssr:stedsnr" v="481600" />
		<tag k="ssr:type" v="bekk" />
		<tag k="waterway" v="stream" />
	</node>
	<node lat="68.85970277559764" lon="17.572852781719256" id="-40315">
		<tag k="name" v="Kvannholla" />
		<tag k="natural" v="valley" />
		<tag k="place" v="locality" />
		<tag k="ssr:date" v="2019-12-27" />
		<tag k="ssr:gruppe" v="senkninger" />
		<tag k="ssr:hovedgruppe" v="terreng" />
		<tag k="ssr:stedsnr" v="481602" />
		<tag k="ssr:type" v="søkk" />
	</node>
	<node lat="68.87588333656207" lon="17.667444446067943" id="-40316">
		<tag k="name" v="Kvitfløyan" />
		<tag k="natural" v="hill" />
		<tag k="place" v="locality" />
		<tag k="ssr:date" v="2019-12-27" />
		<tag k="ssr:gruppe" v="høyder" />
		<tag k="ssr:hovedgruppe" v="terreng" />
		<tag k="ssr:stedsnr" v="481605" />
		<tag k="ssr:type" v="berg" />
	</node>
	<node lat="68.87341111026069" lon="17.671650003719297" id="-40317">
		<tag k="name" v="Mørkhollan" />
		<tag k="natural" v="valley" />
		<tag k="place" v="locality" />
		<tag k="ssr:date" v="2019-12-27" />
		<tag k="ssr:gruppe" v="senkninger" />
		<tag k="ssr:hovedgruppe" v="terreng" />
		<tag k="ssr:stedsnr" v="481606" />
		<tag k="ssr:type" v="søkk" />
	</node>
	<node lat="68.89088333130009" lon="17.76069166011029" id="-40318">
		<tag k="name" v="Tjæreklubben" />
		<tag k="natural" v="hill" />
		<tag k="place" v="locality" />
		<tag k="ssr:date" v="2019-12-27" />
		<tag k="ssr:gruppe" v="høyder" />
		<tag k="ssr:hovedgruppe" v="terreng" />
		<tag k="ssr:stedsnr" v="481723" />
		<tag k="ssr:type" v="haug" />
	</node>
	<node lat="68.76928055546605" lon="18.00424999104067" id="-40319">
		<tag k="name" v="Roggejávri" />
		<tag k="name:se" v="Roggejávri" />
		<tag k="natural" v="water" />
		<tag k="ssr:date" v="2019-12-27" />
		<tag k="ssr:gruppe" v="stilleståendeVann" />
		<tag k="ssr:hovedgruppe" v="ferskvann" />
		<tag k="ssr:stedsnr" v="481724" />
		<tag k="ssr:type" v="tjern" />
	</node>
	<node lat="68.87387221910465" lon="17.71515000512208" id="-40320">
		<tag k="name" v="Moldforvikneset" />
		<tag k="natural" v="cape" />
		<tag k="ssr:date" v="2019-12-27" />
		<tag k="ssr:gruppe" v="kystkontur" />
		<tag k="ssr:hovedgruppe" v="sjø" />
		<tag k="ssr:stedsnr" v="481747" />
		<tag k="ssr:type" v="nesISjø" />
	</node>
	<node lat="68.91397499950263" lon="17.899313890102324" id="-40321">
		<tag k="name" v="Slettelia" />
		<tag k="natural" v="slope" />
		<tag k="place" v="locality" />
		<tag k="ssr:date" v="2019-12-27" />
		<tag k="ssr:gruppe" v="skråninger" />
		<tag k="ssr:hovedgruppe" v="terreng" />
		<tag k="ssr:stedsnr" v="481829" />
		<tag k="ssr:type" v="li" />
	</node>
	<node lat="68.90970833291223" lon="17.894766661782793" id="-40322">
		<tag k="name" v="Elinadalen" />
		<tag k="natural" v="valley" />
		<tag k="place" v="locality" />
		<tag k="ssr:date" v="2019-12-27" />
		<tag k="ssr:gruppe" v="senkninger" />
		<tag k="ssr:hovedgruppe" v="terreng" />
		<tag k="ssr:stedsnr" v="481832" />
		<tag k="ssr:type" v="dal" />
	</node>
	<node lat="68.91301111245184" lon="17.986788892158003" id="-40323">
		<tag k="name" v="Kvannslettan" />
		<tag k="place" v="locality" />
		<tag k="ssr:date" v="2019-12-27" />
		<tag k="ssr:gruppe" v="flater" />
		<tag k="ssr:hovedgruppe" v="terreng" />
		<tag k="ssr:stedsnr" v="481797" />
		<tag k="ssr:type" v="slette" />
	</node>
	<node lat="68.91515000325319" lon="17.886627787501997" id="-40324">
		<tag k="loc_name:se" v="Torsensládjojeaggi" />
		<tag k="name" v="Torslåttmyra" />
		<tag k="name:no" v="Torslåttmyra" />
		<tag k="natural" v="wetland" />
		<tag k="ssr:date" v="2021-07-07" />
		<tag k="ssr:gruppe" v="våtmark" />
		<tag k="ssr:hovedgruppe" v="markslag" />
		<tag k="ssr:stedsnr" v="481861" />
		<tag k="ssr:type" v="myr" />
	</node>
	<node lat="68.85540833506177" lon="17.992077775564283" id="-40325">
		<tag k="name" v="Sandmoen" />
		<tag k="place" v="farm" />
		<tag k="ssr:date" v="2019-12-27" />
		<tag k="ssr:gruppe" v="gardsbebyggelse" />
		<tag k="ssr:hovedgruppe" v="bebyggelse" />
		<tag k="ssr:stedsnr" v="481862" />
		<tag k="ssr:type" v="bruk" />
	</node>
	<node lat="68.85471110937566" lon="17.897077761753838" id="-40326">
		<tag k="name" v="Skjellhaugan" />
		<tag k="natural" v="hill" />
		<tag k="place" v="locality" />
		<tag k="ssr:date" v="2019-12-27" />
		<tag k="ssr:gruppe" v="høyder" />
		<tag k="ssr:hovedgruppe" v="terreng" />
		<tag k="ssr:stedsnr" v="481986" />
		<tag k="ssr:type" v="haug" />
	</node>
	<node lat="68.84167222235999" lon="17.495783342165566" id="-40327">
		<tag k="fixme" v="consider seamark:type=rock or natural=shoal" />
		<tag k="name" v="Hysesteinen" />
		<tag k="place" v="islet" />
		<tag k="ssr:date" v="2019-12-27" />
		<tag k="ssr:gruppe" v="grunnerISjø" />
		<tag k="ssr:hovedgruppe" v="sjø" />
		<tag k="ssr:stedsnr" v="481989" />
		<tag k="ssr:type" v="skjærISjø" />
	</node>
	<node lat="68.93447499703957" lon="17.645236112301625" id="-40328">
		<tag k="name" v="Storelva" />
		<tag k="ssr:date" v="2019-12-27" />
		<tag k="ssr:gruppe" v="rennendeVann" />
		<tag k="ssr:hovedgruppe" v="ferskvann" />
		<tag k="ssr:stedsnr" v="381305" />
		<tag k="ssr:type" v="bekk" />
		<tag k="waterway" v="stream" />
	</node>
	<node lat="68.82517213290468" lon="17.531697838623842" id="-40329">
		<tag k="fixme" v="consider place=hamlet" />
		<tag k="name" v="Reite" />
		<tag k="place" v="farm" />
		<tag k="ssr:date" v="2020-06-21" />
		<tag k="ssr:gruppe" v="gardsbebyggelse" />
		<tag k="ssr:hovedgruppe" v="bebyggelse" />
		<tag k="ssr:stedsnr" v="381714" />
		<tag k="ssr:type" v="gard" />
	</node>
	<node lat="68.81318333576462" lon="17.951297223823957" id="-40330">
		<tag k="name" v="Šleađđojohka" />
		<tag k="name:se" v="Šleađđojohka" />
		<tag k="ssr:date" v="2021-06-08" />
		<tag k="ssr:gruppe" v="rennendeVann" />
		<tag k="ssr:hovedgruppe" v="ferskvann" />
		<tag k="ssr:stedsnr" v="381725" />
		<tag k="ssr:type" v="elv" />
		<tag k="waterway" v="river" />
	</node>
	<node lat="68.8349388896668" lon="17.506997225878628" id="-40331">
		<tag k="name" v="Munkelia" />
		<tag k="natural" v="slope" />
		<tag k="place" v="locality" />
		<tag k="ssr:date" v="2019-12-27" />
		<tag k="ssr:gruppe" v="skråninger" />
		<tag k="ssr:hovedgruppe" v="terreng" />
		<tag k="ssr:stedsnr" v="481996" />
		<tag k="ssr:type" v="li" />
	</node>
	<node lat="68.95598055571936" lon="18.009361112744923" id="-40332">
		<tag k="alt_name:no" v="Skøskarelva" />
		<tag k="name" v="Stortindelva - Vággejohka" />
		<tag k="name:no" v="Stortindelva" />
		<tag k="name:se" v="Vággejohka" />
		<tag k="ssr:date" v="2019-12-27" />
		<tag k="ssr:gruppe" v="rennendeVann" />
		<tag k="ssr:hovedgruppe" v="ferskvann" />
		<tag k="ssr:stedsnr" v="381665" />
		<tag k="ssr:type" v="bekk" />
		<tag k="waterway" v="stream" />
	</node>
	<node lat="69.00851110728736" lon="17.78093889378041" id="-40333">
		<tag k="alt_name" v="Rundfjellet, store" />
		<tag k="fixme" v="consider natural=peak for the most distinct mountains in the district" />
		<tag k="name" v="Store Rundfjellet" />
		<tag k="natural" v="hill" />
		<tag k="place" v="locality" />
		<tag k="ssr:date" v="2019-12-27" />
		<tag k="ssr:gruppe" v="høyder" />
		<tag k="ssr:hovedgruppe" v="terreng" />
		<tag k="ssr:stedsnr" v="381670" />
		<tag k="ssr:type" v="fjell" />
	</node>
	<node lat="68.87168888558512" lon="17.567155555017237" id="-40334">
		<tag k="name" v="Ikarneset" />
		<tag k="natural" v="cape" />
		<tag k="ssr:date" v="2019-12-27" />
		<tag k="ssr:gruppe" v="kystkontur" />
		<tag k="ssr:hovedgruppe" v="sjø" />
		<tag k="ssr:stedsnr" v="381804" />
		<tag k="ssr:type" v="nesISjø" />
	</node>
	<node lat="68.8754911680436" lon="17.96694067306997" id="-40335">
		<tag k="alt_name" v="Flåget" />
		<tag k="fixme" v="consider place=hamlet" />
		<tag k="name" v="Floget" />
		<tag k="place" v="farm" />
		<tag k="ssr:date" v="2020-06-19" />
		<tag k="ssr:gruppe" v="gardsbebyggelse" />
		<tag k="ssr:hovedgruppe" v="bebyggelse" />
		<tag k="ssr:stedsnr" v="381812" />
		<tag k="ssr:type" v="gard" />
	</node>
	<node lat="68.881347221147" lon="17.651402785021407" id="-40336">
		<tag k="name" v="Håkavikvatnet" />
		<tag k="natural" v="water" />
		<tag k="ssr:date" v="2019-12-27" />
		<tag k="ssr:gruppe" v="stilleståendeVann" />
		<tag k="ssr:hovedgruppe" v="ferskvann" />
		<tag k="ssr:stedsnr" v="381818" />
		<tag k="ssr:type" v="tjern" />
	</node>
	<node lat="68.8810138908708" lon="17.920783320260995" id="-40337">
		<tag k="name" v="Storelva" />
		<tag k="ssr:date" v="2019-12-27" />
		<tag k="ssr:gruppe" v="rennendeVann" />
		<tag k="ssr:hovedgruppe" v="ferskvann" />
		<tag k="ssr:stedsnr" v="381864" />
		<tag k="ssr:type" v="bekk" />
		<tag k="waterway" v="stream" />
	</node>
	<node lat="68.88525833557644" lon="17.835922217640146" id="-40338">
		<tag k="name" v="Karavikdalen" />
		<tag k="natural" v="valley" />
		<tag k="place" v="locality" />
		<tag k="ssr:date" v="2019-12-27" />
		<tag k="ssr:gruppe" v="senkninger" />
		<tag k="ssr:hovedgruppe" v="terreng" />
		<tag k="ssr:stedsnr" v="381865" />
		<tag k="ssr:type" v="dal" />
	</node>
	<node lat="68.89689999813194" lon="17.734416661732826" id="-40339">
		<tag k="name" v="Finnøya" />
		<tag k="place" v="islet" />
		<tag k="ssr:date" v="2019-12-27" />
		<tag k="ssr:gruppe" v="kystkontur" />
		<tag k="ssr:hovedgruppe" v="sjø" />
		<tag k="ssr:stedsnr" v="382867" />
		<tag k="ssr:type" v="holmeISjø" />
	</node>
	<node lat="68.92134444373028" lon="17.70886666126988" id="-40340">
		<tag k="name" v="Kleivgrunnen" />
		<tag k="natural" v="shoal" />
		<tag k="place" v="locality" />
		<tag k="ssr:date" v="2019-12-27" />
		<tag k="ssr:gruppe" v="grunnerISjø" />
		<tag k="ssr:hovedgruppe" v="sjø" />
		<tag k="ssr:stedsnr" v="393537" />
		<tag k="ssr:type" v="grunneISjø" />
	</node>
	<node lat="68.89158332948568" lon="17.473427780766745" id="-40341">
		<tag k="name" v="Hellarvikgrunnen" />
		<tag k="natural" v="shoal" />
		<tag k="place" v="locality" />
		<tag k="ssr:date" v="2019-12-27" />
		<tag k="ssr:gruppe" v="grunnerISjø" />
		<tag k="ssr:hovedgruppe" v="sjø" />
		<tag k="ssr:stedsnr" v="394693" />
		<tag k="ssr:type" v="grunneISjø" />
	</node>
	<node lat="69.00570833099302" lon="17.703711107597137" id="-40342">
		<tag k="name" v="Surhollian" />
		<tag k="natural" v="slope" />
		<tag k="place" v="locality" />
		<tag k="ssr:date" v="2019-12-27" />
		<tag k="ssr:gruppe" v="skråninger" />
		<tag k="ssr:hovedgruppe" v="terreng" />
		<tag k="ssr:stedsnr" v="403477" />
		<tag k="ssr:type" v="li" />
	</node>
	<node lat="68.96422500143292" lon="17.753136112789125" id="-40343">
		<tag k="name" v="Nermoen" />
		<tag k="place" v="farm" />
		<tag k="ssr:date" v="2019-12-27" />
		<tag k="ssr:gruppe" v="gardsbebyggelse" />
		<tag k="ssr:hovedgruppe" v="bebyggelse" />
		<tag k="ssr:stedsnr" v="419006" />
		<tag k="ssr:type" v="bruk" />
	</node>
	<node lat="68.95919167032861" lon="17.718286110164435" id="-40344">
		<tag k="name" v="Lomtjønnvatnet" />
		<tag k="natural" v="water" />
		<tag k="ssr:date" v="2019-12-27" />
		<tag k="ssr:gruppe" v="stilleståendeVann" />
		<tag k="ssr:hovedgruppe" v="ferskvann" />
		<tag k="ssr:stedsnr" v="419008" />
		<tag k="ssr:type" v="tjern" />
	</node>
	<node lat="68.87685277509786" lon="17.602963882210787" id="-40345">
		<tag k="name" v="Rismålshågan" />
		<tag k="natural" v="hill" />
		<tag k="place" v="locality" />
		<tag k="ssr:date" v="2019-12-27" />
		<tag k="ssr:gruppe" v="høyder" />
		<tag k="ssr:hovedgruppe" v="terreng" />
		<tag k="ssr:stedsnr" v="420651" />
		<tag k="ssr:type" v="haug" />
	</node>
	<node lat="68.93373888981789" lon="18.013474997662044" id="-40346">
		<tag k="historic" v="shieling" />
		<tag k="name" v="Sætra" />
		<tag k="place" v="isolated_dwelling" />
		<tag k="ssr:date" v="2019-12-27" />
		<tag k="ssr:gruppe" v="gardsbebyggelse" />
		<tag k="ssr:hovedgruppe" v="bebyggelse" />
		<tag k="ssr:stedsnr" v="420546" />
		<tag k="ssr:type" v="seterStøl" />
	</node>
	<node lat="68.97541388983333" lon="17.689694440565184" id="-40347">
		<tag k="name" v="Svarthammarbekken" />
		<tag k="ssr:date" v="2019-12-27" />
		<tag k="ssr:gruppe" v="rennendeVann" />
		<tag k="ssr:hovedgruppe" v="ferskvann" />
		<tag k="ssr:stedsnr" v="421041" />
		<tag k="ssr:type" v="bekk" />
		<tag k="waterway" v="stream" />
	</node>
	<node lat="68.89913333664472" lon="17.811194445908544" id="-40348">
		<tag k="name" v="Jekteslettan" />
		<tag k="place" v="locality" />
		<tag k="ssr:date" v="2019-12-27" />
		<tag k="ssr:gruppe" v="flater" />
		<tag k="ssr:hovedgruppe" v="terreng" />
		<tag k="ssr:stedsnr" v="421046" />
		<tag k="ssr:type" v="slette" />
	</node>
	<node lat="68.99129166562089" lon="17.699413890064857" id="-40349">
		<tag k="name" v="Bjørnemyrbakkan" />
		<tag k="natural" v="slope" />
		<tag k="place" v="locality" />
		<tag k="ssr:date" v="2019-12-27" />
		<tag k="ssr:gruppe" v="skråninger" />
		<tag k="ssr:hovedgruppe" v="terreng" />
		<tag k="ssr:stedsnr" v="421066" />
		<tag k="ssr:type" v="bakke" />
	</node>
	<node lat="68.97716944013948" lon="17.81802777888841" id="-40350">
		<tag k="name" v="Fremste Tverrelv" />
		<tag k="ssr:date" v="2019-12-27" />
		<tag k="ssr:gruppe" v="rennendeVann" />
		<tag k="ssr:hovedgruppe" v="ferskvann" />
		<tag k="ssr:stedsnr" v="421111" />
		<tag k="ssr:type" v="bekk" />
		<tag k="waterway" v="stream" />
	</node>
	<node lat="68.84592499986796" lon="17.86051387614466" id="-40351">
		<tag k="name" v="Ørnberget" />
		<tag k="natural" v="hill" />
		<tag k="place" v="locality" />
		<tag k="ssr:date" v="2019-12-27" />
		<tag k="ssr:gruppe" v="høyder" />
		<tag k="ssr:hovedgruppe" v="terreng" />
		<tag k="ssr:stedsnr" v="421144" />
		<tag k="ssr:type" v="berg" />
	</node>
	<node lat="68.84055555730602" lon="17.87753889334402" id="-40352">
		<tag k="name" v="Reindal" />
		<tag k="place" v="farm" />
		<tag k="ssr:date" v="2019-12-27" />
		<tag k="ssr:gruppe" v="gardsbebyggelse" />
		<tag k="ssr:hovedgruppe" v="bebyggelse" />
		<tag k="ssr:stedsnr" v="421149" />
		<tag k="ssr:type" v="bruk" />
	</node>
	<node lat="68.88797222559086" lon="17.867419449865842" id="-40353">
		<tag k="name" v="Senghøgdan" />
		<tag k="natural" v="hill" />
		<tag k="place" v="locality" />
		<tag k="ssr:date" v="2019-12-27" />
		<tag k="ssr:gruppe" v="høyder" />
		<tag k="ssr:hovedgruppe" v="terreng" />
		<tag k="ssr:stedsnr" v="421208" />
		<tag k="ssr:type" v="haug" />
	</node>
	<node lat="68.85785833380825" lon="17.818291672418383" id="-40354">
		<tag k="name" v="Sagbakken" />
		<tag k="natural" v="slope" />
		<tag k="place" v="locality" />
		<tag k="ssr:date" v="2019-12-27" />
		<tag k="ssr:gruppe" v="skråninger" />
		<tag k="ssr:hovedgruppe" v="terreng" />
		<tag k="ssr:stedsnr" v="421247" />
		<tag k="ssr:type" v="bakke" />
	</node>
	<node lat="68.89258055657258" lon="17.819252786582968" id="-40355">
		<tag k="name" v="Finnelisletta" />
		<tag k="place" v="locality" />
		<tag k="ssr:date" v="2019-12-27" />
		<tag k="ssr:gruppe" v="flater" />
		<tag k="ssr:hovedgruppe" v="terreng" />
		<tag k="ssr:stedsnr" v="421290" />
		<tag k="ssr:type" v="slette" />
	</node>
	<node lat="68.87163611438356" lon="17.746447230355905" id="-40356">
		<tag k="name" v="Kjosen" />
		<tag k="natural" v="bay" />
		<tag k="ssr:date" v="2019-12-27" />
		<tag k="ssr:gruppe" v="rennendeVann" />
		<tag k="ssr:hovedgruppe" v="ferskvann" />
		<tag k="ssr:stedsnr" v="421295" />
		<tag k="ssr:type" v="os" />
	</node>
	<node lat="68.8646749965117" lon="17.688877782277714" id="-40357">
		<tag k="fixme" v="consider natural=peak for the most distinct mountains in the district" />
		<tag k="name" v="Mellomfjellet" />
		<tag k="natural" v="hill" />
		<tag k="place" v="locality" />
		<tag k="ssr:date" v="2019-12-27" />
		<tag k="ssr:gruppe" v="høyder" />
		<tag k="ssr:hovedgruppe" v="terreng" />
		<tag k="ssr:stedsnr" v="421296" />
		<tag k="ssr:type" v="fjell" />
	</node>
	<node lat="68.86153610958785" lon="17.747758321146655" id="-40358">
		<tag k="name" v="Sandskaret" />
		<tag k="natural" v="valley" />
		<tag k="place" v="locality" />
		<tag k="ssr:date" v="2019-12-27" />
		<tag k="ssr:gruppe" v="senkninger" />
		<tag k="ssr:hovedgruppe" v="terreng" />
		<tag k="ssr:stedsnr" v="421300" />
		<tag k="ssr:type" v="skar" />
	</node>
	<node lat="68.87089444227705" lon="17.72841944742013" id="-40359">
		<tag k="name" v="Sletta" />
		<tag k="place" v="locality" />
		<tag k="ssr:date" v="2019-12-27" />
		<tag k="ssr:gruppe" v="flater" />
		<tag k="ssr:hovedgruppe" v="terreng" />
		<tag k="ssr:stedsnr" v="421301" />
		<tag k="ssr:type" v="slette" />
	</node>
	<node lat="68.89470555230008" lon="18.02248054410508" id="-40360">
		<tag k="name" v="Snagmyra" />
		<tag k="natural" v="wetland" />
		<tag k="ssr:date" v="2019-12-27" />
		<tag k="ssr:gruppe" v="våtmark" />
		<tag k="ssr:hovedgruppe" v="markslag" />
		<tag k="ssr:stedsnr" v="421411" />
		<tag k="ssr:type" v="myr" />
	</node>
	<node lat="68.91086110878418" lon="18.060361116788766" id="-40361">
		<tag k="name" v="Nerstevasselva" />
		<tag k="ssr:date" v="2019-12-27" />
		<tag k="ssr:gruppe" v="rennendeVann" />
		<tag k="ssr:hovedgruppe" v="ferskvann" />
		<tag k="ssr:stedsnr" v="421412" />
		<tag k="ssr:type" v="bekk" />
		<tag k="waterway" v="stream" />
	</node>
	<node lat="68.90859444180232" lon="17.82533333644056" id="-40362">
		<tag k="name" v="Vedvelta" />
		<tag k="natural" v="slope" />
		<tag k="place" v="locality" />
		<tag k="ssr:date" v="2019-12-27" />
		<tag k="ssr:gruppe" v="skråninger" />
		<tag k="ssr:hovedgruppe" v="terreng" />
		<tag k="ssr:stedsnr" v="421450" />
		<tag k="ssr:type" v="bakke" />
	</node>
	<node lat="68.88306111037494" lon="17.89551109943459" id="-40363">
		<tag k="name" v="Vakkermoan" />
		<tag k="place" v="locality" />
		<tag k="ssr:date" v="2019-12-27" />
		<tag k="ssr:gruppe" v="flater" />
		<tag k="ssr:hovedgruppe" v="terreng" />
		<tag k="ssr:stedsnr" v="421191" />
		<tag k="ssr:type" v="mo" />
	</node>
	<node lat="68.88969444237777" lon="17.8694861082511" id="-40364">
		<tag k="name" v="Svarteberget" />
		<tag k="natural" v="hill" />
		<tag k="place" v="locality" />
		<tag k="ssr:date" v="2019-12-27" />
		<tag k="ssr:gruppe" v="høyder" />
		<tag k="ssr:hovedgruppe" v="terreng" />
		<tag k="ssr:stedsnr" v="421192" />
		<tag k="ssr:type" v="berg" />
	</node>
	<node lat="68.86214722253112" lon="17.7493250050578" id="-40365">
		<tag k="name" v="Klipa" />
		<tag k="natural" v="valley" />
		<tag k="place" v="locality" />
		<tag k="ssr:date" v="2019-12-27" />
		<tag k="ssr:gruppe" v="senkninger" />
		<tag k="ssr:hovedgruppe" v="terreng" />
		<tag k="ssr:stedsnr" v="421303" />
		<tag k="ssr:type" v="søkk" />
	</node>
	<node lat="68.85570277621883" lon="17.82164721062009" id="-40366">
		<tag k="name" v="Holmen" />
		<tag k="place" v="islet" />
		<tag k="ssr:date" v="2019-12-27" />
		<tag k="ssr:gruppe" v="ferskvannskontur" />
		<tag k="ssr:hovedgruppe" v="ferskvann" />
		<tag k="ssr:stedsnr" v="421339" />
		<tag k="ssr:type" v="holme" />
	</node>
	<node lat="68.86125277591199" lon="18.013486107655865" id="-40367">
		<tag k="name" v="Nersanden" />
		<tag k="natural" v="cape" />
		<tag k="ssr:date" v="2019-12-27" />
		<tag k="ssr:gruppe" v="ferskvannskontur" />
		<tag k="ssr:hovedgruppe" v="ferskvann" />
		<tag k="ssr:stedsnr" v="421541" />
		<tag k="ssr:type" v="nes" />
	</node>
	<node lat="68.90702221916047" lon="17.502761108461318" id="-40368">
		<tag k="name" v="Glugget" />
		<tag k="natural" v="hill" />
		<tag k="place" v="locality" />
		<tag k="ssr:date" v="2019-12-27" />
		<tag k="ssr:gruppe" v="høyder" />
		<tag k="ssr:hovedgruppe" v="terreng" />
		<tag k="ssr:stedsnr" v="421547" />
		<tag k="ssr:type" v="haug" />
	</node>
	<node lat="68.8842861143799" lon="18.008083333681657" id="-40369">
		<tag k="name" v="Bekkelihagen" />
		<tag k="natural" v="slope" />
		<tag k="place" v="locality" />
		<tag k="ssr:date" v="2019-12-27" />
		<tag k="ssr:gruppe" v="skråninger" />
		<tag k="ssr:hovedgruppe" v="terreng" />
		<tag k="ssr:stedsnr" v="421625" />
		<tag k="ssr:type" v="li" />
	</node>
	<node lat="68.90041389093287" lon="17.994108329579372" id="-40370">
		<tag k="name" v="Bekkemoen" />
		<tag k="place" v="locality" />
		<tag k="ssr:date" v="2019-12-27" />
		<tag k="ssr:gruppe" v="flater" />
		<tag k="ssr:hovedgruppe" v="terreng" />
		<tag k="ssr:stedsnr" v="421690" />
		<tag k="ssr:type" v="mo" />
	</node>
	<node lat="68.8875666693831" lon="17.70856389006822" id="-40371">
		<tag k="fixme" v="consider natural=peak for the most distinct mountains in the district" />
		<tag k="name" v="Storlikollen" />
		<tag k="natural" v="hill" />
		<tag k="place" v="locality" />
		<tag k="ssr:date" v="2019-12-27" />
		<tag k="ssr:gruppe" v="høyder" />
		<tag k="ssr:hovedgruppe" v="terreng" />
		<tag k="ssr:stedsnr" v="421693" />
		<tag k="ssr:type" v="ås" />
	</node>
	<node lat="68.88402222449065" lon="17.711863888095913" id="-40372">
		<tag k="name" v="Litjegodvika" />
		<tag k="natural" v="bay" />
		<tag k="ssr:date" v="2019-12-27" />
		<tag k="ssr:gruppe" v="kystkontur" />
		<tag k="ssr:hovedgruppe" v="sjø" />
		<tag k="ssr:stedsnr" v="421694" />
		<tag k="ssr:type" v="vikISjø" />
	</node>
	<node lat="68.88403611529898" lon="17.686549999506095" id="-40373">
		<tag k="name" v="Mølnelva" />
		<tag k="ssr:date" v="2019-12-27" />
		<tag k="ssr:gruppe" v="rennendeVann" />
		<tag k="ssr:hovedgruppe" v="ferskvann" />
		<tag k="ssr:stedsnr" v="421695" />
		<tag k="ssr:type" v="bekk" />
		<tag k="waterway" v="stream" />
	</node>
	<node lat="68.87191110676558" lon="18.022030558179175" id="-40374">
		<tag k="name" v="Stormokåsa" />
		<tag k="natural" v="slope" />
		<tag k="place" v="locality" />
		<tag k="ssr:date" v="2019-12-27" />
		<tag k="ssr:gruppe" v="skråninger" />
		<tag k="ssr:hovedgruppe" v="terreng" />
		<tag k="ssr:stedsnr" v="421638" />
		<tag k="ssr:type" v="bakke" />
	</node>
	<node lat="68.92016667012263" lon="17.899527779774168" id="-40375">
		<tag k="name" v="Blomholla" />
		<tag k="natural" v="valley" />
		<tag k="place" v="locality" />
		<tag k="ssr:date" v="2019-12-27" />
		<tag k="ssr:gruppe" v="senkninger" />
		<tag k="ssr:hovedgruppe" v="terreng" />
		<tag k="ssr:stedsnr" v="421802" />
		<tag k="ssr:type" v="søkk" />
	</node>
	<node lat="68.90807499761873" lon="17.981586097369146" id="-40376">
		<tag k="name" v="Slåttemyra" />
		<tag k="natural" v="wetland" />
		<tag k="ssr:date" v="2019-12-27" />
		<tag k="ssr:gruppe" v="våtmark" />
		<tag k="ssr:hovedgruppe" v="markslag" />
		<tag k="ssr:stedsnr" v="421811" />
		<tag k="ssr:type" v="myr" />
	</node>
	<node lat="68.90967222512656" lon="17.930452772120663" id="-40377">
		<tag k="name" v="Lian" />
		<tag k="natural" v="slope" />
		<tag k="place" v="locality" />
		<tag k="ssr:date" v="2019-12-27" />
		<tag k="ssr:gruppe" v="skråninger" />
		<tag k="ssr:hovedgruppe" v="terreng" />
		<tag k="ssr:stedsnr" v="421819" />
		<tag k="ssr:type" v="li" />
	</node>
	<node lat="68.84650555551482" lon="18.026422228608833" id="-40378">
		<tag k="name" v="Elvevollmølla" />
		<tag k="place" v="locality" />
		<tag k="ssr:date" v="2019-12-27" />
		<tag k="ssr:gruppe" v="terrengdetaljer" />
		<tag k="ssr:hovedgruppe" v="terreng" />
		<tag k="ssr:stedsnr" v="421739" />
		<tag k="ssr:type" v="annenTerrengdetalj" />
	</node>
	<node lat="68.84384166951678" lon="18.06786111202904" id="-40379">
		<tag k="fixme" v="consider natural=peak for the most distinct mountains in the district" />
		<tag k="name" v="Litjeskaida" />
		<tag k="natural" v="hill" />
		<tag k="place" v="locality" />
		<tag k="ssr:date" v="2019-12-27" />
		<tag k="ssr:gruppe" v="høyder" />
		<tag k="ssr:hovedgruppe" v="terreng" />
		<tag k="ssr:stedsnr" v="421753" />
		<tag k="ssr:type" v="ås" />
	</node>
	<node lat="68.92793611310016" lon="17.99013056263647" id="-40380">
		<tag k="name" v="Instemoen" />
		<tag k="place" v="locality" />
		<tag k="ssr:date" v="2019-12-27" />
		<tag k="ssr:gruppe" v="flater" />
		<tag k="ssr:hovedgruppe" v="terreng" />
		<tag k="ssr:stedsnr" v="421795" />
		<tag k="ssr:type" v="mo" />
	</node>
	<node lat="68.83998889032998" lon="17.51131943429262" id="-40381">
		<tag k="name" v="Bjørnlia" />
		<tag k="natural" v="slope" />
		<tag k="place" v="locality" />
		<tag k="ssr:date" v="2019-12-27" />
		<tag k="ssr:gruppe" v="skråninger" />
		<tag k="ssr:hovedgruppe" v="terreng" />
		<tag k="ssr:stedsnr" v="421996" />
		<tag k="ssr:type" v="li" />
	</node>
	<node lat="68.86360277877839" lon="17.84630555156377" id="-40382">
		<tag k="name" v="Hestedaubakken" />
		<tag k="natural" v="slope" />
		<tag k="place" v="locality" />
		<tag k="ssr:date" v="2019-12-27" />
		<tag k="ssr:gruppe" v="skråninger" />
		<tag k="ssr:hovedgruppe" v="terreng" />
		<tag k="ssr:stedsnr" v="421997" />
		<tag k="ssr:type" v="bakke" />
	</node>
	<node lat="68.86507777427013" lon="17.855327784705274" id="-40383">
		<tag k="name" v="Vedhågen" />
		<tag k="natural" v="hill" />
		<tag k="place" v="locality" />
		<tag k="ssr:date" v="2019-12-27" />
		<tag k="ssr:gruppe" v="høyder" />
		<tag k="ssr:hovedgruppe" v="terreng" />
		<tag k="ssr:stedsnr" v="422000" />
		<tag k="ssr:type" v="haug" />
	</node>
	<node lat="68.93613888586614" lon="18.053086095870594" id="-40384">
		<tag k="name" v="Reingjerdhaugen" />
		<tag k="natural" v="hill" />
		<tag k="place" v="locality" />
		<tag k="ssr:date" v="2019-12-27" />
		<tag k="ssr:gruppe" v="høyder" />
		<tag k="ssr:hovedgruppe" v="terreng" />
		<tag k="ssr:stedsnr" v="422409" />
		<tag k="ssr:type" v="haug" />
	</node>
	<node lat="68.76455833069738" lon="18.02175833741003" id="-40385">
		<tag k="name" v="Reinkalvvatnet - Čearpmatjávri" />
		<tag k="name:no" v="Reinkalvvatnet" />
		<tag k="name:se" v="Čearpmatjávri" />
		<tag k="natural" v="water" />
		<tag k="old_name:se" v="Čærbmatjavri" />
		<tag k="ssr:date" v="2019-12-27" />
		<tag k="ssr:gruppe" v="stilleståendeVann" />
		<tag k="ssr:hovedgruppe" v="ferskvann" />
		<tag k="ssr:stedsnr" v="442437" />
		<tag k="ssr:type" v="tjern" />
	</node>
	<node lat="68.85114721796235" lon="18.015841671018457" id="-40386">
		<tag k="name" v="Elvevollen" />
		<tag k="place" v="farm" />
		<tag k="ssr:date" v="2019-12-27" />
		<tag k="ssr:gruppe" v="gardsbebyggelse" />
		<tag k="ssr:hovedgruppe" v="bebyggelse" />
		<tag k="ssr:stedsnr" v="442533" />
		<tag k="ssr:type" v="bruk" />
	</node>
	<node lat="68.85924166209526" lon="17.798100000857033" id="-40387">
		<tag k="name" v="Lilund" />
		<tag k="place" v="farm" />
		<tag k="ssr:date" v="2019-12-27" />
		<tag k="ssr:gruppe" v="gardsbebyggelse" />
		<tag k="ssr:hovedgruppe" v="bebyggelse" />
		<tag k="ssr:stedsnr" v="442791" />
		<tag k="ssr:type" v="bruk" />
	</node>
	<node lat="68.87519722626298" lon="17.895800000097505" id="-40388">
		<tag k="name" v="Høglund" />
		<tag k="place" v="farm" />
		<tag k="ssr:date" v="2019-12-27" />
		<tag k="ssr:gruppe" v="gardsbebyggelse" />
		<tag k="ssr:hovedgruppe" v="bebyggelse" />
		<tag k="ssr:stedsnr" v="442805" />
		<tag k="ssr:type" v="bruk" />
	</node>
	<node lat="68.90722222042503" lon="17.789744452736965" id="-40389">
		<tag k="name" v="Yttergårdsflaten" />
		<tag k="place" v="locality" />
		<tag k="ssr:date" v="2019-12-27" />
		<tag k="ssr:gruppe" v="dyrkamark" />
		<tag k="ssr:hovedgruppe" v="markslag" />
		<tag k="ssr:stedsnr" v="442839" />
		<tag k="ssr:type" v="jorde" />
	</node>
	<node lat="68.90715731076871" lon="17.806560556355173" id="-40390">
		<tag k="alt_name" v="Heime" />
		<tag k="name" v="Heimet" />
		<tag k="place" v="locality" />
		<tag k="ssr:date" v="2020-02-05" />
		<tag k="ssr:gruppe" v="gardsbebyggelse" />
		<tag k="ssr:hovedgruppe" v="bebyggelse" />
		<tag k="ssr:stedsnr" v="442840" />
		<tag k="ssr:type" v="byggForJordbrukFiskeOgFangst" />
	</node>
	<node lat="68.91139444062826" lon="17.955036110766972" id="-40391">
		<tag k="name" v="Stormyra" />
		<tag k="natural" v="wetland" />
		<tag k="ssr:date" v="2019-12-27" />
		<tag k="ssr:gruppe" v="våtmark" />
		<tag k="ssr:hovedgruppe" v="markslag" />
		<tag k="ssr:stedsnr" v="442846" />
		<tag k="ssr:type" v="myr" />
	</node>
	<node lat="68.9170333322606" lon="17.949658338120184" id="-40392">
		<tag k="alt_name" v="Snebakkmyra" />
		<tag k="name" v="Snøbakkmyra" />
		<tag k="natural" v="wetland" />
		<tag k="ssr:date" v="2019-12-27" />
		<tag k="ssr:gruppe" v="våtmark" />
		<tag k="ssr:hovedgruppe" v="markslag" />
		<tag k="ssr:stedsnr" v="442848" />
		<tag k="ssr:type" v="myr" />
	</node>
	<node lat="68.9519055549317" lon="17.767755554444012" id="-40393">
		<tag k="alt_name" v="Ørneskardbergan" />
		<tag k="name" v="Ørnskarbergan" />
		<tag k="natural" v="hill" />
		<tag k="place" v="locality" />
		<tag k="ssr:date" v="2019-12-27" />
		<tag k="ssr:gruppe" v="høyder" />
		<tag k="ssr:hovedgruppe" v="terreng" />
		<tag k="ssr:stedsnr" v="442938" />
		<tag k="ssr:type" v="berg" />
	</node>
	<node lat="68.94183333034515" lon="17.77178333436215" id="-40394">
		<tag k="name" v="Steintuva" />
		<tag k="natural" v="hill" />
		<tag k="place" v="locality" />
		<tag k="ssr:date" v="2019-12-27" />
		<tag k="ssr:gruppe" v="høyder" />
		<tag k="ssr:hovedgruppe" v="terreng" />
		<tag k="ssr:stedsnr" v="442941" />
		<tag k="ssr:type" v="haug" />
	</node>
	<node lat="68.94418888890891" lon="17.76983054922508" id="-40395">
		<tag k="name" v="Djupelva" />
		<tag k="ssr:date" v="2019-12-27" />
		<tag k="ssr:gruppe" v="rennendeVann" />
		<tag k="ssr:hovedgruppe" v="ferskvann" />
		<tag k="ssr:stedsnr" v="442942" />
		<tag k="ssr:type" v="bekk" />
		<tag k="waterway" v="stream" />
	</node>
	<node lat="68.88847500173135" lon="17.68407777555162" id="-40396">
		<tag k="name" v="Rotvikvatnet" />
		<tag k="natural" v="water" />
		<tag k="ssr:date" v="2019-12-27" />
		<tag k="ssr:gruppe" v="stilleståendeVann" />
		<tag k="ssr:hovedgruppe" v="ferskvann" />
		<tag k="ssr:stedsnr" v="443829" />
		<tag k="ssr:type" v="vann" />
		<tag k="water" v="lake" />
	</node>
	<node lat="68.90051666366209" lon="17.83596110500341" id="-40397">
		<tag k="name" v="Kinnaberget" />
		<tag k="natural" v="hill" />
		<tag k="place" v="locality" />
		<tag k="ssr:date" v="2019-12-27" />
		<tag k="ssr:gruppe" v="høyder" />
		<tag k="ssr:hovedgruppe" v="terreng" />
		<tag k="ssr:stedsnr" v="443833" />
		<tag k="ssr:type" v="berg" />
	</node>
	<node lat="68.86860833616221" lon="18.086102766597943" id="-40398">
		<tag k="name" v="Vangen" />
		<tag k="place" v="locality" />
		<tag k="ssr:date" v="2019-12-27" />
		<tag k="ssr:gruppe" v="flater" />
		<tag k="ssr:hovedgruppe" v="terreng" />
		<tag k="ssr:stedsnr" v="476175" />
		<tag k="ssr:type" v="mo" />
	</node>
	<node lat="68.84195555515491" lon="18.097058326483527" id="-40399">
		<tag k="name" v="Snauhaugen" />
		<tag k="natural" v="hill" />
		<tag k="place" v="locality" />
		<tag k="ssr:date" v="2019-12-27" />
		<tag k="ssr:gruppe" v="høyder" />
		<tag k="ssr:hovedgruppe" v="terreng" />
		<tag k="ssr:stedsnr" v="476270" />
		<tag k="ssr:type" v="haug" />
	</node>
	<node lat="68.89373611439079" lon="17.82861666056724" id="-40400">
		<tag k="name" v="Høgebakken" />
		<tag k="natural" v="slope" />
		<tag k="place" v="locality" />
		<tag k="ssr:date" v="2019-12-27" />
		<tag k="ssr:gruppe" v="skråninger" />
		<tag k="ssr:hovedgruppe" v="terreng" />
		<tag k="ssr:stedsnr" v="481058" />
		<tag k="ssr:type" v="bakke" />
	</node>
	<node lat="68.98834444505563" lon="17.698977769642656" id="-40401">
		<tag k="name" v="Bjørnemyrberget" />
		<tag k="natural" v="hill" />
		<tag k="place" v="locality" />
		<tag k="ssr:date" v="2019-12-27" />
		<tag k="ssr:gruppe" v="høyder" />
		<tag k="ssr:hovedgruppe" v="terreng" />
		<tag k="ssr:stedsnr" v="481077" />
		<tag k="ssr:type" v="berg" />
	</node>
	<node lat="68.87936666653397" lon="17.869341670129288" id="-40402">
		<tag k="name" v="Krokmyra" />
		<tag k="natural" v="wetland" />
		<tag k="ssr:date" v="2019-12-27" />
		<tag k="ssr:gruppe" v="våtmark" />
		<tag k="ssr:hovedgruppe" v="markslag" />
		<tag k="ssr:stedsnr" v="481204" />
		<tag k="ssr:type" v="myr" />
	</node>
	<node lat="68.82558889036417" lon="17.876069447066264" id="-40403">
		<tag k="name" v="Heargegurgohpi" />
		<tag k="name:se" v="Heargegurgohpi" />
		<tag k="natural" v="valley" />
		<tag k="place" v="locality" />
		<tag k="ssr:date" v="2019-12-27" />
		<tag k="ssr:gruppe" v="senkninger" />
		<tag k="ssr:hovedgruppe" v="terreng" />
		<tag k="ssr:stedsnr" v="481257" />
		<tag k="ssr:type" v="botn" />
	</node>
	<node lat="68.93038333589543" lon="17.72242223116673" id="-40404">
		<tag k="name" v="Leirbekken" />
		<tag k="ssr:date" v="2019-12-27" />
		<tag k="ssr:gruppe" v="rennendeVann" />
		<tag k="ssr:hovedgruppe" v="ferskvann" />
		<tag k="ssr:stedsnr" v="481460" />
		<tag k="ssr:type" v="bekk" />
		<tag k="waterway" v="stream" />
	</node>
</osm>
