<?xml version="1.0" encoding="UTF-8"?>
<<<<<<< HEAD
<osm version="0.6" generator="osmapis">
	<node lat="67.397711289819" lon="15.597842154636552" id="-12049">
		<tag k="fixme" v="consider place=hamlet" />
		<tag k="name" v="Buvika" />
		<tag k="place" v="farm" />
		<tag k="ssr:stedsnr" v="16956" />
	</node>
	<node lat="67.40312222454135" lon="15.539169455491033" id="-12050">
		<tag k="name" v="Skyttmoen" />
		<tag k="place" v="farm" />
		<tag k="ssr:stedsnr" v="16957" />
	</node>
	<node lat="67.62437500309278" lon="15.935597230111014" id="-12060">
		<tag k="alt_name" v="Elvegard" />
		<tag k="name" v="Elvegård" />
		<tag k="place" v="farm" />
		<tag k="ssr:stedsnr" v="17614" />
	</node>
	<node lat="67.61207221961212" lon="15.253388879127558" id="-12066">
		<tag k="name" v="Revsnes" />
		<tag k="place" v="farm" />
		<tag k="ssr:stedsnr" v="17901" />
	</node>
	<node lat="67.34695833592097" lon="15.60222221815897" id="-12098">
		<tag k="name" v="Lapphaugen" />
		<tag k="place" v="isolated_dwelling" />
		<tag k="ssr:stedsnr" v="30219" />
	</node>
	<node lat="67.40203610770668" lon="15.668219448293062" id="-12105">
		<tag k="name" v="Åsheim" />
		<tag k="place" v="farm" />
		<tag k="ssr:stedsnr" v="31179" />
	</node>
	<node lat="67.63062777865076" lon="15.933561102818985" id="-12118">
		<tag k="name" v="Skoglund" />
		<tag k="place" v="farm" />
		<tag k="ssr:stedsnr" v="31909" />
	</node>
	<node lat="67.55101388557925" lon="15.483088893455838" id="-12121">
		<tag k="name" v="Ytre Styrkesnes" />
		<tag k="place" v="farm" />
		<tag k="ssr:stedsnr" v="39762" />
	</node>
	<node lat="67.45827777937502" lon="15.469472213234157" id="-12123">
		<tag k="name" v="Mølnmoen" />
		<tag k="place" v="farm" />
		<tag k="ssr:stedsnr" v="43922" />
	</node>
	<node lat="67.72100555997015" lon="15.895641668365348" id="-12134">
		<tag k="name" v="Skamoa" />
		<tag k="place" v="isolated_dwelling" />
		<tag k="ssr:stedsnr" v="77554" />
	</node>
	<node lat="67.59155833354482" lon="15.858366667142363" id="-12137">
		<tag k="alt_name" v="Elvkroken" />
		<tag k="name" v="Elvekroken" />
		<tag k="place" v="farm" />
		<tag k="ssr:stedsnr" v="77611" />
	</node>
	<node lat="67.39820277524147" lon="15.670205555644937" id="-12171">
		<tag k="name" v="Veslegård" />
		<tag k="place" v="farm" />
		<tag k="ssr:stedsnr" v="92175" />
	</node>
	<node lat="67.39941944513998" lon="15.66697221424612" id="-12172">
		<tag k="name" v="Lindeheim" />
		<tag k="place" v="farm" />
		<tag k="ssr:stedsnr" v="92176" />
	</node>
	<node lat="67.45465747295849" lon="15.472386644401528" id="-12188">
		<tag k="alt_name" v="Ånsvik;Ånunsvik" />
		<tag k="fixme" v="consider place=hamlet" />
		<tag k="name" v="Ånsvika" />
		<tag k="place" v="farm" />
		<tag k="ssr:stedsnr" v="137512" />
	</node>
	<node lat="67.5448870036341" lon="15.264644488797812" id="-12212">
		<tag k="fixme" v="consider place=hamlet" />
		<tag k="name" v="Haukenes" />
		<tag k="place" v="farm" />
		<tag k="ssr:stedsnr" v="138947" />
	</node>
	<node lat="67.55234722208932" lon="15.674886118114976" id="-12228">
		<tag k="name" v="Lisj-Kalvika" />
		<tag k="place" v="farm" />
		<tag k="ssr:stedsnr" v="142829" />
	</node>
	<node lat="67.59493889272936" lon="15.935300003473523" id="-12248">
		<tag k="name" v="Westgård" />
		<tag k="place" v="farm" />
		<tag k="ssr:stedsnr" v="152603" />
	</node>
	<node lat="67.6378944482774" lon="15.961588888777314" id="-12252">
		<tag k="name" v="Teigan" />
		<tag k="place" v="farm" />
		<tag k="ssr:stedsnr" v="152900" />
	</node>
	<node lat="67.4197217940825" lon="15.567430677707891" id="-12261">
		<tag k="name" v="Inner-Låkthågen" />
		<tag k="place" v="farm" />
		<tag k="ssr:stedsnr" v="259529" />
	</node>
	<node lat="67.41868879347243" lon="15.652548522921164" id="-12262">
		<tag k="alt_name" v="Torkeleng;Torkilseng" />
		<tag k="fixme" v="consider place=hamlet" />
		<tag k="name" v="Torkelseng" />
		<tag k="place" v="farm" />
		<tag k="ssr:stedsnr" v="259530" />
	</node>
	<node lat="67.4739722235634" lon="15.547402775870157" id="-12263">
		<tag k="name" v="Ytter-Kalvika" />
		<tag k="place" v="hamlet" />
		<tag k="ssr:stedsnr" v="259538" />
	</node>
	<node lat="67.57654444463866" lon="15.438233339797783" id="-12280">
		<tag k="name" v="Botn" />
		<tag k="place" v="farm" />
		<tag k="ssr:stedsnr" v="259891" />
	</node>
	<node lat="67.5737083291917" lon="15.464591665220336" id="-12283">
		<tag k="name" v="Haugan" />
		<tag k="place" v="farm" />
		<tag k="ssr:stedsnr" v="259976" />
	</node>
	<node lat="67.50112500263715" lon="15.28813055429494" id="-12289">
		<tag k="name" v="Tennvika" />
		<tag k="place" v="farm" />
		<tag k="ssr:stedsnr" v="260971" />
	</node>
	<node lat="67.71088888912756" lon="15.85463888696608" id="-12300">
		<tag k="name" v="Elenjorda" />
		<tag k="place" v="hamlet" />
		<tag k="ssr:stedsnr" v="263090" />
	</node>
	<node lat="67.69041389233932" lon="15.840583328337502" id="-12301">
		<tag k="name" v="Sildhopen" />
		<tag k="place" v="farm" />
		<tag k="ssr:stedsnr" v="263131" />
	</node>
	<node lat="67.68938371134666" lon="15.810580587474819" id="-12302">
		<tag k="fixme" v="consider place=hamlet" />
		<tag k="name" v="Storeidet" />
		<tag k="place" v="farm" />
		<tag k="ssr:stedsnr" v="263318" />
	</node>
	<node lat="67.6268998559268" lon="15.926498083757057" id="-12348">
		<tag k="fixme" v="consider place=hamlet" />
		<tag k="name" v="Vesterbotn" />
		<tag k="place" v="farm" />
		<tag k="ssr:stedsnr" v="199603" />
	</node>
	<node lat="67.39395967730015" lon="15.688586316867294" id="-12405">
		<tag k="name" v="Andkilen" />
		<tag k="place" v="farm" />
		<tag k="ssr:stedsnr" v="234300" />
	</node>
	<node lat="67.43565833590218" lon="15.735191656589917" id="-12426">
		<tag k="name" v="Moenga" />
		<tag k="place" v="farm" />
		<tag k="ssr:stedsnr" v="258263" />
	</node>
	<node lat="67.47402778222445" lon="15.546716656759209" id="-12428">
		<tag k="name" v="Inner-Aspenes" />
		<tag k="place" v="farm" />
		<tag k="ssr:stedsnr" v="258602" />
	</node>
	<node lat="67.69121388716304" lon="15.805541672656744" id="-12436">
		<tag k="name" v="Lisjeide" />
		<tag k="place" v="farm" />
		<tag k="ssr:stedsnr" v="259513" />
	</node>
	<node lat="67.4111277775611" lon="15.609666658449491" id="-12446">
		<tag k="name" v="Slåttvika" />
		<tag k="place" v="farm" />
		<tag k="ssr:stedsnr" v="259939" />
	</node>
	<node lat="67.52374444147816" lon="15.494505557824457" id="-12447">
		<tag k="alt_name" v="Hjellvika" />
		<tag k="name" v="Hjellvik" />
		<tag k="place" v="hamlet" />
		<tag k="ssr:stedsnr" v="259941" />
	</node>
	<node lat="67.53785000164255" lon="15.295166675419582" id="-12448">
		<tag k="name" v="Storvika" />
		<tag k="place" v="farm" />
		<tag k="ssr:stedsnr" v="259944" />
	</node>
	<node lat="67.45237778026421" lon="15.771769447571" id="-12454">
		<tag k="fixme" v="consider place=hamlet" />
		<tag k="name" v="Lakshol" />
		<tag k="place" v="village" />
		<tag k="ssr:stedsnr" v="259815" />
	</node>
	<node lat="67.40928055158705" lon="15.657297226391123" id="-12482">
		<tag k="name" v="Hestmo" />
		<tag k="place" v="farm" />
		<tag k="ssr:stedsnr" v="274220" />
	</node>
	<node lat="67.60596944288737" lon="15.715697213489008" id="-12485">
		<tag k="name" v="Kroken" />
		<tag k="place" v="farm" />
		<tag k="ssr:stedsnr" v="274472" />
	</node>
	<node lat="67.37508333298332" lon="15.53644167767934" id="-12495">
		<tag k="name" v="Bakken" />
		<tag k="place" v="farm" />
		<tag k="ssr:stedsnr" v="286234" />
	</node>
	<node lat="67.55066111429463" lon="15.671288897059446" id="-12522">
		<tag k="name" v="Sommerset" />
		<tag k="place" v="farm" />
		<tag k="ssr:stedsnr" v="320997" />
	</node>
	<node lat="67.6901277743815" lon="15.844933331914257" id="-12525">
=======
<osm generator="osmapis" version="0.6">
	<node id="-177150" lat="67.3548055518" lon="15.5508805555">
		<tag k="alt_name" v="Seljåsdalen" />
		<tag k="name" v="Seljeåsdalen" />
		<tag k="place" v="farm" />
		<tag k="ssr:stedsnr" v="744870" />
	</node>
	<node id="-178173" lat="67.3743444094" lon="15.6326329902">
		<tag k="fixme" v="consider place=hamlet" />
		<tag k="name" v="Helland" />
		<tag k="place" v="farm" />
		<tag k="ssr:stedsnr" v="379978" />
	</node>
	<node id="-176122" lat="67.6120722196" lon="15.2533888791">
		<tag k="name" v="Revsnes" />
		<tag k="place" v="farm" />
		<tag k="ssr:stedsnr" v="17901" />
	</node>
	<node id="-178166" lat="67.4759916672" lon="15.5355499967">
		<tag k="name" v="Tømmervika" />
		<tag k="place" v="isolated_dwelling" />
		<tag k="ssr:stedsnr" v="379586" />
	</node>
	<node id="-176382" lat="67.6268998559" lon="15.9264980838">
		<tag k="fixme" v="consider place=hamlet" />
		<tag k="name" v="Vesterbotn" />
		<tag k="place" v="farm" />
		<tag k="ssr:stedsnr" v="199603" />
	</node>
	<node id="-178771" lat="67.4614194442" lon="15.5518666616">
		<tag k="alt_name" v="Litløverkvarv" />
		<tag k="name" v="Lillekvarv" />
		<tag k="place" v="farm" />
		<tag k="ssr:stedsnr" v="805534" />
	</node>
	<node id="-178159" lat="67.4443777808" lon="15.1371333452">
		<tag k="name" v="Tornesmarka" />
		<tag k="place" v="isolated_dwelling" />
		<tag k="ssr:stedsnr" v="346614" />
	</node>
	<node id="-176637" lat="67.3931496853" lon="15.6882208071">
		<tag k="fixme" v="consider place=hamlet" />
		<tag k="name" v="Andkilen" />
		<tag k="old_name" v="Andkilo" />
		<tag k="place" v="farm" />
		<tag k="ssr:stedsnr" v="502979" />
	</node>
	<node id="-176551" lat="67.3717722217" lon="15.5397694389">
		<tag k="name" v="Myrvoll" />
		<tag k="place" v="farm" />
		<tag k="ssr:stedsnr" v="273756" />
	</node>
	<node id="-178152" lat="67.6372277814" lon="15.9660111132">
		<tag k="name" v="Alfheim" />
		<tag k="place" v="farm" />
		<tag k="ssr:stedsnr" v="334876" />
	</node>
	<node id="-178151" lat="67.577463886" lon="15.8994055478">
		<tag k="name" v="Kveldmoen" />
		<tag k="place" v="farm" />
		<tag k="ssr:stedsnr" v="334854" />
	</node>
	<node id="-177126" lat="67.3754666687" lon="15.6358972114">
		<tag k="name" v="Lyngen" />
		<tag k="place" v="isolated_dwelling" />
		<tag k="ssr:stedsnr" v="893171" />
	</node>
	<node id="-177124" lat="67.6297833354" lon="15.9297888984">
		<tag k="name" v="Hamran" />
		<tag k="place" v="isolated_dwelling" />
		<tag k="ssr:stedsnr" v="698907" />
	</node>
	<node id="-177635" lat="67.5021861149" lon="15.6696555641">
		<tag k="name" v="Lapplægran" />
		<tag k="place" v="locality" />
		<tag k="ssr:stedsnr" v="81763" />
	</node>
	<node id="-176610" lat="67.4030956578" lon="15.6879688736">
		<tag k="alt_name" v="Steinbakk;Steinbakken" />
		<tag k="fixme" v="consider place=hamlet" />
		<tag k="name" v="Steinbakkan" />
		<tag k="place" v="farm" />
		<tag k="ssr:stedsnr" v="501956" />
	</node>
	<node id="-177117" lat="67.5944277761" lon="15.9369111159">
		<tag k="name" v="Eidet" />
		<tag k="place" v="farm" />
		<tag k="ssr:stedsnr" v="698553" />
	</node>
	<node id="-178140" lat="67.4778833322" lon="15.4630916647">
		<tag k="name" v="Skogstua" />
		<tag k="place" v="isolated_dwelling" />
		<tag k="ssr:stedsnr" v="334388" />
	</node>
	<node id="-178137" lat="67.5814361104" lon="15.7328305448">
		<tag k="name" v="Stormoen" />
		<tag k="place" v="farm" />
		<tag k="ssr:stedsnr" v="334285" />
	</node>
	<node id="-176599" lat="67.4993611101" lon="15.3881861075">
		<tag k="name" v="Gammovika" />
		<tag k="place" v="farm" />
		<tag k="ssr:stedsnr" v="501548" />
	</node>
	<node id="-178645" lat="67.5744295353" lon="15.9080493119">
		<tag k="fixme" v="consider place=hamlet" />
		<tag k="name" v="Sørfjorddalen" />
		<tag k="place" v="farm" />
		<tag k="ssr:stedsnr" v="745701" />
	</node>
	<node id="-178132" lat="67.4041082233" lon="15.6812419925">
		<tag k="alt_name" v="Paulhaugøyr;Pålhaugsøyren" />
		<tag k="fixme" v="consider place=hamlet" />
		<tag k="loc_name" v="Pålhågsøyra" />
		<tag k="name" v="Pålhaugsøyra" />
		<tag k="place" v="farm" />
		<tag k="ssr:stedsnr" v="334179" />
	</node>
	<node id="-176594" lat="67.6041120055" lon="15.7283050643">
		<tag k="alt_name" v="Bonå" />
		<tag k="fixme" v="consider place=hamlet" />
		<tag k="name" v="Bonnå" />
		<tag k="place" v="village" />
		<tag k="ssr:stedsnr" v="381605" />
	</node>
	<node id="-177104" lat="67.4420165082" lon="15.7262946224">
		<tag k="fixme" v="consider place=hamlet" />
		<tag k="name" v="Bakken" />
		<tag k="place" v="farm" />
		<tag k="ssr:stedsnr" v="684811" />
	</node>
	<node id="-178639" lat="67.4078194467" lon="15.6554666739">
		<tag k="alt_name" v="Nedregård" />
		<tag k="fixme" v="consider place=hamlet" />
		<tag k="name" v="Nerigården" />
		<tag k="place" v="farm" />
		<tag k="ssr:stedsnr" v="744933" />
	</node>
	<node id="-178637" lat="67.3613010378" lon="15.5855381716">
		<tag k="alt_name" v="Valljord" />
		<tag k="name" v="Valljorda" />
		<tag k="place" v="quarter" />
		<tag k="ssr:stedsnr" v="744892" />
	</node>
	<node id="-176588" lat="67.5762583326" lon="15.7705833211">
		<tag k="alt_name" v="Leirfjordgården" />
		<tag k="name" v="Leirfjordgård" />
		<tag k="place" v="hamlet" />
		<tag k="ssr:stedsnr" v="380709" />
	</node>
	<node id="-177611" lat="67.535836111" lon="15.4585333391">
		<tag k="name" v="Jektvika" />
		<tag k="place" v="farm" />
		<tag k="ssr:stedsnr" v="78961" />
	</node>
	<node id="-177098" lat="67.4246576011" lon="15.5545511445">
		<tag k="name" v="Ytter-Låkthågen" />
		<tag k="place" v="farm" />
		<tag k="ssr:stedsnr" v="684533" />
	</node>
	<node id="-176585" lat="67.4824499976" lon="15.6003555536">
		<tag k="name" v="Austre Aspfjorden" />
		<tag k="place" v="farm" />
		<tag k="ssr:stedsnr" v="379611" />
	</node>
	<node id="-177095" lat="67.6923250044" lon="15.8023222183">
		<tag k="name" v="Bratten" />
		<tag k="place" v="farm" />
		<tag k="ssr:stedsnr" v="684510" />
	</node>
	<node id="-177602" lat="67.6285666657" lon="15.7336694381">
		<tag k="name" v="Kleksbakkan" />
		<tag k="place" v="farm" />
		<tag k="ssr:stedsnr" v="78580" />
	</node>
	<node id="-178625" lat="67.4743106758" lon="15.2287212466">
		<tag k="fixme" v="consider place=hamlet" />
		<tag k="name" v="Vassvika" />
		<tag k="place" v="farm" />
		<tag k="ssr:stedsnr" v="744593" />
	</node>
	<node id="-176576" lat="67.3732472237" lon="15.5438027692">
		<tag k="name" v="Gammelgarden" />
		<tag k="place" v="farm" />
		<tag k="ssr:stedsnr" v="334244" />
	</node>
	<node id="-177087" lat="67.4781166689" lon="15.4617305543">
		<tag k="alt_name" v="Røsvik" />
		<tag k="fixme" v="consider place=hamlet" />
		<tag k="name" v="Røsvika" />
		<tag k="place" v="village" />
		<tag k="ssr:stedsnr" v="683578" />
	</node>
	<node id="-176257" lat="67.5011250026" lon="15.2881305543">
		<tag k="name" v="Tennvika" />
		<tag k="place" v="farm" />
		<tag k="ssr:stedsnr" v="260971" />
	</node>
	<node id="-176571" lat="67.3984166629" lon="15.5977888773">
		<tag k="name" v="Gammelgard" />
		<tag k="place" v="farm" />
		<tag k="ssr:stedsnr" v="334206" />
	</node>
	<node id="-178618" lat="67.456205554" lon="15.4723416721">
		<tag k="name" v="Vollan" />
		<tag k="place" v="farm" />
		<tag k="ssr:stedsnr" v="744487" />
	</node>
	<node id="-177852" lat="67.3962999976" lon="15.6048111109">
		<tag k="name" v="Ura" />
		<tag k="place" v="isolated_dwelling" />
		<tag k="ssr:stedsnr" v="164181" />
	</node>
	<node id="-178103" lat="67.5515416687" lon="15.6283555557">
		<tag k="name" v="Brattlihula" />
		<tag k="place" v="locality" />
		<tag k="ssr:stedsnr" v="324837" />
	</node>
	<node id="-177589" lat="67.3509013074" lon="15.5588602511">
		<tag k="alt_name" v="Seljåsen, nedre" />
		<tag k="fixme" v="consider place=hamlet" />
		<tag k="name" v="Nerseljeåsen" />
		<tag k="place" v="farm" />
		<tag k="ssr:stedsnr" v="77891" />
	</node>
	<node id="-178612" lat="67.6917694441" lon="15.8021388884">
		<tag k="name" v="Steinodden" />
		<tag k="place" v="isolated_dwelling" />
		<tag k="ssr:stedsnr" v="649790" />
	</node>
	<node id="-178092" lat="67.6901277744" lon="15.8449333319">
>>>>>>> e1d4bc35ff8a6074a6f2e91616a996b547c36f15
		<tag k="name" v="Sildhopen - Silldavuohppe" />
		<tag k="name:no" v="Sildhopen" />
		<tag k="name:smj" v="Silldavuohppe" />
		<tag k="old_name:smj" v="Sildavuohppi" />
		<tag k="place" v="hamlet" />
		<tag k="ssr:stedsnr" v="324121" />
<<<<<<< HEAD
	</node>
	<node lat="67.5515416686776" lon="15.628355555671911" id="-12533">
		<tag k="name" v="Brattlihula" />
		<tag k="place" v="locality" />
		<tag k="ssr:stedsnr" v="324837" />
	</node>
	<node lat="67.39746111354967" lon="15.605249992245765" id="-12539">
		<tag k="name" v="Aspkråga" />
		<tag k="place" v="farm" />
		<tag k="ssr:stedsnr" v="334205" />
	</node>
	<node lat="67.39841666285824" lon="15.597788877270522" id="-12540">
		<tag k="name" v="Gammelgard" />
		<tag k="place" v="farm" />
		<tag k="ssr:stedsnr" v="334206" />
	</node>
	<node lat="67.5774638859513" lon="15.899405547795524" id="-12553">
		<tag k="name" v="Kveldmoen" />
		<tag k="place" v="farm" />
		<tag k="ssr:stedsnr" v="334854" />
	</node>
	<node lat="67.48244999757536" lon="15.600355553563304" id="-12561">
		<tag k="name" v="Austre Aspfjorden" />
		<tag k="place" v="farm" />
		<tag k="ssr:stedsnr" v="379611" />
	</node>
	<node lat="67.49963889196133" lon="15.155819440505354" id="-12562">
		<tag k="name" v="Sjunkan" />
		<tag k="place" v="hamlet" />
		<tag k="ssr:stedsnr" v="379615" />
	</node>
	<node lat="67.71155608746734" lon="15.856557610459753" id="-12570">
		<tag k="fixme" v="consider place=hamlet" />
		<tag k="name" v="Elenjorda" />
		<tag k="place" v="farm" />
		<tag k="ssr:stedsnr" v="380563" />
	</node>
	<node lat="67.57625833255177" lon="15.770583321096161" id="-12575">
		<tag k="alt_name" v="Leirfjordgården" />
		<tag k="name" v="Leirfjordgård" />
		<tag k="place" v="hamlet" />
		<tag k="ssr:stedsnr" v="380709" />
	</node>
	<node lat="67.49961110939739" lon="15.377188880701734" id="-12576">
		<tag k="fixme" v="consider place=hamlet" />
		<tag k="name" v="Korsvika" />
		<tag k="place" v="farm" />
		<tag k="ssr:stedsnr" v="380603" />
	</node>
	<node lat="67.57702778001938" lon="15.886336104881702" id="-12577">
		<tag k="alt_name" v="Sørfjordmo" />
		<tag k="name" v="Sørfjordmoen" />
		<tag k="place" v="hamlet" />
		<tag k="ssr:stedsnr" v="380619" />
	</node>
	<node lat="67.37994444418705" lon="15.541202786300419" id="-12581">
		<tag k="name" v="Nymoen" />
		<tag k="place" v="farm" />
		<tag k="ssr:stedsnr" v="380965" />
	</node>
	<node lat="67.6041120055115" lon="15.728305064250504" id="-12593">
		<tag k="alt_name" v="Bonå" />
		<tag k="fixme" v="consider place=hamlet" />
		<tag k="name" v="Bonnå" />
		<tag k="place" v="village" />
		<tag k="ssr:stedsnr" v="381605" />
	</node>
	<node lat="67.56428611196633" lon="15.669011115562478" id="-12597">
		<tag k="name" v="Kvantoland" />
		<tag k="place" v="hamlet" />
		<tag k="ssr:stedsnr" v="381977" />
	</node>
	<node lat="67.4806749999865" lon="15.46611667674798" id="-12629">
		<tag k="name" v="Kirkenær" />
		<tag k="place" v="farm" />
		<tag k="ssr:stedsnr" v="395402" />
	</node>
	<node lat="67.58487222644307" lon="15.817224995162114" id="-12645">
		<tag k="name" v="Engan" />
=======
	</node>
	<node id="-177576" lat="67.5915583335" lon="15.8583666671">
		<tag k="alt_name" v="Elvkroken" />
		<tag k="name" v="Elvekroken" />
		<tag k="place" v="farm" />
		<tag k="ssr:stedsnr" v="77611" />
	</node>
	<node id="-178599" lat="67.5917583293" lon="15.8889833251">
		<tag k="name" v="Framsteg" />
		<tag k="place" v="isolated_dwelling" />
		<tag k="ssr:stedsnr" v="637577" />
	</node>
	<node id="-177574" lat="67.4323722215" lon="15.5045361191">
		<tag k="name" v="Burre" />
		<tag k="place" v="farm" />
		<tag k="ssr:stedsnr" v="77595" />
	</node>
	<node id="-176369" lat="67.375083333" lon="15.5364416777">
		<tag k="name" v="Bakken" />
		<tag k="place" v="farm" />
		<tag k="ssr:stedsnr" v="286234" />
	</node>
	<node id="-177572" lat="67.7481888873" lon="15.739436117">
		<tag k="name" v="Ner-Salhus" />
		<tag k="place" v="farm" />
		<tag k="ssr:stedsnr" v="77584" />
	</node>
	<node id="-178083" lat="67.5506611143" lon="15.6712888971">
		<tag k="name" v="Sommerset" />
		<tag k="place" v="farm" />
		<tag k="ssr:stedsnr" v="320997" />
	</node>
	<node id="-177569" lat="67.72100556" lon="15.8956416684">
		<tag k="name" v="Skamoa" />
		<tag k="place" v="isolated_dwelling" />
		<tag k="ssr:stedsnr" v="77554" />
	</node>
	<node id="-176880" lat="67.5747999983" lon="15.7711555616">
		<tag k="name" v="Buberg" />
		<tag k="place" v="isolated_dwelling" />
		<tag k="ssr:stedsnr" v="516432" />
	</node>
	<node id="-178078" lat="67.5196027808" lon="15.5209583348">
		<tag k="name" v="Skogvoll" />
		<tag k="place" v="farm" />
		<tag k="ssr:stedsnr" v="320965" />
	</node>
	<node id="-177565" lat="67.6957805568" lon="15.7981722103">
		<tag k="name" v="Skogheim" />
		<tag k="place" v="isolated_dwelling" />
		<tag k="ssr:stedsnr" v="77530" />
	</node>
	<node id="-178074" lat="67.527369448" lon="15.4921805527">
		<tag k="name" v="Lia" />
		<tag k="place" v="farm" />
		<tag k="ssr:stedsnr" v="320951" />
	</node>
	<node id="-177047" lat="67.5173888922" lon="15.5167833302">
		<tag k="name" v="Strøksnes" />
		<tag k="place" v="farm" />
		<tag k="ssr:stedsnr" v="646656" />
	</node>
	<node id="-179094" lat="67.6909077491" lon="15.8022641808">
		<tag k="fixme" v="consider place=hamlet" />
		<tag k="name" v="Lisjeidet" />
		<tag k="place" v="farm" />
		<tag k="ssr:stedsnr" v="1076005" />
	</node>
	<node id="-178581" lat="67.6325861122" lon="15.9808777739">
		<tag k="name" v="Brennhaugmoa" />
		<tag k="place" v="farm" />
		<tag k="ssr:stedsnr" v="637037" />
	</node>
	<node id="-179092" lat="67.7268290329" lon="15.9347273894">
		<tag k="fixme" v="consider place=hamlet" />
		<tag k="name" v="Mørsry" />
		<tag k="place" v="farm" />
		<tag k="ssr:stedsnr" v="1075999" />
	</node>
	<node id="-177555" lat="67.4582777794" lon="15.4694722132">
		<tag k="name" v="Mølnmoen" />
		<tag k="place" v="farm" />
		<tag k="ssr:stedsnr" v="43922" />
	</node>
	<node id="-179090" lat="67.5149509901" lon="15.1961897472">
		<tag k="alt_name" v="Furkvik" />
		<tag k="name" v="Purkvika" />
		<tag k="place" v="locality" />
		<tag k="ssr:stedsnr" v="1075997" />
	</node>
	<node id="-179089" lat="67.5080065663" lon="15.2857645414">
		<tag k="fixme" v="consider place=hamlet" />
		<tag k="name" v="Jovika" />
		<tag k="place" v="farm" />
		<tag k="ssr:stedsnr" v="1075875" />
	</node>
	<node id="-179088" lat="67.4781205698" lon="15.4648853318">
		<tag k="fixme" v="consider place=hamlet" />
		<tag k="name" v="Røsvika" />
		<tag k="place" v="farm" />
		<tag k="ssr:stedsnr" v="1075873" />
	</node>
	<node id="-179087" lat="67.3566218122" lon="15.5517209568">
		<tag k="fixme" v="consider place=hamlet" />
		<tag k="name" v="Øvre Seljåsen" />
		<tag k="place" v="farm" />
		<tag k="ssr:stedsnr" v="1075866" />
	</node>
	<node id="-178574" lat="67.5237444415" lon="15.4945055578">
		<tag k="name" v="Hestvik" />
		<tag k="old_name" v="Hestvika" />
>>>>>>> e1d4bc35ff8a6074a6f2e91616a996b547c36f15
		<tag k="place" v="hamlet" />
		<tag k="ssr:stedsnr" v="632491" />
	</node>
<<<<<<< HEAD
	<node lat="67.40942777519248" lon="15.681391657428943" id="-12655">
		<tag k="name" v="Fjellheim" />
		<tag k="place" v="farm" />
		<tag k="ssr:stedsnr" v="441942" />
	</node>
	<node lat="67.71595555421004" lon="15.871902771655277" id="-12667">
		<tag k="name" v="Forrbakken" />
		<tag k="place" v="farm" />
		<tag k="ssr:stedsnr" v="446076" />
	</node>
	<node lat="67.40995555953359" lon="15.587377767417863" id="-12670">
		<tag k="name" v="Inner-Tørrfjordsjæret" />
		<tag k="place" v="farm" />
		<tag k="ssr:stedsnr" v="446398" />
	</node>
	<node lat="67.34404721828929" lon="15.592811113599263" id="-12682">
		<tag k="amenity" v="school" />
		<tag k="name" v="Sørfold Ungdomsskole" />
		<tag k="ssr:stedsnr" v="455206" />
	</node>
	<node lat="67.5207694438271" lon="15.500661101181263" id="-12683">
		<tag k="amenity" v="school" />
		<tag k="name" v="Hestvik skole" />
		<tag k="ssr:stedsnr" v="455317" />
	</node>
	<node lat="67.42509444671246" lon="15.93543611339441" id="-12697">
		<tag k="name" v="Litlverivasshytta" />
		<tag k="place" v="isolated_dwelling" />
		<tag k="ssr:stedsnr" v="501239" />
	</node>
	<node lat="67.43663975368108" lon="15.484752556691305" id="-12703">
		<tag k="alt_name" v="Kinesmoen" />
		<tag k="fixme" v="consider place=hamlet" />
		<tag k="name" v="Kines" />
		<tag k="place" v="farm" />
		<tag k="ssr:stedsnr" v="501531" />
	</node>
	<node lat="67.35065689464142" lon="15.57618338353897" id="-12706">
		<tag k="alt_name" v="Strømdal" />
		<tag k="fixme" v="consider place=hamlet" />
		<tag k="name" v="Straumdal" />
		<tag k="place" v="farm" />
		<tag k="ssr:stedsnr" v="501905" />
	</node>
	<node lat="67.39314968528926" lon="15.688220807122864" id="-12723">
		<tag k="fixme" v="consider place=hamlet" />
		<tag k="name" v="Andkilen" />
		<tag k="old_name" v="Andkilo" />
		<tag k="place" v="farm" />
		<tag k="ssr:stedsnr" v="502979" />
	</node>
	<node lat="67.6207555552719" lon="15.474530548159274" id="-12737">
		<tag k="name" v="Kroken" />
		<tag k="place" v="farm" />
		<tag k="ssr:stedsnr" v="506615" />
	</node>
	<node lat="67.37238611028097" lon="15.535588897083269" id="-12752">
		<tag k="alt_name" v="Djupvik" />
		<tag k="fixme" v="consider place=hamlet" />
		<tag k="name" v="Djupvika" />
		<tag k="place" v="farm" />
		<tag k="ssr:stedsnr" v="683995" />
	</node>
	<node lat="67.47811666887127" lon="15.461730554317663" id="-12759">
		<tag k="alt_name" v="Røsvik" />
=======
	<node id="-179085" lat="67.3061122244" lon="15.6798520842">
		<tag k="name" v="Røyrvasseidet" />
		<tag k="place" v="locality" />
		<tag k="ssr:stedsnr" v="1075861" />
	</node>
	<node id="-179084" lat="67.3501804263" lon="15.606380409">
		<tag k="fixme" v="consider place=hamlet" />
		<tag k="name" v="Straumen" />
		<tag k="place" v="farm" />
		<tag k="ssr:stedsnr" v="1075802" />
	</node>
	<node id="-179083" lat="67.4019695116" lon="15.6562249591">
		<tag k="alt_name" v="Nordre Evjen" />
		<tag k="fixme" v="consider place=hamlet" />
		<tag k="name" v="Øvre Evja" />
		<tag k="place" v="farm" />
		<tag k="ssr:stedsnr" v="1075799" />
	</node>
	<node id="-179082" lat="67.3972032161" lon="15.7159786894">
		<tag k="alt_name" v="Hellarvik" />
		<tag k="fixme" v="consider place=hamlet" />
		<tag k="name" v="Hellarvika" />
		<tag k="place" v="farm" />
		<tag k="ssr:stedsnr" v="1075797" />
	</node>
	<node id="-179081" lat="67.4528235871" lon="15.7637692729">
		<tag k="alt_name" v="Lakshålen" />
		<tag k="fixme" v="consider place=hamlet" />
		<tag k="name" v="Lakshol" />
		<tag k="place" v="farm" />
		<tag k="ssr:stedsnr" v="1075792" />
	</node>
	<node id="-179080" lat="67.4113129159" lon="15.5829626123">
		<tag k="alt_name" v="Tørrfjordskjær" />
		<tag k="fixme" v="consider place=hamlet" />
		<tag k="name" v="Tørrfjordskjæret" />
		<tag k="place" v="farm" />
		<tag k="ssr:stedsnr" v="1075791" />
	</node>
	<node id="-179079" lat="67.4453708968" lon="15.5575144146">
		<tag k="fixme" v="consider place=hamlet" />
		<tag k="name" v="Gyltvikmoen" />
		<tag k="place" v="farm" />
		<tag k="ssr:stedsnr" v="1075713" />
	</node>
	<node id="-179078" lat="67.4814356605" lon="15.5970486607">
		<tag k="fixme" v="consider place=hamlet" />
		<tag k="loc_name" v="Ospfjorden" />
		<tag k="name" v="Aspfjorden" />
		<tag k="place" v="farm" />
		<tag k="ssr:stedsnr" v="1075712" />
	</node>
	<node id="-179077" lat="67.5170276099" lon="15.5885946664">
		<tag k="alt_name" v="Kalvik" />
		<tag k="fixme" v="consider place=hamlet" />
		<tag k="name" v="Kalvika" />
		<tag k="place" v="farm" />
		<tag k="ssr:stedsnr" v="1075711" />
	</node>
	<node id="-179076" lat="67.5767210574" lon="15.8842558876">
		<tag k="fixme" v="consider place=hamlet" />
		<tag k="name" v="Sørfjordmoen" />
		<tag k="place" v="farm" />
		<tag k="ssr:stedsnr" v="1075710" />
	</node>
	<node id="-179075" lat="67.6013785323" lon="15.993749264">
		<tag k="fixme" v="consider place=hamlet" />
		<tag k="name" v="Austerelva" />
		<tag k="place" v="farm" />
		<tag k="ssr:stedsnr" v="1075705" />
	</node>
	<node id="-179074" lat="67.5751263879" lon="15.7668724663">
		<tag k="fixme" v="consider place=hamlet" />
		<tag k="name" v="Leirfjord" />
		<tag k="place" v="farm" />
		<tag k="ssr:stedsnr" v="1075699" />
	</node>
	<node id="-178561" lat="67.5602111146" lon="15.645450004">
		<tag k="name" v="Gunnarlægeret" />
		<tag k="place" v="locality" />
		<tag k="ssr:stedsnr" v="627920" />
	</node>
	<node id="-176511" lat="67.4523777803" lon="15.7717694476">
>>>>>>> e1d4bc35ff8a6074a6f2e91616a996b547c36f15
		<tag k="fixme" v="consider place=hamlet" />
		<tag k="name" v="Røsvika" />
		<tag k="place" v="village" />
<<<<<<< HEAD
		<tag k="ssr:stedsnr" v="683578" />
	</node>
	<node lat="67.43386388810622" lon="15.674238880281468" id="-12762">
		<tag k="fixme" v="consider place=hamlet" />
		<tag k="name" v="Solskinnsbakkan" />
		<tag k="old_name" v="Solskinsbakken" />
		<tag k="place" v="farm" />
		<tag k="ssr:stedsnr" v="683535" />
	</node>
	<node lat="67.40655185530674" lon="15.659279473969288" id="-12770">
		<tag k="alt_name" v="Megård" />
		<tag k="fixme" v="consider place=hamlet" />
		<tag k="name" v="Megården" />
		<tag k="place" v="farm" />
		<tag k="ssr:stedsnr" v="683931" />
	</node>
	<node lat="67.4796777821757" lon="15.470069443207423" id="-12778">
		<tag k="name" v="Prestegård" />
		<tag k="place" v="farm" />
		<tag k="ssr:stedsnr" v="516407" />
	</node>
	<node lat="67.51952777518007" lon="15.524427784822468" id="-12780">
		<tag k="name" v="Vollan" />
		<tag k="place" v="farm" />
		<tag k="ssr:stedsnr" v="516424" />
	</node>
	<node lat="67.35184999988434" lon="16.027019445672238" id="-12795">
		<tag k="name" v="Veiskibu" />
		<tag k="place" v="isolated_dwelling" />
		<tag k="ssr:stedsnr" v="684290" />
	</node>
	<node lat="67.42465760112884" lon="15.55455114453786" id="-12800">
		<tag k="name" v="Ytter-Låkthågen" />
		<tag k="place" v="farm" />
		<tag k="ssr:stedsnr" v="684533" />
	</node>
	<node lat="67.58937778033824" lon="15.224413880394708" id="-12814">
		<tag k="name" v="Rørstad" />
		<tag k="place" v="hamlet" />
		<tag k="ssr:stedsnr" v="684876" />
	</node>
	<node lat="67.58838888886062" lon="15.2177722267018" id="-12879">
		<tag k="name" v="Rognan" />
		<tag k="place" v="farm" />
		<tag k="ssr:stedsnr" v="567016" />
	</node>
	<node lat="67.54916260507333" lon="15.672223317458316" id="-12887">
		<tag k="fixme" v="consider place=hamlet" />
		<tag k="name" v="Sommerset" />
		<tag k="place" v="farm" />
		<tag k="ssr:stedsnr" v="567809" />
	</node>
	<node lat="67.45411110825582" lon="15.4680111010556" id="-12904">
		<tag k="name" v="Stordal" />
		<tag k="place" v="farm" />
		<tag k="ssr:stedsnr" v="589917" />
	</node>
	<node lat="67.59442777614383" lon="15.936911115910453" id="-12922">
		<tag k="name" v="Eidet" />
		<tag k="place" v="farm" />
		<tag k="ssr:stedsnr" v="698553" />
	</node>
	<node lat="67.34081869430925" lon="15.713276258597435" id="-12942">
		<tag k="fixme" v="consider place=hamlet" />
		<tag k="name" v="Fagerbakkan" />
		<tag k="place" v="farm" />
		<tag k="ssr:stedsnr" v="622932" />
	</node>
	<node lat="67.49591388980883" lon="15.263536109942713" id="-12958">
		<tag k="name" v="Lundestad" />
		<tag k="place" v="farm" />
		<tag k="ssr:stedsnr" v="623579" />
	</node>
	<node lat="67.57382928898997" lon="15.462119351693415" id="-12968">
		<tag k="fixme" v="multiple name tags, choose one and add the other to alt_name; consider place=hamlet" />
		<tag k="name" v="Jordbru;Haugan" />
		<tag k="place" v="farm" />
		<tag k="ssr:stedsnr" v="623976" />
	</node>
	<node lat="67.59175832929482" lon="15.888983325071552" id="-13001">
		<tag k="name" v="Framsteg" />
		<tag k="place" v="isolated_dwelling" />
		<tag k="ssr:stedsnr" v="637577" />
	</node>
	<node lat="67.75063610893747" lon="15.744650000834195" id="-13022">
		<tag k="name" v="Øver-Salhus" />
		<tag k="place" v="farm" />
		<tag k="ssr:stedsnr" v="684201" />
	</node>
	<node lat="67.69232500437992" lon="15.802322218253574" id="-13023">
		<tag k="name" v="Bratten" />
		<tag k="place" v="farm" />
		<tag k="ssr:stedsnr" v="684510" />
	</node>
	<node lat="67.44201650818273" lon="15.726294622438614" id="-13028">
		<tag k="fixme" v="consider place=hamlet" />
		<tag k="name" v="Bakken" />
=======
		<tag k="ssr:stedsnr" v="259815" />
	</node>
	<node id="-178558" lat="67.4739722236" lon="15.5474027759">
		<tag k="name" v="Innergarden" />
		<tag k="place" v="hamlet" />
		<tag k="ssr:stedsnr" v="627778" />
	</node>
	<node id="-179093" lat="67.6869048827" lon="15.8165368032">
		<tag k="fixme" v="consider place=hamlet" />
		<tag k="name" v="Skveiren" />
		<tag k="place" v="farm" />
		<tag k="ssr:stedsnr" v="1076003" />
	</node>
	<node id="-176508" lat="67.4740277822" lon="15.5467166568">
		<tag k="name" v="Inner-Aspenes" />
		<tag k="place" v="farm" />
		<tag k="ssr:stedsnr" v="258602" />
	</node>
	<node id="-176507" lat="67.4356583359" lon="15.7351916566">
		<tag k="name" v="Moenga" />
		<tag k="place" v="farm" />
		<tag k="ssr:stedsnr" v="258263" />
	</node>
	<node id="-179065" lat="67.7494000299" lon="15.7461534438">
		<tag k="name" v="Salhus" />
		<tag k="place" v="hamlet" />
		<tag k="ssr:stedsnr" v="1074047" />
	</node>
	<node id="-178068" lat="67.64087772" lon="15.2833133135">
		<tag k="fixme" v="consider place=hamlet" />
		<tag k="name" v="Movika" />
		<tag k="place" v="farm" />
		<tag k="ssr:stedsnr" v="320923" />
	</node>
	<node id="-177524" lat="67.4020361077" lon="15.6682194483">
		<tag k="name" v="Åsheim" />
		<tag k="place" v="farm" />
		<tag k="ssr:stedsnr" v="31179" />
	</node>
	<node id="-178034" lat="67.3481222226" lon="15.5971944369">
		<tag k="fixme" v="consider place=suburb, village or hamlet" />
		<tag k="name" v="Straumen" />
		<tag k="place" v="quarter" />
		<tag k="ssr:stedsnr" v="319928" />
	</node>
	<node id="-179091" lat="67.7109073508" lon="15.8453623973">
		<tag k="fixme" v="consider place=hamlet" />
		<tag k="name" v="Mørsvik" />
		<tag k="place" v="farm" />
		<tag k="ssr:stedsnr" v="1075998" />
	</node>
	<node id="-177128" lat="67.381674998" lon="15.5401777841">
		<tag k="name" v="Storelvmo" />
		<tag k="place" v="farm" />
		<tag k="ssr:stedsnr" v="893228" />
	</node>
	<node id="-177006" lat="67.3892166715" lon="15.5406972134">
		<tag k="name" v="Sandvik" />
		<tag k="place" v="farm" />
		<tag k="ssr:stedsnr" v="710236" />
	</node>
	<node id="-178539" lat="67.5411194474" lon="15.6475916652">
		<tag k="name" v="Lisj-Sommerset" />
		<tag k="place" v="farm" />
		<tag k="ssr:stedsnr" v="623986" />
	</node>
	<node id="-176489" lat="67.7159555542" lon="15.8719027717">
		<tag k="name" v="Forrbakken" />
		<tag k="place" v="farm" />
		<tag k="ssr:stedsnr" v="446076" />
	</node>
	<node id="-178536" lat="67.573829289" lon="15.4621193517">
		<tag k="fixme" v="multiple name tags, choose one and add the other to alt_name; consider place=hamlet" />
		<tag k="name" v="Haugan;Jordbru" />
		<tag k="place" v="farm" />
		<tag k="ssr:stedsnr" v="623976" />
	</node>
	<node id="-176999" lat="67.5153638862" lon="15.514869432">
		<tag k="name" v="Inner-Strøksnes" />
		<tag k="place" v="hamlet" />
		<tag k="ssr:stedsnr" v="571487" />
	</node>
	<node id="-178533" lat="67.538497219" lon="15.4659527772">
		<tag k="name" v="Skogheim" />
>>>>>>> e1d4bc35ff8a6074a6f2e91616a996b547c36f15
		<tag k="place" v="farm" />
		<tag k="ssr:stedsnr" v="623955" />
	</node>
<<<<<<< HEAD
	<node lat="67.629783335436" lon="15.929788898351553" id="-13071">
		<tag k="name" v="Hamran" />
		<tag k="place" v="isolated_dwelling" />
		<tag k="ssr:stedsnr" v="698907" />
	</node>
	<node lat="67.38921667150602" lon="15.540697213372926" id="-13074">
		<tag k="name" v="Sandvik" />
=======
	<node id="-177467" lat="67.6243750031" lon="15.9355972301">
		<tag k="alt_name" v="Elvegard" />
		<tag k="name" v="Elvegård" />
		<tag k="place" v="farm" />
		<tag k="ssr:stedsnr" v="17614" />
	</node>
	<node id="-176272" lat="67.6893837113" lon="15.8105805875">
		<tag k="fixme" v="consider place=hamlet" />
		<tag k="name" v="Storeidet" />
>>>>>>> e1d4bc35ff8a6074a6f2e91616a996b547c36f15
		<tag k="place" v="farm" />
		<tag k="ssr:stedsnr" v="710236" />
	</node>
<<<<<<< HEAD
	<node lat="67.6980173862954" lon="15.796615677697433" id="-13086">
		<tag k="name" v="Lillegård" />
		<tag k="place" v="farm" />
		<tag k="ssr:stedsnr" v="745510" />
	</node>
	<node lat="67.60636110911403" lon="15.504022209533412" id="-13093">
		<tag k="fixme" v="consider place=hamlet" />
		<tag k="name" v="Tennvatnet" />
		<tag k="place" v="farm" />
		<tag k="ssr:stedsnr" v="745908" />
	</node>
	<node lat="67.53496389149808" lon="15.46268888509717" id="-13145">
		<tag k="name" v="Storslett" />
		<tag k="place" v="farm" />
		<tag k="ssr:stedsnr" v="772563" />
	</node>
	<node lat="67.53635833267074" lon="15.464122212436996" id="-13178">
		<tag k="fixme" v="consider place=hamlet" />
		<tag k="name" v="Ytter-Strøksnes" />
		<tag k="old_name" v="Styrkesnes nordre;Ytre Strøksnes" />
		<tag k="place" v="farm" />
		<tag k="ssr:stedsnr" v="828762" />
	</node>
	<node lat="67.46958055924749" lon="15.477441671260538" id="-13185">
		<tag k="alt_name" v="Tortenvika" />
		<tag k="name" v="Tortenvik" />
		<tag k="place" v="farm" />
		<tag k="ssr:stedsnr" v="926502" />
	</node>
	<node lat="67.72522778236974" lon="15.937144438165438" id="-13195">
		<tag k="name" v="Mørsry" />
		<tag k="place" v="hamlet" />
		<tag k="ssr:stedsnr" v="927536" />
	</node>
	<node lat="67.70853329817669" lon="15.857080623806619" id="-13197">
		<tag k="name" v="Mørsvik - Murgos" />
		<tag k="name:no" v="Mørsvik" />
		<tag k="name:smj" v="Murgos" />
		<tag k="old_name:smj" v="Murrgus" />
		<tag k="place" v="hamlet" />
		<tag k="ssr:stedsnr" v="927545" />
	</node>
	<node lat="67.5239722214145" lon="15.491294454030276" id="-13209">
		<tag k="fixme" v="consider place=hamlet" />
		<tag k="name" v="Hestvika" />
		<tag k="place" v="farm" />
		<tag k="ssr:stedsnr" v="927977" />
	</node>
	<node lat="67.3793611157334" lon="15.607330552426884" id="-13212">
		<tag k="name" v="Aurvikhalsen" />
		<tag k="place" v="isolated_dwelling" />
		<tag k="ssr:stedsnr" v="927983" />
	</node>
	<node lat="67.6883888900914" lon="15.81872777323561" id="-13245">
		<tag k="name" v="Inner-Skveiren" />
		<tag k="place" v="farm" />
		<tag k="ssr:stedsnr" v="931330" />
	</node>
	<node lat="67.48134166931261" lon="15.594291657727728" id="-13251">
		<tag k="fixme" v="consider place=hamlet" />
		<tag k="name" v="Aspfjord" />
		<tag k="place" v="village" />
		<tag k="ssr:stedsnr" v="931787" />
	</node>
	<node lat="67.51588611360488" lon="15.523827772664454" id="-13290">
		<tag k="fixme" v="consider place=hamlet" />
		<tag k="name" v="Inner-Strøksnes" />
		<tag k="old_name" v="Styrkesnes søndre;Indre Strøksnes" />
		<tag k="place" v="farm" />
		<tag k="ssr:stedsnr" v="889807" />
	</node>
	<node lat="67.37546666874448" lon="15.63589721142691" id="-13291">
		<tag k="name" v="Lyngen" />
		<tag k="place" v="isolated_dwelling" />
		<tag k="ssr:stedsnr" v="893171" />
	</node>
	<node lat="67.38167499797395" lon="15.540177784128316" id="-13293">
		<tag k="name" v="Storelvmo" />
		<tag k="place" v="farm" />
		<tag k="ssr:stedsnr" v="893228" />
	</node>
	<node lat="67.39793611142453" lon="15.649927786711388" id="-13300">
		<tag k="name" v="Moan" />
		<tag k="place" v="locality" />
		<tag k="ssr:stedsnr" v="926953" />
	</node>
	<node lat="67.56612499688978" lon="15.803825002137597" id="-13316">
		<tag k="name" v="Kjelvika" />
		<tag k="place" v="farm" />
		<tag k="ssr:stedsnr" v="927663" />
	</node>
	<node lat="67.53374167100019" lon="15.468161105441352" id="-13322">
		<tag k="name" v="Strøksnes - Stulggá" />
		<tag k="name:no" v="Strøksnes" />
		<tag k="name:smj" v="Stulggá" />
		<tag k="place" v="hamlet" />
		<tag k="ssr:stedsnr" v="927959" />
	</node>
	<node lat="67.68922499997531" lon="15.809486100904143" id="-13328">
		<tag k="name" v="Storeidet" />
		<tag k="place" v="farm" />
		<tag k="ssr:stedsnr" v="931303" />
	</node>
	<node lat="67.4823083352586" lon="15.596047216456448" id="-13341">
		<tag k="name" v="Vestre Aspfjorden" />
		<tag k="place" v="farm" />
		<tag k="ssr:stedsnr" v="931790" />
	</node>
	<node lat="67.55795833740565" lon="15.645191661051301" id="-13343">
		<tag k="name" v="Ånlægeret" />
		<tag k="place" v="locality" />
		<tag k="ssr:stedsnr" v="931912" />
	</node>
	<node lat="67.46360583864978" lon="15.563491372054358" id="-13353">
		<tag k="alt_name" v="Kvarv, øvre" />
		<tag k="fixme" v="consider place=hamlet" />
		<tag k="name" v="Øvre Kvarv" />
		<tag k="place" v="farm" />
		<tag k="ssr:stedsnr" v="16486" />
	</node>
	<node lat="67.48913055515263" lon="15.873630545438743" id="-13363">
		<tag k="name" v="Olavsbu" />
		<tag k="place" v="isolated_dwelling" />
		<tag k="ssr:stedsnr" v="16758" />
	</node>
	<node lat="67.45703889112498" lon="15.914550005199406" id="-13367">
		<tag k="name" v="Storskogvasshytta" />
		<tag k="place" v="isolated_dwelling" />
		<tag k="ssr:stedsnr" v="16797" />
	</node>
	<node lat="67.37707777829836" lon="15.540702771315088" id="-13368">
		<tag k="alt_name" v="Enga" />
		<tag k="name" v="Enge" />
		<tag k="place" v="farm" />
		<tag k="ssr:stedsnr" v="16993" />
	</node>
	<node lat="67.59308735785153" lon="15.92792874785292" id="-13379">
		<tag k="alt_name" v="Kvalhaugmo" />
		<tag k="fixme" v="consider place=hamlet" />
		<tag k="name" v="Kvalhaugmoen" />
		<tag k="place" v="farm" />
		<tag k="ssr:stedsnr" v="17566" />
	</node>
	<node lat="67.59342777663778" lon="15.90916111203301" id="-13380">
		<tag k="name" v="Moan" />
		<tag k="place" v="farm" />
		<tag k="ssr:stedsnr" v="17567" />
	</node>
	<node lat="67.57793333780255" lon="15.895266665351818" id="-13382">
		<tag k="name" v="Holmen" />
		<tag k="place" v="farm" />
		<tag k="ssr:stedsnr" v="17586" />
	</node>
	<node lat="67.72798055433168" lon="15.920688883927928" id="-13404">
		<tag k="name" v="Moan" />
		<tag k="place" v="farm" />
		<tag k="ssr:stedsnr" v="21298" />
	</node>
	<node lat="67.68853055627824" lon="15.8137194415324" id="-13405">
		<tag k="name" v="Skveiren" />
		<tag k="place" v="hamlet" />
		<tag k="ssr:stedsnr" v="21330" />
	</node>
	<node lat="67.74818888734194" lon="15.739436117011183" id="-13460">
		<tag k="name" v="Ner-Salhus" />
		<tag k="place" v="farm" />
		<tag k="ssr:stedsnr" v="77584" />
	</node>
	<node lat="67.43237222147867" lon="15.504536119125872" id="-13462">
		<tag k="name" v="Burre" />
		<tag k="place" v="farm" />
		<tag k="ssr:stedsnr" v="77595" />
	</node>
	<node lat="67.69578055682742" lon="15.798172210296038" id="-13465">
		<tag k="name" v="Skogheim" />
		<tag k="place" v="isolated_dwelling" />
		<tag k="ssr:stedsnr" v="77530" />
	</node>
	<node lat="67.3509013073912" lon="15.558860251131568" id="-13477">
		<tag k="alt_name" v="Seljåsen, nedre" />
		<tag k="fixme" v="consider place=hamlet" />
		<tag k="name" v="Nerseljeåsen" />
		<tag k="place" v="farm" />
		<tag k="ssr:stedsnr" v="77891" />
	</node>
	<node lat="67.4003935968833" lon="15.661987995184198" id="-13479">
		<tag k="alt_name" v="Nedre Evjen;Evja" />
		<tag k="fixme" v="consider place=hamlet" />
		<tag k="name" v="Nedre Evja" />
		<tag k="place" v="farm" />
		<tag k="ssr:stedsnr" v="77965" />
	</node>
	<node lat="67.62856666572969" lon="15.733669438051532" id="-13484">
		<tag k="name" v="Kleksbakkan" />
		<tag k="place" v="farm" />
		<tag k="ssr:stedsnr" v="78580" />
	</node>
	<node lat="67.53583611099748" lon="15.458533339075974" id="-13489">
		<tag k="name" v="Jektvika" />
		<tag k="place" v="farm" />
		<tag k="ssr:stedsnr" v="78961" />
	</node>
	<node lat="67.5021861148778" lon="15.669655564146314" id="-13501">
		<tag k="name" v="Lapplægran" />
		<tag k="place" v="locality" />
		<tag k="ssr:stedsnr" v="81763" />
	</node>
	<node lat="67.58245833137056" lon="15.881069447153967" id="-13561">
		<tag k="name" v="Kvitnes" />
		<tag k="place" v="farm" />
		<tag k="ssr:stedsnr" v="92543" />
	</node>
	<node lat="67.62965555248884" lon="15.93111666090297" id="-13562">
		<tag k="name" v="Lundmo" />
		<tag k="place" v="isolated_dwelling" />
		<tag k="ssr:stedsnr" v="92893" />
	</node>
	<node lat="67.56401111254672" lon="15.761622218892338" id="-13568">
		<tag k="name" v="Lappstøvik" />
		<tag k="place" v="farm" />
		<tag k="ssr:stedsnr" v="104963" />
	</node>
	<node lat="67.49679721818157" lon="15.250358323084722" id="-13580">
		<tag k="alt_name" v="Åkervika" />
		<tag k="name" v="Åkervik" />
=======
	<node id="-176271" lat="67.6904138923" lon="15.8405833283">
		<tag k="name" v="Sildhopen" />
		<tag k="place" v="farm" />
		<tag k="ssr:stedsnr" v="263131" />
	</node>
	<node id="-176472" lat="67.6922500032" lon="15.8482888911">
		<tag k="amenity" v="school" />
		<tag k="name" v="Mørsvik skole" />
		<tag k="ssr:stedsnr" v="445098" />
	</node>
	<node id="-176612" lat="67.7352450197" lon="15.6878388885">
		<tag k="alt_name" v="Reinvik" />
		<tag k="fixme" v="consider place=hamlet" />
		<tag k="name" v="Reinvika" />
		<tag k="place" v="farm" />
		<tag k="ssr:stedsnr" v="501821" />
	</node>
	<node id="-177494" lat="67.7279805543" lon="15.9206888839">
		<tag k="name" v="Moan" />
		<tag k="place" v="farm" />
		<tag k="ssr:stedsnr" v="21298" />
	</node>
	<node id="-176441" lat="67.450105558" lon="16.0676138904">
		<tag k="name" v="Ragohytta" />
		<tag k="place" v="isolated_dwelling" />
		<tag k="ssr:stedsnr" v="441821" />
	</node>
	<node id="-176570" lat="67.3974611135" lon="15.6052499922">
		<tag k="name" v="Aspkråga" />
		<tag k="place" v="farm" />
		<tag k="ssr:stedsnr" v="334205" />
	</node>
	<node id="-179086" lat="67.3589261612" lon="15.5827811216">
		<tag k="name" v="Valljorda" />
		<tag k="place" v="locality" />
		<tag k="ssr:stedsnr" v="1075864" />
	</node>
	<node id="-177488" lat="67.6885305563" lon="15.8137194415">
		<tag k="name" v="Skveiren" />
		<tag k="place" v="hamlet" />
		<tag k="ssr:stedsnr" v="21330" />
	</node>
	<node id="-178511" lat="67.4959138898" lon="15.2635361099">
		<tag k="name" v="Lundestad" />
		<tag k="place" v="farm" />
		<tag k="ssr:stedsnr" v="623579" />
	</node>
	<node id="-179022" lat="67.4240860147" lon="15.5559988564">
		<tag k="fixme" v="consider place=hamlet" />
		<tag k="name" v="Låkthågen" />
		<tag k="place" v="farm" />
		<tag k="ssr:stedsnr" v="1073840" />
	</node>
	<node id="-177996" lat="67.405658331" lon="15.5372499931">
		<tag k="name" v="Lilleberg" />
		<tag k="place" v="farm" />
		<tag k="ssr:stedsnr" v="213672" />
	</node>
	<node id="-177200" lat="67.4695805592" lon="15.4774416713">
		<tag k="alt_name" v="Tortenvika" />
		<tag k="name" v="Tortenvik" />
		<tag k="place" v="farm" />
		<tag k="ssr:stedsnr" v="926502" />
	</node>
	<node id="-178504" lat="67.6861416682" lon="15.8042944338">
		<tag k="name" v="Storeide" />
		<tag k="place" v="hamlet" />
		<tag k="ssr:stedsnr" v="623546" />
	</node>
	<node id="-176453" lat="67.4040772589" lon="15.673055351">
		<tag k="alt_name" v="Lillegård" />
		<tag k="name" v="Litlgården" />
		<tag k="place" v="hamlet" />
		<tag k="ssr:stedsnr" v="441972" />
	</node>
	<node id="-179012" lat="67.5885035239" lon="15.2223137888">
		<tag k="fixme" v="consider place=hamlet" />
		<tag k="name" v="Rørstad" />
		<tag k="place" v="farm" />
		<tag k="ssr:stedsnr" v="1073272" />
	</node>
	<node id="-179011" lat="67.6048364415" lon="15.5028250501">
		<tag k="fixme" v="consider place=hamlet" />
		<tag k="name" v="Tennvatnet" />
		<tag k="place" v="farm" />
		<tag k="ssr:stedsnr" v="1073270" />
	</node>
	<node id="-176450" lat="67.3972722221" lon="15.7135388794">
		<tag k="name" v="Lappelva" />
		<tag k="place" v="farm" />
		<tag k="ssr:stedsnr" v="441967" />
	</node>
	<node id="-179009" lat="67.5160908273" lon="15.516848336">
		<tag k="name" v="Inner-Strøksnes" />
		<tag k="place" v="hamlet" />
		<tag k="ssr:stedsnr" v="991128" />
	</node>
	<node id="-179008" lat="67.4635750033" lon="15.4734805453">
		<tag k="alt_name" v="Hammervik" />
		<tag k="name" v="Hammarvika" />
		<tag k="place" v="hamlet" />
		<tag k="ssr:stedsnr" v="953888" />
	</node>
	<node id="-177166" lat="67.5390685146" lon="15.392552253">
		<tag k="fixme" v="consider place=hamlet" />
		<tag k="name" v="Bjørnsvika" />
		<tag k="place" v="farm" />
		<tag k="ssr:stedsnr" v="745957" />
	</node>
	<node id="-177980" lat="67.4099944452" lon="15.5812166737">
		<tag k="name" v="Ytter-Tørrfjordskjæret" />
		<tag k="place" v="farm" />
		<tag k="ssr:stedsnr" v="204496" />
	</node>
	<node id="-178491" lat="67.3408186943" lon="15.7132762586">
		<tag k="fixme" v="consider place=hamlet" />
		<tag k="name" v="Fagerbakkan" />
		<tag k="place" v="farm" />
		<tag k="ssr:stedsnr" v="622932" />
	</node>
	<node id="-179001" lat="67.5183083368" lon="15.5898000109">
		<tag k="name" v="Plassan" />
		<tag k="place" v="locality" />
		<tag k="ssr:stedsnr" v="871834" />
	</node>
	<node id="-177463" lat="67.5779333378" lon="15.8952666654">
		<tag k="name" v="Holmen" />
		<tag k="place" v="farm" />
		<tag k="ssr:stedsnr" v="17586" />
	</node>
	<node id="-177461" lat="67.5934277766" lon="15.909161112">
		<tag k="name" v="Moan" />
		<tag k="place" v="farm" />
		<tag k="ssr:stedsnr" v="17567" />
	</node>
	<node id="-177460" lat="67.5930873579" lon="15.9279287479">
		<tag k="alt_name" v="Kvalhaugmo" />
		<tag k="fixme" v="consider place=hamlet" />
		<tag k="name" v="Kvalhaugmoen" />
		<tag k="place" v="farm" />
		<tag k="ssr:stedsnr" v="17566" />
	</node>
	<node id="-178752" lat="67.4103000023" lon="15.5813249935">
		<tag k="name" v="Tørrfjordskjær" />
		<tag k="place" v="isolated_dwelling" />
		<tag k="ssr:stedsnr" v="771581" />
	</node>
	<node id="-176433" lat="67.5848722264" lon="15.8172249952">
		<tag k="name" v="Engan" />
		<tag k="place" v="hamlet" />
		<tag k="ssr:stedsnr" v="441598" />
	</node>
	<node id="-178480" lat="67.4687166662" lon="15.5777111009">
		<tag k="alt_name" v="Hestmoa" />
		<tag k="name" v="Hestmoen" />
		<tag k="place" v="locality" />
		<tag k="ssr:stedsnr" v="622516" />
	</node>
	<node id="-176520" lat="67.3440472183" lon="15.5928111136">
		<tag k="amenity" v="school" />
		<tag k="name" v="Sørfold Ungdomsskole" />
		<tag k="ssr:stedsnr" v="455206" />
	</node>
	<node id="-177452" lat="67.4570388911" lon="15.9145500052">
		<tag k="name" v="Storskogvasshytta" />
		<tag k="place" v="isolated_dwelling" />
		<tag k="ssr:stedsnr" v="16797" />
	</node>
	<node id="-177962" lat="67.479825004" lon="15.5939138932">
		<tag k="name" v="Vika" />
		<tag k="place" v="farm" />
		<tag k="ssr:stedsnr" v="203763" />
	</node>
	<node id="-178473" lat="67.4541111083" lon="15.4680111011">
		<tag k="name" v="Stordal" />
>>>>>>> e1d4bc35ff8a6074a6f2e91616a996b547c36f15
		<tag k="place" v="farm" />
		<tag k="ssr:stedsnr" v="589917" />
	</node>
<<<<<<< HEAD
	<node lat="67.59348611368983" lon="15.943363888992689" id="-13584">
		<tag k="alt_name" v="Kobbelveidet" />
		<tag k="fixme" v="consider place=hamlet" />
		<tag k="name" v="Kobbelveid" />
		<tag k="place" v="farm" />
		<tag k="ssr:stedsnr" v="137565" />
	</node>
	<node lat="67.60139444130638" lon="15.717425007189215" id="-13597">
		<tag k="alt_name" v="Stormohalsen" />
		<tag k="name" v="Stormohals" />
		<tag k="place" v="farm" />
		<tag k="ssr:stedsnr" v="137862" />
	</node>
	<node lat="67.43182497950657" lon="15.153017733718121" id="-13625">
		<tag k="fixme" v="consider place=hamlet" />
		<tag k="name" v="Sjunkfjorden" />
		<tag k="place" v="farm" />
		<tag k="ssr:stedsnr" v="141518" />
	</node>
	<node lat="67.39629999763297" lon="15.604811110914216" id="-13675">
		<tag k="name" v="Ura" />
		<tag k="place" v="isolated_dwelling" />
		<tag k="ssr:stedsnr" v="164181" />
	</node>
	<node lat="67.3606472182873" lon="15.574344438152526" id="-13676">
		<tag k="name" v="Lakselv" />
		<tag k="place" v="farm" />
		<tag k="ssr:stedsnr" v="164193" />
	</node>
	<node lat="67.43463055448467" lon="15.502855566110767" id="-13690">
		<tag k="alt_name" v="Mobakken" />
		<tag k="name" v="Mobakk" />
		<tag k="place" v="farm" />
		<tag k="ssr:stedsnr" v="198542" />
	</node>
	<node lat="67.44226924376794" lon="15.554278830104666" id="-13691">
		<tag k="name" v="Gyltvika" />
		<tag k="place" v="farm" />
		<tag k="ssr:stedsnr" v="198543" />
	</node>
	<node lat="67.60760277824312" lon="15.716697211376697" id="-13700">
		<tag k="name" v="Nordhei" />
		<tag k="place" v="farm" />
		<tag k="ssr:stedsnr" v="199881" />
	</node>
	<node lat="67.36113611572706" lon="15.619652769776119" id="-13708">
		<tag k="name" v="Fjellheim" />
		<tag k="place" v="isolated_dwelling" />
		<tag k="ssr:stedsnr" v="198896" />
	</node>
	<node lat="67.37228353087993" lon="15.5749247043947" id="-13711">
		<tag k="alt_name" v="Seljeåsnes" />
		<tag k="fixme" v="consider place=hamlet" />
		<tag k="name" v="Seljåsneset" />
		<tag k="place" v="farm" />
		<tag k="ssr:stedsnr" v="198992" />
	</node>
	<node lat="67.47982500400924" lon="15.593913893207365" id="-13750">
		<tag k="name" v="Vika" />
		<tag k="place" v="farm" />
		<tag k="ssr:stedsnr" v="203763" />
	</node>
	<node lat="67.40999444517902" lon="15.581216673721695" id="-13762">
		<tag k="name" v="Ytter-Tørrfjordskjæret" />
		<tag k="place" v="farm" />
		<tag k="ssr:stedsnr" v="204496" />
	</node>
	<node lat="67.40565833095965" lon="15.537249993101813" id="-13792">
		<tag k="name" v="Lilleberg" />
		<tag k="place" v="farm" />
		<tag k="ssr:stedsnr" v="213672" />
	</node>
	<node lat="67.37177222170489" lon="15.539769438910481" id="-13806">
		<tag k="name" v="Myrvoll" />
		<tag k="place" v="farm" />
		<tag k="ssr:stedsnr" v="273756" />
	</node>
	<node lat="67.59295000373918" lon="15.92326389996349" id="-13818">
		<tag k="name" v="Skjelldal" />
		<tag k="place" v="farm" />
		<tag k="ssr:stedsnr" v="274541" />
	</node>
	<node lat="67.4609833295951" lon="15.519902775593627" id="-13835">
		<tag k="name" v="Kvarvshaugen" />
		<tag k="place" v="isolated_dwelling" />
		<tag k="ssr:stedsnr" v="319507" />
	</node>
	<node lat="67.3481222225749" lon="15.597194436931462" id="-13843">
		<tag k="fixme" v="consider place=suburb, village or hamlet" />
		<tag k="name" v="Straumen" />
		<tag k="place" v="quarter" />
		<tag k="ssr:stedsnr" v="319928" />
	</node>
	<node lat="67.64087772002816" lon="15.283313313460559" id="-13857">
		<tag k="fixme" v="consider place=hamlet" />
		<tag k="name" v="Movika" />
		<tag k="place" v="farm" />
		<tag k="ssr:stedsnr" v="320923" />
	</node>
	<node lat="67.52736944796554" lon="15.492180552663449" id="-13864">
		<tag k="name" v="Lia" />
=======
	<node id="-178472" lat="67.3766138848" lon="15.6367194503">
		<tag k="name" v="Solheim" />
		<tag k="place" v="isolated_dwelling" />
		<tag k="ssr:stedsnr" v="589194" />
	</node>
	<node id="-177445" lat="67.3770777783" lon="15.5407027713">
		<tag k="alt_name" v="Enga" />
		<tag k="name" v="Enge" />
		<tag k="place" v="farm" />
		<tag k="ssr:stedsnr" v="16993" />
	</node>
	<node id="-176417" lat="67.4484916691" lon="15.4707944527">
		<tag k="alt_name" v="Hopenga" />
		<tag k="name" v="Hopeng" />
		<tag k="place" v="farm" />
		<tag k="ssr:stedsnr" v="441504" />
	</node>
	<node id="-177440" lat="67.3977112898" lon="15.5978421546">
		<tag k="fixme" v="consider place=hamlet" />
		<tag k="name" v="Buvika" />
		<tag k="place" v="farm" />
		<tag k="ssr:stedsnr" v="16956" />
	</node>
	<node id="-178975" lat="67.5456722193" lon="15.2609972136">
		<tag k="name" v="Ystrand" />
		<tag k="place" v="farm" />
		<tag k="ssr:stedsnr" v="867987" />
	</node>
	<node id="-178973" lat="67.5159861152" lon="15.5842166691">
		<tag k="name" v="Inner-Kalvika" />
		<tag k="place" v="farm" />
		<tag k="ssr:stedsnr" v="867961" />
	</node>
	<node id="-177712" lat="67.5934861137" lon="15.943363889">
		<tag k="alt_name" v="Kobbelveidet" />
		<tag k="fixme" v="consider place=hamlet" />
		<tag k="name" v="Kobbelveid" />
		<tag k="place" v="farm" />
		<tag k="ssr:stedsnr" v="137565" />
	</node>
	<node id="-177431" lat="67.4636058386" lon="15.5634913721">
		<tag k="alt_name" v="Kvarv, øvre" />
		<tag k="fixme" v="consider place=hamlet" />
		<tag k="name" v="Øvre Kvarv" />
		<tag k="place" v="farm" />
		<tag k="ssr:stedsnr" v="16486" />
	</node>
	<node id="-178966" lat="67.5009311056" lon="15.1521552758">
		<tag k="fixme" v="consider place=hamlet" />
		<tag k="name" v="Sjunkan" />
		<tag k="place" v="farm" />
		<tag k="ssr:stedsnr" v="867757" />
	</node>
	<node id="-177426" lat="67.6049913667" lon="15.7246819504">
		<tag k="alt_name" v="Bonå" />
		<tag k="fixme" v="consider place=hamlet" />
		<tag k="loc_name" v="Bonnåga" />
		<tag k="name" v="Bonnå" />
		<tag k="place" v="farm" />
		<tag k="ssr:stedsnr" v="1073479" />
	</node>
	<node id="-178954" lat="67.4005545775" lon="15.6891698219">
		<tag k="alt_name" v="Øyren" />
		<tag k="fixme" v="consider place=hamlet" />
		<tag k="name" v="Øyra" />
		<tag k="place" v="farm" />
		<tag k="ssr:stedsnr" v="866964" />
	</node>
	<node id="-177413" lat="67.5579583374" lon="15.6451916611">
		<tag k="name" v="Ånlægeret" />
		<tag k="place" v="locality" />
		<tag k="ssr:stedsnr" v="931912" />
	</node>
	<node id="-176448" lat="67.4094277752" lon="15.6813916574">
		<tag k="name" v="Fjellheim" />
		<tag k="place" v="farm" />
		<tag k="ssr:stedsnr" v="441942" />
	</node>
	<node id="-178944" lat="67.480666665" lon="15.7370888967">
		<tag k="name" v="Faulvasshytta" />
		<tag k="place" v="isolated_dwelling" />
		<tag k="ssr:stedsnr" v="866773" />
	</node>
	<node id="-178430" lat="67.5491626051" lon="15.6722233175">
		<tag k="fixme" v="consider place=hamlet" />
		<tag k="name" v="Sommerset" />
		<tag k="place" v="farm" />
		<tag k="ssr:stedsnr" v="567809" />
	</node>
	<node id="-178939" lat="67.5777435402" lon="15.896764828">
		<tag k="alt_name" v="Sørfjordskar" />
		<tag k="fixme" v="consider place=hamlet" />
		<tag k="name" v="Sørfjordskardet" />
		<tag k="place" v="farm" />
		<tag k="ssr:stedsnr" v="866555" />
	</node>
	<node id="-177401" lat="67.689225" lon="15.8094861009">
		<tag k="name" v="Storeidet" />
		<tag k="place" v="farm" />
		<tag k="ssr:stedsnr" v="931303" />
	</node>
	<node id="-176425" lat="67.5803944483" lon="15.7287249975">
		<tag k="name" v="Myr" />
		<tag k="place" v="farm" />
		<tag k="ssr:stedsnr" v="441570" />
	</node>
	<node id="-177908" lat="67.6076027782" lon="15.7166972114">
		<tag k="name" v="Nordhei" />
		<tag k="place" v="farm" />
		<tag k="ssr:stedsnr" v="199881" />
	</node>
	<node id="-177395" lat="67.5158861136" lon="15.5238277727">
		<tag k="fixme" v="consider place=hamlet" />
		<tag k="name" v="Inner-Strøksnes" />
		<tag k="old_name" v="Styrkesnes søndre;Indre Strøksnes" />
		<tag k="place" v="farm" />
		<tag k="ssr:stedsnr" v="889807" />
	</node>
	<node id="-178417" lat="67.5883888889" lon="15.2177722267">
		<tag k="name" v="Rognan" />
		<tag k="place" v="farm" />
		<tag k="ssr:stedsnr" v="567016" />
	</node>
	<node id="-178928" lat="67.6865388858" lon="15.819069445">
		<tag k="name" v="Ytter-Skveiren" />
		<tag k="place" v="farm" />
		<tag k="ssr:stedsnr" v="866509" />
	</node>
	<node id="-178927" lat="67.4516337264" lon="15.5233258414">
		<tag k="alt_name" v="Kvarv, nedre;Nedre Kvarv" />
		<tag k="fixme" v="consider place=hamlet" />
		<tag k="name" v="Ner-Kvarv" />
		<tag k="place" v="farm" />
		<tag k="ssr:stedsnr" v="866506" />
	</node>
	<node id="-178926" lat="67.4562749983" lon="15.5630361101">
		<tag k="name" v="Nova" />
		<tag k="place" v="isolated_dwelling" />
		<tag k="ssr:stedsnr" v="866504" />
	</node>
	<node id="-176876" lat="67.5195277752" lon="15.5244277848">
		<tag k="name" v="Vollan" />
		<tag k="place" v="farm" />
		<tag k="ssr:stedsnr" v="516424" />
	</node>
	<node id="-176874" lat="67.4796777822" lon="15.4700694432">
		<tag k="name" v="Prestegård" />
		<tag k="place" v="farm" />
		<tag k="ssr:stedsnr" v="516407" />
	</node>
	<node id="-177897" lat="67.7163472179" lon="15.8715361189">
		<tag k="name" v="Forbakkan" />
		<tag k="place" v="farm" />
		<tag k="ssr:stedsnr" v="199538" />
	</node>
	<node id="-177891" lat="67.3722835309" lon="15.5749247044">
		<tag k="alt_name" v="Seljeåsnes" />
		<tag k="fixme" v="consider place=hamlet" />
		<tag k="name" v="Seljåsneset" />
		<tag k="place" v="farm" />
		<tag k="ssr:stedsnr" v="198992" />
	</node>
	<node id="-176354" lat="67.5929500037" lon="15.9232639">
		<tag k="name" v="Skjelldal" />
		<tag k="place" v="farm" />
		<tag k="ssr:stedsnr" v="274541" />
	</node>
	<node id="-176592" lat="67.4250944467" lon="15.9354361134">
		<tag k="name" v="Litlverivasshytta" />
		<tag k="place" v="isolated_dwelling" />
		<tag k="ssr:stedsnr" v="501239" />
	</node>
	<node id="-177886" lat="67.3611361157" lon="15.6196527698">
		<tag k="name" v="Fjellheim" />
		<tag k="place" v="isolated_dwelling" />
		<tag k="ssr:stedsnr" v="198896" />
	</node>
	<node id="-177248" lat="67.6017333381" lon="15.9924777715">
		<tag k="name" v="Austerheim" />
		<tag k="place" v="farm" />
		<tag k="ssr:stedsnr" v="805594" />
	</node>
	<node id="-177371" lat="67.7083805585" lon="15.8553444341">
		<tag k="name" v="Mørsvikbotn camping" />
		<tag k="ssr:stedsnr" v="870125" />
		<tag k="tourism" v="camp_site" />
	</node>
	<node id="-176346" lat="67.6059694429" lon="15.7156972135">
		<tag k="name" v="Kroken" />
		<tag k="place" v="farm" />
		<tag k="ssr:stedsnr" v="274472" />
	</node>
	<node id="-176857" lat="67.5893777803" lon="15.2244138804">
		<tag k="name" v="Rørstad" />
		<tag k="place" v="hamlet" />
		<tag k="ssr:stedsnr" v="684876" />
	</node>
	<node id="-177366" lat="67.6278833374" lon="15.9298083373">
		<tag k="name" v="Kolstrand" />
		<tag k="place" v="isolated_dwelling" />
		<tag k="ssr:stedsnr" v="941905" />
	</node>
	<node id="-176341" lat="67.4092805516" lon="15.6572972264">
		<tag k="name" v="Hestmo" />
		<tag k="place" v="farm" />
		<tag k="ssr:stedsnr" v="274220" />
	</node>
	<node id="-178900" lat="67.5363583327" lon="15.4641222124">
		<tag k="fixme" v="consider place=hamlet" />
		<tag k="name" v="Ytter-Strøksnes" />
		<tag k="old_name" v="Styrkesnes nordre;Ytre Strøksnes" />
		<tag k="place" v="farm" />
		<tag k="ssr:stedsnr" v="828762" />
	</node>
	<node id="-177363" lat="67.3688305522" lon="15.5396000018">
		<tag k="name" v="Rye" />
		<tag k="place" v="isolated_dwelling" />
		<tag k="ssr:stedsnr" v="941716" />
	</node>
	<node id="-177872" lat="67.4422692438" lon="15.5542788301">
		<tag k="name" v="Gyltvika" />
		<tag k="place" v="farm" />
		<tag k="ssr:stedsnr" v="198543" />
	</node>
	<node id="-177871" lat="67.4346305545" lon="15.5028555661">
		<tag k="alt_name" v="Mobakken" />
		<tag k="name" v="Mobakk" />
		<tag k="place" v="farm" />
		<tag k="ssr:stedsnr" v="198542" />
	</node>
	<node id="-178890" lat="67.5775611117" lon="15.7701833301">
		<tag k="name" v="Pålstein" />
		<tag k="place" v="isolated_dwelling" />
		<tag k="ssr:stedsnr" v="820438" />
	</node>
	<node id="-177441" lat="67.4031222245" lon="15.5391694555">
		<tag k="name" v="Skyttmoen" />
		<tag k="place" v="farm" />
		<tag k="ssr:stedsnr" v="16957" />
	</node>
	<node id="-176836" lat="67.7506361089" lon="15.7446500008">
		<tag k="name" v="Øver-Salhus" />
		<tag k="place" v="farm" />
		<tag k="ssr:stedsnr" v="684201" />
	</node>
	<node id="-176832" lat="67.4065518553" lon="15.659279474">
		<tag k="alt_name" v="Megård" />
		<tag k="fixme" v="consider place=hamlet" />
		<tag k="name" v="Megården" />
		<tag k="place" v="farm" />
		<tag k="ssr:stedsnr" v="683931" />
	</node>
	<node id="-177853" lat="67.3606472183" lon="15.5743444382">
		<tag k="name" v="Lakselv" />
		<tag k="place" v="farm" />
		<tag k="ssr:stedsnr" v="164193" />
	</node>
	<node id="-176828" lat="67.3723861103" lon="15.5355888971">
		<tag k="alt_name" v="Djupvik" />
		<tag k="fixme" v="consider place=hamlet" />
		<tag k="name" v="Djupvika" />
		<tag k="place" v="farm" />
		<tag k="ssr:stedsnr" v="683995" />
	</node>
	<node id="-176586" lat="67.499638892" lon="15.1558194405">
		<tag k="name" v="Sjunkan" />
		<tag k="place" v="hamlet" />
		<tag k="ssr:stedsnr" v="379615" />
	</node>
	<node id="-177850" lat="67.6378944483" lon="15.9615888888">
		<tag k="name" v="Teigan" />
		<tag k="place" v="farm" />
		<tag k="ssr:stedsnr" v="152900" />
	</node>
	<node id="-176313" lat="67.4967972182" lon="15.2503583231">
		<tag k="alt_name" v="Åkervika" />
		<tag k="name" v="Åkervik" />
		<tag k="place" v="farm" />
		<tag k="ssr:stedsnr" v="137542" />
	</node>
	<node id="-178360" lat="67.7423888882" lon="15.6686555521">
		<tag k="name" v="Naustneset" />
		<tag k="place" v="farm" />
		<tag k="ssr:stedsnr" v="562768" />
	</node>
	<node id="-177012" lat="67.6899393881" lon="15.8409657836">
		<tag k="fixme" v="consider place=hamlet" />
		<tag k="name" v="Sildhopen" />
		<tag k="place" v="farm" />
		<tag k="ssr:stedsnr" v="627129" />
	</node>
	<node id="-176309" lat="67.454657473" lon="15.4723866444">
		<tag k="alt_name" v="Ånsvik;Ånunsvik" />
		<tag k="fixme" v="consider place=hamlet" />
		<tag k="name" v="Ånsvika" />
		<tag k="place" v="farm" />
		<tag k="ssr:stedsnr" v="137512" />
	</node>
	<node id="-176818" lat="67.4338638881" lon="15.6742388803">
		<tag k="fixme" v="consider place=hamlet" />
		<tag k="name" v="Solskinnsbakkan" />
		<tag k="old_name" v="Solskinsbakken" />
		<tag k="place" v="farm" />
		<tag k="ssr:stedsnr" v="683535" />
	</node>
	<node id="-178345" lat="67.437613892" lon="15.4858444366">
		<tag k="name" v="Nerdal" />
		<tag k="place" v="farm" />
		<tag k="ssr:stedsnr" v="562553" />
	</node>
	<node id="-178342" lat="67.4173361089" lon="15.5189611176">
		<tag k="alt_name" v="Skavikenga;Skavenget" />
		<tag k="name" v="Skavikeng" />
		<tag k="place" v="farm" />
		<tag k="ssr:stedsnr" v="562537" />
	</node>
	<node id="-178340" lat="67.4315877478" lon="15.5033718184">
		<tag k="alt_name" v="Fornes" />
		<tag k="fixme" v="consider place=hamlet" />
		<tag k="name" v="Furnes" />
		<tag k="place" v="farm" />
		<tag k="ssr:stedsnr" v="562532" />
	</node>
	<node id="-177313" lat="67.4823083353" lon="15.5960472165">
		<tag k="name" v="Vestre Aspfjorden" />
		<tag k="place" v="farm" />
		<tag k="ssr:stedsnr" v="931790" />
	</node>
	<node id="-177312" lat="67.4813416693" lon="15.5942916577">
		<tag k="fixme" v="consider place=hamlet" />
		<tag k="name" v="Aspfjord" />
		<tag k="place" v="village" />
		<tag k="ssr:stedsnr" v="931787" />
	</node>
	<node id="-176837" lat="67.3518499999" lon="16.0270194457">
		<tag k="name" v="Veiskibu" />
		<tag k="place" v="isolated_dwelling" />
		<tag k="ssr:stedsnr" v="684290" />
	</node>
	<node id="-176795" lat="67.5894666671" lon="15.7135333267">
		<tag k="name" v="Svemobakken" />
>>>>>>> e1d4bc35ff8a6074a6f2e91616a996b547c36f15
		<tag k="place" v="farm" />
		<tag k="ssr:stedsnr" v="320951" />
	</node>
<<<<<<< HEAD
	<node lat="67.51960278082277" lon="15.520958334842524" id="-13868">
		<tag k="name" v="Skogvoll" />
		<tag k="place" v="farm" />
		<tag k="ssr:stedsnr" v="320965" />
	</node>
	<node lat="67.40410822331036" lon="15.681241992504534" id="-13902">
		<tag k="alt_name" v="Paulhaugøyr;Pålhaugsøyren" />
=======
	<node id="-176495" lat="67.4099555595" lon="15.5873777674">
		<tag k="name" v="Inner-Tørrfjordsjæret" />
		<tag k="place" v="farm" />
		<tag k="ssr:stedsnr" v="446398" />
	</node>
	<node id="-178328" lat="67.478825927" lon="15.5339722508">
>>>>>>> e1d4bc35ff8a6074a6f2e91616a996b547c36f15
		<tag k="fixme" v="consider place=hamlet" />
		<tag k="loc_name" v="Pålhågsøyra" />
		<tag k="name" v="Pålhaugsøyra" />
		<tag k="place" v="farm" />
		<tag k="ssr:stedsnr" v="334179" />
	</node>
<<<<<<< HEAD
	<node lat="67.37324722371191" lon="15.543802769188463" id="-13910">
		<tag k="name" v="Gammelgarden" />
=======
	<node id="-178323" lat="67.3457111077" lon="15.5960888901">
		<tag k="name" v="Straumhaug" />
>>>>>>> e1d4bc35ff8a6074a6f2e91616a996b547c36f15
		<tag k="place" v="farm" />
		<tag k="ssr:stedsnr" v="334244" />
	</node>
<<<<<<< HEAD
	<node lat="67.58143611039533" lon="15.732830544818441" id="-13917">
		<tag k="name" v="Stormoen" />
=======
	<node id="-178322" lat="67.516133335" lon="15.5194499981">
		<tag k="name" v="Strøksnes" />
>>>>>>> e1d4bc35ff8a6074a6f2e91616a996b547c36f15
		<tag k="place" v="farm" />
		<tag k="ssr:stedsnr" v="334285" />
	</node>
<<<<<<< HEAD
	<node lat="67.47788333223063" lon="15.4630916647101" id="-13920">
		<tag k="name" v="Skogstua" />
		<tag k="place" v="isolated_dwelling" />
		<tag k="ssr:stedsnr" v="334388" />
	</node>
	<node lat="67.63722778135973" lon="15.966011113180231" id="-13927">
		<tag k="name" v="Alfheim" />
=======
	<node id="-177808" lat="67.5523472221" lon="15.6748861181">
		<tag k="name" v="Lisj-Kalvika" />
>>>>>>> e1d4bc35ff8a6074a6f2e91616a996b547c36f15
		<tag k="place" v="farm" />
		<tag k="ssr:stedsnr" v="334876" />
	</node>
<<<<<<< HEAD
	<node lat="67.44437778081522" lon="15.1371333451703" id="-13932">
		<tag k="name" v="Tornesmarka" />
=======
	<node id="-178319" lat="67.3986027816" lon="15.681725012">
		<tag k="name" v="Øyran" />
>>>>>>> e1d4bc35ff8a6074a6f2e91616a996b547c36f15
		<tag k="place" v="isolated_dwelling" />
		<tag k="ssr:stedsnr" v="346614" />
	</node>
<<<<<<< HEAD
	<node lat="67.47599166716802" lon="15.535549996729555" id="-13939">
		<tag k="name" v="Tømmervika" />
		<tag k="place" v="isolated_dwelling" />
		<tag k="ssr:stedsnr" v="379586" />
	</node>
	<node lat="67.37434440941213" lon="15.632632990228457" id="-13944">
=======
	<node id="-176270" lat="67.7108888891" lon="15.854638887">
		<tag k="name" v="Elenjorda" />
		<tag k="place" v="hamlet" />
		<tag k="ssr:stedsnr" v="263090" />
	</node>
	<node id="-176780" lat="67.3506568946" lon="15.5761833835">
		<tag k="alt_name" v="Strømdal" />
>>>>>>> e1d4bc35ff8a6074a6f2e91616a996b547c36f15
		<tag k="fixme" v="consider place=hamlet" />
		<tag k="name" v="Helland" />
		<tag k="place" v="farm" />
		<tag k="ssr:stedsnr" v="379978" />
	</node>
<<<<<<< HEAD
	<node lat="67.62930238700693" lon="15.73346714871938" id="-13977">
		<tag k="fixme" v="consider place=hamlet" />
		<tag k="name" v="Horndal - Tjoarvek" />
		<tag k="name:no" v="Horndal" />
		<tag k="name:smj" v="Tjoarvek" />
		<tag k="old_name:smj" v="Čoarvvek" />
=======
	<node id="-176779" lat="67.4366397537" lon="15.4847525567">
		<tag k="alt_name" v="Kinesmoen" />
		<tag k="fixme" v="consider place=hamlet" />
		<tag k="name" v="Kines" />
		<tag k="place" v="farm" />
		<tag k="ssr:stedsnr" v="501531" />
	</node>
	<node id="-177290" lat="67.6883888901" lon="15.8187277732">
		<tag k="name" v="Inner-Skveiren" />
>>>>>>> e1d4bc35ff8a6074a6f2e91616a996b547c36f15
		<tag k="place" v="farm" />
		<tag k="ssr:stedsnr" v="381641" />
	</node>
<<<<<<< HEAD
	<node lat="67.61165555210322" lon="15.42862777799419" id="-13978">
		<tag k="name" v="Sagfjorden" />
		<tag k="place" v="hamlet" />
		<tag k="ssr:stedsnr" v="381938" />
	</node>
	<node lat="67.54628055873482" lon="15.260366663968513" id="-14022">
		<tag k="name" v="Haukenes" />
=======
	<node id="-178822" lat="67.4436611093" lon="15.7415722291">
		<tag k="name" v="Kålhusmoa" />
>>>>>>> e1d4bc35ff8a6074a6f2e91616a996b547c36f15
		<tag k="place" v="farm" />
		<tag k="ssr:stedsnr" v="385938" />
	</node>
<<<<<<< HEAD
	<node lat="67.5858944475034" lon="15.830583343898653" id="-14045">
=======
	<node id="-178305" lat="67.5858944475" lon="15.8305833439">
>>>>>>> e1d4bc35ff8a6074a6f2e91616a996b547c36f15
		<tag k="name" v="Ørnesmoen" />
		<tag k="place" v="hamlet" />
		<tag k="ssr:stedsnr" v="395492" />
	</node>
<<<<<<< HEAD
	<node lat="67.39860278156935" lon="15.68172501199711" id="-14054">
		<tag k="name" v="Øyran" />
=======
	<node id="-178815" lat="67.6886944426" lon="15.813286119">
		<tag k="name" v="Klubben" />
		<tag k="place" v="farm" />
		<tag k="ssr:stedsnr" v="809357" />
	</node>
	<node id="-176364" lat="67.5949388927" lon="15.9353000035">
		<tag k="name" v="Westgård" />
		<tag k="place" v="farm" />
		<tag k="ssr:stedsnr" v="152603" />
	</node>
	<node id="-177277" lat="67.3793611157" lon="15.6073305524">
		<tag k="name" v="Aurvikhalsen" />
>>>>>>> e1d4bc35ff8a6074a6f2e91616a996b547c36f15
		<tag k="place" v="isolated_dwelling" />
		<tag k="ssr:stedsnr" v="407180" />
	</node>
<<<<<<< HEAD
	<node lat="67.44849166906471" lon="15.470794452695086" id="-14060">
		<tag k="alt_name" v="Hopenga" />
		<tag k="name" v="Hopeng" />
=======
	<node id="-176252" lat="67.5737083292" lon="15.4645916652">
		<tag k="name" v="Haugan" />
>>>>>>> e1d4bc35ff8a6074a6f2e91616a996b547c36f15
		<tag k="place" v="farm" />
		<tag k="ssr:stedsnr" v="441504" />
	</node>
<<<<<<< HEAD
	<node lat="67.58039444834213" lon="15.728724997489433" id="-14069">
		<tag k="name" v="Myr" />
=======
	<node id="-177275" lat="67.5239722214" lon="15.491294454">
		<tag k="fixme" v="consider place=hamlet" />
		<tag k="name" v="Hestvika" />
>>>>>>> e1d4bc35ff8a6074a6f2e91616a996b547c36f15
		<tag k="place" v="farm" />
		<tag k="ssr:stedsnr" v="441570" />
	</node>
<<<<<<< HEAD
	<node lat="67.45010555796429" lon="16.067613890444445" id="-14080">
		<tag k="name" v="Ragohytta" />
		<tag k="place" v="isolated_dwelling" />
		<tag k="ssr:stedsnr" v="441821" />
	</node>
	<node lat="67.39727222209277" lon="15.713538879376333" id="-14085">
		<tag k="name" v="Lappelva" />
		<tag k="place" v="farm" />
		<tag k="ssr:stedsnr" v="441967" />
	</node>
	<node lat="67.4040772588898" lon="15.67305535098833" id="-14088">
		<tag k="alt_name" v="Lillegård" />
		<tag k="name" v="Litlgården" />
=======
	<node id="-178744" lat="67.5938138924" lon="15.9403194489">
		<tag k="name" v="Sandmo" />
		<tag k="place" v="farm" />
		<tag k="ssr:stedsnr" v="759578" />
	</node>
	<node id="-177272" lat="67.533741671" lon="15.4681611054">
		<tag k="name" v="Strøksnes - Stulggá" />
		<tag k="name:no" v="Strøksnes" />
		<tag k="name:smj" v="Stulggá" />
>>>>>>> e1d4bc35ff8a6074a6f2e91616a996b547c36f15
		<tag k="place" v="hamlet" />
		<tag k="ssr:stedsnr" v="441972" />
	</node>
<<<<<<< HEAD
	<node lat="67.69225000323031" lon="15.848288891053429" id="-14103">
		<tag k="amenity" v="school" />
		<tag k="name" v="Mørsvik skole" />
		<tag k="ssr:stedsnr" v="445098" />
	</node>
	<node lat="67.49936111014378" lon="15.388186107480987" id="-14141">
		<tag k="name" v="Gammovika" />
=======
	<node id="-176247" lat="67.5237444415" lon="15.4945055578">
		<tag k="alt_name" v="Hjellvika" />
		<tag k="name" v="Hjellvik" />
		<tag k="place" v="hamlet" />
		<tag k="ssr:stedsnr" v="259941" />
	</node>
	<node id="-176246" lat="67.4111277776" lon="15.6096666584">
		<tag k="name" v="Slåttvika" />
>>>>>>> e1d4bc35ff8a6074a6f2e91616a996b547c36f15
		<tag k="place" v="farm" />
		<tag k="ssr:stedsnr" v="501548" />
	</node>
<<<<<<< HEAD
	<node lat="67.7352450196824" lon="15.687838888520975" id="-14144">
		<tag k="alt_name" v="Reinvik" />
=======
	<node id="-178804" lat="67.6245583902" lon="15.5017559852">
>>>>>>> e1d4bc35ff8a6074a6f2e91616a996b547c36f15
		<tag k="fixme" v="consider place=hamlet" />
		<tag k="name" v="Reinvika" />
		<tag k="place" v="farm" />
		<tag k="ssr:stedsnr" v="501821" />
	</node>
<<<<<<< HEAD
	<node lat="67.36624722568195" lon="15.528105555032027" id="-14152">
		<tag k="alt_name" v="Skyttenga" />
		<tag k="name" v="Skytteng" />
=======
	<node id="-176242" lat="67.5765444446" lon="15.4382333398">
		<tag k="name" v="Botn" />
>>>>>>> e1d4bc35ff8a6074a6f2e91616a996b547c36f15
		<tag k="place" v="farm" />
		<tag k="ssr:stedsnr" v="501869" />
	</node>
<<<<<<< HEAD
	<node lat="67.4030956578454" lon="15.687968873620626" id="-14156">
		<tag k="alt_name" v="Steinbakk;Steinbakken" />
		<tag k="fixme" v="consider place=hamlet" />
		<tag k="name" v="Steinbakkan" />
		<tag k="place" v="farm" />
		<tag k="ssr:stedsnr" v="501956" />
	</node>
	<node lat="67.58946666706828" lon="15.713533326656544" id="-14161">
		<tag k="name" v="Svemobakken" />
=======
	<node id="-176767" lat="67.5207694438" lon="15.5006611012">
		<tag k="amenity" v="school" />
		<tag k="name" v="Hestvik skole" />
		<tag k="ssr:stedsnr" v="455317" />
	</node>
	<node id="-178024" lat="67.4609833296" lon="15.5199027756">
		<tag k="name" v="Kvarvshaugen" />
		<tag k="place" v="isolated_dwelling" />
		<tag k="ssr:stedsnr" v="319507" />
	</node>
	<node id="-178797" lat="67.6351588864" lon="15.9417506976">
		<tag k="alt_name" v="Kobbskardmoen" />
		<tag k="fixme" v="consider place=hamlet" />
		<tag k="name" v="Kobbskarmoen" />
>>>>>>> e1d4bc35ff8a6074a6f2e91616a996b547c36f15
		<tag k="place" v="farm" />
		<tag k="ssr:stedsnr" v="502909" />
	</node>
<<<<<<< HEAD
	<node lat="67.57479999827241" lon="15.771155561604319" id="-14221">
		<tag k="name" v="Buberg" />
		<tag k="place" v="isolated_dwelling" />
		<tag k="ssr:stedsnr" v="516432" />
	</node>
	<node lat="67.60345000301248" lon="15.7173361031307" id="-14222">
		<tag k="name" v="Myrmo" />
=======
	<node id="-177770" lat="67.4318249795" lon="15.1530177337">
		<tag k="fixme" v="consider place=hamlet" />
		<tag k="name" v="Sjunkfjorden" />
>>>>>>> e1d4bc35ff8a6074a6f2e91616a996b547c36f15
		<tag k="place" v="farm" />
		<tag k="ssr:stedsnr" v="516546" />
	</node>
<<<<<<< HEAD
	<node lat="67.63798055622918" lon="15.96817221312242" id="-14226">
		<tag k="name" v="Myrvang" />
=======
	<node id="-178793" lat="67.5817242267" lon="15.8927580084">
		<tag k="alt_name" v="Engkråg;Einkrågen" />
		<tag k="fixme" v="consider place=hamlet" />
		<tag k="name" v="Einkråga" />
>>>>>>> e1d4bc35ff8a6074a6f2e91616a996b547c36f15
		<tag k="place" v="farm" />
		<tag k="ssr:stedsnr" v="516894" />
	</node>
<<<<<<< HEAD
	<node lat="67.51613333500067" lon="15.519449998106097" id="-14228">
		<tag k="name" v="Strøksnes" />
=======
	<node id="-177255" lat="67.4364849209" lon="15.7217781709">
		<tag k="fixme" v="consider place=hamlet" />
		<tag k="name" v="Nordfjord" />
>>>>>>> e1d4bc35ff8a6074a6f2e91616a996b547c36f15
		<tag k="place" v="farm" />
		<tag k="ssr:stedsnr" v="525659" />
	</node>
<<<<<<< HEAD
	<node lat="67.34571110768069" lon="15.596088890066312" id="-14229">
		<tag k="name" v="Straumhaug" />
		<tag k="place" v="farm" />
		<tag k="ssr:stedsnr" v="528201" />
	</node>
	<node lat="67.4788259269867" lon="15.533972250821554" id="-14244">
=======
	<node id="-178788" lat="67.6366065643" lon="15.9675574591">
>>>>>>> e1d4bc35ff8a6074a6f2e91616a996b547c36f15
		<tag k="fixme" v="consider place=hamlet" />
		<tag k="name" v="Aspenes" />
		<tag k="place" v="farm" />
		<tag k="ssr:stedsnr" v="561619" />
	</node>
<<<<<<< HEAD
	<node lat="67.43158774776364" lon="15.503371818377538" id="-14254">
		<tag k="alt_name" v="Fornes" />
		<tag k="fixme" v="consider place=hamlet" />
		<tag k="name" v="Furnes" />
=======
	<node id="-177251" lat="67.5661249969" lon="15.8038250021">
		<tag k="name" v="Kjelvika" />
>>>>>>> e1d4bc35ff8a6074a6f2e91616a996b547c36f15
		<tag k="place" v="farm" />
		<tag k="ssr:stedsnr" v="562532" />
	</node>
<<<<<<< HEAD
	<node lat="67.41733610887913" lon="15.518961117571163" id="-14266">
		<tag k="alt_name" v="Skavikenga;Skavenget" />
		<tag k="name" v="Skavikeng" />
=======
	<node id="-178875" lat="67.3634694429" lon="15.5893805509">
		<tag k="building" v="industrial" />
		<tag k="industrial" v="factory" />
		<tag k="loc_name" v="Elkem Salten" />
		<tag k="name" v="Salten verk" />
		<tag k="ssr:stedsnr" v="815195" />
	</node>
	<node id="-177760" lat="67.5448870036" lon="15.2646444888">
		<tag k="fixme" v="consider place=hamlet" />
		<tag k="name" v="Haukenes" />
>>>>>>> e1d4bc35ff8a6074a6f2e91616a996b547c36f15
		<tag k="place" v="farm" />
		<tag k="ssr:stedsnr" v="562537" />
	</node>
<<<<<<< HEAD
	<node lat="67.43761389201823" lon="15.485844436588675" id="-14269">
		<tag k="name" v="Lærdal" />
		<tag k="place" v="farm" />
		<tag k="ssr:stedsnr" v="562553" />
	</node>
	<node lat="67.7423888881796" lon="15.668655552118414" id="-14285">
		<tag k="name" v="Naustneset" />
=======
	<node id="-177247" lat="67.4944280985" lon="15.3692120278">
		<tag k="name" v="Gammoen" />
		<tag k="place" v="locality" />
		<tag k="ssr:stedsnr" v="805589" />
	</node>
	<node id="-176733" lat="67.6379805562" lon="15.9681722131">
		<tag k="name" v="Myrvang" />
>>>>>>> e1d4bc35ff8a6074a6f2e91616a996b547c36f15
		<tag k="place" v="farm" />
		<tag k="ssr:stedsnr" v="562768" />
	</node>
<<<<<<< HEAD
	<node lat="67.51536388618102" lon="15.514869431992595" id="-14351">
		<tag k="name" v="Inner-Strøksnes" />
		<tag k="place" v="hamlet" />
		<tag k="ssr:stedsnr" v="571487" />
	</node>
	<node lat="67.37661388481827" lon="15.636719450332958" id="-14374">
		<tag k="name" v="Solheim" />
		<tag k="place" v="isolated_dwelling" />
		<tag k="ssr:stedsnr" v="589194" />
	</node>
	<node lat="67.46871666620777" lon="15.577711100852884" id="-14380">
		<tag k="alt_name" v="Hestmoa" />
		<tag k="name" v="Hestmoen" />
		<tag k="place" v="locality" />
		<tag k="ssr:stedsnr" v="622516" />
	</node>
	<node lat="67.53849721900444" lon="15.465952777242704" id="-14393">
		<tag k="name" v="Skogheim" />
		<tag k="place" v="farm" />
		<tag k="ssr:stedsnr" v="623955" />
	</node>
	<node lat="67.686141668181" lon="15.804294433804852" id="-14398">
		<tag k="name" v="Storeide" />
		<tag k="place" v="hamlet" />
		<tag k="ssr:stedsnr" v="623546" />
	</node>
	<node lat="67.54111944744345" lon="15.647591665181471" id="-14405">
		<tag k="name" v="Lisj-Sommerset" />
=======
	<node id="-176732" lat="67.3699277762" lon="15.5349999975">
		<tag k="name" v="Moen" />
		<tag k="place" v="farm" />
		<tag k="ssr:stedsnr" v="516725" />
	</node>
	<node id="-177594" lat="67.4003935969" lon="15.6619879952">
		<tag k="alt_name" v="Nedre Evjen;Evja" />
		<tag k="fixme" v="consider place=hamlet" />
		<tag k="name" v="Nedre Evja" />
		<tag k="place" v="farm" />
		<tag k="ssr:stedsnr" v="77965" />
	</node>
	<node id="-176218" lat="67.4197217941" lon="15.5674306777">
		<tag k="name" v="Inner-Låkthågen" />
		<tag k="place" v="farm" />
		<tag k="ssr:stedsnr" v="259529" />
	</node>
	<node id="-178276" lat="67.5462805587" lon="15.260366664">
		<tag k="name" v="Haukenes" />
		<tag k="place" v="farm" />
		<tag k="ssr:stedsnr" v="385938" />
	</node>
	<node id="-176725" lat="67.603450003" lon="15.7173361031">
		<tag k="name" v="Myrmo" />
		<tag k="place" v="farm" />
		<tag k="ssr:stedsnr" v="516546" />
	</node>
	<node id="-178772" lat="67.4522888914" lon="15.4693305563">
		<tag k="name" v="Nytra" />
>>>>>>> e1d4bc35ff8a6074a6f2e91616a996b547c36f15
		<tag k="place" v="farm" />
		<tag k="ssr:stedsnr" v="623986" />
	</node>
<<<<<<< HEAD
	<node lat="67.68993938809062" lon="15.840965783587347" id="-14415">
		<tag k="fixme" v="consider place=hamlet" />
		<tag k="name" v="Sildhopen" />
		<tag k="place" v="farm" />
		<tag k="ssr:stedsnr" v="627129" />
	</node>
	<node lat="67.56021111464386" lon="15.645450004004587" id="-14428">
		<tag k="name" v="Gunnarlægeret" />
		<tag k="place" v="locality" />
		<tag k="ssr:stedsnr" v="627920" />
	</node>
	<node lat="67.4739722235634" lon="15.547402775870157" id="-14432">
		<tag k="name" v="Innergarden" />
=======
	<node id="-177678" lat="67.3982027752" lon="15.6702055556">
		<tag k="name" v="Veslegård" />
		<tag k="place" v="farm" />
		<tag k="ssr:stedsnr" v="92175" />
	</node>
	<node id="-177448" lat="67.4891305552" lon="15.8736305454">
		<tag k="name" v="Olavsbu" />
		<tag k="place" v="isolated_dwelling" />
		<tag k="ssr:stedsnr" v="16758" />
	</node>
	<node id="-178768" lat="67.4442750027" lon="15.5541305574">
		<tag k="name" v="Gyltvikmoen" />
		<tag k="place" v="hamlet" />
		<tag k="ssr:stedsnr" v="805516" />
	</node>
	<node id="-177550" lat="67.6306277787" lon="15.9335611028">
		<tag k="name" v="Skoglund" />
		<tag k="place" v="farm" />
		<tag k="ssr:stedsnr" v="31909" />
	</node>
	<node id="-177226" lat="67.7085332982" lon="15.8570806238">
		<tag k="name" v="Mørsvik - Murgos" />
		<tag k="name:no" v="Mørsvik" />
		<tag k="name:smj" v="Murgos" />
		<tag k="old_name:smj" v="Murrgus" />
>>>>>>> e1d4bc35ff8a6074a6f2e91616a996b547c36f15
		<tag k="place" v="hamlet" />
		<tag k="ssr:stedsnr" v="627778" />
	</node>
<<<<<<< HEAD
	<node lat="67.52374444147816" lon="15.494505557824457" id="-14445">
		<tag k="name" v="Hestvik" />
		<tag k="old_name" v="Hestvika" />
=======
	<node id="-177224" lat="67.7252277824" lon="15.9371444382">
		<tag k="name" v="Mørsry" />
>>>>>>> e1d4bc35ff8a6074a6f2e91616a996b547c36f15
		<tag k="place" v="hamlet" />
		<tag k="ssr:stedsnr" v="632491" />
	</node>
<<<<<<< HEAD
	<node lat="67.63258611215603" lon="15.98087777387628" id="-14446">
		<tag k="name" v="Brennhaugmoa" />
		<tag k="place" v="farm" />
		<tag k="ssr:stedsnr" v="637037" />
	</node>
	<node lat="67.51738889216307" lon="15.516783330232565" id="-14475">
		<tag k="name" v="Strøksnes" />
		<tag k="place" v="farm" />
		<tag k="ssr:stedsnr" v="646656" />
	</node>
	<node lat="67.69176944414025" lon="15.802138888424947" id="-14476">
		<tag k="name" v="Steinodden" />
		<tag k="place" v="isolated_dwelling" />
		<tag k="ssr:stedsnr" v="649790" />
	</node>
	<node lat="67.45620555403174" lon="15.472341672058384" id="-14489">
		<tag k="name" v="Vollan" />
=======
	<node id="-176199" lat="67.5824583314" lon="15.8810694472">
		<tag k="name" v="Kvitnes" />
		<tag k="place" v="farm" />
		<tag k="ssr:stedsnr" v="92543" />
	</node>
	<node id="-176220" lat="67.4739722236" lon="15.5474027759">
		<tag k="name" v="Ytter-Kalvika" />
		<tag k="place" v="hamlet" />
		<tag k="ssr:stedsnr" v="259538" />
	</node>
	<node id="-178754" lat="67.5349638915" lon="15.4626888851">
		<tag k="name" v="Storslett" />
		<tag k="place" v="farm" />
		<tag k="ssr:stedsnr" v="772563" />
	</node>
	<node id="-177349" lat="67.5799416624" lon="15.7740111068">
		<tag k="alt_name" v="Leirfjord" />
		<tag k="name" v="Leirfjordgård" />
		<tag k="place" v="farm" />
		<tag k="ssr:stedsnr" v="941425" />
	</node>
	<node id="-178751" lat="67.3699583368" lon="15.534927787">
		<tag k="name" v="Elvemo" />
>>>>>>> e1d4bc35ff8a6074a6f2e91616a996b547c36f15
		<tag k="place" v="farm" />
		<tag k="ssr:stedsnr" v="744487" />
	</node>
<<<<<<< HEAD
	<node lat="67.47431067579242" lon="15.228721246567934" id="-14493">
		<tag k="fixme" v="consider place=hamlet" />
		<tag k="name" v="Vassvika" />
=======
	<node id="-178750" lat="67.3680805513" lon="15.6279666711">
		<tag k="name" v="Rebåsbukt" />
>>>>>>> e1d4bc35ff8a6074a6f2e91616a996b547c36f15
		<tag k="place" v="farm" />
		<tag k="ssr:stedsnr" v="744593" />
	</node>
<<<<<<< HEAD
	<node lat="67.36130103781255" lon="15.585538171557102" id="-14508">
		<tag k="alt_name" v="Valljord" />
		<tag k="name" v="Valljorda" />
		<tag k="place" v="quarter" />
		<tag k="ssr:stedsnr" v="744892" />
	</node>
	<node lat="67.35480555182824" lon="15.550880555547383" id="-14520">
		<tag k="alt_name" v="Seljåsdalen" />
		<tag k="name" v="Seljeåsdalen" />
		<tag k="place" v="farm" />
		<tag k="ssr:stedsnr" v="744870" />
	</node>
	<node lat="67.40781944667756" lon="15.655466673853473" id="-14521">
		<tag k="alt_name" v="Nedregård" />
		<tag k="fixme" v="consider place=hamlet" />
		<tag k="name" v="Nerigården" />
		<tag k="place" v="farm" />
		<tag k="ssr:stedsnr" v="744933" />
	</node>
	<node lat="67.4080088851182" lon="15.532206720526228" id="-14522">
		<tag k="alt_name" v="Hammerfall" />
=======
	<node id="-178237" lat="67.564286112" lon="15.6690111156">
		<tag k="name" v="Kvantoland" />
		<tag k="place" v="hamlet" />
		<tag k="ssr:stedsnr" v="381977" />
	</node>
	<node id="-177208" lat="67.3979361114" lon="15.6499277867">
		<tag k="name" v="Moan" />
		<tag k="place" v="locality" />
		<tag k="ssr:stedsnr" v="926953" />
	</node>
	<node id="-178230" lat="67.6116555521" lon="15.428627778">
		<tag k="name" v="Sagfjorden" />
		<tag k="place" v="hamlet" />
		<tag k="ssr:stedsnr" v="381938" />
	</node>
	<node id="-176782" lat="67.3662472257" lon="15.528105555">
		<tag k="alt_name" v="Skyttenga" />
		<tag k="name" v="Skytteng" />
		<tag k="place" v="farm" />
		<tag k="ssr:stedsnr" v="501869" />
	</node>
	<node id="-178226" lat="67.629302387" lon="15.7334671487">
>>>>>>> e1d4bc35ff8a6074a6f2e91616a996b547c36f15
		<tag k="fixme" v="consider place=hamlet" />
		<tag k="name" v="Hammarfall" />
		<tag k="place" v="farm" />
		<tag k="ssr:stedsnr" v="744946" />
	</node>
<<<<<<< HEAD
	<node lat="67.57442953525513" lon="15.908049311940657" id="-14528">
		<tag k="fixme" v="consider place=hamlet" />
		<tag k="name" v="Sørfjorddalen" />
=======
	<node id="-177713" lat="67.6013944413" lon="15.7174250072">
		<tag k="alt_name" v="Stormohalsen" />
		<tag k="name" v="Stormohals" />
>>>>>>> e1d4bc35ff8a6074a6f2e91616a996b547c36f15
		<tag k="place" v="farm" />
		<tag k="ssr:stedsnr" v="745701" />
	</node>
	<node lat="67.53906851456622" lon="15.392552253025363" id="-14543">
		<tag k="fixme" v="consider place=hamlet" />
		<tag k="name" v="Bjørnsvika" />
		<tag k="place" v="farm" />
		<tag k="ssr:stedsnr" v="745957" />
	</node>
	<node lat="67.57837222418205" lon="15.77048333753947" id="-14594">
		<tag k="name" v="Åsli" />
		<tag k="place" v="isolated_dwelling" />
		<tag k="ssr:stedsnr" v="759388" />
	</node>
<<<<<<< HEAD
	<node lat="67.57867778143388" lon="15.7743694333811" id="-14595">
=======
	<node id="-178736" lat="67.5786777814" lon="15.7743694334">
>>>>>>> e1d4bc35ff8a6074a6f2e91616a996b547c36f15
		<tag k="name" v="Haugan" />
		<tag k="place" v="isolated_dwelling" />
		<tag k="ssr:stedsnr" v="759389" />
	</node>
<<<<<<< HEAD
	<node lat="67.59381389244442" lon="15.94031944893844" id="-14607">
		<tag k="name" v="Sandmo" />
		<tag k="place" v="farm" />
		<tag k="ssr:stedsnr" v="759578" />
	</node>
	<node lat="67.36808055125026" lon="15.627966671075095" id="-14613">
		<tag k="name" v="Rebåsbukt" />
=======
	<node id="-178735" lat="67.5783722242" lon="15.7704833375">
		<tag k="name" v="Åsli" />
		<tag k="place" v="isolated_dwelling" />
		<tag k="ssr:stedsnr" v="759388" />
	</node>
	<node id="-176684" lat="67.6207555553" lon="15.4745305482">
		<tag k="name" v="Kroken" />
>>>>>>> e1d4bc35ff8a6074a6f2e91616a996b547c36f15
		<tag k="place" v="farm" />
		<tag k="ssr:stedsnr" v="771196" />
	</node>
<<<<<<< HEAD
	<node lat="67.4103000023312" lon="15.581324993469797" id="-14614">
		<tag k="name" v="Tørrfjordskjær" />
		<tag k="place" v="isolated_dwelling" />
		<tag k="ssr:stedsnr" v="771581" />
	</node>
	<node lat="67.44427500273918" lon="15.554130557413986" id="-14628">
		<tag k="name" v="Gyltvikmoen" />
		<tag k="place" v="hamlet" />
		<tag k="ssr:stedsnr" v="805516" />
	</node>
	<node lat="67.46141944418238" lon="15.551866661645587" id="-14631">
		<tag k="alt_name" v="Litløverkvarv" />
		<tag k="name" v="Lillekvarv" />
=======
	<node id="-178218" lat="67.3799444442" lon="15.5412027863">
		<tag k="name" v="Nymoen" />
		<tag k="place" v="farm" />
		<tag k="ssr:stedsnr" v="380965" />
	</node>
	<node id="-178640" lat="67.4080088851" lon="15.5322067205">
		<tag k="alt_name" v="Hammerfall" />
		<tag k="fixme" v="consider place=hamlet" />
		<tag k="name" v="Hammarfall" />
		<tag k="place" v="farm" />
		<tag k="ssr:stedsnr" v="744946" />
	</node>
	<node id="-176168" lat="67.5510138856" lon="15.4830888935">
		<tag k="name" v="Ytre Styrkesnes" />
>>>>>>> e1d4bc35ff8a6074a6f2e91616a996b547c36f15
		<tag k="place" v="farm" />
		<tag k="ssr:stedsnr" v="805534" />
	</node>
<<<<<<< HEAD
	<node lat="67.45228889143584" lon="15.46933055632803" id="-14632">
		<tag k="name" v="Nytra" />
=======
	<node id="-176248" lat="67.5378500016" lon="15.2951666754">
		<tag k="name" v="Storvika" />
		<tag k="place" v="farm" />
		<tag k="ssr:stedsnr" v="259944" />
	</node>
	<node id="-178911" lat="67.4422112785" lon="15.7355039482">
		<tag k="fixme" v="consider place=hamlet" />
		<tag k="name" v="Bakkemoen" />
		<tag k="place" v="farm" />
		<tag k="ssr:stedsnr" v="865802" />
	</node>
	<node id="-177699" lat="67.5640111125" lon="15.7616222189">
		<tag k="name" v="Lappstøvik" />
>>>>>>> e1d4bc35ff8a6074a6f2e91616a996b547c36f15
		<tag k="place" v="farm" />
		<tag k="ssr:stedsnr" v="805536" />
	</node>
<<<<<<< HEAD
	<node lat="67.49442809845215" lon="15.369212027848224" id="-14645">
		<tag k="name" v="Gammoen" />
		<tag k="place" v="locality" />
		<tag k="ssr:stedsnr" v="805589" />
	</node>
	<node lat="67.6017333381404" lon="15.992477771538887" id="-14646">
		<tag k="name" v="Austerheim" />
		<tag k="place" v="farm" />
		<tag k="ssr:stedsnr" v="805594" />
	</node>
	<node lat="67.43648492093429" lon="15.721778170912545" id="-14659">
		<tag k="fixme" v="consider place=hamlet" />
		<tag k="name" v="Nordfjord" />
		<tag k="place" v="farm" />
		<tag k="ssr:stedsnr" v="805804" />
	</node>
	<node lat="67.5817242267312" lon="15.892758008418937" id="-14675">
		<tag k="alt_name" v="Engkråg;Einkrågen" />
=======
	<node id="-176219" lat="67.4186887935" lon="15.6525485229">
		<tag k="alt_name" v="Torkeleng;Torkilseng" />
		<tag k="fixme" v="consider place=hamlet" />
		<tag k="name" v="Torkelseng" />
		<tag k="place" v="farm" />
		<tag k="ssr:stedsnr" v="259530" />
	</node>
	<node id="-176169" lat="67.3939596773" lon="15.6885863169">
		<tag k="name" v="Andkilen" />
		<tag k="place" v="farm" />
		<tag k="ssr:stedsnr" v="234300" />
	</node>
	<node id="-177693" lat="67.6296555525" lon="15.9311166609">
		<tag k="name" v="Lundmo" />
		<tag k="place" v="isolated_dwelling" />
		<tag k="ssr:stedsnr" v="92893" />
	</node>
	<node id="-176668" lat="67.480675" lon="15.4661166767">
		<tag k="name" v="Kirkenær" />
		<tag k="place" v="farm" />
		<tag k="ssr:stedsnr" v="395402" />
	</node>
	<node id="-177515" lat="67.3469583359" lon="15.6022222182">
		<tag k="name" v="Lapphaugen" />
		<tag k="place" v="isolated_dwelling" />
		<tag k="ssr:stedsnr" v="30219" />
	</node>
	<node id="-178197" lat="67.57702778" lon="15.8863361049">
		<tag k="alt_name" v="Sørfjordmo" />
		<tag k="name" v="Sørfjordmoen" />
		<tag k="place" v="hamlet" />
		<tag k="ssr:stedsnr" v="380619" />
	</node>
	<node id="-178196" lat="67.4996111094" lon="15.3771888807">
>>>>>>> e1d4bc35ff8a6074a6f2e91616a996b547c36f15
		<tag k="fixme" v="consider place=hamlet" />
		<tag k="name" v="Einkråga" />
		<tag k="place" v="farm" />
		<tag k="ssr:stedsnr" v="806561" />
	</node>
<<<<<<< HEAD
	<node lat="67.63515888636142" lon="15.941750697609711" id="-14679">
		<tag k="alt_name" v="Kobbskardmoen" />
		<tag k="fixme" v="consider place=hamlet" />
		<tag k="name" v="Kobbskarmoen" />
=======
	<node id="-177679" lat="67.3994194451" lon="15.6669722142">
		<tag k="name" v="Lindeheim" />
>>>>>>> e1d4bc35ff8a6074a6f2e91616a996b547c36f15
		<tag k="place" v="farm" />
		<tag k="ssr:stedsnr" v="806619" />
	</node>
<<<<<<< HEAD
	<node lat="67.63660656431149" lon="15.967557459098767" id="-14680">
		<tag k="fixme" v="consider place=hamlet" />
		<tag k="name" v="Gjerelvmoen" />
		<tag k="place" v="farm" />
		<tag k="ssr:stedsnr" v="806624" />
	</node>
	<node lat="67.62455839022333" lon="15.50175598520147" id="-14685">
=======
	<node id="-178190" lat="67.7115560875" lon="15.8565576105">
		<tag k="fixme" v="consider place=hamlet" />
		<tag k="name" v="Elenjorda" />
		<tag k="place" v="farm" />
		<tag k="ssr:stedsnr" v="380563" />
	</node>
	<node id="-177162" lat="67.6063611091" lon="15.5040222095">
>>>>>>> e1d4bc35ff8a6074a6f2e91616a996b547c36f15
		<tag k="fixme" v="consider place=hamlet" />
		<tag k="name" v="Grovassbakken" />
		<tag k="place" v="farm" />
		<tag k="ssr:stedsnr" v="806937" />
	</node>
<<<<<<< HEAD
	<node lat="67.68869444256408" lon="15.813286119033041" id="-14699">
		<tag k="name" v="Klubben" />
		<tag k="place" v="farm" />
		<tag k="ssr:stedsnr" v="809357" />
	</node>
	<node lat="67.44366110930743" lon="15.741572229072712" id="-14704">
		<tag k="name" v="Kålhusmoa" />
=======
	<node id="-176215" lat="67.6912138872" lon="15.8055416727">
		<tag k="name" v="Lisjeide" />
		<tag k="place" v="farm" />
		<tag k="ssr:stedsnr" v="259513" />
	</node>
	<node id="-177155" lat="67.6980173863" lon="15.7966156777">
		<tag k="name" v="Lillegård" />
>>>>>>> e1d4bc35ff8a6074a6f2e91616a996b547c36f15
		<tag k="place" v="farm" />
		<tag k="ssr:stedsnr" v="809563" />
	</node>
<<<<<<< HEAD
	<node lat="67.36346944290104" lon="15.589380550911736" id="-14738">
		<tag k="building" v="industrial" />
		<tag k="industrial" v="factory" />
		<tag k="loc_name" v="Elkem Salten" />
		<tag k="name" v="Salten verk" />
		<tag k="ssr:stedsnr" v="815195" />
	</node>
	<node lat="67.57756111171015" lon="15.77018333007225" id="-14756">
		<tag k="name" v="Pålstein" />
		<tag k="place" v="isolated_dwelling" />
		<tag k="ssr:stedsnr" v="820438" />
	</node>
	<node lat="67.44221127848411" lon="15.735503948164286" id="-14777">
		<tag k="fixme" v="consider place=hamlet" />
		<tag k="name" v="Bakkemoen" />
		<tag k="place" v="farm" />
		<tag k="ssr:stedsnr" v="865802" />
	</node>
	<node lat="67.57774354023732" lon="15.896764827967358" id="-14786">
		<tag k="alt_name" v="Sørfjordskar" />
		<tag k="fixme" v="consider place=hamlet" />
		<tag k="name" v="Sørfjordskardet" />
		<tag k="place" v="farm" />
		<tag k="ssr:stedsnr" v="866555" />
	</node>
	<node lat="67.45627499827258" lon="15.563036110068715" id="-14799">
		<tag k="name" v="Nova" />
		<tag k="place" v="isolated_dwelling" />
		<tag k="ssr:stedsnr" v="866504" />
	</node>
	<node lat="67.45163372639239" lon="15.523325841400624" id="-14800">
		<tag k="alt_name" v="Kvarv, nedre;Nedre Kvarv" />
		<tag k="fixme" v="consider place=hamlet" />
		<tag k="name" v="Ner-Kvarv" />
		<tag k="place" v="farm" />
		<tag k="ssr:stedsnr" v="866506" />
	</node>
	<node lat="67.68653888584043" lon="15.8190694449723" id="-14801">
		<tag k="name" v="Ytter-Skveiren" />
		<tag k="place" v="farm" />
		<tag k="ssr:stedsnr" v="866509" />
	</node>
	<node lat="67.48066666501188" lon="15.737088896706783" id="-14807">
		<tag k="name" v="Faulvasshytta" />
		<tag k="place" v="isolated_dwelling" />
		<tag k="ssr:stedsnr" v="866773" />
	</node>
	<node lat="67.4005545775144" lon="15.689169821921762" id="-14820">
		<tag k="alt_name" v="Øyren" />
		<tag k="fixme" v="consider place=hamlet" />
		<tag k="name" v="Øyra" />
		<tag k="place" v="farm" />
		<tag k="ssr:stedsnr" v="866964" />
	</node>
	<node lat="67.54567221930378" lon="15.260997213601511" id="-14827">
		<tag k="name" v="Ystrand" />
		<tag k="place" v="farm" />
		<tag k="ssr:stedsnr" v="867987" />
	</node>
	<node lat="67.50093110559916" lon="15.152155275805017" id="-14836">
		<tag k="fixme" v="consider place=hamlet" />
		<tag k="name" v="Sjunkan" />
		<tag k="place" v="farm" />
		<tag k="ssr:stedsnr" v="867757" />
	</node>
	<node lat="67.51598611516577" lon="15.584216669135285" id="-14839">
		<tag k="name" v="Inner-Kalvika" />
		<tag k="place" v="farm" />
		<tag k="ssr:stedsnr" v="867961" />
	</node>
	<node lat="67.70838055853065" lon="15.855344434114915" id="-14843">
		<tag k="name" v="Mørsvikbotn camping" />
		<tag k="ssr:stedsnr" v="870125" />
		<tag k="tourism" v="camp_site" />
	</node>
	<node lat="67.51830833676217" lon="15.589800010862874" id="-14866">
		<tag k="name" v="Plassan" />
		<tag k="place" v="locality" />
		<tag k="ssr:stedsnr" v="871834" />
	</node>
	<node lat="67.57994166237701" lon="15.77401110681713" id="-14917">
		<tag k="alt_name" v="Leirfjord" />
		<tag k="name" v="Leirfjordgård" />
		<tag k="place" v="farm" />
		<tag k="ssr:stedsnr" v="941425" />
	</node>
	<node lat="67.62788333742577" lon="15.92980833729802" id="-14929">
		<tag k="name" v="Kolstrand" />
		<tag k="place" v="isolated_dwelling" />
		<tag k="ssr:stedsnr" v="941905" />
	</node>
	<node lat="67.36883055220845" lon="15.539600001781311" id="-14931">
		<tag k="name" v="Rye" />
		<tag k="place" v="isolated_dwelling" />
		<tag k="ssr:stedsnr" v="941716" />
	</node>
	<node lat="67.4635750033298" lon="15.473480545333102" id="-14935">
		<tag k="alt_name" v="Hammervik" />
		<tag k="name" v="Hammarvika" />
		<tag k="place" v="hamlet" />
		<tag k="ssr:stedsnr" v="953888" />
	</node>
	<node lat="67.60483644147651" lon="15.502825050074907" id="-14938">
		<tag k="fixme" v="consider place=hamlet" />
		<tag k="name" v="Tennvatnet" />
		<tag k="place" v="farm" />
		<tag k="ssr:stedsnr" v="1073270" />
	</node>
	<node lat="67.58850352393571" lon="15.222313788840175" id="-14939">
		<tag k="fixme" v="consider place=hamlet" />
		<tag k="name" v="Rørstad" />
		<tag k="place" v="farm" />
		<tag k="ssr:stedsnr" v="1073272" />
	</node>
	<node lat="67.60499136669176" lon="15.724681950376798" id="-14940">
		<tag k="alt_name" v="Bonå" />
		<tag k="fixme" v="consider place=hamlet" />
		<tag k="loc_name" v="Bonnåga" />
		<tag k="name" v="Bonnå" />
		<tag k="place" v="farm" />
		<tag k="ssr:stedsnr" v="1073479" />
	</node>
	<node lat="67.424086014683" lon="15.555998856426532" id="-14961">
		<tag k="fixme" v="consider place=hamlet" />
		<tag k="name" v="Låkthågen" />
		<tag k="place" v="farm" />
		<tag k="ssr:stedsnr" v="1073840" />
	</node>
	<node lat="67.74940002987555" lon="15.746153443800916" id="-15001">
		<tag k="name" v="Salhus" />
		<tag k="place" v="hamlet" />
		<tag k="ssr:stedsnr" v="1074047" />
	</node>
	<node lat="67.41131291589242" lon="15.58296261231529" id="-15002">
		<tag k="alt_name" v="Tørrfjordskjær" />
		<tag k="fixme" v="consider place=hamlet" />
		<tag k="name" v="Tørrfjordskjæret" />
		<tag k="place" v="farm" />
		<tag k="ssr:stedsnr" v="1075791" />
	</node>
	<node lat="67.45282358706149" lon="15.763769272944058" id="-15003">
		<tag k="alt_name" v="Lakshålen" />
		<tag k="fixme" v="consider place=hamlet" />
		<tag k="name" v="Lakshol" />
		<tag k="place" v="farm" />
		<tag k="ssr:stedsnr" v="1075792" />
	</node>
	<node lat="67.39720321611621" lon="15.715978689356032" id="-15004">
		<tag k="alt_name" v="Hellarvik" />
		<tag k="fixme" v="consider place=hamlet" />
		<tag k="name" v="Hellarvika" />
		<tag k="place" v="farm" />
		<tag k="ssr:stedsnr" v="1075797" />
	</node>
	<node lat="67.57512638785543" lon="15.766872466307301" id="-15005">
		<tag k="fixme" v="consider place=hamlet" />
		<tag k="name" v="Leirfjord" />
		<tag k="place" v="farm" />
		<tag k="ssr:stedsnr" v="1075699" />
	</node>
	<node lat="67.60137853228407" lon="15.993749263952376" id="-15006">
		<tag k="fixme" v="consider place=hamlet" />
		<tag k="name" v="Austerelva" />
		<tag k="place" v="farm" />
		<tag k="ssr:stedsnr" v="1075705" />
	</node>
	<node lat="67.57672105740843" lon="15.88425588759939" id="-15007">
		<tag k="fixme" v="consider place=hamlet" />
		<tag k="name" v="Sørfjordmoen" />
		<tag k="place" v="farm" />
		<tag k="ssr:stedsnr" v="1075710" />
	</node>
	<node lat="67.51702760990271" lon="15.588594666369216" id="-15008">
		<tag k="alt_name" v="Kalvik" />
		<tag k="fixme" v="consider place=hamlet" />
		<tag k="name" v="Kalvika" />
		<tag k="place" v="farm" />
		<tag k="ssr:stedsnr" v="1075711" />
	</node>
	<node lat="67.48143566054692" lon="15.597048660724221" id="-15009">
		<tag k="fixme" v="consider place=hamlet" />
		<tag k="loc_name" v="Ospfjorden" />
		<tag k="name" v="Aspfjorden" />
		<tag k="place" v="farm" />
		<tag k="ssr:stedsnr" v="1075712" />
	</node>
	<node lat="67.44537089680934" lon="15.55751441457706" id="-15010">
		<tag k="fixme" v="consider place=hamlet" />
		<tag k="name" v="Gyltvikmoen" />
		<tag k="place" v="farm" />
		<tag k="ssr:stedsnr" v="1075713" />
	</node>
	<node lat="67.4019695115742" lon="15.656224959118306" id="-15011">
		<tag k="alt_name" v="Nordre Evjen" />
		<tag k="fixme" v="consider place=hamlet" />
		<tag k="name" v="Øvre Evja" />
		<tag k="place" v="farm" />
		<tag k="ssr:stedsnr" v="1075799" />
	</node>
	<node lat="67.3501804262734" lon="15.60638040896177" id="-15012">
		<tag k="fixme" v="consider place=hamlet" />
		<tag k="name" v="Straumen" />
		<tag k="place" v="farm" />
		<tag k="ssr:stedsnr" v="1075802" />
	</node>
	<node lat="67.30611222443785" lon="15.679852084213014" id="-15013">
		<tag k="name" v="Røyrvasseidet" />
		<tag k="place" v="locality" />
		<tag k="ssr:stedsnr" v="1075861" />
	</node>
	<node lat="67.35892616124303" lon="15.582781121616893" id="-15014">
		<tag k="name" v="Valljorda" />
		<tag k="place" v="locality" />
		<tag k="ssr:stedsnr" v="1075864" />
	</node>
	<node lat="67.3566218121837" lon="15.551720956820871" id="-15015">
		<tag k="fixme" v="consider place=hamlet" />
		<tag k="name" v="Øvre Seljåsen" />
		<tag k="place" v="farm" />
		<tag k="ssr:stedsnr" v="1075866" />
	</node>
	<node lat="67.47812056977924" lon="15.464885331772903" id="-15016">
		<tag k="fixme" v="consider place=hamlet" />
		<tag k="name" v="Røsvika" />
		<tag k="place" v="farm" />
		<tag k="ssr:stedsnr" v="1075873" />
	</node>
	<node lat="67.50800656630288" lon="15.28576454144718" id="-15017">
		<tag k="fixme" v="consider place=hamlet" />
		<tag k="name" v="Jovika" />
		<tag k="place" v="farm" />
		<tag k="ssr:stedsnr" v="1075875" />
	</node>
	<node lat="67.51495099013655" lon="15.196189747157563" id="-15018">
		<tag k="alt_name" v="Furkvik" />
		<tag k="name" v="Purkvika" />
		<tag k="place" v="locality" />
		<tag k="ssr:stedsnr" v="1075997" />
	</node>
	<node lat="67.71090735084589" lon="15.845362397257317" id="-15019">
		<tag k="fixme" v="consider place=hamlet" />
		<tag k="name" v="Mørsvik" />
		<tag k="place" v="farm" />
		<tag k="ssr:stedsnr" v="1075998" />
	</node>
	<node lat="67.72682903293922" lon="15.93472738944012" id="-15020">
		<tag k="fixme" v="consider place=hamlet" />
		<tag k="name" v="Mørsry" />
		<tag k="place" v="farm" />
		<tag k="ssr:stedsnr" v="1075999" />
	</node>
	<node lat="67.68690488273877" lon="15.816536803151417" id="-15021">
		<tag k="fixme" v="consider place=hamlet" />
		<tag k="name" v="Skveiren" />
		<tag k="place" v="farm" />
		<tag k="ssr:stedsnr" v="1076003" />
	</node>
	<node lat="67.69090774906695" lon="15.802264180795486" id="-15022">
		<tag k="fixme" v="consider place=hamlet" />
		<tag k="name" v="Lisjeidet" />
		<tag k="place" v="farm" />
		<tag k="ssr:stedsnr" v="1076005" />
	</node>
	<node lat="67.36994737301534" lon="15.534859338066674" id="-15024">
		<tag k="name" v="Elvenes" />
		<tag k="place" v="farm" />
		<tag k="ssr:stedsnr" v="1079251" />
	</node>
=======
>>>>>>> e1d4bc35ff8a6074a6f2e91616a996b547c36f15
</osm>
