<?xml version="1.0" encoding="UTF-8"?>
<osm generator="osmapis" version="0.6">
	<node id="-682239" lat="67.5287138863" lon="15.5592500098">
		<tag k="highway" v="path" />
		<tag k="name" v="Pe Lassostia" />
		<tag k="ssr:stedsnr" v="446852" />
	</node>
	<node id="-682238" lat="67.5205416664" lon="15.5349888923">
		<tag k="fixme" v="consider highway=path" />
		<tag k="highway" v="track" />
		<tag k="name" v="Slettvegen" />
		<tag k="ssr:stedsnr" v="446841" />
	</node>
	<node id="-681057" lat="67.6806916645" lon="15.8702083343">
		<tag k="highway" v="path" />
		<tag k="name" v="Sverresvegen" />
		<tag k="ssr:stedsnr" v="381503" />
	</node>
	<node id="-683002" lat="67.6117388923" lon="15.9523166623">
		<tag k="highway" v="path" />
		<tag k="name" v="Bjørnstia" />
		<tag k="ssr:stedsnr" v="698935" />
	</node>
	<node id="-680821" lat="67.4323666709" lon="15.5582305577">
		<tag k="layer" v="-1" />
		<tag k="name" v="Gyltvikvatn" />
		<tag k="ssr:stedsnr" v="287504" />
		<tag k="tunnel" v="yes" />
	</node>
	<node id="-683122" lat="67.6618361103" lon="15.9490055633">
		<tag k="highway" v="path" />
		<tag k="name" v="Ruggesteinvegen" />
		<tag k="ssr:stedsnr" v="749284" />
	</node>
	<node id="-681969" lat="67.4869611079" lon="15.4552166585">
		<tag k="amenity" v="ferry_terminal" />
		<tag k="name" v="Røsvik ferjeleie" />
		<tag k="ssr:stedsnr" v="213395" />
	</node>
	<node id="-683117" lat="67.3136166661" lon="15.6766055482">
		<tag k="landuse" v="industrial" />
		<tag k="name" v="Røyrvatnet kraftverk" />
		<tag k="power" v="plant" />
		<tag k="ssr:stedsnr" v="749033" />
	</node>
	<node id="-681191" lat="67.4241027822" lon="15.5612111012">
		<tag k="layer" v="-1" />
		<tag k="name" v="Løkthaugen" />
		<tag k="ssr:stedsnr" v="408341" />
		<tag k="tunnel" v="yes" />
	</node>
	<node id="-680804" lat="67.5877166649" lon="15.8755499935">
		<tag k="highway" v="path" />
		<tag k="name" v="Reinvegen" />
		<tag k="ssr:stedsnr" v="274512" />
	</node>
	<node id="-683361" lat="67.4573333361" lon="15.5879833231">
		<tag k="highway" v="path" />
		<tag k="name" v="Stia" />
		<tag k="ssr:stedsnr" v="820183" />
	</node>
	<node id="-683736" lat="67.5837583324" lon="15.8899166742">
		<tag k="layer" v="-1" />
		<tag k="name" v="Kobbhammaren" />
		<tag k="ssr:stedsnr" v="954281" />
		<tag k="tunnel" v="yes" />
	</node>
	<node id="-682580" lat="67.5216416662" lon="15.5401499904">
		<tag k="highway" v="path" />
		<tag k="name" v="Naustvikstia" />
		<tag k="ssr:stedsnr" v="567833" />
	</node>
	<node id="-681555" lat="67.5254694435" lon="15.5430500079">
		<tag k="highway" v="path" />
		<tag k="name" v="Magagyttvegen" />
		<tag k="ssr:stedsnr" v="82857" />
	</node>
	<node id="-683730" lat="67.3734083369" lon="15.5313999922">
		<tag k="highway" v="path" />
		<tag k="name" v="Rødbuvegen" />
		<tag k="ssr:stedsnr" v="941721" />
	</node>
	<node id="-681095" lat="67.6220583296" lon="15.5071611204">
		<tag k="highway" v="path" />
		<tag k="name" v="Stia" />
		<tag k="ssr:stedsnr" v="384589" />
	</node>
	<node id="-683213" lat="67.4805499971" lon="15.594927772">
		<tag k="layer" v="-1" />
		<tag k="loc_name" v="Eva tunnel" />
		<tag k="name" v="Eva" />
		<tag k="ssr:stedsnr" v="772410" />
		<tag k="tunnel" v="yes" />
	</node>
	<node id="-681420" lat="67.5852361137" lon="15.7750777863">
		<tag k="highway" v="path" />
		<tag k="name" v="Stian" />
		<tag k="ssr:stedsnr" v="31398" />
	</node>
	<node id="-683212" lat="67.4119722254" lon="15.5871749984">
		<tag k="layer" v="-1" />
		<tag k="name" v="Daumannvik" />
		<tag k="ssr:stedsnr" v="772393" />
		<tag k="tunnel" v="yes" />
	</node>
	<node id="-681569" lat="67.3242000009" lon="15.707241663">
		<tag k="landuse" v="industrial" />
		<tag k="name" v="Siso kraftverk" />
		<tag k="power" v="plant" />
		<tag k="ssr:stedsnr" v="84808" />
	</node>
	<node id="-682229" lat="67.548208329" lon="15.6636972217">
		<tag k="man_made" v="quay" />
		<tag k="name" v="Fergekaia" />
		<tag k="place" v="locality" />
		<tag k="ssr:stedsnr" v="446812" />
	</node>
	<node id="-683705" lat="67.4142250008" lon="15.6821666686">
		<tag k="highway" v="path" />
		<tag k="name" v="Skjellvegan" />
		<tag k="ssr:stedsnr" v="941217" />
	</node>
	<node id="-682807" lat="67.467719443" lon="15.5810888879">
		<tag k="layer" v="-1" />
		<tag k="name" v="Aspfjord" />
		<tag k="ssr:stedsnr" v="650077" />
		<tag k="tunnel" v="yes" />
	</node>
	<node id="-681202" lat="67.4216888869" lon="15.6699222182">
		<tag k="layer" v="-1" />
		<tag k="name" v="Trengsel" />
		<tag k="ssr:stedsnr" v="894708" />
		<tag k="tunnel" v="yes" />
	</node>
	<node id="-681897" lat="67.6295638864" lon="15.7527888839">
		<tag k="ford" v="yes" />
		<tag k="name" v="Vadan" />
		<tag k="place" v="locality" />
		<tag k="ssr:stedsnr" v="203340" />
	</node>
	<node id="-681383" lat="67.3398527818" lon="15.7281333404">
		<tag k="ford" v="yes" />
		<tag k="name" v="Bjørnvadet" />
		<tag k="place" v="locality" />
		<tag k="ssr:stedsnr" v="21945" />
	</node>
	<node id="-682118" lat="67.4901083337" lon="15.5863888824">
		<tag k="layer" v="-1" />
		<tag k="name" v="Kalviktunnelen" />
		<tag k="ssr:stedsnr" v="266789" />
		<tag k="tunnel" v="yes" />
	</node>
	<node id="-683170" lat="67.4115222212" lon="15.6692638998">
		<tag k="highway" v="path" />
		<tag k="name" v="Trettmovegen" />
		<tag k="ssr:stedsnr" v="759226" />
	</node>
	<node id="-681749" lat="67.5327555514" lon="15.5697138877">
		<tag k="highway" v="path" />
		<tag k="name" v="Kibakkan" />
		<tag k="ssr:stedsnr" v="142863" />
	</node>
	<node id="-681619" lat="67.5322888858" lon="15.633797231">
		<tag k="layer" v="-1" />
		<tag k="name" v="Berrflogtunnelen" />
		<tag k="ssr:stedsnr" v="268471" />
		<tag k="tunnel" v="yes" />
	</node>
	<node id="-681616" lat="67.4162944407" lon="15.6725694399">
		<tag k="layer" v="-1" />
		<tag k="name" v="Tennflåget" />
		<tag k="ssr:stedsnr" v="105702" />
		<tag k="tunnel" v="yes" />
	</node>
	<node id="-683531" lat="67.6024416699" lon="15.9479222316">
		<tag k="layer" v="-1" />
		<tag k="name" v="Middagsfjelltunnelen" />
		<tag k="ssr:stedsnr" v="876170" />
		<tag k="tunnel" v="yes" />
	</node>
	<node id="-683401" lat="67.5580111115" lon="15.7611972324">
		<tag k="layer" v="-1" />
		<tag k="name" v="Glefloget" />
		<tag k="ssr:stedsnr" v="833454" />
		<tag k="tunnel" v="yes" />
	</node>
	<node id="-683400" lat="67.4075444455" lon="15.651633334">
		<tag k="layer" v="-1" />
		<tag k="name" v="Megård" />
		<tag k="ssr:stedsnr" v="833342" />
		<tag k="tunnel" v="yes" />
	</node>
	<node id="-683399" lat="67.5535527815" lon="15.7059194501">
		<tag k="layer" v="-1" />
		<tag k="name" v="Kannfloget" />
		<tag k="ssr:stedsnr" v="833260" />
		<tag k="tunnel" v="yes" />
	</node>
	<node id="-682630" lat="67.570447221" lon="15.8473722242">
		<tag k="layer" v="-1" />
		<tag k="name" v="Rauhammaren" />
		<tag k="ssr:stedsnr" v="590371" />
		<tag k="tunnel" v="yes" />
	</node>
	<node id="-682244" lat="67.328750003" lon="15.723163897">
		<tag k="highway" v="path" />
		<tag k="name" v="Stellet" />
		<tag k="ssr:stedsnr" v="446947" />
	</node>
	<node id="-682755" lat="67.6726333376" lon="15.8780527685">
		<tag k="layer" v="-1" />
		<tag k="name" v="Kobbskartunnelen" />
		<tag k="ssr:stedsnr" v="633170" />
		<tag k="tunnel" v="yes" />
	</node>
</osm>
