<?xml version="1.0" encoding="UTF-8"?>
<osm generator="osmapis" version="0.6">
	<node id="-167103" lat="67.4812027814" lon="15.4674749939">
		<tag k="alt_name" v="Sørfold" />
		<tag k="amenity" v="place_of_worship" />
		<tag k="denomination" v="lutheran" />
		<tag k="name" v="Røsvik kirke" />
		<tag k="religion" v="christian" />
		<tag k="ssr:stedsnr" v="753264" />
	</node>
	<node id="-164762" lat="67.396636109" lon="15.6993416551">
		<tag k="name" v="Fossen" />
		<tag k="place" v="locality" />
		<tag k="ssr:stedsnr" v="164176" />
	</node>
	<node id="-165337" lat="67.5533805551" lon="15.5964638884">
		<tag k="name" v="Frukosthågen" />
		<tag k="ssr:stedsnr" v="689783" />
		<tag k="tourism" v="viewpoint" />
	</node>
	<node id="-164537" lat="67.6640999988" lon="15.9992416564">
		<tag k="name" v="Basis" />
		<tag k="place" v="locality" />
		<tag k="ssr:stedsnr" v="21519" />
	</node>
	<node id="-166766" lat="67.5436083357" lon="15.595783339">
		<tag k="name" v="Gjerdan" />
		<tag k="place" v="locality" />
		<tag k="ssr:stedsnr" v="562985" />
	</node>
	<node id="-166954" lat="67.5461555528" lon="15.7394972161">
		<tag k="name" v="Amundgammen" />
		<tag k="place" v="locality" />
		<tag k="ssr:stedsnr" v="627646" />
	</node>
	<node id="-165864" lat="67.6490222231" lon="15.760258337">
		<tag k="name" v="Muorkke" />
		<tag k="name:smj" v="Muorkke" />
		<tag k="old_name:smj" v="Muorki" />
		<tag k="place" v="locality" />
		<tag k="ssr:stedsnr" v="17632" />
	</node>
	<node id="-166055" lat="67.3767527795" lon="15.6078444557">
		<tag k="cemetery" v="grave" />
		<tag k="name" v="Helland kirkegård" />
		<tag k="place" v="locality" />
		<tag k="ssr:stedsnr" v="91280" />
	</node>
	<node id="-166914" lat="67.5617222189" lon="15.7350750046">
		<tag k="name" v="Preikstolen" />
		<tag k="ssr:stedsnr" v="623686" />
		<tag k="tourism" v="viewpoint" />
	</node>
</osm>
