<?xml version="1.0" encoding="UTF-8"?>
<osm version="0.6" generator="osmapis">
	<node lat="67.634994441932" lon="15.18455554557391" id="-19112">
		<tag k="name" v="Tømmerhola" />
		<tag k="natural" v="valley" />
		<tag k="place" v="locality" />
		<tag k="ssr:stedsnr" v="16027" />
	</node>
	<node lat="67.4566388887234" lon="15.18370832737964" id="-19116">
		<tag k="name" v="Sommarset" />
		<tag k="natural" v="slope" />
		<tag k="place" v="locality" />
		<tag k="ssr:stedsnr" v="16556" />
	</node>
	<node lat="67.39042500313809" lon="15.676963890754648" id="-19123">
		<tag k="name" v="Trehauken" />
		<tag k="natural" v="hill" />
		<tag k="place" v="locality" />
		<tag k="ssr:stedsnr" v="16978" />
	</node>
	<node lat="67.44443055956056" lon="15.873605545734996" id="-19124">
		<tag k="fixme" v="consider natural=peak for the most distinct mountains in the district" />
		<tag k="name" v="Helligholknubben" />
		<tag k="natural" v="hill" />
		<tag k="place" v="locality" />
		<tag k="ssr:stedsnr" v="16807" />
	</node>
	<node lat="67.28024166260566" lon="15.591722214907836" id="-19126">
		<tag k="fixme" v="consider natural=peak for the most distinct mountains in the district" />
		<tag k="name" v="Stangfjellet" />
		<tag k="natural" v="hill" />
		<tag k="place" v="locality" />
		<tag k="ssr:stedsnr" v="16855" />
	</node>
	<node lat="67.58853333173053" lon="15.77252777684503" id="-19129">
		<tag k="name" v="Kvanntolia" />
		<tag k="natural" v="slope" />
		<tag k="place" v="locality" />
		<tag k="ssr:stedsnr" v="17605" />
	</node>
	<node lat="67.62361388572565" lon="15.805986112311015" id="-19130">
		<tag k="fixme" v="consider natural=peak for the most distinct mountains in the district" />
		<tag k="name" v="Storkorken" />
		<tag k="natural" v="hill" />
		<tag k="place" v="locality" />
		<tag k="ssr:stedsnr" v="17611" />
	</node>
	<node lat="67.58872499912502" lon="15.636891665172161" id="-19141">
		<tag k="fixme" v="consider natural=peak for the most distinct mountains in the district" />
		<tag k="name" v="Snøfjellet" />
		<tag k="natural" v="hill" />
		<tag k="place" v="locality" />
		<tag k="ssr:stedsnr" v="17914" />
	</node>
	<node lat="67.36654444869471" lon="15.562366660074483" id="-19170">
		<tag k="name" v="Krekan" />
		<tag k="natural" v="valley" />
		<tag k="place" v="locality" />
		<tag k="ssr:stedsnr" v="30285" />
	</node>
	<node lat="67.39832499944988" lon="15.517952784646846" id="-19171">
		<tag k="name" v="Trollkjelen" />
		<tag k="natural" v="valley" />
		<tag k="place" v="locality" />
		<tag k="ssr:stedsnr" v="30669" />
	</node>
	<node lat="67.36918888780792" lon="15.514572217004826" id="-19172">
		<tag k="name" v="Ramnfloget" />
		<tag k="natural" v="cliff" />
		<tag k="ssr:stedsnr" v="30701" />
	</node>
	<node lat="67.38328889260634" lon="15.53613055919701" id="-19173">
		<tag k="name" v="Nakken" />
		<tag k="natural" v="hill" />
		<tag k="place" v="locality" />
		<tag k="ssr:stedsnr" v="30719" />
	</node>
	<node lat="67.64468055956814" lon="15.987408343027555" id="-19174">
		<tag k="name" v="Mastermoa" />
		<tag k="place" v="locality" />
		<tag k="ssr:stedsnr" v="31109" />
	</node>
	<node lat="67.47024166366602" lon="15.58699722198573" id="-19175">
		<tag k="name" v="Stormoen" />
		<tag k="place" v="locality" />
		<tag k="ssr:stedsnr" v="31162" />
	</node>
	<node lat="67.39547500177021" lon="15.603652782472798" id="-19177">
		<tag k="name" v="Storhaugen" />
		<tag k="natural" v="hill" />
		<tag k="place" v="locality" />
		<tag k="ssr:stedsnr" v="31208" />
	</node>
	<node lat="67.42130654782774" lon="15.661539704421065" id="-19178">
		<tag k="fixme" v="consider natural=peak for the most distinct mountains in the district" />
		<tag k="name" v="Torkelsengkollen" />
		<tag k="natural" v="hill" />
		<tag k="place" v="locality" />
		<tag k="ssr:stedsnr" v="31219" />
	</node>
	<node lat="67.4375527784865" lon="15.475694441828036" id="-19183">
		<tag k="name" v="Nerånsviklian" />
		<tag k="natural" v="slope" />
		<tag k="place" v="locality" />
		<tag k="ssr:stedsnr" v="31522" />
	</node>
	<node lat="67.4354555592402" lon="15.472294443267034" id="-19184">
		<tag k="name" v="Karijordbakken" />
		<tag k="natural" v="slope" />
		<tag k="place" v="locality" />
		<tag k="ssr:stedsnr" v="31524" />
	</node>
	<node lat="67.6019000038091" lon="15.725383341889522" id="-19187">
		<tag k="name" v="Skjerpa" />
		<tag k="place" v="locality" />
		<tag k="ssr:stedsnr" v="31577" />
	</node>
	<node lat="67.6327444397274" lon="15.933686116841425" id="-19190">
		<tag k="name" v="Vasslettbakken" />
		<tag k="natural" v="slope" />
		<tag k="place" v="locality" />
		<tag k="ssr:stedsnr" v="31911" />
	</node>
	<node lat="67.6273833353577" lon="15.927394438921285" id="-19191">
		<tag k="fixme" v="consider natural=peak for the most distinct mountains in the district" />
		<tag k="name" v="Åsen" />
		<tag k="natural" v="hill" />
		<tag k="place" v="locality" />
		<tag k="ssr:stedsnr" v="31919" />
	</node>
	<node lat="67.76539722234808" lon="15.947669439901176" id="-19195">
		<tag k="name" v="Tennvasskaret" />
		<tag k="natural" v="valley" />
		<tag k="place" v="locality" />
		<tag k="ssr:stedsnr" v="48809" />
	</node>
	<node lat="67.4258749968427" lon="15.69035833049797" id="-19204">
		<tag k="alt_name" v="Høgbakkan" />
		<tag k="fixme" v="consider natural=peak for the most distinct mountains in the district" />
		<tag k="name" v="Høgbakken" />
		<tag k="natural" v="hill" />
		<tag k="place" v="locality" />
		<tag k="ssr:stedsnr" v="77552" />
	</node>
	<node lat="67.59026944305413" lon="15.790911113781732" id="-19209">
		<tag k="name" v="Ostenbotn" />
		<tag k="natural" v="slope" />
		<tag k="place" v="locality" />
		<tag k="ssr:stedsnr" v="77617" />
	</node>
	<node lat="67.46773333523342" lon="15.456338892602002" id="-19210">
		<tag k="name" v="Middagshaugen" />
		<tag k="natural" v="hill" />
		<tag k="place" v="locality" />
		<tag k="ssr:stedsnr" v="77628" />
	</node>
	<node lat="67.51941666390638" lon="16.157416666738232" id="-19212">
		<tag k="alt_name:no" v="Gaulis, austre" />
		<tag k="fixme" v="consider natural=peak for the most distinct mountains in the district" />
		<tag k="name" v="Austre Gaulis - Lulep Gávddelis" />
		<tag k="name:no" v="Austre Gaulis" />
		<tag k="name:smj" v="Lulep Gávddelis" />
		<tag k="natural" v="hill" />
		<tag k="old_name:smj" v="Gávdelis lulit" />
		<tag k="place" v="locality" />
		<tag k="ssr:stedsnr" v="77666" />
	</node>
	<node lat="67.66783888950329" lon="15.985069455702575" id="-19216">
		<tag k="name" v="Tomashola" />
		<tag k="natural" v="valley" />
		<tag k="place" v="locality" />
		<tag k="ssr:stedsnr" v="78495" />
	</node>
	<node lat="67.38291110951502" lon="15.623399995351738" id="-19238">
		<tag k="fixme" v="consider natural=peak for the most distinct mountains in the district" />
		<tag k="name" v="Holåsen" />
		<tag k="natural" v="hill" />
		<tag k="place" v="locality" />
		<tag k="ssr:stedsnr" v="91323" />
	</node>
	<node lat="67.37867777867527" lon="15.60575278782715" id="-19239">
		<tag k="name" v="Geitvikberget" />
		<tag k="natural" v="hill" />
		<tag k="place" v="locality" />
		<tag k="ssr:stedsnr" v="91368" />
	</node>
	<node lat="67.47461944138729" lon="15.426405558792698" id="-19240">
		<tag k="name" v="Lisjvasshaugen" />
		<tag k="natural" v="hill" />
		<tag k="place" v="locality" />
		<tag k="ssr:stedsnr" v="91416" />
	</node>
	<node lat="67.36439722344606" lon="15.527247230514488" id="-19241">
		<tag k="name" v="Strupen" />
		<tag k="natural" v="valley" />
		<tag k="place" v="locality" />
		<tag k="ssr:stedsnr" v="91708" />
	</node>
	<node lat="67.39608888551031" lon="15.596113881172576" id="-19244">
		<tag k="name" v="Grindvikhaugen" />
		<tag k="natural" v="hill" />
		<tag k="place" v="locality" />
		<tag k="ssr:stedsnr" v="92205" />
	</node>
	<node lat="67.42037221934206" lon="15.649583320944783" id="-19245">
		<tag k="name" v="Torkelsengloftet" />
		<tag k="place" v="locality" />
		<tag k="ssr:stedsnr" v="92217" />
	</node>
	<node lat="67.41781388736214" lon="15.64005555388042" id="-19246">
		<tag k="name" v="Dalan" />
		<tag k="natural" v="valley" />
		<tag k="place" v="locality" />
		<tag k="ssr:stedsnr" v="92223" />
	</node>
	<node lat="67.41308055933743" lon="15.631969443615011" id="-19247">
		<tag k="name" v="Laupbakk" />
		<tag k="natural" v="slope" />
		<tag k="place" v="locality" />
		<tag k="ssr:stedsnr" v="92226" />
	</node>
	<node lat="67.64005277447286" lon="15.976613896096636" id="-19248">
		<tag k="name" v="Høgbakken" />
		<tag k="natural" v="slope" />
		<tag k="place" v="locality" />
		<tag k="ssr:stedsnr" v="92870" />
	</node>
	<node lat="67.43538611163673" lon="15.93074721788755" id="-19254">
		<tag k="name" v="Biehtselåpptå" />
		<tag k="name:smj" v="Biehtselåpptå" />
		<tag k="natural" v="slope" />
		<tag k="old_name:smj" v="Beahcelokta" />
		<tag k="place" v="locality" />
		<tag k="ssr:stedsnr" v="137215" />
	</node>
	<node lat="67.41034444355151" lon="15.940250007596285" id="-19255">
		<tag k="fixme" v="consider natural=peak for the most distinct mountains in the district" />
		<tag k="name" v="Boadnjásjroahtte" />
		<tag k="name:smj" v="Boadnjásjroahtte" />
		<tag k="natural" v="hill" />
		<tag k="old_name:smj" v="Boatnjášroahtti" />
		<tag k="place" v="locality" />
		<tag k="ssr:stedsnr" v="137228" />
	</node>
	<node lat="67.3936138885662" lon="15.821300004839824" id="-19257">
		<tag k="name" v="Rájrrevágge" />
		<tag k="name:smj" v="Rájrrevágge" />
		<tag k="natural" v="valley" />
		<tag k="old_name:smj" v="Ráirevággi" />
		<tag k="place" v="locality" />
		<tag k="ssr:stedsnr" v="137231" />
	</node>
	<node lat="67.48345000139331" lon="16.015983334032015" id="-19260">
		<tag k="name" v="Gammsletta" />
		<tag k="place" v="locality" />
		<tag k="ssr:stedsnr" v="137742" />
	</node>
	<node lat="67.46523611308857" lon="16.10593609984805" id="-19261">
		<tag k="fixme" v="consider natural=peak for the most distinct mountains in the district" />
		<tag k="name" v="Bajep Tjuorvvomoajvve" />
		<tag k="name:smj" v="Bajep Tjuorvvomoajvve" />
		<tag k="natural" v="hill" />
		<tag k="old_name:smj" v="Čuorvunoaivi, bajit" />
		<tag k="place" v="locality" />
		<tag k="ssr:stedsnr" v="137759" />
	</node>
	<node lat="67.40538332948168" lon="15.714236101503436" id="-19264">
		<tag k="name" v="Øyrkollen" />
		<tag k="natural" v="hill" />
		<tag k="place" v="locality" />
		<tag k="ssr:stedsnr" v="137929" />
	</node>
	<node lat="67.59261944406563" lon="15.696336122221917" id="-19276">
		<tag k="name" v="Storfloget" />
		<tag k="place" v="locality" />
		<tag k="ssr:stedsnr" v="138899" />
	</node>
	<node lat="67.56327499804807" lon="16.319430560829662" id="-19278">
		<tag k="fixme" v="consider natural=peak for the most distinct mountains in the district" />
		<tag k="name" v="Ridoalgetjåhkkå" />
		<tag k="name:smj" v="Ridoalgetjåhkkå" />
		<tag k="natural" v="hill" />
		<tag k="old_name:smj" v="Ridoalggičohkka" />
		<tag k="place" v="locality" />
		<tag k="ssr:stedsnr" v="138755" />
	</node>
	<node lat="67.64235000408594" lon="15.620824995825119" id="-19281">
		<tag k="name" v="Gamhaugen" />
		<tag k="natural" v="hill" />
		<tag k="place" v="locality" />
		<tag k="ssr:stedsnr" v="138913" />
	</node>
	<node lat="67.63854166833403" lon="15.984780565307114" id="-19309">
		<tag k="name" v="Larsbakken" />
		<tag k="natural" v="slope" />
		<tag k="place" v="locality" />
		<tag k="ssr:stedsnr" v="152116" />
	</node>
	<node lat="67.6346305597748" lon="15.997822228325571" id="-19310">
		<tag k="name" v="Hesthaugen" />
		<tag k="natural" v="hill" />
		<tag k="place" v="locality" />
		<tag k="ssr:stedsnr" v="152055" />
	</node>
	<node lat="67.575969445313" lon="15.76347776953053" id="-19313">
		<tag k="name" v="Uttibenken" />
		<tag k="natural" v="slope" />
		<tag k="place" v="locality" />
		<tag k="ssr:stedsnr" v="152462" />
	</node>
	<node lat="67.59364444343007" lon="15.711480561579917" id="-19317">
		<tag k="name" v="Hansmølnbakken" />
		<tag k="natural" v="slope" />
		<tag k="place" v="locality" />
		<tag k="ssr:stedsnr" v="152506" />
	</node>
	<node lat="67.58645278080317" lon="15.721630564068969" id="-19318">
		<tag k="name" v="Kattmoen" />
		<tag k="place" v="locality" />
		<tag k="ssr:stedsnr" v="152521" />
	</node>
	<node lat="67.58772777484975" lon="15.971411120561788" id="-19320">
		<tag k="fixme" v="consider natural=peak for the most distinct mountains in the district" />
		<tag k="name" v="Kvannto" />
		<tag k="natural" v="hill" />
		<tag k="place" v="locality" />
		<tag k="ssr:stedsnr" v="152611" />
	</node>
	<node lat="67.37463611346024" lon="15.522713883101215" id="-19322">
		<tag k="name" v="Slettlia" />
		<tag k="natural" v="slope" />
		<tag k="place" v="locality" />
		<tag k="ssr:stedsnr" v="152712" />
	</node>
	<node lat="67.41874721910075" lon="15.946086121185711" id="-19324">
		<tag k="name" v="Litlverivassbotnen" />
		<tag k="natural" v="valley" />
		<tag k="place" v="locality" />
		<tag k="ssr:stedsnr" v="258273" />
	</node>
	<node lat="67.47380555617136" lon="15.587869455826661" id="-19325">
		<tag k="fixme" v="consider natural=peak for the most distinct mountains in the district" />
		<tag k="name" v="Innerfjellet" />
		<tag k="natural" v="hill" />
		<tag k="place" v="locality" />
		<tag k="ssr:stedsnr" v="258596" />
	</node>
	<node lat="67.4742777804642" lon="15.47066943433809" id="-19327">
		<tag k="name" v="Tortenvikhaugen" />
		<tag k="natural" v="hill" />
		<tag k="place" v="locality" />
		<tag k="ssr:stedsnr" v="258601" />
	</node>
	<node lat="67.46527499827084" lon="15.220783333378245" id="-19328">
		<tag k="name" v="Kollen" />
		<tag k="natural" v="hill" />
		<tag k="place" v="locality" />
		<tag k="ssr:stedsnr" v="258609" />
	</node>
	<node lat="67.48288055390157" lon="15.561619448787132" id="-19329">
		<tag k="name" v="Skoglia" />
		<tag k="natural" v="slope" />
		<tag k="place" v="locality" />
		<tag k="ssr:stedsnr" v="258623" />
	</node>
	<node lat="67.75390833771651" lon="15.924869436998314" id="-19331">
		<tag k="name" v="Tjierregvuobme" />
		<tag k="name:smj" v="Tjierregvuobme" />
		<tag k="natural" v="valley" />
		<tag k="old_name:smj" v="Čierregvuopmi" />
		<tag k="place" v="locality" />
		<tag k="ssr:stedsnr" v="259232" />
	</node>
	<node lat="67.43986389217034" lon="15.614722228359735" id="-19337">
		<tag k="fixme" v="consider natural=peak for the most distinct mountains in the district" />
		<tag k="name" v="Gyltvikfjellet" />
		<tag k="natural" v="hill" />
		<tag k="place" v="locality" />
		<tag k="ssr:stedsnr" v="259543" />
	</node>
	<node lat="67.53153610884532" lon="15.802927774079807" id="-19341">
		<tag k="name" v="Gadivágge" />
		<tag k="name:smj" v="Gadivágge" />
		<tag k="natural" v="valley" />
		<tag k="old_name:smj" v="Kativagge" />
		<tag k="place" v="locality" />
		<tag k="ssr:stedsnr" v="259645" />
	</node>
	<node lat="67.53563055413605" lon="15.792816656371597" id="-19342">
		<tag k="fixme" v="consider natural=peak for the most distinct mountains in the district" />
		<tag k="name" v="Kati" />
		<tag k="natural" v="hill" />
		<tag k="place" v="locality" />
		<tag k="ssr:stedsnr" v="259647" />
	</node>
	<node lat="67.39210277437986" lon="15.628599992355024" id="-19355">
		<tag k="fixme" v="consider natural=peak for the most distinct mountains in the district" />
		<tag k="name" v="Buviknakken" />
		<tag k="natural" v="hill" />
		<tag k="place" v="locality" />
		<tag k="ssr:stedsnr" v="259977" />
	</node>
	<node lat="67.61957500037013" lon="15.755005565480309" id="-19358">
		<tag k="name" v="Langheikollen" />
		<tag k="natural" v="hill" />
		<tag k="place" v="locality" />
		<tag k="ssr:stedsnr" v="260623" />
	</node>
	<node lat="67.44054444555061" lon="15.875741655565768" id="-19397">
		<tag k="name" v="Sølvskaret" />
		<tag k="natural" v="valley" />
		<tag k="place" v="locality" />
		<tag k="ssr:stedsnr" v="198217" />
	</node>
	<node lat="67.43611666551324" lon="15.83429722695424" id="-19399">
		<tag k="name" v="Storskogdalen" />
		<tag k="natural" v="valley" />
		<tag k="place" v="locality" />
		<tag k="ssr:stedsnr" v="198222" />
	</node>
	<node lat="67.32419166767883" lon="15.796627766765065" id="-19400">
		<tag k="name" v="Tuva" />
		<tag k="natural" v="hill" />
		<tag k="place" v="locality" />
		<tag k="ssr:stedsnr" v="198260" />
	</node>
	<node lat="67.31101110736095" lon="16.121777768373036" id="-19401">
		<tag k="fixme" v="consider natural=peak for the most distinct mountains in the district" />
		<tag k="name" v="Messingtoppen" />
		<tag k="natural" v="hill" />
		<tag k="place" v="locality" />
		<tag k="ssr:stedsnr" v="198267" />
	</node>
	<node lat="67.42870833580662" lon="15.698477788722295" id="-19406">
		<tag k="name" v="Kalvdalen" />
		<tag k="natural" v="valley" />
		<tag k="place" v="locality" />
		<tag k="ssr:stedsnr" v="198521" />
	</node>
	<node lat="67.42487778044199" lon="15.487100008876546" id="-19407">
		<tag k="name" v="Storlikollen" />
		<tag k="natural" v="hill" />
		<tag k="place" v="locality" />
		<tag k="ssr:stedsnr" v="198558" />
	</node>
	<node lat="67.45157500295718" lon="15.208105560186855" id="-19410">
		<tag k="fixme" v="consider natural=peak for the most distinct mountains in the district" />
		<tag k="name" v="Osanakken" />
		<tag k="natural" v="hill" />
		<tag k="place" v="locality" />
		<tag k="ssr:stedsnr" v="198578" />
	</node>
	<node lat="67.46050555109609" lon="15.213875005474787" id="-19411">
		<tag k="fixme" v="consider natural=peak for the most distinct mountains in the district" />
		<tag k="name" v="Svarthamran" />
		<tag k="natural" v="hill" />
		<tag k="place" v="locality" />
		<tag k="ssr:stedsnr" v="198579" />
	</node>
	<node lat="67.34635277442018" lon="15.565824998037895" id="-19414">
		<tag k="fixme" v="consider natural=peak for the most distinct mountains in the district" />
		<tag k="name" v="Dalåsen" />
		<tag k="natural" v="hill" />
		<tag k="place" v="locality" />
		<tag k="ssr:stedsnr" v="198917" />
	</node>
	<node lat="67.34711666300086" lon="15.57624166711971" id="-19415">
		<tag k="name" v="Daldalen" />
		<tag k="natural" v="valley" />
		<tag k="place" v="locality" />
		<tag k="ssr:stedsnr" v="198918" />
	</node>
	<node lat="67.50531388814845" lon="15.60829443709344" id="-19417">
		<tag k="fixme" v="consider natural=peak for the most distinct mountains in the district" />
		<tag k="name" v="Klimpen" />
		<tag k="natural" v="hill" />
		<tag k="place" v="locality" />
		<tag k="ssr:stedsnr" v="199554" />
	</node>
	<node lat="67.54426944399778" lon="16.334019443142786" id="-19419">
		<tag k="name" v="Hurre" />
		<tag k="name:smj" v="Hurre" />
		<tag k="natural" v="mountain_range" />
		<tag k="ssr:stedsnr" v="199761" />
	</node>
	<node lat="67.61469721946405" lon="15.7322972194262" id="-19422">
		<tag k="name" v="Svarthaugdyen" />
		<tag k="natural" v="hill" />
		<tag k="place" v="locality" />
		<tag k="ssr:stedsnr" v="199610" />
	</node>
	<node lat="67.61823055923115" lon="15.76407776746044" id="-19423">
		<tag k="name" v="Slettfjellkollen" />
		<tag k="natural" v="hill" />
		<tag k="place" v="locality" />
		<tag k="ssr:stedsnr" v="199612" />
	</node>
	<node lat="67.52756388720522" lon="15.700972228764916" id="-19428">
		<tag k="fixme" v="consider natural=peak for the most distinct mountains in the district" />
		<tag k="name" v="Sommarsethøgda" />
		<tag k="natural" v="hill" />
		<tag k="place" v="locality" />
		<tag k="ssr:stedsnr" v="199965" />
	</node>
	<node lat="67.36859721783784" lon="15.655247230446555" id="-19462">
		<tag k="fixme" v="consider natural=peak for the most distinct mountains in the district" />
		<tag k="name" v="Slettlikollen" />
		<tag k="natural" v="hill" />
		<tag k="place" v="locality" />
		<tag k="ssr:stedsnr" v="213292" />
	</node>
	<node lat="67.4364722218511" lon="15.5635333263204" id="-19464">
		<tag k="name" v="Vasslia" />
		<tag k="natural" v="slope" />
		<tag k="place" v="locality" />
		<tag k="ssr:stedsnr" v="213332" />
	</node>
	<node lat="67.46371666396573" lon="15.54692221000079" id="-19465">
		<tag k="name" v="Rødberg" />
		<tag k="natural" v="hill" />
		<tag k="place" v="locality" />
		<tag k="ssr:stedsnr" v="213389" />
	</node>
	<node lat="67.40898611229808" lon="15.515899999061716" id="-19467">
		<tag k="name" v="Rønhaugen" />
		<tag k="natural" v="hill" />
		<tag k="place" v="locality" />
		<tag k="ssr:stedsnr" v="213681" />
	</node>
	<node lat="67.59739999668528" lon="15.88195276963303" id="-19470">
		<tag k="name" v="Kråga" />
		<tag k="natural" v="valley" />
		<tag k="place" v="locality" />
		<tag k="ssr:stedsnr" v="213586" />
	</node>
	<node lat="67.37041110802033" lon="15.517019444869923" id="-19471">
		<tag k="name" v="Mølnheia" />
		<tag k="natural" v="hill" />
		<tag k="place" v="locality" />
		<tag k="ssr:stedsnr" v="213707" />
	</node>
	<node lat="67.36033610867835" lon="15.505894442040862" id="-19475">
		<tag k="name" v="Åmagamsletta" />
		<tag k="place" v="locality" />
		<tag k="ssr:stedsnr" v="271876" />
	</node>
	<node lat="67.36125000409523" lon="15.509797221926496" id="-19479">
		<tag k="name" v="Fjellskytthammaren" />
		<tag k="natural" v="hill" />
		<tag k="place" v="locality" />
		<tag k="ssr:stedsnr" v="453846" />
	</node>
	<node lat="67.3530583333661" lon="15.57419721858038" id="-19480">
		<tag k="name" v="Mellomhaugen" />
		<tag k="natural" v="hill" />
		<tag k="place" v="locality" />
		<tag k="ssr:stedsnr" v="455196" />
	</node>
	<node lat="67.44710555621499" lon="15.52401110587266" id="-19483">
		<tag k="name" v="Risaksla" />
		<tag k="natural" v="ridge" />
		<tag k="place" v="locality" />
		<tag k="ssr:stedsnr" v="455535" />
	</node>
	<node lat="67.3672472255699" lon="15.496569441385804" id="-19484">
		<tag k="name" v="Storsletta" />
		<tag k="place" v="locality" />
		<tag k="ssr:stedsnr" v="455659" />
	</node>
	<node lat="67.37690833552901" lon="15.533719442034712" id="-19486">
		<tag k="name" v="Myrbenkan" />
		<tag k="natural" v="ridge" />
		<tag k="place" v="locality" />
		<tag k="ssr:stedsnr" v="455690" />
	</node>
	<node lat="67.39016111345329" lon="15.60631665941719" id="-19489">
		<tag k="name" v="Tøbbhaugen" />
		<tag k="natural" v="hill" />
		<tag k="place" v="locality" />
		<tag k="ssr:stedsnr" v="456235" />
	</node>
	<node lat="67.46067221834143" lon="15.544005547273859" id="-19490">
		<tag k="name" v="Brekkhaugen" />
		<tag k="natural" v="hill" />
		<tag k="place" v="locality" />
		<tag k="ssr:stedsnr" v="456345" />
	</node>
	<node lat="67.58189098445173" lon="15.796150068422136" id="-19491">
		<tag k="name" v="Dalan" />
		<tag k="natural" v="valley" />
		<tag k="place" v="locality" />
		<tag k="ssr:stedsnr" v="456440" />
	</node>
	<node lat="67.59309722594284" lon="15.912838896856922" id="-19495">
		<tag k="name" v="Moan" />
		<tag k="place" v="locality" />
		<tag k="ssr:stedsnr" v="456556" />
	</node>
	<node lat="67.59895277719971" lon="15.840022213130059" id="-19496">
		<tag k="name" v="Grønnslækern" />
		<tag k="place" v="locality" />
		<tag k="ssr:stedsnr" v="456597" />
	</node>
	<node lat="67.63731388806245" lon="15.950730546746675" id="-19500">
		<tag k="name" v="Innerlia" />
		<tag k="natural" v="slope" />
		<tag k="place" v="locality" />
		<tag k="ssr:stedsnr" v="456871" />
	</node>
	<node lat="67.37610555570338" lon="15.720463877353167" id="-19506">
		<tag k="name" v="Kabbushola" />
		<tag k="natural" v="valley" />
		<tag k="place" v="locality" />
		<tag k="ssr:stedsnr" v="259252" />
	</node>
	<node lat="67.30289166774494" lon="15.830661121928049" id="-19508">
		<tag k="fixme" v="consider natural=peak for the most distinct mountains in the district" />
		<tag k="name" v="Stortverråfjellet" />
		<tag k="natural" v="hill" />
		<tag k="place" v="locality" />
		<tag k="ssr:stedsnr" v="259282" />
	</node>
	<node lat="67.5922222185023" lon="15.781291667802208" id="-19517">
		<tag k="name" v="Skaret" />
		<tag k="natural" v="valley" />
		<tag k="place" v="locality" />
		<tag k="ssr:stedsnr" v="259573" />
	</node>
	<node lat="67.66906111124364" lon="15.634519433236566" id="-19529">
		<tag k="fixme" v="consider natural=peak for the most distinct mountains in the district" />
		<tag k="name" v="Sommarfjellet - Giessevárre" />
		<tag k="name:no" v="Sommarfjellet" />
		<tag k="name:smj" v="Giessevárre" />
		<tag k="natural" v="hill" />
		<tag k="old_name:smj" v="Geassevárri" />
		<tag k="place" v="locality" />
		<tag k="ssr:stedsnr" v="259847" />
	</node>
	<node lat="67.6519722187898" lon="15.315694441190894" id="-19530">
		<tag k="fixme" v="consider natural=peak for the most distinct mountains in the district" />
		<tag k="name" v="Slåttlitinden" />
		<tag k="natural" v="hill" />
		<tag k="place" v="locality" />
		<tag k="ssr:stedsnr" v="259850" />
	</node>
	<node lat="67.47015833024103" lon="15.463088894604665" id="-19547">
		<tag k="name" v="Middagshaugen" />
		<tag k="natural" v="hill" />
		<tag k="place" v="locality" />
		<tag k="ssr:stedsnr" v="273404" />
	</node>
	<node lat="67.51385277556354" lon="15.513941677234916" id="-19548">
		<tag k="name" v="Sjøhaugen" />
		<tag k="natural" v="hill" />
		<tag k="place" v="locality" />
		<tag k="ssr:stedsnr" v="273428" />
	</node>
	<node lat="67.46042221863279" lon="15.520155546426576" id="-19551">
		<tag k="name" v="Ramnfloget" />
		<tag k="natural" v="cliff" />
		<tag k="ssr:stedsnr" v="273575" />
	</node>
	<node lat="67.42408889043148" lon="15.511188883594926" id="-19553">
		<tag k="name" v="Dikbakken" />
		<tag k="natural" v="slope" />
		<tag k="place" v="locality" />
		<tag k="ssr:stedsnr" v="273626" />
	</node>
	<node lat="67.64020555480295" lon="15.980922218411834" id="-19554">
		<tag k="name" v="Innerstormoa" />
		<tag k="place" v="locality" />
		<tag k="ssr:stedsnr" v="274086" />
	</node>
	<node lat="67.40267777710267" lon="15.612280563902976" id="-19556">
		<tag k="name" v="Breimoa" />
		<tag k="place" v="locality" />
		<tag k="ssr:stedsnr" v="274191" />
	</node>
	<node lat="67.5976083321639" lon="15.827169455027287" id="-19557">
		<tag k="name" v="Geitdalen" />
		<tag k="natural" v="valley" />
		<tag k="place" v="locality" />
		<tag k="ssr:stedsnr" v="274409" />
	</node>
	<node lat="67.6130472193412" lon="15.7216444337519" id="-19559">
		<tag k="name" v="Danielheia" />
		<tag k="natural" v="hill" />
		<tag k="place" v="locality" />
		<tag k="ssr:stedsnr" v="274485" />
	</node>
	<node lat="67.62184167054379" lon="15.736727781660813" id="-19560">
		<tag k="name" v="Brøtan" />
		<tag k="natural" v="slope" />
		<tag k="place" v="locality" />
		<tag k="ssr:stedsnr" v="274488" />
	</node>
	<node lat="67.61364166929734" lon="15.752211109501246" id="-19561">
		<tag k="name" v="Einhaugen" />
		<tag k="natural" v="hill" />
		<tag k="place" v="locality" />
		<tag k="ssr:stedsnr" v="274492" />
	</node>
	<node lat="67.59883610732614" lon="15.867741674860035" id="-19563">
		<tag k="name" v="Slettbakknausan" />
		<tag k="natural" v="hill" />
		<tag k="place" v="locality" />
		<tag k="ssr:stedsnr" v="274524" />
	</node>
	<node lat="67.56953333139624" lon="15.860963882142508" id="-19564">
		<tag k="name" v="Lappvegskaret" />
		<tag k="natural" v="valley" />
		<tag k="place" v="locality" />
		<tag k="ssr:stedsnr" v="274832" />
	</node>
	<node lat="67.64466111258218" lon="15.936919454188699" id="-19565">
		<tag k="name" v="Storhaugen" />
		<tag k="natural" v="hill" />
		<tag k="place" v="locality" />
		<tag k="ssr:stedsnr" v="274875" />
	</node>
	<node lat="67.61430555878519" lon="15.93632500466566" id="-19567">
		<tag k="name" v="Slåttremhaugen" />
		<tag k="natural" v="hill" />
		<tag k="place" v="locality" />
		<tag k="ssr:stedsnr" v="274924" />
	</node>
	<node lat="67.44068055221213" lon="15.45312500694683" id="-19570">
		<tag k="name" v="Båtsteinlia" />
		<tag k="natural" v="slope" />
		<tag k="place" v="locality" />
		<tag k="ssr:stedsnr" v="298132" />
	</node>
	<node lat="67.52512222256672" lon="15.607038892968335" id="-19571">
		<tag k="name" v="Hesjeberget" />
		<tag k="natural" v="hill" />
		<tag k="place" v="locality" />
		<tag k="ssr:stedsnr" v="467789" />
	</node>
	<node lat="67.43404166855625" lon="15.459163891388384" id="-19573">
		<tag k="fixme" v="consider natural=peak for the most distinct mountains in the district" />
		<tag k="name" v="Kinesknubben" />
		<tag k="natural" v="hill" />
		<tag k="place" v="locality" />
		<tag k="ssr:stedsnr" v="319536" />
	</node>
	<node lat="67.53541110957903" lon="15.94410554718913" id="-19575">
		<tag k="name" v="Fuglevasskaret" />
		<tag k="natural" v="valley" />
		<tag k="place" v="locality" />
		<tag k="ssr:stedsnr" v="319638" />
	</node>
	<node lat="67.33852499857255" lon="15.786830560793202" id="-19579">
		<tag k="name" v="Sisodalen" />
		<tag k="natural" v="valley" />
		<tag k="place" v="locality" />
		<tag k="ssr:stedsnr" v="320293" />
	</node>
	<node lat="67.33791944106409" lon="16.06305833106732" id="-19580">
		<tag k="fixme" v="consider natural=peak for the most distinct mountains in the district" />
		<tag k="name" v="Gieddoajvve" />
		<tag k="name:smj" v="Gieddoajvve" />
		<tag k="natural" v="hill" />
		<tag k="old_name:smj" v="Gieddoaivi" />
		<tag k="place" v="locality" />
		<tag k="ssr:stedsnr" v="320294" />
	</node>
	<node lat="67.32529722352952" lon="15.774983327454583" id="-19581">
		<tag k="fixme" v="consider natural=peak for the most distinct mountains in the district" />
		<tag k="name" v="Fagerbakklemmen" />
		<tag k="natural" v="hill" />
		<tag k="place" v="locality" />
		<tag k="ssr:stedsnr" v="320300" />
	</node>
	<node lat="67.60752221959297" lon="15.773291667093641" id="-19585">
		<tag k="name" v="Haugen" />
		<tag k="natural" v="hill" />
		<tag k="place" v="locality" />
		<tag k="ssr:stedsnr" v="320591" />
	</node>
	<node lat="67.48335277688071" lon="15.95714445369239" id="-19587">
		<tag k="fixme" v="consider natural=peak for the most distinct mountains in the district" />
		<tag k="name" v="Trollnesfjellet - Vádnjultjåhkkå" />
		<tag k="name:no" v="Trollnesfjellet" />
		<tag k="name:smj" v="Vádnjultjåhkkå" />
		<tag k="natural" v="hill" />
		<tag k="old_name:smj" v="Vátnjulčohkka" />
		<tag k="place" v="locality" />
		<tag k="ssr:stedsnr" v="320789" />
	</node>
	<node lat="67.47120833277542" lon="15.904980556981604" id="-19588">
		<tag k="fixme" v="consider natural=peak for the most distinct mountains in the district" />
		<tag k="name" v="Storhellarfjellet - Vádnjul" />
		<tag k="name:no" v="Storhellarfjellet" />
		<tag k="name:smj" v="Vádnjul" />
		<tag k="natural" v="hill" />
		<tag k="old_name:smj" v="Vátnjulen" />
		<tag k="place" v="locality" />
		<tag k="ssr:stedsnr" v="320792" />
	</node>
	<node lat="67.64935555301395" lon="15.403013886071856" id="-19592">
		<tag k="name" v="Trollvassbotnen" />
		<tag k="natural" v="valley" />
		<tag k="place" v="locality" />
		<tag k="ssr:stedsnr" v="320918" />
	</node>
	<node lat="67.54463888923762" lon="15.567166670252423" id="-19597">
		<tag k="fixme" v="consider natural=peak for the most distinct mountains in the district" />
		<tag k="name" v="Ytterfjellet" />
		<tag k="natural" v="hill" />
		<tag k="place" v="locality" />
		<tag k="ssr:stedsnr" v="320999" />
	</node>
	<node lat="67.34663333208758" lon="15.58908611379876" id="-19616">
		<tag k="name" v="Rundhaugen" />
		<tag k="natural" v="hill" />
		<tag k="place" v="locality" />
		<tag k="ssr:stedsnr" v="334211" />
	</node>
	<node lat="67.45932222459092" lon="15.577777772295399" id="-19618">
		<tag k="name" v="Storhaugbakken" />
		<tag k="natural" v="slope" />
		<tag k="place" v="locality" />
		<tag k="ssr:stedsnr" v="334149" />
	</node>
	<node lat="67.43007500033946" lon="15.471366657765888" id="-19624">
		<tag k="name" v="Trollia" />
		<tag k="natural" v="slope" />
		<tag k="place" v="locality" />
		<tag k="ssr:stedsnr" v="334503" />
	</node>
	<node lat="67.6253749960579" lon="15.927847220005239" id="-19628">
		<tag k="name" v="Grintramoem" />
		<tag k="place" v="locality" />
		<tag k="ssr:stedsnr" v="334897" />
	</node>
	<node lat="67.41298055482073" lon="15.894094444178958" id="-19638">
		<tag k="name" v="Litlverivasshamran" />
		<tag k="natural" v="hill" />
		<tag k="place" v="locality" />
		<tag k="ssr:stedsnr" v="380265" />
	</node>
	<node lat="67.7132694472824" lon="15.853316673641658" id="-19643">
		<tag k="name" v="Sølvdalen" />
		<tag k="natural" v="valley" />
		<tag k="place" v="locality" />
		<tag k="ssr:stedsnr" v="380562" />
	</node>
	<node lat="67.70224166856393" lon="15.73316110386331" id="-19646">
		<tag k="fixme" v="consider natural=peak for the most distinct mountains in the district" />
		<tag k="name" v="Snøskavltinden" />
		<tag k="natural" v="hill" />
		<tag k="place" v="locality" />
		<tag k="ssr:stedsnr" v="380575" />
	</node>
	<node lat="67.61784166664059" lon="15.701508338682387" id="-19654">
		<tag k="name" v="Lapplægerhalsen" />
		<tag k="natural" v="valley" />
		<tag k="place" v="locality" />
		<tag k="ssr:stedsnr" v="380908" />
	</node>
	<node lat="67.5717805539978" lon="15.50837499478174" id="-19656">
		<tag k="name" v="Skyttarhaugen" />
		<tag k="natural" v="hill" />
		<tag k="place" v="locality" />
		<tag k="ssr:stedsnr" v="380974" />
	</node>
	<node lat="67.56249166939554" lon="15.431613896525278" id="-19659">
		<tag k="name" v="Moldforskaret" />
		<tag k="natural" v="valley" />
		<tag k="place" v="locality" />
		<tag k="ssr:stedsnr" v="380979" />
	</node>
	<node lat="67.52146111085675" lon="15.650041677900788" id="-19669">
		<tag k="fixme" v="consider natural=peak for the most distinct mountains in the district" />
		<tag k="name" v="Kalviktuva" />
		<tag k="natural" v="hill" />
		<tag k="place" v="locality" />
		<tag k="ssr:stedsnr" v="381966" />
	</node>
	<node lat="67.38455555187046" lon="15.641791673486276" id="-19695">
		<tag k="name" v="Trolldalhaugen" />
		<tag k="natural" v="hill" />
		<tag k="place" v="locality" />
		<tag k="ssr:stedsnr" v="394303" />
	</node>
	<node lat="67.3666361078073" lon="15.577116671339962" id="-19696">
		<tag k="name" v="Lakselvbakken" />
		<tag k="natural" v="slope" />
		<tag k="place" v="locality" />
		<tag k="ssr:stedsnr" v="394323" />
	</node>
	<node lat="67.41094444680834" lon="15.523205546375559" id="-19700">
		<tag k="name" v="Høgbakken" />
		<tag k="natural" v="slope" />
		<tag k="place" v="locality" />
		<tag k="ssr:stedsnr" v="394639" />
	</node>
	<node lat="67.3930999963841" lon="15.61698610599095" id="-19704">
		<tag k="name" v="Kvitberglia" />
		<tag k="natural" v="slope" />
		<tag k="place" v="locality" />
		<tag k="ssr:stedsnr" v="395181" />
	</node>
	<node lat="67.3897333328327" lon="15.618863882240257" id="-19705">
		<tag k="name" v="Ørnrabben" />
		<tag k="natural" v="ridge" />
		<tag k="place" v="locality" />
		<tag k="ssr:stedsnr" v="395182" />
	</node>
	<node lat="67.52736388684241" lon="15.476933326868739" id="-19706">
		<tag k="name" v="Ytterhøgda" />
		<tag k="natural" v="hill" />
		<tag k="place" v="locality" />
		<tag k="ssr:stedsnr" v="395311" />
	</node>
	<node lat="67.60970833205941" lon="15.7409638915974" id="-19707">
		<tag k="name" v="Lilleheia" />
		<tag k="natural" v="hill" />
		<tag k="place" v="locality" />
		<tag k="ssr:stedsnr" v="395382" />
	</node>
	<node lat="67.61303055748198" lon="15.7458861037448" id="-19710">
		<tag k="name" v="Klokkaheia" />
		<tag k="natural" v="hill" />
		<tag k="place" v="locality" />
		<tag k="ssr:stedsnr" v="395537" />
	</node>
	<node lat="67.64565278035889" lon="15.205461100757923" id="-19713">
		<tag k="fixme" v="consider natural=peak for the most distinct mountains in the district" />
		<tag k="name" v="Middagstinden" />
		<tag k="natural" v="hill" />
		<tag k="place" v="locality" />
		<tag k="ssr:stedsnr" v="441037" />
	</node>
	<node lat="67.59711944450399" lon="15.739675000359187" id="-19716">
		<tag k="alt_name" v="Skythola" />
		<tag k="name" v="Skytthola" />
		<tag k="natural" v="valley" />
		<tag k="place" v="locality" />
		<tag k="ssr:stedsnr" v="441585" />
	</node>
	<node lat="67.59995555402014" lon="15.783711105640416" id="-19717">
		<tag k="name" v="Lian" />
		<tag k="natural" v="slope" />
		<tag k="place" v="locality" />
		<tag k="ssr:stedsnr" v="441590" />
	</node>
	<node lat="67.59723888851377" lon="16.16357778330344" id="-19718">
		<tag k="fixme" v="consider natural=peak for the most distinct mountains in the district" />
		<tag k="name" v="Slubma" />
		<tag k="name:smj" v="Slubma" />
		<tag k="natural" v="hill" />
		<tag k="old_name:smj" v="Šlubma" />
		<tag k="place" v="locality" />
		<tag k="ssr:stedsnr" v="441592" />
	</node>
	<node lat="67.53473333072114" lon="15.822255558004592" id="-19721">
		<tag k="fixme" v="consider natural=peak for the most distinct mountains in the district" />
		<tag k="name" v="Svadtinden" />
		<tag k="natural" v="hill" />
		<tag k="place" v="locality" />
		<tag k="ssr:stedsnr" v="441666" />
	</node>
	<node lat="67.4788305527048" lon="15.109374989701646" id="-19722">
		<tag k="fixme" v="consider natural=peak for the most distinct mountains in the district" />
		<tag k="name" v="Sjunkhatten" />
		<tag k="natural" v="hill" />
		<tag k="place" v="locality" />
		<tag k="ssr:stedsnr" v="441689" />
	</node>
	<node lat="67.50167499859211" lon="15.951072219357732" id="-19725">
		<tag k="fixme" v="consider natural=peak for the most distinct mountains in the district" />
		<tag k="name" v="Steinshøgdaksla" />
		<tag k="natural" v="hill" />
		<tag k="place" v="locality" />
		<tag k="ssr:stedsnr" v="441791" />
	</node>
	<node lat="67.48686110651234" lon="16.129258337137887" id="-19726">
		<tag k="fixme" v="consider natural=peak for the most distinct mountains in the district" />
		<tag k="name" v="Snøtoppen" />
		<tag k="natural" v="hill" />
		<tag k="place" v="locality" />
		<tag k="ssr:stedsnr" v="441795" />
	</node>
	<node lat="67.4796249998559" lon="15.8834250092104" id="-19727">
		<tag k="name" v="Moskusdalen - Måskosgåhpe" />
		<tag k="name:no" v="Moskusdalen" />
		<tag k="name:smj" v="Måskosgåhpe" />
		<tag k="natural" v="valley" />
		<tag k="old_name:smj" v="Moskkusgohpi" />
		<tag k="place" v="locality" />
		<tag k="ssr:stedsnr" v="441801" />
	</node>
	<node lat="67.61491111514957" lon="15.8176333428072" id="-19733">
		<tag k="fixme" v="consider natural=peak for the most distinct mountains in the district" />
		<tag k="name" v="Ørneskorken" />
		<tag k="natural" v="hill" />
		<tag k="place" v="locality" />
		<tag k="ssr:stedsnr" v="442602" />
	</node>
	<node lat="67.62746944807444" lon="15.783016657367282" id="-19734">
		<tag k="fixme" v="consider natural=peak for the most distinct mountains in the district" />
		<tag k="name" v="Steinaksla" />
		<tag k="natural" v="hill" />
		<tag k="place" v="locality" />
		<tag k="ssr:stedsnr" v="442589" />
	</node>
	<node lat="67.48242222140024" lon="15.454625004943761" id="-19760">
		<tag k="name" v="Jektvollen" />
		<tag k="natural" v="hill" />
		<tag k="place" v="locality" />
		<tag k="ssr:stedsnr" v="455478" />
	</node>
	<node lat="67.44361110886268" lon="15.46435278180607" id="-19761">
		<tag k="name" v="Lofthammarlia" />
		<tag k="natural" v="slope" />
		<tag k="place" v="locality" />
		<tag k="ssr:stedsnr" v="455511" />
	</node>
	<node lat="67.36747222343466" lon="15.54042222970363" id="-19762">
		<tag k="name" v="Oksfloget" />
		<tag k="natural" v="cliff" />
		<tag k="ssr:stedsnr" v="455713" />
	</node>
	<node lat="67.46542222346345" lon="15.56729444714594" id="-19764">
		<tag k="name" v="Skytthaugen" />
		<tag k="natural" v="hill" />
		<tag k="place" v="locality" />
		<tag k="ssr:stedsnr" v="456161" />
	</node>
	<node lat="67.4573916649587" lon="15.580413890198086" id="-19765">
		<tag k="name" v="Kvanntomoen" />
		<tag k="place" v="locality" />
		<tag k="ssr:stedsnr" v="456170" />
	</node>
	<node lat="67.45542777712053" lon="15.582088892534705" id="-19766">
		<tag k="name" v="Kleksurfloget" />
		<tag k="natural" v="cliff" />
		<tag k="ssr:stedsnr" v="456172" />
	</node>
	<node lat="67.60460833544423" lon="15.744586106473086" id="-19768">
		<tag k="name" v="Kråga" />
		<tag k="natural" v="valley" />
		<tag k="place" v="locality" />
		<tag k="ssr:stedsnr" v="456368" />
	</node>
	<node lat="67.5978444459779" lon="15.928458324822968" id="-19769">
		<tag k="fixme" v="consider natural=peak for the most distinct mountains in the district" />
		<tag k="name" v="Innerkollen" />
		<tag k="natural" v="hill" />
		<tag k="place" v="locality" />
		<tag k="ssr:stedsnr" v="456559" />
	</node>
	<node lat="67.64451944216408" lon="15.964480552215694" id="-19770">
		<tag k="name" v="Petterhågen" />
		<tag k="natural" v="hill" />
		<tag k="place" v="locality" />
		<tag k="ssr:stedsnr" v="456902" />
	</node>
	<node lat="67.27641111490428" lon="15.635300005544572" id="-19779">
		<tag k="name" v="Einarskaret" />
		<tag k="natural" v="valley" />
		<tag k="place" v="locality" />
		<tag k="ssr:stedsnr" v="501723" />
	</node>
	<node lat="67.32144722606273" lon="15.750044438453482" id="-19782">
		<tag k="name" v="Tægrakammen" />
		<tag k="natural" v="ridge" />
		<tag k="place" v="locality" />
		<tag k="ssr:stedsnr" v="502277" />
	</node>
	<node lat="67.39977499530086" lon="15.906200008938324" id="-19784">
		<tag k="name" v="Stuornjoasske" />
		<tag k="name:smj" v="Stuornjoasske" />
		<tag k="natural" v="valley" />
		<tag k="old_name:smj" v="Stuornjoaski" />
		<tag k="place" v="locality" />
		<tag k="ssr:stedsnr" v="502295" />
	</node>
	<node lat="67.60966944176327" lon="15.96080554453654" id="-19787">
		<tag k="fixme" v="consider natural=peak for the most distinct mountains in the district" />
		<tag k="name" v="Storvikhammaren" />
		<tag k="natural" v="hill" />
		<tag k="place" v="locality" />
		<tag k="ssr:stedsnr" v="502603" />
	</node>
	<node lat="67.60951666610895" lon="15.905236120815024" id="-19788">
		<tag k="fixme" v="consider natural=peak for the most distinct mountains in the district" />
		<tag k="name" v="Nontuva" />
		<tag k="natural" v="hill" />
		<tag k="place" v="locality" />
		<tag k="ssr:stedsnr" v="502607" />
	</node>
	<node lat="67.60765278126527" lon="15.928994436625219" id="-19789">
		<tag k="fixme" v="consider natural=peak for the most distinct mountains in the district" />
		<tag k="name" v="Middagsfjellet" />
		<tag k="natural" v="hill" />
		<tag k="place" v="locality" />
		<tag k="ssr:stedsnr" v="502609" />
	</node>
	<node lat="67.39329444703347" lon="15.525133337869308" id="-19799">
		<tag k="alt_name" v="Bergdropan" />
		<tag k="name" v="Bergdråpan" />
		<tag k="natural" v="hill" />
		<tag k="place" v="locality" />
		<tag k="ssr:stedsnr" v="502984" />
	</node>
	<node lat="67.5967833315254" lon="15.698277769128527" id="-19801">
		<tag k="name" v="Langmohalsen" />
		<tag k="natural" v="valley" />
		<tag k="place" v="locality" />
		<tag k="ssr:stedsnr" v="502883" />
	</node>
	<node lat="67.44657222077522" lon="15.546908330326843" id="-19832">
		<tag k="alt_name" v="Litlfjellet" />
		<tag k="fixme" v="consider natural=peak for the most distinct mountains in the district" />
		<tag k="name" v="Lillefjellet" />
		<tag k="natural" v="hill" />
		<tag k="place" v="locality" />
		<tag k="ssr:stedsnr" v="683486" />
	</node>
	<node lat="67.45289722321284" lon="15.375349997106596" id="-19833">
		<tag k="fixme" v="consider natural=peak for the most distinct mountains in the district" />
		<tag k="name" v="Skolten" />
		<tag k="natural" v="hill" />
		<tag k="place" v="locality" />
		<tag k="ssr:stedsnr" v="683498" />
	</node>
	<node lat="67.47018889032388" lon="15.30596667159695" id="-19836">
		<tag k="fixme" v="consider natural=peak for the most distinct mountains in the district" />
		<tag k="name" v="Gunnelengheian" />
		<tag k="natural" v="hill" />
		<tag k="place" v="locality" />
		<tag k="ssr:stedsnr" v="683587" />
	</node>
	<node lat="67.49236666634697" lon="16.042705557011473" id="-19842">
		<tag k="name" v="Trolldalen" />
		<tag k="natural" v="valley" />
		<tag k="place" v="locality" />
		<tag k="ssr:stedsnr" v="683760" />
	</node>
	<node lat="67.72964722340228" lon="15.62698055527803" id="-19844">
		<tag k="fixme" v="consider natural=peak for the most distinct mountains in the district" />
		<tag k="name" v="Reinviktinden" />
		<tag k="natural" v="hill" />
		<tag k="place" v="locality" />
		<tag k="ssr:stedsnr" v="683821" />
	</node>
	<node lat="67.3457722209836" lon="15.56084445061168" id="-19849">
		<tag k="name" v="Kattuglehaugen" />
		<tag k="natural" v="hill" />
		<tag k="place" v="locality" />
		<tag k="ssr:stedsnr" v="516202" />
	</node>
	<node lat="67.35149166776259" lon="15.595969449698467" id="-19852">
		<tag k="name" v="Pinvikhammaren" />
		<tag k="natural" v="hill" />
		<tag k="place" v="locality" />
		<tag k="ssr:stedsnr" v="516224" />
	</node>
	<node lat="67.37068889038903" lon="15.549425004750212" id="-19853">
		<tag k="name" v="Hammarenden" />
		<tag k="natural" v="hill" />
		<tag k="place" v="locality" />
		<tag k="ssr:stedsnr" v="516261" />
	</node>
	<node lat="67.585147224143" lon="15.759036118414688" id="-19855">
		<tag k="name" v="Tverrdalen" />
		<tag k="natural" v="valley" />
		<tag k="place" v="locality" />
		<tag k="ssr:stedsnr" v="516411" />
	</node>
	<node lat="67.44005000386258" lon="15.467661108059875" id="-19857">
		<tag k="name" v="Trolldallia" />
		<tag k="natural" v="slope" />
		<tag k="place" v="locality" />
		<tag k="ssr:stedsnr" v="516508" />
	</node>
	<node lat="67.58853611006876" lon="15.839386110209107" id="-19860">
		<tag k="name" v="Baklia" />
		<tag k="natural" v="slope" />
		<tag k="place" v="locality" />
		<tag k="ssr:stedsnr" v="516525" />
	</node>
	<node lat="67.4653555554333" lon="15.472363881312063" id="-19862">
		<tag k="name" v="Dumpen" />
		<tag k="natural" v="valley" />
		<tag k="place" v="locality" />
		<tag k="ssr:stedsnr" v="516542" />
	</node>
	<node lat="67.41766389154473" lon="15.511297213441392" id="-19864">
		<tag k="name" v="Moldgjerdhaugen" />
		<tag k="natural" v="hill" />
		<tag k="place" v="locality" />
		<tag k="ssr:stedsnr" v="516610" />
	</node>
	<node lat="67.42158333482176" lon="15.50238333862218" id="-19865">
		<tag k="name" v="Stikkveghamran" />
		<tag k="natural" v="hill" />
		<tag k="place" v="locality" />
		<tag k="ssr:stedsnr" v="516612" />
	</node>
	<node lat="67.36606111454822" lon="15.514319435041077" id="-19866">
		<tag k="name" v="Ramnflogbakken" />
		<tag k="natural" v="slope" />
		<tag k="place" v="locality" />
		<tag k="ssr:stedsnr" v="516681" />
	</node>
	<node lat="67.30552499985069" lon="16.23355001030456" id="-19867">
		<tag k="fixme" v="consider natural=peak for the most distinct mountains in the district" />
		<tag k="name" v="Leirvassfjellet" />
		<tag k="natural" v="hill" />
		<tag k="place" v="locality" />
		<tag k="ssr:stedsnr" v="684318" />
	</node>
	<node lat="67.42693333140457" lon="15.64513609967393" id="-19868">
		<tag k="name" v="Djupdalen" />
		<tag k="natural" v="valley" />
		<tag k="place" v="locality" />
		<tag k="ssr:stedsnr" v="684324" />
	</node>
	<node lat="67.62866666614839" lon="15.912749993059863" id="-19869">
		<tag k="name" v="Bjørnsvaet" />
		<tag k="natural" v="hill" />
		<tag k="place" v="locality" />
		<tag k="ssr:stedsnr" v="516920" />
	</node>
	<node lat="67.32606388685191" lon="15.806016673120856" id="-19873">
		<tag k="name" v="Tidskaret" />
		<tag k="natural" v="valley" />
		<tag k="place" v="locality" />
		<tag k="ssr:stedsnr" v="684296" />
	</node>
	<node lat="67.70487500270656" lon="15.978125007170645" id="-19877">
		<tag k="name" v="Gamhola" />
		<tag k="natural" v="valley" />
		<tag k="place" v="locality" />
		<tag k="ssr:stedsnr" v="684534" />
	</node>
	<node lat="67.58462222182033" lon="15.779386105601327" id="-19879">
		<tag k="name" v="Laifloget" />
		<tag k="natural" v="cliff" />
		<tag k="ssr:stedsnr" v="684564" />
	</node>
	<node lat="67.48839722211189" lon="15.360461100507884" id="-19880">
		<tag k="name" v="Vatnskaret" />
		<tag k="natural" v="valley" />
		<tag k="place" v="locality" />
		<tag k="ssr:stedsnr" v="684566" />
	</node>
	<node lat="67.59305277578503" lon="15.874724989867751" id="-19881">
		<tag k="name" v="Slettbakkan" />
		<tag k="natural" v="slope" />
		<tag k="place" v="locality" />
		<tag k="ssr:stedsnr" v="684570" />
	</node>
	<node lat="67.5557083375732" lon="16.314241661708976" id="-19887">
		<tag k="fixme" v="consider natural=peak for the most distinct mountains in the district" />
		<tag k="name" v="Hurrefjellet" />
		<tag k="natural" v="hill" />
		<tag k="place" v="locality" />
		<tag k="ssr:stedsnr" v="684739" />
	</node>
	<node lat="67.6546638901417" lon="15.283752785505412" id="-19889">
		<tag k="fixme" v="consider natural=peak for the most distinct mountains in the district" />
		<tag k="name" v="Knubbtinden" />
		<tag k="natural" v="hill" />
		<tag k="place" v="locality" />
		<tag k="ssr:stedsnr" v="684855" />
	</node>
	<node lat="67.38300277805145" lon="15.62613333310113" id="-19896">
		<tag k="alt_name" v="Goppelåsen" />
		<tag k="fixme" v="consider natural=peak for the most distinct mountains in the district" />
		<tag k="name" v="Gopelåsen" />
		<tag k="natural" v="hill" />
		<tag k="place" v="locality" />
		<tag k="ssr:stedsnr" v="684971" />
	</node>
	<node lat="67.5722138865568" lon="15.491763877850973" id="-19897">
		<tag k="name" v="Ryphaugen" />
		<tag k="natural" v="hill" />
		<tag k="place" v="locality" />
		<tag k="ssr:stedsnr" v="684981" />
	</node>
	<node lat="67.39304722186104" lon="15.660672225469938" id="-19898">
		<tag k="name" v="Mattishaugen" />
		<tag k="natural" v="hill" />
		<tag k="place" v="locality" />
		<tag k="ssr:stedsnr" v="684983" />
	</node>
	<node lat="67.37707777446141" lon="15.628266671342699" id="-19970">
		<tag k="name" v="Strangmoen" />
		<tag k="place" v="locality" />
		<tag k="ssr:stedsnr" v="576294" />
	</node>
	<node lat="67.47731666424282" lon="15.453422213360126" id="-19972">
		<tag k="name" v="Mefallsletta" />
		<tag k="place" v="locality" />
		<tag k="ssr:stedsnr" v="576500" />
	</node>
	<node lat="67.47752222151522" lon="15.445533328171743" id="-19973">
		<tag k="name" v="Grønnlia" />
		<tag k="natural" v="slope" />
		<tag k="place" v="locality" />
		<tag k="ssr:stedsnr" v="576501" />
	</node>
	<node lat="67.4663166635261" lon="15.460691664138674" id="-19974">
		<tag k="name" v="Lian" />
		<tag k="natural" v="slope" />
		<tag k="place" v="locality" />
		<tag k="ssr:stedsnr" v="576559" />
	</node>
	<node lat="67.37944444280389" lon="15.525786105746585" id="-19975">
		<tag k="fixme" v="consider natural=peak for the most distinct mountains in the district" />
		<tag k="name" v="Raudhammaren" />
		<tag k="natural" v="hill" />
		<tag k="place" v="locality" />
		<tag k="ssr:stedsnr" v="576715" />
	</node>
	<node lat="67.64266944158229" lon="16.00013332016925" id="-19976">
		<tag k="name" v="Bjørndalen" />
		<tag k="natural" v="valley" />
		<tag k="place" v="locality" />
		<tag k="ssr:stedsnr" v="577053" />
	</node>
	<node lat="67.40160833194462" lon="15.616044438627817" id="-19977">
		<tag k="name" v="Skyttmoa" />
		<tag k="place" v="locality" />
		<tag k="ssr:stedsnr" v="577169" />
	</node>
	<node lat="67.6072722251757" lon="15.72731665592324" id="-19978">
		<tag k="name" v="Kalvnesheia" />
		<tag k="natural" v="hill" />
		<tag k="place" v="locality" />
		<tag k="ssr:stedsnr" v="577504" />
	</node>
	<node lat="67.61775000230378" lon="15.7332083291999" id="-19979">
		<tag k="name" v="Haugsæthaugen" />
		<tag k="natural" v="hill" />
		<tag k="place" v="locality" />
		<tag k="ssr:stedsnr" v="577520" />
	</node>
	<node lat="67.60964722636723" lon="15.729758333351292" id="-19982">
		<tag k="name" v="Kuven" />
		<tag k="natural" v="hill" />
		<tag k="place" v="locality" />
		<tag k="ssr:stedsnr" v="698479" />
	</node>
	<node lat="67.61392222420552" lon="15.727199988333469" id="-19983">
		<tag k="name" v="Eidismohaugen" />
		<tag k="natural" v="hill" />
		<tag k="place" v="locality" />
		<tag k="ssr:stedsnr" v="698487" />
	</node>
	<node lat="67.39058055518888" lon="15.631794449180312" id="-19985">
		<tag k="name" v="Kjerksteinlia" />
		<tag k="natural" v="slope" />
		<tag k="place" v="locality" />
		<tag k="ssr:stedsnr" v="698153" />
	</node>
	<node lat="67.39779444598" lon="15.63301389595732" id="-19986">
		<tag k="name" v="Øvre Storbuheia" />
		<tag k="natural" v="hill" />
		<tag k="place" v="locality" />
		<tag k="ssr:stedsnr" v="698158" />
	</node>
	<node lat="67.34998055735817" lon="15.613855566648045" id="-19988">
		<tag k="name" v="Straumlia" />
		<tag k="natural" v="slope" />
		<tag k="place" v="locality" />
		<tag k="ssr:stedsnr" v="698189" />
	</node>
	<node lat="67.60854167119523" lon="15.733427777141218" id="-19991">
		<tag k="name" v="Langheienden" />
		<tag k="natural" v="hill" />
		<tag k="place" v="locality" />
		<tag k="ssr:stedsnr" v="698336" />
	</node>
	<node lat="67.47438055937778" lon="15.432091671217018" id="-19993">
		<tag k="name" v="Nerkrubba" />
		<tag k="place" v="locality" />
		<tag k="ssr:stedsnr" v="698343" />
	</node>
	<node lat="67.59883055369335" lon="15.915069453758543" id="-19998">
		<tag k="fixme" v="consider natural=peak for the most distinct mountains in the district" />
		<tag k="name" v="Ytterkollen" />
		<tag k="natural" v="hill" />
		<tag k="place" v="locality" />
		<tag k="ssr:stedsnr" v="698547" />
	</node>
	<node lat="67.42597222072187" lon="15.500397219371754" id="-20000">
		<tag k="name" v="Kvithamran" />
		<tag k="natural" v="hill" />
		<tag k="place" v="locality" />
		<tag k="ssr:stedsnr" v="698597" />
	</node>
	<node lat="67.41482777864842" lon="15.503205555584671" id="-20002">
		<tag k="name" v="Bukskinnlia" />
		<tag k="natural" v="slope" />
		<tag k="place" v="locality" />
		<tag k="ssr:stedsnr" v="698599" />
	</node>
	<node lat="67.41223055237926" lon="15.529908330428443" id="-20004">
		<tag k="name" v="Kjerkbergan" />
		<tag k="natural" v="hill" />
		<tag k="place" v="locality" />
		<tag k="ssr:stedsnr" v="698609" />
	</node>
	<node lat="67.64214167055441" lon="15.95977223361736" id="-20009">
		<tag k="name" v="Steinmoa" />
		<tag k="place" v="locality" />
		<tag k="ssr:stedsnr" v="698896" />
	</node>
	<node lat="67.55184166555874" lon="15.995444442206976" id="-20014">
		<tag k="name" v="Unalægret" />
		<tag k="natural" v="valley" />
		<tag k="place" v="locality" />
		<tag k="ssr:stedsnr" v="622666" />
	</node>
	<node lat="67.46094722133854" lon="15.685249989826808" id="-20015">
		<tag k="alt_name" v="Faulvassbotn, søre" />
		<tag k="name" v="Søre Faulvassbotn" />
		<tag k="natural" v="valley" />
		<tag k="place" v="locality" />
		<tag k="ssr:stedsnr" v="622513" />
	</node>
	<node lat="67.59148333020785" lon="15.732366670395118" id="-20023">
		<tag k="fixme" v="consider natural=peak for the most distinct mountains in the district" />
		<tag k="name" v="Stortjønnfloget" />
		<tag k="natural" v="hill" />
		<tag k="place" v="locality" />
		<tag k="ssr:stedsnr" v="623604" />
	</node>
	<node lat="67.58635000062462" lon="15.809497227811908" id="-20024">
		<tag k="name" v="Storlia" />
		<tag k="natural" v="slope" />
		<tag k="place" v="locality" />
		<tag k="ssr:stedsnr" v="623609" />
	</node>
	<node lat="67.66293889227218" lon="15.74275277774704" id="-20027">
		<tag k="fixme" v="consider natural=peak for the most distinct mountains in the district" />
		<tag k="name" v="Blåfjellet" />
		<tag k="natural" v="hill" />
		<tag k="place" v="locality" />
		<tag k="ssr:stedsnr" v="623518" />
	</node>
	<node lat="67.67711388778147" lon="15.873191667800354" id="-20028">
		<tag k="name" v="Storlemmen" />
		<tag k="place" v="locality" />
		<tag k="ssr:stedsnr" v="623522" />
	</node>
	<node lat="67.6635527788765" lon="15.81274166941079" id="-20029">
		<tag k="fixme" v="consider natural=peak for the most distinct mountains in the district" />
		<tag k="name" v="Eiavasstinden - Ájdejávretjåhkkå" />
		<tag k="name:no" v="Eiavasstinden" />
		<tag k="name:smj" v="Ájdejávretjåhkkå" />
		<tag k="natural" v="hill" />
		<tag k="old_name:smj" v="Áidejavrrečohkka" />
		<tag k="place" v="locality" />
		<tag k="ssr:stedsnr" v="623529" />
	</node>
	<node lat="67.74394166770018" lon="15.938680559903117" id="-20033">
		<tag k="name" v="Tennvasshaugen" />
		<tag k="natural" v="hill" />
		<tag k="place" v="locality" />
		<tag k="ssr:stedsnr" v="623571" />
	</node>
	<node lat="67.46159999904366" lon="15.878400001031464" id="-20040">
		<tag k="name" v="Holene" />
		<tag k="natural" v="valley" />
		<tag k="place" v="locality" />
		<tag k="ssr:stedsnr" v="623812" />
	</node>
	<node lat="67.57463055983594" lon="15.705150000896435" id="-20042">
		<tag k="fixme" v="consider natural=peak for the most distinct mountains in the district" />
		<tag k="name" v="Daudmannvikfjellet" />
		<tag k="natural" v="hill" />
		<tag k="place" v="locality" />
		<tag k="ssr:stedsnr" v="623906" />
	</node>
	<node lat="67.57166666304842" lon="15.440627783863821" id="-20044">
		<tag k="name" v="Botnlia" />
		<tag k="natural" v="slope" />
		<tag k="place" v="locality" />
		<tag k="ssr:stedsnr" v="623974" />
	</node>
	<node lat="67.6432027735357" lon="15.979833330351374" id="-20069">
		<tag k="name" v="Mestermodalen" />
		<tag k="natural" v="valley" />
		<tag k="place" v="locality" />
		<tag k="ssr:stedsnr" v="637108" />
	</node>
	<node lat="67.46697499627554" lon="15.588802765617258" id="-20070">
		<tag k="name" v="Mølnlia" />
		<tag k="natural" v="slope" />
		<tag k="place" v="locality" />
		<tag k="ssr:stedsnr" v="637178" />
	</node>
	<node lat="67.39126944403435" lon="15.617525007225176" id="-20072">
		<tag k="name" v="Ørnfloget" />
		<tag k="natural" v="gorge" />
		<tag k="ssr:stedsnr" v="637190" />
	</node>
	<node lat="67.39540000295186" lon="15.626847234323453" id="-20073">
		<tag k="name" v="Stavhammaren" />
		<tag k="natural" v="hill" />
		<tag k="place" v="locality" />
		<tag k="ssr:stedsnr" v="637195" />
	</node>
	<node lat="67.46268055519744" lon="15.54527777397278" id="-20076">
		<tag k="name" v="Svarthammaren" />
		<tag k="natural" v="hill" />
		<tag k="place" v="locality" />
		<tag k="ssr:stedsnr" v="637383" />
	</node>
	<node lat="67.5911333295232" lon="15.898530549675513" id="-20079">
		<tag k="name" v="Kvannloftet" />
		<tag k="place" v="locality" />
		<tag k="ssr:stedsnr" v="637579" />
	</node>
	<node lat="67.63590000300935" lon="15.938077781957436" id="-20082">
		<tag k="name" v="Ytterlia" />
		<tag k="natural" v="slope" />
		<tag k="place" v="locality" />
		<tag k="ssr:stedsnr" v="637875" />
	</node>
	<node lat="67.62983888988873" lon="15.9222110993329" id="-20083">
		<tag k="name" v="Storsvaet" />
		<tag k="natural" v="hill" />
		<tag k="place" v="locality" />
		<tag k="ssr:stedsnr" v="637907" />
	</node>
	<node lat="67.62455277527518" lon="15.92174721448238" id="-20084">
		<tag k="name" v="Kattuglehaugen" />
		<tag k="natural" v="hill" />
		<tag k="place" v="locality" />
		<tag k="ssr:stedsnr" v="637913" />
	</node>
	<node lat="67.63376944456604" lon="15.91733888296203" id="-20085">
		<tag k="name" v="Storlia" />
		<tag k="natural" v="slope" />
		<tag k="place" v="locality" />
		<tag k="ssr:stedsnr" v="637919" />
	</node>
	<node lat="67.402138890509" lon="15.931711103922359" id="-20092">
		<tag k="fixme" v="consider natural=peak for the most distinct mountains in the district" />
		<tag k="name" v="Luojdotjåhkkå" />
		<tag k="name:smj" v="Luojdotjåhkkå" />
		<tag k="natural" v="hill" />
		<tag k="old_name:smj" v="Loaiddočohkka" />
		<tag k="place" v="locality" />
		<tag k="ssr:stedsnr" v="683258" />
	</node>
	<node lat="67.3719250021161" lon="16.164322229921275" id="-20093">
		<tag k="fixme" v="consider natural=peak for the most distinct mountains in the district" />
		<tag k="name" v="Boajmásj" />
		<tag k="name:smj" v="Boajmásj" />
		<tag k="natural" v="hill" />
		<tag k="old_name:smj" v="Boaimmáš" />
		<tag k="place" v="locality" />
		<tag k="ssr:stedsnr" v="683266" />
	</node>
	<node lat="67.39935555235049" lon="15.51435833915277" id="-20097">
		<tag k="name" v="Nubba" />
		<tag k="natural" v="hill" />
		<tag k="place" v="locality" />
		<tag k="ssr:stedsnr" v="683968" />
	</node>
	<node lat="67.71384999610784" lon="15.89896944004747" id="-20101">
		<tag k="fixme" v="consider natural=peak for the most distinct mountains in the district" />
		<tag k="name" v="Silldavuopvárddo" />
		<tag k="name:no" v="Nonstuva" />
		<tag k="name:smj" v="Silldavuopvárddo" />
		<tag k="natural" v="hill" />
		<tag k="old_name:smj" v="Sildavohppevárdu" />
		<tag k="place" v="locality" />
		<tag k="ssr:stedsnr" v="684520" />
	</node>
	<node lat="67.56824166342025" lon="15.79983332063024" id="-20103">
		<tag k="fixme" v="consider natural=peak for the most distinct mountains in the district" />
		<tag k="name" v="Storfloget" />
		<tag k="natural" v="hill" />
		<tag k="place" v="locality" />
		<tag k="ssr:stedsnr" v="684669" />
	</node>
	<node lat="67.63173611162819" lon="15.821830552710024" id="-20106">
		<tag k="fixme" v="consider natural=peak for the most distinct mountains in the district" />
		<tag k="name" v="Stauren" />
		<tag k="natural" v="hill" />
		<tag k="place" v="locality" />
		<tag k="ssr:stedsnr" v="684600" />
	</node>
	<node lat="67.46837222305916" lon="15.568030554876442" id="-20138">
		<tag k="name" v="Flogan" />
		<tag k="natural" v="cliff" />
		<tag k="ssr:stedsnr" v="698123" />
	</node>
	<node lat="67.58550277462838" lon="15.73446111025173" id="-20139">
		<tag k="name" v="Skyttmoa" />
		<tag k="place" v="locality" />
		<tag k="ssr:stedsnr" v="698233" />
	</node>
	<node lat="67.37823055319808" lon="15.610416668854409" id="-20142">
		<tag k="name" v="Ørvikbakken" />
		<tag k="natural" v="slope" />
		<tag k="place" v="locality" />
		<tag k="ssr:stedsnr" v="698306" />
	</node>
	<node lat="67.43885278248796" lon="15.574397218013635" id="-20143">
		<tag k="name" v="Kviurflogan" />
		<tag k="natural" v="cliff" />
		<tag k="ssr:stedsnr" v="698309" />
	</node>
	<node lat="67.45091944493575" lon="15.5490861070669" id="-20144">
		<tag k="name" v="Lillevasslia" />
		<tag k="natural" v="slope" />
		<tag k="place" v="locality" />
		<tag k="ssr:stedsnr" v="698320" />
	</node>
	<node lat="67.4327222185441" lon="15.48350555676849" id="-20145">
		<tag k="name" v="Kumpmohola" />
		<tag k="natural" v="valley" />
		<tag k="place" v="locality" />
		<tag k="ssr:stedsnr" v="698511" />
	</node>
	<node lat="67.48007499905276" lon="15.444694435296997" id="-20146">
		<tag k="name" v="Grønnlihammaren" />
		<tag k="natural" v="hill" />
		<tag k="place" v="locality" />
		<tag k="ssr:stedsnr" v="698468" />
	</node>
	<node lat="67.58116666715854" lon="15.95130276808927" id="-20147">
		<tag k="name" v="Lappheia" />
		<tag k="natural" v="hill" />
		<tag k="place" v="locality" />
		<tag k="ssr:stedsnr" v="698563" />
	</node>
	<node lat="67.35026388627932" lon="15.721777779999144" id="-20153">
		<tag k="name" v="Svarthola" />
		<tag k="natural" v="valley" />
		<tag k="place" v="locality" />
		<tag k="ssr:stedsnr" v="744232" />
	</node>
	<node lat="67.41969444621277" lon="15.690283336333305" id="-20154">
		<tag k="fixme" v="consider natural=peak for the most distinct mountains in the district" />
		<tag k="name" v="Finnvikfjellet" />
		<tag k="natural" v="hill" />
		<tag k="place" v="locality" />
		<tag k="ssr:stedsnr" v="744510" />
	</node>
	<node lat="67.54363888735347" lon="16.01527499341405" id="-20157">
		<tag k="fixme" v="consider natural=peak for the most distinct mountains in the district" />
		<tag k="name" v="Austervasstinden" />
		<tag k="natural" v="hill" />
		<tag k="place" v="locality" />
		<tag k="ssr:stedsnr" v="744628" />
	</node>
	<node lat="67.4562472200207" lon="15.956750005075229" id="-20158">
		<tag k="name" v="Sørenknubben" />
		<tag k="natural" v="hill" />
		<tag k="place" v="locality" />
		<tag k="ssr:stedsnr" v="744785" />
	</node>
	<node lat="67.44390277588519" lon="15.8277833389706" id="-20159">
		<tag k="fixme" v="consider natural=peak for the most distinct mountains in the district" />
		<tag k="name" v="Nordskarfjellet" />
		<tag k="natural" v="hill" />
		<tag k="place" v="locality" />
		<tag k="ssr:stedsnr" v="744788" />
	</node>
	<node lat="67.67161388604691" lon="15.867666670877036" id="-20161">
		<tag k="name" v="Nuorjoskárdde" />
		<tag k="name:no" v="Kobbskaret" />
		<tag k="name:smj" v="Nuorjoskárdde" />
		<tag k="natural" v="valley" />
		<tag k="old_name:smj" v="Njuorjoskárdi" />
		<tag k="place" v="locality" />
		<tag k="ssr:stedsnr" v="745491" />
	</node>
	<node lat="67.60217499635345" lon="15.74209166003637" id="-20165">
		<tag k="fixme" v="consider natural=peak for the most distinct mountains in the district" />
		<tag k="name" v="Durmål" />
		<tag k="natural" v="hill" />
		<tag k="place" v="locality" />
		<tag k="ssr:stedsnr" v="745570" />
	</node>
	<node lat="67.45915555127868" lon="15.572663895120874" id="-20200">
		<tag k="name" v="Trolldalmoen" />
		<tag k="place" v="locality" />
		<tag k="ssr:stedsnr" v="759150" />
	</node>
	<node lat="67.64011944157495" lon="15.998655562119962" id="-20202">
		<tag k="name" v="Hallingan" />
		<tag k="natural" v="slope" />
		<tag k="place" v="locality" />
		<tag k="ssr:stedsnr" v="759056" />
	</node>
	<node lat="67.40158888433119" lon="15.602888895165389" id="-20203">
		<tag k="name" v="Haugan" />
		<tag k="natural" v="hill" />
		<tag k="place" v="locality" />
		<tag k="ssr:stedsnr" v="759205" />
	</node>
	<node lat="67.4164750004008" lon="15.642463890083514" id="-20206">
		<tag k="name" v="Knubben" />
		<tag k="natural" v="hill" />
		<tag k="place" v="locality" />
		<tag k="ssr:stedsnr" v="759220" />
	</node>
	<node lat="67.42663977953382" lon="15.67599372860649" id="-20207">
		<tag k="name" v="Storflogan" />
		<tag k="natural" v="cliff" />
		<tag k="ssr:stedsnr" v="759222" />
	</node>
	<node lat="67.47758889007304" lon="15.42904443273009" id="-20211">
		<tag k="name" v="Øverkrubba" />
		<tag k="place" v="locality" />
		<tag k="ssr:stedsnr" v="759346" />
	</node>
	<node lat="67.37043611344087" lon="15.565100008671092" id="-20213">
		<tag k="name" v="Juvikenden" />
		<tag k="natural" v="valley" />
		<tag k="place" v="locality" />
		<tag k="ssr:stedsnr" v="759244" />
	</node>
	<node lat="67.59015000198602" lon="15.705258323034066" id="-20215">
		<tag k="name" v="Steindalen" />
		<tag k="natural" v="valley" />
		<tag k="place" v="locality" />
		<tag k="ssr:stedsnr" v="759454" />
	</node>
	<node lat="67.4061555562288" lon="15.526824993379813" id="-20219">
		<tag k="name" v="Forrhaugen" />
		<tag k="natural" v="hill" />
		<tag k="place" v="locality" />
		<tag k="ssr:stedsnr" v="759655" />
	</node>
	<node lat="67.57251111478033" lon="15.865902768689473" id="-20220">
		<tag k="name" v="Jamnen" />
		<tag k="place" v="locality" />
		<tag k="ssr:stedsnr" v="759850" />
	</node>
	<node lat="67.43020555383217" lon="15.728697218097464" id="-20227">
		<tag k="name" v="Nedrefjorddalan" />
		<tag k="natural" v="valley" />
		<tag k="place" v="locality" />
		<tag k="ssr:stedsnr" v="805222" />
	</node>
	<node lat="67.38825833320249" lon="15.517311104832233" id="-20249">
		<tag k="name" v="Kvanngrøvlian" />
		<tag k="natural" v="slope" />
		<tag k="place" v="locality" />
		<tag k="ssr:stedsnr" v="819674" />
	</node>
	<node lat="67.46670555166165" lon="15.470130548123496" id="-20250">
		<tag k="name" v="Kulen" />
		<tag k="natural" v="hill" />
		<tag k="place" v="locality" />
		<tag k="ssr:stedsnr" v="819570" />
	</node>
	<node lat="67.58932221806951" lon="15.719961108116355" id="-20252">
		<tag k="name" v="Trollkløven" />
		<tag k="natural" v="hill" />
		<tag k="place" v="locality" />
		<tag k="ssr:stedsnr" v="820268" />
	</node>
	<node lat="67.44115277601371" lon="15.456825010851144" id="-20259">
		<tag k="name" v="Oksdalheia" />
		<tag k="natural" v="hill" />
		<tag k="place" v="locality" />
		<tag k="ssr:stedsnr" v="845135" />
	</node>
	<node lat="67.43578977462124" lon="15.789614005613378" id="-20260">
		<tag k="name" v="Gjelahalsen" />
		<tag k="natural" v="valley" />
		<tag k="place" v="locality" />
		<tag k="ssr:stedsnr" v="926248" />
	</node>
	<node lat="67.46546944644301" lon="15.56348888073511" id="-20263">
		<tag k="alt_name" v="Galnarhaugen" />
		<tag k="name" v="Garnholhaugen" />
		<tag k="natural" v="hill" />
		<tag k="place" v="locality" />
		<tag k="ssr:stedsnr" v="926500" />
	</node>
	<node lat="67.4654138895117" lon="15.452627769489974" id="-20265">
		<tag k="name" v="Hornskeihaugen" />
		<tag k="natural" v="hill" />
		<tag k="place" v="locality" />
		<tag k="ssr:stedsnr" v="926583" />
	</node>
	<node lat="67.53214722134236" lon="15.954766668366346" id="-20267">
		<tag k="fixme" v="consider natural=peak for the most distinct mountains in the district" />
		<tag k="name" v="Austervassryggen" />
		<tag k="natural" v="hill" />
		<tag k="place" v="locality" />
		<tag k="ssr:stedsnr" v="926647" />
	</node>
	<node lat="67.37634694996716" lon="15.616481978208054" id="-20271">
		<tag k="fixme" v="consider natural=peak for the most distinct mountains in the district" />
		<tag k="name" v="Nauståsen" />
		<tag k="natural" v="hill" />
		<tag k="place" v="locality" />
		<tag k="ssr:stedsnr" v="926991" />
	</node>
	<node lat="67.3286916709212" lon="16.035011115205315" id="-20273">
		<tag k="name" v="Rundvassbotnen" />
		<tag k="natural" v="valley" />
		<tag k="place" v="locality" />
		<tag k="ssr:stedsnr" v="927314" />
	</node>
	<node lat="67.57475555374369" lon="15.74054721343272" id="-20281">
		<tag k="name" v="Ytternakken" />
		<tag k="natural" v="hill" />
		<tag k="place" v="locality" />
		<tag k="ssr:stedsnr" v="927681" />
	</node>
	<node lat="67.47995555515794" lon="16.06721388941497" id="-20283">
		<tag k="fixme" v="consider natural=peak for the most distinct mountains in the district" />
		<tag k="name" v="Smørbukken - Vuodjabudje" />
		<tag k="name:no" v="Smørbukken" />
		<tag k="name:smj" v="Vuodjabudje" />
		<tag k="natural" v="hill" />
		<tag k="old_name:smj" v="Vuodjabuddi" />
		<tag k="place" v="locality" />
		<tag k="ssr:stedsnr" v="927789" />
	</node>
	<node lat="67.46205555451455" lon="15.939208337953074" id="-20284">
		<tag k="name" v="Johanandersoknubben" />
		<tag k="natural" v="hill" />
		<tag k="place" v="locality" />
		<tag k="ssr:stedsnr" v="927798" />
	</node>
	<node lat="67.38600277979525" lon="15.609972226149027" id="-20294">
		<tag k="name" v="Bratthaugen" />
		<tag k="natural" v="hill" />
		<tag k="place" v="locality" />
		<tag k="ssr:stedsnr" v="927990" />
	</node>
	<node lat="67.55533055716302" lon="15.717611118189103" id="-20295">
		<tag k="fixme" v="consider natural=peak for the most distinct mountains in the district" />
		<tag k="name" v="Kanfjellet" />
		<tag k="natural" v="hill" />
		<tag k="place" v="locality" />
		<tag k="ssr:stedsnr" v="927995" />
	</node>
	<node lat="67.43018611174924" lon="15.484733338628272" id="-20351">
		<tag k="name" v="Nevermolia" />
		<tag k="natural" v="slope" />
		<tag k="place" v="locality" />
		<tag k="ssr:stedsnr" v="880551" />
	</node>
	<node lat="67.45809722599996" lon="15.51574723204227" id="-20352">
		<tag k="name" v="Stellhammaren" />
		<tag k="natural" v="hill" />
		<tag k="place" v="locality" />
		<tag k="ssr:stedsnr" v="880602" />
	</node>
	<node lat="67.36419444245448" lon="15.506711108080113" id="-20354">
		<tag k="name" v="Pålgamlia" />
		<tag k="natural" v="slope" />
		<tag k="place" v="locality" />
		<tag k="ssr:stedsnr" v="880710" />
	</node>
	<node lat="67.36380555897085" lon="15.515266665780281" id="-20355">
		<tag k="name" v="Brukmoen" />
		<tag k="place" v="locality" />
		<tag k="ssr:stedsnr" v="880722" />
	</node>
	<node lat="67.3638750002401" lon="15.520466667508357" id="-20356">
		<tag k="name" v="Tømmermoen" />
		<tag k="place" v="locality" />
		<tag k="ssr:stedsnr" v="880723" />
	</node>
	<node lat="67.40057777773777" lon="15.666180551076984" id="-20357">
		<tag k="fixme" v="consider natural=peak for the most distinct mountains in the district" />
		<tag k="name" v="Evjenåsen" />
		<tag k="natural" v="hill" />
		<tag k="place" v="locality" />
		<tag k="ssr:stedsnr" v="881166" />
	</node>
	<node lat="67.64371666800301" lon="16.020174996553042" id="-20358">
		<tag k="name" v="Gjertindlia" />
		<tag k="natural" v="slope" />
		<tag k="place" v="locality" />
		<tag k="ssr:stedsnr" v="881051" />
	</node>
	<node lat="67.59998611368805" lon="15.73136666390038" id="-20359">
		<tag k="name" v="Nopkrommen" />
		<tag k="natural" v="ridge" />
		<tag k="place" v="locality" />
		<tag k="ssr:stedsnr" v="881251" />
	</node>
	<node lat="67.59303611047754" lon="15.721316674276395" id="-20360">
		<tag k="fixme" v="consider natural=peak for the most distinct mountains in the district" />
		<tag k="name" v="Lappgerdfjellet" />
		<tag k="natural" v="hill" />
		<tag k="place" v="locality" />
		<tag k="ssr:stedsnr" v="881256" />
	</node>
	<node lat="67.59497222262694" lon="15.724249987884004" id="-20361">
		<tag k="fixme" v="consider natural=peak for the most distinct mountains in the district" />
		<tag k="name" v="Nerengfjellet" />
		<tag k="natural" v="hill" />
		<tag k="place" v="locality" />
		<tag k="ssr:stedsnr" v="881257" />
	</node>
	<node lat="67.58599722335809" lon="15.928630560647392" id="-20362">
		<tag k="name" v="Reinhaushalskråga" />
		<tag k="natural" v="valley" />
		<tag k="place" v="locality" />
		<tag k="ssr:stedsnr" v="881614" />
	</node>
	<node lat="67.61005277532297" lon="15.746977783104535" id="-20363">
		<tag k="name" v="Kvanndalen" />
		<tag k="natural" v="valley" />
		<tag k="place" v="locality" />
		<tag k="ssr:stedsnr" v="881349" />
	</node>
	<node lat="67.58625206169737" lon="15.831064257034326" id="-20364">
		<tag k="name" v="Kalmoen" />
		<tag k="place" v="locality" />
		<tag k="ssr:stedsnr" v="881518" />
	</node>
	<node lat="67.59627499861789" lon="15.835186113109625" id="-20366">
		<tag k="fixme" v="consider natural=peak for the most distinct mountains in the district" />
		<tag k="name" v="Grønnlikollen" />
		<tag k="natural" v="hill" />
		<tag k="place" v="locality" />
		<tag k="ssr:stedsnr" v="881569" />
	</node>
	<node lat="67.41247222088589" lon="15.72554721605767" id="-20375">
		<tag k="fixme" v="consider natural=peak for the most distinct mountains in the district" />
		<tag k="name" v="Steinbakkfjellet" />
		<tag k="natural" v="hill" />
		<tag k="place" v="locality" />
		<tag k="ssr:stedsnr" v="926259" />
	</node>
	<node lat="67.45614166937621" lon="15.454449995318637" id="-20378">
		<tag k="name" v="Nattmålslia" />
		<tag k="natural" v="slope" />
		<tag k="place" v="locality" />
		<tag k="ssr:stedsnr" v="926507" />
	</node>
	<node lat="67.55466944405846" lon="16.125197211372164" id="-20379">
		<tag k="fixme" v="consider natural=peak for the most distinct mountains in the district" />
		<tag k="name" v="Langvassfjellet" />
		<tag k="natural" v="hill" />
		<tag k="place" v="locality" />
		<tag k="ssr:stedsnr" v="926655" />
	</node>
	<node lat="67.32781666857514" lon="15.745400008701216" id="-20382">
		<tag k="name" v="Lægda" />
		<tag k="natural" v="slope" />
		<tag k="place" v="locality" />
		<tag k="ssr:stedsnr" v="927312" />
	</node>
	<node lat="67.68218888714802" lon="16.06657222896172" id="-20383">
		<tag k="name" v="Gjerdalen - Jierddavuobme" />
		<tag k="name:no" v="Gjerdalen" />
		<tag k="name:smj" v="Jierddavuobme" />
		<tag k="natural" v="valley" />
		<tag k="old_name:smj" v="Jierdavuopmi" />
		<tag k="place" v="locality" />
		<tag k="ssr:stedsnr" v="927509" />
	</node>
	<node lat="67.58691666697095" lon="15.90049443738469" id="-20387">
		<tag k="fixme" v="consider natural=peak for the most distinct mountains in the district" />
		<tag k="name" v="Kobbhammaren" />
		<tag k="natural" v="hill" />
		<tag k="place" v="locality" />
		<tag k="ssr:stedsnr" v="927565" />
	</node>
	<node lat="67.57831666559139" lon="15.748058334566" id="-20388">
		<tag k="name" v="Storheia" />
		<tag k="natural" v="hill" />
		<tag k="place" v="locality" />
		<tag k="ssr:stedsnr" v="927576" />
	</node>
	<node lat="67.47890000047568" lon="15.238152775194788" id="-20390">
		<tag k="name" v="Karihammaren" />
		<tag k="natural" v="hill" />
		<tag k="place" v="locality" />
		<tag k="ssr:stedsnr" v="927611" />
	</node>
	<node lat="67.63675278134448" lon="16.0191111220638" id="-20394">
		<tag k="fixme" v="consider natural=peak for the most distinct mountains in the district" />
		<tag k="name" v="Nytmarkheia" />
		<tag k="natural" v="hill" />
		<tag k="place" v="locality" />
		<tag k="ssr:stedsnr" v="927618" />
	</node>
	<node lat="67.5648750034311" lon="15.754994436674794" id="-20395">
		<tag k="fixme" v="consider natural=peak for the most distinct mountains in the district" />
		<tag k="name" v="Storvikhammaren" />
		<tag k="natural" v="hill" />
		<tag k="place" v="locality" />
		<tag k="ssr:stedsnr" v="927662" />
	</node>
	<node lat="67.5700472187355" lon="15.988383334485492" id="-20397">
		<tag k="name" v="Kvanntobotn" />
		<tag k="natural" v="valley" />
		<tag k="place" v="locality" />
		<tag k="ssr:stedsnr" v="927667" />
	</node>
	<node lat="67.57095555925379" lon="16.16318610749075" id="-20398">
		<tag k="fixme" v="consider natural=peak for the most distinct mountains in the district" />
		<tag k="name" v="Erlingkollen" />
		<tag k="natural" v="hill" />
		<tag k="place" v="locality" />
		<tag k="ssr:stedsnr" v="927669" />
	</node>
	<node lat="67.54078611229501" lon="15.35836390057801" id="-20404">
		<tag k="name" v="Haugajorda" />
		<tag k="place" v="locality" />
		<tag k="ssr:stedsnr" v="927966" />
	</node>
	<node lat="67.6067833318196" lon="15.144147219253767" id="-20452">
		<tag k="name" v="Bjørnsloka" />
		<tag k="natural" v="valley" />
		<tag k="place" v="locality" />
		<tag k="ssr:stedsnr" v="16028" />
	</node>
	<node lat="67.45890555359414" lon="15.653247220603077" id="-20457">
		<tag k="fixme" v="consider natural=peak for the most distinct mountains in the district" />
		<tag k="name" v="Tverrfjellet - Jalguk" />
		<tag k="name:no" v="Tverrfjellet" />
		<tag k="name:smj" v="Jalguk" />
		<tag k="natural" v="hill" />
		<tag k="old_name:smj" v="Jalgguk" />
		<tag k="place" v="locality" />
		<tag k="ssr:stedsnr" v="16494" />
	</node>
	<node lat="67.4938361140546" lon="15.361194444873556" id="-20461">
		<tag k="name" v="Holtan" />
		<tag k="natural" v="hill" />
		<tag k="place" v="locality" />
		<tag k="ssr:stedsnr" v="16546" />
	</node>
	<node lat="67.4996444477798" lon="15.918911109829875" id="-20466">
		<tag k="fixme" v="consider natural=peak for the most distinct mountains in the district" />
		<tag k="name" v="Steinshøgda - Måskostjåhkkå" />
		<tag k="name:no" v="Steinshøgda" />
		<tag k="name:smj" v="Måskostjåhkkå" />
		<tag k="natural" v="hill" />
		<tag k="old_name:smj" v="Moskkusčohkka" />
		<tag k="place" v="locality" />
		<tag k="ssr:stedsnr" v="16757" />
	</node>
	<node lat="67.5967527774368" lon="15.847108324538057" id="-20487">
		<tag k="alt_name" v="Vårmuslægret" />
		<tag k="name" v="Vårmuslæger" />
		<tag k="natural" v="valley" />
		<tag k="place" v="locality" />
		<tag k="ssr:stedsnr" v="17597" />
	</node>
	<node lat="67.63261944818885" lon="15.99063610440989" id="-20492">
		<tag k="name" v="Brennhaugen" />
		<tag k="natural" v="hill" />
		<tag k="place" v="locality" />
		<tag k="ssr:stedsnr" v="17647" />
	</node>
	<node lat="67.56190833007729" lon="15.47553333183613" id="-20495">
		<tag k="name" v="Storskogdalen" />
		<tag k="natural" v="valley" />
		<tag k="place" v="locality" />
		<tag k="ssr:stedsnr" v="17994" />
	</node>
	<node lat="67.34275000345966" lon="15.57048611498311" id="-20532">
		<tag k="name" v="Brattlia" />
		<tag k="natural" v="slope" />
		<tag k="place" v="locality" />
		<tag k="ssr:stedsnr" v="30186" />
	</node>
	<node lat="67.35056388829798" lon="15.566363897734409" id="-20533">
		<tag k="name" v="Forråshammaren" />
		<tag k="natural" v="hill" />
		<tag k="place" v="locality" />
		<tag k="ssr:stedsnr" v="30187" />
	</node>
	<node lat="67.35173055748734" lon="15.576138879337622" id="-20534">
		<tag k="name" v="Langmoen" />
		<tag k="place" v="locality" />
		<tag k="ssr:stedsnr" v="30190" />
	</node>
	<node lat="67.38099166890778" lon="15.635233337626266" id="-20535">
		<tag k="name" v="Skyttarhaugen" />
		<tag k="natural" v="hill" />
		<tag k="place" v="locality" />
		<tag k="ssr:stedsnr" v="30327" />
	</node>
	<node lat="67.64122222022523" lon="16.02263609816296" id="-20538">
		<tag k="name" v="Littj-Tinndalen" />
		<tag k="natural" v="valley" />
		<tag k="place" v="locality" />
		<tag k="ssr:stedsnr" v="31054" />
	</node>
	<node lat="67.38609167143215" lon="15.663602769514311" id="-20539">
		<tag k="name" v="Andkilnakken" />
		<tag k="natural" v="ridge" />
		<tag k="place" v="locality" />
		<tag k="ssr:stedsnr" v="31192" />
	</node>
	<node lat="67.46969722416969" lon="15.605141657783774" id="-20540">
		<tag k="name" v="Rismållia" />
		<tag k="natural" v="slope" />
		<tag k="place" v="locality" />
		<tag k="ssr:stedsnr" v="31159" />
	</node>
	<node lat="67.40834999548503" lon="15.64644722811216" id="-20543">
		<tag k="name" v="Nerigardshammaren" />
		<tag k="natural" v="hill" />
		<tag k="place" v="locality" />
		<tag k="ssr:stedsnr" v="31234" />
	</node>
	<node lat="67.45141666653888" lon="15.559977766769602" id="-20544">
		<tag k="name" v="Munnersteinmoen" />
		<tag k="place" v="locality" />
		<tag k="ssr:stedsnr" v="31334" />
	</node>
	<node lat="67.46356111181558" lon="15.555208325567662" id="-20545">
		<tag k="name" v="Breidalen" />
		<tag k="natural" v="valley" />
		<tag k="place" v="locality" />
		<tag k="ssr:stedsnr" v="31335" />
	</node>
	<node lat="67.46542222416309" lon="15.556888899223976" id="-20546">
		<tag k="name" v="Hamran" />
		<tag k="natural" v="hill" />
		<tag k="place" v="locality" />
		<tag k="ssr:stedsnr" v="31337" />
	</node>
	<node lat="67.45726388789211" lon="15.553305563038712" id="-20547">
		<tag k="name" v="Aksla" />
		<tag k="natural" v="ridge" />
		<tag k="place" v="locality" />
		<tag k="ssr:stedsnr" v="31338" />
	</node>
	<node lat="67.59631666398681" lon="15.816444448127676" id="-20550">
		<tag k="fixme" v="consider natural=peak for the most distinct mountains in the district" />
		<tag k="name" v="Berrfjellet" />
		<tag k="natural" v="hill" />
		<tag k="place" v="locality" />
		<tag k="ssr:stedsnr" v="31483" />
	</node>
	<node lat="67.4613166645178" lon="15.537336100718003" id="-20552">
		<tag k="name" v="Stordalen" />
		<tag k="natural" v="valley" />
		<tag k="place" v="locality" />
		<tag k="ssr:stedsnr" v="31342" />
	</node>
	<node lat="67.58064444142713" lon="15.799236098834259" id="-20553">
		<tag k="name" v="Nakken" />
		<tag k="natural" v="ridge" />
		<tag k="place" v="locality" />
		<tag k="ssr:stedsnr" v="31445" />
	</node>
	<node lat="67.43387222552967" lon="15.475672217709715" id="-20554">
		<tag k="name" v="Rulthammaren" />
		<tag k="natural" v="hill" />
		<tag k="place" v="locality" />
		<tag k="ssr:stedsnr" v="31527" />
	</node>
	<node lat="67.61364166412825" lon="15.74524445134285" id="-20555">
		<tag k="name" v="Langheia" />
		<tag k="natural" v="hill" />
		<tag k="place" v="locality" />
		<tag k="ssr:stedsnr" v="31530" />
	</node>
	<node lat="67.43314999794616" lon="15.495291676747845" id="-20556">
		<tag k="name" v="Svinmoen" />
		<tag k="place" v="locality" />
		<tag k="ssr:stedsnr" v="31544" />
	</node>
	<node lat="67.6209305597736" lon="15.904711106048149" id="-20558">
		<tag k="name" v="Storkuhaugen" />
		<tag k="natural" v="hill" />
		<tag k="place" v="locality" />
		<tag k="ssr:stedsnr" v="31944" />
	</node>
	<node lat="67.66678333155934" lon="15.830911107994039" id="-20586">
		<tag k="fixme" v="consider natural=peak for the most distinct mountains in the district" />
		<tag k="name" v="Litltuva" />
		<tag k="natural" v="hill" />
		<tag k="place" v="locality" />
		<tag k="ssr:stedsnr" v="78499" />
	</node>
	<node lat="67.67702778150624" lon="15.929327785213165" id="-20587">
		<tag k="fixme" v="consider natural=peak for the most distinct mountains in the district" />
		<tag k="name" v="Sildhopfjellet - Silldavuopvárre" />
		<tag k="name:no" v="Sildhopfjellet" />
		<tag k="name:smj" v="Silldavuopvárre" />
		<tag k="natural" v="hill" />
		<tag k="old_name:smj" v="Sildavuohppevárri" />
		<tag k="place" v="locality" />
		<tag k="ssr:stedsnr" v="78500" />
	</node>
	<node lat="67.61197222240503" lon="15.87384167166753" id="-20589">
		<tag k="fixme" v="consider natural=peak for the most distinct mountains in the district" />
		<tag k="name" v="Stortuva" />
		<tag k="natural" v="hill" />
		<tag k="place" v="locality" />
		<tag k="ssr:stedsnr" v="78586" />
	</node>
	<node lat="67.614636114299" lon="16.193702772511255" id="-20590">
		<tag k="fixme" v="consider natural=peak for the most distinct mountains in the district" />
		<tag k="name" v="Slubmatjårro" />
		<tag k="name:smj" v="Slubmatjårro" />
		<tag k="natural" v="hill" />
		<tag k="old_name:smj" v="Šlupmačorru" />
		<tag k="place" v="locality" />
		<tag k="ssr:stedsnr" v="78588" />
	</node>
	<node lat="67.58149999736433" lon="16.228519432757633" id="-20592">
		<tag k="name" v="Haugen - Viejektjåro" />
		<tag k="name:no" v="Haugen" />
		<tag k="name:smj" v="Viejektjåro" />
		<tag k="natural" v="hill" />
		<tag k="old_name:smj" v="Veajekačorut" />
		<tag k="place" v="locality" />
		<tag k="ssr:stedsnr" v="78737" />
	</node>
	<node lat="67.52347499554742" lon="15.717358341524946" id="-20594">
		<tag k="fixme" v="consider natural=peak for the most distinct mountains in the district" />
		<tag k="name" v="Raudfjellet" />
		<tag k="natural" v="hill" />
		<tag k="place" v="locality" />
		<tag k="ssr:stedsnr" v="78972" />
	</node>
	<node lat="67.63853333664261" lon="15.408558328866539" id="-20595">
		<tag k="name" v="Kvithammaren" />
		<tag k="natural" v="hill" />
		<tag k="place" v="locality" />
		<tag k="ssr:stedsnr" v="78928" />
	</node>
	<node lat="67.37774722323546" lon="15.630849999110758" id="-20647">
		<tag k="name" v="Stemmyrsletta" />
		<tag k="place" v="locality" />
		<tag k="ssr:stedsnr" v="91335" />
	</node>
	<node lat="67.37885000267937" lon="15.629075006313444" id="-20648">
		<tag k="name" v="Stemmyrhaugen" />
		<tag k="natural" v="hill" />
		<tag k="place" v="locality" />
		<tag k="ssr:stedsnr" v="91339" />
	</node>
	<node lat="67.45226110787304" lon="15.478441671044632" id="-20651">
		<tag k="name" v="Smibergknausen" />
		<tag k="natural" v="hill" />
		<tag k="place" v="locality" />
		<tag k="ssr:stedsnr" v="91585" />
	</node>
	<node lat="67.39040000122057" lon="15.527519452535802" id="-20652">
		<tag k="name" v="Lillekvanngrøva" />
		<tag k="natural" v="hill" />
		<tag k="place" v="locality" />
		<tag k="ssr:stedsnr" v="91679" />
	</node>
	<node lat="67.44196111099856" lon="15.470947229389902" id="-20654">
		<tag k="name" v="Halvardsvikdalen" />
		<tag k="natural" v="valley" />
		<tag k="place" v="locality" />
		<tag k="ssr:stedsnr" v="91542" />
	</node>
	<node lat="67.43738888754784" lon="15.489786100972767" id="-20655">
		<tag k="name" v="Oshaugen" />
		<tag k="natural" v="hill" />
		<tag k="place" v="locality" />
		<tag k="ssr:stedsnr" v="91548" />
	</node>
	<node lat="67.42797222232834" lon="15.506238896829863" id="-20656">
		<tag k="name" v="Storelvdalen" />
		<tag k="natural" v="valley" />
		<tag k="place" v="locality" />
		<tag k="ssr:stedsnr" v="91560" />
	</node>
	<node lat="67.36587500014988" lon="15.505963893183369" id="-20657">
		<tag k="name" v="Kvitflogan" />
		<tag k="natural" v="cliff" />
		<tag k="ssr:stedsnr" v="91692" />
	</node>
	<node lat="67.46682221886326" lon="15.590797219079091" id="-20658">
		<tag k="name" v="Lemman" />
		<tag k="natural" v="valley" />
		<tag k="place" v="locality" />
		<tag k="ssr:stedsnr" v="92155" />
	</node>
	<node lat="67.42376389183254" lon="15.670216655714178" id="-20659">
		<tag k="fixme" v="consider natural=peak for the most distinct mountains in the district" />
		<tag k="name" v="Trengselkollen" />
		<tag k="natural" v="hill" />
		<tag k="place" v="locality" />
		<tag k="ssr:stedsnr" v="92227" />
	</node>
	<node lat="67.41889166418333" lon="15.672680551619647" id="-20660">
		<tag k="name" v="Tennfloget" />
		<tag k="natural" v="cliff" />
		<tag k="ssr:stedsnr" v="92228" />
	</node>
	<node lat="67.60045555662677" lon="15.73633332170694" id="-20662">
		<tag k="name" v="Svarthammaren" />
		<tag k="natural" v="hill" />
		<tag k="place" v="locality" />
		<tag k="ssr:stedsnr" v="92259" />
	</node>
	<node lat="67.58935277639486" lon="15.805147210436523" id="-20664">
		<tag k="name" v="Knausan" />
		<tag k="natural" v="hill" />
		<tag k="place" v="locality" />
		<tag k="ssr:stedsnr" v="92454" />
	</node>
	<node lat="67.58111111352366" lon="15.934230556283623" id="-20667">
		<tag k="name" v="Reinhaushalsen" />
		<tag k="natural" v="ridge" />
		<tag k="place" v="locality" />
		<tag k="ssr:stedsnr" v="92629" />
	</node>
	<node lat="67.58915277970391" lon="15.928802783119192" id="-20668">
		<tag k="fixme" v="consider natural=peak for the most distinct mountains in the district" />
		<tag k="name" v="Middagstuva" />
		<tag k="natural" v="hill" />
		<tag k="place" v="locality" />
		<tag k="ssr:stedsnr" v="92636" />
	</node>
	<node lat="67.43904722602788" lon="15.24613332390996" id="-20678">
		<tag k="fixme" v="consider natural=peak for the most distinct mountains in the district" />
		<tag k="name" v="Vassviktindan" />
		<tag k="natural" v="hill" />
		<tag k="place" v="locality" />
		<tag k="ssr:stedsnr" v="137486" />
	</node>
	<node lat="67.44547777689854" lon="15.62004167554175" id="-20681">
		<tag k="name" v="Øverkvarvskråga" />
		<tag k="natural" v="valley" />
		<tag k="place" v="locality" />
		<tag k="ssr:stedsnr" v="137494" />
	</node>
	<node lat="67.58251111502221" lon="15.971225001523665" id="-20683">
		<tag k="alt_name" v="Litlreinhausen" />
		<tag k="fixme" v="consider natural=peak for the most distinct mountains in the district" />
		<tag k="name" v="Lille Reinhausen" />
		<tag k="natural" v="hill" />
		<tag k="place" v="locality" />
		<tag k="ssr:stedsnr" v="137538" />
	</node>
	<node lat="67.60456110861003" lon="15.813119448279693" id="-20687">
		<tag k="fixme" v="consider natural=peak for the most distinct mountains in the district" />
		<tag k="name" v="Høgbergfjellet" />
		<tag k="natural" v="hill" />
		<tag k="place" v="locality" />
		<tag k="ssr:stedsnr" v="137559" />
	</node>
	<node lat="67.46581666899804" lon="15.264905557053861" id="-20690">
		<tag k="fixme" v="consider natural=peak for the most distinct mountains in the district" />
		<tag k="name" v="Færøytinden" />
		<tag k="natural" v="hill" />
		<tag k="place" v="locality" />
		<tag k="ssr:stedsnr" v="137582" />
	</node>
	<node lat="67.48558055249666" lon="15.24613888675906" id="-20692">
		<tag k="name" v="Tverrbakkdalen" />
		<tag k="natural" v="valley" />
		<tag k="place" v="locality" />
		<tag k="ssr:stedsnr" v="137590" />
	</node>
	<node lat="67.53766111180677" lon="15.911666660884464" id="-20696">
		<tag k="fixme" v="consider natural=peak for the most distinct mountains in the district" />
		<tag k="name" v="Fuglevasskartinden" />
		<tag k="natural" v="hill" />
		<tag k="place" v="locality" />
		<tag k="ssr:stedsnr" v="137627" />
	</node>
	<node lat="67.27543333106543" lon="15.617758335027993" id="-20701">
		<tag k="name" v="Bæssásj-skárdde" />
		<tag k="name:no" v="Neverskaret" />
		<tag k="name:smj" v="Bæssásj-skárdde" />
		<tag k="natural" v="valley" />
		<tag k="old_name:smj" v="Beassisskárdi" />
		<tag k="place" v="locality" />
		<tag k="ssr:stedsnr" v="137853" />
	</node>
	<node lat="67.50015278190371" lon="15.337611108800822" id="-20706">
		<tag k="fixme" v="consider natural=peak for the most distinct mountains in the district" />
		<tag k="name" v="Skarven" />
		<tag k="natural" v="hill" />
		<tag k="place" v="locality" />
		<tag k="ssr:stedsnr" v="137959" />
	</node>
	<node lat="67.3771361150689" lon="15.637475000123365" id="-20708">
		<tag k="name" v="Lappmoen" />
		<tag k="place" v="locality" />
		<tag k="ssr:stedsnr" v="137988" />
	</node>
	<node lat="67.64353611411732" lon="15.954555555534105" id="-20712">
		<tag k="name" v="Tullhaugen" />
		<tag k="natural" v="hill" />
		<tag k="place" v="locality" />
		<tag k="ssr:stedsnr" v="138620" />
	</node>
	<node lat="67.64163055493472" lon="16.032449999558946" id="-20713">
		<tag k="name" v="Tverrelvdalen - Hálljevágge" />
		<tag k="name:no" v="Tverrelvdalen" />
		<tag k="name:smj" v="Hálljevágge" />
		<tag k="natural" v="valley" />
		<tag k="old_name:smj" v="Hárjevággi" />
		<tag k="place" v="locality" />
		<tag k="ssr:stedsnr" v="138623" />
	</node>
	<node lat="67.51413055578462" lon="15.598377771206833" id="-20717">
		<tag k="fixme" v="consider natural=peak for the most distinct mountains in the district" />
		<tag k="name" v="Tørrågheia" />
		<tag k="natural" v="hill" />
		<tag k="place" v="locality" />
		<tag k="ssr:stedsnr" v="138957" />
	</node>
	<node lat="67.43871944170411" lon="15.199655560852564" id="-20723">
		<tag k="alt_name" v="Osantinden" />
		<tag k="fixme" v="consider natural=peak for the most distinct mountains in the district" />
		<tag k="name" v="Osatinden" />
		<tag k="natural" v="hill" />
		<tag k="place" v="locality" />
		<tag k="ssr:stedsnr" v="140500" />
	</node>
	<node lat="67.41724166309288" lon="15.686702777245324" id="-20759">
		<tag k="fixme" v="consider natural=peak for the most distinct mountains in the district" />
		<tag k="name" v="Storvikkollen" />
		<tag k="natural" v="hill" />
		<tag k="place" v="locality" />
		<tag k="ssr:stedsnr" v="152247" />
	</node>
	<node lat="67.5263194420136" lon="15.484172229757341" id="-20761">
		<tag k="name" v="Innerhøgda" />
		<tag k="natural" v="hill" />
		<tag k="place" v="locality" />
		<tag k="ssr:stedsnr" v="152333" />
	</node>
	<node lat="67.43135000350428" lon="15.554224998722002" id="-20762">
		<tag k="name" v="Røyrlia" />
		<tag k="natural" v="slope" />
		<tag k="place" v="locality" />
		<tag k="ssr:stedsnr" v="152337" />
	</node>
	<node lat="67.4662611106546" lon="15.577527765905966" id="-20763">
		<tag k="name" v="Hessibakken" />
		<tag k="natural" v="slope" />
		<tag k="place" v="locality" />
		<tag k="ssr:stedsnr" v="152160" />
	</node>
	<node lat="67.46027499707606" lon="15.587480559593875" id="-20764">
		<tag k="name" v="Storurfloget" />
		<tag k="natural" v="cliff" />
		<tag k="ssr:stedsnr" v="152173" />
	</node>
	<node lat="67.39776111530679" lon="15.625663878789853" id="-20765">
		<tag k="name" v="Eiterelvkråga" />
		<tag k="natural" v="valley" />
		<tag k="place" v="locality" />
		<tag k="ssr:stedsnr" v="152193" />
	</node>
	<node lat="67.39598888575962" lon="15.64812778573578" id="-20766">
		<tag k="name" v="Litlevassknubben" />
		<tag k="natural" v="hill" />
		<tag k="place" v="locality" />
		<tag k="ssr:stedsnr" v="152197" />
	</node>
	<node lat="67.40068055458616" lon="15.628477778486161" id="-20767">
		<tag k="name" v="Storbuheia" />
		<tag k="natural" v="hill" />
		<tag k="place" v="locality" />
		<tag k="ssr:stedsnr" v="152198" />
	</node>
	<node lat="67.40458611365007" lon="15.637175006046565" id="-20768">
		<tag k="name" v="Kåsmoa" />
		<tag k="place" v="locality" />
		<tag k="ssr:stedsnr" v="152200" />
	</node>
	<node lat="67.59127222230354" lon="15.716263896493485" id="-20769">
		<tag k="fixme" v="consider natural=peak for the most distinct mountains in the district" />
		<tag k="name" v="Novkollen" />
		<tag k="natural" v="hill" />
		<tag k="place" v="locality" />
		<tag k="ssr:stedsnr" v="152284" />
	</node>
	<node lat="67.47909444243817" lon="15.473991671159533" id="-20770">
		<tag k="name" v="Nes" />
		<tag k="natural" v="ridge" />
		<tag k="place" v="locality" />
		<tag k="ssr:stedsnr" v="152424" />
	</node>
	<node lat="67.58585555586934" lon="15.858108335790176" id="-20771">
		<tag k="name" v="Kobbhammarfloget" />
		<tag k="natural" v="cliff" />
		<tag k="ssr:stedsnr" v="152615" />
	</node>
	<node lat="67.58636666443309" lon="15.813494441483698" id="-20773">
		<tag k="name" v="Knubben" />
		<tag k="natural" v="hill" />
		<tag k="place" v="locality" />
		<tag k="ssr:stedsnr" v="152486" />
	</node>
	<node lat="67.59408055962304" lon="15.879249999040745" id="-20774">
		<tag k="name" v="Geitosheia" />
		<tag k="natural" v="hill" />
		<tag k="place" v="locality" />
		<tag k="ssr:stedsnr" v="152574" />
	</node>
	<node lat="67.57078889134316" lon="15.851541673087675" id="-20776">
		<tag k="name" v="Raudhammardalen" />
		<tag k="natural" v="valley" />
		<tag k="place" v="locality" />
		<tag k="ssr:stedsnr" v="152877" />
	</node>
	<node lat="67.63929166661458" lon="15.976997218355105" id="-20777">
		<tag k="name" v="Stormoa" />
		<tag k="place" v="locality" />
		<tag k="ssr:stedsnr" v="152898" />
	</node>
	<node lat="67.61040833116856" lon="15.977486102230527" id="-20778">
		<tag k="name" v="Skjellhammaren" />
		<tag k="natural" v="hill" />
		<tag k="place" v="locality" />
		<tag k="ssr:stedsnr" v="152936" />
	</node>
	<node lat="67.26118055969408" lon="15.627022225648734" id="-20784">
		<tag k="fixme" v="consider natural=peak for the most distinct mountains in the district" />
		<tag k="name" v="Kjølvikdalryggen" />
		<tag k="natural" v="hill" />
		<tag k="place" v="locality" />
		<tag k="ssr:stedsnr" v="198750" />
	</node>
	<node lat="67.77502222360687" lon="15.761166669791864" id="-20786">
		<tag k="name" v="Okslia" />
		<tag k="natural" v="slope" />
		<tag k="place" v="locality" />
		<tag k="ssr:stedsnr" v="198234" />
	</node>
	<node lat="67.36711666784493" lon="15.855119446144432" id="-20788">
		<tag k="fixme" v="consider natural=peak for the most distinct mountains in the district" />
		<tag k="name" v="Sijdasvárre" />
		<tag k="name:smj" v="Sijdasvárre" />
		<tag k="natural" v="hill" />
		<tag k="old_name:smj" v="Siiddasvárri" />
		<tag k="place" v="locality" />
		<tag k="ssr:stedsnr" v="198244" />
	</node>
	<node lat="67.34280000134531" lon="15.994555555152726" id="-20790">
		<tag k="name" v="Veiskidalen" />
		<tag k="natural" v="valley" />
		<tag k="place" v="locality" />
		<tag k="ssr:stedsnr" v="198254" />
	</node>
	<node lat="67.45343055622631" lon="15.580819451463057" id="-20791">
		<tag k="name" v="Kråktuva" />
		<tag k="natural" v="hill" />
		<tag k="place" v="locality" />
		<tag k="ssr:stedsnr" v="198488" />
	</node>
	<node lat="67.47193055609672" lon="15.610541661788716" id="-20794">
		<tag k="name" v="Rismålskollen" />
		<tag k="natural" v="hill" />
		<tag k="place" v="locality" />
		<tag k="ssr:stedsnr" v="198596" />
	</node>
	<node lat="67.4686250021454" lon="15.984105556475848" id="-20803">
		<tag k="name" v="Sørkråghalsen" />
		<tag k="place" v="locality" />
		<tag k="ssr:stedsnr" v="198786" />
	</node>
	<node lat="67.60116944828148" lon="15.659730549703141" id="-20806">
		<tag k="fixme" v="consider natural=peak for the most distinct mountains in the district" />
		<tag k="name" v="Høgfjellet" />
		<tag k="natural" v="hill" />
		<tag k="place" v="locality" />
		<tag k="ssr:stedsnr" v="199883" />
	</node>
	<node lat="67.58437222279608" lon="15.696730563559106" id="-20808">
		<tag k="alt_name" v="Strumpdalheia" />
		<tag k="name" v="Strømpdalheia" />
		<tag k="natural" v="hill" />
		<tag k="place" v="locality" />
		<tag k="ssr:stedsnr" v="199901" />
	</node>
	<node lat="67.30352499629336" lon="15.584544432194912" id="-20811">
		<tag k="name" v="Svadbergan" />
		<tag k="natural" v="hill" />
		<tag k="place" v="locality" />
		<tag k="ssr:stedsnr" v="198835" />
	</node>
	<node lat="67.3639861120297" lon="15.545169449536317" id="-20812">
		<tag k="name" v="Trolldalen" />
		<tag k="natural" v="valley" />
		<tag k="place" v="locality" />
		<tag k="ssr:stedsnr" v="198883" />
	</node>
	<node lat="67.68718888868185" lon="16.016016674794955" id="-20822">
		<tag k="fixme" v="consider natural=peak for the most distinct mountains in the district" />
		<tag k="name" v="Nuorjotjåhkkå" />
		<tag k="name:smj" v="Nuorjotjåhkkå" />
		<tag k="natural" v="hill" />
		<tag k="old_name:smj" v="Njuorjočohkka" />
		<tag k="place" v="locality" />
		<tag k="ssr:stedsnr" v="199529" />
	</node>
	<node lat="67.70101944247719" lon="15.998747229729824" id="-20823">
		<tag k="name" v="Badje-Háhtsek" />
		<tag k="name:smj" v="Badje-Háhtsek" />
		<tag k="natural" v="slope" />
		<tag k="old_name:smj" v="Háhceg, badje" />
		<tag k="place" v="locality" />
		<tag k="ssr:stedsnr" v="199544" />
	</node>
	<node lat="67.63974444865518" lon="16.115866667700804" id="-20824">
		<tag k="fixme" v="consider natural=peak for the most distinct mountains in the district" />
		<tag k="name" v="Litletinden" />
		<tag k="natural" v="hill" />
		<tag k="place" v="locality" />
		<tag k="ssr:stedsnr" v="199637" />
	</node>
	<node lat="67.53572499955169" lon="16.307086104474163" id="-20826">
		<tag k="name" v="Grashaugen - Sårjåstjårro" />
		<tag k="name:no" v="Grashaugen" />
		<tag k="name:smj" v="Sårjåstjårro" />
		<tag k="natural" v="hill" />
		<tag k="old_name:smj" v="Sorjjasčorru" />
		<tag k="place" v="locality" />
		<tag k="ssr:stedsnr" v="199749" />
	</node>
	<node lat="67.583663893181" lon="15.98647221851105" id="-20827">
		<tag k="name" v="Hithaugen" />
		<tag k="natural" v="hill" />
		<tag k="place" v="locality" />
		<tag k="ssr:stedsnr" v="199577" />
	</node>
	<node lat="67.60066944858883" lon="15.731899999910485" id="-20828">
		<tag k="fixme" v="consider natural=peak for the most distinct mountains in the district" />
		<tag k="name" v="Nupen" />
		<tag k="natural" v="hill" />
		<tag k="place" v="locality" />
		<tag k="ssr:stedsnr" v="199581" />
	</node>
	<node lat="67.5733305548311" lon="16.104719452578536" id="-20829">
		<tag k="fixme" v="consider natural=peak for the most distinct mountains in the district" />
		<tag k="name" v="Kivasskollen" />
		<tag k="natural" v="hill" />
		<tag k="place" v="locality" />
		<tag k="ssr:stedsnr" v="199702" />
	</node>
	<node lat="67.55229167029584" lon="15.309655567222949" id="-20832">
		<tag k="fixme" v="consider natural=peak for the most distinct mountains in the district" />
		<tag k="name" v="Storkovfjellet" />
		<tag k="natural" v="hill" />
		<tag k="place" v="locality" />
		<tag k="ssr:stedsnr" v="199997" />
	</node>
	<node lat="67.36428055095871" lon="15.645794451809754" id="-20862">
		<tag k="name" v="Storbakken" />
		<tag k="natural" v="slope" />
		<tag k="place" v="locality" />
		<tag k="ssr:stedsnr" v="273294" />
	</node>
	<node lat="67.63560277388898" lon="15.99131388839516" id="-20872">
		<tag k="name" v="Tømmerslettmoa" />
		<tag k="place" v="locality" />
		<tag k="ssr:stedsnr" v="213056" />
	</node>
	<node lat="67.35026388731649" lon="15.548669444237142" id="-20875">
		<tag k="name" v="Ørnhaugen" />
		<tag k="natural" v="hill" />
		<tag k="place" v="locality" />
		<tag k="ssr:stedsnr" v="213222" />
	</node>
	<node lat="67.44629444723222" lon="15.541972213576434" id="-20876">
		<tag k="name" v="Knaushaugen" />
		<tag k="natural" v="hill" />
		<tag k="place" v="locality" />
		<tag k="ssr:stedsnr" v="213297" />
	</node>
	<node lat="67.60611388791638" lon="15.73535832538202" id="-20877">
		<tag k="name" v="Stormølnheia" />
		<tag k="natural" v="hill" />
		<tag k="place" v="locality" />
		<tag k="ssr:stedsnr" v="213397" />
	</node>
	<node lat="67.59033333326023" lon="15.825241657531215" id="-20878">
		<tag k="fixme" v="consider natural=peak for the most distinct mountains in the district" />
		<tag k="name" v="Stavan" />
		<tag k="natural" v="hill" />
		<tag k="place" v="locality" />
		<tag k="ssr:stedsnr" v="213519" />
	</node>
	<node lat="67.44972222136288" lon="15.47200832501667" id="-20880">
		<tag k="name" v="Staurhellarhaugen" />
		<tag k="natural" v="hill" />
		<tag k="place" v="locality" />
		<tag k="ssr:stedsnr" v="213612" />
	</node>
	<node lat="67.4609777779519" lon="15.572608330698637" id="-20881">
		<tag k="name" v="Husbakkmoen" />
		<tag k="place" v="locality" />
		<tag k="ssr:stedsnr" v="213162" />
	</node>
	<node lat="67.42045277992622" lon="15.644688880876178" id="-20882">
		<tag k="name" v="Tverrlia" />
		<tag k="natural" v="slope" />
		<tag k="place" v="locality" />
		<tag k="ssr:stedsnr" v="213246" />
	</node>
	<node lat="67.41110555734585" lon="15.676033340340735" id="-20885">
		<tag k="name" v="Øverskaret" />
		<tag k="natural" v="valley" />
		<tag k="place" v="locality" />
		<tag k="ssr:stedsnr" v="213255" />
	</node>
	<node lat="67.36698333233907" lon="15.556330560534965" id="-20886">
		<tag k="name" v="Vinkjellarbakken" />
		<tag k="natural" v="slope" />
		<tag k="place" v="locality" />
		<tag k="ssr:stedsnr" v="213263" />
	</node>
	<node lat="67.43934166582052" lon="15.568044432423838" id="-20888">
		<tag k="name" v="Knubben" />
		<tag k="natural" v="hill" />
		<tag k="place" v="locality" />
		<tag k="ssr:stedsnr" v="213349" />
	</node>
	<node lat="67.58467499842179" lon="15.768575009500527" id="-20890">
		<tag k="name" v="Tjyvlia" />
		<tag k="natural" v="slope" />
		<tag k="place" v="locality" />
		<tag k="ssr:stedsnr" v="213433" />
	</node>
	<node lat="67.57370833580899" lon="15.762388886553296" id="-20891">
		<tag k="name" v="Hundhammaren" />
		<tag k="natural" v="hill" />
		<tag k="place" v="locality" />
		<tag k="ssr:stedsnr" v="213443" />
	</node>
	<node lat="67.53096110981646" lon="15.525325009665751" id="-20892">
		<tag k="fixme" v="consider natural=peak for the most distinct mountains in the district" />
		<tag k="name" v="Bjørndalfjellet" />
		<tag k="natural" v="hill" />
		<tag k="place" v="locality" />
		<tag k="ssr:stedsnr" v="213453" />
	</node>
	<node lat="67.61150278176275" lon="15.72691944255804" id="-20893">
		<tag k="name" v="Storsteinheia" />
		<tag k="natural" v="hill" />
		<tag k="place" v="locality" />
		<tag k="ssr:stedsnr" v="213544" />
	</node>
	<node lat="67.6191888930015" lon="15.7125027726032" id="-20895">
		<tag k="name" v="Nordholheia" />
		<tag k="natural" v="hill" />
		<tag k="place" v="locality" />
		<tag k="ssr:stedsnr" v="213561" />
	</node>
	<node lat="67.6122111120299" lon="15.746644454406923" id="-20896">
		<tag k="name" v="Stongsætheia" />
		<tag k="natural" v="hill" />
		<tag k="place" v="locality" />
		<tag k="ssr:stedsnr" v="213569" />
	</node>
	<node lat="67.38343333190478" lon="15.521649989648562" id="-20898">
		<tag k="name" v="Knausan" />
		<tag k="natural" v="hill" />
		<tag k="place" v="locality" />
		<tag k="ssr:stedsnr" v="213737" />
	</node>
	<node lat="67.59378055759221" lon="15.97538333116151" id="-20899">
		<tag k="name" v="Rennerelvdalen" />
		<tag k="natural" v="valley" />
		<tag k="place" v="locality" />
		<tag k="ssr:stedsnr" v="213614" />
	</node>
	<node lat="67.58382222301594" lon="15.961999988478327" id="-20900">
		<tag k="name" v="Hithågen" />
		<tag k="natural" v="hill" />
		<tag k="place" v="locality" />
		<tag k="ssr:stedsnr" v="213618" />
	</node>
	<node lat="67.62434722129237" lon="15.929261106833422" id="-20901">
		<tag k="name" v="Høgbakken" />
		<tag k="natural" v="slope" />
		<tag k="place" v="locality" />
		<tag k="ssr:stedsnr" v="213921" />
	</node>
	<node lat="67.36062777887216" lon="15.562786108190108" id="-20903">
		<tag k="name" v="Prestkondalen" />
		<tag k="natural" v="valley" />
		<tag k="place" v="locality" />
		<tag k="ssr:stedsnr" v="273214" />
	</node>
	<node lat="67.47693611262649" lon="15.451022230720936" id="-20906">
		<tag k="name" v="Småhaugan" />
		<tag k="natural" v="hill" />
		<tag k="place" v="locality" />
		<tag k="ssr:stedsnr" v="273493" />
	</node>
	<node lat="67.4025444417415" lon="15.532913899076105" id="-20907">
		<tag k="name" v="Lian" />
		<tag k="natural" v="slope" />
		<tag k="place" v="locality" />
		<tag k="ssr:stedsnr" v="273695" />
	</node>
	<node lat="67.45388333636559" lon="15.472822215462763" id="-20908">
		<tag k="name" v="Brynshaugen" />
		<tag k="natural" v="hill" />
		<tag k="place" v="locality" />
		<tag k="ssr:stedsnr" v="273560" />
	</node>
	<node lat="67.37550555819568" lon="15.535283327647875" id="-20909">
		<tag k="name" v="Flatbakken" />
		<tag k="natural" v="slope" />
		<tag k="place" v="locality" />
		<tag k="ssr:stedsnr" v="273740" />
	</node>
	<node lat="67.38009444607512" lon="15.536241674905645" id="-20910">
		<tag k="name" v="Grøven" />
		<tag k="place" v="locality" />
		<tag k="ssr:stedsnr" v="273747" />
	</node>
	<node lat="67.43854999954705" lon="15.545727783023272" id="-20913">
		<tag k="name" v="Heia" />
		<tag k="natural" v="hill" />
		<tag k="place" v="locality" />
		<tag k="ssr:stedsnr" v="274281" />
	</node>
	<node lat="67.4649833341339" lon="15.593211109182835" id="-20916">
		<tag k="name" v="Grønnlia" />
		<tag k="natural" v="slope" />
		<tag k="place" v="locality" />
		<tag k="ssr:stedsnr" v="274150" />
	</node>
	<node lat="67.5865000035072" lon="15.74986945387349" id="-20917">
		<tag k="name" v="Hanisletta" />
		<tag k="place" v="locality" />
		<tag k="ssr:stedsnr" v="274236" />
	</node>
	<node lat="67.60481389134597" lon="15.736044449598698" id="-20918">
		<tag k="fixme" v="consider natural=peak for the most distinct mountains in the district" />
		<tag k="name" v="Knoltran" />
		<tag k="natural" v="hill" />
		<tag k="place" v="locality" />
		<tag k="ssr:stedsnr" v="274346" />
	</node>
	<node lat="67.5741388894335" lon="15.756608335387453" id="-20919">
		<tag k="name" v="Skylan" />
		<tag k="natural" v="hill" />
		<tag k="place" v="locality" />
		<tag k="ssr:stedsnr" v="274380" />
	</node>
	<node lat="67.6214444469085" lon="15.729855562981015" id="-20920">
		<tag k="name" v="Lenninga" />
		<tag k="place" v="locality" />
		<tag k="ssr:stedsnr" v="274495" />
	</node>
	<node lat="67.60875277676901" lon="15.723802767917048" id="-20921">
		<tag k="name" v="Svarthaugsletta" />
		<tag k="place" v="locality" />
		<tag k="ssr:stedsnr" v="274464" />
	</node>
	<node lat="67.59239722395198" lon="15.948836099927156" id="-20925">
		<tag k="name" v="Langforssletta" />
		<tag k="place" v="locality" />
		<tag k="ssr:stedsnr" v="274552" />
	</node>
	<node lat="67.59207222558769" lon="15.959638888123942" id="-20926">
		<tag k="fixme" v="consider natural=peak for the most distinct mountains in the district" />
		<tag k="name" v="Rennerelvkollen" />
		<tag k="natural" v="hill" />
		<tag k="place" v="locality" />
		<tag k="ssr:stedsnr" v="274558" />
	</node>
	<node lat="67.57027222574816" lon="15.882613895423388" id="-20927">
		<tag k="fixme" v="consider natural=peak for the most distinct mountains in the district" />
		<tag k="name" v="Middagsfjellet" />
		<tag k="natural" v="hill" />
		<tag k="place" v="locality" />
		<tag k="ssr:stedsnr" v="274837" />
	</node>
	<node lat="67.6324805557191" lon="15.974930544238559" id="-20928">
		<tag k="name" v="Brennhaugsnyta" />
		<tag k="place" v="locality" />
		<tag k="ssr:stedsnr" v="274844" />
	</node>
	<node lat="67.64292777777733" lon="15.970680564188662" id="-20930">
		<tag k="name" v="Haugen" />
		<tag k="natural" v="hill" />
		<tag k="place" v="locality" />
		<tag k="ssr:stedsnr" v="274868" />
	</node>
	<node lat="67.41772777651379" lon="15.841877780276013" id="-20933">
		<tag k="name" v="Litlverivassknubben" />
		<tag k="natural" v="hill" />
		<tag k="place" v="locality" />
		<tag k="ssr:stedsnr" v="319256" />
	</node>
	<node lat="67.41061111131042" lon="15.963872232680053" id="-20934">
		<tag k="fixme" v="consider natural=peak for the most distinct mountains in the district" />
		<tag k="name" v="Boadnjásjtjåhkkå" />
		<tag k="name:smj" v="Boadnjásjtjåhkkå" />
		<tag k="natural" v="hill" />
		<tag k="old_name:smj" v="Boatnjáščohkka" />
		<tag k="place" v="locality" />
		<tag k="ssr:stedsnr" v="319257" />
	</node>
	<node lat="67.3977138871846" lon="15.77886387914083" id="-20935">
		<tag k="fixme" v="consider natural=peak for the most distinct mountains in the district" />
		<tag k="name" v="Ájvvotjåhkkå" />
		<tag k="name:smj" v="Ájvvotjåhkkå" />
		<tag k="natural" v="hill" />
		<tag k="old_name:smj" v="Áivočohkka" />
		<tag k="place" v="locality" />
		<tag k="ssr:stedsnr" v="319262" />
	</node>
	<node lat="67.39629444662336" lon="15.739033340840555" id="-20936">
		<tag k="name" v="Hellarvikaksla" />
		<tag k="place" v="locality" />
		<tag k="ssr:stedsnr" v="319268" />
	</node>
	<node lat="67.44569166267053" lon="15.101941670674405" id="-20940">
		<tag k="fixme" v="consider natural=peak for the most distinct mountains in the district" />
		<tag k="name" v="Torneshatten" />
		<tag k="natural" v="hill" />
		<tag k="place" v="locality" />
		<tag k="ssr:stedsnr" v="319575" />
	</node>
	<node lat="67.45108610925672" lon="15.301919435282061" id="-20942">
		<tag k="name" v="Tindhola" />
		<tag k="natural" v="valley" />
		<tag k="place" v="locality" />
		<tag k="ssr:stedsnr" v="319517" />
	</node>
	<node lat="67.45423611359178" lon="15.554652773793824" id="-20943">
		<tag k="name" v="Middagsfloget" />
		<tag k="natural" v="hill" />
		<tag k="place" v="locality" />
		<tag k="ssr:stedsnr" v="319518" />
	</node>
	<node lat="67.4578777776813" lon="15.524472228213977" id="-20944">
		<tag k="fixme" v="consider natural=peak for the most distinct mountains in the district" />
		<tag k="name" v="Forråsen" />
		<tag k="natural" v="hill" />
		<tag k="place" v="locality" />
		<tag k="ssr:stedsnr" v="319519" />
	</node>
	<node lat="67.58171389232189" lon="15.794986117985722" id="-20954">
		<tag k="name" v="Innernakken" />
		<tag k="natural" v="hill" />
		<tag k="place" v="locality" />
		<tag k="ssr:stedsnr" v="320554" />
	</node>
	<node lat="67.49156944135282" lon="15.618891656320447" id="-20955">
		<tag k="name" v="Ospfjorddalen" />
		<tag k="natural" v="valley" />
		<tag k="place" v="locality" />
		<tag k="ssr:stedsnr" v="320556" />
	</node>
	<node lat="67.57715833661061" lon="15.957927781267074" id="-20956">
		<tag k="fixme" v="consider natural=peak for the most distinct mountains in the district" />
		<tag k="name" v="Reinhausen - Giehtjevárre" />
		<tag k="name:no" v="Reinhausen" />
		<tag k="name:smj" v="Giehtjevárre" />
		<tag k="natural" v="hill" />
		<tag k="old_name:smj" v="Geahčevarri" />
		<tag k="place" v="locality" />
		<tag k="ssr:stedsnr" v="320560" />
	</node>
	<node lat="67.59987777753403" lon="15.753461120262179" id="-20957">
		<tag k="alt_name" v="Skytholfjellet" />
		<tag k="fixme" v="consider natural=peak for the most distinct mountains in the district" />
		<tag k="name" v="Skyttholfjell" />
		<tag k="natural" v="hill" />
		<tag k="place" v="locality" />
		<tag k="ssr:stedsnr" v="320572" />
	</node>
	<node lat="67.57633055115544" lon="15.99464167332924" id="-20958">
		<tag k="name" v="Pilikoppdalen" />
		<tag k="natural" v="valley" />
		<tag k="place" v="locality" />
		<tag k="ssr:stedsnr" v="320667" />
	</node>
	<node lat="67.41711666796071" lon="15.118477777056189" id="-20976">
		<tag k="fixme" v="consider natural=peak for the most distinct mountains in the district" />
		<tag k="name" v="Nonsfjelltuva" />
		<tag k="natural" v="hill" />
		<tag k="place" v="locality" />
		<tag k="ssr:stedsnr" v="323561" />
	</node>
	<node lat="67.39569444471896" lon="15.618599996633794" id="-21005">
		<tag k="name" v="Nordnakklia" />
		<tag k="natural" v="slope" />
		<tag k="place" v="locality" />
		<tag k="ssr:stedsnr" v="334169" />
	</node>
	<node lat="67.40111388991774" lon="15.637150009085316" id="-21007">
		<tag k="name" v="Mørkhola" />
		<tag k="natural" v="valley" />
		<tag k="place" v="locality" />
		<tag k="ssr:stedsnr" v="334177" />
	</node>
	<node lat="67.63528055298026" lon="15.982866672649083" id="-21009">
		<tag k="name" v="Kjørrdalen" />
		<tag k="natural" v="valley" />
		<tag k="place" v="locality" />
		<tag k="ssr:stedsnr" v="334040" />
	</node>
	<node lat="67.46676111554727" lon="15.56775555156315" id="-21010">
		<tag k="name" v="Mellomhaugen" />
		<tag k="natural" v="hill" />
		<tag k="place" v="locality" />
		<tag k="ssr:stedsnr" v="334132" />
	</node>
	<node lat="67.45005833006834" lon="15.565149994564743" id="-21011">
		<tag k="name" v="Einmoen" />
		<tag k="place" v="locality" />
		<tag k="ssr:stedsnr" v="334136" />
	</node>
	<node lat="67.45986389096603" lon="15.566397218583164" id="-21012">
		<tag k="name" v="Memaurhaugen" />
		<tag k="natural" v="hill" />
		<tag k="place" v="locality" />
		<tag k="ssr:stedsnr" v="334140" />
	</node>
	<node lat="67.36160000049398" lon="15.546444453942234" id="-21014">
		<tag k="name" v="Øvertrolldalsheia" />
		<tag k="natural" v="hill" />
		<tag k="place" v="locality" />
		<tag k="ssr:stedsnr" v="334230" />
	</node>
	<node lat="67.51913055188531" lon="15.513138898792342" id="-21017">
		<tag k="name" v="Nakken" />
		<tag k="natural" v="hill" />
		<tag k="place" v="locality" />
		<tag k="ssr:stedsnr" v="334409" />
	</node>
	<node lat="67.3868666621326" lon="15.643238890799283" id="-21019">
		<tag k="name" v="Trolldalen" />
		<tag k="natural" v="valley" />
		<tag k="place" v="locality" />
		<tag k="ssr:stedsnr" v="334182" />
	</node>
	<node lat="67.38867778050485" lon="15.648622212168517" id="-21020">
		<tag k="name" v="Høystakkhaugen" />
		<tag k="natural" v="hill" />
		<tag k="place" v="locality" />
		<tag k="ssr:stedsnr" v="334183" />
	</node>
	<node lat="67.37529444762433" lon="15.638897225462921" id="-21021">
		<tag k="name" v="Nerlappmoen" />
		<tag k="place" v="locality" />
		<tag k="ssr:stedsnr" v="334281" />
	</node>
	<node lat="67.47291667031968" lon="15.431486105285968" id="-21025">
		<tag k="name" v="Brynberglia" />
		<tag k="natural" v="slope" />
		<tag k="place" v="locality" />
		<tag k="ssr:stedsnr" v="334355" />
	</node>
	<node lat="67.58572222195785" lon="15.786908332619557" id="-21027">
		<tag k="name" v="Susannaslåka" />
		<tag k="natural" v="hill" />
		<tag k="place" v="locality" />
		<tag k="ssr:stedsnr" v="334393" />
	</node>
	<node lat="67.59455277690176" lon="15.84626110430512" id="-21030">
		<tag k="name" v="Stavførrheia" />
		<tag k="natural" v="hill" />
		<tag k="place" v="locality" />
		<tag k="ssr:stedsnr" v="334517" />
	</node>
	<node lat="67.64418332913762" lon="15.948319452452198" id="-21034">
		<tag k="name" v="Svarthammaren" />
		<tag k="natural" v="hill" />
		<tag k="place" v="locality" />
		<tag k="ssr:stedsnr" v="334882" />
	</node>
	<node lat="67.63238889111115" lon="15.93020555247194" id="-21035">
		<tag k="name" v="Kraumdalen" />
		<tag k="natural" v="valley" />
		<tag k="place" v="locality" />
		<tag k="ssr:stedsnr" v="334889" />
	</node>
	<node lat="67.63806388898357" lon="15.930527785497143" id="-21036">
		<tag k="name" v="Sprutlia" />
		<tag k="natural" v="slope" />
		<tag k="place" v="locality" />
		<tag k="ssr:stedsnr" v="334891" />
	</node>
	<node lat="67.44091110965572" lon="15.45992776600123" id="-21041">
		<tag k="name" v="Skogaksla" />
		<tag k="place" v="locality" />
		<tag k="ssr:stedsnr" v="359106" />
	</node>
	<node lat="67.43894166620123" lon="15.461875004435035" id="-21042">
		<tag k="name" v="Godmathollia" />
		<tag k="natural" v="slope" />
		<tag k="place" v="locality" />
		<tag k="ssr:stedsnr" v="359111" />
	</node>
	<node lat="67.28833610860927" lon="15.594361111715923" id="-21043">
		<tag k="alt_name" v="Rishaugfjellet, østre" />
		<tag k="fixme" v="consider natural=peak for the most distinct mountains in the district" />
		<tag k="name" v="Østre Rishaugfjellet" />
		<tag k="natural" v="hill" />
		<tag k="place" v="locality" />
		<tag k="ssr:stedsnr" v="379838" />
	</node>
	<node lat="67.4684555539958" lon="15.241766658620302" id="-21047">
		<tag k="name" v="Kvitrønna" />
		<tag k="place" v="locality" />
		<tag k="ssr:stedsnr" v="379593" />
	</node>
	<node lat="67.46131110981074" lon="15.27167499596705" id="-21048">
		<tag k="fixme" v="consider natural=peak for the most distinct mountains in the district" />
		<tag k="name" v="Fatet" />
		<tag k="natural" v="hill" />
		<tag k="place" v="locality" />
		<tag k="ssr:stedsnr" v="379594" />
	</node>
	<node lat="67.70283055444206" lon="15.964858332977395" id="-21052">
		<tag k="name" v="Vuolle-Háhtsek" />
		<tag k="name:smj" v="Vuolle-Háhtsek" />
		<tag k="natural" v="slope" />
		<tag k="old_name:smj" v="Háhceg, vuolle" />
		<tag k="place" v="locality" />
		<tag k="ssr:stedsnr" v="380551" />
	</node>
	<node lat="67.451566668352" lon="15.348844442167941" id="-21053">
		<tag k="name" v="Brannheia" />
		<tag k="natural" v="hill" />
		<tag k="place" v="locality" />
		<tag k="ssr:stedsnr" v="380555" />
	</node>
	<node lat="67.75964444720935" lon="15.935638880931867" id="-21059">
		<tag k="fixme" v="consider natural=peak for the most distinct mountains in the district" />
		<tag k="name" v="Tennvasskollen" />
		<tag k="natural" v="hill" />
		<tag k="place" v="locality" />
		<tag k="ssr:stedsnr" v="380251" />
	</node>
	<node lat="67.40916388686703" lon="15.7388638952491" id="-21060">
		<tag k="name" v="Lappelvdalen" />
		<tag k="natural" v="valley" />
		<tag k="place" v="locality" />
		<tag k="ssr:stedsnr" v="380258" />
	</node>
	<node lat="67.51110555803366" lon="16.00417222476643" id="-21066">
		<tag k="fixme" v="consider natural=peak for the most distinct mountains in the district" />
		<tag k="name" v="Tjårok" />
		<tag k="name:smj" v="Tjårok" />
		<tag k="natural" v="hill" />
		<tag k="old_name:smj" v="Čorok" />
		<tag k="place" v="locality" />
		<tag k="ssr:stedsnr" v="380689" />
	</node>
	<node lat="67.5529999960641" lon="15.95004166483785" id="-21067">
		<tag k="fixme" v="consider natural=peak for the most distinct mountains in the district" />
		<tag k="name" v="Kolbakkheian" />
		<tag k="natural" v="hill" />
		<tag k="place" v="locality" />
		<tag k="ssr:stedsnr" v="380693" />
	</node>
	<node lat="67.44393889015117" lon="15.728577779775492" id="-21068">
		<tag k="name" v="Molian" />
		<tag k="natural" v="slope" />
		<tag k="place" v="locality" />
		<tag k="ssr:stedsnr" v="380818" />
	</node>
	<node lat="67.60988332996752" lon="15.678580547932688" id="-21072">
		<tag k="name" v="Trolldalen" />
		<tag k="natural" v="valley" />
		<tag k="place" v="locality" />
		<tag k="ssr:stedsnr" v="380880" />
	</node>
	<node lat="67.38017500111526" lon="15.677855560690407" id="-21075">
		<tag k="name" v="Litlklumpen" />
		<tag k="natural" v="hill" />
		<tag k="place" v="locality" />
		<tag k="ssr:stedsnr" v="380998" />
	</node>
	<node lat="67.75663333474576" lon="15.838111117182263" id="-21078">
		<tag k="fixme" v="consider natural=peak for the most distinct mountains in the district" />
		<tag k="name" v="Tverrfjellet" />
		<tag k="natural" v="hill" />
		<tag k="place" v="locality" />
		<tag k="ssr:stedsnr" v="381218" />
	</node>
	<node lat="67.62254167111904" lon="16.076266664369363" id="-21081">
		<tag k="fixme" v="consider natural=peak for the most distinct mountains in the district" />
		<tag k="name" v="Kviturfjellet" />
		<tag k="natural" v="hill" />
		<tag k="place" v="locality" />
		<tag k="ssr:stedsnr" v="381597" />
	</node>
	<node lat="67.6374444411936" lon="15.763955544171319" id="-21082">
		<tag k="name" v="Tjoarvekskåhppe" />
		<tag k="name:no" v="Horndalsbotn" />
		<tag k="name:smj" v="Tjoarvekskåhppe" />
		<tag k="natural" v="valley" />
		<tag k="old_name:smj" v="Čoarvvekskohppi" />
		<tag k="place" v="locality" />
		<tag k="ssr:stedsnr" v="381632" />
	</node>
	<node lat="67.38259999787634" lon="15.54345278061083" id="-21129">
		<tag k="name" v="Storelvhaugen" />
		<tag k="natural" v="hill" />
		<tag k="place" v="locality" />
		<tag k="ssr:stedsnr" v="394274" />
	</node>
	<node lat="67.39155278002862" lon="15.531686105972057" id="-21131">
		<tag k="name" v="Sandviklian" />
		<tag k="natural" v="slope" />
		<tag k="place" v="locality" />
		<tag k="ssr:stedsnr" v="394650" />
	</node>
	<node lat="67.36532777800008" lon="15.534230547310406" id="-21132">
		<tag k="name" v="Nonsskaret" />
		<tag k="natural" v="valley" />
		<tag k="place" v="locality" />
		<tag k="ssr:stedsnr" v="394733" />
	</node>
	<node lat="67.38527777387536" lon="15.541872209351867" id="-21134">
		<tag k="name" v="Kleivan" />
		<tag k="natural" v="valley" />
		<tag k="place" v="locality" />
		<tag k="ssr:stedsnr" v="395213" />
	</node>
	<node lat="67.45982777931978" lon="15.573852767571626" id="-21137">
		<tag k="name" v="Trolldalen" />
		<tag k="natural" v="valley" />
		<tag k="place" v="locality" />
		<tag k="ssr:stedsnr" v="395170" />
	</node>
	<node lat="67.43406666394505" lon="15.569883335756206" id="-21139">
		<tag k="name" v="Akslia" />
		<tag k="natural" v="slope" />
		<tag k="place" v="locality" />
		<tag k="ssr:stedsnr" v="395318" />
	</node>
	<node lat="67.58186944810689" lon="15.786513880103582" id="-21141">
		<tag k="name" v="Omundhammaren" />
		<tag k="natural" v="hill" />
		<tag k="place" v="locality" />
		<tag k="ssr:stedsnr" v="395459" />
	</node>
	<node lat="67.59633055827395" lon="15.754097230864103" id="-21148">
		<tag k="fixme" v="consider natural=peak for the most distinct mountains in the district" />
		<tag k="name" v="Kistvasskollen" />
		<tag k="natural" v="hill" />
		<tag k="place" v="locality" />
		<tag k="ssr:stedsnr" v="395275" />
	</node>
	<node lat="67.4832888878894" lon="15.445744442723406" id="-21149">
		<tag k="name" v="Nattmålskaret" />
		<tag k="natural" v="valley" />
		<tag k="place" v="locality" />
		<tag k="ssr:stedsnr" v="395376" />
	</node>
	<node lat="67.59113888813506" lon="15.71034722080569" id="-21150">
		<tag k="name" v="Jardbrua" />
		<tag k="natural" v="slope" />
		<tag k="place" v="locality" />
		<tag k="ssr:stedsnr" v="395479" />
	</node>
	<node lat="67.61773055290979" lon="15.723388895800174" id="-21153">
		<tag k="name" v="Smiheia" />
		<tag k="natural" v="hill" />
		<tag k="place" v="locality" />
		<tag k="ssr:stedsnr" v="395519" />
	</node>
	<node lat="67.61812222122418" lon="15.740380543973385" id="-21155">
		<tag k="name" v="Haugsætlia" />
		<tag k="natural" v="slope" />
		<tag k="place" v="locality" />
		<tag k="ssr:stedsnr" v="395523" />
	</node>
	<node lat="67.59013610969832" lon="15.930091666475837" id="-21156">
		<tag k="fixme" v="consider natural=peak for the most distinct mountains in the district" />
		<tag k="name" v="Eiamiddag" />
		<tag k="natural" v="hill" />
		<tag k="place" v="locality" />
		<tag k="ssr:stedsnr" v="395651" />
	</node>
	<node lat="67.63951944577748" lon="15.96618333173728" id="-21157">
		<tag k="name" v="Laksfossmoen" />
		<tag k="place" v="locality" />
		<tag k="ssr:stedsnr" v="395900" />
	</node>
	<node lat="67.61952777451899" lon="15.940008332279113" id="-21158">
		<tag k="name" v="Ralem" />
		<tag k="natural" v="valley" />
		<tag k="place" v="locality" />
		<tag k="ssr:stedsnr" v="395950" />
	</node>
	<node lat="67.5122444439713" lon="15.164394452626894" id="-21167">
		<tag k="fixme" v="consider natural=peak for the most distinct mountains in the district" />
		<tag k="name" v="Fjellryggen" />
		<tag k="natural" v="hill" />
		<tag k="place" v="locality" />
		<tag k="ssr:stedsnr" v="441060" />
	</node>
	<node lat="67.40065277599963" lon="15.771483340771713" id="-21168">
		<tag k="fixme" v="consider natural=peak for the most distinct mountains in the district" />
		<tag k="name" v="Kløtran" />
		<tag k="natural" v="hill" />
		<tag k="place" v="locality" />
		<tag k="ssr:stedsnr" v="441252" />
	</node>
	<node lat="67.40325833611826" lon="15.870200011294434" id="-21169">
		<tag k="fixme" v="consider natural=peak for the most distinct mountains in the district" />
		<tag k="name" v="Rájrretjåhkkå" />
		<tag k="name:smj" v="Rájrretjåhkkå" />
		<tag k="natural" v="hill" />
		<tag k="old_name:smj" v="Ráirečohkka" />
		<tag k="place" v="locality" />
		<tag k="ssr:stedsnr" v="441253" />
	</node>
	<node lat="67.44094444228614" lon="15.578691662515217" id="-21174">
		<tag k="name" v="Bukkhola" />
		<tag k="natural" v="valley" />
		<tag k="place" v="locality" />
		<tag k="ssr:stedsnr" v="441561" />
	</node>
	<node lat="67.59053332994934" lon="15.749316668783884" id="-21179">
		<tag k="fixme" v="consider natural=peak for the most distinct mountains in the district" />
		<tag k="name" v="Steinmofjellet" />
		<tag k="natural" v="hill" />
		<tag k="place" v="locality" />
		<tag k="ssr:stedsnr" v="441604" />
	</node>
	<node lat="67.44300278056696" lon="15.689438898915798" id="-21180">
		<tag k="name" v="Høgkollen" />
		<tag k="natural" v="hill" />
		<tag k="place" v="locality" />
		<tag k="ssr:stedsnr" v="441515" />
	</node>
	<node lat="67.45376389287338" lon="15.262872224136382" id="-21182">
		<tag k="name" v="Preikstolhola" />
		<tag k="natural" v="valley" />
		<tag k="place" v="locality" />
		<tag k="ssr:stedsnr" v="441520" />
	</node>
	<node lat="67.46635277458418" lon="15.637483336806595" id="-21183">
		<tag k="name" v="Berrflogan" />
		<tag k="natural" v="hill" />
		<tag k="place" v="locality" />
		<tag k="ssr:stedsnr" v="441521" />
	</node>
	<node lat="67.38782222081514" lon="15.520230550995322" id="-21195">
		<tag k="alt_name" v="Kvanngrøa" />
		<tag k="name" v="Kvanngrøva" />
		<tag k="natural" v="hill" />
		<tag k="place" v="locality" />
		<tag k="ssr:stedsnr" v="441980" />
	</node>
	<node lat="67.56405277836058" lon="16.239441667743282" id="-21200">
		<tag k="fixme" v="consider natural=peak for the most distinct mountains in the district" />
		<tag k="name" v="Sårjås" />
		<tag k="name:smj" v="Sårjås" />
		<tag k="natural" v="hill" />
		<tag k="old_name:smj" v="Sorjjas" />
		<tag k="place" v="locality" />
		<tag k="ssr:stedsnr" v="442781" />
	</node>
	<node lat="67.65720555880624" lon="15.258511101281194" id="-21201">
		<tag k="fixme" v="consider natural=peak for the most distinct mountains in the district" />
		<tag k="name" v="Trollholtinden" />
		<tag k="natural" v="hill" />
		<tag k="place" v="locality" />
		<tag k="ssr:stedsnr" v="442867" />
	</node>
	<node lat="67.64208889247942" lon="15.23473056244633" id="-21204">
		<tag k="fixme" v="consider natural=peak for the most distinct mountains in the district" />
		<tag k="name" v="Multinden" />
		<tag k="natural" v="hill" />
		<tag k="place" v="locality" />
		<tag k="ssr:stedsnr" v="442932" />
	</node>
	<node lat="67.52843333167" lon="15.508808329070705" id="-21205">
		<tag k="fixme" v="consider natural=peak for the most distinct mountains in the district" />
		<tag k="name" v="Rismålsfjellet" />
		<tag k="natural" v="hill" />
		<tag k="place" v="locality" />
		<tag k="ssr:stedsnr" v="442952" />
	</node>
	<node lat="67.4194944471521" lon="15.205725001660479" id="-21217">
		<tag k="name" v="Sørskaret" />
		<tag k="natural" v="valley" />
		<tag k="place" v="locality" />
		<tag k="ssr:stedsnr" v="445437" />
	</node>
	<node lat="67.72858888936543" lon="15.840222233176853" id="-21230">
		<tag k="fixme" v="consider natural=peak for the most distinct mountains in the district" />
		<tag k="name" v="Mørsviktinden - Murgostjåhkkå" />
		<tag k="name:no" v="Mørsviktinden" />
		<tag k="name:smj" v="Murgostjåhkkå" />
		<tag k="natural" v="hill" />
		<tag k="old_name:smj" v="Murggosčohkka" />
		<tag k="place" v="locality" />
		<tag k="ssr:stedsnr" v="446554" />
	</node>
	<node lat="67.36224722155534" lon="16.05000834218095" id="-21243">
		<tag k="fixme" v="consider natural=peak for the most distinct mountains in the district" />
		<tag k="name" v="Viejkegtjårro" />
		<tag k="name:smj" v="Viejkegtjårro" />
		<tag k="natural" v="hill" />
		<tag k="old_name:smj" v="Veaikkekčorru;Vieiketjårro" />
		<tag k="place" v="locality" />
		<tag k="ssr:stedsnr" v="501276" />
	</node>
	<node lat="67.45514444122249" lon="15.681405555626768" id="-21245">
		<tag k="name" v="Bakkskaret" />
		<tag k="natural" v="valley" />
		<tag k="place" v="locality" />
		<tag k="ssr:stedsnr" v="501475" />
	</node>
	<node lat="67.47511388802083" lon="15.581252773484449" id="-21249">
		<tag k="fixme" v="consider natural=peak for the most distinct mountains in the district" />
		<tag k="name" v="Storfloget" />
		<tag k="natural" v="hill" />
		<tag k="place" v="locality" />
		<tag k="ssr:stedsnr" v="501568" />
	</node>
	<node lat="67.46286388750944" lon="15.232852771907128" id="-21252">
		<tag k="name" v="Vassvikdalen" />
		<tag k="natural" v="valley" />
		<tag k="place" v="locality" />
		<tag k="ssr:stedsnr" v="501582" />
	</node>
	<node lat="67.2573861085472" lon="15.610927781501493" id="-21256">
		<tag k="name" v="Engaskaret" />
		<tag k="natural" v="valley" />
		<tag k="place" v="locality" />
		<tag k="ssr:stedsnr" v="501752" />
	</node>
	<node lat="67.35748333323014" lon="15.5476388846892" id="-21257">
		<tag k="alt_name" v="Seljåsen" />
		<tag k="fixme" v="consider natural=peak for the most distinct mountains in the district" />
		<tag k="name" v="Seljeåsen" />
		<tag k="natural" v="hill" />
		<tag k="place" v="locality" />
		<tag k="ssr:stedsnr" v="501864" />
	</node>
	<node lat="67.4145444413417" lon="15.19681666483196" id="-21260">
		<tag k="name" v="Drogvasskaret" />
		<tag k="natural" v="valley" />
		<tag k="place" v="locality" />
		<tag k="ssr:stedsnr" v="501935" />
	</node>
	<node lat="67.41083888981674" lon="15.51185832303786" id="-21261">
		<tag k="name" v="Grønlia" />
		<tag k="natural" v="slope" />
		<tag k="place" v="locality" />
		<tag k="ssr:stedsnr" v="501945" />
	</node>
	<node lat="67.50771110701247" lon="15.15029999050856" id="-21264">
		<tag k="name" v="Øverdalen" />
		<tag k="natural" v="valley" />
		<tag k="place" v="locality" />
		<tag k="ssr:stedsnr" v="502064" />
	</node>
	<node lat="67.72191666490333" lon="16.039794440836587" id="-21270">
		<tag k="name" v="Duordavágge" />
		<tag k="name:smj" v="Duordavágge" />
		<tag k="natural" v="valley" />
		<tag k="old_name:smj" v="Duorddavaggi" />
		<tag k="place" v="locality" />
		<tag k="ssr:stedsnr" v="502538" />
	</node>
	<node lat="67.58183888769399" lon="15.727583334197876" id="-21272">
		<tag k="alt_name" v="Holbomheia" />
		<tag k="name" v="Holbonheia" />
		<tag k="natural" v="hill" />
		<tag k="place" v="locality" />
		<tag k="ssr:stedsnr" v="502557" />
	</node>
	<node lat="67.6994749967993" lon="15.862713889693401" id="-21274">
		<tag k="alt_name" v="Humpen" />
		<tag k="name" v="Kollen" />
		<tag k="natural" v="hill" />
		<tag k="place" v="locality" />
		<tag k="ssr:stedsnr" v="502511" />
	</node>
	<node lat="67.62602221969237" lon="16.03241666393139" id="-21275">
		<tag k="fixme" v="consider natural=peak for the most distinct mountains in the district" />
		<tag k="name" v="Kviturtinden" />
		<tag k="natural" v="hill" />
		<tag k="place" v="locality" />
		<tag k="ssr:stedsnr" v="502599" />
	</node>
	<node lat="67.51902778142798" lon="15.507830550806377" id="-21278">
		<tag k="name" v="Heian" />
		<tag k="natural" v="hill" />
		<tag k="place" v="locality" />
		<tag k="ssr:stedsnr" v="502965" />
	</node>
	<node lat="67.56555277367876" lon="15.472050001311956" id="-21280">
		<tag k="fixme" v="consider natural=peak for the most distinct mountains in the district" />
		<tag k="name" v="Vardvassfjellet" />
		<tag k="natural" v="hill" />
		<tag k="place" v="locality" />
		<tag k="ssr:stedsnr" v="502970" />
	</node>
	<node lat="67.64340555940665" lon="16.003802788827343" id="-21310">
		<tag k="name" v="Gjerfallmoa" />
		<tag k="place" v="locality" />
		<tag k="ssr:stedsnr" v="516053" />
	</node>
	<node lat="67.460522218237" lon="15.579205558500256" id="-21311">
		<tag k="name" v="Husbakken" />
		<tag k="natural" v="slope" />
		<tag k="place" v="locality" />
		<tag k="ssr:stedsnr" v="516143" />
	</node>
	<node lat="67.46263611556928" lon="15.576397219452485" id="-21312">
		<tag k="name" v="Vaddalen" />
		<tag k="natural" v="valley" />
		<tag k="place" v="locality" />
		<tag k="ssr:stedsnr" v="516144" />
	</node>
	<node lat="67.46044722453951" lon="15.591005565350905" id="-21313">
		<tag k="name" v="Humpen" />
		<tag k="natural" v="hill" />
		<tag k="place" v="locality" />
		<tag k="ssr:stedsnr" v="516147" />
	</node>
	<node lat="67.3705194473887" lon="15.647336105176182" id="-21314">
		<tag k="name" v="Småhamran" />
		<tag k="natural" v="hill" />
		<tag k="place" v="locality" />
		<tag k="ssr:stedsnr" v="516288" />
	</node>
	<node lat="67.41047221824779" lon="15.664536113003699" id="-21318">
		<tag k="name" v="Trettmoen" />
		<tag k="place" v="locality" />
		<tag k="ssr:stedsnr" v="516248" />
	</node>
	<node lat="67.36496944630619" lon="15.545444452439408" id="-21319">
		<tag k="name" v="Nedre Trolldalheia" />
		<tag k="natural" v="hill" />
		<tag k="place" v="locality" />
		<tag k="ssr:stedsnr" v="516258" />
	</node>
	<node lat="67.446313887628" lon="15.567330546139704" id="-21321">
		<tag k="name" v="Svahella" />
		<tag k="place" v="locality" />
		<tag k="ssr:stedsnr" v="516327" />
	</node>
	<node lat="67.44526110762979" lon="15.566338882108466" id="-21322">
		<tag k="name" v="Tømmerhammaren" />
		<tag k="natural" v="hill" />
		<tag k="place" v="locality" />
		<tag k="ssr:stedsnr" v="516329" />
	</node>
	<node lat="67.52680833186172" lon="15.527266673284192" id="-21324">
		<tag k="name" v="Bjørndalfloget" />
		<tag k="natural" v="cliff" />
		<tag k="ssr:stedsnr" v="516426" />
	</node>
	<node lat="67.57961666796938" lon="15.789394446109474" id="-21325">
		<tag k="name" v="Hestvikhamran" />
		<tag k="natural" v="hill" />
		<tag k="place" v="locality" />
		<tag k="ssr:stedsnr" v="516428" />
	</node>
	<node lat="67.57597777376837" lon="15.776169449502758" id="-21326">
		<tag k="name" v="Kalvhaugen" />
		<tag k="natural" v="hill" />
		<tag k="place" v="locality" />
		<tag k="ssr:stedsnr" v="516430" />
	</node>
	<node lat="67.59248610876197" lon="15.910136109350606" id="-21329">
		<tag k="name" v="Kvannaloftet" />
		<tag k="natural" v="hill" />
		<tag k="place" v="locality" />
		<tag k="ssr:stedsnr" v="516554" />
	</node>
	<node lat="67.59529166273938" lon="15.961822215869653" id="-21331">
		<tag k="name" v="Sandbakken" />
		<tag k="natural" v="slope" />
		<tag k="place" v="locality" />
		<tag k="ssr:stedsnr" v="516566" />
	</node>
	<node lat="67.64005000444281" lon="15.954533323898454" id="-21333">
		<tag k="name" v="Slåttbakken" />
		<tag k="natural" v="slope" />
		<tag k="place" v="locality" />
		<tag k="ssr:stedsnr" v="516900" />
	</node>
	<node lat="67.42688332959544" lon="16.044827776050173" id="-21337">
		<tag k="fixme" v="consider natural=peak for the most distinct mountains in the district" />
		<tag k="name" v="Rago" />
		<tag k="natural" v="hill" />
		<tag k="place" v="locality" />
		<tag k="ssr:stedsnr" v="561279" />
	</node>
	<node lat="67.3981250007494" lon="15.970666656848495" id="-21338">
		<tag k="fixme" v="consider natural=peak for the most distinct mountains in the district" />
		<tag k="name" v="Goadásjoajvve" />
		<tag k="name:smj" v="Goadásjoajvve" />
		<tag k="natural" v="hill" />
		<tag k="old_name:smj" v="Goađášoaivi" />
		<tag k="place" v="locality" />
		<tag k="ssr:stedsnr" v="561291" />
	</node>
	<node lat="67.45874444771515" lon="15.287358342323392" id="-21344">
		<tag k="fixme" v="consider natural=peak for the most distinct mountains in the district" />
		<tag k="name" v="Korsviktinden" />
		<tag k="natural" v="hill" />
		<tag k="place" v="locality" />
		<tag k="ssr:stedsnr" v="561527" />
	</node>
	<node lat="67.47011666843729" lon="15.441308322624328" id="-21346">
		<tag k="name" v="Djupdalen" />
		<tag k="natural" v="valley" />
		<tag k="place" v="locality" />
		<tag k="ssr:stedsnr" v="561603" />
	</node>
	<node lat="67.29396388706564" lon="15.606819439846305" id="-21353">
		<tag k="fixme" v="consider natural=peak for the most distinct mountains in the district" />
		<tag k="name" v="Neverskartinden" />
		<tag k="natural" v="hill" />
		<tag k="place" v="locality" />
		<tag k="ssr:stedsnr" v="561850" />
	</node>
	<node lat="67.7617722221056" lon="15.760966664266563" id="-21357">
		<tag k="name" v="Sállusvágge" />
		<tag k="name:smj" v="Sállusvágge" />
		<tag k="natural" v="valley" />
		<tag k="old_name:smj" v="Sállosvággi" />
		<tag k="place" v="locality" />
		<tag k="ssr:stedsnr" v="562235" />
	</node>
	<node lat="67.68555555494954" lon="15.996672216248543" id="-21363">
		<tag k="fixme" v="consider natural=peak for the most distinct mountains in the district" />
		<tag k="name" v="Nuorjovárre" />
		<tag k="name:smj" v="Nuorjovárre" />
		<tag k="natural" v="hill" />
		<tag k="old_name:smj" v="Njuorjovárri" />
		<tag k="place" v="locality" />
		<tag k="ssr:stedsnr" v="562521" />
	</node>
	<node lat="67.60268889073326" lon="16.155824994850253" id="-21366">
		<tag k="name" v="Veikvassbotnen" />
		<tag k="natural" v="valley" />
		<tag k="place" v="locality" />
		<tag k="ssr:stedsnr" v="562581" />
	</node>
	<node lat="67.60577500424017" lon="15.967905544987126" id="-21369">
		<tag k="fixme" v="consider natural=peak for the most distinct mountains in the district" />
		<tag k="name" v="Skotnestinden" />
		<tag k="natural" v="hill" />
		<tag k="place" v="locality" />
		<tag k="ssr:stedsnr" v="562606" />
	</node>
	<node lat="67.74719444502504" lon="15.82034166398536" id="-21373">
		<tag k="fixme" v="consider natural=peak for the most distinct mountains in the district" />
		<tag k="name" v="Kuvikfjellet" />
		<tag k="natural" v="hill" />
		<tag k="place" v="locality" />
		<tag k="ssr:stedsnr" v="562547" />
	</node>
	<node lat="67.74206944101151" lon="15.973347210129322" id="-21377">
		<tag k="name" v="Tysfjordhola" />
		<tag k="natural" v="valley" />
		<tag k="place" v="locality" />
		<tag k="ssr:stedsnr" v="562561" />
	</node>
	<node lat="67.5633388852957" lon="15.998952770293691" id="-21380">
		<tag k="fixme" v="consider natural=peak for the most distinct mountains in the district" />
		<tag k="name" v="Grønkollen" />
		<tag k="natural" v="hill" />
		<tag k="place" v="locality" />
		<tag k="ssr:stedsnr" v="562663" />
	</node>
	<node lat="67.56743333605263" lon="15.86238055589198" id="-21382">
		<tag k="fixme" v="consider natural=peak for the most distinct mountains in the district" />
		<tag k="name" v="Nonstad" />
		<tag k="natural" v="hill" />
		<tag k="place" v="locality" />
		<tag k="ssr:stedsnr" v="562669" />
	</node>
	<node lat="67.46362777875825" lon="15.801441657701593" id="-21387">
		<tag k="name" v="Slæjbba" />
		<tag k="name:no" v="Sleipdalen" />
		<tag k="name:smj" v="Slæjbba" />
		<tag k="natural" v="valley" />
		<tag k="old_name:smj" v="Sláipa" />
		<tag k="place" v="locality" />
		<tag k="ssr:stedsnr" v="562792" />
	</node>
	<node lat="67.49965277458973" lon="15.837830547291295" id="-21390">
		<tag k="fixme" v="consider natural=peak for the most distinct mountains in the district" />
		<tag k="name" v="Steinfjellet - Stejnas" />
		<tag k="name:no" v="Steinfjellet" />
		<tag k="name:smj" v="Stejnas" />
		<tag k="natural" v="hill" />
		<tag k="old_name:smj" v="Stieinnas" />
		<tag k="place" v="locality" />
		<tag k="ssr:stedsnr" v="562766" />
	</node>
	<node lat="67.54785277482954" lon="15.527208329833869" id="-21402">
		<tag k="name" v="Storhaugen" />
		<tag k="natural" v="hill" />
		<tag k="place" v="locality" />
		<tag k="ssr:stedsnr" v="562988" />
	</node>
	<node lat="67.61945833050251" lon="15.730941659352917" id="-21406">
		<tag k="name" v="Finnhaugen" />
		<tag k="natural" v="hill" />
		<tag k="place" v="locality" />
		<tag k="ssr:stedsnr" v="563588" />
	</node>
	<node lat="67.6059694434992" lon="15.802158327847769" id="-21407">
		<tag k="name" v="Ørneselvdalen" />
		<tag k="natural" v="valley" />
		<tag k="place" v="locality" />
		<tag k="ssr:stedsnr" v="563595" />
	</node>
	<node lat="67.41398055088419" lon="15.133202783286718" id="-21433">
		<tag k="fixme" v="consider natural=peak for the most distinct mountains in the district" />
		<tag k="name" v="Sjunkfjordtindan" />
		<tag k="natural" v="hill" />
		<tag k="place" v="locality" />
		<tag k="ssr:stedsnr" v="566553" />
	</node>
	<node lat="67.34825833004976" lon="15.541952773332605" id="-21459">
		<tag k="name" v="Ørnhaugen" />
		<tag k="natural" v="hill" />
		<tag k="place" v="locality" />
		<tag k="ssr:stedsnr" v="572169" />
	</node>
	<node lat="67.42469166316349" lon="15.496447228826908" id="-21460">
		<tag k="name" v="Strupen" />
		<tag k="natural" v="valley" />
		<tag k="place" v="locality" />
		<tag k="ssr:stedsnr" v="576629" />
	</node>
	<node lat="67.37802222475159" lon="15.659794444099544" id="-21461">
		<tag k="name" v="Røyrskogheia" />
		<tag k="natural" v="hill" />
		<tag k="place" v="locality" />
		<tag k="ssr:stedsnr" v="576284" />
	</node>
	<node lat="67.37789166485437" lon="15.651044441162348" id="-21462">
		<tag k="name" v="Langmohaugen" />
		<tag k="natural" v="hill" />
		<tag k="place" v="locality" />
		<tag k="ssr:stedsnr" v="576288" />
	</node>
	<node lat="67.45543611084985" lon="15.516213899369623" id="-21463">
		<tag k="name" v="Hestberget" />
		<tag k="natural" v="hill" />
		<tag k="place" v="locality" />
		<tag k="ssr:stedsnr" v="576589" />
	</node>
	<node lat="67.4734916698375" lon="15.46340277985286" id="-21464">
		<tag k="name" v="Smihellarsletta" />
		<tag k="place" v="locality" />
		<tag k="ssr:stedsnr" v="576418" />
	</node>
	<node lat="67.37713888766608" lon="15.507461115765235" id="-21466">
		<tag k="fixme" v="consider natural=peak for the most distinct mountains in the district" />
		<tag k="name" v="Varden" />
		<tag k="natural" v="hill" />
		<tag k="place" v="locality" />
		<tag k="ssr:stedsnr" v="576699" />
	</node>
	<node lat="67.39535000106282" lon="15.519555555744974" id="-21467">
		<tag k="name" v="Gjeltmathaugen" />
		<tag k="natural" v="hill" />
		<tag k="place" v="locality" />
		<tag k="ssr:stedsnr" v="576689" />
	</node>
	<node lat="67.46608610797419" lon="15.565466656858595" id="-21468">
		<tag k="name" v="Lofothaugen" />
		<tag k="natural" v="hill" />
		<tag k="place" v="locality" />
		<tag k="ssr:stedsnr" v="577141" />
	</node>
	<node lat="67.46938610947802" lon="15.589602782547386" id="-21471">
		<tag k="name" v="Skarlia" />
		<tag k="natural" v="slope" />
		<tag k="place" v="locality" />
		<tag k="ssr:stedsnr" v="577159" />
	</node>
	<node lat="67.39079722480763" lon="15.639488888111334" id="-21472">
		<tag k="name" v="Benkan" />
		<tag k="place" v="locality" />
		<tag k="ssr:stedsnr" v="577189" />
	</node>
	<node lat="67.41803055669759" lon="15.625000004320906" id="-21473">
		<tag k="name" v="Smaldalen" />
		<tag k="natural" v="valley" />
		<tag k="place" v="locality" />
		<tag k="ssr:stedsnr" v="577237" />
	</node>
	<node lat="67.42968888457669" lon="15.566113887136495" id="-21474">
		<tag k="name" v="Vassbotnlia" />
		<tag k="natural" v="slope" />
		<tag k="place" v="locality" />
		<tag k="ssr:stedsnr" v="577317" />
	</node>
	<node lat="67.61663055277803" lon="15.742949999972096" id="-21476">
		<tag k="name" v="Svarthaugheia" />
		<tag k="natural" v="hill" />
		<tag k="place" v="locality" />
		<tag k="ssr:stedsnr" v="577523" />
	</node>
	<node lat="67.62499444568479" lon="15.93190277204186" id="-21478">
		<tag k="name" v="Korkdal" />
		<tag k="natural" v="valley" />
		<tag k="place" v="locality" />
		<tag k="ssr:stedsnr" v="577931" />
	</node>
	<node lat="67.62600833821568" lon="15.923822213616676" id="-21479">
		<tag k="name" v="Djupdalen" />
		<tag k="natural" v="valley" />
		<tag k="place" v="locality" />
		<tag k="ssr:stedsnr" v="577935" />
	</node>
	<node lat="67.45001388461303" lon="15.69594999648342" id="-21483">
		<tag k="fixme" v="consider natural=peak for the most distinct mountains in the district" />
		<tag k="name" v="Bakktinden" />
		<tag k="natural" v="hill" />
		<tag k="place" v="locality" />
		<tag k="ssr:stedsnr" v="622506" />
	</node>
	<node lat="67.48111666535628" lon="15.075149996834476" id="-21484">
		<tag k="name" v="Sørkråga" />
		<tag k="natural" v="slope" />
		<tag k="place" v="locality" />
		<tag k="ssr:stedsnr" v="622684" />
	</node>
	<node lat="67.74488333649673" lon="15.609594452244673" id="-21490">
		<tag k="fixme" v="consider natural=peak for the most distinct mountains in the district" />
		<tag k="name" v="Fornesaksla" />
		<tag k="natural" v="hill" />
		<tag k="place" v="locality" />
		<tag k="ssr:stedsnr" v="622758" />
	</node>
	<node lat="67.60369444447552" lon="15.154794437470843" id="-21493">
		<tag k="name" v="Ramnsloka" />
		<tag k="natural" v="valley" />
		<tag k="place" v="locality" />
		<tag k="ssr:stedsnr" v="623048" />
	</node>
	<node lat="67.34523611050133" lon="15.75411665799125" id="-21494">
		<tag k="fixme" v="consider natural=peak for the most distinct mountains in the district" />
		<tag k="name" v="Sisotinden - Sijdastjåhkkå" />
		<tag k="name:no" v="Sisotinden" />
		<tag k="name:smj" v="Sijdastjåhkkå" />
		<tag k="natural" v="hill" />
		<tag k="old_name:smj" v="Siiddasčohkka" />
		<tag k="place" v="locality" />
		<tag k="ssr:stedsnr" v="623285" />
	</node>
	<node lat="67.77101666308477" lon="15.885091675717508" id="-21495">
		<tag k="alt_name" v="Nordfoldaksla" />
		<tag k="fixme" v="consider natural=peak for the most distinct mountains in the district" />
		<tag k="name" v="Sørkvanntinden" />
		<tag k="natural" v="hill" />
		<tag k="place" v="locality" />
		<tag k="ssr:stedsnr" v="623256" />
	</node>
	<node lat="67.572038890185" lon="15.85838889409214" id="-21502">
		<tag k="fixme" v="consider natural=peak for the most distinct mountains in the district" />
		<tag k="name" v="Raudhammaren" />
		<tag k="natural" v="hill" />
		<tag k="place" v="locality" />
		<tag k="ssr:stedsnr" v="623692" />
	</node>
	<node lat="67.68354444723816" lon="15.898822221507793" id="-21504">
		<tag k="fixme" v="consider natural=peak for the most distinct mountains in the district" />
		<tag k="name" v="Svartfjellet" />
		<tag k="natural" v="hill" />
		<tag k="place" v="locality" />
		<tag k="ssr:stedsnr" v="623543" />
	</node>
	<node lat="67.55744721921587" lon="15.417552782482817" id="-21513">
		<tag k="name" v="Snebakklia" />
		<tag k="natural" v="slope" />
		<tag k="place" v="locality" />
		<tag k="ssr:stedsnr" v="623993" />
	</node>
	<node lat="67.64469999929922" lon="16.013030547500957" id="-21556">
		<tag k="name" v="Engnesbakken" />
		<tag k="natural" v="slope" />
		<tag k="place" v="locality" />
		<tag k="ssr:stedsnr" v="637054" />
	</node>
	<node lat="67.46633056016297" lon="15.563408324421939" id="-21557">
		<tag k="name" v="Stor-Grannhola" />
		<tag k="natural" v="valley" />
		<tag k="place" v="locality" />
		<tag k="ssr:stedsnr" v="637145" />
	</node>
	<node lat="67.46398611335633" lon="15.569797214048744" id="-21558">
		<tag k="name" v="Vaddalhaugen" />
		<tag k="natural" v="hill" />
		<tag k="place" v="locality" />
		<tag k="ssr:stedsnr" v="637155" />
	</node>
	<node lat="67.46464722005837" lon="15.595866659117128" id="-21559">
		<tag k="name" v="Memaurstad" />
		<tag k="place" v="locality" />
		<tag k="ssr:stedsnr" v="637172" />
	</node>
	<node lat="67.46627777561802" lon="15.59539722939734" id="-21560">
		<tag k="name" v="Grønnliheia" />
		<tag k="natural" v="hill" />
		<tag k="place" v="locality" />
		<tag k="ssr:stedsnr" v="637174" />
	</node>
	<node lat="67.58028055494064" lon="15.756986106573406" id="-21562">
		<tag k="name" v="Lia" />
		<tag k="natural" v="slope" />
		<tag k="place" v="locality" />
		<tag k="ssr:stedsnr" v="637439" />
	</node>
	<node lat="67.52537221974976" lon="15.52025834340784" id="-21563">
		<tag k="name" v="Storliknausen" />
		<tag k="natural" v="hill" />
		<tag k="place" v="locality" />
		<tag k="ssr:stedsnr" v="637451" />
	</node>
	<node lat="67.34584721988955" lon="15.570463878640902" id="-21564">
		<tag k="name" v="Bertilmoen" />
		<tag k="place" v="locality" />
		<tag k="ssr:stedsnr" v="637210" />
	</node>
	<node lat="67.61698333465966" lon="15.92316666605717" id="-21565">
		<tag k="name" v="Langmyrkrommen" />
		<tag k="natural" v="valley" />
		<tag k="place" v="locality" />
		<tag k="ssr:stedsnr" v="637945" />
	</node>
	<node lat="67.41658055487012" lon="15.630058339663067" id="-21566">
		<tag k="name" v="Kvithammaren" />
		<tag k="natural" v="hill" />
		<tag k="place" v="locality" />
		<tag k="ssr:stedsnr" v="637246" />
	</node>
	<node lat="67.41252221922753" lon="15.672680554389355" id="-21567">
		<tag k="name" v="Trallabakken" />
		<tag k="natural" v="slope" />
		<tag k="place" v="locality" />
		<tag k="ssr:stedsnr" v="637258" />
	</node>
	<node lat="67.3635500035837" lon="15.548611106416379" id="-21568">
		<tag k="name" v="Øvre Trolldalheia" />
		<tag k="natural" v="hill" />
		<tag k="place" v="locality" />
		<tag k="ssr:stedsnr" v="637268" />
	</node>
	<node lat="67.58236666649833" lon="15.784638898656464" id="-21571">
		<tag k="name" v="Gjerdhammaren" />
		<tag k="natural" v="hill" />
		<tag k="place" v="locality" />
		<tag k="ssr:stedsnr" v="637486" />
	</node>
	<node lat="67.39207500115414" lon="15.534627778509645" id="-21572">
		<tag k="name" v="Veitbakken" />
		<tag k="natural" v="slope" />
		<tag k="place" v="locality" />
		<tag k="ssr:stedsnr" v="637675" />
	</node>
	<node lat="67.39867777976689" lon="15.52661667202711" id="-21574">
		<tag k="name" v="Høglibrøtet" />
		<tag k="natural" v="slope" />
		<tag k="place" v="locality" />
		<tag k="ssr:stedsnr" v="637678" />
	</node>
	<node lat="67.36963888540663" lon="15.524561106699508" id="-21575">
		<tag k="name" v="Elsebakken" />
		<tag k="natural" v="slope" />
		<tag k="place" v="locality" />
		<tag k="ssr:stedsnr" v="637695" />
	</node>
	<node lat="67.60884999839891" lon="15.717483342668574" id="-21576">
		<tag k="name" v="Hestestokkheia" />
		<tag k="natural" v="hill" />
		<tag k="place" v="locality" />
		<tag k="ssr:stedsnr" v="637551" />
	</node>
	<node lat="67.43255000261055" lon="15.479866675198709" id="-21578">
		<tag k="name" v="Bratthaugen" />
		<tag k="natural" v="hill" />
		<tag k="place" v="locality" />
		<tag k="ssr:stedsnr" v="637568" />
	</node>
	<node lat="67.58009166650045" lon="15.891333328949147" id="-21581">
		<tag k="name" v="Førsvollen" />
		<tag k="natural" v="hill" />
		<tag k="place" v="locality" />
		<tag k="ssr:stedsnr" v="637856" />
	</node>
	<node lat="67.439424997647" lon="15.455413891578134" id="-21589">
		<tag k="name" v="Oksdalen" />
		<tag k="natural" v="slope" />
		<tag k="place" v="locality" />
		<tag k="ssr:stedsnr" v="723122" />
	</node>
	<node lat="67.41185277575576" lon="15.82637498933576" id="-21591">
		<tag k="name" v="Svenskhammaren - Tsiekimtjårro" />
		<tag k="name:no" v="Svenskhammaren" />
		<tag k="name:smj" v="Tsiekimtjårro" />
		<tag k="natural" v="hill" />
		<tag k="old_name:smj" v="Ciekkinčorru" />
		<tag k="place" v="locality" />
		<tag k="ssr:stedsnr" v="744206" />
	</node>
	<node lat="67.37523333062181" lon="16.010344438662024" id="-21594">
		<tag k="name" v="Løytadalen - Luojddo" />
		<tag k="name:no" v="Løytadalen" />
		<tag k="name:smj" v="Luojddo" />
		<tag k="natural" v="valley" />
		<tag k="old_name:smj" v="Loaidu" />
		<tag k="place" v="locality" />
		<tag k="ssr:stedsnr" v="744220" />
	</node>
	<node lat="67.30472499611223" lon="16.006791663705677" id="-21597">
		<tag k="fixme" v="consider natural=peak for the most distinct mountains in the district" />
		<tag k="name" v="Rundvassfjellet" />
		<tag k="natural" v="hill" />
		<tag k="place" v="locality" />
		<tag k="ssr:stedsnr" v="744247" />
	</node>
	<node lat="67.42070833164715" lon="15.499747212013013" id="-21600">
		<tag k="fixme" v="consider natural=peak for the most distinct mountains in the district" />
		<tag k="name" v="Aksla" />
		<tag k="natural" v="hill" />
		<tag k="place" v="locality" />
		<tag k="ssr:stedsnr" v="744502" />
	</node>
	<node lat="67.47184167078822" lon="15.435338883918904" id="-21601">
		<tag k="name" v="Gløshaugen" />
		<tag k="natural" v="hill" />
		<tag k="place" v="locality" />
		<tag k="ssr:stedsnr" v="744588" />
	</node>
	<node lat="67.45345555117598" lon="15.623491672156698" id="-21603">
		<tag k="name" v="Sørbotn" />
		<tag k="natural" v="valley" />
		<tag k="place" v="locality" />
		<tag k="ssr:stedsnr" v="744458" />
	</node>
	<node lat="67.46262499982153" lon="15.115499995922443" id="-21613">
		<tag k="name" v="Sørdalen" />
		<tag k="natural" v="valley" />
		<tag k="place" v="locality" />
		<tag k="ssr:stedsnr" v="744636" />
	</node>
	<node lat="67.46201944571477" lon="15.10006389680989" id="-21614">
		<tag k="name" v="Norddalen" />
		<tag k="natural" v="valley" />
		<tag k="place" v="locality" />
		<tag k="ssr:stedsnr" v="744638" />
	</node>
	<node lat="67.35295555212282" lon="15.620488891225085" id="-21618">
		<tag k="name" v="Grønhola" />
		<tag k="natural" v="valley" />
		<tag k="place" v="locality" />
		<tag k="ssr:stedsnr" v="744894" />
	</node>
	<node lat="67.38397221859925" lon="15.657747216739448" id="-21620">
		<tag k="name" v="Hellandsnakken" />
		<tag k="natural" v="hill" />
		<tag k="place" v="locality" />
		<tag k="ssr:stedsnr" v="745000" />
	</node>
	<node lat="67.48342500162465" lon="15.956833338636013" id="-21623">
		<tag k="fixme" v="consider natural=peak for the most distinct mountains in the district" />
		<tag k="name" v="Storskogtinden" />
		<tag k="natural" v="hill" />
		<tag k="place" v="locality" />
		<tag k="ssr:stedsnr" v="744758" />
	</node>
	<node lat="67.76279166323107" lon="15.73787222182489" id="-21633">
		<tag k="fixme" v="consider natural=peak for the most distinct mountains in the district" />
		<tag k="name" v="Salhusaksla" />
		<tag k="natural" v="hill" />
		<tag k="place" v="locality" />
		<tag k="ssr:stedsnr" v="745291" />
	</node>
	<node lat="67.78068611417184" lon="15.744613892592891" id="-21634">
		<tag k="fixme" v="consider natural=peak for the most distinct mountains in the district" />
		<tag k="name" v="Rønntinden" />
		<tag k="natural" v="hill" />
		<tag k="place" v="locality" />
		<tag k="ssr:stedsnr" v="745302" />
	</node>
	<node lat="67.65611388752453" lon="16.075755564790676" id="-21635">
		<tag k="fixme" v="consider natural=peak for the most distinct mountains in the district" />
		<tag k="name" v="Gjerdalstinden - Jierddatjåhkkå" />
		<tag k="name:no" v="Gjerdalstinden" />
		<tag k="name:smj" v="Jierddatjåhkkå" />
		<tag k="natural" v="hill" />
		<tag k="old_name:smj" v="Jierdavuomečohkka" />
		<tag k="place" v="locality" />
		<tag k="ssr:stedsnr" v="745498" />
	</node>
	<node lat="67.74709999765406" lon="15.903725000342114" id="-21638">
		<tag k="name" v="Tjierekvuobme" />
		<tag k="natural" v="valley" />
		<tag k="place" v="locality" />
		<tag k="ssr:stedsnr" v="745530" />
	</node>
	<node lat="67.50494722127483" lon="15.701927783724917" id="-21639">
		<tag k="fixme" v="consider natural=peak for the most distinct mountains in the district" />
		<tag k="name" v="Faulvassfjellet" />
		<tag k="natural" v="hill" />
		<tag k="place" v="locality" />
		<tag k="ssr:stedsnr" v="745537" />
	</node>
	<node lat="67.72833889235167" lon="16.043630557110834" id="-21640">
		<tag k="fixme" v="consider natural=peak for the most distinct mountains in the district" />
		<tag k="name" v="Háhtsekvárre" />
		<tag k="name:smj" v="Háhtsekvárre" />
		<tag k="natural" v="hill" />
		<tag k="old_name:smj" v="Háhcegvárri" />
		<tag k="place" v="locality" />
		<tag k="ssr:stedsnr" v="745545" />
	</node>
	<node lat="67.58267222522956" lon="15.78846111904312" id="-21642">
		<tag k="name" v="Lappdalen" />
		<tag k="natural" v="valley" />
		<tag k="place" v="locality" />
		<tag k="ssr:stedsnr" v="745561" />
	</node>
	<node lat="67.61412222066929" lon="15.701183328134283" id="-21647">
		<tag k="name" v="Nattmålshammaren" />
		<tag k="natural" v="hill" />
		<tag k="place" v="locality" />
		<tag k="ssr:stedsnr" v="745934" />
	</node>
	<node lat="67.52751110809427" lon="15.50159165900445" id="-21650">
		<tag k="name" v="Hestvikdalen" />
		<tag k="natural" v="valley" />
		<tag k="place" v="locality" />
		<tag k="ssr:stedsnr" v="745949" />
	</node>
	<node lat="67.4091638856539" lon="15.523500009472135" id="-21693">
		<tag k="name" v="Leirbakkberg" />
		<tag k="natural" v="hill" />
		<tag k="place" v="locality" />
		<tag k="ssr:stedsnr" v="758676" />
	</node>
	<node lat="67.3780805574267" lon="15.607302777615597" id="-21695">
		<tag k="fixme" v="consider natural=peak for the most distinct mountains in the district" />
		<tag k="name" v="Ørvikåsen" />
		<tag k="natural" v="hill" />
		<tag k="place" v="locality" />
		<tag k="ssr:stedsnr" v="759296" />
	</node>
	<node lat="67.4644361106597" lon="15.584013884235844" id="-21696">
		<tag k="name" v="Tømmerhammaren" />
		<tag k="natural" v="hill" />
		<tag k="place" v="locality" />
		<tag k="ssr:stedsnr" v="759167" />
	</node>
	<node lat="67.39013888794047" lon="15.64028332184447" id="-21698">
		<tag k="name" v="Langkista" />
		<tag k="natural" v="valley" />
		<tag k="place" v="locality" />
		<tag k="ssr:stedsnr" v="759187" />
	</node>
	<node lat="67.47641667121722" lon="15.462577766976683" id="-21700">
		<tag k="name" v="Durmålshaugen" />
		<tag k="natural" v="hill" />
		<tag k="place" v="locality" />
		<tag k="ssr:stedsnr" v="759365" />
	</node>
	<node lat="67.58928055549545" lon="15.701005552299973" id="-21705">
		<tag k="name" v="Trekanten" />
		<tag k="natural" v="valley" />
		<tag k="place" v="locality" />
		<tag k="ssr:stedsnr" v="759464" />
	</node>
	<node lat="67.58860833494938" lon="15.710338887837402" id="-21706">
		<tag k="name" v="Karibakken" />
		<tag k="natural" v="slope" />
		<tag k="place" v="locality" />
		<tag k="ssr:stedsnr" v="759470" />
	</node>
	<node lat="67.42787778161997" lon="15.500205562704197" id="-21708">
		<tag k="name" v="Djupdalen" />
		<tag k="natural" v="valley" />
		<tag k="place" v="locality" />
		<tag k="ssr:stedsnr" v="759552" />
	</node>
	<node lat="67.45701666254459" lon="15.467438895329783" id="-21709">
		<tag k="name" v="Hestsprekkhaugen" />
		<tag k="natural" v="hill" />
		<tag k="place" v="locality" />
		<tag k="ssr:stedsnr" v="759564" />
	</node>
	<node lat="67.58426667075824" lon="15.804613879851875" id="-21710">
		<tag k="name" v="Trolldalen" />
		<tag k="natural" v="valley" />
		<tag k="place" v="locality" />
		<tag k="ssr:stedsnr" v="759428" />
	</node>
	<node lat="67.43932222528694" lon="15.465186122711991" id="-21711">
		<tag k="name" v="Godmathole" />
		<tag k="natural" v="valley" />
		<tag k="place" v="locality" />
		<tag k="ssr:stedsnr" v="759528" />
	</node>
	<node lat="67.62178889266657" lon="15.712730564856663" id="-21712">
		<tag k="name" v="Maggahammaren" />
		<tag k="natural" v="hill" />
		<tag k="place" v="locality" />
		<tag k="ssr:stedsnr" v="759531" />
	</node>
	<node lat="67.42976111483084" lon="15.466925003305002" id="-21713">
		<tag k="name" v="Loftet" />
		<tag k="natural" v="hill" />
		<tag k="place" v="locality" />
		<tag k="ssr:stedsnr" v="759537" />
	</node>
	<node lat="67.4303249994868" lon="15.488811109535666" id="-21714">
		<tag k="name" v="Moan" />
		<tag k="place" v="locality" />
		<tag k="ssr:stedsnr" v="759538" />
	</node>
	<node lat="67.42141944584316" lon="15.510163895657675" id="-21715">
		<tag k="name" v="Krokelvdalen" />
		<tag k="natural" v="valley" />
		<tag k="place" v="locality" />
		<tag k="ssr:stedsnr" v="759624" />
	</node>
	<node lat="67.39915833689336" lon="15.53746110203894" id="-21718">
		<tag k="name" v="Hesthaugen" />
		<tag k="natural" v="hill" />
		<tag k="place" v="locality" />
		<tag k="ssr:stedsnr" v="759667" />
	</node>
	<node lat="67.37453610842795" lon="15.51825278484205" id="-21719">
		<tag k="name" v="Nattmålsfloget" />
		<tag k="natural" v="cliff" />
		<tag k="ssr:stedsnr" v="759677" />
	</node>
	<node lat="67.73993055729223" lon="15.832936116492549" id="-21727">
		<tag k="fixme" v="consider natural=peak for the most distinct mountains in the district" />
		<tag k="name" v="Røntinden" />
		<tag k="natural" v="hill" />
		<tag k="place" v="locality" />
		<tag k="ssr:stedsnr" v="805554" />
	</node>
	<node lat="67.3864499982389" lon="16.113397224448292" id="-21730">
		<tag k="fixme" v="consider natural=peak for the most distinct mountains in the district" />
		<tag k="name" v="Bálgestjårro" />
		<tag k="name:smj" v="Bálgestjårro" />
		<tag k="natural" v="hill" />
		<tag k="old_name:smj" v="Bálggesčorru" />
		<tag k="place" v="locality" />
		<tag k="ssr:stedsnr" v="805240" />
	</node>
	<node lat="67.34446666818697" lon="16.196974991167576" id="-21734">
		<tag k="fixme" v="consider natural=peak for the most distinct mountains in the district" />
		<tag k="name" v="Jågŋåtjårro" />
		<tag k="name:smj" v="Jågŋåtjårro" />
		<tag k="natural" v="hill" />
		<tag k="old_name:smj" v="Jokŋačorru" />
		<tag k="place" v="locality" />
		<tag k="ssr:stedsnr" v="805267" />
	</node>
	<node lat="67.52488333023773" lon="16.057086118563195" id="-21750">
		<tag k="alt_name:no" v="Gaulis, vestre" />
		<tag k="fixme" v="consider natural=peak for the most distinct mountains in the district" />
		<tag k="name" v="Vestre Gaulis - Alep Gávddelis" />
		<tag k="name:no" v="Vestre Gaulis" />
		<tag k="name:smj" v="Alep Gávddelis" />
		<tag k="natural" v="hill" />
		<tag k="old_name:smj" v="Gávdelis alit;Guovddelis" />
		<tag k="place" v="locality" />
		<tag k="ssr:stedsnr" v="805645" />
	</node>
	<node lat="67.5863194444256" lon="16.07300833032815" id="-21752">
		<tag k="name" v="Viejek" />
		<tag k="name:smj" v="Viejek" />
		<tag k="natural" v="valley" />
		<tag k="old_name:smj" v="Veaika;Viejega" />
		<tag k="place" v="locality" />
		<tag k="ssr:stedsnr" v="805575" />
	</node>
	<node lat="67.4885361115326" lon="15.664280555987146" id="-21753">
		<tag k="fixme" v="multiple name tags, choose one and add the other to alt_name; consider natural=peak for the most distinct mountains in the district" />
		<tag k="name" v="Nulbba;Grønfjellet" />
		<tag k="natural" v="hill" />
		<tag k="old_name" v="Nulpa" />
		<tag k="place" v="locality" />
		<tag k="ssr:stedsnr" v="805578" />
	</node>
	<node lat="67.60882222380717" lon="15.974177771255597" id="-21757">
		<tag k="name" v="Slettflogan" />
		<tag k="place" v="locality" />
		<tag k="ssr:stedsnr" v="805596" />
	</node>
	<node lat="67.54583333507586" lon="15.809597233965208" id="-21758">
		<tag k="fixme" v="consider natural=peak for the most distinct mountains in the district" />
		<tag k="name" v="Katiryggen" />
		<tag k="natural" v="hill" />
		<tag k="place" v="locality" />
		<tag k="ssr:stedsnr" v="805651" />
	</node>
	<node lat="67.43846388561916" lon="15.737938889302496" id="-21768">
		<tag k="name" v="Tuva" />
		<tag k="natural" v="hill" />
		<tag k="place" v="locality" />
		<tag k="ssr:stedsnr" v="805802" />
	</node>
	<node lat="67.30451111373613" lon="15.571727773391986" id="-21771">
		<tag k="fixme" v="consider natural=peak for the most distinct mountains in the district" />
		<tag k="name" v="Røyrdalsaksla" />
		<tag k="natural" v="hill" />
		<tag k="place" v="locality" />
		<tag k="ssr:stedsnr" v="805834" />
	</node>
	<node lat="67.39985555946049" lon="15.51292500466234" id="-21775">
		<tag k="name" v="Nubbskaret" />
		<tag k="natural" v="valley" />
		<tag k="place" v="locality" />
		<tag k="ssr:stedsnr" v="805967" />
	</node>
	<node lat="67.38813055843244" lon="15.688966662119212" id="-21776">
		<tag k="fixme" v="consider natural=peak for the most distinct mountains in the district" />
		<tag k="name" v="Andkilåsen" />
		<tag k="natural" v="hill" />
		<tag k="place" v="locality" />
		<tag k="ssr:stedsnr" v="805977" />
	</node>
	<node lat="67.69391389199544" lon="15.753069441935756" id="-21782">
		<tag k="fixme" v="consider natural=peak for the most distinct mountains in the district" />
		<tag k="name" v="Åndtinden" />
		<tag k="natural" v="hill" />
		<tag k="place" v="locality" />
		<tag k="ssr:stedsnr" v="806515" />
	</node>
	<node lat="67.61754722123072" lon="15.776536105417035" id="-21786">
		<tag k="fixme" v="consider natural=peak for the most distinct mountains in the district" />
		<tag k="name" v="Raudaksla" />
		<tag k="natural" v="hill" />
		<tag k="place" v="locality" />
		<tag k="ssr:stedsnr" v="806585" />
	</node>
	<node lat="67.54708889257921" lon="15.493902768830537" id="-21800">
		<tag k="name" v="Skaret" />
		<tag k="natural" v="valley" />
		<tag k="place" v="locality" />
		<tag k="ssr:stedsnr" v="806986" />
	</node>
	<node lat="67.56096666528502" lon="15.48737222044072" id="-21801">
		<tag k="fixme" v="consider natural=peak for the most distinct mountains in the district" />
		<tag k="name" v="Storskogdalsfjellet" />
		<tag k="natural" v="hill" />
		<tag k="place" v="locality" />
		<tag k="ssr:stedsnr" v="806987" />
	</node>
	<node lat="67.44974999662517" lon="15.463574993705587" id="-21852">
		<tag k="name" v="Lillelihammaren" />
		<tag k="natural" v="hill" />
		<tag k="place" v="locality" />
		<tag k="ssr:stedsnr" v="819592" />
	</node>
	<node lat="67.42196666731557" lon="15.49492500034661" id="-21853">
		<tag k="name" v="Svarthola" />
		<tag k="natural" v="valley" />
		<tag k="place" v="locality" />
		<tag k="ssr:stedsnr" v="819637" />
	</node>
	<node lat="67.44159444514649" lon="15.558594434592145" id="-21854">
		<tag k="name" v="Smihammaren" />
		<tag k="natural" v="hill" />
		<tag k="place" v="locality" />
		<tag k="ssr:stedsnr" v="820311" />
	</node>
	<node lat="67.5862249995697" lon="15.762911105702814" id="-21855">
		<tag k="name" v="Kvanntosletta" />
		<tag k="place" v="locality" />
		<tag k="ssr:stedsnr" v="820398" />
	</node>
	<node lat="67.47001388560555" lon="15.593386101833863" id="-21858">
		<tag k="name" v="Storhammaren" />
		<tag k="natural" v="hill" />
		<tag k="place" v="locality" />
		<tag k="ssr:stedsnr" v="820185" />
	</node>
	<node lat="67.41756110785906" lon="15.62938610201854" id="-21859">
		<tag k="name" v="Heian" />
		<tag k="natural" v="hill" />
		<tag k="place" v="locality" />
		<tag k="ssr:stedsnr" v="820232" />
	</node>
	<node lat="67.41606111291375" lon="15.640763884539675" id="-21860">
		<tag k="name" v="Skaret" />
		<tag k="natural" v="valley" />
		<tag k="place" v="locality" />
		<tag k="ssr:stedsnr" v="820235" />
	</node>
	<node lat="67.40860833158825" lon="15.66572221060938" id="-21861">
		<tag k="fixme" v="consider natural=peak for the most distinct mountains in the district" />
		<tag k="name" v="Megardskollen" />
		<tag k="natural" v="hill" />
		<tag k="place" v="locality" />
		<tag k="ssr:stedsnr" v="820241" />
	</node>
	<node lat="67.413680557884" lon="15.670813882602927" id="-21862">
		<tag k="fixme" v="consider natural=peak for the most distinct mountains in the district" />
		<tag k="name" v="Nerigardskollen" />
		<tag k="natural" v="hill" />
		<tag k="place" v="locality" />
		<tag k="ssr:stedsnr" v="820243" />
	</node>
	<node lat="67.45490833562478" lon="15.539961108425492" id="-21863">
		<tag k="name" v="Ungsmalhaugen" />
		<tag k="natural" v="hill" />
		<tag k="place" v="locality" />
		<tag k="ssr:stedsnr" v="820339" />
	</node>
	<node lat="67.53323889342228" lon="15.502655551599545" id="-21865">
		<tag k="name" v="Hestmohaugen" />
		<tag k="natural" v="hill" />
		<tag k="place" v="locality" />
		<tag k="ssr:stedsnr" v="820432" />
	</node>
	<node lat="67.43435278100435" lon="15.484383336981178" id="-21867">
		<tag k="name" v="Haugenden" />
		<tag k="natural" v="hill" />
		<tag k="place" v="locality" />
		<tag k="ssr:stedsnr" v="820528" />
	</node>
	<node lat="67.59067777368813" lon="15.845077773918035" id="-21868">
		<tag k="name" v="Sagvikmoen" />
		<tag k="place" v="locality" />
		<tag k="ssr:stedsnr" v="820529" />
	</node>
	<node lat="67.58303847152884" lon="15.688743804517419" id="-21870">
		<tag k="name" v="Beinhola" />
		<tag k="natural" v="valley" />
		<tag k="place" v="locality" />
		<tag k="ssr:stedsnr" v="820483" />
	</node>
	<node lat="67.58904444413668" lon="15.828391670354382" id="-21871">
		<tag k="name" v="Reiposletta" />
		<tag k="place" v="locality" />
		<tag k="ssr:stedsnr" v="820491" />
	</node>
	<node lat="67.57150833173063" lon="15.834258336609201" id="-21874">
		<tag k="name" v="Nersletta" />
		<tag k="place" v="locality" />
		<tag k="ssr:stedsnr" v="820857" />
	</node>
	<node lat="67.5721083295617" lon="15.858691671213911" id="-21875">
		<tag k="name" v="Raudhammarheia" />
		<tag k="natural" v="hill" />
		<tag k="place" v="locality" />
		<tag k="ssr:stedsnr" v="820864" />
	</node>
	<node lat="67.64067500136551" lon="15.920836101448177" id="-21876">
		<tag k="name" v="Langmyrlia" />
		<tag k="natural" v="slope" />
		<tag k="place" v="locality" />
		<tag k="ssr:stedsnr" v="820933" />
	</node>
	<node lat="67.62308055230619" lon="15.921180565875012" id="-21877">
		<tag k="name" v="Brattsnyta" />
		<tag k="natural" v="slope" />
		<tag k="place" v="locality" />
		<tag k="ssr:stedsnr" v="820959" />
	</node>
	<node lat="67.42205555837097" lon="16.017066663222785" id="-21884">
		<tag k="fixme" v="consider natural=peak for the most distinct mountains in the district" />
		<tag k="name" v="Litlrago" />
		<tag k="natural" v="hill" />
		<tag k="place" v="locality" />
		<tag k="ssr:stedsnr" v="865300" />
	</node>
	<node lat="67.43403333289312" lon="16.08318054665281" id="-21885">
		<tag k="fixme" v="consider natural=peak for the most distinct mountains in the district" />
		<tag k="name" v="Rago - Rágotjåhkkå" />
		<tag k="name:no" v="Rago" />
		<tag k="name:smj" v="Rágotjåhkkå" />
		<tag k="natural" v="hill" />
		<tag k="old_name:smj" v="Rágučohkka" />
		<tag k="place" v="locality" />
		<tag k="ssr:stedsnr" v="865302" />
	</node>
	<node lat="67.46191666361479" lon="15.356197221794737" id="-21887">
		<tag k="fixme" v="consider natural=peak for the most distinct mountains in the district" />
		<tag k="name" v="Skyttvassheia" />
		<tag k="natural" v="hill" />
		<tag k="place" v="locality" />
		<tag k="ssr:stedsnr" v="865623" />
	</node>
	<node lat="67.48932778088789" lon="15.123266672403522" id="-21889">
		<tag k="name" v="Sjunkdalen" />
		<tag k="natural" v="valley" />
		<tag k="place" v="locality" />
		<tag k="ssr:stedsnr" v="865645" />
	</node>
	<node lat="67.40590833053476" lon="16.11821944829017" id="-21901">
		<tag k="fixme" v="consider natural=peak for the most distinct mountains in the district" />
		<tag k="name" v="Furusteinsfjellet" />
		<tag k="natural" v="hill" />
		<tag k="place" v="locality" />
		<tag k="ssr:stedsnr" v="866239" />
	</node>
	<node lat="67.48496944756879" lon="15.284308334240203" id="-21904">
		<tag k="name" v="Sørdalen" />
		<tag k="natural" v="valley" />
		<tag k="place" v="locality" />
		<tag k="ssr:stedsnr" v="866297" />
	</node>
	<node lat="67.44806666841905" lon="15.607688884948981" id="-21906">
		<tag k="fixme" v="consider natural=peak for the most distinct mountains in the district" />
		<tag k="name" v="Kollen" />
		<tag k="natural" v="hill" />
		<tag k="place" v="locality" />
		<tag k="ssr:stedsnr" v="866483" />
	</node>
	<node lat="67.4506222196385" lon="15.532102765310142" id="-21907">
		<tag k="name" v="Nerkvarvskollen" />
		<tag k="natural" v="hill" />
		<tag k="place" v="locality" />
		<tag k="ssr:stedsnr" v="866486" />
	</node>
	<node lat="67.44082778074998" lon="15.474730555303381" id="-21918">
		<tag k="name" v="Storhaugen" />
		<tag k="natural" v="hill" />
		<tag k="place" v="locality" />
		<tag k="ssr:stedsnr" v="866527" />
	</node>
	<node lat="67.58382500334287" lon="15.700186114667138" id="-21921">
		<tag k="alt_name" v="Djupstrumpdalen" />
		<tag k="name" v="Djupstrømpdalen" />
		<tag k="natural" v="valley" />
		<tag k="place" v="locality" />
		<tag k="ssr:stedsnr" v="866895" />
	</node>
	<node lat="67.34395277723596" lon="15.577950003496065" id="-21922">
		<tag k="name" v="Storhaugen" />
		<tag k="natural" v="hill" />
		<tag k="place" v="locality" />
		<tag k="ssr:stedsnr" v="866907" />
	</node>
	<node lat="67.54088888885701" lon="15.869677787128262" id="-21923">
		<tag k="fixme" v="consider natural=peak for the most distinct mountains in the district" />
		<tag k="name" v="Sørsvadfjellet" />
		<tag k="natural" v="hill" />
		<tag k="place" v="locality" />
		<tag k="ssr:stedsnr" v="866642" />
	</node>
	<node lat="67.5682500040407" lon="15.831863882619539" id="-21924">
		<tag k="name" v="Kjelvikheian" />
		<tag k="natural" v="hill" />
		<tag k="place" v="locality" />
		<tag k="ssr:stedsnr" v="866656" />
	</node>
	<node lat="67.47101388776676" lon="16.048625009464843" id="-21926">
		<tag k="fixme" v="consider natural=peak for the most distinct mountains in the district" />
		<tag k="name" v="Vuolep Tjuorvvomoajvve" />
		<tag k="name:smj" v="Vuolep Tjuorvvomoajvve" />
		<tag k="natural" v="hill" />
		<tag k="old_name:smj" v="Čuorvunoaivi, vuolit" />
		<tag k="place" v="locality" />
		<tag k="ssr:stedsnr" v="866790" />
	</node>
	<node lat="67.45766944463816" lon="15.766350001213713" id="-21928">
		<tag k="name" v="Skildalsryggen" />
		<tag k="natural" v="ridge" />
		<tag k="place" v="locality" />
		<tag k="ssr:stedsnr" v="866800" />
	</node>
	<node lat="67.45447500063815" lon="15.920919452501675" id="-21929">
		<tag k="name" v="Arnjensohola" />
		<tag k="natural" v="valley" />
		<tag k="place" v="locality" />
		<tag k="ssr:stedsnr" v="866806" />
	</node>
	<node lat="67.38527777300028" lon="15.70141667596942" id="-21937">
		<tag k="name" v="Janshovudet" />
		<tag k="natural" v="hill" />
		<tag k="place" v="locality" />
		<tag k="ssr:stedsnr" v="866998" />
	</node>
	<node lat="67.5520027767124" lon="15.622502766246855" id="-21941">
		<tag k="name" v="Brattlia" />
		<tag k="natural" v="slope" />
		<tag k="place" v="locality" />
		<tag k="ssr:stedsnr" v="868000" />
	</node>
	<node lat="67.65303333138897" lon="15.855713884964997" id="-21943">
		<tag k="fixme" v="consider natural=peak for the most distinct mountains in the district" />
		<tag k="name" v="Horndalsfjellet - Tjoarvekvárre" />
		<tag k="name:no" v="Horndalsfjellet" />
		<tag k="name:smj" v="Tjoarvekvárre" />
		<tag k="natural" v="hill" />
		<tag k="old_name:smj" v="Čoarvvekvárri" />
		<tag k="place" v="locality" />
		<tag k="ssr:stedsnr" v="867524" />
	</node>
	<node lat="67.64328333713065" lon="15.822461120045972" id="-21944">
		<tag k="name" v="Horndalsskaret" />
		<tag k="natural" v="valley" />
		<tag k="place" v="locality" />
		<tag k="ssr:stedsnr" v="867619" />
	</node>
	<node lat="67.60463889190105" lon="15.60659445672036" id="-21947">
		<tag k="fixme" v="consider natural=peak for the most distinct mountains in the district" />
		<tag k="name" v="Grønfjellet" />
		<tag k="natural" v="hill" />
		<tag k="place" v="locality" />
		<tag k="ssr:stedsnr" v="867747" />
	</node>
	<node lat="67.53732500337485" lon="16.37495278951086" id="-21948">
		<tag k="fixme" v="consider natural=peak for the most distinct mountains in the district" />
		<tag k="name" v="Midttoppen - Guovdoajvve" />
		<tag k="name:no" v="Midttoppen" />
		<tag k="name:smj" v="Guovdoajvve" />
		<tag k="natural" v="hill" />
		<tag k="old_name:smj" v="Guovddášoaivi" />
		<tag k="place" v="locality" />
		<tag k="ssr:stedsnr" v="867751" />
	</node>
	<node lat="67.53343611514217" lon="15.573569434547716" id="-21950">
		<tag k="name" v="Reinvikflogan" />
		<tag k="natural" v="cliff" />
		<tag k="ssr:stedsnr" v="867958" />
	</node>
	<node lat="67.51424444671564" lon="15.611402782163692" id="-21951">
		<tag k="fixme" v="consider natural=peak for the most distinct mountains in the district" />
		<tag k="name" v="Rismålsheia" />
		<tag k="natural" v="hill" />
		<tag k="place" v="locality" />
		<tag k="ssr:stedsnr" v="867960" />
	</node>
	<node lat="67.42315277847636" lon="15.088324994726317" id="-21953">
		<tag k="fixme" v="consider natural=peak for the most distinct mountains in the district" />
		<tag k="name" v="Bogvasstinden" />
		<tag k="natural" v="hill" />
		<tag k="place" v="locality" />
		<tag k="ssr:stedsnr" v="869583" />
	</node>
	<node lat="67.43357777549308" lon="15.466677778045085" id="-21986">
		<tag k="name" v="Benkfloget" />
		<tag k="natural" v="valley" />
		<tag k="place" v="locality" />
		<tag k="ssr:stedsnr" v="880543" />
	</node>
	<node lat="67.42686389325304" lon="15.486824995700001" id="-21987">
		<tag k="name" v="Storlia" />
		<tag k="natural" v="slope" />
		<tag k="place" v="locality" />
		<tag k="ssr:stedsnr" v="880546" />
	</node>
	<node lat="67.42965277991397" lon="15.47851943468127" id="-21988">
		<tag k="name" v="Kvannto" />
		<tag k="natural" v="hill" />
		<tag k="place" v="locality" />
		<tag k="ssr:stedsnr" v="880548" />
	</node>
	<node lat="67.37650277618745" lon="15.623477767174231" id="-21990">
		<tag k="fixme" v="consider natural=peak for the most distinct mountains in the district" />
		<tag k="name" v="Helrabben" />
		<tag k="natural" v="hill" />
		<tag k="place" v="locality" />
		<tag k="ssr:stedsnr" v="880289" />
	</node>
	<node lat="67.43340833399456" lon="15.490366671904908" id="-21991">
		<tag k="name" v="Kinesdalen" />
		<tag k="natural" v="valley" />
		<tag k="place" v="locality" />
		<tag k="ssr:stedsnr" v="880560" />
	</node>
	<node lat="67.45491111267289" lon="15.582458335130905" id="-21995">
		<tag k="name" v="Klekstuvlia" />
		<tag k="natural" v="slope" />
		<tag k="place" v="locality" />
		<tag k="ssr:stedsnr" v="881139" />
	</node>
	<node lat="67.58524166941497" lon="15.743625003451912" id="-21996">
		<tag k="name" v="Eterbakken" />
		<tag k="natural" v="slope" />
		<tag k="place" v="locality" />
		<tag k="ssr:stedsnr" v="881245" />
	</node>
	<node lat="67.39981944905001" lon="15.609008327886567" id="-21997">
		<tag k="name" v="Svarthammaren" />
		<tag k="natural" v="hill" />
		<tag k="place" v="locality" />
		<tag k="ssr:stedsnr" v="881196" />
	</node>
	<node lat="67.43733888857503" lon="15.553155545511762" id="-21998">
		<tag k="name" v="Bærlia" />
		<tag k="natural" v="slope" />
		<tag k="place" v="locality" />
		<tag k="ssr:stedsnr" v="881293" />
	</node>
	<node lat="67.59200555257057" lon="15.799700005502649" id="-22000">
		<tag k="fixme" v="consider natural=peak for the most distinct mountains in the district" />
		<tag k="name" v="Varden" />
		<tag k="natural" v="hill" />
		<tag k="place" v="locality" />
		<tag k="ssr:stedsnr" v="881441" />
	</node>
	<node lat="67.60435833670957" lon="15.706705565504743" id="-22002">
		<tag k="name" v="Bjørnhammaren" />
		<tag k="natural" v="hill" />
		<tag k="place" v="locality" />
		<tag k="ssr:stedsnr" v="881543" />
	</node>
	<node lat="67.36126110647623" lon="15.497763893251053" id="-22006">
		<tag k="name" v="Kvitlogan" />
		<tag k="natural" v="hill" />
		<tag k="place" v="locality" />
		<tag k="ssr:stedsnr" v="938847" />
	</node>
	<node lat="67.46479166951394" lon="15.568191675060294" id="-22008">
		<tag k="name" v="Blomhaugen" />
		<tag k="natural" v="hill" />
		<tag k="place" v="locality" />
		<tag k="ssr:stedsnr" v="941127" />
	</node>
	<node lat="67.359627778456" lon="15.549999999557476" id="-22009">
		<tag k="fixme" v="consider natural=peak for the most distinct mountains in the district" />
		<tag k="name" v="Høgseljeåsen" />
		<tag k="natural" v="hill" />
		<tag k="place" v="locality" />
		<tag k="ssr:stedsnr" v="941185" />
	</node>
	<node lat="67.39804166679941" lon="15.612258334726093" id="-22011">
		<tag k="name" v="Nordnakkhaugen" />
		<tag k="natural" v="hill" />
		<tag k="place" v="locality" />
		<tag k="ssr:stedsnr" v="941196" />
	</node>
	<node lat="67.38590832995817" lon="15.619108326334393" id="-22015">
		<tag k="name" v="Hellvikfloget" />
		<tag k="natural" v="gorge" />
		<tag k="ssr:stedsnr" v="941157" />
	</node>
	<node lat="67.3644000027126" lon="15.626477779505887" id="-22021">
		<tag k="name" v="Bratthaugen" />
		<tag k="natural" v="hill" />
		<tag k="place" v="locality" />
		<tag k="ssr:stedsnr" v="941270" />
	</node>
	<node lat="67.58201388515857" lon="15.751577767279539" id="-22022">
		<tag k="name" v="Baklia" />
		<tag k="natural" v="slope" />
		<tag k="place" v="locality" />
		<tag k="ssr:stedsnr" v="941288" />
	</node>
	<node lat="67.37421666820782" lon="15.640069443899423" id="-22023">
		<tag k="name" v="Tyttebærmoen" />
		<tag k="place" v="locality" />
		<tag k="ssr:stedsnr" v="941289" />
	</node>
	<node lat="67.6072611132412" lon="15.741902787865508" id="-22028">
		<tag k="name" v="Benkan" />
		<tag k="natural" v="ridge" />
		<tag k="place" v="locality" />
		<tag k="ssr:stedsnr" v="941372" />
	</node>
	<node lat="67.59918333578565" lon="15.711263890165318" id="-22030">
		<tag k="name" v="Rønnhaugen" />
		<tag k="natural" v="hill" />
		<tag k="place" v="locality" />
		<tag k="ssr:stedsnr" v="941468" />
	</node>
	<node lat="67.61209721877759" lon="15.737194446963997" id="-22032">
		<tag k="name" v="Svarthaugkråga" />
		<tag k="natural" v="valley" />
		<tag k="place" v="locality" />
		<tag k="ssr:stedsnr" v="941532" />
	</node>
	<node lat="67.43462777318359" lon="15.505663892219234" id="-22034">
		<tag k="name" v="Kjerringhammaren" />
		<tag k="natural" v="hill" />
		<tag k="place" v="locality" />
		<tag k="ssr:stedsnr" v="941541" />
	</node>
	<node lat="67.44208889062735" lon="15.534319440274315" id="-22035">
		<tag k="name" v="Langvikrabben" />
		<tag k="natural" v="ridge" />
		<tag k="place" v="locality" />
		<tag k="ssr:stedsnr" v="941546" />
	</node>
	<node lat="67.45701666254459" lon="15.467438895329783" id="-22036">
		<tag k="name" v="Djupdalen" />
		<tag k="natural" v="valley" />
		<tag k="place" v="locality" />
		<tag k="ssr:stedsnr" v="941562" />
	</node>
	<node lat="67.59434166236566" lon="15.951058341985915" id="-22037">
		<tag k="name" v="Lenninga" />
		<tag k="place" v="locality" />
		<tag k="ssr:stedsnr" v="941566" />
	</node>
	<node lat="67.40657221885024" lon="15.518980550738082" id="-22038">
		<tag k="name" v="Katturdalen" />
		<tag k="natural" v="valley" />
		<tag k="place" v="locality" />
		<tag k="ssr:stedsnr" v="941644" />
	</node>
	<node lat="67.47675278058331" lon="15.447425007343279" id="-22039">
		<tag k="name" v="Moan" />
		<tag k="place" v="locality" />
		<tag k="ssr:stedsnr" v="941501" />
	</node>
	<node lat="67.47587499914077" lon="15.455205563859563" id="-22041">
		<tag k="name" v="Bjørndalen" />
		<tag k="natural" v="valley" />
		<tag k="place" v="locality" />
		<tag k="ssr:stedsnr" v="941505" />
	</node>
	<node lat="67.40306666472762" lon="15.51761667508814" id="-22042">
		<tag k="fixme" v="consider natural=peak for the most distinct mountains in the district" />
		<tag k="name" v="Slettfjell" />
		<tag k="natural" v="hill" />
		<tag k="place" v="locality" />
		<tag k="ssr:stedsnr" v="941658" />
	</node>
	<node lat="67.62516944184804" lon="15.906158335713794" id="-22044">
		<tag k="fixme" v="consider natural=peak for the most distinct mountains in the district" />
		<tag k="name" v="Korkdalåsen" />
		<tag k="natural" v="hill" />
		<tag k="place" v="locality" />
		<tag k="ssr:stedsnr" v="941913" />
	</node>
	<node lat="67.62062222343705" lon="15.933566662198245" id="-22048">
		<tag k="name" v="Nytramohaugen" />
		<tag k="natural" v="hill" />
		<tag k="place" v="locality" />
		<tag k="ssr:stedsnr" v="941944" />
	</node>
	<node lat="67.4464805551246" lon="15.456927783946023" id="-22051">
		<tag k="name" v="Benkan" />
		<tag k="place" v="locality" />
		<tag k="ssr:stedsnr" v="966114" />
	</node>
</osm>
