<?xml version="1.0" encoding="UTF-8"?>
<osm version="0.6" generator="osmapis">
	<node lat="67.4828055568359" lon="15.473727789483112" id="-19118">
		<tag k="name" v="Røsvikøyra" />
		<tag k="place" v="locality" />
		<tag k="ssr:stedsnr" v="16575" />
	</node>
	<node lat="67.38216666615124" lon="15.509322213303909" id="-19122">
		<tag k="name" v="Kvanngrøvatnet" />
		<tag k="natural" v="water" />
		<tag k="ssr:stedsnr" v="16966" />
	</node>
	<node lat="67.76647500205414" lon="15.828974997592606" id="-19128">
		<tag k="name" v="Trollvatnet" />
		<tag k="natural" v="water" />
		<tag k="ssr:stedsnr" v="17303" />
		<tag k="water" v="lake" />
	</node>
	<node lat="67.60399444846327" lon="15.786483324179377" id="-19132">
		<tag k="name" v="Kjelen" />
		<tag k="natural" v="water" />
		<tag k="ssr:stedsnr" v="17624" />
	</node>
	<node lat="67.57032777366084" lon="16.000838891950178" id="-19134">
		<tag k="name" v="Tovatnan" />
		<tag k="natural" v="water" />
		<tag k="ssr:stedsnr" v="17715" />
	</node>
	<node lat="67.60326111277621" lon="15.720822211087818" id="-19186">
		<tag k="name" v="Gjerdelva" />
		<tag k="ssr:stedsnr" v="31568" />
		<tag k="waterway" v="river" />
	</node>
	<node lat="67.32388333152113" lon="15.980033327339166" id="-19199">
		<tag k="name" v="Rundvatnet" />
		<tag k="natural" v="water" />
		<tag k="ssr:stedsnr" v="77302" />
		<tag k="water" v="lake" />
	</node>
	<node lat="67.30657500086676" lon="15.89570556547343" id="-19201">
		<tag k="name" v="Sisoodden" />
		<tag k="natural" v="cape" />
		<tag k="ssr:stedsnr" v="77309" />
	</node>
	<node lat="67.33311666800617" lon="15.884872223491948" id="-19203">
		<tag k="name" v="Langodden" />
		<tag k="natural" v="cape" />
		<tag k="ssr:stedsnr" v="77358" />
	</node>
	<node lat="67.66780833052898" lon="16.041038875970496" id="-19217">
		<tag k="name" v="Jierddavuomjåhkå" />
		<tag k="name:no" v="Gjerdalselva" />
		<tag k="name:smj" v="Jierddavuomjåhkå" />
		<tag k="old_name:smj" v="Jierdavuomejohka" />
		<tag k="ssr:stedsnr" v="78496" />
		<tag k="waterway" v="river" />
	</node>
	<node lat="67.3453500007101" lon="15.588377771179605" id="-19237">
		<tag k="name" v="Lappskarelva" />
		<tag k="ssr:stedsnr" v="91220" />
		<tag k="waterway" v="river" />
	</node>
	<node lat="67.61782777801264" lon="15.942919438858006" id="-19249">
		<tag k="name" v="Storvikelva" />
		<tag k="ssr:stedsnr" v="92919" />
		<tag k="waterway" v="river" />
	</node>
	<node lat="67.45844167010962" lon="15.332350012043413" id="-19258">
		<tag k="name" v="Svartvatnet" />
		<tag k="natural" v="water" />
		<tag k="ssr:stedsnr" v="137511" />
	</node>
	<node lat="67.30278610695444" lon="15.637611114437224" id="-19265">
		<tag k="name" v="Rávddojávrre" />
		<tag k="name:no" v="Røyrvatnet" />
		<tag k="name:smj" v="Rávddojávrre" />
		<tag k="natural" v="water" />
		<tag k="old_name:smj" v="Rávdojávri" />
		<tag k="ssr:stedsnr" v="137820" />
		<tag k="water" v="lake" />
	</node>
	<node lat="67.41607222246127" lon="15.703608329194203" id="-19267">
		<tag k="alt_name" v="Svartvatnet, nedre" />
		<tag k="name" v="Nedre Svartvatnet" />
		<tag k="natural" v="water" />
		<tag k="ssr:stedsnr" v="137947" />
		<tag k="water" v="lake" />
	</node>
	<node lat="67.64079444639505" lon="15.846030557572254" id="-19269">
		<tag k="name" v="Skjønstadvatnet" />
		<tag k="natural" v="water" />
		<tag k="ssr:stedsnr" v="138617" />
	</node>
	<node lat="67.67810555289881" lon="16.073997226458374" id="-19270">
		<tag k="name" v="Tjønna" />
		<tag k="natural" v="water" />
		<tag k="ssr:stedsnr" v="138503" />
	</node>
	<node lat="67.54771944412389" lon="16.283783322961845" id="-19277">
		<tag k="name" v="Sårjåsjávrrit" />
		<tag k="name:smj" v="Sårjåsjávrrit" />
		<tag k="natural" v="water" />
		<tag k="old_name:smj" v="Sorjjasjávrrit" />
		<tag k="ssr:stedsnr" v="138742" />
		<tag k="water" v="lake" />
	</node>
	<node lat="67.53972778081943" lon="15.501255563882676" id="-19282">
		<tag k="name" v="Stortjønna" />
		<tag k="natural" v="water" />
		<tag k="ssr:stedsnr" v="138941" />
	</node>
	<node lat="67.36431388912614" lon="15.48431943434673" id="-19321">
		<tag k="name" v="Mølnelvvatnet" />
		<tag k="natural" v="water" />
		<tag k="ssr:stedsnr" v="152709" />
		<tag k="water" v="lake" />
	</node>
	<node lat="67.56130833500653" lon="15.859961109865953" id="-19344">
		<tag k="name" v="Svadvatnan" />
		<tag k="natural" v="water" />
		<tag k="ssr:stedsnr" v="259664" />
		<tag k="water" v="lake" />
	</node>
	<node lat="67.48614721928408" lon="15.733430543643161" id="-19345">
		<tag k="name" v="Gammvatnet" />
		<tag k="natural" v="water" />
		<tag k="ssr:stedsnr" v="259784" />
	</node>
	<node lat="67.48021111478226" lon="15.877294443168838" id="-19347">
		<tag k="name" v="Moskusvatnan" />
		<tag k="natural" v="water" />
		<tag k="ssr:stedsnr" v="259797" />
	</node>
	<node lat="67.4964111111799" lon="15.879038895518107" id="-19413">
		<tag k="alt_name" v="Steinsvatnet" />
		<tag k="name" v="Steinfjellvatnet" />
		<tag k="natural" v="water" />
		<tag k="ssr:stedsnr" v="198762" />
		<tag k="water" v="lake" />
	</node>
	<node lat="67.62190555389319" lon="15.969080565356924" id="-19421">
		<tag k="name" v="Gåpjávrre" />
		<tag k="name:no" v="Kobbvatnet" />
		<tag k="name:smj" v="Gåpjávrre" />
		<tag k="natural" v="water" />
		<tag k="ssr:stedsnr" v="199605" />
		<tag k="water" v="lake" />
	</node>
	<node lat="67.53443610787419" lon="15.435441658792898" id="-19426">
		<tag k="name" v="Sagelva" />
		<tag k="ssr:stedsnr" v="199955" />
		<tag k="waterway" v="stream" />
	</node>
	<node lat="67.7182583369373" lon="15.702669454886912" id="-19430">
		<tag k="name" v="Erikelvvatnet" />
		<tag k="natural" v="water" />
		<tag k="ssr:stedsnr" v="199868" />
	</node>
	<node lat="67.59583055550242" lon="15.838311117178058" id="-19469">
		<tag k="name" v="Sagelvsvaet" />
		<tag k="natural" v="shoal" />
		<tag k="place" v="locality" />
		<tag k="ssr:stedsnr" v="213582" />
	</node>
	<node lat="67.63402777527624" lon="15.968961099169332" id="-19472">
		<tag k="name" v="Nes" />
		<tag k="natural" v="cape" />
		<tag k="ssr:stedsnr" v="213874" />
	</node>
	<node lat="67.643544441165" lon="15.98036944169568" id="-19487">
		<tag k="name" v="Mastermobekken" />
		<tag k="ssr:stedsnr" v="456130" />
		<tag k="waterway" v="stream" />
	</node>
	<node lat="67.59271666828887" lon="15.7099249962113" id="-19492">
		<tag k="name" v="Hansmølnelva" />
		<tag k="ssr:stedsnr" v="456458" />
		<tag k="waterway" v="river" />
	</node>
	<node lat="67.63940555122979" lon="15.938766674718723" id="-19503">
		<tag k="name" v="Mølnelva" />
		<tag k="ssr:stedsnr" v="456907" />
		<tag k="waterway" v="river" />
	</node>
	<node lat="67.39610994437777" lon="15.718904398921376" id="-19504">
		<tag k="name" v="Hellarvika" />
		<tag k="natural" v="bay" />
		<tag k="ssr:stedsnr" v="259248" />
	</node>
	<node lat="67.33245277836437" lon="15.764819435616475" id="-19507">
		<tag k="name" v="Fagerbakkforsen" />
		<tag k="natural" v="waterfall" />
		<tag k="ssr:stedsnr" v="259268" />
	</node>
	<node lat="67.59212500054325" lon="15.80422777404062" id="-19516">
		<tag k="name" v="Ørneselva" />
		<tag k="ssr:stedsnr" v="259572" />
		<tag k="waterway" v="stream" />
	</node>
	<node lat="67.45210833274487" lon="15.877052768764832" id="-19526">
		<tag k="name" v="Bevertjønna" />
		<tag k="natural" v="water" />
		<tag k="ssr:stedsnr" v="259812" />
	</node>
	<node lat="67.64364166396057" lon="15.91780554856835" id="-19566">
		<tag k="name" v="Korkvasselva" />
		<tag k="ssr:stedsnr" v="274910" />
		<tag k="waterway" v="river" />
	</node>
	<node lat="67.4330666694324" lon="15.641002785112766" id="-19574">
		<tag k="name" v="Ytterelva" />
		<tag k="ssr:stedsnr" v="319543" />
		<tag k="waterway" v="stream" />
	</node>
	<node lat="67.4673055601991" lon="15.964158323341483" id="-19582">
		<tag k="name" v="Storskogvatnet" />
		<tag k="natural" v="water" />
		<tag k="ssr:stedsnr" v="320804" />
		<tag k="water" v="lake" />
	</node>
	<node lat="67.62049166322618" lon="15.950241674740694" id="-19584">
		<tag k="name" v="Stormyrodden" />
		<tag k="natural" v="cape" />
		<tag k="ssr:stedsnr" v="320588" />
	</node>
	<node lat="67.57227777795336" lon="15.697588894762887" id="-19593">
		<tag k="name" v="Daudmannvikvatnet" />
		<tag k="natural" v="water" />
		<tag k="ssr:stedsnr" v="320984" />
	</node>
	<node lat="67.42691666797347" lon="15.162138877560901" id="-19598">
		<tag k="name" v="Storelva" />
		<tag k="ssr:stedsnr" v="323420" />
		<tag k="waterway" v="river" />
	</node>
	<node lat="67.59172777845077" lon="15.944266667639267" id="-19625">
		<tag k="name" v="Matsund" />
		<tag k="natural" v="strait" />
		<tag k="ssr:stedsnr" v="334556" />
	</node>
	<node lat="67.59497777994171" lon="15.956541658713617" id="-19626">
		<tag k="name" v="Langforsen" />
		<tag k="natural" v="waterfall" />
		<tag k="ssr:stedsnr" v="334560" />
	</node>
	<node lat="67.62568333710348" lon="15.928799990097415" id="-19629">
		<tag k="name" v="Djupdalelva" />
		<tag k="ssr:stedsnr" v="334898" />
		<tag k="waterway" v="river" />
	</node>
	<node lat="67.3720916667346" lon="15.939191677235462" id="-19640">
		<tag k="name" v="Løytavatnet - Luojdojávrre" />
		<tag k="name:no" v="Løytavatnet" />
		<tag k="name:smj" v="Luojdojávrre" />
		<tag k="natural" v="water" />
		<tag k="old_name:smj" v="Loaiddojávri" />
		<tag k="ssr:stedsnr" v="380270" />
		<tag k="water" v="lake" />
	</node>
	<node lat="67.72333611414652" lon="15.916169453962286" id="-19645">
		<tag k="name" v="Murgosjávrre" />
		<tag k="name:no" v="Mørsvikvatnet" />
		<tag k="name:smj" v="Murgosjávrre" />
		<tag k="natural" v="water" />
		<tag k="old_name:smj" v="Murggosjávri" />
		<tag k="ssr:stedsnr" v="380567" />
		<tag k="water" v="lake" />
	</node>
	<node lat="67.5670749968615" lon="15.83254721634662" id="-19648">
		<tag k="alt_name" v="Kjelvikvatnet, in" />
		<tag k="name" v="Indre Kjelvikvatn" />
		<tag k="natural" v="water" />
		<tag k="ssr:stedsnr" v="380703" />
	</node>
	<node lat="67.46849722014187" lon="16.01044721956012" id="-19652">
		<tag k="name" v="Sørkrågelva" />
		<tag k="ssr:stedsnr" v="380806" />
		<tag k="waterway" v="stream" />
	</node>
	<node lat="67.45390000305841" lon="15.894650007518205" id="-19653">
		<tag k="name" v="Trollforsen" />
		<tag k="natural" v="waterfall" />
		<tag k="ssr:stedsnr" v="380816" />
	</node>
	<node lat="67.5845833358882" lon="16.137724994319058" id="-19665">
		<tag k="name" v="Stillelva" />
		<tag k="ssr:stedsnr" v="381740" />
		<tag k="waterway" v="river" />
	</node>
	<node lat="67.41793888799084" lon="15.506958341291119" id="-19698">
		<tag k="name" v="Tjønnan" />
		<tag k="natural" v="water" />
		<tag k="ssr:stedsnr" v="394607" />
	</node>
	<node lat="67.39303889333286" lon="15.606511105397702" id="-19702">
		<tag k="name" v="Øyjordelva" />
		<tag k="ssr:stedsnr" v="395230" />
		<tag k="waterway" v="river" />
	</node>
	<node lat="67.42700555351205" lon="15.471613894968376" id="-19709">
		<tag k="name" v="Merrafteselva" />
		<tag k="ssr:stedsnr" v="395535" />
		<tag k="waterway" v="river" />
	</node>
	<node lat="67.45453055522044" lon="15.568513889775572" id="-19715">
		<tag k="name" v="Gyltvikelva" />
		<tag k="ssr:stedsnr" v="441499" />
		<tag k="waterway" v="stream" />
	</node>
	<node lat="67.58666388653175" lon="15.503752768633827" id="-19729">
		<tag k="name" v="Hauganslåttelva" />
		<tag k="ssr:stedsnr" v="441912" />
		<tag k="waterway" v="stream" />
	</node>
	<node lat="67.55557500072628" lon="15.534580548496983" id="-19736">
		<tag k="name" v="Tverrelva" />
		<tag k="ssr:stedsnr" v="442999" />
		<tag k="waterway" v="stream" />
	</node>
	<node lat="67.63699721950573" lon="16.006347212874402" id="-19763">
		<tag k="name" v="Nytmarkelva" />
		<tag k="ssr:stedsnr" v="456063" />
		<tag k="waterway" v="river" />
	</node>
	<node lat="67.5156500034483" lon="15.857252773764522" id="-19773">
		<tag k="name" v="Langvatnet - Svierppejávrre" />
		<tag k="name:no" v="Langvatnet" />
		<tag k="name:smj" v="Svierppejávrre" />
		<tag k="natural" v="water" />
		<tag k="old_name:smj" v="Sverpejávri" />
		<tag k="ssr:stedsnr" v="501628" />
		<tag k="water" v="lake" />
	</node>
	<node lat="67.45195555836831" lon="15.321558327248598" id="-19777">
		<tag k="name" v="Tindelva" />
		<tag k="ssr:stedsnr" v="501510" />
		<tag k="waterway" v="stream" />
	</node>
	<node lat="67.33671944694797" lon="15.85872776718415" id="-19783">
		<tag k="name" v="Sisovatnet - Sijdasjávrre" />
		<tag k="name:no" v="Sisovatnet" />
		<tag k="name:smj" v="Sijdasjávrre" />
		<tag k="natural" v="water" />
		<tag k="old_name:smj" v="Siiddasjávri" />
		<tag k="ssr:stedsnr" v="502278" />
		<tag k="water" v="lake" />
	</node>
	<node lat="67.46739999742988" lon="15.941972212804943" id="-19792">
		<tag k="name" v="Holman" />
		<tag k="place" v="islet" />
		<tag k="ssr:stedsnr" v="502803" />
	</node>
	<node lat="67.4736111104211" lon="16.08467777252227" id="-19793">
		<tag k="name" v="Ragovatnan" />
		<tag k="natural" v="water" />
		<tag k="ssr:stedsnr" v="502808" />
		<tag k="water" v="lake" />
	</node>
	<node lat="67.59753889182365" lon="15.760069454317739" id="-19794">
		<tag k="name" v="Kistenvatnet" />
		<tag k="natural" v="water" />
		<tag k="ssr:stedsnr" v="502578" />
	</node>
	<node lat="67.59681110950727" lon="16.096397220631527" id="-19795">
		<tag k="alt_name:no" v="Veikvatnet, nedre" />
		<tag k="name" v="Nedre Veikvatnet - Vuolep Viejekjávrre" />
		<tag k="name:no" v="Nedre Veikvatnet" />
		<tag k="name:smj" v="Vuolep Viejekjávrre" />
		<tag k="natural" v="water" />
		<tag k="old_name:smj" v="Veajekajávri vuolit" />
		<tag k="ssr:stedsnr" v="502583" />
		<tag k="water" v="lake" />
	</node>
	<node lat="67.44384444597618" lon="15.447630544806675" id="-19830">
		<tag k="name" v="Meraftesvatnet" />
		<tag k="natural" v="water" />
		<tag k="ssr:stedsnr" v="683480" />
	</node>
	<node lat="67.4567250002755" lon="15.11517777810755" id="-19839">
		<tag k="name" v="Innerelva" />
		<tag k="ssr:stedsnr" v="683644" />
		<tag k="waterway" v="stream" />
	</node>
	<node lat="67.58037500203785" lon="15.877805564583973" id="-19863">
		<tag k="name" v="Flatskjæret" />
		<tag k="place" v="islet" />
		<tag k="ssr:stedsnr" v="516544" />
	</node>
	<node lat="67.62487778000582" lon="15.92381111490363" id="-19870">
		<tag k="name" v="Grintramoelva" />
		<tag k="ssr:stedsnr" v="516933" />
		<tag k="waterway" v="river" />
	</node>
	<node lat="67.3333777794066" lon="15.955186103919857" id="-19872">
		<tag k="name" v="Kalvmagen" />
		<tag k="natural" v="water" />
		<tag k="ssr:stedsnr" v="684292" />
	</node>
	<node lat="67.59774444780041" lon="15.969877773443569" id="-19882">
		<tag k="name" v="Vasshauet" />
		<tag k="place" v="locality" />
		<tag k="ssr:stedsnr" v="684576" />
	</node>
	<node lat="67.60646110748996" lon="15.74412221503298" id="-19885">
		<tag k="name" v="Mølnelva" />
		<tag k="ssr:stedsnr" v="684585" />
		<tag k="waterway" v="stream" />
	</node>
	<node lat="67.48618333041676" lon="15.436191663266419" id="-19886">
		<tag k="name" v="Bordstolvatnet" />
		<tag k="natural" v="water" />
		<tag k="ssr:stedsnr" v="684589" />
	</node>
	<node lat="67.51926666367902" lon="15.61622221774527" id="-19892">
		<tag k="name" v="Stortjønna" />
		<tag k="natural" v="water" />
		<tag k="ssr:stedsnr" v="684957" />
	</node>
	<node lat="67.5875777818962" lon="15.713358333714778" id="-19995">
		<tag k="name" v="Storgåshola" />
		<tag k="place" v="locality" />
		<tag k="ssr:stedsnr" v="698456" />
	</node>
	<node lat="67.42921110971693" lon="15.514413888411136" id="-19996">
		<tag k="name" v="Storelva" />
		<tag k="ssr:stedsnr" v="698523" />
		<tag k="waterway" v="river" />
	</node>
	<node lat="67.59084166939574" lon="15.908044443274543" id="-20001">
		<tag k="name" v="Tjønna" />
		<tag k="natural" v="water" />
		<tag k="ssr:stedsnr" v="698598" />
	</node>
	<node lat="67.47807499894064" lon="15.38024721812577" id="-20012">
		<tag k="name" v="Bukkvatnan" />
		<tag k="natural" v="water" />
		<tag k="ssr:stedsnr" v="622604" />
		<tag k="water" v="lake" />
	</node>
	<node lat="67.34373611268586" lon="15.60536667778043" id="-20018">
		<tag k="alt_name" v="Tjelganesodden" />
		<tag k="name" v="Kjøgelnesodden" />
		<tag k="natural" v="cape" />
		<tag k="ssr:stedsnr" v="622917" />
	</node>
	<node lat="67.60529721958942" lon="15.82791945182807" id="-20026">
		<tag k="name" v="Djupskarvatnet" />
		<tag k="natural" v="water" />
		<tag k="ssr:stedsnr" v="623627" />
	</node>
	<node lat="67.59418055880347" lon="15.921077774442857" id="-20034">
		<tag k="name" v="Kobbelva" />
		<tag k="ssr:stedsnr" v="623577" />
		<tag k="waterway" v="river" />
	</node>
	<node lat="67.6378305589761" lon="16.037941659027837" id="-20039">
		<tag k="name" v="Tverrelva" />
		<tag k="ssr:stedsnr" v="623726" />
		<tag k="waterway" v="river" />
	</node>
	<node lat="67.4696111110765" lon="15.588363890004155" id="-20071">
		<tag k="name" v="Skarelva" />
		<tag k="ssr:stedsnr" v="637182" />
		<tag k="waterway" v="river" />
	</node>
	<node lat="67.54585278119619" lon="16.28739167666854" id="-20086">
		<tag k="name" v="Vuolep Sårjåsjávrre" />
		<tag k="name:smj" v="Vuolep Sårjåsjávrre" />
		<tag k="natural" v="water" />
		<tag k="ssr:stedsnr" v="651299" />
		<tag k="water" v="lake" />
	</node>
	<node lat="67.42725832885296" lon="15.89431944519726" id="-20090">
		<tag k="name" v="Litlverivatnet - Bassejávrre" />
		<tag k="name:no" v="Litlverivatnet" />
		<tag k="name:smj" v="Bassejávrre" />
		<tag k="natural" v="water" />
		<tag k="old_name:smj" v="Bassejávri" />
		<tag k="ssr:stedsnr" v="683239" />
		<tag k="water" v="lake" />
	</node>
	<node lat="67.55865833471742" lon="16.200072230375127" id="-20094">
		<tag k="name" v="Storsmåsjøen" />
		<tag k="natural" v="water" />
		<tag k="ssr:stedsnr" v="683653" />
		<tag k="water" v="lake" />
	</node>
	<node lat="67.5466888900414" lon="15.723166673481863" id="-20108">
		<tag k="name" v="Mølnelva" />
		<tag k="ssr:stedsnr" v="684712" />
		<tag k="waterway" v="stream" />
	</node>
	<node lat="67.46657222579296" lon="15.982961100248076" id="-20110">
		<tag k="name" v="Sørkråga" />
		<tag k="natural" v="bay" />
		<tag k="ssr:stedsnr" v="684797" />
	</node>
	<node lat="67.7013083363594" lon="15.90569999090156" id="-20162">
		<tag k="name" v="Silldavuopjávrre" />
		<tag k="name:no" v="Sildhopvatnet" />
		<tag k="name:smj" v="Silldavuopjávrre" />
		<tag k="natural" v="water" />
		<tag k="old_name:smj" v="Sildavuohppejávri" />
		<tag k="ssr:stedsnr" v="745503" />
		<tag k="water" v="lake" />
	</node>
	<node lat="67.5414222192095" lon="16.339519434879254" id="-20167">
		<tag k="name" v="Hurrejåhkå" />
		<tag k="name:smj" v="Hurrejåhkå" />
		<tag k="old_name:smj" v="Hurrejohka" />
		<tag k="ssr:stedsnr" v="745776" />
		<tag k="waterway" v="stream" />
	</node>
	<node lat="67.63790467822133" lon="15.710575071656871" id="-20172">
		<tag k="name" v="Tjoarvekjávrre" />
		<tag k="name:no" v="Horndalsvatnet" />
		<tag k="name:smj" v="Tjoarvekjávrre" />
		<tag k="natural" v="water" />
		<tag k="old_name:smj" v="Čoarvvekjávri" />
		<tag k="ssr:stedsnr" v="745926" />
		<tag k="water" v="lake" />
	</node>
	<node lat="67.41864444748524" lon="15.141738879861823" id="-20180">
		<tag k="name" v="Elvvatnet" />
		<tag k="natural" v="water" />
		<tag k="ssr:stedsnr" v="748571" />
	</node>
	<node lat="67.6278027767419" lon="15.98828056429065" id="-20201">
		<tag k="name" v="Hestfarvika" />
		<tag k="natural" v="bay" />
		<tag k="ssr:stedsnr" v="759053" />
	</node>
	<node lat="67.47258055795939" lon="15.427174995830725" id="-20210">
		<tag k="name" v="Lisjvasselva" />
		<tag k="ssr:stedsnr" v="759345" />
		<tag k="waterway" v="river" />
	</node>
	<node lat="67.38320833130345" lon="15.539783341435644" id="-20217">
		<tag k="name" v="Storelva" />
		<tag k="ssr:stedsnr" v="759708" />
		<tag k="waterway" v="river" />
	</node>
	<node lat="67.4275027759432" lon="15.815766677308098" id="-20226">
		<tag k="name" v="Skarvatnet" />
		<tag k="natural" v="water" />
		<tag k="ssr:stedsnr" v="805219" />
	</node>
	<node lat="67.63163611451742" lon="15.940319441294802" id="-20256">
		<tag k="name" v="Mølnelvosen" />
		<tag k="natural" v="bay" />
		<tag k="ssr:stedsnr" v="820907" />
	</node>
	<node lat="67.44753888664482" lon="15.450872224698058" id="-20258">
		<tag k="name" v="Merafteselva" />
		<tag k="ssr:stedsnr" v="845125" />
		<tag k="waterway" v="stream" />
	</node>
	<node lat="67.4344416669293" lon="15.838719448720143" id="-20261">
		<tag k="name" v="Litlverivassforsen" />
		<tag k="natural" v="waterfall" />
		<tag k="ssr:stedsnr" v="926251" />
	</node>
	<node lat="67.57691388597436" lon="15.894802778846174" id="-20279">
		<tag k="name" v="Sørfjordelva" />
		<tag k="ssr:stedsnr" v="927581" />
		<tag k="waterway" v="river" />
	</node>
	<node lat="67.59437778100762" lon="15.901508334079763" id="-20280">
		<tag k="alt_name" v="Grasneset" />
		<tag k="name" v="Gressnes" />
		<tag k="natural" v="cape" />
		<tag k="ssr:stedsnr" v="927590" />
	</node>
	<node lat="67.57904444460456" lon="16.256141664932617" id="-20282">
		<tag k="name" v="Várreviejekjávrre" />
		<tag k="name:smj" v="Várreviejekjávrre" />
		<tag k="natural" v="water" />
		<tag k="old_name:smj" v="Várreveajekajávri" />
		<tag k="ssr:stedsnr" v="927737" />
		<tag k="water" v="lake" />
	</node>
	<node lat="67.62223888577005" lon="15.700469443622803" id="-20289">
		<tag k="name" v="Nordholelva" />
		<tag k="ssr:stedsnr" v="927948" />
		<tag k="waterway" v="stream" />
	</node>
	<node lat="67.59149722204904" lon="15.95117777502025" id="-20365">
		<tag k="name" v="Storforsen" />
		<tag k="natural" v="waterfall" />
		<tag k="ssr:stedsnr" v="881560" />
	</node>
	<node lat="67.62702777769869" lon="15.93253610619624" id="-20367">
		<tag k="name" v="Kattosen" />
		<tag k="natural" v="bay" />
		<tag k="ssr:stedsnr" v="881904" />
	</node>
	<node lat="67.40877499923383" lon="15.838291663717355" id="-20377">
		<tag k="name" v="Råggejávrre" />
		<tag k="name:smj" v="Råggejávrre" />
		<tag k="natural" v="water" />
		<tag k="old_name:smj" v="Roggejávri" />
		<tag k="ssr:stedsnr" v="926267" />
	</node>
	<node lat="67.33712499682552" lon="15.845802768609909" id="-20381">
		<tag k="name" v="Jervodden" />
		<tag k="natural" v="cape" />
		<tag k="ssr:stedsnr" v="927309" />
	</node>
	<node lat="67.64942222509832" lon="16.10167221833705" id="-20389">
		<tag k="name" v="Litletindvatnet" />
		<tag k="natural" v="water" />
		<tag k="ssr:stedsnr" v="927608" />
		<tag k="water" v="lake" />
	</node>
	<node lat="67.5387527773369" lon="15.315558322909904" id="-20403">
		<tag k="name" v="Storurelva" />
		<tag k="ssr:stedsnr" v="927963" />
		<tag k="waterway" v="stream" />
	</node>
	<node lat="67.47436635841687" lon="15.655469625303446" id="-20458">
		<tag k="name" v="Småvatnan" />
		<tag k="natural" v="water" />
		<tag k="ssr:stedsnr" v="16587" />
		<tag k="water" v="lake" />
	</node>
	<node lat="67.53306944042698" lon="16.127586101932973" id="-20462">
		<tag k="name" v="Langvatnet - Guhkesjávrre" />
		<tag k="name:no" v="Langvatnet" />
		<tag k="name:smj" v="Guhkesjávrre" />
		<tag k="natural" v="water" />
		<tag k="old_name:smj" v="Guhkesjávri" />
		<tag k="ssr:stedsnr" v="16619" />
		<tag k="water" v="lake" />
	</node>
	<node lat="67.55366666470398" lon="15.865780546854955" id="-20463">
		<tag k="name" v="Storvatnet" />
		<tag k="natural" v="water" />
		<tag k="ssr:stedsnr" v="16629" />
		<tag k="water" v="lake" />
	</node>
	<node lat="67.54747500011624" lon="15.950016665744279" id="-20464">
		<tag k="name" v="Kolbakkvatnan" />
		<tag k="natural" v="water" />
		<tag k="ssr:stedsnr" v="16631" />
		<tag k="water" v="lake" />
	</node>
	<node lat="67.49788333535056" lon="15.747194455716436" id="-20465">
		<tag k="name" v="Ingerolsdetvatnet" />
		<tag k="natural" v="water" />
		<tag k="ssr:stedsnr" v="16753" />
	</node>
	<node lat="67.47950555672665" lon="15.753805553442001" id="-20468">
		<tag k="name" v="Bærholman" />
		<tag k="place" v="islet" />
		<tag k="ssr:stedsnr" v="16761" />
	</node>
	<node lat="67.47829444578934" lon="16.03722223113423" id="-20469">
		<tag k="name" v="Ragoelva - Rágojåhkå" />
		<tag k="name:no" v="Ragoelva" />
		<tag k="name:smj" v="Rágojåhkå" />
		<tag k="old_name:smj" v="Rágujohka" />
		<tag k="ssr:stedsnr" v="16764" />
		<tag k="waterway" v="stream" />
	</node>
	<node lat="67.61603888959186" lon="15.553622223963766" id="-20475">
		<tag k="name" v="Skjelelva" />
		<tag k="ssr:stedsnr" v="17942" />
		<tag k="waterway" v="stream" />
	</node>
	<node lat="67.71699166615174" lon="15.877211110850778" id="-20481">
		<tag k="name" v="Murgosjåhkå" />
		<tag k="name:no" v="Mørsvikelva" />
		<tag k="name:smj" v="Murgosjåhkå" />
		<tag k="old_name:smj" v="Murggosjohka" />
		<tag k="ssr:stedsnr" v="17544" />
		<tag k="waterway" v="river" />
	</node>
	<node lat="67.58990833686049" lon="15.84388611483763" id="-20485">
		<tag k="name" v="Sagelva" />
		<tag k="ssr:stedsnr" v="17571" />
		<tag k="waterway" v="stream" />
	</node>
	<node lat="67.54789986285378" lon="15.450592832017204" id="-20494">
		<tag k="name" v="Sagvatnet" />
		<tag k="natural" v="water" />
		<tag k="ssr:stedsnr" v="17987" />
		<tag k="water" v="lake" />
	</node>
	<node lat="67.34324444099518" lon="15.536791666594945" id="-20531">
		<tag k="name" v="Stemvik" />
		<tag k="natural" v="bay" />
		<tag k="ssr:stedsnr" v="26171" />
	</node>
	<node lat="67.63572778177532" lon="15.979219437366556" id="-20536">
		<tag k="name" v="Stranda" />
		<tag k="natural" v="beach" />
		<tag k="ssr:stedsnr" v="31037" />
	</node>
	<node lat="67.58829999647394" lon="15.78669443246662" id="-20548">
		<tag k="name" v="Vasskollvatnet" />
		<tag k="natural" v="water" />
		<tag k="ssr:stedsnr" v="31391" />
		<tag k="water" v="lake" />
	</node>
	<node lat="67.59584444494077" lon="15.882836105168778" id="-20557">
		<tag k="name" v="Krågelva" />
		<tag k="ssr:stedsnr" v="31547" />
		<tag k="waterway" v="river" />
	</node>
	<node lat="67.54370000076827" lon="16.315197226939276" id="-20559">
		<tag k="name" v="Bajep Sårjåsjávrre" />
		<tag k="name:smj" v="Bajep Sårjåsjávrre" />
		<tag k="natural" v="water" />
		<tag k="ssr:stedsnr" v="44296" />
		<tag k="water" v="lake" />
	</node>
	<node lat="67.37620555191495" lon="16.03517499410654" id="-20568">
		<tag k="name" v="Luojdojåhkå" />
		<tag k="name:smj" v="Luojdojåhkå" />
		<tag k="old_name:smj" v="Loaiddojohka" />
		<tag k="ssr:stedsnr" v="77283" />
		<tag k="waterway" v="river" />
	</node>
	<node lat="67.46479948685135" lon="15.620241115245447" id="-20570">
		<tag k="name" v="Rismålsvatnet" />
		<tag k="natural" v="water" />
		<tag k="ssr:stedsnr" v="77531" />
		<tag k="water" v="lake" />
	</node>
	<node lat="67.55629999690882" lon="15.743644435352621" id="-20572">
		<tag k="name" v="Storvikelva" />
		<tag k="ssr:stedsnr" v="77676" />
		<tag k="waterway" v="stream" />
	</node>
	<node lat="67.67510833720925" lon="16.148027774810593" id="-20585">
		<tag k="name" v="Gamvatnet" />
		<tag k="natural" v="water" />
		<tag k="ssr:stedsnr" v="78498" />
	</node>
	<node lat="67.37205555892189" lon="15.555497228893957" id="-20642">
		<tag k="name" v="Øvre Fløttmannselv" />
		<tag k="ssr:stedsnr" v="91274" />
		<tag k="waterway" v="river" />
	</node>
	<node lat="67.5913138847998" lon="15.748505563728157" id="-20645">
		<tag k="name" v="Steinmofjellvatnet" />
		<tag k="natural" v="water" />
		<tag k="ssr:stedsnr" v="91291" />
		<tag k="water" v="lake" />
	</node>
	<node lat="67.62975832935655" lon="15.984105552747103" id="-20650">
		<tag k="name" v="Steinnes" />
		<tag k="natural" v="cape" />
		<tag k="ssr:stedsnr" v="92040" />
	</node>
	<node lat="67.59816944602129" lon="15.720566662094475" id="-20661">
		<tag k="name" v="Mølnfossen" />
		<tag k="natural" v="waterfall" />
		<tag k="ssr:stedsnr" v="92258" />
	</node>
	<node lat="67.63498888901803" lon="15.959836114607644" id="-20669">
		<tag k="name" v="Holmen" />
		<tag k="place" v="islet" />
		<tag k="ssr:stedsnr" v="92856" />
	</node>
	<node lat="67.37104166537694" lon="15.726263897030318" id="-20679">
		<tag k="name" v="Hanshansoodden" />
		<tag k="natural" v="cape" />
		<tag k="ssr:stedsnr" v="137240" />
	</node>
	<node lat="67.5634222241496" lon="16.176197227107036" id="-20698">
		<tag k="name" v="Småsjøan" />
		<tag k="natural" v="water" />
		<tag k="ssr:stedsnr" v="137635" />
		<tag k="water" v="lake" />
	</node>
	<node lat="67.39639166514525" lon="15.69834166999971" id="-20705">
		<tag k="name" v="Andkilforsen" />
		<tag k="place" v="locality" />
		<tag k="ssr:stedsnr" v="137958" />
	</node>
	<node lat="67.58318055480038" lon="15.744133331545868" id="-20715">
		<tag k="name" v="Tverrelva" />
		<tag k="ssr:stedsnr" v="138576" />
		<tag k="waterway" v="stream" />
	</node>
	<node lat="67.55734721816087" lon="15.533561104129411" id="-20719">
		<tag k="name" v="Svartvasselva" />
		<tag k="ssr:stedsnr" v="138967" />
		<tag k="waterway" v="stream" />
	</node>
	<node lat="67.41438889161694" lon="15.679102777116343" id="-20758">
		<tag k="name" v="Merrvatnet" />
		<tag k="natural" v="water" />
		<tag k="ssr:stedsnr" v="152245" />
		<tag k="water" v="lake" />
	</node>
	<node lat="67.57123888797271" lon="16.0623500068551" id="-20783">
		<tag k="name" v="Vuolep Giehtjejávrre" />
		<tag k="name:no" v="Vestre Kivatnan" />
		<tag k="name:smj" v="Vuolep Giehtjejávrre" />
		<tag k="natural" v="water" />
		<tag k="old_name:smj" v="Geahčejávri" />
		<tag k="ssr:stedsnr" v="179950" />
		<tag k="water" v="lake" />
	</node>
	<node lat="67.35367499982216" lon="16.129461105744525" id="-20789">
		<tag k="name" v="Kvitvassbukta" />
		<tag k="natural" v="bay" />
		<tag k="ssr:stedsnr" v="198249" />
	</node>
	<node lat="67.44763055294064" lon="15.570572228198268" id="-20792">
		<tag k="name" v="Einmoelva" />
		<tag k="ssr:stedsnr" v="198492" />
		<tag k="waterway" v="stream" />
	</node>
	<node lat="67.43798333079646" lon="15.67723056400715" id="-20798">
		<tag k="name" v="Innerelva" />
		<tag k="ssr:stedsnr" v="198551" />
		<tag k="waterway" v="river" />
	</node>
	<node lat="67.536888892168" lon="15.986955562629728" id="-20799">
		<tag k="name" v="Austervatnet" />
		<tag k="natural" v="water" />
		<tag k="ssr:stedsnr" v="198645" />
		<tag k="water" v="lake" />
	</node>
	<node lat="67.48305555527324" lon="15.843524988698787" id="-20802">
		<tag k="name" v="Sleipdalsvatnet" />
		<tag k="natural" v="water" />
		<tag k="ssr:stedsnr" v="198778" />
	</node>
	<node lat="67.56702500033416" lon="15.444949993961469" id="-20809">
		<tag k="name" v="Søråstjønna" />
		<tag k="natural" v="water" />
		<tag k="ssr:stedsnr" v="199987" />
	</node>
	<node lat="67.37315277509566" lon="15.63928610026902" id="-20815">
		<tag k="alt_name" v="Løynelva" />
		<tag k="name" v="Lønnelva" />
		<tag k="ssr:stedsnr" v="198990" />
		<tag k="waterway" v="stream" />
	</node>
	<node lat="67.77100555863258" lon="15.746099993499161" id="-20818">
		<tag k="name" v="Okslielva" />
		<tag k="ssr:stedsnr" v="199287" />
		<tag k="waterway" v="stream" />
	</node>
	<node lat="67.65937521247754" lon="15.774405645519462" id="-20819">
		<tag k="name" v="Ájdejávrre" />
		<tag k="name:no" v="Eiavatnet" />
		<tag k="name:smj" v="Ájdejávrre" />
		<tag k="natural" v="water" />
		<tag k="old_name:smj" v="Aidejávri" />
		<tag k="ssr:stedsnr" v="199495" />
		<tag k="water" v="lake" />
	</node>
	<node lat="67.69306388693803" lon="16.074505565217315" id="-20820">
		<tag k="name" v="Skarvatnet - Guovddelisjávrre" />
		<tag k="name:no" v="Skarvatnet" />
		<tag k="name:smj" v="Guovddelisjávrre" />
		<tag k="natural" v="water" />
		<tag k="old_name:smj" v="Guovdelisjávri" />
		<tag k="ssr:stedsnr" v="199517" />
	</node>
	<node lat="67.68497222305506" lon="16.11408889209801" id="-20821">
		<tag k="name" v="Gjerdalsvatnet - Jierddavuomjávrre" />
		<tag k="name:no" v="Gjerdalsvatnet" />
		<tag k="name:smj" v="Jierddavuomjávrre" />
		<tag k="natural" v="water" />
		<tag k="old_name:smj" v="Jierdavuomejávri" />
		<tag k="ssr:stedsnr" v="199528" />
		<tag k="water" v="lake" />
	</node>
	<node lat="67.52952500251838" lon="16.307591662117407" id="-20825">
		<tag k="name" v="Guovddelisjávrre" />
		<tag k="name:smj" v="Guovddelisjávrre" />
		<tag k="natural" v="water" />
		<tag k="old_name:smj" v="Guovdelasjávri" />
		<tag k="ssr:stedsnr" v="199746" />
	</node>
	<node lat="67.65225833652659" lon="15.628011114403034" id="-20830">
		<tag k="alt_name:no" v="Sommarfjellvatnan, vestre" />
		<tag k="name" v="Vestre Sommarfjellvatnan - Gambajávre" />
		<tag k="name:no" v="Vestre Sommarfjellvatnan" />
		<tag k="name:smj" v="Gambajávre" />
		<tag k="natural" v="water" />
		<tag k="old_name:smj" v="Gámbajávrrit" />
		<tag k="ssr:stedsnr" v="199927" />
		<tag k="water" v="lake" />
	</node>
	<node lat="67.61496388944343" lon="15.946733340232107" id="-20870">
		<tag k="name" v="Torelva" />
		<tag k="ssr:stedsnr" v="213939" />
		<tag k="waterway" v="river" />
	</node>
	<node lat="67.3474833354211" lon="15.576394444523753" id="-20873">
		<tag k="name" v="Grimselva" />
		<tag k="ssr:stedsnr" v="213212" />
		<tag k="waterway" v="river" />
	</node>
	<node lat="67.5970888869112" lon="15.921055543846435" id="-20879">
		<tag k="name" v="Olderøyelva" />
		<tag k="ssr:stedsnr" v="213599" />
		<tag k="waterway" v="river" />
	</node>
	<node lat="67.61371111051518" lon="15.721058332312355" id="-20894">
		<tag k="name" v="Skjellelva" />
		<tag k="ssr:stedsnr" v="213553" />
		<tag k="waterway" v="river" />
	</node>
	<node lat="67.5710611160397" lon="15.839213878168762" id="-20902">
		<tag k="name" v="Kjelvikelva" />
		<tag k="ssr:stedsnr" v="213864" />
		<tag k="waterway" v="river" />
	</node>
	<node lat="67.53251388728754" lon="15.47238055490387" id="-20905">
		<tag k="name" v="Holmen" />
		<tag k="place" v="islet" />
		<tag k="ssr:stedsnr" v="273344" />
	</node>
	<node lat="67.62970555149887" lon="15.988266676563628" id="-20915">
		<tag k="name" v="Hestfarbekken" />
		<tag k="ssr:stedsnr" v="274044" />
		<tag k="waterway" v="stream" />
	</node>
	<node lat="67.60528889231416" lon="15.719108335384913" id="-20922">
		<tag k="name" v="Røysnes" />
		<tag k="natural" v="cape" />
		<tag k="ssr:stedsnr" v="274530" />
	</node>
	<node lat="67.37946388716458" lon="15.816516665920114" id="-20937">
		<tag k="name" v="Ájvvojávrre" />
		<tag k="name:smj" v="Ájvvojávrre" />
		<tag k="natural" v="water" />
		<tag k="old_name:smj" v="Áivojávri" />
		<tag k="ssr:stedsnr" v="319277" />
	</node>
	<node lat="67.29102499722282" lon="16.24764443274269" id="-20945">
		<tag k="name" v="Leirvatnet" />
		<tag k="natural" v="water" />
		<tag k="ssr:stedsnr" v="320316" />
		<tag k="water" v="lake" />
	</node>
	<node lat="67.40128333282657" lon="15.622475006918535" id="-20948">
		<tag k="name" v="Eiterelva" />
		<tag k="ssr:stedsnr" v="319973" />
		<tag k="waterway" v="stream" />
	</node>
	<node lat="67.60397777664345" lon="15.635947231209512" id="-20959">
		<tag k="name" v="Austervatnan" />
		<tag k="natural" v="water" />
		<tag k="ssr:stedsnr" v="320890" />
		<tag k="water" v="lake" />
	</node>
	<node lat="67.61556388794214" lon="15.692038894589542" id="-20960">
		<tag k="name" v="Nattmålselva" />
		<tag k="ssr:stedsnr" v="320892" />
		<tag k="waterway" v="stream" />
	</node>
	<node lat="67.71636389316498" lon="15.652066672635064" id="-20965">
		<tag k="name" v="Dalvatnet" />
		<tag k="natural" v="water" />
		<tag k="ssr:stedsnr" v="320877" />
	</node>
	<node lat="67.5125722235796" lon="15.68188055504371" id="-21004">
		<tag k="name" v="Storelvvatnet" />
		<tag k="natural" v="water" />
		<tag k="ssr:stedsnr" v="329444" />
		<tag k="water" v="lake" />
	</node>
	<node lat="67.397133334003" lon="15.65022776985341" id="-21006">
		<tag k="name" v="Litlevatnet" />
		<tag k="natural" v="water" />
		<tag k="ssr:stedsnr" v="334174" />
		<tag k="water" v="lake" />
	</node>
	<node lat="67.37266111177752" lon="15.55756111184938" id="-21015">
		<tag k="name" v="Nedre Fløttmannselv" />
		<tag k="ssr:stedsnr" v="334239" />
		<tag k="waterway" v="river" />
	</node>
	<node lat="67.37532500113734" lon="15.634427786040328" id="-21022">
		<tag k="name" v="Gardselva" />
		<tag k="ssr:stedsnr" v="334284" />
		<tag k="waterway" v="river" />
	</node>
	<node lat="67.5757083344304" lon="15.768666663666414" id="-21029">
		<tag k="name" v="Uttielva" />
		<tag k="ssr:stedsnr" v="334415" />
		<tag k="waterway" v="river" />
	</node>
	<node lat="67.46065000347636" lon="15.470772223485772" id="-21031">
		<tag k="name" v="Mølnelva" />
		<tag k="ssr:stedsnr" v="334537" />
		<tag k="waterway" v="river" />
	</node>
	<node lat="67.62870833514076" lon="15.932516662013581" id="-21037">
		<tag k="name" v="Reitan" />
		<tag k="natural" v="beach" />
		<tag k="ssr:stedsnr" v="334892" />
	</node>
	<node lat="67.47586111425002" lon="15.688850003699766" id="-21044">
		<tag k="name" v="Akselvatnet" />
		<tag k="natural" v="water" />
		<tag k="ssr:stedsnr" v="379584" />
	</node>
	<node lat="67.44780000301023" lon="15.866950007037534" id="-21049">
		<tag k="name" v="Helligholet" />
		<tag k="natural" v="water" />
		<tag k="ssr:stedsnr" v="379789" />
	</node>
	<node lat="67.58627222090206" lon="15.73000278066172" id="-21055">
		<tag k="name" v="Tjønna" />
		<tag k="natural" v="water" />
		<tag k="ssr:stedsnr" v="380638" />
	</node>
	<node lat="67.63815000059918" lon="15.204286119339459" id="-21056">
		<tag k="name" v="Øvervatnet" />
		<tag k="natural" v="water" />
		<tag k="ssr:stedsnr" v="380035" />
	</node>
	<node lat="67.35214444832411" lon="16.145591656451497" id="-21062">
		<tag k="name" v="Kvitvasselva" />
		<tag k="ssr:stedsnr" v="380334" />
		<tag k="waterway" v="river" />
	</node>
	<node lat="67.53142499908303" lon="15.87276944933796" id="-21065">
		<tag k="name" v="Sørsvadvatnet" />
		<tag k="natural" v="water" />
		<tag k="ssr:stedsnr" v="380688" />
		<tag k="water" v="lake" />
	</node>
	<node lat="67.56180833368227" lon="15.78877777482295" id="-21070">
		<tag k="alt_name" v="Kjelvikvatnet, yt" />
		<tag k="fixme" v="multiple name tags, choose one and add the other to alt_name" />
		<tag k="name" v="Kjeldvikvatnet;Ytre Kjelvikvatnet" />
		<tag k="natural" v="water" />
		<tag k="ssr:stedsnr" v="380701" />
	</node>
	<node lat="67.47944999709752" lon="15.936030542895834" id="-21071">
		<tag k="name" v="Vervatnet" />
		<tag k="natural" v="water" />
		<tag k="ssr:stedsnr" v="380798" />
	</node>
	<node lat="67.61604166886512" lon="15.68222223317707" id="-21073">
		<tag k="name" v="Eiterelva" />
		<tag k="ssr:stedsnr" v="380881" />
		<tag k="waterway" v="stream" />
	</node>
	<node lat="67.40238610912412" lon="15.675930556560957" id="-21076">
		<tag k="name" v="Tørrfjordelva" />
		<tag k="ssr:stedsnr" v="380950" />
		<tag k="waterway" v="river" />
	</node>
	<node lat="67.63788889034338" lon="16.022499992754188" id="-21135">
		<tag k="name" v="Nytmarkbekken" />
		<tag k="ssr:stedsnr" v="395066" />
		<tag k="waterway" v="stream" />
	</node>
	<node lat="67.59140833721959" lon="15.835516674495192" id="-21142">
		<tag k="name" v="Geitdalelva" />
		<tag k="ssr:stedsnr" v="395542" />
		<tag k="waterway" v="river" />
	</node>
	<node lat="67.61561111022831" lon="15.724152769346471" id="-21154">
		<tag k="name" v="Tjukkskogvadet" />
		<tag k="natural" v="shoal" />
		<tag k="place" v="locality" />
		<tag k="ssr:stedsnr" v="395522" />
	</node>
	<node lat="67.56882222316621" lon="16.07590832926465" id="-21159">
		<tag k="name" v="Alep Giehtjejávrre" />
		<tag k="name:no" v="Austre Kivatnan" />
		<tag k="name:smj" v="Alep Giehtjejávrre" />
		<tag k="natural" v="water" />
		<tag k="old_name:smj" v="Geahčejávri" />
		<tag k="ssr:stedsnr" v="402724" />
		<tag k="water" v="lake" />
	</node>
	<node lat="67.54574166577717" lon="15.661013891061042" id="-21161">
		<tag k="name" v="Elva" />
		<tag k="ssr:stedsnr" v="407812" />
		<tag k="waterway" v="stream" />
	</node>
	<node lat="67.49139281976045" lon="16.0394173833834" id="-21164">
		<tag k="name" v="Trolldalselva" />
		<tag k="ssr:stedsnr" v="441329" />
		<tag k="waterway" v="river" />
	</node>
	<node lat="67.4939361084896" lon="15.803780555035436" id="-21165">
		<tag k="name" v="Langvasselva" />
		<tag k="ssr:stedsnr" v="441333" />
		<tag k="waterway" v="river" />
	</node>
	<node lat="67.77634166909854" lon="15.779502766790829" id="-21196">
		<tag k="name" v="Storvatnet" />
		<tag k="natural" v="water" />
		<tag k="ssr:stedsnr" v="442233" />
		<tag k="water" v="lake" />
	</node>
	<node lat="67.63123333622649" lon="15.416099997833836" id="-21202">
		<tag k="name" v="Heimerhammaren" />
		<tag k="natural" v="cape" />
		<tag k="ssr:stedsnr" v="442927" />
	</node>
	<node lat="67.64988611306998" lon="15.646555559650128" id="-21203">
		<tag k="alt_name" v="Sommarfjellvatnan, austre" />
		<tag k="name" v="Austre Sommarfjellvatnan" />
		<tag k="natural" v="water" />
		<tag k="ssr:stedsnr" v="442930" />
		<tag k="water" v="lake" />
	</node>
	<node lat="67.37992500116276" lon="15.83496110315983" id="-21244">
		<tag k="name" v="Skrømthellarvatnan" />
		<tag k="natural" v="water" />
		<tag k="ssr:stedsnr" v="501266" />
	</node>
	<node lat="67.48811388721055" lon="15.258819452869265" id="-21246">
		<tag k="name" v="Litlvatnet" />
		<tag k="natural" v="water" />
		<tag k="ssr:stedsnr" v="501541" />
	</node>
	<node lat="67.44221944138972" lon="15.65945554347713" id="-21251">
		<tag k="name" v="Tverrelva" />
		<tag k="ssr:stedsnr" v="501493" />
		<tag k="waterway" v="stream" />
	</node>
	<node lat="67.48529444817126" lon="15.077980545336171" id="-21255">
		<tag k="name" v="Sørkråvatnet" />
		<tag k="natural" v="water" />
		<tag k="ssr:stedsnr" v="501657" />
	</node>
	<node lat="67.77190833499722" lon="15.804947217554425" id="-21269">
		<tag k="name" v="Litlvatnet" />
		<tag k="natural" v="water" />
		<tag k="ssr:stedsnr" v="502254" />
	</node>
	<node lat="67.43106111509782" lon="15.457736104128333" id="-21271">
		<tag k="name" v="Knubbvatnet" />
		<tag k="natural" v="water" />
		<tag k="ssr:stedsnr" v="502552" />
	</node>
	<node lat="67.56438610866122" lon="15.597366673061016" id="-21279">
		<tag k="name" v="Kobbevatnan" />
		<tag k="natural" v="water" />
		<tag k="ssr:stedsnr" v="502968" />
		<tag k="water" v="lake" />
	</node>
	<node lat="67.58220277585953" lon="15.741277783620905" id="-21320">
		<tag k="name" v="Storfossen" />
		<tag k="natural" v="waterfall" />
		<tag k="ssr:stedsnr" v="516312" />
	</node>
	<node lat="67.46161944335144" lon="15.567199987857983" id="-21343">
		<tag k="name" v="Kvarvelva" />
		<tag k="ssr:stedsnr" v="561522" />
		<tag k="waterway" v="stream" />
	</node>
	<node lat="67.75610000208053" lon="15.954455560512896" id="-21355">
		<tag k="name" v="Tjierregjávrre" />
		<tag k="name:no" v="Tennvatnet" />
		<tag k="name:smj" v="Tjierregjávrre" />
		<tag k="natural" v="water" />
		<tag k="old_name:smj" v="Čierregjavri" />
		<tag k="ssr:stedsnr" v="562227" />
		<tag k="water" v="lake" />
	</node>
	<node lat="67.75387778102353" lon="15.909038893584693" id="-21356">
		<tag k="name" v="Áhkájávrre" />
		<tag k="name:no" v="Kjerringvatnet" />
		<tag k="name:smj" v="Áhkájávrre" />
		<tag k="natural" v="water" />
		<tag k="old_name:smj" v="Ahkajávri" />
		<tag k="ssr:stedsnr" v="562228" />
		<tag k="water" v="lake" />
	</node>
	<node lat="67.32957221985838" lon="16.106563898517543" id="-21358">
		<tag k="name" v="Kvitvatnet" />
		<tag k="natural" v="water" />
		<tag k="ssr:stedsnr" v="562276" />
		<tag k="water" v="lake" />
	</node>
	<node lat="67.30941666397757" lon="16.109574987891484" id="-21359">
		<tag k="name" v="Messingmalmvatnan" />
		<tag k="natural" v="water" />
		<tag k="ssr:stedsnr" v="562280" />
		<tag k="water" v="lake" />
	</node>
	<node lat="67.44410277425614" lon="15.428099996991712" id="-21361">
		<tag k="name" v="Holmvatnet" />
		<tag k="natural" v="water" />
		<tag k="ssr:stedsnr" v="562501" />
	</node>
	<node lat="67.43488611169715" lon="15.492958328486967" id="-21374">
		<tag k="name" v="Kineselva" />
		<tag k="ssr:stedsnr" v="562550" />
		<tag k="waterway" v="stream" />
	</node>
	<node lat="67.43428889234336" lon="15.560655564962858" id="-21376">
		<tag k="name" v="Gyltvikvatnet" />
		<tag k="natural" v="water" />
		<tag k="ssr:stedsnr" v="562559" />
		<tag k="water" v="lake" />
	</node>
	<node lat="67.46467499703611" lon="15.116452766277241" id="-21379">
		<tag k="name" v="Einarvikelva" />
		<tag k="ssr:stedsnr" v="562661" />
		<tag k="waterway" v="stream" />
	</node>
	<node lat="67.48778888437775" lon="15.92116111625657" id="-21383">
		<tag k="name" v="Rundvatnet" />
		<tag k="natural" v="water" />
		<tag k="ssr:stedsnr" v="562774" />
	</node>
	<node lat="67.48599721974588" lon="15.894641667576341" id="-21384">
		<tag k="name" v="Nilsvatnet" />
		<tag k="natural" v="water" />
		<tag k="ssr:stedsnr" v="562776" />
	</node>
	<node lat="67.48285833668385" lon="16.09432222738315" id="-21386">
		<tag k="name" v="Snøtoppvatnan" />
		<tag k="natural" v="water" />
		<tag k="ssr:stedsnr" v="562783" />
		<tag k="water" v="lake" />
	</node>
	<node lat="67.61889444577241" lon="15.565863895784204" id="-21397">
		<tag k="name" v="Sørbotnelva" />
		<tag k="ssr:stedsnr" v="562907" />
		<tag k="waterway" v="stream" />
	</node>
	<node lat="67.56223888723865" lon="15.447038876804179" id="-21404">
		<tag k="name" v="Litlvatnet" />
		<tag k="natural" v="water" />
		<tag k="ssr:stedsnr" v="562959" />
	</node>
	<node lat="67.60352282569323" lon="15.85320647400388" id="-21408">
		<tag k="name" v="Kalvskinnvatnet" />
		<tag k="natural" v="water" />
		<tag k="ssr:stedsnr" v="563598" />
	</node>
	<node lat="67.64338055486863" lon="15.996855560475861" id="-21409">
		<tag k="alt_name" v="Gjerfallforsen" />
		<tag k="name" v="Gjerfallet" />
		<tag k="natural" v="waterfall" />
		<tag k="ssr:stedsnr" v="563605" />
	</node>
	<node lat="67.54272499636039" lon="16.267583325314796" id="-21411">
		<tag k="name" v="Sårjåsjåhkå" />
		<tag k="name:smj" v="Sårjåsjåhkå" />
		<tag k="old_name:smj" v="Sorjjasjohka" />
		<tag k="ssr:stedsnr" v="563757" />
		<tag k="waterway" v="stream" />
	</node>
	<node lat="67.63195555948082" lon="15.95503333087658" id="-21477">
		<tag k="name" v="Moneset" />
		<tag k="natural" v="cape" />
		<tag k="ssr:stedsnr" v="577890" />
	</node>
	<node lat="67.41248333528053" lon="15.522838897406537" id="-21491">
		<tag k="name" v="Mølnelva" />
		<tag k="ssr:stedsnr" v="622948" />
		<tag k="waterway" v="stream" />
	</node>
	<node lat="67.35196666401312" lon="15.56810832689793" id="-21492">
		<tag k="alt_name" v="Lakselv" />
		<tag k="name" v="Lakselva" />
		<tag k="ssr:stedsnr" v="623336" />
		<tag k="waterway" v="river" />
	</node>
	<node lat="67.39059444155048" lon="15.498188893890514" id="-21510">
		<tag k="name" v="Mølnvatnet" />
		<tag k="natural" v="water" />
		<tag k="ssr:stedsnr" v="623979" />
	</node>
	<node lat="67.63050278077179" lon="15.981600000789625" id="-21555">
		<tag k="name" v="Brennhaugvika" />
		<tag k="natural" v="bay" />
		<tag k="ssr:stedsnr" v="637039" />
	</node>
	<node lat="67.37106944167968" lon="15.544336098369907" id="-21569">
		<tag k="name" v="Mølnelva" />
		<tag k="ssr:stedsnr" v="637293" />
		<tag k="waterway" v="river" />
	</node>
	<node lat="67.6096499989328" lon="15.720744449640758" id="-21577">
		<tag k="name" v="Trongfossen" />
		<tag k="natural" v="waterfall" />
		<tag k="ssr:stedsnr" v="637552" />
	</node>
	<node lat="67.63272221975653" lon="15.953188886124433" id="-21582">
		<tag k="name" v="Moosen" />
		<tag k="natural" v="bay" />
		<tag k="ssr:stedsnr" v="637872" />
	</node>
	<node lat="67.43464444432345" lon="15.894569443466983" id="-21590">
		<tag k="name" v="Storbukta" />
		<tag k="natural" v="bay" />
		<tag k="ssr:stedsnr" v="744197" />
	</node>
	<node lat="67.3417249985812" lon="15.988838896048735" id="-21596">
		<tag k="name" v="Veiskiforsen" />
		<tag k="natural" v="waterfall" />
		<tag k="ssr:stedsnr" v="744240" />
	</node>
	<node lat="67.44798611112401" lon="15.539147231100213" id="-21605">
		<tag k="alt_name" v="Litlvatnet" />
		<tag k="name" v="Lillevatnet" />
		<tag k="natural" v="water" />
		<tag k="ssr:stedsnr" v="744461" />
	</node>
	<node lat="67.60367778187873" lon="15.984119450646702" id="-21607">
		<tag k="name" v="Skotnesodden" />
		<tag k="natural" v="cape" />
		<tag k="ssr:stedsnr" v="744544" />
	</node>
	<node lat="67.46826110806799" lon="15.590402767073803" id="-21609">
		<tag k="alt_name" v="Rismålsforsen" />
		<tag k="name" v="Rismålsfossen" />
		<tag k="natural" v="waterfall" />
		<tag k="ssr:stedsnr" v="744558" />
	</node>
	<node lat="67.46304166581129" lon="15.452452767127545" id="-21611">
		<tag k="name" v="Lomtjønna" />
		<tag k="natural" v="water" />
		<tag k="ssr:stedsnr" v="744565" />
	</node>
	<node lat="67.54901111104103" lon="15.97335000750342" id="-21612">
		<tag k="name" v="Nordvatnet" />
		<tag k="natural" v="water" />
		<tag k="ssr:stedsnr" v="744633" />
	</node>
	<node lat="67.36146388692097" lon="15.490177784587585" id="-21616">
		<tag k="name" v="Reipelva" />
		<tag k="ssr:stedsnr" v="744873" />
		<tag k="waterway" v="stream" />
	</node>
	<node lat="67.49842500141004" lon="15.779799995030084" id="-21621">
		<tag k="name" v="Hierggejávrre" />
		<tag k="name:smj" v="Hierggejávrre" />
		<tag k="old_name:smj" v="Heargejávri" />
		<tag k="ssr:stedsnr" v="744748" />
		<tag k="waterway" v="stream" />
	</node>
	<node lat="67.48952777991435" lon="15.78171944652932" id="-21622">
		<tag k="name" v="Langvassbukta" />
		<tag k="natural" v="bay" />
		<tag k="ssr:stedsnr" v="744753" />
	</node>
	<node lat="67.46873888530652" lon="15.957105544219072" id="-21624">
		<tag k="name" v="Trollneset" />
		<tag k="natural" v="cape" />
		<tag k="ssr:stedsnr" v="744764" />
	</node>
	<node lat="67.4748861141389" lon="16.00620278499985" id="-21626">
		<tag k="name" v="Nordkråga" />
		<tag k="natural" v="bay" />
		<tag k="ssr:stedsnr" v="744769" />
	</node>
	<node lat="67.38446388939988" lon="15.646586109834393" id="-21632">
		<tag k="alt_name" v="Trolldalsvatnet" />
		<tag k="name" v="Trolldalvatnet" />
		<tag k="natural" v="water" />
		<tag k="ssr:stedsnr" v="744967" />
	</node>
	<node lat="67.55683332967695" lon="15.446291665893385" id="-21645">
		<tag k="name" v="Litlvasselva" />
		<tag k="ssr:stedsnr" v="745994" />
		<tag k="waterway" v="stream" />
	</node>
	<node lat="67.36821111263214" lon="15.633686115328347" id="-21699">
		<tag k="name" v="Lilleosen" />
		<tag k="natural" v="bay" />
		<tag k="ssr:stedsnr" v="759261" />
	</node>
	<node lat="67.47853610978494" lon="15.465163895688912" id="-21701">
		<tag k="name" v="Febekken" />
		<tag k="ssr:stedsnr" v="759367" />
		<tag k="waterway" v="stream" />
	</node>
	<node lat="67.58678611427163" lon="15.77014167042406" id="-21702">
		<tag k="name" v="Kvanntoelva" />
		<tag k="ssr:stedsnr" v="759373" />
		<tag k="waterway" v="river" />
	</node>
	<node lat="67.59254721938213" lon="15.881969441148467" id="-21717">
		<tag k="name" v="Kroken" />
		<tag k="natural" v="bay" />
		<tag k="ssr:stedsnr" v="759588" />
	</node>
	<node lat="67.37035833509417" lon="15.538791662954596" id="-21720">
		<tag k="name" v="Mølnelva" />
		<tag k="ssr:stedsnr" v="759726" />
		<tag k="waterway" v="river" />
	</node>
	<node lat="67.36203055748653" lon="15.799474996550805" id="-21733">
		<tag k="name" v="Austrekrågforsen" />
		<tag k="natural" v="waterfall" />
		<tag k="ssr:stedsnr" v="805254" />
	</node>
	<node lat="67.32198611495062" lon="15.95714167371586" id="-21735">
		<tag k="name" v="Rundvassstraumen" />
		<tag k="place" v="locality" />
		<tag k="ssr:stedsnr" v="805280" />
	</node>
	<node lat="67.36747500275604" lon="15.639852783660325" id="-21736">
		<tag k="name" v="Mølnelva" />
		<tag k="ssr:stedsnr" v="805326" />
		<tag k="waterway" v="stream" />
	</node>
	<node lat="67.45369166218225" lon="15.339038892440785" id="-21740">
		<tag k="name" v="Brannvatnet" />
		<tag k="natural" v="water" />
		<tag k="ssr:stedsnr" v="805530" />
	</node>
	<node lat="67.43238333469388" lon="15.561544436911229" id="-21743">
		<tag k="name" v="Vassnes" />
		<tag k="natural" v="cape" />
		<tag k="ssr:stedsnr" v="805538" />
	</node>
	<node lat="67.47419999870709" lon="15.744336115364161" id="-21747">
		<tag k="name" v="Låddejávrre" />
		<tag k="name:no" v="Faulvatnet" />
		<tag k="name:smj" v="Låddejávrre" />
		<tag k="natural" v="water" />
		<tag k="old_name:smj" v="Loddejávri" />
		<tag k="ssr:stedsnr" v="805603" />
		<tag k="water" v="lake" />
	</node>
	<node lat="67.48560000303692" lon="15.609724988883704" id="-21749">
		<tag k="name" v="Mølnelva" />
		<tag k="ssr:stedsnr" v="805618" />
		<tag k="waterway" v="stream" />
	</node>
	<node lat="67.48728333741687" lon="15.793705563578946" id="-21763">
		<tag k="name" v="Langodden" />
		<tag k="natural" v="cape" />
		<tag k="ssr:stedsnr" v="805769" />
	</node>
	<node lat="67.48031111182812" lon="15.910105547735176" id="-21764">
		<tag k="name" v="Hestskovatnet" />
		<tag k="natural" v="water" />
		<tag k="ssr:stedsnr" v="805774" />
	</node>
	<node lat="67.47871389326421" lon="15.73416110757414" id="-21765">
		<tag k="name" v="Skogholmen" />
		<tag k="place" v="islet" />
		<tag k="ssr:stedsnr" v="805780" />
	</node>
	<node lat="67.30318889264186" lon="15.680730549579362" id="-21772">
		<tag k="name" v="Brennaelva" />
		<tag k="ssr:stedsnr" v="805836" />
		<tag k="waterway" v="stream" />
	</node>
	<node lat="67.35228333528333" lon="15.547888891524405" id="-21773">
		<tag k="alt_name" v="Litlvatnet" />
		<tag k="name" v="Lillevatnet" />
		<tag k="natural" v="water" />
		<tag k="ssr:stedsnr" v="805874" />
	</node>
	<node lat="67.35610555491044" lon="15.620755547779615" id="-21774">
		<tag k="name" v="Rønnelva" />
		<tag k="ssr:stedsnr" v="805891" />
		<tag k="waterway" v="stream" />
	</node>
	<node lat="67.5516083300967" lon="16.351733328207462" id="-21778">
		<tag k="name" v="Hurrejávrre" />
		<tag k="name:smj" v="Hurrejávrre" />
		<tag k="natural" v="water" />
		<tag k="old_name:smj" v="Hurrejávrrážat" />
		<tag k="ssr:stedsnr" v="806752" />
		<tag k="water" v="lake" />
	</node>
	<node lat="67.66601111323062" lon="16.027149999443914" id="-21780">
		<tag k="name" v="Dettforsen" />
		<tag k="natural" v="waterfall" />
		<tag k="ssr:stedsnr" v="806490" />
	</node>
	<node lat="67.6738138882718" lon="16.064044445764367" id="-21781">
		<tag k="name" v="Raukforsen" />
		<tag k="natural" v="waterfall" />
		<tag k="ssr:stedsnr" v="806492" />
	</node>
	<node lat="67.58232222078858" lon="16.186038895762707" id="-21784">
		<tag k="alt_name:no" v="Veikvatnet, øvre" />
		<tag k="name" v="Øvre Veikvatnet - Bajep Viejekjávrre" />
		<tag k="name:no" v="Øvre Veikvatnet" />
		<tag k="name:smj" v="Bajep Viejekjávrre" />
		<tag k="natural" v="water" />
		<tag k="old_name:smj" v="Veajekajávri bajit" />
		<tag k="ssr:stedsnr" v="806550" />
		<tag k="water" v="lake" />
	</node>
	<node lat="67.61499444771596" lon="15.954363888381987" id="-21787">
		<tag k="name" v="Storvika" />
		<tag k="natural" v="bay" />
		<tag k="ssr:stedsnr" v="806590" />
	</node>
	<node lat="67.53531389150203" lon="15.491819438774682" id="-21796">
		<tag k="name" v="Litltjønna" />
		<tag k="natural" v="water" />
		<tag k="ssr:stedsnr" v="806943" />
	</node>
	<node lat="67.55056666866118" lon="15.514738894293032" id="-21797">
		<tag k="name" v="Skarvatnet" />
		<tag k="natural" v="water" />
		<tag k="ssr:stedsnr" v="807000" />
		<tag k="water" v="lake" />
	</node>
	<node lat="67.43631388495474" lon="15.942052777203942" id="-21883">
		<tag k="name" v="Sølvskarvatnan" />
		<tag k="natural" v="water" />
		<tag k="ssr:stedsnr" v="865295" />
		<tag k="water" v="lake" />
	</node>
	<node lat="67.44374722645364" lon="15.892944433708589" id="-21891">
		<tag k="name" v="Nerdresølvskarvatnan" />
		<tag k="natural" v="water" />
		<tag k="ssr:stedsnr" v="865806" />
	</node>
	<node lat="67.4490777776352" lon="15.867861102827064" id="-21892">
		<tag k="name" v="Helligforsen" />
		<tag k="natural" v="waterfall" />
		<tag k="ssr:stedsnr" v="865808" />
	</node>
	<node lat="67.35351111278311" lon="16.067919445860458" id="-21902">
		<tag k="alt_name:no" v="Veiskivatnet, nedre" />
		<tag k="name" v="Nedre Veiskivatnet - Viejkegjávrre" />
		<tag k="name:no" v="Nedre Veiskivatnet" />
		<tag k="name:smj" v="Viejkegjávrre" />
		<tag k="natural" v="water" />
		<tag k="old_name:smj" v="Veaikkekjávri" />
		<tag k="ssr:stedsnr" v="866263" />
		<tag k="water" v="lake" />
	</node>
	<node lat="67.36663611286288" lon="16.18176666944064" id="-21903">
		<tag k="alt_name" v="Veiskivatnet, øvre" />
		<tag k="name" v="Øvre Veiskivatnet" />
		<tag k="natural" v="water" />
		<tag k="ssr:stedsnr" v="866268" />
	</node>
	<node lat="67.44490278067326" lon="15.353261117126229" id="-21905">
		<tag k="name" v="Skarvatnet" />
		<tag k="natural" v="water" />
		<tag k="ssr:stedsnr" v="866477" />
	</node>
	<node lat="67.41543055801235" lon="15.615122217406753" id="-21916">
		<tag k="name" v="Slåttvikelva" />
		<tag k="ssr:stedsnr" v="866521" />
		<tag k="waterway" v="stream" />
	</node>
	<node lat="67.26733888981832" lon="15.601680546364472" id="-21919">
		<tag k="name" v="Nevervatnet - Bæssásjjávrre" />
		<tag k="name:no" v="Nevervatnet" />
		<tag k="name:smj" v="Bæssásjjávrre" />
		<tag k="natural" v="water" />
		<tag k="old_name:smj" v="Beassisjávri" />
		<tag k="ssr:stedsnr" v="866749" />
		<tag k="water" v="lake" />
	</node>
	<node lat="67.63389722632306" lon="15.467402776292623" id="-21931">
		<tag k="name" v="Gaskanjárga" />
		<tag k="natural" v="cape" />
		<tag k="ssr:stedsnr" v="866869" />
	</node>
	<node lat="67.5692777741745" lon="16.068508340508703" id="-21984">
		<tag k="name" v="Kivatnan" />
		<tag k="natural" v="water" />
		<tag k="ssr:stedsnr" v="875998" />
		<tag k="water" v="lake" />
	</node>
	<node lat="67.61252777621257" lon="15.724413882595705" id="-22003">
		<tag k="name" v="Eidismofossen" />
		<tag k="natural" v="waterfall" />
		<tag k="ssr:stedsnr" v="881493" />
	</node>
	<node lat="67.46738611290738" lon="15.585897224671875" id="-22014">
		<tag k="name" v="Mølnfossen" />
		<tag k="natural" v="waterfall" />
		<tag k="ssr:stedsnr" v="941146" />
	</node>
	<node lat="67.37350555637829" lon="15.543313880248952" id="-22020">
		<tag k="name" v="Gardselva" />
		<tag k="ssr:stedsnr" v="941246" />
		<tag k="waterway" v="river" />
	</node>
</osm>
