<?xml version="1.0" encoding="UTF-8"?>
<<<<<<< HEAD
<osm version="0.6" generator="osmapis">
	<node lat="67.45067500097919" lon="15.475683337121197" id="-12043">
		<tag k="name" v="Åkervika" />
		<tag k="natural" v="bay" />
		<tag k="ssr:stedsnr" v="16475" />
	</node>
	<node lat="67.43770833311177" lon="15.49717500835341" id="-12044">
		<tag k="name" v="Kines" />
		<tag k="natural" v="cape" />
		<tag k="ssr:stedsnr" v="16525" />
	</node>
	<node lat="67.36820278174591" lon="15.628374995899406" id="-12056">
		<tag k="name" v="Rebåsnes" />
		<tag k="natural" v="cape" />
		<tag k="ssr:stedsnr" v="16881" />
	</node>
	<node lat="67.57310000201082" lon="15.828933332451896" id="-12064">
		<tag k="alt_name" v="Kjelvika" />
		<tag k="name" v="Kjelvikbukta" />
		<tag k="natural" v="bay" />
		<tag k="ssr:stedsnr" v="17719" />
	</node>
	<node lat="67.61194722446821" lon="15.382624989609543" id="-12067">
		<tag k="name" v="Snagodden" />
		<tag k="natural" v="cape" />
		<tag k="ssr:stedsnr" v="17903" />
	</node>
	<node lat="67.63543333068777" lon="15.27460000911111" id="-12073">
		<tag k="name" v="Movika" />
		<tag k="natural" v="bay" />
		<tag k="ssr:stedsnr" v="17953" />
	</node>
	<node lat="67.53103888474142" lon="15.350816661312301" id="-12074">
		<tag k="name" v="Matvika" />
		<tag k="natural" v="bay" />
		<tag k="ssr:stedsnr" v="17956" />
	</node>
	<node lat="67.4977944460314" lon="15.24870832745376" id="-12075">
		<tag k="name" v="Oddan" />
		<tag k="natural" v="cape" />
		<tag k="ssr:stedsnr" v="20005" />
	</node>
	<node lat="67.70403610714877" lon="15.844863896096623" id="-12078">
		<tag k="name" v="Hellarnesodden" />
		<tag k="natural" v="cape" />
		<tag k="ssr:stedsnr" v="21146" />
	</node>
	<node lat="67.5793083357258" lon="15.437427782502846" id="-12084">
		<tag k="name" v="Røyrvika" />
		<tag k="natural" v="bay" />
		<tag k="ssr:stedsnr" v="21686" />
	</node>
	<node lat="67.52278888716103" lon="15.545427783253144" id="-12088">
		<tag k="name" v="Inner-Naustvika" />
		<tag k="natural" v="bay" />
		<tag k="ssr:stedsnr" v="21828" />
	</node>
	<node lat="67.57336667094047" lon="15.757183325579534" id="-12109">
		<tag k="name" v="Isspjøtvika" />
		<tag k="natural" v="bay" />
		<tag k="ssr:stedsnr" v="31410" />
	</node>
	<node lat="67.575005554477" lon="15.778625000160977" id="-12110">
		<tag k="name" v="Kolgrøvnes" />
		<tag k="natural" v="cape" />
		<tag k="ssr:stedsnr" v="31419" />
	</node>
	<node lat="67.57440833666867" lon="15.772711111494287" id="-12111">
		<tag k="name" v="Naustmesodden" />
		<tag k="natural" v="cape" />
		<tag k="ssr:stedsnr" v="31422" />
	</node>
	<node lat="67.51141110819769" lon="15.514849991089752" id="-12122">
		<tag k="fixme" v="consider seamark:type=rock or natural=shoal" />
		<tag k="name" v="Litleskjæret" />
		<tag k="place" v="islet" />
		<tag k="ssr:stedsnr" v="43575" />
	</node>
	<node lat="67.4718555534047" lon="15.555180542900652" id="-12126">
		<tag k="name" v="Storneseodden" />
		<tag k="natural" v="cape" />
		<tag k="ssr:stedsnr" v="76613" />
	</node>
	<node lat="67.49306110842019" lon="15.54198055903608" id="-12136">
		<tag k="name" v="Stornesodden" />
		<tag k="natural" v="cape" />
		<tag k="ssr:stedsnr" v="77606" />
	</node>
	<node lat="67.61535833272829" lon="15.381480544005575" id="-12147">
		<tag k="name" v="Trollvika" />
		<tag k="natural" v="bay" />
		<tag k="ssr:stedsnr" v="78944" />
	</node>
	<node lat="67.58585000012363" lon="15.212522210571338" id="-12155">
		<tag k="name" v="Skålbergan" />
		<tag k="natural" v="cape" />
		<tag k="ssr:stedsnr" v="82007" />
	</node>
	<node lat="67.5200833362465" lon="15.541480559827795" id="-12161">
		<tag k="name" v="Ytter-Naustvika" />
		<tag k="natural" v="bay" />
		<tag k="ssr:stedsnr" v="82840" />
	</node>
	<node lat="67.3561000033287" lon="15.586127781824302" id="-12180">
		<tag k="name" v="Trollbukta" />
		<tag k="natural" v="bay" />
		<tag k="ssr:stedsnr" v="104193" />
	</node>
	<node lat="67.41543333154368" lon="15.528247210096561" id="-12181">
		<tag k="name" v="Mølnneset" />
		<tag k="natural" v="cape" />
		<tag k="ssr:stedsnr" v="104878" />
	</node>
	<node lat="67.6265888898621" lon="15.327844443358941" id="-12182">
		<tag k="name" v="Inner-Ungsmalvika" />
		<tag k="natural" v="bay" />
		<tag k="ssr:stedsnr" v="113314" />
	</node>
	<node lat="67.49118889036306" lon="15.226461112840665" id="-12214">
		<tag k="name" v="Skolpbakken" />
		<tag k="natural" v="beach" />
		<tag k="ssr:stedsnr" v="141037" />
	</node>
	<node lat="67.62751111505865" lon="15.241508337637367" id="-12235">
		<tag k="name" v="Toffelvika" />
		<tag k="natural" v="bay" />
		<tag k="ssr:stedsnr" v="142980" />
	</node>
	<node lat="67.62882222567475" lon="15.248077784688949" id="-12236">
		<tag k="name" v="Finnvika" />
		<tag k="natural" v="bay" />
		<tag k="ssr:stedsnr" v="142981" />
	</node>
	<node lat="67.40575555432595" lon="15.64065278619246" id="-12243">
		<tag k="name" v="Hamnvikneset" />
		<tag k="natural" v="cape" />
		<tag k="ssr:stedsnr" v="152201" />
	</node>
	<node lat="67.36501111518375" lon="15.588880566949685" id="-12244">
		<tag k="name" v="Valnes" />
		<tag k="natural" v="cape" />
		<tag k="ssr:stedsnr" v="152352" />
	</node>
	<node lat="67.48629166852925" lon="15.454941666799238" id="-12245">
		<tag k="name" v="Knektvika" />
		<tag k="natural" v="bay" />
		<tag k="ssr:stedsnr" v="152401" />
	</node>
	<node lat="67.4717694416421" lon="15.640505553153403" id="-12255">
		<tag k="name" v="Nordbotn" />
		<tag k="natural" v="bay" />
		<tag k="ssr:stedsnr" v="258599" />
	</node>
	<node lat="67.5982527821536" lon="15.215613890811344" id="-12259">
		<tag k="name" v="Straumsnesodden" />
		<tag k="natural" v="cape" />
		<tag k="ssr:stedsnr" v="259034" />
	</node>
	<node lat="67.44004722637116" lon="15.528627780700763" id="-12264">
		<tag k="name" v="Nevervika" />
		<tag k="natural" v="bay" />
		<tag k="ssr:stedsnr" v="259541" />
	</node>
	<node lat="67.57229999913837" lon="15.224380552666306" id="-12282">
		<tag k="name" v="Svarthola" />
		<tag k="natural" v="bay" />
		<tag k="ssr:stedsnr" v="259897" />
	</node>
	<node lat="67.44532500106314" lon="15.475291673729657" id="-12286">
		<tag k="name" v="Halvardsvika" />
		<tag k="natural" v="bay" />
		<tag k="ssr:stedsnr" v="164910" />
	</node>
	<node lat="67.50654999971421" lon="15.277497228662886" id="-12291">
		<tag k="name" v="Laksbergodden" />
		<tag k="natural" v="cape" />
		<tag k="ssr:stedsnr" v="263008" />
	</node>
	<node lat="67.49425277531003" lon="15.164952765872656" id="-12292">
		<tag k="name" v="Sjunkvika" />
		<tag k="natural" v="bay" />
		<tag k="ssr:stedsnr" v="263046" />
	</node>
	<node lat="67.6068749964221" lon="15.407463883904423" id="-12312">
		<tag k="name" v="Lisjjordnesodden" />
		<tag k="natural" v="cape" />
		<tag k="ssr:stedsnr" v="263632" />
	</node>
	<node lat="67.47515000434252" lon="15.567086106914173" id="-12314">
		<tag k="name" v="Sætvika" />
		<tag k="natural" v="bay" />
		<tag k="ssr:stedsnr" v="263776" />
	</node>
	<node lat="67.46015833025925" lon="15.185105551670668" id="-12363">
		<tag k="name" v="Leirvikodden" />
		<tag k="natural" v="cape" />
		<tag k="ssr:stedsnr" v="203061" />
	</node>
	<node lat="67.58661388596393" lon="15.43815278714688" id="-12378">
		<tag k="name" v="Kobbosneset" />
		<tag k="natural" v="cape" />
		<tag k="ssr:stedsnr" v="203698" />
	</node>
	<node lat="67.48391388879816" lon="15.530594439616618" id="-12379">
		<tag k="fixme" v="consider seamark:type=rock or natural=shoal" />
		<tag k="name" v="Langskjæret" />
		<tag k="place" v="islet" />
		<tag k="ssr:stedsnr" v="203807" />
	</node>
	<node lat="67.40977777696597" lon="15.53653055669353" id="-12393">
		<tag k="name" v="Hammarfallodden" />
		<tag k="natural" v="cape" />
		<tag k="ssr:stedsnr" v="213679" />
	</node>
	<node lat="67.51144166787482" lon="15.268855549846329" id="-12400">
		<tag k="name" v="Jovikskallen" />
		<tag k="natural" v="shoal" />
		<tag k="place" v="locality" />
		<tag k="ssr:stedsnr" v="225915" />
	</node>
	<node lat="67.51014444800813" lon="15.521427776386647" id="-12401">
		<tag k="fixme" v="consider seamark:type=rock or natural=shoal" />
		<tag k="name" v="Fløskjæret" />
		<tag k="place" v="islet" />
		<tag k="ssr:stedsnr" v="226595" />
	</node>
	<node lat="67.62570833003802" lon="15.201627783629233" id="-12403">
		<tag k="name" v="Seglvikneset" />
		<tag k="natural" v="cape" />
		<tag k="ssr:stedsnr" v="449678" />
	</node>
	<node lat="67.55369166804881" lon="15.22122223039051" id="-12404">
		<tag k="name" v="Hundvika" />
		<tag k="natural" v="bay" />
		<tag k="ssr:stedsnr" v="234340" />
	</node>
	<node lat="67.57549166330237" lon="15.870747216956746" id="-12424">
		<tag k="name" v="Viknes" />
		<tag k="natural" v="cape" />
		<tag k="ssr:stedsnr" v="456861" />
	</node>
	<node lat="67.70895277567584" lon="15.806747216741954" id="-12438">
		<tag k="name" v="Slåttvikodden" />
		<tag k="natural" v="cape" />
		<tag k="ssr:stedsnr" v="259524" />
	</node>
	<node lat="67.49841388961825" lon="15.274711112463905" id="-12439">
		<tag k="name" v="Færøyvalen" />
		<tag k="natural" v="bay" />
		<tag k="ssr:stedsnr" v="259552" />
	</node>
	<node lat="67.50201110716993" lon="15.364544450291579" id="-12449">
		<tag k="name" v="Lisj-Korsvika" />
		<tag k="natural" v="bay" />
		<tag k="ssr:stedsnr" v="259955" />
	</node>
	<node lat="67.38414999912648" lon="15.611211101789284" id="-12450">
		<tag k="alt_name" v="Indre Hellbukta" />
		<tag k="name" v="Hellvika" />
		<tag k="natural" v="bay" />
		<tag k="ssr:stedsnr" v="259964" />
	</node>
	<node lat="67.73292777950292" lon="15.70241665989328" id="-12458">
		<tag k="name" v="Lisj-Reinvika" />
		<tag k="natural" v="bay" />
		<tag k="ssr:stedsnr" v="259855" />
	</node>
	<node lat="67.49856111072452" lon="15.261533340604158" id="-12461">
		<tag k="name" v="Sørvalen" />
		<tag k="natural" v="bay" />
		<tag k="ssr:stedsnr" v="263005" />
	</node>
	<node lat="67.47594166957501" lon="15.17623889640662" id="-12462">
		<tag k="name" v="Grautneset" />
		<tag k="natural" v="cape" />
		<tag k="ssr:stedsnr" v="263079" />
	</node>
	<node lat="67.56191944674413" lon="15.66223610079614" id="-12472">
		<tag k="name" v="Yttersjøen" />
		<tag k="natural" v="beach" />
		<tag k="ssr:stedsnr" v="264889" />
	</node>
	<node lat="67.52193055605191" lon="15.485769454158756" id="-12477">
		<tag k="fixme" v="consider seamark:type=rock or natural=shoal" />
		<tag k="name" v="Skjeran" />
		<tag k="place" v="islet" />
		<tag k="ssr:stedsnr" v="273326" />
	</node>
	<node lat="67.62059166887225" lon="15.173491656827817" id="-12503">
		<tag k="bay" v="fjord" />
		<tag k="name" v="Revsfjorden" />
		<tag k="natural" v="bay" />
		<tag k="ssr:stedsnr" v="320034" />
	</node>
	<node lat="67.61778055960366" lon="15.159566667196911" id="-12504">
		<tag k="fixme" v="consider seamark:type=rock or natural=shoal" />
		<tag k="name" v="Tennskjæret" />
		<tag k="place" v="islet" />
		<tag k="ssr:stedsnr" v="320035" />
	</node>
	<node lat="67.54851111181183" lon="15.235336111459892" id="-12520">
		<tag k="name" v="Bakfallvika" />
		<tag k="natural" v="bay" />
		<tag k="ssr:stedsnr" v="320988" />
	</node>
	<node lat="67.43579999581394" lon="15.546161120015338" id="-12545">
		<tag k="name" v="Lillevika" />
		<tag k="natural" v="bay" />
		<tag k="ssr:stedsnr" v="334306" />
	</node>
	<node lat="67.36926944486765" lon="15.603991663296322" id="-12563">
		<tag k="name" v="Hellandsholmen" />
		<tag k="place" v="islet" />
		<tag k="ssr:stedsnr" v="379865" />
	</node>
	<node lat="67.58911666812065" lon="15.260594450234231" id="-12586">
		<tag k="name" v="Hopen" />
		<tag k="natural" v="bay" />
		<tag k="ssr:stedsnr" v="380874" />
	</node>
	<node lat="67.5301916622364" lon="15.47150000685178" id="-12592">
		<tag k="name" v="Lappvika" />
		<tag k="natural" v="bay" />
		<tag k="ssr:stedsnr" v="381741" />
	</node>
	<node lat="67.50478333206829" lon="15.223599999640998" id="-12594">
		<tag k="name" v="Merrvika" />
		<tag k="natural" v="bay" />
		<tag k="ssr:stedsnr" v="381960" />
	</node>
	<node lat="67.52482500137965" lon="15.47376111532673" id="-12596">
		<tag k="alt_name" v="Støvikneset" />
		<tag k="name" v="Støviknes" />
		<tag k="natural" v="cape" />
		<tag k="ssr:stedsnr" v="381967" />
	</node>
	<node lat="67.53816944014024" lon="15.305700010349687" id="-12598">
		<tag k="name" v="Oldervika" />
		<tag k="natural" v="bay" />
		<tag k="ssr:stedsnr" v="384014" />
	</node>
	<node lat="67.59049166514103" lon="15.217436120664281" id="-12605">
		<tag k="name" v="Rognosen" />
		<tag k="natural" v="bay" />
		<tag k="ssr:stedsnr" v="385009" />
	</node>
	<node lat="67.44424166276512" lon="15.140319447048977" id="-12606">
		<tag k="name" v="Kobbosnes" />
		<tag k="natural" v="cape" />
		<tag k="ssr:stedsnr" v="385057" />
	</node>
	<node lat="67.43668333623155" lon="15.147997228017532" id="-12607">
		<tag k="name" v="Urodden" />
		<tag k="natural" v="cape" />
		<tag k="ssr:stedsnr" v="385060" />
	</node>
	<node lat="67.40973888575942" lon="15.533494443865852" id="-12625">
		<tag k="name" v="Hammarfallvika" />
		<tag k="natural" v="bay" />
		<tag k="ssr:stedsnr" v="394634" />
	</node>
	<node lat="67.61251388680905" lon="15.133902771779676" id="-12639">
		<tag k="fixme" v="consider seamark:type=rock or natural=shoal" />
		<tag k="name" v="Blinkskjæret" />
		<tag k="place" v="islet" />
		<tag k="ssr:stedsnr" v="441043" />
	</node>
	<node lat="67.44929166858414" lon="15.140899990223435" id="-12644">
		<tag k="name" v="Tornesodden" />
		<tag k="natural" v="cape" />
		<tag k="ssr:stedsnr" v="441597" />
	</node>
	<node lat="67.40883186520894" lon="15.580069399955287" id="-12656">
		<tag k="fixme" v="multiple name tags, choose one and add the other to alt_name; consider seamark:type=rock or natural=shoal" />
		<tag k="name" v="Skolten;Tørrfjordskjæret" />
		<tag k="place" v="islet" />
		<tag k="ssr:stedsnr" v="441947" />
	</node>
	<node lat="67.56418332892373" lon="15.674655556313702" id="-12681">
		<tag k="name" v="Innersjøen" />
		<tag k="natural" v="beach" />
		<tag k="ssr:stedsnr" v="446891" />
	</node>
	<node lat="67.43553055783748" lon="15.546741659397032" id="-12692">
		<tag k="name" v="Lillevikodden" />
		<tag k="natural" v="cape" />
		<tag k="ssr:stedsnr" v="456308" />
	</node>
	<node lat="67.48481666762" lon="15.171555554608616" id="-12700">
		<tag k="name" v="Seiskallneset" />
		<tag k="natural" v="cape" />
		<tag k="ssr:stedsnr" v="501651" />
	</node>
	<node lat="67.56740832945877" lon="15.779555549056774" id="-12716">
		<tag k="name" v="Lamsetodden" />
		<tag k="natural" v="cape" />
		<tag k="ssr:stedsnr" v="502698" />
	</node>
	<node lat="67.60734444701" lon="15.411530556234645" id="-12721">
		<tag k="name" v="Lisjjordneset" />
		<tag k="natural" v="cape" />
		<tag k="ssr:stedsnr" v="502902" />
	</node>
	<node lat="67.56875555791227" lon="15.217044442848053" id="-12728">
		<tag k="name" v="Svarthammarneset" />
		<tag k="natural" v="cape" />
		<tag k="ssr:stedsnr" v="506007" />
	</node>
	<node lat="67.59168889242314" lon="15.221394445112153" id="-12729">
		<tag k="name" v="Nordsjøvika" />
		<tag k="natural" v="bay" />
		<tag k="ssr:stedsnr" v="506014" />
	</node>
	<node lat="67.62605277405534" lon="15.206691672363817" id="-12739">
		<tag k="name" v="Seglvika" />
		<tag k="natural" v="bay" />
		<tag k="ssr:stedsnr" v="507057" />
	</node>
	<node lat="67.53714166525091" lon="15.27996667563505" id="-12740">
		<tag k="name" v="Salttronvika" />
		<tag k="natural" v="bay" />
		<tag k="ssr:stedsnr" v="506957" />
	</node>
	<node lat="67.53199721865174" lon="15.3364666730323" id="-12742">
		<tag k="name" v="Flogneset" />
		<tag k="natural" v="cape" />
		<tag k="ssr:stedsnr" v="506964" />
	</node>
	<node lat="67.6389555594073" lon="15.285455557464575" id="-12744">
		<tag k="name" v="Osen" />
		<tag k="natural" v="bay" />
		<tag k="ssr:stedsnr" v="506970" />
	</node>
	<node lat="67.37086944587729" lon="15.631250002696847" id="-12750">
		<tag k="name" v="Hellandsbukta" />
		<tag k="natural" v="bay" />
		<tag k="ssr:stedsnr" v="683990" />
	</node>
	<node lat="67.37573055693291" lon="15.607527785050964" id="-12751">
		<tag k="alt_name" v="Aurvika" />
		<tag k="name" v="Ørvika" />
		<tag k="natural" v="bay" />
		<tag k="ssr:stedsnr" v="683991" />
	</node>
	<node lat="67.37272500366605" lon="15.55250832422041" id="-12753">
		<tag k="name" v="Storosen" />
		<tag k="natural" v="bay" />
		<tag k="ssr:stedsnr" v="683996" />
	</node>
	<node lat="67.44740277726477" lon="15.515252777945301" id="-12755">
		<tag k="name" v="Stigodden" />
		<tag k="natural" v="cape" />
		<tag k="ssr:stedsnr" v="683485" />
	</node>
	<node lat="67.74612500105313" lon="15.685291664912544" id="-12765">
		<tag k="bay" v="fjord" />
		<tag k="name" v="Mørsvikfjorden - Murgosvuodna" />
		<tag k="name:no" v="Mørsvikfjorden" />
		<tag k="name:smj" v="Murgosvuodna" />
		<tag k="natural" v="bay" />
		<tag k="old_name:smj" v="Murggosvuotna" />
		<tag k="ssr:stedsnr" v="683758" />
	</node>
	<node lat="67.61238611309312" lon="15.192861105365738" id="-12771">
		<tag k="name" v="Sandvika" />
		<tag k="natural" v="bay" />
		<tag k="ssr:stedsnr" v="684036" />
	</node>
	<node lat="67.6162722256819" lon="15.159197220930082" id="-12772">
		<tag k="name" v="Tennvika" />
		<tag k="natural" v="bay" />
		<tag k="ssr:stedsnr" v="684037" />
	</node>
	<node lat="67.40099444602059" lon="15.596413897422185" id="-12774">
		<tag k="name" v="Langvika" />
		<tag k="natural" v="bay" />
		<tag k="ssr:stedsnr" v="516219" />
	</node>
	<node lat="67.39815556009252" lon="15.591747214633" id="-12775">
		<tag k="name" v="Storholmen" />
		<tag k="place" v="islet" />
		<tag k="ssr:stedsnr" v="516220" />
	</node>
	<node lat="67.44528610699906" lon="15.474322227272964" id="-12782">
		<tag k="name" v="Halvardsvikleira" />
		<tag k="natural" v="shoal" />
		<tag k="place" v="locality" />
		<tag k="ssr:stedsnr" v="516510" />
	</node>
	<node lat="67.43168333725271" lon="15.514066669309226" id="-12785">
		<tag k="name" v="Kistellbukta" />
		<tag k="natural" v="bay" />
		<tag k="ssr:stedsnr" v="516536" />
	</node>
	<node lat="67.70639166363826" lon="15.822052773132004" id="-12799">
		<tag k="name" v="Mørsvikneset" />
		<tag k="natural" v="cape" />
		<tag k="ssr:stedsnr" v="684529" />
	</node>
	<node lat="67.74489444138793" lon="15.767561118395589" id="-12808">
		<tag k="name" v="Kuvika" />
		<tag k="natural" v="bay" />
		<tag k="ssr:stedsnr" v="684544" />
	</node>
	<node lat="67.50163333194321" lon="15.379355555724128" id="-12818">
		<tag k="name" v="Korsvika" />
		<tag k="natural" v="bay" />
		<tag k="ssr:stedsnr" v="684959" />
	</node>
	<node lat="67.50747777620685" lon="15.56992778846318" id="-12819">
		<tag k="name" v="Kalvikodden" />
		<tag k="natural" v="cape" />
		<tag k="ssr:stedsnr" v="684963" />
	</node>
	<node lat="67.5437583312335" lon="15.609016654887622" id="-12825">
		<tag k="name" v="Ytter-Reinvika" />
		<tag k="natural" v="bay" />
		<tag k="ssr:stedsnr" v="684991" />
	</node>
	<node lat="67.48822221810435" lon="15.219672226173692" id="-12826">
		<tag k="name" v="Vassvikøyra" />
		<tag k="natural" v="cape" />
		<tag k="ssr:stedsnr" v="688049" />
	</node>
	<node lat="67.54665555539829" lon="15.244247226616489" id="-12827">
		<tag k="name" v="Klubbneset" />
		<tag k="natural" v="cape" />
		<tag k="ssr:stedsnr" v="688023" />
	</node>
	<node lat="67.53519444560331" lon="15.399022224398097" id="-12846">
		<tag k="name" v="Lisj-Bjørnvika" />
		<tag k="natural" v="bay" />
		<tag k="ssr:stedsnr" v="688664" />
	</node>
	<node lat="67.60866666184005" lon="15.358852787549983" id="-12854">
		<tag k="fixme" v="consider seamark:type=rock or natural=shoal" />
		<tag k="name" v="Reinvikskjæran" />
		<tag k="place" v="islet" />
		<tag k="ssr:stedsnr" v="688921" />
	</node>
	<node lat="67.7080000001982" lon="15.810419437313456" id="-12871">
		<tag k="name" v="Slåttvika" />
		<tag k="natural" v="bay" />
		<tag k="ssr:stedsnr" v="566302" />
	</node>
	<node lat="67.4090722244896" lon="15.58024166784883" id="-12884">
		<tag k="name" v="Skjærholmen" />
		<tag k="place" v="islet" />
		<tag k="ssr:stedsnr" v="567414" />
	</node>
	<node lat="67.42521666863402" lon="15.553100004709618" id="-12885">
		<tag k="name" v="Låkthågodden" />
		<tag k="natural" v="cape" />
		<tag k="ssr:stedsnr" v="567419" />
	</node>
	<node lat="67.48043611373852" lon="15.457411104760402" id="-12895">
		<tag k="name" v="Røsvikleira" />
		<tag k="natural" v="shoal" />
		<tag k="place" v="locality" />
		<tag k="ssr:stedsnr" v="576497" />
	</node>
	<node lat="67.57652222158865" lon="15.782525006889903" id="-12917">
		<tag k="fixme" v="consider seamark:type=rock or natural=shoal" />
		<tag k="name" v="Kaloskjæret" />
		<tag k="place" v="islet" />
		<tag k="ssr:stedsnr" v="698398" />
	</node>
	<node lat="67.41652777965018" lon="15.527477772369226" id="-12928">
		<tag k="name" v="Skavika" />
		<tag k="natural" v="bay" />
		<tag k="ssr:stedsnr" v="698610" />
	</node>
	<node lat="67.53232777898208" lon="15.18514999032041" id="-12945">
		<tag k="name" v="Jensvika" />
		<tag k="natural" v="bay" />
		<tag k="ssr:stedsnr" v="623083" />
	</node>
	<node lat="67.42196389334322" lon="15.665316658123029" id="-12953">
		<tag k="alt_name" v="Trengselsundet" />
		<tag k="name" v="Trengselet" />
		<tag k="natural" v="strait" />
		<tag k="ssr:stedsnr" v="623562" />
	</node>
	<node lat="67.58838055344448" lon="15.854508335089973" id="-12959">
		<tag k="name" v="Kobbelvvågen" />
		<tag k="natural" v="bay" />
		<tag k="ssr:stedsnr" v="623580" />
	</node>
	<node lat="67.48160833825379" lon="15.226130545758885" id="-12961">
		<tag k="name" v="Vellamsvika" />
		<tag k="natural" v="bay" />
		<tag k="ssr:stedsnr" v="623583" />
	</node>
	<node lat="67.39971666556298" lon="15.594794447008287" id="-12989">
		<tag k="name" v="Nisvika" />
		<tag k="natural" v="bay" />
		<tag k="ssr:stedsnr" v="637225" />
	</node>
	<node lat="67.39446388708953" lon="15.598097226710266" id="-12990">
		<tag k="name" v="Lillevika" />
		<tag k="natural" v="bay" />
		<tag k="ssr:stedsnr" v="637233" />
	</node>
	<node lat="67.39375833698006" lon="15.60024167847522" id="-12991">
		<tag k="name" v="Morforrvika" />
		<tag k="natural" v="bay" />
		<tag k="ssr:stedsnr" v="637235" />
	</node>
	<node lat="67.45593333445213" lon="15.476966674622181" id="-12997">
		<tag k="name" v="Gammelnaustvika" />
		<tag k="natural" v="bay" />
		<tag k="ssr:stedsnr" v="637603" />
	</node>
	<node lat="67.5873305570335" lon="15.858413887004733" id="-12998">
		<tag k="name" v="Øvernes" />
		<tag k="natural" v="cape" />
		<tag k="ssr:stedsnr" v="637617" />
	</node>
	<node lat="67.58962500306703" lon="15.847077787804766" id="-13003">
		<tag k="name" v="Sagvika" />
		<tag k="natural" v="bay" />
		<tag k="ssr:stedsnr" v="637583" />
	</node>
	<node lat="67.42610555571574" lon="15.66075556109176" id="-13010">
		<tag k="name" v="Røykholet" />
		<tag k="natural" v="bay" />
		<tag k="ssr:stedsnr" v="710144" />
	</node>
	<node lat="67.4867444422246" lon="15.16379998890819" id="-13018">
		<tag k="name" v="Innerneset" />
		<tag k="natural" v="cape" />
		<tag k="ssr:stedsnr" v="683668" />
	</node>
	<node lat="67.35852499820079" lon="15.611894443905701" id="-13019">
		<tag k="name" v="Langstranda" />
		<tag k="natural" v="beach" />
		<tag k="ssr:stedsnr" v="683873" />
	</node>
	<node lat="67.760519442438" lon="15.615969443598253" id="-13021">
		<tag k="alt_name" v="Furuneset" />
		<tag k="name" v="Forneset" />
		<tag k="natural" v="cape" />
		<tag k="ssr:stedsnr" v="684200" />
	</node>
	<node lat="67.49963888562644" lon="15.398636119661617" id="-13025">
		<tag k="name" v="Tortenvika" />
		<tag k="natural" v="bay" />
		<tag k="ssr:stedsnr" v="684553" />
	</node>
	<node lat="67.61840833221248" lon="15.348566674659635" id="-13032">
		<tag k="name" v="Forneset" />
		<tag k="natural" v="cape" />
		<tag k="ssr:stedsnr" v="684719" />
	</node>
	<node lat="67.58946389266366" lon="15.48784723207029" id="-13035">
		<tag k="name" v="Klubbneset" />
		<tag k="natural" v="cape" />
		<tag k="ssr:stedsnr" v="684909" />
	</node>
	<node lat="67.62933889014138" lon="15.248372232801536" id="-13036">
		<tag k="name" v="Finnvikodden" />
		<tag k="natural" v="cape" />
		<tag k="ssr:stedsnr" v="684911" />
	</node>
	<node lat="67.55624166247352" lon="15.216872223560774" id="-13038">
		<tag k="name" v="Kvannvika" />
		<tag k="natural" v="bay" />
		<tag k="ssr:stedsnr" v="688004" />
	</node>
	<node lat="67.45061944755957" lon="15.138711100106862" id="-13040">
		<tag k="name" v="Tornesbukta" />
		<tag k="natural" v="bay" />
		<tag k="ssr:stedsnr" v="688041" />
	</node>
	<node lat="67.63606388768675" lon="15.283511120173104" id="-13051">
		<tag k="name" v="Lisjnesodden" />
		<tag k="natural" v="cape" />
		<tag k="ssr:stedsnr" v="688982" />
	</node>
	<node lat="67.49958333695461" lon="15.41022499121599" id="-13078">
		<tag k="name" v="Brennesvika" />
		<tag k="natural" v="bay" />
		<tag k="ssr:stedsnr" v="744526" />
	</node>
	<node lat="67.56462222403165" lon="15.215780563246607" id="-13083">
		<tag k="name" v="Seglvika" />
		<tag k="natural" v="bay" />
		<tag k="ssr:stedsnr" v="745107" />
	</node>
	<node lat="67.60100000001553" lon="15.177044452277224" id="-13091">
		<tag k="name" v="Storvika" />
		<tag k="natural" v="bay" />
		<tag k="ssr:stedsnr" v="745781" />
	</node>
	<node lat="67.60214166651828" lon="15.429313897920688" id="-13092">
		<tag k="fixme" v="consider seamark:type=rock or natural=shoal" />
		<tag k="name" v="Straumskjæran" />
		<tag k="place" v="islet" />
		<tag k="ssr:stedsnr" v="745905" />
	</node>
	<node lat="67.50477500110715" lon="15.273891665549694" id="-13098">
		<tag k="name" v="Kveitvika" />
		<tag k="natural" v="bay" />
		<tag k="ssr:stedsnr" v="748008" />
	</node>
	<node lat="67.59891110911745" lon="15.40939722857524" id="-13112">
		<tag k="name" v="Klubbvika" />
		<tag k="natural" v="bay" />
		<tag k="ssr:stedsnr" v="749619" />
	</node>
	<node lat="67.38834999688797" lon="15.606572216501005" id="-13128">
		<tag k="alt_name" v="Ytre Hellbukta" />
		<tag k="name" v="Bratthaugvika" />
		<tag k="natural" v="bay" />
		<tag k="ssr:stedsnr" v="759215" />
	</node>
	<node lat="67.51594167042583" lon="15.510930548716694" id="-13134">
		<tag k="name" v="Vikan" />
		<tag k="natural" v="bay" />
		<tag k="ssr:stedsnr" v="759399" />
	</node>
	<node lat="67.37681944106662" lon="15.603983324035122" id="-13136">
		<tag k="name" v="Ørvikodden" />
		<tag k="natural" v="cape" />
		<tag k="ssr:stedsnr" v="759298" />
	</node>
	<node lat="67.58635833571827" lon="15.846997217961315" id="-13138">
		<tag k="alt_name" v="Skøtneset" />
		<tag k="name" v="Skøtnes" />
		<tag k="natural" v="cape" />
		<tag k="ssr:stedsnr" v="759544" />
	</node>
	<node lat="67.5075972263448" lon="15.29353889053356" id="-13155">
		<tag k="name" v="Grenet" />
		<tag k="natural" v="bay" />
		<tag k="ssr:stedsnr" v="810014" />
	</node>
	<node lat="67.3734222242944" lon="15.618230551946828" id="-13174">
		<tag k="name" v="Lillenesodden" />
		<tag k="natural" v="cape" />
		<tag k="ssr:stedsnr" v="820289" />
	</node>
	<node lat="67.43574166740053" lon="15.548322226776458" id="-13183">
		<tag k="name" v="Gyltvika" />
		<tag k="natural" v="bay" />
		<tag k="ssr:stedsnr" v="926538" />
	</node>
	<node lat="67.62907778071788" lon="15.175577784508352" id="-13190">
		<tag k="alt_name" v="Sveinsvika" />
		<tag k="name" v="Svennvika" />
		<tag k="natural" v="bay" />
		<tag k="ssr:stedsnr" v="927037" />
	</node>
	<node lat="67.5195888924173" lon="15.20447777549568" id="-13193">
		<tag k="name" v="Purkvika" />
		<tag k="natural" v="bay" />
		<tag k="ssr:stedsnr" v="927077" />
	</node>
	<node lat="67.70108610815731" lon="15.7827666676933" id="-13199">
		<tag k="name" v="Åndvika" />
		<tag k="natural" v="bay" />
		<tag k="ssr:stedsnr" v="927549" />
	</node>
	<node lat="67.3880472215532" lon="15.541558328079097" id="-13213">
		<tag k="name" v="Sandvika" />
		<tag k="natural" v="bay" />
		<tag k="ssr:stedsnr" v="927985" />
	</node>
	<node lat="67.54319166735982" lon="15.260719433216087" id="-13231">
		<tag k="name" v="Sandvikodden" />
		<tag k="natural" v="cape" />
		<tag k="ssr:stedsnr" v="870963" />
	</node>
	<node lat="67.56186666310424" lon="15.213563891157358" id="-13242">
		<tag k="name" v="Lisj-Seglvika" />
		<tag k="natural" v="bay" />
		<tag k="ssr:stedsnr" v="931001" />
	</node>
	<node lat="67.50481111059698" lon="15.346627776110317" id="-13243">
		<tag k="name" v="Flogneset" />
		<tag k="natural" v="cape" />
		<tag k="ssr:stedsnr" v="931024" />
	</node>
	<node lat="67.71957222614913" lon="15.784250002310452" id="-13249">
		<tag k="name" v="Stampnesvika" />
		<tag k="natural" v="bay" />
		<tag k="ssr:stedsnr" v="931357" />
	</node>
	<node lat="67.6267527797163" lon="15.23487499617728" id="-13259">
		<tag k="fixme" v="consider seamark:type=rock or natural=shoal" />
		<tag k="name" v="Katthellarskjæret" />
		<tag k="place" v="islet" />
		<tag k="ssr:stedsnr" v="931983" />
	</node>
	<node lat="67.52715000095843" lon="15.615752771557807" id="-13263">
		<tag k="name" v="Kvitneset" />
		<tag k="natural" v="cape" />
		<tag k="ssr:stedsnr" v="932464" />
	</node>
	<node lat="67.75026666817539" lon="15.641402769028456" id="-13292">
		<tag k="name" v="Hamran" />
		<tag k="natural" v="cape" />
		<tag k="ssr:stedsnr" v="893172" />
	</node>
	<node lat="67.58009722302302" lon="15.22561945222009" id="-13319">
		<tag k="name" v="Skjoldvika" />
		<tag k="natural" v="bay" />
		<tag k="ssr:stedsnr" v="927916" />
	</node>
	<node lat="67.52010833346995" lon="15.592888886176429" id="-13348">
		<tag k="name" v="Bukta" />
		<tag k="natural" v="bay" />
		<tag k="ssr:stedsnr" v="932829" />
	</node>
	<node lat="67.37680277949354" lon="15.570483340542422" id="-13352">
		<tag k="name" v="Støttnesodden" />
		<tag k="natural" v="cape" />
		<tag k="ssr:stedsnr" v="16990" />
	</node>
	<node lat="67.49730000336889" lon="15.426013880221388" id="-13356">
		<tag k="name" v="Langstranda" />
		<tag k="natural" v="beach" />
		<tag k="ssr:stedsnr" v="16536" />
	</node>
	<node lat="67.51929166205879" lon="15.592897228393067" id="-13372">
		<tag k="name" v="Storvika" />
		<tag k="natural" v="bay" />
		<tag k="ssr:stedsnr" v="17972" />
	</node>
	<node lat="67.5669750042684" lon="15.69915000499043" id="-13373">
		<tag k="name" v="Daudmannvika" />
		<tag k="natural" v="bay" />
		<tag k="ssr:stedsnr" v="17978" />
	</node>
	<node lat="67.54503055965392" lon="15.258224996076267" id="-13400">
		<tag k="name" v="Ytrestrandvika" />
		<tag k="natural" v="bay" />
		<tag k="ssr:stedsnr" v="21026" />
	</node>
	<node lat="67.5480500038389" lon="15.237416659039448" id="-13401">
		<tag k="name" v="Bakfallvikneset" />
		<tag k="natural" v="cape" />
		<tag k="ssr:stedsnr" v="21029" />
	</node>
	<node lat="67.5990750031564" lon="15.413641665626251" id="-13414">
		<tag k="name" v="Klubbneset" />
		<tag k="natural" v="cape" />
		<tag k="ssr:stedsnr" v="21623" />
	</node>
	<node lat="67.60052499969309" lon="15.431302774786971" id="-13415">
		<tag k="name" v="Straumen" />
		<tag k="natural" v="strait" />
		<tag k="ssr:stedsnr" v="21628" />
	</node>
	<node lat="67.6071583340792" lon="15.435950005193313" id="-13418">
		<tag k="name" v="Røtosen" />
		<tag k="natural" v="bay" />
		<tag k="ssr:stedsnr" v="21635" />
	</node>
	<node lat="67.54162222381257" lon="15.599402768384982" id="-13419">
		<tag k="name" v="Bandvika" />
		<tag k="natural" v="bay" />
		<tag k="ssr:stedsnr" v="21774" />
	</node>
	<node lat="67.41152778006618" lon="15.635030566503103" id="-13437">
		<tag k="name" v="Hjellvikodden" />
		<tag k="natural" v="cape" />
		<tag k="ssr:stedsnr" v="31227" />
	</node>
	<node lat="67.41210555138254" lon="15.626316669887157" id="-13438">
		<tag k="name" v="Sildneset" />
		<tag k="natural" v="cape" />
		<tag k="ssr:stedsnr" v="31228" />
	</node>
	<node lat="67.61559444678412" lon="15.13765834239245" id="-13463">
		<tag k="name" v="Måsøyodden" />
		<tag k="natural" v="cape" />
		<tag k="ssr:stedsnr" v="77035" />
	</node>
	<node lat="67.55991944307384" lon="15.719508337163626" id="-13471">
		<tag k="alt_name" v="Kjøvika" />
		<tag k="name" v="Kovvika" />
		<tag k="natural" v="bay" />
		<tag k="ssr:stedsnr" v="77688" />
	</node>
	<node lat="67.57141111049968" lon="15.734263878050248" id="-13472">
		<tag k="alt_name" v="Bonåsjøen" />
		<tag k="name" v="Bonnåsjøen" />
		<tag k="natural" v="cape" />
		<tag k="ssr:stedsnr" v="77694" />
	</node>
	<node lat="67.61048610933572" lon="15.435372211721223" id="-13475">
		<tag k="name" v="Groosen" />
		<tag k="natural" v="bay" />
		<tag k="ssr:stedsnr" v="77874" />
	</node>
	<node lat="67.40077777925217" lon="15.543397223045227" id="-13478">
		<tag k="name" v="Tortenvika" />
		<tag k="natural" v="bay" />
		<tag k="ssr:stedsnr" v="77963" />
	</node>
	<node lat="67.39075277940914" lon="15.598997217020836" id="-13480">
		<tag k="name" v="Måsøya" />
		<tag k="place" v="islet" />
		<tag k="ssr:stedsnr" v="77981" />
	</node>
	<node lat="67.68615555281717" lon="15.823902777502626" id="-13495">
		<tag k="name" v="Skveirvika" />
		<tag k="natural" v="bay" />
		<tag k="ssr:stedsnr" v="81348" />
	</node>
	<node lat="67.48016388791571" lon="15.592680559823322" id="-13499">
		<tag k="name" v="Odden" />
		<tag k="natural" v="cape" />
		<tag k="ssr:stedsnr" v="81754" />
	</node>
	<node lat="67.60824722046306" lon="15.432119439769547" id="-13511">
		<tag k="name" v="Nattmålsodden" />
		<tag k="natural" v="cape" />
		<tag k="ssr:stedsnr" v="81646" />
	</node>
	<node lat="67.5034361109421" lon="15.564108334202517" id="-13520">
		<tag k="name" v="Heimnesodden" />
		<tag k="natural" v="cape" />
		<tag k="ssr:stedsnr" v="82180" />
	</node>
	<node lat="67.58068611240708" lon="15.437083335997581" id="-13524">
		<tag k="name" v="Røyrvikbergan" />
		<tag k="natural" v="cape" />
		<tag k="ssr:stedsnr" v="82552" />
	</node>
	<node lat="67.52294166453417" lon="15.598544437870201" id="-13530">
		<tag k="name" v="Spissodden" />
		<tag k="natural" v="cape" />
		<tag k="ssr:stedsnr" v="82859" />
	</node>
	<node lat="67.51755833641847" lon="15.585847228909945" id="-13531">
		<tag k="name" v="Kalvika" />
		<tag k="natural" v="bay" />
		<tag k="ssr:stedsnr" v="82863" />
	</node>
	<node lat="67.37582500242733" lon="15.580677774328539" id="-13539">
		<tag k="name" v="Kråknesodden" />
		<tag k="natural" v="cape" />
		<tag k="ssr:stedsnr" v="91275" />
	</node>
	<node lat="67.4008249966342" lon="15.543802785825976" id="-13559">
		<tag k="name" v="Tortenvikneset" />
		<tag k="natural" v="cape" />
		<tag k="ssr:stedsnr" v="92196" />
	</node>
	<node lat="67.49933333631206" lon="15.557391658991174" id="-13567">
		<tag k="fixme" v="consider seamark:type=rock or natural=shoal" />
		<tag k="name" v="Småskjæret" />
		<tag k="place" v="islet" />
		<tag k="ssr:stedsnr" v="104557" />
	</node>
	<node lat="67.60683888738781" lon="15.168536109320172" id="-13571">
		<tag k="name" v="Prestmåsøya" />
		<tag k="place" v="island" />
		<tag k="ssr:stedsnr" v="137025" />
	</node>
	<node lat="67.57870833598969" lon="15.213233322053402" id="-13572">
		<tag k="fixme" v="consider seamark:type=rock or natural=shoal" />
		<tag k="name" v="Skjoldskjæret" />
		<tag k="place" v="islet" />
		<tag k="ssr:stedsnr" v="137055" />
	</node>
	<node lat="67.4877500010912" lon="15.271672222078424" id="-13579">
		<tag k="name" v="Larspina" />
		<tag k="natural" v="bay" />
		<tag k="ssr:stedsnr" v="137539" />
	</node>
	<node lat="67.47908333415235" lon="15.478869437658545" id="-13586">
		<tag k="alt_name" v="Håkjerringneset" />
		<tag k="name" v="Håkjerringnes" />
		<tag k="natural" v="cape" />
		<tag k="ssr:stedsnr" v="137586" />
	</node>
	<node lat="67.4652083312246" lon="15.182094436174038" id="-13592">
		<tag k="bay" v="fjord" />
		<tag k="name" v="Sjunkfjorden" />
		<tag k="natural" v="bay" />
		<tag k="ssr:stedsnr" v="137631" />
	</node>
	<node lat="67.36986666738326" lon="15.584874996571443" id="-13604">
		<tag k="name" v="Troelvneset" />
		<tag k="natural" v="cape" />
		<tag k="ssr:stedsnr" v="137990" />
	</node>
	<node lat="67.69628055507637" lon="15.839672221635015" id="-13606">
		<tag k="name" v="Mastermovika" />
		<tag k="natural" v="bay" />
		<tag k="ssr:stedsnr" v="138525" />
	</node>
	<node lat="67.58125000138624" lon="15.87625555245398" id="-13611">
		<tag k="name" v="Innerholmen" />
		<tag k="place" v="islet" />
		<tag k="ssr:stedsnr" v="138584" />
	</node>
	<node lat="67.6069388906021" lon="15.4228138844092" id="-13615">
		<tag k="name" v="Sagfjordbotn" />
		<tag k="natural" v="bay" />
		<tag k="ssr:stedsnr" v="138929" />
	</node>
	<node lat="67.61487222143955" lon="15.324080563551519" id="-13616">
		<tag k="name" v="Djupvika" />
		<tag k="natural" v="bay" />
		<tag k="ssr:stedsnr" v="138931" />
	</node>
	<node lat="67.69137499606701" lon="15.807877765820237" id="-13634">
		<tag k="name" v="Lisjeidvika" />
		<tag k="natural" v="bay" />
		<tag k="ssr:stedsnr" v="142347" />
	</node>
	<node lat="67.58435277465757" lon="15.446116666607644" id="-13642">
		<tag k="name" v="Laksberget" />
		<tag k="natural" v="cape" />
		<tag k="ssr:stedsnr" v="142674" />
	</node>
	<node lat="67.53965000328257" lon="15.271822219138553" id="-13651">
		<tag k="name" v="Lappvika" />
		<tag k="natural" v="bay" />
		<tag k="ssr:stedsnr" v="142962" />
	</node>
	<node lat="67.63940833173034" lon="15.276827788031323" id="-13652">
		<tag k="fixme" v="consider seamark:type=rock or natural=shoal" />
		<tag k="name" v="Geitskjæret" />
		<tag k="place" v="islet" />
		<tag k="ssr:stedsnr" v="142978" />
	</node>
	<node lat="67.43474722118643" lon="15.551941660132485" id="-13655">
		<tag k="name" v="Steinvika" />
		<tag k="natural" v="bay" />
		<tag k="ssr:stedsnr" v="152329" />
	</node>
	<node lat="67.58041666539336" lon="15.806827771014666" id="-13667">
		<tag k="name" v="Bantnes" />
		<tag k="natural" v="cape" />
		<tag k="ssr:stedsnr" v="152482" />
	</node>
	<node lat="67.42156944084941" lon="15.55972777472398" id="-13677">
		<tag k="name" v="Ånuntofta" />
		<tag k="natural" v="cape" />
		<tag k="ssr:stedsnr" v="164301" />
	</node>
	<node lat="67.45341388709276" lon="15.154805564348937" id="-13688">
		<tag k="name" v="Steinneset" />
		<tag k="natural" v="cape" />
		<tag k="ssr:stedsnr" v="198583" />
	</node>
	<node lat="67.4380749974308" lon="15.539536106570633" id="-13692">
		<tag k="alt_name" v="Skjelvika;Langvika" />
		<tag k="name" v="Skjellvika" />
		<tag k="natural" v="bay" />
		<tag k="ssr:stedsnr" v="198544" />
	</node>
	<node lat="67.35866944295954" lon="15.597916660150917" id="-13709">
		<tag k="alt_name" v="Straumbukta" />
		<tag k="name" v="Sørfoldbukta" />
		<tag k="natural" v="bay" />
		<tag k="ssr:stedsnr" v="198898" />
	</node>
	<node lat="67.52973333483885" lon="15.200174992436734" id="-13712">
		<tag k="name" v="Molla" />
		<tag k="natural" v="beach" />
		<tag k="ssr:stedsnr" v="199096" />
	</node>
	<node lat="67.47626944906791" lon="15.530119438108372" id="-13751">
		<tag k="name" v="Aspnesodden" />
		<tag k="natural" v="cape" />
		<tag k="ssr:stedsnr" v="203765" />
	</node>
	<node lat="67.47282222659979" lon="15.561066660350315" id="-13753">
		<tag k="name" v="Lisjvika" />
=======
<osm generator="osmapis" version="0.6">
	<node id="-178176" lat="67.5339166686" lon="15.1761222166">
		<tag k="name" v="Vindvikodden" />
		<tag k="natural" v="cape" />
		<tag k="ssr:stedsnr" v="380077" />
	</node>
	<node id="-178175" lat="67.5997833323" lon="15.1962055535">
		<tag k="name" v="Toffelvika" />
		<tag k="natural" v="bay" />
		<tag k="ssr:stedsnr" v="380042" />
	</node>
	<node id="-178172" lat="67.3692694449" lon="15.6039916633">
		<tag k="name" v="Hellandsholmen" />
		<tag k="place" v="islet" />
		<tag k="ssr:stedsnr" v="379865" />
	</node>
	<node id="-176123" lat="67.6119472245" lon="15.3826249896">
		<tag k="name" v="Snagodden" />
		<tag k="natural" v="cape" />
		<tag k="ssr:stedsnr" v="17903" />
	</node>
	<node id="-176120" lat="67.573100002" lon="15.8289333325">
		<tag k="alt_name" v="Kjelvika" />
		<tag k="name" v="Kjelvikbukta" />
		<tag k="natural" v="bay" />
		<tag k="ssr:stedsnr" v="17719" />
	</node>
	<node id="-178167" lat="67.4754722243" lon="15.5749388819">
		<tag k="bay" v="fjord" />
		<tag k="name" v="Aspfjorden" />
		<tag k="natural" v="bay" />
		<tag k="ssr:stedsnr" v="379587" />
	</node>
	<node id="-178161" lat="67.5316444443" lon="15.360930561">
		<tag k="name" v="Geitvika" />
		<tag k="natural" v="bay" />
		<tag k="ssr:stedsnr" v="355330" />
	</node>
	<node id="-176112" lat="67.4377083331" lon="15.4971750084">
		<tag k="name" v="Kines" />
		<tag k="natural" v="cape" />
		<tag k="ssr:stedsnr" v="16525" />
	</node>
	<node id="-178150" lat="67.5833416694" lon="15.8565333246">
		<tag k="name" v="Kobbhammarnes" />
		<tag k="natural" v="cape" />
		<tag k="ssr:stedsnr" v="334569" />
	</node>
	<node id="-178113" lat="67.5018027814" lon="15.560499992">
		<tag k="name" v="Lisj-Kalvikodden" />
		<tag k="natural" v="cape" />
		<tag k="ssr:stedsnr" v="325179" />
	</node>
	<node id="-178099" lat="67.5858361109" lon="15.4334305486">
		<tag k="name" v="Kobbosen" />
		<tag k="natural" v="bay" />
		<tag k="ssr:stedsnr" v="324664" />
	</node>
	<node id="-176797" lat="67.6856416656" lon="15.8317583296">
		<tag k="name" v="Stia" />
		<tag k="place" v="locality" />
		<tag k="ssr:stedsnr" v="506268" />
	</node>
	<node id="-178091" lat="67.4475972191" lon="15.1595361144">
		<tag k="name" v="Osan" />
		<tag k="natural" v="bay" />
		<tag k="ssr:stedsnr" v="324035" />
	</node>
	<node id="-176113" lat="67.4973000034" lon="15.4260138802">
		<tag k="name" v="Langstranda" />
		<tag k="natural" v="beach" />
		<tag k="place" v="locality" />
		<tag k="ssr:stedsnr" v="16536" />
	</node>
	<node id="-178081" lat="67.5485111118" lon="15.2353361115">
		<tag k="name" v="Bakfallvika" />
		<tag k="natural" v="bay" />
		<tag k="ssr:stedsnr" v="320988" />
	</node>
	<node id="-178077" lat="67.5168222214" lon="15.5366416718">
		<tag k="name" v="Geitvika" />
		<tag k="natural" v="bay" />
		<tag k="ssr:stedsnr" v="320964" />
	</node>
	<node id="-178075" lat="67.5352305522" lon="15.2942416618">
		<tag k="name" v="Storvikneset" />
		<tag k="natural" v="cape" />
		<tag k="ssr:stedsnr" v="320954" />
	</node>
	<node id="-178073" lat="67.5316861129" lon="15.3413055534">
		<tag k="name" v="Tangvika" />
		<tag k="natural" v="bay" />
		<tag k="ssr:stedsnr" v="320950" />
	</node>
	<node id="-178044" lat="67.6890722235" lon="15.8269722222">
		<tag k="name" v="Sildhopen" />
		<tag k="natural" v="bay" />
		<tag k="ssr:stedsnr" v="320509" />
	</node>
	<node id="-178043" lat="67.6835111097" lon="15.8348610987">
		<tag k="name" v="Sildhopvika - Silldavuohppe" />
		<tag k="name:no" v="Sildhopvika" />
		<tag k="name:smj" v="Silldavuohppe" />
		<tag k="natural" v="bay" />
		<tag k="old_name:smj" v="Sildavuohppi" />
		<tag k="ssr:stedsnr" v="320507" />
	</node>
	<node id="-178038" lat="67.6177805596" lon="15.1595666672">
		<tag k="fixme" v="consider seamark:type=rock or natural=shoal" />
		<tag k="name" v="Tennskjæret" />
		<tag k="place" v="islet" />
		<tag k="ssr:stedsnr" v="320035" />
	</node>
	<node id="-178037" lat="67.6205916689" lon="15.1734916568">
		<tag k="bay" v="fjord" />
		<tag k="name" v="Revsfjorden" />
		<tag k="natural" v="bay" />
		<tag k="ssr:stedsnr" v="320034" />
	</node>
	<node id="-178035" lat="67.406988891" lon="15.6313000043">
		<tag k="bay" v="fjord" />
		<tag k="name" v="Tørrfjorden" />
		<tag k="natural" v="bay" />
		<tag k="ssr:stedsnr" v="319949" />
	</node>
	<node id="-178011" lat="67.409777777" lon="15.5365305567">
		<tag k="name" v="Hammarfallodden" />
		<tag k="natural" v="cape" />
		<tag k="ssr:stedsnr" v="213679" />
	</node>
	<node id="-177991" lat="67.3729416676" lon="15.5845166634">
		<tag k="name" v="Svarthammarvika" />
		<tag k="natural" v="bay" />
		<tag k="ssr:stedsnr" v="213372" />
	</node>
	<node id="-177987" lat="67.4213888847" lon="15.6712111066">
		<tag k="name" v="Finnvika" />
		<tag k="natural" v="bay" />
		<tag k="ssr:stedsnr" v="213252" />
	</node>
	<node id="-177986" lat="67.4066805545" lon="15.6369444358">
		<tag k="fixme" v="consider seamark:type=rock or natural=shoal" />
		<tag k="name" v="Leirvikskjæret" />
		<tag k="place" v="islet" />
		<tag k="ssr:stedsnr" v="213250" />
	</node>
	<node id="-177976" lat="67.6320638858" lon="15.2555277779">
		<tag k="name" v="Gamneset" />
		<tag k="natural" v="cape" />
		<tag k="ssr:stedsnr" v="203979" />
	</node>
	<node id="-177967" lat="67.4839138888" lon="15.5305944396">
		<tag k="fixme" v="consider seamark:type=rock or natural=shoal" />
		<tag k="name" v="Langskjæret" />
		<tag k="place" v="islet" />
		<tag k="ssr:stedsnr" v="203807" />
	</node>
	<node id="-177965" lat="67.4728222266" lon="15.5610666604">
		<tag k="name" v="Lisjvika" />
		<tag k="natural" v="bay" />
		<tag k="ssr:stedsnr" v="203784" />
	</node>
	<node id="-177963" lat="67.4762694491" lon="15.5301194381">
		<tag k="name" v="Aspnesodden" />
		<tag k="natural" v="cape" />
		<tag k="ssr:stedsnr" v="203765" />
	</node>
	<node id="-177961" lat="67.586613886" lon="15.4381527871">
		<tag k="name" v="Kobbosneset" />
		<tag k="natural" v="cape" />
		<tag k="ssr:stedsnr" v="203698" />
	</node>
	<node id="-177928" lat="67.4601583303" lon="15.1851055517">
		<tag k="name" v="Leirvikodden" />
		<tag k="natural" v="cape" />
		<tag k="ssr:stedsnr" v="203061" />
	</node>
	<node id="-177892" lat="67.5297333348" lon="15.2001749924">
		<tag k="name" v="Molla" />
		<tag k="natural" v="beach" />
		<tag k="place" v="locality" />
		<tag k="ssr:stedsnr" v="199096" />
	</node>
	<node id="-177887" lat="67.358669443" lon="15.5979166602">
		<tag k="alt_name" v="Straumbukta" />
		<tag k="name" v="Sørfoldbukta" />
		<tag k="natural" v="bay" />
		<tag k="ssr:stedsnr" v="198898" />
	</node>
	<node id="-177880" lat="67.4534138871" lon="15.1548055643">
		<tag k="name" v="Steinneset" />
		<tag k="natural" v="cape" />
		<tag k="ssr:stedsnr" v="198583" />
	</node>
	<node id="-176419" lat="67.6943277764" lon="15.8304888961">
		<tag k="name" v="Sildhopneset" />
		<tag k="natural" v="cape" />
		<tag k="ssr:stedsnr" v="441518" />
	</node>
	<node id="-177854" lat="67.4215694408" lon="15.5597277747">
		<tag k="name" v="Ånuntofta" />
		<tag k="natural" v="cape" />
		<tag k="ssr:stedsnr" v="164301" />
	</node>
	<node id="-177842" lat="67.5804166654" lon="15.806827771">
		<tag k="name" v="Bantnes" />
		<tag k="natural" v="cape" />
		<tag k="ssr:stedsnr" v="152482" />
	</node>
	<node id="-177839" lat="67.4862916685" lon="15.4549416668">
		<tag k="name" v="Knektvika" />
		<tag k="natural" v="bay" />
		<tag k="ssr:stedsnr" v="152401" />
	</node>
	<node id="-177838" lat="67.3650111152" lon="15.5888805669">
		<tag k="name" v="Valnes" />
		<tag k="natural" v="cape" />
		<tag k="ssr:stedsnr" v="152352" />
	</node>
	<node id="-177835" lat="67.4347472212" lon="15.5519416601">
		<tag k="name" v="Steinvika" />
		<tag k="natural" v="bay" />
		<tag k="ssr:stedsnr" v="152329" />
	</node>
	<node id="-177829" lat="67.4057555543" lon="15.6406527862">
		<tag k="name" v="Hamnvikneset" />
		<tag k="natural" v="cape" />
		<tag k="ssr:stedsnr" v="152201" />
	</node>
	<node id="-177821" lat="67.6288222257" lon="15.2480777847">
		<tag k="name" v="Finnvika" />
		<tag k="natural" v="bay" />
		<tag k="ssr:stedsnr" v="142981" />
	</node>
	<node id="-177820" lat="67.6275111151" lon="15.2415083376">
		<tag k="name" v="Toffelvika" />
		<tag k="natural" v="bay" />
		<tag k="ssr:stedsnr" v="142980" />
	</node>
	<node id="-177819" lat="67.6394083317" lon="15.276827788">
		<tag k="fixme" v="consider seamark:type=rock or natural=shoal" />
		<tag k="name" v="Geitskjæret" />
		<tag k="place" v="islet" />
		<tag k="ssr:stedsnr" v="142978" />
	</node>
	<node id="-177818" lat="67.5396500033" lon="15.2718222191">
		<tag k="name" v="Lappvika" />
		<tag k="natural" v="bay" />
		<tag k="ssr:stedsnr" v="142962" />
	</node>
	<node id="-177800" lat="67.5843527747" lon="15.4461166666">
		<tag k="name" v="Laksberget" />
		<tag k="natural" v="cape" />
		<tag k="ssr:stedsnr" v="142674" />
	</node>
	<node id="-177790" lat="67.6913749961" lon="15.8078777658">
		<tag k="name" v="Lisjeidvika" />
		<tag k="natural" v="bay" />
		<tag k="ssr:stedsnr" v="142347" />
	</node>
	<node id="-177766" lat="67.4911888904" lon="15.2264611128">
		<tag k="name" v="Skolpbakken" />
		<tag k="natural" v="beach" />
		<tag k="place" v="locality" />
		<tag k="ssr:stedsnr" v="141037" />
	</node>
	<node id="-177757" lat="67.6148722214" lon="15.3240805636">
		<tag k="name" v="Djupvika" />
		<tag k="natural" v="bay" />
		<tag k="ssr:stedsnr" v="138931" />
	</node>
	<node id="-177756" lat="67.6069388906" lon="15.4228138844">
		<tag k="name" v="Sagfjordbotn" />
		<tag k="natural" v="bay" />
		<tag k="ssr:stedsnr" v="138929" />
	</node>
	<node id="-177744" lat="67.5812500014" lon="15.8762555525">
		<tag k="name" v="Innerholmen" />
		<tag k="place" v="islet" />
		<tag k="ssr:stedsnr" v="138584" />
	</node>
	<node id="-177742" lat="67.6962805551" lon="15.8396722216">
		<tag k="name" v="Mastermovika" />
		<tag k="natural" v="bay" />
		<tag k="ssr:stedsnr" v="138525" />
	</node>
	<node id="-177734" lat="67.3698666674" lon="15.5848749966">
		<tag k="name" v="Troelvneset" />
		<tag k="natural" v="cape" />
		<tag k="ssr:stedsnr" v="137990" />
	</node>
	<node id="-177724" lat="67.4652083312" lon="15.1820944362">
		<tag k="bay" v="fjord" />
		<tag k="name" v="Sjunkfjorden" />
		<tag k="natural" v="bay" />
		<tag k="ssr:stedsnr" v="137631" />
	</node>
	<node id="-177718" lat="67.4790833342" lon="15.4788694377">
		<tag k="alt_name" v="Håkjerringneset" />
		<tag k="name" v="Håkjerringnes" />
		<tag k="natural" v="cape" />
		<tag k="ssr:stedsnr" v="137586" />
	</node>
	<node id="-177075" lat="67.5805722212" lon="15.7881111021">
		<tag k="name" v="Hestvika" />
		<tag k="natural" v="bay" />
		<tag k="ssr:stedsnr" v="881438" />
	</node>
	<node id="-177701" lat="67.578708336" lon="15.2132333221">
		<tag k="fixme" v="consider seamark:type=rock or natural=shoal" />
		<tag k="name" v="Skjoldskjæret" />
		<tag k="place" v="islet" />
		<tag k="ssr:stedsnr" v="137055" />
	</node>
	<node id="-177698" lat="67.4154333315" lon="15.5282472101">
		<tag k="name" v="Mølnneset" />
		<tag k="natural" v="cape" />
		<tag k="ssr:stedsnr" v="104878" />
	</node>
	<node id="-177697" lat="67.4993333363" lon="15.557391659">
		<tag k="fixme" v="consider seamark:type=rock or natural=shoal" />
		<tag k="name" v="Småskjæret" />
		<tag k="place" v="islet" />
		<tag k="ssr:stedsnr" v="104557" />
	</node>
	<node id="-177696" lat="67.3561000033" lon="15.5861277818">
		<tag k="name" v="Trollbukta" />
		<tag k="natural" v="bay" />
		<tag k="ssr:stedsnr" v="104193" />
	</node>
	<node id="-177680" lat="67.4008249966" lon="15.5438027858">
		<tag k="name" v="Tortenvikneset" />
		<tag k="natural" v="cape" />
		<tag k="ssr:stedsnr" v="92196" />
	</node>
	<node id="-177659" lat="67.3758250024" lon="15.5806777743">
		<tag k="name" v="Kråknesodden" />
		<tag k="natural" v="cape" />
		<tag k="ssr:stedsnr" v="91275" />
	</node>
	<node id="-177649" lat="67.5200833362" lon="15.5414805598">
		<tag k="name" v="Ytter-Naustvika" />
		<tag k="natural" v="bay" />
		<tag k="ssr:stedsnr" v="82840" />
	</node>
	<node id="-177643" lat="67.5034361109" lon="15.5641083342">
		<tag k="name" v="Heimnesodden" />
		<tag k="natural" v="cape" />
		<tag k="ssr:stedsnr" v="82180" />
	</node>
	<node id="-177633" lat="67.4801638879" lon="15.5926805598">
		<tag k="name" v="Odden" />
		<tag k="natural" v="cape" />
		<tag k="ssr:stedsnr" v="81754" />
	</node>
	<node id="-177630" lat="67.6082472205" lon="15.4321194398">
		<tag k="name" v="Nattmålsodden" />
		<tag k="natural" v="cape" />
		<tag k="ssr:stedsnr" v="81646" />
	</node>
	<node id="-177615" lat="67.6861555528" lon="15.8239027775">
		<tag k="name" v="Skveirvika" />
		<tag k="natural" v="bay" />
		<tag k="ssr:stedsnr" v="81348" />
	</node>
	<node id="-177609" lat="67.6153583327" lon="15.381480544">
		<tag k="name" v="Trollvika" />
		<tag k="natural" v="bay" />
		<tag k="ssr:stedsnr" v="78944" />
	</node>
	<node id="-177595" lat="67.3907527794" lon="15.598997217">
		<tag k="name" v="Måsøya" />
		<tag k="place" v="islet" />
		<tag k="ssr:stedsnr" v="77981" />
	</node>
	<node id="-177593" lat="67.4007777793" lon="15.543397223">
		<tag k="name" v="Tortenvika" />
		<tag k="natural" v="bay" />
		<tag k="ssr:stedsnr" v="77963" />
	</node>
	<node id="-177587" lat="67.6104861093" lon="15.4353722117">
		<tag k="name" v="Groosen" />
		<tag k="natural" v="bay" />
		<tag k="ssr:stedsnr" v="77874" />
	</node>
	<node id="-177585" lat="67.5714111105" lon="15.7342638781">
		<tag k="alt_name" v="Bonåsjøen" />
		<tag k="name" v="Bonnåsjøen" />
		<tag k="natural" v="cape" />
		<tag k="ssr:stedsnr" v="77694" />
	</node>
	<node id="-177584" lat="67.5599194431" lon="15.7195083372">
		<tag k="alt_name" v="Kjøvika" />
		<tag k="name" v="Kovvika" />
		<tag k="natural" v="bay" />
		<tag k="ssr:stedsnr" v="77688" />
	</node>
	<node id="-177575" lat="67.4930611084" lon="15.541980559">
		<tag k="name" v="Stornesodden" />
		<tag k="natural" v="cape" />
		<tag k="ssr:stedsnr" v="77606" />
	</node>
	<node id="-177564" lat="67.6155944468" lon="15.1376583424">
		<tag k="name" v="Måsøyodden" />
		<tag k="natural" v="cape" />
		<tag k="ssr:stedsnr" v="77035" />
	</node>
	<node id="-177560" lat="67.4718555534" lon="15.5551805429">
		<tag k="name" v="Storneseodden" />
		<tag k="natural" v="cape" />
		<tag k="ssr:stedsnr" v="76613" />
	</node>
	<node id="-177554" lat="67.5114111082" lon="15.5148499911">
		<tag k="fixme" v="consider seamark:type=rock or natural=shoal" />
		<tag k="name" v="Litleskjæret" />
		<tag k="place" v="islet" />
		<tag k="ssr:stedsnr" v="43575" />
	</node>
	<node id="-177529" lat="67.4121055514" lon="15.6263166699">
		<tag k="name" v="Sildneset" />
		<tag k="natural" v="cape" />
		<tag k="ssr:stedsnr" v="31228" />
	</node>
	<node id="-177528" lat="67.4115277801" lon="15.6350305665">
		<tag k="name" v="Hjellvikodden" />
		<tag k="natural" v="cape" />
		<tag k="ssr:stedsnr" v="31227" />
	</node>
	<node id="-177503" lat="67.5227888872" lon="15.5454277833">
		<tag k="name" v="Inner-Naustvika" />
		<tag k="natural" v="bay" />
		<tag k="ssr:stedsnr" v="21828" />
	</node>
	<node id="-177501" lat="67.5416222238" lon="15.5994027684">
		<tag k="name" v="Bandvika" />
		<tag k="natural" v="bay" />
		<tag k="ssr:stedsnr" v="21774" />
	</node>
	<node id="-177497" lat="67.5793083357" lon="15.4374277825">
		<tag k="name" v="Røyrvika" />
		<tag k="natural" v="bay" />
		<tag k="ssr:stedsnr" v="21686" />
	</node>
	<node id="-177480" lat="67.5669750043" lon="15.699150005">
		<tag k="name" v="Daudmannvika" />
		<tag k="natural" v="bay" />
		<tag k="ssr:stedsnr" v="17978" />
	</node>
	<node id="-177479" lat="67.5192916621" lon="15.5928972284">
		<tag k="name" v="Storvika" />
		<tag k="natural" v="bay" />
		<tag k="ssr:stedsnr" v="17972" />
	</node>
	<node id="-177478" lat="67.5310388847" lon="15.3508166613">
		<tag k="name" v="Matvika" />
		<tag k="natural" v="bay" />
		<tag k="ssr:stedsnr" v="17956" />
	</node>
	<node id="-177477" lat="67.6354333307" lon="15.2746000091">
		<tag k="name" v="Movika" />
		<tag k="natural" v="bay" />
		<tag k="ssr:stedsnr" v="17953" />
	</node>
	<node id="-178740" lat="67.5863583357" lon="15.846997218">
		<tag k="alt_name" v="Skøtneset" />
		<tag k="name" v="Skøtnes" />
		<tag k="natural" v="cape" />
		<tag k="ssr:stedsnr" v="759544" />
	</node>
	<node id="-177454" lat="67.3682027817" lon="15.6283749959">
		<tag k="name" v="Rebåsnes" />
		<tag k="natural" v="cape" />
		<tag k="ssr:stedsnr" v="16881" />
	</node>
	<node id="-177444" lat="67.3768027795" lon="15.5704833405">
		<tag k="name" v="Støttnesodden" />
		<tag k="natural" v="cape" />
		<tag k="ssr:stedsnr" v="16990" />
	</node>
	<node id="-177430" lat="67.450675001" lon="15.4756833371">
		<tag k="name" v="Åkervika" />
		<tag k="natural" v="bay" />
		<tag k="ssr:stedsnr" v="16475" />
	</node>
	<node id="-177424" lat="67.5244861134" lon="15.4794249933">
		<tag k="name" v="Støvik" />
		<tag k="natural" v="bay" />
		<tag k="ssr:stedsnr" v="941308" />
	</node>
	<node id="-177418" lat="67.5201083335" lon="15.5928888862">
		<tag k="name" v="Bukta" />
		<tag k="natural" v="bay" />
		<tag k="ssr:stedsnr" v="932829" />
	</node>
	<node id="-177398" lat="67.5048111106" lon="15.3466277761">
		<tag k="name" v="Flogneset" />
		<tag k="natural" v="cape" />
		<tag k="ssr:stedsnr" v="931024" />
	</node>
	<node id="-177382" lat="67.4946416689" lon="15.547044447">
		<tag k="name" v="Kristenodden" />
		<tag k="natural" v="cape" />
		<tag k="ssr:stedsnr" v="871159" />
	</node>
	<node id="-176873" lat="67.5437583312" lon="15.6090166549">
		<tag k="name" v="Ytter-Reinvika" />
		<tag k="natural" v="bay" />
		<tag k="ssr:stedsnr" v="684991" />
	</node>
	<node id="-177356" lat="67.4407583329" lon="15.497208328">
		<tag k="name" v="Kinesleira" />
		<tag k="natural" v="shoal" />
		<tag k="place" v="locality" />
		<tag k="ssr:stedsnr" v="941538" />
	</node>
	<node id="-177347" lat="67.484297222" lon="15.4564861009">
		<tag k="name" v="Knektvikskallen" />
		<tag k="place" v="locality" />
		<tag k="ssr:stedsnr" v="941370" />
	</node>
	<node id="-177342" lat="67.3970750023" lon="15.5926666771">
		<tag k="name" v="Lilleholmen" />
		<tag k="place" v="islet" />
		<tag k="ssr:stedsnr" v="941199" />
	</node>
	<node id="-177340" lat="67.3914694441" lon="15.5405861172">
		<tag k="name" v="Lappvika" />
		<tag k="natural" v="bay" />
		<tag k="ssr:stedsnr" v="941188" />
	</node>
	<node id="-177337" lat="67.3554194444" lon="15.6022249905">
		<tag k="name" v="Hermannstolen" />
		<tag k="natural" v="beach" />
		<tag k="place" v="locality" />
		<tag k="ssr:stedsnr" v="941175" />
	</node>
	<node id="-177335" lat="67.4059611076" lon="15.6370805581">
		<tag k="name" v="Leirvika" />
		<tag k="natural" v="bay" />
		<tag k="ssr:stedsnr" v="941167" />
	</node>
	<node id="-177322" lat="67.527150001" lon="15.6157527716">
		<tag k="name" v="Kvitneset" />
		<tag k="natural" v="cape" />
		<tag k="ssr:stedsnr" v="932464" />
	</node>
	<node id="-177316" lat="67.6267527797" lon="15.2348749962">
		<tag k="fixme" v="consider seamark:type=rock or natural=shoal" />
		<tag k="name" v="Katthellarskjæret" />
		<tag k="place" v="islet" />
		<tag k="ssr:stedsnr" v="931983" />
	</node>
	<node id="-177295" lat="67.7195722261" lon="15.7842500023">
		<tag k="name" v="Stampnesvika" />
		<tag k="natural" v="bay" />
		<tag k="ssr:stedsnr" v="931357" />
	</node>
	<node id="-177286" lat="67.5618666631" lon="15.2135638912">
		<tag k="name" v="Lisj-Seglvika" />
		<tag k="natural" v="bay" />
		<tag k="ssr:stedsnr" v="931001" />
	</node>
	<node id="-177285" lat="67.5075972263" lon="15.2935388905">
		<tag k="name" v="Grenet" />
		<tag k="natural" v="bay" />
		<tag k="ssr:stedsnr" v="810014" />
	</node>
	<node id="-177278" lat="67.3880472216" lon="15.5415583281">
		<tag k="name" v="Sandvika" />
		<tag k="natural" v="bay" />
		<tag k="ssr:stedsnr" v="927985" />
	</node>
	<node id="-177268" lat="67.580097223" lon="15.2256194522">
		<tag k="name" v="Skjoldvika" />
		<tag k="natural" v="bay" />
		<tag k="ssr:stedsnr" v="927916" />
	</node>
	<node id="-177235" lat="67.4825583293" lon="15.5302305531">
		<tag k="name" v="Langskjærvika" />
		<tag k="natural" v="bay" />
		<tag k="ssr:stedsnr" v="805616" />
	</node>
	<node id="-177228" lat="67.7010861082" lon="15.7827666677">
		<tag k="name" v="Åndvika" />
		<tag k="natural" v="bay" />
		<tag k="ssr:stedsnr" v="927549" />
	</node>
	<node id="-177212" lat="67.5195888924" lon="15.2044777755">
		<tag k="name" v="Purkvika" />
		<tag k="natural" v="bay" />
		<tag k="ssr:stedsnr" v="927077" />
	</node>
	<node id="-177210" lat="67.6290777807" lon="15.1755777845">
		<tag k="alt_name" v="Sveinsvika" />
		<tag k="name" v="Svennvika" />
		<tag k="natural" v="bay" />
		<tag k="ssr:stedsnr" v="927037" />
	</node>
	<node id="-177202" lat="67.4357416674" lon="15.5483222268">
		<tag k="name" v="Gyltvika" />
		<tag k="natural" v="bay" />
		<tag k="ssr:stedsnr" v="926538" />
	</node>
	<node id="-178695" lat="67.5920555562" lon="15.4508416623">
		<tag k="name" v="Sommarneset" />
		<tag k="natural" v="cape" />
		<tag k="ssr:stedsnr" v="749686" />
	</node>
	<node id="-177182" lat="67.5433305536" lon="15.6074583362">
		<tag k="name" v="Reinvikneset" />
		<tag k="natural" v="cape" />
		<tag k="ssr:stedsnr" v="749833" />
	</node>
	<node id="-177181" lat="67.5989111091" lon="15.4093972286">
		<tag k="name" v="Klubbvika" />
		<tag k="natural" v="bay" />
		<tag k="ssr:stedsnr" v="749619" />
	</node>
	<node id="-176303" lat="67.5619194467" lon="15.6622361008">
		<tag k="name" v="Yttersjøen" />
		<tag k="natural" v="beach" />
		<tag k="place" v="locality" />
		<tag k="ssr:stedsnr" v="264889" />
	</node>
	<node id="-177171" lat="67.5047750011" lon="15.2738916655">
		<tag k="name" v="Kveitvika" />
		<tag k="natural" v="bay" />
		<tag k="ssr:stedsnr" v="748008" />
	</node>
	<node id="-177169" lat="67.5173972263" lon="15.5026222129">
		<tag k="alt_name" v="Likvikneset" />
		<tag k="name" v="Likviknes" />
		<tag k="natural" v="cape" />
		<tag k="ssr:stedsnr" v="745966" />
	</node>
	<node id="-177168" lat="67.5086638886" lon="15.2833111077">
		<tag k="name" v="Jovikneset" />
		<tag k="natural" v="cape" />
		<tag k="ssr:stedsnr" v="745963" />
	</node>
	<node id="-177165" lat="67.5364722198" lon="15.3864972187">
		<tag k="name" v="Bjørnsvika" />
		<tag k="natural" v="bay" />
		<tag k="ssr:stedsnr" v="745956" />
	</node>
	<node id="-178298" lat="67.43616389" lon="15.5432527764">
		<tag k="name" v="Skjellvikodden" />
		<tag k="natural" v="cape" />
		<tag k="ssr:stedsnr" v="395322" />
	</node>
	<node id="-177161" lat="67.6021416665" lon="15.4293138979">
		<tag k="fixme" v="consider seamark:type=rock or natural=shoal" />
		<tag k="name" v="Straumskjæran" />
		<tag k="place" v="islet" />
		<tag k="ssr:stedsnr" v="745905" />
	</node>
	<node id="-177153" lat="67.564622224" lon="15.2157805632">
		<tag k="name" v="Seglvika" />
		<tag k="natural" v="bay" />
		<tag k="ssr:stedsnr" v="745107" />
	</node>
	<node id="-177141" lat="67.4506416679" lon="15.1530833329">
		<tag k="name" v="Forrneset" />
		<tag k="natural" v="cape" />
		<tag k="ssr:stedsnr" v="744555" />
	</node>
	<node id="-177136" lat="67.499583337" lon="15.4102249912">
		<tag k="name" v="Brennesvika" />
		<tag k="natural" v="bay" />
		<tag k="ssr:stedsnr" v="744526" />
	</node>
	<node id="-177127" lat="67.7502666682" lon="15.641402769">
		<tag k="name" v="Hamran" />
		<tag k="natural" v="cape" />
		<tag k="ssr:stedsnr" v="893172" />
	</node>
	<node id="-177121" lat="67.4165277797" lon="15.5274777724">
		<tag k="name" v="Skavika" />
		<tag k="natural" v="bay" />
		<tag k="ssr:stedsnr" v="698610" />
	</node>
	<node id="-177101" lat="67.4996388856" lon="15.3986361197">
		<tag k="name" v="Tortenvika" />
		<tag k="natural" v="bay" />
		<tag k="ssr:stedsnr" v="684553" />
	</node>
	<node id="-177100" lat="67.7448944414" lon="15.7675611184">
		<tag k="name" v="Kuvika" />
		<tag k="natural" v="bay" />
		<tag k="ssr:stedsnr" v="684544" />
	</node>
	<node id="-177097" lat="67.7063916636" lon="15.8220527731">
		<tag k="name" v="Mørsvikneset" />
		<tag k="natural" v="cape" />
		<tag k="ssr:stedsnr" v="684529" />
	</node>
	<node id="-177091" lat="67.7461250011" lon="15.6852916649">
		<tag k="bay" v="fjord" />
		<tag k="name" v="Mørsvikfjorden - Murgosvuodna" />
		<tag k="name:no" v="Mørsvikfjorden" />
		<tag k="name:smj" v="Murgosvuodna" />
		<tag k="natural" v="bay" />
		<tag k="old_name:smj" v="Murggosvuotna" />
		<tag k="ssr:stedsnr" v="683758" />
	</node>
	<node id="-177089" lat="67.3585249982" lon="15.6118944439">
		<tag k="name" v="Langstranda" />
		<tag k="natural" v="beach" />
		<tag k="place" v="locality" />
		<tag k="ssr:stedsnr" v="683873" />
	</node>
	<node id="-178334" lat="67.4101944476" lon="15.6520722285">
		<tag k="name" v="Hysvika" />
		<tag k="natural" v="bay" />
		<tag k="ssr:stedsnr" v="562939" />
	</node>
	<node id="-178332" lat="67.5982333296" lon="15.2048638766">
		<tag k="name" v="Måsøysundet" />
		<tag k="natural" v="strait" />
		<tag k="ssr:stedsnr" v="562040" />
	</node>
	<node id="-177059" lat="67.4412694445" lon="15.5243833339">
		<tag k="fixme" v="consider seamark:type=rock or natural=shoal" />
		<tag k="name" v="Nevervikskjæret" />
		<tag k="place" v="islet" />
		<tag k="ssr:stedsnr" v="880572" />
	</node>
	<node id="-177042" lat="67.587330557" lon="15.858413887">
		<tag k="name" v="Øvernes" />
		<tag k="natural" v="cape" />
		<tag k="ssr:stedsnr" v="637617" />
	</node>
	<node id="-177041" lat="67.4559333345" lon="15.4769666746">
		<tag k="name" v="Gammelnaustvika" />
		<tag k="natural" v="bay" />
		<tag k="ssr:stedsnr" v="637603" />
	</node>
	<node id="-177026" lat="67.5313805546" lon="15.3564583316">
		<tag k="name" v="Jonasneset" />
		<tag k="natural" v="cape" />
		<tag k="ssr:stedsnr" v="627975" />
	</node>
	<node id="-177025" lat="67.5360166692" lon="15.3218999957">
		<tag k="name" v="Innsvika" />
		<tag k="natural" v="bay" />
		<tag k="ssr:stedsnr" v="627973" />
	</node>
	<node id="-177023" lat="67.4819361065" lon="15.5311972298">
		<tag k="fixme" v="consider seamark:type=rock or natural=shoal" />
		<tag k="name" v="Sildgarnkjæret" />
		<tag k="place" v="islet" />
		<tag k="ssr:stedsnr" v="627824" />
	</node>
	<node id="-177008" lat="67.7536666641" lon="15.6298722313">
		<tag k="name" v="Forrneset" />
		<tag k="natural" v="cape" />
		<tag k="ssr:stedsnr" v="720749" />
	</node>
	<node id="-177007" lat="67.4329305526" lon="15.5532472154">
		<tag k="fixme" v="consider seamark:type=rock or natural=shoal" />
		<tag k="name" v="Kuforrvikskjæret" />
		<tag k="place" v="islet" />
		<tag k="ssr:stedsnr" v="589262" />
	</node>
	<node id="-177005" lat="67.4261055557" lon="15.6607555611">
		<tag k="name" v="Røykholet" />
		<tag k="natural" v="bay" />
		<tag k="ssr:stedsnr" v="710144" />
	</node>
	<node id="-176998" lat="67.4252166686" lon="15.5531000047">
		<tag k="name" v="Låkthågodden" />
		<tag k="natural" v="cape" />
		<tag k="ssr:stedsnr" v="567419" />
	</node>
	<node id="-176997" lat="67.4090722245" lon="15.5802416678">
		<tag k="name" v="Skjærholmen" />
		<tag k="place" v="islet" />
		<tag k="ssr:stedsnr" v="567414" />
	</node>
	<node id="-176996" lat="67.7080000002" lon="15.8104194373">
		<tag k="name" v="Slåttvika" />
		<tag k="natural" v="bay" />
		<tag k="ssr:stedsnr" v="566302" />
	</node>
	<node id="-176979" lat="67.4635388913" lon="15.4771305449">
		<tag k="name" v="Hammarvika" />
		<tag k="natural" v="bay" />
		<tag k="ssr:stedsnr" v="561516" />
	</node>
	<node id="-176967" lat="67.5765222216" lon="15.7825250069">
		<tag k="fixme" v="consider seamark:type=rock or natural=shoal" />
		<tag k="name" v="Kaloskjæret" />
		<tag k="place" v="islet" />
		<tag k="ssr:stedsnr" v="698398" />
	</node>
	<node id="-178314" lat="67.4408555372" lon="15.4945022629">
		<tag k="name" v="Stokkvikodden" />
		<tag k="natural" v="cape" />
		<tag k="ssr:stedsnr" v="395555" />
	</node>
	<node id="-176607" lat="67.4848166676" lon="15.1715555546">
		<tag k="name" v="Seiskallneset" />
		<tag k="natural" v="cape" />
		<tag k="ssr:stedsnr" v="501651" />
	</node>
	<node id="-178991" lat="67.5431916674" lon="15.2607194332">
		<tag k="name" v="Sandvikodden" />
		<tag k="natural" v="cape" />
		<tag k="ssr:stedsnr" v="870963" />
	</node>
	<node id="-178990" lat="67.6240388872" lon="15.2792333359">
		<tag k="bay" v="fjord" />
		<tag k="name" v="Sagfjorden" />
		<tag k="natural" v="bay" />
		<tag k="ssr:stedsnr" v="870936" />
	</node>
	<node id="-178988" lat="67.5889472248" lon="15.4402888843">
		<tag k="fixme" v="consider seamark:type=rock or natural=shoal" />
		<tag k="name" v="Kobbskjæran" />
		<tag k="place" v="islet" />
		<tag k="ssr:stedsnr" v="870688" />
	</node>
	<node id="-176604" lat="67.4916222227" lon="15.1468389005">
		<tag k="name" v="Kroken" />
		<tag k="natural" v="bay" />
		<tag k="ssr:stedsnr" v="501599" />
	</node>
	<node id="-178980" lat="67.4986222226" lon="15.1882472277">
		<tag k="name" v="Ytterneset" />
		<tag k="natural" v="cape" />
		<tag k="ssr:stedsnr" v="870042" />
	</node>
	<node id="-176928" lat="67.6086666618" lon="15.3588527875">
		<tag k="fixme" v="consider seamark:type=rock or natural=shoal" />
		<tag k="name" v="Reinvikskjæran" />
		<tag k="place" v="islet" />
		<tag k="ssr:stedsnr" v="688921" />
	</node>
	<node id="-176919" lat="67.5351944456" lon="15.3990222244">
		<tag k="name" v="Lisj-Bjørnvika" />
		<tag k="natural" v="bay" />
		<tag k="ssr:stedsnr" v="688664" />
	</node>
	<node id="-178963" lat="67.5359138852" lon="15.6159638842">
		<tag k="bay" v="fjord" />
		<tag k="name" v="Leirfjorden - Činovuotna" />
		<tag k="name:no" v="Leirfjorden" />
		<tag k="name:smj" v="Činovuotna" />
		<tag k="natural" v="bay" />
		<tag k="old_name:smj" v="Činovoutna" />
		<tag k="ssr:stedsnr" v="867737" />
	</node>
	<node id="-178951" lat="67.5950277782" lon="15.4530027713">
		<tag k="name" v="Leirpollbukta" />
		<tag k="natural" v="bay" />
		<tag k="ssr:stedsnr" v="866878" />
	</node>
	<node id="-178942" lat="67.572486107" lon="15.7518888832">
		<tag k="name" v="Kremmarvika" />
		<tag k="natural" v="bay" />
		<tag k="ssr:stedsnr" v="866665" />
	</node>
	<node id="-176892" lat="67.4882222181" lon="15.2196722262">
		<tag k="name" v="Vassvikøyra" />
		<tag k="natural" v="cape" />
		<tag k="ssr:stedsnr" v="688049" />
	</node>
	<node id="-176891" lat="67.4506194476" lon="15.1387111001">
		<tag k="name" v="Tornesbukta" />
		<tag k="natural" v="bay" />
		<tag k="ssr:stedsnr" v="688041" />
	</node>
	<node id="-178938" lat="67.4919694425" lon="15.4530722316">
		<tag k="name" v="Bordstolneset" />
		<tag k="natural" v="cape" />
		<tag k="ssr:stedsnr" v="866552" />
	</node>
	<node id="-176889" lat="67.5466555554" lon="15.2442472266">
		<tag k="name" v="Klubbneset" />
		<tag k="natural" v="cape" />
		<tag k="ssr:stedsnr" v="688023" />
	</node>
	<node id="-176888" lat="67.5562416625" lon="15.2168722236">
		<tag k="name" v="Kvannvika" />
		<tag k="natural" v="bay" />
		<tag k="ssr:stedsnr" v="688004" />
	</node>
	<node id="-178935" lat="67.5780916704" lon="15.8608833364">
		<tag k="alt_name" v="Storholmen" />
		<tag k="name" v="Ytterholmen" />
		<tag k="place" v="islet" />
		<tag k="ssr:stedsnr" v="866549" />
	</node>
	<node id="-176885" lat="67.4316833373" lon="15.5140666693">
		<tag k="name" v="Kistellbukta" />
		<tag k="natural" v="bay" />
		<tag k="ssr:stedsnr" v="516536" />
	</node>
	<node id="-176882" lat="67.445286107" lon="15.4743222273">
		<tag k="name" v="Halvardsvikleira" />
		<tag k="natural" v="shoal" />
		<tag k="place" v="locality" />
		<tag k="ssr:stedsnr" v="516510" />
	</node>
	<node id="-178925" lat="67.7003500038" lon="15.7956750013">
		<tag k="name" v="Håkjerringneset - Njárgga" />
		<tag k="name:no" v="Håkjerringneset" />
		<tag k="name:smj" v="Njárgga" />
		<tag k="natural" v="cape" />
		<tag k="old_name:smj" v="Njarga" />
		<tag k="ssr:stedsnr" v="866497" />
	</node>
	<node id="-178924" lat="67.6988722236" lon="15.8095833388">
		<tag k="name" v="Mørsvikbotn - Murgosvuodna" />
		<tag k="name:no" v="Mørsvikbotn" />
		<tag k="name:smj" v="Murgosvuodna" />
		<tag k="natural" v="bay" />
		<tag k="old_name:smj" v="Murggosvuotna" />
		<tag k="ssr:stedsnr" v="866494" />
	</node>
	<node id="-178923" lat="67.5382166664" lon="15.2160833294">
		<tag k="alt_name:no" v="Sørfolla" />
		<tag k="bay" v="fjord" />
		<tag k="loc_name:smj" v="Oarjje-Fuolldá" />
		<tag k="name" v="Sørfolda" />
		<tag k="name:no" v="Sørfolda" />
		<tag k="natural" v="bay" />
		<tag k="ssr:stedsnr" v="866492" />
	</node>
	<node id="-176935" lat="67.6360638877" lon="15.2835111202">
		<tag k="name" v="Lisjnesodden" />
		<tag k="natural" v="cape" />
		<tag k="ssr:stedsnr" v="688982" />
	</node>
	<node id="-176867" lat="67.5074777762" lon="15.5699277885">
		<tag k="name" v="Kalvikodden" />
		<tag k="natural" v="cape" />
		<tag k="ssr:stedsnr" v="684963" />
	</node>
	<node id="-176866" lat="67.5016333319" lon="15.3793555557">
		<tag k="name" v="Korsvika" />
		<tag k="natural" v="bay" />
		<tag k="ssr:stedsnr" v="684959" />
	</node>
	<node id="-176860" lat="67.6293388901" lon="15.2483722328">
		<tag k="name" v="Finnvikodden" />
		<tag k="natural" v="cape" />
		<tag k="ssr:stedsnr" v="684911" />
	</node>
	<node id="-176859" lat="67.5894638927" lon="15.4878472321">
		<tag k="name" v="Klubbneset" />
		<tag k="natural" v="cape" />
		<tag k="ssr:stedsnr" v="684909" />
	</node>
	<node id="-178898" lat="67.5908194477" lon="15.8525472181">
		<tag k="name" v="Kvalvika" />
		<tag k="natural" v="bay" />
		<tag k="ssr:stedsnr" v="820541" />
	</node>
	<node id="-178897" lat="67.4395361107" lon="15.4986583221">
		<tag k="name" v="Nes" />
		<tag k="natural" v="cape" />
		<tag k="ssr:stedsnr" v="820534" />
	</node>
	<node id="-176843" lat="67.6184083322" lon="15.3485666747">
		<tag k="name" v="Forneset" />
		<tag k="natural" v="cape" />
		<tag k="ssr:stedsnr" v="684719" />
	</node>
	<node id="-178883" lat="67.3734222243" lon="15.6182305519">
		<tag k="name" v="Lillenesodden" />
		<tag k="natural" v="cape" />
		<tag k="ssr:stedsnr" v="820289" />
	</node>
	<node id="-176834" lat="67.6162722257" lon="15.1591972209">
		<tag k="name" v="Tennvika" />
		<tag k="natural" v="bay" />
		<tag k="ssr:stedsnr" v="684037" />
	</node>
	<node id="-176833" lat="67.6123861131" lon="15.1928611054">
		<tag k="name" v="Sandvika" />
		<tag k="natural" v="bay" />
		<tag k="ssr:stedsnr" v="684036" />
	</node>
	<node id="-178877" lat="67.380633332" lon="15.5455444406">
		<tag k="name" v="Kobbskjærodden" />
		<tag k="natural" v="cape" />
		<tag k="ssr:stedsnr" v="819295" />
	</node>
	<node id="-176827" lat="67.3757305569" lon="15.6075277851">
		<tag k="alt_name" v="Aurvika" />
		<tag k="name" v="Ørvika" />
		<tag k="natural" v="bay" />
		<tag k="ssr:stedsnr" v="683991" />
	</node>
	<node id="-176826" lat="67.3708694459" lon="15.6312500027">
		<tag k="name" v="Hellandsbukta" />
		<tag k="natural" v="bay" />
		<tag k="ssr:stedsnr" v="683990" />
	</node>
	<node id="-176819" lat="67.4867444422" lon="15.1637999889">
		<tag k="name" v="Innerneset" />
		<tag k="natural" v="cape" />
		<tag k="ssr:stedsnr" v="683668" />
	</node>
	<node id="-178863" lat="67.5218583302" lon="15.5962361133">
		<tag k="name" v="Albertodden" />
		<tag k="natural" v="cape" />
		<tag k="ssr:stedsnr" v="810861" />
	</node>
	<node id="-176813" lat="67.4474027773" lon="15.5152527779">
		<tag k="name" v="Stigodden" />
		<tag k="natural" v="cape" />
		<tag k="ssr:stedsnr" v="683485" />
	</node>
	<node id="-178860" lat="67.5473194438" lon="15.6157944547">
		<tag k="name" v="Inner-Reinvika" />
		<tag k="natural" v="bay" />
		<tag k="ssr:stedsnr" v="810830" />
	</node>
	<node id="-178857" lat="67.4720944425" lon="15.5531805564">
		<tag k="name" v="Kløvsteinvika" />
		<tag k="natural" v="bay" />
		<tag k="ssr:stedsnr" v="810775" />
	</node>
	<node id="-178845" lat="67.4193333332" lon="15.568477767">
		<tag k="name" v="Vika" />
		<tag k="natural" v="bay" />
		<tag k="ssr:stedsnr" v="810436" />
	</node>
	<node id="-176794" lat="67.607344447" lon="15.4115305562">
		<tag k="name" v="Lisjjordneset" />
		<tag k="natural" v="cape" />
		<tag k="ssr:stedsnr" v="502902" />
	</node>
	<node id="-176792" lat="67.5674083295" lon="15.7795555491">
		<tag k="name" v="Lamsetodden" />
		<tag k="natural" v="cape" />
		<tag k="ssr:stedsnr" v="502698" />
	</node>
	<node id="-178817" lat="67.6900861077" lon="15.8121138958">
		<tag k="name" v="Storeidvika" />
		<tag k="natural" v="bay" />
		<tag k="ssr:stedsnr" v="809365" />
	</node>
	<node id="-178816" lat="67.7080583364" lon="15.7696305664">
		<tag k="name" v="Bjørnstokkodden" />
		<tag k="natural" v="cape" />
		<tag k="ssr:stedsnr" v="809360" />
	</node>
	<node id="-178806" lat="67.5303305527" lon="15.4319444494">
		<tag k="name" v="Sagneset" />
		<tag k="natural" v="cape" />
		<tag k="ssr:stedsnr" v="806946" />
	</node>
	<node id="-176755" lat="67.5511194448" lon="15.6701638847">
		<tag k="name" v="Bergodden" />
		<tag k="natural" v="cape" />
		<tag k="ssr:stedsnr" v="446817" />
	</node>
	<node id="-178799" lat="67.5326638876" lon="15.456747221">
		<tag k="name" v="Skjåneset" />
		<tag k="natural" v="cape" />
		<tag k="ssr:stedsnr" v="806747" />
	</node>
	<node id="-178798" lat="67.5799250035" lon="15.8231611172">
		<tag k="bay" v="fjord" />
		<tag k="name" v="Sørfjorden" />
		<tag k="natural" v="bay" />
		<tag k="ssr:stedsnr" v="806738" />
	</node>
	<node id="-176745" lat="67.7074805568" lon="15.8464805539">
		<tag k="name" v="Mørsvikbukta" />
		<tag k="natural" v="bay" />
		<tag k="ssr:stedsnr" v="445110" />
	</node>
	<node id="-176743" lat="67.4955277802" lon="15.2366694468">
		<tag k="name" v="Skavvika" />
		<tag k="natural" v="bay" />
		<tag k="ssr:stedsnr" v="445023" />
	</node>
	<node id="-176742" lat="67.5423222262" lon="15.2671361145">
		<tag k="name" v="Innervika" />
		<tag k="natural" v="bay" />
		<tag k="ssr:stedsnr" v="445019" />
	</node>
	<node id="-176741" lat="67.4979472224" lon="15.2551472178">
		<tag k="name" v="Åkervika" />
		<tag k="natural" v="bay" />
		<tag k="ssr:stedsnr" v="659349" />
	</node>
	<node id="-178775" lat="67.4201388853" lon="15.5251888972">
		<tag k="name" v="Storsteinvika" />
		<tag k="natural" v="bay" />
		<tag k="ssr:stedsnr" v="805546" />
	</node>
	<node id="-178774" lat="67.7164500029" lon="15.784830561">
		<tag k="name" v="Stampnesodden" />
		<tag k="natural" v="cape" />
		<tag k="ssr:stedsnr" v="805542" />
	</node>
	<node id="-178764" lat="67.4601240169" lon="15.1853378647">
		<tag k="name" v="Leirvika" />
		<tag k="natural" v="bay" />
		<tag k="ssr:stedsnr" v="805647" />
	</node>
	<node id="-176715" lat="67.3926277821" lon="15.6034166648">
		<tag k="name" v="Måsøyvika" />
		<tag k="natural" v="bay" />
		<tag k="ssr:stedsnr" v="516230" />
	</node>
	<node id="-176713" lat="67.3981555601" lon="15.5917472146">
		<tag k="name" v="Storholmen" />
		<tag k="place" v="islet" />
		<tag k="ssr:stedsnr" v="516220" />
	</node>
	<node id="-176712" lat="67.400994446" lon="15.5964138974">
		<tag k="name" v="Langvika" />
		<tag k="natural" v="bay" />
		<tag k="ssr:stedsnr" v="516219" />
	</node>
	<node id="-178757" lat="67.6036749979" lon="15.209558329">
		<tag k="name" v="Lassodden" />
		<tag k="natural" v="cape" />
		<tag k="ssr:stedsnr" v="805041" />
	</node>
	<node id="-178756" lat="67.5894750039" lon="15.2126499922">
		<tag k="name" v="Rognan" />
		<tag k="natural" v="cape" />
		<tag k="ssr:stedsnr" v="805038" />
	</node>
	<node id="-176695" lat="67.5930638856" lon="15.2338944317">
		<tag k="name" v="Straumen" />
		<tag k="natural" v="strait" />
		<tag k="ssr:stedsnr" v="506982" />
	</node>
	<node id="-178741" lat="67.4407583329" lon="15.497208328">
		<tag k="name" v="Kinesodden" />
		<tag k="natural" v="cape" />
		<tag k="ssr:stedsnr" v="759549" />
	</node>
	<node id="-176692" lat="67.6389555594" lon="15.2854555575">
		<tag k="name" v="Osen" />
		<tag k="natural" v="bay" />
		<tag k="ssr:stedsnr" v="506970" />
	</node>
	<node id="-176690" lat="67.5319972187" lon="15.336466673">
		<tag k="name" v="Flogneset" />
		<tag k="natural" v="cape" />
		<tag k="ssr:stedsnr" v="506964" />
	</node>
	<node id="-178737" lat="67.5159416704" lon="15.5109305487">
		<tag k="name" v="Vikan" />
		<tag k="natural" v="bay" />
		<tag k="ssr:stedsnr" v="759399" />
	</node>
	<node id="-176688" lat="67.5371416653" lon="15.2799666756">
		<tag k="name" v="Salttronvika" />
		<tag k="natural" v="bay" />
		<tag k="ssr:stedsnr" v="506957" />
	</node>
	<node id="-176687" lat="67.6260527741" lon="15.2066916724">
		<tag k="name" v="Seglvika" />
		<tag k="natural" v="bay" />
		<tag k="ssr:stedsnr" v="507057" />
	</node>
	<node id="-178729" lat="67.3768194411" lon="15.603983324">
		<tag k="name" v="Ørvikodden" />
		<tag k="natural" v="cape" />
		<tag k="ssr:stedsnr" v="759298" />
	</node>
	<node id="-178724" lat="67.3883499969" lon="15.6065722165">
		<tag k="alt_name" v="Ytre Hellbukta" />
		<tag k="name" v="Bratthaugvika" />
		<tag k="natural" v="bay" />
		<tag k="ssr:stedsnr" v="759215" />
	</node>
	<node id="-176671" lat="67.5916888924" lon="15.2213944451">
		<tag k="name" v="Nordsjøvika" />
		<tag k="natural" v="bay" />
		<tag k="ssr:stedsnr" v="506014" />
	</node>
	<node id="-176670" lat="67.5687555579" lon="15.2170444428">
		<tag k="name" v="Svarthammarneset" />
		<tag k="natural" v="cape" />
		<tag k="ssr:stedsnr" v="506007" />
	</node>
	<node id="-176666" lat="67.4097388858" lon="15.5334944439">
		<tag k="name" v="Hammarfallvika" />
		<tag k="natural" v="bay" />
		<tag k="ssr:stedsnr" v="394634" />
	</node>
	<node id="-178696" lat="67.5892416687" lon="15.451294435">
		<tag k="name" v="Sommarnesbukta" />
		<tag k="natural" v="bay" />
		<tag k="ssr:stedsnr" v="749687" />
	</node>
	<node id="-176647" lat="67.4366833362" lon="15.147997228">
		<tag k="name" v="Urodden" />
		<tag k="natural" v="cape" />
		<tag k="ssr:stedsnr" v="385060" />
	</node>
	<node id="-176646" lat="67.4442416628" lon="15.140319447">
		<tag k="name" v="Kobbosnes" />
		<tag k="natural" v="cape" />
		<tag k="ssr:stedsnr" v="385057" />
	</node>
	<node id="-176645" lat="67.47930833" lon="15.5822472323">
		<tag k="name" v="Bjøllvikneset" />
		<tag k="natural" v="cape" />
		<tag k="ssr:stedsnr" v="384767" />
	</node>
	<node id="-176631" lat="67.6045527785" lon="15.3679694332">
		<tag k="name" v="Reinvika" />
		<tag k="natural" v="bay" />
		<tag k="ssr:stedsnr" v="502901" />
	</node>
	<node id="-176553" lat="67.4336361082" lon="15.5537027662">
		<tag k="name" v="Kuforrvika" />
		<tag k="natural" v="bay" />
		<tag k="ssr:stedsnr" v="274277" />
	</node>
	<node id="-176618" lat="67.584100004" lon="15.8212638967">
		<tag k="name" v="Skyttvika" />
		<tag k="natural" v="bay" />
		<tag k="ssr:stedsnr" v="502563" />
	</node>
	<node id="-178660" lat="67.555861114" lon="15.6929388998">
		<tag k="name" v="Mølnvika" />
		<tag k="natural" v="bay" />
		<tag k="ssr:stedsnr" v="745996" />
	</node>
	<node id="-178655" lat="67.6159694427" lon="15.2210722137">
		<tag k="bay" v="fjord" />
		<tag k="name" v="Revsnesfjorden" />
		<tag k="natural" v="bay" />
		<tag k="ssr:stedsnr" v="745939" />
	</node>
	<node id="-178652" lat="67.601" lon="15.1770444523">
		<tag k="name" v="Storvika" />
>>>>>>> e1d4bc35ff8a6074a6f2e91616a996b547c36f15
		<tag k="natural" v="bay" />
		<tag k="ssr:stedsnr" v="745781" />
	</node>
<<<<<<< HEAD
	<node lat="67.6320638857822" lon="15.255527777939594" id="-13756">
		<tag k="name" v="Gamneset" />
		<tag k="natural" v="cape" />
		<tag k="ssr:stedsnr" v="203979" />
	</node>
	<node lat="67.4066805544784" lon="15.636944435756604" id="-13778">
		<tag k="fixme" v="consider seamark:type=rock or natural=shoal" />
		<tag k="name" v="Leirvikskjæret" />
		<tag k="place" v="islet" />
		<tag k="ssr:stedsnr" v="213250" />
	</node>
	<node lat="67.42138888474514" lon="15.671211106601795" id="-13779">
		<tag k="name" v="Finnvika" />
		<tag k="natural" v="bay" />
		<tag k="ssr:stedsnr" v="213252" />
	</node>
	<node lat="67.37294166764751" lon="15.584516663409111" id="-13784">
		<tag k="name" v="Svarthammarvika" />
		<tag k="natural" v="bay" />
		<tag k="ssr:stedsnr" v="213372" />
	</node>
	<node lat="67.37258055915858" lon="15.611458342462976" id="-13799">
		<tag k="name" v="Stornesodden" />
		<tag k="natural" v="cape" />
		<tag k="ssr:stedsnr" v="273338" />
	</node>
	<node lat="67.43363610817333" lon="15.55370276623691" id="-13807">
		<tag k="name" v="Kuforrvika" />
		<tag k="natural" v="bay" />
		<tag k="ssr:stedsnr" v="274277" />
	</node>
	<node lat="67.40698889097835" lon="15.631300004265183" id="-13841">
		<tag k="bay" v="fjord" />
		<tag k="name" v="Tørrfjorden" />
		<tag k="natural" v="bay" />
		<tag k="ssr:stedsnr" v="319949" />
	</node>
	<node lat="67.68351110965514" lon="15.834861098662792" id="-13844">
		<tag k="name" v="Sildhopvika - Silldavuohppe" />
		<tag k="name:no" v="Sildhopvika" />
		<tag k="name:smj" v="Silldavuohppe" />
		<tag k="natural" v="bay" />
		<tag k="old_name:smj" v="Sildavuohppi" />
		<tag k="ssr:stedsnr" v="320507" />
	</node>
	<node lat="67.68907222348471" lon="15.826972222199014" id="-13845">
		<tag k="name" v="Sildhopen" />
		<tag k="natural" v="bay" />
		<tag k="ssr:stedsnr" v="320509" />
	</node>
	<node lat="67.53168611287667" lon="15.341305553442071" id="-13863">
		<tag k="name" v="Tangvika" />
		<tag k="natural" v="bay" />
		<tag k="ssr:stedsnr" v="320950" />
	</node>
	<node lat="67.53523055220028" lon="15.294241661795285" id="-13865">
		<tag k="name" v="Storvikneset" />
		<tag k="natural" v="cape" />
		<tag k="ssr:stedsnr" v="320954" />
	</node>
	<node lat="67.5168222214349" lon="15.536641671827208" id="-13867">
		<tag k="name" v="Geitvika" />
		<tag k="natural" v="bay" />
		<tag k="ssr:stedsnr" v="320964" />
	</node>
	<node lat="67.44759721905787" lon="15.159536114364009" id="-13872">
		<tag k="name" v="Osan" />
		<tag k="natural" v="bay" />
		<tag k="ssr:stedsnr" v="324035" />
	</node>
	<node lat="67.58583611094028" lon="15.433430548563981" id="-13879">
		<tag k="name" v="Kobbosen" />
		<tag k="natural" v="bay" />
		<tag k="ssr:stedsnr" v="324664" />
	</node>
	<node lat="67.50180278141667" lon="15.560499992047848" id="-13887">
		<tag k="name" v="Lisj-Kalvikodden" />
		<tag k="natural" v="cape" />
		<tag k="ssr:stedsnr" v="325179" />
	</node>
	<node lat="67.57766944454237" lon="15.78142778031942" id="-13912">
		<tag k="fixme" v="consider seamark:type=rock or natural=shoal" />
		<tag k="name" v="Innerskjæret" />
		<tag k="place" v="islet" />
		<tag k="ssr:stedsnr" v="334410" />
	</node>
	<node lat="67.5833416693676" lon="15.85653332455906" id="-13926">
		<tag k="name" v="Kobbhammarnes" />
		<tag k="natural" v="cape" />
		<tag k="ssr:stedsnr" v="334569" />
	</node>
	<node lat="67.53164444427844" lon="15.360930561048058" id="-13934">
		<tag k="name" v="Geitvika" />
		<tag k="natural" v="bay" />
		<tag k="ssr:stedsnr" v="355330" />
	</node>
	<node lat="67.47547222433636" lon="15.574938881884723" id="-13940">
		<tag k="bay" v="fjord" />
		<tag k="name" v="Aspfjorden" />
		<tag k="natural" v="bay" />
		<tag k="ssr:stedsnr" v="379587" />
	</node>
	<node lat="67.46169444922147" lon="15.528977769871313" id="-13945">
		<tag k="name" v="Langstranda" />
		<tag k="natural" v="beach" />
		<tag k="ssr:stedsnr" v="380547" />
	</node>
	<node lat="67.59978333226027" lon="15.196205553516641" id="-13951">
		<tag k="name" v="Toffelvika" />
		<tag k="natural" v="bay" />
		<tag k="ssr:stedsnr" v="380042" />
	</node>
	<node lat="67.53391666859395" lon="15.176122216552569" id="-13952">
		<tag k="name" v="Vindvikodden" />
		<tag k="natural" v="cape" />
		<tag k="ssr:stedsnr" v="380077" />
	</node>
	<node lat="67.50478888829758" lon="15.37587777446729" id="-13963">
		<tag k="name" v="Korsvikneset" />
		<tag k="natural" v="cape" />
		<tag k="ssr:stedsnr" v="380948" />
	</node>
	<node lat="67.6151583363261" lon="15.241233325872676" id="-13980">
		<tag k="name" v="Revsnesodden" />
		<tag k="natural" v="cape" />
		<tag k="ssr:stedsnr" v="381942" />
	</node>
	<node lat="67.50412500199424" lon="15.320841669148578" id="-13983">
		<tag k="name" v="Flogbukta" />
		<tag k="natural" v="bay" />
		<tag k="ssr:stedsnr" v="384035" />
	</node>
	<node lat="67.69124444262285" lon="15.816402781537835" id="-13988">
		<tag k="name" v="Klubben" />
		<tag k="natural" v="cape" />
		<tag k="ssr:stedsnr" v="384361" />
	</node>
	<node lat="67.47930832995614" lon="15.582247232309179" id="-13999">
		<tag k="name" v="Bjøllvikneset" />
		<tag k="natural" v="cape" />
		<tag k="ssr:stedsnr" v="384767" />
	</node>
	<node lat="67.5439333366925" lon="15.259752782500282" id="-14001">
		<tag k="name" v="Sandvika" />
		<tag k="natural" v="bay" />
		<tag k="ssr:stedsnr" v="384939" />
	</node>
	<node lat="67.43616389000752" lon="15.543252776399239" id="-14034">
		<tag k="name" v="Skjellvikodden" />
		<tag k="natural" v="cape" />
		<tag k="ssr:stedsnr" v="395322" />
	</node>
	<node lat="67.58388127649542" lon="15.835399203415957" id="-14037">
		<tag k="name" v="Ørnessteinan" />
		<tag k="natural" v="cape" />
		<tag k="ssr:stedsnr" v="395551" />
	</node>
	<node lat="67.44085553717302" lon="15.494502262899083" id="-14038">
		<tag k="name" v="Stokkvikodden" />
		<tag k="natural" v="cape" />
		<tag k="ssr:stedsnr" v="395555" />
	</node>
	<node lat="67.5906777787615" lon="15.867838880902736" id="-14039">
		<tag k="name" v="Makkøyra" />
		<tag k="natural" v="shoal" />
		<tag k="place" v="locality" />
		<tag k="ssr:stedsnr" v="395557" />
	</node>
	<node lat="67.43087222121072" lon="15.517352774390698" id="-14040">
		<tag k="name" v="Furnesodden" />
		<tag k="natural" v="cape" />
		<tag k="ssr:stedsnr" v="395558" />
	</node>
	<node lat="67.41659166476364" lon="15.577580549197078" id="-14066">
		<tag k="name" v="Daudmannvika" />
		<tag k="natural" v="bay" />
		<tag k="ssr:stedsnr" v="441545" />
	</node>
	<node lat="67.50069721818473" lon="15.559930560728096" id="-14067">
		<tag k="name" v="Lisj-Kalvika" />
		<tag k="natural" v="bay" />
		<tag k="ssr:stedsnr" v="441557" />
	</node>
	<node lat="67.58128888915512" lon="15.78243055680228" id="-14071">
		<tag k="name" v="Kalovika" />
		<tag k="natural" v="bay" />
		<tag k="ssr:stedsnr" v="441577" />
	</node>
	<node lat="67.69432777635606" lon="15.830488896143308" id="-14075">
		<tag k="name" v="Sildhopneset" />
		<tag k="natural" v="cape" />
		<tag k="ssr:stedsnr" v="441518" />
	</node>
	<node lat="67.50058611014109" lon="15.387375004707602" id="-14086">
		<tag k="name" v="Skarvoddan" />
		<tag k="natural" v="cape" />
		<tag k="ssr:stedsnr" v="441968" />
	</node>
	<node lat="67.40214722459221" lon="15.599394433261827" id="-14087">
		<tag k="name" v="Langvikneset" />
		<tag k="natural" v="cape" />
		<tag k="ssr:stedsnr" v="441971" />
	</node>
	<node lat="67.54232222616082" lon="15.26713611448828" id="-14101">
		<tag k="name" v="Innervika" />
		<tag k="natural" v="bay" />
		<tag k="ssr:stedsnr" v="445019" />
	</node>
	<node lat="67.495527780178" lon="15.236669446762455" id="-14102">
		<tag k="name" v="Skavvika" />
		<tag k="natural" v="bay" />
		<tag k="ssr:stedsnr" v="445023" />
	</node>
	<node lat="67.7074805568336" lon="15.846480553880319" id="-14104">
		<tag k="name" v="Mørsvikbukta" />
		<tag k="natural" v="bay" />
		<tag k="ssr:stedsnr" v="445110" />
	</node>
	<node lat="67.58267777567141" lon="15.231222225886837" id="-14116">
		<tag k="name" v="Skjoldsanden" />
		<tag k="natural" v="beach" />
		<tag k="ssr:stedsnr" v="445994" />
	</node>
	<node lat="67.551119444806" lon="15.670163884689755" id="-14132">
		<tag k="name" v="Bergodden" />
		<tag k="natural" v="cape" />
		<tag k="ssr:stedsnr" v="446817" />
	</node>
	<node lat="67.46088333099424" lon="15.134463884251154" id="-14142">
		<tag k="name" v="Einarvika" />
		<tag k="natural" v="bay" />
		<tag k="ssr:stedsnr" v="501562" />
	</node>
	<node lat="67.49162222273831" lon="15.146838900549682" id="-14148">
		<tag k="name" v="Kroken" />
		<tag k="natural" v="bay" />
		<tag k="ssr:stedsnr" v="501599" />
	</node>
	<node lat="67.60455277846364" lon="15.36796943320623" id="-14160">
		<tag k="name" v="Reinvika" />
		<tag k="natural" v="bay" />
		<tag k="ssr:stedsnr" v="502901" />
	</node>
	<node lat="67.58410000401096" lon="15.821263896676802" id="-14167">
		<tag k="name" v="Skyttvika" />
		<tag k="natural" v="bay" />
		<tag k="ssr:stedsnr" v="502563" />
	</node>
	<node lat="67.59306388561367" lon="15.23389443174418" id="-14195">
		<tag k="name" v="Straumen" />
		<tag k="natural" v="strait" />
		<tag k="ssr:stedsnr" v="506982" />
	</node>
	<node lat="67.39262778211811" lon="15.603416664776406" id="-14211">
		<tag k="name" v="Måsøyvika" />
		<tag k="natural" v="bay" />
		<tag k="ssr:stedsnr" v="516230" />
	</node>
	<node lat="67.46353889126824" lon="15.477130544919168" id="-14236">
		<tag k="name" v="Hammarvika" />
		<tag k="natural" v="bay" />
		<tag k="ssr:stedsnr" v="561516" />
	</node>
	<node lat="67.5982333295583" lon="15.204863876581129" id="-14248">
		<tag k="name" v="Måsøysundet" />
		<tag k="natural" v="strait" />
		<tag k="ssr:stedsnr" v="562040" />
	</node>
	<node lat="67.45702222211966" lon="15.131408337733953" id="-14261">
		<tag k="name" v="Kjerringvika" />
		<tag k="natural" v="bay" />
		<tag k="ssr:stedsnr" v="562585" />
	</node>
	<node lat="67.58460555291488" lon="15.834999997184394" id="-14272">
		<tag k="name" v="Ørnes" />
		<tag k="natural" v="cape" />
		<tag k="ssr:stedsnr" v="562573" />
	</node>
	<node lat="67.57355277317404" lon="15.8141138923015" id="-14275">
		<tag k="name" v="Kinesodden" />
		<tag k="natural" v="cape" />
		<tag k="ssr:stedsnr" v="562668" />
	</node>
	<node lat="67.73925000266368" lon="15.679400000420417" id="-14286">
		<tag k="name" v="Mølnvika" />
		<tag k="natural" v="bay" />
		<tag k="ssr:stedsnr" v="562770" />
	</node>
	<node lat="67.41019444756142" lon="15.652072228477817" id="-14288">
		<tag k="name" v="Hysvika" />
		<tag k="natural" v="bay" />
		<tag k="ssr:stedsnr" v="562939" />
	</node>
	<node lat="67.38732778033123" lon="15.569386121598592" id="-14299">
		<tag k="name" v="Måsøygrunnen" />
		<tag k="natural" v="shoal" />
		<tag k="place" v="locality" />
		<tag k="ssr:stedsnr" v="562964" />
	</node>
	<node lat="67.59119444172318" lon="15.444183320728817" id="-14304">
		<tag k="bay" v="fjord" />
		<tag k="name" v="Botnfjorden" />
		<tag k="natural" v="bay" />
		<tag k="ssr:stedsnr" v="563756" />
	</node>
	<node lat="67.56096944812033" lon="15.21229999580016" id="-14306">
		<tag k="name" v="Seglvikneset" />
		<tag k="natural" v="cape" />
		<tag k="ssr:stedsnr" v="563763" />
	</node>
	<node lat="67.62394166597217" lon="15.337200009612868" id="-14309">
		<tag k="name" v="Førrnesbukta" />
		<tag k="natural" v="bay" />
		<tag k="ssr:stedsnr" v="563954" />
	</node>
	<node lat="67.50796110668585" lon="15.240663894397763" id="-14311">
		<tag k="name" v="Geitneset" />
		<tag k="natural" v="cape" />
		<tag k="ssr:stedsnr" v="563964" />
	</node>
	<node lat="67.5915750006707" lon="15.24281389307222" id="-14315">
		<tag k="name" v="Dragsneset" />
		<tag k="natural" v="cape" />
		<tag k="ssr:stedsnr" v="566986" />
	</node>
	<node lat="67.54701944149389" lon="15.2419694405275" id="-14318">
		<tag k="name" v="Klubbnesvika" />
		<tag k="natural" v="bay" />
		<tag k="ssr:stedsnr" v="566030" />
	</node>
	<node lat="67.53810278020602" lon="15.277508329472353" id="-14333">
		<tag k="name" v="Stakvika" />
		<tag k="natural" v="bay" />
		<tag k="ssr:stedsnr" v="566947" />
	</node>
	<node lat="67.55555833786786" lon="15.64316110763836" id="-14337">
		<tag k="name" v="Høyvika" />
		<tag k="natural" v="bay" />
		<tag k="ssr:stedsnr" v="567842" />
	</node>
	<node lat="67.53157777805386" lon="15.344394444242768" id="-14349">
		<tag k="name" v="Ospvika" />
		<tag k="natural" v="bay" />
		<tag k="ssr:stedsnr" v="567976" />
	</node>
	<node lat="67.57919444326498" lon="15.793955545259184" id="-14368">
		<tag k="name" v="Kristen-Jensaskolten" />
		<tag k="natural" v="cape" />
		<tag k="ssr:stedsnr" v="577435" />
	</node>
	<node lat="67.43293055261569" lon="15.553247215425763" id="-14375">
		<tag k="fixme" v="consider seamark:type=rock or natural=shoal" />
		<tag k="name" v="Kuforrvikskjæret" />
		<tag k="place" v="islet" />
		<tag k="ssr:stedsnr" v="589262" />
	</node>
	<node lat="67.63265833443515" lon="15.291005543902427" id="-14389">
		<tag k="name" v="Innernesodden" />
		<tag k="natural" v="cape" />
		<tag k="ssr:stedsnr" v="623919" />
	</node>
	<node lat="67.63642500068133" lon="15.287236100515473" id="-14390">
		<tag k="name" v="Lisjneset" />
		<tag k="natural" v="cape" />
		<tag k="ssr:stedsnr" v="623921" />
	</node>
	<node lat="67.62967222004997" lon="15.31069998797069" id="-14391">
		<tag k="name" v="Ungsmalvika" />
		<tag k="natural" v="bay" />
		<tag k="ssr:stedsnr" v="623942" />
	</node>
	<node lat="67.5876805540355" lon="15.250544442125383" id="-14396">
		<tag k="name" v="Sandvika" />
		<tag k="natural" v="bay" />
		<tag k="ssr:stedsnr" v="623751" />
	</node>
	<node lat="67.59956666947018" lon="15.419419456212294" id="-14400">
		<tag k="name" v="Lappvika" />
		<tag k="natural" v="bay" />
		<tag k="ssr:stedsnr" v="623888" />
	</node>
	<node lat="67.60757499988905" lon="15.250119434505313" id="-14401">
		<tag k="name" v="Husbyvika" />
		<tag k="natural" v="bay" />
		<tag k="ssr:stedsnr" v="623896" />
	</node>
	<node lat="67.49966666837332" lon="15.167355563426055" id="-14412">
		<tag k="name" v="Lakssteinbukta" />
		<tag k="natural" v="bay" />
		<tag k="ssr:stedsnr" v="627041" />
	</node>
	<node lat="67.48193610647814" lon="15.531197229780032" id="-14426">
		<tag k="fixme" v="consider seamark:type=rock or natural=shoal" />
		<tag k="name" v="Sildgarnkjæret" />
		<tag k="place" v="islet" />
		<tag k="ssr:stedsnr" v="627824" />
	</node>
	<node lat="67.53601666921172" lon="15.321899995749568" id="-14433">
		<tag k="name" v="Innsvika" />
		<tag k="natural" v="bay" />
		<tag k="ssr:stedsnr" v="627973" />
	</node>
	<node lat="67.53138055464295" lon="15.356458331597578" id="-14434">
		<tag k="name" v="Jonasneset" />
		<tag k="natural" v="cape" />
		<tag k="ssr:stedsnr" v="627975" />
	</node>
	<node lat="67.55994444590932" lon="15.655155557469685" id="-14441">
		<tag k="name" v="Kvantovika" />
		<tag k="natural" v="bay" />
		<tag k="ssr:stedsnr" v="628845" />
	</node>
	<node lat="67.4250527794442" lon="15.521624989378454" id="-14471">
		<tag k="name" v="Lillevika" />
		<tag k="natural" v="bay" />
		<tag k="ssr:stedsnr" v="637645" />
	</node>
	<node lat="67.49794722241617" lon="15.25514721775776" id="-14478">
		<tag k="name" v="Åkervika" />
		<tag k="natural" v="bay" />
		<tag k="ssr:stedsnr" v="659349" />
	</node>
	<node lat="67.75366666410396" lon="15.6298722312918" id="-14479">
		<tag k="name" v="Forrneset" />
		<tag k="natural" v="cape" />
		<tag k="ssr:stedsnr" v="720749" />
	</node>
	<node lat="67.42868820329018" lon="15.670497157799602" id="-14490">
		<tag k="bay" v="fjord" />
		<tag k="name" v="Nordfjorden" />
		<tag k="natural" v="bay" />
		<tag k="ssr:stedsnr" v="744491" />
	</node>
	<node lat="67.49925833348632" lon="15.265269445009146" id="-14497">
		<tag k="name" v="Færøya" />
		<tag k="place" v="island" />
		<tag k="ssr:stedsnr" v="744533" />
	</node>
	<node lat="67.45064166785698" lon="15.153083332876228" id="-14499">
		<tag k="name" v="Forrneset" />
		<tag k="natural" v="cape" />
		<tag k="ssr:stedsnr" v="744555" />
	</node>
	<node lat="67.37570555978316" lon="15.575258334910487" id="-14510">
		<tag k="name" v="Falkvika" />
		<tag k="natural" v="bay" />
		<tag k="ssr:stedsnr" v="744992" />
	</node>
	<node lat="67.73074166983375" lon="15.753738901230177" id="-14532">
		<tag k="name" v="Mjånes" />
		<tag k="natural" v="cape" />
		<tag k="ssr:stedsnr" v="745550" />
	</node>
	<node lat="67.55586111395627" lon="15.692938899822568" id="-14537">
		<tag k="name" v="Mølnvika" />
		<tag k="natural" v="bay" />
		<tag k="ssr:stedsnr" v="745996" />
	</node>
	<node lat="67.61596944267355" lon="15.221072213733844" id="-14539">
		<tag k="bay" v="fjord" />
		<tag k="name" v="Revsnesfjorden" />
		<tag k="natural" v="bay" />
		<tag k="ssr:stedsnr" v="745939" />
	</node>
	<node lat="67.53647221979891" lon="15.386497218669213" id="-14542">
		<tag k="name" v="Bjørnsvika" />
		<tag k="natural" v="bay" />
		<tag k="ssr:stedsnr" v="745956" />
	</node>
	<node lat="67.50866388855857" lon="15.283311107678278" id="-14545">
		<tag k="name" v="Jovikneset" />
		<tag k="natural" v="cape" />
		<tag k="ssr:stedsnr" v="745963" />
	</node>
	<node lat="67.51739722634562" lon="15.502622212881462" id="-14546">
		<tag k="alt_name" v="Likvikneset" />
		<tag k="name" v="Likviknes" />
		<tag k="natural" v="cape" />
		<tag k="ssr:stedsnr" v="745966" />
	</node>
	<node lat="67.59205555621047" lon="15.450841662321482" id="-14567">
		<tag k="name" v="Sommarneset" />
		<tag k="natural" v="cape" />
		<tag k="ssr:stedsnr" v="749686" />
	</node>
	<node lat="67.58924166872427" lon="15.451294434994221" id="-14568">
		<tag k="name" v="Sommarnesbukta" />
		<tag k="natural" v="bay" />
		<tag k="ssr:stedsnr" v="749687" />
	</node>
	<node lat="67.5433305536471" lon="15.607458336238542" id="-14577">
		<tag k="name" v="Reinvikneset" />
		<tag k="natural" v="cape" />
		<tag k="ssr:stedsnr" v="749833" />
	</node>
	<node lat="67.44075833294546" lon="15.49720832796558" id="-14598">
		<tag k="name" v="Kinesodden" />
		<tag k="natural" v="cape" />
		<tag k="ssr:stedsnr" v="759549" />
	</node>
	<node lat="67.58947500394127" lon="15.212649992166341" id="-14618">
		<tag k="name" v="Rognan" />
		<tag k="natural" v="cape" />
		<tag k="ssr:stedsnr" v="805038" />
	</node>
	<node lat="67.60367499792278" lon="15.209558329015895" id="-14619">
		<tag k="name" v="Lassodden" />
		<tag k="natural" v="cape" />
		<tag k="ssr:stedsnr" v="805041" />
	</node>
	<node lat="67.7164500029013" lon="15.784830561044451" id="-14634">
		<tag k="name" v="Stampnesodden" />
		<tag k="natural" v="cape" />
		<tag k="ssr:stedsnr" v="805542" />
	</node>
	<node lat="67.42013888529381" lon="15.525188897200279" id="-14635">
		<tag k="name" v="Storsteinvika" />
		<tag k="natural" v="bay" />
		<tag k="ssr:stedsnr" v="805546" />
	</node>
	<node lat="67.4825583292817" lon="15.530230553126486" id="-14638">
		<tag k="name" v="Langskjærvika" />
		<tag k="natural" v="bay" />
		<tag k="ssr:stedsnr" v="805616" />
	</node>
	<node lat="67.46012401688176" lon="15.185337864711014" id="-14641">
		<tag k="name" v="Leirvika" />
		<tag k="natural" v="bay" />
		<tag k="ssr:stedsnr" v="805647" />
	</node>
	<node lat="67.5326638876489" lon="15.456747220980791" id="-14667">
		<tag k="name" v="Skjåneset" />
		<tag k="natural" v="cape" />
		<tag k="ssr:stedsnr" v="806747" />
	</node>
	<node lat="67.53033055266893" lon="15.431944449360746" id="-14669">
		<tag k="name" v="Sagneset" />
		<tag k="natural" v="cape" />
		<tag k="ssr:stedsnr" v="806946" />
	</node>
	<node lat="67.57992500354902" lon="15.823161117243442" id="-14681">
		<tag k="bay" v="fjord" />
		<tag k="name" v="Sørfjorden" />
		<tag k="natural" v="bay" />
		<tag k="ssr:stedsnr" v="806738" />
	</node>
	<node lat="67.7080583363679" lon="15.76963056640765" id="-14700">
		<tag k="name" v="Bjørnstokkodden" />
		<tag k="natural" v="cape" />
		<tag k="ssr:stedsnr" v="809360" />
	</node>
	<node lat="67.69008610767975" lon="15.8121138958376" id="-14701">
		<tag k="name" v="Storeidvika" />
		<tag k="natural" v="bay" />
		<tag k="ssr:stedsnr" v="809365" />
	</node>
	<node lat="67.47209444246172" lon="15.553180556423344" id="-14722">
		<tag k="name" v="Kløvsteinvika" />
		<tag k="natural" v="bay" />
		<tag k="ssr:stedsnr" v="810775" />
	</node>
	<node lat="67.41933333316267" lon="15.56847776700311" id="-14723">
		<tag k="name" v="Vika" />
		<tag k="natural" v="bay" />
		<tag k="ssr:stedsnr" v="810436" />
	</node>
	<node lat="67.54731944380563" lon="15.615794454738866" id="-14729">
		<tag k="name" v="Inner-Reinvika" />
		<tag k="natural" v="bay" />
		<tag k="ssr:stedsnr" v="810830" />
	</node>
	<node lat="67.52185833020229" lon="15.596236113299105" id="-14732">
		<tag k="name" v="Albertodden" />
		<tag k="natural" v="cape" />
		<tag k="ssr:stedsnr" v="810861" />
	</node>
	<node lat="67.38063333200581" lon="15.5455444405881" id="-14740">
		<tag k="name" v="Kobbskjærodden" />
		<tag k="natural" v="cape" />
		<tag k="ssr:stedsnr" v="819295" />
	</node>
	<node lat="67.43953611069561" lon="15.498658322059256" id="-14759">
		<tag k="name" v="Nes" />
		<tag k="natural" v="cape" />
		<tag k="ssr:stedsnr" v="820534" />
	</node>
	<node lat="67.59081944767753" lon="15.852547218104052" id="-14762">
		<tag k="name" v="Kvalvika" />
		<tag k="natural" v="bay" />
		<tag k="ssr:stedsnr" v="820541" />
	</node>
	<node lat="67.57809167040655" lon="15.86088333642224" id="-14782">
		<tag k="alt_name" v="Storholmen" />
		<tag k="name" v="Ytterholmen" />
		<tag k="place" v="islet" />
		<tag k="ssr:stedsnr" v="866549" />
	</node>
	<node lat="67.49196944254835" lon="15.453072231551483" id="-14785">
		<tag k="name" v="Bordstolneset" />
		<tag k="natural" v="cape" />
		<tag k="ssr:stedsnr" v="866552" />
	</node>
	<node lat="67.53821666638129" lon="15.216083329352823" id="-14796">
		<tag k="alt_name:no" v="Sørfolla" />
		<tag k="bay" v="fjord" />
		<tag k="loc_name:smj" v="Oarjje-Fuolldá" />
		<tag k="name" v="Sørfolda" />
		<tag k="name:no" v="Sørfolda" />
		<tag k="natural" v="bay" />
		<tag k="ssr:stedsnr" v="866492" />
	</node>
	<node lat="67.69887222359786" lon="15.80958333875654" id="-14797">
		<tag k="name" v="Mørsvikbotn - Murgosvuodna" />
		<tag k="name:no" v="Mørsvikbotn" />
		<tag k="name:smj" v="Murgosvuodna" />
		<tag k="natural" v="bay" />
		<tag k="old_name:smj" v="Murggosvuotna" />
		<tag k="ssr:stedsnr" v="866494" />
	</node>
	<node lat="67.70035000381259" lon="15.795675001295246" id="-14798">
		<tag k="name" v="Håkjerringneset - Njárgga" />
		<tag k="name:no" v="Håkjerringneset" />
		<tag k="name:smj" v="Njárgga" />
		<tag k="natural" v="cape" />
		<tag k="old_name:smj" v="Njarga" />
		<tag k="ssr:stedsnr" v="866497" />
	</node>
	<node lat="67.57248610701387" lon="15.751888883247872" id="-14812">
		<tag k="name" v="Kremmarvika" />
		<tag k="natural" v="bay" />
		<tag k="ssr:stedsnr" v="866665" />
	</node>
	<node lat="67.59502777821272" lon="15.453002771346572" id="-14819">
		<tag k="name" v="Leirpollbukta" />
		<tag k="natural" v="bay" />
		<tag k="ssr:stedsnr" v="866878" />
	</node>
	<node lat="67.53591388521426" lon="15.615963884223445" id="-14833">
		<tag k="bay" v="fjord" />
		<tag k="name" v="Leirfjorden - Činovuotna" />
		<tag k="name:no" v="Leirfjorden" />
		<tag k="name:smj" v="Činovuotna" />
		<tag k="natural" v="bay" />
		<tag k="old_name:smj" v="Činovoutna" />
		<tag k="ssr:stedsnr" v="867737" />
	</node>
	<node lat="67.49862222256499" lon="15.188247227748686" id="-14842">
		<tag k="name" v="Ytterneset" />
		<tag k="natural" v="cape" />
		<tag k="ssr:stedsnr" v="870042" />
	</node>
	<node lat="67.58894722482835" lon="15.440288884333414" id="-14853">
		<tag k="fixme" v="consider seamark:type=rock or natural=shoal" />
		<tag k="name" v="Kobbskjæran" />
		<tag k="place" v="islet" />
		<tag k="ssr:stedsnr" v="870688" />
	</node>
	<node lat="67.62403888716351" lon="15.279233335871965" id="-14854">
		<tag k="bay" v="fjord" />
		<tag k="name" v="Sagfjorden" />
		<tag k="natural" v="bay" />
		<tag k="ssr:stedsnr" v="870936" />
	</node>
	<node lat="67.4946416688997" lon="15.547044447044712" id="-14859">
		<tag k="name" v="Kristenodden" />
		<tag k="natural" v="cape" />
		<tag k="ssr:stedsnr" v="871159" />
	</node>
	<node lat="67.4412694445018" lon="15.524383333924456" id="-14878">
		<tag k="fixme" v="consider seamark:type=rock or natural=shoal" />
		<tag k="name" v="Nevervikskjæret" />
		<tag k="place" v="islet" />
		<tag k="ssr:stedsnr" v="880572" />
	</node>
	<node lat="67.58057222120965" lon="15.788111102120089" id="-14885">
		<tag k="name" v="Hestvika" />
		<tag k="natural" v="bay" />
		<tag k="ssr:stedsnr" v="881438" />
	</node>
	<node lat="67.39146944408425" lon="15.5405861171714" id="-14896">
		<tag k="name" v="Lappvika" />
		<tag k="natural" v="bay" />
		<tag k="ssr:stedsnr" v="941188" />
	</node>
	<node lat="67.39707500225606" lon="15.592666677086008" id="-14898">
		<tag k="name" v="Lilleholmen" />
		<tag k="place" v="islet" />
		<tag k="ssr:stedsnr" v="941199" />
	</node>
	<node lat="67.40596110759475" lon="15.63708055810673" id="-14902">
		<tag k="name" v="Leirvika" />
		<tag k="natural" v="bay" />
		<tag k="ssr:stedsnr" v="941167" />
	</node>
	<node lat="67.35541944443162" lon="15.602224990474175" id="-14904">
		<tag k="name" v="Hermannstolen" />
		<tag k="natural" v="beach" />
		<tag k="ssr:stedsnr" v="941175" />
	</node>
	<node lat="67.52448611339268" lon="15.479424993314037" id="-14911">
		<tag k="name" v="Støvik" />
		<tag k="natural" v="bay" />
		<tag k="ssr:stedsnr" v="941308" />
	</node>
	<node lat="67.44075833294546" lon="15.49720832796558" id="-14919">
		<tag k="name" v="Kinesleira" />
		<tag k="natural" v="shoal" />
		<tag k="place" v="locality" />
		<tag k="ssr:stedsnr" v="941538" />
=======
	<node id="-178650" lat="67.7307416698" lon="15.7537389012">
		<tag k="name" v="Mjånes" />
		<tag k="natural" v="cape" />
		<tag k="ssr:stedsnr" v="745550" />
	</node>
	<node id="-176600" lat="67.460883331" lon="15.1344638843">
		<tag k="name" v="Einarvika" />
		<tag k="natural" v="bay" />
		<tag k="ssr:stedsnr" v="501562" />
	</node>
	<node id="-176582" lat="67.5776694445" lon="15.7814277803">
		<tag k="fixme" v="consider seamark:type=rock or natural=shoal" />
		<tag k="name" v="Innerskjæret" />
		<tag k="place" v="islet" />
		<tag k="ssr:stedsnr" v="334410" />
	</node>
	<node id="-178627" lat="67.3757055598" lon="15.5752583349">
		<tag k="name" v="Falkvika" />
		<tag k="natural" v="bay" />
		<tag k="ssr:stedsnr" v="744992" />
	</node>
	<node id="-176578" lat="67.4357999958" lon="15.54616112">
		<tag k="name" v="Lillevika" />
		<tag k="natural" v="bay" />
		<tag k="ssr:stedsnr" v="334306" />
	</node>
	<node id="-178621" lat="67.4992583335" lon="15.265269445">
		<tag k="name" v="Færøya" />
		<tag k="place" v="island" />
		<tag k="ssr:stedsnr" v="744533" />
	</node>
	<node id="-178619" lat="67.4286882033" lon="15.6704971578">
		<tag k="bay" v="fjord" />
		<tag k="name" v="Nordfjorden" />
		<tag k="natural" v="bay" />
		<tag k="ssr:stedsnr" v="744491" />
	</node>
	<node id="-178603" lat="67.4250527794" lon="15.5216249894">
		<tag k="name" v="Lillevika" />
		<tag k="natural" v="bay" />
		<tag k="ssr:stedsnr" v="637645" />
	</node>
	<node id="-178601" lat="67.5896250031" lon="15.8470777878">
		<tag k="name" v="Sagvika" />
		<tag k="natural" v="bay" />
		<tag k="ssr:stedsnr" v="637583" />
	</node>
	<node id="-176542" lat="67.5754916633" lon="15.870747217">
		<tag k="name" v="Viknes" />
		<tag k="natural" v="cape" />
		<tag k="ssr:stedsnr" v="456861" />
	</node>
	<node id="-178580" lat="67.393758337" lon="15.6002416785">
		<tag k="name" v="Morforrvika" />
		<tag k="natural" v="bay" />
		<tag k="ssr:stedsnr" v="637235" />
	</node>
	<node id="-178579" lat="67.3944638871" lon="15.5980972267">
		<tag k="name" v="Lillevika" />
		<tag k="natural" v="bay" />
		<tag k="ssr:stedsnr" v="637233" />
	</node>
	<node id="-178578" lat="67.3997166656" lon="15.594794447">
		<tag k="name" v="Nisvika" />
		<tag k="natural" v="bay" />
		<tag k="ssr:stedsnr" v="637225" />
	</node>
	<node id="-178571" lat="67.5599444459" lon="15.6551555575">
		<tag k="name" v="Kvantovika" />
		<tag k="natural" v="bay" />
		<tag k="ssr:stedsnr" v="628845" />
	</node>
	<node id="-178240" lat="67.504125002" lon="15.3208416691">
		<tag k="name" v="Flogbukta" />
		<tag k="natural" v="bay" />
		<tag k="ssr:stedsnr" v="384035" />
	</node>
	<node id="-176504" lat="67.62570833" lon="15.2016277836">
		<tag k="name" v="Seglvikneset" />
		<tag k="natural" v="cape" />
		<tag k="ssr:stedsnr" v="449678" />
	</node>
	<node id="-176532" lat="67.4355305578" lon="15.5467416594">
		<tag k="name" v="Lillevikodden" />
		<tag k="natural" v="cape" />
		<tag k="ssr:stedsnr" v="456308" />
	</node>
	<node id="-176501" lat="67.5641833289" lon="15.6746555563">
		<tag k="name" v="Innersjøen" />
		<tag k="natural" v="beach" />
		<tag k="place" v="locality" />
		<tag k="ssr:stedsnr" v="446891" />
	</node>
	<node id="-178545" lat="67.4996666684" lon="15.1673555634">
		<tag k="name" v="Lakssteinbukta" />
		<tag k="natural" v="bay" />
		<tag k="ssr:stedsnr" v="627041" />
	</node>
	<node id="-176488" lat="67.5826777757" lon="15.2312222259">
		<tag k="name" v="Skjoldsanden" />
		<tag k="natural" v="beach" />
		<tag k="place" v="locality" />
		<tag k="ssr:stedsnr" v="445994" />
	</node>
	<node id="-178531" lat="67.62967222" lon="15.310699988">
		<tag k="name" v="Ungsmalvika" />
		<tag k="natural" v="bay" />
		<tag k="ssr:stedsnr" v="623942" />
	</node>
	<node id="-178530" lat="67.6364250007" lon="15.2872361005">
		<tag k="name" v="Lisjneset" />
		<tag k="natural" v="cape" />
		<tag k="ssr:stedsnr" v="623921" />
	</node>
	<node id="-178529" lat="67.6326583344" lon="15.2910055439">
		<tag k="name" v="Innernesodden" />
		<tag k="natural" v="cape" />
		<tag k="ssr:stedsnr" v="623919" />
	</node>
	<node id="-178525" lat="67.6075749999" lon="15.2501194345">
		<tag k="name" v="Husbyvika" />
		<tag k="natural" v="bay" />
		<tag k="ssr:stedsnr" v="623896" />
	</node>
	<node id="-178524" lat="67.5995666695" lon="15.4194194562">
		<tag k="name" v="Lappvika" />
		<tag k="natural" v="bay" />
		<tag k="ssr:stedsnr" v="623888" />
	</node>
	<node id="-178522" lat="67.587680554" lon="15.2505444421">
		<tag k="name" v="Sandvika" />
		<tag k="natural" v="bay" />
		<tag k="ssr:stedsnr" v="623751" />
	</node>
	<node id="-176470" lat="67.5114416679" lon="15.2688555498">
		<tag k="name" v="Jovikskallen" />
		<tag k="natural" v="shoal" />
		<tag k="place" v="locality" />
		<tag k="ssr:stedsnr" v="225915" />
	</node>
	<node id="-178514" lat="67.4816083383" lon="15.2261305458">
		<tag k="name" v="Vellamsvika" />
		<tag k="natural" v="bay" />
		<tag k="ssr:stedsnr" v="623583" />
	</node>
	<node id="-178512" lat="67.5883805534" lon="15.8545083351">
		<tag k="name" v="Kobbelvvågen" />
		<tag k="natural" v="bay" />
		<tag k="ssr:stedsnr" v="623580" />
	</node>
	<node id="-178232" lat="67.6151583363" lon="15.2412333259">
		<tag k="name" v="Revsnesodden" />
		<tag k="natural" v="cape" />
		<tag k="ssr:stedsnr" v="381942" />
	</node>
	<node id="-178506" lat="67.4219638933" lon="15.6653166581">
		<tag k="alt_name" v="Trengselsundet" />
		<tag k="name" v="Trengselet" />
		<tag k="natural" v="strait" />
		<tag k="ssr:stedsnr" v="623562" />
	</node>
	<node id="-176452" lat="67.4021472246" lon="15.5993944333">
		<tag k="name" v="Langvikneset" />
		<tag k="natural" v="cape" />
		<tag k="ssr:stedsnr" v="441971" />
	</node>
	<node id="-176451" lat="67.5005861101" lon="15.3873750047">
		<tag k="name" v="Skarvoddan" />
		<tag k="natural" v="cape" />
		<tag k="ssr:stedsnr" v="441968" />
	</node>
	<node id="-176449" lat="67.4088318652" lon="15.5800694">
		<tag k="fixme" v="multiple name tags, choose one and add the other to alt_name; consider seamark:type=rock or natural=shoal" />
		<tag k="name" v="Skolten;Tørrfjordskjæret" />
		<tag k="place" v="islet" />
		<tag k="ssr:stedsnr" v="441947" />
	</node>
	<node id="-178496" lat="67.532327779" lon="15.1851499903">
		<tag k="name" v="Jensvika" />
		<tag k="natural" v="bay" />
		<tag k="ssr:stedsnr" v="623083" />
	</node>
	<node id="-176432" lat="67.4492916686" lon="15.1408999902">
		<tag k="name" v="Tornesodden" />
		<tag k="natural" v="cape" />
		<tag k="ssr:stedsnr" v="441597" />
	</node>
	<node id="-176427" lat="67.5812888892" lon="15.7824305568">
		<tag k="name" v="Kalovika" />
		<tag k="natural" v="bay" />
		<tag k="ssr:stedsnr" v="441577" />
	</node>
	<node id="-176423" lat="67.5006972182" lon="15.5599305607">
		<tag k="name" v="Lisj-Kalvika" />
		<tag k="natural" v="bay" />
		<tag k="ssr:stedsnr" v="441557" />
	</node>
	<node id="-176422" lat="67.4165916648" lon="15.5775805492">
		<tag k="name" v="Daudmannvika" />
		<tag k="natural" v="bay" />
		<tag k="ssr:stedsnr" v="441545" />
	</node>
	<node id="-178467" lat="67.5791944433" lon="15.7939555453">
		<tag k="name" v="Kristen-Jensaskolten" />
		<tag k="natural" v="cape" />
		<tag k="ssr:stedsnr" v="577435" />
	</node>
	<node id="-176408" lat="67.6125138868" lon="15.1339027718">
		<tag k="fixme" v="consider seamark:type=rock or natural=shoal" />
		<tag k="name" v="Blinkskjæret" />
		<tag k="place" v="islet" />
		<tag k="ssr:stedsnr" v="441043" />
	</node>
	<node id="-178447" lat="67.4804361137" lon="15.4574111048">
		<tag k="name" v="Røsvikleira" />
		<tag k="natural" v="shoal" />
		<tag k="place" v="locality" />
		<tag k="ssr:stedsnr" v="576497" />
	</node>
	<node id="-178441" lat="67.5315777781" lon="15.3443944442">
		<tag k="name" v="Ospvika" />
		<tag k="natural" v="bay" />
		<tag k="ssr:stedsnr" v="567976" />
	</node>
	<node id="-178433" lat="67.5555583379" lon="15.6431611076">
		<tag k="name" v="Høyvika" />
		<tag k="natural" v="bay" />
		<tag k="ssr:stedsnr" v="567842" />
	</node>
	<node id="-176368" lat="67.4453250011" lon="15.4752916737">
		<tag k="name" v="Halvardsvika" />
		<tag k="natural" v="bay" />
		<tag k="ssr:stedsnr" v="164910" />
	</node>
	<node id="-178413" lat="67.5915750007" lon="15.2428138931">
		<tag k="name" v="Dragsneset" />
		<tag k="natural" v="cape" />
		<tag k="ssr:stedsnr" v="566986" />
	</node>
	<node id="-178411" lat="67.5381027802" lon="15.2775083295">
		<tag k="name" v="Stakvika" />
		<tag k="natural" v="bay" />
		<tag k="ssr:stedsnr" v="566947" />
	</node>
	<node id="-177873" lat="67.4380749974" lon="15.5395361066">
		<tag k="alt_name" v="Skjelvika;Langvika" />
		<tag k="name" v="Skjellvika" />
		<tag k="natural" v="bay" />
		<tag k="ssr:stedsnr" v="198544" />
	</node>
	<node id="-178388" lat="67.5470194415" lon="15.2419694405">
		<tag k="name" v="Klubbnesvika" />
		<tag k="natural" v="bay" />
		<tag k="ssr:stedsnr" v="566030" />
	</node>
	<node id="-178385" lat="67.5079611067" lon="15.2406638944">
		<tag k="name" v="Geitneset" />
		<tag k="natural" v="cape" />
		<tag k="ssr:stedsnr" v="563964" />
	</node>
	<node id="-178383" lat="67.623941666" lon="15.3372000096">
		<tag k="name" v="Førrnesbukta" />
		<tag k="natural" v="bay" />
		<tag k="ssr:stedsnr" v="563954" />
	</node>
	<node id="-178380" lat="67.5609694481" lon="15.2122999958">
		<tag k="name" v="Seglvikneset" />
		<tag k="natural" v="cape" />
		<tag k="ssr:stedsnr" v="563763" />
	</node>
	<node id="-178378" lat="67.5911944417" lon="15.4441833207">
		<tag k="bay" v="fjord" />
		<tag k="name" v="Botnfjorden" />
		<tag k="natural" v="bay" />
		<tag k="ssr:stedsnr" v="563756" />
	</node>
	<node id="-176323" lat="67.3725805592" lon="15.6114583425">
		<tag k="name" v="Stornesodden" />
		<tag k="natural" v="cape" />
		<tag k="ssr:stedsnr" v="273338" />
	</node>
	<node id="-176322" lat="67.5219305561" lon="15.4857694542">
		<tag k="fixme" v="consider seamark:type=rock or natural=shoal" />
		<tag k="name" v="Skjeran" />
		<tag k="place" v="islet" />
		<tag k="ssr:stedsnr" v="273326" />
	</node>
	<node id="-178369" lat="67.3873277803" lon="15.5693861216">
		<tag k="name" v="Måsøygrunnen" />
		<tag k="natural" v="shoal" />
		<tag k="place" v="locality" />
		<tag k="ssr:stedsnr" v="562964" />
	</node>
	<node id="-178361" lat="67.7392500027" lon="15.6794000004">
		<tag k="name" v="Mølnvika" />
		<tag k="natural" v="bay" />
		<tag k="ssr:stedsnr" v="562770" />
	</node>
	<node id="-176312" lat="67.4877500011" lon="15.2716722221">
		<tag k="name" v="Larspina" />
		<tag k="natural" v="bay" />
		<tag k="ssr:stedsnr" v="137539" />
	</node>
	<node id="-178357" lat="67.5735527732" lon="15.8141138923">
		<tag k="name" v="Kinesodden" />
		<tag k="natural" v="cape" />
		<tag k="ssr:stedsnr" v="562668" />
	</node>
	<node id="-176306" lat="67.6068388874" lon="15.1685361093">
		<tag k="name" v="Prestmåsøya" />
		<tag k="place" v="island" />
		<tag k="ssr:stedsnr" v="137025" />
	</node>
	<node id="-178351" lat="67.4570222221" lon="15.1314083377">
		<tag k="name" v="Kjerringvika" />
		<tag k="natural" v="bay" />
		<tag k="ssr:stedsnr" v="562585" />
	</node>
	<node id="-178348" lat="67.5846055529" lon="15.8349999972">
		<tag k="name" v="Ørnes" />
		<tag k="natural" v="cape" />
		<tag k="ssr:stedsnr" v="562573" />
	</node>
	<node id="-176286" lat="67.4751500043" lon="15.5670861069">
		<tag k="name" v="Sætvika" />
		<tag k="natural" v="bay" />
		<tag k="ssr:stedsnr" v="263776" />
	</node>
	<node id="-176284" lat="67.6068749964" lon="15.4074638839">
		<tag k="name" v="Lisjjordnesodden" />
		<tag k="natural" v="cape" />
		<tag k="ssr:stedsnr" v="263632" />
	</node>
	<node id="-176835" lat="67.7605194424" lon="15.6159694436">
		<tag k="alt_name" v="Furuneset" />
		<tag k="name" v="Forneset" />
		<tag k="natural" v="cape" />
		<tag k="ssr:stedsnr" v="684200" />
	</node>
	<node id="-176269" lat="67.4759416696" lon="15.1762388964">
		<tag k="name" v="Grautneset" />
		<tag k="natural" v="cape" />
		<tag k="ssr:stedsnr" v="263079" />
	</node>
	<node id="-178316" lat="67.4308722212" lon="15.5173527744">
		<tag k="name" v="Furnesodden" />
		<tag k="natural" v="cape" />
		<tag k="ssr:stedsnr" v="395558" />
	</node>
	<node id="-178315" lat="67.5906777788" lon="15.8678388809">
		<tag k="name" v="Makkøyra" />
		<tag k="natural" v="shoal" />
		<tag k="place" v="locality" />
		<tag k="ssr:stedsnr" v="395557" />
	</node>
	<node id="-176266" lat="67.4942527753" lon="15.1649527659">
		<tag k="name" v="Sjunkvika" />
		<tag k="natural" v="bay" />
		<tag k="ssr:stedsnr" v="263046" />
	</node>
	<node id="-178313" lat="67.5838812765" lon="15.8353992034">
		<tag k="name" v="Ørnessteinan" />
		<tag k="natural" v="cape" />
		<tag k="ssr:stedsnr" v="395551" />
	</node>
	<node id="-176260" lat="67.5065499997" lon="15.2774972287">
		<tag k="name" v="Laksbergodden" />
		<tag k="natural" v="cape" />
		<tag k="ssr:stedsnr" v="263008" />
	</node>
	<node id="-176259" lat="67.4985611107" lon="15.2615333406">
		<tag k="name" v="Sørvalen" />
		<tag k="natural" v="bay" />
		<tag k="ssr:stedsnr" v="263005" />
	</node>
	<node id="-176258" lat="67.6265888899" lon="15.3278444434">
		<tag k="name" v="Inner-Ungsmalvika" />
		<tag k="natural" v="bay" />
		<tag k="ssr:stedsnr" v="113314" />
	</node>
	<node id="-176250" lat="67.3841499991" lon="15.6112111018">
		<tag k="alt_name" v="Indre Hellbukta" />
		<tag k="name" v="Hellvika" />
		<tag k="natural" v="bay" />
		<tag k="ssr:stedsnr" v="259964" />
	</node>
	<node id="-176249" lat="67.5020111072" lon="15.3645444503">
		<tag k="name" v="Lisj-Korsvika" />
		<tag k="natural" v="bay" />
		<tag k="ssr:stedsnr" v="259955" />
	</node>
	<node id="-176244" lat="67.5722999991" lon="15.2243805527">
		<tag k="name" v="Svarthola" />
		<tag k="natural" v="bay" />
		<tag k="ssr:stedsnr" v="259897" />
	</node>
	<node id="-176238" lat="67.7329277795" lon="15.7024166599">
		<tag k="name" v="Lisj-Reinvika" />
		<tag k="natural" v="bay" />
		<tag k="ssr:stedsnr" v="259855" />
	</node>
	<node id="-176829" lat="67.3727250037" lon="15.5525083242">
		<tag k="name" v="Storosen" />
		<tag k="natural" v="bay" />
		<tag k="ssr:stedsnr" v="683996" />
	</node>
	<node id="-176225" lat="67.4984138896" lon="15.2747111125">
		<tag k="name" v="Færøyvalen" />
		<tag k="natural" v="bay" />
		<tag k="ssr:stedsnr" v="259552" />
	</node>
	<node id="-176221" lat="67.4400472264" lon="15.5286277807">
		<tag k="name" v="Nevervika" />
		<tag k="natural" v="bay" />
		<tag k="ssr:stedsnr" v="259541" />
	</node>
	<node id="-176217" lat="67.7089527757" lon="15.8067472167">
		<tag k="name" v="Slåttvikodden" />
		<tag k="natural" v="cape" />
		<tag k="ssr:stedsnr" v="259524" />
	</node>
	<node id="-176212" lat="67.5982527822" lon="15.2156138908">
		<tag k="name" v="Straumsnesodden" />
		<tag k="natural" v="cape" />
		<tag k="ssr:stedsnr" v="259034" />
	</node>
	<node id="-178258" lat="67.5439333367" lon="15.2597527825">
		<tag k="name" v="Sandvika" />
		<tag k="natural" v="bay" />
		<tag k="ssr:stedsnr" v="384939" />
	</node>
	<node id="-178256" lat="67.5904916651" lon="15.2174361207">
		<tag k="name" v="Rognosen" />
		<tag k="natural" v="bay" />
		<tag k="ssr:stedsnr" v="385009" />
	</node>
	<node id="-176204" lat="67.4717694416" lon="15.6405055532">
		<tag k="name" v="Nordbotn" />
		<tag k="natural" v="bay" />
		<tag k="ssr:stedsnr" v="258599" />
	</node>
	<node id="-178247" lat="67.6912444426" lon="15.8164027815">
		<tag k="name" v="Klubben" />
		<tag k="natural" v="cape" />
		<tag k="ssr:stedsnr" v="384361" />
	</node>
	<node id="-176193" lat="67.5175583364" lon="15.5858472289">
		<tag k="name" v="Kalvika" />
		<tag k="natural" v="bay" />
		<tag k="ssr:stedsnr" v="82863" />
	</node>
	<node id="-176192" lat="67.5229416645" lon="15.5985444379">
		<tag k="name" v="Spissodden" />
		<tag k="natural" v="cape" />
		<tag k="ssr:stedsnr" v="82859" />
	</node>
	<node id="-178238" lat="67.5381694401" lon="15.3057000103">
		<tag k="name" v="Oldervika" />
		<tag k="natural" v="bay" />
		<tag k="ssr:stedsnr" v="384014" />
	</node>
	<node id="-178236" lat="67.5248250014" lon="15.4737611153">
		<tag k="alt_name" v="Støvikneset" />
		<tag k="name" v="Støviknes" />
		<tag k="natural" v="cape" />
		<tag k="ssr:stedsnr" v="381967" />
	</node>
	<node id="-178186" lat="67.4616944492" lon="15.5289777699">
		<tag k="name" v="Langstranda" />
		<tag k="natural" v="beach" />
		<tag k="place" v="locality" />
		<tag k="ssr:stedsnr" v="380547" />
	</node>
	<node id="-178234" lat="67.5047833321" lon="15.2235999996">
		<tag k="name" v="Merrvika" />
		<tag k="natural" v="bay" />
		<tag k="ssr:stedsnr" v="381960" />
	</node>
	<node id="-176184" lat="67.5806861124" lon="15.437083336">
		<tag k="name" v="Røyrvikbergan" />
		<tag k="natural" v="cape" />
		<tag k="ssr:stedsnr" v="82552" />
	</node>
	<node id="-178228" lat="67.5301916622" lon="15.4715000069">
		<tag k="name" v="Lappvika" />
		<tag k="natural" v="bay" />
		<tag k="ssr:stedsnr" v="381741" />
	</node>
	<node id="-176178" lat="67.5858500001" lon="15.2125222106">
		<tag k="name" v="Skålbergan" />
		<tag k="natural" v="cape" />
		<tag k="ssr:stedsnr" v="82007" />
	</node>
	<node id="-176170" lat="67.553691668" lon="15.2212222304">
		<tag k="name" v="Hundvika" />
		<tag k="natural" v="bay" />
		<tag k="ssr:stedsnr" v="234340" />
	</node>
	<node id="-178215" lat="67.5047888883" lon="15.3758777745">
		<tag k="name" v="Korsvikneset" />
		<tag k="natural" v="cape" />
		<tag k="ssr:stedsnr" v="380948" />
	</node>
	<node id="-176166" lat="67.5744083367" lon="15.7727111115">
		<tag k="name" v="Naustmesodden" />
		<tag k="natural" v="cape" />
		<tag k="ssr:stedsnr" v="31422" />
	</node>
	<node id="-176165" lat="67.5750055545" lon="15.7786250002">
		<tag k="name" v="Kolgrøvnes" />
		<tag k="natural" v="cape" />
		<tag k="ssr:stedsnr" v="31419" />
	</node>
	<node id="-176164" lat="67.5733666709" lon="15.7571833256">
		<tag k="name" v="Isspjøtvika" />
		<tag k="natural" v="bay" />
		<tag k="ssr:stedsnr" v="31410" />
	</node>
	<node id="-178208" lat="67.5891166681" lon="15.2605944502">
		<tag k="name" v="Hopen" />
		<tag k="natural" v="bay" />
		<tag k="ssr:stedsnr" v="380874" />
	</node>
	<node id="-176159" lat="67.510144448" lon="15.5214277764">
		<tag k="fixme" v="consider seamark:type=rock or natural=shoal" />
		<tag k="name" v="Fløskjæret" />
		<tag k="place" v="islet" />
		<tag k="ssr:stedsnr" v="226595" />
	</node>
	<node id="-176151" lat="67.6071583341" lon="15.4359500052">
		<tag k="name" v="Røtosen" />
		<tag k="natural" v="bay" />
		<tag k="ssr:stedsnr" v="21635" />
	</node>
	<node id="-176149" lat="67.6005249997" lon="15.4313027748">
		<tag k="name" v="Straumen" />
		<tag k="natural" v="strait" />
		<tag k="ssr:stedsnr" v="21628" />
	</node>
	<node id="-176148" lat="67.5990750032" lon="15.4136416656">
		<tag k="name" v="Klubbneset" />
		<tag k="natural" v="cape" />
		<tag k="ssr:stedsnr" v="21623" />
	</node>
	<node id="-176138" lat="67.7040361071" lon="15.8448638961">
		<tag k="name" v="Hellarnesodden" />
		<tag k="natural" v="cape" />
		<tag k="ssr:stedsnr" v="21146" />
	</node>
	<node id="-176137" lat="67.5480500038" lon="15.237416659">
		<tag k="name" v="Bakfallvikneset" />
		<tag k="natural" v="cape" />
		<tag k="ssr:stedsnr" v="21029" />
	</node>
	<node id="-176136" lat="67.5450305597" lon="15.2582249961">
		<tag k="name" v="Ytrestrandvika" />
		<tag k="natural" v="bay" />
		<tag k="ssr:stedsnr" v="21026" />
	</node>
	<node id="-176129" lat="67.497794446" lon="15.2487083275">
		<tag k="name" v="Oddan" />
		<tag k="natural" v="cape" />
		<tag k="ssr:stedsnr" v="20005" />
>>>>>>> e1d4bc35ff8a6074a6f2e91616a996b547c36f15
	</node>
</osm>
