<?xml version="1.0" encoding="UTF-8"?>
<<<<<<< HEAD
<osm version="0.6" generator="osmapis">
	<node lat="67.48469722594861" lon="15.964880565516498" id="-12275">
		<tag k="fixme" v="consider boundary=protected_area and relevant protect_class if not nature reserve" />
		<tag k="leisure" v="nature_reserve" />
		<tag k="name" v="Rago nasjonalpark" />
		<tag k="ssr:stedsnr" v="259790" />
	</node>
	<node lat="67.4352805538565" lon="16.089824988863977" id="-12556">
=======
<osm generator="osmapis" version="0.6">
	<node id="-178781" lat="67.4429805591" lon="15.9619916649">
		<tag k="fixme" v="consider boundary=protected_area and relevant protect_class if not nature reserve" />
		<tag k="leisure" v="nature_reserve" />
		<tag k="name" v="Rago nasjonalpark" />
		<tag k="ssr:stedsnr" v="805801" />
	</node>
	<node id="-177148" lat="67.4699805523" lon="16.114697218">
		<tag k="fixme" v="consider boundary=protected_area and relevant protect_class if not nature reserve" />
		<tag k="leisure" v="nature_reserve" />
		<tag k="name" v="Rago nasjonalpark" />
		<tag k="ssr:stedsnr" v="744767" />
	</node>
	<node id="-177048" lat="67.528049998" lon="16.285533331">
		<tag k="historic" v="boundary_stone" />
		<tag k="man_made" v="cairn" />
		<tag k="name" v="Guhkesjavrirøysa" />
		<tag k="old_name" v="Gukis Jaure Røset;Gukkesjavrre røys" />
		<tag k="place" v="locality" />
		<tag k="ssr:stedsnr" v="656719" />
	</node>
	<node id="-178324" lat="67.4864888861" lon="16.1313777707">
>>>>>>> e1d4bc35ff8a6074a6f2e91616a996b547c36f15
		<tag k="historic" v="boundary_stone" />
		<tag k="man_made" v="cairn" />
		<tag k="name" v="Ragorøysa" />
		<tag k="old_name" v="Tulpageikna Røset;Rago røys" />
		<tag k="place" v="locality" />
		<tag k="ssr:stedsnr" v="474737" />
	</node>
<<<<<<< HEAD
	<node lat="67.39118611521036" lon="16.151922220795193" id="-12558">
=======
	<node id="-176563" lat="67.3911861152" lon="16.1519222208">
>>>>>>> e1d4bc35ff8a6074a6f2e91616a996b547c36f15
		<tag k="historic" v="boundary_stone" />
		<tag k="man_made" v="cairn" />
		<tag k="name" v="Wejryggrøysa" />
		<tag k="name:no" v="Wejryggrøysa" />
		<tag k="old_name:no" v="Wäg Rygg Röset;Wejrygg Røset;Vegrygg røys" />
		<tag k="old_name:smj" v="Balkis Tiorro;Balgescorro" />
		<tag k="place" v="locality" />
		<tag k="ssr:stedsnr" v="475738" />
	</node>
<<<<<<< HEAD
	<node lat="67.5326366296908" lon="16.379088093302812" id="-12696">
=======
	<node id="-176562" lat="67.4352805539" lon="16.0898249889">
>>>>>>> e1d4bc35ff8a6074a6f2e91616a996b547c36f15
		<tag k="historic" v="boundary_stone" />
		<tag k="man_made" v="cairn" />
		<tag k="name" v="Midttopprøysa" />
		<tag k="place" v="locality" />
		<tag k="ssr:stedsnr" v="474714" />
	</node>
	<node lat="67.51916110965038" lon="16.15801387917806" id="-12907">
		<tag k="historic" v="boundary_stone" />
		<tag k="man_made" v="cairn" />
		<tag k="name" v="Gaulisrøysa" />
		<tag k="old_name" v="Gautelis" />
		<tag k="place" v="locality" />
		<tag k="ssr:stedsnr" v="595716" />
	</node>
<<<<<<< HEAD
	<node lat="67.34842221869464" lon="16.211416675470748" id="-13933">
=======
	<node id="-178160" lat="67.3484222187" lon="16.2114166755">
>>>>>>> e1d4bc35ff8a6074a6f2e91616a996b547c36f15
		<tag k="historic" v="boundary_stone" />
		<tag k="man_made" v="cairn" />
		<tag k="name" v="Joknacorrorøysa" />
		<tag k="place" v="locality" />
		<tag k="ssr:stedsnr" v="353742" />
	</node>
<<<<<<< HEAD
	<node lat="67.4864888860632" lon="16.131377770705434" id="-14230">
		<tag k="historic" v="boundary_stone" />
		<tag k="man_made" v="cairn" />
		<tag k="name" v="Snøtopprøysa" />
		<tag k="place" v="locality" />
		<tag k="ssr:stedsnr" v="535725" />
	</node>
	<node lat="67.52804999796636" lon="16.28553333099109" id="-14477">
=======
	<node id="-176236" lat="67.4846972259" lon="15.9648805655">
		<tag k="fixme" v="consider boundary=protected_area and relevant protect_class if not nature reserve" />
		<tag k="leisure" v="nature_reserve" />
		<tag k="name" v="Rago nasjonalpark" />
		<tag k="ssr:stedsnr" v="259790" />
	</node>
	<node id="-178474" lat="67.5191611097" lon="16.1580138792">
>>>>>>> e1d4bc35ff8a6074a6f2e91616a996b547c36f15
		<tag k="historic" v="boundary_stone" />
		<tag k="man_made" v="cairn" />
		<tag k="name" v="Guhkesjavrirøysa" />
		<tag k="old_name" v="Gukis Jaure Røset;Gukkesjavrre røys" />
		<tag k="place" v="locality" />
		<tag k="ssr:stedsnr" v="656719" />
	</node>
<<<<<<< HEAD
	<node lat="67.46998055234353" lon="16.11469721798424" id="-14516">
		<tag k="fixme" v="consider boundary=protected_area and relevant protect_class if not nature reserve" />
		<tag k="leisure" v="nature_reserve" />
		<tag k="name" v="Rago nasjonalpark" />
		<tag k="ssr:stedsnr" v="744767" />
	</node>
	<node lat="67.37122473664768" lon="16.179952905901473" id="-14616">
		<tag k="historic" v="boundary_stone" />
		<tag k="man_made" v="cairn" />
		<tag k="name" v="Boaimacrøysa" />
		<tag k="place" v="locality" />
		<tag k="ssr:stedsnr" v="778728" />
	</node>
	<node lat="67.44298055907383" lon="15.96199166494632" id="-14657">
		<tag k="fixme" v="consider boundary=protected_area and relevant protect_class if not nature reserve" />
		<tag k="leisure" v="nature_reserve" />
		<tag k="name" v="Rago nasjonalpark" />
		<tag k="ssr:stedsnr" v="805801" />
	</node>
=======
>>>>>>> e1d4bc35ff8a6074a6f2e91616a996b547c36f15
</osm>
