<?xml version="1.0" encoding="UTF-8"?>
<<<<<<< HEAD
<osm version="0.6" generator="osmapis">
	<node lat="67.49022222220148" lon="15.279819433676884" id="-12076">
		<tag k="name" v="Erikmyra" />
=======
<osm generator="osmapis" version="0.6">
	<node id="-177663" lat="67.3753055517" lon="15.6182777829">
		<tag k="name" v="Åsan" />
		<tag k="place" v="locality" />
		<tag k="ssr:stedsnr" v="91325" />
	</node>
	<node id="-178005" lat="67.5912277791" lon="15.8417277673">
		<tag k="name" v="Oskskogen" />
		<tag k="place" v="locality" />
		<tag k="ssr:stedsnr" v="213575" />
	</node>
	<node id="-178683" lat="67.4750083347" lon="15.5488527822">
		<tag k="name" v="Innergardsmyra" />
		<tag k="natural" v="wetland" />
		<tag k="ssr:stedsnr" v="749777" />
	</node>
	<node id="-176639" lat="67.5668750015" lon="15.9744222273">
		<tag k="name" v="Dalkvannto" />
		<tag k="place" v="locality" />
		<tag k="ssr:stedsnr" v="384261" />
	</node>
	<node id="-177656" lat="67.5294888844" lon="15.562816669">
		<tag k="name" v="Purka" />
		<tag k="natural" v="stone" />
		<tag k="ssr:stedsnr" v="82868" />
	</node>
	<node id="-177655" lat="67.555111111" lon="15.7725222217">
		<tag k="name" v="Krokvollan" />
		<tag k="natural" v="wetland" />
		<tag k="ssr:stedsnr" v="82693" />
	</node>
	<node id="-177654" lat="67.3529916686" lon="15.7121388951">
		<tag k="name" v="Sandøyra" />
		<tag k="place" v="locality" />
		<tag k="ssr:stedsnr" v="82947" />
	</node>
	<node id="-178677" lat="67.6507472236" lon="15.9717583407">
		<tag k="name" v="Øverlimyra" />
		<tag k="natural" v="wetland" />
		<tag k="ssr:stedsnr" v="749280" />
	</node>
	<node id="-177650" lat="67.5215055543" lon="15.5376027783">
		<tag k="name" v="Naustvikmyran" />
		<tag k="natural" v="wetland" />
		<tag k="ssr:stedsnr" v="82842" />
	</node>
	<node id="-177648" lat="67.5307138917" lon="15.5514499941">
		<tag k="name" v="Naudmyra" />
		<tag k="natural" v="wetland" />
		<tag k="ssr:stedsnr" v="82837" />
	</node>
	<node id="-178665" lat="67.6315416687" lon="15.7662944458">
		<tag k="name" v="Oljensosteinen" />
		<tag k="natural" v="stone" />
		<tag k="ssr:stedsnr" v="748332" />
	</node>
	<node id="-177125" lat="67.6278138901" lon="15.9215555472">
		<tag k="name" v="Åsmyra" />
		<tag k="natural" v="wetland" />
		<tag k="ssr:stedsnr" v="698915" />
	</node>
	<node id="-177123" lat="67.5735111105" lon="15.8980166749">
		<tag k="name" v="Myran" />
		<tag k="natural" v="wetland" />
		<tag k="ssr:stedsnr" v="698854" />
	</node>
	<node id="-178146" lat="67.3849666697" lon="15.5392083333">
		<tag k="name" v="Storsteinmyra" />
		<tag k="natural" v="wetland" />
		<tag k="ssr:stedsnr" v="334649" />
	</node>
	<node id="-178145" lat="67.4357527795" lon="15.4792361201">
		<tag k="name" v="Tjukkskogen" />
		<tag k="place" v="locality" />
		<tag k="ssr:stedsnr" v="334499" />
	</node>
	<node id="-178144" lat="67.4781888879" lon="15.4551638845">
		<tag k="name" v="Akernes" />
		<tag k="place" v="locality" />
		<tag k="ssr:stedsnr" v="334467" />
	</node>
	<node id="-178143" lat="67.4807583342" lon="15.4535583292">
		<tag k="name" v="Storvollen" />
		<tag k="place" v="locality" />
		<tag k="ssr:stedsnr" v="334463" />
	</node>
	<node id="-178138" lat="67.37847222" lon="15.633416667">
		<tag k="name" v="Stemmyra" />
		<tag k="natural" v="wetland" />
		<tag k="ssr:stedsnr" v="334286" />
	</node>
	<node id="-177113" lat="67.3731305535" lon="15.6442694466">
		<tag k="name" v="Mølnmyra" />
		<tag k="natural" v="wetland" />
		<tag k="ssr:stedsnr" v="698269" />
	</node>
	<node id="-177112" lat="67.3809527812" lon="15.6558305508">
		<tag k="name" v="Skyttmarka" />
		<tag k="place" v="locality" />
		<tag k="ssr:stedsnr" v="698268" />
	</node>
	<node id="-177111" lat="67.3704638917" lon="15.6409027826">
		<tag k="name" v="Øyrskogen" />
		<tag k="place" v="locality" />
		<tag k="ssr:stedsnr" v="698253" />
	</node>
	<node id="-178127" lat="67.4635472207" lon="15.5797388911">
		<tag k="name" v="Lågura" />
		<tag k="natural" v="scree" />
		<tag k="ssr:stedsnr" v="334143" />
	</node>
	<node id="-177399" lat="67.456819447" lon="15.1698249899">
		<tag k="name" v="Plantefeltet" />
		<tag k="place" v="locality" />
		<tag k="ssr:stedsnr" v="931051" />
	</node>
	<node id="-177094" lat="67.3410888909" lon="15.6310972171">
		<tag k="name" v="Furnesura" />
		<tag k="natural" v="scree" />
		<tag k="ssr:stedsnr" v="683925" />
	</node>
	<node id="-176579" lat="67.3672694401" lon="15.571869452">
		<tag k="name" v="Storhaugmyra" />
		<tag k="natural" v="wetland" />
		<tag k="ssr:stedsnr" v="334309" />
	</node>
	<node id="-176577" lat="67.586158333" lon="15.7419111085">
		<tag k="name" v="Brekkmoskogen" />
		<tag k="place" v="locality" />
		<tag k="ssr:stedsnr" v="334245" />
	</node>
	<node id="-178110" lat="67.4288888913" lon="15.6502972185">
		<tag k="name" v="Djupdalsmyra" />
		<tag k="natural" v="wetland" />
		<tag k="ssr:stedsnr" v="325065" />
	</node>
	<node id="-176572" lat="67.3974388882" lon="15.6134583305">
		<tag k="name" v="Nordnakkmyra" />
		<tag k="natural" v="wetland" />
		<tag k="ssr:stedsnr" v="334210" />
	</node>
	<node id="-178106" lat="67.4173444484" lon="15.7534083444">
		<tag k="name" v="Austerkrågmyra" />
		<tag k="natural" v="wetland" />
		<tag k="ssr:stedsnr" v="324970" />
	</node>
	<node id="-178104" lat="67.6300722237" lon="15.6644833217">
		<tag k="name" v="Petter Nilsokjerran" />
		<tag k="place" v="locality" />
		<tag k="ssr:stedsnr" v="324919" />
	</node>
	<node id="-177079" lat="67.5937527765" lon="15.8669361217">
		<tag k="name" v="Halsan" />
		<tag k="place" v="locality" />
		<tag k="ssr:stedsnr" v="881527" />
	</node>
	<node id="-176559" lat="67.6401805545" lon="15.9654361013">
		<tag k="name" v="Mølnmyra" />
		<tag k="natural" v="wetland" />
		<tag k="ssr:stedsnr" v="274865" />
	</node>
	<node id="-178606" lat="67.3849722254" lon="15.5406777863">
		<tag k="name" v="Storsteinen" />
		<tag k="natural" v="stone" />
		<tag k="ssr:stedsnr" v="637677" />
	</node>
	<node id="-178604" lat="67.4138500032" lon="15.5170222225">
		<tag k="name" v="Bjørnmoskogen" />
		<tag k="place" v="locality" />
		<tag k="ssr:stedsnr" v="637654" />
	</node>
	<node id="-178602" lat="67.5925361101" lon="15.8555833437">
		<tag k="name" v="Rasmusmyra" />
		<tag k="natural" v="wetland" />
		<tag k="ssr:stedsnr" v="637585" />
	</node>
	<node id="-178088" lat="67.4258749975" lon="15.1451555573">
		<tag k="name" v="Elvhammaren" />
		<tag k="place" v="locality" />
		<tag k="ssr:stedsnr" v="323521" />
	</node>
	<node id="-177052" lat="67.4700999982" lon="15.434802776">
		<tag k="name" v="Soppnes" />
		<tag k="place" v="locality" />
		<tag k="ssr:stedsnr" v="880373" />
	</node>
	<node id="-177061" lat="67.3946944401" lon="15.5316166687">
		<tag k="name" v="Piksteinen" />
		<tag k="natural" v="stone" />
		<tag k="ssr:stedsnr" v="880706" />
	</node>
	<node id="-176547" lat="67.376269447" lon="15.646172223">
		<tag k="name" v="Røyrskogmyra" />
		<tag k="natural" v="wetland" />
		<tag k="ssr:stedsnr" v="273303" />
	</node>
	<node id="-176544" lat="67.6392777762" lon="15.9582138796">
		<tag k="name" v="Tullhaugmyra" />
		<tag k="natural" v="wetland" />
		<tag k="ssr:stedsnr" v="456900" />
	</node>
	<node id="-177053" lat="67.4752944441" lon="15.4621694512">
		<tag k="name" v="Tullkjerran" />
		<tag k="place" v="locality" />
		<tag k="ssr:stedsnr" v="880398" />
	</node>
	<node id="-178588" lat="67.6082361109" lon="15.7352083305">
		<tag k="name" v="Drågmoskogen" />
		<tag k="place" v="locality" />
		<tag k="ssr:stedsnr" v="637387" />
	</node>
	<node id="-177050" lat="67.3755611134" lon="15.6645555461">
		<tag k="name" v="Røyrskogen" />
		<tag k="place" v="locality" />
		<tag k="ssr:stedsnr" v="880279" />
	</node>
	<node id="-178586" lat="67.4443611116" lon="15.5732833413">
		<tag k="name" v="Øvermarka" />
		<tag k="place" v="locality" />
		<tag k="ssr:stedsnr" v="637355" />
	</node>
	<node id="-177049" lat="67.3591944404" lon="15.5191333402">
		<tag k="name" v="Langmyra" />
		<tag k="natural" v="wetland" />
		<tag k="ssr:stedsnr" v="878856" />
	</node>
	<node id="-177558" lat="67.5384611109" lon="15.3127166642">
		<tag k="name" v="Vedsteinan" />
		<tag k="natural" v="stone" />
		<tag k="ssr:stedsnr" v="52286" />
	</node>
	<node id="-176537" lat="67.6162555577" lon="15.7160305625">
		<tag k="name" v="Tjukkskogen" />
		<tag k="place" v="locality" />
		<tag k="ssr:stedsnr" v="456510" />
	</node>
	<node id="-176180" lat="67.7094916628" lon="15.8521305489">
		<tag k="name" v="Storøyra" />
		<tag k="place" v="locality" />
		<tag k="ssr:stedsnr" v="82121" />
	</node>
	<node id="-176538" lat="67.6189805545" lon="15.7196833261">
		<tag k="name" v="Nordholmyra" />
		<tag k="natural" v="wetland" />
		<tag k="ssr:stedsnr" v="456520" />
	</node>
	<node id="-176530" lat="67.3941083288" lon="15.6063388958">
		<tag k="name" v="Øyjorda" />
		<tag k="place" v="locality" />
		<tag k="ssr:stedsnr" v="456229" />
	</node>
	<node id="-177040" lat="67.5939527734" lon="15.7030722237">
		<tag k="name" v="Yttermarka" />
		<tag k="place" v="locality" />
		<tag k="ssr:stedsnr" v="637512" />
	</node>
	<node id="-178575" lat="67.3598722181" lon="15.5334083345">
		<tag k="name" v="Klipmyra" />
>>>>>>> e1d4bc35ff8a6074a6f2e91616a996b547c36f15
		<tag k="natural" v="wetland" />
		<tag k="ssr:stedsnr" v="20006" />
	</node>
<<<<<<< HEAD
	<node lat="67.6457694464221" lon="15.973199992658357" id="-12080">
		<tag k="name" v="Hestmyra" />
=======
	<node id="-177549" lat="67.6410944471" lon="15.9392416756">
		<tag k="name" v="Storhaugmyra" />
>>>>>>> e1d4bc35ff8a6074a6f2e91616a996b547c36f15
		<tag k="natural" v="wetland" />
		<tag k="ssr:stedsnr" v="21287" />
	</node>
<<<<<<< HEAD
	<node lat="67.34203889131824" lon="15.719166675517053" id="-12091">
		<tag k="name" v="Hellarsteinen" />
=======
	<node id="-178572" lat="67.3829027756" lon="15.7565583434">
		<tag k="name" v="Kløvensteinen" />
>>>>>>> e1d4bc35ff8a6074a6f2e91616a996b547c36f15
		<tag k="natural" v="stone" />
		<tag k="ssr:stedsnr" v="21935" />
	</node>
<<<<<<< HEAD
	<node lat="67.55597499734412" lon="15.266341670136839" id="-12095">
		<tag k="name" v="Bjørnsteinan" />
		<tag k="natural" v="stone" />
		<tag k="ssr:stedsnr" v="21994" />
	</node>
	<node lat="67.62234444480639" lon="15.565130547842571" id="-12096">
		<tag k="name" v="Allmenningssanden" />
		<tag k="natural" v="beach" />
		<tag k="ssr:stedsnr" v="21895" />
		<tag k="surface" v="sand" />
	</node>
	<node lat="67.57767500402319" lon="15.77496665613193" id="-12108">
		<tag k="name" v="Demo" />
		<tag k="place" v="locality" />
		<tag k="ssr:stedsnr" v="31406" />
	</node>
	<node lat="67.58078610744806" lon="15.890497224423894" id="-12114">
=======
	<node id="-177546" lat="67.5807861074" lon="15.8904972244">
>>>>>>> e1d4bc35ff8a6074a6f2e91616a996b547c36f15
		<tag k="name" v="Lappøyra" />
		<tag k="place" v="locality" />
		<tag k="ssr:stedsnr" v="31567" />
	</node>
<<<<<<< HEAD
	<node lat="67.64109444706827" lon="15.939241675630743" id="-12117">
		<tag k="name" v="Storhaugmyra" />
		<tag k="natural" v="wetland" />
		<tag k="ssr:stedsnr" v="31906" />
	</node>
	<node lat="67.5384611109382" lon="15.31271666417664" id="-12125">
		<tag k="name" v="Vedsteinan" />
		<tag k="natural" v="stone" />
		<tag k="ssr:stedsnr" v="52286" />
	</node>
	<node lat="67.53071389171707" lon="15.551449994074384" id="-12160">
		<tag k="name" v="Naudmyra" />
=======
	<node id="-176521" lat="67.478549998" lon="15.4582638939">
		<tag k="name" v="Osåkeren" />
		<tag k="place" v="locality" />
		<tag k="ssr:stedsnr" v="455476" />
	</node>
	<node id="-176519" lat="67.3545444459" lon="15.5763694415">
		<tag k="name" v="Skarmyra" />
>>>>>>> e1d4bc35ff8a6074a6f2e91616a996b547c36f15
		<tag k="natural" v="wetland" />
		<tag k="ssr:stedsnr" v="82837" />
	</node>
<<<<<<< HEAD
	<node lat="67.52150555433124" lon="15.537602778308973" id="-12162">
		<tag k="name" v="Naustvikmyran" />
		<tag k="natural" v="wetland" />
		<tag k="ssr:stedsnr" v="82842" />
	</node>
	<node lat="67.6108527748904" lon="15.934469454427012" id="-12179">
		<tag k="name" v="Storvikura" />
=======
	<node id="-176517" lat="67.4814138862" lon="15.4464333335">
		<tag k="name" v="Grønnliura" />
>>>>>>> e1d4bc35ff8a6074a6f2e91616a996b547c36f15
		<tag k="natural" v="scree" />
		<tag k="ssr:stedsnr" v="92921" />
	</node>
<<<<<<< HEAD
	<node lat="67.40173610924705" lon="15.999866668918349" id="-12185">
		<tag k="name" v="Flatkjølen - Duolbbagjiegŋa" />
		<tag k="name:no" v="Flatkjølen" />
		<tag k="name:smj" v="Duolbbagjiegŋa" />
		<tag k="natural" v="glacier" />
		<tag k="old_name:smj" v="Duolbbakjiekŋa" />
		<tag k="ssr:stedsnr" v="137230" />
	</node>
	<node lat="67.38003888487347" lon="15.643311110914292" id="-12197">
		<tag k="name" v="Myran" />
=======
	<node id="-177539" lat="67.4780833294" lon="15.4530249968">
		<tag k="name" v="Melkhusmyra" />
>>>>>>> e1d4bc35ff8a6074a6f2e91616a996b547c36f15
		<tag k="natural" v="wetland" />
		<tag k="ssr:stedsnr" v="138000" />
	</node>
<<<<<<< HEAD
	<node lat="67.63081388462615" lon="15.560391672992985" id="-12208">
		<tag k="name" v="Grovassallmenningen" />
=======
	<node id="-178556" lat="67.4810111069" lon="15.59205">
		<tag k="name" v="Storelvøyra" />
>>>>>>> e1d4bc35ff8a6074a6f2e91616a996b547c36f15
		<tag k="place" v="locality" />
		<tag k="ssr:stedsnr" v="138908" />
	</node>
	<node lat="67.55810833243648" lon="15.213313886634523" id="-12218">
		<tag k="name" v="Halvroddsteinen" />
		<tag k="natural" v="stone" />
		<tag k="ssr:stedsnr" v="142004" />
	</node>
	<node lat="67.75687777586789" lon="15.908088897142825" id="-12224">
		<tag k="name" v="Kjerringvassmyran" />
		<tag k="natural" v="wetland" />
		<tag k="ssr:stedsnr" v="142285" />
	</node>
<<<<<<< HEAD
	<node lat="67.5589638925428" lon="15.604961107366513" id="-12231">
		<tag k="name" v="Brattliskogen" />
=======
	<node id="-178835" lat="67.6385166685" lon="15.2892999889">
		<tag k="name" v="Elvmoen" />
>>>>>>> e1d4bc35ff8a6074a6f2e91616a996b547c36f15
		<tag k="place" v="locality" />
		<tag k="ssr:stedsnr" v="809973" />
	</node>
<<<<<<< HEAD
	<node lat="67.40866388821377" lon="15.68446388241864" id="-12240">
		<tag k="name" v="Lillegårdsloftet" />
		<tag k="place" v="locality" />
		<tag k="ssr:stedsnr" v="152254" />
	</node>
	<node lat="67.58476944795383" lon="15.727824993346841" id="-12241">
		<tag k="name" v="Tjønnmyran" />
		<tag k="natural" v="wetland" />
		<tag k="ssr:stedsnr" v="152268" />
	</node>
	<node lat="67.6595833320511" lon="15.988133333849248" id="-12268">
		<tag k="name" v="Stormyra" />
=======
	<node id="-177519" lat="67.6451222189" lon="16.0062222149">
		<tag k="name" v="Slåttmyran" />
		<tag k="natural" v="wetland" />
		<tag k="ssr:stedsnr" v="31046" />
	</node>
	<node id="-177001" lat="67.4367944431" lon="15.4790555453">
		<tag k="name" v="Bukksteinen" />
		<tag k="natural" v="stone" />
		<tag k="ssr:stedsnr" v="576532" />
	</node>
	<node id="-177000" lat="67.3773499956" lon="15.6423444504">
		<tag k="name" v="Mårmyra" />
>>>>>>> e1d4bc35ff8a6074a6f2e91616a996b547c36f15
		<tag k="natural" v="wetland" />
		<tag k="ssr:stedsnr" v="259498" />
	</node>
<<<<<<< HEAD
	<node lat="67.56354167059243" lon="15.778677770795731" id="-12272">
		<tag k="name" v="Sausvaet" />
		<tag k="place" v="locality" />
		<tag k="ssr:stedsnr" v="259663" />
	</node>
	<node lat="67.3200444425737" lon="15.63693610554048" id="-12295">
		<tag k="name" v="Storsteinvikura" />
		<tag k="natural" v="scree" />
		<tag k="ssr:stedsnr" v="263062" />
	</node>
	<node lat="67.4879749979725" lon="15.250766657604451" id="-12298">
		<tag k="name" v="Bakkskogen" />
		<tag k="place" v="locality" />
		<tag k="ssr:stedsnr" v="263035" />
	</node>
	<node lat="67.6390916664471" lon="15.293972219919116" id="-12318">
		<tag k="name" v="Balan" />
=======
	<node id="-177510" lat="67.5559749973" lon="15.2663416701">
		<tag k="name" v="Bjørnsteinan" />
		<tag k="natural" v="stone" />
		<tag k="ssr:stedsnr" v="21994" />
	</node>
	<node id="-176485" lat="67.5414388844" lon="15.2675472254">
		<tag k="name" v="Klokkargalten" />
		<tag k="natural" v="stone" />
		<tag k="ssr:stedsnr" v="445970" />
	</node>
	<node id="-177508" lat="67.6223444448" lon="15.5651305478">
		<tag k="name" v="Allmenningssanden" />
		<tag k="natural" v="beach" />
		<tag k="ssr:stedsnr" v="21895" />
		<tag k="surface" v="sand" />
	</node>
	<node id="-178015" lat="67.6223805541" lon="15.9416805515">
		<tag k="name" v="Legda" />
>>>>>>> e1d4bc35ff8a6074a6f2e91616a996b547c36f15
		<tag k="place" v="locality" />
		<tag k="ssr:stedsnr" v="263975" />
	</node>
<<<<<<< HEAD
	<node lat="67.49110277592645" lon="15.60587777921204" id="-12336">
		<tag k="name" v="Myran" />
		<tag k="natural" v="wetland" />
		<tag k="ssr:stedsnr" v="198568" />
	</node>
	<node lat="67.60790000449809" lon="16.003038879199046" id="-12337">
		<tag k="name" v="Trollura" />
=======
	<node id="-176477" lat="67.7302166634" lon="15.7161861005">
		<tag k="name" v="Reinvikura" />
>>>>>>> e1d4bc35ff8a6074a6f2e91616a996b547c36f15
		<tag k="natural" v="scree" />
		<tag k="ssr:stedsnr" v="198575" />
	</node>
<<<<<<< HEAD
	<node lat="67.63466666841778" lon="15.902155553269564" id="-12366">
		<tag k="name" v="Nattmålssteinan" />
		<tag k="natural" v="stone" />
		<tag k="ssr:stedsnr" v="203315" />
	</node>
	<node lat="67.59596666778701" lon="16.01854167348255" id="-12373">
		<tag k="name" v="Kvannland" />
=======
	<node id="-177499" lat="67.3473416687" lon="15.7025555484">
		<tag k="name" v="Langøyra" />
>>>>>>> e1d4bc35ff8a6074a6f2e91616a996b547c36f15
		<tag k="place" v="locality" />
		<tag k="ssr:stedsnr" v="203494" />
	</node>
<<<<<<< HEAD
	<node lat="67.56551111175557" lon="15.656541670803747" id="-12384">
		<tag k="landuse" v="meadow" />
		<tag k="name" v="Teigan" />
		<tag k="ssr:stedsnr" v="203902" />
	</node>
	<node lat="67.3800249962679" lon="15.640472225937371" id="-12390">
		<tag k="name" v="Storlappmyra" />
		<tag k="natural" v="wetland" />
		<tag k="ssr:stedsnr" v="213325" />
	</node>
	<node lat="67.59122777911516" lon="15.841727767339895" id="-12395">
		<tag k="name" v="Oskskogen" />
		<tag k="place" v="locality" />
		<tag k="ssr:stedsnr" v="213575" />
	</node>
	<node lat="67.35454444591355" lon="15.576369441517555" id="-12408">
		<tag k="name" v="Skarmyra" />
		<tag k="natural" v="wetland" />
		<tag k="ssr:stedsnr" v="455197" />
	</node>
	<node lat="67.48141388617607" lon="15.446433333547267" id="-12409">
		<tag k="name" v="Grønnliura" />
		<tag k="natural" v="scree" />
		<tag k="ssr:stedsnr" v="455362" />
	</node>
	<node lat="67.39254722206144" lon="15.522924994872936" id="-12412">
		<tag k="name" v="Bergdråpmyra" />
=======
	<node id="-178517" lat="67.6278777738" lon="16.1530138933">
		<tag k="name" v="Veikdalsisen - Viejekjiegŋa" />
		<tag k="name:no" v="Veikdalsisen" />
		<tag k="name:smj" v="Viejekjiegŋa" />
		<tag k="natural" v="glacier" />
		<tag k="old_name:smj" v="Veajekajiekŋa" />
		<tag k="ssr:stedsnr" v="623615" />
	</node>
	<node id="-177492" lat="67.6497499989" lon="15.9325722257">
		<tag k="name" v="Kvannbekkmyra" />
		<tag k="natural" v="wetland" />
		<tag k="ssr:stedsnr" v="21294" />
	</node>
	<node id="-177490" lat="67.6457694464" lon="15.9731999927">
		<tag k="name" v="Hestmyra" />
		<tag k="natural" v="wetland" />
		<tag k="ssr:stedsnr" v="21287" />
	</node>
	<node id="-176977" lat="67.4171111076" lon="15.739150007">
		<tag k="name" v="Stormyran" />
>>>>>>> e1d4bc35ff8a6074a6f2e91616a996b547c36f15
		<tag k="natural" v="wetland" />
		<tag k="ssr:stedsnr" v="455650" />
	</node>
<<<<<<< HEAD
	<node lat="67.3941083288436" lon="15.606338895778723" id="-12415">
		<tag k="name" v="Øyjorda" />
=======
	<node id="-176952" lat="67.3824888924" lon="15.7077750068">
		<tag k="name" v="Kveithammarmyra" />
		<tag k="natural" v="wetland" />
		<tag k="ssr:stedsnr" v="689949" />
	</node>
	<node id="-176973" lat="67.6394805533" lon="15.9621027735">
		<tag k="name" v="Mølnhusremma" />
>>>>>>> e1d4bc35ff8a6074a6f2e91616a996b547c36f15
		<tag k="place" v="locality" />
		<tag k="ssr:stedsnr" v="456229" />
	</node>
<<<<<<< HEAD
	<node lat="67.61625555773455" lon="15.71603056254624" id="-12420">
		<tag k="name" v="Tjukkskogen" />
=======
	<node id="-176972" lat="67.6353027815" lon="15.9677416732">
		<tag k="name" v="Storøyra" />
>>>>>>> e1d4bc35ff8a6074a6f2e91616a996b547c36f15
		<tag k="place" v="locality" />
		<tag k="ssr:stedsnr" v="456510" />
	</node>
<<<<<<< HEAD
	<node lat="67.61898055445072" lon="15.719683326055437" id="-12421">
		<tag k="name" v="Nordholmyra" />
		<tag k="natural" v="wetland" />
		<tag k="ssr:stedsnr" v="456520" />
	</node>
	<node lat="67.63927777617029" lon="15.958213879604687" id="-12429">
		<tag k="name" v="Tullhaugmyra" />
=======
	<node id="-177122" lat="67.4143916691" lon="15.5256138847">
		<tag k="name" v="Sveen" />
		<tag k="place" v="locality" />
		<tag k="ssr:stedsnr" v="698611" />
	</node>
	<node id="-176455" lat="67.3954722236" lon="15.5411611099">
		<tag k="alt_name" v="Hammarfall" />
		<tag k="landuse" v="quarry" />
		<tag k="name" v="Hammerfall Dolomitbrudd" />
		<tag k="ssr:stedsnr" v="441988" />
	</node>
	<node id="-176966" lat="67.4296416685" lon="15.4954250066">
		<tag k="name" v="Lomtjønnmyra" />
>>>>>>> e1d4bc35ff8a6074a6f2e91616a996b547c36f15
		<tag k="natural" v="wetland" />
		<tag k="ssr:stedsnr" v="456900" />
	</node>
<<<<<<< HEAD
	<node lat="67.46174444771961" lon="15.1976666651819" id="-12442">
		<tag k="name" v="Vassvikura" />
		<tag k="natural" v="scree" />
		<tag k="ssr:stedsnr" v="259568" />
	</node>
	<node lat="67.43163888901084" lon="15.688647210913608" id="-12463">
		<tag k="name" v="Tørkjelengøyra" />
		<tag k="place" v="locality" />
		<tag k="ssr:stedsnr" v="263539" />
	</node>
	<node lat="67.37626944702768" lon="15.646172223035803" id="-12473">
		<tag k="name" v="Røyrskogmyra" />
		<tag k="natural" v="wetland" />
		<tag k="ssr:stedsnr" v="273303" />
	</node>
	<node lat="67.48069722439247" lon="15.44896389572638" id="-12476">
		<tag k="name" v="Svingjerdloftet" />
=======
	<node id="-176959" lat="67.4070722196" lon="15.6864444462">
		<tag k="name" v="Steinbakkloftet" />
>>>>>>> e1d4bc35ff8a6074a6f2e91616a996b547c36f15
		<tag k="place" v="locality" />
		<tag k="ssr:stedsnr" v="273488" />
	</node>
<<<<<<< HEAD
	<node lat="67.4583500030078" lon="15.531483327465546" id="-12479">
		<tag k="name" v="Nerkvarvsmyran" />
		<tag k="natural" v="wetland" />
		<tag k="ssr:stedsnr" v="273585" />
	</node>
	<node lat="67.63007222365229" lon="15.664483321688644" id="-12534">
		<tag k="name" v="Petter Nilsokjerran" />
=======
	<node id="-176484" lat="67.3192916695" lon="15.6214861">
		<tag k="name" v="Storsteinvikmyra" />
		<tag k="natural" v="wetland" />
		<tag k="ssr:stedsnr" v="446058" />
	</node>
	<node id="-176957" lat="67.4008194421" lon="15.6063333409">
		<tag k="name" v="Åkermoa" />
>>>>>>> e1d4bc35ff8a6074a6f2e91616a996b547c36f15
		<tag k="place" v="locality" />
		<tag k="ssr:stedsnr" v="324919" />
	</node>
<<<<<<< HEAD
	<node lat="67.39743888816369" lon="15.613458330494623" id="-12541">
		<tag k="name" v="Nordnakkmyra" />
=======
	<node id="-176955" lat="67.6443333319" lon="15.9814499959">
		<tag k="name" v="Mastermomyra" />
>>>>>>> e1d4bc35ff8a6074a6f2e91616a996b547c36f15
		<tag k="natural" v="wetland" />
		<tag k="ssr:stedsnr" v="334210" />
	</node>
<<<<<<< HEAD
	<node lat="67.58615833299558" lon="15.741911108458194" id="-12543">
		<tag k="name" v="Brekkmoskogen" />
		<tag k="place" v="locality" />
		<tag k="ssr:stedsnr" v="334245" />
	</node>
	<node lat="67.36726944014451" lon="15.57186945198426" id="-12546">
		<tag k="name" v="Storhaugmyra" />
=======
	<node id="-177119" lat="67.363283336" lon="15.5372472174">
		<tag k="name" v="Trolldalmyra" />
		<tag k="natural" v="wetland" />
		<tag k="ssr:stedsnr" v="698709" />
	</node>
	<node id="-178488" lat="67.3574083296" lon="15.5240083306">
		<tag k="name" v="Djupvikmyra" />
>>>>>>> e1d4bc35ff8a6074a6f2e91616a996b547c36f15
		<tag k="natural" v="wetland" />
		<tag k="ssr:stedsnr" v="334309" />
	</node>
<<<<<<< HEAD
	<node lat="67.48075833419753" lon="15.453558329152704" id="-12547">
		<tag k="name" v="Storvollen" />
		<tag k="place" v="locality" />
		<tag k="ssr:stedsnr" v="334463" />
	</node>
	<node lat="67.43575277949319" lon="15.47923612014405" id="-12548">
		<tag k="name" v="Tjukkskogen" />
		<tag k="place" v="locality" />
		<tag k="ssr:stedsnr" v="334499" />
	</node>
	<node lat="67.38496666965881" lon="15.53920833329935" id="-12549">
		<tag k="name" v="Storsteinmyra" />
=======
	<node id="-176951" lat="67.3706055517" lon="15.7234972166">
		<tag k="name" v="Storønna" />
		<tag k="natural" v="scree" />
		<tag k="ssr:stedsnr" v="689947" />
	</node>
	<node id="-177971" lat="67.5655111118" lon="15.6565416708">
		<tag k="landuse" v="meadow" />
		<tag k="name" v="Teigan" />
		<tag k="ssr:stedsnr" v="203902" />
	</node>
	<node id="-178993" lat="67.4138722233" lon="15.7305499947">
		<tag k="name" v="Ingeborgmyra" />
>>>>>>> e1d4bc35ff8a6074a6f2e91616a996b547c36f15
		<tag k="natural" v="wetland" />
		<tag k="ssr:stedsnr" v="334649" />
	</node>
<<<<<<< HEAD
	<node lat="67.5668750015125" lon="15.974422227308521" id="-12600">
		<tag k="name" v="Dalkvannto" />
		<tag k="place" v="locality" />
		<tag k="ssr:stedsnr" v="384261" />
	</node>
	<node lat="67.61549443975242" lon="15.455530564155215" id="-12612">
		<tag k="name" v="Stormyra" />
=======
	<node id="-178471" lat="67.6258750039" lon="15.9198277851">
		<tag k="name" v="Olamyra" />
>>>>>>> e1d4bc35ff8a6074a6f2e91616a996b547c36f15
		<tag k="natural" v="wetland" />
		<tag k="ssr:stedsnr" v="385499" />
	</node>
<<<<<<< HEAD
	<node lat="67.38268055767118" lon="15.638130566865762" id="-12620">
		<tag k="name" v="Trolldalmyra" />
		<tag k="natural" v="wetland" />
		<tag k="ssr:stedsnr" v="394302" />
	</node>
	<node lat="67.37900833235065" lon="15.622027766987818" id="-12623">
		<tag k="name" v="Skjellarmyra" />
		<tag k="natural" v="wetland" />
		<tag k="ssr:stedsnr" v="394294" />
	</node>
	<node lat="67.36299444150809" lon="15.529299997103214" id="-12627">
		<tag k="name" v="Strupmyra" />
		<tag k="natural" v="wetland" />
		<tag k="ssr:stedsnr" v="394691" />
	</node>
	<node lat="67.43772500305138" lon="15.473630564479766" id="-12634">
		<tag k="name" v="Øverånsviklian" />
		<tag k="natural" v="stone" />
		<tag k="ssr:stedsnr" v="395530" />
	</node>
	<node lat="67.39547222358165" lon="15.541161109872661" id="-12657">
		<tag k="alt_name" v="Hammarfall" />
		<tag k="landuse" v="quarry" />
		<tag k="name" v="Hammerfall Dolomitbrudd" />
		<tag k="ssr:stedsnr" v="441988" />
	</node>
	<node lat="67.31323610914596" lon="15.608705552585747" id="-12669">
		<tag k="name" v="Ommundheimen" />
		<tag k="place" v="locality" />
		<tag k="ssr:stedsnr" v="446322" />
	</node>
	<node lat="67.47854999800327" lon="15.458263893892497" id="-12684">
		<tag k="name" v="Osåkeren" />
=======
	<node id="-178463" lat="67.3997638905" lon="15.6025888852">
		<tag k="name" v="Strupmyra" />
		<tag k="natural" v="wetland" />
		<tag k="ssr:stedsnr" v="577211" />
	</node>
	<node id="-177797" lat="67.6095444431" lon="15.4470222258">
		<tag k="name" v="Skavskogen" />
		<tag k="place" v="locality" />
		<tag k="ssr:stedsnr" v="142586" />
	</node>
	<node id="-178459" lat="67.455847223" lon="15.5804027826">
		<tag k="name" v="Kleksura" />
		<tag k="natural" v="scree" />
		<tag k="ssr:stedsnr" v="577156" />
	</node>
	<node id="-177943" lat="67.5959666678" lon="16.0185416735">
		<tag k="name" v="Kvannland" />
		<tag k="place" v="locality" />
		<tag k="ssr:stedsnr" v="203494" />
	</node>
	<node id="-176914" lat="67.435422225" lon="15.7409194457">
		<tag k="landuse" v="meadow" />
		<tag k="name" v="Hopenga" />
		<tag k="ssr:stedsnr" v="688553" />
	</node>
	<node id="-176911" lat="67.4358861113" lon="15.7093083379">
		<tag k="name" v="Bortigardsøyra" />
>>>>>>> e1d4bc35ff8a6074a6f2e91616a996b547c36f15
		<tag k="place" v="locality" />
		<tag k="ssr:stedsnr" v="455476" />
	</node>
<<<<<<< HEAD
	<node lat="67.64413889075912" lon="15.710013899829251" id="-12734">
		<tag k="name" v="Storsvaet" />
		<tag k="place" v="locality" />
		<tag k="ssr:stedsnr" v="506363" />
	</node>
	<node lat="67.3442694469046" lon="15.7092194553296" id="-12741">
		<tag k="name" v="Dya" />
		<tag k="natural" v="wetland" />
		<tag k="ssr:stedsnr" v="506960" />
	</node>
	<node lat="67.34108889090489" lon="15.631097217139585" id="-12769">
		<tag k="name" v="Furnesura" />
=======
	<node id="-176398" lat="67.4461277803" lon="15.5775916757">
		<tag k="name" v="Kjerstiflogura" />
		<tag k="natural" v="scree" />
		<tag k="ssr:stedsnr" v="213347" />
	</node>
	<node id="-177933" lat="67.6346666684" lon="15.9021555533">
		<tag k="name" v="Nattmålssteinan" />
		<tag k="natural" v="stone" />
		<tag k="ssr:stedsnr" v="203315" />
	</node>
	<node id="-177420" lat="67.3400444402" lon="15.717449997">
		<tag k="name" v="Mellofallet" />
>>>>>>> e1d4bc35ff8a6074a6f2e91616a996b547c36f15
		<tag k="natural" v="scree" />
		<tag k="ssr:stedsnr" v="683925" />
	</node>
<<<<<<< HEAD
	<node lat="67.43393611174092" lon="15.464188890109817" id="-12783">
		<tag k="name" v="Knubbura" />
		<tag k="natural" v="scree" />
		<tag k="ssr:stedsnr" v="516517" />
	</node>
	<node lat="67.64467500331322" lon="15.691450003203935" id="-12839">
		<tag k="name" v="Forrskogen" />
		<tag k="place" v="locality" />
		<tag k="ssr:stedsnr" v="688362" />
	</node>
	<node lat="67.37060555166399" lon="15.723497216601803" id="-12867">
		<tag k="name" v="Storønna" />
		<tag k="natural" v="scree" />
		<tag k="ssr:stedsnr" v="689947" />
	</node>
	<node lat="67.38248889243587" lon="15.707775006819595" id="-12868">
		<tag k="name" v="Kveithammarmyra" />
		<tag k="natural" v="wetland" />
		<tag k="ssr:stedsnr" v="689949" />
	</node>
	<node lat="67.6453361143946" lon="15.948933323634579" id="-12882">
		<tag k="name" v="Langmyra" />
		<tag k="natural" v="wetland" />
		<tag k="ssr:stedsnr" v="567265" />
	</node>
	<node lat="67.64984166520482" lon="15.911530544353724" id="-12883">
		<tag k="name" v="Krokelvnes" />
=======
	<node id="-177419" lat="67.6489277825" lon="15.6137944388">
		<tag k="name" v="Gamskogen" />
		<tag k="place" v="locality" />
		<tag k="ssr:stedsnr" v="932913" />
	</node>
	<node id="-178442" lat="67.346219448" lon="15.7145888952">
		<tag k="name" v="Lisjøyra" />
		<tag k="place" v="locality" />
		<tag k="ssr:stedsnr" v="567978" />
	</node>
	<node id="-178439" lat="67.3413166641" lon="15.7209694396">
		<tag k="landuse" v="meadow" />
		<tag k="name" v="Hellarsteinenga" />
		<tag k="ssr:stedsnr" v="567948" />
	</node>
	<node id="-176901" lat="67.6446750033" lon="15.6914500032">
		<tag k="name" v="Forrskogen" />
		<tag k="place" v="locality" />
		<tag k="ssr:stedsnr" v="688362" />
	</node>
	<node id="-177412" lat="67.4777194452" lon="15.530783335">
		<tag k="landuse" v="meadow" />
		<tag k="name" v="Jektvollen" />
		<tag k="ssr:stedsnr" v="931827" />
	</node>
	<node id="-178434" lat="67.5556833351" lon="15.6141027689">
		<tag k="name" v="Brattliskogen" />
>>>>>>> e1d4bc35ff8a6074a6f2e91616a996b547c36f15
		<tag k="place" v="locality" />
		<tag k="ssr:stedsnr" v="567268" />
	</node>
<<<<<<< HEAD
	<node lat="67.37734999558087" lon="15.642344450440387" id="-12893">
		<tag k="name" v="Mårmyra" />
=======
	<node id="-177407" lat="67.4241638851" lon="15.5699861156">
		<tag k="name" v="Bekkan" />
>>>>>>> e1d4bc35ff8a6074a6f2e91616a996b547c36f15
		<tag k="natural" v="wetland" />
		<tag k="ssr:stedsnr" v="576305" />
	</node>
<<<<<<< HEAD
	<node lat="67.40081944205487" lon="15.606333340861502" id="-12910">
		<tag k="name" v="Åkermoa" />
		<tag k="place" v="locality" />
		<tag k="ssr:stedsnr" v="698183" />
	</node>
	<node lat="67.40707221962866" lon="15.686444446166787" id="-12912">
		<tag k="name" v="Steinbakkloftet" />
		<tag k="place" v="locality" />
		<tag k="ssr:stedsnr" v="698209" />
	</node>
	<node lat="67.37046389170416" lon="15.640902782607974" id="-12913">
		<tag k="name" v="Øyrskogen" />
=======
	<node id="-177365" lat="67.6370083338" lon="15.9725833365">
		<tag k="name" v="Remma" />
		<tag k="place" v="locality" />
		<tag k="ssr:stedsnr" v="941880" />
	</node>
	<node id="-176890" lat="67.5006166641" lon="15.200419444">
		<tag k="name" v="Kisteinen" />
		<tag k="natural" v="stone" />
		<tag k="ssr:stedsnr" v="688033" />
	</node>
	<node id="-178423" lat="67.6498416652" lon="15.9115305444">
		<tag k="name" v="Krokelvnes" />
>>>>>>> e1d4bc35ff8a6074a6f2e91616a996b547c36f15
		<tag k="place" v="locality" />
		<tag k="ssr:stedsnr" v="698253" />
	</node>
<<<<<<< HEAD
	<node lat="67.64433333191276" lon="15.981449995891468" id="-12915">
		<tag k="name" v="Mastermomyra" />
		<tag k="natural" v="wetland" />
		<tag k="ssr:stedsnr" v="698084" />
	</node>
	<node lat="67.42964166847796" lon="15.495425006610462" id="-12920">
		<tag k="name" v="Lomtjønnmyra" />
=======
	<node id="-178422" lat="67.6453361144" lon="15.9489333236">
		<tag k="name" v="Langmyra" />
		<tag k="natural" v="wetland" />
		<tag k="ssr:stedsnr" v="567265" />
	</node>
	<node id="-177193" lat="67.6335694417" lon="15.9271388901">
		<tag k="name" v="Lillesvaet" />
		<tag k="place" v="locality" />
		<tag k="ssr:stedsnr" v="759918" />
	</node>
	<node id="-176883" lat="67.4339361117" lon="15.4641888901">
		<tag k="name" v="Knubbura" />
		<tag k="natural" v="scree" />
		<tag k="ssr:stedsnr" v="516517" />
	</node>
	<node id="-177394" lat="67.6167166706" lon="15.9164722224">
		<tag k="name" v="Nonkuvmyra" />
>>>>>>> e1d4bc35ff8a6074a6f2e91616a996b547c36f15
		<tag k="natural" v="wetland" />
		<tag k="ssr:stedsnr" v="698526" />
	</node>
<<<<<<< HEAD
	<node lat="67.36328333597756" lon="15.537247217441132" id="-12926">
		<tag k="name" v="Trolldalmyra" />
=======
	<node id="-177393" lat="67.6400499998" lon="15.9244416646">
		<tag k="name" v="Langmyra" />
>>>>>>> e1d4bc35ff8a6074a6f2e91616a996b547c36f15
		<tag k="natural" v="wetland" />
		<tag k="ssr:stedsnr" v="698709" />
	</node>
<<<<<<< HEAD
	<node lat="67.41439166906414" lon="15.525613884719318" id="-12929">
		<tag k="name" v="Sveen" />
		<tag k="place" v="locality" />
		<tag k="ssr:stedsnr" v="698611" />
	</node>
	<node lat="67.57351111047359" lon="15.89801667488162" id="-12930">
		<tag k="name" v="Myran" />
		<tag k="natural" v="wetland" />
		<tag k="ssr:stedsnr" v="698854" />
	</node>
	<node lat="67.63948055327224" lon="15.962102773509095" id="-12931">
		<tag k="name" v="Mølnhusremma" />
		<tag k="place" v="locality" />
		<tag k="ssr:stedsnr" v="698893" />
	</node>
	<node lat="67.35740832958078" lon="15.524008330617518" id="-12940">
		<tag k="name" v="Djupvikmyra" />
=======
	<node id="-176680" lat="67.6307861083" lon="15.7076444392">
		<tag k="name" v="Kvannura" />
		<tag k="natural" v="scree" />
		<tag k="ssr:stedsnr" v="506394" />
	</node>
	<node id="-178826" lat="67.5700805535" lon="15.4197388933">
		<tag k="name" v="Øverkroken" />
		<tag k="natural" v="wetland" />
		<tag k="ssr:stedsnr" v="809608" />
	</node>
	<node id="-177388" lat="67.3388111094" lon="15.5929666636">
		<tag k="landuse" v="meadow" />
		<tag k="name" v="Tomasenga" />
		<tag k="ssr:stedsnr" v="871522" />
	</node>
	<node id="-176396" lat="67.3800249963" lon="15.6404722259">
		<tag k="name" v="Storlappmyra" />
		<tag k="natural" v="wetland" />
		<tag k="ssr:stedsnr" v="213325" />
	</node>
	<node id="-176754" lat="67.5401444447" lon="15.6741749943">
		<tag k="name" v="Myran" />
		<tag k="natural" v="wetland" />
		<tag k="ssr:stedsnr" v="446813" />
	</node>
	<node id="-176360" lat="67.6214444464" lon="15.9397833297">
		<tag k="name" v="Bonlimyra" />
>>>>>>> e1d4bc35ff8a6074a6f2e91616a996b547c36f15
		<tag k="natural" v="wetland" />
		<tag k="ssr:stedsnr" v="622877" />
	</node>
<<<<<<< HEAD
	<node lat="67.62787777379384" lon="16.153013893348966" id="-12948">
		<tag k="name" v="Veikdalsisen - Viejekjiegŋa" />
		<tag k="name:no" v="Veikdalsisen" />
		<tag k="name:smj" v="Viejekjiegŋa" />
		<tag k="natural" v="glacier" />
		<tag k="old_name:smj" v="Veajekajiekŋa" />
		<tag k="ssr:stedsnr" v="623615" />
	</node>
	<node lat="67.35987221814682" lon="15.53340833445476" id="-12988">
		<tag k="name" v="Klipmyra" />
=======
	<node id="-176359" lat="67.6202138886" lon="15.9445861115">
		<tag k="name" v="Stormyra" />
>>>>>>> e1d4bc35ff8a6074a6f2e91616a996b547c36f15
		<tag k="natural" v="wetland" />
		<tag k="ssr:stedsnr" v="633184" />
	</node>
<<<<<<< HEAD
	<node lat="67.5939527734079" lon="15.703072223705156" id="-13000">
		<tag k="name" v="Yttermarka" />
=======
	<node id="-176678" lat="67.681563891" lon="15.7928277681">
		<tag k="name" v="Rønno" />
		<tag k="natural" v="scree" />
		<tag k="ssr:stedsnr" v="506349" />
	</node>
	<node id="-177930" lat="67.7096666635" lon="15.8488888979">
		<tag k="name" v="Lisjøyra" />
		<tag k="place" v="locality" />
		<tag k="ssr:stedsnr" v="203142" />
	</node>
	<node id="-178393" lat="67.5686249975" lon="15.9171888903">
		<tag k="name" v="Vassmarka" />
>>>>>>> e1d4bc35ff8a6074a6f2e91616a996b547c36f15
		<tag k="place" v="locality" />
		<tag k="ssr:stedsnr" v="637512" />
	</node>
<<<<<<< HEAD
	<node lat="67.59253611012177" lon="15.85558334368104" id="-13004">
		<tag k="name" v="Rasmusmyra" />
		<tag k="natural" v="wetland" />
		<tag k="ssr:stedsnr" v="637585" />
	</node>
	<node lat="67.42124444581184" lon="16.088136117686027" id="-13012">
		<tag k="name" v="Rágojiegŋa" />
		<tag k="name:smj" v="Rágojiegŋa" />
		<tag k="natural" v="glacier" />
		<tag k="old_name:smj" v="Rágujiekŋa" />
		<tag k="ssr:stedsnr" v="683237" />
	</node>
	<node lat="67.50061666409927" lon="15.200419443990782" id="-13039">
		<tag k="name" v="Kisteinen" />
		<tag k="natural" v="stone" />
		<tag k="ssr:stedsnr" v="688033" />
	</node>
	<node lat="67.62250000403183" lon="15.735261119001423" id="-13044">
		<tag k="name" v="Rasmusmyra" />
=======
	<node id="-177877" lat="67.6079000045" lon="16.0030388792">
		<tag k="name" v="Trollura" />
		<tag k="natural" v="scree" />
		<tag k="ssr:stedsnr" v="198575" />
	</node>
	<node id="-177876" lat="67.4911027759" lon="15.6058777792">
		<tag k="name" v="Myran" />
>>>>>>> e1d4bc35ff8a6074a6f2e91616a996b547c36f15
		<tag k="natural" v="wetland" />
		<tag k="ssr:stedsnr" v="688385" />
	</node>
<<<<<<< HEAD
	<node lat="67.43588611127203" lon="15.70930833789808" id="-13045">
		<tag k="name" v="Bortigardsøyra" />
		<tag k="place" v="locality" />
		<tag k="ssr:stedsnr" v="688549" />
	</node>
	<node lat="67.43542222496973" lon="15.74091944570335" id="-13048">
		<tag k="landuse" v="meadow" />
		<tag k="name" v="Hopenga" />
		<tag k="ssr:stedsnr" v="688553" />
	</node>
	<node lat="67.38095278115786" lon="15.655830550750585" id="-13063">
		<tag k="name" v="Skyttmarka" />
=======
	<node id="-178387" lat="67.5358027751" lon="15.2870666674">
		<tag k="name" v="Flatsteinen" />
		<tag k="natural" v="stone" />
		<tag k="ssr:stedsnr" v="566020" />
	</node>
	<node id="-178386" lat="67.4331277798" lon="15.1393333261">
		<tag k="name" v="Lappøyra" />
>>>>>>> e1d4bc35ff8a6074a6f2e91616a996b547c36f15
		<tag k="place" v="locality" />
		<tag k="ssr:stedsnr" v="698268" />
	</node>
<<<<<<< HEAD
	<node lat="67.37313055345592" lon="15.644269446636711" id="-13064">
		<tag k="name" v="Mølnmyra" />
=======
	<node id="-176163" lat="67.577675004" lon="15.7749666561">
		<tag k="name" v="Demo" />
		<tag k="place" v="locality" />
		<tag k="ssr:stedsnr" v="31406" />
	</node>
	<node id="-176336" lat="67.6372500041" lon="15.988916667">
		<tag k="name" v="Tømmerslettmyra" />
>>>>>>> e1d4bc35ff8a6074a6f2e91616a996b547c36f15
		<tag k="natural" v="wetland" />
		<tag k="ssr:stedsnr" v="698269" />
	</node>
<<<<<<< HEAD
	<node lat="67.62781389009592" lon="15.921555547248868" id="-13072">
		<tag k="name" v="Åsmyra" />
=======
	<node id="-178892" lat="67.4582749976" lon="15.561516668">
		<tag k="name" v="Lillekråkmyra" />
>>>>>>> e1d4bc35ff8a6074a6f2e91616a996b547c36f15
		<tag k="natural" v="wetland" />
		<tag k="ssr:stedsnr" v="698915" />
	</node>
<<<<<<< HEAD
	<node lat="67.63530278153773" lon="15.967741673174663" id="-13073">
		<tag k="name" v="Storøyra" />
=======
	<node id="-176330" lat="67.4806972244" lon="15.4489638957">
		<tag k="name" v="Svingjerdloftet" />
>>>>>>> e1d4bc35ff8a6074a6f2e91616a996b547c36f15
		<tag k="place" v="locality" />
		<tag k="ssr:stedsnr" v="698866" />
	</node>
<<<<<<< HEAD
	<node lat="67.47071666268191" lon="15.212855544341345" id="-13108">
		<tag k="name" v="Kobbsteinen" />
		<tag k="natural" v="stone" />
		<tag k="ssr:stedsnr" v="749004" />
	</node>
	<node lat="67.45815555422904" lon="15.56480278017048" id="-13122">
		<tag k="name" v="Storkrokmyra" />
=======
	<node id="-177353" lat="67.4752583319" lon="15.4452499981">
		<tag k="name" v="Aspan" />
		<tag k="place" v="locality" />
		<tag k="ssr:stedsnr" v="941503" />
	</node>
	<node id="-176328" lat="67.458350003" lon="15.5314833275">
		<tag k="name" v="Nerkvarvsmyran" />
>>>>>>> e1d4bc35ff8a6074a6f2e91616a996b547c36f15
		<tag k="natural" v="wetland" />
		<tag k="ssr:stedsnr" v="759149" />
	</node>
<<<<<<< HEAD
	<node lat="67.39134722384496" lon="15.60743888581806" id="-13127">
		<tag k="name" v="Tøbbmyra" />
		<tag k="natural" v="wetland" />
		<tag k="ssr:stedsnr" v="759214" />
	</node>
	<node lat="67.41438889161694" lon="15.679102777116343" id="-13130">
		<tag k="name" v="Stormyran" />
=======
	<node id="-177350" lat="67.5835722223" lon="15.7975111011">
		<tag k="name" v="Rogna" />
		<tag k="place" v="locality" />
		<tag k="ssr:stedsnr" v="941454" />
	</node>
	<node id="-176156" lat="67.3420388913" lon="15.7191666755">
		<tag k="name" v="Hellarsteinen" />
		<tag k="natural" v="stone" />
		<tag k="ssr:stedsnr" v="21935" />
	</node>
	<node id="-177346" lat="67.3680444462" lon="15.5666583347">
		<tag k="name" v="Krekanmyra" />
>>>>>>> e1d4bc35ff8a6074a6f2e91616a996b547c36f15
		<tag k="natural" v="wetland" />
		<tag k="ssr:stedsnr" v="759223" />
	</node>
<<<<<<< HEAD
	<node lat="67.63356944174785" lon="15.927138890105958" id="-13140">
		<tag k="name" v="Lillesvaet" />
=======
	<node id="-177345" lat="67.5293416658" lon="15.4823027665">
		<tag k="name" v="Ospskogan" />
>>>>>>> e1d4bc35ff8a6074a6f2e91616a996b547c36f15
		<tag k="place" v="locality" />
		<tag k="ssr:stedsnr" v="759918" />
	</node>
<<<<<<< HEAD
	<node lat="67.61890000038888" lon="15.933061104472408" id="-13143">
		<tag k="name" v="Langmyra" />
		<tag k="natural" v="wetland" />
		<tag k="ssr:stedsnr" v="759947" />
	</node>
	<node lat="67.51171666998613" lon="15.216825000229218" id="-13144">
		<tag k="name" v="Skarvstein" />
		<tag k="natural" v="stone" />
		<tag k="ssr:stedsnr" v="771616" />
	</node>
	<node lat="67.57008055353835" lon="15.419738893276259" id="-13150">
		<tag k="name" v="Øverkroken" />
		<tag k="natural" v="wetland" />
		<tag k="ssr:stedsnr" v="809608" />
	</node>
	<node lat="67.39517778173864" lon="15.657863894440057" id="-13172">
		<tag k="name" v="Heggskog" />
		<tag k="place" v="locality" />
		<tag k="ssr:stedsnr" v="820205" />
	</node>
	<node lat="67.57847222479391" lon="15.768141676713835" id="-13175">
		<tag k="name" v="Benken" />
		<tag k="place" v="locality" />
		<tag k="ssr:stedsnr" v="820414" />
	</node>
	<node lat="67.61173333045107" lon="15.717224998567767" id="-13176">
		<tag k="name" v="Danielmyra" />
		<tag k="natural" v="wetland" />
		<tag k="ssr:stedsnr" v="820508" />
	</node>
	<node lat="67.46249444104707" lon="15.14185554355503" id="-13187">
		<tag k="name" v="Hussteinen" />
		<tag k="natural" v="stone" />
		<tag k="ssr:stedsnr" v="926644" />
	</node>
	<node lat="67.33881110942849" lon="15.592966663615801" id="-13237">
		<tag k="landuse" v="meadow" />
		<tag k="name" v="Tomasenga" />
		<tag k="ssr:stedsnr" v="871522" />
	</node>
	<node lat="67.62448610810624" lon="15.749661116129136" id="-13246">
		<tag k="name" v="Øverbrotan" />
=======
	<node id="-178880" lat="67.6383555549" lon="16.0245583323">
		<tag k="name" v="Hopenteigen" />
		<tag k="place" v="locality" />
		<tag k="ssr:stedsnr" v="820073" />
	</node>
	<node id="-178876" lat="67.368994446" lon="15.5494694421">
		<tag k="name" v="Sarajorda" />
		<tag k="place" v="locality" />
		<tag k="ssr:stedsnr" v="819276" />
	</node>
	<node id="-178949" lat="67.2414305552" lon="16.0671583242">
		<tag k="name" v="Blåmannsisen - Ålmåjalosjiegŋa" />
		<tag k="name:no" v="Blåmannsisen" />
		<tag k="name:smj" v="Ålmåjalosjiegŋa" />
		<tag k="natural" v="glacier" />
		<tag k="old_name:smj" v="Olmmáijiekŋa;Olmmaijiekna;Ålmåjalosjiegńa" />
		<tag k="ssr:stedsnr" v="866865" />
	</node>
	<node id="-177338" lat="67.3970722217" lon="15.6789999989">
		<tag k="name" v="Andkilmyra" />
		<tag k="natural" v="wetland" />
		<tag k="ssr:stedsnr" v="941176" />
	</node>
	<node id="-177336" lat="67.3898305566" lon="15.6454499949">
		<tag k="name" v="Åsmyra" />
		<tag k="natural" v="wetland" />
		<tag k="ssr:stedsnr" v="941171" />
	</node>
	<node id="-177847" lat="67.4631638877" lon="15.4655166614">
		<tag k="name" v="Torvbærmyran" />
		<tag k="natural" v="wetland" />
		<tag k="ssr:stedsnr" v="152584" />
	</node>
	<node id="-177331" lat="67.4653138852" lon="15.5704666753">
		<tag k="name" v="Bloman" />
>>>>>>> e1d4bc35ff8a6074a6f2e91616a996b547c36f15
		<tag k="place" v="locality" />
		<tag k="ssr:stedsnr" v="931342" />
	</node>
<<<<<<< HEAD
	<node lat="67.47771944522695" lon="15.530783335004465" id="-13255">
		<tag k="landuse" v="meadow" />
		<tag k="name" v="Jektvollen" />
		<tag k="ssr:stedsnr" v="931827" />
	</node>
	<node lat="67.619863889591" lon="15.310708327871218" id="-13257">
		<tag k="name" v="Halvroddsteinen" />
		<tag k="natural" v="stone" />
		<tag k="ssr:stedsnr" v="931934" />
	</node>
	<node lat="67.35210555557046" lon="15.703947223505685" id="-13267">
=======
	<node id="-176394" lat="67.3573416657" lon="15.5665861086">
		<tag k="name" v="Bjørneng" />
		<tag k="place" v="locality" />
		<tag k="ssr:stedsnr" v="213217" />
	</node>
	<node id="-177326" lat="67.3521055556" lon="15.7039472235">
>>>>>>> e1d4bc35ff8a6074a6f2e91616a996b547c36f15
		<tag k="name" v="Storøyra" />
		<tag k="place" v="locality" />
		<tag k="ssr:stedsnr" v="932962" />
	</node>
<<<<<<< HEAD
	<node lat="67.64892778250098" lon="15.613794438780047" id="-13269">
		<tag k="name" v="Gamskogen" />
=======
	<node id="-178717" lat="67.4581555542" lon="15.5648027802">
		<tag k="name" v="Storkrokmyra" />
		<tag k="natural" v="wetland" />
		<tag k="ssr:stedsnr" v="759149" />
	</node>
	<node id="-177302" lat="67.5950833288" lon="15.9233444521">
		<tag k="name" v="Olderøyra" />
		<tag k="place" v="locality" />
		<tag k="ssr:stedsnr" v="820561" />
	</node>
	<node id="-178859" lat="67.487455553" lon="15.5949972183">
		<tag k="name" v="Aspenesmyra" />
		<tag k="natural" v="wetland" />
		<tag k="ssr:stedsnr" v="810794" />
	</node>
	<node id="-177833" lat="67.584769448" lon="15.7278249933">
		<tag k="name" v="Tjønnmyran" />
		<tag k="natural" v="wetland" />
		<tag k="ssr:stedsnr" v="152268" />
	</node>
	<node id="-177832" lat="67.4086638882" lon="15.6844638824">
		<tag k="name" v="Lillegårdsloftet" />
>>>>>>> e1d4bc35ff8a6074a6f2e91616a996b547c36f15
		<tag k="place" v="locality" />
		<tag k="ssr:stedsnr" v="932913" />
	</node>
<<<<<<< HEAD
	<node lat="67.3400444402064" lon="15.717449996998063" id="-13270">
		<tag k="name" v="Mellofallet" />
		<tag k="natural" v="scree" />
		<tag k="ssr:stedsnr" v="932935" />
	</node>
	<node lat="67.35919444035427" lon="15.519133340232976" id="-13271">
		<tag k="name" v="Langmyra" />
=======
	<node id="-176807" lat="67.3406083316" lon="15.5923583366">
		<tag k="name" v="Stormyra" />
		<tag k="natural" v="wetland" />
		<tag k="ssr:stedsnr" v="506533" />
	</node>
	<node id="-178341" lat="67.4245666681" lon="15.5136999889">
		<tag k="name" v="Furnesmyran" />
>>>>>>> e1d4bc35ff8a6074a6f2e91616a996b547c36f15
		<tag k="natural" v="wetland" />
		<tag k="ssr:stedsnr" v="878856" />
	</node>
<<<<<<< HEAD
	<node lat="67.39469444010776" lon="15.5316166687256" id="-13274">
		<tag k="name" v="Piksteinen" />
		<tag k="natural" v="stone" />
		<tag k="ssr:stedsnr" v="880706" />
	</node>
	<node lat="67.64004999982727" lon="15.924441664612154" id="-13289">
		<tag k="name" v="Langmyra" />
		<tag k="natural" v="wetland" />
		<tag k="ssr:stedsnr" v="881921" />
	</node>
	<node lat="67.40571111501451" lon="15.948555559179697" id="-13296">
		<tag k="name" v="Skråisen" />
		<tag k="natural" v="glacier" />
		<tag k="ssr:stedsnr" v="926262" />
	</node>
	<node lat="67.6388416624568" lon="16.00713056270122" id="-13311">
		<tag k="name" v="Nytmarka" />
=======
	<node id="-176290" lat="67.6390916664" lon="15.2939722199">
		<tag k="name" v="Balan" />
		<tag k="place" v="locality" />
		<tag k="ssr:stedsnr" v="263975" />
	</node>
	<node id="-176801" lat="67.4212444458" lon="16.0881361177">
		<tag k="name" v="Rágojiegŋa" />
		<tag k="name:smj" v="Rágojiegŋa" />
		<tag k="natural" v="glacier" />
		<tag k="old_name:smj" v="Rágujiekŋa" />
		<tag k="ssr:stedsnr" v="683237" />
	</node>
	<node id="-178335" lat="67.414147223" lon="15.6735027852">
		<tag k="name" v="Arura" />
		<tag k="natural" v="scree" />
		<tag k="ssr:stedsnr" v="562940" />
	</node>
	<node id="-178846" lat="67.4222527736" lon="15.5548055503">
		<tag k="landuse" v="meadow" />
		<tag k="name" v="Melloenga" />
		<tag k="ssr:stedsnr" v="810437" />
	</node>
	<node id="-177415" lat="67.6198638896" lon="15.3107083279">
		<tag k="name" v="Halvroddsteinen" />
		<tag k="natural" v="stone" />
		<tag k="ssr:stedsnr" v="931934" />
	</node>
	<node id="-177306" lat="67.5714944444" lon="15.409350007">
		<tag k="name" v="Rømmegrøtenden" />
>>>>>>> e1d4bc35ff8a6074a6f2e91616a996b547c36f15
		<tag k="place" v="locality" />
		<tag k="ssr:stedsnr" v="927612" />
	</node>
<<<<<<< HEAD
	<node lat="67.45681944701127" lon="15.169824989863235" id="-13326">
		<tag k="name" v="Plantefeltet" />
		<tag k="place" v="locality" />
		<tag k="ssr:stedsnr" v="931051" />
	</node>
	<node lat="67.42416388511027" lon="15.569986115606076" id="-13330">
		<tag k="name" v="Bekkan" />
=======
	<node id="-176280" lat="67.431638889" lon="15.6886472109">
		<tag k="name" v="Tørkjelengøyra" />
		<tag k="place" v="locality" />
		<tag k="ssr:stedsnr" v="263539" />
	</node>
	<node id="-178326" lat="67.3600083295" lon="15.8853250073">
		<tag k="name" v="Sijdasjiegŋa" />
		<tag k="name:smj" v="Sijdasjiegŋa" />
		<tag k="natural" v="glacier" />
		<tag k="old_name:smj" v="Siiddasjiekŋa" />
		<tag k="ssr:stedsnr" v="561303" />
	</node>
	<node id="-177301" lat="67.6117333305" lon="15.7172249986">
		<tag k="name" v="Danielmyra" />
>>>>>>> e1d4bc35ff8a6074a6f2e91616a996b547c36f15
		<tag k="natural" v="wetland" />
		<tag k="ssr:stedsnr" v="931411" />
	</node>
<<<<<<< HEAD
	<node lat="67.57149444441478" lon="15.409350007049358" id="-13336">
		<tag k="name" v="Rømmegrøtenden" />
=======
	<node id="-177300" lat="67.5784722248" lon="15.7681416767">
		<tag k="name" v="Benken" />
>>>>>>> e1d4bc35ff8a6074a6f2e91616a996b547c36f15
		<tag k="place" v="locality" />
		<tag k="ssr:stedsnr" v="931591" />
	</node>
<<<<<<< HEAD
	<node lat="67.43513055852827" lon="15.699072224251621" id="-13396">
		<tag k="name" v="Nerigardsøyra" />
		<tag k="place" v="locality" />
		<tag k="ssr:stedsnr" v="20516" />
	</node>
	<node lat="67.64974999889075" lon="15.932572225671759" id="-13402">
		<tag k="name" v="Kvannbekkmyra" />
		<tag k="natural" v="wetland" />
		<tag k="ssr:stedsnr" v="21294" />
	</node>
	<node lat="67.34734166866387" lon="15.702555548435472" id="-13425">
		<tag k="name" v="Langøyra" />
=======
	<node id="-177811" lat="67.5589638925" lon="15.6049611074">
		<tag k="name" v="Brattliskogen" />
		<tag k="place" v="locality" />
		<tag k="ssr:stedsnr" v="142857" />
	</node>
	<node id="-177298" lat="67.3951777817" lon="15.6578638944">
		<tag k="name" v="Heggskog" />
>>>>>>> e1d4bc35ff8a6074a6f2e91616a996b547c36f15
		<tag k="place" v="locality" />
		<tag k="ssr:stedsnr" v="21956" />
	</node>
<<<<<<< HEAD
	<node lat="67.6451222189033" lon="16.006222214900056" id="-13433">
		<tag k="name" v="Slåttmyran" />
		<tag k="natural" v="wetland" />
		<tag k="ssr:stedsnr" v="31046" />
	</node>
	<node lat="67.47808332943384" lon="15.453024996818716" id="-13447">
		<tag k="name" v="Melkhusmyra" />
=======
	<node id="-177296" lat="67.4600444487" lon="15.5848638812">
		<tag k="name" v="Storura" />
		<tag k="natural" v="scree" />
		<tag k="ssr:stedsnr" v="820178" />
	</node>
	<node id="-177805" lat="67.4875138924" lon="15.6205694409">
		<tag k="name" v="Ospfjordmyran" />
>>>>>>> e1d4bc35ff8a6074a6f2e91616a996b547c36f15
		<tag k="natural" v="wetland" />
		<tag k="ssr:stedsnr" v="31487" />
	</node>
<<<<<<< HEAD
	<node lat="67.56328055671504" lon="15.879330547066097" id="-13469">
		<tag k="name" v="Forrskogen" />
=======
	<node id="-177292" lat="67.6244861081" lon="15.7496611161">
		<tag k="name" v="Øverbrotan" />
>>>>>>> e1d4bc35ff8a6074a6f2e91616a996b547c36f15
		<tag k="place" v="locality" />
		<tag k="ssr:stedsnr" v="77679" />
	</node>
<<<<<<< HEAD
	<node lat="67.70949166283101" lon="15.852130548891394" id="-13519">
		<tag k="name" v="Storøyra" />
		<tag k="place" v="locality" />
		<tag k="ssr:stedsnr" v="82121" />
	</node>
	<node lat="67.5551111109528" lon="15.77252222171058" id="-13523">
		<tag k="name" v="Krokvollan" />
		<tag k="natural" v="wetland" />
		<tag k="ssr:stedsnr" v="82693" />
	</node>
	<node lat="67.58062222459107" lon="15.450102768901548" id="-13525">
		<tag k="name" v="Kobbsteinen" />
		<tag k="natural" v="stone" />
		<tag k="ssr:stedsnr" v="82555" />
	</node>
	<node lat="67.53094444542488" lon="15.564516678039674" id="-13532">
		<tag k="name" v="Ugangeligvika" />
=======
	<node id="-176267" lat="67.3200444426" lon="15.6369361055">
		<tag k="name" v="Storsteinvikura" />
		<tag k="natural" v="scree" />
		<tag k="ssr:stedsnr" v="263062" />
	</node>
	<node id="-177802" lat="67.4750972264" lon="15.5803749904">
		<tag k="name" v="Ura" />
		<tag k="natural" v="scree" />
		<tag k="ssr:stedsnr" v="142768" />
	</node>
	<node id="-176264" lat="67.487974998" lon="15.2507666576">
		<tag k="name" v="Bakkskogen" />
		<tag k="place" v="locality" />
		<tag k="ssr:stedsnr" v="263035" />
	</node>
	<node id="-177798" lat="67.5478666668" lon="15.4081999921">
		<tag k="name" v="Ura" />
>>>>>>> e1d4bc35ff8a6074a6f2e91616a996b547c36f15
		<tag k="natural" v="scree" />
		<tag k="ssr:stedsnr" v="82866" />
	</node>
<<<<<<< HEAD
	<node lat="67.52948888439869" lon="15.562816668995463" id="-13533">
		<tag k="name" v="Purka" />
=======
	<node id="-178309" lat="67.4377250031" lon="15.4736305645">
		<tag k="name" v="Øverånsviklian" />
>>>>>>> e1d4bc35ff8a6074a6f2e91616a996b547c36f15
		<tag k="natural" v="stone" />
		<tag k="ssr:stedsnr" v="82868" />
	</node>
<<<<<<< HEAD
	<node lat="67.3529916685876" lon="15.71213889513647" id="-13536">
		<tag k="name" v="Sandøyra" />
		<tag k="place" v="locality" />
		<tag k="ssr:stedsnr" v="82947" />
	</node>
	<node lat="67.3753055517469" lon="15.618277782855875" id="-13542">
		<tag k="name" v="Åsan" />
		<tag k="place" v="locality" />
		<tag k="ssr:stedsnr" v="91325" />
	</node>
	<node lat="67.58099166792906" lon="15.76655832636125" id="-13545">
		<tag k="name" v="Hestmyra" />
=======
	<node id="-177789" lat="67.7568777759" lon="15.9080888971">
		<tag k="name" v="Kjerringvassmyran" />
>>>>>>> e1d4bc35ff8a6074a6f2e91616a996b547c36f15
		<tag k="natural" v="wetland" />
		<tag k="ssr:stedsnr" v="91449" />
	</node>
<<<<<<< HEAD
	<node lat="67.44590277477899" lon="15.469380559272757" id="-13549">
		<tag k="name" v="Mellommermarka" />
		<tag k="place" v="locality" />
		<tag k="ssr:stedsnr" v="91538" />
	</node>
	<node lat="67.64393055639245" lon="15.970280559439304" id="-13566">
		<tag k="name" v="Tjønnmyra" />
=======
	<node id="-177787" lat="67.647475002" lon="15.9668666775">
		<tag k="name" v="Storsteinmyra" />
>>>>>>> e1d4bc35ff8a6074a6f2e91616a996b547c36f15
		<tag k="natural" v="wetland" />
		<tag k="ssr:stedsnr" v="92857" />
	</node>
<<<<<<< HEAD
	<node lat="67.4344999995176" lon="15.46241944282874" id="-13570">
		<tag k="name" v="Knubbura" />
		<tag k="natural" v="scree" />
		<tag k="ssr:stedsnr" v="116129" />
	</node>
	<node lat="67.7111416662403" lon="15.868119438638042" id="-13628">
=======
	<node id="-177785" lat="67.7111416662" lon="15.8681194386">
>>>>>>> e1d4bc35ff8a6074a6f2e91616a996b547c36f15
		<tag k="name" v="Holtura" />
		<tag k="natural" v="scree" />
		<tag k="ssr:stedsnr" v="142099" />
	</node>
<<<<<<< HEAD
	<node lat="67.64747500197852" lon="15.966866677541677" id="-13631">
		<tag k="name" v="Storsteinmyra" />
		<tag k="natural" v="wetland" />
		<tag k="ssr:stedsnr" v="142273" />
	</node>
	<node lat="67.60954444308736" lon="15.447022225773196" id="-13637">
		<tag k="name" v="Skavskogen" />
		<tag k="place" v="locality" />
		<tag k="ssr:stedsnr" v="142586" />
	</node>
	<node lat="67.54786666679502" lon="15.408199992107097" id="-13640">
		<tag k="name" v="Ura" />
		<tag k="natural" v="scree" />
		<tag k="ssr:stedsnr" v="142651" />
	</node>
	<node lat="67.47509722636993" lon="15.580374990441147" id="-13645">
		<tag k="name" v="Ura" />
=======
	<node id="-177783" lat="67.5581083324" lon="15.2133138866">
		<tag k="name" v="Halvroddsteinen" />
		<tag k="natural" v="stone" />
		<tag k="ssr:stedsnr" v="142004" />
	</node>
	<node id="-178293" lat="67.5945750035" lon="15.7174111072">
		<tag k="name" v="Lappgjerdet" />
		<tag k="place" v="locality" />
		<tag k="ssr:stedsnr" v="395270" />
	</node>
	<node id="-176756" lat="67.5507250019" lon="15.5391277808">
		<tag k="name" v="Rønna" />
		<tag k="natural" v="scree" />
		<tag k="ssr:stedsnr" v="446819" />
	</node>
	<node id="-178290" lat="67.4002527802" lon="15.6776250057">
		<tag k="name" v="Evjenmyra" />
		<tag k="natural" v="wetland" />
		<tag k="ssr:stedsnr" v="395208" />
	</node>
	<node id="-178801" lat="67.7164111093" lon="15.6319444429">
		<tag k="name" v="Reinvikisen" />
		<tag k="natural" v="glacier" />
		<tag k="ssr:stedsnr" v="806886" />
	</node>
	<node id="-177256" lat="67.4480194485" lon="15.8493305628">
		<tag k="name" v="Brenna" />
		<tag k="natural" v="wetland" />
		<tag k="ssr:stedsnr" v="805806" />
	</node>
	<node id="-178286" lat="67.4536138936" lon="15.573122213">
		<tag k="name" v="Kløftura" />
>>>>>>> e1d4bc35ff8a6074a6f2e91616a996b547c36f15
		<tag k="natural" v="scree" />
		<tag k="ssr:stedsnr" v="142768" />
	</node>
<<<<<<< HEAD
	<node lat="67.48751389244079" lon="15.620569440851646" id="-13648">
		<tag k="name" v="Ospfjordmyran" />
		<tag k="natural" v="wetland" />
		<tag k="ssr:stedsnr" v="142794" />
	</node>
	<node lat="67.46316388769503" lon="15.465516661411488" id="-13670">
		<tag k="name" v="Torvbærmyran" />
=======
	<node id="-176749" lat="67.3132361091" lon="15.6087055526">
		<tag k="name" v="Ommundheimen" />
		<tag k="place" v="locality" />
		<tag k="ssr:stedsnr" v="446322" />
	</node>
	<node id="-178283" lat="67.3629944415" lon="15.5292999971">
		<tag k="name" v="Strupmyra" />
>>>>>>> e1d4bc35ff8a6074a6f2e91616a996b547c36f15
		<tag k="natural" v="wetland" />
		<tag k="ssr:stedsnr" v="152584" />
	</node>
<<<<<<< HEAD
	<node lat="67.6468083335752" lon="15.984019443706684" id="-13730">
		<tag k="name" v="Gabrielvedhogget" />
		<tag k="place" v="locality" />
		<tag k="ssr:stedsnr" v="203507" />
	</node>
	<node lat="67.70966666351396" lon="15.848888897880585" id="-13734">
		<tag k="name" v="Lisjøyra" />
=======
	<node id="-176233" lat="67.5635416706" lon="15.7786777708">
		<tag k="name" v="Sausvaet" />
>>>>>>> e1d4bc35ff8a6074a6f2e91616a996b547c36f15
		<tag k="place" v="locality" />
		<tag k="ssr:stedsnr" v="203142" />
	</node>
<<<<<<< HEAD
	<node lat="67.62238055409222" lon="15.941680551529268" id="-13766">
		<tag k="name" v="Legda" />
		<tag k="place" v="locality" />
		<tag k="ssr:stedsnr" v="213957" />
	</node>
	<node lat="67.35734166567589" lon="15.566586108560884" id="-13769">
		<tag k="name" v="Bjørneng" />
		<tag k="place" v="locality" />
		<tag k="ssr:stedsnr" v="213217" />
	</node>
	<node lat="67.446127780291" lon="15.577591675650732" id="-13782">
		<tag k="name" v="Kjerstiflogura" />
=======
	<node id="-178280" lat="67.3790083324" lon="15.622027767">
		<tag k="name" v="Skjellarmyra" />
		<tag k="natural" v="wetland" />
		<tag k="ssr:stedsnr" v="394294" />
	</node>
	<node id="-178279" lat="67.3798944408" lon="15.6492194386">
		<tag k="name" v="Skyttmarkmyra" />
		<tag k="natural" v="wetland" />
		<tag k="ssr:stedsnr" v="394289" />
	</node>
	<node id="-178705" lat="67.3852555578" lon="15.7532555557">
		<tag k="name" v="Djupvikura" />
		<tag k="natural" v="scree" />
		<tag k="ssr:stedsnr" v="749965" />
	</node>
	<node id="-176228" lat="67.4617444477" lon="15.1976666652">
		<tag k="name" v="Vassvikura" />
>>>>>>> e1d4bc35ff8a6074a6f2e91616a996b547c36f15
		<tag k="natural" v="scree" />
		<tag k="ssr:stedsnr" v="213347" />
	</node>
<<<<<<< HEAD
	<node lat="67.63725000411145" lon="15.988916666951477" id="-13809">
		<tag k="name" v="Tømmerslettmyra" />
		<tag k="natural" v="wetland" />
		<tag k="ssr:stedsnr" v="274039" />
	</node>
	<node lat="67.64018055449833" lon="15.965436101308299" id="-13823">
		<tag k="name" v="Mølnmyra" />
		<tag k="natural" v="wetland" />
		<tag k="ssr:stedsnr" v="274865" />
	</node>
	<node lat="67.62021388859908" lon="15.944586111538053" id="-13825">
		<tag k="name" v="Stormyra" />
		<tag k="natural" v="wetland" />
		<tag k="ssr:stedsnr" v="274939" />
	</node>
	<node lat="67.62144444643195" lon="15.939783329658347" id="-13826">
		<tag k="name" v="Bonlimyra" />
		<tag k="natural" v="wetland" />
		<tag k="ssr:stedsnr" v="274941" />
	</node>
	<node lat="67.42587499751797" lon="15.145155557304006" id="-13871">
		<tag k="name" v="Elvhammaren" />
=======
	<node id="-178266" lat="67.6154944398" lon="15.4555305642">
		<tag k="name" v="Stormyra" />
		<tag k="natural" v="wetland" />
		<tag k="ssr:stedsnr" v="385499" />
	</node>
	<node id="-177753" lat="67.6308138846" lon="15.560391673">
		<tag k="name" v="Grovassallmenningen" />
		<tag k="place" v="locality" />
		<tag k="ssr:stedsnr" v="138908" />
	</node>
	<node id="-176727" lat="67.4514611104" lon="15.4702555445">
		<tag k="name" v="Gammeltra" />
		<tag k="place" v="locality" />
		<tag k="ssr:stedsnr" v="516558" />
	</node>
	<node id="-176214" lat="67.6595833321" lon="15.9881333338">
		<tag k="name" v="Stormyra" />
		<tag k="natural" v="wetland" />
		<tag k="ssr:stedsnr" v="259498" />
	</node>
	<node id="-178261" lat="67.7189527776" lon="15.8984027657">
		<tag k="name" v="Sengvalægret" />
		<tag k="place" v="locality" />
		<tag k="ssr:stedsnr" v="385092" />
	</node>
	<node id="-176724" lat="67.4494194462" lon="15.5591527807">
		<tag k="name" v="Lapptraan" />
		<tag k="place" v="locality" />
		<tag k="ssr:stedsnr" v="516348" />
	</node>
	<node id="-178769" lat="67.4621166656" lon="15.5204027846">
		<tag k="name" v="Kvarvsøyra" />
>>>>>>> e1d4bc35ff8a6074a6f2e91616a996b547c36f15
		<tag k="place" v="locality" />
		<tag k="ssr:stedsnr" v="323521" />
	</node>
<<<<<<< HEAD
	<node lat="67.43604166397182" lon="15.780486105534232" id="-13874">
		<tag k="name" v="Myran" />
		<tag k="natural" v="wetland" />
		<tag k="ssr:stedsnr" v="324527" />
	</node>
	<node lat="67.41734444843492" lon="15.753408344439972" id="-13881">
		<tag k="name" v="Austerkrågmyra" />
		<tag k="natural" v="wetland" />
		<tag k="ssr:stedsnr" v="324970" />
	</node>
	<node lat="67.42888889128439" lon="15.650297218473646" id="-13885">
		<tag k="name" v="Djupdalsmyra" />
=======
	<node id="-176720" lat="67.3724361101" lon="15.6339027802">
		<tag k="name" v="Øyra" />
		<tag k="place" v="locality" />
		<tag k="ssr:stedsnr" v="516296" />
	</node>
	<node id="-177735" lat="67.3800388849" lon="15.6433111109">
		<tag k="name" v="Myran" />
>>>>>>> e1d4bc35ff8a6074a6f2e91616a996b547c36f15
		<tag k="natural" v="wetland" />
		<tag k="ssr:stedsnr" v="325065" />
	</node>
<<<<<<< HEAD
	<node lat="67.46354722068682" lon="15.579738891133143" id="-13907">
		<tag k="name" v="Lågura" />
		<tag k="natural" v="scree" />
		<tag k="ssr:stedsnr" v="334143" />
	</node>
	<node lat="67.37847221996219" lon="15.633416667031026" id="-13918">
		<tag k="name" v="Stemmyra" />
=======
	<node id="-176710" lat="67.3907361156" lon="15.6554972192">
		<tag k="name" v="Høystakken" />
		<tag k="place" v="locality" />
		<tag k="ssr:stedsnr" v="516196" />
	</node>
	<node id="-176709" lat="67.4040750036" lon="15.6251333401">
		<tag k="name" v="Kvitmyra" />
>>>>>>> e1d4bc35ff8a6074a6f2e91616a996b547c36f15
		<tag k="natural" v="wetland" />
		<tag k="ssr:stedsnr" v="334286" />
	</node>
<<<<<<< HEAD
	<node lat="67.47818888788086" lon="15.455163884460765" id="-13922">
		<tag k="name" v="Akernes" />
=======
	<node id="-176196" lat="67.4459027748" lon="15.4693805593">
		<tag k="name" v="Mellommermarka" />
>>>>>>> e1d4bc35ff8a6074a6f2e91616a996b547c36f15
		<tag k="place" v="locality" />
		<tag k="ssr:stedsnr" v="334467" />
	</node>
<<<<<<< HEAD
	<node lat="67.50893055171909" lon="15.649436104859529" id="-13957">
		<tag k="name" v="Kalviktuvmyran" />
		<tag k="natural" v="wetland" />
		<tag k="ssr:stedsnr" v="380588" />
	</node>
	<node lat="67.71895277762917" lon="15.89840276565411" id="-14005">
		<tag k="name" v="Sengvalægret" />
		<tag k="place" v="locality" />
		<tag k="ssr:stedsnr" v="385092" />
	</node>
	<node lat="67.34077221991994" lon="15.63316110664207" id="-14010">
		<tag k="name" v="Straumvassura" />
		<tag k="natural" v="scree" />
		<tag k="ssr:stedsnr" v="385556" />
	</node>
	<node lat="67.5980000017545" lon="16.000016654986652" id="-14012">
		<tag k="name" v="Kvitflogmarka" />
		<tag k="place" v="locality" />
		<tag k="ssr:stedsnr" v="385469" />
	</node>
	<node lat="67.37989444077778" lon="15.649219438643645" id="-14024">
		<tag k="name" v="Skyttmarkmyra" />
=======
	<node id="-176194" lat="67.5309444454" lon="15.564516678">
		<tag k="name" v="Ugangeligvika" />
		<tag k="natural" v="scree" />
		<tag k="ssr:stedsnr" v="82866" />
	</node>
	<node id="-178753" lat="67.51171667" lon="15.2168250002">
		<tag k="name" v="Skarvstein" />
		<tag k="natural" v="stone" />
		<tag k="ssr:stedsnr" v="771616" />
	</node>
	<node id="-178748" lat="67.6189000004" lon="15.9330611045">
		<tag k="name" v="Langmyra" />
>>>>>>> e1d4bc35ff8a6074a6f2e91616a996b547c36f15
		<tag k="natural" v="wetland" />
		<tag k="ssr:stedsnr" v="394289" />
	</node>
<<<<<<< HEAD
	<node lat="67.40025278017332" lon="15.67762500570029" id="-14027">
		<tag k="name" v="Evjenmyra" />
		<tag k="natural" v="wetland" />
		<tag k="ssr:stedsnr" v="395208" />
	</node>
	<node lat="67.45361389363896" lon="15.573122213042275" id="-14030">
		<tag k="name" v="Kløftura" />
		<tag k="natural" v="scree" />
		<tag k="ssr:stedsnr" v="395162" />
	</node>
	<node lat="67.59457500354411" lon="15.71741110719453" id="-14041">
		<tag k="name" v="Lappgjerdet" />
		<tag k="place" v="locality" />
		<tag k="ssr:stedsnr" v="395270" />
	</node>
	<node lat="67.61893611296082" lon="15.724388891580492" id="-14046">
		<tag k="name" v="Smiheimyra" />
		<tag k="natural" v="wetland" />
		<tag k="ssr:stedsnr" v="395518" />
	</node>
	<node lat="67.7302166634258" lon="15.716186100481728" id="-14105">
		<tag k="name" v="Reinvikura" />
		<tag k="natural" v="scree" />
		<tag k="ssr:stedsnr" v="445300" />
	</node>
	<node lat="67.54143888441963" lon="15.26754722536981" id="-14118">
		<tag k="name" v="Klokkargalten" />
		<tag k="natural" v="stone" />
		<tag k="ssr:stedsnr" v="445970" />
	</node>
	<node lat="67.31929166954025" lon="15.621486100031548" id="-14119">
		<tag k="name" v="Storsteinvikmyra" />
		<tag k="natural" v="wetland" />
		<tag k="ssr:stedsnr" v="446058" />
	</node>
	<node lat="67.54014444466434" lon="15.674174994261554" id="-14131">
		<tag k="name" v="Myran" />
=======
	<node id="-178747" lat="67.6413527786" lon="15.9480388892">
		<tag k="name" v="Limyra" />
		<tag k="natural" v="wetland" />
		<tag k="ssr:stedsnr" v="759901" />
	</node>
	<node id="-176185" lat="67.5806222246" lon="15.4501027689">
		<tag k="name" v="Kobbsteinen" />
		<tag k="natural" v="stone" />
		<tag k="ssr:stedsnr" v="82555" />
	</node>
	<node id="-177204" lat="67.462494441" lon="15.1418555436">
		<tag k="name" v="Hussteinen" />
		<tag k="natural" v="stone" />
		<tag k="ssr:stedsnr" v="926644" />
	</node>
	<node id="-176689" lat="67.3442694469" lon="15.7092194553">
		<tag k="name" v="Dya" />
		<tag k="natural" v="wetland" />
		<tag k="ssr:stedsnr" v="506960" />
	</node>
	<node id="-177197" lat="67.405711115" lon="15.9485555592">
		<tag k="name" v="Skråisen" />
		<tag k="natural" v="glacier" />
		<tag k="ssr:stedsnr" v="926262" />
	</node>
	<node id="-176903" lat="67.622500004" lon="15.735261119">
		<tag k="name" v="Rasmusmyra" />
		<tag k="natural" v="wetland" />
		<tag k="ssr:stedsnr" v="688385" />
	</node>
	<node id="-177704" lat="67.4017361092" lon="15.9998666689">
		<tag k="name" v="Flatkjølen - Duolbbagjiegŋa" />
		<tag k="name:no" v="Flatkjølen" />
		<tag k="name:smj" v="Duolbbagjiegŋa" />
		<tag k="natural" v="glacier" />
		<tag k="old_name:smj" v="Duolbbakjiekŋa" />
		<tag k="ssr:stedsnr" v="137230" />
	</node>
	<node id="-176679" lat="67.6441388908" lon="15.7100138998">
		<tag k="name" v="Storsvaet" />
		<tag k="place" v="locality" />
		<tag k="ssr:stedsnr" v="506363" />
	</node>
	<node id="-178726" lat="67.4143888916" lon="15.6791027771">
		<tag k="name" v="Stormyran" />
>>>>>>> e1d4bc35ff8a6074a6f2e91616a996b547c36f15
		<tag k="natural" v="wetland" />
		<tag k="ssr:stedsnr" v="446813" />
	</node>
<<<<<<< HEAD
	<node lat="67.55072500190096" lon="15.539127780768167" id="-14133">
		<tag k="name" v="Rønna" />
		<tag k="natural" v="scree" />
		<tag k="ssr:stedsnr" v="446819" />
	</node>
	<node lat="67.68156389095881" lon="15.792827768136174" id="-14182">
		<tag k="name" v="Rønno" />
=======
	<node id="-177700" lat="67.4344999995" lon="15.4624194428">
		<tag k="name" v="Knubbura" />
>>>>>>> e1d4bc35ff8a6074a6f2e91616a996b547c36f15
		<tag k="natural" v="scree" />
		<tag k="ssr:stedsnr" v="506349" />
	</node>
<<<<<<< HEAD
	<node lat="67.34060833164403" lon="15.592358336617009" id="-14186">
		<tag k="name" v="Stormyra" />
		<tag k="natural" v="wetland" />
		<tag k="ssr:stedsnr" v="506533" />
	</node>
	<node lat="67.63078610828825" lon="15.707644439166476" id="-14189">
		<tag k="name" v="Kvannura" />
=======
	<node id="-178723" lat="67.3913472238" lon="15.6074388858">
		<tag k="name" v="Tøbbmyra" />
		<tag k="natural" v="wetland" />
		<tag k="ssr:stedsnr" v="759214" />
	</node>
	<node id="-178094" lat="67.436041664" lon="15.7804861055">
		<tag k="name" v="Myran" />
		<tag k="natural" v="wetland" />
		<tag k="ssr:stedsnr" v="324527" />
	</node>
	<node id="-178720" lat="67.4039527781" lon="15.6152305662">
		<tag k="name" v="Gammen" />
		<tag k="place" v="locality" />
		<tag k="ssr:stedsnr" v="759169" />
	</node>
	<node id="-177695" lat="67.6108527749" lon="15.9344694544">
		<tag k="name" v="Storvikura" />
>>>>>>> e1d4bc35ff8a6074a6f2e91616a996b547c36f15
		<tag k="natural" v="scree" />
		<tag k="ssr:stedsnr" v="506394" />
	</node>
<<<<<<< HEAD
	<node lat="67.40407500359106" lon="15.625133340059369" id="-14203">
		<tag k="name" v="Kvitmyra" />
		<tag k="natural" v="wetland" />
		<tag k="ssr:stedsnr" v="516177" />
	</node>
	<node lat="67.37243611010787" lon="15.633902780213916" id="-14209">
		<tag k="name" v="Øyra" />
		<tag k="place" v="locality" />
		<tag k="ssr:stedsnr" v="516296" />
	</node>
	<node lat="67.390736115617" lon="15.65549721915528" id="-14210">
		<tag k="name" v="Høystakken" />
		<tag k="place" v="locality" />
		<tag k="ssr:stedsnr" v="516196" />
	</node>
	<node lat="67.44941944621013" lon="15.55915278072515" id="-14217">
		<tag k="name" v="Lapptraan" />
		<tag k="place" v="locality" />
		<tag k="ssr:stedsnr" v="516348" />
	</node>
	<node lat="67.45146111035648" lon="15.47025554453285" id="-14224">
		<tag k="name" v="Gammeltra" />
		<tag k="place" v="locality" />
		<tag k="ssr:stedsnr" v="516558" />
	</node>
	<node lat="67.3600083294675" lon="15.88532500732917" id="-14233">
		<tag k="name" v="Sijdasjiegŋa" />
		<tag k="name:smj" v="Sijdasjiegŋa" />
		<tag k="natural" v="glacier" />
		<tag k="old_name:smj" v="Siiddasjiekŋa" />
		<tag k="ssr:stedsnr" v="561303" />
	</node>
	<node lat="67.4171111076145" lon="15.739150007013471" id="-14235">
		<tag k="name" v="Stormyran" />
=======
	<node id="-176669" lat="67.618936113" lon="15.7243888916">
		<tag k="name" v="Smiheimyra" />
		<tag k="natural" v="wetland" />
		<tag k="ssr:stedsnr" v="395518" />
	</node>
	<node id="-178716" lat="67.4673916705" lon="15.5732444408">
		<tag k="landuse" v="meadow" />
		<tag k="name" v="Skyttenga" />
		<tag k="ssr:stedsnr" v="759141" />
	</node>
	<node id="-177691" lat="67.6439305564" lon="15.9702805594">
		<tag k="name" v="Tjønnmyra" />
		<tag k="natural" v="wetland" />
		<tag k="ssr:stedsnr" v="92857" />
	</node>
	<node id="-176389" lat="67.6468083336" lon="15.9840194437">
		<tag k="name" v="Gabrielvedhogget" />
		<tag k="place" v="locality" />
		<tag k="ssr:stedsnr" v="203507" />
	</node>
	<node id="-177175" lat="67.4707166627" lon="15.2128555443">
		<tag k="name" v="Kobbsteinen" />
		<tag k="natural" v="stone" />
		<tag k="ssr:stedsnr" v="749004" />
	</node>
	<node id="-176662" lat="67.3826805577" lon="15.6381305669">
		<tag k="name" v="Trolldalmyra" />
		<tag k="natural" v="wetland" />
		<tag k="ssr:stedsnr" v="394302" />
	</node>
	<node id="-177582" lat="67.5632805567" lon="15.8793305471">
		<tag k="name" v="Forrskogen" />
		<tag k="place" v="locality" />
		<tag k="ssr:stedsnr" v="77679" />
	</node>
	<node id="-178194" lat="67.5089305517" lon="15.6494361049">
		<tag k="name" v="Kalviktuvmyran" />
>>>>>>> e1d4bc35ff8a6074a6f2e91616a996b547c36f15
		<tag k="natural" v="wetland" />
		<tag k="ssr:stedsnr" v="561276" />
	</node>
<<<<<<< HEAD
	<node lat="67.42456666809179" lon="15.513699988853753" id="-14265">
		<tag k="name" v="Furnesmyran" />
		<tag k="natural" v="wetland" />
		<tag k="ssr:stedsnr" v="562534" />
	</node>
	<node lat="67.41414722299338" lon="15.673502785170701" id="-14289">
		<tag k="name" v="Arura" />
		<tag k="natural" v="scree" />
		<tag k="ssr:stedsnr" v="562940" />
	</node>
	<node lat="67.43312777980714" lon="15.139333326118075" id="-14312">
		<tag k="name" v="Lappøyra" />
=======
	<node id="-176657" lat="67.3407722199" lon="15.6331611066">
		<tag k="name" v="Straumvassura" />
		<tag k="natural" v="scree" />
		<tag k="ssr:stedsnr" v="385556" />
	</node>
	<node id="-178703" lat="67.3417027736" lon="15.7151138912">
		<tag k="name" v="Fallet" />
		<tag k="natural" v="scree" />
		<tag k="ssr:stedsnr" v="749953" />
	</node>
	<node id="-176525" lat="67.3925472221" lon="15.5229249949">
		<tag k="name" v="Bergdråpmyra" />
		<tag k="natural" v="wetland" />
		<tag k="ssr:stedsnr" v="455650" />
	</node>
	<node id="-176651" lat="67.5980000018" lon="16.000016655">
		<tag k="name" v="Kvitflogmarka" />
		<tag k="place" v="locality" />
		<tag k="ssr:stedsnr" v="385469" />
	</node>
	<node id="-177239" lat="67.6388416625" lon="16.0071305627">
		<tag k="name" v="Nytmarka" />
		<tag k="place" v="locality" />
		<tag k="ssr:stedsnr" v="927612" />
	</node>
	<node id="-176134" lat="67.4351305585" lon="15.6990722243">
		<tag k="name" v="Nerigardsøyra" />
>>>>>>> e1d4bc35ff8a6074a6f2e91616a996b547c36f15
		<tag k="place" v="locality" />
		<tag k="ssr:stedsnr" v="565489" />
	</node>
<<<<<<< HEAD
	<node lat="67.53580277514564" lon="15.287066667365542" id="-14317">
		<tag k="name" v="Flatsteinen" />
		<tag k="natural" v="stone" />
		<tag k="ssr:stedsnr" v="566020" />
	</node>
	<node lat="67.56862499748185" lon="15.917188890261752" id="-14321">
		<tag k="name" v="Vassmarka" />
		<tag k="place" v="locality" />
		<tag k="ssr:stedsnr" v="566328" />
	</node>
	<node lat="67.55568333512846" lon="15.614102768915487" id="-14338">
		<tag k="name" v="Brattliskogen" />
		<tag k="place" v="locality" />
		<tag k="ssr:stedsnr" v="567843" />
	</node>
	<node lat="67.34131666406012" lon="15.720969439595493" id="-14341">
		<tag k="landuse" v="meadow" />
		<tag k="name" v="Hellarsteinenga" />
		<tag k="ssr:stedsnr" v="567948" />
	</node>
	<node lat="67.3462194480357" lon="15.714588895243622" id="-14350">
		<tag k="name" v="Lisjøyra" />
		<tag k="place" v="locality" />
		<tag k="ssr:stedsnr" v="567978" />
	</node>
	<node lat="67.43679444305472" lon="15.479055545273386" id="-14358">
		<tag k="name" v="Bukksteinen" />
		<tag k="natural" v="stone" />
		<tag k="ssr:stedsnr" v="576532" />
	</node>
	<node lat="67.39976389054046" lon="15.602588885178305" id="-14362">
		<tag k="name" v="Strupmyra" />
		<tag k="natural" v="wetland" />
		<tag k="ssr:stedsnr" v="577211" />
	</node>
	<node lat="67.45584722297072" lon="15.58040278263565" id="-14363">
		<tag k="name" v="Kleksura" />
		<tag k="natural" v="scree" />
		<tag k="ssr:stedsnr" v="577156" />
	</node>
	<node lat="67.62587500393786" lon="15.919827785068543" id="-14373">
		<tag k="name" v="Olamyra" />
		<tag k="natural" v="wetland" />
		<tag k="ssr:stedsnr" v="577936" />
	</node>
	<node lat="67.48101110686423" lon="15.592049999969815" id="-14430">
		<tag k="name" v="Storelvøyra" />
		<tag k="place" v="locality" />
		<tag k="ssr:stedsnr" v="627771" />
	</node>
	<node lat="67.3829027756108" lon="15.756558343374849" id="-14443">
		<tag k="name" v="Kløvensteinen" />
		<tag k="natural" v="stone" />
		<tag k="ssr:stedsnr" v="628930" />
	</node>
	<node lat="67.44436111160154" lon="15.573283341284359" id="-14453">
		<tag k="name" v="Øvermarka" />
		<tag k="place" v="locality" />
		<tag k="ssr:stedsnr" v="637355" />
	</node>
	<node lat="67.6082361108656" lon="15.735208330458102" id="-14462">
		<tag k="name" v="Drågmoskogen" />
		<tag k="place" v="locality" />
		<tag k="ssr:stedsnr" v="637387" />
	</node>
	<node lat="67.38497222538905" lon="15.540677786336625" id="-14465">
		<tag k="name" v="Storsteinen" />
		<tag k="natural" v="stone" />
		<tag k="ssr:stedsnr" v="637677" />
	</node>
	<node lat="67.41385000316173" lon="15.517022222510306" id="-14472">
		<tag k="name" v="Bjørnmoskogen" />
		<tag k="place" v="locality" />
		<tag k="ssr:stedsnr" v="637654" />
	</node>
	<node lat="67.63154166870602" lon="15.766294445762046" id="-14549">
		<tag k="name" v="Oljensosteinen" />
		<tag k="natural" v="stone" />
		<tag k="ssr:stedsnr" v="748332" />
	</node>
	<node lat="67.38525555783649" lon="15.753255555660754" id="-14551">
		<tag k="name" v="Djupvikura" />
		<tag k="natural" v="scree" />
		<tag k="ssr:stedsnr" v="749965" />
	</node>
	<node lat="67.6507472235593" lon="15.971758340723886" id="-14562">
		<tag k="name" v="Øverlimyra" />
		<tag k="natural" v="wetland" />
		<tag k="ssr:stedsnr" v="749280" />
	</node>
	<node lat="67.47500833470062" lon="15.548852782214432" id="-14569">
		<tag k="name" v="Innergardsmyra" />
		<tag k="natural" v="wetland" />
		<tag k="ssr:stedsnr" v="749777" />
	</node>
	<node lat="67.34170277357065" lon="15.715113891228237" id="-14580">
		<tag k="name" v="Fallet" />
		<tag k="natural" v="scree" />
		<tag k="ssr:stedsnr" v="749953" />
	</node>
	<node lat="67.46739167049073" lon="15.573244440785192" id="-14585">
		<tag k="landuse" v="meadow" />
		<tag k="name" v="Skyttenga" />
		<tag k="ssr:stedsnr" v="759141" />
	</node>
	<node lat="67.40395277814461" lon="15.61523056620676" id="-14588">
		<tag k="name" v="Gammen" />
		<tag k="place" v="locality" />
		<tag k="ssr:stedsnr" v="759169" />
	</node>
	<node lat="67.64135277857388" lon="15.94803888920728" id="-14612">
		<tag k="name" v="Limyra" />
		<tag k="natural" v="wetland" />
		<tag k="ssr:stedsnr" v="759901" />
	</node>
	<node lat="67.46211666555003" lon="15.520402784620956" id="-14629">
		<tag k="name" v="Kvarvsøyra" />
		<tag k="place" v="locality" />
		<tag k="ssr:stedsnr" v="805525" />
	</node>
	<node lat="67.44801944851667" lon="15.84933056283505" id="-14660">
		<tag k="name" v="Brenna" />
		<tag k="natural" v="wetland" />
		<tag k="ssr:stedsnr" v="805806" />
	</node>
	<node lat="67.71641110932788" lon="15.631944442933452" id="-14682">
		<tag k="name" v="Reinvikisen" />
		<tag k="natural" v="glacier" />
		<tag k="ssr:stedsnr" v="806886" />
	</node>
	<node lat="67.63851666852983" lon="15.289299988948398" id="-14714">
		<tag k="name" v="Elvmoen" />
		<tag k="place" v="locality" />
		<tag k="ssr:stedsnr" v="809973" />
	</node>
	<node lat="67.42225277361666" lon="15.554805550329606" id="-14724">
		<tag k="landuse" v="meadow" />
		<tag k="name" v="Melloenga" />
		<tag k="ssr:stedsnr" v="810437" />
	</node>
	<node lat="67.48745555300965" lon="15.594997218304213" id="-14728">
		<tag k="name" v="Aspenesmyra" />
		<tag k="natural" v="wetland" />
		<tag k="ssr:stedsnr" v="810794" />
	</node>
	<node lat="67.36899444604761" lon="15.54946944211556" id="-14739">
		<tag k="name" v="Sarajorda" />
		<tag k="place" v="locality" />
		<tag k="ssr:stedsnr" v="819276" />
	</node>
	<node lat="67.63835555490564" lon="16.024558332279817" id="-14741">
		<tag k="name" v="Hopenteigen" />
		<tag k="place" v="locality" />
		<tag k="ssr:stedsnr" v="820073" />
	</node>
	<node lat="67.46004444871716" lon="15.584863881150932" id="-14746">
		<tag k="name" v="Storura" />
		<tag k="natural" v="scree" />
		<tag k="ssr:stedsnr" v="820178" />
	</node>
	<node lat="67.45827499764292" lon="15.561516668040126" id="-14754">
		<tag k="name" v="Lillekråkmyra" />
		<tag k="natural" v="wetland" />
		<tag k="ssr:stedsnr" v="820342" />
	</node>
	<node lat="67.59508332877341" lon="15.923344452123008" id="-14763">
		<tag k="name" v="Olderøyra" />
		<tag k="place" v="locality" />
		<tag k="ssr:stedsnr" v="820561" />
	</node>
	<node lat="67.24143055522119" lon="16.067158324198783" id="-14817">
		<tag k="name" v="Blåmannsisen - Ålmåjalosjiegŋa" />
		<tag k="name:no" v="Blåmannsisen" />
		<tag k="name:smj" v="Ålmåjalosjiegŋa" />
		<tag k="natural" v="glacier" />
		<tag k="old_name:smj" v="Olmmáijiekŋa;Olmmaijiekna;Ålmåjalosjiegńa" />
		<tag k="ssr:stedsnr" v="866865" />
	</node>
	<node lat="67.41387222328974" lon="15.730549994677272" id="-14857">
		<tag k="name" v="Ingeborgmyra" />
		<tag k="natural" v="wetland" />
		<tag k="ssr:stedsnr" v="870971" />
	</node>
	<node lat="67.3755611133552" lon="15.66455554605613" id="-14875">
		<tag k="name" v="Røyrskogen" />
		<tag k="place" v="locality" />
		<tag k="ssr:stedsnr" v="880279" />
	</node>
	<node lat="67.47009999819242" lon="15.434802775965252" id="-14879">
		<tag k="name" v="Soppnes" />
		<tag k="place" v="locality" />
		<tag k="ssr:stedsnr" v="880373" />
	</node>
	<node lat="67.47529444410074" lon="15.462169451235537" id="-14880">
		<tag k="name" v="Tullkjerran" />
		<tag k="place" v="locality" />
		<tag k="ssr:stedsnr" v="880398" />
	</node>
	<node lat="67.5937527765399" lon="15.866936121742695" id="-14887">
		<tag k="name" v="Halsan" />
		<tag k="place" v="locality" />
		<tag k="ssr:stedsnr" v="881527" />
	</node>
	<node lat="67.61671667060159" lon="15.916472222412851" id="-14890">
		<tag k="name" v="Nonkuvmyra" />
		<tag k="natural" v="wetland" />
		<tag k="ssr:stedsnr" v="881937" />
	</node>
	<node lat="67.46531388516259" lon="15.570466675264663" id="-14893">
		<tag k="name" v="Bloman" />
		<tag k="place" v="locality" />
		<tag k="ssr:stedsnr" v="941125" />
	</node>
	<node lat="67.38983055661845" lon="15.645449994929434" id="-14903">
		<tag k="name" v="Åsmyra" />
		<tag k="natural" v="wetland" />
		<tag k="ssr:stedsnr" v="941171" />
	</node>
	<node lat="67.39707222167905" lon="15.67899999885872" id="-14905">
		<tag k="name" v="Andkilmyra" />
		<tag k="natural" v="wetland" />
		<tag k="ssr:stedsnr" v="941176" />
	</node>
	<node lat="67.52934166577685" lon="15.482302766548216" id="-14910">
		<tag k="name" v="Ospskogan" />
		<tag k="place" v="locality" />
		<tag k="ssr:stedsnr" v="941302" />
	</node>
	<node lat="67.36804444618556" lon="15.56665833465391" id="-14912">
		<tag k="name" v="Krekanmyra" />
		<tag k="natural" v="wetland" />
		<tag k="ssr:stedsnr" v="941347" />
	</node>
	<node lat="67.58357222230006" lon="15.797511101084805" id="-14915">
		<tag k="name" v="Rogna" />
		<tag k="place" v="locality" />
		<tag k="ssr:stedsnr" v="941454" />
	</node>
	<node lat="67.47525833191838" lon="15.445249998072129" id="-14926">
		<tag k="name" v="Aspan" />
		<tag k="place" v="locality" />
		<tag k="ssr:stedsnr" v="941503" />
	</node>
	<node lat="67.63700833380672" lon="15.972583336548599" id="-14933">
		<tag k="name" v="Remma" />
		<tag k="place" v="locality" />
		<tag k="ssr:stedsnr" v="941880" />
	</node>
=======
	<node id="-177668" lat="67.5809916679" lon="15.7665583264">
		<tag k="name" v="Hestmyra" />
		<tag k="natural" v="wetland" />
		<tag k="ssr:stedsnr" v="91449" />
	</node>
	<node id="-176130" lat="67.4902222222" lon="15.2798194337">
		<tag k="name" v="Erikmyra" />
		<tag k="natural" v="wetland" />
		<tag k="ssr:stedsnr" v="20006" />
	</node>
>>>>>>> e1d4bc35ff8a6074a6f2e91616a996b547c36f15
</osm>
