<?xml version="1.0" encoding="UTF-8"?>
<osm version="0.6" generator="osmapis">
	<node id="256157005" lat="62.4405047" lon="6.1908603" version="4" timestamp="2022-08-14T16:42:25Z" changeset="124895252" uid="3497659" user="NKA">
		<tag k="alt_name" v="Langevågen" />
		<tag k="name" v="Langevåg" />
		<tag k="place" v="village" />
		<tag k="ssr:stedsnr" v="800956" />
	</node>
	<node id="256157006" lat="62.4396209" lon="6.2740355" version="3" timestamp="2022-08-14T16:42:25Z" changeset="124895252" uid="3497659" user="NKA">
		<tag k="name" v="Fiskarstranda" />
		<tag k="place" v="village" />
		<tag k="ssr:stedsnr" v="132045" />
	</node>
	<node id="256157007" lat="62.421025" lon="6.2724301" version="3" timestamp="2022-08-14T16:42:25Z" changeset="124895252" uid="3497659" user="NKA">
		<tag k="name" v="Mauseidvågen" />
		<tag k="place" v="village" />
		<tag k="ssr:stedsnr" v="920093" />
	</node>
	<node id="6216715423" lat="62.4281585" lon="6.315123" version="2" timestamp="2022-08-14T16:42:25Z" changeset="124895252" uid="3497659" user="NKA">
		<tag k="name" v="Eidsnes" />
		<tag k="place" v="village" />
		<tag k="ssr:stedsnr" v="119121" />
	</node>
	<node id="7402986850" lat="62.4378813" lon="6.1651684" version="2" timestamp="2022-08-14T16:42:25Z" changeset="124895252" uid="3497659" user="NKA">
		<tag k="alt_name" v="Sandvik" />
		<tag k="name" v="Sandvika" />
		<tag k="place" v="hamlet" />
		<tag k="ssr:stedsnr" v="678949" />
	</node>
	<node id="7403033912" lat="62.4389273" lon="6.1719934" version="3" timestamp="2022-08-14T16:42:25Z" changeset="124895252" uid="3497659" user="NKA">
		<tag k="name" v="Molværsmyra" />
		<tag k="place" v="neighbourhood" />
		<tag k="ssr:stedsnr" v="96807" />
	</node>
	<node id="8267528137" lat="62.4376723" lon="6.1811394" version="2" timestamp="2022-08-14T16:42:25Z" changeset="124895252" uid="3497659" user="NKA">
		<tag k="name" v="Molvær" />
		<tag k="place" v="quarter" />
		<tag k="ssr:stedsnr" v="435986" />
	</node>
	<node id="9953014473" lat="62.4170222" lon="6.2319613" version="1" timestamp="2022-08-14T16:42:25Z" changeset="124895252" uid="3497659" user="NKA">
		<tag k="name" v="Rørstadstølen" />
		<tag k="place" v="isolated_dwelling" />
		<tag k="ssr:stedsnr" v="566168" />
	</node>
	<node id="9953014474" lat="62.4366802" lon="6.1254035" version="1" timestamp="2022-08-14T16:42:25Z" changeset="124895252" uid="3497659" user="NKA">
		<tag k="name" v="Flesje" />
		<tag k="place" v="locality" />
		<tag k="ssr:stedsnr" v="435988" />
	</node>
	<node id="9953014475" lat="62.442675" lon="6.2140669" version="1" timestamp="2022-08-14T16:42:25Z" changeset="124895252" uid="3497659" user="NKA">
		<tag k="name" v="Havnegjerdet" />
		<tag k="place" v="farm" />
		<tag k="ssr:stedsnr" v="703847" />
	</node>
	<node id="9953014476" lat="62.4402445" lon="6.2221558" version="1" timestamp="2022-08-14T16:42:25Z" changeset="124895252" uid="3497659" user="NKA">
		<tag k="name" v="Øvre Holen" />
		<tag k="place" v="neighbourhood" />
		<tag k="ssr:stedsnr" v="352360" />
	</node>
	<node id="9953014477" lat="62.4290301" lon="6.3389376" version="1" timestamp="2022-08-14T16:42:25Z" changeset="124895252" uid="3497659" user="NKA">
		<tag k="name" v="Reitebøen" />
		<tag k="place" v="locality" />
		<tag k="ssr:stedsnr" v="355670" />
	</node>
	<node id="9953014478" lat="62.3973091" lon="6.1537102" version="1" timestamp="2022-08-14T16:42:25Z" changeset="124895252" uid="3497659" user="NKA">
		<tag k="alt_name" v="Øygarden" />
		<tag k="name" v="Sulødegård" />
		<tag k="place" v="farm" />
		<tag k="ssr:stedsnr" v="278833" />
	</node>
	<node id="9953014479" lat="62.4266822" lon="6.2738238" version="1" timestamp="2022-08-14T16:42:25Z" changeset="124895252" uid="3497659" user="NKA">
		<tag k="name" v="Røbekk" />
		<tag k="place" v="farm" />
		<tag k="ssr:stedsnr" v="786119" />
	</node>
	<node id="9953014480" lat="62.4277388" lon="6.2982727" version="1" timestamp="2022-08-14T16:42:25Z" changeset="124895252" uid="3497659" user="NKA">
		<tag k="name" v="Bjørkavåg" />
		<tag k="place" v="hamlet" />
		<tag k="ssr:stedsnr" v="557042" />
	</node>
	<node id="9953014481" lat="62.4429069" lon="6.1969853" version="1" timestamp="2022-08-14T16:42:25Z" changeset="124895252" uid="3497659" user="NKA">
		<tag k="name" v="Nymarkbakken" />
		<tag k="place" v="neighbourhood" />
		<tag k="ssr:stedsnr" v="231410" />
	</node>
	<node id="9953014482" lat="62.4137285" lon="6.2200255" version="1" timestamp="2022-08-14T16:42:25Z" changeset="124895252" uid="3497659" user="NKA">
		<tag k="historic" v="shieling" />
		<tag k="name" v="Humlestølen" />
		<tag k="place" v="isolated_dwelling" />
		<tag k="ssr:stedsnr" v="703844" />
	</node>
	<node id="9953014483" lat="62.4366274" lon="6.2249022" version="1" timestamp="2022-08-14T16:42:25Z" changeset="124895252" uid="3497659" user="NKA">
		<tag k="name" v="Veddegjerdet" />
		<tag k="place" v="farm" />
		<tag k="ssr:stedsnr" v="847685" />
	</node>
	<node id="9953014484" lat="62.4229648" lon="6.361663" version="1" timestamp="2022-08-14T16:42:25Z" changeset="124895252" uid="3497659" user="NKA">
		<tag k="name" v="Kvasnes" />
		<tag k="place" v="hamlet" />
		<tag k="ssr:stedsnr" v="272364" />
	</node>
	<node id="9953014485" lat="62.4108972" lon="6.3192669" version="1" timestamp="2022-08-14T16:42:25Z" changeset="124895252" uid="3497659" user="NKA">
		<tag k="name" v="Høghaugen" />
		<tag k="place" v="farm" />
		<tag k="ssr:stedsnr" v="860131" />
	</node>
	<node id="9953014486" lat="62.4261212" lon="6.3085855" version="1" timestamp="2022-08-14T16:42:25Z" changeset="124895252" uid="3497659" user="NKA">
		<tag k="name" v="Solavågseidet" />
		<tag k="place" v="hamlet" />
		<tag k="ssr:stedsnr" v="495107" />
	</node>
	<node id="9953014487" lat="62.4433961" lon="6.2324854" version="1" timestamp="2022-08-14T16:42:25Z" changeset="124895252" uid="3497659" user="NKA">
		<tag k="name" v="Holsfeta" />
		<tag k="place" v="farm" />
		<tag k="ssr:stedsnr" v="460808" />
	</node>
	<node id="9953014488" lat="62.4199139" lon="6.3281169" version="1" timestamp="2022-08-14T16:42:25Z" changeset="124895252" uid="3497659" user="NKA">
		<tag k="name" v="Sunde" />
		<tag k="place" v="farm" />
		<tag k="ssr:stedsnr" v="763837" />
	</node>
	<node id="9953014489" lat="62.4365627" lon="6.2227052" version="1" timestamp="2022-08-14T16:42:25Z" changeset="124895252" uid="3497659" user="NKA">
		<tag k="name" v="Gjerde" />
		<tag k="place" v="farm" />
		<tag k="ssr:stedsnr" v="901688" />
	</node>
	<node id="9953014490" lat="62.4281899" lon="6.3555063" version="1" timestamp="2022-08-14T16:42:25Z" changeset="124895252" uid="3497659" user="NKA">
		<tag k="name" v="Veibust" />
		<tag k="place" v="farm" />
		<tag k="ssr:stedsnr" v="678096" />
	</node>
	<node id="9953014491" lat="62.4059228" lon="6.2501539" version="1" timestamp="2022-08-14T16:42:25Z" changeset="124895252" uid="3497659" user="NKA">
		<tag k="name" v="Eikrem" />
		<tag k="place" v="hamlet" />
		<tag k="ssr:stedsnr" v="314112" />
	</node>
	<node id="9953014492" lat="62.448605" lon="6.2105521" version="1" timestamp="2022-08-14T16:42:25Z" changeset="124895252" uid="3497659" user="NKA">
		<tag k="name" v="Kråna" />
		<tag k="place" v="locality" />
		<tag k="ssr:stedsnr" v="824831" />
	</node>
	<node id="9953014493" lat="62.4303917" lon="6.3556974" version="1" timestamp="2022-08-14T16:42:25Z" changeset="124895252" uid="3497659" user="NKA">
		<tag k="name" v="Veibustvågen" />
		<tag k="place" v="neighbourhood" />
		<tag k="ssr:stedsnr" v="716393" />
	</node>
	<node id="9953014494" lat="62.4220429" lon="6.3250515" version="1" timestamp="2022-08-14T16:42:25Z" changeset="124895252" uid="3497659" user="NKA">
		<tag k="loc_name" v="Leirvåg" />
		<tag k="name" v="Leirvågen" />
		<tag k="place" v="hamlet" />
		<tag k="ssr:stedsnr" v="374095" />
	</node>
	<node id="9953014495" lat="62.4355704" lon="6.286697" version="1" timestamp="2022-08-14T16:42:25Z" changeset="124895252" uid="3497659" user="NKA">
		<tag k="alt_name" v="Blomvik" />
		<tag k="name" v="Blomvika" />
		<tag k="place" v="farm" />
		<tag k="ssr:stedsnr" v="72045" />
	</node>
	<node id="9953014496" lat="62.4139412" lon="6.269823" version="1" timestamp="2022-08-14T16:42:25Z" changeset="124895252" uid="3497659" user="NKA">
		<tag k="name" v="Karlsbakken" />
		<tag k="place" v="hamlet" />
		<tag k="ssr:stedsnr" v="10070" />
	</node>
	<node id="9953014497" lat="62.4246361" lon="6.157389" version="1" timestamp="2022-08-14T16:42:25Z" changeset="124895252" uid="3497659" user="NKA">
		<tag k="name" v="Rødekorshytta" />
		<tag k="place" v="isolated_dwelling" />
		<tag k="ssr:stedsnr" v="763918" />
	</node>
	<node id="9953014498" lat="62.4268611" lon="6.3222558" version="1" timestamp="2022-08-14T16:42:25Z" changeset="124895252" uid="3497659" user="NKA">
		<tag k="name" v="Stølane" />
		<tag k="place" v="farm" />
		<tag k="ssr:stedsnr" v="253085" />
	</node>
	<node id="9953014499" lat="62.4402435" lon="6.2742392" version="1" timestamp="2022-08-14T16:42:25Z" changeset="124895252" uid="3497659" user="NKA">
		<tag k="name" v="Våtmyr" />
		<tag k="place" v="locality" />
		<tag k="ssr:stedsnr" v="982388" />
	</node>
	<node id="9953014500" lat="62.4443028" lon="6.2024531" version="1" timestamp="2022-08-14T16:42:25Z" changeset="124895252" uid="3497659" user="NKA">
		<tag k="name" v="Fyllingen" />
		<tag k="place" v="farm" />
		<tag k="ssr:stedsnr" v="824920" />
	</node>
	<node id="9953014501" lat="62.415944" lon="6.3324514" version="1" timestamp="2022-08-14T16:42:25Z" changeset="124895252" uid="3497659" user="NKA">
		<tag k="name" v="Sunde" />
		<tag k="place" v="hamlet" />
		<tag k="ssr:stedsnr" v="374081" />
	</node>
	<node id="9953014502" lat="62.4190306" lon="6.3275086" version="1" timestamp="2022-08-14T16:42:25Z" changeset="124895252" uid="3497659" user="NKA">
		<tag k="name" v="Slettereit" />
		<tag k="place" v="neighbourhood" />
		<tag k="ssr:stedsnr" v="231401" />
	</node>
	<node id="9953014503" lat="62.4176072" lon="6.3201934" version="1" timestamp="2022-08-14T16:42:25Z" changeset="124895252" uid="3497659" user="NKA">
		<tag k="alt_name" v="Solevåg;Solevågen" />
		<tag k="name" v="Solavågen" />
		<tag k="place" v="hamlet" />
		<tag k="ssr:stedsnr" v="314069" />
	</node>
	<node id="9953014504" lat="62.4156222" lon="6.207839" version="1" timestamp="2022-08-14T16:42:25Z" changeset="124895252" uid="3497659" user="NKA">
		<tag k="name" v="Rollonhytta" />
		<tag k="place" v="isolated_dwelling" />
		<tag k="ssr:stedsnr" v="254872" />
	</node>
	<node id="9953014505" lat="62.4366277" lon="6.1776585" version="1" timestamp="2022-08-14T16:42:25Z" changeset="124895252" uid="3497659" user="NKA">
		<tag k="name" v="Haugedammen" />
		<tag k="place" v="neighbourhood" />
		<tag k="ssr:stedsnr" v="595345" />
	</node>
	<node id="9953014506" lat="62.441425" lon="6.2672168" version="1" timestamp="2022-08-14T16:42:25Z" changeset="124895252" uid="3497659" user="NKA">
		<tag k="name" v="Søre Hammaren" />
		<tag k="place" v="neighbourhood" />
		<tag k="ssr:stedsnr" v="292814" />
	</node>
	<node id="9953014507" lat="62.4350631" lon="6.2375204" version="1" timestamp="2022-08-14T16:42:25Z" changeset="124895252" uid="3497659" user="NKA">
		<tag k="name" v="Vedde" />
		<tag k="place" v="hamlet" />
		<tag k="ssr:stedsnr" v="739032" />
	</node>
	<node id="9953014508" lat="62.404078" lon="6.271318" version="1" timestamp="2022-08-14T16:42:25Z" changeset="124895252" uid="3497659" user="NKA">
		<tag k="alt_name" v="Eikremsvika" />
		<tag k="name" v="Eikreimsvika" />
		<tag k="place" v="farm" />
		<tag k="ssr:stedsnr" v="921104" />
	</node>
	<node id="9953014509" lat="62.4486952" lon="6.2092487" version="1" timestamp="2022-08-14T16:42:25Z" changeset="124895252" uid="3497659" user="NKA">
		<tag k="name" v="Jyljebø" />
		<tag k="place" v="locality" />
		<tag k="ssr:stedsnr" v="35943" />
	</node>
	<node id="9953014510" lat="62.4365091" lon="6.1044779" version="1" timestamp="2022-08-14T16:42:25Z" changeset="124895252" uid="3497659" user="NKA">
		<tag k="name" v="Kalvestad" />
		<tag k="place" v="locality" />
		<tag k="ssr:stedsnr" v="253970" />
	</node>
	<node id="9953014511" lat="62.4227445" lon="6.3104364" version="1" timestamp="2022-08-14T16:42:25Z" changeset="124895252" uid="3497659" user="NKA">
		<tag k="name" v="Storevalen" />
		<tag k="place" v="farm" />
		<tag k="ssr:stedsnr" v="799091" />
	</node>
	<node id="9953014512" lat="62.4411417" lon="6.1969484" version="1" timestamp="2022-08-14T16:42:25Z" changeset="124895252" uid="3497659" user="NKA">
		<tag k="name" v="Løken" />
		<tag k="place" v="farm" />
		<tag k="ssr:stedsnr" v="726698" />
	</node>
	<node id="9953014513" lat="62.4476237" lon="6.1920916" version="1" timestamp="2022-08-14T16:42:25Z" changeset="124895252" uid="3497659" user="NKA">
		<tag k="name" v="Hattholmen" />
		<tag k="place" v="farm" />
		<tag k="ssr:stedsnr" v="96923" />
	</node>
	<node id="9953014514" lat="62.4481306" lon="6.1953696" version="1" timestamp="2022-08-14T16:42:25Z" changeset="124895252" uid="3497659" user="NKA">
		<tag k="name" v="Vassholmen" />
		<tag k="place" v="locality" />
		<tag k="ssr:stedsnr" v="703938" />
	</node>
	<node id="9953014515" lat="62.4361282" lon="6.1424533" version="1" timestamp="2022-08-14T16:42:25Z" changeset="124895252" uid="3497659" user="NKA">
		<tag k="name" v="Kjellingset" />
		<tag k="place" v="locality" />
		<tag k="ssr:stedsnr" v="617966" />
	</node>
	<node id="9953014516" lat="62.4106554" lon="6.0966508" version="1" timestamp="2022-08-14T16:42:25Z" changeset="124895252" uid="3497659" user="NKA">
		<tag k="alt_name" v="Nymarka" />
		<tag k="name" v="Nybø" />
		<tag k="place" v="farm" />
		<tag k="ssr:stedsnr" v="156915" />
	</node>
	<node id="9953055117" lat="62.4032957" lon="6.233823" version="1" timestamp="2022-08-14T16:42:25Z" changeset="124895252" uid="3497659" user="NKA">
		<tag k="name" v="Hjellen" />
		<tag k="place" v="farm" />
		<tag k="ssr:stedsnr" v="873712" />
	</node>
	<node id="9953055118" lat="62.4020788" lon="6.1318443" version="1" timestamp="2022-08-14T16:42:25Z" changeset="124895252" uid="3497659" user="NKA">
		<tag k="alt_name" v="Sulabakken;Sulabakk" />
		<tag k="name" v="Sulebakk" />
		<tag k="place" v="farm" />
		<tag k="ssr:stedsnr" v="436878" />
	</node>
	<node id="9953055119" lat="62.4049194" lon="6.2696142" version="1" timestamp="2022-08-14T16:42:25Z" changeset="124895252" uid="3497659" user="NKA">
		<tag k="name" v="Brauta" />
		<tag k="place" v="farm" />
		<tag k="ssr:stedsnr" v="739093" />
	</node>
	<node id="9953055120" lat="62.4477427" lon="6.2065568" version="1" timestamp="2022-08-14T16:42:25Z" changeset="124895252" uid="3497659" user="NKA">
		<tag k="name" v="Kipperberg" />
		<tag k="place" v="neighbourhood" />
		<tag k="ssr:stedsnr" v="581788" />
	</node>
	<node id="9953055121" lat="62.4357184" lon="6.2777444" version="1" timestamp="2022-08-14T16:42:25Z" changeset="124895252" uid="3497659" user="NKA">
		<tag k="name" v="Valen" />
		<tag k="place" v="farm" />
		<tag k="ssr:stedsnr" v="72034" />
	</node>
	<node id="9953055122" lat="62.3981622" lon="6.2169015" version="1" timestamp="2022-08-14T16:42:25Z" changeset="124895252" uid="3497659" user="NKA">
		<tag k="alt_name" v="Båtnes" />
		<tag k="name" v="Båtneset" />
		<tag k="place" v="farm" />
		<tag k="ssr:stedsnr" v="617905" />
	</node>
	<node id="9953055123" lat="62.4468512" lon="6.2032482" version="1" timestamp="2022-08-14T16:42:25Z" changeset="124895252" uid="3497659" user="NKA">
		<tag k="name" v="Kippervik" />
		<tag k="place" v="locality" />
		<tag k="ssr:stedsnr" v="982405" />
	</node>
	<node id="9953055124" lat="62.4424369" lon="6.2699735" version="1" timestamp="2022-08-14T16:42:25Z" changeset="124895252" uid="3497659" user="NKA">
		<tag k="name" v="Størkerplassen" />
		<tag k="place" v="locality" />
		<tag k="ssr:stedsnr" v="982397" />
	</node>
	<node id="9953055125" lat="62.413574" lon="6.2216208" version="1" timestamp="2022-08-14T16:42:25Z" changeset="124895252" uid="3497659" user="NKA">
		<tag k="historic" v="shieling" />
		<tag k="name" v="Mausastølen" />
		<tag k="place" v="isolated_dwelling" />
		<tag k="ssr:stedsnr" v="703925" />
	</node>
	<node id="9953055126" lat="62.428834" lon="6.3439143" version="1" timestamp="2022-08-14T16:42:25Z" changeset="124895252" uid="3497659" user="NKA">
		<tag k="name" v="Reitehaugen" />
		<tag k="place" v="hamlet" />
		<tag k="ssr:stedsnr" v="71089" />
	</node>
	<node id="9953055127" lat="62.4407017" lon="6.1896217" version="1" timestamp="2022-08-14T16:42:25Z" changeset="124895252" uid="3497659" user="NKA">
		<tag k="name" v="Vågstorget" />
		<tag k="place" v="square" />
		<tag k="ssr:stedsnr" v="570452" />
	</node>
	<node id="9953055128" lat="62.4378862" lon="6.2626353" version="1" timestamp="2022-08-14T16:42:25Z" changeset="124895252" uid="3497659" user="NKA">
		<tag k="name" v="Haugen" />
		<tag k="place" v="locality" />
		<tag k="ssr:stedsnr" v="982394" />
	</node>
	<node id="9953055129" lat="62.4260861" lon="6.1856003" version="1" timestamp="2022-08-14T16:42:25Z" changeset="124895252" uid="3497659" user="NKA">
		<tag k="name" v="Koppen" />
		<tag k="place" v="isolated_dwelling" />
		<tag k="ssr:stedsnr" v="885892" />
	</node>
	<node id="9953055130" lat="62.413275" lon="6.315453" version="1" timestamp="2022-08-14T16:42:25Z" changeset="124895252" uid="3497659" user="NKA">
		<tag k="name" v="Nathaugen" />
		<tag k="place" v="neighbourhood" />
		<tag k="ssr:stedsnr" v="899379" />
	</node>
	<node id="9953055131" lat="62.4418358" lon="6.2714682" version="1" timestamp="2022-08-14T16:42:25Z" changeset="124895252" uid="3497659" user="NKA">
		<tag k="name" v="Davidsplassen" />
		<tag k="place" v="locality" />
		<tag k="ssr:stedsnr" v="982396" />
	</node>
	<node id="9953055132" lat="62.4357194" lon="6.1922187" version="1" timestamp="2022-08-14T16:42:25Z" changeset="124895252" uid="3497659" user="NKA">
		<tag k="name" v="Molværsrema" />
		<tag k="place" v="farm" />
		<tag k="ssr:stedsnr" v="96857" />
	</node>
	<node id="9953055133" lat="62.4229139" lon="6.2377558" version="1" timestamp="2022-08-14T16:42:25Z" changeset="124895252" uid="3497659" user="NKA">
		<tag k="historic" v="shieling" />
		<tag k="name" v="Djupviksætra" />
		<tag k="place" v="isolated_dwelling" />
		<tag k="ssr:stedsnr" v="399845" />
	</node>
	<node id="9953055134" lat="62.4477184" lon="6.2307901" version="1" timestamp="2022-08-14T16:42:25Z" changeset="124895252" uid="3497659" user="NKA">
		<tag k="name" v="Vågnes" />
		<tag k="place" v="farm" />
		<tag k="ssr:stedsnr" v="982400" />
	</node>
	<node id="9953055135" lat="62.418535" lon="6.2652808" version="1" timestamp="2022-08-14T16:42:25Z" changeset="124895252" uid="3497659" user="NKA">
		<tag k="name" v="Mauseid" />
		<tag k="place" v="hamlet" />
		<tag k="ssr:stedsnr" v="495103" />
	</node>
	<node id="9953055136" lat="62.4316277" lon="6.2783647" version="1" timestamp="2022-08-14T16:42:25Z" changeset="124895252" uid="3497659" user="NKA">
		<tag k="name" v="Rørstad" />
		<tag k="place" v="quarter" />
		<tag k="ssr:stedsnr" v="496047" />
	</node>
	<node id="9953055137" lat="62.4409263" lon="6.2272757" version="1" timestamp="2022-08-14T16:42:25Z" changeset="124895252" uid="3497659" user="NKA">
		<tag k="name" v="Holen" />
		<tag k="place" v="farm" />
		<tag k="ssr:stedsnr" v="96859" />
	</node>
	<node id="9953055138" lat="62.4234726" lon="6.2838476" version="1" timestamp="2022-08-14T16:42:25Z" changeset="124895252" uid="3497659" user="NKA">
		<tag k="name" v="Furneset" />
		<tag k="place" v="farm" />
		<tag k="ssr:stedsnr" v="131092" />
	</node>
	<node id="9953055139" lat="62.4417975" lon="6.2608046" version="1" timestamp="2022-08-14T16:42:25Z" changeset="124895252" uid="3497659" user="NKA">
		<tag k="name" v="Djupvika" />
		<tag k="place" v="farm" />
		<tag k="ssr:stedsnr" v="132052" />
	</node>
	<node id="9953055140" lat="62.43779" lon="6.2772376" version="1" timestamp="2022-08-14T16:42:25Z" changeset="124895252" uid="3497659" user="NKA">
		<tag k="name" v="Tranvåg" />
		<tag k="place" v="farm" />
		<tag k="ssr:stedsnr" v="543770" />
	</node>
	<node id="9953055141" lat="62.4374259" lon="6.2135091" version="1" timestamp="2022-08-14T16:42:25Z" changeset="124895252" uid="3497659" user="NKA">
		<tag k="name" v="Vasset" />
		<tag k="place" v="farm" />
		<tag k="ssr:stedsnr" v="314886" />
	</node>
	<node id="9953055142" lat="62.3987778" lon="6.1337952" version="1" timestamp="2022-08-14T16:42:25Z" changeset="124895252" uid="3497659" user="NKA">
		<tag k="name" v="Sulebust" />
		<tag k="place" v="hamlet" />
		<tag k="ssr:stedsnr" v="375876" />
	</node>
	<node id="9953055143" lat="62.4434878" lon="6.1857751" version="1" timestamp="2022-08-14T16:42:25Z" changeset="124895252" uid="3497659" user="NKA">
		<tag k="name" v="Stadsneset" />
		<tag k="place" v="farm" />
		<tag k="ssr:stedsnr" v="617956" />
	</node>
	<node id="9953055144" lat="62.4500924" lon="6.2166504" version="1" timestamp="2022-08-14T16:42:25Z" changeset="124895252" uid="3497659" user="NKA">
		<tag k="name" v="Salen" />
		<tag k="place" v="farm" />
		<tag k="ssr:stedsnr" v="179664" />
	</node>
	<node id="9953055145" lat="62.4301263" lon="6.351085" version="1" timestamp="2022-08-14T16:42:25Z" changeset="124895252" uid="3497659" user="NKA">
		<tag k="name" v="Veibust næringsområde" />
		<tag k="place" v="neighbourhood" />
		<tag k="ssr:stedsnr" v="413385" />
	</node>
	<node id="9953055146" lat="62.4266429" lon="6.3591407" version="1" timestamp="2022-08-14T16:42:25Z" changeset="124895252" uid="3497659" user="NKA">
		<tag k="name" v="Kongshaugen" />
		<tag k="place" v="farm" />
		<tag k="ssr:stedsnr" v="799098" />
	</node>
	<node id="9953055147" lat="62.4063786" lon="6.1019079" version="1" timestamp="2022-08-14T16:42:25Z" changeset="124895252" uid="3497659" user="NKA">
		<tag k="name" v="Nøringset" />
		<tag k="place" v="hamlet" />
		<tag k="ssr:stedsnr" v="254878" />
	</node>
	<node id="9953055148" lat="62.4421861" lon="6.2142613" version="1" timestamp="2022-08-14T16:42:25Z" changeset="124895252" uid="3497659" user="NKA">
		<tag k="name" v="Erikplassen" />
		<tag k="place" v="neighbourhood" />
		<tag k="ssr:stedsnr" v="221899" />
	</node>
	<node id="9953055149" lat="62.44515" lon="6.2145919" version="1" timestamp="2022-08-14T16:42:25Z" changeset="124895252" uid="3497659" user="NKA">
		<tag k="name" v="Heidegjerdet" />
		<tag k="place" v="farm" />
		<tag k="ssr:stedsnr" v="763856" />
	</node>
	<node id="9953055150" lat="62.4230831" lon="6.15761" version="1" timestamp="2022-08-14T16:42:25Z" changeset="124895252" uid="3497659" user="NKA">
		<tag k="name" v="Von-hytta" />
		<tag k="place" v="isolated_dwelling" />
		<tag k="ssr:stedsnr" v="35934" />
	</node>
	<node id="9953055151" lat="62.3963463" lon="6.1665272" version="1" timestamp="2022-08-14T16:42:25Z" changeset="124895252" uid="3497659" user="NKA">
		<tag k="name" v="Sulesund" />
		<tag k="place" v="hamlet" />
		<tag k="ssr:stedsnr" v="85022" />
	</node>
	<node id="9953055152" lat="62.3953984" lon="6.1788366" version="1" timestamp="2022-08-14T16:42:25Z" changeset="124895252" uid="3497659" user="NKA">
		<tag k="name" v="Kyrkjebø" />
		<tag k="place" v="farm" />
		<tag k="ssr:stedsnr" v="921890" />
	</node>
	<node id="9953055153" lat="62.3978123" lon="6.1460157" version="1" timestamp="2022-08-14T16:42:25Z" changeset="124895252" uid="3497659" user="NKA">
		<tag k="name" v="Røysa" />
		<tag k="place" v="hamlet" />
		<tag k="ssr:stedsnr" v="496877" />
	</node>
	<node id="9953055154" lat="62.4010917" lon="6.1397085" version="1" timestamp="2022-08-14T16:42:25Z" changeset="124895252" uid="3497659" user="NKA">
		<tag k="alt_name" v="Ranten" />
		<tag k="name" v="Sulabakken" />
		<tag k="place" v="farm" />
		<tag k="ssr:stedsnr" v="557881" />
	</node>
	<node id="9953055155" lat="62.4449833" lon="6.2091085" version="1" timestamp="2022-08-14T16:42:25Z" changeset="124895252" uid="3497659" user="NKA">
		<tag k="name" v="Åregjerdet" />
		<tag k="place" v="farm" />
		<tag k="ssr:stedsnr" v="35836" />
	</node>
	<node id="9953055156" lat="62.4101195" lon="6.0942058" version="1" timestamp="2022-08-14T16:42:25Z" changeset="124895252" uid="3497659" user="NKA">
		<tag k="alt_name" v="Oksevik" />
		<tag k="name" v="Oksavik" />
		<tag k="place" v="farm" />
		<tag k="ssr:stedsnr" v="436926" />
	</node>
	<node id="9953055157" lat="62.4382361" lon="6.2242419" version="1" timestamp="2022-08-14T16:42:25Z" changeset="124895252" uid="3497659" user="NKA">
		<tag k="name" v="Bratthaugen" />
		<tag k="place" v="neighbourhood" />
		<tag k="ssr:stedsnr" v="716331" />
	</node>
	<node id="9953055158" lat="62.4368274" lon="6.2860803" version="1" timestamp="2022-08-14T16:42:25Z" changeset="124895252" uid="3497659" user="NKA">
		<tag k="name" v="Korsneset" />
		<tag k="place" v="neighbourhood" />
		<tag k="ssr:stedsnr" v="534363" />
	</node>
	<node id="9953055159" lat="62.3956559" lon="6.1774066" version="1" timestamp="2022-08-14T16:42:25Z" changeset="124895252" uid="3497659" user="NKA">
		<tag k="name" v="Lassegarden" />
		<tag k="place" v="farm" />
		<tag k="ssr:stedsnr" v="399848" />
	</node>
	<node id="9953055160" lat="62.40305" lon="6.2698724" version="1" timestamp="2022-08-14T16:42:25Z" changeset="124895252" uid="3497659" user="NKA">
		<tag k="name" v="Samundstufte" />
		<tag k="place" v="locality" />
		<tag k="ssr:stedsnr" v="703877" />
	</node>
</osm>
