<?xml version="1.0" encoding="UTF-8"?>
<osm generator="osmapis" version="0.6">
	<node id="-14290" lat="59.7324469283" lon="11.8476885738">
		<tag k="name" v="Lometjenna" />
		<tag k="natural" v="water" />
		<tag k="ssr:stedsnr" v="970596" />
		<tag k="water" v="lake" />
	</node>
	<node id="-14289" lat="59.7190108874" lon="11.7033056067">
		<tag k="name" v="Nordre Nipetjenn" />
		<tag k="natural" v="water" />
		<tag k="ssr:stedsnr" v="961838" />
		<tag k="water" v="lake" />
	</node>
	<node id="-14288" lat="59.6742499966" lon="11.8055694497">
		<tag k="name" v="Skillesvika" />
		<tag k="natural" v="bay" />
		<tag k="ssr:stedsnr" v="961826" />
	</node>
	<node id="-14287" lat="59.7279861126" lon="11.7989694475">
		<tag k="name" v="Haukenesfjorden" />
		<tag k="natural" v="water" />
		<tag k="ssr:stedsnr" v="961795" />
		<tag k="water" v="lake" />
	</node>
	<node id="-14286" lat="59.7049749995" lon="11.7095833376">
		<tag k="name" v="Vesle Langtjenn" />
		<tag k="natural" v="water" />
		<tag k="ssr:stedsnr" v="961790" />
	</node>
	<node id="-14285" lat="59.659375003" lon="11.8395722266">
		<tag k="name" v="Oselva" />
		<tag k="ssr:stedsnr" v="961779" />
		<tag k="waterway" v="river" />
	</node>
	<node id="-14284" lat="59.7602305544" lon="11.7605083368">
		<tag k="name" v="Karissetra" />
		<tag k="place" v="locality" />
		<tag k="ssr:stedsnr" v="961219" />
	</node>
	<node id="-14283" lat="59.6547472197" lon="11.766461109">
		<tag k="name" v="Skavholta" />
		<tag k="place" v="locality" />
		<tag k="ssr:stedsnr" v="961188" />
	</node>
	<node id="-14282" lat="59.6519944433" lon="11.8310111093">
		<tag k="name" v="Kornbråtabekken" />
		<tag k="ssr:stedsnr" v="961186" />
		<tag k="waterway" v="stream" />
	</node>
	<node id="-14281" lat="59.7649583345" lon="11.9211444496">
		<tag k="name" v="Røvassfalldalen" />
		<tag k="natural" v="valley" />
		<tag k="place" v="locality" />
		<tag k="ssr:stedsnr" v="961162" />
	</node>
	<node id="-14280" lat="59.7248250017" lon="11.7984361166">
		<tag k="name" v="Spillemannstangen" />
		<tag k="natural" v="cape" />
		<tag k="ssr:stedsnr" v="961145" />
	</node>
	<node id="-14279" lat="59.7698527821" lon="11.8306055576">
		<tag k="name" v="Stormyrbrenna" />
		<tag k="place" v="locality" />
		<tag k="ssr:stedsnr" v="961140" />
	</node>
	<node id="-14278" lat="59.7206361104" lon="11.8508333343">
		<tag k="name" v="Sandviksanden" />
		<tag k="place" v="locality" />
		<tag k="ssr:stedsnr" v="961134" />
	</node>
	<node id="-14277" lat="59.6795527813" lon="11.6637722247">
		<tag k="name" v="Risenkoia" />
		<tag k="place" v="isolated_dwelling" />
		<tag k="ssr:stedsnr" v="961113" />
	</node>
	<node id="-14276" lat="59.7079694468" lon="11.7302388942">
		<tag k="name" v="Blekketjenn" />
		<tag k="natural" v="water" />
		<tag k="ssr:stedsnr" v="961114" />
	</node>
	<node id="-14275" lat="59.7173472186" lon="11.8417305605">
		<tag k="name" v="Sauodden" />
		<tag k="place" v="islet" />
		<tag k="ssr:stedsnr" v="961096" />
	</node>
	<node id="-14274" lat="59.7431138883" lon="11.7064944492">
		<tag k="name" v="Prestgånåtjenn" />
		<tag k="natural" v="water" />
		<tag k="ssr:stedsnr" v="961094" />
	</node>
	<node id="-14273" lat="59.6701500032" lon="11.7000750056">
		<tag k="name" v="Kollfurutjenn" />
		<tag k="natural" v="water" />
		<tag k="ssr:stedsnr" v="961082" />
	</node>
	<node id="-14272" lat="59.6743250002" lon="11.7271277839">
		<tag k="name" v="Engemåsakoia" />
		<tag k="place" v="isolated_dwelling" />
		<tag k="ssr:stedsnr" v="961076" />
	</node>
	<node id="-14271" lat="59.6508916641" lon="11.7563416594">
		<tag k="name" v="Prekestolmyra" />
		<tag k="natural" v="wetland" />
		<tag k="ssr:stedsnr" v="961072" />
	</node>
	<node id="-14270" lat="59.6660416647" lon="11.7673555627">
		<tag k="name" v="Seterhallene" />
		<tag k="natural" v="slope" />
		<tag k="place" v="locality" />
		<tag k="ssr:stedsnr" v="961068" />
	</node>
	<node id="-14269" lat="59.6832555533" lon="11.84303333">
		<tag k="name" v="Askedalen" />
		<tag k="natural" v="valley" />
		<tag k="place" v="locality" />
		<tag k="ssr:stedsnr" v="961029" />
	</node>
	<node id="-14268" lat="59.682900002" lon="11.8374944369">
		<tag k="name" v="Kuholmen" />
		<tag k="place" v="islet" />
		<tag k="ssr:stedsnr" v="961028" />
	</node>
	<node id="-14267" lat="59.690283336" lon="11.8092194438">
		<tag k="name" v="Persholmen" />
		<tag k="place" v="islet" />
		<tag k="ssr:stedsnr" v="961019" />
	</node>
	<node id="-14266" lat="59.6983194463" lon="11.8035999927">
		<tag k="name" v="Vepsebolodden" />
		<tag k="natural" v="cape" />
		<tag k="ssr:stedsnr" v="961018" />
	</node>
	<node id="-14265" lat="59.7276999967" lon="11.793891671">
		<tag k="name" v="Roskiftet" />
		<tag k="place" v="islet" />
		<tag k="ssr:stedsnr" v="961007" />
	</node>
	<node id="-14264" lat="59.7460555543" lon="11.8412138833">
		<tag k="name" v="Ufredstjenn" />
		<tag k="natural" v="water" />
		<tag k="ssr:stedsnr" v="961001" />
	</node>
	<node id="-14263" lat="59.7614500025" lon="11.8852138967">
		<tag k="name" v="Storrmyrdalen" />
		<tag k="natural" v="valley" />
		<tag k="place" v="locality" />
		<tag k="ssr:stedsnr" v="960166" />
	</node>
	<node id="-14262" lat="59.7660444459" lon="11.8665138935">
		<tag k="name" v="Hvilarberget" />
		<tag k="place" v="locality" />
		<tag k="ssr:stedsnr" v="960156" />
	</node>
	<node id="-14261" lat="59.6435527747" lon="11.786836112">
		<tag k="alt_name" v="Romungs røys" />
		<tag k="historic" v="boundary_stone" />
		<tag k="man_made" v="cairn" />
		<tag k="name" v="Rømungsrøysa" />
		<tag k="old_name" v="Romungs Røset" />
		<tag k="place" v="locality" />
		<tag k="ssr:stedsnr" v="959485" />
	</node>
	<node id="-14260" lat="59.6409027783" lon="11.7723638881">
		<tag k="historic" v="boundary_stone" />
		<tag k="loc_name" v="Dyvelrøysa" />
		<tag k="man_made" v="cairn" />
		<tag k="name" v="Dyvlene røys" />
		<tag k="old_name" v="Gaase Røset;Dyflings Røset;Dyvlinge Rös" />
		<tag k="place" v="locality" />
		<tag k="ssr:stedsnr" v="959481" />
	</node>
	<node id="-14259" lat="59.6478777779" lon="11.8495138883">
		<tag k="alt_name" v="Vestre Grindfoss røys" />
		<tag k="historic" v="boundary_stone" />
		<tag k="man_made" v="cairn" />
		<tag k="name" v="Vestre Grindfossrøysa" />
		<tag k="old_name" v="Vestre Grindefors Røset;V. Grindefors Røs" />
		<tag k="place" v="locality" />
		<tag k="ssr:stedsnr" v="959479" />
	</node>
	<node id="-14258" lat="59.7335280496" lon="11.7797966057">
		<tag k="alt_name" v="Torkildsbråten;Bråten;Tørnbybråten" />
		<tag k="name" v="Torkelsbråten" />
		<tag k="old_name" v="Torkelsbraaten eller Tørnbybraaten;Braaten;Torkelsbraaten eller Tørnbybraaten" />
		<tag k="place" v="farm" />
		<tag k="ssr:stedsnr" v="950626" />
	</node>
	<node id="-14257" lat="59.7518284029" lon="11.7848551998">
		<tag k="fixme" v="multiple name tags, choose one and add the other to alt_name" />
		<tag k="name" v="Orremåsåtjenn;Trangkleivtjenn" />
		<tag k="natural" v="water" />
		<tag k="ssr:stedsnr" v="915522" />
	</node>
	<node id="-14256" lat="59.7595999957" lon="11.7698944486">
		<tag k="name" v="Tjuvvannet" />
		<tag k="natural" v="water" />
		<tag k="ssr:stedsnr" v="915385" />
	</node>
	<node id="-14255" lat="59.7598111083" lon="11.8207611081">
		<tag k="alt_name" v="Trandem nordre" />
		<tag k="name" v="Nord-Trandum" />
		<tag k="place" v="farm" />
		<tag k="ssr:stedsnr" v="915378" />
	</node>
	<node id="-14254" lat="59.7541750044" lon="11.7970416613">
		<tag k="name" v="Trantedalen" />
		<tag k="natural" v="valley" />
		<tag k="place" v="locality" />
		<tag k="ssr:stedsnr" v="915367" />
	</node>
	<node id="-14253" lat="59.7522194424" lon="11.7551472271">
		<tag k="name" v="Eikelitjenna" />
		<tag k="natural" v="water" />
		<tag k="ssr:stedsnr" v="915362" />
	</node>
	<node id="-14252" lat="59.7516611075" lon="11.9008583364">
		<tag k="name" v="Karistua" />
		<tag k="place" v="isolated_dwelling" />
		<tag k="ssr:stedsnr" v="915210" />
	</node>
	<node id="-14251" lat="59.7443249983" lon="11.7226861158">
		<tag k="alt_name" v="Store Unyttutjenn" />
		<tag k="name" v="Unyttigtjennet" />
		<tag k="natural" v="water" />
		<tag k="ssr:stedsnr" v="914701" />
	</node>
	<node id="-14250" lat="59.7178777763" lon="11.7136500078">
		<tag k="alt_name" v="Kumosen" />
		<tag k="name" v="Kumåsan" />
		<tag k="natural" v="wetland" />
		<tag k="ssr:stedsnr" v="914664" />
	</node>
	<node id="-14249" lat="59.7319166693" lon="11.8180888833">
		<tag k="alt_name" v="Kjørkerudtjenn" />
		<tag k="name" v="Kirkerudtjenn" />
		<tag k="natural" v="water" />
		<tag k="ssr:stedsnr" v="914660" />
	</node>
	<node id="-14248" lat="59.7283805596" lon="11.7857250078">
		<tag k="name" v="Odden" />
		<tag k="place" v="isolated_dwelling" />
		<tag k="ssr:stedsnr" v="914649" />
	</node>
	<node id="-14247" lat="59.727461109" lon="11.6995694357">
		<tag k="name" v="Vortungen" />
		<tag k="natural" v="water" />
		<tag k="ssr:stedsnr" v="914645" />
		<tag k="water" v="lake" />
	</node>
	<node id="-14246" lat="59.7440888897" lon="11.8893055567">
		<tag k="alt_name" v="Øvre Slatjennet" />
		<tag k="name" v="Øvre Slatjenn" />
		<tag k="natural" v="water" />
		<tag k="ssr:stedsnr" v="914432" />
	</node>
	<node id="-14245" lat="59.7233083347" lon="11.8517888979">
		<tag k="name" v="Sandvika" />
		<tag k="place" v="farm" />
		<tag k="ssr:stedsnr" v="914422" />
	</node>
	<node id="-14244" lat="59.6812611095" lon="11.8252888976">
		<tag k="alt_name" v="Vemøya" />
		<tag k="name" v="Vemmeøya" />
		<tag k="place" v="islet" />
		<tag k="ssr:stedsnr" v="914350" />
	</node>
	<node id="-14243" lat="59.6852249958" lon="11.7770361023">
		<tag k="alt_name" v="Blaremyra" />
		<tag k="name" v="Blaramyr" />
		<tag k="natural" v="wetland" />
		<tag k="ssr:stedsnr" v="914346" />
	</node>
	<node id="-14242" lat="59.6812527744" lon="11.6799500007">
		<tag k="name" v="Svarttjenn" />
		<tag k="natural" v="water" />
		<tag k="ssr:stedsnr" v="914342" />
	</node>
	<node id="-14241" lat="59.6454638907" lon="11.730180559">
		<tag k="alt_name" v="Langvasshøgd" />
		<tag k="fixme" v="consider natural=peak for the most distinct mountains in the district" />
		<tag k="name" v="Langvasshøgda" />
		<tag k="natural" v="hill" />
		<tag k="place" v="locality" />
		<tag k="ssr:stedsnr" v="914314" />
	</node>
	<node id="-14240" lat="59.6758111126" lon="11.7138888933">
		<tag k="alt_name" v="Engemosen" />
		<tag k="name" v="Engemåsan" />
		<tag k="natural" v="wetland" />
		<tag k="ssr:stedsnr" v="914279" />
	</node>
	<node id="-14238" lat="59.7407611106" lon="11.8996638874">
		<tag k="name" v="Nedre Slatjennbekken" />
		<tag k="ssr:stedsnr" v="900809" />
		<tag k="waterway" v="stream" />
	</node>
	<node id="-14237" lat="59.7275583328" lon="11.9220805578">
		<tag k="name" v="Ertevassbekken" />
		<tag k="ssr:stedsnr" v="900806" />
		<tag k="waterway" v="stream" />
	</node>
	<node id="-14236" lat="59.7327361146" lon="11.9328722217">
		<tag k="name" v="Stommeseterdammen" />
		<tag k="ssr:stedsnr" v="900803" />
		<tag k="waterway" v="dam" />
	</node>
	<node id="-14235" lat="59.7199583292" lon="11.8012861062">
		<tag k="name" v="Haukenesvika" />
		<tag k="natural" v="bay" />
		<tag k="ssr:stedsnr" v="900797" />
	</node>
	<node id="-14234" lat="59.7020777746" lon="11.9373694399">
		<tag k="name" v="Tjærommen" />
		<tag k="place" v="locality" />
		<tag k="ssr:stedsnr" v="900793" />
	</node>
	<node id="-14233" lat="59.6959944476" lon="11.8744416679">
		<tag k="name" v="Nordre Kløvtjenn" />
		<tag k="natural" v="water" />
		<tag k="ssr:stedsnr" v="900790" />
	</node>
	<node id="-14232" lat="59.7471388885" lon="11.924911113">
		<tag k="name" v="Røvassdammen" />
		<tag k="ssr:stedsnr" v="900770" />
		<tag k="waterway" v="dam" />
	</node>
	<node id="-14231" lat="59.6891777762" lon="11.8091444363">
		<tag k="name" v="Vesle-Per" />
		<tag k="place" v="islet" />
		<tag k="ssr:stedsnr" v="900250" />
	</node>
	<node id="-14230" lat="59.6652694428" lon="11.7626749933">
		<tag k="name" v="Bunessetra" />
		<tag k="place" v="locality" />
		<tag k="ssr:stedsnr" v="900229" />
	</node>
	<node id="-14229" lat="59.6358805566" lon="11.7450861119">
		<tag k="fixme" v="consider natural=peak for the most distinct mountains in the district" />
		<tag k="name" v="Vestrekollen" />
		<tag k="natural" v="hill" />
		<tag k="place" v="locality" />
		<tag k="ssr:stedsnr" v="900225" />
	</node>
	<node id="-14228" lat="59.658774999" lon="11.8241277785">
		<tag k="name" v="Djupedalen" />
		<tag k="natural" v="valley" />
		<tag k="place" v="locality" />
		<tag k="ssr:stedsnr" v="900226" />
	</node>
	<node id="-14227" lat="59.655819447" lon="11.7756916645">
		<tag k="name" v="Tømmerholtmyra" />
		<tag k="natural" v="wetland" />
		<tag k="ssr:stedsnr" v="900220" />
	</node>
	<node id="-14226" lat="59.6515555547" lon="11.7941027854">
		<tag k="name" v="Brynildsbråtadråga" />
		<tag k="place" v="locality" />
		<tag k="ssr:stedsnr" v="900219" />
	</node>
	<node id="-14225" lat="59.7598472262" lon="11.9291416583">
		<tag k="name" v="Den brente holmen" />
		<tag k="place" v="islet" />
		<tag k="ssr:stedsnr" v="900194" />
	</node>
	<node id="-14224" lat="59.7202722189" lon="11.8858805555">
		<tag k="name" v="Dronninga" />
		<tag k="place" v="locality" />
		<tag k="ssr:stedsnr" v="900191" />
	</node>
	<node id="-14223" lat="59.6980722247" lon="11.939669451">
		<tag k="name" v="Nedstua" />
		<tag k="place" v="farm" />
		<tag k="ssr:stedsnr" v="900183" />
	</node>
	<node id="-14222" lat="59.7772888905" lon="11.917766662">
		<tag k="name" v="Kuholmen" />
		<tag k="place" v="islet" />
		<tag k="ssr:stedsnr" v="900180" />
	</node>
	<node id="-14221" lat="59.7012583337" lon="11.7071861052">
		<tag k="fixme" v="consider natural=peak for the most distinct mountains in the district" />
		<tag k="name" v="Stintehøgda" />
		<tag k="natural" v="hill" />
		<tag k="place" v="locality" />
		<tag k="ssr:stedsnr" v="900173" />
	</node>
	<node id="-14220" lat="59.7624277779" lon="11.7789805554">
		<tag k="name" v="Seterbrenna" />
		<tag k="place" v="locality" />
		<tag k="ssr:stedsnr" v="900169" />
	</node>
	<node id="-14219" lat="59.752902782" lon="11.7812166731">
		<tag k="fixme" v="consider natural=peak for the most distinct mountains in the district" />
		<tag k="name" v="Orremåsåhøgda" />
		<tag k="natural" v="hill" />
		<tag k="place" v="locality" />
		<tag k="ssr:stedsnr" v="900166" />
	</node>
	<node id="-14218" lat="59.7356527744" lon="11.8260916676">
		<tag k="name" v="Korpeberga" />
		<tag k="place" v="locality" />
		<tag k="ssr:stedsnr" v="900152" />
	</node>
	<node id="-14217" lat="59.772066669" lon="11.8332694447">
		<tag k="name" v="Stormyra" />
		<tag k="natural" v="wetland" />
		<tag k="ssr:stedsnr" v="900141" />
	</node>
	<node id="-14216" lat="59.6536083347" lon="11.8601416679">
		<tag k="name" v="Husa" />
		<tag k="place" v="farm" />
		<tag k="ssr:stedsnr" v="900139" />
	</node>
	<node id="-14215" lat="59.7002333296" lon="11.6774500036">
		<tag k="name" v="Tvillingtjenn" />
		<tag k="natural" v="water" />
		<tag k="ssr:stedsnr" v="900136" />
	</node>
	<node id="-14214" lat="59.6532916681" lon="11.7848194469">
		<tag k="name" v="Kuvtjenn" />
		<tag k="natural" v="water" />
		<tag k="ssr:stedsnr" v="900117" />
	</node>
	<node id="-14213" lat="59.651491668" lon="11.7708944406">
		<tag k="name" v="Trytjennbekken" />
		<tag k="ssr:stedsnr" v="900118" />
		<tag k="waterway" v="stream" />
	</node>
	<node id="-14212" lat="59.7130944483" lon="11.8000527826">
		<tag k="name" v="Krokvoll" />
		<tag k="place" v="farm" />
		<tag k="ssr:stedsnr" v="900108" />
	</node>
	<node id="-14211" lat="59.7458222266" lon="11.7410194373">
		<tag k="name" v="Steinbysetra" />
		<tag k="place" v="locality" />
		<tag k="ssr:stedsnr" v="900106" />
	</node>
	<node id="-14210" lat="59.7221472215" lon="11.7294388801">
		<tag k="name" v="Gråtarneset" />
		<tag k="natural" v="cape" />
		<tag k="ssr:stedsnr" v="900100" />
	</node>
	<node id="-14209" lat="59.6497305589" lon="11.7427388864">
		<tag k="name" v="Høydemyra" />
		<tag k="natural" v="wetland" />
		<tag k="ssr:stedsnr" v="900076" />
	</node>
	<node id="-14208" lat="59.6673361087" lon="11.7476416724">
		<tag k="name" v="Vålerdalen" />
		<tag k="natural" v="valley" />
		<tag k="place" v="locality" />
		<tag k="ssr:stedsnr" v="900075" />
	</node>
	<node id="-14207" lat="59.7731611103" lon="11.8586805616">
		<tag k="name" v="Stusstjenn" />
		<tag k="natural" v="water" />
		<tag k="ssr:stedsnr" v="900068" />
	</node>
	<node id="-14206" lat="59.7049166705" lon="11.8588305577">
		<tag k="name" v="Hemyrene" />
		<tag k="natural" v="wetland" />
		<tag k="ssr:stedsnr" v="900062" />
	</node>
	<node id="-14205" lat="59.7519055567" lon="11.8680805567">
		<tag k="name" v="Frøkentjenn" />
		<tag k="natural" v="water" />
		<tag k="ssr:stedsnr" v="900063" />
	</node>
	<node id="-14204" lat="59.7720888899" lon="11.9063194367">
		<tag k="name" v="Trandumsholmen" />
		<tag k="place" v="islet" />
		<tag k="ssr:stedsnr" v="900049" />
	</node>
	<node id="-14203" lat="59.694155556" lon="11.852063882">
		<tag k="name" v="Bikkjevelta" />
		<tag k="place" v="locality" />
		<tag k="ssr:stedsnr" v="900031" />
	</node>
	<node id="-14202" lat="59.6967472197" lon="11.7858000022">
		<tag k="name" v="Renneslora" />
		<tag k="place" v="locality" />
		<tag k="ssr:stedsnr" v="900030" />
	</node>
	<node id="-14201" lat="59.6968388861" lon="11.7832472252">
		<tag k="name" v="Damtjennbekken" />
		<tag k="ssr:stedsnr" v="900026" />
		<tag k="waterway" v="stream" />
	</node>
	<node id="-14200" lat="59.7068166627" lon="11.8279611128">
		<tag k="alt_name" v="Vesle-Tjuven" />
		<tag k="name" v="Vesletjuven" />
		<tag k="place" v="islet" />
		<tag k="ssr:stedsnr" v="900020" />
	</node>
	<node id="-14199" lat="59.7408666647" lon="11.7754277808">
		<tag k="name" v="Vesle Bjørndalen" />
		<tag k="natural" v="valley" />
		<tag k="place" v="locality" />
		<tag k="ssr:stedsnr" v="900007" />
	</node>
	<node id="-14198" lat="59.7358027756" lon="11.7761666668">
		<tag k="name" v="Kopperud mølle" />
		<tag k="place" v="locality" />
		<tag k="ssr:stedsnr" v="900006" />
	</node>
	<node id="-14197" lat="59.6932083333" lon="11.8892583376">
		<tag k="historic" v="boundary_stone" />
		<tag k="loc_name" v="Blekketjennsrøysa" />
		<tag k="man_made" v="cairn" />
		<tag k="name" v="Blekketjern røys" />
		<tag k="old_name" v="Blekerkiærns Røset" />
		<tag k="place" v="locality" />
		<tag k="ssr:stedsnr" v="899615" />
	</node>
	<node id="-14196" lat="59.6527416689" lon="11.8624444509">
		<tag k="alt_name" v="Mosehals" />
		<tag k="historic" v="boundary_stone" />
		<tag k="loc_name" v="Myrhalsrøysa" />
		<tag k="man_made" v="cairn" />
		<tag k="name" v="Mosehalsrøysa" />
		<tag k="old_name" v="Moosehals Røset;Mosehals Rös" />
		<tag k="place" v="locality" />
		<tag k="ssr:stedsnr" v="899611" />
	</node>
	<node id="-14195" lat="59.745711107" lon="11.8008249993">
		<tag k="name" v="Haga" />
		<tag k="place" v="farm" />
		<tag k="ssr:stedsnr" v="854661" />
	</node>
	<node id="-14194" lat="59.7441166702" lon="11.9271500026">
		<tag k="fixme" v="multiple name tags, choose one and add the other to alt_name" />
		<tag k="name" v="Røvassbekken;Øvre Langebekk" />
		<tag k="ssr:stedsnr" v="854426" />
		<tag k="waterway" v="stream" />
	</node>
	<node id="-14193" lat="59.7341361109" lon="11.8843361085">
		<tag k="alt_name" v="Høgabbortjennet" />
		<tag k="name" v="Høgabbortjenn" />
		<tag k="natural" v="water" />
		<tag k="ssr:stedsnr" v="854422" />
	</node>
	<node id="-14192" lat="59.7326805542" lon="11.8592416682">
		<tag k="name" v="Nordre Sandtjenn" />
		<tag k="natural" v="water" />
		<tag k="ssr:stedsnr" v="854420" />
	</node>
	<node id="-14191" lat="59.7161638928" lon="11.8921972219">
		<tag k="fixme" v="multiple name tags, choose one and add the other to alt_name" />
		<tag k="name" v="Småtjennmåsån;Gåsemåsan" />
		<tag k="natural" v="wetland" />
		<tag k="ssr:stedsnr" v="854405" />
	</node>
	<node id="-14190" lat="59.7187499992" lon="11.8458249954">
		<tag k="name" v="Sandvika" />
		<tag k="natural" v="bay" />
		<tag k="ssr:stedsnr" v="854403" />
	</node>
	<node id="-14189" lat="59.7149055553" lon="11.9249583395">
		<tag k="alt_name" v="Helletjennet" />
		<tag k="name" v="Helletjenn" />
		<tag k="natural" v="water" />
		<tag k="ssr:stedsnr" v="854395" />
	</node>
	<node id="-14188" lat="59.7617500032" lon="11.8409361163">
		<tag k="loc_name" v="Øremåsan" />
		<tag k="name" v="Øremosen" />
		<tag k="natural" v="wetland" />
		<tag k="ssr:stedsnr" v="854389" />
	</node>
	<node id="-14187" lat="59.7523712832" lon="11.7301995676">
		<tag k="name" v="Store Bjørtjenn" />
		<tag k="natural" v="water" />
		<tag k="ssr:stedsnr" v="854376" />
	</node>
	<node id="-14186" lat="59.7569083346" lon="11.7285000032">
		<tag k="name" v="Kutjenn" />
		<tag k="natural" v="water" />
		<tag k="ssr:stedsnr" v="854367" />
	</node>
	<node id="-14185" lat="59.6924277795" lon="11.8133249917">
		<tag k="name" v="Nordneset" />
		<tag k="natural" v="cape" />
		<tag k="ssr:stedsnr" v="854342" />
	</node>
	<node id="-14184" lat="59.6826750007" lon="11.8166666725">
		<tag k="name" v="Nes" />
		<tag k="place" v="farm" />
		<tag k="ssr:stedsnr" v="854323" />
	</node>
	<node id="-14183" lat="59.6845555537" lon="11.7319583353">
		<tag k="fixme" v="consider natural=peak for the most distinct mountains in the district" />
		<tag k="name" v="Slavasshøgda" />
		<tag k="natural" v="hill" />
		<tag k="place" v="locality" />
		<tag k="ssr:stedsnr" v="854318" />
	</node>
	<node id="-14182" lat="59.6712388868" lon="11.6810499969">
		<tag k="name" v="Store Bleiketjenn" />
		<tag k="natural" v="water" />
		<tag k="ssr:stedsnr" v="854240" />
	</node>
	<node id="-14181" lat="59.6505194469" lon="11.8494222199">
		<tag k="name" v="Bråten" />
		<tag k="place" v="isolated_dwelling" />
		<tag k="ssr:stedsnr" v="854043" />
	</node>
	<node id="-14180" lat="59.7085055575" lon="11.8027833347">
		<tag k="fixme" v="multiple name tags, choose one and add the other to alt_name" />
		<tag k="name" v="Sundsrud;Søgarden" />
		<tag k="place" v="farm" />
		<tag k="ssr:stedsnr" v="853345" />
	</node>
	<node id="-14179" lat="59.7120305561" lon="11.8010499997">
		<tag k="alt_name" v="Haugen" />
		<tag k="name" v="Sundsrudhaugen" />
		<tag k="place" v="farm" />
		<tag k="ssr:stedsnr" v="853338" />
	</node>
	<node id="-14178" lat="59.665624996" lon="11.7625583328">
		<tag k="name" v="Karsby" />
		<tag k="place" v="isolated_dwelling" />
		<tag k="ssr:stedsnr" v="853260" />
	</node>
	<node id="-14177" lat="59.6719722212" lon="11.7622138897">
		<tag k="alt_name" v="Karsbytjenn" />
		<tag k="name" v="Søndre Karsbytjenn" />
		<tag k="natural" v="water" />
		<tag k="ssr:stedsnr" v="853257" />
	</node>
	<node id="-14176" lat="59.669827776" lon="11.8409500046">
		<tag k="name" v="Sylta" />
		<tag k="natural" v="wetland" />
		<tag k="ssr:stedsnr" v="853252" />
	</node>
	<node id="-14175" lat="59.7451638868" lon="11.8116194432">
		<tag k="name" v="Kristensfoss" />
		<tag k="natural" v="waterfall" />
		<tag k="ssr:stedsnr" v="840824" />
	</node>
	<node id="-14174" lat="59.7201499983" lon="11.7300055473">
		<tag k="name" v="Torvesund" />
		<tag k="natural" v="strait" />
		<tag k="ssr:stedsnr" v="840810" />
	</node>
	<node id="-14173" lat="59.7307611131" lon="11.9150972195">
		<tag k="name" v="Ertevasslora" />
		<tag k="place" v="locality" />
		<tag k="ssr:stedsnr" v="840798" />
	</node>
	<node id="-14172" lat="59.7417750037" lon="11.7442833417">
		<tag k="name" v="Vortungsbekken" />
		<tag k="ssr:stedsnr" v="840786" />
		<tag k="waterway" v="stream" />
	</node>
	<node id="-14171" lat="59.7511666638" lon="11.8162555478">
		<tag k="name" v="Tukufossen" />
		<tag k="natural" v="waterfall" />
		<tag k="ssr:stedsnr" v="840777" />
	</node>
	<node id="-14170" lat="59.7834194439" lon="11.8613583276">
		<tag k="name" v="Fyrtynnvika" />
		<tag k="natural" v="bay" />
		<tag k="ssr:stedsnr" v="840767" />
	</node>
	<node id="-14169" lat="59.6820222242" lon="11.7607305551">
		<tag k="name" v="Kulpesetra" />
		<tag k="place" v="locality" />
		<tag k="ssr:stedsnr" v="840230" />
	</node>
	<node id="-14168" lat="59.6361666622" lon="11.7284305626">
		<tag k="name" v="Seljehølmåsan" />
		<tag k="natural" v="wetland" />
		<tag k="ssr:stedsnr" v="840212" />
	</node>
	<node id="-14167" lat="59.650008329" lon="11.7899972251">
		<tag k="name" v="Rømungbråtan" />
		<tag k="place" v="locality" />
		<tag k="ssr:stedsnr" v="840197" />
	</node>
	<node id="-14166" lat="59.6536888887" lon="11.7655722176">
		<tag k="highway" v="path" />
		<tag k="name" v="Sundsrudveien" />
		<tag k="ssr:stedsnr" v="840193" />
	</node>
	<node id="-14165" lat="59.6338055533" lon="11.7438166728">
		<tag k="name" v="Seljebekken" />
		<tag k="ssr:stedsnr" v="840187" />
		<tag k="waterway" v="stream" />
	</node>
	<node id="-14164" lat="59.7476305532" lon="11.8264805515">
		<tag k="name" v="Nordre Myrvoll" />
		<tag k="place" v="farm" />
		<tag k="ssr:stedsnr" v="840161" />
	</node>
	<node id="-14163" lat="59.7496416654" lon="11.8249416721">
		<tag k="name" v="Myrvollbråten" />
		<tag k="place" v="farm" />
		<tag k="ssr:stedsnr" v="840159" />
	</node>
	<node id="-14162" lat="59.7800388916" lon="11.7882694508">
		<tag k="name" v="Ned-Gropa" />
		<tag k="place" v="locality" />
		<tag k="ssr:stedsnr" v="840143" />
	</node>
	<node id="-14161" lat="59.7384638931" lon="11.8527777847">
		<tag k="name" v="Sandtjennliene" />
		<tag k="place" v="locality" />
		<tag k="ssr:stedsnr" v="840141" />
	</node>
	<node id="-14160" lat="59.6811722196" lon="11.6971055562">
		<tag k="name" v="Nordre Fallstjenn" />
		<tag k="natural" v="water" />
		<tag k="ssr:stedsnr" v="840125" />
	</node>
	<node id="-14159" lat="59.6419972267" lon="11.7686583253">
		<tag k="name" v="Andreassetra" />
		<tag k="place" v="locality" />
		<tag k="ssr:stedsnr" v="840121" />
	</node>
	<node id="-14158" lat="59.648666667" lon="11.7672361099">
		<tag k="name" v="Ferjene" />
		<tag k="natural" v="wetland" />
		<tag k="ssr:stedsnr" v="840120" />
	</node>
	<node id="-14157" lat="59.7152833329" lon="11.8144305634">
		<tag k="name" v="Bjørkholmen" />
		<tag k="place" v="island" />
		<tag k="ssr:stedsnr" v="840109" />
	</node>
	<node id="-14156" lat="59.7161166669" lon="11.75610555">
		<tag k="building" v="civic" />
		<tag k="name" v="Branntårnet" />
		<tag k="ssr:stedsnr" v="840105" />
	</node>
	<node id="-14155" lat="59.703900003" lon="11.7443972169">
		<tag k="loc_name" v="Tjennet uten navn" />
		<tag k="name" v="Det utgravde tjennet" />
		<tag k="natural" v="water" />
		<tag k="ssr:stedsnr" v="840103" />
	</node>
	<node id="-14154" lat="59.6752499978" lon="11.7382527694">
		<tag k="name" v="Djuptjenn" />
		<tag k="natural" v="water" />
		<tag k="ssr:stedsnr" v="840097" />
	</node>
	<node id="-14153" lat="59.7732694462" lon="11.7884361024">
		<tag k="name" v="Gravermoen" />
		<tag k="place" v="locality" />
		<tag k="ssr:stedsnr" v="840095" />
	</node>
	<node id="-14152" lat="59.6636500033" lon="11.8476055484">
		<tag k="name" v="Kalvebrumosan" />
		<tag k="natural" v="wetland" />
		<tag k="ssr:stedsnr" v="840083" />
	</node>
	<node id="-14151" lat="59.6488138896" lon="11.7487361106">
		<tag k="name" v="Spettfurumyra" />
		<tag k="natural" v="wetland" />
		<tag k="ssr:stedsnr" v="840077" />
	</node>
	<node id="-14150" lat="59.7488861124" lon="11.870580552">
		<tag k="name" v="Abborviktjenn" />
		<tag k="natural" v="water" />
		<tag k="ssr:stedsnr" v="840060" />
	</node>
	<node id="-14149" lat="59.7505805546" lon="11.8964916653">
		<tag k="name" v="Sønningholmen" />
		<tag k="place" v="islet" />
		<tag k="ssr:stedsnr" v="840057" />
	</node>
	<node id="-14148" lat="59.7174916695" lon="11.8860861047">
		<tag k="name" v="Gåsemåsån" />
		<tag k="natural" v="wetland" />
		<tag k="ssr:stedsnr" v="840053" />
	</node>
	<node id="-14147" lat="59.7055805577" lon="11.8675277846">
		<tag k="fixme" v="consider natural=peak for the most distinct mountains in the district" />
		<tag k="name" v="Gjeddetjennåsene" />
		<tag k="natural" v="hill" />
		<tag k="place" v="locality" />
		<tag k="ssr:stedsnr" v="840048" />
	</node>
	<node id="-14146" lat="59.7021333352" lon="11.8943472287">
		<tag k="name" v="Gåsehølet" />
		<tag k="natural" v="water" />
		<tag k="ssr:stedsnr" v="840047" />
	</node>
	<node id="-14145" lat="59.7698666668" lon="11.9020472163">
		<tag k="name" v="Kørresetra" />
		<tag k="place" v="locality" />
		<tag k="ssr:stedsnr" v="840030" />
	</node>
	<node id="-14144" lat="59.682824996" lon="11.8100166708">
		<tag k="name" v="Bjørkøya" />
		<tag k="place" v="island" />
		<tag k="ssr:stedsnr" v="840015" />
	</node>
	<node id="-14143" lat="59.7717027764" lon="11.8406138945">
		<tag k="name" v="Erttjennmåsån" />
		<tag k="natural" v="wetland" />
		<tag k="ssr:stedsnr" v="840011" />
	</node>
	<node id="-14142" lat="59.7714916645" lon="11.8536388864">
		<tag k="name" v="Grastjenn" />
		<tag k="natural" v="water" />
		<tag k="ssr:stedsnr" v="840010" />
	</node>
	<node id="-14141" lat="59.7340638893" lon="11.7878027704">
		<tag k="name" v="Fantekulen" />
		<tag k="natural" v="cape" />
		<tag k="ssr:stedsnr" v="840005" />
	</node>
	<node id="-14140" lat="59.7664944434" lon="11.7864083278">
		<tag k="fixme" v="consider natural=peak for the most distinct mountains in the district" />
		<tag k="name" v="Lysheia" />
		<tag k="natural" v="hill" />
		<tag k="place" v="locality" />
		<tag k="ssr:stedsnr" v="794408" />
	</node>
	<node id="-14139" lat="59.7440583334" lon="11.8058305593">
		<tag k="fixme" v="consider place=suburb, village or hamlet" />
		<tag k="name" v="Tørnby" />
		<tag k="place" v="quarter" />
		<tag k="ssr:stedsnr" v="793706" />
	</node>
	<node id="-14138" lat="59.7557777805" lon="11.77515278">
		<tag k="name" v="Bjørndalshøgda" />
		<tag k="natural" v="hill" />
		<tag k="place" v="locality" />
		<tag k="ssr:stedsnr" v="793399" />
	</node>
	<node id="-14137" lat="59.6924055536" lon="11.7812083248">
		<tag k="alt_name" v="Fuglemoshøgda" />
		<tag k="fixme" v="consider natural=peak for the most distinct mountains in the district" />
		<tag k="name" v="Fuglemåsahøgda" />
		<tag k="natural" v="hill" />
		<tag k="place" v="locality" />
		<tag k="ssr:stedsnr" v="793379" />
	</node>
	<node id="-14136" lat="59.6852715157" lon="11.7501991238">
		<tag k="alt_name" v="Slavannet" />
		<tag k="name" v="Slavann" />
		<tag k="natural" v="water" />
		<tag k="ssr:stedsnr" v="793365" />
		<tag k="water" v="lake" />
	</node>
	<node id="-14135" lat="59.6967972246" lon="11.7995805608">
		<tag k="name" v="Strand" />
		<tag k="place" v="farm" />
		<tag k="ssr:stedsnr" v="793335" />
	</node>
	<node id="-14134" lat="59.6993941982" lon="11.6986934286">
		<tag k="fixme" v="multiple name tags, choose one and add the other to alt_name" />
		<tag k="name" v="Kallemåsåtjenn;Sætertjenn" />
		<tag k="natural" v="water" />
		<tag k="ssr:stedsnr" v="793332" />
	</node>
	<node id="-14133" lat="59.7353777788" lon="11.8133611031">
		<tag k="alt_name" v="Bøen" />
		<tag k="name" v="Søndre Bøen" />
		<tag k="place" v="farm" />
		<tag k="ssr:stedsnr" v="792613" />
	</node>
	<node id="-14132" lat="59.7291000043" lon="11.7268027695">
		<tag k="name" v="Tørnbytjenn" />
		<tag k="natural" v="water" />
		<tag k="ssr:stedsnr" v="792611" />
	</node>
	<node id="-14131" lat="59.7067333288" lon="11.7438833403">
		<tag k="name" v="Hornfisktjenn" />
		<tag k="natural" v="water" />
		<tag k="old_name" v="Hornfisktjernet;Hornfisktjennet" />
		<tag k="ssr:stedsnr" v="792329" />
	</node>
	<node id="-14130" lat="59.7110388873" lon="11.7598999919">
		<tag k="name" v="Smørmosen" />
		<tag k="natural" v="wetland" />
		<tag k="ssr:stedsnr" v="792327" />
	</node>
	<node id="-14129" lat="59.6734416663" lon="11.7743777792">
		<tag k="fixme" v="consider natural=peak for the most distinct mountains in the district" />
		<tag k="name" v="Gørrtjennåsen" />
		<tag k="natural" v="hill" />
		<tag k="place" v="locality" />
		<tag k="ssr:stedsnr" v="792262" />
	</node>
	<node id="-14128" lat="59.7688095154" lon="11.8888710233">
		<tag k="name" v="Kuletjenna" />
		<tag k="natural" v="water" />
		<tag k="ssr:stedsnr" v="788957" />
		<tag k="water" v="lake" />
	</node>
	<node id="-14127" lat="59.7315388849" lon="11.9236527764">
		<tag k="alt_name" v="Slatjernet" />
		<tag k="name" v="Slatjenn" />
		<tag k="natural" v="water" />
		<tag k="ssr:stedsnr" v="793451" />
	</node>
	<node id="-14126" lat="59.6991000004" lon="11.9152583282">
		<tag k="name" v="Gravlidalen" />
		<tag k="place" v="isolated_dwelling" />
		<tag k="ssr:stedsnr" v="793433" />
	</node>
	<node id="-14125" lat="59.6966638861" lon="11.8942305489">
		<tag k="fixme" v="consider natural=peak for the most distinct mountains in the district" />
		<tag k="name" v="Furukollhøgda" />
		<tag k="natural" v="hill" />
		<tag k="place" v="locality" />
		<tag k="ssr:stedsnr" v="793429" />
	</node>
	<node id="-14124" lat="59.7702611135" lon="11.9183111159">
		<tag k="name" v="Abborvika" />
		<tag k="natural" v="bay" />
		<tag k="ssr:stedsnr" v="779813" />
	</node>
	<node id="-14123" lat="59.700177776" lon="11.8303527736">
		<tag k="name" v="Ringsbyfjorden" />
		<tag k="natural" v="water" />
		<tag k="ssr:stedsnr" v="779805" />
	</node>
	<node id="-14122" lat="59.7616222205" lon="11.8764666719">
		<tag k="name" v="Hundejegertjenn" />
		<tag k="natural" v="water" />
		<tag k="ssr:stedsnr" v="779799" />
	</node>
	<node id="-14121" lat="59.7249666679" lon="11.8922277691">
		<tag k="name" v="Styggetjenn" />
		<tag k="natural" v="water" />
		<tag k="ssr:stedsnr" v="779784" />
	</node>
	<node id="-14120" lat="59.6596222204" lon="11.7246888909">
		<tag k="name" v="Sylmyra" />
		<tag k="natural" v="wetland" />
		<tag k="ssr:stedsnr" v="779781" />
	</node>
	<node id="-14119" lat="59.6717833349" lon="11.6526027788">
		<tag k="name" v="Klinkhammeren" />
		<tag k="place" v="islet" />
		<tag k="ssr:stedsnr" v="779779" />
	</node>
	<node id="-14118" lat="59.7750416707" lon="11.8701194506">
		<tag k="name" v="Sundvasstjenn" />
		<tag k="natural" v="water" />
		<tag k="ssr:stedsnr" v="779760" />
		<tag k="water" v="lake" />
	</node>
	<node id="-14117" lat="59.6782222251" lon="11.8297972167">
		<tag k="name" v="Måka" />
		<tag k="place" v="islet" />
		<tag k="ssr:stedsnr" v="779755" />
	</node>
	<node id="-14116" lat="59.6804805576" lon="11.7213388856">
		<tag k="name" v="Tollefsetra" />
		<tag k="place" v="locality" />
		<tag k="ssr:stedsnr" v="779250" />
	</node>
	<node id="-14115" lat="59.6902972232" lon="11.8497277854">
		<tag k="name" v="Tverrdalen" />
		<tag k="natural" v="valley" />
		<tag k="place" v="locality" />
		<tag k="ssr:stedsnr" v="779222" />
	</node>
	<node id="-14114" lat="59.6627555574" lon="11.7312472212">
		<tag k="name" v="Helleren" />
		<tag k="place" v="locality" />
		<tag k="ssr:stedsnr" v="779209" />
	</node>
	<node id="-14113" lat="59.6648666629" lon="11.7570111026">
		<tag k="name" v="Strandsetra" />
		<tag k="place" v="locality" />
		<tag k="ssr:stedsnr" v="779208" />
	</node>
	<node id="-14112" lat="59.6584888872" lon="11.8031666656">
		<tag k="name" v="Bergtrangdalen" />
		<tag k="natural" v="valley" />
		<tag k="place" v="locality" />
		<tag k="ssr:stedsnr" v="779200" />
	</node>
	<node id="-14111" lat="59.7428805528" lon="11.8356027753">
		<tag k="name" v="Grytebekksaga" />
		<tag k="place" v="locality" />
		<tag k="ssr:stedsnr" v="779150" />
	</node>
	<node id="-14110" lat="59.7301999962" lon="11.8105583329">
		<tag k="name" v="Bøsanden" />
		<tag k="place" v="locality" />
		<tag k="ssr:stedsnr" v="779138" />
	</node>
	<node id="-14109" lat="59.6798027814" lon="11.6954500027">
		<tag k="name" v="Fallsmåsan" />
		<tag k="natural" v="wetland" />
		<tag k="ssr:stedsnr" v="779106" />
	</node>
	<node id="-14108" lat="59.6446194469" lon="11.74819723">
		<tag k="name" v="Fallsmyra" />
		<tag k="natural" v="wetland" />
		<tag k="ssr:stedsnr" v="779102" />
	</node>
	<node id="-14107" lat="59.6718638876" lon="11.6905333408">
		<tag k="name" v="Vestre Fallstjenna" />
		<tag k="natural" v="water" />
		<tag k="ssr:stedsnr" v="779070" />
	</node>
	<node id="-14106" lat="59.6425784009" lon="11.7300642936">
		<tag k="name" v="Storemåsan" />
		<tag k="natural" v="wetland" />
		<tag k="ssr:stedsnr" v="779057" />
	</node>
	<node id="-14105" lat="59.678883336" lon="11.8436583415">
		<tag k="name" v="Djupedalen" />
		<tag k="natural" v="valley" />
		<tag k="place" v="locality" />
		<tag k="ssr:stedsnr" v="779028" />
	</node>
	<node id="-14104" lat="59.6981805598" lon="11.788958329">
		<tag k="name" v="Stinta" />
		<tag k="place" v="locality" />
		<tag k="ssr:stedsnr" v="779024" />
	</node>
	<node id="-14103" lat="59.6945583351" lon="11.7704027781">
		<tag k="name" v="Ertevassbekken" />
		<tag k="ssr:stedsnr" v="779021" />
		<tag k="waterway" v="stream" />
	</node>
	<node id="-14102" lat="59.7303944433" lon="11.7713916608">
		<tag k="name" v="Kopperud" />
		<tag k="place" v="farm" />
		<tag k="ssr:stedsnr" v="779004" />
	</node>
	<node id="-14101" lat="59.7553916634" lon="11.8186611167">
		<tag k="alt_name" v="Trandem vestre" />
		<tag k="name" v="Vest-Trandum" />
		<tag k="place" v="farm" />
		<tag k="ssr:stedsnr" v="778197" />
	</node>
	<node id="-14100" lat="59.7505111089" lon="11.8869777746">
		<tag k="name" v="Brenna" />
		<tag k="place" v="locality" />
		<tag k="ssr:stedsnr" v="778185" />
	</node>
	<node id="-14099" lat="59.77980556" lon="11.8958527799">
		<tag k="name" v="Hølvassetra" />
		<tag k="place" v="locality" />
		<tag k="ssr:stedsnr" v="778173" />
	</node>
	<node id="-14098" lat="59.7639583321" lon="11.8323138936">
		<tag k="fixme" v="consider natural=peak for the most distinct mountains in the district" />
		<tag k="name" v="Igletjennåsen" />
		<tag k="natural" v="hill" />
		<tag k="place" v="locality" />
		<tag k="ssr:stedsnr" v="778119" />
	</node>
	<node id="-14097" lat="59.672486115" lon="11.8752555501">
		<tag k="alt_name" v="Porstjernrøysa" />
		<tag k="historic" v="boundary_stone" />
		<tag k="loc_name" v="Porstjennsrøysa" />
		<tag k="man_made" v="cairn" />
		<tag k="name" v="Porstjenn røys" />
		<tag k="old_name" v="Porskiærns Røset;Porstjern Rös" />
		<tag k="place" v="locality" />
		<tag k="ssr:stedsnr" v="777604" />
	</node>
	<node id="-14096" lat="59.6430277748" lon="11.7789833342">
		<tag k="historic" v="boundary_stone" />
		<tag k="man_made" v="cairn" />
		<tag k="name" v="Rømungsøyet" />
		<tag k="old_name" v="Romungs Øyet" />
		<tag k="place" v="locality" />
		<tag k="ssr:stedsnr" v="777521" />
	</node>
	<node id="-14095" lat="59.7662249956" lon="11.8574638886">
		<tag k="name" v="Gørrtjenn" />
		<tag k="natural" v="water" />
		<tag k="old_name" v="Gorrtjern;Gorrtjenn" />
		<tag k="ssr:stedsnr" v="734250" />
	</node>
	<node id="-14094" lat="59.7168027765" lon="11.7756388916">
		<tag k="alt_name" v="Gjerpedalen" />
		<tag k="name" v="Jerpedalen" />
		<tag k="natural" v="valley" />
		<tag k="place" v="locality" />
		<tag k="ssr:stedsnr" v="732678" />
	</node>
	<node id="-14093" lat="59.7154277773" lon="11.7997138807">
		<tag k="alt_name" v="Sandum" />
		<tag k="name" v="Sør-Sandum" />
		<tag k="place" v="farm" />
		<tag k="ssr:stedsnr" v="732677" />
	</node>
	<node id="-14092" lat="59.7275222221" lon="11.7482194404">
		<tag k="alt_name" v="Eikestaden" />
		<tag k="name" v="Eikestad" />
		<tag k="place" v="isolated_dwelling" />
		<tag k="ssr:stedsnr" v="732658" />
	</node>
	<node id="-14091" lat="59.731841665" lon="11.7057583369">
		<tag k="name" v="Hakabrueidet" />
		<tag k="natural" v="strait" />
		<tag k="ssr:stedsnr" v="732654" />
	</node>
	<node id="-14090" lat="59.7212888931" lon="11.8637666599">
		<tag k="name" v="Gørrtjenn" />
		<tag k="natural" v="water" />
		<tag k="old_name" v="Gørrtjernet;Gørrtjennet" />
		<tag k="ssr:stedsnr" v="732440" />
	</node>
	<node id="-14089" lat="59.7075305533" lon="11.8834694402">
		<tag k="alt_name" v="Gåsa, vesle" />
		<tag k="name" v="Vesle Gåsa" />
		<tag k="natural" v="water" />
		<tag k="ssr:stedsnr" v="732431" />
	</node>
	<node id="-14088" lat="59.7521055282" lon="11.8157187418">
		<tag k="fixme" v="consider place=hamlet" />
		<tag k="name" v="Tukun" />
		<tag k="place" v="farm" />
		<tag k="ssr:stedsnr" v="732399" />
	</node>
	<node id="-14087" lat="59.7503444455" lon="11.8361277756">
		<tag k="name" v="Tretjenna" />
		<tag k="natural" v="water" />
		<tag k="ssr:stedsnr" v="732394" />
	</node>
	<node id="-14086" lat="59.6849583368" lon="11.7121055588">
		<tag k="fixme" v="consider natural=peak for the most distinct mountains in the district" />
		<tag k="name" v="Kuåsen" />
		<tag k="natural" v="hill" />
		<tag k="place" v="locality" />
		<tag k="ssr:stedsnr" v="732347" />
	</node>
	<node id="-14085" lat="59.6334083295" lon="11.7270527723">
		<tag k="alt_name" v="Slafallet" />
		<tag k="name" v="Slafalla" />
		<tag k="natural" v="slope" />
		<tag k="place" v="locality" />
		<tag k="ssr:stedsnr" v="732313" />
	</node>
	<node id="-14084" lat="59.6450861111" lon="11.7683611057">
		<tag k="name" v="Vestre Rømungen" />
		<tag k="natural" v="water" />
		<tag k="ssr:stedsnr" v="732307" />
		<tag k="water" v="lake" />
	</node>
	<node id="-14083" lat="59.64691667" lon="11.7620861123">
		<tag k="fixme" v="multiple name tags, choose one and add the other to alt_name" />
		<tag k="historic" v="shieling" />
		<tag k="loc_name" v="Flatasetra" />
		<tag k="name" v="Flatasætra;Nordstusetra" />
		<tag k="place" v="locality" />
		<tag k="ssr:stedsnr" v="732275" />
	</node>
	<node id="-14082" lat="59.6630944481" lon="11.8359277847">
		<tag k="name" v="Os" />
		<tag k="place" v="farm" />
		<tag k="ssr:stedsnr" v="732271" />
	</node>
	<node id="-14081" lat="59.6534999983" lon="11.7984499983">
		<tag k="name" v="Bergtrangdalen" />
		<tag k="natural" v="valley" />
		<tag k="place" v="locality" />
		<tag k="ssr:stedsnr" v="732265" />
	</node>
	<node id="-14080" lat="59.6772310004" lon="11.8617183072">
		<tag k="alt_name" v="Svarttjennet" />
		<tag k="name" v="Svarttjenn" />
		<tag k="natural" v="water" />
		<tag k="ssr:stedsnr" v="732075" />
	</node>
	<node id="-14079" lat="59.6843805577" lon="11.7986861158">
		<tag k="name" v="Bunesvika" />
		<tag k="natural" v="bay" />
		<tag k="ssr:stedsnr" v="718796" />
	</node>
	<node id="-14078" lat="59.7323388906" lon="11.7365500077">
		<tag k="name" v="Bottfjorden" />
		<tag k="natural" v="water" />
		<tag k="ssr:stedsnr" v="718785" />
	</node>
	<node id="-14077" lat="59.7255333306" lon="11.936350001">
		<tag k="name" v="Fjørbekktjenndammen" />
		<tag k="ssr:stedsnr" v="718762" />
		<tag k="waterway" v="dam" />
	</node>
	<node id="-14076" lat="59.7349666645" lon="11.6985388817">
		<tag k="name" v="Steinsfjorden" />
		<tag k="natural" v="bay" />
		<tag k="ssr:stedsnr" v="718758" />
	</node>
	<node id="-14075" lat="59.7470972224" lon="11.8137055627">
		<tag k="name" v="Steinbyfossen" />
		<tag k="natural" v="waterfall" />
		<tag k="ssr:stedsnr" v="718753" />
	</node>
	<node id="-14074" lat="59.6424083316" lon="11.7185916698">
		<tag k="name" v="Nordre Torvehaugsund" />
		<tag k="natural" v="strait" />
		<tag k="ssr:stedsnr" v="718742" />
	</node>
	<node id="-14073" lat="59.6450277795" lon="11.804919452">
		<tag k="name" v="Bjørketjenn" />
		<tag k="natural" v="water" />
		<tag k="ssr:stedsnr" v="718740" />
	</node>
	<node id="-14072" lat="59.7536833373" lon="11.768924997">
		<tag k="name" v="Bjørndalstjenn" />
		<tag k="natural" v="water" />
		<tag k="ssr:stedsnr" v="718733" />
	</node>
	<node id="-14071" lat="59.6488527772" lon="11.8187833274">
		<tag k="name" v="Nøttakjerrbakka" />
		<tag k="place" v="locality" />
		<tag k="ssr:stedsnr" v="718192" />
	</node>
	<node id="-14070" lat="59.7059972217" lon="11.8956055616">
		<tag k="name" v="Dypilvadet" />
		<tag k="place" v="locality" />
		<tag k="ssr:stedsnr" v="718176" />
	</node>
	<node id="-14069" lat="59.6988166669" lon="11.9369055482">
		<tag k="name" v="Oppstua" />
		<tag k="place" v="farm" />
		<tag k="ssr:stedsnr" v="718173" />
	</node>
	<node id="-14068" lat="59.748597226" lon="11.9154777722">
		<tag k="name" v="Søndre Røvassdalen" />
		<tag k="natural" v="valley" />
		<tag k="place" v="locality" />
		<tag k="ssr:stedsnr" v="718174" />
	</node>
	<node id="-14067" lat="59.7240250016" lon="11.7858999943">
		<tag k="name" v="Solberg" />
		<tag k="place" v="locality" />
		<tag k="ssr:stedsnr" v="718171" />
	</node>
	<node id="-14066" lat="59.7448999987" lon="11.822761115">
		<tag k="amenity" v="school" />
		<tag k="name" v="Skolestua" />
		<tag k="ssr:stedsnr" v="718169" />
	</node>
	<node id="-14065" lat="59.6826583313" lon="11.7134666578">
		<tag k="name" v="Kudrågene" />
		<tag k="natural" v="valley" />
		<tag k="place" v="locality" />
		<tag k="ssr:stedsnr" v="718168" />
	</node>
	<node id="-14064" lat="59.7620611101" lon="11.7788972283">
		<tag k="name" v="Torgersetra" />
		<tag k="place" v="locality" />
		<tag k="ssr:stedsnr" v="718160" />
	</node>
	<node id="-14063" lat="59.7630111068" lon="11.7958972255">
		<tag k="name" v="Hestein" />
		<tag k="place" v="locality" />
		<tag k="ssr:stedsnr" v="718161" />
	</node>
	<node id="-14062" lat="59.7258055581" lon="11.8198333326">
		<tag k="name" v="Kjørkesanden" />
		<tag k="place" v="locality" />
		<tag k="ssr:stedsnr" v="718157" />
	</node>
	<node id="-14061" lat="59.7399138912" lon="11.7810444466">
		<tag k="highway" v="path" />
		<tag k="name" v="Stemningen" />
		<tag k="ssr:stedsnr" v="718155" />
	</node>
	<node id="-14060" lat="59.7737972187" lon="11.8091999999">
		<tag k="building" v="industrial" />
		<tag k="industrial" v="factory" />
		<tag k="name" v="Rømskog sag" />
		<tag k="ssr:stedsnr" v="718151" />
	</node>
	<node id="-14059" lat="59.7397944447" lon="11.8182361158">
		<tag k="name" v="Haugbakkholmen" />
		<tag k="place" v="islet" />
		<tag k="ssr:stedsnr" v="718142" />
	</node>
	<node id="-14058" lat="59.7055194455" lon="11.7936583358">
		<tag k="fixme" v="consider natural=peak for the most distinct mountains in the district" />
		<tag k="name" v="Høgåsen" />
		<tag k="natural" v="hill" />
		<tag k="place" v="locality" />
		<tag k="ssr:stedsnr" v="718114" />
	</node>
	<node id="-14057" lat="59.7022749991" lon="11.849374996">
		<tag k="name" v="Ringsbyneset" />
		<tag k="natural" v="cape" />
		<tag k="ssr:stedsnr" v="718086" />
	</node>
	<node id="-14056" lat="59.6585444457" lon="11.8384888891">
		<tag k="name" v="Klomma" />
		<tag k="place" v="locality" />
		<tag k="ssr:stedsnr" v="718071" />
	</node>
	<node id="-14055" lat="59.6620166685" lon="11.8220916655">
		<tag k="highway" v="path" />
		<tag k="name" v="Nybruseterveien" />
		<tag k="ssr:stedsnr" v="718069" />
	</node>
	<node id="-14054" lat="59.755711108" lon="11.8940861031">
		<tag k="name" v="Jomfrutjenn" />
		<tag k="natural" v="water" />
		<tag k="ssr:stedsnr" v="718062" />
	</node>
	<node id="-14053" lat="59.696566667" lon="11.8671472225">
		<tag k="name" v="Fjellsdalen" />
		<tag k="natural" v="valley" />
		<tag k="place" v="locality" />
		<tag k="ssr:stedsnr" v="718058" />
	</node>
	<node id="-14052" lat="59.7436583554" lon="11.8071306906">
		<tag k="fixme" v="consider place=hamlet" />
		<tag k="name" v="Østre Tørnby" />
		<tag k="place" v="farm" />
		<tag k="ssr:stedsnr" v="718040" />
	</node>
	<node id="-14051" lat="59.7464527733" lon="11.8114277858">
		<tag k="name" v="Nord-Steinby" />
		<tag k="place" v="farm" />
		<tag k="ssr:stedsnr" v="718038" />
	</node>
	<node id="-14050" lat="59.6911499981" lon="11.8489805511">
		<tag k="name" v="Tverrdalsvelta" />
		<tag k="place" v="locality" />
		<tag k="ssr:stedsnr" v="718028" />
	</node>
	<node id="-14049" lat="59.6973694458" lon="11.7417472217">
		<tag k="name" v="Jakopstjenn" />
		<tag k="natural" v="water" />
		<tag k="ssr:stedsnr" v="718020" />
	</node>
	<node id="-14048" lat="59.7772583347" lon="11.8104555595">
		<tag k="name" v="Setermåsån" />
		<tag k="natural" v="wetland" />
		<tag k="ssr:stedsnr" v="718017" />
	</node>
	<node id="-14047" lat="59.7085694401" lon="11.7255750078">
		<tag k="name" v="Gubbetjenn" />
		<tag k="natural" v="water" />
		<tag k="ssr:stedsnr" v="718251" />
	</node>
	<node id="-14046" lat="59.6931361117" lon="11.6989388859">
		<tag k="fixme" v="consider natural=peak for the most distinct mountains in the district" />
		<tag k="name" v="Risåsen" />
		<tag k="natural" v="hill" />
		<tag k="place" v="locality" />
		<tag k="ssr:stedsnr" v="718250" />
	</node>
	<node id="-14045" lat="59.7165222195" lon="11.7526527772">
		<tag k="historic" v="shieling" />
		<tag k="name" v="Den brente setra" />
		<tag k="place" v="locality" />
		<tag k="ssr:stedsnr" v="718246" />
	</node>
	<node id="-14044" lat="59.7407833305" lon="11.7154555576">
		<tag k="name" v="Stemningen" />
		<tag k="place" v="locality" />
		<tag k="ssr:stedsnr" v="718245" />
	</node>
	<node id="-14043" lat="59.7075166683" lon="11.8529527723">
		<tag k="name" v="Flesabekkvelta" />
		<tag k="place" v="locality" />
		<tag k="ssr:stedsnr" v="718239" />
	</node>
	<node id="-14042" lat="59.6979305535" lon="11.7732222246">
		<tag k="name" v="Svarttjenn" />
		<tag k="natural" v="water" />
		<tag k="ssr:stedsnr" v="718233" />
	</node>
	<node id="-14041" lat="59.6876527738" lon="11.8511722244">
		<tag k="name" v="Stokkedalshølet" />
		<tag k="natural" v="valley" />
		<tag k="place" v="locality" />
		<tag k="ssr:stedsnr" v="718225" />
	</node>
	<node id="-14040" lat="59.6946472224" lon="11.932080555">
		<tag k="name" v="Styggestellet" />
		<tag k="place" v="locality" />
		<tag k="ssr:stedsnr" v="717176" />
	</node>
	<node id="-14039" lat="59.7746833309" lon="11.8958361095">
		<tag k="name" v="Gamle Promstø" />
		<tag k="place" v="locality" />
		<tag k="ssr:stedsnr" v="717170" />
	</node>
	<node id="-14038" lat="59.6555916656" lon="11.8605638833">
		<tag k="bridge" v="yes" />
		<tag k="layer" v="1" />
		<tag k="name" v="Trosterud" />
		<tag k="ssr:stedsnr" v="713591" />
	</node>
	<node id="-14037" lat="59.6648333308" lon="11.8368027753">
		<tag k="bridge" v="yes" />
		<tag k="layer" v="1" />
		<tag k="name" v="Ous" />
		<tag k="ssr:stedsnr" v="713587" />
	</node>
	<node id="-14036" lat="59.7547833307" lon="11.8527277704">
		<tag k="name" v="Søndre Hellingstjennet" />
		<tag k="natural" v="water" />
		<tag k="ssr:stedsnr" v="673254" />
	</node>
	<node id="-14035" lat="59.7611444439" lon="11.8194472197">
		<tag k="alt_name" v="Øgarden" />
		<tag k="name" v="Ødegården" />
		<tag k="place" v="farm" />
		<tag k="ssr:stedsnr" v="672381" />
	</node>
	<node id="-14034" lat="59.7600527743" lon="11.7650361142">
		<tag k="alt_name" v="Grautelitjenn" />
		<tag k="name" v="Grautlitjenn" />
		<tag k="natural" v="water" />
		<tag k="ssr:stedsnr" v="672376" />
	</node>
	<node id="-14033" lat="59.7586111116" lon="11.8218333262">
		<tag k="alt_name" v="Trandem søndre" />
		<tag k="name" v="Sør-Trandum" />
		<tag k="place" v="farm" />
		<tag k="ssr:stedsnr" v="672372" />
	</node>
	<node id="-14032" lat="59.7608166655" lon="11.9077277759">
		<tag k="fixme" v="consider natural=peak for the most distinct mountains in the district" />
		<tag k="name" v="Røvasshøgda" />
		<tag k="natural" v="hill" />
		<tag k="place" v="locality" />
		<tag k="ssr:stedsnr" v="672220" />
	</node>
	<node id="-14031" lat="59.7586416694" lon="11.9180583366">
		<tag k="alt_name" v="Åbbortjern" />
		<tag k="name" v="Abbortjenn" />
		<tag k="natural" v="water" />
		<tag k="ssr:stedsnr" v="672219" />
	</node>
	<node id="-14030" lat="59.7430666654" lon="11.8156111147">
		<tag k="alt_name" v="Torneby;Østre Torneby2;Torneby østre" />
		<tag k="fixme" v="multiple name tags, choose one and add the other to alt_name" />
		<tag k="name" v="Tårnby;Østre Torneby" />
		<tag k="place" v="farm" />
		<tag k="ssr:stedsnr" v="671691" />
	</node>
	<node id="-14029" lat="59.7124722209" lon="11.8912388856">
		<tag k="name" v="Langtjenn" />
		<tag k="natural" v="water" />
		<tag k="ssr:stedsnr" v="671405" />
	</node>
	<node id="-14028" lat="59.6958805575" lon="11.7118166742">
		<tag k="fixme" v="consider natural=peak for the most distinct mountains in the district" />
		<tag k="name" v="Stintehøgda" />
		<tag k="natural" v="hill" />
		<tag k="place" v="locality" />
		<tag k="ssr:stedsnr" v="671361" />
	</node>
	<node id="-14027" lat="59.712374996" lon="11.8192861052">
		<tag k="name" v="Storøya" />
		<tag k="place" v="island" />
		<tag k="ssr:stedsnr" v="671345" />
	</node>
	<node id="-14026" lat="59.6949305599" lon="11.8189194513">
		<tag k="name" v="Leirholmen" />
		<tag k="place" v="islet" />
		<tag k="ssr:stedsnr" v="671322" />
	</node>
	<node id="-14025" lat="59.6746999978" lon="11.7453305525">
		<tag k="alt_name" v="Skillberga" />
		<tag k="fixme" v="consider natural=peak for the most distinct mountains in the district" />
		<tag k="name" v="Skjellberga" />
		<tag k="natural" v="hill" />
		<tag k="place" v="locality" />
		<tag k="ssr:stedsnr" v="671272" />
	</node>
	<node id="-14024" lat="59.6742222231" lon="11.8663222193">
		<tag k="alt_name" v="Haglebråtehøgda" />
		<tag k="fixme" v="consider natural=peak for the most distinct mountains in the district" />
		<tag k="name" v="Haglebråtahøgda" />
		<tag k="natural" v="hill" />
		<tag k="place" v="locality" />
		<tag k="ssr:stedsnr" v="671067" />
	</node>
	<node id="-14023" lat="59.7459111125" lon="11.9251416738">
		<tag k="name" v="Røvasslora" />
		<tag k="natural" v="water" />
		<tag k="ssr:stedsnr" v="657785" />
		<tag k="water" v="pond" />
	</node>
	<node id="-14022" lat="59.7071305589" lon="11.8979444371">
		<tag k="name" v="Dypil" />
		<tag k="natural" v="water" />
		<tag k="ssr:stedsnr" v="657773" />
	</node>
	<node id="-14021" lat="59.7754916629" lon="11.8519472302">
		<tag k="name" v="Slatjenn" />
		<tag k="natural" v="water" />
		<tag k="ssr:stedsnr" v="657772" />
	</node>
	<node id="-14020" lat="59.775652776" lon="11.8052583318">
		<tag k="name" v="Tukuelva" />
		<tag k="ssr:stedsnr" v="657771" />
		<tag k="waterway" v="river" />
	</node>
	<node id="-14019" lat="59.675163887" lon="11.8344944407">
		<tag k="name" v="Bjørskauvika" />
		<tag k="natural" v="bay" />
		<tag k="ssr:stedsnr" v="657764" />
	</node>
	<node id="-14018" lat="59.7412944411" lon="11.9302388864">
		<tag k="name" v="Tverrdammen" />
		<tag k="ssr:stedsnr" v="657735" />
		<tag k="waterway" v="dam" />
	</node>
	<node id="-14017" lat="59.7364916702" lon="11.6925777699">
		<tag k="name" v="Vortungsteinen" />
		<tag k="place" v="locality" />
		<tag k="ssr:stedsnr" v="657725" />
	</node>
	<node id="-14016" lat="59.7028916677" lon="11.8061166756">
		<tag k="name" v="Hagasund" />
		<tag k="natural" v="strait" />
		<tag k="ssr:stedsnr" v="657715" />
	</node>
	<node id="-14015" lat="59.6526305578" lon="11.7518888933">
		<tag k="name" v="Bjuren" />
		<tag k="natural" v="wetland" />
		<tag k="ssr:stedsnr" v="657197" />
	</node>
	<node id="-14014" lat="59.6547361122" lon="11.8509333319">
		<tag k="alt_name" v="Mellem-Flaten" />
		<tag k="name" v="Mellom-Flaten" />
		<tag k="place" v="farm" />
		<tag k="ssr:stedsnr" v="657178" />
	</node>
	<node id="-14013" lat="59.7067333327" lon="11.917897218">
		<tag k="name" v="Oksehølet" />
		<tag k="place" v="locality" />
		<tag k="ssr:stedsnr" v="657171" />
	</node>
	<node id="-14012" lat="59.7720944416" lon="11.8980166646">
		<tag k="name" v="Kulevelta" />
		<tag k="place" v="locality" />
		<tag k="ssr:stedsnr" v="657166" />
	</node>
	<node id="-14011" lat="59.7227861099" lon="11.8281888847">
		<tag k="fixme" v="consider natural=peak for the most distinct mountains in the district" />
		<tag k="name" v="Kørråsen" />
		<tag k="natural" v="hill" />
		<tag k="place" v="locality" />
		<tag k="ssr:stedsnr" v="657155" />
	</node>
	<node id="-14010" lat="59.7505611137" lon="11.8818722266">
		<tag k="name" v="Veststusetra" />
		<tag k="place" v="locality" />
		<tag k="ssr:stedsnr" v="657154" />
	</node>
	<node id="-14009" lat="59.7449083324" lon="11.8059916669">
		<tag k="name" v="Steinby" />
		<tag k="place" v="farm" />
		<tag k="ssr:stedsnr" v="657147" />
	</node>
	<node id="-14008" lat="59.7381388894" lon="11.8049444505">
		<tag k="name" v="Sundtangen" />
		<tag k="natural" v="cape" />
		<tag k="ssr:stedsnr" v="657142" />
	</node>
	<node id="-14007" lat="59.7155083301" lon="11.8986166693">
		<tag k="name" v="Verphaugen" />
		<tag k="place" v="locality" />
		<tag k="ssr:stedsnr" v="657139" />
	</node>
	<node id="-14006" lat="59.7832138869" lon="11.8516972205">
		<tag k="name" v="Mørkholttjenn" />
		<tag k="natural" v="water" />
		<tag k="ssr:stedsnr" v="657135" />
	</node>
	<node id="-14005" lat="59.6635694448" lon="11.8541166749">
		<tag k="highway" v="path" />
		<tag k="name" v="Strandveien" />
		<tag k="ssr:stedsnr" v="657134" />
	</node>
	<node id="-14004" lat="59.6397055551" lon="11.75638333">
		<tag k="name" v="Kolletjenn" />
		<tag k="natural" v="water" />
		<tag k="ssr:stedsnr" v="657124" />
	</node>
	<node id="-14003" lat="59.6954777759" lon="11.7234638878">
		<tag k="name" v="Rundtjenn" />
		<tag k="natural" v="water" />
		<tag k="ssr:stedsnr" v="657125" />
	</node>
	<node id="-14002" lat="59.6515000041" lon="11.8131472207">
		<tag k="name" v="Orremåsatjenn" />
		<tag k="natural" v="water" />
		<tag k="ssr:stedsnr" v="657118" />
	</node>
	<node id="-14001" lat="59.7061722198" lon="11.751766671">
		<tag k="name" v="Skanseberga" />
		<tag k="place" v="locality" />
		<tag k="ssr:stedsnr" v="657114" />
	</node>
	<node id="-14000" lat="59.7187249997" lon="11.7921472286">
		<tag k="name" v="Dalheim" />
		<tag k="place" v="farm" />
		<tag k="ssr:stedsnr" v="657112" />
	</node>
	<node id="-13999" lat="59.7574916637" lon="11.7672277736">
		<tag k="name" v="Vesle Tjuvvannet" />
		<tag k="natural" v="water" />
		<tag k="ssr:stedsnr" v="657080" />
	</node>
	<node id="-13998" lat="59.659499996" lon="11.852952779">
		<tag k="name" v="Sandbakken" />
		<tag k="place" v="locality" />
		<tag k="ssr:stedsnr" v="657073" />
	</node>
	<node id="-13997" lat="59.6589361102" lon="11.8494777815">
		<tag k="name" v="Årnesmåsan" />
		<tag k="natural" v="wetland" />
		<tag k="ssr:stedsnr" v="657070" />
	</node>
	<node id="-13996" lat="59.6582888858" lon="11.8416833385">
		<tag k="name" v="Hundemyra" />
		<tag k="natural" v="wetland" />
		<tag k="ssr:stedsnr" v="657068" />
	</node>
	<node id="-13995" lat="59.7485749988" lon="11.8905138825">
		<tag k="name" v="Enka" />
		<tag k="place" v="islet" />
		<tag k="ssr:stedsnr" v="657053" />
	</node>
	<node id="-13994" lat="59.7632222244" lon="11.9152583261">
		<tag k="name" v="Fløttjenn" />
		<tag k="natural" v="water" />
		<tag k="ssr:stedsnr" v="657034" />
	</node>
	<node id="-13993" lat="59.7453027766" lon="11.7547194506">
		<tag k="name" v="Sagsleppa" />
		<tag k="place" v="locality" />
		<tag k="ssr:stedsnr" v="657028" />
	</node>
	<node id="-13992" lat="59.7687388847" lon="11.8247027843">
		<tag k="fixme" v="consider natural=peak for the most distinct mountains in the district" />
		<tag k="name" v="Libakkåsen" />
		<tag k="natural" v="hill" />
		<tag k="place" v="locality" />
		<tag k="ssr:stedsnr" v="657018" />
	</node>
	<node id="-13991" lat="59.7407416648" lon="11.8130472254">
		<tag k="name" v="Tornebyholmen" />
		<tag k="place" v="islet" />
		<tag k="ssr:stedsnr" v="657014" />
	</node>
	<node id="-13990" lat="59.7333888886" lon="11.8072861152">
		<tag k="name" v="Bøhaget" />
		<tag k="place" v="locality" />
		<tag k="ssr:stedsnr" v="657012" />
	</node>
	<node id="-13989" lat="59.7368166676" lon="11.8184305641">
		<tag k="name" v="Østre Bøen" />
		<tag k="place" v="farm" />
		<tag k="ssr:stedsnr" v="657013" />
	</node>
	<node id="-13988" lat="59.7361472207" lon="11.8051138903">
		<tag k="name" v="Bikkjeholmen" />
		<tag k="place" v="islet" />
		<tag k="ssr:stedsnr" v="657008" />
	</node>
	<node id="-13987" lat="59.6980694481" lon="11.9453583346">
		<tag k="historic" v="boundary_stone" />
		<tag k="man_made" v="cairn" />
		<tag k="name" v="Langebekk" />
		<tag k="place" v="locality" />
		<tag k="ssr:stedsnr" v="656631" />
	</node>
	<node id="-13986" lat="59.7549666637" lon="11.8178250041">
		<tag k="bridge" v="yes" />
		<tag k="layer" v="1" />
		<tag k="name" v="Lokalbrua" />
		<tag k="ssr:stedsnr" v="652553" />
	</node>
	<node id="-13985" lat="59.7709500017" lon="11.8493805611">
		<tag k="alt_name" v="Sakstjern" />
		<tag k="name" v="Sakstjenn" />
		<tag k="natural" v="water" />
		<tag k="ssr:stedsnr" v="612245" />
	</node>
	<node id="-13984" lat="59.7708777759" lon="11.7715611185">
		<tag k="alt_name" v="Tukusætra" />
		<tag k="name" v="Tukusetra" />
		<tag k="place" v="farm" />
		<tag k="ssr:stedsnr" v="611436" />
	</node>
	<node id="-13983" lat="59.7677472247" lon="11.8202888908">
		<tag k="name" v="Lia" />
		<tag k="place" v="farm" />
		<tag k="ssr:stedsnr" v="611435" />
	</node>
	<node id="-13982" lat="59.7515361156" lon="11.8195277712">
		<tag k="alt_name" v="Moen, nedre;Ned-Moen" />
		<tag k="name" v="Nedre Moen" />
		<tag k="place" v="farm" />
		<tag k="ssr:stedsnr" v="611395" />
	</node>
	<node id="-13981" lat="59.7551611093" lon="11.8810222194">
		<tag k="name" v="Auretjenn" />
		<tag k="natural" v="water" />
		<tag k="ssr:stedsnr" v="611235" />
	</node>
	<node id="-13980" lat="59.7432111094" lon="11.7626638926">
		<tag k="alt_name" v="Nord-saga;Saga nordre" />
		<tag k="name" v="Nordsaga" />
		<tag k="place" v="farm" />
		<tag k="ssr:stedsnr" v="610704" />
	</node>
	<node id="-13979" lat="59.7237249984" lon="11.733655553">
		<tag k="name" v="Smalsundet" />
		<tag k="natural" v="strait" />
		<tag k="ssr:stedsnr" v="610666" />
	</node>
	<node id="-13978" lat="59.7339443964" lon="11.7759531561">
		<tag k="name" v="Nordli" />
		<tag k="place" v="farm" />
		<tag k="ssr:stedsnr" v="610659" />
	</node>
	<node id="-13977" lat="59.7408972232" lon="11.8832638923">
		<tag k="name" v="Langvikmåsan" />
		<tag k="natural" v="wetland" />
		<tag k="ssr:stedsnr" v="610475" />
	</node>
	<node id="-13976" lat="59.7418944444" lon="11.8959527853">
		<tag k="alt_name" v="Nedre Slatjennet" />
		<tag k="name" v="Nedre Slatjenn" />
		<tag k="natural" v="water" />
		<tag k="ssr:stedsnr" v="610474" />
	</node>
	<node id="-13975" lat="59.7310083374" lon="11.8753111132">
		<tag k="alt_name" v="Lågabbortjennet" />
		<tag k="name" v="Lågabbortjenn" />
		<tag k="natural" v="water" />
		<tag k="ssr:stedsnr" v="610471" />
	</node>
	<node id="-13974" lat="59.7330277763" lon="11.8922500051">
		<tag k="alt_name" v="Aurekyttjenn" />
		<tag k="name" v="Aurekyttjennet" />
		<tag k="natural" v="water" />
		<tag k="ssr:stedsnr" v="610463" />
	</node>
	<node id="-13973" lat="59.7222611126" lon="11.9057111153">
		<tag k="name" v="Hebakken" />
		<tag k="place" v="isolated_dwelling" />
		<tag k="ssr:stedsnr" v="610459" />
	</node>
	<node id="-13972" lat="59.6903358257" lon="11.6993384346">
		<tag k="loc_name" v="Vesle Røytjenn" />
		<tag k="name" v="Nordre Røytjenn" />
		<tag k="natural" v="water" />
		<tag k="ssr:stedsnr" v="610387" />
	</node>
	<node id="-13971" lat="59.7011944434" lon="11.8331944431">
		<tag k="name" v="Rømsjøen" />
		<tag k="natural" v="water" />
		<tag k="ssr:stedsnr" v="610364" />
		<tag k="water" v="lake" />
	</node>
	<node id="-13970" lat="59.6988888933" lon="11.7343694373">
		<tag k="alt_name" v="Slommetjennshøgda" />
		<tag k="fixme" v="consider natural=peak for the most distinct mountains in the district" />
		<tag k="name" v="Slomtjennhøgda" />
		<tag k="natural" v="hill" />
		<tag k="place" v="locality" />
		<tag k="ssr:stedsnr" v="610361" />
	</node>
	<node id="-13969" lat="59.6984749983" lon="11.678749996">
		<tag k="alt_name" v="Tvillingtjenna" />
		<tag k="name" v="Tvillingtjenn" />
		<tag k="natural" v="water" />
		<tag k="ssr:stedsnr" v="610351" />
	</node>
	<node id="-13968" lat="59.6730083296" lon="11.8125833299">
		<tag k="alt_name" v="Søneset" />
		<tag k="name" v="Sørneset" />
		<tag k="natural" v="cape" />
		<tag k="ssr:stedsnr" v="610306" />
	</node>
	<node id="-13967" lat="59.6559500013" lon="11.8594694464">
		<tag k="name" v="Trosterud" />
		<tag k="place" v="farm" />
		<tag k="ssr:stedsnr" v="610069" />
	</node>
	<node id="-13966" lat="59.7045472214" lon="11.8764888832">
		<tag k="alt_name" v="Gjeddetjenn" />
		<tag k="name" v="Gjeddetjennet" />
		<tag k="natural" v="water" />
		<tag k="ssr:stedsnr" v="602439" />
	</node>
	<node id="-13965" lat="59.7231388925" lon="11.8151611136">
		<tag k="name" v="Kjørkesundet" />
		<tag k="natural" v="strait" />
		<tag k="ssr:stedsnr" v="596781" />
	</node>
	<node id="-13964" lat="59.6969916681" lon="11.8530694407">
		<tag k="name" v="Ringsbyvika" />
		<tag k="natural" v="bay" />
		<tag k="ssr:stedsnr" v="596714" />
	</node>
	<node id="-13963" lat="59.728280554" lon="11.7200472171">
		<tag k="name" v="Snapsetra" />
		<tag k="place" v="locality" />
		<tag k="ssr:stedsnr" v="596240" />
	</node>
	<node id="-13962" lat="59.7398111078" lon="11.7401000072">
		<tag k="name" v="Vortungsaga" />
		<tag k="place" v="locality" />
		<tag k="ssr:stedsnr" v="596238" />
	</node>
	<node id="-13961" lat="59.7147138885" lon="11.8175666638">
		<tag k="name" v="Storøen" />
		<tag k="place" v="locality" />
		<tag k="ssr:stedsnr" v="596229" />
	</node>
	<node id="-13960" lat="59.6829972242" lon="11.7843194506">
		<tag k="name" v="Bukleiva" />
		<tag k="natural" v="valley" />
		<tag k="place" v="locality" />
		<tag k="ssr:stedsnr" v="596224" />
	</node>
	<node id="-13959" lat="59.7512222202" lon="11.7432055501">
		<tag k="name" v="Steinbyseterdalen" />
		<tag k="natural" v="valley" />
		<tag k="place" v="locality" />
		<tag k="ssr:stedsnr" v="596214" />
	</node>
	<node id="-13958" lat="59.6753194467" lon="11.7461444511">
		<tag k="name" v="Løftingsteindrågene" />
		<tag k="place" v="locality" />
		<tag k="ssr:stedsnr" v="596205" />
	</node>
	<node id="-13957" lat="59.6515499961" lon="11.8589722178">
		<tag k="name" v="Radiofyr" />
		<tag k="place" v="locality" />
		<tag k="ssr:stedsnr" v="596192" />
	</node>
	<node id="-13956" lat="59.6752416684" lon="11.8594611139">
		<tag k="fixme" v="consider natural=peak for the most distinct mountains in the district" />
		<tag k="name" v="Svarttjennåsen" />
		<tag k="natural" v="hill" />
		<tag k="place" v="locality" />
		<tag k="ssr:stedsnr" v="596190" />
	</node>
	<node id="-13955" lat="59.7448305592" lon="11.8928250074">
		<tag k="name" v="Larshytta" />
		<tag k="place" v="locality" />
		<tag k="ssr:stedsnr" v="596188" />
	</node>
	<node id="-13954" lat="59.6968805511" lon="11.9318138927">
		<tag k="name" v="Merrasleppa" />
		<tag k="place" v="locality" />
		<tag k="ssr:stedsnr" v="596181" />
	</node>
	<node id="-13953" lat="59.6942111116" lon="11.7501277776">
		<tag k="name" v="Røytjenndalsvika" />
		<tag k="natural" v="bay" />
		<tag k="ssr:stedsnr" v="596157" />
	</node>
	<node id="-13952" lat="59.749013887" lon="11.803861104">
		<tag k="name" v="Skurås" />
		<tag k="place" v="locality" />
		<tag k="ssr:stedsnr" v="596148" />
	</node>
	<node id="-13951" lat="59.7212444443" lon="11.7953444395">
		<tag k="name" v="Haukebøl" />
		<tag k="place" v="farm" />
		<tag k="ssr:stedsnr" v="596141" />
	</node>
	<node id="-13950" lat="59.7418111079" lon="11.7476666732">
		<tag k="historic" v="shieling" />
		<tag k="name" v="Damtjennsetra" />
		<tag k="place" v="locality" />
		<tag k="ssr:stedsnr" v="596140" />
	</node>
	<node id="-13949" lat="59.6464805523" lon="11.7733944514">
		<tag k="name" v="Morttjennbekken" />
		<tag k="ssr:stedsnr" v="596119" />
		<tag k="waterway" v="stream" />
	</node>
	<node id="-13948" lat="59.6489527813" lon="11.8113000089">
		<tag k="name" v="Orebruholtet" />
		<tag k="place" v="locality" />
		<tag k="ssr:stedsnr" v="596116" />
	</node>
	<node id="-13947" lat="59.714524996" lon="11.7880611091">
		<tag k="name" v="Struten" />
		<tag k="place" v="locality" />
		<tag k="ssr:stedsnr" v="596112" />
	</node>
	<node id="-13946" lat="59.7425916703" lon="11.7360916591">
		<tag k="name" v="Bottsetra" />
		<tag k="place" v="locality" />
		<tag k="ssr:stedsnr" v="596102" />
	</node>
	<node id="-13945" lat="59.7366500041" lon="11.7322944496">
		<tag k="name" v="Trollbergtjenn" />
		<tag k="natural" v="water" />
		<tag k="ssr:stedsnr" v="596100" />
	</node>
	<node id="-13944" lat="59.7426611076" lon="11.7391944365">
		<tag k="highway" v="path" />
		<tag k="name" v="Stemningen" />
		<tag k="ssr:stedsnr" v="596093" />
	</node>
	<node id="-13943" lat="59.7336916655" lon="11.9105138818">
		<tag k="name" v="Ormetangen" />
		<tag k="natural" v="cape" />
		<tag k="ssr:stedsnr" v="596092" />
	</node>
	<node id="-13942" lat="59.6451333294" lon="11.7605388958">
		<tag k="name" v="Haugersetra" />
		<tag k="place" v="locality" />
		<tag k="ssr:stedsnr" v="596090" />
	</node>
	<node id="-13941" lat="59.7576222253" lon="11.7988138874">
		<tag k="fixme" v="consider natural=peak for the most distinct mountains in the district" />
		<tag k="name" v="Massingsteinåsen" />
		<tag k="natural" v="hill" />
		<tag k="place" v="locality" />
		<tag k="ssr:stedsnr" v="596081" />
	</node>
	<node id="-13940" lat="59.6700749957" lon="11.8025194528">
		<tag k="name" v="Jakopsbråtan" />
		<tag k="place" v="locality" />
		<tag k="ssr:stedsnr" v="596079" />
	</node>
	<node id="-13939" lat="59.6903666634" lon="11.6867916603">
		<tag k="fixme" v="consider natural=peak for the most distinct mountains in the district" />
		<tag k="name" v="Veslerishøgda" />
		<tag k="natural" v="hill" />
		<tag k="place" v="locality" />
		<tag k="ssr:stedsnr" v="596077" />
	</node>
	<node id="-13938" lat="59.6503222247" lon="11.7509527742">
		<tag k="name" v="Spettfuruvadet" />
		<tag k="place" v="locality" />
		<tag k="ssr:stedsnr" v="596070" />
	</node>
	<node id="-13937" lat="59.742813889" lon="11.8307027751">
		<tag k="name" v="Grytebekken" />
		<tag k="ssr:stedsnr" v="596028" />
		<tag k="waterway" v="stream" />
	</node>
	<node id="-13936" lat="59.739538889" lon="11.8241944417">
		<tag k="name" v="Haugbakkastet" />
		<tag k="place" v="locality" />
		<tag k="ssr:stedsnr" v="596012" />
	</node>
	<node id="-13935" lat="59.7220166684" lon="11.7484972295">
		<tag k="name" v="Stutaue" />
		<tag k="natural" v="water" />
		<tag k="ssr:stedsnr" v="596001" />
	</node>
	<node id="-13934" lat="59.6945527749" lon="11.9398749915">
		<tag k="alt_name" v="Tua" />
		<tag k="historic" v="boundary_stone" />
		<tag k="man_made" v="cairn" />
		<tag k="name" v="Tua i Hvitsjøen" />
		<tag k="old_name" v="Hjertat i Holmesjøn;Hjertet i Hvitesiøen;Tufwan i Tåken;Tuven i Taaken" />
		<tag k="place" v="locality" />
		<tag k="ssr:stedsnr" v="595589" />
	</node>
	<node id="-13933" lat="59.7676277821" lon="11.8161999919">
		<tag k="name" v="Klubbetjenn" />
		<tag k="natural" v="water" />
		<tag k="ssr:stedsnr" v="551412" />
	</node>
	<node id="-13932" lat="59.7798888888" lon="11.880961116">
		<tag k="name" v="Flinttjenn" />
		<tag k="natural" v="water" />
		<tag k="ssr:stedsnr" v="551240" />
	</node>
	<node id="-13931" lat="59.7836055597" lon="11.80690834">
		<tag k="name" v="Delingsby" />
		<tag k="place" v="isolated_dwelling" />
		<tag k="ssr:stedsnr" v="550454" />
	</node>
	<node id="-13930" lat="59.7405000042" lon="11.9171194371">
		<tag k="name" v="Posemåsan" />
		<tag k="natural" v="wetland" />
		<tag k="ssr:stedsnr" v="550422" />
	</node>
	<node id="-13929" lat="59.737711108" lon="11.8736972237">
		<tag k="name" v="Gjesstjenn" />
		<tag k="natural" v="water" />
		<tag k="ssr:stedsnr" v="550420" />
	</node>
	<node id="-13928" lat="59.7271083335" lon="11.9042000043">
		<tag k="name" v="Store Heimyr" />
		<tag k="natural" v="wetland" />
		<tag k="ssr:stedsnr" v="550417" />
	</node>
	<node id="-13927" lat="59.7053083303" lon="11.8532249916">
		<tag k="name" v="Hytta" />
		<tag k="place" v="isolated_dwelling" />
		<tag k="ssr:stedsnr" v="550411" />
	</node>
	<node id="-13926" lat="59.7120833294" lon="11.9192583284">
		<tag k="name" v="Hellemyra" />
		<tag k="natural" v="wetland" />
		<tag k="ssr:stedsnr" v="550407" />
	</node>
	<node id="-13925" lat="59.694340798" lon="11.8730651179">
		<tag k="fixme" v="multiple name tags, choose one and add the other to alt_name" />
		<tag k="name" v="Kløvtjennet;Søndre Kløvtjenn" />
		<tag k="natural" v="water" />
		<tag k="ssr:stedsnr" v="550405" />
	</node>
	<node id="-13924" lat="59.6993499969" lon="11.9272749945">
		<tag k="fixme" v="consider natural=peak for the most distinct mountains in the district" />
		<tag k="name" v="Høgåsen" />
		<tag k="natural" v="hill" />
		<tag k="place" v="locality" />
		<tag k="ssr:stedsnr" v="550396" />
	</node>
	<node id="-13923" lat="59.6859194414" lon="11.8018722149">
		<tag k="name" v="Bunes" />
		<tag k="place" v="farm" />
		<tag k="ssr:stedsnr" v="550335" />
	</node>
	<node id="-13922" lat="59.6812611128" lon="11.7788444377">
		<tag k="alt_name" v="Butjennet" />
		<tag k="name" v="Butjenn" />
		<tag k="natural" v="water" />
		<tag k="ssr:stedsnr" v="550334" />
	</node>
	<node id="-13921" lat="59.6871472234" lon="11.6917750065">
		<tag k="fixme" v="consider natural=peak for the most distinct mountains in the district" />
		<tag k="name" v="Vesle Rishøgda" />
		<tag k="natural" v="hill" />
		<tag k="place" v="locality" />
		<tag k="ssr:stedsnr" v="550329" />
	</node>
	<node id="-13920" lat="59.7010138855" lon="11.8147388915">
		<tag k="name" v="Granøya" />
		<tag k="place" v="islet" />
		<tag k="ssr:stedsnr" v="550306" />
	</node>
	<node id="-13919" lat="59.6738555589" lon="11.6958611202">
		<tag k="alt_name" v="Fallsåsen" />
		<tag k="fixme" v="consider natural=peak for the most distinct mountains in the district" />
		<tag k="name" v="Fallåsen" />
		<tag k="natural" v="hill" />
		<tag k="place" v="locality" />
		<tag k="ssr:stedsnr" v="550264" />
	</node>
	<node id="-13918" lat="59.7162611094" lon="11.7560638819">
		<tag k="alt_name" v="Haukenesfjella" />
		<tag k="fixme" v="consider natural=peak for the most distinct mountains in the district" />
		<tag k="name" v="Haukenesfjellet" />
		<tag k="natural" v="hill" />
		<tag k="place" v="locality" />
		<tag k="ssr:stedsnr" v="549623" />
	</node>
	<node id="-13917" lat="59.7193472235" lon="11.8050944482">
		<tag k="alt_name" v="Haukenes" />
		<tag k="name" v="Østre Haukenes" />
		<tag k="place" v="farm" />
		<tag k="ssr:stedsnr" v="549621" />
	</node>
	<node id="-13916" lat="59.7052527766" lon="11.8049444374">
		<tag k="alt_name" v="Hagan" />
		<tag k="name" v="Haga" />
		<tag k="place" v="farm" />
		<tag k="ssr:stedsnr" v="549349" />
	</node>
	<node id="-13915" lat="59.7131629712" lon="11.7854863048">
		<tag k="fixme" v="multiple name tags, choose one and add the other to alt_name" />
		<tag k="name" v="Vestby;Vestli" />
		<tag k="place" v="farm" />
		<tag k="ssr:stedsnr" v="549351" />
	</node>
	<node id="-13914" lat="59.7508472258" lon="11.7322675455">
		<tag k="name" v="Bjørtjenna" />
		<tag k="natural" v="water" />
		<tag k="ssr:stedsnr" v="545496" />
		<tag k="water" v="lake" />
	</node>
	<node id="-13913" lat="59.7754055514" lon="11.9229305522">
		<tag k="name" v="Hyttevika" />
		<tag k="natural" v="bay" />
		<tag k="ssr:stedsnr" v="536809" />
	</node>
	<node id="-13912" lat="59.6359277779" lon="11.7182444518">
		<tag k="name" v="Søndre Torvehaugsund" />
		<tag k="natural" v="strait" />
		<tag k="ssr:stedsnr" v="536777" />
	</node>
	<node id="-13911" lat="59.7240611084" lon="11.8073055512">
		<tag k="name" v="Tørkehusgrunna" />
		<tag k="place" v="locality" />
		<tag k="ssr:stedsnr" v="536769" />
	</node>
	<node id="-13910" lat="59.7484111114" lon="11.7193333355">
		<tag k="name" v="Vesle Unyttutjenn" />
		<tag k="natural" v="water" />
		<tag k="ssr:stedsnr" v="536232" />
	</node>
	<node id="-13909" lat="59.7346999984" lon="11.7111166725">
		<tag k="name" v="Vesle Abbortjenn" />
		<tag k="natural" v="water" />
		<tag k="ssr:stedsnr" v="536223" />
	</node>
	<node id="-13908" lat="59.6997638901" lon="11.7433472203">
		<tag k="name" v="Hølbekktjenn" />
		<tag k="natural" v="water" />
		<tag k="ssr:stedsnr" v="536219" />
	</node>
	<node id="-13907" lat="59.7036750028" lon="11.7718138898">
		<tag k="fixme" v="consider natural=peak for the most distinct mountains in the district" />
		<tag k="name" v="Framseteråsen" />
		<tag k="natural" v="hill" />
		<tag k="place" v="locality" />
		<tag k="ssr:stedsnr" v="536220" />
	</node>
	<node id="-13906" lat="59.7140111106" lon="11.8008055528">
		<tag k="name" v="Lønnberg" />
		<tag k="place" v="farm" />
		<tag k="ssr:stedsnr" v="536217" />
	</node>
	<node id="-13905" lat="59.701763885" lon="11.8054527856">
		<tag k="name" v="Sundet" />
		<tag k="place" v="locality" />
		<tag k="ssr:stedsnr" v="536212" />
	</node>
	<node id="-13904" lat="59.6784750009" lon="11.7857027735">
		<tag k="name" v="Butjennbekken" />
		<tag k="ssr:stedsnr" v="536208" />
		<tag k="waterway" v="stream" />
	</node>
	<node id="-13903" lat="59.650669443" lon="11.8267111169">
		<tag k="name" v="Johannesmyra" />
		<tag k="natural" v="wetland" />
		<tag k="ssr:stedsnr" v="536179" />
	</node>
	<node id="-13902" lat="59.632813891" lon="11.740561119">
		<tag k="name" v="Persetra" />
		<tag k="place" v="locality" />
		<tag k="ssr:stedsnr" v="536173" />
	</node>
	<node id="-13901" lat="59.7482555537" lon="11.8511916692">
		<tag k="name" v="Gryttjennsetra" />
		<tag k="place" v="locality" />
		<tag k="ssr:stedsnr" v="536158" />
	</node>
	<node id="-13900" lat="59.7241277798" lon="11.7711777805">
		<tag k="name" v="Jerpedalen" />
		<tag k="natural" v="valley" />
		<tag k="place" v="locality" />
		<tag k="ssr:stedsnr" v="536146" />
	</node>
	<node id="-13899" lat="59.6420055596" lon="11.7657305524">
		<tag k="name" v="Kudalsetra" />
		<tag k="place" v="locality" />
		<tag k="ssr:stedsnr" v="536126" />
	</node>
	<node id="-13898" lat="59.7195777785" lon="11.7943166644">
		<tag k="name" v="Haugerud" />
		<tag k="place" v="locality" />
		<tag k="ssr:stedsnr" v="536117" />
	</node>
	<node id="-13897" lat="59.7415527782" lon="11.6810416596">
		<tag k="name" v="Verpet" />
		<tag k="place" v="locality" />
		<tag k="ssr:stedsnr" v="536114" />
	</node>
	<node id="-13896" lat="59.6420562875" lon="11.7332477194">
		<tag k="name" v="Storemåsatjenn" />
		<tag k="natural" v="water" />
		<tag k="ssr:stedsnr" v="536076" />
	</node>
	<node id="-13895" lat="59.6515805527" lon="11.7366944511">
		<tag k="name" v="Kollemåsan" />
		<tag k="natural" v="wetland" />
		<tag k="ssr:stedsnr" v="536072" />
	</node>
	<node id="-13894" lat="59.7302277759" lon="11.8797638926">
		<tag k="name" v="Gullskåltjenn" />
		<tag k="natural" v="water" />
		<tag k="ssr:stedsnr" v="536069" />
	</node>
	<node id="-13893" lat="59.7225777754" lon="11.893802772">
		<tag k="name" v="Stutaue" />
		<tag k="natural" v="water" />
		<tag k="ssr:stedsnr" v="536067" />
	</node>
	<node id="-13892" lat="59.7433944444" lon="11.8910638944">
		<tag k="name" v="Øvre Statjennbekken" />
		<tag k="ssr:stedsnr" v="536064" />
		<tag k="waterway" v="stream" />
	</node>
	<node id="-13891" lat="59.6948666646" lon="11.8812583322">
		<tag k="name" v="Geitelorten" />
		<tag k="natural" v="water" />
		<tag k="ssr:stedsnr" v="536059" />
	</node>
	<node id="-13890" lat="59.7792611146" lon="11.8871638889">
		<tag k="name" v="Nedre Flinttjennmåsan" />
		<tag k="natural" v="wetland" />
		<tag k="ssr:stedsnr" v="536040" />
	</node>
	<node id="-13889" lat="59.692366665" lon="11.7451083387">
		<tag k="name" v="Høgdemåsatjenn" />
		<tag k="natural" v="water" />
		<tag k="ssr:stedsnr" v="536019" />
	</node>
	<node id="-13888" lat="59.6254638891" lon="11.7206111167">
		<tag k="alt_name" v="Langvassrøys" />
		<tag k="historic" v="boundary_stone" />
		<tag k="man_made" v="cairn" />
		<tag k="name" v="Nordre Langvassrøysa" />
		<tag k="old_name" v="Nordre Langeva(n)ds Røset;Nordre Langvatnrøset;N. Langvands Rös" />
		<tag k="place" v="locality" />
		<tag k="ssr:stedsnr" v="535567" />
	</node>
	<node id="-13887" lat="59.7120388869" lon="11.8774888933">
		<tag k="name" v="Pekestikka" />
		<tag k="place" v="locality" />
		<tag k="ssr:stedsnr" v="535120" />
	</node>
	<node id="-13886" lat="59.6981501473" lon="11.8600261708">
		<tag k="alt_name" v="Ringsbu" />
		<tag k="fixme" v="consider place=hamlet" />
		<tag k="name" v="Ringsby" />
		<tag k="place" v="farm" />
		<tag k="ssr:stedsnr" v="525419" />
	</node>
	<node id="-13885" lat="59.7728555538" lon="11.9321499924">
		<tag k="alt_name" v="Strøtjern" />
		<tag k="name" v="Store Strøtjenn" />
		<tag k="natural" v="water" />
		<tag k="ssr:stedsnr" v="491235" />
	</node>
	<node id="-13884" lat="59.7722694457" lon="11.8876111193">
		<tag k="alt_name" v="Setertjenn" />
		<tag k="name" v="Sætertjenn" />
		<tag k="natural" v="water" />
		<tag k="ssr:stedsnr" v="491231" />
	</node>
	<node id="-13883" lat="59.7735249969" lon="11.8712500035">
		<tag k="name" v="Sundvasstjern" />
		<tag k="natural" v="water" />
		<tag k="ssr:stedsnr" v="491230" />
	</node>
	<node id="-13882" lat="59.7561999982" lon="11.8136527848">
		<tag k="name" v="Nordby" />
		<tag k="place" v="farm" />
		<tag k="ssr:stedsnr" v="490370" />
	</node>
	<node id="-13881" lat="59.7573555567" lon="11.8707861152">
		<tag k="alt_name" v="Dypilen, store;Store Dypilen" />
		<tag k="name" v="Storedypil" />
		<tag k="natural" v="water" />
		<tag k="ssr:stedsnr" v="490220" />
	</node>
	<node id="-13880" lat="59.7758861092" lon="11.8409277757">
		<tag k="alt_name" v="Bronsmosen" />
		<tag k="name" v="Bronsmåså" />
		<tag k="natural" v="wetland" />
		<tag k="ssr:stedsnr" v="490417" />
	</node>
	<node id="-13879" lat="59.7214638907" lon="11.8242861198">
		<tag k="name" v="Rattodden" />
		<tag k="natural" v="cape" />
		<tag k="ssr:stedsnr" v="489677" />
	</node>
	<node id="-13878" lat="59.739238893" lon="11.7636361061">
		<tag k="name" v="Mellomsaga" />
		<tag k="place" v="isolated_dwelling" />
		<tag k="ssr:stedsnr" v="489668" />
	</node>
	<node id="-13877" lat="59.722636114" lon="11.7957444523">
		<tag k="alt_name" v="Engen" />
		<tag k="name" v="Enga" />
		<tag k="place" v="farm" />
		<tag k="ssr:stedsnr" v="489663" />
	</node>
	<node id="-13876" lat="59.7328502579" lon="11.845471281">
		<tag k="name" v="Vestre Lommetjenn" />
		<tag k="natural" v="water" />
		<tag k="ssr:stedsnr" v="489451" />
	</node>
	<node id="-13875" lat="59.7382722234" lon="11.8881999945">
		<tag k="name" v="Langtjenn" />
		<tag k="natural" v="water" />
		<tag k="ssr:stedsnr" v="489444" />
	</node>
	<node id="-13874" lat="59.7193361146" lon="11.9249555488">
		<tag k="fixme" v="consider natural=peak for the most distinct mountains in the district" />
		<tag k="name" v="Grasås" />
		<tag k="natural" v="hill" />
		<tag k="place" v="locality" />
		<tag k="ssr:stedsnr" v="489433" />
	</node>
	<node id="-13873" lat="59.6981472195" lon="11.878286105">
		<tag k="fixme" v="consider natural=peak for the most distinct mountains in the district" />
		<tag k="name" v="Vardekollen" />
		<tag k="natural" v="hill" />
		<tag k="place" v="locality" />
		<tag k="ssr:stedsnr" v="489425" />
	</node>
	<node id="-13872" lat="59.6972222187" lon="11.9042694358">
		<tag k="name" v="Furukollmåsan" />
		<tag k="natural" v="wetland" />
		<tag k="ssr:stedsnr" v="489420" />
	</node>
	<node id="-13871" lat="59.6781583344" lon="11.8169277827">
		<tag k="name" v="Myrgangen" />
		<tag k="natural" v="strait" />
		<tag k="ssr:stedsnr" v="489355" />
	</node>
	<node id="-13870" lat="59.662622225" lon="11.724719442">
		<tag k="name" v="Galgebakken" />
		<tag k="place" v="isolated_dwelling" />
		<tag k="ssr:stedsnr" v="489307" />
	</node>
	<node id="-13869" lat="59.6659500038" lon="11.7793527751">
		<tag k="name" v="Bjørntjenn" />
		<tag k="natural" v="water" />
		<tag k="ssr:stedsnr" v="489303" />
	</node>
	<node id="-13868" lat="59.7438999997" lon="11.806975">
		<tag k="name" v="Østre Tørnby" />
		<tag k="place" v="farm" />
		<tag k="ssr:stedsnr" v="482384" />
	</node>
	<node id="-13867" lat="59.7274944466" lon="11.9371083265">
		<tag k="historic" v="boundary_stone" />
		<tag k="man_made" v="cairn" />
		<tag k="name" v="Fjørbekktjenn" />
		<tag k="old_name" v="Fierebekskiærn" />
		<tag k="place" v="locality" />
		<tag k="ssr:stedsnr" v="464602" />
	</node>
	<node id="-13866" lat="59.7758888932" lon="11.8782472226">
		<tag k="alt_name" v="Flinttjennhea" />
		<tag k="fixme" v="consider natural=peak for the most distinct mountains in the district" />
		<tag k="name" v="Flinttjennheia" />
		<tag k="natural" v="hill" />
		<tag k="place" v="locality" />
		<tag k="ssr:stedsnr" v="431250" />
	</node>
	<node id="-13865" lat="59.7616333293" lon="11.8686583372">
		<tag k="alt_name" v="Dypilen, lille;Lille Dypilen" />
		<tag k="name" v="Vesledypil" />
		<tag k="natural" v="water" />
		<tag k="ssr:stedsnr" v="430226" />
	</node>
	<node id="-13864" lat="59.7482361096" lon="11.7757388871">
		<tag k="name" v="Trangkleivtjenn" />
		<tag k="natural" v="water" />
		<tag k="ssr:stedsnr" v="429668" />
	</node>
	<node id="-13863" lat="59.7437805586" lon="11.7522611157">
		<tag k="alt_name" v="Damtjenn" />
		<tag k="name" v="Sagtjenn" />
		<tag k="natural" v="water" />
		<tag k="ssr:stedsnr" v="429663" />
	</node>
	<node id="-13862" lat="59.6875111126" lon="11.8677305625">
		<tag k="fixme" v="consider natural=peak for the most distinct mountains in the district" />
		<tag k="name" v="Kistholmhøgda" />
		<tag k="natural" v="hill" />
		<tag k="place" v="locality" />
		<tag k="ssr:stedsnr" v="429394" />
	</node>
	<node id="-13861" lat="59.7678527814" lon="11.809894441">
		<tag k="name" v="Nylenda" />
		<tag k="place" v="farm" />
		<tag k="ssr:stedsnr" v="429390" />
	</node>
	<node id="-13860" lat="59.76346389" lon="11.8214250083">
		<tag k="name" v="Bråten" />
		<tag k="place" v="farm" />
		<tag k="ssr:stedsnr" v="429382" />
	</node>
	<node id="-13859" lat="59.7498000028" lon="11.7134111172">
		<tag k="fixme" v="multiple name tags, choose one and add the other to alt_name; consider natural=peak for the most distinct mountains in the district" />
		<tag k="name" v="Grevlingkulkulten;Lønnedalshøgda" />
		<tag k="natural" v="hill" />
		<tag k="place" v="locality" />
		<tag k="ssr:stedsnr" v="429371" />
	</node>
	<node id="-13858" lat="59.7552750019" lon="11.8175694496">
		<tag k="fixme" v="consider place=hamlet" />
		<tag k="loc_name" v="Trandem" />
		<tag k="name" v="Trandum" />
		<tag k="place" v="farm" />
		<tag k="ssr:stedsnr" v="429360" />
	</node>
	<node id="-13857" lat="59.6935613936" lon="11.6825143616">
		<tag k="alt_name" v="Vesle-Risen" />
		<tag k="name" v="Vesle Risen" />
		<tag k="natural" v="water" />
		<tag k="ssr:stedsnr" v="429341" />
		<tag k="water" v="lake" />
	</node>
	<node id="-13856" lat="59.6775958565" lon="11.6711714547">
		<tag k="alt_name" v="Langtjennet" />
		<tag k="loc_name" v="Det lange tjennet" />
		<tag k="name" v="Langtjenn" />
		<tag k="natural" v="water" />
		<tag k="ssr:stedsnr" v="429333" />
	</node>
	<node id="-13855" lat="59.6968666649" lon="11.7789138873">
		<tag k="alt_name" v="Damtjennet" />
		<tag k="name" v="Damtjenn" />
		<tag k="natural" v="water" />
		<tag k="ssr:stedsnr" v="429292" />
	</node>
	<node id="-13854" lat="59.743105558" lon="11.9175638878">
		<tag k="alt_name" v="Ertevasslia" />
		<tag k="fixme" v="consider natural=peak for the most distinct mountains in the district" />
		<tag k="name" v="Ertevassliene" />
		<tag k="natural" v="hill" />
		<tag k="place" v="locality" />
		<tag k="ssr:stedsnr" v="429419" />
	</node>
	<node id="-13853" lat="59.7242703255" lon="11.9083982306">
		<tag k="fixme" v="multiple name tags, choose one and add the other to alt_name; consider natural=peak for the most distinct mountains in the district" />
		<tag k="name" v="Dansarberget;Østtukuhea" />
		<tag k="natural" v="hill" />
		<tag k="place" v="locality" />
		<tag k="ssr:stedsnr" v="429411" />
	</node>
	<node id="-13852" lat="59.7271388888" lon="11.9360999925">
		<tag k="alt_name" v="Fjørbekktjennet" />
		<tag k="name" v="Fjørbekktjenn" />
		<tag k="natural" v="water" />
		<tag k="ssr:stedsnr" v="429409" />
	</node>
	<node id="-13851" lat="59.6700246235" lon="11.8730448292">
		<tag k="fixme" v="multiple name tags, choose one and add the other to alt_name" />
		<tag k="name" v="Porstjennet;Søndre Porstjenn" />
		<tag k="natural" v="water" />
		<tag k="ssr:stedsnr" v="429058" />
	</node>
	<node id="-13850" lat="59.7195194424" lon="11.8342638841">
		<tag k="alt_name" v="Kurøen" />
		<tag k="name" v="Kurøy" />
		<tag k="place" v="farm" />
		<tag k="ssr:stedsnr" v="428614" />
	</node>
	<node id="-13849" lat="59.7324194459" lon="11.794369453">
		<tag k="name" v="Bjørnøya" />
		<tag k="place" v="island" />
		<tag k="ssr:stedsnr" v="428595" />
	</node>
	<node id="-13848" lat="59.6589805553" lon="11.8340694512">
		<tag k="name" v="Oselva" />
		<tag k="ssr:stedsnr" v="428240" />
		<tag k="waterway" v="river" />
	</node>
	<node id="-13847" lat="59.6505701534" lon="11.8161078287">
		<tag k="fixme" v="multiple name tags, choose one and add the other to alt_name; consider natural=peak for the most distinct mountains in the district" />
		<tag k="name" v="Flatahøgda;Nybruhøgda" />
		<tag k="natural" v="hill" />
		<tag k="place" v="locality" />
		<tag k="ssr:stedsnr" v="428232" />
	</node>
	<node id="-13846" lat="59.6538999968" lon="11.7806638891">
		<tag k="name" v="Morttjenn" />
		<tag k="natural" v="water" />
		<tag k="ssr:stedsnr" v="428229" />
	</node>
	<node id="-13845" lat="59.6519194459" lon="11.8519555502">
		<tag k="alt_name" v="Flaten" />
		<tag k="name" v="Flatahaugen" />
		<tag k="place" v="farm" />
		<tag k="ssr:stedsnr" v="423118" />
	</node>
	<node id="-13844" lat="59.6721194402" lon="11.8749361174">
		<tag k="name" v="Nordre Porstjenn" />
		<tag k="natural" v="water" />
		<tag k="ssr:stedsnr" v="415836" />
	</node>
	<node id="-13843" lat="59.7044277742" lon="11.9379138912">
		<tag k="name" v="Klommedammen" />
		<tag k="ssr:stedsnr" v="415806" />
		<tag k="waterway" v="dam" />
	</node>
	<node id="-13842" lat="59.7492361091" lon="11.8734611133">
		<tag k="name" v="Abborvik" />
		<tag k="natural" v="bay" />
		<tag k="ssr:stedsnr" v="415803" />
	</node>
	<node id="-13841" lat="59.759336115" lon="11.8165527845">
		<tag k="name" v="Storhølen" />
		<tag k="place" v="locality" />
		<tag k="ssr:stedsnr" v="415802" />
	</node>
	<node id="-13840" lat="59.7898027779" lon="11.9211611054">
		<tag k="name" v="Abbortjenn" />
		<tag k="natural" v="water" />
		<tag k="ssr:stedsnr" v="415800" />
	</node>
	<node id="-13839" lat="59.724605557" lon="11.7187166612">
		<tag k="name" v="Elgesund" />
		<tag k="natural" v="strait" />
		<tag k="ssr:stedsnr" v="415797" />
	</node>
	<node id="-13838" lat="59.7071416708" lon="11.7411416615">
		<tag k="name" v="Høgmobrenna" />
		<tag k="place" v="locality" />
		<tag k="ssr:stedsnr" v="415264" />
	</node>
	<node id="-13837" lat="59.712636114" lon="11.7214249992">
		<tag k="name" v="Vortungskoia" />
		<tag k="place" v="locality" />
		<tag k="ssr:stedsnr" v="415263" />
	</node>
	<node id="-13836" lat="59.7435166697" lon="11.7339777799">
		<tag k="name" v="Bottdalen" />
		<tag k="natural" v="valley" />
		<tag k="place" v="locality" />
		<tag k="ssr:stedsnr" v="415257" />
	</node>
	<node id="-13835" lat="59.7115138847" lon="11.747636105">
		<tag k="name" v="Klokkardalen" />
		<tag k="natural" v="valley" />
		<tag k="place" v="locality" />
		<tag k="ssr:stedsnr" v="415252" />
	</node>
	<node id="-13834" lat="59.6472500038" lon="11.7208277865">
		<tag k="name" v="Lindedråga" />
		<tag k="place" v="locality" />
		<tag k="ssr:stedsnr" v="415230" />
	</node>
	<node id="-13833" lat="59.6619111133" lon="11.8424499986">
		<tag k="name" v="Oshagan" />
		<tag k="place" v="locality" />
		<tag k="ssr:stedsnr" v="415207" />
	</node>
	<node id="-13832" lat="59.6452583322" lon="11.7632111065">
		<tag k="name" v="Haugerberget" />
		<tag k="place" v="isolated_dwelling" />
		<tag k="ssr:stedsnr" v="415197" />
	</node>
	<node id="-13831" lat="59.7162944457" lon="11.7355944528">
		<tag k="name" v="Torvetjennsetra" />
		<tag k="place" v="locality" />
		<tag k="ssr:stedsnr" v="415188" />
	</node>
	<node id="-13830" lat="59.7523916633" lon="11.9158083287">
		<tag k="name" v="Nordre Røvassdalen" />
		<tag k="natural" v="valley" />
		<tag k="place" v="locality" />
		<tag k="ssr:stedsnr" v="415175" />
	</node>
	<node id="-13829" lat="59.6849944449" lon="11.7824249926">
		<tag k="fixme" v="consider natural=peak for the most distinct mountains in the district" />
		<tag k="name" v="Nordre Buhøgda" />
		<tag k="natural" v="hill" />
		<tag k="place" v="locality" />
		<tag k="ssr:stedsnr" v="415161" />
	</node>
	<node id="-13828" lat="59.7505055533" lon="11.8348777823">
		<tag k="name" v="Trytjennmåsån" />
		<tag k="natural" v="wetland" />
		<tag k="ssr:stedsnr" v="415157" />
	</node>
	<node id="-13827" lat="59.759008331" lon="11.7830611101">
		<tag k="name" v="Lindeberga" />
		<tag k="place" v="locality" />
		<tag k="ssr:stedsnr" v="415152" />
	</node>
	<node id="-13826" lat="59.7517166695" lon="11.8544611128">
		<tag k="name" v="Hellingstjennsetra" />
		<tag k="place" v="locality" />
		<tag k="ssr:stedsnr" v="415134" />
	</node>
	<node id="-13825" lat="59.6854722215" lon="11.6748499977">
		<tag k="name" v="Blekketjenn" />
		<tag k="natural" v="water" />
		<tag k="ssr:stedsnr" v="415118" />
	</node>
	<node id="-13824" lat="59.6474083361" lon="11.7990833292">
		<tag k="name" v="Grasdalen" />
		<tag k="natural" v="valley" />
		<tag k="place" v="locality" />
		<tag k="ssr:stedsnr" v="415106" />
	</node>
	<node id="-13823" lat="59.7332500008" lon="11.7129749918">
		<tag k="name" v="Tjennet i Abbormåsån" />
		<tag k="natural" v="water" />
		<tag k="ssr:stedsnr" v="415092" />
	</node>
	<node id="-13822" lat="59.7411805546" lon="11.6904444516">
		<tag k="highway" v="path" />
		<tag k="name" v="Stemningen" />
		<tag k="ssr:stedsnr" v="415091" />
	</node>
	<node id="-13821" lat="59.6682000042" lon="11.7230250007">
		<tag k="fixme" v="consider natural=peak for the most distinct mountains in the district" />
		<tag k="name" v="Langvassdrågene" />
		<tag k="natural" v="hill" />
		<tag k="place" v="locality" />
		<tag k="ssr:stedsnr" v="415079" />
	</node>
	<node id="-13820" lat="59.6281777757" lon="11.722372217">
		<tag k="name" v="Slamåsån" />
		<tag k="natural" v="wetland" />
		<tag k="ssr:stedsnr" v="415074" />
	</node>
	<node id="-13819" lat="59.6794499985" lon="11.8737861066">
		<tag k="name" v="Fagerlisetra" />
		<tag k="place" v="locality" />
		<tag k="ssr:stedsnr" v="415067" />
	</node>
	<node id="-13818" lat="59.6592916669" lon="11.8321972158">
		<tag k="name" v="Fjøsdalsvelta" />
		<tag k="place" v="locality" />
		<tag k="ssr:stedsnr" v="415055" />
	</node>
	<node id="-13817" lat="59.7031138867" lon="11.6961166634">
		<tag k="name" v="Oretjenn" />
		<tag k="natural" v="water" />
		<tag k="ssr:stedsnr" v="415034" />
	</node>
	<node id="-13816" lat="59.7440138868" lon="11.7509805602">
		<tag k="highway" v="path" />
		<tag k="name" v="Stemningen" />
		<tag k="ssr:stedsnr" v="415030" />
	</node>
	<node id="-13815" lat="59.7178055587" lon="11.8462861087">
		<tag k="name" v="Bjørnodden" />
		<tag k="natural" v="cape" />
		<tag k="ssr:stedsnr" v="415021" />
	</node>
	<node id="-13814" lat="59.7404111095" lon="11.8532999981">
		<tag k="name" v="Søndre Gryttjenndalen" />
		<tag k="natural" v="valley" />
		<tag k="place" v="locality" />
		<tag k="ssr:stedsnr" v="415015" />
	</node>
	<node id="-13813" lat="59.72075" lon="11.8045527692">
		<tag k="name" v="Nordre Haukenes" />
		<tag k="place" v="farm" />
		<tag k="ssr:stedsnr" v="415008" />
	</node>
	<node id="-13812" lat="59.7406249983" lon="11.7944555516">
		<tag k="fixme" v="consider natural=peak for the most distinct mountains in the district" />
		<tag k="name" v="Grinneberga" />
		<tag k="natural" v="hill" />
		<tag k="place" v="locality" />
		<tag k="ssr:stedsnr" v="415006" />
	</node>
	<node id="-13811" lat="59.7390111131" lon="11.7714833371">
		<tag k="name" v="Lyshea" />
		<tag k="place" v="locality" />
		<tag k="ssr:stedsnr" v="415003" />
	</node>
	<node id="-13810" lat="59.770983333" lon="11.8197777692">
		<tag k="alt_name" v="Sør-Klubben" />
		<tag k="name" v="Sørklubben" />
		<tag k="place" v="farm" />
		<tag k="ssr:stedsnr" v="248407" />
	</node>
	<node id="-13809" lat="59.7674777819" lon="11.8909361199">
		<tag k="fixme" v="consider natural=peak for the most distinct mountains in the district" />
		<tag k="name" v="Kula" />
		<tag k="natural" v="hill" />
		<tag k="place" v="locality" />
		<tag k="ssr:stedsnr" v="248232" />
	</node>
	<node id="-13808" lat="59.7676738795" lon="11.8874697724">
		<tag k="name" v="Søndre Kuletjenn" />
		<tag k="natural" v="water" />
		<tag k="ssr:stedsnr" v="248231" />
	</node>
	<node id="-13807" lat="59.7822388854" lon="11.9182888816">
		<tag k="alt_name" v="Finnemåsan" />
		<tag k="name" v="Finnmåsan" />
		<tag k="natural" v="wetland" />
		<tag k="ssr:stedsnr" v="248228" />
	</node>
	<node id="-13806" lat="59.7900305523" lon="11.9210027815">
		<tag k="alt_name" v="Abbortjenn" />
		<tag k="name" v="Åbbortjenn" />
		<tag k="natural" v="water" />
		<tag k="ssr:stedsnr" v="248222" />
		<tag k="water" v="lake" />
	</node>
	<node id="-13805" lat="59.779888893" lon="11.836974995">
		<tag k="alt_name" v="Bumosen" />
		<tag k="name" v="Bumåsan" />
		<tag k="natural" v="wetland" />
		<tag k="ssr:stedsnr" v="247414" />
	</node>
	<node id="-13804" lat="59.7369420579" lon="11.9097135514">
		<tag k="name" v="Ertevannet" />
		<tag k="natural" v="water" />
		<tag k="ssr:stedsnr" v="247402" />
		<tag k="water" v="lake" />
	</node>
	<node id="-13803" lat="59.7240833301" lon="11.8788444488">
		<tag k="name" v="Hestesprengen" />
		<tag k="natural" v="water" />
		<tag k="ssr:stedsnr" v="247399" />
	</node>
	<node id="-13802" lat="59.7646500043" lon="11.7805194419">
		<tag k="fixme" v="consider natural=peak for the most distinct mountains in the district" />
		<tag k="name" v="Svarvestolåsen" />
		<tag k="natural" v="hill" />
		<tag k="place" v="locality" />
		<tag k="ssr:stedsnr" v="247389" />
	</node>
	<node id="-13801" lat="59.7543972235" lon="11.8310055476">
		<tag k="fixme" v="consider natural=peak for the most distinct mountains in the district" />
		<tag k="name" v="Klinten" />
		<tag k="natural" v="hill" />
		<tag k="place" v="locality" />
		<tag k="ssr:stedsnr" v="247363" />
	</node>
	<node id="-13800" lat="59.7487772403" lon="11.886278738">
		<tag k="alt_name" v="Stangebrøt" />
		<tag k="name" v="Stangebrot" />
		<tag k="natural" v="water" />
		<tag k="ssr:stedsnr" v="247359" />
		<tag k="water" v="lake" />
	</node>
	<node id="-13799" lat="59.6913916699" lon="11.8425999976">
		<tag k="name" v="Kisteholmen" />
		<tag k="place" v="islet" />
		<tag k="ssr:stedsnr" v="247354" />
	</node>
	<node id="-13798" lat="59.6794416651" lon="11.7264416602">
		<tag k="name" v="Eikelitjenn" />
		<tag k="natural" v="water" />
		<tag k="ssr:stedsnr" v="247321" />
	</node>
	<node id="-13797" lat="59.697066667" lon="11.7374222142">
		<tag k="alt_name" v="Slommetjenn" />
		<tag k="name" v="Slomtjenn" />
		<tag k="natural" v="water" />
		<tag k="ssr:stedsnr" v="247302" />
	</node>
	<node id="-13796" lat="59.6594555549" lon="11.860655549">
		<tag k="name" v="Enger" />
		<tag k="place" v="farm" />
		<tag k="ssr:stedsnr" v="247057" />
	</node>
	<node id="-13795" lat="59.7300388919" lon="11.7965027791">
		<tag k="name" v="Lonkøya" />
		<tag k="place" v="islet" />
		<tag k="ssr:stedsnr" v="246596" />
	</node>
	<node id="-13794" lat="59.6757666628" lon="11.8006333321">
		<tag k="name" v="Bekkenga" />
		<tag k="place" v="locality" />
		<tag k="ssr:stedsnr" v="246265" />
	</node>
	<node id="-13793" lat="59.6713138867" lon="11.8266694376">
		<tag k="name" v="Otnestangen" />
		<tag k="natural" v="cape" />
		<tag k="ssr:stedsnr" v="246262" />
	</node>
	<node id="-13792" lat="59.6727972188" lon="11.6796305606">
		<tag k="fixme" v="consider boundary=protected_area and relevant protect_class if not nature reserve" />
		<tag k="leisure" v="nature_reserve" />
		<tag k="name" v="Bleiken naturreservat" />
		<tag k="ssr:stedsnr" v="235099" />
	</node>
	<node id="-13791" lat="59.696633337" lon="11.8109972239">
		<tag k="name" v="Nesmåsan" />
		<tag k="natural" v="wetland" />
		<tag k="ssr:stedsnr" v="233185" />
	</node>
	<node id="-13790" lat="59.7740472245" lon="11.88810278">
		<tag k="name" v="Gammelsetra" />
		<tag k="place" v="locality" />
		<tag k="ssr:stedsnr" v="233184" />
	</node>
	<node id="-13789" lat="59.7365805598" lon="11.8130000043">
		<tag k="name" v="Vestre Bøen" />
		<tag k="place" v="farm" />
		<tag k="ssr:stedsnr" v="233180" />
	</node>
	<node id="-13788" lat="59.6906416641" lon="11.7724611095">
		<tag k="name" v="Trytjennmåsan" />
		<tag k="natural" v="wetland" />
		<tag k="ssr:stedsnr" v="233174" />
	</node>
	<node id="-13787" lat="59.6968833332" lon="11.7259222242">
		<tag k="name" v="Svarttjenn" />
		<tag k="natural" v="water" />
		<tag k="ssr:stedsnr" v="233129" />
	</node>
	<node id="-13786" lat="59.6510583379" lon="11.8228749916">
		<tag k="name" v="Moltemåsamyr" />
		<tag k="natural" v="wetland" />
		<tag k="ssr:stedsnr" v="233121" />
	</node>
	<node id="-13785" lat="59.7028666695" lon="11.7941861105">
		<tag k="highway" v="path" />
		<tag k="name" v="Moveien" />
		<tag k="ssr:stedsnr" v="233120" />
	</node>
	<node id="-13784" lat="59.7167555584" lon="11.8123666692">
		<tag k="name" v="Kjeldsholmen" />
		<tag k="place" v="island" />
		<tag k="ssr:stedsnr" v="233112" />
	</node>
	<node id="-13783" lat="59.7066777745" lon="11.7490527855">
		<tag k="name" v="Merraskrottmyra" />
		<tag k="natural" v="wetland" />
		<tag k="ssr:stedsnr" v="233102" />
	</node>
	<node id="-13782" lat="59.668847225" lon="11.7889166676">
		<tag k="fixme" v="consider natural=peak for the most distinct mountains in the district" />
		<tag k="name" v="Brennebrannshøgda" />
		<tag k="natural" v="hill" />
		<tag k="place" v="locality" />
		<tag k="ssr:stedsnr" v="233083" />
	</node>
	<node id="-13781" lat="59.651611114" lon="11.7622416664">
		<tag k="name" v="Korsbybekken" />
		<tag k="ssr:stedsnr" v="233072" />
		<tag k="waterway" v="stream" />
	</node>
	<node id="-13780" lat="59.6504361074" lon="11.7558249912">
		<tag k="name" v="Fallsbekken" />
		<tag k="ssr:stedsnr" v="233071" />
		<tag k="waterway" v="stream" />
	</node>
	<node id="-13779" lat="59.6380249972" lon="11.7207027745">
		<tag k="name" v="Torvehauga" />
		<tag k="place" v="locality" />
		<tag k="ssr:stedsnr" v="233068" />
	</node>
	<node id="-13778" lat="59.6586805596" lon="11.8101611192">
		<tag k="name" v="Røgdebråtan" />
		<tag k="place" v="locality" />
		<tag k="ssr:stedsnr" v="233063" />
	</node>
	<node id="-13777" lat="59.744752778" lon="11.8681083415">
		<tag k="name" v="Øvre Kleivetjenn" />
		<tag k="natural" v="water" />
		<tag k="ssr:stedsnr" v="233058" />
	</node>
	<node id="-13776" lat="59.6989611148" lon="11.8615749936">
		<tag k="name" v="Øvre Ringsby" />
		<tag k="place" v="farm" />
		<tag k="ssr:stedsnr" v="233050" />
	</node>
	<node id="-13775" lat="59.7463416701" lon="11.8044555516">
		<tag k="fixme" v="specify shooting=range, clay_pigeon etc" />
		<tag k="leisure" v="pitch" />
		<tag k="name" v="Skytterhuset" />
		<tag k="sport" v="shooting" />
		<tag k="ssr:stedsnr" v="233035" />
	</node>
	<node id="-13774" lat="59.6845555549" lon="11.7603361044">
		<tag k="name" v="Slavassbakken" />
		<tag k="place" v="locality" />
		<tag k="ssr:stedsnr" v="233022" />
	</node>
	<node id="-13773" lat="59.7064666658" lon="11.8503555503">
		<tag k="name" v="Olasholmen" />
		<tag k="place" v="islet" />
		<tag k="ssr:stedsnr" v="233019" />
	</node>
	<node id="-13772" lat="59.7371666629" lon="11.767344449">
		<tag k="name" v="Kopperudelva" />
		<tag k="ssr:stedsnr" v="232771" />
		<tag k="waterway" v="river" />
	</node>
	<node id="-13771" lat="59.7228055557" lon="11.7223055471">
		<tag k="name" v="Smalsund" />
		<tag k="natural" v="strait" />
		<tag k="ssr:stedsnr" v="232755" />
	</node>
	<node id="-13770" lat="59.635830556" lon="11.7526222233">
		<tag k="name" v="Hølsetertjenna" />
		<tag k="natural" v="water" />
		<tag k="ssr:stedsnr" v="232756" />
	</node>
	<node id="-13769" lat="59.7240888846" lon="11.7336694483">
		<tag k="name" v="Furusund" />
		<tag k="natural" v="strait" />
		<tag k="ssr:stedsnr" v="232740" />
	</node>
	<node id="-13768" lat="59.6748638845" lon="11.6808250002">
		<tag k="name" v="Nordre Bleiketjenn" />
		<tag k="natural" v="water" />
		<tag k="ssr:stedsnr" v="232734" />
	</node>
	<node id="-13767" lat="59.6902277812" lon="11.6702888817">
		<tag k="name" v="Vesle Løken" />
		<tag k="natural" v="water" />
		<tag k="ssr:stedsnr" v="232722" />
	</node>
	<node id="-13766" lat="59.7105611119" lon="11.9335972258">
		<tag k="name" v="Hellehøldammen" />
		<tag k="ssr:stedsnr" v="232721" />
		<tag k="waterway" v="dam" />
	</node>
	<node id="-13765" lat="59.7378472237" lon="11.9334250059">
		<tag k="name" v="Sotebrufossen" />
		<tag k="natural" v="waterfall" />
		<tag k="ssr:stedsnr" v="232718" />
	</node>
	<node id="-13764" lat="59.7442055582" lon="11.8807361159">
		<tag k="name" v="Langevik" />
		<tag k="natural" v="bay" />
		<tag k="ssr:stedsnr" v="232715" />
	</node>
	<node id="-13763" lat="59.6789944431" lon="11.8013277853">
		<tag k="name" v="Bakkenga" />
		<tag k="place" v="locality" />
		<tag k="ssr:stedsnr" v="232220" />
	</node>
	<node id="-13762" lat="59.6538638919" lon="11.7250027868">
		<tag k="name" v="Graverdalen" />
		<tag k="natural" v="valley" />
		<tag k="place" v="locality" />
		<tag k="ssr:stedsnr" v="232216" />
	</node>
	<node id="-13761" lat="59.6485583365" lon="11.720988883">
		<tag k="name" v="Bjørndalen" />
		<tag k="natural" v="valley" />
		<tag k="place" v="locality" />
		<tag k="ssr:stedsnr" v="232214" />
	</node>
	<node id="-13760" lat="59.665827777" lon="11.7620972181">
		<tag k="name" v="Hagasetra" />
		<tag k="place" v="locality" />
		<tag k="ssr:stedsnr" v="232209" />
	</node>
	<node id="-13759" lat="59.6586833336" lon="11.7605694507">
		<tag k="name" v="Vestre Slorebekk" />
		<tag k="ssr:stedsnr" v="232208" />
		<tag k="waterway" v="stream" />
	</node>
	<node id="-13758" lat="59.6750222262" lon="11.777741673">
		<tag k="name" v="Gørrtjenn" />
		<tag k="natural" v="water" />
		<tag k="ssr:stedsnr" v="232205" />
	</node>
	<node id="-13757" lat="59.640483333" lon="11.7689055499">
		<tag k="name" v="Dyvlene" />
		<tag k="natural" v="water" />
		<tag k="ssr:stedsnr" v="232200" />
	</node>
	<node id="-13756" lat="59.644086113" lon="11.7543999996">
		<tag k="fixme" v="consider natural=peak for the most distinct mountains in the district" />
		<tag k="name" v="Fallsåsen" />
		<tag k="natural" v="hill" />
		<tag k="place" v="locality" />
		<tag k="ssr:stedsnr" v="232198" />
	</node>
	<node id="-13755" lat="59.752025" lon="11.8993777714">
		<tag k="name" v="Jørnesetra" />
		<tag k="place" v="locality" />
		<tag k="ssr:stedsnr" v="232180" />
	</node>
	<node id="-13754" lat="59.7444583352" lon="11.8605888851">
		<tag k="name" v="Kleiva" />
		<tag k="place" v="locality" />
		<tag k="ssr:stedsnr" v="232177" />
	</node>
	<node id="-13753" lat="59.7640361074" lon="11.8745722172">
		<tag k="name" v="Dypilmåsån" />
		<tag k="natural" v="wetland" />
		<tag k="ssr:stedsnr" v="232174" />
	</node>
	<node id="-13752" lat="59.7395777748" lon="11.8635361082">
		<tag k="name" v="Torvetjenn" />
		<tag k="natural" v="water" />
		<tag k="ssr:stedsnr" v="232166" />
	</node>
	<node id="-13751" lat="59.7417166648" lon="11.8337249945">
		<tag k="name" v="Høgemoen" />
		<tag k="place" v="locality" />
		<tag k="ssr:stedsnr" v="232148" />
	</node>
	<node id="-13750" lat="59.7830333337" lon="11.8092305556">
		<tag k="name" v="Engene" />
		<tag k="place" v="locality" />
		<tag k="ssr:stedsnr" v="232138" />
	</node>
	<node id="-13749" lat="59.7256416654" lon="11.8437333416">
		<tag k="fixme" v="consider natural=peak for the most distinct mountains in the district" />
		<tag k="name" v="Ufredshøgda" />
		<tag k="natural" v="hill" />
		<tag k="place" v="locality" />
		<tag k="ssr:stedsnr" v="232131" />
	</node>
	<node id="-13748" lat="59.7080583359" lon="11.8843861137">
		<tag k="name" v="Kjørestuhaget" />
		<tag k="place" v="locality" />
		<tag k="ssr:stedsnr" v="232124" />
	</node>
	<node id="-13747" lat="59.7160805552" lon="11.7564111178">
		<tag k="fixme" v="consider tourism=alpine_hut or tourism=chalet" />
		<tag k="name" v="Haukenestårnet" />
		<tag k="ssr:stedsnr" v="223195" />
		<tag k="tourism" v="wilderness_hut" />
	</node>
	<node id="-13746" lat="59.7782416701" lon="11.8564583307">
		<tag k="fixme" v="consider natural=peak for the most distinct mountains in the district" />
		<tag k="name" v="Slottet" />
		<tag k="natural" v="hill" />
		<tag k="place" v="locality" />
		<tag k="ssr:stedsnr" v="188247" />
	</node>
	<node id="-13745" lat="59.7840805518" lon="11.8404305505">
		<tag k="alt_name" v="Sæterøremosen" />
		<tag k="name" v="Seterøremåsan" />
		<tag k="natural" v="wetland" />
		<tag k="ssr:stedsnr" v="187409" />
	</node>
	<node id="-13744" lat="59.7465388897" lon="11.8254277744">
		<tag k="name" v="Myrvoll" />
		<tag k="place" v="farm" />
		<tag k="ssr:stedsnr" v="186705" />
	</node>
	<node id="-13743" lat="59.7368972209" lon="11.8612416697">
		<tag k="alt_name" v="Bastetjenn" />
		<tag k="name" v="Bastetjennet" />
		<tag k="natural" v="water" />
		<tag k="ssr:stedsnr" v="186477" />
	</node>
	<node id="-13742" lat="59.729794445" lon="11.9148166587">
		<tag k="name" v="Ertevassmåsan" />
		<tag k="natural" v="wetland" />
		<tag k="ssr:stedsnr" v="186472" />
	</node>
	<node id="-13741" lat="59.7049249967" lon="11.8883749961">
		<tag k="alt_name" v="Gåsa, store" />
		<tag k="name" v="Store Gåsa" />
		<tag k="natural" v="water" />
		<tag k="ssr:stedsnr" v="186462" />
	</node>
	<node id="-13740" lat="59.7067277768" lon="11.9333500026">
		<tag k="name" v="Teigen" />
		<tag k="place" v="isolated_dwelling" />
		<tag k="ssr:stedsnr" v="186455" />
	</node>
	<node id="-13739" lat="59.7634472253" lon="11.816722227">
		<tag k="name" v="Haugen" />
		<tag k="place" v="farm" />
		<tag k="ssr:stedsnr" v="186449" />
	</node>
	<node id="-13738" lat="59.7594416679" lon="11.793925006">
		<tag k="alt_name" v="Nedre Auretjenn" />
		<tag k="name" v="Auretjenna" />
		<tag k="natural" v="water" />
		<tag k="ssr:stedsnr" v="186442" />
	</node>
	<node id="-13737" lat="59.7528250039" lon="11.7809250046">
		<tag k="name" v="Øremåsåhøgda" />
		<tag k="natural" v="hill" />
		<tag k="place" v="locality" />
		<tag k="ssr:stedsnr" v="186413" />
	</node>
	<node id="-13736" lat="59.7548250019" lon="11.8199833275">
		<tag k="alt_name" v="Moen, øvre" />
		<tag k="name" v="Øvre Moen" />
		<tag k="place" v="farm" />
		<tag k="ssr:stedsnr" v="186403" />
	</node>
	<node id="-13735" lat="59.6874222205" lon="11.7632916597">
		<tag k="alt_name" v="Kavlebrumosen" />
		<tag k="name" v="Kavlebrumåsan" />
		<tag k="natural" v="wetland" />
		<tag k="ssr:stedsnr" v="186380" />
	</node>
	<node id="-13734" lat="59.7054166704" lon="11.8101305608">
		<tag k="name" v="Hagaholmen" />
		<tag k="place" v="islet" />
		<tag k="ssr:stedsnr" v="186352" />
	</node>
	<node id="-13733" lat="59.7089805513" lon="11.8303805621">
		<tag k="alt_name" v="Store-Tjuven;Storetjuven" />
		<tag k="name" v="Tjuven" />
		<tag k="place" v="islet" />
		<tag k="ssr:stedsnr" v="186350" />
	</node>
	<node id="-13732" lat="59.7020092549" lon="11.7048611249">
		<tag k="alt_name" v="Langtjennet" />
		<tag k="name" v="Langtjenn" />
		<tag k="natural" v="water" />
		<tag k="ssr:stedsnr" v="186325" />
		<tag k="water" v="lake" />
	</node>
	<node id="-13731" lat="59.644508331" lon="11.7823138922">
		<tag k="name" v="Østre Rømungen" />
		<tag k="natural" v="water" />
		<tag k="ssr:stedsnr" v="186306" />
		<tag k="water" v="lake" />
	</node>
	<node id="-13730" lat="59.6753372729" lon="11.7578607655">
		<tag k="fixme" v="multiple name tags, choose one and add the other to alt_name" />
		<tag k="name" v="Karsbytjenn;Nordre Karsbytjenn" />
		<tag k="natural" v="water" />
		<tag k="ssr:stedsnr" v="185255" />
	</node>
	<node id="-13729" lat="59.7438333292" lon="11.8906916651">
		<tag k="name" v="Øvre Statjenndammen" />
		<tag k="ssr:stedsnr" v="172812" />
		<tag k="waterway" v="dam" />
	</node>
	<node id="-13728" lat="59.6526916696" lon="11.7766749918">
		<tag k="fixme" v="consider natural=peak for the most distinct mountains in the district" />
		<tag k="name" v="Morttjennåsen" />
		<tag k="natural" v="hill" />
		<tag k="place" v="locality" />
		<tag k="ssr:stedsnr" v="172185" />
	</node>
	<node id="-13727" lat="59.6539833361" lon="11.836274996">
		<tag k="name" v="Kornbråtan" />
		<tag k="place" v="locality" />
		<tag k="ssr:stedsnr" v="172182" />
	</node>
	<node id="-13726" lat="59.6786333325" lon="11.7930722137">
		<tag k="name" v="Lenkeberga" />
		<tag k="place" v="locality" />
		<tag k="ssr:stedsnr" v="172241" />
	</node>
	<node id="-13725" lat="59.7618444433" lon="11.774283325">
		<tag k="name" v="Hundekulpen" />
		<tag k="natural" v="water" />
		<tag k="ssr:stedsnr" v="172230" />
	</node>
	<node id="-13724" lat="59.6615833373" lon="11.7881722271">
		<tag k="name" v="Myrtaumyra" />
		<tag k="natural" v="wetland" />
		<tag k="ssr:stedsnr" v="172213" />
	</node>
	<node id="-13723" lat="59.6685999958" lon="11.763161114">
		<tag k="name" v="Trytjenndalen" />
		<tag k="natural" v="valley" />
		<tag k="place" v="locality" />
		<tag k="ssr:stedsnr" v="172208" />
	</node>
	<node id="-13722" lat="59.6562694467" lon="11.8514722256">
		<tag k="name" v="Nord Flaten" />
		<tag k="place" v="locality" />
		<tag k="ssr:stedsnr" v="172205" />
	</node>
	<node id="-13721" lat="59.7737583338" lon="11.9112777826">
		<tag k="name" v="Kløften" />
		<tag k="place" v="islet" />
		<tag k="ssr:stedsnr" v="172150" />
	</node>
	<node id="-13720" lat="59.6892222208" lon="11.7079555604">
		<tag k="fixme" v="consider natural=peak for the most distinct mountains in the district" />
		<tag k="name" v="Hauga" />
		<tag k="natural" v="hill" />
		<tag k="place" v="locality" />
		<tag k="ssr:stedsnr" v="172148" />
	</node>
	<node id="-13719" lat="59.7589194485" lon="11.8259027806">
		<tag k="name" v="Lykkja" />
		<tag k="place" v="farm" />
		<tag k="ssr:stedsnr" v="172143" />
	</node>
	<node id="-13718" lat="59.7290472182" lon="11.8233083272">
		<tag k="fixme" v="consider natural=peak for the most distinct mountains in the district" />
		<tag k="name" v="Kjørkerudåsen" />
		<tag k="natural" v="hill" />
		<tag k="place" v="locality" />
		<tag k="ssr:stedsnr" v="172141" />
	</node>
	<node id="-13717" lat="59.7330388876" lon="11.8498055636">
		<tag k="name" v="Østre Lommetjenn" />
		<tag k="natural" v="water" />
		<tag k="ssr:stedsnr" v="172129" />
	</node>
	<node id="-13716" lat="59.6819916697" lon="11.7174111125">
		<tag k="name" v="Tollefsetermåsan" />
		<tag k="natural" v="wetland" />
		<tag k="ssr:stedsnr" v="172119" />
	</node>
	<node id="-13715" lat="59.688227779" lon="11.6863722172">
		<tag k="name" v="Bjørndalen" />
		<tag k="natural" v="valley" />
		<tag k="place" v="locality" />
		<tag k="ssr:stedsnr" v="172120" />
	</node>
	<node id="-13714" lat="59.7541749969" lon="11.8686500079">
		<tag k="name" v="Stutaue" />
		<tag k="natural" v="water" />
		<tag k="ssr:stedsnr" v="172092" />
	</node>
	<node id="-13713" lat="59.6496888892" lon="11.7327055575">
		<tag k="fixme" v="consider natural=peak for the most distinct mountains in the district" />
		<tag k="name" v="Kasthalla" />
		<tag k="natural" v="hill" />
		<tag k="place" v="locality" />
		<tag k="ssr:stedsnr" v="172090" />
	</node>
	<node id="-13712" lat="59.6574055566" lon="11.7244749939">
		<tag k="name" v="Storlia" />
		<tag k="natural" v="slope" />
		<tag k="place" v="locality" />
		<tag k="ssr:stedsnr" v="172086" />
	</node>
	<node id="-13711" lat="59.7482249957" lon="11.8756888945">
		<tag k="name" v="Gåntørkeodden" />
		<tag k="natural" v="cape" />
		<tag k="ssr:stedsnr" v="172051" />
	</node>
	<node id="-13710" lat="59.6894361075" lon="11.8579888804">
		<tag k="highway" v="path" />
		<tag k="name" v="Strandveien" />
		<tag k="ssr:stedsnr" v="172045" />
	</node>
	<node id="-13709" lat="59.7013555575" lon="11.8904749921">
		<tag k="junction" v="yes" />
		<tag k="name" v="Kubrua" />
		<tag k="place" v="locality" />
		<tag k="ssr:stedsnr" v="172038" />
	</node>
	<node id="-13708" lat="59.7698639112" lon="11.8907349741">
		<tag k="name" v="Nordre Kuletjenn" />
		<tag k="natural" v="water" />
		<tag k="ssr:stedsnr" v="172027" />
	</node>
	<node id="-13707" lat="59.7588194406" lon="11.8037916656">
		<tag k="name" v="Sandbekkekrene" />
		<tag k="place" v="locality" />
		<tag k="ssr:stedsnr" v="172024" />
	</node>
	<node id="-13706" lat="59.7322972228" lon="11.7745750068">
		<tag k="name" v="Kopperudsetra" />
		<tag k="place" v="farm" />
		<tag k="ssr:stedsnr" v="172006" />
	</node>
	<node id="-13705" lat="59.7269749964" lon="11.7844527841">
		<tag k="name" v="Nord-Ramberg" />
		<tag k="place" v="farm" />
		<tag k="ssr:stedsnr" v="172004" />
	</node>
	<node id="-13704" lat="59.6574111101" lon="11.8407194445">
		<tag k="name" v="Tyrihjellen" />
		<tag k="place" v="locality" />
		<tag k="ssr:stedsnr" v="172075" />
	</node>
	<node id="-13703" lat="59.6690611106" lon="11.7506416675">
		<tag k="fixme" v="consider natural=peak for the most distinct mountains in the district" />
		<tag k="name" v="Vesle Venås" />
		<tag k="natural" v="hill" />
		<tag k="place" v="locality" />
		<tag k="ssr:stedsnr" v="172064" />
	</node>
	<node id="-13702" lat="59.6525583364" lon="11.7342722306">
		<tag k="name" v="Kollemyra" />
		<tag k="natural" v="wetland" />
		<tag k="ssr:stedsnr" v="172063" />
	</node>
	<node id="-13701" lat="59.7472055545" lon="11.9235277728">
		<tag k="fixme" v="multiple name tags, choose one and add the other to alt_name" />
		<tag k="historic" v="boundary_stone" />
		<tag k="man_made" v="cairn" />
		<tag k="name" v="Røvassdammen;Øvre Langebekk" />
		<tag k="place" v="locality" />
		<tag k="ssr:stedsnr" v="171642" />
	</node>
	<node id="-13700" lat="59.6995750015" lon="11.9455249978">
		<tag k="historic" v="boundary_stone" />
		<tag k="man_made" v="cairn" />
		<tag k="name" v="Langebekk" />
		<tag k="place" v="locality" />
		<tag k="ssr:stedsnr" v="171637" />
	</node>
	<node id="-13699" lat="59.7434388878" lon="11.8845166611">
		<tag k="name" v="Roskifttjenn" />
		<tag k="natural" v="water" />
		<tag k="ssr:stedsnr" v="171165" />
	</node>
	<node id="-13698" lat="59.7583777747" lon="11.8646638872">
		<tag k="name" v="Vestre Dypilmåsan" />
		<tag k="natural" v="wetland" />
		<tag k="ssr:stedsnr" v="171157" />
	</node>
	<node id="-13697" lat="59.717527775" lon="11.9088777696">
		<tag k="name" v="Løftingstein" />
		<tag k="natural" v="stone" />
		<tag k="ssr:stedsnr" v="171111" />
	</node>
	<node id="-13696" lat="59.7001194448" lon="11.8666166624">
		<tag k="name" v="Innleggen" />
		<tag k="place" v="locality" />
		<tag k="ssr:stedsnr" v="171108" />
	</node>
	<node id="-13695" lat="59.6943305564" lon="11.9313749959">
		<tag k="alt_name" v="Tukusjø røys" />
		<tag k="historic" v="boundary_stone" />
		<tag k="man_made" v="cairn" />
		<tag k="name" v="Tukusjørøysa" />
		<tag k="old_name" v="Tuksiøe Røset" />
		<tag k="place" v="locality" />
		<tag k="ssr:stedsnr" v="170608" />
	</node>
	<node id="-13694" lat="59.7370222252" lon="11.8075361128">
		<tag k="bridge" v="yes" />
		<tag k="layer" v="1" />
		<tag k="name" v="Bøsund" />
		<tag k="ssr:stedsnr" v="167610" />
	</node>
	<node id="-13693" lat="59.6974763162" lon="11.8579010151">
		<tag k="name" v="Nedre Ringsby" />
		<tag k="old_name" v="Ringsbu" />
		<tag k="place" v="farm" />
		<tag k="ssr:stedsnr" v="161253" />
	</node>
	<node id="-13691" lat="59.7775750044" lon="11.8673388815">
		<tag k="name" v="Mauretjern" />
		<tag k="natural" v="water" />
		<tag k="ssr:stedsnr" v="127247" />
	</node>
	<node id="-13690" lat="59.7805166687" lon="11.8489361158">
		<tag k="name" v="Gjesstjenn" />
		<tag k="natural" v="water" />
		<tag k="ssr:stedsnr" v="127245" />
	</node>
	<node id="-13689" lat="59.7615194427" lon="11.8477083342">
		<tag k="name" v="Nordre Hellingstjenn" />
		<tag k="natural" v="water" />
		<tag k="old_name" v="Hellingstjernet, nordre;Nordre Hellingstjennet" />
		<tag k="ssr:stedsnr" v="127252" />
	</node>
	<node id="-13688" lat="59.7799111149" lon="11.8123694384">
		<tag k="alt_name" v="Trandumseter" />
		<tag k="loc_name" v="Trandumsetra" />
		<tag k="name" v="Trandumsætra" />
		<tag k="place" v="farm" />
		<tag k="ssr:stedsnr" v="126436" />
	</node>
	<node id="-13687" lat="59.7391250002" lon="11.7161388973">
		<tag k="name" v="Store Abbortjenn" />
		<tag k="natural" v="water" />
		<tag k="old_name" v="Abbortjern;Abbortjenn" />
		<tag k="ssr:stedsnr" v="125699" />
	</node>
	<node id="-13686" lat="59.73423056" lon="11.7565833315">
		<tag k="alt_name" v="Kattebuhea" />
		<tag k="fixme" v="consider natural=peak for the most distinct mountains in the district" />
		<tag k="name" v="Kattebuheia" />
		<tag k="natural" v="hill" />
		<tag k="place" v="locality" />
		<tag k="ssr:stedsnr" v="125697" />
	</node>
	<node id="-13685" lat="59.6863888886" lon="11.807669441">
		<tag k="name" v="Skillesvika" />
		<tag k="natural" v="bay" />
		<tag k="ssr:stedsnr" v="125380" />
	</node>
	<node id="-13684" lat="59.704255551" lon="11.7851083415">
		<tag k="fixme" v="consider natural=peak for the most distinct mountains in the district" />
		<tag k="name" v="Damtjennåsen" />
		<tag k="natural" v="hill" />
		<tag k="place" v="locality" />
		<tag k="ssr:stedsnr" v="125358" />
	</node>
	<node id="-13683" lat="59.7390250024" lon="11.8128277845">
		<tag k="name" v="Bøvika" />
		<tag k="natural" v="bay" />
		<tag k="ssr:stedsnr" v="124564" />
	</node>
	<node id="-13682" lat="59.7381194403" lon="11.7994249962">
		<tag k="name" v="Sand" />
		<tag k="place" v="farm" />
		<tag k="ssr:stedsnr" v="124562" />
	</node>
	<node id="-13681" lat="59.7379888875" lon="11.9261583287">
		<tag k="name" v="Orremåsan" />
		<tag k="natural" v="wetland" />
		<tag k="ssr:stedsnr" v="125449" />
	</node>
	<node id="-13680" lat="59.7109999996" lon="11.9055583259">
		<tag k="name" v="Bjørkedalen" />
		<tag k="natural" v="valley" />
		<tag k="place" v="locality" />
		<tag k="ssr:stedsnr" v="125438" />
	</node>
	<node id="-13679" lat="59.709519445" lon="11.8558083277">
		<tag k="name" v="Flesabekken" />
		<tag k="ssr:stedsnr" v="125435" />
		<tag k="waterway" v="stream" />
	</node>
	<node id="-13678" lat="59.7171111139" lon="11.9139277863">
		<tag k="name" v="Korsmåsan" />
		<tag k="natural" v="wetland" />
		<tag k="ssr:stedsnr" v="125432" />
	</node>
	<node id="-13677" lat="59.7614027766" lon="11.8291583335">
		<tag k="name" v="Igletjenn" />
		<tag k="natural" v="water" />
		<tag k="ssr:stedsnr" v="125418" />
	</node>
	<node id="-13676" lat="59.6403027807" lon="11.7600361077">
		<tag k="fixme" v="consider natural=peak for the most distinct mountains in the district" />
		<tag k="name" v="Oksetjennhøgda" />
		<tag k="natural" v="hill" />
		<tag k="place" v="locality" />
		<tag k="ssr:stedsnr" v="125330" />
	</node>
	<node id="-13675" lat="59.7695416683" lon="11.9319666672">
		<tag k="name" v="Vesle Strøtjenn" />
		<tag k="natural" v="water" />
		<tag k="ssr:stedsnr" v="111776" />
	</node>
	<node id="-13674" lat="59.7002194435" lon="11.93758056">
		<tag k="name" v="Kulpedammen" />
		<tag k="ssr:stedsnr" v="111771" />
		<tag k="waterway" v="dam" />
	</node>
	<node id="-13673" lat="59.7267361129" lon="11.8266722288">
		<tag k="name" v="Venemotjenna" />
		<tag k="natural" v="water" />
		<tag k="ssr:stedsnr" v="111769" />
	</node>
	<node id="-13672" lat="59.7267805524" lon="11.7805222155">
		<tag k="name" v="Fjøsvik" />
		<tag k="natural" v="bay" />
		<tag k="ssr:stedsnr" v="111765" />
	</node>
	<node id="-13671" lat="59.708202778" lon="11.937497225">
		<tag k="name" v="Systumodammen" />
		<tag k="ssr:stedsnr" v="111724" />
		<tag k="waterway" v="dam" />
	</node>
	<node id="-13670" lat="59.7151249991" lon="11.9360416665">
		<tag k="name" v="Laksehølen" />
		<tag k="place" v="locality" />
		<tag k="ssr:stedsnr" v="111720" />
	</node>
	<node id="-13669" lat="59.7121388902" lon="11.8506249988">
		<tag k="name" v="Setervika" />
		<tag k="natural" v="bay" />
		<tag k="ssr:stedsnr" v="111709" />
	</node>
	<node id="-13668" lat="59.709005559" lon="11.7776777711">
		<tag k="name" v="Gubberud" />
		<tag k="place" v="locality" />
		<tag k="ssr:stedsnr" v="111227" />
	</node>
	<node id="-13667" lat="59.7175416636" lon="11.8105277858">
		<tag k="name" v="Langtangen" />
		<tag k="natural" v="cape" />
		<tag k="ssr:stedsnr" v="111222" />
	</node>
	<node id="-13666" lat="59.6913027806" lon="11.7611944462">
		<tag k="name" v="Abborvika" />
		<tag k="natural" v="bay" />
		<tag k="ssr:stedsnr" v="111219" />
	</node>
	<node id="-13665" lat="59.6865749978" lon="11.819519443">
		<tag k="name" v="Buøya" />
		<tag k="place" v="island" />
		<tag k="ssr:stedsnr" v="111209" />
	</node>
	<node id="-13664" lat="59.7562916654" lon="11.7576361131">
		<tag k="fixme" v="consider natural=peak for the most distinct mountains in the district" />
		<tag k="name" v="Eikelihøgda" />
		<tag k="natural" v="hill" />
		<tag k="place" v="locality" />
		<tag k="ssr:stedsnr" v="111206" />
	</node>
	<node id="-13663" lat="59.6676083313" lon="11.8207861052">
		<tag k="name" v="Kudalen" />
		<tag k="place" v="locality" />
		<tag k="ssr:stedsnr" v="111199" />
	</node>
	<node id="-13662" lat="59.6378555529" lon="11.7571194473">
		<tag k="fixme" v="consider natural=peak for the most distinct mountains in the district" />
		<tag k="name" v="Østrekollen" />
		<tag k="natural" v="hill" />
		<tag k="place" v="locality" />
		<tag k="ssr:stedsnr" v="111198" />
	</node>
	<node id="-13661" lat="59.6526999977" lon="11.825444447">
		<tag k="name" v="Kleivmyr" />
		<tag k="natural" v="wetland" />
		<tag k="ssr:stedsnr" v="111191" />
	</node>
	<node id="-13660" lat="59.7179972223" lon="11.7336000077">
		<tag k="name" v="Torvetjenn" />
		<tag k="natural" v="water" />
		<tag k="ssr:stedsnr" v="111188" />
	</node>
	<node id="-13659" lat="59.6751555584" lon="11.8654611145">
		<tag k="name" v="Kukleiva" />
		<tag k="place" v="locality" />
		<tag k="ssr:stedsnr" v="111186" />
	</node>
	<node id="-13658" lat="59.7225500014" lon="11.9065388964">
		<tag k="name" v="Østtukusetra" />
		<tag k="place" v="locality" />
		<tag k="ssr:stedsnr" v="111172" />
	</node>
	<node id="-13657" lat="59.7354249997" lon="11.8967472238">
		<tag k="name" v="Glavertjenn" />
		<tag k="natural" v="water" />
		<tag k="ssr:stedsnr" v="111170" />
	</node>
	<node id="-13656" lat="59.6848805523" lon="11.8459249937">
		<tag k="fixme" v="consider natural=peak for the most distinct mountains in the district" />
		<tag k="name" v="Kisteholmhøgda" />
		<tag k="natural" v="hill" />
		<tag k="place" v="locality" />
		<tag k="ssr:stedsnr" v="111153" />
	</node>
	<node id="-13655" lat="59.7448138909" lon="11.7591638841">
		<tag k="name" v="Damjordet" />
		<tag k="place" v="locality" />
		<tag k="ssr:stedsnr" v="111146" />
	</node>
	<node id="-13654" lat="59.773138888" lon="11.8189999914">
		<tag k="name" v="Spilhaug" />
		<tag k="place" v="farm" />
		<tag k="ssr:stedsnr" v="111141" />
	</node>
	<node id="-13653" lat="59.7178277779" lon="11.9362083306">
		<tag k="name" v="Trosterudvelta" />
		<tag k="place" v="locality" />
		<tag k="ssr:stedsnr" v="111134" />
	</node>
	<node id="-13652" lat="59.7122194461" lon="11.8700000063">
		<tag k="name" v="Svingbakken" />
		<tag k="place" v="locality" />
		<tag k="ssr:stedsnr" v="111130" />
	</node>
	<node id="-13651" lat="59.7652472239" lon="11.8086611072">
		<tag k="name" v="Fugleleiken" />
		<tag k="natural" v="wetland" />
		<tag k="ssr:stedsnr" v="111129" />
	</node>
	<node id="-13650" lat="59.7172416669" lon="11.7645416722">
		<tag k="name" v="Tjernet i fjella" />
		<tag k="natural" v="water" />
		<tag k="ssr:stedsnr" v="111107" />
	</node>
	<node id="-13649" lat="59.7604861149" lon="11.8705083405">
		<tag k="name" v="Hundedypil" />
		<tag k="natural" v="water" />
		<tag k="ssr:stedsnr" v="111097" />
		<tag k="water" v="pond" />
	</node>
	<node id="-13648" lat="59.7684055583" lon="11.8202027859">
		<tag k="name" v="Libakk" />
		<tag k="place" v="farm" />
		<tag k="ssr:stedsnr" v="111088" />
	</node>
	<node id="-13647" lat="59.7046611072" lon="11.7731749965">
		<tag k="name" v="Framsetrene" />
		<tag k="place" v="locality" />
		<tag k="ssr:stedsnr" v="111082" />
	</node>
	<node id="-13646" lat="59.6610999976" lon="11.8116611089">
		<tag k="fixme" v="consider natural=peak for the most distinct mountains in the district" />
		<tag k="name" v="Nybruhøgda" />
		<tag k="natural" v="hill" />
		<tag k="place" v="locality" />
		<tag k="ssr:stedsnr" v="111060" />
	</node>
	<node id="-13645" lat="59.6625222204" lon="11.7989416619">
		<tag k="name" v="Bottefallet" />
		<tag k="place" v="locality" />
		<tag k="ssr:stedsnr" v="111058" />
	</node>
	<node id="-13644" lat="59.7004611083" lon="11.8719444445">
		<tag k="name" v="Bjørntjenn" />
		<tag k="natural" v="water" />
		<tag k="ssr:stedsnr" v="111042" />
	</node>
	<node id="-13643" lat="59.7447138914" lon="11.7181944377">
		<tag k="name" v="Det namnlause tjennet" />
		<tag k="natural" v="water" />
		<tag k="ssr:stedsnr" v="111028" />
	</node>
	<node id="-13642" lat="59.7697638917" lon="11.9050305644">
		<tag k="name" v="Flavelta" />
		<tag k="place" v="locality" />
		<tag k="ssr:stedsnr" v="111021" />
	</node>
	<node id="-13641" lat="59.7540638893" lon="11.760247225">
		<tag k="name" v="Karisdalen" />
		<tag k="natural" v="valley" />
		<tag k="place" v="locality" />
		<tag k="ssr:stedsnr" v="111016" />
	</node>
	<node id="-13640" lat="59.7545277801" lon="11.7620333286">
		<tag k="name" v="Kuristjenn" />
		<tag k="natural" v="water" />
		<tag k="ssr:stedsnr" v="111014" />
	</node>
	<node id="-13639" lat="59.6802416648" lon="11.8093750042">
		<tag k="name" v="Lauvøya" />
		<tag k="place" v="island" />
		<tag k="ssr:stedsnr" v="111013" />
	</node>
	<node id="-13638" lat="59.722461111" lon="11.7773361123">
		<tag k="name" v="Jerpeset" />
		<tag k="place" v="farm" />
		<tag k="ssr:stedsnr" v="111001" />
	</node>
	<node id="-13637" lat="59.7113416707" lon="11.9332916587">
		<tag k="historic" v="boundary_stone" />
		<tag k="man_made" v="cairn" />
		<tag k="name" v="Nedre Langebekk" />
		<tag k="place" v="locality" />
		<tag k="ssr:stedsnr" v="110628" />
	</node>
	<node id="-13636" lat="59.7904750021" lon="11.9269611136">
		<tag k="historic" v="boundary_stone" />
		<tag k="man_made" v="cairn" />
		<tag k="name" v="Hornsjøen" />
		<tag k="old_name" v="Hornsiøen" />
		<tag k="place" v="locality" />
		<tag k="ssr:stedsnr" v="110594" />
	</node>
	<node id="-13635" lat="59.6486305558" lon="11.8561916729">
		<tag k="alt_name" v="Østre Grindefoss røys" />
		<tag k="historic" v="boundary_stone" />
		<tag k="man_made" v="cairn" />
		<tag k="name" v="Østre Grindfossrøysa" />
		<tag k="old_name" v="Østre Grindefors Røset" />
		<tag k="place" v="locality" />
		<tag k="ssr:stedsnr" v="110538" />
	</node>
	<node id="-13634" lat="59.7551472228" lon="11.8163999968">
		<tag k="bridge" v="yes" />
		<tag k="fixme" v="multiple name tags, choose one and add the other to alt_name" />
		<tag k="layer" v="1" />
		<tag k="name" v="Kvernebrua;Tukken" />
		<tag k="ssr:stedsnr" v="106548" />
	</node>
	<node id="-13633" lat="59.7566638854" lon="11.9316916644">
		<tag k="alt_name" v="Røvann" />
		<tag k="historic" v="boundary_stone" />
		<tag k="man_made" v="cairn" />
		<tag k="name" v="Røvannet" />
		<tag k="old_name" v="Røvandet" />
		<tag k="place" v="locality" />
		<tag k="ssr:stedsnr" v="100550" />
	</node>
	<node id="-13632" lat="59.7727055572" lon="11.8094666597">
		<tag k="fixme" v="multiple name tags, choose one and add the other to alt_name" />
		<tag k="name" v="Nedgropa;Tjernmoen" />
		<tag k="place" v="quarter" />
		<tag k="ssr:stedsnr" v="66398" />
	</node>
	<node id="-13631" lat="59.7706611108" lon="11.8776166619">
		<tag k="name" v="Gatemåsan" />
		<tag k="natural" v="wetland" />
		<tag k="ssr:stedsnr" v="66223" />
	</node>
	<node id="-13630" lat="59.7441055572" lon="11.6976583385">
		<tag k="alt_name" v="Grevlingkultjenn" />
		<tag k="name" v="Grevlingtjenn" />
		<tag k="natural" v="water" />
		<tag k="ssr:stedsnr" v="65679" />
	</node>
	<node id="-13629" lat="59.735794441" lon="11.695083334">
		<tag k="name" v="Steinsvika" />
		<tag k="natural" v="bay" />
		<tag k="ssr:stedsnr" v="65676" />
	</node>
	<node id="-13628" lat="59.7383027814" lon="11.7633277863">
		<tag k="name" v="Sørsaga" />
		<tag k="place" v="farm" />
		<tag k="ssr:stedsnr" v="65617" />
	</node>
	<node id="-13627" lat="59.7259138849" lon="11.8514583393">
		<tag k="alt_name" v="Enga" />
		<tag k="name" v="Kurøenga" />
		<tag k="place" v="farm" />
		<tag k="ssr:stedsnr" v="65416" />
	</node>
	<node id="-13626" lat="59.7343777775" lon="11.9038638849">
		<tag k="alt_name" v="Fallet" />
		<tag k="historic" v="shieling" />
		<tag k="name" v="Ertevassfallet" />
		<tag k="place" v="locality" />
		<tag k="ssr:stedsnr" v="65414" />
	</node>
	<node id="-13625" lat="59.714452774" lon="11.8771972215">
		<tag k="alt_name" v="Sætertjennet" />
		<tag k="name" v="Setertjenn" />
		<tag k="natural" v="water" />
		<tag k="ssr:stedsnr" v="65404" />
	</node>
	<node id="-13624" lat="59.6929888924" lon="11.8696694447">
		<tag k="alt_name" v="Venåsene" />
		<tag k="fixme" v="consider natural=peak for the most distinct mountains in the district" />
		<tag k="name" v="Veneås" />
		<tag k="natural" v="hill" />
		<tag k="place" v="locality" />
		<tag k="ssr:stedsnr" v="65400" />
	</node>
	<node id="-13623" lat="59.6947388914" lon="11.921972224">
		<tag k="alt_name" v="Vesletjennet" />
		<tag k="name" v="Vesletjenn" />
		<tag k="natural" v="water" />
		<tag k="ssr:stedsnr" v="65394" />
	</node>
	<node id="-13622" lat="59.7603583318" lon="11.8157833343">
		<tag k="alt_name" v="Tukuelva" />
		<tag k="name" v="Tukkuelva" />
		<tag k="ssr:stedsnr" v="65393" />
		<tag k="waterway" v="stream" />
	</node>
	<node id="-13621" lat="59.7269055595" lon="11.8163861108">
		<tag k="amenity" v="place_of_worship" />
		<tag k="denomination" v="lutheran" />
		<tag k="name" v="Rømskog kirke" />
		<tag k="religion" v="christian" />
		<tag k="ssr:stedsnr" v="64649" />
	</node>
	<node id="-13620" lat="59.7265694474" lon="11.8330416641">
		<tag k="name" v="Venemoen" />
		<tag k="place" v="locality" />
		<tag k="ssr:stedsnr" v="64648" />
	</node>
	<node id="-13619" lat="59.7257249981" lon="11.784491665">
		<tag k="alt_name" v="Ramberg" />
		<tag k="name" v="Sør-Ramberg" />
		<tag k="place" v="farm" />
		<tag k="ssr:stedsnr" v="64620" />
	</node>
	<node id="-13618" lat="59.7085444484" lon="11.7144750057">
		<tag k="fixme" v="multiple name tags, choose one and add the other to alt_name" />
		<tag k="name" v="Hestesprengen;Nordre Sprengen" />
		<tag k="natural" v="water" />
		<tag k="ssr:stedsnr" v="64345" />
	</node>
	<node id="-13617" lat="59.6663694436" lon="11.7177444383">
		<tag k="alt_name" v="Prestbordtjenn" />
		<tag k="name" v="Prestebordtjenn" />
		<tag k="natural" v="water" />
		<tag k="ssr:stedsnr" v="64282" />
	</node>
	<node id="-13616" lat="59.6618361124" lon="11.7555027776">
		<tag k="alt_name" v="Strandsætertjenn" />
		<tag k="name" v="Strandsetertjenn" />
		<tag k="natural" v="water" />
		<tag k="ssr:stedsnr" v="64279" />
	</node>
	<node id="-13615" lat="59.669338887" lon="11.7922249947">
		<tag k="name" v="Eplegranbekken" />
		<tag k="ssr:stedsnr" v="64270" />
		<tag k="waterway" v="stream" />
	</node>
	<node id="-13614" lat="59.7035111076" lon="11.7294861095">
		<tag k="name" v="Kuletjenn" />
		<tag k="natural" v="water" />
		<tag k="ssr:stedsnr" v="65301" />
	</node>
	<node id="-13613" lat="59.7602388848" lon="11.8985222273">
		<tag k="name" v="Nordre Hornfisktjenn" />
		<tag k="natural" v="water" />
		<tag k="ssr:stedsnr" v="51838" />
	</node>
	<node id="-13612" lat="59.6290166687" lon="11.7196194428">
		<tag k="name" v="Slavika" />
		<tag k="natural" v="bay" />
		<tag k="ssr:stedsnr" v="51823" />
	</node>
	<node id="-13611" lat="59.7325805529" lon="11.6970666668">
		<tag k="name" v="Gånsunda" />
		<tag k="natural" v="strait" />
		<tag k="ssr:stedsnr" v="51824" />
	</node>
	<node id="-13610" lat="59.7163972244" lon="11.8489583407">
		<tag k="name" v="Vesle Sandvika" />
		<tag k="natural" v="bay" />
		<tag k="ssr:stedsnr" v="51800" />
	</node>
	<node id="-13609" lat="59.658374997" lon="11.7349222217">
		<tag k="name" v="Kristofferhølet" />
		<tag k="natural" v="wetland" />
		<tag k="ssr:stedsnr" v="51798" />
	</node>
	<node id="-13608" lat="59.6338916698" lon="11.7362111194">
		<tag k="name" v="Seljehølet" />
		<tag k="natural" v="wetland" />
		<tag k="ssr:stedsnr" v="51796" />
	</node>
	<node id="-13607" lat="59.7009944484" lon="11.7390388878">
		<tag k="loc_name" v="Det utgravde tjennet" />
		<tag k="name" v="Gubbetjenn" />
		<tag k="natural" v="water" />
		<tag k="ssr:stedsnr" v="51288" />
	</node>
	<node id="-13606" lat="59.6833861121" lon="11.6907444455">
		<tag k="name" v="Tangemannsposten" />
		<tag k="place" v="locality" />
		<tag k="ssr:stedsnr" v="51282" />
	</node>
	<node id="-13605" lat="59.6784611118" lon="11.6956638923">
		<tag k="name" v="Østre Fallstjenna" />
		<tag k="natural" v="water" />
		<tag k="ssr:stedsnr" v="51283" />
	</node>
	<node id="-13604" lat="59.6983138885" lon="11.7197833414">
		<tag k="name" v="Nordgardslundtjenn" />
		<tag k="natural" v="water" />
		<tag k="ssr:stedsnr" v="51281" />
	</node>
	<node id="-13603" lat="59.715674997" lon="11.7808638968">
		<tag k="name" v="Haugenesfjella" />
		<tag k="place" v="locality" />
		<tag k="ssr:stedsnr" v="51270" />
	</node>
	<node id="-13602" lat="59.7168694408" lon="11.7978083323">
		<tag k="name" v="Nord-Sandum" />
		<tag k="place" v="farm" />
		<tag k="ssr:stedsnr" v="51269" />
	</node>
	<node id="-13601" lat="59.6821472262" lon="11.7704777866">
		<tag k="name" v="Trytjenndalen" />
		<tag k="natural" v="valley" />
		<tag k="place" v="locality" />
		<tag k="ssr:stedsnr" v="51261" />
	</node>
	<node id="-13600" lat="59.6946166625" lon="11.8044638905">
		<tag k="name" v="Renneodden" />
		<tag k="natural" v="cape" />
		<tag k="ssr:stedsnr" v="51255" />
	</node>
	<node id="-13599" lat="59.6702333352" lon="11.7340944394">
		<tag k="name" v="Langvassaga" />
		<tag k="place" v="locality" />
		<tag k="ssr:stedsnr" v="51243" />
	</node>
	<node id="-13598" lat="59.6755888933" lon="11.73627222">
		<tag k="name" v="Djuptjennbakkene" />
		<tag k="place" v="locality" />
		<tag k="ssr:stedsnr" v="51239" />
	</node>
	<node id="-13597" lat="59.6583416644" lon="11.7373888808">
		<tag k="name" v="Nessetra" />
		<tag k="place" v="locality" />
		<tag k="ssr:stedsnr" v="51237" />
	</node>
	<node id="-13596" lat="59.6609416634" lon="11.835266658">
		<tag k="landuse" v="industrial" />
		<tag k="name" v="Kraftverk" />
		<tag k="power" v="plant" />
		<tag k="ssr:stedsnr" v="51224" />
	</node>
	<node id="-13595" lat="59.6508222237" lon="11.7706444423">
		<tag k="name" v="Halvorslora" />
		<tag k="natural" v="wetland" />
		<tag k="ssr:stedsnr" v="51208" />
	</node>
	<node id="-13594" lat="59.7629861108" lon="11.9310527836">
		<tag k="name" v="Fløytestua" />
		<tag k="place" v="locality" />
		<tag k="ssr:stedsnr" v="51174" />
	</node>
	<node id="-13593" lat="59.7074611128" lon="11.891108337">
		<tag k="name" v="Hagesetra" />
		<tag k="place" v="locality" />
		<tag k="ssr:stedsnr" v="51171" />
	</node>
	<node id="-13592" lat="59.7400833319" lon="11.7232305542">
		<tag k="name" v="Venetjenn" />
		<tag k="natural" v="water" />
		<tag k="ssr:stedsnr" v="51166" />
		<tag k="water" v="pond" />
	</node>
	<node id="-13591" lat="59.7468611104" lon="11.8239055608">
		<tag k="name" v="Moserud" />
		<tag k="place" v="farm" />
		<tag k="ssr:stedsnr" v="51163" />
	</node>
	<node id="-13590" lat="59.7575694416" lon="11.8167777801">
		<tag k="name" v="Brennemoen" />
		<tag k="place" v="locality" />
		<tag k="ssr:stedsnr" v="51161" />
	</node>
	<node id="-13589" lat="59.7473805585" lon="11.8340083401">
		<tag k="fixme" v="consider natural=peak for the most distinct mountains in the district" />
		<tag k="name" v="Myrvollhøgda" />
		<tag k="natural" v="hill" />
		<tag k="place" v="locality" />
		<tag k="ssr:stedsnr" v="51151" />
	</node>
	<node id="-13588" lat="59.7751833341" lon="11.7808083258">
		<tag k="name" v="Tukuseterhaget" />
		<tag k="place" v="locality" />
		<tag k="ssr:stedsnr" v="51146" />
	</node>
	<node id="-13587" lat="59.736872224" lon="11.8313194498">
		<tag k="name" v="Saubakkdalen" />
		<tag k="natural" v="valley" />
		<tag k="place" v="locality" />
		<tag k="ssr:stedsnr" v="51141" />
	</node>
	<node id="-13586" lat="59.6424416625" lon="11.7706111108">
		<tag k="name" v="Seterneset" />
		<tag k="place" v="locality" />
		<tag k="ssr:stedsnr" v="51115" />
	</node>
	<node id="-13585" lat="59.7096694487" lon="11.8135499955">
		<tag k="name" v="Tysken" />
		<tag k="place" v="island" />
		<tag k="ssr:stedsnr" v="51104" />
	</node>
	<node id="-13584" lat="59.7132194471" lon="11.8097027819">
		<tag k="name" v="Nordgardsholmen" />
		<tag k="place" v="island" />
		<tag k="ssr:stedsnr" v="51098" />
	</node>
	<node id="-13583" lat="59.7412277814" lon="11.7104361029">
		<tag k="name" v="Blekketjenn" />
		<tag k="natural" v="water" />
		<tag k="ssr:stedsnr" v="51092" />
	</node>
	<node id="-13582" lat="59.7134638902" lon="11.7421222145">
		<tag k="name" v="Vestre Klokkartjenn" />
		<tag k="natural" v="water" />
		<tag k="ssr:stedsnr" v="51090" />
	</node>
	<node id="-13581" lat="59.6587166667" lon="11.8570611097">
		<tag k="name" v="Skolestua" />
		<tag k="place" v="locality" />
		<tag k="ssr:stedsnr" v="51086" />
	</node>
	<node id="-13580" lat="59.6507222254" lon="11.7270388918">
		<tag k="fixme" v="consider natural=peak for the most distinct mountains in the district" />
		<tag k="name" v="Kjørestuhøgda" />
		<tag k="natural" v="hill" />
		<tag k="place" v="locality" />
		<tag k="ssr:stedsnr" v="51081" />
	</node>
	<node id="-13579" lat="59.766127781" lon="11.8812194374">
		<tag k="name" v="Langemåsåstua" />
		<tag k="place" v="isolated_dwelling" />
		<tag k="ssr:stedsnr" v="51075" />
	</node>
	<node id="-13578" lat="59.7413499985" lon="11.8695777703">
		<tag k="name" v="Kaffekopptjenn" />
		<tag k="natural" v="water" />
		<tag k="ssr:stedsnr" v="51050" />
	</node>
	<node id="-13577" lat="59.7494611151" lon="11.8995999971">
		<tag k="name" v="Abborholmen" />
		<tag k="place" v="islet" />
		<tag k="ssr:stedsnr" v="51048" />
	</node>
	<node id="-13576" lat="59.6878694415" lon="11.8555805518">
		<tag k="name" v="Tverrdalen" />
		<tag k="natural" v="valley" />
		<tag k="place" v="locality" />
		<tag k="ssr:stedsnr" v="51045" />
	</node>
	<node id="-13575" lat="59.6820722263" lon="11.8586055484">
		<tag k="highway" v="path" />
		<tag k="name" v="Strandveien" />
		<tag k="ssr:stedsnr" v="51043" />
	</node>
	<node id="-13573" lat="59.7405888844" lon="11.8488638931">
		<tag k="name" v="Frøtjenn" />
		<tag k="natural" v="water" />
		<tag k="ssr:stedsnr" v="51012" />
	</node>
	<node id="-13572" lat="59.7368416706" lon="11.8134499919">
		<tag k="alt_name" v="Mellem Bøen" />
		<tag k="name" v="Mellom-Bøen" />
		<tag k="place" v="farm" />
		<tag k="ssr:stedsnr" v="51009" />
	</node>
	<node id="-13571" lat="59.6253944485" lon="11.720549994">
		<tag k="name" v="Langvassdammen" />
		<tag k="ssr:stedsnr" v="50873" />
		<tag k="waterway" v="dam" />
	</node>
	<node id="-13570" lat="59.7814861156" lon="11.8286499968">
		<tag k="fixme" v="consider natural=peak for the most distinct mountains in the district" />
		<tag k="name" v="Buhøgda" />
		<tag k="natural" v="hill" />
		<tag k="place" v="locality" />
		<tag k="ssr:stedsnr" v="50118" />
	</node>
	<node id="-13569" lat="59.7127027802" lon="11.8771027701">
		<tag k="name" v="Ringsbysetra" />
		<tag k="place" v="locality" />
		<tag k="ssr:stedsnr" v="50116" />
	</node>
	<node id="-13568" lat="59.7774944447" lon="11.8631305607">
		<tag k="alt_name" v="Storesundvannet" />
		<tag k="name" v="Store Sundvannet" />
		<tag k="natural" v="water" />
		<tag k="ssr:stedsnr" v="6233" />
	</node>
	<node id="-13567" lat="59.773050002" lon="11.8168888952">
		<tag k="alt_name" v="Nord-Klubben" />
		<tag k="name" v="Nordklubben" />
		<tag k="place" v="isolated_dwelling" />
		<tag k="ssr:stedsnr" v="5402" />
	</node>
	<node id="-13566" lat="59.7568972211" lon="11.9115166676">
		<tag k="name" v="Aurkyttjenn" />
		<tag k="natural" v="water" />
		<tag k="ssr:stedsnr" v="5238" />
	</node>
	<node id="-13565" lat="59.7263944005" lon="11.8617489308">
		<tag k="name" v="Søndre Sandtjenn" />
		<tag k="natural" v="water" />
		<tag k="ssr:stedsnr" v="4414" />
		<tag k="water" v="lake" />
	</node>
	<node id="-13564" lat="59.7278444454" lon="11.8945055556">
		<tag k="alt_name" v="Syltongen" />
		<tag k="name" v="Syltungen" />
		<tag k="natural" v="water" />
		<tag k="ssr:stedsnr" v="4413" />
	</node>
	<node id="-13563" lat="59.7549750012" lon="11.7471472211">
		<tag k="name" v="Svarteberga" />
		<tag k="natural" v="hill" />
		<tag k="place" v="locality" />
		<tag k="ssr:stedsnr" v="4371" />
	</node>
	<node id="-13562" lat="59.7513638918" lon="11.842483327">
		<tag k="alt_name" v="Gryttjennet" />
		<tag k="name" v="Gryttjenn" />
		<tag k="natural" v="water" />
		<tag k="ssr:stedsnr" v="4367" />
	</node>
	<node id="-13561" lat="59.6655916636" lon="11.7455805532">
		<tag k="alt_name" v="Venås" />
		<tag k="name" v="Store Venås" />
		<tag k="natural" v="hill" />
		<tag k="place" v="locality" />
		<tag k="ssr:stedsnr" v="3248" />
	</node>
	<node id="-13560" lat="59.6634999967" lon="11.830491671">
		<tag k="name" v="Nybru" />
		<tag k="place" v="farm" />
		<tag k="ssr:stedsnr" v="3244" />
	</node>
	<node id="-13559" lat="59.7555087333" lon="11.7218047967">
		<tag k="name" v="Evertsætertjenn" />
		<tag k="natural" v="water" />
		<tag k="ssr:stedsnr" v="793407" />
	</node>
	<node id="-13558" lat="59.7052149063" lon="11.6811066011">
		<tag k="name" v="Søndre Steinstjenn" />
		<tag k="natural" v="water" />
		<tag k="ssr:stedsnr" v="793333" />
	</node>
	<node id="-13557" lat="59.6509827856" lon="11.8513872459">
		<tag k="fixme" v="consider place=hamlet" />
		<tag k="name" v="Flaten" />
		<tag k="place" v="farm" />
		<tag k="ssr:stedsnr" v="982295" />
	</node>
	<node id="-13553" lat="59.7734461292" lon="11.8106190086">
		<tag k="name" v="Tjernmoen industriområde" />
		<tag k="place" v="quarter" />
		<tag k="ssr:stedsnr" v="981896" />
	</node>
	<node id="-13546" lat="59.6828333308" lon="11.8780388834">
		<tag k="alt_name" v="Tverrbekk røys" />
		<tag k="historic" v="boundary_stone" />
		<tag k="man_made" v="cairn" />
		<tag k="name" v="Tverrbekkrøysa" />
		<tag k="old_name" v="Twerbeks Røset;Tverbæk Rös" />
		<tag k="place" v="locality" />
		<tag k="ssr:stedsnr" v="891634" />
	</node>
	<node id="-13545" lat="59.6971027783" lon="11.6692888859">
		<tag k="name" v="Svarttjenn" />
		<tag k="natural" v="water" />
		<tag k="ssr:stedsnr" v="475791" />
	</node>
	<node id="-13544" lat="59.7358972236" lon="11.9326138859">
		<tag k="name" v="Sanddrevslora" />
		<tag k="natural" v="water" />
		<tag k="ssr:stedsnr" v="475770" />
		<tag k="water" v="pond" />
	</node>
	<node id="-13543" lat="59.7388111125" lon="11.8041444509">
		<tag k="junction" v="yes" />
		<tag k="name" v="Eidet" />
		<tag k="place" v="locality" />
		<tag k="ssr:stedsnr" v="475757" />
	</node>
	<node id="-13542" lat="59.6897055588" lon="11.6707611058">
		<tag k="name" v="Løkensetra" />
		<tag k="place" v="locality" />
		<tag k="ssr:stedsnr" v="475252" />
	</node>
	<node id="-13541" lat="59.6883527791" lon="11.7139972252">
		<tag k="name" v="Nedre Aurekulp" />
		<tag k="natural" v="water" />
		<tag k="ssr:stedsnr" v="475245" />
	</node>
	<node id="-13540" lat="59.7157972222" lon="11.8013638897">
		<tag k="name" v="Sletten" />
		<tag k="place" v="farm" />
		<tag k="ssr:stedsnr" v="475240" />
	</node>
	<node id="-13539" lat="59.7104527797" lon="11.808438885">
		<tag k="name" v="Neverneset" />
		<tag k="natural" v="cape" />
		<tag k="ssr:stedsnr" v="475235" />
	</node>
	<node id="-13538" lat="59.6941472198" lon="11.74422223">
		<tag k="name" v="De runde tjenna" />
		<tag k="natural" v="water" />
		<tag k="ssr:stedsnr" v="475228" />
	</node>
	<node id="-13537" lat="59.6906555536" lon="11.7650333314">
		<tag k="name" v="Skvettebruvika" />
		<tag k="natural" v="bay" />
		<tag k="ssr:stedsnr" v="475227" />
	</node>
	<node id="-13536" lat="59.6825249973" lon="11.8231777855">
		<tag k="name" v="Sandøya" />
		<tag k="place" v="island" />
		<tag k="ssr:stedsnr" v="475220" />
	</node>
	<node id="-13535" lat="59.6765749984" lon="11.7190861196">
		<tag k="name" v="Engemåsasetra" />
		<tag k="place" v="locality" />
		<tag k="ssr:stedsnr" v="475216" />
	</node>
	<node id="-13534" lat="59.666186107" lon="11.7412416689">
		<tag k="highway" v="path" />
		<tag k="name" v="Hesteveien" />
		<tag k="ssr:stedsnr" v="475212" />
	</node>
	<node id="-13533" lat="59.6389055584" lon="11.7601694504">
		<tag k="name" v="Pølsekleivsleppa" />
		<tag k="place" v="locality" />
		<tag k="ssr:stedsnr" v="475204" />
	</node>
	<node id="-13532" lat="59.6423444427" lon="11.7423499947">
		<tag k="name" v="Kasthalla" />
		<tag k="place" v="locality" />
		<tag k="ssr:stedsnr" v="475196" />
	</node>
	<node id="-13531" lat="59.7582444461" lon="11.8944305551">
		<tag k="name" v="Jegertjenn" />
		<tag k="natural" v="water" />
		<tag k="ssr:stedsnr" v="475181" />
	</node>
	<node id="-13530" lat="59.6780361114" lon="11.8751583325">
		<tag k="name" v="Myrtjenn" />
		<tag k="natural" v="water" />
		<tag k="ssr:stedsnr" v="475179" />
	</node>
	<node id="-13529" lat="59.7247249973" lon="11.8959444495">
		<tag k="name" v="Hornfisktjenn" />
		<tag k="natural" v="water" />
		<tag k="ssr:stedsnr" v="475172" />
	</node>
	<node id="-13528" lat="59.7366638878" lon="11.883788891">
		<tag k="name" v="Høgabbortjennmåsån" />
		<tag k="natural" v="wetland" />
		<tag k="ssr:stedsnr" v="475166" />
	</node>
	<node id="-13527" lat="59.7239638908" lon="11.9361944407">
		<tag k="name" v="Svartebergslusa" />
		<tag k="place" v="locality" />
		<tag k="ssr:stedsnr" v="475163" />
	</node>
	<node id="-13526" lat="59.6827694477" lon="11.7853138978">
		<tag k="fixme" v="consider natural=peak for the most distinct mountains in the district" />
		<tag k="name" v="Søndre Buhøgda" />
		<tag k="natural" v="hill" />
		<tag k="place" v="locality" />
		<tag k="ssr:stedsnr" v="475148" />
	</node>
	<node id="-13525" lat="59.749422225" lon="11.7774916583">
		<tag k="name" v="Kollen" />
		<tag k="place" v="locality" />
		<tag k="ssr:stedsnr" v="475143" />
	</node>
	<node id="-13524" lat="59.7059694439" lon="11.8993027838">
		<tag k="name" v="Søndre dypil" />
		<tag k="natural" v="water" />
		<tag k="ssr:stedsnr" v="475129" />
	</node>
	<node id="-13523" lat="59.7181277746" lon="11.8767500054">
		<tag k="name" v="Svartebøtta" />
		<tag k="natural" v="water" />
		<tag k="ssr:stedsnr" v="475122" />
	</node>
	<node id="-13522" lat="59.6471722263" lon="11.7721361057">
		<tag k="name" v="Bråtasetra" />
		<tag k="place" v="locality" />
		<tag k="ssr:stedsnr" v="475111" />
	</node>
	<node id="-13521" lat="59.6507083317" lon="11.8056083344">
		<tag k="name" v="Tobakksteintjenn" />
		<tag k="natural" v="water" />
		<tag k="ssr:stedsnr" v="475107" />
	</node>
	<node id="-13520" lat="59.7339555551" lon="11.8658999989">
		<tag k="name" v="Sandtjennmåsån" />
		<tag k="natural" v="wetland" />
		<tag k="ssr:stedsnr" v="475098" />
	</node>
	<node id="-13519" lat="59.7729611147" lon="11.7856472278">
		<tag k="name" v="Hjulemyrbakken" />
		<tag k="place" v="locality" />
		<tag k="ssr:stedsnr" v="475088" />
	</node>
	<node id="-13518" lat="59.723808333" lon="11.8857250008">
		<tag k="name" v="Bøsetrene" />
		<tag k="place" v="locality" />
		<tag k="ssr:stedsnr" v="475063" />
	</node>
	<node id="-13517" lat="59.7187694429" lon="11.85979723">
		<tag k="fixme" v="consider natural=peak for the most distinct mountains in the district" />
		<tag k="name" v="Veslehøgda" />
		<tag k="natural" v="hill" />
		<tag k="place" v="locality" />
		<tag k="ssr:stedsnr" v="475054" />
	</node>
	<node id="-13516" lat="59.7524972246" lon="11.8157972174">
		<tag k="name" v="Nord-Tukun" />
		<tag k="place" v="farm" />
		<tag k="ssr:stedsnr" v="475041" />
	</node>
	<node id="-13515" lat="59.7518638886" lon="11.8152111044">
		<tag k="name" v="Sør-Tukun" />
		<tag k="place" v="farm" />
		<tag k="ssr:stedsnr" v="475037" />
	</node>
	<node id="-13514" lat="59.7218638915" lon="11.7915527821">
		<tag k="name" v="Haukebølenga" />
		<tag k="place" v="farm" />
		<tag k="ssr:stedsnr" v="475005" />
	</node>
	<node id="-13513" lat="59.760222225" lon="11.8554194368">
		<tag k="name" v="Røyrtjenn" />
		<tag k="natural" v="water" />
		<tag k="ssr:stedsnr" v="475002" />
	</node>
	<node id="-13512" lat="59.6373194489" lon="11.7612972188">
		<tag k="fixme" v="multiple name tags, choose one and add the other to alt_name" />
		<tag k="historic" v="boundary_stone" />
		<tag k="loc_name" v="Okserøysa" />
		<tag k="man_made" v="cairn" />
		<tag k="name" v="Oksen;Oksen røys" />
		<tag k="old_name" v="Oxen i Oxekiærnet;Oksen Rös" />
		<tag k="place" v="locality" />
		<tag k="ssr:stedsnr" v="474577" />
	</node>
	<node id="-13511" lat="59.7815583371" lon="11.9274611049">
		<tag k="historic" v="boundary_stone" />
		<tag k="man_made" v="cairn" />
		<tag k="name" v="Hornsjødammen" />
		<tag k="place" v="locality" />
		<tag k="ssr:stedsnr" v="413585" />
	</node>
	<node id="-13510" lat="59.6625388894" lon="11.8703055538">
		<tag k="alt_name" v="Furumo røys" />
		<tag k="historic" v="boundary_stone" />
		<tag k="man_made" v="cairn" />
		<tag k="name" v="Furumorøysa" />
		<tag k="old_name" v="Furemoe Røset" />
		<tag k="place" v="locality" />
		<tag k="ssr:stedsnr" v="403569" />
	</node>
	<node id="-13509" lat="59.7469777743" lon="11.8890749958">
		<tag k="alt_name" v="Stangebrøtdammen" />
		<tag k="name" v="Stangebrotdammen" />
		<tag k="ssr:stedsnr" v="414192" />
		<tag k="waterway" v="dam" />
	</node>
	<node id="-13508" lat="59.7299999968" lon="11.8668083367">
		<tag k="name" v="Rumpetjenn" />
		<tag k="natural" v="water" />
		<tag k="ssr:stedsnr" v="414178" />
	</node>
	<node id="-13507" lat="59.768980553" lon="11.8678888948">
		<tag k="fixme" v="multiple name tags, choose one and add the other to alt_name" />
		<tag k="name" v="Lille Sundvannet;Veslesundvannet" />
		<tag k="natural" v="water" />
		<tag k="ssr:stedsnr" v="370266" />
	</node>
	<node id="-13506" lat="59.7770166639" lon="11.927686117">
		<tag k="name" v="Lukashytta" />
		<tag k="place" v="isolated_dwelling" />
		<tag k="ssr:stedsnr" v="370263" />
	</node>
	<node id="-13505" lat="59.7775027765" lon="11.9111333311">
		<tag k="name" v="Storøya" />
		<tag k="place" v="islet" />
		<tag k="ssr:stedsnr" v="370262" />
	</node>
	<node id="-13504" lat="59.7578944485" lon="11.9289500076">
		<tag k="name" v="Røvannet" />
		<tag k="natural" v="water" />
		<tag k="ssr:stedsnr" v="369223" />
		<tag k="water" v="lake" />
	</node>
	<node id="-13503" lat="59.7454944433" lon="11.7698499923">
		<tag k="fixme" v="consider natural=peak for the most distinct mountains in the district" />
		<tag k="name" v="Grevlingkulåsen" />
		<tag k="natural" v="hill" />
		<tag k="place" v="locality" />
		<tag k="ssr:stedsnr" v="368721" />
	</node>
	<node id="-13502" lat="59.739049997" lon="11.736994451">
		<tag k="alt_name" v="Botnen" />
		<tag k="name" v="Bottfjorden" />
		<tag k="natural" v="bay" />
		<tag k="ssr:stedsnr" v="368717" />
	</node>
	<node id="-13501" lat="59.7426083292" lon="11.8625833391">
		<tag k="alt_name" v="Kleivetjennet" />
		<tag k="name" v="Kleivetjenn" />
		<tag k="natural" v="water" />
		<tag k="ssr:stedsnr" v="368462" />
	</node>
	<node id="-13500" lat="59.7137250041" lon="11.9362805475">
		<tag k="name" v="Nedre Langebekk" />
		<tag k="ssr:stedsnr" v="368443" />
		<tag k="waterway" v="stream" />
	</node>
	<node id="-13499" lat="59.6937833298" lon="11.8895361038">
		<tag k="alt_name" v="Bjørnspjut" />
		<tag k="name" v="Bjørnespjut" />
		<tag k="natural" v="water" />
		<tag k="ssr:stedsnr" v="368441" />
	</node>
	<node id="-13498" lat="59.698286109" lon="11.9372527855">
		<tag k="fixme" v="consider place=hamlet" />
		<tag k="name" v="Østtukun" />
		<tag k="place" v="farm" />
		<tag k="ssr:stedsnr" v="368437" />
	</node>
	<node id="-13497" lat="59.6952234042" lon="11.936582795">
		<tag k="name" v="Hvitsjøen" />
		<tag k="natural" v="water" />
		<tag k="ssr:stedsnr" v="368434" />
		<tag k="water" v="lake" />
	</node>
	<node id="-13496" lat="59.6917305593" lon="11.7269805558">
		<tag k="name" v="Røytjenndalen" />
		<tag k="natural" v="valley" />
		<tag k="place" v="locality" />
		<tag k="ssr:stedsnr" v="368387" />
	</node>
	<node id="-13495" lat="59.673519449" lon="11.6785499972">
		<tag k="name" v="Bleiken" />
		<tag k="natural" v="wetland" />
		<tag k="ssr:stedsnr" v="368380" />
	</node>
	<node id="-13494" lat="59.7077944427" lon="11.8127499929">
		<tag k="alt_name" v="Kjeøya" />
		<tag k="name" v="Kjeholmen" />
		<tag k="place" v="islet" />
		<tag k="ssr:stedsnr" v="368357" />
	</node>
	<node id="-13493" lat="59.7063750004" lon="11.7514250001">
		<tag k="fixme" v="consider natural=peak for the most distinct mountains in the district" />
		<tag k="name" v="Skansen" />
		<tag k="natural" v="hill" />
		<tag k="place" v="locality" />
		<tag k="ssr:stedsnr" v="368350" />
	</node>
	<node id="-13492" lat="59.7025305529" lon="11.713119444">
		<tag k="name" v="Nordgardslund" />
		<tag k="place" v="locality" />
		<tag k="ssr:stedsnr" v="368333" />
	</node>
	<node id="-13491" lat="59.7294250006" lon="11.8152638968">
		<tag k="name" v="Kirkerud" />
		<tag k="place" v="farm" />
		<tag k="ssr:stedsnr" v="367627" />
	</node>
	<node id="-13490" lat="59.7245833301" lon="11.7073777797">
		<tag k="alt_name" v="Sulubergneset" />
		<tag k="name" v="Solbergneset" />
		<tag k="natural" v="cape" />
		<tag k="ssr:stedsnr" v="367601" />
	</node>
	<node id="-13489" lat="59.6529027812" lon="11.8350249996">
		<tag k="name" v="Kornbråtdalen" />
		<tag k="natural" v="valley" />
		<tag k="place" v="locality" />
		<tag k="ssr:stedsnr" v="367195" />
	</node>
	<node id="-13488" lat="59.6380833341" lon="11.7629583363">
		<tag k="name" v="Okstjenn" />
		<tag k="natural" v="water" />
		<tag k="ssr:stedsnr" v="354819" />
	</node>
	<node id="-13487" lat="59.7473472214" lon="11.8841416708">
		<tag k="name" v="Roskiftvika" />
		<tag k="natural" v="bay" />
		<tag k="ssr:stedsnr" v="354810" />
	</node>
	<node id="-13486" lat="59.6765833296" lon="11.7009305611">
		<tag k="name" v="Fallsmåsan" />
		<tag k="natural" v="wetland" />
		<tag k="ssr:stedsnr" v="354796" />
	</node>
	<node id="-13485" lat="59.6688694427" lon="11.7149805466">
		<tag k="name" v="Engemåsatjenn" />
		<tag k="natural" v="water" />
		<tag k="ssr:stedsnr" v="354795" />
	</node>
	<node id="-13484" lat="59.7284861093" lon="11.7101333356">
		<tag k="name" v="Hakabrufjorden" />
		<tag k="natural" v="bay" />
		<tag k="ssr:stedsnr" v="354793" />
	</node>
	<node id="-13483" lat="59.7156085179" lon="11.6988108494">
		<tag k="name" v="Søndre Nipetjenn" />
		<tag k="natural" v="water" />
		<tag k="ssr:stedsnr" v="354778" />
		<tag k="water" v="lake" />
	</node>
	<node id="-13482" lat="59.7662055583" lon="11.9187944369">
		<tag k="name" v="Røvassfallvika" />
		<tag k="natural" v="bay" />
		<tag k="ssr:stedsnr" v="354779" />
	</node>
	<node id="-13481" lat="59.685766669" lon="11.815702777">
		<tag k="name" v="Fjøsvika" />
		<tag k="natural" v="bay" />
		<tag k="ssr:stedsnr" v="354762" />
	</node>
	<node id="-13480" lat="59.7015416692" lon="11.770766661">
		<tag k="name" v="Brochmannsbjørka" />
		<tag k="place" v="locality" />
		<tag k="ssr:stedsnr" v="354261" />
	</node>
	<node id="-13479" lat="59.7110444434" lon="11.7802138848">
		<tag k="name" v="Rugbråtene" />
		<tag k="place" v="locality" />
		<tag k="ssr:stedsnr" v="354258" />
	</node>
	<node id="-13478" lat="59.7112777818" lon="11.8239638882">
		<tag k="name" v="Slomøya" />
		<tag k="place" v="island" />
		<tag k="ssr:stedsnr" v="354253" />
	</node>
	<node id="-13477" lat="59.6912083325" lon="11.7775361036">
		<tag k="name" v="Trettebråtadalen" />
		<tag k="natural" v="valley" />
		<tag k="place" v="locality" />
		<tag k="ssr:stedsnr" v="354249" />
	</node>
	<node id="-13476" lat="59.6454611087" lon="11.7342611047">
		<tag k="name" v="Pengegravhalsen" />
		<tag k="place" v="locality" />
		<tag k="ssr:stedsnr" v="354227" />
	</node>
	<node id="-13475" lat="59.6643138931" lon="11.807597229">
		<tag k="name" v="Nessetra" />
		<tag k="place" v="locality" />
		<tag k="ssr:stedsnr" v="354224" />
	</node>
	<node id="-13474" lat="59.6629333375" lon="11.7839333283">
		<tag k="name" v="Maisetra" />
		<tag k="place" v="locality" />
		<tag k="ssr:stedsnr" v="354221" />
	</node>
	<node id="-13473" lat="59.6582750015" lon="11.8272972233">
		<tag k="name" v="Fjøsdalen" />
		<tag k="natural" v="valley" />
		<tag k="place" v="locality" />
		<tag k="ssr:stedsnr" v="354211" />
	</node>
	<node id="-13472" lat="59.6659194429" lon="11.8331805536">
		<tag k="name" v="Kjørketangen" />
		<tag k="place" v="locality" />
		<tag k="ssr:stedsnr" v="354208" />
	</node>
	<node id="-13471" lat="59.7272472198" lon="11.7454583412">
		<tag k="historic" v="shieling" />
		<tag k="name" v="Eikestadsetra" />
		<tag k="place" v="locality" />
		<tag k="ssr:stedsnr" v="354166" />
	</node>
	<node id="-13470" lat="59.7275638924" lon="11.7650194458">
		<tag k="name" v="Kopperudbakkene" />
		<tag k="place" v="locality" />
		<tag k="ssr:stedsnr" v="354164" />
	</node>
	<node id="-13469" lat="59.7570777771" lon="11.8367888955">
		<tag k="name" v="Nordre Gryttjenndalen" />
		<tag k="natural" v="valley" />
		<tag k="place" v="locality" />
		<tag k="ssr:stedsnr" v="354161" />
	</node>
	<node id="-13468" lat="59.775144442" lon="11.7906944373">
		<tag k="name" v="Bjørneholtet" />
		<tag k="place" v="locality" />
		<tag k="ssr:stedsnr" v="354155" />
	</node>
	<node id="-13467" lat="59.7084555535" lon="11.6967777794">
		<tag k="name" v="Vestre Hestetjenn" />
		<tag k="natural" v="water" />
		<tag k="ssr:stedsnr" v="354139" />
	</node>
	<node id="-13466" lat="59.7133999979" lon="11.7894611132">
		<tag k="name" v="Berg" />
		<tag k="place" v="locality" />
		<tag k="ssr:stedsnr" v="354119" />
	</node>
	<node id="-13465" lat="59.7385138888" lon="11.6995027755">
		<tag k="name" v="Steinstjenn" />
		<tag k="natural" v="water" />
		<tag k="ssr:stedsnr" v="354106" />
	</node>
	<node id="-13464" lat="59.7670111082" lon="11.8791222185">
		<tag k="name" v="Langemåså" />
		<tag k="natural" v="wetland" />
		<tag k="ssr:stedsnr" v="354099" />
	</node>
	<node id="-13463" lat="59.7220833356" lon="11.7849888825">
		<tag k="name" v="Mojordet" />
		<tag k="place" v="locality" />
		<tag k="ssr:stedsnr" v="354086" />
	</node>
	<node id="-13462" lat="59.6681972235" lon="11.8125944513">
		<tag k="name" v="Stasholtet" />
		<tag k="place" v="locality" />
		<tag k="ssr:stedsnr" v="354078" />
	</node>
	<node id="-13461" lat="59.6558861113" lon="11.8451000077">
		<tag k="name" v="Storemyra" />
		<tag k="natural" v="wetland" />
		<tag k="ssr:stedsnr" v="354073" />
	</node>
	<node id="-13460" lat="59.6586277808" lon="11.8459555544">
		<tag k="name" v="Svarteberget" />
		<tag k="place" v="locality" />
		<tag k="ssr:stedsnr" v="354072" />
	</node>
	<node id="-13459" lat="59.6496583298" lon="11.7645305536">
		<tag k="name" v="Lerretsmåsan" />
		<tag k="natural" v="wetland" />
		<tag k="ssr:stedsnr" v="354070" />
	</node>
	<node id="-13458" lat="59.6517499961" lon="11.7624499998">
		<tag k="name" v="Gulbrandslora" />
		<tag k="natural" v="wetland" />
		<tag k="ssr:stedsnr" v="354069" />
	</node>
	<node id="-13457" lat="59.6637833296" lon="11.8034861101">
		<tag k="name" v="Larsnebben" />
		<tag k="place" v="locality" />
		<tag k="ssr:stedsnr" v="354064" />
	</node>
	<node id="-13456" lat="59.7487166682" lon="11.897880553">
		<tag k="name" v="Skredderholmen" />
		<tag k="place" v="islet" />
		<tag k="ssr:stedsnr" v="354060" />
	</node>
	<node id="-13455" lat="59.7388555588" lon="11.8915611027">
		<tag k="name" v="Ulvekultjenn" />
		<tag k="natural" v="water" />
		<tag k="ssr:stedsnr" v="354057" />
	</node>
	<node id="-13454" lat="59.7516444476" lon="11.8722416735">
		<tag k="alt_name" v="Stangebrøttjenn" />
		<tag k="name" v="Stangebrottjenn" />
		<tag k="natural" v="water" />
		<tag k="ssr:stedsnr" v="354050" />
	</node>
	<node id="-13453" lat="59.7410361087" lon="11.8720805607">
		<tag k="name" v="Skåbomkollene" />
		<tag k="natural" v="hill" />
		<tag k="place" v="locality" />
		<tag k="ssr:stedsnr" v="354038" />
	</node>
	<node id="-13452" lat="59.7369388893" lon="11.842361116">
		<tag k="name" v="Annetjenn" />
		<tag k="natural" v="water" />
		<tag k="ssr:stedsnr" v="354011" />
	</node>
	<node id="-13451" lat="59.7372000029" lon="11.821861104">
		<tag k="name" v="Bøengene" />
		<tag k="place" v="locality" />
		<tag k="ssr:stedsnr" v="354009" />
	</node>
	<node id="-13450" lat="59.7312972211" lon="11.800491672">
		<tag k="name" v="Fugleholmen" />
		<tag k="place" v="islet" />
		<tag k="ssr:stedsnr" v="354007" />
	</node>
	<node id="-13449" lat="59.7597916707" lon="11.9240055607">
		<tag k="name" v="Røvassfallet" />
		<tag k="place" v="locality" />
		<tag k="ssr:stedsnr" v="353215" />
	</node>
	<node id="-13448" lat="59.7228277736" lon="11.8771527796">
		<tag k="name" v="Silartjenn" />
		<tag k="natural" v="water" />
		<tag k="ssr:stedsnr" v="353200" />
	</node>
	<node id="-13447" lat="59.7656499983" lon="11.9196138849">
		<tag k="name" v="Røvassfallvika" />
		<tag k="place" v="isolated_dwelling" />
		<tag k="ssr:stedsnr" v="309268" />
	</node>
	<node id="-13446" lat="59.7403638932" lon="11.8247444446">
		<tag k="name" v="Haugbakk" />
		<tag k="place" v="farm" />
		<tag k="ssr:stedsnr" v="307695" />
	</node>
	<node id="-13445" lat="59.7178527765" lon="11.7946694415">
		<tag k="name" v="Skjønhaug" />
		<tag k="place" v="farm" />
		<tag k="ssr:stedsnr" v="307659" />
	</node>
	<node id="-13444" lat="59.7371111144" lon="11.8435138854">
		<tag k="fixme" v="consider natural=peak for the most distinct mountains in the district" />
		<tag k="name" v="Lommetjennsåsen" />
		<tag k="natural" v="hill" />
		<tag k="place" v="locality" />
		<tag k="ssr:stedsnr" v="307656" />
	</node>
	<node id="-13443" lat="59.7289500022" lon="11.7772166718">
		<tag k="alt_name" v="Leirvika" />
		<tag k="name" v="Leirvik" />
		<tag k="natural" v="bay" />
		<tag k="ssr:stedsnr" v="307642" />
	</node>
	<node id="-13442" lat="59.7155750015" lon="11.9127083361">
		<tag k="fixme" v="consider natural=peak for the most distinct mountains in the district" />
		<tag k="loc_name" v="Elgseterhøgda" />
		<tag k="name" v="Elgsæterhøgda" />
		<tag k="natural" v="hill" />
		<tag k="place" v="locality" />
		<tag k="ssr:stedsnr" v="307427" />
	</node>
	<node id="-13441" lat="59.7189500031" lon="11.8741055642">
		<tag k="fixme" v="consider natural=peak for the most distinct mountains in the district" />
		<tag k="name" v="Svartebotthøgda" />
		<tag k="natural" v="hill" />
		<tag k="place" v="locality" />
		<tag k="ssr:stedsnr" v="307425" />
	</node>
	<node id="-13440" lat="59.7066083331" lon="11.8980583259">
		<tag k="name" v="Dyvelmyra" />
		<tag k="natural" v="wetland" />
		<tag k="ssr:stedsnr" v="307416" />
	</node>
	<node id="-13439" lat="59.7489722269" lon="11.910686103">
		<tag k="alt_name" v="Marisætra" />
		<tag k="historic" v="shieling" />
		<tag k="name" v="Marisetra" />
		<tag k="place" v="locality" />
		<tag k="ssr:stedsnr" v="307374" />
	</node>
	<node id="-13438" lat="59.7573111148" lon="11.901824995">
		<tag k="alt_name" v="Hornfisktjerna" />
		<tag k="name" v="Søndre Hornfisktjenn" />
		<tag k="natural" v="water" />
		<tag k="ssr:stedsnr" v="308216" />
	</node>
	<node id="-13437" lat="59.7628750016" lon="11.8926944427">
		<tag k="name" v="Delingstjenn" />
		<tag k="natural" v="water" />
		<tag k="ssr:stedsnr" v="308214" />
	</node>
	<node id="-13436" lat="59.681844447" lon="11.8504472274">
		<tag k="name" v="Høymyra" />
		<tag k="natural" v="wetland" />
		<tag k="ssr:stedsnr" v="307068" />
	</node>
	<node id="-13435" lat="59.6862749976" lon="11.8227777816">
		<tag k="name" v="Lakaholmen" />
		<tag k="place" v="islet" />
		<tag k="ssr:stedsnr" v="307366" />
	</node>
	<node id="-13434" lat="59.6854499974" lon="11.700524993">
		<tag k="loc_name" v="Store Røytjenn" />
		<tag k="name" v="Søndre Røytjenn" />
		<tag k="natural" v="water" />
		<tag k="ssr:stedsnr" v="307353" />
	</node>
	<node id="-13433" lat="59.6966083361" lon="11.7618444381">
		<tag k="name" v="Ertevann" />
		<tag k="natural" v="water" />
		<tag k="ssr:stedsnr" v="307336" />
		<tag k="water" v="lake" />
	</node>
	<node id="-13432" lat="59.7281472225" lon="11.8799944486">
		<tag k="name" v="Bastetjenn" />
		<tag k="natural" v="water" />
		<tag k="ssr:stedsnr" v="293817" />
	</node>
	<node id="-13431" lat="59.7721611151" lon="11.8642611109">
		<tag k="name" v="Geitelorten" />
		<tag k="natural" v="water" />
		<tag k="ssr:stedsnr" v="293812" />
	</node>
	<node id="-13430" lat="59.734477775" lon="11.7950249931">
		<tag k="name" v="Bjørnøysundet" />
		<tag k="natural" v="strait" />
		<tag k="ssr:stedsnr" v="293805" />
	</node>
	<node id="-13429" lat="59.7409388861" lon="11.8993777709">
		<tag k="name" v="Nedre Slatjenndammen" />
		<tag k="ssr:stedsnr" v="293800" />
		<tag k="waterway" v="dam" />
	</node>
	<node id="-13428" lat="59.7319583292" lon="11.8407638849">
		<tag k="name" v="Banen" />
		<tag k="place" v="locality" />
		<tag k="ssr:stedsnr" v="293785" />
	</node>
	<node id="-13427" lat="59.6866833299" lon="11.8394666679">
		<tag k="name" v="Støvelvika" />
		<tag k="natural" v="bay" />
		<tag k="ssr:stedsnr" v="293780" />
	</node>
	<node id="-13426" lat="59.7320111098" lon="11.9162583253">
		<tag k="name" v="Ertevassdammen" />
		<tag k="ssr:stedsnr" v="293773" />
		<tag k="waterway" v="dam" />
	</node>
	<node id="-13425" lat="59.7123944437" lon="11.7403111023">
		<tag k="name" v="Delingstjenn" />
		<tag k="natural" v="water" />
		<tag k="ssr:stedsnr" v="293758" />
	</node>
	<node id="-13424" lat="59.7269194413" lon="11.7197916739">
		<tag k="name" v="Setervik" />
		<tag k="natural" v="bay" />
		<tag k="ssr:stedsnr" v="293757" />
	</node>
	<node id="-13423" lat="59.7573861139" lon="11.7844944387">
		<tag k="name" v="Vestre Auretjenn" />
		<tag k="natural" v="water" />
		<tag k="ssr:stedsnr" v="293754" />
	</node>
	<node id="-13422" lat="59.7007888926" lon="11.7213166639">
		<tag k="name" v="Gjeddetjenn" />
		<tag k="natural" v="water" />
		<tag k="ssr:stedsnr" v="293299" />
	</node>
	<node id="-13421" lat="59.6865611085" lon="11.6760555558">
		<tag k="fixme" v="consider natural=peak for the most distinct mountains in the district" />
		<tag k="name" v="Veslerishøgda" />
		<tag k="natural" v="hill" />
		<tag k="place" v="locality" />
		<tag k="ssr:stedsnr" v="293298" />
	</node>
	<node id="-13420" lat="59.6988388855" lon="11.690297221">
		<tag k="name" v="Setertjenn" />
		<tag k="natural" v="water" />
		<tag k="ssr:stedsnr" v="293297" />
	</node>
	<node id="-13419" lat="59.6909111153" lon="11.723608329">
		<tag k="name" v="Øvre Aurekulp" />
		<tag k="natural" v="water" />
		<tag k="ssr:stedsnr" v="293291" />
	</node>
	<node id="-13418" lat="59.7532222223" lon="11.7368527822">
		<tag k="name" v="Svarteberga" />
		<tag k="natural" v="cliff" />
		<tag k="ssr:stedsnr" v="293288" />
	</node>
	<node id="-13417" lat="59.7498583345" lon="11.7331055604">
		<tag k="name" v="Vesle Bjørtjenn" />
		<tag k="natural" v="water" />
		<tag k="ssr:stedsnr" v="293287" />
	</node>
	<node id="-13416" lat="59.7105666647" lon="11.8017972134">
		<tag k="name" v="Sundsrud" />
		<tag k="place" v="farm" />
		<tag k="ssr:stedsnr" v="293279" />
	</node>
	<node id="-13415" lat="59.7048694425" lon="11.8532055567">
		<tag k="name" v="Ringsbysetra" />
		<tag k="place" v="locality" />
		<tag k="ssr:stedsnr" v="293273" />
	</node>
	<node id="-13414" lat="59.6727277787" lon="11.754886114">
		<tag k="name" v="Mastuhuken" />
		<tag k="place" v="locality" />
		<tag k="ssr:stedsnr" v="293252" />
	</node>
	<node id="-13413" lat="59.6610805601" lon="11.7789333312">
		<tag k="name" v="Mørkegangen" />
		<tag k="place" v="locality" />
		<tag k="ssr:stedsnr" v="293248" />
	</node>
	<node id="-13412" lat="59.6475888906" lon="11.7626027778">
		<tag k="name" v="Nybrusetra" />
		<tag k="place" v="locality" />
		<tag k="ssr:stedsnr" v="293243" />
	</node>
	<node id="-13411" lat="59.651986115" lon="11.7904277833">
		<tag k="fixme" v="consider natural=peak for the most distinct mountains in the district" />
		<tag k="name" v="Kuvtjennhøgda" />
		<tag k="natural" v="hill" />
		<tag k="place" v="locality" />
		<tag k="ssr:stedsnr" v="293240" />
	</node>
	<node id="-13410" lat="59.6479499994" lon="11.7891694493">
		<tag k="name" v="Styggekleiva" />
		<tag k="place" v="locality" />
		<tag k="ssr:stedsnr" v="293233" />
	</node>
	<node id="-13409" lat="59.7076833341" lon="11.6993999984">
		<tag k="name" v="Østre Hestetjenn" />
		<tag k="natural" v="water" />
		<tag k="ssr:stedsnr" v="293231" />
	</node>
	<node id="-13408" lat="59.6739166657" lon="11.8543055639">
		<tag k="name" v="Springarmoen" />
		<tag k="place" v="locality" />
		<tag k="ssr:stedsnr" v="293226" />
	</node>
	<node id="-13407" lat="59.6811666662" lon="11.868016672">
		<tag k="junction" v="yes" />
		<tag k="name" v="Grevlingdråga" />
		<tag k="place" v="locality" />
		<tag k="ssr:stedsnr" v="293219" />
	</node>
	<node id="-13406" lat="59.6943750034" lon="11.9063527728">
		<tag k="fixme" v="consider natural=peak for the most distinct mountains in the district" />
		<tag k="name" v="Furukollfinnen" />
		<tag k="natural" v="hill" />
		<tag k="place" v="locality" />
		<tag k="ssr:stedsnr" v="293217" />
	</node>
	<node id="-13405" lat="59.7199111085" lon="11.9321916718">
		<tag k="name" v="Høymyrklomma" />
		<tag k="place" v="locality" />
		<tag k="ssr:stedsnr" v="293214" />
	</node>
	<node id="-13404" lat="59.7048833324" lon="11.9235166707">
		<tag k="name" v="Skallebakkene" />
		<tag k="place" v="locality" />
		<tag k="ssr:stedsnr" v="293210" />
	</node>
	<node id="-13403" lat="59.7697888868" lon="11.9107694436">
		<tag k="name" v="Flaholmene" />
		<tag k="place" v="islet" />
		<tag k="ssr:stedsnr" v="293202" />
	</node>
	<node id="-13402" lat="59.7741361103" lon="11.9230861092">
		<tag k="name" v="Fjøsmåsan" />
		<tag k="natural" v="wetland" />
		<tag k="ssr:stedsnr" v="293197" />
	</node>
	<node id="-13401" lat="59.73465" lon="11.8084416738">
		<tag k="amenity" v="place_of_worship" />
		<tag k="fixme" v="specify religion=*, denomination=*, building=* etc" />
		<tag k="name" v="Bedehuset" />
		<tag k="ssr:stedsnr" v="293175" />
	</node>
	<node id="-13400" lat="59.7219444453" lon="11.8251111046">
		<tag k="name" v="Engene" />
		<tag k="place" v="locality" />
		<tag k="ssr:stedsnr" v="293171" />
	</node>
	<node id="-13399" lat="59.7788500023" lon="11.7960638845">
		<tag k="name" v="Trandumseterhaget" />
		<tag k="place" v="locality" />
		<tag k="ssr:stedsnr" v="293167" />
	</node>
	<node id="-13398" lat="59.6619138886" lon="11.8612222229">
		<tag k="name" v="Gravene" />
		<tag k="place" v="locality" />
		<tag k="ssr:stedsnr" v="293152" />
	</node>
	<node id="-13397" lat="59.6512916677" lon="11.8199277787">
		<tag k="name" v="Kjerringhelvete" />
		<tag k="place" v="locality" />
		<tag k="ssr:stedsnr" v="293138" />
	</node>
	<node id="-13396" lat="59.7402361095" lon="11.7318583326">
		<tag k="name" v="Stemningen" />
		<tag k="place" v="locality" />
		<tag k="ssr:stedsnr" v="293119" />
	</node>
	<node id="-13395" lat="59.7109944404" lon="11.7510083377">
		<tag k="name" v="Østre Klokkartjenn" />
		<tag k="natural" v="water" />
		<tag k="ssr:stedsnr" v="293116" />
	</node>
	<node id="-13394" lat="59.6670916654" lon="11.8292305545">
		<tag k="name" v="Ormetangen" />
		<tag k="natural" v="cape" />
		<tag k="ssr:stedsnr" v="293102" />
	</node>
	<node id="-13393" lat="59.6544861074" lon="11.7503722282">
		<tag k="name" v="Bjurtjenn" />
		<tag k="natural" v="water" />
		<tag k="ssr:stedsnr" v="293098" />
	</node>
	<node id="-13392" lat="59.6640583314" lon="11.7761611149">
		<tag k="fixme" v="consider natural=peak for the most distinct mountains in the district" />
		<tag k="name" v="Skavholtåsen" />
		<tag k="natural" v="hill" />
		<tag k="place" v="locality" />
		<tag k="ssr:stedsnr" v="293080" />
	</node>
	<node id="-13391" lat="59.7254833318" lon="11.8867222296">
		<tag k="name" v="Venetjenn" />
		<tag k="natural" v="water" />
		<tag k="ssr:stedsnr" v="293073" />
	</node>
	<node id="-13390" lat="59.7759222236" lon="11.8767527717">
		<tag k="historic" v="shieling" />
		<tag k="name" v="Flinttjennsetrene" />
		<tag k="place" v="locality" />
		<tag k="ssr:stedsnr" v="293045" />
	</node>
	<node id="-13389" lat="59.7510749994" lon="11.7710944359">
		<tag k="name" v="Store Bjørndalen" />
		<tag k="natural" v="valley" />
		<tag k="place" v="locality" />
		<tag k="ssr:stedsnr" v="293036" />
	</node>
	<node id="-13388" lat="59.7383333349" lon="11.8555250028">
		<tag k="name" v="Dropletjenn" />
		<tag k="natural" v="water" />
		<tag k="ssr:stedsnr" v="293019" />
	</node>
	<node id="-13387" lat="59.7810888927" lon="11.8449583372">
		<tag k="name" v="Vesle Gjesstjenn" />
		<tag k="natural" v="water" />
		<tag k="ssr:stedsnr" v="293020" />
	</node>
	<node id="-13386" lat="59.772613885" lon="11.9324333253">
		<tag k="alt_name" v="Store Strøtjernet" />
		<tag k="historic" v="boundary_stone" />
		<tag k="man_made" v="cairn" />
		<tag k="name" v="Strøtjern" />
		<tag k="old_name" v="Strøe Kiernet;Strøekiærnet" />
		<tag k="place" v="locality" />
		<tag k="ssr:stedsnr" v="292550" />
	</node>
</osm>
