<?xml version="1.0" encoding="UTF-8"?>
<osm generator="osmapis" version="0.6">
	<node id="-13818" lat="59.7740472245" lon="11.88810278">
		<tag k="name" v="Gammelsetra" />
		<tag k="place" v="locality" />
		<tag k="ssr:stedsnr" v="233184" />
	</node>
	<node id="-13807" lat="59.6380249972" lon="11.7207027745">
		<tag k="name" v="Torvehauga" />
		<tag k="place" v="locality" />
		<tag k="ssr:stedsnr" v="233068" />
	</node>
	<node id="-13806" lat="59.6586805596" lon="11.8101611192">
		<tag k="name" v="Røgdebråtan" />
		<tag k="place" v="locality" />
		<tag k="ssr:stedsnr" v="233063" />
	</node>
	<node id="-13802" lat="59.6845555549" lon="11.7603361044">
		<tag k="name" v="Slavassbakken" />
		<tag k="place" v="locality" />
		<tag k="ssr:stedsnr" v="233022" />
	</node>
	<node id="-14312" lat="59.7602305544" lon="11.7605083368">
		<tag k="name" v="Karissetra" />
		<tag k="place" v="locality" />
		<tag k="ssr:stedsnr" v="961219" />
	</node>
	<node id="-14311" lat="59.6547472197" lon="11.766461109">
		<tag k="name" v="Skavholta" />
		<tag k="place" v="locality" />
		<tag k="ssr:stedsnr" v="961188" />
	</node>
	<node id="-14307" lat="59.7698527821" lon="11.8306055576">
		<tag k="name" v="Stormyrbrenna" />
		<tag k="place" v="locality" />
		<tag k="ssr:stedsnr" v="961140" />
	</node>
	<node id="-14306" lat="59.7206361104" lon="11.8508333343">
		<tag k="name" v="Sandviksanden" />
		<tag k="place" v="locality" />
		<tag k="ssr:stedsnr" v="961134" />
	</node>
	<node id="-13791" lat="59.6789944431" lon="11.8013277853">
		<tag k="name" v="Bakkenga" />
		<tag k="place" v="locality" />
		<tag k="ssr:stedsnr" v="232220" />
	</node>
	<node id="-13788" lat="59.665827777" lon="11.7620972181">
		<tag k="name" v="Hagasetra" />
		<tag k="place" v="locality" />
		<tag k="ssr:stedsnr" v="232209" />
	</node>
	<node id="-13783" lat="59.752025" lon="11.8993777714">
		<tag k="name" v="Jørnesetra" />
		<tag k="place" v="locality" />
		<tag k="ssr:stedsnr" v="232180" />
	</node>
	<node id="-13782" lat="59.7444583352" lon="11.8605888851">
		<tag k="name" v="Kleiva" />
		<tag k="place" v="locality" />
		<tag k="ssr:stedsnr" v="232177" />
	</node>
	<node id="-13779" lat="59.7417166648" lon="11.8337249945">
		<tag k="name" v="Høgemoen" />
		<tag k="place" v="locality" />
		<tag k="ssr:stedsnr" v="232148" />
	</node>
	<node id="-14290" lat="59.7660444459" lon="11.8665138935">
		<tag k="name" v="Hvilarberget" />
		<tag k="place" v="locality" />
		<tag k="ssr:stedsnr" v="960156" />
	</node>
	<node id="-13776" lat="59.7080583359" lon="11.8843861137">
		<tag k="name" v="Kjørestuhaget" />
		<tag k="place" v="locality" />
		<tag k="ssr:stedsnr" v="232124" />
	</node>
	<node id="-13755" lat="59.6539833361" lon="11.836274996">
		<tag k="name" v="Kornbråtan" />
		<tag k="place" v="locality" />
		<tag k="ssr:stedsnr" v="172182" />
	</node>
	<node id="-13754" lat="59.6786333325" lon="11.7930722137">
		<tag k="name" v="Lenkeberga" />
		<tag k="place" v="locality" />
		<tag k="ssr:stedsnr" v="172241" />
	</node>
	<node id="-13556" lat="59.7239638908" lon="11.9361944407">
		<tag k="name" v="Svartebergslusa" />
		<tag k="place" v="locality" />
		<tag k="ssr:stedsnr" v="475163" />
	</node>
	<node id="-14262" lat="59.7020777746" lon="11.9373694399">
		<tag k="name" v="Tjærommen" />
		<tag k="place" v="locality" />
		<tag k="ssr:stedsnr" v="900793" />
	</node>
	<node id="-14258" lat="59.6652694428" lon="11.7626749933">
		<tag k="name" v="Bunessetra" />
		<tag k="place" v="locality" />
		<tag k="ssr:stedsnr" v="900229" />
	</node>
	<node id="-14254" lat="59.6515555547" lon="11.7941027854">
		<tag k="name" v="Brynildsbråtadråga" />
		<tag k="place" v="locality" />
		<tag k="ssr:stedsnr" v="900219" />
	</node>
	<node id="-14252" lat="59.7202722189" lon="11.8858805555">
		<tag k="name" v="Dronninga" />
		<tag k="place" v="locality" />
		<tag k="ssr:stedsnr" v="900191" />
	</node>
	<node id="-14248" lat="59.7624277779" lon="11.7789805554">
		<tag k="name" v="Seterbrenna" />
		<tag k="place" v="locality" />
		<tag k="ssr:stedsnr" v="900169" />
	</node>
	<node id="-13735" lat="59.7588194406" lon="11.8037916656">
		<tag k="name" v="Sandbekkekrene" />
		<tag k="place" v="locality" />
		<tag k="ssr:stedsnr" v="172024" />
	</node>
	<node id="-14246" lat="59.7356527744" lon="11.8260916676">
		<tag k="name" v="Korpeberga" />
		<tag k="place" v="locality" />
		<tag k="ssr:stedsnr" v="900152" />
	</node>
	<node id="-13732" lat="59.6574111101" lon="11.8407194445">
		<tag k="name" v="Tyrihjellen" />
		<tag k="place" v="locality" />
		<tag k="ssr:stedsnr" v="172075" />
	</node>
	<node id="-14239" lat="59.7458222266" lon="11.7410194373">
		<tag k="name" v="Steinbysetra" />
		<tag k="place" v="locality" />
		<tag k="ssr:stedsnr" v="900106" />
	</node>
	<node id="-13724" lat="59.7001194448" lon="11.8666166624">
		<tag k="name" v="Innleggen" />
		<tag k="place" v="locality" />
		<tag k="ssr:stedsnr" v="171108" />
	</node>
	<node id="-14231" lat="59.694155556" lon="11.852063882">
		<tag k="name" v="Bikkjevelta" />
		<tag k="place" v="locality" />
		<tag k="ssr:stedsnr" v="900031" />
	</node>
	<node id="-14230" lat="59.6967472197" lon="11.7858000022">
		<tag k="name" v="Renneslora" />
		<tag k="place" v="locality" />
		<tag k="ssr:stedsnr" v="900030" />
	</node>
	<node id="-14226" lat="59.7358027756" lon="11.7761666668">
		<tag k="name" v="Kopperud mølle" />
		<tag k="place" v="locality" />
		<tag k="ssr:stedsnr" v="900006" />
	</node>
	<node id="-13696" lat="59.709005559" lon="11.7776777711">
		<tag k="name" v="Gubberud" />
		<tag k="place" v="locality" />
		<tag k="ssr:stedsnr" v="111227" />
	</node>
	<node id="-13691" lat="59.6676083313" lon="11.8207861052">
		<tag k="name" v="Kudalen" />
		<tag k="place" v="locality" />
		<tag k="ssr:stedsnr" v="111199" />
	</node>
	<node id="-14201" lat="59.7307611131" lon="11.9150972195">
		<tag k="name" v="Ertevasslora" />
		<tag k="place" v="locality" />
		<tag k="ssr:stedsnr" v="840798" />
	</node>
	<node id="-13686" lat="59.7225500014" lon="11.9065388964">
		<tag k="name" v="Østtukusetra" />
		<tag k="place" v="locality" />
		<tag k="ssr:stedsnr" v="111172" />
	</node>
	<node id="-14197" lat="59.6820222242" lon="11.7607305551">
		<tag k="name" v="Kulpesetra" />
		<tag k="place" v="locality" />
		<tag k="ssr:stedsnr" v="840230" />
	</node>
	<node id="-14195" lat="59.650008329" lon="11.7899972251">
		<tag k="name" v="Rømungbråtan" />
		<tag k="place" v="locality" />
		<tag k="ssr:stedsnr" v="840197" />
	</node>
	<node id="-13680" lat="59.7122194461" lon="11.8700000063">
		<tag k="name" v="Svingbakken" />
		<tag k="place" v="locality" />
		<tag k="ssr:stedsnr" v="111130" />
	</node>
	<node id="-14190" lat="59.7800388916" lon="11.7882694508">
		<tag k="name" v="Ned-Gropa" />
		<tag k="place" v="locality" />
		<tag k="ssr:stedsnr" v="840143" />
	</node>
	<node id="-14189" lat="59.7384638931" lon="11.8527777847">
		<tag k="name" v="Sandtjennliene" />
		<tag k="place" v="locality" />
		<tag k="ssr:stedsnr" v="840141" />
	</node>
	<node id="-13675" lat="59.7046611072" lon="11.7731749965">
		<tag k="name" v="Framsetrene" />
		<tag k="place" v="locality" />
		<tag k="ssr:stedsnr" v="111082" />
	</node>
	<node id="-13673" lat="59.6625222204" lon="11.7989416619">
		<tag k="name" v="Bottefallet" />
		<tag k="place" v="locality" />
		<tag k="ssr:stedsnr" v="111058" />
	</node>
	<node id="-13670" lat="59.7697638917" lon="11.9050305644">
		<tag k="name" v="Flavelta" />
		<tag k="place" v="locality" />
		<tag k="ssr:stedsnr" v="111021" />
	</node>
	<node id="-14181" lat="59.7732694462" lon="11.7884361024">
		<tag k="name" v="Gravermoen" />
		<tag k="place" v="locality" />
		<tag k="ssr:stedsnr" v="840095" />
	</node>
	<node id="-13627" lat="59.6702333352" lon="11.7340944394">
		<tag k="name" v="Langvassaga" />
		<tag k="place" v="locality" />
		<tag k="ssr:stedsnr" v="51243" />
	</node>
	<node id="-14173" lat="59.7698666668" lon="11.9020472163">
		<tag k="name" v="Kørresetra" />
		<tag k="place" v="locality" />
		<tag k="ssr:stedsnr" v="840030" />
	</node>
	<node id="-13626" lat="59.6755888933" lon="11.73627222">
		<tag k="name" v="Djuptjennbakkene" />
		<tag k="place" v="locality" />
		<tag k="ssr:stedsnr" v="51239" />
	</node>
	<node id="-13649" lat="59.7269055595" lon="11.8163861108">
		<tag k="amenity" v="place_of_worship" />
		<tag k="denomination" v="lutheran" />
		<tag k="name" v="Rømskog kirke" />
		<tag k="religion" v="christian" />
		<tag k="ssr:stedsnr" v="64649" />
	</node>
	<node id="-13634" lat="59.6833861121" lon="11.6907444455">
		<tag k="name" v="Tangemannsposten" />
		<tag k="place" v="locality" />
		<tag k="ssr:stedsnr" v="51282" />
	</node>
	<node id="-14144" lat="59.6804805576" lon="11.7213388856">
		<tag k="name" v="Tollefsetra" />
		<tag k="place" v="locality" />
		<tag k="ssr:stedsnr" v="779250" />
	</node>
	<node id="-13631" lat="59.715674997" lon="11.7808638968">
		<tag k="name" v="Haugenesfjella" />
		<tag k="place" v="locality" />
		<tag k="ssr:stedsnr" v="51270" />
	</node>
	<node id="-14142" lat="59.6627555574" lon="11.7312472212">
		<tag k="name" v="Helleren" />
		<tag k="place" v="locality" />
		<tag k="ssr:stedsnr" v="779209" />
	</node>
	<node id="-14141" lat="59.6648666629" lon="11.7570111026">
		<tag k="name" v="Strandsetra" />
		<tag k="place" v="locality" />
		<tag k="ssr:stedsnr" v="779208" />
	</node>
	<node id="-14139" lat="59.7428805528" lon="11.8356027753">
		<tag k="name" v="Grytebekksaga" />
		<tag k="place" v="locality" />
		<tag k="ssr:stedsnr" v="779150" />
	</node>
	<node id="-14138" lat="59.7301999962" lon="11.8105583329">
		<tag k="name" v="Bøsanden" />
		<tag k="place" v="locality" />
		<tag k="ssr:stedsnr" v="779138" />
	</node>
	<node id="-13625" lat="59.6583416644" lon="11.7373888808">
		<tag k="name" v="Nessetra" />
		<tag k="place" v="locality" />
		<tag k="ssr:stedsnr" v="51237" />
	</node>
	<node id="-13622" lat="59.7629861108" lon="11.9310527836">
		<tag k="name" v="Fløytestua" />
		<tag k="place" v="locality" />
		<tag k="ssr:stedsnr" v="51174" />
	</node>
	<node id="-13621" lat="59.7074611128" lon="11.891108337">
		<tag k="name" v="Hagesetra" />
		<tag k="place" v="locality" />
		<tag k="ssr:stedsnr" v="51171" />
	</node>
	<node id="-14132" lat="59.6981805598" lon="11.788958329">
		<tag k="name" v="Stinta" />
		<tag k="place" v="locality" />
		<tag k="ssr:stedsnr" v="779024" />
	</node>
	<node id="-13618" lat="59.7575694416" lon="11.8167777801">
		<tag k="name" v="Brennemoen" />
		<tag k="place" v="locality" />
		<tag k="ssr:stedsnr" v="51161" />
	</node>
	<node id="-14128" lat="59.7505111089" lon="11.8869777746">
		<tag k="name" v="Brenna" />
		<tag k="place" v="locality" />
		<tag k="ssr:stedsnr" v="778185" />
	</node>
	<node id="-14127" lat="59.77980556" lon="11.8958527799">
		<tag k="name" v="Hølvassetra" />
		<tag k="place" v="locality" />
		<tag k="ssr:stedsnr" v="778173" />
	</node>
	<node id="-13614" lat="59.6424416625" lon="11.7706111108">
		<tag k="name" v="Seterneset" />
		<tag k="place" v="locality" />
		<tag k="ssr:stedsnr" v="51115" />
	</node>
	<node id="-13609" lat="59.6587166667" lon="11.8570611097">
		<tag k="name" v="Skolestua" />
		<tag k="place" v="locality" />
		<tag k="ssr:stedsnr" v="51086" />
	</node>
	<node id="-13616" lat="59.7751833341" lon="11.7808083258">
		<tag k="name" v="Tukuseterhaget" />
		<tag k="place" v="locality" />
		<tag k="ssr:stedsnr" v="51146" />
	</node>
	<node id="-13597" lat="59.7127027802" lon="11.8771027701">
		<tag k="name" v="Ringsbysetra" />
		<tag k="place" v="locality" />
		<tag k="ssr:stedsnr" v="50116" />
	</node>
	<node id="-13427" lat="59.6619138886" lon="11.8612222229">
		<tag k="name" v="Gravene" />
		<tag k="place" v="locality" />
		<tag k="ssr:stedsnr" v="293152" />
	</node>
	<node id="-13478" lat="59.7597916707" lon="11.9240055607">
		<tag k="name" v="Røvassfallet" />
		<tag k="place" v="locality" />
		<tag k="ssr:stedsnr" v="353215" />
	</node>
	<node id="-14099" lat="59.6488527772" lon="11.8187833274">
		<tag k="name" v="Nøttakjerrbakka" />
		<tag k="place" v="locality" />
		<tag k="ssr:stedsnr" v="718192" />
	</node>
	<node id="-14098" lat="59.7059972217" lon="11.8956055616">
		<tag k="name" v="Dypilvadet" />
		<tag k="place" v="locality" />
		<tag k="ssr:stedsnr" v="718176" />
	</node>
	<node id="-14095" lat="59.7240250016" lon="11.7858999943">
		<tag k="name" v="Solberg" />
		<tag k="place" v="locality" />
		<tag k="ssr:stedsnr" v="718171" />
	</node>
	<node id="-14092" lat="59.7620611101" lon="11.7788972283">
		<tag k="name" v="Torgersetra" />
		<tag k="place" v="locality" />
		<tag k="ssr:stedsnr" v="718160" />
	</node>
	<node id="-14091" lat="59.7630111068" lon="11.7958972255">
		<tag k="name" v="Hestein" />
		<tag k="place" v="locality" />
		<tag k="ssr:stedsnr" v="718161" />
	</node>
	<node id="-14090" lat="59.7258055581" lon="11.8198333326">
		<tag k="name" v="Kjørkesanden" />
		<tag k="place" v="locality" />
		<tag k="ssr:stedsnr" v="718157" />
	</node>
	<node id="-14084" lat="59.6585444457" lon="11.8384888891">
		<tag k="name" v="Klomma" />
		<tag k="place" v="locality" />
		<tag k="ssr:stedsnr" v="718071" />
	</node>
	<node id="-13571" lat="59.6897055588" lon="11.6707611058">
		<tag k="name" v="Løkensetra" />
		<tag k="place" v="locality" />
		<tag k="ssr:stedsnr" v="475252" />
	</node>
	<node id="-14078" lat="59.6911499981" lon="11.8489805511">
		<tag k="name" v="Tverrdalsvelta" />
		<tag k="place" v="locality" />
		<tag k="ssr:stedsnr" v="718028" />
	</node>
	<node id="-13564" lat="59.6765749984" lon="11.7190861196">
		<tag k="name" v="Engemåsasetra" />
		<tag k="place" v="locality" />
		<tag k="ssr:stedsnr" v="475216" />
	</node>
	<node id="-13562" lat="59.6389055584" lon="11.7601694504">
		<tag k="name" v="Pølsekleivsleppa" />
		<tag k="place" v="locality" />
		<tag k="ssr:stedsnr" v="475204" />
	</node>
	<node id="-13561" lat="59.6423444427" lon="11.7423499947">
		<tag k="name" v="Kasthalla" />
		<tag k="place" v="locality" />
		<tag k="ssr:stedsnr" v="475196" />
	</node>
	<node id="-14072" lat="59.7407833305" lon="11.7154555576">
		<tag k="name" v="Stemningen" />
		<tag k="place" v="locality" />
		<tag k="ssr:stedsnr" v="718245" />
	</node>
	<node id="-14071" lat="59.7075166683" lon="11.8529527723">
		<tag k="name" v="Flesabekkvelta" />
		<tag k="place" v="locality" />
		<tag k="ssr:stedsnr" v="718239" />
	</node>
	<node id="-14068" lat="59.6946472224" lon="11.932080555">
		<tag k="name" v="Styggestellet" />
		<tag k="place" v="locality" />
		<tag k="ssr:stedsnr" v="717176" />
	</node>
	<node id="-14067" lat="59.7746833309" lon="11.8958361095">
		<tag k="name" v="Gamle Promstø" />
		<tag k="place" v="locality" />
		<tag k="ssr:stedsnr" v="717170" />
	</node>
	<node id="-13554" lat="59.749422225" lon="11.7774916583">
		<tag k="name" v="Kollen" />
		<tag k="place" v="locality" />
		<tag k="ssr:stedsnr" v="475143" />
	</node>
	<node id="-13551" lat="59.6471722263" lon="11.7721361057">
		<tag k="name" v="Bråtasetra" />
		<tag k="place" v="locality" />
		<tag k="ssr:stedsnr" v="475111" />
	</node>
	<node id="-13548" lat="59.7729611147" lon="11.7856472278">
		<tag k="name" v="Hjulemyrbakken" />
		<tag k="place" v="locality" />
		<tag k="ssr:stedsnr" v="475088" />
	</node>
	<node id="-13547" lat="59.723808333" lon="11.8857250008">
		<tag k="name" v="Bøsetrene" />
		<tag k="place" v="locality" />
		<tag k="ssr:stedsnr" v="475063" />
	</node>
	<node id="-14045" lat="59.7364916702" lon="11.6925777699">
		<tag k="name" v="Vortungsteinen" />
		<tag k="place" v="locality" />
		<tag k="ssr:stedsnr" v="657725" />
	</node>
	<node id="-14041" lat="59.7067333327" lon="11.917897218">
		<tag k="name" v="Oksehølet" />
		<tag k="place" v="locality" />
		<tag k="ssr:stedsnr" v="657171" />
	</node>
	<node id="-14040" lat="59.7720944416" lon="11.8980166646">
		<tag k="name" v="Kulevelta" />
		<tag k="place" v="locality" />
		<tag k="ssr:stedsnr" v="657166" />
	</node>
	<node id="-14038" lat="59.7505611137" lon="11.8818722266">
		<tag k="name" v="Veststusetra" />
		<tag k="place" v="locality" />
		<tag k="ssr:stedsnr" v="657154" />
	</node>
	<node id="-14035" lat="59.7155083301" lon="11.8986166693">
		<tag k="name" v="Verphaugen" />
		<tag k="place" v="locality" />
		<tag k="ssr:stedsnr" v="657139" />
	</node>
	<node id="-14029" lat="59.7061722198" lon="11.751766671">
		<tag k="name" v="Skanseberga" />
		<tag k="place" v="locality" />
		<tag k="ssr:stedsnr" v="657114" />
	</node>
	<node id="-14026" lat="59.659499996" lon="11.852952779">
		<tag k="name" v="Sandbakken" />
		<tag k="place" v="locality" />
		<tag k="ssr:stedsnr" v="657073" />
	</node>
	<node id="-14021" lat="59.7453027766" lon="11.7547194506">
		<tag k="name" v="Sagsleppa" />
		<tag k="place" v="locality" />
		<tag k="ssr:stedsnr" v="657028" />
	</node>
	<node id="-13508" lat="59.7110444434" lon="11.7802138848">
		<tag k="name" v="Rugbråtene" />
		<tag k="place" v="locality" />
		<tag k="ssr:stedsnr" v="354258" />
	</node>
	<node id="-14018" lat="59.7333888886" lon="11.8072861152">
		<tag k="name" v="Bøhaget" />
		<tag k="place" v="locality" />
		<tag k="ssr:stedsnr" v="657012" />
	</node>
	<node id="-13505" lat="59.6454611087" lon="11.7342611047">
		<tag k="name" v="Pengegravhalsen" />
		<tag k="place" v="locality" />
		<tag k="ssr:stedsnr" v="354227" />
	</node>
	<node id="-13504" lat="59.6643138931" lon="11.807597229">
		<tag k="name" v="Nessetra" />
		<tag k="place" v="locality" />
		<tag k="ssr:stedsnr" v="354224" />
	</node>
	<node id="-13503" lat="59.6629333375" lon="11.7839333283">
		<tag k="name" v="Maisetra" />
		<tag k="place" v="locality" />
		<tag k="ssr:stedsnr" v="354221" />
	</node>
	<node id="-13501" lat="59.6659194429" lon="11.8331805536">
		<tag k="name" v="Kjørketangen" />
		<tag k="place" v="locality" />
		<tag k="ssr:stedsnr" v="354208" />
	</node>
	<node id="-13499" lat="59.7275638924" lon="11.7650194458">
		<tag k="name" v="Kopperudbakkene" />
		<tag k="place" v="locality" />
		<tag k="ssr:stedsnr" v="354164" />
	</node>
	<node id="-13497" lat="59.775144442" lon="11.7906944373">
		<tag k="name" v="Bjørneholtet" />
		<tag k="place" v="locality" />
		<tag k="ssr:stedsnr" v="354155" />
	</node>
	<node id="-13495" lat="59.7133999979" lon="11.7894611132">
		<tag k="name" v="Berg" />
		<tag k="place" v="locality" />
		<tag k="ssr:stedsnr" v="354119" />
	</node>
	<node id="-13492" lat="59.7220833356" lon="11.7849888825">
		<tag k="name" v="Mojordet" />
		<tag k="place" v="locality" />
		<tag k="ssr:stedsnr" v="354086" />
	</node>
	<node id="-13491" lat="59.6681972235" lon="11.8125944513">
		<tag k="name" v="Stasholtet" />
		<tag k="place" v="locality" />
		<tag k="ssr:stedsnr" v="354078" />
	</node>
	<node id="-13683" lat="59.7448138909" lon="11.7591638841">
		<tag k="name" v="Damjordet" />
		<tag k="place" v="locality" />
		<tag k="ssr:stedsnr" v="111146" />
	</node>
	<node id="-13486" lat="59.6637833296" lon="11.8034861101">
		<tag k="name" v="Larsnebben" />
		<tag k="place" v="locality" />
		<tag k="ssr:stedsnr" v="354064" />
	</node>
	<node id="-13480" lat="59.7372000029" lon="11.821861104">
		<tag k="name" v="Bøengene" />
		<tag k="place" v="locality" />
		<tag k="ssr:stedsnr" v="354009" />
	</node>
	<node id="-13991" lat="59.728280554" lon="11.7200472171">
		<tag k="name" v="Snapsetra" />
		<tag k="place" v="locality" />
		<tag k="ssr:stedsnr" v="596240" />
	</node>
	<node id="-13990" lat="59.7398111078" lon="11.7401000072">
		<tag k="name" v="Vortungsaga" />
		<tag k="place" v="locality" />
		<tag k="ssr:stedsnr" v="596238" />
	</node>
	<node id="-13989" lat="59.7147138885" lon="11.8175666638">
		<tag k="name" v="Storøen" />
		<tag k="place" v="locality" />
		<tag k="ssr:stedsnr" v="596229" />
	</node>
	<node id="-13986" lat="59.6753194467" lon="11.7461444511">
		<tag k="name" v="Løftingsteindrågene" />
		<tag k="place" v="locality" />
		<tag k="ssr:stedsnr" v="596205" />
	</node>
	<node id="-13985" lat="59.6515499961" lon="11.8589722178">
		<tag k="name" v="Radiofyr" />
		<tag k="place" v="locality" />
		<tag k="ssr:stedsnr" v="596192" />
	</node>
	<node id="-13983" lat="59.7448305592" lon="11.8928250074">
		<tag k="name" v="Larshytta" />
		<tag k="place" v="locality" />
		<tag k="ssr:stedsnr" v="596188" />
	</node>
	<node id="-13982" lat="59.6968805511" lon="11.9318138927">
		<tag k="name" v="Merrasleppa" />
		<tag k="place" v="locality" />
		<tag k="ssr:stedsnr" v="596181" />
	</node>
	<node id="-13509" lat="59.7015416692" lon="11.770766661">
		<tag k="name" v="Brochmannsbjørka" />
		<tag k="place" v="locality" />
		<tag k="ssr:stedsnr" v="354261" />
	</node>
	<node id="-13980" lat="59.749013887" lon="11.803861104">
		<tag k="name" v="Skurås" />
		<tag k="place" v="locality" />
		<tag k="ssr:stedsnr" v="596148" />
	</node>
	<node id="-13976" lat="59.6489527813" lon="11.8113000089">
		<tag k="name" v="Orebruholtet" />
		<tag k="place" v="locality" />
		<tag k="ssr:stedsnr" v="596116" />
	</node>
	<node id="-13975" lat="59.714524996" lon="11.7880611091">
		<tag k="name" v="Struten" />
		<tag k="place" v="locality" />
		<tag k="ssr:stedsnr" v="596112" />
	</node>
	<node id="-13974" lat="59.7425916703" lon="11.7360916591">
		<tag k="name" v="Bottsetra" />
		<tag k="place" v="locality" />
		<tag k="ssr:stedsnr" v="596102" />
	</node>
	<node id="-13970" lat="59.6451333294" lon="11.7605388958">
		<tag k="name" v="Haugersetra" />
		<tag k="place" v="locality" />
		<tag k="ssr:stedsnr" v="596090" />
	</node>
	<node id="-13457" lat="59.7319583292" lon="11.8407638849">
		<tag k="name" v="Banen" />
		<tag k="place" v="locality" />
		<tag k="ssr:stedsnr" v="293785" />
	</node>
	<node id="-13968" lat="59.6700749957" lon="11.8025194528">
		<tag k="name" v="Jakopsbråtan" />
		<tag k="place" v="locality" />
		<tag k="ssr:stedsnr" v="596079" />
	</node>
	<node id="-13966" lat="59.6503222247" lon="11.7509527742">
		<tag k="name" v="Spettfuruvadet" />
		<tag k="place" v="locality" />
		<tag k="ssr:stedsnr" v="596070" />
	</node>
	<node id="-13964" lat="59.739538889" lon="11.8241944417">
		<tag k="name" v="Haugbakkastet" />
		<tag k="place" v="locality" />
		<tag k="ssr:stedsnr" v="596012" />
	</node>
	<node id="-13444" lat="59.7048694425" lon="11.8532055567">
		<tag k="name" v="Ringsbysetra" />
		<tag k="place" v="locality" />
		<tag k="ssr:stedsnr" v="293273" />
	</node>
	<node id="-13443" lat="59.6727277787" lon="11.754886114">
		<tag k="name" v="Mastuhuken" />
		<tag k="place" v="locality" />
		<tag k="ssr:stedsnr" v="293252" />
	</node>
	<node id="-13442" lat="59.6610805601" lon="11.7789333312">
		<tag k="name" v="Mørkegangen" />
		<tag k="place" v="locality" />
		<tag k="ssr:stedsnr" v="293248" />
	</node>
	<node id="-13441" lat="59.6475888906" lon="11.7626027778">
		<tag k="name" v="Nybrusetra" />
		<tag k="place" v="locality" />
		<tag k="ssr:stedsnr" v="293243" />
	</node>
	<node id="-13439" lat="59.6479499994" lon="11.7891694493">
		<tag k="name" v="Styggekleiva" />
		<tag k="place" v="locality" />
		<tag k="ssr:stedsnr" v="293233" />
	</node>
	<node id="-13437" lat="59.6739166657" lon="11.8543055639">
		<tag k="name" v="Springarmoen" />
		<tag k="place" v="locality" />
		<tag k="ssr:stedsnr" v="293226" />
	</node>
	<node id="-13434" lat="59.7199111085" lon="11.9321916718">
		<tag k="name" v="Høymyrklomma" />
		<tag k="place" v="locality" />
		<tag k="ssr:stedsnr" v="293214" />
	</node>
	<node id="-13433" lat="59.7048833324" lon="11.9235166707">
		<tag k="name" v="Skallebakkene" />
		<tag k="place" v="locality" />
		<tag k="ssr:stedsnr" v="293210" />
	</node>
	<node id="-13430" lat="59.73465" lon="11.8084416738">
		<tag k="amenity" v="place_of_worship" />
		<tag k="fixme" v="specify religion=*, denomination=*, building=* etc" />
		<tag k="name" v="Bedehuset" />
		<tag k="ssr:stedsnr" v="293175" />
	</node>
	<node id="-13429" lat="59.7219444453" lon="11.8251111046">
		<tag k="name" v="Engene" />
		<tag k="place" v="locality" />
		<tag k="ssr:stedsnr" v="293171" />
	</node>
	<node id="-13428" lat="59.7788500023" lon="11.7960638845">
		<tag k="name" v="Trandumseterhaget" />
		<tag k="place" v="locality" />
		<tag k="ssr:stedsnr" v="293167" />
	</node>
	<node id="-13939" lat="59.7240611084" lon="11.8073055512">
		<tag k="name" v="Tørkehusgrunna" />
		<tag k="place" v="locality" />
		<tag k="ssr:stedsnr" v="536769" />
	</node>
	<node id="-13426" lat="59.6512916677" lon="11.8199277787">
		<tag k="name" v="Kjerringhelvete" />
		<tag k="place" v="locality" />
		<tag k="ssr:stedsnr" v="293138" />
	</node>
	<node id="-13425" lat="59.7402361095" lon="11.7318583326">
		<tag k="name" v="Stemningen" />
		<tag k="place" v="locality" />
		<tag k="ssr:stedsnr" v="293119" />
	</node>
	<node id="-13933" lat="59.701763885" lon="11.8054527856">
		<tag k="name" v="Sundet" />
		<tag k="place" v="locality" />
		<tag k="ssr:stedsnr" v="536212" />
	</node>
	<node id="-13930" lat="59.632813891" lon="11.740561119">
		<tag k="name" v="Persetra" />
		<tag k="place" v="locality" />
		<tag k="ssr:stedsnr" v="536173" />
	</node>
	<node id="-13929" lat="59.7482555537" lon="11.8511916692">
		<tag k="name" v="Gryttjennsetra" />
		<tag k="place" v="locality" />
		<tag k="ssr:stedsnr" v="536158" />
	</node>
	<node id="-13927" lat="59.6420055596" lon="11.7657305524">
		<tag k="name" v="Kudalsetra" />
		<tag k="place" v="locality" />
		<tag k="ssr:stedsnr" v="536126" />
	</node>
	<node id="-13926" lat="59.7195777785" lon="11.7943166644">
		<tag k="name" v="Haugerud" />
		<tag k="place" v="locality" />
		<tag k="ssr:stedsnr" v="536117" />
	</node>
	<node id="-13925" lat="59.7415527782" lon="11.6810416596">
		<tag k="name" v="Verpet" />
		<tag k="place" v="locality" />
		<tag k="ssr:stedsnr" v="536114" />
	</node>
	<node id="-13915" lat="59.7120388869" lon="11.8774888933">
		<tag k="name" v="Pekestikka" />
		<tag k="place" v="locality" />
		<tag k="ssr:stedsnr" v="535120" />
	</node>
	<node id="-13778" lat="59.7830333337" lon="11.8092305556">
		<tag k="name" v="Engene" />
		<tag k="place" v="locality" />
		<tag k="ssr:stedsnr" v="232138" />
	</node>
	<node id="-13750" lat="59.6562694467" lon="11.8514722256">
		<tag k="name" v="Nord Flaten" />
		<tag k="place" v="locality" />
		<tag k="ssr:stedsnr" v="172205" />
	</node>
	<node id="-13866" lat="59.7071416708" lon="11.7411416615">
		<tag k="name" v="Høgmobrenna" />
		<tag k="place" v="locality" />
		<tag k="ssr:stedsnr" v="415264" />
	</node>
	<node id="-13865" lat="59.712636114" lon="11.7214249992">
		<tag k="name" v="Vortungskoia" />
		<tag k="place" v="locality" />
		<tag k="ssr:stedsnr" v="415263" />
	</node>
	<node id="-13862" lat="59.6472500038" lon="11.7208277865">
		<tag k="name" v="Lindedråga" />
		<tag k="place" v="locality" />
		<tag k="ssr:stedsnr" v="415230" />
	</node>
	<node id="-13489" lat="59.6586277808" lon="11.8459555544">
		<tag k="name" v="Svarteberget" />
		<tag k="place" v="locality" />
		<tag k="ssr:stedsnr" v="354072" />
	</node>
	<node id="-13859" lat="59.7162944457" lon="11.7355944528">
		<tag k="name" v="Torvetjennsetra" />
		<tag k="place" v="locality" />
		<tag k="ssr:stedsnr" v="415188" />
	</node>
	<node id="-13855" lat="59.759008331" lon="11.7830611101">
		<tag k="name" v="Lindeberga" />
		<tag k="place" v="locality" />
		<tag k="ssr:stedsnr" v="415152" />
	</node>
	<node id="-13854" lat="59.7517166695" lon="11.8544611128">
		<tag k="name" v="Hellingstjennsetra" />
		<tag k="place" v="locality" />
		<tag k="ssr:stedsnr" v="415134" />
	</node>
	<node id="-13847" lat="59.6794499985" lon="11.8737861066">
		<tag k="name" v="Fagerlisetra" />
		<tag k="place" v="locality" />
		<tag k="ssr:stedsnr" v="415067" />
	</node>
	<node id="-13846" lat="59.6592916669" lon="11.8321972158">
		<tag k="name" v="Fjøsdalsvelta" />
		<tag k="place" v="locality" />
		<tag k="ssr:stedsnr" v="415055" />
	</node>
	<node id="-13839" lat="59.7390111131" lon="11.7714833371">
		<tag k="name" v="Lyshea" />
		<tag k="place" v="locality" />
		<tag k="ssr:stedsnr" v="415003" />
	</node>
	<node id="-13861" lat="59.6619111133" lon="11.8424499986">
		<tag k="name" v="Oshagan" />
		<tag k="place" v="locality" />
		<tag k="ssr:stedsnr" v="415207" />
	</node>
</osm>
