<?xml version="1.0" encoding="UTF-8"?>
<osm generator="osmapis" version="0.6">
	<node id="-13407" lat="59.6811666662" lon="11.868016672">
		<tag k="junction" v="yes" />
		<tag k="name" v="Grevlingdråga" />
		<tag k="place" v="locality" />
		<tag k="ssr:stedsnr" v="293219" />
	</node>
	<node id="-13822" lat="59.7411805546" lon="11.6904444516">
		<tag k="highway" v="path" />
		<tag k="name" v="Stemningen" />
		<tag k="ssr:stedsnr" v="415091" />
	</node>
	<node id="-14005" lat="59.6635694448" lon="11.8541166749">
		<tag k="highway" v="path" />
		<tag k="name" v="Strandveien" />
		<tag k="ssr:stedsnr" v="657134" />
	</node>
	<node id="-13596" lat="59.6609416634" lon="11.835266658">
		<tag k="landuse" v="industrial" />
		<tag k="name" v="Kraftverk" />
		<tag k="power" v="plant" />
		<tag k="ssr:stedsnr" v="51224" />
	</node>
	<node id="-13785" lat="59.7028666695" lon="11.7941861105">
		<tag k="highway" v="path" />
		<tag k="name" v="Moveien" />
		<tag k="ssr:stedsnr" v="233120" />
	</node>
	<node id="-13944" lat="59.7426611076" lon="11.7391944365">
		<tag k="highway" v="path" />
		<tag k="name" v="Stemningen" />
		<tag k="ssr:stedsnr" v="596093" />
	</node>
	<node id="-14166" lat="59.6536888887" lon="11.7655722176">
		<tag k="highway" v="path" />
		<tag k="name" v="Sundsrudveien" />
		<tag k="ssr:stedsnr" v="840193" />
	</node>
	<node id="-14037" lat="59.6648333308" lon="11.8368027753">
		<tag k="bridge" v="yes" />
		<tag k="layer" v="1" />
		<tag k="name" v="Ous" />
		<tag k="ssr:stedsnr" v="713587" />
	</node>
	<node id="-13694" lat="59.7370222252" lon="11.8075361128">
		<tag k="bridge" v="yes" />
		<tag k="layer" v="1" />
		<tag k="name" v="Bøsund" />
		<tag k="ssr:stedsnr" v="167610" />
	</node>
	<node id="-13816" lat="59.7440138868" lon="11.7509805602">
		<tag k="highway" v="path" />
		<tag k="name" v="Stemningen" />
		<tag k="ssr:stedsnr" v="415030" />
	</node>
	<node id="-13710" lat="59.6894361075" lon="11.8579888804">
		<tag k="highway" v="path" />
		<tag k="name" v="Strandveien" />
		<tag k="ssr:stedsnr" v="172045" />
	</node>
	<node id="-14061" lat="59.7399138912" lon="11.7810444466">
		<tag k="highway" v="path" />
		<tag k="name" v="Stemningen" />
		<tag k="ssr:stedsnr" v="718155" />
	</node>
	<node id="-13634" lat="59.7551472228" lon="11.8163999968">
		<tag k="bridge" v="yes" />
		<tag k="fixme" v="multiple name tags, choose one and add the other to alt_name" />
		<tag k="layer" v="1" />
		<tag k="name" v="Kvernebrua;Tukken" />
		<tag k="ssr:stedsnr" v="106548" />
	</node>
	<node id="-13543" lat="59.7388111125" lon="11.8041444509">
		<tag k="junction" v="yes" />
		<tag k="name" v="Eidet" />
		<tag k="place" v="locality" />
		<tag k="ssr:stedsnr" v="475757" />
	</node>
	<node id="-13575" lat="59.6820722263" lon="11.8586055484">
		<tag k="highway" v="path" />
		<tag k="name" v="Strandveien" />
		<tag k="ssr:stedsnr" v="51043" />
	</node>
	<node id="-13709" lat="59.7013555575" lon="11.8904749921">
		<tag k="junction" v="yes" />
		<tag k="name" v="Kubrua" />
		<tag k="place" v="locality" />
		<tag k="ssr:stedsnr" v="172038" />
	</node>
	<node id="-13534" lat="59.666186107" lon="11.7412416689">
		<tag k="highway" v="path" />
		<tag k="name" v="Hesteveien" />
		<tag k="ssr:stedsnr" v="475212" />
	</node>
	<node id="-14055" lat="59.6620166685" lon="11.8220916655">
		<tag k="highway" v="path" />
		<tag k="name" v="Nybruseterveien" />
		<tag k="ssr:stedsnr" v="718069" />
	</node>
	<node id="-14038" lat="59.6555916656" lon="11.8605638833">
		<tag k="bridge" v="yes" />
		<tag k="layer" v="1" />
		<tag k="name" v="Trosterud" />
		<tag k="ssr:stedsnr" v="713591" />
	</node>
	<node id="-13986" lat="59.7549666637" lon="11.8178250041">
		<tag k="bridge" v="yes" />
		<tag k="layer" v="1" />
		<tag k="name" v="Lokalbrua" />
		<tag k="ssr:stedsnr" v="652553" />
	</node>
</osm>
