<?xml version="1.0" encoding="UTF-8"?>
<osm generator="osmapis" version="0.6">
	<node id="-14290" lat="59.7324469283" lon="11.8476885738">
		<tag k="name" v="Lometjenna" />
		<tag k="natural" v="water" />
		<tag k="ssr:stedsnr" v="970596" />
		<tag k="water" v="lake" />
	</node>
	<node id="-14289" lat="59.7190108874" lon="11.7033056067">
		<tag k="name" v="Nordre Nipetjenn" />
		<tag k="natural" v="water" />
		<tag k="ssr:stedsnr" v="961838" />
		<tag k="water" v="lake" />
	</node>
	<node id="-14288" lat="59.6742499966" lon="11.8055694497">
		<tag k="name" v="Skillesvika" />
		<tag k="natural" v="bay" />
		<tag k="ssr:stedsnr" v="961826" />
	</node>
	<node id="-14287" lat="59.7279861126" lon="11.7989694475">
		<tag k="name" v="Haukenesfjorden" />
		<tag k="natural" v="water" />
		<tag k="ssr:stedsnr" v="961795" />
		<tag k="water" v="lake" />
	</node>
	<node id="-14286" lat="59.7049749995" lon="11.7095833376">
		<tag k="name" v="Vesle Langtjenn" />
		<tag k="natural" v="water" />
		<tag k="ssr:stedsnr" v="961790" />
	</node>
	<node id="-14285" lat="59.659375003" lon="11.8395722266">
		<tag k="name" v="Oselva" />
		<tag k="ssr:stedsnr" v="961779" />
		<tag k="waterway" v="river" />
	</node>
	<node id="-14282" lat="59.6519944433" lon="11.8310111093">
		<tag k="name" v="Kornbråtabekken" />
		<tag k="ssr:stedsnr" v="961186" />
		<tag k="waterway" v="stream" />
	</node>
	<node id="-14280" lat="59.7248250017" lon="11.7984361166">
		<tag k="name" v="Spillemannstangen" />
		<tag k="natural" v="cape" />
		<tag k="ssr:stedsnr" v="961145" />
	</node>
	<node id="-14276" lat="59.7079694468" lon="11.7302388942">
		<tag k="name" v="Blekketjenn" />
		<tag k="natural" v="water" />
		<tag k="ssr:stedsnr" v="961114" />
	</node>
	<node id="-14275" lat="59.7173472186" lon="11.8417305605">
		<tag k="name" v="Sauodden" />
		<tag k="place" v="islet" />
		<tag k="ssr:stedsnr" v="961096" />
	</node>
	<node id="-14274" lat="59.7431138883" lon="11.7064944492">
		<tag k="name" v="Prestgånåtjenn" />
		<tag k="natural" v="water" />
		<tag k="ssr:stedsnr" v="961094" />
	</node>
	<node id="-14273" lat="59.6701500032" lon="11.7000750056">
		<tag k="name" v="Kollfurutjenn" />
		<tag k="natural" v="water" />
		<tag k="ssr:stedsnr" v="961082" />
	</node>
	<node id="-14268" lat="59.682900002" lon="11.8374944369">
		<tag k="name" v="Kuholmen" />
		<tag k="place" v="islet" />
		<tag k="ssr:stedsnr" v="961028" />
	</node>
	<node id="-14267" lat="59.690283336" lon="11.8092194438">
		<tag k="name" v="Persholmen" />
		<tag k="place" v="islet" />
		<tag k="ssr:stedsnr" v="961019" />
	</node>
	<node id="-14266" lat="59.6983194463" lon="11.8035999927">
		<tag k="name" v="Vepsebolodden" />
		<tag k="natural" v="cape" />
		<tag k="ssr:stedsnr" v="961018" />
	</node>
	<node id="-14265" lat="59.7276999967" lon="11.793891671">
		<tag k="name" v="Roskiftet" />
		<tag k="place" v="islet" />
		<tag k="ssr:stedsnr" v="961007" />
	</node>
	<node id="-14264" lat="59.7460555543" lon="11.8412138833">
		<tag k="name" v="Ufredstjenn" />
		<tag k="natural" v="water" />
		<tag k="ssr:stedsnr" v="961001" />
	</node>
	<node id="-14257" lat="59.7518284029" lon="11.7848551998">
		<tag k="fixme" v="multiple name tags, choose one and add the other to alt_name" />
		<tag k="name" v="Orremåsåtjenn;Trangkleivtjenn" />
		<tag k="natural" v="water" />
		<tag k="ssr:stedsnr" v="915522" />
	</node>
	<node id="-14256" lat="59.7595999957" lon="11.7698944486">
		<tag k="name" v="Tjuvvannet" />
		<tag k="natural" v="water" />
		<tag k="ssr:stedsnr" v="915385" />
	</node>
	<node id="-14253" lat="59.7522194424" lon="11.7551472271">
		<tag k="name" v="Eikelitjenna" />
		<tag k="natural" v="water" />
		<tag k="ssr:stedsnr" v="915362" />
	</node>
	<node id="-14251" lat="59.7443249983" lon="11.7226861158">
		<tag k="alt_name" v="Store Unyttutjenn" />
		<tag k="name" v="Unyttigtjennet" />
		<tag k="natural" v="water" />
		<tag k="ssr:stedsnr" v="914701" />
	</node>
	<node id="-14249" lat="59.7319166693" lon="11.8180888833">
		<tag k="alt_name" v="Kjørkerudtjenn" />
		<tag k="name" v="Kirkerudtjenn" />
		<tag k="natural" v="water" />
		<tag k="ssr:stedsnr" v="914660" />
	</node>
	<node id="-14247" lat="59.727461109" lon="11.6995694357">
		<tag k="name" v="Vortungen" />
		<tag k="natural" v="water" />
		<tag k="ssr:stedsnr" v="914645" />
		<tag k="water" v="lake" />
	</node>
	<node id="-14246" lat="59.7440888897" lon="11.8893055567">
		<tag k="alt_name" v="Øvre Slatjennet" />
		<tag k="name" v="Øvre Slatjenn" />
		<tag k="natural" v="water" />
		<tag k="ssr:stedsnr" v="914432" />
	</node>
	<node id="-14244" lat="59.6812611095" lon="11.8252888976">
		<tag k="alt_name" v="Vemøya" />
		<tag k="name" v="Vemmeøya" />
		<tag k="place" v="islet" />
		<tag k="ssr:stedsnr" v="914350" />
	</node>
	<node id="-14242" lat="59.6812527744" lon="11.6799500007">
		<tag k="name" v="Svarttjenn" />
		<tag k="natural" v="water" />
		<tag k="ssr:stedsnr" v="914342" />
	</node>
	<node id="-14238" lat="59.7407611106" lon="11.8996638874">
		<tag k="name" v="Nedre Slatjennbekken" />
		<tag k="ssr:stedsnr" v="900809" />
		<tag k="waterway" v="stream" />
	</node>
	<node id="-14237" lat="59.7275583328" lon="11.9220805578">
		<tag k="name" v="Ertevassbekken" />
		<tag k="ssr:stedsnr" v="900806" />
		<tag k="waterway" v="stream" />
	</node>
	<node id="-14236" lat="59.7327361146" lon="11.9328722217">
		<tag k="name" v="Stommeseterdammen" />
		<tag k="ssr:stedsnr" v="900803" />
		<tag k="waterway" v="dam" />
	</node>
	<node id="-14235" lat="59.7199583292" lon="11.8012861062">
		<tag k="name" v="Haukenesvika" />
		<tag k="natural" v="bay" />
		<tag k="ssr:stedsnr" v="900797" />
	</node>
	<node id="-14233" lat="59.6959944476" lon="11.8744416679">
		<tag k="name" v="Nordre Kløvtjenn" />
		<tag k="natural" v="water" />
		<tag k="ssr:stedsnr" v="900790" />
	</node>
	<node id="-14232" lat="59.7471388885" lon="11.924911113">
		<tag k="name" v="Røvassdammen" />
		<tag k="ssr:stedsnr" v="900770" />
		<tag k="waterway" v="dam" />
	</node>
	<node id="-14231" lat="59.6891777762" lon="11.8091444363">
		<tag k="name" v="Vesle-Per" />
		<tag k="place" v="islet" />
		<tag k="ssr:stedsnr" v="900250" />
	</node>
	<node id="-14225" lat="59.7598472262" lon="11.9291416583">
		<tag k="name" v="Den brente holmen" />
		<tag k="place" v="islet" />
		<tag k="ssr:stedsnr" v="900194" />
	</node>
	<node id="-14222" lat="59.7772888905" lon="11.917766662">
		<tag k="name" v="Kuholmen" />
		<tag k="place" v="islet" />
		<tag k="ssr:stedsnr" v="900180" />
	</node>
	<node id="-14215" lat="59.7002333296" lon="11.6774500036">
		<tag k="name" v="Tvillingtjenn" />
		<tag k="natural" v="water" />
		<tag k="ssr:stedsnr" v="900136" />
	</node>
	<node id="-14214" lat="59.6532916681" lon="11.7848194469">
		<tag k="name" v="Kuvtjenn" />
		<tag k="natural" v="water" />
		<tag k="ssr:stedsnr" v="900117" />
	</node>
	<node id="-14213" lat="59.651491668" lon="11.7708944406">
		<tag k="name" v="Trytjennbekken" />
		<tag k="ssr:stedsnr" v="900118" />
		<tag k="waterway" v="stream" />
	</node>
	<node id="-14210" lat="59.7221472215" lon="11.7294388801">
		<tag k="name" v="Gråtarneset" />
		<tag k="natural" v="cape" />
		<tag k="ssr:stedsnr" v="900100" />
	</node>
	<node id="-14207" lat="59.7731611103" lon="11.8586805616">
		<tag k="name" v="Stusstjenn" />
		<tag k="natural" v="water" />
		<tag k="ssr:stedsnr" v="900068" />
	</node>
	<node id="-14205" lat="59.7519055567" lon="11.8680805567">
		<tag k="name" v="Frøkentjenn" />
		<tag k="natural" v="water" />
		<tag k="ssr:stedsnr" v="900063" />
	</node>
	<node id="-14204" lat="59.7720888899" lon="11.9063194367">
		<tag k="name" v="Trandumsholmen" />
		<tag k="place" v="islet" />
		<tag k="ssr:stedsnr" v="900049" />
	</node>
	<node id="-14201" lat="59.6968388861" lon="11.7832472252">
		<tag k="name" v="Damtjennbekken" />
		<tag k="ssr:stedsnr" v="900026" />
		<tag k="waterway" v="stream" />
	</node>
	<node id="-14200" lat="59.7068166627" lon="11.8279611128">
		<tag k="alt_name" v="Vesle-Tjuven" />
		<tag k="name" v="Vesletjuven" />
		<tag k="place" v="islet" />
		<tag k="ssr:stedsnr" v="900020" />
	</node>
	<node id="-14194" lat="59.7441166702" lon="11.9271500026">
		<tag k="fixme" v="multiple name tags, choose one and add the other to alt_name" />
		<tag k="name" v="Røvassbekken;Øvre Langebekk" />
		<tag k="ssr:stedsnr" v="854426" />
		<tag k="waterway" v="stream" />
	</node>
	<node id="-14193" lat="59.7341361109" lon="11.8843361085">
		<tag k="alt_name" v="Høgabbortjennet" />
		<tag k="name" v="Høgabbortjenn" />
		<tag k="natural" v="water" />
		<tag k="ssr:stedsnr" v="854422" />
	</node>
	<node id="-14192" lat="59.7326805542" lon="11.8592416682">
		<tag k="name" v="Nordre Sandtjenn" />
		<tag k="natural" v="water" />
		<tag k="ssr:stedsnr" v="854420" />
	</node>
	<node id="-14190" lat="59.7187499992" lon="11.8458249954">
		<tag k="name" v="Sandvika" />
		<tag k="natural" v="bay" />
		<tag k="ssr:stedsnr" v="854403" />
	</node>
	<node id="-14189" lat="59.7149055553" lon="11.9249583395">
		<tag k="alt_name" v="Helletjennet" />
		<tag k="name" v="Helletjenn" />
		<tag k="natural" v="water" />
		<tag k="ssr:stedsnr" v="854395" />
	</node>
	<node id="-14187" lat="59.7523712832" lon="11.7301995676">
		<tag k="name" v="Store Bjørtjenn" />
		<tag k="natural" v="water" />
		<tag k="ssr:stedsnr" v="854376" />
	</node>
	<node id="-14186" lat="59.7569083346" lon="11.7285000032">
		<tag k="name" v="Kutjenn" />
		<tag k="natural" v="water" />
		<tag k="ssr:stedsnr" v="854367" />
	</node>
	<node id="-14185" lat="59.6924277795" lon="11.8133249917">
		<tag k="name" v="Nordneset" />
		<tag k="natural" v="cape" />
		<tag k="ssr:stedsnr" v="854342" />
	</node>
	<node id="-14182" lat="59.6712388868" lon="11.6810499969">
		<tag k="name" v="Store Bleiketjenn" />
		<tag k="natural" v="water" />
		<tag k="ssr:stedsnr" v="854240" />
	</node>
	<node id="-14177" lat="59.6719722212" lon="11.7622138897">
		<tag k="alt_name" v="Karsbytjenn" />
		<tag k="name" v="Søndre Karsbytjenn" />
		<tag k="natural" v="water" />
		<tag k="ssr:stedsnr" v="853257" />
	</node>
	<node id="-14175" lat="59.7451638868" lon="11.8116194432">
		<tag k="name" v="Kristensfoss" />
		<tag k="natural" v="waterfall" />
		<tag k="ssr:stedsnr" v="840824" />
	</node>
	<node id="-14174" lat="59.7201499983" lon="11.7300055473">
		<tag k="name" v="Torvesund" />
		<tag k="natural" v="strait" />
		<tag k="ssr:stedsnr" v="840810" />
	</node>
	<node id="-14172" lat="59.7417750037" lon="11.7442833417">
		<tag k="name" v="Vortungsbekken" />
		<tag k="ssr:stedsnr" v="840786" />
		<tag k="waterway" v="stream" />
	</node>
	<node id="-14171" lat="59.7511666638" lon="11.8162555478">
		<tag k="name" v="Tukufossen" />
		<tag k="natural" v="waterfall" />
		<tag k="ssr:stedsnr" v="840777" />
	</node>
	<node id="-14170" lat="59.7834194439" lon="11.8613583276">
		<tag k="name" v="Fyrtynnvika" />
		<tag k="natural" v="bay" />
		<tag k="ssr:stedsnr" v="840767" />
	</node>
	<node id="-14165" lat="59.6338055533" lon="11.7438166728">
		<tag k="name" v="Seljebekken" />
		<tag k="ssr:stedsnr" v="840187" />
		<tag k="waterway" v="stream" />
	</node>
	<node id="-14160" lat="59.6811722196" lon="11.6971055562">
		<tag k="name" v="Nordre Fallstjenn" />
		<tag k="natural" v="water" />
		<tag k="ssr:stedsnr" v="840125" />
	</node>
	<node id="-14157" lat="59.7152833329" lon="11.8144305634">
		<tag k="name" v="Bjørkholmen" />
		<tag k="place" v="island" />
		<tag k="ssr:stedsnr" v="840109" />
	</node>
	<node id="-14155" lat="59.703900003" lon="11.7443972169">
		<tag k="loc_name" v="Tjennet uten navn" />
		<tag k="name" v="Det utgravde tjennet" />
		<tag k="natural" v="water" />
		<tag k="ssr:stedsnr" v="840103" />
	</node>
	<node id="-14154" lat="59.6752499978" lon="11.7382527694">
		<tag k="name" v="Djuptjenn" />
		<tag k="natural" v="water" />
		<tag k="ssr:stedsnr" v="840097" />
	</node>
	<node id="-14150" lat="59.7488861124" lon="11.870580552">
		<tag k="name" v="Abborviktjenn" />
		<tag k="natural" v="water" />
		<tag k="ssr:stedsnr" v="840060" />
	</node>
	<node id="-14149" lat="59.7505805546" lon="11.8964916653">
		<tag k="name" v="Sønningholmen" />
		<tag k="place" v="islet" />
		<tag k="ssr:stedsnr" v="840057" />
	</node>
	<node id="-14146" lat="59.7021333352" lon="11.8943472287">
		<tag k="name" v="Gåsehølet" />
		<tag k="natural" v="water" />
		<tag k="ssr:stedsnr" v="840047" />
	</node>
	<node id="-14144" lat="59.682824996" lon="11.8100166708">
		<tag k="name" v="Bjørkøya" />
		<tag k="place" v="island" />
		<tag k="ssr:stedsnr" v="840015" />
	</node>
	<node id="-14142" lat="59.7714916645" lon="11.8536388864">
		<tag k="name" v="Grastjenn" />
		<tag k="natural" v="water" />
		<tag k="ssr:stedsnr" v="840010" />
	</node>
	<node id="-14141" lat="59.7340638893" lon="11.7878027704">
		<tag k="name" v="Fantekulen" />
		<tag k="natural" v="cape" />
		<tag k="ssr:stedsnr" v="840005" />
	</node>
	<node id="-14136" lat="59.6852715157" lon="11.7501991238">
		<tag k="alt_name" v="Slavannet" />
		<tag k="name" v="Slavann" />
		<tag k="natural" v="water" />
		<tag k="ssr:stedsnr" v="793365" />
		<tag k="water" v="lake" />
	</node>
	<node id="-14134" lat="59.6993941982" lon="11.6986934286">
		<tag k="fixme" v="multiple name tags, choose one and add the other to alt_name" />
		<tag k="name" v="Kallemåsåtjenn;Sætertjenn" />
		<tag k="natural" v="water" />
		<tag k="ssr:stedsnr" v="793332" />
	</node>
	<node id="-14132" lat="59.7291000043" lon="11.7268027695">
		<tag k="name" v="Tørnbytjenn" />
		<tag k="natural" v="water" />
		<tag k="ssr:stedsnr" v="792611" />
	</node>
	<node id="-14131" lat="59.7067333288" lon="11.7438833403">
		<tag k="name" v="Hornfisktjenn" />
		<tag k="natural" v="water" />
		<tag k="old_name" v="Hornfisktjernet;Hornfisktjennet" />
		<tag k="ssr:stedsnr" v="792329" />
	</node>
	<node id="-14128" lat="59.7688095154" lon="11.8888710233">
		<tag k="name" v="Kuletjenna" />
		<tag k="natural" v="water" />
		<tag k="ssr:stedsnr" v="788957" />
		<tag k="water" v="lake" />
	</node>
	<node id="-14127" lat="59.7315388849" lon="11.9236527764">
		<tag k="alt_name" v="Slatjernet" />
		<tag k="name" v="Slatjenn" />
		<tag k="natural" v="water" />
		<tag k="ssr:stedsnr" v="793451" />
	</node>
	<node id="-14124" lat="59.7702611135" lon="11.9183111159">
		<tag k="name" v="Abborvika" />
		<tag k="natural" v="bay" />
		<tag k="ssr:stedsnr" v="779813" />
	</node>
	<node id="-14123" lat="59.700177776" lon="11.8303527736">
		<tag k="name" v="Ringsbyfjorden" />
		<tag k="natural" v="water" />
		<tag k="ssr:stedsnr" v="779805" />
	</node>
	<node id="-14122" lat="59.7616222205" lon="11.8764666719">
		<tag k="name" v="Hundejegertjenn" />
		<tag k="natural" v="water" />
		<tag k="ssr:stedsnr" v="779799" />
	</node>
	<node id="-14121" lat="59.7249666679" lon="11.8922277691">
		<tag k="name" v="Styggetjenn" />
		<tag k="natural" v="water" />
		<tag k="ssr:stedsnr" v="779784" />
	</node>
	<node id="-14119" lat="59.6717833349" lon="11.6526027788">
		<tag k="name" v="Klinkhammeren" />
		<tag k="place" v="islet" />
		<tag k="ssr:stedsnr" v="779779" />
	</node>
	<node id="-14118" lat="59.7750416707" lon="11.8701194506">
		<tag k="name" v="Sundvasstjenn" />
		<tag k="natural" v="water" />
		<tag k="ssr:stedsnr" v="779760" />
		<tag k="water" v="lake" />
	</node>
	<node id="-14117" lat="59.6782222251" lon="11.8297972167">
		<tag k="name" v="Måka" />
		<tag k="place" v="islet" />
		<tag k="ssr:stedsnr" v="779755" />
	</node>
	<node id="-14107" lat="59.6718638876" lon="11.6905333408">
		<tag k="name" v="Vestre Fallstjenna" />
		<tag k="natural" v="water" />
		<tag k="ssr:stedsnr" v="779070" />
	</node>
	<node id="-14103" lat="59.6945583351" lon="11.7704027781">
		<tag k="name" v="Ertevassbekken" />
		<tag k="ssr:stedsnr" v="779021" />
		<tag k="waterway" v="stream" />
	</node>
	<node id="-14095" lat="59.7662249956" lon="11.8574638886">
		<tag k="name" v="Gørrtjenn" />
		<tag k="natural" v="water" />
		<tag k="old_name" v="Gorrtjern;Gorrtjenn" />
		<tag k="ssr:stedsnr" v="734250" />
	</node>
	<node id="-14091" lat="59.731841665" lon="11.7057583369">
		<tag k="name" v="Hakabrueidet" />
		<tag k="natural" v="strait" />
		<tag k="ssr:stedsnr" v="732654" />
	</node>
	<node id="-14090" lat="59.7212888931" lon="11.8637666599">
		<tag k="name" v="Gørrtjenn" />
		<tag k="natural" v="water" />
		<tag k="old_name" v="Gørrtjernet;Gørrtjennet" />
		<tag k="ssr:stedsnr" v="732440" />
	</node>
	<node id="-14089" lat="59.7075305533" lon="11.8834694402">
		<tag k="alt_name" v="Gåsa, vesle" />
		<tag k="name" v="Vesle Gåsa" />
		<tag k="natural" v="water" />
		<tag k="ssr:stedsnr" v="732431" />
	</node>
	<node id="-14087" lat="59.7503444455" lon="11.8361277756">
		<tag k="name" v="Tretjenna" />
		<tag k="natural" v="water" />
		<tag k="ssr:stedsnr" v="732394" />
	</node>
	<node id="-14084" lat="59.6450861111" lon="11.7683611057">
		<tag k="name" v="Vestre Rømungen" />
		<tag k="natural" v="water" />
		<tag k="ssr:stedsnr" v="732307" />
		<tag k="water" v="lake" />
	</node>
	<node id="-14080" lat="59.6772310004" lon="11.8617183072">
		<tag k="alt_name" v="Svarttjennet" />
		<tag k="name" v="Svarttjenn" />
		<tag k="natural" v="water" />
		<tag k="ssr:stedsnr" v="732075" />
	</node>
	<node id="-14079" lat="59.6843805577" lon="11.7986861158">
		<tag k="name" v="Bunesvika" />
		<tag k="natural" v="bay" />
		<tag k="ssr:stedsnr" v="718796" />
	</node>
	<node id="-14078" lat="59.7323388906" lon="11.7365500077">
		<tag k="name" v="Bottfjorden" />
		<tag k="natural" v="water" />
		<tag k="ssr:stedsnr" v="718785" />
	</node>
	<node id="-14077" lat="59.7255333306" lon="11.936350001">
		<tag k="name" v="Fjørbekktjenndammen" />
		<tag k="ssr:stedsnr" v="718762" />
		<tag k="waterway" v="dam" />
	</node>
	<node id="-14076" lat="59.7349666645" lon="11.6985388817">
		<tag k="name" v="Steinsfjorden" />
		<tag k="natural" v="bay" />
		<tag k="ssr:stedsnr" v="718758" />
	</node>
	<node id="-14075" lat="59.7470972224" lon="11.8137055627">
		<tag k="name" v="Steinbyfossen" />
		<tag k="natural" v="waterfall" />
		<tag k="ssr:stedsnr" v="718753" />
	</node>
	<node id="-14074" lat="59.6424083316" lon="11.7185916698">
		<tag k="name" v="Nordre Torvehaugsund" />
		<tag k="natural" v="strait" />
		<tag k="ssr:stedsnr" v="718742" />
	</node>
	<node id="-14073" lat="59.6450277795" lon="11.804919452">
		<tag k="name" v="Bjørketjenn" />
		<tag k="natural" v="water" />
		<tag k="ssr:stedsnr" v="718740" />
	</node>
	<node id="-14072" lat="59.7536833373" lon="11.768924997">
		<tag k="name" v="Bjørndalstjenn" />
		<tag k="natural" v="water" />
		<tag k="ssr:stedsnr" v="718733" />
	</node>
	<node id="-14059" lat="59.7397944447" lon="11.8182361158">
		<tag k="name" v="Haugbakkholmen" />
		<tag k="place" v="islet" />
		<tag k="ssr:stedsnr" v="718142" />
	</node>
	<node id="-14057" lat="59.7022749991" lon="11.849374996">
		<tag k="name" v="Ringsbyneset" />
		<tag k="natural" v="cape" />
		<tag k="ssr:stedsnr" v="718086" />
	</node>
	<node id="-14054" lat="59.755711108" lon="11.8940861031">
		<tag k="name" v="Jomfrutjenn" />
		<tag k="natural" v="water" />
		<tag k="ssr:stedsnr" v="718062" />
	</node>
	<node id="-14049" lat="59.6973694458" lon="11.7417472217">
		<tag k="name" v="Jakopstjenn" />
		<tag k="natural" v="water" />
		<tag k="ssr:stedsnr" v="718020" />
	</node>
	<node id="-14047" lat="59.7085694401" lon="11.7255750078">
		<tag k="name" v="Gubbetjenn" />
		<tag k="natural" v="water" />
		<tag k="ssr:stedsnr" v="718251" />
	</node>
	<node id="-14042" lat="59.6979305535" lon="11.7732222246">
		<tag k="name" v="Svarttjenn" />
		<tag k="natural" v="water" />
		<tag k="ssr:stedsnr" v="718233" />
	</node>
	<node id="-14036" lat="59.7547833307" lon="11.8527277704">
		<tag k="name" v="Søndre Hellingstjennet" />
		<tag k="natural" v="water" />
		<tag k="ssr:stedsnr" v="673254" />
	</node>
	<node id="-14034" lat="59.7600527743" lon="11.7650361142">
		<tag k="alt_name" v="Grautelitjenn" />
		<tag k="name" v="Grautlitjenn" />
		<tag k="natural" v="water" />
		<tag k="ssr:stedsnr" v="672376" />
	</node>
	<node id="-14031" lat="59.7586416694" lon="11.9180583366">
		<tag k="alt_name" v="Åbbortjern" />
		<tag k="name" v="Abbortjenn" />
		<tag k="natural" v="water" />
		<tag k="ssr:stedsnr" v="672219" />
	</node>
	<node id="-14029" lat="59.7124722209" lon="11.8912388856">
		<tag k="name" v="Langtjenn" />
		<tag k="natural" v="water" />
		<tag k="ssr:stedsnr" v="671405" />
	</node>
	<node id="-14027" lat="59.712374996" lon="11.8192861052">
		<tag k="name" v="Storøya" />
		<tag k="place" v="island" />
		<tag k="ssr:stedsnr" v="671345" />
	</node>
	<node id="-14026" lat="59.6949305599" lon="11.8189194513">
		<tag k="name" v="Leirholmen" />
		<tag k="place" v="islet" />
		<tag k="ssr:stedsnr" v="671322" />
	</node>
	<node id="-14023" lat="59.7459111125" lon="11.9251416738">
		<tag k="name" v="Røvasslora" />
		<tag k="natural" v="water" />
		<tag k="ssr:stedsnr" v="657785" />
		<tag k="water" v="pond" />
	</node>
	<node id="-14022" lat="59.7071305589" lon="11.8979444371">
		<tag k="name" v="Dypil" />
		<tag k="natural" v="water" />
		<tag k="ssr:stedsnr" v="657773" />
	</node>
	<node id="-14021" lat="59.7754916629" lon="11.8519472302">
		<tag k="name" v="Slatjenn" />
		<tag k="natural" v="water" />
		<tag k="ssr:stedsnr" v="657772" />
	</node>
	<node id="-14020" lat="59.775652776" lon="11.8052583318">
		<tag k="name" v="Tukuelva" />
		<tag k="ssr:stedsnr" v="657771" />
		<tag k="waterway" v="river" />
	</node>
	<node id="-14019" lat="59.675163887" lon="11.8344944407">
		<tag k="name" v="Bjørskauvika" />
		<tag k="natural" v="bay" />
		<tag k="ssr:stedsnr" v="657764" />
	</node>
	<node id="-14018" lat="59.7412944411" lon="11.9302388864">
		<tag k="name" v="Tverrdammen" />
		<tag k="ssr:stedsnr" v="657735" />
		<tag k="waterway" v="dam" />
	</node>
	<node id="-14016" lat="59.7028916677" lon="11.8061166756">
		<tag k="name" v="Hagasund" />
		<tag k="natural" v="strait" />
		<tag k="ssr:stedsnr" v="657715" />
	</node>
	<node id="-14008" lat="59.7381388894" lon="11.8049444505">
		<tag k="name" v="Sundtangen" />
		<tag k="natural" v="cape" />
		<tag k="ssr:stedsnr" v="657142" />
	</node>
	<node id="-14006" lat="59.7832138869" lon="11.8516972205">
		<tag k="name" v="Mørkholttjenn" />
		<tag k="natural" v="water" />
		<tag k="ssr:stedsnr" v="657135" />
	</node>
	<node id="-14004" lat="59.6397055551" lon="11.75638333">
		<tag k="name" v="Kolletjenn" />
		<tag k="natural" v="water" />
		<tag k="ssr:stedsnr" v="657124" />
	</node>
	<node id="-14003" lat="59.6954777759" lon="11.7234638878">
		<tag k="name" v="Rundtjenn" />
		<tag k="natural" v="water" />
		<tag k="ssr:stedsnr" v="657125" />
	</node>
	<node id="-14002" lat="59.6515000041" lon="11.8131472207">
		<tag k="name" v="Orremåsatjenn" />
		<tag k="natural" v="water" />
		<tag k="ssr:stedsnr" v="657118" />
	</node>
	<node id="-13999" lat="59.7574916637" lon="11.7672277736">
		<tag k="name" v="Vesle Tjuvvannet" />
		<tag k="natural" v="water" />
		<tag k="ssr:stedsnr" v="657080" />
	</node>
	<node id="-13995" lat="59.7485749988" lon="11.8905138825">
		<tag k="name" v="Enka" />
		<tag k="place" v="islet" />
		<tag k="ssr:stedsnr" v="657053" />
	</node>
	<node id="-13994" lat="59.7632222244" lon="11.9152583261">
		<tag k="name" v="Fløttjenn" />
		<tag k="natural" v="water" />
		<tag k="ssr:stedsnr" v="657034" />
	</node>
	<node id="-13991" lat="59.7407416648" lon="11.8130472254">
		<tag k="name" v="Tornebyholmen" />
		<tag k="place" v="islet" />
		<tag k="ssr:stedsnr" v="657014" />
	</node>
	<node id="-13988" lat="59.7361472207" lon="11.8051138903">
		<tag k="name" v="Bikkjeholmen" />
		<tag k="place" v="islet" />
		<tag k="ssr:stedsnr" v="657008" />
	</node>
	<node id="-13985" lat="59.7709500017" lon="11.8493805611">
		<tag k="alt_name" v="Sakstjern" />
		<tag k="name" v="Sakstjenn" />
		<tag k="natural" v="water" />
		<tag k="ssr:stedsnr" v="612245" />
	</node>
	<node id="-13981" lat="59.7551611093" lon="11.8810222194">
		<tag k="name" v="Auretjenn" />
		<tag k="natural" v="water" />
		<tag k="ssr:stedsnr" v="611235" />
	</node>
	<node id="-13979" lat="59.7237249984" lon="11.733655553">
		<tag k="name" v="Smalsundet" />
		<tag k="natural" v="strait" />
		<tag k="ssr:stedsnr" v="610666" />
	</node>
	<node id="-13976" lat="59.7418944444" lon="11.8959527853">
		<tag k="alt_name" v="Nedre Slatjennet" />
		<tag k="name" v="Nedre Slatjenn" />
		<tag k="natural" v="water" />
		<tag k="ssr:stedsnr" v="610474" />
	</node>
	<node id="-13975" lat="59.7310083374" lon="11.8753111132">
		<tag k="alt_name" v="Lågabbortjennet" />
		<tag k="name" v="Lågabbortjenn" />
		<tag k="natural" v="water" />
		<tag k="ssr:stedsnr" v="610471" />
	</node>
	<node id="-13974" lat="59.7330277763" lon="11.8922500051">
		<tag k="alt_name" v="Aurekyttjenn" />
		<tag k="name" v="Aurekyttjennet" />
		<tag k="natural" v="water" />
		<tag k="ssr:stedsnr" v="610463" />
	</node>
	<node id="-13972" lat="59.6903358257" lon="11.6993384346">
		<tag k="loc_name" v="Vesle Røytjenn" />
		<tag k="name" v="Nordre Røytjenn" />
		<tag k="natural" v="water" />
		<tag k="ssr:stedsnr" v="610387" />
	</node>
	<node id="-13971" lat="59.7011944434" lon="11.8331944431">
		<tag k="name" v="Rømsjøen" />
		<tag k="natural" v="water" />
		<tag k="ssr:stedsnr" v="610364" />
		<tag k="water" v="lake" />
	</node>
	<node id="-13969" lat="59.6984749983" lon="11.678749996">
		<tag k="alt_name" v="Tvillingtjenna" />
		<tag k="name" v="Tvillingtjenn" />
		<tag k="natural" v="water" />
		<tag k="ssr:stedsnr" v="610351" />
	</node>
	<node id="-13968" lat="59.6730083296" lon="11.8125833299">
		<tag k="alt_name" v="Søneset" />
		<tag k="name" v="Sørneset" />
		<tag k="natural" v="cape" />
		<tag k="ssr:stedsnr" v="610306" />
	</node>
	<node id="-13966" lat="59.7045472214" lon="11.8764888832">
		<tag k="alt_name" v="Gjeddetjenn" />
		<tag k="name" v="Gjeddetjennet" />
		<tag k="natural" v="water" />
		<tag k="ssr:stedsnr" v="602439" />
	</node>
	<node id="-13965" lat="59.7231388925" lon="11.8151611136">
		<tag k="name" v="Kjørkesundet" />
		<tag k="natural" v="strait" />
		<tag k="ssr:stedsnr" v="596781" />
	</node>
	<node id="-13964" lat="59.6969916681" lon="11.8530694407">
		<tag k="name" v="Ringsbyvika" />
		<tag k="natural" v="bay" />
		<tag k="ssr:stedsnr" v="596714" />
	</node>
	<node id="-13953" lat="59.6942111116" lon="11.7501277776">
		<tag k="name" v="Røytjenndalsvika" />
		<tag k="natural" v="bay" />
		<tag k="ssr:stedsnr" v="596157" />
	</node>
	<node id="-13949" lat="59.6464805523" lon="11.7733944514">
		<tag k="name" v="Morttjennbekken" />
		<tag k="ssr:stedsnr" v="596119" />
		<tag k="waterway" v="stream" />
	</node>
	<node id="-13945" lat="59.7366500041" lon="11.7322944496">
		<tag k="name" v="Trollbergtjenn" />
		<tag k="natural" v="water" />
		<tag k="ssr:stedsnr" v="596100" />
	</node>
	<node id="-13943" lat="59.7336916655" lon="11.9105138818">
		<tag k="name" v="Ormetangen" />
		<tag k="natural" v="cape" />
		<tag k="ssr:stedsnr" v="596092" />
	</node>
	<node id="-13937" lat="59.742813889" lon="11.8307027751">
		<tag k="name" v="Grytebekken" />
		<tag k="ssr:stedsnr" v="596028" />
		<tag k="waterway" v="stream" />
	</node>
	<node id="-13935" lat="59.7220166684" lon="11.7484972295">
		<tag k="name" v="Stutaue" />
		<tag k="natural" v="water" />
		<tag k="ssr:stedsnr" v="596001" />
	</node>
	<node id="-13933" lat="59.7676277821" lon="11.8161999919">
		<tag k="name" v="Klubbetjenn" />
		<tag k="natural" v="water" />
		<tag k="ssr:stedsnr" v="551412" />
	</node>
	<node id="-13932" lat="59.7798888888" lon="11.880961116">
		<tag k="name" v="Flinttjenn" />
		<tag k="natural" v="water" />
		<tag k="ssr:stedsnr" v="551240" />
	</node>
	<node id="-13929" lat="59.737711108" lon="11.8736972237">
		<tag k="name" v="Gjesstjenn" />
		<tag k="natural" v="water" />
		<tag k="ssr:stedsnr" v="550420" />
	</node>
	<node id="-13925" lat="59.694340798" lon="11.8730651179">
		<tag k="fixme" v="multiple name tags, choose one and add the other to alt_name" />
		<tag k="name" v="Kløvtjennet;Søndre Kløvtjenn" />
		<tag k="natural" v="water" />
		<tag k="ssr:stedsnr" v="550405" />
	</node>
	<node id="-13922" lat="59.6812611128" lon="11.7788444377">
		<tag k="alt_name" v="Butjennet" />
		<tag k="name" v="Butjenn" />
		<tag k="natural" v="water" />
		<tag k="ssr:stedsnr" v="550334" />
	</node>
	<node id="-13920" lat="59.7010138855" lon="11.8147388915">
		<tag k="name" v="Granøya" />
		<tag k="place" v="islet" />
		<tag k="ssr:stedsnr" v="550306" />
	</node>
	<node id="-13914" lat="59.7508472258" lon="11.7322675455">
		<tag k="name" v="Bjørtjenna" />
		<tag k="natural" v="water" />
		<tag k="ssr:stedsnr" v="545496" />
		<tag k="water" v="lake" />
	</node>
	<node id="-13913" lat="59.7754055514" lon="11.9229305522">
		<tag k="name" v="Hyttevika" />
		<tag k="natural" v="bay" />
		<tag k="ssr:stedsnr" v="536809" />
	</node>
	<node id="-13912" lat="59.6359277779" lon="11.7182444518">
		<tag k="name" v="Søndre Torvehaugsund" />
		<tag k="natural" v="strait" />
		<tag k="ssr:stedsnr" v="536777" />
	</node>
	<node id="-13910" lat="59.7484111114" lon="11.7193333355">
		<tag k="name" v="Vesle Unyttutjenn" />
		<tag k="natural" v="water" />
		<tag k="ssr:stedsnr" v="536232" />
	</node>
	<node id="-13909" lat="59.7346999984" lon="11.7111166725">
		<tag k="name" v="Vesle Abbortjenn" />
		<tag k="natural" v="water" />
		<tag k="ssr:stedsnr" v="536223" />
	</node>
	<node id="-13908" lat="59.6997638901" lon="11.7433472203">
		<tag k="name" v="Hølbekktjenn" />
		<tag k="natural" v="water" />
		<tag k="ssr:stedsnr" v="536219" />
	</node>
	<node id="-13904" lat="59.6784750009" lon="11.7857027735">
		<tag k="name" v="Butjennbekken" />
		<tag k="ssr:stedsnr" v="536208" />
		<tag k="waterway" v="stream" />
	</node>
	<node id="-13896" lat="59.6420562875" lon="11.7332477194">
		<tag k="name" v="Storemåsatjenn" />
		<tag k="natural" v="water" />
		<tag k="ssr:stedsnr" v="536076" />
	</node>
	<node id="-13894" lat="59.7302277759" lon="11.8797638926">
		<tag k="name" v="Gullskåltjenn" />
		<tag k="natural" v="water" />
		<tag k="ssr:stedsnr" v="536069" />
	</node>
	<node id="-13893" lat="59.7225777754" lon="11.893802772">
		<tag k="name" v="Stutaue" />
		<tag k="natural" v="water" />
		<tag k="ssr:stedsnr" v="536067" />
	</node>
	<node id="-13892" lat="59.7433944444" lon="11.8910638944">
		<tag k="name" v="Øvre Statjennbekken" />
		<tag k="ssr:stedsnr" v="536064" />
		<tag k="waterway" v="stream" />
	</node>
	<node id="-13891" lat="59.6948666646" lon="11.8812583322">
		<tag k="name" v="Geitelorten" />
		<tag k="natural" v="water" />
		<tag k="ssr:stedsnr" v="536059" />
	</node>
	<node id="-13889" lat="59.692366665" lon="11.7451083387">
		<tag k="name" v="Høgdemåsatjenn" />
		<tag k="natural" v="water" />
		<tag k="ssr:stedsnr" v="536019" />
	</node>
	<node id="-13885" lat="59.7728555538" lon="11.9321499924">
		<tag k="alt_name" v="Strøtjern" />
		<tag k="name" v="Store Strøtjenn" />
		<tag k="natural" v="water" />
		<tag k="ssr:stedsnr" v="491235" />
	</node>
	<node id="-13884" lat="59.7722694457" lon="11.8876111193">
		<tag k="alt_name" v="Setertjenn" />
		<tag k="name" v="Sætertjenn" />
		<tag k="natural" v="water" />
		<tag k="ssr:stedsnr" v="491231" />
	</node>
	<node id="-13883" lat="59.7735249969" lon="11.8712500035">
		<tag k="name" v="Sundvasstjern" />
		<tag k="natural" v="water" />
		<tag k="ssr:stedsnr" v="491230" />
	</node>
	<node id="-13881" lat="59.7573555567" lon="11.8707861152">
		<tag k="alt_name" v="Dypilen, store;Store Dypilen" />
		<tag k="name" v="Storedypil" />
		<tag k="natural" v="water" />
		<tag k="ssr:stedsnr" v="490220" />
	</node>
	<node id="-13879" lat="59.7214638907" lon="11.8242861198">
		<tag k="name" v="Rattodden" />
		<tag k="natural" v="cape" />
		<tag k="ssr:stedsnr" v="489677" />
	</node>
	<node id="-13876" lat="59.7328502579" lon="11.845471281">
		<tag k="name" v="Vestre Lommetjenn" />
		<tag k="natural" v="water" />
		<tag k="ssr:stedsnr" v="489451" />
	</node>
	<node id="-13875" lat="59.7382722234" lon="11.8881999945">
		<tag k="name" v="Langtjenn" />
		<tag k="natural" v="water" />
		<tag k="ssr:stedsnr" v="489444" />
	</node>
	<node id="-13871" lat="59.6781583344" lon="11.8169277827">
		<tag k="name" v="Myrgangen" />
		<tag k="natural" v="strait" />
		<tag k="ssr:stedsnr" v="489355" />
	</node>
	<node id="-13869" lat="59.6659500038" lon="11.7793527751">
		<tag k="name" v="Bjørntjenn" />
		<tag k="natural" v="water" />
		<tag k="ssr:stedsnr" v="489303" />
	</node>
	<node id="-13865" lat="59.7616333293" lon="11.8686583372">
		<tag k="alt_name" v="Dypilen, lille;Lille Dypilen" />
		<tag k="name" v="Vesledypil" />
		<tag k="natural" v="water" />
		<tag k="ssr:stedsnr" v="430226" />
	</node>
	<node id="-13864" lat="59.7482361096" lon="11.7757388871">
		<tag k="name" v="Trangkleivtjenn" />
		<tag k="natural" v="water" />
		<tag k="ssr:stedsnr" v="429668" />
	</node>
	<node id="-13863" lat="59.7437805586" lon="11.7522611157">
		<tag k="alt_name" v="Damtjenn" />
		<tag k="name" v="Sagtjenn" />
		<tag k="natural" v="water" />
		<tag k="ssr:stedsnr" v="429663" />
	</node>
	<node id="-13857" lat="59.6935613936" lon="11.6825143616">
		<tag k="alt_name" v="Vesle-Risen" />
		<tag k="name" v="Vesle Risen" />
		<tag k="natural" v="water" />
		<tag k="ssr:stedsnr" v="429341" />
		<tag k="water" v="lake" />
	</node>
	<node id="-13856" lat="59.6775958565" lon="11.6711714547">
		<tag k="alt_name" v="Langtjennet" />
		<tag k="loc_name" v="Det lange tjennet" />
		<tag k="name" v="Langtjenn" />
		<tag k="natural" v="water" />
		<tag k="ssr:stedsnr" v="429333" />
	</node>
	<node id="-13855" lat="59.6968666649" lon="11.7789138873">
		<tag k="alt_name" v="Damtjennet" />
		<tag k="name" v="Damtjenn" />
		<tag k="natural" v="water" />
		<tag k="ssr:stedsnr" v="429292" />
	</node>
	<node id="-13852" lat="59.7271388888" lon="11.9360999925">
		<tag k="alt_name" v="Fjørbekktjennet" />
		<tag k="name" v="Fjørbekktjenn" />
		<tag k="natural" v="water" />
		<tag k="ssr:stedsnr" v="429409" />
	</node>
	<node id="-13851" lat="59.6700246235" lon="11.8730448292">
		<tag k="fixme" v="multiple name tags, choose one and add the other to alt_name" />
		<tag k="name" v="Porstjennet;Søndre Porstjenn" />
		<tag k="natural" v="water" />
		<tag k="ssr:stedsnr" v="429058" />
	</node>
	<node id="-13849" lat="59.7324194459" lon="11.794369453">
		<tag k="name" v="Bjørnøya" />
		<tag k="place" v="island" />
		<tag k="ssr:stedsnr" v="428595" />
	</node>
	<node id="-13848" lat="59.6589805553" lon="11.8340694512">
		<tag k="name" v="Oselva" />
		<tag k="ssr:stedsnr" v="428240" />
		<tag k="waterway" v="river" />
	</node>
	<node id="-13846" lat="59.6538999968" lon="11.7806638891">
		<tag k="name" v="Morttjenn" />
		<tag k="natural" v="water" />
		<tag k="ssr:stedsnr" v="428229" />
	</node>
	<node id="-13844" lat="59.6721194402" lon="11.8749361174">
		<tag k="name" v="Nordre Porstjenn" />
		<tag k="natural" v="water" />
		<tag k="ssr:stedsnr" v="415836" />
	</node>
	<node id="-13843" lat="59.7044277742" lon="11.9379138912">
		<tag k="name" v="Klommedammen" />
		<tag k="ssr:stedsnr" v="415806" />
		<tag k="waterway" v="dam" />
	</node>
	<node id="-13842" lat="59.7492361091" lon="11.8734611133">
		<tag k="name" v="Abborvik" />
		<tag k="natural" v="bay" />
		<tag k="ssr:stedsnr" v="415803" />
	</node>
	<node id="-13841" lat="59.759336115" lon="11.8165527845">
		<tag k="name" v="Storhølen" />
		<tag k="place" v="locality" />
		<tag k="ssr:stedsnr" v="415802" />
	</node>
	<node id="-13840" lat="59.7898027779" lon="11.9211611054">
		<tag k="name" v="Abbortjenn" />
		<tag k="natural" v="water" />
		<tag k="ssr:stedsnr" v="415800" />
	</node>
	<node id="-13839" lat="59.724605557" lon="11.7187166612">
		<tag k="name" v="Elgesund" />
		<tag k="natural" v="strait" />
		<tag k="ssr:stedsnr" v="415797" />
	</node>
	<node id="-13825" lat="59.6854722215" lon="11.6748499977">
		<tag k="name" v="Blekketjenn" />
		<tag k="natural" v="water" />
		<tag k="ssr:stedsnr" v="415118" />
	</node>
	<node id="-13823" lat="59.7332500008" lon="11.7129749918">
		<tag k="name" v="Tjennet i Abbormåsån" />
		<tag k="natural" v="water" />
		<tag k="ssr:stedsnr" v="415092" />
	</node>
	<node id="-13817" lat="59.7031138867" lon="11.6961166634">
		<tag k="name" v="Oretjenn" />
		<tag k="natural" v="water" />
		<tag k="ssr:stedsnr" v="415034" />
	</node>
	<node id="-13815" lat="59.7178055587" lon="11.8462861087">
		<tag k="name" v="Bjørnodden" />
		<tag k="natural" v="cape" />
		<tag k="ssr:stedsnr" v="415021" />
	</node>
	<node id="-13808" lat="59.7676738795" lon="11.8874697724">
		<tag k="name" v="Søndre Kuletjenn" />
		<tag k="natural" v="water" />
		<tag k="ssr:stedsnr" v="248231" />
	</node>
	<node id="-13806" lat="59.7900305523" lon="11.9210027815">
		<tag k="alt_name" v="Abbortjenn" />
		<tag k="name" v="Åbbortjenn" />
		<tag k="natural" v="water" />
		<tag k="ssr:stedsnr" v="248222" />
		<tag k="water" v="lake" />
	</node>
	<node id="-13804" lat="59.7369420579" lon="11.9097135514">
		<tag k="name" v="Ertevannet" />
		<tag k="natural" v="water" />
		<tag k="ssr:stedsnr" v="247402" />
		<tag k="water" v="lake" />
	</node>
	<node id="-13803" lat="59.7240833301" lon="11.8788444488">
		<tag k="name" v="Hestesprengen" />
		<tag k="natural" v="water" />
		<tag k="ssr:stedsnr" v="247399" />
	</node>
	<node id="-13800" lat="59.7487772403" lon="11.886278738">
		<tag k="alt_name" v="Stangebrøt" />
		<tag k="name" v="Stangebrot" />
		<tag k="natural" v="water" />
		<tag k="ssr:stedsnr" v="247359" />
		<tag k="water" v="lake" />
	</node>
	<node id="-13799" lat="59.6913916699" lon="11.8425999976">
		<tag k="name" v="Kisteholmen" />
		<tag k="place" v="islet" />
		<tag k="ssr:stedsnr" v="247354" />
	</node>
	<node id="-13798" lat="59.6794416651" lon="11.7264416602">
		<tag k="name" v="Eikelitjenn" />
		<tag k="natural" v="water" />
		<tag k="ssr:stedsnr" v="247321" />
	</node>
	<node id="-13797" lat="59.697066667" lon="11.7374222142">
		<tag k="alt_name" v="Slommetjenn" />
		<tag k="name" v="Slomtjenn" />
		<tag k="natural" v="water" />
		<tag k="ssr:stedsnr" v="247302" />
	</node>
	<node id="-13795" lat="59.7300388919" lon="11.7965027791">
		<tag k="name" v="Lonkøya" />
		<tag k="place" v="islet" />
		<tag k="ssr:stedsnr" v="246596" />
	</node>
	<node id="-13793" lat="59.6713138867" lon="11.8266694376">
		<tag k="name" v="Otnestangen" />
		<tag k="natural" v="cape" />
		<tag k="ssr:stedsnr" v="246262" />
	</node>
	<node id="-13787" lat="59.6968833332" lon="11.7259222242">
		<tag k="name" v="Svarttjenn" />
		<tag k="natural" v="water" />
		<tag k="ssr:stedsnr" v="233129" />
	</node>
	<node id="-13784" lat="59.7167555584" lon="11.8123666692">
		<tag k="name" v="Kjeldsholmen" />
		<tag k="place" v="island" />
		<tag k="ssr:stedsnr" v="233112" />
	</node>
	<node id="-13781" lat="59.651611114" lon="11.7622416664">
		<tag k="name" v="Korsbybekken" />
		<tag k="ssr:stedsnr" v="233072" />
		<tag k="waterway" v="stream" />
	</node>
	<node id="-13780" lat="59.6504361074" lon="11.7558249912">
		<tag k="name" v="Fallsbekken" />
		<tag k="ssr:stedsnr" v="233071" />
		<tag k="waterway" v="stream" />
	</node>
	<node id="-13777" lat="59.744752778" lon="11.8681083415">
		<tag k="name" v="Øvre Kleivetjenn" />
		<tag k="natural" v="water" />
		<tag k="ssr:stedsnr" v="233058" />
	</node>
	<node id="-13773" lat="59.7064666658" lon="11.8503555503">
		<tag k="name" v="Olasholmen" />
		<tag k="place" v="islet" />
		<tag k="ssr:stedsnr" v="233019" />
	</node>
	<node id="-13772" lat="59.7371666629" lon="11.767344449">
		<tag k="name" v="Kopperudelva" />
		<tag k="ssr:stedsnr" v="232771" />
		<tag k="waterway" v="river" />
	</node>
	<node id="-13771" lat="59.7228055557" lon="11.7223055471">
		<tag k="name" v="Smalsund" />
		<tag k="natural" v="strait" />
		<tag k="ssr:stedsnr" v="232755" />
	</node>
	<node id="-13770" lat="59.635830556" lon="11.7526222233">
		<tag k="name" v="Hølsetertjenna" />
		<tag k="natural" v="water" />
		<tag k="ssr:stedsnr" v="232756" />
	</node>
	<node id="-13769" lat="59.7240888846" lon="11.7336694483">
		<tag k="name" v="Furusund" />
		<tag k="natural" v="strait" />
		<tag k="ssr:stedsnr" v="232740" />
	</node>
	<node id="-13768" lat="59.6748638845" lon="11.6808250002">
		<tag k="name" v="Nordre Bleiketjenn" />
		<tag k="natural" v="water" />
		<tag k="ssr:stedsnr" v="232734" />
	</node>
	<node id="-13767" lat="59.6902277812" lon="11.6702888817">
		<tag k="name" v="Vesle Løken" />
		<tag k="natural" v="water" />
		<tag k="ssr:stedsnr" v="232722" />
	</node>
	<node id="-13766" lat="59.7105611119" lon="11.9335972258">
		<tag k="name" v="Hellehøldammen" />
		<tag k="ssr:stedsnr" v="232721" />
		<tag k="waterway" v="dam" />
	</node>
	<node id="-13765" lat="59.7378472237" lon="11.9334250059">
		<tag k="name" v="Sotebrufossen" />
		<tag k="natural" v="waterfall" />
		<tag k="ssr:stedsnr" v="232718" />
	</node>
	<node id="-13764" lat="59.7442055582" lon="11.8807361159">
		<tag k="name" v="Langevik" />
		<tag k="natural" v="bay" />
		<tag k="ssr:stedsnr" v="232715" />
	</node>
	<node id="-13759" lat="59.6586833336" lon="11.7605694507">
		<tag k="name" v="Vestre Slorebekk" />
		<tag k="ssr:stedsnr" v="232208" />
		<tag k="waterway" v="stream" />
	</node>
	<node id="-13758" lat="59.6750222262" lon="11.777741673">
		<tag k="name" v="Gørrtjenn" />
		<tag k="natural" v="water" />
		<tag k="ssr:stedsnr" v="232205" />
	</node>
	<node id="-13757" lat="59.640483333" lon="11.7689055499">
		<tag k="name" v="Dyvlene" />
		<tag k="natural" v="water" />
		<tag k="ssr:stedsnr" v="232200" />
	</node>
	<node id="-13752" lat="59.7395777748" lon="11.8635361082">
		<tag k="name" v="Torvetjenn" />
		<tag k="natural" v="water" />
		<tag k="ssr:stedsnr" v="232166" />
	</node>
	<node id="-13743" lat="59.7368972209" lon="11.8612416697">
		<tag k="alt_name" v="Bastetjenn" />
		<tag k="name" v="Bastetjennet" />
		<tag k="natural" v="water" />
		<tag k="ssr:stedsnr" v="186477" />
	</node>
	<node id="-13741" lat="59.7049249967" lon="11.8883749961">
		<tag k="alt_name" v="Gåsa, store" />
		<tag k="name" v="Store Gåsa" />
		<tag k="natural" v="water" />
		<tag k="ssr:stedsnr" v="186462" />
	</node>
	<node id="-13738" lat="59.7594416679" lon="11.793925006">
		<tag k="alt_name" v="Nedre Auretjenn" />
		<tag k="name" v="Auretjenna" />
		<tag k="natural" v="water" />
		<tag k="ssr:stedsnr" v="186442" />
	</node>
	<node id="-13734" lat="59.7054166704" lon="11.8101305608">
		<tag k="name" v="Hagaholmen" />
		<tag k="place" v="islet" />
		<tag k="ssr:stedsnr" v="186352" />
	</node>
	<node id="-13733" lat="59.7089805513" lon="11.8303805621">
		<tag k="alt_name" v="Store-Tjuven;Storetjuven" />
		<tag k="name" v="Tjuven" />
		<tag k="place" v="islet" />
		<tag k="ssr:stedsnr" v="186350" />
	</node>
	<node id="-13732" lat="59.7020092549" lon="11.7048611249">
		<tag k="alt_name" v="Langtjennet" />
		<tag k="name" v="Langtjenn" />
		<tag k="natural" v="water" />
		<tag k="ssr:stedsnr" v="186325" />
		<tag k="water" v="lake" />
	</node>
	<node id="-13731" lat="59.644508331" lon="11.7823138922">
		<tag k="name" v="Østre Rømungen" />
		<tag k="natural" v="water" />
		<tag k="ssr:stedsnr" v="186306" />
		<tag k="water" v="lake" />
	</node>
	<node id="-13730" lat="59.6753372729" lon="11.7578607655">
		<tag k="fixme" v="multiple name tags, choose one and add the other to alt_name" />
		<tag k="name" v="Karsbytjenn;Nordre Karsbytjenn" />
		<tag k="natural" v="water" />
		<tag k="ssr:stedsnr" v="185255" />
	</node>
	<node id="-13729" lat="59.7438333292" lon="11.8906916651">
		<tag k="name" v="Øvre Statjenndammen" />
		<tag k="ssr:stedsnr" v="172812" />
		<tag k="waterway" v="dam" />
	</node>
	<node id="-13725" lat="59.7618444433" lon="11.774283325">
		<tag k="name" v="Hundekulpen" />
		<tag k="natural" v="water" />
		<tag k="ssr:stedsnr" v="172230" />
	</node>
	<node id="-13721" lat="59.7737583338" lon="11.9112777826">
		<tag k="name" v="Kløften" />
		<tag k="place" v="islet" />
		<tag k="ssr:stedsnr" v="172150" />
	</node>
	<node id="-13717" lat="59.7330388876" lon="11.8498055636">
		<tag k="name" v="Østre Lommetjenn" />
		<tag k="natural" v="water" />
		<tag k="ssr:stedsnr" v="172129" />
	</node>
	<node id="-13714" lat="59.7541749969" lon="11.8686500079">
		<tag k="name" v="Stutaue" />
		<tag k="natural" v="water" />
		<tag k="ssr:stedsnr" v="172092" />
	</node>
	<node id="-13711" lat="59.7482249957" lon="11.8756888945">
		<tag k="name" v="Gåntørkeodden" />
		<tag k="natural" v="cape" />
		<tag k="ssr:stedsnr" v="172051" />
	</node>
	<node id="-13708" lat="59.7698639112" lon="11.8907349741">
		<tag k="name" v="Nordre Kuletjenn" />
		<tag k="natural" v="water" />
		<tag k="ssr:stedsnr" v="172027" />
	</node>
	<node id="-13699" lat="59.7434388878" lon="11.8845166611">
		<tag k="name" v="Roskifttjenn" />
		<tag k="natural" v="water" />
		<tag k="ssr:stedsnr" v="171165" />
	</node>
	<node id="-13691" lat="59.7775750044" lon="11.8673388815">
		<tag k="name" v="Mauretjern" />
		<tag k="natural" v="water" />
		<tag k="ssr:stedsnr" v="127247" />
	</node>
	<node id="-13690" lat="59.7805166687" lon="11.8489361158">
		<tag k="name" v="Gjesstjenn" />
		<tag k="natural" v="water" />
		<tag k="ssr:stedsnr" v="127245" />
	</node>
	<node id="-13689" lat="59.7615194427" lon="11.8477083342">
		<tag k="name" v="Nordre Hellingstjenn" />
		<tag k="natural" v="water" />
		<tag k="old_name" v="Hellingstjernet, nordre;Nordre Hellingstjennet" />
		<tag k="ssr:stedsnr" v="127252" />
	</node>
	<node id="-13687" lat="59.7391250002" lon="11.7161388973">
		<tag k="name" v="Store Abbortjenn" />
		<tag k="natural" v="water" />
		<tag k="old_name" v="Abbortjern;Abbortjenn" />
		<tag k="ssr:stedsnr" v="125699" />
	</node>
	<node id="-13685" lat="59.6863888886" lon="11.807669441">
		<tag k="name" v="Skillesvika" />
		<tag k="natural" v="bay" />
		<tag k="ssr:stedsnr" v="125380" />
	</node>
	<node id="-13683" lat="59.7390250024" lon="11.8128277845">
		<tag k="name" v="Bøvika" />
		<tag k="natural" v="bay" />
		<tag k="ssr:stedsnr" v="124564" />
	</node>
	<node id="-13679" lat="59.709519445" lon="11.8558083277">
		<tag k="name" v="Flesabekken" />
		<tag k="ssr:stedsnr" v="125435" />
		<tag k="waterway" v="stream" />
	</node>
	<node id="-13677" lat="59.7614027766" lon="11.8291583335">
		<tag k="name" v="Igletjenn" />
		<tag k="natural" v="water" />
		<tag k="ssr:stedsnr" v="125418" />
	</node>
	<node id="-13675" lat="59.7695416683" lon="11.9319666672">
		<tag k="name" v="Vesle Strøtjenn" />
		<tag k="natural" v="water" />
		<tag k="ssr:stedsnr" v="111776" />
	</node>
	<node id="-13674" lat="59.7002194435" lon="11.93758056">
		<tag k="name" v="Kulpedammen" />
		<tag k="ssr:stedsnr" v="111771" />
		<tag k="waterway" v="dam" />
	</node>
	<node id="-13673" lat="59.7267361129" lon="11.8266722288">
		<tag k="name" v="Venemotjenna" />
		<tag k="natural" v="water" />
		<tag k="ssr:stedsnr" v="111769" />
	</node>
	<node id="-13672" lat="59.7267805524" lon="11.7805222155">
		<tag k="name" v="Fjøsvik" />
		<tag k="natural" v="bay" />
		<tag k="ssr:stedsnr" v="111765" />
	</node>
	<node id="-13671" lat="59.708202778" lon="11.937497225">
		<tag k="name" v="Systumodammen" />
		<tag k="ssr:stedsnr" v="111724" />
		<tag k="waterway" v="dam" />
	</node>
	<node id="-13670" lat="59.7151249991" lon="11.9360416665">
		<tag k="name" v="Laksehølen" />
		<tag k="place" v="locality" />
		<tag k="ssr:stedsnr" v="111720" />
	</node>
	<node id="-13669" lat="59.7121388902" lon="11.8506249988">
		<tag k="name" v="Setervika" />
		<tag k="natural" v="bay" />
		<tag k="ssr:stedsnr" v="111709" />
	</node>
	<node id="-13667" lat="59.7175416636" lon="11.8105277858">
		<tag k="name" v="Langtangen" />
		<tag k="natural" v="cape" />
		<tag k="ssr:stedsnr" v="111222" />
	</node>
	<node id="-13666" lat="59.6913027806" lon="11.7611944462">
		<tag k="name" v="Abborvika" />
		<tag k="natural" v="bay" />
		<tag k="ssr:stedsnr" v="111219" />
	</node>
	<node id="-13665" lat="59.6865749978" lon="11.819519443">
		<tag k="name" v="Buøya" />
		<tag k="place" v="island" />
		<tag k="ssr:stedsnr" v="111209" />
	</node>
	<node id="-13660" lat="59.7179972223" lon="11.7336000077">
		<tag k="name" v="Torvetjenn" />
		<tag k="natural" v="water" />
		<tag k="ssr:stedsnr" v="111188" />
	</node>
	<node id="-13657" lat="59.7354249997" lon="11.8967472238">
		<tag k="name" v="Glavertjenn" />
		<tag k="natural" v="water" />
		<tag k="ssr:stedsnr" v="111170" />
	</node>
	<node id="-13653" lat="59.7178277779" lon="11.9362083306">
		<tag k="name" v="Trosterudvelta" />
		<tag k="place" v="locality" />
		<tag k="ssr:stedsnr" v="111134" />
	</node>
	<node id="-13650" lat="59.7172416669" lon="11.7645416722">
		<tag k="name" v="Tjernet i fjella" />
		<tag k="natural" v="water" />
		<tag k="ssr:stedsnr" v="111107" />
	</node>
	<node id="-13649" lat="59.7604861149" lon="11.8705083405">
		<tag k="name" v="Hundedypil" />
		<tag k="natural" v="water" />
		<tag k="ssr:stedsnr" v="111097" />
		<tag k="water" v="pond" />
	</node>
	<node id="-13644" lat="59.7004611083" lon="11.8719444445">
		<tag k="name" v="Bjørntjenn" />
		<tag k="natural" v="water" />
		<tag k="ssr:stedsnr" v="111042" />
	</node>
	<node id="-13643" lat="59.7447138914" lon="11.7181944377">
		<tag k="name" v="Det namnlause tjennet" />
		<tag k="natural" v="water" />
		<tag k="ssr:stedsnr" v="111028" />
	</node>
	<node id="-13640" lat="59.7545277801" lon="11.7620333286">
		<tag k="name" v="Kuristjenn" />
		<tag k="natural" v="water" />
		<tag k="ssr:stedsnr" v="111014" />
	</node>
	<node id="-13639" lat="59.6802416648" lon="11.8093750042">
		<tag k="name" v="Lauvøya" />
		<tag k="place" v="island" />
		<tag k="ssr:stedsnr" v="111013" />
	</node>
	<node id="-13630" lat="59.7441055572" lon="11.6976583385">
		<tag k="alt_name" v="Grevlingkultjenn" />
		<tag k="name" v="Grevlingtjenn" />
		<tag k="natural" v="water" />
		<tag k="ssr:stedsnr" v="65679" />
	</node>
	<node id="-13629" lat="59.735794441" lon="11.695083334">
		<tag k="name" v="Steinsvika" />
		<tag k="natural" v="bay" />
		<tag k="ssr:stedsnr" v="65676" />
	</node>
	<node id="-13625" lat="59.714452774" lon="11.8771972215">
		<tag k="alt_name" v="Sætertjennet" />
		<tag k="name" v="Setertjenn" />
		<tag k="natural" v="water" />
		<tag k="ssr:stedsnr" v="65404" />
	</node>
	<node id="-13623" lat="59.6947388914" lon="11.921972224">
		<tag k="alt_name" v="Vesletjennet" />
		<tag k="name" v="Vesletjenn" />
		<tag k="natural" v="water" />
		<tag k="ssr:stedsnr" v="65394" />
	</node>
	<node id="-13622" lat="59.7603583318" lon="11.8157833343">
		<tag k="alt_name" v="Tukuelva" />
		<tag k="name" v="Tukkuelva" />
		<tag k="ssr:stedsnr" v="65393" />
		<tag k="waterway" v="stream" />
	</node>
	<node id="-13618" lat="59.7085444484" lon="11.7144750057">
		<tag k="fixme" v="multiple name tags, choose one and add the other to alt_name" />
		<tag k="name" v="Hestesprengen;Nordre Sprengen" />
		<tag k="natural" v="water" />
		<tag k="ssr:stedsnr" v="64345" />
	</node>
	<node id="-13617" lat="59.6663694436" lon="11.7177444383">
		<tag k="alt_name" v="Prestbordtjenn" />
		<tag k="name" v="Prestebordtjenn" />
		<tag k="natural" v="water" />
		<tag k="ssr:stedsnr" v="64282" />
	</node>
	<node id="-13616" lat="59.6618361124" lon="11.7555027776">
		<tag k="alt_name" v="Strandsætertjenn" />
		<tag k="name" v="Strandsetertjenn" />
		<tag k="natural" v="water" />
		<tag k="ssr:stedsnr" v="64279" />
	</node>
	<node id="-13615" lat="59.669338887" lon="11.7922249947">
		<tag k="name" v="Eplegranbekken" />
		<tag k="ssr:stedsnr" v="64270" />
		<tag k="waterway" v="stream" />
	</node>
	<node id="-13614" lat="59.7035111076" lon="11.7294861095">
		<tag k="name" v="Kuletjenn" />
		<tag k="natural" v="water" />
		<tag k="ssr:stedsnr" v="65301" />
	</node>
	<node id="-13613" lat="59.7602388848" lon="11.8985222273">
		<tag k="name" v="Nordre Hornfisktjenn" />
		<tag k="natural" v="water" />
		<tag k="ssr:stedsnr" v="51838" />
	</node>
	<node id="-13612" lat="59.6290166687" lon="11.7196194428">
		<tag k="name" v="Slavika" />
		<tag k="natural" v="bay" />
		<tag k="ssr:stedsnr" v="51823" />
	</node>
	<node id="-13611" lat="59.7325805529" lon="11.6970666668">
		<tag k="name" v="Gånsunda" />
		<tag k="natural" v="strait" />
		<tag k="ssr:stedsnr" v="51824" />
	</node>
	<node id="-13610" lat="59.7163972244" lon="11.8489583407">
		<tag k="name" v="Vesle Sandvika" />
		<tag k="natural" v="bay" />
		<tag k="ssr:stedsnr" v="51800" />
	</node>
	<node id="-13607" lat="59.7009944484" lon="11.7390388878">
		<tag k="loc_name" v="Det utgravde tjennet" />
		<tag k="name" v="Gubbetjenn" />
		<tag k="natural" v="water" />
		<tag k="ssr:stedsnr" v="51288" />
	</node>
	<node id="-13605" lat="59.6784611118" lon="11.6956638923">
		<tag k="name" v="Østre Fallstjenna" />
		<tag k="natural" v="water" />
		<tag k="ssr:stedsnr" v="51283" />
	</node>
	<node id="-13604" lat="59.6983138885" lon="11.7197833414">
		<tag k="name" v="Nordgardslundtjenn" />
		<tag k="natural" v="water" />
		<tag k="ssr:stedsnr" v="51281" />
	</node>
	<node id="-13600" lat="59.6946166625" lon="11.8044638905">
		<tag k="name" v="Renneodden" />
		<tag k="natural" v="cape" />
		<tag k="ssr:stedsnr" v="51255" />
	</node>
	<node id="-13592" lat="59.7400833319" lon="11.7232305542">
		<tag k="name" v="Venetjenn" />
		<tag k="natural" v="water" />
		<tag k="ssr:stedsnr" v="51166" />
		<tag k="water" v="pond" />
	</node>
	<node id="-13585" lat="59.7096694487" lon="11.8135499955">
		<tag k="name" v="Tysken" />
		<tag k="place" v="island" />
		<tag k="ssr:stedsnr" v="51104" />
	</node>
	<node id="-13584" lat="59.7132194471" lon="11.8097027819">
		<tag k="name" v="Nordgardsholmen" />
		<tag k="place" v="island" />
		<tag k="ssr:stedsnr" v="51098" />
	</node>
	<node id="-13583" lat="59.7412277814" lon="11.7104361029">
		<tag k="name" v="Blekketjenn" />
		<tag k="natural" v="water" />
		<tag k="ssr:stedsnr" v="51092" />
	</node>
	<node id="-13582" lat="59.7134638902" lon="11.7421222145">
		<tag k="name" v="Vestre Klokkartjenn" />
		<tag k="natural" v="water" />
		<tag k="ssr:stedsnr" v="51090" />
	</node>
	<node id="-13578" lat="59.7413499985" lon="11.8695777703">
		<tag k="name" v="Kaffekopptjenn" />
		<tag k="natural" v="water" />
		<tag k="ssr:stedsnr" v="51050" />
	</node>
	<node id="-13577" lat="59.7494611151" lon="11.8995999971">
		<tag k="name" v="Abborholmen" />
		<tag k="place" v="islet" />
		<tag k="ssr:stedsnr" v="51048" />
	</node>
	<node id="-13573" lat="59.7405888844" lon="11.8488638931">
		<tag k="name" v="Frøtjenn" />
		<tag k="natural" v="water" />
		<tag k="ssr:stedsnr" v="51012" />
	</node>
	<node id="-13571" lat="59.6253944485" lon="11.720549994">
		<tag k="name" v="Langvassdammen" />
		<tag k="ssr:stedsnr" v="50873" />
		<tag k="waterway" v="dam" />
	</node>
	<node id="-13568" lat="59.7774944447" lon="11.8631305607">
		<tag k="alt_name" v="Storesundvannet" />
		<tag k="name" v="Store Sundvannet" />
		<tag k="natural" v="water" />
		<tag k="ssr:stedsnr" v="6233" />
	</node>
	<node id="-13566" lat="59.7568972211" lon="11.9115166676">
		<tag k="name" v="Aurkyttjenn" />
		<tag k="natural" v="water" />
		<tag k="ssr:stedsnr" v="5238" />
	</node>
	<node id="-13565" lat="59.7263944005" lon="11.8617489308">
		<tag k="name" v="Søndre Sandtjenn" />
		<tag k="natural" v="water" />
		<tag k="ssr:stedsnr" v="4414" />
		<tag k="water" v="lake" />
	</node>
	<node id="-13564" lat="59.7278444454" lon="11.8945055556">
		<tag k="alt_name" v="Syltongen" />
		<tag k="name" v="Syltungen" />
		<tag k="natural" v="water" />
		<tag k="ssr:stedsnr" v="4413" />
	</node>
	<node id="-13562" lat="59.7513638918" lon="11.842483327">
		<tag k="alt_name" v="Gryttjennet" />
		<tag k="name" v="Gryttjenn" />
		<tag k="natural" v="water" />
		<tag k="ssr:stedsnr" v="4367" />
	</node>
	<node id="-13559" lat="59.7555087333" lon="11.7218047967">
		<tag k="name" v="Evertsætertjenn" />
		<tag k="natural" v="water" />
		<tag k="ssr:stedsnr" v="793407" />
	</node>
	<node id="-13558" lat="59.7052149063" lon="11.6811066011">
		<tag k="name" v="Søndre Steinstjenn" />
		<tag k="natural" v="water" />
		<tag k="ssr:stedsnr" v="793333" />
	</node>
	<node id="-13545" lat="59.6971027783" lon="11.6692888859">
		<tag k="name" v="Svarttjenn" />
		<tag k="natural" v="water" />
		<tag k="ssr:stedsnr" v="475791" />
	</node>
	<node id="-13544" lat="59.7358972236" lon="11.9326138859">
		<tag k="name" v="Sanddrevslora" />
		<tag k="natural" v="water" />
		<tag k="ssr:stedsnr" v="475770" />
		<tag k="water" v="pond" />
	</node>
	<node id="-13541" lat="59.6883527791" lon="11.7139972252">
		<tag k="name" v="Nedre Aurekulp" />
		<tag k="natural" v="water" />
		<tag k="ssr:stedsnr" v="475245" />
	</node>
	<node id="-13539" lat="59.7104527797" lon="11.808438885">
		<tag k="name" v="Neverneset" />
		<tag k="natural" v="cape" />
		<tag k="ssr:stedsnr" v="475235" />
	</node>
	<node id="-13538" lat="59.6941472198" lon="11.74422223">
		<tag k="name" v="De runde tjenna" />
		<tag k="natural" v="water" />
		<tag k="ssr:stedsnr" v="475228" />
	</node>
	<node id="-13537" lat="59.6906555536" lon="11.7650333314">
		<tag k="name" v="Skvettebruvika" />
		<tag k="natural" v="bay" />
		<tag k="ssr:stedsnr" v="475227" />
	</node>
	<node id="-13536" lat="59.6825249973" lon="11.8231777855">
		<tag k="name" v="Sandøya" />
		<tag k="place" v="island" />
		<tag k="ssr:stedsnr" v="475220" />
	</node>
	<node id="-13531" lat="59.7582444461" lon="11.8944305551">
		<tag k="name" v="Jegertjenn" />
		<tag k="natural" v="water" />
		<tag k="ssr:stedsnr" v="475181" />
	</node>
	<node id="-13530" lat="59.6780361114" lon="11.8751583325">
		<tag k="name" v="Myrtjenn" />
		<tag k="natural" v="water" />
		<tag k="ssr:stedsnr" v="475179" />
	</node>
	<node id="-13529" lat="59.7247249973" lon="11.8959444495">
		<tag k="name" v="Hornfisktjenn" />
		<tag k="natural" v="water" />
		<tag k="ssr:stedsnr" v="475172" />
	</node>
	<node id="-13524" lat="59.7059694439" lon="11.8993027838">
		<tag k="name" v="Søndre dypil" />
		<tag k="natural" v="water" />
		<tag k="ssr:stedsnr" v="475129" />
	</node>
	<node id="-13523" lat="59.7181277746" lon="11.8767500054">
		<tag k="name" v="Svartebøtta" />
		<tag k="natural" v="water" />
		<tag k="ssr:stedsnr" v="475122" />
	</node>
	<node id="-13521" lat="59.6507083317" lon="11.8056083344">
		<tag k="name" v="Tobakksteintjenn" />
		<tag k="natural" v="water" />
		<tag k="ssr:stedsnr" v="475107" />
	</node>
	<node id="-13513" lat="59.760222225" lon="11.8554194368">
		<tag k="name" v="Røyrtjenn" />
		<tag k="natural" v="water" />
		<tag k="ssr:stedsnr" v="475002" />
	</node>
	<node id="-13509" lat="59.7469777743" lon="11.8890749958">
		<tag k="alt_name" v="Stangebrøtdammen" />
		<tag k="name" v="Stangebrotdammen" />
		<tag k="ssr:stedsnr" v="414192" />
		<tag k="waterway" v="dam" />
	</node>
	<node id="-13508" lat="59.7299999968" lon="11.8668083367">
		<tag k="name" v="Rumpetjenn" />
		<tag k="natural" v="water" />
		<tag k="ssr:stedsnr" v="414178" />
	</node>
	<node id="-13507" lat="59.768980553" lon="11.8678888948">
		<tag k="fixme" v="multiple name tags, choose one and add the other to alt_name" />
		<tag k="name" v="Lille Sundvannet;Veslesundvannet" />
		<tag k="natural" v="water" />
		<tag k="ssr:stedsnr" v="370266" />
	</node>
	<node id="-13505" lat="59.7775027765" lon="11.9111333311">
		<tag k="name" v="Storøya" />
		<tag k="place" v="islet" />
		<tag k="ssr:stedsnr" v="370262" />
	</node>
	<node id="-13504" lat="59.7578944485" lon="11.9289500076">
		<tag k="name" v="Røvannet" />
		<tag k="natural" v="water" />
		<tag k="ssr:stedsnr" v="369223" />
		<tag k="water" v="lake" />
	</node>
	<node id="-13502" lat="59.739049997" lon="11.736994451">
		<tag k="alt_name" v="Botnen" />
		<tag k="name" v="Bottfjorden" />
		<tag k="natural" v="bay" />
		<tag k="ssr:stedsnr" v="368717" />
	</node>
	<node id="-13501" lat="59.7426083292" lon="11.8625833391">
		<tag k="alt_name" v="Kleivetjennet" />
		<tag k="name" v="Kleivetjenn" />
		<tag k="natural" v="water" />
		<tag k="ssr:stedsnr" v="368462" />
	</node>
	<node id="-13500" lat="59.7137250041" lon="11.9362805475">
		<tag k="name" v="Nedre Langebekk" />
		<tag k="ssr:stedsnr" v="368443" />
		<tag k="waterway" v="stream" />
	</node>
	<node id="-13499" lat="59.6937833298" lon="11.8895361038">
		<tag k="alt_name" v="Bjørnspjut" />
		<tag k="name" v="Bjørnespjut" />
		<tag k="natural" v="water" />
		<tag k="ssr:stedsnr" v="368441" />
	</node>
	<node id="-13497" lat="59.6952234042" lon="11.936582795">
		<tag k="name" v="Hvitsjøen" />
		<tag k="natural" v="water" />
		<tag k="ssr:stedsnr" v="368434" />
		<tag k="water" v="lake" />
	</node>
	<node id="-13494" lat="59.7077944427" lon="11.8127499929">
		<tag k="alt_name" v="Kjeøya" />
		<tag k="name" v="Kjeholmen" />
		<tag k="place" v="islet" />
		<tag k="ssr:stedsnr" v="368357" />
	</node>
	<node id="-13490" lat="59.7245833301" lon="11.7073777797">
		<tag k="alt_name" v="Sulubergneset" />
		<tag k="name" v="Solbergneset" />
		<tag k="natural" v="cape" />
		<tag k="ssr:stedsnr" v="367601" />
	</node>
	<node id="-13488" lat="59.6380833341" lon="11.7629583363">
		<tag k="name" v="Okstjenn" />
		<tag k="natural" v="water" />
		<tag k="ssr:stedsnr" v="354819" />
	</node>
	<node id="-13487" lat="59.7473472214" lon="11.8841416708">
		<tag k="name" v="Roskiftvika" />
		<tag k="natural" v="bay" />
		<tag k="ssr:stedsnr" v="354810" />
	</node>
	<node id="-13485" lat="59.6688694427" lon="11.7149805466">
		<tag k="name" v="Engemåsatjenn" />
		<tag k="natural" v="water" />
		<tag k="ssr:stedsnr" v="354795" />
	</node>
	<node id="-13484" lat="59.7284861093" lon="11.7101333356">
		<tag k="name" v="Hakabrufjorden" />
		<tag k="natural" v="bay" />
		<tag k="ssr:stedsnr" v="354793" />
	</node>
	<node id="-13483" lat="59.7156085179" lon="11.6988108494">
		<tag k="name" v="Søndre Nipetjenn" />
		<tag k="natural" v="water" />
		<tag k="ssr:stedsnr" v="354778" />
		<tag k="water" v="lake" />
	</node>
	<node id="-13482" lat="59.7662055583" lon="11.9187944369">
		<tag k="name" v="Røvassfallvika" />
		<tag k="natural" v="bay" />
		<tag k="ssr:stedsnr" v="354779" />
	</node>
	<node id="-13481" lat="59.685766669" lon="11.815702777">
		<tag k="name" v="Fjøsvika" />
		<tag k="natural" v="bay" />
		<tag k="ssr:stedsnr" v="354762" />
	</node>
	<node id="-13478" lat="59.7112777818" lon="11.8239638882">
		<tag k="name" v="Slomøya" />
		<tag k="place" v="island" />
		<tag k="ssr:stedsnr" v="354253" />
	</node>
	<node id="-13467" lat="59.7084555535" lon="11.6967777794">
		<tag k="name" v="Vestre Hestetjenn" />
		<tag k="natural" v="water" />
		<tag k="ssr:stedsnr" v="354139" />
	</node>
	<node id="-13465" lat="59.7385138888" lon="11.6995027755">
		<tag k="name" v="Steinstjenn" />
		<tag k="natural" v="water" />
		<tag k="ssr:stedsnr" v="354106" />
	</node>
	<node id="-13456" lat="59.7487166682" lon="11.897880553">
		<tag k="name" v="Skredderholmen" />
		<tag k="place" v="islet" />
		<tag k="ssr:stedsnr" v="354060" />
	</node>
	<node id="-13455" lat="59.7388555588" lon="11.8915611027">
		<tag k="name" v="Ulvekultjenn" />
		<tag k="natural" v="water" />
		<tag k="ssr:stedsnr" v="354057" />
	</node>
	<node id="-13454" lat="59.7516444476" lon="11.8722416735">
		<tag k="alt_name" v="Stangebrøttjenn" />
		<tag k="name" v="Stangebrottjenn" />
		<tag k="natural" v="water" />
		<tag k="ssr:stedsnr" v="354050" />
	</node>
	<node id="-13452" lat="59.7369388893" lon="11.842361116">
		<tag k="name" v="Annetjenn" />
		<tag k="natural" v="water" />
		<tag k="ssr:stedsnr" v="354011" />
	</node>
	<node id="-13450" lat="59.7312972211" lon="11.800491672">
		<tag k="name" v="Fugleholmen" />
		<tag k="place" v="islet" />
		<tag k="ssr:stedsnr" v="354007" />
	</node>
	<node id="-13448" lat="59.7228277736" lon="11.8771527796">
		<tag k="name" v="Silartjenn" />
		<tag k="natural" v="water" />
		<tag k="ssr:stedsnr" v="353200" />
	</node>
	<node id="-13443" lat="59.7289500022" lon="11.7772166718">
		<tag k="alt_name" v="Leirvika" />
		<tag k="name" v="Leirvik" />
		<tag k="natural" v="bay" />
		<tag k="ssr:stedsnr" v="307642" />
	</node>
	<node id="-13438" lat="59.7573111148" lon="11.901824995">
		<tag k="alt_name" v="Hornfisktjerna" />
		<tag k="name" v="Søndre Hornfisktjenn" />
		<tag k="natural" v="water" />
		<tag k="ssr:stedsnr" v="308216" />
	</node>
	<node id="-13437" lat="59.7628750016" lon="11.8926944427">
		<tag k="name" v="Delingstjenn" />
		<tag k="natural" v="water" />
		<tag k="ssr:stedsnr" v="308214" />
	</node>
	<node id="-13435" lat="59.6862749976" lon="11.8227777816">
		<tag k="name" v="Lakaholmen" />
		<tag k="place" v="islet" />
		<tag k="ssr:stedsnr" v="307366" />
	</node>
	<node id="-13434" lat="59.6854499974" lon="11.700524993">
		<tag k="loc_name" v="Store Røytjenn" />
		<tag k="name" v="Søndre Røytjenn" />
		<tag k="natural" v="water" />
		<tag k="ssr:stedsnr" v="307353" />
	</node>
	<node id="-13433" lat="59.6966083361" lon="11.7618444381">
		<tag k="name" v="Ertevann" />
		<tag k="natural" v="water" />
		<tag k="ssr:stedsnr" v="307336" />
		<tag k="water" v="lake" />
	</node>
	<node id="-13432" lat="59.7281472225" lon="11.8799944486">
		<tag k="name" v="Bastetjenn" />
		<tag k="natural" v="water" />
		<tag k="ssr:stedsnr" v="293817" />
	</node>
	<node id="-13431" lat="59.7721611151" lon="11.8642611109">
		<tag k="name" v="Geitelorten" />
		<tag k="natural" v="water" />
		<tag k="ssr:stedsnr" v="293812" />
	</node>
	<node id="-13430" lat="59.734477775" lon="11.7950249931">
		<tag k="name" v="Bjørnøysundet" />
		<tag k="natural" v="strait" />
		<tag k="ssr:stedsnr" v="293805" />
	</node>
	<node id="-13429" lat="59.7409388861" lon="11.8993777709">
		<tag k="name" v="Nedre Slatjenndammen" />
		<tag k="ssr:stedsnr" v="293800" />
		<tag k="waterway" v="dam" />
	</node>
	<node id="-13427" lat="59.6866833299" lon="11.8394666679">
		<tag k="name" v="Støvelvika" />
		<tag k="natural" v="bay" />
		<tag k="ssr:stedsnr" v="293780" />
	</node>
	<node id="-13426" lat="59.7320111098" lon="11.9162583253">
		<tag k="name" v="Ertevassdammen" />
		<tag k="ssr:stedsnr" v="293773" />
		<tag k="waterway" v="dam" />
	</node>
	<node id="-13425" lat="59.7123944437" lon="11.7403111023">
		<tag k="name" v="Delingstjenn" />
		<tag k="natural" v="water" />
		<tag k="ssr:stedsnr" v="293758" />
	</node>
	<node id="-13424" lat="59.7269194413" lon="11.7197916739">
		<tag k="name" v="Setervik" />
		<tag k="natural" v="bay" />
		<tag k="ssr:stedsnr" v="293757" />
	</node>
	<node id="-13423" lat="59.7573861139" lon="11.7844944387">
		<tag k="name" v="Vestre Auretjenn" />
		<tag k="natural" v="water" />
		<tag k="ssr:stedsnr" v="293754" />
	</node>
	<node id="-13422" lat="59.7007888926" lon="11.7213166639">
		<tag k="name" v="Gjeddetjenn" />
		<tag k="natural" v="water" />
		<tag k="ssr:stedsnr" v="293299" />
	</node>
	<node id="-13420" lat="59.6988388855" lon="11.690297221">
		<tag k="name" v="Setertjenn" />
		<tag k="natural" v="water" />
		<tag k="ssr:stedsnr" v="293297" />
	</node>
	<node id="-13419" lat="59.6909111153" lon="11.723608329">
		<tag k="name" v="Øvre Aurekulp" />
		<tag k="natural" v="water" />
		<tag k="ssr:stedsnr" v="293291" />
	</node>
	<node id="-13417" lat="59.7498583345" lon="11.7331055604">
		<tag k="name" v="Vesle Bjørtjenn" />
		<tag k="natural" v="water" />
		<tag k="ssr:stedsnr" v="293287" />
	</node>
	<node id="-13409" lat="59.7076833341" lon="11.6993999984">
		<tag k="name" v="Østre Hestetjenn" />
		<tag k="natural" v="water" />
		<tag k="ssr:stedsnr" v="293231" />
	</node>
	<node id="-13403" lat="59.7697888868" lon="11.9107694436">
		<tag k="name" v="Flaholmene" />
		<tag k="place" v="islet" />
		<tag k="ssr:stedsnr" v="293202" />
	</node>
	<node id="-13395" lat="59.7109944404" lon="11.7510083377">
		<tag k="name" v="Østre Klokkartjenn" />
		<tag k="natural" v="water" />
		<tag k="ssr:stedsnr" v="293116" />
	</node>
	<node id="-13394" lat="59.6670916654" lon="11.8292305545">
		<tag k="name" v="Ormetangen" />
		<tag k="natural" v="cape" />
		<tag k="ssr:stedsnr" v="293102" />
	</node>
	<node id="-13393" lat="59.6544861074" lon="11.7503722282">
		<tag k="name" v="Bjurtjenn" />
		<tag k="natural" v="water" />
		<tag k="ssr:stedsnr" v="293098" />
	</node>
	<node id="-13391" lat="59.7254833318" lon="11.8867222296">
		<tag k="name" v="Venetjenn" />
		<tag k="natural" v="water" />
		<tag k="ssr:stedsnr" v="293073" />
	</node>
	<node id="-13388" lat="59.7383333349" lon="11.8555250028">
		<tag k="name" v="Dropletjenn" />
		<tag k="natural" v="water" />
		<tag k="ssr:stedsnr" v="293019" />
	</node>
	<node id="-13387" lat="59.7810888927" lon="11.8449583372">
		<tag k="name" v="Vesle Gjesstjenn" />
		<tag k="natural" v="water" />
		<tag k="ssr:stedsnr" v="293020" />
	</node>
</osm>
