<?xml version="1.0" encoding="UTF-8"?>
<osm generator="osmapis" version="0.6">
	<node id="-13440" lat="59.7066083331" lon="11.8980583259">
		<tag k="name" v="Dyvelmyra" />
		<tag k="natural" v="wetland" />
		<tag k="ssr:stedsnr" v="307416" />
	</node>
	<node id="-14206" lat="59.7049166705" lon="11.8588305577">
		<tag k="name" v="Hemyrene" />
		<tag k="natural" v="wetland" />
		<tag k="ssr:stedsnr" v="900062" />
	</node>
	<node id="-13820" lat="59.6281777757" lon="11.722372217">
		<tag k="name" v="Slamåsån" />
		<tag k="natural" v="wetland" />
		<tag k="ssr:stedsnr" v="415074" />
	</node>
	<node id="-14108" lat="59.6446194469" lon="11.74819723">
		<tag k="name" v="Fallsmyra" />
		<tag k="natural" v="wetland" />
		<tag k="ssr:stedsnr" v="779102" />
	</node>
	<node id="-14143" lat="59.7717027764" lon="11.8406138945">
		<tag k="name" v="Erttjennmåsån" />
		<tag k="natural" v="wetland" />
		<tag k="ssr:stedsnr" v="840011" />
	</node>
	<node id="-13609" lat="59.658374997" lon="11.7349222217">
		<tag k="name" v="Kristofferhølet" />
		<tag k="natural" v="wetland" />
		<tag k="ssr:stedsnr" v="51798" />
	</node>
	<node id="-14048" lat="59.7772583347" lon="11.8104555595">
		<tag k="name" v="Setermåsån" />
		<tag k="natural" v="wetland" />
		<tag k="ssr:stedsnr" v="718017" />
	</node>
	<node id="-13807" lat="59.7822388854" lon="11.9182888816">
		<tag k="alt_name" v="Finnemåsan" />
		<tag k="name" v="Finnmåsan" />
		<tag k="natural" v="wetland" />
		<tag k="ssr:stedsnr" v="248228" />
	</node>
	<node id="-13678" lat="59.7171111139" lon="11.9139277863">
		<tag k="name" v="Korsmåsan" />
		<tag k="natural" v="wetland" />
		<tag k="ssr:stedsnr" v="125432" />
	</node>
	<node id="-13805" lat="59.779888893" lon="11.836974995">
		<tag k="alt_name" v="Bumosen" />
		<tag k="name" v="Bumåsan" />
		<tag k="natural" v="wetland" />
		<tag k="ssr:stedsnr" v="247414" />
	</node>
	<node id="-14188" lat="59.7617500032" lon="11.8409361163">
		<tag k="loc_name" v="Øremåsan" />
		<tag k="name" v="Øremosen" />
		<tag k="natural" v="wetland" />
		<tag k="ssr:stedsnr" v="854389" />
	</node>
	<node id="-13930" lat="59.7405000042" lon="11.9171194371">
		<tag k="name" v="Posemåsan" />
		<tag k="natural" v="wetland" />
		<tag k="ssr:stedsnr" v="550422" />
	</node>
	<node id="-13928" lat="59.7271083335" lon="11.9042000043">
		<tag k="name" v="Store Heimyr" />
		<tag k="natural" v="wetland" />
		<tag k="ssr:stedsnr" v="550417" />
	</node>
	<node id="-13436" lat="59.681844447" lon="11.8504472274">
		<tag k="name" v="Høymyra" />
		<tag k="natural" v="wetland" />
		<tag k="ssr:stedsnr" v="307068" />
	</node>
	<node id="-13926" lat="59.7120833294" lon="11.9192583284">
		<tag k="name" v="Hellemyra" />
		<tag k="natural" v="wetland" />
		<tag k="ssr:stedsnr" v="550407" />
	</node>
	<node id="-14176" lat="59.669827776" lon="11.8409500046">
		<tag k="name" v="Sylta" />
		<tag k="natural" v="wetland" />
		<tag k="ssr:stedsnr" v="853252" />
	</node>
	<node id="-13791" lat="59.696633337" lon="11.8109972239">
		<tag k="name" v="Nesmåsan" />
		<tag k="natural" v="wetland" />
		<tag k="ssr:stedsnr" v="233185" />
	</node>
	<node id="-13661" lat="59.6526999977" lon="11.825444447">
		<tag k="name" v="Kleivmyr" />
		<tag k="natural" v="wetland" />
		<tag k="ssr:stedsnr" v="111191" />
	</node>
	<node id="-13788" lat="59.6906416641" lon="11.7724611095">
		<tag k="name" v="Trytjennmåsan" />
		<tag k="natural" v="wetland" />
		<tag k="ssr:stedsnr" v="233174" />
	</node>
	<node id="-13786" lat="59.6510583379" lon="11.8228749916">
		<tag k="name" v="Moltemåsamyr" />
		<tag k="natural" v="wetland" />
		<tag k="ssr:stedsnr" v="233121" />
	</node>
	<node id="-13459" lat="59.6496583298" lon="11.7645305536">
		<tag k="name" v="Lerretsmåsan" />
		<tag k="natural" v="wetland" />
		<tag k="ssr:stedsnr" v="354070" />
	</node>
	<node id="-14168" lat="59.6361666622" lon="11.7284305626">
		<tag k="name" v="Seljehølmåsan" />
		<tag k="natural" v="wetland" />
		<tag k="ssr:stedsnr" v="840212" />
	</node>
	<node id="-13783" lat="59.7066777745" lon="11.7490527855">
		<tag k="name" v="Merraskrottmyra" />
		<tag k="natural" v="wetland" />
		<tag k="ssr:stedsnr" v="233102" />
	</node>
	<node id="-13608" lat="59.6338916698" lon="11.7362111194">
		<tag k="name" v="Seljehølet" />
		<tag k="natural" v="wetland" />
		<tag k="ssr:stedsnr" v="51796" />
	</node>
	<node id="-13651" lat="59.7652472239" lon="11.8086611072">
		<tag k="name" v="Fugleleiken" />
		<tag k="natural" v="wetland" />
		<tag k="ssr:stedsnr" v="111129" />
	</node>
	<node id="-13520" lat="59.7339555551" lon="11.8658999989">
		<tag k="name" v="Sandtjennmåsån" />
		<tag k="natural" v="wetland" />
		<tag k="ssr:stedsnr" v="475098" />
	</node>
	<node id="-13903" lat="59.650669443" lon="11.8267111169">
		<tag k="name" v="Johannesmyra" />
		<tag k="natural" v="wetland" />
		<tag k="ssr:stedsnr" v="536179" />
	</node>
	<node id="-14158" lat="59.648666667" lon="11.7672361099">
		<tag k="name" v="Ferjene" />
		<tag k="natural" v="wetland" />
		<tag k="ssr:stedsnr" v="840120" />
	</node>
	<node id="-13402" lat="59.7741361103" lon="11.9230861092">
		<tag k="name" v="Fjøsmåsan" />
		<tag k="natural" v="wetland" />
		<tag k="ssr:stedsnr" v="293197" />
	</node>
	<node id="-14152" lat="59.6636500033" lon="11.8476055484">
		<tag k="name" v="Kalvebrumosan" />
		<tag k="natural" v="wetland" />
		<tag k="ssr:stedsnr" v="840083" />
	</node>
	<node id="-13895" lat="59.6515805527" lon="11.7366944511">
		<tag k="name" v="Kollemåsan" />
		<tag k="natural" v="wetland" />
		<tag k="ssr:stedsnr" v="536072" />
	</node>
	<node id="-14148" lat="59.7174916695" lon="11.8860861047">
		<tag k="name" v="Gåsemåsån" />
		<tag k="natural" v="wetland" />
		<tag k="ssr:stedsnr" v="840053" />
	</node>
	<node id="-13890" lat="59.7792611146" lon="11.8871638889">
		<tag k="name" v="Nedre Flinttjennmåsan" />
		<tag k="natural" v="wetland" />
		<tag k="ssr:stedsnr" v="536040" />
	</node>
	<node id="-14271" lat="59.6508916641" lon="11.7563416594">
		<tag k="name" v="Prekestolmyra" />
		<tag k="natural" v="wetland" />
		<tag k="ssr:stedsnr" v="961072" />
	</node>
	<node id="-13753" lat="59.7640361074" lon="11.8745722172">
		<tag k="name" v="Dypilmåsån" />
		<tag k="natural" v="wetland" />
		<tag k="ssr:stedsnr" v="232174" />
	</node>
	<node id="-13880" lat="59.7758861092" lon="11.8409277757">
		<tag k="alt_name" v="Bronsmosen" />
		<tag k="name" v="Bronsmåså" />
		<tag k="natural" v="wetland" />
		<tag k="ssr:stedsnr" v="490417" />
	</node>
	<node id="-13495" lat="59.673519449" lon="11.6785499972">
		<tag k="name" v="Bleiken" />
		<tag k="natural" v="wetland" />
		<tag k="ssr:stedsnr" v="368380" />
	</node>
	<node id="-14130" lat="59.7110388873" lon="11.7598999919">
		<tag k="name" v="Smørmosen" />
		<tag k="natural" v="wetland" />
		<tag k="ssr:stedsnr" v="792327" />
	</node>
	<node id="-13745" lat="59.7840805518" lon="11.8404305505">
		<tag k="alt_name" v="Sæterøremosen" />
		<tag k="name" v="Seterøremåsan" />
		<tag k="natural" v="wetland" />
		<tag k="ssr:stedsnr" v="187409" />
	</node>
	<node id="-13872" lat="59.6972222187" lon="11.9042694358">
		<tag k="name" v="Furukollmåsan" />
		<tag k="natural" v="wetland" />
		<tag k="ssr:stedsnr" v="489420" />
	</node>
	<node id="-13742" lat="59.729794445" lon="11.9148166587">
		<tag k="name" v="Ertevassmåsan" />
		<tag k="natural" v="wetland" />
		<tag k="ssr:stedsnr" v="186472" />
	</node>
	<node id="-13997" lat="59.6589361102" lon="11.8494777815">
		<tag k="name" v="Årnesmåsan" />
		<tag k="natural" v="wetland" />
		<tag k="ssr:stedsnr" v="657070" />
	</node>
	<node id="-13996" lat="59.6582888858" lon="11.8416833385">
		<tag k="name" v="Hundemyra" />
		<tag k="natural" v="wetland" />
		<tag k="ssr:stedsnr" v="657068" />
	</node>
	<node id="-13631" lat="59.7706611108" lon="11.8776166619">
		<tag k="name" v="Gatemåsan" />
		<tag k="natural" v="wetland" />
		<tag k="ssr:stedsnr" v="66223" />
	</node>
	<node id="-14250" lat="59.7178777763" lon="11.7136500078">
		<tag k="alt_name" v="Kumosen" />
		<tag k="name" v="Kumåsan" />
		<tag k="natural" v="wetland" />
		<tag k="ssr:stedsnr" v="914664" />
	</node>
	<node id="-14151" lat="59.6488138896" lon="11.7487361106">
		<tag k="name" v="Spettfurumyra" />
		<tag k="natural" v="wetland" />
		<tag k="ssr:stedsnr" v="840077" />
	</node>
	<node id="-14120" lat="59.6596222204" lon="11.7246888909">
		<tag k="name" v="Sylmyra" />
		<tag k="natural" v="wetland" />
		<tag k="ssr:stedsnr" v="779781" />
	</node>
	<node id="-13735" lat="59.6874222205" lon="11.7632916597">
		<tag k="alt_name" v="Kavlebrumosen" />
		<tag k="name" v="Kavlebrumåsan" />
		<tag k="natural" v="wetland" />
		<tag k="ssr:stedsnr" v="186380" />
	</node>
	<node id="-13681" lat="59.7379888875" lon="11.9261583287">
		<tag k="name" v="Orremåsan" />
		<tag k="natural" v="wetland" />
		<tag k="ssr:stedsnr" v="125449" />
	</node>
	<node id="-14243" lat="59.6852249958" lon="11.7770361023">
		<tag k="alt_name" v="Blaremyra" />
		<tag k="name" v="Blaramyr" />
		<tag k="natural" v="wetland" />
		<tag k="ssr:stedsnr" v="914346" />
	</node>
	<node id="-13486" lat="59.6765833296" lon="11.7009305611">
		<tag k="name" v="Fallsmåsan" />
		<tag k="natural" v="wetland" />
		<tag k="ssr:stedsnr" v="354796" />
	</node>
	<node id="-14240" lat="59.6758111126" lon="11.7138888933">
		<tag k="alt_name" v="Engemosen" />
		<tag k="name" v="Engemåsan" />
		<tag k="natural" v="wetland" />
		<tag k="ssr:stedsnr" v="914279" />
	</node>
	<node id="-13977" lat="59.7408972232" lon="11.8832638923">
		<tag k="name" v="Langvikmåsan" />
		<tag k="natural" v="wetland" />
		<tag k="ssr:stedsnr" v="610475" />
	</node>
	<node id="-14109" lat="59.6798027814" lon="11.6954500027">
		<tag k="name" v="Fallsmåsan" />
		<tag k="natural" v="wetland" />
		<tag k="ssr:stedsnr" v="779106" />
	</node>
	<node id="-13724" lat="59.6615833373" lon="11.7881722271">
		<tag k="name" v="Myrtaumyra" />
		<tag k="natural" v="wetland" />
		<tag k="ssr:stedsnr" v="172213" />
	</node>
	<node id="-13595" lat="59.6508222237" lon="11.7706444423">
		<tag k="name" v="Halvorslora" />
		<tag k="natural" v="wetland" />
		<tag k="ssr:stedsnr" v="51208" />
	</node>
	<node id="-14106" lat="59.6425784009" lon="11.7300642936">
		<tag k="name" v="Storemåsan" />
		<tag k="natural" v="wetland" />
		<tag k="ssr:stedsnr" v="779057" />
	</node>
	<node id="-14191" lat="59.7161638928" lon="11.8921972219">
		<tag k="fixme" v="multiple name tags, choose one and add the other to alt_name" />
		<tag k="name" v="Småtjennmåsån;Gåsemåsan" />
		<tag k="natural" v="wetland" />
		<tag k="ssr:stedsnr" v="854405" />
	</node>
	<node id="-13464" lat="59.7670111082" lon="11.8791222185">
		<tag k="name" v="Langemåså" />
		<tag k="natural" v="wetland" />
		<tag k="ssr:stedsnr" v="354099" />
	</node>
	<node id="-13461" lat="59.6558861113" lon="11.8451000077">
		<tag k="name" v="Storemyra" />
		<tag k="natural" v="wetland" />
		<tag k="ssr:stedsnr" v="354073" />
	</node>
	<node id="-13716" lat="59.6819916697" lon="11.7174111125">
		<tag k="name" v="Tollefsetermåsan" />
		<tag k="natural" v="wetland" />
		<tag k="ssr:stedsnr" v="172119" />
	</node>
	<node id="-14227" lat="59.655819447" lon="11.7756916645">
		<tag k="name" v="Tømmerholtmyra" />
		<tag k="natural" v="wetland" />
		<tag k="ssr:stedsnr" v="900220" />
	</node>
	<node id="-13458" lat="59.6517499961" lon="11.7624499998">
		<tag k="name" v="Gulbrandslora" />
		<tag k="natural" v="wetland" />
		<tag k="ssr:stedsnr" v="354069" />
	</node>
	<node id="-13528" lat="59.7366638878" lon="11.883788891">
		<tag k="name" v="Høgabbortjennmåsån" />
		<tag k="natural" v="wetland" />
		<tag k="ssr:stedsnr" v="475166" />
	</node>
	<node id="-14217" lat="59.772066669" lon="11.8332694447">
		<tag k="name" v="Stormyra" />
		<tag k="natural" v="wetland" />
		<tag k="ssr:stedsnr" v="900141" />
	</node>
	<node id="-13702" lat="59.6525583364" lon="11.7342722306">
		<tag k="name" v="Kollemyra" />
		<tag k="natural" v="wetland" />
		<tag k="ssr:stedsnr" v="172063" />
	</node>
	<node id="-13697" lat="59.717527775" lon="11.9088777696">
		<tag k="name" v="Løftingstein" />
		<tag k="natural" v="stone" />
		<tag k="ssr:stedsnr" v="171111" />
	</node>
	<node id="-13828" lat="59.7505055533" lon="11.8348777823">
		<tag k="name" v="Trytjennmåsån" />
		<tag k="natural" v="wetland" />
		<tag k="ssr:stedsnr" v="415157" />
	</node>
	<node id="-14015" lat="59.6526305578" lon="11.7518888933">
		<tag k="name" v="Bjuren" />
		<tag k="natural" v="wetland" />
		<tag k="ssr:stedsnr" v="657197" />
	</node>
	<node id="-13698" lat="59.7583777747" lon="11.8646638872">
		<tag k="name" v="Vestre Dypilmåsan" />
		<tag k="natural" v="wetland" />
		<tag k="ssr:stedsnr" v="171157" />
	</node>
	<node id="-14209" lat="59.6497305589" lon="11.7427388864">
		<tag k="name" v="Høydemyra" />
		<tag k="natural" v="wetland" />
		<tag k="ssr:stedsnr" v="900076" />
	</node>
</osm>
