<?xml version="1.0" encoding="UTF-8"?>
<osm generator="osmapis" version="0.6">
	<node id="-13822" lat="59.6757666628" lon="11.8006333321">
		<tag k="name" v="Bekkenga" />
		<tag k="place" v="locality" />
		<tag k="ssr:stedsnr" v="246265" />
	</node>
	<node id="-13810" lat="59.668847225" lon="11.7889166676">
		<tag k="fixme" v="consider natural=peak for the most distinct mountains in the district" />
		<tag k="name" v="Brennebrannshøgda" />
		<tag k="natural" v="hill" />
		<tag k="place" v="locality" />
		<tag k="ssr:stedsnr" v="233083" />
	</node>
	<node id="-14309" lat="59.7649583345" lon="11.9211444496">
		<tag k="name" v="Røvassfalldalen" />
		<tag k="natural" v="valley" />
		<tag k="place" v="locality" />
		<tag k="ssr:stedsnr" v="961162" />
	</node>
	<node id="-13790" lat="59.6538638919" lon="11.7250027868">
		<tag k="name" v="Graverdalen" />
		<tag k="natural" v="valley" />
		<tag k="place" v="locality" />
		<tag k="ssr:stedsnr" v="232216" />
	</node>
	<node id="-13789" lat="59.6485583365" lon="11.720988883">
		<tag k="name" v="Bjørndalen" />
		<tag k="natural" v="valley" />
		<tag k="place" v="locality" />
		<tag k="ssr:stedsnr" v="232214" />
	</node>
	<node id="-14298" lat="59.6660416647" lon="11.7673555627">
		<tag k="name" v="Seterhallene" />
		<tag k="natural" v="slope" />
		<tag k="place" v="locality" />
		<tag k="ssr:stedsnr" v="961068" />
	</node>
	<node id="-14297" lat="59.6832555533" lon="11.84303333">
		<tag k="name" v="Askedalen" />
		<tag k="natural" v="valley" />
		<tag k="place" v="locality" />
		<tag k="ssr:stedsnr" v="961029" />
	</node>
	<node id="-13784" lat="59.644086113" lon="11.7543999996">
		<tag k="fixme" v="consider natural=peak for the most distinct mountains in the district" />
		<tag k="name" v="Fallsåsen" />
		<tag k="natural" v="hill" />
		<tag k="place" v="locality" />
		<tag k="ssr:stedsnr" v="232198" />
	</node>
	<node id="-14291" lat="59.7614500025" lon="11.8852138967">
		<tag k="name" v="Storrmyrdalen" />
		<tag k="natural" v="valley" />
		<tag k="place" v="locality" />
		<tag k="ssr:stedsnr" v="960166" />
	</node>
	<node id="-13777" lat="59.7256416654" lon="11.8437333416">
		<tag k="fixme" v="consider natural=peak for the most distinct mountains in the district" />
		<tag k="name" v="Ufredshøgda" />
		<tag k="natural" v="hill" />
		<tag k="place" v="locality" />
		<tag k="ssr:stedsnr" v="232131" />
	</node>
	<node id="-13774" lat="59.7782416701" lon="11.8564583307">
		<tag k="fixme" v="consider natural=peak for the most distinct mountains in the district" />
		<tag k="name" v="Slottet" />
		<tag k="natural" v="hill" />
		<tag k="place" v="locality" />
		<tag k="ssr:stedsnr" v="188247" />
	</node>
	<node id="-14282" lat="59.7541750044" lon="11.7970416613">
		<tag k="name" v="Trantedalen" />
		<tag k="natural" v="valley" />
		<tag k="place" v="locality" />
		<tag k="ssr:stedsnr" v="915367" />
	</node>
	<node id="-13765" lat="59.7528250039" lon="11.7809250046">
		<tag k="name" v="Øremåsåhøgda" />
		<tag k="natural" v="hill" />
		<tag k="place" v="locality" />
		<tag k="ssr:stedsnr" v="186413" />
	</node>
	<node id="-14269" lat="59.6454638907" lon="11.730180559">
		<tag k="alt_name" v="Langvasshøgd" />
		<tag k="fixme" v="consider natural=peak for the most distinct mountains in the district" />
		<tag k="name" v="Langvasshøgda" />
		<tag k="natural" v="hill" />
		<tag k="place" v="locality" />
		<tag k="ssr:stedsnr" v="914314" />
	</node>
	<node id="-13756" lat="59.6526916696" lon="11.7766749918">
		<tag k="fixme" v="consider natural=peak for the most distinct mountains in the district" />
		<tag k="name" v="Morttjennåsen" />
		<tag k="natural" v="hill" />
		<tag k="place" v="locality" />
		<tag k="ssr:stedsnr" v="172185" />
	</node>
	<node id="-13751" lat="59.6685999958" lon="11.763161114">
		<tag k="name" v="Trytjenndalen" />
		<tag k="natural" v="valley" />
		<tag k="place" v="locality" />
		<tag k="ssr:stedsnr" v="172208" />
	</node>
	<node id="-13748" lat="59.6892222208" lon="11.7079555604">
		<tag k="fixme" v="consider natural=peak for the most distinct mountains in the district" />
		<tag k="name" v="Hauga" />
		<tag k="natural" v="hill" />
		<tag k="place" v="locality" />
		<tag k="ssr:stedsnr" v="172148" />
	</node>
	<node id="-13746" lat="59.7290472182" lon="11.8233083272">
		<tag k="fixme" v="consider natural=peak for the most distinct mountains in the district" />
		<tag k="name" v="Kjørkerudåsen" />
		<tag k="natural" v="hill" />
		<tag k="place" v="locality" />
		<tag k="ssr:stedsnr" v="172141" />
	</node>
	<node id="-14257" lat="59.6358805566" lon="11.7450861119">
		<tag k="fixme" v="consider natural=peak for the most distinct mountains in the district" />
		<tag k="name" v="Vestrekollen" />
		<tag k="natural" v="hill" />
		<tag k="place" v="locality" />
		<tag k="ssr:stedsnr" v="900225" />
	</node>
	<node id="-14256" lat="59.658774999" lon="11.8241277785">
		<tag k="name" v="Djupedalen" />
		<tag k="natural" v="valley" />
		<tag k="place" v="locality" />
		<tag k="ssr:stedsnr" v="900226" />
	</node>
	<node id="-13743" lat="59.688227779" lon="11.6863722172">
		<tag k="name" v="Bjørndalen" />
		<tag k="natural" v="valley" />
		<tag k="place" v="locality" />
		<tag k="ssr:stedsnr" v="172120" />
	</node>
	<node id="-13741" lat="59.6496888892" lon="11.7327055575">
		<tag k="fixme" v="consider natural=peak for the most distinct mountains in the district" />
		<tag k="name" v="Kasthalla" />
		<tag k="natural" v="hill" />
		<tag k="place" v="locality" />
		<tag k="ssr:stedsnr" v="172090" />
	</node>
	<node id="-13740" lat="59.6574055566" lon="11.7244749939">
		<tag k="name" v="Storlia" />
		<tag k="natural" v="slope" />
		<tag k="place" v="locality" />
		<tag k="ssr:stedsnr" v="172086" />
	</node>
	<node id="-14249" lat="59.7012583337" lon="11.7071861052">
		<tag k="fixme" v="consider natural=peak for the most distinct mountains in the district" />
		<tag k="name" v="Stintehøgda" />
		<tag k="natural" v="hill" />
		<tag k="place" v="locality" />
		<tag k="ssr:stedsnr" v="900173" />
	</node>
	<node id="-14247" lat="59.752902782" lon="11.7812166731">
		<tag k="fixme" v="consider natural=peak for the most distinct mountains in the district" />
		<tag k="name" v="Orremåsåhøgda" />
		<tag k="natural" v="hill" />
		<tag k="place" v="locality" />
		<tag k="ssr:stedsnr" v="900166" />
	</node>
	<node id="-13731" lat="59.6690611106" lon="11.7506416675">
		<tag k="fixme" v="consider natural=peak for the most distinct mountains in the district" />
		<tag k="name" v="Vesle Venås" />
		<tag k="natural" v="hill" />
		<tag k="place" v="locality" />
		<tag k="ssr:stedsnr" v="172064" />
	</node>
	<node id="-14236" lat="59.6673361087" lon="11.7476416724">
		<tag k="name" v="Vålerdalen" />
		<tag k="natural" v="valley" />
		<tag k="place" v="locality" />
		<tag k="ssr:stedsnr" v="900075" />
	</node>
	<node id="-14227" lat="59.7408666647" lon="11.7754277808">
		<tag k="name" v="Vesle Bjørndalen" />
		<tag k="natural" v="valley" />
		<tag k="place" v="locality" />
		<tag k="ssr:stedsnr" v="900007" />
	</node>
	<node id="-13714" lat="59.73423056" lon="11.7565833315">
		<tag k="alt_name" v="Kattebuhea" />
		<tag k="fixme" v="consider natural=peak for the most distinct mountains in the district" />
		<tag k="name" v="Kattebuheia" />
		<tag k="natural" v="hill" />
		<tag k="place" v="locality" />
		<tag k="ssr:stedsnr" v="125697" />
	</node>
	<node id="-13712" lat="59.704255551" lon="11.7851083415">
		<tag k="fixme" v="consider natural=peak for the most distinct mountains in the district" />
		<tag k="name" v="Damtjennåsen" />
		<tag k="natural" v="hill" />
		<tag k="place" v="locality" />
		<tag k="ssr:stedsnr" v="125358" />
	</node>
	<node id="-13708" lat="59.7109999996" lon="11.9055583259">
		<tag k="name" v="Bjørkedalen" />
		<tag k="natural" v="valley" />
		<tag k="place" v="locality" />
		<tag k="ssr:stedsnr" v="125438" />
	</node>
	<node id="-13704" lat="59.6403027807" lon="11.7600361077">
		<tag k="fixme" v="consider natural=peak for the most distinct mountains in the district" />
		<tag k="name" v="Oksetjennhøgda" />
		<tag k="natural" v="hill" />
		<tag k="place" v="locality" />
		<tag k="ssr:stedsnr" v="125330" />
	</node>
	<node id="-14211" lat="59.6845555537" lon="11.7319583353">
		<tag k="fixme" v="consider natural=peak for the most distinct mountains in the district" />
		<tag k="name" v="Slavasshøgda" />
		<tag k="natural" v="hill" />
		<tag k="place" v="locality" />
		<tag k="ssr:stedsnr" v="854318" />
	</node>
	<node id="-13692" lat="59.7562916654" lon="11.7576361131">
		<tag k="fixme" v="consider natural=peak for the most distinct mountains in the district" />
		<tag k="name" v="Eikelihøgda" />
		<tag k="natural" v="hill" />
		<tag k="place" v="locality" />
		<tag k="ssr:stedsnr" v="111206" />
	</node>
	<node id="-13690" lat="59.6378555529" lon="11.7571194473">
		<tag k="fixme" v="consider natural=peak for the most distinct mountains in the district" />
		<tag k="name" v="Østrekollen" />
		<tag k="natural" v="hill" />
		<tag k="place" v="locality" />
		<tag k="ssr:stedsnr" v="111198" />
	</node>
	<node id="-13687" lat="59.6751555584" lon="11.8654611145">
		<tag k="name" v="Kukleiva" />
		<tag k="place" v="locality" />
		<tag k="ssr:stedsnr" v="111186" />
	</node>
	<node id="-13684" lat="59.6848805523" lon="11.8459249937">
		<tag k="fixme" v="consider natural=peak for the most distinct mountains in the district" />
		<tag k="name" v="Kisteholmhøgda" />
		<tag k="natural" v="hill" />
		<tag k="place" v="locality" />
		<tag k="ssr:stedsnr" v="111153" />
	</node>
	<node id="-13674" lat="59.6610999976" lon="11.8116611089">
		<tag k="fixme" v="consider natural=peak for the most distinct mountains in the district" />
		<tag k="name" v="Nybruhøgda" />
		<tag k="natural" v="hill" />
		<tag k="place" v="locality" />
		<tag k="ssr:stedsnr" v="111060" />
	</node>
	<node id="-13669" lat="59.7540638893" lon="11.760247225">
		<tag k="name" v="Karisdalen" />
		<tag k="natural" v="valley" />
		<tag k="place" v="locality" />
		<tag k="ssr:stedsnr" v="111016" />
	</node>
	<node id="-14175" lat="59.7055805577" lon="11.8675277846">
		<tag k="fixme" v="consider natural=peak for the most distinct mountains in the district" />
		<tag k="name" v="Gjeddetjennåsene" />
		<tag k="natural" v="hill" />
		<tag k="place" v="locality" />
		<tag k="ssr:stedsnr" v="840048" />
	</node>
	<node id="-14168" lat="59.7664944434" lon="11.7864083278">
		<tag k="fixme" v="consider natural=peak for the most distinct mountains in the district" />
		<tag k="name" v="Lysheia" />
		<tag k="natural" v="hill" />
		<tag k="place" v="locality" />
		<tag k="ssr:stedsnr" v="794408" />
	</node>
	<node id="-14166" lat="59.7557777805" lon="11.77515278">
		<tag k="name" v="Bjørndalshøgda" />
		<tag k="natural" v="hill" />
		<tag k="place" v="locality" />
		<tag k="ssr:stedsnr" v="793399" />
	</node>
	<node id="-14165" lat="59.6924055536" lon="11.7812083248">
		<tag k="alt_name" v="Fuglemoshøgda" />
		<tag k="fixme" v="consider natural=peak for the most distinct mountains in the district" />
		<tag k="name" v="Fuglemåsahøgda" />
		<tag k="natural" v="hill" />
		<tag k="place" v="locality" />
		<tag k="ssr:stedsnr" v="793379" />
	</node>
	<node id="-13652" lat="59.6929888924" lon="11.8696694447">
		<tag k="alt_name" v="Venåsene" />
		<tag k="fixme" v="consider natural=peak for the most distinct mountains in the district" />
		<tag k="name" v="Veneås" />
		<tag k="natural" v="hill" />
		<tag k="place" v="locality" />
		<tag k="ssr:stedsnr" v="65400" />
	</node>
	<node id="-13648" lat="59.7265694474" lon="11.8330416641">
		<tag k="name" v="Venemoen" />
		<tag k="place" v="locality" />
		<tag k="ssr:stedsnr" v="64648" />
	</node>
	<node id="-14157" lat="59.6734416663" lon="11.7743777792">
		<tag k="fixme" v="consider natural=peak for the most distinct mountains in the district" />
		<tag k="name" v="Gørrtjennåsen" />
		<tag k="natural" v="hill" />
		<tag k="place" v="locality" />
		<tag k="ssr:stedsnr" v="792262" />
	</node>
	<node id="-14153" lat="59.6966638861" lon="11.8942305489">
		<tag k="fixme" v="consider natural=peak for the most distinct mountains in the district" />
		<tag k="name" v="Furukollhøgda" />
		<tag k="natural" v="hill" />
		<tag k="place" v="locality" />
		<tag k="ssr:stedsnr" v="793429" />
	</node>
	<node id="-14143" lat="59.6902972232" lon="11.8497277854">
		<tag k="name" v="Tverrdalen" />
		<tag k="natural" v="valley" />
		<tag k="place" v="locality" />
		<tag k="ssr:stedsnr" v="779222" />
	</node>
	<node id="-13629" lat="59.6821472262" lon="11.7704777866">
		<tag k="name" v="Trytjenndalen" />
		<tag k="natural" v="valley" />
		<tag k="place" v="locality" />
		<tag k="ssr:stedsnr" v="51261" />
	</node>
	<node id="-14140" lat="59.6584888872" lon="11.8031666656">
		<tag k="name" v="Bergtrangdalen" />
		<tag k="natural" v="valley" />
		<tag k="place" v="locality" />
		<tag k="ssr:stedsnr" v="779200" />
	</node>
	<node id="-14133" lat="59.678883336" lon="11.8436583415">
		<tag k="name" v="Djupedalen" />
		<tag k="natural" v="valley" />
		<tag k="place" v="locality" />
		<tag k="ssr:stedsnr" v="779028" />
	</node>
	<node id="-13617" lat="59.7473805585" lon="11.8340083401">
		<tag k="fixme" v="consider natural=peak for the most distinct mountains in the district" />
		<tag k="name" v="Myrvollhøgda" />
		<tag k="natural" v="hill" />
		<tag k="place" v="locality" />
		<tag k="ssr:stedsnr" v="51151" />
	</node>
	<node id="-13615" lat="59.736872224" lon="11.8313194498">
		<tag k="name" v="Saubakkdalen" />
		<tag k="natural" v="valley" />
		<tag k="place" v="locality" />
		<tag k="ssr:stedsnr" v="51141" />
	</node>
	<node id="-14126" lat="59.7639583321" lon="11.8323138936">
		<tag k="fixme" v="consider natural=peak for the most distinct mountains in the district" />
		<tag k="name" v="Igletjennåsen" />
		<tag k="natural" v="hill" />
		<tag k="place" v="locality" />
		<tag k="ssr:stedsnr" v="778119" />
	</node>
	<node id="-14122" lat="59.7168027765" lon="11.7756388916">
		<tag k="alt_name" v="Gjerpedalen" />
		<tag k="name" v="Jerpedalen" />
		<tag k="natural" v="valley" />
		<tag k="place" v="locality" />
		<tag k="ssr:stedsnr" v="732678" />
	</node>
	<node id="-13608" lat="59.6507222254" lon="11.7270388918">
		<tag k="fixme" v="consider natural=peak for the most distinct mountains in the district" />
		<tag k="name" v="Kjørestuhøgda" />
		<tag k="natural" v="hill" />
		<tag k="place" v="locality" />
		<tag k="ssr:stedsnr" v="51081" />
	</node>
	<node id="-13604" lat="59.6878694415" lon="11.8555805518">
		<tag k="name" v="Tverrdalen" />
		<tag k="natural" v="valley" />
		<tag k="place" v="locality" />
		<tag k="ssr:stedsnr" v="51045" />
	</node>
	<node id="-14114" lat="59.6849583368" lon="11.7121055588">
		<tag k="fixme" v="consider natural=peak for the most distinct mountains in the district" />
		<tag k="name" v="Kuåsen" />
		<tag k="natural" v="hill" />
		<tag k="place" v="locality" />
		<tag k="ssr:stedsnr" v="732347" />
	</node>
	<node id="-14113" lat="59.6334083295" lon="11.7270527723">
		<tag k="alt_name" v="Slafallet" />
		<tag k="name" v="Slafalla" />
		<tag k="natural" v="slope" />
		<tag k="place" v="locality" />
		<tag k="ssr:stedsnr" v="732313" />
	</node>
	<node id="-13598" lat="59.7814861156" lon="11.8286499968">
		<tag k="fixme" v="consider natural=peak for the most distinct mountains in the district" />
		<tag k="name" v="Buhøgda" />
		<tag k="natural" v="hill" />
		<tag k="place" v="locality" />
		<tag k="ssr:stedsnr" v="50118" />
	</node>
	<node id="-14109" lat="59.6534999983" lon="11.7984499983">
		<tag k="name" v="Bergtrangdalen" />
		<tag k="natural" v="valley" />
		<tag k="place" v="locality" />
		<tag k="ssr:stedsnr" v="732265" />
	</node>
	<node id="-13591" lat="59.7549750012" lon="11.7471472211">
		<tag k="name" v="Svarteberga" />
		<tag k="natural" v="hill" />
		<tag k="place" v="locality" />
		<tag k="ssr:stedsnr" v="4371" />
	</node>
	<node id="-13589" lat="59.6655916636" lon="11.7455805532">
		<tag k="alt_name" v="Venås" />
		<tag k="name" v="Store Venås" />
		<tag k="natural" v="hill" />
		<tag k="place" v="locality" />
		<tag k="ssr:stedsnr" v="3248" />
	</node>
	<node id="-14096" lat="59.748597226" lon="11.9154777722">
		<tag k="name" v="Søndre Røvassdalen" />
		<tag k="natural" v="valley" />
		<tag k="place" v="locality" />
		<tag k="ssr:stedsnr" v="718174" />
	</node>
	<node id="-14093" lat="59.6826583313" lon="11.7134666578">
		<tag k="name" v="Kudrågene" />
		<tag k="natural" v="valley" />
		<tag k="place" v="locality" />
		<tag k="ssr:stedsnr" v="718168" />
	</node>
	<node id="-14086" lat="59.7055194455" lon="11.7936583358">
		<tag k="fixme" v="consider natural=peak for the most distinct mountains in the district" />
		<tag k="name" v="Høgåsen" />
		<tag k="natural" v="hill" />
		<tag k="place" v="locality" />
		<tag k="ssr:stedsnr" v="718114" />
	</node>
	<node id="-14081" lat="59.696566667" lon="11.8671472225">
		<tag k="name" v="Fjellsdalen" />
		<tag k="natural" v="valley" />
		<tag k="place" v="locality" />
		<tag k="ssr:stedsnr" v="718058" />
	</node>
	<node id="-13440" lat="59.651986115" lon="11.7904277833">
		<tag k="fixme" v="consider natural=peak for the most distinct mountains in the district" />
		<tag k="name" v="Kuvtjennhøgda" />
		<tag k="natural" v="hill" />
		<tag k="place" v="locality" />
		<tag k="ssr:stedsnr" v="293240" />
	</node>
	<node id="-14074" lat="59.6931361117" lon="11.6989388859">
		<tag k="fixme" v="consider natural=peak for the most distinct mountains in the district" />
		<tag k="name" v="Risåsen" />
		<tag k="natural" v="hill" />
		<tag k="place" v="locality" />
		<tag k="ssr:stedsnr" v="718250" />
	</node>
	<node id="-14069" lat="59.6876527738" lon="11.8511722244">
		<tag k="name" v="Stokkedalshølet" />
		<tag k="natural" v="valley" />
		<tag k="place" v="locality" />
		<tag k="ssr:stedsnr" v="718225" />
	</node>
	<node id="-13555" lat="59.6827694477" lon="11.7853138978">
		<tag k="fixme" v="consider natural=peak for the most distinct mountains in the district" />
		<tag k="name" v="Søndre Buhøgda" />
		<tag k="natural" v="hill" />
		<tag k="place" v="locality" />
		<tag k="ssr:stedsnr" v="475148" />
	</node>
	<node id="-14060" lat="59.7608166655" lon="11.9077277759">
		<tag k="fixme" v="consider natural=peak for the most distinct mountains in the district" />
		<tag k="name" v="Røvasshøgda" />
		<tag k="natural" v="hill" />
		<tag k="place" v="locality" />
		<tag k="ssr:stedsnr" v="672220" />
	</node>
	<node id="-13546" lat="59.7187694429" lon="11.85979723">
		<tag k="fixme" v="consider natural=peak for the most distinct mountains in the district" />
		<tag k="name" v="Veslehøgda" />
		<tag k="natural" v="hill" />
		<tag k="place" v="locality" />
		<tag k="ssr:stedsnr" v="475054" />
	</node>
	<node id="-14056" lat="59.6958805575" lon="11.7118166742">
		<tag k="fixme" v="consider natural=peak for the most distinct mountains in the district" />
		<tag k="name" v="Stintehøgda" />
		<tag k="natural" v="hill" />
		<tag k="place" v="locality" />
		<tag k="ssr:stedsnr" v="671361" />
	</node>
	<node id="-14053" lat="59.6746999978" lon="11.7453305525">
		<tag k="alt_name" v="Skillberga" />
		<tag k="fixme" v="consider natural=peak for the most distinct mountains in the district" />
		<tag k="name" v="Skjellberga" />
		<tag k="natural" v="hill" />
		<tag k="place" v="locality" />
		<tag k="ssr:stedsnr" v="671272" />
	</node>
	<node id="-14052" lat="59.6742222231" lon="11.8663222193">
		<tag k="alt_name" v="Haglebråtehøgda" />
		<tag k="fixme" v="consider natural=peak for the most distinct mountains in the district" />
		<tag k="name" v="Haglebråtahøgda" />
		<tag k="natural" v="hill" />
		<tag k="place" v="locality" />
		<tag k="ssr:stedsnr" v="671067" />
	</node>
	<node id="-13435" lat="59.6943750034" lon="11.9063527728">
		<tag k="fixme" v="consider natural=peak for the most distinct mountains in the district" />
		<tag k="name" v="Furukollfinnen" />
		<tag k="natural" v="hill" />
		<tag k="place" v="locality" />
		<tag k="ssr:stedsnr" v="293217" />
	</node>
	<node id="-13532" lat="59.7454944433" lon="11.7698499923">
		<tag k="fixme" v="consider natural=peak for the most distinct mountains in the district" />
		<tag k="name" v="Grevlingkulåsen" />
		<tag k="natural" v="hill" />
		<tag k="place" v="locality" />
		<tag k="ssr:stedsnr" v="368721" />
	</node>
	<node id="-14039" lat="59.7227861099" lon="11.8281888847">
		<tag k="fixme" v="consider natural=peak for the most distinct mountains in the district" />
		<tag k="name" v="Kørråsen" />
		<tag k="natural" v="hill" />
		<tag k="place" v="locality" />
		<tag k="ssr:stedsnr" v="657155" />
	</node>
	<node id="-13525" lat="59.6917305593" lon="11.7269805558">
		<tag k="name" v="Røytjenndalen" />
		<tag k="natural" v="valley" />
		<tag k="place" v="locality" />
		<tag k="ssr:stedsnr" v="368387" />
	</node>
	<node id="-13522" lat="59.7063750004" lon="11.7514250001">
		<tag k="fixme" v="consider natural=peak for the most distinct mountains in the district" />
		<tag k="name" v="Skansen" />
		<tag k="natural" v="hill" />
		<tag k="place" v="locality" />
		<tag k="ssr:stedsnr" v="368350" />
	</node>
	<node id="-13518" lat="59.6529027812" lon="11.8350249996">
		<tag k="name" v="Kornbråtdalen" />
		<tag k="natural" v="valley" />
		<tag k="place" v="locality" />
		<tag k="ssr:stedsnr" v="367195" />
	</node>
	<node id="-14020" lat="59.7687388847" lon="11.8247027843">
		<tag k="fixme" v="consider natural=peak for the most distinct mountains in the district" />
		<tag k="name" v="Libakkåsen" />
		<tag k="natural" v="hill" />
		<tag k="place" v="locality" />
		<tag k="ssr:stedsnr" v="657018" />
	</node>
	<node id="-13506" lat="59.6912083325" lon="11.7775361036">
		<tag k="name" v="Trettebråtadalen" />
		<tag k="natural" v="valley" />
		<tag k="place" v="locality" />
		<tag k="ssr:stedsnr" v="354249" />
	</node>
	<node id="-13502" lat="59.6582750015" lon="11.8272972233">
		<tag k="name" v="Fjøsdalen" />
		<tag k="natural" v="valley" />
		<tag k="place" v="locality" />
		<tag k="ssr:stedsnr" v="354211" />
	</node>
	<node id="-13498" lat="59.7570777771" lon="11.8367888955">
		<tag k="name" v="Nordre Gryttjenndalen" />
		<tag k="natural" v="valley" />
		<tag k="place" v="locality" />
		<tag k="ssr:stedsnr" v="354161" />
	</node>
	<node id="-13998" lat="59.6988888933" lon="11.7343694373">
		<tag k="alt_name" v="Slommetjennshøgda" />
		<tag k="fixme" v="consider natural=peak for the most distinct mountains in the district" />
		<tag k="name" v="Slomtjennhøgda" />
		<tag k="natural" v="hill" />
		<tag k="place" v="locality" />
		<tag k="ssr:stedsnr" v="610361" />
	</node>
	<node id="-13482" lat="59.7410361087" lon="11.8720805607">
		<tag k="name" v="Skåbomkollene" />
		<tag k="natural" v="hill" />
		<tag k="place" v="locality" />
		<tag k="ssr:stedsnr" v="354038" />
	</node>
	<node id="-13988" lat="59.6829972242" lon="11.7843194506">
		<tag k="name" v="Bukleiva" />
		<tag k="natural" v="valley" />
		<tag k="place" v="locality" />
		<tag k="ssr:stedsnr" v="596224" />
	</node>
	<node id="-13987" lat="59.7512222202" lon="11.7432055501">
		<tag k="name" v="Steinbyseterdalen" />
		<tag k="natural" v="valley" />
		<tag k="place" v="locality" />
		<tag k="ssr:stedsnr" v="596214" />
	</node>
	<node id="-13473" lat="59.7371111144" lon="11.8435138854">
		<tag k="fixme" v="consider natural=peak for the most distinct mountains in the district" />
		<tag k="name" v="Lommetjennsåsen" />
		<tag k="natural" v="hill" />
		<tag k="place" v="locality" />
		<tag k="ssr:stedsnr" v="307656" />
	</node>
	<node id="-13984" lat="59.6752416684" lon="11.8594611139">
		<tag k="fixme" v="consider natural=peak for the most distinct mountains in the district" />
		<tag k="name" v="Svarttjennåsen" />
		<tag k="natural" v="hill" />
		<tag k="place" v="locality" />
		<tag k="ssr:stedsnr" v="596190" />
	</node>
	<node id="-13471" lat="59.7155750015" lon="11.9127083361">
		<tag k="fixme" v="consider natural=peak for the most distinct mountains in the district" />
		<tag k="loc_name" v="Elgseterhøgda" />
		<tag k="name" v="Elgsæterhøgda" />
		<tag k="natural" v="hill" />
		<tag k="place" v="locality" />
		<tag k="ssr:stedsnr" v="307427" />
	</node>
	<node id="-13470" lat="59.7189500031" lon="11.8741055642">
		<tag k="fixme" v="consider natural=peak for the most distinct mountains in the district" />
		<tag k="name" v="Svartebotthøgda" />
		<tag k="natural" v="hill" />
		<tag k="place" v="locality" />
		<tag k="ssr:stedsnr" v="307425" />
	</node>
	<node id="-13969" lat="59.7576222253" lon="11.7988138874">
		<tag k="fixme" v="consider natural=peak for the most distinct mountains in the district" />
		<tag k="name" v="Massingsteinåsen" />
		<tag k="natural" v="hill" />
		<tag k="place" v="locality" />
		<tag k="ssr:stedsnr" v="596081" />
	</node>
	<node id="-13967" lat="59.6903666634" lon="11.6867916603">
		<tag k="fixme" v="consider natural=peak for the most distinct mountains in the district" />
		<tag k="name" v="Veslerishøgda" />
		<tag k="natural" v="hill" />
		<tag k="place" v="locality" />
		<tag k="ssr:stedsnr" v="596077" />
	</node>
	<node id="-13450" lat="59.6865611085" lon="11.6760555558">
		<tag k="fixme" v="consider natural=peak for the most distinct mountains in the district" />
		<tag k="name" v="Veslerishøgda" />
		<tag k="natural" v="hill" />
		<tag k="place" v="locality" />
		<tag k="ssr:stedsnr" v="293298" />
	</node>
	<node id="-13447" lat="59.7532222223" lon="11.7368527822">
		<tag k="name" v="Svarteberga" />
		<tag k="natural" v="cliff" />
		<tag k="ssr:stedsnr" v="293288" />
	</node>
	<node id="-13952" lat="59.6993499969" lon="11.9272749945">
		<tag k="fixme" v="consider natural=peak for the most distinct mountains in the district" />
		<tag k="name" v="Høgåsen" />
		<tag k="natural" v="hill" />
		<tag k="place" v="locality" />
		<tag k="ssr:stedsnr" v="550396" />
	</node>
	<node id="-13949" lat="59.6871472234" lon="11.6917750065">
		<tag k="fixme" v="consider natural=peak for the most distinct mountains in the district" />
		<tag k="name" v="Vesle Rishøgda" />
		<tag k="natural" v="hill" />
		<tag k="place" v="locality" />
		<tag k="ssr:stedsnr" v="550329" />
	</node>
	<node id="-13947" lat="59.6738555589" lon="11.6958611202">
		<tag k="alt_name" v="Fallsåsen" />
		<tag k="fixme" v="consider natural=peak for the most distinct mountains in the district" />
		<tag k="name" v="Fallåsen" />
		<tag k="natural" v="hill" />
		<tag k="place" v="locality" />
		<tag k="ssr:stedsnr" v="550264" />
	</node>
	<node id="-13946" lat="59.7162611094" lon="11.7560638819">
		<tag k="alt_name" v="Haukenesfjella" />
		<tag k="fixme" v="consider natural=peak for the most distinct mountains in the district" />
		<tag k="name" v="Haukenesfjellet" />
		<tag k="natural" v="hill" />
		<tag k="place" v="locality" />
		<tag k="ssr:stedsnr" v="549623" />
	</node>
	<node id="-13935" lat="59.7036750028" lon="11.7718138898">
		<tag k="fixme" v="consider natural=peak for the most distinct mountains in the district" />
		<tag k="name" v="Framseteråsen" />
		<tag k="natural" v="hill" />
		<tag k="place" v="locality" />
		<tag k="ssr:stedsnr" v="536220" />
	</node>
	<node id="-13421" lat="59.6640583314" lon="11.7761611149">
		<tag k="fixme" v="consider natural=peak for the most distinct mountains in the district" />
		<tag k="name" v="Skavholtåsen" />
		<tag k="natural" v="hill" />
		<tag k="place" v="locality" />
		<tag k="ssr:stedsnr" v="293080" />
	</node>
	<node id="-13418" lat="59.7510749994" lon="11.7710944359">
		<tag k="name" v="Store Bjørndalen" />
		<tag k="natural" v="valley" />
		<tag k="place" v="locality" />
		<tag k="ssr:stedsnr" v="293036" />
	</node>
	<node id="-13928" lat="59.7241277798" lon="11.7711777805">
		<tag k="name" v="Jerpedalen" />
		<tag k="natural" v="valley" />
		<tag k="place" v="locality" />
		<tag k="ssr:stedsnr" v="536146" />
	</node>
	<node id="-13902" lat="59.7193361146" lon="11.9249555488">
		<tag k="fixme" v="consider natural=peak for the most distinct mountains in the district" />
		<tag k="name" v="Grasås" />
		<tag k="natural" v="hill" />
		<tag k="place" v="locality" />
		<tag k="ssr:stedsnr" v="489433" />
	</node>
	<node id="-13901" lat="59.6981472195" lon="11.878286105">
		<tag k="fixme" v="consider natural=peak for the most distinct mountains in the district" />
		<tag k="name" v="Vardekollen" />
		<tag k="natural" v="hill" />
		<tag k="place" v="locality" />
		<tag k="ssr:stedsnr" v="489425" />
	</node>
	<node id="-13894" lat="59.7758888932" lon="11.8782472226">
		<tag k="alt_name" v="Flinttjennhea" />
		<tag k="fixme" v="consider natural=peak for the most distinct mountains in the district" />
		<tag k="name" v="Flinttjennheia" />
		<tag k="natural" v="hill" />
		<tag k="place" v="locality" />
		<tag k="ssr:stedsnr" v="431250" />
	</node>
	<node id="-13890" lat="59.6875111126" lon="11.8677305625">
		<tag k="fixme" v="consider natural=peak for the most distinct mountains in the district" />
		<tag k="name" v="Kistholmhøgda" />
		<tag k="natural" v="hill" />
		<tag k="place" v="locality" />
		<tag k="ssr:stedsnr" v="429394" />
	</node>
	<node id="-13887" lat="59.7498000028" lon="11.7134111172">
		<tag k="fixme" v="multiple name tags, choose one and add the other to alt_name; consider natural=peak for the most distinct mountains in the district" />
		<tag k="name" v="Grevlingkulkulten;Lønnedalshøgda" />
		<tag k="natural" v="hill" />
		<tag k="place" v="locality" />
		<tag k="ssr:stedsnr" v="429371" />
	</node>
	<node id="-13882" lat="59.743105558" lon="11.9175638878">
		<tag k="alt_name" v="Ertevasslia" />
		<tag k="fixme" v="consider natural=peak for the most distinct mountains in the district" />
		<tag k="name" v="Ertevassliene" />
		<tag k="natural" v="hill" />
		<tag k="place" v="locality" />
		<tag k="ssr:stedsnr" v="429419" />
	</node>
	<node id="-13881" lat="59.7242703255" lon="11.9083982306">
		<tag k="fixme" v="multiple name tags, choose one and add the other to alt_name; consider natural=peak for the most distinct mountains in the district" />
		<tag k="name" v="Dansarberget;Østtukuhea" />
		<tag k="natural" v="hill" />
		<tag k="place" v="locality" />
		<tag k="ssr:stedsnr" v="429411" />
	</node>
	<node id="-13875" lat="59.6505701534" lon="11.8161078287">
		<tag k="fixme" v="multiple name tags, choose one and add the other to alt_name; consider natural=peak for the most distinct mountains in the district" />
		<tag k="name" v="Flatahøgda;Nybruhøgda" />
		<tag k="natural" v="hill" />
		<tag k="place" v="locality" />
		<tag k="ssr:stedsnr" v="428232" />
	</node>
	<node id="-13864" lat="59.7435166697" lon="11.7339777799">
		<tag k="name" v="Bottdalen" />
		<tag k="natural" v="valley" />
		<tag k="place" v="locality" />
		<tag k="ssr:stedsnr" v="415257" />
	</node>
	<node id="-13863" lat="59.7115138847" lon="11.747636105">
		<tag k="name" v="Klokkardalen" />
		<tag k="natural" v="valley" />
		<tag k="place" v="locality" />
		<tag k="ssr:stedsnr" v="415252" />
	</node>
	<node id="-13858" lat="59.7523916633" lon="11.9158083287">
		<tag k="name" v="Nordre Røvassdalen" />
		<tag k="natural" v="valley" />
		<tag k="place" v="locality" />
		<tag k="ssr:stedsnr" v="415175" />
	</node>
	<node id="-13857" lat="59.6849944449" lon="11.7824249926">
		<tag k="fixme" v="consider natural=peak for the most distinct mountains in the district" />
		<tag k="name" v="Nordre Buhøgda" />
		<tag k="natural" v="hill" />
		<tag k="place" v="locality" />
		<tag k="ssr:stedsnr" v="415161" />
	</node>
	<node id="-13852" lat="59.6474083361" lon="11.7990833292">
		<tag k="name" v="Grasdalen" />
		<tag k="natural" v="valley" />
		<tag k="place" v="locality" />
		<tag k="ssr:stedsnr" v="415106" />
	</node>
	<node id="-13849" lat="59.6682000042" lon="11.7230250007">
		<tag k="fixme" v="consider natural=peak for the most distinct mountains in the district" />
		<tag k="name" v="Langvassdrågene" />
		<tag k="natural" v="hill" />
		<tag k="place" v="locality" />
		<tag k="ssr:stedsnr" v="415079" />
	</node>
	<node id="-13842" lat="59.7404111095" lon="11.8532999981">
		<tag k="name" v="Søndre Gryttjenndalen" />
		<tag k="natural" v="valley" />
		<tag k="place" v="locality" />
		<tag k="ssr:stedsnr" v="415015" />
	</node>
	<node id="-13840" lat="59.7406249983" lon="11.7944555516">
		<tag k="fixme" v="consider natural=peak for the most distinct mountains in the district" />
		<tag k="name" v="Grinneberga" />
		<tag k="natural" v="hill" />
		<tag k="place" v="locality" />
		<tag k="ssr:stedsnr" v="415006" />
	</node>
	<node id="-13837" lat="59.7674777819" lon="11.8909361199">
		<tag k="fixme" v="consider natural=peak for the most distinct mountains in the district" />
		<tag k="name" v="Kula" />
		<tag k="natural" v="hill" />
		<tag k="place" v="locality" />
		<tag k="ssr:stedsnr" v="248232" />
	</node>
	<node id="-13830" lat="59.7646500043" lon="11.7805194419">
		<tag k="fixme" v="consider natural=peak for the most distinct mountains in the district" />
		<tag k="name" v="Svarvestolåsen" />
		<tag k="natural" v="hill" />
		<tag k="place" v="locality" />
		<tag k="ssr:stedsnr" v="247389" />
	</node>
	<node id="-13829" lat="59.7543972235" lon="11.8310055476">
		<tag k="fixme" v="consider natural=peak for the most distinct mountains in the district" />
		<tag k="name" v="Klinten" />
		<tag k="natural" v="hill" />
		<tag k="place" v="locality" />
		<tag k="ssr:stedsnr" v="247363" />
	</node>
</osm>
