<?xml version="1.0" encoding="UTF-8"?>
<osm generator="osmapis" version="0.6">
	<node id="-13824" lat="59.6594555549" lon="11.860655549">
		<tag k="name" v="Enger" />
		<tag k="place" v="farm" />
		<tag k="ssr:stedsnr" v="247057" />
	</node>
	<node id="-13817" lat="59.7365805598" lon="11.8130000043">
		<tag k="name" v="Vestre Bøen" />
		<tag k="place" v="farm" />
		<tag k="ssr:stedsnr" v="233180" />
	</node>
	<node id="-13804" lat="59.6989611148" lon="11.8615749936">
		<tag k="name" v="Øvre Ringsby" />
		<tag k="place" v="farm" />
		<tag k="ssr:stedsnr" v="233050" />
	</node>
	<node id="-14305" lat="59.6795527813" lon="11.6637722247">
		<tag k="name" v="Risenkoia" />
		<tag k="place" v="isolated_dwelling" />
		<tag k="ssr:stedsnr" v="961113" />
	</node>
	<node id="-14300" lat="59.6743250002" lon="11.7271277839">
		<tag k="name" v="Engemåsakoia" />
		<tag k="place" v="isolated_dwelling" />
		<tag k="ssr:stedsnr" v="961076" />
	</node>
	<node id="-13775" lat="59.7160805552" lon="11.7564111178">
		<tag k="fixme" v="consider tourism=alpine_hut or tourism=chalet" />
		<tag k="name" v="Haukenestårnet" />
		<tag k="ssr:stedsnr" v="223195" />
		<tag k="tourism" v="wilderness_hut" />
	</node>
	<node id="-14286" lat="59.7335280496" lon="11.7797966057">
		<tag k="alt_name" v="Torkildsbråten;Bråten;Tørnbybråten" />
		<tag k="name" v="Torkelsbråten" />
		<tag k="old_name" v="Torkelsbraaten eller Tørnbybraaten;Braaten;Torkelsbraaten eller Tørnbybraaten" />
		<tag k="place" v="farm" />
		<tag k="ssr:stedsnr" v="950626" />
	</node>
	<node id="-13772" lat="59.7465388897" lon="11.8254277744">
		<tag k="name" v="Myrvoll" />
		<tag k="place" v="farm" />
		<tag k="ssr:stedsnr" v="186705" />
	</node>
	<node id="-14283" lat="59.7598111083" lon="11.8207611081">
		<tag k="alt_name" v="Trandem nordre" />
		<tag k="name" v="Nord-Trandum" />
		<tag k="place" v="farm" />
		<tag k="ssr:stedsnr" v="915378" />
	</node>
	<node id="-14280" lat="59.7516611075" lon="11.9008583364">
		<tag k="name" v="Karistua" />
		<tag k="place" v="isolated_dwelling" />
		<tag k="ssr:stedsnr" v="915210" />
	</node>
	<node id="-13767" lat="59.7634472253" lon="11.816722227">
		<tag k="name" v="Haugen" />
		<tag k="place" v="farm" />
		<tag k="ssr:stedsnr" v="186449" />
	</node>
	<node id="-14276" lat="59.7283805596" lon="11.7857250078">
		<tag k="name" v="Odden" />
		<tag k="place" v="isolated_dwelling" />
		<tag k="ssr:stedsnr" v="914649" />
	</node>
	<node id="-14273" lat="59.7233083347" lon="11.8517888979">
		<tag k="name" v="Sandvika" />
		<tag k="place" v="farm" />
		<tag k="ssr:stedsnr" v="914422" />
	</node>
	<node id="-13747" lat="59.7589194485" lon="11.8259027806">
		<tag k="name" v="Lykkja" />
		<tag k="place" v="farm" />
		<tag k="ssr:stedsnr" v="172143" />
	</node>
	<node id="-14251" lat="59.6980722247" lon="11.939669451">
		<tag k="name" v="Nedstua" />
		<tag k="place" v="farm" />
		<tag k="ssr:stedsnr" v="900183" />
	</node>
	<node id="-13734" lat="59.7322972228" lon="11.7745750068">
		<tag k="name" v="Kopperudsetra" />
		<tag k="place" v="farm" />
		<tag k="ssr:stedsnr" v="172006" />
	</node>
	<node id="-13733" lat="59.7269749964" lon="11.7844527841">
		<tag k="name" v="Nord-Ramberg" />
		<tag k="place" v="farm" />
		<tag k="ssr:stedsnr" v="172004" />
	</node>
	<node id="-14244" lat="59.6536083347" lon="11.8601416679">
		<tag k="name" v="Husa" />
		<tag k="place" v="farm" />
		<tag k="ssr:stedsnr" v="900139" />
	</node>
	<node id="-14240" lat="59.7130944483" lon="11.8000527826">
		<tag k="name" v="Krokvoll" />
		<tag k="place" v="farm" />
		<tag k="ssr:stedsnr" v="900108" />
	</node>
	<node id="-13721" lat="59.6974763162" lon="11.8579010151">
		<tag k="name" v="Nedre Ringsby" />
		<tag k="old_name" v="Ringsbu" />
		<tag k="place" v="farm" />
		<tag k="ssr:stedsnr" v="161253" />
	</node>
	<node id="-13716" lat="59.7799111149" lon="11.8123694384">
		<tag k="alt_name" v="Trandumseter" />
		<tag k="loc_name" v="Trandumsetra" />
		<tag k="name" v="Trandumsætra" />
		<tag k="place" v="farm" />
		<tag k="ssr:stedsnr" v="126436" />
	</node>
	<node id="-14223" lat="59.745711107" lon="11.8008249993">
		<tag k="name" v="Haga" />
		<tag k="place" v="farm" />
		<tag k="ssr:stedsnr" v="854661" />
	</node>
	<node id="-13710" lat="59.7381194403" lon="11.7994249962">
		<tag k="name" v="Sand" />
		<tag k="place" v="farm" />
		<tag k="ssr:stedsnr" v="124562" />
	</node>
	<node id="-14212" lat="59.6826750007" lon="11.8166666725">
		<tag k="name" v="Nes" />
		<tag k="place" v="farm" />
		<tag k="ssr:stedsnr" v="854323" />
	</node>
	<node id="-14209" lat="59.6505194469" lon="11.8494222199">
		<tag k="name" v="Bråten" />
		<tag k="place" v="isolated_dwelling" />
		<tag k="ssr:stedsnr" v="854043" />
	</node>
	<node id="-14208" lat="59.7085055575" lon="11.8027833347">
		<tag k="fixme" v="multiple name tags, choose one and add the other to alt_name" />
		<tag k="name" v="Sundsrud;Søgarden" />
		<tag k="place" v="farm" />
		<tag k="ssr:stedsnr" v="853345" />
	</node>
	<node id="-14207" lat="59.7120305561" lon="11.8010499997">
		<tag k="alt_name" v="Haugen" />
		<tag k="name" v="Sundsrudhaugen" />
		<tag k="place" v="farm" />
		<tag k="ssr:stedsnr" v="853338" />
	</node>
	<node id="-14206" lat="59.665624996" lon="11.7625583328">
		<tag k="name" v="Karsby" />
		<tag k="place" v="isolated_dwelling" />
		<tag k="ssr:stedsnr" v="853260" />
	</node>
	<node id="-13682" lat="59.773138888" lon="11.8189999914">
		<tag k="name" v="Spilhaug" />
		<tag k="place" v="farm" />
		<tag k="ssr:stedsnr" v="111141" />
	</node>
	<node id="-14192" lat="59.7476305532" lon="11.8264805515">
		<tag k="name" v="Nordre Myrvoll" />
		<tag k="place" v="farm" />
		<tag k="ssr:stedsnr" v="840161" />
	</node>
	<node id="-14191" lat="59.7496416654" lon="11.8249416721">
		<tag k="name" v="Myrvollbråten" />
		<tag k="place" v="farm" />
		<tag k="ssr:stedsnr" v="840159" />
	</node>
	<node id="-13676" lat="59.7684055583" lon="11.8202027859">
		<tag k="name" v="Libakk" />
		<tag k="place" v="farm" />
		<tag k="ssr:stedsnr" v="111088" />
	</node>
	<node id="-14187" lat="59.6419972267" lon="11.7686583253">
		<tag k="name" v="Andreassetra" />
		<tag k="place" v="locality" />
		<tag k="ssr:stedsnr" v="840121" />
	</node>
	<node id="-14184" lat="59.7161166669" lon="11.75610555">
		<tag k="building" v="civic" />
		<tag k="name" v="Branntårnet" />
		<tag k="ssr:stedsnr" v="840105" />
	</node>
	<node id="-13666" lat="59.722461111" lon="11.7773361123">
		<tag k="name" v="Jerpeset" />
		<tag k="place" v="farm" />
		<tag k="ssr:stedsnr" v="111001" />
	</node>
	<node id="-13660" lat="59.7727055572" lon="11.8094666597">
		<tag k="fixme" v="multiple name tags, choose one and add the other to alt_name" />
		<tag k="name" v="Nedgropa;Tjernmoen" />
		<tag k="place" v="quarter" />
		<tag k="ssr:stedsnr" v="66398" />
	</node>
	<node id="-13656" lat="59.7383027814" lon="11.7633277863">
		<tag k="name" v="Sørsaga" />
		<tag k="place" v="farm" />
		<tag k="ssr:stedsnr" v="65617" />
	</node>
	<node id="-14167" lat="59.7440583334" lon="11.8058305593">
		<tag k="fixme" v="consider place=suburb, village or hamlet" />
		<tag k="name" v="Tørnby" />
		<tag k="place" v="quarter" />
		<tag k="ssr:stedsnr" v="793706" />
	</node>
	<node id="-13654" lat="59.7343777775" lon="11.9038638849">
		<tag k="alt_name" v="Fallet" />
		<tag k="historic" v="shieling" />
		<tag k="name" v="Ertevassfallet" />
		<tag k="place" v="locality" />
		<tag k="ssr:stedsnr" v="65414" />
	</node>
	<node id="-14163" lat="59.6967972246" lon="11.7995805608">
		<tag k="name" v="Strand" />
		<tag k="place" v="farm" />
		<tag k="ssr:stedsnr" v="793335" />
	</node>
	<node id="-14161" lat="59.7353777788" lon="11.8133611031">
		<tag k="alt_name" v="Bøen" />
		<tag k="name" v="Søndre Bøen" />
		<tag k="place" v="farm" />
		<tag k="ssr:stedsnr" v="792613" />
	</node>
	<node id="-13647" lat="59.7257249981" lon="11.784491665">
		<tag k="alt_name" v="Ramberg" />
		<tag k="name" v="Sør-Ramberg" />
		<tag k="place" v="farm" />
		<tag k="ssr:stedsnr" v="64620" />
	</node>
	<node id="-14154" lat="59.6991000004" lon="11.9152583282">
		<tag k="name" v="Gravlidalen" />
		<tag k="place" v="isolated_dwelling" />
		<tag k="ssr:stedsnr" v="793433" />
	</node>
	<node id="-13630" lat="59.7168694408" lon="11.7978083323">
		<tag k="name" v="Nord-Sandum" />
		<tag k="place" v="farm" />
		<tag k="ssr:stedsnr" v="51269" />
	</node>
	<node id="-13619" lat="59.7468611104" lon="11.8239055608">
		<tag k="name" v="Moserud" />
		<tag k="place" v="farm" />
		<tag k="ssr:stedsnr" v="51163" />
	</node>
	<node id="-14130" lat="59.7303944433" lon="11.7713916608">
		<tag k="name" v="Kopperud" />
		<tag k="place" v="farm" />
		<tag k="ssr:stedsnr" v="779004" />
	</node>
	<node id="-14129" lat="59.7553916634" lon="11.8186611167">
		<tag k="alt_name" v="Trandem vestre" />
		<tag k="name" v="Vest-Trandum" />
		<tag k="place" v="farm" />
		<tag k="ssr:stedsnr" v="778197" />
	</node>
	<node id="-14121" lat="59.7154277773" lon="11.7997138807">
		<tag k="alt_name" v="Sandum" />
		<tag k="name" v="Sør-Sandum" />
		<tag k="place" v="farm" />
		<tag k="ssr:stedsnr" v="732677" />
	</node>
	<node id="-14120" lat="59.7275222221" lon="11.7482194404">
		<tag k="alt_name" v="Eikestaden" />
		<tag k="name" v="Eikestad" />
		<tag k="place" v="isolated_dwelling" />
		<tag k="ssr:stedsnr" v="732658" />
	</node>
	<node id="-13607" lat="59.766127781" lon="11.8812194374">
		<tag k="name" v="Langemåsåstua" />
		<tag k="place" v="isolated_dwelling" />
		<tag k="ssr:stedsnr" v="51075" />
	</node>
	<node id="-14116" lat="59.7521055282" lon="11.8157187418">
		<tag k="fixme" v="consider place=hamlet" />
		<tag k="name" v="Tukun" />
		<tag k="place" v="farm" />
		<tag k="ssr:stedsnr" v="732399" />
	</node>
	<node id="-13600" lat="59.7368416706" lon="11.8134499919">
		<tag k="alt_name" v="Mellem Bøen" />
		<tag k="name" v="Mellom-Bøen" />
		<tag k="place" v="farm" />
		<tag k="ssr:stedsnr" v="51009" />
	</node>
	<node id="-14111" lat="59.64691667" lon="11.7620861123">
		<tag k="fixme" v="multiple name tags, choose one and add the other to alt_name" />
		<tag k="loc_name" v="Flatasetra" />
		<tag k="name" v="Flatasætra;Nordstusetra" />
		<tag k="place" v="isolated_dwelling" />
		<tag k="ssr:stedsnr" v="732275" />
	</node>
	<node id="-14110" lat="59.6630944481" lon="11.8359277847">
		<tag k="name" v="Os" />
		<tag k="place" v="farm" />
		<tag k="ssr:stedsnr" v="732271" />
	</node>
	<node id="-13595" lat="59.773050002" lon="11.8168888952">
		<tag k="alt_name" v="Nord-Klubben" />
		<tag k="name" v="Nordklubben" />
		<tag k="place" v="isolated_dwelling" />
		<tag k="ssr:stedsnr" v="5402" />
	</node>
	<node id="-13588" lat="59.6634999967" lon="11.830491671">
		<tag k="name" v="Nybru" />
		<tag k="place" v="farm" />
		<tag k="ssr:stedsnr" v="3244" />
	</node>
	<node id="-14097" lat="59.6988166669" lon="11.9369055482">
		<tag k="name" v="Oppstua" />
		<tag k="place" v="farm" />
		<tag k="ssr:stedsnr" v="718173" />
	</node>
	<node id="-14094" lat="59.7448999987" lon="11.822761115">
		<tag k="amenity" v="school" />
		<tag k="name" v="Skolestua" />
		<tag k="ssr:stedsnr" v="718169" />
	</node>
	<node id="-13581" lat="59.7734461292" lon="11.8106190086">
		<tag k="name" v="Tjernmoen industriområde" />
		<tag k="place" v="quarter" />
		<tag k="ssr:stedsnr" v="981896" />
	</node>
	<node id="-14088" lat="59.7737972187" lon="11.8091999999">
		<tag k="building" v="industrial" />
		<tag k="industrial" v="factory" />
		<tag k="name" v="Rømskog sag" />
		<tag k="ssr:stedsnr" v="718151" />
	</node>
	<node id="-13569" lat="59.7157972222" lon="11.8013638897">
		<tag k="name" v="Sletten" />
		<tag k="place" v="farm" />
		<tag k="ssr:stedsnr" v="475240" />
	</node>
	<node id="-14080" lat="59.7436583554" lon="11.8071306906">
		<tag k="fixme" v="consider place=hamlet" />
		<tag k="name" v="Østre Tørnby" />
		<tag k="place" v="farm" />
		<tag k="ssr:stedsnr" v="718040" />
	</node>
	<node id="-14079" lat="59.7464527733" lon="11.8114277858">
		<tag k="name" v="Nord-Steinby" />
		<tag k="place" v="farm" />
		<tag k="ssr:stedsnr" v="718038" />
	</node>
	<node id="-14073" lat="59.7165222195" lon="11.7526527772">
		<tag k="historic" v="shieling" />
		<tag k="name" v="Den brente setra" />
		<tag k="place" v="locality" />
		<tag k="ssr:stedsnr" v="718246" />
	</node>
	<node id="-14063" lat="59.7611444439" lon="11.8194472197">
		<tag k="alt_name" v="Øgarden" />
		<tag k="name" v="Ødegården" />
		<tag k="place" v="farm" />
		<tag k="ssr:stedsnr" v="672381" />
	</node>
	<node id="-14061" lat="59.7586111116" lon="11.8218333262">
		<tag k="alt_name" v="Trandem søndre" />
		<tag k="name" v="Sør-Trandum" />
		<tag k="place" v="farm" />
		<tag k="ssr:stedsnr" v="672372" />
	</node>
	<node id="-14058" lat="59.7430666654" lon="11.8156111147">
		<tag k="alt_name" v="Torneby;Østre Torneby2;Torneby østre" />
		<tag k="fixme" v="multiple name tags, choose one and add the other to alt_name" />
		<tag k="name" v="Tårnby;Østre Torneby" />
		<tag k="place" v="farm" />
		<tag k="ssr:stedsnr" v="671691" />
	</node>
	<node id="-13545" lat="59.7524972246" lon="11.8157972174">
		<tag k="name" v="Nord-Tukun" />
		<tag k="place" v="farm" />
		<tag k="ssr:stedsnr" v="475041" />
	</node>
	<node id="-13544" lat="59.7518638886" lon="11.8152111044">
		<tag k="name" v="Sør-Tukun" />
		<tag k="place" v="farm" />
		<tag k="ssr:stedsnr" v="475037" />
	</node>
	<node id="-13543" lat="59.7218638915" lon="11.7915527821">
		<tag k="name" v="Haukebølenga" />
		<tag k="place" v="farm" />
		<tag k="ssr:stedsnr" v="475005" />
	</node>
	<node id="-13535" lat="59.7770166639" lon="11.927686117">
		<tag k="name" v="Lukashytta" />
		<tag k="place" v="isolated_dwelling" />
		<tag k="ssr:stedsnr" v="370263" />
	</node>
	<node id="-14042" lat="59.6547361122" lon="11.8509333319">
		<tag k="alt_name" v="Mellem-Flaten" />
		<tag k="name" v="Mellom-Flaten" />
		<tag k="place" v="farm" />
		<tag k="ssr:stedsnr" v="657178" />
	</node>
	<node id="-13527" lat="59.698286109" lon="11.9372527855">
		<tag k="fixme" v="consider place=hamlet" />
		<tag k="name" v="Østtukun" />
		<tag k="place" v="farm" />
		<tag k="ssr:stedsnr" v="368437" />
	</node>
	<node id="-14037" lat="59.7449083324" lon="11.8059916669">
		<tag k="name" v="Steinby" />
		<tag k="place" v="farm" />
		<tag k="ssr:stedsnr" v="657147" />
	</node>
	<node id="-13521" lat="59.7025305529" lon="11.713119444">
		<tag k="name" v="Nordgardslund" />
		<tag k="place" v="locality" />
		<tag k="ssr:stedsnr" v="368333" />
	</node>
	<node id="-13520" lat="59.7294250006" lon="11.8152638968">
		<tag k="name" v="Kirkerud" />
		<tag k="place" v="farm" />
		<tag k="ssr:stedsnr" v="367627" />
	</node>
	<node id="-14028" lat="59.7187249997" lon="11.7921472286">
		<tag k="name" v="Dalheim" />
		<tag k="place" v="farm" />
		<tag k="ssr:stedsnr" v="657112" />
	</node>
	<node id="-14017" lat="59.7368166676" lon="11.8184305641">
		<tag k="name" v="Østre Bøen" />
		<tag k="place" v="farm" />
		<tag k="ssr:stedsnr" v="657013" />
	</node>
	<node id="-14012" lat="59.7708777759" lon="11.7715611185">
		<tag k="alt_name" v="Tukusætra" />
		<tag k="name" v="Tukusetra" />
		<tag k="place" v="farm" />
		<tag k="ssr:stedsnr" v="611436" />
	</node>
	<node id="-14011" lat="59.7677472247" lon="11.8202888908">
		<tag k="name" v="Lia" />
		<tag k="place" v="farm" />
		<tag k="ssr:stedsnr" v="611435" />
	</node>
	<node id="-14010" lat="59.7515361156" lon="11.8195277712">
		<tag k="alt_name" v="Moen, nedre;Ned-Moen" />
		<tag k="name" v="Nedre Moen" />
		<tag k="place" v="farm" />
		<tag k="ssr:stedsnr" v="611395" />
	</node>
	<node id="-14008" lat="59.7432111094" lon="11.7626638926">
		<tag k="alt_name" v="Nord-saga;Saga nordre" />
		<tag k="name" v="Nordsaga" />
		<tag k="place" v="farm" />
		<tag k="ssr:stedsnr" v="610704" />
	</node>
	<node id="-14006" lat="59.7339443964" lon="11.7759531561">
		<tag k="name" v="Nordli" />
		<tag k="place" v="farm" />
		<tag k="ssr:stedsnr" v="610659" />
	</node>
	<node id="-14001" lat="59.7222611126" lon="11.9057111153">
		<tag k="name" v="Hebakken" />
		<tag k="place" v="isolated_dwelling" />
		<tag k="ssr:stedsnr" v="610459" />
	</node>
	<node id="-13768" lat="59.7067277768" lon="11.9333500026">
		<tag k="name" v="Teigen" />
		<tag k="place" v="isolated_dwelling" />
		<tag k="ssr:stedsnr" v="186455" />
	</node>
	<node id="-13995" lat="59.6559500013" lon="11.8594694464">
		<tag k="name" v="Trosterud" />
		<tag k="place" v="farm" />
		<tag k="ssr:stedsnr" v="610069" />
	</node>
	<node id="-13476" lat="59.7656499983" lon="11.9196138849">
		<tag k="name" v="Røvassfallvika" />
		<tag k="place" v="isolated_dwelling" />
		<tag k="ssr:stedsnr" v="309268" />
	</node>
	<node id="-13475" lat="59.7403638932" lon="11.8247444446">
		<tag k="name" v="Haugbakk" />
		<tag k="place" v="farm" />
		<tag k="ssr:stedsnr" v="307695" />
	</node>
	<node id="-13474" lat="59.7178527765" lon="11.7946694415">
		<tag k="name" v="Skjønhaug" />
		<tag k="place" v="farm" />
		<tag k="ssr:stedsnr" v="307659" />
	</node>
	<node id="-13468" lat="59.7489722269" lon="11.910686103">
		<tag k="alt_name" v="Marisætra" />
		<tag k="historic" v="shieling" />
		<tag k="name" v="Marisetra" />
		<tag k="place" v="locality" />
		<tag k="ssr:stedsnr" v="307374" />
	</node>
	<node id="-13979" lat="59.7212444443" lon="11.7953444395">
		<tag k="name" v="Haukebøl" />
		<tag k="place" v="farm" />
		<tag k="ssr:stedsnr" v="596141" />
	</node>
	<node id="-13978" lat="59.7418111079" lon="11.7476666732">
		<tag k="historic" v="shieling" />
		<tag k="name" v="Damtjennsetra" />
		<tag k="place" v="locality" />
		<tag k="ssr:stedsnr" v="596140" />
	</node>
	<node id="-13764" lat="59.7548250019" lon="11.8199833275">
		<tag k="alt_name" v="Moen, øvre" />
		<tag k="name" v="Øvre Moen" />
		<tag k="place" v="farm" />
		<tag k="ssr:stedsnr" v="186403" />
	</node>
	<node id="-13959" lat="59.7836055597" lon="11.80690834">
		<tag k="name" v="Delingsby" />
		<tag k="place" v="isolated_dwelling" />
		<tag k="ssr:stedsnr" v="550454" />
	</node>
	<node id="-13445" lat="59.7105666647" lon="11.8017972134">
		<tag k="name" v="Sundsrud" />
		<tag k="place" v="farm" />
		<tag k="ssr:stedsnr" v="293279" />
	</node>
	<node id="-13955" lat="59.7053083303" lon="11.8532249916">
		<tag k="name" v="Hytta" />
		<tag k="place" v="isolated_dwelling" />
		<tag k="ssr:stedsnr" v="550411" />
	</node>
	<node id="-13951" lat="59.6859194414" lon="11.8018722149">
		<tag k="name" v="Bunes" />
		<tag k="place" v="farm" />
		<tag k="ssr:stedsnr" v="550335" />
	</node>
	<node id="-13945" lat="59.7193472235" lon="11.8050944482">
		<tag k="alt_name" v="Haukenes" />
		<tag k="name" v="Østre Haukenes" />
		<tag k="place" v="farm" />
		<tag k="ssr:stedsnr" v="549621" />
	</node>
	<node id="-13944" lat="59.7052527766" lon="11.8049444374">
		<tag k="alt_name" v="Hagan" />
		<tag k="name" v="Haga" />
		<tag k="place" v="farm" />
		<tag k="ssr:stedsnr" v="549349" />
	</node>
	<node id="-13943" lat="59.7131629712" lon="11.7854863048">
		<tag k="fixme" v="multiple name tags, choose one and add the other to alt_name" />
		<tag k="name" v="Vestby;Vestli" />
		<tag k="place" v="farm" />
		<tag k="ssr:stedsnr" v="549351" />
	</node>
	<node id="-13934" lat="59.7140111106" lon="11.8008055528">
		<tag k="name" v="Lønnberg" />
		<tag k="place" v="farm" />
		<tag k="ssr:stedsnr" v="536217" />
	</node>
	<node id="-13419" lat="59.7759222236" lon="11.8767527717">
		<tag k="historic" v="shieling" />
		<tag k="name" v="Flinttjennsetrene" />
		<tag k="place" v="locality" />
		<tag k="ssr:stedsnr" v="293045" />
	</node>
	<node id="-13500" lat="59.7272472198" lon="11.7454583412">
		<tag k="historic" v="shieling" />
		<tag k="name" v="Eikestadsetra" />
		<tag k="place" v="locality" />
		<tag k="ssr:stedsnr" v="354166" />
	</node>
	<node id="-13585" lat="59.6509827856" lon="11.8513872459">
		<tag k="fixme" v="consider place=hamlet" />
		<tag k="name" v="Flaten" />
		<tag k="place" v="farm" />
		<tag k="ssr:stedsnr" v="982295" />
	</node>
	<node id="-13914" lat="59.6981501473" lon="11.8600261708">
		<tag k="alt_name" v="Ringsbu" />
		<tag k="fixme" v="consider place=hamlet" />
		<tag k="name" v="Ringsby" />
		<tag k="place" v="farm" />
		<tag k="ssr:stedsnr" v="525419" />
	</node>
	<node id="-13910" lat="59.7561999982" lon="11.8136527848">
		<tag k="name" v="Nordby" />
		<tag k="place" v="farm" />
		<tag k="ssr:stedsnr" v="490370" />
	</node>
	<node id="-13906" lat="59.739238893" lon="11.7636361061">
		<tag k="name" v="Mellomsaga" />
		<tag k="place" v="isolated_dwelling" />
		<tag k="ssr:stedsnr" v="489668" />
	</node>
	<node id="-13905" lat="59.722636114" lon="11.7957444523">
		<tag k="alt_name" v="Engen" />
		<tag k="name" v="Enga" />
		<tag k="place" v="farm" />
		<tag k="ssr:stedsnr" v="489663" />
	</node>
	<node id="-13898" lat="59.662622225" lon="11.724719442">
		<tag k="name" v="Galgebakken" />
		<tag k="place" v="isolated_dwelling" />
		<tag k="ssr:stedsnr" v="489307" />
	</node>
	<node id="-13896" lat="59.7438999997" lon="11.806975">
		<tag k="name" v="Østre Tørnby" />
		<tag k="place" v="farm" />
		<tag k="ssr:stedsnr" v="482384" />
	</node>
	<node id="-13889" lat="59.7678527814" lon="11.809894441">
		<tag k="name" v="Nylenda" />
		<tag k="place" v="farm" />
		<tag k="ssr:stedsnr" v="429390" />
	</node>
	<node id="-13888" lat="59.76346389" lon="11.8214250083">
		<tag k="name" v="Bråten" />
		<tag k="place" v="farm" />
		<tag k="ssr:stedsnr" v="429382" />
	</node>
	<node id="-13886" lat="59.7552750019" lon="11.8175694496">
		<tag k="fixme" v="consider place=hamlet" />
		<tag k="loc_name" v="Trandem" />
		<tag k="name" v="Trandum" />
		<tag k="place" v="farm" />
		<tag k="ssr:stedsnr" v="429360" />
	</node>
	<node id="-13878" lat="59.7195194424" lon="11.8342638841">
		<tag k="alt_name" v="Kurøen" />
		<tag k="name" v="Kurøy" />
		<tag k="place" v="farm" />
		<tag k="ssr:stedsnr" v="428614" />
	</node>
	<node id="-13873" lat="59.6519194459" lon="11.8519555502">
		<tag k="alt_name" v="Flaten" />
		<tag k="name" v="Flatahaugen" />
		<tag k="place" v="farm" />
		<tag k="ssr:stedsnr" v="423118" />
	</node>
	<node id="-13860" lat="59.6452583322" lon="11.7632111065">
		<tag k="name" v="Haugerberget" />
		<tag k="place" v="isolated_dwelling" />
		<tag k="ssr:stedsnr" v="415197" />
	</node>
	<node id="-13841" lat="59.72075" lon="11.8045527692">
		<tag k="name" v="Nordre Haukenes" />
		<tag k="place" v="farm" />
		<tag k="ssr:stedsnr" v="415008" />
	</node>
	<node id="-13838" lat="59.770983333" lon="11.8197777692">
		<tag k="alt_name" v="Sør-Klubben" />
		<tag k="name" v="Sørklubben" />
		<tag k="place" v="farm" />
		<tag k="ssr:stedsnr" v="248407" />
	</node>
	<node id="-13655" lat="59.7259138849" lon="11.8514583393">
		<tag k="alt_name" v="Enga" />
		<tag k="name" v="Kurøenga" />
		<tag k="place" v="farm" />
		<tag k="ssr:stedsnr" v="65416" />
	</node>
</osm>
