<?xml version="1.0" encoding="UTF-8"?>
<osm generator="osmapis" version="0.6">
	<node id="-19368" lat="59.3193694489" lon="10.9035972175">
		<tag k="alt_name" v="Tofteberg vestre" />
		<tag k="name" v="Vestre Tofteberg" />
		<tag k="place" v="farm" />
		<tag k="ssr:date" v="2016-05-11" />
		<tag k="ssr:gruppe" v="gardsbebyggelse" />
		<tag k="ssr:hovedgruppe" v="bebyggelse" />
		<tag k="ssr:stedsnr" v="968785" />
		<tag k="ssr:type" v="bruk" />
	</node>
	<node id="-19367" lat="59.3891250018" lon="10.9457888818">
		<tag k="name" v="Høymyr" />
		<tag k="natural" v="wetland" />
		<tag k="ssr:date" v="2016-05-11" />
		<tag k="ssr:gruppe" v="våtmark" />
		<tag k="ssr:hovedgruppe" v="markslag" />
		<tag k="ssr:stedsnr" v="968599" />
		<tag k="ssr:type" v="myr" />
	</node>
	<node id="-19366" lat="59.381877781" lon="10.9690722204">
		<tag k="name" v="Bruane" />
		<tag k="place" v="locality" />
		<tag k="ssr:date" v="2016-05-11" />
		<tag k="ssr:gruppe" v="vegetasjon" />
		<tag k="ssr:hovedgruppe" v="markslag" />
		<tag k="ssr:stedsnr" v="968600" />
		<tag k="ssr:type" v="skog" />
	</node>
	<node id="-19365" lat="59.3400944464" lon="10.8479083316">
		<tag k="name" v="Stranden" />
		<tag k="place" v="farm" />
		<tag k="ssr:date" v="2016-05-11" />
		<tag k="ssr:gruppe" v="gardsbebyggelse" />
		<tag k="ssr:hovedgruppe" v="bebyggelse" />
		<tag k="ssr:stedsnr" v="968362" />
		<tag k="ssr:type" v="bruk" />
	</node>
	<node id="-19364" lat="59.371111107" lon="10.882383332">
		<tag k="name" v="Gåsholmen" />
		<tag k="place" v="islet" />
		<tag k="ssr:date" v="2016-05-11" />
		<tag k="ssr:gruppe" v="ferskvannskontur" />
		<tag k="ssr:hovedgruppe" v="ferskvann" />
		<tag k="ssr:stedsnr" v="968308" />
		<tag k="ssr:type" v="holme" />
	</node>
	<node id="-19363" lat="59.3559722217" lon="10.9274611044">
		<tag k="fixme" v="consider natural=peak for the most distinct mountains in the district" />
		<tag k="name" v="Bunnåsen" />
		<tag k="natural" v="hill" />
		<tag k="place" v="locality" />
		<tag k="ssr:date" v="2016-05-11" />
		<tag k="ssr:gruppe" v="høyder" />
		<tag k="ssr:hovedgruppe" v="terreng" />
		<tag k="ssr:stedsnr" v="968283" />
		<tag k="ssr:type" v="ås" />
	</node>
	<node id="-19362" lat="59.3752138933" lon="10.8613111047">
		<tag k="name" v="Klokkerne" />
		<tag k="place" v="islet" />
		<tag k="ssr:date" v="2016-05-11" />
		<tag k="ssr:gruppe" v="ferskvannskontur" />
		<tag k="ssr:hovedgruppe" v="ferskvann" />
		<tag k="ssr:stedsnr" v="968281" />
		<tag k="ssr:type" v="holme" />
	</node>
	<node id="-19361" lat="59.2909333303" lon="10.8332499947">
		<tag k="fixme" v="consider natural=peak for the most distinct mountains in the district" />
		<tag k="name" v="Ravneberg" />
		<tag k="natural" v="hill" />
		<tag k="place" v="locality" />
		<tag k="ssr:date" v="2016-05-11" />
		<tag k="ssr:gruppe" v="høyder" />
		<tag k="ssr:hovedgruppe" v="terreng" />
		<tag k="ssr:stedsnr" v="967789" />
		<tag k="ssr:type" v="ås" />
	</node>
	<node id="-19360" lat="59.3271333347" lon="10.7382277711">
		<tag k="fixme" v="consider boundary=protected_area and relevant protect_class if not nature reserve" />
		<tag k="leisure" v="nature_reserve" />
		<tag k="name" v="Kurefjorden naturreservat" />
		<tag k="ssr:date" v="2016-05-11" />
		<tag k="ssr:gruppe" v="verne-OgBruksområder" />
		<tag k="ssr:hovedgruppe" v="offentligAdministrasjon" />
		<tag k="ssr:stedsnr" v="966962" />
		<tag k="ssr:type" v="verneområde" />
	</node>
	<node id="-19359" lat="59.2790361101" lon="10.6764666748">
		<tag k="fixme" v="consider boundary=protected_area and relevant protect_class if not nature reserve" />
		<tag k="leisure" v="nature_reserve" />
		<tag k="name" v="Søndre Sletter naturreservat" />
		<tag k="ssr:date" v="2016-05-11" />
		<tag k="ssr:gruppe" v="verne-OgBruksområder" />
		<tag k="ssr:hovedgruppe" v="offentligAdministrasjon" />
		<tag k="ssr:stedsnr" v="966581" />
		<tag k="ssr:type" v="verneområde" />
	</node>
	<node id="-19358" lat="59.3105916668" lon="10.744638895">
		<tag k="name" v="Svarteskjærtangen" />
		<tag k="natural" v="cape" />
		<tag k="ssr:date" v="2016-05-11" />
		<tag k="ssr:gruppe" v="kystkontur" />
		<tag k="ssr:hovedgruppe" v="sjø" />
		<tag k="ssr:stedsnr" v="966564" />
		<tag k="ssr:type" v="nesISjø" />
	</node>
	<node id="-19357" lat="59.3448555557" lon="10.9267083385">
		<tag k="name" v="Sandbakken" />
		<tag k="place" v="locality" />
		<tag k="ssr:date" v="2016-05-11" />
		<tag k="ssr:gruppe" v="kulturminner" />
		<tag k="ssr:hovedgruppe" v="kultur" />
		<tag k="ssr:stedsnr" v="937408" />
		<tag k="ssr:type" v="annenKulturdetalj" />
	</node>
	<node id="-19355" lat="59.3452833377" lon="10.9366333414">
		<tag k="name" v="Missingmyr" />
		<tag k="place" v="quarter" />
		<tag k="ssr:date" v="2016-05-11" />
		<tag k="ssr:gruppe" v="bebyggelsesområder" />
		<tag k="ssr:hovedgruppe" v="bebyggelse" />
		<tag k="ssr:stedsnr" v="935075" />
		<tag k="ssr:type" v="boligfelt" />
	</node>
	<node id="-19354" lat="59.3255555544" lon="10.8064472301">
		<tag k="alt_name" v="Hauga;Krokstad" />
		<tag k="name" v="Haga" />
		<tag k="place" v="farm" />
		<tag k="ssr:date" v="2016-05-11" />
		<tag k="ssr:gruppe" v="gardsbebyggelse" />
		<tag k="ssr:hovedgruppe" v="bebyggelse" />
		<tag k="ssr:stedsnr" v="913441" />
		<tag k="ssr:type" v="bruk" />
	</node>
	<node id="-19353" lat="59.334313887" lon="10.800827781">
		<tag k="alt_name" v="Åker" />
		<tag k="fixme" v="consider place=hamlet" />
		<tag k="name" v="Aker" />
		<tag k="place" v="farm" />
		<tag k="ssr:date" v="2016-05-11" />
		<tag k="ssr:gruppe" v="gardsbebyggelse" />
		<tag k="ssr:hovedgruppe" v="bebyggelse" />
		<tag k="ssr:stedsnr" v="913434" />
		<tag k="ssr:type" v="gard" />
	</node>
	<node id="-19352" lat="59.317230559" lon="10.7713472253">
		<tag k="name" v="Solsletta" />
		<tag k="place" v="isolated_dwelling" />
		<tag k="ssr:date" v="2016-05-11" />
		<tag k="ssr:gruppe" v="bolighus" />
		<tag k="ssr:hovedgruppe" v="bebyggelse" />
		<tag k="ssr:stedsnr" v="913417" />
		<tag k="ssr:type" v="fritidsbolig" />
	</node>
	<node id="-19351" lat="59.3194305529" lon="10.8052444435">
		<tag k="alt_name" v="Tom" />
		<tag k="fixme" v="consider place=suburb, village or hamlet" />
		<tag k="name" v="Tomb" />
		<tag k="place" v="quarter" />
		<tag k="ssr:date" v="2016-05-11" />
		<tag k="ssr:gruppe" v="bebyggelsesområder" />
		<tag k="ssr:hovedgruppe" v="bebyggelse" />
		<tag k="ssr:stedsnr" v="913431" />
		<tag k="ssr:type" v="tettbebyggelse" />
	</node>
	<node id="-19350" lat="59.3458000001" lon="10.7655555609">
		<tag k="alt_name" v="Viersholm" />
		<tag k="name" v="Viersholmen" />
		<tag k="place" v="farm" />
		<tag k="ssr:date" v="2016-05-11" />
		<tag k="ssr:gruppe" v="gardsbebyggelse" />
		<tag k="ssr:hovedgruppe" v="bebyggelse" />
		<tag k="ssr:stedsnr" v="912517" />
		<tag k="ssr:type" v="bruk" />
	</node>
	<node id="-19349" lat="59.3517053666" lon="10.8354816644">
		<tag k="fixme" v="consider place=hamlet" />
		<tag k="name" v="Elvestad" />
		<tag k="place" v="farm" />
		<tag k="ssr:date" v="2019-04-04" />
		<tag k="ssr:gruppe" v="gardsbebyggelse" />
		<tag k="ssr:hovedgruppe" v="bebyggelse" />
		<tag k="ssr:stedsnr" v="912514" />
		<tag k="ssr:type" v="gard" />
	</node>
	<node id="-19348" lat="59.3404666627" lon="10.8821277722">
		<tag k="name" v="Lunder" />
		<tag k="place" v="farm" />
		<tag k="ssr:date" v="2016-05-11" />
		<tag k="ssr:gruppe" v="gardsbebyggelse" />
		<tag k="ssr:hovedgruppe" v="bebyggelse" />
		<tag k="ssr:stedsnr" v="912505" />
		<tag k="ssr:type" v="bruk" />
	</node>
	<node id="-19347" lat="59.3431444429" lon="10.8524305496">
		<tag k="alt_name" v="Hafeld" />
		<tag k="name" v="Hafell" />
		<tag k="place" v="farm" />
		<tag k="ssr:date" v="2016-05-11" />
		<tag k="ssr:gruppe" v="gardsbebyggelse" />
		<tag k="ssr:hovedgruppe" v="bebyggelse" />
		<tag k="ssr:stedsnr" v="912507" />
		<tag k="ssr:type" v="bruk" />
	</node>
	<node id="-19346" lat="59.3259638855" lon="10.9303833367">
		<tag k="name" v="Ileby" />
		<tag k="place" v="farm" />
		<tag k="ssr:date" v="2016-05-11" />
		<tag k="ssr:gruppe" v="gardsbebyggelse" />
		<tag k="ssr:hovedgruppe" v="bebyggelse" />
		<tag k="ssr:stedsnr" v="907736" />
		<tag k="ssr:type" v="bruk" />
	</node>
	<node id="-19345" lat="59.3727833374" lon="10.9675777845">
		<tag k="name" v="Bjørnemyr" />
		<tag k="natural" v="wetland" />
		<tag k="ssr:date" v="2016-05-11" />
		<tag k="ssr:gruppe" v="våtmark" />
		<tag k="ssr:hovedgruppe" v="markslag" />
		<tag k="ssr:stedsnr" v="907531" />
		<tag k="ssr:type" v="myr" />
	</node>
	<node id="-19344" lat="59.3723583341" lon="10.915927774">
		<tag k="name" v="Borgebunn" />
		<tag k="natural" v="bay" />
		<tag k="ssr:date" v="2016-05-11" />
		<tag k="ssr:gruppe" v="ferskvannskontur" />
		<tag k="ssr:hovedgruppe" v="ferskvann" />
		<tag k="ssr:stedsnr" v="907228" />
		<tag k="ssr:type" v="vik" />
	</node>
	<node id="-19343" lat="59.3058972236" lon="10.7543916717">
		<tag k="fixme" v="consider seamark:type=rock or natural=shoal" />
		<tag k="name" v="Guleskjær" />
		<tag k="place" v="islet" />
		<tag k="ssr:date" v="2016-05-11" />
		<tag k="ssr:gruppe" v="grunnerISjø" />
		<tag k="ssr:hovedgruppe" v="sjø" />
		<tag k="ssr:stedsnr" v="907185" />
		<tag k="ssr:type" v="skjærISjø" />
	</node>
	<node id="-19342" lat="59.3380000032" lon="10.7643305641">
		<tag k="alt_name" v="Tasken nordre" />
		<tag k="name" v="Nordre Tasken" />
		<tag k="place" v="farm" />
		<tag k="ssr:date" v="2016-05-11" />
		<tag k="ssr:gruppe" v="gardsbebyggelse" />
		<tag k="ssr:hovedgruppe" v="bebyggelse" />
		<tag k="ssr:stedsnr" v="906917" />
		<tag k="ssr:type" v="bruk" />
	</node>
	<node id="-19341" lat="59.3455749967" lon="10.7794249912">
		<tag k="name" v="Heiasvingen" />
		<tag k="place" v="locality" />
		<tag k="ssr:date" v="2016-05-11" />
		<tag k="ssr:gruppe" v="kulturminner" />
		<tag k="ssr:hovedgruppe" v="kultur" />
		<tag k="ssr:stedsnr" v="906889" />
		<tag k="ssr:type" v="annenKulturdetalj" />
	</node>
	<node id="-19340" lat="59.3832611098" lon="10.8239000028">
		<tag k="name" v="Sponbukt" />
		<tag k="natural" v="bay" />
		<tag k="ssr:date" v="2016-05-11" />
		<tag k="ssr:gruppe" v="ferskvannskontur" />
		<tag k="ssr:hovedgruppe" v="ferskvann" />
		<tag k="ssr:stedsnr" v="906886" />
		<tag k="ssr:type" v="vik" />
	</node>
	<node id="-19339" lat="59.3171333368" lon="10.729241674">
		<tag k="name" v="Husholmen" />
		<tag k="place" v="islet" />
		<tag k="ssr:date" v="2016-05-11" />
		<tag k="ssr:gruppe" v="kystkontur" />
		<tag k="ssr:hovedgruppe" v="sjø" />
		<tag k="ssr:stedsnr" v="877879" />
		<tag k="ssr:type" v="holmeISjø" />
	</node>
	<node id="-19338" lat="59.2959861068" lon="10.738050002">
		<tag k="name" v="Svenskehausen" />
		<tag k="natural" v="shoal" />
		<tag k="place" v="locality" />
		<tag k="ssr:date" v="2016-05-11" />
		<tag k="ssr:gruppe" v="grunnerISjø" />
		<tag k="ssr:hovedgruppe" v="sjø" />
		<tag k="ssr:stedsnr" v="874820" />
		<tag k="ssr:type" v="grunneISjø" />
	</node>
	<node id="-19337" lat="59.3096555589" lon="10.7620472298">
		<tag k="name" v="Båsane" />
		<tag k="natural" v="cape" />
		<tag k="ssr:date" v="2016-05-11" />
		<tag k="ssr:gruppe" v="kystkontur" />
		<tag k="ssr:hovedgruppe" v="sjø" />
		<tag k="ssr:stedsnr" v="874778" />
		<tag k="ssr:type" v="nesISjø" />
	</node>
	<node id="-19336" lat="59.2927833314" lon="10.6534583377">
		<tag k="name" v="Bråttene" />
		<tag k="natural" v="shoal" />
		<tag k="place" v="locality" />
		<tag k="ssr:date" v="2016-05-11" />
		<tag k="ssr:gruppe" v="grunnerISjø" />
		<tag k="ssr:hovedgruppe" v="sjø" />
		<tag k="ssr:stedsnr" v="853629" />
		<tag k="ssr:type" v="grunneISjø" />
	</node>
	<node id="-19335" lat="59.2897777784" lon="10.7562500031">
		<tag k="fixme" v="consider place=suburb, village or hamlet" />
		<tag k="name" v="Saltnes" />
		<tag k="place" v="quarter" />
		<tag k="ssr:date" v="2016-05-11" />
		<tag k="ssr:gruppe" v="bebyggelsesområder" />
		<tag k="ssr:hovedgruppe" v="bebyggelse" />
		<tag k="ssr:stedsnr" v="853401" />
		<tag k="ssr:type" v="tettbebyggelse" />
	</node>
	<node id="-19334" lat="59.3391805595" lon="10.8257166706">
		<tag k="name" v="Løkka" />
		<tag k="place" v="farm" />
		<tag k="ssr:date" v="2016-05-11" />
		<tag k="ssr:gruppe" v="gardsbebyggelse" />
		<tag k="ssr:hovedgruppe" v="bebyggelse" />
		<tag k="ssr:stedsnr" v="852472" />
		<tag k="ssr:type" v="bruk" />
	</node>
	<node id="-19333" lat="59.3038027818" lon="10.7964194434">
		<tag k="name" v="Holmebråten" />
		<tag k="place" v="farm" />
		<tag k="ssr:date" v="2016-05-11" />
		<tag k="ssr:gruppe" v="gardsbebyggelse" />
		<tag k="ssr:hovedgruppe" v="bebyggelse" />
		<tag k="ssr:stedsnr" v="852408" />
		<tag k="ssr:type" v="bruk" />
	</node>
	<node id="-19332" lat="59.4112194424" lon="10.7634138915">
		<tag k="name" v="Nygård" />
		<tag k="place" v="farm" />
		<tag k="ssr:date" v="2016-05-11" />
		<tag k="ssr:gruppe" v="gardsbebyggelse" />
		<tag k="ssr:hovedgruppe" v="bebyggelse" />
		<tag k="ssr:stedsnr" v="852284" />
		<tag k="ssr:type" v="bruk" />
	</node>
	<node id="-19331" lat="59.3606972216" lon="10.7941500038">
		<tag k="name" v="Sogn" />
		<tag k="place" v="farm" />
		<tag k="ssr:date" v="2016-05-11" />
		<tag k="ssr:gruppe" v="gardsbebyggelse" />
		<tag k="ssr:hovedgruppe" v="bebyggelse" />
		<tag k="ssr:stedsnr" v="852264" />
		<tag k="ssr:type" v="bruk" />
	</node>
	<node id="-19330" lat="59.3258527808" lon="10.8944499925">
		<tag k="name" v="Granly" />
		<tag k="place" v="farm" />
		<tag k="ssr:date" v="2016-05-11" />
		<tag k="ssr:gruppe" v="gardsbebyggelse" />
		<tag k="ssr:hovedgruppe" v="bebyggelse" />
		<tag k="ssr:stedsnr" v="847787" />
		<tag k="ssr:type" v="bruk" />
	</node>
	<node id="-19329" lat="59.3370916653" lon="10.9575833375">
		<tag k="name" v="Grepet" />
		<tag k="place" v="isolated_dwelling" />
		<tag k="ssr:date" v="2016-05-11" />
		<tag k="ssr:gruppe" v="bolighus" />
		<tag k="ssr:hovedgruppe" v="bebyggelse" />
		<tag k="ssr:stedsnr" v="847581" />
		<tag k="ssr:type" v="eneboligMindreBoligbygg" />
	</node>
	<node id="-19328" lat="59.3636083345" lon="10.9528277835">
		<tag k="name" v="Slangsvoll" />
		<tag k="place" v="farm" />
		<tag k="ssr:date" v="2016-05-11" />
		<tag k="ssr:gruppe" v="gardsbebyggelse" />
		<tag k="ssr:hovedgruppe" v="bebyggelse" />
		<tag k="ssr:stedsnr" v="847571" />
		<tag k="ssr:type" v="bruk" />
	</node>
	<node id="-19327" lat="59.3513805536" lon="10.8355583381">
		<tag k="alt_name" v="Elvestad søndre" />
		<tag k="name" v="Søndre Elvestad" />
		<tag k="place" v="farm" />
		<tag k="ssr:date" v="2016-05-11" />
		<tag k="ssr:gruppe" v="gardsbebyggelse" />
		<tag k="ssr:hovedgruppe" v="bebyggelse" />
		<tag k="ssr:stedsnr" v="847397" />
		<tag k="ssr:type" v="bruk" />
	</node>
	<node id="-19326" lat="59.3000805581" lon="10.6609416637">
		<tag k="name" v="Seiltangen" />
		<tag k="natural" v="cape" />
		<tag k="ssr:date" v="2016-05-11" />
		<tag k="ssr:gruppe" v="kystkontur" />
		<tag k="ssr:hovedgruppe" v="sjø" />
		<tag k="ssr:stedsnr" v="847237" />
		<tag k="ssr:type" v="nesISjø" />
	</node>
	<node id="-19325" lat="59.3390833314" lon="10.9222138959">
		<tag k="name" v="Dalen" />
		<tag k="place" v="farm" />
		<tag k="ssr:date" v="2016-05-11" />
		<tag k="ssr:gruppe" v="gardsbebyggelse" />
		<tag k="ssr:hovedgruppe" v="bebyggelse" />
		<tag k="ssr:stedsnr" v="847230" />
		<tag k="ssr:type" v="bruk" />
	</node>
	<node id="-19324" lat="59.3236083317" lon="10.7625111128">
		<tag k="alt_name" v="Fuglevik nordre" />
		<tag k="name" v="Nordre Fuglevik" />
		<tag k="place" v="locality" />
		<tag k="ssr:date" v="2016-05-11" />
		<tag k="ssr:gruppe" v="kulturminner" />
		<tag k="ssr:hovedgruppe" v="kultur" />
		<tag k="ssr:stedsnr" v="845975" />
		<tag k="ssr:type" v="annenKulturdetalj" />
	</node>
	<node id="-19323" lat="59.3575638901" lon="10.8057888974">
		<tag k="alt_name" v="Løken nordre" />
		<tag k="name" v="Nordre Løken" />
		<tag k="place" v="farm" />
		<tag k="ssr:date" v="2016-05-11" />
		<tag k="ssr:gruppe" v="gardsbebyggelse" />
		<tag k="ssr:hovedgruppe" v="bebyggelse" />
		<tag k="ssr:stedsnr" v="845938" />
		<tag k="ssr:type" v="bruk" />
	</node>
	<node id="-19322" lat="59.3879777794" lon="10.8166166619">
		<tag k="name" v="Grimsrød" />
		<tag k="place" v="locality" />
		<tag k="ssr:date" v="2016-05-11" />
		<tag k="ssr:gruppe" v="kulturminner" />
		<tag k="ssr:hovedgruppe" v="kultur" />
		<tag k="ssr:stedsnr" v="845905" />
		<tag k="ssr:type" v="annenKulturdetalj" />
	</node>
	<node id="-19321" lat="59.3831555572" lon="10.8134361147">
		<tag k="name" v="Sagmyra" />
		<tag k="natural" v="wetland" />
		<tag k="ssr:date" v="2016-05-11" />
		<tag k="ssr:gruppe" v="våtmark" />
		<tag k="ssr:hovedgruppe" v="markslag" />
		<tag k="ssr:stedsnr" v="845902" />
		<tag k="ssr:type" v="myr" />
	</node>
	<node id="-19320" lat="59.3353249996" lon="10.8011111055">
		<tag k="alt_name" v="Aker mellem" />
		<tag k="name" v="Mellom-Aker" />
		<tag k="place" v="isolated_dwelling" />
		<tag k="ssr:date" v="2016-05-11" />
		<tag k="ssr:gruppe" v="bolighus" />
		<tag k="ssr:hovedgruppe" v="bebyggelse" />
		<tag k="ssr:stedsnr" v="845562" />
		<tag k="ssr:type" v="eneboligMindreBoligbygg" />
	</node>
	<node id="-19319" lat="59.308266664" lon="10.8726027799">
		<tag k="fixme" v="consider place=hamlet" />
		<tag k="name" v="Kil" />
		<tag k="place" v="farm" />
		<tag k="ssr:date" v="2016-05-11" />
		<tag k="ssr:gruppe" v="gardsbebyggelse" />
		<tag k="ssr:hovedgruppe" v="bebyggelse" />
		<tag k="ssr:stedsnr" v="844286" />
		<tag k="ssr:type" v="gard" />
	</node>
	<node id="-19318" lat="59.3127305523" lon="10.8832666687">
		<tag k="name" v="Hissingby" />
		<tag k="place" v="locality" />
		<tag k="ssr:date" v="2016-05-11" />
		<tag k="ssr:gruppe" v="kulturminner" />
		<tag k="ssr:hovedgruppe" v="kultur" />
		<tag k="ssr:stedsnr" v="847874" />
		<tag k="ssr:type" v="annenKulturdetalj" />
	</node>
	<node id="-19317" lat="59.3210583303" lon="10.8783305498">
		<tag k="name" v="Haugen" />
		<tag k="place" v="farm" />
		<tag k="ssr:date" v="2016-05-11" />
		<tag k="ssr:gruppe" v="gardsbebyggelse" />
		<tag k="ssr:hovedgruppe" v="bebyggelse" />
		<tag k="ssr:stedsnr" v="847827" />
		<tag k="ssr:type" v="bruk" />
	</node>
	<node id="-19316" lat="59.3090583371" lon="10.8842916745">
		<tag k="bridge" v="yes" />
		<tag k="layer" v="1" />
		<tag k="loc_name" v="Kil" />
		<tag k="name" v="Kihl" />
		<tag k="ssr:date" v="2016-05-11" />
		<tag k="ssr:gruppe" v="samferdselsanlegg" />
		<tag k="ssr:hovedgruppe" v="infrastruktur" />
		<tag k="ssr:stedsnr" v="835545" />
		<tag k="ssr:type" v="bru" />
	</node>
	<node id="-19315" lat="59.2947611128" lon="10.6621361028">
		<tag k="name" v="Brotta" />
		<tag k="place" v="islet" />
		<tag k="ssr:date" v="2016-05-11" />
		<tag k="ssr:gruppe" v="kystkontur" />
		<tag k="ssr:hovedgruppe" v="sjø" />
		<tag k="ssr:stedsnr" v="817909" />
		<tag k="ssr:type" v="holmeISjø" />
	</node>
	<node id="-19314" lat="59.3018194413" lon="10.7743277764">
		<tag k="fixme" v="multiple name tags, choose one and add the other to alt_name" />
		<tag k="name" v="Kløfta;Tangen" />
		<tag k="place" v="farm" />
		<tag k="ssr:date" v="2016-05-11" />
		<tag k="ssr:gruppe" v="gardsbebyggelse" />
		<tag k="ssr:hovedgruppe" v="bebyggelse" />
		<tag k="ssr:stedsnr" v="817827" />
		<tag k="ssr:type" v="bruk" />
	</node>
	<node id="-19313" lat="59.2967611152" lon="10.6471305487">
		<tag k="name" v="Hauken" />
		<tag k="natural" v="shoal" />
		<tag k="place" v="locality" />
		<tag k="ssr:date" v="2016-05-11" />
		<tag k="ssr:gruppe" v="grunnerISjø" />
		<tag k="ssr:hovedgruppe" v="sjø" />
		<tag k="ssr:stedsnr" v="817794" />
		<tag k="ssr:type" v="grunneISjø" />
	</node>
	<node id="-19312" lat="59.3473055597" lon="10.9292555641">
		<tag k="name" v="Løkka" />
		<tag k="place" v="farm" />
		<tag k="ssr:date" v="2016-05-11" />
		<tag k="ssr:gruppe" v="gardsbebyggelse" />
		<tag k="ssr:hovedgruppe" v="bebyggelse" />
		<tag k="ssr:stedsnr" v="815373" />
		<tag k="ssr:type" v="bruk" />
	</node>
	<node id="-19311" lat="59.2880583365" lon="10.7428305591">
		<tag k="alt_name" v="Saltnesholmen" />
		<tag k="name" v="Saltholmen" />
		<tag k="place" v="islet" />
		<tag k="ssr:date" v="2016-05-11" />
		<tag k="ssr:gruppe" v="kystkontur" />
		<tag k="ssr:hovedgruppe" v="sjø" />
		<tag k="ssr:stedsnr" v="792386" />
		<tag k="ssr:type" v="holmeISjø" />
	</node>
	<node id="-19310" lat="59.314325002" lon="10.7206194374">
		<tag k="name" v="Hestholmen" />
		<tag k="place" v="islet" />
		<tag k="ssr:date" v="2016-05-11" />
		<tag k="ssr:gruppe" v="kystkontur" />
		<tag k="ssr:hovedgruppe" v="sjø" />
		<tag k="ssr:stedsnr" v="791626" />
		<tag k="ssr:type" v="holmeISjø" />
	</node>
	<node id="-19309" lat="59.3422750007" lon="10.9140222251">
		<tag k="fixme" v="consider place=hamlet" />
		<tag k="name" v="Borge" />
		<tag k="place" v="farm" />
		<tag k="ssr:date" v="2016-05-11" />
		<tag k="ssr:gruppe" v="gardsbebyggelse" />
		<tag k="ssr:hovedgruppe" v="bebyggelse" />
		<tag k="ssr:stedsnr" v="791486" />
		<tag k="ssr:type" v="gard" />
	</node>
	<node id="-19308" lat="59.3480638911" lon="10.8279916611">
		<tag k="name" v="Burum" />
		<tag k="place" v="farm" />
		<tag k="ssr:date" v="2016-05-11" />
		<tag k="ssr:gruppe" v="gardsbebyggelse" />
		<tag k="ssr:hovedgruppe" v="bebyggelse" />
		<tag k="ssr:stedsnr" v="791466" />
		<tag k="ssr:type" v="bruk" />
	</node>
	<node id="-19307" lat="59.3393555532" lon="10.8057388905">
		<tag k="alt_name" v="Åker" />
		<tag k="name" v="Aker" />
		<tag k="place" v="farm" />
		<tag k="ssr:date" v="2016-05-11" />
		<tag k="ssr:gruppe" v="gardsbebyggelse" />
		<tag k="ssr:hovedgruppe" v="bebyggelse" />
		<tag k="ssr:stedsnr" v="791462" />
		<tag k="ssr:type" v="bruk" />
	</node>
	<node id="-19306" lat="59.3327861119" lon="10.8853611125">
		<tag k="name" v="Stene" />
		<tag k="place" v="farm" />
		<tag k="ssr:date" v="2016-05-11" />
		<tag k="ssr:gruppe" v="gardsbebyggelse" />
		<tag k="ssr:hovedgruppe" v="bebyggelse" />
		<tag k="ssr:stedsnr" v="791439" />
		<tag k="ssr:type" v="bruk" />
	</node>
	<node id="-19305" lat="59.3231583345" lon="10.7627472305">
		<tag k="name" v="Fuglevik" />
		<tag k="place" v="hamlet" />
		<tag k="ssr:date" v="2016-05-11" />
		<tag k="ssr:gruppe" v="bebyggelsesområder" />
		<tag k="ssr:hovedgruppe" v="bebyggelse" />
		<tag k="ssr:stedsnr" v="791426" />
		<tag k="ssr:type" v="grend" />
	</node>
	<node id="-19304" lat="59.3083833335" lon="10.8723750023">
		<tag k="alt_name" v="Kil østre" />
		<tag k="name" v="Østre Kil" />
		<tag k="place" v="farm" />
		<tag k="ssr:date" v="2016-05-11" />
		<tag k="ssr:gruppe" v="gardsbebyggelse" />
		<tag k="ssr:hovedgruppe" v="bebyggelse" />
		<tag k="ssr:stedsnr" v="791392" />
		<tag k="ssr:type" v="bruk" />
	</node>
	<node id="-19303" lat="59.4021083378" lon="10.8861638811">
		<tag k="name" v="Burumøya" />
		<tag k="place" v="island" />
		<tag k="ssr:date" v="2016-05-11" />
		<tag k="ssr:gruppe" v="ferskvannskontur" />
		<tag k="ssr:hovedgruppe" v="ferskvann" />
		<tag k="ssr:stedsnr" v="791298" />
		<tag k="ssr:type" v="øy" />
	</node>
	<node id="-19302" lat="59.3637888934" lon="10.777527771">
		<tag k="name" v="Solberghøgda" />
		<tag k="place" v="locality" />
		<tag k="ssr:date" v="2016-05-11" />
		<tag k="ssr:gruppe" v="kulturminner" />
		<tag k="ssr:hovedgruppe" v="kultur" />
		<tag k="ssr:stedsnr" v="791271" />
		<tag k="ssr:type" v="annenKulturdetalj" />
	</node>
	<node id="-19301" lat="59.3600194402" lon="10.8535111106">
		<tag k="name" v="Burumbråten" />
		<tag k="place" v="farm" />
		<tag k="ssr:date" v="2016-05-11" />
		<tag k="ssr:gruppe" v="gardsbebyggelse" />
		<tag k="ssr:hovedgruppe" v="bebyggelse" />
		<tag k="ssr:stedsnr" v="791260" />
		<tag k="ssr:type" v="bruk" />
	</node>
	<node id="-19300" lat="59.3565500041" lon="10.8338277841">
		<tag k="alt_name" v="Jonstein" />
		<tag k="name" v="Jonsten" />
		<tag k="place" v="farm" />
		<tag k="ssr:date" v="2016-05-11" />
		<tag k="ssr:gruppe" v="gardsbebyggelse" />
		<tag k="ssr:hovedgruppe" v="bebyggelse" />
		<tag k="ssr:stedsnr" v="791259" />
		<tag k="ssr:type" v="bruk" />
	</node>
	<node id="-19299" lat="59.3173972228" lon="10.9216749976">
		<tag k="name" v="Hovland" />
		<tag k="place" v="farm" />
		<tag k="ssr:date" v="2016-05-11" />
		<tag k="ssr:gruppe" v="gardsbebyggelse" />
		<tag k="ssr:hovedgruppe" v="bebyggelse" />
		<tag k="ssr:stedsnr" v="786773" />
		<tag k="ssr:type" v="bruk" />
	</node>
	<node id="-19298" lat="59.3833861091" lon="10.8398916624">
		<tag k="name" v="Moskjærene" />
		<tag k="place" v="islet" />
		<tag k="ssr:date" v="2016-05-11" />
		<tag k="ssr:gruppe" v="grunnerIFerskvann" />
		<tag k="ssr:hovedgruppe" v="ferskvann" />
		<tag k="ssr:stedsnr" v="786600" />
		<tag k="ssr:type" v="skjær" />
	</node>
	<node id="-19297" lat="59.3518055559" lon="10.8359333265">
		<tag k="name" v="Elvestad" />
		<tag k="place" v="farm" />
		<tag k="ssr:date" v="2016-05-11" />
		<tag k="ssr:gruppe" v="gardsbebyggelse" />
		<tag k="ssr:hovedgruppe" v="bebyggelse" />
		<tag k="ssr:stedsnr" v="786382" />
		<tag k="ssr:type" v="bruk" />
	</node>
	<node id="-19296" lat="59.3479500002" lon="10.8444111198">
		<tag k="name" v="Kjellerød" />
		<tag k="place" v="farm" />
		<tag k="ssr:date" v="2016-05-11" />
		<tag k="ssr:gruppe" v="gardsbebyggelse" />
		<tag k="ssr:hovedgruppe" v="bebyggelse" />
		<tag k="ssr:stedsnr" v="786380" />
		<tag k="ssr:type" v="bruk" />
	</node>
	<node id="-19295" lat="59.3389500028" lon="10.8438194483">
		<tag k="name" v="Årneberghølen" />
		<tag k="ssr:date" v="2016-05-11" />
		<tag k="ssr:gruppe" v="rennendeVann" />
		<tag k="ssr:hovedgruppe" v="ferskvann" />
		<tag k="ssr:stedsnr" v="786352" />
		<tag k="ssr:type" v="bekk" />
		<tag k="waterway" v="stream" />
	</node>
	<node id="-19294" lat="59.3407750018" lon="10.9231361155">
		<tag k="name" v="Borgedalen" />
		<tag k="place" v="farm" />
		<tag k="ssr:date" v="2016-05-11" />
		<tag k="ssr:gruppe" v="gardsbebyggelse" />
		<tag k="ssr:hovedgruppe" v="bebyggelse" />
		<tag k="ssr:stedsnr" v="786199" />
		<tag k="ssr:type" v="bruk" />
	</node>
	<node id="-19293" lat="59.3802777767" lon="10.8225777852">
		<tag k="name" v="Storedøvik" />
		<tag k="natural" v="bay" />
		<tag k="ssr:date" v="2016-05-11" />
		<tag k="ssr:gruppe" v="ferskvannskontur" />
		<tag k="ssr:hovedgruppe" v="ferskvann" />
		<tag k="ssr:stedsnr" v="784893" />
		<tag k="ssr:type" v="vik" />
	</node>
	<node id="-19292" lat="59.3367527754" lon="10.8017666713">
		<tag k="alt_name" v="Aker vestre" />
		<tag k="name" v="Vestre Aker" />
		<tag k="place" v="farm" />
		<tag k="ssr:date" v="2016-05-11" />
		<tag k="ssr:gruppe" v="gardsbebyggelse" />
		<tag k="ssr:hovedgruppe" v="bebyggelse" />
		<tag k="ssr:stedsnr" v="784543" />
		<tag k="ssr:type" v="bruk" />
	</node>
	<node id="-19291" lat="59.2965638854" lon="10.6653694401">
		<tag k="name" v="Vesle Sletter" />
		<tag k="natural" v="cape" />
		<tag k="ssr:date" v="2016-05-11" />
		<tag k="ssr:gruppe" v="kystkontur" />
		<tag k="ssr:hovedgruppe" v="sjø" />
		<tag k="ssr:stedsnr" v="754250" />
		<tag k="ssr:type" v="nesISjø" />
	</node>
	<node id="-19290" lat="59.3138138916" lon="10.8798472153">
		<tag k="name" v="Holtet" />
		<tag k="place" v="farm" />
		<tag k="ssr:date" v="2016-05-11" />
		<tag k="ssr:gruppe" v="gardsbebyggelse" />
		<tag k="ssr:hovedgruppe" v="bebyggelse" />
		<tag k="ssr:stedsnr" v="752769" />
		<tag k="ssr:type" v="bruk" />
	</node>
	<node id="-19289" lat="59.3242111132" lon="10.8726694433">
		<tag k="alt_name" v="Berg;Berg østre" />
		<tag k="name" v="Østre Berg" />
		<tag k="place" v="farm" />
		<tag k="ssr:date" v="2016-05-11" />
		<tag k="ssr:gruppe" v="gardsbebyggelse" />
		<tag k="ssr:hovedgruppe" v="bebyggelse" />
		<tag k="ssr:stedsnr" v="731396" />
		<tag k="ssr:type" v="bruk" />
	</node>
	<node id="-19288" lat="59.3726805581" lon="10.8282250058">
		<tag k="name" v="Engene" />
		<tag k="place" v="farm" />
		<tag k="ssr:date" v="2016-05-11" />
		<tag k="ssr:gruppe" v="gardsbebyggelse" />
		<tag k="ssr:hovedgruppe" v="bebyggelse" />
		<tag k="ssr:stedsnr" v="731234" />
		<tag k="ssr:type" v="bruk" />
	</node>
	<node id="-19287" lat="59.3680194459" lon="10.9238666607">
		<tag k="alt_name" v="Knappervika" />
		<tag k="name" v="Knapperviken" />
		<tag k="place" v="farm" />
		<tag k="ssr:date" v="2016-05-11" />
		<tag k="ssr:gruppe" v="gardsbebyggelse" />
		<tag k="ssr:hovedgruppe" v="bebyggelse" />
		<tag k="ssr:stedsnr" v="731215" />
		<tag k="ssr:type" v="bruk" />
	</node>
	<node id="-19286" lat="59.3489333307" lon="10.9273416657">
		<tag k="alt_name" v="Branndalen" />
		<tag k="name" v="Branddalen" />
		<tag k="place" v="farm" />
		<tag k="ssr:date" v="2016-05-11" />
		<tag k="ssr:gruppe" v="gardsbebyggelse" />
		<tag k="ssr:hovedgruppe" v="bebyggelse" />
		<tag k="ssr:stedsnr" v="730527" />
		<tag k="ssr:type" v="bruk" />
	</node>
	<node id="-19285" lat="59.3405805534" lon="10.9399000012">
		<tag k="name" v="Åkebergrød" />
		<tag k="place" v="farm" />
		<tag k="ssr:date" v="2016-05-11" />
		<tag k="ssr:gruppe" v="gardsbebyggelse" />
		<tag k="ssr:hovedgruppe" v="bebyggelse" />
		<tag k="ssr:stedsnr" v="730506" />
		<tag k="ssr:type" v="bruk" />
	</node>
	<node id="-19284" lat="59.3386416662" lon="10.9119027841">
		<tag k="name" v="Hauger" />
		<tag k="place" v="farm" />
		<tag k="ssr:date" v="2016-05-11" />
		<tag k="ssr:gruppe" v="gardsbebyggelse" />
		<tag k="ssr:hovedgruppe" v="bebyggelse" />
		<tag k="ssr:stedsnr" v="730503" />
		<tag k="ssr:type" v="bruk" />
	</node>
	<node id="-19283" lat="59.3357722207" lon="10.7913777848">
		<tag k="name" v="Meum" />
		<tag k="place" v="farm" />
		<tag k="ssr:date" v="2016-05-11" />
		<tag k="ssr:gruppe" v="gardsbebyggelse" />
		<tag k="ssr:hovedgruppe" v="bebyggelse" />
		<tag k="ssr:stedsnr" v="730498" />
		<tag k="ssr:type" v="bruk" />
	</node>
	<node id="-19282" lat="59.3320374338" lon="10.8738196191">
		<tag k="fixme" v="consider place=hamlet" />
		<tag k="name" v="Augeberg" />
		<tag k="place" v="farm" />
		<tag k="ssr:date" v="2019-03-12" />
		<tag k="ssr:gruppe" v="gardsbebyggelse" />
		<tag k="ssr:hovedgruppe" v="bebyggelse" />
		<tag k="ssr:stedsnr" v="730486" />
		<tag k="ssr:type" v="gard" />
	</node>
	<node id="-19281" lat="59.3880083331" lon="10.9000083323">
		<tag k="name" v="Henestangen" />
		<tag k="natural" v="cape" />
		<tag k="ssr:date" v="2016-05-11" />
		<tag k="ssr:gruppe" v="ferskvannskontur" />
		<tag k="ssr:hovedgruppe" v="ferskvann" />
		<tag k="ssr:stedsnr" v="730301" />
		<tag k="ssr:type" v="nes" />
	</node>
	<node id="-19280" lat="59.3353472251" lon="10.9390388933">
		<tag k="name" v="Gyllerås" />
		<tag k="place" v="isolated_dwelling" />
		<tag k="ssr:date" v="2016-05-11" />
		<tag k="ssr:gruppe" v="bolighus" />
		<tag k="ssr:hovedgruppe" v="bebyggelse" />
		<tag k="ssr:stedsnr" v="725747" />
		<tag k="ssr:type" v="eneboligMindreBoligbygg" />
	</node>
	<node id="-19279" lat="59.3361138871" lon="10.9359166602">
		<tag k="name" v="Åkeberg" />
		<tag k="place" v="farm" />
		<tag k="ssr:date" v="2016-05-11" />
		<tag k="ssr:gruppe" v="gardsbebyggelse" />
		<tag k="ssr:hovedgruppe" v="bebyggelse" />
		<tag k="ssr:stedsnr" v="725740" />
		<tag k="ssr:type" v="bruk" />
	</node>
	<node id="-19278" lat="59.3204333339" lon="10.9131111165">
		<tag k="alt_name" v="Tofteberg østre" />
		<tag k="name" v="Østre Tofteberg" />
		<tag k="place" v="farm" />
		<tag k="ssr:date" v="2016-05-11" />
		<tag k="ssr:gruppe" v="gardsbebyggelse" />
		<tag k="ssr:hovedgruppe" v="bebyggelse" />
		<tag k="ssr:stedsnr" v="725739" />
		<tag k="ssr:type" v="bruk" />
	</node>
	<node id="-19277" lat="59.3508833352" lon="10.9003305572">
		<tag k="name" v="Nordby" />
		<tag k="place" v="isolated_dwelling" />
		<tag k="ssr:date" v="2016-05-11" />
		<tag k="ssr:gruppe" v="bolighus" />
		<tag k="ssr:hovedgruppe" v="bebyggelse" />
		<tag k="ssr:stedsnr" v="725346" />
		<tag k="ssr:type" v="eneboligMindreBoligbygg" />
	</node>
	<node id="-19276" lat="59.3359416666" lon="10.8783277707">
		<tag k="alt_name" v="Auberghølen" />
		<tag k="name" v="Augeberghølen" />
		<tag k="natural" v="water" />
		<tag k="ssr:date" v="2016-05-11" />
		<tag k="ssr:gruppe" v="stilleståendeVann" />
		<tag k="ssr:hovedgruppe" v="ferskvann" />
		<tag k="ssr:stedsnr" v="725343" />
		<tag k="ssr:type" v="tjern" />
	</node>
	<node id="-19275" lat="59.363172223" lon="10.8854611071">
		<tag k="name" v="Karlshusbunn" />
		<tag k="natural" v="bay" />
		<tag k="ssr:date" v="2016-05-11" />
		<tag k="ssr:gruppe" v="ferskvannskontur" />
		<tag k="ssr:hovedgruppe" v="ferskvann" />
		<tag k="ssr:stedsnr" v="725249" />
		<tag k="ssr:type" v="vik" />
	</node>
	<node id="-19274" lat="59.3038749986" lon="10.7724166583">
		<tag k="name" v="Agnes" />
		<tag k="place" v="farm" />
		<tag k="ssr:date" v="2016-05-11" />
		<tag k="ssr:gruppe" v="gardsbebyggelse" />
		<tag k="ssr:hovedgruppe" v="bebyggelse" />
		<tag k="ssr:stedsnr" v="725191" />
		<tag k="ssr:type" v="bruk" />
	</node>
	<node id="-19273" lat="59.2999694419" lon="10.9157555545">
		<tag k="name" v="Bjørndalen" />
		<tag k="natural" v="valley" />
		<tag k="place" v="locality" />
		<tag k="ssr:date" v="2016-05-11" />
		<tag k="ssr:gruppe" v="senkninger" />
		<tag k="ssr:hovedgruppe" v="terreng" />
		<tag k="ssr:stedsnr" v="724943" />
		<tag k="ssr:type" v="dal" />
	</node>
	<node id="-19272" lat="59.3853583327" lon="10.8099972275">
		<tag k="fixme" v="consider natural=peak for the most distinct mountains in the district" />
		<tag k="name" v="Fugleleiken" />
		<tag k="natural" v="hill" />
		<tag k="place" v="locality" />
		<tag k="ssr:date" v="2016-05-11" />
		<tag k="ssr:gruppe" v="høyder" />
		<tag k="ssr:hovedgruppe" v="terreng" />
		<tag k="ssr:stedsnr" v="724902" />
		<tag k="ssr:type" v="ås" />
	</node>
	<node id="-19271" lat="59.3621444425" lon="10.7856055597">
		<tag k="name" v="Sandakerhuset" />
		<tag k="place" v="farm" />
		<tag k="ssr:date" v="2016-05-11" />
		<tag k="ssr:gruppe" v="gardsbebyggelse" />
		<tag k="ssr:hovedgruppe" v="bebyggelse" />
		<tag k="ssr:stedsnr" v="724896" />
		<tag k="ssr:type" v="bruk" />
	</node>
	<node id="-19270" lat="59.3660999994" lon="10.9661861127">
		<tag k="bridge" v="yes" />
		<tag k="layer" v="1" />
		<tag k="name" v="Fennsbekk" />
		<tag k="ssr:date" v="2016-05-11" />
		<tag k="ssr:gruppe" v="samferdselsanlegg" />
		<tag k="ssr:hovedgruppe" v="infrastruktur" />
		<tag k="ssr:stedsnr" v="713521" />
		<tag k="ssr:type" v="bru" />
	</node>
	<node id="-19269" lat="59.346461112" lon="10.8703055521">
		<tag k="bridge" v="yes" />
		<tag k="layer" v="1" />
		<tag k="name" v="Strømshaug" />
		<tag k="ssr:date" v="2016-05-11" />
		<tag k="ssr:gruppe" v="samferdselsanlegg" />
		<tag k="ssr:hovedgruppe" v="infrastruktur" />
		<tag k="ssr:stedsnr" v="713443" />
		<tag k="ssr:type" v="bru" />
	</node>
	<node id="-19268" lat="59.3397916675" lon="10.9320500031">
		<tag k="bridge" v="yes" />
		<tag k="layer" v="1" />
		<tag k="name" v="Åkeberg" />
		<tag k="ssr:date" v="2016-05-11" />
		<tag k="ssr:gruppe" v="samferdselsanlegg" />
		<tag k="ssr:hovedgruppe" v="infrastruktur" />
		<tag k="ssr:stedsnr" v="713441" />
		<tag k="ssr:type" v="bru" />
	</node>
	<node id="-19267" lat="59.3063472264" lon="10.7378416742">
		<tag k="fixme" v="consider seamark:type=rock or natural=shoal" />
		<tag k="name" v="Raskjæret" />
		<tag k="place" v="islet" />
		<tag k="ssr:date" v="2016-05-11" />
		<tag k="ssr:gruppe" v="grunnerISjø" />
		<tag k="ssr:hovedgruppe" v="sjø" />
		<tag k="ssr:stedsnr" v="695768" />
		<tag k="ssr:type" v="skjærISjø" />
	</node>
	<node id="-19266" lat="59.327297222" lon="10.8388277742">
		<tag k="name" v="Nøysom" />
		<tag k="place" v="farm" />
		<tag k="ssr:date" v="2016-05-10" />
		<tag k="ssr:gruppe" v="gardsbebyggelse" />
		<tag k="ssr:hovedgruppe" v="bebyggelse" />
		<tag k="ssr:stedsnr" v="670444" />
		<tag k="ssr:type" v="bruk" />
	</node>
	<node id="-19265" lat="59.3131773188" lon="10.909406553">
		<tag k="name" v="Reklingsholm" />
		<tag k="place" v="hamlet" />
		<tag k="ssr:date" v="2019-05-16" />
		<tag k="ssr:gruppe" v="gardsbebyggelse" />
		<tag k="ssr:hovedgruppe" v="bebyggelse" />
		<tag k="ssr:stedsnr" v="670425" />
		<tag k="ssr:type" v="navnegard" />
	</node>
	<node id="-19264" lat="59.3159333367" lon="10.7952111163">
		<tag k="fixme" v="consider place=hamlet" />
		<tag k="name" v="Hestevoll" />
		<tag k="place" v="farm" />
		<tag k="ssr:date" v="2017-11-06" />
		<tag k="ssr:gruppe" v="gardsbebyggelse" />
		<tag k="ssr:hovedgruppe" v="bebyggelse" />
		<tag k="ssr:stedsnr" v="670424" />
		<tag k="ssr:type" v="gard" />
	</node>
	<node id="-19263" lat="59.3144361075" lon="10.7511583262">
		<tag k="alt_name" v="Åvensund" />
		<tag k="name" v="Åvensundet" />
		<tag k="natural" v="bay" />
		<tag k="ssr:date" v="2016-05-10" />
		<tag k="ssr:gruppe" v="kystkontur" />
		<tag k="ssr:hovedgruppe" v="sjø" />
		<tag k="ssr:stedsnr" v="670400" />
		<tag k="ssr:type" v="vikISjø" />
	</node>
	<node id="-19262" lat="59.375969448" lon="10.9018027865">
		<tag k="name" v="Kilen" />
		<tag k="place" v="farm" />
		<tag k="ssr:date" v="2016-05-10" />
		<tag k="ssr:gruppe" v="gardsbebyggelse" />
		<tag k="ssr:hovedgruppe" v="bebyggelse" />
		<tag k="ssr:stedsnr" v="670280" />
		<tag k="ssr:type" v="bruk" />
	</node>
	<node id="-19261" lat="59.3650805595" lon="10.9552527773">
		<tag k="alt_name" v="Harehaugen" />
		<tag k="name" v="Harahaugen" />
		<tag k="place" v="farm" />
		<tag k="ssr:date" v="2016-05-10" />
		<tag k="ssr:gruppe" v="gardsbebyggelse" />
		<tag k="ssr:hovedgruppe" v="bebyggelse" />
		<tag k="ssr:stedsnr" v="670257" />
		<tag k="ssr:type" v="bruk" />
	</node>
	<node id="-19260" lat="59.3496611091" lon="10.8876249951">
		<tag k="name" v="Raet" />
		<tag k="place" v="farm" />
		<tag k="ssr:date" v="2016-05-10" />
		<tag k="ssr:gruppe" v="gardsbebyggelse" />
		<tag k="ssr:hovedgruppe" v="bebyggelse" />
		<tag k="ssr:stedsnr" v="669514" />
		<tag k="ssr:type" v="bruk" />
	</node>
	<node id="-19259" lat="59.3383555556" lon="10.8406222222">
		<tag k="alt_name" v="Årneberg" />
		<tag k="name" v="Arneberg" />
		<tag k="place" v="farm" />
		<tag k="ssr:date" v="2016-05-10" />
		<tag k="ssr:gruppe" v="gardsbebyggelse" />
		<tag k="ssr:hovedgruppe" v="bebyggelse" />
		<tag k="ssr:stedsnr" v="669497" />
		<tag k="ssr:type" v="bruk" />
	</node>
	<node id="-19258" lat="59.3054666675" lon="10.8105249976">
		<tag k="name" v="Solbakken" />
		<tag k="place" v="farm" />
		<tag k="ssr:date" v="2016-05-10" />
		<tag k="ssr:gruppe" v="gardsbebyggelse" />
		<tag k="ssr:hovedgruppe" v="bebyggelse" />
		<tag k="ssr:stedsnr" v="669428" />
		<tag k="ssr:type" v="bruk" />
	</node>
	<node id="-19257" lat="59.30762778" lon="10.8667666691">
		<tag k="alt_name" v="Kil midtre;Kil mellem" />
		<tag k="name" v="Midtre Kil" />
		<tag k="place" v="farm" />
		<tag k="ssr:date" v="2016-05-10" />
		<tag k="ssr:gruppe" v="gardsbebyggelse" />
		<tag k="ssr:hovedgruppe" v="bebyggelse" />
		<tag k="ssr:stedsnr" v="669425" />
		<tag k="ssr:type" v="bruk" />
	</node>
	<node id="-19256" lat="59.2940499961" lon="10.7925833353">
		<tag k="name" v="Røtne" />
		<tag k="place" v="farm" />
		<tag k="ssr:date" v="2016-05-10" />
		<tag k="ssr:gruppe" v="gardsbebyggelse" />
		<tag k="ssr:hovedgruppe" v="bebyggelse" />
		<tag k="ssr:stedsnr" v="669389" />
		<tag k="ssr:type" v="bruk" />
	</node>
	<node id="-19255" lat="59.3592027748" lon="10.8521472213">
		<tag k="name" v="Ringstad" />
		<tag k="place" v="farm" />
		<tag k="ssr:date" v="2016-05-10" />
		<tag k="ssr:gruppe" v="gardsbebyggelse" />
		<tag k="ssr:hovedgruppe" v="bebyggelse" />
		<tag k="ssr:stedsnr" v="669240" />
		<tag k="ssr:type" v="bruk" />
	</node>
	<node id="-19254" lat="59.3203999963" lon="10.8150083261">
		<tag k="fixme" v="consider place=hamlet" />
		<tag k="name" v="Tom" />
		<tag k="place" v="farm" />
		<tag k="ssr:date" v="2016-05-10" />
		<tag k="ssr:gruppe" v="gardsbebyggelse" />
		<tag k="ssr:hovedgruppe" v="bebyggelse" />
		<tag k="ssr:stedsnr" v="665296" />
		<tag k="ssr:type" v="gard" />
	</node>
	<node id="-19253" lat="59.3714195561" lon="10.8954222883">
		<tag k="name" v="Heneskilen" />
		<tag k="natural" v="bay" />
		<tag k="ssr:date" v="2019-04-17" />
		<tag k="ssr:gruppe" v="ferskvannskontur" />
		<tag k="ssr:hovedgruppe" v="ferskvann" />
		<tag k="ssr:stedsnr" v="664561" />
		<tag k="ssr:type" v="vik" />
	</node>
	<node id="-19252" lat="59.4012055537" lon="10.8784861118">
		<tag k="name" v="Slottsholmen" />
		<tag k="place" v="islet" />
		<tag k="ssr:date" v="2016-05-10" />
		<tag k="ssr:gruppe" v="ferskvannskontur" />
		<tag k="ssr:hovedgruppe" v="ferskvann" />
		<tag k="ssr:stedsnr" v="664551" />
		<tag k="ssr:type" v="holme" />
	</node>
	<node id="-19251" lat="59.370072224" lon="10.9560861062">
		<tag k="name" v="Slangsvoll" />
		<tag k="place" v="farm" />
		<tag k="ssr:date" v="2016-05-10" />
		<tag k="ssr:gruppe" v="gardsbebyggelse" />
		<tag k="ssr:hovedgruppe" v="bebyggelse" />
		<tag k="ssr:stedsnr" v="664542" />
		<tag k="ssr:type" v="bruk" />
	</node>
	<node id="-19250" lat="59.3550491544" lon="10.9356279974">
		<tag k="fixme" v="consider natural=peak for the most distinct mountains in the district" />
		<tag k="name" v="Ridefjell" />
		<tag k="natural" v="hill" />
		<tag k="place" v="locality" />
		<tag k="ssr:date" v="2019-02-14" />
		<tag k="ssr:gruppe" v="høyder" />
		<tag k="ssr:hovedgruppe" v="terreng" />
		<tag k="ssr:stedsnr" v="664227" />
		<tag k="ssr:type" v="ås" />
	</node>
	<node id="-19249" lat="59.3660472232" lon="10.8515527861">
		<tag k="name" v="Lundsholmen" />
		<tag k="place" v="islet" />
		<tag k="ssr:date" v="2016-05-10" />
		<tag k="ssr:gruppe" v="ferskvannskontur" />
		<tag k="ssr:hovedgruppe" v="ferskvann" />
		<tag k="ssr:stedsnr" v="664224" />
		<tag k="ssr:type" v="holme" />
	</node>
	<node id="-19248" lat="59.3504694439" lon="10.7932944529">
		<tag k="name" v="Røstad" />
		<tag k="place" v="farm" />
		<tag k="ssr:date" v="2016-05-10" />
		<tag k="ssr:gruppe" v="gardsbebyggelse" />
		<tag k="ssr:hovedgruppe" v="bebyggelse" />
		<tag k="ssr:stedsnr" v="663929" />
		<tag k="ssr:type" v="bruk" />
	</node>
	<node id="-19247" lat="59.3435416637" lon="10.799980561">
		<tag k="alt_name" v="Norum nordre" />
		<tag k="name" v="Nordre Norum" />
		<tag k="place" v="farm" />
		<tag k="ssr:date" v="2016-05-10" />
		<tag k="ssr:gruppe" v="gardsbebyggelse" />
		<tag k="ssr:hovedgruppe" v="bebyggelse" />
		<tag k="ssr:stedsnr" v="663916" />
		<tag k="ssr:type" v="bruk" />
	</node>
	<node id="-19246" lat="59.3015944435" lon="10.8428861031">
		<tag k="name" v="Dammyr" />
		<tag k="natural" v="wetland" />
		<tag k="ssr:date" v="2016-05-10" />
		<tag k="ssr:gruppe" v="våtmark" />
		<tag k="ssr:hovedgruppe" v="markslag" />
		<tag k="ssr:stedsnr" v="663902" />
		<tag k="ssr:type" v="myr" />
	</node>
	<node id="-19245" lat="59.3781805535" lon="10.8217611177">
		<tag k="name" v="Lilledøvik" />
		<tag k="natural" v="bay" />
		<tag k="ssr:date" v="2016-05-10" />
		<tag k="ssr:gruppe" v="ferskvannskontur" />
		<tag k="ssr:hovedgruppe" v="ferskvann" />
		<tag k="ssr:stedsnr" v="663892" />
		<tag k="ssr:type" v="vik" />
	</node>
	<node id="-19244" lat="59.3684249962" lon="10.799663893">
		<tag k="name" v="Løkenbråten" />
		<tag k="place" v="farm" />
		<tag k="ssr:date" v="2016-05-10" />
		<tag k="ssr:gruppe" v="gardsbebyggelse" />
		<tag k="ssr:hovedgruppe" v="bebyggelse" />
		<tag k="ssr:stedsnr" v="663890" />
		<tag k="ssr:type" v="bruk" />
	</node>
	<node id="-19243" lat="59.3349277816" lon="10.8063638936">
		<tag k="name" v="Haga" />
		<tag k="place" v="isolated_dwelling" />
		<tag k="ssr:date" v="2016-05-10" />
		<tag k="ssr:gruppe" v="bolighus" />
		<tag k="ssr:hovedgruppe" v="bebyggelse" />
		<tag k="ssr:stedsnr" v="663493" />
		<tag k="ssr:type" v="eneboligMindreBoligbygg" />
	</node>
	<node id="-19242" lat="59.3474916704" lon="10.9209638872">
		<tag k="alt_name" v="Bråten" />
		<tag k="name" v="Borgebråten" />
		<tag k="old_name" v="Braaten" />
		<tag k="place" v="farm" />
		<tag k="ssr:date" v="2018-02-08" />
		<tag k="ssr:gruppe" v="gardsbebyggelse" />
		<tag k="ssr:hovedgruppe" v="bebyggelse" />
		<tag k="ssr:stedsnr" v="660082" />
		<tag k="ssr:type" v="bruk" />
	</node>
	<node id="-19241" lat="59.3451027762" lon="10.9247777775">
		<tag k="bridge" v="yes" />
		<tag k="layer" v="1" />
		<tag k="name" v="Åsgårdkrysset" />
		<tag k="ssr:date" v="2016-05-10" />
		<tag k="ssr:gruppe" v="samferdselsanlegg" />
		<tag k="ssr:hovedgruppe" v="infrastruktur" />
		<tag k="ssr:stedsnr" v="652412" />
		<tag k="ssr:type" v="bru" />
	</node>
	<node id="-19240" lat="59.313347219" lon="10.7297694446">
		<tag k="alt_name" v="Kokholmsundet" />
		<tag k="name" v="Kokholmsund" />
		<tag k="natural" v="strait" />
		<tag k="ssr:date" v="2016-05-10" />
		<tag k="ssr:gruppe" v="kystkontur" />
		<tag k="ssr:hovedgruppe" v="sjø" />
		<tag k="ssr:stedsnr" v="634892" />
		<tag k="ssr:type" v="sundISjø" />
	</node>
	<node id="-19239" lat="59.3045388856" lon="10.7320527794">
		<tag k="fixme" v="consider seamark:type=rock or natural=shoal" />
		<tag k="name" v="Stongeskjær" />
		<tag k="place" v="islet" />
		<tag k="ssr:date" v="2016-05-10" />
		<tag k="ssr:gruppe" v="grunnerISjø" />
		<tag k="ssr:hovedgruppe" v="sjø" />
		<tag k="ssr:stedsnr" v="634818" />
		<tag k="ssr:type" v="skjærISjø" />
	</node>
	<node id="-19238" lat="59.2769638873" lon="10.6753138965">
		<tag k="name" v="Slettertangen" />
		<tag k="natural" v="cape" />
		<tag k="ssr:date" v="2016-05-10" />
		<tag k="ssr:gruppe" v="kystkontur" />
		<tag k="ssr:hovedgruppe" v="sjø" />
		<tag k="ssr:stedsnr" v="631880" />
		<tag k="ssr:type" v="nesISjø" />
	</node>
	<node id="-19237" lat="59.3006805569" lon="10.7156583416">
		<tag k="fixme" v="consider seamark:type=rock or natural=shoal" />
		<tag k="name" v="Åvenskjær" />
		<tag k="place" v="islet" />
		<tag k="ssr:date" v="2016-05-10" />
		<tag k="ssr:gruppe" v="grunnerISjø" />
		<tag k="ssr:hovedgruppe" v="sjø" />
		<tag k="ssr:stedsnr" v="631783" />
		<tag k="ssr:type" v="skjærISjø" />
	</node>
	<node id="-19236" lat="59.3397499964" lon="10.7470638968">
		<tag k="name" v="Grågåstangen" />
		<tag k="natural" v="cape" />
		<tag k="ssr:date" v="2016-05-10" />
		<tag k="ssr:gruppe" v="kystkontur" />
		<tag k="ssr:hovedgruppe" v="sjø" />
		<tag k="ssr:stedsnr" v="631777" />
		<tag k="ssr:type" v="nesISjø" />
	</node>
	<node id="-19235" lat="59.3067944454" lon="10.7578499926">
		<tag k="name" v="Pampus" />
		<tag k="natural" v="shoal" />
		<tag k="place" v="locality" />
		<tag k="ssr:date" v="2016-05-10" />
		<tag k="ssr:gruppe" v="grunnerISjø" />
		<tag k="ssr:hovedgruppe" v="sjø" />
		<tag k="ssr:stedsnr" v="631776" />
		<tag k="ssr:type" v="grunneISjø" />
	</node>
	<node id="-19234" lat="59.2985527753" lon="10.7669222191">
		<tag k="name" v="Spetalen" />
		<tag k="place" v="village" />
		<tag k="ssr:date" v="2016-05-10" />
		<tag k="ssr:gruppe" v="bebyggelsesområder" />
		<tag k="ssr:hovedgruppe" v="bebyggelse" />
		<tag k="ssr:stedsnr" v="631201" />
		<tag k="ssr:type" v="tettsted" />
	</node>
	<node id="-19233" lat="59.3316916657" lon="10.826299996">
		<tag k="name" v="Kolbjørnrød" />
		<tag k="place" v="farm" />
		<tag k="ssr:date" v="2016-05-10" />
		<tag k="ssr:gruppe" v="gardsbebyggelse" />
		<tag k="ssr:hovedgruppe" v="bebyggelse" />
		<tag k="ssr:stedsnr" v="609440" />
		<tag k="ssr:type" v="bruk" />
	</node>
	<node id="-19232" lat="59.3167742584" lon="10.7663025337">
		<tag k="fixme" v="consider place=hamlet" />
		<tag k="name" v="Røstad" />
		<tag k="place" v="farm" />
		<tag k="ssr:date" v="2019-03-28" />
		<tag k="ssr:gruppe" v="gardsbebyggelse" />
		<tag k="ssr:hovedgruppe" v="bebyggelse" />
		<tag k="ssr:stedsnr" v="609419" />
		<tag k="ssr:type" v="gard" />
	</node>
	<node id="-19231" lat="59.2922305536" lon="10.9191472149">
		<tag k="alt_name" v="Kjelshus" />
		<tag k="name" v="Kjelshuset" />
		<tag k="place" v="isolated_dwelling" />
		<tag k="ssr:date" v="2016-05-10" />
		<tag k="ssr:gruppe" v="bolighus" />
		<tag k="ssr:hovedgruppe" v="bebyggelse" />
		<tag k="ssr:stedsnr" v="609386" />
		<tag k="ssr:type" v="eneboligMindreBoligbygg" />
	</node>
	<node id="-19230" lat="59.3900722262" lon="10.9503361153">
		<tag k="name" v="Danserfjella" />
		<tag k="natural" v="mountain_range" />
		<tag k="ssr:date" v="2016-11-29" />
		<tag k="ssr:gruppe" v="terrengområder" />
		<tag k="ssr:hovedgruppe" v="terreng" />
		<tag k="ssr:stedsnr" v="609292" />
		<tag k="ssr:type" v="fjellområde" />
	</node>
	<node id="-19229" lat="59.3458749958" lon="10.9528944468">
		<tag k="name" v="Mosatjernet" />
		<tag k="natural" v="water" />
		<tag k="ssr:date" v="2016-05-10" />
		<tag k="ssr:gruppe" v="stilleståendeVann" />
		<tag k="ssr:hovedgruppe" v="ferskvann" />
		<tag k="ssr:stedsnr" v="608531" />
		<tag k="ssr:type" v="tjern" />
	</node>
	<node id="-19228" lat="59.3473527805" lon="10.7873972303">
		<tag k="name" v="Heia" />
		<tag k="place" v="farm" />
		<tag k="ssr:date" v="2016-05-10" />
		<tag k="ssr:gruppe" v="gardsbebyggelse" />
		<tag k="ssr:hovedgruppe" v="bebyggelse" />
		<tag k="ssr:stedsnr" v="608512" />
		<tag k="ssr:type" v="bruk" />
	</node>
	<node id="-19227" lat="59.3376666702" lon="10.9499250028">
		<tag k="name" v="Sulerød" />
		<tag k="place" v="farm" />
		<tag k="ssr:date" v="2016-05-10" />
		<tag k="ssr:gruppe" v="gardsbebyggelse" />
		<tag k="ssr:hovedgruppe" v="bebyggelse" />
		<tag k="ssr:stedsnr" v="608508" />
		<tag k="ssr:type" v="bruk" />
	</node>
	<node id="-19226" lat="59.340255554" lon="10.7841222152">
		<tag k="alt_name" v="Brånan" />
		<tag k="name" v="Brånen" />
		<tag k="place" v="farm" />
		<tag k="ssr:date" v="2016-05-10" />
		<tag k="ssr:gruppe" v="gardsbebyggelse" />
		<tag k="ssr:hovedgruppe" v="bebyggelse" />
		<tag k="ssr:stedsnr" v="608501" />
		<tag k="ssr:type" v="bruk" />
	</node>
	<node id="-19225" lat="59.3401319225" lon="10.7804533498">
		<tag k="fixme" v="consider place=hamlet" />
		<tag k="name" v="Gammelsrød" />
		<tag k="place" v="farm" />
		<tag k="ssr:date" v="2019-03-12" />
		<tag k="ssr:gruppe" v="gardsbebyggelse" />
		<tag k="ssr:hovedgruppe" v="bebyggelse" />
		<tag k="ssr:stedsnr" v="608496" />
		<tag k="ssr:type" v="gard" />
	</node>
	<node id="-19224" lat="59.2977916687" lon="10.8323361125">
		<tag k="fixme" v="consider natural=peak for the most distinct mountains in the district" />
		<tag k="name" v="Rørfjell" />
		<tag k="natural" v="hill" />
		<tag k="place" v="locality" />
		<tag k="ssr:date" v="2016-05-10" />
		<tag k="ssr:gruppe" v="høyder" />
		<tag k="ssr:hovedgruppe" v="terreng" />
		<tag k="ssr:stedsnr" v="608406" />
		<tag k="ssr:type" v="ås" />
	</node>
	<node id="-19223" lat="59.2991833327" lon="10.7746472136">
		<tag k="name" v="Spetalen" />
		<tag k="place" v="farm" />
		<tag k="ssr:date" v="2016-05-10" />
		<tag k="ssr:gruppe" v="gardsbebyggelse" />
		<tag k="ssr:hovedgruppe" v="bebyggelse" />
		<tag k="ssr:stedsnr" v="608400" />
		<tag k="ssr:type" v="bruk" />
	</node>
	<node id="-19222" lat="59.3533638901" lon="10.9201833392">
		<tag k="name" v="Hukeberg" />
		<tag k="place" v="farm" />
		<tag k="ssr:date" v="2016-05-10" />
		<tag k="ssr:gruppe" v="gardsbebyggelse" />
		<tag k="ssr:hovedgruppe" v="bebyggelse" />
		<tag k="ssr:stedsnr" v="608236" />
		<tag k="ssr:type" v="bruk" />
	</node>
	<node id="-19221" lat="59.3157472228" lon="10.8564777772">
		<tag k="name" v="Hissingbydalen" />
		<tag k="place" v="locality" />
		<tag k="ssr:date" v="2016-05-10" />
		<tag k="ssr:gruppe" v="bolighus" />
		<tag k="ssr:hovedgruppe" v="bebyggelse" />
		<tag k="ssr:stedsnr" v="603815" />
		<tag k="ssr:type" v="gammelBosettingsplass" />
	</node>
	<node id="-19220" lat="59.3728666642" lon="10.9397888926">
		<tag k="name" v="Kloppermyra" />
		<tag k="natural" v="wetland" />
		<tag k="ssr:date" v="2016-05-10" />
		<tag k="ssr:gruppe" v="våtmark" />
		<tag k="ssr:hovedgruppe" v="markslag" />
		<tag k="ssr:stedsnr" v="603569" />
		<tag k="ssr:type" v="myr" />
	</node>
	<node id="-19219" lat="59.3603083306" lon="10.7903638849">
		<tag k="name" v="Stomner" />
		<tag k="place" v="farm" />
		<tag k="ssr:date" v="2016-05-10" />
		<tag k="ssr:gruppe" v="gardsbebyggelse" />
		<tag k="ssr:hovedgruppe" v="bebyggelse" />
		<tag k="ssr:stedsnr" v="602932" />
		<tag k="ssr:type" v="bruk" />
	</node>
	<node id="-19218" lat="59.3130111071" lon="10.907263889">
		<tag k="alt_name" v="Reklingsholm vestre" />
		<tag k="name" v="Vestre Reklingsholm" />
		<tag k="place" v="farm" />
		<tag k="ssr:date" v="2016-05-10" />
		<tag k="ssr:gruppe" v="gardsbebyggelse" />
		<tag k="ssr:hovedgruppe" v="bebyggelse" />
		<tag k="ssr:stedsnr" v="602890" />
		<tag k="ssr:type" v="bruk" />
	</node>
	<node id="-19217" lat="59.3125249996" lon="10.8751888919">
		<tag k="name" v="Revehaugen" />
		<tag k="natural" v="hill" />
		<tag k="place" v="locality" />
		<tag k="ssr:date" v="2016-05-10" />
		<tag k="ssr:gruppe" v="høyder" />
		<tag k="ssr:hovedgruppe" v="terreng" />
		<tag k="ssr:stedsnr" v="602886" />
		<tag k="ssr:type" v="haug" />
	</node>
	<node id="-19216" lat="59.2986055589" lon="10.8383499997">
		<tag k="name" v="Rørfjellmyr" />
		<tag k="natural" v="wetland" />
		<tag k="ssr:date" v="2016-05-10" />
		<tag k="ssr:gruppe" v="våtmark" />
		<tag k="ssr:hovedgruppe" v="markslag" />
		<tag k="ssr:stedsnr" v="602887" />
		<tag k="ssr:type" v="myr" />
	</node>
	<node id="-19215" lat="59.3697694475" lon="10.789508336">
		<tag k="name" v="Stomnerhuset" />
		<tag k="place" v="farm" />
		<tag k="ssr:date" v="2016-05-10" />
		<tag k="ssr:gruppe" v="gardsbebyggelse" />
		<tag k="ssr:hovedgruppe" v="bebyggelse" />
		<tag k="ssr:stedsnr" v="602871" />
		<tag k="ssr:type" v="bruk" />
	</node>
	<node id="-19214" lat="59.3361972257" lon="10.7462861049">
		<tag k="name" v="Badehuset" />
		<tag k="natural" v="cape" />
		<tag k="ssr:date" v="2016-05-10" />
		<tag k="ssr:gruppe" v="kystkontur" />
		<tag k="ssr:hovedgruppe" v="sjø" />
		<tag k="ssr:stedsnr" v="570758" />
		<tag k="ssr:type" v="nesISjø" />
	</node>
	<node id="-19213" lat="59.2655999991" lon="10.6260972182">
		<tag k="name" v="Bjørnen" />
		<tag k="natural" v="shoal" />
		<tag k="place" v="locality" />
		<tag k="ssr:date" v="2016-05-10" />
		<tag k="ssr:gruppe" v="grunnerISjø" />
		<tag k="ssr:hovedgruppe" v="sjø" />
		<tag k="ssr:stedsnr" v="549642" />
		<tag k="ssr:type" v="grunneISjø" />
	</node>
	<node id="-19211" lat="59.3365083353" lon="10.9280638867">
		<tag k="name" v="Missingen" />
		<tag k="place" v="farm" />
		<tag k="ssr:date" v="2016-05-10" />
		<tag k="ssr:gruppe" v="gardsbebyggelse" />
		<tag k="ssr:hovedgruppe" v="bebyggelse" />
		<tag k="ssr:stedsnr" v="548487" />
		<tag k="ssr:type" v="bruk" />
	</node>
	<node id="-19210" lat="59.3311472229" lon="10.8855500039">
		<tag k="name" v="Haugen" />
		<tag k="place" v="farm" />
		<tag k="ssr:date" v="2016-05-10" />
		<tag k="ssr:gruppe" v="gardsbebyggelse" />
		<tag k="ssr:hovedgruppe" v="bebyggelse" />
		<tag k="ssr:stedsnr" v="548468" />
		<tag k="ssr:type" v="bruk" />
	</node>
	<node id="-19209" lat="59.3174638898" lon="10.8560250014">
		<tag k="name" v="Vårli" />
		<tag k="place" v="isolated_dwelling" />
		<tag k="ssr:date" v="2016-05-10" />
		<tag k="ssr:gruppe" v="bolighus" />
		<tag k="ssr:hovedgruppe" v="bebyggelse" />
		<tag k="ssr:stedsnr" v="548457" />
		<tag k="ssr:type" v="eneboligMindreBoligbygg" />
	</node>
	<node id="-19208" lat="59.3119250007" lon="10.7349388957">
		<tag k="name" v="Åven" />
		<tag k="place" v="farm" />
		<tag k="ssr:date" v="2016-05-10" />
		<tag k="ssr:gruppe" v="gardsbebyggelse" />
		<tag k="ssr:hovedgruppe" v="bebyggelse" />
		<tag k="ssr:stedsnr" v="548443" />
		<tag k="ssr:type" v="bruk" />
	</node>
	<node id="-19207" lat="59.3236499971" lon="10.8982083378">
		<tag k="name" v="Solvang" />
		<tag k="place" v="farm" />
		<tag k="ssr:date" v="2016-05-10" />
		<tag k="ssr:gruppe" v="gardsbebyggelse" />
		<tag k="ssr:hovedgruppe" v="bebyggelse" />
		<tag k="ssr:stedsnr" v="548438" />
		<tag k="ssr:type" v="bruk" />
	</node>
	<node id="-19206" lat="59.3826250035" lon="10.9712472155">
		<tag k="alt_name" v="Slangsvold" />
		<tag k="name" v="Slangsvoll" />
		<tag k="place" v="farm" />
		<tag k="ssr:date" v="2016-05-10" />
		<tag k="ssr:gruppe" v="gardsbebyggelse" />
		<tag k="ssr:hovedgruppe" v="bebyggelse" />
		<tag k="ssr:stedsnr" v="548314" />
		<tag k="ssr:type" v="bruk" />
	</node>
	<node id="-19205" lat="59.3771916681" lon="10.8780722252">
		<tag k="alt_name" v="Øksenøya" />
		<tag k="name" v="Oksenøya" />
		<tag k="place" v="island" />
		<tag k="ssr:date" v="2016-05-10" />
		<tag k="ssr:gruppe" v="ferskvannskontur" />
		<tag k="ssr:hovedgruppe" v="ferskvann" />
		<tag k="ssr:stedsnr" v="548307" />
		<tag k="ssr:type" v="øy" />
	</node>
	<node id="-19204" lat="59.3786138856" lon="10.8582555496">
		<tag k="name" v="Brattholmen" />
		<tag k="place" v="islet" />
		<tag k="ssr:date" v="2016-05-10" />
		<tag k="ssr:gruppe" v="ferskvannskontur" />
		<tag k="ssr:hovedgruppe" v="ferskvann" />
		<tag k="ssr:stedsnr" v="548305" />
		<tag k="ssr:type" v="holme" />
	</node>
	<node id="-19203" lat="59.3739277819" lon="10.8038083254">
		<tag k="aeroway" v="aerodrome" />
		<tag k="alt_name" v="Rygge" />
		<tag k="name" v="Moss lufthavn, Rygge" />
		<tag k="ssr:date" v="2016-05-10" />
		<tag k="ssr:gruppe" v="luftfart" />
		<tag k="ssr:hovedgruppe" v="infrastruktur" />
		<tag k="ssr:stedsnr" v="548301" />
		<tag k="ssr:type" v="flyplass" />
	</node>
	<node id="-19202" lat="59.3581638859" lon="10.7763361162">
		<tag k="name" v="Solberg" />
		<tag k="place" v="farm" />
		<tag k="ssr:date" v="2016-05-10" />
		<tag k="ssr:gruppe" v="gardsbebyggelse" />
		<tag k="ssr:hovedgruppe" v="bebyggelse" />
		<tag k="ssr:stedsnr" v="548263" />
		<tag k="ssr:type" v="bruk" />
	</node>
	<node id="-19201" lat="59.361632347" lon="10.8933415361">
		<tag k="name" v="Bekken" />
		<tag k="place" v="farm" />
		<tag k="ssr:date" v="2019-01-31" />
		<tag k="ssr:gruppe" v="gardsbebyggelse" />
		<tag k="ssr:hovedgruppe" v="bebyggelse" />
		<tag k="ssr:stedsnr" v="548255" />
		<tag k="ssr:type" v="bruk" />
	</node>
	<node id="-19200" lat="59.3251972239" lon="10.8745888918">
		<tag k="alt_name" v="Musangen østre" />
		<tag k="name" v="Østre Musangen" />
		<tag k="place" v="farm" />
		<tag k="ssr:date" v="2016-05-10" />
		<tag k="ssr:gruppe" v="gardsbebyggelse" />
		<tag k="ssr:hovedgruppe" v="bebyggelse" />
		<tag k="ssr:stedsnr" v="543797" />
		<tag k="ssr:type" v="bruk" />
	</node>
	<node id="-19199" lat="59.3212138889" lon="10.9418194512">
		<tag k="name" v="Finstadbukta" />
		<tag k="natural" v="bay" />
		<tag k="ssr:date" v="2016-05-10" />
		<tag k="ssr:gruppe" v="ferskvannskontur" />
		<tag k="ssr:hovedgruppe" v="ferskvann" />
		<tag k="ssr:stedsnr" v="543755" />
		<tag k="ssr:type" v="vik" />
	</node>
	<node id="-19198" lat="59.354883336" lon="10.9434249919">
		<tag k="alt_name" v="Slangsvoll søndre" />
		<tag k="name" v="Søndre Slangsvoll" />
		<tag k="place" v="farm" />
		<tag k="ssr:date" v="2016-05-10" />
		<tag k="ssr:gruppe" v="gardsbebyggelse" />
		<tag k="ssr:hovedgruppe" v="bebyggelse" />
		<tag k="ssr:stedsnr" v="543588" />
		<tag k="ssr:type" v="bruk" />
	</node>
	<node id="-19197" lat="59.347488888" lon="10.8934583404">
		<tag k="name" v="Klokkergården" />
		<tag k="place" v="farm" />
		<tag k="ssr:date" v="2016-05-10" />
		<tag k="ssr:gruppe" v="gardsbebyggelse" />
		<tag k="ssr:hovedgruppe" v="bebyggelse" />
		<tag k="ssr:stedsnr" v="543398" />
		<tag k="ssr:type" v="bruk" />
	</node>
	<node id="-19196" lat="59.3574583361" lon="10.8567861065">
		<tag k="name" v="Burummyra" />
		<tag k="place" v="farm" />
		<tag k="ssr:date" v="2016-05-10" />
		<tag k="ssr:gruppe" v="gardsbebyggelse" />
		<tag k="ssr:hovedgruppe" v="bebyggelse" />
		<tag k="ssr:stedsnr" v="543276" />
		<tag k="ssr:type" v="bruk" />
	</node>
	<node id="-19195" lat="59.3768361091" lon="10.8318277802">
		<tag k="name" v="Haugstentangen" />
		<tag k="natural" v="cape" />
		<tag k="ssr:date" v="2016-05-10" />
		<tag k="ssr:gruppe" v="ferskvannskontur" />
		<tag k="ssr:hovedgruppe" v="ferskvann" />
		<tag k="ssr:stedsnr" v="543275" />
		<tag k="ssr:type" v="nes" />
	</node>
	<node id="-19194" lat="59.3611961997" lon="10.8242484243">
		<tag k="alt_name" v="Haugesten" />
		<tag k="fixme" v="consider place=hamlet" />
		<tag k="name" v="Øvre Haugsten" />
		<tag k="place" v="farm" />
		<tag k="ssr:date" v="2018-06-29" />
		<tag k="ssr:gruppe" v="gardsbebyggelse" />
		<tag k="ssr:hovedgruppe" v="bebyggelse" />
		<tag k="ssr:stedsnr" v="542944" />
		<tag k="ssr:type" v="gard" />
	</node>
	<node id="-19193" lat="59.3428666692" lon="10.8012805587">
		<tag k="alt_name" v="Norum søndre" />
		<tag k="name" v="Søndre Norum" />
		<tag k="place" v="farm" />
		<tag k="ssr:date" v="2016-05-10" />
		<tag k="ssr:gruppe" v="gardsbebyggelse" />
		<tag k="ssr:hovedgruppe" v="bebyggelse" />
		<tag k="ssr:stedsnr" v="542922" />
		<tag k="ssr:type" v="bruk" />
	</node>
	<node id="-19192" lat="59.3132777745" lon="10.8919749988">
		<tag k="fixme" v="consider boundary=protected_area and relevant protect_class if not nature reserve" />
		<tag k="leisure" v="nature_reserve" />
		<tag k="name" v="Skinnerflo naturreservat" />
		<tag k="ssr:date" v="2016-05-10" />
		<tag k="ssr:gruppe" v="verne-OgBruksområder" />
		<tag k="ssr:hovedgruppe" v="offentligAdministrasjon" />
		<tag k="ssr:stedsnr" v="541906" />
		<tag k="ssr:type" v="verneområde" />
	</node>
	<node id="-19191" lat="59.3061972262" lon="10.7280777698">
		<tag k="name" v="Storesand" />
		<tag k="natural" v="beach" />
		<tag k="place" v="locality" />
		<tag k="ssr:date" v="2016-05-10" />
		<tag k="ssr:gruppe" v="kystkontur" />
		<tag k="ssr:hovedgruppe" v="sjø" />
		<tag k="ssr:stedsnr" v="541569" />
		<tag k="ssr:type" v="strandISjø" />
	</node>
	<node id="-19190" lat="59.3161138857" lon="10.7661638849">
		<tag k="alt_name" v="Røstad store" />
		<tag k="name" v="Store Røstad" />
		<tag k="place" v="farm" />
		<tag k="ssr:date" v="2016-05-10" />
		<tag k="ssr:gruppe" v="gardsbebyggelse" />
		<tag k="ssr:hovedgruppe" v="bebyggelse" />
		<tag k="ssr:stedsnr" v="541568" />
		<tag k="ssr:type" v="bruk" />
	</node>
	<node id="-19189" lat="59.3339777763" lon="10.799211105">
		<tag k="alt_name" v="Aker søndre" />
		<tag k="name" v="Søndre Aker" />
		<tag k="place" v="farm" />
		<tag k="ssr:date" v="2016-05-10" />
		<tag k="ssr:gruppe" v="gardsbebyggelse" />
		<tag k="ssr:hovedgruppe" v="bebyggelse" />
		<tag k="ssr:stedsnr" v="541544" />
		<tag k="ssr:type" v="bruk" />
	</node>
	<node id="-19188" lat="59.3251333347" lon="10.8235999958">
		<tag k="bridge" v="yes" />
		<tag k="layer" v="1" />
		<tag k="name" v="Møllebekken" />
		<tag k="ssr:date" v="2016-05-10" />
		<tag k="ssr:gruppe" v="samferdselsanlegg" />
		<tag k="ssr:hovedgruppe" v="infrastruktur" />
		<tag k="ssr:stedsnr" v="531549" />
		<tag k="ssr:type" v="bru" />
	</node>
	<node id="-19187" lat="59.2849333364" lon="10.7180111059">
		<tag k="name" v="Rødskjærhausen" />
		<tag k="natural" v="shoal" />
		<tag k="place" v="locality" />
		<tag k="ssr:date" v="2016-05-10" />
		<tag k="ssr:gruppe" v="grunnerISjø" />
		<tag k="ssr:hovedgruppe" v="sjø" />
		<tag k="ssr:stedsnr" v="513784" />
		<tag k="ssr:type" v="grunneISjø" />
	</node>
	<node id="-19186" lat="59.2912694409" lon="10.8439250064">
		<tag k="name" v="Bjørndalen" />
		<tag k="natural" v="valley" />
		<tag k="place" v="locality" />
		<tag k="ssr:date" v="2016-05-10" />
		<tag k="ssr:gruppe" v="senkninger" />
		<tag k="ssr:hovedgruppe" v="terreng" />
		<tag k="ssr:stedsnr" v="495843" />
		<tag k="ssr:type" v="dal" />
	</node>
	<node id="-19185" lat="59.324866665" lon="10.8857472246">
		<tag k="name" v="Enebekk" />
		<tag k="place" v="farm" />
		<tag k="ssr:date" v="2016-05-10" />
		<tag k="ssr:gruppe" v="gardsbebyggelse" />
		<tag k="ssr:hovedgruppe" v="bebyggelse" />
		<tag k="ssr:stedsnr" v="488399" />
		<tag k="ssr:type" v="bruk" />
	</node>
	<node id="-19184" lat="59.3709861074" lon="10.9355583378">
		<tag k="name" v="Bjørndalen" />
		<tag k="place" v="locality" />
		<tag k="ssr:date" v="2016-05-10" />
		<tag k="ssr:gruppe" v="bolighus" />
		<tag k="ssr:hovedgruppe" v="bebyggelse" />
		<tag k="ssr:stedsnr" v="488254" />
		<tag k="ssr:type" v="gammelBosettingsplass" />
	</node>
	<node id="-19183" lat="59.3721833335" lon="10.951808341">
		<tag k="name" v="Leiedalen" />
		<tag k="place" v="farm" />
		<tag k="ssr:date" v="2016-05-10" />
		<tag k="ssr:gruppe" v="gardsbebyggelse" />
		<tag k="ssr:hovedgruppe" v="bebyggelse" />
		<tag k="ssr:stedsnr" v="488243" />
		<tag k="ssr:type" v="bruk" />
	</node>
	<node id="-19182" lat="59.3404779352" lon="10.8949409379">
		<tag k="name" v="Rød" />
		<tag k="place" v="farm" />
		<tag k="ssr:date" v="2019-03-28" />
		<tag k="ssr:gruppe" v="gardsbebyggelse" />
		<tag k="ssr:hovedgruppe" v="bebyggelse" />
		<tag k="ssr:stedsnr" v="487518" />
		<tag k="ssr:type" v="bruk" />
	</node>
	<node id="-19181" lat="59.3253194449" lon="10.9260583335">
		<tag k="name" v="Frakkestad" />
		<tag k="place" v="farm" />
		<tag k="ssr:date" v="2016-05-10" />
		<tag k="ssr:gruppe" v="gardsbebyggelse" />
		<tag k="ssr:hovedgruppe" v="bebyggelse" />
		<tag k="ssr:stedsnr" v="487473" />
		<tag k="ssr:type" v="bruk" />
	</node>
	<node id="-19180" lat="59.3073750032" lon="10.7527472281">
		<tag k="alt_name" v="Vrangbein" />
		<tag k="name" v="Vrangben" />
		<tag k="place" v="islet" />
		<tag k="ssr:date" v="2016-05-10" />
		<tag k="ssr:gruppe" v="kystkontur" />
		<tag k="ssr:hovedgruppe" v="sjø" />
		<tag k="ssr:stedsnr" v="487442" />
		<tag k="ssr:type" v="holmeISjø" />
	</node>
	<node id="-19179" lat="59.3590388898" lon="10.9325250072">
		<tag k="fixme" v="consider natural=peak for the most distinct mountains in the district" />
		<tag k="name" v="Vetaåsen" />
		<tag k="natural" v="hill" />
		<tag k="place" v="locality" />
		<tag k="ssr:date" v="2016-05-10" />
		<tag k="ssr:gruppe" v="høyder" />
		<tag k="ssr:hovedgruppe" v="terreng" />
		<tag k="ssr:stedsnr" v="487249" />
		<tag k="ssr:type" v="ås" />
	</node>
	<node id="-19178" lat="59.3581305526" lon="10.8737999939">
		<tag k="name" v="Halvorsrød" />
		<tag k="place" v="farm" />
		<tag k="ssr:date" v="2016-05-10" />
		<tag k="ssr:gruppe" v="gardsbebyggelse" />
		<tag k="ssr:hovedgruppe" v="bebyggelse" />
		<tag k="ssr:stedsnr" v="487251" />
		<tag k="ssr:type" v="bruk" />
	</node>
	<node id="-19177" lat="59.3376027805" lon="10.9600194495">
		<tag k="name" v="Galgehytta" />
		<tag k="place" v="locality" />
		<tag k="ssr:date" v="2016-05-10" />
		<tag k="ssr:gruppe" v="kulturminner" />
		<tag k="ssr:hovedgruppe" v="kultur" />
		<tag k="ssr:stedsnr" v="482912" />
		<tag k="ssr:type" v="annenKulturdetalj" />
	</node>
	<node id="-19176" lat="59.3957611155" lon="10.8921861032">
		<tag k="name" v="Lefseholmene" />
		<tag k="place" v="islet" />
		<tag k="ssr:date" v="2016-05-10" />
		<tag k="ssr:gruppe" v="ferskvannskontur" />
		<tag k="ssr:hovedgruppe" v="ferskvann" />
		<tag k="ssr:stedsnr" v="482590" />
		<tag k="ssr:type" v="holme" />
	</node>
	<node id="-19175" lat="59.3817722189" lon="10.9468305494">
		<tag k="name" v="Leiedalsmyra" />
		<tag k="natural" v="wetland" />
		<tag k="ssr:date" v="2016-05-10" />
		<tag k="ssr:gruppe" v="våtmark" />
		<tag k="ssr:hovedgruppe" v="markslag" />
		<tag k="ssr:stedsnr" v="482579" />
		<tag k="ssr:type" v="myr" />
	</node>
	<node id="-19174" lat="59.3487083341" lon="10.8904833396">
		<tag k="name" v="Roe" />
		<tag k="place" v="locality" />
		<tag k="ssr:date" v="2016-05-10" />
		<tag k="ssr:gruppe" v="kulturminner" />
		<tag k="ssr:hovedgruppe" v="kultur" />
		<tag k="ssr:stedsnr" v="482381" />
		<tag k="ssr:type" v="annenKulturdetalj" />
	</node>
	<node id="-19173" lat="59.3461527781" lon="10.8426083421">
		<tag k="fixme" v="consider place=hamlet" />
		<tag k="name" v="Kjellerød" />
		<tag k="place" v="farm" />
		<tag k="ssr:date" v="2016-05-10" />
		<tag k="ssr:gruppe" v="gardsbebyggelse" />
		<tag k="ssr:hovedgruppe" v="bebyggelse" />
		<tag k="ssr:stedsnr" v="482363" />
		<tag k="ssr:type" v="gard" />
	</node>
	<node id="-19172" lat="59.3745388877" lon="10.8366666668">
		<tag k="name" v="Hareholmen" />
		<tag k="place" v="islet" />
		<tag k="ssr:date" v="2016-05-10" />
		<tag k="ssr:gruppe" v="ferskvannskontur" />
		<tag k="ssr:hovedgruppe" v="ferskvann" />
		<tag k="ssr:stedsnr" v="482237" />
		<tag k="ssr:type" v="holme" />
	</node>
	<node id="-19171" lat="59.3569500031" lon="10.8033305509">
		<tag k="alt_name" v="Løken søndre" />
		<tag k="name" v="Søndre Løken" />
		<tag k="place" v="farm" />
		<tag k="ssr:date" v="2016-05-10" />
		<tag k="ssr:gruppe" v="gardsbebyggelse" />
		<tag k="ssr:hovedgruppe" v="bebyggelse" />
		<tag k="ssr:stedsnr" v="481924" />
		<tag k="ssr:type" v="bruk" />
	</node>
	<node id="-19170" lat="59.3426750032" lon="10.7628666714">
		<tag k="name" v="Heiabekken" />
		<tag k="ssr:date" v="2016-05-10" />
		<tag k="ssr:gruppe" v="rennendeVann" />
		<tag k="ssr:hovedgruppe" v="ferskvann" />
		<tag k="ssr:stedsnr" v="481922" />
		<tag k="ssr:type" v="bekk" />
		<tag k="waterway" v="stream" />
	</node>
	<node id="-19169" lat="59.3280305585" lon="10.7643055476">
		<tag k="fixme" v="consider natural=peak for the most distinct mountains in the district" />
		<tag k="name" v="Østre Åsen" />
		<tag k="natural" v="hill" />
		<tag k="place" v="locality" />
		<tag k="ssr:date" v="2016-05-10" />
		<tag k="ssr:gruppe" v="høyder" />
		<tag k="ssr:hovedgruppe" v="terreng" />
		<tag k="ssr:stedsnr" v="481904" />
		<tag k="ssr:type" v="ås" />
	</node>
	<node id="-19168" lat="59.3909638876" lon="10.8183444437">
		<tag k="name" v="Sandbukt" />
		<tag k="natural" v="bay" />
		<tag k="ssr:date" v="2016-05-10" />
		<tag k="ssr:gruppe" v="ferskvannskontur" />
		<tag k="ssr:hovedgruppe" v="ferskvann" />
		<tag k="ssr:stedsnr" v="481890" />
		<tag k="ssr:type" v="vik" />
	</node>
	<node id="-19167" lat="59.3039277769" lon="10.71159167">
		<tag k="name" v="Perbåen" />
		<tag k="place" v="locality" />
		<tag k="seamark:type" v="rock" />
		<tag k="ssr:date" v="2016-05-10" />
		<tag k="ssr:gruppe" v="grunnerISjø" />
		<tag k="ssr:hovedgruppe" v="sjø" />
		<tag k="ssr:stedsnr" v="453877" />
		<tag k="ssr:type" v="båeISjø" />
	</node>
	<node id="-19166" lat="59.3122777736" lon="10.7971611104">
		<tag k="name" v="Skogly" />
		<tag k="place" v="farm" />
		<tag k="ssr:date" v="2016-05-10" />
		<tag k="ssr:gruppe" v="gardsbebyggelse" />
		<tag k="ssr:hovedgruppe" v="bebyggelse" />
		<tag k="ssr:stedsnr" v="453815" />
		<tag k="ssr:type" v="bruk" />
	</node>
	<node id="-19165" lat="59.3285500022" lon="10.7478083324">
		<tag k="name" v="Labu" />
		<tag k="place" v="islet" />
		<tag k="ssr:date" v="2016-05-10" />
		<tag k="ssr:gruppe" v="kystkontur" />
		<tag k="ssr:hovedgruppe" v="sjø" />
		<tag k="ssr:stedsnr" v="449754" />
		<tag k="ssr:type" v="holmeISjø" />
	</node>
	<node id="-19164" lat="59.3386083299" lon="10.8626666616">
		<tag k="name" v="Strømnes" />
		<tag k="place" v="farm" />
		<tag k="ssr:date" v="2016-05-10" />
		<tag k="ssr:gruppe" v="gardsbebyggelse" />
		<tag k="ssr:hovedgruppe" v="bebyggelse" />
		<tag k="ssr:stedsnr" v="427492" />
		<tag k="ssr:type" v="bruk" />
	</node>
	<node id="-19163" lat="59.33728056" lon="10.7593277768">
		<tag k="fixme" v="consider place=hamlet" />
		<tag k="name" v="Tasken" />
		<tag k="place" v="farm" />
		<tag k="ssr:date" v="2016-05-10" />
		<tag k="ssr:gruppe" v="gardsbebyggelse" />
		<tag k="ssr:hovedgruppe" v="bebyggelse" />
		<tag k="ssr:stedsnr" v="427478" />
		<tag k="ssr:type" v="gard" />
	</node>
	<node id="-19162" lat="59.3298388903" lon="10.9220027777">
		<tag k="name" v="Sørby" />
		<tag k="place" v="farm" />
		<tag k="ssr:date" v="2016-05-10" />
		<tag k="ssr:gruppe" v="gardsbebyggelse" />
		<tag k="ssr:hovedgruppe" v="bebyggelse" />
		<tag k="ssr:stedsnr" v="427462" />
		<tag k="ssr:type" v="bruk" />
	</node>
	<node id="-19161" lat="59.3270805575" lon="10.923575005">
		<tag k="name" v="Hovland" />
		<tag k="place" v="farm" />
		<tag k="ssr:date" v="2016-05-10" />
		<tag k="ssr:gruppe" v="gardsbebyggelse" />
		<tag k="ssr:hovedgruppe" v="bebyggelse" />
		<tag k="ssr:stedsnr" v="427460" />
		<tag k="ssr:type" v="bruk" />
	</node>
	<node id="-19160" lat="59.3821611153" lon="10.906725006">
		<tag k="name" v="Henes" />
		<tag k="place" v="farm" />
		<tag k="ssr:date" v="2016-05-10" />
		<tag k="ssr:gruppe" v="gardsbebyggelse" />
		<tag k="ssr:hovedgruppe" v="bebyggelse" />
		<tag k="ssr:stedsnr" v="427322" />
		<tag k="ssr:type" v="bruk" />
	</node>
	<node id="-19159" lat="59.3289722222" lon="10.9317666653">
		<tag k="name" v="Ileby" />
		<tag k="place" v="farm" />
		<tag k="ssr:date" v="2016-05-10" />
		<tag k="ssr:gruppe" v="gardsbebyggelse" />
		<tag k="ssr:hovedgruppe" v="bebyggelse" />
		<tag k="ssr:stedsnr" v="422778" />
		<tag k="ssr:type" v="bruk" />
	</node>
	<node id="-19158" lat="59.3328583331" lon="10.9404249962">
		<tag k="fixme" v="consider natural=peak for the most distinct mountains in the district" />
		<tag k="name" v="Høyås" />
		<tag k="natural" v="hill" />
		<tag k="place" v="locality" />
		<tag k="ssr:date" v="2016-05-10" />
		<tag k="ssr:gruppe" v="høyder" />
		<tag k="ssr:hovedgruppe" v="terreng" />
		<tag k="ssr:stedsnr" v="422777" />
		<tag k="ssr:type" v="ås" />
	</node>
	<node id="-19157" lat="59.360869445" lon="10.9473916706">
		<tag k="name" v="Slangsvoll" />
		<tag k="place" v="farm" />
		<tag k="ssr:date" v="2016-05-10" />
		<tag k="ssr:gruppe" v="gardsbebyggelse" />
		<tag k="ssr:hovedgruppe" v="bebyggelse" />
		<tag k="ssr:stedsnr" v="422583" />
		<tag k="ssr:type" v="bruk" />
	</node>
	<node id="-19156" lat="59.3239722256" lon="10.7944111174">
		<tag k="name" v="Fjell" />
		<tag k="place" v="farm" />
		<tag k="ssr:date" v="2016-05-10" />
		<tag k="ssr:gruppe" v="gardsbebyggelse" />
		<tag k="ssr:hovedgruppe" v="bebyggelse" />
		<tag k="ssr:stedsnr" v="422196" />
		<tag k="ssr:type" v="bruk" />
	</node>
	<node id="-19155" lat="59.3699194403" lon="10.7850277837">
		<tag k="name" v="Eggeroa" />
		<tag k="place" v="farm" />
		<tag k="ssr:date" v="2016-05-10" />
		<tag k="ssr:gruppe" v="gardsbebyggelse" />
		<tag k="ssr:hovedgruppe" v="bebyggelse" />
		<tag k="ssr:stedsnr" v="420939" />
		<tag k="ssr:type" v="bruk" />
	</node>
	<node id="-19154" lat="59.302936113" lon="10.9125138944">
		<tag k="fixme" v="consider natural=peak for the most distinct mountains in the district" />
		<tag k="name" v="Ælinåsen" />
		<tag k="natural" v="hill" />
		<tag k="place" v="locality" />
		<tag k="ssr:date" v="2016-05-10" />
		<tag k="ssr:gruppe" v="høyder" />
		<tag k="ssr:hovedgruppe" v="terreng" />
		<tag k="ssr:stedsnr" v="420933" />
		<tag k="ssr:type" v="ås" />
	</node>
	<node id="-19153" lat="59.3662111088" lon="10.8220861173">
		<tag k="name" v="Vollebekk" />
		<tag k="place" v="farm" />
		<tag k="ssr:date" v="2016-05-10" />
		<tag k="ssr:gruppe" v="gardsbebyggelse" />
		<tag k="ssr:hovedgruppe" v="bebyggelse" />
		<tag k="ssr:stedsnr" v="420888" />
		<tag k="ssr:type" v="bruk" />
	</node>
	<node id="-19152" lat="59.3118250005" lon="10.7209138853">
		<tag k="name" v="Kokholmen" />
		<tag k="place" v="islet" />
		<tag k="ssr:date" v="2016-05-10" />
		<tag k="ssr:gruppe" v="kystkontur" />
		<tag k="ssr:hovedgruppe" v="sjø" />
		<tag k="ssr:stedsnr" v="420583" />
		<tag k="ssr:type" v="holmeISjø" />
	</node>
	<node id="-19151" lat="59.332011111" lon="10.791336113">
		<tag k="fixme" v="consider natural=peak for the most distinct mountains in the district" />
		<tag k="name" v="Vardås" />
		<tag k="natural" v="hill" />
		<tag k="place" v="locality" />
		<tag k="ssr:date" v="2016-05-10" />
		<tag k="ssr:gruppe" v="høyder" />
		<tag k="ssr:hovedgruppe" v="terreng" />
		<tag k="ssr:stedsnr" v="420567" />
		<tag k="ssr:type" v="ås" />
	</node>
	<node id="-19150" lat="59.2896444477" lon="10.6777277756">
		<tag k="name" v="Mellom-Sletter" />
		<tag k="place" v="islet" />
		<tag k="ssr:date" v="2016-05-10" />
		<tag k="ssr:gruppe" v="kystkontur" />
		<tag k="ssr:hovedgruppe" v="sjø" />
		<tag k="ssr:stedsnr" v="246607" />
		<tag k="ssr:type" v="holmeISjø" />
	</node>
	<node id="-19149" lat="59.3412611093" lon="10.8019499947">
		<tag k="name" v="Sørgård" />
		<tag k="place" v="farm" />
		<tag k="ssr:date" v="2016-05-10" />
		<tag k="ssr:gruppe" v="gardsbebyggelse" />
		<tag k="ssr:hovedgruppe" v="bebyggelse" />
		<tag k="ssr:stedsnr" v="245449" />
		<tag k="ssr:type" v="bruk" />
	</node>
	<node id="-19148" lat="59.3179333351" lon="10.9346555562">
		<tag k="name" v="Skinnerflo" />
		<tag k="natural" v="water" />
		<tag k="ssr:date" v="2016-05-10" />
		<tag k="ssr:gruppe" v="stilleståendeVann" />
		<tag k="ssr:hovedgruppe" v="ferskvann" />
		<tag k="ssr:stedsnr" v="245418" />
		<tag k="ssr:type" v="vann" />
		<tag k="water" v="lake" />
	</node>
	<node id="-19147" lat="59.3245888932" lon="10.91050833">
		<tag k="alt_name" v="Søgård" />
		<tag k="name" v="Sørgård" />
		<tag k="place" v="farm" />
		<tag k="ssr:date" v="2016-05-10" />
		<tag k="ssr:gruppe" v="gardsbebyggelse" />
		<tag k="ssr:hovedgruppe" v="bebyggelse" />
		<tag k="ssr:stedsnr" v="245410" />
		<tag k="ssr:type" v="bruk" />
	</node>
	<node id="-19146" lat="59.3189972266" lon="10.8728416727">
		<tag k="alt_name" v="Hisingby" />
		<tag k="fixme" v="consider place=hamlet" />
		<tag k="name" v="Hissingby" />
		<tag k="place" v="farm" />
		<tag k="ssr:date" v="2016-05-10" />
		<tag k="ssr:gruppe" v="gardsbebyggelse" />
		<tag k="ssr:hovedgruppe" v="bebyggelse" />
		<tag k="ssr:stedsnr" v="245408" />
		<tag k="ssr:type" v="gard" />
	</node>
	<node id="-19145" lat="59.3216249967" lon="10.8625444419">
		<tag k="alt_name" v="Brekke" />
		<tag k="name" v="Brekka" />
		<tag k="place" v="farm" />
		<tag k="ssr:date" v="2016-05-10" />
		<tag k="ssr:gruppe" v="gardsbebyggelse" />
		<tag k="ssr:hovedgruppe" v="bebyggelse" />
		<tag k="ssr:stedsnr" v="245406" />
		<tag k="ssr:type" v="bruk" />
	</node>
	<node id="-19144" lat="59.3555055561" lon="10.8126444473">
		<tag k="alt_name" v="Vold" />
		<tag k="name" v="Voll" />
		<tag k="place" v="farm" />
		<tag k="ssr:date" v="2016-05-10" />
		<tag k="ssr:gruppe" v="gardsbebyggelse" />
		<tag k="ssr:hovedgruppe" v="bebyggelse" />
		<tag k="ssr:stedsnr" v="245249" />
		<tag k="ssr:type" v="bruk" />
	</node>
	<node id="-19143" lat="59.3545749971" lon="10.773405554">
		<tag k="name" v="Sarpebakken" />
		<tag k="place" v="farm" />
		<tag k="ssr:date" v="2016-05-10" />
		<tag k="ssr:gruppe" v="gardsbebyggelse" />
		<tag k="ssr:hovedgruppe" v="bebyggelse" />
		<tag k="ssr:stedsnr" v="245238" />
		<tag k="ssr:type" v="bruk" />
	</node>
	<node id="-19142" lat="59.3534277789" lon="10.9258027693">
		<tag k="alt_name" v="Borgebotn" />
		<tag k="name" v="Borgebunn" />
		<tag k="place" v="farm" />
		<tag k="ssr:date" v="2016-05-10" />
		<tag k="ssr:gruppe" v="gardsbebyggelse" />
		<tag k="ssr:hovedgruppe" v="bebyggelse" />
		<tag k="ssr:stedsnr" v="245233" />
		<tag k="ssr:type" v="bruk" />
	</node>
	<node id="-19141" lat="59.2945416629" lon="10.726397221">
		<tag k="name" v="Jammerlappen" />
		<tag k="natural" v="shoal" />
		<tag k="place" v="locality" />
		<tag k="ssr:date" v="2016-05-10" />
		<tag k="ssr:gruppe" v="grunnerISjø" />
		<tag k="ssr:hovedgruppe" v="sjø" />
		<tag k="ssr:stedsnr" v="240875" />
		<tag k="ssr:type" v="grunneISjø" />
	</node>
	<node id="-19140" lat="59.3263083324" lon="10.8754222267">
		<tag k="alt_name" v="Musangen nordre" />
		<tag k="name" v="Nordre Musangen" />
		<tag k="place" v="farm" />
		<tag k="ssr:date" v="2016-05-10" />
		<tag k="ssr:gruppe" v="gardsbebyggelse" />
		<tag k="ssr:hovedgruppe" v="bebyggelse" />
		<tag k="ssr:stedsnr" v="240822" />
		<tag k="ssr:type" v="bruk" />
	</node>
	<node id="-19139" lat="59.3163027747" lon="10.9180277723">
		<tag k="name" v="Mørhuset" />
		<tag k="place" v="locality" />
		<tag k="ssr:date" v="2016-05-10" />
		<tag k="ssr:gruppe" v="kulturminner" />
		<tag k="ssr:hovedgruppe" v="kultur" />
		<tag k="ssr:stedsnr" v="240772" />
		<tag k="ssr:type" v="annenKulturdetalj" />
	</node>
	<node id="-19138" lat="59.3370555599" lon="10.8814638891">
		<tag k="name" v="Lunderberget" />
		<tag k="natural" v="hill" />
		<tag k="place" v="locality" />
		<tag k="ssr:date" v="2016-05-10" />
		<tag k="ssr:gruppe" v="høyder" />
		<tag k="ssr:hovedgruppe" v="terreng" />
		<tag k="ssr:stedsnr" v="240385" />
		<tag k="ssr:type" v="haug" />
	</node>
	<node id="-19137" lat="59.3378805589" lon="10.9080611029">
		<tag k="name" v="Borge" />
		<tag k="place" v="farm" />
		<tag k="ssr:date" v="2016-05-10" />
		<tag k="ssr:gruppe" v="gardsbebyggelse" />
		<tag k="ssr:hovedgruppe" v="bebyggelse" />
		<tag k="ssr:stedsnr" v="240383" />
		<tag k="ssr:type" v="bruk" />
	</node>
	<node id="-19136" lat="59.3603194463" lon="10.8507138832">
		<tag k="name" v="Elvestadstøa" />
		<tag k="place" v="isolated_dwelling" />
		<tag k="ssr:date" v="2016-05-10" />
		<tag k="ssr:gruppe" v="bolighus" />
		<tag k="ssr:hovedgruppe" v="bebyggelse" />
		<tag k="ssr:stedsnr" v="240282" />
		<tag k="ssr:type" v="eneboligMindreBoligbygg" />
	</node>
	<node id="-19135" lat="59.3604638919" lon="10.9269944458">
		<tag k="name" v="Kleven" />
		<tag k="place" v="locality" />
		<tag k="ssr:date" v="2016-05-10" />
		<tag k="ssr:gruppe" v="kulturminner" />
		<tag k="ssr:hovedgruppe" v="kultur" />
		<tag k="ssr:stedsnr" v="240276" />
		<tag k="ssr:type" v="annenKulturdetalj" />
	</node>
	<node id="-19134" lat="59.3869111146" lon="10.81083611">
		<tag k="name" v="Sogn skog" />
		<tag k="place" v="locality" />
		<tag k="ssr:date" v="2016-05-10" />
		<tag k="ssr:gruppe" v="vegetasjon" />
		<tag k="ssr:hovedgruppe" v="markslag" />
		<tag k="ssr:stedsnr" v="238887" />
		<tag k="ssr:type" v="skog" />
	</node>
	<node id="-19133" lat="59.3786666701" lon="10.8042000009">
		<tag k="name" v="Vitteberget" />
		<tag k="natural" v="hill" />
		<tag k="place" v="locality" />
		<tag k="ssr:date" v="2016-05-10" />
		<tag k="ssr:gruppe" v="høyder" />
		<tag k="ssr:hovedgruppe" v="terreng" />
		<tag k="ssr:stedsnr" v="238877" />
		<tag k="ssr:type" v="haug" />
	</node>
	<node id="-19132" lat="59.3265805559" lon="10.7812250027">
		<tag k="name" v="Akersbekken" />
		<tag k="ssr:date" v="2016-05-10" />
		<tag k="ssr:gruppe" v="rennendeVann" />
		<tag k="ssr:hovedgruppe" v="ferskvann" />
		<tag k="ssr:stedsnr" v="238549" />
		<tag k="ssr:type" v="bekk" />
		<tag k="waterway" v="stream" />
	</node>
	<node id="-19131" lat="59.3551861086" lon="10.8704222151">
		<tag k="bridge" v="yes" />
		<tag k="layer" v="1" />
		<tag k="name" v="Karlshus" />
		<tag k="ssr:date" v="2016-05-10" />
		<tag k="ssr:gruppe" v="samferdselsanlegg" />
		<tag k="ssr:hovedgruppe" v="infrastruktur" />
		<tag k="ssr:stedsnr" v="228566" />
		<tag k="ssr:type" v="bru" />
	</node>
	<node id="-19130" lat="59.3506861146" lon="10.8941583328">
		<tag k="bridge" v="yes" />
		<tag k="layer" v="1" />
		<tag k="name" v="Skovly" />
		<tag k="ssr:date" v="2016-05-10" />
		<tag k="ssr:gruppe" v="samferdselsanlegg" />
		<tag k="ssr:hovedgruppe" v="infrastruktur" />
		<tag k="ssr:stedsnr" v="228484" />
		<tag k="ssr:type" v="bru" />
	</node>
	<node id="-19129" lat="59.3184972252" lon="10.7414194402">
		<tag k="name" v="Grindholmen" />
		<tag k="place" v="island" />
		<tag k="ssr:date" v="2016-05-10" />
		<tag k="ssr:gruppe" v="kystkontur" />
		<tag k="ssr:hovedgruppe" v="sjø" />
		<tag k="ssr:stedsnr" v="210791" />
		<tag k="ssr:type" v="øyISjø" />
	</node>
	<node id="-19128" lat="59.3661833375" lon="10.9667194525">
		<tag k="alt_name" v="Fensbekk" />
		<tag k="name" v="Finnsbekk" />
		<tag k="place" v="farm" />
		<tag k="ssr:date" v="2016-05-10" />
		<tag k="ssr:gruppe" v="gardsbebyggelse" />
		<tag k="ssr:hovedgruppe" v="bebyggelse" />
		<tag k="ssr:stedsnr" v="185259" />
		<tag k="ssr:type" v="bruk" />
	</node>
	<node id="-19127" lat="59.3610750042" lon="10.8096000017">
		<tag k="fixme" v="consider place=hamlet" />
		<tag k="name" v="Grimstad" />
		<tag k="place" v="farm" />
		<tag k="ssr:date" v="2016-05-10" />
		<tag k="ssr:gruppe" v="gardsbebyggelse" />
		<tag k="ssr:hovedgruppe" v="bebyggelse" />
		<tag k="ssr:stedsnr" v="185249" />
		<tag k="ssr:type" v="gard" />
	</node>
	<node id="-19126" lat="59.3296916643" lon="10.7383583288">
		<tag k="name" v="Kurefjorden" />
		<tag k="natural" v="bay" />
		<tag k="ssr:date" v="2016-05-10" />
		<tag k="ssr:gruppe" v="kystkontur" />
		<tag k="ssr:hovedgruppe" v="sjø" />
		<tag k="ssr:stedsnr" v="184616" />
		<tag k="ssr:type" v="vikISjø" />
	</node>
	<node id="-19125" lat="59.2917277753" lon="10.6946250011">
		<tag k="name" v="Åletitten" />
		<tag k="natural" v="shoal" />
		<tag k="place" v="locality" />
		<tag k="ssr:date" v="2016-05-10" />
		<tag k="ssr:gruppe" v="grunnerISjø" />
		<tag k="ssr:hovedgruppe" v="sjø" />
		<tag k="ssr:stedsnr" v="184658" />
		<tag k="ssr:type" v="grunneISjø" />
	</node>
	<node id="-19124" lat="59.3505361082" lon="10.9167916722">
		<tag k="name" v="Borge" />
		<tag k="place" v="farm" />
		<tag k="ssr:date" v="2016-05-10" />
		<tag k="ssr:gruppe" v="gardsbebyggelse" />
		<tag k="ssr:hovedgruppe" v="bebyggelse" />
		<tag k="ssr:stedsnr" v="184505" />
		<tag k="ssr:type" v="bruk" />
	</node>
	<node id="-19123" lat="59.326558336" lon="10.8751305522">
		<tag k="fixme" v="consider place=hamlet" />
		<tag k="name" v="Musangen" />
		<tag k="place" v="farm" />
		<tag k="ssr:date" v="2016-05-10" />
		<tag k="ssr:gruppe" v="gardsbebyggelse" />
		<tag k="ssr:hovedgruppe" v="bebyggelse" />
		<tag k="ssr:stedsnr" v="184479" />
		<tag k="ssr:type" v="gard" />
	</node>
	<node id="-19122" lat="59.3269555534" lon="10.9131611146">
		<tag k="name" v="Revhaug" />
		<tag k="place" v="farm" />
		<tag k="ssr:date" v="2016-05-10" />
		<tag k="ssr:gruppe" v="gardsbebyggelse" />
		<tag k="ssr:hovedgruppe" v="bebyggelse" />
		<tag k="ssr:stedsnr" v="184459" />
		<tag k="ssr:type" v="bruk" />
	</node>
	<node id="-19121" lat="59.3074055595" lon="10.7672416755">
		<tag k="name" v="Krokstadfjorden" />
		<tag k="natural" v="bay" />
		<tag k="ssr:date" v="2016-05-10" />
		<tag k="ssr:gruppe" v="kystkontur" />
		<tag k="ssr:hovedgruppe" v="sjø" />
		<tag k="ssr:stedsnr" v="184424" />
		<tag k="ssr:type" v="vikISjø" />
	</node>
	<node id="-19120" lat="59.3680555525" lon="10.8046555623">
		<tag k="name" v="Ramyr" />
		<tag k="place" v="farm" />
		<tag k="ssr:date" v="2016-05-10" />
		<tag k="ssr:gruppe" v="gardsbebyggelse" />
		<tag k="ssr:hovedgruppe" v="bebyggelse" />
		<tag k="ssr:stedsnr" v="184261" />
		<tag k="ssr:type" v="bruk" />
	</node>
	<node id="-19119" lat="59.3145694438" lon="10.87154167">
		<tag k="alt_name" v="Hissingby mellem" />
		<tag k="name" v="Mellom-Hissingby" />
		<tag k="place" v="farm" />
		<tag k="ssr:date" v="2016-05-10" />
		<tag k="ssr:gruppe" v="gardsbebyggelse" />
		<tag k="ssr:hovedgruppe" v="bebyggelse" />
		<tag k="ssr:stedsnr" v="179874" />
		<tag k="ssr:type" v="bruk" />
	</node>
	<node id="-19118" lat="59.3050027784" lon="10.835605556">
		<tag k="name" v="Hasledalen" />
		<tag k="natural" v="valley" />
		<tag k="place" v="locality" />
		<tag k="ssr:date" v="2016-05-10" />
		<tag k="ssr:gruppe" v="senkninger" />
		<tag k="ssr:hovedgruppe" v="terreng" />
		<tag k="ssr:stedsnr" v="179828" />
		<tag k="ssr:type" v="dal" />
	</node>
	<node id="-19117" lat="59.3536944421" lon="10.8817888857">
		<tag k="name" v="Karlshusbunn" />
		<tag k="place" v="farm" />
		<tag k="ssr:date" v="2016-05-10" />
		<tag k="ssr:gruppe" v="gardsbebyggelse" />
		<tag k="ssr:hovedgruppe" v="bebyggelse" />
		<tag k="ssr:stedsnr" v="179272" />
		<tag k="ssr:type" v="bruk" />
	</node>
	<node id="-19116" lat="59.3590250006" lon="10.7818694455">
		<tag k="name" v="Sandaker" />
		<tag k="place" v="farm" />
		<tag k="ssr:date" v="2016-05-10" />
		<tag k="ssr:gruppe" v="gardsbebyggelse" />
		<tag k="ssr:hovedgruppe" v="bebyggelse" />
		<tag k="ssr:stedsnr" v="178924" />
		<tag k="ssr:type" v="bruk" />
	</node>
	<node id="-19115" lat="59.3456138871" lon="10.8271916706">
		<tag k="fixme" v="consider natural=peak for the most distinct mountains in the district" />
		<tag k="name" v="Varden" />
		<tag k="natural" v="hill" />
		<tag k="place" v="locality" />
		<tag k="ssr:date" v="2016-05-10" />
		<tag k="ssr:gruppe" v="høyder" />
		<tag k="ssr:hovedgruppe" v="terreng" />
		<tag k="ssr:stedsnr" v="178921" />
		<tag k="ssr:type" v="ås" />
	</node>
	<node id="-19114" lat="59.3412666669" lon="10.7757888938">
		<tag k="alt_name" v="Gammelsrød nordre" />
		<tag k="name" v="Nordre Gammelsrød" />
		<tag k="place" v="farm" />
		<tag k="ssr:date" v="2016-05-10" />
		<tag k="ssr:gruppe" v="gardsbebyggelse" />
		<tag k="ssr:hovedgruppe" v="bebyggelse" />
		<tag k="ssr:stedsnr" v="178919" />
		<tag k="ssr:type" v="bruk" />
	</node>
	<node id="-19113" lat="59.3403694429" lon="10.7804722184">
		<tag k="name" v="Gammelsrød" />
		<tag k="place" v="farm" />
		<tag k="ssr:date" v="2016-05-10" />
		<tag k="ssr:gruppe" v="gardsbebyggelse" />
		<tag k="ssr:hovedgruppe" v="bebyggelse" />
		<tag k="ssr:stedsnr" v="178917" />
		<tag k="ssr:type" v="bruk" />
	</node>
	<node id="-19112" lat="59.3692833299" lon="10.7942166591">
		<tag k="name" v="Askerød" />
		<tag k="place" v="farm" />
		<tag k="ssr:date" v="2016-05-10" />
		<tag k="ssr:gruppe" v="gardsbebyggelse" />
		<tag k="ssr:hovedgruppe" v="bebyggelse" />
		<tag k="ssr:stedsnr" v="178865" />
		<tag k="ssr:type" v="bruk" />
	</node>
	<node id="-19111" lat="59.3683583353" lon="10.796069452">
		<tag k="name" v="Granum" />
		<tag k="place" v="farm" />
		<tag k="ssr:date" v="2016-05-10" />
		<tag k="ssr:gruppe" v="gardsbebyggelse" />
		<tag k="ssr:hovedgruppe" v="bebyggelse" />
		<tag k="ssr:stedsnr" v="178864" />
		<tag k="ssr:type" v="bruk" />
	</node>
	<node id="-19110" lat="59.3669805531" lon="10.8041083393">
		<tag k="name" v="Nygård" />
		<tag k="place" v="farm" />
		<tag k="ssr:date" v="2016-05-10" />
		<tag k="ssr:gruppe" v="gardsbebyggelse" />
		<tag k="ssr:hovedgruppe" v="bebyggelse" />
		<tag k="ssr:stedsnr" v="177888" />
		<tag k="ssr:type" v="bruk" />
	</node>
	<node id="-19109" lat="59.370716664" lon="10.8165027688">
		<tag k="fixme" v="verify maritime location" />
		<tag k="mooring" v="yes" />
		<tag k="name" v="Grimstadstøa" />
		<tag k="place" v="locality" />
		<tag k="ssr:date" v="2016-05-10" />
		<tag k="ssr:gruppe" v="sjøfart" />
		<tag k="ssr:hovedgruppe" v="infrastruktur" />
		<tag k="ssr:stedsnr" v="177886" />
		<tag k="ssr:type" v="stø" />
	</node>
	<node id="-19108" lat="59.2924583368" lon="10.7505666736">
		<tag k="name" v="Rubingen" />
		<tag k="natural" v="bay" />
		<tag k="ssr:date" v="2016-05-10" />
		<tag k="ssr:gruppe" v="kystkontur" />
		<tag k="ssr:hovedgruppe" v="sjø" />
		<tag k="ssr:stedsnr" v="149809" />
		<tag k="ssr:type" v="vikISjø" />
	</node>
	<node id="-19107" lat="59.299247222" lon="10.7414916604">
		<tag k="fixme" v="consider seamark:type=rock or natural=shoal" />
		<tag k="name" v="Vrangbeinskjæret" />
		<tag k="place" v="islet" />
		<tag k="ssr:date" v="2016-05-10" />
		<tag k="ssr:gruppe" v="grunnerISjø" />
		<tag k="ssr:hovedgruppe" v="sjø" />
		<tag k="ssr:stedsnr" v="145824" />
		<tag k="ssr:type" v="skjærISjø" />
	</node>
	<node id="-19105" lat="59.3207666705" lon="10.9320749975">
		<tag k="alt_name" v="Sølvland" />
		<tag k="name" v="Søland" />
		<tag k="place" v="farm" />
		<tag k="ssr:date" v="2016-05-10" />
		<tag k="ssr:gruppe" v="gardsbebyggelse" />
		<tag k="ssr:hovedgruppe" v="bebyggelse" />
		<tag k="ssr:stedsnr" v="124364" />
		<tag k="ssr:type" v="bruk" />
	</node>
	<node id="-19104" lat="59.3069611149" lon="10.7296749944">
		<tag k="name" v="Storesand" />
		<tag k="place" v="isolated_dwelling" />
		<tag k="ssr:date" v="2016-05-10" />
		<tag k="ssr:gruppe" v="bolighus" />
		<tag k="ssr:hovedgruppe" v="bebyggelse" />
		<tag k="ssr:stedsnr" v="124357" />
		<tag k="ssr:type" v="fritidsbolig" />
	</node>
	<node id="-19103" lat="59.3751194467" lon="10.9645444358">
		<tag k="name" v="Gullhaug" />
		<tag k="place" v="farm" />
		<tag k="ssr:date" v="2016-05-10" />
		<tag k="ssr:gruppe" v="gardsbebyggelse" />
		<tag k="ssr:hovedgruppe" v="bebyggelse" />
		<tag k="ssr:stedsnr" v="124227" />
		<tag k="ssr:type" v="bruk" />
	</node>
	<node id="-19102" lat="59.362187702" lon="10.9002857169">
		<tag k="name" v="Bjørnebekk" />
		<tag k="place" v="farm" />
		<tag k="ssr:date" v="2019-01-31" />
		<tag k="ssr:gruppe" v="gardsbebyggelse" />
		<tag k="ssr:hovedgruppe" v="bebyggelse" />
		<tag k="ssr:stedsnr" v="124217" />
		<tag k="ssr:type" v="bruk" />
	</node>
	<node id="-19101" lat="59.3595249962" lon="10.9502805632">
		<tag k="fixme" v="consider place=hamlet" />
		<tag k="name" v="Slangsvoll" />
		<tag k="place" v="farm" />
		<tag k="ssr:date" v="2016-05-10" />
		<tag k="ssr:gruppe" v="gardsbebyggelse" />
		<tag k="ssr:hovedgruppe" v="bebyggelse" />
		<tag k="ssr:stedsnr" v="124214" />
		<tag k="ssr:type" v="gard" />
	</node>
	<node id="-19100" lat="59.3574538501" lon="10.8045735618">
		<tag k="fixme" v="consider place=hamlet" />
		<tag k="name" v="Løken" />
		<tag k="place" v="farm" />
		<tag k="ssr:date" v="2019-04-04" />
		<tag k="ssr:gruppe" v="gardsbebyggelse" />
		<tag k="ssr:hovedgruppe" v="bebyggelse" />
		<tag k="ssr:stedsnr" v="124212" />
		<tag k="ssr:type" v="gard" />
	</node>
	<node id="-19099" lat="59.347288885" lon="10.8918638854">
		<tag k="name" v="Kåpegot" />
		<tag k="place" v="farm" />
		<tag k="ssr:date" v="2016-05-10" />
		<tag k="ssr:gruppe" v="gardsbebyggelse" />
		<tag k="ssr:hovedgruppe" v="bebyggelse" />
		<tag k="ssr:stedsnr" v="123547" />
		<tag k="ssr:type" v="bruk" />
	</node>
	<node id="-19098" lat="59.3411444474" lon="10.8900083269">
		<tag k="name" v="Prestegården" />
		<tag k="place" v="isolated_dwelling" />
		<tag k="ssr:date" v="2019-03-28" />
		<tag k="ssr:gruppe" v="bolighus" />
		<tag k="ssr:hovedgruppe" v="bebyggelse" />
		<tag k="ssr:stedsnr" v="123534" />
		<tag k="ssr:type" v="eneboligMindreBoligbygg" />
	</node>
	<node id="-19097" lat="59.3363944411" lon="10.8453861101">
		<tag k="name" v="Husbakke" />
		<tag k="place" v="farm" />
		<tag k="ssr:date" v="2016-05-10" />
		<tag k="ssr:gruppe" v="gardsbebyggelse" />
		<tag k="ssr:hovedgruppe" v="bebyggelse" />
		<tag k="ssr:stedsnr" v="123530" />
		<tag k="ssr:type" v="bruk" />
	</node>
	<node id="-19096" lat="59.3291805527" lon="10.8407194369">
		<tag k="name" v="Myre" />
		<tag k="place" v="farm" />
		<tag k="ssr:date" v="2016-05-10" />
		<tag k="ssr:gruppe" v="gardsbebyggelse" />
		<tag k="ssr:hovedgruppe" v="bebyggelse" />
		<tag k="ssr:stedsnr" v="123520" />
		<tag k="ssr:type" v="bruk" />
	</node>
	<node id="-19095" lat="59.3261750003" lon="10.8889111091">
		<tag k="name" v="Tverrbekk" />
		<tag k="place" v="farm" />
		<tag k="ssr:date" v="2016-05-10" />
		<tag k="ssr:gruppe" v="gardsbebyggelse" />
		<tag k="ssr:hovedgruppe" v="bebyggelse" />
		<tag k="ssr:stedsnr" v="123516" />
		<tag k="ssr:type" v="bruk" />
	</node>
	<node id="-19094" lat="59.3300888905" lon="10.8857861181">
		<tag k="name" v="Bekkhus" />
		<tag k="place" v="farm" />
		<tag k="ssr:date" v="2016-05-10" />
		<tag k="ssr:gruppe" v="gardsbebyggelse" />
		<tag k="ssr:hovedgruppe" v="bebyggelse" />
		<tag k="ssr:stedsnr" v="123515" />
		<tag k="ssr:type" v="bruk" />
	</node>
	<node id="-19093" lat="59.3263583327" lon="10.7329499951">
		<tag k="name" v="Knappholmene" />
		<tag k="place" v="islet" />
		<tag k="ssr:date" v="2016-05-10" />
		<tag k="ssr:gruppe" v="kystkontur" />
		<tag k="ssr:hovedgruppe" v="sjø" />
		<tag k="ssr:stedsnr" v="123501" />
		<tag k="ssr:type" v="holmegruppeISjø" />
	</node>
	<node id="-19092" lat="59.317902776" lon="10.7393361163">
		<tag k="name" v="Åven" />
		<tag k="place" v="farm" />
		<tag k="ssr:date" v="2016-05-10" />
		<tag k="ssr:gruppe" v="gardsbebyggelse" />
		<tag k="ssr:hovedgruppe" v="bebyggelse" />
		<tag k="ssr:stedsnr" v="123498" />
		<tag k="ssr:type" v="bruk" />
	</node>
	<node id="-19091" lat="59.3517017261" lon="10.8711051345">
		<tag k="amenity" v="townhall" />
		<tag k="name" v="Råde rådhus" />
		<tag k="ssr:date" v="2019-02-07" />
		<tag k="ssr:gruppe" v="institusjoner" />
		<tag k="ssr:hovedgruppe" v="bebyggelse" />
		<tag k="ssr:stedsnr" v="118933" />
		<tag k="ssr:type" v="rådhus" />
	</node>
	<node id="-19090" lat="59.3142916703" lon="10.8665722227">
		<tag k="name" v="Hissingby" />
		<tag k="place" v="farm" />
		<tag k="ssr:date" v="2016-05-10" />
		<tag k="ssr:gruppe" v="gardsbebyggelse" />
		<tag k="ssr:hovedgruppe" v="bebyggelse" />
		<tag k="ssr:stedsnr" v="118859" />
		<tag k="ssr:type" v="bruk" />
	</node>
	<node id="-19089" lat="59.2983555564" lon="10.8597444514">
		<tag k="name" v="Bjørndalen" />
		<tag k="natural" v="valley" />
		<tag k="place" v="locality" />
		<tag k="ssr:date" v="2016-05-10" />
		<tag k="ssr:gruppe" v="senkninger" />
		<tag k="ssr:hovedgruppe" v="terreng" />
		<tag k="ssr:stedsnr" v="118824" />
		<tag k="ssr:type" v="dal" />
	</node>
	<node id="-19088" lat="59.3118777775" lon="10.836027785">
		<tag k="name" v="Løkka" />
		<tag k="place" v="farm" />
		<tag k="ssr:date" v="2016-05-10" />
		<tag k="ssr:gruppe" v="gardsbebyggelse" />
		<tag k="ssr:hovedgruppe" v="bebyggelse" />
		<tag k="ssr:stedsnr" v="118822" />
		<tag k="ssr:type" v="bruk" />
	</node>
	<node id="-19087" lat="59.3174638895" lon="10.8807861097">
		<tag k="name" v="Revjehaugen" />
		<tag k="natural" v="hill" />
		<tag k="place" v="locality" />
		<tag k="ssr:date" v="2016-05-10" />
		<tag k="ssr:gruppe" v="høyder" />
		<tag k="ssr:hovedgruppe" v="terreng" />
		<tag k="ssr:stedsnr" v="118817" />
		<tag k="ssr:type" v="haug" />
	</node>
	<node id="-19086" lat="59.3174611108" lon="10.9179166594">
		<tag k="name" v="Elverhøy" />
		<tag k="place" v="farm" />
		<tag k="ssr:date" v="2016-05-10" />
		<tag k="ssr:gruppe" v="gardsbebyggelse" />
		<tag k="ssr:hovedgruppe" v="bebyggelse" />
		<tag k="ssr:stedsnr" v="118750" />
		<tag k="ssr:type" v="bruk" />
	</node>
	<node id="-19085" lat="59.348191671" lon="10.8952361055">
		<tag k="name" v="Kirkebø" />
		<tag k="place" v="farm" />
		<tag k="ssr:date" v="2016-05-10" />
		<tag k="ssr:gruppe" v="gardsbebyggelse" />
		<tag k="ssr:hovedgruppe" v="bebyggelse" />
		<tag k="ssr:stedsnr" v="118363" />
		<tag k="ssr:type" v="bruk" />
	</node>
	<node id="-19084" lat="59.3497583306" lon="10.8638222169">
		<tag k="name" v="Skråtorp" />
		<tag k="place" v="farm" />
		<tag k="ssr:date" v="2016-05-10" />
		<tag k="ssr:gruppe" v="gardsbebyggelse" />
		<tag k="ssr:hovedgruppe" v="bebyggelse" />
		<tag k="ssr:stedsnr" v="118364" />
		<tag k="ssr:type" v="bruk" />
	</node>
	<node id="-19083" lat="59.3391583326" lon="10.853711104">
		<tag k="fixme" v="consider natural=peak for the most distinct mountains in the district" />
		<tag k="name" v="Strømnesfjellet" />
		<tag k="natural" v="hill" />
		<tag k="place" v="locality" />
		<tag k="ssr:date" v="2016-05-10" />
		<tag k="ssr:gruppe" v="høyder" />
		<tag k="ssr:hovedgruppe" v="terreng" />
		<tag k="ssr:stedsnr" v="118353" />
		<tag k="ssr:type" v="ås" />
	</node>
	<node id="-19082" lat="59.3437749996" lon="10.7776777858">
		<tag k="name" v="Heia" />
		<tag k="place" v="farm" />
		<tag k="ssr:date" v="2016-05-10" />
		<tag k="ssr:gruppe" v="gardsbebyggelse" />
		<tag k="ssr:hovedgruppe" v="bebyggelse" />
		<tag k="ssr:stedsnr" v="117924" />
		<tag k="ssr:type" v="bruk" />
	</node>
	<node id="-19081" lat="59.3397999964" lon="10.7951583295">
		<tag k="alt_name" v="Berg vestre" />
		<tag k="name" v="Vestre Berg" />
		<tag k="place" v="farm" />
		<tag k="ssr:date" v="2016-05-10" />
		<tag k="ssr:gruppe" v="gardsbebyggelse" />
		<tag k="ssr:hovedgruppe" v="bebyggelse" />
		<tag k="ssr:stedsnr" v="117909" />
		<tag k="ssr:type" v="bruk" />
	</node>
	<node id="-19080" lat="59.3133499975" lon="10.911166658">
		<tag k="alt_name" v="Reklingsholm østre" />
		<tag k="name" v="Østre Reklingsholm" />
		<tag k="place" v="farm" />
		<tag k="ssr:date" v="2016-05-10" />
		<tag k="ssr:gruppe" v="gardsbebyggelse" />
		<tag k="ssr:hovedgruppe" v="bebyggelse" />
		<tag k="ssr:stedsnr" v="117888" />
		<tag k="ssr:type" v="bruk" />
	</node>
	<node id="-19079" lat="59.3537666683" lon="10.8798750048">
		<tag k="bridge" v="yes" />
		<tag k="layer" v="1" />
		<tag k="name" v="Karlshusbunn" />
		<tag k="ssr:date" v="2016-05-10" />
		<tag k="ssr:gruppe" v="samferdselsanlegg" />
		<tag k="ssr:hovedgruppe" v="infrastruktur" />
		<tag k="ssr:stedsnr" v="107523" />
		<tag k="ssr:type" v="bru" />
	</node>
	<node id="-19078" lat="59.2802861084" lon="10.677038885">
		<tag k="name" v="Søndre Sletter" />
		<tag k="place" v="islet" />
		<tag k="ssr:date" v="2016-05-10" />
		<tag k="ssr:gruppe" v="kystkontur" />
		<tag k="ssr:hovedgruppe" v="sjø" />
		<tag k="ssr:stedsnr" v="64638" />
		<tag k="ssr:type" v="holmeISjø" />
	</node>
	<node id="-19077" lat="59.3460027749" lon="10.9049277791">
		<tag k="fixme" v="consider place=hamlet" />
		<tag k="name" v="Lundeby" />
		<tag k="place" v="farm" />
		<tag k="ssr:date" v="2016-05-10" />
		<tag k="ssr:gruppe" v="gardsbebyggelse" />
		<tag k="ssr:hovedgruppe" v="bebyggelse" />
		<tag k="ssr:stedsnr" v="63526" />
		<tag k="ssr:type" v="gard" />
	</node>
	<node id="-19076" lat="59.3486083367" lon="10.8950944391">
		<tag k="name" v="Kirkebø" />
		<tag k="place" v="farm" />
		<tag k="ssr:date" v="2016-05-10" />
		<tag k="ssr:gruppe" v="gardsbebyggelse" />
		<tag k="ssr:hovedgruppe" v="bebyggelse" />
		<tag k="ssr:stedsnr" v="63525" />
		<tag k="ssr:type" v="bruk" />
	</node>
	<node id="-19075" lat="59.3470666656" lon="10.8061999948">
		<tag k="fixme" v="consider place=hamlet" />
		<tag k="name" v="Huseby" />
		<tag k="place" v="farm" />
		<tag k="ssr:date" v="2016-05-10" />
		<tag k="ssr:gruppe" v="gardsbebyggelse" />
		<tag k="ssr:hovedgruppe" v="bebyggelse" />
		<tag k="ssr:stedsnr" v="63508" />
		<tag k="ssr:type" v="gard" />
	</node>
	<node id="-19074" lat="59.3516666682" lon="10.8535777707">
		<tag k="name" v="Skråtorp" />
		<tag k="place" v="farm" />
		<tag k="ssr:date" v="2016-05-10" />
		<tag k="ssr:gruppe" v="gardsbebyggelse" />
		<tag k="ssr:hovedgruppe" v="bebyggelse" />
		<tag k="ssr:stedsnr" v="63509" />
		<tag k="ssr:type" v="bruk" />
	</node>
	<node id="-19073" lat="59.3337583366" lon="10.8116638935">
		<tag k="alt_name" v="Hauga" />
		<tag k="name" v="Haga" />
		<tag k="place" v="farm" />
		<tag k="ssr:date" v="2016-05-10" />
		<tag k="ssr:gruppe" v="gardsbebyggelse" />
		<tag k="ssr:hovedgruppe" v="bebyggelse" />
		<tag k="ssr:stedsnr" v="63494" />
		<tag k="ssr:type" v="bruk" />
	</node>
	<node id="-19072" lat="59.3341194467" lon="10.8891388924">
		<tag k="alt_name" v="Salby" />
		<tag k="name" v="Salbu" />
		<tag k="place" v="farm" />
		<tag k="ssr:date" v="2016-05-10" />
		<tag k="ssr:gruppe" v="gardsbebyggelse" />
		<tag k="ssr:hovedgruppe" v="bebyggelse" />
		<tag k="ssr:stedsnr" v="63490" />
		<tag k="ssr:type" v="bruk" />
	</node>
	<node id="-19071" lat="59.3221750009" lon="10.792647219">
		<tag k="alt_name" v="Torkelstad" />
		<tag k="name" v="Torkilstad" />
		<tag k="place" v="farm" />
		<tag k="ssr:date" v="2016-05-10" />
		<tag k="ssr:gruppe" v="gardsbebyggelse" />
		<tag k="ssr:hovedgruppe" v="bebyggelse" />
		<tag k="ssr:stedsnr" v="63469" />
		<tag k="ssr:type" v="bruk" />
	</node>
	<node id="-19070" lat="59.3101499971" lon="10.8809805628">
		<tag k="name" v="Kongsveien" />
		<tag k="place" v="farm" />
		<tag k="ssr:date" v="2016-05-10" />
		<tag k="ssr:gruppe" v="gardsbebyggelse" />
		<tag k="ssr:hovedgruppe" v="bebyggelse" />
		<tag k="ssr:stedsnr" v="63455" />
		<tag k="ssr:type" v="bruk" />
	</node>
	<node id="-19069" lat="59.3763611125" lon="10.967888896">
		<tag k="name" v="Slangsvoll" />
		<tag k="place" v="farm" />
		<tag k="ssr:date" v="2016-05-10" />
		<tag k="ssr:gruppe" v="gardsbebyggelse" />
		<tag k="ssr:hovedgruppe" v="bebyggelse" />
		<tag k="ssr:stedsnr" v="63301" />
		<tag k="ssr:type" v="bruk" />
	</node>
	<node id="-19068" lat="59.3627750026" lon="10.956152775">
		<tag k="name" v="Kleiva" />
		<tag k="place" v="farm" />
		<tag k="ssr:date" v="2016-05-10" />
		<tag k="ssr:gruppe" v="gardsbebyggelse" />
		<tag k="ssr:hovedgruppe" v="bebyggelse" />
		<tag k="ssr:stedsnr" v="63296" />
		<tag k="ssr:type" v="bruk" />
	</node>
	<node id="-19067" lat="59.3325473277" lon="10.8733495541">
		<tag k="alt_name" v="Auberg" />
		<tag k="name" v="Augeberg" />
		<tag k="place" v="farm" />
		<tag k="ssr:date" v="2019-03-12" />
		<tag k="ssr:gruppe" v="gardsbebyggelse" />
		<tag k="ssr:hovedgruppe" v="bebyggelse" />
		<tag k="ssr:stedsnr" v="58856" />
		<tag k="ssr:type" v="bruk" />
	</node>
	<node id="-19066" lat="59.331858333" lon="10.8837083304">
		<tag k="name" v="Haugan" />
		<tag k="place" v="farm" />
		<tag k="ssr:date" v="2016-05-10" />
		<tag k="ssr:gruppe" v="gardsbebyggelse" />
		<tag k="ssr:hovedgruppe" v="bebyggelse" />
		<tag k="ssr:stedsnr" v="58823" />
		<tag k="ssr:type" v="bruk" />
	</node>
	<node id="-19065" lat="59.3753972246" lon="10.949633335">
		<tag k="alt_name" v="Leiedalen nordre" />
		<tag k="name" v="Nordre Leiedalen" />
		<tag k="place" v="farm" />
		<tag k="ssr:date" v="2016-05-10" />
		<tag k="ssr:gruppe" v="gardsbebyggelse" />
		<tag k="ssr:hovedgruppe" v="bebyggelse" />
		<tag k="ssr:stedsnr" v="58600" />
		<tag k="ssr:type" v="bruk" />
	</node>
	<node id="-19064" lat="59.3559805535" lon="10.8771111135">
		<tag k="name" v="Halvorsrød" />
		<tag k="place" v="farm" />
		<tag k="ssr:date" v="2016-05-10" />
		<tag k="ssr:gruppe" v="gardsbebyggelse" />
		<tag k="ssr:hovedgruppe" v="bebyggelse" />
		<tag k="ssr:stedsnr" v="58300" />
		<tag k="ssr:type" v="bruk" />
	</node>
	<node id="-19063" lat="59.3222819336" lon="10.7586980231">
		<tag k="alt_name" v="Fuglevik søndre" />
		<tag k="name" v="Søndre Fuglevik" />
		<tag k="place" v="farm" />
		<tag k="ssr:date" v="2019-02-26" />
		<tag k="ssr:gruppe" v="gardsbebyggelse" />
		<tag k="ssr:hovedgruppe" v="bebyggelse" />
		<tag k="ssr:stedsnr" v="56978" />
		<tag k="ssr:type" v="bruk" />
	</node>
	<node id="-19062" lat="59.3108611098" lon="10.8809138851">
		<tag k="name" v="Kongsrød" />
		<tag k="place" v="farm" />
		<tag k="ssr:date" v="2016-05-10" />
		<tag k="ssr:gruppe" v="gardsbebyggelse" />
		<tag k="ssr:hovedgruppe" v="bebyggelse" />
		<tag k="ssr:stedsnr" v="56895" />
		<tag k="ssr:type" v="bruk" />
	</node>
	<node id="-19061" lat="59.3936000033" lon="10.8173750069">
		<tag k="name" v="Skogstangen" />
		<tag k="natural" v="cape" />
		<tag k="ssr:date" v="2016-05-10" />
		<tag k="ssr:gruppe" v="ferskvannskontur" />
		<tag k="ssr:hovedgruppe" v="ferskvann" />
		<tag k="ssr:stedsnr" v="56890" />
		<tag k="ssr:type" v="nes" />
	</node>
	<node id="-19060" lat="59.3369249974" lon="10.7596333319">
		<tag k="alt_name" v="Tasken søndre" />
		<tag k="name" v="Søndre Tasken" />
		<tag k="place" v="farm" />
		<tag k="ssr:date" v="2016-05-10" />
		<tag k="ssr:gruppe" v="gardsbebyggelse" />
		<tag k="ssr:hovedgruppe" v="bebyggelse" />
		<tag k="ssr:stedsnr" v="56922" />
		<tag k="ssr:type" v="bruk" />
	</node>
	<node id="-19059" lat="59.3065305572" lon="10.8261138848">
		<tag k="name" v="Tombdalen" />
		<tag k="natural" v="valley" />
		<tag k="place" v="locality" />
		<tag k="ssr:date" v="2016-05-10" />
		<tag k="ssr:gruppe" v="senkninger" />
		<tag k="ssr:hovedgruppe" v="terreng" />
		<tag k="ssr:stedsnr" v="56552" />
		<tag k="ssr:type" v="dal" />
	</node>
	<node id="-19058" lat="59.3238583321" lon="10.8033333361">
		<tag k="man_made" v="quay" />
		<tag k="name" v="Tomb brygge" />
		<tag k="place" v="locality" />
		<tag k="ssr:date" v="2016-05-10" />
		<tag k="ssr:gruppe" v="sjøfart" />
		<tag k="ssr:hovedgruppe" v="infrastruktur" />
		<tag k="ssr:stedsnr" v="56545" />
		<tag k="ssr:type" v="brygge" />
	</node>
	<node id="-19057" lat="59.308591664" lon="10.7751944467">
		<tag k="alt_name" v="Makrelskjæret" />
		<tag k="fixme" v="consider seamark:type=rock or natural=shoal" />
		<tag k="name" v="Makrellskjær" />
		<tag k="place" v="islet" />
		<tag k="ssr:date" v="2016-05-10" />
		<tag k="ssr:gruppe" v="grunnerISjø" />
		<tag k="ssr:hovedgruppe" v="sjø" />
		<tag k="ssr:stedsnr" v="28844" />
		<tag k="ssr:type" v="skjærISjø" />
	</node>
	<node id="-19056" lat="59.3122579692" lon="10.7916302763">
		<tag k="name" v="Sandvegen" />
		<tag k="place" v="farm" />
		<tag k="ssr:date" v="2017-11-06" />
		<tag k="ssr:gruppe" v="gardsbebyggelse" />
		<tag k="ssr:hovedgruppe" v="bebyggelse" />
		<tag k="ssr:stedsnr" v="28840" />
		<tag k="ssr:type" v="bruk" />
	</node>
	<node id="-19055" lat="59.2901722215" lon="10.7334861052">
		<tag k="name" v="Saltholmhausen" />
		<tag k="natural" v="shoal" />
		<tag k="place" v="locality" />
		<tag k="ssr:date" v="2016-05-10" />
		<tag k="ssr:gruppe" v="grunnerISjø" />
		<tag k="ssr:hovedgruppe" v="sjø" />
		<tag k="ssr:stedsnr" v="24788" />
		<tag k="ssr:type" v="grunneISjø" />
	</node>
	<node id="-19054" lat="59.288708332" lon="10.6906138912">
		<tag k="alt_name" v="Posgrunnen" />
		<tag k="name" v="Påsgrunnen" />
		<tag k="natural" v="shoal" />
		<tag k="place" v="locality" />
		<tag k="ssr:date" v="2016-05-10" />
		<tag k="ssr:gruppe" v="grunnerISjø" />
		<tag k="ssr:hovedgruppe" v="sjø" />
		<tag k="ssr:stedsnr" v="3601" />
		<tag k="ssr:type" v="grunneISjø" />
	</node>
	<node id="-19053" lat="59.3017250019" lon="10.6673277816">
		<tag k="name" v="Store Sletter" />
		<tag k="place" v="island" />
		<tag k="ssr:date" v="2016-05-10" />
		<tag k="ssr:gruppe" v="kystkontur" />
		<tag k="ssr:hovedgruppe" v="sjø" />
		<tag k="ssr:stedsnr" v="2665" />
		<tag k="ssr:type" v="øyISjø" />
	</node>
	<node id="-19052" lat="59.3471194452" lon="10.9667027795">
		<tag k="alt_name" v="Isebakktjernet" />
		<tag k="name" v="Isebakktjern" />
		<tag k="natural" v="water" />
		<tag k="ssr:date" v="2016-05-10" />
		<tag k="ssr:gruppe" v="stilleståendeVann" />
		<tag k="ssr:hovedgruppe" v="ferskvann" />
		<tag k="ssr:stedsnr" v="2518" />
		<tag k="ssr:type" v="tjern" />
	</node>
	<node id="-19051" lat="59.3474568247" lon="10.8651333976">
		<tag k="alt_name" v="Råde" />
		<tag k="name" v="Råde stasjon" />
		<tag k="railway" v="station" />
		<tag k="ssr:date" v="2018-06-26" />
		<tag k="ssr:gruppe" v="bane" />
		<tag k="ssr:hovedgruppe" v="infrastruktur" />
		<tag k="ssr:stedsnr" v="2512" />
		<tag k="ssr:type" v="stasjon" />
		<tag k="train" v="yes" />
	</node>
	<node id="-19050" lat="59.3447361152" lon="10.8705249995">
		<tag k="name" v="Strømshaug" />
		<tag k="place" v="farm" />
		<tag k="ssr:date" v="2016-05-10" />
		<tag k="ssr:gruppe" v="gardsbebyggelse" />
		<tag k="ssr:hovedgruppe" v="bebyggelse" />
		<tag k="ssr:stedsnr" v="2511" />
		<tag k="ssr:type" v="bruk" />
	</node>
	<node id="-19049" lat="59.3434101294" lon="10.801039725">
		<tag k="fixme" v="consider place=hamlet" />
		<tag k="name" v="Norum" />
		<tag k="place" v="farm" />
		<tag k="ssr:date" v="2019-02-14" />
		<tag k="ssr:gruppe" v="gardsbebyggelse" />
		<tag k="ssr:hovedgruppe" v="bebyggelse" />
		<tag k="ssr:stedsnr" v="2497" />
		<tag k="ssr:type" v="gard" />
	</node>
	<node id="-19048" lat="59.3347583361" lon="10.8314944386">
		<tag k="name" v="Ringsrød" />
		<tag k="place" v="farm" />
		<tag k="ssr:date" v="2016-05-10" />
		<tag k="ssr:gruppe" v="gardsbebyggelse" />
		<tag k="ssr:hovedgruppe" v="bebyggelse" />
		<tag k="ssr:stedsnr" v="2489" />
		<tag k="ssr:type" v="bruk" />
	</node>
	<node id="-19047" lat="59.3290027751" lon="10.9309888828">
		<tag k="fixme" v="consider place=hamlet" />
		<tag k="name" v="Ileby" />
		<tag k="place" v="farm" />
		<tag k="ssr:date" v="2016-05-10" />
		<tag k="ssr:gruppe" v="gardsbebyggelse" />
		<tag k="ssr:hovedgruppe" v="bebyggelse" />
		<tag k="ssr:stedsnr" v="2473" />
		<tag k="ssr:type" v="gard" />
	</node>
	<node id="-19046" lat="59.3218666701" lon="10.9383222201">
		<tag k="name" v="Finstad" />
		<tag k="place" v="farm" />
		<tag k="ssr:date" v="2016-05-10" />
		<tag k="ssr:gruppe" v="gardsbebyggelse" />
		<tag k="ssr:hovedgruppe" v="bebyggelse" />
		<tag k="ssr:stedsnr" v="2452" />
		<tag k="ssr:type" v="bruk" />
	</node>
	<node id="-19045" lat="59.3750694422" lon="10.9226833409">
		<tag k="fixme" v="consider place=hamlet" />
		<tag k="name" v="Gillingsrød" />
		<tag k="place" v="farm" />
		<tag k="ssr:date" v="2016-05-10" />
		<tag k="ssr:gruppe" v="gardsbebyggelse" />
		<tag k="ssr:hovedgruppe" v="bebyggelse" />
		<tag k="ssr:stedsnr" v="2309" />
		<tag k="ssr:type" v="gard" />
	</node>
	<node id="-19044" lat="59.3607098284" lon="10.8226982247">
		<tag k="name" v="Haugsten" />
		<tag k="place" v="hamlet" />
		<tag k="ssr:date" v="2018-06-29" />
		<tag k="ssr:gruppe" v="gardsbebyggelse" />
		<tag k="ssr:hovedgruppe" v="bebyggelse" />
		<tag k="ssr:stedsnr" v="2272" />
		<tag k="ssr:type" v="navnegard" />
	</node>
	<node id="-19043" lat="59.3570833334" lon="10.7897194454">
		<tag k="name" v="Stomner" />
		<tag k="place" v="farm" />
		<tag k="ssr:date" v="2016-05-10" />
		<tag k="ssr:gruppe" v="gardsbebyggelse" />
		<tag k="ssr:hovedgruppe" v="bebyggelse" />
		<tag k="ssr:stedsnr" v="2269" />
		<tag k="ssr:type" v="bruk" />
	</node>
	<node id="-19042" lat="59.3161138857" lon="10.7661638849">
		<tag k="name" v="Store Røstad" />
		<tag k="place" v="farm" />
		<tag k="ssr:date" v="2019-03-28" />
		<tag k="ssr:gruppe" v="gardsbebyggelse" />
		<tag k="ssr:hovedgruppe" v="bebyggelse" />
		<tag k="ssr:stedsnr" v="784570" />
		<tag k="ssr:type" v="bruk" />
	</node>
	<node id="-19041" lat="59.2854367199" lon="10.7448238341">
		<tag k="name" v="Saltnessund" />
		<tag k="natural" v="strait" />
		<tag k="ssr:date" v="2018-09-20" />
		<tag k="ssr:gruppe" v="kystkontur" />
		<tag k="ssr:hovedgruppe" v="sjø" />
		<tag k="ssr:stedsnr" v="987083" />
		<tag k="ssr:type" v="sundISjø" />
	</node>
	<node id="-19040" lat="59.3026845165" lon="10.6702101167">
		<tag k="name" v="Tuva" />
		<tag k="natural" v="hill" />
		<tag k="place" v="locality" />
		<tag k="ssr:date" v="2018-09-20" />
		<tag k="ssr:gruppe" v="høyder" />
		<tag k="ssr:hovedgruppe" v="terreng" />
		<tag k="ssr:stedsnr" v="987082" />
		<tag k="ssr:type" v="haug" />
	</node>
	<node id="-19039" lat="59.3014111133" lon="10.7832833353">
		<tag k="name" v="Andersrød" />
		<tag k="place" v="farm" />
		<tag k="ssr:date" v="2018-02-20" />
		<tag k="ssr:gruppe" v="gardsbebyggelse" />
		<tag k="ssr:hovedgruppe" v="bebyggelse" />
		<tag k="ssr:stedsnr" v="784558" />
		<tag k="ssr:type" v="bruk" />
	</node>
	<node id="-19038" lat="59.2979944489" lon="10.7848249947">
		<tag k="name" v="Andersrød" />
		<tag k="place" v="farm" />
		<tag k="ssr:date" v="2018-02-20" />
		<tag k="ssr:gruppe" v="gardsbebyggelse" />
		<tag k="ssr:hovedgruppe" v="bebyggelse" />
		<tag k="ssr:stedsnr" v="117546" />
		<tag k="ssr:type" v="bruk" />
	</node>
	<node id="-19037" lat="59.2951388882" lon="10.7735055643">
		<tag k="name" v="Andersrød" />
		<tag k="place" v="farm" />
		<tag k="ssr:date" v="2018-02-20" />
		<tag k="ssr:gruppe" v="gardsbebyggelse" />
		<tag k="ssr:hovedgruppe" v="bebyggelse" />
		<tag k="ssr:stedsnr" v="56546" />
		<tag k="ssr:type" v="bruk" />
	</node>
	<node id="-19036" lat="59.3079444476" lon="10.7790749945">
		<tag k="fixme" v="consider place=hamlet" />
		<tag k="name" v="Makrellrød" />
		<tag k="place" v="farm" />
		<tag k="ssr:date" v="2018-02-20" />
		<tag k="ssr:gruppe" v="gardsbebyggelse" />
		<tag k="ssr:hovedgruppe" v="bebyggelse" />
		<tag k="ssr:stedsnr" v="663496" />
		<tag k="ssr:type" v="gard" />
	</node>
	<node id="-19035" lat="59.3051722243" lon="10.7853944402">
		<tag k="name" v="Andersrød" />
		<tag k="place" v="farm" />
		<tag k="ssr:date" v="2018-02-20" />
		<tag k="ssr:gruppe" v="gardsbebyggelse" />
		<tag k="ssr:hovedgruppe" v="bebyggelse" />
		<tag k="ssr:stedsnr" v="299545" />
		<tag k="ssr:type" v="bruk" />
	</node>
	<node id="-19034" lat="59.3071888859" lon="10.8122888919">
		<tag k="name" v="Jerndalen" />
		<tag k="natural" v="valley" />
		<tag k="place" v="locality" />
		<tag k="ssr:date" v="2018-02-20" />
		<tag k="ssr:gruppe" v="senkninger" />
		<tag k="ssr:hovedgruppe" v="terreng" />
		<tag k="ssr:stedsnr" v="56550" />
		<tag k="ssr:type" v="dal" />
	</node>
	<node id="-19033" lat="59.2994416667" lon="10.8204277732">
		<tag k="name" v="Jerndalsfjellet" />
		<tag k="natural" v="ridge" />
		<tag k="place" v="locality" />
		<tag k="ssr:date" v="2018-02-20" />
		<tag k="ssr:gruppe" v="høyder" />
		<tag k="ssr:hovedgruppe" v="terreng" />
		<tag k="ssr:stedsnr" v="845574" />
		<tag k="ssr:type" v="rygg" />
	</node>
	<node id="-19032" lat="59.3483416667" lon="10.8835333419">
		<tag k="name" v="Roe" />
		<tag k="place" v="farm" />
		<tag k="ssr:date" v="2016-05-11" />
		<tag k="ssr:gruppe" v="gardsbebyggelse" />
		<tag k="ssr:hovedgruppe" v="bebyggelse" />
		<tag k="ssr:stedsnr" v="896435" />
		<tag k="ssr:type" v="bruk" />
	</node>
	<node id="-19031" lat="59.3596166712" lon="10.8407361076">
		<tag k="bridge" v="yes" />
		<tag k="layer" v="1" />
		<tag k="name" v="Jonsten rampe" />
		<tag k="ssr:date" v="2016-05-11" />
		<tag k="ssr:gruppe" v="samferdselsanlegg" />
		<tag k="ssr:hovedgruppe" v="infrastruktur" />
		<tag k="ssr:stedsnr" v="896543" />
		<tag k="ssr:type" v="bru" />
	</node>
	<node id="-19030" lat="59.3587388904" lon="10.8399638959">
		<tag k="bridge" v="yes" />
		<tag k="layer" v="1" />
		<tag k="name" v="Jonsten" />
		<tag k="ssr:date" v="2016-05-11" />
		<tag k="ssr:gruppe" v="samferdselsanlegg" />
		<tag k="ssr:hovedgruppe" v="infrastruktur" />
		<tag k="ssr:stedsnr" v="896540" />
		<tag k="ssr:type" v="bru" />
	</node>
	<node id="-19025" lat="59.3043611099" lon="10.6784416616">
		<tag k="name" v="Nesblinda" />
		<tag k="natural" v="strait" />
		<tag k="ssr:date" v="2016-05-10" />
		<tag k="ssr:gruppe" v="kystkontur" />
		<tag k="ssr:hovedgruppe" v="sjø" />
		<tag k="ssr:stedsnr" v="392892" />
		<tag k="ssr:type" v="sundISjø" />
	</node>
	<node id="-19024" lat="59.3517389335" lon="10.8723419075">
		<tag k="name" v="Karlshus" />
		<tag k="old_name" v="Råde" />
		<tag k="place" v="village" />
		<tag k="ssr:date" v="2019-03-07" />
		<tag k="ssr:gruppe" v="bebyggelsesområder" />
		<tag k="ssr:hovedgruppe" v="bebyggelse" />
		<tag k="ssr:stedsnr" v="391341" />
		<tag k="ssr:type" v="tettsted" />
	</node>
	<node id="-19023" lat="59.3462472201" lon="10.8935805489">
		<tag k="amenity" v="place_of_worship" />
		<tag k="denomination" v="lutheran" />
		<tag k="name" v="Råde kirke" />
		<tag k="religion" v="christian" />
		<tag k="ssr:date" v="2016-05-10" />
		<tag k="ssr:gruppe" v="kulturinstitusjoner" />
		<tag k="ssr:hovedgruppe" v="kultur" />
		<tag k="ssr:stedsnr" v="366514" />
		<tag k="ssr:type" v="kirke" />
	</node>
	<node id="-19022" lat="59.3339361097" lon="10.8400138911">
		<tag k="name" v="Myre" />
		<tag k="place" v="farm" />
		<tag k="ssr:date" v="2016-05-10" />
		<tag k="ssr:gruppe" v="gardsbebyggelse" />
		<tag k="ssr:hovedgruppe" v="bebyggelse" />
		<tag k="ssr:stedsnr" v="366477" />
		<tag k="ssr:type" v="bruk" />
	</node>
	<node id="-19021" lat="59.3219527781" lon="10.8099611115">
		<tag k="amenity" v="place_of_worship" />
		<tag k="denomination" v="lutheran" />
		<tag k="name" v="Tomb kirke" />
		<tag k="religion" v="christian" />
		<tag k="ssr:date" v="2016-05-10" />
		<tag k="ssr:gruppe" v="kulturinstitusjoner" />
		<tag k="ssr:hovedgruppe" v="kultur" />
		<tag k="ssr:stedsnr" v="366462" />
		<tag k="ssr:type" v="kirke" />
	</node>
	<node id="-19020" lat="59.3228916667" lon="10.8318555537">
		<tag k="name" v="Rød" />
		<tag k="place" v="farm" />
		<tag k="ssr:date" v="2016-05-10" />
		<tag k="ssr:gruppe" v="gardsbebyggelse" />
		<tag k="ssr:hovedgruppe" v="bebyggelse" />
		<tag k="ssr:stedsnr" v="366455" />
		<tag k="ssr:type" v="bruk" />
	</node>
	<node id="-19019" lat="59.3268388892" lon="10.9357749938">
		<tag k="fixme" v="consider place=hamlet" />
		<tag k="name" v="Jørsø" />
		<tag k="place" v="farm" />
		<tag k="ssr:date" v="2016-05-10" />
		<tag k="ssr:gruppe" v="gardsbebyggelse" />
		<tag k="ssr:hovedgruppe" v="bebyggelse" />
		<tag k="ssr:stedsnr" v="366452" />
		<tag k="ssr:type" v="gard" />
	</node>
	<node id="-19018" lat="59.3102611096" lon="10.7858638963">
		<tag k="name" v="Holme" />
		<tag k="place" v="farm" />
		<tag k="ssr:date" v="2016-05-10" />
		<tag k="ssr:gruppe" v="gardsbebyggelse" />
		<tag k="ssr:hovedgruppe" v="bebyggelse" />
		<tag k="ssr:stedsnr" v="366442" />
		<tag k="ssr:type" v="bruk" />
	</node>
	<node id="-19017" lat="59.3031527786" lon="10.8619194433">
		<tag k="alt_name" v="Kil vestre" />
		<tag k="name" v="Vestre Kil" />
		<tag k="place" v="farm" />
		<tag k="ssr:date" v="2016-05-10" />
		<tag k="ssr:gruppe" v="gardsbebyggelse" />
		<tag k="ssr:hovedgruppe" v="bebyggelse" />
		<tag k="ssr:stedsnr" v="366425" />
		<tag k="ssr:type" v="bruk" />
	</node>
	<node id="-19016" lat="59.3046305552" lon="10.8200027702">
		<tag k="alt_name" v="Jerndalen" />
		<tag k="name" v="Jerndal" />
		<tag k="place" v="isolated_dwelling" />
		<tag k="ssr:date" v="2016-05-10" />
		<tag k="ssr:gruppe" v="bolighus" />
		<tag k="ssr:hovedgruppe" v="bebyggelse" />
		<tag k="ssr:stedsnr" v="366423" />
		<tag k="ssr:type" v="eneboligMindreBoligbygg" />
	</node>
	<node id="-19015" lat="59.3864583311" lon="10.9148749947">
		<tag k="name" v="Bjørkå" />
		<tag k="place" v="farm" />
		<tag k="ssr:date" v="2016-05-10" />
		<tag k="ssr:gruppe" v="gardsbebyggelse" />
		<tag k="ssr:hovedgruppe" v="bebyggelse" />
		<tag k="ssr:stedsnr" v="366295" />
		<tag k="ssr:type" v="bruk" />
	</node>
	<node id="-19014" lat="59.369124534" lon="10.8302135816">
		<tag k="name" v="Haugstenstøa" />
		<tag k="place" v="farm" />
		<tag k="ssr:date" v="2018-06-27" />
		<tag k="ssr:gruppe" v="gardsbebyggelse" />
		<tag k="ssr:hovedgruppe" v="bebyggelse" />
		<tag k="ssr:stedsnr" v="366267" />
		<tag k="ssr:type" v="bruk" />
	</node>
	<node id="-19013" lat="59.3681749991" lon="10.8565750064">
		<tag k="name" v="Langøya" />
		<tag k="place" v="islet" />
		<tag k="ssr:date" v="2016-05-10" />
		<tag k="ssr:gruppe" v="ferskvannskontur" />
		<tag k="ssr:hovedgruppe" v="ferskvann" />
		<tag k="ssr:stedsnr" v="366266" />
		<tag k="ssr:type" v="holme" />
	</node>
	<node id="-19012" lat="59.3541533874" lon="10.8159479719">
		<tag k="fixme" v="consider place=hamlet" />
		<tag k="name" v="Haug" />
		<tag k="place" v="farm" />
		<tag k="ssr:date" v="2018-06-29" />
		<tag k="ssr:gruppe" v="gardsbebyggelse" />
		<tag k="ssr:hovedgruppe" v="bebyggelse" />
		<tag k="ssr:stedsnr" v="366261" />
		<tag k="ssr:type" v="gard" />
	</node>
	<node id="-19011" lat="59.3573305545" lon="10.8807388808">
		<tag k="building" v="industrial" />
		<tag k="industrial" v="factory" />
		<tag k="name" v="Karlshus bruk" />
		<tag k="ssr:date" v="2016-05-10" />
		<tag k="ssr:gruppe" v="næring" />
		<tag k="ssr:hovedgruppe" v="bebyggelse" />
		<tag k="ssr:stedsnr" v="366251" />
		<tag k="ssr:type" v="fabrikk" />
	</node>
	<node id="-19010" lat="59.351699997" lon="10.9276527783">
		<tag k="alt_name" v="Skaugen" />
		<tag k="name" v="Skogen" />
		<tag k="place" v="farm" />
		<tag k="ssr:date" v="2016-05-10" />
		<tag k="ssr:gruppe" v="gardsbebyggelse" />
		<tag k="ssr:hovedgruppe" v="bebyggelse" />
		<tag k="ssr:stedsnr" v="366245" />
		<tag k="ssr:type" v="bruk" />
	</node>
	<node id="-19009" lat="59.3311805575" lon="10.8714555473">
		<tag k="alt_name" v="Auberg søndre;Augeberg søndre" />
		<tag k="name" v="Søndre Augeberg" />
		<tag k="place" v="farm" />
		<tag k="ssr:date" v="2016-05-10" />
		<tag k="ssr:gruppe" v="gardsbebyggelse" />
		<tag k="ssr:hovedgruppe" v="bebyggelse" />
		<tag k="ssr:stedsnr" v="361864" />
		<tag k="ssr:type" v="bruk" />
	</node>
	<node id="-19008" lat="59.3334944469" lon="10.9307944526">
		<tag k="alt_name" v="Åkeberg østre" />
		<tag k="name" v="Østre Åkeberg" />
		<tag k="place" v="farm" />
		<tag k="ssr:date" v="2016-05-10" />
		<tag k="ssr:gruppe" v="gardsbebyggelse" />
		<tag k="ssr:hovedgruppe" v="bebyggelse" />
		<tag k="ssr:stedsnr" v="361788" />
		<tag k="ssr:type" v="bruk" />
	</node>
	<node id="-19007" lat="59.3790416632" lon="10.8378611096">
		<tag k="fixme" v="consider boundary=protected_area and relevant protect_class if not nature reserve" />
		<tag k="leisure" v="nature_reserve" />
		<tag k="name" v="Moskjæra naturreservat" />
		<tag k="ssr:date" v="2016-05-10" />
		<tag k="ssr:gruppe" v="verne-OgBruksområder" />
		<tag k="ssr:hovedgruppe" v="offentligAdministrasjon" />
		<tag k="ssr:stedsnr" v="361287" />
		<tag k="ssr:type" v="verneområde" />
	</node>
	<node id="-19006" lat="59.3598377118" lon="10.8204191587">
		<tag k="alt_name" v="Haugesten nedre;Nedre Haugesten" />
		<tag k="fixme" v="consider place=hamlet" />
		<tag k="name" v="Nedre Haugsten" />
		<tag k="place" v="farm" />
		<tag k="ssr:date" v="2018-06-29" />
		<tag k="ssr:gruppe" v="gardsbebyggelse" />
		<tag k="ssr:hovedgruppe" v="bebyggelse" />
		<tag k="ssr:stedsnr" v="359926" />
		<tag k="ssr:type" v="gard" />
	</node>
	<node id="-19005" lat="59.3594027811" lon="10.8266138878">
		<tag k="alt_name" v="Haug øvre" />
		<tag k="name" v="Øvre Haug" />
		<tag k="place" v="farm" />
		<tag k="ssr:date" v="2016-05-10" />
		<tag k="ssr:gruppe" v="gardsbebyggelse" />
		<tag k="ssr:hovedgruppe" v="bebyggelse" />
		<tag k="ssr:stedsnr" v="359923" />
		<tag k="ssr:type" v="bruk" />
	</node>
	<node id="-19004" lat="59.3893944478" lon="10.8162694471">
		<tag k="name" v="Brandenborg" />
		<tag k="place" v="locality" />
		<tag k="ssr:date" v="2016-05-10" />
		<tag k="ssr:gruppe" v="kulturminner" />
		<tag k="ssr:hovedgruppe" v="kultur" />
		<tag k="ssr:stedsnr" v="359886" />
		<tag k="ssr:type" v="annenKulturdetalj" />
	</node>
	<node id="-19003" lat="59.3062361113" lon="10.8994555564">
		<tag k="fixme" v="consider natural=peak for the most distinct mountains in the district" />
		<tag k="name" v="Ravneberget" />
		<tag k="natural" v="hill" />
		<tag k="place" v="locality" />
		<tag k="ssr:date" v="2016-05-10" />
		<tag k="ssr:gruppe" v="høyder" />
		<tag k="ssr:hovedgruppe" v="terreng" />
		<tag k="ssr:stedsnr" v="359885" />
		<tag k="ssr:type" v="ås" />
	</node>
	<node id="-19002" lat="59.3245166686" lon="10.8129638916">
		<tag k="name" v="Verkens lund" />
		<tag k="place" v="locality" />
		<tag k="ssr:date" v="2016-05-10" />
		<tag k="ssr:gruppe" v="kulturminner" />
		<tag k="ssr:hovedgruppe" v="kultur" />
		<tag k="ssr:stedsnr" v="359536" />
		<tag k="ssr:type" v="annenKulturdetalj" />
	</node>
	<node id="-19001" lat="59.3116305585" lon="10.6688638894">
		<tag k="name" v="Sletterhakan" />
		<tag k="natural" v="shoal" />
		<tag k="place" v="locality" />
		<tag k="ssr:date" v="2016-05-10" />
		<tag k="ssr:gruppe" v="grunnerISjø" />
		<tag k="ssr:hovedgruppe" v="sjø" />
		<tag k="ssr:stedsnr" v="331903" />
		<tag k="ssr:type" v="grunneISjø" />
	</node>
	<node id="-19000" lat="59.2912111127" lon="10.714213882">
		<tag k="bay" v="fjord" />
		<tag k="name" v="Krokstadleira" />
		<tag k="natural" v="bay" />
		<tag k="ssr:date" v="2016-05-10" />
		<tag k="ssr:gruppe" v="farvann" />
		<tag k="ssr:hovedgruppe" v="sjø" />
		<tag k="ssr:stedsnr" v="331883" />
		<tag k="ssr:type" v="fjord" />
	</node>
	<node id="-18999" lat="59.3215111138" lon="10.800716659">
		<tag k="name" v="Bua" />
		<tag k="place" v="farm" />
		<tag k="ssr:date" v="2016-05-10" />
		<tag k="ssr:gruppe" v="gardsbebyggelse" />
		<tag k="ssr:hovedgruppe" v="bebyggelse" />
		<tag k="ssr:stedsnr" v="331815" />
		<tag k="ssr:type" v="bruk" />
	</node>
	<node id="-18998" lat="59.3302444451" lon="10.8234999933">
		<tag k="name" v="Sønsterød" />
		<tag k="place" v="farm" />
		<tag k="ssr:date" v="2016-05-10" />
		<tag k="ssr:gruppe" v="gardsbebyggelse" />
		<tag k="ssr:hovedgruppe" v="bebyggelse" />
		<tag k="ssr:stedsnr" v="306440" />
		<tag k="ssr:type" v="bruk" />
	</node>
	<node id="-18997" lat="59.3333083324" lon="10.7758833415">
		<tag k="name" v="Holer" />
		<tag k="place" v="farm" />
		<tag k="ssr:date" v="2016-05-10" />
		<tag k="ssr:gruppe" v="gardsbebyggelse" />
		<tag k="ssr:hovedgruppe" v="bebyggelse" />
		<tag k="ssr:stedsnr" v="306434" />
		<tag k="ssr:type" v="bruk" />
	</node>
	<node id="-18996" lat="59.3277166625" lon="10.7577333367">
		<tag k="name" v="Helgerød" />
		<tag k="place" v="farm" />
		<tag k="ssr:date" v="2016-05-10" />
		<tag k="ssr:gruppe" v="gardsbebyggelse" />
		<tag k="ssr:hovedgruppe" v="bebyggelse" />
		<tag k="ssr:stedsnr" v="306433" />
		<tag k="ssr:type" v="bruk" />
	</node>
	<node id="-18995" lat="59.3200991072" lon="10.9051087853">
		<tag k="fixme" v="consider place=hamlet" />
		<tag k="name" v="Tofteberg" />
		<tag k="place" v="farm" />
		<tag k="ssr:date" v="2019-02-21" />
		<tag k="ssr:gruppe" v="gardsbebyggelse" />
		<tag k="ssr:hovedgruppe" v="bebyggelse" />
		<tag k="ssr:stedsnr" v="306411" />
		<tag k="ssr:type" v="gard" />
	</node>
	<node id="-18994" lat="59.3050888915" lon="10.7234361039">
		<tag k="name" v="Åventangen" />
		<tag k="place" v="isolated_dwelling" />
		<tag k="ssr:date" v="2016-05-10" />
		<tag k="ssr:gruppe" v="bolighus" />
		<tag k="ssr:hovedgruppe" v="bebyggelse" />
		<tag k="ssr:stedsnr" v="306400" />
		<tag k="ssr:type" v="fritidsbolig" />
	</node>
	<node id="-18993" lat="59.3632861071" lon="10.8719722177">
		<tag k="alt_name" v="Starengen" />
		<tag k="name" v="Starenga" />
		<tag k="place" v="farm" />
		<tag k="ssr:date" v="2016-05-10" />
		<tag k="ssr:gruppe" v="gardsbebyggelse" />
		<tag k="ssr:hovedgruppe" v="bebyggelse" />
		<tag k="ssr:stedsnr" v="306245" />
		<tag k="ssr:type" v="bruk" />
	</node>
	<node id="-18992" lat="59.3446499974" lon="10.9492027761">
		<tag k="alt_name" v="Åkebergmosan" />
		<tag k="name" v="Åkebergmosen" />
		<tag k="natural" v="wetland" />
		<tag k="ssr:date" v="2016-05-10" />
		<tag k="ssr:gruppe" v="våtmark" />
		<tag k="ssr:hovedgruppe" v="markslag" />
		<tag k="ssr:stedsnr" v="305532" />
		<tag k="ssr:type" v="myr" />
	</node>
	<node id="-18991" lat="59.3499194456" lon="10.9347861195">
		<tag k="name" v="Lund" />
		<tag k="place" v="farm" />
		<tag k="ssr:date" v="2016-05-10" />
		<tag k="ssr:gruppe" v="gardsbebyggelse" />
		<tag k="ssr:hovedgruppe" v="bebyggelse" />
		<tag k="ssr:stedsnr" v="305527" />
		<tag k="ssr:type" v="bruk" />
	</node>
	<node id="-18990" lat="59.3457888878" lon="10.7861527767">
		<tag k="name" v="Myra" />
		<tag k="place" v="farm" />
		<tag k="ssr:date" v="2016-05-10" />
		<tag k="ssr:gruppe" v="gardsbebyggelse" />
		<tag k="ssr:hovedgruppe" v="bebyggelse" />
		<tag k="ssr:stedsnr" v="305519" />
		<tag k="ssr:type" v="bruk" />
	</node>
	<node id="-18989" lat="59.3410333328" lon="10.9559444418">
		<tag k="name" v="Åkebergbråten" />
		<tag k="place" v="farm" />
		<tag k="ssr:date" v="2016-05-10" />
		<tag k="ssr:gruppe" v="gardsbebyggelse" />
		<tag k="ssr:hovedgruppe" v="bebyggelse" />
		<tag k="ssr:stedsnr" v="305511" />
		<tag k="ssr:type" v="bruk" />
	</node>
	<node id="-18988" lat="59.3339055526" lon="10.9310916612">
		<tag k="fixme" v="consider place=hamlet" />
		<tag k="name" v="Åkeberg" />
		<tag k="place" v="farm" />
		<tag k="ssr:date" v="2016-05-10" />
		<tag k="ssr:gruppe" v="gardsbebyggelse" />
		<tag k="ssr:hovedgruppe" v="bebyggelse" />
		<tag k="ssr:stedsnr" v="305509" />
		<tag k="ssr:type" v="gard" />
	</node>
	<node id="-18987" lat="59.304969733" lon="10.7854962446">
		<tag k="fixme" v="consider place=hamlet" />
		<tag k="name" v="Andersrød" />
		<tag k="place" v="farm" />
		<tag k="ssr:date" v="2019-05-16" />
		<tag k="ssr:gruppe" v="gardsbebyggelse" />
		<tag k="ssr:hovedgruppe" v="bebyggelse" />
		<tag k="ssr:stedsnr" v="305433" />
		<tag k="ssr:type" v="gard" />
	</node>
	<node id="-18986" lat="59.3468916652" lon="10.9653583247">
		<tag k="name" v="Staringa" />
		<tag k="place" v="islet" />
		<tag k="ssr:date" v="2016-05-10" />
		<tag k="ssr:gruppe" v="ferskvannskontur" />
		<tag k="ssr:hovedgruppe" v="ferskvann" />
		<tag k="ssr:stedsnr" v="300584" />
		<tag k="ssr:type" v="holme" />
	</node>
	<node id="-18985" lat="59.3673361122" lon="10.9456694477">
		<tag k="fixme" v="consider natural=peak for the most distinct mountains in the district" />
		<tag k="name" v="Langklo" />
		<tag k="natural" v="hill" />
		<tag k="place" v="locality" />
		<tag k="ssr:date" v="2016-05-10" />
		<tag k="ssr:gruppe" v="høyder" />
		<tag k="ssr:hovedgruppe" v="terreng" />
		<tag k="ssr:stedsnr" v="300581" />
		<tag k="ssr:type" v="ås" />
	</node>
	<node id="-18984" lat="59.3622499998" lon="10.9518166729">
		<tag k="name" v="Engen" />
		<tag k="place" v="farm" />
		<tag k="ssr:date" v="2016-05-10" />
		<tag k="ssr:gruppe" v="gardsbebyggelse" />
		<tag k="ssr:hovedgruppe" v="bebyggelse" />
		<tag k="ssr:stedsnr" v="300574" />
		<tag k="ssr:type" v="bruk" />
	</node>
	<node id="-18983" lat="59.3600833373" lon="10.9088333328">
		<tag k="fixme" v="consider natural=peak for the most distinct mountains in the district" />
		<tag k="name" v="Fugleleiken" />
		<tag k="natural" v="hill" />
		<tag k="place" v="locality" />
		<tag k="ssr:date" v="2016-05-10" />
		<tag k="ssr:gruppe" v="høyder" />
		<tag k="ssr:hovedgruppe" v="terreng" />
		<tag k="ssr:stedsnr" v="300274" />
		<tag k="ssr:type" v="ås" />
	</node>
	<node id="-18982" lat="59.348730553" lon="10.7600666637">
		<tag k="name" v="Tyggelite" />
		<tag k="place" v="farm" />
		<tag k="ssr:date" v="2016-05-10" />
		<tag k="ssr:gruppe" v="gardsbebyggelse" />
		<tag k="ssr:hovedgruppe" v="bebyggelse" />
		<tag k="ssr:stedsnr" v="300214" />
		<tag k="ssr:type" v="bruk" />
	</node>
	<node id="-18981" lat="59.325369445" lon="10.7566444424">
		<tag k="fixme" v="consider natural=peak for the most distinct mountains in the district" />
		<tag k="name" v="Vestre Åsen" />
		<tag k="natural" v="hill" />
		<tag k="place" v="locality" />
		<tag k="ssr:date" v="2016-05-10" />
		<tag k="ssr:gruppe" v="høyder" />
		<tag k="ssr:hovedgruppe" v="terreng" />
		<tag k="ssr:stedsnr" v="299955" />
		<tag k="ssr:type" v="ås" />
	</node>
	<node id="-18980" lat="59.3494833297" lon="10.7759694482">
		<tag k="name" v="Heia" />
		<tag k="place" v="locality" />
		<tag k="ssr:date" v="2016-05-10" />
		<tag k="ssr:gruppe" v="bolighus" />
		<tag k="ssr:hovedgruppe" v="bebyggelse" />
		<tag k="ssr:stedsnr" v="299924" />
		<tag k="ssr:type" v="gammelBosettingsplass" />
	</node>
	<node id="-18979" lat="59.339747224" lon="10.770786113">
		<tag k="alt_name" v="Gammelsrød søndre" />
		<tag k="name" v="Søndre Gammelsrød" />
		<tag k="place" v="farm" />
		<tag k="ssr:date" v="2016-05-10" />
		<tag k="ssr:gruppe" v="gardsbebyggelse" />
		<tag k="ssr:hovedgruppe" v="bebyggelse" />
		<tag k="ssr:stedsnr" v="299922" />
		<tag k="ssr:type" v="bruk" />
	</node>
	<node id="-18978" lat="59.3160055581" lon="10.7839055474">
		<tag k="fixme" v="consider boundary=protected_area and relevant protect_class if not nature reserve" />
		<tag k="leisure" v="nature_reserve" />
		<tag k="name" v="Kråkstadfjorden naturreservat" />
		<tag k="ssr:date" v="2017-05-30" />
		<tag k="ssr:gruppe" v="verne-OgBruksområder" />
		<tag k="ssr:hovedgruppe" v="offentligAdministrasjon" />
		<tag k="ssr:stedsnr" v="299558" />
		<tag k="ssr:type" v="verneområde" />
	</node>
	<node id="-18977" lat="59.3235527789" lon="10.8848416685">
		<tag k="bridge" v="yes" />
		<tag k="layer" v="1" />
		<tag k="name" v="Enebekk" />
		<tag k="ssr:date" v="2016-05-10" />
		<tag k="ssr:gruppe" v="samferdselsanlegg" />
		<tag k="ssr:hovedgruppe" v="infrastruktur" />
		<tag k="ssr:stedsnr" v="289535" />
		<tag k="ssr:type" v="bru" />
	</node>
	<node id="-18976" lat="59.3481472203" lon="10.8859472181">
		<tag k="name" v="Roe" />
		<tag k="place" v="farm" />
		<tag k="ssr:date" v="2016-05-10" />
		<tag k="ssr:gruppe" v="gardsbebyggelse" />
		<tag k="ssr:hovedgruppe" v="bebyggelse" />
		<tag k="ssr:stedsnr" v="289401" />
		<tag k="ssr:type" v="bruk" />
	</node>
	<node id="-18975" lat="59.2978638933" lon="10.663461107">
		<tag k="name" v="Haukebukta" />
		<tag k="natural" v="bay" />
		<tag k="ssr:date" v="2016-05-10" />
		<tag k="ssr:gruppe" v="kystkontur" />
		<tag k="ssr:hovedgruppe" v="sjø" />
		<tag k="ssr:stedsnr" v="271913" />
		<tag k="ssr:type" v="vikISjø" />
	</node>
	<node id="-18974" lat="59.309386115" lon="10.7164611026">
		<tag k="fixme" v="consider seamark:type=rock or natural=shoal" />
		<tag k="name" v="Kameratskjær" />
		<tag k="place" v="islet" />
		<tag k="ssr:date" v="2016-05-10" />
		<tag k="ssr:gruppe" v="grunnerISjø" />
		<tag k="ssr:hovedgruppe" v="sjø" />
		<tag k="ssr:stedsnr" v="271895" />
		<tag k="ssr:type" v="skjærISjø" />
	</node>
</osm>
