<?xml version="1.0" encoding="UTF-8"?>
<osm generator="osmapis" version="0.6">
	<node id="-458752" lat="60.5639888933" lon="6.663200005">
		<tag k="name" v="Såkvitnabekken" />
		<tag k="ssr:stedsnr" v="432865" />
		<tag k="waterway" v="stream" />
	</node>
	<node id="-458744" lat="60.5547077197" lon="6.79350676477">
		<tag k="name" v="Kjerringatjørni" />
		<tag k="natural" v="water" />
		<tag k="ssr:stedsnr" v="431787" />
	</node>
	<node id="-458739" lat="60.5120160223" lon="6.61852075721">
		<tag k="name" v="Lomtjørn" />
		<tag k="natural" v="water" />
		<tag k="ssr:stedsnr" v="250029" />
	</node>
	<node id="-458579" lat="60.5660540852" lon="6.6418493572">
		<tag k="name" v="Krokavatnet" />
		<tag k="natural" v="water" />
		<tag k="ssr:stedsnr" v="7858" />
		<tag k="water" v="lake" />
	</node>
	<node id="-458736" lat="60.5809805594" lon="6.80479443684">
		<tag k="name" v="Skarafjellsbekken" />
		<tag k="ssr:stedsnr" v="249833" />
		<tag k="waterway" v="stream" />
	</node>
	<node id="-458733" lat="60.5459269807" lon="6.79546827092">
		<tag k="name" v="Lomtjørn" />
		<tag k="natural" v="water" />
		<tag k="ssr:stedsnr" v="249799" />
	</node>
	<node id="-458578" lat="60.5627806839" lon="6.78440687734">
		<tag k="name" v="Lyngerstjørn" />
		<tag k="natural" v="water" />
		<tag k="ssr:stedsnr" v="7847" />
	</node>
	<node id="-458729" lat="60.5552277773" lon="6.73971666239">
		<tag k="name" v="Kyrkjeelvi" />
		<tag k="ssr:stedsnr" v="249764" />
		<tag k="waterway" v="river" />
	</node>
	<node id="-458728" lat="60.5512257033" lon="6.7816796734">
		<tag k="name" v="Søkkja" />
		<tag k="natural" v="water" />
		<tag k="ssr:stedsnr" v="249760" />
	</node>
	<node id="-458727" lat="60.5542000018" lon="6.754363894">
		<tag k="name" v="Bjørndalsbekken" />
		<tag k="ssr:stedsnr" v="249761" />
		<tag k="waterway" v="stream" />
	</node>
	<node id="-458724" lat="60.5256905153" lon="6.61163248362">
		<tag k="name" v="Hardingatjørni" />
		<tag k="natural" v="water" />
		<tag k="ssr:stedsnr" v="249055" />
	</node>
	<node id="-458722" lat="60.5871194428" lon="6.61633333174">
		<tag k="name" v="Moavatnet" />
		<tag k="natural" v="water" />
		<tag k="ssr:stedsnr" v="248947" />
		<tag k="water" v="lake" />
	</node>
	<node id="-458721" lat="60.4761658159" lon="6.56944424097">
		<tag k="alt_name" v="Kvandalsvatnet" />
		<tag k="name" v="Kvanndalsvatnet" />
		<tag k="natural" v="water" />
		<tag k="ssr:stedsnr" v="248214" />
	</node>
	<node id="-458709" lat="60.60978572" lon="6.68627237053">
		<tag k="name" v="Hengsdaltjørni" />
		<tag k="natural" v="water" />
		<tag k="ssr:stedsnr" v="221699" />
	</node>
	<node id="-458695" lat="60.5389666663" lon="6.75638888442">
		<tag k="name" v="Tveitelvi" />
		<tag k="ssr:stedsnr" v="189763" />
		<tag k="waterway" v="river" />
	</node>
	<node id="-458693" lat="60.5523138849" lon="6.71449722453">
		<tag k="name" v="Granvinsvatnet" />
		<tag k="natural" v="water" />
		<tag k="ssr:stedsnr" v="189747" />
		<tag k="water" v="lake" />
	</node>
	<node id="-458690" lat="60.5102015612" lon="6.60070026113">
		<tag k="name" v="Langelitjørni" />
		<tag k="natural" v="water" />
		<tag k="ssr:stedsnr" v="189030" />
	</node>
	<node id="-458683" lat="60.5530638885" lon="6.76372777065">
		<tag k="name" v="Djupadalsbekken" />
		<tag k="ssr:stedsnr" v="188804" />
		<tag k="waterway" v="stream" />
	</node>
	<node id="-458682" lat="60.4830333331" lon="6.52015000507">
		<tag k="name" v="Herdabreidvatni" />
		<tag k="natural" v="water" />
		<tag k="ssr:stedsnr" v="188794" />
		<tag k="water" v="lake" />
	</node>
	<node id="-458996" lat="60.478191663" lon="6.66602221507">
		<tag k="name" v="Hamreelvi" />
		<tag k="ssr:stedsnr" v="750184" />
		<tag k="waterway" v="river" />
	</node>
	<node id="-458665" lat="60.4674805538" lon="6.59538611766">
		<tag k="name" v="Gryvlebekken" />
		<tag k="ssr:stedsnr" v="160111" />
		<tag k="waterway" v="stream" />
	</node>
	<node id="-458660" lat="60.5637469263" lon="6.6374516298">
		<tag k="name" v="Øvstavatnet" />
		<tag k="natural" v="water" />
		<tag k="ssr:stedsnr" v="159879" />
		<tag k="water" v="lake" />
	</node>
	<node id="-458656" lat="60.5672444475" lon="6.74340276879">
		<tag k="name" v="Tråelvi" />
		<tag k="ssr:stedsnr" v="128867" />
		<tag k="waterway" v="river" />
	</node>
	<node id="-458646" lat="60.4764889462" lon="6.55608186781">
		<tag k="alt_name" v="Svartetjørni" />
		<tag k="name" v="Svortetjørn" />
		<tag k="natural" v="water" />
		<tag k="ssr:stedsnr" v="126211" />
	</node>
	<node id="-458645" lat="60.4817833308" lon="6.58618889046">
		<tag k="name" v="Stølsbekken" />
		<tag k="ssr:stedsnr" v="126207" />
		<tag k="waterway" v="stream" />
	</node>
	<node id="-458644" lat="60.4664208906" lon="6.54776028407">
		<tag k="name" v="Lomtjørni" />
		<tag k="natural" v="water" />
		<tag k="ssr:stedsnr" v="126190" />
	</node>
	<node id="-458643" lat="60.4606888855" lon="6.53876944335">
		<tag k="name" v="Stølselvi" />
		<tag k="ssr:stedsnr" v="126181" />
		<tag k="waterway" v="river" />
	</node>
	<node id="-459075" lat="60.5690194442" lon="6.77777500193">
		<tag k="name" v="Svedalsbekken" />
		<tag k="ssr:stedsnr" v="857868" />
		<tag k="waterway" v="stream" />
	</node>
	<node id="-458637" lat="60.5181596119" lon="6.62281516232">
		<tag k="name" v="Grisatjørn" />
		<tag k="natural" v="water" />
		<tag k="ssr:stedsnr" v="99916" />
	</node>
	<node id="-459004" lat="60.4987341396" lon="6.60610437911">
		<tag k="name" v="Gaphellertjørnane" />
		<tag k="natural" v="water" />
		<tag k="ssr:stedsnr" v="766906" />
		<tag k="water" v="lake" />
	</node>
	<node id="-458632" lat="60.6111333315" lon="6.73565000035">
		<tag k="name" v="Våarstigen" />
		<tag k="ssr:stedsnr" v="99863" />
		<tag k="waterway" v="stream" />
	</node>
	<node id="-458621" lat="60.5512722257" lon="6.67544444937">
		<tag k="name" v="Flotaelvi" />
		<tag k="ssr:stedsnr" v="68781" />
		<tag k="waterway" v="river" />
	</node>
	<node id="-458985" lat="60.5482277768" lon="6.70681110775">
		<tag k="name" v="Lines" />
		<tag k="natural" v="cape" />
		<tag k="ssr:stedsnr" v="735749" />
	</node>
	<node id="-458610" lat="60.4859530668" lon="6.57722404162">
		<tag k="name" v="Tveitevatni" />
		<tag k="natural" v="water" />
		<tag k="ssr:stedsnr" v="66775" />
		<tag k="water" v="lake" />
	</node>
	<node id="-458607" lat="60.4774555553" lon="6.59972500484">
		<tag k="name" v="Kvanndalselvi" />
		<tag k="ssr:stedsnr" v="66391" />
		<tag k="waterway" v="river" />
	</node>
	<node id="-458601" lat="60.5272855414" lon="6.66262058107">
		<tag k="name" v="Lomtjørn" />
		<tag k="natural" v="water" />
		<tag k="ssr:stedsnr" v="39792" />
	</node>
	<node id="-458600" lat="60.556555559" lon="6.63601389228">
		<tag k="name" v="Horgabekken" />
		<tag k="ssr:stedsnr" v="39744" />
		<tag k="waterway" v="stream" />
	</node>
	<node id="-459111" lat="60.5223805512" lon="6.72281110932">
		<tag k="name" v="Granvinelva" />
		<tag k="natural" v="water" />
		<tag k="ssr:stedsnr" v="949763" />
		<tag k="water" v="lake" />
	</node>
	<node id="-458598" lat="60.5944916623" lon="6.80540554688">
		<tag k="name" v="Nutebekken" />
		<tag k="ssr:stedsnr" v="38938" />
		<tag k="waterway" v="stream" />
	</node>
	<node id="-458597" lat="60.4901421085" lon="6.61597409554">
		<tag k="name" v="Kalvbakketjørnane" />
		<tag k="natural" v="water" />
		<tag k="ssr:stedsnr" v="38914" />
		<tag k="water" v="lake" />
	</node>
	<node id="-459106" lat="60.4631499969" lon="6.52086111564">
		<tag k="name" v="Blejo" />
		<tag k="ssr:stedsnr" v="949720" />
		<tag k="waterway" v="stream" />
	</node>
	<node id="-459098" lat="60.4724416626" lon="6.67116666034">
		<tag k="name" v="Nuteelvi" />
		<tag k="ssr:stedsnr" v="932220" />
		<tag k="waterway" v="river" />
	</node>
	<node id="-459096" lat="60.5926972251" lon="6.81272777444">
		<tag k="name" v="Brurpikeholmen" />
		<tag k="place" v="islet" />
		<tag k="ssr:stedsnr" v="917902" />
	</node>
	<node id="-458582" lat="60.594969442" lon="6.82658055562">
		<tag k="name" v="Grasviki" />
		<tag k="natural" v="bay" />
		<tag k="ssr:stedsnr" v="7915" />
	</node>
	<node id="-459091" lat="60.5348444441" lon="6.72984167218">
		<tag k="name" v="Nedre Vassenden" />
		<tag k="natural" v="strait" />
		<tag k="ssr:stedsnr" v="917789" />
	</node>
	<node id="-459090" lat="60.5580138934" lon="6.8082638917">
		<tag k="name" v="Fessene" />
		<tag k="natural" v="waterfall" />
		<tag k="ssr:stedsnr" v="917761" />
	</node>
	<node id="-459089" lat="60.5550400797" lon="6.80276101837">
		<tag k="name" v="Fessetjørni" />
		<tag k="natural" v="water" />
		<tag k="ssr:stedsnr" v="917757" />
	</node>
	<node id="-459087" lat="60.5289638892" lon="6.63551943725">
		<tag k="name" v="Ormtjørni" />
		<tag k="natural" v="water" />
		<tag k="ssr:stedsnr" v="917048" />
	</node>
	<node id="-459086" lat="60.5980666681" lon="6.82213333049">
		<tag k="name" v="Espelandsfossen" />
		<tag k="natural" v="waterfall" />
		<tag k="ssr:stedsnr" v="916938" />
	</node>
	<node id="-458571" lat="60.5132300235" lon="6.6323874419">
		<tag k="name" v="Svortetjørn" />
		<tag k="natural" v="water" />
		<tag k="ssr:stedsnr" v="7053" />
	</node>
	<node id="-458564" lat="60.609766668" lon="6.63885277711">
		<tag k="name" v="Skaftedalselvi" />
		<tag k="ssr:stedsnr" v="6891" />
		<tag k="waterway" v="river" />
	</node>
	<node id="-458563" lat="60.4941027756" lon="6.58481667206">
		<tag k="name" v="Koldo" />
		<tag k="ssr:stedsnr" v="6793" />
		<tag k="waterway" v="stream" />
	</node>
	<node id="-458559" lat="60.5437061194" lon="6.62910307855">
		<tag k="name" v="Storeholmen" />
		<tag k="place" v="islet" />
		<tag k="ssr:stedsnr" v="991091" />
	</node>
	<node id="-458558" lat="60.5460288215" lon="6.62154437355">
		<tag k="name" v="Krokavatnet" />
		<tag k="natural" v="water" />
		<tag k="ssr:stedsnr" v="613750" />
		<tag k="water" v="lake" />
	</node>
	<node id="-458557" lat="60.5589011787" lon="6.72737035515">
		<tag k="name" v="Tråneset" />
		<tag k="natural" v="cape" />
		<tag k="ssr:stedsnr" v="987782" />
	</node>
	<node id="-459061" lat="60.4669243832" lon="6.55747631767">
		<tag k="loc_name" v="Vetlavatnet" />
		<tag k="name" v="Veslevatnet" />
		<tag k="natural" v="water" />
		<tag k="ssr:stedsnr" v="855202" />
	</node>
	<node id="-458543" lat="60.5416305531" lon="6.77260556059">
		<tag k="name" v="Veslavatn" />
		<tag k="natural" v="water" />
		<tag k="ssr:stedsnr" v="888929" />
		<tag k="water" v="lake" />
	</node>
	<node id="-459054" lat="60.5003444413" lon="6.70115278618">
		<tag k="name" v="Selstodbekken" />
		<tag k="ssr:stedsnr" v="828737" />
		<tag k="waterway" v="stream" />
	</node>
	<node id="-458535" lat="60.5700222181" lon="6.64028333644">
		<tag k="name" v="Øyktårni" />
		<tag k="ssr:stedsnr" v="888850" />
		<tag k="waterway" v="river" />
	</node>
	<node id="-459044" lat="60.5578694415" lon="6.71193056105">
		<tag k="name" v="Helsnes" />
		<tag k="natural" v="cape" />
		<tag k="ssr:stedsnr" v="827877" />
	</node>
	<node id="-458531" lat="60.5297416637" lon="6.64445555553">
		<tag k="name" v="Frigardsvatn" />
		<tag k="natural" v="water" />
		<tag k="ssr:stedsnr" v="888804" />
		<tag k="water" v="lake" />
	</node>
	<node id="-459041" lat="60.5026055534" lon="6.76815278047">
		<tag k="name" v="Tverrelvi" />
		<tag k="ssr:stedsnr" v="796895" />
		<tag k="waterway" v="river" />
	</node>
	<node id="-459038" lat="60.5399777741" lon="6.78306666784">
		<tag k="name" v="Måvotno" />
		<tag k="natural" v="water" />
		<tag k="ssr:stedsnr" v="796800" />
		<tag k="water" v="lake" />
	</node>
	<node id="-458521" lat="60.4518472264" lon="6.49601667435">
		<tag k="name" v="Urdafossen" />
		<tag k="natural" v="waterfall" />
		<tag k="ssr:stedsnr" v="408109" />
	</node>
	<node id="-458520" lat="60.5898444485" lon="6.8006333287">
		<tag k="name" v="Kaldhusnes" />
		<tag k="natural" v="cape" />
		<tag k="ssr:stedsnr" v="403832" />
	</node>
	<node id="-458519" lat="60.5250944482" lon="6.66589165853">
		<tag k="name" v="Nyademma" />
		<tag k="natural" v="water" />
		<tag k="ssr:stedsnr" v="403822" />
		<tag k="water" v="lake" />
	</node>
	<node id="-459030" lat="60.5890894736" lon="6.80836799986">
		<tag k="name" v="Espelandsvatnet" />
		<tag k="natural" v="water" />
		<tag k="ssr:stedsnr" v="795922" />
		<tag k="water" v="lake" />
	</node>
	<node id="-458517" lat="60.5656388884" lon="6.69691110924">
		<tag k="name" v="Kattaråa" />
		<tag k="ssr:stedsnr" v="403786" />
		<tag k="waterway" v="river" />
	</node>
	<node id="-459028" lat="60.5507448447" lon="6.77878498827">
		<tag k="name" v="Demma" />
		<tag k="natural" v="water" />
		<tag k="ssr:stedsnr" v="795774" />
	</node>
	<node id="-459026" lat="60.5469750039" lon="6.77840832917">
		<tag k="name" v="Vatnasetelvi" />
		<tag k="ssr:stedsnr" v="795759" />
		<tag k="waterway" v="river" />
	</node>
	<node id="-459022" lat="60.4775333361" lon="6.58652500026">
		<tag k="name" v="Bytesbekken" />
		<tag k="ssr:stedsnr" v="794202" />
		<tag k="waterway" v="stream" />
	</node>
	<node id="-459021" lat="60.4717650243" lon="6.55747079985">
		<tag k="alt_name" v="Storvatnet" />
		<tag k="name" v="Storavatnet" />
		<tag k="natural" v="water" />
		<tag k="ssr:stedsnr" v="794187" />
	</node>
	<node id="-459020" lat="60.4625416665" lon="6.52287500249">
		<tag k="name" v="Sagelvi" />
		<tag k="ssr:stedsnr" v="794181" />
		<tag k="waterway" v="stream" />
	</node>
	<node id="-458506" lat="60.5819194399" lon="6.68647776988">
		<tag k="name" v="Skarvefossen" />
		<tag k="natural" v="waterfall" />
		<tag k="ssr:stedsnr" v="402919" />
	</node>
	<node id="-458501" lat="60.5406555537" lon="6.77156666549">
		<tag k="name" v="Veslavatn" />
		<tag k="natural" v="water" />
		<tag k="ssr:stedsnr" v="402899" />
		<tag k="water" v="lake" />
	</node>
	<node id="-458500" lat="60.5800833302" lon="6.79332221587">
		<tag k="name" v="Geiturdsbekken" />
		<tag k="natural" v="water" />
		<tag k="ssr:stedsnr" v="402897" />
		<tag k="water" v="lake" />
	</node>
	<node id="-458498" lat="60.5643819983" lon="6.64984292178">
		<tag k="name" v="Midttjørn" />
		<tag k="natural" v="water" />
		<tag k="ssr:stedsnr" v="402886" />
	</node>
	<node id="-458495" lat="60.580108331" lon="6.6463527789">
		<tag k="name" v="Skarabekken" />
		<tag k="ssr:stedsnr" v="371837" />
		<tag k="waterway" v="stream" />
	</node>
	<node id="-458494" lat="60.5847911644" lon="6.78707267662">
		<tag k="name" v="Lomtjørni" />
		<tag k="natural" v="water" />
		<tag k="ssr:stedsnr" v="371831" />
	</node>
	<node id="-458492" lat="60.5495833361" lon="6.79586666517">
		<tag k="name" v="Vatnasetvatnet" />
		<tag k="natural" v="water" />
		<tag k="ssr:stedsnr" v="371809" />
		<tag k="water" v="lake" />
	</node>
	<node id="-458490" lat="60.5329611128" lon="6.79945832856">
		<tag k="name" v="Fuglavatnet" />
		<tag k="natural" v="water" />
		<tag k="ssr:stedsnr" v="371797" />
		<tag k="water" v="lake" />
	</node>
	<node id="-458487" lat="60.5222700646" lon="6.63811813842">
		<tag k="name" v="Spunstjørni" />
		<tag k="natural" v="water" />
		<tag k="ssr:stedsnr" v="371034" />
	</node>
	<node id="-458484" lat="60.5958638899" lon="6.79353334224">
		<tag k="name" v="Hagabekken" />
		<tag k="ssr:stedsnr" v="370934" />
		<tag k="waterway" v="stream" />
	</node>
	<node id="-458480" lat="60.6254483375" lon="6.82305923743">
		<tag k="name" v="Trollavatnet" />
		<tag k="natural" v="water" />
		<tag k="ssr:stedsnr" v="370914" />
		<tag k="water" v="lake" />
	</node>
	<node id="-458987" lat="60.5568564853" lon="6.6646825063">
		<tag k="name" v="Middagsvatnet" />
		<tag k="natural" v="water" />
		<tag k="ssr:stedsnr" v="735773" />
		<tag k="water" v="lake" />
	</node>
	<node id="-458473" lat="60.4955000044" lon="6.63960000418">
		<tag k="alt_name" v="Folkedalselva" />
		<tag k="name" v="Folkedalselvi" />
		<tag k="ssr:stedsnr" v="359820" />
		<tag k="waterway" v="river" />
	</node>
	<node id="-458470" lat="60.5610663584" lon="6.78222675276">
		<tag k="name" v="Vesle Lyngerstjørn" />
		<tag k="natural" v="water" />
		<tag k="ssr:stedsnr" v="342794" />
	</node>
	<node id="-458981" lat="60.5244960546" lon="6.76238053847">
		<tag k="name" v="Ljosegråbekken" />
		<tag k="ssr:stedsnr" v="735050" />
		<tag k="waterway" v="stream" />
	</node>
	<node id="-458978" lat="60.5918972261" lon="6.71969722935">
		<tag k="name" v="Kvannskorebekken" />
		<tag k="ssr:stedsnr" v="734906" />
		<tag k="waterway" v="stream" />
	</node>
	<node id="-458462" lat="60.5185611078" lon="6.63183611589">
		<tag k="name" v="Vieren" />
		<tag k="ssr:stedsnr" v="341937" />
		<tag k="waterway" v="river" />
	</node>
	<node id="-458968" lat="60.4940611133" lon="6.69607778586">
		<tag k="name" v="Drivfoss" />
		<tag k="natural" v="waterfall" />
		<tag k="ssr:stedsnr" v="711518" />
	</node>
	<node id="-458963" lat="60.5554583293" lon="6.63334443693">
		<tag k="name" v="Horgabekken" />
		<tag k="ssr:stedsnr" v="706771" />
		<tag k="waterway" v="stream" />
	</node>
	<node id="-458447" lat="60.5377472231" lon="6.72254444054">
		<tag k="name" v="Stuvanes" />
		<tag k="natural" v="cape" />
		<tag k="ssr:stedsnr" v="310793" />
	</node>
	<node id="-458953" lat="60.4867764428" lon="6.61395692859">
		<tag k="name" v="Hålitjørnane" />
		<tag k="natural" v="water" />
		<tag k="ssr:stedsnr" v="705901" />
		<tag k="water" v="lake" />
	</node>
	<node id="-458952" lat="60.4830423246" lon="6.62110278416">
		<tag k="name" v="Svetjørn" />
		<tag k="natural" v="water" />
		<tag k="ssr:stedsnr" v="705900" />
	</node>
	<node id="-458438" lat="60.6192305562" lon="6.74216666498">
		<tag k="name" v="Våarelvi" />
		<tag k="ssr:stedsnr" v="309904" />
		<tag k="waterway" v="river" />
	</node>
	<node id="-458942" lat="60.5870555532" lon="6.79519723097">
		<tag k="name" v="Langetangen" />
		<tag k="natural" v="cape" />
		<tag k="ssr:stedsnr" v="674822" />
	</node>
	<node id="-458941" lat="60.5812194451" lon="6.75126388082">
		<tag k="name" v="Dritlingabekken" />
		<tag k="ssr:stedsnr" v="674819" />
		<tag k="waterway" v="stream" />
	</node>
	<node id="-458427" lat="60.5733805566" lon="6.76544166159">
		<tag k="name" v="Verafossen" />
		<tag k="natural" v="waterfall" />
		<tag k="ssr:stedsnr" v="281894" />
	</node>
	<node id="-458422" lat="60.5986638903" lon="6.8058416693">
		<tag k="name" v="Svåbekken" />
		<tag k="ssr:stedsnr" v="281865" />
		<tag k="waterway" v="stream" />
	</node>
	<node id="-458933" lat="60.596574999" lon="6.70146388428">
		<tag k="name" v="Skorvo" />
		<tag k="ssr:stedsnr" v="673937" />
		<tag k="waterway" v="river" />
	</node>
	<node id="-458928" lat="60.4505138912" lon="6.49695000855">
		<tag k="name" v="Urdaneselvi" />
		<tag k="ssr:stedsnr" v="673260" />
		<tag k="waterway" v="stream" />
	</node>
	<node id="-458918" lat="60.6099861117" lon="6.68138055159">
		<tag k="name" v="Nuteelvi" />
		<tag k="ssr:stedsnr" v="645773" />
		<tag k="waterway" v="river" />
	</node>
	<node id="-458916" lat="60.4618694435" lon="6.51916388268">
		<tag k="name" v="Blejesonen" />
		<tag k="ssr:stedsnr" v="645763" />
		<tag k="waterway" v="stream" />
	</node>
	<node id="-458907" lat="60.5090583293" lon="6.70730833339">
		<tag k="alt_name" v="Kaldå" />
		<tag k="name" v="Koldo" />
		<tag k="ssr:stedsnr" v="644905" />
		<tag k="waterway" v="stream" />
	</node>
	<node id="-458897" lat="60.5047527803" lon="6.67641110355">
		<tag k="name" v="Kvernabekken" />
		<tag k="ssr:stedsnr" v="613881" />
		<tag k="waterway" v="stream" />
	</node>
	<node id="-458895" lat="60.5628292801" lon="6.80855155942">
		<tag k="name" v="Svortetjørn" />
		<tag k="natural" v="water" />
		<tag k="ssr:stedsnr" v="613852" />
	</node>
	<node id="-458892" lat="60.5798458719" lon="6.71417575174">
		<tag k="name" v="Tryglaskarstjørni" />
		<tag k="natural" v="water" />
		<tag k="ssr:stedsnr" v="613830" />
	</node>
	<node id="-459031" lat="60.586997219" lon="6.63781667443">
		<tag k="name" v="Skjervsfossen" />
		<tag k="natural" v="waterfall" />
		<tag k="ssr:stedsnr" v="795944" />
	</node>
	<node id="-458888" lat="60.5362305557" lon="6.66720556246">
		<tag k="name" v="Håtjørn" />
		<tag k="natural" v="water" />
		<tag k="ssr:stedsnr" v="613789" />
	</node>
	<node id="-458880" lat="60.5878222253" lon="6.71622222499">
		<tag k="name" v="Allibekken" />
		<tag k="ssr:stedsnr" v="612921" />
		<tag k="waterway" v="stream" />
	</node>
	<node id="-458877" lat="60.4602666655" lon="6.54800556296">
		<tag k="name" v="Hellerelvi" />
		<tag k="ssr:stedsnr" v="612210" />
		<tag k="waterway" v="stream" />
	</node>
	<node id="-458866" lat="60.5147666685" lon="6.71740555328">
		<tag k="name" v="Grytefossen" />
		<tag k="natural" v="waterfall" />
		<tag k="ssr:stedsnr" v="584913" />
	</node>
	<node id="-458859" lat="60.562401903" lon="6.65110490273">
		<tag k="name" v="Storavatnet" />
		<tag k="natural" v="water" />
		<tag k="ssr:stedsnr" v="584873" />
		<tag k="water" v="lake" />
	</node>
	<node id="-458856" lat="60.590641668" lon="6.80569999193">
		<tag k="name" v="Ponsteigneset" />
		<tag k="natural" v="cape" />
		<tag k="ssr:stedsnr" v="584831" />
	</node>
	<node id="-458855" lat="60.5852583306" lon="6.78158612039">
		<tag k="name" v="Liasetbekken" />
		<tag k="ssr:stedsnr" v="584829" />
		<tag k="waterway" v="stream" />
	</node>
	<node id="-458854" lat="60.5957500005" lon="6.78648332568">
		<tag k="name" v="Bastedalsbekken" />
		<tag k="ssr:stedsnr" v="584828" />
		<tag k="waterway" v="stream" />
	</node>
	<node id="-458853" lat="60.5710666653" lon="6.71699445289">
		<tag k="name" v="Stronda" />
		<tag k="natural" v="beach" />
		<tag k="ssr:stedsnr" v="584823" />
	</node>
	<node id="-458838" lat="60.5251805592" lon="6.75054444564">
		<tag k="name" v="Hyrpo" />
		<tag k="ssr:stedsnr" v="553052" />
		<tag k="waterway" v="river" />
	</node>
	<node id="-458837" lat="60.6035861154" lon="6.68339443934">
		<tag k="name" v="Hengsdalselvi" />
		<tag k="ssr:stedsnr" v="552904" />
		<tag k="waterway" v="river" />
	</node>
	<node id="-458835" lat="60.5808805516" lon="6.73537222287">
		<tag k="name" v="Fljåetjørnane" />
		<tag k="natural" v="water" />
		<tag k="ssr:stedsnr" v="552860" />
		<tag k="water" v="lake" />
	</node>
	<node id="-458834" lat="60.535983329" lon="6.64428610683">
		<tag k="name" v="Røyrvatnet" />
		<tag k="natural" v="water" />
		<tag k="ssr:stedsnr" v="552827" />
		<tag k="water" v="lake" />
	</node>
	<node id="-458831" lat="60.5123583301" lon="6.7193305488">
		<tag k="name" v="Skredelvi" />
		<tag k="ssr:stedsnr" v="552045" />
		<tag k="waterway" v="river" />
	</node>
	<node id="-458813" lat="60.5261416643" lon="6.72785832522">
		<tag k="loc_name" v="Skielvi" />
		<tag k="name" v="Skielva" />
		<tag k="ssr:stedsnr" v="523941" />
		<tag k="waterway" v="river" />
	</node>
	<node id="-458811" lat="60.5679111106" lon="6.77994444439">
		<tag k="name" v="Svåbekken" />
		<tag k="ssr:stedsnr" v="523932" />
		<tag k="waterway" v="stream" />
	</node>
	<node id="-458780" lat="60.4607777782" lon="6.5514583388">
		<tag k="name" v="Tverrelvi" />
		<tag k="ssr:stedsnr" v="490186" />
		<tag k="waterway" v="stream" />
	</node>
	<node id="-458775" lat="60.5738638933" lon="6.65376111854">
		<tag k="name" v="Kvernabekken" />
		<tag k="ssr:stedsnr" v="463913" />
		<tag k="waterway" v="stream" />
	</node>
	<node id="-458774" lat="60.4697194448" lon="6.55638889084">
		<tag k="name" v="Mitto" />
		<tag k="natural" v="water" />
		<tag k="ssr:stedsnr" v="463900" />
		<tag k="water" v="lake" />
	</node>
	<node id="-459094" lat="60.5617000045" lon="6.67243334153">
		<tag k="name" v="Storeskorbekken" />
		<tag k="ssr:stedsnr" v="917867" />
		<tag k="waterway" v="stream" />
	</node>
	<node id="-458753" lat="60.5831916692" lon="6.66569999579">
		<tag k="name" v="Storelvi" />
		<tag k="ssr:stedsnr" v="432885" />
		<tag k="waterway" v="river" />
	</node>
</osm>
