<?xml version="1.0" encoding="UTF-8"?>
<osm generator="osmapis" version="0.6">
	<node id="-459388" lat="60.6033861107" lon="6.8061777863">
		<tag k="name" v="Moltesteinen" />
		<tag k="natural" v="stone" />
		<tag k="ssr:stedsnr" v="463824" />
	</node>
	<node id="-459640" lat="60.6081583303" lon="6.72160556194">
		<tag k="name" v="Budeiemyri" />
		<tag k="natural" v="wetland" />
		<tag k="ssr:stedsnr" v="767833" />
	</node>
	<node id="-459248" lat="60.4924694475" lon="6.59117500464">
		<tag k="name" v="Haugamyrane" />
		<tag k="natural" v="wetland" />
		<tag k="ssr:stedsnr" v="99152" />
	</node>
	<node id="-459630" lat="60.5636111143" lon="6.68069166966">
		<tag k="name" v="Urdals Skreda" />
		<tag k="natural" v="scree" />
		<tag k="ssr:stedsnr" v="766930" />
	</node>
	<node id="-459367" lat="60.5615222178" lon="6.6802194432">
		<tag k="name" v="Urdalsskreda" />
		<tag k="natural" v="scree" />
		<tag k="ssr:stedsnr" v="250844" />
	</node>
	<node id="-459238" lat="60.5346250019" lon="6.68117499669">
		<tag k="name" v="Storemyr" />
		<tag k="natural" v="wetland" />
		<tag k="ssr:stedsnr" v="67801" />
	</node>
	<node id="-459487" lat="60.5724361135" lon="6.80674721952">
		<tag k="name" v="Gråurane" />
		<tag k="natural" v="scree" />
		<tag k="ssr:stedsnr" v="584892" />
	</node>
	<node id="-459230" lat="60.4873694444" lon="6.66970000323">
		<tag k="name" v="Hamrehagen" />
		<tag k="place" v="locality" />
		<tag k="ssr:stedsnr" v="44520" />
	</node>
	<node id="-459738" lat="60.5834111111" lon="6.77928610239">
		<tag k="name" v="Kallhagen" />
		<tag k="place" v="locality" />
		<tag k="ssr:stedsnr" v="949780" />
	</node>
	<node id="-459601" lat="60.5993499963" lon="6.66851388047">
		<tag k="name" v="Tingsteinen" />
		<tag k="natural" v="stone" />
		<tag k="ssr:stedsnr" v="734877" />
	</node>
	<node id="-459216" lat="60.56858333" lon="6.72259167574">
		<tag k="name" v="Lysteinen" />
		<tag k="natural" v="stone" />
		<tag k="ssr:stedsnr" v="38884" />
	</node>
	<node id="-459343" lat="60.5110250038" lon="6.69013611454">
		<tag k="name" v="Bruresengi" />
		<tag k="place" v="locality" />
		<tag k="ssr:stedsnr" v="226561" />
	</node>
	<node id="-459339" lat="60.5548444469" lon="6.76733889098">
		<tag k="name" v="Fjellmyr" />
		<tag k="natural" v="wetland" />
		<tag k="ssr:stedsnr" v="221772" />
	</node>
	<node id="-459466" lat="60.5392361138" lon="6.76885555533">
		<tag k="name" v="Leiken" />
		<tag k="natural" v="wetland" />
		<tag k="ssr:stedsnr" v="553791" />
	</node>
	<node id="-459205" lat="60.5638166662" lon="6.69360832699">
		<tag k="name" v="Nesheimshagen" />
		<tag k="place" v="locality" />
		<tag k="ssr:stedsnr" v="7864" />
	</node>
	<node id="-459454" lat="60.5009638902" lon="6.70159444828">
		<tag k="name" v="Selstodskreda" />
		<tag k="natural" v="scree" />
		<tag k="ssr:stedsnr" v="552025" />
	</node>
	<node id="-459296" lat="60.4792138871" lon="6.68731943647">
		<tag k="name" v="Kvilemyra" />
		<tag k="natural" v="wetland" />
		<tag k="ssr:stedsnr" v="160788" />
	</node>
	<node id="-459293" lat="60.6077277768" lon="6.71551388893">
		<tag k="name" v="Diket" />
		<tag k="natural" v="wetland" />
		<tag k="ssr:stedsnr" v="160763" />
	</node>
	<node id="-459548" lat="60.500372223" lon="6.66169999599">
		<tag k="name" v="Daurmålssteinen" />
		<tag k="natural" v="stone" />
		<tag k="ssr:stedsnr" v="646713" />
	</node>
	<node id="-459675" lat="60.5114111078" lon="6.6642027729">
		<tag k="name" v="Salttunna" />
		<tag k="natural" v="stone" />
		<tag k="ssr:stedsnr" v="828710" />
	</node>
	<node id="-459674" lat="60.4958805557" lon="6.65202778634">
		<tag k="name" v="Harabåsen" />
		<tag k="natural" v="wetland" />
		<tag k="ssr:stedsnr" v="828694" />
	</node>
	<node id="-459143" lat="60.5633444432" lon="6.73865833861">
		<tag k="name" v="Øyjordi" />
		<tag k="place" v="locality" />
		<tag k="ssr:stedsnr" v="403813" />
	</node>
	<node id="-459523" lat="60.6292757186" lon="6.80356107776">
		<tag k="name" v="Olsskavlen" />
		<tag k="natural" v="glacier" />
		<tag k="ssr:stedsnr" v="613905" />
	</node>
</osm>
