<?xml version="1.0" encoding="UTF-8"?>
<osm generator="osmapis" version="0.6">
	<node id="-458752" lat="60.5639888933" lon="6.663200005">
		<tag k="name" v="Såkvitnabekken" />
		<tag k="ssr:stedsnr" v="432865" />
		<tag k="waterway" v="stream" />
	</node>
	<node id="-458751" lat="60.5653416682" lon="6.72443055398">
		<tag k="alt_name" v="Holven" />
		<tag k="fixme" v="consider place=hamlet" />
		<tag k="name" v="Hollve" />
		<tag k="place" v="farm" />
		<tag k="ssr:stedsnr" v="432851" />
	</node>
	<node id="-458750" lat="60.5701333355" lon="6.63099999525">
		<tag k="name" v="Bjørnehaugane" />
		<tag k="natural" v="hill" />
		<tag k="place" v="locality" />
		<tag k="ssr:stedsnr" v="432805" />
	</node>
	<node id="-458749" lat="60.5267111116" lon="6.7423638833">
		<tag k="name" v="Kambane" />
		<tag k="natural" v="ridge" />
		<tag k="place" v="locality" />
		<tag k="ssr:stedsnr" v="432046" />
	</node>
	<node id="-458748" lat="60.5156527774" lon="6.70855278297">
		<tag k="name" v="Furenes" />
		<tag k="natural" v="cape" />
		<tag k="ssr:stedsnr" v="432030" />
	</node>
	<node id="-458747" lat="60.5939555594" lon="6.75005277866">
		<tag k="fixme" v="consider natural=peak for the most distinct mountains in the district" />
		<tag k="name" v="Olavstølsnuten" />
		<tag k="natural" v="hill" />
		<tag k="ssr:stedsnr" v="431930" />
	</node>
	<node id="-458746" lat="60.5905820724" lon="6.66351842718">
		<tag k="alt_name" v="Kolskår" />
		<tag k="fixme" v="consider place=hamlet" />
		<tag k="name" v="Kollskår" />
		<tag k="place" v="farm" />
		<tag k="ssr:stedsnr" v="431924" />
	</node>
	<node id="-458745" lat="60.5918026602" lon="6.70686510065">
		<tag k="historic" v="shieling" />
		<tag k="name" v="Allii" />
		<tag k="place" v="locality" />
		<tag k="ssr:stedsnr" v="431922" />
	</node>
	<node id="-458744" lat="60.5547077197" lon="6.79350676477">
		<tag k="name" v="Kjerringatjørni" />
		<tag k="natural" v="water" />
		<tag k="ssr:stedsnr" v="431787" />
	</node>
	<node id="-458743" lat="60.592711114" lon="6.77099167141">
		<tag k="name" v="Gunnarhaug" />
		<tag k="natural" v="hill" />
		<tag k="place" v="locality" />
		<tag k="ssr:stedsnr" v="264143" />
	</node>
	<node id="-458742" lat="60.5615222178" lon="6.6802194432">
		<tag k="name" v="Urdalsskreda" />
		<tag k="natural" v="scree" />
		<tag k="ssr:stedsnr" v="250844" />
	</node>
	<node id="-458741" lat="60.555289084" lon="6.73094921332">
		<tag k="alt_name" v="Granvin" />
		<tag k="amenity" v="place_of_worship" />
		<tag k="denomination" v="lutheran" />
		<tag k="name" v="Granvin kyrkje" />
		<tag k="religion" v="christian" />
		<tag k="ssr:stedsnr" v="250771" />
	</node>
	<node id="-458740" lat="60.5227388921" lon="6.70006944938">
		<tag k="name" v="Ådnagavlen" />
		<tag k="natural" v="ridge" />
		<tag k="place" v="locality" />
		<tag k="ssr:stedsnr" v="250061" />
	</node>
	<node id="-458739" lat="60.5120160223" lon="6.61852075721">
		<tag k="name" v="Lomtjørn" />
		<tag k="natural" v="water" />
		<tag k="ssr:stedsnr" v="250029" />
	</node>
	<node id="-458738" lat="60.5997916689" lon="6.7256055513">
		<tag k="name" v="Kleivabakken" />
		<tag k="natural" v="slope" />
		<tag k="place" v="locality" />
		<tag k="ssr:stedsnr" v="249922" />
	</node>
	<node id="-458737" lat="60.6194694452" lon="6.82301389367">
		<tag k="name" v="Trollabotnen" />
		<tag k="natural" v="valley" />
		<tag k="place" v="locality" />
		<tag k="ssr:stedsnr" v="249874" />
	</node>
	<node id="-458736" lat="60.5809805594" lon="6.80479443684">
		<tag k="name" v="Skarafjellsbekken" />
		<tag k="ssr:stedsnr" v="249833" />
		<tag k="waterway" v="stream" />
	</node>
	<node id="-458735" lat="60.5817277804" lon="6.75634166242">
		<tag k="name" v="Langhaug" />
		<tag k="natural" v="hill" />
		<tag k="place" v="locality" />
		<tag k="ssr:stedsnr" v="249829" />
	</node>
	<node id="-458734" lat="60.5712565007" lon="6.69869755692">
		<tag k="fixme" v="consider place=suburb, village or hamlet" />
		<tag k="name" v="Øvre Vassenden" />
		<tag k="place" v="quarter" />
		<tag k="ssr:stedsnr" v="249809" />
	</node>
	<node id="-458733" lat="60.5459269807" lon="6.79546827092">
		<tag k="name" v="Lomtjørn" />
		<tag k="natural" v="water" />
		<tag k="ssr:stedsnr" v="249799" />
	</node>
	<node id="-458732" lat="60.5395666632" lon="6.63407222326">
		<tag k="name" v="Vetlahorgi" />
		<tag k="natural" v="hill" />
		<tag k="place" v="locality" />
		<tag k="ssr:stedsnr" v="249792" />
	</node>
	<node id="-458731" lat="60.5343611109" lon="6.70258055244">
		<tag k="name" v="Gili" />
		<tag k="natural" v="gorge" />
		<tag k="ssr:stedsnr" v="249785" />
	</node>
	<node id="-458730" lat="60.5350805518" lon="6.75129722546">
		<tag k="name" v="Jukelsklepp" />
		<tag k="natural" v="hill" />
		<tag k="place" v="locality" />
		<tag k="ssr:stedsnr" v="249779" />
	</node>
	<node id="-458729" lat="60.5552277773" lon="6.73971666239">
		<tag k="name" v="Kyrkjeelvi" />
		<tag k="ssr:stedsnr" v="249764" />
		<tag k="waterway" v="river" />
	</node>
	<node id="-458728" lat="60.5512257033" lon="6.7816796734">
		<tag k="name" v="Søkkja" />
		<tag k="natural" v="water" />
		<tag k="ssr:stedsnr" v="249760" />
	</node>
	<node id="-458727" lat="60.5542000018" lon="6.754363894">
		<tag k="name" v="Bjørndalsbekken" />
		<tag k="ssr:stedsnr" v="249761" />
		<tag k="waterway" v="stream" />
	</node>
	<node id="-458726" lat="60.5448277766" lon="6.63357778424">
		<tag k="historic" v="shieling" />
		<tag k="name" v="Langedalen" />
		<tag k="place" v="locality" />
		<tag k="ssr:stedsnr" v="249742" />
	</node>
	<node id="-458725" lat="60.5303000034" lon="6.69486388282">
		<tag k="alt_name" v="Midås" />
		<tag k="fixme" v="consider place=hamlet" />
		<tag k="name" v="Medås" />
		<tag k="place" v="farm" />
		<tag k="ssr:stedsnr" v="249058" />
	</node>
	<node id="-458724" lat="60.5256905153" lon="6.61163248362">
		<tag k="name" v="Hardingatjørni" />
		<tag k="natural" v="water" />
		<tag k="ssr:stedsnr" v="249055" />
	</node>
	<node id="-458723" lat="60.5896388875" lon="6.61764166368">
		<tag k="name" v="Kamben" />
		<tag k="natural" v="ridge" />
		<tag k="place" v="locality" />
		<tag k="ssr:stedsnr" v="248948" />
	</node>
	<node id="-458722" lat="60.5871194428" lon="6.61633333174">
		<tag k="name" v="Moavatnet" />
		<tag k="natural" v="water" />
		<tag k="ssr:stedsnr" v="248947" />
		<tag k="water" v="lake" />
	</node>
	<node id="-458721" lat="60.4761658159" lon="6.56944424097">
		<tag k="alt_name" v="Kvandalsvatnet" />
		<tag k="name" v="Kvanndalsvatnet" />
		<tag k="natural" v="water" />
		<tag k="ssr:stedsnr" v="248214" />
	</node>
	<node id="-458720" lat="60.5779388873" lon="6.67949999461">
		<tag k="bridge" v="yes" />
		<tag k="layer" v="1" />
		<tag k="name" v="Skorvo" />
		<tag k="ssr:stedsnr" v="228821" />
	</node>
	<node id="-458719" lat="60.4916944431" lon="6.65296666695">
		<tag k="name" v="Eskjefloten" />
		<tag k="natural" v="slope" />
		<tag k="old_name" v="Eskeflot" />
		<tag k="place" v="locality" />
		<tag k="ssr:stedsnr" v="226564" />
	</node>
	<node id="-458718" lat="60.5110250038" lon="6.69013611454">
		<tag k="name" v="Bruresengi" />
		<tag k="place" v="locality" />
		<tag k="ssr:stedsnr" v="226561" />
	</node>
	<node id="-458717" lat="60.4823777737" lon="6.66611388066">
		<tag k="name" v="Gråsteg" />
		<tag k="place" v="locality" />
		<tag k="ssr:stedsnr" v="221824" />
	</node>
	<node id="-458716" lat="60.4843666628" lon="6.66860834164">
		<tag k="name" v="Bjønnskårane" />
		<tag k="natural" v="valley" />
		<tag k="place" v="locality" />
		<tag k="ssr:stedsnr" v="221822" />
	</node>
	<node id="-458715" lat="60.5419555519" lon="6.68466667353">
		<tag k="historic" v="shieling" />
		<tag k="name" v="Nedsta Grjostøl" />
		<tag k="place" v="locality" />
		<tag k="ssr:stedsnr" v="221784" />
	</node>
	<node id="-458714" lat="60.5548444469" lon="6.76733889098">
		<tag k="name" v="Fjellmyr" />
		<tag k="natural" v="wetland" />
		<tag k="ssr:stedsnr" v="221772" />
	</node>
	<node id="-458713" lat="60.6230861105" lon="6.68259999151">
		<tag k="name" v="Vetlehondalen" />
		<tag k="natural" v="valley" />
		<tag k="place" v="locality" />
		<tag k="ssr:stedsnr" v="221760" />
	</node>
	<node id="-458712" lat="60.6200111066" lon="6.66585277358">
		<tag k="name" v="Vierskar" />
		<tag k="natural" v="valley" />
		<tag k="place" v="locality" />
		<tag k="ssr:stedsnr" v="221740" />
	</node>
	<node id="-458711" lat="60.4692805518" lon="6.6469888838">
		<tag k="name" v="Heggedokka" />
		<tag k="natural" v="slope" />
		<tag k="place" v="locality" />
		<tag k="ssr:stedsnr" v="221739" />
	</node>
	<node id="-458710" lat="60.5405749967" lon="6.68462777763">
		<tag k="historic" v="shieling" />
		<tag k="name" v="Nesta Grostøl" />
		<tag k="place" v="locality" />
		<tag k="ssr:stedsnr" v="221717" />
	</node>
	<node id="-458709" lat="60.60978572" lon="6.68627237053">
		<tag k="name" v="Hengsdaltjørni" />
		<tag k="natural" v="water" />
		<tag k="ssr:stedsnr" v="221699" />
	</node>
	<node id="-458708" lat="60.5818500019" lon="6.65585277257">
		<tag k="historic" v="shieling" />
		<tag k="name" v="Skattastøl" />
		<tag k="place" v="locality" />
		<tag k="ssr:stedsnr" v="220907" />
	</node>
	<node id="-458707" lat="60.5016222249" lon="6.67934166175">
		<tag k="name" v="Salbuviki" />
		<tag k="natural" v="bay" />
		<tag k="old_name" v="Salbuvik" />
		<tag k="ssr:stedsnr" v="220901" />
	</node>
	<node id="-458706" lat="60.5109638872" lon="6.62605278528">
		<tag k="name" v="Litlehaugsdalen" />
		<tag k="natural" v="valley" />
		<tag k="place" v="locality" />
		<tag k="ssr:stedsnr" v="220900" />
	</node>
	<node id="-458705" lat="60.5407388933" lon="6.72426111244">
		<tag k="name" v="Trelldalen" />
		<tag k="natural" v="valley" />
		<tag k="place" v="locality" />
		<tag k="ssr:stedsnr" v="220885" />
	</node>
	<node id="-458704" lat="60.4966055575" lon="6.64203332898">
		<tag k="name" v="Smiehaugen" />
		<tag k="natural" v="hill" />
		<tag k="place" v="locality" />
		<tag k="ssr:stedsnr" v="220865" />
	</node>
	<node id="-458702" lat="60.5722638894" lon="6.80078611495">
		<tag k="name" v="Middagsmannen" />
		<tag k="natural" v="hill" />
		<tag k="place" v="locality" />
		<tag k="ssr:stedsnr" v="189862" />
	</node>
	<node id="-458701" lat="60.5750944446" lon="6.75116388795">
		<tag k="name" v="Jonipen" />
		<tag k="natural" v="hill" />
		<tag k="place" v="locality" />
		<tag k="ssr:stedsnr" v="189858" />
	</node>
	<node id="-458700" lat="60.5591127838" lon="6.73068919397">
		<tag k="alt_name" v="Lillegraven" />
		<tag k="fixme" v="consider place=hamlet" />
		<tag k="loc_name" v="Litle Granvin" />
		<tag k="name" v="Granvin, l" />
		<tag k="place" v="farm" />
		<tag k="ssr:stedsnr" v="189834" />
	</node>
	<node id="-458699" lat="60.5836638904" lon="6.7156777801">
		<tag k="name" v="Mjølsetebotnane" />
		<tag k="natural" v="valley" />
		<tag k="place" v="locality" />
		<tag k="ssr:stedsnr" v="189804" />
	</node>
	<node id="-458698" lat="60.5743916685" lon="6.70001110415">
		<tag k="name" v="Jobakkane" />
		<tag k="natural" v="slope" />
		<tag k="place" v="locality" />
		<tag k="ssr:stedsnr" v="189790" />
	</node>
	<node id="-458697" lat="60.5308027743" lon="6.67554722714">
		<tag k="historic" v="shieling" />
		<tag k="name" v="Skålsete" />
		<tag k="place" v="locality" />
		<tag k="ssr:stedsnr" v="189773" />
	</node>
	<node id="-458696" lat="60.5319749991" lon="6.70562777957">
		<tag k="name" v="Haukadalen" />
		<tag k="natural" v="valley" />
		<tag k="place" v="locality" />
		<tag k="ssr:stedsnr" v="189767" />
	</node>
	<node id="-458695" lat="60.5389666663" lon="6.75638888442">
		<tag k="name" v="Tveitelvi" />
		<tag k="ssr:stedsnr" v="189763" />
		<tag k="waterway" v="river" />
	</node>
	<node id="-458694" lat="60.5527388856" lon="6.66744165825">
		<tag k="name" v="Hisbakkane" />
		<tag k="natural" v="slope" />
		<tag k="place" v="locality" />
		<tag k="ssr:stedsnr" v="189751" />
	</node>
	<node id="-458693" lat="60.5523138849" lon="6.71449722453">
		<tag k="name" v="Granvinsvatnet" />
		<tag k="natural" v="water" />
		<tag k="ssr:stedsnr" v="189747" />
		<tag k="water" v="lake" />
	</node>
	<node id="-458692" lat="60.5419166673" lon="6.73291388189">
		<tag k="fixme" v="consider place=hamlet" />
		<tag k="name" v="Hause" />
		<tag k="place" v="farm" />
		<tag k="ssr:stedsnr" v="189726" />
	</node>
	<node id="-458691" lat="60.5123333337" lon="6.60154999498">
		<tag k="name" v="Langelihøgdi" />
		<tag k="natural" v="hill" />
		<tag k="place" v="locality" />
		<tag k="ssr:stedsnr" v="189038" />
	</node>
	<node id="-458690" lat="60.5102015612" lon="6.60070026113">
		<tag k="name" v="Langelitjørni" />
		<tag k="natural" v="water" />
		<tag k="ssr:stedsnr" v="189030" />
	</node>
	<node id="-458689" lat="60.5084194415" lon="6.59712499981">
		<tag k="name" v="Langeliberget" />
		<tag k="natural" v="hill" />
		<tag k="place" v="locality" />
		<tag k="ssr:stedsnr" v="189023" />
	</node>
	<node id="-458688" lat="60.5915603383" lon="6.80345608539">
		<tag k="fixme" v="consider place=hamlet" />
		<tag k="name" v="Espeland" />
		<tag k="place" v="farm" />
		<tag k="ssr:stedsnr" v="188927" />
	</node>
	<node id="-458687" lat="60.5903416686" lon="6.71801665853">
		<tag k="name" v="Øykjasteinshaugen" />
		<tag k="natural" v="hill" />
		<tag k="place" v="locality" />
		<tag k="ssr:stedsnr" v="188920" />
	</node>
	<node id="-458686" lat="60.5936750011" lon="6.69195554651">
		<tag k="historic" v="shieling" />
		<tag k="name" v="Tveiti" />
		<tag k="place" v="locality" />
		<tag k="ssr:stedsnr" v="188917" />
	</node>
	<node id="-458685" lat="60.6040972191" lon="6.70884444845">
		<tag k="name" v="Nollen" />
		<tag k="natural" v="hill" />
		<tag k="place" v="locality" />
		<tag k="ssr:stedsnr" v="188896" />
	</node>
	<node id="-458684" lat="60.5985388928" lon="6.64469721902">
		<tag k="alt_name" v="Jøretveitane" />
		<tag k="historic" v="shieling" />
		<tag k="name" v="Jørdretveiti" />
		<tag k="place" v="locality" />
		<tag k="ssr:stedsnr" v="188897" />
	</node>
	<node id="-458683" lat="60.5530638885" lon="6.76372777065">
		<tag k="name" v="Djupadalsbekken" />
		<tag k="ssr:stedsnr" v="188804" />
		<tag k="waterway" v="stream" />
	</node>
	<node id="-458682" lat="60.4830333331" lon="6.52015000507">
		<tag k="name" v="Herdabreidvatni" />
		<tag k="natural" v="water" />
		<tag k="ssr:stedsnr" v="188794" />
		<tag k="water" v="lake" />
	</node>
	<node id="-458681" lat="60.5012722261" lon="6.62815556165">
		<tag k="alt_name" v="Folkedal, øvre" />
		<tag k="fixme" v="consider place=hamlet" />
		<tag k="name" v="Øvre Folkedal" />
		<tag k="place" v="farm" />
		<tag k="ssr:stedsnr" v="188018" />
	</node>
	<node id="-458680" lat="60.4855000029" lon="6.69916944958">
		<tag k="name" v="Verkadalslii" />
		<tag k="natural" v="slope" />
		<tag k="place" v="locality" />
		<tag k="ssr:stedsnr" v="187402" />
	</node>
	<node id="-458679" lat="60.472338891" lon="6.65261667301">
		<tag k="name" v="Vasagili" />
		<tag k="natural" v="gorge" />
		<tag k="ssr:stedsnr" v="187399" />
	</node>
	<node id="-458678" lat="60.4941166692" lon="6.67746389188">
		<tag k="alt_name" v="Startanes" />
		<tag k="name" v="Startaneset" />
		<tag k="natural" v="cape" />
		<tag k="ssr:stedsnr" v="187397" />
	</node>
	<node id="-458677" lat="60.4853999964" lon="6.71705555523">
		<tag k="name" v="Verkadalsnuten" />
		<tag k="natural" v="hill" />
		<tag k="place" v="locality" />
		<tag k="ssr:stedsnr" v="187394" />
	</node>
	<node id="-458676" lat="60.4576694484" lon="6.5892888836">
		<tag k="fixme" v="consider place=hamlet" />
		<tag k="name" v="Naustvik" />
		<tag k="place" v="farm" />
		<tag k="ssr:stedsnr" v="187228" />
	</node>
	<node id="-458675" lat="60.5951750027" lon="6.82207222384">
		<tag k="bridge" v="yes" />
		<tag k="layer" v="1" />
		<tag k="name" v="Espeland" />
		<tag k="ssr:stedsnr" v="168809" />
	</node>
	<node id="-458674" lat="60.521730558" lon="6.71610833006">
		<tag k="name" v="Toresbryggja" />
		<tag k="natural" v="cape" />
		<tag k="ssr:stedsnr" v="165604" />
	</node>
	<node id="-458673" lat="60.4545777811" lon="6.50090833505">
		<tag k="historic" v="shieling" />
		<tag k="name" v="Urastøl" />
		<tag k="place" v="locality" />
		<tag k="ssr:stedsnr" v="160819" />
	</node>
	<node id="-458672" lat="60.531008333" lon="6.65909721642">
		<tag k="name" v="Galthaug" />
		<tag k="natural" v="hill" />
		<tag k="place" v="locality" />
		<tag k="ssr:stedsnr" v="160794" />
	</node>
	<node id="-458671" lat="60.4792138871" lon="6.68731943647">
		<tag k="name" v="Kvilemyra" />
		<tag k="natural" v="wetland" />
		<tag k="ssr:stedsnr" v="160788" />
	</node>
	<node id="-458670" lat="60.5862027736" lon="6.76779999204">
		<tag k="name" v="Erdalsleitet" />
		<tag k="natural" v="hill" />
		<tag k="place" v="locality" />
		<tag k="ssr:stedsnr" v="160776" />
	</node>
	<node id="-458669" lat="60.5447777807" lon="6.68294166976">
		<tag k="highway" v="path" />
		<tag k="name" v="Jennstegane" />
		<tag k="ssr:stedsnr" v="160772" />
	</node>
	<node id="-458668" lat="60.6077277768" lon="6.71551388893">
		<tag k="name" v="Diket" />
		<tag k="natural" v="wetland" />
		<tag k="ssr:stedsnr" v="160763" />
	</node>
	<node id="-458667" lat="60.5413527736" lon="6.6773722285">
		<tag k="historic" v="shieling" />
		<tag k="name" v="Øvsta Grostøl" />
		<tag k="place" v="locality" />
		<tag k="ssr:stedsnr" v="160724" />
	</node>
	<node id="-458666" lat="60.4919801256" lon="6.6473165798">
		<tag k="name" v="Veslenotten" />
		<tag k="natural" v="ridge" />
		<tag k="place" v="locality" />
		<tag k="ssr:stedsnr" v="160722" />
	</node>
	<node id="-458665" lat="60.4674805538" lon="6.59538611766">
		<tag k="name" v="Gryvlebekken" />
		<tag k="ssr:stedsnr" v="160111" />
		<tag k="waterway" v="stream" />
	</node>
	<node id="-458664" lat="60.5776833344" lon="6.79629165867">
		<tag k="name" v="Idlakleiv" />
		<tag k="place" v="locality" />
		<tag k="ssr:stedsnr" v="160108" />
	</node>
	<node id="-458663" lat="60.5696777746" lon="6.65629165967">
		<tag k="name" v="Geitanollane" />
		<tag k="natural" v="hill" />
		<tag k="place" v="locality" />
		<tag k="ssr:stedsnr" v="159919" />
	</node>
	<node id="-458662" lat="60.4617888883" lon="6.54150000361">
		<tag k="name" v="Gjela" />
		<tag k="natural" v="gorge" />
		<tag k="ssr:stedsnr" v="159908" />
	</node>
	<node id="-458661" lat="60.4553777809" lon="6.5476166747">
		<tag k="name" v="Båtonnshola" />
		<tag k="natural" v="bay" />
		<tag k="ssr:stedsnr" v="159904" />
	</node>
	<node id="-458660" lat="60.5637469263" lon="6.6374516298">
		<tag k="name" v="Øvstavatnet" />
		<tag k="natural" v="water" />
		<tag k="ssr:stedsnr" v="159879" />
		<tag k="water" v="lake" />
	</node>
	<node id="-458659" lat="60.5441833296" lon="6.664327771">
		<tag k="highway" v="path" />
		<tag k="name" v="Midtstien" />
		<tag k="ssr:stedsnr" v="159870" />
	</node>
	<node id="-458658" lat="60.5457833374" lon="6.67095278024">
		<tag k="highway" v="path" />
		<tag k="name" v="Horgastien" />
		<tag k="ssr:stedsnr" v="159869" />
	</node>
	<node id="-458657" lat="60.5124305535" lon="6.7772055505">
		<tag k="alt_name" v="Vallavik" />
		<tag k="layer" v="-1" />
		<tag k="name" v="Vallaviktunnelen" />
		<tag k="ssr:stedsnr" v="148354" />
		<tag k="tunnel" v="yes" />
	</node>
	<node id="-458656" lat="60.5672444475" lon="6.74340276879">
		<tag k="name" v="Tråelvi" />
		<tag k="ssr:stedsnr" v="128867" />
		<tag k="waterway" v="river" />
	</node>
	<node id="-458655" lat="60.5817166704" lon="6.63646389398">
		<tag k="name" v="Seglberget" />
		<tag k="natural" v="hill" />
		<tag k="place" v="locality" />
		<tag k="ssr:stedsnr" v="128842" />
	</node>
	<node id="-458654" lat="60.5565929005" lon="6.73302978343">
		<tag k="alt_name" v="Granvin, store" />
		<tag k="fixme" v="consider place=hamlet" />
		<tag k="loc_name" v="Storegraven" />
		<tag k="name" v="Store Granvin" />
		<tag k="place" v="farm" />
		<tag k="ssr:stedsnr" v="128776" />
	</node>
	<node id="-458653" lat="60.552963889" lon="6.76904167314">
		<tag k="name" v="Skredberget" />
		<tag k="natural" v="hill" />
		<tag k="place" v="locality" />
		<tag k="ssr:stedsnr" v="128771" />
	</node>
	<node id="-458652" lat="60.5941250043" lon="6.67070000736">
		<tag k="historic" v="shieling" />
		<tag k="name" v="Bjørndalen" />
		<tag k="place" v="locality" />
		<tag k="ssr:stedsnr" v="127920" />
	</node>
	<node id="-458651" lat="60.619463891" lon="6.77486944372">
		<tag k="name" v="Seldalen" />
		<tag k="natural" v="valley" />
		<tag k="place" v="locality" />
		<tag k="ssr:stedsnr" v="127893" />
	</node>
	<node id="-458650" lat="60.4794388868" lon="6.66877500005">
		<tag k="historic" v="shieling" />
		<tag k="name" v="Seljesete" />
		<tag k="place" v="locality" />
		<tag k="ssr:stedsnr" v="126430" />
	</node>
	<node id="-458649" lat="60.4915611071" lon="6.67731944792">
		<tag k="name" v="Ørreviki" />
		<tag k="natural" v="bay" />
		<tag k="ssr:stedsnr" v="126419" />
	</node>
	<node id="-458648" lat="60.4845416644" lon="6.66107500908">
		<tag k="name" v="Snilsneset" />
		<tag k="natural" v="cape" />
		<tag k="ssr:stedsnr" v="126408" />
	</node>
	<node id="-458647" lat="60.4845750024" lon="6.64665277085">
		<tag k="name" v="Hagen" />
		<tag k="place" v="isolated_dwelling" />
		<tag k="ssr:stedsnr" v="126407" />
	</node>
	<node id="-458646" lat="60.4764889462" lon="6.55608186781">
		<tag k="alt_name" v="Svartetjørni" />
		<tag k="name" v="Svortetjørn" />
		<tag k="natural" v="water" />
		<tag k="ssr:stedsnr" v="126211" />
	</node>
	<node id="-458645" lat="60.4817833308" lon="6.58618889046">
		<tag k="name" v="Stølsbekken" />
		<tag k="ssr:stedsnr" v="126207" />
		<tag k="waterway" v="stream" />
	</node>
	<node id="-458644" lat="60.4664208906" lon="6.54776028407">
		<tag k="name" v="Lomtjørni" />
		<tag k="natural" v="water" />
		<tag k="ssr:stedsnr" v="126190" />
	</node>
	<node id="-458643" lat="60.4606888855" lon="6.53876944335">
		<tag k="name" v="Stølselvi" />
		<tag k="ssr:stedsnr" v="126181" />
		<tag k="waterway" v="river" />
	</node>
	<node id="-458642" lat="60.5295111149" lon="6.72823611389">
		<tag k="bridge" v="yes" />
		<tag k="layer" v="1" />
		<tag k="name" v="Hyrpo" />
		<tag k="ssr:stedsnr" v="107823" />
	</node>
	<node id="-458641" lat="60.4583833312" lon="6.59235278595">
		<tag k="bridge" v="yes" />
		<tag k="layer" v="1" />
		<tag k="name" v="Naustvik" />
		<tag k="ssr:stedsnr" v="107807" />
	</node>
	<node id="-458640" lat="60.5460472236" lon="6.64867223001">
		<tag k="highway" v="path" />
		<tag k="name" v="Nautastien" />
		<tag k="ssr:stedsnr" v="99940" />
	</node>
	<node id="-458639" lat="60.5311555579" lon="6.70170556084">
		<tag k="name" v="Svortesvå" />
		<tag k="natural" v="hill" />
		<tag k="place" v="locality" />
		<tag k="ssr:stedsnr" v="99931" />
	</node>
	<node id="-458638" lat="60.5791361108" lon="6.65766666685">
		<tag k="name" v="Nova" />
		<tag k="natural" v="hill" />
		<tag k="place" v="locality" />
		<tag k="ssr:stedsnr" v="99918" />
	</node>
	<node id="-458637" lat="60.5181596119" lon="6.62281516232">
		<tag k="name" v="Grisatjørn" />
		<tag k="natural" v="water" />
		<tag k="ssr:stedsnr" v="99916" />
	</node>
	<node id="-458636" lat="60.4746277798" lon="6.54469167039">
		<tag k="name" v="Molthaug" />
		<tag k="natural" v="hill" />
		<tag k="place" v="locality" />
		<tag k="ssr:stedsnr" v="99910" />
	</node>
	<node id="-458635" lat="60.5988305515" lon="6.70784721465">
		<tag k="name" v="Skeisetøyane" />
		<tag k="place" v="locality" />
		<tag k="ssr:stedsnr" v="99894" />
	</node>
	<node id="-458634" lat="60.5691333349" lon="6.64998888781">
		<tag k="fixme" v="consider natural=peak for the most distinct mountains in the district" />
		<tag k="name" v="Dosafjell" />
		<tag k="natural" v="hill" />
		<tag k="place" v="locality" />
		<tag k="ssr:stedsnr" v="99881" />
	</node>
	<node id="-458633" lat="60.4837666637" lon="6.64149722167">
		<tag k="name" v="Langaberg" />
		<tag k="natural" v="hill" />
		<tag k="place" v="locality" />
		<tag k="ssr:stedsnr" v="99868" />
	</node>
	<node id="-458632" lat="60.6111333315" lon="6.73565000035">
		<tag k="name" v="Våarstigen" />
		<tag k="ssr:stedsnr" v="99863" />
		<tag k="waterway" v="stream" />
	</node>
	<node id="-458631" lat="60.5539777795" lon="6.76541944201">
		<tag k="name" v="Djupedal" />
		<tag k="natural" v="valley" />
		<tag k="place" v="locality" />
		<tag k="ssr:stedsnr" v="99860" />
	</node>
	<node id="-458630" lat="60.5923166677" lon="6.79662222728">
		<tag k="name" v="Breiskar" />
		<tag k="natural" v="hill" />
		<tag k="place" v="locality" />
		<tag k="ssr:stedsnr" v="99853" />
	</node>
	<node id="-458629" lat="60.4813000041" lon="6.67269445064">
		<tag k="name" v="Nuteslåtta" />
		<tag k="place" v="locality" />
		<tag k="ssr:stedsnr" v="99847" />
	</node>
	<node id="-458628" lat="60.6073833313" lon="6.67010000211">
		<tag k="name" v="Fagerlihaugen" />
		<tag k="natural" v="hill" />
		<tag k="place" v="locality" />
		<tag k="ssr:stedsnr" v="99828" />
	</node>
	<node id="-458627" lat="60.6137222184" lon="6.68069722788">
		<tag k="name" v="Hengelii" />
		<tag k="natural" v="slope" />
		<tag k="place" v="locality" />
		<tag k="ssr:stedsnr" v="99826" />
	</node>
	<node id="-458626" lat="60.615033329" lon="6.70219443833">
		<tag k="name" v="Langhaug" />
		<tag k="natural" v="hill" />
		<tag k="place" v="locality" />
		<tag k="ssr:stedsnr" v="99823" />
	</node>
	<node id="-458625" lat="60.5731916634" lon="6.73793055819">
		<tag k="name" v="Lussiskår" />
		<tag k="natural" v="valley" />
		<tag k="place" v="locality" />
		<tag k="ssr:stedsnr" v="99809" />
	</node>
	<node id="-458624" lat="60.5763833337" lon="6.62402778356">
		<tag k="name" v="Kamben" />
		<tag k="natural" v="ridge" />
		<tag k="place" v="locality" />
		<tag k="ssr:stedsnr" v="99802" />
	</node>
	<node id="-458623" lat="60.4924694475" lon="6.59117500464">
		<tag k="name" v="Haugamyrane" />
		<tag k="natural" v="wetland" />
		<tag k="ssr:stedsnr" v="99152" />
	</node>
	<node id="-458622" lat="60.5698499964" lon="6.66191666902">
		<tag k="historic" v="shieling" />
		<tag k="name" v="Njuk" />
		<tag k="place" v="locality" />
		<tag k="ssr:stedsnr" v="68809" />
	</node>
	<node id="-458621" lat="60.5512722257" lon="6.67544444937">
		<tag k="name" v="Flotaelvi" />
		<tag k="ssr:stedsnr" v="68781" />
		<tag k="waterway" v="river" />
	</node>
	<node id="-458620" lat="60.5206777794" lon="6.69717222749">
		<tag k="name" v="Kattedalen" />
		<tag k="natural" v="valley" />
		<tag k="place" v="locality" />
		<tag k="ssr:stedsnr" v="68039" />
	</node>
	<node id="-458619" lat="60.5128611156" lon="6.66630000809">
		<tag k="fixme" v="consider natural=peak for the most distinct mountains in the district" />
		<tag k="name" v="Steinsethorgi" />
		<tag k="natural" v="hill" />
		<tag k="place" v="locality" />
		<tag k="ssr:stedsnr" v="68038" />
	</node>
	<node id="-458618" lat="60.5063083313" lon="6.6322555536">
		<tag k="name" v="Gili" />
		<tag k="natural" v="gorge" />
		<tag k="ssr:stedsnr" v="68025" />
	</node>
	<node id="-458617" lat="60.6140027747" lon="6.7081944503">
		<tag k="historic" v="shieling" />
		<tag k="name" v="Aunaset" />
		<tag k="place" v="locality" />
		<tag k="ssr:stedsnr" v="67898" />
	</node>
	<node id="-458616" lat="60.5933170709" lon="6.63516658188">
		<tag k="fixme" v="consider place=hamlet" />
		<tag k="name" v="Brekke" />
		<tag k="place" v="farm" />
		<tag k="ssr:stedsnr" v="67885" />
	</node>
	<node id="-458615" lat="60.6076222243" lon="6.74932222249">
		<tag k="historic" v="shieling" />
		<tag k="name" v="Fagnastøl" />
		<tag k="place" v="locality" />
		<tag k="ssr:stedsnr" v="67879" />
	</node>
	<node id="-458614" lat="60.5784888919" lon="6.65315000044">
		<tag k="name" v="Nos" />
		<tag k="natural" v="hill" />
		<tag k="place" v="locality" />
		<tag k="ssr:stedsnr" v="67852" />
	</node>
	<node id="-458613" lat="60.5346250019" lon="6.68117499669">
		<tag k="name" v="Storemyr" />
		<tag k="natural" v="wetland" />
		<tag k="ssr:stedsnr" v="67801" />
	</node>
	<node id="-458612" lat="60.5469388879" lon="6.67190556038">
		<tag k="fixme" v="consider natural=peak for the most distinct mountains in the district" />
		<tag k="name" v="Horganipen" />
		<tag k="natural" v="hill" />
		<tag k="ssr:stedsnr" v="67761" />
	</node>
	<node id="-458611" lat="60.5441305599" lon="6.70402222647">
		<tag k="name" v="Sellandsteigen" />
		<tag k="old_name" v="Grimsteigen" />
		<tag k="place" v="farm" />
		<tag k="ssr:stedsnr" v="67759" />
	</node>
	<node id="-458610" lat="60.4859530668" lon="6.57722404162">
		<tag k="name" v="Tveitevatni" />
		<tag k="natural" v="water" />
		<tag k="ssr:stedsnr" v="66775" />
		<tag k="water" v="lake" />
	</node>
	<node id="-458609" lat="60.4756722187" lon="6.65017499314">
		<tag k="bay" v="fjord" />
		<tag k="name" v="Granvinsfjorden" />
		<tag k="natural" v="bay" />
		<tag k="ssr:stedsnr" v="66402" />
	</node>
	<node id="-458608" lat="60.4964972238" lon="6.68892776888">
		<tag k="name" v="Djupeviki" />
		<tag k="natural" v="bay" />
		<tag k="ssr:stedsnr" v="66393" />
	</node>
	<node id="-458607" lat="60.4774555553" lon="6.59972500484">
		<tag k="name" v="Kvanndalselvi" />
		<tag k="ssr:stedsnr" v="66391" />
		<tag k="waterway" v="river" />
	</node>
	<node id="-458606" lat="60.5861000013" lon="6.63752499212">
		<tag k="bridge" v="yes" />
		<tag k="layer" v="1" />
		<tag k="name" v="Skjervet" />
		<tag k="ssr:stedsnr" v="46806" />
	</node>
	<node id="-458605" lat="60.4873694444" lon="6.66970000323">
		<tag k="name" v="Hamrehagen" />
		<tag k="place" v="locality" />
		<tag k="ssr:stedsnr" v="44520" />
	</node>
	<node id="-458604" lat="60.4709194478" lon="6.61457776987">
		<tag k="name" v="Kvanndalsbukti" />
		<tag k="natural" v="bay" />
		<tag k="old_name" v="Kvanndalsbukt" />
		<tag k="ssr:stedsnr" v="44228" />
	</node>
	<node id="-458603" lat="60.4516611118" lon="6.50948332823">
		<tag k="name" v="Lussandstrondi" />
		<tag k="natural" v="beach" />
		<tag k="place" v="locality" />
		<tag k="ssr:stedsnr" v="44227" />
	</node>
	<node id="-458602" lat="60.5852777757" lon="6.76092222428">
		<tag k="name" v="Sovarhaug" />
		<tag k="natural" v="hill" />
		<tag k="place" v="locality" />
		<tag k="ssr:stedsnr" v="39795" />
	</node>
	<node id="-458601" lat="60.5272855414" lon="6.66262058107">
		<tag k="name" v="Lomtjørn" />
		<tag k="natural" v="water" />
		<tag k="ssr:stedsnr" v="39792" />
	</node>
	<node id="-458600" lat="60.556555559" lon="6.63601389228">
		<tag k="name" v="Horgabekken" />
		<tag k="ssr:stedsnr" v="39744" />
		<tag k="waterway" v="stream" />
	</node>
	<node id="-458599" lat="60.5509388879" lon="6.62445555502">
		<tag k="name" v="Moldbakkane" />
		<tag k="natural" v="slope" />
		<tag k="place" v="locality" />
		<tag k="ssr:stedsnr" v="38939" />
	</node>
	<node id="-458598" lat="60.5944916623" lon="6.80540554688">
		<tag k="name" v="Nutebekken" />
		<tag k="ssr:stedsnr" v="38938" />
		<tag k="waterway" v="stream" />
	</node>
	<node id="-458597" lat="60.4901421085" lon="6.61597409554">
		<tag k="name" v="Kalvbakketjørnane" />
		<tag k="natural" v="water" />
		<tag k="ssr:stedsnr" v="38914" />
		<tag k="water" v="lake" />
	</node>
	<node id="-458596" lat="60.5098444434" lon="6.71115277409">
		<tag k="name" v="Langedalsberget" />
		<tag k="natural" v="hill" />
		<tag k="place" v="locality" />
		<tag k="ssr:stedsnr" v="38909" />
	</node>
	<node id="-458595" lat="60.5035194469" lon="6.70391111522">
		<tag k="name" v="Breiskårsnuten" />
		<tag k="natural" v="hill" />
		<tag k="place" v="locality" />
		<tag k="ssr:stedsnr" v="38907" />
	</node>
	<node id="-458594" lat="60.5905638853" lon="6.67457499821">
		<tag k="name" v="Drevdalen" />
		<tag k="natural" v="valley" />
		<tag k="place" v="locality" />
		<tag k="ssr:stedsnr" v="38903" />
	</node>
	<node id="-458593" lat="60.5766083318" lon="6.77437777062">
		<tag k="name" v="Tjørehovden" />
		<tag k="natural" v="hill" />
		<tag k="place" v="locality" />
		<tag k="ssr:stedsnr" v="38893" />
	</node>
	<node id="-458592" lat="60.573733335" lon="6.69719999518">
		<tag k="name" v="Hansanotten" />
		<tag k="natural" v="hill" />
		<tag k="place" v="locality" />
		<tag k="ssr:stedsnr" v="38891" />
	</node>
	<node id="-458591" lat="60.56858333" lon="6.72259167574">
		<tag k="name" v="Lysteinen" />
		<tag k="natural" v="stone" />
		<tag k="ssr:stedsnr" v="38884" />
	</node>
	<node id="-458590" lat="60.5968888934" lon="6.69060278472">
		<tag k="name" v="Lydingahaug" />
		<tag k="natural" v="hill" />
		<tag k="place" v="locality" />
		<tag k="ssr:stedsnr" v="38881" />
	</node>
	<node id="-458589" lat="60.5520083302" lon="6.79233612025">
		<tag k="alt_name" v="Skårane" />
		<tag k="name" v="Skorane" />
		<tag k="natural" v="hill" />
		<tag k="place" v="locality" />
		<tag k="ssr:stedsnr" v="38859" />
	</node>
	<node id="-458588" lat="60.6185694417" lon="6.73928333242">
		<tag k="name" v="Våi" />
		<tag k="natural" v="slope" />
		<tag k="place" v="locality" />
		<tag k="ssr:stedsnr" v="38821" />
	</node>
	<node id="-458587" lat="60.5802833291" lon="6.71111389673">
		<tag k="name" v="Tryglaskar" />
		<tag k="natural" v="valley" />
		<tag k="place" v="locality" />
		<tag k="ssr:stedsnr" v="38816" />
	</node>
	<node id="-458586" lat="60.6068583355" lon="6.70160277343">
		<tag k="name" v="Nollen" />
		<tag k="natural" v="ridge" />
		<tag k="place" v="locality" />
		<tag k="ssr:stedsnr" v="38806" />
	</node>
	<node id="-458585" lat="60.577477776" lon="6.77874443965">
		<tag k="fixme" v="consider place=hamlet" />
		<tag k="name" v="Kyrkjeteigen" />
		<tag k="place" v="farm" />
		<tag k="ssr:stedsnr" v="27349" />
	</node>
	<node id="-458584" lat="60.6141583352" lon="6.81885278539">
		<tag k="name" v="Nordrebotnen" />
		<tag k="natural" v="valley" />
		<tag k="place" v="locality" />
		<tag k="ssr:stedsnr" v="21171" />
	</node>
	<node id="-458583" lat="60.5841777808" lon="6.74419166289">
		<tag k="name" v="Britahaug" />
		<tag k="natural" v="hill" />
		<tag k="place" v="locality" />
		<tag k="ssr:stedsnr" v="21169" />
	</node>
	<node id="-458582" lat="60.594969442" lon="6.82658055562">
		<tag k="name" v="Grasviki" />
		<tag k="natural" v="bay" />
		<tag k="ssr:stedsnr" v="7915" />
	</node>
	<node id="-458581" lat="60.576425002" lon="6.80145277686">
		<tag k="historic" v="shieling" />
		<tag k="name" v="Geituri" />
		<tag k="place" v="locality" />
		<tag k="ssr:stedsnr" v="7869" />
	</node>
	<node id="-458580" lat="60.5638166662" lon="6.69360832699">
		<tag k="name" v="Nesheimshagen" />
		<tag k="place" v="locality" />
		<tag k="ssr:stedsnr" v="7864" />
	</node>
	<node id="-458579" lat="60.5660540852" lon="6.6418493572">
		<tag k="name" v="Krokavatnet" />
		<tag k="natural" v="water" />
		<tag k="ssr:stedsnr" v="7858" />
		<tag k="water" v="lake" />
	</node>
	<node id="-458578" lat="60.5627806839" lon="6.78440687734">
		<tag k="name" v="Lyngerstjørn" />
		<tag k="natural" v="water" />
		<tag k="ssr:stedsnr" v="7847" />
	</node>
	<node id="-458577" lat="60.5862749997" lon="6.80941943811">
		<tag k="historic" v="shieling" />
		<tag k="name" v="Nyastøl" />
		<tag k="place" v="locality" />
		<tag k="ssr:stedsnr" v="7818" />
	</node>
	<node id="-458576" lat="60.5508972219" lon="6.82038055342">
		<tag k="name" v="Øvre Skjelmarhaugen" />
		<tag k="natural" v="hill" />
		<tag k="place" v="locality" />
		<tag k="ssr:stedsnr" v="7796" />
	</node>
	<node id="-458575" lat="60.5340666643" lon="6.63894166983">
		<tag k="historic" v="shieling" />
		<tag k="name" v="Olastøl" />
		<tag k="place" v="locality" />
		<tag k="ssr:stedsnr" v="7789" />
	</node>
	<node id="-458574" lat="60.5385611135" lon="6.73125833804">
		<tag k="name" v="Hauseberget" />
		<tag k="natural" v="hill" />
		<tag k="place" v="locality" />
		<tag k="ssr:stedsnr" v="7786" />
	</node>
	<node id="-458573" lat="60.5404777792" lon="6.79798333662">
		<tag k="name" v="Storlii" />
		<tag k="natural" v="slope" />
		<tag k="place" v="locality" />
		<tag k="ssr:stedsnr" v="7783" />
	</node>
	<node id="-458572" lat="60.5240666626" lon="6.71931388487">
		<tag k="name" v="Granvin" />
		<tag k="place" v="village" />
		<tag k="ssr:stedsnr" v="7070" />
	</node>
	<node id="-458571" lat="60.5132300235" lon="6.6323874419">
		<tag k="name" v="Svortetjørn" />
		<tag k="natural" v="water" />
		<tag k="ssr:stedsnr" v="7053" />
	</node>
	<node id="-458570" lat="60.5181472254" lon="6.63465278019">
		<tag k="historic" v="shieling" />
		<tag k="name" v="Mikkjelstøl" />
		<tag k="place" v="locality" />
		<tag k="ssr:stedsnr" v="7051" />
	</node>
	<node id="-458569" lat="60.5119861101" lon="6.67373888911">
		<tag k="historic" v="shieling" />
		<tag k="name" v="Steinsete" />
		<tag k="place" v="locality" />
		<tag k="ssr:stedsnr" v="7036" />
	</node>
	<node id="-458568" lat="60.5898834171" lon="6.62798238657">
		<tag k="fixme" v="consider place=hamlet" />
		<tag k="name" v="Moo" />
		<tag k="place" v="farm" />
		<tag k="ssr:stedsnr" v="6945" />
	</node>
	<node id="-458567" lat="60.6005999971" lon="6.82251111771">
		<tag k="historic" v="shieling" />
		<tag k="name" v="Botnen" />
		<tag k="place" v="locality" />
		<tag k="ssr:stedsnr" v="6936" />
	</node>
	<node id="-458566" lat="60.5874777746" lon="6.75417500698">
		<tag k="name" v="Storhaug" />
		<tag k="natural" v="hill" />
		<tag k="place" v="locality" />
		<tag k="ssr:stedsnr" v="6933" />
	</node>
	<node id="-458565" lat="60.5973527779" lon="6.67708056161">
		<tag k="alt_name" v="Skårsstølen" />
		<tag k="historic" v="shieling" />
		<tag k="name" v="Liaset" />
		<tag k="place" v="locality" />
		<tag k="ssr:stedsnr" v="6893" />
	</node>
	<node id="-458564" lat="60.609766668" lon="6.63885277711">
		<tag k="name" v="Skaftedalselvi" />
		<tag k="ssr:stedsnr" v="6891" />
		<tag k="waterway" v="river" />
	</node>
	<node id="-458563" lat="60.4941027756" lon="6.58481667206">
		<tag k="name" v="Koldo" />
		<tag k="ssr:stedsnr" v="6793" />
		<tag k="waterway" v="stream" />
	</node>
	<node id="-458562" lat="60.543099998" lon="6.69287777329">
		<tag k="fixme" v="consider place=hamlet" />
		<tag k="name" v="Taskjelle" />
		<tag k="place" v="farm" />
		<tag k="ssr:stedsnr" v="6765" />
	</node>
	<node id="-458561" lat="60.5040722217" lon="6.74840276954">
		<tag k="fixme" v="consider natural=peak for the most distinct mountains in the district" />
		<tag k="name" v="Nonfjell" />
		<tag k="natural" v="hill" />
		<tag k="place" v="locality" />
		<tag k="ssr:stedsnr" v="6033" />
	</node>
	<node id="-458560" lat="60.4610833359" lon="6.60080555566">
		<tag k="fixme" v="consider place=hamlet" />
		<tag k="name" v="Håstabba" />
		<tag k="place" v="farm" />
		<tag k="ssr:stedsnr" v="5307" />
	</node>
	<node id="-458559" lat="60.5437061194" lon="6.62910307855">
		<tag k="name" v="Storeholmen" />
		<tag k="place" v="islet" />
		<tag k="ssr:stedsnr" v="991091" />
	</node>
	<node id="-458558" lat="60.5460288215" lon="6.62154437355">
		<tag k="name" v="Krokavatnet" />
		<tag k="natural" v="water" />
		<tag k="ssr:stedsnr" v="613750" />
		<tag k="water" v="lake" />
	</node>
	<node id="-458557" lat="60.5589011787" lon="6.72737035515">
		<tag k="name" v="Tråneset" />
		<tag k="natural" v="cape" />
		<tag k="ssr:stedsnr" v="987782" />
	</node>
	<node id="-458556" lat="60.5762586643" lon="6.687415775">
		<tag k="fixme" v="consider place=hamlet" />
		<tag k="name" v="Øvre Seim" />
		<tag k="place" v="farm" />
		<tag k="ssr:stedsnr" v="987780" />
	</node>
	<node id="-458555" lat="60.5240016997" lon="6.72547880573">
		<tag k="fixme" v="consider place=hamlet" />
		<tag k="name" v="Øvre Røynstrand" />
		<tag k="place" v="farm" />
		<tag k="ssr:stedsnr" v="987779" />
	</node>
	<node id="-458554" lat="60.6290700423" lon="6.68374103501">
		<tag k="name" v="Steinhytta" />
		<tag k="place" v="locality" />
		<tag k="ssr:stedsnr" v="983517" />
	</node>
	<node id="-458553" lat="60.6254713298" lon="6.63921866346">
		<tag k="historic" v="shieling" />
		<tag k="name" v="Nyestølen" />
		<tag k="place" v="locality" />
		<tag k="ssr:stedsnr" v="983516" />
	</node>
	<node id="-458552" lat="60.5981791877" lon="6.64789688924">
		<tag k="historic" v="shieling" />
		<tag k="name" v="Brekketveiti" />
		<tag k="place" v="locality" />
		<tag k="ssr:stedsnr" v="983515" />
	</node>
	<node id="-458551" lat="60.6033766674" lon="6.77497563706">
		<tag k="name" v="Olavsbu" />
		<tag k="place" v="locality" />
		<tag k="ssr:stedsnr" v="983514" />
	</node>
	<node id="-458550" lat="60.5055426102" lon="6.5850955391">
		<tag k="historic" v="shieling" />
		<tag k="name" v="Holstø" />
		<tag k="place" v="locality" />
		<tag k="ssr:stedsnr" v="983513" />
	</node>
	<node id="-458549" lat="60.4868309974" lon="6.52956556876">
		<tag k="historic" v="shieling" />
		<tag k="name" v="Herdabreidstølen" />
		<tag k="place" v="locality" />
		<tag k="ssr:stedsnr" v="983482" />
	</node>
	<node id="-458548" lat="60.5026805586" lon="6.68075554906">
		<tag k="bridge" v="yes" />
		<tag k="layer" v="1" />
		<tag k="name" v="Haukanes" />
		<tag k="ssr:stedsnr" v="896846" />
	</node>
	<node id="-458547" lat="60.4640250006" lon="6.60611667553">
		<tag k="bridge" v="yes" />
		<tag k="layer" v="1" />
		<tag k="name" v="Saltskår" />
		<tag k="ssr:stedsnr" v="896833" />
	</node>
	<node id="-458546" lat="60.5619250036" lon="6.73251666587">
		<tag k="bridge" v="yes" />
		<tag k="layer" v="1" />
		<tag k="name" v="Trågjel" />
		<tag k="ssr:stedsnr" v="896830" />
	</node>
	<node id="-458545" lat="60.5861722244" lon="6.61046945068">
		<tag k="bridge" v="yes" />
		<tag k="layer" v="1" />
		<tag k="name" v="Svelgane Nedre" />
		<tag k="ssr:stedsnr" v="896828" />
	</node>
	<node id="-458544" lat="60.4579749991" lon="6.53555833304">
		<tag k="name" v="Lussandviki" />
		<tag k="natural" v="bay" />
		<tag k="old_name" v="Lussandvik" />
		<tag k="ssr:stedsnr" v="894231" />
	</node>
	<node id="-458543" lat="60.5416305531" lon="6.77260556059">
		<tag k="name" v="Veslavatn" />
		<tag k="natural" v="water" />
		<tag k="ssr:stedsnr" v="888929" />
		<tag k="water" v="lake" />
	</node>
	<node id="-458542" lat="60.4912805586" lon="6.69443611421">
		<tag k="historic" v="shieling" />
		<tag k="name" v="Verkadalsstølen" />
		<tag k="place" v="locality" />
		<tag k="ssr:stedsnr" v="888923" />
	</node>
	<node id="-458541" lat="60.4569999958" lon="6.58056943662">
		<tag k="name" v="Nestehagen" />
		<tag k="place" v="locality" />
		<tag k="ssr:stedsnr" v="888893" />
	</node>
	<node id="-458540" lat="60.5180833312" lon="6.71704167198">
		<tag k="alt_name" v="Røynstrand nedre" />
		<tag k="fixme" v="consider place=hamlet" />
		<tag k="name" v="Nedre Røynstrand" />
		<tag k="place" v="farm" />
		<tag k="ssr:stedsnr" v="888880" />
	</node>
	<node id="-458539" lat="60.5376861094" lon="6.73154444388">
		<tag k="name" v="Gjerike" />
		<tag k="place" v="locality" />
		<tag k="ssr:stedsnr" v="888876" />
	</node>
	<node id="-458538" lat="60.5344999963" lon="6.7549722311">
		<tag k="name" v="Småg" />
		<tag k="place" v="locality" />
		<tag k="ssr:stedsnr" v="888867" />
	</node>
	<node id="-458537" lat="60.5983583343" lon="6.69886666307">
		<tag k="name" v="Øyktaberg" />
		<tag k="natural" v="hill" />
		<tag k="place" v="locality" />
		<tag k="ssr:stedsnr" v="888865" />
	</node>
	<node id="-458536" lat="60.5753361085" lon="6.75707777186">
		<tag k="name" v="Ådnahovden" />
		<tag k="place" v="locality" />
		<tag k="ssr:stedsnr" v="888854" />
	</node>
	<node id="-458535" lat="60.5700222181" lon="6.64028333644">
		<tag k="name" v="Øyktårni" />
		<tag k="ssr:stedsnr" v="888850" />
		<tag k="waterway" v="river" />
	</node>
	<node id="-458534" lat="60.4880777773" lon="6.67261945234">
		<tag k="name" v="Stegaberg" />
		<tag k="natural" v="hill" />
		<tag k="place" v="locality" />
		<tag k="ssr:stedsnr" v="888831" />
	</node>
	<node id="-458533" lat="60.6063027781" lon="6.72029721453">
		<tag k="name" v="Oddahaugen" />
		<tag k="natural" v="hill" />
		<tag k="place" v="locality" />
		<tag k="ssr:stedsnr" v="888819" />
	</node>
	<node id="-458532" lat="60.6099754209" lon="6.70890261194">
		<tag k="historic" v="shieling" />
		<tag k="name" v="Storlii" />
		<tag k="place" v="locality" />
		<tag k="ssr:stedsnr" v="888816" />
	</node>
	<node id="-458531" lat="60.5297416637" lon="6.64445555553">
		<tag k="name" v="Frigardsvatn" />
		<tag k="natural" v="water" />
		<tag k="ssr:stedsnr" v="888804" />
		<tag k="water" v="lake" />
	</node>
	<node id="-458530" lat="60.5781194483" lon="6.65098889415">
		<tag k="name" v="Storenos" />
		<tag k="natural" v="hill" />
		<tag k="place" v="locality" />
		<tag k="ssr:stedsnr" v="888797" />
	</node>
	<node id="-458529" lat="60.6055111074" lon="6.67062777302">
		<tag k="name" v="Fogerlihaugen" />
		<tag k="natural" v="hill" />
		<tag k="place" v="locality" />
		<tag k="ssr:stedsnr" v="888787" />
	</node>
	<node id="-458528" lat="60.6273333302" lon="6.66887221456">
		<tag k="name" v="Botnane" />
		<tag k="natural" v="valley" />
		<tag k="place" v="locality" />
		<tag k="ssr:stedsnr" v="888777" />
	</node>
	<node id="-458527" lat="60.5569499957" lon="6.6611388865">
		<tag k="name" v="Middagsskar" />
		<tag k="natural" v="valley" />
		<tag k="place" v="locality" />
		<tag k="ssr:stedsnr" v="888764" />
	</node>
	<node id="-458526" lat="60.4930656216" lon="6.64935575289">
		<tag k="name" v="Storenotten" />
		<tag k="natural" v="ridge" />
		<tag k="place" v="locality" />
		<tag k="ssr:stedsnr" v="888750" />
	</node>
	<node id="-458525" lat="60.6148194474" lon="6.68882778043">
		<tag k="name" v="Skansen" />
		<tag k="natural" v="hill" />
		<tag k="place" v="locality" />
		<tag k="ssr:stedsnr" v="888747" />
	</node>
	<node id="-458524" lat="60.5817833291" lon="6.76480278698">
		<tag k="name" v="Bjørneskårane" />
		<tag k="natural" v="valley" />
		<tag k="place" v="locality" />
		<tag k="ssr:stedsnr" v="888112" />
	</node>
	<node id="-458523" lat="60.4702583371" lon="6.60789722346">
		<tag k="bridge" v="yes" />
		<tag k="layer" v="1" />
		<tag k="name" v="Kvanndal Flomløp" />
		<tag k="ssr:stedsnr" v="411783" />
	</node>
	<node id="-458522" lat="60.4474638848" lon="6.50024721479">
		<tag k="bridge" v="yes" />
		<tag k="layer" v="1" />
		<tag k="name" v="Urelva" />
		<tag k="ssr:stedsnr" v="410783" />
	</node>
	<node id="-458521" lat="60.4518472264" lon="6.49601667435">
		<tag k="name" v="Urdafossen" />
		<tag k="natural" v="waterfall" />
		<tag k="ssr:stedsnr" v="408109" />
	</node>
	<node id="-458520" lat="60.5898444485" lon="6.8006333287">
		<tag k="name" v="Kaldhusnes" />
		<tag k="natural" v="cape" />
		<tag k="ssr:stedsnr" v="403832" />
	</node>
	<node id="-458519" lat="60.5250944482" lon="6.66589165853">
		<tag k="name" v="Nyademma" />
		<tag k="natural" v="water" />
		<tag k="ssr:stedsnr" v="403822" />
		<tag k="water" v="lake" />
	</node>
	<node id="-458518" lat="60.5633444432" lon="6.73865833861">
		<tag k="name" v="Øyjordi" />
		<tag k="place" v="locality" />
		<tag k="ssr:stedsnr" v="403813" />
	</node>
	<node id="-458517" lat="60.5656388884" lon="6.69691110924">
		<tag k="name" v="Kattaråa" />
		<tag k="ssr:stedsnr" v="403786" />
		<tag k="waterway" v="river" />
	</node>
	<node id="-458516" lat="60.4660388847" lon="6.60148055661">
		<tag k="fixme" v="consider boundary=protected_area and relevant protect_class if not nature reserve" />
		<tag k="leisure" v="nature_reserve" />
		<tag k="name" v="Kvandal naturreservat" />
		<tag k="ssr:stedsnr" v="403776" />
	</node>
	<node id="-458515" lat="60.611686113" lon="6.71704166204">
		<tag k="name" v="Håsetelii" />
		<tag k="natural" v="slope" />
		<tag k="place" v="locality" />
		<tag k="ssr:stedsnr" v="403772" />
	</node>
	<node id="-458514" lat="60.6152027812" lon="6.71351388243">
		<tag k="fixme" v="consider natural=peak for the most distinct mountains in the district" />
		<tag k="name" v="Helganuten" />
		<tag k="natural" v="hill" />
		<tag k="ssr:stedsnr" v="403765" />
	</node>
	<node id="-458513" lat="60.4927972196" lon="6.65446111864">
		<tag k="name" v="Ingerslåtten" />
		<tag k="natural" v="slope" />
		<tag k="place" v="locality" />
		<tag k="ssr:stedsnr" v="403754" />
	</node>
	<node id="-458512" lat="60.4954138902" lon="6.65888610734">
		<tag k="fixme" v="consider boundary=protected_area and relevant protect_class if not nature reserve" />
		<tag k="leisure" v="nature_reserve" />
		<tag k="name" v="Folkedal naturreservat" />
		<tag k="ssr:stedsnr" v="403755" />
	</node>
	<node id="-458511" lat="60.5520944417" lon="6.81768333257">
		<tag k="name" v="Litlalihaugane" />
		<tag k="natural" v="hill" />
		<tag k="place" v="locality" />
		<tag k="ssr:stedsnr" v="403748" />
	</node>
	<node id="-458510" lat="60.5329972196" lon="6.72609444796">
		<tag k="name" v="Høyberget" />
		<tag k="natural" v="hill" />
		<tag k="place" v="locality" />
		<tag k="ssr:stedsnr" v="402954" />
	</node>
	<node id="-458509" lat="60.5298444465" lon="6.71003056331">
		<tag k="fixme" v="consider natural=peak for the most distinct mountains in the district" />
		<tag k="name" v="Neståsåsen" />
		<tag k="natural" v="hill" />
		<tag k="place" v="locality" />
		<tag k="ssr:stedsnr" v="402949" />
	</node>
	<node id="-458508" lat="60.6219444413" lon="6.70181389253">
		<tag k="name" v="Klevi" />
		<tag k="natural" v="gorge" />
		<tag k="ssr:stedsnr" v="402944" />
	</node>
	<node id="-458507" lat="60.5719999972" lon="6.67675832466">
		<tag k="name" v="Tunsberg" />
		<tag k="natural" v="hill" />
		<tag k="place" v="locality" />
		<tag k="ssr:stedsnr" v="402923" />
	</node>
	<node id="-458506" lat="60.5819194399" lon="6.68647776988">
		<tag k="name" v="Skarvefossen" />
		<tag k="natural" v="waterfall" />
		<tag k="ssr:stedsnr" v="402919" />
	</node>
	<node id="-458505" lat="60.5049027779" lon="6.63236111681">
		<tag k="name" v="Tussaholo" />
		<tag k="place" v="locality" />
		<tag k="ssr:stedsnr" v="402916" />
	</node>
	<node id="-458504" lat="60.5044194426" lon="6.63155277914">
		<tag k="name" v="Granvin Everk" />
		<tag k="place" v="farm" />
		<tag k="ssr:stedsnr" v="402914" />
	</node>
	<node id="-458503" lat="60.4551749999" lon="6.54622777656">
		<tag k="name" v="Neset" />
		<tag k="natural" v="cape" />
		<tag k="ssr:stedsnr" v="402905" />
	</node>
	<node id="-458502" lat="60.5919916636" lon="6.65401389324">
		<tag k="name" v="Håfjellberget" />
		<tag k="natural" v="hill" />
		<tag k="place" v="locality" />
		<tag k="ssr:stedsnr" v="402900" />
	</node>
	<node id="-458501" lat="60.5406555537" lon="6.77156666549">
		<tag k="name" v="Veslavatn" />
		<tag k="natural" v="water" />
		<tag k="ssr:stedsnr" v="402899" />
		<tag k="water" v="lake" />
	</node>
	<node id="-458500" lat="60.5800833302" lon="6.79332221587">
		<tag k="name" v="Geiturdsbekken" />
		<tag k="natural" v="water" />
		<tag k="ssr:stedsnr" v="402897" />
		<tag k="water" v="lake" />
	</node>
	<node id="-458499" lat="60.5692472197" lon="6.78614166355">
		<tag k="name" v="Granabakkane" />
		<tag k="natural" v="slope" />
		<tag k="place" v="locality" />
		<tag k="ssr:stedsnr" v="402896" />
	</node>
	<node id="-458498" lat="60.5643819983" lon="6.64984292178">
		<tag k="name" v="Midttjørn" />
		<tag k="natural" v="water" />
		<tag k="ssr:stedsnr" v="402886" />
	</node>
	<node id="-458497" lat="60.4904580578" lon="6.64612370081">
		<tag k="name" v="Brekke" />
		<tag k="place" v="farm" />
		<tag k="ssr:stedsnr" v="402872" />
	</node>
	<node id="-458496" lat="60.5577305581" lon="6.67621943861">
		<tag k="name" v="Busti" />
		<tag k="natural" v="hill" />
		<tag k="place" v="locality" />
		<tag k="ssr:stedsnr" v="371857" />
	</node>
	<node id="-458495" lat="60.580108331" lon="6.6463527789">
		<tag k="name" v="Skarabekken" />
		<tag k="ssr:stedsnr" v="371837" />
		<tag k="waterway" v="stream" />
	</node>
	<node id="-458494" lat="60.5847911644" lon="6.78707267662">
		<tag k="name" v="Lomtjørni" />
		<tag k="natural" v="water" />
		<tag k="ssr:stedsnr" v="371831" />
	</node>
	<node id="-458493" lat="60.5661666661" lon="6.65046944658">
		<tag k="name" v="Rundehaugen" />
		<tag k="natural" v="hill" />
		<tag k="place" v="locality" />
		<tag k="ssr:stedsnr" v="371813" />
	</node>
	<node id="-458492" lat="60.5495833361" lon="6.79586666517">
		<tag k="name" v="Vatnasetvatnet" />
		<tag k="natural" v="water" />
		<tag k="ssr:stedsnr" v="371809" />
		<tag k="water" v="lake" />
	</node>
	<node id="-458491" lat="60.5336999978" lon="6.73086389443">
		<tag k="fixme" v="consider place=hamlet" />
		<tag k="name" v="Kollanes" />
		<tag k="place" v="farm" />
		<tag k="ssr:stedsnr" v="371799" />
	</node>
	<node id="-458490" lat="60.5329611128" lon="6.79945832856">
		<tag k="name" v="Fuglavatnet" />
		<tag k="natural" v="water" />
		<tag k="ssr:stedsnr" v="371797" />
		<tag k="water" v="lake" />
	</node>
	<node id="-458489" lat="60.5455222237" lon="6.786425008">
		<tag k="name" v="Rusti" />
		<tag k="natural" v="ridge" />
		<tag k="place" v="locality" />
		<tag k="ssr:stedsnr" v="371758" />
	</node>
	<node id="-458488" lat="60.5322192222" lon="6.78692263239">
		<tag k="man_made" v="cairn" />
		<tag k="name" v="Middagsvarden" />
		<tag k="place" v="locality" />
		<tag k="ssr:stedsnr" v="371048" />
	</node>
	<node id="-458487" lat="60.5222700646" lon="6.63811813842">
		<tag k="name" v="Spunstjørni" />
		<tag k="natural" v="water" />
		<tag k="ssr:stedsnr" v="371034" />
	</node>
	<node id="-458486" lat="60.5166305523" lon="6.68031388071">
		<tag k="name" v="Vasagili" />
		<tag k="natural" v="gorge" />
		<tag k="ssr:stedsnr" v="371031" />
	</node>
	<node id="-458485" lat="60.603608329" lon="6.7723833344">
		<tag k="fixme" v="consider natural=peak for the most distinct mountains in the district" />
		<tag k="name" v="Stavaskarsnuten" />
		<tag k="natural" v="hill" />
		<tag k="ssr:stedsnr" v="370937" />
	</node>
	<node id="-458484" lat="60.5958638899" lon="6.79353334224">
		<tag k="name" v="Hagabekken" />
		<tag k="ssr:stedsnr" v="370934" />
		<tag k="waterway" v="stream" />
	</node>
	<node id="-458483" lat="60.6006777762" lon="6.71100278496">
		<tag k="historic" v="shieling" />
		<tag k="name" v="Skeiset" />
		<tag k="place" v="locality" />
		<tag k="ssr:stedsnr" v="370932" />
	</node>
	<node id="-458482" lat="60.5984638904" lon="6.78437222299">
		<tag k="name" v="Fogerbrekkeberget" />
		<tag k="natural" v="hill" />
		<tag k="place" v="locality" />
		<tag k="ssr:stedsnr" v="370933" />
	</node>
	<node id="-458481" lat="60.6017638926" lon="6.81379444899">
		<tag k="fixme" v="consider natural=peak for the most distinct mountains in the district" />
		<tag k="name" v="Såta" />
		<tag k="natural" v="hill" />
		<tag k="place" v="locality" />
		<tag k="ssr:stedsnr" v="370931" />
	</node>
	<node id="-458480" lat="60.6254483375" lon="6.82305923743">
		<tag k="name" v="Trollavatnet" />
		<tag k="natural" v="water" />
		<tag k="ssr:stedsnr" v="370914" />
		<tag k="water" v="lake" />
	</node>
	<node id="-458479" lat="60.6147803244" lon="6.80240203716">
		<tag k="name" v="Vestrebotnen" />
		<tag k="natural" v="valley" />
		<tag k="place" v="locality" />
		<tag k="ssr:stedsnr" v="370889" />
	</node>
	<node id="-458478" lat="60.5568888877" lon="6.76250000104">
		<tag k="historic" v="shieling" />
		<tag k="name" v="Heller" />
		<tag k="place" v="locality" />
		<tag k="ssr:stedsnr" v="370792" />
	</node>
	<node id="-458477" lat="60.5430305516" lon="6.72407499917">
		<tag k="fixme" v="consider place=hamlet" />
		<tag k="name" v="Hausnes" />
		<tag k="place" v="farm" />
		<tag k="ssr:stedsnr" v="370770" />
	</node>
	<node id="-458476" lat="60.4757944469" lon="6.63524444794">
		<tag k="name" v="Sauaneset" />
		<tag k="natural" v="cape" />
		<tag k="ssr:stedsnr" v="369378" />
	</node>
	<node id="-458475" lat="60.4898694423" lon="6.64479721989">
		<tag k="fixme" v="consider place=hamlet" />
		<tag k="name" v="Folkedal" />
		<tag k="place" v="village" />
		<tag k="ssr:stedsnr" v="369376" />
	</node>
	<node id="-458474" lat="60.4464000018" lon="6.50121388668">
		<tag k="alt_name" v="Uraneset" />
		<tag k="name" v="Uranes" />
		<tag k="natural" v="cape" />
		<tag k="old_name" v="Urdanes" />
		<tag k="ssr:stedsnr" v="369222" />
	</node>
	<node id="-458473" lat="60.4955000044" lon="6.63960000418">
		<tag k="alt_name" v="Folkedalselva" />
		<tag k="name" v="Folkedalselvi" />
		<tag k="ssr:stedsnr" v="359820" />
		<tag k="waterway" v="river" />
	</node>
	<node id="-458472" lat="60.4964249994" lon="6.66772777892">
		<tag k="bridge" v="yes" />
		<tag k="layer" v="1" />
		<tag k="name" v="Haukanesberget" />
		<tag k="ssr:stedsnr" v="350802" />
	</node>
	<node id="-458471" lat="60.5716722248" lon="6.69042500641">
		<tag k="bridge" v="yes" />
		<tag k="layer" v="1" />
		<tag k="name" v="Seims" />
		<tag k="ssr:stedsnr" v="349814" />
	</node>
	<node id="-458470" lat="60.5610663584" lon="6.78222675276">
		<tag k="name" v="Vesle Lyngerstjørn" />
		<tag k="natural" v="water" />
		<tag k="ssr:stedsnr" v="342794" />
	</node>
	<node id="-458469" lat="60.6009611104" lon="6.80501944658">
		<tag k="fixme" v="consider natural=peak for the most distinct mountains in the district" />
		<tag k="name" v="Moltefjellet" />
		<tag k="natural" v="hill" />
		<tag k="place" v="locality" />
		<tag k="ssr:stedsnr" v="342790" />
	</node>
	<node id="-458468" lat="60.543266671" lon="6.67780833719">
		<tag k="historic" v="shieling" />
		<tag k="name" v="Øvsta Grjostøl" />
		<tag k="place" v="locality" />
		<tag k="ssr:stedsnr" v="342778" />
	</node>
	<node id="-458467" lat="60.6223777782" lon="6.65808054769">
		<tag k="name" v="Stutahaugen" />
		<tag k="natural" v="hill" />
		<tag k="place" v="locality" />
		<tag k="ssr:stedsnr" v="342756" />
	</node>
	<node id="-458466" lat="60.4869805536" lon="6.60171111397">
		<tag k="historic" v="shieling" />
		<tag k="name" v="Langeskår" />
		<tag k="place" v="locality" />
		<tag k="ssr:stedsnr" v="342740" />
	</node>
	<node id="-458465" lat="60.5168916699" lon="6.63596667447">
		<tag k="historic" v="shieling" />
		<tag k="name" v="Nedre Mikkjelstøl" />
		<tag k="place" v="locality" />
		<tag k="ssr:stedsnr" v="342716" />
	</node>
	<node id="-458464" lat="60.588130554" lon="6.75821111449">
		<tag k="name" v="Geitsheldrane" />
		<tag k="place" v="locality" />
		<tag k="ssr:stedsnr" v="342132" />
	</node>
	<node id="-458463" lat="60.5188416638" lon="6.6243222239">
		<tag k="name" v="Hovslaget" />
		<tag k="place" v="locality" />
		<tag k="ssr:stedsnr" v="342131" />
	</node>
	<node id="-458462" lat="60.5185611078" lon="6.63183611589">
		<tag k="name" v="Vieren" />
		<tag k="ssr:stedsnr" v="341937" />
		<tag k="waterway" v="river" />
	</node>
	<node id="-458461" lat="60.463463885" lon="6.60640000796">
		<tag k="name" v="Saltskår" />
		<tag k="natural" v="cape" />
		<tag k="ssr:stedsnr" v="341931" />
	</node>
	<node id="-458460" lat="60.5757555556" lon="6.67796666208">
		<tag k="name" v="Træshaugen" />
		<tag k="natural" v="hill" />
		<tag k="place" v="locality" />
		<tag k="ssr:stedsnr" v="341917" />
	</node>
	<node id="-458459" lat="60.5057388882" lon="6.68741943828">
		<tag k="name" v="Storenes" />
		<tag k="natural" v="cape" />
		<tag k="ssr:stedsnr" v="341914" />
	</node>
	<node id="-458458" lat="60.4723416696" lon="6.59413889386">
		<tag k="historic" v="shieling" />
		<tag k="name" v="Håstabbastølen" />
		<tag k="place" v="locality" />
		<tag k="ssr:stedsnr" v="341910" />
	</node>
	<node id="-458457" lat="60.5199027743" lon="6.73317221643">
		<tag k="name" v="Middagsgjela" />
		<tag k="natural" v="gorge" />
		<tag k="ssr:stedsnr" v="341902" />
	</node>
	<node id="-458456" lat="60.5374527794" lon="6.72805556369">
		<tag k="name" v="Gullhamaren" />
		<tag k="natural" v="hill" />
		<tag k="place" v="locality" />
		<tag k="ssr:stedsnr" v="341901" />
	</node>
	<node id="-458455" lat="60.5212361141" lon="6.70862499652">
		<tag k="alt_name" v="Hamnaneset" />
		<tag k="name" v="Havnanes" />
		<tag k="natural" v="cape" />
		<tag k="ssr:stedsnr" v="341900" />
	</node>
	<node id="-458454" lat="60.5943388848" lon="6.69620554898">
		<tag k="name" v="Trelldalshaugen" />
		<tag k="natural" v="hill" />
		<tag k="place" v="locality" />
		<tag k="ssr:stedsnr" v="341894" />
	</node>
	<node id="-458453" lat="60.5647555561" lon="6.758855555">
		<tag k="name" v="Svedalskårane" />
		<tag k="natural" v="hill" />
		<tag k="place" v="locality" />
		<tag k="ssr:stedsnr" v="341886" />
	</node>
	<node id="-458452" lat="60.4908833351" lon="6.65584721685">
		<tag k="alt_name" v="Kaltangen" />
		<tag k="name" v="Kalvatangen" />
		<tag k="natural" v="cape" />
		<tag k="ssr:stedsnr" v="341869" />
	</node>
	<node id="-458451" lat="60.6308333295" lon="6.69522500404">
		<tag k="name" v="Hjalladalen" />
		<tag k="natural" v="valley" />
		<tag k="place" v="locality" />
		<tag k="ssr:stedsnr" v="310888" />
	</node>
	<node id="-458450" lat="60.5735374198" lon="6.70460131183">
		<tag k="name" v="Tjuvanotten" />
		<tag k="natural" v="hill" />
		<tag k="place" v="locality" />
		<tag k="ssr:stedsnr" v="310819" />
	</node>
	<node id="-458449" lat="60.5698388876" lon="6.64804444567">
		<tag k="name" v="Gili" />
		<tag k="natural" v="gorge" />
		<tag k="ssr:stedsnr" v="310811" />
	</node>
	<node id="-458448" lat="60.5711500043" lon="6.66317500828">
		<tag k="name" v="Liaberget" />
		<tag k="natural" v="hill" />
		<tag k="place" v="locality" />
		<tag k="ssr:stedsnr" v="310808" />
	</node>
	<node id="-458447" lat="60.5377472231" lon="6.72254444054">
		<tag k="name" v="Stuvanes" />
		<tag k="natural" v="cape" />
		<tag k="ssr:stedsnr" v="310793" />
	</node>
	<node id="-458446" lat="60.5506694485" lon="6.80022499892">
		<tag k="historic" v="shieling" />
		<tag k="name" v="Vatnasete" />
		<tag k="place" v="locality" />
		<tag k="ssr:stedsnr" v="310768" />
	</node>
	<node id="-458445" lat="60.5416222224" lon="6.67761111554">
		<tag k="historic" v="shieling" />
		<tag k="name" v="Grjostøl" />
		<tag k="place" v="locality" />
		<tag k="ssr:stedsnr" v="310760" />
	</node>
	<node id="-458444" lat="60.5315250036" lon="6.72053889271">
		<tag k="fixme" v="consider place=hamlet" />
		<tag k="name" v="Nestås" />
		<tag k="place" v="farm" />
		<tag k="ssr:stedsnr" v="310059" />
	</node>
	<node id="-458443" lat="60.5200888856" lon="6.73320556334">
		<tag k="name" v="Kleppe" />
		<tag k="natural" v="hill" />
		<tag k="place" v="locality" />
		<tag k="ssr:stedsnr" v="310042" />
	</node>
	<node id="-458442" lat="60.5187972268" lon="6.68866945263">
		<tag k="name" v="Storagili" />
		<tag k="natural" v="gorge" />
		<tag k="ssr:stedsnr" v="310036" />
	</node>
	<node id="-458441" lat="60.5209669881" lon="6.76524757249">
		<tag k="name" v="Svehaug" />
		<tag k="natural" v="hill" />
		<tag k="place" v="locality" />
		<tag k="ssr:stedsnr" v="310030" />
	</node>
	<node id="-458440" lat="60.601666668" lon="6.79281110352">
		<tag k="fixme" v="consider natural=peak for the most distinct mountains in the district" />
		<tag k="name" v="Nutefjellet" />
		<tag k="natural" v="hill" />
		<tag k="place" v="locality" />
		<tag k="ssr:stedsnr" v="309927" />
	</node>
	<node id="-458439" lat="60.5846296934" lon="6.67119566691">
		<tag k="name" v="Spildo" />
		<tag k="place" v="hamlet" />
		<tag k="ssr:stedsnr" v="309918" />
	</node>
	<node id="-458438" lat="60.6192305562" lon="6.74216666498">
		<tag k="name" v="Våarelvi" />
		<tag k="ssr:stedsnr" v="309904" />
		<tag k="waterway" v="river" />
	</node>
	<node id="-458437" lat="60.491838888" lon="6.55186667406">
		<tag k="fixme" v="consider natural=peak for the most distinct mountains in the district" />
		<tag k="name" v="Kistenuten" />
		<tag k="natural" v="hill" />
		<tag k="place" v="locality" />
		<tag k="ssr:stedsnr" v="309777" />
	</node>
	<node id="-458436" lat="60.4716444411" lon="6.66884444571">
		<tag k="name" v="Nuten" />
		<tag k="natural" v="ridge" />
		<tag k="place" v="locality" />
		<tag k="ssr:stedsnr" v="308385" />
	</node>
	<node id="-458435" lat="60.4839277799" lon="6.71202499435">
		<tag k="name" v="Fremstdalen" />
		<tag k="natural" v="valley" />
		<tag k="place" v="locality" />
		<tag k="ssr:stedsnr" v="308382" />
	</node>
	<node id="-458434" lat="60.4581527797" lon="6.54210833616">
		<tag k="fixme" v="consider place=hamlet" />
		<tag k="name" v="Lussand" />
		<tag k="place" v="farm" />
		<tag k="ssr:stedsnr" v="308171" />
	</node>
	<node id="-458433" lat="60.4645333323" lon="6.55765556363">
		<tag k="name" v="Bjørnhovden" />
		<tag k="natural" v="hill" />
		<tag k="place" v="locality" />
		<tag k="ssr:stedsnr" v="308170" />
	</node>
	<node id="-458432" lat="60.5370750031" lon="6.72995833346">
		<tag k="layer" v="-1" />
		<tag k="name" v="Gullhammar" />
		<tag k="ssr:stedsnr" v="287506" />
		<tag k="tunnel" v="yes" />
	</node>
	<node id="-458431" lat="60.4601138907" lon="6.58876110808">
		<tag k="historic" v="shieling" />
		<tag k="name" v="Litlastøl" />
		<tag k="place" v="locality" />
		<tag k="ssr:stedsnr" v="281925" />
	</node>
	<node id="-458430" lat="60.4847472239" lon="6.63007500175">
		<tag k="name" v="Geitaskarberg" />
		<tag k="natural" v="hill" />
		<tag k="place" v="locality" />
		<tag k="ssr:stedsnr" v="281923" />
	</node>
	<node id="-458429" lat="60.4546500012" lon="6.5593499969">
		<tag k="fixme" v="consider seamark:type=rock or natural=shoal" />
		<tag k="loc_name" v="Bjørgaskjer" />
		<tag k="name" v="Bjørgaskjær" />
		<tag k="place" v="islet" />
		<tag k="ssr:stedsnr" v="281920" />
	</node>
	<node id="-458428" lat="60.4546277743" lon="6.57288888896">
		<tag k="name" v="Høneviknes" />
		<tag k="natural" v="cape" />
		<tag k="ssr:stedsnr" v="281917" />
	</node>
	<node id="-458427" lat="60.5733805566" lon="6.76544166159">
		<tag k="name" v="Verafossen" />
		<tag k="natural" v="waterfall" />
		<tag k="ssr:stedsnr" v="281894" />
	</node>
	<node id="-458426" lat="60.5642777802" lon="6.73321667094">
		<tag k="name" v="Treldalen" />
		<tag k="natural" v="valley" />
		<tag k="place" v="locality" />
		<tag k="ssr:stedsnr" v="281887" />
	</node>
	<node id="-458425" lat="60.5653972229" lon="6.73730833506">
		<tag k="name" v="Leina" />
		<tag k="place" v="locality" />
		<tag k="ssr:stedsnr" v="281884" />
	</node>
	<node id="-458424" lat="60.5906055562" lon="6.68915000117">
		<tag k="name" v="Furuhaugen" />
		<tag k="natural" v="hill" />
		<tag k="place" v="locality" />
		<tag k="ssr:stedsnr" v="281882" />
	</node>
	<node id="-458423" lat="60.5482861148" lon="6.69997777726">
		<tag k="name" v="Nesheimslia" />
		<tag k="natural" v="slope" />
		<tag k="place" v="locality" />
		<tag k="ssr:stedsnr" v="281881" />
	</node>
	<node id="-458422" lat="60.5986638903" lon="6.8058416693">
		<tag k="name" v="Svåbekken" />
		<tag k="ssr:stedsnr" v="281865" />
		<tag k="waterway" v="stream" />
	</node>
	<node id="-458421" lat="60.5284972233" lon="6.68710556075">
		<tag k="name" v="Elestveithaugen" />
		<tag k="natural" v="hill" />
		<tag k="place" v="locality" />
		<tag k="ssr:stedsnr" v="281860" />
	</node>
	<node id="-458420" lat="60.5373027752" lon="6.67633333007">
		<tag k="name" v="Snauehaug" />
		<tag k="natural" v="hill" />
		<tag k="place" v="locality" />
		<tag k="ssr:stedsnr" v="281854" />
	</node>
	<node id="-458419" lat="60.5028361088" lon="6.66081389621">
		<tag k="name" v="Hedler" />
		<tag k="place" v="locality" />
		<tag k="ssr:stedsnr" v="281850" />
	</node>
	<node id="-458418" lat="60.5275752208" lon="6.7571905201">
		<tag k="alt_name" v="Seljeskårsnuten" />
		<tag k="fixme" v="consider natural=peak for the most distinct mountains in the district" />
		<tag k="loc_name" v="Hesteståene" />
		<tag k="name" v="Seljeskorsnuten" />
		<tag k="natural" v="hill" />
		<tag k="ssr:stedsnr" v="281845" />
	</node>
	<node id="-458417" lat="60.5031916658" lon="6.71850554763">
		<tag k="fixme" v="consider natural=peak for the most distinct mountains in the district" />
		<tag k="name" v="Veslahorga" />
		<tag k="natural" v="hill" />
		<tag k="place" v="locality" />
		<tag k="ssr:stedsnr" v="281825" />
	</node>
	<node id="-458416" lat="60.6175888845" lon="6.66311944265">
		<tag k="name" v="Reisneskar" />
		<tag k="natural" v="valley" />
		<tag k="place" v="locality" />
		<tag k="ssr:stedsnr" v="281821" />
	</node>
	<node id="-458415" lat="60.6229999966" lon="6.66799166432">
		<tag k="name" v="Hengsdalsskar" />
		<tag k="natural" v="valley" />
		<tag k="place" v="locality" />
		<tag k="ssr:stedsnr" v="281820" />
	</node>
	<node id="-458414" lat="60.5447194423" lon="6.66646944925">
		<tag k="name" v="Bettene" />
		<tag k="place" v="locality" />
		<tag k="ssr:stedsnr" v="281816" />
	</node>
	<node id="-458413" lat="60.5075055583" lon="6.70504166557">
		<tag k="name" v="Øvre Koldehjellen" />
		<tag k="place" v="locality" />
		<tag k="ssr:stedsnr" v="281817" />
	</node>
	<node id="-458412" lat="60.4898361071" lon="6.68465000009">
		<tag k="name" v="Konestølen" />
		<tag k="place" v="locality" />
		<tag k="ssr:stedsnr" v="281813" />
	</node>
	<node id="-458411" lat="60.6158527757" lon="6.68923610465">
		<tag k="name" v="Øvsteskar" />
		<tag k="natural" v="valley" />
		<tag k="place" v="locality" />
		<tag k="ssr:stedsnr" v="281803" />
	</node>
	<node id="-458410" lat="60.6215027785" lon="6.70554167102">
		<tag k="name" v="Smalaskarrusti" />
		<tag k="natural" v="ridge" />
		<tag k="place" v="locality" />
		<tag k="ssr:stedsnr" v="281796" />
	</node>
	<node id="-458409" lat="60.462783334" lon="6.58544722069">
		<tag k="name" v="Slåtto" />
		<tag k="place" v="locality" />
		<tag k="ssr:stedsnr" v="281144" />
	</node>
	<node id="-459123" lat="60.5729561357" lon="6.80370317024">
		<tag k="name" v="Hausnestuftene" />
		<tag k="place" v="locality" />
		<tag k="ssr:stedsnr" v="972328" />
	</node>
	<node id="-459120" lat="60.487955557" lon="6.64832500031">
		<tag k="bridge" v="yes" />
		<tag k="layer" v="1" />
		<tag k="name" v="Folkedal" />
		<tag k="ssr:stedsnr" v="957815" />
	</node>
	<node id="-459119" lat="60.5134083312" lon="6.69186110608">
		<tag k="name" v="Vossaholet" />
		<tag k="natural" v="bay" />
		<tag k="old_name" v="Vosseholet" />
		<tag k="ssr:stedsnr" v="954525" />
	</node>
	<node id="-459118" lat="60.4694249987" lon="6.60626388284">
		<tag k="name" v="Sanden" />
		<tag k="place" v="farm" />
		<tag k="ssr:stedsnr" v="954195" />
	</node>
	<node id="-459117" lat="60.5023444469" lon="6.65594999208">
		<tag k="name" v="Storhaug" />
		<tag k="natural" v="hill" />
		<tag k="place" v="locality" />
		<tag k="ssr:stedsnr" v="950708" />
	</node>
	<node id="-459116" lat="60.4513249973" lon="6.50047777377">
		<tag k="fixme" v="consider boundary=protected_area and relevant protect_class if not nature reserve" />
		<tag k="leisure" v="nature_reserve" />
		<tag k="name" v="Uranes naturreservat" />
		<tag k="ssr:stedsnr" v="949822" />
	</node>
	<node id="-459115" lat="60.4666250027" lon="6.65521110971">
		<tag k="name" v="Liasete" />
		<tag k="place" v="locality" />
		<tag k="ssr:stedsnr" v="949794" />
	</node>
	<node id="-459114" lat="60.565574996" lon="6.73054721982">
		<tag k="name" v="Hovden" />
		<tag k="natural" v="hill" />
		<tag k="place" v="locality" />
		<tag k="ssr:stedsnr" v="949791" />
	</node>
	<node id="-459113" lat="60.5834111111" lon="6.77928610239">
		<tag k="name" v="Kallhagen" />
		<tag k="place" v="locality" />
		<tag k="ssr:stedsnr" v="949780" />
	</node>
	<node id="-459112" lat="60.4989055523" lon="6.69512221792">
		<tag k="name" v="Fossdalskamben" />
		<tag k="natural" v="ridge" />
		<tag k="place" v="locality" />
		<tag k="ssr:stedsnr" v="949767" />
	</node>
	<node id="-459111" lat="60.5223805512" lon="6.72281110932">
		<tag k="name" v="Granvinelva" />
		<tag k="natural" v="water" />
		<tag k="ssr:stedsnr" v="949763" />
		<tag k="water" v="lake" />
	</node>
	<node id="-459110" lat="60.6244750041" lon="6.7417027748">
		<tag k="name" v="Fessena" />
		<tag k="natural" v="valley" />
		<tag k="place" v="locality" />
		<tag k="ssr:stedsnr" v="949752" />
	</node>
	<node id="-459109" lat="60.5719833332" lon="6.7403055605">
		<tag k="name" v="Håstegane" />
		<tag k="place" v="locality" />
		<tag k="ssr:stedsnr" v="949748" />
	</node>
	<node id="-459108" lat="60.4978166675" lon="6.69462777115">
		<tag k="name" v="Fossdalskamben" />
		<tag k="natural" v="ridge" />
		<tag k="place" v="locality" />
		<tag k="ssr:stedsnr" v="949734" />
	</node>
	<node id="-459107" lat="60.4934861103" lon="6.69426944831">
		<tag k="name" v="Kamben" />
		<tag k="natural" v="ridge" />
		<tag k="place" v="locality" />
		<tag k="ssr:stedsnr" v="949733" />
	</node>
	<node id="-459106" lat="60.4631499969" lon="6.52086111564">
		<tag k="name" v="Blejo" />
		<tag k="ssr:stedsnr" v="949720" />
		<tag k="waterway" v="stream" />
	</node>
	<node id="-459105" lat="60.5276164096" lon="6.75375149908">
		<tag k="alt_name" v="Seljeskår" />
		<tag k="name" v="Seljeskor" />
		<tag k="place" v="locality" />
		<tag k="ssr:stedsnr" v="948949" />
	</node>
	<node id="-459104" lat="60.4964343576" lon="6.67137584507">
		<tag k="name" v="Haukanesneset" />
		<tag k="natural" v="cape" />
		<tag k="ssr:stedsnr" v="948942" />
	</node>
	<node id="-459103" lat="60.5820805536" lon="6.65119444214">
		<tag k="name" v="Mehaugen" />
		<tag k="natural" v="hill" />
		<tag k="place" v="locality" />
		<tag k="ssr:stedsnr" v="948933" />
	</node>
	<node id="-459102" lat="60.4765333339" lon="6.54971111982">
		<tag k="name" v="Storhaug" />
		<tag k="natural" v="hill" />
		<tag k="place" v="locality" />
		<tag k="ssr:stedsnr" v="948925" />
	</node>
	<node id="-459101" lat="60.5889277755" lon="6.66500556131">
		<tag k="name" v="Kvithedler" />
		<tag k="place" v="locality" />
		<tag k="ssr:stedsnr" v="948914" />
	</node>
	<node id="-459100" lat="60.4809444462" lon="6.6627805552">
		<tag k="name" v="Rinden" />
		<tag k="place" v="locality" />
		<tag k="ssr:stedsnr" v="948891" />
	</node>
	<node id="-459099" lat="60.4869694459" lon="6.64439722998">
		<tag k="name" v="Ormhaug" />
		<tag k="natural" v="hill" />
		<tag k="place" v="locality" />
		<tag k="ssr:stedsnr" v="948890" />
	</node>
	<node id="-459098" lat="60.4724416626" lon="6.67116666034">
		<tag k="name" v="Nuteelvi" />
		<tag k="ssr:stedsnr" v="932220" />
		<tag k="waterway" v="river" />
	</node>
	<node id="-459097" lat="60.552650004" lon="6.6351194488">
		<tag k="historic" v="shieling" />
		<tag k="name" v="Horgastølen" />
		<tag k="place" v="locality" />
		<tag k="ssr:stedsnr" v="932131" />
	</node>
	<node id="-459096" lat="60.5926972251" lon="6.81272777444">
		<tag k="name" v="Brurpikeholmen" />
		<tag k="place" v="islet" />
		<tag k="ssr:stedsnr" v="917902" />
	</node>
	<node id="-459095" lat="60.6246611118" lon="6.73297500707">
		<tag k="name" v="Våareggi" />
		<tag k="natural" v="ridge" />
		<tag k="place" v="locality" />
		<tag k="ssr:stedsnr" v="917893" />
	</node>
	<node id="-459094" lat="60.5617000045" lon="6.67243334153">
		<tag k="name" v="Storeskorbekken" />
		<tag k="ssr:stedsnr" v="917867" />
		<tag k="waterway" v="stream" />
	</node>
	<node id="-459093" lat="60.5848750021" lon="6.80038055433">
		<tag k="name" v="Espehovden" />
		<tag k="natural" v="hill" />
		<tag k="place" v="locality" />
		<tag k="ssr:stedsnr" v="917836" />
	</node>
	<node id="-459092" lat="60.5743255444" lon="6.69090136473">
		<tag k="name" v="Seim" />
		<tag k="place" v="hamlet" />
		<tag k="ssr:stedsnr" v="917817" />
	</node>
	<node id="-459091" lat="60.5348444441" lon="6.72984167218">
		<tag k="name" v="Nedre Vassenden" />
		<tag k="natural" v="strait" />
		<tag k="ssr:stedsnr" v="917789" />
	</node>
	<node id="-459090" lat="60.5580138934" lon="6.8082638917">
		<tag k="name" v="Fessene" />
		<tag k="natural" v="waterfall" />
		<tag k="ssr:stedsnr" v="917761" />
	</node>
	<node id="-459089" lat="60.5550400797" lon="6.80276101837">
		<tag k="name" v="Fessetjørni" />
		<tag k="natural" v="water" />
		<tag k="ssr:stedsnr" v="917757" />
	</node>
	<node id="-459088" lat="60.5492787836" lon="6.72747760741">
		<tag k="name" v="Tveiti" />
		<tag k="place" v="locality" />
		<tag k="ssr:stedsnr" v="917744" />
	</node>
	<node id="-459087" lat="60.5289638892" lon="6.63551943725">
		<tag k="name" v="Ormtjørni" />
		<tag k="natural" v="water" />
		<tag k="ssr:stedsnr" v="917048" />
	</node>
	<node id="-459086" lat="60.5980666681" lon="6.82213333049">
		<tag k="name" v="Espelandsfossen" />
		<tag k="natural" v="waterfall" />
		<tag k="ssr:stedsnr" v="916938" />
	</node>
	<node id="-459085" lat="60.5888861084" lon="6.78636112034">
		<tag k="historic" v="shieling" />
		<tag k="name" v="Liasete" />
		<tag k="place" v="locality" />
		<tag k="ssr:stedsnr" v="916933" />
	</node>
	<node id="-459084" lat="60.5878000002" lon="6.64900000426">
		<tag k="alt_name" v="Jøre" />
		<tag k="fixme" v="consider place=hamlet" />
		<tag k="name" v="Jørdre" />
		<tag k="place" v="farm" />
		<tag k="ssr:stedsnr" v="916924" />
	</node>
	<node id="-459083" lat="60.6071611115" lon="6.65340833134">
		<tag k="name" v="Øvrelii" />
		<tag k="natural" v="slope" />
		<tag k="place" v="locality" />
		<tag k="ssr:stedsnr" v="916893" />
	</node>
	<node id="-459082" lat="60.6041527742" lon="6.67576667261">
		<tag k="historic" v="shieling" />
		<tag k="name" v="Fogerlii" />
		<tag k="place" v="locality" />
		<tag k="ssr:stedsnr" v="916888" />
	</node>
	<node id="-459081" lat="60.6028749982" lon="6.65821112016">
		<tag k="name" v="Mosdal" />
		<tag k="natural" v="valley" />
		<tag k="place" v="locality" />
		<tag k="ssr:stedsnr" v="916886" />
	</node>
	<node id="-459080" lat="60.4589722179" lon="6.60212778123">
		<tag k="name" v="Håstabbaneset" />
		<tag k="natural" v="cape" />
		<tag k="ssr:stedsnr" v="916345" />
	</node>
	<node id="-459079" lat="60.4460574948" lon="6.49546755965">
		<tag k="name" v="Urdaviki" />
		<tag k="natural" v="bay" />
		<tag k="ssr:stedsnr" v="916249" />
	</node>
	<node id="-459078" lat="60.4987233846" lon="6.71774052337">
		<tag k="historic" v="shieling" />
		<tag k="name" v="Bjørndalen" />
		<tag k="place" v="locality" />
		<tag k="ssr:stedsnr" v="915395" />
	</node>
	<node id="-459077" lat="60.5670277747" lon="6.73460555272">
		<tag k="name" v="Fletene" />
		<tag k="natural" v="slope" />
		<tag k="place" v="locality" />
		<tag k="ssr:stedsnr" v="870267" />
	</node>
	<node id="-459076" lat="60.5376638901" lon="6.75563611302">
		<tag k="name" v="Heiane" />
		<tag k="natural" v="mountain_range" />
		<tag k="ssr:stedsnr" v="870246" />
	</node>
	<node id="-459075" lat="60.5690194442" lon="6.77777500193">
		<tag k="name" v="Svedalsbekken" />
		<tag k="ssr:stedsnr" v="857868" />
		<tag k="waterway" v="stream" />
	</node>
	<node id="-459074" lat="60.5686694446" lon="6.73138889795">
		<tag k="historic" v="shieling" />
		<tag k="name" v="Tveiti" />
		<tag k="place" v="locality" />
		<tag k="ssr:stedsnr" v="857866" />
	</node>
	<node id="-459073" lat="60.5588944491" lon="6.70970556244">
		<tag k="name" v="Bøen" />
		<tag k="place" v="farm" />
		<tag k="ssr:stedsnr" v="857864" />
	</node>
	<node id="-459072" lat="60.5701833308" lon="6.68826388423">
		<tag k="name" v="Moen" />
		<tag k="place" v="farm" />
		<tag k="ssr:stedsnr" v="857807" />
	</node>
	<node id="-459071" lat="60.5216861154" lon="6.72204721373">
		<tag k="alt_name" v="Ravnestrand;Røynstrond" />
		<tag k="name" v="Røynstrand" />
		<tag k="place" v="hamlet" />
		<tag k="ssr:stedsnr" v="857039" />
	</node>
	<node id="-459070" lat="60.5848652172" lon="6.65993227408">
		<tag k="fixme" v="consider place=hamlet" />
		<tag k="name" v="Nesbøen" />
		<tag k="place" v="farm" />
		<tag k="ssr:stedsnr" v="856855" />
	</node>
	<node id="-459069" lat="60.5755119959" lon="6.62619958">
		<tag k="name" v="Nonhaug" />
		<tag k="natural" v="hill" />
		<tag k="place" v="locality" />
		<tag k="ssr:stedsnr" v="856846" />
	</node>
	<node id="-459068" lat="60.5532083312" lon="6.81209166452">
		<tag k="name" v="Bekkjadalen" />
		<tag k="natural" v="valley" />
		<tag k="place" v="locality" />
		<tag k="ssr:stedsnr" v="856787" />
	</node>
	<node id="-459067" lat="60.5471250024" lon="6.67946111892">
		<tag k="name" v="Langhamrane" />
		<tag k="natural" v="slope" />
		<tag k="place" v="locality" />
		<tag k="ssr:stedsnr" v="856772" />
	</node>
	<node id="-459066" lat="60.5478138881" lon="6.69533333337">
		<tag k="fixme" v="consider place=hamlet" />
		<tag k="name" v="Bilde" />
		<tag k="place" v="farm" />
		<tag k="ssr:stedsnr" v="856770" />
	</node>
	<node id="-459065" lat="60.507619025" lon="6.699857644">
		<tag k="name" v="Arnes" />
		<tag k="natural" v="cape" />
		<tag k="ssr:stedsnr" v="856032" />
	</node>
	<node id="-459064" lat="60.5839305573" lon="6.64282500246">
		<tag k="name" v="Skjervet" />
		<tag k="natural" v="hill" />
		<tag k="place" v="locality" />
		<tag k="ssr:stedsnr" v="855938" />
	</node>
	<node id="-459063" lat="60.5863138911" lon="6.71070278519">
		<tag k="name" v="Daurmålshaugen" />
		<tag k="natural" v="hill" />
		<tag k="place" v="locality" />
		<tag k="ssr:stedsnr" v="855911" />
	</node>
	<node id="-459062" lat="60.5891222178" lon="6.6977055498">
		<tag k="historic" v="shieling" />
		<tag k="name" v="Dale" />
		<tag k="place" v="locality" />
		<tag k="ssr:stedsnr" v="855909" />
	</node>
	<node id="-459061" lat="60.4669243832" lon="6.55747631767">
		<tag k="loc_name" v="Vetlavatnet" />
		<tag k="name" v="Veslevatnet" />
		<tag k="natural" v="water" />
		<tag k="ssr:stedsnr" v="855202" />
	</node>
	<node id="-459060" lat="60.4615083378" lon="6.56683055884">
		<tag k="fixme" v="consider natural=peak for the most distinct mountains in the district" />
		<tag k="name" v="Bjørgi" />
		<tag k="natural" v="hill" />
		<tag k="place" v="locality" />
		<tag k="ssr:stedsnr" v="855186" />
	</node>
	<node id="-459059" lat="60.5258222191" lon="6.72075832965">
		<tag k="bridge" v="yes" />
		<tag k="layer" v="1" />
		<tag k="name" v="Eide" />
		<tag k="ssr:stedsnr" v="836818" />
	</node>
	<node id="-459058" lat="60.4706611118" lon="6.60854167232">
		<tag k="bridge" v="yes" />
		<tag k="layer" v="1" />
		<tag k="name" v="Kvanndal" />
		<tag k="ssr:stedsnr" v="836812" />
	</node>
	<node id="-459057" lat="60.4947583292" lon="6.66174166407">
		<tag k="name" v="Bergskro" />
		<tag k="natural" v="cape" />
		<tag k="ssr:stedsnr" v="833538" />
	</node>
	<node id="-459056" lat="60.553213889" lon="6.76744443663">
		<tag k="name" v="Båre" />
		<tag k="natural" v="ridge" />
		<tag k="place" v="locality" />
		<tag k="ssr:stedsnr" v="828770" />
	</node>
	<node id="-459055" lat="60.6117777762" lon="6.70138333827">
		<tag k="name" v="Storlii" />
		<tag k="natural" v="slope" />
		<tag k="place" v="locality" />
		<tag k="ssr:stedsnr" v="828755" />
	</node>
	<node id="-459054" lat="60.5003444413" lon="6.70115278618">
		<tag k="name" v="Selstodbekken" />
		<tag k="ssr:stedsnr" v="828737" />
		<tag k="waterway" v="stream" />
	</node>
	<node id="-459053" lat="60.5667916674" lon="6.70014445221">
		<tag k="fixme" v="consider boundary=protected_area and relevant protect_class if not nature reserve" />
		<tag k="leisure" v="nature_reserve" />
		<tag k="name" v="Granvindeltaet" />
		<tag k="ssr:stedsnr" v="828729" />
	</node>
	<node id="-459052" lat="60.6096277768" lon="6.73165555923">
		<tag k="name" v="Øykafloten" />
		<tag k="natural" v="slope" />
		<tag k="place" v="locality" />
		<tag k="ssr:stedsnr" v="828725" />
	</node>
	<node id="-459051" lat="60.6180083291" lon="6.69505832461">
		<tag k="fixme" v="consider natural=peak for the most distinct mountains in the district" />
		<tag k="name" v="Såta" />
		<tag k="natural" v="hill" />
		<tag k="place" v="locality" />
		<tag k="ssr:stedsnr" v="828722" />
	</node>
	<node id="-459050" lat="60.5114111078" lon="6.6642027729">
		<tag k="name" v="Salttunna" />
		<tag k="natural" v="stone" />
		<tag k="ssr:stedsnr" v="828710" />
	</node>
	<node id="-459049" lat="60.4958805557" lon="6.65202778634">
		<tag k="name" v="Harabåsen" />
		<tag k="natural" v="wetland" />
		<tag k="ssr:stedsnr" v="828694" />
	</node>
	<node id="-459048" lat="60.5007208204" lon="6.65502933996">
		<tag k="barrier" v="fence" />
		<tag k="name" v="Kleppsligarden" />
		<tag k="ssr:stedsnr" v="828693" />
	</node>
	<node id="-459047" lat="60.4707472206" lon="6.65062499745">
		<tag k="name" v="Svartaberg" />
		<tag k="natural" v="hill" />
		<tag k="place" v="locality" />
		<tag k="ssr:stedsnr" v="827932" />
	</node>
	<node id="-459046" lat="60.5765388916" lon="6.75543611497">
		<tag k="name" v="Prostiskårane" />
		<tag k="natural" v="hill" />
		<tag k="place" v="locality" />
		<tag k="ssr:stedsnr" v="827892" />
	</node>
	<node id="-459045" lat="60.5726999979" lon="6.71162222524">
		<tag k="fixme" v="consider boundary=protected_area and relevant protect_class if not nature reserve" />
		<tag k="leisure" v="nature_reserve" />
		<tag k="name" v="Joberget naturreservat" />
		<tag k="old_name" v="Jordberget naturreservat" />
		<tag k="ssr:stedsnr" v="827884" />
	</node>
	<node id="-459044" lat="60.5578694415" lon="6.71193056105">
		<tag k="name" v="Helsnes" />
		<tag k="natural" v="cape" />
		<tag k="ssr:stedsnr" v="827877" />
	</node>
	<node id="-459043" lat="60.495311114" lon="6.68110832469">
		<tag k="name" v="Henriksvika" />
		<tag k="natural" v="bay" />
		<tag k="ssr:stedsnr" v="827868" />
	</node>
	<node id="-459042" lat="60.4587694462" lon="6.6027611043">
		<tag k="alt_name" v="Håstabbanes" />
		<tag k="name" v="Håstabbenes" />
		<tag k="natural" v="cape" />
		<tag k="ssr:stedsnr" v="817793" />
	</node>
	<node id="-459041" lat="60.5026055534" lon="6.76815278047">
		<tag k="name" v="Tverrelvi" />
		<tag k="ssr:stedsnr" v="796895" />
		<tag k="waterway" v="river" />
	</node>
	<node id="-459040" lat="60.5773444403" lon="6.67449999905">
		<tag k="fixme" v="consider place=hamlet" />
		<tag k="name" v="Såkvitno" />
		<tag k="place" v="farm" />
		<tag k="ssr:stedsnr" v="796851" />
	</node>
	<node id="-459039" lat="60.5391750016" lon="6.74634444264">
		<tag k="fixme" v="consider natural=peak for the most distinct mountains in the district" />
		<tag k="name" v="Hauseåsen" />
		<tag k="natural" v="hill" />
		<tag k="place" v="locality" />
		<tag k="ssr:stedsnr" v="796806" />
	</node>
	<node id="-459038" lat="60.5399777741" lon="6.78306666784">
		<tag k="name" v="Måvotno" />
		<tag k="natural" v="water" />
		<tag k="ssr:stedsnr" v="796800" />
		<tag k="water" v="lake" />
	</node>
	<node id="-459037" lat="60.5285546269" lon="6.76788591968">
		<tag k="man_made" v="cairn" />
		<tag k="name" v="Kyrkja" />
		<tag k="place" v="locality" />
		<tag k="ssr:stedsnr" v="796054" />
	</node>
	<node id="-459036" lat="60.5304250027" lon="6.73419166969">
		<tag k="fixme" v="consider place=hamlet" />
		<tag k="name" v="Kjerland" />
		<tag k="place" v="farm" />
		<tag k="ssr:stedsnr" v="796052" />
	</node>
	<node id="-459035" lat="60.5059444433" lon="6.68679166203">
		<tag k="name" v="Stavanes" />
		<tag k="natural" v="cape" />
		<tag k="ssr:stedsnr" v="796036" />
	</node>
	<node id="-459034" lat="60.5195888888" lon="6.72399999257">
		<tag k="name" v="Nodlen" />
		<tag k="place" v="locality" />
		<tag k="ssr:stedsnr" v="796031" />
	</node>
	<node id="-459033" lat="60.5038944458" lon="6.61372500822">
		<tag k="historic" v="shieling" />
		<tag k="name" v="Helgastøl" />
		<tag k="place" v="locality" />
		<tag k="ssr:stedsnr" v="796026" />
	</node>
	<node id="-459032" lat="60.4984833377" lon="6.65193055057">
		<tag k="name" v="Hestahaugane" />
		<tag k="natural" v="hill" />
		<tag k="place" v="locality" />
		<tag k="ssr:stedsnr" v="796025" />
	</node>
	<node id="-459031" lat="60.586997219" lon="6.63781667443">
		<tag k="name" v="Skjervsfossen" />
		<tag k="natural" v="waterfall" />
		<tag k="ssr:stedsnr" v="795944" />
	</node>
	<node id="-459030" lat="60.5890894736" lon="6.80836799986">
		<tag k="name" v="Espelandsvatnet" />
		<tag k="natural" v="water" />
		<tag k="ssr:stedsnr" v="795922" />
		<tag k="water" v="lake" />
	</node>
	<node id="-459029" lat="60.5876805572" lon="6.76471388221">
		<tag k="historic" v="shieling" />
		<tag k="name" v="Olavstøl" />
		<tag k="place" v="locality" />
		<tag k="ssr:stedsnr" v="795919" />
	</node>
	<node id="-459028" lat="60.5507448447" lon="6.77878498827">
		<tag k="name" v="Demma" />
		<tag k="natural" v="water" />
		<tag k="ssr:stedsnr" v="795774" />
	</node>
	<node id="-459027" lat="60.5490527751" lon="6.77846666926">
		<tag k="historic" v="shieling" />
		<tag k="name" v="Litlastøl" />
		<tag k="place" v="locality" />
		<tag k="ssr:stedsnr" v="795761" />
	</node>
	<node id="-459026" lat="60.5469750039" lon="6.77840832917">
		<tag k="name" v="Vatnasetelvi" />
		<tag k="ssr:stedsnr" v="795759" />
		<tag k="waterway" v="river" />
	</node>
	<node id="-459025" lat="60.5037703473" lon="6.66989529219">
		<tag k="fixme" v="multiple name tags, choose one and add the other to alt_name" />
		<tag k="historic" v="shieling" />
		<tag k="name" v="Bakkane;Haukanesstølen" />
		<tag k="place" v="locality" />
		<tag k="ssr:stedsnr" v="795027" />
	</node>
	<node id="-459024" lat="60.4713250019" lon="6.60966111909">
		<tag k="alt_name" v="Kvandal" />
		<tag k="fixme" v="consider place=hamlet" />
		<tag k="name" v="Kvanndal" />
		<tag k="place" v="farm" />
		<tag k="ssr:stedsnr" v="794409" />
	</node>
	<node id="-459023" lat="60.4756249999" lon="6.56497499682">
		<tag k="name" v="Vassendhaugen" />
		<tag k="natural" v="hill" />
		<tag k="place" v="locality" />
		<tag k="ssr:stedsnr" v="794203" />
	</node>
	<node id="-459022" lat="60.4775333361" lon="6.58652500026">
		<tag k="name" v="Bytesbekken" />
		<tag k="ssr:stedsnr" v="794202" />
		<tag k="waterway" v="stream" />
	</node>
	<node id="-459021" lat="60.4717650243" lon="6.55747079985">
		<tag k="alt_name" v="Storvatnet" />
		<tag k="name" v="Storavatnet" />
		<tag k="natural" v="water" />
		<tag k="ssr:stedsnr" v="794187" />
	</node>
	<node id="-459020" lat="60.4625416665" lon="6.52287500249">
		<tag k="name" v="Sagelvi" />
		<tag k="ssr:stedsnr" v="794181" />
		<tag k="waterway" v="stream" />
	</node>
	<node id="-459018" lat="60.5729722194" lon="6.69558889434">
		<tag k="layer" v="-1" />
		<tag k="name" v="Jobergtunnelen" />
		<tag k="ssr:stedsnr" v="788266" />
		<tag k="tunnel" v="yes" />
	</node>
	<node id="-459017" lat="60.4539333323" lon="6.49350000154">
		<tag k="name" v="Rjuen" />
		<tag k="place" v="locality" />
		<tag k="ssr:stedsnr" v="767846" />
	</node>
	<node id="-459016" lat="60.4545805528" lon="6.49601666061">
		<tag k="name" v="Uragjelet" />
		<tag k="natural" v="gorge" />
		<tag k="ssr:stedsnr" v="767843" />
	</node>
	<node id="-459015" lat="60.6081583303" lon="6.72160556194">
		<tag k="name" v="Budeiemyri" />
		<tag k="natural" v="wetland" />
		<tag k="ssr:stedsnr" v="767833" />
	</node>
	<node id="-459014" lat="60.5491916659" lon="6.78526943602">
		<tag k="name" v="Prestajuklane" />
		<tag k="place" v="locality" />
		<tag k="ssr:stedsnr" v="767831" />
	</node>
	<node id="-459013" lat="60.5511014767" lon="6.79285890322">
		<tag k="name" v="Høyheldrane" />
		<tag k="place" v="locality" />
		<tag k="ssr:stedsnr" v="767829" />
	</node>
	<node id="-459012" lat="60.4837194459" lon="6.6783916743">
		<tag k="name" v="Øvsteskår" />
		<tag k="natural" v="valley" />
		<tag k="place" v="locality" />
		<tag k="ssr:stedsnr" v="767810" />
	</node>
	<node id="-459011" lat="60.5796249966" lon="6.666227771">
		<tag k="name" v="Gråberg" />
		<tag k="natural" v="hill" />
		<tag k="place" v="locality" />
		<tag k="ssr:stedsnr" v="767803" />
	</node>
	<node id="-459010" lat="60.5697083331" lon="6.76579999531">
		<tag k="name" v="Våtekleivsteigen" />
		<tag k="natural" v="slope" />
		<tag k="place" v="locality" />
		<tag k="ssr:stedsnr" v="767797" />
	</node>
	<node id="-459009" lat="60.6258805559" lon="6.65064999644">
		<tag k="name" v="Hovden" />
		<tag k="natural" v="hill" />
		<tag k="place" v="locality" />
		<tag k="ssr:stedsnr" v="767791" />
	</node>
	<node id="-459008" lat="60.6195722243" lon="6.70247777263">
		<tag k="name" v="Vetledalen" />
		<tag k="natural" v="valley" />
		<tag k="place" v="locality" />
		<tag k="ssr:stedsnr" v="767784" />
	</node>
	<node id="-459007" lat="60.6117694457" lon="6.69602222736">
		<tag k="name" v="Nedsteskar" />
		<tag k="natural" v="valley" />
		<tag k="place" v="locality" />
		<tag k="ssr:stedsnr" v="767760" />
	</node>
	<node id="-459006" lat="60.47689167" lon="6.65466667475">
		<tag k="name" v="Geilaviki" />
		<tag k="natural" v="bay" />
		<tag k="old_name" v="Geilavika" />
		<tag k="ssr:stedsnr" v="766932" />
	</node>
	<node id="-459005" lat="60.5636111143" lon="6.68069166966">
		<tag k="name" v="Urdals Skreda" />
		<tag k="natural" v="scree" />
		<tag k="ssr:stedsnr" v="766930" />
	</node>
	<node id="-459004" lat="60.4987341396" lon="6.60610437911">
		<tag k="name" v="Gaphellertjørnane" />
		<tag k="natural" v="water" />
		<tag k="ssr:stedsnr" v="766906" />
		<tag k="water" v="lake" />
	</node>
	<node id="-459003" lat="60.4671583316" lon="6.54266666731">
		<tag k="name" v="Tjødnarhaug" />
		<tag k="natural" v="hill" />
		<tag k="place" v="locality" />
		<tag k="ssr:stedsnr" v="766900" />
	</node>
	<node id="-459002" lat="60.4562250019" lon="6.57919444782">
		<tag k="name" v="Geilaberg" />
		<tag k="natural" v="hill" />
		<tag k="place" v="locality" />
		<tag k="ssr:stedsnr" v="766898" />
	</node>
	<node id="-459001" lat="60.4895777823" lon="6.59141389223">
		<tag k="name" v="Haugane" />
		<tag k="natural" v="hill" />
		<tag k="place" v="locality" />
		<tag k="ssr:stedsnr" v="766895" />
	</node>
	<node id="-459000" lat="60.5641307671" lon="6.78688116741">
		<tag k="name" v="Inste Lyngershaug" />
		<tag k="natural" v="hill" />
		<tag k="place" v="locality" />
		<tag k="ssr:stedsnr" v="766872" />
	</node>
	<node id="-458999" lat="60.573008334" lon="6.80086944788">
		<tag k="name" v="Grånodlane" />
		<tag k="natural" v="hill" />
		<tag k="place" v="locality" />
		<tag k="ssr:stedsnr" v="766870" />
	</node>
	<node id="-458998" lat="60.5927749981" lon="6.6909694443">
		<tag k="historic" v="shieling" />
		<tag k="name" v="Nyatræet" />
		<tag k="place" v="locality" />
		<tag k="ssr:stedsnr" v="766853" />
	</node>
	<node id="-458997" lat="60.4998861149" lon="6.67719444114">
		<tag k="fixme" v="consider place=hamlet" />
		<tag k="name" v="Haukanes" />
		<tag k="place" v="farm" />
		<tag k="ssr:stedsnr" v="755339" />
	</node>
	<node id="-458996" lat="60.478191663" lon="6.66602221507">
		<tag k="name" v="Hamreelvi" />
		<tag k="ssr:stedsnr" v="750184" />
		<tag k="waterway" v="river" />
	</node>
	<node id="-458995" lat="60.5967833344" lon="6.79993611552">
		<tag k="historic" v="shieling" />
		<tag k="name" v="Nuten" />
		<tag k="place" v="locality" />
		<tag k="ssr:stedsnr" v="749145" />
	</node>
	<node id="-458994" lat="60.5600750004" lon="6.79799999762">
		<tag k="fixme" v="consider natural=peak for the most distinct mountains in the district" />
		<tag k="name" v="Velkjesfjellet" />
		<tag k="natural" v="hill" />
		<tag k="place" v="locality" />
		<tag k="ssr:stedsnr" v="735852" />
	</node>
	<node id="-458993" lat="60.5762555512" lon="6.69343332622">
		<tag k="name" v="Bjørnskor" />
		<tag k="natural" v="valley" />
		<tag k="place" v="locality" />
		<tag k="ssr:stedsnr" v="735833" />
	</node>
	<node id="-458992" lat="60.579958331" lon="6.67600833533">
		<tag k="fixme" v="consider place=hamlet" />
		<tag k="name" v="Haugen" />
		<tag k="place" v="farm" />
		<tag k="ssr:stedsnr" v="735830" />
	</node>
	<node id="-458991" lat="60.5776277762" lon="6.75065834195">
		<tag k="name" v="Olavstølen" />
		<tag k="place" v="locality" />
		<tag k="ssr:stedsnr" v="735821" />
	</node>
	<node id="-458990" lat="60.5702833305" lon="6.69720000723">
		<tag k="alt_name" v="Seim" />
		<tag k="fixme" v="consider place=hamlet" />
		<tag k="name" v="Nedre Seim" />
		<tag k="place" v="farm" />
		<tag k="ssr:stedsnr" v="735811" />
	</node>
	<node id="-458989" lat="60.5740333322" lon="6.72874999593">
		<tag k="name" v="Jobrunene" />
		<tag k="natural" v="hill" />
		<tag k="place" v="locality" />
		<tag k="ssr:stedsnr" v="735809" />
	</node>
	<node id="-458988" lat="60.5334277751" lon="6.62425833592">
		<tag k="name" v="Tjørnabotnen" />
		<tag k="natural" v="valley" />
		<tag k="place" v="locality" />
		<tag k="ssr:stedsnr" v="735793" />
	</node>
	<node id="-458987" lat="60.5568564853" lon="6.6646825063">
		<tag k="name" v="Middagsvatnet" />
		<tag k="natural" v="water" />
		<tag k="ssr:stedsnr" v="735773" />
		<tag k="water" v="lake" />
	</node>
	<node id="-458986" lat="60.5578027795" lon="6.78164722356">
		<tag k="name" v="Vardhellerane" />
		<tag k="place" v="locality" />
		<tag k="ssr:stedsnr" v="735768" />
	</node>
	<node id="-458985" lat="60.5482277768" lon="6.70681110775">
		<tag k="name" v="Lines" />
		<tag k="natural" v="cape" />
		<tag k="ssr:stedsnr" v="735749" />
	</node>
	<node id="-458984" lat="60.5487250003" lon="6.76796666943">
		<tag k="name" v="Hovdane" />
		<tag k="natural" v="hill" />
		<tag k="place" v="locality" />
		<tag k="ssr:stedsnr" v="735745" />
	</node>
	<node id="-458983" lat="60.542622225" lon="6.78760834128">
		<tag k="historic" v="shieling" />
		<tag k="name" v="Måvotno" />
		<tag k="place" v="locality" />
		<tag k="ssr:stedsnr" v="735742" />
	</node>
	<node id="-458982" lat="60.5286888919" lon="6.69526944165">
		<tag k="fixme" v="consider place=hamlet" />
		<tag k="name" v="Ystås" />
		<tag k="place" v="farm" />
		<tag k="ssr:stedsnr" v="735054" />
	</node>
	<node id="-458981" lat="60.5244960546" lon="6.76238053847">
		<tag k="name" v="Ljosegråbekken" />
		<tag k="ssr:stedsnr" v="735050" />
		<tag k="waterway" v="stream" />
	</node>
	<node id="-458980" lat="60.5195694438" lon="6.6687499965">
		<tag k="fixme" v="consider natural=peak for the most distinct mountains in the district" />
		<tag k="name" v="Smøreggi" />
		<tag k="natural" v="hill" />
		<tag k="ssr:stedsnr" v="735040" />
	</node>
	<node id="-458979" lat="60.5948694467" lon="6.75537499996">
		<tag k="name" v="Strutseggi" />
		<tag k="natural" v="ridge" />
		<tag k="place" v="locality" />
		<tag k="ssr:stedsnr" v="734926" />
	</node>
	<node id="-458978" lat="60.5918972261" lon="6.71969722935">
		<tag k="name" v="Kvannskorebekken" />
		<tag k="ssr:stedsnr" v="734906" />
		<tag k="waterway" v="stream" />
	</node>
	<node id="-458977" lat="60.6193694442" lon="6.64034443998">
		<tag k="historic" v="shieling" />
		<tag k="name" v="Latebakken" />
		<tag k="place" v="locality" />
		<tag k="ssr:stedsnr" v="734894" />
	</node>
	<node id="-458976" lat="60.5993499963" lon="6.66851388047">
		<tag k="name" v="Tingsteinen" />
		<tag k="natural" v="stone" />
		<tag k="ssr:stedsnr" v="734877" />
	</node>
	<node id="-458975" lat="60.6043166692" lon="6.64544722039">
		<tag k="historic" v="shieling" />
		<tag k="name" v="Skaftedalstveiti" />
		<tag k="place" v="locality" />
		<tag k="ssr:stedsnr" v="734873" />
	</node>
	<node id="-458974" lat="60.479550002" lon="6.62623055521">
		<tag k="historic" v="shieling" />
		<tag k="name" v="Håli" />
		<tag k="place" v="locality" />
		<tag k="ssr:stedsnr" v="733389" />
	</node>
	<node id="-458973" lat="60.4554250003" lon="6.57055834009">
		<tag k="fixme" v="consider place=hamlet" />
		<tag k="name" v="Beggevik" />
		<tag k="place" v="farm" />
		<tag k="ssr:stedsnr" v="733231" />
	</node>
	<node id="-458972" lat="60.4681277797" lon="6.5755583304">
		<tag k="alt_name" v="Gruvefjell" />
		<tag k="fixme" v="consider natural=peak for the most distinct mountains in the district" />
		<tag k="name" v="Gråfjellet" />
		<tag k="natural" v="hill" />
		<tag k="place" v="locality" />
		<tag k="ssr:stedsnr" v="733200" />
	</node>
	<node id="-458971" lat="60.4720249958" lon="6.61268611441">
		<tag k="amenity" v="ferry_terminal" />
		<tag k="name" v="Kvanndal ferjekai" />
		<tag k="ssr:stedsnr" v="714806" />
	</node>
	<node id="-458970" lat="60.5550711172" lon="6.73028546463">
		<tag k="bridge" v="yes" />
		<tag k="layer" v="1" />
		<tag k="name" v="Kyrkje-Elv" />
		<tag k="ssr:stedsnr" v="713805" />
	</node>
	<node id="-458969" lat="60.4974722221" lon="6.67318056238">
		<tag k="name" v="Ytrabøneset" />
		<tag k="natural" v="cape" />
		<tag k="ssr:stedsnr" v="711519" />
	</node>
	<node id="-458968" lat="60.4940611133" lon="6.69607778586">
		<tag k="name" v="Drivfoss" />
		<tag k="natural" v="waterfall" />
		<tag k="ssr:stedsnr" v="711518" />
	</node>
	<node id="-458967" lat="60.5230527781" lon="6.60690277091">
		<tag k="name" v="Styggedalen" />
		<tag k="natural" v="valley" />
		<tag k="place" v="locality" />
		<tag k="ssr:stedsnr" v="706835" />
	</node>
	<node id="-458966" lat="60.6181138852" lon="6.71111666501">
		<tag k="name" v="Smalaskar" />
		<tag k="natural" v="hill" />
		<tag k="place" v="locality" />
		<tag k="ssr:stedsnr" v="706830" />
	</node>
	<node id="-458965" lat="60.6104111103" lon="6.71138611681">
		<tag k="name" v="Sutarebrekka" />
		<tag k="natural" v="slope" />
		<tag k="place" v="locality" />
		<tag k="ssr:stedsnr" v="706828" />
	</node>
	<node id="-458964" lat="60.4724222185" lon="6.59786945101">
		<tag k="name" v="Preikestol" />
		<tag k="place" v="locality" />
		<tag k="ssr:stedsnr" v="706777" />
	</node>
	<node id="-458963" lat="60.5554583293" lon="6.63334443693">
		<tag k="name" v="Horgabekken" />
		<tag k="ssr:stedsnr" v="706771" />
		<tag k="waterway" v="stream" />
	</node>
	<node id="-458962" lat="60.6062083332" lon="6.71166666608">
		<tag k="name" v="Lauvmyrebråtet" />
		<tag k="natural" v="slope" />
		<tag k="place" v="locality" />
		<tag k="ssr:stedsnr" v="706767" />
	</node>
	<node id="-458961" lat="60.5568084196" lon="6.67666267847">
		<tag k="name" v="Bukkaskorane" />
		<tag k="place" v="locality" />
		<tag k="ssr:stedsnr" v="706766" />
	</node>
	<node id="-458960" lat="60.5675916623" lon="6.7432333328">
		<tag k="name" v="Allmenningane" />
		<tag k="place" v="locality" />
		<tag k="ssr:stedsnr" v="706763" />
	</node>
	<node id="-458959" lat="60.4952083315" lon="6.65116389474">
		<tag k="historic" v="shieling" />
		<tag k="name" v="Kleppe" />
		<tag k="place" v="locality" />
		<tag k="ssr:stedsnr" v="706753" />
	</node>
	<node id="-458958" lat="60.608355559" lon="6.6397194506">
		<tag k="name" v="Dalsetøyane" />
		<tag k="place" v="locality" />
		<tag k="ssr:stedsnr" v="706750" />
	</node>
	<node id="-458957" lat="60.6131166693" lon="6.73105000619">
		<tag k="fixme" v="consider natural=peak for the most distinct mountains in the district" />
		<tag k="name" v="Bjørnstigen" />
		<tag k="natural" v="hill" />
		<tag k="place" v="locality" />
		<tag k="ssr:stedsnr" v="706745" />
	</node>
	<node id="-458956" lat="60.5333972185" lon="6.68188055842">
		<tag k="name" v="Skrånane" />
		<tag k="natural" v="slope" />
		<tag k="place" v="locality" />
		<tag k="ssr:stedsnr" v="705928" />
	</node>
	<node id="-458955" lat="60.4443972202" lon="6.52564167414">
		<tag k="bay" v="fjord" />
		<tag k="name" v="Indre Samlafjorden" />
		<tag k="natural" v="bay" />
		<tag k="ssr:stedsnr" v="705926" />
	</node>
	<node id="-458954" lat="60.4997444412" lon="6.67799444064">
		<tag k="name" v="Haukanes" />
		<tag k="natural" v="cape" />
		<tag k="ssr:stedsnr" v="705907" />
	</node>
	<node id="-458953" lat="60.4867764428" lon="6.61395692859">
		<tag k="name" v="Hålitjørnane" />
		<tag k="natural" v="water" />
		<tag k="ssr:stedsnr" v="705901" />
		<tag k="water" v="lake" />
	</node>
	<node id="-458952" lat="60.4830423246" lon="6.62110278416">
		<tag k="name" v="Svetjørn" />
		<tag k="natural" v="water" />
		<tag k="ssr:stedsnr" v="705900" />
	</node>
	<node id="-458951" lat="60.5144388888" lon="6.72186110783">
		<tag k="name" v="Middagsgjela" />
		<tag k="natural" v="gorge" />
		<tag k="ssr:stedsnr" v="705896" />
	</node>
	<node id="-458950" lat="60.5080722264" lon="6.70807778123">
		<tag k="name" v="Koldegjela" />
		<tag k="natural" v="gorge" />
		<tag k="ssr:stedsnr" v="705895" />
	</node>
	<node id="-458949" lat="60.5231277801" lon="6.76612221584">
		<tag k="name" v="Stakkstøo" />
		<tag k="place" v="locality" />
		<tag k="ssr:stedsnr" v="705884" />
	</node>
	<node id="-458948" lat="60.4845777758" lon="6.68483334167">
		<tag k="highway" v="path" />
		<tag k="name" v="Bjønnstien" />
		<tag k="ssr:stedsnr" v="705868" />
	</node>
	<node id="-458947" lat="60.4945111138" lon="6.63946111701">
		<tag k="alt_name" v="Hessjiljane" />
		<tag k="name" v="Hesgiljane" />
		<tag k="place" v="farm" />
		<tag k="ssr:stedsnr" v="705866" />
	</node>
	<node id="-458946" lat="60.4829166673" lon="6.64719722127">
		<tag k="alt_name" v="Fisk" />
		<tag k="name" v="Fiskarnes" />
		<tag k="natural" v="cape" />
		<tag k="ssr:stedsnr" v="705863" />
	</node>
	<node id="-458945" lat="60.6068333297" lon="6.81021389177">
		<tag k="name" v="Kvannabrekkene" />
		<tag k="natural" v="slope" />
		<tag k="place" v="locality" />
		<tag k="ssr:stedsnr" v="689148" />
	</node>
	<node id="-458944" lat="60.5612055531" lon="6.7082999974">
		<tag k="fixme" v="consider place=hamlet" />
		<tag k="name" v="Nesheim" />
		<tag k="place" v="farm" />
		<tag k="ssr:stedsnr" v="674860" />
	</node>
	<node id="-458943" lat="60.5623194407" lon="6.65601944874">
		<tag k="name" v="Vatnadalane" />
		<tag k="natural" v="valley" />
		<tag k="place" v="locality" />
		<tag k="ssr:stedsnr" v="674856" />
	</node>
	<node id="-458942" lat="60.5870555532" lon="6.79519723097">
		<tag k="name" v="Langetangen" />
		<tag k="natural" v="cape" />
		<tag k="ssr:stedsnr" v="674822" />
	</node>
	<node id="-458941" lat="60.5812194451" lon="6.75126388082">
		<tag k="name" v="Dritlingabekken" />
		<tag k="ssr:stedsnr" v="674819" />
		<tag k="waterway" v="stream" />
	</node>
	<node id="-458940" lat="60.5716972247" lon="6.72656111103">
		<tag k="name" v="Trollgytta" />
		<tag k="place" v="locality" />
		<tag k="ssr:stedsnr" v="674808" />
	</node>
	<node id="-458939" lat="60.5731694469" lon="6.66005555283">
		<tag k="name" v="Nautaskor" />
		<tag k="natural" v="valley" />
		<tag k="place" v="locality" />
		<tag k="ssr:stedsnr" v="674804" />
	</node>
	<node id="-458938" lat="60.5337805592" lon="6.71274167209">
		<tag k="fixme" v="consider natural=peak for the most distinct mountains in the district" />
		<tag k="name" v="Kollanesåsen" />
		<tag k="natural" v="hill" />
		<tag k="place" v="locality" />
		<tag k="ssr:stedsnr" v="674790" />
	</node>
	<node id="-458937" lat="60.5536999997" lon="6.74493056239">
		<tag k="fixme" v="consider place=hamlet" />
		<tag k="name" v="Velkje" />
		<tag k="place" v="farm" />
		<tag k="ssr:stedsnr" v="674772" />
	</node>
	<node id="-458936" lat="60.5232472181" lon="6.71611943831">
		<tag k="name" v="Eide" />
		<tag k="place" v="hamlet" />
		<tag k="ssr:stedsnr" v="674036" />
	</node>
	<node id="-458935" lat="60.5187333311" lon="6.69904444671">
		<tag k="name" v="Veraviki" />
		<tag k="natural" v="bay" />
		<tag k="ssr:stedsnr" v="674032" />
	</node>
	<node id="-458934" lat="60.5196999988" lon="6.76455276946">
		<tag k="historic" v="shieling" />
		<tag k="name" v="Stokksel" />
		<tag k="place" v="locality" />
		<tag k="ssr:stedsnr" v="674028" />
	</node>
	<node id="-458933" lat="60.596574999" lon="6.70146388428">
		<tag k="name" v="Skorvo" />
		<tag k="ssr:stedsnr" v="673937" />
		<tag k="waterway" v="river" />
	</node>
	<node id="-458932" lat="60.5876416684" lon="6.73197778527">
		<tag k="fixme" v="consider natural=peak for the most distinct mountains in the district" />
		<tag k="name" v="Reinsgrønut" />
		<tag k="natural" v="hill" />
		<tag k="ssr:stedsnr" v="673930" />
	</node>
	<node id="-458931" lat="60.5971138906" lon="6.66084166201">
		<tag k="name" v="Memorgehaug" />
		<tag k="natural" v="hill" />
		<tag k="place" v="locality" />
		<tag k="ssr:stedsnr" v="673889" />
	</node>
	<node id="-458930" lat="60.4759249988" lon="6.68564167349">
		<tag k="fixme" v="consider natural=peak for the most distinct mountains in the district" />
		<tag k="name" v="Seljenuten" />
		<tag k="natural" v="hill" />
		<tag k="ssr:stedsnr" v="673445" />
	</node>
	<node id="-458929" lat="60.469625003" lon="6.64436944512">
		<tag k="name" v="Teigen" />
		<tag k="place" v="locality" />
		<tag k="ssr:stedsnr" v="673436" />
	</node>
	<node id="-458928" lat="60.4505138912" lon="6.49695000855">
		<tag k="name" v="Urdaneselvi" />
		<tag k="ssr:stedsnr" v="673260" />
		<tag k="waterway" v="stream" />
	</node>
	<node id="-458927" lat="60.4772249972" lon="6.54441389257">
		<tag k="historic" v="shieling" />
		<tag k="name" v="Fossdalen" />
		<tag k="place" v="locality" />
		<tag k="ssr:stedsnr" v="672199" />
	</node>
	<node id="-458926" lat="60.4585694429" lon="6.53277499344">
		<tag k="bridge" v="yes" />
		<tag k="layer" v="1" />
		<tag k="name" v="Jøtto" />
		<tag k="ssr:stedsnr" v="653831" />
	</node>
	<node id="-458925" lat="60.4952277766" lon="6.66400277631">
		<tag k="name" v="Rysseviki" />
		<tag k="natural" v="bay" />
		<tag k="old_name" v="Rysevik" />
		<tag k="ssr:stedsnr" v="650484" />
	</node>
	<node id="-458924" lat="60.4560722233" lon="6.55180277424">
		<tag k="layer" v="-1" />
		<tag k="name" v="Lussand" />
		<tag k="ssr:stedsnr" v="650294" />
		<tag k="tunnel" v="yes" />
	</node>
	<node id="-458923" lat="60.500372223" lon="6.66169999599">
		<tag k="name" v="Daurmålssteinen" />
		<tag k="natural" v="stone" />
		<tag k="ssr:stedsnr" v="646713" />
	</node>
	<node id="-458922" lat="60.4502666678" lon="6.49426110685">
		<tag k="name" v="Skåre" />
		<tag k="natural" v="hill" />
		<tag k="place" v="locality" />
		<tag k="ssr:stedsnr" v="645819" />
	</node>
	<node id="-458921" lat="60.5927416648" lon="6.77499999495">
		<tag k="name" v="Hjallahaugen" />
		<tag k="natural" v="hill" />
		<tag k="place" v="locality" />
		<tag k="ssr:stedsnr" v="645810" />
	</node>
	<node id="-458920" lat="60.590675002" lon="6.77411944176">
		<tag k="name" v="Liasetberget" />
		<tag k="natural" v="hill" />
		<tag k="place" v="locality" />
		<tag k="ssr:stedsnr" v="645808" />
	</node>
	<node id="-458919" lat="60.5240722191" lon="6.68065276966">
		<tag k="name" v="Gjehovden" />
		<tag k="natural" v="hill" />
		<tag k="place" v="locality" />
		<tag k="ssr:stedsnr" v="645792" />
	</node>
	<node id="-458918" lat="60.6099861117" lon="6.68138055159">
		<tag k="name" v="Nuteelvi" />
		<tag k="ssr:stedsnr" v="645773" />
		<tag k="waterway" v="river" />
	</node>
	<node id="-458917" lat="60.513402775" lon="6.60476665877">
		<tag k="fixme" v="consider natural=peak for the most distinct mountains in the district" />
		<tag k="name" v="Vossavarden" />
		<tag k="natural" v="hill" />
		<tag k="place" v="locality" />
		<tag k="ssr:stedsnr" v="645767" />
	</node>
	<node id="-458916" lat="60.4618694435" lon="6.51916388268">
		<tag k="name" v="Blejesonen" />
		<tag k="ssr:stedsnr" v="645763" />
		<tag k="waterway" v="stream" />
	</node>
	<node id="-458915" lat="60.4858750039" lon="6.59471388732">
		<tag k="historic" v="shieling" />
		<tag k="name" v="Tveita" />
		<tag k="place" v="locality" />
		<tag k="ssr:stedsnr" v="645759" />
	</node>
	<node id="-458914" lat="60.5359000012" lon="6.68774722226">
		<tag k="name" v="Gjessheldren" />
		<tag k="place" v="locality" />
		<tag k="ssr:stedsnr" v="645745" />
	</node>
	<node id="-458913" lat="60.5720388897" lon="6.7093500076">
		<tag k="name" v="Forvoi" />
		<tag k="place" v="locality" />
		<tag k="ssr:stedsnr" v="645742" />
	</node>
	<node id="-458912" lat="60.6164111141" lon="6.65260555438">
		<tag k="name" v="Dammalii" />
		<tag k="natural" v="slope" />
		<tag k="place" v="locality" />
		<tag k="ssr:stedsnr" v="645732" />
	</node>
	<node id="-458911" lat="60.5584638868" lon="6.81415278254">
		<tag k="name" v="Slåtteskorane" />
		<tag k="natural" v="slope" />
		<tag k="place" v="locality" />
		<tag k="ssr:stedsnr" v="644945" />
	</node>
	<node id="-458910" lat="60.5041500029" lon="6.69695278041">
		<tag k="name" v="Selstå" />
		<tag k="natural" v="bay" />
		<tag k="ssr:stedsnr" v="644937" />
	</node>
	<node id="-458909" lat="60.5651527789" lon="6.68707221702">
		<tag k="name" v="Kaldelokken" />
		<tag k="place" v="locality" />
		<tag k="ssr:stedsnr" v="644917" />
	</node>
	<node id="-458908" lat="60.4662833318" lon="6.53659444316">
		<tag k="name" v="Øvreskår" />
		<tag k="natural" v="valley" />
		<tag k="place" v="locality" />
		<tag k="ssr:stedsnr" v="644908" />
	</node>
	<node id="-458907" lat="60.5090583293" lon="6.70730833339">
		<tag k="alt_name" v="Kaldå" />
		<tag k="name" v="Koldo" />
		<tag k="ssr:stedsnr" v="644905" />
		<tag k="waterway" v="stream" />
	</node>
	<node id="-458906" lat="60.455816669" lon="6.55022777618">
		<tag k="name" v="Djupeviki" />
		<tag k="natural" v="bay" />
		<tag k="old_name" v="Djupevik" />
		<tag k="ssr:stedsnr" v="644903" />
	</node>
	<node id="-458905" lat="60.5185833354" lon="6.72233611551">
		<tag k="name" v="Nodlahaugen" />
		<tag k="natural" v="hill" />
		<tag k="place" v="locality" />
		<tag k="ssr:stedsnr" v="644894" />
	</node>
	<node id="-458904" lat="60.5683611142" lon="6.72900832717">
		<tag k="name" v="Riplehaugen" />
		<tag k="natural" v="hill" />
		<tag k="place" v="locality" />
		<tag k="ssr:stedsnr" v="644876" />
	</node>
	<node id="-458903" lat="60.490713885" lon="6.64984166762">
		<tag k="name" v="Leite" />
		<tag k="place" v="farm" />
		<tag k="ssr:stedsnr" v="644856" />
	</node>
	<node id="-458902" lat="60.5431138858" lon="6.76918888217">
		<tag k="name" v="Åsklov" />
		<tag k="natural" v="valley" />
		<tag k="place" v="locality" />
		<tag k="ssr:stedsnr" v="644819" />
	</node>
	<node id="-458901" lat="60.4917055591" lon="6.69418054999">
		<tag k="historic" v="shieling" />
		<tag k="name" v="Verkadalen" />
		<tag k="place" v="locality" />
		<tag k="ssr:stedsnr" v="628217" />
	</node>
	<node id="-458900" lat="60.4959694419" lon="6.71612777605">
		<tag k="name" v="Bjørndalen" />
		<tag k="natural" v="valley" />
		<tag k="place" v="locality" />
		<tag k="ssr:stedsnr" v="628209" />
	</node>
	<node id="-458899" lat="60.6250138914" lon="6.81066389106">
		<tag k="fixme" v="consider natural=peak for the most distinct mountains in the district" />
		<tag k="name" v="Sauanuten" />
		<tag k="natural" v="hill" />
		<tag k="ssr:stedsnr" v="613904" />
	</node>
	<node id="-458898" lat="60.6292757186" lon="6.80356107776">
		<tag k="name" v="Olsskavlen" />
		<tag k="natural" v="glacier" />
		<tag k="ssr:stedsnr" v="613905" />
	</node>
	<node id="-458897" lat="60.5047527803" lon="6.67641110355">
		<tag k="name" v="Kvernabekken" />
		<tag k="ssr:stedsnr" v="613881" />
		<tag k="waterway" v="stream" />
	</node>
	<node id="-458896" lat="60.5795527792" lon="6.78101111774">
		<tag k="name" v="Espelandsdalen" />
		<tag k="natural" v="valley" />
		<tag k="place" v="locality" />
		<tag k="ssr:stedsnr" v="613866" />
	</node>
	<node id="-458895" lat="60.5628292801" lon="6.80855155942">
		<tag k="name" v="Svortetjørn" />
		<tag k="natural" v="water" />
		<tag k="ssr:stedsnr" v="613852" />
	</node>
	<node id="-458894" lat="60.5593694406" lon="6.73700556067">
		<tag k="name" v="Orrefletene" />
		<tag k="natural" v="slope" />
		<tag k="place" v="locality" />
		<tag k="ssr:stedsnr" v="613846" />
	</node>
	<node id="-458893" lat="60.5783249994" lon="6.69151944748">
		<tag k="name" v="Skoddberg" />
		<tag k="natural" v="hill" />
		<tag k="place" v="locality" />
		<tag k="ssr:stedsnr" v="613837" />
	</node>
	<node id="-458892" lat="60.5798458719" lon="6.71417575174">
		<tag k="name" v="Tryglaskarstjørni" />
		<tag k="natural" v="water" />
		<tag k="ssr:stedsnr" v="613830" />
	</node>
	<node id="-458891" lat="60.5836916643" lon="6.70232500761">
		<tag k="name" v="Rinden" />
		<tag k="natural" v="ridge" />
		<tag k="place" v="locality" />
		<tag k="ssr:stedsnr" v="613826" />
	</node>
	<node id="-458890" lat="60.583249997" lon="6.77158610677">
		<tag k="name" v="Kamben" />
		<tag k="natural" v="ridge" />
		<tag k="place" v="locality" />
		<tag k="ssr:stedsnr" v="613823" />
	</node>
	<node id="-458889" lat="60.5342361151" lon="6.69347499604">
		<tag k="fixme" v="consider place=hamlet" />
		<tag k="name" v="Havås" />
		<tag k="place" v="farm" />
		<tag k="ssr:stedsnr" v="613790" />
	</node>
	<node id="-458888" lat="60.5362305557" lon="6.66720556246">
		<tag k="name" v="Håtjørn" />
		<tag k="natural" v="water" />
		<tag k="ssr:stedsnr" v="613789" />
	</node>
	<node id="-458887" lat="60.5570388865" lon="6.7547305581">
		<tag k="loc_name" v="Storhaug" />
		<tag k="name" v="Storhaugen" />
		<tag k="natural" v="hill" />
		<tag k="place" v="locality" />
		<tag k="ssr:stedsnr" v="613772" />
	</node>
	<node id="-458886" lat="60.556769448" lon="6.82217499294">
		<tag k="highway" v="path" />
		<tag k="name" v="Angerskleiv" />
		<tag k="ssr:stedsnr" v="613765" />
	</node>
	<node id="-458885" lat="60.5452750019" lon="6.74484722965">
		<tag k="loc_name" v="Trodhaug" />
		<tag k="name" v="Trohaugen" />
		<tag k="natural" v="hill" />
		<tag k="place" v="locality" />
		<tag k="ssr:stedsnr" v="613741" />
	</node>
	<node id="-458884" lat="60.5408999994" lon="6.77093333138">
		<tag k="historic" v="shieling" />
		<tag k="name" v="Årsklov" />
		<tag k="place" v="locality" />
		<tag k="ssr:stedsnr" v="613739" />
	</node>
	<node id="-458883" lat="60.5086305589" lon="6.59093056274">
		<tag k="name" v="Kvanngjelet" />
		<tag k="natural" v="valley" />
		<tag k="place" v="locality" />
		<tag k="ssr:stedsnr" v="613540" />
	</node>
	<node id="-458882" lat="60.5330173511" lon="6.74778327343">
		<tag k="fixme" v="consider place=hamlet" />
		<tag k="name" v="Tveito" />
		<tag k="place" v="farm" />
		<tag k="ssr:stedsnr" v="613061" />
	</node>
	<node id="-458881" lat="60.5127861076" lon="6.74127500278">
		<tag k="name" v="Daurmålsnuten" />
		<tag k="natural" v="hill" />
		<tag k="place" v="locality" />
		<tag k="ssr:stedsnr" v="613029" />
	</node>
	<node id="-458880" lat="60.5878222253" lon="6.71622222499">
		<tag k="name" v="Allibekken" />
		<tag k="ssr:stedsnr" v="612921" />
		<tag k="waterway" v="stream" />
	</node>
	<node id="-458879" lat="60.6080222201" lon="6.69935555275">
		<tag k="fixme" v="consider natural=peak for the most distinct mountains in the district" />
		<tag k="name" v="Spildanuten" />
		<tag k="natural" v="hill" />
		<tag k="ssr:stedsnr" v="612880" />
	</node>
	<node id="-458878" lat="60.6089111128" lon="6.733769453">
		<tag k="historic" v="shieling" />
		<tag k="name" v="Odden" />
		<tag k="place" v="locality" />
		<tag k="ssr:stedsnr" v="612873" />
	</node>
	<node id="-458877" lat="60.4602666655" lon="6.54800556296">
		<tag k="name" v="Hellerelvi" />
		<tag k="ssr:stedsnr" v="612210" />
		<tag k="waterway" v="stream" />
	</node>
	<node id="-458874" lat="60.5754111155" lon="6.65521110545">
		<tag k="layer" v="-1" />
		<tag k="name" v="Tunsbergtunnelen" />
		<tag k="ssr:stedsnr" v="602585" />
		<tag k="tunnel" v="yes" />
	</node>
	<node id="-458873" lat="60.4566722186" lon="6.58146388074">
		<tag k="bridge" v="yes" />
		<tag k="layer" v="1" />
		<tag k="name" v="Hagen" />
		<tag k="ssr:stedsnr" v="592864" />
	</node>
	<node id="-458872" lat="60.4578111074" lon="6.52758056483">
		<tag k="bridge" v="yes" />
		<tag k="layer" v="1" />
		<tag k="name" v="Sagelv" />
		<tag k="ssr:stedsnr" v="592840" />
	</node>
	<node id="-458871" lat="60.4570638927" lon="6.52411110805">
		<tag k="name" v="Saltkjelen" />
		<tag k="natural" v="hill" />
		<tag k="place" v="locality" />
		<tag k="ssr:stedsnr" v="590218" />
	</node>
	<node id="-458870" lat="60.502108337" lon="6.67314165807">
		<tag k="name" v="Juvet" />
		<tag k="natural" v="gorge" />
		<tag k="ssr:stedsnr" v="585705" />
	</node>
	<node id="-458869" lat="60.5919750045" lon="6.64060555866">
		<tag k="name" v="Mjølkeskår" />
		<tag k="natural" v="valley" />
		<tag k="place" v="locality" />
		<tag k="ssr:stedsnr" v="584959" />
	</node>
	<node id="-458868" lat="60.533541668" lon="6.70205555471">
		<tag k="name" v="Russagjela" />
		<tag k="natural" v="gorge" />
		<tag k="ssr:stedsnr" v="584948" />
	</node>
	<node id="-458867" lat="60.4724999986" lon="6.60183889108">
		<tag k="name" v="Kvasshaug" />
		<tag k="natural" v="hill" />
		<tag k="place" v="locality" />
		<tag k="ssr:stedsnr" v="584923" />
	</node>
	<node id="-458866" lat="60.5147666685" lon="6.71740555328">
		<tag k="name" v="Grytefossen" />
		<tag k="natural" v="waterfall" />
		<tag k="ssr:stedsnr" v="584913" />
	</node>
	<node id="-458865" lat="60.5035055534" lon="6.70865277205">
		<tag k="name" v="Vinhovden" />
		<tag k="place" v="locality" />
		<tag k="ssr:stedsnr" v="584909" />
	</node>
	<node id="-458864" lat="60.5258416628" lon="6.7520000033">
		<tag k="name" v="Gjela" />
		<tag k="natural" v="gorge" />
		<tag k="ssr:stedsnr" v="584901" />
	</node>
	<node id="-458863" lat="60.5729916709" lon="6.78605555865">
		<tag k="name" v="Baksetene" />
		<tag k="place" v="locality" />
		<tag k="ssr:stedsnr" v="584893" />
	</node>
	<node id="-458862" lat="60.5724361135" lon="6.80674721952">
		<tag k="name" v="Gråurane" />
		<tag k="natural" v="scree" />
		<tag k="ssr:stedsnr" v="584892" />
	</node>
	<node id="-458861" lat="60.578477782" lon="6.6947416627">
		<tag k="fixme" v="consider natural=peak for the most distinct mountains in the district" />
		<tag k="name" v="Ljosafjell" />
		<tag k="natural" v="hill" />
		<tag k="place" v="locality" />
		<tag k="ssr:stedsnr" v="584885" />
	</node>
	<node id="-458860" lat="60.568261111" lon="6.65454444447">
		<tag k="name" v="Nonseggi" />
		<tag k="natural" v="ridge" />
		<tag k="place" v="locality" />
		<tag k="ssr:stedsnr" v="584880" />
	</node>
	<node id="-458859" lat="60.562401903" lon="6.65110490273">
		<tag k="name" v="Storavatnet" />
		<tag k="natural" v="water" />
		<tag k="ssr:stedsnr" v="584873" />
		<tag k="water" v="lake" />
	</node>
	<node id="-458858" lat="60.5710111136" lon="6.74303055451">
		<tag k="name" v="Høyland" />
		<tag k="place" v="locality" />
		<tag k="ssr:stedsnr" v="584871" />
	</node>
	<node id="-458857" lat="60.489235527" lon="6.64690224032">
		<tag k="alt_name" v="Folkedal, nedre" />
		<tag k="fixme" v="consider place=hamlet" />
		<tag k="name" v="Nedre Folkedal" />
		<tag k="place" v="farm" />
		<tag k="ssr:stedsnr" v="584856" />
	</node>
	<node id="-458856" lat="60.590641668" lon="6.80569999193">
		<tag k="name" v="Ponsteigneset" />
		<tag k="natural" v="cape" />
		<tag k="ssr:stedsnr" v="584831" />
	</node>
	<node id="-458855" lat="60.5852583306" lon="6.78158612039">
		<tag k="name" v="Liasetbekken" />
		<tag k="ssr:stedsnr" v="584829" />
		<tag k="waterway" v="stream" />
	</node>
	<node id="-458854" lat="60.5957500005" lon="6.78648332568">
		<tag k="name" v="Bastedalsbekken" />
		<tag k="ssr:stedsnr" v="584828" />
		<tag k="waterway" v="stream" />
	</node>
	<node id="-458853" lat="60.5710666653" lon="6.71699445289">
		<tag k="name" v="Stronda" />
		<tag k="natural" v="beach" />
		<tag k="ssr:stedsnr" v="584823" />
	</node>
	<node id="-458852" lat="60.5773111121" lon="6.66934723007">
		<tag k="name" v="Svartaberg" />
		<tag k="natural" v="hill" />
		<tag k="place" v="locality" />
		<tag k="ssr:stedsnr" v="584819" />
	</node>
	<node id="-458851" lat="60.5789499997" lon="6.65458889287">
		<tag k="name" v="Vetlenos" />
		<tag k="natural" v="hill" />
		<tag k="place" v="locality" />
		<tag k="ssr:stedsnr" v="584814" />
	</node>
	<node id="-458850" lat="60.5882416676" lon="6.65572222225">
		<tag k="name" v="Stegane" />
		<tag k="natural" v="hill" />
		<tag k="place" v="locality" />
		<tag k="ssr:stedsnr" v="584808" />
	</node>
	<node id="-458849" lat="60.5159472246" lon="6.63117222761">
		<tag k="name" v="Nilsatræet" />
		<tag k="natural" v="hill" />
		<tag k="place" v="locality" />
		<tag k="ssr:stedsnr" v="584801" />
	</node>
	<node id="-458848" lat="60.455625" lon="6.57770556423">
		<tag k="alt_name" v="Geitaberget" />
		<tag k="name" v="Geilaberg" />
		<tag k="natural" v="hill" />
		<tag k="place" v="locality" />
		<tag k="ssr:stedsnr" v="584786" />
	</node>
	<node id="-458847" lat="60.5211194437" lon="6.78684722724">
		<tag k="historic" v="shieling" />
		<tag k="name" v="Skaret" />
		<tag k="place" v="locality" />
		<tag k="ssr:stedsnr" v="567140" />
	</node>
	<node id="-458846" lat="60.6366333365" lon="6.71180000039">
		<tag k="fixme" v="consider natural=peak for the most distinct mountains in the district" />
		<tag k="name" v="Skipadalsnuten" />
		<tag k="natural" v="hill" />
		<tag k="ssr:stedsnr" v="553906" />
	</node>
	<node id="-458845" lat="60.5619419858" lon="6.78153125146">
		<tag k="name" v="Lyngershaug" />
		<tag k="natural" v="hill" />
		<tag k="place" v="locality" />
		<tag k="ssr:stedsnr" v="553862" />
	</node>
	<node id="-458844" lat="60.5480111131" lon="6.65386666341">
		<tag k="fixme" v="consider natural=peak for the most distinct mountains in the district" />
		<tag k="name" v="Høgahorgi" />
		<tag k="natural" v="hill" />
		<tag k="ssr:stedsnr" v="553854" />
	</node>
	<node id="-458843" lat="60.5718888858" lon="6.7274750054">
		<tag k="name" v="Joberget" />
		<tag k="natural" v="hill" />
		<tag k="place" v="locality" />
		<tag k="ssr:stedsnr" v="553816" />
	</node>
	<node id="-458842" lat="60.5340388908" lon="6.76726666861">
		<tag k="name" v="Vetlelii" />
		<tag k="natural" v="slope" />
		<tag k="place" v="locality" />
		<tag k="ssr:stedsnr" v="553790" />
	</node>
	<node id="-458841" lat="60.5392361138" lon="6.76885555533">
		<tag k="name" v="Leiken" />
		<tag k="natural" v="wetland" />
		<tag k="ssr:stedsnr" v="553791" />
	</node>
	<node id="-458840" lat="60.5504194443" lon="6.6916305594">
		<tag k="name" v="Bildeshaugen" />
		<tag k="natural" v="hill" />
		<tag k="place" v="locality" />
		<tag k="ssr:stedsnr" v="553785" />
	</node>
	<node id="-458839" lat="60.5223305578" lon="6.68111111553">
		<tag k="historic" v="shieling" />
		<tag k="name" v="Liasete" />
		<tag k="place" v="locality" />
		<tag k="ssr:stedsnr" v="553055" />
	</node>
	<node id="-458838" lat="60.5251805592" lon="6.75054444564">
		<tag k="name" v="Hyrpo" />
		<tag k="ssr:stedsnr" v="553052" />
		<tag k="waterway" v="river" />
	</node>
	<node id="-458837" lat="60.6035861154" lon="6.68339443934">
		<tag k="name" v="Hengsdalselvi" />
		<tag k="ssr:stedsnr" v="552904" />
		<tag k="waterway" v="river" />
	</node>
	<node id="-458836" lat="60.6072916647" lon="6.78382222194">
		<tag k="fixme" v="consider natural=peak for the most distinct mountains in the district" />
		<tag k="name" v="Sauanuten" />
		<tag k="natural" v="hill" />
		<tag k="ssr:stedsnr" v="552900" />
	</node>
	<node id="-458835" lat="60.5808805516" lon="6.73537222287">
		<tag k="name" v="Fljåetjørnane" />
		<tag k="natural" v="water" />
		<tag k="ssr:stedsnr" v="552860" />
		<tag k="water" v="lake" />
	</node>
	<node id="-458834" lat="60.535983329" lon="6.64428610683">
		<tag k="name" v="Røyrvatnet" />
		<tag k="natural" v="water" />
		<tag k="ssr:stedsnr" v="552827" />
		<tag k="water" v="lake" />
	</node>
	<node id="-458833" lat="60.5395611156" lon="6.70009445277">
		<tag k="fixme" v="consider place=hamlet" />
		<tag k="name" v="Selland" />
		<tag k="place" v="farm" />
		<tag k="ssr:stedsnr" v="552823" />
	</node>
	<node id="-458832" lat="60.5573944432" lon="6.74452777286">
		<tag k="name" v="Notten" />
		<tag k="natural" v="ridge" />
		<tag k="place" v="locality" />
		<tag k="ssr:stedsnr" v="552796" />
	</node>
	<node id="-458831" lat="60.5123583301" lon="6.7193305488">
		<tag k="name" v="Skredelvi" />
		<tag k="ssr:stedsnr" v="552045" />
		<tag k="waterway" v="river" />
	</node>
	<node id="-458830" lat="60.4998083376" lon="6.6369916697">
		<tag k="name" v="Storaberget" />
		<tag k="natural" v="hill" />
		<tag k="place" v="locality" />
		<tag k="ssr:stedsnr" v="552031" />
	</node>
	<node id="-458829" lat="60.5009638902" lon="6.70159444828">
		<tag k="name" v="Selstodskreda" />
		<tag k="natural" v="scree" />
		<tag k="ssr:stedsnr" v="552025" />
	</node>
	<node id="-458828" lat="60.5994888933" lon="6.82806389228">
		<tag k="fixme" v="consider natural=peak for the most distinct mountains in the district" />
		<tag k="name" v="Troppenuten" />
		<tag k="natural" v="hill" />
		<tag k="place" v="locality" />
		<tag k="ssr:stedsnr" v="551926" />
	</node>
	<node id="-458827" lat="60.5922999984" lon="6.6803694513">
		<tag k="fixme" v="consider place=hamlet" />
		<tag k="name" v="Skår" />
		<tag k="place" v="farm" />
		<tag k="ssr:stedsnr" v="551914" />
	</node>
	<node id="-458826" lat="60.5880833297" lon="6.68665555801">
		<tag k="name" v="Angershovden" />
		<tag k="natural" v="hill" />
		<tag k="place" v="locality" />
		<tag k="ssr:stedsnr" v="551906" />
	</node>
	<node id="-458825" lat="60.4801861148" lon="6.65867500686">
		<tag k="fixme" v="consider place=hamlet" />
		<tag k="name" v="Hamre" />
		<tag k="place" v="farm" />
		<tag k="ssr:stedsnr" v="551417" />
	</node>
	<node id="-458824" lat="60.4894749979" lon="6.61368888517">
		<tag k="name" v="Kalvbakkehøgdi" />
		<tag k="natural" v="hill" />
		<tag k="place" v="locality" />
		<tag k="ssr:stedsnr" v="551398" />
	</node>
	<node id="-458823" lat="60.4809111136" lon="6.57913610393">
		<tag k="alt_name" v="Kvandalsstølen" />
		<tag k="historic" v="shieling" />
		<tag k="name" v="Kvanndalsstølen" />
		<tag k="place" v="locality" />
		<tag k="ssr:stedsnr" v="551229" />
	</node>
	<node id="-458822" lat="60.4656999983" lon="6.53122500011">
		<tag k="alt_name" v="Drivenuten, nedre" />
		<tag k="fixme" v="consider natural=peak for the most distinct mountains in the district" />
		<tag k="name" v="Nedre Drivenuten" />
		<tag k="natural" v="hill" />
		<tag k="place" v="locality" />
		<tag k="ssr:stedsnr" v="551220" />
	</node>
	<node id="-458821" lat="60.4639027737" lon="6.5503333333">
		<tag k="historic" v="shieling" />
		<tag k="name" v="Helleren" />
		<tag k="place" v="locality" />
		<tag k="ssr:stedsnr" v="551202" />
	</node>
	<node id="-458820" lat="60.5771611128" lon="6.68045554837">
		<tag k="bridge" v="yes" />
		<tag k="layer" v="1" />
		<tag k="name" v="Kvernbekk" />
		<tag k="ssr:stedsnr" v="532790" />
	</node>
	<node id="-458819" lat="60.517025004" lon="6.7109166638">
		<tag k="name" v="Gryteviki" />
		<tag k="natural" v="bay" />
		<tag k="old_name" v="Grytevik" />
		<tag k="ssr:stedsnr" v="529513" />
	</node>
	<node id="-458818" lat="60.5309861098" lon="6.67863055399">
		<tag k="name" v="Stølshaugane" />
		<tag k="natural" v="hill" />
		<tag k="place" v="locality" />
		<tag k="ssr:stedsnr" v="524798" />
	</node>
	<node id="-458817" lat="60.6233805554" lon="6.65764721966">
		<tag k="name" v="Huldahaugen" />
		<tag k="natural" v="hill" />
		<tag k="place" v="locality" />
		<tag k="ssr:stedsnr" v="524769" />
	</node>
	<node id="-458816" lat="60.4905777752" lon="6.59519166878">
		<tag k="name" v="Telfloten" />
		<tag k="natural" v="slope" />
		<tag k="place" v="locality" />
		<tag k="ssr:stedsnr" v="524761" />
	</node>
	<node id="-458815" lat="60.6163111117" lon="6.70825555309">
		<tag k="fixme" v="consider natural=peak for the most distinct mountains in the district" />
		<tag k="name" v="Vetledalsnuten" />
		<tag k="natural" v="hill" />
		<tag k="ssr:stedsnr" v="524722" />
	</node>
	<node id="-458814" lat="60.4750361091" lon="6.5930888884">
		<tag k="name" v="Turtnajuvet" />
		<tag k="natural" v="gorge" />
		<tag k="ssr:stedsnr" v="524115" />
	</node>
	<node id="-458813" lat="60.5261416643" lon="6.72785832522">
		<tag k="loc_name" v="Skielvi" />
		<tag k="name" v="Skielva" />
		<tag k="ssr:stedsnr" v="523941" />
		<tag k="waterway" v="river" />
	</node>
	<node id="-458812" lat="60.5076826835" lon="6.67195847977">
		<tag k="historic" v="shieling" />
		<tag k="name" v="Eidesskori" />
		<tag k="place" v="locality" />
		<tag k="ssr:stedsnr" v="523938" />
	</node>
	<node id="-458811" lat="60.5679111106" lon="6.77994444439">
		<tag k="name" v="Svåbekken" />
		<tag k="ssr:stedsnr" v="523932" />
		<tag k="waterway" v="stream" />
	</node>
	<node id="-458810" lat="60.501030557" lon="6.64032221673">
		<tag k="name" v="Klovnaberg" />
		<tag k="natural" v="hill" />
		<tag k="place" v="locality" />
		<tag k="ssr:stedsnr" v="523910" />
	</node>
	<node id="-458809" lat="60.4554277799" lon="6.54902778438">
		<tag k="name" v="Golten" />
		<tag k="natural" v="cape" />
		<tag k="ssr:stedsnr" v="523897" />
	</node>
	<node id="-458808" lat="60.5102805532" lon="6.71386110295">
		<tag k="name" v="Gjøttehaugen" />
		<tag k="natural" v="hill" />
		<tag k="place" v="locality" />
		<tag k="ssr:stedsnr" v="523891" />
	</node>
	<node id="-458807" lat="60.582486113" lon="6.76983610873">
		<tag k="name" v="Ulvagjela" />
		<tag k="natural" v="gorge" />
		<tag k="ssr:stedsnr" v="523877" />
	</node>
	<node id="-458806" lat="60.5812833318" lon="6.7322111196">
		<tag k="name" v="Fjåene" />
		<tag k="place" v="locality" />
		<tag k="ssr:stedsnr" v="523867" />
	</node>
	<node id="-458805" lat="60.5745944439" lon="6.71787221353">
		<tag k="name" v="Skarhaug" />
		<tag k="natural" v="hill" />
		<tag k="place" v="locality" />
		<tag k="ssr:stedsnr" v="523863" />
	</node>
	<node id="-458804" lat="60.5418722221" lon="6.68257499483">
		<tag k="name" v="Messhaug" />
		<tag k="natural" v="hill" />
		<tag k="place" v="locality" />
		<tag k="ssr:stedsnr" v="523857" />
	</node>
	<node id="-458803" lat="60.5747361075" lon="6.77040554748">
		<tag k="historic" v="shieling" />
		<tag k="name" v="Litlastøl" />
		<tag k="place" v="locality" />
		<tag k="ssr:stedsnr" v="507124" />
	</node>
	<node id="-458802" lat="60.5706555553" lon="6.63745278438">
		<tag k="name" v="Bjørnahaugane" />
		<tag k="natural" v="hill" />
		<tag k="place" v="locality" />
		<tag k="ssr:stedsnr" v="506237" />
	</node>
	<node id="-458801" lat="60.6251916707" lon="6.65564444464">
		<tag k="historic" v="shieling" />
		<tag k="name" v="Skytjeset" />
		<tag k="place" v="locality" />
		<tag k="ssr:stedsnr" v="492884" />
	</node>
	<node id="-458800" lat="60.5711694423" lon="6.75125277489">
		<tag k="name" v="Heiane" />
		<tag k="natural" v="hill" />
		<tag k="place" v="locality" />
		<tag k="ssr:stedsnr" v="492867" />
	</node>
	<node id="-458799" lat="60.5622638903" lon="6.74353333076">
		<tag k="name" v="Øyjordshaugen" />
		<tag k="natural" v="hill" />
		<tag k="place" v="locality" />
		<tag k="ssr:stedsnr" v="492846" />
	</node>
	<node id="-458798" lat="60.5664111068" lon="6.72521667026">
		<tag k="name" v="Flætene" />
		<tag k="place" v="farm" />
		<tag k="ssr:stedsnr" v="492844" />
	</node>
	<node id="-458797" lat="60.5518611094" lon="6.63904444958">
		<tag k="name" v="Middalen" />
		<tag k="natural" v="valley" />
		<tag k="place" v="locality" />
		<tag k="ssr:stedsnr" v="492840" />
	</node>
	<node id="-458796" lat="60.5800750041" lon="6.77723055013">
		<tag k="fixme" v="consider place=hamlet" />
		<tag k="name" v="Dale" />
		<tag k="place" v="farm" />
		<tag k="ssr:stedsnr" v="492826" />
	</node>
	<node id="-458795" lat="60.529799998" lon="6.61731944624">
		<tag k="name" v="Høgaleitet" />
		<tag k="natural" v="hill" />
		<tag k="place" v="locality" />
		<tag k="ssr:stedsnr" v="492791" />
	</node>
	<node id="-458794" lat="60.5420805541" lon="6.64162221356">
		<tag k="historic" v="shieling" />
		<tag k="name" v="Nyastøl" />
		<tag k="place" v="locality" />
		<tag k="ssr:stedsnr" v="492743" />
	</node>
	<node id="-458793" lat="60.5487009808" lon="6.73797509789">
		<tag k="alt_name" v="Vinddal" />
		<tag k="fixme" v="consider place=hamlet" />
		<tag k="name" v="Vindal" />
		<tag k="place" v="farm" />
		<tag k="ssr:stedsnr" v="492738" />
	</node>
	<node id="-458792" lat="60.5080555587" lon="6.6776638796">
		<tag k="name" v="Fletene" />
		<tag k="natural" v="slope" />
		<tag k="place" v="locality" />
		<tag k="ssr:stedsnr" v="492020" />
	</node>
	<node id="-458791" lat="60.5091694474" lon="6.71033889437">
		<tag k="name" v="Akslene" />
		<tag k="natural" v="ridge" />
		<tag k="place" v="locality" />
		<tag k="ssr:stedsnr" v="492019" />
	</node>
	<node id="-458790" lat="60.5935972199" lon="6.65143332565">
		<tag k="fixme" v="consider natural=peak for the most distinct mountains in the district" />
		<tag k="name" v="Håfjellet" />
		<tag k="natural" v="hill" />
		<tag k="place" v="locality" />
		<tag k="ssr:stedsnr" v="491937" />
	</node>
	<node id="-458789" lat="60.5992666668" lon="6.76363889349">
		<tag k="name" v="Stavaskaret" />
		<tag k="natural" v="valley" />
		<tag k="place" v="locality" />
		<tag k="ssr:stedsnr" v="491934" />
	</node>
	<node id="-458788" lat="60.5880861089" lon="6.68104999105">
		<tag k="name" v="Grytedalen" />
		<tag k="natural" v="valley" />
		<tag k="place" v="locality" />
		<tag k="ssr:stedsnr" v="491920" />
	</node>
	<node id="-458787" lat="60.5904138849" lon="6.6759333283">
		<tag k="name" v="Glåm" />
		<tag k="natural" v="hill" />
		<tag k="place" v="locality" />
		<tag k="ssr:stedsnr" v="491917" />
	</node>
	<node id="-458786" lat="60.5865576777" lon="6.65585199337">
		<tag k="fixme" v="consider place=hamlet" />
		<tag k="name" v="Klyve" />
		<tag k="place" v="farm" />
		<tag k="ssr:stedsnr" v="491915" />
	</node>
	<node id="-458785" lat="60.6131416678" lon="6.68120832758">
		<tag k="name" v="Hengsdalen" />
		<tag k="natural" v="valley" />
		<tag k="place" v="locality" />
		<tag k="ssr:stedsnr" v="491902" />
	</node>
	<node id="-458784" lat="60.5977055569" lon="6.63496666529">
		<tag k="fixme" v="consider place=hamlet" />
		<tag k="name" v="Skaftedal" />
		<tag k="place" v="farm" />
		<tag k="ssr:stedsnr" v="491886" />
	</node>
	<node id="-458783" lat="60.4867694484" lon="6.60142221917">
		<tag k="name" v="Skori" />
		<tag k="natural" v="valley" />
		<tag k="place" v="locality" />
		<tag k="ssr:stedsnr" v="490397" />
	</node>
	<node id="-458782" lat="60.4700277759" lon="6.52932777704">
		<tag k="alt_name" v="Drivenuten, øvre" />
		<tag k="fixme" v="consider natural=peak for the most distinct mountains in the district" />
		<tag k="name" v="Øvre Drivenuten" />
		<tag k="natural" v="hill" />
		<tag k="place" v="locality" />
		<tag k="ssr:stedsnr" v="490198" />
	</node>
	<node id="-458781" lat="60.4640166681" lon="6.52740278205">
		<tag k="name" v="Drivegjeli" />
		<tag k="natural" v="valley" />
		<tag k="place" v="locality" />
		<tag k="ssr:stedsnr" v="490189" />
	</node>
	<node id="-458780" lat="60.4607777782" lon="6.5514583388">
		<tag k="name" v="Tverrelvi" />
		<tag k="ssr:stedsnr" v="490186" />
		<tag k="waterway" v="stream" />
	</node>
	<node id="-458778" lat="60.5589357519" lon="6.72834985073">
		<tag k="bridge" v="yes" />
		<tag k="layer" v="1" />
		<tag k="name" v="Trå" />
		<tag k="ssr:stedsnr" v="470792" />
	</node>
	<node id="-458777" lat="60.4755583339" lon="6.6319500023">
		<tag k="name" v="Skakkakjeft" />
		<tag k="natural" v="cape" />
		<tag k="ssr:stedsnr" v="468500" />
	</node>
	<node id="-458776" lat="60.4632277762" lon="6.55592222153">
		<tag k="fixme" v="consider natural=peak for the most distinct mountains in the district" />
		<tag k="name" v="Notten" />
		<tag k="natural" v="hill" />
		<tag k="ssr:stedsnr" v="463941" />
	</node>
	<node id="-458775" lat="60.5738638933" lon="6.65376111854">
		<tag k="name" v="Kvernabekken" />
		<tag k="ssr:stedsnr" v="463913" />
		<tag k="waterway" v="stream" />
	</node>
	<node id="-458774" lat="60.4697194448" lon="6.55638889084">
		<tag k="name" v="Mitto" />
		<tag k="natural" v="water" />
		<tag k="ssr:stedsnr" v="463900" />
		<tag k="water" v="lake" />
	</node>
	<node id="-458773" lat="60.5969722214" lon="6.7202916695">
		<tag k="fixme" v="consider natural=peak for the most distinct mountains in the district" />
		<tag k="name" v="Svarthammarlia" />
		<tag k="natural" v="hill" />
		<tag k="place" v="locality" />
		<tag k="ssr:stedsnr" v="463885" />
	</node>
	<node id="-458772" lat="60.6000944444" lon="6.67436110757">
		<tag k="name" v="Fyllsdalen" />
		<tag k="natural" v="valley" />
		<tag k="place" v="locality" />
		<tag k="ssr:stedsnr" v="463884" />
	</node>
	<node id="-458771" lat="60.5884833293" lon="6.66914721701">
		<tag k="name" v="Høybakken" />
		<tag k="natural" v="slope" />
		<tag k="place" v="locality" />
		<tag k="ssr:stedsnr" v="463880" />
	</node>
	<node id="-458770" lat="60.5815222212" lon="6.80193889304">
		<tag k="name" v="Steinmarkelia" />
		<tag k="natural" v="hill" />
		<tag k="place" v="locality" />
		<tag k="ssr:stedsnr" v="463869" />
	</node>
	<node id="-458769" lat="60.5604833331" lon="6.72792221973">
		<tag k="fixme" v="consider place=hamlet" />
		<tag k="name" v="Trå" />
		<tag k="place" v="farm" />
		<tag k="ssr:stedsnr" v="463859" />
	</node>
	<node id="-458768" lat="60.4857833371" lon="6.67117778478">
		<tag k="name" v="Salttunneskåra" />
		<tag k="natural" v="valley" />
		<tag k="place" v="locality" />
		<tag k="ssr:stedsnr" v="463850" />
	</node>
	<node id="-458767" lat="60.487991665" lon="6.67552222847">
		<tag k="name" v="Folkedal" />
		<tag k="natural" v="valley" />
		<tag k="place" v="locality" />
		<tag k="ssr:stedsnr" v="463848" />
	</node>
	<node id="-458766" lat="60.6163055586" lon="6.74470000815">
		<tag k="name" v="Tunga" />
		<tag k="place" v="locality" />
		<tag k="ssr:stedsnr" v="463840" />
	</node>
	<node id="-458765" lat="60.6122916635" lon="6.74611944172">
		<tag k="name" v="Ennelii" />
		<tag k="natural" v="slope" />
		<tag k="place" v="locality" />
		<tag k="ssr:stedsnr" v="463837" />
	</node>
	<node id="-458764" lat="60.5555694462" lon="6.79574721595">
		<tag k="name" v="Kjerringahaugen" />
		<tag k="natural" v="hill" />
		<tag k="place" v="locality" />
		<tag k="ssr:stedsnr" v="463833" />
	</node>
	<node id="-458763" lat="60.6033861107" lon="6.8061777863">
		<tag k="name" v="Moltesteinen" />
		<tag k="natural" v="stone" />
		<tag k="ssr:stedsnr" v="463824" />
	</node>
	<node id="-458762" lat="60.5700083294" lon="6.73078332848">
		<tag k="name" v="Nodlane" />
		<tag k="natural" v="hill" />
		<tag k="place" v="locality" />
		<tag k="ssr:stedsnr" v="463813" />
	</node>
	<node id="-458761" lat="60.4587750004" lon="6.5969972204">
		<tag k="name" v="Løflaten" />
		<tag k="natural" v="slope" />
		<tag k="place" v="locality" />
		<tag k="ssr:stedsnr" v="463795" />
	</node>
	<node id="-458760" lat="60.6135722235" lon="6.72174721635">
		<tag k="fixme" v="consider natural=peak for the most distinct mountains in the district" />
		<tag k="name" v="Lianuten" />
		<tag k="natural" v="hill" />
		<tag k="ssr:stedsnr" v="463790" />
	</node>
	<node id="-458759" lat="60.5095555538" lon="6.70299999832">
		<tag k="name" v="Nedre Koldehjellen" />
		<tag k="place" v="locality" />
		<tag k="ssr:stedsnr" v="463782" />
	</node>
	<node id="-458758" lat="60.5818388854" lon="6.6335472306">
		<tag k="historic" v="shieling" />
		<tag k="name" v="Solbjørgo" />
		<tag k="place" v="locality" />
		<tag k="ssr:stedsnr" v="463777" />
	</node>
	<node id="-458757" lat="60.6241638886" lon="6.65341389427">
		<tag k="name" v="Budeieskarvet" />
		<tag k="natural" v="hill" />
		<tag k="place" v="locality" />
		<tag k="ssr:stedsnr" v="463767" />
	</node>
	<node id="-458756" lat="60.5731972201" lon="6.7321805551">
		<tag k="name" v="Jonene" />
		<tag k="natural" v="slope" />
		<tag k="place" v="locality" />
		<tag k="ssr:stedsnr" v="446162" />
	</node>
	<node id="-458755" lat="60.5935027794" lon="6.81095554825">
		<tag k="historic" v="shieling" />
		<tag k="name" v="Espelandsstølen" />
		<tag k="place" v="locality" />
		<tag k="ssr:stedsnr" v="432918" />
	</node>
	<node id="-458754" lat="60.6245722204" lon="6.71514444023">
		<tag k="name" v="Skipadalen" />
		<tag k="natural" v="valley" />
		<tag k="place" v="locality" />
		<tag k="ssr:stedsnr" v="432900" />
	</node>
	<node id="-458753" lat="60.5831916692" lon="6.66569999579">
		<tag k="name" v="Storelvi" />
		<tag k="ssr:stedsnr" v="432885" />
		<tag k="waterway" v="river" />
	</node>
</osm>
