<?xml version="1.0" encoding="UTF-8"?>
<osm generator="osmapis" version="0.6">
	<node id="-459264" lat="60.5311555579" lon="6.70170556084">
		<tag k="name" v="Svortesvå" />
		<tag k="natural" v="hill" />
		<tag k="place" v="locality" />
		<tag k="ssr:stedsnr" v="99931" />
	</node>
	<node id="-459263" lat="60.5791361108" lon="6.65766666685">
		<tag k="name" v="Nova" />
		<tag k="natural" v="hill" />
		<tag k="place" v="locality" />
		<tag k="ssr:stedsnr" v="99918" />
	</node>
	<node id="-459261" lat="60.4746277798" lon="6.54469167039">
		<tag k="name" v="Molthaug" />
		<tag k="natural" v="hill" />
		<tag k="place" v="locality" />
		<tag k="ssr:stedsnr" v="99910" />
	</node>
	<node id="-459260" lat="60.5988305515" lon="6.70784721465">
		<tag k="name" v="Skeisetøyane" />
		<tag k="place" v="locality" />
		<tag k="ssr:stedsnr" v="99894" />
	</node>
	<node id="-459259" lat="60.5691333349" lon="6.64998888781">
		<tag k="fixme" v="consider natural=peak for the most distinct mountains in the district" />
		<tag k="name" v="Dosafjell" />
		<tag k="natural" v="hill" />
		<tag k="place" v="locality" />
		<tag k="ssr:stedsnr" v="99881" />
	</node>
	<node id="-459258" lat="60.4837666637" lon="6.64149722167">
		<tag k="name" v="Langaberg" />
		<tag k="natural" v="hill" />
		<tag k="place" v="locality" />
		<tag k="ssr:stedsnr" v="99868" />
	</node>
	<node id="-459256" lat="60.5539777795" lon="6.76541944201">
		<tag k="name" v="Djupedal" />
		<tag k="natural" v="valley" />
		<tag k="place" v="locality" />
		<tag k="ssr:stedsnr" v="99860" />
	</node>
	<node id="-459255" lat="60.5923166677" lon="6.79662222728">
		<tag k="name" v="Breiskar" />
		<tag k="natural" v="hill" />
		<tag k="place" v="locality" />
		<tag k="ssr:stedsnr" v="99853" />
	</node>
	<node id="-459254" lat="60.4813000041" lon="6.67269445064">
		<tag k="name" v="Nuteslåtta" />
		<tag k="place" v="locality" />
		<tag k="ssr:stedsnr" v="99847" />
	</node>
	<node id="-459253" lat="60.6073833313" lon="6.67010000211">
		<tag k="name" v="Fagerlihaugen" />
		<tag k="natural" v="hill" />
		<tag k="place" v="locality" />
		<tag k="ssr:stedsnr" v="99828" />
	</node>
	<node id="-459252" lat="60.6137222184" lon="6.68069722788">
		<tag k="name" v="Hengelii" />
		<tag k="natural" v="slope" />
		<tag k="place" v="locality" />
		<tag k="ssr:stedsnr" v="99826" />
	</node>
	<node id="-459251" lat="60.615033329" lon="6.70219443833">
		<tag k="name" v="Langhaug" />
		<tag k="natural" v="hill" />
		<tag k="place" v="locality" />
		<tag k="ssr:stedsnr" v="99823" />
	</node>
	<node id="-459250" lat="60.5731916634" lon="6.73793055819">
		<tag k="name" v="Lussiskår" />
		<tag k="natural" v="valley" />
		<tag k="place" v="locality" />
		<tag k="ssr:stedsnr" v="99809" />
	</node>
	<node id="-459249" lat="60.5763833337" lon="6.62402778356">
		<tag k="name" v="Kamben" />
		<tag k="natural" v="ridge" />
		<tag k="place" v="locality" />
		<tag k="ssr:stedsnr" v="99802" />
	</node>
	<node id="-459245" lat="60.5206777794" lon="6.69717222749">
		<tag k="name" v="Kattedalen" />
		<tag k="natural" v="valley" />
		<tag k="place" v="locality" />
		<tag k="ssr:stedsnr" v="68039" />
	</node>
	<node id="-459244" lat="60.5128611156" lon="6.66630000809">
		<tag k="fixme" v="consider natural=peak for the most distinct mountains in the district" />
		<tag k="name" v="Steinsethorgi" />
		<tag k="natural" v="hill" />
		<tag k="place" v="locality" />
		<tag k="ssr:stedsnr" v="68038" />
	</node>
	<node id="-459243" lat="60.5063083313" lon="6.6322555536">
		<tag k="name" v="Gili" />
		<tag k="natural" v="gorge" />
		<tag k="ssr:stedsnr" v="68025" />
	</node>
	<node id="-459239" lat="60.5784888919" lon="6.65315000044">
		<tag k="name" v="Nos" />
		<tag k="natural" v="hill" />
		<tag k="place" v="locality" />
		<tag k="ssr:stedsnr" v="67852" />
	</node>
	<node id="-459237" lat="60.5469388879" lon="6.67190556038">
		<tag k="fixme" v="consider natural=peak for the most distinct mountains in the district" />
		<tag k="name" v="Horganipen" />
		<tag k="natural" v="hill" />
		<tag k="ssr:stedsnr" v="67761" />
	</node>
	<node id="-459075" lat="60.5735374198" lon="6.70460131183">
		<tag k="name" v="Tjuvanotten" />
		<tag k="natural" v="hill" />
		<tag k="place" v="locality" />
		<tag k="ssr:stedsnr" v="310819" />
	</node>
	<node id="-459742" lat="60.5023444469" lon="6.65594999208">
		<tag k="name" v="Storhaug" />
		<tag k="natural" v="hill" />
		<tag k="place" v="locality" />
		<tag k="ssr:stedsnr" v="950708" />
	</node>
	<node id="-459092" lat="60.6223777782" lon="6.65808054769">
		<tag k="name" v="Stutahaugen" />
		<tag k="natural" v="hill" />
		<tag k="place" v="locality" />
		<tag k="ssr:stedsnr" v="342756" />
	</node>
	<node id="-459740" lat="60.4666250027" lon="6.65521110971">
		<tag k="name" v="Liasete" />
		<tag k="place" v="locality" />
		<tag k="ssr:stedsnr" v="949794" />
	</node>
	<node id="-459739" lat="60.565574996" lon="6.73054721982">
		<tag k="name" v="Hovden" />
		<tag k="natural" v="hill" />
		<tag k="place" v="locality" />
		<tag k="ssr:stedsnr" v="949791" />
	</node>
	<node id="-459737" lat="60.4989055523" lon="6.69512221792">
		<tag k="name" v="Fossdalskamben" />
		<tag k="natural" v="ridge" />
		<tag k="place" v="locality" />
		<tag k="ssr:stedsnr" v="949767" />
	</node>
	<node id="-459224" lat="60.5509388879" lon="6.62445555502">
		<tag k="name" v="Moldbakkane" />
		<tag k="natural" v="slope" />
		<tag k="place" v="locality" />
		<tag k="ssr:stedsnr" v="38939" />
	</node>
	<node id="-459735" lat="60.6244750041" lon="6.7417027748">
		<tag k="name" v="Fessena" />
		<tag k="natural" v="valley" />
		<tag k="place" v="locality" />
		<tag k="ssr:stedsnr" v="949752" />
	</node>
	<node id="-459734" lat="60.5719833332" lon="6.7403055605">
		<tag k="name" v="Håstegane" />
		<tag k="place" v="locality" />
		<tag k="ssr:stedsnr" v="949748" />
	</node>
	<node id="-459733" lat="60.4978166675" lon="6.69462777115">
		<tag k="name" v="Fossdalskamben" />
		<tag k="natural" v="ridge" />
		<tag k="place" v="locality" />
		<tag k="ssr:stedsnr" v="949734" />
	</node>
	<node id="-459732" lat="60.4934861103" lon="6.69426944831">
		<tag k="name" v="Kamben" />
		<tag k="natural" v="ridge" />
		<tag k="place" v="locality" />
		<tag k="ssr:stedsnr" v="949733" />
	</node>
	<node id="-459219" lat="60.5905638853" lon="6.67457499821">
		<tag k="name" v="Drevdalen" />
		<tag k="natural" v="valley" />
		<tag k="place" v="locality" />
		<tag k="ssr:stedsnr" v="38903" />
	</node>
	<node id="-459730" lat="60.5276164096" lon="6.75375149908">
		<tag k="alt_name" v="Seljeskår" />
		<tag k="name" v="Seljeskor" />
		<tag k="place" v="locality" />
		<tag k="ssr:stedsnr" v="948949" />
	</node>
	<node id="-459217" lat="60.573733335" lon="6.69719999518">
		<tag k="name" v="Hansanotten" />
		<tag k="natural" v="hill" />
		<tag k="place" v="locality" />
		<tag k="ssr:stedsnr" v="38891" />
	</node>
	<node id="-459728" lat="60.5820805536" lon="6.65119444214">
		<tag k="name" v="Mehaugen" />
		<tag k="natural" v="hill" />
		<tag k="place" v="locality" />
		<tag k="ssr:stedsnr" v="948933" />
	</node>
	<node id="-459727" lat="60.4765333339" lon="6.54971111982">
		<tag k="name" v="Storhaug" />
		<tag k="natural" v="hill" />
		<tag k="place" v="locality" />
		<tag k="ssr:stedsnr" v="948925" />
	</node>
	<node id="-459726" lat="60.5889277755" lon="6.66500556131">
		<tag k="name" v="Kvithedler" />
		<tag k="place" v="locality" />
		<tag k="ssr:stedsnr" v="948914" />
	</node>
	<node id="-459725" lat="60.4809444462" lon="6.6627805552">
		<tag k="name" v="Rinden" />
		<tag k="place" v="locality" />
		<tag k="ssr:stedsnr" v="948891" />
	</node>
	<node id="-459724" lat="60.4869694459" lon="6.64439722998">
		<tag k="name" v="Ormhaug" />
		<tag k="natural" v="hill" />
		<tag k="place" v="locality" />
		<tag k="ssr:stedsnr" v="948890" />
	</node>
	<node id="-459211" lat="60.6068583355" lon="6.70160277343">
		<tag k="name" v="Nollen" />
		<tag k="natural" v="ridge" />
		<tag k="place" v="locality" />
		<tag k="ssr:stedsnr" v="38806" />
	</node>
	<node id="-459209" lat="60.6141583352" lon="6.81885278539">
		<tag k="name" v="Nordrebotnen" />
		<tag k="natural" v="valley" />
		<tag k="place" v="locality" />
		<tag k="ssr:stedsnr" v="21171" />
	</node>
	<node id="-459720" lat="60.6246611118" lon="6.73297500707">
		<tag k="name" v="Våareggi" />
		<tag k="natural" v="ridge" />
		<tag k="place" v="locality" />
		<tag k="ssr:stedsnr" v="917893" />
	</node>
	<node id="-459718" lat="60.5848750021" lon="6.80038055433">
		<tag k="name" v="Espehovden" />
		<tag k="natural" v="hill" />
		<tag k="place" v="locality" />
		<tag k="ssr:stedsnr" v="917836" />
	</node>
	<node id="-459201" lat="60.5508972219" lon="6.82038055342">
		<tag k="name" v="Øvre Skjelmarhaugen" />
		<tag k="natural" v="hill" />
		<tag k="place" v="locality" />
		<tag k="ssr:stedsnr" v="7796" />
	</node>
	<node id="-459199" lat="60.5385611135" lon="6.73125833804">
		<tag k="name" v="Hauseberget" />
		<tag k="natural" v="hill" />
		<tag k="place" v="locality" />
		<tag k="ssr:stedsnr" v="7786" />
	</node>
	<node id="-459198" lat="60.5404777792" lon="6.79798333662">
		<tag k="name" v="Storlii" />
		<tag k="natural" v="slope" />
		<tag k="place" v="locality" />
		<tag k="ssr:stedsnr" v="7783" />
	</node>
	<node id="-459708" lat="60.6071611115" lon="6.65340833134">
		<tag k="name" v="Øvrelii" />
		<tag k="natural" v="slope" />
		<tag k="place" v="locality" />
		<tag k="ssr:stedsnr" v="916893" />
	</node>
	<node id="-459706" lat="60.6028749982" lon="6.65821112016">
		<tag k="name" v="Mosdal" />
		<tag k="natural" v="valley" />
		<tag k="place" v="locality" />
		<tag k="ssr:stedsnr" v="916886" />
	</node>
	<node id="-459191" lat="60.5874777746" lon="6.75417500698">
		<tag k="name" v="Storhaug" />
		<tag k="natural" v="hill" />
		<tag k="place" v="locality" />
		<tag k="ssr:stedsnr" v="6933" />
	</node>
	<node id="-459702" lat="60.5670277747" lon="6.73460555272">
		<tag k="name" v="Fletene" />
		<tag k="natural" v="slope" />
		<tag k="place" v="locality" />
		<tag k="ssr:stedsnr" v="870267" />
	</node>
	<node id="-459701" lat="60.5376638901" lon="6.75563611302">
		<tag k="name" v="Heiane" />
		<tag k="natural" v="hill" />
		<tag k="place" v="locality" />
		<tag k="ssr:stedsnr" v="870246" />
	</node>
	<node id="-459186" lat="60.5040722217" lon="6.74840276954">
		<tag k="fixme" v="consider natural=peak for the most distinct mountains in the district" />
		<tag k="name" v="Nonfjell" />
		<tag k="natural" v="hill" />
		<tag k="place" v="locality" />
		<tag k="ssr:stedsnr" v="6033" />
	</node>
	<node id="-459694" lat="60.5755119959" lon="6.62619958">
		<tag k="name" v="Nonhaug" />
		<tag k="natural" v="hill" />
		<tag k="place" v="locality" />
		<tag k="ssr:stedsnr" v="856846" />
	</node>
	<node id="-459693" lat="60.5532083312" lon="6.81209166452">
		<tag k="name" v="Bekkjadalen" />
		<tag k="natural" v="valley" />
		<tag k="place" v="locality" />
		<tag k="ssr:stedsnr" v="856787" />
	</node>
	<node id="-459692" lat="60.5471250024" lon="6.67946111892">
		<tag k="name" v="Langhamrane" />
		<tag k="natural" v="slope" />
		<tag k="place" v="locality" />
		<tag k="ssr:stedsnr" v="856772" />
	</node>
	<node id="-459689" lat="60.5839305573" lon="6.64282500246">
		<tag k="name" v="Skjervet" />
		<tag k="natural" v="hill" />
		<tag k="place" v="locality" />
		<tag k="ssr:stedsnr" v="855938" />
	</node>
	<node id="-459688" lat="60.5863138911" lon="6.71070278519">
		<tag k="name" v="Daurmålshaugen" />
		<tag k="natural" v="hill" />
		<tag k="place" v="locality" />
		<tag k="ssr:stedsnr" v="855911" />
	</node>
	<node id="-459164" lat="60.5376861094" lon="6.73154444388">
		<tag k="name" v="Gjerike" />
		<tag k="place" v="locality" />
		<tag k="ssr:stedsnr" v="888876" />
	</node>
	<node id="-459685" lat="60.4615083378" lon="6.56683055884">
		<tag k="fixme" v="consider natural=peak for the most distinct mountains in the district" />
		<tag k="name" v="Bjørgi" />
		<tag k="natural" v="hill" />
		<tag k="place" v="locality" />
		<tag k="ssr:stedsnr" v="855186" />
	</node>
	<node id="-459078" lat="60.5647555561" lon="6.758855555">
		<tag k="name" v="Svedalskårane" />
		<tag k="natural" v="hill" />
		<tag k="place" v="locality" />
		<tag k="ssr:stedsnr" v="341886" />
	</node>
	<node id="-459681" lat="60.553213889" lon="6.76744443663">
		<tag k="name" v="Båre" />
		<tag k="natural" v="ridge" />
		<tag k="place" v="locality" />
		<tag k="ssr:stedsnr" v="828770" />
	</node>
	<node id="-459680" lat="60.6117777762" lon="6.70138333827">
		<tag k="name" v="Storlii" />
		<tag k="natural" v="slope" />
		<tag k="place" v="locality" />
		<tag k="ssr:stedsnr" v="828755" />
	</node>
	<node id="-459166" lat="60.4569999958" lon="6.58056943662">
		<tag k="name" v="Nestehagen" />
		<tag k="place" v="locality" />
		<tag k="ssr:stedsnr" v="888893" />
	</node>
	<node id="-459677" lat="60.6096277768" lon="6.73165555923">
		<tag k="name" v="Øykafloten" />
		<tag k="natural" v="slope" />
		<tag k="place" v="locality" />
		<tag k="ssr:stedsnr" v="828725" />
	</node>
	<node id="-459676" lat="60.6180083291" lon="6.69505832461">
		<tag k="fixme" v="consider natural=peak for the most distinct mountains in the district" />
		<tag k="name" v="Såta" />
		<tag k="natural" v="hill" />
		<tag k="place" v="locality" />
		<tag k="ssr:stedsnr" v="828722" />
	</node>
	<node id="-459163" lat="60.5344999963" lon="6.7549722311">
		<tag k="name" v="Småg" />
		<tag k="place" v="locality" />
		<tag k="ssr:stedsnr" v="888867" />
	</node>
	<node id="-459162" lat="60.5983583343" lon="6.69886666307">
		<tag k="name" v="Øyktaberg" />
		<tag k="natural" v="hill" />
		<tag k="place" v="locality" />
		<tag k="ssr:stedsnr" v="888865" />
	</node>
	<node id="-459161" lat="60.5753361085" lon="6.75707777186">
		<tag k="name" v="Ådnahovden" />
		<tag k="place" v="locality" />
		<tag k="ssr:stedsnr" v="888854" />
	</node>
	<node id="-459672" lat="60.4707472206" lon="6.65062499745">
		<tag k="name" v="Svartaberg" />
		<tag k="natural" v="hill" />
		<tag k="place" v="locality" />
		<tag k="ssr:stedsnr" v="827932" />
	</node>
	<node id="-459159" lat="60.4880777773" lon="6.67261945234">
		<tag k="name" v="Stegaberg" />
		<tag k="natural" v="hill" />
		<tag k="place" v="locality" />
		<tag k="ssr:stedsnr" v="888831" />
	</node>
	<node id="-459158" lat="60.6063027781" lon="6.72029721453">
		<tag k="name" v="Oddahaugen" />
		<tag k="natural" v="hill" />
		<tag k="place" v="locality" />
		<tag k="ssr:stedsnr" v="888819" />
	</node>
	<node id="-459155" lat="60.5781194483" lon="6.65098889415">
		<tag k="name" v="Storenos" />
		<tag k="natural" v="hill" />
		<tag k="place" v="locality" />
		<tag k="ssr:stedsnr" v="888797" />
	</node>
	<node id="-459154" lat="60.6055111074" lon="6.67062777302">
		<tag k="name" v="Fogerlihaugen" />
		<tag k="natural" v="hill" />
		<tag k="place" v="locality" />
		<tag k="ssr:stedsnr" v="888787" />
	</node>
	<node id="-459153" lat="60.6273333302" lon="6.66887221456">
		<tag k="name" v="Botnane" />
		<tag k="natural" v="valley" />
		<tag k="place" v="locality" />
		<tag k="ssr:stedsnr" v="888777" />
	</node>
	<node id="-459664" lat="60.5391750016" lon="6.74634444264">
		<tag k="fixme" v="consider natural=peak for the most distinct mountains in the district" />
		<tag k="name" v="Hauseåsen" />
		<tag k="natural" v="hill" />
		<tag k="place" v="locality" />
		<tag k="ssr:stedsnr" v="796806" />
	</node>
	<node id="-459151" lat="60.4930656216" lon="6.64935575289">
		<tag k="name" v="Storenotten" />
		<tag k="natural" v="ridge" />
		<tag k="place" v="locality" />
		<tag k="ssr:stedsnr" v="888750" />
	</node>
	<node id="-459150" lat="60.6148194474" lon="6.68882778043">
		<tag k="name" v="Skansen" />
		<tag k="natural" v="hill" />
		<tag k="place" v="locality" />
		<tag k="ssr:stedsnr" v="888747" />
	</node>
	<node id="-459149" lat="60.5817833291" lon="6.76480278698">
		<tag k="name" v="Bjørneskårane" />
		<tag k="natural" v="valley" />
		<tag k="place" v="locality" />
		<tag k="ssr:stedsnr" v="888112" />
	</node>
	<node id="-459074" lat="60.5698388876" lon="6.64804444567">
		<tag k="name" v="Gili" />
		<tag k="natural" v="gorge" />
		<tag k="ssr:stedsnr" v="310811" />
	</node>
	<node id="-459657" lat="60.4984833377" lon="6.65193055057">
		<tag k="name" v="Hestahaugane" />
		<tag k="natural" v="hill" />
		<tag k="place" v="locality" />
		<tag k="ssr:stedsnr" v="796025" />
	</node>
	<node id="-459140" lat="60.611686113" lon="6.71704166204">
		<tag k="name" v="Håsetelii" />
		<tag k="natural" v="slope" />
		<tag k="place" v="locality" />
		<tag k="ssr:stedsnr" v="403772" />
	</node>
	<node id="-459139" lat="60.6152027812" lon="6.71351388243">
		<tag k="fixme" v="consider natural=peak for the most distinct mountains in the district" />
		<tag k="name" v="Helganuten" />
		<tag k="natural" v="hill" />
		<tag k="ssr:stedsnr" v="403765" />
	</node>
	<node id="-459138" lat="60.4927972196" lon="6.65446111864">
		<tag k="name" v="Ingerslåtten" />
		<tag k="natural" v="slope" />
		<tag k="place" v="locality" />
		<tag k="ssr:stedsnr" v="403754" />
	</node>
	<node id="-459648" lat="60.4756249999" lon="6.56497499682">
		<tag k="name" v="Vassendhaugen" />
		<tag k="natural" v="hill" />
		<tag k="place" v="locality" />
		<tag k="ssr:stedsnr" v="794203" />
	</node>
	<node id="-459135" lat="60.5329972196" lon="6.72609444796">
		<tag k="name" v="Høyberget" />
		<tag k="natural" v="hill" />
		<tag k="place" v="locality" />
		<tag k="ssr:stedsnr" v="402954" />
	</node>
	<node id="-459134" lat="60.5298444465" lon="6.71003056331">
		<tag k="fixme" v="consider natural=peak for the most distinct mountains in the district" />
		<tag k="name" v="Neståsåsen" />
		<tag k="natural" v="hill" />
		<tag k="place" v="locality" />
		<tag k="ssr:stedsnr" v="402949" />
	</node>
	<node id="-459133" lat="60.6219444413" lon="6.70181389253">
		<tag k="name" v="Klevi" />
		<tag k="natural" v="gorge" />
		<tag k="ssr:stedsnr" v="402944" />
	</node>
	<node id="-459132" lat="60.5719999972" lon="6.67675832466">
		<tag k="name" v="Tunsberg" />
		<tag k="natural" v="hill" />
		<tag k="place" v="locality" />
		<tag k="ssr:stedsnr" v="402923" />
	</node>
	<node id="-459642" lat="60.4539333323" lon="6.49350000154">
		<tag k="name" v="Rjuen" />
		<tag k="place" v="locality" />
		<tag k="ssr:stedsnr" v="767846" />
	</node>
	<node id="-459641" lat="60.4545805528" lon="6.49601666061">
		<tag k="name" v="Uragjelet" />
		<tag k="natural" v="gorge" />
		<tag k="ssr:stedsnr" v="767843" />
	</node>
	<node id="-459639" lat="60.5491916659" lon="6.78526943602">
		<tag k="name" v="Prestajuklane" />
		<tag k="place" v="locality" />
		<tag k="ssr:stedsnr" v="767831" />
	</node>
	<node id="-459638" lat="60.5511014767" lon="6.79285890322">
		<tag k="name" v="Høyheldrane" />
		<tag k="place" v="locality" />
		<tag k="ssr:stedsnr" v="767829" />
	</node>
	<node id="-459637" lat="60.4837194459" lon="6.6783916743">
		<tag k="name" v="Øvsteskår" />
		<tag k="natural" v="valley" />
		<tag k="place" v="locality" />
		<tag k="ssr:stedsnr" v="767810" />
	</node>
	<node id="-459636" lat="60.5796249966" lon="6.666227771">
		<tag k="name" v="Gråberg" />
		<tag k="natural" v="hill" />
		<tag k="place" v="locality" />
		<tag k="ssr:stedsnr" v="767803" />
	</node>
	<node id="-459635" lat="60.5697083331" lon="6.76579999531">
		<tag k="name" v="Våtekleivsteigen" />
		<tag k="natural" v="slope" />
		<tag k="place" v="locality" />
		<tag k="ssr:stedsnr" v="767797" />
	</node>
	<node id="-459634" lat="60.6258805559" lon="6.65064999644">
		<tag k="name" v="Hovden" />
		<tag k="natural" v="hill" />
		<tag k="place" v="locality" />
		<tag k="ssr:stedsnr" v="767791" />
	</node>
	<node id="-459633" lat="60.6195722243" lon="6.70247777263">
		<tag k="name" v="Vetledalen" />
		<tag k="natural" v="valley" />
		<tag k="place" v="locality" />
		<tag k="ssr:stedsnr" v="767784" />
	</node>
	<node id="-459632" lat="60.6117694457" lon="6.69602222736">
		<tag k="name" v="Nedsteskar" />
		<tag k="natural" v="valley" />
		<tag k="place" v="locality" />
		<tag k="ssr:stedsnr" v="767760" />
	</node>
	<node id="-459118" lat="60.5661666661" lon="6.65046944658">
		<tag k="name" v="Rundehaugen" />
		<tag k="natural" v="hill" />
		<tag k="place" v="locality" />
		<tag k="ssr:stedsnr" v="371813" />
	</node>
	<node id="-459628" lat="60.4671583316" lon="6.54266666731">
		<tag k="name" v="Tjødnarhaug" />
		<tag k="natural" v="hill" />
		<tag k="place" v="locality" />
		<tag k="ssr:stedsnr" v="766900" />
	</node>
	<node id="-459627" lat="60.4562250019" lon="6.57919444782">
		<tag k="name" v="Geilaberg" />
		<tag k="natural" v="hill" />
		<tag k="place" v="locality" />
		<tag k="ssr:stedsnr" v="766898" />
	</node>
	<node id="-459626" lat="60.4895777823" lon="6.59141389223">
		<tag k="name" v="Haugane" />
		<tag k="natural" v="hill" />
		<tag k="place" v="locality" />
		<tag k="ssr:stedsnr" v="766895" />
	</node>
	<node id="-459625" lat="60.5641307671" lon="6.78688116741">
		<tag k="name" v="Inste Lyngershaug" />
		<tag k="natural" v="hill" />
		<tag k="place" v="locality" />
		<tag k="ssr:stedsnr" v="766872" />
	</node>
	<node id="-459624" lat="60.573008334" lon="6.80086944788">
		<tag k="name" v="Grånodlane" />
		<tag k="natural" v="hill" />
		<tag k="place" v="locality" />
		<tag k="ssr:stedsnr" v="766870" />
	</node>
	<node id="-459111" lat="60.5166305523" lon="6.68031388071">
		<tag k="name" v="Vasagili" />
		<tag k="natural" v="gorge" />
		<tag k="ssr:stedsnr" v="371031" />
	</node>
	<node id="-459110" lat="60.603608329" lon="6.7723833344">
		<tag k="fixme" v="consider natural=peak for the most distinct mountains in the district" />
		<tag k="name" v="Stavaskarsnuten" />
		<tag k="natural" v="hill" />
		<tag k="ssr:stedsnr" v="370937" />
	</node>
	<node id="-459619" lat="60.5600750004" lon="6.79799999762">
		<tag k="fixme" v="consider natural=peak for the most distinct mountains in the district" />
		<tag k="name" v="Velkjesfjellet" />
		<tag k="natural" v="hill" />
		<tag k="place" v="locality" />
		<tag k="ssr:stedsnr" v="735852" />
	</node>
	<node id="-459618" lat="60.5762555512" lon="6.69343332622">
		<tag k="name" v="Bjørnskor" />
		<tag k="natural" v="valley" />
		<tag k="place" v="locality" />
		<tag k="ssr:stedsnr" v="735833" />
	</node>
	<node id="-459104" lat="60.6147803244" lon="6.80240203716">
		<tag k="name" v="Vestrebotnen" />
		<tag k="natural" v="valley" />
		<tag k="place" v="locality" />
		<tag k="ssr:stedsnr" v="370889" />
	</node>
	<node id="-459152" lat="60.5569499957" lon="6.6611388865">
		<tag k="name" v="Middagsskar" />
		<tag k="natural" v="valley" />
		<tag k="place" v="locality" />
		<tag k="ssr:stedsnr" v="888764" />
	</node>
	<node id="-459614" lat="60.5740333322" lon="6.72874999593">
		<tag k="name" v="Jobrunene" />
		<tag k="natural" v="hill" />
		<tag k="place" v="locality" />
		<tag k="ssr:stedsnr" v="735809" />
	</node>
	<node id="-459613" lat="60.5334277751" lon="6.62425833592">
		<tag k="name" v="Tjørnabotnen" />
		<tag k="natural" v="valley" />
		<tag k="place" v="locality" />
		<tag k="ssr:stedsnr" v="735793" />
	</node>
	<node id="-459611" lat="60.5578027795" lon="6.78164722356">
		<tag k="name" v="Vardhellerane" />
		<tag k="place" v="locality" />
		<tag k="ssr:stedsnr" v="735768" />
	</node>
	<node id="-459609" lat="60.5487250003" lon="6.76796666943">
		<tag k="name" v="Hovdane" />
		<tag k="natural" v="hill" />
		<tag k="place" v="locality" />
		<tag k="ssr:stedsnr" v="735745" />
	</node>
	<node id="-459094" lat="60.6009611104" lon="6.80501944658">
		<tag k="fixme" v="consider natural=peak for the most distinct mountains in the district" />
		<tag k="name" v="Moltefjellet" />
		<tag k="natural" v="hill" />
		<tag k="place" v="locality" />
		<tag k="ssr:stedsnr" v="342790" />
	</node>
	<node id="-459605" lat="60.5195694438" lon="6.6687499965">
		<tag k="fixme" v="consider natural=peak for the most distinct mountains in the district" />
		<tag k="name" v="Smøreggi" />
		<tag k="natural" v="hill" />
		<tag k="ssr:stedsnr" v="735040" />
	</node>
	<node id="-459604" lat="60.5948694467" lon="6.75537499996">
		<tag k="name" v="Strutseggi" />
		<tag k="natural" v="ridge" />
		<tag k="place" v="locality" />
		<tag k="ssr:stedsnr" v="734926" />
	</node>
	<node id="-459089" lat="60.588130554" lon="6.75821111449">
		<tag k="name" v="Geitsheldrane" />
		<tag k="place" v="locality" />
		<tag k="ssr:stedsnr" v="342132" />
	</node>
	<node id="-459088" lat="60.5188416638" lon="6.6243222239">
		<tag k="name" v="Hovslaget" />
		<tag k="place" v="locality" />
		<tag k="ssr:stedsnr" v="342131" />
	</node>
	<node id="-459597" lat="60.4681277797" lon="6.5755583304">
		<tag k="alt_name" v="Gruvefjell" />
		<tag k="fixme" v="consider natural=peak for the most distinct mountains in the district" />
		<tag k="name" v="Gråfjellet" />
		<tag k="natural" v="hill" />
		<tag k="place" v="locality" />
		<tag k="ssr:stedsnr" v="733200" />
	</node>
	<node id="-459082" lat="60.5199027743" lon="6.73317221643">
		<tag k="name" v="Middagsgjela" />
		<tag k="natural" v="gorge" />
		<tag k="ssr:stedsnr" v="341902" />
	</node>
	<node id="-459081" lat="60.5374527794" lon="6.72805556369">
		<tag k="name" v="Gullhamaren" />
		<tag k="natural" v="hill" />
		<tag k="place" v="locality" />
		<tag k="ssr:stedsnr" v="341901" />
	</node>
	<node id="-459592" lat="60.5230527781" lon="6.60690277091">
		<tag k="name" v="Styggedalen" />
		<tag k="natural" v="valley" />
		<tag k="place" v="locality" />
		<tag k="ssr:stedsnr" v="706835" />
	</node>
	<node id="-459591" lat="60.6181138852" lon="6.71111666501">
		<tag k="name" v="Smalaskar" />
		<tag k="natural" v="hill" />
		<tag k="place" v="locality" />
		<tag k="ssr:stedsnr" v="706830" />
	</node>
	<node id="-459590" lat="60.6104111103" lon="6.71138611681">
		<tag k="name" v="Sutarebrekka" />
		<tag k="natural" v="slope" />
		<tag k="place" v="locality" />
		<tag k="ssr:stedsnr" v="706828" />
	</node>
	<node id="-459589" lat="60.4724222185" lon="6.59786945101">
		<tag k="name" v="Preikestol" />
		<tag k="place" v="locality" />
		<tag k="ssr:stedsnr" v="706777" />
	</node>
	<node id="-459076" lat="60.6308333295" lon="6.69522500404">
		<tag k="name" v="Hjalladalen" />
		<tag k="natural" v="valley" />
		<tag k="place" v="locality" />
		<tag k="ssr:stedsnr" v="310888" />
	</node>
	<node id="-459587" lat="60.6062083332" lon="6.71166666608">
		<tag k="name" v="Lauvmyrebråtet" />
		<tag k="natural" v="slope" />
		<tag k="place" v="locality" />
		<tag k="ssr:stedsnr" v="706767" />
	</node>
	<node id="-459586" lat="60.5568084196" lon="6.67666267847">
		<tag k="name" v="Bukkaskorane" />
		<tag k="place" v="locality" />
		<tag k="ssr:stedsnr" v="706766" />
	</node>
	<node id="-459073" lat="60.5711500043" lon="6.66317500828">
		<tag k="name" v="Liaberget" />
		<tag k="natural" v="hill" />
		<tag k="place" v="locality" />
		<tag k="ssr:stedsnr" v="310808" />
	</node>
	<node id="-459583" lat="60.608355559" lon="6.6397194506">
		<tag k="name" v="Dalsetøyane" />
		<tag k="place" v="locality" />
		<tag k="ssr:stedsnr" v="706750" />
	</node>
	<node id="-459582" lat="60.6131166693" lon="6.73105000619">
		<tag k="fixme" v="consider natural=peak for the most distinct mountains in the district" />
		<tag k="name" v="Bjørnstigen" />
		<tag k="natural" v="hill" />
		<tag k="place" v="locality" />
		<tag k="ssr:stedsnr" v="706745" />
	</node>
	<node id="-459581" lat="60.5333972185" lon="6.68188055842">
		<tag k="name" v="Skrånane" />
		<tag k="natural" v="slope" />
		<tag k="place" v="locality" />
		<tag k="ssr:stedsnr" v="705928" />
	</node>
	<node id="-459068" lat="60.5200888856" lon="6.73320556334">
		<tag k="name" v="Kleppe" />
		<tag k="natural" v="hill" />
		<tag k="place" v="locality" />
		<tag k="ssr:stedsnr" v="310042" />
	</node>
	<node id="-459067" lat="60.5187972268" lon="6.68866945263">
		<tag k="name" v="Storagili" />
		<tag k="natural" v="gorge" />
		<tag k="ssr:stedsnr" v="310036" />
	</node>
	<node id="-459066" lat="60.5209669881" lon="6.76524757249">
		<tag k="name" v="Svehaug" />
		<tag k="natural" v="hill" />
		<tag k="place" v="locality" />
		<tag k="ssr:stedsnr" v="310030" />
	</node>
	<node id="-459065" lat="60.601666668" lon="6.79281110352">
		<tag k="fixme" v="consider natural=peak for the most distinct mountains in the district" />
		<tag k="name" v="Nutefjellet" />
		<tag k="natural" v="hill" />
		<tag k="place" v="locality" />
		<tag k="ssr:stedsnr" v="309927" />
	</node>
	<node id="-459576" lat="60.5144388888" lon="6.72186110783">
		<tag k="name" v="Middagsgjela" />
		<tag k="natural" v="gorge" />
		<tag k="ssr:stedsnr" v="705896" />
	</node>
	<node id="-459575" lat="60.5080722264" lon="6.70807778123">
		<tag k="name" v="Koldegjela" />
		<tag k="natural" v="gorge" />
		<tag k="ssr:stedsnr" v="705895" />
	</node>
	<node id="-459574" lat="60.5231277801" lon="6.76612221584">
		<tag k="name" v="Stakkstøo" />
		<tag k="place" v="locality" />
		<tag k="ssr:stedsnr" v="705884" />
	</node>
	<node id="-459061" lat="60.4716444411" lon="6.66884444571">
		<tag k="name" v="Nuten" />
		<tag k="natural" v="ridge" />
		<tag k="place" v="locality" />
		<tag k="ssr:stedsnr" v="308385" />
	</node>
	<node id="-459060" lat="60.4839277799" lon="6.71202499435">
		<tag k="name" v="Fremstdalen" />
		<tag k="natural" v="valley" />
		<tag k="place" v="locality" />
		<tag k="ssr:stedsnr" v="308382" />
	</node>
	<node id="-459570" lat="60.6068333297" lon="6.81021389177">
		<tag k="name" v="Kvannabrekkene" />
		<tag k="natural" v="slope" />
		<tag k="place" v="locality" />
		<tag k="ssr:stedsnr" v="689148" />
	</node>
	<node id="-459568" lat="60.5623194407" lon="6.65601944874">
		<tag k="name" v="Vatnadalane" />
		<tag k="natural" v="valley" />
		<tag k="place" v="locality" />
		<tag k="ssr:stedsnr" v="674856" />
	</node>
	<node id="-459055" lat="60.4847472239" lon="6.63007500175">
		<tag k="name" v="Geitaskarberg" />
		<tag k="natural" v="hill" />
		<tag k="place" v="locality" />
		<tag k="ssr:stedsnr" v="281923" />
	</node>
	<node id="-459565" lat="60.5716972247" lon="6.72656111103">
		<tag k="name" v="Trollgytta" />
		<tag k="place" v="locality" />
		<tag k="ssr:stedsnr" v="674808" />
	</node>
	<node id="-459564" lat="60.5731694469" lon="6.66005555283">
		<tag k="name" v="Nautaskor" />
		<tag k="natural" v="valley" />
		<tag k="place" v="locality" />
		<tag k="ssr:stedsnr" v="674804" />
	</node>
	<node id="-459058" lat="60.4645333323" lon="6.55765556363">
		<tag k="name" v="Bjørnhovden" />
		<tag k="natural" v="hill" />
		<tag k="place" v="locality" />
		<tag k="ssr:stedsnr" v="308170" />
	</node>
	<node id="-459050" lat="60.5653972229" lon="6.73730833506">
		<tag k="name" v="Leina" />
		<tag k="place" v="locality" />
		<tag k="ssr:stedsnr" v="281884" />
	</node>
	<node id="-459049" lat="60.5906055562" lon="6.68915000117">
		<tag k="name" v="Furuhaugen" />
		<tag k="natural" v="hill" />
		<tag k="place" v="locality" />
		<tag k="ssr:stedsnr" v="281882" />
	</node>
	<node id="-459048" lat="60.5482861148" lon="6.69997777726">
		<tag k="name" v="Nesheimslia" />
		<tag k="natural" v="slope" />
		<tag k="place" v="locality" />
		<tag k="ssr:stedsnr" v="281881" />
	</node>
	<node id="-459046" lat="60.5284972233" lon="6.68710556075">
		<tag k="name" v="Elestveithaugen" />
		<tag k="natural" v="hill" />
		<tag k="place" v="locality" />
		<tag k="ssr:stedsnr" v="281860" />
	</node>
	<node id="-459557" lat="60.5876416684" lon="6.73197778527">
		<tag k="fixme" v="consider natural=peak for the most distinct mountains in the district" />
		<tag k="name" v="Reinsgrønut" />
		<tag k="natural" v="hill" />
		<tag k="ssr:stedsnr" v="673930" />
	</node>
	<node id="-459556" lat="60.5971138906" lon="6.66084166201">
		<tag k="name" v="Memorgehaug" />
		<tag k="natural" v="hill" />
		<tag k="place" v="locality" />
		<tag k="ssr:stedsnr" v="673889" />
	</node>
	<node id="-459555" lat="60.4759249988" lon="6.68564167349">
		<tag k="fixme" v="consider natural=peak for the most distinct mountains in the district" />
		<tag k="name" v="Seljenuten" />
		<tag k="natural" v="hill" />
		<tag k="ssr:stedsnr" v="673445" />
	</node>
	<node id="-459042" lat="60.5031916658" lon="6.71850554763">
		<tag k="fixme" v="consider natural=peak for the most distinct mountains in the district" />
		<tag k="name" v="Veslahorga" />
		<tag k="natural" v="hill" />
		<tag k="place" v="locality" />
		<tag k="ssr:stedsnr" v="281825" />
	</node>
	<node id="-459227" lat="60.5852777757" lon="6.76092222428">
		<tag k="name" v="Sovarhaug" />
		<tag k="natural" v="hill" />
		<tag k="place" v="locality" />
		<tag k="ssr:stedsnr" v="39795" />
	</node>
	<node id="-459040" lat="60.6229999966" lon="6.66799166432">
		<tag k="name" v="Hengsdalsskar" />
		<tag k="natural" v="valley" />
		<tag k="place" v="locality" />
		<tag k="ssr:stedsnr" v="281820" />
	</node>
	<node id="-459039" lat="60.5447194423" lon="6.66646944925">
		<tag k="name" v="Bettene" />
		<tag k="place" v="locality" />
		<tag k="ssr:stedsnr" v="281816" />
	</node>
	<node id="-459038" lat="60.5075055583" lon="6.70504166557">
		<tag k="name" v="Øvre Koldehjellen" />
		<tag k="place" v="locality" />
		<tag k="ssr:stedsnr" v="281817" />
	</node>
	<node id="-459037" lat="60.4898361071" lon="6.68465000009">
		<tag k="name" v="Konestølen" />
		<tag k="place" v="locality" />
		<tag k="ssr:stedsnr" v="281813" />
	</node>
	<node id="-459036" lat="60.6158527757" lon="6.68923610465">
		<tag k="name" v="Øvsteskar" />
		<tag k="natural" v="valley" />
		<tag k="place" v="locality" />
		<tag k="ssr:stedsnr" v="281803" />
	</node>
	<node id="-459547" lat="60.4502666678" lon="6.49426110685">
		<tag k="name" v="Skåre" />
		<tag k="natural" v="hill" />
		<tag k="place" v="locality" />
		<tag k="ssr:stedsnr" v="645819" />
	</node>
	<node id="-459546" lat="60.5927416648" lon="6.77499999495">
		<tag k="name" v="Hjallahaugen" />
		<tag k="natural" v="hill" />
		<tag k="place" v="locality" />
		<tag k="ssr:stedsnr" v="645810" />
	</node>
	<node id="-459545" lat="60.590675002" lon="6.77411944176">
		<tag k="name" v="Liasetberget" />
		<tag k="natural" v="hill" />
		<tag k="place" v="locality" />
		<tag k="ssr:stedsnr" v="645808" />
	</node>
	<node id="-459544" lat="60.5240722191" lon="6.68065276966">
		<tag k="name" v="Gjehovden" />
		<tag k="natural" v="hill" />
		<tag k="place" v="locality" />
		<tag k="ssr:stedsnr" v="645792" />
	</node>
	<node id="-459542" lat="60.513402775" lon="6.60476665877">
		<tag k="fixme" v="consider natural=peak for the most distinct mountains in the district" />
		<tag k="name" v="Vossavarden" />
		<tag k="natural" v="hill" />
		<tag k="place" v="locality" />
		<tag k="ssr:stedsnr" v="645767" />
	</node>
	<node id="-459539" lat="60.5359000012" lon="6.68774722226">
		<tag k="name" v="Gjessheldren" />
		<tag k="place" v="locality" />
		<tag k="ssr:stedsnr" v="645745" />
	</node>
	<node id="-459538" lat="60.5720388897" lon="6.7093500076">
		<tag k="name" v="Forvoi" />
		<tag k="place" v="locality" />
		<tag k="ssr:stedsnr" v="645742" />
	</node>
	<node id="-459537" lat="60.6164111141" lon="6.65260555438">
		<tag k="name" v="Dammalii" />
		<tag k="natural" v="slope" />
		<tag k="place" v="locality" />
		<tag k="ssr:stedsnr" v="645732" />
	</node>
	<node id="-459536" lat="60.5584638868" lon="6.81415278254">
		<tag k="name" v="Slåtteskorane" />
		<tag k="natural" v="slope" />
		<tag k="place" v="locality" />
		<tag k="ssr:stedsnr" v="644945" />
	</node>
	<node id="-459534" lat="60.5651527789" lon="6.68707221702">
		<tag k="name" v="Kaldelokken" />
		<tag k="place" v="locality" />
		<tag k="ssr:stedsnr" v="644917" />
	</node>
	<node id="-459533" lat="60.4662833318" lon="6.53659444316">
		<tag k="name" v="Øvreskår" />
		<tag k="natural" v="valley" />
		<tag k="place" v="locality" />
		<tag k="ssr:stedsnr" v="644908" />
	</node>
	<node id="-459085" lat="60.5757555556" lon="6.67796666208">
		<tag k="name" v="Træshaugen" />
		<tag k="natural" v="hill" />
		<tag k="place" v="locality" />
		<tag k="ssr:stedsnr" v="341917" />
	</node>
	<node id="-459530" lat="60.5185833354" lon="6.72233611551">
		<tag k="name" v="Nodlahaugen" />
		<tag k="natural" v="hill" />
		<tag k="place" v="locality" />
		<tag k="ssr:stedsnr" v="644894" />
	</node>
	<node id="-459529" lat="60.5683611142" lon="6.72900832717">
		<tag k="name" v="Riplehaugen" />
		<tag k="natural" v="hill" />
		<tag k="place" v="locality" />
		<tag k="ssr:stedsnr" v="644876" />
	</node>
	<node id="-459527" lat="60.5431138858" lon="6.76918888217">
		<tag k="name" v="Åsklov" />
		<tag k="natural" v="valley" />
		<tag k="place" v="locality" />
		<tag k="ssr:stedsnr" v="644819" />
	</node>
	<node id="-459136" lat="60.5520944417" lon="6.81768333257">
		<tag k="name" v="Litlalihaugane" />
		<tag k="natural" v="hill" />
		<tag k="place" v="locality" />
		<tag k="ssr:stedsnr" v="403748" />
	</node>
	<node id="-459525" lat="60.4959694419" lon="6.71612777605">
		<tag k="name" v="Bjørndalen" />
		<tag k="natural" v="valley" />
		<tag k="place" v="locality" />
		<tag k="ssr:stedsnr" v="628209" />
	</node>
	<node id="-459524" lat="60.6250138914" lon="6.81066389106">
		<tag k="fixme" v="consider natural=peak for the most distinct mountains in the district" />
		<tag k="name" v="Sauanuten" />
		<tag k="natural" v="hill" />
		<tag k="ssr:stedsnr" v="613904" />
	</node>
	<node id="-459051" lat="60.5642777802" lon="6.73321667094">
		<tag k="name" v="Treldalen" />
		<tag k="natural" v="valley" />
		<tag k="place" v="locality" />
		<tag k="ssr:stedsnr" v="281887" />
	</node>
	<node id="-459519" lat="60.5593694406" lon="6.73700556067">
		<tag k="name" v="Orrefletene" />
		<tag k="natural" v="slope" />
		<tag k="place" v="locality" />
		<tag k="ssr:stedsnr" v="613846" />
	</node>
	<node id="-459518" lat="60.5783249994" lon="6.69151944748">
		<tag k="name" v="Skoddberg" />
		<tag k="natural" v="hill" />
		<tag k="place" v="locality" />
		<tag k="ssr:stedsnr" v="613837" />
	</node>
	<node id="-459221" lat="60.5098444434" lon="6.71115277409">
		<tag k="name" v="Langedalsberget" />
		<tag k="natural" v="hill" />
		<tag k="place" v="locality" />
		<tag k="ssr:stedsnr" v="38909" />
	</node>
	<node id="-459516" lat="60.5836916643" lon="6.70232500761">
		<tag k="name" v="Rinden" />
		<tag k="natural" v="ridge" />
		<tag k="place" v="locality" />
		<tag k="ssr:stedsnr" v="613826" />
	</node>
	<node id="-459515" lat="60.583249997" lon="6.77158610677">
		<tag k="name" v="Kamben" />
		<tag k="natural" v="ridge" />
		<tag k="place" v="locality" />
		<tag k="ssr:stedsnr" v="613823" />
	</node>
	<node id="-459512" lat="60.5570388865" lon="6.7547305581">
		<tag k="loc_name" v="Storhaug" />
		<tag k="name" v="Storhaugen" />
		<tag k="natural" v="hill" />
		<tag k="place" v="locality" />
		<tag k="ssr:stedsnr" v="613772" />
	</node>
	<node id="-459220" lat="60.5035194469" lon="6.70391111522">
		<tag k="name" v="Breiskårsnuten" />
		<tag k="natural" v="hill" />
		<tag k="place" v="locality" />
		<tag k="ssr:stedsnr" v="38907" />
	</node>
	<node id="-459510" lat="60.5452750019" lon="6.74484722965">
		<tag k="loc_name" v="Trodhaug" />
		<tag k="name" v="Trohaugen" />
		<tag k="natural" v="hill" />
		<tag k="place" v="locality" />
		<tag k="ssr:stedsnr" v="613741" />
	</node>
	<node id="-459508" lat="60.5086305589" lon="6.59093056274">
		<tag k="name" v="Kvanngjelet" />
		<tag k="natural" v="valley" />
		<tag k="place" v="locality" />
		<tag k="ssr:stedsnr" v="613540" />
	</node>
	<node id="-459506" lat="60.5127861076" lon="6.74127500278">
		<tag k="name" v="Daurmålsnuten" />
		<tag k="natural" v="hill" />
		<tag k="place" v="locality" />
		<tag k="ssr:stedsnr" v="613029" />
	</node>
	<node id="-459504" lat="60.6080222201" lon="6.69935555275">
		<tag k="fixme" v="consider natural=peak for the most distinct mountains in the district" />
		<tag k="name" v="Spildanuten" />
		<tag k="natural" v="hill" />
		<tag k="ssr:stedsnr" v="612880" />
	</node>
	<node id="-459218" lat="60.5766083318" lon="6.77437777062">
		<tag k="name" v="Tjørehovden" />
		<tag k="natural" v="hill" />
		<tag k="place" v="locality" />
		<tag k="ssr:stedsnr" v="38893" />
	</node>
	<node id="-459496" lat="60.4570638927" lon="6.52411110805">
		<tag k="name" v="Saltkjelen" />
		<tag k="natural" v="hill" />
		<tag k="place" v="locality" />
		<tag k="ssr:stedsnr" v="590218" />
	</node>
	<node id="-459495" lat="60.502108337" lon="6.67314165807">
		<tag k="name" v="Juvet" />
		<tag k="natural" v="gorge" />
		<tag k="ssr:stedsnr" v="585705" />
	</node>
	<node id="-459494" lat="60.5919750045" lon="6.64060555866">
		<tag k="name" v="Mjølkeskår" />
		<tag k="natural" v="valley" />
		<tag k="place" v="locality" />
		<tag k="ssr:stedsnr" v="584959" />
	</node>
	<node id="-459493" lat="60.533541668" lon="6.70205555471">
		<tag k="name" v="Russagjela" />
		<tag k="natural" v="gorge" />
		<tag k="ssr:stedsnr" v="584948" />
	</node>
	<node id="-459492" lat="60.4724999986" lon="6.60183889108">
		<tag k="name" v="Kvasshaug" />
		<tag k="natural" v="hill" />
		<tag k="place" v="locality" />
		<tag k="ssr:stedsnr" v="584923" />
	</node>
	<node id="-459490" lat="60.5035055534" lon="6.70865277205">
		<tag k="name" v="Vinhovden" />
		<tag k="place" v="locality" />
		<tag k="ssr:stedsnr" v="584909" />
	</node>
	<node id="-459489" lat="60.5258416628" lon="6.7520000033">
		<tag k="name" v="Gjela" />
		<tag k="natural" v="gorge" />
		<tag k="ssr:stedsnr" v="584901" />
	</node>
	<node id="-459488" lat="60.5729916709" lon="6.78605555865">
		<tag k="name" v="Baksetene" />
		<tag k="place" v="locality" />
		<tag k="ssr:stedsnr" v="584893" />
	</node>
	<node id="-459486" lat="60.578477782" lon="6.6947416627">
		<tag k="fixme" v="consider natural=peak for the most distinct mountains in the district" />
		<tag k="name" v="Ljosafjell" />
		<tag k="natural" v="hill" />
		<tag k="place" v="locality" />
		<tag k="ssr:stedsnr" v="584885" />
	</node>
	<node id="-459485" lat="60.568261111" lon="6.65454444447">
		<tag k="name" v="Nonseggi" />
		<tag k="natural" v="ridge" />
		<tag k="place" v="locality" />
		<tag k="ssr:stedsnr" v="584880" />
	</node>
	<node id="-459483" lat="60.5710111136" lon="6.74303055451">
		<tag k="name" v="Høyland" />
		<tag k="place" v="locality" />
		<tag k="ssr:stedsnr" v="584871" />
	</node>
	<node id="-459215" lat="60.5968888934" lon="6.69060278472">
		<tag k="name" v="Lydingahaug" />
		<tag k="natural" v="hill" />
		<tag k="place" v="locality" />
		<tag k="ssr:stedsnr" v="38881" />
	</node>
	<node id="-459044" lat="60.5028361088" lon="6.66081389621">
		<tag k="name" v="Hedler" />
		<tag k="place" v="locality" />
		<tag k="ssr:stedsnr" v="281850" />
	</node>
	<node id="-459477" lat="60.5773111121" lon="6.66934723007">
		<tag k="name" v="Svartaberg" />
		<tag k="natural" v="hill" />
		<tag k="place" v="locality" />
		<tag k="ssr:stedsnr" v="584819" />
	</node>
	<node id="-459476" lat="60.5789499997" lon="6.65458889287">
		<tag k="name" v="Vetlenos" />
		<tag k="natural" v="hill" />
		<tag k="place" v="locality" />
		<tag k="ssr:stedsnr" v="584814" />
	</node>
	<node id="-459475" lat="60.5882416676" lon="6.65572222225">
		<tag k="name" v="Stegane" />
		<tag k="natural" v="hill" />
		<tag k="place" v="locality" />
		<tag k="ssr:stedsnr" v="584808" />
	</node>
	<node id="-459474" lat="60.5159472246" lon="6.63117222761">
		<tag k="name" v="Nilsatræet" />
		<tag k="natural" v="hill" />
		<tag k="place" v="locality" />
		<tag k="ssr:stedsnr" v="584801" />
	</node>
	<node id="-459473" lat="60.455625" lon="6.57770556423">
		<tag k="alt_name" v="Geitaberget" />
		<tag k="name" v="Geilaberg" />
		<tag k="natural" v="hill" />
		<tag k="place" v="locality" />
		<tag k="ssr:stedsnr" v="584786" />
	</node>
	<node id="-459471" lat="60.6366333365" lon="6.71180000039">
		<tag k="fixme" v="consider natural=peak for the most distinct mountains in the district" />
		<tag k="name" v="Skipadalsnuten" />
		<tag k="natural" v="hill" />
		<tag k="ssr:stedsnr" v="553906" />
	</node>
	<node id="-459470" lat="60.5619419858" lon="6.78153125146">
		<tag k="name" v="Lyngershaug" />
		<tag k="natural" v="hill" />
		<tag k="place" v="locality" />
		<tag k="ssr:stedsnr" v="553862" />
	</node>
	<node id="-459469" lat="60.5480111131" lon="6.65386666341">
		<tag k="fixme" v="consider natural=peak for the most distinct mountains in the district" />
		<tag k="name" v="Høgahorgi" />
		<tag k="natural" v="hill" />
		<tag k="ssr:stedsnr" v="553854" />
	</node>
	<node id="-459468" lat="60.5718888858" lon="6.7274750054">
		<tag k="name" v="Joberget" />
		<tag k="natural" v="hill" />
		<tag k="place" v="locality" />
		<tag k="ssr:stedsnr" v="553816" />
	</node>
	<node id="-459467" lat="60.5340388908" lon="6.76726666861">
		<tag k="name" v="Vetlelii" />
		<tag k="natural" v="slope" />
		<tag k="place" v="locality" />
		<tag k="ssr:stedsnr" v="553790" />
	</node>
	<node id="-459465" lat="60.5504194443" lon="6.6916305594">
		<tag k="name" v="Bildeshaugen" />
		<tag k="natural" v="hill" />
		<tag k="place" v="locality" />
		<tag k="ssr:stedsnr" v="553785" />
	</node>
	<node id="-459212" lat="60.5802833291" lon="6.71111389673">
		<tag k="name" v="Tryglaskar" />
		<tag k="natural" v="valley" />
		<tag k="place" v="locality" />
		<tag k="ssr:stedsnr" v="38816" />
	</node>
	<node id="-459041" lat="60.6175888845" lon="6.66311944265">
		<tag k="name" v="Reisneskar" />
		<tag k="natural" v="valley" />
		<tag k="place" v="locality" />
		<tag k="ssr:stedsnr" v="281821" />
	</node>
	<node id="-459457" lat="60.5573944432" lon="6.74452777286">
		<tag k="name" v="Notten" />
		<tag k="natural" v="ridge" />
		<tag k="place" v="locality" />
		<tag k="ssr:stedsnr" v="552796" />
	</node>
	<node id="-459455" lat="60.4998083376" lon="6.6369916697">
		<tag k="name" v="Storaberget" />
		<tag k="natural" v="hill" />
		<tag k="place" v="locality" />
		<tag k="ssr:stedsnr" v="552031" />
	</node>
	<node id="-459453" lat="60.5994888933" lon="6.82806389228">
		<tag k="fixme" v="consider natural=peak for the most distinct mountains in the district" />
		<tag k="name" v="Troppenuten" />
		<tag k="natural" v="hill" />
		<tag k="place" v="locality" />
		<tag k="ssr:stedsnr" v="551926" />
	</node>
	<node id="-459563" lat="60.5337805592" lon="6.71274167209">
		<tag k="fixme" v="consider natural=peak for the most distinct mountains in the district" />
		<tag k="name" v="Kollanesåsen" />
		<tag k="natural" v="hill" />
		<tag k="place" v="locality" />
		<tag k="ssr:stedsnr" v="674790" />
	</node>
	<node id="-459451" lat="60.5880833297" lon="6.68665555801">
		<tag k="name" v="Angershovden" />
		<tag k="natural" v="hill" />
		<tag k="place" v="locality" />
		<tag k="ssr:stedsnr" v="551906" />
	</node>
	<node id="-459449" lat="60.4894749979" lon="6.61368888517">
		<tag k="name" v="Kalvbakkehøgdi" />
		<tag k="natural" v="hill" />
		<tag k="place" v="locality" />
		<tag k="ssr:stedsnr" v="551398" />
	</node>
	<node id="-459124" lat="60.5692472197" lon="6.78614166355">
		<tag k="name" v="Granabakkane" />
		<tag k="natural" v="slope" />
		<tag k="place" v="locality" />
		<tag k="ssr:stedsnr" v="402896" />
	</node>
	<node id="-459443" lat="60.5309861098" lon="6.67863055399">
		<tag k="name" v="Stølshaugane" />
		<tag k="natural" v="hill" />
		<tag k="place" v="locality" />
		<tag k="ssr:stedsnr" v="524798" />
	</node>
	<node id="-459442" lat="60.6233805554" lon="6.65764721966">
		<tag k="name" v="Huldahaugen" />
		<tag k="natural" v="hill" />
		<tag k="place" v="locality" />
		<tag k="ssr:stedsnr" v="524769" />
	</node>
	<node id="-459441" lat="60.4905777752" lon="6.59519166878">
		<tag k="name" v="Telfloten" />
		<tag k="natural" v="slope" />
		<tag k="place" v="locality" />
		<tag k="ssr:stedsnr" v="524761" />
	</node>
	<node id="-459440" lat="60.6163111117" lon="6.70825555309">
		<tag k="fixme" v="consider natural=peak for the most distinct mountains in the district" />
		<tag k="name" v="Vetledalsnuten" />
		<tag k="natural" v="hill" />
		<tag k="ssr:stedsnr" v="524722" />
	</node>
	<node id="-459208" lat="60.5841777808" lon="6.74419166289">
		<tag k="name" v="Britahaug" />
		<tag k="natural" v="hill" />
		<tag k="place" v="locality" />
		<tag k="ssr:stedsnr" v="21169" />
	</node>
	<node id="-459671" lat="60.5765388916" lon="6.75543611497">
		<tag k="name" v="Prostiskårane" />
		<tag k="natural" v="hill" />
		<tag k="place" v="locality" />
		<tag k="ssr:stedsnr" v="827892" />
	</node>
	<node id="-459435" lat="60.501030557" lon="6.64032221673">
		<tag k="name" v="Klovnaberg" />
		<tag k="natural" v="hill" />
		<tag k="place" v="locality" />
		<tag k="ssr:stedsnr" v="523910" />
	</node>
	<node id="-459433" lat="60.5102805532" lon="6.71386110295">
		<tag k="name" v="Gjøttehaugen" />
		<tag k="natural" v="hill" />
		<tag k="place" v="locality" />
		<tag k="ssr:stedsnr" v="523891" />
	</node>
	<node id="-459432" lat="60.582486113" lon="6.76983610873">
		<tag k="name" v="Ulvagjela" />
		<tag k="natural" v="gorge" />
		<tag k="ssr:stedsnr" v="523877" />
	</node>
	<node id="-459431" lat="60.5812833318" lon="6.7322111196">
		<tag k="name" v="Fjåene" />
		<tag k="place" v="locality" />
		<tag k="ssr:stedsnr" v="523867" />
	</node>
	<node id="-459430" lat="60.5745944439" lon="6.71787221353">
		<tag k="name" v="Skarhaug" />
		<tag k="natural" v="hill" />
		<tag k="place" v="locality" />
		<tag k="ssr:stedsnr" v="523863" />
	</node>
	<node id="-459429" lat="60.5418722221" lon="6.68257499483">
		<tag k="name" v="Messhaug" />
		<tag k="natural" v="hill" />
		<tag k="place" v="locality" />
		<tag k="ssr:stedsnr" v="523857" />
	</node>
	<node id="-459427" lat="60.5706555553" lon="6.63745278438">
		<tag k="name" v="Bjørnahaugane" />
		<tag k="natural" v="hill" />
		<tag k="place" v="locality" />
		<tag k="ssr:stedsnr" v="506237" />
	</node>
	<node id="-459425" lat="60.5711694423" lon="6.75125277489">
		<tag k="name" v="Heiane" />
		<tag k="natural" v="hill" />
		<tag k="place" v="locality" />
		<tag k="ssr:stedsnr" v="492867" />
	</node>
	<node id="-459424" lat="60.5622638903" lon="6.74353333076">
		<tag k="name" v="Øyjordshaugen" />
		<tag k="natural" v="hill" />
		<tag k="place" v="locality" />
		<tag k="ssr:stedsnr" v="492846" />
	</node>
	<node id="-459422" lat="60.5518611094" lon="6.63904444958">
		<tag k="name" v="Middalen" />
		<tag k="natural" v="valley" />
		<tag k="place" v="locality" />
		<tag k="ssr:stedsnr" v="492840" />
	</node>
	<node id="-459461" lat="60.6072916647" lon="6.78382222194">
		<tag k="fixme" v="consider natural=peak for the most distinct mountains in the district" />
		<tag k="name" v="Sauanuten" />
		<tag k="natural" v="hill" />
		<tag k="ssr:stedsnr" v="552900" />
	</node>
	<node id="-459420" lat="60.529799998" lon="6.61731944624">
		<tag k="name" v="Høgaleitet" />
		<tag k="natural" v="hill" />
		<tag k="place" v="locality" />
		<tag k="ssr:stedsnr" v="492791" />
	</node>
	<node id="-459034" lat="60.462783334" lon="6.58544722069">
		<tag k="name" v="Slåtto" />
		<tag k="place" v="locality" />
		<tag k="ssr:stedsnr" v="281144" />
	</node>
	<node id="-459439" lat="60.4750361091" lon="6.5930888884">
		<tag k="name" v="Turtnajuvet" />
		<tag k="natural" v="gorge" />
		<tag k="ssr:stedsnr" v="524115" />
	</node>
	<node id="-459417" lat="60.5080555587" lon="6.6776638796">
		<tag k="name" v="Fletene" />
		<tag k="natural" v="slope" />
		<tag k="place" v="locality" />
		<tag k="ssr:stedsnr" v="492020" />
	</node>
	<node id="-459416" lat="60.5091694474" lon="6.71033889437">
		<tag k="name" v="Akslene" />
		<tag k="natural" v="ridge" />
		<tag k="place" v="locality" />
		<tag k="ssr:stedsnr" v="492019" />
	</node>
	<node id="-459415" lat="60.5935972199" lon="6.65143332565">
		<tag k="fixme" v="consider natural=peak for the most distinct mountains in the district" />
		<tag k="name" v="Håfjellet" />
		<tag k="natural" v="hill" />
		<tag k="place" v="locality" />
		<tag k="ssr:stedsnr" v="491937" />
	</node>
	<node id="-459414" lat="60.5992666668" lon="6.76363889349">
		<tag k="name" v="Stavaskaret" />
		<tag k="natural" v="valley" />
		<tag k="place" v="locality" />
		<tag k="ssr:stedsnr" v="491934" />
	</node>
	<node id="-459413" lat="60.5880861089" lon="6.68104999105">
		<tag k="name" v="Grytedalen" />
		<tag k="natural" v="valley" />
		<tag k="place" v="locality" />
		<tag k="ssr:stedsnr" v="491920" />
	</node>
	<node id="-459412" lat="60.5904138849" lon="6.6759333283">
		<tag k="name" v="Glåm" />
		<tag k="natural" v="hill" />
		<tag k="place" v="locality" />
		<tag k="ssr:stedsnr" v="491917" />
	</node>
	<node id="-459410" lat="60.6131416678" lon="6.68120832758">
		<tag k="name" v="Hengsdalen" />
		<tag k="natural" v="valley" />
		<tag k="place" v="locality" />
		<tag k="ssr:stedsnr" v="491902" />
	</node>
	<node id="-459408" lat="60.4867694484" lon="6.60142221917">
		<tag k="name" v="Skori" />
		<tag k="natural" v="valley" />
		<tag k="place" v="locality" />
		<tag k="ssr:stedsnr" v="490397" />
	</node>
	<node id="-459407" lat="60.4700277759" lon="6.52932777704">
		<tag k="alt_name" v="Drivenuten, øvre" />
		<tag k="fixme" v="consider natural=peak for the most distinct mountains in the district" />
		<tag k="name" v="Øvre Drivenuten" />
		<tag k="natural" v="hill" />
		<tag k="place" v="locality" />
		<tag k="ssr:stedsnr" v="490198" />
	</node>
	<node id="-459406" lat="60.4640166681" lon="6.52740278205">
		<tag k="name" v="Drivegjeli" />
		<tag k="natural" v="valley" />
		<tag k="place" v="locality" />
		<tag k="ssr:stedsnr" v="490189" />
	</node>
	<node id="-459401" lat="60.4632277762" lon="6.55592222153">
		<tag k="fixme" v="consider natural=peak for the most distinct mountains in the district" />
		<tag k="name" v="Notten" />
		<tag k="natural" v="hill" />
		<tag k="ssr:stedsnr" v="463941" />
	</node>
	<node id="-459398" lat="60.5969722214" lon="6.7202916695">
		<tag k="fixme" v="consider natural=peak for the most distinct mountains in the district" />
		<tag k="name" v="Svarthammarlia" />
		<tag k="natural" v="hill" />
		<tag k="place" v="locality" />
		<tag k="ssr:stedsnr" v="463885" />
	</node>
	<node id="-459397" lat="60.6000944444" lon="6.67436110757">
		<tag k="name" v="Fyllsdalen" />
		<tag k="natural" v="valley" />
		<tag k="place" v="locality" />
		<tag k="ssr:stedsnr" v="463884" />
	</node>
	<node id="-459396" lat="60.5884833293" lon="6.66914721701">
		<tag k="name" v="Høybakken" />
		<tag k="natural" v="slope" />
		<tag k="place" v="locality" />
		<tag k="ssr:stedsnr" v="463880" />
	</node>
	<node id="-459395" lat="60.5815222212" lon="6.80193889304">
		<tag k="name" v="Steinmarkelia" />
		<tag k="natural" v="hill" />
		<tag k="place" v="locality" />
		<tag k="ssr:stedsnr" v="463869" />
	</node>
	<node id="-459393" lat="60.4857833371" lon="6.67117778478">
		<tag k="name" v="Salttunneskåra" />
		<tag k="natural" v="valley" />
		<tag k="place" v="locality" />
		<tag k="ssr:stedsnr" v="463850" />
	</node>
	<node id="-459392" lat="60.487991665" lon="6.67552222847">
		<tag k="name" v="Folkedal" />
		<tag k="natural" v="valley" />
		<tag k="place" v="locality" />
		<tag k="ssr:stedsnr" v="463848" />
	</node>
	<node id="-459391" lat="60.6163055586" lon="6.74470000815">
		<tag k="name" v="Tunga" />
		<tag k="place" v="locality" />
		<tag k="ssr:stedsnr" v="463840" />
	</node>
	<node id="-459390" lat="60.6122916635" lon="6.74611944172">
		<tag k="name" v="Ennelii" />
		<tag k="natural" v="slope" />
		<tag k="place" v="locality" />
		<tag k="ssr:stedsnr" v="463837" />
	</node>
	<node id="-459389" lat="60.5555694462" lon="6.79574721595">
		<tag k="name" v="Kjerringahaugen" />
		<tag k="natural" v="hill" />
		<tag k="place" v="locality" />
		<tag k="ssr:stedsnr" v="463833" />
	</node>
	<node id="-459387" lat="60.5700083294" lon="6.73078332848">
		<tag k="name" v="Nodlane" />
		<tag k="natural" v="hill" />
		<tag k="place" v="locality" />
		<tag k="ssr:stedsnr" v="463813" />
	</node>
	<node id="-459386" lat="60.4587750004" lon="6.5969972204">
		<tag k="name" v="Løflaten" />
		<tag k="natural" v="slope" />
		<tag k="place" v="locality" />
		<tag k="ssr:stedsnr" v="463795" />
	</node>
	<node id="-459385" lat="60.6135722235" lon="6.72174721635">
		<tag k="fixme" v="consider natural=peak for the most distinct mountains in the district" />
		<tag k="name" v="Lianuten" />
		<tag k="natural" v="hill" />
		<tag k="ssr:stedsnr" v="463790" />
	</node>
	<node id="-459384" lat="60.5095555538" lon="6.70299999832">
		<tag k="name" v="Nedre Koldehjellen" />
		<tag k="place" v="locality" />
		<tag k="ssr:stedsnr" v="463782" />
	</node>
	<node id="-459382" lat="60.6241638886" lon="6.65341389427">
		<tag k="name" v="Budeieskarvet" />
		<tag k="natural" v="hill" />
		<tag k="place" v="locality" />
		<tag k="ssr:stedsnr" v="463767" />
	</node>
	<node id="-459381" lat="60.5731972201" lon="6.7321805551">
		<tag k="name" v="Jonene" />
		<tag k="natural" v="slope" />
		<tag k="place" v="locality" />
		<tag k="ssr:stedsnr" v="446162" />
	</node>
	<node id="-459379" lat="60.6245722204" lon="6.71514444023">
		<tag k="name" v="Skipadalen" />
		<tag k="natural" v="valley" />
		<tag k="place" v="locality" />
		<tag k="ssr:stedsnr" v="432900" />
	</node>
	<node id="-459114" lat="60.5455222237" lon="6.786425008">
		<tag k="name" v="Rusti" />
		<tag k="natural" v="ridge" />
		<tag k="place" v="locality" />
		<tag k="ssr:stedsnr" v="371758" />
	</node>
	<node id="-459447" lat="60.4656999983" lon="6.53122500011">
		<tag k="alt_name" v="Drivenuten, nedre" />
		<tag k="fixme" v="consider natural=peak for the most distinct mountains in the district" />
		<tag k="name" v="Nedre Drivenuten" />
		<tag k="natural" v="hill" />
		<tag k="place" v="locality" />
		<tag k="ssr:stedsnr" v="551220" />
	</node>
	<node id="-459375" lat="60.5701333355" lon="6.63099999525">
		<tag k="name" v="Bjørnehaugane" />
		<tag k="natural" v="hill" />
		<tag k="place" v="locality" />
		<tag k="ssr:stedsnr" v="432805" />
	</node>
	<node id="-459374" lat="60.5267111116" lon="6.7423638833">
		<tag k="name" v="Kambane" />
		<tag k="natural" v="ridge" />
		<tag k="place" v="locality" />
		<tag k="ssr:stedsnr" v="432046" />
	</node>
	<node id="-459372" lat="60.5939555594" lon="6.75005277866">
		<tag k="fixme" v="consider natural=peak for the most distinct mountains in the district" />
		<tag k="name" v="Olavstølsnuten" />
		<tag k="natural" v="hill" />
		<tag k="ssr:stedsnr" v="431930" />
	</node>
	<node id="-459368" lat="60.592711114" lon="6.77099167141">
		<tag k="name" v="Gunnarhaug" />
		<tag k="natural" v="hill" />
		<tag k="place" v="locality" />
		<tag k="ssr:stedsnr" v="264143" />
	</node>
	<node id="-459365" lat="60.5227388921" lon="6.70006944938">
		<tag k="name" v="Ådnagavlen" />
		<tag k="natural" v="ridge" />
		<tag k="place" v="locality" />
		<tag k="ssr:stedsnr" v="250061" />
	</node>
	<node id="-459363" lat="60.5997916689" lon="6.7256055513">
		<tag k="name" v="Kleivabakken" />
		<tag k="natural" v="slope" />
		<tag k="place" v="locality" />
		<tag k="ssr:stedsnr" v="249922" />
	</node>
	<node id="-459362" lat="60.6194694452" lon="6.82301389367">
		<tag k="name" v="Trollabotnen" />
		<tag k="natural" v="valley" />
		<tag k="place" v="locality" />
		<tag k="ssr:stedsnr" v="249874" />
	</node>
	<node id="-459360" lat="60.5817277804" lon="6.75634166242">
		<tag k="name" v="Langhaug" />
		<tag k="natural" v="hill" />
		<tag k="place" v="locality" />
		<tag k="ssr:stedsnr" v="249829" />
	</node>
	<node id="-459357" lat="60.5395666632" lon="6.63407222326">
		<tag k="name" v="Vetlahorgi" />
		<tag k="natural" v="hill" />
		<tag k="place" v="locality" />
		<tag k="ssr:stedsnr" v="249792" />
	</node>
	<node id="-459356" lat="60.5343611109" lon="6.70258055244">
		<tag k="name" v="Gili" />
		<tag k="natural" v="gorge" />
		<tag k="ssr:stedsnr" v="249785" />
	</node>
	<node id="-459355" lat="60.5350805518" lon="6.75129722546">
		<tag k="name" v="Jukelsklepp" />
		<tag k="natural" v="hill" />
		<tag k="place" v="locality" />
		<tag k="ssr:stedsnr" v="249779" />
	</node>
	<node id="-459045" lat="60.5373027752" lon="6.67633333007">
		<tag k="name" v="Snauehaug" />
		<tag k="natural" v="hill" />
		<tag k="place" v="locality" />
		<tag k="ssr:stedsnr" v="281854" />
	</node>
	<node id="-459062" lat="60.491838888" lon="6.55186667406">
		<tag k="fixme" v="consider natural=peak for the most distinct mountains in the district" />
		<tag k="name" v="Kistenuten" />
		<tag k="natural" v="hill" />
		<tag k="place" v="locality" />
		<tag k="ssr:stedsnr" v="309777" />
	</node>
	<node id="-459079" lat="60.5943388848" lon="6.69620554898">
		<tag k="name" v="Trelldalshaugen" />
		<tag k="natural" v="hill" />
		<tag k="place" v="locality" />
		<tag k="ssr:stedsnr" v="341894" />
	</node>
	<node id="-459348" lat="60.5896388875" lon="6.61764166368">
		<tag k="name" v="Kamben" />
		<tag k="natural" v="ridge" />
		<tag k="place" v="locality" />
		<tag k="ssr:stedsnr" v="248948" />
	</node>
	<node id="-459130" lat="60.5049027779" lon="6.63236111681">
		<tag k="name" v="Tussaholo" />
		<tag k="place" v="locality" />
		<tag k="ssr:stedsnr" v="402916" />
	</node>
	<node id="-459107" lat="60.5984638904" lon="6.78437222299">
		<tag k="name" v="Fogerbrekkeberget" />
		<tag k="natural" v="hill" />
		<tag k="place" v="locality" />
		<tag k="ssr:stedsnr" v="370933" />
	</node>
	<node id="-459344" lat="60.4916944431" lon="6.65296666695">
		<tag k="name" v="Eskjefloten" />
		<tag k="natural" v="slope" />
		<tag k="old_name" v="Eskeflot" />
		<tag k="place" v="locality" />
		<tag k="ssr:stedsnr" v="226564" />
	</node>
	<node id="-459342" lat="60.4823777737" lon="6.66611388066">
		<tag k="name" v="Gråsteg" />
		<tag k="place" v="locality" />
		<tag k="ssr:stedsnr" v="221824" />
	</node>
	<node id="-459341" lat="60.4843666628" lon="6.66860834164">
		<tag k="name" v="Bjønnskårane" />
		<tag k="natural" v="valley" />
		<tag k="place" v="locality" />
		<tag k="ssr:stedsnr" v="221822" />
	</node>
	<node id="-459106" lat="60.6017638926" lon="6.81379444899">
		<tag k="fixme" v="consider natural=peak for the most distinct mountains in the district" />
		<tag k="name" v="Såta" />
		<tag k="natural" v="hill" />
		<tag k="place" v="locality" />
		<tag k="ssr:stedsnr" v="370931" />
	</node>
	<node id="-459338" lat="60.6230861105" lon="6.68259999151">
		<tag k="name" v="Vetlehondalen" />
		<tag k="natural" v="valley" />
		<tag k="place" v="locality" />
		<tag k="ssr:stedsnr" v="221760" />
	</node>
	<node id="-459337" lat="60.6200111066" lon="6.66585277358">
		<tag k="name" v="Vierskar" />
		<tag k="natural" v="valley" />
		<tag k="place" v="locality" />
		<tag k="ssr:stedsnr" v="221740" />
	</node>
	<node id="-459336" lat="60.4692805518" lon="6.6469888838">
		<tag k="name" v="Heggedokka" />
		<tag k="natural" v="slope" />
		<tag k="place" v="locality" />
		<tag k="ssr:stedsnr" v="221739" />
	</node>
	<node id="-459331" lat="60.5109638872" lon="6.62605278528">
		<tag k="name" v="Litlehaugsdalen" />
		<tag k="natural" v="valley" />
		<tag k="place" v="locality" />
		<tag k="ssr:stedsnr" v="220900" />
	</node>
	<node id="-459330" lat="60.5407388933" lon="6.72426111244">
		<tag k="name" v="Trelldalen" />
		<tag k="natural" v="valley" />
		<tag k="place" v="locality" />
		<tag k="ssr:stedsnr" v="220885" />
	</node>
	<node id="-459329" lat="60.4966055575" lon="6.64203332898">
		<tag k="name" v="Smiehaugen" />
		<tag k="natural" v="hill" />
		<tag k="place" v="locality" />
		<tag k="ssr:stedsnr" v="220865" />
	</node>
	<node id="-459327" lat="60.5722638894" lon="6.80078611495">
		<tag k="name" v="Middagsmannen" />
		<tag k="natural" v="hill" />
		<tag k="place" v="locality" />
		<tag k="ssr:stedsnr" v="189862" />
	</node>
	<node id="-459326" lat="60.5750944446" lon="6.75116388795">
		<tag k="name" v="Jonipen" />
		<tag k="natural" v="hill" />
		<tag k="place" v="locality" />
		<tag k="ssr:stedsnr" v="189858" />
	</node>
	<node id="-459324" lat="60.5836638904" lon="6.7156777801">
		<tag k="name" v="Mjølsetebotnane" />
		<tag k="natural" v="valley" />
		<tag k="place" v="locality" />
		<tag k="ssr:stedsnr" v="189804" />
	</node>
	<node id="-459323" lat="60.5743916685" lon="6.70001110415">
		<tag k="name" v="Jobakkane" />
		<tag k="natural" v="slope" />
		<tag k="place" v="locality" />
		<tag k="ssr:stedsnr" v="189790" />
	</node>
	<node id="-459321" lat="60.5319749991" lon="6.70562777957">
		<tag k="name" v="Haukadalen" />
		<tag k="natural" v="valley" />
		<tag k="place" v="locality" />
		<tag k="ssr:stedsnr" v="189767" />
	</node>
	<node id="-459319" lat="60.5527388856" lon="6.66744165825">
		<tag k="name" v="Hisbakkane" />
		<tag k="natural" v="slope" />
		<tag k="place" v="locality" />
		<tag k="ssr:stedsnr" v="189751" />
	</node>
	<node id="-459316" lat="60.5123333337" lon="6.60154999498">
		<tag k="name" v="Langelihøgdi" />
		<tag k="natural" v="hill" />
		<tag k="place" v="locality" />
		<tag k="ssr:stedsnr" v="189038" />
	</node>
	<node id="-459035" lat="60.6215027785" lon="6.70554167102">
		<tag k="name" v="Smalaskarrusti" />
		<tag k="natural" v="ridge" />
		<tag k="place" v="locality" />
		<tag k="ssr:stedsnr" v="281796" />
	</node>
	<node id="-459314" lat="60.5084194415" lon="6.59712499981">
		<tag k="name" v="Langeliberget" />
		<tag k="natural" v="hill" />
		<tag k="place" v="locality" />
		<tag k="ssr:stedsnr" v="189023" />
	</node>
	<node id="-459312" lat="60.5903416686" lon="6.71801665853">
		<tag k="name" v="Øykjasteinshaugen" />
		<tag k="natural" v="hill" />
		<tag k="place" v="locality" />
		<tag k="ssr:stedsnr" v="188920" />
	</node>
	<node id="-459310" lat="60.6040972191" lon="6.70884444845">
		<tag k="name" v="Nollen" />
		<tag k="natural" v="hill" />
		<tag k="place" v="locality" />
		<tag k="ssr:stedsnr" v="188896" />
	</node>
	<node id="-459214" lat="60.5520083302" lon="6.79233612025">
		<tag k="alt_name" v="Skårane" />
		<tag k="name" v="Skorane" />
		<tag k="natural" v="hill" />
		<tag k="place" v="locality" />
		<tag k="ssr:stedsnr" v="38859" />
	</node>
	<node id="-459305" lat="60.4855000029" lon="6.69916944958">
		<tag k="name" v="Verkadalslii" />
		<tag k="natural" v="slope" />
		<tag k="place" v="locality" />
		<tag k="ssr:stedsnr" v="187402" />
	</node>
	<node id="-459304" lat="60.472338891" lon="6.65261667301">
		<tag k="name" v="Vasagili" />
		<tag k="natural" v="gorge" />
		<tag k="ssr:stedsnr" v="187399" />
	</node>
	<node id="-459302" lat="60.4853999964" lon="6.71705555523">
		<tag k="name" v="Verkadalsnuten" />
		<tag k="natural" v="hill" />
		<tag k="place" v="locality" />
		<tag k="ssr:stedsnr" v="187394" />
	</node>
	<node id="-459297" lat="60.531008333" lon="6.65909721642">
		<tag k="name" v="Galthaug" />
		<tag k="natural" v="hill" />
		<tag k="place" v="locality" />
		<tag k="ssr:stedsnr" v="160794" />
	</node>
	<node id="-459295" lat="60.5862027736" lon="6.76779999204">
		<tag k="name" v="Erdalsleitet" />
		<tag k="natural" v="hill" />
		<tag k="place" v="locality" />
		<tag k="ssr:stedsnr" v="160776" />
	</node>
	<node id="-459043" lat="60.5275752208" lon="6.7571905201">
		<tag k="alt_name" v="Seljeskårsnuten" />
		<tag k="fixme" v="consider natural=peak for the most distinct mountains in the district" />
		<tag k="loc_name" v="Hesteståene" />
		<tag k="name" v="Seljeskorsnuten" />
		<tag k="natural" v="hill" />
		<tag k="ssr:stedsnr" v="281845" />
	</node>
	<node id="-459291" lat="60.4919801256" lon="6.6473165798">
		<tag k="name" v="Veslenotten" />
		<tag k="natural" v="ridge" />
		<tag k="place" v="locality" />
		<tag k="ssr:stedsnr" v="160722" />
	</node>
	<node id="-459289" lat="60.5776833344" lon="6.79629165867">
		<tag k="name" v="Idlakleiv" />
		<tag k="place" v="locality" />
		<tag k="ssr:stedsnr" v="160108" />
	</node>
	<node id="-459288" lat="60.5696777746" lon="6.65629165967">
		<tag k="name" v="Geitanollane" />
		<tag k="natural" v="hill" />
		<tag k="place" v="locality" />
		<tag k="ssr:stedsnr" v="159919" />
	</node>
	<node id="-459287" lat="60.4617888883" lon="6.54150000361">
		<tag k="name" v="Gjela" />
		<tag k="natural" v="gorge" />
		<tag k="ssr:stedsnr" v="159908" />
	</node>
	<node id="-459121" lat="60.5577305581" lon="6.67621943861">
		<tag k="name" v="Busti" />
		<tag k="natural" v="hill" />
		<tag k="place" v="locality" />
		<tag k="ssr:stedsnr" v="371857" />
	</node>
	<node id="-459280" lat="60.5817166704" lon="6.63646389398">
		<tag k="name" v="Seglberget" />
		<tag k="natural" v="hill" />
		<tag k="place" v="locality" />
		<tag k="ssr:stedsnr" v="128842" />
	</node>
	<node id="-459213" lat="60.6185694417" lon="6.73928333242">
		<tag k="name" v="Våi" />
		<tag k="natural" v="slope" />
		<tag k="place" v="locality" />
		<tag k="ssr:stedsnr" v="38821" />
	</node>
	<node id="-459278" lat="60.552963889" lon="6.76904167314">
		<tag k="name" v="Skredberget" />
		<tag k="natural" v="hill" />
		<tag k="place" v="locality" />
		<tag k="ssr:stedsnr" v="128771" />
	</node>
	<node id="-459276" lat="60.619463891" lon="6.77486944372">
		<tag k="name" v="Seldalen" />
		<tag k="natural" v="valley" />
		<tag k="place" v="locality" />
		<tag k="ssr:stedsnr" v="127893" />
	</node>
	<node id="-459127" lat="60.5919916636" lon="6.65401389324">
		<tag k="name" v="Håfjellberget" />
		<tag k="natural" v="hill" />
		<tag k="place" v="locality" />
		<tag k="ssr:stedsnr" v="402900" />
	</node>
	<node id="-459521" lat="60.5795527792" lon="6.78101111774">
		<tag k="name" v="Espelandsdalen" />
		<tag k="natural" v="valley" />
		<tag k="place" v="locality" />
		<tag k="ssr:stedsnr" v="613866" />
	</node>
</osm>
