<?xml version="1.0" encoding="UTF-8"?>
<osm generator="osmapis" version="0.6">
	<node id="-458751" lat="60.5653416682" lon="6.72443055398">
		<tag k="alt_name" v="Holven" />
		<tag k="fixme" v="consider place=hamlet" />
		<tag k="name" v="Hollve" />
		<tag k="place" v="farm" />
		<tag k="ssr:stedsnr" v="432851" />
	</node>
	<node id="-458746" lat="60.5905820724" lon="6.66351842718">
		<tag k="alt_name" v="Kolskår" />
		<tag k="fixme" v="consider place=hamlet" />
		<tag k="name" v="Kollskår" />
		<tag k="place" v="farm" />
		<tag k="ssr:stedsnr" v="431924" />
	</node>
	<node id="-458745" lat="60.5918026602" lon="6.70686510065">
		<tag k="historic" v="shieling" />
		<tag k="name" v="Allii" />
		<tag k="place" v="locality" />
		<tag k="ssr:stedsnr" v="431922" />
	</node>
	<node id="-458734" lat="60.5712565007" lon="6.69869755692">
		<tag k="fixme" v="consider place=suburb, village or hamlet" />
		<tag k="name" v="Øvre Vassenden" />
		<tag k="place" v="quarter" />
		<tag k="ssr:stedsnr" v="249809" />
	</node>
	<node id="-458726" lat="60.5448277766" lon="6.63357778424">
		<tag k="historic" v="shieling" />
		<tag k="name" v="Langedalen" />
		<tag k="place" v="locality" />
		<tag k="ssr:stedsnr" v="249742" />
	</node>
	<node id="-458725" lat="60.5303000034" lon="6.69486388282">
		<tag k="alt_name" v="Midås" />
		<tag k="fixme" v="consider place=hamlet" />
		<tag k="name" v="Medås" />
		<tag k="place" v="farm" />
		<tag k="ssr:stedsnr" v="249058" />
	</node>
	<node id="-458715" lat="60.5419555519" lon="6.68466667353">
		<tag k="historic" v="shieling" />
		<tag k="name" v="Nedsta Grjostøl" />
		<tag k="place" v="locality" />
		<tag k="ssr:stedsnr" v="221784" />
	</node>
	<node id="-458710" lat="60.5405749967" lon="6.68462777763">
		<tag k="historic" v="shieling" />
		<tag k="name" v="Nesta Grostøl" />
		<tag k="place" v="locality" />
		<tag k="ssr:stedsnr" v="221717" />
	</node>
	<node id="-458708" lat="60.5818500019" lon="6.65585277257">
		<tag k="historic" v="shieling" />
		<tag k="name" v="Skattastøl" />
		<tag k="place" v="locality" />
		<tag k="ssr:stedsnr" v="220907" />
	</node>
	<node id="-458700" lat="60.5591127838" lon="6.73068919397">
		<tag k="alt_name" v="Lillegraven" />
		<tag k="fixme" v="consider place=hamlet" />
		<tag k="loc_name" v="Litle Granvin" />
		<tag k="name" v="Granvin, l" />
		<tag k="place" v="farm" />
		<tag k="ssr:stedsnr" v="189834" />
	</node>
	<node id="-458697" lat="60.5308027743" lon="6.67554722714">
		<tag k="historic" v="shieling" />
		<tag k="name" v="Skålsete" />
		<tag k="place" v="locality" />
		<tag k="ssr:stedsnr" v="189773" />
	</node>
	<node id="-458572" lat="60.5240666626" lon="6.71931388487">
		<tag k="name" v="Granvin" />
		<tag k="place" v="village" />
		<tag k="ssr:stedsnr" v="7070" />
	</node>
	<node id="-458692" lat="60.5419166673" lon="6.73291388189">
		<tag k="fixme" v="consider place=hamlet" />
		<tag k="name" v="Hause" />
		<tag k="place" v="farm" />
		<tag k="ssr:stedsnr" v="189726" />
	</node>
	<node id="-458688" lat="60.5915603383" lon="6.80345608539">
		<tag k="fixme" v="consider place=hamlet" />
		<tag k="name" v="Espeland" />
		<tag k="place" v="farm" />
		<tag k="ssr:stedsnr" v="188927" />
	</node>
	<node id="-458686" lat="60.5936750011" lon="6.69195554651">
		<tag k="historic" v="shieling" />
		<tag k="name" v="Tveiti" />
		<tag k="place" v="locality" />
		<tag k="ssr:stedsnr" v="188917" />
	</node>
	<node id="-458684" lat="60.5985388928" lon="6.64469721902">
		<tag k="alt_name" v="Jøretveitane" />
		<tag k="historic" v="shieling" />
		<tag k="name" v="Jørdretveiti" />
		<tag k="place" v="locality" />
		<tag k="ssr:stedsnr" v="188897" />
	</node>
	<node id="-459082" lat="60.6041527742" lon="6.67576667261">
		<tag k="historic" v="shieling" />
		<tag k="name" v="Fogerlii" />
		<tag k="place" v="locality" />
		<tag k="ssr:stedsnr" v="916888" />
	</node>
	<node id="-458681" lat="60.5012722261" lon="6.62815556165">
		<tag k="alt_name" v="Folkedal, øvre" />
		<tag k="fixme" v="consider place=hamlet" />
		<tag k="name" v="Øvre Folkedal" />
		<tag k="place" v="farm" />
		<tag k="ssr:stedsnr" v="188018" />
	</node>
	<node id="-458676" lat="60.4576694484" lon="6.5892888836">
		<tag k="fixme" v="consider place=hamlet" />
		<tag k="name" v="Naustvik" />
		<tag k="place" v="farm" />
		<tag k="ssr:stedsnr" v="187228" />
	</node>
	<node id="-458673" lat="60.4545777811" lon="6.50090833505">
		<tag k="historic" v="shieling" />
		<tag k="name" v="Urastøl" />
		<tag k="place" v="locality" />
		<tag k="ssr:stedsnr" v="160819" />
	</node>
	<node id="-458667" lat="60.5413527736" lon="6.6773722285">
		<tag k="historic" v="shieling" />
		<tag k="name" v="Øvsta Grostøl" />
		<tag k="place" v="locality" />
		<tag k="ssr:stedsnr" v="160724" />
	</node>
	<node id="-458654" lat="60.5565929005" lon="6.73302978343">
		<tag k="alt_name" v="Granvin, store" />
		<tag k="fixme" v="consider place=hamlet" />
		<tag k="loc_name" v="Storegraven" />
		<tag k="name" v="Store Granvin" />
		<tag k="place" v="farm" />
		<tag k="ssr:stedsnr" v="128776" />
	</node>
	<node id="-458652" lat="60.5941250043" lon="6.67070000736">
		<tag k="historic" v="shieling" />
		<tag k="name" v="Bjørndalen" />
		<tag k="place" v="locality" />
		<tag k="ssr:stedsnr" v="127920" />
	</node>
	<node id="-458650" lat="60.4794388868" lon="6.66877500005">
		<tag k="historic" v="shieling" />
		<tag k="name" v="Seljesete" />
		<tag k="place" v="locality" />
		<tag k="ssr:stedsnr" v="126430" />
	</node>
	<node id="-458647" lat="60.4845750024" lon="6.64665277085">
		<tag k="name" v="Hagen" />
		<tag k="place" v="isolated_dwelling" />
		<tag k="ssr:stedsnr" v="126407" />
	</node>
	<node id="-458990" lat="60.5702833305" lon="6.69720000723">
		<tag k="alt_name" v="Seim" />
		<tag k="fixme" v="consider place=hamlet" />
		<tag k="name" v="Nedre Seim" />
		<tag k="place" v="farm" />
		<tag k="ssr:stedsnr" v="735811" />
	</node>
	<node id="-459074" lat="60.5686694446" lon="6.73138889795">
		<tag k="historic" v="shieling" />
		<tag k="name" v="Tveiti" />
		<tag k="place" v="locality" />
		<tag k="ssr:stedsnr" v="857866" />
	</node>
	<node id="-459072" lat="60.5701833308" lon="6.68826388423">
		<tag k="name" v="Moen" />
		<tag k="place" v="farm" />
		<tag k="ssr:stedsnr" v="857807" />
	</node>
	<node id="-458622" lat="60.5698499964" lon="6.66191666902">
		<tag k="historic" v="shieling" />
		<tag k="name" v="Njuk" />
		<tag k="place" v="locality" />
		<tag k="ssr:stedsnr" v="68809" />
	</node>
	<node id="-458617" lat="60.6140027747" lon="6.7081944503">
		<tag k="historic" v="shieling" />
		<tag k="name" v="Aunaset" />
		<tag k="place" v="locality" />
		<tag k="ssr:stedsnr" v="67898" />
	</node>
	<node id="-458616" lat="60.5933170709" lon="6.63516658188">
		<tag k="fixme" v="consider place=hamlet" />
		<tag k="name" v="Brekke" />
		<tag k="place" v="farm" />
		<tag k="ssr:stedsnr" v="67885" />
	</node>
	<node id="-458615" lat="60.6076222243" lon="6.74932222249">
		<tag k="historic" v="shieling" />
		<tag k="name" v="Fagnastøl" />
		<tag k="place" v="locality" />
		<tag k="ssr:stedsnr" v="67879" />
	</node>
	<node id="-459123" lat="60.5729561357" lon="6.80370317024">
		<tag k="name" v="Hausnestuftene" />
		<tag k="place" v="locality" />
		<tag k="ssr:stedsnr" v="972328" />
	</node>
	<node id="-459118" lat="60.4694249987" lon="6.60626388284">
		<tag k="name" v="Sanden" />
		<tag k="place" v="farm" />
		<tag k="ssr:stedsnr" v="954195" />
	</node>
	<node id="-459066" lat="60.5478138881" lon="6.69533333337">
		<tag k="fixme" v="consider place=hamlet" />
		<tag k="name" v="Bilde" />
		<tag k="place" v="farm" />
		<tag k="ssr:stedsnr" v="856770" />
	</node>
	<node id="-458585" lat="60.577477776" lon="6.77874443965">
		<tag k="fixme" v="consider place=hamlet" />
		<tag k="name" v="Kyrkjeteigen" />
		<tag k="place" v="farm" />
		<tag k="ssr:stedsnr" v="27349" />
	</node>
	<node id="-458581" lat="60.576425002" lon="6.80145277686">
		<tag k="historic" v="shieling" />
		<tag k="name" v="Geituri" />
		<tag k="place" v="locality" />
		<tag k="ssr:stedsnr" v="7869" />
	</node>
	<node id="-459092" lat="60.5743255444" lon="6.69090136473">
		<tag k="name" v="Seim" />
		<tag k="place" v="hamlet" />
		<tag k="ssr:stedsnr" v="917817" />
	</node>
	<node id="-458577" lat="60.5862749997" lon="6.80941943811">
		<tag k="historic" v="shieling" />
		<tag k="name" v="Nyastøl" />
		<tag k="place" v="locality" />
		<tag k="ssr:stedsnr" v="7818" />
	</node>
	<node id="-459088" lat="60.5492787836" lon="6.72747760741">
		<tag k="name" v="Tveiti" />
		<tag k="place" v="locality" />
		<tag k="ssr:stedsnr" v="917744" />
	</node>
	<node id="-458575" lat="60.5340666643" lon="6.63894166983">
		<tag k="historic" v="shieling" />
		<tag k="name" v="Olastøl" />
		<tag k="place" v="locality" />
		<tag k="ssr:stedsnr" v="7789" />
	</node>
	<node id="-459085" lat="60.5888861084" lon="6.78636112034">
		<tag k="historic" v="shieling" />
		<tag k="name" v="Liasete" />
		<tag k="place" v="locality" />
		<tag k="ssr:stedsnr" v="916933" />
	</node>
	<node id="-459084" lat="60.5878000002" lon="6.64900000426">
		<tag k="alt_name" v="Jøre" />
		<tag k="fixme" v="consider place=hamlet" />
		<tag k="name" v="Jørdre" />
		<tag k="place" v="farm" />
		<tag k="ssr:stedsnr" v="916924" />
	</node>
	<node id="-458570" lat="60.5181472254" lon="6.63465278019">
		<tag k="historic" v="shieling" />
		<tag k="name" v="Mikkjelstøl" />
		<tag k="place" v="locality" />
		<tag k="ssr:stedsnr" v="7051" />
	</node>
	<node id="-458569" lat="60.5119861101" lon="6.67373888911">
		<tag k="historic" v="shieling" />
		<tag k="name" v="Steinsete" />
		<tag k="place" v="locality" />
		<tag k="ssr:stedsnr" v="7036" />
	</node>
	<node id="-458568" lat="60.5898834171" lon="6.62798238657">
		<tag k="fixme" v="consider place=hamlet" />
		<tag k="name" v="Moo" />
		<tag k="place" v="farm" />
		<tag k="ssr:stedsnr" v="6945" />
	</node>
	<node id="-458567" lat="60.6005999971" lon="6.82251111771">
		<tag k="historic" v="shieling" />
		<tag k="name" v="Botnen" />
		<tag k="place" v="locality" />
		<tag k="ssr:stedsnr" v="6936" />
	</node>
	<node id="-459078" lat="60.4987233846" lon="6.71774052337">
		<tag k="historic" v="shieling" />
		<tag k="name" v="Bjørndalen" />
		<tag k="place" v="locality" />
		<tag k="ssr:stedsnr" v="915395" />
	</node>
	<node id="-458565" lat="60.5973527779" lon="6.67708056161">
		<tag k="alt_name" v="Skårsstølen" />
		<tag k="historic" v="shieling" />
		<tag k="name" v="Liaset" />
		<tag k="place" v="locality" />
		<tag k="ssr:stedsnr" v="6893" />
	</node>
	<node id="-458550" lat="60.5055426102" lon="6.5850955391">
		<tag k="historic" v="shieling" />
		<tag k="name" v="Holstø" />
		<tag k="place" v="locality" />
		<tag k="ssr:stedsnr" v="983513" />
	</node>
	<node id="-458562" lat="60.543099998" lon="6.69287777329">
		<tag k="fixme" v="consider place=hamlet" />
		<tag k="name" v="Taskjelle" />
		<tag k="place" v="farm" />
		<tag k="ssr:stedsnr" v="6765" />
	</node>
	<node id="-459073" lat="60.5588944491" lon="6.70970556244">
		<tag k="name" v="Bøen" />
		<tag k="place" v="farm" />
		<tag k="ssr:stedsnr" v="857864" />
	</node>
	<node id="-458560" lat="60.4610833359" lon="6.60080555566">
		<tag k="fixme" v="consider place=hamlet" />
		<tag k="name" v="Håstabba" />
		<tag k="place" v="farm" />
		<tag k="ssr:stedsnr" v="5307" />
	</node>
	<node id="-459071" lat="60.5216861154" lon="6.72204721373">
		<tag k="alt_name" v="Ravnestrand;Røynstrond" />
		<tag k="name" v="Røynstrand" />
		<tag k="place" v="hamlet" />
		<tag k="ssr:stedsnr" v="857039" />
	</node>
	<node id="-459070" lat="60.5848652172" lon="6.65993227408">
		<tag k="fixme" v="consider place=hamlet" />
		<tag k="name" v="Nesbøen" />
		<tag k="place" v="farm" />
		<tag k="ssr:stedsnr" v="856855" />
	</node>
	<node id="-458556" lat="60.5762586643" lon="6.687415775">
		<tag k="fixme" v="consider place=hamlet" />
		<tag k="name" v="Øvre Seim" />
		<tag k="place" v="farm" />
		<tag k="ssr:stedsnr" v="987780" />
	</node>
	<node id="-458555" lat="60.5240016997" lon="6.72547880573">
		<tag k="fixme" v="consider place=hamlet" />
		<tag k="name" v="Øvre Røynstrand" />
		<tag k="place" v="farm" />
		<tag k="ssr:stedsnr" v="987779" />
	</node>
	<node id="-458554" lat="60.6290700423" lon="6.68374103501">
		<tag k="name" v="Steinhytta" />
		<tag k="place" v="locality" />
		<tag k="ssr:stedsnr" v="983517" />
	</node>
	<node id="-458553" lat="60.6254713298" lon="6.63921866346">
		<tag k="historic" v="shieling" />
		<tag k="name" v="Nyestølen" />
		<tag k="place" v="locality" />
		<tag k="ssr:stedsnr" v="983516" />
	</node>
	<node id="-458552" lat="60.5981791877" lon="6.64789688924">
		<tag k="historic" v="shieling" />
		<tag k="name" v="Brekketveiti" />
		<tag k="place" v="locality" />
		<tag k="ssr:stedsnr" v="983515" />
	</node>
	<node id="-458551" lat="60.6033766674" lon="6.77497563706">
		<tag k="name" v="Olavsbu" />
		<tag k="place" v="locality" />
		<tag k="ssr:stedsnr" v="983514" />
	</node>
	<node id="-459062" lat="60.5891222178" lon="6.6977055498">
		<tag k="historic" v="shieling" />
		<tag k="name" v="Dale" />
		<tag k="place" v="locality" />
		<tag k="ssr:stedsnr" v="855909" />
	</node>
	<node id="-458549" lat="60.4868309974" lon="6.52956556876">
		<tag k="historic" v="shieling" />
		<tag k="name" v="Herdabreidstølen" />
		<tag k="place" v="locality" />
		<tag k="ssr:stedsnr" v="983482" />
	</node>
	<node id="-458542" lat="60.4912805586" lon="6.69443611421">
		<tag k="historic" v="shieling" />
		<tag k="name" v="Verkadalsstølen" />
		<tag k="place" v="locality" />
		<tag k="ssr:stedsnr" v="888923" />
	</node>
	<node id="-458540" lat="60.5180833312" lon="6.71704167198">
		<tag k="alt_name" v="Røynstrand nedre" />
		<tag k="fixme" v="consider place=hamlet" />
		<tag k="name" v="Nedre Røynstrand" />
		<tag k="place" v="farm" />
		<tag k="ssr:stedsnr" v="888880" />
	</node>
	<node id="-459048" lat="60.5007208204" lon="6.65502933996">
		<tag k="barrier" v="fence" />
		<tag k="name" v="Kleppsligarden" />
		<tag k="ssr:stedsnr" v="828693" />
	</node>
	<node id="-458532" lat="60.6099754209" lon="6.70890261194">
		<tag k="historic" v="shieling" />
		<tag k="name" v="Storlii" />
		<tag k="place" v="locality" />
		<tag k="ssr:stedsnr" v="888816" />
	</node>
	<node id="-459040" lat="60.5773444403" lon="6.67449999905">
		<tag k="fixme" v="consider place=hamlet" />
		<tag k="name" v="Såkvitno" />
		<tag k="place" v="farm" />
		<tag k="ssr:stedsnr" v="796851" />
	</node>
	<node id="-459036" lat="60.5304250027" lon="6.73419166969">
		<tag k="fixme" v="consider place=hamlet" />
		<tag k="name" v="Kjerland" />
		<tag k="place" v="farm" />
		<tag k="ssr:stedsnr" v="796052" />
	</node>
	<node id="-459034" lat="60.5195888888" lon="6.72399999257">
		<tag k="name" v="Nodlen" />
		<tag k="place" v="locality" />
		<tag k="ssr:stedsnr" v="796031" />
	</node>
	<node id="-459033" lat="60.5038944458" lon="6.61372500822">
		<tag k="historic" v="shieling" />
		<tag k="name" v="Helgastøl" />
		<tag k="place" v="locality" />
		<tag k="ssr:stedsnr" v="796026" />
	</node>
	<node id="-459029" lat="60.5876805572" lon="6.76471388221">
		<tag k="historic" v="shieling" />
		<tag k="name" v="Olavstøl" />
		<tag k="place" v="locality" />
		<tag k="ssr:stedsnr" v="795919" />
	</node>
	<node id="-459027" lat="60.5490527751" lon="6.77846666926">
		<tag k="historic" v="shieling" />
		<tag k="name" v="Litlastøl" />
		<tag k="place" v="locality" />
		<tag k="ssr:stedsnr" v="795761" />
	</node>
	<node id="-459025" lat="60.5037703473" lon="6.66989529219">
		<tag k="fixme" v="multiple name tags, choose one and add the other to alt_name" />
		<tag k="historic" v="shieling" />
		<tag k="name" v="Bakkane;Haukanesstølen" />
		<tag k="place" v="locality" />
		<tag k="ssr:stedsnr" v="795027" />
	</node>
	<node id="-459024" lat="60.4713250019" lon="6.60966111909">
		<tag k="alt_name" v="Kvandal" />
		<tag k="fixme" v="consider place=hamlet" />
		<tag k="name" v="Kvanndal" />
		<tag k="place" v="farm" />
		<tag k="ssr:stedsnr" v="794409" />
	</node>
	<node id="-458504" lat="60.5044194426" lon="6.63155277914">
		<tag k="name" v="Granvin Everk" />
		<tag k="place" v="farm" />
		<tag k="ssr:stedsnr" v="402914" />
	</node>
	<node id="-458497" lat="60.4904580578" lon="6.64612370081">
		<tag k="name" v="Brekke" />
		<tag k="place" v="farm" />
		<tag k="ssr:stedsnr" v="402872" />
	</node>
	<node id="-458491" lat="60.5336999978" lon="6.73086389443">
		<tag k="fixme" v="consider place=hamlet" />
		<tag k="name" v="Kollanes" />
		<tag k="place" v="farm" />
		<tag k="ssr:stedsnr" v="371799" />
	</node>
	<node id="-458998" lat="60.5927749981" lon="6.6909694443">
		<tag k="historic" v="shieling" />
		<tag k="name" v="Nyatræet" />
		<tag k="place" v="locality" />
		<tag k="ssr:stedsnr" v="766853" />
	</node>
	<node id="-458997" lat="60.4998861149" lon="6.67719444114">
		<tag k="fixme" v="consider place=hamlet" />
		<tag k="name" v="Haukanes" />
		<tag k="place" v="farm" />
		<tag k="ssr:stedsnr" v="755339" />
	</node>
	<node id="-458483" lat="60.6006777762" lon="6.71100278496">
		<tag k="historic" v="shieling" />
		<tag k="name" v="Skeiset" />
		<tag k="place" v="locality" />
		<tag k="ssr:stedsnr" v="370932" />
	</node>
	<node id="-458992" lat="60.579958331" lon="6.67600833533">
		<tag k="fixme" v="consider place=hamlet" />
		<tag k="name" v="Haugen" />
		<tag k="place" v="farm" />
		<tag k="ssr:stedsnr" v="735830" />
	</node>
	<node id="-458991" lat="60.5776277762" lon="6.75065834195">
		<tag k="name" v="Olavstølen" />
		<tag k="place" v="locality" />
		<tag k="ssr:stedsnr" v="735821" />
	</node>
	<node id="-458478" lat="60.5568888877" lon="6.76250000104">
		<tag k="historic" v="shieling" />
		<tag k="name" v="Heller" />
		<tag k="place" v="locality" />
		<tag k="ssr:stedsnr" v="370792" />
	</node>
	<node id="-458477" lat="60.5430305516" lon="6.72407499917">
		<tag k="fixme" v="consider place=hamlet" />
		<tag k="name" v="Hausnes" />
		<tag k="place" v="farm" />
		<tag k="ssr:stedsnr" v="370770" />
	</node>
	<node id="-458475" lat="60.4898694423" lon="6.64479721989">
		<tag k="fixme" v="consider place=hamlet" />
		<tag k="name" v="Folkedal" />
		<tag k="place" v="village" />
		<tag k="ssr:stedsnr" v="369376" />
	</node>
	<node id="-458983" lat="60.542622225" lon="6.78760834128">
		<tag k="historic" v="shieling" />
		<tag k="name" v="Måvotno" />
		<tag k="place" v="locality" />
		<tag k="ssr:stedsnr" v="735742" />
	</node>
	<node id="-458982" lat="60.5286888919" lon="6.69526944165">
		<tag k="fixme" v="consider place=hamlet" />
		<tag k="name" v="Ystås" />
		<tag k="place" v="farm" />
		<tag k="ssr:stedsnr" v="735054" />
	</node>
	<node id="-458468" lat="60.543266671" lon="6.67780833719">
		<tag k="historic" v="shieling" />
		<tag k="name" v="Øvsta Grjostøl" />
		<tag k="place" v="locality" />
		<tag k="ssr:stedsnr" v="342778" />
	</node>
	<node id="-458466" lat="60.4869805536" lon="6.60171111397">
		<tag k="historic" v="shieling" />
		<tag k="name" v="Langeskår" />
		<tag k="place" v="locality" />
		<tag k="ssr:stedsnr" v="342740" />
	</node>
	<node id="-458465" lat="60.5168916699" lon="6.63596667447">
		<tag k="historic" v="shieling" />
		<tag k="name" v="Nedre Mikkjelstøl" />
		<tag k="place" v="locality" />
		<tag k="ssr:stedsnr" v="342716" />
	</node>
	<node id="-458975" lat="60.6043166692" lon="6.64544722039">
		<tag k="historic" v="shieling" />
		<tag k="name" v="Skaftedalstveiti" />
		<tag k="place" v="locality" />
		<tag k="ssr:stedsnr" v="734873" />
	</node>
	<node id="-458974" lat="60.479550002" lon="6.62623055521">
		<tag k="historic" v="shieling" />
		<tag k="name" v="Håli" />
		<tag k="place" v="locality" />
		<tag k="ssr:stedsnr" v="733389" />
	</node>
	<node id="-458973" lat="60.4554250003" lon="6.57055834009">
		<tag k="fixme" v="consider place=hamlet" />
		<tag k="name" v="Beggevik" />
		<tag k="place" v="farm" />
		<tag k="ssr:stedsnr" v="733231" />
	</node>
	<node id="-458458" lat="60.4723416696" lon="6.59413889386">
		<tag k="historic" v="shieling" />
		<tag k="name" v="Håstabbastølen" />
		<tag k="place" v="locality" />
		<tag k="ssr:stedsnr" v="341910" />
	</node>
	<node id="-458960" lat="60.5675916623" lon="6.7432333328">
		<tag k="name" v="Allmenningane" />
		<tag k="place" v="locality" />
		<tag k="ssr:stedsnr" v="706763" />
	</node>
	<node id="-458959" lat="60.4952083315" lon="6.65116389474">
		<tag k="historic" v="shieling" />
		<tag k="name" v="Kleppe" />
		<tag k="place" v="locality" />
		<tag k="ssr:stedsnr" v="706753" />
	</node>
	<node id="-458446" lat="60.5506694485" lon="6.80022499892">
		<tag k="historic" v="shieling" />
		<tag k="name" v="Vatnasete" />
		<tag k="place" v="locality" />
		<tag k="ssr:stedsnr" v="310768" />
	</node>
	<node id="-458445" lat="60.5416222224" lon="6.67761111554">
		<tag k="historic" v="shieling" />
		<tag k="name" v="Grjostøl" />
		<tag k="place" v="locality" />
		<tag k="ssr:stedsnr" v="310760" />
	</node>
	<node id="-458444" lat="60.5315250036" lon="6.72053889271">
		<tag k="fixme" v="consider place=hamlet" />
		<tag k="name" v="Nestås" />
		<tag k="place" v="farm" />
		<tag k="ssr:stedsnr" v="310059" />
	</node>
	<node id="-458439" lat="60.5846296934" lon="6.67119566691">
		<tag k="name" v="Spildo" />
		<tag k="place" v="hamlet" />
		<tag k="ssr:stedsnr" v="309918" />
	</node>
	<node id="-458947" lat="60.4945111138" lon="6.63946111701">
		<tag k="alt_name" v="Hessjiljane" />
		<tag k="name" v="Hesgiljane" />
		<tag k="place" v="farm" />
		<tag k="ssr:stedsnr" v="705866" />
	</node>
	<node id="-458434" lat="60.4581527797" lon="6.54210833616">
		<tag k="fixme" v="consider place=hamlet" />
		<tag k="name" v="Lussand" />
		<tag k="place" v="farm" />
		<tag k="ssr:stedsnr" v="308171" />
	</node>
	<node id="-458944" lat="60.5612055531" lon="6.7082999974">
		<tag k="fixme" v="consider place=hamlet" />
		<tag k="name" v="Nesheim" />
		<tag k="place" v="farm" />
		<tag k="ssr:stedsnr" v="674860" />
	</node>
	<node id="-458431" lat="60.4601138907" lon="6.58876110808">
		<tag k="historic" v="shieling" />
		<tag k="name" v="Litlastøl" />
		<tag k="place" v="locality" />
		<tag k="ssr:stedsnr" v="281925" />
	</node>
	<node id="-458937" lat="60.5536999997" lon="6.74493056239">
		<tag k="fixme" v="consider place=hamlet" />
		<tag k="name" v="Velkje" />
		<tag k="place" v="farm" />
		<tag k="ssr:stedsnr" v="674772" />
	</node>
	<node id="-458936" lat="60.5232472181" lon="6.71611943831">
		<tag k="name" v="Eide" />
		<tag k="place" v="hamlet" />
		<tag k="ssr:stedsnr" v="674036" />
	</node>
	<node id="-458934" lat="60.5196999988" lon="6.76455276946">
		<tag k="historic" v="shieling" />
		<tag k="name" v="Stokksel" />
		<tag k="place" v="locality" />
		<tag k="ssr:stedsnr" v="674028" />
	</node>
	<node id="-458611" lat="60.5441305599" lon="6.70402222647">
		<tag k="name" v="Sellandsteigen" />
		<tag k="old_name" v="Grimsteigen" />
		<tag k="place" v="farm" />
		<tag k="ssr:stedsnr" v="67759" />
	</node>
	<node id="-458927" lat="60.4772249972" lon="6.54441389257">
		<tag k="historic" v="shieling" />
		<tag k="name" v="Fossdalen" />
		<tag k="place" v="locality" />
		<tag k="ssr:stedsnr" v="672199" />
	</node>
	<node id="-458915" lat="60.4858750039" lon="6.59471388732">
		<tag k="historic" v="shieling" />
		<tag k="name" v="Tveita" />
		<tag k="place" v="locality" />
		<tag k="ssr:stedsnr" v="645759" />
	</node>
	<node id="-458903" lat="60.490713885" lon="6.64984166762">
		<tag k="name" v="Leite" />
		<tag k="place" v="farm" />
		<tag k="ssr:stedsnr" v="644856" />
	</node>
	<node id="-458901" lat="60.4917055591" lon="6.69418054999">
		<tag k="historic" v="shieling" />
		<tag k="name" v="Verkadalen" />
		<tag k="place" v="locality" />
		<tag k="ssr:stedsnr" v="628217" />
	</node>
	<node id="-458889" lat="60.5342361151" lon="6.69347499604">
		<tag k="fixme" v="consider place=hamlet" />
		<tag k="name" v="Havås" />
		<tag k="place" v="farm" />
		<tag k="ssr:stedsnr" v="613790" />
	</node>
	<node id="-458884" lat="60.5408999994" lon="6.77093333138">
		<tag k="historic" v="shieling" />
		<tag k="name" v="Årsklov" />
		<tag k="place" v="locality" />
		<tag k="ssr:stedsnr" v="613739" />
	</node>
	<node id="-458882" lat="60.5330173511" lon="6.74778327343">
		<tag k="fixme" v="consider place=hamlet" />
		<tag k="name" v="Tveito" />
		<tag k="place" v="farm" />
		<tag k="ssr:stedsnr" v="613061" />
	</node>
	<node id="-458878" lat="60.6089111128" lon="6.733769453">
		<tag k="historic" v="shieling" />
		<tag k="name" v="Odden" />
		<tag k="place" v="locality" />
		<tag k="ssr:stedsnr" v="612873" />
	</node>
	<node id="-458995" lat="60.5967833344" lon="6.79993611552">
		<tag k="historic" v="shieling" />
		<tag k="name" v="Nuten" />
		<tag k="place" v="locality" />
		<tag k="ssr:stedsnr" v="749145" />
	</node>
	<node id="-458857" lat="60.489235527" lon="6.64690224032">
		<tag k="alt_name" v="Folkedal, nedre" />
		<tag k="fixme" v="consider place=hamlet" />
		<tag k="name" v="Nedre Folkedal" />
		<tag k="place" v="farm" />
		<tag k="ssr:stedsnr" v="584856" />
	</node>
	<node id="-458977" lat="60.6193694442" lon="6.64034443998">
		<tag k="historic" v="shieling" />
		<tag k="name" v="Latebakken" />
		<tag k="place" v="locality" />
		<tag k="ssr:stedsnr" v="734894" />
	</node>
	<node id="-458847" lat="60.5211194437" lon="6.78684722724">
		<tag k="historic" v="shieling" />
		<tag k="name" v="Skaret" />
		<tag k="place" v="locality" />
		<tag k="ssr:stedsnr" v="567140" />
	</node>
	<node id="-458839" lat="60.5223305578" lon="6.68111111553">
		<tag k="historic" v="shieling" />
		<tag k="name" v="Liasete" />
		<tag k="place" v="locality" />
		<tag k="ssr:stedsnr" v="553055" />
	</node>
	<node id="-458833" lat="60.5395611156" lon="6.70009445277">
		<tag k="fixme" v="consider place=hamlet" />
		<tag k="name" v="Selland" />
		<tag k="place" v="farm" />
		<tag k="ssr:stedsnr" v="552823" />
	</node>
	<node id="-458827" lat="60.5922999984" lon="6.6803694513">
		<tag k="fixme" v="consider place=hamlet" />
		<tag k="name" v="Skår" />
		<tag k="place" v="farm" />
		<tag k="ssr:stedsnr" v="551914" />
	</node>
	<node id="-458825" lat="60.4801861148" lon="6.65867500686">
		<tag k="fixme" v="consider place=hamlet" />
		<tag k="name" v="Hamre" />
		<tag k="place" v="farm" />
		<tag k="ssr:stedsnr" v="551417" />
	</node>
	<node id="-458823" lat="60.4809111136" lon="6.57913610393">
		<tag k="alt_name" v="Kvandalsstølen" />
		<tag k="historic" v="shieling" />
		<tag k="name" v="Kvanndalsstølen" />
		<tag k="place" v="locality" />
		<tag k="ssr:stedsnr" v="551229" />
	</node>
	<node id="-458821" lat="60.4639027737" lon="6.5503333333">
		<tag k="historic" v="shieling" />
		<tag k="name" v="Helleren" />
		<tag k="place" v="locality" />
		<tag k="ssr:stedsnr" v="551202" />
	</node>
	<node id="-458812" lat="60.5076826835" lon="6.67195847977">
		<tag k="historic" v="shieling" />
		<tag k="name" v="Eidesskori" />
		<tag k="place" v="locality" />
		<tag k="ssr:stedsnr" v="523938" />
	</node>
	<node id="-458803" lat="60.5747361075" lon="6.77040554748">
		<tag k="historic" v="shieling" />
		<tag k="name" v="Litlastøl" />
		<tag k="place" v="locality" />
		<tag k="ssr:stedsnr" v="507124" />
	</node>
	<node id="-458801" lat="60.6251916707" lon="6.65564444464">
		<tag k="historic" v="shieling" />
		<tag k="name" v="Skytjeset" />
		<tag k="place" v="locality" />
		<tag k="ssr:stedsnr" v="492884" />
	</node>
	<node id="-458798" lat="60.5664111068" lon="6.72521667026">
		<tag k="name" v="Flætene" />
		<tag k="place" v="farm" />
		<tag k="ssr:stedsnr" v="492844" />
	</node>
	<node id="-458796" lat="60.5800750041" lon="6.77723055013">
		<tag k="fixme" v="consider place=hamlet" />
		<tag k="name" v="Dale" />
		<tag k="place" v="farm" />
		<tag k="ssr:stedsnr" v="492826" />
	</node>
	<node id="-458794" lat="60.5420805541" lon="6.64162221356">
		<tag k="historic" v="shieling" />
		<tag k="name" v="Nyastøl" />
		<tag k="place" v="locality" />
		<tag k="ssr:stedsnr" v="492743" />
	</node>
	<node id="-458793" lat="60.5487009808" lon="6.73797509789">
		<tag k="alt_name" v="Vinddal" />
		<tag k="fixme" v="consider place=hamlet" />
		<tag k="name" v="Vindal" />
		<tag k="place" v="farm" />
		<tag k="ssr:stedsnr" v="492738" />
	</node>
	<node id="-458929" lat="60.469625003" lon="6.64436944512">
		<tag k="name" v="Teigen" />
		<tag k="place" v="locality" />
		<tag k="ssr:stedsnr" v="673436" />
	</node>
	<node id="-458786" lat="60.5865576777" lon="6.65585199337">
		<tag k="fixme" v="consider place=hamlet" />
		<tag k="name" v="Klyve" />
		<tag k="place" v="farm" />
		<tag k="ssr:stedsnr" v="491915" />
	</node>
	<node id="-458784" lat="60.5977055569" lon="6.63496666529">
		<tag k="fixme" v="consider place=hamlet" />
		<tag k="name" v="Skaftedal" />
		<tag k="place" v="farm" />
		<tag k="ssr:stedsnr" v="491886" />
	</node>
	<node id="-459097" lat="60.552650004" lon="6.6351194488">
		<tag k="historic" v="shieling" />
		<tag k="name" v="Horgastølen" />
		<tag k="place" v="locality" />
		<tag k="ssr:stedsnr" v="932131" />
	</node>
	<node id="-458769" lat="60.5604833331" lon="6.72792221973">
		<tag k="fixme" v="consider place=hamlet" />
		<tag k="name" v="Trå" />
		<tag k="place" v="farm" />
		<tag k="ssr:stedsnr" v="463859" />
	</node>
	<node id="-458758" lat="60.5818388854" lon="6.6335472306">
		<tag k="historic" v="shieling" />
		<tag k="name" v="Solbjørgo" />
		<tag k="place" v="locality" />
		<tag k="ssr:stedsnr" v="463777" />
	</node>
	<node id="-458755" lat="60.5935027794" lon="6.81095554825">
		<tag k="historic" v="shieling" />
		<tag k="name" v="Espelandsstølen" />
		<tag k="place" v="locality" />
		<tag k="ssr:stedsnr" v="432918" />
	</node>
</osm>
