<?xml version="1.0" encoding="UTF-8"?>
<osm generator="osmapis" version="0.6">
	<node id="-459006" lat="60.47689167" lon="6.65466667475">
		<tag k="name" v="Geilaviki" />
		<tag k="natural" v="bay" />
		<tag k="old_name" v="Geilavika" />
		<tag k="ssr:stedsnr" v="766932" />
	</node>
	<node id="-458748" lat="60.5156527774" lon="6.70855278297">
		<tag k="name" v="Furenes" />
		<tag k="natural" v="cape" />
		<tag k="ssr:stedsnr" v="432030" />
	</node>
	<node id="-458609" lat="60.4756722187" lon="6.65017499314">
		<tag k="bay" v="fjord" />
		<tag k="name" v="Granvinsfjorden" />
		<tag k="natural" v="bay" />
		<tag k="ssr:stedsnr" v="66402" />
	</node>
	<node id="-458608" lat="60.4964972238" lon="6.68892776888">
		<tag k="name" v="Djupeviki" />
		<tag k="natural" v="bay" />
		<tag k="ssr:stedsnr" v="66393" />
	</node>
	<node id="-459119" lat="60.5134083312" lon="6.69186110608">
		<tag k="name" v="Vossaholet" />
		<tag k="natural" v="bay" />
		<tag k="old_name" v="Vosseholet" />
		<tag k="ssr:stedsnr" v="954525" />
	</node>
	<node id="-458476" lat="60.4757944469" lon="6.63524444794">
		<tag k="name" v="Sauaneset" />
		<tag k="natural" v="cape" />
		<tag k="ssr:stedsnr" v="369378" />
	</node>
	<node id="-458603" lat="60.4516611118" lon="6.50948332823">
		<tag k="name" v="Lussandstrondi" />
		<tag k="natural" v="beach" />
		<tag k="place" v="locality" />
		<tag k="ssr:stedsnr" v="44227" />
	</node>
	<node id="-458474" lat="60.4464000018" lon="6.50121388668">
		<tag k="alt_name" v="Uraneset" />
		<tag k="name" v="Uranes" />
		<tag k="natural" v="cape" />
		<tag k="old_name" v="Urdanes" />
		<tag k="ssr:stedsnr" v="369222" />
	</node>
	<node id="-459104" lat="60.4964343576" lon="6.67137584507">
		<tag k="name" v="Haukanesneset" />
		<tag k="natural" v="cape" />
		<tag k="ssr:stedsnr" v="948942" />
	</node>
	<node id="-458461" lat="60.463463885" lon="6.60640000796">
		<tag k="name" v="Saltskår" />
		<tag k="natural" v="cape" />
		<tag k="ssr:stedsnr" v="341931" />
	</node>
	<node id="-458459" lat="60.5057388882" lon="6.68741943828">
		<tag k="name" v="Storenes" />
		<tag k="natural" v="cape" />
		<tag k="ssr:stedsnr" v="341914" />
	</node>
	<node id="-458969" lat="60.4974722221" lon="6.67318056238">
		<tag k="name" v="Ytrabøneset" />
		<tag k="natural" v="cape" />
		<tag k="ssr:stedsnr" v="711519" />
	</node>
	<node id="-458455" lat="60.5212361141" lon="6.70862499652">
		<tag k="alt_name" v="Hamnaneset" />
		<tag k="name" v="Havnanes" />
		<tag k="natural" v="cape" />
		<tag k="ssr:stedsnr" v="341900" />
	</node>
	<node id="-458809" lat="60.4554277799" lon="6.54902778438">
		<tag k="name" v="Golten" />
		<tag k="natural" v="cape" />
		<tag k="ssr:stedsnr" v="523897" />
	</node>
	<node id="-458452" lat="60.4908833351" lon="6.65584721685">
		<tag k="alt_name" v="Kaltangen" />
		<tag k="name" v="Kalvatangen" />
		<tag k="natural" v="cape" />
		<tag k="ssr:stedsnr" v="341869" />
	</node>
	<node id="-458707" lat="60.5016222249" lon="6.67934166175">
		<tag k="name" v="Salbuviki" />
		<tag k="natural" v="bay" />
		<tag k="old_name" v="Salbuvik" />
		<tag k="ssr:stedsnr" v="220901" />
	</node>
	<node id="-458955" lat="60.4443972202" lon="6.52564167414">
		<tag k="bay" v="fjord" />
		<tag k="name" v="Indre Samlafjorden" />
		<tag k="natural" v="bay" />
		<tag k="ssr:stedsnr" v="705926" />
	</node>
	<node id="-458954" lat="60.4997444412" lon="6.67799444064">
		<tag k="name" v="Haukanes" />
		<tag k="natural" v="cape" />
		<tag k="ssr:stedsnr" v="705907" />
	</node>
	<node id="-459080" lat="60.4589722179" lon="6.60212778123">
		<tag k="name" v="Håstabbaneset" />
		<tag k="natural" v="cape" />
		<tag k="ssr:stedsnr" v="916345" />
	</node>
	<node id="-459079" lat="60.4460574948" lon="6.49546755965">
		<tag k="name" v="Urdaviki" />
		<tag k="natural" v="bay" />
		<tag k="ssr:stedsnr" v="916249" />
	</node>
	<node id="-458819" lat="60.517025004" lon="6.7109166638">
		<tag k="name" v="Gryteviki" />
		<tag k="natural" v="bay" />
		<tag k="old_name" v="Grytevik" />
		<tag k="ssr:stedsnr" v="529513" />
	</node>
	<node id="-458946" lat="60.4829166673" lon="6.64719722127">
		<tag k="alt_name" v="Fisk" />
		<tag k="name" v="Fiskarnes" />
		<tag k="natural" v="cape" />
		<tag k="ssr:stedsnr" v="705863" />
	</node>
	<node id="-458429" lat="60.4546500012" lon="6.5593499969">
		<tag k="fixme" v="consider seamark:type=rock or natural=shoal" />
		<tag k="loc_name" v="Bjørgaskjer" />
		<tag k="name" v="Bjørgaskjær" />
		<tag k="place" v="islet" />
		<tag k="ssr:stedsnr" v="281920" />
	</node>
	<node id="-458428" lat="60.4546277743" lon="6.57288888896">
		<tag k="name" v="Høneviknes" />
		<tag k="natural" v="cape" />
		<tag k="ssr:stedsnr" v="281917" />
	</node>
	<node id="-459065" lat="60.507619025" lon="6.699857644">
		<tag k="name" v="Arnes" />
		<tag k="natural" v="cape" />
		<tag k="ssr:stedsnr" v="856032" />
	</node>
	<node id="-458935" lat="60.5187333311" lon="6.69904444671">
		<tag k="name" v="Veraviki" />
		<tag k="natural" v="bay" />
		<tag k="ssr:stedsnr" v="674032" />
	</node>
	<node id="-458678" lat="60.4941166692" lon="6.67746389188">
		<tag k="alt_name" v="Startanes" />
		<tag k="name" v="Startaneset" />
		<tag k="natural" v="cape" />
		<tag k="ssr:stedsnr" v="187397" />
	</node>
	<node id="-458674" lat="60.521730558" lon="6.71610833006">
		<tag k="name" v="Toresbryggja" />
		<tag k="natural" v="cape" />
		<tag k="ssr:stedsnr" v="165604" />
	</node>
	<node id="-459057" lat="60.4947583292" lon="6.66174166407">
		<tag k="name" v="Bergskro" />
		<tag k="natural" v="cape" />
		<tag k="ssr:stedsnr" v="833538" />
	</node>
	<node id="-458544" lat="60.4579749991" lon="6.53555833304">
		<tag k="name" v="Lussandviki" />
		<tag k="natural" v="bay" />
		<tag k="old_name" v="Lussandvik" />
		<tag k="ssr:stedsnr" v="894231" />
	</node>
	<node id="-458925" lat="60.4952277766" lon="6.66400277631">
		<tag k="name" v="Rysseviki" />
		<tag k="natural" v="bay" />
		<tag k="old_name" v="Rysevik" />
		<tag k="ssr:stedsnr" v="650484" />
	</node>
	<node id="-458503" lat="60.4551749999" lon="6.54622777656">
		<tag k="name" v="Neset" />
		<tag k="natural" v="cape" />
		<tag k="ssr:stedsnr" v="402905" />
	</node>
	<node id="-458661" lat="60.4553777809" lon="6.5476166747">
		<tag k="name" v="Båtonnshola" />
		<tag k="natural" v="bay" />
		<tag k="ssr:stedsnr" v="159904" />
	</node>
	<node id="-459043" lat="60.495311114" lon="6.68110832469">
		<tag k="name" v="Henriksvika" />
		<tag k="natural" v="bay" />
		<tag k="ssr:stedsnr" v="827868" />
	</node>
	<node id="-459042" lat="60.4587694462" lon="6.6027611043">
		<tag k="alt_name" v="Håstabbanes" />
		<tag k="name" v="Håstabbenes" />
		<tag k="natural" v="cape" />
		<tag k="ssr:stedsnr" v="817793" />
	</node>
	<node id="-458910" lat="60.5041500029" lon="6.69695278041">
		<tag k="name" v="Selstå" />
		<tag k="natural" v="bay" />
		<tag k="ssr:stedsnr" v="644937" />
	</node>
	<node id="-459035" lat="60.5059444433" lon="6.68679166203">
		<tag k="name" v="Stavanes" />
		<tag k="natural" v="cape" />
		<tag k="ssr:stedsnr" v="796036" />
	</node>
	<node id="-458906" lat="60.455816669" lon="6.55022777618">
		<tag k="name" v="Djupeviki" />
		<tag k="natural" v="bay" />
		<tag k="old_name" v="Djupevik" />
		<tag k="ssr:stedsnr" v="644903" />
	</node>
	<node id="-458649" lat="60.4915611071" lon="6.67731944792">
		<tag k="name" v="Ørreviki" />
		<tag k="natural" v="bay" />
		<tag k="ssr:stedsnr" v="126419" />
	</node>
	<node id="-458648" lat="60.4845416644" lon="6.66107500908">
		<tag k="name" v="Snilsneset" />
		<tag k="natural" v="cape" />
		<tag k="ssr:stedsnr" v="126408" />
	</node>
	<node id="-458777" lat="60.4755583339" lon="6.6319500023">
		<tag k="name" v="Skakkakjeft" />
		<tag k="natural" v="cape" />
		<tag k="ssr:stedsnr" v="468500" />
	</node>
	<node id="-458604" lat="60.4709194478" lon="6.61457776987">
		<tag k="name" v="Kvanndalsbukti" />
		<tag k="natural" v="bay" />
		<tag k="old_name" v="Kvanndalsbukt" />
		<tag k="ssr:stedsnr" v="44228" />
	</node>
</osm>
