<?xml version="1.0" encoding="UTF-8"?>
<osm generator="osmapis" version="0.6">
	<node id="-459643" lat="60.5729722194" lon="6.69558889434">
		<tag k="layer" v="-1" />
		<tag k="name" v="Jobergtunnelen" />
		<tag k="ssr:stedsnr" v="788266" />
		<tag k="tunnel" v="yes" />
	</node>
	<node id="-459511" lat="60.556769448" lon="6.82217499294">
		<tag k="highway" v="path" />
		<tag k="name" v="Angerskleiv" />
		<tag k="ssr:stedsnr" v="613765" />
	</node>
	<node id="-459113" lat="60.5322192222" lon="6.78692263239">
		<tag k="man_made" v="cairn" />
		<tag k="name" v="Middagsvarden" />
		<tag k="place" v="locality" />
		<tag k="ssr:stedsnr" v="371048" />
	</node>
	<node id="-459499" lat="60.5754111155" lon="6.65521110545">
		<tag k="layer" v="-1" />
		<tag k="name" v="Tunsbergtunnelen" />
		<tag k="ssr:stedsnr" v="602585" />
		<tag k="tunnel" v="yes" />
	</node>
	<node id="-459498" lat="60.4566722186" lon="6.58146388074">
		<tag k="bridge" v="yes" />
		<tag k="layer" v="1" />
		<tag k="name" v="Hagen" />
		<tag k="ssr:stedsnr" v="592864" />
	</node>
	<node id="-459497" lat="60.4578111074" lon="6.52758056483">
		<tag k="bridge" v="yes" />
		<tag k="layer" v="1" />
		<tag k="name" v="Sagelv" />
		<tag k="ssr:stedsnr" v="592840" />
	</node>
	<node id="-459745" lat="60.487955557" lon="6.64832500031">
		<tag k="bridge" v="yes" />
		<tag k="layer" v="1" />
		<tag k="name" v="Folkedal" />
		<tag k="ssr:stedsnr" v="957815" />
	</node>
	<node id="-459231" lat="60.5861000013" lon="6.63752499212">
		<tag k="bridge" v="yes" />
		<tag k="layer" v="1" />
		<tag k="name" v="Skjervet" />
		<tag k="ssr:stedsnr" v="46806" />
	</node>
	<node id="-459097" lat="60.4964249994" lon="6.66772777892">
		<tag k="bridge" v="yes" />
		<tag k="layer" v="1" />
		<tag k="name" v="Haukanesberget" />
		<tag k="ssr:stedsnr" v="350802" />
	</node>
	<node id="-459096" lat="60.5716722248" lon="6.69042500641">
		<tag k="bridge" v="yes" />
		<tag k="layer" v="1" />
		<tag k="name" v="Seims" />
		<tag k="ssr:stedsnr" v="349814" />
	</node>
	<node id="-459684" lat="60.5258222191" lon="6.72075832965">
		<tag k="bridge" v="yes" />
		<tag k="layer" v="1" />
		<tag k="name" v="Eide" />
		<tag k="ssr:stedsnr" v="836818" />
	</node>
	<node id="-459345" lat="60.5779388873" lon="6.67949999461">
		<tag k="bridge" v="yes" />
		<tag k="layer" v="1" />
		<tag k="name" v="Skorvo" />
		<tag k="ssr:stedsnr" v="228821" />
	</node>
	<node id="-459596" lat="60.4720249958" lon="6.61268611441">
		<tag k="amenity" v="ferry_terminal" />
		<tag k="name" v="Kvanndal ferjekai" />
		<tag k="ssr:stedsnr" v="714806" />
	</node>
	<node id="-459595" lat="60.5550711172" lon="6.73028546463">
		<tag k="bridge" v="yes" />
		<tag k="layer" v="1" />
		<tag k="name" v="Kyrkje-Elv" />
		<tag k="ssr:stedsnr" v="713805" />
	</node>
	<node id="-459300" lat="60.5951750027" lon="6.82207222384">
		<tag k="bridge" v="yes" />
		<tag k="layer" v="1" />
		<tag k="name" v="Espeland" />
		<tag k="ssr:stedsnr" v="168809" />
	</node>
	<node id="-459147" lat="60.4474638848" lon="6.50024721479">
		<tag k="bridge" v="yes" />
		<tag k="layer" v="1" />
		<tag k="name" v="Urelva" />
		<tag k="ssr:stedsnr" v="410783" />
	</node>
	<node id="-459445" lat="60.5771611128" lon="6.68045554837">
		<tag k="bridge" v="yes" />
		<tag k="layer" v="1" />
		<tag k="name" v="Kvernbekk" />
		<tag k="ssr:stedsnr" v="532790" />
	</node>
	<node id="-459573" lat="60.4845777758" lon="6.68483334167">
		<tag k="highway" v="path" />
		<tag k="name" v="Bjønnstien" />
		<tag k="ssr:stedsnr" v="705868" />
	</node>
	<node id="-459057" lat="60.5370750031" lon="6.72995833346">
		<tag k="layer" v="-1" />
		<tag k="name" v="Gullhammar" />
		<tag k="ssr:stedsnr" v="287506" />
		<tag k="tunnel" v="yes" />
	</node>
	<node id="-459172" lat="60.5026805586" lon="6.68075554906">
		<tag k="bridge" v="yes" />
		<tag k="layer" v="1" />
		<tag k="name" v="Haukanes" />
		<tag k="ssr:stedsnr" v="896846" />
	</node>
	<node id="-459683" lat="60.4706611118" lon="6.60854167232">
		<tag k="bridge" v="yes" />
		<tag k="layer" v="1" />
		<tag k="name" v="Kvanndal" />
		<tag k="ssr:stedsnr" v="836812" />
	</node>
	<node id="-459171" lat="60.4640250006" lon="6.60611667553">
		<tag k="bridge" v="yes" />
		<tag k="layer" v="1" />
		<tag k="name" v="Saltskår" />
		<tag k="ssr:stedsnr" v="896833" />
	</node>
	<node id="-459169" lat="60.5861722244" lon="6.61046945068">
		<tag k="bridge" v="yes" />
		<tag k="layer" v="1" />
		<tag k="name" v="Svelgane Nedre" />
		<tag k="ssr:stedsnr" v="896828" />
	</node>
	<node id="-459551" lat="60.4585694429" lon="6.53277499344">
		<tag k="bridge" v="yes" />
		<tag k="layer" v="1" />
		<tag k="name" v="Jøtto" />
		<tag k="ssr:stedsnr" v="653831" />
	</node>
	<node id="-459294" lat="60.5447777807" lon="6.68294166976">
		<tag k="highway" v="path" />
		<tag k="name" v="Jennstegane" />
		<tag k="ssr:stedsnr" v="160772" />
	</node>
	<node id="-459549" lat="60.4560722233" lon="6.55180277424">
		<tag k="layer" v="-1" />
		<tag k="name" v="Lussand" />
		<tag k="ssr:stedsnr" v="650294" />
		<tag k="tunnel" v="yes" />
	</node>
	<node id="-459284" lat="60.5441833296" lon="6.664327771">
		<tag k="highway" v="path" />
		<tag k="name" v="Midtstien" />
		<tag k="ssr:stedsnr" v="159870" />
	</node>
	<node id="-459283" lat="60.5457833374" lon="6.67095278024">
		<tag k="highway" v="path" />
		<tag k="name" v="Horgastien" />
		<tag k="ssr:stedsnr" v="159869" />
	</node>
	<node id="-459282" lat="60.5124305535" lon="6.7772055505">
		<tag k="alt_name" v="Vallavik" />
		<tag k="layer" v="-1" />
		<tag k="name" v="Vallaviktunnelen" />
		<tag k="ssr:stedsnr" v="148354" />
		<tag k="tunnel" v="yes" />
	</node>
	<node id="-459662" lat="60.5285546269" lon="6.76788591968">
		<tag k="man_made" v="cairn" />
		<tag k="name" v="Kyrkja" />
		<tag k="place" v="locality" />
		<tag k="ssr:stedsnr" v="796054" />
	</node>
	<node id="-459148" lat="60.4702583371" lon="6.60789722346">
		<tag k="bridge" v="yes" />
		<tag k="layer" v="1" />
		<tag k="name" v="Kvanndal Flomløp" />
		<tag k="ssr:stedsnr" v="411783" />
	</node>
	<node id="-459403" lat="60.5589357519" lon="6.72834985073">
		<tag k="bridge" v="yes" />
		<tag k="layer" v="1" />
		<tag k="name" v="Trå" />
		<tag k="ssr:stedsnr" v="470792" />
	</node>
	<node id="-459170" lat="60.5619250036" lon="6.73251666587">
		<tag k="bridge" v="yes" />
		<tag k="layer" v="1" />
		<tag k="name" v="Trågjel" />
		<tag k="ssr:stedsnr" v="896830" />
	</node>
	<node id="-459267" lat="60.5295111149" lon="6.72823611389">
		<tag k="bridge" v="yes" />
		<tag k="layer" v="1" />
		<tag k="name" v="Hyrpo" />
		<tag k="ssr:stedsnr" v="107823" />
	</node>
	<node id="-459266" lat="60.4583833312" lon="6.59235278595">
		<tag k="bridge" v="yes" />
		<tag k="layer" v="1" />
		<tag k="name" v="Naustvik" />
		<tag k="ssr:stedsnr" v="107807" />
	</node>
	<node id="-459265" lat="60.5460472236" lon="6.64867223001">
		<tag k="highway" v="path" />
		<tag k="name" v="Nautastien" />
		<tag k="ssr:stedsnr" v="99940" />
	</node>
</osm>
