<?xml version="1.0" encoding="UTF-8"?>
<osm generator="osmapis" version="0.6">
	<node id="-458512" lat="60.4954138902" lon="6.65888610734">
		<tag k="fixme" v="consider boundary=protected_area and relevant protect_class if not nature reserve" />
		<tag k="leisure" v="nature_reserve" />
		<tag k="name" v="Folkedal naturreservat" />
		<tag k="ssr:stedsnr" v="403755" />
	</node>
	<node id="-459116" lat="60.4513249973" lon="6.50047777377">
		<tag k="fixme" v="consider boundary=protected_area and relevant protect_class if not nature reserve" />
		<tag k="leisure" v="nature_reserve" />
		<tag k="name" v="Uranes naturreservat" />
		<tag k="ssr:stedsnr" v="949822" />
	</node>
	<node id="-459053" lat="60.5667916674" lon="6.70014445221">
		<tag k="fixme" v="consider boundary=protected_area and relevant protect_class if not nature reserve" />
		<tag k="leisure" v="nature_reserve" />
		<tag k="name" v="Granvindeltaet" />
		<tag k="ssr:stedsnr" v="828729" />
	</node>
	<node id="-458516" lat="60.4660388847" lon="6.60148055661">
		<tag k="fixme" v="consider boundary=protected_area and relevant protect_class if not nature reserve" />
		<tag k="leisure" v="nature_reserve" />
		<tag k="name" v="Kvandal naturreservat" />
		<tag k="ssr:stedsnr" v="403776" />
	</node>
	<node id="-459045" lat="60.5726999979" lon="6.71162222524">
		<tag k="fixme" v="consider boundary=protected_area and relevant protect_class if not nature reserve" />
		<tag k="leisure" v="nature_reserve" />
		<tag k="name" v="Joberget naturreservat" />
		<tag k="old_name" v="Jordberget naturreservat" />
		<tag k="ssr:stedsnr" v="827884" />
	</node>
</osm>
