<?xml version="1.0" encoding="UTF-8"?>
<<<<<<< HEAD
<osm version="0.6" generator="osmapis">
	<node lat="62.5579749975633" lon="6.103838881545534" id="-5821">
		<tag k="aeroway" v="aerodrome" />
		<tag k="alt_name" v="Vigra" />
		<tag k="name" v="Ålesund lufthavn, Vigra" />
		<tag k="old_name" v="Ålesund lufthavn" />
		<tag k="ssr:stedsnr" v="254761" />
	</node>
	<node lat="62.50898333001819" lon="6.104388879801768" id="-5849">
		<tag k="bridge" v="yes" />
		<tag k="layer" v="1" />
		<tag k="name" v="Ytterlandsbrua" />
		<tag k="ssr:stedsnr" v="452336" />
	</node>
	<node lat="62.5076000013959" lon="6.0812916738813" id="-5850">
		<tag k="bridge" v="yes" />
		<tag k="layer" v="1" />
		<tag k="name" v="Giskebrua" />
		<tag k="ssr:stedsnr" v="452347" />
	</node>
	<node lat="62.581233337518164" lon="6.126622228000256" id="-5864">
		<tag k="landuse" v="harbour" />
		<tag k="name" v="Roald hamn" />
		<tag k="seamark:type" v="harbour" />
		<tag k="ssr:stedsnr" v="460163" />
	</node>
	<node lat="62.507518193542985" lon="6.104207413789553" id="-5886">
		<tag k="layer" v="-1" />
		<tag k="name" v="Austre Ytterlandsundergangen" />
		<tag k="ssr:stedsnr" v="330360" />
		<tag k="tunnel" v="yes" />
	</node>
	<node lat="62.556805554918974" lon="6.120675002219559" id="-5982">
=======
<osm generator="osmapis" version="0.6">
	<node id="-71296" lat="62.482166213" lon="5.97495033237">
		<tag k="highway" v="path" />
		<tag k="name" v="Alnesfjellvegen" />
		<tag k="ssr:stedsnr" v="973240" />
	</node>
	<node id="-71155" lat="62.5568055549" lon="6.12067500222">
>>>>>>> e1d4bc35ff8a6074a6f2e91616a996b547c36f15
		<tag k="highway" v="path" />
		<tag k="name" v="Stirema" />
		<tag k="ssr:stedsnr" v="581948" />
	</node>
<<<<<<< HEAD
	<node lat="62.528316667615414" lon="6.114230564393737" id="-6030">
		<tag k="bridge" v="yes" />
		<tag k="layer" v="1" />
		<tag k="name" v="Røysebrua" />
		<tag k="ssr:stedsnr" v="694303" />
	</node>
	<node lat="62.48460009985923" lon="5.977846601208212" id="-6115">
		<tag k="highway" v="path" />
		<tag k="name" v="Geilane" />
		<tag k="ssr:stedsnr" v="973350" />
	</node>
	<node lat="62.53116389249462" lon="6.119455560043171" id="-6123">
		<tag k="bridge" v="yes" />
		<tag k="layer" v="1" />
		<tag k="name" v="Gjøsundbrua" />
		<tag k="ssr:stedsnr" v="27351" />
	</node>
	<node lat="62.50133611401957" lon="6.099091661697755" id="-6132">
=======
	<node id="-71023" lat="62.5075181935" lon="6.10420741379">
		<tag k="layer" v="-1" />
		<tag k="name" v="Austre Ytterlandsundergangen" />
		<tag k="ssr:stedsnr" v="330360" />
		<tag k="tunnel" v="yes" />
	</node>
	<node id="-70992" lat="62.558738893" lon="6.06740833105">
		<tag k="junction" v="yes" />
		<tag k="name" v="Gøylaskiftet" />
		<tag k="place" v="locality" />
		<tag k="ssr:stedsnr" v="156945" />
	</node>
	<node id="-71254" lat="62.5075250006" lon="6.10312499376">
		<tag k="layer" v="-1" />
		<tag k="name" v="Vestre Ytterlandsundergangen" />
		<tag k="ssr:stedsnr" v="816339" />
		<tag k="tunnel" v="yes" />
	</node>
	<node id="-70736" lat="62.5812333375" lon="6.126622228">
>>>>>>> e1d4bc35ff8a6074a6f2e91616a996b547c36f15
		<tag k="landuse" v="harbour" />
		<tag k="name" v="Skjonghamna" />
		<tag k="seamark:type" v="harbour" />
		<tag k="ssr:stedsnr" v="35256" />
	</node>
<<<<<<< HEAD
	<node lat="62.511344443594126" lon="6.042900008876101" id="-6160">
		<tag k="landuse" v="harbour" />
		<tag k="name" v="Øydgardshamna" />
		<tag k="seamark:type" v="harbour" />
		<tag k="ssr:stedsnr" v="96157" />
	</node>
	<node lat="62.50252777513859" lon="6.064786114178263" id="-6184">
=======
	<node id="-70734" lat="62.50898333" lon="6.1043888798">
		<tag k="bridge" v="yes" />
		<tag k="layer" v="1" />
		<tag k="name" v="Ytterlandsbrua" />
		<tag k="ssr:stedsnr" v="452336" />
	</node>
	<node id="-70605" lat="62.5113444436" lon="6.04290000888">
>>>>>>> e1d4bc35ff8a6074a6f2e91616a996b547c36f15
		<tag k="landuse" v="harbour" />
		<tag k="name" v="Øydgardshamna" />
		<tag k="seamark:type" v="harbour" />
		<tag k="ssr:stedsnr" v="96157" />
	</node>
<<<<<<< HEAD
	<node lat="62.55873889301767" lon="6.067408331049108" id="-6187">
		<tag k="junction" v="yes" />
		<tag k="name" v="Gøylaskiftet" />
		<tag k="place" v="locality" />
		<tag k="ssr:stedsnr" v="156945" />
	</node>
	<node lat="62.539233329347375" lon="6.044997221719422" id="-6233">
		<tag k="fixme" v="verify maritime location" />
		<tag k="mooring" v="yes" />
		<tag k="name" v="Tindestøa" />
		<tag k="place" v="locality" />
		<tag k="ssr:stedsnr" v="278260" />
	</node>
	<node lat="62.51097981292144" lon="6.101324122302102" id="-6274">
=======
	<node id="-70853" lat="62.4670014707" lon="6.01854816815">
		<tag k="landuse" v="harbour" />
		<tag k="name" v="Geilevika" />
		<tag k="seamark:type" v="harbour" />
		<tag k="ssr:stedsnr" v="799955" />
	</node>
	<node id="-70718" lat="62.5109798129" lon="6.1013241223">
>>>>>>> e1d4bc35ff8a6074a6f2e91616a996b547c36f15
		<tag k="layer" v="-1" />
		<tag k="name" v="Volstadundergangen" />
		<tag k="ssr:stedsnr" v="391353" />
		<tag k="tunnel" v="yes" />
	</node>
<<<<<<< HEAD
	<node lat="62.513054657741435" lon="6.099570339732245" id="-6275">
		<tag k="layer" v="-1" />
		<tag k="name" v="Hustruhamnundergangen" />
		<tag k="ssr:stedsnr" v="391364" />
		<tag k="tunnel" v="yes" />
	</node>
	<node lat="62.486525524893054" lon="5.977111146699333" id="-6309">
		<tag k="landuse" v="harbour" />
		<tag k="name" v="Alneshamna" />
		<tag k="seamark:type" v="harbour" />
		<tag k="ssr:stedsnr" v="520155" />
	</node>
	<node lat="62.48751388475191" lon="5.967941673140053" id="-6369">
		<tag k="highway" v="path" />
		<tag k="name" v="Raudesteinsundet" />
		<tag k="ssr:stedsnr" v="641117" />
	</node>
	<node lat="62.54206110691992" lon="6.067247231637331" id="-6413">
=======
	<node id="-70844" lat="62.5420611069" lon="6.06724723164">
>>>>>>> e1d4bc35ff8a6074a6f2e91616a996b547c36f15
		<tag k="man_made" v="tower" />
		<tag k="name" v="Vigra kringkastar" />
		<tag k="ssr:stedsnr" v="748461" />
		<tag k="tower:type" v="communications" />
	</node>
<<<<<<< HEAD
	<node lat="62.46700147065017" lon="6.018548168154875" id="-6435">
=======
	<node id="-71097" lat="62.4865255249" lon="5.9771111467">
>>>>>>> e1d4bc35ff8a6074a6f2e91616a996b547c36f15
		<tag k="landuse" v="harbour" />
		<tag k="name" v="Geilevika" />
		<tag k="seamark:type" v="harbour" />
<<<<<<< HEAD
		<tag k="ssr:stedsnr" v="799955" />
	</node>
	<node lat="62.50752500059142" lon="6.103124993762277" id="-6438">
		<tag k="layer" v="-1" />
		<tag k="name" v="Vestre Ytterlandsundergangen" />
		<tag k="ssr:stedsnr" v="816339" />
		<tag k="tunnel" v="yes" />
	</node>
	<node lat="62.55230833365886" lon="5.947416673670248" id="-6472">
=======
		<tag k="ssr:stedsnr" v="520155" />
	</node>
	<node id="-70921" lat="62.5311638925" lon="6.11945556004">
		<tag k="bridge" v="yes" />
		<tag k="layer" v="1" />
		<tag k="name" v="Gjøsundbrua" />
		<tag k="ssr:stedsnr" v="27351" />
	</node>
	<node id="-70989" lat="62.5025277751" lon="6.06478611418">
		<tag k="landuse" v="harbour" />
		<tag k="name" v="Gjerdehamna" />
		<tag k="seamark:type" v="harbour" />
		<tag k="ssr:stedsnr" v="156183" />
	</node>
	<node id="-70827" lat="62.5283166676" lon="6.11423056439">
		<tag k="bridge" v="yes" />
		<tag k="layer" v="1" />
		<tag k="name" v="Røysebrua" />
		<tag k="ssr:stedsnr" v="694303" />
	</node>
	<node id="-70820" lat="62.5529499957" lon="6.07564721409">
		<tag k="junction" v="yes" />
		<tag k="name" v="Vikeskiftet" />
		<tag k="place" v="locality" />
		<tag k="ssr:stedsnr" v="885931" />
	</node>
	<node id="-70816" lat="62.5523083337" lon="5.94741667367">
>>>>>>> e1d4bc35ff8a6074a6f2e91616a996b547c36f15
		<tag k="fixme" v="verify maritime location" />
		<tag k="mooring" v="yes" />
		<tag k="name" v="Nøre støa" />
		<tag k="place" v="locality" />
		<tag k="ssr:stedsnr" v="885141" />
	</node>
<<<<<<< HEAD
	<node lat="62.55294999571705" lon="6.075647214091923" id="-6474">
		<tag k="junction" v="yes" />
		<tag k="name" v="Vikeskiftet" />
		<tag k="place" v="locality" />
		<tag k="ssr:stedsnr" v="885931" />
	</node>
	<node lat="62.48216621301558" lon="5.974950332373468" id="-6501">
=======
	<node id="-71322" lat="62.4678162149" lon="6.01876333546">
		<tag k="landuse" v="harbour" />
		<tag k="name" v="Godøya havn" />
		<tag k="seamark:type" v="harbour" />
		<tag k="ssr:stedsnr" v="1077296" />
	</node>
	<node id="-70936" lat="62.501336114" lon="6.0990916617">
		<tag k="landuse" v="harbour" />
		<tag k="name" v="Skjonghamna" />
		<tag k="seamark:type" v="harbour" />
		<tag k="ssr:stedsnr" v="35256" />
	</node>
	<node id="-71061" lat="62.5130546577" lon="6.09957033973">
		<tag k="layer" v="-1" />
		<tag k="name" v="Hustruhamnundergangen" />
		<tag k="ssr:stedsnr" v="391364" />
		<tag k="tunnel" v="yes" />
	</node>
	<node id="-71314" lat="62.4846000999" lon="5.97784660121">
>>>>>>> e1d4bc35ff8a6074a6f2e91616a996b547c36f15
		<tag k="highway" v="path" />
		<tag k="name" v="Alnesfjellvegen" />
		<tag k="ssr:stedsnr" v="973240" />
	</node>
<<<<<<< HEAD
	<node lat="62.4890876584955" lon="5.963968372187391" id="-6512">
=======
	<node id="-71185" lat="62.4875138848" lon="5.96794167314">
>>>>>>> e1d4bc35ff8a6074a6f2e91616a996b547c36f15
		<tag k="highway" v="path" />
		<tag k="name" v="Kalvegeilane" />
		<tag k="ssr:stedsnr" v="973252" />
	</node>
	<node lat="62.46781621486546" lon="6.018763335461814" id="-6524">
		<tag k="landuse" v="harbour" />
		<tag k="name" v="Godøya havn" />
		<tag k="seamark:type" v="harbour" />
		<tag k="ssr:stedsnr" v="1077296" />
	</node>
	<node id="-70670" lat="62.5392333293" lon="6.04499722172">
		<tag k="fixme" v="verify maritime location" />
		<tag k="mooring" v="yes" />
		<tag k="name" v="Tindestøa" />
		<tag k="place" v="locality" />
		<tag k="ssr:stedsnr" v="278260" />
	</node>
	<node id="-71305" lat="62.4890876585" lon="5.96396837219">
		<tag k="highway" v="path" />
		<tag k="name" v="Kalvegeilane" />
		<tag k="ssr:stedsnr" v="973252" />
	</node>
	<node id="-70661" lat="62.5579749976" lon="6.10383888155">
		<tag k="aeroway" v="aerodrome" />
		<tag k="alt_name" v="Vigra" />
		<tag k="name" v="Ålesund lufthavn, Vigra" />
		<tag k="old_name" v="Ålesund lufthavn" />
		<tag k="ssr:stedsnr" v="254761" />
	</node>
	<node id="-70657" lat="62.5076000014" lon="6.08129167388">
		<tag k="bridge" v="yes" />
		<tag k="layer" v="1" />
		<tag k="name" v="Giskebrua" />
		<tag k="ssr:stedsnr" v="452347" />
	</node>
</osm>
