<?xml version="1.0" encoding="UTF-8"?>
<osm version="0.6" generator="osmapis">
	<node lat="62.57774722229218" lon="6.113597227899052" id="-4008">
		<tag k="amenity" v="community_centre" />
		<tag k="name" v="Mjølner" />
		<tag k="ssr:stedsnr" v="35962" />
	</node>
	<node lat="62.50303055684055" lon="6.129980552241064" id="-4208">
		<tag k="alt_name" v="Valderøy" />
		<tag k="amenity" v="place_of_worship" />
		<tag k="denomination" v="lutheran" />
		<tag k="name" v="Valderøy kyrkje" />
		<tag k="religion" v="christian" />
		<tag k="ssr:stedsnr" v="618723" />
	</node>
	<node lat="62.56354444479562" lon="6.076769447897749" id="-4425">
		<tag k="alt_name" v="Vigra kyrkje" />
		<tag k="amenity" v="place_of_worship" />
		<tag k="denomination" v="lutheran" />
		<tag k="name" v="Vigra" />
		<tag k="religion" v="christian" />
		<tag k="ssr:stedsnr" v="193784" />
	</node>
	<node lat="62.51682222540831" lon="6.102725006994967" id="-4458">
		<tag k="name" v="Daudmannshellaren" />
		<tag k="place" v="locality" />
		<tag k="ssr:stedsnr" v="338153" />
	</node>
	<node lat="62.498650001824565" lon="6.050194440091459" id="-4460">
		<tag k="alt_name" v="Giske kyrkje" />
		<tag k="amenity" v="place_of_worship" />
		<tag k="denomination" v="lutheran" />
		<tag k="name" v="Giske" />
		<tag k="religion" v="christian" />
		<tag k="ssr:stedsnr" v="314969" />
	</node>
	<node lat="62.55379721986601" lon="6.12783888177355" id="-4504">
		<tag k="name" v="Røysa" />
		<tag k="place" v="locality" />
		<tag k="ssr:stedsnr" v="399970" />
	</node>
</osm>
