<?xml version="1.0" encoding="UTF-8"?>
<osm generator="osmapis" version="0.6">
	<node id="-65789" lat="62.5654916658" lon="6.11713332429">
		<tag k="name" v="Tjymyra" />
		<tag k="natural" v="wetland" />
		<tag k="ssr:stedsnr" v="399933" />
	</node>
	<node id="-66298" lat="62.5197916677" lon="6.12812777753">
		<tag k="name" v="Øvre Blommen" />
		<tag k="place" v="locality" />
		<tag k="ssr:stedsnr" v="763187" />
	</node>
	<node id="-66168" lat="62.5192944481" lon="6.13548334066">
		<tag k="name" v="Notvollen" />
		<tag k="place" v="locality" />
		<tag k="ssr:stedsnr" v="520169" />
	</node>
	<node id="-66295" lat="62.5119250045" lon="6.12263333951">
		<tag k="name" v="Øvre Nordstranda" />
		<tag k="place" v="locality" />
		<tag k="ssr:stedsnr" v="763149" />
	</node>
	<node id="-66291" lat="62.54306111" lon="6.11728332447">
		<tag k="name" v="Gjøsundmyrane" />
		<tag k="natural" v="wetland" />
		<tag k="ssr:stedsnr" v="756590" />
	</node>
	<node id="-65641" lat="62.5542000005" lon="6.05968887928">
		<tag k="name" v="Grønemyrane" />
		<tag k="natural" v="wetland" />
		<tag k="ssr:stedsnr" v="217952" />
	</node>
	<node id="-66278" lat="62.5774472249" lon="6.10052499254">
		<tag k="name" v="Aletøyra" />
		<tag k="place" v="locality" />
		<tag k="ssr:stedsnr" v="642999" />
	</node>
	<node id="-65893" lat="62.4723499979" lon="5.9440055588">
		<tag k="name" v="Storura" />
		<tag k="natural" v="scree" />
		<tag k="ssr:stedsnr" v="885864" />
	</node>
	<node id="-65891" lat="62.5566888872" lon="6.09707221721">
		<tag k="name" v="Småmyrteigane" />
		<tag k="natural" v="wetland" />
		<tag k="ssr:stedsnr" v="885937" />
	</node>
	<node id="-66272" lat="62.5405611087" lon="6.04206388777">
		<tag k="name" v="Klongre" />
		<tag k="place" v="locality" />
		<tag k="ssr:stedsnr" v="642967" />
	</node>
	<node id="-66140" lat="62.5384416711" lon="6.03073888686">
		<tag k="name" v="Gulljorda" />
		<tag k="place" v="locality" />
		<tag k="ssr:stedsnr" v="399268" />
	</node>
	<node id="-66266" lat="62.5376777753" lon="6.02805833347">
		<tag k="name" v="Svinegjerdet" />
		<tag k="place" v="locality" />
		<tag k="ssr:stedsnr" v="641194" />
	</node>
	<node id="-66136" lat="62.5141777772" lon="6.16346388474">
		<tag k="name" v="Kråkereirmyra" />
		<tag k="natural" v="wetland" />
		<tag k="ssr:stedsnr" v="399218" />
	</node>
	<node id="-66386" lat="62.4899212709" lon="5.96248009977">
		<tag k="name" v="Skifta" />
		<tag k="place" v="locality" />
		<tag k="ssr:stedsnr" v="973370" />
	</node>
	<node id="-66381" lat="62.4837436403" lon="5.96829119589">
		<tag k="name" v="Stortjønnteigane" />
		<tag k="place" v="locality" />
		<tag k="ssr:stedsnr" v="973348" />
	</node>
	<node id="-66380" lat="62.4844157159" lon="5.96851403598">
		<tag k="name" v="Tjukkesundet" />
		<tag k="place" v="locality" />
		<tag k="ssr:stedsnr" v="973347" />
	</node>
	<node id="-65738" lat="62.5407388901" lon="6.03536111215">
		<tag k="name" v="Sendingane" />
		<tag k="place" v="locality" />
		<tag k="ssr:stedsnr" v="278257" />
	</node>
	<node id="-66375" lat="62.4883725896" lon="5.96575395538">
		<tag k="name" v="Sandvikmarkteigane" />
		<tag k="place" v="locality" />
		<tag k="ssr:stedsnr" v="973253" />
	</node>
	<node id="-66373" lat="62.4905024911" lon="5.96439778197">
		<tag k="name" v="Gamleteigane" />
		<tag k="place" v="locality" />
		<tag k="ssr:stedsnr" v="973251" />
	</node>
	<node id="-66371" lat="62.4908823872" lon="5.96804743248">
		<tag k="name" v="Langeskifta" />
		<tag k="place" v="locality" />
		<tag k="ssr:stedsnr" v="973249" />
	</node>
	<node id="-66368" lat="62.4875347068" lon="5.97060394355">
		<tag k="name" v="Ekrene" />
		<tag k="place" v="locality" />
		<tag k="ssr:stedsnr" v="973243" />
	</node>
	<node id="-66016" lat="62.4637083349" lon="5.95365000122">
		<tag k="name" v="Storura" />
		<tag k="natural" v="scree" />
		<tag k="ssr:stedsnr" v="35993" />
	</node>
	<node id="-66109" lat="62.5687888886" lon="6.07063889435">
		<tag k="name" v="Hagen" />
		<tag k="natural" v="wetland" />
		<tag k="ssr:stedsnr" v="338995" />
	</node>
	<node id="-66232" lat="62.5581444411" lon="6.08830833081">
		<tag k="name" v="Dammen" />
		<tag k="place" v="locality" />
		<tag k="ssr:stedsnr" v="581991" />
	</node>
	<node id="-66231" lat="62.5756388921" lon="6.11546111683">
		<tag k="name" v="Kyrkjeørna" />
		<tag k="place" v="locality" />
		<tag k="ssr:stedsnr" v="581986" />
	</node>
	<node id="-65845" lat="62.5585916677" lon="6.09040834066">
		<tag k="name" v="Raudedeplane" />
		<tag k="natural" v="wetland" />
		<tag k="ssr:stedsnr" v="703952" />
	</node>
	<node id="-65843" lat="62.5536805515" lon="6.10459166703">
		<tag k="name" v="Stormyrteigane" />
		<tag k="natural" v="wetland" />
		<tag k="ssr:stedsnr" v="703944" />
	</node>
	<node id="-66094" lat="62.5222416651" lon="6.10015277376">
		<tag k="name" v="Jens-Åleine" />
		<tag k="natural" v="stone" />
		<tag k="ssr:stedsnr" v="338154" />
	</node>
	<node id="-65735" lat="62.523050004" lon="6.10106666173">
		<tag k="name" v="Slentreura" />
		<tag k="natural" v="scree" />
		<tag k="ssr:stedsnr" v="278211" />
	</node>
	<node id="-66341" lat="62.4768055581" lon="6.02512221976">
		<tag k="name" v="Gøymyrane" />
		<tag k="natural" v="wetland" />
		<tag k="ssr:stedsnr" v="829216" />
	</node>
	<node id="-66206" lat="62.539355553" lon="6.02795832829">
		<tag k="name" v="Staurlogane" />
		<tag k="place" v="locality" />
		<tag k="ssr:stedsnr" v="581267" />
	</node>
	<node id="-65754" lat="62.5841194457" lon="6.08654445167">
		<tag k="name" v="Deplane" />
		<tag k="place" v="locality" />
		<tag k="ssr:stedsnr" v="460960" />
	</node>
	<node id="-65681" lat="62.5693194452" lon="6.10269166875">
		<tag k="name" v="Sendingane" />
		<tag k="place" v="locality" />
		<tag k="ssr:stedsnr" v="96959" />
	</node>
	<node id="-65679" lat="62.5042499972" lon="6.05316111481">
		<tag k="name" v="Giskemyrane" />
		<tag k="natural" v="wetland" />
		<tag k="ssr:stedsnr" v="96264" />
	</node>
	<node id="-65668" lat="62.5483722219" lon="6.11603889051">
		<tag k="name" v="Myrane" />
		<tag k="natural" v="wetland" />
		<tag k="ssr:stedsnr" v="254746" />
	</node>
	<node id="-66307" lat="62.545108333" lon="6.11100834021">
		<tag k="name" v="Kyrkjemyrane" />
		<tag k="natural" v="wetland" />
		<tag k="ssr:stedsnr" v="763941" />
	</node>
</osm>
