<?xml version="1.0" encoding="UTF-8"?>
<<<<<<< HEAD
<osm version="0.6" generator="osmapis">
	<node lat="62.53534444635986" lon="5.959083329437202" id="-5777">
		<tag k="name" v="Synesstabben" />
=======
<osm generator="osmapis" version="0.6">
	<node id="-71319" lat="62.4851184067" lon="5.98504485576">
		<tag k="fixme" v="consider seamark:type=rock or natural=shoal" />
		<tag k="name" v="Presteskjeret" />
		<tag k="place" v="islet" />
		<tag k="ssr:stedsnr" v="973373" />
	</node>
	<node id="-71316" lat="62.4840077447" lon="5.96367826662">
		<tag k="name" v="Slumpen" />
		<tag k="natural" v="cape" />
		<tag k="ssr:stedsnr" v="973369" />
	</node>
	<node id="-71315" lat="62.4855401043" lon="5.97638157875">
		<tag k="name" v="Kyrkjestøa" />
		<tag k="natural" v="beach" />
		<tag k="place" v="locality" />
		<tag k="ssr:stedsnr" v="973368" />
	</node>
	<node id="-71313" lat="62.4842120425" lon="5.96497422157">
		<tag k="name" v="Rova" />
		<tag k="natural" v="cape" />
		<tag k="ssr:stedsnr" v="973349" />
	</node>
	<node id="-71294" lat="62.567311107" lon="6.02908333629">
		<tag k="name" v="Andersfluda" />
>>>>>>> e1d4bc35ff8a6074a6f2e91616a996b547c36f15
		<tag k="natural" v="shoal" />
		<tag k="place" v="locality" />
		<tag k="ssr:stedsnr" v="234101" />
	</node>
<<<<<<< HEAD
	<node lat="62.584988893223176" lon="6.074191672489505" id="-5779">
		<tag k="name" v="Molneset" />
		<tag k="natural" v="cape" />
		<tag k="ssr:stedsnr" v="234440" />
	</node>
	<node lat="62.57299166365913" lon="6.036013890387331" id="-5780">
		<tag k="name" v="Kobbholmen" />
		<tag k="place" v="islet" />
		<tag k="ssr:stedsnr" v="234443" />
	</node>
	<node lat="62.517650002173106" lon="5.986119446177639" id="-5781">
		<tag k="name" v="Nordre Leiasteinen" />
=======
	<node id="-71293" lat="62.490644446" lon="5.94755834147">
		<tag k="name" v="Raudsteinskallen" />
		<tag k="natural" v="shoal" />
		<tag k="place" v="locality" />
		<tag k="ssr:stedsnr" v="962290" />
	</node>
	<node id="-71291" lat="62.5999999994" lon="5.58499999712">
		<tag k="name" v="Djupseta" />
		<tag k="place" v="locality" />
		<tag k="ssr:stedsnr" v="952609" />
	</node>
	<node id="-71289" lat="62.5714333294" lon="5.74849722555">
		<tag k="name" v="Klovskallen" />
>>>>>>> e1d4bc35ff8a6074a6f2e91616a996b547c36f15
		<tag k="natural" v="shoal" />
		<tag k="place" v="locality" />
		<tag k="ssr:stedsnr" v="234464" />
	</node>
<<<<<<< HEAD
	<node lat="62.45925833646519" lon="6.0400805531868444" id="-5782">
		<tag k="name" v="Djupefluda" />
=======
	<node id="-71288" lat="62.5865305533" lon="5.89892500664">
		<tag k="name" v="Blindheimsbreidfluda" />
>>>>>>> e1d4bc35ff8a6074a6f2e91616a996b547c36f15
		<tag k="natural" v="shoal" />
		<tag k="place" v="locality" />
		<tag k="ssr:stedsnr" v="234563" />
	</node>
<<<<<<< HEAD
	<node lat="62.602422221638676" lon="6.046274994340685" id="-5783">
		<tag k="fixme" v="consider seamark:type=rock or natural=shoal" />
		<tag k="name" v="Jektefludskjeret" />
		<tag k="place" v="islet" />
		<tag k="ssr:stedsnr" v="234900" />
	</node>
	<node lat="62.46798888701387" lon="6.004011106816277" id="-5790">
		<tag k="name" v="Utigardsneset" />
=======
	<node id="-71287" lat="62.5352694483" lon="5.82116666745">
		<tag k="alt_name" v="Kvalsboen" />
		<tag k="name" v="Kvalsbåen" />
		<tag k="place" v="locality" />
		<tag k="seamark:type" v="rock" />
		<tag k="ssr:stedsnr" v="874621" />
	</node>
	<node id="-71285" lat="62.4908972239" lon="5.96452221538">
		<tag k="name" v="Alnestangen" />
>>>>>>> e1d4bc35ff8a6074a6f2e91616a996b547c36f15
		<tag k="natural" v="cape" />
		<tag k="ssr:stedsnr" v="35174" />
	</node>
<<<<<<< HEAD
	<node lat="62.56972221969326" lon="6.056344438170143" id="-5791">
		<tag k="name" v="Blindheimssundet" />
		<tag k="natural" v="strait" />
		<tag k="ssr:stedsnr" v="35961" />
	</node>
	<node lat="62.63957778211317" lon="6.028172229713252" id="-5794">
		<tag k="name" v="Fjordmannsfallet" />
=======
	<node id="-71283" lat="62.5532027802" lon="5.94310832674">
		<tag k="name" v="Stampen" />
		<tag k="natural" v="bay" />
		<tag k="ssr:stedsnr" v="861772" />
	</node>
	<node id="-71280" lat="62.6261361085" lon="5.85100555839">
		<tag k="name" v="Steinsgrynnet" />
>>>>>>> e1d4bc35ff8a6074a6f2e91616a996b547c36f15
		<tag k="natural" v="shoal" />
		<tag k="place" v="locality" />
		<tag k="ssr:stedsnr" v="51912" />
	</node>
<<<<<<< HEAD
	<node lat="62.59313610993643" lon="6.110119439931143" id="-5795">
		<tag k="name" v="Langenesfluda" />
=======
	<node id="-71277" lat="62.4734916662" lon="5.92366944815">
		<tag k="name" v="Grynnenova" />
>>>>>>> e1d4bc35ff8a6074a6f2e91616a996b547c36f15
		<tag k="natural" v="shoal" />
		<tag k="place" v="locality" />
		<tag k="ssr:stedsnr" v="52376" />
	</node>
<<<<<<< HEAD
	<node lat="62.491583331804364" lon="5.855555557704675" id="-5798">
		<tag k="name" v="Olsfluda" />
=======
	<node id="-71276" lat="62.4654527793" lon="6.01463055789">
		<tag k="name" v="Revet" />
>>>>>>> e1d4bc35ff8a6074a6f2e91616a996b547c36f15
		<tag k="natural" v="shoal" />
		<tag k="place" v="locality" />
		<tag k="ssr:stedsnr" v="72965" />
	</node>
<<<<<<< HEAD
	<node lat="62.507708329530516" lon="6.100150004947135" id="-5800">
		<tag k="fixme" v="consider seamark:type=rock or natural=shoal" />
		<tag k="name" v="Olaskjeret" />
		<tag k="place" v="islet" />
		<tag k="ssr:stedsnr" v="96223" />
	</node>
	<node lat="62.58554722297729" lon="6.069558338651399" id="-5804">
		<tag k="fixme" v="consider seamark:type=rock or natural=shoal" />
		<tag k="name" v="Skarveskjera" />
		<tag k="place" v="islet" />
		<tag k="ssr:stedsnr" v="96967" />
	</node>
	<node lat="62.570744441115764" lon="6.069008324100195" id="-5805">
		<tag k="name" v="Kobbevika" />
		<tag k="natural" v="bay" />
		<tag k="ssr:stedsnr" v="96983" />
	</node>
	<node lat="62.61038611052445" lon="5.963100000370621" id="-5808">
		<tag k="fixme" v="consider seamark:type=rock or natural=shoal" />
		<tag k="name" v="Mylloskjeret" />
		<tag k="place" v="islet" />
		<tag k="ssr:stedsnr" v="132711" />
	</node>
	<node lat="62.57556666454577" lon="6.015988881300672" id="-5809">
		<tag k="fixme" v="consider seamark:type=rock or natural=shoal" />
		<tag k="name" v="Hildreøyane" />
		<tag k="place" v="islet" />
		<tag k="ssr:stedsnr" v="132808" />
	</node>
	<node lat="62.49112499873931" lon="5.888505551046604" id="-5810">
		<tag k="name" v="Lyren" />
=======
	<node id="-71275" lat="62.5319861082" lon="6.10449999194">
		<tag k="name" v="Toreknollen" />
		<tag k="natural" v="shoal" />
		<tag k="place" v="locality" />
		<tag k="ssr:stedsnr" v="841437" />
	</node>
	<node id="-71274" lat="62.5722750006" lon="6.03943611982">
		<tag k="name" v="Skottfluda" />
>>>>>>> e1d4bc35ff8a6074a6f2e91616a996b547c36f15
		<tag k="natural" v="shoal" />
		<tag k="place" v="locality" />
		<tag k="ssr:stedsnr" v="132969" />
	</node>
<<<<<<< HEAD
	<node lat="62.6483611073511" lon="5.975566673355991" id="-5811">
		<tag k="name" v="Støtten" />
=======
	<node id="-71273" lat="62.5737055547" lon="6.08106388126">
		<tag k="name" v="Kålgarden" />
>>>>>>> e1d4bc35ff8a6074a6f2e91616a996b547c36f15
		<tag k="natural" v="shoal" />
		<tag k="place" v="locality" />
		<tag k="ssr:stedsnr" v="141233" />
	</node>
<<<<<<< HEAD
	<node lat="62.55995555826743" lon="6.132786107735678" id="-5814">
		<tag k="name" v="Rognodden" />
=======
	<node id="-71271" lat="62.5495694467" lon="5.9346777752">
		<tag k="name" v="Trolla" />
>>>>>>> e1d4bc35ff8a6074a6f2e91616a996b547c36f15
		<tag k="natural" v="cape" />
		<tag k="ssr:stedsnr" v="254771" />
	</node>
<<<<<<< HEAD
	<node lat="62.56997222152597" lon="5.994780546990603" id="-5815">
		<tag k="fixme" v="consider seamark:type=rock or natural=shoal" />
		<tag k="name" v="Gibba" />
		<tag k="place" v="islet" />
		<tag k="ssr:stedsnr" v="254776" />
	</node>
	<node lat="62.57137777476582" lon="6.0561138873652105" id="-5817">
		<tag k="name" v="Saudholmen" />
		<tag k="place" v="islet" />
		<tag k="ssr:stedsnr" v="254781" />
	</node>
	<node lat="62.55081666877514" lon="5.927688882422375" id="-5819">
		<tag k="fixme" v="consider seamark:type=rock or natural=shoal" />
		<tag k="name" v="Kråka" />
		<tag k="place" v="islet" />
		<tag k="ssr:stedsnr" v="254755" />
	</node>
	<node lat="62.54836110732065" lon="5.938138896107383" id="-5820">
		<tag k="name" v="Hestevågen" />
=======
	<node id="-71268" lat="62.5195777778" lon="6.13843610858">
		<tag k="name" v="Klubben" />
		<tag k="natural" v="cape" />
		<tag k="ssr:stedsnr" v="824975" />
	</node>
	<node id="-71267" lat="62.5062444407" lon="6.09673055652">
		<tag k="name" v="Klubben" />
		<tag k="natural" v="cape" />
		<tag k="ssr:stedsnr" v="824969" />
	</node>
	<node id="-71266" lat="62.5375361149" lon="6.13267777572">
		<tag k="name" v="Sildegarnneset" />
		<tag k="natural" v="cape" />
		<tag k="ssr:stedsnr" v="824964" />
	</node>
	<node id="-71265" lat="62.589452774" lon="6.1020999951">
		<tag k="name" v="Smørvika" />
>>>>>>> e1d4bc35ff8a6074a6f2e91616a996b547c36f15
		<tag k="natural" v="bay" />
		<tag k="ssr:stedsnr" v="254756" />
	</node>
<<<<<<< HEAD
	<node lat="62.48650833474347" lon="5.96520278464479" id="-5822">
		<tag k="name" v="Sandvika" />
=======
	<node id="-71253" lat="62.484769441" lon="6.10043889202">
		<tag k="bay" v="fjord" />
		<tag k="name" v="Valderhaugfjorden" />
>>>>>>> e1d4bc35ff8a6074a6f2e91616a996b547c36f15
		<tag k="natural" v="bay" />
		<tag k="ssr:stedsnr" v="254971" />
	</node>
<<<<<<< HEAD
	<node lat="62.48369444176501" lon="6.0213472298014965" id="-5823">
		<tag k="alt_name" v="Haugberget;Haugberga" />
		<tag k="name" v="Haugen" />
		<tag k="natural" v="cape" />
		<tag k="ssr:stedsnr" v="254988" />
	</node>
	<node lat="62.609408335873916" lon="5.739563890560678" id="-5824">
		<tag k="name" v="Grunnskallen" />
=======
	<node id="-71252" lat="62.4888944483" lon="6.09324167407">
		<tag k="name" v="Snøggefluda" />
>>>>>>> e1d4bc35ff8a6074a6f2e91616a996b547c36f15
		<tag k="natural" v="shoal" />
		<tag k="place" v="locality" />
		<tag k="ssr:stedsnr" v="146608" />
	</node>
<<<<<<< HEAD
	<node lat="62.46387777854443" lon="5.943338885276139" id="-5826">
		<tag k="name" v="Ryggahola" />
		<tag k="natural" v="bay" />
		<tag k="ssr:stedsnr" v="156120" />
	</node>
	<node lat="62.520161109509644" lon="6.139602787349518" id="-5827">
		<tag k="name" v="Kvamsneset" />
		<tag k="natural" v="cape" />
		<tag k="ssr:stedsnr" v="156164" />
	</node>
	<node lat="62.50090833634263" lon="6.031780548486082" id="-5830">
		<tag k="name" v="Holmen" />
		<tag k="natural" v="cape" />
		<tag k="ssr:stedsnr" v="156998" />
	</node>
	<node lat="62.56609166347179" lon="5.7344194530316095" id="-5832">
		<tag k="name" v="Vestreskallen" />
=======
	<node id="-71251" lat="62.4989750034" lon="6.07405833968">
		<tag k="name" v="Staursundet" />
		<tag k="natural" v="strait" />
		<tag k="ssr:stedsnr" v="800975" />
	</node>
	<node id="-71250" lat="62.5232194459" lon="6.14091944665">
		<tag k="name" v="Oksneset" />
		<tag k="natural" v="cape" />
		<tag k="ssr:stedsnr" v="800743" />
	</node>
	<node id="-71249" lat="62.5110944409" lon="6.07535555332">
		<tag k="alt_name" v="Staursundet" />
		<tag k="name" v="Staurnessundet" />
		<tag k="natural" v="strait" />
		<tag k="ssr:stedsnr" v="800731" />
	</node>
	<node id="-71248" lat="62.5093444484" lon="6.10004999679">
		<tag k="name" v="Ytterlandsvika" />
		<tag k="natural" v="bay" />
		<tag k="ssr:stedsnr" v="800729" />
	</node>
	<node id="-71246" lat="62.6096861123" lon="6.05892778098">
		<tag k="name" v="Rossholmbåen" />
>>>>>>> e1d4bc35ff8a6074a6f2e91616a996b547c36f15
		<tag k="natural" v="shoal" />
		<tag k="place" v="locality" />
		<tag k="ssr:stedsnr" v="174003" />
	</node>
<<<<<<< HEAD
	<node lat="62.64933333657205" lon="5.924183330331612" id="-5833">
		<tag k="name" v="Ytste Stadsgrynnskallen" />
=======
	<node id="-71245" lat="62.5711055545" lon="6.04621110566">
		<tag k="name" v="Geilfluda" />
>>>>>>> e1d4bc35ff8a6074a6f2e91616a996b547c36f15
		<tag k="natural" v="shoal" />
		<tag k="place" v="locality" />
		<tag k="ssr:stedsnr" v="174018" />
	</node>
<<<<<<< HEAD
	<node lat="62.54657777661132" lon="5.839847216682091" id="-5834">
		<tag k="alt_name" v="Oddeboen" />
		<tag k="name" v="Oddebåen" />
		<tag k="place" v="locality" />
		<tag k="seamark:type" v="rock" />
		<tag k="ssr:stedsnr" v="267586" />
	</node>
	<node lat="62.62194166879201" lon="5.998611110849058" id="-5835">
		<tag k="name" v="Nørdre Fluda" />
=======
	<node id="-71244" lat="62.570977774" lon="6.06694167025">
		<tag k="name" v="Hageneset" />
		<tag k="natural" v="cape" />
		<tag k="ssr:stedsnr" v="780371" />
	</node>
	<node id="-71237" lat="62.543461111" lon="6.10717778588">
		<tag k="name" v="Sørestranda" />
		<tag k="natural" v="beach" />
>>>>>>> e1d4bc35ff8a6074a6f2e91616a996b547c36f15
		<tag k="place" v="locality" />
		<tag k="seamark:type" v="rock" />
		<tag k="ssr:stedsnr" v="267589" />
	</node>
<<<<<<< HEAD
	<node lat="62.58046666345812" lon="5.970658330836199" id="-5836">
		<tag k="name" v="Heilskallen" />
		<tag k="natural" v="shoal" />
		<tag k="place" v="locality" />
		<tag k="ssr:stedsnr" v="267576" />
	</node>
	<node lat="62.49477777583337" lon="6.124672215634839" id="-5838">
		<tag k="name" v="Lykkeneset" />
		<tag k="natural" v="cape" />
		<tag k="ssr:stedsnr" v="217205" />
	</node>
	<node lat="62.51607499543922" lon="6.172111102305412" id="-5839">
		<tag k="name" v="Ramnehola" />
		<tag k="natural" v="strait" />
		<tag k="ssr:stedsnr" v="217219" />
	</node>
	<node lat="62.563619442847674" lon="6.041216665140161" id="-5840">
		<tag k="name" v="Kjerringvika" />
=======
	<node id="-71235" lat="62.5594972181" lon="6.01646943673">
		<tag k="fixme" v="consider seamark:type=rock or natural=shoal" />
		<tag k="name" v="Ævra" />
		<tag k="place" v="islet" />
		<tag k="ssr:stedsnr" v="763886" />
	</node>
	<node id="-71234" lat="62.5352111072" lon="6.02209722109">
		<tag k="name" v="Siglekroken" />
>>>>>>> e1d4bc35ff8a6074a6f2e91616a996b547c36f15
		<tag k="natural" v="bay" />
		<tag k="ssr:stedsnr" v="217228" />
	</node>
<<<<<<< HEAD
	<node lat="62.51166944695335" lon="6.160641671323243" id="-5841">
		<tag k="name" v="Kjelvika" />
		<tag k="natural" v="bay" />
		<tag k="ssr:stedsnr" v="217983" />
	</node>
	<node lat="62.619824998614696" lon="5.94107222900096" id="-5843">
		<tag k="name" v="Tosellskallen" />
		<tag k="natural" v="shoal" />
		<tag k="place" v="locality" />
		<tag k="ssr:stedsnr" v="234017" />
	</node>
	<node lat="62.642691668068046" lon="5.923683332311896" id="-5844">
		<tag k="name" v="Storholmen" />
		<tag k="place" v="islet" />
		<tag k="ssr:stedsnr" v="234018" />
	</node>
	<node lat="62.49677500137581" lon="5.943200008569604" id="-5845">
		<tag k="name" v="Veibostskallen" />
=======
	<node id="-71233" lat="62.5422083374" lon="6.02076666397">
		<tag k="name" v="Seglmerket" />
		<tag k="place" v="islet" />
		<tag k="ssr:stedsnr" v="763269" />
	</node>
	<node id="-71228" lat="62.4671055576" lon="6.01312222604">
		<tag k="name" v="Geileneset" />
		<tag k="natural" v="cape" />
		<tag k="ssr:stedsnr" v="763165" />
	</node>
	<node id="-71225" lat="62.5156555542" lon="6.1789333401">
		<tag k="name" v="Rugholmen" />
		<tag k="place" v="islet" />
		<tag k="ssr:stedsnr" v="763143" />
	</node>
	<node id="-71224" lat="62.4825888855" lon="6.00743888816">
		<tag k="name" v="Hammaren" />
		<tag k="natural" v="cape" />
		<tag k="ssr:stedsnr" v="763139" />
	</node>
	<node id="-71220" lat="62.6560138935" lon="6.00683334015">
		<tag k="name" v="Nørdre Djupfallet" />
>>>>>>> e1d4bc35ff8a6074a6f2e91616a996b547c36f15
		<tag k="natural" v="shoal" />
		<tag k="place" v="locality" />
		<tag k="ssr:stedsnr" v="234307" />
	</node>
<<<<<<< HEAD
	<node lat="62.57125000319192" lon="5.898569446371342" id="-5846">
		<tag k="name" v="Blimsbåen" />
		<tag k="place" v="locality" />
		<tag k="seamark:type" v="rock" />
		<tag k="ssr:stedsnr" v="450636" />
	</node>
	<node lat="62.61709166727158" lon="6.0663861084328055" id="-5847">
		<tag k="name" v="Skuleskallen" />
		<tag k="natural" v="shoal" />
		<tag k="place" v="locality" />
		<tag k="ssr:stedsnr" v="450644" />
	</node>
	<node lat="62.5108722188463" lon="6.166594440747871" id="-5852">
		<tag k="name" v="Skinnbroka" />
		<tag k="place" v="islet" />
		<tag k="ssr:stedsnr" v="254724" />
	</node>
	<node lat="62.5041138868725" lon="6.0007583334870205" id="-5853">
		<tag k="name" v="Galtane" />
		<tag k="place" v="locality" />
		<tag k="seamark:type" v="rock" />
		<tag k="ssr:stedsnr" v="267608" />
	</node>
	<node lat="62.50375278064833" lon="6.0893166572931365" id="-5856">
		<tag k="name" v="Litleholmen" />
		<tag k="place" v="islet" />
		<tag k="ssr:stedsnr" v="278268" />
	</node>
	<node lat="62.56063888934453" lon="6.033616659065023" id="-5857">
		<tag k="name" v="Rotnevika" />
=======
	<node id="-71219" lat="62.5868583302" lon="5.99630833169">
		<tag k="name" v="Martinskallen" />
		<tag k="place" v="locality" />
		<tag k="seamark:type" v="rock" />
		<tag k="ssr:stedsnr" v="753578" />
	</node>
	<node id="-71218" lat="62.4789583362" lon="5.94521666845">
		<tag k="name" v="Lestabukta" />
		<tag k="natural" v="bay" />
		<tag k="ssr:stedsnr" v="739991" />
	</node>
	<node id="-71217" lat="62.4940055571" lon="6.08938334168">
		<tag k="name" v="Skjongfluda" />
		<tag k="natural" v="shoal" />
		<tag k="place" v="locality" />
		<tag k="ssr:stedsnr" v="739985" />
	</node>
	<node id="-71215" lat="62.4853967803" lon="5.99529518423">
		<tag k="name" v="Vindsneset" />
		<tag k="natural" v="cape" />
		<tag k="ssr:stedsnr" v="739976" />
	</node>
	<node id="-71214" lat="62.5576361086" lon="6.03248055253">
		<tag k="name" v="Røssvikvågen" />
		<tag k="natural" v="bay" />
		<tag k="ssr:stedsnr" v="739796" />
	</node>
	<node id="-71213" lat="62.5512249993" lon="5.94459722126">
		<tag k="name" v="Erkna" />
		<tag k="place" v="island" />
		<tag k="ssr:stedsnr" v="739785" />
	</node>
	<node id="-71206" lat="62.5882388873" lon="6.08119721384">
		<tag k="name" v="Bårevika" />
>>>>>>> e1d4bc35ff8a6074a6f2e91616a996b547c36f15
		<tag k="natural" v="bay" />
		<tag k="ssr:stedsnr" v="278270" />
	</node>
<<<<<<< HEAD
	<node lat="62.53592777947883" lon="6.026252783099645" id="-5858">
		<tag k="name" v="Pettersnagen" />
=======
	<node id="-71205" lat="62.5019305592" lon="6.13891110926">
		<tag k="name" v="Laberget" />
>>>>>>> e1d4bc35ff8a6074a6f2e91616a996b547c36f15
		<tag k="natural" v="cape" />
		<tag k="ssr:stedsnr" v="278277" />
	</node>
<<<<<<< HEAD
	<node lat="62.463994445141644" lon="5.981536113725465" id="-5860">
		<tag k="name" v="Breivika" />
		<tag k="natural" v="bay" />
		<tag k="ssr:stedsnr" v="278901" />
	</node>
	<node lat="62.4627944424721" lon="5.957200002205962" id="-5861">
		<tag k="name" v="Kallen" />
=======
	<node id="-71204" lat="62.5237805531" lon="6.13155555422">
		<tag k="name" v="Blomvika" />
		<tag k="natural" v="bay" />
		<tag k="ssr:stedsnr" v="642971" />
	</node>
	<node id="-71202" lat="62.544652774" lon="6.12795277241">
		<tag k="name" v="Merraneset" />
		<tag k="natural" v="cape" />
		<tag k="ssr:stedsnr" v="642955" />
	</node>
	<node id="-71201" lat="62.5781944477" lon="6.09299722163">
		<tag k="name" v="Talganeset" />
>>>>>>> e1d4bc35ff8a6074a6f2e91616a996b547c36f15
		<tag k="natural" v="cape" />
		<tag k="ssr:stedsnr" v="278903" />
	</node>
<<<<<<< HEAD
	<node lat="62.54987500318159" lon="5.945927772854645" id="-5862">
		<tag k="name" v="Mølen" />
		<tag k="natural" v="beach" />
		<tag k="ssr:stedsnr" v="278906" />
	</node>
	<node lat="62.48191389282383" lon="5.954636104580337" id="-5866">
		<tag k="name" v="Hestholmen" />
=======
	<node id="-71198" lat="62.55508889" lon="6.00609166816">
		<tag k="fixme" v="consider seamark:type=rock or natural=shoal" />
		<tag k="name" v="Geita" />
		<tag k="place" v="islet" />
		<tag k="ssr:stedsnr" v="642861" />
	</node>
	<node id="-71196" lat="62.5461888863" lon="6.0100555585">
		<tag k="fixme" v="consider seamark:type=rock or natural=shoal" />
		<tag k="name" v="Storskjeret" />
>>>>>>> e1d4bc35ff8a6074a6f2e91616a996b547c36f15
		<tag k="place" v="islet" />
		<tag k="ssr:stedsnr" v="460173" />
	</node>
<<<<<<< HEAD
	<node lat="62.46484999764977" lon="6.031788888788581" id="-5867">
		<tag k="name" v="Høgsteinneset" />
		<tag k="natural" v="cape" />
		<tag k="ssr:stedsnr" v="460178" />
	</node>
	<node lat="62.56379166525417" lon="6.050102776567707" id="-5873">
		<tag k="name" v="Brenne" />
		<tag k="natural" v="beach" />
		<tag k="ssr:stedsnr" v="460996" />
	</node>
	<node lat="62.51204444448582" lon="6.039205563277277" id="-5874">
		<tag k="name" v="Onholmen" />
		<tag k="place" v="islet" />
		<tag k="ssr:stedsnr" v="460998" />
	</node>
	<node lat="62.58520555423133" lon="6.128050009302005" id="-5875">
		<tag k="name" v="Klimpen" />
		<tag k="natural" v="cape" />
		<tag k="ssr:stedsnr" v="460999" />
	</node>
	<node lat="62.460925001573955" lon="5.947819450091206" id="-5877">
		<tag k="name" v="Revsfluda" />
=======
	<node id="-71195" lat="62.5493027784" lon="6.01230555296">
		<tag k="name" v="Grønevikane" />
		<tag k="natural" v="bay" />
		<tag k="ssr:stedsnr" v="641187" />
	</node>
	<node id="-71194" lat="62.5461999954" lon="6.02105277226">
		<tag k="name" v="Gjørivika" />
		<tag k="natural" v="bay" />
		<tag k="ssr:stedsnr" v="641184" />
	</node>
	<node id="-71193" lat="62.5631694456" lon="6.03548055159">
		<tag k="name" v="Trettarvika" />
		<tag k="natural" v="bay" />
		<tag k="ssr:stedsnr" v="641179" />
	</node>
	<node id="-71187" lat="62.5080499999" lon="6.15006944973">
		<tag k="name" v="Kjeholmsundet" />
		<tag k="natural" v="strait" />
		<tag k="ssr:stedsnr" v="641155" />
	</node>
	<node id="-71183" lat="62.6324361131" lon="5.94388889277">
		<tag k="alt_name" v="Rosskallen" />
		<tag k="name" v="Rosseskallen" />
>>>>>>> e1d4bc35ff8a6074a6f2e91616a996b547c36f15
		<tag k="natural" v="shoal" />
		<tag k="place" v="locality" />
		<tag k="ssr:stedsnr" v="294613" />
	</node>
<<<<<<< HEAD
	<node lat="62.56814444343971" lon="5.739958337574142" id="-5878">
		<tag k="name" v="Nyskallen" />
=======
	<node id="-71182" lat="62.6031999968" lon="5.92155277893">
		<tag k="name" v="Hovsfluda" />
>>>>>>> e1d4bc35ff8a6074a6f2e91616a996b547c36f15
		<tag k="natural" v="shoal" />
		<tag k="place" v="locality" />
		<tag k="ssr:stedsnr" v="295008" />
	</node>
<<<<<<< HEAD
	<node lat="62.642880553061346" lon="5.919211116378349" id="-5882">
		<tag k="name" v="Måseholmen" />
=======
	<node id="-71181" lat="62.5266749982" lon="6.09753056473">
		<tag k="name" v="Skarholmen" />
>>>>>>> e1d4bc35ff8a6074a6f2e91616a996b547c36f15
		<tag k="place" v="islet" />
		<tag k="ssr:stedsnr" v="315707" />
	</node>
<<<<<<< HEAD
	<node lat="62.50533333406619" lon="6.15039166791983" id="-5883">
		<tag k="name" v="Kjeholmen" />
=======
	<node id="-71176" lat="62.4854666712" lon="6.04555833963">
		<tag k="name" v="Furkenholmen" />
>>>>>>> e1d4bc35ff8a6074a6f2e91616a996b547c36f15
		<tag k="place" v="islet" />
		<tag k="ssr:stedsnr" v="315753" />
	</node>
<<<<<<< HEAD
	<node lat="62.59223611255647" lon="5.9957666646924155" id="-5884">
		<tag k="name" v="Knutskallen" />
		<tag k="place" v="locality" />
		<tag k="seamark:type" v="rock" />
		<tag k="ssr:stedsnr" v="328605" />
	</node>
	<node lat="62.59531666619269" lon="5.974016667619169" id="-5885">
		<tag k="name" v="Sandbakkane" />
		<tag k="place" v="locality" />
		<tag k="seamark:type" v="rock" />
		<tag k="ssr:stedsnr" v="328606" />
	</node>
	<node lat="62.50556944537923" lon="6.067425007672634" id="-5890">
		<tag k="name" v="Sandneset" />
		<tag k="natural" v="cape" />
		<tag k="ssr:stedsnr" v="338194" />
	</node>
	<node lat="62.53586110895221" lon="6.013936118665278" id="-5891">
		<tag k="name" v="Neset" />
		<tag k="natural" v="cape" />
		<tag k="ssr:stedsnr" v="338201" />
	</node>
	<node lat="62.56994444581944" lon="6.0861611082774925" id="-5893">
		<tag k="name" v="Korgeren" />
=======
	<node id="-71175" lat="62.4872249959" lon="6.06237500362">
		<tag k="name" v="Havsteinen" />
>>>>>>> e1d4bc35ff8a6074a6f2e91616a996b547c36f15
		<tag k="place" v="islet" />
		<tag k="ssr:stedsnr" v="338994" />
	</node>
<<<<<<< HEAD
	<node lat="62.643891669135414" lon="6.031722225904633" id="-5895">
		<tag k="name" v="Stadskallen" />
=======
	<node id="-71174" lat="62.6092194453" lon="6.04793889461">
		<tag k="name" v="Russen" />
>>>>>>> e1d4bc35ff8a6074a6f2e91616a996b547c36f15
		<tag k="natural" v="shoal" />
		<tag k="place" v="locality" />
		<tag k="ssr:stedsnr" v="354913" />
	</node>
<<<<<<< HEAD
	<node lat="62.538019445322696" lon="6.001816666099336" id="-5896">
		<tag k="name" v="Korsa" />
=======
	<node id="-71173" lat="62.5729305525" lon="6.07751944379">
		<tag k="name" v="Skalken" />
>>>>>>> e1d4bc35ff8a6074a6f2e91616a996b547c36f15
		<tag k="natural" v="shoal" />
		<tag k="place" v="locality" />
		<tag k="ssr:stedsnr" v="355404" />
	</node>
<<<<<<< HEAD
	<node lat="62.55109999845006" lon="6.094158324126575" id="-5897">
		<tag k="name" v="Skjelsanden" />
		<tag k="natural" v="bay" />
		<tag k="ssr:stedsnr" v="355405" />
	</node>
	<node lat="62.58197499808789" lon="6.006055546295845" id="-5898">
		<tag k="name" v="Søre Klefluda" />
=======
	<node id="-71172" lat="62.5873805586" lon="6.04870555953">
		<tag k="name" v="Vetrungane" />
>>>>>>> e1d4bc35ff8a6074a6f2e91616a996b547c36f15
		<tag k="natural" v="shoal" />
		<tag k="place" v="locality" />
		<tag k="ssr:stedsnr" v="355417" />
	</node>
<<<<<<< HEAD
	<node lat="62.574397217798236" lon="5.994099991136476" id="-5899">
		<tag k="name" v="Gibbeskallen" />
		<tag k="natural" v="shoal" />
=======
	<node id="-71171" lat="62.696472221" lon="5.87242778538">
		<tag k="name" v="Utgrunnen" />
>>>>>>> e1d4bc35ff8a6074a6f2e91616a996b547c36f15
		<tag k="place" v="locality" />
		<tag k="ssr:stedsnr" v="355418" />
	</node>
<<<<<<< HEAD
	<node lat="62.48710555436031" lon="5.952930562848386" id="-5900">
		<tag k="name" v="Kverveskallane" />
=======
	<node id="-71170" lat="62.5346472195" lon="5.76641944914">
		<tag k="name" v="Onglegrynnet" />
>>>>>>> e1d4bc35ff8a6074a6f2e91616a996b547c36f15
		<tag k="natural" v="shoal" />
		<tag k="place" v="locality" />
		<tag k="ssr:stedsnr" v="355305" />
	</node>
<<<<<<< HEAD
	<node lat="62.491544445871504" lon="5.958691664910624" id="-5901">
		<tag k="name" v="Hellene" />
		<tag k="natural" v="shoal" />
=======
	<node id="-71169" lat="62.6352416627" lon="5.99718889218">
		<tag k="name" v="Sjurhanshola" />
>>>>>>> e1d4bc35ff8a6074a6f2e91616a996b547c36f15
		<tag k="place" v="locality" />
		<tag k="ssr:stedsnr" v="355306" />
	</node>
<<<<<<< HEAD
	<node lat="62.572555559769455" lon="5.95547500593663" id="-5902">
		<tag k="name" v="Gibbedjupet" />
		<tag k="natural" v="bay" />
		<tag k="ssr:stedsnr" v="355860" />
	</node>
	<node lat="62.46703888665691" lon="6.0257833275708075" id="-5903">
		<tag k="name" v="Geilevika" />
		<tag k="natural" v="bay" />
		<tag k="ssr:stedsnr" v="357015" />
	</node>
	<node lat="62.58247777734018" lon="6.0611722135929735" id="-5905">
		<tag k="name" v="Naustfluda" />
=======
	<node id="-71168" lat="62.4564666672" lon="5.94520833677">
		<tag k="name" v="Skjenna" />
>>>>>>> e1d4bc35ff8a6074a6f2e91616a996b547c36f15
		<tag k="natural" v="shoal" />
		<tag k="place" v="locality" />
		<tag k="ssr:stedsnr" v="477431" />
	</node>
<<<<<<< HEAD
	<node lat="62.56437222034394" lon="6.00708610582662" id="-5906">
		<tag k="name" v="Røysvikstabben" />
		<tag k="natural" v="shoal" />
=======
	<node id="-71167" lat="62.5101285435" lon="6.03038567823">
		<tag k="name" v="Øydgardssanden" />
		<tag k="natural" v="beach" />
>>>>>>> e1d4bc35ff8a6074a6f2e91616a996b547c36f15
		<tag k="place" v="locality" />
		<tag k="ssr:stedsnr" v="477475" />
	</node>
<<<<<<< HEAD
	<node lat="62.51579721821238" lon="6.002711103415025" id="-5907">
		<tag k="name" v="Revsteinen" />
		<tag k="natural" v="shoal" />
=======
	<node id="-71166" lat="62.5075888918" lon="6.06402500808">
		<tag k="name" v="Gjerdesanden" />
		<tag k="natural" v="beach" />
>>>>>>> e1d4bc35ff8a6074a6f2e91616a996b547c36f15
		<tag k="place" v="locality" />
		<tag k="ssr:stedsnr" v="477506" />
	</node>
<<<<<<< HEAD
	<node lat="62.54791388792047" lon="6.014950004118786" id="-5913">
		<tag k="name" v="Klomra" />
		<tag k="natural" v="bay" />
		<tag k="ssr:stedsnr" v="399992" />
	</node>
	<node lat="62.55662222020095" lon="5.9057000088672975" id="-5915">
		<tag k="name" v="Tjøreskallen" />
=======
	<node id="-71165" lat="62.6208333357" lon="5.44999999986">
		<tag k="name" v="Mebotnen" />
>>>>>>> e1d4bc35ff8a6074a6f2e91616a996b547c36f15
		<tag k="natural" v="shoal" />
		<tag k="place" v="locality" />
		<tag k="ssr:stedsnr" v="416097" />
	</node>
<<<<<<< HEAD
	<node lat="62.57775000216995" lon="6.019744445619717" id="-5916">
		<tag k="name" v="Grynnet" />
		<tag k="natural" v="shoal" />
		<tag k="place" v="locality" />
		<tag k="ssr:stedsnr" v="416413" />
	</node>
	<node lat="62.58934722519548" lon="6.052524993150158" id="-5917">
		<tag k="name" v="Fjordmannen" />
		<tag k="natural" v="shoal" />
		<tag k="place" v="locality" />
		<tag k="ssr:stedsnr" v="416375" />
	</node>
	<node lat="62.588477776974734" lon="6.008147230138715" id="-5918">
		<tag k="name" v="Skåka" />
		<tag k="natural" v="shoal" />
		<tag k="place" v="locality" />
		<tag k="ssr:stedsnr" v="416376" />
	</node>
	<node lat="62.58347499705763" lon="6.011886104273228" id="-5919">
		<tag k="name" v="Nordre Klefluda" />
		<tag k="natural" v="shoal" />
		<tag k="place" v="locality" />
		<tag k="ssr:stedsnr" v="416379" />
	</node>
	<node lat="62.46266389280636" lon="5.9328944343872845" id="-5920">
		<tag k="name" v="Stolane" />
		<tag k="natural" v="shoal" />
		<tag k="place" v="locality" />
		<tag k="ssr:stedsnr" v="416541" />
	</node>
	<node lat="62.46214722241985" lon="5.973477781153459" id="-5921">
		<tag k="alt_name" v="Reiskjeret" />
		<tag k="fixme" v="consider seamark:type=rock or natural=shoal" />
		<tag k="name" v="Reidskjeret" />
=======
	<node id="-71164" lat="62.5707388904" lon="6.10088611999">
		<tag k="name" v="Fitjane" />
		<tag k="natural" v="beach" />
		<tag k="place" v="locality" />
		<tag k="ssr:stedsnr" v="581997" />
	</node>
	<node id="-71161" lat="62.5883388916" lon="6.12480834238">
		<tag k="name" v="Skateneset" />
		<tag k="natural" v="cape" />
		<tag k="ssr:stedsnr" v="581985" />
	</node>
	<node id="-71160" lat="62.5768972255" lon="6.08659444227">
		<tag k="fixme" v="consider seamark:type=rock or natural=shoal" />
		<tag k="name" v="Kobbeskjeret" />
		<tag k="place" v="islet" />
		<tag k="ssr:stedsnr" v="581983" />
	</node>
	<node id="-71159" lat="62.5823166638" lon="6.07846667208">
		<tag k="name" v="Støneset" />
		<tag k="natural" v="cape" />
		<tag k="ssr:stedsnr" v="581974" />
	</node>
	<node id="-71157" lat="62.5299361115" lon="6.11451666517">
		<tag k="name" v="Røyseneset" />
		<tag k="natural" v="cape" />
		<tag k="ssr:stedsnr" v="581969" />
	</node>
	<node id="-71153" lat="62.4912211685" lon="5.9704961522">
		<tag k="name" v="Rongja" />
		<tag k="natural" v="cape" />
		<tag k="ssr:stedsnr" v="581896" />
	</node>
	<node id="-71150" lat="62.5113944443" lon="6.16650278648">
		<tag k="name" v="Vilhelmsholmen" />
>>>>>>> e1d4bc35ff8a6074a6f2e91616a996b547c36f15
		<tag k="place" v="islet" />
		<tag k="ssr:stedsnr" v="435964" />
	</node>
<<<<<<< HEAD
	<node lat="62.60321111544674" lon="6.101224992146981" id="-5922">
		<tag k="bay" v="fjord" />
		<tag k="name" v="Vigrafjorden" />
		<tag k="natural" v="bay" />
		<tag k="ssr:stedsnr" v="436804" />
	</node>
	<node lat="62.63709444018596" lon="6.0408722209788905" id="-5923">
=======
	<node id="-71147" lat="62.4671444453" lon="5.99887500663">
		<tag k="name" v="Paulsneset" />
		<tag k="natural" v="cape" />
		<tag k="ssr:stedsnr" v="581178" />
	</node>
	<node id="-71146" lat="62.4659499995" lon="5.99413055653">
>>>>>>> e1d4bc35ff8a6074a6f2e91616a996b547c36f15
		<tag k="fixme" v="consider seamark:type=rock or natural=shoal" />
		<tag k="name" v="Løvsøyklovningen" />
		<tag k="place" v="islet" />
		<tag k="ssr:stedsnr" v="436702" />
	</node>
<<<<<<< HEAD
	<node lat="62.52697500383113" lon="5.957155547188224" id="-5924">
		<tag k="fixme" v="consider seamark:type=rock or natural=shoal" />
		<tag k="name" v="Håflesa" />
		<tag k="place" v="islet" />
		<tag k="ssr:stedsnr" v="436767" />
	</node>
	<node lat="62.60650000326695" lon="6.111313891399683" id="-5925">
		<tag k="fixme" v="consider seamark:type=rock or natural=shoal" />
		<tag k="name" v="Flatskjeret" />
=======
	<node id="-71144" lat="62.4848583334" lon="5.98703054779">
		<tag k="name" v="Hestevika" />
		<tag k="natural" v="bay" />
		<tag k="ssr:stedsnr" v="581165" />
	</node>
	<node id="-71139" lat="62.5428638848" lon="6.0202416703">
		<tag k="name" v="Litleholmen" />
>>>>>>> e1d4bc35ff8a6074a6f2e91616a996b547c36f15
		<tag k="place" v="islet" />
		<tag k="ssr:stedsnr" v="445233" />
	</node>
<<<<<<< HEAD
	<node lat="62.56135000090284" lon="6.0354638968616054" id="-5926">
		<tag k="name" v="Røssviksanden" />
		<tag k="natural" v="beach" />
		<tag k="ssr:stedsnr" v="460272" />
	</node>
	<node lat="62.48318889337476" lon="6.035205556859588" id="-5929">
		<tag k="name" v="Gjøta" />
		<tag k="natural" v="bay" />
		<tag k="ssr:stedsnr" v="460905" />
	</node>
	<node lat="62.555291664697705" lon="6.028547216311172" id="-5932">
		<tag k="name" v="Grisvika" />
		<tag k="natural" v="bay" />
		<tag k="ssr:stedsnr" v="460910" />
	</node>
	<node lat="62.45560000378452" lon="6.028649999390932" id="-5935">
		<tag k="name" v="Revskallen" />
=======
	<node id="-71136" lat="62.5018249979" lon="6.07031944227">
		<tag k="name" v="Staursundet" />
		<tag k="natural" v="strait" />
		<tag k="ssr:stedsnr" v="565212" />
	</node>
	<node id="-71134" lat="62.6219388925" lon="5.91089167186">
		<tag k="name" v="Kyrkjeskallen" />
>>>>>>> e1d4bc35ff8a6074a6f2e91616a996b547c36f15
		<tag k="natural" v="shoal" />
		<tag k="place" v="locality" />
		<tag k="ssr:stedsnr" v="476570" />
	</node>
<<<<<<< HEAD
	<node lat="62.46321388952414" lon="6.0313444482800325" id="-5936">
=======
	<node id="-71133" lat="62.6247194439" lon="6.03631110994">
>>>>>>> e1d4bc35ff8a6074a6f2e91616a996b547c36f15
		<tag k="fixme" v="consider seamark:type=rock or natural=shoal" />
		<tag k="name" v="Høgsteinen" />
		<tag k="place" v="islet" />
		<tag k="ssr:stedsnr" v="476925" />
	</node>
<<<<<<< HEAD
	<node lat="62.51368333226037" lon="5.994177773191636" id="-5938">
		<tag k="name" v="Hellebardane" />
=======
	<node id="-71131" lat="62.5817083301" lon="6.02602777636">
		<tag k="name" v="Langholmen" />
		<tag k="place" v="islet" />
		<tag k="ssr:stedsnr" v="557795" />
	</node>
	<node id="-71130" lat="62.5895166659" lon="6.06226666395">
		<tag k="fixme" v="consider seamark:type=rock or natural=shoal" />
		<tag k="name" v="Ivarskjeret" />
		<tag k="place" v="islet" />
		<tag k="ssr:stedsnr" v="557793" />
	</node>
	<node id="-71127" lat="62.5399194432" lon="5.86698889737">
		<tag k="fixme" v="consider seamark:type=rock or natural=shoal" />
		<tag k="name" v="Langskjeret" />
		<tag k="place" v="islet" />
		<tag k="ssr:stedsnr" v="557780" />
	</node>
	<node id="-71126" lat="62.5579249989" lon="6.07858333259">
		<tag k="name" v="Vigra" />
		<tag k="place" v="island" />
		<tag k="ssr:stedsnr" v="557779" />
	</node>
	<node id="-71125" lat="62.4675222253" lon="5.93454999839">
		<tag k="name" v="Skagen" />
		<tag k="natural" v="cape" />
		<tag k="ssr:stedsnr" v="556993" />
	</node>
	<node id="-71124" lat="62.6403055532" lon="6.03625832844">
		<tag k="name" v="Storefallet" />
>>>>>>> e1d4bc35ff8a6074a6f2e91616a996b547c36f15
		<tag k="natural" v="shoal" />
		<tag k="place" v="locality" />
		<tag k="ssr:stedsnr" v="477504" />
	</node>
<<<<<<< HEAD
	<node lat="62.61850555224508" lon="5.955541666194211" id="-5939">
		<tag k="name" v="Lakseskallane" />
=======
	<node id="-71123" lat="62.6533583322" lon="5.99002222203">
		<tag k="name" v="Snøggeskallen" />
>>>>>>> e1d4bc35ff8a6074a6f2e91616a996b547c36f15
		<tag k="natural" v="shoal" />
		<tag k="place" v="locality" />
		<tag k="ssr:stedsnr" v="477921" />
	</node>
<<<<<<< HEAD
	<node lat="62.476394442378435" lon="6.040380561804813" id="-5940">
		<tag k="name" v="Godøya" />
		<tag k="place" v="island" />
		<tag k="ssr:stedsnr" v="678998" />
	</node>
	<node lat="62.66193055904702" lon="5.9207666669072845" id="-5942">
		<tag k="name" v="Holmeskallen" />
		<tag k="natural" v="shoal" />
		<tag k="place" v="locality" />
		<tag k="ssr:stedsnr" v="679671" />
	</node>
	<node lat="62.51359444616213" lon="6.094313896964443" id="-5943">
		<tag k="name" v="Hustruhamna" />
		<tag k="natural" v="bay" />
		<tag k="ssr:stedsnr" v="679738" />
	</node>
	<node lat="62.535077776445036" lon="6.023447218696253" id="-5944">
		<tag k="fixme" v="consider seamark:type=rock or natural=shoal" />
		<tag k="name" v="Skinnprikka" />
=======
	<node id="-71121" lat="62.5122694455" lon="6.03134166123">
		<tag k="name" v="Montosteinen" />
		<tag k="natural" v="shoal" />
		<tag k="place" v="locality" />
		<tag k="ssr:stedsnr" v="537453" />
	</node>
	<node id="-71120" lat="62.579427777" lon="6.03741944389">
		<tag k="name" v="Pissebytta" />
		<tag k="natural" v="shoal" />
		<tag k="place" v="locality" />
		<tag k="ssr:stedsnr" v="537438" />
	</node>
	<node id="-71117" lat="62.5697416626" lon="6.12323056393">
		<tag k="name" v="Sandefjøra" />
		<tag k="natural" v="beach" />
		<tag k="place" v="locality" />
		<tag k="ssr:stedsnr" v="521979" />
	</node>
	<node id="-71115" lat="62.5861222243" lon="6.07276944884">
		<tag k="name" v="Ryholmen" />
		<tag k="place" v="islet" />
		<tag k="ssr:stedsnr" v="521976" />
	</node>
	<node id="-71114" lat="62.5837527797" lon="6.07315555959">
		<tag k="name" v="Naustavika" />
		<tag k="natural" v="bay" />
		<tag k="ssr:stedsnr" v="521971" />
	</node>
	<node id="-71113" lat="62.5879138914" lon="6.0809833416">
		<tag k="name" v="Brattemølen" />
		<tag k="natural" v="beach" />
		<tag k="place" v="locality" />
		<tag k="ssr:stedsnr" v="521970" />
	</node>
	<node id="-71112" lat="62.5877722236" lon="6.07786944306">
		<tag k="name" v="Revsberget" />
>>>>>>> e1d4bc35ff8a6074a6f2e91616a996b547c36f15
		<tag k="place" v="islet" />
		<tag k="ssr:stedsnr" v="679740" />
	</node>
<<<<<<< HEAD
	<node lat="62.5828972179262" lon="6.072991671829448" id="-5946">
		<tag k="name" v="Naustneset" />
=======
	<node id="-71109" lat="62.5460361133" lon="6.10185833021">
		<tag k="name" v="Stavneset" />
>>>>>>> e1d4bc35ff8a6074a6f2e91616a996b547c36f15
		<tag k="natural" v="cape" />
		<tag k="ssr:stedsnr" v="496804" />
	</node>
<<<<<<< HEAD
	<node lat="62.56254999987884" lon="6.036780556658006" id="-5947">
		<tag k="name" v="Tørneset" />
		<tag k="natural" v="cape" />
		<tag k="ssr:stedsnr" v="496800" />
	</node>
	<node lat="62.506819441879735" lon="6.084811107302317" id="-5949">
		<tag k="name" v="Skjongholmen" />
		<tag k="place" v="islet" />
		<tag k="ssr:stedsnr" v="497757" />
	</node>
	<node lat="62.56429722096882" lon="6.022802770707169" id="-5954">
=======
	<node id="-71106" lat="62.5421500017" lon="6.04011945362">
		<tag k="name" v="Kobbeveita" />
		<tag k="natural" v="bay" />
		<tag k="ssr:stedsnr" v="520219" />
	</node>
	<node id="-71105" lat="62.564297221" lon="6.02280277071">
>>>>>>> e1d4bc35ff8a6074a6f2e91616a996b547c36f15
		<tag k="alt_name" v="Tørnesfalla" />
		<tag k="fixme" v="consider seamark:type=rock or natural=shoal" />
		<tag k="name" v="Tørnesskjera" />
		<tag k="place" v="islet" />
		<tag k="ssr:stedsnr" v="520205" />
	</node>
<<<<<<< HEAD
	<node lat="62.58777222358561" lon="6.0778694430552775" id="-5957">
		<tag k="name" v="Revsberget" />
		<tag k="place" v="islet" />
		<tag k="ssr:stedsnr" v="521969" />
	</node>
	<node lat="62.58791389140308" lon="6.080983341598376" id="-5958">
		<tag k="name" v="Brattemølen" />
		<tag k="natural" v="beach" />
		<tag k="ssr:stedsnr" v="521970" />
	</node>
	<node lat="62.583752779661026" lon="6.073155559589846" id="-5959">
		<tag k="name" v="Naustavika" />
=======
	<node id="-71104" lat="62.5545472195" lon="6.02681665753">
		<tag k="name" v="Legarsvika" />
		<tag k="natural" v="bay" />
		<tag k="ssr:stedsnr" v="520201" />
	</node>
	<node id="-71103" lat="62.5563944416" lon="6.03035278061">
		<tag k="name" v="Flatavika" />
>>>>>>> e1d4bc35ff8a6074a6f2e91616a996b547c36f15
		<tag k="natural" v="bay" />
		<tag k="ssr:stedsnr" v="521971" />
	</node>
<<<<<<< HEAD
	<node lat="62.58612222426045" lon="6.072769448843301" id="-5960">
		<tag k="name" v="Ryholmen" />
=======
	<node id="-71101" lat="62.5173972189" lon="6.1658638977">
		<tag k="fixme" v="consider seamark:type=rock or natural=shoal" />
		<tag k="name" v="Skarveskjeret" />
>>>>>>> e1d4bc35ff8a6074a6f2e91616a996b547c36f15
		<tag k="place" v="islet" />
		<tag k="ssr:stedsnr" v="521976" />
	</node>
<<<<<<< HEAD
	<node lat="62.56974166258278" lon="6.123230563932006" id="-5962">
		<tag k="name" v="Sandefjøra" />
		<tag k="natural" v="beach" />
		<tag k="ssr:stedsnr" v="521979" />
	</node>
	<node lat="62.58839722654863" lon="6.025008342573205" id="-5963">
		<tag k="name" v="Oleperskallen" />
		<tag k="natural" v="shoal" />
		<tag k="place" v="locality" />
		<tag k="ssr:stedsnr" v="537408" />
	</node>
	<node lat="62.653358332245546" lon="5.990022222028625" id="-5965">
		<tag k="name" v="Snøggeskallen" />
		<tag k="natural" v="shoal" />
		<tag k="place" v="locality" />
		<tag k="ssr:stedsnr" v="537890" />
	</node>
	<node lat="62.49510305331391" lon="6.009378623073509" id="-5966">
		<tag k="name" v="Giskesundet" />
		<tag k="natural" v="strait" />
		<tag k="ssr:stedsnr" v="687223" />
	</node>
	<node lat="62.53483333008559" lon="6.0162750029392535" id="-5967">
=======
	<node id="-71093" lat="62.4973972229" lon="6.118927773">
		<tag k="name" v="Valderøya" />
		<tag k="place" v="island" />
		<tag k="ssr:stedsnr" v="436977" />
	</node>
	<node id="-71091" lat="62.6032111154" lon="6.10122499215">
		<tag k="bay" v="fjord" />
		<tag k="name" v="Vigrafjorden" />
		<tag k="natural" v="bay" />
		<tag k="ssr:stedsnr" v="436804" />
	</node>
	<node id="-71089" lat="62.5269750038" lon="5.95715554719">
		<tag k="fixme" v="consider seamark:type=rock or natural=shoal" />
		<tag k="name" v="Håflesa" />
		<tag k="place" v="islet" />
		<tag k="ssr:stedsnr" v="436767" />
	</node>
	<node id="-71088" lat="62.5126972228" lon="6.16080556275">
		<tag k="fixme" v="multiple name tags, choose one and add the other to alt_name" />
		<tag k="name" v="Hamnøya;Uksebåsen" />
		<tag k="place" v="island" />
		<tag k="ssr:stedsnr" v="436746" />
	</node>
	<node id="-71085" lat="62.6370944402" lon="6.04087222098">
>>>>>>> e1d4bc35ff8a6074a6f2e91616a996b547c36f15
		<tag k="fixme" v="consider seamark:type=rock or natural=shoal" />
		<tag k="name" v="Kvalen" />
		<tag k="place" v="islet" />
		<tag k="ssr:stedsnr" v="557755" />
	</node>
<<<<<<< HEAD
	<node lat="62.53325277764703" lon="6.132011108297314" id="-5968">
		<tag k="name" v="Olmannsvika" />
		<tag k="natural" v="bay" />
		<tag k="ssr:stedsnr" v="557762" />
	</node>
	<node lat="62.52888610767444" lon="6.125741663866704" id="-5969">
		<tag k="name" v="Gjøsundsundet" />
		<tag k="natural" v="strait" />
		<tag k="ssr:stedsnr" v="557764" />
	</node>
	<node lat="62.58170833008776" lon="6.026027776360163" id="-5970">
		<tag k="name" v="Langholmen" />
=======
	<node id="-71084" lat="62.4621472224" lon="5.97347778115">
		<tag k="alt_name" v="Reiskjeret" />
		<tag k="fixme" v="consider seamark:type=rock or natural=shoal" />
		<tag k="name" v="Reidskjeret" />
>>>>>>> e1d4bc35ff8a6074a6f2e91616a996b547c36f15
		<tag k="place" v="islet" />
		<tag k="ssr:stedsnr" v="557795" />
	</node>
<<<<<<< HEAD
	<node lat="62.50326111131981" lon="5.7958611043368675" id="-5971">
		<tag k="alt_name" v="Dyneskallen" />
		<tag k="name" v="Dyngeskallen" />
=======
	<node id="-71083" lat="62.6211222249" lon="5.97394165906">
		<tag k="name" v="Botnskallen" />
>>>>>>> e1d4bc35ff8a6074a6f2e91616a996b547c36f15
		<tag k="natural" v="shoal" />
		<tag k="place" v="locality" />
		<tag k="ssr:stedsnr" v="692584" />
	</node>
<<<<<<< HEAD
	<node lat="62.498650001605085" lon="6.03364444895442" id="-5978">
		<tag k="fixme" v="consider seamark:type=rock or natural=shoal" />
		<tag k="name" v="Skarvesteinane" />
		<tag k="place" v="islet" />
		<tag k="ssr:stedsnr" v="581254" />
	</node>
	<node lat="62.55141944677197" lon="6.008763890923548" id="-5979">
		<tag k="name" v="Haggardsvika" />
		<tag k="natural" v="bay" />
		<tag k="ssr:stedsnr" v="581256" />
	</node>
	<node lat="62.548266663859664" lon="5.942669435192319" id="-5980">
		<tag k="name" v="Kalvehola" />
		<tag k="natural" v="bay" />
		<tag k="ssr:stedsnr" v="581257" />
	</node>
	<node lat="62.49122116850987" lon="5.970496152199088" id="-5984">
		<tag k="name" v="Rongja" />
		<tag k="natural" v="cape" />
		<tag k="ssr:stedsnr" v="581896" />
	</node>
	<node lat="62.53464721946389" lon="5.766419449141092" id="-5986">
		<tag k="name" v="Onglegrynnet" />
=======
	<node id="-71082" lat="62.4626638928" lon="5.93289443439">
		<tag k="name" v="Stolane" />
		<tag k="natural" v="shoal" />
		<tag k="place" v="locality" />
		<tag k="ssr:stedsnr" v="416541" />
	</node>
	<node id="-71081" lat="62.5834749971" lon="6.01188610427">
		<tag k="name" v="Nordre Klefluda" />
		<tag k="natural" v="shoal" />
		<tag k="place" v="locality" />
		<tag k="ssr:stedsnr" v="416379" />
	</node>
	<node id="-71080" lat="62.588477777" lon="6.00814723014">
		<tag k="name" v="Skåka" />
		<tag k="natural" v="shoal" />
		<tag k="place" v="locality" />
		<tag k="ssr:stedsnr" v="416376" />
	</node>
	<node id="-71079" lat="62.5893472252" lon="6.05252499315">
		<tag k="name" v="Fjordmannen" />
>>>>>>> e1d4bc35ff8a6074a6f2e91616a996b547c36f15
		<tag k="natural" v="shoal" />
		<tag k="place" v="locality" />
		<tag k="ssr:stedsnr" v="598002" />
	</node>
<<<<<<< HEAD
	<node lat="62.57293055247511" lon="6.077519443786459" id="-5988">
		<tag k="name" v="Skalken" />
=======
	<node id="-71078" lat="62.5566222202" lon="5.90570000887">
		<tag k="name" v="Tjøreskallen" />
>>>>>>> e1d4bc35ff8a6074a6f2e91616a996b547c36f15
		<tag k="natural" v="shoal" />
		<tag k="place" v="locality" />
		<tag k="ssr:stedsnr" v="598403" />
	</node>
<<<<<<< HEAD
	<node lat="62.487224995933204" lon="6.062375003617689" id="-5989">
		<tag k="name" v="Havsteinen" />
		<tag k="place" v="islet" />
		<tag k="ssr:stedsnr" v="617983" />
	</node>
	<node lat="62.485466671158896" lon="6.045558339630857" id="-5990">
		<tag k="name" v="Furkenholmen" />
		<tag k="place" v="islet" />
		<tag k="ssr:stedsnr" v="617985" />
	</node>
	<node lat="62.57181389308867" lon="6.077333325999591" id="-5993">
		<tag k="name" v="Rørvikvågen" />
=======
	<node id="-71076" lat="62.5479138879" lon="6.01495000412">
		<tag k="name" v="Klomra" />
>>>>>>> e1d4bc35ff8a6074a6f2e91616a996b547c36f15
		<tag k="natural" v="bay" />
		<tag k="ssr:stedsnr" v="618773" />
	</node>
<<<<<<< HEAD
	<node lat="62.55906111248454" lon="6.031652775063749" id="-5996">
		<tag k="name" v="Nøre Støholmen" />
		<tag k="place" v="islet" />
		<tag k="ssr:stedsnr" v="703136" />
	</node>
	<node lat="62.5380472198297" lon="6.035033325618381" id="-5998">
		<tag k="name" v="Gåsholmen" />
		<tag k="place" v="islet" />
		<tag k="ssr:stedsnr" v="703270" />
	</node>
	<node lat="62.54930833177036" lon="6.079958327186559" id="-6002">
		<tag k="name" v="Vikeneset" />
=======
	<node id="-71074" lat="62.5349249984" lon="6.13375833333">
		<tag k="alt_name" v="Olmannsneset" />
		<tag k="name" v="Olmanneset" />
>>>>>>> e1d4bc35ff8a6074a6f2e91616a996b547c36f15
		<tag k="natural" v="cape" />
		<tag k="ssr:stedsnr" v="703950" />
	</node>
<<<<<<< HEAD
	<node lat="62.56903889290425" lon="6.0603527863833575" id="-6006">
		<tag k="name" v="Storbåtvika" />
=======
	<node id="-71068" lat="62.510383334" lon="6.15067778403">
		<tag k="name" v="Humrevika" />
>>>>>>> e1d4bc35ff8a6074a6f2e91616a996b547c36f15
		<tag k="natural" v="bay" />
		<tag k="ssr:stedsnr" v="703980" />
	</node>
<<<<<<< HEAD
	<node lat="62.56316944557648" lon="6.035480551588398" id="-6015">
		<tag k="name" v="Trettarvika" />
=======
	<node id="-71060" lat="62.5082972225" lon="6.06410833714">
		<tag k="name" v="Sandvika" />
>>>>>>> e1d4bc35ff8a6074a6f2e91616a996b547c36f15
		<tag k="natural" v="bay" />
		<tag k="ssr:stedsnr" v="641179" />
	</node>
<<<<<<< HEAD
	<node lat="62.546199995442" lon="6.021052772258094" id="-6016">
		<tag k="name" v="Gjørivika" />
=======
	<node id="-71055" lat="62.4670388867" lon="6.02578332757">
		<tag k="name" v="Geilevika" />
>>>>>>> e1d4bc35ff8a6074a6f2e91616a996b547c36f15
		<tag k="natural" v="bay" />
		<tag k="ssr:stedsnr" v="641184" />
	</node>
<<<<<<< HEAD
	<node lat="62.5493027784023" lon="6.012305552963401" id="-6017">
		<tag k="name" v="Grønevikane" />
		<tag k="natural" v="bay" />
		<tag k="ssr:stedsnr" v="641187" />
	</node>
	<node lat="62.5461888863395" lon="6.010055558496442" id="-6018">
		<tag k="fixme" v="consider seamark:type=rock or natural=shoal" />
		<tag k="name" v="Storskjeret" />
=======
	<node id="-71054" lat="62.6046638893" lon="6.07043888046">
		<tag k="name" v="Litle Rossholmen" />
>>>>>>> e1d4bc35ff8a6074a6f2e91616a996b547c36f15
		<tag k="place" v="islet" />
		<tag k="ssr:stedsnr" v="641188" />
	</node>
<<<<<<< HEAD
	<node lat="62.50193055916084" lon="6.1389111092556385" id="-6020">
		<tag k="name" v="Laberget" />
		<tag k="natural" v="cape" />
		<tag k="ssr:stedsnr" v="642979" />
	</node>
	<node lat="62.58823888726081" lon="6.081197213838089" id="-6021">
		<tag k="name" v="Bårevika" />
		<tag k="natural" v="bay" />
		<tag k="ssr:stedsnr" v="642992" />
	</node>
	<node lat="62.524152780028516" lon="5.934113885072048" id="-6023">
		<tag k="name" v="Storegrimen" />
=======
	<node id="-71053" lat="62.5725555598" lon="5.95547500594">
		<tag k="name" v="Gibbedjupet" />
		<tag k="place" v="locality" />
		<tag k="ssr:stedsnr" v="355860" />
	</node>
	<node id="-71052" lat="62.5186916685" lon="6.06328054947">
		<tag k="name" v="Staurnesgrynnet" />
		<tag k="natural" v="shoal" />
		<tag k="place" v="locality" />
		<tag k="ssr:stedsnr" v="355448" />
	</node>
	<node id="-71051" lat="62.5094166704" lon="6.08572499029">
		<tag k="name" v="Erknefluda" />
>>>>>>> e1d4bc35ff8a6074a6f2e91616a996b547c36f15
		<tag k="natural" v="shoal" />
		<tag k="place" v="locality" />
		<tag k="ssr:stedsnr" v="659902" />
	</node>
<<<<<<< HEAD
	<node lat="62.522833330289586" lon="5.950930556116511" id="-6024">
		<tag k="name" v="Litlegrimen" />
=======
	<node id="-71050" lat="62.5743972178" lon="5.99409999114">
		<tag k="name" v="Gibbeskallen" />
>>>>>>> e1d4bc35ff8a6074a6f2e91616a996b547c36f15
		<tag k="natural" v="shoal" />
		<tag k="place" v="locality" />
		<tag k="ssr:stedsnr" v="659904" />
	</node>
<<<<<<< HEAD
	<node lat="62.602544443931244" lon="6.057199990669001" id="-6025">
		<tag k="name" v="Rossholmen" />
		<tag k="place" v="islet" />
		<tag k="ssr:stedsnr" v="659909" />
	</node>
	<node lat="62.6125000038736" lon="5.543333340770222" id="-6026">
		<tag k="name" v="Synesgrunnen" />
=======
	<node id="-71049" lat="62.5819749981" lon="6.0060555463">
		<tag k="name" v="Søre Klefluda" />
>>>>>>> e1d4bc35ff8a6074a6f2e91616a996b547c36f15
		<tag k="natural" v="shoal" />
		<tag k="place" v="locality" />
		<tag k="ssr:stedsnr" v="709638" />
	</node>
<<<<<<< HEAD
	<node lat="62.558536114561086" lon="5.914708337087425" id="-6028">
		<tag k="fixme" v="consider seamark:type=rock or natural=shoal" />
		<tag k="name" v="Dyngja" />
		<tag k="place" v="islet" />
		<tag k="ssr:stedsnr" v="678781" />
	</node>
	<node lat="62.51440277609812" lon="6.093188892315673" id="-6031">
		<tag k="name" v="Hustruhamnklubben" />
		<tag k="natural" v="cape" />
		<tag k="ssr:stedsnr" v="702182" />
	</node>
	<node lat="62.55565000288751" lon="6.02909166414858" id="-6032">
		<tag k="name" v="Budaberget" />
		<tag k="natural" v="cape" />
		<tag k="ssr:stedsnr" v="702203" />
	</node>
	<node lat="62.54428611414501" lon="5.984552776137816" id="-6035">
		<tag k="name" v="Yngjesfluda" />
=======
	<node id="-71048" lat="62.5510999985" lon="6.09415832413">
		<tag k="name" v="Skjelsanden" />
		<tag k="natural" v="bay" />
		<tag k="ssr:stedsnr" v="355405" />
	</node>
	<node id="-71047" lat="62.5380194453" lon="6.0018166661">
		<tag k="name" v="Korsa" />
		<tag k="natural" v="shoal" />
		<tag k="place" v="locality" />
		<tag k="ssr:stedsnr" v="355404" />
	</node>
	<node id="-71046" lat="62.5740527742" lon="6.06546944885">
		<tag k="name" v="Hagebakkane" />
>>>>>>> e1d4bc35ff8a6074a6f2e91616a996b547c36f15
		<tag k="natural" v="shoal" />
		<tag k="place" v="locality" />
		<tag k="ssr:stedsnr" v="720122" />
	</node>
<<<<<<< HEAD
	<node lat="62.44959999961605" lon="5.921413883121678" id="-6036">
		<tag k="name" v="Stabben" />
=======
	<node id="-71045" lat="62.4915444459" lon="5.95869166491">
		<tag k="name" v="Hellene" />
>>>>>>> e1d4bc35ff8a6074a6f2e91616a996b547c36f15
		<tag k="natural" v="shoal" />
		<tag k="place" v="locality" />
		<tag k="ssr:stedsnr" v="720317" />
	</node>
<<<<<<< HEAD
	<node lat="62.589311114295036" lon="6.118461107081716" id="-6037">
		<tag k="name" v="Sandvika" />
		<tag k="natural" v="bay" />
		<tag k="ssr:stedsnr" v="720419" />
	</node>
	<node lat="62.59181111032597" lon="6.093763883998134" id="-6038">
		<tag k="name" v="Storholmfluda" />
=======
	<node id="-71044" lat="62.4871055544" lon="5.95293056285">
		<tag k="name" v="Kverveskallane" />
>>>>>>> e1d4bc35ff8a6074a6f2e91616a996b547c36f15
		<tag k="natural" v="shoal" />
		<tag k="place" v="locality" />
		<tag k="ssr:stedsnr" v="720424" />
	</node>
<<<<<<< HEAD
	<node lat="62.57464722003527" lon="6.002819437075407" id="-6039">
		<tag k="name" v="Djupfluda" />
=======
	<node id="-71043" lat="62.5597444415" lon="5.956611102">
		<tag k="name" v="Kyrkjeskallen" />
>>>>>>> e1d4bc35ff8a6074a6f2e91616a996b547c36f15
		<tag k="natural" v="shoal" />
		<tag k="place" v="locality" />
		<tag k="ssr:stedsnr" v="720470" />
	</node>
<<<<<<< HEAD
	<node lat="62.51369444837014" lon="6.0349888834610415" id="-6040">
		<tag k="name" v="Samstadfluda" />
=======
	<node id="-71042" lat="62.5786277818" lon="5.91731944557">
		<tag k="name" v="Langskallen" />
>>>>>>> e1d4bc35ff8a6074a6f2e91616a996b547c36f15
		<tag k="natural" v="shoal" />
		<tag k="place" v="locality" />
		<tag k="ssr:stedsnr" v="720483" />
	</node>
<<<<<<< HEAD
	<node lat="62.51644444635766" lon="5.994794450396367" id="-6041">
		<tag k="name" v="Nyfallet" />
		<tag k="natural" v="shoal" />
		<tag k="place" v="locality" />
		<tag k="ssr:stedsnr" v="720487" />
	</node>
	<node lat="62.60594444126442" lon="6.015494439614321" id="-6042">
		<tag k="name" v="Veteskolten" />
		<tag k="natural" v="shoal" />
=======
	<node id="-71041" lat="62.5722999991" lon="5.93269722105">
		<tag k="name" v="Sveskallen" />
		<tag k="natural" v="shoal" />
		<tag k="place" v="locality" />
		<tag k="ssr:stedsnr" v="355114" />
	</node>
	<node id="-71039" lat="62.5699444458" lon="6.08616110828">
		<tag k="name" v="Korgeren" />
		<tag k="place" v="islet" />
		<tag k="ssr:stedsnr" v="338994" />
	</node>
	<node id="-71037" lat="62.5882361083" lon="6.08798889182">
		<tag k="name" v="Helandsvika" />
		<tag k="natural" v="bay" />
		<tag k="ssr:stedsnr" v="338959" />
	</node>
	<node id="-71035" lat="62.4623083355" lon="5.96636667173">
		<tag k="name" v="Trøsvika" />
		<tag k="natural" v="bay" />
		<tag k="ssr:stedsnr" v="338869" />
	</node>
	<node id="-71033" lat="62.535861109" lon="6.01393611867">
		<tag k="name" v="Neset" />
		<tag k="natural" v="cape" />
		<tag k="ssr:stedsnr" v="338201" />
	</node>
	<node id="-71032" lat="62.5055694454" lon="6.06742500767">
		<tag k="name" v="Sandneset" />
		<tag k="natural" v="cape" />
		<tag k="ssr:stedsnr" v="338194" />
	</node>
	<node id="-71030" lat="62.5502333334" lon="6.00684166466">
		<tag k="fixme" v="consider seamark:type=rock or natural=shoal" />
		<tag k="name" v="Svartuksen" />
		<tag k="place" v="islet" />
		<tag k="ssr:stedsnr" v="338184" />
	</node>
	<node id="-71029" lat="62.5021750028" lon="6.03104167219">
		<tag k="name" v="Storsøyla" />
		<tag k="natural" v="bay" />
		<tag k="ssr:stedsnr" v="338183" />
	</node>
	<node id="-71028" lat="62.5640305548" lon="6.03561666995">
		<tag k="name" v="Tørnesodden" />
		<tag k="natural" v="cape" />
		<tag k="ssr:stedsnr" v="338180" />
	</node>
	<node id="-71022" lat="62.5071249994" lon="5.9237000018">
		<tag k="name" v="Leiafallet" />
>>>>>>> e1d4bc35ff8a6074a6f2e91616a996b547c36f15
		<tag k="place" v="locality" />
		<tag k="ssr:stedsnr" v="720909" />
	</node>
<<<<<<< HEAD
	<node lat="62.59321944823742" lon="6.06141666444454" id="-6043">
		<tag k="name" v="Jakobsgrynnet" />
		<tag k="natural" v="shoal" />
		<tag k="place" v="locality" />
		<tag k="ssr:stedsnr" v="720912" />
	</node>
	<node lat="62.63031388679512" lon="6.051500004473983" id="-6045">
		<tag k="name" v="Klovningsfallet" />
		<tag k="natural" v="shoal" />
		<tag k="place" v="locality" />
		<tag k="ssr:stedsnr" v="720918" />
	</node>
	<node lat="62.479497219784754" lon="6.046888883583168" id="-6046">
		<tag k="name" v="Karifluda" />
=======
	<node id="-71018" lat="62.5081472263" lon="5.78950555105">
		<tag k="alt_name" v="Statsgrunnskallen" />
		<tag k="name" v="Stadsgrunnskallen" />
		<tag k="natural" v="shoal" />
		<tag k="place" v="locality" />
		<tag k="ssr:stedsnr" v="207589" />
	</node>
	<node id="-71017" lat="62.5705972197" lon="6.05284167646">
		<tag k="name" v="Hjellholmen" />
		<tag k="place" v="islet" />
		<tag k="ssr:stedsnr" v="193799" />
	</node>
	<node id="-71016" lat="62.5416638866" lon="5.87511388226">
		<tag k="fixme" v="consider seamark:type=rock or natural=shoal" />
		<tag k="name" v="Småskjera" />
		<tag k="place" v="islet" />
		<tag k="ssr:stedsnr" v="193792" />
	</node>
	<node id="-71012" lat="62.5155222197" lon="6.062522223">
		<tag k="name" v="Finnøya" />
		<tag k="place" v="islet" />
		<tag k="ssr:stedsnr" v="193756" />
	</node>
	<node id="-71011" lat="62.5182638852" lon="5.99709722491">
		<tag k="name" v="Giskerevet" />
		<tag k="natural" v="shoal" />
		<tag k="place" v="locality" />
		<tag k="ssr:stedsnr" v="193755" />
	</node>
	<node id="-71009" lat="62.5092444419" lon="6.02526665955">
		<tag k="name" v="Kvalneset" />
		<tag k="natural" v="cape" />
		<tag k="ssr:stedsnr" v="193744" />
	</node>
	<node id="-71008" lat="62.5063444477" lon="6.03084167558">
		<tag k="name" v="Makkevika" />
		<tag k="natural" v="bay" />
		<tag k="ssr:stedsnr" v="193738" />
	</node>
	<node id="-71007" lat="62.6493333366" lon="5.92418333033">
		<tag k="name" v="Ytste Stadsgrynnskallen" />
>>>>>>> e1d4bc35ff8a6074a6f2e91616a996b547c36f15
		<tag k="natural" v="shoal" />
		<tag k="place" v="locality" />
		<tag k="ssr:stedsnr" v="901598" />
	</node>
<<<<<<< HEAD
	<node lat="62.58906666422574" lon="6.070711107008963" id="-6047">
		<tag k="name" v="Revsteinen" />
=======
	<node id="-71006" lat="62.5660916635" lon="5.73441945303">
		<tag k="name" v="Vestreskallen" />
>>>>>>> e1d4bc35ff8a6074a6f2e91616a996b547c36f15
		<tag k="natural" v="shoal" />
		<tag k="place" v="locality" />
		<tag k="ssr:stedsnr" v="902442" />
	</node>
<<<<<<< HEAD
	<node lat="62.59117777502035" lon="6.034961108393441" id="-6048">
		<tag k="name" v="Molneskyrkjeskallen" />
=======
	<node id="-71005" lat="62.6124416658" lon="5.97164722844">
		<tag k="name" v="Storefluda" />
>>>>>>> e1d4bc35ff8a6074a6f2e91616a996b547c36f15
		<tag k="natural" v="shoal" />
		<tag k="place" v="locality" />
		<tag k="ssr:stedsnr" v="902452" />
	</node>
<<<<<<< HEAD
	<node lat="62.58636944718511" lon="6.0166583266173665" id="-6049">
		<tag k="name" v="Hummarløysa" />
=======
	<node id="-71004" lat="62.6119444443" lon="5.95169166952">
		<tag k="name" v="Storfallet" />
>>>>>>> e1d4bc35ff8a6074a6f2e91616a996b547c36f15
		<tag k="natural" v="shoal" />
		<tag k="place" v="locality" />
		<tag k="ssr:stedsnr" v="902455" />
	</node>
<<<<<<< HEAD
	<node lat="62.58606388976492" lon="6.001144453261319" id="-6050">
		<tag k="name" v="Melen" />
=======
	<node id="-71003" lat="62.4633722224" lon="5.992272222">
		<tag k="name" v="Grunnrevet" />
>>>>>>> e1d4bc35ff8a6074a6f2e91616a996b547c36f15
		<tag k="natural" v="shoal" />
		<tag k="place" v="locality" />
		<tag k="ssr:stedsnr" v="902458" />
	</node>
<<<<<<< HEAD
	<node lat="62.557636108604996" lon="6.032480552525013" id="-6052">
		<tag k="name" v="Røssvikvågen" />
		<tag k="natural" v="bay" />
		<tag k="ssr:stedsnr" v="739796" />
	</node>
	<node lat="62.5156555541506" lon="6.178933340099783" id="-6054">
		<tag k="name" v="Rugholmen" />
		<tag k="place" v="islet" />
		<tag k="ssr:stedsnr" v="763143" />
	</node>
	<node lat="62.60968611227547" lon="6.058927780975635" id="-6059">
		<tag k="name" v="Rossholmbåen" />
=======
	<node id="-71002" lat="62.5902805556" lon="5.99460000695">
		<tag k="name" v="Skjerbåen" />
>>>>>>> e1d4bc35ff8a6074a6f2e91616a996b547c36f15
		<tag k="natural" v="shoal" />
		<tag k="place" v="locality" />
		<tag k="ssr:stedsnr" v="780863" />
	</node>
<<<<<<< HEAD
	<node lat="62.50934444839056" lon="6.100049996786789" id="-6061">
		<tag k="name" v="Ytterlandsvika" />
		<tag k="natural" v="bay" />
		<tag k="ssr:stedsnr" v="800729" />
	</node>
	<node lat="62.50574101514376" lon="6.079344991791714" id="-6063">
		<tag k="name" v="Staursundet" />
		<tag k="natural" v="strait" />
		<tag k="old_name" v="Staurnessundet" />
		<tag k="ssr:stedsnr" v="800975" />
	</node>
	<node lat="62.488894448283496" lon="6.093241674071741" id="-6064">
		<tag k="name" v="Snøggefluda" />
=======
	<node id="-71001" lat="62.5937833367" lon="6.11486943506">
		<tag k="name" v="Grynnfluda" />
>>>>>>> e1d4bc35ff8a6074a6f2e91616a996b547c36f15
		<tag k="natural" v="shoal" />
		<tag k="place" v="locality" />
		<tag k="ssr:stedsnr" v="800983" />
	</node>
<<<<<<< HEAD
	<node lat="62.48476944097721" lon="6.100438892022222" id="-6065">
		<tag k="bay" v="fjord" />
		<tag k="name" v="Valderhaugfjorden" />
		<tag k="natural" v="bay" />
		<tag k="ssr:stedsnr" v="800985" />
	</node>
	<node lat="62.53753611485121" lon="6.132677775722043" id="-6068">
		<tag k="name" v="Sildegarnneset" />
=======
	<node id="-70997" lat="62.5009083363" lon="6.03178054849">
		<tag k="name" v="Holmen" />
>>>>>>> e1d4bc35ff8a6074a6f2e91616a996b547c36f15
		<tag k="natural" v="cape" />
		<tag k="ssr:stedsnr" v="824964" />
	</node>
<<<<<<< HEAD
	<node lat="62.50624444071603" lon="6.096730556519253" id="-6069">
		<tag k="name" v="Klubben" />
=======
	<node id="-70988" lat="62.5201611095" lon="6.13960278735">
		<tag k="name" v="Kvamsneset" />
>>>>>>> e1d4bc35ff8a6074a6f2e91616a996b547c36f15
		<tag k="natural" v="cape" />
		<tag k="ssr:stedsnr" v="824969" />
	</node>
<<<<<<< HEAD
	<node lat="62.519577777825255" lon="6.1384361085826376" id="-6070">
		<tag k="name" v="Klubben" />
		<tag k="natural" v="cape" />
		<tag k="ssr:stedsnr" v="824975" />
	</node>
	<node lat="62.55285277689542" lon="5.935730562465396" id="-6073">
		<tag k="name" v="Kråkevika" />
		<tag k="natural" v="bay" />
		<tag k="ssr:stedsnr" v="921792" />
	</node>
	<node lat="62.50239999711196" lon="6.039569443961992" id="-6074">
		<tag k="name" v="Giske" />
		<tag k="place" v="island" />
		<tag k="ssr:stedsnr" v="921970" />
	</node>
	<node lat="62.46545277925885" lon="6.014630557885152" id="-6077">
		<tag k="name" v="Revet" />
=======
	<node id="-70987" lat="62.4682166673" lon="6.00932222119">
		<tag k="name" v="Ramogeilvika" />
		<tag k="natural" v="bay" />
		<tag k="ssr:stedsnr" v="156138" />
	</node>
	<node id="-70985" lat="62.4638777785" lon="5.94333888528">
		<tag k="name" v="Ryggahola" />
		<tag k="natural" v="bay" />
		<tag k="ssr:stedsnr" v="156120" />
	</node>
	<node id="-70982" lat="62.6454333326" lon="6.00417777165">
		<tag k="name" v="Søre Djupfallet" />
		<tag k="natural" v="shoal" />
		<tag k="place" v="locality" />
		<tag k="ssr:stedsnr" v="146597" />
	</node>
	<node id="-70981" lat="62.5810111092" lon="5.9959250077">
		<tag k="name" v="Kyrkjefluda" />
		<tag k="place" v="locality" />
		<tag k="seamark:type" v="rock" />
		<tag k="ssr:stedsnr" v="146594" />
	</node>
	<node id="-70980" lat="62.6483611074" lon="5.97556667336">
		<tag k="name" v="Støtten" />
>>>>>>> e1d4bc35ff8a6074a6f2e91616a996b547c36f15
		<tag k="natural" v="shoal" />
		<tag k="place" v="locality" />
		<tag k="ssr:stedsnr" v="841575" />
	</node>
<<<<<<< HEAD
	<node lat="62.528116664839864" lon="5.701980553366636" id="-6078">
		<tag k="name" v="Høgeskallen" />
=======
	<node id="-70979" lat="62.6397249996" lon="6.0343250006">
		<tag k="name" v="Kobbeskjeret" />
>>>>>>> e1d4bc35ff8a6074a6f2e91616a996b547c36f15
		<tag k="natural" v="shoal" />
		<tag k="place" v="locality" />
		<tag k="ssr:stedsnr" v="842005" />
	</node>
<<<<<<< HEAD
	<node lat="62.62613610851404" lon="5.851005558388136" id="-6080">
		<tag k="name" v="Steinsgrynnet" />
=======
	<node id="-70977" lat="62.4911249987" lon="5.88850555105">
		<tag k="name" v="Lyren" />
>>>>>>> e1d4bc35ff8a6074a6f2e91616a996b547c36f15
		<tag k="natural" v="shoal" />
		<tag k="place" v="locality" />
		<tag k="ssr:stedsnr" v="861688" />
	</node>
<<<<<<< HEAD
	<node lat="62.49089722389495" lon="5.964522215375837" id="-6081">
		<tag k="name" v="Alnestangen" />
		<tag k="natural" v="cape" />
		<tag k="ssr:stedsnr" v="861986" />
	</node>
	<node lat="62.64737500159787" lon="5.938775006886282" id="-6083">
		<tag k="name" v="Jakteskallen" />
=======
	<node id="-70976" lat="62.6007750004" lon="5.99805834052">
		<tag k="name" v="Svarven" />
>>>>>>> e1d4bc35ff8a6074a6f2e91616a996b547c36f15
		<tag k="natural" v="shoal" />
		<tag k="place" v="locality" />
		<tag k="ssr:stedsnr" v="930233" />
	</node>
<<<<<<< HEAD
	<node lat="62.514772222008475" lon="6.162358341433294" id="-6085">
		<tag k="name" v="Supaneset" />
		<tag k="natural" v="cape" />
		<tag k="ssr:stedsnr" v="885198" />
	</node>
	<node lat="62.56615833153472" lon="5.74225833280462" id="-6092">
		<tag k="name" v="Remmen" />
		<tag k="natural" v="shoal" />
		<tag k="place" v="locality" />
		<tag k="ssr:stedsnr" v="902003" />
	</node>
	<node lat="62.63259444407912" lon="6.040716669253736" id="-6094">
		<tag k="name" v="Klovningsgrynnet" />
=======
	<node id="-70975" lat="62.550641664" lon="5.87113611749">
		<tag k="fixme" v="consider seamark:type=rock or natural=shoal" />
		<tag k="name" v="Toskjera" />
		<tag k="place" v="islet" />
		<tag k="ssr:stedsnr" v="132789" />
	</node>
	<node id="-70974" lat="62.5438611137" lon="6.03558610536">
		<tag k="name" v="Synesvågen" />
		<tag k="natural" v="bay" />
		<tag k="ssr:stedsnr" v="132784" />
	</node>
	<node id="-70971" lat="62.6072305578" lon="5.94718333252">
		<tag k="name" v="Snøggeskallen" />
>>>>>>> e1d4bc35ff8a6074a6f2e91616a996b547c36f15
		<tag k="natural" v="shoal" />
		<tag k="place" v="locality" />
		<tag k="ssr:stedsnr" v="902913" />
	</node>
<<<<<<< HEAD
	<node lat="62.594411109100584" lon="6.016844452157273" id="-6096">
		<tag k="name" v="Molnesskallen" />
=======
	<node id="-70970" lat="62.497316664" lon="6.02311667478">
		<tag k="name" v="Stanga" />
>>>>>>> e1d4bc35ff8a6074a6f2e91616a996b547c36f15
		<tag k="natural" v="shoal" />
		<tag k="place" v="locality" />
		<tag k="ssr:stedsnr" v="921812" />
	</node>
<<<<<<< HEAD
	<node lat="62.468466664753635" lon="5.931775004061621" id="-6098">
		<tag k="alt_name" v="Leistaskjeret" />
		<tag k="fixme" v="consider seamark:type=rock or natural=shoal" />
		<tag k="name" v="Lestaskjeret" />
=======
	<node id="-70969" lat="62.5108166663" lon="6.04863888195">
		<tag k="name" v="Buholmen" />
>>>>>>> e1d4bc35ff8a6074a6f2e91616a996b547c36f15
		<tag k="place" v="islet" />
		<tag k="ssr:stedsnr" v="921996" />
	</node>
<<<<<<< HEAD
	<node lat="62.51451667029117" lon="5.914733331987226" id="-6100">
		<tag k="name" v="Raunen" />
		<tag k="place" v="islet" />
		<tag k="ssr:stedsnr" v="922732" />
	</node>
	<node lat="62.47883888811512" lon="6.043411116351552" id="-6102">
		<tag k="name" v="Støbakkvika" />
		<tag k="natural" v="bay" />
		<tag k="ssr:stedsnr" v="945129" />
	</node>
	<node lat="62.495527781641925" lon="6.113730564105101" id="-6103">
=======
	<node id="-70968" lat="62.5707444411" lon="6.0690083241">
		<tag k="name" v="Kobbevika" />
		<tag k="natural" v="bay" />
		<tag k="ssr:stedsnr" v="96983" />
	</node>
	<node id="-70964" lat="62.5532861078" lon="6.01587500244">
		<tag k="name" v="Godvika" />
		<tag k="natural" v="bay" />
		<tag k="ssr:stedsnr" v="96245" />
	</node>
	<node id="-70963" lat="62.5548388897" lon="6.0160472224">
		<tag k="name" v="Nesberget" />
		<tag k="natural" v="cape" />
		<tag k="ssr:stedsnr" v="96244" />
	</node>
	<node id="-70962" lat="62.4993000033" lon="6.09916667357">
		<tag k="name" v="Skjongneset" />
		<tag k="natural" v="cape" />
		<tag k="ssr:stedsnr" v="96242" />
	</node>
	<node id="-70961" lat="62.5077083295" lon="6.10015000495">
>>>>>>> e1d4bc35ff8a6074a6f2e91616a996b547c36f15
		<tag k="fixme" v="consider seamark:type=rock or natural=shoal" />
		<tag k="name" v="Martinskjeret" />
		<tag k="place" v="islet" />
		<tag k="ssr:stedsnr" v="945191" />
	</node>
<<<<<<< HEAD
	<node lat="62.54983333397505" lon="6.123633325733892" id="-6106">
		<tag k="alt_name" v="Røysevika" />
		<tag k="name" v="Røysavika" />
		<tag k="natural" v="bay" />
		<tag k="ssr:stedsnr" v="946935" />
	</node>
	<node lat="62.51021388929676" lon="6.0262194484348965" id="-6107">
		<tag k="name" v="Storvika" />
		<tag k="natural" v="bay" />
		<tag k="ssr:stedsnr" v="946986" />
	</node>
	<node lat="62.57008055202627" lon="6.06375556031325" id="-6109">
		<tag k="name" v="Hagevika" />
		<tag k="natural" v="bay" />
		<tag k="ssr:stedsnr" v="946998" />
	</node>
	<node lat="62.49064444595314" lon="5.947558341471158" id="-6111">
		<tag k="name" v="Raudsteinskallen" />
=======
	<node id="-70958" lat="62.4627638857" lon="5.9502805603">
		<tag k="fixme" v="consider seamark:type=rock or natural=shoal" />
		<tag k="name" v="Kjerringa" />
		<tag k="place" v="islet" />
		<tag k="ssr:stedsnr" v="96137" />
	</node>
	<node id="-70956" lat="62.5788305574" lon="5.75752500325">
		<tag k="name" v="Jonskallen" />
>>>>>>> e1d4bc35ff8a6074a6f2e91616a996b547c36f15
		<tag k="natural" v="shoal" />
		<tag k="place" v="locality" />
		<tag k="ssr:stedsnr" v="962290" />
	</node>
<<<<<<< HEAD
	<node lat="62.48421204245272" lon="5.96497422156695" id="-6114">
		<tag k="name" v="Rova" />
		<tag k="natural" v="cape" />
		<tag k="ssr:stedsnr" v="973349" />
	</node>
	<node lat="62.60316666263354" lon="5.9797861031579576" id="-6118">
		<tag k="name" v="Dausken" />
=======
	<node id="-70955" lat="62.490863886" lon="6.0133694472">
		<tag k="name" v="Giskesundet" />
		<tag k="natural" v="strait" />
		<tag k="ssr:stedsnr" v="72977" />
	</node>
	<node id="-70954" lat="62.4915833318" lon="5.8555555577">
		<tag k="name" v="Olsfluda" />
>>>>>>> e1d4bc35ff8a6074a6f2e91616a996b547c36f15
		<tag k="natural" v="shoal" />
		<tag k="place" v="locality" />
		<tag k="ssr:stedsnr" v="11716" />
	</node>
<<<<<<< HEAD
	<node lat="62.562933333185555" lon="5.920208342197693" id="-6119">
		<tag k="fixme" v="consider seamark:type=rock or natural=shoal" />
		<tag k="name" v="Svarteskjeret" />
		<tag k="place" v="islet" />
		<tag k="ssr:stedsnr" v="11790" />
	</node>
	<node lat="62.559822225589706" lon="6.034677780390772" id="-6120">
		<tag k="name" v="Skarvetangane" />
=======
	<node id="-70953" lat="62.5720777768" lon="6.03400278052">
		<tag k="name" v="Vestmannsholmane" />
		<tag k="place" v="islet" />
		<tag k="ssr:stedsnr" v="72774" />
	</node>
	<node id="-70951" lat="62.5644694431" lon="6.05056666111">
		<tag k="name" v="Blimssanden" />
		<tag k="natural" v="beach" />
		<tag k="place" v="locality" />
		<tag k="ssr:stedsnr" v="72768" />
	</node>
	<node id="-70949" lat="62.466000003" lon="5.93522777081">
		<tag k="alt_name" v="Kanset" />
		<tag k="name" v="Kannset" />
>>>>>>> e1d4bc35ff8a6074a6f2e91616a996b547c36f15
		<tag k="natural" v="cape" />
		<tag k="ssr:stedsnr" v="11794" />
	</node>
<<<<<<< HEAD
	<node lat="62.51141388546547" lon="6.040286115216641" id="-6121">
		<tag k="name" v="Storevika" />
		<tag k="natural" v="bay" />
		<tag k="ssr:stedsnr" v="20221" />
	</node>
	<node lat="62.58828610905512" lon="5.76931945029674" id="-6122">
		<tag k="name" v="Kvalrosskallen" />
=======
	<node id="-70948" lat="62.5931361099" lon="6.11011943993">
		<tag k="name" v="Langenesfluda" />
>>>>>>> e1d4bc35ff8a6074a6f2e91616a996b547c36f15
		<tag k="natural" v="shoal" />
		<tag k="place" v="locality" />
		<tag k="ssr:stedsnr" v="25636" />
	</node>
<<<<<<< HEAD
	<node lat="62.47562222259636" lon="5.942247212772505" id="-6124">
		<tag k="alt_name" v="Bremneset" />
		<tag k="name" v="Brimneset" />
		<tag k="natural" v="cape" />
		<tag k="ssr:stedsnr" v="35143" />
	</node>
	<node lat="62.543461111102765" lon="6.0092027744261785" id="-6128">
=======
	<node id="-70941" lat="62.5697222197" lon="6.05634443817">
		<tag k="name" v="Blindheimssundet" />
		<tag k="natural" v="strait" />
		<tag k="ssr:stedsnr" v="35961" />
	</node>
	<node id="-70937" lat="62.5434611111" lon="6.00920277443">
>>>>>>> e1d4bc35ff8a6074a6f2e91616a996b547c36f15
		<tag k="name" v="Synesholmane" />
		<tag k="place" v="islet" />
		<tag k="ssr:stedsnr" v="35292" />
	</node>
<<<<<<< HEAD
	<node lat="62.516011108960846" lon="6.162694435206572" id="-6129">
		<tag k="fixme" v="consider seamark:type=rock or natural=shoal" />
		<tag k="name" v="Kråkereiret" />
		<tag k="place" v="islet" />
		<tag k="ssr:stedsnr" v="35249" />
	</node>
	<node lat="62.500961108702114" lon="6.139433338730673" id="-6130">
=======
	<node id="-70934" lat="62.5009611087" lon="6.13943333873">
>>>>>>> e1d4bc35ff8a6074a6f2e91616a996b547c36f15
		<tag k="alt_name" v="Jangardsneset" />
		<tag k="name" v="Jangardøyra" />
		<tag k="natural" v="cape" />
		<tag k="ssr:stedsnr" v="35252" />
	</node>
<<<<<<< HEAD
	<node lat="62.596219448231295" lon="6.060105564161819" id="-6141">
		<tag k="name" v="Godmora" />
		<tag k="natural" v="shoal" />
		<tag k="place" v="locality" />
		<tag k="ssr:stedsnr" v="52884" />
	</node>
	<node lat="62.564469443083645" lon="6.050566661111054" id="-6143">
		<tag k="name" v="Blimssanden" />
		<tag k="natural" v="beach" />
		<tag k="ssr:stedsnr" v="72768" />
	</node>
	<node lat="62.57207777677325" lon="6.034002780523033" id="-6145">
		<tag k="name" v="Vestmannsholmane" />
=======
	<node id="-70933" lat="62.516011109" lon="6.16269443521">
		<tag k="fixme" v="consider seamark:type=rock or natural=shoal" />
		<tag k="name" v="Kråkereiret" />
>>>>>>> e1d4bc35ff8a6074a6f2e91616a996b547c36f15
		<tag k="place" v="islet" />
		<tag k="ssr:stedsnr" v="72774" />
	</node>
<<<<<<< HEAD
	<node lat="62.46600000296088" lon="5.935227770810662" id="-6146">
		<tag k="alt_name" v="Kanset" />
		<tag k="name" v="Kannset" />
=======
	<node id="-70924" lat="62.467988887" lon="6.00401110682">
		<tag k="name" v="Utigardsneset" />
>>>>>>> e1d4bc35ff8a6074a6f2e91616a996b547c36f15
		<tag k="natural" v="cape" />
		<tag k="ssr:stedsnr" v="71955" />
	</node>
<<<<<<< HEAD
	<node lat="62.51446212469383" lon="6.064892987720741" id="-6148">
		<tag k="name" v="Staurneset" />
=======
	<node id="-70922" lat="62.4756222226" lon="5.94224721277">
		<tag k="alt_name" v="Bremneset" />
		<tag k="name" v="Brimneset" />
>>>>>>> e1d4bc35ff8a6074a6f2e91616a996b547c36f15
		<tag k="natural" v="cape" />
		<tag k="ssr:stedsnr" v="72739" />
	</node>
<<<<<<< HEAD
	<node lat="62.53076110970039" lon="6.131861114291473" id="-6149">
		<tag k="name" v="Gjøsundneset" />
		<tag k="natural" v="cape" />
		<tag k="ssr:stedsnr" v="72748" />
	</node>
	<node lat="62.57883055743015" lon="5.757525003253177" id="-6150">
		<tag k="name" v="Jonskallen" />
=======
	<node id="-70919" lat="62.5882861091" lon="5.7693194503">
		<tag k="name" v="Kvalrosskallen" />
>>>>>>> e1d4bc35ff8a6074a6f2e91616a996b547c36f15
		<tag k="natural" v="shoal" />
		<tag k="place" v="locality" />
		<tag k="ssr:stedsnr" v="85541" />
	</node>
<<<<<<< HEAD
	<node lat="62.512197220926176" lon="5.983133341662255" id="-6151">
		<tag k="name" v="Hellesteinane" />
		<tag k="place" v="locality" />
		<tag k="seamark:type" v="rock" />
		<tag k="ssr:stedsnr" v="85565" />
	</node>
	<node lat="62.499300003250625" lon="6.099166673571838" id="-6152">
		<tag k="name" v="Skjongneset" />
=======
	<node id="-70918" lat="62.5114138855" lon="6.04028611522">
		<tag k="name" v="Storevika" />
		<tag k="natural" v="bay" />
		<tag k="ssr:stedsnr" v="20221" />
	</node>
	<node id="-70916" lat="62.5598222256" lon="6.03467778039">
		<tag k="name" v="Skarvetangane" />
>>>>>>> e1d4bc35ff8a6074a6f2e91616a996b547c36f15
		<tag k="natural" v="cape" />
		<tag k="ssr:stedsnr" v="96242" />
	</node>
	<node lat="62.55483888968848" lon="6.016047222397876" id="-6153">
		<tag k="name" v="Nesberget" />
		<tag k="natural" v="cape" />
		<tag k="ssr:stedsnr" v="96244" />
	</node>
	<node lat="62.55328610778108" lon="6.015875002444273" id="-6154">
		<tag k="name" v="Godvika" />
		<tag k="natural" v="bay" />
		<tag k="ssr:stedsnr" v="96245" />
	</node>
<<<<<<< HEAD
	<node lat="62.46276388573065" lon="5.950280560299101" id="-6157">
=======
	<node id="-70915" lat="62.5629333332" lon="5.9202083422">
>>>>>>> e1d4bc35ff8a6074a6f2e91616a996b547c36f15
		<tag k="fixme" v="consider seamark:type=rock or natural=shoal" />
		<tag k="name" v="Kjerringa" />
		<tag k="place" v="islet" />
		<tag k="ssr:stedsnr" v="96137" />
	</node>
<<<<<<< HEAD
	<node lat="62.51081666631079" lon="6.048638881952305" id="-6165">
		<tag k="name" v="Buholmen" />
		<tag k="place" v="islet" />
		<tag k="ssr:stedsnr" v="96987" />
	</node>
	<node lat="62.49731666403393" lon="6.023116674780296" id="-6168">
		<tag k="name" v="Stanga" />
=======
	<node id="-70910" lat="62.513375002" lon="5.90321111946">
		<tag k="name" v="Bjørnebåen" />
>>>>>>> e1d4bc35ff8a6074a6f2e91616a996b547c36f15
		<tag k="natural" v="shoal" />
		<tag k="place" v="locality" />
		<tag k="ssr:stedsnr" v="113447" />
	</node>
<<<<<<< HEAD
	<node lat="62.60723055779681" lon="5.947183332522675" id="-6169">
		<tag k="name" v="Snøggeskallen" />
=======
	<node id="-70909" lat="62.5938222195" lon="6.07947777767">
		<tag k="name" v="Revet" />
>>>>>>> e1d4bc35ff8a6074a6f2e91616a996b547c36f15
		<tag k="natural" v="shoal" />
		<tag k="place" v="locality" />
		<tag k="ssr:stedsnr" v="113883" />
	</node>
<<<<<<< HEAD
	<node lat="62.543861113721896" lon="6.035586105360748" id="-6173">
		<tag k="name" v="Synesvågen" />
		<tag k="natural" v="bay" />
		<tag k="ssr:stedsnr" v="132784" />
	</node>
	<node lat="62.55064166399537" lon="5.871136117490466" id="-6174">
		<tag k="fixme" v="consider seamark:type=rock or natural=shoal" />
		<tag k="name" v="Toskjera" />
		<tag k="place" v="islet" />
		<tag k="ssr:stedsnr" v="132789" />
	</node>
	<node lat="62.600775000379485" lon="5.998058340517658" id="-6175">
		<tag k="name" v="Svarven" />
=======
	<node id="-70908" lat="62.5121250011" lon="5.97865000007">
		<tag k="name" v="Søre Leiasteinen" />
>>>>>>> e1d4bc35ff8a6074a6f2e91616a996b547c36f15
		<tag k="natural" v="shoal" />
		<tag k="place" v="locality" />
		<tag k="ssr:stedsnr" v="132801" />
	</node>
<<<<<<< HEAD
	<node lat="62.63972499957598" lon="6.034325000603152" id="-6177">
		<tag k="name" v="Kobbeskjeret" />
=======
	<node id="-70907" lat="62.6178916622" lon="5.97988888574">
		<tag k="name" v="Leiskallen" />
>>>>>>> e1d4bc35ff8a6074a6f2e91616a996b547c36f15
		<tag k="natural" v="shoal" />
		<tag k="place" v="locality" />
		<tag k="ssr:stedsnr" v="133681" />
	</node>
<<<<<<< HEAD
	<node lat="62.58101110920338" lon="5.995925007700253" id="-6179">
		<tag k="name" v="Kyrkjefluda" />
		<tag k="place" v="locality" />
		<tag k="seamark:type" v="rock" />
		<tag k="ssr:stedsnr" v="146594" />
	</node>
	<node lat="62.64543333261615" lon="6.0041777716498475" id="-6180">
		<tag k="name" v="Søre Djupfallet" />
=======
	<node id="-70905" lat="62.5486777775" lon="5.87163611837">
		<tag k="name" v="Morkolla" />
>>>>>>> e1d4bc35ff8a6074a6f2e91616a996b547c36f15
		<tag k="natural" v="shoal" />
		<tag k="place" v="locality" />
		<tag k="ssr:stedsnr" v="146597" />
	</node>
<<<<<<< HEAD
	<node lat="62.468216667343256" lon="6.009322221189069" id="-6183">
		<tag k="name" v="Ramogeilvika" />
		<tag k="natural" v="bay" />
		<tag k="ssr:stedsnr" v="156138" />
	</node>
	<node lat="62.59378333665438" lon="6.114869435061053" id="-6193">
		<tag k="name" v="Grynnfluda" />
		<tag k="natural" v="shoal" />
		<tag k="place" v="locality" />
		<tag k="ssr:stedsnr" v="173375" />
	</node>
	<node lat="62.59028055560287" lon="5.994600006953447" id="-6194">
		<tag k="name" v="Skjerbåen" />
		<tag k="natural" v="shoal" />
		<tag k="place" v="locality" />
		<tag k="ssr:stedsnr" v="173377" />
	</node>
	<node lat="62.463372222368186" lon="5.992272222001336" id="-6195">
		<tag k="name" v="Grunnrevet" />
		<tag k="natural" v="shoal" />
		<tag k="place" v="locality" />
		<tag k="ssr:stedsnr" v="173534" />
	</node>
	<node lat="62.58007499892293" lon="6.023544437265552" id="-6196">
		<tag k="fixme" v="consider seamark:type=rock or natural=shoal" />
		<tag k="name" v="Barden" />
=======
	<node id="-70904" lat="62.5697916681" lon="6.07493889055">
		<tag k="name" v="Hageberget" />
>>>>>>> e1d4bc35ff8a6074a6f2e91616a996b547c36f15
		<tag k="place" v="islet" />
		<tag k="ssr:stedsnr" v="173419" />
	</node>
<<<<<<< HEAD
	<node lat="62.56967221811262" lon="6.0205527693452465" id="-6197">
		<tag k="name" v="Vikhunden" />
=======
	<node id="-70901" lat="62.5057694436" lon="5.77444166096">
		<tag k="alt_name" v="Klovgryna" />
		<tag k="name" v="Klovgrynna" />
>>>>>>> e1d4bc35ff8a6074a6f2e91616a996b547c36f15
		<tag k="natural" v="shoal" />
		<tag k="place" v="locality" />
		<tag k="ssr:stedsnr" v="173421" />
	</node>
<<<<<<< HEAD
	<node lat="62.6119444443373" lon="5.951691669517309" id="-6199">
		<tag k="name" v="Storfallet" />
		<tag k="natural" v="shoal" />
=======
	<node id="-70900" lat="62.5684527751" lon="5.74352500892">
		<tag k="name" v="Fauskane" />
>>>>>>> e1d4bc35ff8a6074a6f2e91616a996b547c36f15
		<tag k="place" v="locality" />
		<tag k="ssr:stedsnr" v="173871" />
	</node>
<<<<<<< HEAD
	<node lat="62.61244166577407" lon="5.971647228441575" id="-6200">
		<tag k="name" v="Storefluda" />
		<tag k="natural" v="shoal" />
		<tag k="place" v="locality" />
		<tag k="ssr:stedsnr" v="173873" />
	</node>
	<node lat="62.506344447685976" lon="6.030841675584856" id="-6202">
		<tag k="name" v="Makkevika" />
=======
	<node id="-70898" lat="62.5444416688" lon="6.01503055815">
		<tag k="name" v="Kråkenasen" />
		<tag k="natural" v="cape" />
		<tag k="ssr:stedsnr" v="217254" />
	</node>
	<node id="-70896" lat="62.5669749972" lon="6.05093889743">
		<tag k="name" v="Keilevika" />
>>>>>>> e1d4bc35ff8a6074a6f2e91616a996b547c36f15
		<tag k="natural" v="bay" />
		<tag k="ssr:stedsnr" v="193738" />
	</node>
<<<<<<< HEAD
	<node lat="62.50924444186205" lon="6.025266659548402" id="-6203">
		<tag k="name" v="Kvalneset" />
		<tag k="natural" v="cape" />
		<tag k="ssr:stedsnr" v="193744" />
	</node>
	<node lat="62.51826388522026" lon="5.997097224913553" id="-6205">
		<tag k="name" v="Giskerevet" />
=======
	<node id="-70894" lat="62.5636194428" lon="6.04121666514">
		<tag k="name" v="Kjerringvika" />
		<tag k="natural" v="bay" />
		<tag k="ssr:stedsnr" v="217228" />
	</node>
	<node id="-70892" lat="62.6325944441" lon="6.04071666925">
		<tag k="name" v="Klovningsgrynnet" />
>>>>>>> e1d4bc35ff8a6074a6f2e91616a996b547c36f15
		<tag k="natural" v="shoal" />
		<tag k="place" v="locality" />
		<tag k="ssr:stedsnr" v="193755" />
	</node>
<<<<<<< HEAD
	<node lat="62.51552221974205" lon="6.062522223001735" id="-6206">
		<tag k="name" v="Finnøya" />
		<tag k="place" v="islet" />
		<tag k="ssr:stedsnr" v="193756" />
	</node>
	<node lat="62.54166388660945" lon="5.875113882263042" id="-6210">
		<tag k="fixme" v="consider seamark:type=rock or natural=shoal" />
		<tag k="name" v="Småskjera" />
		<tag k="place" v="islet" />
		<tag k="ssr:stedsnr" v="193792" />
	</node>
	<node lat="62.57059721973644" lon="6.052841676455037" id="-6211">
		<tag k="name" v="Hjellholmen" />
		<tag k="place" v="islet" />
		<tag k="ssr:stedsnr" v="193799" />
	</node>
	<node lat="62.586666666745806" lon="5.903058336272191" id="-6212">
		<tag k="name" v="Langskallen" />
=======
	<node id="-70891" lat="62.5860638898" lon="6.00114445326">
		<tag k="name" v="Melen" />
>>>>>>> e1d4bc35ff8a6074a6f2e91616a996b547c36f15
		<tag k="natural" v="shoal" />
		<tag k="place" v="locality" />
		<tag k="ssr:stedsnr" v="193809" />
	</node>
<<<<<<< HEAD
	<node lat="62.508147226263446" lon="5.789505551050123" id="-6213">
		<tag k="alt_name" v="Statsgrunnskallen" />
		<tag k="name" v="Stadsgrunnskallen" />
=======
	<node id="-70890" lat="62.5863694472" lon="6.01665832662">
		<tag k="name" v="Hummarløysa" />
>>>>>>> e1d4bc35ff8a6074a6f2e91616a996b547c36f15
		<tag k="natural" v="shoal" />
		<tag k="place" v="locality" />
		<tag k="ssr:stedsnr" v="207589" />
	</node>
<<<<<<< HEAD
	<node lat="62.55841389103608" lon="6.031538885508267" id="-6214">
		<tag k="name" v="Søre Støholmen" />
=======
	<node id="-70888" lat="62.4899666686" lon="5.96104721899">
		<tag k="fixme" v="consider seamark:type=rock or natural=shoal" />
		<tag k="name" v="Kobbesteinane" />
>>>>>>> e1d4bc35ff8a6074a6f2e91616a996b547c36f15
		<tag k="place" v="islet" />
		<tag k="ssr:stedsnr" v="217142" />
	</node>
<<<<<<< HEAD
	<node lat="62.481772221783174" lon="6.04513610803383" id="-6215">
=======
	<node id="-70887" lat="62.4817722218" lon="6.04513610803">
>>>>>>> e1d4bc35ff8a6074a6f2e91616a996b547c36f15
		<tag k="name" v="Sandneset" />
		<tag k="natural" v="cape" />
		<tag k="ssr:stedsnr" v="217144" />
	</node>
<<<<<<< HEAD
	<node lat="62.489966668601625" lon="5.9610472189887505" id="-6216">
		<tag k="fixme" v="consider seamark:type=rock or natural=shoal" />
		<tag k="name" v="Kobbesteinane" />
=======
	<node id="-70886" lat="62.558413891" lon="6.03153888551">
		<tag k="name" v="Søre Støholmen" />
>>>>>>> e1d4bc35ff8a6074a6f2e91616a996b547c36f15
		<tag k="place" v="islet" />
		<tag k="ssr:stedsnr" v="217145" />
	</node>
<<<<<<< HEAD
	<node lat="62.56697499719935" lon="6.050938897434912" id="-6220">
		<tag k="name" v="Keilevika" />
=======
	<node id="-70878" lat="62.570080552" lon="6.06375556031">
		<tag k="name" v="Hagevika" />
>>>>>>> e1d4bc35ff8a6074a6f2e91616a996b547c36f15
		<tag k="natural" v="bay" />
		<tag k="ssr:stedsnr" v="217250" />
	</node>
<<<<<<< HEAD
	<node lat="62.5444416687746" lon="6.01503055814833" id="-6222">
		<tag k="name" v="Kråkenasen" />
		<tag k="natural" v="cape" />
		<tag k="ssr:stedsnr" v="217254" />
	</node>
	<node lat="62.48581111279082" lon="6.059972221312712" id="-6223">
		<tag k="name" v="Tangen" />
		<tag k="natural" v="cape" />
		<tag k="ssr:stedsnr" v="217859" />
	</node>
	<node lat="62.590580552212856" lon="6.109361104862621" id="-6227">
		<tag k="name" v="Karmannsvågen" />
		<tag k="natural" v="bay" />
		<tag k="ssr:stedsnr" v="217962" />
	</node>
	<node lat="62.57117778133651" lon="6.098063884440693" id="-6237">
		<tag k="name" v="Saueholmen" />
		<tag k="place" v="islet" />
		<tag k="ssr:stedsnr" v="278973" />
	</node>
	<node lat="62.69722222107734" lon="5.59999999127327" id="-6239">
		<tag k="name" v="Heldet" />
=======
	<node id="-70876" lat="62.5102138893" lon="6.02621944843">
		<tag k="name" v="Storvika" />
		<tag k="natural" v="bay" />
		<tag k="ssr:stedsnr" v="946986" />
	</node>
	<node id="-70872" lat="62.527266671" lon="6.10495554794">
		<tag k="name" v="Kvennhusvika" />
		<tag k="natural" v="bay" />
		<tag k="ssr:stedsnr" v="946941" />
	</node>
	<node id="-70871" lat="62.549833334" lon="6.12363332573">
		<tag k="alt_name" v="Røysevika" />
		<tag k="name" v="Røysavika" />
		<tag k="natural" v="bay" />
		<tag k="ssr:stedsnr" v="946935" />
	</node>
	<node id="-70870" lat="62.4955277816" lon="6.11373056411">
		<tag k="fixme" v="consider seamark:type=rock or natural=shoal" />
		<tag k="name" v="Martinskjeret" />
		<tag k="place" v="islet" />
		<tag k="ssr:stedsnr" v="945191" />
	</node>
	<node id="-70869" lat="62.4788388881" lon="6.04341111635">
		<tag k="name" v="Støbakkvika" />
		<tag k="natural" v="bay" />
		<tag k="ssr:stedsnr" v="945129" />
	</node>
	<node id="-70868" lat="62.5109694472" lon="6.03415832398">
		<tag k="name" v="Litlevika" />
		<tag k="natural" v="bay" />
		<tag k="ssr:stedsnr" v="945125" />
	</node>
	<node id="-70867" lat="62.4994999976" lon="6.03181943557">
		<tag k="name" v="Skarveneset" />
		<tag k="natural" v="cape" />
		<tag k="ssr:stedsnr" v="945123" />
	</node>
	<node id="-70864" lat="62.4677111087" lon="6.03517777469">
		<tag k="name" v="Strandkleivvika" />
		<tag k="natural" v="bay" />
		<tag k="ssr:stedsnr" v="945115" />
	</node>
	<node id="-70862" lat="62.6570611072" lon="5.68072499816">
		<tag k="name" v="Storedjupet" />
		<tag k="place" v="locality" />
		<tag k="ssr:stedsnr" v="842011" />
	</node>
	<node id="-70861" lat="62.5281166648" lon="5.70198055337">
		<tag k="name" v="Høgeskallen" />
		<tag k="natural" v="shoal" />
		<tag k="place" v="locality" />
		<tag k="ssr:stedsnr" v="842005" />
	</node>
	<node id="-70857" lat="62.466822224" lon="5.93456667519">
		<tag k="name" v="Skagevika" />
		<tag k="natural" v="bay" />
		<tag k="ssr:stedsnr" v="824156" />
	</node>
	<node id="-70856" lat="62.6473750016" lon="5.93877500689">
		<tag k="name" v="Jakteskallen" />
		<tag k="natural" v="shoal" />
		<tag k="place" v="locality" />
		<tag k="ssr:stedsnr" v="930233" />
	</node>
	<node id="-70852" lat="62.5145166703" lon="5.91473333199">
		<tag k="name" v="Raunen" />
		<tag k="place" v="islet" />
		<tag k="ssr:stedsnr" v="922732" />
	</node>
	<node id="-70850" lat="62.4684666648" lon="5.93177500406">
		<tag k="alt_name" v="Leistaskjeret" />
		<tag k="fixme" v="consider seamark:type=rock or natural=shoal" />
		<tag k="name" v="Lestaskjeret" />
		<tag k="place" v="islet" />
		<tag k="ssr:stedsnr" v="921996" />
	</node>
	<node id="-70848" lat="62.5023999971" lon="6.03956944396">
		<tag k="name" v="Giske" />
		<tag k="place" v="island" />
		<tag k="ssr:stedsnr" v="921970" />
	</node>
	<node id="-70847" lat="62.5944111091" lon="6.01684445216">
		<tag k="name" v="Molnesskallen" />
>>>>>>> e1d4bc35ff8a6074a6f2e91616a996b547c36f15
		<tag k="natural" v="shoal" />
		<tag k="place" v="locality" />
		<tag k="ssr:stedsnr" v="285695" />
	</node>
<<<<<<< HEAD
	<node lat="62.606711115043176" lon="6.116286111168779" id="-6240">
		<tag k="name" v="Flatskjergrunnane" />
=======
	<node id="-70846" lat="62.5528527769" lon="5.93573056247">
		<tag k="name" v="Kråkevika" />
>>>>>>> e1d4bc35ff8a6074a6f2e91616a996b547c36f15
		<tag k="natural" v="bay" />
		<tag k="ssr:stedsnr" v="294666" />
	</node>
<<<<<<< HEAD
	<node lat="62.66117499897002" lon="5.866661107647251" id="-6241">
		<tag k="name" v="Steinsgrynnet" />
=======
	<node id="-70843" lat="62.6265166697" lon="5.89460833419">
		<tag k="name" v="Dyngjeskallen" />
>>>>>>> e1d4bc35ff8a6074a6f2e91616a996b547c36f15
		<tag k="natural" v="shoal" />
		<tag k="place" v="locality" />
		<tag k="ssr:stedsnr" v="295026" />
	</node>
<<<<<<< HEAD
	<node lat="62.507124999375016" lon="5.923700001801779" id="-6247">
		<tag k="name" v="Leiafallet" />
=======
	<node id="-70842" lat="62.6348166654" lon="5.98587221851">
		<tag k="name" v="Fludskallen" />
		<tag k="natural" v="shoal" />
>>>>>>> e1d4bc35ff8a6074a6f2e91616a996b547c36f15
		<tag k="place" v="locality" />
		<tag k="seamark:type" v="rock" />
		<tag k="ssr:stedsnr" v="328631" />
	</node>
<<<<<<< HEAD
	<node lat="62.46429444591247" lon="5.983758329311366" id="-6248">
		<tag k="name" v="Gardsendberget" />
		<tag k="natural" v="cape" />
		<tag k="ssr:stedsnr" v="338122" />
	</node>
	<node lat="62.56403055482188" lon="6.0356166699539555" id="-6251">
		<tag k="name" v="Tørnesodden" />
		<tag k="natural" v="cape" />
		<tag k="ssr:stedsnr" v="338180" />
	</node>
	<node lat="62.502175002763224" lon="6.031041672193054" id="-6252">
		<tag k="name" v="Storsøyla" />
		<tag k="natural" v="bay" />
		<tag k="ssr:stedsnr" v="338183" />
	</node>
	<node lat="62.550233333424714" lon="6.0068416646613825" id="-6253">
		<tag k="fixme" v="consider seamark:type=rock or natural=shoal" />
		<tag k="name" v="Svartuksen" />
		<tag k="place" v="islet" />
		<tag k="ssr:stedsnr" v="338184" />
	</node>
	<node lat="62.462308335534196" lon="5.9663666717311745" id="-6255">
		<tag k="name" v="Trøsvika" />
=======
	<node id="-70841" lat="62.5900666705" lon="6.11631944783">
		<tag k="name" v="Langeneset" />
		<tag k="natural" v="cape" />
		<tag k="ssr:stedsnr" v="739820" />
	</node>
	<node id="-70838" lat="62.591177775" lon="6.03496110839">
		<tag k="name" v="Molneskyrkjeskallen" />
		<tag k="natural" v="shoal" />
		<tag k="place" v="locality" />
		<tag k="ssr:stedsnr" v="902452" />
	</node>
	<node id="-70837" lat="62.5890666642" lon="6.07071110701">
		<tag k="name" v="Revsteinen" />
		<tag k="natural" v="shoal" />
		<tag k="place" v="locality" />
		<tag k="ssr:stedsnr" v="902442" />
	</node>
	<node id="-70836" lat="62.6828388926" lon="5.84524999974">
		<tag k="name" v="Skulegga" />
		<tag k="place" v="locality" />
		<tag k="ssr:stedsnr" v="902011" />
	</node>
	<node id="-70835" lat="62.5661583315" lon="5.7422583328">
		<tag k="name" v="Remmen" />
		<tag k="natural" v="shoal" />
		<tag k="place" v="locality" />
		<tag k="ssr:stedsnr" v="902003" />
	</node>
	<node id="-70834" lat="62.4794972198" lon="6.04688888358">
		<tag k="name" v="Karifluda" />
		<tag k="natural" v="shoal" />
		<tag k="place" v="locality" />
		<tag k="ssr:stedsnr" v="901598" />
	</node>
	<node id="-70833" lat="62.5918111103" lon="6.093763884">
		<tag k="name" v="Storholmfluda" />
		<tag k="natural" v="shoal" />
		<tag k="place" v="locality" />
		<tag k="ssr:stedsnr" v="720424" />
	</node>
	<node id="-70832" lat="62.5893111143" lon="6.11846110708">
		<tag k="name" v="Sandvika" />
		<tag k="natural" v="bay" />
		<tag k="ssr:stedsnr" v="720419" />
	</node>
	<node id="-70831" lat="62.6263583342" lon="5.92644722118">
		<tag k="name" v="Skjersøyla" />
		<tag k="place" v="locality" />
		<tag k="ssr:stedsnr" v="720021" />
	</node>
	<node id="-70830" lat="62.6790000014" lon="5.69693332637">
		<tag k="name" v="Heldet" />
		<tag k="place" v="locality" />
		<tag k="ssr:stedsnr" v="720016" />
	</node>
	<node id="-70828" lat="62.4659083344" lon="5.98910556105">
		<tag k="name" v="Juvsstranda" />
		<tag k="natural" v="beach" />
		<tag k="place" v="locality" />
		<tag k="ssr:stedsnr" v="889888" />
	</node>
	<node id="-70825" lat="62.5596083378" lon="6.03299444584">
		<tag k="name" v="Åresvika" />
		<tag k="natural" v="bay" />
		<tag k="ssr:stedsnr" v="885868" />
	</node>
	<node id="-70823" lat="62.5706861078" lon="6.09403889416">
		<tag k="name" v="Åkrianeset" />
		<tag k="natural" v="cape" />
		<tag k="ssr:stedsnr" v="885944" />
	</node>
	<node id="-70819" lat="62.5565027752" lon="6.02809999758">
		<tag k="name" v="Morteberget" />
		<tag k="place" v="islet" />
		<tag k="ssr:stedsnr" v="885231" />
	</node>
	<node id="-70817" lat="62.4840222235" lon="5.99768054672">
		<tag k="name" v="Vindsnesvika" />
		<tag k="natural" v="bay" />
		<tag k="ssr:stedsnr" v="885142" />
	</node>
	<node id="-70815" lat="62.514772222" lon="6.16235834143">
		<tag k="name" v="Supaneset" />
		<tag k="natural" v="cape" />
		<tag k="ssr:stedsnr" v="885198" />
	</node>
	<node id="-70814" lat="62.661930559" lon="5.92076666691">
		<tag k="name" v="Holmeskallen" />
		<tag k="natural" v="shoal" />
		<tag k="place" v="locality" />
		<tag k="ssr:stedsnr" v="679671" />
	</node>
	<node id="-70812" lat="62.52415278" lon="5.93411388507">
		<tag k="name" v="Storegrimen" />
		<tag k="natural" v="shoal" />
		<tag k="place" v="locality" />
		<tag k="ssr:stedsnr" v="659902" />
	</node>
	<node id="-70811" lat="62.6025444439" lon="6.05719999067">
		<tag k="name" v="Rossholmen" />
		<tag k="place" v="islet" />
		<tag k="ssr:stedsnr" v="659909" />
	</node>
	<node id="-70810" lat="62.5228333303" lon="5.95093055612">
		<tag k="name" v="Litlegrimen" />
		<tag k="natural" v="shoal" />
		<tag k="place" v="locality" />
		<tag k="ssr:stedsnr" v="659904" />
	</node>
	<node id="-70809" lat="62.5758861091" lon="6.0521222264">
		<tag k="name" v="Blindheimsklovningen" />
		<tag k="place" v="locality" />
		<tag k="ssr:stedsnr" v="654264" />
	</node>
	<node id="-70805" lat="62.5718138931" lon="6.077333326">
		<tag k="name" v="Rørvikvågen" />
>>>>>>> e1d4bc35ff8a6074a6f2e91616a996b547c36f15
		<tag k="natural" v="bay" />
		<tag k="ssr:stedsnr" v="338869" />
	</node>
<<<<<<< HEAD
	<node lat="62.58823610826047" lon="6.087988891819776" id="-6257">
		<tag k="name" v="Helandsvika" />
		<tag k="natural" v="bay" />
		<tag k="ssr:stedsnr" v="338959" />
	</node>
	<node lat="62.572299999141705" lon="5.932697221048426" id="-6259">
		<tag k="name" v="Sveskallen" />
=======
	<node id="-70804" lat="62.5740305527" lon="6.12011389244">
		<tag k="name" v="Roaldsleira" />
		<tag k="natural" v="bay" />
		<tag k="ssr:stedsnr" v="618771" />
	</node>
	<node id="-70802" lat="62.6303138868" lon="6.05150000447">
		<tag k="name" v="Klovningsfallet" />
		<tag k="natural" v="shoal" />
		<tag k="place" v="locality" />
		<tag k="ssr:stedsnr" v="720918" />
	</node>
	<node id="-70801" lat="62.6212861097" lon="6.06388334253">
		<tag k="name" v="Innholmsøyla" />
		<tag k="place" v="locality" />
		<tag k="ssr:stedsnr" v="720916" />
	</node>
	<node id="-70800" lat="62.5932194482" lon="6.06141666444">
		<tag k="name" v="Jakobsgrynnet" />
		<tag k="natural" v="shoal" />
		<tag k="place" v="locality" />
		<tag k="ssr:stedsnr" v="720912" />
	</node>
	<node id="-70799" lat="62.6059444413" lon="6.01549443961">
		<tag k="name" v="Veteskolten" />
		<tag k="natural" v="shoal" />
		<tag k="place" v="locality" />
		<tag k="ssr:stedsnr" v="720909" />
	</node>
	<node id="-70798" lat="62.6230527798" lon="5.97179443608">
		<tag k="name" v="Stemskallen" />
		<tag k="natural" v="shoal" />
		<tag k="place" v="locality" />
		<tag k="ssr:stedsnr" v="720898" />
	</node>
	<node id="-70797" lat="62.5164444464" lon="5.9947944504">
		<tag k="name" v="Nyfallet" />
		<tag k="natural" v="shoal" />
		<tag k="place" v="locality" />
		<tag k="ssr:stedsnr" v="720487" />
	</node>
	<node id="-70796" lat="62.5136944484" lon="6.03498888346">
		<tag k="name" v="Samstadfluda" />
>>>>>>> e1d4bc35ff8a6074a6f2e91616a996b547c36f15
		<tag k="natural" v="shoal" />
		<tag k="place" v="locality" />
		<tag k="ssr:stedsnr" v="355114" />
	</node>
<<<<<<< HEAD
	<node lat="62.57862778180739" lon="5.9173194455748215" id="-6260">
		<tag k="name" v="Langskallen" />
=======
	<node id="-70795" lat="62.57464722" lon="6.00281943708">
		<tag k="name" v="Djupfluda" />
>>>>>>> e1d4bc35ff8a6074a6f2e91616a996b547c36f15
		<tag k="natural" v="shoal" />
		<tag k="place" v="locality" />
		<tag k="ssr:stedsnr" v="355115" />
	</node>
<<<<<<< HEAD
	<node lat="62.55974444152842" lon="5.956611102003443" id="-6261">
		<tag k="name" v="Kyrkjeskallen" />
=======
	<node id="-70794" lat="62.4495999996" lon="5.92141388312">
		<tag k="name" v="Stabben" />
>>>>>>> e1d4bc35ff8a6074a6f2e91616a996b547c36f15
		<tag k="natural" v="shoal" />
		<tag k="place" v="locality" />
		<tag k="ssr:stedsnr" v="355116" />
	</node>
<<<<<<< HEAD
	<node lat="62.57405277423202" lon="6.06546944885131" id="-6262">
		<tag k="name" v="Hagebakkane" />
=======
	<node id="-70793" lat="62.5442861141" lon="5.98455277614">
		<tag k="name" v="Yngjesfluda" />
>>>>>>> e1d4bc35ff8a6074a6f2e91616a996b547c36f15
		<tag k="natural" v="shoal" />
		<tag k="place" v="locality" />
		<tag k="ssr:stedsnr" v="355382" />
	</node>
<<<<<<< HEAD
	<node lat="62.50941667037057" lon="6.0857249902911885" id="-6263">
		<tag k="name" v="Erknefluda" />
=======
	<node id="-70792" lat="62.6419444481" lon="6.00570277842">
		<tag k="name" v="Søre Djupfallsgrynnet" />
>>>>>>> e1d4bc35ff8a6074a6f2e91616a996b547c36f15
		<tag k="natural" v="shoal" />
		<tag k="place" v="locality" />
		<tag k="ssr:stedsnr" v="355445" />
	</node>
<<<<<<< HEAD
	<node lat="62.51869166848029" lon="6.063280549470518" id="-6264">
		<tag k="name" v="Staurnesgrynnet" />
		<tag k="natural" v="shoal" />
		<tag k="place" v="locality" />
		<tag k="ssr:stedsnr" v="355448" />
	</node>
	<node lat="62.60466388931893" lon="6.070438880459028" id="-6265">
		<tag k="name" v="Litle Rossholmen" />
=======
	<node id="-70790" lat="62.6125000039" lon="5.54333334077">
		<tag k="name" v="Synesgrunnen" />
		<tag k="natural" v="shoal" />
		<tag k="place" v="locality" />
		<tag k="ssr:stedsnr" v="709638" />
	</node>
	<node id="-70789" lat="62.5482666639" lon="5.94266943519">
		<tag k="name" v="Kalvehola" />
		<tag k="natural" v="bay" />
		<tag k="ssr:stedsnr" v="581257" />
	</node>
	<node id="-70788" lat="62.5514194468" lon="6.00876389092">
		<tag k="name" v="Haggardsvika" />
		<tag k="natural" v="bay" />
		<tag k="ssr:stedsnr" v="581256" />
	</node>
	<node id="-70787" lat="62.4986500016" lon="6.03364444895">
		<tag k="fixme" v="consider seamark:type=rock or natural=shoal" />
		<tag k="name" v="Skarvesteinane" />
>>>>>>> e1d4bc35ff8a6074a6f2e91616a996b547c36f15
		<tag k="place" v="islet" />
		<tag k="ssr:stedsnr" v="355874" />
	</node>
<<<<<<< HEAD
	<node lat="62.50829722251314" lon="6.064108337138423" id="-6269">
		<tag k="name" v="Sandvika" />
		<tag k="natural" v="bay" />
		<tag k="ssr:stedsnr" v="375746" />
	</node>
	<node lat="62.54479444791233" lon="6.011058331905099" id="-6270">
		<tag k="name" v="Synesholmen" />
=======
	<node id="-70779" lat="62.5690388929" lon="6.06035278638">
		<tag k="name" v="Storbåtvika" />
		<tag k="natural" v="bay" />
		<tag k="ssr:stedsnr" v="703980" />
	</node>
	<node id="-70775" lat="62.5493083318" lon="6.07995832719">
		<tag k="name" v="Vikeneset" />
		<tag k="natural" v="cape" />
		<tag k="ssr:stedsnr" v="703950" />
	</node>
	<node id="-70768" lat="62.5380472198" lon="6.03503332562">
		<tag k="name" v="Gåsholmen" />
>>>>>>> e1d4bc35ff8a6074a6f2e91616a996b547c36f15
		<tag k="place" v="islet" />
		<tag k="ssr:stedsnr" v="375766" />
	</node>
<<<<<<< HEAD
	<node lat="62.55383805564729" lon="5.86604783665418" id="-6271">
		<tag k="fixme" v="consider seamark:type=rock or natural=shoal" />
		<tag k="name" v="Skipbyggjaren" />
		<tag k="place" v="islet" />
		<tag k="ssr:stedsnr" v="375768" />
	</node>
	<node lat="62.5288722225387" lon="6.021333327874614" id="-6273">
		<tag k="name" v="Synesvikane" />
		<tag k="place" v="sea" />
		<tag k="ssr:stedsnr" v="384453" />
	</node>
	<node lat="62.510383334026365" lon="6.150677784027277" id="-6276">
		<tag k="name" v="Humrevika" />
		<tag k="natural" v="bay" />
		<tag k="ssr:stedsnr" v="399221" />
	</node>
	<node lat="62.53492499839415" lon="6.1337583333299435" id="-6287">
		<tag k="alt_name" v="Olmannsneset" />
		<tag k="name" v="Olmanneset" />
		<tag k="natural" v="cape" />
		<tag k="ssr:stedsnr" v="399962" />
	</node>
	<node lat="62.621122224919866" lon="5.973941659058846" id="-6289">
		<tag k="name" v="Botnskallen" />
=======
	<node id="-70766" lat="62.5590611125" lon="6.03165277506">
		<tag k="name" v="Nøre Støholmen" />
		<tag k="place" v="islet" />
		<tag k="ssr:stedsnr" v="703136" />
	</node>
	<node id="-70764" lat="62.5556500029" lon="6.02909166415">
		<tag k="name" v="Budaberget" />
		<tag k="natural" v="cape" />
		<tag k="ssr:stedsnr" v="702203" />
	</node>
	<node id="-70763" lat="62.5144027761" lon="6.09318889232">
		<tag k="name" v="Hustruhamnklubben" />
		<tag k="natural" v="cape" />
		<tag k="ssr:stedsnr" v="702182" />
	</node>
	<node id="-70762" lat="62.5518944442" lon="6.01088889802">
		<tag k="name" v="Brimneset" />
		<tag k="natural" v="cape" />
		<tag k="ssr:stedsnr" v="557768" />
	</node>
	<node id="-70761" lat="62.5288861077" lon="6.12574166387">
		<tag k="name" v="Gjøsundsundet" />
		<tag k="natural" v="strait" />
		<tag k="ssr:stedsnr" v="557764" />
	</node>
	<node id="-70760" lat="62.5332527776" lon="6.1320111083">
		<tag k="name" v="Olmannsvika" />
		<tag k="natural" v="bay" />
		<tag k="ssr:stedsnr" v="557762" />
	</node>
	<node id="-70759" lat="62.5348333301" lon="6.01627500294">
		<tag k="fixme" v="consider seamark:type=rock or natural=shoal" />
		<tag k="name" v="Kvalen" />
		<tag k="place" v="islet" />
		<tag k="ssr:stedsnr" v="557755" />
	</node>
	<node id="-70758" lat="62.613036107" lon="5.81912500107">
		<tag k="name" v="Litledjupet" />
		<tag k="place" v="locality" />
		<tag k="ssr:stedsnr" v="692596" />
	</node>
	<node id="-70757" lat="62.5032611113" lon="5.79586110434">
		<tag k="alt_name" v="Dyneskallen" />
		<tag k="name" v="Dyngeskallen" />
>>>>>>> e1d4bc35ff8a6074a6f2e91616a996b547c36f15
		<tag k="natural" v="shoal" />
		<tag k="place" v="locality" />
		<tag k="ssr:stedsnr" v="416851" />
	</node>
<<<<<<< HEAD
	<node lat="62.512697222796206" lon="6.160805562747859" id="-6293">
		<tag k="fixme" v="multiple name tags, choose one and add the other to alt_name" />
		<tag k="name" v="Hamnøya;Uksebåsen" />
		<tag k="place" v="island" />
		<tag k="ssr:stedsnr" v="436746" />
	</node>
	<node lat="62.49739722289368" lon="6.118927772997992" id="-6295">
		<tag k="name" v="Valderøya" />
		<tag k="place" v="island" />
		<tag k="ssr:stedsnr" v="436977" />
	</node>
	<node lat="62.54553610702766" lon="6.073355562036922" id="-6296">
		<tag k="name" v="Vikane" />
		<tag k="natural" v="bay" />
		<tag k="ssr:stedsnr" v="496785" />
	</node>
	<node lat="62.55479444688726" lon="5.939500009122364" id="-6297">
		<tag k="name" v="Lemba" />
		<tag k="natural" v="cape" />
		<tag k="ssr:stedsnr" v="496790" />
	</node>
	<node lat="62.66931666252202" lon="5.945377770233813" id="-6299">
=======
	<node id="-70756" lat="62.5883972265" lon="6.02500834257">
		<tag k="name" v="Oleperskallen" />
		<tag k="natural" v="shoal" />
		<tag k="place" v="locality" />
		<tag k="ssr:stedsnr" v="537408" />
	</node>
	<node id="-70755" lat="62.5074111151" lon="5.97626945161">
		<tag k="name" v="Giskesundet" />
		<tag k="natural" v="strait" />
		<tag k="ssr:stedsnr" v="687223" />
	</node>
	<node id="-70754" lat="62.6447972204" lon="5.92057222692">
		<tag k="name" v="Skarvholmen" />
		<tag k="place" v="islet" />
		<tag k="ssr:stedsnr" v="497683" />
	</node>
	<node id="-70753" lat="62.6693166625" lon="5.94537777023">
>>>>>>> e1d4bc35ff8a6074a6f2e91616a996b547c36f15
		<tag k="name" v="Skoreggskollane" />
		<tag k="natural" v="shoal" />
		<tag k="place" v="locality" />
		<tag k="ssr:stedsnr" v="497668" />
	</node>
<<<<<<< HEAD
	<node lat="62.64479722044152" lon="5.92057222691987" id="-6300">
		<tag k="name" v="Skarvholmen" />
		<tag k="place" v="islet" />
		<tag k="ssr:stedsnr" v="497683" />
	</node>
	<node lat="62.51194166540731" lon="5.934433325290004" id="-6301">
=======
	<node id="-70752" lat="62.5828972179" lon="6.07299167183">
		<tag k="name" v="Naustneset" />
		<tag k="natural" v="cape" />
		<tag k="ssr:stedsnr" v="496804" />
	</node>
	<node id="-70750" lat="62.5350777764" lon="6.0234472187">
		<tag k="fixme" v="consider seamark:type=rock or natural=shoal" />
		<tag k="name" v="Skinnprikka" />
		<tag k="place" v="islet" />
		<tag k="ssr:stedsnr" v="679740" />
	</node>
	<node id="-70749" lat="62.5135944462" lon="6.09431389696">
		<tag k="name" v="Hustruhamna" />
		<tag k="natural" v="bay" />
		<tag k="ssr:stedsnr" v="679738" />
	</node>
	<node id="-70748" lat="62.4763944424" lon="6.0403805618">
		<tag k="name" v="Godøya" />
		<tag k="place" v="island" />
		<tag k="ssr:stedsnr" v="678998" />
	</node>
	<node id="-70746" lat="62.5585361146" lon="5.91470833709">
>>>>>>> e1d4bc35ff8a6074a6f2e91616a996b547c36f15
		<tag k="fixme" v="consider seamark:type=rock or natural=shoal" />
		<tag k="name" v="Kråka" />
		<tag k="place" v="islet" />
		<tag k="ssr:stedsnr" v="497765" />
	</node>
<<<<<<< HEAD
	<node lat="62.520816664960115" lon="6.09839167173237" id="-6304">
		<tag k="name" v="Haggardsvika" />
		<tag k="natural" v="bay" />
		<tag k="ssr:stedsnr" v="497771" />
	</node>
	<node lat="62.50782499945382" lon="5.894477783660329" id="-6305">
		<tag k="name" v="Alnesbreidfluda" />
=======
	<node id="-70744" lat="62.6185055522" lon="5.95554166619">
		<tag k="name" v="Lakseskallane" />
		<tag k="natural" v="shoal" />
		<tag k="place" v="locality" />
		<tag k="ssr:stedsnr" v="477921" />
	</node>
	<node id="-70743" lat="62.5157972182" lon="6.00271110342">
		<tag k="name" v="Revsteinen" />
		<tag k="natural" v="shoal" />
>>>>>>> e1d4bc35ff8a6074a6f2e91616a996b547c36f15
		<tag k="place" v="locality" />
		<tag k="seamark:type" v="rock" />
		<tag k="ssr:stedsnr" v="510633" />
	</node>
<<<<<<< HEAD
	<node lat="62.54139721772046" lon="6.066722219442363" id="-6306">
		<tag k="name" v="Fugleneset" />
		<tag k="natural" v="cape" />
		<tag k="ssr:stedsnr" v="513559" />
	</node>
	<node lat="62.54215000174072" lon="6.040119453616346" id="-6310">
		<tag k="name" v="Kobbeveita" />
		<tag k="natural" v="bay" />
		<tag k="ssr:stedsnr" v="520219" />
	</node>
	<node lat="62.51739721894533" lon="6.165863897696736" id="-6311">
=======
	<node id="-70742" lat="62.5136833323" lon="5.99417777319">
		<tag k="name" v="Hellebardane" />
		<tag k="natural" v="shoal" />
		<tag k="place" v="locality" />
		<tag k="ssr:stedsnr" v="477504" />
	</node>
	<node id="-70741" lat="62.5643722203" lon="6.00708610583">
		<tag k="name" v="Røysvikstabben" />
		<tag k="natural" v="shoal" />
		<tag k="place" v="locality" />
		<tag k="ssr:stedsnr" v="477475" />
	</node>
	<node id="-70740" lat="62.4632138895" lon="6.03134444828">
>>>>>>> e1d4bc35ff8a6074a6f2e91616a996b547c36f15
		<tag k="fixme" v="consider seamark:type=rock or natural=shoal" />
		<tag k="name" v="Skarveskjeret" />
		<tag k="place" v="islet" />
<<<<<<< HEAD
		<tag k="ssr:stedsnr" v="520191" />
	</node>
	<node lat="62.55639444161738" lon="6.030352780607569" id="-6313">
		<tag k="name" v="Flatavika" />
		<tag k="natural" v="bay" />
		<tag k="ssr:stedsnr" v="520200" />
	</node>
	<node lat="62.55454721953722" lon="6.026816657531978" id="-6314">
		<tag k="name" v="Legarsvika" />
		<tag k="natural" v="bay" />
		<tag k="ssr:stedsnr" v="520201" />
	</node>
	<node lat="62.54603611329453" lon="6.10185833020968" id="-6316">
		<tag k="name" v="Stavneset" />
		<tag k="natural" v="cape" />
		<tag k="ssr:stedsnr" v="521938" />
	</node>
	<node lat="62.57942777699199" lon="6.037419443890214" id="-6320">
		<tag k="name" v="Pissebytta" />
=======
		<tag k="ssr:stedsnr" v="476925" />
	</node>
	<node id="-70739" lat="62.4556000038" lon="6.02864999939">
		<tag k="name" v="Revskallen" />
		<tag k="natural" v="shoal" />
		<tag k="place" v="locality" />
		<tag k="ssr:stedsnr" v="476570" />
	</node>
	<node id="-70738" lat="62.6958333351" lon="5.40666666702">
		<tag k="name" v="Piparseta" />
		<tag k="place" v="locality" />
		<tag k="ssr:stedsnr" v="466658" />
	</node>
	<node id="-70735" lat="62.4948861139" lon="6.120063895">
		<tag k="name" v="Knuteneset" />
		<tag k="natural" v="cape" />
		<tag k="ssr:stedsnr" v="663001" />
	</node>
	<node id="-70733" lat="62.6170916673" lon="6.06638610843">
		<tag k="name" v="Skuleskallen" />
		<tag k="natural" v="shoal" />
		<tag k="place" v="locality" />
		<tag k="ssr:stedsnr" v="450644" />
	</node>
	<node id="-70732" lat="62.5712500032" lon="5.89856944637">
		<tag k="name" v="Blimsbåen" />
		<tag k="place" v="locality" />
		<tag k="seamark:type" v="rock" />
		<tag k="ssr:stedsnr" v="450636" />
	</node>
	<node id="-70731" lat="62.6301361099" lon="5.90623334045">
		<tag k="name" v="Djupsøyla" />
		<tag k="place" v="locality" />
		<tag k="ssr:stedsnr" v="659026" />
	</node>
	<node id="-70730" lat="62.5554194429" lon="5.95035833946">
		<tag k="name" v="Stampen" />
		<tag k="natural" v="shoal" />
		<tag k="place" v="locality" />
		<tag k="ssr:stedsnr" v="659117" />
	</node>
	<node id="-70729" lat="62.5621972183" lon="5.89949444012">
		<tag k="name" v="Dyngjeskallen" />
		<tag k="natural" v="shoal" />
		<tag k="place" v="locality" />
		<tag k="ssr:stedsnr" v="659116" />
	</node>
	<node id="-70728" lat="62.611213887" lon="5.73107499841">
		<tag k="name" v="Svaet" />
>>>>>>> e1d4bc35ff8a6074a6f2e91616a996b547c36f15
		<tag k="natural" v="shoal" />
		<tag k="place" v="locality" />
		<tag k="ssr:stedsnr" v="537438" />
	</node>
<<<<<<< HEAD
	<node lat="62.51226944551011" lon="6.031341661228961" id="-6321">
		<tag k="name" v="Montosteinen" />
		<tag k="natural" v="shoal" />
		<tag k="place" v="locality" />
		<tag k="ssr:stedsnr" v="537453" />
	</node>
	<node lat="62.640305553152444" lon="6.036258328438519" id="-6322">
		<tag k="name" v="Storefallet" />
=======
	<node id="-70727" lat="62.5917166707" lon="5.73836667366">
		<tag k="name" v="Nyskallen" />
		<tag k="natural" v="shoal" />
		<tag k="place" v="locality" />
		<tag k="ssr:stedsnr" v="659010" />
	</node>
	<node id="-70726" lat="62.5387416688" lon="5.69224444846">
		<tag k="name" v="Sildestøbotnen" />
		<tag k="place" v="locality" />
		<tag k="ssr:stedsnr" v="659009" />
	</node>
	<node id="-70725" lat="62.5581055569" lon="5.87060554689">
		<tag k="name" v="Leiafalla" />
>>>>>>> e1d4bc35ff8a6074a6f2e91616a996b547c36f15
		<tag k="natural" v="shoal" />
		<tag k="place" v="locality" />
		<tag k="ssr:stedsnr" v="537895" />
	</node>
<<<<<<< HEAD
	<node lat="62.46752222530201" lon="5.934549998386983" id="-6323">
		<tag k="name" v="Skagen" />
=======
	<node id="-70724" lat="62.5413972177" lon="6.06672221944">
		<tag k="name" v="Fugleneset" />
>>>>>>> e1d4bc35ff8a6074a6f2e91616a996b547c36f15
		<tag k="natural" v="cape" />
		<tag k="ssr:stedsnr" v="556993" />
	</node>
<<<<<<< HEAD
	<node lat="62.62471944386552" lon="6.036311109936869" id="-6325">
		<tag k="fixme" v="consider seamark:type=rock or natural=shoal" />
		<tag k="name" v="Knappen" />
		<tag k="place" v="islet" />
		<tag k="ssr:stedsnr" v="557670" />
	</node>
	<node lat="62.62193889249622" lon="5.910891671863077" id="-6326">
		<tag k="name" v="Kyrkjeskallen" />
=======
	<node id="-70723" lat="62.5777500022" lon="6.01974444562">
		<tag k="name" v="Grynnet" />
>>>>>>> e1d4bc35ff8a6074a6f2e91616a996b547c36f15
		<tag k="natural" v="shoal" />
		<tag k="place" v="locality" />
		<tag k="ssr:stedsnr" v="557685" />
	</node>
<<<<<<< HEAD
	<node lat="62.551894444183276" lon="6.010888898021553" id="-6327">
		<tag k="name" v="Brimneset" />
		<tag k="natural" v="cape" />
		<tag k="ssr:stedsnr" v="557768" />
	</node>
	<node lat="62.55792499894617" lon="6.078583332593532" id="-6328">
		<tag k="name" v="Vigra" />
		<tag k="place" v="island" />
		<tag k="ssr:stedsnr" v="557779" />
	</node>
	<node lat="62.54041524747457" lon="5.866625600678968" id="-6329">
=======
	<node id="-70722" lat="62.5078249995" lon="5.89447778366">
		<tag k="name" v="Alnesbreidfluda" />
		<tag k="place" v="locality" />
		<tag k="seamark:type" v="rock" />
		<tag k="ssr:stedsnr" v="510633" />
	</node>
	<node id="-70717" lat="62.5288722225" lon="6.02133332787">
		<tag k="name" v="Synesvikane" />
		<tag k="place" v="sea" />
		<tag k="ssr:stedsnr" v="384453" />
	</node>
	<node id="-70715" lat="62.5533444416" lon="5.86555832938">
>>>>>>> e1d4bc35ff8a6074a6f2e91616a996b547c36f15
		<tag k="fixme" v="consider seamark:type=rock or natural=shoal" />
		<tag k="name" v="Langskjeret" />
		<tag k="place" v="islet" />
		<tag k="ssr:stedsnr" v="557780" />
	</node>
<<<<<<< HEAD
	<node lat="62.589516665931825" lon="6.062266663945728" id="-6332">
		<tag k="fixme" v="consider seamark:type=rock or natural=shoal" />
		<tag k="name" v="Ivarskjeret" />
=======
	<node id="-70714" lat="62.5447944479" lon="6.01105833191">
		<tag k="name" v="Synesholmen" />
>>>>>>> e1d4bc35ff8a6074a6f2e91616a996b547c36f15
		<tag k="place" v="islet" />
		<tag k="ssr:stedsnr" v="557793" />
	</node>
<<<<<<< HEAD
	<node lat="62.48485833343109" lon="5.987030547790864" id="-6335">
		<tag k="name" v="Hestevika" />
=======
	<node id="-70713" lat="62.520816665" lon="6.09839167173">
		<tag k="name" v="Haggardsvika" />
>>>>>>> e1d4bc35ff8a6074a6f2e91616a996b547c36f15
		<tag k="natural" v="bay" />
		<tag k="ssr:stedsnr" v="581165" />
	</node>
<<<<<<< HEAD
	<node lat="62.46594999950556" lon="5.994130556533283" id="-6337">
=======
	<node id="-70710" lat="62.5119416654" lon="5.93443332529">
>>>>>>> e1d4bc35ff8a6074a6f2e91616a996b547c36f15
		<tag k="fixme" v="consider seamark:type=rock or natural=shoal" />
		<tag k="name" v="Fløterevet" />
		<tag k="place" v="islet" />
		<tag k="ssr:stedsnr" v="581176" />
	</node>
<<<<<<< HEAD
	<node lat="62.46714444533025" lon="5.998875006626213" id="-6338">
		<tag k="name" v="Paulsneset" />
		<tag k="natural" v="cape" />
		<tag k="ssr:stedsnr" v="581178" />
	</node>
	<node lat="62.542863884802756" lon="6.020241670299754" id="-6341">
		<tag k="name" v="Litleholmen" />
=======
	<node id="-70709" lat="62.5068194419" lon="6.0848111073">
		<tag k="name" v="Skjongholmen" />
>>>>>>> e1d4bc35ff8a6074a6f2e91616a996b547c36f15
		<tag k="place" v="islet" />
		<tag k="ssr:stedsnr" v="581285" />
	</node>
<<<<<<< HEAD
	<node lat="62.51139444427855" lon="6.166502786483221" id="-6344">
		<tag k="name" v="Vilhelmsholmen" />
		<tag k="place" v="islet" />
		<tag k="ssr:stedsnr" v="581236" />
	</node>
	<node lat="62.52993611152329" lon="6.1145166651734035" id="-6346">
		<tag k="name" v="Røyseneset" />
=======
	<node id="-70706" lat="62.5625499999" lon="6.03678055666">
		<tag k="name" v="Tørneset" />
>>>>>>> e1d4bc35ff8a6074a6f2e91616a996b547c36f15
		<tag k="natural" v="cape" />
		<tag k="ssr:stedsnr" v="581969" />
	</node>
<<<<<<< HEAD
	<node lat="62.58231666381316" lon="6.078466672079064" id="-6348">
		<tag k="name" v="Støneset" />
=======
	<node id="-70705" lat="62.5547944469" lon="5.93950000912">
		<tag k="name" v="Lemba" />
>>>>>>> e1d4bc35ff8a6074a6f2e91616a996b547c36f15
		<tag k="natural" v="cape" />
		<tag k="ssr:stedsnr" v="581974" />
	</node>
<<<<<<< HEAD
	<node lat="62.57689722545128" lon="6.0865944422717675" id="-6349">
		<tag k="fixme" v="consider seamark:type=rock or natural=shoal" />
		<tag k="name" v="Kobbeskjeret" />
		<tag k="place" v="islet" />
		<tag k="ssr:stedsnr" v="581983" />
	</node>
	<node lat="62.5883388916005" lon="6.124808342379951" id="-6350">
		<tag k="name" v="Skateneset" />
		<tag k="natural" v="cape" />
		<tag k="ssr:stedsnr" v="581985" />
	</node>
	<node lat="62.57073889036617" lon="6.100886119990764" id="-6353">
		<tag k="name" v="Fitjane" />
		<tag k="natural" v="beach" />
		<tag k="ssr:stedsnr" v="581997" />
	</node>
	<node lat="62.620833335652215" lon="5.449999999861542" id="-6355">
		<tag k="name" v="Mebotnen" />
=======
	<node id="-70704" lat="62.545536107" lon="6.07335556204">
		<tag k="name" v="Vikane" />
		<tag k="natural" v="bay" />
		<tag k="ssr:stedsnr" v="496785" />
	</node>
	<node id="-70703" lat="62.6438916691" lon="6.0317222259">
		<tag k="name" v="Stadskallen" />
>>>>>>> e1d4bc35ff8a6074a6f2e91616a996b547c36f15
		<tag k="natural" v="shoal" />
		<tag k="place" v="locality" />
		<tag k="ssr:stedsnr" v="588635" />
	</node>
<<<<<<< HEAD
	<node lat="62.50758889175832" lon="6.064025008078449" id="-6356">
		<tag k="name" v="Gjerdesanden" />
		<tag k="natural" v="beach" />
		<tag k="ssr:stedsnr" v="596343" />
	</node>
	<node lat="62.51012854354178" lon="6.030385678225798" id="-6357">
		<tag k="name" v="Øydgardssanden" />
		<tag k="natural" v="beach" />
		<tag k="ssr:stedsnr" v="596344" />
	</node>
	<node lat="62.45646666718257" lon="5.945208336769918" id="-6358">
		<tag k="name" v="Skjenna" />
		<tag k="natural" v="shoal" />
=======
	<node id="-70702" lat="62.4642944459" lon="5.98375832931">
		<tag k="name" v="Gardsendberget" />
		<tag k="natural" v="cape" />
		<tag k="ssr:stedsnr" v="338122" />
	</node>
	<node id="-70698" lat="62.5953166662" lon="5.97401666762">
		<tag k="name" v="Sandbakkane" />
		<tag k="place" v="locality" />
		<tag k="seamark:type" v="rock" />
		<tag k="ssr:stedsnr" v="328606" />
	</node>
	<node id="-70697" lat="62.5922361126" lon="5.99576666469">
		<tag k="name" v="Knutskallen" />
>>>>>>> e1d4bc35ff8a6074a6f2e91616a996b547c36f15
		<tag k="place" v="locality" />
		<tag k="ssr:stedsnr" v="597591" />
	</node>
<<<<<<< HEAD
	<node lat="62.58738055860747" lon="6.048705559529309" id="-6359">
		<tag k="name" v="Vetrungane" />
=======
	<node id="-70696" lat="62.5824777773" lon="6.06117221359">
		<tag k="name" v="Naustfluda" />
>>>>>>> e1d4bc35ff8a6074a6f2e91616a996b547c36f15
		<tag k="natural" v="shoal" />
		<tag k="place" v="locality" />
		<tag k="ssr:stedsnr" v="598396" />
	</node>
<<<<<<< HEAD
	<node lat="62.60921944529989" lon="6.047938894614308" id="-6360">
		<tag k="name" v="Russen" />
		<tag k="natural" v="shoal" />
		<tag k="place" v="locality" />
		<tag k="ssr:stedsnr" v="598879" />
	</node>
	<node lat="62.52667499821638" lon="6.097530564727055" id="-6363">
		<tag k="name" v="Skarholmen" />
=======
	<node id="-70695" lat="62.6281666634" lon="5.86981388254">
		<tag k="name" v="Steinsgrynnsøyla" />
		<tag k="place" v="locality" />
		<tag k="ssr:stedsnr" v="477020" />
	</node>
	<node id="-70692" lat="62.5053333341" lon="6.15039166792">
		<tag k="name" v="Kjeholmen" />
		<tag k="place" v="islet" />
		<tag k="ssr:stedsnr" v="315753" />
	</node>
	<node id="-70691" lat="62.6428805531" lon="5.91921111638">
		<tag k="name" v="Måseholmen" />
>>>>>>> e1d4bc35ff8a6074a6f2e91616a996b547c36f15
		<tag k="place" v="islet" />
		<tag k="ssr:stedsnr" v="618747" />
	</node>
<<<<<<< HEAD
	<node lat="62.57403055273286" lon="6.120113892438986" id="-6365">
		<tag k="name" v="Roaldsleira" />
		<tag k="natural" v="bay" />
		<tag k="ssr:stedsnr" v="618771" />
	</node>
	<node lat="62.60319999682431" lon="5.921552778933016" id="-6366">
		<tag k="name" v="Hovsfluda" />
		<tag k="natural" v="shoal" />
		<tag k="place" v="locality" />
		<tag k="ssr:stedsnr" v="631616" />
	</node>
	<node lat="62.63243611308756" lon="5.943888892772853" id="-6367">
		<tag k="alt_name" v="Rosskallen" />
		<tag k="name" v="Rosseskallen" />
		<tag k="natural" v="shoal" />
=======
	<node id="-70690" lat="62.5852055542" lon="6.1280500093">
		<tag k="name" v="Klimpen" />
		<tag k="natural" v="cape" />
		<tag k="ssr:stedsnr" v="460999" />
	</node>
	<node id="-70689" lat="62.5120444445" lon="6.03920556328">
		<tag k="name" v="Onholmen" />
		<tag k="place" v="islet" />
		<tag k="ssr:stedsnr" v="460998" />
	</node>
	<node id="-70688" lat="62.5637916653" lon="6.05010277657">
		<tag k="name" v="Brenne" />
		<tag k="natural" v="beach" />
>>>>>>> e1d4bc35ff8a6074a6f2e91616a996b547c36f15
		<tag k="place" v="locality" />
		<tag k="ssr:stedsnr" v="631621" />
	</node>
<<<<<<< HEAD
	<node lat="62.50804999992118" lon="6.1500694497319115" id="-6371">
		<tag k="name" v="Kjeholmsundet" />
		<tag k="natural" v="strait" />
		<tag k="ssr:stedsnr" v="641155" />
	</node>
	<node lat="62.5550888900396" lon="6.006091668159788" id="-6377">
		<tag k="fixme" v="consider seamark:type=rock or natural=shoal" />
		<tag k="name" v="Geita" />
		<tag k="place" v="islet" />
		<tag k="ssr:stedsnr" v="642861" />
	</node>
	<node lat="62.578194447733196" lon="6.092997221627595" id="-6380">
		<tag k="name" v="Talganeset" />
		<tag k="natural" v="cape" />
		<tag k="ssr:stedsnr" v="642952" />
	</node>
	<node lat="62.5446527739848" lon="6.1279527724140275" id="-6381">
		<tag k="name" v="Merraneset" />
=======
	<node id="-70683" lat="62.5552916647" lon="6.02854721631">
		<tag k="name" v="Grisvika" />
		<tag k="natural" v="bay" />
		<tag k="ssr:stedsnr" v="460910" />
	</node>
	<node id="-70680" lat="62.4831888934" lon="6.03520555686">
		<tag k="name" v="Gjøta" />
		<tag k="natural" v="bay" />
		<tag k="ssr:stedsnr" v="460905" />
	</node>
	<node id="-70676" lat="62.5613500009" lon="6.03546389686">
		<tag k="name" v="Røssviksanden" />
		<tag k="natural" v="beach" />
		<tag k="place" v="locality" />
		<tag k="ssr:stedsnr" v="460272" />
	</node>
	<node id="-70672" lat="62.4648499976" lon="6.03178888879">
		<tag k="name" v="Høgsteinneset" />
>>>>>>> e1d4bc35ff8a6074a6f2e91616a996b547c36f15
		<tag k="natural" v="cape" />
		<tag k="ssr:stedsnr" v="642955" />
	</node>
<<<<<<< HEAD
	<node lat="62.523780553096856" lon="6.1315555542197595" id="-6383">
		<tag k="name" v="Blomvika" />
		<tag k="natural" v="bay" />
		<tag k="ssr:stedsnr" v="642971" />
	</node>
	<node lat="62.55810555692308" lon="5.8706055468908955" id="-6388">
		<tag k="name" v="Leiafalla" />
=======
	<node id="-70671" lat="62.4819138928" lon="5.95463610458">
		<tag k="name" v="Hestholmen" />
		<tag k="place" v="islet" />
		<tag k="ssr:stedsnr" v="460173" />
	</node>
	<node id="-70665" lat="62.5804666635" lon="5.97065833084">
		<tag k="name" v="Heilskallen" />
>>>>>>> e1d4bc35ff8a6074a6f2e91616a996b547c36f15
		<tag k="natural" v="shoal" />
		<tag k="place" v="locality" />
		<tag k="ssr:stedsnr" v="659002" />
	</node>
<<<<<<< HEAD
	<node lat="62.59171667070684" lon="5.738366673661799" id="-6390">
		<tag k="name" v="Nyskallen" />
		<tag k="natural" v="shoal" />
		<tag k="place" v="locality" />
		<tag k="ssr:stedsnr" v="659010" />
	</node>
	<node lat="62.61121388702303" lon="5.731074998409493" id="-6391">
		<tag k="name" v="Svaet" />
		<tag k="natural" v="shoal" />
		<tag k="place" v="locality" />
		<tag k="ssr:stedsnr" v="659014" />
	</node>
	<node lat="62.562197218291466" lon="5.899494440121933" id="-6393">
		<tag k="name" v="Dyngjeskallen" />
		<tag k="natural" v="shoal" />
		<tag k="place" v="locality" />
		<tag k="ssr:stedsnr" v="659116" />
	</node>
	<node lat="62.55541944291755" lon="5.950358339461082" id="-6394">
		<tag k="name" v="Stampen" />
		<tag k="natural" v="shoal" />
		<tag k="place" v="locality" />
		<tag k="ssr:stedsnr" v="659117" />
	</node>
	<node lat="62.49488611393129" lon="6.120063895001916" id="-6395">
		<tag k="name" v="Knuteneset" />
		<tag k="natural" v="cape" />
		<tag k="ssr:stedsnr" v="663001" />
	</node>
	<node lat="62.641944448069815" lon="6.00570277842397" id="-6396">
		<tag k="name" v="Søre Djupfallsgrynnet" />
		<tag k="natural" v="shoal" />
		<tag k="place" v="locality" />
		<tag k="ssr:stedsnr" v="719882" />
	</node>
	<node lat="62.62305277976363" lon="5.971794436079041" id="-6399">
		<tag k="name" v="Stemskallen" />
=======
	<node id="-70664" lat="62.5041138869" lon="6.00075833349">
		<tag k="name" v="Galtane" />
		<tag k="place" v="locality" />
		<tag k="seamark:type" v="rock" />
		<tag k="ssr:stedsnr" v="267608" />
	</node>
	<node id="-70663" lat="62.5699722215" lon="5.99478054699">
		<tag k="fixme" v="consider seamark:type=rock or natural=shoal" />
		<tag k="name" v="Gibba" />
		<tag k="place" v="islet" />
		<tag k="ssr:stedsnr" v="254776" />
	</node>
	<node id="-70662" lat="62.5599555583" lon="6.13278610774">
		<tag k="name" v="Rognodden" />
		<tag k="natural" v="cape" />
		<tag k="ssr:stedsnr" v="254771" />
	</node>
	<node id="-70660" lat="62.5483611073" lon="5.93813889611">
		<tag k="name" v="Hestevågen" />
		<tag k="natural" v="bay" />
		<tag k="ssr:stedsnr" v="254756" />
	</node>
	<node id="-70659" lat="62.5508166688" lon="5.92768888242">
		<tag k="fixme" v="consider seamark:type=rock or natural=shoal" />
		<tag k="name" v="Kråka" />
		<tag k="place" v="islet" />
		<tag k="ssr:stedsnr" v="254755" />
	</node>
	<node id="-70656" lat="62.6065000033" lon="6.1113138914">
		<tag k="fixme" v="consider seamark:type=rock or natural=shoal" />
		<tag k="name" v="Flatskjeret" />
		<tag k="place" v="islet" />
		<tag k="ssr:stedsnr" v="445233" />
	</node>
	<node id="-70655" lat="62.6426916681" lon="5.92368333231">
		<tag k="name" v="Storholmen" />
		<tag k="place" v="islet" />
		<tag k="ssr:stedsnr" v="234018" />
	</node>
	<node id="-70654" lat="62.6198249986" lon="5.941072229">
		<tag k="name" v="Tosellskallen" />
>>>>>>> e1d4bc35ff8a6074a6f2e91616a996b547c36f15
		<tag k="natural" v="shoal" />
		<tag k="place" v="locality" />
		<tag k="ssr:stedsnr" v="720898" />
	</node>
<<<<<<< HEAD
	<node lat="62.551224999266616" lon="5.944597221257211" id="-6403">
		<tag k="name" v="Erkna" />
		<tag k="place" v="island" />
		<tag k="ssr:stedsnr" v="739785" />
	</node>
	<node lat="62.47895833615733" lon="5.945216668447177" id="-6404">
		<tag k="name" v="Lestabukta" />
		<tag k="natural" v="bay" />
		<tag k="ssr:stedsnr" v="739991" />
	</node>
	<node lat="62.59006667053275" lon="6.116319447825229" id="-6407">
		<tag k="name" v="Langeneset" />
=======
	<node id="-70652" lat="62.5160749954" lon="6.17211110231">
		<tag k="name" v="Ramnehola" />
		<tag k="natural" v="strait" />
		<tag k="ssr:stedsnr" v="217219" />
	</node>
	<node id="-70651" lat="62.4947777758" lon="6.12467221563">
		<tag k="name" v="Lykkeneset" />
>>>>>>> e1d4bc35ff8a6074a6f2e91616a996b547c36f15
		<tag k="natural" v="cape" />
		<tag k="ssr:stedsnr" v="739820" />
	</node>
<<<<<<< HEAD
	<node lat="62.48539678028128" lon="5.995295184225171" id="-6408">
		<tag k="name" v="Vindsneset" />
		<tag k="natural" v="cape" />
		<tag k="ssr:stedsnr" v="739976" />
	</node>
	<node lat="62.49400555708082" lon="6.089383341680255" id="-6410">
		<tag k="name" v="Skjongfluda" />
=======
	<node id="-70650" lat="62.5754944421" lon="5.86936111977">
		<tag k="name" v="Knutsråsa" />
		<tag k="place" v="locality" />
		<tag k="ssr:stedsnr" v="295097" />
	</node>
	<node id="-70649" lat="62.661174999" lon="5.86666110765">
		<tag k="name" v="Steinsgrynnet" />
>>>>>>> e1d4bc35ff8a6074a6f2e91616a996b547c36f15
		<tag k="natural" v="shoal" />
		<tag k="place" v="locality" />
		<tag k="ssr:stedsnr" v="739985" />
	</node>
<<<<<<< HEAD
	<node lat="62.634816665381884" lon="5.985872218506175" id="-6411">
		<tag k="name" v="Fludskallen" />
		<tag k="natural" v="shoal" />
		<tag k="place" v="locality" />
		<tag k="ssr:stedsnr" v="740705" />
	</node>
	<node lat="62.62651666974359" lon="5.894608334188331" id="-6412">
		<tag k="name" v="Dyngjeskallen" />
=======
	<node id="-70648" lat="62.5681444434" lon="5.73995833757">
		<tag k="name" v="Nyskallen" />
		<tag k="natural" v="shoal" />
		<tag k="place" v="locality" />
		<tag k="ssr:stedsnr" v="295008" />
	</node>
	<node id="-70647" lat="62.606711115" lon="6.11628611117">
		<tag k="name" v="Flatskjergrunnane" />
		<tag k="natural" v="bay" />
		<tag k="ssr:stedsnr" v="294666" />
	</node>
	<node id="-70646" lat="62.4609250016" lon="5.94781945009">
		<tag k="name" v="Revsfluda" />
>>>>>>> e1d4bc35ff8a6074a6f2e91616a996b547c36f15
		<tag k="natural" v="shoal" />
		<tag k="place" v="locality" />
		<tag k="ssr:stedsnr" v="740708" />
	</node>
<<<<<<< HEAD
	<node lat="62.58685833020264" lon="5.9963083316943475" id="-6414">
		<tag k="name" v="Martinskallen" />
=======
	<node id="-70645" lat="62.5866666667" lon="5.90305833627">
		<tag k="name" v="Langskallen" />
		<tag k="natural" v="shoal" />
>>>>>>> e1d4bc35ff8a6074a6f2e91616a996b547c36f15
		<tag k="place" v="locality" />
		<tag k="seamark:type" v="rock" />
		<tag k="ssr:stedsnr" v="753578" />
	</node>
<<<<<<< HEAD
	<node lat="62.656013893497494" lon="6.0068333401474705" id="-6415">
		<tag k="name" v="Nørdre Djupfallet" />
=======
	<node id="-70644" lat="62.6972222211" lon="5.59999999127">
		<tag k="name" v="Heldet" />
>>>>>>> e1d4bc35ff8a6074a6f2e91616a996b547c36f15
		<tag k="natural" v="shoal" />
		<tag k="place" v="locality" />
		<tag k="ssr:stedsnr" v="753590" />
	</node>
<<<<<<< HEAD
	<node lat="62.54220833739856" lon="6.020766663969032" id="-6421">
		<tag k="name" v="Seglmerket" />
		<tag k="place" v="islet" />
		<tag k="ssr:stedsnr" v="763269" />
	</node>
	<node lat="62.535211107234296" lon="6.022097221085011" id="-6422">
		<tag k="name" v="Siglekroken" />
		<tag k="natural" v="bay" />
		<tag k="ssr:stedsnr" v="763270" />
	</node>
	<node lat="62.48258888546069" lon="6.007438888158908" id="-6423">
		<tag k="name" v="Hammaren" />
		<tag k="natural" v="cape" />
		<tag k="ssr:stedsnr" v="763139" />
	</node>
	<node lat="62.467105557630305" lon="6.01312222604131" id="-6425">
		<tag k="name" v="Geileneset" />
		<tag k="natural" v="cape" />
		<tag k="ssr:stedsnr" v="763165" />
	</node>
	<node lat="62.54346111101628" lon="6.1071777858849465" id="-6427">
		<tag k="name" v="Sørestranda" />
		<tag k="natural" v="beach" />
		<tag k="ssr:stedsnr" v="763939" />
	</node>
	<node lat="62.55949721807393" lon="6.016469436731207" id="-6428">
=======
	<node id="-70643" lat="62.6500000016" lon="5.55833332778">
		<tag k="name" v="Neteskallen" />
		<tag k="place" v="locality" />
		<tag k="ssr:stedsnr" v="285628" />
	</node>
	<node id="-70641" lat="62.5696722181" lon="6.02055276935">
		<tag k="name" v="Vikhunden" />
		<tag k="natural" v="shoal" />
		<tag k="place" v="locality" />
		<tag k="ssr:stedsnr" v="173421" />
	</node>
	<node id="-70640" lat="62.5800749989" lon="6.02354443727">
>>>>>>> e1d4bc35ff8a6074a6f2e91616a996b547c36f15
		<tag k="fixme" v="consider seamark:type=rock or natural=shoal" />
		<tag k="name" v="Ævra" />
		<tag k="place" v="islet" />
		<tag k="ssr:stedsnr" v="763886" />
	</node>
<<<<<<< HEAD
	<node lat="62.5709777740021" lon="6.066941670250986" id="-6433">
		<tag k="name" v="Hageneset" />
		<tag k="natural" v="cape" />
		<tag k="ssr:stedsnr" v="780371" />
	</node>
	<node lat="62.57110555453184" lon="6.046211105655956" id="-6434">
		<tag k="loc_name" v="Hjellfluda" />
		<tag k="name" v="Geilfluda" />
		<tag k="natural" v="shoal" />
=======
	<node id="-70638" lat="62.5711777813" lon="6.09806388444">
		<tag k="name" v="Saueholmen" />
		<tag k="place" v="islet" />
		<tag k="ssr:stedsnr" v="278973" />
	</node>
	<node id="-70636" lat="62.5498750032" lon="5.94592777285">
		<tag k="name" v="Mølen" />
		<tag k="natural" v="beach" />
>>>>>>> e1d4bc35ff8a6074a6f2e91616a996b547c36f15
		<tag k="place" v="locality" />
		<tag k="ssr:stedsnr" v="780375" />
	</node>
<<<<<<< HEAD
	<node lat="62.52321944588791" lon="6.140919446652244" id="-6436">
		<tag k="name" v="Oksneset" />
=======
	<node id="-70635" lat="62.4627944425" lon="5.95720000221">
		<tag k="name" v="Kallen" />
>>>>>>> e1d4bc35ff8a6074a6f2e91616a996b547c36f15
		<tag k="natural" v="cape" />
		<tag k="ssr:stedsnr" v="800743" />
	</node>
<<<<<<< HEAD
	<node lat="62.46682222403836" lon="5.93456667519461" id="-6439">
		<tag k="name" v="Skagevika" />
=======
	<node id="-70634" lat="62.4639944451" lon="5.98153611373">
		<tag k="name" v="Breivika" />
>>>>>>> e1d4bc35ff8a6074a6f2e91616a996b547c36f15
		<tag k="natural" v="bay" />
		<tag k="ssr:stedsnr" v="824156" />
	</node>
<<<<<<< HEAD
	<node lat="62.549569446710116" lon="5.934677775196739" id="-6448">
		<tag k="name" v="Trolla" />
=======
	<node id="-70632" lat="62.5359277795" lon="6.0262527831">
		<tag k="name" v="Pettersnagen" />
>>>>>>> e1d4bc35ff8a6074a6f2e91616a996b547c36f15
		<tag k="natural" v="cape" />
		<tag k="ssr:stedsnr" v="824899" />
	</node>
<<<<<<< HEAD
	<node lat="62.58945277396012" lon="6.102099995103181" id="-6452">
		<tag k="name" v="Smørvika" />
=======
	<node id="-70631" lat="62.5606388893" lon="6.03361665907">
		<tag k="name" v="Rotnevika" />
>>>>>>> e1d4bc35ff8a6074a6f2e91616a996b547c36f15
		<tag k="natural" v="bay" />
		<tag k="ssr:stedsnr" v="824960" />
	</node>
<<<<<<< HEAD
	<node lat="62.465908334393276" lon="5.989105561048576" id="-6453">
		<tag k="name" v="Juvsstranda" />
		<tag k="natural" v="beach" />
		<tag k="ssr:stedsnr" v="889888" />
	</node>
	<node lat="62.531986108226754" lon="6.104499991936095" id="-6454">
		<tag k="name" v="Toreknollen" />
=======
	<node id="-70630" lat="62.5037527806" lon="6.08931665729">
		<tag k="name" v="Litleholmen" />
		<tag k="place" v="islet" />
		<tag k="ssr:stedsnr" v="278268" />
	</node>
	<node id="-70623" lat="62.6094083359" lon="5.73956389056">
		<tag k="name" v="Grunnskallen" />
>>>>>>> e1d4bc35ff8a6074a6f2e91616a996b547c36f15
		<tag k="natural" v="shoal" />
		<tag k="place" v="locality" />
		<tag k="ssr:stedsnr" v="841437" />
	</node>
<<<<<<< HEAD
	<node lat="62.573705554732015" lon="6.081063881255312" id="-6455">
		<tag k="name" v="Kålgarden" />
		<tag k="natural" v="shoal" />
=======
	<node id="-70621" lat="62.6219416688" lon="5.99861111085">
		<tag k="name" v="Nørdre Fluda" />
>>>>>>> e1d4bc35ff8a6074a6f2e91616a996b547c36f15
		<tag k="place" v="locality" />
		<tag k="ssr:stedsnr" v="841418" />
	</node>
<<<<<<< HEAD
	<node lat="62.57227500056497" lon="6.0394361198209525" id="-6456">
		<tag k="name" v="Skottfluda" />
		<tag k="natural" v="shoal" />
=======
	<node id="-70620" lat="62.5465777766" lon="5.83984721668">
		<tag k="alt_name" v="Oddeboen" />
		<tag k="name" v="Oddebåen" />
>>>>>>> e1d4bc35ff8a6074a6f2e91616a996b547c36f15
		<tag k="place" v="locality" />
		<tag k="ssr:stedsnr" v="841420" />
	</node>
<<<<<<< HEAD
	<node lat="62.47349166623034" lon="5.923669448147476" id="-6457">
		<tag k="name" v="Grynnenova" />
		<tag k="natural" v="shoal" />
		<tag k="place" v="locality" />
		<tag k="ssr:stedsnr" v="841920" />
	</node>
	<node lat="62.55320278016292" lon="5.943108326738913" id="-6462">
		<tag k="name" v="Stampen" />
		<tag k="natural" v="bay" />
		<tag k="ssr:stedsnr" v="861772" />
	</node>
	<node lat="62.53526944834212" lon="5.82116666745364" id="-6464">
		<tag k="alt_name" v="Kvalsboen" />
		<tag k="name" v="Kvalsbåen" />
=======
	<node id="-70619" lat="62.5755666645" lon="6.0159888813">
		<tag k="fixme" v="consider seamark:type=rock or natural=shoal" />
		<tag k="name" v="Hildreøyane" />
		<tag k="place" v="islet" />
		<tag k="ssr:stedsnr" v="132808" />
	</node>
	<node id="-70618" lat="62.6103861105" lon="5.96310000037">
		<tag k="fixme" v="consider seamark:type=rock or natural=shoal" />
		<tag k="name" v="Mylloskjeret" />
		<tag k="place" v="islet" />
		<tag k="ssr:stedsnr" v="132711" />
	</node>
	<node id="-70616" lat="62.6431666628" lon="5.95398889198">
		<tag k="name" v="Rosseskallsøyla" />
>>>>>>> e1d4bc35ff8a6074a6f2e91616a996b547c36f15
		<tag k="place" v="locality" />
		<tag k="seamark:type" v="rock" />
		<tag k="ssr:stedsnr" v="874621" />
	</node>
<<<<<<< HEAD
	<node lat="62.58653055325654" lon="5.898925006637616" id="-6465">
		<tag k="name" v="Blindheimsbreidfluda" />
		<tag k="natural" v="shoal" />
=======
	<node id="-70615" lat="62.6563472233" lon="5.78141110632">
		<tag k="name" v="Kringlebakken" />
>>>>>>> e1d4bc35ff8a6074a6f2e91616a996b547c36f15
		<tag k="place" v="locality" />
		<tag k="ssr:stedsnr" v="874624" />
	</node>
<<<<<<< HEAD
	<node lat="62.57143332938226" lon="5.74849722555383" id="-6466">
		<tag k="name" v="Klovskallen" />
		<tag k="natural" v="shoal" />
		<tag k="place" v="locality" />
		<tag k="ssr:stedsnr" v="874628" />
	</node>
	<node lat="62.568452775096254" lon="5.743525008917592" id="-6467">
		<tag k="name" v="Fauskane" />
		<tag k="place" v="locality" />
		<tag k="seamark:type" v="rock" />
		<tag k="ssr:stedsnr" v="935618" />
	</node>
	<node lat="62.50576944356955" lon="5.774441660958733" id="-6468">
		<tag k="alt_name" v="Klovgryna" />
		<tag k="name" v="Klovgrynna" />
		<tag k="natural" v="shoal" />
		<tag k="place" v="locality" />
		<tag k="ssr:stedsnr" v="935621" />
	</node>
	<node lat="62.55960833783585" lon="6.032994445835687" id="-6470">
		<tag k="name" v="Åresvika" />
		<tag k="natural" v="bay" />
		<tag k="ssr:stedsnr" v="885868" />
	</node>
	<node lat="62.55650277523515" lon="6.028099997580524" id="-6471">
		<tag k="name" v="Morteberget" />
=======
	<node id="-70613" lat="62.585547223" lon="6.06955833865">
		<tag k="fixme" v="consider seamark:type=rock or natural=shoal" />
		<tag k="name" v="Skarveskjera" />
		<tag k="place" v="islet" />
		<tag k="ssr:stedsnr" v="96967" />
	</node>
	<node id="-70604" lat="62.4836944418" lon="6.0213472298">
		<tag k="alt_name" v="Haugberget;Haugberga" />
		<tag k="name" v="Haugen" />
		<tag k="natural" v="cape" />
		<tag k="ssr:stedsnr" v="254988" />
	</node>
	<node id="-70603" lat="62.4865083347" lon="5.96520278464">
		<tag k="name" v="Sandvika" />
		<tag k="natural" v="bay" />
		<tag k="ssr:stedsnr" v="254971" />
	</node>
	<node id="-70601" lat="62.5713777748" lon="6.05611388737">
		<tag k="name" v="Saudholmen" />
		<tag k="place" v="islet" />
		<tag k="ssr:stedsnr" v="254781" />
	</node>
	<node id="-70597" lat="62.5108722188" lon="6.16659444075">
		<tag k="name" v="Skinnbroka" />
>>>>>>> e1d4bc35ff8a6074a6f2e91616a996b547c36f15
		<tag k="place" v="islet" />
		<tag k="ssr:stedsnr" v="885231" />
	</node>
<<<<<<< HEAD
	<node lat="62.48402222353121" lon="5.997680546716746" id="-6473">
		<tag k="name" v="Vindsnesvika" />
		<tag k="natural" v="bay" />
		<tag k="ssr:stedsnr" v="885142" />
	</node>
	<node lat="62.57068610775964" lon="6.094038894161277" id="-6477">
		<tag k="name" v="Åkrianeset" />
=======
	<node id="-70596" lat="62.5121972209" lon="5.98313334166">
		<tag k="name" v="Hellesteinane" />
		<tag k="place" v="locality" />
		<tag k="seamark:type" v="rock" />
		<tag k="ssr:stedsnr" v="85565" />
	</node>
	<node id="-70595" lat="62.5307611097" lon="6.13186111429">
		<tag k="name" v="Gjøsundneset" />
>>>>>>> e1d4bc35ff8a6074a6f2e91616a996b547c36f15
		<tag k="natural" v="cape" />
		<tag k="ssr:stedsnr" v="885944" />
	</node>
<<<<<<< HEAD
	<node lat="62.46771110874935" lon="6.035177774692772" id="-6481">
		<tag k="name" v="Strandkleivvika" />
		<tag k="natural" v="bay" />
		<tag k="ssr:stedsnr" v="945115" />
	</node>
	<node lat="62.49949999759273" lon="6.031819435566213" id="-6484">
		<tag k="name" v="Skarveneset" />
		<tag k="natural" v="cape" />
		<tag k="ssr:stedsnr" v="945123" />
	</node>
	<node lat="62.51096944716967" lon="6.034158323981712" id="-6485">
		<tag k="name" v="Litlevika" />
		<tag k="natural" v="bay" />
		<tag k="ssr:stedsnr" v="945125" />
	</node>
	<node lat="62.527266671012455" lon="6.104955547936181" id="-6488">
		<tag k="name" v="Kvennhusvika" />
		<tag k="natural" v="bay" />
		<tag k="ssr:stedsnr" v="946941" />
	</node>
	<node lat="62.569791668070664" lon="6.074938890550736" id="-6489">
		<tag k="name" v="Hageberget" />
=======
	<node id="-70594" lat="62.5144621247" lon="6.06489298772">
		<tag k="name" v="Staurneset" />
		<tag k="natural" v="cape" />
		<tag k="ssr:stedsnr" v="72739" />
	</node>
	<node id="-70590" lat="62.6332138903" lon="5.69652778279">
		<tag k="name" v="Veten" />
		<tag k="place" v="locality" />
		<tag k="ssr:stedsnr" v="53007" />
	</node>
	<node id="-70589" lat="62.5962194482" lon="6.06010556416">
		<tag k="name" v="Godmora" />
		<tag k="natural" v="shoal" />
		<tag k="place" v="locality" />
		<tag k="ssr:stedsnr" v="52884" />
	</node>
	<node id="-70588" lat="62.6395777821" lon="6.02817222971">
		<tag k="name" v="Fjordmannsfallet" />
		<tag k="natural" v="shoal" />
		<tag k="place" v="locality" />
		<tag k="ssr:stedsnr" v="51912" />
	</node>
	<node id="-70587" lat="62.6024222216" lon="6.04627499434">
		<tag k="fixme" v="consider seamark:type=rock or natural=shoal" />
		<tag k="name" v="Jektefludskjeret" />
>>>>>>> e1d4bc35ff8a6074a6f2e91616a996b547c36f15
		<tag k="place" v="islet" />
		<tag k="ssr:stedsnr" v="946962" />
	</node>
<<<<<<< HEAD
	<node lat="62.54867777745966" lon="5.871636118374618" id="-6493">
		<tag k="name" v="Morkolla" />
=======
	<node id="-70586" lat="62.4592583365" lon="6.04008055319">
		<tag k="name" v="Djupefluda" />
>>>>>>> e1d4bc35ff8a6074a6f2e91616a996b547c36f15
		<tag k="natural" v="shoal" />
		<tag k="place" v="locality" />
		<tag k="ssr:stedsnr" v="962005" />
	</node>
<<<<<<< HEAD
	<node lat="62.567311106956105" lon="6.029083336288447" id="-6494">
		<tag k="name" v="Andersfluda" />
		<tag k="natural" v="shoal" />
		<tag k="place" v="locality" />
		<tag k="ssr:stedsnr" v="962452" />
	</node>
	<node lat="62.61789166219632" lon="5.979888885743563" id="-6496">
		<tag k="name" v="Leiskallen" />
=======
	<node id="-70585" lat="62.5176500022" lon="5.98611944618">
		<tag k="name" v="Nordre Leiasteinen" />
		<tag k="natural" v="shoal" />
		<tag k="place" v="locality" />
		<tag k="ssr:stedsnr" v="234464" />
	</node>
	<node id="-70584" lat="62.5729916637" lon="6.03601389039">
		<tag k="name" v="Kobbholmen" />
		<tag k="place" v="islet" />
		<tag k="ssr:stedsnr" v="234443" />
	</node>
	<node id="-70583" lat="62.5849888932" lon="6.07419167249">
		<tag k="name" v="Molneset" />
		<tag k="natural" v="cape" />
		<tag k="ssr:stedsnr" v="234440" />
	</node>
	<node id="-70582" lat="62.4967750014" lon="5.94320000857">
		<tag k="name" v="Veibostskallen" />
>>>>>>> e1d4bc35ff8a6074a6f2e91616a996b547c36f15
		<tag k="natural" v="shoal" />
		<tag k="place" v="locality" />
		<tag k="ssr:stedsnr" v="962870" />
	</node>
<<<<<<< HEAD
	<node lat="62.51212500112537" lon="5.978650000065771" id="-6497">
		<tag k="name" v="Søre Leiasteinen" />
=======
	<node id="-70581" lat="62.5353444464" lon="5.95908332944">
		<tag k="name" v="Synesstabben" />
>>>>>>> e1d4bc35ff8a6074a6f2e91616a996b547c36f15
		<tag k="natural" v="shoal" />
		<tag k="place" v="locality" />
		<tag k="ssr:stedsnr" v="962872" />
	</node>
<<<<<<< HEAD
	<node lat="62.593822219458325" lon="6.079477777674101" id="-6498">
		<tag k="name" v="Revet" />
		<tag k="natural" v="shoal" />
=======
	<node id="-70580" lat="62.7305555564" lon="5.6666666576">
		<tag k="name" v="Medseta" />
>>>>>>> e1d4bc35ff8a6074a6f2e91616a996b547c36f15
		<tag k="place" v="locality" />
		<tag k="ssr:stedsnr" v="962876" />
	</node>
<<<<<<< HEAD
	<node lat="62.51337500198039" lon="5.903211119458782" id="-6499">
		<tag k="name" v="Bjørnebåen" />
		<tag k="natural" v="shoal" />
		<tag k="place" v="locality" />
		<tag k="ssr:stedsnr" v="962877" />
	</node>
	<node lat="62.48554010429543" lon="5.976381578747475" id="-6516">
		<tag k="name" v="Kyrkjestøa" />
		<tag k="natural" v="beach" />
		<tag k="ssr:stedsnr" v="973368" />
	</node>
	<node lat="62.48400774471413" lon="5.963678266620272" id="-6517">
		<tag k="name" v="Slumpen" />
=======
	<node id="-70577" lat="62.6031666626" lon="5.97978610316">
		<tag k="name" v="Dausken" />
		<tag k="natural" v="shoal" />
		<tag k="place" v="locality" />
		<tag k="ssr:stedsnr" v="11716" />
	</node>
	<node id="-70575" lat="62.511669447" lon="6.16064167132">
		<tag k="name" v="Kjelvika" />
		<tag k="natural" v="bay" />
		<tag k="ssr:stedsnr" v="217983" />
	</node>
	<node id="-70574" lat="62.5905805522" lon="6.10936110486">
		<tag k="name" v="Karmannsvågen" />
		<tag k="natural" v="bay" />
		<tag k="ssr:stedsnr" v="217962" />
	</node>
	<node id="-70570" lat="62.4858111128" lon="6.05997222131">
		<tag k="name" v="Tangen" />
>>>>>>> e1d4bc35ff8a6074a6f2e91616a996b547c36f15
		<tag k="natural" v="cape" />
		<tag k="ssr:stedsnr" v="973369" />
	</node>
	<node lat="62.48511840665892" lon="5.98504485576494" id="-6520">
		<tag k="fixme" v="consider seamark:type=rock or natural=shoal" />
		<tag k="name" v="Presteskjeret" />
		<tag k="place" v="islet" />
		<tag k="ssr:stedsnr" v="973373" />
	</node>
	<node lat="62.50761241616594" lon="5.9253438097196724" id="-6525">
		<tag k="name" v="Leiafallet" />
		<tag k="natural" v="shoal" />
		<tag k="place" v="locality" />
		<tag k="ssr:stedsnr" v="1077553" />
	</node>
	<node lat="62.48398963033345" lon="6.04289700472228" id="-6526">
		<tag k="name" v="Furkenholmsundet" />
		<tag k="natural" v="strait" />
		<tag k="ssr:stedsnr" v="1077568" />
	</node>
</osm>
