<?xml version="1.0" encoding="UTF-8"?>
<osm generator="osmapis" version="0.6">
	<node id="-7679" lat="62.5029361149" lon="6.119547229">
		<tag k="name" v="Husefjellet" />
		<tag k="natural" v="hill" />
		<tag k="place" v="locality" />
		<tag k="ssr:stedsnr" v="35206" />
	</node>
	<node id="-7668" lat="62.510474997" lon="6.11117777863">
		<tag k="name" v="Skjonghornet" />
		<tag k="natural" v="hill" />
		<tag k="place" v="locality" />
		<tag k="ssr:stedsnr" v="217199" />
	</node>
	<node id="-7656" lat="62.5511638901" lon="6.02353610322">
		<tag k="name" v="Kjerringa" />
		<tag k="natural" v="hill" />
		<tag k="place" v="locality" />
		<tag k="ssr:stedsnr" v="945225" />
	</node>
	<node id="-7651" lat="62.5451583296" lon="6.01254443939">
		<tag k="name" v="Grauthaugen" />
		<tag k="natural" v="hill" />
		<tag k="place" v="locality" />
		<tag k="ssr:stedsnr" v="217253" />
	</node>
	<node id="-7649" lat="62.5602194449" lon="6.03803056495">
		<tag k="name" v="Haugane" />
		<tag k="natural" v="hill" />
		<tag k="place" v="locality" />
		<tag k="ssr:stedsnr" v="217248" />
	</node>
	<node id="-7639" lat="62.5677638895" lon="6.07271943952">
		<tag k="name" v="Trollgjølet" />
		<tag k="natural" v="valley" />
		<tag k="place" v="locality" />
		<tag k="ssr:stedsnr" v="885974" />
	</node>
	<node id="-7638" lat="62.5300055516" lon="6.11764444077">
		<tag k="name" v="Klippen" />
		<tag k="natural" v="hill" />
		<tag k="place" v="locality" />
		<tag k="ssr:stedsnr" v="885971" />
	</node>
	<node id="-7637" lat="62.5259305557" lon="6.10151666137">
		<tag k="name" v="Kløvningane" />
		<tag k="natural" v="hill" />
		<tag k="place" v="locality" />
		<tag k="ssr:stedsnr" v="885922" />
	</node>
	<node id="-7636" lat="62.50126389" lon="6.1044083247">
		<tag k="name" v="Karenhaugen" />
		<tag k="natural" v="hill" />
		<tag k="place" v="locality" />
		<tag k="ssr:stedsnr" v="885222" />
	</node>
	<node id="-7635" lat="62.5660888848" lon="6.06161667167">
		<tag k="name" v="Falkehamrane" />
		<tag k="natural" v="slope" />
		<tag k="place" v="locality" />
		<tag k="ssr:stedsnr" v="885212" />
	</node>
	<node id="-7634" lat="62.5666527733" lon="6.05665554825">
		<tag k="name" v="Blimshaugen" />
		<tag k="natural" v="hill" />
		<tag k="place" v="locality" />
		<tag k="ssr:stedsnr" v="885209" />
	</node>
	<node id="-7633" lat="62.4625250024" lon="5.96938888896">
		<tag k="name" v="Reiskjerberga" />
		<tag k="natural" v="slope" />
		<tag k="place" v="locality" />
		<tag k="ssr:stedsnr" v="885163" />
	</node>
	<node id="-7629" lat="62.5099194427" lon="6.11263332416">
		<tag k="name" v="Måsetua" />
		<tag k="natural" v="hill" />
		<tag k="place" v="locality" />
		<tag k="ssr:stedsnr" v="946976" />
	</node>
	<node id="-7628" lat="62.4646166685" lon="5.94694165949">
		<tag k="name" v="Ryggen" />
		<tag k="natural" v="ridge" />
		<tag k="place" v="locality" />
		<tag k="ssr:stedsnr" v="946893" />
	</node>
	<node id="-7627" lat="62.4739444454" lon="5.99622778681">
		<tag k="name" v="Ryggane" />
		<tag k="natural" v="valley" />
		<tag k="place" v="locality" />
		<tag k="ssr:stedsnr" v="946881" />
	</node>
	<node id="-7620" lat="62.5070305569" lon="6.11455000753">
		<tag k="name" v="Litle Måsetua" />
		<tag k="natural" v="hill" />
		<tag k="place" v="locality" />
		<tag k="ssr:stedsnr" v="945119" />
	</node>
	<node id="-7617" lat="62.4784833352" lon="5.963586107">
		<tag k="name" v="Torvfjellet" />
		<tag k="natural" v="hill" />
		<tag k="place" v="locality" />
		<tag k="ssr:stedsnr" v="945106" />
	</node>
	<node id="-7614" lat="62.5184388872" lon="6.12274444076">
		<tag k="fixme" v="consider natural=peak for the most distinct mountains in the district" />
		<tag k="name" v="Bakkerøra" />
		<tag k="natural" v="hill" />
		<tag k="place" v="locality" />
		<tag k="ssr:stedsnr" v="840504" />
	</node>
	<node id="-7613" lat="62.4711333293" lon="6.01018889456">
		<tag k="name" v="Kamsdalen" />
		<tag k="natural" v="valley" />
		<tag k="place" v="locality" />
		<tag k="ssr:stedsnr" v="824174" />
	</node>
	<node id="-7608" lat="62.5516249996" lon="6.03451943684">
		<tag k="name" v="Synesfjellet" />
		<tag k="natural" v="hill" />
		<tag k="place" v="locality" />
		<tag k="ssr:stedsnr" v="800764" />
	</node>
	<node id="-7431" lat="62.4994305534" lon="6.04714722401">
		<tag k="name" v="Ørnebakken" />
		<tag k="natural" v="slope" />
		<tag k="place" v="locality" />
		<tag k="ssr:stedsnr" v="460277" />
	</node>
	<node id="-7580" lat="62.5355583338" lon="6.01860000835">
		<tag k="name" v="Kvitene" />
		<tag k="natural" v="hill" />
		<tag k="place" v="locality" />
		<tag k="ssr:stedsnr" v="885983" />
	</node>
	<node id="-7572" lat="62.5520527777" lon="6.03220277646">
		<tag k="name" v="Ramedalshornet" />
		<tag k="natural" v="hill" />
		<tag k="place" v="locality" />
		<tag k="ssr:stedsnr" v="885229" />
	</node>
	<node id="-8072" lat="62.4897546919" lon="5.96795010669">
		<tag k="name" v="Kyrkjene" />
		<tag k="natural" v="hill" />
		<tag k="place" v="locality" />
		<tag k="ssr:stedsnr" v="973372" />
	</node>
	<node id="-7557" lat="62.5481315524" lon="5.94114243632">
		<tag k="name" v="Hesteberget" />
		<tag k="natural" v="hill" />
		<tag k="place" v="locality" />
		<tag k="ssr:stedsnr" v="618752" />
	</node>
	<node id="-8064" lat="62.4858852596" lon="5.97163307778">
		<tag k="name" v="Bautarhaugen" />
		<tag k="natural" v="hill" />
		<tag k="place" v="locality" />
		<tag k="ssr:stedsnr" v="973346" />
	</node>
	<node id="-8062" lat="62.4867975073" lon="5.96783556054">
		<tag k="name" v="Kjellarbakken" />
		<tag k="natural" v="slope" />
		<tag k="place" v="locality" />
		<tag k="ssr:stedsnr" v="973255" />
	</node>
	<node id="-8061" lat="62.4870703594" lon="5.96779163714">
		<tag k="name" v="Sanddalen" />
		<tag k="natural" v="valley" />
		<tag k="place" v="locality" />
		<tag k="ssr:stedsnr" v="973254" />
	</node>
	<node id="-8057" lat="62.4898980163" lon="5.96584998213">
		<tag k="name" v="Ørnekulen" />
		<tag k="natural" v="hill" />
		<tag k="place" v="locality" />
		<tag k="ssr:stedsnr" v="973250" />
	</node>
	<node id="-8055" lat="62.4895000692" lon="5.96707948641">
		<tag k="name" v="Nesbakken" />
		<tag k="natural" v="slope" />
		<tag k="place" v="locality" />
		<tag k="ssr:stedsnr" v="973245" />
	</node>
	<node id="-8054" lat="62.4889085285" lon="5.96914602047">
		<tag k="name" v="Steinteigane" />
		<tag k="natural" v="slope" />
		<tag k="place" v="locality" />
		<tag k="ssr:stedsnr" v="973244" />
	</node>
	<node id="-8051" lat="62.4865969313" lon="5.97301108736">
		<tag k="name" v="Moldbrekkene" />
		<tag k="natural" v="slope" />
		<tag k="place" v="locality" />
		<tag k="ssr:stedsnr" v="973241" />
	</node>
	<node id="-7538" lat="62.5881805544" lon="6.09742777485">
		<tag k="name" v="Heland" />
		<tag k="natural" v="hill" />
		<tag k="place" v="locality" />
		<tag k="ssr:stedsnr" v="703998" />
	</node>
	<node id="-7537" lat="62.551208333" lon="6.0253249937">
		<tag k="name" v="Falketua" />
		<tag k="natural" v="hill" />
		<tag k="place" v="locality" />
		<tag k="ssr:stedsnr" v="703995" />
	</node>
	<node id="-7536" lat="62.5391666658" lon="6.02057777372">
		<tag k="name" v="Buggane" />
		<tag k="natural" v="hill" />
		<tag k="place" v="locality" />
		<tag k="ssr:stedsnr" v="703993" />
	</node>
	<node id="-7535" lat="62.5641166645" lon="6.12457777878">
		<tag k="name" v="Sletta" />
		<tag k="place" v="locality" />
		<tag k="ssr:stedsnr" v="703989" />
	</node>
	<node id="-7534" lat="62.5870027811" lon="6.12153610756">
		<tag k="name" v="Rotmyrhaugen" />
		<tag k="natural" v="hill" />
		<tag k="place" v="locality" />
		<tag k="ssr:stedsnr" v="703983" />
	</node>
	<node id="-7532" lat="62.5855083363" lon="6.09158611633">
		<tag k="name" v="Storehornet" />
		<tag k="natural" v="hill" />
		<tag k="place" v="locality" />
		<tag k="ssr:stedsnr" v="703965" />
	</node>
	<node id="-7531" lat="62.5844305523" lon="6.09761666739">
		<tag k="name" v="Litlehornet" />
		<tag k="natural" v="hill" />
		<tag k="place" v="locality" />
		<tag k="ssr:stedsnr" v="703957" />
	</node>
	<node id="-7527" lat="62.5573194438" lon="6.11657221585">
		<tag k="name" v="Storemålshaugen" />
		<tag k="natural" v="hill" />
		<tag k="place" v="locality" />
		<tag k="ssr:stedsnr" v="703941" />
	</node>
	<node id="-7524" lat="62.5524222234" lon="6.03860000893">
		<tag k="name" v="Middagstua" />
		<tag k="natural" v="hill" />
		<tag k="place" v="locality" />
		<tag k="ssr:stedsnr" v="703282" />
	</node>
	<node id="-8035" lat="62.5227166632" lon="6.11198888177">
		<tag k="name" v="Sætredalen" />
		<tag k="natural" v="valley" />
		<tag k="place" v="locality" />
		<tag k="ssr:stedsnr" v="861753" />
	</node>
	<node id="-7521" lat="62.5515749996" lon="6.02454721882">
		<tag k="name" v="Seljedalen" />
		<tag k="natural" v="valley" />
		<tag k="place" v="locality" />
		<tag k="ssr:stedsnr" v="703266" />
	</node>
	<node id="-7519" lat="62.4661527762" lon="5.94625832901">
		<tag k="name" v="Moldagjølet" />
		<tag k="natural" v="gorge" />
		<tag k="ssr:stedsnr" v="703127" />
	</node>
	<node id="-8024" lat="62.5862527764" lon="6.08599999906">
		<tag k="name" v="Halsen" />
		<tag k="natural" v="ridge" />
		<tag k="place" v="locality" />
		<tag k="ssr:stedsnr" v="824992" />
	</node>
	<node id="-8023" lat="62.464783331" lon="5.96275555442">
		<tag k="name" v="Kvifloga" />
		<tag k="natural" v="slope" />
		<tag k="place" v="locality" />
		<tag k="ssr:stedsnr" v="824988" />
	</node>
	<node id="-8018" lat="62.5873416705" lon="6.10972499609">
		<tag k="name" v="Ranskarrema" />
		<tag k="natural" v="ridge" />
		<tag k="place" v="locality" />
		<tag k="ssr:stedsnr" v="824956" />
	</node>
	<node id="-8017" lat="62.5576527805" lon="6.08177499512">
		<tag k="name" v="Randalen" />
		<tag k="natural" v="valley" />
		<tag k="place" v="locality" />
		<tag k="ssr:stedsnr" v="824953" />
	</node>
	<node id="-8016" lat="62.5002749998" lon="6.05977778404">
		<tag k="name" v="Reinebakken" />
		<tag k="natural" v="hill" />
		<tag k="place" v="locality" />
		<tag k="ssr:stedsnr" v="824251" />
	</node>
	<node id="-8015" lat="62.5673527751" lon="6.06420277326">
		<tag k="name" v="Brattegjølet" />
		<tag k="natural" v="valley" />
		<tag k="place" v="locality" />
		<tag k="ssr:stedsnr" v="824248" />
	</node>
	<node id="-8014" lat="62.5673694475" lon="6.07052221239">
		<tag k="name" v="Lynggjølet" />
		<tag k="natural" v="valley" />
		<tag k="place" v="locality" />
		<tag k="ssr:stedsnr" v="824246" />
	</node>
	<node id="-8013" lat="62.500469445" lon="6.11688333635">
		<tag k="name" v="Manuelaksla" />
		<tag k="natural" v="ridge" />
		<tag k="place" v="locality" />
		<tag k="ssr:stedsnr" v="824244" />
	</node>
	<node id="-8012" lat="62.5114305555" lon="6.15390277915">
		<tag k="name" v="Skjerva" />
		<tag k="natural" v="hill" />
		<tag k="place" v="locality" />
		<tag k="ssr:stedsnr" v="824226" />
	</node>
	<node id="-8011" lat="62.5515666649" lon="5.94042222555">
		<tag k="name" v="Nøre Erknafjellet" />
		<tag k="natural" v="hill" />
		<tag k="place" v="locality" />
		<tag k="ssr:stedsnr" v="824200" />
	</node>
	<node id="-8010" lat="62.5445888895" lon="6.00669443837">
		<tag k="name" v="Holmbarden" />
		<tag k="natural" v="hill" />
		<tag k="place" v="locality" />
		<tag k="ssr:stedsnr" v="824287" />
	</node>
	<node id="-7393" lat="62.5397277781" lon="6.12901111411">
		<tag k="name" v="Småhaugane" />
		<tag k="natural" v="hill" />
		<tag k="place" v="locality" />
		<tag k="ssr:stedsnr" v="278978" />
	</node>
	<node id="-7491" lat="62.4834750006" lon="6.03117222463">
		<tag k="name" v="Slettebakken" />
		<tag k="natural" v="slope" />
		<tag k="place" v="locality" />
		<tag k="ssr:stedsnr" v="460169" />
	</node>
	<node id="-8001" lat="62.47370833" lon="5.98468889584">
		<tag k="fixme" v="consider natural=peak for the most distinct mountains in the district" />
		<tag k="name" v="Storhornet" />
		<tag k="natural" v="hill" />
		<tag k="place" v="locality" />
		<tag k="ssr:stedsnr" v="799998" />
	</node>
	<node id="-7997" lat="62.5856555541" lon="6.10878611714">
		<tag k="name" v="Buskå" />
		<tag k="natural" v="ridge" />
		<tag k="place" v="locality" />
		<tag k="ssr:stedsnr" v="763997" />
	</node>
	<node id="-7996" lat="62.5144250018" lon="6.11196110206">
		<tag k="name" v="Signalen" />
		<tag k="natural" v="hill" />
		<tag k="place" v="locality" />
		<tag k="ssr:stedsnr" v="763966" />
	</node>
	<node id="-7995" lat="62.5117222212" lon="6.11702500081">
		<tag k="name" v="Grødalen" />
		<tag k="natural" v="valley" />
		<tag k="place" v="locality" />
		<tag k="ssr:stedsnr" v="763963" />
	</node>
	<node id="-7994" lat="62.5879777741" lon="6.08374443847">
		<tag k="name" v="Helvete" />
		<tag k="natural" v="hill" />
		<tag k="place" v="locality" />
		<tag k="ssr:stedsnr" v="763959" />
	</node>
	<node id="-7993" lat="62.5825444451" lon="6.09741943985">
		<tag k="name" v="Storebakken" />
		<tag k="natural" v="slope" />
		<tag k="place" v="locality" />
		<tag k="ssr:stedsnr" v="763951" />
	</node>
	<node id="-7990" lat="62.5499611112" lon="5.93982500307">
		<tag k="name" v="Snadden" />
		<tag k="natural" v="hill" />
		<tag k="place" v="locality" />
		<tag k="ssr:stedsnr" v="763887" />
	</node>
	<node id="-7985" lat="62.5139138917" lon="6.17035555954">
		<tag k="name" v="Kjempetrehaugen" />
		<tag k="natural" v="hill" />
		<tag k="place" v="locality" />
		<tag k="ssr:stedsnr" v="763235" />
	</node>
	<node id="-7984" lat="62.5150999959" lon="6.10404445015">
		<tag k="name" v="Saudegeila" />
		<tag k="natural" v="valley" />
		<tag k="place" v="locality" />
		<tag k="ssr:stedsnr" v="763220" />
	</node>
	<node id="-7466" lat="62.521825002" lon="6.10408611232">
		<tag k="fixme" v="consider natural=peak for the most distinct mountains in the district" />
		<tag k="name" v="Storefjellet" />
		<tag k="natural" v="hill" />
		<tag k="place" v="locality" />
		<tag k="ssr:stedsnr" v="497769" />
	</node>
	<node id="-7462" lat="62.5037027765" lon="6.11470276928">
		<tag k="name" v="Skjongskaret" />
		<tag k="natural" v="valley" />
		<tag k="place" v="locality" />
		<tag k="ssr:stedsnr" v="497748" />
	</node>
	<node id="-7473" lat="62.5608527823" lon="6.11776666847">
		<tag k="name" v="Litlemålshaugen" />
		<tag k="natural" v="hill" />
		<tag k="place" v="locality" />
		<tag k="ssr:stedsnr" v="399932" />
	</node>
	<node id="-7455" lat="62.4758361149" lon="5.99118334116">
		<tag k="name" v="Mørkedalen" />
		<tag k="natural" v="valley" />
		<tag k="place" v="locality" />
		<tag k="ssr:stedsnr" v="338115" />
	</node>
	<node id="-7966" lat="62.4722416664" lon="5.95320277241">
		<tag k="alt_name" v="Leisten" />
		<tag k="fixme" v="consider natural=peak for the most distinct mountains in the district" />
		<tag k="name" v="Lesten" />
		<tag k="natural" v="hill" />
		<tag k="place" v="locality" />
		<tag k="ssr:stedsnr" v="739000" />
	</node>
	<node id="-7453" lat="62.4713750042" lon="5.94751666714">
		<tag k="name" v="Måsegjølet" />
		<tag k="natural" v="gorge" />
		<tag k="ssr:stedsnr" v="338100" />
	</node>
	<node id="-7962" lat="62.5859750008" lon="6.08767500078">
		<tag k="name" v="Storetua" />
		<tag k="natural" v="hill" />
		<tag k="place" v="locality" />
		<tag k="ssr:stedsnr" v="642997" />
	</node>
	<node id="-7961" lat="62.5740305543" lon="6.10191945139">
		<tag k="name" v="Røyra" />
		<tag k="natural" v="ridge" />
		<tag k="place" v="locality" />
		<tag k="ssr:stedsnr" v="642996" />
	</node>
	<node id="-7447" lat="62.519061108" lon="6.10453055984">
		<tag k="name" v="Skjonghelleren" />
		<tag k="place" v="locality" />
		<tag k="ssr:stedsnr" v="315766" />
	</node>
	<node id="-7953" lat="62.5635972242" lon="6.09992222652">
		<tag k="name" v="Vardhaugen" />
		<tag k="natural" v="hill" />
		<tag k="place" v="locality" />
		<tag k="ssr:stedsnr" v="642936" />
	</node>
	<node id="-7440" lat="62.5488166647" lon="6.04831944338">
		<tag k="name" v="Brauta" />
		<tag k="natural" v="slope" />
		<tag k="place" v="locality" />
		<tag k="ssr:stedsnr" v="460991" />
	</node>
	<node id="-7438" lat="62.560666668" lon="6.03618333297">
		<tag k="name" v="Omnhola" />
		<tag k="natural" v="valley" />
		<tag k="place" v="locality" />
		<tag k="ssr:stedsnr" v="460913" />
	</node>
	<node id="-7436" lat="62.4844833375" lon="5.97046945107">
		<tag k="name" v="Bautane" />
		<tag k="natural" v="slope" />
		<tag k="place" v="locality" />
		<tag k="ssr:stedsnr" v="460907" />
	</node>
	<node id="-7946" lat="62.5522777819" lon="6.02777222917">
		<tag k="name" v="Ramedalen" />
		<tag k="natural" v="valley" />
		<tag k="place" v="locality" />
		<tag k="ssr:stedsnr" v="641175" />
	</node>
	<node id="-7945" lat="62.501133337" lon="6.13617222536">
		<tag k="name" v="Kongshaugen" />
		<tag k="natural" v="hill" />
		<tag k="place" v="locality" />
		<tag k="ssr:stedsnr" v="641171" />
	</node>
	<node id="-7944" lat="62.5021111077" lon="6.11539445301">
		<tag k="name" v="Håleberget" />
		<tag k="natural" v="hill" />
		<tag k="place" v="locality" />
		<tag k="ssr:stedsnr" v="641163" />
	</node>
	<node id="-7943" lat="62.5121916663" lon="6.10215555605">
		<tag k="name" v="Hustruhamnbakken" />
		<tag k="natural" v="slope" />
		<tag k="place" v="locality" />
		<tag k="ssr:stedsnr" v="641161" />
	</node>
	<node id="-7429" lat="62.5209277742" lon="6.11578056099">
		<tag k="name" v="Kråkereirfjellet" />
		<tag k="natural" v="hill" />
		<tag k="place" v="locality" />
		<tag k="ssr:stedsnr" v="460234" />
	</node>
	<node id="-7940" lat="62.4788388934" lon="5.95889167297">
		<tag k="name" v="Søre Dalen" />
		<tag k="natural" v="valley" />
		<tag k="place" v="locality" />
		<tag k="ssr:stedsnr" v="641140" />
	</node>
	<node id="-7427" lat="62.4771138918" lon="5.99819722964">
		<tag k="name" v="Litlevassbruna" />
		<tag k="place" v="locality" />
		<tag k="ssr:stedsnr" v="460188" />
	</node>
	<node id="-7938" lat="62.4881805553" lon="6.06008888387">
		<tag k="name" v="Skarvehamaren" />
		<tag k="natural" v="cliff" />
		<tag k="ssr:stedsnr" v="641111" />
	</node>
	<node id="-7422" lat="62.5505805526" lon="5.94075555319">
		<tag k="name" v="Erknaskaret" />
		<tag k="natural" v="valley" />
		<tag k="place" v="locality" />
		<tag k="ssr:stedsnr" v="278243" />
	</node>
	<node id="-7421" lat="62.5143361112" lon="6.10569166329">
		<tag k="name" v="Trollkjelen" />
		<tag k="natural" v="valley" />
		<tag k="place" v="locality" />
		<tag k="ssr:stedsnr" v="278218" />
	</node>
	<node id="-7931" lat="62.4789000016" lon="6.00336389214">
		<tag k="alt_name" v="Slektinden;Sløktinden" />
		<tag k="fixme" v="consider natural=peak for the most distinct mountains in the district" />
		<tag k="name" v="Sloktinden" />
		<tag k="natural" v="hill" />
		<tag k="place" v="locality" />
		<tag k="ssr:stedsnr" v="617990" />
	</node>
	<node id="-7380" lat="62.4789611104" lon="5.96649165872">
		<tag k="name" v="Svartehamaren" />
		<tag k="natural" v="cliff" />
		<tag k="ssr:stedsnr" v="278155" />
	</node>
	<node id="-7912" lat="62.5831638932" lon="6.0946750018">
		<tag k="name" v="Kvamen" />
		<tag k="place" v="locality" />
		<tag k="ssr:stedsnr" v="581973" />
	</node>
	<node id="-7910" lat="62.5863111095" lon="6.10217221582">
		<tag k="name" v="Grønefjellet" />
		<tag k="natural" v="hill" />
		<tag k="place" v="locality" />
		<tag k="ssr:stedsnr" v="581960" />
	</node>
	<node id="-7905" lat="62.501799997" lon="6.06206945307">
		<tag k="name" v="Mjelthaugen" />
		<tag k="natural" v="hill" />
		<tag k="place" v="locality" />
		<tag k="ssr:stedsnr" v="581242" />
	</node>
	<node id="-7391" lat="62.588211115" lon="6.11044722339">
		<tag k="name" v="Budafjellet" />
		<tag k="natural" v="hill" />
		<tag k="place" v="locality" />
		<tag k="ssr:stedsnr" v="278969" />
	</node>
	<node id="-7899" lat="62.51029444" lon="6.0331499912">
		<tag k="name" v="Montuhaugen" />
		<tag k="natural" v="hill" />
		<tag k="place" v="locality" />
		<tag k="ssr:stedsnr" v="581168" />
	</node>
	<node id="-7896" lat="62.5237638857" lon="6.11279444658">
		<tag k="name" v="Stølsnausa" />
		<tag k="natural" v="hill" />
		<tag k="place" v="locality" />
		<tag k="ssr:stedsnr" v="581155" />
	</node>
	<node id="-7895" lat="62.4793777793" lon="5.97098888366">
		<tag k="name" v="Nonshornet" />
		<tag k="natural" v="hill" />
		<tag k="place" v="locality" />
		<tag k="ssr:stedsnr" v="581149" />
	</node>
	<node id="-7382" lat="62.518961111" lon="6.12000833137">
		<tag k="name" v="Middagstua" />
		<tag k="natural" v="hill" />
		<tag k="place" v="locality" />
		<tag k="ssr:stedsnr" v="278199" />
	</node>
	<node id="-7381" lat="62.4765861075" lon="5.94563888831">
		<tag k="name" v="Brimnesberga" />
		<tag k="natural" v="slope" />
		<tag k="place" v="locality" />
		<tag k="ssr:stedsnr" v="278156" />
	</node>
	<node id="-7892" lat="62.5376694437" lon="6.02323889624">
		<tag k="name" v="Torvberget" />
		<tag k="natural" v="hill" />
		<tag k="place" v="locality" />
		<tag k="ssr:stedsnr" v="581270" />
	</node>
	<node id="-7379" lat="62.5530055533" lon="6.0433611044">
		<tag k="name" v="Grinddalen" />
		<tag k="natural" v="valley" />
		<tag k="place" v="locality" />
		<tag k="ssr:stedsnr" v="156210" />
	</node>
	<node id="-7883" lat="62.5852555562" lon="6.0913833403">
		<tag k="fixme" v="consider natural=peak for the most distinct mountains in the district" />
		<tag k="name" v="Molnesfjellet" />
		<tag k="natural" v="hill" />
		<tag k="place" v="locality" />
		<tag k="ssr:stedsnr" v="557792" />
	</node>
	<node id="-7365" lat="62.5803750032" lon="6.09660000791">
		<tag k="name" v="Molnesrema" />
		<tag k="natural" v="ridge" />
		<tag k="place" v="locality" />
		<tag k="ssr:stedsnr" v="96953" />
	</node>
	<node id="-7363" lat="62.550247218" lon="6.02316666921">
		<tag k="name" v="Blokkehaugen" />
		<tag k="natural" v="hill" />
		<tag k="place" v="locality" />
		<tag k="ssr:stedsnr" v="96256" />
	</node>
	<node id="-7362" lat="62.549366663" lon="6.01825278109">
		<tag k="name" v="Leghaugen" />
		<tag k="natural" v="hill" />
		<tag k="place" v="locality" />
		<tag k="ssr:stedsnr" v="96255" />
	</node>
	<node id="-7361" lat="62.5213805517" lon="6.10399444875">
		<tag k="name" v="Kvitemannen" />
		<tag k="natural" v="hill" />
		<tag k="place" v="locality" />
		<tag k="ssr:stedsnr" v="96219" />
	</node>
	<node id="-7872" lat="62.5518555544" lon="6.03238056466">
		<tag k="name" v="Høgaksla" />
		<tag k="natural" v="hill" />
		<tag k="place" v="locality" />
		<tag k="ssr:stedsnr" v="521990" />
	</node>
	<node id="-7870" lat="62.5686305602" lon="6.12017500884">
		<tag k="name" v="Langhaugen" />
		<tag k="natural" v="hill" />
		<tag k="place" v="locality" />
		<tag k="ssr:stedsnr" v="521978" />
	</node>
	<node id="-7865" lat="62.5868000017" lon="6.0943500041">
		<tag k="name" v="Breisanden" />
		<tag k="natural" v="slope" />
		<tag k="place" v="locality" />
		<tag k="ssr:stedsnr" v="521959" />
	</node>
	<node id="-7864" lat="62.5609222235" lon="6.09979999308">
		<tag k="name" v="Tjønnarema" />
		<tag k="natural" v="ridge" />
		<tag k="place" v="locality" />
		<tag k="ssr:stedsnr" v="521952" />
	</node>
	<node id="-7861" lat="62.5673888861" lon="6.06729444617">
		<tag k="name" v="Ramnegjølet" />
		<tag k="natural" v="valley" />
		<tag k="place" v="locality" />
		<tag k="ssr:stedsnr" v="521195" />
	</node>
	<node id="-7454" lat="62.5373166661" lon="6.02026666798">
		<tag k="name" v="Storhaugen" />
		<tag k="natural" v="hill" />
		<tag k="place" v="locality" />
		<tag k="ssr:stedsnr" v="338203" />
	</node>
	<node id="-7856" lat="62.5149749984" lon="6.16731111333">
		<tag k="name" v="Styggedalen" />
		<tag k="natural" v="valley" />
		<tag k="place" v="locality" />
		<tag k="ssr:stedsnr" v="520197" />
	</node>
	<node id="-7854" lat="62.5227222251" lon="6.11545277359">
		<tag k="name" v="Høgenausa" />
		<tag k="natural" v="hill" />
		<tag k="place" v="locality" />
		<tag k="ssr:stedsnr" v="520181" />
	</node>
	<node id="-7852" lat="62.5147499965" lon="6.12314445243">
		<tag k="name" v="Rundehaugen" />
		<tag k="natural" v="hill" />
		<tag k="place" v="locality" />
		<tag k="ssr:stedsnr" v="520168" />
	</node>
	<node id="-7850" lat="62.4799027751" lon="5.96412500629">
		<tag k="name" v="Nøre Dalen" />
		<tag k="natural" v="valley" />
		<tag k="place" v="locality" />
		<tag k="ssr:stedsnr" v="520153" />
	</node>
	<node id="-7849" lat="62.4805638919" lon="6.01552777447">
		<tag k="name" v="Horndalen" />
		<tag k="natural" v="valley" />
		<tag k="place" v="locality" />
		<tag k="ssr:stedsnr" v="520129" />
	</node>
	<node id="-7848" lat="62.4697500043" lon="6.03692222285">
		<tag k="name" v="Strandkleiv" />
		<tag k="natural" v="slope" />
		<tag k="place" v="locality" />
		<tag k="ssr:stedsnr" v="520111" />
	</node>
	<node id="-7333" lat="62.5661499988" lon="6.0651194428">
		<tag k="name" v="Blindheimsfjellet" />
		<tag k="natural" v="hill" />
		<tag k="place" v="locality" />
		<tag k="ssr:stedsnr" v="11809" />
	</node>
	<node id="-7844" lat="62.560930558" lon="6.10516666702">
		<tag k="name" v="Bratterema" />
		<tag k="natural" v="slope" />
		<tag k="place" v="locality" />
		<tag k="ssr:stedsnr" v="436786" />
	</node>
	<node id="-7330" lat="62.5465777773" lon="6.02655277865">
		<tag k="name" v="Liaset" />
		<tag k="natural" v="hill" />
		<tag k="place" v="locality" />
		<tag k="ssr:stedsnr" v="217989" />
	</node>
	<node id="-7831" lat="62.555124998" lon="6.05688889878">
		<tag k="name" v="Vassrema" />
		<tag k="natural" v="ridge" />
		<tag k="place" v="locality" />
		<tag k="ssr:stedsnr" v="400000" />
	</node>
	<node id="-7824" lat="62.5242277813" lon="6.11547499767">
		<tag k="name" v="Larsnausa" />
		<tag k="natural" v="hill" />
		<tag k="place" v="locality" />
		<tag k="ssr:stedsnr" v="399228" />
	</node>
	<node id="-7823" lat="62.5066972265" lon="6.13259722591">
		<tag k="name" v="Valderhaugbakkane" />
		<tag k="natural" v="slope" />
		<tag k="place" v="locality" />
		<tag k="ssr:stedsnr" v="399223" />
	</node>
	<node id="-7820" lat="62.4686916665" lon="5.97247223192">
		<tag k="name" v="Sætreegga" />
		<tag k="natural" v="hill" />
		<tag k="place" v="locality" />
		<tag k="ssr:stedsnr" v="399171" />
	</node>
	<node id="-7819" lat="62.4790583371" lon="6.02406111344">
		<tag k="name" v="Hasleberget" />
		<tag k="natural" v="hill" />
		<tag k="place" v="locality" />
		<tag k="ssr:stedsnr" v="399166" />
	</node>
	<node id="-7818" lat="62.4797611101" lon="6.03020556179">
		<tag k="alt_name" v="Leitebakk" />
		<tag k="name" v="Leitebakken" />
		<tag k="natural" v="slope" />
		<tag k="place" v="locality" />
		<tag k="ssr:stedsnr" v="399160" />
	</node>
	<node id="-7817" lat="62.5069666657" lon="6.04273888162">
		<tag k="name" v="Svehaugen" />
		<tag k="natural" v="hill" />
		<tag k="place" v="locality" />
		<tag k="ssr:stedsnr" v="399158" />
	</node>
	<node id="-7816" lat="62.465447223" lon="5.95085278492">
		<tag k="name" v="Kjerringgjølet" />
		<tag k="natural" v="gorge" />
		<tag k="ssr:stedsnr" v="399132" />
	</node>
	<node id="-7813" lat="62.4819555569" lon="6.02654999954">
		<tag k="fixme" v="consider natural=peak for the most distinct mountains in the district" />
		<tag k="name" v="Valkvæegga" />
		<tag k="natural" v="hill" />
		<tag k="place" v="locality" />
		<tag k="ssr:stedsnr" v="375991" />
	</node>
	<node id="-7360" lat="62.4795722205" lon="6.00207222237">
		<tag k="name" v="Hundagjølet" />
		<tag k="natural" v="gorge" />
		<tag k="ssr:stedsnr" v="96159" />
	</node>
	<node id="-7792" lat="62.5513277752" lon="6.03313888346">
		<tag k="name" v="Lågaksla" />
		<tag k="place" v="locality" />
		<tag k="ssr:stedsnr" v="338989" />
	</node>
	<node id="-7790" lat="62.5450222249" lon="6.05218611176">
		<tag k="name" v="Leiterema" />
		<tag k="natural" v="ridge" />
		<tag k="place" v="locality" />
		<tag k="ssr:stedsnr" v="338938" />
	</node>
	<node id="-7785" lat="62.5495499978" lon="6.03601666558">
		<tag k="name" v="Påskehylla" />
		<tag k="place" v="locality" />
		<tag k="ssr:stedsnr" v="338187" />
	</node>
	<node id="-7441" lat="62.5371722197" lon="6.01640277535">
		<tag k="name" v="Viddene" />
		<tag k="natural" v="hill" />
		<tag k="place" v="locality" />
		<tag k="ssr:stedsnr" v="460993" />
	</node>
	<node id="-7780" lat="62.5235083321" lon="6.10215278575">
		<tag k="name" v="Sætreaksla" />
		<tag k="natural" v="ridge" />
		<tag k="place" v="locality" />
		<tag k="ssr:stedsnr" v="338157" />
	</node>
	<node id="-7781" lat="62.5533277749" lon="6.03165833331">
		<tag k="name" v="Skitnedalen" />
		<tag k="natural" v="valley" />
		<tag k="place" v="locality" />
		<tag k="ssr:stedsnr" v="338172" />
	</node>
	<node id="-7523" lat="62.5397500003" lon="6.02354722904">
		<tag k="name" v="Selikhammaren" />
		<tag k="natural" v="hill" />
		<tag k="place" v="locality" />
		<tag k="ssr:stedsnr" v="703271" />
	</node>
	<node id="-7753" lat="62.561780552" lon="6.08133055228">
		<tag k="name" v="Remane" />
		<tag k="natural" v="ridge" />
		<tag k="place" v="locality" />
		<tag k="ssr:stedsnr" v="157985" />
	</node>
	<node id="-7752" lat="62.536897222" lon="6.11894165717">
		<tag k="name" v="Remane" />
		<tag k="natural" v="ridge" />
		<tag k="place" v="locality" />
		<tag k="ssr:stedsnr" v="157961" />
	</node>
	<node id="-7750" lat="62.5407388906" lon="6.0261499972">
		<tag k="name" v="Hammaren" />
		<tag k="natural" v="hill" />
		<tag k="place" v="locality" />
		<tag k="ssr:stedsnr" v="156978" />
	</node>
	<node id="-7748" lat="62.5051888921" lon="6.11778611242">
		<tag k="name" v="Skaret" />
		<tag k="natural" v="valley" />
		<tag k="place" v="locality" />
		<tag k="ssr:stedsnr" v="156966" />
	</node>
	<node id="-7747" lat="62.5819916655" lon="6.08340833064">
		<tag k="name" v="Harhaugen" />
		<tag k="natural" v="hill" />
		<tag k="place" v="locality" />
		<tag k="ssr:stedsnr" v="156963" />
	</node>
	<node id="-7744" lat="62.4986249962" lon="6.11073055548">
		<tag k="name" v="Stølshaugen" />
		<tag k="natural" v="hill" />
		<tag k="place" v="locality" />
		<tag k="ssr:stedsnr" v="156190" />
	</node>
	<node id="-7740" lat="62.509149997" lon="6.05651944809">
		<tag k="name" v="Rishaugen" />
		<tag k="natural" v="hill" />
		<tag k="place" v="locality" />
		<tag k="ssr:stedsnr" v="156126" />
	</node>
	<node id="-7738" lat="62.4706222179" lon="5.9391472182">
		<tag k="name" v="Bjørneeidet" />
		<tag k="place" v="locality" />
		<tag k="ssr:stedsnr" v="156119" />
	</node>
	<node id="-7433" lat="62.4708194443" lon="6.01218610593">
		<tag k="name" v="Stølane" />
		<tag k="place" v="locality" />
		<tag k="ssr:stedsnr" v="460903" />
	</node>
	<node id="-7721" lat="62.4695638866" lon="5.97460277856">
		<tag k="name" v="Kleiva" />
		<tag k="natural" v="slope" />
		<tag k="place" v="locality" />
		<tag k="ssr:stedsnr" v="96877" />
	</node>
	<node id="-7720" lat="62.5500277783" lon="6.04219444867">
		<tag k="name" v="Brattefloget" />
		<tag k="natural" v="cliff" />
		<tag k="ssr:stedsnr" v="96247" />
	</node>
	<node id="-7719" lat="62.5505638852" lon="6.04283611594">
		<tag k="name" v="Gultua" />
		<tag k="natural" v="hill" />
		<tag k="place" v="locality" />
		<tag k="ssr:stedsnr" v="96246" />
	</node>
	<node id="-7714" lat="62.4721861102" lon="5.95298055966">
		<tag k="name" v="Rosethaugane" />
		<tag k="natural" v="hill" />
		<tag k="place" v="locality" />
		<tag k="ssr:stedsnr" v="96142" />
	</node>
	<node id="-7713" lat="62.4662083304" lon="5.94939722288">
		<tag k="name" v="Kjerringtindane" />
		<tag k="place" v="locality" />
		<tag k="ssr:stedsnr" v="96140" />
	</node>
	<node id="-7894" lat="62.4631305586" lon="5.96260555752">
		<tag k="name" v="Kvia" />
		<tag k="natural" v="slope" />
		<tag k="place" v="locality" />
		<tag k="ssr:stedsnr" v="581146" />
	</node>
	<node id="-7711" lat="62.4656222265" lon="5.95936110507">
		<tag k="name" v="Kallefonna" />
		<tag k="natural" v="valley" />
		<tag k="place" v="locality" />
		<tag k="ssr:stedsnr" v="96135" />
	</node>
	<node id="-7428" lat="62.4654583315" lon="5.96653332885">
		<tag k="name" v="Trøsvikgjølet" />
		<tag k="natural" v="gorge" />
		<tag k="ssr:stedsnr" v="460198" />
	</node>
	<node id="-7383" lat="62.5043666659" lon="6.05948889045">
		<tag k="name" v="Spelarhaugen" />
		<tag k="natural" v="hill" />
		<tag k="place" v="locality" />
		<tag k="ssr:stedsnr" v="278266" />
	</node>
	<node id="-7698" lat="62.5048333372" lon="6.11225554875">
		<tag k="name" v="Vomma" />
		<tag k="natural" v="valley" />
		<tag k="place" v="locality" />
		<tag k="ssr:stedsnr" v="35973" />
	</node>
	<node id="-7697" lat="62.5638694404" lon="6.07725000308">
		<tag k="name" v="Reset" />
		<tag k="natural" v="ridge" />
		<tag k="place" v="locality" />
		<tag k="ssr:stedsnr" v="35971" />
	</node>
	<node id="-7694" lat="62.5673083347" lon="6.07585000456">
		<tag k="name" v="Toshellen" />
		<tag k="place" v="locality" />
		<tag k="ssr:stedsnr" v="35957" />
	</node>
	<node id="-7693" lat="62.5646222264" lon="6.09280556427">
		<tag k="name" v="Skjervane" />
		<tag k="natural" v="hill" />
		<tag k="place" v="locality" />
		<tag k="ssr:stedsnr" v="35954" />
	</node>
	<node id="-7686" lat="62.5673527783" lon="6.06146110646">
		<tag k="name" v="halvegjølet" />
		<tag k="natural" v="valley" />
		<tag k="place" v="locality" />
		<tag k="ssr:stedsnr" v="35244" />
	</node>
	<node id="-7685" lat="62.566427774" lon="6.05183334168">
		<tag k="name" v="Sandbakkane" />
		<tag k="natural" v="slope" />
		<tag k="place" v="locality" />
		<tag k="ssr:stedsnr" v="35242" />
	</node>
	<node id="-7684" lat="62.5661416687" lon="6.06468889194">
		<tag k="name" v="Grauthaugen" />
		<tag k="natural" v="hill" />
		<tag k="place" v="locality" />
		<tag k="ssr:stedsnr" v="35239" />
	</node>
	<node id="-7683" lat="62.5578611131" lon="6.06182777486">
		<tag k="name" v="Gylgjeberget" />
		<tag k="natural" v="hill" />
		<tag k="place" v="locality" />
		<tag k="ssr:stedsnr" v="35237" />
	</node>
	<node id="-7682" lat="62.5025861133" lon="6.11937221392">
		<tag k="name" v="Fløya" />
		<tag k="natural" v="hill" />
		<tag k="place" v="locality" />
		<tag k="ssr:stedsnr" v="35233" />
	</node>
	<node id="-7681" lat="62.4987833364" lon="6.11402777787">
		<tag k="name" v="Trollhaugen" />
		<tag k="natural" v="hill" />
		<tag k="place" v="locality" />
		<tag k="ssr:stedsnr" v="35231" />
	</node>
</osm>
