<?xml version="1.0" encoding="UTF-8"?>
<osm version="0.6" generator="osmapis">
	<node lat="62.5049583346676" lon="6.109383342835987" id="-5785">
		<tag k="name" v="Demma" />
		<tag k="natural" v="water" />
		<tag k="ssr:stedsnr" v="35225" />
	</node>
	<node lat="62.50707500259871" lon="6.054752782654414" id="-5828">
		<tag k="name" v="Molddamsøyla" />
		<tag k="natural" v="water" />
		<tag k="ssr:stedsnr" v="156205" />
	</node>
	<node lat="62.47392222399628" lon="5.970211117772044" id="-5930">
		<tag k="name" v="Kvia" />
		<tag k="natural" v="cape" />
		<tag k="ssr:stedsnr" v="460906" />
	</node>
	<node lat="62.474844445599174" lon="6.041977784579086" id="-5983">
		<tag k="name" v="Viåna" />
		<tag k="ssr:stedsnr" v="581892" />
		<tag k="waterway" v="stream" />
	</node>
	<node lat="62.478225001675085" lon="5.996230552369171" id="-6029">
		<tag k="name" v="Litlevatnet" />
		<tag k="natural" v="water" />
		<tag k="ssr:stedsnr" v="678983" />
	</node>
	<node lat="62.54439166565412" lon="6.042061116351209" id="-6104">
		<tag k="name" v="Vadet" />
		<tag k="natural" v="water" />
		<tag k="ssr:stedsnr" v="945230" />
	</node>
	<node lat="62.552838892402896" lon="6.120916675254249" id="-6133">
		<tag k="name" v="Kvennhusveita" />
		<tag k="ssr:stedsnr" v="35946" />
		<tag k="waterway" v="stream" />
	</node>
	<node lat="62.5520722191681" lon="6.1173166600592825" id="-6172">
		<tag k="name" v="Rørvikvatnet" />
		<tag k="natural" v="water" />
		<tag k="ssr:stedsnr" v="132780" />
	</node>
	<node lat="62.47570833232164" lon="5.974549996124846" id="-6176">
		<tag k="name" v="Alnesvatnet" />
		<tag k="natural" v="water" />
		<tag k="ssr:stedsnr" v="132991" />
		<tag k="water" v="lake" />
	</node>
	<node lat="62.479813890524525" lon="5.98233054789616" id="-6186">
		<tag k="name" v="Demma" />
		<tag k="place" v="locality" />
		<tag k="ssr:stedsnr" v="156881" />
	</node>
	<node lat="62.556649995687" lon="6.056033334038882" id="-6224">
		<tag k="name" v="Svansvatnet" />
		<tag k="natural" v="water" />
		<tag k="ssr:stedsnr" v="217950" />
	</node>
	<node lat="62.55488055765585" lon="6.079924999027538" id="-6284">
		<tag k="name" v="Makkestiveita" />
		<tag k="ssr:stedsnr" v="399939" />
		<tag k="waterway" v="drain" />
	</node>
	<node lat="62.51366944061503" lon="6.1106416676275686" id="-6372">
		<tag k="name" v="Signaltjønna" />
		<tag k="natural" v="water" />
		<tag k="ssr:stedsnr" v="641159" />
	</node>
	<node lat="62.505802777822645" lon="6.052986103302766" id="-6420">
		<tag k="name" v="Langeleia" />
		<tag k="natural" v="water" />
		<tag k="ssr:stedsnr" v="763261" />
	</node>
	<node lat="62.468691669227276" lon="5.950575005298271" id="-6459">
		<tag k="name" v="Rantevatna" />
		<tag k="natural" v="water" />
		<tag k="ssr:stedsnr" v="860997" />
	</node>
	<node lat="62.55562222292471" lon="6.085252781611545" id="-6475">
		<tag k="name" v="Randalselva" />
		<tag k="ssr:stedsnr" v="885932" />
		<tag k="waterway" v="stream" />
	</node>
	<node lat="62.48418013265087" lon="5.98263704680258" id="-6500">
		<tag k="name" v="Kvennhuselva" />
		<tag k="ssr:stedsnr" v="973239" />
		<tag k="waterway" v="stream" />
	</node>
</osm>
