<?xml version="1.0" encoding="UTF-8"?>
<osm generator="osmapis" version="0.6">
	<node id="-66388" lat="62.4851184067" lon="5.98504485576">
		<tag k="fixme" v="consider seamark:type=rock or natural=shoal" />
		<tag k="name" v="Presteskjeret" />
		<tag k="place" v="islet" />
		<tag k="ssr:stedsnr" v="973373" />
	</node>
	<node id="-66387" lat="62.4897546919" lon="5.96795010669">
		<tag k="name" v="Kyrkjene" />
		<tag k="natural" v="hill" />
		<tag k="place" v="locality" />
		<tag k="ssr:stedsnr" v="973372" />
	</node>
	<node id="-66386" lat="62.4899212709" lon="5.96248009977">
		<tag k="name" v="Skifta" />
		<tag k="place" v="locality" />
		<tag k="ssr:stedsnr" v="973370" />
	</node>
	<node id="-66385" lat="62.4840077447" lon="5.96367826662">
		<tag k="name" v="Slumpen" />
		<tag k="natural" v="cape" />
		<tag k="ssr:stedsnr" v="973369" />
	</node>
	<node id="-66384" lat="62.4855401043" lon="5.97638157875">
		<tag k="name" v="Kyrkjestøa" />
		<tag k="natural" v="beach" />
		<tag k="place" v="locality" />
		<tag k="ssr:stedsnr" v="973368" />
	</node>
	<node id="-66383" lat="62.4846000999" lon="5.97784660121">
		<tag k="highway" v="path" />
		<tag k="name" v="Geilane" />
		<tag k="ssr:stedsnr" v="973350" />
	</node>
	<node id="-66382" lat="62.4842120425" lon="5.96497422157">
		<tag k="name" v="Rova" />
		<tag k="natural" v="cape" />
		<tag k="ssr:stedsnr" v="973349" />
	</node>
	<node id="-66381" lat="62.4837436403" lon="5.96829119589">
		<tag k="name" v="Stortjønnteigane" />
		<tag k="place" v="locality" />
		<tag k="ssr:stedsnr" v="973348" />
	</node>
	<node id="-66380" lat="62.4844157159" lon="5.96851403598">
		<tag k="name" v="Tjukkesundet" />
		<tag k="place" v="locality" />
		<tag k="ssr:stedsnr" v="973347" />
	</node>
	<node id="-66379" lat="62.4858852596" lon="5.97163307778">
		<tag k="name" v="Bautarhaugen" />
		<tag k="natural" v="hill" />
		<tag k="place" v="locality" />
		<tag k="ssr:stedsnr" v="973346" />
	</node>
	<node id="-66377" lat="62.4867975073" lon="5.96783556054">
		<tag k="name" v="Kjellarbakken" />
		<tag k="natural" v="slope" />
		<tag k="place" v="locality" />
		<tag k="ssr:stedsnr" v="973255" />
	</node>
	<node id="-66376" lat="62.4870703594" lon="5.96779163714">
		<tag k="name" v="Sanddalen" />
		<tag k="natural" v="valley" />
		<tag k="place" v="locality" />
		<tag k="ssr:stedsnr" v="973254" />
	</node>
	<node id="-66375" lat="62.4883725896" lon="5.96575395538">
		<tag k="name" v="Sandvikmarkteigane" />
		<tag k="place" v="locality" />
		<tag k="ssr:stedsnr" v="973253" />
	</node>
	<node id="-66374" lat="62.4890876585" lon="5.96396837219">
		<tag k="highway" v="path" />
		<tag k="name" v="Kalvegeilane" />
		<tag k="ssr:stedsnr" v="973252" />
	</node>
	<node id="-66373" lat="62.4905024911" lon="5.96439778197">
		<tag k="name" v="Gamleteigane" />
		<tag k="place" v="locality" />
		<tag k="ssr:stedsnr" v="973251" />
	</node>
	<node id="-66372" lat="62.4898980163" lon="5.96584998213">
		<tag k="name" v="Ørnekulen" />
		<tag k="natural" v="hill" />
		<tag k="place" v="locality" />
		<tag k="ssr:stedsnr" v="973250" />
	</node>
	<node id="-66371" lat="62.4908823872" lon="5.96804743248">
		<tag k="name" v="Langeskifta" />
		<tag k="place" v="locality" />
		<tag k="ssr:stedsnr" v="973249" />
	</node>
	<node id="-66370" lat="62.4895000692" lon="5.96707948641">
		<tag k="name" v="Nesbakken" />
		<tag k="natural" v="slope" />
		<tag k="place" v="locality" />
		<tag k="ssr:stedsnr" v="973245" />
	</node>
	<node id="-66369" lat="62.4889085285" lon="5.96914602047">
		<tag k="name" v="Steinteigane" />
		<tag k="natural" v="slope" />
		<tag k="place" v="locality" />
		<tag k="ssr:stedsnr" v="973244" />
	</node>
	<node id="-66368" lat="62.4875347068" lon="5.97060394355">
		<tag k="name" v="Ekrene" />
		<tag k="place" v="locality" />
		<tag k="ssr:stedsnr" v="973243" />
	</node>
	<node id="-66366" lat="62.4865969313" lon="5.97301108736">
		<tag k="name" v="Moldbrekkene" />
		<tag k="natural" v="slope" />
		<tag k="place" v="locality" />
		<tag k="ssr:stedsnr" v="973241" />
	</node>
	<node id="-66365" lat="62.482166213" lon="5.97495033237">
		<tag k="highway" v="path" />
		<tag k="name" v="Alnesfjellvegen" />
		<tag k="ssr:stedsnr" v="973240" />
	</node>
	<node id="-66364" lat="62.4841801327" lon="5.9826370468">
		<tag k="name" v="Kvennhuselva" />
		<tag k="ssr:stedsnr" v="973239" />
		<tag k="waterway" v="stream" />
	</node>
	<node id="-66363" lat="62.567311107" lon="6.02908333629">
		<tag k="name" v="Andersfluda" />
		<tag k="natural" v="shoal" />
		<tag k="place" v="locality" />
		<tag k="ssr:stedsnr" v="962452" />
	</node>
	<node id="-66362" lat="62.490644446" lon="5.94755834147">
		<tag k="name" v="Raudsteinskallen" />
		<tag k="natural" v="shoal" />
		<tag k="place" v="locality" />
		<tag k="ssr:stedsnr" v="962290" />
	</node>
	<node id="-66361" lat="62.5402688461" lon="6.03223790286">
		<tag k="fixme" v="consider place=hamlet" />
		<tag k="name" v="Synnes" />
		<tag k="place" v="farm" />
		<tag k="ssr:stedsnr" v="957763" />
	</node>
	<node id="-66360" lat="62.5999999994" lon="5.58499999712">
		<tag k="name" v="Djupseta" />
		<tag k="place" v="locality" />
		<tag k="ssr:stedsnr" v="952609" />
	</node>
	<node id="-66358" lat="62.5714333294" lon="5.74849722555">
		<tag k="name" v="Klovskallen" />
		<tag k="natural" v="shoal" />
		<tag k="place" v="locality" />
		<tag k="ssr:stedsnr" v="874628" />
	</node>
	<node id="-66357" lat="62.5865305533" lon="5.89892500664">
		<tag k="name" v="Blindheimsbreidfluda" />
		<tag k="natural" v="shoal" />
		<tag k="place" v="locality" />
		<tag k="ssr:stedsnr" v="874624" />
	</node>
	<node id="-66356" lat="62.5352694483" lon="5.82116666745">
		<tag k="alt_name" v="Kvalsboen" />
		<tag k="name" v="Kvalsbåen" />
		<tag k="place" v="locality" />
		<tag k="seamark:type" v="rock" />
		<tag k="ssr:stedsnr" v="874621" />
	</node>
	<node id="-66354" lat="62.4908972239" lon="5.96452221538">
		<tag k="name" v="Alnestangen" />
		<tag k="natural" v="cape" />
		<tag k="ssr:stedsnr" v="861986" />
	</node>
	<node id="-66353" lat="62.5576083332" lon="6.12925554618">
		<tag k="name" v="Røysa" />
		<tag k="place" v="farm" />
		<tag k="ssr:stedsnr" v="861781" />
	</node>
	<node id="-66352" lat="62.5532027802" lon="5.94310832674">
		<tag k="name" v="Stampen" />
		<tag k="natural" v="bay" />
		<tag k="ssr:stedsnr" v="861772" />
	</node>
	<node id="-66350" lat="62.5227166632" lon="6.11198888177">
		<tag k="name" v="Sætredalen" />
		<tag k="natural" v="valley" />
		<tag k="place" v="locality" />
		<tag k="ssr:stedsnr" v="861753" />
	</node>
	<node id="-66349" lat="62.6261361085" lon="5.85100555839">
		<tag k="name" v="Steinsgrynnet" />
		<tag k="natural" v="shoal" />
		<tag k="place" v="locality" />
		<tag k="ssr:stedsnr" v="861688" />
	</node>
	<node id="-66348" lat="62.4686916692" lon="5.9505750053">
		<tag k="name" v="Rantevatna" />
		<tag k="natural" v="water" />
		<tag k="ssr:stedsnr" v="860997" />
	</node>
	<node id="-66347" lat="62.4761500016" lon="6.03689165828">
		<tag k="name" v="Teppemyra" />
		<tag k="place" v="quarter" />
		<tag k="ssr:stedsnr" v="848760" />
	</node>
	<node id="-66346" lat="62.4734916662" lon="5.92366944815">
		<tag k="name" v="Grynnenova" />
		<tag k="natural" v="shoal" />
		<tag k="place" v="locality" />
		<tag k="ssr:stedsnr" v="841920" />
	</node>
	<node id="-66345" lat="62.4654527793" lon="6.01463055789">
		<tag k="name" v="Revet" />
		<tag k="natural" v="shoal" />
		<tag k="place" v="locality" />
		<tag k="ssr:stedsnr" v="841575" />
	</node>
	<node id="-66344" lat="62.5319861082" lon="6.10449999194">
		<tag k="name" v="Toreknollen" />
		<tag k="natural" v="shoal" />
		<tag k="place" v="locality" />
		<tag k="ssr:stedsnr" v="841437" />
	</node>
	<node id="-66343" lat="62.5722750006" lon="6.03943611982">
		<tag k="name" v="Skottfluda" />
		<tag k="natural" v="shoal" />
		<tag k="place" v="locality" />
		<tag k="ssr:stedsnr" v="841420" />
	</node>
	<node id="-66342" lat="62.5737055547" lon="6.08106388126">
		<tag k="name" v="Kålgarden" />
		<tag k="natural" v="shoal" />
		<tag k="place" v="locality" />
		<tag k="ssr:stedsnr" v="841418" />
	</node>
	<node id="-66341" lat="62.4768055581" lon="6.02512221976">
		<tag k="name" v="Gøymyrane" />
		<tag k="natural" v="wetland" />
		<tag k="ssr:stedsnr" v="829216" />
	</node>
	<node id="-66340" lat="62.5495694467" lon="5.9346777752">
		<tag k="name" v="Trolla" />
		<tag k="natural" v="cape" />
		<tag k="ssr:stedsnr" v="824899" />
	</node>
	<node id="-66339" lat="62.5862527764" lon="6.08599999906">
		<tag k="name" v="Halsen" />
		<tag k="natural" v="ridge" />
		<tag k="place" v="locality" />
		<tag k="ssr:stedsnr" v="824992" />
	</node>
	<node id="-66338" lat="62.464783331" lon="5.96275555442">
		<tag k="name" v="Kvifloga" />
		<tag k="natural" v="slope" />
		<tag k="place" v="locality" />
		<tag k="ssr:stedsnr" v="824988" />
	</node>
	<node id="-66337" lat="62.5195777778" lon="6.13843610858">
		<tag k="name" v="Klubben" />
		<tag k="natural" v="cape" />
		<tag k="ssr:stedsnr" v="824975" />
	</node>
	<node id="-66336" lat="62.5062444407" lon="6.09673055652">
		<tag k="name" v="Klubben" />
		<tag k="natural" v="cape" />
		<tag k="ssr:stedsnr" v="824969" />
	</node>
	<node id="-66335" lat="62.5375361149" lon="6.13267777572">
		<tag k="name" v="Sildegarnneset" />
		<tag k="natural" v="cape" />
		<tag k="ssr:stedsnr" v="824964" />
	</node>
	<node id="-66334" lat="62.589452774" lon="6.1020999951">
		<tag k="name" v="Smørvika" />
		<tag k="natural" v="bay" />
		<tag k="ssr:stedsnr" v="824960" />
	</node>
	<node id="-66333" lat="62.5873416705" lon="6.10972499609">
		<tag k="name" v="Ranskarrema" />
		<tag k="natural" v="ridge" />
		<tag k="place" v="locality" />
		<tag k="ssr:stedsnr" v="824956" />
	</node>
	<node id="-66332" lat="62.5576527805" lon="6.08177499512">
		<tag k="name" v="Randalen" />
		<tag k="natural" v="valley" />
		<tag k="place" v="locality" />
		<tag k="ssr:stedsnr" v="824953" />
	</node>
	<node id="-66331" lat="62.5002749998" lon="6.05977778404">
		<tag k="name" v="Reinebakken" />
		<tag k="natural" v="hill" />
		<tag k="place" v="locality" />
		<tag k="ssr:stedsnr" v="824251" />
	</node>
	<node id="-66330" lat="62.5673527751" lon="6.06420277326">
		<tag k="name" v="Brattegjølet" />
		<tag k="natural" v="valley" />
		<tag k="place" v="locality" />
		<tag k="ssr:stedsnr" v="824248" />
	</node>
	<node id="-66329" lat="62.5673694475" lon="6.07052221239">
		<tag k="name" v="Lynggjølet" />
		<tag k="natural" v="valley" />
		<tag k="place" v="locality" />
		<tag k="ssr:stedsnr" v="824246" />
	</node>
	<node id="-66328" lat="62.500469445" lon="6.11688333635">
		<tag k="name" v="Manuelaksla" />
		<tag k="natural" v="ridge" />
		<tag k="place" v="locality" />
		<tag k="ssr:stedsnr" v="824244" />
	</node>
	<node id="-66327" lat="62.5114305555" lon="6.15390277915">
		<tag k="name" v="Skjerva" />
		<tag k="natural" v="hill" />
		<tag k="place" v="locality" />
		<tag k="ssr:stedsnr" v="824226" />
	</node>
	<node id="-66326" lat="62.5515666649" lon="5.94042222555">
		<tag k="name" v="Nøre Erknafjellet" />
		<tag k="natural" v="hill" />
		<tag k="place" v="locality" />
		<tag k="ssr:stedsnr" v="824200" />
	</node>
	<node id="-66325" lat="62.5445888895" lon="6.00669443837">
		<tag k="name" v="Holmbarden" />
		<tag k="natural" v="hill" />
		<tag k="place" v="locality" />
		<tag k="ssr:stedsnr" v="824287" />
	</node>
	<node id="-66324" lat="62.5208361149" lon="6.13754167354">
		<tag k="name" v="Søre Oksneset" />
		<tag k="place" v="farm" />
		<tag k="ssr:stedsnr" v="823578" />
	</node>
	<node id="-66323" lat="62.5075250006" lon="6.10312499376">
		<tag k="layer" v="-1" />
		<tag k="name" v="Vestre Ytterlandsundergangen" />
		<tag k="ssr:stedsnr" v="816339" />
		<tag k="tunnel" v="yes" />
	</node>
	<node id="-66322" lat="62.484769441" lon="6.10043889202">
		<tag k="bay" v="fjord" />
		<tag k="name" v="Valderhaugfjorden" />
		<tag k="natural" v="bay" />
		<tag k="ssr:stedsnr" v="800985" />
	</node>
	<node id="-66321" lat="62.4888944483" lon="6.09324167407">
		<tag k="name" v="Snøggefluda" />
		<tag k="natural" v="shoal" />
		<tag k="place" v="locality" />
		<tag k="ssr:stedsnr" v="800983" />
	</node>
	<node id="-66320" lat="62.4989750034" lon="6.07405833968">
		<tag k="name" v="Staursundet" />
		<tag k="natural" v="strait" />
		<tag k="ssr:stedsnr" v="800975" />
	</node>
	<node id="-66319" lat="62.5232194459" lon="6.14091944665">
		<tag k="name" v="Oksneset" />
		<tag k="natural" v="cape" />
		<tag k="ssr:stedsnr" v="800743" />
	</node>
	<node id="-66318" lat="62.5110944409" lon="6.07535555332">
		<tag k="alt_name" v="Staursundet" />
		<tag k="name" v="Staurnessundet" />
		<tag k="natural" v="strait" />
		<tag k="ssr:stedsnr" v="800731" />
	</node>
	<node id="-66317" lat="62.5093444484" lon="6.10004999679">
		<tag k="name" v="Ytterlandsvika" />
		<tag k="natural" v="bay" />
		<tag k="ssr:stedsnr" v="800729" />
	</node>
	<node id="-66316" lat="62.47370833" lon="5.98468889584">
		<tag k="fixme" v="consider natural=peak for the most distinct mountains in the district" />
		<tag k="name" v="Storhornet" />
		<tag k="natural" v="hill" />
		<tag k="place" v="locality" />
		<tag k="ssr:stedsnr" v="799998" />
	</node>
	<node id="-66315" lat="62.6096861123" lon="6.05892778098">
		<tag k="name" v="Rossholmbåen" />
		<tag k="natural" v="shoal" />
		<tag k="place" v="locality" />
		<tag k="ssr:stedsnr" v="780863" />
	</node>
	<node id="-66314" lat="62.5711055545" lon="6.04621110566">
		<tag k="name" v="Geilfluda" />
		<tag k="natural" v="shoal" />
		<tag k="place" v="locality" />
		<tag k="ssr:stedsnr" v="780375" />
	</node>
	<node id="-66313" lat="62.570977774" lon="6.06694167025">
		<tag k="name" v="Hageneset" />
		<tag k="natural" v="cape" />
		<tag k="ssr:stedsnr" v="780371" />
	</node>
	<node id="-66312" lat="62.5856555541" lon="6.10878611714">
		<tag k="name" v="Buskå" />
		<tag k="natural" v="ridge" />
		<tag k="place" v="locality" />
		<tag k="ssr:stedsnr" v="763997" />
	</node>
	<node id="-66311" lat="62.5144250018" lon="6.11196110206">
		<tag k="name" v="Signalen" />
		<tag k="natural" v="hill" />
		<tag k="place" v="locality" />
		<tag k="ssr:stedsnr" v="763966" />
	</node>
	<node id="-66310" lat="62.5117222212" lon="6.11702500081">
		<tag k="name" v="Grødalen" />
		<tag k="natural" v="valley" />
		<tag k="place" v="locality" />
		<tag k="ssr:stedsnr" v="763963" />
	</node>
	<node id="-66309" lat="62.5879777741" lon="6.08374443847">
		<tag k="name" v="Helvete" />
		<tag k="natural" v="hill" />
		<tag k="place" v="locality" />
		<tag k="ssr:stedsnr" v="763959" />
	</node>
	<node id="-66308" lat="62.5825444451" lon="6.09741943985">
		<tag k="name" v="Storebakken" />
		<tag k="natural" v="slope" />
		<tag k="place" v="locality" />
		<tag k="ssr:stedsnr" v="763951" />
	</node>
	<node id="-66307" lat="62.545108333" lon="6.11100834021">
		<tag k="name" v="Kyrkjemyrane" />
		<tag k="natural" v="wetland" />
		<tag k="ssr:stedsnr" v="763941" />
	</node>
	<node id="-66306" lat="62.543461111" lon="6.10717778588">
		<tag k="name" v="Sørestranda" />
		<tag k="natural" v="beach" />
		<tag k="place" v="locality" />
		<tag k="ssr:stedsnr" v="763939" />
	</node>
	<node id="-66305" lat="62.5499611112" lon="5.93982500307">
		<tag k="name" v="Snadden" />
		<tag k="natural" v="hill" />
		<tag k="place" v="locality" />
		<tag k="ssr:stedsnr" v="763887" />
	</node>
	<node id="-66304" lat="62.5594972181" lon="6.01646943673">
		<tag k="fixme" v="consider seamark:type=rock or natural=shoal" />
		<tag k="name" v="Ævra" />
		<tag k="place" v="islet" />
		<tag k="ssr:stedsnr" v="763886" />
	</node>
	<node id="-66303" lat="62.5352111072" lon="6.02209722109">
		<tag k="name" v="Siglekroken" />
		<tag k="natural" v="bay" />
		<tag k="ssr:stedsnr" v="763270" />
	</node>
	<node id="-66302" lat="62.5422083374" lon="6.02076666397">
		<tag k="name" v="Seglmerket" />
		<tag k="place" v="islet" />
		<tag k="ssr:stedsnr" v="763269" />
	</node>
	<node id="-66301" lat="62.5058027778" lon="6.0529861033">
		<tag k="name" v="Langeleia" />
		<tag k="natural" v="water" />
		<tag k="ssr:stedsnr" v="763261" />
	</node>
	<node id="-66300" lat="62.5139138917" lon="6.17035555954">
		<tag k="name" v="Kjempetrehaugen" />
		<tag k="natural" v="hill" />
		<tag k="place" v="locality" />
		<tag k="ssr:stedsnr" v="763235" />
	</node>
	<node id="-66299" lat="62.5150999959" lon="6.10404445015">
		<tag k="name" v="Saudegeila" />
		<tag k="natural" v="valley" />
		<tag k="place" v="locality" />
		<tag k="ssr:stedsnr" v="763220" />
	</node>
	<node id="-66298" lat="62.5197916677" lon="6.12812777753">
		<tag k="name" v="Øvre Blommen" />
		<tag k="place" v="locality" />
		<tag k="ssr:stedsnr" v="763187" />
	</node>
	<node id="-66297" lat="62.4671055576" lon="6.01312222604">
		<tag k="name" v="Geileneset" />
		<tag k="natural" v="cape" />
		<tag k="ssr:stedsnr" v="763165" />
	</node>
	<node id="-66295" lat="62.5119250045" lon="6.12263333951">
		<tag k="name" v="Øvre Nordstranda" />
		<tag k="place" v="locality" />
		<tag k="ssr:stedsnr" v="763149" />
	</node>
	<node id="-66294" lat="62.5156555542" lon="6.1789333401">
		<tag k="name" v="Rugholmen" />
		<tag k="place" v="islet" />
		<tag k="ssr:stedsnr" v="763143" />
	</node>
	<node id="-66293" lat="62.4825888855" lon="6.00743888816">
		<tag k="name" v="Hammaren" />
		<tag k="natural" v="cape" />
		<tag k="ssr:stedsnr" v="763139" />
	</node>
	<node id="-66292" lat="62.4974638345" lon="6.1246534743">
		<tag k="fixme" v="consider place=hamlet" />
		<tag k="name" v="Valderhaugstranda" />
		<tag k="place" v="farm" />
		<tag k="ssr:stedsnr" v="762568" />
	</node>
	<node id="-66291" lat="62.54306111" lon="6.11728332447">
		<tag k="name" v="Gjøsundmyrane" />
		<tag k="natural" v="wetland" />
		<tag k="ssr:stedsnr" v="756590" />
	</node>
	<node id="-66290" lat="62.5138444404" lon="6.13166111594">
		<tag k="alt_name" v="Nordstrand" />
		<tag k="name" v="Nordstranda" />
		<tag k="place" v="village" />
		<tag k="ssr:stedsnr" v="753878" />
	</node>
	<node id="-66289" lat="62.6560138935" lon="6.00683334015">
		<tag k="name" v="Nørdre Djupfallet" />
		<tag k="natural" v="shoal" />
		<tag k="place" v="locality" />
		<tag k="ssr:stedsnr" v="753590" />
	</node>
	<node id="-66288" lat="62.5868583302" lon="5.99630833169">
		<tag k="name" v="Martinskallen" />
		<tag k="place" v="locality" />
		<tag k="seamark:type" v="rock" />
		<tag k="ssr:stedsnr" v="753578" />
	</node>
	<node id="-66287" lat="62.4789583362" lon="5.94521666845">
		<tag k="name" v="Lestabukta" />
		<tag k="natural" v="bay" />
		<tag k="ssr:stedsnr" v="739991" />
	</node>
	<node id="-66286" lat="62.4940055571" lon="6.08938334168">
		<tag k="name" v="Skjongfluda" />
		<tag k="natural" v="shoal" />
		<tag k="place" v="locality" />
		<tag k="ssr:stedsnr" v="739985" />
	</node>
	<node id="-66285" lat="62.4853861117" lon="5.97551111073">
		<tag k="fixme" v="consider place=suburb, village or hamlet" />
		<tag k="name" v="Alnes" />
		<tag k="place" v="quarter" />
		<tag k="ssr:stedsnr" v="739980" />
	</node>
	<node id="-66284" lat="62.4853967803" lon="5.99529518423">
		<tag k="name" v="Vindsneset" />
		<tag k="natural" v="cape" />
		<tag k="ssr:stedsnr" v="739976" />
	</node>
	<node id="-66283" lat="62.5576361086" lon="6.03248055253">
		<tag k="name" v="Røssvikvågen" />
		<tag k="natural" v="bay" />
		<tag k="ssr:stedsnr" v="739796" />
	</node>
	<node id="-66282" lat="62.5512249993" lon="5.94459722126">
		<tag k="name" v="Erkna" />
		<tag k="place" v="island" />
		<tag k="ssr:stedsnr" v="739785" />
	</node>
	<node id="-66281" lat="62.4722416664" lon="5.95320277241">
		<tag k="alt_name" v="Leisten" />
		<tag k="fixme" v="consider natural=peak for the most distinct mountains in the district" />
		<tag k="name" v="Lesten" />
		<tag k="natural" v="hill" />
		<tag k="place" v="locality" />
		<tag k="ssr:stedsnr" v="739000" />
	</node>
	<node id="-66280" lat="62.4727771423" lon="6.0106344081">
		<tag k="fixme" v="multiple name tags, choose one and add the other to alt_name; consider place=hamlet" />
		<tag k="name" v="Godøy;Godøygarden" />
		<tag k="place" v="farm" />
		<tag k="ssr:stedsnr" v="738955" />
	</node>
	<node id="-66279" lat="62.5230181887" lon="6.12099622488">
		<tag k="fixme" v="multiple name tags, choose one and add the other to alt_name; consider place=hamlet" />
		<tag k="name" v="Sætra;Gjøsundsætra" />
		<tag k="place" v="farm" />
		<tag k="ssr:stedsnr" v="647809" />
	</node>
	<node id="-66278" lat="62.5774472249" lon="6.10052499254">
		<tag k="name" v="Aletøyra" />
		<tag k="place" v="locality" />
		<tag k="ssr:stedsnr" v="642999" />
	</node>
	<node id="-66277" lat="62.5859750008" lon="6.08767500078">
		<tag k="name" v="Storetua" />
		<tag k="natural" v="hill" />
		<tag k="place" v="locality" />
		<tag k="ssr:stedsnr" v="642997" />
	</node>
	<node id="-66276" lat="62.5740305543" lon="6.10191945139">
		<tag k="name" v="Røyra" />
		<tag k="natural" v="ridge" />
		<tag k="place" v="locality" />
		<tag k="ssr:stedsnr" v="642996" />
	</node>
	<node id="-66275" lat="62.5882388873" lon="6.08119721384">
		<tag k="name" v="Bårevika" />
		<tag k="natural" v="bay" />
		<tag k="ssr:stedsnr" v="642992" />
	</node>
	<node id="-66274" lat="62.5019305592" lon="6.13891110926">
		<tag k="name" v="Laberget" />
		<tag k="natural" v="cape" />
		<tag k="ssr:stedsnr" v="642979" />
	</node>
	<node id="-66273" lat="62.5237805531" lon="6.13155555422">
		<tag k="name" v="Blomvika" />
		<tag k="natural" v="bay" />
		<tag k="ssr:stedsnr" v="642971" />
	</node>
	<node id="-66272" lat="62.5405611087" lon="6.04206388777">
		<tag k="name" v="Klongre" />
		<tag k="place" v="locality" />
		<tag k="ssr:stedsnr" v="642967" />
	</node>
	<node id="-66271" lat="62.544652774" lon="6.12795277241">
		<tag k="name" v="Merraneset" />
		<tag k="natural" v="cape" />
		<tag k="ssr:stedsnr" v="642955" />
	</node>
	<node id="-66270" lat="62.5781944477" lon="6.09299722163">
		<tag k="name" v="Talganeset" />
		<tag k="natural" v="cape" />
		<tag k="ssr:stedsnr" v="642952" />
	</node>
	<node id="-66269" lat="62.5694861093" lon="6.08847499054">
		<tag k="name" v="Rørviknausta" />
		<tag k="place" v="locality" />
		<tag k="ssr:stedsnr" v="642948" />
	</node>
	<node id="-66268" lat="62.5635972242" lon="6.09992222652">
		<tag k="name" v="Vardhaugen" />
		<tag k="natural" v="hill" />
		<tag k="place" v="locality" />
		<tag k="ssr:stedsnr" v="642936" />
	</node>
	<node id="-66267" lat="62.55508889" lon="6.00609166816">
		<tag k="fixme" v="consider seamark:type=rock or natural=shoal" />
		<tag k="name" v="Geita" />
		<tag k="place" v="islet" />
		<tag k="ssr:stedsnr" v="642861" />
	</node>
	<node id="-66266" lat="62.5376777753" lon="6.02805833347">
		<tag k="name" v="Svinegjerdet" />
		<tag k="place" v="locality" />
		<tag k="ssr:stedsnr" v="641194" />
	</node>
	<node id="-66265" lat="62.5461888863" lon="6.0100555585">
		<tag k="fixme" v="consider seamark:type=rock or natural=shoal" />
		<tag k="name" v="Storskjeret" />
		<tag k="place" v="islet" />
		<tag k="ssr:stedsnr" v="641188" />
	</node>
	<node id="-66264" lat="62.5493027784" lon="6.01230555296">
		<tag k="name" v="Grønevikane" />
		<tag k="natural" v="bay" />
		<tag k="ssr:stedsnr" v="641187" />
	</node>
	<node id="-66263" lat="62.5461999954" lon="6.02105277226">
		<tag k="name" v="Gjørivika" />
		<tag k="natural" v="bay" />
		<tag k="ssr:stedsnr" v="641184" />
	</node>
	<node id="-66262" lat="62.5631694456" lon="6.03548055159">
		<tag k="name" v="Trettarvika" />
		<tag k="natural" v="bay" />
		<tag k="ssr:stedsnr" v="641179" />
	</node>
	<node id="-66261" lat="62.5522777819" lon="6.02777222917">
		<tag k="name" v="Ramedalen" />
		<tag k="natural" v="valley" />
		<tag k="place" v="locality" />
		<tag k="ssr:stedsnr" v="641175" />
	</node>
	<node id="-66260" lat="62.501133337" lon="6.13617222536">
		<tag k="name" v="Kongshaugen" />
		<tag k="natural" v="hill" />
		<tag k="place" v="locality" />
		<tag k="ssr:stedsnr" v="641171" />
	</node>
	<node id="-66259" lat="62.5021111077" lon="6.11539445301">
		<tag k="name" v="Håleberget" />
		<tag k="natural" v="hill" />
		<tag k="place" v="locality" />
		<tag k="ssr:stedsnr" v="641163" />
	</node>
	<node id="-66258" lat="62.5121916663" lon="6.10215555605">
		<tag k="name" v="Hustruhamnbakken" />
		<tag k="natural" v="slope" />
		<tag k="place" v="locality" />
		<tag k="ssr:stedsnr" v="641161" />
	</node>
	<node id="-66257" lat="62.5136694406" lon="6.11064166763">
		<tag k="name" v="Signaltjønna" />
		<tag k="natural" v="water" />
		<tag k="ssr:stedsnr" v="641159" />
	</node>
	<node id="-66256" lat="62.5080499999" lon="6.15006944973">
		<tag k="name" v="Kjeholmsundet" />
		<tag k="natural" v="strait" />
		<tag k="ssr:stedsnr" v="641155" />
	</node>
	<node id="-66255" lat="62.4788388934" lon="5.95889167297">
		<tag k="name" v="Søre Dalen" />
		<tag k="natural" v="valley" />
		<tag k="place" v="locality" />
		<tag k="ssr:stedsnr" v="641140" />
	</node>
	<node id="-66254" lat="62.4875138848" lon="5.96794167314">
		<tag k="highway" v="path" />
		<tag k="name" v="Raudesteinsundet" />
		<tag k="ssr:stedsnr" v="641117" />
	</node>
	<node id="-66253" lat="62.4881805553" lon="6.06008888387">
		<tag k="name" v="Skarvehamaren" />
		<tag k="natural" v="cliff" />
		<tag k="ssr:stedsnr" v="641111" />
	</node>
	<node id="-66252" lat="62.6324361131" lon="5.94388889277">
		<tag k="alt_name" v="Rosskallen" />
		<tag k="name" v="Rosseskallen" />
		<tag k="natural" v="shoal" />
		<tag k="place" v="locality" />
		<tag k="ssr:stedsnr" v="631621" />
	</node>
	<node id="-66251" lat="62.6031999968" lon="5.92155277893">
		<tag k="name" v="Hovsfluda" />
		<tag k="natural" v="shoal" />
		<tag k="place" v="locality" />
		<tag k="ssr:stedsnr" v="631616" />
	</node>
	<node id="-66250" lat="62.5266749982" lon="6.09753056473">
		<tag k="name" v="Skarholmen" />
		<tag k="place" v="islet" />
		<tag k="ssr:stedsnr" v="618747" />
	</node>
	<node id="-66249" lat="62.5058733855" lon="6.06098619615">
		<tag k="fixme" v="consider place=hamlet" />
		<tag k="name" v="Giskegjerdet" />
		<tag k="place" v="farm" />
		<tag k="ssr:stedsnr" v="618734" />
	</node>
	<node id="-66248" lat="62.5030305568" lon="6.12998055224">
		<tag k="alt_name" v="Valderøy" />
		<tag k="amenity" v="place_of_worship" />
		<tag k="denomination" v="lutheran" />
		<tag k="name" v="Valderøy kyrkje" />
		<tag k="religion" v="christian" />
		<tag k="ssr:stedsnr" v="618723" />
	</node>
	<node id="-66247" lat="62.4683822326" lon="5.99057728955">
		<tag k="fixme" v="consider place=hamlet" />
		<tag k="name" v="Juv" />
		<tag k="place" v="farm" />
		<tag k="ssr:stedsnr" v="618000" />
	</node>
	<node id="-66246" lat="62.4789000016" lon="6.00336389214">
		<tag k="alt_name" v="Slektinden;Sløktinden" />
		<tag k="fixme" v="consider natural=peak for the most distinct mountains in the district" />
		<tag k="name" v="Sloktinden" />
		<tag k="natural" v="hill" />
		<tag k="place" v="locality" />
		<tag k="ssr:stedsnr" v="617990" />
	</node>
	<node id="-66245" lat="62.4854666712" lon="6.04555833963">
		<tag k="name" v="Furkenholmen" />
		<tag k="place" v="islet" />
		<tag k="ssr:stedsnr" v="617985" />
	</node>
	<node id="-66244" lat="62.4872249959" lon="6.06237500362">
		<tag k="name" v="Havsteinen" />
		<tag k="place" v="islet" />
		<tag k="ssr:stedsnr" v="617983" />
	</node>
	<node id="-66243" lat="62.6092194453" lon="6.04793889461">
		<tag k="name" v="Russen" />
		<tag k="natural" v="shoal" />
		<tag k="place" v="locality" />
		<tag k="ssr:stedsnr" v="598879" />
	</node>
	<node id="-66242" lat="62.5729305525" lon="6.07751944379">
		<tag k="name" v="Skalken" />
		<tag k="natural" v="shoal" />
		<tag k="place" v="locality" />
		<tag k="ssr:stedsnr" v="598403" />
	</node>
	<node id="-66241" lat="62.5873805586" lon="6.04870555953">
		<tag k="name" v="Vetrungane" />
		<tag k="natural" v="shoal" />
		<tag k="place" v="locality" />
		<tag k="ssr:stedsnr" v="598396" />
	</node>
	<node id="-66240" lat="62.696472221" lon="5.87242778538">
		<tag k="name" v="Utgrunnen" />
		<tag k="place" v="locality" />
		<tag k="ssr:stedsnr" v="598316" />
	</node>
	<node id="-66239" lat="62.5346472195" lon="5.76641944914">
		<tag k="name" v="Onglegrynnet" />
		<tag k="natural" v="shoal" />
		<tag k="place" v="locality" />
		<tag k="ssr:stedsnr" v="598002" />
	</node>
	<node id="-66238" lat="62.6352416627" lon="5.99718889218">
		<tag k="name" v="Sjurhanshola" />
		<tag k="place" v="locality" />
		<tag k="ssr:stedsnr" v="597914" />
	</node>
	<node id="-66237" lat="62.4564666672" lon="5.94520833677">
		<tag k="name" v="Skjenna" />
		<tag k="natural" v="shoal" />
		<tag k="place" v="locality" />
		<tag k="ssr:stedsnr" v="597591" />
	</node>
	<node id="-66236" lat="62.5101285435" lon="6.03038567823">
		<tag k="name" v="Øydgardssanden" />
		<tag k="natural" v="beach" />
		<tag k="place" v="locality" />
		<tag k="ssr:stedsnr" v="596344" />
	</node>
	<node id="-66235" lat="62.5075888918" lon="6.06402500808">
		<tag k="name" v="Gjerdesanden" />
		<tag k="natural" v="beach" />
		<tag k="place" v="locality" />
		<tag k="ssr:stedsnr" v="596343" />
	</node>
	<node id="-66234" lat="62.6208333357" lon="5.44999999986">
		<tag k="name" v="Mebotnen" />
		<tag k="natural" v="shoal" />
		<tag k="place" v="locality" />
		<tag k="ssr:stedsnr" v="588635" />
	</node>
	<node id="-66233" lat="62.5707388904" lon="6.10088611999">
		<tag k="name" v="Fitjane" />
		<tag k="natural" v="beach" />
		<tag k="place" v="locality" />
		<tag k="ssr:stedsnr" v="581997" />
	</node>
	<node id="-66232" lat="62.5581444411" lon="6.08830833081">
		<tag k="name" v="Dammen" />
		<tag k="place" v="locality" />
		<tag k="ssr:stedsnr" v="581991" />
	</node>
	<node id="-66231" lat="62.5756388921" lon="6.11546111683">
		<tag k="name" v="Kyrkjeørna" />
		<tag k="place" v="locality" />
		<tag k="ssr:stedsnr" v="581986" />
	</node>
	<node id="-66230" lat="62.5883388916" lon="6.12480834238">
		<tag k="name" v="Skateneset" />
		<tag k="natural" v="cape" />
		<tag k="ssr:stedsnr" v="581985" />
	</node>
	<node id="-66229" lat="62.5768972255" lon="6.08659444227">
		<tag k="fixme" v="consider seamark:type=rock or natural=shoal" />
		<tag k="name" v="Kobbeskjeret" />
		<tag k="place" v="islet" />
		<tag k="ssr:stedsnr" v="581983" />
	</node>
	<node id="-66228" lat="62.5823166638" lon="6.07846667208">
		<tag k="name" v="Støneset" />
		<tag k="natural" v="cape" />
		<tag k="ssr:stedsnr" v="581974" />
	</node>
	<node id="-66227" lat="62.5831638932" lon="6.0946750018">
		<tag k="name" v="Kvamen" />
		<tag k="place" v="locality" />
		<tag k="ssr:stedsnr" v="581973" />
	</node>
	<node id="-66226" lat="62.5299361115" lon="6.11451666517">
		<tag k="name" v="Røyseneset" />
		<tag k="natural" v="cape" />
		<tag k="ssr:stedsnr" v="581969" />
	</node>
	<node id="-66225" lat="62.5863111095" lon="6.10217221582">
		<tag k="name" v="Grønefjellet" />
		<tag k="natural" v="hill" />
		<tag k="place" v="locality" />
		<tag k="ssr:stedsnr" v="581960" />
	</node>
	<node id="-66224" lat="62.5568055549" lon="6.12067500222">
		<tag k="highway" v="path" />
		<tag k="name" v="Stirema" />
		<tag k="ssr:stedsnr" v="581948" />
	</node>
	<node id="-66223" lat="62.5815277746" lon="6.10516111863">
		<tag k="name" v="Aglasgjerdet" />
		<tag k="place" v="farm" />
		<tag k="ssr:stedsnr" v="581920" />
	</node>
	<node id="-66222" lat="62.4912211685" lon="5.9704961522">
		<tag k="name" v="Rongja" />
		<tag k="natural" v="cape" />
		<tag k="ssr:stedsnr" v="581896" />
	</node>
	<node id="-66221" lat="62.4748444456" lon="6.04197778458">
		<tag k="name" v="Viåna" />
		<tag k="ssr:stedsnr" v="581892" />
		<tag k="waterway" v="stream" />
	</node>
	<node id="-66220" lat="62.501799997" lon="6.06206945307">
		<tag k="name" v="Mjelthaugen" />
		<tag k="natural" v="hill" />
		<tag k="place" v="locality" />
		<tag k="ssr:stedsnr" v="581242" />
	</node>
	<node id="-66219" lat="62.5113944443" lon="6.16650278648">
		<tag k="name" v="Vilhelmsholmen" />
		<tag k="place" v="islet" />
		<tag k="ssr:stedsnr" v="581236" />
	</node>
	<node id="-66218" lat="62.4995666641" lon="6.12683611625">
		<tag k="name" v="Valderhaug" />
		<tag k="place" v="farm" />
		<tag k="ssr:stedsnr" v="581227" />
	</node>
	<node id="-66217" lat="62.5235805543" lon="6.12133889554">
		<tag k="fixme" v="multiple name tags, choose one and add the other to alt_name" />
		<tag k="name" v="Sætra;Gjøsundsætra" />
		<tag k="place" v="farm" />
		<tag k="ssr:stedsnr" v="581217" />
	</node>
	<node id="-66216" lat="62.4671444453" lon="5.99887500663">
		<tag k="name" v="Paulsneset" />
		<tag k="natural" v="cape" />
		<tag k="ssr:stedsnr" v="581178" />
	</node>
	<node id="-66215" lat="62.4659499995" lon="5.99413055653">
		<tag k="fixme" v="consider seamark:type=rock or natural=shoal" />
		<tag k="name" v="Fløterevet" />
		<tag k="place" v="islet" />
		<tag k="ssr:stedsnr" v="581176" />
	</node>
	<node id="-66214" lat="62.51029444" lon="6.0331499912">
		<tag k="name" v="Montuhaugen" />
		<tag k="natural" v="hill" />
		<tag k="place" v="locality" />
		<tag k="ssr:stedsnr" v="581168" />
	</node>
	<node id="-66213" lat="62.4848583334" lon="5.98703054779">
		<tag k="name" v="Hestevika" />
		<tag k="natural" v="bay" />
		<tag k="ssr:stedsnr" v="581165" />
	</node>
	<node id="-66212" lat="62.500702782" lon="6.134600003">
		<tag k="amenity" v="townhall" />
		<tag k="name" v="Giske Rådhus" />
		<tag k="ssr:stedsnr" v="581158" />
	</node>
	<node id="-66211" lat="62.5237638857" lon="6.11279444658">
		<tag k="name" v="Stølsnausa" />
		<tag k="natural" v="hill" />
		<tag k="place" v="locality" />
		<tag k="ssr:stedsnr" v="581155" />
	</node>
	<node id="-66210" lat="62.4793777793" lon="5.97098888366">
		<tag k="name" v="Nonshornet" />
		<tag k="natural" v="hill" />
		<tag k="place" v="locality" />
		<tag k="ssr:stedsnr" v="581149" />
	</node>
	<node id="-66209" lat="62.4631305586" lon="5.96260555752">
		<tag k="name" v="Kvia" />
		<tag k="natural" v="slope" />
		<tag k="place" v="locality" />
		<tag k="ssr:stedsnr" v="581146" />
	</node>
	<node id="-66208" lat="62.5428638848" lon="6.0202416703">
		<tag k="name" v="Litleholmen" />
		<tag k="place" v="islet" />
		<tag k="ssr:stedsnr" v="581285" />
	</node>
	<node id="-66207" lat="62.5376694437" lon="6.02323889624">
		<tag k="name" v="Torvberget" />
		<tag k="natural" v="hill" />
		<tag k="place" v="locality" />
		<tag k="ssr:stedsnr" v="581270" />
	</node>
	<node id="-66206" lat="62.539355553" lon="6.02795832829">
		<tag k="name" v="Staurlogane" />
		<tag k="place" v="locality" />
		<tag k="ssr:stedsnr" v="581267" />
	</node>
	<node id="-66205" lat="62.5018249979" lon="6.07031944227">
		<tag k="name" v="Staursundet" />
		<tag k="natural" v="strait" />
		<tag k="ssr:stedsnr" v="565212" />
	</node>
	<node id="-66204" lat="62.505616434" lon="6.10201244335">
		<tag k="fixme" v="consider place=hamlet" />
		<tag k="name" v="Ytterland" />
		<tag k="place" v="farm" />
		<tag k="ssr:stedsnr" v="557743" />
	</node>
	<node id="-66203" lat="62.6219388925" lon="5.91089167186">
		<tag k="name" v="Kyrkjeskallen" />
		<tag k="natural" v="shoal" />
		<tag k="place" v="locality" />
		<tag k="ssr:stedsnr" v="557685" />
	</node>
	<node id="-66202" lat="62.6247194439" lon="6.03631110994">
		<tag k="fixme" v="consider seamark:type=rock or natural=shoal" />
		<tag k="name" v="Knappen" />
		<tag k="place" v="islet" />
		<tag k="ssr:stedsnr" v="557670" />
	</node>
	<node id="-66200" lat="62.5817083301" lon="6.02602777636">
		<tag k="name" v="Langholmen" />
		<tag k="place" v="islet" />
		<tag k="ssr:stedsnr" v="557795" />
	</node>
	<node id="-66199" lat="62.5895166659" lon="6.06226666395">
		<tag k="fixme" v="consider seamark:type=rock or natural=shoal" />
		<tag k="name" v="Ivarskjeret" />
		<tag k="place" v="islet" />
		<tag k="ssr:stedsnr" v="557793" />
	</node>
	<node id="-66198" lat="62.5852555562" lon="6.0913833403">
		<tag k="fixme" v="consider natural=peak for the most distinct mountains in the district" />
		<tag k="name" v="Molnesfjellet" />
		<tag k="natural" v="hill" />
		<tag k="place" v="locality" />
		<tag k="ssr:stedsnr" v="557792" />
	</node>
	<node id="-66197" lat="62.5844555565" lon="6.12473610924">
		<tag k="name" v="Roaldsneset" />
		<tag k="place" v="farm" />
		<tag k="ssr:stedsnr" v="557781" />
	</node>
	<node id="-66196" lat="62.5399194432" lon="5.86698889737">
		<tag k="fixme" v="consider seamark:type=rock or natural=shoal" />
		<tag k="name" v="Langskjeret" />
		<tag k="place" v="islet" />
		<tag k="ssr:stedsnr" v="557780" />
	</node>
	<node id="-66195" lat="62.5579249989" lon="6.07858333259">
		<tag k="name" v="Vigra" />
		<tag k="place" v="island" />
		<tag k="ssr:stedsnr" v="557779" />
	</node>
	<node id="-66194" lat="62.4675222253" lon="5.93454999839">
		<tag k="name" v="Skagen" />
		<tag k="natural" v="cape" />
		<tag k="ssr:stedsnr" v="556993" />
	</node>
	<node id="-66193" lat="62.6403055532" lon="6.03625832844">
		<tag k="name" v="Storefallet" />
		<tag k="natural" v="shoal" />
		<tag k="place" v="locality" />
		<tag k="ssr:stedsnr" v="537895" />
	</node>
	<node id="-66192" lat="62.6533583322" lon="5.99002222203">
		<tag k="name" v="Snøggeskallen" />
		<tag k="natural" v="shoal" />
		<tag k="place" v="locality" />
		<tag k="ssr:stedsnr" v="537890" />
	</node>
	<node id="-66191" lat="62.5012777776" lon="6.047627783">
		<tag k="name" v="Myra" />
		<tag k="place" v="farm" />
		<tag k="ssr:stedsnr" v="537468" />
	</node>
	<node id="-66190" lat="62.5122694455" lon="6.03134166123">
		<tag k="name" v="Montosteinen" />
		<tag k="natural" v="shoal" />
		<tag k="place" v="locality" />
		<tag k="ssr:stedsnr" v="537453" />
	</node>
	<node id="-66189" lat="62.579427777" lon="6.03741944389">
		<tag k="name" v="Pissebytta" />
		<tag k="natural" v="shoal" />
		<tag k="place" v="locality" />
		<tag k="ssr:stedsnr" v="537438" />
	</node>
	<node id="-66188" lat="62.5003243457" lon="6.05129128403">
		<tag k="fixme" v="consider place=hamlet" />
		<tag k="name" v="Giske" />
		<tag k="place" v="farm" />
		<tag k="ssr:stedsnr" v="535700" />
	</node>
	<node id="-66187" lat="62.5518555544" lon="6.03238056466">
		<tag k="name" v="Høgaksla" />
		<tag k="natural" v="hill" />
		<tag k="place" v="locality" />
		<tag k="ssr:stedsnr" v="521990" />
	</node>
	<node id="-66186" lat="62.5697416626" lon="6.12323056393">
		<tag k="name" v="Sandefjøra" />
		<tag k="natural" v="beach" />
		<tag k="place" v="locality" />
		<tag k="ssr:stedsnr" v="521979" />
	</node>
	<node id="-66185" lat="62.5686305602" lon="6.12017500884">
		<tag k="name" v="Langhaugen" />
		<tag k="natural" v="hill" />
		<tag k="place" v="locality" />
		<tag k="ssr:stedsnr" v="521978" />
	</node>
	<node id="-66184" lat="62.5861222243" lon="6.07276944884">
		<tag k="name" v="Ryholmen" />
		<tag k="place" v="islet" />
		<tag k="ssr:stedsnr" v="521976" />
	</node>
	<node id="-66183" lat="62.5837527797" lon="6.07315555959">
		<tag k="name" v="Naustavika" />
		<tag k="natural" v="bay" />
		<tag k="ssr:stedsnr" v="521971" />
	</node>
	<node id="-66182" lat="62.5879138914" lon="6.0809833416">
		<tag k="name" v="Brattemølen" />
		<tag k="natural" v="beach" />
		<tag k="place" v="locality" />
		<tag k="ssr:stedsnr" v="521970" />
	</node>
	<node id="-66181" lat="62.5877722236" lon="6.07786944306">
		<tag k="name" v="Revsberget" />
		<tag k="place" v="islet" />
		<tag k="ssr:stedsnr" v="521969" />
	</node>
	<node id="-66180" lat="62.5868000017" lon="6.0943500041">
		<tag k="name" v="Breisanden" />
		<tag k="natural" v="slope" />
		<tag k="place" v="locality" />
		<tag k="ssr:stedsnr" v="521959" />
	</node>
	<node id="-66179" lat="62.5609222235" lon="6.09979999308">
		<tag k="name" v="Tjønnarema" />
		<tag k="natural" v="ridge" />
		<tag k="place" v="locality" />
		<tag k="ssr:stedsnr" v="521952" />
	</node>
	<node id="-66178" lat="62.5460361133" lon="6.10185833021">
		<tag k="name" v="Stavneset" />
		<tag k="natural" v="cape" />
		<tag k="ssr:stedsnr" v="521938" />
	</node>
	<node id="-66177" lat="62.5252083368" lon="6.11559444635">
		<tag k="name" v="Sætra" />
		<tag k="place" v="farm" />
		<tag k="ssr:stedsnr" v="521902" />
	</node>
	<node id="-66176" lat="62.5673888861" lon="6.06729444617">
		<tag k="name" v="Ramnegjølet" />
		<tag k="natural" v="valley" />
		<tag k="place" v="locality" />
		<tag k="ssr:stedsnr" v="521195" />
	</node>
	<node id="-66175" lat="62.5421500017" lon="6.04011945362">
		<tag k="name" v="Kobbeveita" />
		<tag k="natural" v="bay" />
		<tag k="ssr:stedsnr" v="520219" />
	</node>
	<node id="-66174" lat="62.564297221" lon="6.02280277071">
		<tag k="alt_name" v="Tørnesfalla" />
		<tag k="fixme" v="consider seamark:type=rock or natural=shoal" />
		<tag k="name" v="Tørnesskjera" />
		<tag k="place" v="islet" />
		<tag k="ssr:stedsnr" v="520205" />
	</node>
	<node id="-66173" lat="62.5545472195" lon="6.02681665753">
		<tag k="name" v="Legarsvika" />
		<tag k="natural" v="bay" />
		<tag k="ssr:stedsnr" v="520201" />
	</node>
	<node id="-66172" lat="62.5563944416" lon="6.03035278061">
		<tag k="name" v="Flatavika" />
		<tag k="natural" v="bay" />
		<tag k="ssr:stedsnr" v="520200" />
	</node>
	<node id="-66171" lat="62.5149749984" lon="6.16731111333">
		<tag k="name" v="Styggedalen" />
		<tag k="natural" v="valley" />
		<tag k="place" v="locality" />
		<tag k="ssr:stedsnr" v="520197" />
	</node>
	<node id="-66170" lat="62.5173972189" lon="6.1658638977">
		<tag k="fixme" v="consider seamark:type=rock or natural=shoal" />
		<tag k="name" v="Skarveskjeret" />
		<tag k="place" v="islet" />
		<tag k="ssr:stedsnr" v="520191" />
	</node>
	<node id="-66169" lat="62.5227222251" lon="6.11545277359">
		<tag k="name" v="Høgenausa" />
		<tag k="natural" v="hill" />
		<tag k="place" v="locality" />
		<tag k="ssr:stedsnr" v="520181" />
	</node>
	<node id="-66168" lat="62.5192944481" lon="6.13548334066">
		<tag k="name" v="Notvollen" />
		<tag k="place" v="locality" />
		<tag k="ssr:stedsnr" v="520169" />
	</node>
	<node id="-66167" lat="62.5147499965" lon="6.12314445243">
		<tag k="name" v="Rundehaugen" />
		<tag k="natural" v="hill" />
		<tag k="place" v="locality" />
		<tag k="ssr:stedsnr" v="520168" />
	</node>
	<node id="-66166" lat="62.4865255249" lon="5.9771111467">
		<tag k="landuse" v="harbour" />
		<tag k="name" v="Alneshamna" />
		<tag k="seamark:type" v="harbour" />
		<tag k="ssr:stedsnr" v="520155" />
	</node>
	<node id="-66165" lat="62.4799027751" lon="5.96412500629">
		<tag k="name" v="Nøre Dalen" />
		<tag k="natural" v="valley" />
		<tag k="place" v="locality" />
		<tag k="ssr:stedsnr" v="520153" />
	</node>
	<node id="-66164" lat="62.4805638919" lon="6.01552777447">
		<tag k="name" v="Horndalen" />
		<tag k="natural" v="valley" />
		<tag k="place" v="locality" />
		<tag k="ssr:stedsnr" v="520129" />
	</node>
	<node id="-66163" lat="62.4697500043" lon="6.03692222285">
		<tag k="name" v="Strandkleiv" />
		<tag k="natural" v="slope" />
		<tag k="place" v="locality" />
		<tag k="ssr:stedsnr" v="520111" />
	</node>
	<node id="-66162" lat="62.4973972229" lon="6.118927773">
		<tag k="name" v="Valderøya" />
		<tag k="place" v="island" />
		<tag k="ssr:stedsnr" v="436977" />
	</node>
	<node id="-66161" lat="62.4994555554" lon="6.11303611001">
		<tag k="name" v="Skjong" />
		<tag k="place" v="farm" />
		<tag k="ssr:stedsnr" v="436970" />
	</node>
	<node id="-66160" lat="62.6032111154" lon="6.10122499215">
		<tag k="bay" v="fjord" />
		<tag k="name" v="Vigrafjorden" />
		<tag k="natural" v="bay" />
		<tag k="ssr:stedsnr" v="436804" />
	</node>
	<node id="-66159" lat="62.560930558" lon="6.10516666702">
		<tag k="name" v="Bratterema" />
		<tag k="natural" v="slope" />
		<tag k="place" v="locality" />
		<tag k="ssr:stedsnr" v="436786" />
	</node>
	<node id="-66158" lat="62.5269750038" lon="5.95715554719">
		<tag k="fixme" v="consider seamark:type=rock or natural=shoal" />
		<tag k="name" v="Håflesa" />
		<tag k="place" v="islet" />
		<tag k="ssr:stedsnr" v="436767" />
	</node>
	<node id="-66157" lat="62.5126972228" lon="6.16080556275">
		<tag k="fixme" v="multiple name tags, choose one and add the other to alt_name" />
		<tag k="name" v="Hamnøya;Uksebåsen" />
		<tag k="place" v="island" />
		<tag k="ssr:stedsnr" v="436746" />
	</node>
	<node id="-66155" lat="62.4995972223" lon="6.12858333338">
		<tag k="fixme" v="consider place=hamlet" />
		<tag k="name" v="Valderhaug" />
		<tag k="place" v="farm" />
		<tag k="ssr:stedsnr" v="436743" />
	</node>
	<node id="-66154" lat="62.6370944402" lon="6.04087222098">
		<tag k="fixme" v="consider seamark:type=rock or natural=shoal" />
		<tag k="name" v="Løvsøyklovningen" />
		<tag k="place" v="islet" />
		<tag k="ssr:stedsnr" v="436702" />
	</node>
	<node id="-66153" lat="62.4621472224" lon="5.97347778115">
		<tag k="alt_name" v="Reiskjeret" />
		<tag k="fixme" v="consider seamark:type=rock or natural=shoal" />
		<tag k="name" v="Reidskjeret" />
		<tag k="place" v="islet" />
		<tag k="ssr:stedsnr" v="435964" />
	</node>
	<node id="-66152" lat="62.6211222249" lon="5.97394165906">
		<tag k="name" v="Botnskallen" />
		<tag k="natural" v="shoal" />
		<tag k="place" v="locality" />
		<tag k="ssr:stedsnr" v="416851" />
	</node>
	<node id="-66151" lat="62.4626638928" lon="5.93289443439">
		<tag k="name" v="Stolane" />
		<tag k="natural" v="shoal" />
		<tag k="place" v="locality" />
		<tag k="ssr:stedsnr" v="416541" />
	</node>
	<node id="-66150" lat="62.5834749971" lon="6.01188610427">
		<tag k="name" v="Nordre Klefluda" />
		<tag k="natural" v="shoal" />
		<tag k="place" v="locality" />
		<tag k="ssr:stedsnr" v="416379" />
	</node>
	<node id="-66149" lat="62.588477777" lon="6.00814723014">
		<tag k="name" v="Skåka" />
		<tag k="natural" v="shoal" />
		<tag k="place" v="locality" />
		<tag k="ssr:stedsnr" v="416376" />
	</node>
	<node id="-66148" lat="62.5893472252" lon="6.05252499315">
		<tag k="name" v="Fjordmannen" />
		<tag k="natural" v="shoal" />
		<tag k="place" v="locality" />
		<tag k="ssr:stedsnr" v="416375" />
	</node>
	<node id="-66147" lat="62.5566222202" lon="5.90570000887">
		<tag k="name" v="Tjøreskallen" />
		<tag k="natural" v="shoal" />
		<tag k="place" v="locality" />
		<tag k="ssr:stedsnr" v="416097" />
	</node>
	<node id="-66146" lat="62.555124998" lon="6.05688889878">
		<tag k="name" v="Vassrema" />
		<tag k="natural" v="ridge" />
		<tag k="place" v="locality" />
		<tag k="ssr:stedsnr" v="400000" />
	</node>
	<node id="-66145" lat="62.5479138879" lon="6.01495000412">
		<tag k="name" v="Klomra" />
		<tag k="natural" v="bay" />
		<tag k="ssr:stedsnr" v="399992" />
	</node>
	<node id="-66144" lat="62.5537972199" lon="6.12783888177">
		<tag k="name" v="Røysa" />
		<tag k="place" v="locality" />
		<tag k="ssr:stedsnr" v="399970" />
	</node>
	<node id="-66143" lat="62.5349249984" lon="6.13375833333">
		<tag k="alt_name" v="Olmannsneset" />
		<tag k="name" v="Olmanneset" />
		<tag k="natural" v="cape" />
		<tag k="ssr:stedsnr" v="399962" />
	</node>
	<node id="-66142" lat="62.5465999973" lon="6.04909723214">
		<tag k="name" v="Leiterema" />
		<tag k="place" v="farm" />
		<tag k="ssr:stedsnr" v="399863" />
	</node>
	<node id="-66141" lat="62.585572222" lon="6.0823805545">
		<tag k="name" v="Grøtet" />
		<tag k="place" v="farm" />
		<tag k="ssr:stedsnr" v="399862" />
	</node>
	<node id="-66140" lat="62.5384416711" lon="6.03073888686">
		<tag k="name" v="Gulljorda" />
		<tag k="place" v="locality" />
		<tag k="ssr:stedsnr" v="399268" />
	</node>
	<node id="-66139" lat="62.5242277813" lon="6.11547499767">
		<tag k="name" v="Larsnausa" />
		<tag k="natural" v="hill" />
		<tag k="place" v="locality" />
		<tag k="ssr:stedsnr" v="399228" />
	</node>
	<node id="-66138" lat="62.5066972265" lon="6.13259722591">
		<tag k="name" v="Valderhaugbakkane" />
		<tag k="natural" v="slope" />
		<tag k="place" v="locality" />
		<tag k="ssr:stedsnr" v="399223" />
	</node>
	<node id="-66137" lat="62.510383334" lon="6.15067778403">
		<tag k="name" v="Humrevika" />
		<tag k="natural" v="bay" />
		<tag k="ssr:stedsnr" v="399221" />
	</node>
	<node id="-66136" lat="62.5141777772" lon="6.16346388474">
		<tag k="name" v="Kråkereirmyra" />
		<tag k="natural" v="wetland" />
		<tag k="ssr:stedsnr" v="399218" />
	</node>
	<node id="-66135" lat="62.4686916665" lon="5.97247223192">
		<tag k="name" v="Sætreegga" />
		<tag k="natural" v="hill" />
		<tag k="place" v="locality" />
		<tag k="ssr:stedsnr" v="399171" />
	</node>
	<node id="-66134" lat="62.4790583371" lon="6.02406111344">
		<tag k="name" v="Hasleberget" />
		<tag k="natural" v="hill" />
		<tag k="place" v="locality" />
		<tag k="ssr:stedsnr" v="399166" />
	</node>
	<node id="-66133" lat="62.4797611101" lon="6.03020556179">
		<tag k="alt_name" v="Leitebakk" />
		<tag k="name" v="Leitebakken" />
		<tag k="natural" v="slope" />
		<tag k="place" v="locality" />
		<tag k="ssr:stedsnr" v="399160" />
	</node>
	<node id="-66132" lat="62.5069666657" lon="6.04273888162">
		<tag k="name" v="Svehaugen" />
		<tag k="natural" v="hill" />
		<tag k="place" v="locality" />
		<tag k="ssr:stedsnr" v="399158" />
	</node>
	<node id="-66131" lat="62.465447223" lon="5.95085278492">
		<tag k="name" v="Kjerringgjølet" />
		<tag k="natural" v="gorge" />
		<tag k="ssr:stedsnr" v="399132" />
	</node>
	<node id="-66130" lat="62.5130546577" lon="6.09957033973">
		<tag k="layer" v="-1" />
		<tag k="name" v="Hustruhamnundergangen" />
		<tag k="ssr:stedsnr" v="391364" />
		<tag k="tunnel" v="yes" />
	</node>
	<node id="-66129" lat="62.5082972225" lon="6.06410833714">
		<tag k="name" v="Sandvika" />
		<tag k="natural" v="bay" />
		<tag k="ssr:stedsnr" v="375746" />
	</node>
	<node id="-66128" lat="62.4819555569" lon="6.02654999954">
		<tag k="fixme" v="consider natural=peak for the most distinct mountains in the district" />
		<tag k="name" v="Valkvæegga" />
		<tag k="natural" v="hill" />
		<tag k="place" v="locality" />
		<tag k="ssr:stedsnr" v="375991" />
	</node>
	<node id="-66126" lat="62.573969392" lon="6.11248670295">
		<tag k="fixme" v="consider place=hamlet" />
		<tag k="name" v="Roald" />
		<tag k="place" v="farm" />
		<tag k="ssr:stedsnr" v="362245" />
	</node>
	<node id="-66125" lat="62.4663250031" lon="5.99415000363">
		<tag k="name" v="Fløtane" />
		<tag k="place" v="farm" />
		<tag k="ssr:stedsnr" v="360596" />
	</node>
	<node id="-66124" lat="62.4670388867" lon="6.02578332757">
		<tag k="name" v="Geilevika" />
		<tag k="natural" v="bay" />
		<tag k="ssr:stedsnr" v="357015" />
	</node>
	<node id="-66123" lat="62.6046638893" lon="6.07043888046">
		<tag k="name" v="Litle Rossholmen" />
		<tag k="place" v="islet" />
		<tag k="ssr:stedsnr" v="355874" />
	</node>
	<node id="-66122" lat="62.5725555598" lon="5.95547500594">
		<tag k="name" v="Gibbedjupet" />
		<tag k="place" v="locality" />
		<tag k="ssr:stedsnr" v="355860" />
	</node>
	<node id="-66121" lat="62.5186916685" lon="6.06328054947">
		<tag k="name" v="Staurnesgrynnet" />
		<tag k="natural" v="shoal" />
		<tag k="place" v="locality" />
		<tag k="ssr:stedsnr" v="355448" />
	</node>
	<node id="-66120" lat="62.5094166704" lon="6.08572499029">
		<tag k="name" v="Erknefluda" />
		<tag k="natural" v="shoal" />
		<tag k="place" v="locality" />
		<tag k="ssr:stedsnr" v="355445" />
	</node>
	<node id="-66119" lat="62.5743972178" lon="5.99409999114">
		<tag k="name" v="Gibbeskallen" />
		<tag k="natural" v="shoal" />
		<tag k="place" v="locality" />
		<tag k="ssr:stedsnr" v="355418" />
	</node>
	<node id="-66118" lat="62.5819749981" lon="6.0060555463">
		<tag k="name" v="Søre Klefluda" />
		<tag k="natural" v="shoal" />
		<tag k="place" v="locality" />
		<tag k="ssr:stedsnr" v="355417" />
	</node>
	<node id="-66117" lat="62.5510999985" lon="6.09415832413">
		<tag k="name" v="Skjelsanden" />
		<tag k="natural" v="bay" />
		<tag k="ssr:stedsnr" v="355405" />
	</node>
	<node id="-66116" lat="62.5380194453" lon="6.0018166661">
		<tag k="name" v="Korsa" />
		<tag k="natural" v="shoal" />
		<tag k="place" v="locality" />
		<tag k="ssr:stedsnr" v="355404" />
	</node>
	<node id="-66115" lat="62.5740527742" lon="6.06546944885">
		<tag k="name" v="Hagebakkane" />
		<tag k="natural" v="shoal" />
		<tag k="place" v="locality" />
		<tag k="ssr:stedsnr" v="355382" />
	</node>
	<node id="-66114" lat="62.4915444459" lon="5.95869166491">
		<tag k="name" v="Hellene" />
		<tag k="natural" v="shoal" />
		<tag k="place" v="locality" />
		<tag k="ssr:stedsnr" v="355306" />
	</node>
	<node id="-66113" lat="62.4871055544" lon="5.95293056285">
		<tag k="name" v="Kverveskallane" />
		<tag k="natural" v="shoal" />
		<tag k="place" v="locality" />
		<tag k="ssr:stedsnr" v="355305" />
	</node>
	<node id="-66112" lat="62.5597444415" lon="5.956611102">
		<tag k="name" v="Kyrkjeskallen" />
		<tag k="natural" v="shoal" />
		<tag k="place" v="locality" />
		<tag k="ssr:stedsnr" v="355116" />
	</node>
	<node id="-66111" lat="62.5786277818" lon="5.91731944557">
		<tag k="name" v="Langskallen" />
		<tag k="natural" v="shoal" />
		<tag k="place" v="locality" />
		<tag k="ssr:stedsnr" v="355115" />
	</node>
	<node id="-66110" lat="62.5722999991" lon="5.93269722105">
		<tag k="name" v="Sveskallen" />
		<tag k="natural" v="shoal" />
		<tag k="place" v="locality" />
		<tag k="ssr:stedsnr" v="355114" />
	</node>
	<node id="-66109" lat="62.5687888886" lon="6.07063889435">
		<tag k="name" v="Hagen" />
		<tag k="natural" v="wetland" />
		<tag k="ssr:stedsnr" v="338995" />
	</node>
	<node id="-66108" lat="62.5699444458" lon="6.08616110828">
		<tag k="name" v="Korgeren" />
		<tag k="place" v="islet" />
		<tag k="ssr:stedsnr" v="338994" />
	</node>
	<node id="-66107" lat="62.5513277752" lon="6.03313888346">
		<tag k="name" v="Lågaksla" />
		<tag k="place" v="locality" />
		<tag k="ssr:stedsnr" v="338989" />
	</node>
	<node id="-66106" lat="62.5882361083" lon="6.08798889182">
		<tag k="name" v="Helandsvika" />
		<tag k="natural" v="bay" />
		<tag k="ssr:stedsnr" v="338959" />
	</node>
	<node id="-66105" lat="62.5450222249" lon="6.05218611176">
		<tag k="name" v="Leiterema" />
		<tag k="natural" v="ridge" />
		<tag k="place" v="locality" />
		<tag k="ssr:stedsnr" v="338938" />
	</node>
	<node id="-66104" lat="62.4623083355" lon="5.96636667173">
		<tag k="name" v="Trøsvika" />
		<tag k="natural" v="bay" />
		<tag k="ssr:stedsnr" v="338869" />
	</node>
	<node id="-66103" lat="62.5251805536" lon="6.11312777324">
		<tag k="name" v="Stølen" />
		<tag k="place" v="farm" />
		<tag k="ssr:stedsnr" v="338860" />
	</node>
	<node id="-66102" lat="62.535861109" lon="6.01393611867">
		<tag k="name" v="Neset" />
		<tag k="natural" v="cape" />
		<tag k="ssr:stedsnr" v="338201" />
	</node>
	<node id="-66101" lat="62.5055694454" lon="6.06742500767">
		<tag k="name" v="Sandneset" />
		<tag k="natural" v="cape" />
		<tag k="ssr:stedsnr" v="338194" />
	</node>
	<node id="-66100" lat="62.5495499978" lon="6.03601666558">
		<tag k="name" v="Påskehylla" />
		<tag k="place" v="locality" />
		<tag k="ssr:stedsnr" v="338187" />
	</node>
	<node id="-66099" lat="62.5502333334" lon="6.00684166466">
		<tag k="fixme" v="consider seamark:type=rock or natural=shoal" />
		<tag k="name" v="Svartuksen" />
		<tag k="place" v="islet" />
		<tag k="ssr:stedsnr" v="338184" />
	</node>
	<node id="-66098" lat="62.5021750028" lon="6.03104167219">
		<tag k="name" v="Storsøyla" />
		<tag k="natural" v="bay" />
		<tag k="ssr:stedsnr" v="338183" />
	</node>
	<node id="-66097" lat="62.5640305548" lon="6.03561666995">
		<tag k="name" v="Tørnesodden" />
		<tag k="natural" v="cape" />
		<tag k="ssr:stedsnr" v="338180" />
	</node>
	<node id="-66096" lat="62.5533277749" lon="6.03165833331">
		<tag k="name" v="Skitnedalen" />
		<tag k="natural" v="valley" />
		<tag k="place" v="locality" />
		<tag k="ssr:stedsnr" v="338172" />
	</node>
	<node id="-66095" lat="62.5235083321" lon="6.10215278575">
		<tag k="name" v="Sætreaksla" />
		<tag k="natural" v="ridge" />
		<tag k="place" v="locality" />
		<tag k="ssr:stedsnr" v="338157" />
	</node>
	<node id="-66094" lat="62.5222416651" lon="6.10015277376">
		<tag k="name" v="Jens-Åleine" />
		<tag k="natural" v="stone" />
		<tag k="ssr:stedsnr" v="338154" />
	</node>
	<node id="-66093" lat="62.5168222254" lon="6.10272500699">
		<tag k="name" v="Daudmannshellaren" />
		<tag k="place" v="locality" />
		<tag k="ssr:stedsnr" v="338153" />
	</node>
	<node id="-66092" lat="62.5075181935" lon="6.10420741379">
		<tag k="layer" v="-1" />
		<tag k="name" v="Austre Ytterlandsundergangen" />
		<tag k="ssr:stedsnr" v="330360" />
		<tag k="tunnel" v="yes" />
	</node>
	<node id="-66091" lat="62.5071249994" lon="5.9237000018">
		<tag k="name" v="Leiafallet" />
		<tag k="place" v="locality" />
		<tag k="seamark:type" v="rock" />
		<tag k="ssr:stedsnr" v="328631" />
	</node>
	<node id="-66090" lat="62.4977111095" lon="6.12249167148">
		<tag k="name" v="Valderhaug" />
		<tag k="place" v="village" />
		<tag k="ssr:stedsnr" v="314971" />
	</node>
	<node id="-66089" lat="62.4986500018" lon="6.05019444009">
		<tag k="alt_name" v="Giske kyrkje" />
		<tag k="amenity" v="place_of_worship" />
		<tag k="denomination" v="lutheran" />
		<tag k="name" v="Giske" />
		<tag k="religion" v="christian" />
		<tag k="ssr:stedsnr" v="314969" />
	</node>
	<node id="-66088" lat="62.496244442" lon="6.12667222557">
		<tag k="name" v="Valderhaugstranda bustadområde" />
		<tag k="place" v="quarter" />
		<tag k="ssr:stedsnr" v="301788" />
	</node>
	<node id="-66087" lat="62.5081472263" lon="5.78950555105">
		<tag k="alt_name" v="Statsgrunnskallen" />
		<tag k="name" v="Stadsgrunnskallen" />
		<tag k="natural" v="shoal" />
		<tag k="place" v="locality" />
		<tag k="ssr:stedsnr" v="207589" />
	</node>
	<node id="-66086" lat="62.5705972197" lon="6.05284167646">
		<tag k="name" v="Hjellholmen" />
		<tag k="place" v="islet" />
		<tag k="ssr:stedsnr" v="193799" />
	</node>
	<node id="-66085" lat="62.5416638866" lon="5.87511388226">
		<tag k="fixme" v="consider seamark:type=rock or natural=shoal" />
		<tag k="name" v="Småskjera" />
		<tag k="place" v="islet" />
		<tag k="ssr:stedsnr" v="193792" />
	</node>
	<node id="-66084" lat="62.5635444448" lon="6.0767694479">
		<tag k="alt_name" v="Vigra kyrkje" />
		<tag k="amenity" v="place_of_worship" />
		<tag k="denomination" v="lutheran" />
		<tag k="name" v="Vigra" />
		<tag k="religion" v="christian" />
		<tag k="ssr:stedsnr" v="193784" />
	</node>
	<node id="-66083" lat="62.556728841" lon="6.0389300116">
		<tag k="fixme" v="consider place=hamlet" />
		<tag k="name" v="Røssvika" />
		<tag k="place" v="farm" />
		<tag k="ssr:stedsnr" v="193780" />
	</node>
	<node id="-66081" lat="62.5155222197" lon="6.062522223">
		<tag k="name" v="Finnøya" />
		<tag k="place" v="islet" />
		<tag k="ssr:stedsnr" v="193756" />
	</node>
	<node id="-66080" lat="62.5182638852" lon="5.99709722491">
		<tag k="name" v="Giskerevet" />
		<tag k="natural" v="shoal" />
		<tag k="place" v="locality" />
		<tag k="ssr:stedsnr" v="193755" />
	</node>
	<node id="-66079" lat="62.5272222181" lon="6.11048334217">
		<tag k="name" v="Røysa" />
		<tag k="place" v="farm" />
		<tag k="ssr:stedsnr" v="193752" />
	</node>
	<node id="-66078" lat="62.5092444419" lon="6.02526665955">
		<tag k="name" v="Kvalneset" />
		<tag k="natural" v="cape" />
		<tag k="ssr:stedsnr" v="193744" />
	</node>
	<node id="-66077" lat="62.5063444477" lon="6.03084167558">
		<tag k="name" v="Makkevika" />
		<tag k="natural" v="bay" />
		<tag k="ssr:stedsnr" v="193738" />
	</node>
	<node id="-66076" lat="62.6493333366" lon="5.92418333033">
		<tag k="name" v="Ytste Stadsgrynnskallen" />
		<tag k="natural" v="shoal" />
		<tag k="place" v="locality" />
		<tag k="ssr:stedsnr" v="174018" />
	</node>
	<node id="-66075" lat="62.5660916635" lon="5.73441945303">
		<tag k="name" v="Vestreskallen" />
		<tag k="natural" v="shoal" />
		<tag k="place" v="locality" />
		<tag k="ssr:stedsnr" v="174003" />
	</node>
	<node id="-66074" lat="62.6124416658" lon="5.97164722844">
		<tag k="name" v="Storefluda" />
		<tag k="natural" v="shoal" />
		<tag k="place" v="locality" />
		<tag k="ssr:stedsnr" v="173873" />
	</node>
	<node id="-66073" lat="62.6119444443" lon="5.95169166952">
		<tag k="name" v="Storfallet" />
		<tag k="natural" v="shoal" />
		<tag k="place" v="locality" />
		<tag k="ssr:stedsnr" v="173871" />
	</node>
	<node id="-66072" lat="62.4633722224" lon="5.992272222">
		<tag k="name" v="Grunnrevet" />
		<tag k="natural" v="shoal" />
		<tag k="place" v="locality" />
		<tag k="ssr:stedsnr" v="173534" />
	</node>
	<node id="-66071" lat="62.5902805556" lon="5.99460000695">
		<tag k="name" v="Skjerbåen" />
		<tag k="natural" v="shoal" />
		<tag k="place" v="locality" />
		<tag k="ssr:stedsnr" v="173377" />
	</node>
	<node id="-66070" lat="62.5937833367" lon="6.11486943506">
		<tag k="name" v="Grynnfluda" />
		<tag k="natural" v="shoal" />
		<tag k="place" v="locality" />
		<tag k="ssr:stedsnr" v="173375" />
	</node>
	<node id="-66069" lat="62.5423805592" lon="6.12722221308">
		<tag k="name" v="Røysevik" />
		<tag k="place" v="farm" />
		<tag k="ssr:stedsnr" v="173439" />
	</node>
	<node id="-66068" lat="62.561780552" lon="6.08133055228">
		<tag k="name" v="Remane" />
		<tag k="natural" v="ridge" />
		<tag k="place" v="locality" />
		<tag k="ssr:stedsnr" v="157985" />
	</node>
	<node id="-66067" lat="62.536897222" lon="6.11894165717">
		<tag k="name" v="Remane" />
		<tag k="natural" v="ridge" />
		<tag k="place" v="locality" />
		<tag k="ssr:stedsnr" v="157961" />
	</node>
	<node id="-66066" lat="62.5009083363" lon="6.03178054849">
		<tag k="name" v="Holmen" />
		<tag k="natural" v="cape" />
		<tag k="ssr:stedsnr" v="156998" />
	</node>
	<node id="-66065" lat="62.5407388906" lon="6.0261499972">
		<tag k="name" v="Hammaren" />
		<tag k="natural" v="hill" />
		<tag k="place" v="locality" />
		<tag k="ssr:stedsnr" v="156978" />
	</node>
	<node id="-66064" lat="62.498222223" lon="6.12555277678">
		<tag k="name" v="Myrane" />
		<tag k="place" v="farm" />
		<tag k="ssr:stedsnr" v="156972" />
	</node>
	<node id="-66063" lat="62.5051888921" lon="6.11778611242">
		<tag k="name" v="Skaret" />
		<tag k="natural" v="valley" />
		<tag k="place" v="locality" />
		<tag k="ssr:stedsnr" v="156966" />
	</node>
	<node id="-66062" lat="62.5819916655" lon="6.08340833064">
		<tag k="name" v="Harhaugen" />
		<tag k="natural" v="hill" />
		<tag k="place" v="locality" />
		<tag k="ssr:stedsnr" v="156963" />
	</node>
	<node id="-66061" lat="62.558738893" lon="6.06740833105">
		<tag k="junction" v="yes" />
		<tag k="name" v="Gøylaskiftet" />
		<tag k="place" v="locality" />
		<tag k="ssr:stedsnr" v="156945" />
	</node>
	<node id="-66060" lat="62.4798138905" lon="5.9823305479">
		<tag k="name" v="Demma" />
		<tag k="natural" v="strait" />
		<tag k="ssr:stedsnr" v="156881" />
	</node>
	<node id="-66059" lat="62.4986249962" lon="6.11073055548">
		<tag k="name" v="Stølshaugen" />
		<tag k="natural" v="hill" />
		<tag k="place" v="locality" />
		<tag k="ssr:stedsnr" v="156190" />
	</node>
	<node id="-66058" lat="62.5025277751" lon="6.06478611418">
		<tag k="landuse" v="harbour" />
		<tag k="name" v="Gjerdehamna" />
		<tag k="seamark:type" v="harbour" />
		<tag k="ssr:stedsnr" v="156183" />
	</node>
	<node id="-66057" lat="62.5201611095" lon="6.13960278735">
		<tag k="name" v="Kvamsneset" />
		<tag k="natural" v="cape" />
		<tag k="ssr:stedsnr" v="156164" />
	</node>
	<node id="-66056" lat="62.4682166673" lon="6.00932222119">
		<tag k="name" v="Ramogeilvika" />
		<tag k="natural" v="bay" />
		<tag k="ssr:stedsnr" v="156138" />
	</node>
	<node id="-66055" lat="62.509149997" lon="6.05651944809">
		<tag k="name" v="Rishaugen" />
		<tag k="natural" v="hill" />
		<tag k="place" v="locality" />
		<tag k="ssr:stedsnr" v="156126" />
	</node>
	<node id="-66054" lat="62.4638777785" lon="5.94333888528">
		<tag k="name" v="Ryggahola" />
		<tag k="natural" v="bay" />
		<tag k="ssr:stedsnr" v="156120" />
	</node>
	<node id="-66053" lat="62.4706222179" lon="5.9391472182">
		<tag k="name" v="Bjørneeidet" />
		<tag k="place" v="locality" />
		<tag k="ssr:stedsnr" v="156119" />
	</node>
	<node id="-66052" lat="62.5235583295" lon="6.13665834263">
		<tag k="name" v="Nordre Oksneset" />
		<tag k="place" v="farm" />
		<tag k="ssr:stedsnr" v="155593" />
	</node>
	<node id="-66051" lat="62.6454333326" lon="6.00417777165">
		<tag k="name" v="Søre Djupfallet" />
		<tag k="natural" v="shoal" />
		<tag k="place" v="locality" />
		<tag k="ssr:stedsnr" v="146597" />
	</node>
	<node id="-66050" lat="62.5810111092" lon="5.9959250077">
		<tag k="name" v="Kyrkjefluda" />
		<tag k="place" v="locality" />
		<tag k="seamark:type" v="rock" />
		<tag k="ssr:stedsnr" v="146594" />
	</node>
	<node id="-66049" lat="62.6483611074" lon="5.97556667336">
		<tag k="name" v="Støtten" />
		<tag k="natural" v="shoal" />
		<tag k="place" v="locality" />
		<tag k="ssr:stedsnr" v="141233" />
	</node>
	<node id="-66048" lat="62.6397249996" lon="6.0343250006">
		<tag k="name" v="Kobbeskjeret" />
		<tag k="natural" v="shoal" />
		<tag k="place" v="locality" />
		<tag k="ssr:stedsnr" v="133681" />
	</node>
	<node id="-66047" lat="62.4757083323" lon="5.97454999612">
		<tag k="name" v="Alnesvatnet" />
		<tag k="natural" v="water" />
		<tag k="ssr:stedsnr" v="132991" />
		<tag k="water" v="lake" />
	</node>
	<node id="-66046" lat="62.4911249987" lon="5.88850555105">
		<tag k="name" v="Lyren" />
		<tag k="natural" v="shoal" />
		<tag k="place" v="locality" />
		<tag k="ssr:stedsnr" v="132969" />
	</node>
	<node id="-66045" lat="62.6007750004" lon="5.99805834052">
		<tag k="name" v="Svarven" />
		<tag k="natural" v="shoal" />
		<tag k="place" v="locality" />
		<tag k="ssr:stedsnr" v="132801" />
	</node>
	<node id="-66044" lat="62.550641664" lon="5.87113611749">
		<tag k="fixme" v="consider seamark:type=rock or natural=shoal" />
		<tag k="name" v="Toskjera" />
		<tag k="place" v="islet" />
		<tag k="ssr:stedsnr" v="132789" />
	</node>
	<node id="-66043" lat="62.5438611137" lon="6.03558610536">
		<tag k="name" v="Synesvågen" />
		<tag k="natural" v="bay" />
		<tag k="ssr:stedsnr" v="132784" />
	</node>
	<node id="-66042" lat="62.5520722192" lon="6.11731666006">
		<tag k="name" v="Rørvikvatnet" />
		<tag k="natural" v="water" />
		<tag k="ssr:stedsnr" v="132780" />
	</node>
	<node id="-66041" lat="62.550163885" lon="6.07811945168">
		<tag k="name" v="Blindheimsvik" />
		<tag k="place" v="farm" />
		<tag k="ssr:stedsnr" v="132777" />
	</node>
	<node id="-66040" lat="62.6072305578" lon="5.94718333252">
		<tag k="name" v="Snøggeskallen" />
		<tag k="natural" v="shoal" />
		<tag k="place" v="locality" />
		<tag k="ssr:stedsnr" v="113883" />
	</node>
	<node id="-66039" lat="62.497316664" lon="6.02311667478">
		<tag k="name" v="Stanga" />
		<tag k="natural" v="shoal" />
		<tag k="place" v="locality" />
		<tag k="ssr:stedsnr" v="113447" />
	</node>
	<node id="-66038" lat="62.5108166663" lon="6.04863888195">
		<tag k="name" v="Buholmen" />
		<tag k="place" v="islet" />
		<tag k="ssr:stedsnr" v="96987" />
	</node>
	<node id="-66037" lat="62.5707444411" lon="6.0690083241">
		<tag k="name" v="Kobbevika" />
		<tag k="natural" v="bay" />
		<tag k="ssr:stedsnr" v="96983" />
	</node>
	<node id="-66036" lat="62.4695638866" lon="5.97460277856">
		<tag k="name" v="Kleiva" />
		<tag k="natural" v="slope" />
		<tag k="place" v="locality" />
		<tag k="ssr:stedsnr" v="96877" />
	</node>
	<node id="-66035" lat="62.5500277783" lon="6.04219444867">
		<tag k="name" v="Brattefloget" />
		<tag k="natural" v="cliff" />
		<tag k="ssr:stedsnr" v="96247" />
	</node>
	<node id="-66034" lat="62.5505638852" lon="6.04283611594">
		<tag k="name" v="Gultua" />
		<tag k="natural" v="hill" />
		<tag k="place" v="locality" />
		<tag k="ssr:stedsnr" v="96246" />
	</node>
	<node id="-66033" lat="62.5532861078" lon="6.01587500244">
		<tag k="name" v="Godvika" />
		<tag k="natural" v="bay" />
		<tag k="ssr:stedsnr" v="96245" />
	</node>
	<node id="-66032" lat="62.5548388897" lon="6.0160472224">
		<tag k="name" v="Nesberget" />
		<tag k="natural" v="cape" />
		<tag k="ssr:stedsnr" v="96244" />
	</node>
	<node id="-66031" lat="62.4993000033" lon="6.09916667357">
		<tag k="name" v="Skjongneset" />
		<tag k="natural" v="cape" />
		<tag k="ssr:stedsnr" v="96242" />
	</node>
	<node id="-66030" lat="62.5077083295" lon="6.10015000495">
		<tag k="fixme" v="consider seamark:type=rock or natural=shoal" />
		<tag k="name" v="Olaskjeret" />
		<tag k="place" v="islet" />
		<tag k="ssr:stedsnr" v="96223" />
	</node>
	<node id="-66029" lat="62.4721861102" lon="5.95298055966">
		<tag k="name" v="Rosethaugane" />
		<tag k="natural" v="hill" />
		<tag k="place" v="locality" />
		<tag k="ssr:stedsnr" v="96142" />
	</node>
	<node id="-66028" lat="62.4662083304" lon="5.94939722288">
		<tag k="name" v="Kjerringtindane" />
		<tag k="place" v="locality" />
		<tag k="ssr:stedsnr" v="96140" />
	</node>
	<node id="-66027" lat="62.4627638857" lon="5.9502805603">
		<tag k="fixme" v="consider seamark:type=rock or natural=shoal" />
		<tag k="name" v="Kjerringa" />
		<tag k="place" v="islet" />
		<tag k="ssr:stedsnr" v="96137" />
	</node>
	<node id="-66026" lat="62.4656222265" lon="5.95936110507">
		<tag k="name" v="Kallefonna" />
		<tag k="natural" v="valley" />
		<tag k="place" v="locality" />
		<tag k="ssr:stedsnr" v="96135" />
	</node>
	<node id="-66025" lat="62.5788305574" lon="5.75752500325">
		<tag k="name" v="Jonskallen" />
		<tag k="natural" v="shoal" />
		<tag k="place" v="locality" />
		<tag k="ssr:stedsnr" v="85541" />
	</node>
	<node id="-66024" lat="62.490863886" lon="6.0133694472">
		<tag k="name" v="Giskesundet" />
		<tag k="natural" v="strait" />
		<tag k="ssr:stedsnr" v="72977" />
	</node>
	<node id="-66023" lat="62.4915833318" lon="5.8555555577">
		<tag k="name" v="Olsfluda" />
		<tag k="natural" v="shoal" />
		<tag k="place" v="locality" />
		<tag k="ssr:stedsnr" v="72965" />
	</node>
	<node id="-66022" lat="62.5720777768" lon="6.03400278052">
		<tag k="name" v="Vestmannsholmane" />
		<tag k="place" v="islet" />
		<tag k="ssr:stedsnr" v="72774" />
	</node>
	<node id="-66020" lat="62.5644694431" lon="6.05056666111">
		<tag k="name" v="Blimssanden" />
		<tag k="natural" v="beach" />
		<tag k="place" v="locality" />
		<tag k="ssr:stedsnr" v="72768" />
	</node>
	<node id="-66018" lat="62.466000003" lon="5.93522777081">
		<tag k="alt_name" v="Kanset" />
		<tag k="name" v="Kannset" />
		<tag k="natural" v="cape" />
		<tag k="ssr:stedsnr" v="71955" />
	</node>
	<node id="-66017" lat="62.5931361099" lon="6.11011943993">
		<tag k="name" v="Langenesfluda" />
		<tag k="natural" v="shoal" />
		<tag k="place" v="locality" />
		<tag k="ssr:stedsnr" v="52376" />
	</node>
	<node id="-66016" lat="62.4637083349" lon="5.95365000122">
		<tag k="name" v="Storura" />
		<tag k="natural" v="scree" />
		<tag k="ssr:stedsnr" v="35993" />
	</node>
	<node id="-66015" lat="62.5597722244" lon="6.12838055391">
		<tag k="name" v="Rogna" />
		<tag k="place" v="farm" />
		<tag k="ssr:stedsnr" v="35983" />
	</node>
	<node id="-66014" lat="62.5686911147" lon="6.05715412465">
		<tag k="name" v="Blindheimsnausta" />
		<tag k="place" v="locality" />
		<tag k="ssr:stedsnr" v="35977" />
	</node>
	<node id="-66013" lat="62.5048333372" lon="6.11225554875">
		<tag k="name" v="Vomma" />
		<tag k="natural" v="valley" />
		<tag k="place" v="locality" />
		<tag k="ssr:stedsnr" v="35973" />
	</node>
	<node id="-66012" lat="62.5638694404" lon="6.07725000308">
		<tag k="name" v="Reset" />
		<tag k="natural" v="ridge" />
		<tag k="place" v="locality" />
		<tag k="ssr:stedsnr" v="35971" />
	</node>
	<node id="-66011" lat="62.5777472223" lon="6.1135972279">
		<tag k="amenity" v="community_centre" />
		<tag k="name" v="Mjølner" />
		<tag k="ssr:stedsnr" v="35962" />
	</node>
	<node id="-66010" lat="62.5697222197" lon="6.05634443817">
		<tag k="name" v="Blindheimssundet" />
		<tag k="natural" v="strait" />
		<tag k="ssr:stedsnr" v="35961" />
	</node>
	<node id="-66009" lat="62.5673083347" lon="6.07585000456">
		<tag k="name" v="Toshellen" />
		<tag k="place" v="locality" />
		<tag k="ssr:stedsnr" v="35957" />
	</node>
	<node id="-66008" lat="62.5646222264" lon="6.09280556427">
		<tag k="name" v="Skjervane" />
		<tag k="natural" v="hill" />
		<tag k="place" v="locality" />
		<tag k="ssr:stedsnr" v="35954" />
	</node>
	<node id="-66007" lat="62.5528388924" lon="6.12091667525">
		<tag k="name" v="Kvennhusveita" />
		<tag k="ssr:stedsnr" v="35946" />
		<tag k="waterway" v="stream" />
	</node>
	<node id="-66006" lat="62.5434611111" lon="6.00920277443">
		<tag k="name" v="Synesholmane" />
		<tag k="place" v="islet" />
		<tag k="ssr:stedsnr" v="35292" />
	</node>
	<node id="-66005" lat="62.501336114" lon="6.0990916617">
		<tag k="landuse" v="harbour" />
		<tag k="name" v="Skjonghamna" />
		<tag k="seamark:type" v="harbour" />
		<tag k="ssr:stedsnr" v="35256" />
	</node>
	<node id="-66004" lat="62.4974166643" lon="6.13077499858">
		<tag k="alt_name" v="Løeggård" />
		<tag k="name" v="Løkegarden" />
		<tag k="place" v="farm" />
		<tag k="ssr:stedsnr" v="35254" />
	</node>
	<node id="-66003" lat="62.5009611087" lon="6.13943333873">
		<tag k="alt_name" v="Jangardsneset" />
		<tag k="name" v="Jangardøyra" />
		<tag k="natural" v="cape" />
		<tag k="ssr:stedsnr" v="35252" />
	</node>
	<node id="-66002" lat="62.516011109" lon="6.16269443521">
		<tag k="fixme" v="consider seamark:type=rock or natural=shoal" />
		<tag k="name" v="Kråkereiret" />
		<tag k="place" v="islet" />
		<tag k="ssr:stedsnr" v="35249" />
	</node>
	<node id="-66001" lat="62.5673527783" lon="6.06146110646">
		<tag k="name" v="halvegjølet" />
		<tag k="natural" v="valley" />
		<tag k="place" v="locality" />
		<tag k="ssr:stedsnr" v="35244" />
	</node>
	<node id="-66000" lat="62.566427774" lon="6.05183334168">
		<tag k="name" v="Sandbakkane" />
		<tag k="natural" v="slope" />
		<tag k="place" v="locality" />
		<tag k="ssr:stedsnr" v="35242" />
	</node>
	<node id="-65999" lat="62.5661416687" lon="6.06468889194">
		<tag k="name" v="Grauthaugen" />
		<tag k="natural" v="hill" />
		<tag k="place" v="locality" />
		<tag k="ssr:stedsnr" v="35239" />
	</node>
	<node id="-65998" lat="62.5578611131" lon="6.06182777486">
		<tag k="name" v="Gylgjeberget" />
		<tag k="natural" v="hill" />
		<tag k="place" v="locality" />
		<tag k="ssr:stedsnr" v="35237" />
	</node>
	<node id="-65997" lat="62.5025861133" lon="6.11937221392">
		<tag k="name" v="Fløya" />
		<tag k="natural" v="hill" />
		<tag k="place" v="locality" />
		<tag k="ssr:stedsnr" v="35233" />
	</node>
	<node id="-65996" lat="62.4987833364" lon="6.11402777787">
		<tag k="name" v="Trollhaugen" />
		<tag k="natural" v="hill" />
		<tag k="place" v="locality" />
		<tag k="ssr:stedsnr" v="35231" />
	</node>
	<node id="-65995" lat="62.5049583347" lon="6.10938334284">
		<tag k="name" v="Demma" />
		<tag k="natural" v="water" />
		<tag k="ssr:stedsnr" v="35225" />
	</node>
	<node id="-65994" lat="62.5029361149" lon="6.119547229">
		<tag k="name" v="Husefjellet" />
		<tag k="natural" v="hill" />
		<tag k="place" v="locality" />
		<tag k="ssr:stedsnr" v="35206" />
	</node>
	<node id="-65993" lat="62.467988887" lon="6.00401110682">
		<tag k="name" v="Utigardsneset" />
		<tag k="natural" v="cape" />
		<tag k="ssr:stedsnr" v="35174" />
	</node>
	<node id="-65992" lat="62.4661972212" lon="5.98980833542">
		<tag k="name" v="Juvsnausta" />
		<tag k="place" v="locality" />
		<tag k="ssr:stedsnr" v="35171" />
	</node>
	<node id="-65991" lat="62.4756222226" lon="5.94224721277">
		<tag k="alt_name" v="Bremneset" />
		<tag k="name" v="Brimneset" />
		<tag k="natural" v="cape" />
		<tag k="ssr:stedsnr" v="35143" />
	</node>
	<node id="-65990" lat="62.5311638925" lon="6.11945556004">
		<tag k="bridge" v="yes" />
		<tag k="layer" v="1" />
		<tag k="name" v="Gjøsundbrua" />
		<tag k="ssr:stedsnr" v="27351" />
	</node>
	<node id="-65988" lat="62.5882861091" lon="5.7693194503">
		<tag k="name" v="Kvalrosskallen" />
		<tag k="natural" v="shoal" />
		<tag k="place" v="locality" />
		<tag k="ssr:stedsnr" v="25636" />
	</node>
	<node id="-65987" lat="62.5114138855" lon="6.04028611522">
		<tag k="name" v="Storevika" />
		<tag k="natural" v="bay" />
		<tag k="ssr:stedsnr" v="20221" />
	</node>
	<node id="-65986" lat="62.5042322712" lon="6.10428900164">
		<tag k="fixme" v="consider place=hamlet" />
		<tag k="name" v="Skjong" />
		<tag k="place" v="farm" />
		<tag k="ssr:stedsnr" v="12253" />
	</node>
	<node id="-65985" lat="62.5598222256" lon="6.03467778039">
		<tag k="name" v="Skarvetangane" />
		<tag k="natural" v="cape" />
		<tag k="ssr:stedsnr" v="11794" />
	</node>
	<node id="-65984" lat="62.5629333332" lon="5.9202083422">
		<tag k="fixme" v="consider seamark:type=rock or natural=shoal" />
		<tag k="name" v="Svarteskjeret" />
		<tag k="place" v="islet" />
		<tag k="ssr:stedsnr" v="11790" />
	</node>
	<node id="-65983" lat="62.510474997" lon="6.11117777863">
		<tag k="name" v="Skjonghornet" />
		<tag k="natural" v="hill" />
		<tag k="place" v="locality" />
		<tag k="ssr:stedsnr" v="217199" />
	</node>
	<node id="-65979" lat="62.513375002" lon="5.90321111946">
		<tag k="name" v="Bjørnebåen" />
		<tag k="natural" v="shoal" />
		<tag k="place" v="locality" />
		<tag k="ssr:stedsnr" v="962877" />
	</node>
	<node id="-65978" lat="62.5938222195" lon="6.07947777767">
		<tag k="name" v="Revet" />
		<tag k="natural" v="shoal" />
		<tag k="place" v="locality" />
		<tag k="ssr:stedsnr" v="962876" />
	</node>
	<node id="-65977" lat="62.5121250011" lon="5.97865000007">
		<tag k="name" v="Søre Leiasteinen" />
		<tag k="natural" v="shoal" />
		<tag k="place" v="locality" />
		<tag k="ssr:stedsnr" v="962872" />
	</node>
	<node id="-65976" lat="62.6178916622" lon="5.97988888574">
		<tag k="name" v="Leiskallen" />
		<tag k="natural" v="shoal" />
		<tag k="place" v="locality" />
		<tag k="ssr:stedsnr" v="962870" />
	</node>
	<node id="-65975" lat="62.4676888855" lon="5.99247778661">
		<tag k="name" v="Godøylandet" />
		<tag k="place" v="hamlet" />
		<tag k="ssr:stedsnr" v="962568" />
	</node>
	<node id="-65974" lat="62.5486777775" lon="5.87163611837">
		<tag k="name" v="Morkolla" />
		<tag k="natural" v="shoal" />
		<tag k="place" v="locality" />
		<tag k="ssr:stedsnr" v="962005" />
	</node>
	<node id="-65973" lat="62.5697916681" lon="6.07493889055">
		<tag k="name" v="Hageberget" />
		<tag k="place" v="islet" />
		<tag k="ssr:stedsnr" v="946962" />
	</node>
	<node id="-65972" lat="62.5443916657" lon="6.04206111635">
		<tag k="name" v="Vadet" />
		<tag k="natural" v="water" />
		<tag k="ssr:stedsnr" v="945230" />
	</node>
	<node id="-65971" lat="62.5511638901" lon="6.02353610322">
		<tag k="name" v="Kjerringa" />
		<tag k="natural" v="hill" />
		<tag k="place" v="locality" />
		<tag k="ssr:stedsnr" v="945225" />
	</node>
	<node id="-65970" lat="62.5057694436" lon="5.77444166096">
		<tag k="alt_name" v="Klovgryna" />
		<tag k="name" v="Klovgrynna" />
		<tag k="natural" v="shoal" />
		<tag k="place" v="locality" />
		<tag k="ssr:stedsnr" v="935621" />
	</node>
	<node id="-65969" lat="62.5684527751" lon="5.74352500892">
		<tag k="name" v="Fauskane" />
		<tag k="place" v="locality" />
		<tag k="seamark:type" v="rock" />
		<tag k="ssr:stedsnr" v="935618" />
	</node>
	<node id="-65968" lat="62.5037916697" lon="6.05019444526">
		<tag k="name" v="Giske" />
		<tag k="place" v="village" />
		<tag k="ssr:stedsnr" v="935116" />
	</node>
	<node id="-65967" lat="62.5444416688" lon="6.01503055815">
		<tag k="name" v="Kråkenasen" />
		<tag k="natural" v="cape" />
		<tag k="ssr:stedsnr" v="217254" />
	</node>
	<node id="-65966" lat="62.5451583296" lon="6.01254443939">
		<tag k="name" v="Grauthaugen" />
		<tag k="natural" v="hill" />
		<tag k="place" v="locality" />
		<tag k="ssr:stedsnr" v="217253" />
	</node>
	<node id="-65965" lat="62.5669749972" lon="6.05093889743">
		<tag k="name" v="Keilevika" />
		<tag k="natural" v="bay" />
		<tag k="ssr:stedsnr" v="217250" />
	</node>
	<node id="-65964" lat="62.5602194449" lon="6.03803056495">
		<tag k="name" v="Haugane" />
		<tag k="natural" v="hill" />
		<tag k="place" v="locality" />
		<tag k="ssr:stedsnr" v="217248" />
	</node>
	<node id="-65963" lat="62.5636194428" lon="6.04121666514">
		<tag k="name" v="Kjerringvika" />
		<tag k="natural" v="bay" />
		<tag k="ssr:stedsnr" v="217228" />
	</node>
	<node id="-65962" lat="62.4758694447" lon="6.03170000849">
		<tag k="name" v="Leitebøen" />
		<tag k="place" v="quarter" />
		<tag k="ssr:stedsnr" v="908805" />
	</node>
	<node id="-65961" lat="62.6325944441" lon="6.04071666925">
		<tag k="name" v="Klovningsgrynnet" />
		<tag k="natural" v="shoal" />
		<tag k="place" v="locality" />
		<tag k="ssr:stedsnr" v="902913" />
	</node>
	<node id="-65960" lat="62.5860638898" lon="6.00114445326">
		<tag k="name" v="Melen" />
		<tag k="natural" v="shoal" />
		<tag k="place" v="locality" />
		<tag k="ssr:stedsnr" v="902458" />
	</node>
	<node id="-65959" lat="62.5863694472" lon="6.01665832662">
		<tag k="name" v="Hummarløysa" />
		<tag k="natural" v="shoal" />
		<tag k="place" v="locality" />
		<tag k="ssr:stedsnr" v="902455" />
	</node>
	<node id="-65958" lat="62.5036472251" lon="6.04660278063">
		<tag k="amenity" v="nursing_home" />
		<tag k="name" v="Giske kvileheim" />
		<tag k="ssr:stedsnr" v="217163" />
	</node>
	<node id="-65957" lat="62.4899666686" lon="5.96104721899">
		<tag k="fixme" v="consider seamark:type=rock or natural=shoal" />
		<tag k="name" v="Kobbesteinane" />
		<tag k="place" v="islet" />
		<tag k="ssr:stedsnr" v="217145" />
	</node>
	<node id="-65956" lat="62.4817722218" lon="6.04513610803">
		<tag k="name" v="Sandneset" />
		<tag k="natural" v="cape" />
		<tag k="ssr:stedsnr" v="217144" />
	</node>
	<node id="-65955" lat="62.558413891" lon="6.03153888551">
		<tag k="name" v="Søre Støholmen" />
		<tag k="place" v="islet" />
		<tag k="ssr:stedsnr" v="217142" />
	</node>
	<node id="-65954" lat="62.5677638895" lon="6.07271943952">
		<tag k="name" v="Trollgjølet" />
		<tag k="natural" v="valley" />
		<tag k="place" v="locality" />
		<tag k="ssr:stedsnr" v="885974" />
	</node>
	<node id="-65953" lat="62.5300055516" lon="6.11764444077">
		<tag k="name" v="Klippen" />
		<tag k="natural" v="hill" />
		<tag k="place" v="locality" />
		<tag k="ssr:stedsnr" v="885971" />
	</node>
	<node id="-65952" lat="62.5259305557" lon="6.10151666137">
		<tag k="name" v="Kløvningane" />
		<tag k="natural" v="hill" />
		<tag k="place" v="locality" />
		<tag k="ssr:stedsnr" v="885922" />
	</node>
	<node id="-65951" lat="62.50126389" lon="6.1044083247">
		<tag k="name" v="Karenhaugen" />
		<tag k="natural" v="hill" />
		<tag k="place" v="locality" />
		<tag k="ssr:stedsnr" v="885222" />
	</node>
	<node id="-65950" lat="62.5660888848" lon="6.06161667167">
		<tag k="name" v="Falkehamrane" />
		<tag k="natural" v="slope" />
		<tag k="place" v="locality" />
		<tag k="ssr:stedsnr" v="885212" />
	</node>
	<node id="-65949" lat="62.5666527733" lon="6.05665554825">
		<tag k="name" v="Blimshaugen" />
		<tag k="natural" v="hill" />
		<tag k="place" v="locality" />
		<tag k="ssr:stedsnr" v="885209" />
	</node>
	<node id="-65948" lat="62.4625250024" lon="5.96938888896">
		<tag k="name" v="Reiskjerberga" />
		<tag k="natural" v="slope" />
		<tag k="place" v="locality" />
		<tag k="ssr:stedsnr" v="885163" />
	</node>
	<node id="-65947" lat="62.570080552" lon="6.06375556031">
		<tag k="name" v="Hagevika" />
		<tag k="natural" v="bay" />
		<tag k="ssr:stedsnr" v="946998" />
	</node>
	<node id="-65946" lat="62.5711083312" lon="6.11576388019">
		<tag k="name" v="Vollane" />
		<tag k="place" v="farm" />
		<tag k="ssr:stedsnr" v="946988" />
	</node>
	<node id="-65945" lat="62.5102138893" lon="6.02621944843">
		<tag k="name" v="Storvika" />
		<tag k="natural" v="bay" />
		<tag k="ssr:stedsnr" v="946986" />
	</node>
	<node id="-65944" lat="62.5099194427" lon="6.11263332416">
		<tag k="name" v="Måsetua" />
		<tag k="natural" v="hill" />
		<tag k="place" v="locality" />
		<tag k="ssr:stedsnr" v="946976" />
	</node>
	<node id="-65943" lat="62.4646166685" lon="5.94694165949">
		<tag k="name" v="Ryggen" />
		<tag k="natural" v="ridge" />
		<tag k="place" v="locality" />
		<tag k="ssr:stedsnr" v="946893" />
	</node>
	<node id="-65942" lat="62.4739444454" lon="5.99622778681">
		<tag k="name" v="Ryggane" />
		<tag k="natural" v="valley" />
		<tag k="place" v="locality" />
		<tag k="ssr:stedsnr" v="946881" />
	</node>
	<node id="-65941" lat="62.527266671" lon="6.10495554794">
		<tag k="name" v="Kvennhusvika" />
		<tag k="natural" v="bay" />
		<tag k="ssr:stedsnr" v="946941" />
	</node>
	<node id="-65940" lat="62.549833334" lon="6.12363332573">
		<tag k="alt_name" v="Røysevika" />
		<tag k="name" v="Røysavika" />
		<tag k="natural" v="bay" />
		<tag k="ssr:stedsnr" v="946935" />
	</node>
	<node id="-65939" lat="62.4955277816" lon="6.11373056411">
		<tag k="fixme" v="consider seamark:type=rock or natural=shoal" />
		<tag k="name" v="Martinskjeret" />
		<tag k="place" v="islet" />
		<tag k="ssr:stedsnr" v="945191" />
	</node>
	<node id="-65938" lat="62.4788388881" lon="6.04341111635">
		<tag k="name" v="Støbakkvika" />
		<tag k="natural" v="bay" />
		<tag k="ssr:stedsnr" v="945129" />
	</node>
	<node id="-65937" lat="62.5109694472" lon="6.03415832398">
		<tag k="name" v="Litlevika" />
		<tag k="natural" v="bay" />
		<tag k="ssr:stedsnr" v="945125" />
	</node>
	<node id="-65936" lat="62.4994999976" lon="6.03181943557">
		<tag k="name" v="Skarveneset" />
		<tag k="natural" v="cape" />
		<tag k="ssr:stedsnr" v="945123" />
	</node>
	<node id="-65935" lat="62.5070305569" lon="6.11455000753">
		<tag k="name" v="Litle Måsetua" />
		<tag k="natural" v="hill" />
		<tag k="place" v="locality" />
		<tag k="ssr:stedsnr" v="945119" />
	</node>
	<node id="-65934" lat="62.5634138852" lon="6.07289167163">
		<tag k="amenity" v="nursing_home" />
		<tag k="name" v="Vigra sjukeheim" />
		<tag k="ssr:stedsnr" v="945117" />
	</node>
	<node id="-65933" lat="62.4677111087" lon="6.03517777469">
		<tag k="name" v="Strandkleivvika" />
		<tag k="natural" v="bay" />
		<tag k="ssr:stedsnr" v="945115" />
	</node>
	<node id="-65932" lat="62.4784833352" lon="5.963586107">
		<tag k="name" v="Torvfjellet" />
		<tag k="natural" v="hill" />
		<tag k="place" v="locality" />
		<tag k="ssr:stedsnr" v="945106" />
	</node>
	<node id="-65931" lat="62.6570611072" lon="5.68072499816">
		<tag k="name" v="Storedjupet" />
		<tag k="place" v="locality" />
		<tag k="ssr:stedsnr" v="842011" />
	</node>
	<node id="-65930" lat="62.5281166648" lon="5.70198055337">
		<tag k="name" v="Høgeskallen" />
		<tag k="natural" v="shoal" />
		<tag k="place" v="locality" />
		<tag k="ssr:stedsnr" v="842005" />
	</node>
	<node id="-65929" lat="62.5184388872" lon="6.12274444076">
		<tag k="fixme" v="consider natural=peak for the most distinct mountains in the district" />
		<tag k="name" v="Bakkerøra" />
		<tag k="natural" v="hill" />
		<tag k="place" v="locality" />
		<tag k="ssr:stedsnr" v="840504" />
	</node>
	<node id="-65928" lat="62.4711333293" lon="6.01018889456">
		<tag k="name" v="Kamsdalen" />
		<tag k="natural" v="valley" />
		<tag k="place" v="locality" />
		<tag k="ssr:stedsnr" v="824174" />
	</node>
	<node id="-65927" lat="62.585658336" lon="6.12153333666">
		<tag k="leisure" v="pitch" />
		<tag k="name" v="Rota stadion" />
		<tag k="ssr:stedsnr" v="824158" />
	</node>
	<node id="-65926" lat="62.466822224" lon="5.93456667519">
		<tag k="name" v="Skagevika" />
		<tag k="natural" v="bay" />
		<tag k="ssr:stedsnr" v="824156" />
	</node>
	<node id="-65925" lat="62.6473750016" lon="5.93877500689">
		<tag k="name" v="Jakteskallen" />
		<tag k="natural" v="shoal" />
		<tag k="place" v="locality" />
		<tag k="ssr:stedsnr" v="930233" />
	</node>
	<node id="-65924" lat="62.5671268779" lon="6.10794885751">
		<tag k="fixme" v="consider place=hamlet" />
		<tag k="name" v="Rørvika" />
		<tag k="place" v="farm" />
		<tag k="ssr:stedsnr" v="800780" />
	</node>
	<node id="-65923" lat="62.5516249996" lon="6.03451943684">
		<tag k="name" v="Synesfjellet" />
		<tag k="natural" v="hill" />
		<tag k="place" v="locality" />
		<tag k="ssr:stedsnr" v="800764" />
	</node>
	<node id="-65922" lat="62.4670014707" lon="6.01854816815">
		<tag k="landuse" v="harbour" />
		<tag k="name" v="Geilevika" />
		<tag k="seamark:type" v="harbour" />
		<tag k="ssr:stedsnr" v="799955" />
	</node>
	<node id="-65921" lat="62.5145166703" lon="5.91473333199">
		<tag k="name" v="Raunen" />
		<tag k="place" v="islet" />
		<tag k="ssr:stedsnr" v="922732" />
	</node>
	<node id="-65920" lat="62.4722361132" lon="6.03970556024">
		<tag k="name" v="Strandklauva" />
		<tag k="place" v="farm" />
		<tag k="ssr:stedsnr" v="921998" />
	</node>
	<node id="-65919" lat="62.4684666648" lon="5.93177500406">
		<tag k="alt_name" v="Leistaskjeret" />
		<tag k="fixme" v="consider seamark:type=rock or natural=shoal" />
		<tag k="name" v="Lestaskjeret" />
		<tag k="place" v="islet" />
		<tag k="ssr:stedsnr" v="921996" />
	</node>
	<node id="-65918" lat="62.4798222179" lon="6.0398666624">
		<tag k="alt_name" v="Støbakken" />
		<tag k="name" v="Støbakk" />
		<tag k="place" v="farm" />
		<tag k="ssr:stedsnr" v="921994" />
	</node>
	<node id="-65917" lat="62.5023999971" lon="6.03956944396">
		<tag k="name" v="Giske" />
		<tag k="place" v="island" />
		<tag k="ssr:stedsnr" v="921970" />
	</node>
	<node id="-65916" lat="62.5944111091" lon="6.01684445216">
		<tag k="name" v="Molnesskallen" />
		<tag k="natural" v="shoal" />
		<tag k="place" v="locality" />
		<tag k="ssr:stedsnr" v="921812" />
	</node>
	<node id="-65915" lat="62.5528527769" lon="5.93573056247">
		<tag k="name" v="Kråkevika" />
		<tag k="natural" v="bay" />
		<tag k="ssr:stedsnr" v="921792" />
	</node>
	<node id="-65914" lat="62.5358911611" lon="6.13001702469">
		<tag k="fixme" v="consider place=hamlet" />
		<tag k="name" v="Gjøsund" />
		<tag k="place" v="farm" />
		<tag k="ssr:stedsnr" v="921789" />
	</node>
	<node id="-65913" lat="62.5420611069" lon="6.06724723164">
		<tag k="man_made" v="tower" />
		<tag k="name" v="Vigra kringkastar" />
		<tag k="ssr:stedsnr" v="748461" />
		<tag k="tower:type" v="communications" />
	</node>
	<node id="-65912" lat="62.6265166697" lon="5.89460833419">
		<tag k="name" v="Dyngjeskallen" />
		<tag k="natural" v="shoal" />
		<tag k="place" v="locality" />
		<tag k="ssr:stedsnr" v="740708" />
	</node>
	<node id="-65911" lat="62.6348166654" lon="5.98587221851">
		<tag k="name" v="Fludskallen" />
		<tag k="natural" v="shoal" />
		<tag k="place" v="locality" />
		<tag k="ssr:stedsnr" v="740705" />
	</node>
	<node id="-65910" lat="62.5900666705" lon="6.11631944783">
		<tag k="name" v="Langeneset" />
		<tag k="natural" v="cape" />
		<tag k="ssr:stedsnr" v="739820" />
	</node>
	<node id="-65908" lat="62.5824055568" lon="6.12469999881">
		<tag k="name" v="Roald" />
		<tag k="place" v="village" />
		<tag k="ssr:stedsnr" v="739808" />
	</node>
	<node id="-65907" lat="62.591177775" lon="6.03496110839">
		<tag k="name" v="Molneskyrkjeskallen" />
		<tag k="natural" v="shoal" />
		<tag k="place" v="locality" />
		<tag k="ssr:stedsnr" v="902452" />
	</node>
	<node id="-65906" lat="62.5890666642" lon="6.07071110701">
		<tag k="name" v="Revsteinen" />
		<tag k="natural" v="shoal" />
		<tag k="place" v="locality" />
		<tag k="ssr:stedsnr" v="902442" />
	</node>
	<node id="-65905" lat="62.6828388926" lon="5.84524999974">
		<tag k="name" v="Skulegga" />
		<tag k="place" v="locality" />
		<tag k="ssr:stedsnr" v="902011" />
	</node>
	<node id="-65904" lat="62.5661583315" lon="5.7422583328">
		<tag k="name" v="Remmen" />
		<tag k="natural" v="shoal" />
		<tag k="place" v="locality" />
		<tag k="ssr:stedsnr" v="902003" />
	</node>
	<node id="-65903" lat="62.4794972198" lon="6.04688888358">
		<tag k="name" v="Karifluda" />
		<tag k="natural" v="shoal" />
		<tag k="place" v="locality" />
		<tag k="ssr:stedsnr" v="901598" />
	</node>
	<node id="-65902" lat="62.5918111103" lon="6.093763884">
		<tag k="name" v="Storholmfluda" />
		<tag k="natural" v="shoal" />
		<tag k="place" v="locality" />
		<tag k="ssr:stedsnr" v="720424" />
	</node>
	<node id="-65901" lat="62.5893111143" lon="6.11846110708">
		<tag k="name" v="Sandvika" />
		<tag k="natural" v="bay" />
		<tag k="ssr:stedsnr" v="720419" />
	</node>
	<node id="-65900" lat="62.6263583342" lon="5.92644722118">
		<tag k="name" v="Skjersøyla" />
		<tag k="place" v="locality" />
		<tag k="ssr:stedsnr" v="720021" />
	</node>
	<node id="-65899" lat="62.6790000014" lon="5.69693332637">
		<tag k="name" v="Heldet" />
		<tag k="place" v="locality" />
		<tag k="ssr:stedsnr" v="720016" />
	</node>
	<node id="-65898" lat="62.5224250032" lon="6.13289167415">
		<tag k="name" v="Blomvik" />
		<tag k="place" v="farm" />
		<tag k="ssr:stedsnr" v="702173" />
	</node>
	<node id="-65897" lat="62.4659083344" lon="5.98910556105">
		<tag k="name" v="Juvsstranda" />
		<tag k="natural" v="beach" />
		<tag k="place" v="locality" />
		<tag k="ssr:stedsnr" v="889888" />
	</node>
	<node id="-65896" lat="62.5283166676" lon="6.11423056439">
		<tag k="bridge" v="yes" />
		<tag k="layer" v="1" />
		<tag k="name" v="Røysebrua" />
		<tag k="ssr:stedsnr" v="694303" />
	</node>
	<node id="-65895" lat="62.5355583338" lon="6.01860000835">
		<tag k="name" v="Kvitene" />
		<tag k="natural" v="hill" />
		<tag k="place" v="locality" />
		<tag k="ssr:stedsnr" v="885983" />
	</node>
	<node id="-65894" lat="62.5596083378" lon="6.03299444584">
		<tag k="name" v="Åresvika" />
		<tag k="natural" v="bay" />
		<tag k="ssr:stedsnr" v="885868" />
	</node>
	<node id="-65893" lat="62.4723499979" lon="5.9440055588">
		<tag k="name" v="Storura" />
		<tag k="natural" v="scree" />
		<tag k="ssr:stedsnr" v="885864" />
	</node>
	<node id="-65892" lat="62.5706861078" lon="6.09403889416">
		<tag k="name" v="Åkrianeset" />
		<tag k="natural" v="cape" />
		<tag k="ssr:stedsnr" v="885944" />
	</node>
	<node id="-65891" lat="62.5566888872" lon="6.09707221721">
		<tag k="name" v="Småmyrteigane" />
		<tag k="natural" v="wetland" />
		<tag k="ssr:stedsnr" v="885937" />
	</node>
	<node id="-65890" lat="62.5556222229" lon="6.08525278161">
		<tag k="name" v="Randalselva" />
		<tag k="ssr:stedsnr" v="885932" />
		<tag k="waterway" v="stream" />
	</node>
	<node id="-65889" lat="62.5529499957" lon="6.07564721409">
		<tag k="junction" v="yes" />
		<tag k="name" v="Vikeskiftet" />
		<tag k="place" v="locality" />
		<tag k="ssr:stedsnr" v="885931" />
	</node>
	<node id="-65888" lat="62.5565027752" lon="6.02809999758">
		<tag k="name" v="Morteberget" />
		<tag k="place" v="islet" />
		<tag k="ssr:stedsnr" v="885231" />
	</node>
	<node id="-65887" lat="62.5520527777" lon="6.03220277646">
		<tag k="name" v="Ramedalshornet" />
		<tag k="natural" v="hill" />
		<tag k="place" v="locality" />
		<tag k="ssr:stedsnr" v="885229" />
	</node>
	<node id="-65886" lat="62.4840222235" lon="5.99768054672">
		<tag k="name" v="Vindsnesvika" />
		<tag k="natural" v="bay" />
		<tag k="ssr:stedsnr" v="885142" />
	</node>
	<node id="-65885" lat="62.5523083337" lon="5.94741667367">
		<tag k="fixme" v="verify maritime location" />
		<tag k="mooring" v="yes" />
		<tag k="name" v="Nøre støa" />
		<tag k="place" v="locality" />
		<tag k="ssr:stedsnr" v="885141" />
	</node>
	<node id="-65884" lat="62.514772222" lon="6.16235834143">
		<tag k="name" v="Supaneset" />
		<tag k="natural" v="cape" />
		<tag k="ssr:stedsnr" v="885198" />
	</node>
	<node id="-65883" lat="62.661930559" lon="5.92076666691">
		<tag k="name" v="Holmeskallen" />
		<tag k="natural" v="shoal" />
		<tag k="place" v="locality" />
		<tag k="ssr:stedsnr" v="679671" />
	</node>
	<node id="-65882" lat="62.5080222267" lon="6.12421667318">
		<tag k="name" v="Skaret" />
		<tag k="place" v="quarter" />
		<tag k="ssr:stedsnr" v="665809" />
	</node>
	<node id="-65881" lat="62.52415278" lon="5.93411388507">
		<tag k="name" v="Storegrimen" />
		<tag k="natural" v="shoal" />
		<tag k="place" v="locality" />
		<tag k="ssr:stedsnr" v="659902" />
	</node>
	<node id="-65880" lat="62.6025444439" lon="6.05719999067">
		<tag k="name" v="Rossholmen" />
		<tag k="place" v="islet" />
		<tag k="ssr:stedsnr" v="659909" />
	</node>
	<node id="-65879" lat="62.5228333303" lon="5.95093055612">
		<tag k="name" v="Litlegrimen" />
		<tag k="natural" v="shoal" />
		<tag k="place" v="locality" />
		<tag k="ssr:stedsnr" v="659904" />
	</node>
	<node id="-65878" lat="62.5758861091" lon="6.0521222264">
		<tag k="name" v="Blindheimsklovningen" />
		<tag k="place" v="locality" />
		<tag k="ssr:stedsnr" v="654264" />
	</node>
	<node id="-65877" lat="62.54843056" lon="6.05086389198">
		<tag k="name" v="Steinland" />
		<tag k="place" v="farm" />
		<tag k="ssr:stedsnr" v="642851" />
	</node>
	<node id="-65876" lat="62.5867972245" lon="6.11449722894">
		<tag k="name" v="Budafjellet bustadområde" />
		<tag k="place" v="quarter" />
		<tag k="ssr:stedsnr" v="726802" />
	</node>
	<node id="-65875" lat="62.5325055527" lon="6.12924444434">
		<tag k="alt_name" v="Gjøsund" />
		<tag k="name" v="Kristiangarden" />
		<tag k="place" v="isolated_dwelling" />
		<tag k="ssr:stedsnr" v="726620" />
	</node>
	<node id="-65874" lat="62.5718138931" lon="6.077333326">
		<tag k="name" v="Rørvikvågen" />
		<tag k="natural" v="bay" />
		<tag k="ssr:stedsnr" v="618773" />
	</node>
	<node id="-65873" lat="62.5740305527" lon="6.12011389244">
		<tag k="name" v="Roaldsleira" />
		<tag k="natural" v="bay" />
		<tag k="ssr:stedsnr" v="618771" />
	</node>
	<node id="-65872" lat="62.5481315524" lon="5.94114243632">
		<tag k="name" v="Hesteberget" />
		<tag k="natural" v="hill" />
		<tag k="place" v="locality" />
		<tag k="ssr:stedsnr" v="618752" />
	</node>
	<node id="-65871" lat="62.6303138868" lon="6.05150000447">
		<tag k="name" v="Klovningsfallet" />
		<tag k="natural" v="shoal" />
		<tag k="place" v="locality" />
		<tag k="ssr:stedsnr" v="720918" />
	</node>
	<node id="-65870" lat="62.6212861097" lon="6.06388334253">
		<tag k="name" v="Innholmsøyla" />
		<tag k="place" v="locality" />
		<tag k="ssr:stedsnr" v="720916" />
	</node>
	<node id="-65869" lat="62.5932194482" lon="6.06141666444">
		<tag k="name" v="Jakobsgrynnet" />
		<tag k="natural" v="shoal" />
		<tag k="place" v="locality" />
		<tag k="ssr:stedsnr" v="720912" />
	</node>
	<node id="-65868" lat="62.6059444413" lon="6.01549443961">
		<tag k="name" v="Veteskolten" />
		<tag k="natural" v="shoal" />
		<tag k="place" v="locality" />
		<tag k="ssr:stedsnr" v="720909" />
	</node>
	<node id="-65867" lat="62.6230527798" lon="5.97179443608">
		<tag k="name" v="Stemskallen" />
		<tag k="natural" v="shoal" />
		<tag k="place" v="locality" />
		<tag k="ssr:stedsnr" v="720898" />
	</node>
	<node id="-65866" lat="62.5164444464" lon="5.9947944504">
		<tag k="name" v="Nyfallet" />
		<tag k="natural" v="shoal" />
		<tag k="place" v="locality" />
		<tag k="ssr:stedsnr" v="720487" />
	</node>
	<node id="-65865" lat="62.5136944484" lon="6.03498888346">
		<tag k="name" v="Samstadfluda" />
		<tag k="natural" v="shoal" />
		<tag k="place" v="locality" />
		<tag k="ssr:stedsnr" v="720483" />
	</node>
	<node id="-65864" lat="62.57464722" lon="6.00281943708">
		<tag k="name" v="Djupfluda" />
		<tag k="natural" v="shoal" />
		<tag k="place" v="locality" />
		<tag k="ssr:stedsnr" v="720470" />
	</node>
	<node id="-65863" lat="62.4495999996" lon="5.92141388312">
		<tag k="name" v="Stabben" />
		<tag k="natural" v="shoal" />
		<tag k="place" v="locality" />
		<tag k="ssr:stedsnr" v="720317" />
	</node>
	<node id="-65862" lat="62.5442861141" lon="5.98455277614">
		<tag k="name" v="Yngjesfluda" />
		<tag k="natural" v="shoal" />
		<tag k="place" v="locality" />
		<tag k="ssr:stedsnr" v="720122" />
	</node>
	<node id="-65861" lat="62.6419444481" lon="6.00570277842">
		<tag k="name" v="Søre Djupfallsgrynnet" />
		<tag k="natural" v="shoal" />
		<tag k="place" v="locality" />
		<tag k="ssr:stedsnr" v="719882" />
	</node>
	<node id="-65860" lat="62.4849670321" lon="5.97349680801">
		<tag k="fixme" v="consider place=hamlet" />
		<tag k="name" v="Alnes" />
		<tag k="place" v="farm" />
		<tag k="ssr:stedsnr" v="586880" />
	</node>
	<node id="-65859" lat="62.6125000039" lon="5.54333334077">
		<tag k="name" v="Synesgrunnen" />
		<tag k="natural" v="shoal" />
		<tag k="place" v="locality" />
		<tag k="ssr:stedsnr" v="709638" />
	</node>
	<node id="-65858" lat="62.5482666639" lon="5.94266943519">
		<tag k="name" v="Kalvehola" />
		<tag k="natural" v="bay" />
		<tag k="ssr:stedsnr" v="581257" />
	</node>
	<node id="-65857" lat="62.5514194468" lon="6.00876389092">
		<tag k="name" v="Haggardsvika" />
		<tag k="natural" v="bay" />
		<tag k="ssr:stedsnr" v="581256" />
	</node>
	<node id="-65856" lat="62.4986500016" lon="6.03364444895">
		<tag k="fixme" v="consider seamark:type=rock or natural=shoal" />
		<tag k="name" v="Skarvesteinane" />
		<tag k="place" v="islet" />
		<tag k="ssr:stedsnr" v="581254" />
	</node>
	<node id="-65854" lat="62.5137527752" lon="6.10373056304">
		<tag k="leisure" v="pitch" />
		<tag k="name" v="Valdervoll" />
		<tag k="ssr:stedsnr" v="573542" />
	</node>
	<node id="-65853" lat="62.5881805544" lon="6.09742777485">
		<tag k="name" v="Heland" />
		<tag k="natural" v="hill" />
		<tag k="place" v="locality" />
		<tag k="ssr:stedsnr" v="703998" />
	</node>
	<node id="-65852" lat="62.551208333" lon="6.0253249937">
		<tag k="name" v="Falketua" />
		<tag k="natural" v="hill" />
		<tag k="place" v="locality" />
		<tag k="ssr:stedsnr" v="703995" />
	</node>
	<node id="-65851" lat="62.5391666658" lon="6.02057777372">
		<tag k="name" v="Buggane" />
		<tag k="natural" v="hill" />
		<tag k="place" v="locality" />
		<tag k="ssr:stedsnr" v="703993" />
	</node>
	<node id="-65850" lat="62.5641166645" lon="6.12457777878">
		<tag k="name" v="Sletta" />
		<tag k="place" v="locality" />
		<tag k="ssr:stedsnr" v="703989" />
	</node>
	<node id="-65849" lat="62.5870027811" lon="6.12153610756">
		<tag k="name" v="Rotmyrhaugen" />
		<tag k="natural" v="hill" />
		<tag k="place" v="locality" />
		<tag k="ssr:stedsnr" v="703983" />
	</node>
	<node id="-65848" lat="62.5690388929" lon="6.06035278638">
		<tag k="name" v="Storbåtvika" />
		<tag k="natural" v="bay" />
		<tag k="ssr:stedsnr" v="703980" />
	</node>
	<node id="-65847" lat="62.5855083363" lon="6.09158611633">
		<tag k="name" v="Storehornet" />
		<tag k="natural" v="hill" />
		<tag k="place" v="locality" />
		<tag k="ssr:stedsnr" v="703965" />
	</node>
	<node id="-65846" lat="62.5844305523" lon="6.09761666739">
		<tag k="name" v="Litlehornet" />
		<tag k="natural" v="hill" />
		<tag k="place" v="locality" />
		<tag k="ssr:stedsnr" v="703957" />
	</node>
	<node id="-65845" lat="62.5585916677" lon="6.09040834066">
		<tag k="name" v="Raudedeplane" />
		<tag k="natural" v="wetland" />
		<tag k="ssr:stedsnr" v="703952" />
	</node>
	<node id="-65844" lat="62.5493083318" lon="6.07995832719">
		<tag k="name" v="Vikeneset" />
		<tag k="natural" v="cape" />
		<tag k="ssr:stedsnr" v="703950" />
	</node>
	<node id="-65843" lat="62.5536805515" lon="6.10459166703">
		<tag k="name" v="Stormyrteigane" />
		<tag k="natural" v="wetland" />
		<tag k="ssr:stedsnr" v="703944" />
	</node>
	<node id="-65842" lat="62.5573194438" lon="6.11657221585">
		<tag k="name" v="Storemålshaugen" />
		<tag k="natural" v="hill" />
		<tag k="place" v="locality" />
		<tag k="ssr:stedsnr" v="703941" />
	</node>
	<node id="-65841" lat="62.5515527782" lon="6.05566389197">
		<tag k="name" v="Røssvika" />
		<tag k="place" v="farm" />
		<tag k="ssr:stedsnr" v="703892" />
	</node>
	<node id="-65840" lat="62.5206944428" lon="6.13473054769">
		<tag k="name" v="Oksnes" />
		<tag k="place" v="farm" />
		<tag k="ssr:stedsnr" v="703890" />
	</node>
	<node id="-65839" lat="62.5524222234" lon="6.03860000893">
		<tag k="name" v="Middagstua" />
		<tag k="natural" v="hill" />
		<tag k="place" v="locality" />
		<tag k="ssr:stedsnr" v="703282" />
	</node>
	<node id="-65838" lat="62.5397500003" lon="6.02354722904">
		<tag k="name" v="Selikhammaren" />
		<tag k="natural" v="hill" />
		<tag k="place" v="locality" />
		<tag k="ssr:stedsnr" v="703271" />
	</node>
	<node id="-65837" lat="62.5380472198" lon="6.03503332562">
		<tag k="name" v="Gåsholmen" />
		<tag k="place" v="islet" />
		<tag k="ssr:stedsnr" v="703270" />
	</node>
	<node id="-65836" lat="62.5515749996" lon="6.02454721882">
		<tag k="name" v="Seljedalen" />
		<tag k="natural" v="valley" />
		<tag k="place" v="locality" />
		<tag k="ssr:stedsnr" v="703266" />
	</node>
	<node id="-65835" lat="62.5590611125" lon="6.03165277506">
		<tag k="name" v="Nøre Støholmen" />
		<tag k="place" v="islet" />
		<tag k="ssr:stedsnr" v="703136" />
	</node>
	<node id="-65834" lat="62.4661527762" lon="5.94625832901">
		<tag k="name" v="Moldagjølet" />
		<tag k="natural" v="gorge" />
		<tag k="ssr:stedsnr" v="703127" />
	</node>
	<node id="-65833" lat="62.5556500029" lon="6.02909166415">
		<tag k="name" v="Budaberget" />
		<tag k="natural" v="cape" />
		<tag k="ssr:stedsnr" v="702203" />
	</node>
	<node id="-65832" lat="62.5144027761" lon="6.09318889232">
		<tag k="name" v="Hustruhamnklubben" />
		<tag k="natural" v="cape" />
		<tag k="ssr:stedsnr" v="702182" />
	</node>
	<node id="-65831" lat="62.5518944442" lon="6.01088889802">
		<tag k="name" v="Brimneset" />
		<tag k="natural" v="cape" />
		<tag k="ssr:stedsnr" v="557768" />
	</node>
	<node id="-65830" lat="62.5288861077" lon="6.12574166387">
		<tag k="name" v="Gjøsundsundet" />
		<tag k="natural" v="strait" />
		<tag k="ssr:stedsnr" v="557764" />
	</node>
	<node id="-65829" lat="62.5332527776" lon="6.1320111083">
		<tag k="name" v="Olmannsvika" />
		<tag k="natural" v="bay" />
		<tag k="ssr:stedsnr" v="557762" />
	</node>
	<node id="-65828" lat="62.5348333301" lon="6.01627500294">
		<tag k="fixme" v="consider seamark:type=rock or natural=shoal" />
		<tag k="name" v="Kvalen" />
		<tag k="place" v="islet" />
		<tag k="ssr:stedsnr" v="557755" />
	</node>
	<node id="-65827" lat="62.613036107" lon="5.81912500107">
		<tag k="name" v="Litledjupet" />
		<tag k="place" v="locality" />
		<tag k="ssr:stedsnr" v="692596" />
	</node>
	<node id="-65826" lat="62.5032611113" lon="5.79586110434">
		<tag k="alt_name" v="Dyneskallen" />
		<tag k="name" v="Dyngeskallen" />
		<tag k="natural" v="shoal" />
		<tag k="place" v="locality" />
		<tag k="ssr:stedsnr" v="692584" />
	</node>
	<node id="-65825" lat="62.5883972265" lon="6.02500834257">
		<tag k="name" v="Oleperskallen" />
		<tag k="natural" v="shoal" />
		<tag k="place" v="locality" />
		<tag k="ssr:stedsnr" v="537408" />
	</node>
	<node id="-65824" lat="62.5074111151" lon="5.97626945161">
		<tag k="name" v="Giskesundet" />
		<tag k="natural" v="strait" />
		<tag k="ssr:stedsnr" v="687223" />
	</node>
	<node id="-65823" lat="62.6447972204" lon="5.92057222692">
		<tag k="name" v="Skarvholmen" />
		<tag k="place" v="islet" />
		<tag k="ssr:stedsnr" v="497683" />
	</node>
	<node id="-65822" lat="62.6693166625" lon="5.94537777023">
		<tag k="name" v="Skoreggskollane" />
		<tag k="natural" v="shoal" />
		<tag k="place" v="locality" />
		<tag k="ssr:stedsnr" v="497668" />
	</node>
	<node id="-65821" lat="62.5828972179" lon="6.07299167183">
		<tag k="name" v="Naustneset" />
		<tag k="natural" v="cape" />
		<tag k="ssr:stedsnr" v="496804" />
	</node>
	<node id="-65820" lat="62.53778333" lon="6.02811944155">
		<tag k="fixme" v="consider place=hamlet" />
		<tag k="name" v="Synes" />
		<tag k="place" v="village" />
		<tag k="ssr:stedsnr" v="679741" />
	</node>
	<node id="-65819" lat="62.5350777764" lon="6.0234472187">
		<tag k="fixme" v="consider seamark:type=rock or natural=shoal" />
		<tag k="name" v="Skinnprikka" />
		<tag k="place" v="islet" />
		<tag k="ssr:stedsnr" v="679740" />
	</node>
	<node id="-65818" lat="62.5135944462" lon="6.09431389696">
		<tag k="name" v="Hustruhamna" />
		<tag k="natural" v="bay" />
		<tag k="ssr:stedsnr" v="679738" />
	</node>
	<node id="-65817" lat="62.4763944424" lon="6.0403805618">
		<tag k="name" v="Godøya" />
		<tag k="place" v="island" />
		<tag k="ssr:stedsnr" v="678998" />
	</node>
	<node id="-65816" lat="62.4782250017" lon="5.99623055237">
		<tag k="name" v="Litlevatnet" />
		<tag k="natural" v="water" />
		<tag k="ssr:stedsnr" v="678983" />
	</node>
	<node id="-65815" lat="62.5585361146" lon="5.91470833709">
		<tag k="fixme" v="consider seamark:type=rock or natural=shoal" />
		<tag k="name" v="Dyngja" />
		<tag k="place" v="islet" />
		<tag k="ssr:stedsnr" v="678781" />
	</node>
	<node id="-65814" lat="62.4796277805" lon="6.03186945122">
		<tag k="loc_name" v="Leitebakk" />
		<tag k="name" v="Leitebakken" />
		<tag k="place" v="quarter" />
		<tag k="ssr:stedsnr" v="483805" />
	</node>
	<node id="-65813" lat="62.6185055522" lon="5.95554166619">
		<tag k="name" v="Lakseskallane" />
		<tag k="natural" v="shoal" />
		<tag k="place" v="locality" />
		<tag k="ssr:stedsnr" v="477921" />
	</node>
	<node id="-65812" lat="62.5157972182" lon="6.00271110342">
		<tag k="name" v="Revsteinen" />
		<tag k="natural" v="shoal" />
		<tag k="place" v="locality" />
		<tag k="ssr:stedsnr" v="477506" />
	</node>
	<node id="-65811" lat="62.5136833323" lon="5.99417777319">
		<tag k="name" v="Hellebardane" />
		<tag k="natural" v="shoal" />
		<tag k="place" v="locality" />
		<tag k="ssr:stedsnr" v="477504" />
	</node>
	<node id="-65810" lat="62.5643722203" lon="6.00708610583">
		<tag k="name" v="Røysvikstabben" />
		<tag k="natural" v="shoal" />
		<tag k="place" v="locality" />
		<tag k="ssr:stedsnr" v="477475" />
	</node>
	<node id="-65809" lat="62.4632138895" lon="6.03134444828">
		<tag k="fixme" v="consider seamark:type=rock or natural=shoal" />
		<tag k="name" v="Høgsteinen" />
		<tag k="place" v="islet" />
		<tag k="ssr:stedsnr" v="476925" />
	</node>
	<node id="-65808" lat="62.4556000038" lon="6.02864999939">
		<tag k="name" v="Revskallen" />
		<tag k="natural" v="shoal" />
		<tag k="place" v="locality" />
		<tag k="ssr:stedsnr" v="476570" />
	</node>
	<node id="-65807" lat="62.6958333351" lon="5.40666666702">
		<tag k="name" v="Piparseta" />
		<tag k="place" v="locality" />
		<tag k="ssr:stedsnr" v="466658" />
	</node>
	<node id="-65806" lat="62.4834750006" lon="6.03117222463">
		<tag k="name" v="Slettebakken" />
		<tag k="natural" v="slope" />
		<tag k="place" v="locality" />
		<tag k="ssr:stedsnr" v="460169" />
	</node>
	<node id="-65805" lat="62.5812333375" lon="6.126622228">
		<tag k="landuse" v="harbour" />
		<tag k="name" v="Roald hamn" />
		<tag k="seamark:type" v="harbour" />
		<tag k="ssr:stedsnr" v="460163" />
	</node>
	<node id="-65804" lat="62.4948861139" lon="6.120063895">
		<tag k="name" v="Knuteneset" />
		<tag k="natural" v="cape" />
		<tag k="ssr:stedsnr" v="663001" />
	</node>
	<node id="-65803" lat="62.50898333" lon="6.1043888798">
		<tag k="bridge" v="yes" />
		<tag k="layer" v="1" />
		<tag k="name" v="Ytterlandsbrua" />
		<tag k="ssr:stedsnr" v="452336" />
	</node>
	<node id="-65802" lat="62.6170916673" lon="6.06638610843">
		<tag k="name" v="Skuleskallen" />
		<tag k="natural" v="shoal" />
		<tag k="place" v="locality" />
		<tag k="ssr:stedsnr" v="450644" />
	</node>
	<node id="-65801" lat="62.5712500032" lon="5.89856944637">
		<tag k="name" v="Blimsbåen" />
		<tag k="place" v="locality" />
		<tag k="seamark:type" v="rock" />
		<tag k="ssr:stedsnr" v="450636" />
	</node>
	<node id="-65800" lat="62.6301361099" lon="5.90623334045">
		<tag k="name" v="Djupsøyla" />
		<tag k="place" v="locality" />
		<tag k="ssr:stedsnr" v="659026" />
	</node>
	<node id="-65799" lat="62.5554194429" lon="5.95035833946">
		<tag k="name" v="Stampen" />
		<tag k="natural" v="shoal" />
		<tag k="place" v="locality" />
		<tag k="ssr:stedsnr" v="659117" />
	</node>
	<node id="-65798" lat="62.5621972183" lon="5.89949444012">
		<tag k="name" v="Dyngjeskallen" />
		<tag k="natural" v="shoal" />
		<tag k="place" v="locality" />
		<tag k="ssr:stedsnr" v="659116" />
	</node>
	<node id="-65797" lat="62.611213887" lon="5.73107499841">
		<tag k="name" v="Svaet" />
		<tag k="natural" v="shoal" />
		<tag k="place" v="locality" />
		<tag k="ssr:stedsnr" v="659014" />
	</node>
	<node id="-65796" lat="62.5917166707" lon="5.73836667366">
		<tag k="name" v="Nyskallen" />
		<tag k="natural" v="shoal" />
		<tag k="place" v="locality" />
		<tag k="ssr:stedsnr" v="659010" />
	</node>
	<node id="-65795" lat="62.5387416688" lon="5.69224444846">
		<tag k="name" v="Sildestøbotnen" />
		<tag k="place" v="locality" />
		<tag k="ssr:stedsnr" v="659009" />
	</node>
	<node id="-65794" lat="62.5581055569" lon="5.87060554689">
		<tag k="name" v="Leiafalla" />
		<tag k="natural" v="shoal" />
		<tag k="place" v="locality" />
		<tag k="ssr:stedsnr" v="659002" />
	</node>
	<node id="-65793" lat="62.5413972177" lon="6.06672221944">
		<tag k="name" v="Fugleneset" />
		<tag k="natural" v="cape" />
		<tag k="ssr:stedsnr" v="513559" />
	</node>
	<node id="-65792" lat="62.5777500022" lon="6.01974444562">
		<tag k="name" v="Grynnet" />
		<tag k="natural" v="shoal" />
		<tag k="place" v="locality" />
		<tag k="ssr:stedsnr" v="416413" />
	</node>
	<node id="-65791" lat="62.5078249995" lon="5.89447778366">
		<tag k="name" v="Alnesbreidfluda" />
		<tag k="place" v="locality" />
		<tag k="seamark:type" v="rock" />
		<tag k="ssr:stedsnr" v="510633" />
	</node>
	<node id="-65790" lat="62.5548805577" lon="6.07992499903">
		<tag k="name" v="Makkestiveita" />
		<tag k="ssr:stedsnr" v="399939" />
		<tag k="waterway" v="drain" />
	</node>
	<node id="-65789" lat="62.5654916658" lon="6.11713332429">
		<tag k="name" v="Tjymyra" />
		<tag k="natural" v="wetland" />
		<tag k="ssr:stedsnr" v="399933" />
	</node>
	<node id="-65788" lat="62.5608527823" lon="6.11776666847">
		<tag k="name" v="Litlemålshaugen" />
		<tag k="natural" v="hill" />
		<tag k="place" v="locality" />
		<tag k="ssr:stedsnr" v="399932" />
	</node>
	<node id="-65787" lat="62.5109798129" lon="6.1013241223">
		<tag k="layer" v="-1" />
		<tag k="name" v="Volstadundergangen" />
		<tag k="ssr:stedsnr" v="391353" />
		<tag k="tunnel" v="yes" />
	</node>
	<node id="-65786" lat="62.5288722225" lon="6.02133332787">
		<tag k="name" v="Synesvikane" />
		<tag k="place" v="sea" />
		<tag k="ssr:stedsnr" v="384453" />
	</node>
	<node id="-65785" lat="62.5612252196" lon="6.05707911918">
		<tag k="fixme" v="consider place=hamlet" />
		<tag k="name" v="Blindheim" />
		<tag k="place" v="farm" />
		<tag k="ssr:stedsnr" v="375772" />
	</node>
	<node id="-65784" lat="62.5533444416" lon="5.86555832938">
		<tag k="fixme" v="consider seamark:type=rock or natural=shoal" />
		<tag k="name" v="Skipbyggjaren" />
		<tag k="place" v="islet" />
		<tag k="ssr:stedsnr" v="375768" />
	</node>
	<node id="-65783" lat="62.5447944479" lon="6.01105833191">
		<tag k="name" v="Synesholmen" />
		<tag k="place" v="islet" />
		<tag k="ssr:stedsnr" v="375766" />
	</node>
	<node id="-65782" lat="62.520816665" lon="6.09839167173">
		<tag k="name" v="Haggardsvika" />
		<tag k="natural" v="bay" />
		<tag k="ssr:stedsnr" v="497771" />
	</node>
	<node id="-65781" lat="62.521825002" lon="6.10408611232">
		<tag k="fixme" v="consider natural=peak for the most distinct mountains in the district" />
		<tag k="name" v="Storefjellet" />
		<tag k="natural" v="hill" />
		<tag k="place" v="locality" />
		<tag k="ssr:stedsnr" v="497769" />
	</node>
	<node id="-65779" lat="62.5119416654" lon="5.93443332529">
		<tag k="fixme" v="consider seamark:type=rock or natural=shoal" />
		<tag k="name" v="Kråka" />
		<tag k="place" v="islet" />
		<tag k="ssr:stedsnr" v="497765" />
	</node>
	<node id="-65778" lat="62.5068194419" lon="6.0848111073">
		<tag k="name" v="Skjongholmen" />
		<tag k="place" v="islet" />
		<tag k="ssr:stedsnr" v="497757" />
	</node>
	<node id="-65777" lat="62.5037027765" lon="6.11470276928">
		<tag k="name" v="Skjongskaret" />
		<tag k="natural" v="valley" />
		<tag k="place" v="locality" />
		<tag k="ssr:stedsnr" v="497748" />
	</node>
	<node id="-65776" lat="62.4829166699" lon="6.04043332406">
		<tag k="name" v="Valkvæ" />
		<tag k="place" v="farm" />
		<tag k="ssr:stedsnr" v="496990" />
	</node>
	<node id="-65775" lat="62.5625499999" lon="6.03678055666">
		<tag k="name" v="Tørneset" />
		<tag k="natural" v="cape" />
		<tag k="ssr:stedsnr" v="496800" />
	</node>
	<node id="-65774" lat="62.5547944469" lon="5.93950000912">
		<tag k="name" v="Lemba" />
		<tag k="natural" v="cape" />
		<tag k="ssr:stedsnr" v="496790" />
	</node>
	<node id="-65773" lat="62.545536107" lon="6.07335556204">
		<tag k="name" v="Vikane" />
		<tag k="natural" v="bay" />
		<tag k="ssr:stedsnr" v="496785" />
	</node>
	<node id="-65772" lat="62.6438916691" lon="6.0317222259">
		<tag k="name" v="Stadskallen" />
		<tag k="natural" v="shoal" />
		<tag k="place" v="locality" />
		<tag k="ssr:stedsnr" v="354913" />
	</node>
	<node id="-65771" lat="62.4642944459" lon="5.98375832931">
		<tag k="name" v="Gardsendberget" />
		<tag k="natural" v="cape" />
		<tag k="ssr:stedsnr" v="338122" />
	</node>
	<node id="-65770" lat="62.4758361149" lon="5.99118334116">
		<tag k="name" v="Mørkedalen" />
		<tag k="natural" v="valley" />
		<tag k="place" v="locality" />
		<tag k="ssr:stedsnr" v="338115" />
	</node>
	<node id="-65769" lat="62.5373166661" lon="6.02026666798">
		<tag k="name" v="Storhaugen" />
		<tag k="natural" v="hill" />
		<tag k="place" v="locality" />
		<tag k="ssr:stedsnr" v="338203" />
	</node>
	<node id="-65768" lat="62.4713750042" lon="5.94751666714">
		<tag k="name" v="Måsegjølet" />
		<tag k="natural" v="gorge" />
		<tag k="ssr:stedsnr" v="338100" />
	</node>
	<node id="-65767" lat="62.5953166662" lon="5.97401666762">
		<tag k="name" v="Sandbakkane" />
		<tag k="place" v="locality" />
		<tag k="seamark:type" v="rock" />
		<tag k="ssr:stedsnr" v="328606" />
	</node>
	<node id="-65766" lat="62.5922361126" lon="5.99576666469">
		<tag k="name" v="Knutskallen" />
		<tag k="place" v="locality" />
		<tag k="seamark:type" v="rock" />
		<tag k="ssr:stedsnr" v="328605" />
	</node>
	<node id="-65765" lat="62.5824777773" lon="6.06117221359">
		<tag k="name" v="Naustfluda" />
		<tag k="natural" v="shoal" />
		<tag k="place" v="locality" />
		<tag k="ssr:stedsnr" v="477431" />
	</node>
	<node id="-65764" lat="62.6281666634" lon="5.86981388254">
		<tag k="name" v="Steinsgrynnsøyla" />
		<tag k="place" v="locality" />
		<tag k="ssr:stedsnr" v="477020" />
	</node>
	<node id="-65763" lat="62.5137380396" lon="6.06331544506">
		<tag k="fixme" v="consider place=hamlet" />
		<tag k="name" v="Staurneset" />
		<tag k="place" v="farm" />
		<tag k="ssr:stedsnr" v="475700" />
	</node>
	<node id="-65762" lat="62.519061108" lon="6.10453055984">
		<tag k="name" v="Skjonghelleren" />
		<tag k="place" v="locality" />
		<tag k="ssr:stedsnr" v="315766" />
	</node>
	<node id="-65761" lat="62.5053333341" lon="6.15039166792">
		<tag k="name" v="Kjeholmen" />
		<tag k="place" v="islet" />
		<tag k="ssr:stedsnr" v="315753" />
	</node>
	<node id="-65760" lat="62.6428805531" lon="5.91921111638">
		<tag k="name" v="Måseholmen" />
		<tag k="place" v="islet" />
		<tag k="ssr:stedsnr" v="315707" />
	</node>
	<node id="-65759" lat="62.5852055542" lon="6.1280500093">
		<tag k="name" v="Klimpen" />
		<tag k="natural" v="cape" />
		<tag k="ssr:stedsnr" v="460999" />
	</node>
	<node id="-65758" lat="62.5120444445" lon="6.03920556328">
		<tag k="name" v="Onholmen" />
		<tag k="place" v="islet" />
		<tag k="ssr:stedsnr" v="460998" />
	</node>
	<node id="-65757" lat="62.5637916653" lon="6.05010277657">
		<tag k="name" v="Brenne" />
		<tag k="natural" v="beach" />
		<tag k="place" v="locality" />
		<tag k="ssr:stedsnr" v="460996" />
	</node>
	<node id="-65756" lat="62.5371722197" lon="6.01640277535">
		<tag k="name" v="Viddene" />
		<tag k="natural" v="hill" />
		<tag k="place" v="locality" />
		<tag k="ssr:stedsnr" v="460993" />
	</node>
	<node id="-65755" lat="62.5488166647" lon="6.04831944338">
		<tag k="name" v="Brauta" />
		<tag k="natural" v="slope" />
		<tag k="place" v="locality" />
		<tag k="ssr:stedsnr" v="460991" />
	</node>
	<node id="-65754" lat="62.5841194457" lon="6.08654445167">
		<tag k="name" v="Deplane" />
		<tag k="place" v="locality" />
		<tag k="ssr:stedsnr" v="460960" />
	</node>
	<node id="-65753" lat="62.560666668" lon="6.03618333297">
		<tag k="name" v="Omnhola" />
		<tag k="natural" v="valley" />
		<tag k="place" v="locality" />
		<tag k="ssr:stedsnr" v="460913" />
	</node>
	<node id="-65752" lat="62.5552916647" lon="6.02854721631">
		<tag k="name" v="Grisvika" />
		<tag k="natural" v="bay" />
		<tag k="ssr:stedsnr" v="460910" />
	</node>
	<node id="-65751" lat="62.4844833375" lon="5.97046945107">
		<tag k="name" v="Bautane" />
		<tag k="natural" v="slope" />
		<tag k="place" v="locality" />
		<tag k="ssr:stedsnr" v="460907" />
	</node>
	<node id="-65750" lat="62.473922224" lon="5.97021111777">
		<tag k="name" v="Kvia" />
		<tag k="natural" v="cape" />
		<tag k="ssr:stedsnr" v="460906" />
	</node>
	<node id="-65749" lat="62.4831888934" lon="6.03520555686">
		<tag k="name" v="Gjøta" />
		<tag k="natural" v="bay" />
		<tag k="ssr:stedsnr" v="460905" />
	</node>
	<node id="-65748" lat="62.4708194443" lon="6.01218610593">
		<tag k="name" v="Stølane" />
		<tag k="place" v="locality" />
		<tag k="ssr:stedsnr" v="460903" />
	</node>
	<node id="-65747" lat="62.5089046731" lon="6.03851595303">
		<tag k="fixme" v="consider place=hamlet" />
		<tag k="name" v="Giskeøydgarden" />
		<tag k="place" v="farm" />
		<tag k="ssr:stedsnr" v="460900" />
	</node>
	<node id="-65746" lat="62.4994305534" lon="6.04714722401">
		<tag k="name" v="Ørnebakken" />
		<tag k="natural" v="slope" />
		<tag k="place" v="locality" />
		<tag k="ssr:stedsnr" v="460277" />
	</node>
	<node id="-65745" lat="62.5613500009" lon="6.03546389686">
		<tag k="name" v="Røssviksanden" />
		<tag k="natural" v="beach" />
		<tag k="place" v="locality" />
		<tag k="ssr:stedsnr" v="460272" />
	</node>
	<node id="-65744" lat="62.5209277742" lon="6.11578056099">
		<tag k="name" v="Kråkereirfjellet" />
		<tag k="natural" v="hill" />
		<tag k="place" v="locality" />
		<tag k="ssr:stedsnr" v="460234" />
	</node>
	<node id="-65743" lat="62.4654583315" lon="5.96653332885">
		<tag k="name" v="Trøsvikgjølet" />
		<tag k="natural" v="gorge" />
		<tag k="ssr:stedsnr" v="460198" />
	</node>
	<node id="-65742" lat="62.4771138918" lon="5.99819722964">
		<tag k="name" v="Litlevassbruna" />
		<tag k="place" v="locality" />
		<tag k="ssr:stedsnr" v="460188" />
	</node>
	<node id="-65741" lat="62.4648499976" lon="6.03178888879">
		<tag k="name" v="Høgsteinneset" />
		<tag k="natural" v="cape" />
		<tag k="ssr:stedsnr" v="460178" />
	</node>
	<node id="-65740" lat="62.4819138928" lon="5.95463610458">
		<tag k="name" v="Hestholmen" />
		<tag k="place" v="islet" />
		<tag k="ssr:stedsnr" v="460173" />
	</node>
	<node id="-65739" lat="62.5392333293" lon="6.04499722172">
		<tag k="fixme" v="verify maritime location" />
		<tag k="mooring" v="yes" />
		<tag k="name" v="Tindestøa" />
		<tag k="place" v="locality" />
		<tag k="ssr:stedsnr" v="278260" />
	</node>
	<node id="-65738" lat="62.5407388901" lon="6.03536111215">
		<tag k="name" v="Sendingane" />
		<tag k="place" v="locality" />
		<tag k="ssr:stedsnr" v="278257" />
	</node>
	<node id="-65737" lat="62.5505805526" lon="5.94075555319">
		<tag k="name" v="Erknaskaret" />
		<tag k="natural" v="valley" />
		<tag k="place" v="locality" />
		<tag k="ssr:stedsnr" v="278243" />
	</node>
	<node id="-65736" lat="62.5143361112" lon="6.10569166329">
		<tag k="name" v="Trollkjelen" />
		<tag k="natural" v="valley" />
		<tag k="place" v="locality" />
		<tag k="ssr:stedsnr" v="278218" />
	</node>
	<node id="-65735" lat="62.523050004" lon="6.10106666173">
		<tag k="name" v="Slentreura" />
		<tag k="natural" v="scree" />
		<tag k="ssr:stedsnr" v="278211" />
	</node>
	<node id="-65734" lat="62.5804666635" lon="5.97065833084">
		<tag k="name" v="Heilskallen" />
		<tag k="natural" v="shoal" />
		<tag k="place" v="locality" />
		<tag k="ssr:stedsnr" v="267576" />
	</node>
	<node id="-65733" lat="62.5041138869" lon="6.00075833349">
		<tag k="name" v="Galtane" />
		<tag k="place" v="locality" />
		<tag k="seamark:type" v="rock" />
		<tag k="ssr:stedsnr" v="267608" />
	</node>
	<node id="-65732" lat="62.5699722215" lon="5.99478054699">
		<tag k="fixme" v="consider seamark:type=rock or natural=shoal" />
		<tag k="name" v="Gibba" />
		<tag k="place" v="islet" />
		<tag k="ssr:stedsnr" v="254776" />
	</node>
	<node id="-65731" lat="62.5599555583" lon="6.13278610774">
		<tag k="name" v="Rognodden" />
		<tag k="natural" v="cape" />
		<tag k="ssr:stedsnr" v="254771" />
	</node>
	<node id="-65730" lat="62.5579749976" lon="6.10383888155">
		<tag k="aeroway" v="aerodrome" />
		<tag k="alt_name" v="Vigra" />
		<tag k="name" v="Ålesund lufthavn, Vigra" />
		<tag k="old_name" v="Ålesund lufthavn" />
		<tag k="ssr:stedsnr" v="254761" />
	</node>
	<node id="-65729" lat="62.5483611073" lon="5.93813889611">
		<tag k="name" v="Hestevågen" />
		<tag k="natural" v="bay" />
		<tag k="ssr:stedsnr" v="254756" />
	</node>
	<node id="-65728" lat="62.5508166688" lon="5.92768888242">
		<tag k="fixme" v="consider seamark:type=rock or natural=shoal" />
		<tag k="name" v="Kråka" />
		<tag k="place" v="islet" />
		<tag k="ssr:stedsnr" v="254755" />
	</node>
	<node id="-65726" lat="62.5076000014" lon="6.08129167388">
		<tag k="bridge" v="yes" />
		<tag k="layer" v="1" />
		<tag k="name" v="Giskebrua" />
		<tag k="ssr:stedsnr" v="452347" />
	</node>
	<node id="-65725" lat="62.6065000033" lon="6.1113138914">
		<tag k="fixme" v="consider seamark:type=rock or natural=shoal" />
		<tag k="name" v="Flatskjeret" />
		<tag k="place" v="islet" />
		<tag k="ssr:stedsnr" v="445233" />
	</node>
	<node id="-65724" lat="62.6426916681" lon="5.92368333231">
		<tag k="name" v="Storholmen" />
		<tag k="place" v="islet" />
		<tag k="ssr:stedsnr" v="234018" />
	</node>
	<node id="-65723" lat="62.6198249986" lon="5.941072229">
		<tag k="name" v="Tosellskallen" />
		<tag k="natural" v="shoal" />
		<tag k="place" v="locality" />
		<tag k="ssr:stedsnr" v="234017" />
	</node>
	<node id="-65721" lat="62.5160749954" lon="6.17211110231">
		<tag k="name" v="Ramnehola" />
		<tag k="natural" v="strait" />
		<tag k="ssr:stedsnr" v="217219" />
	</node>
	<node id="-65720" lat="62.4947777758" lon="6.12467221563">
		<tag k="name" v="Lykkeneset" />
		<tag k="natural" v="cape" />
		<tag k="ssr:stedsnr" v="217205" />
	</node>
	<node id="-65719" lat="62.5754944421" lon="5.86936111977">
		<tag k="name" v="Knutsråsa" />
		<tag k="place" v="locality" />
		<tag k="ssr:stedsnr" v="295097" />
	</node>
	<node id="-65718" lat="62.661174999" lon="5.86666110765">
		<tag k="name" v="Steinsgrynnet" />
		<tag k="natural" v="shoal" />
		<tag k="place" v="locality" />
		<tag k="ssr:stedsnr" v="295026" />
	</node>
	<node id="-65717" lat="62.5681444434" lon="5.73995833757">
		<tag k="name" v="Nyskallen" />
		<tag k="natural" v="shoal" />
		<tag k="place" v="locality" />
		<tag k="ssr:stedsnr" v="295008" />
	</node>
	<node id="-65716" lat="62.606711115" lon="6.11628611117">
		<tag k="name" v="Flatskjergrunnane" />
		<tag k="natural" v="bay" />
		<tag k="ssr:stedsnr" v="294666" />
	</node>
	<node id="-65715" lat="62.4609250016" lon="5.94781945009">
		<tag k="name" v="Revsfluda" />
		<tag k="natural" v="shoal" />
		<tag k="place" v="locality" />
		<tag k="ssr:stedsnr" v="294613" />
	</node>
	<node id="-65714" lat="62.5866666667" lon="5.90305833627">
		<tag k="name" v="Langskallen" />
		<tag k="natural" v="shoal" />
		<tag k="place" v="locality" />
		<tag k="ssr:stedsnr" v="193809" />
	</node>
	<node id="-65713" lat="62.6972222211" lon="5.59999999127">
		<tag k="name" v="Heldet" />
		<tag k="natural" v="shoal" />
		<tag k="place" v="locality" />
		<tag k="ssr:stedsnr" v="285695" />
	</node>
	<node id="-65712" lat="62.6500000016" lon="5.55833332778">
		<tag k="name" v="Neteskallen" />
		<tag k="place" v="locality" />
		<tag k="ssr:stedsnr" v="285628" />
	</node>
	<node id="-65711" lat="62.4790333379" lon="6.0381972273">
		<tag k="name" v="Sandnesbakkane" />
		<tag k="place" v="quarter" />
		<tag k="ssr:stedsnr" v="180752" />
	</node>
	<node id="-65710" lat="62.5696722181" lon="6.02055276935">
		<tag k="name" v="Vikhunden" />
		<tag k="natural" v="shoal" />
		<tag k="place" v="locality" />
		<tag k="ssr:stedsnr" v="173421" />
	</node>
	<node id="-65709" lat="62.5800749989" lon="6.02354443727">
		<tag k="fixme" v="consider seamark:type=rock or natural=shoal" />
		<tag k="name" v="Barden" />
		<tag k="place" v="islet" />
		<tag k="ssr:stedsnr" v="173419" />
	</node>
	<node id="-65708" lat="62.5397277781" lon="6.12901111411">
		<tag k="name" v="Småhaugane" />
		<tag k="natural" v="hill" />
		<tag k="place" v="locality" />
		<tag k="ssr:stedsnr" v="278978" />
	</node>
	<node id="-65707" lat="62.5711777813" lon="6.09806388444">
		<tag k="name" v="Saueholmen" />
		<tag k="place" v="islet" />
		<tag k="ssr:stedsnr" v="278973" />
	</node>
	<node id="-65706" lat="62.588211115" lon="6.11044722339">
		<tag k="name" v="Budafjellet" />
		<tag k="natural" v="hill" />
		<tag k="place" v="locality" />
		<tag k="ssr:stedsnr" v="278969" />
	</node>
	<node id="-65705" lat="62.5498750032" lon="5.94592777285">
		<tag k="name" v="Mølen" />
		<tag k="natural" v="beach" />
		<tag k="place" v="locality" />
		<tag k="ssr:stedsnr" v="278906" />
	</node>
	<node id="-65704" lat="62.4627944425" lon="5.95720000221">
		<tag k="name" v="Kallen" />
		<tag k="natural" v="cape" />
		<tag k="ssr:stedsnr" v="278903" />
	</node>
	<node id="-65703" lat="62.4639944451" lon="5.98153611373">
		<tag k="name" v="Breivika" />
		<tag k="natural" v="bay" />
		<tag k="ssr:stedsnr" v="278901" />
	</node>
	<node id="-65702" lat="62.5163333294" lon="6.13271944579">
		<tag k="name" v="Skinvik" />
		<tag k="place" v="farm" />
		<tag k="ssr:stedsnr" v="278893" />
	</node>
	<node id="-65701" lat="62.5359277795" lon="6.0262527831">
		<tag k="name" v="Pettersnagen" />
		<tag k="natural" v="cape" />
		<tag k="ssr:stedsnr" v="278277" />
	</node>
	<node id="-65700" lat="62.5606388893" lon="6.03361665907">
		<tag k="name" v="Rotnevika" />
		<tag k="natural" v="bay" />
		<tag k="ssr:stedsnr" v="278270" />
	</node>
	<node id="-65699" lat="62.5037527806" lon="6.08931665729">
		<tag k="name" v="Litleholmen" />
		<tag k="place" v="islet" />
		<tag k="ssr:stedsnr" v="278268" />
	</node>
	<node id="-65698" lat="62.5043666659" lon="6.05948889045">
		<tag k="name" v="Spelarhaugen" />
		<tag k="natural" v="hill" />
		<tag k="place" v="locality" />
		<tag k="ssr:stedsnr" v="278266" />
	</node>
	<node id="-65697" lat="62.518961111" lon="6.12000833137">
		<tag k="name" v="Middagstua" />
		<tag k="natural" v="hill" />
		<tag k="place" v="locality" />
		<tag k="ssr:stedsnr" v="278199" />
	</node>
	<node id="-65696" lat="62.4765861075" lon="5.94563888831">
		<tag k="name" v="Brimnesberga" />
		<tag k="natural" v="slope" />
		<tag k="place" v="locality" />
		<tag k="ssr:stedsnr" v="278156" />
	</node>
	<node id="-65695" lat="62.4789611104" lon="5.96649165872">
		<tag k="name" v="Svartehamaren" />
		<tag k="natural" v="cliff" />
		<tag k="ssr:stedsnr" v="278155" />
	</node>
	<node id="-65694" lat="62.5530055533" lon="6.0433611044">
		<tag k="name" v="Grinddalen" />
		<tag k="natural" v="valley" />
		<tag k="place" v="locality" />
		<tag k="ssr:stedsnr" v="156210" />
	</node>
	<node id="-65693" lat="62.5070750026" lon="6.05475278265">
		<tag k="name" v="Molddamsøyla" />
		<tag k="natural" v="water" />
		<tag k="ssr:stedsnr" v="156205" />
	</node>
	<node id="-65692" lat="62.6094083359" lon="5.73956389056">
		<tag k="name" v="Grunnskallen" />
		<tag k="natural" v="shoal" />
		<tag k="place" v="locality" />
		<tag k="ssr:stedsnr" v="146608" />
	</node>
	<node id="-65691" lat="62.5025333328" lon="6.10850555498">
		<tag k="name" v="Skjong" />
		<tag k="place" v="village" />
		<tag k="ssr:stedsnr" v="268131" />
	</node>
	<node id="-65690" lat="62.6219416688" lon="5.99861111085">
		<tag k="name" v="Nørdre Fluda" />
		<tag k="place" v="locality" />
		<tag k="seamark:type" v="rock" />
		<tag k="ssr:stedsnr" v="267589" />
	</node>
	<node id="-65689" lat="62.5465777766" lon="5.83984721668">
		<tag k="alt_name" v="Oddeboen" />
		<tag k="name" v="Oddebåen" />
		<tag k="place" v="locality" />
		<tag k="seamark:type" v="rock" />
		<tag k="ssr:stedsnr" v="267586" />
	</node>
	<node id="-65688" lat="62.5755666645" lon="6.0159888813">
		<tag k="fixme" v="consider seamark:type=rock or natural=shoal" />
		<tag k="name" v="Hildreøyane" />
		<tag k="place" v="islet" />
		<tag k="ssr:stedsnr" v="132808" />
	</node>
	<node id="-65687" lat="62.6103861105" lon="5.96310000037">
		<tag k="fixme" v="consider seamark:type=rock or natural=shoal" />
		<tag k="name" v="Mylloskjeret" />
		<tag k="place" v="islet" />
		<tag k="ssr:stedsnr" v="132711" />
	</node>
	<node id="-65686" lat="62.4790333379" lon="6.0381972273">
		<tag k="fixme" v="consider place=suburb, village or hamlet" />
		<tag k="name" v="Valkvæ" />
		<tag k="place" v="quarter" />
		<tag k="ssr:stedsnr" v="119810" />
	</node>
	<node id="-65685" lat="62.6431666628" lon="5.95398889198">
		<tag k="name" v="Rosseskallsøyla" />
		<tag k="place" v="locality" />
		<tag k="ssr:stedsnr" v="113017" />
	</node>
	<node id="-65684" lat="62.6563472233" lon="5.78141110632">
		<tag k="name" v="Kringlebakken" />
		<tag k="place" v="locality" />
		<tag k="ssr:stedsnr" v="113016" />
	</node>
	<node id="-65682" lat="62.585547223" lon="6.06955833865">
		<tag k="fixme" v="consider seamark:type=rock or natural=shoal" />
		<tag k="name" v="Skarveskjera" />
		<tag k="place" v="islet" />
		<tag k="ssr:stedsnr" v="96967" />
	</node>
	<node id="-65681" lat="62.5693194452" lon="6.10269166875">
		<tag k="name" v="Sendingane" />
		<tag k="place" v="locality" />
		<tag k="ssr:stedsnr" v="96959" />
	</node>
	<node id="-65680" lat="62.5803750032" lon="6.09660000791">
		<tag k="name" v="Molnesrema" />
		<tag k="natural" v="ridge" />
		<tag k="place" v="locality" />
		<tag k="ssr:stedsnr" v="96953" />
	</node>
	<node id="-65679" lat="62.5042499972" lon="6.05316111481">
		<tag k="name" v="Giskemyrane" />
		<tag k="natural" v="wetland" />
		<tag k="ssr:stedsnr" v="96264" />
	</node>
	<node id="-65678" lat="62.550247218" lon="6.02316666921">
		<tag k="name" v="Blokkehaugen" />
		<tag k="natural" v="hill" />
		<tag k="place" v="locality" />
		<tag k="ssr:stedsnr" v="96256" />
	</node>
	<node id="-65677" lat="62.549366663" lon="6.01825278109">
		<tag k="name" v="Leghaugen" />
		<tag k="natural" v="hill" />
		<tag k="place" v="locality" />
		<tag k="ssr:stedsnr" v="96255" />
	</node>
	<node id="-65676" lat="62.5213805517" lon="6.10399444875">
		<tag k="name" v="Kvitemannen" />
		<tag k="natural" v="hill" />
		<tag k="place" v="locality" />
		<tag k="ssr:stedsnr" v="96219" />
	</node>
	<node id="-65675" lat="62.4795722205" lon="6.00207222237">
		<tag k="name" v="Hundagjølet" />
		<tag k="natural" v="gorge" />
		<tag k="ssr:stedsnr" v="96159" />
	</node>
	<node id="-65674" lat="62.5113444436" lon="6.04290000888">
		<tag k="landuse" v="harbour" />
		<tag k="name" v="Øydgardshamna" />
		<tag k="seamark:type" v="harbour" />
		<tag k="ssr:stedsnr" v="96157" />
	</node>
	<node id="-65673" lat="62.4836944418" lon="6.0213472298">
		<tag k="alt_name" v="Haugberget;Haugberga" />
		<tag k="name" v="Haugen" />
		<tag k="natural" v="cape" />
		<tag k="ssr:stedsnr" v="254988" />
	</node>
	<node id="-65672" lat="62.4865083347" lon="5.96520278464">
		<tag k="name" v="Sandvika" />
		<tag k="natural" v="bay" />
		<tag k="ssr:stedsnr" v="254971" />
	</node>
	<node id="-65671" lat="62.5698250016" lon="6.1194944424">
		<tag k="name" v="Roaldssanden" />
		<tag k="place" v="farm" />
		<tag k="ssr:stedsnr" v="254784" />
	</node>
	<node id="-65670" lat="62.5713777748" lon="6.05611388737">
		<tag k="name" v="Saudholmen" />
		<tag k="place" v="islet" />
		<tag k="ssr:stedsnr" v="254781" />
	</node>
	<node id="-65668" lat="62.5483722219" lon="6.11603889051">
		<tag k="name" v="Myrane" />
		<tag k="natural" v="wetland" />
		<tag k="ssr:stedsnr" v="254746" />
	</node>
	<node id="-65667" lat="62.5255000027" lon="6.12462777618">
		<tag k="name" v="Blomvika" />
		<tag k="place" v="farm" />
		<tag k="ssr:stedsnr" v="254735" />
	</node>
	<node id="-65666" lat="62.5108722188" lon="6.16659444075">
		<tag k="name" v="Skinnbroka" />
		<tag k="place" v="islet" />
		<tag k="ssr:stedsnr" v="254724" />
	</node>
	<node id="-65665" lat="62.5121972209" lon="5.98313334166">
		<tag k="name" v="Hellesteinane" />
		<tag k="place" v="locality" />
		<tag k="seamark:type" v="rock" />
		<tag k="ssr:stedsnr" v="85565" />
	</node>
	<node id="-65664" lat="62.5307611097" lon="6.13186111429">
		<tag k="name" v="Gjøsundneset" />
		<tag k="natural" v="cape" />
		<tag k="ssr:stedsnr" v="72748" />
	</node>
	<node id="-65663" lat="62.5144621247" lon="6.06489298772">
		<tag k="name" v="Staurneset" />
		<tag k="natural" v="cape" />
		<tag k="ssr:stedsnr" v="72739" />
	</node>
	<node id="-65662" lat="62.5212055557" lon="6.13624167228">
		<tag k="name" v="Oksneset" />
		<tag k="place" v="quarter" />
		<tag k="ssr:stedsnr" v="241766" />
	</node>
	<node id="-65661" lat="62.5308527824" lon="6.12800278582">
		<tag k="name" v="Gjøsundneset industriområde" />
		<tag k="place" v="quarter" />
		<tag k="ssr:stedsnr" v="239381" />
	</node>
	<node id="-65660" lat="62.5285527781" lon="6.1196111047">
		<tag k="name" v="Sætra industriområde" />
		<tag k="place" v="quarter" />
		<tag k="ssr:stedsnr" v="59772" />
	</node>
	<node id="-65659" lat="62.6332138903" lon="5.69652778279">
		<tag k="name" v="Veten" />
		<tag k="place" v="locality" />
		<tag k="ssr:stedsnr" v="53007" />
	</node>
	<node id="-65658" lat="62.5962194482" lon="6.06010556416">
		<tag k="name" v="Godmora" />
		<tag k="natural" v="shoal" />
		<tag k="place" v="locality" />
		<tag k="ssr:stedsnr" v="52884" />
	</node>
	<node id="-65657" lat="62.6395777821" lon="6.02817222971">
		<tag k="name" v="Fjordmannsfallet" />
		<tag k="natural" v="shoal" />
		<tag k="place" v="locality" />
		<tag k="ssr:stedsnr" v="51912" />
	</node>
	<node id="-65656" lat="62.6024222216" lon="6.04627499434">
		<tag k="fixme" v="consider seamark:type=rock or natural=shoal" />
		<tag k="name" v="Jektefludskjeret" />
		<tag k="place" v="islet" />
		<tag k="ssr:stedsnr" v="234900" />
	</node>
	<node id="-65655" lat="62.4592583365" lon="6.04008055319">
		<tag k="name" v="Djupefluda" />
		<tag k="natural" v="shoal" />
		<tag k="place" v="locality" />
		<tag k="ssr:stedsnr" v="234563" />
	</node>
	<node id="-65654" lat="62.5176500022" lon="5.98611944618">
		<tag k="name" v="Nordre Leiasteinen" />
		<tag k="natural" v="shoal" />
		<tag k="place" v="locality" />
		<tag k="ssr:stedsnr" v="234464" />
	</node>
	<node id="-65653" lat="62.5729916637" lon="6.03601389039">
		<tag k="name" v="Kobbholmen" />
		<tag k="place" v="islet" />
		<tag k="ssr:stedsnr" v="234443" />
	</node>
	<node id="-65652" lat="62.5849888932" lon="6.07419167249">
		<tag k="name" v="Molneset" />
		<tag k="natural" v="cape" />
		<tag k="ssr:stedsnr" v="234440" />
	</node>
	<node id="-65651" lat="62.4967750014" lon="5.94320000857">
		<tag k="name" v="Veibostskallen" />
		<tag k="natural" v="shoal" />
		<tag k="place" v="locality" />
		<tag k="ssr:stedsnr" v="234307" />
	</node>
	<node id="-65650" lat="62.5353444464" lon="5.95908332944">
		<tag k="name" v="Synesstabben" />
		<tag k="natural" v="shoal" />
		<tag k="place" v="locality" />
		<tag k="ssr:stedsnr" v="234101" />
	</node>
	<node id="-65649" lat="62.7305555564" lon="5.6666666576">
		<tag k="name" v="Medseta" />
		<tag k="place" v="locality" />
		<tag k="ssr:stedsnr" v="42313" />
	</node>
	<node id="-65648" lat="62.5661499988" lon="6.0651194428">
		<tag k="name" v="Blindheimsfjellet" />
		<tag k="natural" v="hill" />
		<tag k="place" v="locality" />
		<tag k="ssr:stedsnr" v="11809" />
	</node>
	<node id="-65647" lat="62.5835984246" lon="6.08559083092">
		<tag k="fixme" v="consider place=hamlet" />
		<tag k="name" v="Molnes" />
		<tag k="place" v="farm" />
		<tag k="ssr:stedsnr" v="11803" />
	</node>
	<node id="-65646" lat="62.6031666626" lon="5.97978610316">
		<tag k="name" v="Dausken" />
		<tag k="natural" v="shoal" />
		<tag k="place" v="locality" />
		<tag k="ssr:stedsnr" v="11716" />
	</node>
	<node id="-65645" lat="62.5465777773" lon="6.02655277865">
		<tag k="name" v="Liaset" />
		<tag k="natural" v="hill" />
		<tag k="place" v="locality" />
		<tag k="ssr:stedsnr" v="217989" />
	</node>
	<node id="-65644" lat="62.511669447" lon="6.16064167132">
		<tag k="name" v="Kjelvika" />
		<tag k="natural" v="bay" />
		<tag k="ssr:stedsnr" v="217983" />
	</node>
	<node id="-65643" lat="62.5905805522" lon="6.10936110486">
		<tag k="name" v="Karmannsvågen" />
		<tag k="natural" v="bay" />
		<tag k="ssr:stedsnr" v="217962" />
	</node>
	<node id="-65642" lat="62.5657805569" lon="6.08397777559">
		<tag k="name" v="Kølvet" />
		<tag k="place" v="farm" />
		<tag k="ssr:stedsnr" v="217957" />
	</node>
	<node id="-65641" lat="62.5542000005" lon="6.05968887928">
		<tag k="name" v="Grønemyrane" />
		<tag k="natural" v="wetland" />
		<tag k="ssr:stedsnr" v="217952" />
	</node>
	<node id="-65640" lat="62.5566499957" lon="6.05603333404">
		<tag k="name" v="Svansvatnet" />
		<tag k="natural" v="water" />
		<tag k="ssr:stedsnr" v="217950" />
	</node>
	<node id="-65639" lat="62.4858111128" lon="6.05997222131">
		<tag k="name" v="Tangen" />
		<tag k="natural" v="cape" />
		<tag k="ssr:stedsnr" v="217859" />
	</node>
</osm>
