<?xml version="1.0" encoding="UTF-8"?>
<osm version="0.6" generator="osmapis">
	<node lat="62.51633332937913" lon="6.132719445793506" id="-7815">
		<tag k="name" v="Skinvik" />
		<tag k="place" v="farm" />
		<tag k="ssr:stedsnr" v="278893" />
	</node>
	<node lat="62.52518055363641" lon="6.11312777324307" id="-7848">
		<tag k="name" v="Stølen" />
		<tag k="place" v="farm" />
		<tag k="ssr:stedsnr" v="338860" />
	</node>
	<node lat="62.479627780512324" lon="6.031869451220841" id="-7897">
		<tag k="loc_name" v="Leitebakk" />
		<tag k="name" v="Leitebakken" />
		<tag k="place" v="quarter" />
		<tag k="ssr:stedsnr" v="483805" />
	</node>
	<node lat="62.501277777550065" lon="6.047627782997378" id="-7920">
		<tag k="name" v="Myra" />
		<tag k="place" v="farm" />
		<tag k="ssr:stedsnr" v="537468" />
	</node>
	<node lat="62.50070278203399" lon="6.13460000299857" id="-7932">
		<tag k="amenity" v="townhall" />
		<tag k="name" v="Giske Rådhus" />
		<tag k="ssr:stedsnr" v="581158" />
	</node>
	<node lat="62.58152777463723" lon="6.105161118629581" id="-7937">
		<tag k="name" v="Aglasgjerdet" />
		<tag k="place" v="farm" />
		<tag k="ssr:stedsnr" v="581920" />
	</node>
	<node lat="62.52242500324503" lon="6.13289167415164" id="-7950">
		<tag k="name" v="Blomvik" />
		<tag k="place" v="farm" />
		<tag k="ssr:stedsnr" v="702173" />
	</node>
	<node lat="62.52069444275212" lon="6.1347305476933585" id="-7968">
		<tag k="name" v="Oksnes" />
		<tag k="place" v="farm" />
		<tag k="ssr:stedsnr" v="703890" />
	</node>
	<node lat="62.50802222668365" lon="6.124216673181712" id="-7983">
		<tag k="name" v="Skaret" />
		<tag k="place" v="quarter" />
		<tag k="ssr:stedsnr" v="665809" />
	</node>
	<node lat="62.5037916697489" lon="6.0501944452623535" id="-8047">
		<tag k="name" v="Giske" />
		<tag k="place" v="village" />
		<tag k="ssr:stedsnr" v="935116" />
	</node>
	<node lat="62.47586944468659" lon="6.031700008488008" id="-8051">
		<tag k="name" v="Leitebøen" />
		<tag k="place" v="quarter" />
		<tag k="ssr:stedsnr" v="908805" />
	</node>
	<node lat="62.479822217861475" lon="6.039866662402076" id="-8053">
		<tag k="alt_name" v="Støbakken" />
		<tag k="name" v="Støbakk" />
		<tag k="place" v="farm" />
		<tag k="ssr:stedsnr" v="921994" />
	</node>
	<node lat="62.47223611321645" lon="6.039705560244555" id="-8055">
		<tag k="name" v="Strandklauva" />
		<tag k="place" v="farm" />
		<tag k="ssr:stedsnr" v="921998" />
	</node>
	<node lat="62.57110833119278" lon="6.1157638801928496" id="-8064">
		<tag k="name" v="Vollane" />
		<tag k="place" v="farm" />
		<tag k="ssr:stedsnr" v="946988" />
	</node>
	<node lat="62.49741666433311" lon="6.1307749985826305" id="-8087">
		<tag k="alt_name" v="Løeggård" />
		<tag k="name" v="Løkegarden" />
		<tag k="place" v="farm" />
		<tag k="ssr:stedsnr" v="35254" />
	</node>
	<node lat="62.55977222436627" lon="6.128380553911347" id="-8093">
		<tag k="name" v="Rogna" />
		<tag k="place" v="farm" />
		<tag k="ssr:stedsnr" v="35983" />
	</node>
	<node lat="62.49822222303571" lon="6.1255527767769555" id="-8147">
		<tag k="name" v="Myrane" />
		<tag k="place" v="farm" />
		<tag k="ssr:stedsnr" v="156972" />
	</node>
	<node lat="62.54238055923365" lon="6.12722221307511" id="-8155">
		<tag k="name" v="Røysevik" />
		<tag k="place" v="farm" />
		<tag k="ssr:stedsnr" v="173439" />
	</node>
	<node lat="62.4790333379265" lon="6.038197227303415" id="-8158">
		<tag k="name" v="Sandnesbakkane" />
		<tag k="place" v="quarter" />
		<tag k="ssr:stedsnr" v="180752" />
	</node>
	<node lat="62.50364722506639" lon="6.046602780634469" id="-8175">
		<tag k="amenity" v="nursing_home" />
		<tag k="name" v="Giske kvileheim" />
		<tag k="ssr:stedsnr" v="217163" />
	</node>
	<node lat="62.565780556857554" lon="6.083977775586489" id="-8183">
		<tag k="name" v="Kølvet" />
		<tag k="place" v="farm" />
		<tag k="ssr:stedsnr" v="217957" />
	</node>
	<node lat="62.57396939197255" lon="6.112486702948395" id="-8224">
		<tag k="fixme" v="consider place=hamlet" />
		<tag k="name" v="Roald" />
		<tag k="place" v="farm" />
		<tag k="ssr:stedsnr" v="362245" />
	</node>
	<node lat="62.585572221999435" lon="6.082380554498391" id="-8244">
		<tag k="name" v="Grøtet" />
		<tag k="place" v="farm" />
		<tag k="ssr:stedsnr" v="399862" />
	</node>
	<node lat="62.546599997335505" lon="6.049097232140593" id="-8245">
		<tag k="name" v="Leiterema" />
		<tag k="place" v="farm" />
		<tag k="ssr:stedsnr" v="399863" />
	</node>
	<node lat="62.51375277521216" lon="6.103730563037973" id="-8293">
		<tag k="leisure" v="pitch" />
		<tag k="name" v="Valdervoll" />
		<tag k="ssr:stedsnr" v="573542" />
	</node>
	<node lat="62.54843056002472" lon="6.050863891983388" id="-8337">
		<tag k="name" v="Steinland" />
		<tag k="place" v="farm" />
		<tag k="ssr:stedsnr" v="642851" />
	</node>
	<node lat="62.569486109338364" lon="6.088474990542031" id="-8340">
		<tag k="name" v="Rørviknausta" />
		<tag k="place" v="locality" />
		<tag k="ssr:stedsnr" v="642948" />
	</node>
	<node lat="62.53250555271011" lon="6.1292444443407526" id="-8362">
		<tag k="alt_name" v="Gjøsund" />
		<tag k="name" v="Kristiangarden" />
		<tag k="place" v="isolated_dwelling" />
		<tag k="ssr:stedsnr" v="726620" />
	</node>
	<node lat="62.586797224510754" lon="6.1144972289420165" id="-8363">
		<tag k="name" v="Budafjellet bustadområde" />
		<tag k="place" v="quarter" />
		<tag k="ssr:stedsnr" v="726802" />
	</node>
	<node lat="62.48538611171624" lon="5.97551111072572" id="-8371">
		<tag k="fixme" v="consider place=suburb, village or hamlet" />
		<tag k="name" v="Alnes" />
		<tag k="place" v="quarter" />
		<tag k="ssr:stedsnr" v="739980" />
	</node>
	<node lat="62.51384444040384" lon="6.131661115936476" id="-8378">
		<tag k="alt_name" v="Nordstrand" />
		<tag k="name" v="Nordstranda" />
		<tag k="place" v="village" />
		<tag k="ssr:stedsnr" v="753878" />
	</node>
	<node lat="62.58565833601641" lon="6.121533336664824" id="-8402">
		<tag k="leisure" v="pitch" />
		<tag k="name" v="Rota stadion" />
		<tag k="ssr:stedsnr" v="824158" />
	</node>
	<node lat="62.476150001557095" lon="6.036891658280592" id="-8420">
		<tag k="name" v="Teppemyra" />
		<tag k="place" v="quarter" />
		<tag k="ssr:stedsnr" v="848760" />
	</node>
	<node lat="62.56341388522679" lon="6.072891671631129" id="-8444">
		<tag k="amenity" v="nursing_home" />
		<tag k="name" v="Vigra sjukeheim" />
		<tag k="ssr:stedsnr" v="945117" />
	</node>
	<node lat="62.54026884614765" lon="6.03223790286328" id="-8454">
		<tag k="fixme" v="consider place=hamlet" />
		<tag k="name" v="Synnes" />
		<tag k="place" v="farm" />
		<tag k="ssr:stedsnr" v="957763" />
	</node>
	<node lat="62.46768888548038" lon="5.992477786610142" id="-8457">
		<tag k="name" v="Godøylandet" />
		<tag k="place" v="hamlet" />
		<tag k="ssr:stedsnr" v="962568" />
	</node>
</osm>
