<?xml version="1.0" encoding="UTF-8"?>
<osm generator="osmapis" version="0.6">
	<node id="-463017" lat="60.7809250008" lon="6.57034444607">
		<tag k="bridge" v="yes" />
		<tag k="layer" v="1" />
		<tag k="name" v="Langjola" />
		<tag k="ssr:stedsnr" v="592176" />
	</node>
	<node id="-461300" lat="60.6428222242" lon="6.07992221669">
		<tag k="layer" v="-1" />
		<tag k="name" v="Hernestunnelen" />
		<tag k="ssr:stedsnr" v="117020" />
		<tag k="tunnel" v="yes" />
	</node>
	<node id="-461298" lat="60.8091083355" lon="6.48465833104">
		<tag k="layer" v="-1" />
		<tag k="name" v="Myrkdalstunnelen" />
		<tag k="ssr:stedsnr" v="112323" />
		<tag k="tunnel" v="yes" />
	</node>
	<node id="-460679" lat="60.6801893023" lon="6.62749566756">
		<tag k="name" v="Øyeflaten haldeplass" />
		<tag k="railway" v="halt" />
		<tag k="ssr:stedsnr" v="989649" />
		<tag k="train" v="yes" />
	</node>
	<node id="-461802" lat="60.848438887" lon="6.4539333344">
		<tag k="ford" v="yes" />
		<tag k="name" v="Nyavadet" />
		<tag k="place" v="locality" />
		<tag k="ssr:stedsnr" v="203382" />
	</node>
	<node id="-462819" lat="60.7543166674" lon="6.62847500841">
		<tag k="ford" v="yes" />
		<tag k="name" v="Krokavadet" />
		<tag k="place" v="locality" />
		<tag k="ssr:stedsnr" v="554197" />
	</node>
	<node id="-461281" lat="60.64726667" lon="6.1042666747">
		<tag k="bridge" v="yes" />
		<tag k="layer" v="1" />
		<tag k="name" v="Vossedalselva" />
		<tag k="ssr:stedsnr" v="107097" />
	</node>
	<node id="-461280" lat="60.6422472189" lon="6.23054721599">
		<tag k="bridge" v="yes" />
		<tag k="layer" v="1" />
		<tag k="name" v="Vesterheim" />
		<tag k="ssr:stedsnr" v="107096" />
	</node>
	<node id="-461788" lat="60.7970027757" lon="6.51913054967">
		<tag k="highway" v="path" />
		<tag k="name" v="Kvinnestigen" />
		<tag k="ssr:stedsnr" v="203220" />
	</node>
	<node id="-463323" lat="60.7971388862" lon="6.50468611674">
		<tag k="bridge" v="yes" />
		<tag k="layer" v="1" />
		<tag k="name" v="Djupgrov" />
		<tag k="ssr:stedsnr" v="653815" />
	</node>
	<node id="-463322" lat="60.6926944425" lon="6.10667778075">
		<tag k="bridge" v="yes" />
		<tag k="layer" v="1" />
		<tag k="name" v="Fastland" />
		<tag k="ssr:stedsnr" v="653812" />
	</node>
	<node id="-463321" lat="60.7922083375" lon="6.61524444753">
		<tag k="bridge" v="yes" />
		<tag k="layer" v="1" />
		<tag k="name" v="Teigen" />
		<tag k="ssr:stedsnr" v="653166" />
	</node>
	<node id="-463320" lat="60.609794442" lon="6.40660277155">
		<tag k="bridge" v="yes" />
		<tag k="layer" v="1" />
		<tag k="name" v="Lotatre" />
		<tag k="ssr:stedsnr" v="653153" />
	</node>
	<node id="-463319" lat="60.805575003" lon="6.65774165735">
		<tag k="bridge" v="yes" />
		<tag k="layer" v="1" />
		<tag k="name" v="Giljarhus" />
		<tag k="ssr:stedsnr" v="653146" />
	</node>
	<node id="-463318" lat="60.6477694427" lon="6.10651667473">
		<tag k="bridge" v="yes" />
		<tag k="layer" v="1" />
		<tag k="name" v="Væle" />
		<tag k="ssr:stedsnr" v="653109" />
	</node>
	<node id="-463317" lat="60.7770500031" lon="6.48424167169">
		<tag k="bridge" v="yes" />
		<tag k="layer" v="1" />
		<tag k="name" v="Øyestad" />
		<tag k="ssr:stedsnr" v="653101" />
	</node>
	<node id="-461776" lat="60.592069446" lon="6.27333889651">
		<tag k="highway" v="path" />
		<tag k="name" v="Tjørnavegen" />
		<tag k="ssr:stedsnr" v="203063" />
	</node>
	<node id="-460238" lat="60.8336805534" lon="6.46089721595">
		<tag k="bridge" v="yes" />
		<tag k="layer" v="1" />
		<tag k="name" v="Bygd" />
		<tag k="ssr:stedsnr" v="350787" />
	</node>
	<node id="-460237" lat="60.8385500024" lon="6.69629999221">
		<tag k="bridge" v="yes" />
		<tag k="layer" v="1" />
		<tag k="name" v="Stalheimselv" />
		<tag k="ssr:stedsnr" v="350155" />
	</node>
	<node id="-460236" lat="60.8447000017" lon="6.72004167073">
		<tag k="bridge" v="yes" />
		<tag k="layer" v="1" />
		<tag k="name" v="Holten" />
		<tag k="ssr:stedsnr" v="350145" />
	</node>
	<node id="-460232" lat="60.6579611076" lon="6.41708610795">
		<tag k="bridge" v="yes" />
		<tag k="layer" v="1" />
		<tag k="name" v="Bavallsbrua" />
		<tag k="ssr:stedsnr" v="349809" />
	</node>
	<node id="-460215" lat="60.6361277797" lon="6.46610833642">
		<tag k="bridge" v="yes" />
		<tag k="layer" v="1" />
		<tag k="name" v="Palmafoss" />
		<tag k="ssr:stedsnr" v="349204" />
	</node>
	<node id="-464811" lat="60.9231089733" lon="6.74602994409">
		<tag k="ford" v="yes" />
		<tag k="name" v="Kåsteinsvadet" />
		<tag k="place" v="locality" />
		<tag k="ssr:stedsnr" v="977773" />
	</node>
	<node id="-464796" lat="60.6541583296" lon="6.09533611936">
		<tag k="bridge" v="yes" />
		<tag k="layer" v="1" />
		<tag k="name" v="Evangerkanalen" />
		<tag k="ssr:stedsnr" v="957798" />
	</node>
	<node id="-464795" lat="60.6711444436" lon="6.08683332794">
		<tag k="bridge" v="yes" />
		<tag k="layer" v="1" />
		<tag k="name" v="Fårevåen" />
		<tag k="ssr:stedsnr" v="957793" />
	</node>
	<node id="-464794" lat="60.692061111" lon="6.4691444396">
		<tag k="bridge" v="yes" />
		<tag k="layer" v="1" />
		<tag k="name" v="Løno" />
		<tag k="ssr:stedsnr" v="957156" />
	</node>
	<node id="-464793" lat="60.8406888891" lon="6.46469722708">
		<tag k="bridge" v="yes" />
		<tag k="layer" v="1" />
		<tag k="name" v="Vetlegrov" />
		<tag k="ssr:stedsnr" v="957124" />
	</node>
	<node id="-464268" lat="60.4911364057" lon="6.49670569278">
		<tag k="man_made" v="cairn" />
		<tag k="name" v="Grim" />
		<tag k="place" v="locality" />
		<tag k="ssr:stedsnr" v="855791" />
	</node>
	<node id="-462729" lat="60.6269694419" lon="6.30785276885">
		<tag k="bridge" v="yes" />
		<tag k="layer" v="1" />
		<tag k="name" v="Rekve" />
		<tag k="ssr:stedsnr" v="532151" />
	</node>
	<node id="-460680" lat="60.6305883548" lon="6.28492262787">
		<tag k="name" v="Bulken stasjon" />
		<tag k="railway" v="station" />
		<tag k="ssr:stedsnr" v="989986" />
		<tag k="train" v="yes" />
	</node>
	<node id="-464263" lat="60.6380999999" lon="6.20278610407">
		<tag k="bridge" v="yes" />
		<tag k="layer" v="1" />
		<tag k="name" v="Tverrelva" />
		<tag k="ssr:stedsnr" v="836139" />
	</node>
	<node id="-462726" lat="60.6866222257" lon="6.83000834219">
		<tag k="bridge" v="yes" />
		<tag k="layer" v="1" />
		<tag k="name" v="Almenningen" />
		<tag k="ssr:stedsnr" v="531804" />
	</node>
	<node id="-464773" lat="60.6177805558" lon="6.28742221879">
		<tag k="bridge" v="yes" />
		<tag k="layer" v="1" />
		<tag k="name" v="Mosavatn" />
		<tag k="ssr:stedsnr" v="956173" />
	</node>
	<node id="-464772" lat="60.6081666664" lon="6.34330278563">
		<tag k="bridge" v="yes" />
		<tag k="layer" v="1" />
		<tag k="name" v="Nesthus" />
		<tag k="ssr:stedsnr" v="956171" />
	</node>
	<node id="-464771" lat="60.6404555564" lon="6.04943054914">
		<tag k="bridge" v="yes" />
		<tag k="layer" v="1" />
		<tag k="name" v="Nakkagjelet" />
		<tag k="ssr:stedsnr" v="956170" />
	</node>
	<node id="-461178" lat="60.5902333306" lon="6.52790834158">
		<tag k="highway" v="path" />
		<tag k="name" v="Harkakleivi" />
		<tag k="ssr:stedsnr" v="82015" />
	</node>
	<node id="-460662" lat="60.6393873976" lon="6.46359225666">
		<tag k="name" v="Gjerdåker haldeplass" />
		<tag k="railway" v="halt" />
		<tag k="ssr:stedsnr" v="989078" />
		<tag k="train" v="yes" />
	</node>
	<node id="-460651" lat="60.63795602" lon="5.95766878013">
		<tag k="name" v="Bolstadøyri stasjon" />
		<tag k="railway" v="station" />
		<tag k="ssr:stedsnr" v="985167" />
		<tag k="train" v="yes" />
	</node>
	<node id="-464233" lat="60.6231055594" lon="6.53158333029">
		<tag k="bridge" v="yes" />
		<tag k="layer" v="1" />
		<tag k="name" v="Mønshaug" />
		<tag k="ssr:stedsnr" v="835169" />
	</node>
	<node id="-460630" lat="60.8030611146" lon="6.49926111678">
		<tag k="bridge" v="yes" />
		<tag k="layer" v="1" />
		<tag k="name" v="Ulvundsøy" />
		<tag k="ssr:stedsnr" v="896180" />
	</node>
	<node id="-460629" lat="60.8064222225" lon="6.66106666427">
		<tag k="bridge" v="yes" />
		<tag k="layer" v="1" />
		<tag k="name" v="Lunde" />
		<tag k="ssr:stedsnr" v="896163" />
	</node>
	<node id="-460628" lat="60.6310055564" lon="6.27575555834">
		<tag k="bridge" v="yes" />
		<tag k="layer" v="1" />
		<tag k="name" v="Liland" />
		<tag k="ssr:stedsnr" v="896161" />
	</node>
	<node id="-460627" lat="60.7221972196" lon="6.49437222902">
		<tag k="bridge" v="yes" />
		<tag k="layer" v="1" />
		<tag k="name" v="Leidal" />
		<tag k="ssr:stedsnr" v="896160" />
	</node>
	<node id="-460626" lat="60.6755694402" lon="6.09678056386">
		<tag k="bridge" v="yes" />
		<tag k="layer" v="1" />
		<tag k="name" v="Mestad" />
		<tag k="ssr:stedsnr" v="896157" />
	</node>
	<node id="-460625" lat="60.6098277768" lon="6.34258055397">
		<tag k="bridge" v="yes" />
		<tag k="layer" v="1" />
		<tag k="name" v="Vindsand" />
		<tag k="ssr:stedsnr" v="896116" />
	</node>
	<node id="-464207" lat="60.6726407895" lon="6.4561626694">
		<tag k="man_made" v="quay" />
		<tag k="name" v="Ænsbryggja" />
		<tag k="place" v="locality" />
		<tag k="ssr:stedsnr" v="834473" />
	</node>
	<node id="-464711" lat="60.8362666655" lon="6.68423888094">
		<tag k="layer" v="-1" />
		<tag k="name" v="Stalheim" />
		<tag k="ssr:stedsnr" v="954731" />
		<tag k="tunnel" v="yes" />
	</node>
	<node id="-464355" lat="60.6781333377" lon="6.73073888623">
		<tag k="name" v="Reimegrend stasjon" />
		<tag k="old_name" v="Reime" />
		<tag k="railway" v="station" />
		<tag k="ssr:stedsnr" v="857939" />
		<tag k="train" v="yes" />
	</node>
	<node id="-464189" lat="60.6804888899" lon="6.7039750055">
		<tag k="highway" v="path" />
		<tag k="name" v="Bjørnstegen" />
		<tag k="ssr:stedsnr" v="834143" />
	</node>
	<node id="-460681" lat="60.6470907209" lon="6.10951089605">
		<tag k="name" v="Evanger stasjon" />
		<tag k="railway" v="station" />
		<tag k="ssr:stedsnr" v="989987" />
		<tag k="train" v="yes" />
	</node>
	<node id="-460593" lat="60.6344555559" lon="6.4660722269">
		<tag k="name" v="Palmafossen" />
		<tag k="railway" v="station" />
		<tag k="ssr:stedsnr" v="895440" />
		<tag k="train" v="yes" />
	</node>
	<node id="-460592" lat="60.6795388895" lon="6.59320833177">
		<tag k="name" v="Urdland stasjon" />
		<tag k="railway" v="station" />
		<tag k="ssr:stedsnr" v="895347" />
		<tag k="train" v="yes" />
	</node>
	<node id="-464175" lat="60.631761113" lon="6.35509444401">
		<tag k="highway" v="path" />
		<tag k="name" v="Årsvegen" />
		<tag k="ssr:stedsnr" v="810963" />
	</node>
	<node id="-461611" lat="60.862977775" lon="6.49611389339">
		<tag k="bridge" v="yes" />
		<tag k="layer" v="1" />
		<tag k="name" v="Fossegrov" />
		<tag k="ssr:stedsnr" v="168790" />
	</node>
	<node id="-461610" lat="60.5346499987" lon="6.0757750015">
		<tag k="bridge" v="yes" />
		<tag k="layer" v="1" />
		<tag k="name" v="Svartsgrov" />
		<tag k="ssr:stedsnr" v="168177" />
	</node>
	<node id="-461609" lat="60.6289277747" lon="6.42930833023">
		<tag k="bridge" v="yes" />
		<tag k="layer" v="1" />
		<tag k="loc_name" v="Langabrui;Langabrua" />
		<tag k="name" v="Langebrua" />
		<tag k="ssr:stedsnr" v="168164" />
	</node>
	<node id="-463656" lat="60.625525" lon="6.31933056324">
		<tag k="bridge" v="yes" />
		<tag k="layer" v="1" />
		<tag k="name" v="Veka" />
		<tag k="ssr:stedsnr" v="714143" />
	</node>
	<node id="-461607" lat="60.7739027746" lon="6.48569166994">
		<tag k="bridge" v="yes" />
		<tag k="layer" v="1" />
		<tag k="name" v="Hole" />
		<tag k="ssr:stedsnr" v="168152" />
	</node>
	<node id="-463654" lat="60.654969448" lon="6.44535832472">
		<tag k="bridge" v="yes" />
		<tag k="layer" v="1" />
		<tag k="name" v="Kvitheim" />
		<tag k="ssr:stedsnr" v="714131" />
	</node>
	<node id="-463653" lat="60.8857333306" lon="6.502763894">
		<tag k="bridge" v="yes" />
		<tag k="layer" v="1" />
		<tag k="name" v="Kvassdal" />
		<tag k="ssr:stedsnr" v="714121" />
	</node>
	<node id="-463652" lat="60.7415749958" lon="6.48998332454">
		<tag k="bridge" v="yes" />
		<tag k="layer" v="1" />
		<tag k="name" v="Åsbrekke" />
		<tag k="ssr:stedsnr" v="714099" />
	</node>
	<node id="-464262" lat="60.681086109" lon="6.5763361121">
		<tag k="bridge" v="yes" />
		<tag k="layer" v="1" />
		<tag k="name" v="Urdland" />
		<tag k="ssr:stedsnr" v="836137" />
	</node>
	<node id="-464261" lat="60.6030388893" lon="6.36261667474">
		<tag k="bridge" v="yes" />
		<tag k="layer" v="1" />
		<tag k="name" v="Vannjola" />
		<tag k="ssr:stedsnr" v="836132" />
	</node>
	<node id="-464260" lat="60.5572305585" lon="6.46924721812">
		<tag k="bridge" v="yes" />
		<tag k="layer" v="1" />
		<tag k="name" v="Grattlava" />
		<tag k="ssr:stedsnr" v="836119" />
	</node>
	<node id="-462612" lat="60.8639999963" lon="6.48062778524">
		<tag k="highway" v="path" />
		<tag k="name" v="Giljavegen" />
		<tag k="ssr:stedsnr" v="506348" />
	</node>
	<node id="-464259" lat="60.6795722239" lon="6.10366111028">
		<tag k="bridge" v="yes" />
		<tag k="layer" v="1" />
		<tag k="name" v="Vetle" />
		<tag k="ssr:stedsnr" v="836094" />
	</node>
	<node id="-464651" lat="60.7923499961" lon="6.67352777485">
		<tag k="highway" v="path" />
		<tag k="name" v="Stølavegen" />
		<tag k="ssr:stedsnr" v="931372" />
	</node>
	<node id="-460547" lat="60.7915444401" lon="6.50743333169">
		<tag k="bridge" v="yes" />
		<tag k="layer" v="1" />
		<tag k="name" v="Draugsvoll" />
		<tag k="ssr:stedsnr" v="411791" />
	</node>
	<node id="-461570" lat="60.7823833311" lon="6.55867500159">
		<tag k="bridge" v="yes" />
		<tag k="layer" v="1" />
		<tag k="name" v="Osa" />
		<tag k="ssr:stedsnr" v="167188" />
	</node>
	<node id="-460545" lat="60.6586805557" lon="6.41801667176">
		<tag k="bridge" v="yes" />
		<tag k="layer" v="1" />
		<tag k="name" v="Skjerpe" />
		<tag k="ssr:stedsnr" v="411168" />
	</node>
	<node id="-460544" lat="60.6500777808" lon="6.11115833094">
		<tag k="bridge" v="yes" />
		<tag k="layer" v="1" />
		<tag k="name" v="Stampenes" />
		<tag k="ssr:stedsnr" v="411165" />
	</node>
	<node id="-460543" lat="60.6193083294" lon="6.37529166121">
		<tag k="bridge" v="yes" />
		<tag k="layer" v="1" />
		<tag k="name" v="Kvåle" />
		<tag k="ssr:stedsnr" v="411162" />
	</node>
	<node id="-460542" lat="60.5840694459" lon="6.20622777248">
		<tag k="bridge" v="yes" />
		<tag k="layer" v="1" />
		<tag k="name" v="Hodnaberg" />
		<tag k="ssr:stedsnr" v="411156" />
	</node>
	<node id="-460541" lat="60.5893666661" lon="6.4638305629">
		<tag k="bridge" v="yes" />
		<tag k="layer" v="1" />
		<tag k="name" v="Haugsklopp" />
		<tag k="ssr:stedsnr" v="411154" />
	</node>
	<node id="-460540" lat="60.9015749959" lon="6.48561388117">
		<tag k="bridge" v="yes" />
		<tag k="layer" v="1" />
		<tag k="name" v="Holoseter" />
		<tag k="ssr:stedsnr" v="411151" />
	</node>
	<node id="-460538" lat="60.6354444428" lon="6.24532221822">
		<tag k="bridge" v="yes" />
		<tag k="layer" v="1" />
		<tag k="name" v="Bergselva" />
		<tag k="ssr:stedsnr" v="410800" />
	</node>
	<node id="-462066" lat="60.6319305599" lon="6.22130000204">
		<tag k="highway" v="path" />
		<tag k="name" v="Kyrkjevegen" />
		<tag k="ssr:stedsnr" v="263142" />
	</node>
	<node id="-461608" lat="60.6072388922" lon="6.57967221384">
		<tag k="bridge" v="yes" />
		<tag k="layer" v="1" />
		<tag k="name" v="Heimetun" />
		<tag k="ssr:stedsnr" v="168156" />
	</node>
	<node id="-463594" lat="60.9089472217" lon="6.7125027689">
		<tag k="ford" v="yes" />
		<tag k="name" v="Gardvadet" />
		<tag k="place" v="locality" />
		<tag k="ssr:stedsnr" v="713020" />
	</node>
	<node id="-463655" lat="60.5302388856" lon="6.47572221404">
		<tag k="bridge" v="yes" />
		<tag k="layer" v="1" />
		<tag k="name" v="Ronga" />
		<tag k="ssr:stedsnr" v="714139" />
	</node>
	<node id="-463590" lat="60.6214833357" lon="6.10623889206">
		<tag k="ford" v="yes" />
		<tag k="name" v="Moldvadet" />
		<tag k="place" v="locality" />
		<tag k="ssr:stedsnr" v="712997" />
	</node>
	<node id="-461606" lat="60.8734222202" lon="6.49887221746">
		<tag k="bridge" v="yes" />
		<tag k="layer" v="1" />
		<tag k="name" v="Kvitagrov" />
		<tag k="ssr:stedsnr" v="168150" />
	</node>
	<node id="-460514" lat="60.8397999987" lon="6.69797223125">
		<tag k="bridge" v="yes" />
		<tag k="layer" v="1" />
		<tag k="name" v="Nærøydalselva" />
		<tag k="ssr:stedsnr" v="410170" />
	</node>
	<node id="-461861" lat="60.7112777754" lon="6.6380888926">
		<tag k="ford" v="yes" />
		<tag k="name" v="Budeievadet" />
		<tag k="place" v="locality" />
		<tag k="ssr:stedsnr" v="227269" />
	</node>
	<node id="-459896" lat="60.6218555553" lon="6.28026666326">
		<tag k="bridge" v="yes" />
		<tag k="layer" v="1" />
		<tag k="name" v="Grimastad" />
		<tag k="ssr:stedsnr" v="289139" />
	</node>
	<node id="-461002" lat="60.638688893" lon="6.24875833496">
		<tag k="bridge" v="yes" />
		<tag k="layer" v="1" />
		<tag k="name" v="Berge" />
		<tag k="ssr:stedsnr" v="46804" />
	</node>
	<node id="-460483" lat="60.6743583359" lon="6.44140833323">
		<tag k="ford" v="yes" />
		<tag k="name" v="Geitavadet" />
		<tag k="place" v="locality" />
		<tag k="ssr:stedsnr" v="409477" />
	</node>
	<node id="-460479" lat="60.6453250016" lon="6.50704722694">
		<tag k="name" v="Ygre stasjon" />
		<tag k="railway" v="station" />
		<tag k="ssr:stedsnr" v="409453" />
		<tag k="train" v="yes" />
	</node>
	<node id="-460987" lat="60.6288972209" lon="6.26165555145">
		<tag k="bridge" v="yes" />
		<tag k="layer" v="1" />
		<tag k="name" v="Suto" />
		<tag k="ssr:stedsnr" v="46183" />
	</node>
	<node id="-460986" lat="60.7566" lon="6.1334472224">
		<tag k="bridge" v="yes" />
		<tag k="layer" v="1" />
		<tag k="name" v="Ormeset" />
		<tag k="ssr:stedsnr" v="46177" />
	</node>
	<node id="-460984" lat="60.7689611138" lon="6.48933888976">
		<tag k="bridge" v="yes" />
		<tag k="layer" v="1" />
		<tag k="name" v="Skromle" />
		<tag k="ssr:stedsnr" v="46172" />
	</node>
	<node id="-463024" lat="60.5618194432" lon="6.17592777048">
		<tag k="bridge" v="yes" />
		<tag k="layer" v="1" />
		<tag k="name" v="Bjørndalen" />
		<tag k="ssr:stedsnr" v="592848" />
	</node>
	<node id="-463023" lat="60.6358916646" lon="5.94296111468">
		<tag k="bridge" v="yes" />
		<tag k="layer" v="1" />
		<tag k="name" v="Geitelvi" />
		<tag k="ssr:stedsnr" v="592846" />
	</node>
	<node id="-463020" lat="60.6071944409" lon="6.38835833759">
		<tag k="bridge" v="yes" />
		<tag k="layer" v="1" />
		<tag k="name" v="Sætre" />
		<tag k="ssr:stedsnr" v="592190" />
	</node>
	<node id="-463019" lat="60.5885277808" lon="6.6040333292">
		<tag k="bridge" v="yes" />
		<tag k="layer" v="1" />
		<tag k="name" v="Svelgane Øvre" />
		<tag k="ssr:stedsnr" v="592188" />
	</node>
	<node id="-463018" lat="60.7501249979" lon="6.50069166749">
		<tag k="bridge" v="yes" />
		<tag k="layer" v="1" />
		<tag k="name" v="Skogstad" />
		<tag k="ssr:stedsnr" v="592178" />
	</node>
	<node id="-461993" lat="60.6939555512" lon="6.84048333685">
		<tag k="name" v="Mjølfjell stasjon" />
		<tag k="railway" v="station" />
		<tag k="ssr:stedsnr" v="249944" />
		<tag k="train" v="yes" />
	</node>
	<node id="-463016" lat="60.6953583378" lon="6.84764166329">
		<tag k="bridge" v="yes" />
		<tag k="layer" v="1" />
		<tag k="name" v="Mjølfjell" />
		<tag k="ssr:stedsnr" v="592171" />
	</node>
	<node id="-463015" lat="60.6426472213" lon="6.23698888348">
		<tag k="bridge" v="yes" />
		<tag k="layer" v="1" />
		<tag k="name" v="Hovda" />
		<tag k="ssr:stedsnr" v="592161" />
	</node>
	<node id="-463014" lat="60.64438889" lon="6.50282499948">
		<tag k="bridge" v="yes" />
		<tag k="layer" v="1" />
		<tag k="name" v="Ygre" />
		<tag k="ssr:stedsnr" v="592127" />
	</node>
	<node id="-463013" lat="60.6385388868" lon="6.19852499607">
		<tag k="bridge" v="yes" />
		<tag k="layer" v="1" />
		<tag k="name" v="Øvre Geitle" />
		<tag k="ssr:stedsnr" v="592126" />
	</node>
	<node id="-460447" lat="60.6340638878" lon="5.93009999706">
		<tag k="layer" v="-1" />
		<tag k="name" v="Hyvingstunnelen" />
		<tag k="ssr:stedsnr" v="408525" />
		<tag k="tunnel" v="yes" />
	</node>
	<node id="-463512" lat="60.8610138888" lon="6.48038611881">
		<tag k="highway" v="path" />
		<tag k="name" v="Budeievegen" />
		<tag k="ssr:stedsnr" v="688353" />
	</node>
	<node id="-463998" lat="60.7006055551" lon="6.28465277706">
		<tag k="highway" v="path" />
		<tag k="name" v="Nye Volavegen" />
		<tag k="ssr:stedsnr" v="795382" />
	</node>
	<node id="-459898" lat="60.6365777807" lon="5.96418610198">
		<tag k="bridge" v="yes" />
		<tag k="layer" v="1" />
		<tag k="name" v="Rasdalselva" />
		<tag k="ssr:stedsnr" v="289164" />
	</node>
	<node id="-459897" lat="60.6131527762" lon="6.4231972305">
		<tag k="bridge" v="yes" />
		<tag k="layer" v="1" />
		<tag k="name" v="Gjernes" />
		<tag k="ssr:stedsnr" v="289143" />
	</node>
	<node id="-462968" lat="60.6854111091" lon="6.6821666609">
		<tag k="ford" v="yes" />
		<tag k="name" v="Vatnasetvegen" />
		<tag k="place" v="locality" />
		<tag k="ssr:stedsnr" v="591252" />
	</node>
	<node id="-459895" lat="60.7056805571" lon="6.89521666879">
		<tag k="bridge" v="yes" />
		<tag k="layer" v="1" />
		<tag k="name" v="Keep Smiling" />
		<tag k="ssr:stedsnr" v="289135" />
	</node>
	<node id="-460909" lat="60.6288444405" lon="6.41035554858">
		<tag k="name" v="Voss stasjon" />
		<tag k="railway" v="station" />
		<tag k="ssr:stedsnr" v="37236" />
		<tag k="train" v="yes" />
	</node>
	<node id="-460905" lat="60.6445972261" lon="6.35417221469">
		<tag k="highway" v="path" />
		<tag k="name" v="Kvitingsvegen" />
		<tag k="ssr:stedsnr" v="21953" />
	</node>
	<node id="-462433" lat="60.6842638898" lon="6.81146667393">
		<tag k="bridge" v="yes" />
		<tag k="layer" v="1" />
		<tag k="name" v="Egereidet" />
		<tag k="ssr:stedsnr" v="471800" />
	</node>
	<node id="-462432" lat="60.7288611101" lon="6.13466110608">
		<tag k="bridge" v="yes" />
		<tag k="layer" v="1" />
		<tag k="name" v="Straume" />
		<tag k="ssr:stedsnr" v="471188" />
	</node>
	<node id="-464479" lat="60.6361777792" lon="6.41577222986">
		<tag k="layer" v="-1" />
		<tag k="name" v="Vangstunnelen" />
		<tag k="ssr:stedsnr" v="906920" />
		<tag k="tunnel" v="yes" />
	</node>
	<node id="-462430" lat="60.6182444418" lon="6.28446667399">
		<tag k="bridge" v="yes" />
		<tag k="layer" v="1" />
		<tag k="name" v="Saue" />
		<tag k="ssr:stedsnr" v="471176" />
	</node>
	<node id="-463965" lat="60.6162638889" lon="6.31625000198">
		<tag k="bridge" v="yes" />
		<tag k="layer" v="1" />
		<tag k="name" v="Dagestad" />
		<tag k="ssr:stedsnr" v="775790" />
	</node>
	<node id="-463964" lat="60.6167000038" lon="6.30247499944">
		<tag k="bridge" v="yes" />
		<tag k="layer" v="1" />
		<tag k="name" v="Eimstad" />
		<tag k="ssr:stedsnr" v="775786" />
	</node>
	<node id="-463963" lat="60.6795833353" lon="6.67006111634">
		<tag k="bridge" v="yes" />
		<tag k="layer" v="1" />
		<tag k="name" v="Framberge" />
		<tag k="ssr:stedsnr" v="775782" />
	</node>
	<node id="-463962" lat="60.9100250034" lon="6.45652777797">
		<tag k="bridge" v="yes" />
		<tag k="layer" v="1" />
		<tag k="name" v="Veagrov" />
		<tag k="ssr:stedsnr" v="775165" />
	</node>
	<node id="-463961" lat="60.6783194454" lon="6.75308334085">
		<tag k="bridge" v="yes" />
		<tag k="layer" v="1" />
		<tag k="name" v="Reime" />
		<tag k="ssr:stedsnr" v="775158" />
	</node>
	<node id="-463960" lat="60.6461805596" lon="6.13518888947">
		<tag k="bridge" v="yes" />
		<tag k="layer" v="1" />
		<tag k="name" v="Skorve" />
		<tag k="ssr:stedsnr" v="775155" />
	</node>
	<node id="-461911" lat="60.6355027802" lon="6.45187778108">
		<tag k="bridge" v="yes" />
		<tag k="layer" v="1" />
		<tag k="name" v="Brynagjelet" />
		<tag k="ssr:stedsnr" v="228831" />
	</node>
	<node id="-463958" lat="60.6365000037" lon="6.24174167414">
		<tag k="bridge" v="yes" />
		<tag k="layer" v="1" />
		<tag k="name" v="Joregroi" />
		<tag k="ssr:stedsnr" v="775137" />
	</node>
	<node id="-460882" lat="60.8552361135" lon="6.47074167123">
		<tag k="highway" v="path" />
		<tag k="name" v="Leinevegen" />
		<tag k="ssr:stedsnr" v="21358" />
	</node>
	<node id="-464465" lat="60.6568972185" lon="6.32601667182">
		<tag k="highway" v="path" />
		<tag k="name" v="Bustigen" />
		<tag k="ssr:stedsnr" v="870913" />
	</node>
	<node id="-462409" lat="60.557375003" lon="6.4668638933">
		<tag k="ford" v="yes" />
		<tag k="name" v="Gratlavad" />
		<tag k="place" v="locality" />
		<tag k="ssr:stedsnr" v="470519" />
	</node>
	<node id="-462431" lat="60.6016388906" lon="6.35318332983">
		<tag k="bridge" v="yes" />
		<tag k="layer" v="1" />
		<tag k="name" v="Teigagrova" />
		<tag k="ssr:stedsnr" v="471185" />
	</node>
	<node id="-459825" lat="60.6461416622" lon="6.07903333141">
		<tag k="alt_name" v="Hernes" />
		<tag k="layer" v="-1" />
		<tag k="name" v="Hernestunnelen" />
		<tag k="ssr:stedsnr" v="287510" />
		<tag k="tunnel" v="yes" />
	</node>
	<node id="-462429" lat="60.6751250014" lon="6.69911944016">
		<tag k="bridge" v="yes" />
		<tag k="layer" v="1" />
		<tag k="name" v="Skiple" />
		<tag k="ssr:stedsnr" v="471175" />
	</node>
	<node id="-464424" lat="60.8475666698" lon="6.45204722137">
		<tag k="highway" v="path" />
		<tag k="name" v="Sigvorkvilet" />
		<tag k="ssr:stedsnr" v="870378" />
	</node>
	<node id="-462374" lat="60.5319361095" lon="6.47527222904">
		<tag k="bridge" v="yes" />
		<tag k="layer" v="1" />
		<tag k="name" v="Nyestøl" />
		<tag k="ssr:stedsnr" v="470156" />
	</node>
	<node id="-462373" lat="60.9072944411" lon="6.49232222498">
		<tag k="highway" v="path" />
		<tag k="name" v="Knappevegen" />
		<tag k="ssr:stedsnr" v="470153" />
	</node>
	<node id="-463390" lat="60.7074666639" lon="6.31846389292">
		<tag k="highway" v="path" />
		<tag k="name" v="Gamle Volavegen" />
		<tag k="ssr:stedsnr" v="674320" />
	</node>
	<node id="-461913" lat="60.636430552" lon="6.43962222263">
		<tag k="bridge" v="yes" />
		<tag k="layer" v="1" />
		<tag k="name" v="Strandelva" />
		<tag k="ssr:stedsnr" v="229186" />
	</node>
	<node id="-461840" lat="60.6403833342" lon="6.04876944656">
		<tag k="layer" v="-1" />
		<tag k="name" v="Nakkagjelstunnelen" />
		<tag k="ssr:stedsnr" v="226383" />
		<tag k="tunnel" v="yes" />
	</node>
	<node id="-461912" lat="60.6811611069" lon="6.74069999356">
		<tag k="bridge" v="yes" />
		<tag k="layer" v="1" />
		<tag k="name" v="Brekke" />
		<tag k="ssr:stedsnr" v="228832" />
	</node>
	<node id="-460546" lat="60.6653999976" lon="6.09277777386">
		<tag k="bridge" v="yes" />
		<tag k="layer" v="1" />
		<tag k="name" v="Teigdals" />
		<tag k="ssr:stedsnr" v="411183" />
	</node>
	<node id="-463959" lat="60.6228361104" lon="6.32614445136">
		<tag k="bridge" v="yes" />
		<tag k="layer" v="1" />
		<tag k="name" v="Gjukastein" />
		<tag k="ssr:stedsnr" v="775145" />
	</node>
	<node id="-460459" lat="60.6781861106" lon="6.66448055242">
		<tag k="fixme" v="consider highway=path" />
		<tag k="highway" v="track" />
		<tag k="name" v="Krokvegen" />
		<tag k="ssr:stedsnr" v="409239" />
	</node>
</osm>
