<?xml version="1.0" encoding="UTF-8"?>
<osm generator="osmapis" version="0.6">
	<node id="-462506" lat="60.5657444479" lon="6.23656944233">
		<tag k="name" v="Torfinno" />
		<tag k="ssr:stedsnr" v="492525" />
		<tag k="waterway" v="river" />
	</node>
	<node id="-460794" lat="60.5804744146" lon="6.25463668248">
		<tag k="name" v="Gråbeinstjørnane" />
		<tag k="natural" v="water" />
		<tag k="ssr:stedsnr" v="7643" />
	</node>
	<node id="-460793" lat="60.5908611093" lon="6.4008000002">
		<tag k="name" v="Tomasgrovi" />
		<tag k="ssr:stedsnr" v="7639" />
		<tag k="waterway" v="river" />
	</node>
	<node id="-462832" lat="60.7836361078" lon="6.61832499387">
		<tag k="name" v="Tungeteigelvi" />
		<tag k="ssr:stedsnr" v="554783" />
		<tag k="waterway" v="river" />
	</node>
	<node id="-460779" lat="60.5497555562" lon="6.56635000367">
		<tag k="name" v="Matgrovi" />
		<tag k="ssr:stedsnr" v="7590" />
		<tag k="waterway" v="river" />
	</node>
	<node id="-460777" lat="60.5420111091" lon="6.29640554804">
		<tag k="name" v="Huelvi" />
		<tag k="ssr:stedsnr" v="7585" />
		<tag k="waterway" v="stream" />
	</node>
	<node id="-460775" lat="60.551716665" lon="6.28953889508">
		<tag k="name" v="Mosagrovi" />
		<tag k="ssr:stedsnr" v="7573" />
		<tag k="waterway" v="river" />
	</node>
	<node id="-462822" lat="60.8129527814" lon="6.27478610912">
		<tag k="name" v="Sødalselvi" />
		<tag k="old_name" v="Sødalselva" />
		<tag k="ssr:stedsnr" v="554548" />
		<tag k="waterway" v="stream" />
	</node>
	<node id="-462821" lat="60.7724749982" lon="6.75023888959">
		<tag k="name" v="Bjørndalselvi" />
		<tag k="ssr:stedsnr" v="554203" />
		<tag k="waterway" v="stream" />
	</node>
	<node id="-460771" lat="60.5643182096" lon="6.31888689821">
		<tag k="name" v="Ulvaskarstjørnane" />
		<tag k="natural" v="water" />
		<tag k="ssr:stedsnr" v="7556" />
		<tag k="water" v="lake" />
	</node>
	<node id="-460770" lat="60.7062814238" lon="6.82104428847">
		<tag k="name" v="Rjupetjørn" />
		<tag k="natural" v="water" />
		<tag k="ssr:stedsnr" v="7538" />
	</node>
	<node id="-460768" lat="60.5065777793" lon="6.41579167054">
		<tag k="name" v="Vetlavatnet" />
		<tag k="natural" v="water" />
		<tag k="ssr:stedsnr" v="7505" />
		<tag k="water" v="lake" />
	</node>
	<node id="-460765" lat="60.5242583304" lon="6.38913610787">
		<tag k="name" v="Øvra Skjemmevatnet" />
		<tag k="natural" v="water" />
		<tag k="ssr:stedsnr" v="7482" />
		<tag k="water" v="lake" />
	</node>
	<node id="-460762" lat="60.5657444408" lon="6.17400000177">
		<tag k="name" v="Kvernhusgrovi" />
		<tag k="ssr:stedsnr" v="6874" />
		<tag k="waterway" v="stream" />
	</node>
	<node id="-462809" lat="60.5543207958" lon="6.60846250089">
		<tag k="name" v="Oksauga" />
		<tag k="natural" v="water" />
		<tag k="ssr:stedsnr" v="553855" />
	</node>
	<node id="-462807" lat="60.5948817524" lon="6.58913397058">
		<tag k="name" v="Svortetjørni" />
		<tag k="natural" v="water" />
		<tag k="ssr:stedsnr" v="553682" />
	</node>
	<node id="-460758" lat="60.519519443" lon="6.09519166526">
		<tag k="name" v="Sandneset" />
		<tag k="natural" v="cape" />
		<tag k="ssr:stedsnr" v="6812" />
	</node>
	<node id="-462805" lat="60.6107968632" lon="6.54690973742">
		<tag k="name" v="Opelandstjørni" />
		<tag k="natural" v="water" />
		<tag k="ssr:stedsnr" v="553645" />
	</node>
	<node id="-460756" lat="60.524287384" lon="6.07849378289">
		<tag k="alt_name" v="Vesletjørn" />
		<tag k="name" v="Vesletjørni" />
		<tag k="natural" v="water" />
		<tag k="ssr:stedsnr" v="6774" />
	</node>
	<node id="-460110" lat="60.5895877869" lon="5.94089546691">
		<tag k="name" v="Gufsekrossvatnet" />
		<tag k="natural" v="water" />
		<tag k="ssr:stedsnr" v="324620" />
		<tag k="water" v="lake" />
	</node>
	<node id="-462802" lat="60.5371777746" lon="6.48961944119">
		<tag k="name" v="Drivfossgrovi" />
		<tag k="ssr:stedsnr" v="553611" />
		<tag k="waterway" v="river" />
	</node>
	<node id="-460753" lat="60.5770250024" lon="6.44669443676">
		<tag k="name" v="Merkesdalsgrovi" />
		<tag k="ssr:stedsnr" v="6599" />
		<tag k="waterway" v="stream" />
	</node>
	<node id="-462797" lat="60.5050361104" lon="6.38295832456">
		<tag k="name" v="Vadlaviki" />
		<tag k="natural" v="bay" />
		<tag k="ssr:stedsnr" v="553509" />
	</node>
	<node id="-462796" lat="60.6585888859" lon="6.00919167049">
		<tag k="name" v="Geitåni" />
		<tag k="ssr:stedsnr" v="553001" />
		<tag k="waterway" v="river" />
	</node>
	<node id="-462795" lat="60.5484416662" lon="6.21030000088">
		<tag k="name" v="Møyåni" />
		<tag k="ssr:stedsnr" v="552855" />
		<tag k="waterway" v="stream" />
	</node>
	<node id="-460746" lat="60.707861109" lon="6.11900278028">
		<tag k="name" v="Teigdalselvi" />
		<tag k="ssr:stedsnr" v="6462" />
		<tag k="waterway" v="river" />
	</node>
	<node id="-460744" lat="60.7280465942" lon="6.089021279">
		<tag k="name" v="Hestevatnet" />
		<tag k="natural" v="water" />
		<tag k="ssr:stedsnr" v="6453" />
	</node>
	<node id="-460743" lat="60.7345027813" lon="5.94513054751">
		<tag k="name" v="Vetlegoggen" />
		<tag k="natural" v="water" />
		<tag k="ssr:stedsnr" v="6435" />
	</node>
	<node id="-462789" lat="60.5632916692" lon="6.43509723041">
		<tag k="name" v="Tesgjolo" />
		<tag k="ssr:stedsnr" v="552644" />
		<tag k="waterway" v="river" />
	</node>
	<node id="-462787" lat="60.5777055588" lon="6.54400000416">
		<tag k="name" v="Håsettjørni" />
		<tag k="natural" v="water" />
		<tag k="ssr:stedsnr" v="552632" />
	</node>
	<node id="-462786" lat="60.5761611095" lon="6.43598888783">
		<tag k="name" v="Kvitane" />
		<tag k="ssr:stedsnr" v="552626" />
		<tag k="waterway" v="river" />
	</node>
	<node id="-460737" lat="60.7326249983" lon="6.35209999653">
		<tag k="name" v="Mevatnet" />
		<tag k="natural" v="water" />
		<tag k="ssr:stedsnr" v="6388" />
		<tag k="water" v="lake" />
	</node>
	<node id="-462784" lat="60.7346527809" lon="6.84635833794">
		<tag k="name" v="Rjoåni" />
		<tag k="ssr:stedsnr" v="552599" />
		<tag k="waterway" v="river" />
	</node>
	<node id="-460733" lat="60.6978602996" lon="6.26458486289">
		<tag k="name" v="Raudbergstjørni" />
		<tag k="natural" v="water" />
		<tag k="ssr:stedsnr" v="6360" />
	</node>
	<node id="-462780" lat="60.6879805575" lon="5.96583055368">
		<tag k="name" v="Øvstedalselvi" />
		<tag k="ssr:stedsnr" v="552567" />
		<tag k="waterway" v="river" />
	</node>
	<node id="-462779" lat="60.6977618051" lon="6.0384509846">
		<tag k="name" v="Geilatjørnane" />
		<tag k="natural" v="water" />
		<tag k="ssr:stedsnr" v="552557" />
		<tag k="water" v="lake" />
	</node>
	<node id="-460730" lat="60.6831000042" lon="6.47482778642">
		<tag k="name" v="Lønavatnet" />
		<tag k="natural" v="water" />
		<tag k="ssr:stedsnr" v="6324" />
		<tag k="water" v="lake" />
	</node>
	<node id="-462777" lat="60.6941797401" lon="5.90175655534">
		<tag k="name" v="Stoatjørn" />
		<tag k="natural" v="water" />
		<tag k="ssr:stedsnr" v="552549" />
	</node>
	<node id="-462775" lat="60.7274444437" lon="5.95992777047">
		<tag k="name" v="Goggatjørni" />
		<tag k="natural" v="water" />
		<tag k="ssr:stedsnr" v="552463" />
	</node>
	<node id="-460722" lat="60.6023587985" lon="5.97296339557">
		<tag k="name" v="Storaniptjørni" />
		<tag k="natural" v="water" />
		<tag k="ssr:stedsnr" v="6252" />
	</node>
	<node id="-461811" lat="60.646622219" lon="5.97756944235">
		<tag k="name" v="Rongahølen" />
		<tag k="place" v="locality" />
		<tag k="ssr:stedsnr" v="203677" />
	</node>
	<node id="-462767" lat="60.6724249976" lon="6.35805556008">
		<tag k="name" v="Dalselvi" />
		<tag k="ssr:stedsnr" v="552338" />
		<tag k="waterway" v="river" />
	</node>
	<node id="-464812" lat="60.9203446245" lon="6.74652323747">
		<tag k="name" v="Kåsteinselvi" />
		<tag k="ssr:stedsnr" v="977772" />
		<tag k="waterway" v="river" />
	</node>
	<node id="-464810" lat="60.4873095369" lon="6.46562021456">
		<tag k="name" v="Breifossen" />
		<tag k="natural" v="waterfall" />
		<tag k="ssr:stedsnr" v="975890" />
	</node>
	<node id="-462492" lat="60.7065555583" lon="6.09378610828">
		<tag k="name" v="Kvernhusgrovi" />
		<tag k="ssr:stedsnr" v="492436" />
		<tag k="waterway" v="river" />
	</node>
	<node id="-462758" lat="60.582582318" lon="6.20488996775">
		<tag k="alt_name" v="Skjerstøltjørni" />
		<tag k="name" v="Skirstølstjørni" />
		<tag k="natural" v="water" />
		<tag k="ssr:stedsnr" v="552252" />
	</node>
	<node id="-462756" lat="60.5903866819" lon="6.15560905589">
		<tag k="name" v="Tverrgrovtjørni" />
		<tag k="natural" v="water" />
		<tag k="ssr:stedsnr" v="552241" />
	</node>
	<node id="-464803" lat="60.4805887567" lon="6.50163026742">
		<tag k="name" v="Kvitabardvatn" />
		<tag k="natural" v="water" />
		<tag k="ssr:stedsnr" v="975737" />
		<tag k="water" v="lake" />
	</node>
	<node id="-460706" lat="60.6222763164" lon="6.16412287661">
		<tag k="name" v="Svangatjørni" />
		<tag k="natural" v="water" />
		<tag k="ssr:stedsnr" v="6137" />
	</node>
	<node id="-460702" lat="60.6390857243" lon="5.96877718811">
		<tag k="name" v="Leira" />
		<tag k="natural" v="water" />
		<tag k="ssr:stedsnr" v="6109" />
	</node>
	<node id="-460701" lat="60.64650777" lon="6.05045662566">
		<tag k="name" v="Evangervatnet" />
		<tag k="natural" v="water" />
		<tag k="ssr:stedsnr" v="6106" />
		<tag k="water" v="lake" />
	</node>
	<node id="-460699" lat="60.6488888903" lon="6.13486389445">
		<tag k="name" v="Skorvelvi" />
		<tag k="ssr:stedsnr" v="6101" />
		<tag k="waterway" v="river" />
	</node>
	<node id="-462746" lat="60.6428916673" lon="6.09951944333">
		<tag k="name" v="Vossedalselvi" />
		<tag k="ssr:stedsnr" v="552131" />
		<tag k="waterway" v="river" />
	</node>
	<node id="-462744" lat="60.6445638847" lon="6.19841943705">
		<tag k="name" v="Tverrelvi" />
		<tag k="ssr:stedsnr" v="552098" />
		<tag k="waterway" v="river" />
	</node>
	<node id="-462743" lat="60.6431194468" lon="5.89591389553">
		<tag k="name" v="Tysso" />
		<tag k="ssr:stedsnr" v="552086" />
		<tag k="waterway" v="river" />
	</node>
	<node id="-460441" lat="60.7243027804" lon="6.12805276877">
		<tag k="name" v="Stølsøyni" />
		<tag k="place" v="island" />
		<tag k="ssr:stedsnr" v="385501" />
	</node>
	<node id="-462737" lat="60.6818499981" lon="6.11408332981">
		<tag k="name" v="Kvanngilsgrovi" />
		<tag k="ssr:stedsnr" v="552047" />
		<tag k="waterway" v="river" />
	</node>
	<node id="-464784" lat="60.630713889" lon="6.53843054857">
		<tag k="name" v="Storademma" />
		<tag k="ssr:stedsnr" v="956402" />
		<tag k="waterway" v="dam" />
	</node>
	<node id="-460687" lat="60.4817020049" lon="6.4172315411">
		<tag k="name" v="Øvre Steinsetavatnet" />
		<tag k="natural" v="water" />
		<tag k="ssr:stedsnr" v="991124" />
	</node>
	<node id="-462734" lat="60.5596000024" lon="6.19687499916">
		<tag k="name" v="Rasborene" />
		<tag k="natural" v="bay" />
		<tag k="ssr:stedsnr" v="551870" />
	</node>
	<node id="-464781" lat="60.7389111132" lon="6.61103888636">
		<tag k="name" v="Liagroi" />
		<tag k="ssr:stedsnr" v="956348" />
		<tag k="waterway" v="stream" />
	</node>
	<node id="-462730" lat="60.4816734515" lon="6.42058997891">
		<tag k="loc_name" v="Steinselavatnet" />
		<tag k="name" v="Steinsetvatnet" />
		<tag k="natural" v="water" />
		<tag k="ssr:stedsnr" v="551233" />
		<tag k="water" v="lake" />
	</node>
	<node id="-460439" lat="60.6324250011" lon="6.33798055736">
		<tag k="name" v="Vekagrovi" />
		<tag k="ssr:stedsnr" v="385096" />
		<tag k="waterway" v="river" />
	</node>
	<node id="-464776" lat="60.8552777788" lon="6.71447222106">
		<tag k="name" v="Kvitegroi" />
		<tag k="ssr:stedsnr" v="956242" />
		<tag k="waterway" v="stream" />
	</node>
	<node id="-464770" lat="60.8681305536" lon="6.73575555923">
		<tag k="name" v="Kvitegroi" />
		<tag k="ssr:stedsnr" v="956120" />
		<tag k="waterway" v="stream" />
	</node>
	<node id="-462715" lat="60.7045666668" lon="6.72405555954">
		<tag k="name" v="Føssene" />
		<tag k="natural" v="waterfall" />
		<tag k="ssr:stedsnr" v="531321" />
	</node>
	<node id="-462714" lat="60.6925054707" lon="6.70371984743">
		<tag k="name" v="Langatjørni" />
		<tag k="natural" v="water" />
		<tag k="ssr:stedsnr" v="531284" />
	</node>
	<node id="-462713" lat="60.7046611142" lon="6.64470833482">
		<tag k="name" v="Fljåni" />
		<tag k="ssr:stedsnr" v="531261" />
		<tag k="waterway" v="stream" />
	</node>
	<node id="-464759" lat="60.5633805545" lon="6.24165555834">
		<tag k="name" v="Vetlevalsfossen" />
		<tag k="natural" v="waterfall" />
		<tag k="ssr:stedsnr" v="955969" />
	</node>
	<node id="-462710" lat="60.854013892" lon="6.67448611015">
		<tag k="name" v="Skaragrova" />
		<tag k="ssr:stedsnr" v="531226" />
		<tag k="waterway" v="stream" />
	</node>
	<node id="-464754" lat="60.7028400841" lon="6.92095076643">
		<tag k="name" v="Kleivatjørni" />
		<tag k="natural" v="water" />
		<tag k="ssr:stedsnr" v="955909" />
	</node>
	<node id="-464753" lat="60.7513376734" lon="6.65280406107">
		<tag k="name" v="Vardabotntjørni" />
		<tag k="natural" v="water" />
		<tag k="ssr:stedsnr" v="955905" />
	</node>
	<node id="-464752" lat="60.7834388929" lon="6.7081000004">
		<tag k="name" v="Brandsetelvi" />
		<tag k="ssr:stedsnr" v="955894" />
		<tag k="waterway" v="river" />
	</node>
	<node id="-464748" lat="60.6602833328" lon="6.44248333434">
		<tag k="name" v="Melsvatnet" />
		<tag k="natural" v="water" />
		<tag k="ssr:stedsnr" v="955869" />
		<tag k="water" v="lake" />
	</node>
	<node id="-464746" lat="60.6471416682" lon="6.4957388833">
		<tag k="name" v="Høydalsgrovi" />
		<tag k="ssr:stedsnr" v="955844" />
		<tag k="waterway" v="stream" />
	</node>
	<node id="-464745" lat="60.7004444451" lon="6.45461111057">
		<tag k="name" v="Vetlåni" />
		<tag k="ssr:stedsnr" v="955838" />
		<tag k="waterway" v="stream" />
	</node>
	<node id="-460647" lat="60.6578807167" lon="6.86729101714">
		<tag k="name" v="Vesetvatnet" />
		<tag k="natural" v="water" />
		<tag k="ssr:stedsnr" v="492967" />
		<tag k="water" v="lake" />
	</node>
	<node id="-464742" lat="60.5704666656" lon="6.6024722272">
		<tag k="name" v="Bulkeelvi" />
		<tag k="ssr:stedsnr" v="955734" />
		<tag k="waterway" v="river" />
	</node>
	<node id="-462693" lat="60.7293388844" lon="6.56951943937">
		<tag k="name" v="Langedalselvi" />
		<tag k="ssr:stedsnr" v="530823" />
		<tag k="waterway" v="river" />
	</node>
	<node id="-462692" lat="60.7369583366" lon="6.59939999359">
		<tag k="name" v="Budalsgroi" />
		<tag k="ssr:stedsnr" v="530818" />
		<tag k="waterway" v="stream" />
	</node>
	<node id="-462690" lat="60.7552245649" lon="6.63122567566">
		<tag k="name" v="Reinstjørn" />
		<tag k="natural" v="water" />
		<tag k="ssr:stedsnr" v="530815" />
	</node>
	<node id="-460639" lat="60.5796861115" lon="6.53721388611">
		<tag k="name" v="Håsetgroi" />
		<tag k="ssr:stedsnr" v="896656" />
		<tag k="waterway" v="stream" />
	</node>
	<node id="-464732" lat="60.5167611153" lon="6.49569444109">
		<tag k="name" v="Lommarsøyane" />
		<tag k="place" v="island" />
		<tag k="ssr:stedsnr" v="955545" />
	</node>
	<node id="-462683" lat="60.5127166636" lon="6.48388054908">
		<tag k="name" v="Hardingagrovi" />
		<tag k="ssr:stedsnr" v="530595" />
		<tag k="waterway" v="stream" />
	</node>
	<node id="-462680" lat="60.7067194475" lon="6.51314443559">
		<tag k="name" v="Storilsko" />
		<tag k="ssr:stedsnr" v="530518" />
		<tag k="waterway" v="stream" />
	</node>
	<node id="-464721" lat="60.636538885" lon="6.56232777864">
		<tag k="name" v="Pottagrovi" />
		<tag k="ssr:stedsnr" v="955269" />
		<tag k="waterway" v="stream" />
	</node>
	<node id="-464718" lat="60.6591305587" lon="6.77711388268">
		<tag k="name" v="Mysedøla" />
		<tag k="ssr:stedsnr" v="955211" />
		<tag k="waterway" v="river" />
	</node>
	<node id="-462667" lat="60.8677027738" lon="6.61921943606">
		<tag k="name" v="Gelseldro" />
		<tag k="ssr:stedsnr" v="530213" />
		<tag k="waterway" v="stream" />
	</node>
	<node id="-460618" lat="60.5328388898" lon="6.47793610679">
		<tag k="name" v="Merkesgrovi" />
		<tag k="ssr:stedsnr" v="895958" />
		<tag k="waterway" v="stream" />
	</node>
	<node id="-462662" lat="60.8584194455" lon="6.72149166644">
		<tag k="name" v="Tendegroi" />
		<tag k="ssr:stedsnr" v="530071" />
		<tag k="waterway" v="stream" />
	</node>
	<node id="-460612" lat="60.556691665" lon="6.58663056463">
		<tag k="name" v="Holmen" />
		<tag k="place" v="islet" />
		<tag k="ssr:stedsnr" v="895699" />
	</node>
	<node id="-464706" lat="60.6395558545" lon="6.37039230333">
		<tag k="name" v="Gullringstjørni" />
		<tag k="natural" v="water" />
		<tag k="ssr:stedsnr" v="931977" />
	</node>
	<node id="-464705" lat="60.6395638922" lon="6.36103333961">
		<tag k="name" v="Avveitene" />
		<tag k="ssr:stedsnr" v="931975" />
		<tag k="waterway" v="stream" />
	</node>
	<node id="-464703" lat="60.5932527765" lon="6.19527778639">
		<tag k="name" v="Leirøyni" />
		<tag k="natural" v="cape" />
		<tag k="ssr:stedsnr" v="931959" />
	</node>
	<node id="-462653" lat="60.6048083325" lon="6.17101111513">
		<tag k="name" v="Stakafossgrovi" />
		<tag k="ssr:stedsnr" v="506943" />
		<tag k="waterway" v="river" />
	</node>
	<node id="-460604" lat="60.6997805601" lon="6.82835833955">
		<tag k="name" v="Rjupetjørn" />
		<tag k="natural" v="water" />
		<tag k="ssr:stedsnr" v="895556" />
	</node>
	<node id="-461678" lat="60.5753996216" lon="6.14194401476">
		<tag k="name" v="Ljosvatnet" />
		<tag k="natural" v="water" />
		<tag k="ssr:stedsnr" v="189017" />
	</node>
	<node id="-462648" lat="60.6583583345" lon="6.30364722116">
		<tag k="name" v="Tvagrovi" />
		<tag k="ssr:stedsnr" v="506918" />
		<tag k="waterway" v="river" />
	</node>
	<node id="-460596" lat="60.6761777746" lon="6.45467777538">
		<tag k="name" v="Mattisviki" />
		<tag k="natural" v="bay" />
		<tag k="ssr:stedsnr" v="895466" />
	</node>
	<node id="-460595" lat="60.680915428" lon="6.46966206496">
		<tag k="name" v="Lønaholmen" />
		<tag k="place" v="islet" />
		<tag k="ssr:stedsnr" v="895464" />
	</node>
	<node id="-464689" lat="60.6202888888" lon="5.97344999372">
		<tag k="name" v="Krobekken" />
		<tag k="ssr:stedsnr" v="931878" />
		<tag k="waterway" v="stream" />
	</node>
	<node id="-461814" lat="60.6300694406" lon="6.01001944236">
		<tag k="name" v="Nyegardsgrovi" />
		<tag k="ssr:stedsnr" v="203691" />
		<tag k="waterway" v="river" />
	</node>
	<node id="-461132" lat="60.7732027816" lon="6.45211667354">
		<tag k="name" v="Storegrovi" />
		<tag k="ssr:stedsnr" v="81254" />
		<tag k="waterway" v="river" />
	</node>
	<node id="-462130" lat="60.8198805553" lon="6.6367527746">
		<tag k="name" v="Brengsgrovi" />
		<tag k="ssr:stedsnr" v="264276" />
		<tag k="waterway" v="river" />
	</node>
	<node id="-462634" lat="60.6411777823" lon="6.1537250052">
		<tag k="name" v="Kvernhusgrovi" />
		<tag k="ssr:stedsnr" v="506723" />
		<tag k="waterway" v="river" />
	</node>
	<node id="-460581" lat="60.8284027771" lon="6.63748611367">
		<tag k="name" v="Skjolsetgroi" />
		<tag k="ssr:stedsnr" v="895223" />
		<tag k="waterway" v="river" />
	</node>
	<node id="-460580" lat="60.6865666643" lon="6.85629999739">
		<tag k="name" v="Svartegroi" />
		<tag k="ssr:stedsnr" v="895215" />
		<tag k="waterway" v="stream" />
	</node>
	<node id="-462470" lat="60.7457509736" lon="6.31556504887">
		<tag k="name" v="Borgavotni" />
		<tag k="natural" v="water" />
		<tag k="ssr:stedsnr" v="491385" />
		<tag k="water" v="lake" />
	</node>
	<node id="-462621" lat="60.714397221" lon="6.69037221813">
		<tag k="name" v="Dravlærne" />
		<tag k="ssr:stedsnr" v="506549" />
		<tag k="waterway" v="river" />
	</node>
	<node id="-462620" lat="60.7274833347" lon="6.14722777931">
		<tag k="name" v="Krakagrovi" />
		<tag k="ssr:stedsnr" v="506513" />
		<tag k="waterway" v="river" />
	</node>
	<node id="-464667" lat="60.6383694439" lon="5.95564166144">
		<tag k="name" v="Bolstadhølen" />
		<tag k="place" v="locality" />
		<tag k="ssr:stedsnr" v="931681" />
	</node>
	<node id="-462618" lat="60.8113666697" lon="6.6541444534">
		<tag k="name" v="Giljarhuselvi" />
		<tag k="ssr:stedsnr" v="506389" />
		<tag k="waterway" v="river" />
	</node>
	<node id="-462614" lat="60.7915888884" lon="6.65177222866">
		<tag k="name" v="Stølagrovi" />
		<tag k="ssr:stedsnr" v="506366" />
		<tag k="waterway" v="stream" />
	</node>
	<node id="-462609" lat="60.8138055516" lon="6.62151944456">
		<tag k="name" v="Brunnøydokki" />
		<tag k="ssr:stedsnr" v="506291" />
		<tag k="waterway" v="river" />
	</node>
	<node id="-461680" lat="60.5318749983" lon="6.44868334215">
		<tag k="name" v="Kyljo" />
		<tag k="ssr:stedsnr" v="189473" />
		<tag k="waterway" v="stream" />
	</node>
	<node id="-462606" lat="60.6267218125" lon="6.16325795886">
		<tag k="alt_name" v="Skirvefossen, øvre;Fossen" />
		<tag k="name" v="Øvre Skirvefossen" />
		<tag k="natural" v="waterfall" />
		<tag k="ssr:stedsnr" v="506258" />
	</node>
	<node id="-462605" lat="60.8397111078" lon="6.43054444054">
		<tag k="name" v="Rysshamraelvi" />
		<tag k="ssr:stedsnr" v="506250" />
		<tag k="waterway" v="river" />
	</node>
	<node id="-464649" lat="60.8614305567" lon="6.51443332404">
		<tag k="name" v="Bygdagrovi" />
		<tag k="ssr:stedsnr" v="931354" />
		<tag k="waterway" v="river" />
	</node>
	<node id="-462594" lat="60.8045805554" lon="6.50491388673">
		<tag k="name" v="Øyafossen" />
		<tag k="natural" v="waterfall" />
		<tag k="ssr:stedsnr" v="506184" />
	</node>
	<node id="-462591" lat="60.7766305541" lon="6.46933888521">
		<tag k="name" v="Hønsegrovi" />
		<tag k="ssr:stedsnr" v="506174" />
		<tag k="waterway" v="river" />
	</node>
	<node id="-464633" lat="60.7223638846" lon="6.44767777787">
		<tag k="name" v="Kroelvi" />
		<tag k="ssr:stedsnr" v="931150" />
		<tag k="waterway" v="river" />
	</node>
	<node id="-464631" lat="60.745791669" lon="6.42080833945">
		<tag k="name" v="Osen" />
		<tag k="natural" v="bay" />
		<tag k="ssr:stedsnr" v="931140" />
	</node>
	<node id="-464626" lat="60.6373027784" lon="6.20277777609">
		<tag k="name" v="Tangen" />
		<tag k="natural" v="cape" />
		<tag k="ssr:stedsnr" v="931106" />
	</node>
	<node id="-464623" lat="60.6263055517" lon="6.28683055066">
		<tag k="name" v="Skjeldaholmen" />
		<tag k="place" v="islet" />
		<tag k="ssr:stedsnr" v="931085" />
	</node>
	<node id="-460413" lat="60.6465055517" lon="5.9940388854">
		<tag k="name" v="Keila" />
		<tag k="place" v="locality" />
		<tag k="ssr:stedsnr" v="384690" />
	</node>
	<node id="-462571" lat="60.7574749981" lon="6.291941675">
		<tag k="name" v="Kaldavatnet" />
		<tag k="natural" v="water" />
		<tag k="ssr:stedsnr" v="494969" />
	</node>
	<node id="-462570" lat="60.7636833338" lon="6.44676666473">
		<tag k="name" v="Holaelvi" />
		<tag k="ssr:stedsnr" v="494963" />
		<tag k="waterway" v="river" />
	</node>
	<node id="-464616" lat="60.6649555595" lon="6.18322499886">
		<tag k="name" v="Stakkstøgrovi" />
		<tag k="ssr:stedsnr" v="931054" />
		<tag k="waterway" v="river" />
	</node>
	<node id="-462567" lat="60.7511000005" lon="6.2881499975">
		<tag k="name" v="Kaldåni" />
		<tag k="ssr:stedsnr" v="494949" />
		<tag k="waterway" v="stream" />
	</node>
	<node id="-460515" lat="60.8842527743" lon="6.71529165818">
		<tag k="name" v="Stølsgroi" />
		<tag k="ssr:stedsnr" v="410229" />
		<tag k="waterway" v="stream" />
	</node>
	<node id="-464609" lat="60.772686113" lon="6.57423611833">
		<tag k="name" v="Furestølsgrovi" />
		<tag k="ssr:stedsnr" v="931249" />
		<tag k="waterway" v="river" />
	</node>
	<node id="-464608" lat="60.6167972211" lon="6.19872221861">
		<tag k="name" v="Haugasundet" />
		<tag k="place" v="locality" />
		<tag k="ssr:stedsnr" v="931225" />
	</node>
	<node id="-464607" lat="60.6159722229" lon="6.13525832918">
		<tag k="name" v="Stølsgrovi" />
		<tag k="ssr:stedsnr" v="931210" />
		<tag k="waterway" v="river" />
	</node>
	<node id="-462558" lat="60.8731817928" lon="6.38818458685">
		<tag k="name" v="Vetlevatnet" />
		<tag k="natural" v="water" />
		<tag k="ssr:stedsnr" v="494543" />
	</node>
	<node id="-460509" lat="60.5542277813" lon="6.11585000632">
		<tag k="name" v="Skyråni" />
		<tag k="ssr:stedsnr" v="409962" />
		<tag k="waterway" v="stream" />
	</node>
	<node id="-464604" lat="60.7576083295" lon="6.4951916651">
		<tag k="name" v="Strandaelvi" />
		<tag k="ssr:stedsnr" v="919938" />
		<tag k="waterway" v="river" />
	</node>
	<node id="-460507" lat="60.8325694487" lon="6.57070833047">
		<tag k="name" v="Støkkjagrovi" />
		<tag k="ssr:stedsnr" v="409906" />
		<tag k="waterway" v="river" />
	</node>
	<node id="-462552" lat="60.7610624602" lon="6.16341213313">
		<tag k="name" v="Blåvatnet" />
		<tag k="natural" v="water" />
		<tag k="ssr:stedsnr" v="493675" />
	</node>
	<node id="-462551" lat="60.904800002" lon="6.45627500367">
		<tag k="name" v="Sendo" />
		<tag k="ssr:stedsnr" v="493628" />
		<tag k="waterway" v="stream" />
	</node>
	<node id="-460409" lat="60.6697111078" lon="6.60090278293">
		<tag k="name" v="Jussdølo" />
		<tag k="ssr:stedsnr" v="384648" />
		<tag k="waterway" v="river" />
	</node>
	<node id="-462548" lat="60.9371990947" lon="6.49468171076">
		<tag k="name" v="Buforevatnet" />
		<tag k="natural" v="water" />
		<tag k="ssr:stedsnr" v="493608" />
	</node>
	<node id="-460497" lat="60.5589833294" lon="6.59022777275">
		<tag k="name" v="Vetleholmen" />
		<tag k="place" v="islet" />
		<tag k="ssr:stedsnr" v="409736" />
	</node>
	<node id="-460749" lat="60.7090517343" lon="6.05418717125">
		<tag k="alt_name" v="Blåvatnet, øvre" />
		<tag k="name" v="Øvra Blåvatnet" />
		<tag k="natural" v="water" />
		<tag k="ssr:stedsnr" v="6477" />
	</node>
	<node id="-462540" lat="60.8112546484" lon="6.3862886516">
		<tag k="name" v="Demmetjørnane" />
		<tag k="natural" v="water" />
		<tag k="ssr:stedsnr" v="493501" />
		<tag k="water" v="lake" />
	</node>
	<node id="-462539" lat="60.7699222266" lon="6.72711388897">
		<tag k="name" v="Tverrelvi" />
		<tag k="ssr:stedsnr" v="493207" />
		<tag k="waterway" v="stream" />
	</node>
	<node id="-464586" lat="60.8569388906" lon="6.50193055252">
		<tag k="name" v="Kvanndøla" />
		<tag k="ssr:stedsnr" v="919538" />
		<tag k="waterway" v="river" />
	</node>
	<node id="-462536" lat="60.6843472257" lon="6.87414166825">
		<tag k="name" v="Mjølbotno" />
		<tag k="ssr:stedsnr" v="492984" />
		<tag k="waterway" v="river" />
	</node>
	<node id="-460748" lat="60.7086916648" lon="5.95751944439">
		<tag k="name" v="Norddalselvi" />
		<tag k="ssr:stedsnr" v="6471" />
		<tag k="waterway" v="stream" />
	</node>
	<node id="-460486" lat="60.6956916683" lon="6.47725277826">
		<tag k="name" v="Lønaøyane" />
		<tag k="place" v="island" />
		<tag k="ssr:stedsnr" v="409496" />
	</node>
	<node id="-464579" lat="60.7623800086" lon="6.10391097166">
		<tag k="name" v="Ljosvatnet" />
		<tag k="natural" v="water" />
		<tag k="ssr:stedsnr" v="918770" />
	</node>
	<node id="-464578" lat="60.9052063366" lon="6.42517106589">
		<tag k="name" v="Lars-Olavatnet" />
		<tag k="natural" v="water" />
		<tag k="ssr:stedsnr" v="918672" />
		<tag k="water" v="lake" />
	</node>
	<node id="-464577" lat="60.8858305559" lon="6.4786694482">
		<tag k="name" v="Kaldavatnet" />
		<tag k="natural" v="water" />
		<tag k="ssr:stedsnr" v="918636" />
		<tag k="water" v="lake" />
	</node>
	<node id="-462528" lat="60.5668249983" lon="6.12882500482">
		<tag k="name" v="Ljosvatnet" />
		<tag k="natural" v="water" />
		<tag k="ssr:stedsnr" v="492811" />
	</node>
	<node id="-460477" lat="60.6938520836" lon="6.44034086898">
		<tag k="name" v="Tjørni" />
		<tag k="natural" v="water" />
		<tag k="ssr:stedsnr" v="409439" />
	</node>
	<node id="-464569" lat="60.6808250017" lon="6.8383000067">
		<tag k="name" v="Veseto" />
		<tag k="ssr:stedsnr" v="917989" />
		<tag k="waterway" v="river" />
	</node>
	<node id="-462520" lat="60.569047165" lon="6.30306134012">
		<tag k="name" v="Rundatjørni" />
		<tag k="natural" v="water" />
		<tag k="ssr:stedsnr" v="492657" />
	</node>
	<node id="-462519" lat="60.577220296" lon="6.27864581713">
		<tag k="name" v="Krokatjørnane" />
		<tag k="natural" v="water" />
		<tag k="ssr:stedsnr" v="492652" />
		<tag k="water" v="lake" />
	</node>
	<node id="-462518" lat="60.5786348085" lon="6.26901098982">
		<tag k="name" v="Horgatjørni" />
		<tag k="natural" v="water" />
		<tag k="ssr:stedsnr" v="492634" />
	</node>
	<node id="-462516" lat="60.5961000022" lon="6.33109721745">
		<tag k="name" v="Nesthuselvi" />
		<tag k="ssr:stedsnr" v="492616" />
		<tag k="waterway" v="river" />
	</node>
	<node id="-460403" lat="60.6976888888" lon="6.13193055512">
		<tag k="name" v="Lambagrovi" />
		<tag k="ssr:stedsnr" v="384749" />
		<tag k="waterway" v="river" />
	</node>
	<node id="-462511" lat="60.5350027795" lon="6.31672222621">
		<tag k="name" v="Torfinnsåni" />
		<tag k="ssr:stedsnr" v="492591" />
		<tag k="waterway" v="river" />
	</node>
	<node id="-464558" lat="60.6127555536" lon="6.41192499559">
		<tag k="name" v="Gjoni" />
		<tag k="ssr:stedsnr" v="917600" />
		<tag k="waterway" v="river" />
	</node>
	<node id="-462508" lat="60.5516305548" lon="6.24478055315">
		<tag k="name" v="Storeholmen" />
		<tag k="place" v="islet" />
		<tag k="ssr:stedsnr" v="492540" />
	</node>
	<node id="-462507" lat="60.5734421121" lon="6.55572537012">
		<tag k="name" v="Navatjørni" />
		<tag k="natural" v="water" />
		<tag k="ssr:stedsnr" v="492537" />
	</node>
	<node id="-464554" lat="60.5556861082" lon="6.43996945225">
		<tag k="name" v="Storagrovi" />
		<tag k="ssr:stedsnr" v="917569" />
		<tag k="waterway" v="river" />
	</node>
	<node id="-464552" lat="60.5733750033" lon="6.58631110854">
		<tag k="name" v="Svinåni" />
		<tag k="ssr:stedsnr" v="917562" />
		<tag k="waterway" v="river" />
	</node>
	<node id="-462503" lat="60.7099083309" lon="6.8805000074">
		<tag k="name" v="Ljosandgrøvene" />
		<tag k="ssr:stedsnr" v="492511" />
		<tag k="waterway" v="river" />
	</node>
	<node id="-460453" lat="60.8984416678" lon="6.6207388934">
		<tag k="name" v="Fossene" />
		<tag k="natural" v="waterfall" />
		<tag k="ssr:stedsnr" v="409127" />
	</node>
	<node id="-460451" lat="60.5803694473" lon="6.16566944607">
		<tag k="name" v="Holmen" />
		<tag k="place" v="islet" />
		<tag k="ssr:stedsnr" v="409090" />
	</node>
	<node id="-460450" lat="60.8835055548" lon="6.72858888672">
		<tag k="name" v="Tverrligroi" />
		<tag k="ssr:stedsnr" v="409059" />
		<tag k="waterway" v="stream" />
	</node>
	<node id="-462497" lat="60.510433333" lon="6.31675278377">
		<tag k="name" v="Giltjørni" />
		<tag k="natural" v="water" />
		<tag k="ssr:stedsnr" v="492488" />
	</node>
	<node id="-462496" lat="60.5317531579" lon="6.52801145758">
		<tag k="name" v="Hanselavatnet" />
		<tag k="natural" v="water" />
		<tag k="ssr:stedsnr" v="492470" />
		<tag k="water" v="lake" />
	</node>
	<node id="-462495" lat="60.5184499963" lon="6.46664999264">
		<tag k="name" v="Forsteino" />
		<tag k="ssr:stedsnr" v="492464" />
		<tag k="waterway" v="stream" />
	</node>
	<node id="-462494" lat="60.5240065027" lon="6.40934114249">
		<tag k="name" v="Horgavatnet" />
		<tag k="natural" v="water" />
		<tag k="ssr:stedsnr" v="492462" />
	</node>
	<node id="-464540" lat="60.6447683806" lon="6.28492533057">
		<tag k="name" v="Lomtjørni" />
		<tag k="natural" v="water" />
		<tag k="ssr:stedsnr" v="917228" />
	</node>
	<node id="-464537" lat="60.6485767457" lon="6.38730885499">
		<tag k="name" v="Valbergstjørni" />
		<tag k="natural" v="water" />
		<tag k="ssr:stedsnr" v="917205" />
	</node>
	<node id="-464535" lat="60.6319916665" lon="6.01401666625">
		<tag k="name" v="Jørnevikelvi" />
		<tag k="ssr:stedsnr" v="917114" />
		<tag k="waterway" v="river" />
	</node>
	<node id="-462484" lat="60.6307333359" lon="6.05171110985">
		<tag k="name" v="Løkjaelvi" />
		<tag k="ssr:stedsnr" v="492109" />
		<tag k="waterway" v="river" />
	</node>
	<node id="-462481" lat="60.6631166643" lon="6.17739999718">
		<tag k="name" v="Hagagrovi" />
		<tag k="ssr:stedsnr" v="492002" />
		<tag k="waterway" v="river" />
	</node>
	<node id="-462478" lat="60.5031027748" lon="6.52650277265">
		<tag k="name" v="Kaldåni" />
		<tag k="ssr:stedsnr" v="491762" />
		<tag k="waterway" v="stream" />
	</node>
	<node id="-464524" lat="60.7148444475" lon="6.09273056405">
		<tag k="name" v="Rodalsvatnet" />
		<tag k="natural" v="water" />
		<tag k="ssr:stedsnr" v="916473" />
		<tag k="water" v="lake" />
	</node>
	<node id="-464523" lat="60.7176027021" lon="6.07825283214">
		<tag k="alt_name" v="Blåvatnet, nedre" />
		<tag k="name" v="Nedra Blåvatnet" />
		<tag k="natural" v="water" />
		<tag k="ssr:stedsnr" v="916472" />
	</node>
	<node id="-462471" lat="60.7397999993" lon="6.26218055817">
		<tag k="name" v="Krokelvi" />
		<tag k="ssr:stedsnr" v="491387" />
		<tag k="waterway" v="river" />
	</node>
	<node id="-464518" lat="60.7305921807" lon="6.07847642674">
		<tag k="name" v="Høgevasstjørni" />
		<tag k="natural" v="water" />
		<tag k="ssr:stedsnr" v="916446" />
	</node>
	<node id="-460421" lat="60.6613361082" lon="5.90701943725">
		<tag k="name" v="Rotaneset" />
		<tag k="natural" v="cape" />
		<tag k="ssr:stedsnr" v="384848" />
	</node>
	<node id="-462467" lat="60.7117916651" lon="6.30163888791">
		<tag k="name" v="Vetla Volavatnet" />
		<tag k="natural" v="water" />
		<tag k="ssr:stedsnr" v="491370" />
		<tag k="water" v="lake" />
	</node>
	<node id="-460736" lat="60.7281777817" lon="6.49139167299">
		<tag k="name" v="Tvinnefossen" />
		<tag k="natural" v="waterfall" />
		<tag k="ssr:stedsnr" v="6380" />
	</node>
	<node id="-460414" lat="60.6645361113" lon="6.34660278329">
		<tag k="name" v="Krokane" />
		<tag k="natural" v="cape" />
		<tag k="ssr:stedsnr" v="384903" />
	</node>
	<node id="-462461" lat="60.6941583358" lon="5.96521666016">
		<tag k="name" v="Galnegrovi" />
		<tag k="ssr:stedsnr" v="491488" />
		<tag k="waterway" v="stream" />
	</node>
	<node id="-460412" lat="60.6430888898" lon="5.95438333277">
		<tag k="name" v="Horvvikaneset" />
		<tag k="natural" v="cape" />
		<tag k="ssr:stedsnr" v="384681" />
	</node>
	<node id="-464507" lat="60.6959493437" lon="6.53447513367">
		<tag k="name" v="Langatjørni" />
		<tag k="natural" v="water" />
		<tag k="ssr:stedsnr" v="916347" />
	</node>
	<node id="-462457" lat="60.7365903105" lon="6.02314438443">
		<tag k="name" v="Hundabukstjørni" />
		<tag k="natural" v="water" />
		<tag k="ssr:stedsnr" v="491423" />
	</node>
	<node id="-460408" lat="60.6604440386" lon="6.70206615536">
		<tag k="name" v="Fribotto" />
		<tag k="ssr:stedsnr" v="384642" />
		<tag k="waterway" v="river" />
	</node>
	<node id="-462454" lat="60.6021221333" lon="6.2150740518">
		<tag k="name" v="Brokatjørni" />
		<tag k="natural" v="water" />
		<tag k="ssr:stedsnr" v="491199" />
	</node>
	<node id="-462441" lat="60.6659888874" lon="5.93688332485">
		<tag k="name" v="Stølsgrovi" />
		<tag k="ssr:stedsnr" v="491051" />
		<tag k="waterway" v="river" />
	</node>
	<node id="-462452" lat="60.6194833355" lon="5.93226388023">
		<tag k="name" v="Tverrbekken" />
		<tag k="ssr:stedsnr" v="491183" />
		<tag k="waterway" v="stream" />
	</node>
	<node id="-464499" lat="60.6089641793" lon="6.04231401519">
		<tag k="name" v="Gråhorgavotni" />
		<tag k="natural" v="water" />
		<tag k="ssr:stedsnr" v="916247" />
		<tag k="water" v="lake" />
	</node>
	<node id="-460401" lat="60.688326877" lon="6.06110212149">
		<tag k="name" v="Horgatjørni" />
		<tag k="natural" v="water" />
		<tag k="ssr:stedsnr" v="384745" />
	</node>
	<node id="-460400" lat="60.6462305514" lon="6.14310278411">
		<tag k="name" v="Skorvøyane" />
		<tag k="place" v="island" />
		<tag k="ssr:stedsnr" v="384731" />
	</node>
	<node id="-460399" lat="60.6421555517" lon="6.14416944655">
		<tag k="name" v="Hyljaråsgrovi" />
		<tag k="ssr:stedsnr" v="384732" />
		<tag k="waterway" v="river" />
	</node>
	<node id="-462446" lat="60.6453055565" lon="5.89211944685">
		<tag k="name" v="Loni" />
		<tag k="natural" v="water" />
		<tag k="ssr:stedsnr" v="491074" />
		<tag k="water" v="lake" />
	</node>
	<node id="-462444" lat="60.6462166692" lon="6.02618889016">
		<tag k="name" v="Krossneset" />
		<tag k="natural" v="cape" />
		<tag k="ssr:stedsnr" v="491065" />
	</node>
	<node id="-462098" lat="60.6630027756" lon="6.73135832539">
		<tag k="name" v="Dyrebotto" />
		<tag k="ssr:stedsnr" v="263676" />
		<tag k="waterway" v="river" />
	</node>
	<node id="-462442" lat="60.662088892" lon="5.91816667505">
		<tag k="name" v="Slipetjørni" />
		<tag k="natural" v="water" />
		<tag k="ssr:stedsnr" v="491053" />
	</node>
	<node id="-464489" lat="60.6394083294" lon="5.8649194478">
		<tag k="name" v="Hermundsdalselvi" />
		<tag k="ssr:stedsnr" v="916112" />
		<tag k="waterway" v="stream" />
	</node>
	<node id="-460392" lat="60.8482499976" lon="6.46331111657">
		<tag k="name" v="Overlandsgrovi" />
		<tag k="ssr:stedsnr" v="384350" />
		<tag k="waterway" v="river" />
	</node>
	<node id="-460732" lat="60.6991805532" lon="6.23101666544">
		<tag k="name" v="Harkavatnet" />
		<tag k="natural" v="water" />
		<tag k="ssr:stedsnr" v="6357" />
		<tag k="water" v="lake" />
	</node>
	<node id="-464486" lat="60.6494361066" lon="5.98845832907">
		<tag k="name" v="Skreidsbekken" />
		<tag k="ssr:stedsnr" v="916073" />
		<tag k="waterway" v="stream" />
	</node>
	<node id="-464485" lat="60.6452749987" lon="6.03896944144">
		<tag k="name" v="Bergstadneset" />
		<tag k="natural" v="cape" />
		<tag k="ssr:stedsnr" v="916065" />
	</node>
	<node id="-460387" lat="60.5436361105" lon="6.25780554964">
		<tag k="name" v="Vikane" />
		<tag k="natural" v="bay" />
		<tag k="ssr:stedsnr" v="384240" />
	</node>
	<node id="-464482" lat="60.6788777779" lon="6.15643889255">
		<tag k="name" v="Skorsetvatnet" />
		<tag k="natural" v="water" />
		<tag k="ssr:stedsnr" v="916018" />
	</node>
	<node id="-460385" lat="60.7875138867" lon="6.50970277557">
		<tag k="name" v="Løkjelvi" />
		<tag k="ssr:stedsnr" v="384198" />
		<tag k="waterway" v="river" />
	</node>
	<node id="-463465" lat="60.6582249985" lon="6.17131389621">
		<tag k="name" v="Raudgrovi" />
		<tag k="ssr:stedsnr" v="688055" />
		<tag k="waterway" v="river" />
	</node>
	<node id="-460378" lat="60.6354388909" lon="6.24176388652">
		<tag k="name" v="Paradisbukti" />
		<tag k="natural" v="bay" />
		<tag k="ssr:stedsnr" v="384126" />
	</node>
	<node id="-461071" lat="60.6120444419" lon="6.28839721804">
		<tag k="name" v="Mosafinnselvi" />
		<tag k="ssr:stedsnr" v="67746" />
		<tag k="waterway" v="stream" />
	</node>
	<node id="-464472" lat="60.6055002822" lon="6.22413358618">
		<tag k="name" v="Vidbotnatjørni" />
		<tag k="natural" v="water" />
		<tag k="ssr:stedsnr" v="870947" />
	</node>
	<node id="-464469" lat="60.5941111137" lon="6.35056388333">
		<tag k="name" v="Solheimo" />
		<tag k="ssr:stedsnr" v="870931" />
		<tag k="waterway" v="river" />
	</node>
	<node id="-462416" lat="60.6255932005" lon="6.61808391024">
		<tag k="name" v="Demmedalstjørni" />
		<tag k="natural" v="water" />
		<tag k="ssr:stedsnr" v="470630" />
	</node>
	<node id="-462410" lat="60.5732555585" lon="6.47700555711">
		<tag k="name" v="Kvitnagrovi" />
		<tag k="ssr:stedsnr" v="470549" />
		<tag k="waterway" v="stream" />
	</node>
	<node id="-464457" lat="60.6510782508" lon="5.88603959111">
		<tag k="name" v="Pittatjørni" />
		<tag k="natural" v="water" />
		<tag k="ssr:stedsnr" v="870858" />
	</node>
	<node id="-462407" lat="60.6079916634" lon="6.40846388432">
		<tag k="name" v="Tomaso" />
		<tag k="ssr:stedsnr" v="470508" />
		<tag k="waterway" v="stream" />
	</node>
	<node id="-462405" lat="60.6750694466" lon="6.45290555015">
		<tag k="name" v="Husagrovi" />
		<tag k="ssr:stedsnr" v="470471" />
		<tag k="waterway" v="stream" />
	</node>
	<node id="-464448" lat="60.6912388875" lon="6.12772223129">
		<tag k="name" v="Teinegrovi" />
		<tag k="ssr:stedsnr" v="870742" />
		<tag k="waterway" v="river" />
	</node>
	<node id="-464446" lat="60.6482694454" lon="6.1418277705">
		<tag k="name" v="Semarekleivgrovi" />
		<tag k="ssr:stedsnr" v="870736" />
		<tag k="waterway" v="river" />
	</node>
	<node id="-464445" lat="60.6395666645" lon="6.16187222825">
		<tag k="name" v="Øvstøyni" />
		<tag k="place" v="island" />
		<tag k="ssr:stedsnr" v="870734" />
	</node>
	<node id="-460042" lat="60.7742305538" lon="6.54519166697">
		<tag k="name" v="Fjellagrovi" />
		<tag k="ssr:stedsnr" v="312968" />
		<tag k="waterway" v="stream" />
	</node>
	<node id="-460346" lat="60.9141745151" lon="6.49150127169">
		<tag k="alt_name" v="Grungavatnet, vetle" />
		<tag k="name" v="Vetla Grungavatnet" />
		<tag k="natural" v="water" />
		<tag k="ssr:stedsnr" v="372627" />
	</node>
	<node id="-464441" lat="60.6509027772" lon="6.09395555182">
		<tag k="name" v="Bekasteinen" />
		<tag k="natural" v="cape" />
		<tag k="ssr:stedsnr" v="870716" />
	</node>
	<node id="-462391" lat="60.6577333299" lon="6.43932499117">
		<tag k="name" v="Storrviki" />
		<tag k="natural" v="bay" />
		<tag k="ssr:stedsnr" v="470361" />
	</node>
	<node id="-460340" lat="60.8426351143" lon="6.51220112007">
		<tag k="name" v="Vetla Vasstjørni" />
		<tag k="natural" v="water" />
		<tag k="ssr:stedsnr" v="372567" />
	</node>
	<node id="-460337" lat="60.8087749973" lon="6.47599999761">
		<tag k="name" v="Myrkdalsvatnet" />
		<tag k="natural" v="water" />
		<tag k="ssr:stedsnr" v="372533" />
		<tag k="water" v="lake" />
	</node>
	<node id="-462382" lat="60.6653749972" lon="6.69041111625">
		<tag k="name" v="Juvåsåni" />
		<tag k="ssr:stedsnr" v="470214" />
		<tag k="waterway" v="stream" />
	</node>
	<node id="-462381" lat="60.9008861139" lon="6.50046945164">
		<tag k="name" v="Bjørndøla" />
		<tag k="ssr:stedsnr" v="470208" />
		<tag k="waterway" v="river" />
	</node>
	<node id="-464427" lat="60.6113903911" lon="6.02609919877">
		<tag k="name" v="Njukatjørni" />
		<tag k="natural" v="water" />
		<tag k="ssr:stedsnr" v="870631" />
	</node>
	<node id="-464426" lat="60.7398464973" lon="6.11211967498">
		<tag k="name" v="Krokatjørni" />
		<tag k="natural" v="water" />
		<tag k="ssr:stedsnr" v="870510" />
	</node>
	<node id="-462376" lat="60.6859722202" lon="6.66195555971">
		<tag k="name" v="Midtbergsgrovi" />
		<tag k="ssr:stedsnr" v="470174" />
		<tag k="waterway" v="stream" />
	</node>
	<node id="-460714" lat="60.6127861111" lon="6.20401388857">
		<tag k="name" v="Sytjørni" />
		<tag k="natural" v="water" />
		<tag k="ssr:stedsnr" v="6174" />
	</node>
	<node id="-462369" lat="60.6624444458" lon="6.69335278516">
		<tag k="name" v="Horndøla" />
		<tag k="ssr:stedsnr" v="470118" />
		<tag k="waterway" v="stream" />
	</node>
	<node id="-462366" lat="60.8824111078" lon="6.73184445029">
		<tag k="name" v="Fossen" />
		<tag k="natural" v="waterfall" />
		<tag k="ssr:stedsnr" v="470089" />
	</node>
	<node id="-464413" lat="60.6258638911" lon="6.24811944344">
		<tag k="name" v="Vikagrovi" />
		<tag k="ssr:stedsnr" v="870238" />
		<tag k="waterway" v="river" />
	</node>
	<node id="-460316" lat="60.556737803" lon="6.48436879419">
		<tag k="name" v="Brislingatjørni" />
		<tag k="natural" v="water" />
		<tag k="ssr:stedsnr" v="371570" />
	</node>
	<node id="-460308" lat="60.6404916684" lon="6.11126944386">
		<tag k="name" v="Merkesgrovi" />
		<tag k="ssr:stedsnr" v="371001" />
		<tag k="waterway" v="stream" />
	</node>
	<node id="-460307" lat="60.5566777773" lon="6.137986112">
		<tag k="name" v="Hellebergsgrovi" />
		<tag k="ssr:stedsnr" v="370878" />
		<tag k="waterway" v="stream" />
	</node>
	<node id="-460306" lat="60.521541668" lon="6.07667499705">
		<tag k="name" v="Osen" />
		<tag k="natural" v="bay" />
		<tag k="ssr:stedsnr" v="370810" />
	</node>
	<node id="-464400" lat="60.5838745261" lon="6.25988809815">
		<tag k="name" v="Tjørnatjørni" />
		<tag k="natural" v="water" />
		<tag k="ssr:stedsnr" v="870060" />
	</node>
	<node id="-462424" lat="60.8053722222" lon="6.67973611976">
		<tag k="name" v="Ljoselvi" />
		<tag k="ssr:stedsnr" v="470882" />
		<tag k="waterway" v="river" />
	</node>
	<node id="-464396" lat="60.6396361084" lon="6.23186388618">
		<tag k="name" v="Kvernagrovi" />
		<tag k="ssr:stedsnr" v="870035" />
		<tag k="waterway" v="river" />
	</node>
	<node id="-461058" lat="60.6950638881" lon="6.09175555203">
		<tag k="name" v="Skarvagrovi" />
		<tag k="ssr:stedsnr" v="67515" />
		<tag k="waterway" v="river" />
	</node>
	<node id="-462345" lat="60.8539083345" lon="6.66186388497">
		<tag k="name" v="Lysegrovi" />
		<tag k="ssr:stedsnr" v="469070" />
		<tag k="waterway" v="stream" />
	</node>
	<node id="-462343" lat="60.8764249983" lon="6.72321110867">
		<tag k="name" v="Hjellagroi" />
		<tag k="ssr:stedsnr" v="469059" />
		<tag k="waterway" v="stream" />
	</node>
	<node id="-462342" lat="60.8131694425" lon="6.71200555199">
		<tag k="name" v="Rustaelvi" />
		<tag k="ssr:stedsnr" v="461193" />
		<tag k="waterway" v="river" />
	</node>
	<node id="-460291" lat="60.7462694422" lon="6.75211111834">
		<tag k="name" v="Grodjuvevatnet" />
		<tag k="natural" v="water" />
		<tag k="ssr:stedsnr" v="370569" />
		<tag k="water" v="lake" />
	</node>
	<node id="-460288" lat="60.6882333339" lon="5.94650000197">
		<tag k="name" v="Tverrelvi" />
		<tag k="ssr:stedsnr" v="370520" />
		<tag k="waterway" v="stream" />
	</node>
	<node id="-464383" lat="60.8929999984" lon="6.7102305645">
		<tag k="name" v="Illegjelselvi" />
		<tag k="ssr:stedsnr" v="858862" />
		<tag k="waterway" v="stream" />
	</node>
	<node id="-460285" lat="60.7122555532" lon="5.98802500899">
		<tag k="name" v="Svifossen" />
		<tag k="natural" v="waterfall" />
		<tag k="ssr:stedsnr" v="370496" />
	</node>
	<node id="-462332" lat="60.6800666649" lon="6.10526389619">
		<tag k="name" v="Kvanngilsgrovi" />
		<tag k="ssr:stedsnr" v="446753" />
		<tag k="waterway" v="river" />
	</node>
	<node id="-464379" lat="60.8306277792" lon="6.83476111854">
		<tag k="name" v="Halsavatnet" />
		<tag k="natural" v="water" />
		<tag k="ssr:stedsnr" v="858810" />
	</node>
	<node id="-460278" lat="60.700223484" lon="6.52580870809">
		<tag k="name" v="Nykkjatjørni" />
		<tag k="natural" v="water" />
		<tag k="ssr:stedsnr" v="370380" />
	</node>
	<node id="-460276" lat="60.7013138854" lon="6.58344999308">
		<tag k="name" v="Fagnastølselvi" />
		<tag k="ssr:stedsnr" v="370376" />
		<tag k="waterway" v="stream" />
	</node>
	<node id="-464371" lat="60.8464166648" lon="6.45763888396">
		<tag k="name" v="Illagilsgrovi" />
		<tag k="ssr:stedsnr" v="858550" />
		<tag k="waterway" v="river" />
	</node>
	<node id="-464369" lat="60.8097812779" lon="6.40176936105">
		<tag k="name" v="Sauatjørni" />
		<tag k="natural" v="water" />
		<tag k="ssr:stedsnr" v="858543" />
	</node>
	<node id="-462318" lat="60.6378833317" lon="6.16917499327">
		<tag k="name" v="Larshølen" />
		<tag k="place" v="locality" />
		<tag k="ssr:stedsnr" v="446138" />
	</node>
	<node id="-464364" lat="60.7613742294" lon="6.63789606135">
		<tag k="name" v="Reinstjørni" />
		<tag k="natural" v="water" />
		<tag k="ssr:stedsnr" v="858207" />
	</node>
	<node id="-464363" lat="60.7595222189" lon="6.69987223122">
		<tag k="name" v="Grånakko" />
		<tag k="ssr:stedsnr" v="858203" />
		<tag k="waterway" v="stream" />
	</node>
	<node id="-464361" lat="60.641941352" lon="6.65123204095">
		<tag k="name" v="Modalsvotni" />
		<tag k="natural" v="water" />
		<tag k="ssr:stedsnr" v="857979" />
		<tag k="water" v="lake" />
	</node>
	<node id="-464360" lat="60.6580250007" lon="6.84345000888">
		<tag k="name" v="Vetlavatnet" />
		<tag k="natural" v="water" />
		<tag k="ssr:stedsnr" v="857974" />
		<tag k="water" v="lake" />
	</node>
	<node id="-462309" lat="60.6523861081" lon="6.31596111865">
		<tag k="name" v="Reinaråni" />
		<tag k="ssr:stedsnr" v="445939" />
		<tag k="waterway" v="river" />
	</node>
	<node id="-462307" lat="60.6549611099" lon="6.31662222264">
		<tag k="name" v="Gryvlo" />
		<tag k="ssr:stedsnr" v="445921" />
		<tag k="waterway" v="river" />
	</node>
	<node id="-460846" lat="60.8242716115" lon="6.43266096559">
		<tag k="name" v="Hielvi" />
		<tag k="ssr:stedsnr" v="20217" />
		<tag k="waterway" v="river" />
	</node>
	<node id="-464350" lat="60.5985277744" lon="6.38075555749">
		<tag k="name" v="Sætresgrovi" />
		<tag k="ssr:stedsnr" v="857645" />
		<tag k="waterway" v="stream" />
	</node>
	<node id="-460251" lat="60.6483146776" lon="5.86927771574">
		<tag k="name" v="Tjovadalstjørni" />
		<tag k="natural" v="water" />
		<tag k="ssr:stedsnr" v="370099" />
	</node>
	<node id="-460250" lat="60.6415055528" lon="5.87558055581">
		<tag k="name" v="Lomatjørni" />
		<tag k="natural" v="water" />
		<tag k="ssr:stedsnr" v="370098" />
	</node>
	<node id="-464345" lat="60.511923523" lon="6.51846179059">
		<tag k="name" v="Furevatnet" />
		<tag k="natural" v="water" />
		<tag k="ssr:stedsnr" v="857533" />
	</node>
	<node id="-464343" lat="60.5019601345" lon="6.39254289751">
		<tag k="name" v="Storavatnet" />
		<tag k="natural" v="water" />
		<tag k="ssr:stedsnr" v="857526" />
		<tag k="water" v="lake" />
	</node>
	<node id="-464341" lat="60.5210916675" lon="6.39032221495">
		<tag k="name" v="Nedra Skjemmevatnet" />
		<tag k="natural" v="water" />
		<tag k="ssr:stedsnr" v="857507" />
		<tag k="water" v="lake" />
	</node>
	<node id="-464336" lat="60.5585805566" lon="6.18396945207">
		<tag k="name" v="Bjørndalsneset" />
		<tag k="natural" v="cape" />
		<tag k="ssr:stedsnr" v="856873" />
	</node>
	<node id="-462287" lat="60.6127138929" lon="5.97266666545">
		<tag k="name" v="Mjølkstølsgrovi" />
		<tag k="ssr:stedsnr" v="445659" />
		<tag k="waterway" v="river" />
	</node>
	<node id="-464334" lat="60.5529166705" lon="6.19062777244">
		<tag k="name" v="Sveindalsneset" />
		<tag k="natural" v="cape" />
		<tag k="ssr:stedsnr" v="856837" />
	</node>
	<node id="-462285" lat="60.6173027767" lon="5.97846111043">
		<tag k="name" v="Lyngneset" />
		<tag k="natural" v="cape" />
		<tag k="ssr:stedsnr" v="445656" />
	</node>
	<node id="-462281" lat="60.8030666704" lon="6.64750554946">
		<tag k="name" v="Barnatjørni" />
		<tag k="natural" v="water" />
		<tag k="ssr:stedsnr" v="445381" />
	</node>
	<node id="-464326" lat="60.6363638932" lon="6.37333334">
		<tag k="name" v="Storagrovi" />
		<tag k="ssr:stedsnr" v="856708" />
		<tag k="waterway" v="river" />
	</node>
	<node id="-462277" lat="60.7884888906" lon="6.66251110412">
		<tag k="name" v="Skredgrovi" />
		<tag k="ssr:stedsnr" v="445363" />
		<tag k="waterway" v="river" />
	</node>
	<node id="-460228" lat="60.5979494494" lon="6.5558025829">
		<tag k="name" v="Dalstjørni" />
		<tag k="natural" v="water" />
		<tag k="ssr:stedsnr" v="349648" />
	</node>
	<node id="-460227" lat="60.4929867672" lon="6.41781883704">
		<tag k="name" v="Grånoltavatnet" />
		<tag k="natural" v="water" />
		<tag k="ssr:stedsnr" v="349625" />
		<tag k="water" v="lake" />
	</node>
	<node id="-460226" lat="60.6440666653" lon="6.61452222333">
		<tag k="name" v="Høljane" />
		<tag k="place" v="locality" />
		<tag k="ssr:stedsnr" v="349491" />
	</node>
	<node id="-464321" lat="60.5807097088" lon="6.49829730347">
		<tag k="name" v="Svartabergstjørni" />
		<tag k="natural" v="water" />
		<tag k="ssr:stedsnr" v="856611" />
	</node>
	<node id="-464320" lat="60.5656277782" lon="6.26543333579">
		<tag k="name" v="Dalsgrovi" />
		<tag k="ssr:stedsnr" v="856603" />
		<tag k="waterway" v="river" />
	</node>
	<node id="-462271" lat="60.8127972185" lon="6.54491666531">
		<tag k="name" v="Svorteelvi" />
		<tag k="ssr:stedsnr" v="445268" />
		<tag k="waterway" v="river" />
	</node>
	<node id="-460222" lat="60.6730027805" lon="6.59272221344">
		<tag k="name" v="Hovdagrovi" />
		<tag k="ssr:stedsnr" v="349396" />
		<tag k="waterway" v="stream" />
	</node>
	<node id="-464314" lat="60.6868500004" lon="6.08532500738">
		<tag k="name" v="Illegilsgrovi" />
		<tag k="ssr:stedsnr" v="856553" />
		<tag k="waterway" v="river" />
	</node>
	<node id="-464311" lat="60.7198444458" lon="6.11558887963">
		<tag k="name" v="Tverrgjuvlo" />
		<tag k="ssr:stedsnr" v="856492" />
		<tag k="waterway" v="stream" />
	</node>
	<node id="-461749" lat="60.7621111139" lon="6.41895555391">
		<tag k="name" v="Liastølsgrovi" />
		<tag k="ssr:stedsnr" v="191934" />
		<tag k="waterway" v="river" />
	</node>
	<node id="-460361" lat="60.7516177987" lon="6.37240898947">
		<tag k="name" v="Svortetjørni" />
		<tag k="natural" v="water" />
		<tag k="ssr:stedsnr" v="372952" />
	</node>
	<node id="-462260" lat="60.6296861085" lon="6.24796112029">
		<tag k="name" v="Vikagrovi" />
		<tag k="ssr:stedsnr" v="445103" />
		<tag k="waterway" v="river" />
	</node>
	<node id="-462259" lat="60.64673611" lon="6.23665555709">
		<tag k="name" v="Hovdaelvi" />
		<tag k="ssr:stedsnr" v="445029" />
		<tag k="waterway" v="river" />
	</node>
	<node id="-464306" lat="60.7371297819" lon="6.06950150738">
		<tag k="name" v="Kyrkjevatnet" />
		<tag k="natural" v="water" />
		<tag k="ssr:stedsnr" v="856452" />
	</node>
	<node id="-462257" lat="60.6715277752" lon="6.23590000894">
		<tag k="name" v="Gunnhildagrovi" />
		<tag k="ssr:stedsnr" v="445005" />
		<tag k="waterway" v="river" />
	</node>
	<node id="-462255" lat="60.6650444476" lon="6.20835556072">
		<tag k="name" v="Øyuna" />
		<tag k="natural" v="shoal" />
		<tag k="place" v="locality" />
		<tag k="ssr:stedsnr" v="445001" />
	</node>
	<node id="-462253" lat="60.8380687851" lon="6.90378042853">
		<tag k="loc_name" v="Grindafletvotni" />
		<tag k="name" v="Grindafletvatni" />
		<tag k="natural" v="water" />
		<tag k="ssr:stedsnr" v="434744" />
		<tag k="water" v="lake" />
	</node>
	<node id="-460204" lat="60.5579555551" lon="6.19894722319">
		<tag k="name" v="Rasbareneset" />
		<tag k="natural" v="cape" />
		<tag k="ssr:stedsnr" v="348972" />
	</node>
	<node id="-464298" lat="60.6842249971" lon="6.57707778499">
		<tag k="name" v="Urlandselvi" />
		<tag k="ssr:stedsnr" v="856327" />
		<tag k="waterway" v="river" />
	</node>
	<node id="-460359" lat="60.9196166676" lon="6.69782222524">
		<tag k="name" v="Tverrelvi" />
		<tag k="ssr:stedsnr" v="372880" />
		<tag k="waterway" v="stream" />
	</node>
	<node id="-462247" lat="60.7935994316" lon="6.59404347501">
		<tag k="name" v="Oppheimsvatnet" />
		<tag k="natural" v="water" />
		<tag k="ssr:stedsnr" v="433969" />
		<tag k="water" v="lake" />
	</node>
	<node id="-460197" lat="60.7758388929" lon="6.73757222964">
		<tag k="name" v="Brandsetelvi" />
		<tag k="ssr:stedsnr" v="348876" />
		<tag k="waterway" v="river" />
	</node>
	<node id="-460194" lat="60.8335833368" lon="6.56445277755">
		<tag k="name" v="Sundsvollselvi" />
		<tag k="ssr:stedsnr" v="348867" />
		<tag k="waterway" v="river" />
	</node>
	<node id="-460193" lat="60.8311416626" lon="6.55943333218">
		<tag k="name" v="Skredbullagroi" />
		<tag k="ssr:stedsnr" v="348864" />
		<tag k="waterway" v="river" />
	</node>
	<node id="-464288" lat="60.578695758" lon="6.17010346646">
		<tag k="alt_name" v="Holmevatnet" />
		<tag k="name" v="Holmavatnet" />
		<tag k="natural" v="water" />
		<tag k="ssr:stedsnr" v="856224" />
		<tag k="water" v="lake" />
	</node>
	<node id="-461040" lat="60.6843777812" lon="6.26075834075">
		<tag k="name" v="Raudbergselvi" />
		<tag k="ssr:stedsnr" v="67345" />
		<tag k="waterway" v="river" />
	</node>
	<node id="-462236" lat="60.7966666174" lon="6.81547276989">
		<tag k="name" v="Bjørndalsvatnet" />
		<tag k="natural" v="water" />
		<tag k="ssr:stedsnr" v="433764" />
		<tag k="water" v="lake" />
	</node>
	<node id="-460186" lat="60.7252749972" lon="6.47086110495">
		<tag k="name" v="Breifossen" />
		<tag k="natural" v="waterfall" />
		<tag k="ssr:stedsnr" v="348694" />
	</node>
	<node id="-462232" lat="60.8602072541" lon="6.41662957978">
		<tag k="name" v="Svortetjørni" />
		<tag k="natural" v="water" />
		<tag k="ssr:stedsnr" v="433556" />
	</node>
	<node id="-464277" lat="60.6293232374" lon="6.1768540339">
		<tag k="name" v="Hosåstjørni" />
		<tag k="natural" v="water" />
		<tag k="ssr:stedsnr" v="856120" />
	</node>
	<node id="-464273" lat="60.6469237134" lon="5.92210952224">
		<tag k="name" v="Tyssetjørnane" />
		<tag k="natural" v="water" />
		<tag k="ssr:stedsnr" v="856073" />
		<tag k="water" v="lake" />
	</node>
	<node id="-464269" lat="60.5756249976" lon="6.21485555621">
		<tag k="name" v="Valfossen" />
		<tag k="natural" v="waterfall" />
		<tag k="ssr:stedsnr" v="855875" />
	</node>
	<node id="-460172" lat="60.6574361131" lon="6.44656388242">
		<tag k="name" v="Dukstadfossen" />
		<tag k="natural" v="waterfall" />
		<tag k="ssr:stedsnr" v="348385" />
	</node>
	<node id="-460171" lat="60.72306667" lon="6.59685555083">
		<tag k="name" v="Fossane" />
		<tag k="natural" v="waterfall" />
		<tag k="ssr:stedsnr" v="348380" />
	</node>
	<node id="-460170" lat="60.7186444439" lon="6.56171666495">
		<tag k="name" v="Helgasetgroi" />
		<tag k="ssr:stedsnr" v="348353" />
		<tag k="waterway" v="river" />
	</node>
	<node id="-460167" lat="60.6983972262" lon="6.67266111701">
		<tag k="name" v="Svarthamargroi" />
		<tag k="ssr:stedsnr" v="348298" />
		<tag k="waterway" v="stream" />
	</node>
	<node id="-460166" lat="60.6863194477" lon="6.67021665821">
		<tag k="name" v="Sygnabersgrovi" />
		<tag k="ssr:stedsnr" v="348279" />
		<tag k="waterway" v="stream" />
	</node>
	<node id="-462213" lat="60.5801803786" lon="6.35768020013">
		<tag k="name" v="Olsoketjørni" />
		<tag k="natural" v="water" />
		<tag k="ssr:stedsnr" v="432649" />
	</node>
	<node id="-460164" lat="60.7485527748" lon="6.84933611883">
		<tag k="name" v="Såteelvi" />
		<tag k="ssr:stedsnr" v="348242" />
		<tag k="waterway" v="river" />
	</node>
	<node id="-462211" lat="60.5388805512" lon="6.47743611607">
		<tag k="name" v="Bordalselvi" />
		<tag k="ssr:stedsnr" v="432592" />
		<tag k="waterway" v="river" />
	</node>
	<node id="-461254" lat="60.6858388893" lon="6.46786388878">
		<tag k="name" v="Fagersanden" />
		<tag k="natural" v="beach" />
		<tag k="ssr:stedsnr" v="106478" />
	</node>
	<node id="-464250" lat="60.6207999981" lon="6.6003638934">
		<tag k="name" v="Vetlagrovi" />
		<tag k="ssr:stedsnr" v="835630" />
		<tag k="waterway" v="stream" />
	</node>
	<node id="-460153" lat="60.8594694469" lon="6.58207221426">
		<tag k="name" v="Lindegrovi" />
		<tag k="ssr:stedsnr" v="348090" />
		<tag k="waterway" v="stream" />
	</node>
	<node id="-462197" lat="60.6528750023" lon="6.56974999481">
		<tag k="name" v="Tverrbergsgrovi" />
		<tag k="ssr:stedsnr" v="431713" />
		<tag k="waterway" v="river" />
	</node>
	<node id="-462194" lat="60.5751705843" lon="6.4037266054">
		<tag k="name" v="Fiskatjørni" />
		<tag k="natural" v="water" />
		<tag k="ssr:stedsnr" v="431600" />
	</node>
	<node id="-462193" lat="60.5681983549" lon="6.42399539697">
		<tag k="name" v="Kalvatjørni" />
		<tag k="natural" v="water" />
		<tag k="ssr:stedsnr" v="431597" />
	</node>
	<node id="-462192" lat="60.5772381946" lon="6.57596564015">
		<tag k="name" v="Kyrauga" />
		<tag k="natural" v="water" />
		<tag k="ssr:stedsnr" v="431587" />
	</node>
	<node id="-464237" lat="60.7475722249" lon="6.55359166491">
		<tag k="name" v="Luragroi" />
		<tag k="ssr:stedsnr" v="835351" />
		<tag k="waterway" v="stream" />
	</node>
	<node id="-462187" lat="60.6910039922" lon="5.92052790754">
		<tag k="name" v="Tverrdalstjørni" />
		<tag k="natural" v="water" />
		<tag k="ssr:stedsnr" v="431518" />
	</node>
	<node id="-462184" lat="60.706201202" lon="6.19693940214">
		<tag k="name" v="Ljosvatnet" />
		<tag k="natural" v="water" />
		<tag k="ssr:stedsnr" v="431470" />
	</node>
	<node id="-460135" lat="60.6036666697" lon="6.17255833904">
		<tag k="name" v="Kyragilsgrovi" />
		<tag k="ssr:stedsnr" v="324947" />
		<tag k="waterway" v="river" />
	</node>
	<node id="-462182" lat="60.7198811346" lon="6.03432796438">
		<tag k="name" v="Jakobstjørni" />
		<tag k="natural" v="water" />
		<tag k="ssr:stedsnr" v="431459" />
	</node>
	<node id="-460689" lat="60.6739999966" lon="6.1060194369">
		<tag k="name" v="Hjellagrovi" />
		<tag k="ssr:stedsnr" v="6037" />
		<tag k="waterway" v="river" />
	</node>
	<node id="-462179" lat="60.7305833298" lon="6.13832778421">
		<tag k="name" v="Kråkefossen" />
		<tag k="natural" v="waterfall" />
		<tag k="ssr:stedsnr" v="431419" />
	</node>
	<node id="-464225" lat="60.6045111118" lon="6.48986388717">
		<tag k="name" v="Demmetjørni" />
		<tag k="natural" v="water" />
		<tag k="ssr:stedsnr" v="834963" />
	</node>
	<node id="-460688" lat="60.7470495107" lon="6.01467298804">
		<tag k="name" v="Kvanngrøvatni" />
		<tag k="natural" v="water" />
		<tag k="ssr:stedsnr" v="370437" />
		<tag k="water" v="lake" />
	</node>
	<node id="-462174" lat="60.7127590912" lon="6.33830125004">
		<tag k="name" v="Kvanngrøvotni" />
		<tag k="natural" v="water" />
		<tag k="ssr:stedsnr" v="431375" />
		<tag k="water" v="lake" />
	</node>
	<node id="-460124" lat="60.6454388851" lon="5.88186666794">
		<tag k="alt_name" v="Tjørni" />
		<tag k="name" v="Tyssetjørni" />
		<tag k="natural" v="water" />
		<tag k="ssr:stedsnr" v="324869" />
	</node>
	<node id="-462171" lat="60.7004833365" lon="6.47936666467">
		<tag k="name" v="Øyane" />
		<tag k="place" v="island" />
		<tag k="ssr:stedsnr" v="431348" />
	</node>
	<node id="-464216" lat="60.6942173637" lon="6.86946894206">
		<tag k="name" v="Speidartjørni" />
		<tag k="natural" v="water" />
		<tag k="ssr:stedsnr" v="834834" />
	</node>
	<node id="-462167" lat="60.6633916674" lon="6.31941388909">
		<tag k="name" v="Fosselvi" />
		<tag k="ssr:stedsnr" v="431324" />
		<tag k="waterway" v="river" />
	</node>
	<node id="-462163" lat="60.6421499998" lon="6.27696388999">
		<tag k="name" v="Demmetjørni" />
		<tag k="natural" v="water" />
		<tag k="ssr:stedsnr" v="431291" />
	</node>
	<node id="-464210" lat="60.6159138865" lon="6.4317249981">
		<tag k="name" v="Songvesgrovi" />
		<tag k="ssr:stedsnr" v="834522" />
		<tag k="waterway" v="stream" />
	</node>
	<node id="-462161" lat="60.648644448" lon="6.44155555901">
		<tag k="name" v="Lundarvatnet" />
		<tag k="natural" v="water" />
		<tag k="ssr:stedsnr" v="431277" />
		<tag k="water" v="lake" />
	</node>
	<node id="-460112" lat="60.6586944478" lon="5.97770555118">
		<tag k="name" v="Hatlekinnsbekken" />
		<tag k="ssr:stedsnr" v="324636" />
		<tag k="waterway" v="stream" />
	</node>
	<node id="-460111" lat="60.6161555562" lon="5.98253611224">
		<tag k="name" v="Krokabekken" />
		<tag k="ssr:stedsnr" v="324630" />
		<tag k="waterway" v="stream" />
	</node>
	<node id="-464206" lat="60.6740416695" lon="6.43006111279">
		<tag k="name" v="Melsfossen" />
		<tag k="natural" v="waterfall" />
		<tag k="ssr:stedsnr" v="834471" />
	</node>
	<node id="-464200" lat="60.7524055514" lon="6.84613054868">
		<tag k="name" v="Fossen" />
		<tag k="natural" v="waterfall" />
		<tag k="ssr:stedsnr" v="834258" />
	</node>
	<node id="-464198" lat="60.6617555526" lon="6.78792500739">
		<tag k="name" v="Fagerbottelvi" />
		<tag k="ssr:stedsnr" v="834230" />
		<tag k="waterway" v="river" />
	</node>
	<node id="-464197" lat="60.7198448419" lon="6.65858595591">
		<tag k="name" v="Føssene" />
		<tag k="natural" v="waterfall" />
		<tag k="ssr:stedsnr" v="834227" />
	</node>
	<node id="-462148" lat="60.6450694445" lon="6.15633054797">
		<tag k="name" v="Hagagrovi" />
		<tag k="ssr:stedsnr" v="431099" />
		<tag k="waterway" v="river" />
	</node>
	<node id="-462145" lat="60.6490388903" lon="5.96885833002">
		<tag k="name" v="Tveitagrovi" />
		<tag k="ssr:stedsnr" v="431083" />
		<tag k="waterway" v="river" />
	</node>
	<node id="-462143" lat="60.6530333304" lon="5.90147778603">
		<tag k="name" v="Svartavatnet" />
		<tag k="natural" v="water" />
		<tag k="ssr:stedsnr" v="431043" />
		<tag k="water" v="lake" />
	</node>
	<node id="-462138" lat="60.6164777757" lon="6.51018055191">
		<tag k="name" v="Skutlestjørni" />
		<tag k="natural" v="water" />
		<tag k="ssr:stedsnr" v="432614" />
	</node>
	<node id="-464184" lat="60.8496602881" lon="6.5443998418">
		<tag k="name" v="Hovdatjørni" />
		<tag k="natural" v="water" />
		<tag k="ssr:stedsnr" v="834102" />
	</node>
	<node id="-464181" lat="60.8676305527" lon="6.59911944141">
		<tag k="name" v="Tuftagrovi" />
		<tag k="ssr:stedsnr" v="834089" />
		<tag k="waterway" v="stream" />
	</node>
	<node id="-459998" lat="60.6328694408" lon="6.24291667087">
		<tag k="name" v="Seimsvatnet" />
		<tag k="natural" v="water" />
		<tag k="ssr:stedsnr" v="310696" />
		<tag k="water" v="lake" />
	</node>
	<node id="-464178" lat="60.8756388849" lon="6.54967776944">
		<tag k="name" v="Kalvagroi" />
		<tag k="ssr:stedsnr" v="834046" />
		<tag k="waterway" v="stream" />
	</node>
	<node id="-462129" lat="60.8784638871" lon="6.50952500149">
		<tag k="name" v="Storelvi" />
		<tag k="ssr:stedsnr" v="264171" />
		<tag k="waterway" v="river" />
	</node>
	<node id="-462728" lat="60.8326083291" lon="6.62971666778">
		<tag k="name" v="Hornadalselvi" />
		<tag k="ssr:stedsnr" v="531813" />
		<tag k="waterway" v="river" />
	</node>
	<node id="-460075" lat="60.7980777798" lon="6.50696944046">
		<tag k="name" v="Djupedalsgrovi" />
		<tag k="ssr:stedsnr" v="324188" />
		<tag k="waterway" v="river" />
	</node>
	<node id="-464168" lat="60.6707473584" lon="6.05856253888">
		<tag k="name" v="Botnatjørni" />
		<tag k="natural" v="water" />
		<tag k="ssr:stedsnr" v="810702" />
	</node>
	<node id="-461702" lat="60.5491666687" lon="6.61985278479">
		<tag k="name" v="Tjørola-holmen" />
		<tag k="place" v="islet" />
		<tag k="ssr:stedsnr" v="189832" />
	</node>
	<node id="-460066" lat="60.7457944443" lon="6.44283056276">
		<tag k="name" v="Tverråni" />
		<tag k="ssr:stedsnr" v="324132" />
		<tag k="waterway" v="river" />
	</node>
	<node id="-464158" lat="60.8859416659" lon="6.50373611206">
		<tag k="name" v="Elvakroken" />
		<tag k="place" v="locality" />
		<tag k="ssr:stedsnr" v="810197" />
	</node>
	<node id="-460061" lat="60.6335222196" lon="6.25870833688">
		<tag k="name" v="Flagahølen" />
		<tag k="place" v="locality" />
		<tag k="ssr:stedsnr" v="324092" />
	</node>
	<node id="-462108" lat="60.6444583314" lon="6.14911110399">
		<tag k="name" v="Neset" />
		<tag k="natural" v="cape" />
		<tag k="ssr:stedsnr" v="263743" />
	</node>
	<node id="-462106" lat="60.6833666681" lon="5.97991388512">
		<tag k="name" v="Smettesbekken" />
		<tag k="ssr:stedsnr" v="263710" />
		<tag k="waterway" v="stream" />
	</node>
	<node id="-464150" lat="60.6113027784" lon="6.27867222363">
		<tag k="name" v="Tveitagrovi" />
		<tag k="ssr:stedsnr" v="810053" />
		<tag k="waterway" v="river" />
	</node>
	<node id="-462101" lat="60.6428027818" lon="5.96878610806">
		<tag k="name" v="Langhølen" />
		<tag k="place" v="locality" />
		<tag k="ssr:stedsnr" v="263682" />
	</node>
	<node id="-464146" lat="60.6165416633" lon="6.34938332449">
		<tag k="name" v="Svidgrovi" />
		<tag k="ssr:stedsnr" v="809923" />
		<tag k="waterway" v="river" />
	</node>
	<node id="-462097" lat="60.6496305583" lon="6.63350000511">
		<tag k="name" v="Rjupetjørnane" />
		<tag k="natural" v="water" />
		<tag k="ssr:stedsnr" v="263675" />
		<tag k="water" v="lake" />
	</node>
	<node id="-462096" lat="60.6038111148" lon="6.01739444413">
		<tag k="name" v="Kyratjørni" />
		<tag k="natural" v="water" />
		<tag k="ssr:stedsnr" v="263670" />
	</node>
	<node id="-464141" lat="60.615366666" lon="5.9067166645">
		<tag k="name" v="Fribotnaelvi" />
		<tag k="ssr:stedsnr" v="809880" />
		<tag k="waterway" v="river" />
	</node>
	<node id="-461698" lat="60.5966861131" lon="6.5762805573">
		<tag k="name" v="Monsvatnet" />
		<tag k="natural" v="water" />
		<tag k="ssr:stedsnr" v="189622" />
		<tag k="water" v="lake" />
	</node>
	<node id="-464138" lat="60.6563555573" lon="5.89987222639">
		<tag k="name" v="Vetlevatnet" />
		<tag k="natural" v="water" />
		<tag k="ssr:stedsnr" v="809872" />
		<tag k="water" v="lake" />
	</node>
	<node id="-459991" lat="60.5360903515" lon="6.34757184752">
		<tag k="name" v="Stora Torfinnsdalsvatnet" />
		<tag k="natural" v="water" />
		<tag k="ssr:stedsnr" v="310627" />
		<tag k="water" v="lake" />
	</node>
	<node id="-464136" lat="60.6786527771" lon="6.01547776924">
		<tag k="name" v="Stølselvi" />
		<tag k="ssr:stedsnr" v="809816" />
		<tag k="waterway" v="river" />
	</node>
	<node id="-460038" lat="60.754005553" lon="6.47322222598">
		<tag k="name" v="Løkjaelvi" />
		<tag k="ssr:stedsnr" v="312941" />
		<tag k="waterway" v="stream" />
	</node>
	<node id="-462084" lat="60.8263694444" lon="6.47501667493">
		<tag k="name" v="Flisramsgrovi" />
		<tag k="ssr:stedsnr" v="263286" />
		<tag k="waterway" v="river" />
	</node>
	<node id="-460213" lat="60.8764888863" lon="6.71185277993">
		<tag k="name" v="Gjøttegroi" />
		<tag k="ssr:stedsnr" v="349117" />
		<tag k="waterway" v="stream" />
	</node>
	<node id="-460031" lat="60.834184614" lon="6.84826947844">
		<tag k="name" v="Vedasteinsvatnet" />
		<tag k="natural" v="water" />
		<tag k="ssr:stedsnr" v="312754" />
		<tag k="water" v="lake" />
	</node>
	<node id="-462078" lat="60.6101972264" lon="6.19520554763">
		<tag k="name" v="Storagrovi" />
		<tag k="ssr:stedsnr" v="263233" />
		<tag k="waterway" v="river" />
	</node>
	<node id="-462037" lat="60.8140111122" lon="6.87120833944">
		<tag k="name" v="Såtevatnet" />
		<tag k="natural" v="water" />
		<tag k="ssr:stedsnr" v="251793" />
		<tag k="water" v="lake" />
	</node>
	<node id="-464119" lat="60.7800777798" lon="6.45813055381">
		<tag k="name" v="Hønselvi" />
		<tag k="ssr:stedsnr" v="809188" />
		<tag k="waterway" v="river" />
	</node>
	<node id="-464118" lat="60.7842694432" lon="6.45429165859">
		<tag k="name" v="Breiasetelvi" />
		<tag k="ssr:stedsnr" v="809185" />
		<tag k="waterway" v="river" />
	</node>
	<node id="-462068" lat="60.7874749999" lon="6.60168333026">
		<tag k="name" v="Elvi" />
		<tag k="ssr:stedsnr" v="263171" />
		<tag k="waterway" v="river" />
	</node>
	<node id="-462035" lat="60.7616645457" lon="6.1853060599">
		<tag k="name" v="Horgasettjørni" />
		<tag k="natural" v="water" />
		<tag k="ssr:stedsnr" v="251692" />
	</node>
	<node id="-462064" lat="60.6377166625" lon="6.20833611265">
		<tag k="name" v="Bjørgrovi" />
		<tag k="ssr:stedsnr" v="263137" />
		<tag k="waterway" v="river" />
	</node>
	<node id="-460014" lat="60.6721894103" lon="6.72923474988">
		<tag k="name" v="Tirstjørni" />
		<tag k="natural" v="water" />
		<tag k="ssr:stedsnr" v="310990" />
	</node>
	<node id="-464106" lat="60.6642027761" lon="6.18228888398">
		<tag k="name" v="Teigagrovi" />
		<tag k="ssr:stedsnr" v="809059" />
		<tag k="waterway" v="river" />
	</node>
	<node id="-462057" lat="60.6538527793" lon="6.2165111046">
		<tag k="name" v="Gastgjevaren" />
		<tag k="ssr:stedsnr" v="263007" />
		<tag k="waterway" v="stream" />
	</node>
	<node id="-460007" lat="60.5528768312" lon="6.60513629441">
		<tag k="name" v="Svartatjørni" />
		<tag k="natural" v="water" />
		<tag k="ssr:stedsnr" v="310842" />
	</node>
	<node id="-464102" lat="60.6657365461" lon="6.24579276162">
		<tag k="name" v="Hornstjørni" />
		<tag k="natural" v="water" />
		<tag k="ssr:stedsnr" v="809013" />
	</node>
	<node id="-462052" lat="60.7780333292" lon="6.50972500725">
		<tag k="name" v="Kjeldåi" />
		<tag k="ssr:stedsnr" v="251976" />
		<tag k="waterway" v="stream" />
	</node>
	<node id="-464080" lat="60.7844027735" lon="6.68444444944">
		<tag k="name" v="Ljosegrovi" />
		<tag k="ssr:stedsnr" v="797769" />
		<tag k="waterway" v="river" />
	</node>
	<node id="-462046" lat="60.9411749994" lon="6.69576666413">
		<tag k="name" v="Salagrovi" />
		<tag k="ssr:stedsnr" v="251911" />
		<tag k="waterway" v="stream" />
	</node>
	<node id="-464093" lat="60.761865956" lon="6.22633826942">
		<tag k="name" v="Rennebergstjørni" />
		<tag k="natural" v="water" />
		<tag k="ssr:stedsnr" v="797954" />
	</node>
	<node id="-462042" lat="60.8472596636" lon="6.32163231482">
		<tag k="name" v="Grøndalsvatnet" />
		<tag k="natural" v="water" />
		<tag k="ssr:stedsnr" v="251833" />
		<tag k="water" v="lake" />
	</node>
	<node id="-462040" lat="60.8750300097" lon="6.35759714998">
		<tag k="name" v="Svartavatnet" />
		<tag k="natural" v="water" />
		<tag k="ssr:stedsnr" v="251829" />
		<tag k="water" v="lake" />
	</node>
	<node id="-464087" lat="60.8904138907" lon="6.65454166559">
		<tag k="name" v="Armotselvi" />
		<tag k="ssr:stedsnr" v="797861" />
		<tag k="waterway" v="stream" />
	</node>
	<node id="-464085" lat="60.8785916548" lon="6.61132000401">
		<tag k="name" v="Botnelvi" />
		<tag k="ssr:stedsnr" v="797846" />
		<tag k="waterway" v="stream" />
	</node>
	<node id="-464083" lat="60.8058113415" lon="6.76073331098">
		<tag k="name" v="Rustatjørni" />
		<tag k="natural" v="water" />
		<tag k="ssr:stedsnr" v="797785" />
	</node>
	<node id="-459984" lat="60.5758777758" lon="6.5358916663">
		<tag k="name" v="Tjørnabotstjørni" />
		<tag k="natural" v="water" />
		<tag k="ssr:stedsnr" v="310579" />
	</node>
	<node id="-459983" lat="60.700742006" lon="6.69307558495">
		<tag k="name" v="Vatnasetvatnet" />
		<tag k="natural" v="water" />
		<tag k="ssr:stedsnr" v="310554" />
		<tag k="water" v="lake" />
	</node>
	<node id="-464078" lat="60.9423734235" lon="6.47586913084">
		<tag k="name" v="Kringlevatnet" />
		<tag k="natural" v="water" />
		<tag k="ssr:stedsnr" v="797613" />
	</node>
	<node id="-462029" lat="60.8669196064" lon="6.31962721996">
		<tag k="name" v="Langavatnet" />
		<tag k="natural" v="water" />
		<tag k="ssr:stedsnr" v="251599" />
		<tag k="water" v="lake" />
	</node>
	<node id="-464076" lat="60.862708337" lon="6.47249444188">
		<tag k="name" v="Feissgrovi" />
		<tag k="ssr:stedsnr" v="797602" />
		<tag k="waterway" v="river" />
	</node>
	<node id="-462027" lat="60.8349053742" lon="6.31289964066">
		<tag k="name" v="Kleivatjørni" />
		<tag k="natural" v="water" />
		<tag k="ssr:stedsnr" v="251571" />
	</node>
	<node id="-459976" lat="60.5080749989" lon="6.50575278478">
		<tag k="name" v="Dalelvi" />
		<tag k="ssr:stedsnr" v="310529" />
		<tag k="waterway" v="stream" />
	</node>
	<node id="-464071" lat="60.8328222178" lon="6.41886389001">
		<tag k="name" v="Fiksno" />
		<tag k="ssr:stedsnr" v="797563" />
		<tag k="waterway" v="stream" />
	</node>
	<node id="-459884" lat="60.536619447" lon="6.47148055998">
		<tag k="name" v="Svagrovi" />
		<tag k="ssr:stedsnr" v="288960" />
		<tag k="waterway" v="stream" />
	</node>
	<node id="-459973" lat="60.5145750025" lon="6.26143055343">
		<tag k="name" v="Svartavatnet" />
		<tag k="natural" v="water" />
		<tag k="ssr:stedsnr" v="310513" />
	</node>
	<node id="-462018" lat="60.7674500011" lon="6.6850000058">
		<tag k="name" v="Prinsabotnelvi" />
		<tag k="ssr:stedsnr" v="251217" />
		<tag k="waterway" v="stream" />
	</node>
	<node id="-462017" lat="60.7737444458" lon="6.74660554701">
		<tag k="name" v="Bjørndalstjørni" />
		<tag k="natural" v="water" />
		<tag k="ssr:stedsnr" v="251215" />
	</node>
	<node id="-462014" lat="60.6526638889" lon="6.85503889466">
		<tag k="name" v="Trollavatnet" />
		<tag k="natural" v="water" />
		<tag k="ssr:stedsnr" v="250970" />
		<tag k="water" v="lake" />
	</node>
	<node id="-464061" lat="60.7542138928" lon="6.84532778502">
		<tag k="name" v="Såtefossen" />
		<tag k="natural" v="waterfall" />
		<tag k="ssr:stedsnr" v="797200" />
	</node>
	<node id="-459964" lat="60.547530154" lon="6.53606744059">
		<tag k="name" v="Langatjørni" />
		<tag k="natural" v="water" />
		<tag k="ssr:stedsnr" v="310005" />
	</node>
	<node id="-464059" lat="60.6637111073" lon="6.70650554813">
		<tag k="name" v="Raundalselvi" />
		<tag k="ssr:stedsnr" v="796999" />
		<tag k="waterway" v="river" />
	</node>
	<node id="-462010" lat="60.573812857" lon="6.2229064823">
		<tag k="fixme" v="multiple name tags, choose one and add the other to alt_name" />
		<tag k="name" v="Kluftatjørni;Torfinnstjørni" />
		<tag k="natural" v="water" />
		<tag k="ssr:stedsnr" v="250682" />
	</node>
	<node id="-464057" lat="60.6451555591" lon="6.65298611964">
		<tag k="alt_name" v="Modalsvotni" />
		<tag k="name" v="Øvre Modalsvatnet" />
		<tag k="natural" v="water" />
		<tag k="ssr:stedsnr" v="796978" />
		<tag k="water" v="lake" />
	</node>
	<node id="-459960" lat="60.5392555553" lon="6.12374999919">
		<tag k="name" v="Holmabukti" />
		<tag k="natural" v="bay" />
		<tag k="ssr:stedsnr" v="309832" />
	</node>
	<node id="-462006" lat="60.5935138903" lon="6.5186166746">
		<tag k="name" v="Gryvlestjørni" />
		<tag k="natural" v="water" />
		<tag k="ssr:stedsnr" v="250660" />
	</node>
	<node id="-464051" lat="60.5889138912" lon="6.4854944433">
		<tag k="name" v="Kjøtlo" />
		<tag k="ssr:stedsnr" v="796677" />
		<tag k="waterway" v="stream" />
	</node>
	<node id="-461999" lat="60.5399444466" lon="6.07973610885">
		<tag k="name" v="Svartagrovi" />
		<tag k="ssr:stedsnr" v="250023" />
		<tag k="waterway" v="stream" />
	</node>
	<node id="-459950" lat="60.7373499976" lon="6.14169999418">
		<tag k="name" v="Storegrovi" />
		<tag k="ssr:stedsnr" v="309407" />
		<tag k="waterway" v="river" />
	</node>
	<node id="-460317" lat="60.5504719417" lon="6.31496189234">
		<tag k="name" v="Langatjørni" />
		<tag k="natural" v="water" />
		<tag k="ssr:stedsnr" v="371583" />
	</node>
	<node id="-461996" lat="60.6897778871" lon="6.71460472929">
		<tag k="name" v="Ljosatjørni" />
		<tag k="natural" v="water" />
		<tag k="ssr:stedsnr" v="249981" />
	</node>
	<node id="-464043" lat="60.5302861109" lon="6.51925000903">
		<tag k="name" v="Gråbergstjørni" />
		<tag k="natural" v="water" />
		<tag k="ssr:stedsnr" v="796510" />
	</node>
	<node id="-461247" lat="60.6636305587" lon="6.44259721309">
		<tag k="name" v="Lambatangen" />
		<tag k="natural" v="cape" />
		<tag k="ssr:stedsnr" v="106389" />
	</node>
	<node id="-464041" lat="60.5576416656" lon="6.19961388397">
		<tag k="name" v="Langaneset" />
		<tag k="natural" v="cape" />
		<tag k="ssr:stedsnr" v="796022" />
	</node>
	<node id="-461991" lat="60.5530262755" lon="6.11939731964">
		<tag k="name" v="Svinåni" />
		<tag k="ssr:stedsnr" v="249837" />
		<tag k="waterway" v="stream" />
	</node>
	<node id="-462705" lat="60.8600361146" lon="6.72498610418">
		<tag k="name" v="Stegafossen" />
		<tag k="natural" v="waterfall" />
		<tag k="ssr:stedsnr" v="531112" />
	</node>
	<node id="-464036" lat="60.5299916623" lon="6.11004166962">
		<tag k="name" v="Langaneset" />
		<tag k="natural" v="cape" />
		<tag k="ssr:stedsnr" v="795797" />
	</node>
	<node id="-464035" lat="60.6236340925" lon="6.5683160956">
		<tag k="name" v="Lomtjørni" />
		<tag k="natural" v="water" />
		<tag k="ssr:stedsnr" v="795750" />
	</node>
	<node id="-461985" lat="60.6377083379" lon="6.32132500859">
		<tag k="name" v="Dyrvo" />
		<tag k="ssr:stedsnr" v="249680" />
		<tag k="waterway" v="river" />
	</node>
	<node id="-459936" lat="60.5915641787" lon="6.08117212529">
		<tag k="name" v="Hardfjellvatnet" />
		<tag k="natural" v="water" />
		<tag k="ssr:stedsnr" v="309257" />
	</node>
	<node id="-461983" lat="60.5968500019" lon="6.36617500006">
		<tag k="name" v="Vangjolo" />
		<tag k="ssr:stedsnr" v="249641" />
		<tag k="waterway" v="stream" />
	</node>
	<node id="-459933" lat="60.6021666676" lon="6.17553056326">
		<tag k="name" v="Koldegrovi" />
		<tag k="ssr:stedsnr" v="309215" />
		<tag k="waterway" v="river" />
	</node>
	<node id="-461338" lat="60.6060972261" lon="6.21074166283">
		<tag k="name" v="Demmetjørni" />
		<tag k="natural" v="water" />
		<tag k="ssr:stedsnr" v="127222" />
	</node>
	<node id="-461978" lat="60.5990039172" lon="6.23960827824">
		<tag k="name" v="Hammarstjørni" />
		<tag k="natural" v="water" />
		<tag k="ssr:stedsnr" v="249620" />
	</node>
	<node id="-464025" lat="60.565699312" lon="6.55331304616">
		<tag k="name" v="Langtjørni" />
		<tag k="natural" v="water" />
		<tag k="ssr:stedsnr" v="795633" />
	</node>
	<node id="-461972" lat="60.5732888849" lon="6.57470833246">
		<tag k="name" v="Langesetvatnet" />
		<tag k="natural" v="water" />
		<tag k="ssr:stedsnr" v="249562" />
		<tag k="water" v="lake" />
	</node>
	<node id="-464019" lat="60.6889416654" lon="6.10793056027">
		<tag k="name" v="Storøyni" />
		<tag k="place" v="island" />
		<tag k="ssr:stedsnr" v="795560" />
	</node>
	<node id="-459921" lat="60.6711138871" lon="6.01804166771">
		<tag k="name" v="Tverrgrovi" />
		<tag k="ssr:stedsnr" v="309029" />
		<tag k="waterway" v="stream" />
	</node>
	<node id="-461966" lat="60.7067694489" lon="5.93108055843">
		<tag k="name" v="Raudskredtjørni" />
		<tag k="natural" v="water" />
		<tag k="ssr:stedsnr" v="249454" />
	</node>
	<node id="-461954" lat="60.6679111144" lon="6.49749444935">
		<tag k="name" v="Djupavadet" />
		<tag k="ssr:stedsnr" v="249285" />
		<tag k="waterway" v="stream" />
	</node>
	<node id="-459904" lat="60.6408972233" lon="6.60169165774">
		<tag k="name" v="Tverrgrovi" />
		<tag k="ssr:stedsnr" v="289442" />
		<tag k="waterway" v="stream" />
	</node>
	<node id="-463999" lat="60.7200555516" lon="6.56575833591">
		<tag k="name" v="Helgasetvatnet" />
		<tag k="natural" v="water" />
		<tag k="ssr:stedsnr" v="795389" />
		<tag k="water" v="lake" />
	</node>
	<node id="-463997" lat="60.6997470739" lon="6.53403558001">
		<tag k="name" v="Sauatjørni" />
		<tag k="natural" v="water" />
		<tag k="ssr:stedsnr" v="795370" />
	</node>
	<node id="-459900" lat="60.7297388892" lon="6.56378055178">
		<tag k="name" v="Merkesgroi" />
		<tag k="ssr:stedsnr" v="289296" />
		<tag k="waterway" v="stream" />
	</node>
	<node id="-463994" lat="60.6967583338" lon="6.55615833808">
		<tag k="name" v="Singesetvatnet" />
		<tag k="natural" v="water" />
		<tag k="ssr:stedsnr" v="795358" />
		<tag k="water" v="lake" />
	</node>
	<node id="-461944" lat="60.6080250029" lon="5.93807499635">
		<tag k="name" v="Morkabekken" />
		<tag k="ssr:stedsnr" v="249190" />
		<tag k="waterway" v="stream" />
	</node>
	<node id="-461943" lat="60.617055559" lon="5.97537500081">
		<tag k="name" v="Rasdalsvatnet" />
		<tag k="natural" v="water" />
		<tag k="ssr:stedsnr" v="249166" />
		<tag k="water" v="lake" />
	</node>
	<node id="-461942" lat="60.6288000026" lon="5.9429111134">
		<tag k="name" v="Geitelvi" />
		<tag k="ssr:stedsnr" v="249131" />
		<tag k="waterway" v="river" />
	</node>
	<node id="-460649" lat="60.6399410857" lon="6.65193077341">
		<tag k="name" v="Nedre Modalsvatnet" />
		<tag k="natural" v="water" />
		<tag k="ssr:stedsnr" v="1074156" />
	</node>
	<node id="-463987" lat="60.5886416645" lon="6.19151389373">
		<tag k="name" v="Holmselvi" />
		<tag k="ssr:stedsnr" v="795261" />
		<tag k="waterway" v="river" />
	</node>
	<node id="-463980" lat="60.6180638872" lon="6.15690278145">
		<tag k="name" v="Sagelvi" />
		<tag k="ssr:stedsnr" v="795167" />
		<tag k="waterway" v="river" />
	</node>
	<node id="-461931" lat="60.5845388919" lon="6.01850556373">
		<tag k="alt_name" v="Gråvatni, midtre" />
		<tag k="name" v="Midtre Gråvatni" />
		<tag k="natural" v="water" />
		<tag k="ssr:stedsnr" v="248869" />
		<tag k="water" v="lake" />
	</node>
	<node id="-463977" lat="60.6490194466" lon="6.07106389117">
		<tag k="name" v="Storeviki" />
		<tag k="natural" v="bay" />
		<tag k="ssr:stedsnr" v="795126" />
	</node>
	<node id="-463976" lat="60.6458305541" lon="5.98475278543">
		<tag k="name" v="Bolstadelvi" />
		<tag k="ssr:stedsnr" v="795099" />
		<tag k="waterway" v="river" />
	</node>
	<node id="-463975" lat="60.6628611071" lon="5.90768610429">
		<tag k="name" v="Aldalsvatnet" />
		<tag k="natural" v="water" />
		<tag k="ssr:stedsnr" v="795092" />
		<tag k="water" v="lake" />
	</node>
	<node id="-459877" lat="60.7260500031" lon="6.4837527754">
		<tag k="name" v="Trollafossen" />
		<tag k="natural" v="waterfall" />
		<tag k="ssr:stedsnr" v="288675" />
	</node>
	<node id="-461924" lat="60.598386775" lon="6.04164768293">
		<tag k="name" v="Osskardtjørni" />
		<tag k="natural" v="water" />
		<tag k="ssr:stedsnr" v="248245" />
	</node>
	<node id="-461389" lat="60.5448333372" lon="6.24422500353">
		<tag k="name" v="Vassviki" />
		<tag k="natural" v="bay" />
		<tag k="ssr:stedsnr" v="128591" />
	</node>
	<node id="-459872" lat="60.5034305585" lon="6.47653332934">
		<tag k="name" v="Sauråni" />
		<tag k="ssr:stedsnr" v="288523" />
		<tag k="waterway" v="stream" />
	</node>
	<node id="-462352" lat="60.5976424521" lon="6.49336505095">
		<tag k="name" v="Lomtjørni" />
		<tag k="natural" v="water" />
		<tag k="ssr:stedsnr" v="469838" />
	</node>
	<node id="-459869" lat="60.5612555536" lon="6.43860000479">
		<tag k="name" v="Fossagrovi" />
		<tag k="ssr:stedsnr" v="288507" />
		<tag k="waterway" v="stream" />
	</node>
	<node id="-459867" lat="60.5573777802" lon="6.49108888827">
		<tag k="name" v="Budalsgrovi" />
		<tag k="ssr:stedsnr" v="288488" />
		<tag k="waterway" v="stream" />
	</node>
	<node id="-460085" lat="60.8383472224" lon="6.42388889507">
		<tag k="name" v="Lusakollo" />
		<tag k="ssr:stedsnr" v="324250" />
		<tag k="waterway" v="river" />
	</node>
	<node id="-459863" lat="60.6721850189" lon="6.47221303403">
		<tag k="name" v="Solstrand" />
		<tag k="natural" v="beach" />
		<tag k="ssr:stedsnr" v="288441" />
	</node>
	<node id="-461910" lat="60.5102949813" lon="6.51036138405">
		<tag k="name" v="Lomtjørni" />
		<tag k="natural" v="water" />
		<tag k="ssr:stedsnr" v="228825" />
	</node>
	<node id="-459961" lat="60.5810194487" lon="6.07673889621">
		<tag k="name" v="Lonene" />
		<tag k="place" v="locality" />
		<tag k="ssr:stedsnr" v="309857" />
	</node>
	<node id="-459859" lat="60.7273277779" lon="6.60143611498">
		<tag k="name" v="Våona" />
		<tag k="ssr:stedsnr" v="288374" />
		<tag k="waterway" v="river" />
	</node>
	<node id="-459848" lat="60.8678138885" lon="6.54939166279">
		<tag k="name" v="Reppaelvi" />
		<tag k="ssr:stedsnr" v="288171" />
		<tag k="waterway" v="river" />
	</node>
	<node id="-459847" lat="60.9025638857" lon="6.46918888672">
		<tag k="name" v="Presthaugsgroi" />
		<tag k="ssr:stedsnr" v="288168" />
		<tag k="waterway" v="stream" />
	</node>
	<node id="-463942" lat="60.669041666" lon="6.52139166185">
		<tag k="name" v="Koladiket" />
		<tag k="ssr:stedsnr" v="774355" />
		<tag k="waterway" v="drain" />
	</node>
	<node id="-461890" lat="60.81635556" lon="6.69975833598">
		<tag k="name" v="Vinelvfossen" />
		<tag k="natural" v="waterfall" />
		<tag k="ssr:stedsnr" v="227970" />
	</node>
	<node id="-463935" lat="60.5393877753" lon="6.21430336136">
		<tag k="alt_name" v="Kvålsdalstjørni, nedre" />
		<tag k="name" v="Nedre Kvålsdalstjørni" />
		<tag k="natural" v="water" />
		<tag k="ssr:stedsnr" v="773983" />
	</node>
	<node id="-463933" lat="60.5473305589" lon="6.11178055043">
		<tag k="name" v="Setåni" />
		<tag k="ssr:stedsnr" v="773954" />
		<tag k="waterway" v="stream" />
	</node>
	<node id="-461884" lat="60.5466555549" lon="6.58955000064">
		<tag k="name" v="Horgasetgroi" />
		<tag k="ssr:stedsnr" v="227733" />
		<tag k="waterway" v="river" />
	</node>
	<node id="-459835" lat="60.4834083317" lon="6.42509444024">
		<tag k="name" v="Nedre Steinsetvatnet" />
		<tag k="natural" v="water" />
		<tag k="ssr:stedsnr" v="287864" />
		<tag k="water" v="lake" />
	</node>
	<node id="-461881" lat="60.5693805543" lon="6.57814444848">
		<tag k="name" v="Stuasetviki" />
		<tag k="natural" v="bay" />
		<tag k="ssr:stedsnr" v="227714" />
	</node>
	<node id="-463928" lat="60.8241055588" lon="6.57508334016">
		<tag k="name" v="Ljoselvi" />
		<tag k="ssr:stedsnr" v="773904" />
		<tag k="waterway" v="river" />
	</node>
	<node id="-459831" lat="60.687369442" lon="6.4388194477">
		<tag k="name" v="Skarvåni" />
		<tag k="ssr:stedsnr" v="287844" />
		<tag k="waterway" v="stream" />
	</node>
	<node id="-459830" lat="60.6563944441" lon="6.4980416749">
		<tag k="name" v="Årgotena" />
		<tag k="ssr:stedsnr" v="287843" />
		<tag k="waterway" v="stream" />
	</node>
	<node id="-461875" lat="60.5691999964" lon="6.44691944149">
		<tag k="name" v="Kvernhusgrovi" />
		<tag k="ssr:stedsnr" v="227551" />
		<tag k="waterway" v="stream" />
	</node>
	<node id="-459824" lat="60.6525500014" lon="6.56706111146">
		<tag k="name" v="Tverberggrovi" />
		<tag k="ssr:stedsnr" v="287385" />
		<tag k="waterway" v="stream" />
	</node>
	<node id="-459823" lat="60.6722000045" lon="6.44619444209">
		<tag k="name" v="Nordrekvålsgrovi" />
		<tag k="ssr:stedsnr" v="287380" />
		<tag k="waterway" v="stream" />
	</node>
	<node id="-459822" lat="60.6951167979" lon="6.54502015661">
		<tag k="name" v="Vetla Gråskallatjørni" />
		<tag k="natural" v="water" />
		<tag k="ssr:stedsnr" v="287297" />
	</node>
	<node id="-463917" lat="60.6298166638" lon="6.51225555781">
		<tag k="name" v="Kvisli" />
		<tag k="ssr:stedsnr" v="773804" />
		<tag k="waterway" v="river" />
	</node>
	<node id="-463916" lat="60.6408388912" lon="6.58054444811">
		<tag k="name" v="Føssagrovi" />
		<tag k="ssr:stedsnr" v="773802" />
		<tag k="waterway" v="stream" />
	</node>
	<node id="-463915" lat="60.6629555596" lon="6.41458888701">
		<tag k="name" v="Stølselvi" />
		<tag k="ssr:stedsnr" v="773799" />
		<tag k="waterway" v="river" />
	</node>
	<node id="-460294" lat="60.7173055592" lon="6.91525000473">
		<tag k="name" v="Gamlestølselvi" />
		<tag k="ssr:stedsnr" v="370581" />
		<tag k="waterway" v="river" />
	</node>
	<node id="-463905" lat="60.5117472247" lon="6.48046389026">
		<tag k="name" v="Buføreøyane" />
		<tag k="place" v="island" />
		<tag k="ssr:stedsnr" v="773550" />
	</node>
	<node id="-464047" lat="60.541427776" lon="6.37006389777">
		<tag k="name" v="Vetla Torfinnsdalsvatnet" />
		<tag k="natural" v="water" />
		<tag k="ssr:stedsnr" v="796620" />
		<tag k="water" v="lake" />
	</node>
	<node id="-463888" lat="60.6949194415" lon="6.68738611994">
		<tag k="name" v="Storaskiplo" />
		<tag k="ssr:stedsnr" v="773309" />
		<tag k="waterway" v="river" />
	</node>
	<node id="-463886" lat="60.7227138861" lon="6.90509722377">
		<tag k="name" v="Ljosåni" />
		<tag k="ssr:stedsnr" v="773272" />
		<tag k="waterway" v="stream" />
	</node>
	<node id="-461997" lat="60.6247611078" lon="6.10843612001">
		<tag k="name" v="Tverrelvi" />
		<tag k="ssr:stedsnr" v="250003" />
		<tag k="waterway" v="stream" />
	</node>
	<node id="-463884" lat="60.6813499956" lon="6.75912777826">
		<tag k="name" v="Vetlabottselvi" />
		<tag k="ssr:stedsnr" v="773246" />
		<tag k="waterway" v="river" />
	</node>
	<node id="-461832" lat="60.6524138861" lon="6.31038334011">
		<tag k="name" v="Avveitene" />
		<tag k="ssr:stedsnr" v="203930" />
		<tag k="waterway" v="stream" />
	</node>
	<node id="-459948" lat="60.7177583364" lon="6.25105556394">
		<tag k="name" v="Grasdalsvatnet" />
		<tag k="natural" v="water" />
		<tag k="ssr:stedsnr" v="309386" />
		<tag k="water" v="lake" />
	</node>
	<node id="-463870" lat="60.8627749966" lon="6.57892222964">
		<tag k="name" v="Kalvafloten" />
		<tag k="ssr:stedsnr" v="773087" />
		<tag k="waterway" v="stream" />
	</node>
	<node id="-463869" lat="60.870261108" lon="6.5599583371">
		<tag k="name" v="Joelvi" />
		<tag k="ssr:stedsnr" v="773041" />
		<tag k="waterway" v="river" />
	</node>
	<node id="-460287" lat="60.6918749983" lon="6.00205834107">
		<tag k="name" v="Botnagrovi" />
		<tag k="ssr:stedsnr" v="370518" />
		<tag k="waterway" v="river" />
	</node>
	<node id="-461815" lat="60.6459722257" lon="6.0393722196">
		<tag k="name" v="Bergstadneset" />
		<tag k="natural" v="cape" />
		<tag k="ssr:stedsnr" v="203692" />
	</node>
	<node id="-463862" lat="60.6754361126" lon="6.36854444379">
		<tag k="name" v="Veragrovi" />
		<tag k="ssr:stedsnr" v="749967" />
		<tag k="waterway" v="river" />
	</node>
	<node id="-459945" lat="60.7041601411" lon="6.54130136514">
		<tag k="name" v="Gråskallatjørni" />
		<tag k="natural" v="water" />
		<tag k="ssr:stedsnr" v="309371" />
	</node>
	<node id="-463859" lat="60.6664194413" lon="6.33921111859">
		<tag k="name" v="Helleelvi" />
		<tag k="ssr:stedsnr" v="749931" />
		<tag k="waterway" v="river" />
	</node>
	<node id="-461806" lat="60.6962107539" lon="6.87706345881">
		<tag k="name" v="Ringtjørni" />
		<tag k="natural" v="water" />
		<tag k="ssr:stedsnr" v="203640" />
	</node>
	<node id="-461805" lat="60.7108748884" lon="6.64189609093">
		<tag k="name" v="Jonsstølselvi" />
		<tag k="ssr:stedsnr" v="203631" />
		<tag k="waterway" v="river" />
	</node>
	<node id="-461804" lat="60.7202249956" lon="6.11280277841">
		<tag k="name" v="Tverrjuvla" />
		<tag k="ssr:stedsnr" v="203521" />
		<tag k="waterway" v="river" />
	</node>
	<node id="-459943" lat="60.6945388929" lon="6.53969445245">
		<tag k="name" v="Kyteslangatjørni" />
		<tag k="natural" v="water" />
		<tag k="ssr:stedsnr" v="309361" />
	</node>
	<node id="-460284" lat="60.7131083312" lon="5.90861666556">
		<tag k="alt_name" v="Blåvatnet, nordre" />
		<tag k="name" v="Nordra Blåvatnet" />
		<tag k="natural" v="water" />
		<tag k="ssr:stedsnr" v="370489" />
		<tag k="water" v="lake" />
	</node>
	<node id="-462673" lat="60.6593416637" lon="6.41319444854">
		<tag k="name" v="Grevleselvi" />
		<tag k="ssr:stedsnr" v="530421" />
		<tag k="waterway" v="river" />
	</node>
	<node id="-461795" lat="60.6252611127" lon="6.12088888092">
		<tag k="name" v="Hallrapagrovi" />
		<tag k="ssr:stedsnr" v="203278" />
		<tag k="waterway" v="river" />
	</node>
	<node id="-461793" lat="60.8362416675" lon="6.42984166192">
		<tag k="name" v="Skakkefossen" />
		<tag k="natural" v="waterfall" />
		<tag k="ssr:stedsnr" v="203271" />
	</node>
	<node id="-461785" lat="60.7787888873" lon="6.46538334078">
		<tag k="name" v="Hønselvi" />
		<tag k="ssr:stedsnr" v="203202" />
		<tag k="waterway" v="river" />
	</node>
	<node id="-463832" lat="60.624297222" lon="6.25240277256">
		<tag k="name" v="Istjørni" />
		<tag k="natural" v="water" />
		<tag k="ssr:stedsnr" v="749235" />
	</node>
	<node id="-461988" lat="60.6186500029" lon="6.32503610465">
		<tag k="name" v="Vangsvatnet" />
		<tag k="natural" v="water" />
		<tag k="ssr:stedsnr" v="249714" />
		<tag k="water" v="lake" />
	</node>
	<node id="-463829" lat="60.6222555517" lon="6.27204443986">
		<tag k="name" v="Grimastadgrovi" />
		<tag k="ssr:stedsnr" v="749227" />
		<tag k="waterway" v="river" />
	</node>
	<node id="-463827" lat="60.6120694476" lon="6.13123333292">
		<tag k="name" v="Leirgrøvuna" />
		<tag k="ssr:stedsnr" v="749214" />
		<tag k="waterway" v="stream" />
	</node>
	<node id="-463825" lat="60.8049861095" lon="6.51796110224">
		<tag k="name" v="Djupedalsgrovi" />
		<tag k="ssr:stedsnr" v="749185" />
		<tag k="waterway" v="river" />
	</node>
	<node id="-463822" lat="60.6475305534" lon="6.21152777135">
		<tag k="name" v="Bjørgrovi" />
		<tag k="ssr:stedsnr" v="749104" />
		<tag k="waterway" v="river" />
	</node>
	<node id="-461772" lat="60.6254055561" lon="6.3173666654">
		<tag k="name" v="Kingsøyni" />
		<tag k="natural" v="cape" />
		<tag k="ssr:stedsnr" v="202917" />
	</node>
	<node id="-461766" lat="60.637408332" lon="6.19532221693">
		<tag k="name" v="Øyane" />
		<tag k="place" v="island" />
		<tag k="ssr:stedsnr" v="203146" />
	</node>
	<node id="-463812" lat="60.6272222227" lon="6.31975833125">
		<tag k="name" v="Flyni" />
		<tag k="ssr:stedsnr" v="748916" />
		<tag k="waterway" v="river" />
	</node>
	<node id="-461763" lat="60.6217361079" lon="6.28774999247">
		<tag k="name" v="Fiti" />
		<tag k="natural" v="cape" />
		<tag k="ssr:stedsnr" v="203106" />
	</node>
	<node id="-461762" lat="60.622050003" lon="6.32607221865">
		<tag k="name" v="Byrkjafiti" />
		<tag k="natural" v="cape" />
		<tag k="ssr:stedsnr" v="203104" />
	</node>
	<node id="-461760" lat="60.798466666" lon="6.63219443618">
		<tag k="name" v="Sandtræet" />
		<tag k="natural" v="cape" />
		<tag k="ssr:stedsnr" v="202151" />
	</node>
	<node id="-461759" lat="60.7882611125" lon="6.60472778176">
		<tag k="name" v="Høydalsgrovi" />
		<tag k="ssr:stedsnr" v="202149" />
		<tag k="waterway" v="river" />
	</node>
	<node id="-461752" lat="60.8063861139" lon="6.62320554823">
		<tag k="name" v="Brunnøyo" />
		<tag k="ssr:stedsnr" v="202253" />
		<tag k="waterway" v="river" />
	</node>
	<node id="-463799" lat="60.6136361147" lon="5.96809722339">
		<tag k="name" v="Storegrovi" />
		<tag k="ssr:stedsnr" v="748655" />
		<tag k="waterway" v="river" />
	</node>
	<node id="-463797" lat="60.6050305583" lon="5.94813056162">
		<tag k="name" v="Geitelvi" />
		<tag k="ssr:stedsnr" v="748651" />
		<tag k="waterway" v="river" />
	</node>
	<node id="-463795" lat="60.8377361143" lon="6.69284722681">
		<tag k="name" v="Stalheimselvi" />
		<tag k="ssr:stedsnr" v="748366" />
		<tag k="waterway" v="river" />
	</node>
	<node id="-460275" lat="60.6879003938" lon="6.53742632872">
		<tag k="name" v="Skjevlingstjørni" />
		<tag k="natural" v="water" />
		<tag k="ssr:stedsnr" v="370365" />
	</node>
	<node id="-461744" lat="60.8382916642" lon="6.86685277732">
		<tag k="name" v="Muravatnet" />
		<tag k="natural" v="water" />
		<tag k="ssr:stedsnr" v="191744" />
		<tag k="water" v="lake" />
	</node>
	<node id="-464029" lat="60.624391668" lon="6.31241944778">
		<tag k="name" v="Rekvesøyane" />
		<tag k="natural" v="cape" />
		<tag k="ssr:stedsnr" v="795722" />
	</node>
	<node id="-461740" lat="60.8526749966" lon="6.49455000025">
		<tag k="name" v="Myrkdalselvi" />
		<tag k="ssr:stedsnr" v="191512" />
		<tag k="waterway" v="river" />
	</node>
	<node id="-461739" lat="60.7882580438" lon="6.32905854711">
		<tag k="name" v="Fyrebytingane" />
		<tag k="natural" v="water" />
		<tag k="ssr:stedsnr" v="191000" />
	</node>
	<node id="-463785" lat="60.7460750006" lon="6.45704444857">
		<tag k="name" v="Hellegrovi" />
		<tag k="ssr:stedsnr" v="748130" />
		<tag k="waterway" v="river" />
	</node>
	<node id="-463782" lat="60.6615444464" lon="6.18237222682">
		<tag k="name" v="Tverrelvi" />
		<tag k="ssr:stedsnr" v="748058" />
		<tag k="waterway" v="river" />
	</node>
	<node id="-463781" lat="60.6633833331" lon="6.20201944766">
		<tag k="name" v="Storefossen" />
		<tag k="natural" v="waterfall" />
		<tag k="ssr:stedsnr" v="748003" />
	</node>
	<node id="-463779" lat="60.752583335" lon="6.51496389316">
		<tag k="name" v="Persleiggrovi" />
		<tag k="ssr:stedsnr" v="737940" />
		<tag k="waterway" v="stream" />
	</node>
	<node id="-463775" lat="60.8223042508" lon="6.33001337935">
		<tag k="name" v="Torvedalstjørni" />
		<tag k="natural" v="water" />
		<tag k="ssr:stedsnr" v="737551" />
	</node>
	<node id="-461723" lat="60.7861083306" lon="6.62194721399">
		<tag k="name" v="Sellandselvi" />
		<tag k="ssr:stedsnr" v="190769" />
		<tag k="waterway" v="river" />
	</node>
	<node id="-461720" lat="60.9091166459" lon="6.44257518084">
		<tag k="name" v="Vetlavatnet" />
		<tag k="natural" v="water" />
		<tag k="ssr:stedsnr" v="190621" />
	</node>
	<node id="-463764" lat="60.7596572466" lon="6.53763177316">
		<tag k="name" v="Øyjordtjørni" />
		<tag k="natural" v="water" />
		<tag k="ssr:stedsnr" v="736936" />
	</node>
	<node id="-461715" lat="60.8836522464" lon="6.39771746408">
		<tag k="name" v="Holmavatnet" />
		<tag k="natural" v="water" />
		<tag k="ssr:stedsnr" v="190570" />
	</node>
	<node id="-463750" lat="60.8172305572" lon="6.50569443609">
		<tag k="name" v="Øyasetelvi" />
		<tag k="ssr:stedsnr" v="736501" />
		<tag k="waterway" v="river" />
	</node>
	<node id="-463749" lat="60.8241754994" lon="6.43196769887">
		<tag k="name" v="Hielvi" />
		<tag k="ssr:stedsnr" v="736498" />
		<tag k="waterway" v="stream" />
	</node>
	<node id="-463788" lat="60.8260111089" lon="6.42928055968">
		<tag k="name" v="Geitasvagrovi" />
		<tag k="ssr:stedsnr" v="748225" />
		<tag k="waterway" v="river" />
	</node>
	<node id="-463746" lat="60.7721972199" lon="6.78430832906">
		<tag k="name" v="Vetleelvi" />
		<tag k="ssr:stedsnr" v="736208" />
		<tag k="waterway" v="stream" />
	</node>
	<node id="-463744" lat="60.6899250012" lon="6.67353889057">
		<tag k="name" v="Skiplo" />
		<tag k="ssr:stedsnr" v="735962" />
		<tag k="waterway" v="river" />
	</node>
	<node id="-463743" lat="60.6901324549" lon="6.70005256965">
		<tag k="name" v="Aurevatnet" />
		<tag k="natural" v="water" />
		<tag k="ssr:stedsnr" v="735961" />
	</node>
	<node id="-463742" lat="60.6922237015" lon="6.70659791563">
		<tag k="name" v="Svartatjørni" />
		<tag k="natural" v="water" />
		<tag k="ssr:stedsnr" v="735958" />
	</node>
	<node id="-462021" lat="60.805374999" lon="6.37791944897">
		<tag k="name" v="Mykjedalsvatnet" />
		<tag k="natural" v="water" />
		<tag k="ssr:stedsnr" v="251535" />
		<tag k="water" v="lake" />
	</node>
	<node id="-461690" lat="60.5655333343" lon="6.49554166083">
		<tag k="name" v="Kalvatjørni" />
		<tag k="natural" v="water" />
		<tag k="ssr:stedsnr" v="189554" />
	</node>
	<node id="-463737" lat="60.6338888932" lon="6.64623333084">
		<tag k="name" v="Steindroelvi" />
		<tag k="ssr:stedsnr" v="735895" />
		<tag k="waterway" v="river" />
	</node>
	<node id="-459924" lat="60.6556388903" lon="6.02760000201">
		<tag k="name" v="Ørevikelvi" />
		<tag k="ssr:stedsnr" v="309064" />
		<tag k="waterway" v="stream" />
	</node>
	<node id="-463730" lat="60.5920166627" lon="6.50240278033">
		<tag k="name" v="Otlo" />
		<tag k="ssr:stedsnr" v="735660" />
		<tag k="waterway" v="stream" />
	</node>
	<node id="-461681" lat="60.5315375971" lon="6.30653603084">
		<tag k="name" v="Torfinnstjørni" />
		<tag k="natural" v="water" />
		<tag k="ssr:stedsnr" v="189480" />
	</node>
	<node id="-463728" lat="60.5880250027" lon="6.4286583258">
		<tag k="name" v="Roesgrovi" />
		<tag k="ssr:stedsnr" v="735651" />
		<tag k="waterway" v="stream" />
	</node>
	<node id="-463726" lat="60.6127250015" lon="6.53583611846">
		<tag k="name" v="Istadelvi" />
		<tag k="ssr:stedsnr" v="735628" />
		<tag k="waterway" v="river" />
	</node>
	<node id="-463725" lat="60.6059277807" lon="6.37100555167">
		<tag k="name" v="Saganeset" />
		<tag k="natural" v="cape" />
		<tag k="ssr:stedsnr" v="735621" />
	</node>
	<node id="-461673" lat="60.6242611098" lon="6.31440832887">
		<tag k="name" v="Vekaøyane" />
		<tag k="natural" v="cape" />
		<tag k="ssr:stedsnr" v="188744" />
	</node>
	<node id="-463720" lat="60.5430561848" lon="6.23285335381">
		<tag k="alt_name" v="Kvåldalstjørnane" />
		<tag k="name" v="Kvålsdalstjørnane" />
		<tag k="natural" v="water" />
		<tag k="ssr:stedsnr" v="735594" />
		<tag k="water" v="lake" />
	</node>
	<node id="-463719" lat="60.556091669" lon="6.55131389417">
		<tag k="name" v="Geitagrovi" />
		<tag k="ssr:stedsnr" v="735588" />
		<tag k="waterway" v="river" />
	</node>
	<node id="-461670" lat="60.5092876359" lon="6.56749978044">
		<tag k="name" v="Rusketjørni" />
		<tag k="natural" v="water" />
		<tag k="ssr:stedsnr" v="188591" />
	</node>
	<node id="-461668" lat="60.6418073142" lon="6.39094294867">
		<tag k="name" v="Skutsgardstjørni" />
		<tag k="natural" v="water" />
		<tag k="ssr:stedsnr" v="188727" />
	</node>
	<node id="-461667" lat="60.5771777759" lon="6.30958889659">
		<tag k="name" v="Nesthustjørni" />
		<tag k="natural" v="water" />
		<tag k="ssr:stedsnr" v="188714" />
	</node>
	<node id="-463714" lat="60.5492611153" lon="6.26639444572">
		<tag k="name" v="Torfinnsvatnet" />
		<tag k="natural" v="water" />
		<tag k="ssr:stedsnr" v="735558" />
		<tag k="water" v="lake" />
	</node>
	<node id="-463711" lat="60.53462778" lon="6.53333888247">
		<tag k="name" v="Brødpyllagrovi" />
		<tag k="ssr:stedsnr" v="735498" />
		<tag k="waterway" v="river" />
	</node>
	<node id="-463710" lat="60.5153781279" lon="6.27312921312">
		<tag k="name" v="Nansentjørni" />
		<tag k="natural" v="water" />
		<tag k="ssr:stedsnr" v="735492" />
	</node>
	<node id="-461661" lat="60.7151167957" lon="5.99461144746">
		<tag k="name" v="Tjørnalitjørni" />
		<tag k="natural" v="water" />
		<tag k="ssr:stedsnr" v="188477" />
	</node>
	<node id="-461660" lat="60.686363885" lon="5.91433611752">
		<tag k="name" v="Rjupetjørni" />
		<tag k="natural" v="water" />
		<tag k="ssr:stedsnr" v="188551" />
	</node>
	<node id="-463707" lat="60.5462305585" lon="6.12847500809">
		<tag k="name" v="Sundsneset" />
		<tag k="natural" v="cape" />
		<tag k="ssr:stedsnr" v="734831" />
	</node>
	<node id="-463706" lat="60.5523249963" lon="6.18330833915">
		<tag k="name" v="Fanthusneset" />
		<tag k="natural" v="cape" />
		<tag k="ssr:stedsnr" v="734828" />
	</node>
	<node id="-461656" lat="60.702211107" lon="5.97924999382">
		<tag k="name" v="Øykholmvatnet" />
		<tag k="natural" v="water" />
		<tag k="ssr:stedsnr" v="188506" />
	</node>
	<node id="-463703" lat="60.6375499973" lon="6.55329444591">
		<tag k="name" v="Horgjolo" />
		<tag k="ssr:stedsnr" v="734717" />
		<tag k="waterway" v="river" />
	</node>
	<node id="-461653" lat="60.7329083331" lon="6.53761665969">
		<tag k="name" v="Skorsetvatnet" />
		<tag k="natural" v="water" />
		<tag k="ssr:stedsnr" v="188386" />
		<tag k="water" v="lake" />
	</node>
	<node id="-463697" lat="60.7009416671" lon="6.11748888182">
		<tag k="name" v="Husegrovi" />
		<tag k="ssr:stedsnr" v="734510" />
		<tag k="waterway" v="river" />
	</node>
	<node id="-461440" lat="60.6143638917" lon="6.29963888784">
		<tag k="name" v="Eimstadelvi" />
		<tag k="ssr:stedsnr" v="141096" />
		<tag k="waterway" v="river" />
	</node>
	<node id="-463688" lat="60.7465388925" lon="6.41799999813">
		<tag k="name" v="Hommedalstjørni" />
		<tag k="natural" v="water" />
		<tag k="ssr:stedsnr" v="734403" />
	</node>
	<node id="-461639" lat="60.6757833399" lon="6.5232083979">
		<tag k="name" v="Lemmestjørni" />
		<tag k="natural" v="water" />
		<tag k="ssr:stedsnr" v="188312" />
	</node>
	<node id="-463684" lat="60.7118277807" lon="6.49697499501">
		<tag k="name" v="Vetlavatnet" />
		<tag k="natural" v="water" />
		<tag k="ssr:stedsnr" v="734372" />
		<tag k="water" v="lake" />
	</node>
	<node id="-461635" lat="60.6142055544" lon="6.2154777757">
		<tag k="name" v="Lauvåni" />
		<tag k="ssr:stedsnr" v="188201" />
		<tag k="waterway" v="stream" />
	</node>
	<node id="-463674" lat="60.601268186" lon="6.10321615038">
		<tag k="name" v="Svartavatnet" />
		<tag k="natural" v="water" />
		<tag k="ssr:stedsnr" v="734271" />
	</node>
	<node id="-463673" lat="60.5923272002" lon="6.21773384663">
		<tag k="name" v="Røyrtjørni" />
		<tag k="natural" v="water" />
		<tag k="ssr:stedsnr" v="734244" />
	</node>
	<node id="-463668" lat="60.6231361115" lon="6.07541110589">
		<tag k="name" v="Hårbusten" />
		<tag k="ssr:stedsnr" v="734204" />
		<tag k="waterway" v="stream" />
	</node>
	<node id="-461619" lat="60.6350694418" lon="6.08459166893">
		<tag k="name" v="Vetlestølselvi" />
		<tag k="ssr:stedsnr" v="188173" />
		<tag k="waterway" v="stream" />
	</node>
	<node id="-461617" lat="60.6596555527" lon="5.89258333596">
		<tag k="name" v="Botnatjørni" />
		<tag k="natural" v="water" />
		<tag k="ssr:stedsnr" v="188090" />
	</node>
	<node id="-461439" lat="60.6237416644" lon="6.31812221497">
		<tag k="name" v="Bøjaviki" />
		<tag k="natural" v="bay" />
		<tag k="ssr:stedsnr" v="141095" />
	</node>
	<node id="-461599" lat="60.5722666631" lon="6.47803056015">
		<tag k="name" v="Dammatoni" />
		<tag k="ssr:stedsnr" v="167712" />
		<tag k="waterway" v="stream" />
	</node>
	<node id="-461597" lat="60.5967555513" lon="6.51397778302">
		<tag k="name" v="Gryvlo" />
		<tag k="ssr:stedsnr" v="167673" />
		<tag k="waterway" v="stream" />
	</node>
	<node id="-463638" lat="60.5888444457" lon="6.45365277515">
		<tag k="name" v="Kvitalaupet" />
		<tag k="ssr:stedsnr" v="713644" />
		<tag k="waterway" v="stream" />
	</node>
	<node id="-461580" lat="60.6693249966" lon="6.52781388092">
		<tag k="name" v="Svinåni" />
		<tag k="ssr:stedsnr" v="167330" />
		<tag k="waterway" v="stream" />
	</node>
	<node id="-461579" lat="60.6951027817" lon="6.66873610781">
		<tag k="name" v="Stølsgroi" />
		<tag k="ssr:stedsnr" v="167304" />
		<tag k="waterway" v="stream" />
	</node>
	<node id="-460247" lat="60.6675344198" lon="5.99239637846">
		<tag k="name" v="Munkatjørnane" />
		<tag k="natural" v="water" />
		<tag k="ssr:stedsnr" v="370065" />
		<tag k="water" v="lake" />
	</node>
	<node id="-463623" lat="60.7112444405" lon="6.55077499595">
		<tag k="name" v="Ljosegroi" />
		<tag k="ssr:stedsnr" v="713425" />
		<tag k="waterway" v="stream" />
	</node>
	<node id="-461574" lat="60.7110416665" lon="6.64079722215">
		<tag k="name" v="Bukkafossen" />
		<tag k="natural" v="waterfall" />
		<tag k="ssr:stedsnr" v="167260" />
	</node>
	<node id="-460892" lat="60.6693666687" lon="6.08295000689">
		<tag k="name" v="Tungegrovi" />
		<tag k="ssr:stedsnr" v="21726" />
		<tag k="waterway" v="river" />
	</node>
	<node id="-461373" lat="60.6347888858" lon="6.00827499811">
		<tag k="name" v="Tverrelvi" />
		<tag k="ssr:stedsnr" v="128005" />
		<tag k="waterway" v="river" />
	</node>
	<node id="-461562" lat="60.8170444477" lon="6.72194444171">
		<tag k="name" v="Kvernhusgroi" />
		<tag k="ssr:stedsnr" v="166982" />
		<tag k="waterway" v="river" />
	</node>
	<node id="-461558" lat="60.8289194414" lon="6.70602499382">
		<tag k="name" v="Storagroi" />
		<tag k="ssr:stedsnr" v="166894" />
		<tag k="waterway" v="river" />
	</node>
	<node id="-461557" lat="60.8276222186" lon="6.62126389665">
		<tag k="name" v="Galtåni" />
		<tag k="ssr:stedsnr" v="166880" />
		<tag k="waterway" v="river" />
	</node>
	<node id="-461554" lat="60.631849102" lon="6.61836666397">
		<tag k="name" v="Hovenoltvatnet" />
		<tag k="natural" v="water" />
		<tag k="ssr:stedsnr" v="166865" />
		<tag k="water" v="lake" />
	</node>
	<node id="-463596" lat="60.8754861141" lon="6.63073611114">
		<tag k="name" v="Skadhauggroi" />
		<tag k="ssr:stedsnr" v="713058" />
		<tag k="waterway" v="stream" />
	</node>
	<node id="-460095" lat="60.840425003" lon="6.68811943812">
		<tag k="name" v="Sivlefossen" />
		<tag k="natural" v="waterfall" />
		<tag k="ssr:stedsnr" v="324373" />
	</node>
	<node id="-461543" lat="60.5465361147" lon="6.47720277529">
		<tag k="name" v="Matgrovi" />
		<tag k="ssr:stedsnr" v="166523" />
		<tag k="waterway" v="stream" />
	</node>
	<node id="-461541" lat="60.6270750015" lon="6.46417222315">
		<tag k="name" v="Kvernagrovi" />
		<tag k="ssr:stedsnr" v="166513" />
		<tag k="waterway" v="stream" />
	</node>
	<node id="-461540" lat="60.6950611067" lon="6.46333054931">
		<tag k="name" v="Breimo" />
		<tag k="ssr:stedsnr" v="166504" />
		<tag k="waterway" v="river" />
	</node>
	<node id="-461539" lat="60.633966667" lon="6.43399999486">
		<tag k="name" v="Rognsfossen" />
		<tag k="natural" v="waterfall" />
		<tag k="ssr:stedsnr" v="166482" />
	</node>
	<node id="-461932" lat="60.5811916631" lon="5.99511112006">
		<tag k="alt_name" v="Gråvatni, nordre" />
		<tag k="name" v="Nordre Gråvatni" />
		<tag k="natural" v="water" />
		<tag k="ssr:stedsnr" v="248870" />
		<tag k="water" v="lake" />
	</node>
	<node id="-463578" lat="60.8284055511" lon="6.63342777404">
		<tag k="name" v="Gjiljarhuselvi" />
		<tag k="ssr:stedsnr" v="712883" />
		<tag k="waterway" v="river" />
	</node>
	<node id="-462459" lat="60.7131638901" lon="6.20421944001">
		<tag k="name" v="Kvitlo" />
		<tag k="ssr:stedsnr" v="491441" />
		<tag k="waterway" v="stream" />
	</node>
	<node id="-463575" lat="60.7542111082" lon="6.58016110466">
		<tag k="name" v="Langereinena" />
		<tag k="ssr:stedsnr" v="712812" />
		<tag k="waterway" v="stream" />
	</node>
	<node id="-463574" lat="60.5581750003" lon="6.57708889156">
		<tag k="name" v="Luregrovi" />
		<tag k="ssr:stedsnr" v="712737" />
		<tag k="waterway" v="stream" />
	</node>
	<node id="-460072" lat="60.8715138901" lon="6.47191110547">
		<tag k="name" v="Vetlafeissgrovi" />
		<tag k="ssr:stedsnr" v="324170" />
		<tag k="waterway" v="river" />
	</node>
	<node id="-463570" lat="60.5684305587" lon="6.61567500504">
		<tag k="name" v="Slåttegroi" />
		<tag k="ssr:stedsnr" v="712722" />
		<tag k="waterway" v="stream" />
	</node>
	<node id="-463564" lat="60.8741638872" lon="6.70650278626">
		<tag k="name" v="Storegroi" />
		<tag k="ssr:stedsnr" v="712070" />
		<tag k="waterway" v="stream" />
	</node>
	<node id="-463561" lat="60.7211722195" lon="6.69090832773">
		<tag k="name" v="Øvste fossen" />
		<tag k="natural" v="waterfall" />
		<tag k="ssr:stedsnr" v="713198" />
	</node>
	<node id="-461511" lat="60.6604250044" lon="6.35910833998">
		<tag k="name" v="Kvitingsgrovi" />
		<tag k="ssr:stedsnr" v="142915" />
		<tag k="waterway" v="river" />
	</node>
	<node id="-461981" lat="60.5968250035" lon="6.41880555647">
		<tag k="name" v="Tveitagrovi" />
		<tag k="ssr:stedsnr" v="249635" />
		<tag k="waterway" v="river" />
	</node>
	<node id="-463550" lat="60.6526999985" lon="6.32080833275">
		<tag k="name" v="Reinaråfossen" />
		<tag k="natural" v="waterfall" />
		<tag k="ssr:stedsnr" v="688922" />
	</node>
	<node id="-461941" lat="60.6393999987" lon="6.04920555416">
		<tag k="name" v="Nakkagjelelvi" />
		<tag k="ssr:stedsnr" v="249116" />
		<tag k="waterway" v="stream" />
	</node>
	<node id="-461497" lat="60.6023527746" lon="6.00445277812">
		<tag k="name" v="Rasdalselvi" />
		<tag k="ssr:stedsnr" v="142639" />
		<tag k="waterway" v="river" />
	</node>
	<node id="-461495" lat="60.6656972235" lon="5.98452777884">
		<tag k="name" v="Bekkene" />
		<tag k="ssr:stedsnr" v="142624" />
		<tag k="waterway" v="stream" />
	</node>
	<node id="-460233" lat="60.5150916662" lon="6.5085444404">
		<tag k="name" v="Følaskagrovi" />
		<tag k="ssr:stedsnr" v="349818" />
		<tag k="waterway" v="stream" />
	</node>
	<node id="-461491" lat="60.6067527806" lon="5.98750554788">
		<tag k="name" v="Rasdalselvi" />
		<tag k="ssr:stedsnr" v="142610" />
		<tag k="waterway" v="river" />
	</node>
	<node id="-461939" lat="60.6475583314" lon="6.08787499289">
		<tag k="name" v="Naustviki" />
		<tag k="natural" v="bay" />
		<tag k="ssr:stedsnr" v="249091" />
	</node>
	<node id="-461488" lat="60.8466361124" lon="6.45374444111">
		<tag k="name" v="Husagrovi" />
		<tag k="ssr:stedsnr" v="142358" />
		<tag k="waterway" v="river" />
	</node>
	<node id="-463535" lat="60.6799502314" lon="6.07464988454">
		<tag k="name" v="Eggjademma" />
		<tag k="natural" v="water" />
		<tag k="ssr:stedsnr" v="688751" />
		<tag k="water" v="lake" />
	</node>
	<node id="-463534" lat="60.6774805522" lon="6.08421944264">
		<tag k="name" v="Raudsfallagrovi" />
		<tag k="ssr:stedsnr" v="688749" />
		<tag k="waterway" v="river" />
	</node>
	<node id="-463529" lat="60.6926611079" lon="5.99219443875">
		<tag k="name" v="Botnagrovi" />
		<tag k="ssr:stedsnr" v="688711" />
		<tag k="waterway" v="river" />
	</node>
	<node id="-463527" lat="60.6420666705" lon="6.03363332927">
		<tag k="name" v="Dråtteneset" />
		<tag k="natural" v="cape" />
		<tag k="ssr:stedsnr" v="688685" />
	</node>
	<node id="-463525" lat="60.6525722263" lon="6.69915554919">
		<tag k="name" v="Horndalselvi" />
		<tag k="ssr:stedsnr" v="688667" />
		<tag k="waterway" v="river" />
	</node>
	<node id="-462278" lat="60.7901361083" lon="6.66911388094">
		<tag k="name" v="Bjørnhammargrovi" />
		<tag k="ssr:stedsnr" v="445364" />
		<tag k="waterway" v="river" />
	</node>
	<node id="-461474" lat="60.6095777797" lon="6.28118056155">
		<tag k="name" v="Stokkabergsgrovi" />
		<tag k="ssr:stedsnr" v="142053" />
		<tag k="waterway" v="river" />
	</node>
	<node id="-463521" lat="60.6109322053" lon="5.98287107676">
		<tag k="name" v="Rasdalselvi" />
		<tag k="ssr:stedsnr" v="688655" />
		<tag k="waterway" v="river" />
	</node>
	<node id="-461471" lat="60.6383388894" lon="5.93042221774">
		<tag k="name" v="Ormegytneset" />
		<tag k="natural" v="cape" />
		<tag k="ssr:stedsnr" v="141846" />
	</node>
	<node id="-461468" lat="60.6226527811" lon="5.98096945006">
		<tag k="name" v="Tuftagrovi" />
		<tag k="ssr:stedsnr" v="141856" />
		<tag k="waterway" v="river" />
	</node>
	<node id="-461463" lat="60.6429722247" lon="6.15489999141">
		<tag k="name" v="Midtøyni" />
		<tag k="place" v="island" />
		<tag k="ssr:stedsnr" v="141692" />
	</node>
	<node id="-463509" lat="60.8098249993" lon="6.47931944624">
		<tag k="name" v="Fiskhammaren" />
		<tag k="natural" v="cape" />
		<tag k="ssr:stedsnr" v="688342" />
	</node>
	<node id="-461452" lat="60.7817111108" lon="6.58886389604">
		<tag k="name" v="Hemregrovi" />
		<tag k="ssr:stedsnr" v="141149" />
		<tag k="waterway" v="river" />
	</node>
	<node id="-463496" lat="60.6299055543" lon="6.28510277999">
		<tag k="name" v="Kubakkagilsgrovi" />
		<tag k="ssr:stedsnr" v="688226" />
		<tag k="waterway" v="river" />
	</node>
	<node id="-463495" lat="60.6019722184" lon="6.13197500139">
		<tag k="name" v="Vaskarelvi" />
		<tag k="ssr:stedsnr" v="688224" />
		<tag k="waterway" v="river" />
	</node>
	<node id="-461445" lat="60.8072083344" lon="6.58427499242">
		<tag k="name" v="Tungegrovi" />
		<tag k="ssr:stedsnr" v="141265" />
		<tag k="waterway" v="river" />
	</node>
	<node id="-461590" lat="60.6443833301" lon="6.61799999703">
		<tag k="name" v="Høljagrovi" />
		<tag k="ssr:stedsnr" v="167465" />
		<tag k="waterway" v="stream" />
	</node>
	<node id="-461442" lat="60.8043277765" lon="6.61334166733">
		<tag k="name" v="Lyftingsgrovi" />
		<tag k="ssr:stedsnr" v="141259" />
		<tag k="waterway" v="river" />
	</node>
	<node id="-461441" lat="60.6137583328" lon="6.30682777786">
		<tag k="name" v="Leitagrovi" />
		<tag k="ssr:stedsnr" v="141099" />
		<tag k="waterway" v="river" />
	</node>
	<node id="-463488" lat="60.8746083379" lon="6.4945388941">
		<tag k="name" v="Kvitagrovi" />
		<tag k="ssr:stedsnr" v="688188" />
		<tag k="waterway" v="river" />
	</node>
	<node id="-462272" lat="60.8205888862" lon="6.57102499316">
		<tag k="name" v="Vetla-Ljoselvi" />
		<tag k="ssr:stedsnr" v="445275" />
		<tag k="waterway" v="river" />
	</node>
	<node id="-463484" lat="60.7977555581" lon="6.56393611943">
		<tag k="name" v="Sundsvålselvi" />
		<tag k="ssr:stedsnr" v="688166" />
		<tag k="waterway" v="river" />
	</node>
	<node id="-463482" lat="60.7252611143" lon="6.45698611125">
		<tag k="name" v="Holmane" />
		<tag k="place" v="islet" />
		<tag k="ssr:stedsnr" v="688163" />
	</node>
	<node id="-463481" lat="60.7835222253" lon="6.52491944801">
		<tag k="name" v="Løkjelvi" />
		<tag k="ssr:stedsnr" v="688164" />
		<tag k="waterway" v="river" />
	</node>
	<node id="-460819" lat="60.753031219" lon="6.19765684023">
		<tag k="name" v="Flatafjellstjørni" />
		<tag k="natural" v="water" />
		<tag k="ssr:stedsnr" v="8688" />
	</node>
	<node id="-463475" lat="60.6379138894" lon="6.19256666894">
		<tag k="name" v="Hyljaren" />
		<tag k="natural" v="cape" />
		<tag k="ssr:stedsnr" v="688129" />
	</node>
	<node id="-463472" lat="60.6373805542" lon="6.27552778563">
		<tag k="name" v="Merkesgrovi" />
		<tag k="ssr:stedsnr" v="688102" />
		<tag k="waterway" v="river" />
	</node>
	<node id="-461423" lat="60.8331194438" lon="6.37180000545">
		<tag k="name" v="Torvedalselvi" />
		<tag k="ssr:stedsnr" v="130536" />
		<tag k="waterway" v="stream" />
	</node>
	<node id="-463469" lat="60.6312083299" lon="6.25109444129">
		<tag k="name" v="Lambaholmen" />
		<tag k="place" v="islet" />
		<tag k="ssr:stedsnr" v="688092" />
	</node>
	<node id="-463468" lat="60.6278499998" lon="6.29586666491">
		<tag k="name" v="Sandneset" />
		<tag k="natural" v="cape" />
		<tag k="ssr:stedsnr" v="688084" />
	</node>
	<node id="-461418" lat="60.9091108152" lon="6.81433820677">
		<tag k="name" v="Slettedalstjørni" />
		<tag k="natural" v="water" />
		<tag k="ssr:stedsnr" v="129843" />
	</node>
	<node id="-462498" lat="60.509921586" lon="6.4105273183">
		<tag k="name" v="Storavasstjørni" />
		<tag k="natural" v="water" />
		<tag k="ssr:stedsnr" v="492489" />
	</node>
	<node id="-463460" lat="60.7874950315" lon="6.4701933431">
		<tag k="name" v="Gimleelvi" />
		<tag k="ssr:stedsnr" v="676996" />
		<tag k="waterway" v="stream" />
	</node>
	<node id="-463459" lat="60.7799777742" lon="6.39504167577">
		<tag k="name" v="Skreiavatnet" />
		<tag k="natural" v="water" />
		<tag k="ssr:stedsnr" v="676985" />
		<tag k="water" v="lake" />
	</node>
	<node id="-461405" lat="60.8919361155" lon="6.41524445221">
		<tag k="name" v="Kringlavatnet" />
		<tag k="natural" v="water" />
		<tag k="ssr:stedsnr" v="129560" />
		<tag k="water" v="lake" />
	</node>
	<node id="-461404" lat="60.8899666878" lon="6.56603833038">
		<tag k="name" v="Flisramstjørni" />
		<tag k="natural" v="water" />
		<tag k="old_name" v="Fliseramstjørni" />
		<tag k="ssr:stedsnr" v="129556" />
	</node>
	<node id="-460218" lat="60.6246222222" lon="6.10425000862">
		<tag k="name" v="Gamlestølsgrovi" />
		<tag k="ssr:stedsnr" v="349252" />
		<tag k="waterway" v="stream" />
	</node>
	<node id="-463447" lat="60.8568098155" lon="6.40667177734">
		<tag k="name" v="Kolbeinstjørnane" />
		<tag k="natural" v="water" />
		<tag k="ssr:stedsnr" v="676581" />
		<tag k="water" v="lake" />
	</node>
	<node id="-463441" lat="60.6537194461" lon="6.61973333399">
		<tag k="name" v="Jussdalsvatnet" />
		<tag k="natural" v="water" />
		<tag k="ssr:stedsnr" v="675981" />
		<tag k="water" v="lake" />
	</node>
	<node id="-461391" lat="60.53261907" lon="6.25296559955">
		<tag k="name" v="Sauatjørni" />
		<tag k="natural" v="water" />
		<tag k="ssr:stedsnr" v="128599" />
	</node>
	<node id="-463437" lat="60.7886722205" lon="6.74673333446">
		<tag k="name" v="Ådnakkaelvi" />
		<tag k="ssr:stedsnr" v="675782" />
		<tag k="waterway" v="stream" />
	</node>
	<node id="-461388" lat="60.5534999997" lon="6.50100000769">
		<tag k="name" v="Gryvlesgrovi" />
		<tag k="ssr:stedsnr" v="128586" />
		<tag k="waterway" v="river" />
	</node>
	<node id="-461386" lat="60.5720138641" lon="6.54414409739">
		<tag k="name" v="Krokatjørni" />
		<tag k="natural" v="water" />
		<tag k="ssr:stedsnr" v="128575" />
	</node>
	<node id="-461383" lat="60.5581166652" lon="6.30327500054">
		<tag k="name" v="Slåttebakkatjørni" />
		<tag k="natural" v="water" />
		<tag k="ssr:stedsnr" v="128566" />
	</node>
	<node id="-461382" lat="60.5765951213" lon="6.22850094752">
		<tag k="name" v="Kleivatjørni" />
		<tag k="natural" v="water" />
		<tag k="ssr:stedsnr" v="128639" />
	</node>
	<node id="-463425" lat="60.6869611142" lon="6.75641389569">
		<tag k="name" v="Heggjaelvi" />
		<tag k="ssr:stedsnr" v="674967" />
		<tag k="waterway" v="river" />
	</node>
	<node id="-461376" lat="60.694225" lon="6.69994166465">
		<tag k="name" v="Langetjørnane" />
		<tag k="natural" v="water" />
		<tag k="ssr:stedsnr" v="128530" />
	</node>
	<node id="-460067" lat="60.7264638923" lon="6.44794723055">
		<tag k="name" v="Øvrestølselvi" />
		<tag k="ssr:stedsnr" v="324142" />
		<tag k="waterway" v="river" />
	</node>
	<node id="-463421" lat="60.5587222254" lon="6.1876638932">
		<tag k="name" v="Kjøviki" />
		<tag k="natural" v="bay" />
		<tag k="ssr:stedsnr" v="674854" />
	</node>
	<node id="-463420" lat="60.6138333354" lon="6.27258888193">
		<tag k="name" v="Saueselvi" />
		<tag k="ssr:stedsnr" v="674754" />
		<tag k="waterway" v="river" />
	</node>
	<node id="-460895" lat="60.7310027744" lon="6.61283888411">
		<tag k="name" v="Fyrjaelvi" />
		<tag k="ssr:stedsnr" v="21756" />
		<tag k="waterway" v="river" />
	</node>
	<node id="-461367" lat="60.5523138872" lon="6.15413610365">
		<tag k="alt_name" v="Hamlagrøvatn" />
		<tag k="name" v="Hamlagrøvatnet" />
		<tag k="natural" v="water" />
		<tag k="ssr:stedsnr" v="127822" />
		<tag k="water" v="lake" />
	</node>
	<node id="-461366" lat="60.5248320365" lon="6.092530326">
		<tag k="alt_name" v="Skardtjørni" />
		<tag k="name" v="Skartjørni" />
		<tag k="natural" v="water" />
		<tag k="ssr:stedsnr" v="127819" />
	</node>
	<node id="-461364" lat="60.7082354765" lon="6.17198421012">
		<tag k="name" v="Auborratjørnane" />
		<tag k="natural" v="water" />
		<tag k="ssr:stedsnr" v="127508" />
		<tag k="water" v="lake" />
	</node>
	<node id="-463411" lat="60.6042205996" lon="6.49263882768">
		<tag k="name" v="Åsatjørnane" />
		<tag k="natural" v="water" />
		<tag k="ssr:stedsnr" v="674659" />
		<tag k="water" v="lake" />
	</node>
	<node id="-463409" lat="60.5586694444" lon="6.52258333786">
		<tag k="name" v="Skatjørni" />
		<tag k="natural" v="water" />
		<tag k="ssr:stedsnr" v="674601" />
	</node>
	<node id="-460893" lat="60.6751555585" lon="6.08505833418">
		<tag k="name" v="Svartagrovi" />
		<tag k="ssr:stedsnr" v="21746" />
		<tag k="waterway" v="river" />
	</node>
	<node id="-459930" lat="60.6459805551" lon="6.14428332709">
		<tag k="name" v="Skorvevatnet" />
		<tag k="natural" v="water" />
		<tag k="ssr:stedsnr" v="309121" />
	</node>
	<node id="-461352" lat="60.7269361137" lon="6.19751666181">
		<tag k="name" v="Fossen" />
		<tag k="natural" v="waterfall" />
		<tag k="ssr:stedsnr" v="127435" />
	</node>
	<node id="-463399" lat="60.7483089328" lon="6.63634316293">
		<tag k="name" v="Høglitjørni" />
		<tag k="natural" v="water" />
		<tag k="ssr:stedsnr" v="674537" />
	</node>
	<node id="-463393" lat="60.7018810407" lon="6.01886381402">
		<tag k="name" v="Taulavatnet" />
		<tag k="natural" v="water" />
		<tag k="ssr:stedsnr" v="674454" />
	</node>
	<node id="-463389" lat="60.7140702119" lon="6.53962762049">
		<tag k="name" v="Krokasetvatnet" />
		<tag k="natural" v="water" />
		<tag k="ssr:stedsnr" v="674317" />
		<tag k="water" v="lake" />
	</node>
	<node id="-463386" lat="60.6862944483" lon="6.23945278275">
		<tag k="name" v="Vetlavatnet" />
		<tag k="natural" v="water" />
		<tag k="ssr:stedsnr" v="674300" />
		<tag k="water" v="lake" />
	</node>
	<node id="-463382" lat="60.6568138908" lon="6.29862500179">
		<tag k="name" v="Tunnasetelvi" />
		<tag k="ssr:stedsnr" v="674267" />
		<tag k="waterway" v="river" />
	</node>
	<node id="-463379" lat="60.6216583336" lon="5.90874999406">
		<tag k="name" v="Skånsvikelvi" />
		<tag k="ssr:stedsnr" v="674171" />
		<tag k="waterway" v="stream" />
	</node>
	<node id="-463374" lat="60.6495138888" lon="6.0537166626">
		<tag k="name" v="Kjeneset" />
		<tag k="natural" v="cape" />
		<tag k="ssr:stedsnr" v="674062" />
	</node>
	<node id="-461325" lat="60.5972000028" lon="6.00610277014">
		<tag k="name" v="Vetlelvi" />
		<tag k="ssr:stedsnr" v="127266" />
		<tag k="waterway" v="river" />
	</node>
	<node id="-461322" lat="60.623561115" lon="6.15061945032">
		<tag k="name" v="Merkesgrovi" />
		<tag k="ssr:stedsnr" v="127131" />
		<tag k="waterway" v="river" />
	</node>
	<node id="-460747" lat="60.7127777745" lon="5.94757776892">
		<tag k="name" v="Lonane" />
		<tag k="place" v="locality" />
		<tag k="ssr:stedsnr" v="6469" />
	</node>
	<node id="-461314" lat="60.6809068203" lon="5.90324982638">
		<tag k="name" v="Noltavatni" />
		<tag k="natural" v="water" />
		<tag k="ssr:stedsnr" v="127024" />
		<tag k="water" v="lake" />
	</node>
	<node id="-461313" lat="60.669563892" lon="6.081474996">
		<tag k="name" v="Forvorgrovi" />
		<tag k="ssr:stedsnr" v="127013" />
		<tag k="waterway" v="stream" />
	</node>
	<node id="-463356" lat="60.7285166668" lon="6.33250277534">
		<tag k="name" v="Nedsta Piksvatnet" />
		<tag k="natural" v="water" />
		<tag k="ssr:stedsnr" v="673372" />
		<tag k="water" v="lake" />
	</node>
	<node id="-461305" lat="60.6556749968" lon="6.1234333326">
		<tag k="name" v="Styvesgrovi" />
		<tag k="ssr:stedsnr" v="127088" />
		<tag k="waterway" v="river" />
	</node>
	<node id="-460201" lat="60.5585103611" lon="6.42003383614">
		<tag k="name" v="Tverrelvi" />
		<tag k="ssr:stedsnr" v="348956" />
		<tag k="waterway" v="stream" />
	</node>
	<node id="-463345" lat="60.6012916691" lon="6.18749999887">
		<tag k="name" v="Torfinno" />
		<tag k="ssr:stedsnr" v="673218" />
		<tag k="waterway" v="river" />
	</node>
	<node id="-459980" lat="60.7368805554" lon="6.92623333916">
		<tag k="name" v="Borgarebuvotni" />
		<tag k="natural" v="water" />
		<tag k="ssr:stedsnr" v="310541" />
		<tag k="water" v="lake" />
	</node>
	<node id="-463341" lat="60.5971027774" lon="6.18264444096">
		<tag k="name" v="Hansalielvi" />
		<tag k="ssr:stedsnr" v="673205" />
		<tag k="waterway" v="river" />
	</node>
	<node id="-461291" lat="60.5760647565" lon="6.52605349774">
		<tag k="name" v="Vireskartjørni" />
		<tag k="natural" v="water" />
		<tag k="ssr:stedsnr" v="107632" />
	</node>
	<node id="-463338" lat="60.6344361066" lon="6.15319166056">
		<tag k="name" v="Rasholsgrovi" />
		<tag k="ssr:stedsnr" v="673164" />
		<tag k="waterway" v="river" />
	</node>
	<node id="-460199" lat="60.5503055599" lon="6.11026943775">
		<tag k="name" v="Skarvegrovi" />
		<tag k="ssr:stedsnr" v="348947" />
		<tag k="waterway" v="stream" />
	</node>
	<node id="-461288" lat="60.6995305573" lon="6.56766110788">
		<tag k="name" v="Tvagroi" />
		<tag k="ssr:stedsnr" v="107427" />
		<tag k="waterway" v="stream" />
	</node>
	<node id="-461087" lat="60.689961404" lon="6.70654116138">
		<tag k="name" v="Kyrauga" />
		<tag k="natural" v="water" />
		<tag k="ssr:stedsnr" v="68954" />
	</node>
	<node id="-460405" lat="60.6277888847" lon="6.00790276911">
		<tag k="name" v="Nyegardsgrovi" />
		<tag k="ssr:stedsnr" v="384638" />
		<tag k="waterway" v="river" />
	</node>
	<node id="-463330" lat="60.6119138865" lon="6.50146667009">
		<tag k="name" v="Skutleselvi" />
		<tag k="ssr:stedsnr" v="674639" />
		<tag k="waterway" v="river" />
	</node>
	<node id="-463328" lat="60.5538623653" lon="6.58375152862">
		<tag k="name" v="Grønlivatnet" />
		<tag k="natural" v="water" />
		<tag k="ssr:stedsnr" v="674617" />
		<tag k="water" v="lake" />
	</node>
	<node id="-460141" lat="60.7029305537" lon="6.5719944358">
		<tag k="name" v="Noltagroi" />
		<tag k="ssr:stedsnr" v="340256" />
		<tag k="waterway" v="stream" />
	</node>
	<node id="-461277" lat="60.6334638934" lon="6.53966111462">
		<tag k="name" v="Vetlademma" />
		<tag k="ssr:stedsnr" v="107378" />
		<tag k="waterway" v="dam" />
	</node>
	<node id="-460879" lat="60.8142888881" lon="6.47820278694">
		<tag k="name" v="Merkesgrovi" />
		<tag k="ssr:stedsnr" v="21338" />
		<tag k="waterway" v="river" />
	</node>
	<node id="-461271" lat="60.5757027809" lon="6.21590278582">
		<tag k="name" v="Valsfossen" />
		<tag k="natural" v="waterfall" />
		<tag k="ssr:stedsnr" v="106989" />
	</node>
	<node id="-461269" lat="60.5521055581" lon="6.18522221677">
		<tag k="name" v="Hattviki" />
		<tag k="natural" v="bay" />
		<tag k="ssr:stedsnr" v="106977" />
	</node>
	<node id="-461268" lat="60.7751138871" lon="6.77921389656">
		<tag k="name" v="Bjørndalselvi" />
		<tag k="ssr:stedsnr" v="106976" />
		<tag k="waterway" v="river" />
	</node>
	<node id="-463315" lat="60.5397888888" lon="6.48281944589">
		<tag k="name" v="Drivfossen" />
		<tag k="natural" v="waterfall" />
		<tag k="ssr:stedsnr" v="652964" />
	</node>
	<node id="-463313" lat="60.8234555565" lon="6.70628611569">
		<tag k="name" v="Kvibakkagroi" />
		<tag k="ssr:stedsnr" v="652890" />
		<tag k="waterway" v="stream" />
	</node>
	<node id="-463312" lat="60.5417337913" lon="6.48399275644">
		<tag k="name" v="Svinåni" />
		<tag k="ssr:stedsnr" v="652793" />
		<tag k="waterway" v="stream" />
	</node>
	<node id="-463814" lat="60.595391666" lon="6.27768611335">
		<tag k="name" v="Kubakkaelvi" />
		<tag k="ssr:stedsnr" v="749030" />
		<tag k="waterway" v="river" />
	</node>
	<node id="-463307" lat="60.6413416625" lon="6.43818055005">
		<tag k="name" v="Lundarosen" />
		<tag k="natural" v="bay" />
		<tag k="ssr:stedsnr" v="652691" />
	</node>
	<node id="-463304" lat="60.5985944446" lon="6.42163054818">
		<tag k="name" v="Tveitagrovi" />
		<tag k="ssr:stedsnr" v="652621" />
		<tag k="waterway" v="stream" />
	</node>
	<node id="-463302" lat="60.5786777806" lon="6.53298332695">
		<tag k="name" v="Svinåni" />
		<tag k="ssr:stedsnr" v="652600" />
		<tag k="waterway" v="stream" />
	</node>
	<node id="-464126" lat="60.7729416693" lon="6.57759721578">
		<tag k="name" v="Tverrelvi" />
		<tag k="ssr:stedsnr" v="809241" />
		<tag k="waterway" v="river" />
	</node>
	<node id="-461248" lat="60.6706194462" lon="6.43693610492">
		<tag k="name" v="Ænsgrovi" />
		<tag k="ssr:stedsnr" v="106393" />
		<tag k="waterway" v="stream" />
	</node>
	<node id="-463295" lat="60.6453111135" lon="6.60269722195">
		<tag k="name" v="Budalsgrovi" />
		<tag k="ssr:stedsnr" v="652404" />
		<tag k="waterway" v="stream" />
	</node>
	<node id="-461244" lat="60.6847694474" lon="6.62315278627">
		<tag k="name" v="Kvernagrovi" />
		<tag k="ssr:stedsnr" v="106357" />
		<tag k="waterway" v="stream" />
	</node>
	<node id="-463290" lat="60.6379338786" lon="6.54956554524">
		<tag k="name" v="Kleivatjørni" />
		<tag k="natural" v="water" />
		<tag k="ssr:stedsnr" v="652337" />
	</node>
	<node id="-461241" lat="60.7056777738" lon="6.72645834188">
		<tag k="name" v="Fjellstølselvi" />
		<tag k="ssr:stedsnr" v="106306" />
		<tag k="waterway" v="river" />
	</node>
	<node id="-461236" lat="60.7164000018" lon="6.81915833028">
		<tag k="name" v="Oksabotngrøvena" />
		<tag k="ssr:stedsnr" v="106246" />
		<tag k="waterway" v="stream" />
	</node>
	<node id="-461234" lat="60.6976194482" lon="6.81693610795">
		<tag k="name" v="Fossegrovi" />
		<tag k="ssr:stedsnr" v="106236" />
		<tag k="waterway" v="river" />
	</node>
	<node id="-460872" lat="60.6380611156" lon="6.18070555532">
		<tag k="name" v="Skirvøyni" />
		<tag k="place" v="island" />
		<tag k="ssr:stedsnr" v="21123" />
	</node>
	<node id="-463276" lat="60.7208856011" lon="6.68007016876">
		<tag k="name" v="Vardafjelltjørni" />
		<tag k="natural" v="water" />
		<tag k="ssr:stedsnr" v="652175" />
	</node>
	<node id="-461227" lat="60.8747333359" lon="6.61908611011">
		<tag k="name" v="Sambotno" />
		<tag k="ssr:stedsnr" v="106171" />
		<tag k="waterway" v="river" />
	</node>
	<node id="-461226" lat="60.8658638864" lon="6.64548888948">
		<tag k="name" v="Rauneligroi" />
		<tag k="ssr:stedsnr" v="106169" />
		<tag k="waterway" v="stream" />
	</node>
	<node id="-463272" lat="60.8885861091" lon="6.64592778135">
		<tag k="name" v="Viksetelvi" />
		<tag k="ssr:stedsnr" v="652144" />
		<tag k="waterway" v="river" />
	</node>
	<node id="-463271" lat="60.9046750007" lon="6.48930000282">
		<tag k="name" v="Grungaelvi" />
		<tag k="ssr:stedsnr" v="652139" />
		<tag k="waterway" v="river" />
	</node>
	<node id="-461221" lat="60.8818638873" lon="6.65631667573">
		<tag k="name" v="Hemresgroi" />
		<tag k="ssr:stedsnr" v="106109" />
		<tag k="waterway" v="stream" />
	</node>
	<node id="-461894" lat="60.8783833294" lon="6.71185555734">
		<tag k="name" v="Vetlehammargroi" />
		<tag k="ssr:stedsnr" v="228105" />
		<tag k="waterway" v="stream" />
	</node>
	<node id="-461217" lat="60.8973888927" lon="6.6644555644">
		<tag k="name" v="Kinnarbakkelvi" />
		<tag k="ssr:stedsnr" v="106044" />
		<tag k="waterway" v="river" />
	</node>
	<node id="-461215" lat="60.5455861121" lon="6.18788611876">
		<tag k="name" v="Sveindalselvi" />
		<tag k="ssr:stedsnr" v="105963" />
		<tag k="waterway" v="river" />
	</node>
	<node id="-461214" lat="60.7678527798" lon="6.58963333954">
		<tag k="name" v="Storegroa" />
		<tag k="ssr:stedsnr" v="105930" />
		<tag k="waterway" v="river" />
	</node>
	<node id="-463261" lat="60.5568194425" lon="6.19665278689">
		<tag k="name" v="Valdresskjeret" />
		<tag k="place" v="islet" />
		<tag k="ssr:stedsnr" v="651977" />
	</node>
	<node id="-463258" lat="60.8322861116" lon="6.55738333445">
		<tag k="name" v="Fossagroi" />
		<tag k="ssr:stedsnr" v="651927" />
		<tag k="waterway" v="river" />
	</node>
	<node id="-461971" lat="60.7023213255" lon="6.68758717439">
		<tag k="name" v="Iglatjørni" />
		<tag k="natural" v="water" />
		<tag k="ssr:stedsnr" v="249557" />
	</node>
	<node id="-463403" lat="60.5647750021" lon="6.24437222642">
		<tag k="name" v="Torfinnsosen" />
		<tag k="natural" v="bay" />
		<tag k="ssr:stedsnr" v="674566" />
	</node>
	<node id="-461205" lat="60.7505329768" lon="6.60111913114">
		<tag k="name" v="Sauatjørnane" />
		<tag k="natural" v="water" />
		<tag k="ssr:stedsnr" v="105838" />
		<tag k="water" v="lake" />
	</node>
	<node id="-461203" lat="60.5548094257" lon="6.59337192304">
		<tag k="name" v="Storevikane" />
		<tag k="natural" v="bay" />
		<tag k="ssr:stedsnr" v="105748" />
	</node>
	<node id="-461200" lat="60.6410444459" lon="6.49934723038">
		<tag k="name" v="Løken" />
		<tag k="ssr:stedsnr" v="105303" />
		<tag k="waterway" v="stream" />
	</node>
	<node id="-463244" lat="60.6743305595" lon="6.58368888079">
		<tag k="name" v="Haugsgjelgrovi" />
		<tag k="ssr:stedsnr" v="651389" />
		<tag k="waterway" v="stream" />
	</node>
	<node id="-463243" lat="60.6411416642" lon="6.5741888917">
		<tag k="name" v="Gilsetgrovi" />
		<tag k="ssr:stedsnr" v="651370" />
		<tag k="waterway" v="stream" />
	</node>
	<node id="-461194" lat="60.8018444481" lon="6.48033610396">
		<tag k="name" v="Tvagrovi" />
		<tag k="ssr:stedsnr" v="82316" />
		<tag k="waterway" v="river" />
	</node>
	<node id="-463238" lat="60.873705555" lon="6.57667221777">
		<tag k="name" v="Jofossen" />
		<tag k="natural" v="waterfall" />
		<tag k="ssr:stedsnr" v="651039" />
	</node>
	<node id="-461189" lat="60.6351055522" lon="6.33961110287">
		<tag k="name" v="Storagrovi" />
		<tag k="ssr:stedsnr" v="82069" />
		<tag k="waterway" v="river" />
	</node>
	<node id="-461206" lat="60.6957972199" lon="6.45702500777">
		<tag k="name" v="Breimo" />
		<tag k="ssr:stedsnr" v="105845" />
		<tag k="waterway" v="river" />
	</node>
	<node id="-463229" lat="60.6137888916" lon="6.36117222967">
		<tag k="name" v="Styrkuneset" />
		<tag k="natural" v="cape" />
		<tag k="ssr:stedsnr" v="627901" />
	</node>
	<node id="-463223" lat="60.6932722255" lon="6.11661667512">
		<tag k="name" v="Togrovi" />
		<tag k="ssr:stedsnr" v="627756" />
		<tag k="waterway" v="river" />
	</node>
	<node id="-461173" lat="60.6790138863" lon="6.1088666629">
		<tag k="name" v="Midtgrovi" />
		<tag k="ssr:stedsnr" v="81744" />
		<tag k="waterway" v="river" />
	</node>
	<node id="-461171" lat="60.6335750038" lon="5.87538889304">
		<tag k="name" v="Kjetleneset" />
		<tag k="natural" v="cape" />
		<tag k="ssr:stedsnr" v="81872" />
	</node>
	<node id="-463209" lat="60.7340638878" lon="6.13372222278">
		<tag k="name" v="Budalsgrovi" />
		<tag k="ssr:stedsnr" v="627526" />
		<tag k="waterway" v="river" />
	</node>
	<node id="-461160" lat="60.645319442" lon="5.98870278482">
		<tag k="name" v="Merdhølen" />
		<tag k="place" v="locality" />
		<tag k="ssr:stedsnr" v="81681" />
	</node>
	<node id="-463206" lat="60.8628683551" lon="6.45041632277">
		<tag k="name" v="Storhaugtjørni" />
		<tag k="natural" v="water" />
		<tag k="ssr:stedsnr" v="627381" />
	</node>
	<node id="-461157" lat="60.627988886" lon="6.01546666527">
		<tag k="name" v="Jørnevikelvi" />
		<tag k="ssr:stedsnr" v="81667" />
		<tag k="waterway" v="river" />
	</node>
	<node id="-461155" lat="60.7305194467" lon="6.90633333845">
		<tag k="name" v="Ljosåni" />
		<tag k="ssr:stedsnr" v="81657" />
		<tag k="waterway" v="river" />
	</node>
	<node id="-461883" lat="60.5646388903" lon="6.60344722044">
		<tag k="name" v="Løken" />
		<tag k="ssr:stedsnr" v="227724" />
		<tag k="waterway" v="stream" />
	</node>
	<node id="-461152" lat="60.7288527795" lon="6.16548610893">
		<tag k="name" v="Harkamarkgrovi" />
		<tag k="ssr:stedsnr" v="81529" />
		<tag k="waterway" v="stream" />
	</node>
	<node id="-461144" lat="60.8054777751" lon="6.447886111">
		<tag k="name" v="Klettagrovi" />
		<tag k="ssr:stedsnr" v="81249" />
		<tag k="waterway" v="river" />
	</node>
	<node id="-461141" lat="60.6268944445" lon="6.26170000746">
		<tag k="name" v="Slito" />
		<tag k="ssr:stedsnr" v="81225" />
		<tag k="waterway" v="river" />
	</node>
	<node id="-461764" lat="60.6299083375" lon="6.26270555352">
		<tag k="name" v="Slito" />
		<tag k="ssr:stedsnr" v="203125" />
		<tag k="waterway" v="river" />
	</node>
	<node id="-461136" lat="60.7613722237" lon="6.51393888264">
		<tag k="name" v="Kvarmagrovi" />
		<tag k="ssr:stedsnr" v="81200" />
		<tag k="waterway" v="river" />
	</node>
	<node id="-463183" lat="60.796791666" lon="6.56999722067">
		<tag k="name" v="Oppheimselvi" />
		<tag k="ssr:stedsnr" v="627163" />
		<tag k="waterway" v="river" />
	</node>
	<node id="-462221" lat="60.6535194462" lon="6.80768889367">
		<tag k="name" v="Vollbottsvatnet" />
		<tag k="natural" v="water" />
		<tag k="ssr:stedsnr" v="432974" />
		<tag k="water" v="lake" />
	</node>
	<node id="-463180" lat="60.7159388911" lon="6.41926110341">
		<tag k="name" v="Kroføssene" />
		<tag k="natural" v="waterfall" />
		<tag k="ssr:stedsnr" v="627141" />
	</node>
	<node id="-463176" lat="60.6338805559" lon="6.23970833396">
		<tag k="name" v="Seimsholmen" />
		<tag k="place" v="islet" />
		<tag k="ssr:stedsnr" v="627106" />
	</node>
	<node id="-460127" lat="60.6092722223" lon="6.35446389745">
		<tag k="name" v="Årsvoki" />
		<tag k="place" v="locality" />
		<tag k="ssr:stedsnr" v="324902" />
	</node>
	<node id="-463174" lat="60.6253138886" lon="6.31378611459">
		<tag k="name" v="Øyane" />
		<tag k="natural" v="cape" />
		<tag k="ssr:stedsnr" v="627092" />
	</node>
	<node id="-463172" lat="60.6446333367" lon="6.31935277408">
		<tag k="name" v="Giljarhuselvi" />
		<tag k="ssr:stedsnr" v="627072" />
		<tag k="waterway" v="river" />
	</node>
	<node id="-463168" lat="60.6701250034" lon="6.19049166395">
		<tag k="name" v="Kvitlaelvi" />
		<tag k="ssr:stedsnr" v="627049" />
		<tag k="waterway" v="river" />
	</node>
	<node id="-462560" lat="60.8235916699" lon="6.66163333054">
		<tag k="name" v="Stavtjørn" />
		<tag k="natural" v="water" />
		<tag k="ssr:stedsnr" v="494763" />
	</node>
	<node id="-463166" lat="60.6095388903" lon="6.26551388345">
		<tag k="name" v="Nonhaugagrovi" />
		<tag k="ssr:stedsnr" v="627039" />
		<tag k="waterway" v="river" />
	</node>
	<node id="-460853" lat="60.6599555537" lon="6.09777221494">
		<tag k="name" v="Kvernagrovi" />
		<tag k="ssr:stedsnr" v="20737" />
		<tag k="waterway" v="river" />
	</node>
	<node id="-461116" lat="60.7747327904" lon="6.33379278876">
		<tag k="name" v="Langatjørni" />
		<tag k="natural" v="water" />
		<tag k="ssr:stedsnr" v="69971" />
	</node>
	<node id="-461115" lat="60.7681682013" lon="6.26371224037">
		<tag k="alt_name" v="Kvitanostjørnan" />
		<tag k="name" v="Kvitanostjørnane" />
		<tag k="natural" v="water" />
		<tag k="ssr:stedsnr" v="69967" />
	</node>
	<node id="-461113" lat="60.9299583309" lon="6.70272221421">
		<tag k="name" v="Berdalselvi" />
		<tag k="ssr:stedsnr" v="69895" />
		<tag k="waterway" v="stream" />
	</node>
	<node id="-463160" lat="60.7964638853" lon="6.45353611414">
		<tag k="name" v="Engjalandselvi" />
		<tag k="ssr:stedsnr" v="615994" />
		<tag k="waterway" v="stream" />
	</node>
	<node id="-463158" lat="60.7779555516" lon="6.40788054715">
		<tag k="name" v="Skreielvi" />
		<tag k="ssr:stedsnr" v="615962" />
		<tag k="waterway" v="stream" />
	</node>
	<node id="-460510" lat="60.5485681601" lon="6.22250729685">
		<tag k="name" v="Grånoltatjørni" />
		<tag k="natural" v="water" />
		<tag k="ssr:stedsnr" v="409971" />
	</node>
	<node id="-459827" lat="60.5514333338" lon="6.61488888868">
		<tag k="name" v="Sponaviki" />
		<tag k="natural" v="bay" />
		<tag k="ssr:stedsnr" v="287770" />
	</node>
	<node id="-460006" lat="60.6154888926" lon="6.34280000734">
		<tag k="name" v="Sundet" />
		<tag k="natural" v="strait" />
		<tag k="ssr:stedsnr" v="310740" />
	</node>
	<node id="-463148" lat="60.8154722197" lon="6.71994721691">
		<tag k="loc_name" v="Roknedalselvi" />
		<tag k="name" v="Øvsthuselvi" />
		<tag k="ssr:stedsnr" v="615774" />
		<tag k="waterway" v="stream" />
	</node>
	<node id="-461097" lat="60.8373594172" lon="6.5192695953">
		<tag k="name" v="Stora Vasstjørni" />
		<tag k="natural" v="water" />
		<tag k="ssr:stedsnr" v="69605" />
	</node>
	<node id="-461096" lat="60.8366210257" lon="6.3113722702">
		<tag k="name" v="Sigvatnet" />
		<tag k="natural" v="water" />
		<tag k="ssr:stedsnr" v="69591" />
	</node>
	<node id="-463142" lat="60.7644944472" lon="6.16395277263">
		<tag k="name" v="Sylvbergatjørni" />
		<tag k="natural" v="water" />
		<tag k="ssr:stedsnr" v="615645" />
	</node>
	<node id="-461190" lat="60.6390694477" lon="6.3412555631">
		<tag k="name" v="Vetlagrovi" />
		<tag k="ssr:stedsnr" v="82071" />
		<tag k="waterway" v="river" />
	</node>
	<node id="-461089" lat="60.6943388916" lon="6.90586943794">
		<tag k="name" v="Skredteigselvi" />
		<tag k="ssr:stedsnr" v="68927" />
		<tag k="waterway" v="river" />
	</node>
	<node id="-463135" lat="60.8034722181" lon="6.57325555131">
		<tag k="name" v="Gryteelvi" />
		<tag k="ssr:stedsnr" v="615514" />
		<tag k="waterway" v="river" />
	</node>
	<node id="-463740" lat="60.7003805543" lon="6.91604999332">
		<tag k="name" v="Kleivelvi" />
		<tag k="ssr:stedsnr" v="735948" />
		<tag k="waterway" v="river" />
	</node>
	<node id="-464149" lat="60.5107305517" lon="6.47967778395">
		<tag k="name" v="Svinåni" />
		<tag k="ssr:stedsnr" v="810020" />
		<tag k="waterway" v="river" />
	</node>
	<node id="-463126" lat="60.6599416698" lon="6.65915832441">
		<tag k="name" v="Ljosåni" />
		<tag k="ssr:stedsnr" v="613996" />
		<tag k="waterway" v="stream" />
	</node>
	<node id="-461077" lat="60.5475643088" lon="6.55363515132">
		<tag k="name" v="Svartatjørni" />
		<tag k="natural" v="water" />
		<tag k="ssr:stedsnr" v="68607" />
	</node>
	<node id="-461076" lat="60.5570500037" lon="6.12050833638">
		<tag k="name" v="Svinånetjørni" />
		<tag k="natural" v="water" />
		<tag k="ssr:stedsnr" v="67867" />
	</node>
	<node id="-461075" lat="60.5424416668" lon="6.10371389427">
		<tag k="name" v="Vieråni" />
		<tag k="ssr:stedsnr" v="67838" />
		<tag k="waterway" v="stream" />
	</node>
	<node id="-461074" lat="60.5487999999" lon="6.12853888983">
		<tag k="name" v="Sundet" />
		<tag k="place" v="locality" />
		<tag k="ssr:stedsnr" v="67834" />
	</node>
	<node id="-460163" lat="60.6613250032" lon="6.68546666606">
		<tag k="name" v="Skredgrovi" />
		<tag k="ssr:stedsnr" v="348238" />
		<tag k="waterway" v="stream" />
	</node>
	<node id="-463119" lat="60.5638361136" lon="6.15170277536">
		<tag k="name" v="Sekkegrovi" />
		<tag k="ssr:stedsnr" v="613860" />
		<tag k="waterway" v="stream" />
	</node>
	<node id="-463118" lat="60.5478166674" lon="6.17291943719">
		<tag k="name" v="Lineneset" />
		<tag k="natural" v="cape" />
		<tag k="ssr:stedsnr" v="613825" />
	</node>
	<node id="-463117" lat="60.5720922813" lon="6.11704314995">
		<tag k="name" v="Løvevatnet" />
		<tag k="natural" v="water" />
		<tag k="ssr:stedsnr" v="613812" />
	</node>
	<node id="-463114" lat="60.5460288215" lon="6.62154437355">
		<tag k="name" v="Krokavatnet" />
		<tag k="natural" v="water" />
		<tag k="ssr:stedsnr" v="613750" />
		<tag k="water" v="lake" />
	</node>
	<node id="-461868" lat="60.6684666668" lon="6.4519472234">
		<tag k="name" v="Ænsstraumen" />
		<tag k="natural" v="strait" />
		<tag k="ssr:stedsnr" v="227408" />
	</node>
	<node id="-461062" lat="60.6984361089" lon="6.63497499429">
		<tag k="name" v="Krokavatnet" />
		<tag k="natural" v="water" />
		<tag k="ssr:stedsnr" v="67580" />
		<tag k="water" v="lake" />
	</node>
	<node id="-461059" lat="60.6857135737" lon="5.98394768901">
		<tag k="name" v="Fossen" />
		<tag k="natural" v="waterfall" />
		<tag k="ssr:stedsnr" v="67521" />
	</node>
	<node id="-463106" lat="60.5879410793" lon="6.29256727777">
		<tag k="name" v="Tausatjørni" />
		<tag k="natural" v="water" />
		<tag k="ssr:stedsnr" v="613640" />
	</node>
	<node id="-459842" lat="60.8971805553" lon="6.63856943637">
		<tag k="name" v="Tverrelvi" />
		<tag k="ssr:stedsnr" v="288043" />
		<tag k="waterway" v="river" />
	</node>
	<node id="-463101" lat="60.5477749998" lon="6.56996388022">
		<tag k="name" v="Hardingagrovi" />
		<tag k="ssr:stedsnr" v="613599" />
		<tag k="waterway" v="river" />
	</node>
	<node id="-461051" lat="60.720275002" lon="6.00864166099">
		<tag k="name" v="Vetlevatnet" />
		<tag k="natural" v="water" />
		<tag k="ssr:stedsnr" v="67451" />
	</node>
	<node id="-461050" lat="60.7260365668" lon="6.02137474971">
		<tag k="name" v="Kringdalsvatnet" />
		<tag k="natural" v="water" />
		<tag k="ssr:stedsnr" v="67449" />
	</node>
	<node id="-463125" lat="60.6727638884" lon="6.83758889339">
		<tag k="name" v="Rundavatnet" />
		<tag k="natural" v="water" />
		<tag k="ssr:stedsnr" v="613995" />
		<tag k="water" v="lake" />
	</node>
	<node id="-461048" lat="60.7331888919" lon="6.12785832463">
		<tag k="name" v="Kvernagrovi" />
		<tag k="ssr:stedsnr" v="67434" />
		<tag k="waterway" v="stream" />
	</node>
	<node id="-461047" lat="60.7384693392" lon="6.10635097027">
		<tag k="name" v="Søtevatnet" />
		<tag k="natural" v="water" />
		<tag k="ssr:stedsnr" v="67425" />
	</node>
	<node id="-461044" lat="60.7338722185" lon="6.29085277025">
		<tag k="name" v="Stora Volavatnet" />
		<tag k="natural" v="water" />
		<tag k="ssr:stedsnr" v="67385" />
		<tag k="water" v="lake" />
	</node>
	<node id="-463091" lat="60.6911472261" lon="6.72969722432">
		<tag k="name" v="Brekkelvi" />
		<tag k="ssr:stedsnr" v="613547" />
		<tag k="waterway" v="river" />
	</node>
	<node id="-461042" lat="60.7767166704" lon="6.5668305463">
		<tag k="name" v="Langegjolo" />
		<tag k="ssr:stedsnr" v="67381" />
		<tag k="waterway" v="river" />
	</node>
	<node id="-463088" lat="60.5200250023" lon="6.29091388981">
		<tag k="name" v="Blindtarmen" />
		<tag k="natural" v="bay" />
		<tag k="ssr:stedsnr" v="613519" />
	</node>
	<node id="-461181" lat="60.6128805554" lon="6.3532388935">
		<tag k="name" v="Hellesneset" />
		<tag k="natural" v="cape" />
		<tag k="ssr:stedsnr" v="81896" />
	</node>
	<node id="-463084" lat="60.6845138867" lon="6.10664166852">
		<tag k="name" v="Mæstadvatnet" />
		<tag k="natural" v="water" />
		<tag k="ssr:stedsnr" v="613505" />
		<tag k="water" v="lake" />
	</node>
	<node id="-463081" lat="60.703469441" lon="5.91731666043">
		<tag k="alt_name" v="Blåvatnet, søre" />
		<tag k="name" v="Søra Blåvatnet" />
		<tag k="natural" v="water" />
		<tag k="ssr:stedsnr" v="613448" />
		<tag k="water" v="lake" />
	</node>
	<node id="-463079" lat="60.7389805572" lon="6.36324999165">
		<tag k="name" v="Øvsta Piksvatnet" />
		<tag k="natural" v="water" />
		<tag k="ssr:stedsnr" v="613372" />
		<tag k="water" v="lake" />
	</node>
	<node id="-461029" lat="60.6234194403" lon="6.09404165813">
		<tag k="name" v="Breidavadet" />
		<tag k="place" v="locality" />
		<tag k="ssr:stedsnr" v="67210" />
	</node>
	<node id="-461025" lat="60.6366583299" lon="6.20080277897">
		<tag k="name" v="Vosso" />
		<tag k="ssr:stedsnr" v="67134" />
		<tag k="waterway" v="river" />
	</node>
	<node id="-462215" lat="60.6107138919" lon="6.33791388314">
		<tag k="name" v="Vinsandelvi" />
		<tag k="ssr:stedsnr" v="432725" />
		<tag k="waterway" v="river" />
	</node>
	<node id="-463071" lat="60.6520583301" lon="6.32957499856">
		<tag k="name" v="Siseljafossen" />
		<tag k="natural" v="waterfall" />
		<tag k="ssr:stedsnr" v="613301" />
	</node>
	<node id="-461020" lat="60.6331305597" lon="6.20617500391">
		<tag k="name" v="Hohølen" />
		<tag k="place" v="locality" />
		<tag k="ssr:stedsnr" v="67121" />
	</node>
	<node id="-462202" lat="60.5829583319" lon="6.02415000459">
		<tag k="name" v="Trekanttjørni" />
		<tag k="natural" v="water" />
		<tag k="ssr:stedsnr" v="431876" />
	</node>
	<node id="-463065" lat="60.6206833337" lon="6.11680278425">
		<tag k="name" v="Stølselvi" />
		<tag k="ssr:stedsnr" v="613179" />
		<tag k="waterway" v="river" />
	</node>
	<node id="-462024" lat="60.8538749971" lon="6.52917499109">
		<tag k="alt_name" v="Djupegroi" />
		<tag k="name" v="Djupegrovi" />
		<tag k="ssr:stedsnr" v="251552" />
		<tag k="waterway" v="stream" />
	</node>
	<node id="-461015" lat="60.6530666662" lon="6.00225000649">
		<tag k="name" v="Hovmannafossen" />
		<tag k="natural" v="waterfall" />
		<tag k="ssr:stedsnr" v="67083" />
	</node>
	<node id="-461014" lat="60.6661277791" lon="5.90787499743">
		<tag k="name" v="Sagagrovi" />
		<tag k="ssr:stedsnr" v="67079" />
		<tag k="waterway" v="river" />
	</node>
	<node id="-461011" lat="60.6141916643" lon="6.13777499485">
		<tag k="name" v="Tverrelvi" />
		<tag k="ssr:stedsnr" v="67180" />
		<tag k="waterway" v="river" />
	</node>
	<node id="-461859" lat="60.7302305518" lon="6.91409443777">
		<tag k="name" v="Reinstoni" />
		<tag k="ssr:stedsnr" v="227262" />
		<tag k="waterway" v="stream" />
	</node>
	<node id="-461005" lat="60.6558000017" lon="6.13985277603">
		<tag k="name" v="Muggåselvi" />
		<tag k="ssr:stedsnr" v="67052" />
		<tag k="waterway" v="river" />
	</node>
	<node id="-461004" lat="60.570405552" lon="6.20382499597">
		<tag k="alt_name" v="Svortetjørni" />
		<tag k="name" v="Svortevatnet" />
		<tag k="natural" v="water" />
		<tag k="ssr:stedsnr" v="66852" />
	</node>
	<node id="-463049" lat="60.720394443" lon="6.15082778165">
		<tag k="name" v="Klauvsteintjørni" />
		<tag k="natural" v="water" />
		<tag k="ssr:stedsnr" v="612461" />
	</node>
	<node id="-460833" lat="60.6564250002" lon="6.24035000438">
		<tag k="name" v="Madlielvi" />
		<tag k="ssr:stedsnr" v="20010" />
		<tag k="waterway" v="river" />
	</node>
	<node id="-460708" lat="60.6258333302" lon="6.04518056299">
		<tag k="name" v="Kvernelvi" />
		<tag k="ssr:stedsnr" v="6148" />
		<tag k="waterway" v="stream" />
	</node>
	<node id="-463041" lat="60.5915694466" lon="6.03002500488">
		<tag k="name" v="Vampavatnet" />
		<tag k="natural" v="water" />
		<tag k="ssr:stedsnr" v="612261" />
	</node>
	<node id="-463036" lat="60.6157859693" lon="6.04452257686">
		<tag k="name" v="Olatjørni" />
		<tag k="natural" v="water" />
		<tag k="ssr:stedsnr" v="612234" />
	</node>
	<node id="-460490" lat="60.511655404" lon="6.4494754165">
		<tag k="name" v="Rundatjørni" />
		<tag k="natural" v="water" />
		<tag k="ssr:stedsnr" v="409548" />
	</node>
	<node id="-463034" lat="60.6047222231" lon="6.1739916621">
		<tag k="name" v="Kyrkjegjelsgrovi" />
		<tag k="ssr:stedsnr" v="612207" />
		<tag k="waterway" v="stream" />
	</node>
	<node id="-460985" lat="60.4967777811" lon="6.46902500671">
		<tag k="loc_name" v="Grungo" />
		<tag k="name" v="Kaldåni" />
		<tag k="ssr:stedsnr" v="46174" />
		<tag k="waterway" v="stream" />
	</node>
	<node id="-463031" lat="60.6325527755" lon="5.88562500581">
		<tag k="name" v="Tyssesundet" />
		<tag k="place" v="locality" />
		<tag k="ssr:stedsnr" v="612128" />
	</node>
	<node id="-460981" lat="60.9093000029" lon="6.71914443559">
		<tag k="name" v="Fossagroi" />
		<tag k="ssr:stedsnr" v="46015" />
		<tag k="waterway" v="stream" />
	</node>
	<node id="-464546" lat="60.5170500026" lon="6.58693611383">
		<tag k="name" v="Kvanngjelsfossen" />
		<tag k="natural" v="waterfall" />
		<tag k="ssr:stedsnr" v="917499" />
	</node>
	<node id="-460971" lat="60.8340292515" lon="6.72863596091">
		<tag k="name" v="Nipetjørnane" />
		<tag k="natural" v="water" />
		<tag k="ssr:stedsnr" v="45881" />
		<tag k="water" v="lake" />
	</node>
	<node id="-460965" lat="60.5697333358" lon="6.57473888166">
		<tag k="name" v="Grønliviki" />
		<tag k="natural" v="bay" />
		<tag k="ssr:stedsnr" v="45752" />
	</node>
	<node id="-463010" lat="60.8801472219" lon="6.72513054971">
		<tag k="name" v="Kvanngroi" />
		<tag k="ssr:stedsnr" v="592101" />
		<tag k="waterway" v="stream" />
	</node>
	<node id="-460144" lat="60.8710111149" lon="6.5537111184">
		<tag k="name" v="Vaskegroi" />
		<tag k="ssr:stedsnr" v="348041" />
		<tag k="waterway" v="stream" />
	</node>
	<node id="-463004" lat="60.5147249978" lon="6.47300278133">
		<tag k="name" v="Øyane" />
		<tag k="place" v="island" />
		<tag k="ssr:stedsnr" v="591797" />
	</node>
	<node id="-460955" lat="60.5263555554" lon="6.46718055294">
		<tag k="name" v="Kulsetgrovi" />
		<tag k="ssr:stedsnr" v="45541" />
		<tag k="waterway" v="stream" />
	</node>
	<node id="-460394" lat="60.7131666652" lon="6.70765555556">
		<tag k="name" v="Dravlærne" />
		<tag k="ssr:stedsnr" v="384386" />
		<tag k="waterway" v="river" />
	</node>
	<node id="-462999" lat="60.5735666628" lon="6.57698889285">
		<tag k="name" v="Holmen" />
		<tag k="place" v="islet" />
		<tag k="ssr:stedsnr" v="591717" />
	</node>
	<node id="-462531" lat="60.5573520164" lon="6.60843022166">
		<tag k="name" v="Kjeatjørni" />
		<tag k="natural" v="water" />
		<tag k="ssr:stedsnr" v="492857" />
	</node>
	<node id="-460944" lat="60.7115194424" lon="6.51632777111">
		<tag k="name" v="Vetlailsko" />
		<tag k="ssr:stedsnr" v="45453" />
		<tag k="waterway" v="stream" />
	</node>
	<node id="-462189" lat="60.7312319527" lon="6.67214095575">
		<tag k="name" v="Fjellsetevotni" />
		<tag k="natural" v="water" />
		<tag k="ssr:stedsnr" v="431572" />
		<tag k="water" v="lake" />
	</node>
	<node id="-462985" lat="60.7012027762" lon="6.47946665986">
		<tag k="name" v="Fastøyni" />
		<tag k="place" v="island" />
		<tag k="ssr:stedsnr" v="591487" />
	</node>
	<node id="-462983" lat="60.6973305533" lon="6.4642388878">
		<tag k="name" v="Vetlaåni" />
		<tag k="ssr:stedsnr" v="591485" />
		<tag k="waterway" v="stream" />
	</node>
	<node id="-462030" lat="60.8720364681" lon="6.37033931187">
		<tag k="name" v="Grøndalsvatnet" />
		<tag k="natural" v="water" />
		<tag k="ssr:stedsnr" v="251600" />
		<tag k="water" v="lake" />
	</node>
	<node id="-462980" lat="60.6801356792" lon="6.47797269856">
		<tag k="name" v="Okraneset" />
		<tag k="natural" v="cape" />
		<tag k="ssr:stedsnr" v="591473" />
	</node>
	<node id="-460931" lat="60.6733444457" lon="6.74708054699">
		<tag k="name" v="Sponaviki" />
		<tag k="natural" v="bay" />
		<tag k="ssr:stedsnr" v="45142" />
	</node>
	<node id="-460920" lat="60.9005222251" lon="6.47426388388">
		<tag k="name" v="Sendefossen" />
		<tag k="natural" v="waterfall" />
		<tag k="ssr:stedsnr" v="45169" />
	</node>
	<node id="-460918" lat="60.8361388858" lon="6.57075832545">
		<tag k="name" v="Skitligroi" />
		<tag k="ssr:stedsnr" v="44921" />
		<tag k="waterway" v="river" />
	</node>
	<node id="-462965" lat="60.6604833311" lon="6.77562500767">
		<tag k="name" v="Fossaredet" />
		<tag k="natural" v="waterfall" />
		<tag k="ssr:stedsnr" v="591195" />
	</node>
	<node id="-460913" lat="60.6978055534" lon="6.8453583411">
		<tag k="name" v="Rjoandfossen" />
		<tag k="natural" v="waterfall" />
		<tag k="ssr:stedsnr" v="44835" />
	</node>
	<node id="-460911" lat="60.9004138865" lon="6.73743888807">
		<tag k="alt_name" v="Nåselvi" />
		<tag k="name" v="Noselvi" />
		<tag k="ssr:stedsnr" v="45052" />
		<tag k="waterway" v="river" />
	</node>
	<node id="-462957" lat="60.9009583321" lon="6.47235556305">
		<tag k="name" v="Sendeelvi" />
		<tag k="ssr:stedsnr" v="591154" />
		<tag k="waterway" v="river" />
	</node>
	<node id="-462951" lat="60.8934944428" lon="6.62096665973">
		<tag k="name" v="Storagroi" />
		<tag k="ssr:stedsnr" v="591083" />
		<tag k="waterway" v="stream" />
	</node>
	<node id="-460900" lat="60.6038444478" lon="6.39788055894">
		<tag k="name" v="Flotegrovi" />
		<tag k="ssr:stedsnr" v="21880" />
		<tag k="waterway" v="river" />
	</node>
	<node id="-462947" lat="60.579614921" lon="6.08057077628">
		<tag k="alt_name" v="Lonavatni" />
		<tag k="name" v="Lonavatnet" />
		<tag k="natural" v="water" />
		<tag k="ssr:stedsnr" v="591060" />
		<tag k="water" v="lake" />
	</node>
	<node id="-462944" lat="60.5590305518" lon="6.20996665807">
		<tag k="name" v="Badeviki" />
		<tag k="natural" v="bay" />
		<tag k="ssr:stedsnr" v="590984" />
	</node>
	<node id="-462943" lat="60.558672223" lon="6.20444999351">
		<tag k="name" v="Poteholmen" />
		<tag k="place" v="islet" />
		<tag k="ssr:stedsnr" v="590980" />
	</node>
	<node id="-463205" lat="60.8248500022" lon="6.69785000786">
		<tag k="name" v="Storegrovi" />
		<tag k="ssr:stedsnr" v="627370" />
		<tag k="waterway" v="river" />
	</node>
	<node id="-462940" lat="60.8366583337" lon="6.61349721856">
		<tag k="name" v="Skjolsetelvi" />
		<tag k="ssr:stedsnr" v="590867" />
		<tag k="waterway" v="river" />
	</node>
	<node id="-460883" lat="60.7926249987" lon="6.68605555386">
		<tag k="name" v="Bruastøet" />
		<tag k="natural" v="cape" />
		<tag k="ssr:stedsnr" v="21372" />
	</node>
	<node id="-460100" lat="60.6540194463" lon="6.11096388442">
		<tag k="name" v="Geitdalsgrovi" />
		<tag k="ssr:stedsnr" v="324707" />
		<tag k="waterway" v="river" />
	</node>
	<node id="-462927" lat="60.8746694449" lon="6.51433055337">
		<tag k="name" v="Klov" />
		<tag k="ssr:stedsnr" v="567170" />
		<tag k="waterway" v="river" />
	</node>
	<node id="-462926" lat="60.7217555602" lon="6.42540833903">
		<tag k="name" v="Tjørnagrovi" />
		<tag k="ssr:stedsnr" v="567144" />
		<tag k="waterway" v="stream" />
	</node>
	<node id="-462924" lat="60.7476194434" lon="6.43527776968">
		<tag k="name" v="Løkjo" />
		<tag k="ssr:stedsnr" v="567133" />
		<tag k="waterway" v="river" />
	</node>
	<node id="-462921" lat="60.6151694471" lon="6.31549444085">
		<tag k="name" v="Storagrovi" />
		<tag k="ssr:stedsnr" v="567073" />
		<tag k="waterway" v="river" />
	</node>
	<node id="-462920" lat="60.6429805518" lon="6.35380832833">
		<tag k="name" v="Vetlagrovi" />
		<tag k="ssr:stedsnr" v="566951" />
		<tag k="waterway" v="river" />
	</node>
	<node id="-462919" lat="60.6613361082" lon="5.90701943725">
		<tag k="name" v="Rotaneset" />
		<tag k="natural" v="cape" />
		<tag k="ssr:stedsnr" v="566937" />
	</node>
	<node id="-461153" lat="60.7237000011" lon="6.12799722818">
		<tag k="name" v="Hyljaneset" />
		<tag k="natural" v="cape" />
		<tag k="ssr:stedsnr" v="81531" />
	</node>
	<node id="-460866" lat="60.6452499995" lon="6.26470554694">
		<tag k="name" v="Bergselvi" />
		<tag k="ssr:stedsnr" v="21038" />
		<tag k="waterway" v="river" />
	</node>
	<node id="-462931" lat="60.615366666" lon="5.9067166645">
		<tag k="name" v="Fribotnaelvi" />
		<tag k="ssr:stedsnr" v="567953" />
		<tag k="waterway" v="river" />
	</node>
	<node id="-462909" lat="60.6743166676" lon="6.11716388478">
		<tag k="name" v="Ytstegrovi" />
		<tag k="ssr:stedsnr" v="566749" />
		<tag k="waterway" v="river" />
	</node>
	<node id="-460859" lat="60.6262916701" lon="6.3942999973">
		<tag k="name" v="Vetlagrovi" />
		<tag k="ssr:stedsnr" v="20916" />
		<tag k="waterway" v="river" />
	</node>
	<node id="-462905" lat="60.6632916659" lon="6.10585834134">
		<tag k="name" v="Grøttegrovi" />
		<tag k="ssr:stedsnr" v="566737" />
		<tag k="waterway" v="river" />
	</node>
	<node id="-462904" lat="60.6628722223" lon="6.10390277714">
		<tag k="name" v="Nedregilsgrovi" />
		<tag k="ssr:stedsnr" v="566734" />
		<tag k="waterway" v="river" />
	</node>
	<node id="-462901" lat="60.6702638881" lon="6.14283889243">
		<tag k="name" v="Storrløkene" />
		<tag k="natural" v="water" />
		<tag k="ssr:stedsnr" v="566718" />
		<tag k="water" v="lake" />
	</node>
	<node id="-460527" lat="60.6378611103" lon="6.58245277031">
		<tag k="name" v="Gilsetgrovi" />
		<tag k="ssr:stedsnr" v="410449" />
		<tag k="waterway" v="stream" />
	</node>
	<node id="-462894" lat="60.8343944442" lon="6.68568332465">
		<tag k="name" v="Stalheimsfossen" />
		<tag k="natural" v="waterfall" />
		<tag k="ssr:stedsnr" v="566375" />
	</node>
	<node id="-460843" lat="60.7618666683" lon="6.47551388456">
		<tag k="name" v="Holaelvi" />
		<tag k="ssr:stedsnr" v="20181" />
		<tag k="waterway" v="river" />
	</node>
	<node id="-460841" lat="60.7867277735" lon="6.59990833065">
		<tag k="name" v="Vetlegilsgrovi" />
		<tag k="ssr:stedsnr" v="20149" />
		<tag k="waterway" v="river" />
	</node>
	<node id="-460836" lat="60.6173750015" lon="6.30161389311">
		<tag k="name" v="Vetlagrovi" />
		<tag k="ssr:stedsnr" v="20086" />
		<tag k="waterway" v="river" />
	</node>
	<node id="-462882" lat="60.8182555568" lon="6.55444721337">
		<tag k="name" v="Breigrovi" />
		<tag k="ssr:stedsnr" v="566285" />
		<tag k="waterway" v="river" />
	</node>
	<node id="-462881" lat="60.8066361142" lon="6.55847221493">
		<tag k="name" v="Sundsvålselvi" />
		<tag k="ssr:stedsnr" v="566282" />
		<tag k="waterway" v="river" />
	</node>
	<node id="-460822" lat="60.7828705932" lon="6.76226859503">
		<tag k="name" v="Halsatjørni" />
		<tag k="natural" v="water" />
		<tag k="ssr:stedsnr" v="8785" />
	</node>
	<node id="-460821" lat="60.7878222262" lon="6.69611667228">
		<tag k="name" v="Brandsetelvi" />
		<tag k="ssr:stedsnr" v="8784" />
		<tag k="waterway" v="river" />
	</node>
	<node id="-462868" lat="60.8695032947" lon="6.51708466834">
		<tag k="name" v="Bygdatjørni" />
		<tag k="natural" v="water" />
		<tag k="ssr:stedsnr" v="566161" />
	</node>
	<node id="-462867" lat="60.6329472187" lon="6.22618333208">
		<tag k="name" v="Tokjelda" />
		<tag k="place" v="locality" />
		<tag k="ssr:stedsnr" v="566126" />
	</node>
	<node id="-462864" lat="60.6473166647" lon="6.23353333599">
		<tag k="name" v="Haugagrovi" />
		<tag k="ssr:stedsnr" v="566100" />
		<tag k="waterway" v="river" />
	</node>
	<node id="-462862" lat="60.6214722247" lon="6.34033055961">
		<tag k="name" v="Honvesgrovi" />
		<tag k="ssr:stedsnr" v="566094" />
		<tag k="waterway" v="river" />
	</node>
	<node id="-460812" lat="60.7614416691" lon="6.74895555019">
		<tag k="name" v="Grodjyvo" />
		<tag k="ssr:stedsnr" v="8204" />
		<tag k="waterway" v="river" />
	</node>
	<node id="-460119" lat="60.5803888892" lon="6.60388056284">
		<tag k="name" v="Bulkuelvi" />
		<tag k="ssr:stedsnr" v="324667" />
		<tag k="waterway" v="river" />
	</node>
	<node id="-460808" lat="60.6714666676" lon="6.70903610818">
		<tag k="name" v="Skipleseidet" />
		<tag k="natural" v="strait" />
		<tag k="old_name" v="Eide;Eidet" />
		<tag k="ssr:stedsnr" v="7992" />
	</node>
	<node id="-460805" lat="60.6919555524" lon="6.74088333917">
		<tag k="name" v="Tverrandelvi" />
		<tag k="ssr:stedsnr" v="7969" />
		<tag k="waterway" v="river" />
	</node>
	<node id="-460804" lat="60.68651422" lon="6.70328894633">
		<tag k="name" v="Hovdatjørni" />
		<tag k="natural" v="water" />
		<tag k="ssr:stedsnr" v="7963" />
	</node>
</osm>
