<?xml version="1.0" encoding="UTF-8"?>
<osm generator="osmapis" version="0.6">
	<node id="-463021" lat="60.763252781" lon="6.9373055505">
		<tag k="fixme" v="consider boundary=protected_area and relevant protect_class if not nature reserve" />
		<tag k="leisure" v="nature_reserve" />
		<tag k="name" v="Grånosmyrane naturreservat" />
		<tag k="ssr:stedsnr" v="592248" />
	</node>
	<node id="-461308" lat="60.633230552" lon="6.12401388449">
		<tag k="name" v="Teigdalsallmenningen" />
		<tag k="place" v="locality" />
		<tag k="ssr:stedsnr" v="127160" />
	</node>
	<node id="-462995" lat="60.6584638862" lon="6.47709444514">
		<tag k="fixme" v="consider boundary=protected_area and relevant protect_class if not nature reserve" />
		<tag k="leisure" v="nature_reserve" />
		<tag k="name" v="Håmyrane naturreservat" />
		<tag k="ssr:stedsnr" v="591681" />
	</node>
	<node id="-462378" lat="60.8213361144" lon="6.7444638967">
		<tag k="name" v="Oppheim Store Allmenning" />
		<tag k="place" v="locality" />
		<tag k="ssr:stedsnr" v="470196" />
	</node>
	<node id="-459899" lat="60.6952555583" lon="6.48147499337">
		<tag k="fixme" v="consider boundary=protected_area and relevant protect_class if not nature reserve" />
		<tag k="leisure" v="nature_reserve" />
		<tag k="name" v="Lønaøyane naturreservat" />
		<tag k="ssr:stedsnr" v="289211" />
	</node>
</osm>
