<?xml version="1.0" encoding="UTF-8"?>
<osm generator="osmapis" version="0.6">
	<node id="-462848" lat="60.7623799532" lon="6.48795776001">
		<tag k="fixme" v="consider place=hamlet" />
		<tag k="name" v="Hjellen" />
		<tag k="place" v="farm" />
		<tag k="ssr:stedsnr" v="554965" />
	</node>
	<node id="-462847" lat="60.758617414" lon="6.47716752859">
		<tag k="fixme" v="consider place=hamlet" />
		<tag k="name" v="Njåtveit" />
		<tag k="place" v="farm" />
		<tag k="ssr:stedsnr" v="554958" />
	</node>
	<node id="-460797" lat="60.5863444438" lon="6.53704443792">
		<tag k="historic" v="shieling" />
		<tag k="name" v="Løkjane" />
		<tag k="place" v="locality" />
		<tag k="ssr:stedsnr" v="7663" />
	</node>
	<node id="-460795" lat="60.5942267864" lon="6.57665237657">
		<tag k="fixme" v="consider place=hamlet" />
		<tag k="name" v="Flatlandsmoen" />
		<tag k="place" v="farm" />
		<tag k="ssr:stedsnr" v="7646" />
	</node>
	<node id="-460799" lat="60.6215749998" lon="6.3762777758">
		<tag k="name" v="Gullfjordungen" />
		<tag k="place" v="hamlet" />
		<tag k="ssr:stedsnr" v="7714" />
	</node>
	<node id="-460792" lat="60.5919543869" lon="6.46053544108">
		<tag k="fixme" v="consider place=hamlet" />
		<tag k="name" v="Vele" />
		<tag k="place" v="farm" />
		<tag k="ssr:stedsnr" v="7632" />
	</node>
	<node id="-462839" lat="60.8621611114" lon="6.658366664">
		<tag k="historic" v="shieling" />
		<tag k="name" v="Storestølen" />
		<tag k="place" v="locality" />
		<tag k="ssr:stedsnr" v="554856" />
	</node>
	<node id="-462505" lat="60.7171472257" lon="6.60010277768">
		<tag k="historic" v="shieling" />
		<tag k="name" v="Gudmundsset" />
		<tag k="place" v="locality" />
		<tag k="ssr:stedsnr" v="492521" />
	</node>
	<node id="-462836" lat="60.792202775" lon="6.68426667043">
		<tag k="name" v="Ljosno" />
		<tag k="place" v="farm" />
		<tag k="ssr:stedsnr" v="554810" />
	</node>
	<node id="-462835" lat="60.807155851" lon="6.64621912293">
		<tag k="fixme" v="consider place=hamlet" />
		<tag k="name" v="Hauge" />
		<tag k="place" v="farm" />
		<tag k="ssr:stedsnr" v="554807" />
	</node>
	<node id="-460785" lat="60.6159210083" lon="6.51808223471">
		<tag k="fixme" v="consider place=hamlet" />
		<tag k="name" v="Oppheim" />
		<tag k="place" v="farm" />
		<tag k="ssr:stedsnr" v="7611" />
	</node>
	<node id="-460784" lat="60.6094454506" lon="6.34176227049">
		<tag k="fixme" v="consider place=hamlet" />
		<tag k="name" v="Midttun" />
		<tag k="place" v="farm" />
		<tag k="ssr:stedsnr" v="7605" />
	</node>
	<node id="-460783" lat="60.6076166644" lon="6.38145000314">
		<tag k="name" v="Glimme" />
		<tag k="place" v="farm" />
		<tag k="ssr:stedsnr" v="7606" />
	</node>
	<node id="-460782" lat="60.6066583327" lon="6.4362361076">
		<tag k="name" v="Rokne" />
		<tag k="place" v="farm" />
		<tag k="ssr:stedsnr" v="7601" />
	</node>
	<node id="-462826" lat="60.8420055597" lon="6.46662776893">
		<tag k="fixme" v="consider place=hamlet" />
		<tag k="name" v="Myrkdalen" />
		<tag k="place" v="village" />
		<tag k="ssr:stedsnr" v="554599" />
	</node>
	<node id="-462824" lat="60.845037941" lon="6.46680789147">
		<tag k="fixme" v="consider place=hamlet" />
		<tag k="name" v="Overland" />
		<tag k="place" v="farm" />
		<tag k="ssr:stedsnr" v="554575" />
	</node>
	<node id="-462818" lat="60.6646972195" lon="6.60098888594">
		<tag k="historic" v="shieling" />
		<tag k="name" v="Jussdalsstølen" />
		<tag k="place" v="locality" />
		<tag k="ssr:stedsnr" v="553994" />
	</node>
	<node id="-462814" lat="60.6839801317" lon="6.66819714561">
		<tag k="fixme" v="consider place=hamlet" />
		<tag k="name" v="Midberde" />
		<tag k="place" v="farm" />
		<tag k="ssr:stedsnr" v="553954" />
	</node>
	<node id="-462813" lat="60.682071726" lon="6.66790562799">
		<tag k="fixme" v="multiple name tags, choose one and add the other to alt_name; consider place=hamlet" />
		<tag k="name" v="Framberde;Heimberde" />
		<tag k="old_name" v="Heimbere" />
		<tag k="place" v="farm" />
		<tag k="ssr:stedsnr" v="553944" />
	</node>
	<node id="-462812" lat="60.6761611217" lon="6.61479985121">
		<tag k="fixme" v="consider place=hamlet" />
		<tag k="name" v="Lindberg" />
		<tag k="place" v="farm" />
		<tag k="ssr:stedsnr" v="553938" />
	</node>
	<node id="-462806" lat="60.5998964678" lon="6.35858431851">
		<tag k="fixme" v="consider place=hamlet" />
		<tag k="name" v="Finnesteigen" />
		<tag k="place" v="farm" />
		<tag k="ssr:stedsnr" v="553656" />
	</node>
	<node id="-462804" lat="60.6163086099" lon="6.54431558454">
		<tag k="name" v="Opeland" />
		<tag k="place" v="farm" />
		<tag k="ssr:stedsnr" v="553635" />
	</node>
	<node id="-460755" lat="60.6264713613" lon="6.28059219738">
		<tag k="fixme" v="consider place=hamlet" />
		<tag k="name" v="Skjelde" />
		<tag k="place" v="farm" />
		<tag k="ssr:stedsnr" v="6716" />
	</node>
	<node id="-463387" lat="60.7052542392" lon="6.49211634207">
		<tag k="fixme" v="consider place=hamlet" />
		<tag k="name" v="Grjotland" />
		<tag k="place" v="farm" />
		<tag k="ssr:stedsnr" v="674307" />
	</node>
	<node id="-462794" lat="60.5337027818" lon="6.59506388732">
		<tag k="historic" v="shieling" />
		<tag k="name" v="Horgaset" />
		<tag k="place" v="locality" />
		<tag k="ssr:stedsnr" v="552826" />
	</node>
	<node id="-462793" lat="60.6242744962" lon="6.50635656158">
		<tag k="fixme" v="consider place=hamlet" />
		<tag k="name" v="Øvre Auro" />
		<tag k="place" v="farm" />
		<tag k="ssr:stedsnr" v="552760" />
	</node>
	<node id="-462792" lat="60.6508797353" lon="6.42596928828">
		<tag k="name" v="Ringheim" />
		<tag k="place" v="farm" />
		<tag k="ssr:stedsnr" v="552733" />
	</node>
	<node id="-462790" lat="60.6419940176" lon="6.31631566009">
		<tag k="fixme" v="consider place=hamlet" />
		<tag k="name" v="Hæve" />
		<tag k="place" v="farm" />
		<tag k="ssr:stedsnr" v="552728" />
	</node>
	<node id="-460738" lat="60.7307611084" lon="6.22749167497">
		<tag k="historic" v="shieling" />
		<tag k="name" v="Kolls-Fannadalen" />
		<tag k="place" v="locality" />
		<tag k="ssr:stedsnr" v="6390" />
	</node>
	<node id="-460734" lat="60.71467778" lon="6.46508889557">
		<tag k="historic" v="shieling" />
		<tag k="name" v="Afdalsstølen" />
		<tag k="place" v="locality" />
		<tag k="ssr:stedsnr" v="6367" />
	</node>
	<node id="-460731" lat="60.7007000024" lon="6.57413055046">
		<tag k="historic" v="shieling" />
		<tag k="name" v="Grauastølen" />
		<tag k="place" v="locality" />
		<tag k="ssr:stedsnr" v="6343" />
	</node>
	<node id="-462778" lat="60.6945638897" lon="6.12566111894">
		<tag k="historic" v="shieling" />
		<tag k="name" v="Flathaugen" />
		<tag k="place" v="locality" />
		<tag k="ssr:stedsnr" v="552555" />
	</node>
	<node id="-460788" lat="60.6018406219" lon="6.58031218031">
		<tag k="fixme" v="consider place=hamlet" />
		<tag k="name" v="Håtveiti" />
		<tag k="place" v="farm" />
		<tag k="ssr:stedsnr" v="7624" />
	</node>
	<node id="-460725" lat="60.6602005482" lon="6.43258544767">
		<tag k="fixme" v="consider place=hamlet" />
		<tag k="name" v="Fitjo" />
		<tag k="place" v="farm" />
		<tag k="ssr:stedsnr" v="6300" />
	</node>
	<node id="-462772" lat="60.7089114526" lon="6.50267660418">
		<tag k="fixme" v="consider place=hamlet" />
		<tag k="name" v="Fletre" />
		<tag k="place" v="farm" />
		<tag k="ssr:stedsnr" v="552371" />
	</node>
	<node id="-462771" lat="60.7074888884" lon="6.55836944079">
		<tag k="historic" v="shieling" />
		<tag k="name" v="Grauastølen" />
		<tag k="place" v="locality" />
		<tag k="ssr:stedsnr" v="552362" />
	</node>
	<node id="-462769" lat="60.6805762724" lon="6.45569887329">
		<tag k="fixme" v="consider place=hamlet" />
		<tag k="name" v="Saue" />
		<tag k="place" v="farm" />
		<tag k="ssr:stedsnr" v="552344" />
	</node>
	<node id="-460719" lat="60.6050999977" lon="6.18271110611">
		<tag k="name" v="Brattabø" />
		<tag k="place" v="farm" />
		<tag k="ssr:stedsnr" v="6208" />
	</node>
	<node id="-462765" lat="60.6605444465" lon="6.45392221512">
		<tag k="fixme" v="consider place=hamlet" />
		<tag k="name" v="Kvitheim" />
		<tag k="place" v="village" />
		<tag k="ssr:stedsnr" v="552325" />
	</node>
	<node id="-462761" lat="60.6596469002" lon="6.46015445581">
		<tag k="fixme" v="consider place=hamlet" />
		<tag k="name" v="Øvsthus" />
		<tag k="place" v="farm" />
		<tag k="ssr:stedsnr" v="552304" />
	</node>
	<node id="-462760" lat="60.6438416627" lon="6.232294437">
		<tag k="fixme" v="consider place=hamlet" />
		<tag k="name" v="Vestbygdi" />
		<tag k="place" v="village" />
		<tag k="ssr:stedsnr" v="552293" />
	</node>
	<node id="-462755" lat="60.6101194442" lon="5.90859166327">
		<tag k="name" v="Fribotnen" />
		<tag k="place" v="locality" />
		<tag k="ssr:stedsnr" v="552226" />
	</node>
	<node id="-460700" lat="60.6527330339" lon="6.13127357876">
		<tag k="fixme" v="consider place=hamlet" />
		<tag k="name" v="Elge" />
		<tag k="place" v="farm" />
		<tag k="ssr:stedsnr" v="6102" />
	</node>
	<node id="-460442" lat="60.6265985209" lon="6.44404170364">
		<tag k="name" v="Haugo" />
		<tag k="place" v="farm" />
		<tag k="ssr:stedsnr" v="385788" />
	</node>
	<node id="-462745" lat="60.652333337" lon="6.10253056336">
		<tag k="name" v="Solviki" />
		<tag k="place" v="farm" />
		<tag k="ssr:stedsnr" v="552101" />
	</node>
	<node id="-460696" lat="60.6491361074" lon="6.00790554706">
		<tag k="name" v="Sanden" />
		<tag k="place" v="isolated_dwelling" />
		<tag k="ssr:stedsnr" v="6076" />
	</node>
	<node id="-460695" lat="60.6452274" lon="5.99668472137">
		<tag k="fixme" v="consider place=hamlet" />
		<tag k="name" v="Vassenden" />
		<tag k="place" v="farm" />
		<tag k="ssr:stedsnr" v="6074" />
	</node>
	<node id="-460694" lat="60.6609861088" lon="5.90095000474">
		<tag k="name" v="Vestrheim" />
		<tag k="place" v="locality" />
		<tag k="ssr:stedsnr" v="6065" />
	</node>
	<node id="-462741" lat="60.6500355447" lon="6.02330397493">
		<tag k="fixme" v="consider place=hamlet" />
		<tag k="name" v="Øreviki" />
		<tag k="place" v="farm" />
		<tag k="ssr:stedsnr" v="552077" />
	</node>
	<node id="-462739" lat="60.6591000018" lon="6.09874999887">
		<tag k="name" v="Åsly" />
		<tag k="place" v="farm" />
		<tag k="ssr:stedsnr" v="552054" />
	</node>
	<node id="-464786" lat="60.7001805541" lon="6.56895277758">
		<tag k="historic" v="shieling" />
		<tag k="name" v="Osgjerdstølen" />
		<tag k="place" v="locality" />
		<tag k="ssr:stedsnr" v="956453" />
	</node>
	<node id="-462735" lat="60.6780749981" lon="6.18817778693">
		<tag k="historic" v="shieling" />
		<tag k="name" v="Rekvestølen" />
		<tag k="place" v="locality" />
		<tag k="ssr:stedsnr" v="552024" />
	</node>
	<node id="-462732" lat="60.6258942416" lon="6.3286890571">
		<tag k="fixme" v="consider place=hamlet" />
		<tag k="name" v="Byrkjo" />
		<tag k="place" v="farm" />
		<tag k="ssr:stedsnr" v="551730" />
	</node>
	<node id="-462731" lat="60.6374499963" lon="6.57113333435">
		<tag k="name" v="Potten" />
		<tag k="place" v="farm" />
		<tag k="ssr:stedsnr" v="551722" />
	</node>
	<node id="-460678" lat="60.7963930904" lon="6.55258338883">
		<tag k="name" v="Bidne" />
		<tag k="place" v="hamlet" />
		<tag k="ssr:stedsnr" v="989269" />
	</node>
	<node id="-460677" lat="60.6222097837" lon="6.43462009536">
		<tag k="name" v="Nyre" />
		<tag k="place" v="hamlet" />
		<tag k="ssr:stedsnr" v="989241" />
	</node>
	<node id="-460676" lat="60.622957756" lon="6.5057553398">
		<tag k="name" v="Auro" />
		<tag k="place" v="hamlet" />
		<tag k="ssr:stedsnr" v="989240" />
	</node>
	<node id="-462486" lat="60.6592539715" lon="6.42177347932">
		<tag k="fixme" v="consider place=hamlet" />
		<tag k="name" v="Skjerpe" />
		<tag k="place" v="farm" />
		<tag k="ssr:stedsnr" v="492231" />
	</node>
	<node id="-460674" lat="60.8772093336" lon="6.72174679761">
		<tag k="fixme" v="consider place=hamlet" />
		<tag k="name" v="Jordalen" />
		<tag k="place" v="farm" />
		<tag k="ssr:stedsnr" v="989158" />
	</node>
	<node id="-464769" lat="60.8896000034" lon="6.64393888459">
		<tag k="name" v="Vikset" />
		<tag k="place" v="farm" />
		<tag k="ssr:stedsnr" v="956034" />
	</node>
	<node id="-460672" lat="60.687207075" lon="6.81423567625">
		<tag k="fixme" v="consider place=hamlet" />
		<tag k="name" v="Nygryten" />
		<tag k="place" v="farm" />
		<tag k="ssr:stedsnr" v="989089" />
	</node>
	<node id="-460671" lat="60.6750048604" lon="6.75726644117">
		<tag k="name" v="Hegg" />
		<tag k="place" v="hamlet" />
		<tag k="ssr:stedsnr" v="989088" />
	</node>
	<node id="-460670" lat="60.6837825967" lon="6.67691281941">
		<tag k="name" v="Skiple" />
		<tag k="place" v="hamlet" />
		<tag k="ssr:stedsnr" v="989087" />
	</node>
	<node id="-460669" lat="60.6796959395" lon="6.60375729899">
		<tag k="fixme" v="consider place=hamlet" />
		<tag k="name" v="Kolvelien" />
		<tag k="place" v="farm" />
		<tag k="ssr:stedsnr" v="989086" />
	</node>
	<node id="-460668" lat="60.6798195008" lon="6.58507989518">
		<tag k="fixme" v="consider place=hamlet" />
		<tag k="name" v="Lassehaug" />
		<tag k="place" v="farm" />
		<tag k="ssr:stedsnr" v="989085" />
	</node>
	<node id="-460667" lat="60.6436355054" lon="6.50251819635">
		<tag k="fixme" v="consider place=hamlet" />
		<tag k="name" v="Ygre" />
		<tag k="place" v="farm" />
		<tag k="ssr:stedsnr" v="989083" />
	</node>
	<node id="-460666" lat="60.642326093" lon="6.49057002194">
		<tag k="name" v="Bø" />
		<tag k="place" v="hamlet" />
		<tag k="ssr:stedsnr" v="989082" />
	</node>
	<node id="-460665" lat="60.6783755241" lon="6.51420393753">
		<tag k="name" v="Lemme" />
		<tag k="place" v="hamlet" />
		<tag k="ssr:stedsnr" v="989081" />
	</node>
	<node id="-460664" lat="60.6722949274" lon="6.50705645637">
		<tag k="name" v="Kyte" />
		<tag k="place" v="hamlet" />
		<tag k="ssr:stedsnr" v="989080" />
	</node>
	<node id="-462711" lat="60.7670666635" lon="6.57816666784">
		<tag k="historic" v="shieling" />
		<tag k="name" v="Furestølen" />
		<tag k="place" v="locality" />
		<tag k="ssr:stedsnr" v="531235" />
	</node>
	<node id="-460661" lat="60.7086625983" lon="6.47324106013">
		<tag k="fixme" v="consider place=hamlet" />
		<tag k="name" v="Halsteinsberg" />
		<tag k="place" v="farm" />
		<tag k="ssr:stedsnr" v="989071" />
	</node>
	<node id="-460660" lat="60.6391017363" lon="6.4288225908">
		<tag k="name" v="Ringheim" />
		<tag k="place" v="hamlet" />
		<tag k="ssr:stedsnr" v="989066" />
	</node>
	<node id="-464755" lat="60.6832722255" lon="6.750150002">
		<tag k="historic" v="shieling" />
		<tag k="name" v="Bergastølen" />
		<tag k="place" v="locality" />
		<tag k="ssr:stedsnr" v="955912" />
	</node>
	<node id="-460658" lat="60.572058481" lon="6.45867813689">
		<tag k="name" v="Rjodo" />
		<tag k="place" v="hamlet" />
		<tag k="ssr:stedsnr" v="988454" />
	</node>
	<node id="-460657" lat="60.8608347531" lon="6.49024707499">
		<tag k="name" v="Myrkdalen fjellandsby" />
		<tag k="place" v="neighbourhood" />
		<tag k="ssr:stedsnr" v="987549" />
	</node>
	<node id="-460656" lat="60.6754163893" lon="6.05807965274">
		<tag k="historic" v="shieling" />
		<tag k="name" v="Brunborgstølen" />
		<tag k="place" v="locality" />
		<tag k="ssr:stedsnr" v="987545" />
	</node>
	<node id="-460655" lat="60.6458990867" lon="6.1064266722">
		<tag k="fixme" v="consider place=hamlet" />
		<tag k="name" v="Væle" />
		<tag k="place" v="farm" />
		<tag k="ssr:stedsnr" v="986566" />
	</node>
	<node id="-460650" lat="60.7860260909" lon="6.48316245484">
		<tag k="name" v="Bakkane" />
		<tag k="place" v="farm" />
		<tag k="ssr:stedsnr" v="981962" />
	</node>
	<node id="-464738" lat="60.6687833365" lon="6.48072499766">
		<tag k="name" v="Helgeplassen" />
		<tag k="place" v="farm" />
		<tag k="ssr:stedsnr" v="955704" />
	</node>
	<node id="-464736" lat="60.6612472257" lon="6.49673610317">
		<tag k="name" v="Velte" />
		<tag k="place" v="square" />
		<tag k="ssr:stedsnr" v="955696" />
	</node>
	<node id="-464728" lat="60.6339221777" lon="6.42633358278">
		<tag k="fixme" v="consider place=hamlet" />
		<tag k="name" v="Rogne" />
		<tag k="place" v="farm" />
		<tag k="ssr:stedsnr" v="955476" />
	</node>
	<node id="-460089" lat="60.8116333375" lon="6.63228332827">
		<tag k="historic" v="shieling" />
		<tag k="name" v="Ryggjastølen" />
		<tag k="place" v="locality" />
		<tag k="ssr:stedsnr" v="324282" />
	</node>
	<node id="-464724" lat="60.6500249991" lon="6.52402222982">
		<tag k="name" v="Nedre Graue" />
		<tag k="place" v="farm" />
		<tag k="ssr:stedsnr" v="955361" />
	</node>
	<node id="-464723" lat="60.6539222223" lon="6.57210833616">
		<tag k="historic" v="shieling" />
		<tag k="name" v="Gjøtveit" />
		<tag k="place" v="locality" />
		<tag k="ssr:stedsnr" v="955346" />
	</node>
	<node id="-462672" lat="60.6625527751" lon="6.44909444957">
		<tag k="name" v="Hagen" />
		<tag k="place" v="farm" />
		<tag k="ssr:stedsnr" v="530415" />
	</node>
	<node id="-464716" lat="60.6395055527" lon="6.53485556102">
		<tag k="name" v="Bjørkehagen" />
		<tag k="place" v="farm" />
		<tag k="ssr:stedsnr" v="955158" />
	</node>
	<node id="-462665" lat="60.8861138916" lon="6.65317500606">
		<tag k="name" v="Aurland" />
		<tag k="place" v="farm" />
		<tag k="ssr:stedsnr" v="530127" />
	</node>
	<node id="-464710" lat="60.653027775" lon="6.40083889397">
		<tag k="aerialway" v="drag_lift" />
		<tag k="fixme" v="consider the other aerialway types" />
		<tag k="name" v="Trodastølsheisen" />
		<tag k="ssr:stedsnr" v="947241" />
	</node>
	<node id="-464708" lat="60.6472166687" lon="6.11215556237">
		<tag k="fixme" v="consider place=hamlet" />
		<tag k="name" v="Evanger" />
		<tag k="place" v="village" />
		<tag k="ssr:stedsnr" v="941769" />
	</node>
	<node id="-462659" lat="60.6737583348" lon="6.70912778487">
		<tag k="name" v="Bakken" />
		<tag k="place" v="farm" />
		<tag k="ssr:stedsnr" v="512333" />
	</node>
	<node id="-460608" lat="60.6277250043" lon="6.4255972143">
		<tag k="name" v="Vadet" />
		<tag k="place" v="farm" />
		<tag k="ssr:stedsnr" v="895601" />
	</node>
	<node id="-460607" lat="60.6190194404" lon="6.48277222374">
		<tag k="name" v="Kolltveit" />
		<tag k="place" v="farm" />
		<tag k="ssr:stedsnr" v="895576" />
	</node>
	<node id="-460426" lat="60.6214472256" lon="6.35169166287">
		<tag k="historic" v="shieling" />
		<tag k="name" v="Kvålsstølen" />
		<tag k="place" v="locality" />
		<tag k="ssr:stedsnr" v="384887" />
	</node>
	<node id="-460599" lat="60.627313891" lon="6.41536111582">
		<tag k="name" v="Prestegardslandet" />
		<tag k="place" v="farm" />
		<tag k="ssr:stedsnr" v="895507" />
	</node>
	<node id="-462641" lat="60.638805554" lon="6.46013610472">
		<tag k="name" v="Nedre Gjerdåker" />
		<tag k="place" v="farm" />
		<tag k="ssr:stedsnr" v="506789" />
	</node>
	<node id="-462640" lat="60.6441222228" lon="6.42843332451">
		<tag k="name" v="Indre Ringheim" />
		<tag k="place" v="farm" />
		<tag k="ssr:stedsnr" v="506786" />
	</node>
	<node id="-462639" lat="60.6512333327" lon="6.52265278208">
		<tag k="name" v="Grauo" />
		<tag k="place" v="farm" />
		<tag k="ssr:stedsnr" v="506782" />
	</node>
	<node id="-464686" lat="60.6286263806" lon="6.51061558566">
		<tag k="fixme" v="consider place=hamlet" />
		<tag k="name" v="Indre Takla" />
		<tag k="place" v="farm" />
		<tag k="ssr:stedsnr" v="931816" />
	</node>
	<node id="-464685" lat="60.6693611143" lon="6.50963333891">
		<tag k="name" v="Nedre Kyte" />
		<tag k="place" v="farm" />
		<tag k="ssr:stedsnr" v="931795" />
	</node>
	<node id="-460791" lat="60.6037172287" lon="6.55075350103">
		<tag k="fixme" v="consider place=hamlet" />
		<tag k="name" v="Istad" />
		<tag k="place" v="farm" />
		<tag k="ssr:stedsnr" v="7629" />
	</node>
	<node id="-464673" lat="60.6711888877" lon="6.07678611415">
		<tag k="historic" v="shieling" />
		<tag k="name" v="Øyjordi" />
		<tag k="place" v="locality" />
		<tag k="ssr:stedsnr" v="931721" />
	</node>
	<node id="-462622" lat="60.6693098776" lon="6.51228757362">
		<tag k="name" v="Nedra Kyte" />
		<tag k="place" v="farm" />
		<tag k="ssr:stedsnr" v="506554" />
	</node>
	<node id="-461336" lat="60.6203500008" lon="6.01969999315">
		<tag k="name" v="Vikastølen" />
		<tag k="place" v="locality" />
		<tag k="ssr:stedsnr" v="127196" />
	</node>
	<node id="-464662" lat="60.7121000045" lon="6.61057500367">
		<tag k="historic" v="shieling" />
		<tag k="name" v="Breiset" />
		<tag k="place" v="locality" />
		<tag k="ssr:stedsnr" v="931645" />
	</node>
	<node id="-464660" lat="60.7082166684" lon="6.59436666832">
		<tag k="historic" v="shieling" />
		<tag k="name" v="Furteset" />
		<tag k="place" v="locality" />
		<tag k="ssr:stedsnr" v="931639" />
	</node>
	<node id="-464659" lat="60.6694355413" lon="6.50998754599">
		<tag k="name" v="Nedra Kyte" />
		<tag k="place" v="farm" />
		<tag k="ssr:stedsnr" v="931569" />
	</node>
	<node id="-464658" lat="60.6260524341" lon="6.44210321554">
		<tag k="fixme" v="consider place=hamlet" />
		<tag k="name" v="Indre Haugo" />
		<tag k="place" v="farm" />
		<tag k="ssr:stedsnr" v="931570" />
	</node>
	<node id="-460561" lat="60.5617722246" lon="6.24246943692">
		<tag k="name" v="Torfinnsheimen" />
		<tag k="place" v="farm" />
		<tag k="ssr:stedsnr" v="894969" />
	</node>
	<node id="-461101" lat="60.7564666639" lon="6.1244888872">
		<tag k="historic" v="shieling" />
		<tag k="name" v="Ormaset" />
		<tag k="place" v="locality" />
		<tag k="ssr:stedsnr" v="69701" />
	</node>
	<node id="-462603" lat="60.8311027739" lon="6.42867776965">
		<tag k="historic" v="shieling" />
		<tag k="name" v="Tveitastølen" />
		<tag k="place" v="locality" />
		<tag k="ssr:stedsnr" v="506236" />
	</node>
	<node id="-460417" lat="60.6788388899" lon="6.01088332666">
		<tag k="historic" v="shieling" />
		<tag k="name" v="Grønehaugen" />
		<tag k="place" v="locality" />
		<tag k="ssr:stedsnr" v="384800" />
	</node>
	<node id="-464644" lat="60.8137555567" lon="6.49105833661">
		<tag k="historic" v="shieling" />
		<tag k="name" v="Nedste Ulvundsstølen" />
		<tag k="place" v="locality" />
		<tag k="ssr:stedsnr" v="931343" />
	</node>
	<node id="-464641" lat="60.5738123335" lon="6.45979853372">
		<tag k="name" v="Nedre Rjodo" />
		<tag k="place" v="farm" />
		<tag k="ssr:stedsnr" v="932015" />
	</node>
	<node id="-464640" lat="60.7687472195" lon="6.47411667206">
		<tag k="fixme" v="consider place=hamlet" />
		<tag k="name" v="Hydningen" />
		<tag k="place" v="farm" />
		<tag k="ssr:stedsnr" v="931195" />
	</node>
	<node id="-463449" lat="60.8254333312" lon="6.68080277675">
		<tag k="name" v="Brattland" />
		<tag k="place" v="farm" />
		<tag k="ssr:stedsnr" v="676777" />
	</node>
	<node id="-460536" lat="60.5694694416" lon="6.45636666789">
		<tag k="name" v="Rydningane" />
		<tag k="place" v="farm" />
		<tag k="ssr:stedsnr" v="410681" />
	</node>
	<node id="-460532" lat="60.6236888903" lon="6.42419722138">
		<tag k="name" v="Prestegardsmoen" />
		<tag k="place" v="farm" />
		<tag k="ssr:stedsnr" v="410646" />
	</node>
	<node id="-462579" lat="60.6031583302" lon="6.25404444744">
		<tag k="historic" v="shieling" />
		<tag k="name" v="Øvstestølen" />
		<tag k="place" v="locality" />
		<tag k="ssr:stedsnr" v="506049" />
	</node>
	<node id="-460530" lat="60.5895750023" lon="6.47298333441">
		<tag k="name" v="Kvernhushagane" />
		<tag k="place" v="farm" />
		<tag k="ssr:stedsnr" v="410606" />
	</node>
	<node id="-464622" lat="60.6353111154" lon="6.33575833706">
		<tag k="name" v="Rudningen" />
		<tag k="place" v="farm" />
		<tag k="ssr:stedsnr" v="931077" />
	</node>
	<node id="-464620" lat="60.6403527752" lon="6.30032777514">
		<tag k="historic" v="shieling" />
		<tag k="name" v="Vetlestølen" />
		<tag k="place" v="locality" />
		<tag k="ssr:stedsnr" v="931072" />
	</node>
	<node id="-460523" lat="60.6366588837" lon="6.57138822814">
		<tag k="fixme" v="consider place=hamlet" />
		<tag k="name" v="Skjervet" />
		<tag k="place" v="farm" />
		<tag k="ssr:stedsnr" v="410393" />
	</node>
	<node id="-462569" lat="60.7666265611" lon="6.47350170066">
		<tag k="fixme" v="consider place=hamlet" />
		<tag k="name" v="Nedre Meland" />
		<tag k="place" v="farm" />
		<tag k="ssr:stedsnr" v="494958" />
	</node>
	<node id="-462568" lat="60.7624194446" lon="6.56190554975">
		<tag k="historic" v="shieling" />
		<tag k="name" v="Vetlestølen" />
		<tag k="place" v="locality" />
		<tag k="ssr:stedsnr" v="494950" />
	</node>
	<node id="-464615" lat="60.6097638873" lon="6.27572221548">
		<tag k="historic" v="shieling" />
		<tag k="name" v="Småstølane" />
		<tag k="place" v="locality" />
		<tag k="ssr:stedsnr" v="931041" />
	</node>
	<node id="-462565" lat="60.7590777788" lon="6.50666111744">
		<tag k="name" v="Kvarmastølen" />
		<tag k="place" v="farm" />
		<tag k="ssr:stedsnr" v="494943" />
	</node>
	<node id="-460516" lat="60.7762722239" lon="6.77481943578">
		<tag k="historic" v="shieling" />
		<tag k="name" v="Bjørndalen" />
		<tag k="place" v="locality" />
		<tag k="ssr:stedsnr" v="410236" />
	</node>
	<node id="-464611" lat="60.6479194445" lon="6.24501666315">
		<tag k="historic" v="shieling" />
		<tag k="name" v="Lissheims-Vetlestølen" />
		<tag k="place" v="locality" />
		<tag k="ssr:stedsnr" v="931020" />
	</node>
	<node id="-462561" lat="60.8142333371" lon="6.65530277554">
		<tag k="name" v="Høgset" />
		<tag k="place" v="locality" />
		<tag k="ssr:stedsnr" v="494773" />
	</node>
	<node id="-464606" lat="60.7850878015" lon="6.47964999586">
		<tag k="fixme" v="consider place=hamlet" />
		<tag k="name" v="Herheim" />
		<tag k="place" v="farm" />
		<tag k="ssr:stedsnr" v="919965" />
	</node>
	<node id="-462556" lat="60.7968961559" lon="6.57584682422">
		<tag k="fixme" v="consider place=hamlet" />
		<tag k="name" v="Berge" />
		<tag k="place" v="farm" />
		<tag k="ssr:stedsnr" v="493992" />
	</node>
	<node id="-462555" lat="60.8711027765" lon="6.644666675">
		<tag k="historic" v="shieling" />
		<tag k="name" v="Mulen" />
		<tag k="place" v="locality" />
		<tag k="ssr:stedsnr" v="493837" />
	</node>
	<node id="-462554" lat="60.7981305512" lon="6.65958888412">
		<tag k="historic" v="shieling" />
		<tag k="name" v="Haugsstølen" />
		<tag k="place" v="locality" />
		<tag k="ssr:stedsnr" v="493794" />
	</node>
	<node id="-462553" lat="60.7795388932" lon="6.67868888536">
		<tag k="name" v="Brandsetstølen" />
		<tag k="place" v="locality" />
		<tag k="ssr:stedsnr" v="493778" />
	</node>
	<node id="-464600" lat="60.8777583298" lon="6.72131110778">
		<tag k="name" v="Jordalen" />
		<tag k="place" v="hamlet" />
		<tag k="ssr:stedsnr" v="919829" />
	</node>
	<node id="-460501" lat="60.6096833367" lon="6.55599167013">
		<tag k="name" v="Øyjordi" />
		<tag k="place" v="farm" />
		<tag k="ssr:stedsnr" v="409839" />
	</node>
	<node id="-464596" lat="60.8441611143" lon="6.71847500254">
		<tag k="name" v="Stalheimsøyni" />
		<tag k="place" v="isolated_dwelling" />
		<tag k="ssr:stedsnr" v="919777" />
	</node>
	<node id="-462546" lat="60.8940277798" lon="6.63565833636">
		<tag k="name" v="Vikset" />
		<tag k="place" v="farm" />
		<tag k="ssr:stedsnr" v="493871" />
	</node>
	<node id="-464592" lat="60.8022742146" lon="6.61442454446">
		<tag k="fixme" v="consider place=hamlet" />
		<tag k="name" v="Løn" />
		<tag k="place" v="farm" />
		<tag k="ssr:stedsnr" v="919744" />
	</node>
	<node id="-464591" lat="60.8068520964" lon="6.64163595773">
		<tag k="fixme" v="consider place=hamlet" />
		<tag k="name" v="Rygg" />
		<tag k="place" v="farm" />
		<tag k="ssr:stedsnr" v="919743" />
	</node>
	<node id="-464587" lat="60.8432319775" lon="6.46540111097">
		<tag k="name" v="Hyrt" />
		<tag k="place" v="hamlet" />
		<tag k="ssr:stedsnr" v="919545" />
	</node>
	<node id="-462537" lat="60.6696694446" lon="6.75311389113">
		<tag k="historic" v="shieling" />
		<tag k="name" v="Heggjastølen" />
		<tag k="place" v="locality" />
		<tag k="ssr:stedsnr" v="492992" />
	</node>
	<node id="-464583" lat="60.7970666712" lon="6.54774445312">
		<tag k="name" v="Vinjahagen" />
		<tag k="place" v="farm" />
		<tag k="ssr:stedsnr" v="918995" />
	</node>
	<node id="-464580" lat="60.78868333" lon="6.62219443585">
		<tag k="historic" v="shieling" />
		<tag k="name" v="Vetlestølen" />
		<tag k="place" v="locality" />
		<tag k="ssr:stedsnr" v="918806" />
	</node>
	<node id="-462530" lat="60.570508334" lon="6.61013056452">
		<tag k="name" v="Bulkuhagen" />
		<tag k="place" v="farm" />
		<tag k="ssr:stedsnr" v="492816" />
	</node>
	<node id="-460481" lat="60.6465666659" lon="6.50673332696">
		<tag k="name" v="Hylleshagen" />
		<tag k="place" v="farm" />
		<tag k="ssr:stedsnr" v="409457" />
	</node>
	<node id="-464576" lat="60.8813861069" lon="6.34042500016">
		<tag k="historic" v="shieling" />
		<tag k="name" v="Skjervheims-Grøndalen" />
		<tag k="place" v="locality" />
		<tag k="ssr:stedsnr" v="918634" />
	</node>
	<node id="-462527" lat="60.6234016601" lon="6.48750194653">
		<tag k="fixme" v="consider place=hamlet" />
		<tag k="name" v="Vike" />
		<tag k="place" v="farm" />
		<tag k="ssr:stedsnr" v="492723" />
	</node>
	<node id="-462526" lat="60.623352099" lon="6.38058078556">
		<tag k="fixme" v="consider place=hamlet" />
		<tag k="name" v="Lydvo" />
		<tag k="place" v="farm" />
		<tag k="ssr:stedsnr" v="492721" />
	</node>
	<node id="-464573" lat="60.8165678153" lon="6.46959047144">
		<tag k="fixme" v="consider place=hamlet" />
		<tag k="name" v="Nesheim" />
		<tag k="place" v="farm" />
		<tag k="ssr:stedsnr" v="918568" />
	</node>
	<node id="-462524" lat="60.6434138875" lon="6.57556666673">
		<tag k="historic" v="shieling" />
		<tag k="name" v="Horald" />
		<tag k="place" v="locality" />
		<tag k="ssr:stedsnr" v="492692" />
	</node>
	<node id="-464571" lat="60.8279101211" lon="6.44004600503">
		<tag k="fixme" v="consider place=hamlet" />
		<tag k="name" v="Tveito" />
		<tag k="place" v="farm" />
		<tag k="ssr:stedsnr" v="918557" />
	</node>
	<node id="-464570" lat="60.6715750039" lon="6.81435278275">
		<tag k="historic" v="shieling" />
		<tag k="name" v="Nordheimsstølen" />
		<tag k="place" v="locality" />
		<tag k="ssr:stedsnr" v="917995" />
	</node>
	<node id="-462521" lat="60.6328060057" lon="6.23198916451">
		<tag k="fixme" v="consider place=hamlet" />
		<tag k="name" v="Seim" />
		<tag k="place" v="farm" />
		<tag k="ssr:stedsnr" v="492671" />
	</node>
	<node id="-464568" lat="60.6441222262" lon="6.60229999593">
		<tag k="historic" v="shieling" />
		<tag k="name" v="Nyestølen" />
		<tag k="place" v="locality" />
		<tag k="ssr:stedsnr" v="917979" />
	</node>
	<node id="-464567" lat="60.6821888396" lon="6.62239360045">
		<tag k="fixme" v="consider place=hamlet" />
		<tag k="name" v="Bø" />
		<tag k="place" v="farm" />
		<tag k="ssr:stedsnr" v="917930" />
	</node>
	<node id="-464566" lat="60.6163032558" lon="6.31451817605">
		<tag k="fixme" v="consider place=hamlet" />
		<tag k="name" v="Dagestad" />
		<tag k="place" v="farm" />
		<tag k="ssr:stedsnr" v="917714" />
	</node>
	<node id="-464565" lat="60.6414362003" lon="6.48824050699">
		<tag k="name" v="Bø" />
		<tag k="place" v="farm" />
		<tag k="ssr:stedsnr" v="917684" />
	</node>
	<node id="-460787" lat="60.6105735493" lon="6.59111536283">
		<tag k="fixme" v="consider place=hamlet" />
		<tag k="name" v="Tveiti" />
		<tag k="place" v="farm" />
		<tag k="ssr:stedsnr" v="7622" />
	</node>
	<node id="-464563" lat="60.5927416647" lon="6.37208333101">
		<tag k="historic" v="shieling" />
		<tag k="name" v="Smågiljane" />
		<tag k="place" v="locality" />
		<tag k="ssr:stedsnr" v="917633" />
	</node>
	<node id="-464562" lat="60.6008446007" lon="6.4317180309">
		<tag k="fixme" v="consider place=hamlet" />
		<tag k="name" v="Tveito" />
		<tag k="place" v="farm" />
		<tag k="ssr:stedsnr" v="917615" />
	</node>
	<node id="-464561" lat="60.616268641" lon="6.52790736996">
		<tag k="fixme" v="consider place=hamlet" />
		<tag k="name" v="Bjørgo" />
		<tag k="place" v="farm" />
		<tag k="ssr:stedsnr" v="917609" />
	</node>
	<node id="-464559" lat="60.613280199" lon="6.58026810037">
		<tag k="fixme" v="consider place=hamlet" />
		<tag k="name" v="Hildestveiti" />
		<tag k="place" v="farm" />
		<tag k="ssr:stedsnr" v="917603" />
	</node>
	<node id="-464557" lat="60.5575143753" lon="6.58207419928">
		<tag k="fixme" v="consider place=hamlet" />
		<tag k="name" v="Grønlii" />
		<tag k="place" v="farm" />
		<tag k="ssr:stedsnr" v="917585" />
	</node>
	<node id="-464553" lat="60.5558361081" lon="6.2787027767">
		<tag k="name" v="Grøno" />
		<tag k="place" v="isolated_dwelling" />
		<tag k="ssr:stedsnr" v="917566" />
	</node>
	<node id="-464551" lat="60.578894441" lon="6.539291667">
		<tag k="historic" v="shieling" />
		<tag k="name" v="Håset" />
		<tag k="place" v="locality" />
		<tag k="ssr:stedsnr" v="917555" />
	</node>
	<node id="-464548" lat="60.6977999979" lon="6.69075833035">
		<tag k="historic" v="shieling" />
		<tag k="name" v="Vatnaset" />
		<tag k="place" v="locality" />
		<tag k="ssr:stedsnr" v="917527" />
	</node>
	<node id="-461083" lat="60.6001842891" lon="6.35040407727">
		<tag k="fixme" v="consider place=hamlet" />
		<tag k="name" v="Ullestadteigen" />
		<tag k="place" v="farm" />
		<tag k="ssr:stedsnr" v="68654" />
	</node>
	<node id="-460446" lat="60.672019442" lon="6.76488888723">
		<tag k="name" v="Vetla Hegg" />
		<tag k="place" v="farm" />
		<tag k="ssr:stedsnr" v="391356" />
	</node>
	<node id="-464541" lat="60.6559666689" lon="6.42660833988">
		<tag k="name" v="Bavallen" />
		<tag k="place" v="farm" />
		<tag k="ssr:stedsnr" v="917232" />
	</node>
	<node id="-464539" lat="60.6395593493" lon="6.24742041676">
		<tag k="fixme" v="consider place=hamlet" />
		<tag k="name" v="Berge" />
		<tag k="place" v="farm" />
		<tag k="ssr:stedsnr" v="917225" />
	</node>
	<node id="-464538" lat="60.6414780138" lon="6.23239894835">
		<tag k="fixme" v="consider place=hamlet" />
		<tag k="name" v="Vestrheim" />
		<tag k="place" v="farm" />
		<tag k="ssr:stedsnr" v="917219" />
	</node>
	<node id="-462488" lat="60.6683555541" lon="6.34848333292">
		<tag k="historic" v="shieling" />
		<tag k="name" v="Dale" />
		<tag k="place" v="locality" />
		<tag k="ssr:stedsnr" v="492273" />
	</node>
	<node id="-462487" lat="60.6615444474" lon="6.54566944357">
		<tag k="fixme" v="consider place=hamlet" />
		<tag k="name" v="Selheim" />
		<tag k="place" v="farm" />
		<tag k="ssr:stedsnr" v="492244" />
	</node>
	<node id="-464534" lat="60.6595940276" lon="5.99537419364">
		<tag k="fixme" v="consider place=hamlet" />
		<tag k="name" v="Rørgo" />
		<tag k="place" v="farm" />
		<tag k="ssr:stedsnr" v="917031" />
	</node>
	<node id="-462485" lat="60.6572861074" lon="6.56178888145">
		<tag k="historic" v="shieling" />
		<tag k="name" v="Gamle Meringastølen" />
		<tag k="place" v="locality" />
		<tag k="ssr:stedsnr" v="492222" />
	</node>
	<node id="-462483" lat="60.6529638878" lon="5.898608339">
		<tag k="name" v="Leitet" />
		<tag k="place" v="isolated_dwelling" />
		<tag k="ssr:stedsnr" v="492058" />
	</node>
	<node id="-462480" lat="60.5504305598" lon="6.19159165935">
		<tag k="alt_name" v="Sveindalen, nedre" />
		<tag k="historic" v="shieling" />
		<tag k="name" v="Nedre Sveindalen" />
		<tag k="place" v="locality" />
		<tag k="ssr:stedsnr" v="491818" />
	</node>
	<node id="-462479" lat="60.5202805551" lon="6.09184167412">
		<tag k="historic" v="shieling" />
		<tag k="name" v="Grønestad" />
		<tag k="place" v="locality" />
		<tag k="ssr:stedsnr" v="491783" />
	</node>
	<node id="-462475" lat="60.6944583327" lon="6.1060888896">
		<tag k="name" v="Fasteland" />
		<tag k="place" v="farm" />
		<tag k="ssr:stedsnr" v="491507" />
	</node>
	<node id="-462474" lat="60.6912087156" lon="6.11350352016">
		<tag k="fixme" v="consider place=hamlet" />
		<tag k="name" v="Luren" />
		<tag k="place" v="farm" />
		<tag k="ssr:stedsnr" v="491501" />
	</node>
	<node id="-460424" lat="60.6073826699" lon="6.38261752932">
		<tag k="fixme" v="consider place=hamlet" />
		<tag k="name" v="Glimme" />
		<tag k="place" v="farm" />
		<tag k="ssr:stedsnr" v="384874" />
	</node>
	<node id="-460396" lat="60.666333333" lon="6.15471666177">
		<tag k="historic" v="shieling" />
		<tag k="name" v="Nedre Skorset" />
		<tag k="place" v="locality" />
		<tag k="ssr:stedsnr" v="384711" />
	</node>
	<node id="-460419" lat="60.6725222247" lon="6.01488055581">
		<tag k="historic" v="shieling" />
		<tag k="name" v="Haugen" />
		<tag k="place" v="locality" />
		<tag k="ssr:stedsnr" v="384805" />
	</node>
	<node id="-464513" lat="60.7348702428" lon="6.1423576789">
		<tag k="fixme" v="consider place=hamlet" />
		<tag k="name" v="Brekkhus" />
		<tag k="place" v="farm" />
		<tag k="ssr:stedsnr" v="916400" />
	</node>
	<node id="-462463" lat="60.6734611082" lon="6.33156111058">
		<tag k="historic" v="shieling" />
		<tag k="name" v="Hellu" />
		<tag k="place" v="locality" />
		<tag k="ssr:stedsnr" v="491317" />
	</node>
	<node id="-464510" lat="60.7480027744" lon="6.56387778556">
		<tag k="historic" v="shieling" />
		<tag k="name" v="Langedalsstølen" />
		<tag k="place" v="locality" />
		<tag k="ssr:stedsnr" v="916385" />
	</node>
	<node id="-464509" lat="60.7463249986" lon="6.51509999946">
		<tag k="historic" v="shieling" />
		<tag k="name" v="Leidalsstølen" />
		<tag k="place" v="locality" />
		<tag k="ssr:stedsnr" v="916384" />
	</node>
	<node id="-464506" lat="60.698689048" lon="6.57631315691">
		<tag k="fixme" v="consider place=hamlet" />
		<tag k="name" v="Kvitno" />
		<tag k="place" v="farm" />
		<tag k="ssr:stedsnr" v="916339" />
	</node>
	<node id="-464505" lat="60.6859861072" lon="6.44859166309">
		<tag k="historic" v="shieling" />
		<tag k="name" v="Rot" />
		<tag k="place" v="locality" />
		<tag k="ssr:stedsnr" v="916330" />
	</node>
	<node id="-464504" lat="60.6747249797" lon="6.44835214682">
		<tag k="name" v="Nordrekvål" />
		<tag k="place" v="farm" />
		<tag k="ssr:stedsnr" v="916326" />
	</node>
	<node id="-464503" lat="60.6566305523" lon="6.43241666991">
		<tag k="fixme" v="consider place=hamlet" />
		<tag k="name" v="Borstrondi" />
		<tag k="place" v="village" />
		<tag k="ssr:stedsnr" v="916297" />
	</node>
	<node id="-464502" lat="60.6669027821" lon="6.57977222851">
		<tag k="historic" v="shieling" />
		<tag k="name" v="Nye Meringastølen" />
		<tag k="place" v="locality" />
		<tag k="ssr:stedsnr" v="916283" />
	</node>
	<node id="-462217" lat="60.6832676722" lon="6.73809363551">
		<tag k="fixme" v="consider place=hamlet" />
		<tag k="name" v="Øvsthus" />
		<tag k="place" v="farm" />
		<tag k="ssr:stedsnr" v="432941" />
	</node>
	<node id="-462450" lat="60.6381749987" lon="6.1738000071">
		<tag k="name" v="Saghaugen" />
		<tag k="place" v="farm" />
		<tag k="ssr:stedsnr" v="491165" />
	</node>
	<node id="-464497" lat="60.6225444433" lon="6.0189083266">
		<tag k="historic" v="shieling" />
		<tag k="name" v="Vetlevikstølen" />
		<tag k="place" v="locality" />
		<tag k="ssr:stedsnr" v="916189" />
	</node>
	<node id="-464496" lat="60.6230388872" lon="5.98333889658">
		<tag k="name" v="Tuftene" />
		<tag k="place" v="farm" />
		<tag k="ssr:stedsnr" v="916185" />
	</node>
	<node id="-460397" lat="60.6654805596" lon="6.1082222278">
		<tag k="historic" v="shieling" />
		<tag k="name" v="Mjølstølen" />
		<tag k="place" v="locality" />
		<tag k="ssr:stedsnr" v="384721" />
	</node>
	<node id="-464492" lat="60.6407101837" lon="6.03732593022">
		<tag k="fixme" v="consider place=hamlet" />
		<tag k="name" v="Storevikane" />
		<tag k="place" v="farm" />
		<tag k="ssr:stedsnr" v="916125" />
	</node>
	<node id="-462438" lat="60.6733739095" lon="6.08185025079">
		<tag k="fixme" v="consider place=hamlet" />
		<tag k="name" v="Brunborg" />
		<tag k="place" v="farm" />
		<tag k="ssr:stedsnr" v="491024" />
	</node>
	<node id="-460389" lat="60.8030416634" lon="6.58749444861">
		<tag k="historic" v="shieling" />
		<tag k="name" v="Uresåsen" />
		<tag k="place" v="locality" />
		<tag k="ssr:stedsnr" v="384262" />
	</node>
	<node id="-461398" lat="60.6890333294" lon="6.84198054996">
		<tag k="historic" v="shieling" />
		<tag k="name" v="Urlandsstølen" />
		<tag k="place" v="locality" />
		<tag k="ssr:stedsnr" v="128926" />
	</node>
	<node id="-464477" lat="60.6848833371" lon="6.67637499545">
		<tag k="name" v="Øyjordi" />
		<tag k="place" v="locality" />
		<tag k="ssr:stedsnr" v="874494" />
	</node>
	<node id="-461807" lat="60.6681194424" lon="6.66326388959">
		<tag k="historic" v="shieling" />
		<tag k="name" v="Toppen" />
		<tag k="place" v="locality" />
		<tag k="ssr:stedsnr" v="203657" />
	</node>
	<node id="-462426" lat="60.6157851121" lon="6.5176701874">
		<tag k="name" v="Oppheim" />
		<tag k="place" v="farm" />
		<tag k="ssr:stedsnr" v="470957" />
	</node>
	<node id="-461411" lat="60.9257527797" lon="6.74622500513">
		<tag k="historic" v="shieling" />
		<tag k="name" v="Kåstein" />
		<tag k="place" v="locality" />
		<tag k="ssr:stedsnr" v="129855" />
	</node>
	<node id="-460366" lat="60.7937946453" lon="6.53079408649">
		<tag k="name" v="Litletun" />
		<tag k="place" v="farm" />
		<tag k="ssr:stedsnr" v="372989" />
	</node>
	<node id="-460365" lat="60.7930976981" lon="6.51718868765">
		<tag k="fixme" v="consider place=hamlet" />
		<tag k="name" v="Nedre Vinjo" />
		<tag k="place" v="farm" />
		<tag k="ssr:stedsnr" v="372986" />
	</node>
	<node id="-460364" lat="60.7817305548" lon="6.49073056021">
		<tag k="name" v="Sundveshaugen" />
		<tag k="place" v="farm" />
		<tag k="ssr:stedsnr" v="372979" />
	</node>
	<node id="-460362" lat="60.7618432244" lon="6.47738311766">
		<tag k="fixme" v="consider place=hamlet" />
		<tag k="name" v="Rødno" />
		<tag k="place" v="farm" />
		<tag k="ssr:stedsnr" v="372959" />
	</node>
	<node id="-462408" lat="60.5558555566" lon="6.46505833869">
		<tag k="historic" v="shieling" />
		<tag k="name" v="Vælestølen" />
		<tag k="place" v="locality" />
		<tag k="ssr:stedsnr" v="470518" />
	</node>
	<node id="-464453" lat="60.5960664591" lon="6.45239659377">
		<tag k="name" v="Himle" />
		<tag k="place" v="farm" />
		<tag k="ssr:stedsnr" v="870806" />
	</node>
	<node id="-464452" lat="60.6423638879" lon="6.42774999255">
		<tag k="name" v="Ringheim" />
		<tag k="place" v="farm" />
		<tag k="ssr:stedsnr" v="870793" />
	</node>
	<node id="-462403" lat="60.6753750018" lon="6.49614166765">
		<tag k="fixme" v="consider place=hamlet" />
		<tag k="name" v="Almeland" />
		<tag k="place" v="farm" />
		<tag k="ssr:stedsnr" v="470458" />
	</node>
	<node id="-464450" lat="60.6182543247" lon="6.5442436303">
		<tag k="name" v="Litle Stuvarjo" />
		<tag k="place" v="farm" />
		<tag k="ssr:stedsnr" v="870787" />
	</node>
	<node id="-464449" lat="60.666386112" lon="6.43257222512">
		<tag k="name" v="Nedre Flatekvål" />
		<tag k="place" v="farm" />
		<tag k="ssr:stedsnr" v="870760" />
	</node>
	<node id="-460350" lat="60.7967638877" lon="6.62977499878">
		<tag k="name" v="Sæli" />
		<tag k="place" v="farm" />
		<tag k="ssr:stedsnr" v="372798" />
	</node>
	<node id="-460347" lat="60.9002055591" lon="6.46076943535">
		<tag k="historic" v="shieling" />
		<tag k="name" v="Finnbuene" />
		<tag k="place" v="locality" />
		<tag k="ssr:stedsnr" v="372631" />
	</node>
	<node id="-460345" lat="60.9205194468" lon="6.49541111373">
		<tag k="alt_name" v="Grungen, vetle" />
		<tag k="historic" v="shieling" />
		<tag k="name" v="Vetle Grungen" />
		<tag k="place" v="locality" />
		<tag k="ssr:stedsnr" v="372626" />
	</node>
	<node id="-460342" lat="60.8992249959" lon="6.50078888077">
		<tag k="historic" v="shieling" />
		<tag k="name" v="Bjørndalen" />
		<tag k="place" v="locality" />
		<tag k="ssr:stedsnr" v="372573" />
	</node>
	<node id="-462387" lat="60.6668277745" lon="6.52042500879">
		<tag k="name" v="Dokkatræet" />
		<tag k="place" v="farm" />
		<tag k="ssr:stedsnr" v="470289" />
	</node>
	<node id="-464432" lat="60.6474472214" lon="5.97393055422">
		<tag k="fixme" v="consider place=hamlet" />
		<tag k="name" v="Rongo" />
		<tag k="place" v="farm" />
		<tag k="ssr:stedsnr" v="870663" />
	</node>
	<node id="-460040" lat="60.7637777759" lon="6.49378889392">
		<tag k="name" v="Skjelviki" />
		<tag k="place" v="farm" />
		<tag k="ssr:stedsnr" v="312954" />
	</node>
	<node id="-464429" lat="60.6548722249" lon="5.95211666953">
		<tag k="historic" v="shieling" />
		<tag k="name" v="Lessingen" />
		<tag k="place" v="locality" />
		<tag k="ssr:stedsnr" v="870643" />
	</node>
	<node id="-460330" lat="60.6834749974" lon="6.64956944203">
		<tag k="historic" v="shieling" />
		<tag k="name" v="Mon" />
		<tag k="place" v="locality" />
		<tag k="ssr:stedsnr" v="371950" />
	</node>
	<node id="-460327" lat="60.7329555547" lon="6.59418611873">
		<tag k="historic" v="shieling" />
		<tag k="name" v="Remlo" />
		<tag k="place" v="locality" />
		<tag k="ssr:stedsnr" v="371884" />
	</node>
	<node id="-460326" lat="60.6202631833" lon="6.4391073323">
		<tag k="fixme" v="consider place=hamlet" />
		<tag k="name" v="Ronve" />
		<tag k="place" v="farm" />
		<tag k="ssr:stedsnr" v="371751" />
	</node>
	<node id="-464421" lat="60.8482333361" lon="6.46610833114">
		<tag k="historic" v="shieling" />
		<tag k="name" v="Troi" />
		<tag k="place" v="locality" />
		<tag k="ssr:stedsnr" v="870364" />
	</node>
	<node id="-464420" lat="60.8451916689" lon="6.48308056201">
		<tag k="historic" v="shieling" />
		<tag k="name" v="Øyestøtølane" />
		<tag k="place" v="locality" />
		<tag k="ssr:stedsnr" v="870362" />
	</node>
	<node id="-460323" lat="60.5843474341" lon="6.44427097022">
		<tag k="fixme" v="consider place=hamlet" />
		<tag k="name" v="Tillung" />
		<tag k="place" v="farm" />
		<tag k="ssr:stedsnr" v="371663" />
	</node>
	<node id="-460322" lat="60.594266665" lon="6.53163611253">
		<tag k="historic" v="shieling" />
		<tag k="name" v="Liaset" />
		<tag k="place" v="locality" />
		<tag k="ssr:stedsnr" v="371656" />
	</node>
	<node id="-464417" lat="60.8020222251" lon="6.4165083421">
		<tag k="historic" v="shieling" />
		<tag k="name" v="Reppane" />
		<tag k="place" v="locality" />
		<tag k="ssr:stedsnr" v="870255" />
	</node>
	<node id="-464416" lat="60.7788472194" lon="6.47248612042">
		<tag k="fixme" v="consider place=hamlet" />
		<tag k="name" v="Vetla Høn" />
		<tag k="place" v="farm" />
		<tag k="ssr:stedsnr" v="870256" />
	</node>
	<node id="-462361" lat="60.6110444404" lon="6.43343889198">
		<tag k="name" v="Midtre Rokne" />
		<tag k="place" v="farm" />
		<tag k="ssr:stedsnr" v="469993" />
	</node>
	<node id="-464405" lat="60.7917111113" lon="6.61049722104">
		<tag k="name" v="Haugen" />
		<tag k="place" v="farm" />
		<tag k="ssr:stedsnr" v="870170" />
	</node>
	<node id="-464404" lat="60.7984388856" lon="6.5615222174">
		<tag k="fixme" v="consider place=hamlet" />
		<tag k="name" v="Bidneshovden" />
		<tag k="place" v="farm" />
		<tag k="ssr:stedsnr" v="870159" />
	</node>
	<node id="-462353" lat="60.7016944476" lon="6.89223887995">
		<tag k="name" v="Kårdal Pensjonat" />
		<tag k="ssr:stedsnr" v="469844" />
		<tag k="tourism" v="guest_house" />
	</node>
	<node id="-460304" lat="60.6248073464" lon="6.44192849592">
		<tag k="name" v="Haugo" />
		<tag k="place" v="hamlet" />
		<tag k="ssr:stedsnr" v="370737" />
	</node>
	<node id="-460303" lat="60.6318305577" lon="6.45069999815">
		<tag k="fixme" v="consider place=hamlet" />
		<tag k="name" v="Bryn" />
		<tag k="place" v="farm" />
		<tag k="ssr:stedsnr" v="370735" />
	</node>
	<node id="-460302" lat="60.6313527815" lon="6.46571110372">
		<tag k="name" v="Nedre Li" />
		<tag k="place" v="farm" />
		<tag k="ssr:stedsnr" v="370733" />
	</node>
	<node id="-462348" lat="60.6278361145" lon="6.41768611835">
		<tag k="name" v="Tinghuset" />
		<tag k="place" v="square" />
		<tag k="ssr:stedsnr" v="470729" />
	</node>
	<node id="-460299" lat="60.6431138907" lon="6.55612777222">
		<tag k="name" v="Sollii" />
		<tag k="place" v="farm" />
		<tag k="ssr:stedsnr" v="370716" />
	</node>
	<node id="-460298" lat="60.6422933492" lon="6.48211334197">
		<tag k="fixme" v="consider place=hamlet" />
		<tag k="name" v="Endeve" />
		<tag k="place" v="farm" />
		<tag k="ssr:stedsnr" v="370712" />
	</node>
	<node id="-460297" lat="60.6431745295" lon="6.49636561858">
		<tag k="fixme" v="consider place=hamlet" />
		<tag k="name" v="Hylle" />
		<tag k="place" v="farm" />
		<tag k="ssr:stedsnr" v="370708" />
	</node>
	<node id="-462344" lat="60.9008188822" lon="6.48587275307">
		<tag k="fixme" v="consider place=hamlet" />
		<tag k="name" v="Kvassdalen" />
		<tag k="place" v="farm" />
		<tag k="ssr:stedsnr" v="469069" />
	</node>
	<node id="-464391" lat="60.794243519" lon="6.57455045611">
		<tag k="name" v="Oppheim" />
		<tag k="place" v="hamlet" />
		<tag k="ssr:stedsnr" v="858987" />
	</node>
	<node id="-464390" lat="60.7732666653" lon="6.47392499249">
		<tag k="name" v="Brattholehagen" />
		<tag k="place" v="farm" />
		<tag k="ssr:stedsnr" v="858959" />
	</node>
	<node id="-464389" lat="60.7635694477" lon="6.41423889186">
		<tag k="historic" v="shieling" />
		<tag k="name" v="Fjelistølen" />
		<tag k="place" v="locality" />
		<tag k="ssr:stedsnr" v="858951" />
	</node>
	<node id="-462339" lat="60.6847944401" lon="6.67567776947">
		<tag k="name" v="Skiple" />
		<tag k="place" v="farm" />
		<tag k="ssr:stedsnr" v="450585" />
	</node>
	<node id="-464385" lat="60.7585361094" lon="6.58108888397">
		<tag k="historic" v="shieling" />
		<tag k="name" v="Groastølen" />
		<tag k="place" v="locality" />
		<tag k="ssr:stedsnr" v="858929" />
	</node>
	<node id="-462334" lat="60.6420694417" lon="6.42784444866">
		<tag k="name" v="Nedre Ringheim" />
		<tag k="place" v="farm" />
		<tag k="ssr:stedsnr" v="446791" />
	</node>
	<node id="-464381" lat="60.8362638884" lon="6.67989723116">
		<tag k="name" v="Stalheim" />
		<tag k="place" v="hamlet" />
		<tag k="ssr:stedsnr" v="858830" />
	</node>
	<node id="-464380" lat="60.8415277769" lon="6.69729999672">
		<tag k="name" v="Sivlesøyni" />
		<tag k="place" v="farm" />
		<tag k="ssr:stedsnr" v="858823" />
	</node>
	<node id="-462330" lat="60.6802175578" lon="6.58882854783">
		<tag k="fixme" v="consider place=hamlet" />
		<tag k="name" v="Store Grove" />
		<tag k="place" v="farm" />
		<tag k="ssr:stedsnr" v="446606" />
	</node>
	<node id="-460279" lat="60.7036583315" lon="6.49039444244">
		<tag k="fixme" v="consider place=hamlet" />
		<tag k="name" v="Reppen" />
		<tag k="place" v="village" />
		<tag k="ssr:stedsnr" v="370387" />
	</node>
	<node id="-464372" lat="60.841452774" lon="6.42162777734">
		<tag k="historic" v="shieling" />
		<tag k="name" v="Skjervheimsstølen" />
		<tag k="place" v="locality" />
		<tag k="ssr:stedsnr" v="858556" />
	</node>
	<node id="-460273" lat="60.6789027739" lon="6.51649444479">
		<tag k="name" v="Øvre Lemme" />
		<tag k="place" v="farm" />
		<tag k="ssr:stedsnr" v="370344" />
	</node>
	<node id="-460272" lat="60.6555416711" lon="6.30220000562">
		<tag k="historic" v="shieling" />
		<tag k="name" v="Mjølkråni" />
		<tag k="place" v="locality" />
		<tag k="ssr:stedsnr" v="370326" />
	</node>
	<node id="-460712" lat="60.6163333311" lon="6.1379833267">
		<tag k="name" v="Køyto" />
		<tag k="place" v="locality" />
		<tag k="ssr:stedsnr" v="6167" />
	</node>
	<node id="-464366" lat="60.8290861154" lon="6.57436388904">
		<tag k="historic" v="shieling" />
		<tag k="name" v="Turtene" />
		<tag k="place" v="locality" />
		<tag k="ssr:stedsnr" v="858530" />
	</node>
	<node id="-462077" lat="60.6915998727" lon="6.46386535392">
		<tag k="name" v="Ytre Staup" />
		<tag k="place" v="farm" />
		<tag k="ssr:stedsnr" v="263229" />
	</node>
	<node id="-460268" lat="60.5965249968" lon="5.99956944306">
		<tag k="historic" v="shieling" />
		<tag k="name" v="Leinaselet" />
		<tag k="place" v="locality" />
		<tag k="ssr:stedsnr" v="370277" />
	</node>
	<node id="-464362" lat="60.6630999988" lon="6.683213881">
		<tag k="historic" v="shieling" />
		<tag k="name" v="Bjørnset" />
		<tag k="place" v="locality" />
		<tag k="ssr:stedsnr" v="858000" />
	</node>
	<node id="-460265" lat="60.6096249986" lon="5.98718611578">
		<tag k="name" v="Hola" />
		<tag k="place" v="farm" />
		<tag k="ssr:stedsnr" v="370256" />
	</node>
	<node id="-464359" lat="60.6564305534" lon="6.69926667494">
		<tag k="historic" v="shieling" />
		<tag k="name" v="Horndalen" />
		<tag k="place" v="locality" />
		<tag k="ssr:stedsnr" v="857972" />
	</node>
	<node id="-462310" lat="60.5172799228" lon="6.48069890091">
		<tag k="fixme" v="consider place=hamlet" />
		<tag k="name" v="Nedre Rong" />
		<tag k="place" v="farm" />
		<tag k="ssr:stedsnr" v="446029" />
	</node>
	<node id="-464357" lat="60.6870388923" lon="6.61192500537">
		<tag k="historic" v="shieling" />
		<tag k="name" v="Håset" />
		<tag k="place" v="locality" />
		<tag k="ssr:stedsnr" v="857956" />
	</node>
	<node id="-464353" lat="60.6798050763" lon="6.62810323498">
		<tag k="fixme" v="consider place=hamlet" />
		<tag k="name" v="Øyafloten" />
		<tag k="place" v="farm" />
		<tag k="ssr:stedsnr" v="857933" />
	</node>
	<node id="-464352" lat="60.6941549409" lon="6.86301714709">
		<tag k="fixme" v="consider place=hamlet" />
		<tag k="name" v="Hellene" />
		<tag k="place" v="farm" />
		<tag k="ssr:stedsnr" v="857930" />
	</node>
	<node id="-464351" lat="60.5883583335" lon="6.59021945149">
		<tag k="historic" v="shieling" />
		<tag k="name" v="Vindberg" />
		<tag k="place" v="locality" />
		<tag k="ssr:stedsnr" v="857682" />
	</node>
	<node id="-460254" lat="60.6386724928" lon="6.19179224558">
		<tag k="fixme" v="consider place=hamlet" />
		<tag k="name" v="Geitle" />
		<tag k="place" v="farm" />
		<tag k="ssr:stedsnr" v="370139" />
	</node>
	<node id="-462298" lat="60.6084248068" lon="6.5524644435">
		<tag k="name" v="Øvre Istad" />
		<tag k="place" v="farm" />
		<tag k="ssr:stedsnr" v="445820" />
	</node>
	<node id="-460249" lat="60.6471531841" lon="5.98813854827">
		<tag k="name" v="Horveid" />
		<tag k="place" v="hamlet" />
		<tag k="ssr:stedsnr" v="370089" />
	</node>
	<node id="-462296" lat="60.6110444404" lon="6.43343889198">
		<tag k="name" v="Midtre Rokne" />
		<tag k="place" v="farm" />
		<tag k="ssr:stedsnr" v="445801" />
	</node>
	<node id="-462295" lat="60.6232563925" lon="6.43554969617">
		<tag k="fixme" v="consider place=hamlet" />
		<tag k="name" v="Indre Nyre" />
		<tag k="place" v="farm" />
		<tag k="ssr:stedsnr" v="445800" />
	</node>
	<node id="-460245" lat="60.6801545707" lon="6.11634602178">
		<tag k="fixme" v="consider place=hamlet" />
		<tag k="name" v="Akslebjørg" />
		<tag k="place" v="farm" />
		<tag k="ssr:stedsnr" v="370036" />
	</node>
	<node id="-460244" lat="60.6792916675" lon="6.19179166697">
		<tag k="historic" v="shieling" />
		<tag k="name" v="Kvitlastølen" />
		<tag k="place" v="locality" />
		<tag k="ssr:stedsnr" v="370021" />
	</node>
	<node id="-464337" lat="60.5586527773" lon="6.14383332669">
		<tag k="historic" v="shieling" />
		<tag k="name" v="Floviki" />
		<tag k="place" v="locality" />
		<tag k="ssr:stedsnr" v="856881" />
	</node>
	<node id="-464335" lat="60.5442999995" lon="6.15436666598">
		<tag k="historic" v="shieling" />
		<tag k="name" v="Øyaset" />
		<tag k="place" v="locality" />
		<tag k="ssr:stedsnr" v="856841" />
	</node>
	<node id="-464331" lat="60.6057111102" lon="6.25736389122">
		<tag k="historic" v="shieling" />
		<tag k="name" v="Vetlasauesstølen" />
		<tag k="place" v="locality" />
		<tag k="ssr:stedsnr" v="856762" />
	</node>
	<node id="-464329" lat="60.6184462088" lon="6.29122686066">
		<tag k="fixme" v="consider place=hamlet" />
		<tag k="name" v="Mosafinn" />
		<tag k="place" v="farm" />
		<tag k="ssr:stedsnr" v="856737" />
	</node>
	<node id="-464328" lat="60.6433471424" lon="6.50140030487">
		<tag k="name" v="Ygre" />
		<tag k="place" v="farm" />
		<tag k="ssr:stedsnr" v="856717" />
	</node>
	<node id="-464327" lat="60.6403122909" lon="6.47147122305">
		<tag k="fixme" v="consider place=hamlet" />
		<tag k="name" v="Rykke" />
		<tag k="place" v="farm" />
		<tag k="ssr:stedsnr" v="856712" />
	</node>
	<node id="-460230" lat="60.8135848037" lon="6.49107316287">
		<tag k="historic" v="shieling" />
		<tag k="name" v="Ulvundsstølen" />
		<tag k="place" v="locality" />
		<tag k="ssr:stedsnr" v="349698" />
	</node>
	<node id="-464325" lat="60.6373556188" lon="6.22949061997">
		<tag k="fixme" v="consider place=hamlet" />
		<tag k="name" v="Eide" />
		<tag k="place" v="farm" />
		<tag k="ssr:stedsnr" v="856703" />
	</node>
	<node id="-464317" lat="60.7143277735" lon="6.65388055548">
		<tag k="historic" v="shieling" />
		<tag k="name" v="Jonsstølen" />
		<tag k="place" v="locality" />
		<tag k="ssr:stedsnr" v="856597" />
	</node>
	<node id="-462268" lat="60.5308444402" lon="6.47446666107">
		<tag k="historic" v="shieling" />
		<tag k="name" v="Nyestølen" />
		<tag k="place" v="locality" />
		<tag k="ssr:stedsnr" v="445208" />
	</node>
	<node id="-462262" lat="60.7903527743" lon="6.62615277684">
		<tag k="historic" v="shieling" />
		<tag k="name" v="Furehaugen" />
		<tag k="place" v="locality" />
		<tag k="ssr:stedsnr" v="445150" />
	</node>
	<node id="-461385" lat="60.5643327451" lon="6.45285037934">
		<tag k="fixme" v="consider place=hamlet" />
		<tag k="name" v="Tesdalen" />
		<tag k="place" v="farm" />
		<tag k="ssr:stedsnr" v="128574" />
	</node>
	<node id="-460209" lat="60.9078999962" lon="6.75453612048">
		<tag k="name" v="Svendo" />
		<tag k="place" v="farm" />
		<tag k="ssr:stedsnr" v="349012" />
	</node>
	<node id="-464304" lat="60.7294138882" lon="6.52300832785">
		<tag k="historic" v="shieling" />
		<tag k="name" v="Gilset" />
		<tag k="place" v="locality" />
		<tag k="ssr:stedsnr" v="856394" />
	</node>
	<node id="-464303" lat="60.697727776" lon="6.26202499199">
		<tag k="historic" v="shieling" />
		<tag k="name" v="Raudberget" />
		<tag k="place" v="locality" />
		<tag k="ssr:stedsnr" v="856375" />
	</node>
	<node id="-460206" lat="60.8181083301" lon="6.7073555557">
		<tag k="historic" v="shieling" />
		<tag k="name" v="Vårstølen" />
		<tag k="place" v="locality" />
		<tag k="ssr:stedsnr" v="348975" />
	</node>
	<node id="-464300" lat="60.7026749971" lon="6.52164165941">
		<tag k="historic" v="shieling" />
		<tag k="name" v="Liaset" />
		<tag k="place" v="locality" />
		<tag k="ssr:stedsnr" v="856355" />
	</node>
	<node id="-464299" lat="60.6889972231" lon="6.57573056259">
		<tag k="name" v="Gilborne" />
		<tag k="place" v="farm" />
		<tag k="ssr:stedsnr" v="856328" />
	</node>
	<node id="-464297" lat="60.6738750045" lon="6.50900555354">
		<tag k="fixme" v="consider place=hamlet" />
		<tag k="name" v="Nordheim" />
		<tag k="place" v="farm" />
		<tag k="ssr:stedsnr" v="856318" />
	</node>
	<node id="-462248" lat="60.7794361154" lon="6.45100832539">
		<tag k="name" v="Hagastølen" />
		<tag k="place" v="locality" />
		<tag k="ssr:stedsnr" v="433983" />
	</node>
	<node id="-464295" lat="60.6661082361" lon="6.43207521364">
		<tag k="fixme" v="consider place=hamlet" />
		<tag k="name" v="Flatekvål" />
		<tag k="place" v="farm" />
		<tag k="ssr:stedsnr" v="856309" />
	</node>
	<node id="-464294" lat="60.6577862294" lon="6.43759877455">
		<tag k="fixme" v="consider place=hamlet" />
		<tag k="name" v="Skulestad" />
		<tag k="place" v="farm" />
		<tag k="ssr:stedsnr" v="856290" />
	</node>
	<node id="-464293" lat="60.6462876518" lon="6.26518094241">
		<tag k="fixme" v="consider place=hamlet" />
		<tag k="name" v="Bergslia" />
		<tag k="place" v="farm" />
		<tag k="ssr:stedsnr" v="856284" />
	</node>
	<node id="-464292" lat="60.6466940513" lon="6.43137424456">
		<tag k="fixme" v="consider place=hamlet" />
		<tag k="name" v="Gjerde" />
		<tag k="place" v="farm" />
		<tag k="ssr:stedsnr" v="856264" />
	</node>
	<node id="-462243" lat="60.7802241075" lon="6.5729595552">
		<tag k="fixme" v="consider place=hamlet" />
		<tag k="name" v="Tjørnagard" />
		<tag k="place" v="farm" />
		<tag k="ssr:stedsnr" v="433957" />
	</node>
	<node id="-462242" lat="60.7516490786" lon="6.4988494547">
		<tag k="fixme" v="consider place=hamlet" />
		<tag k="name" v="Taulen" />
		<tag k="place" v="farm" />
		<tag k="ssr:stedsnr" v="433940" />
	</node>
	<node id="-464289" lat="60.5784999993" lon="6.21623334077">
		<tag k="historic" v="shieling" />
		<tag k="name" v="Flataøyni" />
		<tag k="place" v="locality" />
		<tag k="ssr:stedsnr" v="856240" />
	</node>
	<node id="-460192" lat="60.6154861093" lon="6.5894833367">
		<tag k="name" v="Budeiebakken" />
		<tag k="place" v="farm" />
		<tag k="ssr:stedsnr" v="348837" />
	</node>
	<node id="-462239" lat="60.9080611149" lon="6.75439166031">
		<tag k="historic" v="shieling" />
		<tag k="name" v="Sendo" />
		<tag k="place" v="locality" />
		<tag k="ssr:stedsnr" v="433848" />
	</node>
	<node id="-464285" lat="60.6264694451" lon="6.11643889572">
		<tag k="historic" v="shieling" />
		<tag k="name" v="Mykkeltveitstølen" />
		<tag k="place" v="locality" />
		<tag k="ssr:stedsnr" v="856194" />
	</node>
	<node id="-464282" lat="60.6161700493" lon="6.15268924093">
		<tag k="fixme" v="consider place=hamlet" />
		<tag k="name" v="Skjerveggi" />
		<tag k="place" v="farm" />
		<tag k="ssr:stedsnr" v="856168" />
	</node>
	<node id="-464279" lat="60.6228235196" lon="6.1708012728">
		<tag k="fixme" v="consider place=hamlet" />
		<tag k="name" v="Svanga" />
		<tag k="place" v="farm" />
		<tag k="ssr:stedsnr" v="856121" />
	</node>
	<node id="-464278" lat="60.640433331" lon="5.97215278157">
		<tag k="name" v="Strandi" />
		<tag k="place" v="farm" />
		<tag k="ssr:stedsnr" v="856119" />
	</node>
	<node id="-464276" lat="60.6379499994" lon="6.17312778609">
		<tag k="name" v="Geitle" />
		<tag k="place" v="farm" />
		<tag k="ssr:stedsnr" v="856104" />
	</node>
	<node id="-464275" lat="60.6351361093" lon="5.86801665873">
		<tag k="name" v="Hermundsdalsfeti" />
		<tag k="place" v="locality" />
		<tag k="ssr:stedsnr" v="856095" />
	</node>
	<node id="-462226" lat="60.8840250003" lon="6.65440278124">
		<tag k="historic" v="shieling" />
		<tag k="name" v="Ringheimsøyni" />
		<tag k="place" v="locality" />
		<tag k="ssr:stedsnr" v="433838" />
	</node>
	<node id="-464451" lat="60.6471138924" lon="6.49012500531">
		<tag k="name" v="Nedre Vinjo" />
		<tag k="place" v="farm" />
		<tag k="ssr:stedsnr" v="870788" />
	</node>
	<node id="-460176" lat="60.6879166686" lon="6.45736666102">
		<tag k="name" v="Blikberg" />
		<tag k="place" v="farm" />
		<tag k="ssr:stedsnr" v="348464" />
	</node>
	<node id="-462223" lat="60.6723861085" lon="6.64459167339">
		<tag k="historic" v="shieling" />
		<tag k="name" v="Nedrestølen" />
		<tag k="place" v="locality" />
		<tag k="ssr:stedsnr" v="432990" />
	</node>
	<node id="-462220" lat="60.6840166672" lon="6.68089722368">
		<tag k="name" v="Krikkane" />
		<tag k="place" v="farm" />
		<tag k="ssr:stedsnr" v="432961" />
	</node>
	<node id="-462219" lat="60.7027055539" lon="6.93718332477">
		<tag k="name" v="Mjølfjell ungdomsherberge" />
		<tag k="place" v="isolated_dwelling" />
		<tag k="ssr:stedsnr" v="432958" />
	</node>
	<node id="-464266" lat="60.4723166637" lon="6.40824999422">
		<tag k="name" v="Reinsdyrhytta" />
		<tag k="place" v="isolated_dwelling" />
		<tag k="ssr:stedsnr" v="855220" />
	</node>
	<node id="-460169" lat="60.6533833358" lon="6.41239722474">
		<tag k="aerialway" v="drag_lift" />
		<tag k="fixme" v="consider the other aerialway types" />
		<tag k="name" v="Bavallsheisen" />
		<tag k="ssr:stedsnr" v="348343" />
	</node>
	<node id="-462216" lat="60.677788893" lon="6.72712221691">
		<tag k="name" v="Moen" />
		<tag k="place" v="farm" />
		<tag k="ssr:stedsnr" v="432940" />
	</node>
	<node id="-462401" lat="60.6386722266" lon="6.41327778439">
		<tag k="name" v="Skjor" />
		<tag k="place" v="farm" />
		<tag k="ssr:stedsnr" v="470446" />
	</node>
	<node id="-460693" lat="60.6560228977" lon="6.18087980461">
		<tag k="fixme" v="consider place=hamlet" />
		<tag k="name" v="Kolle" />
		<tag k="place" v="farm" />
		<tag k="ssr:stedsnr" v="6063" />
	</node>
	<node id="-462204" lat="60.6184472192" lon="6.62972223063">
		<tag k="historic" v="shieling" />
		<tag k="name" v="Krakalii" />
		<tag k="place" v="locality" />
		<tag k="ssr:stedsnr" v="431914" />
	</node>
	<node id="-462203" lat="60.5613611135" lon="6.21286944212">
		<tag k="historic" v="shieling" />
		<tag k="name" v="Hornaberg" />
		<tag k="place" v="locality" />
		<tag k="ssr:stedsnr" v="431886" />
	</node>
	<node id="-462201" lat="60.6140686487" lon="6.329672693">
		<tag k="fixme" v="consider place=hamlet" />
		<tag k="name" v="Roe" />
		<tag k="place" v="farm" />
		<tag k="ssr:stedsnr" v="431756" />
	</node>
	<node id="-464247" lat="60.6440222237" lon="6.57933611913">
		<tag k="name" v="Liahytta" />
		<tag k="place" v="isolated_dwelling" />
		<tag k="ssr:stedsnr" v="835486" />
	</node>
	<node id="-462198" lat="60.6349512524" lon="6.31259454107">
		<tag k="name" v="Røte" />
		<tag k="place" v="hamlet" />
		<tag k="ssr:stedsnr" v="431718" />
	</node>
	<node id="-460009" lat="60.689825421" lon="6.83488671775">
		<tag k="fixme" v="consider place=hamlet" />
		<tag k="name" v="Allmenningen" />
		<tag k="place" v="farm" />
		<tag k="ssr:stedsnr" v="310929" />
	</node>
	<node id="-462196" lat="60.6484833352" lon="6.51841387972">
		<tag k="fixme" v="consider place=hamlet" />
		<tag k="name" v="Osgjerd" />
		<tag k="place" v="farm" />
		<tag k="ssr:stedsnr" v="431711" />
	</node>
	<node id="-460139" lat="60.5929780014" lon="6.47112284875">
		<tag k="fixme" v="consider place=hamlet" />
		<tag k="name" v="Nedre Herre" />
		<tag k="place" v="farm" />
		<tag k="ssr:stedsnr" v="325010" />
	</node>
	<node id="-460138" lat="60.5647061326" lon="6.46816590469">
		<tag k="fixme" v="consider place=hamlet" />
		<tag k="name" v="Nedre Kvitno" />
		<tag k="place" v="farm" />
		<tag k="ssr:stedsnr" v="325009" />
	</node>
	<node id="-464232" lat="60.8868916648" lon="6.64749722469">
		<tag k="name" v="Årmot" />
		<tag k="place" v="farm" />
		<tag k="ssr:stedsnr" v="835027" />
	</node>
	<node id="-462183" lat="60.7121999978" lon="5.95175833807">
		<tag k="historic" v="shieling" />
		<tag k="name" v="Norddalsstølen" />
		<tag k="place" v="locality" />
		<tag k="ssr:stedsnr" v="431468" />
	</node>
	<node id="-461371" lat="60.6277765602" lon="6.27807649234">
		<tag k="fixme" v="consider place=hamlet" />
		<tag k="name" v="Liland" />
		<tag k="place" v="farm" />
		<tag k="ssr:stedsnr" v="127745" />
	</node>
	<node id="-462173" lat="60.7238037366" lon="6.47582174534">
		<tag k="fixme" v="consider place=hamlet" />
		<tag k="name" v="Ytre Afdal" />
		<tag k="place" v="farm" />
		<tag k="ssr:stedsnr" v="431372" />
	</node>
	<node id="-461370" lat="60.6461999997" lon="6.58540277619">
		<tag k="historic" v="shieling" />
		<tag k="name" v="Øvraset" />
		<tag k="place" v="locality" />
		<tag k="ssr:stedsnr" v="127740" />
	</node>
	<node id="-460122" lat="60.6404083304" lon="6.47076665844">
		<tag k="name" v="Øvre Rykke" />
		<tag k="place" v="farm" />
		<tag k="ssr:stedsnr" v="324793" />
	</node>
	<node id="-464217" lat="60.6144055532" lon="6.55546110347">
		<tag k="name" v="Sigvorplassen" />
		<tag k="place" v="farm" />
		<tag k="ssr:stedsnr" v="834849" />
	</node>
	<node id="-461369" lat="60.6374189312" lon="6.25751403119">
		<tag k="fixme" v="consider place=hamlet" />
		<tag k="name" v="Væte" />
		<tag k="place" v="farm" />
		<tag k="ssr:stedsnr" v="127728" />
	</node>
	<node id="-462164" lat="60.6524111126" lon="6.42855833053">
		<tag k="fixme" v="consider place=hamlet" />
		<tag k="name" v="Trodo" />
		<tag k="place" v="farm" />
		<tag k="ssr:stedsnr" v="431298" />
	</node>
	<node id="-460115" lat="60.6651222261" lon="5.94198888701">
		<tag k="historic" v="shieling" />
		<tag k="name" v="Vetlestølen" />
		<tag k="place" v="locality" />
		<tag k="ssr:stedsnr" v="324650" />
	</node>
	<node id="-462162" lat="60.6503233514" lon="6.5194112507">
		<tag k="name" v="Grauo" />
		<tag k="place" v="farm" />
		<tag k="ssr:stedsnr" v="431280" />
	</node>
	<node id="-464209" lat="60.6977166631" lon="6.49760277689">
		<tag k="historic" v="shieling" />
		<tag k="name" v="Vetlestølen" />
		<tag k="place" v="locality" />
		<tag k="ssr:stedsnr" v="834497" />
	</node>
	<node id="-462158" lat="60.6005416648" lon="6.01821666849">
		<tag k="historic" v="shieling" />
		<tag k="name" v="Vibotnen" />
		<tag k="place" v="locality" />
		<tag k="ssr:stedsnr" v="431259" />
	</node>
	<node id="-462157" lat="60.6325690105" lon="6.18806538577">
		<tag k="fixme" v="consider place=hamlet" />
		<tag k="name" v="Hosås" />
		<tag k="place" v="farm" />
		<tag k="ssr:stedsnr" v="431177" />
	</node>
	<node id="-460108" lat="60.6801049341" lon="6.58769590168">
		<tag k="name" v="Grove" />
		<tag k="place" v="hamlet" />
		<tag k="ssr:stedsnr" v="324598" />
	</node>
	<node id="-462050" lat="60.7588416698" lon="6.58066388133">
		<tag k="historic" v="shieling" />
		<tag k="name" v="Nyestølen" />
		<tag k="place" v="locality" />
		<tag k="ssr:stedsnr" v="251954" />
	</node>
	<node id="-462153" lat="60.6260644951" lon="6.20817387967">
		<tag k="fixme" v="consider place=hamlet" />
		<tag k="name" v="Nestås" />
		<tag k="place" v="farm" />
		<tag k="ssr:stedsnr" v="431155" />
	</node>
	<node id="-460104" lat="60.667206927" lon="6.53839470382">
		<tag k="name" v="Nedre Klyve" />
		<tag k="place" v="farm" />
		<tag k="ssr:stedsnr" v="324763" />
	</node>
	<node id="-462149" lat="60.6523394267" lon="6.14709618799">
		<tag k="fixme" v="consider place=hamlet" />
		<tag k="name" v="Muggås" />
		<tag k="place" v="farm" />
		<tag k="ssr:stedsnr" v="431100" />
	</node>
	<node id="-462146" lat="60.6450389849" lon="5.95872510203">
		<tag k="fixme" v="consider place=hamlet" />
		<tag k="name" v="Horvviki" />
		<tag k="place" v="farm" />
		<tag k="ssr:stedsnr" v="431085" />
	</node>
	<node id="-460096" lat="60.8232527755" lon="6.68658610331">
		<tag k="name" v="Slænslii" />
		<tag k="place" v="farm" />
		<tag k="ssr:stedsnr" v="324378" />
	</node>
	<node id="-460000" lat="60.6397876557" lon="6.32757111176">
		<tag k="fixme" v="consider place=hamlet" />
		<tag k="name" v="Gjerstad" />
		<tag k="place" v="farm" />
		<tag k="ssr:stedsnr" v="310703" />
	</node>
	<node id="-462142" lat="60.6708444476" lon="6.08613056054">
		<tag k="name" v="Forvene" />
		<tag k="place" v="farm" />
		<tag k="ssr:stedsnr" v="431015" />
	</node>
	<node id="-462140" lat="60.604585442" lon="6.53763139762">
		<tag k="fixme" v="consider place=hamlet" />
		<tag k="name" v="Mala" />
		<tag k="place" v="farm" />
		<tag k="ssr:stedsnr" v="432629" />
	</node>
	<node id="-464187" lat="60.8841777777" lon="6.72326388309">
		<tag k="name" v="Øyane" />
		<tag k="place" v="farm" />
		<tag k="ssr:stedsnr" v="834120" />
	</node>
	<node id="-462137" lat="60.6140435919" lon="6.35655949851">
		<tag k="fixme" v="consider place=hamlet" />
		<tag k="name" v="Hellesnes" />
		<tag k="place" v="farm" />
		<tag k="ssr:stedsnr" v="432610" />
	</node>
	<node id="-462136" lat="60.614905008" lon="6.42603548895">
		<tag k="fixme" v="consider place=hamlet" />
		<tag k="name" v="Gjernes" />
		<tag k="place" v="farm" />
		<tag k="ssr:stedsnr" v="432605" />
	</node>
	<node id="-462135" lat="60.6368555522" lon="6.4011722271">
		<tag k="historic" v="shieling" />
		<tag k="name" v="Skitset" />
		<tag k="place" v="locality" />
		<tag k="ssr:stedsnr" v="264962" />
	</node>
	<node id="-462132" lat="60.6423638879" lon="6.42774999255">
		<tag k="name" v="Litle Ringheim" />
		<tag k="place" v="farm" />
		<tag k="ssr:stedsnr" v="264798" />
	</node>
	<node id="-462131" lat="60.6386277976" lon="6.427565696">
		<tag k="name" v="Store Ringheim" />
		<tag k="place" v="farm" />
		<tag k="ssr:stedsnr" v="264795" />
	</node>
	<node id="-464177" lat="60.8449611073" lon="6.7205305512">
		<tag k="name" v="Holmen" />
		<tag k="place" v="farm" />
		<tag k="ssr:stedsnr" v="834012" />
	</node>
	<node id="-459997" lat="60.654374999" lon="6.57608055615">
		<tag k="name" v="Grotveit" />
		<tag k="place" v="farm" />
		<tag k="ssr:stedsnr" v="310692" />
	</node>
	<node id="-464171" lat="60.6247068158" lon="6.44064856162">
		<tag k="fixme" v="consider place=hamlet" />
		<tag k="name" v="Ytre Haugo" />
		<tag k="place" v="farm" />
		<tag k="ssr:stedsnr" v="810796" />
	</node>
	<node id="-460842" lat="60.7990611128" lon="6.59497500881">
		<tag k="name" v="Urheim" />
		<tag k="place" v="farm" />
		<tag k="ssr:stedsnr" v="20156" />
	</node>
	<node id="-460071" lat="60.7830722179" lon="6.61605554789">
		<tag k="historic" v="shieling" />
		<tag k="name" v="Vetlestølen" />
		<tag k="place" v="locality" />
		<tag k="ssr:stedsnr" v="324156" />
	</node>
	<node id="-462117" lat="60.5942916678" lon="6.36253889038">
		<tag k="historic" v="shieling" />
		<tag k="name" v="Nedstestølen" />
		<tag k="place" v="locality" />
		<tag k="ssr:stedsnr" v="263888" />
	</node>
	<node id="-464163" lat="60.8127191882" lon="6.48087277175">
		<tag k="fixme" v="consider place=hamlet" />
		<tag k="name" v="Ulvund" />
		<tag k="place" v="farm" />
		<tag k="ssr:stedsnr" v="810321" />
	</node>
	<node id="-462110" lat="60.6158664072" lon="6.50183742963">
		<tag k="fixme" v="consider place=hamlet" />
		<tag k="name" v="Øvre Skutle" />
		<tag k="place" v="farm" />
		<tag k="ssr:stedsnr" v="263808" />
	</node>
	<node id="-460054" lat="60.6565833323" lon="6.23548610825">
		<tag k="barrier" v="fence" />
		<tag k="name" v="Torvgarden" />
		<tag k="ssr:stedsnr" v="324010" />
	</node>
	<node id="-462041" lat="60.8511194453" lon="6.67428888138">
		<tag k="name" v="Vetlestølen" />
		<tag k="place" v="isolated_dwelling" />
		<tag k="ssr:stedsnr" v="251830" />
	</node>
	<node id="-462100" lat="60.6569555512" lon="6.79949166436">
		<tag k="historic" v="shieling" />
		<tag k="name" v="Vollbotnen" />
		<tag k="place" v="locality" />
		<tag k="ssr:stedsnr" v="263681" />
	</node>
	<node id="-460050" lat="60.6164929089" lon="6.54687262492">
		<tag k="fixme" v="consider place=hamlet" />
		<tag k="name" v="Opeland" />
		<tag k="place" v="farm" />
		<tag k="ssr:stedsnr" v="323806" />
	</node>
	<node id="-460675" lat="60.7231795906" lon="6.47518696954">
		<tag k="name" v="Afdal" />
		<tag k="place" v="hamlet" />
		<tag k="ssr:stedsnr" v="989239" />
	</node>
	<node id="-462095" lat="60.6841611155" lon="6.60532222183">
		<tag k="historic" v="shieling" />
		<tag k="name" v="Skorstølen" />
		<tag k="place" v="locality" />
		<tag k="ssr:stedsnr" v="263664" />
	</node>
	<node id="-460046" lat="60.7904527772" lon="6.51778054813">
		<tag k="name" v="Neland" />
		<tag k="place" v="farm" />
		<tag k="ssr:stedsnr" v="312994" />
	</node>
	<node id="-460045" lat="60.7849499324" lon="6.47183113228">
		<tag k="fixme" v="consider place=hamlet" />
		<tag k="name" v="Gilbakken" />
		<tag k="place" v="farm" />
		<tag k="ssr:stedsnr" v="312984" />
	</node>
	<node id="-462088" lat="60.8522972208" lon="6.48343333933">
		<tag k="name" v="Vårstølshaugen" />
		<tag k="place" v="farm" />
		<tag k="ssr:stedsnr" v="263372" />
	</node>
	<node id="-460039" lat="60.7630694403" lon="6.51740555043">
		<tag k="historic" v="shieling" />
		<tag k="name" v="Lundset" />
		<tag k="place" v="locality" />
		<tag k="ssr:stedsnr" v="312948" />
	</node>
	<node id="-461697" lat="60.5914632268" lon="6.41914284647">
		<tag k="name" v="Roset" />
		<tag k="place" v="isolated_dwelling" />
		<tag k="ssr:stedsnr" v="189615" />
	</node>
	<node id="-460035" lat="60.817599999" lon="6.69356945335">
		<tag k="name" v="Flatland" />
		<tag k="place" v="farm" />
		<tag k="ssr:stedsnr" v="312766" />
	</node>
	<node id="-460034" lat="60.7858292459" lon="6.59518072976">
		<tag k="fixme" v="consider place=hamlet" />
		<tag k="name" v="Teigen" />
		<tag k="place" v="farm" />
		<tag k="ssr:stedsnr" v="312764" />
	</node>
	<node id="-464127" lat="60.8288027783" lon="6.46622500139">
		<tag k="name" v="Grimshaugen" />
		<tag k="place" v="farm" />
		<tag k="ssr:stedsnr" v="809258" />
	</node>
	<node id="-464125" lat="60.7731222255" lon="6.56567222073">
		<tag k="name" v="Holsane" />
		<tag k="place" v="farm" />
		<tag k="ssr:stedsnr" v="809240" />
	</node>
	<node id="-460028" lat="60.874213889" lon="6.37214167026">
		<tag k="historic" v="shieling" />
		<tag k="name" v="Mørkves-Grøndalen" />
		<tag k="place" v="locality" />
		<tag k="ssr:stedsnr" v="312574" />
	</node>
	<node id="-460027" lat="60.8235694455" lon="6.33260555144">
		<tag k="fixme" v="consider tourism=alpine_hut or tourism=chalet" />
		<tag k="name" v="Torvedalshytta" />
		<tag k="old_name" v="Torvedalen th" />
		<tag k="ssr:stedsnr" v="312565" />
		<tag k="tourism" v="wilderness_hut" />
	</node>
	<node id="-462073" lat="60.7691527754" lon="6.47595556209">
		<tag k="fixme" v="consider place=hamlet" />
		<tag k="name" v="Straume" />
		<tag k="place" v="farm" />
		<tag k="ssr:stedsnr" v="263208" />
	</node>
	<node id="-462072" lat="60.7793888934" lon="6.49670278015">
		<tag k="name" v="Lomsdalen" />
		<tag k="place" v="farm" />
		<tag k="ssr:stedsnr" v="263196" />
	</node>
	<node id="-460021" lat="60.9118361102" lon="6.70343611966">
		<tag k="historic" v="shieling" />
		<tag k="name" v="Øyastølen" />
		<tag k="place" v="locality" />
		<tag k="ssr:stedsnr" v="311891" />
	</node>
	<node id="-460017" lat="60.7814666664" lon="6.72939999924">
		<tag k="historic" v="shieling" />
		<tag k="name" v="Nyestølen" />
		<tag k="place" v="locality" />
		<tag k="ssr:stedsnr" v="311802" />
	</node>
	<node id="-464105" lat="60.6456249992" lon="6.24993889112">
		<tag k="name" v="Vetlestølen" />
		<tag k="place" v="farm" />
		<tag k="ssr:stedsnr" v="809034" />
	</node>
	<node id="-462056" lat="60.785449998" lon="6.40387778609">
		<tag k="historic" v="shieling" />
		<tag k="name" v="Steinset" />
		<tag k="place" v="locality" />
		<tag k="ssr:stedsnr" v="251992" />
	</node>
	<node id="-462055" lat="60.7756554697" lon="6.42821985035">
		<tag k="fixme" v="consider place=hamlet" />
		<tag k="name" v="Lund" />
		<tag k="place" v="farm" />
		<tag k="ssr:stedsnr" v="251985" />
	</node>
	<node id="-462054" lat="60.7837018677" lon="6.581962419">
		<tag k="name" v="Hemre" />
		<tag k="place" v="hamlet" />
		<tag k="ssr:stedsnr" v="251986" />
	</node>
	<node id="-462053" lat="60.7767611143" lon="6.4892277721">
		<tag k="name" v="Kroken" />
		<tag k="place" v="farm" />
		<tag k="ssr:stedsnr" v="251979" />
	</node>
	<node id="-460004" lat="60.6302410474" lon="6.53298987229">
		<tag k="fixme" v="consider place=hamlet" />
		<tag k="name" v="Møn" />
		<tag k="place" v="farm" />
		<tag k="ssr:stedsnr" v="310726" />
	</node>
	<node id="-464098" lat="60.7959156792" lon="6.55139185613">
		<tag k="fixme" v="consider place=hamlet" />
		<tag k="name" v="Bidne" />
		<tag k="place" v="farm" />
		<tag k="ssr:stedsnr" v="797990" />
	</node>
	<node id="-464097" lat="60.7852611071" lon="6.44535000053">
		<tag k="historic" v="shieling" />
		<tag k="name" v="Nyestølen" />
		<tag k="place" v="locality" />
		<tag k="ssr:stedsnr" v="797986" />
	</node>
	<node id="-464096" lat="60.7821500003" lon="6.39716110978">
		<tag k="historic" v="shieling" />
		<tag k="name" v="Skreio" />
		<tag k="place" v="locality" />
		<tag k="ssr:stedsnr" v="797981" />
	</node>
	<node id="-464094" lat="60.7849889942" lon="6.48335285634">
		<tag k="fixme" v="consider place=hamlet" />
		<tag k="name" v="Gavle" />
		<tag k="place" v="farm" />
		<tag k="ssr:stedsnr" v="797978" />
	</node>
	<node id="-462045" lat="60.9229888894" lon="6.70863055105">
		<tag k="name" v="Berdalen" />
		<tag k="place" v="locality" />
		<tag k="ssr:stedsnr" v="251896" />
	</node>
	<node id="-462044" lat="60.9018906893" lon="6.73047171321">
		<tag k="alt_name" v="Nåsen" />
		<tag k="fixme" v="consider place=hamlet" />
		<tag k="name" v="Nosi" />
		<tag k="place" v="farm" />
		<tag k="ssr:stedsnr" v="251878" />
	</node>
	<node id="-464091" lat="60.7661477016" lon="6.49484815979">
		<tag k="fixme" v="consider place=hamlet" />
		<tag k="name" v="Humlabrekke" />
		<tag k="place" v="farm" />
		<tag k="ssr:stedsnr" v="797940" />
	</node>
	<node id="-464089" lat="60.7549249974" lon="6.56173889025">
		<tag k="historic" v="shieling" />
		<tag k="name" v="Raunestølen" />
		<tag k="place" v="locality" />
		<tag k="ssr:stedsnr" v="797920" />
	</node>
	<node id="-459992" lat="60.5953629436" lon="6.45297023489">
		<tag k="fixme" v="consider place=hamlet" />
		<tag k="name" v="Olde" />
		<tag k="place" v="farm" />
		<tag k="ssr:stedsnr" v="310661" />
	</node>
	<node id="-462372" lat="60.9029916656" lon="6.73508056215">
		<tag k="name" v="Myratunet" />
		<tag k="place" v="farm" />
		<tag k="ssr:stedsnr" v="470145" />
	</node>
	<node id="-464086" lat="60.9018777776" lon="6.78262499753">
		<tag k="historic" v="shieling" />
		<tag k="name" v="Busteinen" />
		<tag k="place" v="locality" />
		<tag k="ssr:stedsnr" v="797852" />
	</node>
	<node id="-461006" lat="60.6720999973" lon="6.15866944014">
		<tag k="name" v="Småtuftene" />
		<tag k="place" v="locality" />
		<tag k="ssr:stedsnr" v="67022" />
	</node>
	<node id="-464082" lat="60.8089356686" lon="6.65711170293">
		<tag k="fixme" v="consider place=hamlet" />
		<tag k="name" v="Giljarhus" />
		<tag k="place" v="farm" />
		<tag k="ssr:stedsnr" v="797783" />
	</node>
	<node id="-462033" lat="60.8629361149" lon="6.4952277711">
		<tag k="name" v="Helgatun" />
		<tag k="place" v="isolated_dwelling" />
		<tag k="ssr:stedsnr" v="251615" />
	</node>
	<node id="-459981" lat="60.7328500043" lon="6.62462499126">
		<tag k="historic" v="shieling" />
		<tag k="name" v="Fyrjo" />
		<tag k="place" v="locality" />
		<tag k="ssr:stedsnr" v="310544" />
	</node>
	<node id="-460663" lat="60.6429610879" lon="6.4863613311">
		<tag k="fixme" v="consider place=hamlet" />
		<tag k="name" v="Melve" />
		<tag k="place" v="farm" />
		<tag k="ssr:stedsnr" v="989079" />
	</node>
	<node id="-464070" lat="60.8380545193" lon="6.46151232372">
		<tag k="fixme" v="consider place=hamlet" />
		<tag k="name" v="Mørkve" />
		<tag k="place" v="farm" />
		<tag k="ssr:stedsnr" v="797562" />
	</node>
	<node id="-464069" lat="60.8440083327" lon="6.5061000009">
		<tag k="historic" v="shieling" />
		<tag k="name" v="Svoleset" />
		<tag k="place" v="locality" />
		<tag k="ssr:stedsnr" v="797550" />
	</node>
	<node id="-464068" lat="60.8590583334" lon="6.51187777875">
		<tag k="historic" v="shieling" />
		<tag k="name" v="Bygdastølen" />
		<tag k="place" v="locality" />
		<tag k="ssr:stedsnr" v="797541" />
	</node>
	<node id="-459971" lat="60.6692203437" lon="6.44267666112">
		<tag k="fixme" v="consider place=hamlet" />
		<tag k="name" v="Æn" />
		<tag k="place" v="farm" />
		<tag k="ssr:stedsnr" v="310286" />
	</node>
	<node id="-459970" lat="60.6724138929" lon="6.56642777041">
		<tag k="fixme" v="consider place=hamlet" />
		<tag k="name" v="Meringi" />
		<tag k="place" v="farm" />
		<tag k="ssr:stedsnr" v="310266" />
	</node>
	<node id="-459969" lat="60.6566555562" lon="6.45465000585">
		<tag k="fixme" v="consider place=hamlet" />
		<tag k="name" v="Lirhus" />
		<tag k="place" v="farm" />
		<tag k="ssr:stedsnr" v="310255" />
	</node>
	<node id="-459968" lat="60.6572750025" lon="6.39908611792">
		<tag k="historic" v="shieling" />
		<tag k="name" v="Trodastølen" />
		<tag k="place" v="locality" />
		<tag k="ssr:stedsnr" v="310253" />
	</node>
	<node id="-460320" lat="60.6120488605" lon="6.34370883307">
		<tag k="fixme" v="consider place=hamlet" />
		<tag k="name" v="Vinsand" />
		<tag k="place" v="farm" />
		<tag k="ssr:stedsnr" v="371619" />
	</node>
	<node id="-462013" lat="60.6825333339" lon="6.80745277711">
		<tag k="historic" v="shieling" />
		<tag k="name" v="Grauastølen" />
		<tag k="place" v="locality" />
		<tag k="ssr:stedsnr" v="250942" />
	</node>
	<node id="-462012" lat="60.6287111086" lon="6.63377499423">
		<tag k="historic" v="shieling" />
		<tag k="name" v="Steindro" />
		<tag k="place" v="locality" />
		<tag k="ssr:stedsnr" v="250885" />
	</node>
	<node id="-459962" lat="60.5841250034" lon="6.61061666716">
		<tag k="name" v="Svelgane" />
		<tag k="place" v="locality" />
		<tag k="ssr:stedsnr" v="309934" />
	</node>
	<node id="-460353" lat="60.8132698678" lon="6.67412610729">
		<tag k="fixme" v="consider place=hamlet" />
		<tag k="name" v="Tveito" />
		<tag k="place" v="farm" />
		<tag k="ssr:stedsnr" v="372818" />
	</node>
	<node id="-464055" lat="60.7008861073" lon="6.89159166588">
		<tag k="name" v="Kårdal" />
		<tag k="place" v="farm" />
		<tag k="ssr:stedsnr" v="796959" />
	</node>
	<node id="-459958" lat="60.6209694455" lon="6.28186389548">
		<tag k="fixme" v="consider place=hamlet" />
		<tag k="name" v="Viki" />
		<tag k="place" v="village" />
		<tag k="ssr:stedsnr" v="309717" />
	</node>
	<node id="-464053" lat="60.6817760987" lon="6.608354089">
		<tag k="fixme" v="consider place=hamlet" />
		<tag k="name" v="Kolve" />
		<tag k="place" v="farm" />
		<tag k="ssr:stedsnr" v="796946" />
	</node>
	<node id="-459956" lat="60.7221555572" lon="5.99226943978">
		<tag k="historic" v="shieling" />
		<tag k="name" v="Stordalen" />
		<tag k="place" v="locality" />
		<tag k="ssr:stedsnr" v="309468" />
	</node>
	<node id="-464050" lat="60.592701522" lon="6.46236981809">
		<tag k="fixme" v="consider place=hamlet" />
		<tag k="name" v="Gjelland" />
		<tag k="place" v="farm" />
		<tag k="ssr:stedsnr" v="796651" />
	</node>
	<node id="-460659" lat="60.5172135686" lon="6.47878483163">
		<tag k="name" v="Rong" />
		<tag k="place" v="hamlet" />
		<tag k="ssr:stedsnr" v="988455" />
	</node>
	<node id="-464048" lat="60.6070901785" lon="6.40738519816">
		<tag k="fixme" v="consider place=hamlet" />
		<tag k="name" v="Mølsterteigen" />
		<tag k="place" v="farm" />
		<tag k="ssr:stedsnr" v="796632" />
	</node>
	<node id="-464046" lat="60.5634250039" lon="6.59286110768">
		<tag k="historic" v="shieling" />
		<tag k="name" v="Stuvaset" />
		<tag k="place" v="locality" />
		<tag k="ssr:stedsnr" v="796601" />
	</node>
	<node id="-464045" lat="60.5460493581" lon="6.47622300824">
		<tag k="fixme" v="consider place=hamlet" />
		<tag k="name" v="Jerald" />
		<tag k="place" v="farm" />
		<tag k="ssr:stedsnr" v="796597" />
	</node>
	<node id="-459947" lat="60.7201499959" lon="6.43068055287">
		<tag k="historic" v="shieling" />
		<tag k="name" v="Kroni" />
		<tag k="place" v="locality" />
		<tag k="ssr:stedsnr" v="309385" />
	</node>
	<node id="-464042" lat="60.5177203545" lon="6.47843915673">
		<tag k="fixme" v="consider place=hamlet" />
		<tag k="name" v="Øvre Rong" />
		<tag k="place" v="farm" />
		<tag k="ssr:stedsnr" v="796498" />
	</node>
	<node id="-461992" lat="60.6876444408" lon="6.81466943797">
		<tag k="historic" v="shieling" />
		<tag k="name" v="Grytestølen" />
		<tag k="place" v="locality" />
		<tag k="ssr:stedsnr" v="249939" />
	</node>
	<node id="-461340" lat="60.5963618108" lon="6.19619328221">
		<tag k="fixme" v="consider place=hamlet" />
		<tag k="name" v="Narheim" />
		<tag k="place" v="farm" />
		<tag k="ssr:stedsnr" v="127223" />
	</node>
	<node id="-459942" lat="60.6898847504" lon="6.49857855518">
		<tag k="fixme" v="consider place=hamlet" />
		<tag k="name" v="Oppkvitno" />
		<tag k="place" v="farm" />
		<tag k="ssr:stedsnr" v="309350" />
	</node>
	<node id="-459941" lat="60.6885526203" lon="6.57135364705">
		<tag k="fixme" v="consider place=hamlet" />
		<tag k="name" v="Røyrlii" />
		<tag k="place" v="farm" />
		<tag k="ssr:stedsnr" v="309348" />
	</node>
	<node id="-459940" lat="60.6861149688" lon="6.53879356201">
		<tag k="historic" v="shieling" />
		<tag k="name" v="Skjevlingen" />
		<tag k="place" v="locality" />
		<tag k="ssr:stedsnr" v="309347" />
	</node>
	<node id="-461987" lat="60.6391666669" lon="6.46393333078">
		<tag k="name" v="Gjerdåker" />
		<tag k="place" v="farm" />
		<tag k="ssr:stedsnr" v="249685" />
	</node>
	<node id="-461986" lat="60.6348694475" lon="6.44091110724">
		<tag k="landuse" v="military" />
		<tag k="name" v="Tvildemoen" />
		<tag k="ssr:stedsnr" v="249682" />
	</node>
	<node id="-464033" lat="60.6216828193" lon="6.43294717616">
		<tag k="fixme" v="consider place=hamlet" />
		<tag k="name" v="Ytre Nyre" />
		<tag k="place" v="farm" />
		<tag k="ssr:stedsnr" v="795743" />
	</node>
	<node id="-464032" lat="60.6274444446" lon="6.4694749979">
		<tag k="name" v="Øvre Li" />
		<tag k="place" v="farm" />
		<tag k="ssr:stedsnr" v="795736" />
	</node>
	<node id="-464031" lat="60.6265279618" lon="6.33818066464">
		<tag k="fixme" v="consider place=hamlet" />
		<tag k="name" v="Yksnabjørg" />
		<tag k="place" v="farm" />
		<tag k="ssr:stedsnr" v="795731" />
	</node>
	<node id="-464030" lat="60.6290178783" lon="6.3819055772">
		<tag k="fixme" v="consider place=hamlet" />
		<tag k="name" v="Raudstad" />
		<tag k="place" v="farm" />
		<tag k="ssr:stedsnr" v="795727" />
	</node>
	<node id="-464028" lat="60.6275309523" lon="6.31029588345">
		<tag k="name" v="Rekve" />
		<tag k="place" v="hamlet" />
		<tag k="ssr:stedsnr" v="795721" />
	</node>
	<node id="-459931" lat="60.6293886051" lon="6.15713080011">
		<tag k="fixme" v="consider place=hamlet" />
		<tag k="name" v="Øvre Skjervo" />
		<tag k="place" v="farm" />
		<tag k="ssr:stedsnr" v="309182" />
	</node>
	<node id="-464026" lat="60.6355412479" lon="6.32812899136">
		<tag k="fixme" v="consider place=hamlet" />
		<tag k="name" v="Dolve" />
		<tag k="place" v="farm" />
		<tag k="ssr:stedsnr" v="795704" />
	</node>
	<node id="-461977" lat="60.6058325175" lon="6.34760256696">
		<tag k="fixme" v="consider place=hamlet" />
		<tag k="name" v="Nesthus" />
		<tag k="place" v="farm" />
		<tag k="ssr:stedsnr" v="249607" />
	</node>
	<node id="-464024" lat="60.5719166706" lon="6.4830555468">
		<tag k="historic" v="shieling" />
		<tag k="name" v="Litrane" />
		<tag k="place" v="locality" />
		<tag k="ssr:stedsnr" v="795630" />
	</node>
	<node id="-464023" lat="60.5615444462" lon="6.43346389194">
		<tag k="historic" v="shieling" />
		<tag k="name" v="Tesdalsstølen" />
		<tag k="place" v="locality" />
		<tag k="ssr:stedsnr" v="795621" />
	</node>
	<node id="-461974" lat="60.5680750107" lon="6.46887077585">
		<tag k="fixme" v="consider place=hamlet" />
		<tag k="name" v="Øvre Kvitno" />
		<tag k="place" v="farm" />
		<tag k="ssr:stedsnr" v="249581" />
	</node>
	<node id="-464020" lat="60.5035777812" lon="6.56285832403">
		<tag k="historic" v="shieling" />
		<tag k="name" v="Gjellesstølen" />
		<tag k="place" v="locality" />
		<tag k="ssr:stedsnr" v="795591" />
	</node>
	<node id="-459922" lat="60.6618249997" lon="5.96306388975">
		<tag k="historic" v="shieling" />
		<tag k="name" v="Dunsen" />
		<tag k="place" v="locality" />
		<tag k="ssr:stedsnr" v="309049" />
	</node>
	<node id="-464067" lat="60.8083944451" lon="6.51756666488">
		<tag k="historic" v="shieling" />
		<tag k="name" v="Vinjahaugen" />
		<tag k="place" v="locality" />
		<tag k="ssr:stedsnr" v="797526" />
	</node>
	<node id="-459920" lat="60.6738752878" lon="5.95249870667">
		<tag k="fixme" v="consider place=hamlet" />
		<tag k="name" v="Mæland" />
		<tag k="place" v="farm" />
		<tag k="ssr:stedsnr" v="309005" />
	</node>
	<node id="-464015" lat="60.6934861136" lon="6.12276944681">
		<tag k="historic" v="shieling" />
		<tag k="name" v="Liastølen" />
		<tag k="place" v="locality" />
		<tag k="ssr:stedsnr" v="795538" />
	</node>
	<node id="-459917" lat="60.6962016101" lon="6.1050968022">
		<tag k="fixme" v="consider place=hamlet" />
		<tag k="name" v="Ro" />
		<tag k="place" v="farm" />
		<tag k="ssr:stedsnr" v="309515" />
	</node>
	<node id="-460994" lat="60.6888972184" lon="6.55068888261">
		<tag k="historic" v="shieling" />
		<tag k="name" v="Singeset" />
		<tag k="place" v="locality" />
		<tag k="ssr:stedsnr" v="46438" />
	</node>
	<node id="-464010" lat="60.7108250028" lon="6.00535833156">
		<tag k="historic" v="shieling" />
		<tag k="name" v="Raudstølen" />
		<tag k="place" v="locality" />
		<tag k="ssr:stedsnr" v="795508" />
	</node>
	<node id="-464007" lat="60.7269000022" lon="6.01959999176">
		<tag k="historic" v="shieling" />
		<tag k="name" v="Kringsdalen" />
		<tag k="place" v="locality" />
		<tag k="ssr:stedsnr" v="795472" />
	</node>
	<node id="-459908" lat="60.5809777744" lon="6.56873611883">
		<tag k="name" v="Langeset" />
		<tag k="place" v="farm" />
		<tag k="ssr:stedsnr" v="289669" />
	</node>
	<node id="-464001" lat="60.7344500024" lon="6.2565111061">
		<tag k="historic" v="shieling" />
		<tag k="name" v="Eides-Fannadalen" />
		<tag k="place" v="locality" />
		<tag k="ssr:stedsnr" v="795417" />
	</node>
	<node id="-464000" lat="60.7186305539" lon="6.55710000019">
		<tag k="historic" v="shieling" />
		<tag k="name" v="Helgaset" />
		<tag k="place" v="locality" />
		<tag k="ssr:stedsnr" v="795391" />
	</node>
	<node id="-461950" lat="60.6487379166" lon="6.49808112216">
		<tag k="fixme" v="consider place=hamlet" />
		<tag k="name" v="Tøn" />
		<tag k="place" v="farm" />
		<tag k="ssr:stedsnr" v="249241" />
	</node>
	<node id="-461949" lat="60.646266279" lon="6.49316187092">
		<tag k="fixme" v="consider place=hamlet" />
		<tag k="name" v="Fjose" />
		<tag k="place" v="farm" />
		<tag k="ssr:stedsnr" v="249240" />
	</node>
	<node id="-463996" lat="60.6933611073" lon="6.58270832976">
		<tag k="name" v="Fagnastølen" />
		<tag k="place" v="farm" />
		<tag k="ssr:stedsnr" v="795362" />
	</node>
	<node id="-464063" lat="60.8243444434" lon="6.48093888096">
		<tag k="historic" v="shieling" />
		<tag k="name" v="Fossen" />
		<tag k="place" v="locality" />
		<tag k="ssr:stedsnr" v="797507" />
	</node>
	<node id="-463991" lat="60.664805706" lon="6.33799886645">
		<tag k="fixme" v="consider place=hamlet" />
		<tag k="name" v="Arhelleren" />
		<tag k="place" v="farm" />
		<tag k="ssr:stedsnr" v="795329" />
	</node>
	<node id="-463989" lat="60.6577750044" lon="6.26847499819">
		<tag k="historic" v="shieling" />
		<tag k="name" v="Listred" />
		<tag k="place" v="locality" />
		<tag k="ssr:stedsnr" v="795315" />
	</node>
	<node id="-461940" lat="60.6391504997" lon="5.94903954077">
		<tag k="fixme" v="consider place=hamlet" />
		<tag k="name" v="Bolstad" />
		<tag k="place" v="farm" />
		<tag k="ssr:stedsnr" v="249095" />
	</node>
	<node id="-461936" lat="60.661661833" lon="6.1771903343">
		<tag k="fixme" v="consider place=hamlet" />
		<tag k="name" v="Edal" />
		<tag k="place" v="farm" />
		<tag k="ssr:stedsnr" v="249039" />
	</node>
	<node id="-461935" lat="60.6550914178" lon="6.0883638723">
		<tag k="fixme" v="consider place=hamlet" />
		<tag k="name" v="Fadnes" />
		<tag k="place" v="farm" />
		<tag k="ssr:stedsnr" v="249033" />
	</node>
	<node id="-461933" lat="60.6714515834" lon="6.01268931776">
		<tag k="fixme" v="consider place=hamlet" />
		<tag k="name" v="Geilane" />
		<tag k="place" v="farm" />
		<tag k="ssr:stedsnr" v="249029" />
	</node>
	<node id="-463978" lat="60.6447833329" lon="6.15213055389">
		<tag k="name" v="Øyane" />
		<tag k="place" v="locality" />
		<tag k="ssr:stedsnr" v="795146" />
	</node>
	<node id="-459881" lat="60.5566333291" lon="6.58362499957">
		<tag k="name" v="Nylenda" />
		<tag k="place" v="farm" />
		<tag k="ssr:stedsnr" v="288718" />
	</node>
	<node id="-461927" lat="60.7104944478" lon="6.09451665795">
		<tag k="historic" v="shieling" />
		<tag k="name" v="Sevaldstadstølen" />
		<tag k="place" v="locality" />
		<tag k="ssr:stedsnr" v="248439" />
	</node>
	<node id="-463974" lat="60.6542138894" lon="6.0219250065">
		<tag k="name" v="Bjørgo" />
		<tag k="place" v="farm" />
		<tag k="ssr:stedsnr" v="795072" />
	</node>
	<node id="-460305" lat="60.6286944414" lon="6.4147444511">
		<tag k="name" v="Vossavangen" />
		<tag k="place" v="village" />
		<tag k="ssr:stedsnr" v="370739" />
	</node>
	<node id="-463971" lat="60.6793505244" lon="6.10428100674">
		<tag k="fixme" v="consider place=hamlet" />
		<tag k="name" v="Mæstad" />
		<tag k="place" v="farm" />
		<tag k="ssr:stedsnr" v="795048" />
	</node>
	<node id="-463968" lat="60.6668777766" lon="6.15228055959">
		<tag k="historic" v="shieling" />
		<tag k="name" v="Elgestølen" />
		<tag k="place" v="locality" />
		<tag k="ssr:stedsnr" v="795015" />
	</node>
	<node id="-461919" lat="60.6403329129" lon="5.86602414608">
		<tag k="fixme" v="consider place=hamlet" />
		<tag k="name" v="Hermundsdalen" />
		<tag k="place" v="farm" />
		<tag k="ssr:stedsnr" v="248097" />
	</node>
	<node id="-459870" lat="60.5785416653" lon="6.46862777008">
		<tag k="name" v="Helland" />
		<tag k="place" v="farm" />
		<tag k="ssr:stedsnr" v="288513" />
	</node>
	<node id="-460707" lat="60.6216895736" lon="6.18885193346">
		<tag k="fixme" v="consider place=hamlet" />
		<tag k="name" v="Skylje" />
		<tag k="place" v="farm" />
		<tag k="ssr:stedsnr" v="6140" />
	</node>
	<node id="-459866" lat="60.6229777806" lon="6.43841944527">
		<tag k="name" v="Nyrestråi" />
		<tag k="place" v="farm" />
		<tag k="ssr:stedsnr" v="288472" />
	</node>
	<node id="-461327" lat="60.6581129475" lon="6.45229018899">
		<tag k="fixme" v="consider place=hamlet" />
		<tag k="name" v="Dukstad" />
		<tag k="place" v="farm" />
		<tag k="ssr:stedsnr" v="127296" />
	</node>
	<node id="-461909" lat="60.6083722192" lon="6.56281667136">
		<tag k="name" v="Røvesløken" />
		<tag k="place" v="farm" />
		<tag k="ssr:stedsnr" v="228812" />
	</node>
	<node id="-463952" lat="60.613380559" lon="6.54881666525">
		<tag k="name" v="Hagen" />
		<tag k="place" v="farm" />
		<tag k="ssr:stedsnr" v="774696" />
	</node>
	<node id="-461901" lat="60.642052782" lon="6.57111666466">
		<tag k="name" v="Gilset" />
		<tag k="place" v="farm" />
		<tag k="ssr:stedsnr" v="228418" />
	</node>
	<node id="-459959" lat="60.6266328741" lon="6.39563293686">
		<tag k="fixme" v="consider place=hamlet" />
		<tag k="name" v="Finne" />
		<tag k="place" v="farm" />
		<tag k="ssr:stedsnr" v="309723" />
	</node>
	<node id="-463944" lat="60.6449277821" lon="6.52381943509">
		<tag k="name" v="Kyrkjeteigen" />
		<tag k="place" v="farm" />
		<tag k="ssr:stedsnr" v="774425" />
	</node>
	<node id="-460300" lat="60.6249173507" lon="6.27786535651">
		<tag k="fixme" v="consider place=hamlet" />
		<tag k="name" v="Lunde" />
		<tag k="place" v="farm" />
		<tag k="ssr:stedsnr" v="370723" />
	</node>
	<node id="-461380" lat="60.6073859704" lon="6.42504864197">
		<tag k="fixme" v="consider place=hamlet" />
		<tag k="name" v="Gjelle" />
		<tag k="place" v="farm" />
		<tag k="ssr:stedsnr" v="128621" />
	</node>
	<node id="-461891" lat="60.5780249975" lon="6.2174388962">
		<tag k="historic" v="shieling" />
		<tag k="name" v="Flatøyni" />
		<tag k="place" v="locality" />
		<tag k="ssr:stedsnr" v="227979" />
	</node>
	<node id="-459839" lat="60.8290972242" lon="6.57433888941">
		<tag k="name" v="Turtnastølen" />
		<tag k="place" v="farm" />
		<tag k="ssr:stedsnr" v="287925" />
	</node>
	<node id="-461959" lat="60.7267861116" lon="6.45218055377">
		<tag k="historic" v="shieling" />
		<tag k="name" v="Preststølen" />
		<tag k="place" v="locality" />
		<tag k="ssr:stedsnr" v="249351" />
	</node>
	<node id="-460084" lat="60.7792638892" lon="6.45044722547">
		<tag k="historic" v="shieling" />
		<tag k="name" v="Vetlestølen" />
		<tag k="place" v="locality" />
		<tag k="ssr:stedsnr" v="324247" />
	</node>
	<node id="-463931" lat="60.550983332" lon="6.57525833027">
		<tag k="historic" v="shieling" />
		<tag k="name" v="Skamdalen" />
		<tag k="place" v="locality" />
		<tag k="ssr:stedsnr" v="773921" />
	</node>
	<node id="-461880" lat="60.7293333343" lon="6.50338889121">
		<tag k="name" v="Koltveit" />
		<tag k="place" v="farm" />
		<tag k="ssr:stedsnr" v="227693" />
	</node>
	<node id="-461879" lat="60.6706861117" lon="6.50240833066">
		<tag k="name" v="Lunden" />
		<tag k="place" v="farm" />
		<tag k="ssr:stedsnr" v="227684" />
	</node>
	<node id="-461321" lat="60.6390027799" lon="5.99238056292">
		<tag k="historic" v="shieling" />
		<tag k="name" v="Vassendastølen" />
		<tag k="place" v="locality" />
		<tag k="ssr:stedsnr" v="127123" />
	</node>
	<node id="-460296" lat="60.6532445354" lon="6.55169292196">
		<tag k="fixme" v="consider place=hamlet" />
		<tag k="name" v="Tverrberg" />
		<tag k="place" v="farm" />
		<tag k="ssr:stedsnr" v="370695" />
	</node>
	<node id="-461379" lat="60.6068603696" lon="6.39064729647">
		<tag k="fixme" v="consider place=hamlet" />
		<tag k="name" v="Sætre" />
		<tag k="place" v="farm" />
		<tag k="ssr:stedsnr" v="128611" />
	</node>
	<node id="-463909" lat="60.6506305552" lon="6.48253054891">
		<tag k="name" v="Øyjordi" />
		<tag k="place" v="farm" />
		<tag k="ssr:stedsnr" v="773680" />
	</node>
	<node id="-463908" lat="60.6126000016" lon="6.49955833421">
		<tag k="historic" v="shieling" />
		<tag k="name" v="Skutlesmjølstølane" />
		<tag k="place" v="locality" />
		<tag k="ssr:stedsnr" v="773597" />
	</node>
	<node id="-462019" lat="60.7621777735" lon="6.67766667085">
		<tag k="historic" v="shieling" />
		<tag k="name" v="Prinsabotn" />
		<tag k="place" v="locality" />
		<tag k="ssr:stedsnr" v="251216" />
	</node>
	<node id="-462000" lat="60.5254555517" lon="6.46142222252">
		<tag k="name" v="Kulset" />
		<tag k="place" v="farm" />
		<tag k="ssr:stedsnr" v="250494" />
	</node>
	<node id="-460083" lat="60.804025" lon="6.42573611902">
		<tag k="historic" v="shieling" />
		<tag k="name" v="Nyestølen" />
		<tag k="place" v="locality" />
		<tag k="ssr:stedsnr" v="324242" />
	</node>
	<node id="-462341" lat="60.7566694455" lon="6.50384167006">
		<tag k="name" v="Kvormo" />
		<tag k="place" v="farm" />
		<tag k="ssr:stedsnr" v="452915" />
	</node>
	<node id="-463900" lat="60.5780027758" lon="6.43534999337">
		<tag k="historic" v="shieling" />
		<tag k="name" v="Tillungstølen" />
		<tag k="place" v="locality" />
		<tag k="ssr:stedsnr" v="773523" />
	</node>
	<node id="-463898" lat="60.7068583338" lon="6.47111944061">
		<tag k="name" v="Slette" />
		<tag k="place" v="farm" />
		<tag k="ssr:stedsnr" v="773488" />
	</node>
	<node id="-460355" lat="60.8427154961" lon="6.68697138344">
		<tag k="fixme" v="consider place=hamlet" />
		<tag k="name" v="Sivle" />
		<tag k="place" v="farm" />
		<tag k="ssr:stedsnr" v="372833" />
	</node>
	<node id="-463876" lat="60.8422388233" lon="6.70358000041">
		<tag k="fixme" v="consider place=hamlet" />
		<tag k="name" v="Stalheimsøyane" />
		<tag k="place" v="farm" />
		<tag k="ssr:stedsnr" v="773169" />
	</node>
	<node id="-461827" lat="60.6503076357" lon="6.5121614709">
		<tag k="name" v="Litle Grauo" />
		<tag k="place" v="farm" />
		<tag k="ssr:stedsnr" v="203798" />
	</node>
	<node id="-461826" lat="60.6780621393" lon="6.51609087734">
		<tag k="name" v="Nedre Lemme" />
		<tag k="place" v="farm" />
		<tag k="ssr:stedsnr" v="203768" />
	</node>
	<node id="-461825" lat="60.6857805557" lon="6.08056667073">
		<tag k="historic" v="shieling" />
		<tag k="name" v="Gamlestølen" />
		<tag k="place" v="locality" />
		<tag k="ssr:stedsnr" v="203758" />
	</node>
	<node id="-461994" lat="60.6799888856" lon="6.68270278456">
		<tag k="name" v="Skiple" />
		<tag k="place" v="farm" />
		<tag k="ssr:stedsnr" v="249951" />
	</node>
	<node id="-463866" lat="60.7680944457" lon="6.47466944273">
		<tag k="fixme" v="consider place=hamlet" />
		<tag k="name" v="Holbygdi" />
		<tag k="place" v="village" />
		<tag k="ssr:stedsnr" v="768277" />
	</node>
	<node id="-463864" lat="60.6388722236" lon="5.95818332893">
		<tag k="fixme" v="consider place=hamlet" />
		<tag k="name" v="Bolstadøyri" />
		<tag k="place" v="village" />
		<tag k="ssr:stedsnr" v="752129" />
	</node>
	<node id="-462676" lat="60.6432916679" lon="6.48709444523">
		<tag k="name" v="Melve" />
		<tag k="place" v="farm" />
		<tag k="ssr:stedsnr" v="530483" />
	</node>
	<node id="-461310" lat="60.6350873125" lon="6.16669771331">
		<tag k="fixme" v="consider place=hamlet" />
		<tag k="name" v="Nedre Skjervo" />
		<tag k="place" v="farm" />
		<tag k="ssr:stedsnr" v="127166" />
	</node>
	<node id="-463855" lat="60.6392944428" lon="6.47409167135">
		<tag k="fixme" v="consider place=hamlet" />
		<tag k="name" v="Rykke" />
		<tag k="place" v="farm" />
		<tag k="ssr:stedsnr" v="749818" />
	</node>
	<node id="-463854" lat="60.6487766952" lon="6.49679634378">
		<tag k="fixme" v="consider place=hamlet" />
		<tag k="name" v="Tøn" />
		<tag k="place" v="farm" />
		<tag k="ssr:stedsnr" v="749808" />
	</node>
	<node id="-461309" lat="60.6372027802" lon="6.15213889503">
		<tag k="name" v="Jenstræet" />
		<tag k="place" v="farm" />
		<tag k="ssr:stedsnr" v="127164" />
	</node>
	<node id="-460354" lat="60.815402234" lon="6.67675617997">
		<tag k="fixme" v="consider place=hamlet" />
		<tag k="name" v="Slæn" />
		<tag k="place" v="farm" />
		<tag k="ssr:stedsnr" v="372822" />
	</node>
	<node id="-461732" lat="60.8982583354" lon="6.70931666169">
		<tag k="historic" v="shieling" />
		<tag k="name" v="Haugane" />
		<tag k="place" v="locality" />
		<tag k="ssr:stedsnr" v="190874" />
	</node>
	<node id="-463841" lat="60.6211388863" lon="6.59719999176">
		<tag k="historic" v="shieling" />
		<tag k="name" v="Fennastølane" />
		<tag k="place" v="locality" />
		<tag k="ssr:stedsnr" v="749674" />
	</node>
	<node id="-461790" lat="60.6931933429" lon="6.47295889002">
		<tag k="name" v="Austre Løno" />
		<tag k="place" v="farm" />
		<tag k="ssr:stedsnr" v="203241" />
	</node>
	<node id="-463826" lat="60.723702779" lon="6.49788611607">
		<tag k="name" v="Nedre Leidal" />
		<tag k="place" v="farm" />
		<tag k="ssr:stedsnr" v="749212" />
	</node>
	<node id="-460897" lat="60.6532346826" lon="6.51916967455">
		<tag k="name" v="Øvre Grauo" />
		<tag k="place" v="farm" />
		<tag k="ssr:stedsnr" v="21791" />
	</node>
	<node id="-461773" lat="60.641333329" lon="6.25535833134">
		<tag k="historic" v="shieling" />
		<tag k="name" v="Vetlestølen" />
		<tag k="place" v="locality" />
		<tag k="ssr:stedsnr" v="203040" />
	</node>
	<node id="-463819" lat="60.6300750003" lon="6.30195000202">
		<tag k="name" v="Monsbakken" />
		<tag k="place" v="farm" />
		<tag k="ssr:stedsnr" v="749070" />
	</node>
	<node id="-463813" lat="60.5696962879" lon="6.45800916145">
		<tag k="name" v="Midtre Rjodo" />
		<tag k="place" v="farm" />
		<tag k="ssr:stedsnr" v="749003" />
	</node>
	<node id="-463806" lat="60.6126178439" lon="6.43366514109">
		<tag k="fixme" v="consider place=hamlet" />
		<tag k="name" v="Litle Rokne" />
		<tag k="place" v="farm" />
		<tag k="ssr:stedsnr" v="748819" />
	</node>
	<node id="-461753" lat="60.8103833343" lon="6.62888056188">
		<tag k="historic" v="shieling" />
		<tag k="name" v="Kvamsstølen" />
		<tag k="place" v="locality" />
		<tag k="ssr:stedsnr" v="202254" />
	</node>
	<node id="-461748" lat="60.7647156589" lon="6.45437313565">
		<tag k="fixme" v="consider place=hamlet" />
		<tag k="name" v="Selje" />
		<tag k="place" v="farm" />
		<tag k="ssr:stedsnr" v="191931" />
	</node>
	<node id="-459934" lat="60.6004834223" lon="6.19155271098">
		<tag k="fixme" v="consider place=hamlet" />
		<tag k="name" v="Gilbakken" />
		<tag k="place" v="farm" />
		<tag k="ssr:stedsnr" v="309234" />
	</node>
	<node id="-461746" lat="60.7652200197" lon="6.56781116403">
		<tag k="fixme" v="consider place=hamlet" />
		<tag k="name" v="Markusteigen" />
		<tag k="place" v="farm" />
		<tag k="ssr:stedsnr" v="191918" />
	</node>
	<node id="-461745" lat="60.8185062078" lon="6.71902986035">
		<tag k="fixme" v="consider place=hamlet" />
		<tag k="name" v="Øvsthus" />
		<tag k="place" v="farm" />
		<tag k="ssr:stedsnr" v="191756" />
	</node>
	<node id="-461742" lat="60.8033639461" lon="6.6189964557">
		<tag k="fixme" v="consider place=hamlet" />
		<tag k="name" v="Heggland" />
		<tag k="place" v="farm" />
		<tag k="ssr:stedsnr" v="191729" />
	</node>
	<node id="-461741" lat="60.8041027801" lon="6.6415027761">
		<tag k="name" v="Haugsvik" />
		<tag k="place" v="isolated_dwelling" />
		<tag k="ssr:stedsnr" v="191727" />
	</node>
	<node id="-461737" lat="60.7894749961" lon="6.42306666564">
		<tag k="historic" v="shieling" />
		<tag k="name" v="Kaset" />
		<tag k="place" v="locality" />
		<tag k="ssr:stedsnr" v="190987" />
	</node>
	<node id="-461736" lat="60.7932277785" lon="6.48641388928">
		<tag k="historic" v="shieling" />
		<tag k="name" v="Vetlestølen" />
		<tag k="place" v="locality" />
		<tag k="ssr:stedsnr" v="190983" />
	</node>
	<node id="-461735" lat="60.7769571716" lon="6.47479752517">
		<tag k="fixme" v="consider place=hamlet" />
		<tag k="name" v="Stora Høn" />
		<tag k="place" v="farm" />
		<tag k="ssr:stedsnr" v="190962" />
	</node>
	<node id="-463780" lat="60.7662295948" lon="6.46979447445">
		<tag k="fixme" v="consider place=hamlet" />
		<tag k="name" v="Holo" />
		<tag k="place" v="farm" />
		<tag k="ssr:stedsnr" v="737961" />
	</node>
	<node id="-463778" lat="60.8100615833" lon="6.66060459365">
		<tag k="fixme" v="consider place=hamlet" />
		<tag k="name" v="Lunde" />
		<tag k="place" v="farm" />
		<tag k="ssr:stedsnr" v="737791" />
	</node>
	<node id="-461729" lat="60.8712777746" lon="6.62761389691">
		<tag k="historic" v="shieling" />
		<tag k="name" v="Botnen" />
		<tag k="place" v="locality" />
		<tag k="ssr:stedsnr" v="190864" />
	</node>
	<node id="-461728" lat="60.7949972223" lon="6.68915278094">
		<tag k="name" v="Brandset" />
		<tag k="place" v="farm" />
		<tag k="ssr:stedsnr" v="190802" />
	</node>
	<node id="-461724" lat="60.7891571027" lon="6.60031814694">
		<tag k="fixme" v="consider place=hamlet" />
		<tag k="name" v="Grindaland" />
		<tag k="place" v="farm" />
		<tag k="ssr:stedsnr" v="190772" />
	</node>
	<node id="-463770" lat="60.7908371402" lon="6.51268006725">
		<tag k="fixme" v="consider place=hamlet" />
		<tag k="name" v="Draugsvoll" />
		<tag k="place" v="farm" />
		<tag k="ssr:stedsnr" v="736991" />
	</node>
	<node id="-463768" lat="60.7878054946" lon="6.49259281398">
		<tag k="fixme" v="consider place=hamlet" />
		<tag k="name" v="Indre Sundve" />
		<tag k="place" v="farm" />
		<tag k="ssr:stedsnr" v="736978" />
	</node>
	<node id="-461719" lat="60.9058499977" lon="6.46718333095">
		<tag k="historic" v="shieling" />
		<tag k="name" v="Presthaugen" />
		<tag k="place" v="locality" />
		<tag k="ssr:stedsnr" v="190619" />
	</node>
	<node id="-463766" lat="60.7785000044" lon="6.45304999334">
		<tag k="name" v="Tuftene" />
		<tag k="place" v="locality" />
		<tag k="ssr:stedsnr" v="736970" />
	</node>
	<node id="-461717" lat="60.8611861157" lon="6.53713611964">
		<tag k="historic" v="shieling" />
		<tag k="name" v="Revhaugen" />
		<tag k="place" v="locality" />
		<tag k="ssr:stedsnr" v="190592" />
	</node>
	<node id="-460270" lat="60.6468260982" lon="6.49051140875">
		<tag k="name" v="Vinjo" />
		<tag k="place" v="hamlet" />
		<tag k="ssr:stedsnr" v="370303" />
	</node>
	<node id="-463762" lat="60.769405556" lon="6.60561666905">
		<tag k="historic" v="shieling" />
		<tag k="name" v="Malmagrøn" />
		<tag k="place" v="locality" />
		<tag k="ssr:stedsnr" v="736788" />
	</node>
	<node id="-461713" lat="60.8521749974" lon="6.56417778628">
		<tag k="historic" v="shieling" />
		<tag k="name" v="Steinset" />
		<tag k="place" v="locality" />
		<tag k="ssr:stedsnr" v="190540" />
	</node>
	<node id="-462015" lat="60.6683361096" lon="6.63146943683">
		<tag k="historic" v="shieling" />
		<tag k="name" v="Liaset" />
		<tag k="place" v="locality" />
		<tag k="ssr:stedsnr" v="250983" />
	</node>
	<node id="-463755" lat="60.7991716565" lon="6.4541511245">
		<tag k="fixme" v="consider place=hamlet" />
		<tag k="name" v="Engjaland" />
		<tag k="place" v="farm" />
		<tag k="ssr:stedsnr" v="736518" />
	</node>
	<node id="-461706" lat="60.671133335" lon="6.76614999704">
		<tag k="name" v="Hegg" />
		<tag k="place" v="farm" />
		<tag k="ssr:stedsnr" v="189952" />
	</node>
	<node id="-461975" lat="60.5489014023" lon="6.46732829816">
		<tag k="fixme" v="consider place=hamlet" />
		<tag k="name" v="Jeraldstveiti" />
		<tag k="place" v="farm" />
		<tag k="ssr:stedsnr" v="249585" />
	</node>
	<node id="-463752" lat="60.8061999959" lon="6.31419443831">
		<tag k="name" v="Kvitanosstølen" />
		<tag k="place" v="isolated_dwelling" />
		<tag k="ssr:stedsnr" v="736505" />
	</node>
	<node id="-463751" lat="60.8217000034" lon="6.49544999684">
		<tag k="historic" v="shieling" />
		<tag k="name" v="Øvste Ulvundsstølen" />
		<tag k="place" v="locality" />
		<tag k="ssr:stedsnr" v="736502" />
	</node>
	<node id="-461700" lat="60.6286216699" lon="6.49444649118">
		<tag k="fixme" v="consider place=hamlet" />
		<tag k="name" v="Rene" />
		<tag k="place" v="farm" />
		<tag k="ssr:stedsnr" v="189698" />
	</node>
	<node id="-463745" lat="60.6733721164" lon="6.80940353926">
		<tag k="fixme" v="consider place=hamlet" />
		<tag k="name" v="Eggjareir" />
		<tag k="place" v="farm" />
		<tag k="ssr:stedsnr" v="735990" />
	</node>
	<node id="-461696" lat="60.5977585341" lon="6.4365950151">
		<tag k="fixme" v="consider place=hamlet" />
		<tag k="name" v="Dymbe" />
		<tag k="place" v="farm" />
		<tag k="ssr:stedsnr" v="189616" />
	</node>
	<node id="-461695" lat="60.6055194407" lon="6.58299999462">
		<tag k="name" v="Nedre Fenno" />
		<tag k="place" v="farm" />
		<tag k="ssr:stedsnr" v="189600" />
	</node>
	<node id="-461694" lat="60.6130747593" lon="6.52121872848">
		<tag k="fixme" v="consider place=hamlet" />
		<tag k="name" v="Grove" />
		<tag k="place" v="farm" />
		<tag k="ssr:stedsnr" v="189594" />
	</node>
	<node id="-463739" lat="60.6807883175" lon="6.74505838136">
		<tag k="fixme" v="consider place=hamlet" />
		<tag k="name" v="Reime" />
		<tag k="place" v="farm" />
		<tag k="ssr:stedsnr" v="735946" />
	</node>
	<node id="-463738" lat="60.6812877429" lon="6.58088786614">
		<tag k="fixme" v="consider place=hamlet" />
		<tag k="name" v="Urland" />
		<tag k="old_name" v="Urdland" />
		<tag k="place" v="farm" />
		<tag k="ssr:stedsnr" v="735940" />
	</node>
	<node id="-461689" lat="60.5561888919" lon="6.42126389282">
		<tag k="historic" v="shieling" />
		<tag k="name" v="Roksbotnen" />
		<tag k="place" v="locality" />
		<tag k="ssr:stedsnr" v="189543" />
	</node>
	<node id="-463735" lat="60.5751662336" lon="6.60625270589">
		<tag k="fixme" v="consider place=hamlet" />
		<tag k="name" v="Bulko" />
		<tag k="place" v="farm" />
		<tag k="ssr:stedsnr" v="735827" />
	</node>
	<node id="-463734" lat="60.5676166687" lon="6.62800555592">
		<tag k="historic" v="shieling" />
		<tag k="name" v="Lyklaset" />
		<tag k="place" v="locality" />
		<tag k="ssr:stedsnr" v="735806" />
	</node>
	<node id="-463733" lat="60.6083083341" lon="6.34381944178">
		<tag k="fixme" v="consider place=hamlet" />
		<tag k="name" v="Gossland" />
		<tag k="place" v="village" />
		<tag k="ssr:stedsnr" v="735735" />
	</node>
	<node id="-463732" lat="60.6200000034" lon="6.55943889744">
		<tag k="historic" v="shieling" />
		<tag k="name" v="Opelandsstølen" />
		<tag k="place" v="locality" />
		<tag k="ssr:stedsnr" v="735736" />
	</node>
	<node id="-463731" lat="60.6190094416" lon="6.54366822113">
		<tag k="fixme" v="consider place=hamlet" />
		<tag k="name" v="Stuvarjo" />
		<tag k="place" v="farm" />
		<tag k="ssr:stedsnr" v="735728" />
	</node>
	<node id="-461682" lat="60.5008083336" lon="6.46640832677">
		<tag k="historic" v="shieling" />
		<tag k="name" v="Løkjane" />
		<tag k="place" v="locality" />
		<tag k="ssr:stedsnr" v="189484" />
	</node>
	<node id="-463729" lat="60.5953572668" lon="6.55602975985">
		<tag k="fixme" v="consider place=hamlet" />
		<tag k="name" v="Dale" />
		<tag k="place" v="farm" />
		<tag k="ssr:stedsnr" v="735657" />
	</node>
	<node id="-463727" lat="60.6001027779" lon="6.35547500283">
		<tag k="name" v="Lydvateigen" />
		<tag k="place" v="farm" />
		<tag k="ssr:stedsnr" v="735636" />
	</node>
	<node id="-462123" lat="60.655944446" lon="6.3186583266">
		<tag k="historic" v="shieling" />
		<tag k="name" v="Sæves-Nyaset" />
		<tag k="place" v="locality" />
		<tag k="ssr:stedsnr" v="263945" />
	</node>
	<node id="-461677" lat="60.5627333374" lon="6.17561388028">
		<tag k="historic" v="shieling" />
		<tag k="name" v="Bjørndalen" />
		<tag k="place" v="locality" />
		<tag k="ssr:stedsnr" v="188879" />
	</node>
	<node id="-463724" lat="60.6081574064" lon="6.40068377545">
		<tag k="fixme" v="consider place=hamlet" />
		<tag k="name" v="Tyrlingen" />
		<tag k="place" v="farm" />
		<tag k="ssr:stedsnr" v="735612" />
	</node>
	<node id="-463718" lat="60.5510999999" lon="6.45618055201">
		<tag k="historic" v="shieling" />
		<tag k="name" v="Øvrestølen" />
		<tag k="place" v="locality" />
		<tag k="ssr:stedsnr" v="735585" />
	</node>
	<node id="-461669" lat="60.637418359" lon="6.47074238905">
		<tag k="name" v="Palmafossen" />
		<tag k="place" v="farm" />
		<tag k="ssr:stedsnr" v="188734" />
	</node>
	<node id="-463715" lat="60.5704614214" lon="6.45784497174">
		<tag k="name" v="Øvre Rjodo" />
		<tag k="place" v="farm" />
		<tag k="ssr:stedsnr" v="735570" />
	</node>
	<node id="-461665" lat="60.5772006052" lon="6.47282063674">
		<tag k="fixme" v="consider place=hamlet" />
		<tag k="name" v="Fære" />
		<tag k="place" v="farm" />
		<tag k="ssr:stedsnr" v="188620" />
	</node>
	<node id="-463708" lat="60.5466388861" lon="6.11579999773">
		<tag k="alt_name" v="Hamlagrø, nordre" />
		<tag k="historic" v="shieling" />
		<tag k="name" v="Nordre Hamlagrø" />
		<tag k="place" v="locality" />
		<tag k="ssr:stedsnr" v="734833" />
	</node>
	<node id="-461658" lat="60.7025436979" lon="6.11276396128">
		<tag k="fixme" v="consider place=hamlet" />
		<tag k="name" v="Sevaldstad" />
		<tag k="place" v="farm" />
		<tag k="ssr:stedsnr" v="188514" />
	</node>
	<node id="-463705" lat="60.6267210335" lon="6.37925641918">
		<tag k="fixme" v="consider place=hamlet" />
		<tag k="name" v="Bauthus" />
		<tag k="place" v="farm" />
		<tag k="ssr:stedsnr" v="734726" />
	</node>
	<node id="-463702" lat="60.6369809625" lon="6.31444489777">
		<tag k="fixme" v="consider place=hamlet" />
		<tag k="name" v="Sæve" />
		<tag k="place" v="farm" />
		<tag k="ssr:stedsnr" v="734710" />
	</node>
	<node id="-463701" lat="60.6331484297" lon="6.2729831272">
		<tag k="fixme" v="consider place=hamlet" />
		<tag k="name" v="Haga" />
		<tag k="place" v="farm" />
		<tag k="ssr:stedsnr" v="734707" />
	</node>
	<node id="-461651" lat="60.7024083323" lon="6.56196110364">
		<tag k="historic" v="shieling" />
		<tag k="name" v="Fjosstølen" />
		<tag k="place" v="locality" />
		<tag k="ssr:stedsnr" v="188352" />
	</node>
	<node id="-461624" lat="60.6511388894" lon="6.11293332471">
		<tag k="name" v="Stigen" />
		<tag k="place" v="farm" />
		<tag k="ssr:stedsnr" v="188104" />
	</node>
	<node id="-461646" lat="60.73574584" lon="6.15276706631">
		<tag k="fixme" v="consider place=hamlet" />
		<tag k="name" v="Århus" />
		<tag k="place" v="farm" />
		<tag k="ssr:stedsnr" v="188415" />
	</node>
	<node id="-461645" lat="60.7468638908" lon="6.16888889622">
		<tag k="name" v="Horgaset" />
		<tag k="place" v="locality" />
		<tag k="ssr:stedsnr" v="188412" />
	</node>
	<node id="-461644" lat="60.7478500016" lon="6.41133889491">
		<tag k="historic" v="shieling" />
		<tag k="name" v="Tjørni" />
		<tag k="place" v="locality" />
		<tag k="ssr:stedsnr" v="188405" />
	</node>
	<node id="-463690" lat="60.7415555562" lon="6.21423054684">
		<tag k="alt_name" v="Bjørndalsstølen, inste" />
		<tag k="historic" v="shieling" />
		<tag k="loc_name" v="Inste Bjørndalen" />
		<tag k="name" v="Inste Bjørndalsstølen" />
		<tag k="place" v="locality" />
		<tag k="ssr:stedsnr" v="734419" />
	</node>
	<node id="-461638" lat="60.6661518524" lon="6.51361262413">
		<tag k="fixme" v="consider place=hamlet" />
		<tag k="name" v="Repål" />
		<tag k="place" v="farm" />
		<tag k="ssr:stedsnr" v="188310" />
	</node>
	<node id="-460257" lat="60.6194754919" lon="6.22233392163">
		<tag k="fixme" v="consider place=hamlet" />
		<tag k="name" v="Ukvitno" />
		<tag k="place" v="farm" />
		<tag k="ssr:stedsnr" v="370164" />
	</node>
	<node id="-461636" lat="60.6441555593" lon="6.48290834208">
		<tag k="fixme" v="consider place=hamlet" />
		<tag k="name" v="Kvåle" />
		<tag k="place" v="farm" />
		<tag k="ssr:stedsnr" v="188282" />
	</node>
	<node id="-463683" lat="60.7155566971" lon="6.50217299822">
		<tag k="fixme" v="consider place=hamlet" />
		<tag k="name" v="Hefte" />
		<tag k="place" v="farm" />
		<tag k="ssr:stedsnr" v="734373" />
	</node>
	<node id="-461634" lat="60.6170027804" lon="6.17974444488">
		<tag k="name" v="Trænsli" />
		<tag k="place" v="farm" />
		<tag k="ssr:stedsnr" v="188198" />
	</node>
	<node id="-460105" lat="60.6420780284" lon="6.49109048782">
		<tag k="name" v="Bø" />
		<tag k="place" v="farm" />
		<tag k="ssr:stedsnr" v="324779" />
	</node>
	<node id="-463679" lat="60.6439613328" lon="6.22490811957">
		<tag k="fixme" v="consider place=hamlet" />
		<tag k="name" v="Oppheim" />
		<tag k="place" v="farm" />
		<tag k="ssr:stedsnr" v="734299" />
	</node>
	<node id="-463678" lat="60.6409749934" lon="6.24279697909">
		<tag k="fixme" v="consider place=hamlet" />
		<tag k="name" v="Lissheim" />
		<tag k="place" v="farm" />
		<tag k="ssr:stedsnr" v="734296" />
	</node>
	<node id="-463677" lat="60.6567666641" lon="6.56243054829">
		<tag k="historic" v="shieling" />
		<tag k="name" v="Grettestølen" />
		<tag k="place" v="locality" />
		<tag k="ssr:stedsnr" v="734293" />
	</node>
	<node id="-461626" lat="60.6362777742" lon="5.95569999195">
		<tag k="name" v="Flåti" />
		<tag k="place" v="farm" />
		<tag k="ssr:stedsnr" v="188110" />
	</node>
	<node id="-461625" lat="60.6483872883" lon="6.08006790221">
		<tag k="fixme" v="consider place=hamlet" />
		<tag k="name" v="Hernes" />
		<tag k="place" v="farm" />
		<tag k="ssr:stedsnr" v="188106" />
	</node>
	<node id="-463672" lat="60.6133611119" lon="5.93925277944">
		<tag k="name" v="Mork" />
		<tag k="place" v="isolated_dwelling" />
		<tag k="ssr:stedsnr" v="734224" />
	</node>
	<node id="-462462" lat="60.688872682" lon="5.96964227815">
		<tag k="fixme" v="consider place=hamlet" />
		<tag k="name" v="Øvstedalen" />
		<tag k="place" v="farm" />
		<tag k="ssr:stedsnr" v="491490" />
	</node>
	<node id="-461615" lat="60.5335305562" lon="6.0756888844">
		<tag k="name" v="Solhaug" />
		<tag k="place" v="isolated_dwelling" />
		<tag k="ssr:stedsnr" v="180012" />
	</node>
	<node id="-463325" lat="60.771077774" lon="6.56296388543">
		<tag k="name" v="Harrybu" />
		<tag k="place" v="isolated_dwelling" />
		<tag k="ssr:stedsnr" v="665023" />
	</node>
	<node id="-463659" lat="60.6633861139" lon="6.11680000483">
		<tag k="historic" v="shieling" />
		<tag k="name" v="Styvesstølen" />
		<tag k="place" v="locality" />
		<tag k="ssr:stedsnr" v="734037" />
	</node>
	<node id="-463658" lat="60.6722944408" lon="6.1849500004">
		<tag k="historic" v="shieling" />
		<tag k="name" v="Steinestølen" />
		<tag k="place" v="locality" />
		<tag k="ssr:stedsnr" v="734017" />
	</node>
	<node id="-463657" lat="60.6735444431" lon="5.92616944575">
		<tag k="historic" v="shieling" />
		<tag k="name" v="Aldalstølen" />
		<tag k="place" v="locality" />
		<tag k="ssr:stedsnr" v="734002" />
	</node>
	<node id="-463639" lat="60.5912805548" lon="6.41793333395">
		<tag k="name" v="Rosethytta" />
		<tag k="place" v="isolated_dwelling" />
		<tag k="ssr:stedsnr" v="713646" />
	</node>
	<node id="-462297" lat="60.6148516311" lon="6.50343407727">
		<tag k="fixme" v="consider place=hamlet" />
		<tag k="name" v="Midtre Skutle" />
		<tag k="place" v="farm" />
		<tag k="ssr:stedsnr" v="445817" />
	</node>
	<node id="-461588" lat="60.7065638899" lon="6.5708305515">
		<tag k="name" v="Dyrgard" />
		<tag k="place" v="farm" />
		<tag k="ssr:stedsnr" v="167454" />
	</node>
	<node id="-462638" lat="60.6287138848" lon="6.51008056073">
		<tag k="name" v="Takla" />
		<tag k="place" v="farm" />
		<tag k="ssr:stedsnr" v="506776" />
	</node>
	<node id="-463633" lat="60.6283833359" lon="6.42461665847">
		<tag k="name" v="Lekvemoen" />
		<tag k="place" v="farm" />
		<tag k="ssr:stedsnr" v="713562" />
	</node>
	<node id="-464344" lat="60.5147805536" lon="6.55857221892">
		<tag k="historic" v="shieling" />
		<tag k="name" v="Allmenningane" />
		<tag k="place" v="locality" />
		<tag k="ssr:stedsnr" v="857532" />
	</node>
	<node id="-463630" lat="60.6151750015" lon="6.41973610909">
		<tag k="amenity" v="school" />
		<tag k="name" v="Gjernes skule" />
		<tag k="ssr:stedsnr" v="713544" />
	</node>
	<node id="-460589" lat="60.6820027792" lon="6.61717500822">
		<tag k="name" v="Ljostreet" />
		<tag k="place" v="farm" />
		<tag k="ssr:stedsnr" v="895317" />
	</node>
	<node id="-463622" lat="60.6823750002" lon="6.55942777726">
		<tag k="historic" v="shieling" />
		<tag k="name" v="Klyvsstølen" />
		<tag k="place" v="locality" />
		<tag k="ssr:stedsnr" v="713404" />
	</node>
	<node id="-461573" lat="60.899069448" lon="6.49923888332">
		<tag k="name" v="Bjørndalen" />
		<tag k="place" v="farm" />
		<tag k="ssr:stedsnr" v="167226" />
	</node>
	<node id="-460248" lat="60.6634419151" lon="6.18430800045">
		<tag k="fixme" v="consider place=hamlet" />
		<tag k="name" v="Steine" />
		<tag k="place" v="farm" />
		<tag k="ssr:stedsnr" v="370073" />
	</node>
	<node id="-461568" lat="60.6800666669" lon="6.71646389178">
		<tag k="name" v="Slåtta" />
		<tag k="place" v="isolated_dwelling" />
		<tag k="ssr:stedsnr" v="167128" />
	</node>
	<node id="-460005" lat="60.6227672555" lon="6.28135173581">
		<tag k="fixme" v="consider place=hamlet" />
		<tag k="name" v="Grimastad" />
		<tag k="place" v="farm" />
		<tag k="ssr:stedsnr" v="310736" />
	</node>
	<node id="-461553" lat="60.626977782" lon="6.42661110957">
		<tag k="amenity" v="school" />
		<tag k="name" v="Voss gymnas" />
		<tag k="ssr:stedsnr" v="166860" />
	</node>
	<node id="-461550" lat="60.7187916623" lon="6.49391667077">
		<tag k="name" v="Moheim" />
		<tag k="place" v="farm" />
		<tag k="ssr:stedsnr" v="166706" />
	</node>
	<node id="-460482" lat="60.6379239003" lon="6.41730419876">
		<tag k="fixme" v="consider place=hamlet" />
		<tag k="name" v="Lekve" />
		<tag k="place" v="farm" />
		<tag k="ssr:stedsnr" v="409468" />
	</node>
	<node id="-461948" lat="60.6416963497" lon="6.31923286386">
		<tag k="fixme" v="consider place=hamlet" />
		<tag k="name" v="Giljarhus" />
		<tag k="place" v="farm" />
		<tag k="ssr:stedsnr" v="249234" />
	</node>
	<node id="-460241" lat="60.4872805561" lon="6.47509166573">
		<tag k="alt_name" v="Grunganestølen" />
		<tag k="historic" v="shieling" />
		<tag k="name" v="Grungane" />
		<tag k="place" v="locality" />
		<tag k="ssr:stedsnr" v="369751" />
	</node>
	<node id="-463584" lat="60.7588750024" lon="6.58125000632">
		<tag k="historic" v="shieling" />
		<tag k="name" v="Markhusstølen" />
		<tag k="place" v="locality" />
		<tag k="ssr:stedsnr" v="712931" />
	</node>
	<node id="-461709" lat="60.6699444412" lon="6.61359722312">
		<tag k="historic" v="shieling" />
		<tag k="name" v="Lindbergsstølen" />
		<tag k="place" v="locality" />
		<tag k="ssr:stedsnr" v="189983" />
	</node>
	<node id="-461095" lat="60.8450646269" lon="6.47141946404">
		<tag k="fixme" v="consider place=hamlet" />
		<tag k="name" v="Helgeland" />
		<tag k="place" v="farm" />
		<tag k="ssr:stedsnr" v="69589" />
	</node>
	<node id="-461522" lat="60.5477972195" lon="6.11264444566">
		<tag k="historic" v="shieling" />
		<tag k="name" v="Hamlagrø" />
		<tag k="place" v="locality" />
		<tag k="ssr:stedsnr" v="166063" />
	</node>
	<node id="-461317" lat="60.6613944446" lon="6.10573611725">
		<tag k="name" v="Styvestræet" />
		<tag k="place" v="farm" />
		<tag k="ssr:stedsnr" v="127039" />
	</node>
	<node id="-463567" lat="60.6643000041" lon="6.56446666692">
		<tag k="name" v="Mæringabrukane" />
		<tag k="place" v="farm" />
		<tag k="ssr:stedsnr" v="712290" />
	</node>
	<node id="-462254" lat="60.8237882608" lon="6.69256390363">
		<tag k="fixme" v="consider place=hamlet" />
		<tag k="name" v="Fyre" />
		<tag k="place" v="farm" />
		<tag k="ssr:stedsnr" v="434749" />
	</node>
	<node id="-464027" lat="60.6445555585" lon="6.48704999116">
		<tag k="fixme" v="consider place=hamlet" />
		<tag k="name" v="Tjukkebygdi" />
		<tag k="place" v="village" />
		<tag k="ssr:stedsnr" v="795709" />
	</node>
	<node id="-463560" lat="60.627108336" lon="6.39947777701">
		<tag k="name" v="Svartenakken" />
		<tag k="place" v="farm" />
		<tag k="ssr:stedsnr" v="704229" />
	</node>
	<node id="-463559" lat="60.6772500012" lon="6.75506944976">
		<tag k="name" v="Hegg" />
		<tag k="place" v="farm" />
		<tag k="ssr:stedsnr" v="693589" />
	</node>
	<node id="-461501" lat="60.6711357179" lon="6.51263303382">
		<tag k="name" v="Øvre Kyte" />
		<tag k="place" v="farm" />
		<tag k="ssr:stedsnr" v="142782" />
	</node>
	<node id="-461500" lat="60.672805443" lon="6.45434734048">
		<tag k="name" v="Nordrekvål" />
		<tag k="place" v="farm" />
		<tag k="ssr:stedsnr" v="142778" />
	</node>
	<node id="-461499" lat="60.6923777751" lon="6.12706665967">
		<tag k="historic" v="shieling" />
		<tag k="name" v="Teina" />
		<tag k="place" v="locality" />
		<tag k="ssr:stedsnr" v="142754" />
	</node>
	<node id="-461498" lat="60.5984654638" lon="6.0086501176">
		<tag k="historic" v="shieling" />
		<tag k="name" v="Røyrbakkestølen" />
		<tag k="place" v="locality" />
		<tag k="ssr:stedsnr" v="142642" />
	</node>
	<node id="-461435" lat="60.7699123237" lon="6.47755500968">
		<tag k="fixme" v="consider place=hamlet" />
		<tag k="name" v="Brattholo" />
		<tag k="place" v="farm" />
		<tag k="ssr:stedsnr" v="130955" />
	</node>
	<node id="-463543" lat="60.6246750038" lon="5.96817777494">
		<tag k="historic" v="shieling" />
		<tag k="name" v="Mjølstølen" />
		<tag k="place" v="locality" />
		<tag k="ssr:stedsnr" v="688845" />
	</node>
	<node id="-463542" lat="60.6262333325" lon="5.93976943704">
		<tag k="historic" v="shieling" />
		<tag k="name" v="Vetlestølen" />
		<tag k="place" v="locality" />
		<tag k="ssr:stedsnr" v="688842" />
	</node>
	<node id="-463541" lat="60.6132434083" lon="6.50507286385">
		<tag k="fixme" v="consider place=hamlet" />
		<tag k="name" v="Nedre Skutle" />
		<tag k="place" v="farm" />
		<tag k="ssr:stedsnr" v="688814" />
	</node>
	<node id="-463540" lat="60.6093101006" lon="6.43380441265">
		<tag k="fixme" v="consider place=hamlet" />
		<tag k="name" v="Store Rokne" />
		<tag k="place" v="farm" />
		<tag k="ssr:stedsnr" v="688812" />
	</node>
	<node id="-463539" lat="60.651636641" lon="6.52201004045">
		<tag k="name" v="Nedre Graue" />
		<tag k="place" v="farm" />
		<tag k="ssr:stedsnr" v="688802" />
	</node>
	<node id="-463538" lat="60.6284368049" lon="6.50781541187">
		<tag k="fixme" v="consider place=hamlet" />
		<tag k="name" v="Ytre Takla" />
		<tag k="place" v="farm" />
		<tag k="ssr:stedsnr" v="688794" />
	</node>
	<node id="-463537" lat="60.679739065" lon="6.5870226966">
		<tag k="fixme" v="consider place=hamlet" />
		<tag k="name" v="Vetle Grove" />
		<tag k="place" v="farm" />
		<tag k="ssr:stedsnr" v="688774" />
	</node>
	<node id="-460445" lat="60.7023166698" lon="6.92655556062">
		<tag k="fixme" v="consider place=hamlet" />
		<tag k="name" v="Kleivane" />
		<tag k="place" v="farm" />
		<tag k="ssr:stedsnr" v="391191" />
	</node>
	<node id="-462279" lat="60.8036749977" lon="6.56986943905">
		<tag k="historic" v="shieling" />
		<tag k="name" v="Tveiti" />
		<tag k="place" v="locality" />
		<tag k="ssr:stedsnr" v="445375" />
	</node>
	<node id="-461980" lat="60.6136595758" lon="6.50637979295">
		<tag k="name" v="Skutle" />
		<tag k="place" v="hamlet" />
		<tag k="ssr:stedsnr" v="249627" />
	</node>
	<node id="-463520" lat="60.6971749966" lon="6.84254721775">
		<tag k="historic" v="shieling" />
		<tag k="name" v="Klyvsstølen" />
		<tag k="place" v="locality" />
		<tag k="ssr:stedsnr" v="688653" />
	</node>
	<node id="-460002" lat="60.64263056" lon="6.48538889735">
		<tag k="name" v="Melve" />
		<tag k="place" v="farm" />
		<tag k="ssr:stedsnr" v="310707" />
	</node>
	<node id="-461467" lat="60.5988754274" lon="6.44876624023">
		<tag k="fixme" v="consider place=hamlet" />
		<tag k="name" v="Nedre Himle" />
		<tag k="place" v="farm" />
		<tag k="ssr:stedsnr" v="141794" />
	</node>
	<node id="-461466" lat="60.6267583306" lon="6.43736666917">
		<tag k="name" v="Nedre Haugo" />
		<tag k="place" v="farm" />
		<tag k="ssr:stedsnr" v="141766" />
	</node>
	<node id="-463513" lat="60.8461027746" lon="6.47590278271">
		<tag k="name" v="Myri" />
		<tag k="place" v="farm" />
		<tag k="ssr:stedsnr" v="688361" />
	</node>
	<node id="-463506" lat="60.8039611137" lon="6.60418889698">
		<tag k="historic" v="shieling" />
		<tag k="name" v="Velle" />
		<tag k="place" v="locality" />
		<tag k="ssr:stedsnr" v="688277" />
	</node>
	<node id="-463500" lat="60.7876443951" lon="6.48905129586">
		<tag k="fixme" v="consider place=hamlet" />
		<tag k="name" v="Ytre Sundve" />
		<tag k="place" v="farm" />
		<tag k="ssr:stedsnr" v="688256" />
	</node>
	<node id="-461451" lat="60.7922638884" lon="6.56865833048">
		<tag k="fixme" v="consider place=hamlet" />
		<tag k="name" v="Oppheimsvangen" />
		<tag k="place" v="farm" />
		<tag k="ssr:stedsnr" v="141147" />
	</node>
	<node id="-463494" lat="60.6266166703" lon="6.2290722208">
		<tag k="historic" v="shieling" />
		<tag k="name" v="Øvre" />
		<tag k="place" v="locality" />
		<tag k="ssr:stedsnr" v="688225" />
	</node>
	<node id="-463492" lat="60.7224702372" lon="6.47487816907">
		<tag k="fixme" v="consider place=hamlet" />
		<tag k="name" v="Indre Afdal" />
		<tag k="place" v="farm" />
		<tag k="ssr:stedsnr" v="688216" />
	</node>
	<node id="-460001" lat="60.6360666639" lon="6.34471944987">
		<tag k="historic" v="shieling" />
		<tag k="name" v="Bjørnavad" />
		<tag k="place" v="locality" />
		<tag k="ssr:stedsnr" v="310705" />
	</node>
	<node id="-463486" lat="60.8683805545" lon="6.4946388967">
		<tag k="historic" v="shieling" />
		<tag k="name" v="Nyestølen" />
		<tag k="place" v="locality" />
		<tag k="ssr:stedsnr" v="688181" />
	</node>
	<node id="-463637" lat="60.6064444455" lon="6.43546666198">
		<tag k="name" v="Rokne" />
		<tag k="place" v="farm" />
		<tag k="ssr:stedsnr" v="713641" />
	</node>
	<node id="-461436" lat="60.7847277758" lon="6.56456944268">
		<tag k="name" v="Framnes" />
		<tag k="place" v="farm" />
		<tag k="ssr:stedsnr" v="130974" />
	</node>
	<node id="-461930" lat="60.6266742648" lon="6.39136514695">
		<tag k="fixme" v="consider place=hamlet" />
		<tag k="name" v="Seim" />
		<tag k="place" v="farm" />
		<tag k="ssr:stedsnr" v="248740" />
	</node>
	<node id="-461434" lat="60.7700250014" lon="6.54945556078">
		<tag k="historic" v="shieling" />
		<tag k="name" v="Øyjordsstølen" />
		<tag k="place" v="locality" />
		<tag k="ssr:stedsnr" v="130950" />
	</node>
	<node id="-461433" lat="60.7673416657" lon="6.57913889332">
		<tag k="historic" v="shieling" />
		<tag k="name" v="Furestølen" />
		<tag k="place" v="locality" />
		<tag k="ssr:stedsnr" v="130941" />
	</node>
	<node id="-461430" lat="60.8476444489" lon="6.71141388872">
		<tag k="alt_name" v="Nåla" />
		<tag k="name" v="Nåli" />
		<tag k="place" v="locality" />
		<tag k="ssr:stedsnr" v="130757" />
	</node>
	<node id="-461428" lat="60.8185805526" lon="6.68421110782">
		<tag k="name" v="Kleivastølen" />
		<tag k="place" v="locality" />
		<tag k="ssr:stedsnr" v="130748" />
	</node>
	<node id="-461420" lat="60.8491157108" lon="6.4805141462">
		<tag k="fixme" v="consider place=hamlet" />
		<tag k="name" v="Bystølen" />
		<tag k="place" v="farm" />
		<tag k="ssr:stedsnr" v="130514" />
	</node>
	<node id="-461419" lat="60.751798796" lon="6.50274308274">
		<tag k="fixme" v="consider place=hamlet" />
		<tag k="name" v="Skogstad" />
		<tag k="place" v="farm" />
		<tag k="ssr:stedsnr" v="129933" />
	</node>
	<node id="-461416" lat="60.8854166632" lon="6.6547611051">
		<tag k="historic" v="shieling" />
		<tag k="name" v="Kinnarbakken" />
		<tag k="place" v="locality" />
		<tag k="ssr:stedsnr" v="129826" />
	</node>
	<node id="-461415" lat="60.7891500036" lon="6.44871388635">
		<tag k="name" v="Breiaset" />
		<tag k="place" v="locality" />
		<tag k="ssr:stedsnr" v="129998" />
	</node>
	<node id="-461414" lat="60.7916416623" lon="6.56582138479">
		<tag k="fixme" v="consider place=hamlet" />
		<tag k="name" v="Sundsvål" />
		<tag k="place" v="farm" />
		<tag k="ssr:stedsnr" v="129986" />
	</node>
	<node id="-461926" lat="60.7200748741" lon="6.12832307571">
		<tag k="fixme" v="consider place=hamlet" />
		<tag k="name" v="Langeland" />
		<tag k="place" v="farm" />
		<tag k="ssr:stedsnr" v="248417" />
	</node>
	<node id="-463458" lat="60.7753322316" lon="6.43755781297">
		<tag k="fixme" v="consider place=hamlet" />
		<tag k="name" v="Fjeli" />
		<tag k="place" v="farm" />
		<tag k="ssr:stedsnr" v="676974" />
	</node>
	<node id="-462455" lat="60.7335361071" lon="6.18556945244">
		<tag k="historic" v="shieling" />
		<tag k="name" v="Teiten" />
		<tag k="place" v="locality" />
		<tag k="ssr:stedsnr" v="491416" />
	</node>
	<node id="-463454" lat="60.7700123436" lon="6.45309659865">
		<tag k="fixme" v="consider place=hamlet" />
		<tag k="name" v="Arnetveit" />
		<tag k="place" v="farm" />
		<tag k="ssr:stedsnr" v="676960" />
	</node>
	<node id="-463973" lat="60.6574999995" lon="6.09998888996">
		<tag k="name" v="Haugen" />
		<tag k="place" v="farm" />
		<tag k="ssr:stedsnr" v="795056" />
	</node>
	<node id="-463451" lat="60.8472527789" lon="6.87683889677">
		<tag k="historic" v="shieling" />
		<tag k="name" v="Fyresstølen" />
		<tag k="place" v="locality" />
		<tag k="ssr:stedsnr" v="676798" />
	</node>
	<node id="-461583" lat="60.7567472199" lon="6.57180000703">
		<tag k="historic" v="shieling" />
		<tag k="name" v="Tuftestølen" />
		<tag k="place" v="locality" />
		<tag k="ssr:stedsnr" v="167353" />
	</node>
	<node id="-463448" lat="60.8539750034" lon="6.44200277555">
		<tag k="historic" v="shieling" />
		<tag k="name" v="Myrkvesstølen" />
		<tag k="place" v="locality" />
		<tag k="ssr:stedsnr" v="676586" />
	</node>
	<node id="-461399" lat="60.6815461864" lon="6.6293596616">
		<tag k="fixme" v="consider place=hamlet" />
		<tag k="name" v="Li" />
		<tag k="place" v="farm" />
		<tag k="ssr:stedsnr" v="128953" />
	</node>
	<node id="-463446" lat="60.8445675367" lon="6.46959358013">
		<tag k="fixme" v="consider place=hamlet" />
		<tag k="name" v="Myrland" />
		<tag k="place" v="farm" />
		<tag k="ssr:stedsnr" v="676554" />
	</node>
	<node id="-463444" lat="60.7974130939" lon="6.54873859758">
		<tag k="fixme" v="consider place=hamlet" />
		<tag k="name" v="Finne" />
		<tag k="place" v="farm" />
		<tag k="ssr:stedsnr" v="676538" />
	</node>
	<node id="-461394" lat="60.621879663" lon="6.33370201185">
		<tag k="name" v="Honve" />
		<tag k="place" v="hamlet" />
		<tag k="ssr:stedsnr" v="128719" />
	</node>
	<node id="-461393" lat="60.5858194447" lon="6.57366111121">
		<tag k="historic" v="shieling" />
		<tag k="name" v="Gulset" />
		<tag k="place" v="locality" />
		<tag k="ssr:stedsnr" v="128665" />
	</node>
	<node id="-463439" lat="60.7923149793" lon="6.61973528913">
		<tag k="fixme" v="consider place=hamlet" />
		<tag k="name" v="Selland" />
		<tag k="place" v="farm" />
		<tag k="ssr:stedsnr" v="675806" />
	</node>
	<node id="-461390" lat="60.5577055514" lon="6.56422221407">
		<tag k="historic" v="shieling" />
		<tag k="name" v="Byrset" />
		<tag k="place" v="locality" />
		<tag k="ssr:stedsnr" v="128592" />
	</node>
	<node id="-461581" lat="60.6838361134" lon="6.60545833243">
		<tag k="name" v="Skorset" />
		<tag k="place" v="farm" />
		<tag k="ssr:stedsnr" v="167342" />
	</node>
	<node id="-463436" lat="60.5876499998" lon="6.55328889582">
		<tag k="name" v="Helgaset" />
		<tag k="place" v="farm" />
		<tag k="ssr:stedsnr" v="675706" />
	</node>
	<node id="-463433" lat="60.5854711893" lon="6.46132717639">
		<tag k="fixme" v="consider place=hamlet" />
		<tag k="name" v="Helland" />
		<tag k="place" v="farm" />
		<tag k="ssr:stedsnr" v="675693" />
	</node>
	<node id="-461384" lat="60.5621833314" lon="6.45467221928">
		<tag k="historic" v="shieling" />
		<tag k="name" v="Kjennstølen" />
		<tag k="place" v="locality" />
		<tag k="ssr:stedsnr" v="128571" />
	</node>
	<node id="-463430" lat="60.5083499987" lon="6.4704833252">
		<tag k="historic" v="shieling" />
		<tag k="name" v="Haugamoen" />
		<tag k="place" v="locality" />
		<tag k="ssr:stedsnr" v="675534" />
	</node>
	<node id="-461381" lat="60.5909178155" lon="6.46514054176">
		<tag k="fixme" v="consider place=hamlet" />
		<tag k="name" v="Haug" />
		<tag k="place" v="farm" />
		<tag k="ssr:stedsnr" v="128630" />
	</node>
	<node id="-463428" lat="60.8296305557" lon="6.43947222887">
		<tag k="name" v="Tveitastølen" />
		<tag k="place" v="farm" />
		<tag k="ssr:stedsnr" v="675520" />
	</node>
	<node id="-463427" lat="60.6664638922" lon="6.77468055064">
		<tag k="historic" v="shieling" />
		<tag k="name" v="Vetlaheggstølen" />
		<tag k="place" v="locality" />
		<tag k="ssr:stedsnr" v="674998" />
	</node>
	<node id="-463423" lat="60.6770421534" lon="6.81917009492">
		<tag k="fixme" v="consider place=hamlet" />
		<tag k="name" v="Hagen" />
		<tag k="place" v="farm" />
		<tag k="ssr:stedsnr" v="674942" />
	</node>
	<node id="-463422" lat="60.6811005718" lon="6.63682103088">
		<tag k="fixme" v="consider place=hamlet" />
		<tag k="name" v="Kvåle" />
		<tag k="place" v="farm" />
		<tag k="ssr:stedsnr" v="674926" />
	</node>
	<node id="-463419" lat="60.6218552525" lon="6.54044517316">
		<tag k="fixme" v="consider place=hamlet" />
		<tag k="name" v="Veiso" />
		<tag k="place" v="farm" />
		<tag k="ssr:stedsnr" v="674750" />
	</node>
	<node id="-463418" lat="60.6208871948" lon="6.51583442409">
		<tag k="fixme" v="consider place=hamlet" />
		<tag k="name" v="Vivås" />
		<tag k="place" v="farm" />
		<tag k="ssr:stedsnr" v="674747" />
	</node>
	<node id="-463417" lat="60.6199989049" lon="6.28380195187">
		<tag k="name" v="Saue" />
		<tag k="place" v="hamlet" />
		<tag k="ssr:stedsnr" v="674740" />
	</node>
	<node id="-463416" lat="60.6279268657" lon="6.52860656627">
		<tag k="name" v="Mønshaugen" />
		<tag k="place" v="farm" />
		<tag k="ssr:stedsnr" v="674735" />
	</node>
	<node id="-463415" lat="60.6345020587" lon="6.32369769293">
		<tag k="fixme" v="consider place=hamlet" />
		<tag k="name" v="Gjerme" />
		<tag k="place" v="farm" />
		<tag k="ssr:stedsnr" v="674708" />
	</node>
	<node id="-463414" lat="60.6502938678" lon="6.53555238824">
		<tag k="fixme" v="consider place=hamlet" />
		<tag k="name" v="Tundal" />
		<tag k="place" v="farm" />
		<tag k="ssr:stedsnr" v="674693" />
	</node>
	<node id="-461365" lat="60.6946216933" lon="6.11703261097">
		<tag k="fixme" v="consider place=hamlet" />
		<tag k="name" v="To" />
		<tag k="place" v="farm" />
		<tag k="ssr:stedsnr" v="127525" />
	</node>
	<node id="-463412" lat="60.5913059037" lon="6.46967421318">
		<tag k="fixme" v="consider place=hamlet" />
		<tag k="name" v="Litlere" />
		<tag k="place" v="farm" />
		<tag k="ssr:stedsnr" v="674661" />
	</node>
	<node id="-461362" lat="60.7024194432" lon="5.97486666256">
		<tag k="historic" v="shieling" />
		<tag k="name" v="Øykholmane" />
		<tag k="place" v="locality" />
		<tag k="ssr:stedsnr" v="127498" />
	</node>
	<node id="-461358" lat="60.7392944418" lon="6.30555000383">
		<tag k="fixme" v="consider tourism=alpine_hut or tourism=chalet" />
		<tag k="name" v="Volahytta" />
		<tag k="ssr:stedsnr" v="127391" />
		<tag k="tourism" v="wilderness_hut" />
	</node>
	<node id="-463405" lat="60.5792750011" lon="6.51129167306">
		<tag k="historic" v="shieling" />
		<tag k="name" v="Otledalen" />
		<tag k="place" v="locality" />
		<tag k="ssr:stedsnr" v="674572" />
	</node>
	<node id="-461355" lat="60.736797219" lon="6.36458610297">
		<tag k="fixme" v="consider tourism=alpine_hut or tourism=chalet" />
		<tag k="name" v="Tvinnestølen" />
		<tag k="ssr:stedsnr" v="127382" />
		<tag k="tourism" v="wilderness_hut" />
	</node>
	<node id="-463402" lat="60.5615527799" lon="6.24295000444">
		<tag k="fixme" v="consider tourism=alpine_hut or tourism=chalet" />
		<tag k="name" v="Torfinnsheim" />
		<tag k="old_name" v="Torfinnsheim th" />
		<tag k="ssr:stedsnr" v="674563" />
		<tag k="tourism" v="wilderness_hut" />
	</node>
	<node id="-461353" lat="60.7333916692" lon="6.12761667031">
		<tag k="name" v="Lii" />
		<tag k="place" v="farm" />
		<tag k="ssr:stedsnr" v="127447" />
	</node>
	<node id="-461351" lat="60.6913102976" lon="6.46414180139">
		<tag k="fixme" v="consider place=hamlet" />
		<tag k="name" v="Staup" />
		<tag k="place" v="farm" />
		<tag k="ssr:stedsnr" v="127343" />
	</node>
	<node id="-461350" lat="60.6769884027" lon="6.48215858082">
		<tag k="fixme" v="consider place=hamlet" />
		<tag k="name" v="Hegle" />
		<tag k="place" v="farm" />
		<tag k="ssr:stedsnr" v="127326" />
	</node>
	<node id="-461349" lat="60.6609388856" lon="6.30545555478">
		<tag k="historic" v="shieling" />
		<tag k="name" v="Tunnaset" />
		<tag k="place" v="locality" />
		<tag k="ssr:stedsnr" v="127321" />
	</node>
	<node id="-461346" lat="60.6613055525" lon="6.42306944663">
		<tag k="fixme" v="consider place=hamlet" />
		<tag k="name" v="Grevle" />
		<tag k="place" v="farm" />
		<tag k="ssr:stedsnr" v="127310" />
	</node>
	<node id="-461345" lat="60.6547388915" lon="6.32305277703">
		<tag k="historic" v="shieling" />
		<tag k="name" v="Buneld" />
		<tag k="place" v="locality" />
		<tag k="ssr:stedsnr" v="127305" />
	</node>
	<node id="-461342" lat="60.6145250019" lon="6.07924445311">
		<tag k="historic" v="shieling" />
		<tag k="name" v="Vossedalstølen" />
		<tag k="place" v="locality" />
		<tag k="ssr:stedsnr" v="127237" />
	</node>
	<node id="-463388" lat="60.7051416655" lon="6.47819444726">
		<tag k="fixme" v="consider place=hamlet" />
		<tag k="name" v="Høyland" />
		<tag k="place" v="farm" />
		<tag k="ssr:stedsnr" v="674313" />
	</node>
	<node id="-461914" lat="60.6034027789" lon="6.59112778182">
		<tag k="name" v="Fenno" />
		<tag k="place" v="hamlet" />
		<tag k="ssr:stedsnr" v="242706" />
	</node>
	<node id="-463385" lat="60.6846621885" lon="6.49251262798">
		<tag k="fixme" v="consider place=hamlet" />
		<tag k="name" v="Nedkvitno" />
		<tag k="place" v="farm" />
		<tag k="ssr:stedsnr" v="674294" />
	</node>
	<node id="-463384" lat="60.6694584314" lon="6.51164317041">
		<tag k="name" v="Nedra Kyte" />
		<tag k="place" v="farm" />
		<tag k="ssr:stedsnr" v="674274" />
	</node>
	<node id="-463383" lat="60.6513500008" lon="6.34240277978">
		<tag k="historic" v="shieling" />
		<tag k="name" v="Nyaset" />
		<tag k="place" v="locality" />
		<tag k="ssr:stedsnr" v="674271" />
	</node>
	<node id="-461333" lat="60.7314480383" lon="6.49904402907">
		<tag k="fixme" v="consider place=hamlet" />
		<tag k="name" v="Hustveit" />
		<tag k="place" v="farm" />
		<tag k="ssr:stedsnr" v="127373" />
	</node>
	<node id="-461332" lat="60.7174500012" lon="6.30340000023">
		<tag k="historic" v="shieling" />
		<tag k="name" v="Volo" />
		<tag k="place" v="locality" />
		<tag k="ssr:stedsnr" v="127371" />
	</node>
	<node id="-461331" lat="60.7239047891" lon="6.48841342444">
		<tag k="fixme" v="consider place=hamlet" />
		<tag k="name" v="Tvinno" />
		<tag k="place" v="farm" />
		<tag k="ssr:stedsnr" v="127367" />
	</node>
	<node id="-463378" lat="60.6281666668" lon="6.00752777012">
		<tag k="historic" v="shieling" />
		<tag k="name" v="Jørnevikstølen" />
		<tag k="place" v="locality" />
		<tag k="ssr:stedsnr" v="674141" />
	</node>
	<node id="-461329" lat="60.6968722198" lon="6.45978889508">
		<tag k="historic" v="shieling" />
		<tag k="name" v="Bergsstølen" />
		<tag k="place" v="locality" />
		<tag k="ssr:stedsnr" v="127352" />
	</node>
	<node id="-461328" lat="60.6537499981" lon="6.4507249917">
		<tag k="fixme" v="consider place=hamlet" />
		<tag k="name" v="Lofthus" />
		<tag k="place" v="farm" />
		<tag k="ssr:stedsnr" v="127297" />
	</node>
	<node id="-460611" lat="60.6576416688" lon="6.48693888756">
		<tag k="name" v="Øyjordi" />
		<tag k="place" v="farm" />
		<tag k="ssr:stedsnr" v="895687" />
	</node>
	<node id="-461326" lat="60.6465268852" lon="6.4865640893">
		<tag k="fixme" v="consider place=hamlet" />
		<tag k="name" v="Helleve" />
		<tag k="place" v="farm" />
		<tag k="ssr:stedsnr" v="127286" />
	</node>
	<node id="-459929" lat="60.639600002" lon="6.20781111885">
		<tag k="name" v="Eidesmoen" />
		<tag k="place" v="farm" />
		<tag k="ssr:stedsnr" v="309119" />
	</node>
	<node id="-463369" lat="60.6138166686" lon="6.63276389067">
		<tag k="historic" v="shieling" />
		<tag k="name" v="Dalset" />
		<tag k="place" v="locality" />
		<tag k="ssr:stedsnr" v="673910" />
	</node>
	<node id="-461319" lat="60.6365836162" lon="6.04127156544">
		<tag k="fixme" v="consider place=hamlet" />
		<tag k="name" v="Nakka" />
		<tag k="place" v="farm" />
		<tag k="ssr:stedsnr" v="127116" />
	</node>
	<node id="-463365" lat="60.6259475664" lon="6.32484083462">
		<tag k="fixme" v="consider place=hamlet" />
		<tag k="name" v="Bø" />
		<tag k="place" v="farm" />
		<tag k="ssr:stedsnr" v="673715" />
	</node>
	<node id="-463364" lat="60.6244638865" lon="6.26380000471">
		<tag k="name" v="Skjeldehagen" />
		<tag k="place" v="farm" />
		<tag k="ssr:stedsnr" v="673710" />
	</node>
	<node id="-461315" lat="60.680422445" lon="6.08707590165">
		<tag k="fixme" v="consider place=hamlet" />
		<tag k="name" v="Flansås" />
		<tag k="place" v="farm" />
		<tag k="ssr:stedsnr" v="127026" />
	</node>
	<node id="-462251" lat="60.8072309601" lon="6.63003285002">
		<tag k="fixme" v="consider place=hamlet" />
		<tag k="name" v="Ettesvoll" />
		<tag k="place" v="farm" />
		<tag k="ssr:stedsnr" v="434722" />
	</node>
	<node id="-461312" lat="60.6747666677" lon="5.92651111979">
		<tag k="historic" v="shieling" />
		<tag k="name" v="Melandsstølen" />
		<tag k="place" v="locality" />
		<tag k="ssr:stedsnr" v="127008" />
	</node>
	<node id="-463358" lat="60.7465499972" lon="6.47077777472">
		<tag k="historic" v="shieling" />
		<tag k="name" v="Hydningastølen" />
		<tag k="place" v="locality" />
		<tag k="ssr:stedsnr" v="673383" />
	</node>
	<node id="-463357" lat="60.7350777761" lon="6.47377500446">
		<tag k="historic" v="shieling" />
		<tag k="name" v="Afdalsstølen" />
		<tag k="place" v="locality" />
		<tag k="ssr:stedsnr" v="673377" />
	</node>
	<node id="-461304" lat="60.6495627959" lon="6.15909490464">
		<tag k="fixme" v="consider place=hamlet" />
		<tag k="name" v="Bjørgås" />
		<tag k="place" v="farm" />
		<tag k="ssr:stedsnr" v="127087" />
	</node>
	<node id="-463350" lat="60.5800444469" lon="6.20499999127">
		<tag k="alt_name" v="Skjerstølen" />
		<tag k="historic" v="shieling" />
		<tag k="name" v="Skirstølen" />
		<tag k="place" v="locality" />
		<tag k="ssr:stedsnr" v="673253" />
	</node>
	<node id="-463349" lat="60.5833805541" lon="6.170174995">
		<tag k="historic" v="shieling" />
		<tag k="name" v="Lundaholmen" />
		<tag k="place" v="locality" />
		<tag k="ssr:stedsnr" v="673243" />
	</node>
	<node id="-461299" lat="60.7598961955" lon="6.49993989436">
		<tag k="fixme" v="consider place=hamlet" />
		<tag k="name" v="Indre Kvormo" />
		<tag k="place" v="farm" />
		<tag k="ssr:stedsnr" v="113925" />
	</node>
	<node id="-463344" lat="60.6039555521" lon="6.14780000423">
		<tag k="historic" v="shieling" />
		<tag k="name" v="Svangastølen" />
		<tag k="place" v="locality" />
		<tag k="ssr:stedsnr" v="673214" />
	</node>
	<node id="-463339" lat="60.6362197187" lon="6.15636138353">
		<tag k="fixme" v="consider place=hamlet" />
		<tag k="name" v="Solarås" />
		<tag k="place" v="farm" />
		<tag k="ssr:stedsnr" v="673173" />
	</node>
	<node id="-463336" lat="60.6487434777" lon="5.96122462045">
		<tag k="fixme" v="consider place=hamlet" />
		<tag k="name" v="Fyre" />
		<tag k="place" v="farm" />
		<tag k="ssr:stedsnr" v="673083" />
	</node>
	<node id="-463333" lat="60.6663348628" lon="6.15417255856">
		<tag k="historic" v="shieling" />
		<tag k="name" v="Muggåsstølen" />
		<tag k="place" v="locality" />
		<tag k="ssr:stedsnr" v="673014" />
	</node>
	<node id="-463331" lat="60.605292176" lon="6.4113587343">
		<tag k="fixme" v="consider place=hamlet" />
		<tag k="name" v="Tungeteigen" />
		<tag k="place" v="farm" />
		<tag k="ssr:stedsnr" v="674643" />
	</node>
	<node id="-464058" lat="60.6715138933" lon="6.7429916625">
		<tag k="historic" v="shieling" />
		<tag k="name" v="Reimesstølen" />
		<tag k="place" v="locality" />
		<tag k="ssr:stedsnr" v="796988" />
	</node>
	<node id="-462245" lat="60.7748274037" lon="6.47594287196">
		<tag k="fixme" v="consider place=hamlet" />
		<tag k="name" v="Haga" />
		<tag k="place" v="farm" />
		<tag k="ssr:stedsnr" v="433961" />
	</node>
	<node id="-462246" lat="60.7833361079" lon="6.58150000913">
		<tag k="fixme" v="consider place=hamlet" />
		<tag k="name" v="Vasstrondi" />
		<tag k="place" v="village" />
		<tag k="ssr:stedsnr" v="433970" />
	</node>
	<node id="-462244" lat="60.7797097839" lon="6.5636203012">
		<tag k="fixme" v="consider place=hamlet" />
		<tag k="name" v="Øyjordi" />
		<tag k="place" v="farm" />
		<tag k="ssr:stedsnr" v="433959" />
	</node>
	<node id="-461265" lat="60.8263249981" lon="6.74612222026">
		<tag k="historic" v="shieling" />
		<tag k="name" v="Øvsthusstølen" />
		<tag k="place" v="locality" />
		<tag k="ssr:stedsnr" v="106903" />
	</node>
	<node id="-461256" lat="60.6110083374" lon="6.42098611406">
		<tag k="name" v="Breidablik" />
		<tag k="place" v="farm" />
		<tag k="ssr:stedsnr" v="106506" />
	</node>
	<node id="-461253" lat="60.6316055589" lon="6.44361944427">
		<tag k="name" v="Brynavollen" />
		<tag k="place" v="farm" />
		<tag k="ssr:stedsnr" v="106463" />
	</node>
	<node id="-460498" lat="60.5562472217" lon="6.59451944069">
		<tag k="name" v="Vikabordena" />
		<tag k="place" v="farm" />
		<tag k="ssr:stedsnr" v="409735" />
	</node>
	<node id="-461246" lat="60.6583500039" lon="6.40493611001">
		<tag k="historic" v="shieling" />
		<tag k="name" v="Tråstølen" />
		<tag k="place" v="locality" />
		<tag k="ssr:stedsnr" v="106387" />
	</node>
	<node id="-461245" lat="60.6726611101" lon="6.56528056228">
		<tag k="historic" v="shieling" />
		<tag k="name" v="Mæringen" />
		<tag k="place" v="locality" />
		<tag k="ssr:stedsnr" v="106359" />
	</node>
	<node id="-461243" lat="60.6941814421" lon="6.58271283891">
		<tag k="alt_name" v="Fagnastølen" />
		<tag k="fixme" v="consider place=hamlet" />
		<tag k="name" v="Fagnastøl" />
		<tag k="place" v="farm" />
		<tag k="ssr:stedsnr" v="106354" />
	</node>
	<node id="-461631" lat="60.6419775471" lon="6.02226203998">
		<tag k="fixme" v="consider place=hamlet" />
		<tag k="name" v="Vetleviki" />
		<tag k="place" v="farm" />
		<tag k="ssr:stedsnr" v="188145" />
	</node>
	<node id="-460189" lat="60.5853361126" lon="6.4564694385">
		<tag k="name" v="Helland" />
		<tag k="place" v="farm" />
		<tag k="ssr:stedsnr" v="348733" />
	</node>
	<node id="-461057" lat="60.6873055582" lon="5.89830555834">
		<tag k="historic" v="shieling" />
		<tag k="name" v="Vidbotnen" />
		<tag k="place" v="locality" />
		<tag k="ssr:stedsnr" v="67506" />
	</node>
	<node id="-461218" lat="60.9010000026" lon="6.4835361184">
		<tag k="name" v="Hola" />
		<tag k="place" v="farm" />
		<tag k="ssr:stedsnr" v="106063" />
	</node>
	<node id="-463257" lat="60.6849183041" lon="6.73888968054">
		<tag k="name" v="Brekke" />
		<tag k="place" v="farm" />
		<tag k="ssr:stedsnr" v="651925" />
	</node>
	<node id="-461630" lat="60.6406769174" lon="6.14717883834">
		<tag k="fixme" v="consider place=hamlet" />
		<tag k="name" v="Hyljarås" />
		<tag k="place" v="farm" />
		<tag k="ssr:stedsnr" v="188137" />
	</node>
	<node id="-463255" lat="60.8306055582" lon="6.62961388934">
		<tag k="historic" v="shieling" />
		<tag k="name" v="Nyestølen" />
		<tag k="place" v="locality" />
		<tag k="ssr:stedsnr" v="651888" />
	</node>
	<node id="-463248" lat="60.7464777812" lon="6.51320000249">
		<tag k="name" v="Skårset" />
		<tag k="place" v="farm" />
		<tag k="ssr:stedsnr" v="651486" />
	</node>
	<node id="-459993" lat="60.5903608462" lon="6.43853929608">
		<tag k="fixme" v="consider place=hamlet" />
		<tag k="name" v="Roe" />
		<tag k="place" v="farm" />
		<tag k="ssr:stedsnr" v="310665" />
	</node>
	<node id="-461198" lat="60.6052083357" lon="6.60048610889">
		<tag k="name" v="Øvre Fenno" />
		<tag k="place" v="farm" />
		<tag k="ssr:stedsnr" v="88283" />
	</node>
	<node id="-461197" lat="60.6809154846" lon="6.58203935009">
		<tag k="alt_name" v="Davidhaugen" />
		<tag k="fixme" v="consider place=hamlet" />
		<tag k="name" v="Davidhaug" />
		<tag k="old_name" v="Urland" />
		<tag k="place" v="farm" />
		<tag k="ssr:stedsnr" v="86574" />
	</node>
	<node id="-461196" lat="60.6394750002" lon="6.476527775">
		<tag k="name" v="Nedre Rykke" />
		<tag k="place" v="farm" />
		<tag k="ssr:stedsnr" v="82792" />
	</node>
	<node id="-460183" lat="60.6449498958" lon="6.43289991215">
		<tag k="name" v="Vetle Ringheim" />
		<tag k="place" v="farm" />
		<tag k="ssr:stedsnr" v="348681" />
	</node>
	<node id="-462572" lat="60.7711500504" lon="6.4426943304">
		<tag k="fixme" v="consider place=hamlet" />
		<tag k="name" v="Hommedal" />
		<tag k="place" v="farm" />
		<tag k="ssr:stedsnr" v="494977" />
	</node>
	<node id="-461493" lat="60.6166694438" lon="5.97152222393">
		<tag k="name" v="Rasdalen" />
		<tag k="place" v="farm" />
		<tag k="ssr:stedsnr" v="142613" />
	</node>
	<node id="-463237" lat="60.8337675379" lon="6.6820857144">
		<tag k="fixme" v="consider place=hamlet" />
		<tag k="name" v="Stalheim" />
		<tag k="place" v="farm" />
		<tag k="ssr:stedsnr" v="634171" />
	</node>
	<node id="-463236" lat="60.5859399121" lon="6.44278023931">
		<tag k="name" v="Indre Tillung" />
		<tag k="place" v="farm" />
		<tag k="ssr:stedsnr" v="628008" />
	</node>
	<node id="-461186" lat="60.6367555532" lon="6.37606388507">
		<tag k="historic" v="shieling" />
		<tag k="name" v="Klepp" />
		<tag k="place" v="locality" />
		<tag k="ssr:stedsnr" v="81956" />
	</node>
	<node id="-461629" lat="60.6440855621" lon="6.15921409664">
		<tag k="fixme" v="consider place=hamlet" />
		<tag k="name" v="Kvilekvål" />
		<tag k="place" v="farm" />
		<tag k="ssr:stedsnr" v="188133" />
	</node>
	<node id="-461177" lat="60.6475638919" lon="6.49252499993">
		<tag k="name" v="Øvre Vinjo" />
		<tag k="place" v="farm" />
		<tag k="ssr:stedsnr" v="81798" />
	</node>
	<node id="-463224" lat="60.6473702417" lon="6.51790322732">
		<tag k="name" v="Ygre" />
		<tag k="place" v="farm" />
		<tag k="ssr:stedsnr" v="627795" />
	</node>
	<node id="-462227" lat="60.83416645" lon="6.44887484402">
		<tag k="name" v="Skjervheim" />
		<tag k="place" v="hamlet" />
		<tag k="ssr:stedsnr" v="433537" />
	</node>
	<node id="-461168" lat="60.5979804973" lon="6.45167196543">
		<tag k="fixme" v="consider place=hamlet" />
		<tag k="name" v="Øvre Himle" />
		<tag k="place" v="farm" />
		<tag k="ssr:stedsnr" v="81823" />
	</node>
	<node id="-460520" lat="60.6740916668" lon="6.53776388536">
		<tag k="historic" v="shieling" />
		<tag k="name" v="Øvrestølen" />
		<tag k="place" v="locality" />
		<tag k="ssr:stedsnr" v="410344" />
	</node>
	<node id="-463213" lat="60.6831083331" lon="6.75191666325">
		<tag k="historic" v="shieling" />
		<tag k="name" v="Bergastølen" />
		<tag k="place" v="locality" />
		<tag k="ssr:stedsnr" v="627668" />
	</node>
	<node id="-463212" lat="60.6999167519" lon="6.68477549014">
		<tag k="historic" v="shieling" />
		<tag k="name" v="Sygnaberdsstølen" />
		<tag k="place" v="locality" />
		<tag k="ssr:stedsnr" v="627661" />
	</node>
	<node id="-461161" lat="60.653749996" lon="6.00086389442">
		<tag k="name" v="Stigen" />
		<tag k="place" v="farm" />
		<tag k="ssr:stedsnr" v="81689" />
	</node>
	<node id="-463208" lat="60.7316374163" lon="6.12424283045">
		<tag k="fixme" v="consider place=hamlet" />
		<tag k="name" v="Teiglandslii" />
		<tag k="place" v="farm" />
		<tag k="ssr:stedsnr" v="627524" />
	</node>
	<node id="-461158" lat="60.6568500018" lon="5.95578610343">
		<tag k="historic" v="shieling" />
		<tag k="name" v="Liastølen" />
		<tag k="place" v="locality" />
		<tag k="ssr:stedsnr" v="81669" />
	</node>
	<node id="-463204" lat="60.8483888886" lon="6.47953611383">
		<tag k="name" v="Myrlandshaugen" />
		<tag k="place" v="farm" />
		<tag k="ssr:stedsnr" v="627365" />
	</node>
	<node id="-461148" lat="60.8189333299" lon="6.46512500447">
		<tag k="name" v="Kalvhagen" />
		<tag k="place" v="farm" />
		<tag k="ssr:stedsnr" v="81369" />
	</node>
	<node id="-463194" lat="60.7673750012" lon="6.47608055221">
		<tag k="fixme" v="consider place=hamlet" />
		<tag k="name" v="Øvre Meland" />
		<tag k="place" v="farm" />
		<tag k="ssr:stedsnr" v="627250" />
	</node>
	<node id="-463192" lat="60.6912402258" lon="6.46947138026">
		<tag k="name" v="Vestre Løno" />
		<tag k="place" v="farm" />
		<tag k="ssr:stedsnr" v="627223" />
	</node>
	<node id="-460673" lat="60.6095755612" lon="6.56551308327">
		<tag k="fixme" v="consider place=hamlet" />
		<tag k="name" v="Brudestolen" />
		<tag k="place" v="farm" />
		<tag k="ssr:stedsnr" v="989095" />
	</node>
	<node id="-461135" lat="60.7840138695" lon="6.48019338477">
		<tag k="fixme" v="consider place=hamlet" />
		<tag k="name" v="Sausjord" />
		<tag k="place" v="farm" />
		<tag k="ssr:stedsnr" v="81189" />
	</node>
	<node id="-460269" lat="60.6453583358" lon="6.44631667259">
		<tag k="name" v="Lundarheim" />
		<tag k="place" v="farm" />
		<tag k="ssr:stedsnr" v="370302" />
	</node>
	<node id="-461120" lat="60.7983117043" lon="6.59113887493">
		<tag k="fixme" v="consider place=hamlet" />
		<tag k="name" v="Ure" />
		<tag k="place" v="farm" />
		<tag k="ssr:stedsnr" v="69989" />
	</node>
	<node id="-461119" lat="60.7970183524" lon="6.58704066487">
		<tag k="fixme" v="consider place=hamlet" />
		<tag k="name" v="Vetleteigen" />
		<tag k="place" v="farm" />
		<tag k="ssr:stedsnr" v="69990" />
	</node>
	<node id="-461118" lat="60.7807785672" lon="6.47066634565">
		<tag k="fixme" v="consider place=hamlet" />
		<tag k="name" v="Tveito" />
		<tag k="place" v="farm" />
		<tag k="ssr:stedsnr" v="69980" />
	</node>
	<node id="-462218" lat="60.6988749969" lon="6.72249166511">
		<tag k="historic" v="shieling" />
		<tag k="name" v="Brekkestølen" />
		<tag k="place" v="locality" />
		<tag k="ssr:stedsnr" v="432951" />
	</node>
	<node id="-461114" lat="60.7612297426" lon="6.56731483414">
		<tag k="fixme" v="consider place=hamlet" />
		<tag k="name" v="Tufto" />
		<tag k="place" v="farm" />
		<tag k="ssr:stedsnr" v="69944" />
	</node>
	<node id="-463159" lat="60.7800111106" lon="6.52688611089">
		<tag k="historic" v="shieling" />
		<tag k="name" v="Brileset" />
		<tag k="place" v="locality" />
		<tag k="ssr:stedsnr" v="615970" />
	</node>
	<node id="-461110" lat="60.8695499995" lon="6.65303333779">
		<tag k="historic" v="shieling" />
		<tag k="name" v="Brattebakken" />
		<tag k="place" v="locality" />
		<tag k="ssr:stedsnr" v="69844" />
	</node>
	<node id="-463157" lat="60.7653305568" lon="6.47275000697">
		<tag k="name" v="Hodle" />
		<tag k="place" v="farm" />
		<tag k="ssr:stedsnr" v="615951" />
	</node>
	<node id="-461108" lat="60.8434027792" lon="6.91581666805">
		<tag k="fixme" v="consider tourism=alpine_hut or tourism=chalet" />
		<tag k="name" v="Grindaflethytta" />
		<tag k="ssr:stedsnr" v="69835" />
		<tag k="tourism" v="wilderness_hut" />
	</node>
	<node id="-463155" lat="60.7565209368" lon="6.50424335815">
		<tag k="fixme" v="consider place=hamlet" />
		<tag k="name" v="Ytre Kvormo" />
		<tag k="place" v="farm" />
		<tag k="ssr:stedsnr" v="615940" />
	</node>
	<node id="-461104" lat="60.7763640097" lon="6.77456332868">
		<tag k="name" v="Bjørndalen" />
		<tag k="place" v="isolated_dwelling" />
		<tag k="ssr:stedsnr" v="69777" />
	</node>
	<node id="-461103" lat="60.7864527749" lon="6.62757222814">
		<tag k="historic" v="shieling" />
		<tag k="name" v="Lintua" />
		<tag k="place" v="locality" />
		<tag k="ssr:stedsnr" v="69775" />
	</node>
	<node id="-463149" lat="60.8415814028" lon="6.68270211999">
		<tag k="fixme" v="consider place=hamlet" />
		<tag k="name" v="Brekke" />
		<tag k="place" v="farm" />
		<tag k="ssr:stedsnr" v="615782" />
	</node>
	<node id="-461099" lat="60.871402779" lon="6.55455277626">
		<tag k="historic" v="shieling" />
		<tag k="name" v="Reppane" />
		<tag k="place" v="locality" />
		<tag k="ssr:stedsnr" v="69628" />
	</node>
	<node id="-463143" lat="60.8060024915" lon="6.63784406916">
		<tag k="fixme" v="consider place=hamlet" />
		<tag k="name" v="Kvamme" />
		<tag k="place" v="farm" />
		<tag k="ssr:stedsnr" v="615753" />
	</node>
	<node id="-461093" lat="60.803013194" lon="6.49843675723">
		<tag k="fixme" v="consider place=hamlet" />
		<tag k="name" v="Ulvundsøyni" />
		<tag k="place" v="farm" />
		<tag k="ssr:stedsnr" v="69567" />
	</node>
	<node id="-461091" lat="60.8062916676" lon="6.45584444891">
		<tag k="historic" v="shieling" />
		<tag k="name" v="Sundvesstølen" />
		<tag k="place" v="locality" />
		<tag k="ssr:stedsnr" v="69555" />
	</node>
	<node id="-461090" lat="60.8071944479" lon="6.37550834136">
		<tag k="name" v="Svoltebu" />
		<tag k="place" v="isolated_dwelling" />
		<tag k="ssr:stedsnr" v="69552" />
	</node>
	<node id="-460262" lat="60.6109694793" lon="6.17804615754">
		<tag k="fixme" v="consider place=hamlet" />
		<tag k="name" v="Træn" />
		<tag k="place" v="farm" />
		<tag k="ssr:stedsnr" v="370227" />
	</node>
	<node id="-461085" lat="60.5881916663" lon="6.35580000463">
		<tag k="historic" v="shieling" />
		<tag k="name" v="Teigarapjane" />
		<tag k="place" v="locality" />
		<tag k="ssr:stedsnr" v="68673" />
	</node>
	<node id="-463131" lat="60.5807916645" lon="6.43197500728">
		<tag k="historic" v="shieling" />
		<tag k="name" v="Kviting" />
		<tag k="place" v="locality" />
		<tag k="ssr:stedsnr" v="614701" />
	</node>
	<node id="-461871" lat="60.6413305567" lon="6.48555278648">
		<tag k="name" v="Håreina" />
		<tag k="place" v="farm" />
		<tag k="ssr:stedsnr" v="227471" />
	</node>
	<node id="-463128" lat="60.5251555548" lon="6.58828056461">
		<tag k="historic" v="shieling" />
		<tag k="name" v="Krossaset" />
		<tag k="place" v="locality" />
		<tag k="ssr:stedsnr" v="614526" />
	</node>
	<node id="-461078" lat="60.5436000034" lon="6.2283694406">
		<tag k="historic" v="shieling" />
		<tag k="name" v="Kvålsdalen" />
		<tag k="place" v="locality" />
		<tag k="ssr:stedsnr" v="68617" />
	</node>
	<node id="-463124" lat="60.6850083566" lon="6.67657618794">
		<tag k="name" v="Øyjord" />
		<tag k="place" v="farm" />
		<tag k="ssr:stedsnr" v="613963" />
	</node>
	<node id="-463123" lat="60.6848654494" lon="6.67232900542">
		<tag k="fixme" v="consider place=hamlet" />
		<tag k="name" v="Sygnaberde" />
		<tag k="place" v="farm" />
		<tag k="ssr:stedsnr" v="613952" />
	</node>
	<node id="-463121" lat="60.6811527733" lon="6.74145832887">
		<tag k="fixme" v="consider place=hamlet" />
		<tag k="name" v="Reimegrend" />
		<tag k="place" v="village" />
		<tag k="ssr:stedsnr" v="613947" />
	</node>
	<node id="-463120" lat="60.6789458055" lon="6.59657337052">
		<tag k="fixme" v="consider place=hamlet" />
		<tag k="name" v="Vålo" />
		<tag k="place" v="farm" />
		<tag k="ssr:stedsnr" v="613939" />
	</node>
	<node id="-461489" lat="60.7256111089" lon="6.111694447">
		<tag k="historic" v="shieling" />
		<tag k="name" v="Langelandsstølen" />
		<tag k="place" v="locality" />
		<tag k="ssr:stedsnr" v="142481" />
	</node>
	<node id="-461069" lat="60.617826141" lon="6.3685495852">
		<tag k="fixme" v="consider place=hamlet" />
		<tag k="name" v="Kvåle" />
		<tag k="place" v="farm" />
		<tag k="ssr:stedsnr" v="67736" />
	</node>
	<node id="-461068" lat="60.6284615405" lon="6.50911526802">
		<tag k="name" v="Takla" />
		<tag k="place" v="hamlet" />
		<tag k="ssr:stedsnr" v="67732" />
	</node>
	<node id="-461067" lat="60.6385499968" lon="6.53143333034">
		<tag k="fixme" v="consider place=hamlet" />
		<tag k="name" v="Bjørke" />
		<tag k="place" v="farm" />
		<tag k="ssr:stedsnr" v="67715" />
	</node>
	<node id="-461066" lat="60.6382055533" lon="6.45277499738">
		<tag k="fixme" v="consider place=hamlet" />
		<tag k="name" v="Tvilde" />
		<tag k="place" v="farm" />
		<tag k="ssr:stedsnr" v="67709" />
	</node>
	<node id="-461065" lat="60.6333914803" lon="6.2520660571">
		<tag k="name" v="Flaga" />
		<tag k="place" v="hamlet" />
		<tag k="ssr:stedsnr" v="67702" />
	</node>
	<node id="-463112" lat="60.6274053389" lon="6.49861019417">
		<tag k="fixme" v="consider place=hamlet" />
		<tag k="name" v="Kinne" />
		<tag k="place" v="farm" />
		<tag k="ssr:stedsnr" v="613727" />
	</node>
	<node id="-463110" lat="60.6337284762" lon="6.41371677839">
		<tag k="fixme" v="consider place=hamlet" />
		<tag k="name" v="Mølster" />
		<tag k="place" v="farm" />
		<tag k="ssr:stedsnr" v="613689" />
	</node>
	<node id="-461061" lat="60.5097416651" lon="6.52983888299">
		<tag k="historic" v="shieling" />
		<tag k="name" v="Øyaset" />
		<tag k="place" v="locality" />
		<tag k="ssr:stedsnr" v="67577" />
	</node>
	<node id="-463105" lat="60.6035325135" lon="6.4431042358">
		<tag k="fixme" v="consider place=hamlet" />
		<tag k="name" v="Græe" />
		<tag k="place" v="farm" />
		<tag k="ssr:stedsnr" v="613634" />
	</node>
	<node id="-463103" lat="60.5509861152" lon="6.57526665856">
		<tag k="historic" v="shieling" />
		<tag k="name" v="Skamdalen" />
		<tag k="place" v="locality" />
		<tag k="ssr:stedsnr" v="613608" />
	</node>
	<node id="-463100" lat="60.5384805571" lon="6.57067778618">
		<tag k="historic" v="shieling" />
		<tag k="name" v="Helgaset" />
		<tag k="place" v="locality" />
		<tag k="ssr:stedsnr" v="613598" />
	</node>
	<node id="-463099" lat="60.5434055536" lon="6.51423055626">
		<tag k="historic" v="shieling" />
		<tag k="name" v="Veskre" />
		<tag k="place" v="locality" />
		<tag k="ssr:stedsnr" v="613597" />
	</node>
	<node id="-461045" lat="60.7471111094" lon="6.44405277772">
		<tag k="historic" v="shieling" />
		<tag k="name" v="Ænsstølen" />
		<tag k="place" v="locality" />
		<tag k="ssr:stedsnr" v="67388" />
	</node>
	<node id="-463090" lat="60.6938138886" lon="6.67014166202">
		<tag k="historic" v="shieling" />
		<tag k="name" v="Øyaset" />
		<tag k="place" v="locality" />
		<tag k="ssr:stedsnr" v="613544" />
	</node>
	<node id="-461041" lat="60.7222177029" lon="6.49913572378">
		<tag k="name" v="Leidal" />
		<tag k="place" v="hamlet" />
		<tag k="ssr:stedsnr" v="67361" />
	</node>
	<node id="-461039" lat="60.6917730958" lon="6.46961523735">
		<tag k="name" v="Løno" />
		<tag k="place" v="hamlet" />
		<tag k="ssr:stedsnr" v="67339" />
	</node>
	<node id="-461036" lat="60.6616583292" lon="6.35306389715">
		<tag k="historic" v="shieling" />
		<tag k="name" v="Kviting" />
		<tag k="place" v="locality" />
		<tag k="ssr:stedsnr" v="67309" />
	</node>
	<node id="-461035" lat="60.6624166703" lon="6.40386388991">
		<tag k="historic" v="shieling" />
		<tag k="name" v="Nyestølen" />
		<tag k="place" v="locality" />
		<tag k="ssr:stedsnr" v="67307" />
	</node>
	<node id="-461033" lat="60.6674045641" lon="6.53760451177">
		<tag k="name" v="Klyve" />
		<tag k="place" v="hamlet" />
		<tag k="ssr:stedsnr" v="67299" />
	</node>
	<node id="-463329" lat="60.6149626944" lon="6.43967871438">
		<tag k="fixme" v="consider place=hamlet" />
		<tag k="name" v="Sonve" />
		<tag k="place" v="farm" />
		<tag k="ssr:stedsnr" v="674622" />
	</node>
	<node id="-461031" lat="60.5776055569" lon="6.09411944039">
		<tag k="historic" v="shieling" />
		<tag k="name" v="Lonaselet" />
		<tag k="place" v="locality" />
		<tag k="ssr:stedsnr" v="67253" />
	</node>
	<node id="-463078" lat="60.7298781904" lon="6.49437723315">
		<tag k="fixme" v="consider place=hamlet" />
		<tag k="name" v="Gjøstein" />
		<tag k="place" v="farm" />
		<tag k="ssr:stedsnr" v="613359" />
	</node>
	<node id="-461028" lat="60.6149669107" lon="5.97346304792">
		<tag k="alt_name" v="Rasdalen, øvre" />
		<tag k="fixme" v="consider place=hamlet" />
		<tag k="name" v="Øvre Rasdalen" />
		<tag k="place" v="farm" />
		<tag k="ssr:stedsnr" v="67203" />
	</node>
	<node id="-463075" lat="60.6956455018" lon="6.49612224182">
		<tag k="fixme" v="consider place=hamlet" />
		<tag k="name" v="Nesheim" />
		<tag k="place" v="farm" />
		<tag k="ssr:stedsnr" v="613323" />
	</node>
	<node id="-461026" lat="60.6365984838" lon="6.10533121769">
		<tag k="fixme" v="consider place=hamlet" />
		<tag k="name" v="Mykkeltveit" />
		<tag k="place" v="farm" />
		<tag k="ssr:stedsnr" v="67133" />
	</node>
	<node id="-463073" lat="60.6823076626" lon="6.57382493021">
		<tag k="fixme" v="consider place=hamlet" />
		<tag k="name" v="Brattåker" />
		<tag k="place" v="farm" />
		<tag k="ssr:stedsnr" v="613313" />
	</node>
	<node id="-462544" lat="60.8121861085" lon="6.55190556279">
		<tag k="historic" v="shieling" />
		<tag k="name" v="Svorto" />
		<tag k="place" v="locality" />
		<tag k="ssr:stedsnr" v="493517" />
	</node>
	<node id="-463069" lat="60.6636810434" lon="6.42927221034">
		<tag k="fixme" v="consider place=hamlet" />
		<tag k="name" v="Gjerdskvål" />
		<tag k="place" v="farm" />
		<tag k="ssr:stedsnr" v="613291" />
	</node>
	<node id="-463068" lat="60.6621055539" lon="6.53122499499">
		<tag k="fixme" v="consider place=hamlet" />
		<tag k="name" v="Kvarakvål" />
		<tag k="place" v="farm" />
		<tag k="ssr:stedsnr" v="613273" />
	</node>
	<node id="-463066" lat="60.64221934" lon="6.23831662383">
		<tag k="fixme" v="consider place=hamlet" />
		<tag k="name" v="Hovda" />
		<tag k="place" v="farm" />
		<tag k="ssr:stedsnr" v="613257" />
	</node>
	<node id="-461017" lat="60.6505055548" lon="6.07430278133">
		<tag k="name" v="Storevikane" />
		<tag k="place" v="farm" />
		<tag k="ssr:stedsnr" v="67110" />
	</node>
	<node id="-463063" lat="60.6230540821" lon="5.96168495472">
		<tag k="alt_name" v="Rasdalen, nedre" />
		<tag k="fixme" v="consider place=hamlet" />
		<tag k="name" v="Nedre Rasdalen" />
		<tag k="place" v="farm" />
		<tag k="ssr:stedsnr" v="613166" />
	</node>
	<node id="-463062" lat="60.6473335796" lon="6.13644412379">
		<tag k="fixme" v="consider place=hamlet" />
		<tag k="name" v="Skorve" />
		<tag k="place" v="farm" />
		<tag k="ssr:stedsnr" v="613094" />
	</node>
	<node id="-461012" lat="60.6138474569" lon="6.1938874358">
		<tag k="fixme" v="consider place=hamlet" />
		<tag k="name" v="Skjeldal" />
		<tag k="place" v="farm" />
		<tag k="ssr:stedsnr" v="67183" />
	</node>
	<node id="-461009" lat="60.6343916646" lon="6.18290000275">
		<tag k="name" v="Haugen" />
		<tag k="place" v="isolated_dwelling" />
		<tag k="ssr:stedsnr" v="67172" />
	</node>
	<node id="-461008" lat="60.6705944405" lon="6.04375000011">
		<tag k="historic" v="shieling" />
		<tag k="name" v="Bjørgastølen" />
		<tag k="place" v="locality" />
		<tag k="ssr:stedsnr" v="67036" />
	</node>
	<node id="-461176" lat="60.6230496492" lon="6.50362595774">
		<tag k="fixme" v="consider place=hamlet" />
		<tag k="name" v="Nedre Auro" />
		<tag k="place" v="farm" />
		<tag k="ssr:stedsnr" v="81794" />
	</node>
	<node id="-463054" lat="60.6249342049" lon="6.3781629804">
		<tag k="fixme" v="consider place=hamlet" />
		<tag k="name" v="Oppheim" />
		<tag k="place" v="farm" />
		<tag k="ssr:stedsnr" v="612736" />
	</node>
	<node id="-463053" lat="60.6270823303" lon="6.38247312665">
		<tag k="fixme" v="consider place=hamlet" />
		<tag k="name" v="Brekku" />
		<tag k="place" v="farm" />
		<tag k="ssr:stedsnr" v="612735" />
	</node>
	<node id="-463052" lat="60.6245298257" lon="6.3305971201">
		<tag k="fixme" v="consider place=hamlet" />
		<tag k="name" v="Djukastein" />
		<tag k="place" v="farm" />
		<tag k="ssr:stedsnr" v="612732" />
	</node>
	<node id="-461003" lat="60.615588885" lon="6.31974444643">
		<tag k="name" v="Jensbu" />
		<tag k="place" v="isolated_dwelling" />
		<tag k="ssr:stedsnr" v="59015" />
	</node>
	<node id="-462199" lat="60.641513889" lon="6.57327778684">
		<tag k="historic" v="shieling" />
		<tag k="name" v="Holo" />
		<tag k="place" v="locality" />
		<tag k="ssr:stedsnr" v="431730" />
	</node>
	<node id="-463048" lat="60.7337166682" lon="6.10810555247">
		<tag k="historic" v="shieling" />
		<tag k="name" v="Liastølen" />
		<tag k="place" v="locality" />
		<tag k="ssr:stedsnr" v="612445" />
	</node>
	<node id="-463042" lat="60.7386500044" lon="6.2055777716">
		<tag k="historic" v="shieling" />
		<tag k="loc_name" v="Heimste Bjørndalen" />
		<tag k="name" v="Bjørndalsstølen" />
		<tag k="place" v="locality" />
		<tag k="ssr:stedsnr" v="612398" />
	</node>
	<node id="-463040" lat="60.6062466286" lon="5.99166193343">
		<tag k="fixme" v="consider place=hamlet" />
		<tag k="name" v="Røyrbakken" />
		<tag k="place" v="farm" />
		<tag k="ssr:stedsnr" v="612249" />
	</node>
	<node id="-463032" lat="60.6373273214" lon="5.89107260389">
		<tag k="fixme" v="consider place=hamlet" />
		<tag k="name" v="Tysso" />
		<tag k="place" v="farm" />
		<tag k="ssr:stedsnr" v="612129" />
	</node>
	<node id="-463026" lat="60.8486166664" lon="6.54856665938">
		<tag k="historic" v="shieling" />
		<tag k="name" v="Tjørnarhovden" />
		<tag k="place" v="locality" />
		<tag k="ssr:stedsnr" v="598847" />
	</node>
	<node id="-460487" lat="60.6174583352" lon="6.4318527753">
		<tag k="name" v="Songvesborgi" />
		<tag k="place" v="farm" />
		<tag k="ssr:stedsnr" v="409507" />
	</node>
	<node id="-460962" lat="60.5735055569" lon="6.60558333082">
		<tag k="name" v="Ysteteigen" />
		<tag k="place" v="farm" />
		<tag k="ssr:stedsnr" v="45710" />
	</node>
	<node id="-460961" lat="60.5762194421" lon="6.60481110286">
		<tag k="name" v="Nylenda" />
		<tag k="place" v="farm" />
		<tag k="ssr:stedsnr" v="45711" />
	</node>
	<node id="-460958" lat="60.6668555543" lon="6.47427778465">
		<tag k="name" v="Plassateigen" />
		<tag k="place" v="farm" />
		<tag k="ssr:stedsnr" v="45692" />
	</node>
	<node id="-463483" lat="60.7951833335" lon="6.5259916675">
		<tag k="fixme" v="consider place=hamlet" />
		<tag k="name" v="Øvre Vinjo" />
		<tag k="place" v="farm" />
		<tag k="ssr:stedsnr" v="688165" />
	</node>
	<node id="-463003" lat="60.8279555586" lon="6.5630777758">
		<tag k="alt_name" v="Marsteinstølen" />
		<tag k="historic" v="shieling" />
		<tag k="name" v="Martheimstølen" />
		<tag k="place" v="locality" />
		<tag k="ssr:stedsnr" v="591773" />
	</node>
	<node id="-463001" lat="60.5746194439" lon="6.49132223015">
		<tag k="historic" v="shieling" />
		<tag k="name" v="Færestølen" />
		<tag k="place" v="locality" />
		<tag k="ssr:stedsnr" v="591751" />
	</node>
	<node id="-464124" lat="60.8315375567" lon="6.46529222813">
		<tag k="fixme" v="consider place=hamlet" />
		<tag k="name" v="Flisram" />
		<tag k="place" v="farm" />
		<tag k="ssr:stedsnr" v="809232" />
	</node>
	<node id="-460946" lat="60.6303722194" lon="6.46848889095">
		<tag k="name" v="Lid" />
		<tag k="place" v="hamlet" />
		<tag k="ssr:stedsnr" v="45460" />
	</node>
	<node id="-460945" lat="60.7078250014" lon="6.46327500611">
		<tag k="name" v="Løyning" />
		<tag k="place" v="farm" />
		<tag k="ssr:stedsnr" v="45456" />
	</node>
	<node id="-460943" lat="60.6748574201" lon="6.44872897005">
		<tag k="fixme" v="consider place=hamlet" />
		<tag k="name" v="Nordrekvål" />
		<tag k="place" v="farm" />
		<tag k="ssr:stedsnr" v="45413" />
	</node>
	<node id="-460940" lat="60.6844972224" lon="6.67415277126">
		<tag k="name" v="Vetle Skiple" />
		<tag k="place" v="farm" />
		<tag k="ssr:stedsnr" v="45290" />
	</node>
	<node id="-462987" lat="60.6278444472" lon="6.41485555543">
		<tag k="name" v="Holbergsplassen" />
		<tag k="place" v="square" />
		<tag k="ssr:stedsnr" v="591520" />
	</node>
	<node id="-461007" lat="60.6787833318" lon="6.16128333975">
		<tag k="name" v="Skorset" />
		<tag k="place" v="locality" />
		<tag k="ssr:stedsnr" v="67024" />
	</node>
	<node id="-460930" lat="60.6739861068" lon="6.70675278089">
		<tag k="name" v="Bakken" />
		<tag k="place" v="farm" />
		<tag k="ssr:stedsnr" v="45139" />
	</node>
	<node id="-462977" lat="60.6429055578" lon="6.4927388974">
		<tag k="fixme" v="consider place=hamlet" />
		<tag k="name" v="Bakketun" />
		<tag k="place" v="farm" />
		<tag k="ssr:stedsnr" v="591442" />
	</node>
	<node id="-462975" lat="60.7139444477" lon="6.48595555806">
		<tag k="name" v="Telland" />
		<tag k="place" v="farm" />
		<tag k="ssr:stedsnr" v="591422" />
	</node>
	<node id="-460922" lat="60.8863972186" lon="6.70238889173">
		<tag k="historic" v="shieling" />
		<tag k="name" v="Svoleset" />
		<tag k="place" v="locality" />
		<tag k="ssr:stedsnr" v="45175" />
	</node>
	<node id="-462964" lat="60.6690861138" lon="6.77521388162">
		<tag k="name" v="Voll" />
		<tag k="place" v="farm" />
		<tag k="ssr:stedsnr" v="591191" />
	</node>
	<node id="-460356" lat="60.8319333297" lon="6.67668333536">
		<tag k="name" v="Solheim" />
		<tag k="place" v="farm" />
		<tag k="ssr:stedsnr" v="372837" />
	</node>
	<node id="-462525" lat="60.6167998435" lon="6.30379131644">
		<tag k="fixme" v="consider place=hamlet" />
		<tag k="name" v="Eimstad" />
		<tag k="place" v="farm" />
		<tag k="ssr:stedsnr" v="492716" />
	</node>
	<node id="-460908" lat="60.7918472206" lon="6.50850555475">
		<tag k="fixme" v="consider place=hamlet" />
		<tag k="name" v="Vinje" />
		<tag k="place" v="village" />
		<tag k="ssr:stedsnr" v="31756" />
	</node>
	<node id="-460907" lat="60.6850262911" lon="6.73879107116">
		<tag k="fixme" v="consider place=hamlet" />
		<tag k="name" v="Brekke" />
		<tag k="place" v="farm" />
		<tag k="ssr:stedsnr" v="25487" />
	</node>
	<node id="-460256" lat="60.641124515" lon="6.01131565278">
		<tag k="fixme" v="consider place=hamlet" />
		<tag k="name" v="Jørneviki" />
		<tag k="place" v="farm" />
		<tag k="ssr:stedsnr" v="370154" />
	</node>
	<node id="-460904" lat="60.6647743493" lon="5.91143804672">
		<tag k="fixme" v="consider place=hamlet" />
		<tag k="name" v="Aldalen" />
		<tag k="place" v="farm" />
		<tag k="ssr:stedsnr" v="21937" />
	</node>
	<node id="-462637" lat="60.66893983" lon="6.53541739632">
		<tag k="name" v="Øvre Klyve" />
		<tag k="place" v="farm" />
		<tag k="ssr:stedsnr" v="506767" />
	</node>
	<node id="-462523" lat="60.6337444466" lon="6.50356388317">
		<tag k="landuse" v="military" />
		<tag k="name" v="Bømoen" />
		<tag k="ssr:stedsnr" v="492689" />
	</node>
	<node id="-460896" lat="60.6732518144" lon="6.44974321953">
		<tag k="name" v="Nordrekvål" />
		<tag k="place" v="farm" />
		<tag k="ssr:stedsnr" v="21770" />
	</node>
	<node id="-462522" lat="60.6305472244" lon="6.28574167322">
		<tag k="fixme" v="consider place=hamlet" />
		<tag k="name" v="Bulken" />
		<tag k="place" v="village" />
		<tag k="ssr:stedsnr" v="492678" />
	</node>
	<node id="-460473" lat="60.6816583329" lon="6.46202777111">
		<tag k="name" v="Saue" />
		<tag k="ssr:stedsnr" v="409345" />
		<tag k="tourism" v="camp_site" />
	</node>
	<node id="-462930" lat="60.6374488054" lon="6.47111411418">
		<tag k="name" v="Palmafossen" />
		<tag k="place" v="farm" />
		<tag k="ssr:stedsnr" v="567767" />
	</node>
	<node id="-462929" lat="60.666386112" lon="6.43257222512">
		<tag k="name" v="Nedre Flatekvål" />
		<tag k="place" v="farm" />
		<tag k="ssr:stedsnr" v="567580" />
	</node>
	<node id="-460880" lat="60.8111222262" lon="6.50535277678">
		<tag k="historic" v="shieling" />
		<tag k="name" v="Øyaset" />
		<tag k="place" v="locality" />
		<tag k="ssr:stedsnr" v="21342" />
	</node>
	<node id="-462925" lat="60.7500314519" lon="6.44511129813">
		<tag k="fixme" v="consider place=hamlet" />
		<tag k="name" v="Løkjo" />
		<tag k="place" v="farm" />
		<tag k="ssr:stedsnr" v="567135" />
	</node>
	<node id="-463051" lat="60.6270062362" lon="6.32227248892">
		<tag k="fixme" v="consider place=hamlet" />
		<tag k="name" v="Veka" />
		<tag k="place" v="farm" />
		<tag k="ssr:stedsnr" v="612730" />
	</node>
	<node id="-460873" lat="60.7214663545" lon="6.50184263684">
		<tag k="name" v="Øvre Leidal" />
		<tag k="place" v="farm" />
		<tag k="ssr:stedsnr" v="21238" />
	</node>
	<node id="-460871" lat="60.6316638852" lon="6.27530555314">
		<tag k="fixme" v="consider place=hamlet" />
		<tag k="name" v="Vassenden" />
		<tag k="place" v="farm" />
		<tag k="ssr:stedsnr" v="21117" />
	</node>
	<node id="-460470" lat="60.6589749979" lon="6.53084444935">
		<tag k="name" v="Kraktveit" />
		<tag k="place" v="farm" />
		<tag k="ssr:stedsnr" v="409321" />
	</node>
	<node id="-460865" lat="60.6383111155" lon="6.24854166284">
		<tag k="fixme" v="consider place=hamlet" />
		<tag k="name" v="Bergshaugen" />
		<tag k="place" v="farm" />
		<tag k="ssr:stedsnr" v="21033" />
	</node>
	<node id="-460864" lat="60.5897861153" lon="6.45627499784">
		<tag k="name" v="Nedre Vele" />
		<tag k="place" v="farm" />
		<tag k="ssr:stedsnr" v="21010" />
	</node>
	<node id="-462911" lat="60.6211416661" lon="5.93790555221">
		<tag k="historic" v="shieling" />
		<tag k="name" v="Ytstestølen" />
		<tag k="place" v="locality" />
		<tag k="ssr:stedsnr" v="566861" />
	</node>
	<node id="-462910" lat="60.6605750026" lon="6.45331389612">
		<tag k="name" v="Nedre Dukstad" />
		<tag k="place" v="farm" />
		<tag k="ssr:stedsnr" v="566772" />
	</node>
	<node id="-462517" lat="60.5946742315" lon="6.46871088599">
		<tag k="fixme" v="consider place=hamlet" />
		<tag k="name" v="Herre" />
		<tag k="place" v="farm" />
		<tag k="ssr:stedsnr" v="492626" />
	</node>
	<node id="-462908" lat="60.6532583363" lon="6.15416389269">
		<tag k="historic" v="shieling" />
		<tag k="name" v="Liastølen" />
		<tag k="place" v="locality" />
		<tag k="ssr:stedsnr" v="566747" />
	</node>
	<node id="-460856" lat="60.6258583343" lon="6.35012499185">
		<tag k="historic" v="shieling" />
		<tag k="name" v="Hellesnesfloren" />
		<tag k="place" v="locality" />
		<tag k="ssr:stedsnr" v="20904" />
	</node>
	<node id="-460852" lat="60.6547209253" lon="6.10488495366">
		<tag k="fixme" v="consider place=hamlet" />
		<tag k="name" v="Styve" />
		<tag k="place" v="farm" />
		<tag k="ssr:stedsnr" v="20733" />
	</node>
	<node id="-462899" lat="60.6306111086" lon="5.94026389449">
		<tag k="historic" v="shieling" />
		<tag k="name" v="Vetlestølen" />
		<tag k="place" v="locality" />
		<tag k="ssr:stedsnr" v="566686" />
	</node>
	<node id="-462515" lat="60.5985208553" lon="6.449909542">
		<tag k="name" v="Himle" />
		<tag k="place" v="farm" />
		<tag k="ssr:stedsnr" v="492611" />
	</node>
	<node id="-460125" lat="60.6186527778" lon="6.36468888198">
		<tag k="historic" v="shieling" />
		<tag k="name" v="Mjølstølen" />
		<tag k="place" v="locality" />
		<tag k="ssr:stedsnr" v="324880" />
	</node>
	<node id="-461686" lat="60.722069444" lon="6.90720277986">
		<tag k="historic" v="shieling" />
		<tag k="name" v="Borgarebu" />
		<tag k="place" v="locality" />
		<tag k="ssr:stedsnr" v="189518" />
	</node>
	<node id="-460838" lat="60.7275944436" lon="6.43870833055">
		<tag k="historic" v="shieling" />
		<tag k="name" v="Øvrestølen" />
		<tag k="place" v="locality" />
		<tag k="ssr:stedsnr" v="20136" />
	</node>
	<node id="-462513" lat="60.5974833339" lon="6.39427499512">
		<tag k="historic" v="shieling" />
		<tag k="name" v="Hindartveit" />
		<tag k="place" v="locality" />
		<tag k="ssr:stedsnr" v="492607" />
	</node>
	<node id="-462249" lat="60.7958194458" lon="6.55615000311">
		<tag k="name" v="Leite" />
		<tag k="place" v="farm" />
		<tag k="ssr:stedsnr" v="433985" />
	</node>
	<node id="-460832" lat="60.7673440205" lon="6.4593318127">
		<tag k="fixme" v="consider place=hamlet" />
		<tag k="name" v="Igdetveit" />
		<tag k="place" v="farm" />
		<tag k="ssr:stedsnr" v="9950" />
	</node>
	<node id="-460831" lat="60.7677111084" lon="6.49287499507">
		<tag k="name" v="Humlabrekkhaugen" />
		<tag k="place" v="farm" />
		<tag k="ssr:stedsnr" v="9944" />
	</node>
	<node id="-460829" lat="60.8329308065" lon="6.46484328335">
		<tag k="fixme" v="consider place=hamlet" />
		<tag k="name" v="Bygd" />
		<tag k="place" v="farm" />
		<tag k="ssr:stedsnr" v="9550" />
	</node>
	<node id="-460827" lat="60.7975499998" lon="6.58737499207">
		<tag k="name" v="Høgtun" />
		<tag k="place" v="farm" />
		<tag k="ssr:stedsnr" v="8988" />
	</node>
	<node id="-463373" lat="60.6495375606" lon="6.03721360371">
		<tag k="fixme" v="consider place=hamlet" />
		<tag k="name" v="Bergstad" />
		<tag k="place" v="farm" />
		<tag k="ssr:stedsnr" v="674061" />
	</node>
	<node id="-462870" lat="60.8050027779" lon="6.60642777419">
		<tag k="historic" v="shieling" />
		<tag k="name" v="Lønastølane" />
		<tag k="place" v="locality" />
		<tag k="ssr:stedsnr" v="566276" />
	</node>
	<node id="-462169" lat="60.6815250039" lon="6.54429443723">
		<tag k="historic" v="shieling" />
		<tag k="name" v="Morset" />
		<tag k="place" v="locality" />
		<tag k="ssr:stedsnr" v="431337" />
	</node>
	<node id="-460815" lat="60.8560444413" lon="6.57550277039">
		<tag k="historic" v="shieling" />
		<tag k="name" v="Kvanndalen" />
		<tag k="place" v="locality" />
		<tag k="ssr:stedsnr" v="8559" />
	</node>
	<node id="-460814" lat="60.8581293746" lon="6.50019194174">
		<tag k="fixme" v="consider place=hamlet" />
		<tag k="name" v="Årmot" />
		<tag k="place" v="farm" />
		<tag k="ssr:stedsnr" v="8557" />
	</node>
	<node id="-460813" lat="60.8094027774" lon="6.28159444168">
		<tag k="historic" v="shieling" />
		<tag k="name" v="Sødalen" />
		<tag k="place" v="locality" />
		<tag k="ssr:stedsnr" v="8537" />
	</node>
	<node id="-460809" lat="60.6688813296" lon="6.7749702856">
		<tag k="fixme" v="consider place=hamlet" />
		<tag k="name" v="Voll" />
		<tag k="place" v="farm" />
		<tag k="ssr:stedsnr" v="7997" />
	</node>
	<node id="-462851" lat="60.7856666686" lon="6.4984750081">
		<tag k="name" v="Fredheim" />
		<tag k="place" v="farm" />
		<tag k="ssr:stedsnr" v="554987" />
	</node>
	<node id="-460802" lat="60.5552555565" lon="6.59966666877">
		<tag k="historic" v="shieling" />
		<tag k="name" v="Hola" />
		<tag k="place" v="locality" />
		<tag k="ssr:stedsnr" v="7837" />
	</node>
	<node id="-462849" lat="60.7616000018" lon="6.42605000416">
		<tag k="historic" v="shieling" />
		<tag k="name" v="Liastølen" />
		<tag k="place" v="locality" />
		<tag k="ssr:stedsnr" v="554969" />
	</node>
</osm>
