<?xml version="1.0" encoding="UTF-8"?>
<osm version="0.6" generator="osmapis">
	<node lat="60.56961503184134" lon="9.144558594999214" id="-31385">
		<tag k="name" v="Austebakkan" />
		<tag k="ssr:date" v="2019-12-27" />
		<tag k="ssr:gruppe" v="veg" />
		<tag k="ssr:hovedgruppe" v="infrastruktur" />
		<tag k="ssr:stedsnr" v="25090" />
		<tag k="ssr:type" v="adressenavn" />
	</node>
	<node lat="60.57084546324816" lon="9.120925358040648" id="-31386">
		<tag k="name" v="Furuvegen" />
		<tag k="ssr:date" v="2019-12-27" />
		<tag k="ssr:gruppe" v="veg" />
		<tag k="ssr:hovedgruppe" v="infrastruktur" />
		<tag k="ssr:stedsnr" v="25093" />
		<tag k="ssr:type" v="adressenavn" />
	</node>
	<node lat="60.51770743398222" lon="8.743685935946583" id="-31403">
		<tag k="name" v="Såtevegen" />
		<tag k="ssr:date" v="2019-12-27" />
		<tag k="ssr:gruppe" v="veg" />
		<tag k="ssr:hovedgruppe" v="infrastruktur" />
		<tag k="ssr:stedsnr" v="241303" />
		<tag k="ssr:type" v="adressenavn" />
	</node>
	<node lat="60.53647300435341" lon="8.807595540892706" id="-31421">
		<tag k="name" v="Vestre Mohaugvegen" />
		<tag k="ssr:date" v="2019-12-27" />
		<tag k="ssr:gruppe" v="veg" />
		<tag k="ssr:hovedgruppe" v="infrastruktur" />
		<tag k="ssr:stedsnr" v="242321" />
		<tag k="ssr:type" v="adressenavn" />
	</node>
	<node lat="60.66817575790821" lon="9.297291016799297" id="-31436">
		<tag k="name" v="Valdreslivegen" />
		<tag k="ssr:date" v="2019-12-27" />
		<tag k="ssr:gruppe" v="veg" />
		<tag k="ssr:hovedgruppe" v="infrastruktur" />
		<tag k="ssr:stedsnr" v="242619" />
		<tag k="ssr:type" v="adressenavn" />
	</node>
	<node lat="60.57737690520971" lon="9.116699342079755" id="-31440">
		<tag k="name" v="Bokfinken" />
		<tag k="ssr:date" v="2019-12-27" />
		<tag k="ssr:gruppe" v="veg" />
		<tag k="ssr:hovedgruppe" v="infrastruktur" />
		<tag k="ssr:stedsnr" v="86107" />
		<tag k="ssr:type" v="adressenavn" />
	</node>
	<node lat="60.557199426206125" lon="9.129717219164966" id="-31530">
		<tag k="name" v="Alfarvegen" />
		<tag k="ssr:date" v="2019-12-27" />
		<tag k="ssr:gruppe" v="veg" />
		<tag k="ssr:hovedgruppe" v="infrastruktur" />
		<tag k="ssr:stedsnr" v="146083" />
		<tag k="ssr:type" v="adressenavn" />
	</node>
	<node lat="60.57641666139906" lon="9.116064125140403" id="-31531">
		<tag k="name" v="Beinvegen" />
		<tag k="ssr:date" v="2019-12-27" />
		<tag k="ssr:gruppe" v="veg" />
		<tag k="ssr:hovedgruppe" v="infrastruktur" />
		<tag k="ssr:stedsnr" v="146088" />
		<tag k="ssr:type" v="adressenavn" />
	</node>
	<node lat="60.57480559056041" lon="9.121122043716605" id="-31532">
		<tag k="name" v="Jerpevegen" />
		<tag k="ssr:date" v="2019-12-27" />
		<tag k="ssr:gruppe" v="veg" />
		<tag k="ssr:hovedgruppe" v="infrastruktur" />
		<tag k="ssr:stedsnr" v="146089" />
		<tag k="ssr:type" v="adressenavn" />
	</node>
	<node lat="60.567107418733684" lon="9.12351698675672" id="-31533">
		<tag k="name" v="Soleievegen" />
		<tag k="ssr:date" v="2019-12-27" />
		<tag k="ssr:gruppe" v="veg" />
		<tag k="ssr:hovedgruppe" v="infrastruktur" />
		<tag k="ssr:stedsnr" v="146097" />
		<tag k="ssr:type" v="adressenavn" />
	</node>
	<node lat="60.66381566100445" lon="9.300119727500984" id="-31544">
		<tag k="name" v="Knutsvegen" />
		<tag k="ssr:date" v="2019-12-27" />
		<tag k="ssr:gruppe" v="veg" />
		<tag k="ssr:hovedgruppe" v="infrastruktur" />
		<tag k="ssr:stedsnr" v="181662" />
		<tag k="ssr:type" v="adressenavn" />
	</node>
	<node lat="60.48892458336287" lon="8.824033056632977" id="-31612">
		<tag k="name" v="Krafselivegen" />
		<tag k="ssr:date" v="2019-12-27" />
		<tag k="ssr:gruppe" v="veg" />
		<tag k="ssr:hovedgruppe" v="infrastruktur" />
		<tag k="ssr:stedsnr" v="450011" />
		<tag k="ssr:type" v="adressenavn" />
	</node>
	<node lat="60.56967004788643" lon="9.10240203830188" id="-31614">
		<tag k="name" v="Jordeslykkja" />
		<tag k="ssr:date" v="2019-12-27" />
		<tag k="ssr:gruppe" v="veg" />
		<tag k="ssr:hovedgruppe" v="infrastruktur" />
		<tag k="ssr:stedsnr" v="450076" />
		<tag k="ssr:type" v="adressenavn" />
	</node>
	<node lat="60.571021042366645" lon="9.09235680490052" id="-31615">
		<tag k="name" v="Brekkebråten" />
		<tag k="ssr:date" v="2019-12-27" />
		<tag k="ssr:gruppe" v="veg" />
		<tag k="ssr:hovedgruppe" v="infrastruktur" />
		<tag k="ssr:stedsnr" v="450077" />
		<tag k="ssr:type" v="adressenavn" />
	</node>
	<node lat="60.57150586960872" lon="9.105657578056038" id="-31617">
		<tag k="name" v="Øynan" />
		<tag k="ssr:date" v="2019-12-27" />
		<tag k="ssr:gruppe" v="veg" />
		<tag k="ssr:hovedgruppe" v="infrastruktur" />
		<tag k="ssr:stedsnr" v="450083" />
		<tag k="ssr:type" v="adressenavn" />
	</node>
	<node lat="60.57180332485224" lon="9.120756656983271" id="-31622">
		<tag k="name" v="Konglevegen" />
		<tag k="ssr:date" v="2019-12-27" />
		<tag k="ssr:gruppe" v="veg" />
		<tag k="ssr:hovedgruppe" v="infrastruktur" />
		<tag k="ssr:stedsnr" v="450096" />
		<tag k="ssr:type" v="adressenavn" />
	</node>
	<node lat="60.489973671446194" lon="8.882158048328707" id="-31634">
		<tag k="name" v="Nedre Liasetvegen" />
		<tag k="ssr:date" v="2019-12-27" />
		<tag k="ssr:gruppe" v="veg" />
		<tag k="ssr:hovedgruppe" v="infrastruktur" />
		<tag k="ssr:stedsnr" v="241298" />
		<tag k="ssr:type" v="adressenavn" />
	</node>
	<node lat="60.581397686620775" lon="9.11157608054359" id="-31636">
		<tag k="name" v="Østenforskogen" />
		<tag k="ssr:date" v="2019-12-27" />
		<tag k="ssr:gruppe" v="veg" />
		<tag k="ssr:hovedgruppe" v="infrastruktur" />
		<tag k="ssr:stedsnr" v="242412" />
		<tag k="ssr:type" v="adressenavn" />
	</node>
	<node lat="60.57503164351809" lon="9.118859722526942" id="-31654">
		<tag k="name" v="Fuglestigen" />
		<tag k="ssr:date" v="2019-12-27" />
		<tag k="ssr:gruppe" v="veg" />
		<tag k="ssr:hovedgruppe" v="infrastruktur" />
		<tag k="ssr:stedsnr" v="268105" />
		<tag k="ssr:type" v="adressenavn" />
	</node>
	<node lat="60.57041566949659" lon="9.12955208714848" id="-31655">
		<tag k="name" v="Hakastadvegen" />
		<tag k="ssr:date" v="2019-12-27" />
		<tag k="ssr:gruppe" v="veg" />
		<tag k="ssr:hovedgruppe" v="infrastruktur" />
		<tag k="ssr:stedsnr" v="268109" />
		<tag k="ssr:type" v="adressenavn" />
	</node>
	<node lat="60.56675782945238" lon="9.126845975081835" id="-31705">
		<tag k="name" v="Mogopvegen" />
		<tag k="ssr:date" v="2019-12-27" />
		<tag k="ssr:gruppe" v="veg" />
		<tag k="ssr:hovedgruppe" v="infrastruktur" />
		<tag k="ssr:stedsnr" v="328102" />
		<tag k="ssr:type" v="adressenavn" />
	</node>
	<node lat="60.53500521244448" lon="8.823951097840336" id="-31724">
		<tag k="name" v="Gamle Mykingvegen" />
		<tag k="ssr:date" v="2019-12-27" />
		<tag k="ssr:gruppe" v="veg" />
		<tag k="ssr:hovedgruppe" v="infrastruktur" />
		<tag k="ssr:stedsnr" v="363316" />
		<tag k="ssr:type" v="adressenavn" />
	</node>
	<node lat="60.571898822771935" lon="9.118029532981314" id="-31766">
		<tag k="name" v="Lyngvegen" />
		<tag k="ssr:date" v="2019-12-27" />
		<tag k="ssr:gruppe" v="veg" />
		<tag k="ssr:hovedgruppe" v="infrastruktur" />
		<tag k="ssr:stedsnr" v="389107" />
		<tag k="ssr:type" v="adressenavn" />
	</node>
	<node lat="60.567107418733684" lon="9.12351698675672" id="-31767">
		<tag k="name" v="Neslevegen" />
		<tag k="ssr:date" v="2019-12-27" />
		<tag k="ssr:gruppe" v="veg" />
		<tag k="ssr:hovedgruppe" v="infrastruktur" />
		<tag k="ssr:stedsnr" v="389110" />
		<tag k="ssr:type" v="adressenavn" />
	</node>
	<node lat="60.56310748148592" lon="9.108603546773626" id="-31771">
		<tag k="name" v="Beiavegen" />
		<tag k="ssr:date" v="2019-12-27" />
		<tag k="ssr:gruppe" v="veg" />
		<tag k="ssr:hovedgruppe" v="infrastruktur" />
		<tag k="ssr:stedsnr" v="389092" />
		<tag k="ssr:type" v="adressenavn" />
	</node>
	<node lat="60.57107532826454" lon="9.09648499035396" id="-31772">
		<tag k="name" v="Steinmogutu" />
		<tag k="ssr:date" v="2019-12-27" />
		<tag k="ssr:gruppe" v="veg" />
		<tag k="ssr:hovedgruppe" v="infrastruktur" />
		<tag k="ssr:stedsnr" v="389094" />
		<tag k="ssr:type" v="adressenavn" />
	</node>
	<node lat="60.57395509564162" lon="9.11739662044031" id="-31773">
		<tag k="name" v="Veltebakken" />
		<tag k="ssr:date" v="2019-12-27" />
		<tag k="ssr:gruppe" v="veg" />
		<tag k="ssr:hovedgruppe" v="infrastruktur" />
		<tag k="ssr:stedsnr" v="389095" />
		<tag k="ssr:type" v="adressenavn" />
	</node>
	<node lat="60.57573984190385" lon="9.116933178105388" id="-31774">
		<tag k="name" v="Bassengvegen" />
		<tag k="ssr:date" v="2019-12-27" />
		<tag k="ssr:gruppe" v="veg" />
		<tag k="ssr:hovedgruppe" v="infrastruktur" />
		<tag k="ssr:stedsnr" v="389097" />
		<tag k="ssr:type" v="adressenavn" />
	</node>
	<node lat="60.52374004999291" lon="8.965120737834154" id="-31779">
		<tag k="name" v="Trollsethaugen" />
		<tag k="ssr:date" v="2019-12-27" />
		<tag k="ssr:gruppe" v="veg" />
		<tag k="ssr:hovedgruppe" v="infrastruktur" />
		<tag k="ssr:stedsnr" v="484289" />
		<tag k="ssr:type" v="adressenavn" />
	</node>
	<node lat="60.535234599510474" lon="8.786370551460209" id="-31780">
		<tag k="name" v="Øvre Ranten" />
		<tag k="ssr:date" v="2019-12-27" />
		<tag k="ssr:gruppe" v="veg" />
		<tag k="ssr:hovedgruppe" v="infrastruktur" />
		<tag k="ssr:stedsnr" v="484290" />
		<tag k="ssr:type" v="adressenavn" />
	</node>
	<node lat="60.489630391387394" lon="8.839874044806063" id="-31781">
		<tag k="name" v="Furumogutu" />
		<tag k="ssr:date" v="2019-12-27" />
		<tag k="ssr:gruppe" v="veg" />
		<tag k="ssr:hovedgruppe" v="infrastruktur" />
		<tag k="ssr:stedsnr" v="484291" />
		<tag k="ssr:type" v="adressenavn" />
	</node>
	<node lat="60.495604785464046" lon="8.817151648978156" id="-31788">
		<tag k="name" v="Skreivevegen" />
		<tag k="ssr:date" v="2019-12-27" />
		<tag k="ssr:gruppe" v="veg" />
		<tag k="ssr:hovedgruppe" v="infrastruktur" />
		<tag k="ssr:stedsnr" v="485282" />
		<tag k="ssr:type" v="adressenavn" />
	</node>
	<node lat="60.50213178733273" lon="9.197696965986703" id="-31789">
		<tag k="name" v="Lauvvikvegen" />
		<tag k="ssr:date" v="2019-12-27" />
		<tag k="ssr:gruppe" v="veg" />
		<tag k="ssr:hovedgruppe" v="infrastruktur" />
		<tag k="ssr:stedsnr" v="485560" />
		<tag k="ssr:type" v="adressenavn" />
	</node>
	<node lat="60.44655194172574" lon="9.133659545042509" id="-31790">
		<tag k="name" v="Vardevegen" />
		<tag k="ssr:date" v="2019-12-27" />
		<tag k="ssr:gruppe" v="veg" />
		<tag k="ssr:hovedgruppe" v="infrastruktur" />
		<tag k="ssr:stedsnr" v="485562" />
		<tag k="ssr:type" v="adressenavn" />
	</node>
	<node lat="60.60252696927124" lon="9.276681937159443" id="-31796">
		<tag k="name" v="Syningsethaugen" />
		<tag k="ssr:date" v="2019-12-27" />
		<tag k="ssr:gruppe" v="veg" />
		<tag k="ssr:hovedgruppe" v="infrastruktur" />
		<tag k="ssr:stedsnr" v="424320" />
		<tag k="ssr:type" v="adressenavn" />
	</node>
	<node lat="60.50834515303915" lon="8.950571229439772" id="-31851">
		<tag k="name" v="Jordeslivegen" />
		<tag k="ssr:date" v="2019-12-27" />
		<tag k="ssr:gruppe" v="veg" />
		<tag k="ssr:hovedgruppe" v="infrastruktur" />
		<tag k="ssr:stedsnr" v="450824" />
		<tag k="ssr:type" v="adressenavn" />
	</node>
	<node lat="60.5591494189394" lon="9.271390150956616" id="-31889">
		<tag k="name" v="Krørvegen" />
		<tag k="ssr:date" v="2019-12-27" />
		<tag k="ssr:gruppe" v="veg" />
		<tag k="ssr:hovedgruppe" v="infrastruktur" />
		<tag k="ssr:stedsnr" v="484669" />
		<tag k="ssr:type" v="adressenavn" />
	</node>
	<node lat="60.63466677645309" lon="9.327893996207173" id="-31891">
		<tag k="name" v="Strøstjernvegen" />
		<tag k="ssr:date" v="2019-12-27" />
		<tag k="ssr:gruppe" v="veg" />
		<tag k="ssr:hovedgruppe" v="infrastruktur" />
		<tag k="ssr:stedsnr" v="485962" />
		<tag k="ssr:type" v="adressenavn" />
	</node>
	<node lat="60.484803501614834" lon="8.809321348751734" id="-31942">
		<tag k="name" v="Buvasslie" />
		<tag k="ssr:date" v="2019-12-27" />
		<tag k="ssr:gruppe" v="veg" />
		<tag k="ssr:hovedgruppe" v="infrastruktur" />
		<tag k="ssr:stedsnr" v="545315" />
		<tag k="ssr:type" v="adressenavn" />
	</node>
	<node lat="60.53367878366235" lon="8.806208448420408" id="-31943">
		<tag k="name" v="Hurrahaugvegen" />
		<tag k="ssr:date" v="2019-12-27" />
		<tag k="ssr:gruppe" v="veg" />
		<tag k="ssr:hovedgruppe" v="infrastruktur" />
		<tag k="ssr:stedsnr" v="545321" />
		<tag k="ssr:type" v="adressenavn" />
	</node>
	<node lat="60.56658786716544" lon="9.121006044823762" id="-31982">
		<tag k="name" v="Raggetjernvegen" />
		<tag k="ssr:date" v="2019-12-27" />
		<tag k="ssr:gruppe" v="veg" />
		<tag k="ssr:hovedgruppe" v="infrastruktur" />
		<tag k="ssr:stedsnr" v="571110" />
		<tag k="ssr:type" v="adressenavn" />
	</node>
	<node lat="60.15999166844793" lon="10.340894439966458" id="-31987">
		<tag k="name" v="Holsledningen" />
		<tag k="ssr:date" v="2019-12-27" />
		<tag k="ssr:gruppe" v="energi" />
		<tag k="ssr:hovedgruppe" v="infrastruktur" />
		<tag k="ssr:stedsnr" v="570854" />
		<tag k="ssr:type" v="kraftledning" />
	</node>
	<node lat="60.50054200456402" lon="9.156343936910664" id="-31999">
		<tag k="name" v="Isakbråtvegen" />
		<tag k="ssr:date" v="2019-12-27" />
		<tag k="ssr:gruppe" v="veg" />
		<tag k="ssr:hovedgruppe" v="infrastruktur" />
		<tag k="ssr:stedsnr" v="587301" />
		<tag k="ssr:type" v="adressenavn" />
	</node>
	<node lat="60.503107896874766" lon="9.179877617259658" id="-32000">
		<tag k="name" v="Engjevegen" />
		<tag k="ssr:date" v="2019-12-27" />
		<tag k="ssr:gruppe" v="veg" />
		<tag k="ssr:hovedgruppe" v="infrastruktur" />
		<tag k="ssr:stedsnr" v="587360" />
		<tag k="ssr:type" v="adressenavn" />
	</node>
	<node lat="60.505676241995445" lon="8.99025279801403" id="-32003">
		<tag k="name" v="Veneli" />
		<tag k="ssr:date" v="2019-12-27" />
		<tag k="ssr:gruppe" v="veg" />
		<tag k="ssr:hovedgruppe" v="infrastruktur" />
		<tag k="ssr:stedsnr" v="605121" />
		<tag k="ssr:type" v="adressenavn" />
	</node>
	<node lat="60.6424969996487" lon="9.236558843592675" id="-32006">
		<tag k="name" v="Fjellstølvegen" />
		<tag k="ssr:date" v="2019-12-27" />
		<tag k="ssr:gruppe" v="veg" />
		<tag k="ssr:hovedgruppe" v="infrastruktur" />
		<tag k="ssr:stedsnr" v="606947" />
		<tag k="ssr:type" v="adressenavn" />
	</node>
	<node lat="60.54141234844484" lon="9.157967871101325" id="-32041">
		<tag k="name" v="Blingsmovegen" />
		<tag k="ssr:date" v="2019-12-27" />
		<tag k="ssr:gruppe" v="veg" />
		<tag k="ssr:hovedgruppe" v="infrastruktur" />
		<tag k="ssr:stedsnr" v="631099" />
		<tag k="ssr:type" v="adressenavn" />
	</node>
	<node lat="60.48971036967306" lon="8.888205310456247" id="-32059">
		<tag k="name" v="Liasethaugen" />
		<tag k="ssr:date" v="2019-12-27" />
		<tag k="ssr:gruppe" v="veg" />
		<tag k="ssr:hovedgruppe" v="infrastruktur" />
		<tag k="ssr:stedsnr" v="665350" />
		<tag k="ssr:type" v="adressenavn" />
	</node>
	<node lat="60.52264687272149" lon="8.966227357961351" id="-32060">
		<tag k="name" v="Trollsetlie" />
		<tag k="ssr:date" v="2019-12-27" />
		<tag k="ssr:gruppe" v="veg" />
		<tag k="ssr:hovedgruppe" v="infrastruktur" />
		<tag k="ssr:stedsnr" v="666307" />
		<tag k="ssr:type" v="adressenavn" />
	</node>
	<node lat="60.567324125000304" lon="9.316957257514758" id="-32061">
		<tag k="name" v="Raudtjernvegen" />
		<tag k="ssr:date" v="2019-12-27" />
		<tag k="ssr:gruppe" v="veg" />
		<tag k="ssr:hovedgruppe" v="infrastruktur" />
		<tag k="ssr:stedsnr" v="666325" />
		<tag k="ssr:type" v="adressenavn" />
	</node>
	<node lat="60.505697707670656" lon="8.940481536249454" id="-32062">
		<tag k="name" v="Driftevasshøgde" />
		<tag k="ssr:date" v="2019-12-27" />
		<tag k="ssr:gruppe" v="veg" />
		<tag k="ssr:hovedgruppe" v="infrastruktur" />
		<tag k="ssr:stedsnr" v="666343" />
		<tag k="ssr:type" v="adressenavn" />
	</node>
	<node lat="60.555707125179964" lon="9.274413085086556" id="-32063">
		<tag k="name" v="Venelivegen" />
		<tag k="ssr:date" v="2019-12-27" />
		<tag k="ssr:gruppe" v="veg" />
		<tag k="ssr:hovedgruppe" v="infrastruktur" />
		<tag k="ssr:stedsnr" v="666345" />
		<tag k="ssr:type" v="adressenavn" />
	</node>
	<node lat="60.53134449901814" lon="8.767361684073558" id="-32067">
		<tag k="name" v="Grønhovdvegen" />
		<tag k="ssr:date" v="2019-12-27" />
		<tag k="ssr:gruppe" v="veg" />
		<tag k="ssr:hovedgruppe" v="infrastruktur" />
		<tag k="ssr:stedsnr" v="667609" />
		<tag k="ssr:type" v="adressenavn" />
	</node>
	<node lat="60.66722716333761" lon="9.300096289492998" id="-32068">
		<tag k="name" v="Stormyrfaret" />
		<tag k="ssr:date" v="2019-12-27" />
		<tag k="ssr:gruppe" v="veg" />
		<tag k="ssr:hovedgruppe" v="infrastruktur" />
		<tag k="ssr:stedsnr" v="667613" />
		<tag k="ssr:type" v="adressenavn" />
	</node>
	<node lat="60.490580025653536" lon="9.063974434886669" id="-32092">
		<tag k="name" v="Sandevegen" />
		<tag k="ssr:date" v="2019-12-27" />
		<tag k="ssr:gruppe" v="veg" />
		<tag k="ssr:hovedgruppe" v="infrastruktur" />
		<tag k="ssr:stedsnr" v="891316" />
		<tag k="ssr:type" v="adressenavn" />
	</node>
	<node lat="60.48369782286529" lon="8.810799545884318" id="-32116">
		<tag k="name" v="Buvassvegen" />
		<tag k="ssr:date" v="2019-12-27" />
		<tag k="ssr:gruppe" v="veg" />
		<tag k="ssr:hovedgruppe" v="infrastruktur" />
		<tag k="ssr:stedsnr" v="728295" />
		<tag k="ssr:type" v="adressenavn" />
	</node>
	<node lat="60.48246920827728" lon="9.261819359690454" id="-32117">
		<tag k="name" v="Kvelvevegen" />
		<tag k="ssr:date" v="2019-12-27" />
		<tag k="ssr:gruppe" v="veg" />
		<tag k="ssr:hovedgruppe" v="infrastruktur" />
		<tag k="ssr:stedsnr" v="728316" />
		<tag k="ssr:type" v="adressenavn" />
	</node>
	<node lat="60.56923245720518" lon="9.095106321299257" id="-32146">
		<tag k="name" v="Høvagutu" />
		<tag k="ssr:date" v="2019-12-27" />
		<tag k="ssr:gruppe" v="veg" />
		<tag k="ssr:hovedgruppe" v="infrastruktur" />
		<tag k="ssr:stedsnr" v="753064" />
		<tag k="ssr:type" v="adressenavn" />
	</node>
	<node lat="60.579525101006645" lon="9.113641351078956" id="-32147">
		<tag k="name" v="Tetuvegen" />
		<tag k="ssr:date" v="2019-12-27" />
		<tag k="ssr:gruppe" v="veg" />
		<tag k="ssr:hovedgruppe" v="infrastruktur" />
		<tag k="ssr:stedsnr" v="753068" />
		<tag k="ssr:type" v="adressenavn" />
	</node>
	<node lat="60.53035456787066" lon="8.756729885498844" id="-32160">
		<tag k="name" v="Olfisklivegen" />
		<tag k="ssr:date" v="2019-12-27" />
		<tag k="ssr:gruppe" v="veg" />
		<tag k="ssr:hovedgruppe" v="infrastruktur" />
		<tag k="ssr:stedsnr" v="909321" />
		<tag k="ssr:type" v="adressenavn" />
	</node>
	<node lat="60.57061890012606" lon="9.319411324707618" id="-32161">
		<tag k="name" v="Leinenattvegen" />
		<tag k="ssr:date" v="2019-12-27" />
		<tag k="ssr:gruppe" v="veg" />
		<tag k="ssr:hovedgruppe" v="infrastruktur" />
		<tag k="ssr:stedsnr" v="909339" />
		<tag k="ssr:type" v="adressenavn" />
	</node>
	<node lat="60.54813112755247" lon="8.853796215393855" id="-32162">
		<tag k="name" v="Nystølvegen" />
		<tag k="ssr:date" v="2019-12-27" />
		<tag k="ssr:gruppe" v="veg" />
		<tag k="ssr:hovedgruppe" v="infrastruktur" />
		<tag k="ssr:stedsnr" v="909470" />
		<tag k="ssr:type" v="adressenavn" />
	</node>
	<node lat="60.53454455667332" lon="8.824406571601124" id="-32166">
		<tag k="name" v="Høvavollen" />
		<tag k="ssr:date" v="2019-12-27" />
		<tag k="ssr:gruppe" v="veg" />
		<tag k="ssr:hovedgruppe" v="infrastruktur" />
		<tag k="ssr:stedsnr" v="910340" />
		<tag k="ssr:type" v="adressenavn" />
	</node>
	<node lat="60.545591863180704" lon="8.84282766630813" id="-32169">
		<tag k="name" v="Mykingbrøtet" />
		<tag k="ssr:date" v="2019-12-27" />
		<tag k="ssr:gruppe" v="veg" />
		<tag k="ssr:hovedgruppe" v="infrastruktur" />
		<tag k="ssr:stedsnr" v="787313" />
		<tag k="ssr:type" v="adressenavn" />
	</node>
	<node lat="60.56010426314527" lon="9.287753745075884" id="-32170">
		<tag k="name" v="Dypilen" />
		<tag k="ssr:date" v="2019-12-27" />
		<tag k="ssr:gruppe" v="veg" />
		<tag k="ssr:hovedgruppe" v="infrastruktur" />
		<tag k="ssr:stedsnr" v="787698" />
		<tag k="ssr:type" v="adressenavn" />
	</node>
	<node lat="60.565471813912026" lon="9.105309378007242" id="-32228">
		<tag k="name" v="Kirkevegen" />
		<tag k="ssr:date" v="2019-12-27" />
		<tag k="ssr:gruppe" v="veg" />
		<tag k="ssr:hovedgruppe" v="infrastruktur" />
		<tag k="ssr:stedsnr" v="814104" />
		<tag k="ssr:type" v="adressenavn" />
	</node>
	<node lat="60.57272111205422" lon="9.117506393208464" id="-32229">
		<tag k="name" v="Tyrivegen" />
		<tag k="ssr:date" v="2019-12-27" />
		<tag k="ssr:gruppe" v="veg" />
		<tag k="ssr:hovedgruppe" v="infrastruktur" />
		<tag k="ssr:stedsnr" v="814110" />
		<tag k="ssr:type" v="adressenavn" />
	</node>
	<node lat="60.527461528122096" lon="8.914649027670382" id="-32238">
		<tag k="name" v="Mykingvegen" />
		<tag k="ssr:date" v="2019-12-27" />
		<tag k="ssr:gruppe" v="veg" />
		<tag k="ssr:hovedgruppe" v="infrastruktur" />
		<tag k="ssr:stedsnr" v="829871" />
		<tag k="ssr:type" v="adressenavn" />
	</node>
	<node lat="60.55619461502171" lon="8.817763377187712" id="-32242">
		<tag k="name" v="Fjellsetvegen" />
		<tag k="ssr:date" v="2019-12-27" />
		<tag k="ssr:gruppe" v="veg" />
		<tag k="ssr:hovedgruppe" v="infrastruktur" />
		<tag k="ssr:stedsnr" v="849474" />
		<tag k="ssr:type" v="adressenavn" />
	</node>
	<node lat="60.53289300660208" lon="8.7816454649433" id="-32245">
		<tag k="name" v="Austre Grønhovdtjernvegen" />
		<tag k="ssr:date" v="2019-12-27" />
		<tag k="ssr:gruppe" v="veg" />
		<tag k="ssr:hovedgruppe" v="infrastruktur" />
		<tag k="ssr:stedsnr" v="849675" />
		<tag k="ssr:type" v="adressenavn" />
	</node>
	<node lat="60.57655233304313" lon="9.118106734148155" id="-32290">
		<tag k="name" v="Klevarudstigen" />
		<tag k="ssr:date" v="2019-12-27" />
		<tag k="ssr:gruppe" v="veg" />
		<tag k="ssr:hovedgruppe" v="infrastruktur" />
		<tag k="ssr:stedsnr" v="935091" />
		<tag k="ssr:type" v="adressenavn" />
	</node>
	<node lat="60.57424773815203" lon="9.123721029423452" id="-32291">
		<tag k="name" v="Tiurvegen" />
		<tag k="ssr:date" v="2019-12-27" />
		<tag k="ssr:gruppe" v="veg" />
		<tag k="ssr:hovedgruppe" v="infrastruktur" />
		<tag k="ssr:stedsnr" v="935093" />
		<tag k="ssr:type" v="adressenavn" />
	</node>
	<node lat="60.56722604834976" lon="9.126002205998201" id="-32292">
		<tag k="name" v="Fiolvegen" />
		<tag k="ssr:date" v="2019-12-27" />
		<tag k="ssr:gruppe" v="veg" />
		<tag k="ssr:hovedgruppe" v="infrastruktur" />
		<tag k="ssr:stedsnr" v="935100" />
		<tag k="ssr:type" v="adressenavn" />
	</node>
	<node lat="60.56377292930709" lon="9.195354571289702" id="-32300">
		<tag k="name" v="Tovegen" />
		<tag k="ssr:date" v="2019-12-27" />
		<tag k="ssr:gruppe" v="veg" />
		<tag k="ssr:hovedgruppe" v="infrastruktur" />
		<tag k="ssr:stedsnr" v="889248" />
		<tag k="ssr:type" v="adressenavn" />
	</node>
	<node lat="60.474843677205975" lon="9.192731656380827" id="-32302">
		<tag k="name" v="Brennovegen" />
		<tag k="ssr:date" v="2019-12-27" />
		<tag k="ssr:gruppe" v="veg" />
		<tag k="ssr:hovedgruppe" v="infrastruktur" />
		<tag k="ssr:stedsnr" v="889614" />
		<tag k="ssr:type" v="adressenavn" />
	</node>
	<node lat="60.5103965727989" lon="9.18760389387022" id="-32303">
		<tag k="name" v="Hovdevegen" />
		<tag k="ssr:date" v="2019-12-27" />
		<tag k="ssr:gruppe" v="veg" />
		<tag k="ssr:hovedgruppe" v="infrastruktur" />
		<tag k="ssr:stedsnr" v="891375" />
		<tag k="ssr:type" v="adressenavn" />
	</node>
	<node lat="60.45339196839393" lon="9.199395656087878" id="-32305">
		<tag k="name" v="Rustadstølvegen" />
		<tag k="ssr:date" v="2019-12-27" />
		<tag k="ssr:gruppe" v="veg" />
		<tag k="ssr:hovedgruppe" v="infrastruktur" />
		<tag k="ssr:stedsnr" v="909108" />
		<tag k="ssr:type" v="adressenavn" />
	</node>
	<node lat="60.50611609746941" lon="9.137122625019824" id="-32348">
		<tag k="name" v="Girevegen" />
		<tag k="ssr:date" v="2019-12-27" />
		<tag k="ssr:gruppe" v="veg" />
		<tag k="ssr:hovedgruppe" v="infrastruktur" />
		<tag k="ssr:stedsnr" v="969112" />
		<tag k="ssr:type" v="adressenavn" />
	</node>
	<node lat="60.59855404778079" lon="9.435062851613809" id="-32354">
		<tag k="name" v="Bringenvegen" />
		<tag k="ssr:date" v="2019-12-27" />
		<tag k="ssr:gruppe" v="veg" />
		<tag k="ssr:hovedgruppe" v="infrastruktur" />
		<tag k="ssr:stedsnr" v="978101" />
		<tag k="ssr:type" v="adressenavn" />
	</node>
	<node lat="60.511670217536164" lon="8.957521279446826" id="-32363">
		<tag k="name" v="Nystølhaugan" />
		<tag k="ssr:date" v="2019-12-27" />
		<tag k="ssr:gruppe" v="veg" />
		<tag k="ssr:hovedgruppe" v="infrastruktur" />
		<tag k="ssr:stedsnr" v="985399" />
		<tag k="ssr:type" v="adressenavn" />
	</node>
	<node lat="60.511060309096656" lon="9.181760568713562" id="-32417">
		<tag k="name" v="Haugovegen" />
		<tag k="ssr:date" v="2019-12-27" />
		<tag k="ssr:gruppe" v="veg" />
		<tag k="ssr:hovedgruppe" v="infrastruktur" />
		<tag k="ssr:stedsnr" v="41346" />
		<tag k="ssr:type" v="adressenavn" />
	</node>
	<node lat="60.49898055894759" lon="9.088194443810625" id="-32425">
		<tag k="name" v="Liaberg" />
		<tag k="ssr:date" v="2019-12-27" />
		<tag k="ssr:gruppe" v="veg" />
		<tag k="ssr:hovedgruppe" v="infrastruktur" />
		<tag k="ssr:stedsnr" v="60640" />
		<tag k="ssr:type" v="adressenavn" />
	</node>
	<node lat="60.45590386333983" lon="9.26903123706792" id="-32426">
		<tag k="name" v="Hallingdalsvegen" />
		<tag k="ssr:date" v="2019-12-27" />
		<tag k="ssr:gruppe" v="veg" />
		<tag k="ssr:hovedgruppe" v="infrastruktur" />
		<tag k="ssr:stedsnr" v="59733" />
		<tag k="ssr:type" v="adressenavn" />
	</node>
	<node lat="60.62179719133215" lon="9.17231534304684" id="-32429">
		<tag k="name" v="Fiskebekkvegen" />
		<tag k="ssr:date" v="2019-12-27" />
		<tag k="ssr:gruppe" v="veg" />
		<tag k="ssr:hovedgruppe" v="infrastruktur" />
		<tag k="ssr:stedsnr" v="60351" />
		<tag k="ssr:type" v="adressenavn" />
	</node>
	<node lat="60.565825013268665" lon="9.08988660350962" id="-32476">
		<tag k="name" v="Møllevegen" />
		<tag k="ssr:date" v="2019-12-27" />
		<tag k="ssr:gruppe" v="veg" />
		<tag k="ssr:hovedgruppe" v="infrastruktur" />
		<tag k="ssr:stedsnr" v="86101" />
		<tag k="ssr:type" v="adressenavn" />
	</node>
	<node lat="60.55410640794089" lon="9.030184103325055" id="-32481">
		<tag k="name" v="Liavegen" />
		<tag k="ssr:date" v="2019-12-27" />
		<tag k="ssr:gruppe" v="veg" />
		<tag k="ssr:hovedgruppe" v="infrastruktur" />
		<tag k="ssr:stedsnr" v="100831" />
		<tag k="ssr:type" v="adressenavn" />
	</node>
	<node lat="60.53211087102104" lon="9.187299783601047" id="-32483">
		<tag k="name" v="Flutovegen" />
		<tag k="ssr:date" v="2019-12-27" />
		<tag k="ssr:gruppe" v="veg" />
		<tag k="ssr:hovedgruppe" v="infrastruktur" />
		<tag k="ssr:stedsnr" v="102391" />
		<tag k="ssr:type" v="adressenavn" />
	</node>
	<node lat="60.41099148094177" lon="9.162812590324915" id="-32486">
		<tag k="name" v="Søre Buhovdvegen" />
		<tag k="ssr:date" v="2019-12-27" />
		<tag k="ssr:gruppe" v="veg" />
		<tag k="ssr:hovedgruppe" v="infrastruktur" />
		<tag k="ssr:stedsnr" v="120441" />
		<tag k="ssr:type" v="adressenavn" />
	</node>
	<node lat="60.529402315023425" lon="8.765789285812497" id="-32491">
		<tag k="name" v="Bakkerudvollen" />
		<tag k="ssr:date" v="2019-12-27" />
		<tag k="ssr:gruppe" v="veg" />
		<tag k="ssr:hovedgruppe" v="infrastruktur" />
		<tag k="ssr:stedsnr" v="121631" />
		<tag k="ssr:type" v="adressenavn" />
	</node>
	<node lat="60.491272188309175" lon="8.88353335462241" id="-32559">
		<tag k="name" v="Trollie" />
		<tag k="ssr:date" v="2019-12-27" />
		<tag k="ssr:gruppe" v="veg" />
		<tag k="ssr:hovedgruppe" v="infrastruktur" />
		<tag k="ssr:stedsnr" v="180293" />
		<tag k="ssr:type" v="adressenavn" />
	</node>
	<node lat="60.53626082161542" lon="8.817130487580503" id="-32567">
		<tag k="name" v="Gudbrandsrudvollen" />
		<tag k="ssr:date" v="2019-12-27" />
		<tag k="ssr:gruppe" v="veg" />
		<tag k="ssr:hovedgruppe" v="infrastruktur" />
		<tag k="ssr:stedsnr" v="182365" />
		<tag k="ssr:type" v="adressenavn" />
	</node>
	<node lat="60.56989715493867" lon="9.094177917254774" id="-32605">
		<tag k="name" v="Høvabakken" />
		<tag k="ssr:date" v="2019-12-27" />
		<tag k="ssr:gruppe" v="veg" />
		<tag k="ssr:hovedgruppe" v="infrastruktur" />
		<tag k="ssr:stedsnr" v="207083" />
		<tag k="ssr:type" v="adressenavn" />
	</node>
	<node lat="60.57293227194592" lon="9.126882318634499" id="-32606">
		<tag k="name" v="Harestigen" />
		<tag k="ssr:date" v="2019-12-27" />
		<tag k="ssr:gruppe" v="veg" />
		<tag k="ssr:hovedgruppe" v="infrastruktur" />
		<tag k="ssr:stedsnr" v="207091" />
		<tag k="ssr:type" v="adressenavn" />
	</node>
	<node lat="60.570494637641765" lon="9.130812744933898" id="-32607">
		<tag k="name" v="Olsgårdvegen" />
		<tag k="ssr:date" v="2019-12-27" />
		<tag k="ssr:gruppe" v="veg" />
		<tag k="ssr:hovedgruppe" v="infrastruktur" />
		<tag k="ssr:stedsnr" v="207093" />
		<tag k="ssr:type" v="adressenavn" />
	</node>
	<node lat="60.566516864178745" lon="9.123791542882966" id="-32608">
		<tag k="name" v="Grimsgårdvegen" />
		<tag k="ssr:date" v="2019-12-27" />
		<tag k="ssr:gruppe" v="veg" />
		<tag k="ssr:hovedgruppe" v="infrastruktur" />
		<tag k="ssr:stedsnr" v="207100" />
		<tag k="ssr:type" v="adressenavn" />
	</node>
	<node lat="60.47239599934411" lon="9.230815715506084" id="-32628">
		<tag k="name" v="Geitsundvegen" />
		<tag k="ssr:date" v="2019-12-27" />
		<tag k="ssr:gruppe" v="veg" />
		<tag k="ssr:hovedgruppe" v="infrastruktur" />
		<tag k="ssr:stedsnr" v="222858" />
		<tag k="ssr:type" v="adressenavn" />
	</node>
	<node lat="60.54654137752909" lon="8.902183797941275" id="-32630">
		<tag k="name" v="Belgefetvegen" />
		<tag k="ssr:date" v="2019-12-27" />
		<tag k="ssr:gruppe" v="veg" />
		<tag k="ssr:hovedgruppe" v="infrastruktur" />
		<tag k="ssr:stedsnr" v="301283" />
		<tag k="ssr:type" v="adressenavn" />
	</node>
	<node lat="60.51733246404532" lon="9.171559332269425" id="-32631">
		<tag k="name" v="Nedre Bentehaugvegen" />
		<tag k="ssr:date" v="2019-12-27" />
		<tag k="ssr:gruppe" v="veg" />
		<tag k="ssr:hovedgruppe" v="infrastruktur" />
		<tag k="ssr:stedsnr" v="302130" />
		<tag k="ssr:type" v="adressenavn" />
	</node>
	<node lat="60.44296452566356" lon="9.143336932777245" id="-32632">
		<tag k="name" v="Imlevegen" />
		<tag k="ssr:date" v="2019-12-27" />
		<tag k="ssr:gruppe" v="veg" />
		<tag k="ssr:hovedgruppe" v="infrastruktur" />
		<tag k="ssr:stedsnr" v="302131" />
		<tag k="ssr:type" v="adressenavn" />
	</node>
	<node lat="60.47834645746048" lon="9.243714254586846" id="-32634">
		<tag k="name" v="Bergsvegen" />
		<tag k="ssr:date" v="2019-12-27" />
		<tag k="ssr:gruppe" v="veg" />
		<tag k="ssr:hovedgruppe" v="infrastruktur" />
		<tag k="ssr:stedsnr" v="303355" />
		<tag k="ssr:type" v="adressenavn" />
	</node>
	<node lat="60.60437219064126" lon="9.155240133104751" id="-32635">
		<tag k="name" v="Lomtjernvegen" />
		<tag k="ssr:date" v="2019-12-27" />
		<tag k="ssr:gruppe" v="veg" />
		<tag k="ssr:hovedgruppe" v="infrastruktur" />
		<tag k="ssr:stedsnr" v="303358" />
		<tag k="ssr:type" v="adressenavn" />
	</node>
	<node lat="60.617433214281775" lon="9.133177869813531" id="-32636">
		<tag k="name" v="Bjørhusvegen" />
		<tag k="ssr:date" v="2019-12-27" />
		<tag k="ssr:gruppe" v="veg" />
		<tag k="ssr:hovedgruppe" v="infrastruktur" />
		<tag k="ssr:stedsnr" v="303663" />
		<tag k="ssr:type" v="adressenavn" />
	</node>
	<node lat="60.56969778922945" lon="9.097296834917957" id="-32672">
		<tag k="name" v="Sjåheimvegen" />
		<tag k="ssr:date" v="2019-12-27" />
		<tag k="ssr:gruppe" v="veg" />
		<tag k="ssr:hovedgruppe" v="infrastruktur" />
		<tag k="ssr:stedsnr" v="328087" />
		<tag k="ssr:type" v="adressenavn" />
	</node>
	<node lat="60.486558797764935" lon="8.81887967420597" id="-32673">
		<tag k="name" v="Rukkedalsvegen" />
		<tag k="ssr:date" v="2019-12-27" />
		<tag k="ssr:gruppe" v="veg" />
		<tag k="ssr:hovedgruppe" v="infrastruktur" />
		<tag k="ssr:stedsnr" v="328091" />
		<tag k="ssr:type" v="adressenavn" />
	</node>
	<node lat="60.5677441897504" lon="9.125073781142776" id="-32674">
		<tag k="name" v="Symrevegen" />
		<tag k="ssr:date" v="2019-12-27" />
		<tag k="ssr:gruppe" v="veg" />
		<tag k="ssr:hovedgruppe" v="infrastruktur" />
		<tag k="ssr:stedsnr" v="328100" />
		<tag k="ssr:type" v="adressenavn" />
	</node>
	<node lat="60.561939170672005" lon="9.021461158734366" id="-32688">
		<tag k="name" v="Gjerdingvegen" />
		<tag k="ssr:date" v="2019-12-27" />
		<tag k="ssr:gruppe" v="veg" />
		<tag k="ssr:hovedgruppe" v="infrastruktur" />
		<tag k="ssr:stedsnr" v="343240" />
		<tag k="ssr:type" v="adressenavn" />
	</node>
	<node lat="60.50415207437863" lon="9.197142968639442" id="-32690">
		<tag k="name" v="Benterudvegen" />
		<tag k="ssr:date" v="2019-12-27" />
		<tag k="ssr:gruppe" v="veg" />
		<tag k="ssr:hovedgruppe" v="infrastruktur" />
		<tag k="ssr:stedsnr" v="344335" />
		<tag k="ssr:type" v="adressenavn" />
	</node>
	<node lat="60.53843978569621" lon="8.935204663147704" id="-32696">
		<tag k="name" v="Saupesetvegen" />
		<tag k="ssr:date" v="2019-12-27" />
		<tag k="ssr:gruppe" v="veg" />
		<tag k="ssr:hovedgruppe" v="infrastruktur" />
		<tag k="ssr:stedsnr" v="362321" />
		<tag k="ssr:type" v="adressenavn" />
	</node>
	<node lat="60.64814783203348" lon="9.05033748803018" id="-32697">
		<tag k="name" v="Svenkerudvegen" />
		<tag k="ssr:date" v="2019-12-27" />
		<tag k="ssr:gruppe" v="veg" />
		<tag k="ssr:hovedgruppe" v="infrastruktur" />
		<tag k="ssr:stedsnr" v="362650" />
		<tag k="ssr:type" v="adressenavn" />
	</node>
	<node lat="60.44569223276392" lon="9.146029552170726" id="-32698">
		<tag k="name" v="Tjernsetvegen" />
		<tag k="ssr:date" v="2019-12-27" />
		<tag k="ssr:gruppe" v="veg" />
		<tag k="ssr:hovedgruppe" v="infrastruktur" />
		<tag k="ssr:stedsnr" v="363394" />
		<tag k="ssr:type" v="adressenavn" />
	</node>
	<node lat="60.50184160405478" lon="9.114314490089676" id="-32759">
		<tag k="name" v="Buhovd" />
		<tag k="ssr:date" v="2019-12-27" />
		<tag k="ssr:gruppe" v="veg" />
		<tag k="ssr:hovedgruppe" v="infrastruktur" />
		<tag k="ssr:stedsnr" v="406289" />
		<tag k="ssr:type" v="adressenavn" />
	</node>
	<node lat="60.490467549272296" lon="9.054182546505936" id="-32761">
		<tag k="name" v="Heimlie" />
		<tag k="ssr:date" v="2019-12-27" />
		<tag k="ssr:gruppe" v="veg" />
		<tag k="ssr:hovedgruppe" v="infrastruktur" />
		<tag k="ssr:stedsnr" v="423686" />
		<tag k="ssr:type" v="adressenavn" />
	</node>
	<node lat="60.51447501974889" lon="9.113485206020911" id="-32762">
		<tag k="name" v="Saupeset" />
		<tag k="ssr:date" v="2019-12-27" />
		<tag k="ssr:gruppe" v="veg" />
		<tag k="ssr:hovedgruppe" v="infrastruktur" />
		<tag k="ssr:stedsnr" v="424130" />
		<tag k="ssr:type" v="adressenavn" />
	</node>
	<node lat="60.485184087946124" lon="8.812738568114856" id="-32764">
		<tag k="name" v="Buvasskroken" />
		<tag k="ssr:date" v="2019-12-27" />
		<tag k="ssr:gruppe" v="veg" />
		<tag k="ssr:hovedgruppe" v="infrastruktur" />
		<tag k="ssr:stedsnr" v="424331" />
		<tag k="ssr:type" v="adressenavn" />
	</node>
	<node lat="60.532185586985754" lon="8.781597239494134" id="-32771">
		<tag k="name" v="Vestre Grønhovdtjernvegen" />
		<tag k="ssr:date" v="2019-12-27" />
		<tag k="ssr:gruppe" v="veg" />
		<tag k="ssr:hovedgruppe" v="infrastruktur" />
		<tag k="ssr:stedsnr" v="425618" />
		<tag k="ssr:type" v="adressenavn" />
	</node>
	<node lat="60.568657829354244" lon="9.104031085497935" id="-32813">
		<tag k="name" v="Jordeshagen" />
		<tag k="ssr:date" v="2019-12-27" />
		<tag k="ssr:gruppe" v="veg" />
		<tag k="ssr:hovedgruppe" v="infrastruktur" />
		<tag k="ssr:stedsnr" v="510091" />
		<tag k="ssr:type" v="adressenavn" />
	</node>
	<node lat="60.568657829354244" lon="9.104031085497935" id="-32814">
		<tag k="name" v="Halandvegen" />
		<tag k="ssr:date" v="2019-12-27" />
		<tag k="ssr:gruppe" v="veg" />
		<tag k="ssr:hovedgruppe" v="infrastruktur" />
		<tag k="ssr:stedsnr" v="510094" />
		<tag k="ssr:type" v="adressenavn" />
	</node>
	<node lat="60.576965112344936" lon="9.111990316235609" id="-32815">
		<tag k="name" v="Rudvegen" />
		<tag k="ssr:date" v="2019-12-27" />
		<tag k="ssr:gruppe" v="veg" />
		<tag k="ssr:hovedgruppe" v="infrastruktur" />
		<tag k="ssr:stedsnr" v="510099" />
		<tag k="ssr:type" v="adressenavn" />
	</node>
	<node lat="60.563042392518504" lon="9.056286497768792" id="-32829">
		<tag k="name" v="Øygardsvegen" />
		<tag k="ssr:date" v="2019-12-27" />
		<tag k="ssr:gruppe" v="veg" />
		<tag k="ssr:hovedgruppe" v="infrastruktur" />
		<tag k="ssr:stedsnr" v="526743" />
		<tag k="ssr:type" v="adressenavn" />
	</node>
	<node lat="60.516579854364274" lon="9.189405216803893" id="-32830">
		<tag k="name" v="Bentehaugvegen" />
		<tag k="ssr:date" v="2019-12-27" />
		<tag k="ssr:gruppe" v="veg" />
		<tag k="ssr:hovedgruppe" v="infrastruktur" />
		<tag k="ssr:stedsnr" v="526328" />
		<tag k="ssr:type" v="adressenavn" />
	</node>
	<node lat="60.59909973879683" lon="9.269698639665924" id="-32832">
		<tag k="name" v="Gampetjernvegen" />
		<tag k="ssr:date" v="2019-12-27" />
		<tag k="ssr:gruppe" v="veg" />
		<tag k="ssr:hovedgruppe" v="infrastruktur" />
		<tag k="ssr:stedsnr" v="545301" />
		<tag k="ssr:type" v="adressenavn" />
	</node>
	<node lat="60.48816108393664" lon="9.063295815238865" id="-32835">
		<tag k="name" v="Stormyrvegen" />
		<tag k="ssr:date" v="2019-12-27" />
		<tag k="ssr:gruppe" v="veg" />
		<tag k="ssr:hovedgruppe" v="infrastruktur" />
		<tag k="ssr:stedsnr" v="545437" />
		<tag k="ssr:type" v="adressenavn" />
	</node>
	<node lat="60.6617093591975" lon="9.306027003568415" id="-32836">
		<tag k="name" v="Buvasstølvegen" />
		<tag k="ssr:date" v="2019-12-27" />
		<tag k="ssr:gruppe" v="veg" />
		<tag k="ssr:hovedgruppe" v="infrastruktur" />
		<tag k="ssr:stedsnr" v="545633" />
		<tag k="ssr:type" v="adressenavn" />
	</node>
	<node lat="60.567603676629915" lon="9.101799291183665" id="-32885">
		<tag k="name" v="Skrivargutu" />
		<tag k="ssr:date" v="2019-12-27" />
		<tag k="ssr:gruppe" v="veg" />
		<tag k="ssr:hovedgruppe" v="infrastruktur" />
		<tag k="ssr:stedsnr" v="571093" />
		<tag k="ssr:type" v="adressenavn" />
	</node>
	<node lat="60.57737690520971" lon="9.116699342079755" id="-32893">
		<tag k="name" v="Bækenlia" />
		<tag k="ssr:date" v="2019-12-27" />
		<tag k="ssr:gruppe" v="veg" />
		<tag k="ssr:hovedgruppe" v="infrastruktur" />
		<tag k="ssr:stedsnr" v="571097" />
		<tag k="ssr:type" v="adressenavn" />
	</node>
	<node lat="60.531118891891204" lon="8.76505733088437" id="-32907">
		<tag k="name" v="Øvre Grønhovdvegen" />
		<tag k="ssr:date" v="2019-12-27" />
		<tag k="ssr:gruppe" v="veg" />
		<tag k="ssr:hovedgruppe" v="infrastruktur" />
		<tag k="ssr:stedsnr" v="605331" />
		<tag k="ssr:type" v="adressenavn" />
	</node>
	<node lat="60.569760372351965" lon="9.142925406127224" id="-32910">
		<tag k="name" v="Vassfarvegen" />
		<tag k="ssr:date" v="2019-12-27" />
		<tag k="ssr:gruppe" v="veg" />
		<tag k="ssr:hovedgruppe" v="infrastruktur" />
		<tag k="ssr:stedsnr" v="605984" />
		<tag k="ssr:type" v="adressenavn" />
	</node>
	<node lat="60.54900962974033" lon="8.947937169721287" id="-32976">
		<tag k="name" v="Gudbrandsrudvegen" />
		<tag k="ssr:date" v="2019-12-27" />
		<tag k="ssr:gruppe" v="veg" />
		<tag k="ssr:hovedgruppe" v="infrastruktur" />
		<tag k="ssr:stedsnr" v="646851" />
		<tag k="ssr:type" v="adressenavn" />
	</node>
	<node lat="60.50881608748457" lon="8.96289707620449" id="-32978">
		<tag k="name" v="Kulusetvegen" />
		<tag k="ssr:date" v="2019-12-27" />
		<tag k="ssr:gruppe" v="veg" />
		<tag k="ssr:hovedgruppe" v="infrastruktur" />
		<tag k="ssr:stedsnr" v="666357" />
		<tag k="ssr:type" v="adressenavn" />
	</node>
	<node lat="60.53423564899436" lon="8.864992478317838" id="-32980">
		<tag k="name" v="Skålsrudstølvegen" />
		<tag k="ssr:date" v="2019-12-27" />
		<tag k="ssr:gruppe" v="veg" />
		<tag k="ssr:hovedgruppe" v="infrastruktur" />
		<tag k="ssr:stedsnr" v="666473" />
		<tag k="ssr:type" v="adressenavn" />
	</node>
	<node lat="60.65364754393706" lon="9.340925340330458" id="-32983">
		<tag k="name" v="Bergatjernvegen" />
		<tag k="ssr:date" v="2019-12-27" />
		<tag k="ssr:gruppe" v="veg" />
		<tag k="ssr:hovedgruppe" v="infrastruktur" />
		<tag k="ssr:stedsnr" v="667941" />
		<tag k="ssr:type" v="adressenavn" />
	</node>
	<node lat="60.54089320589389" lon="9.297808360265387" id="-32986">
		<tag k="name" v="Fjølasetvegen" />
		<tag k="ssr:date" v="2019-12-27" />
		<tag k="ssr:gruppe" v="veg" />
		<tag k="ssr:hovedgruppe" v="infrastruktur" />
		<tag k="ssr:stedsnr" v="727347" />
		<tag k="ssr:type" v="adressenavn" />
	</node>
	<node lat="60.56440446754601" lon="9.027926974798014" id="-32987">
		<tag k="name" v="Eidalsvegen" />
		<tag k="ssr:date" v="2019-12-27" />
		<tag k="ssr:gruppe" v="veg" />
		<tag k="ssr:hovedgruppe" v="infrastruktur" />
		<tag k="ssr:stedsnr" v="727357" />
		<tag k="ssr:type" v="adressenavn" />
	</node>
	<node lat="60.56529019333102" lon="9.128529306999235" id="-33034">
		<tag k="name" v="Konvallvegen" />
		<tag k="ssr:date" v="2019-12-27" />
		<tag k="ssr:gruppe" v="veg" />
		<tag k="ssr:hovedgruppe" v="infrastruktur" />
		<tag k="ssr:stedsnr" v="753082" />
		<tag k="ssr:type" v="adressenavn" />
	</node>
	<node lat="60.5618634681578" lon="9.135063489140318" id="-33035">
		<tag k="name" v="Tøllemovegen" />
		<tag k="ssr:date" v="2019-12-27" />
		<tag k="ssr:gruppe" v="veg" />
		<tag k="ssr:hovedgruppe" v="infrastruktur" />
		<tag k="ssr:stedsnr" v="753083" />
		<tag k="ssr:type" v="adressenavn" />
	</node>
	<node lat="60.54970004633826" lon="9.16280248602113" id="-33060">
		<tag k="name" v="Åsvegen" />
		<tag k="ssr:date" v="2019-12-27" />
		<tag k="ssr:gruppe" v="veg" />
		<tag k="ssr:hovedgruppe" v="infrastruktur" />
		<tag k="ssr:stedsnr" v="769328" />
		<tag k="ssr:type" v="adressenavn" />
	</node>
	<node lat="60.60068688235625" lon="9.277404718588441" id="-33063">
		<tag k="name" v="Syningset" />
		<tag k="ssr:date" v="2019-12-27" />
		<tag k="ssr:gruppe" v="veg" />
		<tag k="ssr:hovedgruppe" v="infrastruktur" />
		<tag k="ssr:stedsnr" v="787344" />
		<tag k="ssr:type" v="adressenavn" />
	</node>
	<node lat="60.423118370619704" lon="9.154038234226439" id="-33064">
		<tag k="name" v="Nørdre Buhovdvegen" />
		<tag k="ssr:date" v="2019-12-27" />
		<tag k="ssr:gruppe" v="veg" />
		<tag k="ssr:hovedgruppe" v="infrastruktur" />
		<tag k="ssr:stedsnr" v="787456" />
		<tag k="ssr:type" v="adressenavn" />
	</node>
	<node lat="60.569783890346535" lon="9.122130590297461" id="-33120">
		<tag k="name" v="Sandevja" />
		<tag k="ssr:date" v="2019-12-27" />
		<tag k="ssr:gruppe" v="veg" />
		<tag k="ssr:hovedgruppe" v="infrastruktur" />
		<tag k="ssr:stedsnr" v="814116" />
		<tag k="ssr:type" v="adressenavn" />
	</node>
	<node lat="60.488404149943726" lon="8.885962594377814" id="-33135">
		<tag k="name" v="Liasetvegen" />
		<tag k="ssr:date" v="2019-12-27" />
		<tag k="ssr:gruppe" v="veg" />
		<tag k="ssr:hovedgruppe" v="infrastruktur" />
		<tag k="ssr:stedsnr" v="814834" />
		<tag k="ssr:type" v="adressenavn" />
	</node>
	<node lat="60.5186320498154" lon="8.813893544584653" id="-33136">
		<tag k="name" v="Brusetvegen" />
		<tag k="ssr:date" v="2019-12-27" />
		<tag k="ssr:gruppe" v="veg" />
		<tag k="ssr:hovedgruppe" v="infrastruktur" />
		<tag k="ssr:stedsnr" v="814838" />
		<tag k="ssr:type" v="adressenavn" />
	</node>
	<node lat="60.515445354274334" lon="9.113724923522309" id="-33143">
		<tag k="name" v="Påverudvegen" />
		<tag k="ssr:date" v="2019-12-27" />
		<tag k="ssr:gruppe" v="veg" />
		<tag k="ssr:hovedgruppe" v="infrastruktur" />
		<tag k="ssr:stedsnr" v="831272" />
		<tag k="ssr:type" v="adressenavn" />
	</node>
	<node lat="60.600189481961706" lon="9.286225692573492" id="-33147">
		<tag k="name" v="Lyseren" />
		<tag k="ssr:date" v="2019-12-27" />
		<tag k="ssr:gruppe" v="veg" />
		<tag k="ssr:hovedgruppe" v="infrastruktur" />
		<tag k="ssr:stedsnr" v="848356" />
		<tag k="ssr:type" v="adressenavn" />
	</node>
	<node lat="60.53600939549636" lon="8.809360641165949" id="-33149">
		<tag k="name" v="Austre Mohaugvegen" />
		<tag k="ssr:date" v="2019-12-27" />
		<tag k="ssr:gruppe" v="veg" />
		<tag k="ssr:hovedgruppe" v="infrastruktur" />
		<tag k="ssr:stedsnr" v="849357" />
		<tag k="ssr:type" v="adressenavn" />
	</node>
	<node lat="60.535025420033186" lon="8.815156206050812" id="-33150">
		<tag k="name" v="Haugavollvegen" />
		<tag k="ssr:date" v="2019-12-27" />
		<tag k="ssr:gruppe" v="veg" />
		<tag k="ssr:hovedgruppe" v="infrastruktur" />
		<tag k="ssr:stedsnr" v="849360" />
		<tag k="ssr:type" v="adressenavn" />
	</node>
	<node lat="60.43773867186481" lon="9.155260321723569" id="-33151">
		<tag k="name" v="Mytevegen" />
		<tag k="ssr:date" v="2019-12-27" />
		<tag k="ssr:gruppe" v="veg" />
		<tag k="ssr:hovedgruppe" v="infrastruktur" />
		<tag k="ssr:stedsnr" v="849460" />
		<tag k="ssr:type" v="adressenavn" />
	</node>
	<node lat="60.53331308064871" lon="9.185473840913467" id="-33152">
		<tag k="name" v="Todølvegen" />
		<tag k="ssr:date" v="2019-12-27" />
		<tag k="ssr:gruppe" v="veg" />
		<tag k="ssr:hovedgruppe" v="infrastruktur" />
		<tag k="ssr:stedsnr" v="849567" />
		<tag k="ssr:type" v="adressenavn" />
	</node>
	<node lat="60.57187121145473" lon="9.128974391687635" id="-33184">
		<tag k="name" v="Revefaret" />
		<tag k="ssr:date" v="2019-12-27" />
		<tag k="ssr:gruppe" v="veg" />
		<tag k="ssr:hovedgruppe" v="infrastruktur" />
		<tag k="ssr:stedsnr" v="874117" />
		<tag k="ssr:type" v="adressenavn" />
	</node>
	<node lat="60.57002183673103" lon="9.129440815600057" id="-33185">
		<tag k="name" v="Rådyrfaret" />
		<tag k="ssr:date" v="2019-12-27" />
		<tag k="ssr:gruppe" v="veg" />
		<tag k="ssr:hovedgruppe" v="infrastruktur" />
		<tag k="ssr:stedsnr" v="874118" />
		<tag k="ssr:type" v="adressenavn" />
	</node>
	<node lat="60.57086095526791" lon="9.10323074175561" id="-33208">
		<tag k="name" v="Nupelykkja" />
		<tag k="ssr:date" v="2019-12-27" />
		<tag k="ssr:gruppe" v="veg" />
		<tag k="ssr:hovedgruppe" v="infrastruktur" />
		<tag k="ssr:stedsnr" v="875109" />
		<tag k="ssr:type" v="adressenavn" />
	</node>
	<node lat="60.57161185163654" lon="9.106404740883955" id="-33209">
		<tag k="name" v="Markvegen" />
		<tag k="ssr:date" v="2019-12-27" />
		<tag k="ssr:gruppe" v="veg" />
		<tag k="ssr:hovedgruppe" v="infrastruktur" />
		<tag k="ssr:stedsnr" v="875110" />
		<tag k="ssr:type" v="adressenavn" />
	</node>
	<node lat="60.5691182845607" lon="9.099282639002867" id="-33210">
		<tag k="name" v="Stasjonsvegen" />
		<tag k="ssr:date" v="2019-12-27" />
		<tag k="ssr:gruppe" v="veg" />
		<tag k="ssr:hovedgruppe" v="infrastruktur" />
		<tag k="ssr:stedsnr" v="875117" />
		<tag k="ssr:type" v="adressenavn" />
	</node>
	<node lat="60.56326739288561" lon="9.02314512083096" id="-33231">
		<tag k="name" v="Haugagutu" />
		<tag k="ssr:date" v="2019-12-27" />
		<tag k="ssr:gruppe" v="veg" />
		<tag k="ssr:hovedgruppe" v="infrastruktur" />
		<tag k="ssr:stedsnr" v="950743" />
		<tag k="ssr:type" v="adressenavn" />
	</node>
	<node lat="60.53248698331546" lon="8.763175634653285" id="-33236">
		<tag k="name" v="Grasdokkvegen" />
		<tag k="ssr:date" v="2019-12-27" />
		<tag k="ssr:gruppe" v="veg" />
		<tag k="ssr:hovedgruppe" v="infrastruktur" />
		<tag k="ssr:stedsnr" v="969301" />
		<tag k="ssr:type" v="adressenavn" />
	</node>
	<node lat="60.538112340554896" lon="9.005613330617598" id="-33290">
		<tag k="name" v="Jonsejuvtoppen" />
		<tag k="ssr:date" v="2019-12-27" />
		<tag k="ssr:gruppe" v="veg" />
		<tag k="ssr:hovedgruppe" v="infrastruktur" />
		<tag k="ssr:stedsnr" v="1073534" />
		<tag k="ssr:type" v="adressenavn" />
	</node>
	<node lat="60.49899814560128" lon="8.82750690048985" id="-33293">
		<tag k="name" v="Austre Lyserenvegen" />
		<tag k="ssr:date" v="2020-02-20" />
		<tag k="ssr:gruppe" v="veg" />
		<tag k="ssr:hovedgruppe" v="infrastruktur" />
		<tag k="ssr:stedsnr" v="1075411" />
		<tag k="ssr:type" v="adressenavn" />
	</node>
	<node lat="60.49813721254609" lon="8.821449973950012" id="-33318">
		<tag k="name" v="Søre Lyservegen" />
		<tag k="ssr:date" v="2020-09-15" />
		<tag k="ssr:gruppe" v="veg" />
		<tag k="ssr:hovedgruppe" v="infrastruktur" />
		<tag k="ssr:stedsnr" v="1078271" />
		<tag k="ssr:type" v="adressenavn" />
	</node>
</osm>
