<?xml version="1.0" encoding="UTF-8"?>
<osm generator="osmapis" version="0.6">
	<node id="-15984" lat="59.5906333357" lon="11.1766361132">
		<tag k="amenity" v="place_of_worship" />
		<tag k="fixme" v="specify religion=*, denomination=*, building=* etc" />
		<tag k="name" v="Grøtvedt menighetssenter" />
		<tag k="ssr:stedsnr" v="268614" />
	</node>
	<node id="-16125" lat="59.590538887" lon="11.1550638943">
		<tag k="amenity" v="place_of_worship" />
		<tag k="denomination" v="lutheran" />
		<tag k="name" v="Askim kirke" />
		<tag k="religion" v="christian" />
		<tag k="ssr:stedsnr" v="792584" />
	</node>
	<node id="-16124" lat="59.5433638889" lon="11.1719222178">
		<tag k="name" v="Skrenten" />
		<tag k="place" v="locality" />
		<tag k="ssr:stedsnr" v="752066" />
	</node>
	<node id="-16112" lat="59.5464499993" lon="11.1759583324">
		<tag k="name" v="Skjørtenhytta" />
		<tag k="place" v="locality" />
		<tag k="ssr:stedsnr" v="691106" />
	</node>
	<node id="-16044" lat="59.6491722187" lon="11.1823444393">
		<tag k="name" v="Nordhytta" />
		<tag k="place" v="locality" />
		<tag k="ssr:stedsnr" v="449010" />
	</node>
	<node id="-15943" lat="59.646183329" lon="11.177252776">
		<tag k="name" v="Rælingen" />
		<tag k="place" v="locality" />
		<tag k="ssr:stedsnr" v="24016" />
	</node>
</osm>
