<?xml version="1.0" encoding="UTF-8"?>
<osm generator="osmapis" version="0.6">
	<node id="-16128" lat="59.6337972231" lon="11.1566111043">
		<tag k="fixme" v="consider natural=peak for the most distinct mountains in the district" />
		<tag k="name" v="Tyrihjellåsen" />
		<tag k="natural" v="hill" />
		<tag k="place" v="locality" />
		<tag k="ssr:stedsnr" v="871628" />
	</node>
	<node id="-16060" lat="59.5619916637" lon="11.2130527818">
		<tag k="fixme" v="consider natural=peak for the most distinct mountains in the district" />
		<tag k="name" v="Gruveåsen" />
		<tag k="natural" v="hill" />
		<tag k="place" v="locality" />
		<tag k="ssr:stedsnr" v="610611" />
	</node>
	<node id="-15927" lat="59.6060166655" lon="11.215805549">
		<tag k="fixme" v="consider natural=peak for the most distinct mountains in the district" />
		<tag k="name" v="Nylendeåsen" />
		<tag k="natural" v="hill" />
		<tag k="place" v="locality" />
		<tag k="ssr:stedsnr" v="65904" />
	</node>
	<node id="-15990" lat="59.6439611114" lon="11.1853361167">
		<tag k="fixme" v="consider natural=peak for the most distinct mountains in the district" />
		<tag k="name" v="Vardeåsen" />
		<tag k="natural" v="hill" />
		<tag k="place" v="locality" />
		<tag k="ssr:stedsnr" v="248000" />
	</node>
	<node id="-15956" lat="59.5881333317" lon="11.1092916607">
		<tag k="fixme" v="consider natural=peak for the most distinct mountains in the district" />
		<tag k="name" v="Romsåsen" />
		<tag k="natural" v="hill" />
		<tag k="place" v="locality" />
		<tag k="ssr:stedsnr" v="143757" />
	</node>
	<node id="-16018" lat="59.6076444454" lon="11.1659527861">
		<tag k="name" v="Haraldshaugen" />
		<tag k="natural" v="hill" />
		<tag k="place" v="locality" />
		<tag k="ssr:stedsnr" v="447660" />
	</node>
	<node id="-15919" lat="59.6068805542" lon="11.1509138811">
		<tag k="name" v="Kloden" />
		<tag k="natural" v="hill" />
		<tag k="place" v="locality" />
		<tag k="ssr:stedsnr" v="22668" />
	</node>
	<node id="-16103" lat="59.5809250037" lon="11.1194527866">
		<tag k="fixme" v="consider natural=peak for the most distinct mountains in the district" />
		<tag k="name" v="Svinekleåsen" />
		<tag k="natural" v="hill" />
		<tag k="place" v="locality" />
		<tag k="ssr:stedsnr" v="792599" />
	</node>
	<node id="-16037" lat="59.5979027758" lon="11.152416674">
		<tag k="name" v="Offeret" />
		<tag k="natural" v="hill" />
		<tag k="place" v="locality" />
		<tag k="ssr:stedsnr" v="507681" />
	</node>
	<node id="-16132" lat="59.5884083354" lon="11.1231888871">
		<tag k="fixme" v="consider natural=peak for the most distinct mountains in the district" />
		<tag k="name" v="Kråkåsen" />
		<tag k="natural" v="hill" />
		<tag k="place" v="locality" />
		<tag k="ssr:stedsnr" v="871817" />
	</node>
	<node id="-16097" lat="59.6096888882" lon="11.1285555551">
		<tag k="fixme" v="consider natural=peak for the most distinct mountains in the district" />
		<tag k="name" v="Batteriåsen" />
		<tag k="natural" v="hill" />
		<tag k="place" v="locality" />
		<tag k="ssr:stedsnr" v="750651" />
	</node>
</osm>
