<?xml version="1.0" encoding="UTF-8"?>
<osm generator="osmapis" version="0.6">
	<node id="-16095" lat="59.6348416683" lon="11.1677333367">
		<tag k="alt_name" v="Lierelva" />
		<tag k="name" v="Lierevja" />
		<tag k="natural" v="bay" />
		<tag k="ssr:stedsnr" v="732960" />
	</node>
	<node id="-15880" lat="59.570894447" lon="11.1050027789">
		<tag k="name" v="Tobakksøya" />
		<tag k="place" v="island" />
		<tag k="ssr:stedsnr" v="325622" />
	</node>
	<node id="-15994" lat="59.6103944484" lon="11.1386416727">
		<tag k="name" v="Gudimevja" />
		<tag k="natural" v="water" />
		<tag k="ssr:stedsnr" v="264664" />
		<tag k="water" v="lake" />
	</node>
	<node id="-15993" lat="59.6275194402" lon="11.1563861049">
		<tag k="name" v="Tømtbekken" />
		<tag k="ssr:stedsnr" v="264632" />
		<tag k="waterway" v="stream" />
	</node>
	<node id="-16055" lat="59.6052805512" lon="11.1597361117">
		<tag k="name" v="Kolstadbekken" />
		<tag k="ssr:stedsnr" v="567659" />
		<tag k="waterway" v="stream" />
	</node>
	<node id="-15926" lat="59.6228333337" lon="11.1439055522">
		<tag k="name" v="Onstadsundet" />
		<tag k="natural" v="strait" />
		<tag k="ssr:stedsnr" v="64960" />
	</node>
	<node id="-15892" lat="59.5724881017" lon="11.1102261805">
		<tag k="alt_name" v="Glåmvika;Glomvikbukta" />
		<tag k="name" v="Glomvika" />
		<tag k="natural" v="bay" />
		<tag k="ssr:stedsnr" v="367591" />
	</node>
	<node id="-15924" lat="59.5446527757" lon="11.1420111027">
		<tag k="name" v="Vammasjøen" />
		<tag k="natural" v="water" />
		<tag k="ssr:stedsnr" v="64506" />
		<tag k="water" v="lake" />
	</node>
	<node id="-15939" lat="59.6115138857" lon="11.1366611137">
		<tag k="name" v="Huertangen" />
		<tag k="natural" v="cape" />
		<tag k="ssr:stedsnr" v="82656" />
	</node>
	<node id="-16066" lat="59.5518166657" lon="11.1474499946">
		<tag k="name" v="Engerbukta" />
		<tag k="natural" v="bay" />
		<tag k="ssr:stedsnr" v="628614" />
	</node>
	<node id="-15912" lat="59.5421555542" lon="11.1710833331">
		<tag k="name" v="Vammafossen" />
		<tag k="natural" v="waterfall" />
		<tag k="ssr:stedsnr" v="24083" />
	</node>
	<node id="-15917" lat="59.5623194433" lon="11.1667305594">
		<tag k="name" v="Løkenbekken" />
		<tag k="ssr:stedsnr" v="22628" />
		<tag k="waterway" v="stream" />
	</node>
	<node id="-15938" lat="59.5640527799" lon="11.1522944359">
		<tag k="name" v="Revaug vad" />
		<tag k="natural" v="beach" />
		<tag k="ssr:stedsnr" v="82621" />
	</node>
	<node id="-16136" lat="59.5586499986" lon="11.1254861093">
		<tag k="alt_name" v="Vrangen fossen" />
		<tag k="name" v="Vrangfoss" />
		<tag k="natural" v="waterfall" />
		<tag k="ssr:stedsnr" v="914545" />
	</node>
	<node id="-16070" lat="59.5886138898" lon="11.0966250087">
		<tag k="name" v="Nordbukta" />
		<tag k="natural" v="bay" />
		<tag k="ssr:stedsnr" v="628753" />
	</node>
	<node id="-15940" lat="59.6066805593" lon="11.1174833267">
		<tag k="name" v="Streta" />
		<tag k="natural" v="bay" />
		<tag k="ssr:stedsnr" v="82661" />
	</node>
	<node id="-16100" lat="59.5885527814" lon="11.2096805523">
		<tag k="name" v="Eidarengbekken" />
		<tag k="ssr:stedsnr" v="752049" />
		<tag k="waterway" v="stream" />
	</node>
	<node id="-16099" lat="59.5510472259" lon="11.1361694408">
		<tag k="name" v="Vrangentangen" />
		<tag k="natural" v="cape" />
		<tag k="ssr:stedsnr" v="750788" />
	</node>
	<node id="-16130" lat="59.6062749987" lon="11.139280557">
		<tag k="name" v="Jernbanevika" />
		<tag k="natural" v="bay" />
		<tag k="ssr:stedsnr" v="871655" />
	</node>
</osm>
