<?xml version="1.0" encoding="UTF-8"?>
<osm generator="osmapis" version="0.6">
	<node id="-15872" lat="59.5694083345" lon="11.1994277701">
		<tag k="alt_name" v="Massengen" />
		<tag k="name" v="Maseng" />
		<tag k="place" v="farm" />
		<tag k="ssr:stedsnr" v="307591" />
	</node>
	<node id="-15871" lat="59.5663249995" lon="11.1306083394">
		<tag k="name" v="Oraug" />
		<tag k="place" v="farm" />
		<tag k="ssr:stedsnr" v="307580" />
	</node>
	<node id="-15870" lat="59.5614944401" lon="11.171936117">
		<tag k="name" v="Stegen" />
		<tag k="place" v="farm" />
		<tag k="ssr:stedsnr" v="307552" />
	</node>
	<node id="-16156" lat="59.5534483519" lon="11.1692962423">
		<tag k="fixme" v="consider place=hamlet" />
		<tag k="name" v="Søndre Skjørten" />
		<tag k="place" v="farm" />
		<tag k="ssr:stedsnr" v="976220" />
	</node>
	<node id="-16155" lat="59.5563241525" lon="11.1747116569">
		<tag k="fixme" v="consider place=hamlet" />
		<tag k="name" v="Nordre Skjørten" />
		<tag k="place" v="farm" />
		<tag k="ssr:stedsnr" v="976111" />
	</node>
	<node id="-16152" lat="59.5816027781" lon="11.1055083408">
		<tag k="fixme" v="consider place=hamlet" />
		<tag k="name" v="Kykkelsrud" />
		<tag k="place" v="village" />
		<tag k="ssr:stedsnr" v="935451" />
	</node>
	<node id="-16151" lat="59.5658861144" lon="11.1948472283">
		<tag k="alt_name" v="Hol østre" />
		<tag k="name" v="Østre Hol" />
		<tag k="place" v="farm" />
		<tag k="ssr:stedsnr" v="934066" />
	</node>
	<node id="-16150" lat="59.5747833362" lon="11.1995166661">
		<tag k="name" v="Heier" />
		<tag k="place" v="farm" />
		<tag k="ssr:stedsnr" v="934062" />
	</node>
	<node id="-16148" lat="59.6051305559" lon="11.1784416706">
		<tag k="name" v="Torp" />
		<tag k="place" v="farm" />
		<tag k="ssr:stedsnr" v="934039" />
	</node>
	<node id="-16147" lat="59.6058305551" lon="11.2004472251">
		<tag k="name" v="Bråten" />
		<tag k="place" v="farm" />
		<tag k="ssr:stedsnr" v="934034" />
	</node>
	<node id="-16146" lat="59.6185805516" lon="11.2002361117">
		<tag k="name" v="Blandholengen" />
		<tag k="place" v="farm" />
		<tag k="ssr:stedsnr" v="934023" />
	</node>
	<node id="-16145" lat="59.5552111109" lon="11.1309972262">
		<tag k="name" v="Vrangen" />
		<tag k="place" v="locality" />
		<tag k="ssr:stedsnr" v="932602" />
	</node>
	<node id="-16144" lat="59.5603027789" lon="11.1655055614">
		<tag k="name" v="Ringnes" />
		<tag k="place" v="locality" />
		<tag k="ssr:stedsnr" v="932595" />
	</node>
	<node id="-16143" lat="59.6210138847" lon="11.2109694429">
		<tag k="name" v="Haga" />
		<tag k="place" v="farm" />
		<tag k="ssr:stedsnr" v="914948" />
	</node>
	<node id="-16142" lat="59.6102166694" lon="11.1930555525">
		<tag k="name" v="Olberg" />
		<tag k="place" v="farm" />
		<tag k="ssr:stedsnr" v="914937" />
	</node>
	<node id="-16141" lat="59.6040111147" lon="11.2287333324">
		<tag k="name" v="Nygård" />
		<tag k="place" v="farm" />
		<tag k="ssr:stedsnr" v="914887" />
	</node>
	<node id="-16140" lat="59.5954527789" lon="11.1723194507">
		<tag k="alt_name" v="Grøtvet" />
		<tag k="name" v="Grøttvet" />
		<tag k="place" v="farm" />
		<tag k="ssr:stedsnr" v="914878" />
	</node>
	<node id="-16139" lat="59.5786611123" lon="11.1308361082">
		<tag k="alt_name" v="Kvakkestad søndre;Kvakestad søndre" />
		<tag k="name" v="Søndre Kvakkestad" />
		<tag k="place" v="farm" />
		<tag k="ssr:stedsnr" v="914633" />
	</node>
	<node id="-16138" lat="59.5660527789" lon="11.1750249997">
		<tag k="name" v="Auten" />
		<tag k="place" v="farm" />
		<tag k="ssr:stedsnr" v="914594" />
	</node>
	<node id="-16137" lat="59.5484583292" lon="11.189958333">
		<tag k="name" v="Halstvet" />
		<tag k="place" v="farm" />
		<tag k="ssr:stedsnr" v="914571" />
	</node>
	<node id="-16135" lat="59.5665444469" lon="11.1941999963">
		<tag k="alt_name" v="Hol nordre" />
		<tag k="name" v="Nordre Hol" />
		<tag k="place" v="farm" />
		<tag k="ssr:stedsnr" v="873072" />
	</node>
	<node id="-16134" lat="59.6229805578" lon="11.2068166607">
		<tag k="name" v="Hobølhagen" />
		<tag k="place" v="farm" />
		<tag k="ssr:stedsnr" v="873023" />
	</node>
	<node id="-16133" lat="59.5778388856" lon="11.1519944374">
		<tag k="alt_name" v="Hov nordre" />
		<tag k="name" v="Nordre Hov" />
		<tag k="place" v="farm" />
		<tag k="ssr:stedsnr" v="871823" />
	</node>
	<node id="-16131" lat="59.5864333352" lon="11.1323416661">
		<tag k="name" v="Frydenlund" />
		<tag k="place" v="farm" />
		<tag k="ssr:stedsnr" v="871814" />
	</node>
	<node id="-16129" lat="59.600863889" lon="11.0998749942">
		<tag k="name" v="Foss" />
		<tag k="place" v="isolated_dwelling" />
		<tag k="ssr:stedsnr" v="871646" />
	</node>
	<node id="-16127" lat="59.5943083303" lon="11.2070083304">
		<tag k="name" v="Hol" />
		<tag k="place" v="farm" />
		<tag k="ssr:stedsnr" v="854882" />
	</node>
	<node id="-16126" lat="59.5724777736" lon="11.1224083347">
		<tag k="name" v="Sand" />
		<tag k="place" v="farm" />
		<tag k="ssr:stedsnr" v="854551" />
	</node>
	<node id="-16125" lat="59.6367666665" lon="11.1764416711">
		<tag k="alt_name" v="Lier nordre" />
		<tag k="name" v="Nordre Lier" />
		<tag k="place" v="farm" />
		<tag k="ssr:stedsnr" v="853962" />
	</node>
	<node id="-16124" lat="59.6273388893" lon="11.19945556">
		<tag k="name" v="Frøhol" />
		<tag k="place" v="farm" />
		<tag k="ssr:stedsnr" v="853951" />
	</node>
	<node id="-16123" lat="59.5767287984" lon="11.1504764553">
		<tag k="fixme" v="consider place=hamlet" />
		<tag k="name" v="Hov" />
		<tag k="place" v="farm" />
		<tag k="ssr:stedsnr" v="853597" />
	</node>
	<node id="-16122" lat="59.5836111071" lon="11.2032972131">
		<tag k="name" v="Tømmerås" />
		<tag k="place" v="farm" />
		<tag k="ssr:stedsnr" v="853580" />
	</node>
	<node id="-16121" lat="59.5834750026" lon="11.2370638942">
		<tag k="alt_name" v="Grønnslet" />
		<tag k="name" v="Grønslett" />
		<tag k="place" v="farm" />
		<tag k="ssr:stedsnr" v="853573" />
	</node>
	<node id="-16120" lat="59.5765944403" lon="11.2034944413">
		<tag k="name" v="Børregården" />
		<tag k="place" v="farm" />
		<tag k="ssr:stedsnr" v="812058" />
	</node>
	<node id="-16118" lat="59.5988333315" lon="11.2015666661">
		<tag k="name" v="Nordengen" />
		<tag k="place" v="farm" />
		<tag k="ssr:stedsnr" v="812029" />
	</node>
	<node id="-16117" lat="59.5866944423" lon="11.1068027741">
		<tag k="name" v="Harehauken" />
		<tag k="place" v="locality" />
		<tag k="ssr:stedsnr" v="811758" />
	</node>
	<node id="-16116" lat="59.5745527785" lon="11.1110249928">
		<tag k="name" v="Sundby" />
		<tag k="place" v="farm" />
		<tag k="ssr:stedsnr" v="811750" />
	</node>
	<node id="-16115" lat="59.5949333365" lon="11.156922228">
		<tag k="name" v="Askim" />
		<tag k="place" v="farm" />
		<tag k="ssr:stedsnr" v="811667" />
	</node>
	<node id="-16114" lat="59.5920416653" lon="11.1445916577">
		<tag k="name" v="Engen" />
		<tag k="place" v="farm" />
		<tag k="ssr:stedsnr" v="810860" />
	</node>
	<node id="-16113" lat="59.5870694399" lon="11.1379083375">
		<tag k="name" v="Frosterud" />
		<tag k="place" v="farm" />
		<tag k="ssr:stedsnr" v="810855" />
	</node>
	<node id="-16112" lat="59.5561749997" lon="11.148636117">
		<tag k="alt_name" v="Engerødegården" />
		<tag k="name" v="Ødegården" />
		<tag k="place" v="farm" />
		<tag k="ssr:stedsnr" v="810633" />
	</node>
	<node id="-16111" lat="59.5678916685" lon="11.1149944381">
		<tag k="name" v="Elvestad" />
		<tag k="place" v="farm" />
		<tag k="ssr:stedsnr" v="810627" />
	</node>
	<node id="-16110" lat="59.6043583306" lon="11.194800006">
		<tag k="alt_name" v="Skavaug" />
		<tag k="name" v="Skavhaug" />
		<tag k="place" v="farm" />
		<tag k="ssr:stedsnr" v="793911" />
	</node>
	<node id="-16109" lat="59.6063777796" lon="11.1464861047">
		<tag k="alt_name" v="Gudim nedre" />
		<tag k="name" v="Nedre Gudim" />
		<tag k="place" v="farm" />
		<tag k="ssr:stedsnr" v="793909" />
	</node>
	<node id="-16108" lat="59.6037000026" lon="11.1345694412">
		<tag k="name" v="Stubberud" />
		<tag k="place" v="farm" />
		<tag k="ssr:stedsnr" v="793907" />
	</node>
	<node id="-16107" lat="59.5579194434" lon="11.1945888906">
		<tag k="name" v="Kampenes" />
		<tag k="place" v="farm" />
		<tag k="ssr:stedsnr" v="793571" />
	</node>
	<node id="-16106" lat="59.5560583328" lon="11.1409500064">
		<tag k="name" v="Kverne" />
		<tag k="place" v="farm" />
		<tag k="ssr:stedsnr" v="793565" />
	</node>
	<node id="-16105" lat="59.5563583304" lon="11.1388500049">
		<tag k="name" v="Flatmark" />
		<tag k="place" v="farm" />
		<tag k="ssr:stedsnr" v="793564" />
	</node>
	<node id="-16104" lat="59.6247583374" lon="11.2198944464">
		<tag k="alt_name" v="Fjellengen" />
		<tag k="name" v="Fjellingen" />
		<tag k="place" v="farm" />
		<tag k="ssr:stedsnr" v="792934" />
	</node>
	<node id="-16098" lat="59.602769443" lon="11.1226055484">
		<tag k="name" v="Stenbøl" />
		<tag k="place" v="farm" />
		<tag k="ssr:stedsnr" v="750652" />
	</node>
	<node id="-16096" lat="59.5535888896" lon="11.1549194389">
		<tag k="name" v="Enger" />
		<tag k="place" v="farm" />
		<tag k="ssr:stedsnr" v="750629" />
	</node>
	<node id="-16094" lat="59.6070916634" lon="11.1909750062">
		<tag k="alt_name" v="Boslet" />
		<tag k="name" v="Boslett" />
		<tag k="place" v="farm" />
		<tag k="ssr:stedsnr" v="732891" />
	</node>
	<node id="-16093" lat="59.5837833319" lon="11.1633861192">
		<tag k="name" v="Askim" />
		<tag k="place" v="town" />
		<tag k="ssr:stedsnr" v="732636" />
	</node>
	<node id="-16092" lat="59.5699444405" lon="11.1405916619">
		<tag k="name" v="Østby" />
		<tag k="place" v="farm" />
		<tag k="ssr:stedsnr" v="732616" />
	</node>
	<node id="-16091" lat="59.5753250013" lon="11.2219138964">
		<tag k="alt_name" v="Eiebakke" />
		<tag k="name" v="Eidbakk" />
		<tag k="place" v="farm" />
		<tag k="ssr:stedsnr" v="732600" />
	</node>
	<node id="-16090" lat="59.5563638888" lon="11.1700833331">
		<tag k="name" v="Kveldsro" />
		<tag k="place" v="isolated_dwelling" />
		<tag k="ssr:stedsnr" v="732575" />
	</node>
	<node id="-16088" lat="59.5438861071" lon="11.1820388802">
		<tag k="name" v="Fosser" />
		<tag k="place" v="farm" />
		<tag k="ssr:stedsnr" v="691093" />
	</node>
	<node id="-16087" lat="59.5725111121" lon="11.1984305641">
		<tag k="name" v="Massengen" />
		<tag k="place" v="farm" />
		<tag k="ssr:stedsnr" v="691084" />
	</node>
	<node id="-16086" lat="59.5940861074" lon="11.1585249972">
		<tag k="alt_name" v="Askim østre" />
		<tag k="name" v="Østre Askim" />
		<tag k="place" v="farm" />
		<tag k="ssr:stedsnr" v="689629" />
	</node>
	<node id="-16085" lat="59.5967722185" lon="11.1036249928">
		<tag k="name" v="Svingen" />
		<tag k="place" v="farm" />
		<tag k="ssr:stedsnr" v="689622" />
	</node>
	<node id="-16084" lat="59.6132583296" lon="11.1478000006">
		<tag k="name" v="Huer" />
		<tag k="place" v="farm" />
		<tag k="ssr:stedsnr" v="671927" />
	</node>
	<node id="-16083" lat="59.6021944465" lon="11.1094138839">
		<tag k="name" v="Kjellås" />
		<tag k="place" v="farm" />
		<tag k="ssr:stedsnr" v="671903" />
	</node>
	<node id="-16082" lat="59.5983527751" lon="11.1008638911">
		<tag k="name" v="Rustad" />
		<tag k="place" v="farm" />
		<tag k="ssr:stedsnr" v="671886" />
	</node>
	<node id="-16081" lat="59.5743777786" lon="11.171949999">
		<tag k="name" v="Løken" />
		<tag k="place" v="farm" />
		<tag k="ssr:stedsnr" v="671621" />
	</node>
	<node id="-16080" lat="59.5736305559" lon="11.140844436">
		<tag k="name" v="Østereng" />
		<tag k="place" v="farm" />
		<tag k="ssr:stedsnr" v="671619" />
	</node>
	<node id="-16079" lat="59.5846000044" lon="11.1230638923">
		<tag k="alt_name" v="Rom søndre" />
		<tag k="name" v="Søndre Rom" />
		<tag k="place" v="farm" />
		<tag k="ssr:stedsnr" v="671604" />
	</node>
	<node id="-16078" lat="59.5842638923" lon="11.2440416757">
		<tag k="alt_name" v="Vengen" />
		<tag k="name" v="Langen" />
		<tag k="place" v="farm" />
		<tag k="ssr:stedsnr" v="671602" />
	</node>
	<node id="-16077" lat="59.5769064125" lon="11.2002507165">
		<tag k="fixme" v="consider place=hamlet" />
		<tag k="name" v="Hon" />
		<tag k="place" v="farm" />
		<tag k="ssr:stedsnr" v="671559" />
	</node>
	<node id="-16076" lat="59.5780027736" lon="11.2120694441">
		<tag k="alt_name" v="Sekkelsten" />
		<tag k="fixme" v="consider place=hamlet" />
		<tag k="name" v="Sekkelstein" />
		<tag k="place" v="farm" />
		<tag k="ssr:stedsnr" v="671557" />
	</node>
	<node id="-16074" lat="59.5706777803" lon="11.1925555489">
		<tag k="alt_name" v="Jaren østre" />
		<tag k="name" v="Østre Jaren" />
		<tag k="place" v="farm" />
		<tag k="ssr:stedsnr" v="630082" />
	</node>
	<node id="-16073" lat="59.6186250008" lon="11.1928083337">
		<tag k="name" v="Blandhol" />
		<tag k="place" v="farm" />
		<tag k="ssr:stedsnr" v="630034" />
	</node>
	<node id="-16072" lat="59.5750805522" lon="11.1705694387">
		<tag k="alt_name" v="Løken søndre" />
		<tag k="name" v="Søndre Løken" />
		<tag k="place" v="farm" />
		<tag k="ssr:stedsnr" v="628816" />
	</node>
	<node id="-16071" lat="59.5875638905" lon="11.1119944524">
		<tag k="loc_name" v="Krossby" />
		<tag k="name" v="Krosby" />
		<tag k="place" v="farm" />
		<tag k="ssr:stedsnr" v="628758" />
	</node>
	<node id="-16069" lat="59.6224027757" lon="11.1572361171">
		<tag k="name" v="Tømt" />
		<tag k="place" v="farm" />
		<tag k="ssr:stedsnr" v="628645" />
	</node>
	<node id="-16068" lat="59.5564583313" lon="11.1647777761">
		<tag k="alt_name" v="Skjørten lille;Lille Skjørten" />
		<tag k="name" v="Vesle-Skjørten" />
		<tag k="place" v="farm" />
		<tag k="ssr:stedsnr" v="628622" />
	</node>
	<node id="-16067" lat="59.567166669" lon="11.1459083267">
		<tag k="name" v="Revaug" />
		<tag k="place" v="farm" />
		<tag k="ssr:stedsnr" v="628617" />
	</node>
	<node id="-16065" lat="59.572552775" lon="11.1290749919">
		<tag k="name" v="Skjolden" />
		<tag k="place" v="farm" />
		<tag k="ssr:stedsnr" v="628615" />
	</node>
	<node id="-16064" lat="59.624591671" lon="11.1561499953">
		<tag k="name" v="Tømt" />
		<tag k="place" v="farm" />
		<tag k="ssr:stedsnr" v="610956" />
	</node>
	<node id="-16063" lat="59.6085138904" lon="11.2221388813">
		<tag k="alt_name" v="Nylenda" />
		<tag k="name" v="Nylende" />
		<tag k="place" v="farm" />
		<tag k="ssr:stedsnr" v="610938" />
	</node>
	<node id="-16062" lat="59.6016222216" lon="11.1866916622">
		<tag k="name" v="Berger" />
		<tag k="place" v="farm" />
		<tag k="ssr:stedsnr" v="610923" />
	</node>
	<node id="-16061" lat="59.6005916686" lon="11.2468666654">
		<tag k="name" v="Fuglesangen" />
		<tag k="place" v="farm" />
		<tag k="ssr:stedsnr" v="610918" />
	</node>
	<node id="-16059" lat="59.5602805564" lon="11.1823527804">
		<tag k="alt_name" v="Galtebu" />
		<tag k="name" v="Lundestad" />
		<tag k="place" v="farm" />
		<tag k="ssr:stedsnr" v="610579" />
	</node>
	<node id="-16057" lat="59.6169833334" lon="11.1839972281">
		<tag k="name" v="Holter" />
		<tag k="place" v="farm" />
		<tag k="ssr:stedsnr" v="569039" />
	</node>
	<node id="-16056" lat="59.6242916664" lon="11.2047583374">
		<tag k="alt_name" v="Froland" />
		<tag k="name" v="Tørhølen" />
		<tag k="place" v="farm" />
		<tag k="ssr:stedsnr" v="569022" />
	</node>
	<node id="-16054" lat="59.6084444434" lon="11.1641527836">
		<tag k="name" v="Haraldstad" />
		<tag k="place" v="farm" />
		<tag k="ssr:stedsnr" v="550932" />
	</node>
	<node id="-16053" lat="59.6130249973" lon="11.1914499933">
		<tag k="fixme" v="multiple name tags, choose one and add the other to alt_name" />
		<tag k="name" v="Tarm;Ulfsby" />
		<tag k="place" v="farm" />
		<tag k="ssr:stedsnr" v="550934" />
	</node>
	<node id="-16052" lat="59.6029777786" lon="11.2379861178">
		<tag k="alt_name" v="Mørkved store;Mørkved" />
		<tag k="name" v="Store Mørkved" />
		<tag k="place" v="farm" />
		<tag k="ssr:stedsnr" v="550892" />
	</node>
	<node id="-16051" lat="59.5913583303" lon="11.2203666615">
		<tag k="alt_name" v="Rud vesle;Rud" />
		<tag k="name" v="Vesle Rud" />
		<tag k="place" v="farm" />
		<tag k="ssr:stedsnr" v="550880" />
	</node>
	<node id="-16050" lat="59.5661406281" lon="11.1933892311">
		<tag k="fixme" v="consider place=hamlet" />
		<tag k="name" v="Hol" />
		<tag k="place" v="farm" />
		<tag k="ssr:stedsnr" v="550572" />
	</node>
	<node id="-16049" lat="59.5718777392" lon="11.1905920083">
		<tag k="fixme" v="consider place=hamlet" />
		<tag k="name" v="Jaren" />
		<tag k="place" v="farm" />
		<tag k="ssr:stedsnr" v="550559" />
	</node>
	<node id="-16048" lat="59.5458499962" lon="11.1592138913">
		<tag k="name" v="Vammeli" />
		<tag k="place" v="farm" />
		<tag k="ssr:stedsnr" v="550536" />
	</node>
	<node id="-16047" lat="59.6285250005" lon="11.1908249964">
		<tag k="name" v="Heller" />
		<tag k="place" v="farm" />
		<tag k="ssr:stedsnr" v="549960" />
	</node>
	<node id="-16046" lat="59.6205916631" lon="11.1845999981">
		<tag k="name" v="Haugen" />
		<tag k="place" v="farm" />
		<tag k="ssr:stedsnr" v="549944" />
	</node>
	<node id="-16045" lat="59.5866416669" lon="11.2484361134">
		<tag k="name" v="Kråkerud" />
		<tag k="place" v="farm" />
		<tag k="ssr:stedsnr" v="549577" />
	</node>
	<node id="-16043" lat="59.5885722253" lon="11.2031277692">
		<tag k="name" v="Guderud" />
		<tag k="place" v="farm" />
		<tag k="ssr:stedsnr" v="509551" />
	</node>
	<node id="-16042" lat="59.5488333335" lon="11.1822361187">
		<tag k="alt_name" v="Dalerud" />
		<tag k="name" v="Dallerud" />
		<tag k="place" v="farm" />
		<tag k="ssr:stedsnr" v="509076" />
	</node>
	<node id="-16041" lat="59.5658999962" lon="11.179552774">
		<tag k="name" v="Sorgenfri" />
		<tag k="place" v="farm" />
		<tag k="ssr:stedsnr" v="509073" />
	</node>
	<node id="-16040" lat="59.5646694412" lon="11.1828361055">
		<tag k="alt_name" v="Auten søndre" />
		<tag k="name" v="Søndre Auten" />
		<tag k="place" v="farm" />
		<tag k="ssr:stedsnr" v="509072" />
	</node>
	<node id="-16039" lat="59.5717972236" lon="11.1766750031">
		<tag k="name" v="Nygård" />
		<tag k="place" v="farm" />
		<tag k="ssr:stedsnr" v="509070" />
	</node>
	<node id="-16038" lat="59.5768083361" lon="11.2184916746">
		<tag k="name" v="England" />
		<tag k="place" v="farm" />
		<tag k="ssr:stedsnr" v="509061" />
	</node>
	<node id="-16036" lat="59.6003555582" lon="11.1106611101">
		<tag k="name" v="Kjellgård" />
		<tag k="place" v="farm" />
		<tag k="ssr:stedsnr" v="507676" />
	</node>
	<node id="-16035" lat="59.5554916634" lon="11.15533334">
		<tag k="name" v="Enger" />
		<tag k="place" v="farm" />
		<tag k="ssr:stedsnr" v="507646" />
	</node>
	<node id="-16034" lat="59.5639388849" lon="11.145030557">
		<tag k="name" v="Revaug" />
		<tag k="place" v="farm" />
		<tag k="ssr:stedsnr" v="507643" />
	</node>
	<node id="-16033" lat="59.625966664" lon="11.1848583407">
		<tag k="name" v="Hobøl" />
		<tag k="place" v="farm" />
		<tag k="ssr:stedsnr" v="489942" />
	</node>
	<node id="-16032" lat="59.6201750026" lon="11.1561111091">
		<tag k="name" v="Skårud" />
		<tag k="place" v="farm" />
		<tag k="ssr:stedsnr" v="489938" />
	</node>
	<node id="-16031" lat="59.6206999991" lon="11.2299638887">
		<tag k="name" v="Ingstad" />
		<tag k="place" v="farm" />
		<tag k="ssr:stedsnr" v="489934" />
	</node>
	<node id="-16030" lat="59.6032944478" lon="11.1819027849">
		<tag k="name" v="Torp" />
		<tag k="place" v="farm" />
		<tag k="ssr:stedsnr" v="489895" />
	</node>
	<node id="-16029" lat="59.6027361091" lon="11.1671333304">
		<tag k="name" v="Kolstad" />
		<tag k="place" v="farm" />
		<tag k="ssr:stedsnr" v="489894" />
	</node>
	<node id="-16028" lat="59.5946583319" lon="11.2388166752">
		<tag k="name" v="Gutu" />
		<tag k="place" v="farm" />
		<tag k="ssr:stedsnr" v="489873" />
	</node>
	<node id="-16027" lat="59.5951361155" lon="11.1941972137">
		<tag k="name" v="Trippestad" />
		<tag k="place" v="isolated_dwelling" />
		<tag k="ssr:stedsnr" v="489870" />
	</node>
	<node id="-16026" lat="59.5903527816" lon="11.1172277855">
		<tag k="alt_name" v="Rom nordre" />
		<tag k="name" v="Nordre Rom" />
		<tag k="place" v="farm" />
		<tag k="ssr:stedsnr" v="489634" />
	</node>
	<node id="-16025" lat="59.5654361143" lon="11.1429305581">
		<tag k="alt_name" v="Revhaug" />
		<tag k="name" v="Revaug" />
		<tag k="place" v="farm" />
		<tag k="ssr:stedsnr" v="489613" />
	</node>
	<node id="-16023" lat="59.6100207171" lon="11.2417649513">
		<tag k="fixme" v="multiple name tags, choose one and add the other to alt_name" />
		<tag k="name" v="Klingenberg;Teigen" />
		<tag k="place" v="farm" />
		<tag k="ssr:stedsnr" v="449877" />
	</node>
	<node id="-16022" lat="59.5824916647" lon="11.1779500047">
		<tag k="name" v="Magnhildrud" />
		<tag k="place" v="farm" />
		<tag k="ssr:stedsnr" v="449043" />
	</node>
	<node id="-16020" lat="59.6110555513" lon="11.1915527734">
		<tag k="name" v="Olberg" />
		<tag k="place" v="farm" />
		<tag k="ssr:stedsnr" v="448054" />
	</node>
	<node id="-16019" lat="59.5472388894" lon="11.1492972174">
		<tag k="name" v="Vammeli" />
		<tag k="place" v="farm" />
		<tag k="ssr:stedsnr" v="447783" />
	</node>
	<node id="-16017" lat="59.5958138874" lon="11.1051666676">
		<tag k="name" v="Holtet" />
		<tag k="place" v="farm" />
		<tag k="ssr:stedsnr" v="447648" />
	</node>
	<node id="-16016" lat="59.5755305512" lon="11.1486472209">
		<tag k="alt_name" v="Hov søndre" />
		<tag k="name" v="Søndre Hov" />
		<tag k="place" v="farm" />
		<tag k="ssr:stedsnr" v="446848" />
	</node>
	<node id="-16015" lat="59.6129638853" lon="11.2224861088">
		<tag k="name" v="Odalen" />
		<tag k="place" v="farm" />
		<tag k="ssr:stedsnr" v="429922" />
	</node>
	<node id="-16014" lat="59.613086114" lon="11.2083111112">
		<tag k="alt_name" v="Heiestad" />
		<tag k="name" v="Heistad" />
		<tag k="place" v="farm" />
		<tag k="ssr:stedsnr" v="429923" />
	</node>
	<node id="-16013" lat="59.6013527775" lon="11.1562361175">
		<tag k="alt_name" v="Østreng" />
		<tag k="name" v="Østereng" />
		<tag k="place" v="farm" />
		<tag k="ssr:stedsnr" v="429902" />
	</node>
	<node id="-16012" lat="59.6023722208" lon="11.1486083257">
		<tag k="alt_name" v="Gudim søndre;Gudim" />
		<tag k="name" v="Søndre Gudim" />
		<tag k="place" v="farm" />
		<tag k="ssr:stedsnr" v="429900" />
	</node>
	<node id="-16011" lat="59.5953001046" lon="11.1316056518">
		<tag k="name" v="Ilen" />
		<tag k="place" v="hamlet" />
		<tag k="ssr:stedsnr" v="429893" />
	</node>
	<node id="-16010" lat="59.5998944463" lon="11.1161472229">
		<tag k="name" v="Fjellstad" />
		<tag k="place" v="farm" />
		<tag k="ssr:stedsnr" v="429892" />
	</node>
	<node id="-16009" lat="59.5962583379" lon="11.10326666">
		<tag k="alt_name" v="Sando" />
		<tag k="name" v="Sandlo" />
		<tag k="place" v="farm" />
		<tag k="ssr:stedsnr" v="429887" />
	</node>
	<node id="-16008" lat="59.5914249974" lon="11.177994444">
		<tag k="name" v="Blunkeslett" />
		<tag k="place" v="locality" />
		<tag k="ssr:stedsnr" v="429879" />
	</node>
	<node id="-16007" lat="59.568849996" lon="11.1653666686">
		<tag k="alt_name" v="Moen" />
		<tag k="amenity" v="school" />
		<tag k="name" v="Moen skole" />
		<tag k="ssr:stedsnr" v="429568" />
	</node>
	<node id="-16006" lat="59.5543166644" lon="11.1860555592">
		<tag k="name" v="Toverud" />
		<tag k="place" v="farm" />
		<tag k="ssr:stedsnr" v="429512" />
	</node>
	<node id="-16005" lat="59.6320722248" lon="11.1764555537">
		<tag k="alt_name" v="Lier søndre" />
		<tag k="name" v="Søndre Lier" />
		<tag k="place" v="farm" />
		<tag k="ssr:stedsnr" v="428951" />
	</node>
	<node id="-16004" lat="59.6286499965" lon="11.1676694388">
		<tag k="name" v="Solberg" />
		<tag k="place" v="farm" />
		<tag k="ssr:stedsnr" v="428948" />
	</node>
	<node id="-16003" lat="59.6204499979" lon="11.1942527832">
		<tag k="name" v="Bjørnstad" />
		<tag k="place" v="farm" />
		<tag k="ssr:stedsnr" v="428929" />
	</node>
	<node id="-16002" lat="59.5820722212" lon="11.1293722205">
		<tag k="alt_name" v="Kvakestad nordre;Kvakkestad nordre" />
		<tag k="name" v="Nordre Kvakkestad" />
		<tag k="place" v="farm" />
		<tag k="ssr:stedsnr" v="428576" />
	</node>
	<node id="-16001" lat="59.5628249985" lon="11.17375834">
		<tag k="name" v="Tangen" />
		<tag k="place" v="farm" />
		<tag k="ssr:stedsnr" v="266088" />
	</node>
	<node id="-16000" lat="59.5806055529" lon="11.2127027789">
		<tag k="name" v="Sekkelstenengen" />
		<tag k="place" v="farm" />
		<tag k="ssr:stedsnr" v="266064" />
	</node>
	<node id="-15999" lat="59.5779500014" lon="11.2119777842">
		<tag k="name" v="Sekkelsten" />
		<tag k="place" v="farm" />
		<tag k="ssr:stedsnr" v="266061" />
	</node>
	<node id="-15998" lat="59.5959555549" lon="11.2539527845">
		<tag k="name" v="Myrvoll" />
		<tag k="place" v="farm" />
		<tag k="ssr:stedsnr" v="266056" />
	</node>
	<node id="-15997" lat="59.5990805567" lon="11.1759222261">
		<tag k="name" v="Haugtomt" />
		<tag k="place" v="farm" />
		<tag k="ssr:stedsnr" v="266051" />
	</node>
	<node id="-15996" lat="59.6219833327" lon="11.2168416644">
		<tag k="name" v="Teigen" />
		<tag k="place" v="farm" />
		<tag k="ssr:stedsnr" v="266017" />
	</node>
	<node id="-15995" lat="59.5879333296" lon="11.1191777853">
		<tag k="alt_name" v="Rom mellem;Rom" />
		<tag k="name" v="Mellom-Rom" />
		<tag k="place" v="farm" />
		<tag k="ssr:stedsnr" v="264840" />
	</node>
	<node id="-15992" lat="59.5717111089" lon="11.1517499951">
		<tag k="alt_name" v="Gjellestad nordre" />
		<tag k="name" v="Nordre Gjellestad" />
		<tag k="place" v="farm" />
		<tag k="ssr:stedsnr" v="264610" />
	</node>
	<node id="-15991" lat="59.5704083334" lon="11.1532222284">
		<tag k="alt_name" v="Gjellestad søndre" />
		<tag k="name" v="Søndre Gjellestad" />
		<tag k="place" v="farm" />
		<tag k="ssr:stedsnr" v="264607" />
	</node>
	<node id="-15989" lat="59.6436750017" lon="11.164805562">
		<tag k="name" v="Kastet" />
		<tag k="place" v="farm" />
		<tag k="ssr:stedsnr" v="247976" />
	</node>
	<node id="-15988" lat="59.6141638847" lon="11.2374555595">
		<tag k="name" v="Huset" />
		<tag k="place" v="farm" />
		<tag k="ssr:stedsnr" v="247917" />
	</node>
	<node id="-15987" lat="59.6035888919" lon="11.2048166713">
		<tag k="name" v="Bekkevar" />
		<tag k="place" v="farm" />
		<tag k="ssr:stedsnr" v="247897" />
	</node>
	<node id="-15986" lat="59.605558331" lon="11.226975001">
		<tag k="name" v="Nyborg" />
		<tag k="place" v="farm" />
		<tag k="ssr:stedsnr" v="247880" />
	</node>
	<node id="-15985" lat="59.6202166706" lon="11.2060444397">
		<tag k="name" v="Flateby" />
		<tag k="place" v="farm" />
		<tag k="ssr:stedsnr" v="246930" />
	</node>
	<node id="-15984" lat="59.5868111074" lon="11.1379277724">
		<tag k="name" v="Nybråten" />
		<tag k="place" v="farm" />
		<tag k="ssr:stedsnr" v="246565" />
	</node>
	<node id="-15983" lat="59.5796611081" lon="11.2096111025">
		<tag k="alt_name" v="Sekkelsten" />
		<tag k="name" v="Sekkelstein" />
		<tag k="place" v="farm" />
		<tag k="ssr:stedsnr" v="238624" />
	</node>
	<node id="-15982" lat="59.57024722" lon="11.1758138799">
		<tag k="alt_name" v="Nygård søndre" />
		<tag k="name" v="Søndre Nygård" />
		<tag k="place" v="farm" />
		<tag k="ssr:stedsnr" v="206080" />
	</node>
	<node id="-15981" lat="59.5770055562" lon="11.179419436">
		<tag k="name" v="Vang" />
		<tag k="place" v="farm" />
		<tag k="ssr:stedsnr" v="206054" />
	</node>
	<node id="-15980" lat="59.5959749995" lon="11.2032583274">
		<tag k="name" v="Dæli" />
		<tag k="place" v="farm" />
		<tag k="ssr:stedsnr" v="206036" />
	</node>
	<node id="-15979" lat="59.5480555513" lon="11.1653861116">
		<tag k="alt_name" v="Salseng søndre" />
		<tag k="name" v="Søndre Salseng" />
		<tag k="place" v="farm" />
		<tag k="ssr:stedsnr" v="204862" />
	</node>
	<node id="-15978" lat="59.5920805523" lon="11.1539222176">
		<tag k="name" v="Askim prestegård" />
		<tag k="place" v="farm" />
		<tag k="ssr:stedsnr" v="204823" />
	</node>
	<node id="-15977" lat="59.5828916651" lon="11.1183611043">
		<tag k="name" v="Stensrud" />
		<tag k="place" v="farm" />
		<tag k="ssr:stedsnr" v="204821" />
	</node>
	<node id="-15976" lat="59.5835777811" lon="11.1069083354">
		<tag k="name" v="Rud" />
		<tag k="place" v="farm" />
		<tag k="ssr:stedsnr" v="204762" />
	</node>
	<node id="-15974" lat="59.5549444434" lon="11.1506694496">
		<tag k="name" v="Enger" />
		<tag k="place" v="farm" />
		<tag k="ssr:stedsnr" v="204608" />
	</node>
	<node id="-15973" lat="59.5619277755" lon="11.121802778">
		<tag k="name" v="Elvum" />
		<tag k="place" v="locality" />
		<tag k="ssr:stedsnr" v="204606" />
	</node>
	<node id="-15972" lat="59.5686583331" lon="11.1614499973">
		<tag k="name" v="Hauger" />
		<tag k="place" v="farm" />
		<tag k="ssr:stedsnr" v="204604" />
	</node>
	<node id="-15971" lat="59.5626583332" lon="11.1603527806">
		<tag k="name" v="Haga" />
		<tag k="place" v="farm" />
		<tag k="ssr:stedsnr" v="204605" />
	</node>
	<node id="-15970" lat="59.577372223" lon="11.1698750041">
		<tag k="alt_name" v="Løken nordre" />
		<tag k="name" v="Nordre Løken" />
		<tag k="place" v="farm" />
		<tag k="ssr:stedsnr" v="204591" />
	</node>
	<node id="-15969" lat="59.5742083302" lon="11.1261888805">
		<tag k="alt_name" v="Skjolden" />
		<tag k="name" v="Nordre Skjolden" />
		<tag k="place" v="farm" />
		<tag k="ssr:stedsnr" v="204590" />
	</node>
	<node id="-15968" lat="59.6331083306" lon="11.2089166583">
		<tag k="name" v="Radderud" />
		<tag k="place" v="farm" />
		<tag k="ssr:stedsnr" v="186954" />
	</node>
	<node id="-15967" lat="59.5906694421" lon="11.2128999992">
		<tag k="name" v="Eidareng" />
		<tag k="place" v="farm" />
		<tag k="ssr:stedsnr" v="186878" />
	</node>
	<node id="-15966" lat="59.5991805541" lon="11.1396333269">
		<tag k="name" v="Trostebekk" />
		<tag k="place" v="farm" />
		<tag k="ssr:stedsnr" v="186877" />
	</node>
	<node id="-15965" lat="59.6179944459" lon="11.1419333252">
		<tag k="alt_name" v="Sundgården" />
		<tag k="name" v="Sundgård" />
		<tag k="place" v="farm" />
		<tag k="ssr:stedsnr" v="186936" />
	</node>
	<node id="-15964" lat="59.6055777747" lon="11.1249444431">
		<tag k="name" v="Langnes" />
		<tag k="place" v="farm" />
		<tag k="ssr:stedsnr" v="186906" />
	</node>
	<node id="-15963" lat="59.5577749982" lon="11.1421916662">
		<tag k="name" v="Moseby" />
		<tag k="place" v="farm" />
		<tag k="ssr:stedsnr" v="186579" />
	</node>
	<node id="-15960" lat="59.5671416682" lon="11.1740194467">
		<tag k="alt_name" v="Auten vestre" />
		<tag k="name" v="Vestre Auten" />
		<tag k="place" v="farm" />
		<tag k="ssr:stedsnr" v="145068" />
	</node>
	<node id="-15959" lat="59.5721777812" lon="11.1876944447">
		<tag k="alt_name" v="Jaren vestre" />
		<tag k="name" v="Vestre Jaren" />
		<tag k="place" v="farm" />
		<tag k="ssr:stedsnr" v="145063" />
	</node>
	<node id="-15958" lat="59.5657138861" lon="11.1923388863">
		<tag k="alt_name" v="Hol vestre" />
		<tag k="name" v="Vestre Hol" />
		<tag k="place" v="farm" />
		<tag k="ssr:stedsnr" v="145052" />
	</node>
	<node id="-15957" lat="59.5850388873" lon="11.1516916661">
		<tag k="name" v="Tornerud" />
		<tag k="place" v="farm" />
		<tag k="ssr:stedsnr" v="143818" />
	</node>
	<node id="-15955" lat="59.6064694489" lon="11.127002779">
		<tag k="name" v="Langnes" />
		<tag k="place" v="farm" />
		<tag k="ssr:stedsnr" v="143672" />
	</node>
	<node id="-15954" lat="59.6044277754" lon="11.1322555613">
		<tag k="name" v="Bingen" />
		<tag k="place" v="isolated_dwelling" />
		<tag k="ssr:stedsnr" v="143667" />
	</node>
	<node id="-15953" lat="59.6390555579" lon="11.2003999913">
		<tag k="name" v="Åser" />
		<tag k="place" v="farm" />
		<tag k="ssr:stedsnr" v="125983" />
	</node>
	<node id="-15952" lat="59.6302805534" lon="11.1971666593">
		<tag k="name" v="Hellerud" />
		<tag k="place" v="farm" />
		<tag k="ssr:stedsnr" v="125972" />
	</node>
	<node id="-15951" lat="59.5962138894" lon="11.2154083275">
		<tag k="name" v="Fossum" />
		<tag k="place" v="farm" />
		<tag k="ssr:stedsnr" v="125888" />
	</node>
	<node id="-15950" lat="59.6094861133" lon="11.2342916613">
		<tag k="alt_name" v="Slengebråten" />
		<tag k="name" v="Slengebråte" />
		<tag k="place" v="farm" />
		<tag k="ssr:stedsnr" v="125923" />
	</node>
	<node id="-15949" lat="59.5937111152" lon="11.1581194381">
		<tag k="name" v="Askim" />
		<tag k="place" v="farm" />
		<tag k="ssr:stedsnr" v="125885" />
	</node>
	<node id="-15948" lat="59.5559194472" lon="11.174916671">
		<tag k="name" v="Skjørten" />
		<tag k="place" v="hamlet" />
		<tag k="ssr:stedsnr" v="125557" />
	</node>
	<node id="-15947" lat="59.5611861068" lon="11.1984666606">
		<tag k="loc_name" v="Katralen" />
		<tag k="name" v="Kattralen" />
		<tag k="place" v="farm" />
		<tag k="ssr:stedsnr" v="125543" />
	</node>
	<node id="-15946" lat="59.5606749992" lon="11.1417388803">
		<tag k="name" v="Sulu" />
		<tag k="place" v="farm" />
		<tag k="ssr:stedsnr" v="125538" />
	</node>
	<node id="-15945" lat="59.5824583354" lon="11.2380277859">
		<tag k="name" v="Sørtorp" />
		<tag k="place" v="farm" />
		<tag k="ssr:stedsnr" v="84100" />
	</node>
	<node id="-15944" lat="59.6266527819" lon="11.1812000065">
		<tag k="name" v="Hellerengen" />
		<tag k="place" v="farm" />
		<tag k="ssr:stedsnr" v="84039" />
	</node>
	<node id="-15943" lat="59.6239111079" lon="11.1877611024">
		<tag k="name" v="Hobøl" />
		<tag k="place" v="farm" />
		<tag k="ssr:stedsnr" v="84037" />
	</node>
	<node id="-15942" lat="59.6053694418" lon="11.1704527821">
		<tag k="name" v="Kolstad" />
		<tag k="place" v="farm" />
		<tag k="ssr:stedsnr" v="82670" />
	</node>
	<node id="-15941" lat="59.6010833322" lon="11.1261166652">
		<tag k="name" v="Fjellbu" />
		<tag k="place" v="farm" />
		<tag k="ssr:stedsnr" v="82664" />
	</node>
	<node id="-15937" lat="59.5757166648" lon="11.1633000058">
		<tag k="alt_name" v="Moen østre" />
		<tag k="name" v="Østre Moen" />
		<tag k="place" v="locality" />
		<tag k="ssr:stedsnr" v="82852" />
	</node>
	<node id="-15936" lat="59.5778277801" lon="11.1253000085">
		<tag k="name" v="Skjoldvang" />
		<tag k="place" v="farm" />
		<tag k="ssr:stedsnr" v="82850" />
	</node>
	<node id="-15934" lat="59.6376194436" lon="11.1814500083">
		<tag k="name" v="Skansehytta" />
		<tag k="place" v="isolated_dwelling" />
		<tag k="ssr:stedsnr" v="65974" />
	</node>
	<node id="-15933" lat="59.6103250036" lon="11.1552333316">
		<tag k="name" v="Onstad" />
		<tag k="place" v="farm" />
		<tag k="ssr:stedsnr" v="65942" />
	</node>
	<node id="-15932" lat="59.6155500016" lon="11.1982249953">
		<tag k="name" v="Lunder" />
		<tag k="place" v="farm" />
		<tag k="ssr:stedsnr" v="65932" />
	</node>
	<node id="-15931" lat="59.5992083317" lon="11.2057333278">
		<tag k="name" v="Dæli" />
		<tag k="place" v="farm" />
		<tag k="ssr:stedsnr" v="65922" />
	</node>
	<node id="-15930" lat="59.5988555584" lon="11.2484194434">
		<tag k="alt_name" v="Mørkved lille" />
		<tag k="name" v="Lille Mørkved" />
		<tag k="place" v="farm" />
		<tag k="ssr:stedsnr" v="65909" />
	</node>
	<node id="-15929" lat="59.60416111" lon="11.2420027764">
		<tag k="alt_name" v="Fauglli" />
		<tag k="name" v="Fuglli" />
		<tag k="place" v="farm" />
		<tag k="ssr:stedsnr" v="65907" />
	</node>
	<node id="-15928" lat="59.6053583307" lon="11.2318194387">
		<tag k="name" v="Kokstad" />
		<tag k="place" v="farm" />
		<tag k="ssr:stedsnr" v="65905" />
	</node>
	<node id="-15925" lat="59.5709987027" lon="11.1516645234">
		<tag k="name" v="Gjellestad" />
		<tag k="place" v="farm" />
		<tag k="ssr:stedsnr" v="64574" />
	</node>
	<node id="-15921" lat="59.6280722197" lon="11.2016194514">
		<tag k="name" v="Frøholengen" />
		<tag k="place" v="farm" />
		<tag k="ssr:stedsnr" v="24024" />
	</node>
	<node id="-15918" lat="59.6068944478" lon="11.1240333373">
		<tag k="name" v="Langnes" />
		<tag k="place" v="farm" />
		<tag k="ssr:stedsnr" v="22667" />
	</node>
	<node id="-15916" lat="59.5890333325" lon="11.2514499948">
		<tag k="name" v="Taje" />
		<tag k="place" v="isolated_dwelling" />
		<tag k="ssr:stedsnr" v="4897" />
	</node>
	<node id="-15915" lat="59.5896583306" lon="11.2241499947">
		<tag k="alt_name" v="Rud store" />
		<tag k="name" v="Store Rud" />
		<tag k="place" v="farm" />
		<tag k="ssr:stedsnr" v="4895" />
	</node>
	<node id="-15914" lat="59.6229361085" lon="11.1650861097">
		<tag k="name" v="Eik" />
		<tag k="place" v="farm" />
		<tag k="ssr:stedsnr" v="3948" />
	</node>
	<node id="-15910" lat="59.5756461085" lon="11.1914106083">
		<tag k="building" v="industrial" />
		<tag k="name" v="Østfold Næringspark" />
		<tag k="ssr:stedsnr" v="983210" />
	</node>
	<node id="-15898" lat="59.6198305578" lon="11.1927083288">
		<tag k="name" v="Fjerdingen" />
		<tag k="place" v="farm" />
		<tag k="ssr:stedsnr" v="387039" />
	</node>
	<node id="-15897" lat="59.6453694475" lon="11.2001444525">
		<tag k="name" v="Åsum" />
		<tag k="place" v="farm" />
		<tag k="ssr:stedsnr" v="387019" />
	</node>
	<node id="-15896" lat="59.6136694409" lon="11.1778916745">
		<tag k="name" v="Holter" />
		<tag k="place" v="farm" />
		<tag k="ssr:stedsnr" v="368928" />
	</node>
	<node id="-15895" lat="59.6066333371" lon="11.1994333308">
		<tag k="name" v="Lund" />
		<tag k="place" v="farm" />
		<tag k="ssr:stedsnr" v="368907" />
	</node>
	<node id="-15893" lat="59.5489499961" lon="11.1472055515">
		<tag k="name" v="Kastdalen" />
		<tag k="place" v="farm" />
		<tag k="ssr:stedsnr" v="368581" />
	</node>
	<node id="-15891" lat="59.5779786984" lon="11.112509227">
		<tag k="alt_name" v="Glåmvik;Svinægle" />
		<tag k="fixme" v="multiple name tags, choose one and add the other to alt_name" />
		<tag k="name" v="Glomvik;Svinekle" />
		<tag k="place" v="farm" />
		<tag k="ssr:stedsnr" v="367577" />
	</node>
	<node id="-15890" lat="59.5817750036" lon="11.2289999928">
		<tag k="alt_name" v="Fusk" />
		<tag k="name" v="Føsk" />
		<tag k="place" v="farm" />
		<tag k="ssr:stedsnr" v="367553" />
	</node>
	<node id="-15889" lat="59.6115749977" lon="11.206105561">
		<tag k="name" v="Rognerud" />
		<tag k="place" v="farm" />
		<tag k="ssr:stedsnr" v="327033" />
	</node>
	<node id="-15888" lat="59.616169448" lon="11.2355722205">
		<tag k="name" v="Huset" />
		<tag k="place" v="farm" />
		<tag k="ssr:stedsnr" v="327032" />
	</node>
	<node id="-15887" lat="59.581888888" lon="11.1420805545">
		<tag k="fixme" v="consider place=suburb, village or hamlet" />
		<tag k="name" v="Gurud" />
		<tag k="place" v="quarter" />
		<tag k="ssr:stedsnr" v="325819" />
	</node>
	<node id="-15886" lat="59.5934222242" lon="11.1436305475">
		<tag k="name" v="Kløverud" />
		<tag k="place" v="farm" />
		<tag k="ssr:stedsnr" v="325820" />
	</node>
	<node id="-15885" lat="59.5501694414" lon="11.1635444364">
		<tag k="alt_name" v="Salseng nordre" />
		<tag k="name" v="Nordre Salseng" />
		<tag k="place" v="farm" />
		<tag k="ssr:stedsnr" v="325780" />
	</node>
	<node id="-15884" lat="59.553072286" lon="11.1687706033">
		<tag k="alt_name" v="Skjørten store;Store Skjørten" />
		<tag k="name" v="Søndre Skjørten" />
		<tag k="place" v="farm" />
		<tag k="ssr:stedsnr" v="325663" />
	</node>
	<node id="-15883" lat="59.6117583346" lon="11.1524000076">
		<tag k="name" v="Onstad" />
		<tag k="place" v="farm" />
		<tag k="ssr:stedsnr" v="325661" />
	</node>
	<node id="-15882" lat="59.5977277778" lon="11.1052888949">
		<tag k="name" v="Dammen" />
		<tag k="place" v="farm" />
		<tag k="ssr:stedsnr" v="325658" />
	</node>
	<node id="-15881" lat="59.57247222" lon="11.1689833387">
		<tag k="name" v="Vesteng" />
		<tag k="place" v="farm" />
		<tag k="ssr:stedsnr" v="325624" />
	</node>
	<node id="-15879" lat="59.5979444431" lon="11.1948583349">
		<tag k="name" v="Dramstad" />
		<tag k="place" v="farm" />
		<tag k="ssr:stedsnr" v="307897" />
	</node>
	<node id="-15878" lat="59.59446667" lon="11.1107194438">
		<tag k="alt_name" v="Tovengen" />
		<tag k="name" v="Tovenga" />
		<tag k="place" v="farm" />
		<tag k="ssr:stedsnr" v="307879" />
	</node>
	<node id="-15877" lat="59.5961277751" lon="11.2258749974">
		<tag k="alt_name" v="Bakken" />
		<tag k="name" v="Bakker" />
		<tag k="place" v="farm" />
		<tag k="ssr:stedsnr" v="307875" />
	</node>
	<node id="-15876" lat="59.5833444426" lon="11.1068888856">
		<tag k="name" v="Kykkelsrud" />
		<tag k="place" v="farm" />
		<tag k="ssr:stedsnr" v="307620" />
	</node>
	<node id="-15875" lat="59.5835194455" lon="11.2155805614">
		<tag k="alt_name" v="Engen" />
		<tag k="name" v="Enga" />
		<tag k="place" v="farm" />
		<tag k="ssr:stedsnr" v="307616" />
	</node>
	<node id="-15874" lat="59.5657694442" lon="11.1984111025">
		<tag k="name" v="Kopperud" />
		<tag k="place" v="farm" />
		<tag k="ssr:stedsnr" v="307595" />
	</node>
	<node id="-15873" lat="59.5681611079" lon="11.1870055595">
		<tag k="alt_name" v="Riseng" />
		<tag k="name" v="Risenga" />
		<tag k="place" v="farm" />
		<tag k="ssr:stedsnr" v="307594" />
	</node>
</osm>
