<?xml version="1.0" encoding="UTF-8"?>
<osm generator="osmapis" version="0.6">
	<node id="-15934" lat="59.5816963213" lon="11.1630555609">
		<tag k="name" v="Askim stasjon" />
		<tag k="railway" v="station" />
		<tag k="ssr:stedsnr" v="989977" />
		<tag k="train" v="yes" />
	</node>
	<node id="-15932" lat="59.5879305528" lon="11.1156277751">
		<tag k="bridge" v="yes" />
		<tag k="layer" v="1" />
		<tag k="name" v="Krosbykrysset" />
		<tag k="ssr:stedsnr" v="895509" />
	</node>
	<node id="-15931" lat="59.5818361152" lon="11.1427249924">
		<tag k="bridge" v="yes" />
		<tag k="layer" v="1" />
		<tag k="name" v="Gurud" />
		<tag k="ssr:stedsnr" v="895510" />
	</node>
	<node id="-15897" lat="59.5822555515" lon="11.1587888921">
		<tag k="bridge" v="yes" />
		<tag k="layer" v="1" />
		<tag k="loc_name" v="Roald Amundsens gate" />
		<tag k="name" v="Roald Amundsensgate" />
		<tag k="ssr:stedsnr" v="288500" />
	</node>
	<node id="-15928" lat="59.5899250018" lon="11.1997944417">
		<tag k="junction" v="yes" />
		<tag k="name" v="Korsegarden" />
		<tag k="place" v="locality" />
		<tag k="ssr:stedsnr" v="387725" />
	</node>
	<node id="-15927" lat="59.6054472214" lon="11.1760166643">
		<tag k="junction" v="yes" />
		<tag k="name" v="Kolstadkrysset" />
		<tag k="place" v="locality" />
		<tag k="ssr:stedsnr" v="387056" />
	</node>
	<node id="-15958" lat="59.6365472188" lon="11.1542000035">
		<tag k="alt_name" v="Solbergfoss" />
		<tag k="landuse" v="industrial" />
		<tag k="name" v="Solbergfoss kraftverk" />
		<tag k="power" v="plant" />
		<tag k="ssr:stedsnr" v="65976" />
	</node>
	<node id="-16081" lat="59.5647861116" lon="11.152294441">
		<tag k="bridge" v="yes" />
		<tag k="layer" v="1" />
		<tag k="name" v="Revhaug" />
		<tag k="ssr:stedsnr" v="591521" />
	</node>
	<node id="-16176" lat="59.5813055577" lon="11.1705777792">
		<tag k="bridge" v="yes" />
		<tag k="layer" v="1" />
		<tag k="name" v="Eidsbergvegen" />
		<tag k="ssr:stedsnr" v="956611" />
	</node>
	<node id="-16047" lat="59.5870277737" lon="11.1704055599">
		<tag k="bridge" v="yes" />
		<tag k="layer" v="1" />
		<tag k="name" v="TrÃ¸gstadvegen" />
		<tag k="ssr:stedsnr" v="470542" />
	</node>
	<node id="-16142" lat="59.6001249985" lon="11.1860194373">
		<tag k="junction" v="yes" />
		<tag k="name" v="Bergerkrysset" />
		<tag k="place" v="locality" />
		<tag k="ssr:stedsnr" v="812042" />
	</node>
	<node id="-16172" lat="59.5774999964" lon="11.2114888863">
		<tag k="junction" v="yes" />
		<tag k="loc_name" v="Sekkelsteinkrysset" />
		<tag k="name" v="Sekkelstenkrysset" />
		<tag k="place" v="locality" />
		<tag k="ssr:stedsnr" v="934058" />
	</node>
	<node id="-15946" lat="59.5422444424" lon="11.1703777791">
		<tag k="alt_name" v="Vamma kraftstasjon" />
		<tag k="landuse" v="industrial" />
		<tag k="name" v="Vamma" />
		<tag k="power" v="plant" />
		<tag k="ssr:stedsnr" v="64504" />
	</node>
	<node id="-15985" lat="59.5728277755" lon="11.2212111114">
		<tag k="bridge" v="yes" />
		<tag k="layer" v="1" />
		<tag k="name" v="Eiebakke" />
		<tag k="ssr:stedsnr" v="167592" />
	</node>
	<node id="-16067" lat="59.5803694481" lon="11.1665361107">
		<tag k="bridge" v="yes" />
		<tag k="layer" v="1" />
		<tag k="name" v="Bakke" />
		<tag k="ssr:stedsnr" v="531600" />
	</node>
	<node id="-16098" lat="59.581194444" lon="11.1611972212">
		<tag k="bridge" v="yes" />
		<tag k="layer" v="1" />
		<tag k="name" v="Sentrum syd" />
		<tag k="ssr:stedsnr" v="652536" />
	</node>
</osm>
