<?xml version="1.0" encoding="UTF-8"?>
<osm generator="osmapis" version="0.6">
	<node id="-128125" lat="61.3132333356" lon="10.3511361129">
		<tag k="name" v="Smørkampvegen" />
		<tag k="ssr:date" v="2016-05-11" />
		<tag k="ssr:gruppe" v="veg" />
		<tag k="ssr:hovedgruppe" v="infrastruktur" />
		<tag k="ssr:stedsnr" v="767415" />
		<tag k="ssr:type" v="vegstrekning" />
	</node>
	<node id="-127228" lat="61.3382876619" lon="10.3399084586">
		<tag k="name" v="Østfjellvegen" />
		<tag k="ssr:date" v="2019-05-30" />
		<tag k="ssr:gruppe" v="veg" />
		<tag k="ssr:hovedgruppe" v="infrastruktur" />
		<tag k="ssr:stedsnr" v="1019760" />
		<tag k="ssr:type" v="adressenavn" />
	</node>
	<node id="-127227" lat="61.2908566586" lon="10.4293758276">
		<tag k="name" v="Akksjøsætervegen" />
		<tag k="ssr:date" v="2019-05-30" />
		<tag k="ssr:gruppe" v="veg" />
		<tag k="ssr:hovedgruppe" v="infrastruktur" />
		<tag k="ssr:stedsnr" v="1019730" />
		<tag k="ssr:type" v="adressenavn" />
	</node>
	<node id="-127226" lat="61.2908194477" lon="10.4293879456">
		<tag k="name" v="Augsætervegen" />
		<tag k="ssr:date" v="2019-05-30" />
		<tag k="ssr:gruppe" v="veg" />
		<tag k="ssr:hovedgruppe" v="infrastruktur" />
		<tag k="ssr:stedsnr" v="1019729" />
		<tag k="ssr:type" v="adressenavn" />
	</node>
	<node id="-127225" lat="61.3740999109" lon="10.4430203241">
		<tag k="name" v="Baullstulvegen" />
		<tag k="ssr:date" v="2019-05-30" />
		<tag k="ssr:gruppe" v="veg" />
		<tag k="ssr:hovedgruppe" v="infrastruktur" />
		<tag k="ssr:stedsnr" v="1019738" />
		<tag k="ssr:type" v="adressenavn" />
	</node>
	<node id="-127224" lat="61.3770934817" lon="10.4443747366">
		<tag k="name" v="Kjøllåsvegen" />
		<tag k="ssr:date" v="2019-05-30" />
		<tag k="ssr:gruppe" v="veg" />
		<tag k="ssr:hovedgruppe" v="infrastruktur" />
		<tag k="ssr:stedsnr" v="1019737" />
		<tag k="ssr:type" v="adressenavn" />
	</node>
	<node id="-127223" lat="61.3723421903" lon="10.4357072545">
		<tag k="name" v="Skjennfjellvegen" />
		<tag k="ssr:date" v="2019-05-30" />
		<tag k="ssr:gruppe" v="veg" />
		<tag k="ssr:hovedgruppe" v="infrastruktur" />
		<tag k="ssr:stedsnr" v="1019735" />
		<tag k="ssr:type" v="adressenavn" />
	</node>
	<node id="-127222" lat="61.3691842113" lon="10.4347967008">
		<tag k="name" v="Steinåsen" />
		<tag k="ssr:date" v="2019-05-30" />
		<tag k="ssr:gruppe" v="veg" />
		<tag k="ssr:hovedgruppe" v="infrastruktur" />
		<tag k="ssr:stedsnr" v="1019734" />
		<tag k="ssr:type" v="adressenavn" />
	</node>
	<node id="-127221" lat="61.3762619184" lon="10.4465820661">
		<tag k="name" v="Sundråket" />
		<tag k="ssr:date" v="2019-05-30" />
		<tag k="ssr:gruppe" v="veg" />
		<tag k="ssr:hovedgruppe" v="infrastruktur" />
		<tag k="ssr:stedsnr" v="1019733" />
		<tag k="ssr:type" v="adressenavn" />
	</node>
	<node id="-127220" lat="61.3631302669" lon="10.2007623958">
		<tag k="name" v="Slåttvegen" />
		<tag k="ssr:date" v="2019-05-30" />
		<tag k="ssr:gruppe" v="veg" />
		<tag k="ssr:hovedgruppe" v="infrastruktur" />
		<tag k="ssr:stedsnr" v="1019552" />
		<tag k="ssr:type" v="adressenavn" />
	</node>
	<node id="-127219" lat="61.3115364758" lon="10.3320703511">
		<tag k="name" v="Smørkampvegen" />
		<tag k="ssr:date" v="2019-05-30" />
		<tag k="ssr:gruppe" v="veg" />
		<tag k="ssr:hovedgruppe" v="infrastruktur" />
		<tag k="ssr:stedsnr" v="1019390" />
		<tag k="ssr:type" v="adressenavn" />
	</node>
	<node id="-127218" lat="61.3085134003" lon="10.2968175755">
		<tag k="name" v="Kolhusvegen" />
		<tag k="ssr:date" v="2019-05-30" />
		<tag k="ssr:gruppe" v="veg" />
		<tag k="ssr:hovedgruppe" v="infrastruktur" />
		<tag k="ssr:stedsnr" v="1018546" />
		<tag k="ssr:type" v="adressenavn" />
	</node>
	<node id="-127217" lat="61.2559083709" lon="10.5064636017">
		<tag k="name" v="Blæsterfalla" />
		<tag k="ssr:date" v="2019-05-30" />
		<tag k="ssr:gruppe" v="veg" />
		<tag k="ssr:hovedgruppe" v="infrastruktur" />
		<tag k="ssr:stedsnr" v="1019606" />
		<tag k="ssr:type" v="adressenavn" />
	</node>
	<node id="-127216" lat="61.2564600827" lon="10.5014155639">
		<tag k="name" v="Hauganbrinken" />
		<tag k="ssr:date" v="2019-05-30" />
		<tag k="ssr:gruppe" v="veg" />
		<tag k="ssr:hovedgruppe" v="infrastruktur" />
		<tag k="ssr:stedsnr" v="1019604" />
		<tag k="ssr:type" v="adressenavn" />
	</node>
	<node id="-128360" lat="61.2416444431" lon="10.4801777841">
		<tag k="name" v="Kaldsvekroken" />
		<tag k="old_name" v="Kaillsvekroken" />
		<tag k="ssr:date" v="2016-05-11" />
		<tag k="ssr:gruppe" v="veg" />
		<tag k="ssr:hovedgruppe" v="infrastruktur" />
		<tag k="ssr:stedsnr" v="949631" />
		<tag k="ssr:type" v="vegstrekning" />
	</node>
	<node id="-127214" lat="61.25771608" lon="10.5062928644">
		<tag k="name" v="Kolgropa" />
		<tag k="ssr:date" v="2019-05-30" />
		<tag k="ssr:gruppe" v="veg" />
		<tag k="ssr:hovedgruppe" v="infrastruktur" />
		<tag k="ssr:stedsnr" v="1019602" />
		<tag k="ssr:type" v="adressenavn" />
	</node>
	<node id="-127213" lat="61.2572228011" lon="10.5087454824">
		<tag k="name" v="Jutulstadlykkja" />
		<tag k="ssr:date" v="2019-05-30" />
		<tag k="ssr:gruppe" v="veg" />
		<tag k="ssr:hovedgruppe" v="infrastruktur" />
		<tag k="ssr:stedsnr" v="1019599" />
		<tag k="ssr:type" v="adressenavn" />
	</node>
	<node id="-127212" lat="61.3200308341" lon="10.2260493376">
		<tag k="name" v="Auromsgutua" />
		<tag k="ssr:date" v="2019-05-30" />
		<tag k="ssr:gruppe" v="veg" />
		<tag k="ssr:hovedgruppe" v="infrastruktur" />
		<tag k="ssr:stedsnr" v="1019593" />
		<tag k="ssr:type" v="adressenavn" />
	</node>
	<node id="-127211" lat="61.3225869177" lon="10.2194585431">
		<tag k="name" v="Skybergsgutua" />
		<tag k="ssr:date" v="2019-05-30" />
		<tag k="ssr:gruppe" v="veg" />
		<tag k="ssr:hovedgruppe" v="infrastruktur" />
		<tag k="ssr:stedsnr" v="1019592" />
		<tag k="ssr:type" v="adressenavn" />
	</node>
	<node id="-127210" lat="61.3191862344" lon="10.2261967863">
		<tag k="name" v="Vassrudgutua" />
		<tag k="ssr:date" v="2019-05-30" />
		<tag k="ssr:gruppe" v="veg" />
		<tag k="ssr:hovedgruppe" v="infrastruktur" />
		<tag k="ssr:stedsnr" v="1019591" />
		<tag k="ssr:type" v="adressenavn" />
	</node>
	<node id="-127209" lat="61.2600783095" lon="10.4855964745">
		<tag k="name" v="Furtholoa" />
		<tag k="ssr:date" v="2019-05-30" />
		<tag k="ssr:gruppe" v="veg" />
		<tag k="ssr:hovedgruppe" v="infrastruktur" />
		<tag k="ssr:stedsnr" v="1019577" />
		<tag k="ssr:type" v="adressenavn" />
	</node>
	<node id="-128232" lat="61.3289444468" lon="10.3514194394">
		<tag k="name" v="Holmsætervegen" />
		<tag k="ssr:date" v="2016-05-11" />
		<tag k="ssr:gruppe" v="veg" />
		<tag k="ssr:hovedgruppe" v="infrastruktur" />
		<tag k="ssr:stedsnr" v="830312" />
		<tag k="ssr:type" v="vegstrekning" />
	</node>
	<node id="-128359" lat="61.236088893" lon="10.4849083327">
		<tag k="name" v="Doldaveien" />
		<tag k="ssr:date" v="2016-05-11" />
		<tag k="ssr:gruppe" v="veg" />
		<tag k="ssr:hovedgruppe" v="infrastruktur" />
		<tag k="ssr:stedsnr" v="949630" />
		<tag k="ssr:type" v="vegstrekning" />
	</node>
	<node id="-127462" lat="61.2074277749" lon="10.4576861035">
		<tag k="name" v="Bagstadvegen" />
		<tag k="ssr:date" v="2016-05-10" />
		<tag k="ssr:gruppe" v="veg" />
		<tag k="ssr:hovedgruppe" v="infrastruktur" />
		<tag k="ssr:stedsnr" v="162578" />
		<tag k="ssr:type" v="vegstrekning" />
	</node>
	<node id="-128229" lat="61.3776499976" lon="10.3363055534">
		<tag k="name" v="Nørdre Veslesætervegen" />
		<tag k="ssr:date" v="2016-05-11" />
		<tag k="ssr:gruppe" v="veg" />
		<tag k="ssr:hovedgruppe" v="infrastruktur" />
		<tag k="ssr:stedsnr" v="830283" />
		<tag k="ssr:type" v="vegstrekning" />
	</node>
	<node id="-127204" lat="61.2491003984" lon="10.5087339463">
		<tag k="name" v="Måsåbergvegen" />
		<tag k="ssr:date" v="2019-05-30" />
		<tag k="ssr:gruppe" v="veg" />
		<tag k="ssr:hovedgruppe" v="infrastruktur" />
		<tag k="ssr:stedsnr" v="1019568" />
		<tag k="ssr:type" v="adressenavn" />
	</node>
	<node id="-128102" lat="61.2649416624" lon="10.4129638879">
		<tag k="name" v="Øyer kommune" />
		<tag k="ssr:date" v="2016-05-11" />
		<tag k="ssr:gruppe" v="administrativeIndelinger" />
		<tag k="ssr:hovedgruppe" v="offentligAdministrasjon" />
		<tag k="ssr:stedsnr" v="754886" />
		<tag k="ssr:type" v="kommune" />
	</node>
	<node id="-127202" lat="61.268351267" lon="10.4111966821">
		<tag k="name" v="Prestgardshågån" />
		<tag k="ssr:date" v="2019-05-30" />
		<tag k="ssr:gruppe" v="veg" />
		<tag k="ssr:hovedgruppe" v="infrastruktur" />
		<tag k="ssr:stedsnr" v="1016493" />
		<tag k="ssr:type" v="adressenavn" />
	</node>
	<node id="-127205" lat="61.260504141" lon="10.4843624952">
		<tag k="name" v="Sæterberget" />
		<tag k="ssr:date" v="2019-05-30" />
		<tag k="ssr:gruppe" v="veg" />
		<tag k="ssr:hovedgruppe" v="infrastruktur" />
		<tag k="ssr:stedsnr" v="1019573" />
		<tag k="ssr:type" v="adressenavn" />
	</node>
	<node id="-127194" lat="61.2489564039" lon="10.5068572181">
		<tag k="name" v="Kronrøysa" />
		<tag k="ssr:date" v="2019-11-21" />
		<tag k="ssr:gruppe" v="veg" />
		<tag k="ssr:hovedgruppe" v="infrastruktur" />
		<tag k="ssr:stedsnr" v="1073414" />
		<tag k="ssr:type" v="adressenavn" />
	</node>
	<node id="-128217" lat="61.3457250011" lon="10.368408333">
		<tag k="name" v="Østfjellvegen" />
		<tag k="ssr:date" v="2016-05-11" />
		<tag k="ssr:gruppe" v="veg" />
		<tag k="ssr:hovedgruppe" v="infrastruktur" />
		<tag k="ssr:stedsnr" v="828630" />
		<tag k="ssr:type" v="vegstrekning" />
	</node>
	<node id="-128216" lat="61.2425138865" lon="10.577566668">
		<tag k="name" v="Hitvegen" />
		<tag k="ssr:date" v="2016-05-11" />
		<tag k="ssr:gruppe" v="veg" />
		<tag k="ssr:hovedgruppe" v="infrastruktur" />
		<tag k="ssr:stedsnr" v="828629" />
		<tag k="ssr:type" v="vegstrekning" />
	</node>
	<node id="-128214" lat="61.2942972217" lon="10.433491666">
		<tag k="name" v="Akksjøsætervegen" />
		<tag k="ssr:date" v="2016-05-11" />
		<tag k="ssr:gruppe" v="veg" />
		<tag k="ssr:hovedgruppe" v="infrastruktur" />
		<tag k="ssr:stedsnr" v="828512" />
		<tag k="ssr:type" v="vegstrekning" />
	</node>
	<node id="-127443" lat="61.2940805559" lon="10.8121583349">
		<tag k="name" v="Birkebeinervegen" />
		<tag k="ssr:date" v="2016-05-10" />
		<tag k="ssr:gruppe" v="veg" />
		<tag k="ssr:hovedgruppe" v="infrastruktur" />
		<tag k="ssr:stedsnr" v="160732" />
		<tag k="ssr:type" v="vegstrekning" />
	</node>
	<node id="-127208" lat="61.2612201457" lon="10.4906676028">
		<tag k="name" v="Gammellykkja" />
		<tag k="ssr:date" v="2019-05-30" />
		<tag k="ssr:gruppe" v="veg" />
		<tag k="ssr:hovedgruppe" v="infrastruktur" />
		<tag k="ssr:stedsnr" v="1019576" />
		<tag k="ssr:type" v="adressenavn" />
	</node>
	<node id="-127064" lat="61.3589277796" lon="10.2139916661">
		<tag k="name" v="Roåkervegen" />
		<tag k="ssr:date" v="2016-05-10" />
		<tag k="ssr:gruppe" v="veg" />
		<tag k="ssr:hovedgruppe" v="infrastruktur" />
		<tag k="ssr:stedsnr" v="361843" />
		<tag k="ssr:type" v="vegstrekning" />
	</node>
	<node id="-127436" lat="61.2259916672" lon="10.5798138822">
		<tag k="name" v="Pellevegen" />
		<tag k="ssr:date" v="2016-05-10" />
		<tag k="ssr:gruppe" v="veg" />
		<tag k="ssr:hovedgruppe" v="infrastruktur" />
		<tag k="ssr:stedsnr" v="160291" />
		<tag k="ssr:type" v="vegstrekning" />
	</node>
	<node id="-127206" lat="61.2597793642" lon="10.4864187706">
		<tag k="name" v="Lyusveknappen" />
		<tag k="ssr:date" v="2019-05-30" />
		<tag k="ssr:gruppe" v="veg" />
		<tag k="ssr:hovedgruppe" v="infrastruktur" />
		<tag k="ssr:stedsnr" v="1019574" />
		<tag k="ssr:type" v="adressenavn" />
	</node>
	<node id="-128069" lat="61.3249805541" lon="10.2257750059">
		<tag k="alt_name" v="Djupedalsætervegen" />
		<tag k="name" v="Djupdalsætervegen" />
		<tag k="ssr:date" v="2016-05-11" />
		<tag k="ssr:gruppe" v="veg" />
		<tag k="ssr:hovedgruppe" v="infrastruktur" />
		<tag k="ssr:stedsnr" v="725876" />
		<tag k="ssr:type" v="vegstrekning" />
	</node>
	<node id="-128065" lat="61.2686777801" lon="10.3487166589">
		<tag k="name" v="Rognstadvegen" />
		<tag k="ssr:date" v="2016-05-11" />
		<tag k="ssr:gruppe" v="veg" />
		<tag k="ssr:hovedgruppe" v="infrastruktur" />
		<tag k="ssr:stedsnr" v="722045" />
		<tag k="ssr:type" v="vegstrekning" />
	</node>
	<node id="-127028" lat="61.3574194414" lon="10.3655333257">
		<tag k="name" v="Glømmesætervegen" />
		<tag k="ssr:date" v="2016-05-10" />
		<tag k="ssr:gruppe" v="veg" />
		<tag k="ssr:hovedgruppe" v="infrastruktur" />
		<tag k="ssr:stedsnr" v="342606" />
		<tag k="ssr:type" v="vegstrekning" />
	</node>
	<node id="-127282" lat="61.2807444407" lon="10.5514055575">
		<tag k="name" v="Rognhaugvegen" />
		<tag k="ssr:date" v="2016-05-10" />
		<tag k="ssr:gruppe" v="veg" />
		<tag k="ssr:hovedgruppe" v="infrastruktur" />
		<tag k="ssr:stedsnr" v="39823" />
		<tag k="ssr:type" v="vegstrekning" />
	</node>
	<node id="-127024" lat="61.26583333" lon="10.4189361043">
		<tag k="name" v="Krøplingen" />
		<tag k="ssr:date" v="2016-05-10" />
		<tag k="ssr:gruppe" v="veg" />
		<tag k="ssr:hovedgruppe" v="infrastruktur" />
		<tag k="ssr:stedsnr" v="342370" />
		<tag k="ssr:type" v="vegstrekning" />
	</node>
	<node id="-127279" lat="61.2898805526" lon="10.493422225">
		<tag k="name" v="Augsætervegen" />
		<tag k="ssr:date" v="2016-05-10" />
		<tag k="ssr:gruppe" v="veg" />
		<tag k="ssr:hovedgruppe" v="infrastruktur" />
		<tag k="ssr:stedsnr" v="39635" />
		<tag k="ssr:type" v="vegstrekning" />
	</node>
	<node id="-128301" lat="61.3121361098" lon="10.2362916759">
		<tag k="name" v="Musdalssætervegen" />
		<tag k="ssr:date" v="2016-05-11" />
		<tag k="ssr:gruppe" v="veg" />
		<tag k="ssr:hovedgruppe" v="infrastruktur" />
		<tag k="ssr:stedsnr" v="907867" />
		<tag k="ssr:type" v="vegstrekning" />
	</node>
	<node id="-127273" lat="61.2798027817" lon="10.4394916699">
		<tag k="name" v="Minnefeltvegen" />
		<tag k="ssr:date" v="2016-05-10" />
		<tag k="ssr:gruppe" v="veg" />
		<tag k="ssr:hovedgruppe" v="infrastruktur" />
		<tag k="ssr:stedsnr" v="39470" />
		<tag k="ssr:type" v="vegstrekning" />
	</node>
	<node id="-127193" lat="61.2475301572" lon="10.5075344549">
		<tag k="name" v="Mellomrøysa" />
		<tag k="ssr:date" v="2019-11-21" />
		<tag k="ssr:gruppe" v="veg" />
		<tag k="ssr:hovedgruppe" v="infrastruktur" />
		<tag k="ssr:stedsnr" v="1073413" />
		<tag k="ssr:type" v="adressenavn" />
	</node>
	<node id="-127780" lat="61.3210333293" lon="10.4497888798">
		<tag k="name" v="Pølvegen" />
		<tag k="ssr:date" v="2016-05-10" />
		<tag k="ssr:gruppe" v="veg" />
		<tag k="ssr:hovedgruppe" v="infrastruktur" />
		<tag k="ssr:stedsnr" v="526242" />
		<tag k="ssr:type" v="vegstrekning" />
	</node>
	<node id="-127394" lat="61.2714805564" lon="10.2914111166">
		<tag k="name" v="Krokhaugvegen" />
		<tag k="ssr:date" v="2016-05-10" />
		<tag k="ssr:gruppe" v="veg" />
		<tag k="ssr:hovedgruppe" v="infrastruktur" />
		<tag k="ssr:stedsnr" v="116399" />
		<tag k="ssr:type" v="vegstrekning" />
	</node>
	<node id="-127776" lat="61.2253305571" lon="10.6131361091">
		<tag k="name" v="Pellevegen" />
		<tag k="ssr:date" v="2016-05-10" />
		<tag k="ssr:gruppe" v="veg" />
		<tag k="ssr:hovedgruppe" v="infrastruktur" />
		<tag k="ssr:stedsnr" v="525466" />
		<tag k="ssr:type" v="vegstrekning" />
	</node>
	<node id="-127203" lat="61.2544383355" lon="10.4371970921">
		<tag k="name" v="Ole Stenens veg" />
		<tag k="ssr:date" v="2019-05-30" />
		<tag k="ssr:gruppe" v="veg" />
		<tag k="ssr:hovedgruppe" v="infrastruktur" />
		<tag k="ssr:stedsnr" v="1016519" />
		<tag k="ssr:type" v="adressenavn" />
	</node>
	<node id="-127215" lat="61.2562894914" lon="10.5029305523">
		<tag k="name" v="Hauganlia" />
		<tag k="ssr:date" v="2019-05-30" />
		<tag k="ssr:gruppe" v="veg" />
		<tag k="ssr:hovedgruppe" v="infrastruktur" />
		<tag k="ssr:stedsnr" v="1019603" />
		<tag k="ssr:type" v="adressenavn" />
	</node>
	<node id="-128022" lat="61.2635027768" lon="10.5716444462">
		<tag k="name" v="Hornsjøvegen" />
		<tag k="ssr:date" v="2016-05-11" />
		<tag k="ssr:gruppe" v="veg" />
		<tag k="ssr:hovedgruppe" v="infrastruktur" />
		<tag k="ssr:stedsnr" v="706608" />
		<tag k="ssr:type" v="vegstrekning" />
	</node>
	<node id="-127449" lat="61.2696611107" lon="10.5207000075">
		<tag k="name" v="Rognhaugvegen" />
		<tag k="ssr:date" v="2016-05-10" />
		<tag k="ssr:gruppe" v="veg" />
		<tag k="ssr:hovedgruppe" v="infrastruktur" />
		<tag k="ssr:stedsnr" v="160811" />
		<tag k="ssr:type" v="vegstrekning" />
	</node>
	<node id="-127207" lat="61.2643647829" lon="10.4970496073">
		<tag k="name" v="Høghaugvegen" />
		<tag k="ssr:date" v="2019-05-30" />
		<tag k="ssr:gruppe" v="veg" />
		<tag k="ssr:hovedgruppe" v="infrastruktur" />
		<tag k="ssr:stedsnr" v="1019575" />
		<tag k="ssr:type" v="adressenavn" />
	</node>
	<node id="-127192" lat="61.2612545141" lon="10.4827218282">
		<tag k="name" v="Bekkjedalen" />
		<tag k="ssr:date" v="2019-11-21" />
		<tag k="ssr:gruppe" v="veg" />
		<tag k="ssr:hovedgruppe" v="infrastruktur" />
		<tag k="ssr:stedsnr" v="1073412" />
		<tag k="ssr:type" v="adressenavn" />
	</node>
	<node id="-128399" lat="60.5908609473" lon="9.63819281559">
		<tag k="fixme" v="multiple name tags, choose one and add the other to alt_name" />
		<tag k="name" v="Austlandet;Østlandet" />
		<tag k="ssr:date" v="2018-01-09" />
		<tag k="ssr:gruppe" v="administrativeIndelinger" />
		<tag k="ssr:hovedgruppe" v="offentligAdministrasjon" />
		<tag k="ssr:stedsnr" v="974775" />
		<tag k="ssr:type" v="annenAdministrativInndeling" />
	</node>
	<node id="-127113" lat="61.2333472227" lon="10.5087361168">
		<tag k="name" v="Nysætervegen" />
		<tag k="ssr:date" v="2016-05-10" />
		<tag k="ssr:gruppe" v="veg" />
		<tag k="ssr:hovedgruppe" v="infrastruktur" />
		<tag k="ssr:stedsnr" v="403652" />
		<tag k="ssr:type" v="vegstrekning" />
	</node>
	<node id="-128387" lat="61.2682000022" lon="10.3271583364">
		<tag k="name" v="Svartbergvegen" />
		<tag k="ssr:date" v="2016-05-11" />
		<tag k="ssr:gruppe" v="veg" />
		<tag k="ssr:hovedgruppe" v="infrastruktur" />
		<tag k="ssr:stedsnr" v="965046" />
		<tag k="ssr:type" v="vegstrekning" />
	</node>
</osm>
