<?xml version="1.0" encoding="UTF-8"?>
<<<<<<< HEAD
<osm version="0.6" generator="osmapis">
	<node lat="60.59689416305991" lon="10.825598283947606" id="-23381">
		<tag k="name" v="Skjærsjømarka" />
		<tag k="place" v="locality" />
		<tag k="ssr:stedsnr" v="26503" />
	</node>
	<node lat="60.53878610750007" lon="10.789175004174389" id="-23444">
		<tag k="historic" v="shieling" />
		<tag k="name" v="Bjørkesætra" />
		<tag k="place" v="locality" />
		<tag k="ssr:stedsnr" v="249664" />
	</node>
	<node lat="60.51685277362275" lon="11.023563893825136" id="-23462">
		<tag k="historic" v="shieling" />
		<tag k="name" v="Nysætra" />
		<tag k="place" v="locality" />
		<tag k="ssr:stedsnr" v="250709" />
	</node>
	<node lat="60.551669448025024" lon="10.72593611716076" id="-23496">
		<tag k="name" v="Knutsetergjerdingen" />
		<tag k="place" v="locality" />
		<tag k="ssr:stedsnr" v="145327" />
	</node>
	<node lat="60.51932499880175" lon="11.076491664995222" id="-23513">
		<tag k="name" v="Hagamyra" />
		<tag k="natural" v="wetland" />
		<tag k="ssr:stedsnr" v="163108" />
	</node>
	<node lat="60.55635516231509" lon="10.832243534617097" id="-23536">
		<tag k="name" v="Rundbrenna" />
		<tag k="place" v="locality" />
		<tag k="ssr:stedsnr" v="267300" />
	</node>
	<node lat="60.67946944395824" lon="10.750797218639844" id="-23546">
		<tag k="landuse" v="meadow" />
		<tag k="name" v="Bratland" />
		<tag k="ssr:stedsnr" v="269038" />
	</node>
	<node lat="60.47915277453072" lon="10.84267221474829" id="-23569">
		<tag k="historic" v="shieling" />
		<tag k="name" v="Finnevollen" />
=======
<osm generator="osmapis" version="0.6">
	<node id="-383103" lat="60.5518055522" lon="10.8850055634">
		<tag k="name" v="Furumyrene" />
		<tag k="natural" v="wetland" />
		<tag k="ssr:stedsnr" v="694539" />
	</node>
	<node id="-383102" lat="60.5536416706" lon="10.8367888852">
		<tag k="name" v="Rundbrenna" />
>>>>>>> e1d4bc35ff8a6074a6f2e91616a996b547c36f15
		<tag k="place" v="locality" />
		<tag k="ssr:stedsnr" v="449852" />
	</node>
<<<<<<< HEAD
	<node lat="60.49694722542147" lon="10.844938893561007" id="-23571">
		<tag k="name" v="Gråmærra" />
		<tag k="natural" v="stone" />
		<tag k="ssr:stedsnr" v="449994" />
	</node>
	<node lat="60.49872222459711" lon="10.816469436856389" id="-23583">
=======
	<node id="-382844" lat="60.4987222246" lon="10.8164694369">
>>>>>>> e1d4bc35ff8a6074a6f2e91616a996b547c36f15
		<tag k="historic" v="shieling" />
		<tag k="name" v="Mønssetra" />
		<tag k="place" v="locality" />
		<tag k="ssr:stedsnr" v="451251" />
	</node>
<<<<<<< HEAD
	<node lat="60.60613611216941" lon="10.692774992110976" id="-23640">
		<tag k="name" v="Stormyra" />
		<tag k="natural" v="wetland" />
		<tag k="ssr:stedsnr" v="310190" />
	</node>
	<node lat="60.59020278114168" lon="10.8746527734822" id="-23653">
		<tag k="landuse" v="meadow" />
		<tag k="name" v="Lerenga" />
		<tag k="ssr:stedsnr" v="329673" />
	</node>
	<node lat="60.52095000226563" lon="10.955763889771921" id="-23683">
=======
	<node id="-383995" lat="60.5547666681" lon="11.0852222297">
		<tag k="name" v="Lessmyra" />
		<tag k="natural" v="wetland" />
		<tag k="ssr:stedsnr" v="524052" />
	</node>
	<node id="-383487" lat="60.5292336221" lon="10.7206222778">
		<tag k="name" v="Folungmyra" />
		<tag k="natural" v="wetland" />
		<tag k="ssr:stedsnr" v="1072477" />
	</node>
	<node id="-384375" lat="60.5942943256" lon="10.7792445171">
		<tag k="name" v="Furuholen" />
		<tag k="place" v="locality" />
		<tag k="ssr:stedsnr" v="875477" />
	</node>
	<node id="-382709" lat="60.5168527736" lon="11.0235638938">
>>>>>>> e1d4bc35ff8a6074a6f2e91616a996b547c36f15
		<tag k="historic" v="shieling" />
		<tag k="name" v="Arvsætra" />
		<tag k="place" v="locality" />
		<tag k="ssr:stedsnr" v="371709" />
	</node>
<<<<<<< HEAD
	<node lat="60.57480555688575" lon="11.107394437412992" id="-23713">
		<tag k="name" v="Ranglemyra" />
=======
	<node id="-382782" lat="60.5193249988" lon="11.076491665">
		<tag k="name" v="Hagamyra" />
		<tag k="natural" v="wetland" />
		<tag k="ssr:stedsnr" v="163108" />
	</node>
	<node id="-384241" lat="60.6201972265" lon="10.8380472285">
		<tag k="name" v="Tranbergmyra" />
>>>>>>> e1d4bc35ff8a6074a6f2e91616a996b547c36f15
		<tag k="natural" v="wetland" />
		<tag k="ssr:stedsnr" v="403087" />
	</node>
<<<<<<< HEAD
	<node lat="60.567063891674444" lon="11.09075833910836" id="-23719">
		<tag k="name" v="Roligmyra" />
		<tag k="natural" v="wetland" />
		<tag k="ssr:stedsnr" v="404184" />
	</node>
	<node lat="60.55846944482727" lon="10.972611102261553" id="-23784">
		<tag k="name" v="Stormyra" />
		<tag k="natural" v="wetland" />
		<tag k="ssr:stedsnr" v="464355" />
	</node>
	<node lat="60.49939166961497" lon="10.867930556210986" id="-23873">
		<tag k="name" v="Gaupåsmyra" />
		<tag k="natural" v="wetland" />
		<tag k="ssr:stedsnr" v="691862" />
	</node>
	<node lat="60.51535555125368" lon="10.932483328162634" id="-23879">
		<tag k="name" v="Reklingsmyra" />
=======
	<node id="-384111" lat="60.5224555565" lon="10.7922888963">
		<tag k="name" v="Storbrennmyra" />
		<tag k="natural" v="wetland" />
		<tag k="ssr:stedsnr" v="613656" />
	</node>
	<node id="-383779" lat="60.4816111082" lon="10.8854000032">
		<tag k="name" v="Budeiemyra" />
		<tag k="natural" v="wetland" />
		<tag k="ssr:stedsnr" v="206871" />
	</node>
	<node id="-383851" lat="60.5902027811" lon="10.8746527735">
		<tag k="landuse" v="meadow" />
		<tag k="name" v="Lerenga" />
		<tag k="ssr:stedsnr" v="329673" />
	</node>
	<node id="-383082" lat="60.5153555513" lon="10.9324833282">
		<tag k="name" v="Reklingsmyra" />
		<tag k="natural" v="wetland" />
		<tag k="ssr:stedsnr" v="692751" />
	</node>
	<node id="-382824" lat="60.4791527745" lon="10.8426722147">
		<tag k="historic" v="shieling" />
		<tag k="name" v="Finnevollen" />
		<tag k="place" v="locality" />
		<tag k="ssr:stedsnr" v="449852" />
	</node>
	<node id="-383077" lat="60.4993916696" lon="10.8679305562">
		<tag k="name" v="Gaupåsmyra" />
>>>>>>> e1d4bc35ff8a6074a6f2e91616a996b547c36f15
		<tag k="natural" v="wetland" />
		<tag k="ssr:stedsnr" v="691862" />
	</node>
<<<<<<< HEAD
	<node lat="60.49204166458079" lon="10.830241671561671" id="-23883">
		<tag k="name" v="Gråbeinmyra" />
=======
	<node id="-384227" lat="60.5922749968" lon="11.0845722172">
		<tag k="name" v="Strytmyra" />
>>>>>>> e1d4bc35ff8a6074a6f2e91616a996b547c36f15
		<tag k="natural" v="wetland" />
		<tag k="ssr:stedsnr" v="693265" />
	</node>
<<<<<<< HEAD
	<node lat="60.55364167059648" lon="10.836788885242129" id="-23914">
		<tag k="name" v="Rundbrenna" />
=======
	<node id="-383714" lat="60.6203166654" lon="11.0488944401">
		<tag k="name" v="Hjellsbrenna" />
>>>>>>> e1d4bc35ff8a6074a6f2e91616a996b547c36f15
		<tag k="place" v="locality" />
		<tag k="ssr:stedsnr" v="694538" />
	</node>
<<<<<<< HEAD
	<node lat="60.551805552158875" lon="10.885005563358847" id="-23915">
		<tag k="name" v="Furumyrene" />
		<tag k="natural" v="wetland" />
		<tag k="ssr:stedsnr" v="694539" />
	</node>
	<node lat="60.59597778088058" lon="11.085541661932275" id="-23928">
=======
	<node id="-384095" lat="60.5959777809" lon="11.0855416619">
>>>>>>> e1d4bc35ff8a6074a6f2e91616a996b547c36f15
		<tag k="name" v="Skreitjernsmyrene" />
		<tag k="natural" v="wetland" />
		<tag k="ssr:stedsnr" v="585945" />
	</node>
<<<<<<< HEAD
	<node lat="60.4960666692862" lon="10.749975008158334" id="-23931">
		<tag k="alt_name" v="Vindflomyrane;Vindflomyra" />
		<tag k="name" v="Vindflomyrene" />
		<tag k="natural" v="wetland" />
		<tag k="ssr:stedsnr" v="612765" />
	</node>
	<node lat="60.52008055496801" lon="10.970933339366717" id="-23987">
		<tag k="name" v="Hornmyra" />
=======
	<node id="-382686" lat="60.5387861075" lon="10.7891750042">
		<tag k="historic" v="shieling" />
		<tag k="name" v="Bjørkesætra" />
		<tag k="place" v="locality" />
		<tag k="ssr:stedsnr" v="249664" />
	</node>
	<node id="-383461" lat="60.5869275759" lon="10.8855511294">
		<tag k="alt_name" v="Fodstadvollen" />
		<tag k="historic" v="shieling" />
		<tag k="name" v="Fostadvollen" />
		<tag k="place" v="locality" />
		<tag k="ssr:stedsnr" v="917616" />
	</node>
	<node id="-383836" lat="60.5451653321" lon="10.7809566455">
		<tag k="name" v="Stormyra" />
>>>>>>> e1d4bc35ff8a6074a6f2e91616a996b547c36f15
		<tag k="natural" v="wetland" />
		<tag k="ssr:stedsnr" v="645314" />
	</node>
<<<<<<< HEAD
	<node lat="60.534024995734" lon="10.920650003031055" id="-23995">
		<tag k="name" v="Gråbeinmyra" />
		<tag k="natural" v="wetland" />
		<tag k="ssr:stedsnr" v="707849" />
	</node>
	<node lat="60.58435277547473" lon="11.078091658693884" id="-23997">
		<tag k="name" v="Niputta" />
		<tag k="natural" v="wetland" />
		<tag k="ssr:stedsnr" v="708191" />
	</node>
	<node lat="60.52816415279146" lon="10.764146338242664" id="-24131">
		<tag k="alt_name" v="Narumsetermyra" />
		<tag k="name" v="Narumsætermyra" />
		<tag k="natural" v="wetland" />
		<tag k="ssr:stedsnr" v="796666" />
	</node>
	<node lat="60.62019722647484" lon="10.838047228476858" id="-24214">
		<tag k="name" v="Tranbergmyra" />
		<tag k="natural" v="wetland" />
		<tag k="ssr:stedsnr" v="875718" />
	</node>
	<node lat="60.58692757592626" lon="10.885551129431633" id="-24241">
		<tag k="alt_name" v="Fodstadvollen" />
		<tag k="historic" v="shieling" />
		<tag k="name" v="Fostadvollen" />
		<tag k="place" v="locality" />
		<tag k="ssr:stedsnr" v="917616" />
	</node>
	<node lat="60.52171929336531" lon="10.836374905294873" id="-24336">
		<tag k="historic" v="shieling" />
		<tag k="name" v="Bergsjøbrenna" />
		<tag k="place" v="locality" />
		<tag k="ssr:stedsnr" v="25828" />
	</node>
	<node lat="60.588602779839974" lon="10.725519446602886" id="-24484">
=======
	<node id="-383702" lat="60.5886027798" lon="10.7255194466">
>>>>>>> e1d4bc35ff8a6074a6f2e91616a996b547c36f15
		<tag k="landuse" v="meadow" />
		<tag k="name" v="Brusveenga" />
		<tag k="ssr:stedsnr" v="146631" />
	</node>
<<<<<<< HEAD
	<node lat="60.60376944581222" lon="11.022013889240542" id="-24501">
		<tag k="name" v="Kalvedalen" />
=======
	<node id="-383445" lat="60.5836180175" lon="10.8128517604">
		<tag k="name" v="Korsmyra" />
>>>>>>> e1d4bc35ff8a6074a6f2e91616a996b547c36f15
		<tag k="natural" v="wetland" />
		<tag k="ssr:stedsnr" v="160515" />
	</node>
<<<<<<< HEAD
	<node lat="60.62031666542402" lon="11.04889444005941" id="-24503">
		<tag k="name" v="Hjellsbrenna" />
=======
	<node id="-383444" lat="60.5967527795" lon="11.1098999946">
		<tag k="name" v="Tallholmen" />
>>>>>>> e1d4bc35ff8a6074a6f2e91616a996b547c36f15
		<tag k="place" v="locality" />
		<tag k="ssr:stedsnr" v="160472" />
	</node>
<<<<<<< HEAD
	<node lat="60.54232222165377" lon="10.706072217963895" id="-24527">
		<tag k="name" v="Kapteinsmyrene" />
=======
	<node id="-383953" lat="60.5670638917" lon="11.0907583391">
		<tag k="name" v="Roligmyra" />
>>>>>>> e1d4bc35ff8a6074a6f2e91616a996b547c36f15
		<tag k="natural" v="wetland" />
		<tag k="ssr:stedsnr" v="189088" />
	</node>
<<<<<<< HEAD
	<node lat="60.4993888855438" lon="10.871477783449487" id="-24548">
		<tag k="name" v="Mageretmyra" />
=======
	<node id="-382800" lat="60.5965111136" lon="11.0737777791">
		<tag k="name" v="Vestre Annersgardsmyra" />
>>>>>>> e1d4bc35ff8a6074a6f2e91616a996b547c36f15
		<tag k="natural" v="wetland" />
		<tag k="ssr:stedsnr" v="206864" />
	</node>
<<<<<<< HEAD
	<node lat="60.48161110820767" lon="10.885400003160743" id="-24549">
		<tag k="name" v="Budeiemyra" />
		<tag k="natural" v="wetland" />
		<tag k="ssr:stedsnr" v="206871" />
	</node>
	<node lat="60.55919166716131" lon="11.09170832430712" id="-24567">
		<tag k="name" v="Stordalsmyra" />
		<tag k="natural" v="wetland" />
		<tag k="ssr:stedsnr" v="221059" />
	</node>
	<node lat="60.60065000306029" lon="11.038769444017817" id="-24569">
		<tag k="name" v="Dalmyrene" />
		<tag k="natural" v="wetland" />
		<tag k="ssr:stedsnr" v="221547" />
	</node>
	<node lat="60.596741670090694" lon="11.079105556031305" id="-24573">
		<tag k="name" v="Østre Annersgardsmyra" />
=======
	<node id="-383693" lat="60.551669448" lon="10.7259361172">
		<tag k="name" v="Knutsetergjerdingen" />
		<tag k="place" v="locality" />
		<tag k="ssr:stedsnr" v="145327" />
	</node>
	<node id="-383211" lat="60.532702775" lon="10.7794472305">
		<tag k="name" v="Vesternmyra" />
		<tag k="natural" v="wetland" />
		<tag k="ssr:stedsnr" v="735659" />
	</node>
	<node id="-382946" lat="60.5209500023" lon="10.9557638898">
		<tag k="historic" v="shieling" />
		<tag k="name" v="Arvsætra" />
		<tag k="place" v="locality" />
		<tag k="ssr:stedsnr" v="371709" />
	</node>
	<node id="-383946" lat="60.5748055569" lon="11.1073944374">
		<tag k="name" v="Ranglemyra" />
>>>>>>> e1d4bc35ff8a6074a6f2e91616a996b547c36f15
		<tag k="natural" v="wetland" />
		<tag k="ssr:stedsnr" v="221935" />
	</node>
<<<<<<< HEAD
	<node lat="60.59184444878892" lon="11.095319437461432" id="-24575">
		<tag k="name" v="Hestmyra" />
		<tag k="natural" v="wetland" />
		<tag k="ssr:stedsnr" v="221942" />
	</node>
	<node lat="60.61302777401852" lon="10.96545278344004" id="-24582">
=======
	<node id="-383735" lat="60.5423222217" lon="10.706072218">
		<tag k="name" v="Kapteinsmyrene" />
		<tag k="natural" v="wetland" />
		<tag k="ssr:stedsnr" v="189088" />
	</node>
	<node id="-382791" lat="60.613027774" lon="10.9654527834">
>>>>>>> e1d4bc35ff8a6074a6f2e91616a996b547c36f15
		<tag k="landuse" v="meadow" />
		<tag k="name" v="Engeslesseplass" />
		<tag k="ssr:stedsnr" v="282536" />
	</node>
<<<<<<< HEAD
	<node lat="60.596511113594" lon="11.073777779134556" id="-24594">
		<tag k="name" v="Vestre Annersgardsmyra" />
=======
	<node id="-383172" lat="60.4960666693" lon="10.7499750082">
		<tag k="alt_name" v="Vindflomyrane;Vindflomyra" />
		<tag k="name" v="Vindflomyrene" />
>>>>>>> e1d4bc35ff8a6074a6f2e91616a996b547c36f15
		<tag k="natural" v="wetland" />
		<tag k="ssr:stedsnr" v="282965" />
	</node>
<<<<<<< HEAD
	<node lat="60.54516533213996" lon="10.78095664549639" id="-24626">
=======
	<node id="-383042" lat="60.5584694448" lon="10.9726111023">
>>>>>>> e1d4bc35ff8a6074a6f2e91616a996b547c36f15
		<tag k="name" v="Stormyra" />
		<tag k="natural" v="wetland" />
		<tag k="ssr:stedsnr" v="327281" />
	</node>
<<<<<<< HEAD
	<node lat="60.58764722347354" lon="11.081241665110781" id="-24659">
		<tag k="name" v="Maritmyra" />
=======
	<node id="-383423" lat="60.5286388878" lon="10.7078472132">
		<tag k="name" v="Sauengmyrene" />
>>>>>>> e1d4bc35ff8a6074a6f2e91616a996b547c36f15
		<tag k="natural" v="wetland" />
		<tag k="ssr:stedsnr" v="342940" />
	</node>
<<<<<<< HEAD
	<node lat="60.597274997610945" lon="10.67730277980033" id="-24779">
		<tag k="name" v="Indien" />
		<tag k="place" v="locality" />
		<tag k="ssr:stedsnr" v="511576" />
	</node>
	<node lat="60.55476666813383" lon="11.085222229710133" id="-24785">
		<tag k="name" v="Lessmyra" />
=======
	<node id="-383806" lat="60.6061361122" lon="10.6927749921">
		<tag k="name" v="Stormyra" />
		<tag k="natural" v="wetland" />
		<tag k="ssr:stedsnr" v="310190" />
	</node>
	<node id="-383035" lat="60.5271805528" lon="10.9761583325">
		<tag k="name" v="Furumyra" />
>>>>>>> e1d4bc35ff8a6074a6f2e91616a996b547c36f15
		<tag k="natural" v="wetland" />
		<tag k="ssr:stedsnr" v="524052" />
	</node>
<<<<<<< HEAD
	<node lat="60.52679721870368" lon="10.903091665906247" id="-24795">
		<tag k="name" v="Slåttsvedalen" />
=======
	<node id="-384186" lat="60.5027166623" lon="10.7606333408">
		<tag k="name" v="Rundmyra" />
>>>>>>> e1d4bc35ff8a6074a6f2e91616a996b547c36f15
		<tag k="natural" v="wetland" />
		<tag k="ssr:stedsnr" v="526856" />
	</node>
<<<<<<< HEAD
	<node lat="60.49210832879707" lon="10.835788897510204" id="-24829">
=======
	<node id="-384055" lat="60.4921083288" lon="10.8357888975">
>>>>>>> e1d4bc35ff8a6074a6f2e91616a996b547c36f15
		<tag k="name" v="Gråbeinmyra" />
		<tag k="natural" v="wetland" />
		<tag k="ssr:stedsnr" v="570999" />
	</node>
<<<<<<< HEAD
	<node lat="60.52245555649943" lon="10.79228889628346" id="-24872">
		<tag k="name" v="Storbrennmyra" />
=======
	<node id="-383283" lat="60.4920416646" lon="10.8302416716">
		<tag k="name" v="Gråbeinmyra" />
>>>>>>> e1d4bc35ff8a6074a6f2e91616a996b547c36f15
		<tag k="natural" v="wetland" />
		<tag k="ssr:stedsnr" v="613656" />
	</node>
<<<<<<< HEAD
	<node lat="60.56074588678911" lon="10.785466946763751" id="-24893">
		<tag k="name" v="Kvikstadmarka" />
		<tag k="place" v="locality" />
		<tag k="ssr:stedsnr" v="630330" />
	</node>
	<node lat="60.5271805528406" lon="10.97615833254543" id="-24927">
		<tag k="name" v="Furumyra" />
=======
	<node id="-383277" lat="60.5698194467" lon="11.0620666729">
		<tag k="name" v="Eslemyra" />
		<tag k="natural" v="wetland" />
		<tag k="ssr:stedsnr" v="888243" />
	</node>
	<node id="-383148" lat="60.5843527755" lon="11.0780916587">
		<tag k="name" v="Niputta" />
>>>>>>> e1d4bc35ff8a6074a6f2e91616a996b547c36f15
		<tag k="natural" v="wetland" />
		<tag k="ssr:stedsnr" v="664130" />
	</node>
<<<<<<< HEAD
	<node lat="60.5327027750203" lon="10.779447230479583" id="-24937">
		<tag k="name" v="Vesternmyra" />
		<tag k="natural" v="wetland" />
		<tag k="ssr:stedsnr" v="735659" />
	</node>
	<node lat="60.502716662266934" lon="10.760633340771747" id="-24956">
		<tag k="name" v="Rundmyra" />
=======
	<node id="-383145" lat="60.5340249957" lon="10.920650003">
		<tag k="name" v="Gråbeinmyra" />
>>>>>>> e1d4bc35ff8a6074a6f2e91616a996b547c36f15
		<tag k="natural" v="wetland" />
		<tag k="ssr:stedsnr" v="754069" />
	</node>
<<<<<<< HEAD
	<node lat="60.592274996827214" lon="11.08457221721669" id="-24979">
		<tag k="name" v="Strytmyra" />
=======
	<node id="-382632" lat="60.5918444488" lon="11.0953194375">
		<tag k="name" v="Hestmyra" />
>>>>>>> e1d4bc35ff8a6074a6f2e91616a996b547c36f15
		<tag k="natural" v="wetland" />
		<tag k="ssr:stedsnr" v="767966" />
	</node>
<<<<<<< HEAD
	<node lat="60.49607777510428" lon="10.777127786669261" id="-25024">
		<tag k="name" v="Vøllumsmyra" />
		<tag k="natural" v="wetland" />
		<tag k="ssr:stedsnr" v="814269" />
	</node>
	<node lat="60.511775000624404" lon="10.748394451337694" id="-25030">
		<tag k="name" v="Demmingsholen" />
=======
	<node id="-382775" lat="60.6037694458" lon="11.0220138892">
		<tag k="name" v="Kalvedalen" />
		<tag k="natural" v="wetland" />
		<tag k="ssr:stedsnr" v="160515" />
	</node>
	<node id="-383525" lat="60.5217192934" lon="10.8363749053">
		<tag k="historic" v="shieling" />
		<tag k="name" v="Bergsjøbrenna" />
		<tag k="place" v="locality" />
		<tag k="ssr:stedsnr" v="25828" />
	</node>
	<node id="-382630" lat="60.5967416701" lon="11.079105556">
		<tag k="name" v="Østre Annersgardsmyra" />
		<tag k="natural" v="wetland" />
		<tag k="ssr:stedsnr" v="221935" />
	</node>
	<node id="-384163" lat="60.520080555" lon="10.9709333394">
		<tag k="name" v="Hornmyra" />
>>>>>>> e1d4bc35ff8a6074a6f2e91616a996b547c36f15
		<tag k="natural" v="wetland" />
		<tag k="ssr:stedsnr" v="815019" />
	</node>
<<<<<<< HEAD
	<node lat="60.52863888779019" lon="10.707847213178784" id="-25069">
		<tag k="name" v="Sauengmyrene" />
		<tag k="natural" v="wetland" />
		<tag k="ssr:stedsnr" v="857086" />
	</node>
	<node lat="60.58361801751745" lon="10.812851760436262" id="-25086">
		<tag k="name" v="Korsmyra" />
=======
	<node id="-382647" lat="60.5968941631" lon="10.8255982839">
		<tag k="name" v="Skjærsjømarka" />
		<tag k="place" v="locality" />
		<tag k="ssr:stedsnr" v="26503" />
	</node>
	<node id="-382624" lat="60.6006500031" lon="11.038769444">
		<tag k="name" v="Dalmyrene" />
>>>>>>> e1d4bc35ff8a6074a6f2e91616a996b547c36f15
		<tag k="natural" v="wetland" />
		<tag k="ssr:stedsnr" v="873315" />
	</node>
<<<<<<< HEAD
	<node lat="60.5942943255757" lon="10.779244517126688" id="-25101">
		<tag k="name" v="Furuholen" />
		<tag k="place" v="locality" />
		<tag k="ssr:stedsnr" v="875477" />
	</node>
	<node lat="60.569819446747104" lon="11.062066672865729" id="-25119">
		<tag k="name" v="Eslemyra" />
		<tag k="natural" v="wetland" />
		<tag k="ssr:stedsnr" v="888243" />
	</node>
	<node lat="60.59675277954988" lon="11.10989999455614" id="-25142">
		<tag k="name" v="Tallholmen" />
		<tag k="place" v="locality" />
		<tag k="ssr:stedsnr" v="949951" />
=======
	<node id="-382826" lat="60.4969472254" lon="10.8449388936">
		<tag k="name" v="Gråmærra" />
		<tag k="natural" v="stone" />
		<tag k="ssr:stedsnr" v="449994" />
	</node>
	<node id="-382620" lat="60.5591916672" lon="11.0917083243">
		<tag k="name" v="Stordalsmyra" />
		<tag k="natural" v="wetland" />
		<tag k="ssr:stedsnr" v="221059" />
	</node>
	<node id="-383001" lat="60.5972749976" lon="10.6773027798">
		<tag k="name" v="Indien" />
		<tag k="place" v="locality" />
		<tag k="ssr:stedsnr" v="511576" />
	</node>
	<node id="-384280" lat="60.4960777751" lon="10.7771277867">
		<tag k="name" v="Vøllumsmyra" />
		<tag k="natural" v="wetland" />
		<tag k="ssr:stedsnr" v="814269" />
	</node>
	<node id="-382744" lat="60.5563551623" lon="10.8322435346">
		<tag k="name" v="Rundbrenna" />
		<tag k="place" v="locality" />
		<tag k="ssr:stedsnr" v="267300" />
	</node>
	<node id="-383374" lat="60.5117750006" lon="10.7483944513">
		<tag k="name" v="Demmingsholen" />
		<tag k="natural" v="wetland" />
		<tag k="ssr:stedsnr" v="815019" />
	</node>
	<node id="-382757" lat="60.679469444" lon="10.7507972186">
		<tag k="landuse" v="meadow" />
		<tag k="name" v="Bratland" />
		<tag k="ssr:stedsnr" v="269038" />
	</node>
	<node id="-384009" lat="60.5267972187" lon="10.9030916659">
		<tag k="name" v="Slåttsvedalen" />
		<tag k="natural" v="wetland" />
		<tag k="ssr:stedsnr" v="526856" />
	</node>
	<node id="-383778" lat="60.4993888855" lon="10.8714777834">
		<tag k="name" v="Mageretmyra" />
		<tag k="natural" v="wetland" />
		<tag k="ssr:stedsnr" v="206864" />
	</node>
	<node id="-384131" lat="60.5607458868" lon="10.7854669468">
		<tag k="name" v="Kvikstadmarka" />
		<tag k="place" v="locality" />
		<tag k="ssr:stedsnr" v="630330" />
	</node>
	<node id="-383874" lat="60.5876472235" lon="11.0812416651">
		<tag k="name" v="Maritmyra" />
		<tag k="natural" v="wetland" />
		<tag k="ssr:stedsnr" v="342940" />
	</node>
	<node id="-384257" lat="60.5281641528" lon="10.7641463382">
		<tag k="alt_name" v="Narumsetermyra" />
		<tag k="name" v="Narumsætermyra" />
		<tag k="natural" v="wetland" />
		<tag k="ssr:stedsnr" v="796666" />
>>>>>>> e1d4bc35ff8a6074a6f2e91616a996b547c36f15
	</node>
</osm>
