<?xml version="1.0" encoding="UTF-8"?>
<<<<<<< HEAD
<osm version="0.6" generator="osmapis">
	<node lat="60.57711514515935" lon="11.015777635415416" id="-23400">
		<tag k="fixme" v="consider boundary=protected_area and relevant protect_class if not nature reserve" />
		<tag k="leisure" v="nature_reserve" />
		<tag k="name" v="Svartdalstjerna naturreservat" />
		<tag k="ssr:stedsnr" v="59491" />
	</node>
	<node lat="60.498644440791786" lon="10.748291658873946" id="-23907">
=======
<osm generator="osmapis" version="0.6">
	<node id="-384413" lat="60.5334529107" lon="10.8408535978">
		<tag k="fixme" v="consider boundary=protected_area and relevant protect_class if not nature reserve" />
		<tag k="leisure" v="nature_reserve" />
		<tag k="name" v="Kalvberget naturreservat" />
		<tag k="ssr:stedsnr" v="981244" />
	</node>
	<node id="-384444" lat="60.617430672" lon="11.0050298519">
		<tag k="fixme" v="consider boundary=protected_area and relevant protect_class if not nature reserve" />
		<tag k="leisure" v="nature_reserve" />
		<tag k="name" v="Sulustaddalen naturreservat" />
		<tag k="ssr:stedsnr" v="1077361" />
	</node>
	<node id="-383322" lat="60.7062083301" lon="10.8752250051">
		<tag k="fixme" v="consider boundary=protected_area and relevant protect_class if not nature reserve" />
		<tag k="leisure" v="nature_reserve" />
		<tag k="name" v="Kile naturreservat" />
		<tag k="ssr:stedsnr" v="909477" />
	</node>
	<node id="-383094" lat="60.4986444408" lon="10.7482916589">
		<tag k="fixme" v="consider boundary=protected_area and relevant protect_class if not nature reserve" />
		<tag k="leisure" v="nature_reserve" />
		<tag k="name" v="Vindflomyrene naturreservat" />
		<tag k="ssr:stedsnr" v="694033" />
	</node>
	<node id="-383733" lat="60.6144138863" lon="11.1109444462">
		<tag k="fixme" v="consider boundary=protected_area and relevant protect_class if not nature reserve" />
		<tag k="leisure" v="nature_reserve" />
		<tag k="name" v="Falken naturreservat" />
		<tag k="ssr:stedsnr" v="181483" />
	</node>
	<node id="-383570" lat="60.5756833314" lon="11.0084666722">
>>>>>>> e1d4bc35ff8a6074a6f2e91616a996b547c36f15
		<tag k="fixme" v="consider boundary=protected_area and relevant protect_class if not nature reserve" />
		<tag k="leisure" v="nature_reserve" />
		<tag k="name" v="Vindflomyrene naturreservat" />
		<tag k="ssr:stedsnr" v="694033" />
	</node>
<<<<<<< HEAD
	<node lat="60.70620833009606" lon="10.875225005135922" id="-24119">
		<tag k="fixme" v="consider boundary=protected_area and relevant protect_class if not nature reserve" />
		<tag k="leisure" v="nature_reserve" />
		<tag k="name" v="Kile naturreservat" />
		<tag k="ssr:stedsnr" v="909477" />
	</node>
	<node lat="60.69367500098931" lon="10.896624992873328" id="-24515">
=======
	<node id="-382780" lat="60.693675001" lon="10.8966249929">
>>>>>>> e1d4bc35ff8a6074a6f2e91616a996b547c36f15
		<tag k="military" v="range" />
		<tag k="name" v="Starum" />
		<tag k="ssr:stedsnr" v="162417" />
	</node>
<<<<<<< HEAD
	<node lat="60.6144138862845" lon="11.110944446195132" id="-24524">
		<tag k="fixme" v="consider boundary=protected_area and relevant protect_class if not nature reserve" />
		<tag k="leisure" v="nature_reserve" />
		<tag k="name" v="Falken naturreservat" />
		<tag k="ssr:stedsnr" v="181483" />
	</node>
	<node lat="60.53345291065447" lon="10.840853597752485" id="-25163">
		<tag k="fixme" v="consider boundary=protected_area and relevant protect_class if not nature reserve" />
		<tag k="leisure" v="nature_reserve" />
		<tag k="name" v="Kalvberget naturreservat" />
		<tag k="ssr:stedsnr" v="981244" />
	</node>
=======
>>>>>>> e1d4bc35ff8a6074a6f2e91616a996b547c36f15
</osm>
