<?xml version="1.0" encoding="UTF-8"?>
<<<<<<< HEAD
<osm version="0.6" generator="osmapis">
	<node lat="60.539605552827986" lon="11.09631111337358" id="-23367">
		<tag k="alt_name" v="Hekatjern" />
		<tag k="name" v="Hækatjernet" />
		<tag k="natural" v="water" />
		<tag k="ssr:stedsnr" v="7456" />
	</node>
	<node lat="60.590442594038805" lon="11.043217376989164" id="-23368">
		<tag k="alt_name" v="Hofsrudtjern" />
		<tag k="name" v="Hofsrudtjernet" />
		<tag k="natural" v="water" />
		<tag k="ssr:stedsnr" v="7621" />
	</node>
	<node lat="60.59614999687694" lon="11.0587777779389" id="-23388">
		<tag k="alt_name" v="Fjælutjern" />
		<tag k="name" v="Fjælutjernet" />
		<tag k="natural" v="water" />
		<tag k="ssr:stedsnr" v="236606" />
	</node>
	<node lat="60.59217499867633" lon="11.033888886881059" id="-23389">
		<tag k="name" v="Brennbergputten" />
		<tag k="natural" v="water" />
		<tag k="ssr:stedsnr" v="39521" />
	</node>
	<node lat="60.551164450694124" lon="11.00561712772016" id="-23403">
		<tag k="name" v="Myrsjøen" />
		<tag k="natural" v="water" />
		<tag k="ssr:stedsnr" v="67692" />
	</node>
	<node lat="60.65208333747631" lon="10.830952769321872" id="-23422">
		<tag k="alt_name" v="Riiseelva;Riiselva" />
		<tag k="name" v="Riselva" />
		<tag k="ssr:stedsnr" v="99706" />
		<tag k="waterway" v="river" />
	</node>
	<node lat="60.54434722395282" lon="11.081741658491758" id="-23424">
		<tag k="name" v="Halmbråtetjern" />
		<tag k="natural" v="water" />
		<tag k="ssr:stedsnr" v="100068" />
	</node>
	<node lat="60.57618456409813" lon="11.018391806984695" id="-23425">
		<tag k="name" v="Svartdalstjern" />
		<tag k="natural" v="water" />
		<tag k="ssr:stedsnr" v="100223" />
	</node>
	<node lat="60.63130833093075" lon="11.088536110152068" id="-23429">
		<tag k="name" v="Fjellhaugelva" />
		<tag k="ssr:stedsnr" v="100969" />
		<tag k="waterway" v="river" />
	</node>
	<node lat="60.57230000371053" lon="10.90315000763187" id="-23437">
		<tag k="alt_name" v="Tjuvåstjern" />
		<tag k="name" v="Tjuvåstjernet" />
		<tag k="natural" v="water" />
		<tag k="ssr:stedsnr" v="249622" />
	</node>
	<node lat="60.5684888880227" lon="10.748836108860697" id="-23439">
		<tag k="name" v="Homla" />
		<tag k="old_name" v="Humla" />
		<tag k="ssr:stedsnr" v="249628" />
		<tag k="waterway" v="stream" />
	</node>
	<node lat="60.56012125302426" lon="10.996381790113462" id="-23443">
		<tag k="alt_name" v="Øyungen, vle;Vesle Øyongen" />
		<tag k="name" v="Vesle Øyungen" />
=======
<osm generator="osmapis" version="0.6">
	<node id="-383999" lat="60.6604055542" lon="10.7804444386">
		<tag k="name" v="Lenaelva" />
		<tag k="ssr:stedsnr" v="524311" />
		<tag k="waterway" v="river" />
	</node>
	<node id="-383998" lat="60.6255027766" lon="10.9904527766">
		<tag k="name" v="Hørlandselva" />
		<tag k="ssr:stedsnr" v="524489" />
		<tag k="waterway" v="river" />
	</node>
	<node id="-383997" lat="60.6165194458" lon="11.0233972244">
		<tag k="name" v="Tverrelva" />
		<tag k="ssr:stedsnr" v="524465" />
		<tag k="waterway" v="river" />
	</node>
	<node id="-383996" lat="60.5507666626" lon="11.0685305591">
		<tag k="name" v="Langtjern" />
>>>>>>> e1d4bc35ff8a6074a6f2e91616a996b547c36f15
		<tag k="natural" v="water" />
		<tag k="ssr:stedsnr" v="249663" />
	</node>
<<<<<<< HEAD
	<node lat="60.49457499836465" lon="10.875750000008244" id="-23449">
		<tag k="alt_name" v="Gaupåsputten" />
		<tag k="name" v="Gaupåstjernet" />
=======
	<node id="-382971" lat="60.5923694445" lon="10.9995527752">
		<tag k="name" v="Toputta" />
>>>>>>> e1d4bc35ff8a6074a6f2e91616a996b547c36f15
		<tag k="natural" v="water" />
		<tag k="ssr:stedsnr" v="249751" />
	</node>
	<node lat="60.70231111428423" lon="10.913505561630338" id="-23470">
		<tag k="name" v="Tangnes" />
		<tag k="natural" v="cape" />
		<tag k="ssr:stedsnr" v="250944" />
	</node>
	<node lat="60.579761111262734" lon="11.052805553308819" id="-23478">
		<tag k="alt_name" v="Brynstjern" />
		<tag k="name" v="Brønntjernet" />
		<tag k="natural" v="water" />
		<tag k="ssr:stedsnr" v="128605" />
	</node>
<<<<<<< HEAD
	<node lat="60.562400544417244" lon="10.964980132535919" id="-23479">
		<tag k="alt_name" v="Rønningen" />
		<tag k="name" v="Rønningstjernet" />
=======
	<node id="-383743" lat="60.5475411782" lon="10.9792596637">
		<tag k="name" v="Skjellungen" />
>>>>>>> e1d4bc35ff8a6074a6f2e91616a996b547c36f15
		<tag k="natural" v="water" />
		<tag k="ssr:stedsnr" v="189648" />
	</node>
<<<<<<< HEAD
	<node lat="60.55926556373485" lon="11.007025392955123" id="-23480">
		<tag k="alt_name" v="Øyungen, store;Store Øyongen" />
		<tag k="name" v="Store Øyungen" />
=======
	<node id="-382968" lat="60.5619527818" lon="10.8362361043">
		<tag k="name" v="Kolbuseterputten" />
>>>>>>> e1d4bc35ff8a6074a6f2e91616a996b547c36f15
		<tag k="natural" v="water" />
		<tag k="old_name" v="Store Øiungen" />
		<tag k="ssr:stedsnr" v="128653" />
		<tag k="water" v="lake" />
	</node>
<<<<<<< HEAD
	<node lat="60.71301111408954" lon="10.88398889640787" id="-23503">
		<tag k="alt_name" v="Kihlestrand" />
		<tag k="name" v="Kilestranda" />
		<tag k="natural" v="beach" />
		<tag k="ssr:stedsnr" v="146476" />
	</node>
	<node lat="60.58262499610836" lon="11.042155556600262" id="-23518">
		<tag k="name" v="Vesle Fløyta" />
=======
	<node id="-383991" lat="60.5605555581" lon="11.0997333279">
		<tag k="name" v="Elgholpytten" />
>>>>>>> e1d4bc35ff8a6074a6f2e91616a996b547c36f15
		<tag k="natural" v="water" />
		<tag k="ssr:stedsnr" v="189607" />
	</node>
<<<<<<< HEAD
	<node lat="60.518174999861756" lon="10.83965832427262" id="-23520">
		<tag k="name" v="Bergsjøen" />
		<tag k="natural" v="water" />
		<tag k="ssr:stedsnr" v="189672" />
		<tag k="water" v="lake" />
	</node>
	<node lat="60.494033330375814" lon="10.7906777825179" id="-23539">
		<tag k="name" v="Vøllumsbekken" />
		<tag k="ssr:stedsnr" v="268214" />
		<tag k="waterway" v="stream" />
	</node>
	<node lat="60.52599166764658" lon="10.845761117102116" id="-23542">
		<tag k="name" v="Vetl-Bergsjøen" />
=======
	<node id="-382974" lat="60.563736108" lon="11.0470083314">
		<tag k="name" v="Jønnbekken" />
		<tag k="ssr:stedsnr" v="403521" />
		<tag k="waterway" v="stream" />
	</node>
	<node id="-383473" lat="60.545919441" lon="10.8515749962">
		<tag k="name" v="Jensseterelva" />
		<tag k="ssr:stedsnr" v="936537" />
		<tag k="waterway" v="river" />
	</node>
	<node id="-383471" lat="60.6094750013" lon="11.0127916752">
		<tag k="name" v="Leirsjøen" />
>>>>>>> e1d4bc35ff8a6074a6f2e91616a996b547c36f15
		<tag k="natural" v="water" />
		<tag k="ssr:stedsnr" v="268802" />
	</node>
	<node lat="60.65261389077823" lon="10.78089166039634" id="-23559">
		<tag k="name" v="Garveribekken" />
		<tag k="ssr:stedsnr" v="221621" />
		<tag k="waterway" v="stream" />
	</node>
<<<<<<< HEAD
	<node lat="60.48477221962807" lon="10.875958325640566" id="-23568">
		<tag k="name" v="Volltjernsbekken" />
		<tag k="ssr:stedsnr" v="449847" />
		<tag k="waterway" v="stream" />
	</node>
	<node lat="60.49425000421009" lon="10.841183327787741" id="-23570">
		<tag k="name" v="Mosetervika" />
		<tag k="natural" v="bay" />
		<tag k="ssr:stedsnr" v="449986" />
	</node>
	<node lat="60.642119441877476" lon="10.870786103046832" id="-23575">
		<tag k="name" v="Ovrenbekken" />
		<tag k="ssr:stedsnr" v="450360" />
		<tag k="waterway" v="stream" />
	</node>
	<node lat="60.58763888556443" lon="10.753544442720141" id="-23579">
		<tag k="name" v="Homla" />
		<tag k="ssr:stedsnr" v="450661" />
		<tag k="waterway" v="stream" />
	</node>
	<node lat="60.50603333035708" lon="10.904469446313119" id="-23597">
		<tag k="name" v="Steinodden" />
		<tag k="natural" v="cape" />
		<tag k="ssr:stedsnr" v="267715" />
	</node>
	<node lat="60.49513333423034" lon="10.88766944949411" id="-23599">
		<tag k="name" v="Høverdalsputten" />
=======
	<node id="-383741" lat="60.5826249961" lon="11.0421555566">
		<tag k="name" v="Vesle Fløyta" />
		<tag k="natural" v="water" />
		<tag k="ssr:stedsnr" v="189607" />
	</node>
	<node id="-383979" lat="60.5533472212" lon="10.981858325">
		<tag k="alt_name" v="Store Myrtjern" />
		<tag k="name" v="Myrtjernet" />
		<tag k="natural" v="water" />
		<tag k="ssr:stedsnr" v="432665" />
	</node>
	<node id="-383466" lat="60.549886114" lon="11.066644446">
		<tag k="name" v="Langtjernet" />
>>>>>>> e1d4bc35ff8a6074a6f2e91616a996b547c36f15
		<tag k="natural" v="water" />
		<tag k="ssr:stedsnr" v="267882" />
		<tag k="water" v="pond" />
	</node>
<<<<<<< HEAD
	<node lat="60.56849444602066" lon="10.881752769853344" id="-23612">
		<tag k="name" v="Hutjern" />
=======
	<node id="-383976" lat="60.4967194451" lon="10.8503055472">
		<tag k="name" v="Grønsjøen" />
>>>>>>> e1d4bc35ff8a6074a6f2e91616a996b547c36f15
		<tag k="natural" v="water" />
		<tag k="ssr:stedsnr" v="270678" />
	</node>
<<<<<<< HEAD
	<node lat="60.58734444006179" lon="11.08964166220425" id="-23621">
		<tag k="name" v="Stormyrputten" />
=======
	<node id="-383740" lat="60.5711305596" lon="10.8026388924">
		<tag k="alt_name" v="Vestre Kulltjern" />
		<tag k="name" v="Storkoltjernet" />
		<tag k="natural" v="water" />
		<tag k="ssr:stedsnr" v="189593" />
	</node>
	<node id="-383462" lat="60.5989515814" lon="10.9943235548">
		<tag k="alt_name" v="Fugletjern" />
		<tag k="name" v="Fugletjernet" />
>>>>>>> e1d4bc35ff8a6074a6f2e91616a996b547c36f15
		<tag k="natural" v="water" />
		<tag k="ssr:stedsnr" v="282969" />
	</node>
<<<<<<< HEAD
	<node lat="60.56586666711118" lon="11.024480557248861" id="-23631">
		<tag k="name" v="Bråtåbrenntjern" />
=======
	<node id="-383569" lat="60.5281944479" lon="11.0500138886">
		<tag k="name" v="Stubbelva" />
		<tag k="ssr:stedsnr" v="58392" />
		<tag k="waterway" v="river" />
	</node>
	<node id="-383460" lat="60.5921750017" lon="11.0718361115">
		<tag k="name" v="Damputten" />
>>>>>>> e1d4bc35ff8a6074a6f2e91616a996b547c36f15
		<tag k="natural" v="water" />
		<tag k="ssr:stedsnr" v="463238" />
	</node>
<<<<<<< HEAD
	<node lat="60.503733329922845" lon="10.976605555498956" id="-23632">
		<tag k="name" v="Krokelva" />
		<tag k="ssr:stedsnr" v="463328" />
		<tag k="waterway" v="river" />
	</node>
	<node lat="60.580606142433815" lon="10.82232316953575" id="-23641">
		<tag k="alt_name" v="Vålsjøen, store;Store Vårsjøen" />
		<tag k="name" v="Store Vålsjøen" />
		<tag k="natural" v="water" />
		<tag k="ssr:stedsnr" v="310633" />
		<tag k="water" v="lake" />
	</node>
	<node lat="60.50831944857103" lon="10.752322221989632" id="-23647">
		<tag k="name" v="Korsevjua" />
=======
	<node id="-383971" lat="60.4883499985" lon="10.8096749986">
		<tag k="alt_name" v="Monssetervika" />
		<tag k="name" v="Monsætervika" />
		<tag k="natural" v="bay" />
		<tag k="ssr:stedsnr" v="431762" />
	</node>
	<node id="-382715" lat="60.7023111143" lon="10.9135055616">
		<tag k="name" v="Tangnes" />
		<tag k="natural" v="cape" />
		<tag k="ssr:stedsnr" v="250944" />
	</node>
	<node id="-383568" lat="60.5314722224" lon="10.9883749987">
		<tag k="name" v="Arneputten" />
		<tag k="natural" v="water" />
		<tag k="ssr:stedsnr" v="58163" />
	</node>
	<node id="-383966" lat="60.5753111075" lon="11.042277785">
		<tag k="alt_name" v="Fløiteelva" />
		<tag k="name" v="Fløyteelva" />
		<tag k="ssr:stedsnr" v="431645" />
		<tag k="waterway" v="stream" />
	</node>
	<node id="-383965" lat="60.4806388919" lon="11.1954055554">
		<tag k="name" v="Mjøsa" />
>>>>>>> e1d4bc35ff8a6074a6f2e91616a996b547c36f15
		<tag k="natural" v="water" />
		<tag k="ssr:stedsnr" v="329068" />
		<tag k="water" v="lake" />
	</node>
<<<<<<< HEAD
	<node lat="60.578422849355654" lon="10.845475877211998" id="-23658">
		<tag k="name" v="Gåsloa" />
=======
	<node id="-383567" lat="60.5283916646" lon="10.9840666643">
		<tag k="name" v="Astria" />
		<tag k="natural" v="water" />
		<tag k="ssr:stedsnr" v="58160" />
	</node>
	<node id="-382932" lat="60.6017583325" lon="11.0237527718">
		<tag k="alt_name" v="Ormtjernet, austre;Fremre Ormtjern" />
		<tag k="name" v="Austre Ormtjernet" />
>>>>>>> e1d4bc35ff8a6074a6f2e91616a996b547c36f15
		<tag k="natural" v="water" />
		<tag k="ssr:stedsnr" v="330754" />
	</node>
<<<<<<< HEAD
	<node lat="60.51680277581559" lon="11.03564721777697" id="-23666">
		<tag k="name" v="Hersjøbotn" />
		<tag k="natural" v="bay" />
		<tag k="ssr:stedsnr" v="342310" />
	</node>
	<node lat="60.575122223018" lon="11.083138883433708" id="-23674">
		<tag k="name" v="Grismågåtjern" />
		<tag k="natural" v="water" />
		<tag k="ssr:stedsnr" v="344193" />
	</node>
	<node lat="60.58321389143277" lon="11.030361108030005" id="-23680">
		<tag k="alt_name" v="Jyridalselva" />
		<tag k="name" v="Gyridalselva" />
		<tag k="ssr:stedsnr" v="370665" />
		<tag k="waterway" v="stream" />
	</node>
	<node lat="60.5487277755596" lon="11.09890833907982" id="-23682">
		<tag k="name" v="Storvatnet" />
=======
	<node id="-383442" lat="60.6188444478" lon="11.0294083309">
		<tag k="name" v="Hammerstadelva" />
		<tag k="ssr:stedsnr" v="949469" />
		<tag k="waterway" v="river" />
	</node>
	<node id="-383441" lat="60.5648388851" lon="11.0482472282">
		<tag k="name" v="Jønnbekken" />
		<tag k="ssr:stedsnr" v="949231" />
		<tag k="waterway" v="stream" />
	</node>
	<node id="-383440" lat="60.5686722247" lon="11.0372111178">
		<tag k="name" v="Svartdalselva" />
		<tag k="ssr:stedsnr" v="949229" />
		<tag k="waterway" v="river" />
	</node>
	<node id="-383439" lat="60.5103222205" lon="10.9942194519">
		<tag k="name" v="Amunddalsputten" />
>>>>>>> e1d4bc35ff8a6074a6f2e91616a996b547c36f15
		<tag k="natural" v="water" />
		<tag k="ssr:stedsnr" v="371382" />
	</node>
<<<<<<< HEAD
	<node lat="60.599236925770164" lon="11.00580228862165" id="-23689">
		<tag k="name" v="Herva" />
		<tag k="natural" v="water" />
		<tag k="ssr:stedsnr" v="371868" />
		<tag k="water" v="lake" />
	</node>
	<node lat="60.5390694400956" lon="11.008202785996643" id="-23704">
		<tag k="name" v="Myrsjøelva" />
		<tag k="ssr:stedsnr" v="483406" />
		<tag k="waterway" v="river" />
	</node>
	<node lat="60.531002778160115" lon="11.042116672162162" id="-23705">
		<tag k="name" v="Åtangen" />
		<tag k="natural" v="cape" />
		<tag k="ssr:stedsnr" v="483408" />
	</node>
	<node lat="60.561952781750605" lon="10.83623610427028" id="-23710">
		<tag k="name" v="Kolbuseterputten" />
		<tag k="natural" v="water" />
		<tag k="ssr:stedsnr" v="390511" />
		<tag k="water" v="pond" />
	</node>
	<node lat="60.56809444407477" lon="11.102322228120874" id="-23712">
=======
	<node id="-382797" lat="60.6362805569" lon="10.9910444428">
		<tag k="name" v="Damtjernbekken" />
		<tag k="ssr:stedsnr" v="282736" />
		<tag k="waterway" v="stream" />
	</node>
	<node id="-383948" lat="60.6226194437" lon="11.0041833418">
		<tag k="name" v="Sullestadelva" />
		<tag k="ssr:stedsnr" v="403530" />
		<tag k="waterway" v="river" />
	</node>
	<node id="-383435" lat="60.6390361087" lon="10.9471416688">
		<tag k="name" v="Hølja" />
		<tag k="ssr:stedsnr" v="949050" />
		<tag k="waterway" v="river" />
	</node>
	<node id="-383945" lat="60.5680944441" lon="11.1023222281">
>>>>>>> e1d4bc35ff8a6074a6f2e91616a996b547c36f15
		<tag k="name" v="Mærrabekken" />
		<tag k="ssr:stedsnr" v="403086" />
		<tag k="waterway" v="stream" />
	</node>
<<<<<<< HEAD
	<node lat="60.62261944366567" lon="11.004183341775427" id="-23715">
		<tag k="name" v="Sullestadelva" />
		<tag k="ssr:stedsnr" v="403530" />
		<tag k="waterway" v="river" />
	</node>
	<node lat="60.57318333459101" lon="11.069872218923559" id="-23720">
		<tag k="name" v="Korptjern" />
=======
	<node id="-383942" lat="60.6462111132" lon="10.7438583372">
		<tag k="name" v="Bøvra" />
		<tag k="ssr:stedsnr" v="390725" />
		<tag k="waterway" v="river" />
	</node>
	<node id="-382916" lat="60.5620749978" lon="10.8679388859">
		<tag k="name" v="Svartputten" />
>>>>>>> e1d4bc35ff8a6074a6f2e91616a996b547c36f15
		<tag k="natural" v="water" />
		<tag k="ssr:stedsnr" v="405206" />
	</node>
<<<<<<< HEAD
	<node lat="60.480638891947294" lon="11.195405555401956" id="-23723">
		<tag k="name" v="Mjøsa" />
=======
	<node id="-383427" lat="60.5336011425" lon="11.03471041">
		<tag k="name" v="Hersjøen" />
>>>>>>> e1d4bc35ff8a6074a6f2e91616a996b547c36f15
		<tag k="natural" v="water" />
		<tag k="ssr:stedsnr" v="431452" />
		<tag k="water" v="lake" />
	</node>
<<<<<<< HEAD
	<node lat="60.575311107490286" lon="11.042277784984345" id="-23724">
		<tag k="alt_name" v="Fløiteelva" />
		<tag k="name" v="Fløyteelva" />
		<tag k="ssr:stedsnr" v="431645" />
		<tag k="waterway" v="stream" />
	</node>
	<node lat="60.53923889319379" lon="10.994625006194312" id="-23729">
		<tag k="alt_name" v="Lavtjern" />
		<tag k="name" v="Lavtjernet" />
=======
	<node id="-383425" lat="60.5254891136" lon="11.020582625">
		<tag k="name" v="Mørksjøen" />
>>>>>>> e1d4bc35ff8a6074a6f2e91616a996b547c36f15
		<tag k="natural" v="water" />
		<tag k="ssr:stedsnr" v="432636" />
	</node>
<<<<<<< HEAD
	<node lat="60.540661114459404" lon="11.080175002701353" id="-23740">
=======
	<node id="-382912" lat="60.5406611145" lon="11.0801750027">
>>>>>>> e1d4bc35ff8a6074a6f2e91616a996b547c36f15
		<tag k="alt_name" v="Holmbråtåtjern" />
		<tag k="name" v="Hanbråtatjernet" />
		<tag k="natural" v="water" />
		<tag k="ssr:stedsnr" v="492630" />
	</node>
<<<<<<< HEAD
	<node lat="60.562074997798746" lon="10.867938885908782" id="-23744">
		<tag k="name" v="Svartputten" />
		<tag k="natural" v="water" />
		<tag k="ssr:stedsnr" v="492648" />
	</node>
	<node lat="60.60175833253293" lon="11.023752771793825" id="-23752">
		<tag k="alt_name" v="Ormtjernet, austre;Fremre Ormtjern" />
		<tag k="name" v="Austre Ormtjernet" />
=======
	<node id="-382911" lat="60.5783570141" lon="11.0152470763">
		<tag k="alt_name" v="Svartdalstjern" />
		<tag k="name" v="Svartdalstjerna" />
		<tag k="natural" v="water" />
		<tag k="ssr:stedsnr" v="492618" />
		<tag k="water" v="lake" />
	</node>
	<node id="-382910" lat="60.5873881887" lon="10.8397911287">
		<tag k="name" v="Myrsjøen" />
>>>>>>> e1d4bc35ff8a6074a6f2e91616a996b547c36f15
		<tag k="natural" v="water" />
		<tag k="ssr:stedsnr" v="492874" />
	</node>
<<<<<<< HEAD
	<node lat="60.555574996632586" lon="10.860947222724736" id="-23774">
		<tag k="name" v="Furubekken" />
		<tag k="ssr:stedsnr" v="451563" />
		<tag k="waterway" v="stream" />
	</node>
	<node lat="60.4924000007459" lon="10.835074997972791" id="-23775">
		<tag k="name" v="Flisa" />
		<tag k="natural" v="water" />
		<tag k="ssr:stedsnr" v="673738" />
	</node>
	<node lat="60.490200002314786" lon="10.844313890499143" id="-23776">
		<tag k="alt_name" v="Svarttjern" />
		<tag k="name" v="Svarttjernet" />
=======
	<node id="-383929" lat="60.7151055572" lon="10.865663893">
		<tag k="name" v="Smørvika" />
		<tag k="natural" v="bay" />
		<tag k="ssr:stedsnr" v="389540" />
	</node>
	<node id="-382831" lat="60.6421194419" lon="10.870786103">
		<tag k="name" v="Ovrenbekken" />
		<tag k="ssr:stedsnr" v="450360" />
		<tag k="waterway" v="stream" />
	</node>
	<node id="-383926" lat="60.7484333358" lon="10.7307611062">
		<tag k="name" v="Amundrustadelva" />
		<tag k="ssr:stedsnr" v="389451" />
		<tag k="waterway" v="river" />
	</node>
	<node id="-383412" lat="60.5845666686" lon="10.8505250049">
		<tag k="name" v="Løjeputten" />
>>>>>>> e1d4bc35ff8a6074a6f2e91616a996b547c36f15
		<tag k="natural" v="water" />
		<tag k="ssr:stedsnr" v="673739" />
	</node>
<<<<<<< HEAD
	<node lat="60.616780558337645" lon="10.947844435532183" id="-23779">
		<tag k="name" v="Grønbekken" />
		<tag k="ssr:stedsnr" v="463219" />
		<tag k="waterway" v="stream" />
	</node>
	<node lat="60.583319447575" lon="10.996930555827884" id="-23780">
		<tag k="name" v="Mærraputten" />
		<tag k="natural" v="water" />
		<tag k="ssr:stedsnr" v="463272" />
	</node>
	<node lat="60.594780559109914" lon="10.959741664284527" id="-23781">
		<tag k="name" v="Veltfiskelausen" />
		<tag k="natural" v="water" />
		<tag k="ssr:stedsnr" v="463513" />
	</node>
	<node lat="60.558802780724584" lon="11.086063880888581" id="-23783">
		<tag k="name" v="Østre Torvfesttjern" />
=======
	<node id="-383408" lat="60.7210611104" lon="10.8526444433">
		<tag k="name" v="Lierstranda" />
		<tag k="natural" v="beach" />
		<tag k="ssr:stedsnr" v="937389" />
	</node>
	<node id="-383389" lat="60.4997138892" lon="10.8094666737">
		<tag k="name" v="Storrputten" />
		<tag k="natural" v="water" />
		<tag k="ssr:stedsnr" v="935183" />
		<tag k="water" v="pond" />
	</node>
	<node id="-383911" lat="60.5992369258" lon="11.0058022886">
		<tag k="name" v="Herva" />
>>>>>>> e1d4bc35ff8a6074a6f2e91616a996b547c36f15
		<tag k="natural" v="water" />
		<tag k="ssr:stedsnr" v="464054" />
	</node>
<<<<<<< HEAD
	<node lat="60.53283263476718" lon="11.011007208032597" id="-23786">
		<tag k="alt_name" v="Hommersjøen" />
		<tag k="name" v="Hommelsjøen" />
		<tag k="natural" v="water" />
		<tag k="ssr:stedsnr" v="674680" />
	</node>
	<node lat="60.573977780231665" lon="10.81539444086174" id="-23787">
		<tag k="alt_name" v="Vålsjøen, vesle;Lille Vårsjøen" />
		<tag k="name" v="Vesle Vålsjøen" />
=======
	<node id="-383907" lat="60.5470003528" lon="10.9952106649">
		<tag k="name" v="Sandungen" />
>>>>>>> e1d4bc35ff8a6074a6f2e91616a996b547c36f15
		<tag k="natural" v="water" />
		<tag k="ssr:stedsnr" v="674633" />
	</node>
<<<<<<< HEAD
	<node lat="60.58978333467602" lon="11.029319447530794" id="-23803">
		<tag k="alt_name" v="Søndre Storgåstjern" />
		<tag k="name" v="Storgåstjernet" />
=======
	<node id="-383906" lat="60.5487277756" lon="11.0989083391">
		<tag k="name" v="Storvatnet" />
>>>>>>> e1d4bc35ff8a6074a6f2e91616a996b547c36f15
		<tag k="natural" v="water" />
		<tag k="ssr:stedsnr" v="675664" />
	</node>
<<<<<<< HEAD
	<node lat="60.58674645864364" lon="10.978915948813084" id="-23805">
		<tag k="name" v="Fiskelausen" />
		<tag k="natural" v="water" />
		<tag k="ssr:stedsnr" v="675874" />
		<tag k="water" v="lake" />
	</node>
	<node lat="60.49510555452485" lon="10.758313883893786" id="-23809">
		<tag k="alt_name" v="Vindflotjern, søndre" />
		<tag k="name" v="Søndre Vindflotjernet" />
=======
	<node id="-383387" lat="60.497625166" lon="10.8593090573">
		<tag k="name" v="Bergsetervika" />
		<tag k="natural" v="bay" />
		<tag k="ssr:stedsnr" v="934850" />
	</node>
	<node id="-383390" lat="60.4931166633" lon="10.8072138943">
		<tag k="name" v="Brattmyrbekken" />
		<tag k="ssr:stedsnr" v="935193" />
		<tag k="waterway" v="stream" />
	</node>
	<node id="-383901" lat="60.4760611151" lon="10.902299997">
		<tag k="name" v="Banneputten" />
>>>>>>> e1d4bc35ff8a6074a6f2e91616a996b547c36f15
		<tag k="natural" v="water" />
		<tag k="ssr:stedsnr" v="479766" />
	</node>
<<<<<<< HEAD
	<node lat="60.587388188743006" lon="10.839791128690793" id="-23813">
		<tag k="name" v="Myrsjøen" />
		<tag k="natural" v="water" />
		<tag k="ssr:stedsnr" v="492612" />
		<tag k="water" v="lake" />
	</node>
	<node lat="60.57855316905845" lon="11.014740031850751" id="-23814">
		<tag k="alt_name" v="Svartdalstjern" />
		<tag k="name" v="Svartdalstjerna" />
=======
	<node id="-383899" lat="60.5832138914" lon="11.030361108">
		<tag k="alt_name" v="Jyridalselva" />
		<tag k="name" v="Gyridalselva" />
		<tag k="ssr:stedsnr" v="370665" />
		<tag k="waterway" v="stream" />
	</node>
	<node id="-383386" lat="60.4885018099" lon="10.9039791143">
		<tag k="name" v="Bjønnåsputten" />
>>>>>>> e1d4bc35ff8a6074a6f2e91616a996b547c36f15
		<tag k="natural" v="water" />
		<tag k="ssr:stedsnr" v="492618" />
		<tag k="water" v="lake" />
	</node>
<<<<<<< HEAD
	<node lat="60.50535555578128" lon="10.75896111311496" id="-23827">
		<tag k="name" v="Steinbekken" />
		<tag k="ssr:stedsnr" v="511058" />
		<tag k="waterway" v="stream" />
	</node>
	<node lat="60.660405554181" lon="10.780444438574868" id="-23846">
		<tag k="name" v="Lenaelva" />
		<tag k="ssr:stedsnr" v="524311" />
		<tag k="waterway" v="river" />
	</node>
	<node lat="60.616519445752125" lon="11.023397224436444" id="-23847">
		<tag k="name" v="Tverrelva" />
		<tag k="ssr:stedsnr" v="524465" />
		<tag k="waterway" v="river" />
	</node>
	<node lat="60.527894448458525" lon="10.991599998142732" id="-23855">
		<tag k="name" v="Blylotta" />
		<tag k="natural" v="water" />
		<tag k="ssr:stedsnr" v="543184" />
	</node>
	<node lat="60.509524996263934" lon="10.828525004713146" id="-23864">
		<tag k="name" v="Halsteintjernet" />
=======
	<node id="-383896" lat="60.5377138932" lon="11.0583277705">
		<tag k="name" v="Stulsrudtjernsbekken" />
		<tag k="ssr:stedsnr" v="362387" />
		<tag k="waterway" v="stream" />
	</node>
	<node id="-383383" lat="60.593683335" lon="10.85154723">
		<tag k="name" v="Tretjerna" />
		<tag k="natural" v="water" />
		<tag k="ssr:stedsnr" v="815714" />
		<tag k="water" v="lake" />
	</node>
	<node id="-382870" lat="60.5343055597" lon="11.0451305528">
		<tag k="name" v="Gråmerra" />
		<tag k="place" v="islet" />
		<tag k="ssr:stedsnr" v="301354" />
	</node>
	<node id="-383893" lat="60.5005249995" lon="10.7530027811">
		<tag k="alt_name" v="Vindflotjernet;Vindflotjern, nordre" />
		<tag k="name" v="Store Vindflotjernet" />
		<tag k="natural" v="water" />
		<tag k="ssr:stedsnr" v="357697" />
	</node>
	<node id="-383377" lat="60.6314249959" lon="10.8016194396">
		<tag k="name" v="Sandbergtjernet" />
>>>>>>> e1d4bc35ff8a6074a6f2e91616a996b547c36f15
		<tag k="natural" v="water" />
		<tag k="ssr:stedsnr" v="553728" />
	</node>
<<<<<<< HEAD
	<node lat="60.55802499625225" lon="10.738405561266159" id="-23874">
		<tag k="name" v="Risskogbekken" />
		<tag k="ssr:stedsnr" v="692314" />
		<tag k="waterway" v="stream" />
	</node>
	<node lat="60.511366667727465" lon="10.829849998740704" id="-23875">
		<tag k="name" v="Nordre Bladputt" />
=======
	<node id="-382864" lat="60.5037333299" lon="10.9766055555">
		<tag k="name" v="Krokelva" />
		<tag k="ssr:stedsnr" v="463328" />
		<tag k="waterway" v="river" />
	</node>
	<node id="-382863" lat="60.5658666671" lon="11.0244805572">
		<tag k="name" v="Bråtåbrenntjern" />
>>>>>>> e1d4bc35ff8a6074a6f2e91616a996b547c36f15
		<tag k="natural" v="water" />
		<tag k="ssr:stedsnr" v="692067" />
		<tag k="water" v="pond" />
	</node>
<<<<<<< HEAD
	<node lat="60.49828055506938" lon="10.828677781722446" id="-23882">
		<tag k="name" v="Godputten" />
=======
	<node id="-383553" lat="60.5633694421" lon="10.9086888957">
		<tag k="name" v="Abortjern" />
		<tag k="natural" v="water" />
		<tag k="ssr:stedsnr" v="39848" />
	</node>
	<node id="-383880" lat="60.575122223" lon="11.0831388834">
		<tag k="name" v="Grismågåtjern" />
>>>>>>> e1d4bc35ff8a6074a6f2e91616a996b547c36f15
		<tag k="natural" v="water" />
		<tag k="ssr:stedsnr" v="693264" />
		<tag k="water" v="pond" />
	</node>
<<<<<<< HEAD
	<node lat="60.6423361078947" lon="10.83010278036029" id="-23899">
		<tag k="name" v="Riseelva" />
		<tag k="ssr:stedsnr" v="572259" />
		<tag k="waterway" v="river" />
	</node>
	<node lat="60.570911108233744" lon="10.852697230550252" id="-23905">
		<tag k="name" v="Grasbekken" />
		<tag k="ssr:stedsnr" v="572711" />
		<tag k="waterway" v="stream" />
	</node>
	<node lat="60.574191669721756" lon="10.883277773676287" id="-23908">
		<tag k="name" v="Hutjern" />
=======
	<node id="-383051" lat="60.488227776" lon="10.8844166621">
		<tag k="alt_name" v="Volltjern" />
		<tag k="name" v="Volltjernet" />
		<tag k="natural" v="water" />
		<tag k="ssr:stedsnr" v="673723" />
	</node>
	<node id="-382854" lat="60.4940333304" lon="10.7906777825">
		<tag k="name" v="Vøllumsbekken" />
		<tag k="ssr:stedsnr" v="268214" />
		<tag k="waterway" v="stream" />
	</node>
	<node id="-384389" lat="60.5388555597" lon="10.9811166639">
		<tag k="name" v="Kvernumseterputten" />
>>>>>>> e1d4bc35ff8a6074a6f2e91616a996b547c36f15
		<tag k="natural" v="water" />
		<tag k="ssr:stedsnr" v="573647" />
	</node>
<<<<<<< HEAD
	<node lat="60.65539166553421" lon="10.948663892851034" id="-23909">
		<tag k="name" v="Hølja" />
		<tag k="ssr:stedsnr" v="694327" />
		<tag k="waterway" v="stream" />
	</node>
	<node lat="60.520180556324064" lon="11.018474991148368" id="-23918">
		<tag k="name" v="Jonsokbekken" />
		<tag k="ssr:stedsnr" v="584344" />
		<tag k="waterway" v="stream" />
	</node>
	<node lat="60.51200277980904" lon="11.014633326624487" id="-23919">
		<tag k="name" v="Skjellbekken" />
		<tag k="ssr:stedsnr" v="584346" />
		<tag k="waterway" v="stream" />
	</node>
	<node lat="60.59399444612073" lon="11.090052779511824" id="-23927">
		<tag k="name" v="Østre Skreitjern" />
=======
	<node id="-382852" lat="60.5060333304" lon="10.9044694463">
		<tag k="name" v="Steinodden" />
		<tag k="natural" v="cape" />
		<tag k="ssr:stedsnr" v="267715" />
	</node>
	<node id="-383361" lat="60.4827750012" lon="10.8173277695">
		<tag k="alt_name" v="Svartungen, store" />
		<tag k="name" v="Store Svartungen" />
>>>>>>> e1d4bc35ff8a6074a6f2e91616a996b547c36f15
		<tag k="natural" v="water" />
		<tag k="ssr:stedsnr" v="585944" />
	</node>
<<<<<<< HEAD
	<node lat="60.59853333631582" lon="11.084386116768437" id="-23945">
		<tag k="alt_name" v="Steintjern" />
		<tag k="name" v="Steintjernet" />
		<tag k="natural" v="water" />
		<tag k="ssr:stedsnr" v="613871" />
	</node>
	<node lat="60.595730554807176" lon="10.940238882499552" id="-23953">
		<tag k="alt_name" v="Skjepsjøen" />
		<tag k="name" v="Skjeppsjøen" />
=======
	<node id="-382778" lat="60.5964055548" lon="11.1063361139">
		<tag k="name" v="Puttbekken" />
		<tag k="ssr:stedsnr" v="160952" />
		<tag k="waterway" v="stream" />
	</node>
	<node id="-383358" lat="60.5382249982" lon="10.9756444516">
		<tag k="name" v="Torvmyrtjern" />
>>>>>>> e1d4bc35ff8a6074a6f2e91616a996b547c36f15
		<tag k="natural" v="water" />
		<tag k="ssr:stedsnr" v="614865" />
		<tag k="water" v="lake" />
	</node>
<<<<<<< HEAD
	<node lat="60.539044441007874" lon="10.720049999698157" id="-23964">
		<tag k="name" v="Vestelva" />
		<tag k="ssr:stedsnr" v="632518" />
		<tag k="waterway" v="river" />
	</node>
	<node lat="60.63721111461323" lon="10.899247218606233" id="-23976">
		<tag k="name" v="Prøvenelva" />
		<tag k="ssr:stedsnr" v="706039" />
		<tag k="waterway" v="river" />
	</node>
	<node lat="60.58792778118379" lon="11.023652782953592" id="-23985">
		<tag k="name" v="Startjern" />
		<tag k="natural" v="water" />
		<tag k="ssr:stedsnr" v="706541" />
	</node>
	<node lat="60.51473744626306" lon="10.957212664913376" id="-23988">
		<tag k="loc_name" v="Hellebekken" />
=======
	<node id="-383869" lat="60.5918999961" lon="11.0146416591">
		<tag k="name" v="Hervenelva" />
		<tag k="ssr:stedsnr" v="342515" />
		<tag k="waterway" v="river" />
	</node>
	<node id="-384380" lat="60.657927775" lon="10.9591333258">
		<tag k="name" v="Lenaelva" />
		<tag k="ssr:stedsnr" v="951898" />
		<tag k="waterway" v="river" />
	</node>
	<node id="-384379" lat="60.5380611076" lon="10.9198138887">
>>>>>>> e1d4bc35ff8a6074a6f2e91616a996b547c36f15
		<tag k="name" v="Villbekken" />
		<tag k="ssr:stedsnr" v="645317" />
		<tag k="waterway" v="stream" />
	</node>
<<<<<<< HEAD
	<node lat="60.53931944543057" lon="10.958830558065452" id="-24004">
		<tag k="name" v="Garsjøelva" />
		<tag k="ssr:stedsnr" v="665434" />
		<tag k="waterway" v="river" />
	</node>
	<node lat="60.48822777598457" lon="10.884416662054392" id="-24008">
		<tag k="alt_name" v="Volltjern" />
		<tag k="name" v="Volltjernet" />
		<tag k="natural" v="water" />
		<tag k="ssr:stedsnr" v="673723" />
	</node>
	<node lat="60.65530277865174" lon="10.68809444960103" id="-24010">
		<tag k="name" v="Bøvra" />
		<tag k="ssr:stedsnr" v="674252" />
		<tag k="waterway" v="stream" />
	</node>
	<node lat="60.47276110917657" lon="10.911552783326796" id="-24019">
		<tag k="alt_name" v="Bjørnåstjenn;Bjørnåstjennet" />
		<tag k="name" v="Bjønnåstjenn" />
=======
	<node id="-383866" lat="60.5505361128" lon="10.975338884">
		<tag k="name" v="Vesle Skjellungen" />
		<tag k="natural" v="water" />
		<tag k="ssr:stedsnr" v="342330" />
	</node>
	<node id="-383865" lat="60.5457916646" lon="10.9576722308">
		<tag k="name" v="Brennsæterelva" />
		<tag k="ssr:stedsnr" v="342328" />
		<tag k="waterway" v="river" />
	</node>
	<node id="-384376" lat="60.5812833368" lon="11.0930833425">
		<tag k="name" v="Svartputten" />
		<tag k="natural" v="water" />
		<tag k="ssr:stedsnr" v="951198" />
	</node>
	<node id="-383863" lat="60.5168027758" lon="11.0356472178">
		<tag k="name" v="Hersjøbotn" />
		<tag k="natural" v="bay" />
		<tag k="ssr:stedsnr" v="342310" />
	</node>
	<node id="-382837" lat="60.5876388856" lon="10.7535444427">
		<tag k="name" v="Homla" />
		<tag k="ssr:stedsnr" v="450661" />
		<tag k="waterway" v="stream" />
	</node>
	<node id="-383348" lat="60.5011495575" lon="10.8347573582">
		<tag k="fixme" v="multiple name tags, choose one and add the other to alt_name" />
		<tag k="name" v="Halsteintjernet;Skålen" />
>>>>>>> e1d4bc35ff8a6074a6f2e91616a996b547c36f15
		<tag k="natural" v="water" />
		<tag k="ssr:stedsnr" v="674724" />
	</node>
<<<<<<< HEAD
	<node lat="60.536444448015054" lon="10.855963882547385" id="-24031">
		<tag k="name" v="Jensseterelva" />
		<tag k="ssr:stedsnr" v="692823" />
		<tag k="waterway" v="river" />
	</node>
	<node lat="60.51471111474392" lon="10.912638897385273" id="-24032">
		<tag k="name" v="Eikestokken" />
=======
	<node id="-383346" lat="60.6205250038" lon="10.9892611123">
		<tag k="name" v="Damtjernbekken" />
		<tag k="ssr:stedsnr" v="917841" />
		<tag k="waterway" v="stream" />
	</node>
	<node id="-383857" lat="60.578458334" lon="10.8450666677">
		<tag k="name" v="Gåsloa" />
>>>>>>> e1d4bc35ff8a6074a6f2e91616a996b547c36f15
		<tag k="natural" v="water" />
		<tag k="ssr:stedsnr" v="692727" />
		<tag k="water" v="pond" />
	</node>
<<<<<<< HEAD
	<node lat="60.48703333060018" lon="10.952016665854991" id="-24035">
		<tag k="name" v="Høverelva" />
		<tag k="ssr:stedsnr" v="693172" />
		<tag k="waterway" v="river" />
	</node>
	<node lat="60.71122499753769" lon="10.788116661826821" id="-24043">
		<tag k="name" v="Kvernhusbekken" />
		<tag k="ssr:stedsnr" v="693586" />
		<tag k="waterway" v="stream" />
	</node>
	<node lat="60.520469445777" lon="11.064066671521124" id="-24051">
		<tag k="name" v="Sundet" />
		<tag k="natural" v="strait" />
		<tag k="ssr:stedsnr" v="706310" />
	</node>
	<node lat="60.52741666873984" lon="10.94415000794804" id="-24063">
		<tag k="name" v="Langtjernet" />
=======
	<node id="-383464" lat="60.570227782" lon="11.0723611067">
		<tag k="name" v="Lekketjernet" />
		<tag k="natural" v="water" />
		<tag k="ssr:stedsnr" v="917654" />
	</node>
	<node id="-383342" lat="60.5609805523" lon="11.0640750018">
		<tag k="alt_name" v="Fugletjern" />
		<tag k="name" v="Fugletjernet" />
>>>>>>> e1d4bc35ff8a6074a6f2e91616a996b547c36f15
		<tag k="natural" v="water" />
		<tag k="ssr:stedsnr" v="707857" />
	</node>
<<<<<<< HEAD
	<node lat="60.52525277701925" lon="10.980886110885525" id="-24070">
		<tag k="name" v="Bjønnlaua" />
		<tag k="natural" v="water" />
		<tag k="ssr:stedsnr" v="725130" />
	</node>
	<node lat="60.4800500021234" lon="10.86762500238187" id="-24072">
		<tag k="name" v="Bergevatnet" />
=======
	<node id="-384362" lat="60.507311112" lon="10.8160944487">
		<tag k="name" v="Estentjernbekken" />
		<tag k="ssr:stedsnr" v="875076" />
		<tag k="waterway" v="stream" />
	</node>
	<node id="-383337" lat="60.5801999961" lon="10.8552694473">
		<tag k="name" v="Laupen" />
>>>>>>> e1d4bc35ff8a6074a6f2e91616a996b547c36f15
		<tag k="natural" v="water" />
		<tag k="ssr:stedsnr" v="734739" />
		<tag k="water" v="lake" />
	</node>
<<<<<<< HEAD
	<node lat="60.551412301553995" lon="10.956076033720542" id="-24076">
		<tag k="name" v="Garsjøen" />
		<tag k="natural" v="water" />
		<tag k="ssr:stedsnr" v="735674" />
		<tag k="water" v="lake" />
	</node>
	<node lat="60.57027499612942" lon="10.821838891077046" id="-24077">
		<tag k="alt_name" v="Vårsjøelva" />
		<tag k="name" v="Vålsjøelva" />
		<tag k="ssr:stedsnr" v="735677" />
		<tag k="waterway" v="stream" />
	</node>
	<node lat="60.5359333333247" lon="11.036247220161133" id="-24116">
		<tag k="name" v="Skinnstakken" />
		<tag k="place" v="islet" />
		<tag k="ssr:stedsnr" v="908407" />
	</node>
	<node lat="60.58054444144137" lon="11.046686119550664" id="-24125">
		<tag k="alt_name" v="Butjern" />
		<tag k="name" v="Butjernet" />
		<tag k="natural" v="water" />
		<tag k="ssr:stedsnr" v="795678" />
	</node>
	<node lat="60.588574998961036" lon="11.057502781307276" id="-24126">
		<tag k="alt_name" v="Rudsmyrtjern" />
		<tag k="name" v="Rudsmyrtjernet" />
		<tag k="natural" v="water" />
		<tag k="ssr:stedsnr" v="795680" />
	</node>
	<node lat="60.48277500122694" lon="10.81732776950406" id="-24128">
		<tag k="alt_name" v="Svartungen, store" />
		<tag k="name" v="Store Svartungen" />
=======
	<node id="-383848" lat="60.5337194456" lon="10.741472227">
		<tag k="name" v="Korsmyra" />
		<tag k="ssr:stedsnr" v="329541" />
		<tag k="waterway" v="stream" />
	</node>
	<node id="-383847" lat="60.5454222198" lon="10.8459444409">
		<tag k="name" v="Vårsjøbekken" />
		<tag k="ssr:stedsnr" v="329534" />
		<tag k="waterway" v="stream" />
	</node>
	<node id="-382865" lat="60.5588027807" lon="11.0860638809">
		<tag k="name" v="Østre Torvfesttjern" />
		<tag k="natural" v="water" />
		<tag k="ssr:stedsnr" v="464054" />
	</node>
	<node id="-383839" lat="60.5083194486" lon="10.752322222">
		<tag k="name" v="Korsevjua" />
>>>>>>> e1d4bc35ff8a6074a6f2e91616a996b547c36f15
		<tag k="natural" v="water" />
		<tag k="ssr:stedsnr" v="795757" />
		<tag k="water" v="lake" />
	</node>
<<<<<<< HEAD
	<node lat="60.54174999967764" lon="11.067163880861344" id="-24129">
		<tag k="alt_name" v="Stulsrudtjernet" />
		<tag k="name" v="Stusjøtjernet" />
		<tag k="natural" v="water" />
		<tag k="ssr:stedsnr" v="796653" />
	</node>
	<node lat="60.52505736155734" lon="10.803084804090592" id="-24130">
		<tag k="name" v="Lønsjøen" />
		<tag k="natural" v="water" />
		<tag k="ssr:stedsnr" v="796664" />
		<tag k="water" v="lake" />
	</node>
	<node lat="60.50378055306168" lon="10.823486104775158" id="-24134">
		<tag k="name" v="Estentjernet" />
		<tag k="natural" v="water" />
		<tag k="ssr:stedsnr" v="796723" />
	</node>
	<node lat="60.610427776103805" lon="11.05849166261875" id="-24137">
		<tag k="name" v="Kleivbekken" />
		<tag k="ssr:stedsnr" v="796856" />
		<tag k="waterway" v="stream" />
	</node>
	<node lat="60.56098055228793" lon="11.064075001815619" id="-24143">
		<tag k="alt_name" v="Fugletjern" />
		<tag k="name" v="Fugletjernet" />
=======
	<node id="-383802" lat="60.6445083303" lon="10.7237888875">
		<tag k="name" v="Bøvra" />
		<tag k="ssr:stedsnr" v="208757" />
		<tag k="waterway" v="river" />
	</node>
	<node id="-383321" lat="60.5359333333" lon="11.0362472202">
		<tag k="name" v="Skinnstakken" />
		<tag k="place" v="islet" />
		<tag k="ssr:stedsnr" v="908407" />
	</node>
	<node id="-384344" lat="60.5956472238" lon="10.8601361127">
		<tag k="name" v="Synstebytjernet" />
>>>>>>> e1d4bc35ff8a6074a6f2e91616a996b547c36f15
		<tag k="natural" v="water" />
		<tag k="ssr:stedsnr" v="917646" />
	</node>
<<<<<<< HEAD
	<node lat="60.55367777848299" lon="11.04355832572402" id="-24144">
		<tag k="name" v="Hersjøelva" />
		<tag k="ssr:stedsnr" v="917647" />
		<tag k="waterway" v="stream" />
	</node>
	<node lat="60.57022778202261" lon="11.072361106696665" id="-24145">
		<tag k="name" v="Lekketjernet" />
=======
	<node id="-384343" lat="60.5068499993" lon="10.902394449">
		<tag k="alt_name" v="Høvernsjøen" />
		<tag k="name" v="Høversjøen" />
>>>>>>> e1d4bc35ff8a6074a6f2e91616a996b547c36f15
		<tag k="natural" v="water" />
		<tag k="ssr:stedsnr" v="917654" />
	</node>
<<<<<<< HEAD
	<node lat="60.54988611402377" lon="11.06664444597771" id="-24147">
		<tag k="name" v="Langtjernet" />
=======
	<node id="-384342" lat="60.5962361151" lon="11.0527694431">
		<tag k="alt_name" v="Kroktjernet" />
		<tag k="name" v="Kroktjern" />
>>>>>>> e1d4bc35ff8a6074a6f2e91616a996b547c36f15
		<tag k="natural" v="water" />
		<tag k="ssr:stedsnr" v="917664" />
	</node>
<<<<<<< HEAD
	<node lat="60.50114955746655" lon="10.834757358155246" id="-24149">
		<tag k="fixme" v="multiple name tags, choose one and add the other to alt_name" />
		<tag k="name" v="Skålen;Halsteintjernet" />
=======
	<node id="-384341" lat="60.5921166677" lon="11.0240805563">
		<tag k="alt_name" v="Nordre Gåstjern" />
		<tag k="name" v="Veslegåstjernet" />
>>>>>>> e1d4bc35ff8a6074a6f2e91616a996b547c36f15
		<tag k="natural" v="water" />
		<tag k="ssr:stedsnr" v="917692" />
	</node>
<<<<<<< HEAD
	<node lat="60.59176666978746" lon="11.10002499133305" id="-24151">
		<tag k="alt_name" v="Torfestelva, vestre;Vestre Torvfestelva" />
		<tag k="name" v="Vestre Torfestelva" />
		<tag k="ssr:stedsnr" v="917396" />
		<tag k="waterway" v="stream" />
	</node>
	<node lat="60.58019999606763" lon="10.855269447321147" id="-24152">
		<tag k="name" v="Laupen" />
=======
	<node id="-382801" lat="60.5873444401" lon="11.0896416622">
		<tag k="name" v="Stormyrputten" />
>>>>>>> e1d4bc35ff8a6074a6f2e91616a996b547c36f15
		<tag k="natural" v="water" />
		<tag k="ssr:stedsnr" v="917602" />
	</node>
<<<<<<< HEAD
	<node lat="60.62052500377998" lon="10.989261112275484" id="-24154">
		<tag k="name" v="Damtjernbekken" />
		<tag k="ssr:stedsnr" v="917841" />
		<tag k="waterway" v="stream" />
	</node>
	<node lat="60.53822499821344" lon="10.975644451602427" id="-24161">
		<tag k="name" v="Torvmyrtjern" />
=======
	<node id="-382799" lat="60.5954555591" lon="11.0866944358">
		<tag k="name" v="Vestre Skreitjern" />
>>>>>>> e1d4bc35ff8a6074a6f2e91616a996b547c36f15
		<tag k="natural" v="water" />
		<tag k="ssr:stedsnr" v="918402" />
	</node>
<<<<<<< HEAD
	<node lat="60.631424995896865" lon="10.801619439569263" id="-24165">
		<tag k="name" v="Sandbergtjernet" />
		<tag k="natural" v="water" />
		<tag k="ssr:stedsnr" v="815209" />
	</node>
	<node lat="60.59368333504572" lon="10.851547229983886" id="-24177">
		<tag k="name" v="Tretjerna" />
=======
	<node id="-384334" lat="60.559356934" lon="11.0829986278">
		<tag k="alt_name" v="Vestre Torvfasttjern" />
		<tag k="name" v="Torvfasttjerna" />
		<tag k="natural" v="water" />
		<tag k="ssr:stedsnr" v="856687" />
		<tag k="water" v="lake" />
	</node>
	<node id="-384333" lat="60.4893222208" lon="10.793097221">
		<tag k="alt_name" v="Hagletjernet" />
		<tag k="name" v="Hagltjern" />
>>>>>>> e1d4bc35ff8a6074a6f2e91616a996b547c36f15
		<tag k="natural" v="water" />
		<tag k="ssr:stedsnr" v="815714" />
		<tag k="water" v="lake" />
	</node>
<<<<<<< HEAD
	<node lat="60.53303888997248" lon="11.092772213477613" id="-24178">
		<tag k="name" v="Brenntjernet" />
		<tag k="natural" v="water" />
		<tag k="ssr:stedsnr" v="828163" />
	</node>
	<node lat="60.56586666711118" lon="11.024480557248861" id="-24180">
		<tag k="name" v="Bråtåbrenntjern" />
		<tag k="natural" v="water" />
		<tag k="ssr:stedsnr" v="828205" />
	</node>
	<node lat="60.58102221963812" lon="10.989594440757596" id="-24182">
		<tag k="name" v="Fiskelauspompa" />
		<tag k="natural" v="strait" />
		<tag k="ssr:stedsnr" v="828262" />
	</node>
	<node lat="60.57157500248332" lon="10.925050008255928" id="-24185">
		<tag k="name" v="Pålknappen" />
		<tag k="natural" v="water" />
		<tag k="ssr:stedsnr" v="828776" />
	</node>
	<node lat="60.5418499962937" lon="11.042233334157393" id="-24193">
=======
	<node id="-382691" lat="60.4945749984" lon="10.87575">
		<tag k="alt_name" v="Gaupåsputten" />
		<tag k="name" v="Gaupåstjernet" />
		<tag k="natural" v="water" />
		<tag k="ssr:stedsnr" v="249751" />
	</node>
	<node id="-384331" lat="60.5293888865" lon="11.0472083348">
		<tag k="name" v="Damvika" />
		<tag k="natural" v="bay" />
		<tag k="ssr:stedsnr" v="848391" />
	</node>
	<node id="-384330" lat="60.5418499963" lon="11.0422333342">
>>>>>>> e1d4bc35ff8a6074a6f2e91616a996b547c36f15
		<tag k="name" v="Stupulbekkvika" />
		<tag k="natural" v="bay" />
		<tag k="ssr:stedsnr" v="848389" />
	</node>
<<<<<<< HEAD
	<node lat="60.529388886487446" lon="11.047208334795181" id="-24194">
		<tag k="name" v="Damvika" />
		<tag k="natural" v="bay" />
		<tag k="ssr:stedsnr" v="848391" />
	</node>
	<node lat="60.525489113562344" lon="11.020582625038742" id="-24200">
		<tag k="name" v="Mørksjøen" />
=======
	<node id="-383815" lat="60.5698111081" lon="10.9353277857">
		<tag k="alt_name" v="Rausteinstjern" />
		<tag k="name" v="Raudsteinstjernet" />
>>>>>>> e1d4bc35ff8a6074a6f2e91616a996b547c36f15
		<tag k="natural" v="water" />
		<tag k="ssr:stedsnr" v="857714" />
	</node>
<<<<<<< HEAD
	<node lat="60.50684999928629" lon="10.902394448990613" id="-24202">
		<tag k="alt_name" v="Høvernsjøen" />
		<tag k="name" v="Høversjøen" />
=======
	<node id="-383812" lat="60.5808055568" lon="11.0764888932">
		<tag k="alt_name" v="Alterdalstjern" />
		<tag k="name" v="Alterdalstjernet" />
>>>>>>> e1d4bc35ff8a6074a6f2e91616a996b547c36f15
		<tag k="natural" v="water" />
		<tag k="ssr:stedsnr" v="857731" />
		<tag k="water" v="lake" />
	</node>
<<<<<<< HEAD
	<node lat="60.59211666774302" lon="11.02408055628891" id="-24203">
		<tag k="alt_name" v="Nordre Gåstjern" />
		<tag k="name" v="Veslegåstjernet" />
		<tag k="natural" v="water" />
		<tag k="ssr:stedsnr" v="857643" />
	</node>
	<node lat="60.59623611511365" lon="11.052769443065086" id="-24204">
		<tag k="alt_name" v="Kroktjernet" />
		<tag k="name" v="Kroktjern" />
=======
	<node id="-383810" lat="60.5716350361" lon="10.8819121471">
		<tag k="name" v="Hutjerna" />
		<tag k="natural" v="water" />
		<tag k="ssr:stedsnr" v="310639" />
		<tag k="water" v="lake" />
	</node>
	<node id="-383809" lat="60.5806061424" lon="10.8223231695">
		<tag k="alt_name" v="Vålsjøen, store;Store Vårsjøen" />
		<tag k="name" v="Store Vålsjøen" />
>>>>>>> e1d4bc35ff8a6074a6f2e91616a996b547c36f15
		<tag k="natural" v="water" />
		<tag k="ssr:stedsnr" v="857644" />
	</node>
<<<<<<< HEAD
	<node lat="60.493116663311774" lon="10.807213894288921" id="-24222">
		<tag k="name" v="Brattmyrbekken" />
		<tag k="ssr:stedsnr" v="935193" />
		<tag k="waterway" v="stream" />
	</node>
	<node lat="60.49762516599091" lon="10.859309057267877" id="-24224">
		<tag k="name" v="Bergsetervika" />
		<tag k="natural" v="bay" />
		<tag k="ssr:stedsnr" v="934850" />
	</node>
	<node lat="60.488501809867046" lon="10.903979114340133" id="-24226">
		<tag k="name" v="Bjønnåsputten" />
		<tag k="natural" v="water" />
		<tag k="ssr:stedsnr" v="934963" />
		<tag k="water" v="pond" />
	</node>
	<node lat="60.4997138891537" lon="10.809466673722751" id="-24229">
		<tag k="name" v="Storrputten" />
		<tag k="natural" v="water" />
		<tag k="ssr:stedsnr" v="935183" />
		<tag k="water" v="pond" />
	</node>
	<node lat="60.59217500173766" lon="11.071836111522662" id="-24240">
		<tag k="name" v="Damputten" />
=======
	<node id="-383808" lat="60.5914111147" lon="11.1147166615">
		<tag k="alt_name" v="Torfestelva, østre;Østre Torvfestelva" />
		<tag k="name" v="Østre Torfestelva" />
		<tag k="ssr:stedsnr" v="310450" />
		<tag k="waterway" v="stream" />
	</node>
	<node id="-382783" lat="60.5601499997" lon="11.0832138826">
		<tag k="name" v="Midtre Torvfesttjern" />
		<tag k="natural" v="water" />
		<tag k="ssr:stedsnr" v="282056" />
	</node>
	<node id="-383202" lat="60.5946499984" lon="11.0628638964">
		<tag k="name" v="Fjæluputten" />
		<tag k="natural" v="water" />
		<tag k="ssr:stedsnr" v="645548" />
		<tag k="water" v="pond" />
	</node>
	<node id="-383293" lat="60.7112249975" lon="10.7881166618">
		<tag k="name" v="Kvernhusbekken" />
		<tag k="ssr:stedsnr" v="693586" />
		<tag k="waterway" v="stream" />
	</node>
	<node id="-384315" lat="60.6122388935" lon="11.089769437">
		<tag k="name" v="Sæterbekken" />
		<tag k="ssr:stedsnr" v="828883" />
		<tag k="waterway" v="stream" />
	</node>
	<node id="-384314" lat="60.5715750025" lon="10.9250500083">
		<tag k="name" v="Pålknappen" />
		<tag k="natural" v="water" />
		<tag k="ssr:stedsnr" v="828776" />
	</node>
	<node id="-382777" lat="60.5274166687" lon="10.9441500079">
		<tag k="name" v="Økalvbergene" />
>>>>>>> e1d4bc35ff8a6074a6f2e91616a996b547c36f15
		<tag k="natural" v="water" />
		<tag k="ssr:stedsnr" v="917611" />
	</node>
<<<<<<< HEAD
	<node lat="60.5989515814102" lon="10.994323554813464" id="-24242">
		<tag k="alt_name" v="Fugletjern" />
		<tag k="name" v="Fugletjernet" />
		<tag k="natural" v="water" />
		<tag k="ssr:stedsnr" v="917619" />
	</node>
	<node lat="60.609475001259916" lon="11.012791675229298" id="-24252">
		<tag k="name" v="Leirsjøen" />
=======
	<node id="-382776" lat="60.5903666688" lon="10.9784638915">
		<tag k="name" v="Storholmen" />
		<tag k="place" v="islet" />
		<tag k="ssr:stedsnr" v="160462" />
	</node>
	<node id="-382774" lat="60.5679638904" lon="11.0128805477">
		<tag k="name" v="Skurvetjern" />
>>>>>>> e1d4bc35ff8a6074a6f2e91616a996b547c36f15
		<tag k="natural" v="water" />
		<tag k="ssr:stedsnr" v="917859" />
	</node>
<<<<<<< HEAD
	<node lat="60.54591944103661" lon="10.851574996204743" id="-24258">
		<tag k="name" v="Jensseterelva" />
		<tag k="ssr:stedsnr" v="936537" />
		<tag k="waterway" v="river" />
	</node>
	<node lat="60.72106111040663" lon="10.852644443288437" id="-24263">
		<tag k="name" v="Lierstranda" />
		<tag k="natural" v="beach" />
		<tag k="ssr:stedsnr" v="937389" />
	</node>
	<node lat="60.58456666857207" lon="10.85052500491379" id="-24266">
		<tag k="name" v="Løjeputten" />
=======
	<node id="-383285" lat="60.4870333306" lon="10.9520166659">
		<tag k="name" v="Høverelva" />
		<tag k="ssr:stedsnr" v="693172" />
		<tag k="waterway" v="river" />
	</node>
	<node id="-384308" lat="60.5098916628" lon="11.0127916726">
		<tag k="name" v="Garsjøsvartputten" />
>>>>>>> e1d4bc35ff8a6074a6f2e91616a996b547c36f15
		<tag k="natural" v="water" />
		<tag k="ssr:stedsnr" v="937747" />
		<tag k="water" v="pond" />
	</node>
<<<<<<< HEAD
	<node lat="60.56973333793126" lon="11.101497214733044" id="-24269">
		<tag k="name" v="Kjøsketømmerputten" />
=======
	<node id="-384307" lat="60.5810222196" lon="10.9895944408">
		<tag k="name" v="Fiskelauspompa" />
		<tag k="natural" v="strait" />
		<tag k="ssr:stedsnr" v="828262" />
	</node>
	<node id="-383282" lat="60.4982805551" lon="10.8286777817">
		<tag k="name" v="Godputten" />
>>>>>>> e1d4bc35ff8a6074a6f2e91616a996b547c36f15
		<tag k="natural" v="water" />
		<tag k="ssr:stedsnr" v="949079" />
	</node>
<<<<<<< HEAD
	<node lat="60.56867222471713" lon="11.037211117757177" id="-24271">
		<tag k="name" v="Svartdalselva" />
		<tag k="ssr:stedsnr" v="949229" />
		<tag k="waterway" v="river" />
	</node>
	<node lat="60.56483888509504" lon="11.04824722820275" id="-24272">
		<tag k="name" v="Jønnbekken" />
		<tag k="ssr:stedsnr" v="949231" />
		<tag k="waterway" v="stream" />
	</node>
	<node lat="60.5388555597069" lon="10.981116663906352" id="-24280">
		<tag k="name" v="Kvernumseterputten" />
=======
	<node id="-384305" lat="60.5658666671" lon="11.0244805572">
		<tag k="name" v="Bråtåbrenntjern" />
>>>>>>> e1d4bc35ff8a6074a6f2e91616a996b547c36f15
		<tag k="natural" v="water" />
		<tag k="ssr:stedsnr" v="968396" />
	</node>
<<<<<<< HEAD
	<node lat="60.48988333520437" lon="10.991197231219465" id="-24332">
		<tag k="alt_name" v="Brennseterelva" />
		<tag k="name" v="Brennsæterelva" />
		<tag k="ssr:stedsnr" v="25135" />
		<tag k="waterway" v="river" />
	</node>
	<node lat="60.71603055647837" lon="10.865538881123403" id="-24338">
		<tag k="name" v="Smørvika" />
		<tag k="natural" v="bay" />
		<tag k="ssr:stedsnr" v="26365" />
	</node>
	<node lat="60.536033329216544" lon="10.74748333996385" id="-24347">
		<tag k="name" v="Risskogbekken" />
		<tag k="ssr:stedsnr" v="26535" />
		<tag k="waterway" v="stream" />
	</node>
	<node lat="60.609797219662994" lon="10.99505833575614" id="-24359">
		<tag k="name" v="Damtjern" />
		<tag k="natural" v="water" />
		<tag k="ssr:stedsnr" v="39493" />
	</node>
	<node lat="60.533438885379525" lon="10.943855560463609" id="-24362">
		<tag k="name" v="Svartputten" />
=======
	<node id="-383280" lat="60.536444448" lon="10.8559638825">
		<tag k="name" v="Jensseterelva" />
		<tag k="ssr:stedsnr" v="692823" />
		<tag k="waterway" v="river" />
	</node>
	<node id="-383279" lat="60.5147111147" lon="10.9126388974">
		<tag k="name" v="Eikestokken" />
>>>>>>> e1d4bc35ff8a6074a6f2e91616a996b547c36f15
		<tag k="natural" v="water" />
		<tag k="ssr:stedsnr" v="39835" />
		<tag k="water" v="pond" />
	</node>
<<<<<<< HEAD
	<node lat="60.5633694421099" lon="10.908688895668849" id="-24364">
		<tag k="name" v="Abortjern" />
=======
	<node id="-384302" lat="60.53303889" lon="11.0927722135">
		<tag k="name" v="Brenntjernet" />
>>>>>>> e1d4bc35ff8a6074a6f2e91616a996b547c36f15
		<tag k="natural" v="water" />
		<tag k="ssr:stedsnr" v="39848" />
	</node>
<<<<<<< HEAD
	<node lat="60.5283916646276" lon="10.984066664303647" id="-24379">
		<tag k="name" v="Astria" />
=======
	<node id="-383274" lat="60.5867464586" lon="10.9789159488">
		<tag k="name" v="Fiskelausen" />
>>>>>>> e1d4bc35ff8a6074a6f2e91616a996b547c36f15
		<tag k="natural" v="water" />
		<tag k="ssr:stedsnr" v="58160" />
	</node>
<<<<<<< HEAD
	<node lat="60.53147222237001" lon="10.988374998718005" id="-24380">
		<tag k="name" v="Arneputten" />
=======
	<node id="-382761" lat="60.568494446" lon="10.8817527699">
		<tag k="name" v="Hutjern" />
>>>>>>> e1d4bc35ff8a6074a6f2e91616a996b547c36f15
		<tag k="natural" v="water" />
		<tag k="ssr:stedsnr" v="58163" />
	</node>
<<<<<<< HEAD
	<node lat="60.528194447888694" lon="11.050013888612595" id="-24381">
		<tag k="name" v="Stubbelva" />
		<tag k="ssr:stedsnr" v="58392" />
		<tag k="waterway" v="river" />
	</node>
	<node lat="60.6598470125638" lon="10.979283441020254" id="-24382">
		<tag k="name" v="Totenvika" />
		<tag k="natural" v="bay" />
		<tag k="ssr:stedsnr" v="67758" />
	</node>
	<node lat="60.53194999619335" lon="10.957333329994482" id="-24396">
		<tag k="name" v="Brennsætersjøen" />
=======
	<node id="-383271" lat="60.5897833347" lon="11.0293194475">
		<tag k="alt_name" v="Søndre Storgåstjern" />
		<tag k="name" v="Storgåstjernet" />
		<tag k="natural" v="water" />
		<tag k="ssr:stedsnr" v="675664" />
	</node>
	<node id="-382769" lat="60.5776638864" lon="10.8748499947">
		<tag k="name" v="Korsbekken" />
		<tag k="ssr:stedsnr" v="147674" />
		<tag k="waterway" v="stream" />
	</node>
	<node id="-383259" lat="60.5328326348" lon="11.011007208">
		<tag k="alt_name" v="Hommersjøen" />
		<tag k="name" v="Hommelsjøen" />
		<tag k="natural" v="water" />
		<tag k="ssr:stedsnr" v="674680" />
	</node>
	<node id="-382746" lat="60.4951333342" lon="10.8876694495">
		<tag k="name" v="Høverdalsputten" />
		<tag k="natural" v="water" />
		<tag k="ssr:stedsnr" v="267882" />
		<tag k="water" v="pond" />
	</node>
	<node id="-383766" lat="60.5258861137" lon="10.7133305621">
		<tag k="alt_name" v="Brannelva;Brennelva" />
		<tag k="name" v="Brandelva" />
		<tag k="ssr:stedsnr" v="189868" />
		<tag k="waterway" v="river" />
	</node>
	<node id="-382741" lat="60.5592655637" lon="11.007025393">
		<tag k="alt_name" v="Øyungen, store;Store Øyongen" />
		<tag k="name" v="Store Øyungen" />
>>>>>>> e1d4bc35ff8a6074a6f2e91616a996b547c36f15
		<tag k="natural" v="water" />
		<tag k="old_name" v="Brannsætersjøen" />
		<tag k="ssr:stedsnr" v="68666" />
		<tag k="water" v="lake" />
	</node>
<<<<<<< HEAD
	<node lat="60.53100555293422" lon="10.72488333124671" id="-24397">
		<tag k="name" v="Vindfloelva" />
		<tag k="ssr:stedsnr" v="68680" />
		<tag k="waterway" v="stream" />
	</node>
	<node lat="60.601980558502284" lon="10.830336112378687" id="-24406">
		<tag k="alt_name" v="Skjærsjøen" />
		<tag k="name" v="Skjersjøen" />
=======
	<node id="-384276" lat="60.5164555539" lon="10.940283334">
		<tag k="name" v="Villbekken" />
		<tag k="ssr:stedsnr" v="813756" />
		<tag k="waterway" v="stream" />
	</node>
	<node id="-383763" lat="60.6059305565" lon="10.8922861066">
		<tag k="name" v="Olterudelva" />
		<tag k="ssr:stedsnr" v="189854" />
		<tag k="waterway" v="river" />
	</node>
	<node id="-382869" lat="60.5231944422" lon="10.9827472202">
		<tag k="name" v="Graveren" />
		<tag k="natural" v="water" />
		<tag k="ssr:stedsnr" v="300157" />
	</node>
	<node id="-382735" lat="60.5797611113" lon="11.0528055533">
		<tag k="alt_name" v="Brynstjern" />
		<tag k="name" v="Brønntjernet" />
		<tag k="natural" v="water" />
		<tag k="ssr:stedsnr" v="128605" />
	</node>
	<node id="-384267" lat="60.6048055571" lon="10.7567361131">
		<tag k="name" v="Lenaelva" />
		<tag k="ssr:stedsnr" v="796865" />
		<tag k="waterway" v="river" />
	</node>
	<node id="-383115" lat="60.5204694458" lon="11.0640666715">
		<tag k="name" v="Sundet" />
		<tag k="natural" v="strait" />
		<tag k="ssr:stedsnr" v="706310" />
	</node>
	<node id="-384264" lat="60.6104277761" lon="11.0584916626">
		<tag k="name" v="Kleivbekken" />
		<tag k="ssr:stedsnr" v="796856" />
		<tag k="waterway" v="stream" />
	</node>
	<node id="-382849" lat="60.5555749966" lon="10.8609472227">
		<tag k="name" v="Furubekken" />
		<tag k="ssr:stedsnr" v="451563" />
		<tag k="waterway" v="stream" />
	</node>
	<node id="-384260" lat="60.5037805531" lon="10.8234861048">
		<tag k="name" v="Estentjernet" />
		<tag k="natural" v="water" />
		<tag k="ssr:stedsnr" v="796723" />
	</node>
	<node id="-382740" lat="60.5624005444" lon="10.9649801325">
		<tag k="alt_name" v="Rønningen" />
		<tag k="name" v="Rønningstjernet" />
		<tag k="natural" v="water" />
		<tag k="ssr:stedsnr" v="128651" />
	</node>
	<node id="-382722" lat="60.6520833375" lon="10.8309527693">
		<tag k="alt_name" v="Riiseelva;Riiselva" />
		<tag k="name" v="Riselva" />
		<tag k="ssr:stedsnr" v="99706" />
		<tag k="waterway" v="river" />
	</node>
	<node id="-383745" lat="60.5181749999" lon="10.8396583243">
		<tag k="name" v="Bergsjøen" />
		<tag k="natural" v="water" />
		<tag k="ssr:stedsnr" v="189672" />
		<tag k="water" v="lake" />
	</node>
	<node id="-384256" lat="60.5250573616" lon="10.8030848041">
		<tag k="name" v="Lønsjøen" />
>>>>>>> e1d4bc35ff8a6074a6f2e91616a996b547c36f15
		<tag k="natural" v="water" />
		<tag k="ssr:stedsnr" v="68858" />
	</node>
<<<<<<< HEAD
	<node lat="60.48512499718585" lon="10.888127773437816" id="-24408">
		<tag k="name" v="Lokkerhaugputten" />
=======
	<node id="-384255" lat="60.5417499997" lon="11.0671638809">
		<tag k="alt_name" v="Stulsrudtjernet" />
		<tag k="name" v="Stusjøtjernet" />
>>>>>>> e1d4bc35ff8a6074a6f2e91616a996b547c36f15
		<tag k="natural" v="water" />
		<tag k="ssr:stedsnr" v="85840" />
		<tag k="water" v="pond" />
	</node>
<<<<<<< HEAD
	<node lat="60.51884721798495" lon="11.030563895867356" id="-24429">
		<tag k="name" v="Nysætervika" />
		<tag k="natural" v="bay" />
		<tag k="ssr:stedsnr" v="99346" />
	</node>
	<node lat="60.559430551301446" lon="10.908986107838928" id="-24431">
		<tag k="name" v="Søndre Tjuvåstjern" />
=======
	<node id="-384254" lat="60.588574999" lon="11.0575027813">
		<tag k="alt_name" v="Rudsmyrtjern" />
		<tag k="name" v="Rudsmyrtjernet" />
		<tag k="natural" v="water" />
		<tag k="ssr:stedsnr" v="795680" />
	</node>
	<node id="-384253" lat="60.5805444414" lon="11.0466861196">
		<tag k="alt_name" v="Butjern" />
		<tag k="name" v="Butjernet" />
>>>>>>> e1d4bc35ff8a6074a6f2e91616a996b547c36f15
		<tag k="natural" v="water" />
		<tag k="ssr:stedsnr" v="99887" />
	</node>
<<<<<<< HEAD
	<node lat="60.56109166273344" lon="10.990230549833239" id="-24434">
		<tag k="name" v="Vollsputten" />
		<tag k="natural" v="water" />
		<tag k="ssr:stedsnr" v="100692" />
		<tag k="water" v="pond" />
	</node>
	<node lat="60.521733330385494" lon="10.997036115356975" id="-24460">
		<tag k="name" v="Bladtjern" />
		<tag k="natural" v="water" />
		<tag k="ssr:stedsnr" v="118131" />
	</node>
	<node lat="60.71247777795707" lon="10.80850832672155" id="-24479">
		<tag k="name" v="Heggshuselva" />
		<tag k="ssr:stedsnr" v="128925" />
		<tag k="waterway" v="river" />
	</node>
	<node lat="60.5776638863751" lon="10.874849994659495" id="-24489">
		<tag k="name" v="Korsbekken" />
		<tag k="ssr:stedsnr" v="147674" />
		<tag k="waterway" v="stream" />
	</node>
	<node lat="60.532283336017876" lon="11.079036110394265" id="-24495">
		<tag k="name" v="Halmbråtåbekken" />
		<tag k="ssr:stedsnr" v="160150" />
		<tag k="waterway" v="stream" />
	</node>
	<node lat="60.567963890379005" lon="11.012880547747134" id="-24499">
		<tag k="name" v="Skurvetjern" />
		<tag k="natural" v="water" />
		<tag k="ssr:stedsnr" v="160194" />
	</node>
	<node lat="60.51068889199852" lon="11.034188886009266" id="-24500">
		<tag k="name" v="Sæteråssvartputten" />
		<tag k="natural" v="water" />
		<tag k="ssr:stedsnr" v="160294" />
	</node>
	<node lat="60.590366668790516" lon="10.978463891518258" id="-24502">
		<tag k="name" v="Storholmen" />
		<tag k="place" v="islet" />
		<tag k="ssr:stedsnr" v="160462" />
	</node>
	<node lat="60.55534722237132" lon="11.063461108144725" id="-24504">
=======
	<node id="-383228" lat="60.6213527755" lon="10.8562583377">
		<tag k="name" v="Sagelva" />
		<tag k="ssr:stedsnr" v="735850" />
		<tag k="waterway" v="river" />
	</node>
	<node id="-384298" lat="60.6321999994" lon="10.9267083327">
		<tag k="name" v="Slukelva" />
		<tag k="ssr:stedsnr" v="828036" />
		<tag k="waterway" v="river" />
	</node>
	<node id="-384250" lat="60.5382638887" lon="11.0038138803">
		<tag k="name" v="Hommersjøputten" />
		<tag k="natural" v="water" />
		<tag k="ssr:stedsnr" v="786384" />
	</node>
	<node id="-383016" lat="60.5392388932" lon="10.9946250062">
		<tag k="alt_name" v="Lavtjern" />
		<tag k="name" v="Lavtjernet" />
		<tag k="natural" v="water" />
		<tag k="ssr:stedsnr" v="432636" />
	</node>
	<node id="-383214" lat="60.5702749961" lon="10.8218388911">
		<tag k="alt_name" v="Vårsjøelva" />
		<tag k="name" v="Vålsjøelva" />
		<tag k="ssr:stedsnr" v="735677" />
		<tag k="waterway" v="stream" />
	</node>
	<node id="-383213" lat="60.5514123016" lon="10.9560760337">
		<tag k="name" v="Garsjøen" />
		<tag k="natural" v="water" />
		<tag k="ssr:stedsnr" v="735674" />
		<tag k="water" v="lake" />
	</node>
	<node id="-383719" lat="60.6009888917" lon="11.0878916621">
		<tag k="name" v="Sveumsputten" />
		<tag k="natural" v="water" />
		<tag k="ssr:stedsnr" v="160944" />
	</node>
	<node id="-383715" lat="60.5553472224" lon="11.0634611081">
>>>>>>> e1d4bc35ff8a6074a6f2e91616a996b547c36f15
		<tag k="name" v="Fugletjernsbekken" />
		<tag k="ssr:stedsnr" v="160478" />
		<tag k="waterway" v="stream" />
	</node>
<<<<<<< HEAD
	<node lat="60.59640555476366" lon="11.106336113907577" id="-24508">
		<tag k="name" v="Puttbekken" />
		<tag k="ssr:stedsnr" v="160952" />
		<tag k="waterway" v="stream" />
	</node>
	<node lat="60.60098889172145" lon="11.08789166212972" id="-24511">
		<tag k="name" v="Sveumsputten" />
		<tag k="natural" v="water" />
		<tag k="ssr:stedsnr" v="160944" />
	</node>
	<node lat="60.54754117821347" lon="10.979259663662123" id="-24526">
		<tag k="name" v="Skjellungen" />
		<tag k="natural" v="water" />
		<tag k="ssr:stedsnr" v="189648" />
	</node>
	<node lat="60.57113055957366" lon="10.802638892443643" id="-24532">
		<tag k="alt_name" v="Vestre Kulltjern" />
		<tag k="name" v="Storkoltjernet" />
		<tag k="natural" v="water" />
		<tag k="ssr:stedsnr" v="189593" />
	</node>
	<node lat="60.605930556549" lon="10.892286106580208" id="-24539">
		<tag k="name" v="Olterudelva" />
		<tag k="ssr:stedsnr" v="189854" />
		<tag k="waterway" v="river" />
	</node>
	<node lat="60.52588611368246" lon="10.713330562086606" id="-24541">
		<tag k="alt_name" v="Brannelva;Brennelva" />
		<tag k="name" v="Brandelva" />
		<tag k="ssr:stedsnr" v="189868" />
		<tag k="waterway" v="river" />
	</node>
	<node lat="60.63384722001258" lon="10.883630553245602" id="-24563">
		<tag k="name" v="Sagelva" />
		<tag k="ssr:stedsnr" v="208374" />
		<tag k="waterway" v="stream" />
	</node>
	<node lat="60.644508330302266" lon="10.723788887518648" id="-24565">
=======
	<node id="-384226" lat="60.588874997" lon="11.0767944359">
		<tag k="name" v="Niputta" />
		<tag k="natural" v="water" />
		<tag k="ssr:stedsnr" v="767964" />
	</node>
	<node id="-383867" lat="60.6113999986" lon="11.0656888885">
		<tag k="name" v="Fjellhaugelva" />
		<tag k="ssr:stedsnr" v="342477" />
		<tag k="waterway" v="river" />
	</node>
	<node id="-383711" lat="60.510688892" lon="11.034188886">
		<tag k="name" v="Sæteråssvartputten" />
		<tag k="natural" v="water" />
		<tag k="ssr:stedsnr" v="160294" />
	</node>
	<node id="-383710" lat="60.532283336" lon="11.0790361104">
		<tag k="name" v="Halmbråtåbekken" />
		<tag k="ssr:stedsnr" v="160150" />
		<tag k="waterway" v="stream" />
	</node>
	<node id="-382685" lat="60.560121253" lon="10.9963817901">
		<tag k="alt_name" v="Øyungen, vle;Vesle Øyongen" />
		<tag k="name" v="Vesle Øyungen" />
		<tag k="natural" v="water" />
		<tag k="ssr:stedsnr" v="249663" />
	</node>
	<node id="-383195" lat="60.4861166669" lon="10.8437527812">
		<tag k="name" v="Svarttjernsbekken" />
		<tag k="ssr:stedsnr" v="631997" />
		<tag k="waterway" v="stream" />
	</node>
	<node id="-382682" lat="60.568488888" lon="10.7488361089">
		<tag k="name" v="Homla" />
		<tag k="old_name" v="Humla" />
		<tag k="ssr:stedsnr" v="249628" />
		<tag k="waterway" v="stream" />
	</node>
	<node id="-383193" lat="60.6000777782" lon="11.1018111029">
		<tag k="name" v="Sæterputten" />
		<tag k="natural" v="water" />
		<tag k="ssr:stedsnr" v="627993" />
	</node>
	<node id="-383192" lat="60.525252777" lon="10.9808861109">
		<tag k="name" v="Bjønnlaua" />
		<tag k="natural" v="water" />
		<tag k="ssr:stedsnr" v="725130" />
	</node>
	<node id="-384215" lat="60.5783138875" lon="10.837586105">
		<tag k="name" v="Furuputten" />
		<tag k="natural" v="water" />
		<tag k="ssr:stedsnr" v="754701" />
		<tag k="water" v="pond" />
	</node>
	<node id="-383701" lat="60.7130111141" lon="10.8839888964">
		<tag k="alt_name" v="Kihlestrand" />
		<tag k="name" v="Kilestranda" />
		<tag k="natural" v="beach" />
		<tag k="ssr:stedsnr" v="146476" />
	</node>
	<node id="-383795" lat="60.63384722" lon="10.8836305532">
		<tag k="name" v="Sagelva" />
		<tag k="ssr:stedsnr" v="208374" />
		<tag k="waterway" v="stream" />
	</node>
	<node id="-383454" lat="60.5798999969" lon="11.0111944503">
		<tag k="name" v="Svartdalstjern" />
		<tag k="natural" v="water" />
		<tag k="ssr:stedsnr" v="888223" />
	</node>
	<node id="-382666" lat="60.5961499969" lon="11.0587777779">
		<tag k="alt_name" v="Fjælutjern" />
		<tag k="name" v="Fjælutjernet" />
		<tag k="natural" v="water" />
		<tag k="ssr:stedsnr" v="236606" />
	</node>
	<node id="-383436" lat="60.5697333379" lon="11.1014972147">
		<tag k="name" v="Kjøsketømmerputten" />
		<tag k="natural" v="water" />
		<tag k="ssr:stedsnr" v="949079" />
	</node>
	<node id="-383170" lat="60.5410444475" lon="10.9885611198">
		<tag k="name" v="Furuputten" />
		<tag k="natural" v="water" />
		<tag k="ssr:stedsnr" v="604388" />
	</node>
	<node id="-383169" lat="60.5398027775" lon="11.0256611201">
		<tag k="name" v="Hommersjøvika" />
		<tag k="natural" v="bay" />
		<tag k="ssr:stedsnr" v="604378" />
	</node>
	<node id="-383317" lat="60.4800500021" lon="10.8676250024">
		<tag k="name" v="Bergevatnet" />
		<tag k="natural" v="water" />
		<tag k="ssr:stedsnr" v="734739" />
		<tag k="water" v="lake" />
	</node>
	<node id="-383674" lat="60.712477778" lon="10.8085083267">
		<tag k="name" v="Heggshuselva" />
		<tag k="ssr:stedsnr" v="128925" />
		<tag k="waterway" v="river" />
	</node>
	<node id="-384184" lat="60.6053805565" lon="10.8660527751">
		<tag k="name" v="Synstebysæterelva" />
		<tag k="ssr:stedsnr" v="753662" />
		<tag k="waterway" v="river" />
	</node>
	<node id="-382648" lat="60.5360333292" lon="10.74748334">
		<tag k="name" v="Risskogbekken" />
		<tag k="ssr:stedsnr" v="26535" />
		<tag k="waterway" v="stream" />
	</node>
	<node id="-384178" lat="60.6436277807" lon="10.7134444413">
>>>>>>> e1d4bc35ff8a6074a6f2e91616a996b547c36f15
		<tag k="name" v="Bøvra" />
		<tag k="ssr:stedsnr" v="208757" />
		<tag k="waterway" v="river" />
	</node>
<<<<<<< HEAD
	<node lat="60.54273055373244" lon="11.076641674673189" id="-24568">
		<tag k="name" v="Svartputten" />
=======
	<node id="-383129" lat="60.6423361079" lon="10.8301027804">
		<tag k="name" v="Riseelva" />
		<tag k="ssr:stedsnr" v="572259" />
		<tag k="waterway" v="river" />
	</node>
	<node id="-383660" lat="60.5217333304" lon="10.9970361154">
		<tag k="name" v="Bladtjern" />
>>>>>>> e1d4bc35ff8a6074a6f2e91616a996b547c36f15
		<tag k="natural" v="water" />
		<tag k="ssr:stedsnr" v="221162" />
	</node>
<<<<<<< HEAD
	<node lat="60.59606111190462" lon="11.052836116356634" id="-24570">
		<tag k="name" v="Kroktjern" />
		<tag k="natural" v="water" />
		<tag k="ssr:stedsnr" v="221549" />
	</node>
	<node lat="60.587816665331495" lon="11.122411106157653" id="-24574">
=======
	<node id="-383146" lat="60.5274166687" lon="10.9441500079">
		<tag k="name" v="Langtjernet" />
		<tag k="natural" v="water" />
		<tag k="ssr:stedsnr" v="707857" />
	</node>
	<node id="-382631" lat="60.5878166653" lon="11.1224111062">
>>>>>>> e1d4bc35ff8a6074a6f2e91616a996b547c36f15
		<tag k="name" v="Sikkelibekken" />
		<tag k="ssr:stedsnr" v="221938" />
		<tag k="waterway" v="stream" />
	</node>
<<<<<<< HEAD
	<node lat="60.56014999967985" lon="11.083213882641603" id="-24585">
		<tag k="name" v="Midtre Torvfesttjern" />
		<tag k="natural" v="water" />
		<tag k="ssr:stedsnr" v="282056" />
	</node>
	<node lat="60.636280556929265" lon="10.9910444427691" id="-24587">
		<tag k="name" v="Damtjernbekken" />
		<tag k="ssr:stedsnr" v="282736" />
		<tag k="waterway" v="stream" />
	</node>
	<node lat="60.59545555913747" lon="11.08669443583187" id="-24593">
		<tag k="name" v="Vestre Skreitjern" />
		<tag k="natural" v="water" />
		<tag k="ssr:stedsnr" v="282963" />
	</node>
	<node lat="60.52319444219917" lon="10.982747220189728" id="-24600">
		<tag k="name" v="Graveren" />
		<tag k="natural" v="water" />
		<tag k="ssr:stedsnr" v="300157" />
	</node>
	<node lat="60.534305559734456" lon="11.045130552766784" id="-24601">
		<tag k="name" v="Gråmerra" />
		<tag k="place" v="islet" />
		<tag k="ssr:stedsnr" v="301354" />
	</node>
	<node lat="60.591411114699454" lon="11.114716661462657" id="-24604">
		<tag k="alt_name" v="Torfestelva, østre;Østre Torvfestelva" />
		<tag k="name" v="Østre Torfestelva" />
		<tag k="ssr:stedsnr" v="310450" />
		<tag k="waterway" v="stream" />
	</node>
	<node lat="60.56981110805257" lon="10.935327785658835" id="-24605">
		<tag k="alt_name" v="Rausteinstjern" />
		<tag k="name" v="Raudsteinstjernet" />
		<tag k="natural" v="water" />
		<tag k="ssr:stedsnr" v="310678" />
	</node>
	<node lat="60.57163503607918" lon="10.881912147131642" id="-24609">
		<tag k="name" v="Hutjerna" />
		<tag k="natural" v="water" />
		<tag k="ssr:stedsnr" v="310639" />
		<tag k="water" v="lake" />
	</node>
	<node lat="60.58080555680393" lon="11.076488893198572" id="-24611">
		<tag k="alt_name" v="Alterdalstjern" />
		<tag k="name" v="Alterdalstjernet" />
=======
	<node id="-384164" lat="60.5147305558" lon="10.9573444531">
		<tag k="name" v="Villbekken" />
		<tag k="ssr:stedsnr" v="645317" />
		<tag k="waterway" v="stream" />
	</node>
	<node id="-383139" lat="60.5709111082" lon="10.8526972306">
		<tag k="name" v="Grasbekken" />
		<tag k="ssr:stedsnr" v="572711" />
		<tag k="waterway" v="stream" />
	</node>
	<node id="-382626" lat="60.6526138908" lon="10.7808916604">
		<tag k="name" v="Garveribekken" />
		<tag k="ssr:stedsnr" v="221621" />
		<tag k="waterway" v="stream" />
	</node>
	<node id="-382625" lat="60.5960611119" lon="11.0528361164">
		<tag k="name" v="Kroktjern" />
		<tag k="natural" v="water" />
		<tag k="ssr:stedsnr" v="221549" />
	</node>
	<node id="-384157" lat="60.5529472209" lon="11.0774972237">
		<tag k="name" v="Lemenpytten" />
		<tag k="natural" v="water" />
		<tag k="ssr:stedsnr" v="645064" />
	</node>
	<node id="-383343" lat="60.5536777785" lon="11.0435583257">
		<tag k="name" v="Hersjøelva" />
		<tag k="ssr:stedsnr" v="917647" />
		<tag k="waterway" v="stream" />
	</node>
	<node id="-383127" lat="60.7166833295" lon="10.8758361171">
		<tag k="name" v="Tallodden" />
		<tag k="natural" v="cape" />
		<tag k="ssr:stedsnr" v="571338" />
	</node>
	<node id="-383121" lat="60.5879277812" lon="11.023652783">
		<tag k="name" v="Startjern" />
		<tag k="natural" v="water" />
		<tag k="ssr:stedsnr" v="706541" />
	</node>
	<node id="-383632" lat="60.5610916627" lon="10.9902305498">
		<tag k="name" v="Vollsputten" />
>>>>>>> e1d4bc35ff8a6074a6f2e91616a996b547c36f15
		<tag k="natural" v="water" />
		<tag k="ssr:stedsnr" v="310653" />
	</node>
<<<<<<< HEAD
	<node lat="60.54542221976319" lon="10.845944440875202" id="-24637">
		<tag k="name" v="Vårsjøbekken" />
		<tag k="ssr:stedsnr" v="329534" />
		<tag k="waterway" v="stream" />
	</node>
	<node lat="60.533719445591814" lon="10.741472226973611" id="-24638">
		<tag k="name" v="Korsmyra" />
		<tag k="ssr:stedsnr" v="329541" />
		<tag k="waterway" v="stream" />
	</node>
	<node lat="60.545791664573336" lon="10.957672230834035" id="-24651">
		<tag k="name" v="Brennsæterelva" />
		<tag k="ssr:stedsnr" v="342328" />
		<tag k="waterway" v="river" />
	</node>
	<node lat="60.550536112839175" lon="10.975338883992084" id="-24652">
		<tag k="name" v="Vesle Skjellungen" />
=======
	<node id="-384142" lat="60.539044441" lon="10.7200499997">
		<tag k="name" v="Vestelva" />
		<tag k="ssr:stedsnr" v="632518" />
		<tag k="waterway" v="river" />
	</node>
	<node id="-383629" lat="60.5594305513" lon="10.9089861078">
		<tag k="name" v="Søndre Tjuvåstjern" />
>>>>>>> e1d4bc35ff8a6074a6f2e91616a996b547c36f15
		<tag k="natural" v="water" />
		<tag k="ssr:stedsnr" v="342330" />
	</node>
<<<<<<< HEAD
	<node lat="60.591899996057606" lon="11.014641659089566" id="-24653">
		<tag k="name" v="Hervenelva" />
		<tag k="ssr:stedsnr" v="342515" />
		<tag k="waterway" v="river" />
	</node>
	<node lat="60.61139999860315" lon="11.065688888521906" id="-24654">
		<tag k="name" v="Fjellhaugelva" />
		<tag k="ssr:stedsnr" v="342477" />
		<tag k="waterway" v="river" />
	</node>
	<node lat="60.50052499951475" lon="10.75300278110119" id="-24677">
		<tag k="alt_name" v="Vindflotjernet;Vindflotjern, nordre" />
		<tag k="name" v="Store Vindflotjernet" />
		<tag k="natural" v="water" />
		<tag k="ssr:stedsnr" v="357697" />
	</node>
	<node lat="60.537713893167314" lon="11.05832777048785" id="-24680">
		<tag k="name" v="Stulsrudtjernsbekken" />
		<tag k="ssr:stedsnr" v="362387" />
		<tag k="waterway" v="stream" />
	</node>
	<node lat="60.47606111510654" lon="10.902299997027935" id="-24684">
		<tag k="name" v="Banneputten" />
		<tag k="natural" v="water" />
		<tag k="ssr:stedsnr" v="370745" />
	</node>
	<node lat="60.54700035282957" lon="10.995210664854316" id="-24690">
		<tag k="name" v="Sandungen" />
=======
	<node id="-382821" lat="60.5427305537" lon="11.0766416747">
		<tag k="name" v="Svartputten" />
		<tag k="natural" v="water" />
		<tag k="ssr:stedsnr" v="221162" />
	</node>
	<node id="-383627" lat="60.518847218" lon="11.0305638959">
		<tag k="name" v="Nysætervika" />
		<tag k="natural" v="bay" />
		<tag k="ssr:stedsnr" v="99346" />
	</node>
	<node id="-383110" lat="60.6372111146" lon="10.8992472186">
		<tag k="name" v="Prøvenelva" />
		<tag k="ssr:stedsnr" v="706039" />
		<tag k="waterway" v="river" />
	</node>
	<node id="-384128" lat="60.5992055531" lon="10.9879916723">
		<tag k="alt_name" v="Oftentjern" />
		<tag k="name" v="Oftentjernet" />
>>>>>>> e1d4bc35ff8a6074a6f2e91616a996b547c36f15
		<tag k="natural" v="water" />
		<tag k="ssr:stedsnr" v="371685" />
	</node>
<<<<<<< HEAD
	<node lat="60.74843333583318" lon="10.730761106171009" id="-24706">
		<tag k="name" v="Amundrustadelva" />
		<tag k="ssr:stedsnr" v="389451" />
		<tag k="waterway" v="river" />
	</node>
	<node lat="60.715105557246765" lon="10.865663893040475" id="-24707">
		<tag k="name" v="Smørvika" />
		<tag k="natural" v="bay" />
		<tag k="ssr:stedsnr" v="389540" />
	</node>
	<node lat="60.64621111323562" lon="10.743858337167845" id="-24720">
		<tag k="name" v="Bøvra" />
		<tag k="ssr:stedsnr" v="390725" />
		<tag k="waterway" v="river" />
	</node>
	<node lat="60.592369444475466" lon="10.999552775243236" id="-24727">
		<tag k="name" v="Toputta" />
=======
	<node id="-384126" lat="60.5957305548" lon="10.9402388825">
		<tag k="alt_name" v="Skjepsjøen" />
		<tag k="name" v="Skjeppsjøen" />
		<tag k="natural" v="water" />
		<tag k="ssr:stedsnr" v="614865" />
		<tag k="water" v="lake" />
	</node>
	<node id="-383097" lat="60.6553916655" lon="10.9486638929">
		<tag k="name" v="Hølja" />
		<tag k="ssr:stedsnr" v="694327" />
		<tag k="waterway" v="stream" />
	</node>
	<node id="-383608" lat="60.4851249972" lon="10.8881277734">
		<tag k="name" v="Lokkerhaugputten" />
>>>>>>> e1d4bc35ff8a6074a6f2e91616a996b547c36f15
		<tag k="natural" v="water" />
		<tag k="ssr:stedsnr" v="403509" />
	</node>
<<<<<<< HEAD
	<node lat="60.60438888649316" lon="11.004094443223618" id="-24728">
		<tag k="name" v="Kristofferputten" />
=======
	<node id="-384119" lat="60.5985333363" lon="11.0843861168">
		<tag k="alt_name" v="Steintjern" />
		<tag k="name" v="Steintjernet" />
>>>>>>> e1d4bc35ff8a6074a6f2e91616a996b547c36f15
		<tag k="natural" v="water" />
		<tag k="ssr:stedsnr" v="403510" />
	</node>
<<<<<<< HEAD
	<node lat="60.56373610799431" lon="11.04700833140141" id="-24730">
		<tag k="name" v="Jønnbekken" />
		<tag k="ssr:stedsnr" v="403521" />
		<tag k="waterway" v="stream" />
	</node>
	<node lat="60.59974722154202" lon="10.920755549935585" id="-24739">
		<tag k="name" v="Holobekken" />
		<tag k="ssr:stedsnr" v="405176" />
		<tag k="waterway" v="stream" />
	</node>
	<node lat="60.4883499985125" lon="10.80967499855013" id="-24753">
		<tag k="alt_name" v="Monssetervika" />
		<tag k="name" v="Monsætervika" />
		<tag k="natural" v="bay" />
		<tag k="ssr:stedsnr" v="431762" />
	</node>
	<node lat="60.496719445057046" lon="10.850305547206913" id="-24758">
		<tag k="name" v="Grønsjøen" />
=======
	<node id="-382825" lat="60.4942500042" lon="10.8411833278">
		<tag k="name" v="Mosetervika" />
		<tag k="natural" v="bay" />
		<tag k="ssr:stedsnr" v="449986" />
	</node>
	<node id="-383336" lat="60.5917666698" lon="11.1000249913">
		<tag k="alt_name" v="Torfestelva, vestre;Vestre Torvfestelva" />
		<tag k="name" v="Vestre Torfestelva" />
		<tag k="ssr:stedsnr" v="917396" />
		<tag k="waterway" v="stream" />
	</node>
	<node id="-384110" lat="60.5696666629" lon="10.8104666685">
		<tag k="alt_name" v="Østre Kulltjern" />
		<tag k="name" v="Veslkoltjernet" />
		<tag k="natural" v="water" />
		<tag k="ssr:stedsnr" v="613631" />
	</node>
	<node id="-383595" lat="60.6019805585" lon="10.8303361124">
		<tag k="alt_name" v="Skjærsjøen" />
		<tag k="name" v="Skjersjøen" />
>>>>>>> e1d4bc35ff8a6074a6f2e91616a996b547c36f15
		<tag k="natural" v="water" />
		<tag k="ssr:stedsnr" v="431783" />
		<tag k="water" v="lake" />
	</node>
<<<<<<< HEAD
	<node lat="60.62037221867399" lon="11.081394451206197" id="-24763">
		<tag k="fixme" v="multiple name tags, choose one and add the other to alt_name" />
		<tag k="name" v="Fjælubekken;Fjellhaugelva" />
		<tag k="ssr:stedsnr" v="432824" />
		<tag k="waterway" v="stream" />
	</node>
	<node lat="60.58979687447237" lon="11.002287248416827" id="-24764">
		<tag k="alt_name" v="Ormtjernet, vestre" />
		<tag k="name" v="Vestre Ormtjernet" />
=======
	<node id="-382823" lat="60.4847722196" lon="10.8759583256">
		<tag k="name" v="Volltjernsbekken" />
		<tag k="ssr:stedsnr" v="449847" />
		<tag k="waterway" v="stream" />
	</node>
	<node id="-383229" lat="60.6147638881" lon="10.9160138862">
		<tag k="name" v="Røyslibekken" />
		<tag k="ssr:stedsnr" v="735853" />
		<tag k="waterway" v="stream" />
	</node>
	<node id="-383079" lat="60.5580249963" lon="10.7384055613">
		<tag k="name" v="Risskogbekken" />
		<tag k="ssr:stedsnr" v="692314" />
		<tag k="waterway" v="stream" />
	</node>
	<node id="-384102" lat="60.5351722228" lon="10.9786138965">
		<tag k="name" v="Høgtjern" />
>>>>>>> e1d4bc35ff8a6074a6f2e91616a996b547c36f15
		<tag k="natural" v="water" />
		<tag k="ssr:stedsnr" v="432625" />
	</node>
<<<<<<< HEAD
	<node lat="60.55334722115035" lon="10.981858325014072" id="-24765">
		<tag k="alt_name" v="Store Myrtjern" />
		<tag k="name" v="Myrtjernet" />
		<tag k="natural" v="water" />
		<tag k="ssr:stedsnr" v="432665" />
	</node>
	<node lat="60.48254444154969" lon="10.952658341410908" id="-24771">
		<tag k="name" v="Daltjernsbekken" />
		<tag k="ssr:stedsnr" v="510134" />
		<tag k="waterway" v="stream" />
	</node>
	<node lat="60.63910555221049" lon="10.80432499665201" id="-24781">
		<tag k="name" v="Garveribekken" />
		<tag k="ssr:stedsnr" v="512229" />
		<tag k="waterway" v="stream" />
	</node>
	<node lat="60.56072500272994" lon="10.853350009006045" id="-24782">
		<tag k="name" v="Grasbekken" />
		<tag k="ssr:stedsnr" v="512583" />
		<tag k="waterway" v="stream" />
	</node>
	<node lat="60.56055555812439" lon="11.099733327892167" id="-24784">
		<tag k="name" v="Elgholpytten" />
=======
	<node id="-383078" lat="60.5113666677" lon="10.8298499987">
		<tag k="name" v="Nordre Bladputt" />
		<tag k="natural" v="water" />
		<tag k="ssr:stedsnr" v="692067" />
		<tag k="water" v="pond" />
	</node>
	<node id="-383586" lat="60.5310055529" lon="10.7248833312">
		<tag k="name" v="Vindfloelva" />
		<tag k="ssr:stedsnr" v="68680" />
		<tag k="waterway" v="stream" />
	</node>
	<node id="-383585" lat="60.5319499962" lon="10.95733333">
		<tag k="name" v="Brennsætersjøen" />
>>>>>>> e1d4bc35ff8a6074a6f2e91616a996b547c36f15
		<tag k="natural" v="water" />
		<tag k="ssr:stedsnr" v="524036" />
	</node>
	<node lat="60.550766662583115" lon="11.068530559094762" id="-24786">
		<tag k="name" v="Langtjern" />
		<tag k="natural" v="water" />
		<tag k="ssr:stedsnr" v="524054" />
	</node>
	<node lat="60.62550277655764" lon="10.990452776583652" id="-24789">
		<tag k="name" v="Hørlandselva" />
		<tag k="ssr:stedsnr" v="524489" />
		<tag k="waterway" v="river" />
	</node>
<<<<<<< HEAD
	<node lat="60.58028611520652" lon="11.080313884087467" id="-24797">
=======
	<node id="-383072" lat="60.5802861152" lon="11.0803138841">
>>>>>>> e1d4bc35ff8a6074a6f2e91616a996b547c36f15
		<tag k="name" v="Vestre Torvfestelva" />
		<tag k="ssr:stedsnr" v="526189" />
		<tag k="waterway" v="river" />
	</node>
<<<<<<< HEAD
	<node lat="60.58092499645041" lon="10.66694166515263" id="-24804">
		<tag k="alt_name" v="Bjørnerudelva" />
		<tag k="name" v="Vigga" />
		<tag k="ssr:stedsnr" v="552170" />
		<tag k="waterway" v="river" />
	</node>
	<node lat="60.58239999602718" lon="11.082413881606824" id="-24806">
		<tag k="name" v="Alterdalselva" />
		<tag k="ssr:stedsnr" v="552691" />
		<tag k="waterway" v="stream" />
	</node>
	<node lat="60.584469440870535" lon="11.047336108353829" id="-24807">
		<tag k="name" v="Store Fløyta" />
		<tag k="natural" v="water" />
		<tag k="old_name" v="Fløita" />
		<tag k="ssr:stedsnr" v="552701" />
	</node>
	<node lat="60.60374166412691" lon="10.69843055794772" id="-24839">
		<tag k="name" v="Ulsrudbekken" />
		<tag k="ssr:stedsnr" v="571578" />
		<tag k="waterway" v="stream" />
	</node>
	<node lat="60.71668332945215" lon="10.875836117131787" id="-24842">
		<tag k="name" v="Tallodden" />
		<tag k="natural" v="cape" />
		<tag k="ssr:stedsnr" v="571338" />
	</node>
	<node lat="60.719261114198446" lon="10.85560554793168" id="-24845">
		<tag k="name" v="Nordviken" />
		<tag k="natural" v="bay" />
		<tag k="ssr:stedsnr" v="572369" />
	</node>
	<node lat="60.544847219687114" lon="10.946802774308418" id="-24848">
=======
	<node id="-383633" lat="60.6313083309" lon="11.0885361102">
		<tag k="name" v="Fjellhaugelva" />
		<tag k="ssr:stedsnr" v="100969" />
		<tag k="waterway" v="river" />
	</node>
	<node id="-383069" lat="60.5053555558" lon="10.7589611131">
		<tag k="name" v="Steinbekken" />
		<tag k="ssr:stedsnr" v="511058" />
		<tag k="waterway" v="stream" />
	</node>
	<node id="-383068" lat="60.4825444415" lon="10.9526583414">
		<tag k="name" v="Daltjernsbekken" />
		<tag k="ssr:stedsnr" v="510134" />
		<tag k="waterway" v="stream" />
	</node>
	<node id="-383162" lat="60.6589416641" lon="10.9714000086">
		<tag k="name" v="Sundvika" />
		<tag k="natural" v="bay" />
		<tag k="ssr:stedsnr" v="586889" />
	</node>
	<node id="-384088" lat="60.5448472197" lon="10.9468027743">
>>>>>>> e1d4bc35ff8a6074a6f2e91616a996b547c36f15
		<tag k="name" v="Svartdalsbekken" />
		<tag k="ssr:stedsnr" v="584890" />
		<tag k="waterway" v="stream" />
	</node>
<<<<<<< HEAD
	<node lat="60.55644722401173" lon="10.981208325245827" id="-24854">
		<tag k="name" v="Vesle Myrtjern" />
		<tag k="natural" v="water" />
		<tag k="ssr:stedsnr" v="584374" />
	</node>
	<node lat="60.660721987865124" lon="10.969797554778841" id="-24860">
		<tag k="name" v="Sundvika" />
		<tag k="natural" v="bay" />
		<tag k="ssr:stedsnr" v="586889" />
	</node>
	<node lat="60.535172222849006" lon="10.978613896466655" id="-24866">
		<tag k="name" v="Høgtjern" />
=======
	<node id="-383574" lat="60.5511644507" lon="11.0056171277">
		<tag k="name" v="Myrsjøen" />
>>>>>>> e1d4bc35ff8a6074a6f2e91616a996b547c36f15
		<tag k="natural" v="water" />
		<tag k="ssr:stedsnr" v="603133" />
	</node>
<<<<<<< HEAD
	<node lat="60.53980277751066" lon="11.025661120125546" id="-24867">
		<tag k="name" v="Hommersjøvika" />
		<tag k="natural" v="bay" />
		<tag k="ssr:stedsnr" v="604378" />
	</node>
	<node lat="60.54104444753934" lon="10.988561119835955" id="-24868">
		<tag k="name" v="Furuputten" />
=======
	<node id="-383060" lat="60.5739777802" lon="10.8153944409">
		<tag k="alt_name" v="Vålsjøen, vesle;Lille Vårsjøen" />
		<tag k="name" v="Vesle Vålsjøen" />
>>>>>>> e1d4bc35ff8a6074a6f2e91616a996b547c36f15
		<tag k="natural" v="water" />
		<tag k="ssr:stedsnr" v="604388" />
	</node>
<<<<<<< HEAD
	<node lat="60.56966666288546" lon="10.810466668529426" id="-24876">
		<tag k="alt_name" v="Østre Kulltjern" />
		<tag k="name" v="Veslkoltjernet" />
=======
	<node id="-384083" lat="60.556447224" lon="10.9812083252">
		<tag k="name" v="Vesle Myrtjern" />
>>>>>>> e1d4bc35ff8a6074a6f2e91616a996b547c36f15
		<tag k="natural" v="water" />
		<tag k="ssr:stedsnr" v="613631" />
	</node>
<<<<<<< HEAD
	<node lat="60.59920555312864" lon="10.987991672279879" id="-24890">
		<tag k="alt_name" v="Oftentjern" />
		<tag k="name" v="Oftentjernet" />
		<tag k="natural" v="water" />
		<tag k="ssr:stedsnr" v="614659" />
	</node>
	<node lat="60.60007777822605" lon="11.101811102889334" id="-24891">
		<tag k="name" v="Sæterputten" />
		<tag k="natural" v="water" />
		<tag k="ssr:stedsnr" v="627993" />
	</node>
	<node lat="60.48611666686303" lon="10.843752781189492" id="-24895">
		<tag k="name" v="Svarttjernsbekken" />
		<tag k="ssr:stedsnr" v="631997" />
		<tag k="waterway" v="stream" />
	</node>
	<node lat="60.594649998390615" lon="11.062863896412921" id="-24908">
		<tag k="name" v="Fjæluputten" />
=======
	<node id="-384081" lat="60.5120027798" lon="11.0146333266">
		<tag k="name" v="Skjellbekken" />
		<tag k="ssr:stedsnr" v="584346" />
		<tag k="waterway" v="stream" />
	</node>
	<node id="-384080" lat="60.5201805563" lon="11.0184749911">
		<tag k="name" v="Jonsokbekken" />
		<tag k="ssr:stedsnr" v="584344" />
		<tag k="waterway" v="stream" />
	</node>
	<node id="-384079" lat="60.5741916697" lon="10.8832777737">
		<tag k="name" v="Hutjern" />
>>>>>>> e1d4bc35ff8a6074a6f2e91616a996b547c36f15
		<tag k="natural" v="water" />
		<tag k="ssr:stedsnr" v="645548" />
		<tag k="water" v="pond" />
	</node>
<<<<<<< HEAD
	<node lat="60.55294722091153" lon="11.077497223721668" id="-24910">
		<tag k="name" v="Lemenpytten" />
=======
	<node id="-383053" lat="60.4902000023" lon="10.8443138905">
		<tag k="alt_name" v="Svarttjern" />
		<tag k="name" v="Svarttjernet" />
>>>>>>> e1d4bc35ff8a6074a6f2e91616a996b547c36f15
		<tag k="natural" v="water" />
		<tag k="ssr:stedsnr" v="645064" />
	</node>
<<<<<<< HEAD
	<node lat="60.62135277547016" lon="10.856258337657536" id="-24945">
		<tag k="name" v="Sagelva" />
		<tag k="ssr:stedsnr" v="735850" />
		<tag k="waterway" v="river" />
	</node>
	<node lat="60.614763888134576" lon="10.91601388615255" id="-24946">
		<tag k="name" v="Røyslibekken" />
		<tag k="ssr:stedsnr" v="735853" />
		<tag k="waterway" v="stream" />
	</node>
	<node lat="60.57831388753615" lon="10.837586105019831" id="-24968">
		<tag k="name" v="Furuputten" />
=======
	<node id="-383052" lat="60.4924000007" lon="10.835074998">
		<tag k="name" v="Flisa" />
>>>>>>> e1d4bc35ff8a6074a6f2e91616a996b547c36f15
		<tag k="natural" v="water" />
		<tag k="ssr:stedsnr" v="754701" />
		<tag k="water" v="pond" />
	</node>
<<<<<<< HEAD
	<node lat="60.546705559736374" lon="11.085413887239694" id="-24971">
		<tag k="name" v="Halmbråteputten" />
		<tag k="natural" v="water" />
		<tag k="ssr:stedsnr" v="767071" />
	</node>
	<node lat="60.58887499695672" lon="11.076794435881414" id="-24978">
		<tag k="name" v="Niputta" />
		<tag k="natural" v="water" />
		<tag k="ssr:stedsnr" v="767964" />
	</node>
	<node lat="60.53826388867633" lon="11.003813880278436" id="-24997">
		<tag k="name" v="Hommersjøputten" />
		<tag k="natural" v="water" />
		<tag k="ssr:stedsnr" v="786384" />
	</node>
	<node lat="60.604805557072616" lon="10.75673611306911" id="-25006">
		<tag k="name" v="Lenaelva" />
		<tag k="ssr:stedsnr" v="796865" />
		<tag k="waterway" v="river" />
	</node>
	<node lat="60.63219999938537" lon="10.926708332734194" id="-25037">
		<tag k="name" v="Slukelva" />
		<tag k="ssr:stedsnr" v="828036" />
		<tag k="waterway" v="river" />
	</node>
	<node lat="60.509891662760324" lon="11.012791672584672" id="-25041">
		<tag k="name" v="Garsjøsvartputten" />
=======
	<node id="-384075" lat="60.7192611142" lon="10.8556055479">
		<tag k="name" v="Nordviken" />
		<tag k="natural" v="bay" />
		<tag k="ssr:stedsnr" v="572369" />
	</node>
	<node id="-383049" lat="60.5310027782" lon="11.0421166722">
		<tag k="name" v="Åtangen" />
		<tag k="natural" v="cape" />
		<tag k="ssr:stedsnr" v="483408" />
	</node>
	<node id="-383048" lat="60.5390694401" lon="11.008202786">
		<tag k="name" v="Myrsjøelva" />
		<tag k="ssr:stedsnr" v="483406" />
		<tag k="waterway" v="river" />
	</node>
	<node id="-383047" lat="60.4951055545" lon="10.7583138839">
		<tag k="alt_name" v="Vindflotjern, søndre" />
		<tag k="name" v="Søndre Vindflotjernet" />
>>>>>>> e1d4bc35ff8a6074a6f2e91616a996b547c36f15
		<tag k="natural" v="water" />
		<tag k="ssr:stedsnr" v="828322" />
		<tag k="water" v="pond" />
	</node>
<<<<<<< HEAD
	<node lat="60.6122388935066" lon="11.089769437034393" id="-25048">
		<tag k="name" v="Sæterbekken" />
		<tag k="ssr:stedsnr" v="828883" />
		<tag k="waterway" v="stream" />
	</node>
	<node lat="60.54221388625867" lon="10.946988894423926" id="-25049">
		<tag k="name" v="Evjuputten" />
		<tag k="natural" v="water" />
		<tag k="ssr:stedsnr" v="830856" />
		<tag k="water" v="pond" />
	</node>
	<node lat="60.559356934004576" lon="11.082998627794527" id="-25060">
		<tag k="alt_name" v="Vestre Torvfasttjern" />
		<tag k="name" v="Torvfasttjerna" />
		<tag k="natural" v="water" />
		<tag k="ssr:stedsnr" v="856687" />
		<tag k="water" v="lake" />
	</node>
	<node lat="60.48932222075242" lon="10.793097221031774" id="-25065">
		<tag k="alt_name" v="Hagletjernet" />
		<tag k="name" v="Hagltjern" />
=======
	<node id="-384319" lat="60.5422138863" lon="10.9469888944">
		<tag k="name" v="Evjuputten" />
		<tag k="natural" v="water" />
		<tag k="ssr:stedsnr" v="830856" />
		<tag k="water" v="pond" />
	</node>
	<node id="-384069" lat="60.6037416641" lon="10.6984305579">
		<tag k="name" v="Ulsrudbekken" />
		<tag k="ssr:stedsnr" v="571578" />
		<tag k="waterway" v="stream" />
	</node>
	<node id="-382972" lat="60.6043888865" lon="11.0040944432">
		<tag k="name" v="Kristofferputten" />
		<tag k="natural" v="water" />
		<tag k="ssr:stedsnr" v="403510" />
	</node>
	<node id="-383041" lat="60.5947805591" lon="10.9597416643">
		<tag k="name" v="Veltfiskelausen" />
		<tag k="natural" v="water" />
		<tag k="ssr:stedsnr" v="463513" />
	</node>
	<node id="-383040" lat="60.5833194476" lon="10.9969305558">
		<tag k="name" v="Mærraputten" />
		<tag k="natural" v="water" />
		<tag k="ssr:stedsnr" v="463272" />
	</node>
	<node id="-383039" lat="60.6167805583" lon="10.9478444355">
		<tag k="name" v="Grønbekken" />
		<tag k="ssr:stedsnr" v="463219" />
		<tag k="waterway" v="stream" />
	</node>
	<node id="-383278" lat="60.5909999996" lon="10.9604249934">
		<tag k="name" v="Fiskelausbekken" />
		<tag k="ssr:stedsnr" v="888493" />
		<tag k="waterway" v="stream" />
	</node>
	<node id="-383036" lat="60.5393194454" lon="10.9588305581">
		<tag k="name" v="Garsjøelva" />
		<tag k="ssr:stedsnr" v="665434" />
		<tag k="waterway" v="river" />
	</node>
	<node id="-383547" lat="60.6097972197" lon="10.9950583358">
		<tag k="name" v="Damtjern" />
>>>>>>> e1d4bc35ff8a6074a6f2e91616a996b547c36f15
		<tag k="natural" v="water" />
		<tag k="ssr:stedsnr" v="856761" />
	</node>
<<<<<<< HEAD
	<node lat="60.53360114248226" lon="11.034710409953155" id="-25077">
		<tag k="name" v="Hersjøen" />
=======
	<node id="-383545" lat="60.5334388854" lon="10.9438555605">
		<tag k="name" v="Svartputten" />
>>>>>>> e1d4bc35ff8a6074a6f2e91616a996b547c36f15
		<tag k="natural" v="water" />
		<tag k="ssr:stedsnr" v="857667" />
		<tag k="water" v="lake" />
	</node>
<<<<<<< HEAD
	<node lat="60.595647223812094" lon="10.860136112651643" id="-25083">
		<tag k="name" v="Synstebytjernet" />
=======
	<node id="-383544" lat="60.5921749987" lon="11.0338888869">
		<tag k="name" v="Brennbergputten" />
>>>>>>> e1d4bc35ff8a6074a6f2e91616a996b547c36f15
		<tag k="natural" v="water" />
		<tag k="ssr:stedsnr" v="857863" />
	</node>
<<<<<<< HEAD
	<node lat="60.50731111202237" lon="10.816094448746174" id="-25090">
		<tag k="name" v="Estentjernbekken" />
		<tag k="ssr:stedsnr" v="875076" />
		<tag k="waterway" v="stream" />
	</node>
	<node lat="60.643627780687055" lon="10.713444441346955" id="-25107">
		<tag k="name" v="Bøvra" />
		<tag k="ssr:stedsnr" v="875551" />
		<tag k="waterway" v="river" />
	</node>
	<node lat="60.58040057427905" lon="11.00906676820984" id="-25118">
		<tag k="name" v="Svartdalstjern" />
=======
	<node id="-384094" lat="60.5939944461" lon="11.0900527795">
		<tag k="name" v="Østre Skreitjern" />
		<tag k="natural" v="water" />
		<tag k="ssr:stedsnr" v="585944" />
	</node>
	<node id="-382856" lat="60.5259916676" lon="10.8457611171">
		<tag k="name" v="Vetl-Bergsjøen" />
		<tag k="natural" v="water" />
		<tag k="ssr:stedsnr" v="268802" />
	</node>
	<node id="-383021" lat="60.6203722187" lon="11.0813944512">
		<tag k="fixme" v="multiple name tags, choose one and add the other to alt_name" />
		<tag k="name" v="Fjellhaugelva;Fjælubekken" />
		<tag k="ssr:stedsnr" v="432824" />
		<tag k="waterway" v="stream" />
	</node>
	<node id="-383532" lat="60.7160305565" lon="10.8655388811">
		<tag k="name" v="Smørvika" />
		<tag k="natural" v="bay" />
		<tag k="ssr:stedsnr" v="26365" />
	</node>
	<node id="-382983" lat="60.5731833346" lon="11.0698722189">
		<tag k="name" v="Korptjern" />
		<tag k="natural" v="water" />
		<tag k="ssr:stedsnr" v="405206" />
	</node>
	<node id="-384040" lat="60.5095249963" lon="10.8285250047">
		<tag k="name" v="Halsteintjernet" />
>>>>>>> e1d4bc35ff8a6074a6f2e91616a996b547c36f15
		<tag k="natural" v="water" />
		<tag k="ssr:stedsnr" v="888223" />
	</node>
<<<<<<< HEAD
	<node lat="60.590999999625666" lon="10.960424993429216" id="-25120">
		<tag k="name" v="Fiskelausbekken" />
		<tag k="ssr:stedsnr" v="888493" />
		<tag k="waterway" v="stream" />
	</node>
	<node lat="60.63903610871078" lon="10.947141668770195" id="-25139">
		<tag k="name" v="Hølja" />
		<tag k="ssr:stedsnr" v="949050" />
		<tag k="waterway" v="river" />
	</node>
	<node lat="60.51032222046098" lon="10.994219451889277" id="-25140">
		<tag k="name" v="Amunddalsputten" />
		<tag k="natural" v="water" />
		<tag k="ssr:stedsnr" v="949302" />
		<tag k="water" v="pond" />
	</node>
	<node lat="60.618844447813224" lon="11.029408330859724" id="-25141">
		<tag k="name" v="Hammerstadelva" />
		<tag k="ssr:stedsnr" v="949469" />
		<tag k="waterway" v="river" />
	</node>
	<node lat="60.58128333683525" lon="11.093083342539671" id="-25143">
		<tag k="name" v="Svartputten" />
		<tag k="natural" v="water" />
		<tag k="ssr:stedsnr" v="951198" />
	</node>
	<node lat="60.65792777504849" lon="10.959133325832251" id="-25144">
		<tag k="name" v="Lenaelva" />
		<tag k="ssr:stedsnr" v="951898" />
		<tag k="waterway" v="river" />
=======
	<node id="-383015" lat="60.5897968745" lon="11.0022872484">
		<tag k="alt_name" v="Ormtjernet, vestre" />
		<tag k="name" v="Vestre Ormtjernet" />
		<tag k="natural" v="water" />
		<tag k="ssr:stedsnr" v="432625" />
	</node>
	<node id="-382982" lat="60.5997472215" lon="10.9207555499">
		<tag k="name" v="Holobekken" />
		<tag k="ssr:stedsnr" v="405176" />
		<tag k="waterway" v="stream" />
	</node>
	<node id="-383323" lat="60.5467055597" lon="11.0854138872">
		<tag k="name" v="Halmbråteputten" />
		<tag k="natural" v="water" />
		<tag k="ssr:stedsnr" v="767071" />
	</node>
	<node id="-383520" lat="60.4898833352" lon="10.9911972312">
		<tag k="alt_name" v="Brennsæterelva" />
		<tag k="name" v="Brennseterelva" />
		<tag k="ssr:stedsnr" v="25135" />
		<tag k="waterway" v="river" />
	</node>
	<node id="-382725" lat="60.5757250031" lon="11.0181083391">
		<tag k="name" v="Svartdalstjern" />
		<tag k="natural" v="water" />
		<tag k="ssr:stedsnr" v="100223" />
	</node>
	<node id="-383004" lat="60.5607250027" lon="10.853350009">
		<tag k="name" v="Grasbekken" />
		<tag k="ssr:stedsnr" v="512583" />
		<tag k="waterway" v="stream" />
	</node>
	<node id="-383005" lat="60.6391055522" lon="10.8043249967">
		<tag k="name" v="Garveribekken" />
		<tag k="ssr:stedsnr" v="512229" />
		<tag k="waterway" v="stream" />
	</node>
	<node id="-384025" lat="60.5844694409" lon="11.0473361084">
		<tag k="name" v="Store Fløyta" />
		<tag k="natural" v="water" />
		<tag k="old_name" v="Fløita" />
		<tag k="ssr:stedsnr" v="552701" />
	</node>
	<node id="-384024" lat="60.582399996" lon="11.0824138816">
		<tag k="name" v="Alterdalselva" />
		<tag k="ssr:stedsnr" v="552691" />
		<tag k="waterway" v="stream" />
	</node>
	<node id="-382724" lat="60.544347224" lon="11.0817416585">
		<tag k="name" v="Halmbråtetjern" />
		<tag k="natural" v="water" />
		<tag k="ssr:stedsnr" v="100068" />
	</node>
	<node id="-384022" lat="60.5809249965" lon="10.6669416652">
		<tag k="alt_name" v="Bjørnerudelva" />
		<tag k="name" v="Vigga" />
		<tag k="ssr:stedsnr" v="552170" />
		<tag k="waterway" v="river" />
	</node>
	<node id="-384019" lat="60.5278944485" lon="10.9915999981">
		<tag k="name" v="Blylotta" />
		<tag k="natural" v="water" />
		<tag k="ssr:stedsnr" v="543184" />
	</node>
	<node id="-383576" lat="60.6598470126" lon="10.979283441">
		<tag k="name" v="Totenvika" />
		<tag k="natural" v="bay" />
		<tag k="ssr:stedsnr" v="67758" />
	</node>
	<node id="-383056" lat="60.6553027787" lon="10.6880944496">
		<tag k="name" v="Bøvra" />
		<tag k="ssr:stedsnr" v="674252" />
		<tag k="waterway" v="stream" />
>>>>>>> e1d4bc35ff8a6074a6f2e91616a996b547c36f15
	</node>
	<node id="-383494" lat="60.590442594" lon="11.043217377">
		<tag k="alt_name" v="Hofsrudtjern" />
		<tag k="name" v="Hofsrudtjernet" />
		<tag k="natural" v="water" />
		<tag k="ssr:stedsnr" v="7621" />
	</node>
	<node id="-383493" lat="60.5396055528" lon="11.0963111134">
		<tag k="alt_name" v="Hekatjern" />
		<tag k="name" v="Hækatjernet" />
		<tag k="natural" v="water" />
		<tag k="ssr:stedsnr" v="7456" />
	</node>
	<node id="-383062" lat="60.4727611092" lon="10.9115527833">
		<tag k="alt_name" v="Bjørnåstjenn;Bjørnåstjennet" />
		<tag k="name" v="Bjønnåstjenn" />
		<tag k="natural" v="water" />
		<tag k="ssr:stedsnr" v="674724" />
	</node>
	<node id="-382680" lat="60.5723000037" lon="10.9031500076">
		<tag k="alt_name" v="Tjuvåstjern" />
		<tag k="name" v="Tjuvåstjernet" />
		<tag k="natural" v="water" />
		<tag k="ssr:stedsnr" v="249622" />
	</node>
</osm>
