<?xml version="1.0" encoding="UTF-8"?>
<osm generator="osmapis" version="0.6">
	<node id="-384383" lat="60.6819166684" lon="10.8241333262">
		<tag k="bridge" v="yes" />
		<tag k="layer" v="1" />
		<tag k="name" v="Lillo" />
		<tag k="ssr:stedsnr" v="957113" />
	</node>
	<node id="-384382" lat="60.6448611154" lon="11.0154166741">
		<tag k="bridge" v="yes" />
		<tag k="layer" v="1" />
		<tag k="name" v="Ekeren" />
		<tag k="ssr:stedsnr" v="957097" />
	</node>
	<node id="-384381" lat="60.6511222256" lon="10.9453138886">
		<tag k="bridge" v="yes" />
		<tag k="layer" v="1" />
		<tag k="name" v="Hølje" />
		<tag k="ssr:stedsnr" v="957094" />
	</node>
	<node id="-382842" lat="60.6644388905" lon="10.9255944477">
		<tag k="junction" v="yes" />
		<tag k="name" v="Vennevoll" />
		<tag k="place" v="locality" />
		<tag k="ssr:stedsnr" v="451378" />
	</node>
	<node id="-384244" lat="60.6775694474" lon="10.8064222219">
		<tag k="bridge" v="yes" />
		<tag k="layer" v="1" />
		<tag k="name" v="Seierstad" />
		<tag k="ssr:stedsnr" v="774118" />
	</node>
	<node id="-384243" lat="60.7311249963" lon="10.8063500057">
		<tag k="bridge" v="yes" />
		<tag k="layer" v="1" />
		<tag k="name" v="Dæhlen" />
		<tag k="ssr:stedsnr" v="774103" />
	</node>
	<node id="-384242" lat="60.7178333306" lon="10.8223638921">
		<tag k="bridge" v="yes" />
		<tag k="layer" v="1" />
		<tag k="name" v="Hermanrud" />
		<tag k="ssr:stedsnr" v="774100" />
	</node>
	<node id="-383855" lat="60.7186833332" lon="10.8589750051">
		<tag k="leisure" v="marina" />
		<tag k="name" v="Småbåthavn" />
		<tag k="ssr:stedsnr" v="330381" />
	</node>
	<node id="-383726" lat="60.6100416697" lon="11.1210138846">
		<tag k="bridge" v="yes" />
		<tag k="layer" v="1" />
		<tag k="name" v="Mikkelsborg" />
		<tag k="ssr:stedsnr" v="168125" />
	</node>
	<node id="-383165" lat="60.6407555514" lon="10.9239888927">
		<tag k="bridge" v="yes" />
		<tag k="layer" v="1" />
		<tag k="name" v="Nydalen" />
		<tag k="ssr:stedsnr" v="714098" />
	</node>
	<node id="-384100" lat="60.6272388875" lon="10.8877083296">
		<tag k="bridge" v="yes" />
		<tag k="layer" v="1" />
		<tag k="name" v="Olterud" />
		<tag k="ssr:stedsnr" v="592115" />
	</node>
	<node id="-384099" lat="60.6301583364" lon="11.0888222212">
		<tag k="bridge" v="yes" />
		<tag k="layer" v="1" />
		<tag k="name" v="Fjellhaug nordre" />
		<tag k="ssr:stedsnr" v="592090" />
	</node>
	<node id="-383781" lat="60.4904027796" lon="10.7845749922">
		<tag k="ford" v="yes" />
		<tag k="name" v="Toppåsvadet" />
		<tag k="place" v="locality" />
		<tag k="ssr:stedsnr" v="207203" />
	</node>
	<node id="-382812" lat="60.6770722237" lon="10.8684583405">
		<tag k="bridge" v="yes" />
		<tag k="layer" v="1" />
		<tag k="name" v="Brunsberg" />
		<tag k="ssr:stedsnr" v="289085" />
	</node>
	<node id="-383963" lat="60.5863888881" lon="10.7644583401">
		<tag k="bridge" v="yes" />
		<tag k="layer" v="1" />
		<tag k="name" v="Møllerhaugen" />
		<tag k="ssr:stedsnr" v="410113" />
	</node>
	<node id="-383194" lat="60.5099166679" lon="10.8703805617">
		<tag k="highway" v="path" />
		<tag k="name" v="Nysetervegen" />
		<tag k="ssr:stedsnr" v="630981" />
	</node>
	<node id="-383652" lat="60.6170916703" lon="11.115502783">
		<tag k="bridge" v="yes" />
		<tag k="layer" v="1" />
		<tag k="name" v="Skreklingbekk" />
		<tag k="ssr:stedsnr" v="107087" />
	</node>
	<node id="-383313" lat="60.6324805513" lon="10.8798833329">
		<tag k="bridge" v="yes" />
		<tag k="layer" v="1" />
		<tag k="name" v="Sagelv" />
		<tag k="ssr:stedsnr" v="896100" />
	</node>
	<node id="-383312" lat="60.6007611121" lon="11.1279611054">
		<tag k="bridge" v="yes" />
		<tag k="layer" v="1" />
		<tag k="name" v="Torvfesta" />
		<tag k="ssr:stedsnr" v="896097" />
	</node>
	<node id="-383311" lat="60.6716694443" lon="10.8118194525">
		<tag k="bridge" v="yes" />
		<tag k="layer" v="1" />
		<tag k="name" v="Gjerstad" />
		<tag k="ssr:stedsnr" v="896083" />
	</node>
	<node id="-383949" lat="60.6737222211" lon="10.8174277686">
		<tag k="name" v="Lena stasjon" />
		<tag k="railway" v="station" />
		<tag k="ssr:stedsnr" v="403629" />
		<tag k="train" v="yes" />
	</node>
	<node id="-383561" lat="60.7265500031" lon="10.8155944484">
		<tag k="bridge" v="yes" />
		<tag k="layer" v="1" />
		<tag k="name" v="Bjørnstad" />
		<tag k="ssr:stedsnr" v="46103" />
	</node>
	<node id="-383560" lat="60.7162527773" lon="10.8215527744">
		<tag k="bridge" v="yes" />
		<tag k="layer" v="1" />
		<tag k="name" v="Heggshus" />
		<tag k="ssr:stedsnr" v="46093" />
	</node>
	<node id="-383559" lat="60.6205916693" lon="11.1131416637">
		<tag k="bridge" v="yes" />
		<tag k="layer" v="1" />
		<tag k="name" v="Langsletta" />
		<tag k="ssr:stedsnr" v="46090" />
	</node>
	<node id="-384323" lat="60.6434805566" lon="11.0291555516">
		<tag k="bridge" v="yes" />
		<tag k="layer" v="1" />
		<tag k="name" v="Hammerstad" />
		<tag k="ssr:stedsnr" v="835088" />
	</node>
	<node id="-384322" lat="60.5857583368" lon="10.7522749986">
		<tag k="bridge" v="yes" />
		<tag k="layer" v="1" />
		<tag k="name" v="Humle" />
		<tag k="ssr:stedsnr" v="835084" />
	</node>
	<node id="-382657" lat="60.6699817753" lon="10.7792061051">
		<tag k="junction" v="yes" />
		<tag k="loc_name" v="Skjølskrysset" />
		<tag k="name" v="Skjølkrysset" />
		<tag k="place" v="locality" />
		<tag k="ssr:stedsnr" v="230430" />
	</node>
	<node id="-384191" lat="60.7257444441" lon="10.7932749926">
		<tag k="junction" v="yes" />
		<tag k="name" v="Haugkrysset" />
		<tag k="place" v="locality" />
		<tag k="ssr:stedsnr" v="754303" />
	</node>
	<node id="-383933" lat="60.653191669" lon="10.9329444427">
		<tag k="name" v="Skreia stasjon" />
		<tag k="railway" v="halt" />
		<tag k="ssr:stedsnr" v="390336" />
		<tag k="train" v="yes" />
	</node>
	<node id="-383548" lat="60.5523277758" lon="11.0431138854">
		<tag k="bridge" v="yes" />
		<tag k="layer" v="1" />
		<tag k="name" v="Hørlandsvaet" />
		<tag k="ssr:stedsnr" v="39497" />
	</node>
	<node id="-382810" lat="60.6491638913" lon="10.9272666632">
		<tag k="alt_name" v="Kjølseth" />
		<tag k="bridge" v="yes" />
		<tag k="layer" v="1" />
		<tag k="name" v="Kjølset" />
		<tag k="ssr:stedsnr" v="289079" />
	</node>
	<node id="-384054" lat="60.493600002" lon="10.8437638842">
		<tag k="highway" v="path" />
		<tag k="name" v="Grønsjøvegen" />
		<tag k="ssr:stedsnr" v="570994" />
	</node>
	<node id="-383027" lat="60.4964777798" lon="10.8653694504">
		<tag k="highway" v="path" />
		<tag k="name" v="Bergsetervegen" />
		<tag k="ssr:stedsnr" v="449832" />
	</node>
	<node id="-382642" lat="60.5132611068" lon="10.760919437">
		<tag k="bridge" v="yes" />
		<tag k="layer" v="1" />
		<tag k="name" v="Moldstadsæterkloppa" />
		<tag k="ssr:stedsnr" v="26046" />
	</node>
	<node id="-383885" lat="60.7116416698" lon="10.8190055543">
		<tag k="bridge" v="yes" />
		<tag k="layer" v="1" />
		<tag k="name" v="Ringdal" />
		<tag k="ssr:stedsnr" v="349132" />
	</node>
	<node id="-383397" lat="60.5634888881" lon="10.7081250014">
		<tag k="barrier" v="lift_gate" />
		<tag k="name" v="Bom" />
		<tag k="place" v="locality" />
		<tag k="ssr:stedsnr" v="936727" />
	</node>
	<node id="-383780" lat="60.4925083318" lon="10.8412666592">
		<tag k="highway" v="path" />
		<tag k="name" v="Skålåsstien" />
		<tag k="ssr:stedsnr" v="207000" />
	</node>
	<node id="-383651" lat="60.6222138894" lon="11.110186108">
		<tag k="bridge" v="yes" />
		<tag k="layer" v="1" />
		<tag k="name" v="Sortdal" />
		<tag k="ssr:stedsnr" v="107086" />
	</node>
	<node id="-383650" lat="60.6124333303" lon="11.119483332">
		<tag k="bridge" v="yes" />
		<tag k="layer" v="1" />
		<tag k="name" v="Falkedal" />
		<tag k="ssr:stedsnr" v="107072" />
	</node>
	<node id="-382811" lat="60.6406388932" lon="11.049438883">
		<tag k="bridge" v="yes" />
		<tag k="layer" v="1" />
		<tag k="name" v="Buksrud" />
		<tag k="ssr:stedsnr" v="289084" />
	</node>
	<node id="-384415" lat="60.6450048627" lon="11.0464992493">
		<tag k="man_made" v="quay" />
		<tag k="name" v="Evjua" />
		<tag k="place" v="locality" />
		<tag k="ssr:stedsnr" v="983672" />
	</node>
	<node id="-383414" lat="60.6419638903" lon="10.9000000006">
		<tag k="bridge" v="yes" />
		<tag k="layer" v="1" />
		<tag k="name" v="Prøven" />
		<tag k="ssr:stedsnr" v="835116" />
	</node>
	<node id="-383962" lat="60.6117583352" lon="10.7572666619">
		<tag k="bridge" v="yes" />
		<tag k="layer" v="1" />
		<tag k="name" v="Bråstad" />
		<tag k="ssr:stedsnr" v="410096" />
	</node>
	<node id="-382872" lat="60.6977666705" lon="10.8226416705">
		<tag k="bridge" v="yes" />
		<tag k="layer" v="1" />
		<tag k="name" v="Viker" />
		<tag k="ssr:stedsnr" v="471106" />
	</node>
	<node id="-382871" lat="60.6384861134" lon="10.8650194422">
		<tag k="bridge" v="yes" />
		<tag k="layer" v="1" />
		<tag k="name" v="Farås" />
		<tag k="ssr:stedsnr" v="471091" />
	</node>
	<node id="-382958" lat="60.4898083364" lon="10.7853194443">
		<tag k="ford" v="yes" />
		<tag k="name" v="Hagletjernvadet" />
		<tag k="place" v="locality" />
		<tag k="ssr:stedsnr" v="389215" />
	</node>
	<node id="-383889" lat="60.6521972224" lon="11.0070111165">
		<tag k="loc_name" v="Ponnengbrygga" />
		<tag k="man_made" v="quay" />
		<tag k="name" v="Ponnengen brygge" />
		<tag k="place" v="locality" />
		<tag k="ssr:stedsnr" v="350374" />
	</node>
	<node id="-383886" lat="60.6443833327" lon="10.7224111113">
		<tag k="bridge" v="yes" />
		<tag k="layer" v="1" />
		<tag k="name" v="Nerset" />
		<tag k="ssr:stedsnr" v="349134" />
	</node>
	<node id="-384013" lat="60.6054083292" lon="10.7332472277">
		<tag k="bridge" v="yes" />
		<tag k="layer" v="1" />
		<tag k="name" v="Dalborgen" />
		<tag k="ssr:stedsnr" v="532088" />
	</node>
	<node id="-383884" lat="60.6447833341" lon="10.8321694533">
		<tag k="bridge" v="yes" />
		<tag k="layer" v="1" />
		<tag k="name" v="Ødegård" />
		<tag k="ssr:stedsnr" v="349128" />
	</node>
	<node id="-384008" lat="60.5696527803" lon="11.1078055554">
		<tag k="ford" v="yes" />
		<tag k="name" v="Nysetervaet" />
		<tag k="place" v="locality" />
		<tag k="ssr:stedsnr" v="526987" />
	</node>
	<node id="-382851" lat="60.6999555513" lon="10.8305416603">
		<tag k="junction" v="yes" />
		<tag k="name" v="Svalbard" />
		<tag k="place" v="locality" />
		<tag k="ssr:stedsnr" v="451653" />
	</node>
</osm>
