<?xml version="1.0" encoding="UTF-8"?>
<<<<<<< HEAD
<osm version="0.6" generator="osmapis">
	<node lat="60.59764166345322" lon="11.101355551190071" id="-23365">
		<tag k="name" v="Skreifjella" />
		<tag k="natural" v="mountain_range" />
		<tag k="ssr:stedsnr" v="7414" />
	</node>
	<node lat="60.60834722481814" lon="10.988572213431125" id="-23373">
		<tag k="fixme" v="consider natural=peak for the most distinct mountains in the district" />
		<tag k="name" v="Skreikampen" />
		<tag k="natural" v="hill" />
		<tag k="place" v="locality" />
		<tag k="ssr:stedsnr" v="7852" />
	</node>
	<node lat="60.564030557021155" lon="11.01756110324881" id="-23402">
		<tag k="alt_name" v="Øyungsskarven" />
		<tag k="fixme" v="consider natural=peak for the most distinct mountains in the district" />
		<tag k="name" v="Øyungskurven" />
		<tag k="natural" v="hill" />
		<tag k="place" v="locality" />
		<tag k="ssr:stedsnr" v="67690" />
	</node>
	<node lat="60.56962777407883" lon="10.937980552760372" id="-23436">
		<tag k="fixme" v="consider natural=peak for the most distinct mountains in the district" />
		<tag k="name" v="Torsæterkampen" />
		<tag k="natural" v="hill" />
		<tag k="place" v="locality" />
		<tag k="ssr:stedsnr" v="249619" />
	</node>
	<node lat="60.54006666991" lon="10.87616666801958" id="-23442">
		<tag k="alt_name" v="Jensseterhøgda" />
		<tag k="fixme" v="consider natural=peak for the most distinct mountains in the district" />
		<tag k="name" v="Jenssæteråsen" />
		<tag k="natural" v="hill" />
		<tag k="place" v="locality" />
		<tag k="ssr:stedsnr" v="249656" />
	</node>
	<node lat="60.48224166337438" lon="10.88978610704024" id="-23447">
		<tag k="alt_name" v="Lokkhaugen" />
		<tag k="name" v="Lokkerhaugen" />
		<tag k="natural" v="hill" />
		<tag k="place" v="locality" />
		<tag k="ssr:stedsnr" v="249713" />
	</node>
	<node lat="60.49964444783447" lon="10.97623610542598" id="-23500">
		<tag k="name" v="Holtet" />
		<tag k="place" v="locality" />
		<tag k="ssr:stedsnr" v="146124" />
	</node>
	<node lat="60.60828888573164" lon="10.999872217716389" id="-23524">
		<tag k="alt_name" v="Hvervenknappen" />
		<tag k="fixme" v="consider natural=peak for the most distinct mountains in the district" />
		<tag k="name" v="Hervakampen" />
		<tag k="natural" v="hill" />
		<tag k="place" v="locality" />
		<tag k="ssr:stedsnr" v="189865" />
	</node>
	<node lat="60.60870277865728" lon="10.988388897941194" id="-23537">
=======
<osm generator="osmapis" version="0.6">
	<node id="-384000" lat="60.5966916692" lon="11.0450583351">
>>>>>>> e1d4bc35ff8a6074a6f2e91616a996b547c36f15
		<tag k="fixme" v="consider natural=peak for the most distinct mountains in the district" />
		<tag k="name" v="Nyhusknappen" />
		<tag k="natural" v="hill" />
		<tag k="place" v="locality" />
		<tag k="ssr:stedsnr" v="202452" />
	</node>
<<<<<<< HEAD
	<node lat="60.5869694421952" lon="10.997208325648781" id="-23560">
		<tag k="name" v="Høgbrenna" />
		<tag k="natural" v="hill" />
		<tag k="place" v="locality" />
		<tag k="ssr:stedsnr" v="221504" />
	</node>
	<node lat="60.501986114498" lon="10.81826388577784" id="-23572">
		<tag k="fixme" v="consider natural=peak for the most distinct mountains in the district" />
		<tag k="name" v="Monsseterhøgda" />
=======
	<node id="-383488" lat="60.4963166646" lon="10.9493361095">
		<tag k="name" v="Lauvkampen" />
		<tag k="natural" v="hill" />
		<tag k="place" v="locality" />
		<tag k="ssr:stedsnr" v="6735" />
	</node>
	<node id="-382973" lat="60.6268611112" lon="11.0309361111">
		<tag k="name" v="Gaupbergknappen" />
>>>>>>> e1d4bc35ff8a6074a6f2e91616a996b547c36f15
		<tag k="natural" v="hill" />
		<tag k="place" v="locality" />
		<tag k="ssr:stedsnr" v="450056" />
	</node>
<<<<<<< HEAD
	<node lat="60.51939444159653" lon="10.774599996513473" id="-23581">
		<tag k="name" v="Slepa" />
=======
	<node id="-382970" lat="60.6014611151" lon="10.988569436">
		<tag k="fixme" v="consider natural=peak for the most distinct mountains in the district" />
		<tag k="name" v="Oftentjernshøgda" />
		<tag k="natural" v="hill" />
>>>>>>> e1d4bc35ff8a6074a6f2e91616a996b547c36f15
		<tag k="place" v="locality" />
		<tag k="ssr:stedsnr" v="451047" />
	</node>
<<<<<<< HEAD
	<node lat="60.510275000964874" lon="10.932161118061153" id="-23598">
		<tag k="name" v="Lauvhøgda" />
		<tag k="natural" v="hill" />
		<tag k="place" v="locality" />
		<tag k="ssr:stedsnr" v="267739" />
	</node>
	<node lat="60.520019440566124" lon="10.761363889908166" id="-23609">
		<tag k="name" v="Styggdalen" />
		<tag k="natural" v="valley" />
=======
	<node id="-382975" lat="60.5525749981" lon="11.0614055476">
		<tag k="fixme" v="consider natural=peak for the most distinct mountains in the district" />
		<tag k="name" v="Langtjernshøgda" />
		<tag k="natural" v="hill" />
		<tag k="place" v="locality" />
		<tag k="ssr:stedsnr" v="403524" />
	</node>
	<node id="-383477" lat="60.5988805594" lon="11.0222194405">
		<tag k="fixme" v="consider natural=peak for the most distinct mountains in the district" />
		<tag k="name" v="Vinsåsen" />
		<tag k="natural" v="hill" />
>>>>>>> e1d4bc35ff8a6074a6f2e91616a996b547c36f15
		<tag k="place" v="locality" />
		<tag k="ssr:stedsnr" v="269033" />
	</node>
<<<<<<< HEAD
	<node lat="60.57995833706437" lon="11.03454445363364" id="-23613">
		<tag k="name" v="Jyridalen" />
		<tag k="natural" v="valley" />
		<tag k="place" v="locality" />
		<tag k="ssr:stedsnr" v="282219" />
	</node>
	<node lat="60.501958332414254" lon="10.962875001608806" id="-23615">
		<tag k="fixme" v="consider natural=peak for the most distinct mountains in the district" />
		<tag k="name" v="Kultomhatten" />
		<tag k="natural" v="hill" />
		<tag k="place" v="locality" />
		<tag k="ssr:stedsnr" v="282304" />
	</node>
	<node lat="60.598563890354406" lon="10.974291666023026" id="-23616">
=======
	<node id="-382803" lat="60.5741583376" lon="11.0786972254">
		<tag k="name" v="Slåttmyrdalen" />
		<tag k="natural" v="valley" />
		<tag k="place" v="locality" />
		<tag k="ssr:stedsnr" v="283163" />
	</node>
	<node id="-383968" lat="60.5665555554" lon="10.8988166614">
>>>>>>> e1d4bc35ff8a6074a6f2e91616a996b547c36f15
		<tag k="fixme" v="consider natural=peak for the most distinct mountains in the district" />
		<tag k="name" v="Fiskelaushøgda" />
		<tag k="natural" v="hill" />
		<tag k="place" v="locality" />
		<tag k="ssr:stedsnr" v="282517" />
	</node>
<<<<<<< HEAD
	<node lat="60.620799999413904" lon="11.01231389754459" id="-23617">
		<tag k="name" v="Trogstadhøgda" />
=======
	<node id="-383453" lat="60.5855333373" lon="11.0341111034">
		<tag k="name" v="Gåstjernshøgda" />
>>>>>>> e1d4bc35ff8a6074a6f2e91616a996b547c36f15
		<tag k="natural" v="hill" />
		<tag k="place" v="locality" />
		<tag k="ssr:stedsnr" v="282524" />
	</node>
<<<<<<< HEAD
	<node lat="60.59368611253045" lon="11.047772223550036" id="-23620">
		<tag k="name" v="Fløytildalen" />
		<tag k="natural" v="valley" />
		<tag k="old_name" v="Floitildalen" />
=======
	<node id="-383446" lat="60.4915461557" lon="10.9234045606">
		<tag k="name" v="Midtbulia" />
		<tag k="natural" v="slope" />
>>>>>>> e1d4bc35ff8a6074a6f2e91616a996b547c36f15
		<tag k="place" v="locality" />
		<tag k="ssr:stedsnr" v="282568" />
	</node>
<<<<<<< HEAD
	<node lat="60.56999166903609" lon="10.978205561641698" id="-23664">
		<tag k="fixme" v="consider natural=peak for the most distinct mountains in the district" />
		<tag k="name" v="Linhammerbrenna" />
		<tag k="natural" v="hill" />
		<tag k="place" v="locality" />
		<tag k="ssr:stedsnr" v="342247" />
	</node>
	<node lat="60.53523055375835" lon="10.92186943712037" id="-23669">
		<tag k="name" v="Smørdalen" />
		<tag k="natural" v="valley" />
		<tag k="place" v="locality" />
		<tag k="ssr:stedsnr" v="342811" />
	</node>
	<node lat="60.54831388681396" lon="10.935649992795625" id="-23670">
		<tag k="name" v="Svartdalen" />
		<tag k="natural" v="valley" />
		<tag k="place" v="locality" />
		<tag k="ssr:stedsnr" v="342822" />
	</node>
	<node lat="60.572791663962406" lon="11.092697224296085" id="-23673">
		<tag k="fixme" v="consider natural=peak for the most distinct mountains in the district" />
		<tag k="name" v="Midtre Gråberget" />
		<tag k="natural" v="hill" />
		<tag k="place" v="locality" />
		<tag k="ssr:stedsnr" v="344203" />
	</node>
	<node lat="60.51358611308697" lon="10.751272230106578" id="-23695">
		<tag k="name" v="Demminga" />
		<tag k="place" v="locality" />
		<tag k="ssr:stedsnr" v="389093" />
	</node>
	<node lat="60.55257499808799" lon="11.061405547569667" id="-23714">
=======
	<node id="-382969" lat="60.5222694444" lon="11.0257138955">
		<tag k="name" v="Mørksjørøet" />
		<tag k="natural" v="hill" />
		<tag k="place" v="locality" />
		<tag k="ssr:stedsnr" v="403319" />
	</node>
	<node id="-383443" lat="60.6179972252" lon="11.0589999941">
		<tag k="alt_name" v="Oppegårdskampen" />
		<tag k="name" v="Oppegardskampen" />
		<tag k="natural" v="hill" />
		<tag k="place" v="locality" />
		<tag k="ssr:stedsnr" v="949485" />
	</node>
	<node id="-383954" lat="60.5943861073" lon="10.9332555467">
		<tag k="name" v="Holomarka" />
		<tag k="place" v="locality" />
		<tag k="ssr:stedsnr" v="405179" />
	</node>
	<node id="-382902" lat="60.4913500027" lon="10.8584555489">
>>>>>>> e1d4bc35ff8a6074a6f2e91616a996b547c36f15
		<tag k="fixme" v="consider natural=peak for the most distinct mountains in the district" />
		<tag k="name" v="Langtjernshøgda" />
		<tag k="natural" v="hill" />
		<tag k="place" v="locality" />
		<tag k="ssr:stedsnr" v="403524" />
	</node>
<<<<<<< HEAD
	<node lat="60.60146111505147" lon="10.988569435951579" id="-23716">
=======
	<node id="-382899" lat="60.572791664" lon="11.0926972243">
>>>>>>> e1d4bc35ff8a6074a6f2e91616a996b547c36f15
		<tag k="fixme" v="consider natural=peak for the most distinct mountains in the district" />
		<tag k="name" v="Oftentjernshøgda" />
		<tag k="natural" v="hill" />
		<tag k="place" v="locality" />
		<tag k="ssr:stedsnr" v="403502" />
	</node>
<<<<<<< HEAD
	<node lat="60.60928055541352" lon="11.074505563673904" id="-23718">
		<tag k="name" v="Østre Nyhusdalen" />
=======
	<node id="-382898" lat="60.5483138868" lon="10.9356499928">
		<tag k="name" v="Svartdalen" />
>>>>>>> e1d4bc35ff8a6074a6f2e91616a996b547c36f15
		<tag k="natural" v="valley" />
		<tag k="place" v="locality" />
		<tag k="ssr:stedsnr" v="403905" />
	</node>
<<<<<<< HEAD
	<node lat="60.5665555554198" lon="10.898816661400275" id="-23726">
		<tag k="fixme" v="consider natural=peak for the most distinct mountains in the district" />
		<tag k="name" v="Tjuvåskampen" />
		<tag k="natural" v="hill" />
=======
	<node id="-382897" lat="60.5352305538" lon="10.9218694371">
		<tag k="name" v="Smørdalen" />
		<tag k="natural" v="valley" />
>>>>>>> e1d4bc35ff8a6074a6f2e91616a996b547c36f15
		<tag k="place" v="locality" />
		<tag k="ssr:stedsnr" v="431655" />
	</node>
<<<<<<< HEAD
	<node lat="60.49851666969029" lon="10.869872215764293" id="-23777">
		<tag k="fixme" v="consider natural=peak for the most distinct mountains in the district" />
		<tag k="name" v="Gaupåsen" />
		<tag k="natural" v="hill" />
		<tag k="place" v="locality" />
		<tag k="ssr:stedsnr" v="673757" />
	</node>
	<node lat="60.49107587113235" lon="10.859987495060938" id="-23810">
		<tag k="fixme" v="consider natural=peak for the most distinct mountains in the district" />
		<tag k="name" v="Skålåsen" />
		<tag k="natural" v="hill" />
=======
	<node id="-383918" lat="60.5135861131" lon="10.7512722301">
		<tag k="name" v="Demminga" />
>>>>>>> e1d4bc35ff8a6074a6f2e91616a996b547c36f15
		<tag k="place" v="locality" />
		<tag k="ssr:stedsnr" v="491716" />
	</node>
<<<<<<< HEAD
	<node lat="60.48327500208253" lon="10.82799166261296" id="-23829">
		<tag k="name" v="Svartunglia" />
=======
	<node id="-383917" lat="60.5162222207" lon="10.8278444499">
		<tag k="name" v="Driterbakka" />
>>>>>>> e1d4bc35ff8a6074a6f2e91616a996b547c36f15
		<tag k="natural" v="slope" />
		<tag k="place" v="locality" />
		<tag k="ssr:stedsnr" v="511222" />
	</node>
<<<<<<< HEAD
	<node lat="60.536099999947695" lon="10.982169452912693" id="-23856">
		<tag k="name" v="Brennsæterryggen" />
		<tag k="natural" v="ridge" />
=======
	<node id="-383916" lat="60.5294277794" lon="10.8795222176">
		<tag k="name" v="Knutsberget" />
		<tag k="natural" v="hill" />
>>>>>>> e1d4bc35ff8a6074a6f2e91616a996b547c36f15
		<tag k="place" v="locality" />
		<tag k="ssr:stedsnr" v="544374" />
	</node>
<<<<<<< HEAD
	<node lat="60.49791666554203" lon="10.886483341793497" id="-23872">
		<tag k="name" v="Midtbulia" />
=======
	<node id="-382891" lat="60.7100722261" lon="10.8873611069">
		<tag k="name" v="Østlia" />
>>>>>>> e1d4bc35ff8a6074a6f2e91616a996b547c36f15
		<tag k="natural" v="slope" />
		<tag k="place" v="locality" />
		<tag k="ssr:stedsnr" v="691859" />
	</node>
<<<<<<< HEAD
	<node lat="60.63844444684436" lon="10.838038885390839" id="-23877">
		<tag k="name" v="Sauhaugen" />
		<tag k="natural" v="hill" />
=======
	<node id="-382882" lat="60.5405055584" lon="10.8607722304">
		<tag k="name" v="Jensseterlia" />
		<tag k="natural" v="slope" />
>>>>>>> e1d4bc35ff8a6074a6f2e91616a996b547c36f15
		<tag k="place" v="locality" />
		<tag k="ssr:stedsnr" v="693395" />
	</node>
<<<<<<< HEAD
	<node lat="60.50918333265203" lon="10.771833328253358" id="-23880">
		<tag k="name" v="Tømmertorget" />
		<tag k="place" v="locality" />
		<tag k="ssr:stedsnr" v="693066" />
	</node>
	<node lat="60.507861109907594" lon="10.823686111567575" id="-23891">
=======
	<node id="-383391" lat="60.4957083367" lon="10.7696027745">
>>>>>>> e1d4bc35ff8a6074a6f2e91616a996b547c36f15
		<tag k="fixme" v="consider natural=peak for the most distinct mountains in the district" />
		<tag k="name" v="Halsteinåsen" />
		<tag k="natural" v="hill" />
		<tag k="place" v="locality" />
		<tag k="ssr:stedsnr" v="571071" />
	</node>
<<<<<<< HEAD
	<node lat="60.49620555429371" lon="10.793338887931196" id="-23892">
		<tag k="name" v="Skurperudlia" />
=======
	<node id="-382789" lat="60.5985638904" lon="10.974291666">
		<tag k="fixme" v="consider natural=peak for the most distinct mountains in the district" />
		<tag k="name" v="Fiskelaushøgda" />
		<tag k="natural" v="hill" />
		<tag k="place" v="locality" />
		<tag k="ssr:stedsnr" v="282517" />
	</node>
	<node id="-383388" lat="60.4821055519" lon="10.8596500063">
		<tag k="name" v="Skålåslia" />
>>>>>>> e1d4bc35ff8a6074a6f2e91616a996b547c36f15
		<tag k="natural" v="slope" />
		<tag k="place" v="locality" />
		<tag k="ssr:stedsnr" v="571207" />
	</node>
<<<<<<< HEAD
	<node lat="60.49851388476044" lon="10.786830546412247" id="-23893">
		<tag k="name" v="Skurperud" />
=======
	<node id="-383385" lat="60.6121111138" lon="10.9705138926">
		<tag k="fixme" v="consider natural=peak for the most distinct mountains in the district" />
		<tag k="name" v="Hølstadhøgda" />
		<tag k="natural" v="hill" />
>>>>>>> e1d4bc35ff8a6074a6f2e91616a996b547c36f15
		<tag k="place" v="locality" />
		<tag k="ssr:stedsnr" v="571209" />
	</node>
<<<<<<< HEAD
	<node lat="60.51868889237567" lon="10.769536116760788" id="-23897">
		<tag k="name" v="Langbrua" />
=======
	<node id="-383384" lat="60.5630555551" lon="10.8586166708">
		<tag k="fixme" v="consider natural=peak for the most distinct mountains in the district" />
		<tag k="name" v="Totenåsen" />
		<tag k="natural" v="hill" />
>>>>>>> e1d4bc35ff8a6074a6f2e91616a996b547c36f15
		<tag k="place" v="locality" />
		<tag k="ssr:stedsnr" v="572050" />
	</node>
<<<<<<< HEAD
	<node lat="60.50822778103182" lon="11.020647222701863" id="-23920">
		<tag k="name" v="Nysæterkollen" />
=======
	<node id="-383381" lat="60.6792694437" lon="10.9448777812">
		<tag k="name" v="Kubakken" />
>>>>>>> e1d4bc35ff8a6074a6f2e91616a996b547c36f15
		<tag k="natural" v="hill" />
		<tag k="place" v="locality" />
		<tag k="ssr:stedsnr" v="584349" />
	</node>
<<<<<<< HEAD
	<node lat="60.55653055739571" lon="11.044911106395475" id="-23922">
		<tag k="name" v="Stillvatndalen" />
		<tag k="natural" v="valley" />
		<tag k="place" v="locality" />
		<tag k="ssr:stedsnr" v="585525" />
	</node>
	<node lat="60.60400277993868" lon="11.01970832770839" id="-23923">
		<tag k="name" v="Høgkorset" />
		<tag k="natural" v="hill" />
		<tag k="place" v="locality" />
		<tag k="ssr:stedsnr" v="585541" />
	</node>
	<node lat="60.533441669478115" lon="10.906269439866863" id="-23930">
		<tag k="name" v="Annfinberget" />
=======
	<node id="-383878" lat="60.5901083368" lon="10.9001694408">
		<tag k="name" v="Hognerkampen" />
>>>>>>> e1d4bc35ff8a6074a6f2e91616a996b547c36f15
		<tag k="natural" v="hill" />
		<tag k="place" v="locality" />
		<tag k="ssr:stedsnr" v="587858" />
	</node>
<<<<<<< HEAD
	<node lat="60.6029000037762" lon="11.0909138930175" id="-23939">
		<tag k="name" v="Veltdalshøgda" />
		<tag k="natural" v="hill" />
		<tag k="place" v="locality" />
		<tag k="ssr:stedsnr" v="613838" />
	</node>
	<node lat="60.54552778112288" lon="10.88725277902297" id="-23972">
		<tag k="name" v="Smalhøgda" />
=======
	<node id="-383873" lat="60.5894333369" lon="11.1217666745">
		<tag k="name" v="Røtoppen" />
>>>>>>> e1d4bc35ff8a6074a6f2e91616a996b547c36f15
		<tag k="natural" v="hill" />
		<tag k="place" v="locality" />
		<tag k="ssr:stedsnr" v="633582" />
	</node>
<<<<<<< HEAD
	<node lat="60.60167222333937" lon="11.065138887522563" id="-23982">
		<tag k="name" v="Fiskemyrhøgda" />
		<tag k="natural" v="hill" />
=======
	<node id="-383872" lat="60.6064944466" lon="11.1124750039">
		<tag k="name" v="Skreiberga" />
		<tag k="natural" v="slope" />
		<tag k="old_name" v="Skreiaberga" />
>>>>>>> e1d4bc35ff8a6074a6f2e91616a996b547c36f15
		<tag k="place" v="locality" />
		<tag k="ssr:stedsnr" v="706532" />
	</node>
<<<<<<< HEAD
	<node lat="60.586791667306294" lon="11.013302774820263" id="-23986">
		<tag k="fixme" v="consider natural=peak for the most distinct mountains in the district" />
		<tag k="name" v="Veltdalshøgda" />
		<tag k="natural" v="hill" />
		<tag k="place" v="locality" />
		<tag k="ssr:stedsnr" v="706542" />
	</node>
	<node lat="60.61598055126422" lon="11.089372213922356" id="-23989">
		<tag k="name" v="Vinterhølet" />
		<tag k="natural" v="valley" />
=======
	<node id="-383864" lat="60.5357277737" lon="11.0206833345">
		<tag k="name" v="Hersjølia" />
		<tag k="natural" v="slope" />
>>>>>>> e1d4bc35ff8a6074a6f2e91616a996b547c36f15
		<tag k="place" v="locality" />
		<tag k="ssr:stedsnr" v="645892" />
	</node>
<<<<<<< HEAD
	<node lat="60.59593055863158" lon="10.948141665032297" id="-23992">
		<tag k="name" v="Borgelia" />
		<tag k="natural" v="slope" />
=======
	<node id="-382839" lat="60.5193944416" lon="10.7745999965">
		<tag k="name" v="Slepa" />
>>>>>>> e1d4bc35ff8a6074a6f2e91616a996b547c36f15
		<tag k="place" v="locality" />
		<tag k="ssr:stedsnr" v="647192" />
	</node>
<<<<<<< HEAD
	<node lat="60.5308750002066" lon="10.841041669377404" id="-24014">
		<tag k="name" v="Kalvberget" />
		<tag k="natural" v="hill" />
		<tag k="place" v="locality" />
		<tag k="ssr:stedsnr" v="674665" />
	</node>
	<node lat="60.61691666998455" lon="11.0978055565682" id="-24030">
=======
	<node id="-384374" lat="60.7376944415" lon="10.7611138807">
		<tag k="name" v="Kallerustberget" />
		<tag k="natural" v="hill" />
		<tag k="place" v="locality" />
		<tag k="ssr:stedsnr" v="875432" />
	</node>
	<node id="-382829" lat="60.5019861145" lon="10.8182638858">
>>>>>>> e1d4bc35ff8a6074a6f2e91616a996b547c36f15
		<tag k="fixme" v="consider natural=peak for the most distinct mountains in the district" />
		<tag k="name" v="Furuhøgda" />
		<tag k="natural" v="hill" />
		<tag k="place" v="locality" />
<<<<<<< HEAD
		<tag k="ssr:stedsnr" v="688991" />
	</node>
	<node lat="60.517608331392296" lon="10.914219443731524" id="-24033">
		<tag k="name" v="Storbrennkampen" />
		<tag k="natural" v="hill" />
=======
		<tag k="ssr:stedsnr" v="450056" />
	</node>
	<node id="-384363" lat="60.5173027786" lon="10.8245000007">
		<tag k="name" v="Lørdagsroa" />
		<tag k="place" v="locality" />
		<tag k="ssr:stedsnr" v="875081" />
	</node>
	<node id="-384360" lat="60.4986388867" lon="10.8731750027">
		<tag k="fixme" v="consider natural=peak for the most distinct mountains in the district" />
		<tag k="name" v="Gaupåspipa" />
		<tag k="natural" v="hill" />
		<tag k="ssr:stedsnr" v="873851" />
	</node>
	<node id="-383718" lat="60.6126388846" lon="11.1107388843">
		<tag k="alt_name" v="Falkenberghøgda" />
		<tag k="fixme" v="consider natural=peak for the most distinct mountains in the district" />
		<tag k="name" v="Falkberghøgda" />
		<tag k="natural" v="hill" />
		<tag k="place" v="locality" />
		<tag k="ssr:stedsnr" v="160895" />
	</node>
	<node id="-383838" lat="60.513391671" lon="10.9301416748">
		<tag k="name" v="Reklinga" />
		<tag k="natural" v="slope" />
>>>>>>> e1d4bc35ff8a6074a6f2e91616a996b547c36f15
		<tag k="place" v="locality" />
		<tag k="ssr:stedsnr" v="692728" />
	</node>
<<<<<<< HEAD
	<node lat="60.71162500435491" lon="10.79804444005796" id="-24042">
		<tag k="name" v="Karidalen" />
		<tag k="natural" v="valley" />
		<tag k="place" v="locality" />
		<tag k="ssr:stedsnr" v="693584" />
	</node>
	<node lat="60.52086666356476" lon="11.051208338466479" id="-24052">
		<tag k="name" v="Kopplandslia" />
		<tag k="natural" v="slope" />
=======
	<node id="-383837" lat="60.4809333336" lon="10.8383499949">
		<tag k="name" v="Skurvelia" />
		<tag k="natural" v="slope" />
		<tag k="place" v="locality" />
		<tag k="ssr:stedsnr" v="327851" />
	</node>
	<node id="-384058" lat="60.4985138848" lon="10.7868305464">
		<tag k="name" v="Skurperud" />
		<tag k="place" v="locality" />
		<tag k="ssr:stedsnr" v="571209" />
	</node>
	<node id="-383318" lat="60.4871277751" lon="10.8358500035">
		<tag k="alt_name" v="Skurvkampen" />
		<tag k="fixme" v="consider natural=peak for the most distinct mountains in the district" />
		<tag k="name" v="Skurvekampen" />
		<tag k="natural" v="hill" />
>>>>>>> e1d4bc35ff8a6074a6f2e91616a996b547c36f15
		<tag k="place" v="locality" />
		<tag k="ssr:stedsnr" v="706313" />
	</node>
<<<<<<< HEAD
	<node lat="60.5961861124111" lon="11.121883324687408" id="-24054">
		<tag k="name" v="Torvfestelva" />
=======
	<node id="-383316" lat="60.4801944419" lon="10.9124527834">
		<tag k="fixme" v="consider natural=peak for the most distinct mountains in the district" />
		<tag k="name" v="Bjørnåsen" />
>>>>>>> e1d4bc35ff8a6074a6f2e91616a996b547c36f15
		<tag k="natural" v="hill" />
		<tag k="place" v="locality" />
		<tag k="ssr:stedsnr" v="706961" />
	</node>
<<<<<<< HEAD
	<node lat="60.48019444188837" lon="10.912452783386412" id="-24071">
=======
	<node id="-383827" lat="60.6126750044" lon="10.9934777749">
>>>>>>> e1d4bc35ff8a6074a6f2e91616a996b547c36f15
		<tag k="fixme" v="consider natural=peak for the most distinct mountains in the district" />
		<tag k="name" v="Bjørnåsen" />
		<tag k="natural" v="hill" />
		<tag k="place" v="locality" />
		<tag k="ssr:stedsnr" v="734714" />
	</node>
<<<<<<< HEAD
	<node lat="60.48364444432769" lon="10.864641675732415" id="-24088">
		<tag k="name" v="Bergseterlia" />
		<tag k="natural" v="slope" />
=======
	<node id="-382802" lat="60.5827416695" lon="11.0899277763">
		<tag k="name" v="Kabberuddalen" />
		<tag k="natural" v="valley" />
>>>>>>> e1d4bc35ff8a6074a6f2e91616a996b547c36f15
		<tag k="place" v="locality" />
		<tag k="ssr:stedsnr" v="752875" />
	</node>
<<<<<<< HEAD
	<node lat="60.53427777413031" lon="10.723911110872" id="-24101">
		<tag k="name" v="Steinbrenna" />
=======
	<node id="-382796" lat="60.5533861106" lon="11.0010305496">
		<tag k="fixme" v="consider natural=peak for the most distinct mountains in the district" />
		<tag k="name" v="Sandungshøgda" />
>>>>>>> e1d4bc35ff8a6074a6f2e91616a996b547c36f15
		<tag k="natural" v="hill" />
		<tag k="place" v="locality" />
		<tag k="ssr:stedsnr" v="754551" />
	</node>
<<<<<<< HEAD
	<node lat="60.604502775656194" lon="10.941736109627874" id="-24108">
		<tag k="name" v="Grønmarka" />
		<tag k="natural" v="slope" />
=======
	<node id="-383819" lat="60.6570555512" lon="10.9151833279">
		<tag k="fixme" v="consider natural=peak for the most distinct mountains in the district" />
		<tag k="name" v="Kvemsåsen" />
		<tag k="natural" v="hill" />
>>>>>>> e1d4bc35ff8a6074a6f2e91616a996b547c36f15
		<tag k="place" v="locality" />
		<tag k="ssr:stedsnr" v="767205" />
	</node>
<<<<<<< HEAD
	<node lat="60.58304444140705" lon="11.022908342105104" id="-24109">
		<tag k="name" v="Veltdalen" />
=======
	<node id="-382793" lat="60.5936861125" lon="11.0477722236">
		<tag k="name" v="Fløytildalen" />
>>>>>>> e1d4bc35ff8a6074a6f2e91616a996b547c36f15
		<tag k="natural" v="valley" />
		<tag k="place" v="locality" />
		<tag k="ssr:stedsnr" v="767231" />
	</node>
	<node lat="60.580433331731285" lon="11.015663897622513" id="-24110">
		<tag k="fixme" v="consider natural=peak for the most distinct mountains in the district" />
		<tag k="name" v="Helligdalskampen" />
		<tag k="natural" v="hill" />
		<tag k="place" v="locality" />
		<tag k="ssr:stedsnr" v="767235" />
	</node>
<<<<<<< HEAD
	<node lat="60.55360277756101" lon="11.033144445555187" id="-24112">
		<tag k="name" v="Nybrenna" />
		<tag k="natural" v="slope" />
=======
	<node id="-382792" lat="60.6009972235" lon="11.0612777705">
		<tag k="name" v="Fjætutjerndalen" />
		<tag k="natural" v="valley" />
>>>>>>> e1d4bc35ff8a6074a6f2e91616a996b547c36f15
		<tag k="place" v="locality" />
		<tag k="ssr:stedsnr" v="767540" />
	</node>
<<<<<<< HEAD
	<node lat="60.679269443716564" lon="10.94487778119619" id="-24170">
		<tag k="name" v="Kubakken" />
=======
	<node id="-383116" lat="60.5208666636" lon="11.0512083385">
		<tag k="name" v="Kopplandslia" />
		<tag k="natural" v="slope" />
		<tag k="place" v="locality" />
		<tag k="ssr:stedsnr" v="706313" />
	</node>
	<node id="-382790" lat="60.6207999994" lon="11.0123138975">
		<tag k="name" v="Trogstadhøgda" />
>>>>>>> e1d4bc35ff8a6074a6f2e91616a996b547c36f15
		<tag k="natural" v="hill" />
		<tag k="place" v="locality" />
		<tag k="ssr:stedsnr" v="815310" />
	</node>
<<<<<<< HEAD
	<node lat="60.57873333265766" lon="11.050058328083328" id="-24181">
		<tag k="fixme" v="consider natural=peak for the most distinct mountains in the district" />
		<tag k="name" v="Langhølen" />
		<tag k="natural" v="hill" />
		<tag k="place" v="locality" />
		<tag k="ssr:stedsnr" v="828215" />
	</node>
	<node lat="60.61211111379873" lon="10.970513892579078" id="-24183">
=======
	<node id="-383813" lat="60.5826861082" lon="10.9235138811">
		<tag k="fixme" v="consider natural=peak for the most distinct mountains in the district" />
		<tag k="name" v="Holokampen" />
		<tag k="natural" v="hill" />
		<tag k="place" v="locality" />
		<tag k="ssr:stedsnr" v="310655" />
	</node>
	<node id="-382788" lat="60.5019583324" lon="10.9628750016">
>>>>>>> e1d4bc35ff8a6074a6f2e91616a996b547c36f15
		<tag k="fixme" v="consider natural=peak for the most distinct mountains in the district" />
		<tag k="name" v="Hølstadhøgda" />
		<tag k="natural" v="hill" />
		<tag k="place" v="locality" />
		<tag k="ssr:stedsnr" v="828521" />
	</node>
<<<<<<< HEAD
	<node lat="60.65767221983231" lon="10.93771110959468" id="-24218">
		<tag k="name" v="Hågåbakken" />
		<tag k="natural" v="hill" />
=======
	<node id="-382786" lat="60.5799583371" lon="11.0345444536">
		<tag k="name" v="Jyridalen" />
		<tag k="natural" v="valley" />
>>>>>>> e1d4bc35ff8a6074a6f2e91616a996b547c36f15
		<tag k="place" v="locality" />
		<tag k="ssr:stedsnr" v="876361" />
	</node>
<<<<<<< HEAD
	<node lat="60.563055555079785" lon="10.858616670812463" id="-24223">
		<tag k="fixme" v="consider natural=peak for the most distinct mountains in the district" />
		<tag k="name" v="Totenåsen" />
		<tag k="natural" v="hill" />
=======
	<node id="-383712" lat="60.6367555576" lon="10.9128249965">
		<tag k="name" v="Stangebakken" />
		<tag k="natural" v="slope" />
		<tag k="place" v="locality" />
		<tag k="ssr:stedsnr" v="160036" />
	</node>
	<node id="-383543" lat="60.57628611" lon="11.0267222175">
		<tag k="name" v="Smekadalen" />
		<tag k="natural" v="valley" />
		<tag k="place" v="locality" />
		<tag k="ssr:stedsnr" v="39197" />
	</node>
	<node id="-383292" lat="60.7116250044" lon="10.7980444401">
		<tag k="name" v="Karidalen" />
		<tag k="natural" v="valley" />
>>>>>>> e1d4bc35ff8a6074a6f2e91616a996b547c36f15
		<tag k="place" v="locality" />
		<tag k="ssr:stedsnr" v="934595" />
	</node>
<<<<<<< HEAD
	<node lat="60.482105551893135" lon="10.859650006286031" id="-24225">
		<tag k="name" v="Skålåslia" />
=======
	<node id="-382773" lat="60.6175305543" lon="10.9363777842">
		<tag k="name" v="Grønaøygarden" />
>>>>>>> e1d4bc35ff8a6074a6f2e91616a996b547c36f15
		<tag k="natural" v="slope" />
		<tag k="place" v="locality" />
		<tag k="ssr:stedsnr" v="934865" />
	</node>
<<<<<<< HEAD
	<node lat="60.5855333372617" lon="11.03411110343602" id="-24228">
		<tag k="name" v="Gåstjernshøgda" />
=======
	<node id="-382771" lat="60.5525666641" lon="11.0976638819">
		<tag k="fixme" v="consider natural=peak for the most distinct mountains in the district" />
		<tag k="name" v="Halsteinknatten" />
>>>>>>> e1d4bc35ff8a6074a6f2e91616a996b547c36f15
		<tag k="natural" v="hill" />
		<tag k="place" v="locality" />
		<tag k="ssr:stedsnr" v="888220" />
	</node>
	<node lat="60.6179972252143" lon="11.05899999405726" id="-24273">
		<tag k="alt_name" v="Oppegårdskampen" />
		<tag k="name" v="Oppegardskampen" />
		<tag k="natural" v="hill" />
		<tag k="place" v="locality" />
		<tag k="ssr:stedsnr" v="949485" />
	</node>
<<<<<<< HEAD
	<node lat="60.598880559444815" lon="11.022219440489025" id="-24274">
=======
	<node id="-384306" lat="60.5787333327" lon="11.0500583281">
>>>>>>> e1d4bc35ff8a6074a6f2e91616a996b547c36f15
		<tag k="fixme" v="consider natural=peak for the most distinct mountains in the district" />
		<tag k="name" v="Vinsåsen" />
		<tag k="natural" v="hill" />
		<tag k="place" v="locality" />
		<tag k="ssr:stedsnr" v="949520" />
	</node>
<<<<<<< HEAD
	<node lat="60.49631666458006" lon="10.949336109524548" id="-24311">
		<tag k="name" v="Lauvkampen" />
		<tag k="natural" v="hill" />
=======
	<node id="-383281" lat="60.5091833327" lon="10.7718333283">
		<tag k="name" v="Tømmertorget" />
>>>>>>> e1d4bc35ff8a6074a6f2e91616a996b547c36f15
		<tag k="place" v="locality" />
		<tag k="ssr:stedsnr" v="6735" />
	</node>
<<<<<<< HEAD
	<node lat="60.516886112057215" lon="10.939577779458107" id="-24335">
		<tag k="name" v="Arvseter-Svartdalen" />
=======
	<node id="-383713" lat="60.5546722229" lon="11.0894833333">
		<tag k="fixme" v="consider natural=peak for the most distinct mountains in the district" />
		<tag k="name" v="Lyåsen" />
		<tag k="natural" v="hill" />
		<tag k="place" v="locality" />
		<tag k="ssr:stedsnr" v="160051" />
	</node>
	<node id="-383789" lat="60.577915502" lon="10.765712587">
		<tag k="alt_name" v="Sjølåsdalen" />
		<tag k="name" v="Skjølåsdalen" />
>>>>>>> e1d4bc35ff8a6074a6f2e91616a996b547c36f15
		<tag k="natural" v="valley" />
		<tag k="place" v="locality" />
		<tag k="ssr:stedsnr" v="25780" />
	</node>
<<<<<<< HEAD
	<node lat="60.73188333381782" lon="10.79286943706973" id="-24340">
		<tag k="name" v="Grosethdalen" />
		<tag k="natural" v="valley" />
=======
	<node id="-383787" lat="60.5408055525" lon="10.8476194482">
		<tag k="name" v="Vetl-Kalvberga" />
		<tag k="natural" v="hill" />
>>>>>>> e1d4bc35ff8a6074a6f2e91616a996b547c36f15
		<tag k="place" v="locality" />
		<tag k="ssr:stedsnr" v="26277" />
	</node>
<<<<<<< HEAD
	<node lat="60.58538333445905" lon="10.848322217671504" id="-24346">
		<tag k="name" v="Myrsjøhøgda" />
		<tag k="natural" v="ridge" />
		<tag k="place" v="locality" />
		<tag k="ssr:stedsnr" v="26685" />
	</node>
	<node lat="60.57628611002784" lon="11.02672221747999" id="-24356">
		<tag k="name" v="Smekadalen" />
=======
	<node id="-382756" lat="60.5200194406" lon="10.7613638899">
		<tag k="name" v="Styggdalen" />
>>>>>>> e1d4bc35ff8a6074a6f2e91616a996b547c36f15
		<tag k="natural" v="valley" />
		<tag k="place" v="locality" />
		<tag k="ssr:stedsnr" v="39197" />
	</node>
<<<<<<< HEAD
	<node lat="60.61902221873524" lon="10.956094442495164" id="-24358">
		<tag k="name" v="Høllia" />
		<tag k="natural" v="slope" />
=======
	<node id="-383777" lat="60.5239166677" lon="10.8561861035">
		<tag k="fixme" v="consider natural=peak for the most distinct mountains in the district" />
		<tag k="name" v="Høvervollkampen" />
		<tag k="natural" v="hill" />
>>>>>>> e1d4bc35ff8a6074a6f2e91616a996b547c36f15
		<tag k="place" v="locality" />
		<tag k="ssr:stedsnr" v="39485" />
	</node>
<<<<<<< HEAD
	<node lat="60.55520278199806" lon="10.947916673742693" id="-24363">
=======
	<node id="-383776" lat="60.6087027787" lon="10.9883888979">
>>>>>>> e1d4bc35ff8a6074a6f2e91616a996b547c36f15
		<tag k="fixme" v="consider natural=peak for the most distinct mountains in the district" />
		<tag k="name" v="Garsjølia" />
		<tag k="natural" v="hill" />
		<tag k="place" v="locality" />
		<tag k="ssr:stedsnr" v="39846" />
	</node>
<<<<<<< HEAD
	<node lat="60.55175000256345" lon="10.916574999032617" id="-24365">
		<tag k="name" v="Smørdalen" />
		<tag k="natural" v="valley" />
		<tag k="place" v="locality" />
		<tag k="ssr:stedsnr" v="39851" />
	</node>
	<node lat="60.59024722064151" lon="10.925102770745829" id="-24367">
		<tag k="name" v="Holokampen" />
=======
	<node id="-382745" lat="60.510275001" lon="10.9321611181">
		<tag k="name" v="Lauvhøgda" />
>>>>>>> e1d4bc35ff8a6074a6f2e91616a996b547c36f15
		<tag k="natural" v="hill" />
		<tag k="place" v="locality" />
		<tag k="ssr:stedsnr" v="41184" />
	</node>
<<<<<<< HEAD
	<node lat="60.50466389186942" lon="10.784494449253188" id="-24375">
		<tag k="name" v="Vollumshøgda" />
=======
	<node id="-383255" lat="60.5308750002" lon="10.8410416694">
		<tag k="name" v="Kalvberget" />
>>>>>>> e1d4bc35ff8a6074a6f2e91616a996b547c36f15
		<tag k="natural" v="hill" />
		<tag k="old_name" v="Vindflohøgda" />
		<tag k="place" v="locality" />
		<tag k="ssr:stedsnr" v="54712" />
	</node>
<<<<<<< HEAD
	<node lat="60.61963611134635" lon="11.013058340450828" id="-24403">
=======
	<node id="-383765" lat="60.6082888857" lon="10.9998722177">
		<tag k="alt_name" v="Hvervenknappen" />
>>>>>>> e1d4bc35ff8a6074a6f2e91616a996b547c36f15
		<tag k="fixme" v="consider natural=peak for the most distinct mountains in the district" />
		<tag k="name" v="Trostadvarden" />
		<tag k="natural" v="hill" />
		<tag k="place" v="locality" />
		<tag k="ssr:stedsnr" v="68833" />
	</node>
<<<<<<< HEAD
	<node lat="60.619798088259884" lon="11.03916107144272" id="-24404">
		<tag k="fixme" v="consider natural=peak for the most distinct mountains in the district" />
		<tag k="name" v="Olsbyvarden" />
=======
	<node id="-382738" lat="60.5194166669" lon="10.8594638869">
		<tag k="fixme" v="multiple name tags, choose one and add the other to alt_name; consider natural=peak for the most distinct mountains in the district" />
		<tag k="name" v="Høverdalskampen;Høvervollskampen" />
>>>>>>> e1d4bc35ff8a6074a6f2e91616a996b547c36f15
		<tag k="natural" v="hill" />
		<tag k="place" v="locality" />
		<tag k="ssr:stedsnr" v="68834" />
	</node>
<<<<<<< HEAD
	<node lat="60.49708888994937" lon="10.782769449216214" id="-24413">
		<tag k="name" v="Roligheta" />
		<tag k="natural" v="slope" />
=======
	<node id="-382689" lat="60.4822416634" lon="10.889786107">
		<tag k="alt_name" v="Lokkhaugen" />
		<tag k="name" v="Lokkerhaugen" />
		<tag k="natural" v="hill" />
		<tag k="place" v="locality" />
		<tag k="ssr:stedsnr" v="249713" />
	</node>
	<node id="-383246" lat="60.6576722198" lon="10.9377111096">
		<tag k="name" v="Hågåbakken" />
		<tag k="natural" v="hill" />
>>>>>>> e1d4bc35ff8a6074a6f2e91616a996b547c36f15
		<tag k="place" v="locality" />
		<tag k="ssr:stedsnr" v="86219" />
	</node>
<<<<<<< HEAD
	<node lat="60.56596666733265" lon="11.00835833713063" id="-24428">
		<tag k="fixme" v="consider natural=peak for the most distinct mountains in the district" />
		<tag k="name" v="Øyungskurven" />
=======
	<node id="-383739" lat="60.5726750024" lon="11.0831555607">
		<tag k="alt_name" v="Gråberga;Østre Gråberget" />
		<tag k="name" v="Gråberget" />
>>>>>>> e1d4bc35ff8a6074a6f2e91616a996b547c36f15
		<tag k="natural" v="hill" />
		<tag k="place" v="locality" />
		<tag k="ssr:stedsnr" v="99282" />
	</node>
<<<<<<< HEAD
	<node lat="60.58396110931226" lon="10.922575000982912" id="-24430">
		<tag k="name" v="Hongsæterbrenna" />
		<tag k="place" v="locality" />
		<tag k="ssr:stedsnr" v="99829" />
	</node>
	<node lat="60.62464722607404" lon="11.061672223554202" id="-24432">
		<tag k="name" v="Middagshaugen" />
=======
	<node id="-383955" lat="60.5872222186" lon="10.8953249998">
		<tag k="name" v="Fostadvollkampen" />
		<tag k="natural" v="hill" />
		<tag k="place" v="locality" />
		<tag k="ssr:stedsnr" v="405118" />
	</node>
	<node id="-383215" lat="60.5203361107" lon="10.9266916755">
		<tag k="alt_name" v="Skurven" />
		<tag k="fixme" v="consider natural=peak for the most distinct mountains in the district" />
		<tag k="name" v="Storskurven" />
		<tag k="natural" v="hill" />
		<tag k="place" v="locality" />
		<tag k="ssr:stedsnr" v="735692" />
	</node>
	<node id="-384232" lat="60.5866749979" lon="11.1059388835">
		<tag k="name" v="Kudalshøgda" />
>>>>>>> e1d4bc35ff8a6074a6f2e91616a996b547c36f15
		<tag k="natural" v="hill" />
		<tag k="place" v="locality" />
		<tag k="ssr:stedsnr" v="100534" />
	</node>
<<<<<<< HEAD
	<node lat="60.560977777016376" lon="11.056977775815128" id="-24433">
		<tag k="fixme" v="consider natural=peak for the most distinct mountains in the district" />
		<tag k="name" v="Hersjøkampen" />
		<tag k="natural" v="hill" />
=======
	<node id="-384230" lat="60.6010555518" lon="10.9066583256">
		<tag k="name" v="Grylmarka" />
		<tag k="natural" v="valley" />
>>>>>>> e1d4bc35ff8a6074a6f2e91616a996b547c36f15
		<tag k="place" v="locality" />
		<tag k="ssr:stedsnr" v="100539" />
	</node>
<<<<<<< HEAD
	<node lat="60.594663887745256" lon="11.101163897909213" id="-24435">
		<tag k="name" v="Hestmyrholen" />
=======
	<node id="-383205" lat="60.604786107" lon="11.1194138967">
		<tag k="name" v="Børreberget" />
>>>>>>> e1d4bc35ff8a6074a6f2e91616a996b547c36f15
		<tag k="natural" v="hill" />
		<tag k="place" v="locality" />
		<tag k="ssr:stedsnr" v="100949" />
	</node>
<<<<<<< HEAD
	<node lat="60.519416666900455" lon="10.859463886856227" id="-24463">
		<tag k="fixme" v="multiple name tags, choose one and add the other to alt_name; consider natural=peak for the most distinct mountains in the district" />
		<tag k="name" v="Høverdalskampen;Høvervollskampen" />
=======
	<node id="-383204" lat="60.5975555539" lon="11.0937166756">
		<tag k="name" v="Skreitjernsholen" />
>>>>>>> e1d4bc35ff8a6074a6f2e91616a996b547c36f15
		<tag k="natural" v="hill" />
		<tag k="place" v="locality" />
		<tag k="ssr:stedsnr" v="128638" />
	</node>
	<node lat="60.494258332259626" lon="10.860211108769322" id="-24481">
		<tag k="name" v="Grønsjøbakken" />
		<tag k="natural" v="slope" />
		<tag k="place" v="locality" />
		<tag k="ssr:stedsnr" v="145996" />
	</node>
<<<<<<< HEAD
	<node lat="60.55467222293056" lon="11.089483333275835" id="-24493">
=======
	<node id="-384225" lat="60.5965333319" lon="11.0349500039">
>>>>>>> e1d4bc35ff8a6074a6f2e91616a996b547c36f15
		<tag k="fixme" v="consider natural=peak for the most distinct mountains in the district" />
		<tag k="name" v="Vestre Brennberget" />
		<tag k="natural" v="hill" />
		<tag k="place" v="locality" />
		<tag k="ssr:stedsnr" v="767563" />
	</node>
<<<<<<< HEAD
	<node lat="60.55256666411419" lon="11.097663881857532" id="-24494">
=======
	<node id="-384224" lat="60.5536027776" lon="11.0331444456">
		<tag k="name" v="Nybrenna" />
		<tag k="natural" v="slope" />
		<tag k="place" v="locality" />
		<tag k="ssr:stedsnr" v="767540" />
	</node>
	<node id="-384223" lat="60.5804333317" lon="11.0156638976">
>>>>>>> e1d4bc35ff8a6074a6f2e91616a996b547c36f15
		<tag k="fixme" v="consider natural=peak for the most distinct mountains in the district" />
		<tag k="name" v="Halsteinknatten" />
		<tag k="natural" v="hill" />
		<tag k="place" v="locality" />
		<tag k="ssr:stedsnr" v="160056" />
	</node>
<<<<<<< HEAD
	<node lat="60.61753055425399" lon="10.936377784189109" id="-24497">
		<tag k="name" v="Grønaøygarden" />
		<tag k="natural" v="slope" />
=======
	<node id="-384222" lat="60.5830444414" lon="11.0229083421">
		<tag k="name" v="Veltdalen" />
		<tag k="natural" v="valley" />
>>>>>>> e1d4bc35ff8a6074a6f2e91616a996b547c36f15
		<tag k="place" v="locality" />
		<tag k="ssr:stedsnr" v="160182" />
	</node>
<<<<<<< HEAD
	<node lat="60.63675555764137" lon="10.912824996453333" id="-24498">
		<tag k="name" v="Stangebakken" />
=======
	<node id="-384221" lat="60.6045027757" lon="10.9417361096">
		<tag k="name" v="Grønmarka" />
>>>>>>> e1d4bc35ff8a6074a6f2e91616a996b547c36f15
		<tag k="natural" v="slope" />
		<tag k="place" v="locality" />
		<tag k="ssr:stedsnr" v="160036" />
	</node>
<<<<<<< HEAD
	<node lat="60.53254057097561" lon="10.9319425943821" id="-24506">
		<tag k="alt_name" v="Økalvbergene" />
=======
	<node id="-382684" lat="60.5400666699" lon="10.876166668">
		<tag k="alt_name" v="Jensseterhøgda" />
>>>>>>> e1d4bc35ff8a6074a6f2e91616a996b547c36f15
		<tag k="fixme" v="consider natural=peak for the most distinct mountains in the district" />
		<tag k="loc_name" v="Østre Kalvberga" />
		<tag k="name" v="Østre Kalvbergene" />
		<tag k="natural" v="hill" />
		<tag k="place" v="locality" />
		<tag k="ssr:stedsnr" v="160852" />
	</node>
<<<<<<< HEAD
	<node lat="60.612638884623685" lon="11.11073888433988" id="-24507">
		<tag k="alt_name" v="Falkenberghøgda" />
=======
	<node id="-382977" lat="60.6017888894" lon="11.012866675">
		<tag k="fixme" v="consider natural=peak for the most distinct mountains in the district" />
		<tag k="name" v="Hvervenberget" />
		<tag k="natural" v="hill" />
		<tag k="place" v="locality" />
		<tag k="ssr:stedsnr" v="403554" />
	</node>
	<node id="-382679" lat="60.5696277741" lon="10.9379805528">
>>>>>>> e1d4bc35ff8a6074a6f2e91616a996b547c36f15
		<tag k="fixme" v="consider natural=peak for the most distinct mountains in the district" />
		<tag k="name" v="Falkberghøgda" />
		<tag k="natural" v="hill" />
		<tag k="place" v="locality" />
		<tag k="ssr:stedsnr" v="160895" />
	</node>
<<<<<<< HEAD
	<node lat="60.57267500239763" lon="11.083155560732424" id="-24531">
		<tag k="alt_name" v="Gråberga;Østre Gråberget" />
		<tag k="name" v="Gråberget" />
		<tag k="natural" v="hill" />
=======
	<node id="-384214" lat="60.5692138866" lon="10.8877916703">
		<tag k="name" v="Langseterlia" />
		<tag k="natural" v="slope" />
>>>>>>> e1d4bc35ff8a6074a6f2e91616a996b547c36f15
		<tag k="place" v="locality" />
		<tag k="ssr:stedsnr" v="189587" />
	</node>
<<<<<<< HEAD
	<node lat="60.52391666770387" lon="10.856186103524214" id="-24550">
		<tag k="fixme" v="consider natural=peak for the most distinct mountains in the district" />
		<tag k="name" v="Høvervollkampen" />
=======
	<node id="-384208" lat="60.5342777741" lon="10.7239111109">
		<tag k="name" v="Steinbrenna" />
>>>>>>> e1d4bc35ff8a6074a6f2e91616a996b547c36f15
		<tag k="natural" v="hill" />
		<tag k="place" v="locality" />
		<tag k="ssr:stedsnr" v="206807" />
	</node>
<<<<<<< HEAD
	<node lat="60.54080555248156" lon="10.847619448234877" id="-24558">
		<tag k="name" v="Vetl-Kalvberga" />
		<tag k="natural" v="hill" />
=======
	<node id="-383695" lat="60.4996444478" lon="10.9762361054">
		<tag k="name" v="Holtet" />
>>>>>>> e1d4bc35ff8a6074a6f2e91616a996b547c36f15
		<tag k="place" v="locality" />
		<tag k="ssr:stedsnr" v="207821" />
	</node>
<<<<<<< HEAD
	<node lat="60.577915502035694" lon="10.765712587017367" id="-24559">
		<tag k="alt_name" v="Sjølåsdalen" />
		<tag k="name" v="Skjølåsdalen" />
		<tag k="natural" v="valley" />
		<tag k="place" v="locality" />
		<tag k="ssr:stedsnr" v="208255" />
	</node>
	<node lat="60.5781194476499" lon="10.940880549733121" id="-24571">
		<tag k="name" v="Torsæterlia" />
=======
	<node id="-383694" lat="60.4942583323" lon="10.8602111088">
		<tag k="name" v="Grønsjøbakken" />
>>>>>>> e1d4bc35ff8a6074a6f2e91616a996b547c36f15
		<tag k="natural" v="slope" />
		<tag k="place" v="locality" />
		<tag k="ssr:stedsnr" v="221759" />
	</node>
<<<<<<< HEAD
	<node lat="60.60288055780471" lon="11.09035277876526" id="-24572">
		<tag k="name" v="Ringmyrholen" />
=======
	<node id="-383181" lat="60.6029000038" lon="11.090913893">
		<tag k="name" v="Veltdalshøgda" />
>>>>>>> e1d4bc35ff8a6074a6f2e91616a996b547c36f15
		<tag k="natural" v="hill" />
		<tag k="place" v="locality" />
		<tag k="ssr:stedsnr" v="221931" />
	</node>
<<<<<<< HEAD
	<node lat="60.60099722345391" lon="11.061277770496925" id="-24588">
		<tag k="name" v="Fjætutjerndalen" />
		<tag k="natural" v="valley" />
		<tag k="place" v="locality" />
		<tag k="ssr:stedsnr" v="282561" />
	</node>
	<node lat="60.55338611060774" lon="11.00103054958495" id="-24589">
		<tag k="fixme" v="consider natural=peak for the most distinct mountains in the district" />
		<tag k="name" v="Sandungshøgda" />
		<tag k="natural" v="hill" />
		<tag k="place" v="locality" />
		<tag k="ssr:stedsnr" v="282707" />
	</node>
	<node lat="60.58274166945404" lon="11.089927776322956" id="-24591">
		<tag k="name" v="Kabberuddalen" />
=======
	<node id="-382660" lat="60.5517500026" lon="10.916574999">
		<tag k="name" v="Smørdalen" />
>>>>>>> e1d4bc35ff8a6074a6f2e91616a996b547c36f15
		<tag k="natural" v="valley" />
		<tag k="place" v="locality" />
		<tag k="ssr:stedsnr" v="283148" />
	</node>
<<<<<<< HEAD
	<node lat="60.57415833758756" lon="11.078697225386055" id="-24592">
		<tag k="name" v="Slåttmyrdalen" />
		<tag k="natural" v="valley" />
		<tag k="place" v="locality" />
		<tag k="ssr:stedsnr" v="283163" />
	</node>
	<node lat="60.582686108197834" lon="10.923513881114225" id="-24612">
		<tag k="fixme" v="consider natural=peak for the most distinct mountains in the district" />
		<tag k="name" v="Holokampen" />
=======
	<node id="-383862" lat="60.569991669" lon="10.9782055616">
		<tag k="fixme" v="consider natural=peak for the most distinct mountains in the district" />
		<tag k="name" v="Linhammerbrenna" />
		<tag k="natural" v="hill" />
		<tag k="place" v="locality" />
		<tag k="ssr:stedsnr" v="342247" />
	</node>
	<node id="-383164" lat="60.5334416695" lon="10.9062694399">
		<tag k="name" v="Annfinberget" />
>>>>>>> e1d4bc35ff8a6074a6f2e91616a996b547c36f15
		<tag k="natural" v="hill" />
		<tag k="place" v="locality" />
		<tag k="ssr:stedsnr" v="310655" />
	</node>
<<<<<<< HEAD
	<node lat="60.65705555120509" lon="10.915183327864726" id="-24616">
		<tag k="fixme" v="consider natural=peak for the most distinct mountains in the district" />
		<tag k="name" v="Kvemsåsen" />
		<tag k="natural" v="hill" />
		<tag k="place" v="locality" />
		<tag k="ssr:stedsnr" v="310761" />
	</node>
	<node lat="60.61267500442672" lon="10.993477774872337" id="-24620">
=======
	<node id="-383160" lat="60.6040027799" lon="11.0197083277">
		<tag k="name" v="Høgkorset" />
		<tag k="natural" v="hill" />
		<tag k="place" v="locality" />
		<tag k="ssr:stedsnr" v="585541" />
	</node>
	<node id="-383159" lat="60.5565305574" lon="11.0449111064">
		<tag k="name" v="Stillvatndalen" />
		<tag k="natural" v="valley" />
		<tag k="place" v="locality" />
		<tag k="ssr:stedsnr" v="585525" />
	</node>
	<node id="-383158" lat="60.5647666702" lon="11.0170222192">
>>>>>>> e1d4bc35ff8a6074a6f2e91616a996b547c36f15
		<tag k="fixme" v="consider natural=peak for the most distinct mountains in the district" />
		<tag k="name" v="Vangskampen" />
		<tag k="natural" v="hill" />
		<tag k="place" v="locality" />
		<tag k="ssr:stedsnr" v="310855" />
	</node>
<<<<<<< HEAD
	<node lat="60.48093333357204" lon="10.838349994920431" id="-24627">
		<tag k="name" v="Skurvelia" />
		<tag k="natural" v="slope" />
		<tag k="place" v="locality" />
		<tag k="ssr:stedsnr" v="327851" />
	</node>
	<node lat="60.513391670951" lon="10.930141674846292" id="-24628">
		<tag k="name" v="Reklinga" />
		<tag k="natural" v="slope" />
=======
	<node id="-382703" lat="60.4970888899" lon="10.7827694492">
		<tag k="name" v="Roligheta" />
		<tag k="natural" v="slope" />
		<tag k="place" v="locality" />
		<tag k="ssr:stedsnr" v="86219" />
	</node>
	<node id="-384175" lat="60.5337361144" lon="10.7545861113">
		<tag k="name" v="Narumshøgda" />
		<tag k="natural" v="ridge" />
>>>>>>> e1d4bc35ff8a6074a6f2e91616a996b547c36f15
		<tag k="place" v="locality" />
		<tag k="ssr:stedsnr" v="328753" />
	</node>
<<<<<<< HEAD
	<node lat="60.54050555839929" lon="10.860772230418192" id="-24629">
		<tag k="name" v="Jensseterlia" />
		<tag k="natural" v="slope" />
=======
	<node id="-384172" lat="60.5699444422" lon="11.084722214">
		<tag k="fixme" v="consider natural=peak for the most distinct mountains in the district" />
		<tag k="name" v="Vestre Gråberget" />
		<tag k="natural" v="hill" />
>>>>>>> e1d4bc35ff8a6074a6f2e91616a996b547c36f15
		<tag k="place" v="locality" />
		<tag k="ssr:stedsnr" v="328829" />
	</node>
<<<<<<< HEAD
	<node lat="60.71007222611531" lon="10.887361106917863" id="-24643">
		<tag k="name" v="Østlia" />
		<tag k="natural" v="slope" />
=======
	<node id="-384171" lat="60.577808336" lon="11.1026416627">
		<tag k="fixme" v="consider natural=peak for the most distinct mountains in the district" />
		<tag k="name" v="Østre Gråberget" />
		<tag k="natural" v="hill" />
>>>>>>> e1d4bc35ff8a6074a6f2e91616a996b547c36f15
		<tag k="place" v="locality" />
		<tag k="ssr:stedsnr" v="330327" />
	</node>
<<<<<<< HEAD
	<node lat="60.53572777374047" lon="11.020683334539656" id="-24650">
		<tag k="name" v="Hersjølia" />
=======
	<node id="-384170" lat="60.5959305586" lon="10.948141665">
		<tag k="name" v="Borgelia" />
>>>>>>> e1d4bc35ff8a6074a6f2e91616a996b547c36f15
		<tag k="natural" v="slope" />
		<tag k="place" v="locality" />
		<tag k="ssr:stedsnr" v="342322" />
	</node>
<<<<<<< HEAD
	<node lat="60.60649444659415" lon="11.112475003883192" id="-24657">
		<tag k="name" v="Skreiberga" />
		<tag k="natural" v="slope" />
		<tag k="old_name" v="Skreiaberga" />
=======
	<node id="-384168" lat="60.556166666" lon="10.9341305569">
		<tag k="name" v="Smalhøgda" />
		<tag k="natural" v="hill" />
>>>>>>> e1d4bc35ff8a6074a6f2e91616a996b547c36f15
		<tag k="place" v="locality" />
		<tag k="ssr:stedsnr" v="342932" />
	</node>
<<<<<<< HEAD
	<node lat="60.58943333687473" lon="11.1217666745268" id="-24658">
		<tag k="name" v="Røtoppen" />
		<tag k="natural" v="hill" />
=======
	<node id="-384166" lat="60.6159805513" lon="11.0893722139">
		<tag k="name" v="Vinterhølet" />
		<tag k="natural" v="valley" />
>>>>>>> e1d4bc35ff8a6074a6f2e91616a996b547c36f15
		<tag k="place" v="locality" />
		<tag k="ssr:stedsnr" v="342934" />
	</node>
<<<<<<< HEAD
	<node lat="60.59010833680787" lon="10.90016944080627" id="-24661">
		<tag k="name" v="Hognerkampen" />
=======
	<node id="-382629" lat="60.6028805578" lon="11.0903527788">
		<tag k="name" v="Ringmyrholen" />
>>>>>>> e1d4bc35ff8a6074a6f2e91616a996b547c36f15
		<tag k="natural" v="hill" />
		<tag k="place" v="locality" />
		<tag k="ssr:stedsnr" v="344127" />
	</node>
<<<<<<< HEAD
	<node lat="60.51622222066759" lon="10.827844449883399" id="-24699">
		<tag k="name" v="Driterbakka" />
=======
	<node id="-382627" lat="60.5781194476" lon="10.9408805497">
		<tag k="name" v="Torsæterlia" />
>>>>>>> e1d4bc35ff8a6074a6f2e91616a996b547c36f15
		<tag k="natural" v="slope" />
		<tag k="place" v="locality" />
		<tag k="ssr:stedsnr" v="389064" />
	</node>
<<<<<<< HEAD
	<node lat="60.529427779436105" lon="10.879522217647736" id="-24700">
		<tag k="name" v="Knutsberget" />
=======
	<node id="-384162" lat="60.5693444407" lon="10.9781833372">
		<tag k="name" v="Sutterlikollen" />
>>>>>>> e1d4bc35ff8a6074a6f2e91616a996b547c36f15
		<tag k="natural" v="hill" />
		<tag k="place" v="locality" />
		<tag k="ssr:stedsnr" v="388784" />
	</node>
<<<<<<< HEAD
	<node lat="60.5222694443519" lon="11.025713895472029" id="-24726">
		<tag k="name" v="Mørksjørøet" />
=======
	<node id="-382623" lat="60.5869694422" lon="10.9972083256">
		<tag k="name" v="Høgbrenna" />
>>>>>>> e1d4bc35ff8a6074a6f2e91616a996b547c36f15
		<tag k="natural" v="hill" />
		<tag k="place" v="locality" />
		<tag k="ssr:stedsnr" v="403319" />
	</node>
<<<<<<< HEAD
	<node lat="60.626861111221515" lon="11.030936111088076" id="-24729">
		<tag k="name" v="Gaupbergknappen" />
=======
	<node id="-383134" lat="60.5961861124" lon="11.1218833247">
		<tag k="name" v="Torvfestelva" />
>>>>>>> e1d4bc35ff8a6074a6f2e91616a996b547c36f15
		<tag k="natural" v="hill" />
		<tag k="place" v="locality" />
		<tag k="ssr:stedsnr" v="403517" />
	</node>
<<<<<<< HEAD
	<node lat="60.60178888939136" lon="11.012866675046414" id="-24732">
=======
	<node id="-384156" lat="60.5756361091" lon="11.1145666588">
>>>>>>> e1d4bc35ff8a6074a6f2e91616a996b547c36f15
		<tag k="fixme" v="consider natural=peak for the most distinct mountains in the district" />
		<tag k="name" v="Hvervenberget" />
		<tag k="natural" v="hill" />
		<tag k="place" v="locality" />
		<tag k="ssr:stedsnr" v="403554" />
	</node>
<<<<<<< HEAD
	<node lat="60.58845833259598" lon="11.03365554833125" id="-24733">
		<tag k="name" v="Gåstjerndalen" />
		<tag k="natural" v="valley" />
=======
	<node id="-384153" lat="60.5455277811" lon="10.887252779">
		<tag k="name" v="Smalhøgda" />
		<tag k="natural" v="hill" />
>>>>>>> e1d4bc35ff8a6074a6f2e91616a996b547c36f15
		<tag k="place" v="locality" />
		<tag k="ssr:stedsnr" v="403558" />
	</node>
<<<<<<< HEAD
	<node lat="60.60268333403339" lon="11.074774999428973" id="-24737">
		<tag k="name" v="Nyhusdalen" />
		<tag k="natural" v="valley" />
=======
	<node id="-383638" lat="60.5946638877" lon="11.1011638979">
		<tag k="name" v="Hestmyrholen" />
		<tag k="natural" v="hill" />
>>>>>>> e1d4bc35ff8a6074a6f2e91616a996b547c36f15
		<tag k="place" v="locality" />
		<tag k="ssr:stedsnr" v="403955" />
	</node>
<<<<<<< HEAD
	<node lat="60.58722221857875" lon="10.895324999796182" id="-24738">
		<tag k="name" v="Fostadvollkampen" />
=======
	<node id="-383125" lat="60.5078611099" lon="10.8236861116">
		<tag k="fixme" v="consider natural=peak for the most distinct mountains in the district" />
		<tag k="name" v="Halsteinåsen" />
>>>>>>> e1d4bc35ff8a6074a6f2e91616a996b547c36f15
		<tag k="natural" v="hill" />
		<tag k="place" v="locality" />
		<tag k="ssr:stedsnr" v="405118" />
	</node>
<<<<<<< HEAD
	<node lat="60.594386107264164" lon="10.933255546709303" id="-24740">
		<tag k="name" v="Holomarka" />
=======
	<node id="-383123" lat="60.4805250044" lon="10.8861222192">
		<tag k="name" v="Frysihjeldalen" />
		<tag k="natural" v="valley" />
>>>>>>> e1d4bc35ff8a6074a6f2e91616a996b547c36f15
		<tag k="place" v="locality" />
		<tag k="ssr:stedsnr" v="405179" />
	</node>
<<<<<<< HEAD
	<node lat="60.52793888630148" lon="10.855091674439546" id="-24770">
		<tag k="name" v="Vetl-Kjørsla" />
		<tag k="natural" v="slope" />
=======
	<node id="-383122" lat="60.5867916673" lon="11.0133027748">
		<tag k="fixme" v="consider natural=peak for the most distinct mountains in the district" />
		<tag k="name" v="Veltdalshøgda" />
		<tag k="natural" v="hill" />
>>>>>>> e1d4bc35ff8a6074a6f2e91616a996b547c36f15
		<tag k="place" v="locality" />
		<tag k="ssr:stedsnr" v="510834" />
	</node>
<<<<<<< HEAD
	<node lat="60.54788611529657" lon="10.859491665214104" id="-24775">
		<tag k="name" v="Jensseterlia" />
		<tag k="natural" v="slope" />
		<tag k="place" v="locality" />
		<tag k="ssr:stedsnr" v="511517" />
	</node>
	<node lat="60.59669166917409" lon="11.045058335098721" id="-24787">
		<tag k="fixme" v="consider natural=peak for the most distinct mountains in the district" />
		<tag k="name" v="Østre Brennberget" />
=======
	<node id="-383120" lat="60.6016722233" lon="11.0651388875">
		<tag k="name" v="Fiskemyrhøgda" />
>>>>>>> e1d4bc35ff8a6074a6f2e91616a996b547c36f15
		<tag k="natural" v="hill" />
		<tag k="place" v="locality" />
		<tag k="ssr:stedsnr" v="524527" />
	</node>
<<<<<<< HEAD
	<node lat="60.593938886797694" lon="11.052391668659764" id="-24788">
=======
	<node id="-383631" lat="60.560977777" lon="11.0569777758">
>>>>>>> e1d4bc35ff8a6074a6f2e91616a996b547c36f15
		<tag k="fixme" v="consider natural=peak for the most distinct mountains in the district" />
		<tag k="name" v="Kroktjernhøgda" />
		<tag k="natural" v="hill" />
		<tag k="place" v="locality" />
		<tag k="ssr:stedsnr" v="524530" />
	</node>
<<<<<<< HEAD
	<node lat="60.599383336533755" lon="11.06981388457434" id="-24791">
		<tag k="name" v="Nyhusdalshøgda" />
=======
	<node id="-383630" lat="60.6246472261" lon="11.0616722236">
		<tag k="name" v="Middagshaugen" />
>>>>>>> e1d4bc35ff8a6074a6f2e91616a996b547c36f15
		<tag k="natural" v="hill" />
		<tag k="place" v="locality" />
		<tag k="ssr:stedsnr" v="524948" />
	</node>
<<<<<<< HEAD
	<node lat="60.53226388712382" lon="10.949891659047012" id="-24793">
		<tag k="name" v="Brennsæterlia" />
		<tag k="natural" v="slope" />
=======
	<node id="-383628" lat="60.5839611093" lon="10.922575001">
		<tag k="name" v="Hongsæterbrenna" />
>>>>>>> e1d4bc35ff8a6074a6f2e91616a996b547c36f15
		<tag k="place" v="locality" />
		<tag k="ssr:stedsnr" v="525843" />
	</node>
<<<<<<< HEAD
	<node lat="60.480525004437325" lon="10.886122219203244" id="-24826">
		<tag k="name" v="Frysihjeldalen" />
		<tag k="natural" v="valley" />
		<tag k="place" v="locality" />
		<tag k="ssr:stedsnr" v="570859" />
	</node>
	<node lat="60.55344444171942" lon="10.925011104890837" id="-24849">
		<tag k="name" v="Lommatberget" />
=======
	<node id="-383624" lat="60.5659666673" lon="11.0083583371">
		<tag k="fixme" v="consider natural=peak for the most distinct mountains in the district" />
		<tag k="name" v="Øyungskurven" />
>>>>>>> e1d4bc35ff8a6074a6f2e91616a996b547c36f15
		<tag k="natural" v="hill" />
		<tag k="place" v="locality" />
		<tag k="ssr:stedsnr" v="584894" />
	</node>
<<<<<<< HEAD
	<node lat="60.564766670249384" lon="11.017022219154578" id="-24851">
=======
	<node id="-384132" lat="60.5131888931" lon="10.7671249975">
>>>>>>> e1d4bc35ff8a6074a6f2e91616a996b547c36f15
		<tag k="fixme" v="consider natural=peak for the most distinct mountains in the district" />
		<tag k="name" v="Øyungskurven" />
		<tag k="natural" v="hill" />
		<tag k="place" v="locality" />
		<tag k="ssr:stedsnr" v="584270" />
	</node>
<<<<<<< HEAD
	<node lat="60.613283336133286" lon="11.045488885336628" id="-24853">
		<tag k="alt_name" v="Oppegårdsæterkampen" />
		<tag k="name" v="Oppegardsæterkampen" />
		<tag k="natural" v="hill" />
		<tag k="place" v="locality" />
		<tag k="ssr:stedsnr" v="584559" />
	</node>
	<node lat="60.61129999928367" lon="10.970008337025169" id="-24855">
		<tag k="name" v="Hølstadkollen" />
=======
	<node id="-383080" lat="60.5176083314" lon="10.9142194437">
		<tag k="name" v="Storbrennkampen" />
		<tag k="natural" v="hill" />
		<tag k="place" v="locality" />
		<tag k="ssr:stedsnr" v="692728" />
	</node>
	<node id="-383085" lat="60.6384444468" lon="10.8380388854">
		<tag k="name" v="Sauhaugen" />
>>>>>>> e1d4bc35ff8a6074a6f2e91616a996b547c36f15
		<tag k="natural" v="hill" />
		<tag k="place" v="locality" />
		<tag k="ssr:stedsnr" v="584565" />
	</node>
<<<<<<< HEAD
	<node lat="60.513188893125886" lon="10.767124997460389" id="-24896">
=======
	<node id="-383593" lat="60.6197980883" lon="11.0391610714">
>>>>>>> e1d4bc35ff8a6074a6f2e91616a996b547c36f15
		<tag k="fixme" v="consider natural=peak for the most distinct mountains in the district" />
		<tag k="name" v="Moldstadbrenna" />
		<tag k="natural" v="hill" />
		<tag k="place" v="locality" />
		<tag k="ssr:stedsnr" v="632051" />
	</node>
<<<<<<< HEAD
	<node lat="60.57563610910631" lon="11.114566658845531" id="-24909">
=======
	<node id="-383592" lat="60.6196361113" lon="11.0130583405">
>>>>>>> e1d4bc35ff8a6074a6f2e91616a996b547c36f15
		<tag k="fixme" v="consider natural=peak for the most distinct mountains in the district" />
		<tag k="name" v="Bjønnhaugen" />
		<tag k="natural" v="hill" />
		<tag k="place" v="locality" />
<<<<<<< HEAD
		<tag k="ssr:stedsnr" v="645059" />
	</node>
	<node lat="60.56934444068787" lon="10.978183337216553" id="-24911">
		<tag k="name" v="Sutterlikollen" />
=======
		<tag k="ssr:stedsnr" v="68833" />
	</node>
	<node id="-383076" lat="60.4979166655" lon="10.8864833418">
		<tag k="name" v="Midtbulia" />
		<tag k="natural" v="slope" />
		<tag k="place" v="locality" />
		<tag k="ssr:stedsnr" v="691859" />
	</node>
	<node id="-383075" lat="60.61691667" lon="11.0978055566">
		<tag k="fixme" v="consider natural=peak for the most distinct mountains in the district" />
		<tag k="name" v="Furuhøgda" />
>>>>>>> e1d4bc35ff8a6074a6f2e91616a996b547c36f15
		<tag k="natural" v="hill" />
		<tag k="place" v="locality" />
		<tag k="ssr:stedsnr" v="645256" />
	</node>
<<<<<<< HEAD
	<node lat="60.55616666600973" lon="10.934130556859495" id="-24916">
		<tag k="name" v="Smalhøgda" />
=======
	<node id="-384089" lat="60.5534444417" lon="10.9250111049">
		<tag k="name" v="Lommatberget" />
>>>>>>> e1d4bc35ff8a6074a6f2e91616a996b547c36f15
		<tag k="natural" v="hill" />
		<tag k="place" v="locality" />
		<tag k="ssr:stedsnr" v="645850" />
	</node>
<<<<<<< HEAD
	<node lat="60.59755555386533" lon="11.09371667557154" id="-24917">
		<tag k="name" v="Skreitjernsholen" />
=======
	<node id="-384087" lat="60.6112999993" lon="10.970008337">
		<tag k="name" v="Hølstadkollen" />
>>>>>>> e1d4bc35ff8a6074a6f2e91616a996b547c36f15
		<tag k="natural" v="hill" />
		<tag k="place" v="locality" />
		<tag k="ssr:stedsnr" v="645949" />
	</node>
<<<<<<< HEAD
	<node lat="60.604786107044" lon="11.119413896709101" id="-24918">
		<tag k="name" v="Børreberget" />
=======
	<node id="-384086" lat="60.6132833361" lon="11.0454888853">
		<tag k="alt_name" v="Oppegårdsæterkampen" />
		<tag k="name" v="Oppegardsæterkampen" />
>>>>>>> e1d4bc35ff8a6074a6f2e91616a996b547c36f15
		<tag k="natural" v="hill" />
		<tag k="place" v="locality" />
		<tag k="ssr:stedsnr" v="645951" />
	</node>
<<<<<<< HEAD
	<node lat="60.577808335996934" lon="11.102641662652744" id="-24921">
=======
	<node id="-383573" lat="60.564030557" lon="11.0175611032">
		<tag k="alt_name" v="Øyungsskarven" />
>>>>>>> e1d4bc35ff8a6074a6f2e91616a996b547c36f15
		<tag k="fixme" v="consider natural=peak for the most distinct mountains in the district" />
		<tag k="name" v="Østre Gråberget" />
		<tag k="natural" v="hill" />
		<tag k="place" v="locality" />
		<tag k="ssr:stedsnr" v="647219" />
	</node>
<<<<<<< HEAD
	<node lat="60.56994444223731" lon="11.08472221404043" id="-24922">
		<tag k="fixme" v="consider natural=peak for the most distinct mountains in the district" />
		<tag k="name" v="Vestre Gråberget" />
=======
	<node id="-384082" lat="60.508227781" lon="11.0206472227">
		<tag k="name" v="Nysæterkollen" />
>>>>>>> e1d4bc35ff8a6074a6f2e91616a996b547c36f15
		<tag k="natural" v="hill" />
		<tag k="place" v="locality" />
		<tag k="ssr:stedsnr" v="647221" />
	</node>
<<<<<<< HEAD
	<node lat="60.48712777505422" lon="10.835850003497347" id="-24933">
		<tag k="alt_name" v="Skurvkampen" />
=======
	<node id="-383054" lat="60.4985166697" lon="10.8698722158">
>>>>>>> e1d4bc35ff8a6074a6f2e91616a996b547c36f15
		<tag k="fixme" v="consider natural=peak for the most distinct mountains in the district" />
		<tag k="name" v="Skurvekampen" />
		<tag k="natural" v="hill" />
		<tag k="place" v="locality" />
		<tag k="ssr:stedsnr" v="734752" />
	</node>
<<<<<<< HEAD
	<node lat="60.52033611073716" lon="10.926691675537645" id="-24939">
		<tag k="alt_name" v="Skurven" />
		<tag k="fixme" v="consider natural=peak for the most distinct mountains in the district" />
		<tag k="name" v="Storskurven" />
=======
	<node id="-383565" lat="60.5046638919" lon="10.7844944493">
		<tag k="name" v="Vollumshøgda" />
>>>>>>> e1d4bc35ff8a6074a6f2e91616a996b547c36f15
		<tag k="natural" v="hill" />
		<tag k="place" v="locality" />
		<tag k="ssr:stedsnr" v="735692" />
	</node>
<<<<<<< HEAD
	<node lat="60.569213886597225" lon="10.88779167029837" id="-24967">
		<tag k="name" v="Langseterlia" />
		<tag k="natural" v="slope" />
=======
	<node id="-384071" lat="60.5186888924" lon="10.7695361168">
		<tag k="name" v="Langbrua" />
>>>>>>> e1d4bc35ff8a6074a6f2e91616a996b547c36f15
		<tag k="place" v="locality" />
		<tag k="ssr:stedsnr" v="754698" />
	</node>
<<<<<<< HEAD
	<node lat="60.59653333189026" lon="11.03495000394384" id="-24973">
		<tag k="fixme" v="consider natural=peak for the most distinct mountains in the district" />
		<tag k="name" v="Vestre Brennberget" />
		<tag k="natural" v="hill" />
		<tag k="place" v="locality" />
		<tag k="ssr:stedsnr" v="767563" />
	</node>
	<node lat="60.55640832967194" lon="10.99359166205069" id="-24974">
		<tag k="name" v="Sandungsdalen" />
		<tag k="natural" v="valley" />
		<tag k="place" v="locality" />
		<tag k="ssr:stedsnr" v="767723" />
	</node>
	<node lat="60.60105555178444" lon="10.906658325592979" id="-24982">
		<tag k="name" v="Grylmarka" />
		<tag k="natural" v="valley" />
		<tag k="place" v="locality" />
		<tag k="ssr:stedsnr" v="769168" />
	</node>
	<node lat="60.586674997892864" lon="11.105938883520613" id="-24984">
		<tag k="name" v="Kudalshøgda" />
=======
	<node id="-383555" lat="60.5902472206" lon="10.9251027707">
		<tag k="name" v="Holokampen" />
>>>>>>> e1d4bc35ff8a6074a6f2e91616a996b547c36f15
		<tag k="natural" v="hill" />
		<tag k="place" v="locality" />
		<tag k="ssr:stedsnr" v="769188" />
	</node>
<<<<<<< HEAD
	<node lat="60.49863888668661" lon="10.873175002674031" id="-25087">
=======
	<node id="-383552" lat="60.555202782" lon="10.9479166737">
>>>>>>> e1d4bc35ff8a6074a6f2e91616a996b547c36f15
		<tag k="fixme" v="consider natural=peak for the most distinct mountains in the district" />
		<tag k="name" v="Gaupåspipa" />
		<tag k="natural" v="hill" />
		<tag k="place" v="locality" />
		<tag k="ssr:stedsnr" v="873851" />
	</node>
<<<<<<< HEAD
	<node lat="60.49154615573704" lon="10.923404560639197" id="-25088">
		<tag k="name" v="Midtbulia" />
=======
	<node id="-383546" lat="60.6190222187" lon="10.9560944425">
		<tag k="name" v="Høllia" />
>>>>>>> e1d4bc35ff8a6074a6f2e91616a996b547c36f15
		<tag k="natural" v="slope" />
		<tag k="place" v="locality" />
		<tag k="ssr:stedsnr" v="873967" />
	</node>
<<<<<<< HEAD
	<node lat="60.51730277858156" lon="10.824500000659796" id="-25091">
		<tag k="name" v="Lørdagsroa" />
=======
	<node id="-384057" lat="60.4962055543" lon="10.7933388879">
		<tag k="name" v="Skurperudlia" />
		<tag k="natural" v="slope" />
>>>>>>> e1d4bc35ff8a6074a6f2e91616a996b547c36f15
		<tag k="place" v="locality" />
		<tag k="ssr:stedsnr" v="875081" />
	</node>
<<<<<<< HEAD
	<node lat="60.737694441543766" lon="10.761113880709976" id="-25103">
		<tag k="name" v="Kallerustberget" />
		<tag k="natural" v="hill" />
		<tag k="place" v="locality" />
		<tag k="ssr:stedsnr" v="875432" />
	</node>
	<node lat="60.53373611436559" lon="10.75458611125779" id="-25104">
		<tag k="name" v="Narumshøgda" />
		<tag k="natural" v="ridge" />
		<tag k="place" v="locality" />
		<tag k="ssr:stedsnr" v="875533" />
	</node>
	<node lat="60.49570833667306" lon="10.76960277453646" id="-25125">
		<tag k="fixme" v="consider natural=peak for the most distinct mountains in the district" />
		<tag k="name" v="Vindflohøgda" />
		<tag k="natural" v="hill" />
=======
	<node id="-384180" lat="60.4836444443" lon="10.8646416757">
		<tag k="name" v="Bergseterlia" />
		<tag k="natural" v="slope" />
		<tag k="place" v="locality" />
		<tag k="ssr:stedsnr" v="752875" />
	</node>
	<node id="-383539" lat="60.5853833345" lon="10.8483222177">
		<tag k="name" v="Myrsjøhøgda" />
		<tag k="natural" v="ridge" />
		<tag k="place" v="locality" />
		<tag k="ssr:stedsnr" v="26685" />
	</node>
	<node id="-383325" lat="60.5564083297" lon="10.9935916621">
		<tag k="name" v="Sandungsdalen" />
		<tag k="natural" v="valley" />
		<tag k="place" v="locality" />
		<tag k="ssr:stedsnr" v="767723" />
	</node>
	<node id="-383527" lat="60.7318833338" lon="10.7928694371">
		<tag k="name" v="Grosethdalen" />
		<tag k="natural" v="valley" />
		<tag k="place" v="locality" />
		<tag k="ssr:stedsnr" v="26277" />
	</node>
	<node id="-383524" lat="60.5168861121" lon="10.9395777795">
		<tag k="name" v="Arvseter-Svartdalen" />
		<tag k="natural" v="valley" />
>>>>>>> e1d4bc35ff8a6074a6f2e91616a996b547c36f15
		<tag k="place" v="locality" />
		<tag k="ssr:stedsnr" v="936043" />
	</node>
	<node id="-382981" lat="60.602683334" lon="11.0747749994">
		<tag k="name" v="Nyhusdalen" />
		<tag k="natural" v="valley" />
		<tag k="place" v="locality" />
		<tag k="ssr:stedsnr" v="403955" />
	</node>
	<node id="-383512" lat="60.6083472248" lon="10.9885722134">
		<tag k="fixme" v="consider natural=peak for the most distinct mountains in the district" />
		<tag k="name" v="Skreikampen" />
		<tag k="natural" v="hill" />
		<tag k="place" v="locality" />
		<tag k="ssr:stedsnr" v="7852" />
	</node>
	<node id="-382997" lat="60.5478861153" lon="10.8594916652">
		<tag k="name" v="Jensseterlia" />
		<tag k="natural" v="slope" />
		<tag k="place" v="locality" />
		<tag k="ssr:stedsnr" v="511517" />
	</node>
	<node id="-384020" lat="60.5360999999" lon="10.9821694529">
		<tag k="name" v="Brennsæterryggen" />
		<tag k="natural" v="ridge" />
		<tag k="place" v="locality" />
		<tag k="ssr:stedsnr" v="544374" />
	</node>
	<node id="-382979" lat="60.6092805554" lon="11.0745055637">
		<tag k="name" v="Østre Nyhusdalen" />
		<tag k="natural" v="valley" />
		<tag k="place" v="locality" />
		<tag k="ssr:stedsnr" v="403905" />
	</node>
	<node id="-382991" lat="60.4832750021" lon="10.8279916626">
		<tag k="name" v="Svartunglia" />
		<tag k="natural" v="slope" />
		<tag k="place" v="locality" />
		<tag k="ssr:stedsnr" v="511222" />
	</node>
	<node id="-382986" lat="60.5279388863" lon="10.8550916744">
		<tag k="name" v="Vetl-Kjørsla" />
		<tag k="natural" v="slope" />
		<tag k="place" v="locality" />
		<tag k="ssr:stedsnr" v="510834" />
	</node>
	<node id="-384005" lat="60.5322638871" lon="10.949891659">
		<tag k="name" v="Brennsæterlia" />
		<tag k="natural" v="slope" />
		<tag k="place" v="locality" />
		<tag k="ssr:stedsnr" v="525843" />
	</node>
	<node id="-384004" lat="60.5993833365" lon="11.0698138846">
		<tag k="name" v="Nyhusdalshøgda" />
		<tag k="natural" v="hill" />
		<tag k="place" v="locality" />
		<tag k="ssr:stedsnr" v="524948" />
	</node>
	<node id="-383491" lat="60.5976416635" lon="11.1013555512">
		<tag k="name" v="Skreifjella" />
		<tag k="natural" v="mountain_range" />
		<tag k="ssr:stedsnr" v="7414" />
	</node>
	<node id="-382978" lat="60.5884583326" lon="11.0336555483">
		<tag k="name" v="Gåstjerndalen" />
		<tag k="natural" v="valley" />
		<tag k="place" v="locality" />
		<tag k="ssr:stedsnr" v="403558" />
	</node>
	<node id="-384001" lat="60.5939388868" lon="11.0523916687">
		<tag k="fixme" v="consider natural=peak for the most distinct mountains in the district" />
		<tag k="name" v="Kroktjernhøgda" />
		<tag k="natural" v="hill" />
		<tag k="place" v="locality" />
		<tag k="ssr:stedsnr" v="524530" />
	</node>
</osm>
