<?xml version="1.0" encoding="UTF-8"?>
<osm version="0.6" generator="osmapis">
	<node lat="60.64899166924679" lon="10.743661118676888" id="-31726">
		<tag k="name" v="Kolbu meieri" />
		<tag k="ssr:stedsnr" v="451729" />
		<tag k="tourism" v="museum" />
	</node>
	<node lat="60.683897225220896" lon="10.84563333415206" id="-31822">
		<tag k="amenity" v="place_of_worship" />
		<tag k="denomination" v="lutheran" />
		<tag k="name" v="Hoff kirke" />
		<tag k="old_name" v="Hof;Østre Toten" />
		<tag k="religion" v="christian" />
		<tag k="ssr:stedsnr" v="371968" />
	</node>
	<node lat="60.64360000359297" lon="10.722180558793713" id="-31843">
		<tag k="amenity" v="community_centre" />
		<tag k="name" v="Nerset" />
		<tag k="ssr:stedsnr" v="390705" />
	</node>
	<node lat="60.62966388747539" lon="10.773722215126119" id="-31862">
		<tag k="amenity" v="place_of_worship" />
		<tag k="denomination" v="lutheran" />
		<tag k="name" v="Kolbu kirke" />
		<tag k="religion" v="christian" />
		<tag k="ssr:stedsnr" v="432794" />
	</node>
	<node lat="60.63427500263269" lon="10.732741659401615" id="-32078">
		<tag k="amenity" v="community_centre" />
		<tag k="name" v="Dal" />
		<tag k="ssr:stedsnr" v="613793" />
	</node>
	<node lat="60.628836115667156" lon="10.773858325768533" id="-32125">
		<tag k="amenity" v="place_of_worship" />
		<tag k="denomination" v="lutheran" />
		<tag k="name" v="Kolbu kapell" />
		<tag k="religion" v="christian" />
		<tag k="ssr:stedsnr" v="707517" />
	</node>
	<node lat="60.589499996675215" lon="10.719736104401479" id="-32466">
		<tag k="amenity" v="place_of_worship" />
		<tag k="fixme" v="specify religion=*, denomination=*, building=* etc" />
		<tag k="name" v="Engen kloster" />
		<tag k="ssr:stedsnr" v="25660" />
	</node>
	<node lat="60.645247223135236" lon="11.0014916649315" id="-32667">
		<tag k="amenity" v="place_of_worship" />
		<tag k="denomination" v="lutheran" />
		<tag k="name" v="Totenviken kirke" />
		<tag k="old_name" v="Totenvik" />
		<tag k="religion" v="christian" />
		<tag k="ssr:stedsnr" v="189738" />
	</node>
	<node lat="60.743355559737594" lon="10.769902777495277" id="-32674">
		<tag k="amenity" v="place_of_worship" />
		<tag k="denomination" v="lutheran" />
		<tag k="name" v="Nordlien kirke" />
		<tag k="old_name" v="Nordli" />
		<tag k="religion" v="christian" />
		<tag k="ssr:stedsnr" v="189899" />
	</node>
	<node lat="60.67907222672461" lon="10.873572221966018" id="-32874">
		<tag k="amenity" v="community_centre" />
		<tag k="name" v="Østre Toten festivitetslokale" />
		<tag k="ssr:stedsnr" v="405460" />
	</node>
	<node lat="60.66359166847216" lon="10.840475002381279" id="-32912">
		<tag k="name" v="Majersteinen" />
		<tag k="place" v="locality" />
		<tag k="ssr:stedsnr" v="512389" />
	</node>
	<node lat="60.68281944048272" lon="10.842988891115262" id="-32930">
		<tag k="amenity" v="community_centre" />
		<tag k="name" v="Hoff gjestgiveri" />
		<tag k="ssr:stedsnr" v="526456" />
	</node>
	<node lat="60.668219441749734" lon="10.95003889119299" id="-32942">
		<tag k="amenity" v="place_of_worship" />
		<tag k="denomination" v="lutheran" />
		<tag k="name" v="Balke kirke" />
		<tag k="religion" v="christian" />
		<tag k="ssr:stedsnr" v="552998" />
	</node>
	<node lat="60.70981666608404" lon="10.862441665901898" id="-33158">
		<tag k="amenity" v="place_of_worship" />
		<tag k="denomination" v="lutheran" />
		<tag k="name" v="Kapp kirke" />
		<tag k="religion" v="christian" />
		<tag k="ssr:stedsnr" v="814546" />
	</node>
	<node lat="60.62033876703195" lon="10.765097583016734" id="-33246">
		<tag k="amenity" v="community_centre" />
		<tag k="name" v="Tingvang" />
		<tag k="ssr:stedsnr" v="876541" />
	</node>
	<node lat="60.604819444748735" lon="10.730541667683744" id="-33256">
		<tag k="amenity" v="community_centre" />
		<tag k="name" v="Frikirke" />
		<tag k="ssr:stedsnr" v="936649" />
	</node>
</osm>
