<?xml version="1.0" encoding="UTF-8"?>
<osm generator="osmapis" version="0.6">
	<node id="-803170" lat="68.4849327361" lon="16.2297866207">
		<tag k="fixme" v="multiple name tags, choose one and add the other to alt_name" />
		<tag k="name" v="Nord-Noreg;Nord-Norge" />
		<tag k="ssr:date" v="2017-05-18" />
		<tag k="ssr:gruppe" v="administrativeIndelinger" />
		<tag k="ssr:hovedgruppe" v="offentligAdministrasjon" />
		<tag k="ssr:stedsnr" v="976106" />
		<tag k="ssr:type" v="annenAdministrativInndeling" />
	</node>
	<node id="-801871" lat="69.4722305654" lon="25.5188469315">
		<tag k="fixme" v="multiple name tags, choose one and add the other to alt_name" />
		<tag k="name" v="Kárášjoga gielda;Kárášjohka - Karasjok kommune" />
		<tag k="name:no" v="Karasjok kommune" />
		<tag k="name:se" v="Kárášjoga gielda;Kárášjohka" />
		<tag k="ssr:date" v="2016-05-10" />
		<tag k="ssr:gruppe" v="administrativeIndelinger" />
		<tag k="ssr:hovedgruppe" v="offentligAdministrasjon" />
		<tag k="ssr:stedsnr" v="450188" />
		<tag k="ssr:type" v="kommune" />
	</node>
	<node id="-800974" lat="69.114369809" lon="24.7110398527">
		<tag k="name" v="Vuollošjohka" />
		<tag k="ssr:date" v="2019-05-31" />
		<tag k="ssr:gruppe" v="veg" />
		<tag k="ssr:hovedgruppe" v="infrastruktur" />
		<tag k="ssr:stedsnr" v="1055765" />
		<tag k="ssr:type" v="adressenavn" />
	</node>
	<node id="-800973" lat="69.0536349613" lon="25.4839805746">
		<tag k="name" v="Davit Ássuorgi" />
		<tag k="ssr:date" v="2019-05-31" />
		<tag k="ssr:gruppe" v="veg" />
		<tag k="ssr:hovedgruppe" v="infrastruktur" />
		<tag k="ssr:stedsnr" v="1055720" />
		<tag k="ssr:type" v="adressenavn" />
	</node>
	<node id="-800972" lat="68.9049188738" lon="25.4908923851">
		<tag k="name" v="Ruovdebávttesavu" />
		<tag k="ssr:date" v="2019-05-31" />
		<tag k="ssr:gruppe" v="veg" />
		<tag k="ssr:hovedgruppe" v="infrastruktur" />
		<tag k="ssr:stedsnr" v="1055718" />
		<tag k="ssr:type" v="adressenavn" />
	</node>
	<node id="-800971" lat="69.005629002" lon="25.5007728875">
		<tag k="name" v="Cáskinjeaggi" />
		<tag k="ssr:date" v="2019-05-31" />
		<tag k="ssr:gruppe" v="veg" />
		<tag k="ssr:hovedgruppe" v="infrastruktur" />
		<tag k="ssr:stedsnr" v="1055705" />
		<tag k="ssr:type" v="adressenavn" />
	</node>
	<node id="-800970" lat="69.0158042201" lon="25.5112516195">
		<tag k="name" v="Máttit Ássuorgi" />
		<tag k="ssr:date" v="2019-05-31" />
		<tag k="ssr:gruppe" v="veg" />
		<tag k="ssr:hovedgruppe" v="infrastruktur" />
		<tag k="ssr:stedsnr" v="1055702" />
		<tag k="ssr:type" v="adressenavn" />
	</node>
	<node id="-800969" lat="68.9951697225" lon="25.1955910622">
		<tag k="name" v="Heastajohka" />
		<tag k="ssr:date" v="2019-05-31" />
		<tag k="ssr:gruppe" v="veg" />
		<tag k="ssr:hovedgruppe" v="infrastruktur" />
		<tag k="ssr:stedsnr" v="1055698" />
		<tag k="ssr:type" v="adressenavn" />
	</node>
	<node id="-800968" lat="69.1373326836" lon="25.0930627119">
		<tag k="name" v="Máttit Njoammeljohka" />
		<tag k="ssr:date" v="2019-05-31" />
		<tag k="ssr:gruppe" v="veg" />
		<tag k="ssr:hovedgruppe" v="infrastruktur" />
		<tag k="ssr:stedsnr" v="1055696" />
		<tag k="ssr:type" v="adressenavn" />
	</node>
	<node id="-800967" lat="68.947640623" lon="25.3414069319">
		<tag k="name" v="Cáskinčohkka" />
		<tag k="ssr:date" v="2019-05-31" />
		<tag k="ssr:gruppe" v="veg" />
		<tag k="ssr:hovedgruppe" v="infrastruktur" />
		<tag k="ssr:stedsnr" v="1055688" />
		<tag k="ssr:type" v="adressenavn" />
	</node>
	<node id="-800966" lat="69.2558986498" lon="25.6007669561">
		<tag k="name" v="Gárduidája" />
		<tag k="ssr:date" v="2019-05-31" />
		<tag k="ssr:gruppe" v="veg" />
		<tag k="ssr:hovedgruppe" v="infrastruktur" />
		<tag k="ssr:stedsnr" v="1055678" />
		<tag k="ssr:type" v="adressenavn" />
	</node>
	<node id="-800965" lat="69.4317957751" lon="25.4776949465">
		<tag k="name" v="Dákteroavvi" />
		<tag k="ssr:date" v="2019-05-31" />
		<tag k="ssr:gruppe" v="veg" />
		<tag k="ssr:hovedgruppe" v="infrastruktur" />
		<tag k="ssr:stedsnr" v="1055675" />
		<tag k="ssr:type" v="adressenavn" />
	</node>
	<node id="-800964" lat="69.4140829693" lon="25.4667398895">
		<tag k="name" v="Nállogoatduottar" />
		<tag k="ssr:date" v="2019-05-31" />
		<tag k="ssr:gruppe" v="veg" />
		<tag k="ssr:hovedgruppe" v="infrastruktur" />
		<tag k="ssr:stedsnr" v="1055672" />
		<tag k="ssr:type" v="adressenavn" />
	</node>
	<node id="-800963" lat="69.1044533329" lon="25.5753083874">
		<tag k="name" v="Aškkasjohka" />
		<tag k="ssr:date" v="2019-05-31" />
		<tag k="ssr:gruppe" v="veg" />
		<tag k="ssr:hovedgruppe" v="infrastruktur" />
		<tag k="ssr:stedsnr" v="1055666" />
		<tag k="ssr:type" v="adressenavn" />
	</node>
	<node id="-800962" lat="69.240788577" lon="25.4423301925">
		<tag k="name" v="Ruvvárri" />
		<tag k="ssr:date" v="2019-05-31" />
		<tag k="ssr:gruppe" v="veg" />
		<tag k="ssr:hovedgruppe" v="infrastruktur" />
		<tag k="ssr:stedsnr" v="1055658" />
		<tag k="ssr:type" v="adressenavn" />
	</node>
	<node id="-800961" lat="69.4358534874" lon="25.1780577121">
		<tag k="name" v="Mielkegoatnil" />
		<tag k="ssr:date" v="2019-05-31" />
		<tag k="ssr:gruppe" v="veg" />
		<tag k="ssr:hovedgruppe" v="infrastruktur" />
		<tag k="ssr:stedsnr" v="1055655" />
		<tag k="ssr:type" v="adressenavn" />
	</node>
	<node id="-800960" lat="69.7981724401" lon="25.9501409602">
		<tag k="name" v="Báišvuomegeahci" />
		<tag k="ssr:date" v="2019-05-31" />
		<tag k="ssr:gruppe" v="veg" />
		<tag k="ssr:hovedgruppe" v="infrastruktur" />
		<tag k="ssr:stedsnr" v="1055653" />
		<tag k="ssr:type" v="adressenavn" />
	</node>
	<node id="-800959" lat="69.1278368154" lon="24.7692261183">
		<tag k="name" v="Biret Sámmol báiki" />
		<tag k="ssr:date" v="2019-05-31" />
		<tag k="ssr:gruppe" v="veg" />
		<tag k="ssr:hovedgruppe" v="infrastruktur" />
		<tag k="ssr:stedsnr" v="1055649" />
		<tag k="ssr:type" v="adressenavn" />
	</node>
	<node id="-800958" lat="69.4415492277" lon="25.2067067419">
		<tag k="name" v="Luovvenjárga" />
		<tag k="ssr:date" v="2019-05-31" />
		<tag k="ssr:gruppe" v="veg" />
		<tag k="ssr:hovedgruppe" v="infrastruktur" />
		<tag k="ssr:stedsnr" v="1055632" />
		<tag k="ssr:type" v="adressenavn" />
	</node>
	<node id="-800957" lat="69.7107182629" lon="24.7397011858">
		<tag k="name" v="Juolgelanjohka" />
		<tag k="ssr:date" v="2019-05-31" />
		<tag k="ssr:gruppe" v="veg" />
		<tag k="ssr:hovedgruppe" v="infrastruktur" />
		<tag k="ssr:stedsnr" v="1055630" />
		<tag k="ssr:type" v="adressenavn" />
	</node>
	<node id="-800956" lat="69.5452842587" lon="24.6591991794">
		<tag k="name" v="Ánnešjohka" />
		<tag k="ssr:date" v="2019-05-31" />
		<tag k="ssr:gruppe" v="veg" />
		<tag k="ssr:hovedgruppe" v="infrastruktur" />
		<tag k="ssr:stedsnr" v="1055629" />
		<tag k="ssr:type" v="adressenavn" />
	</node>
	<node id="-800955" lat="69.645712107" lon="24.737771936">
		<tag k="name" v="Stiippanávži" />
		<tag k="ssr:date" v="2019-05-31" />
		<tag k="ssr:gruppe" v="veg" />
		<tag k="ssr:hovedgruppe" v="infrastruktur" />
		<tag k="ssr:stedsnr" v="1055628" />
		<tag k="ssr:type" v="adressenavn" />
	</node>
	<node id="-800954" lat="69.5262494105" lon="25.0400787353">
		<tag k="name" v="Geaimmejávri" />
		<tag k="ssr:date" v="2019-05-31" />
		<tag k="ssr:gruppe" v="veg" />
		<tag k="ssr:hovedgruppe" v="infrastruktur" />
		<tag k="ssr:stedsnr" v="1055626" />
		<tag k="ssr:type" v="adressenavn" />
	</node>
	<node id="-800953" lat="69.6479741051" lon="24.313392785">
		<tag k="name" v="Likčavuotna" />
		<tag k="ssr:date" v="2019-05-31" />
		<tag k="ssr:gruppe" v="veg" />
		<tag k="ssr:hovedgruppe" v="infrastruktur" />
		<tag k="ssr:stedsnr" v="1055620" />
		<tag k="ssr:type" v="adressenavn" />
	</node>
	<node id="-800952" lat="69.6335466495" lon="24.3171991715">
		<tag k="name" v="Gavdnjavuotna" />
		<tag k="ssr:date" v="2019-05-31" />
		<tag k="ssr:gruppe" v="veg" />
		<tag k="ssr:hovedgruppe" v="infrastruktur" />
		<tag k="ssr:stedsnr" v="1055618" />
		<tag k="ssr:type" v="adressenavn" />
	</node>
	<node id="-800951" lat="69.6960282816" lon="24.3047197783">
		<tag k="name" v="Gásadat" />
		<tag k="ssr:date" v="2019-05-31" />
		<tag k="ssr:gruppe" v="veg" />
		<tag k="ssr:hovedgruppe" v="infrastruktur" />
		<tag k="ssr:stedsnr" v="1055614" />
		<tag k="ssr:type" v="adressenavn" />
	</node>
	<node id="-800950" lat="69.5231797293" lon="24.3840017123">
		<tag k="name" v="Vuolit Mollešjohka" />
		<tag k="ssr:date" v="2019-05-31" />
		<tag k="ssr:gruppe" v="veg" />
		<tag k="ssr:hovedgruppe" v="infrastruktur" />
		<tag k="ssr:stedsnr" v="1055612" />
		<tag k="ssr:type" v="adressenavn" />
	</node>
	<node id="-800949" lat="69.5657776441" lon="24.3890567951">
		<tag k="name" v="Mollešjohka" />
		<tag k="ssr:date" v="2019-05-31" />
		<tag k="ssr:gruppe" v="veg" />
		<tag k="ssr:hovedgruppe" v="infrastruktur" />
		<tag k="ssr:stedsnr" v="1055611" />
		<tag k="ssr:type" v="adressenavn" />
	</node>
	<node id="-800948" lat="69.3075697923" lon="24.9006400735">
		<tag k="name" v="Noaidat" />
		<tag k="ssr:date" v="2019-05-31" />
		<tag k="ssr:gruppe" v="veg" />
		<tag k="ssr:hovedgruppe" v="infrastruktur" />
		<tag k="ssr:stedsnr" v="1055604" />
		<tag k="ssr:type" v="adressenavn" />
	</node>
	<node id="-800947" lat="69.2723735456" lon="24.8346673854">
		<tag k="name" v="Dálabohki" />
		<tag k="ssr:date" v="2019-05-31" />
		<tag k="ssr:gruppe" v="veg" />
		<tag k="ssr:hovedgruppe" v="infrastruktur" />
		<tag k="ssr:stedsnr" v="1055603" />
		<tag k="ssr:type" v="adressenavn" />
	</node>
	<node id="-800946" lat="69.3094391339" lon="24.8576790431">
		<tag k="name" v="Gollebáiki" />
		<tag k="ssr:date" v="2019-05-31" />
		<tag k="ssr:gruppe" v="veg" />
		<tag k="ssr:hovedgruppe" v="infrastruktur" />
		<tag k="ssr:stedsnr" v="1055602" />
		<tag k="ssr:type" v="adressenavn" />
	</node>
	<node id="-800945" lat="69.3980065109" lon="24.9199837656">
		<tag k="name" v="Skáiddejávri" />
		<tag k="ssr:date" v="2019-05-31" />
		<tag k="ssr:gruppe" v="veg" />
		<tag k="ssr:hovedgruppe" v="infrastruktur" />
		<tag k="ssr:stedsnr" v="1055601" />
		<tag k="ssr:type" v="adressenavn" />
	</node>
	<node id="-800944" lat="69.7116261448" lon="24.2017896081">
		<tag k="name" v="Rissečohkka" />
		<tag k="ssr:date" v="2019-05-31" />
		<tag k="ssr:gruppe" v="veg" />
		<tag k="ssr:hovedgruppe" v="infrastruktur" />
		<tag k="ssr:stedsnr" v="1055600" />
		<tag k="ssr:type" v="adressenavn" />
	</node>
	<node id="-800943" lat="69.3014725044" lon="24.9481031366">
		<tag k="name" v="Luossajávri" />
		<tag k="ssr:date" v="2019-05-31" />
		<tag k="ssr:gruppe" v="veg" />
		<tag k="ssr:hovedgruppe" v="infrastruktur" />
		<tag k="ssr:stedsnr" v="1055598" />
		<tag k="ssr:type" v="adressenavn" />
	</node>
	<node id="-800942" lat="69.0923979764" lon="24.9495207745">
		<tag k="name" v="Rávotjohka" />
		<tag k="ssr:date" v="2019-05-31" />
		<tag k="ssr:gruppe" v="veg" />
		<tag k="ssr:hovedgruppe" v="infrastruktur" />
		<tag k="ssr:stedsnr" v="1055595" />
		<tag k="ssr:type" v="adressenavn" />
	</node>
	<node id="-800941" lat="69.0493357344" lon="25.0077990914">
		<tag k="name" v="Áibmejohka" />
		<tag k="ssr:date" v="2019-05-31" />
		<tag k="ssr:gruppe" v="veg" />
		<tag k="ssr:hovedgruppe" v="infrastruktur" />
		<tag k="ssr:stedsnr" v="1055593" />
		<tag k="ssr:type" v="adressenavn" />
	</node>
	<node id="-800940" lat="69.1937433142" lon="25.039141002">
		<tag k="name" v="Rivkkároggi" />
		<tag k="ssr:date" v="2019-05-31" />
		<tag k="ssr:gruppe" v="veg" />
		<tag k="ssr:hovedgruppe" v="infrastruktur" />
		<tag k="ssr:stedsnr" v="1055591" />
		<tag k="ssr:type" v="adressenavn" />
	</node>
	<node id="-800939" lat="69.21705438" lon="24.7572747191">
		<tag k="name" v="Beaivvašgieddi" />
		<tag k="ssr:date" v="2019-05-31" />
		<tag k="ssr:gruppe" v="veg" />
		<tag k="ssr:hovedgruppe" v="infrastruktur" />
		<tag k="ssr:stedsnr" v="1055589" />
		<tag k="ssr:type" v="adressenavn" />
	</node>
	<node id="-800938" lat="69.526135963" lon="24.9527717467">
		<tag k="name" v="Gárdin" />
		<tag k="ssr:date" v="2019-05-31" />
		<tag k="ssr:gruppe" v="veg" />
		<tag k="ssr:hovedgruppe" v="infrastruktur" />
		<tag k="ssr:stedsnr" v="1055587" />
		<tag k="ssr:type" v="adressenavn" />
	</node>
	<node id="-800937" lat="69.2925525305" lon="24.6829278862">
		<tag k="name" v="Nuorrojávri" />
		<tag k="ssr:date" v="2019-05-31" />
		<tag k="ssr:gruppe" v="veg" />
		<tag k="ssr:hovedgruppe" v="infrastruktur" />
		<tag k="ssr:stedsnr" v="1055585" />
		<tag k="ssr:type" v="adressenavn" />
	</node>
</osm>
