<?xml version="1.0" encoding="UTF-8"?>
<osm generator="osmapis" version="0.6">
	<node id="-810334" lat="70.5090278134" lon="29.8851736385">
		<tag k="name" v="Reingjerdmyran" />
		<tag k="natural" v="wetland" />
		<tag k="ssr:stedsnr" v="91412" />
	</node>
	<node id="-810341" lat="70.5168139358" lon="30.505053856">
		<tag k="name" v="Stormyran" />
		<tag k="natural" v="wetland" />
		<tag k="ssr:stedsnr" v="141007" />
	</node>
	<node id="-810572" lat="70.5455583733" lon="30.0295569238">
		<tag k="name" v="Gardijåkkmyrene - Gárdojohjeaggi" />
		<tag k="name:no" v="Gardijåkkmyrene" />
		<tag k="name:se" v="Gárdojohjeaggi" />
		<tag k="natural" v="wetland" />
		<tag k="old_name:se" v="Gardujåkjæggi" />
		<tag k="ssr:stedsnr" v="748054" />
	</node>
	<node id="-810587" lat="70.314016709" lon="30.064545691">
		<tag k="name" v="Bajit Suovka" />
		<tag k="name:se" v="Bajit Suovka" />
		<tag k="old_name:se" v="Suovka, bajit" />
		<tag k="place" v="locality" />
		<tag k="ssr:stedsnr" v="808924" />
	</node>
	<node id="-810585" lat="70.4410917135" lon="30.558434329">
		<tag k="name" v="Skierroleakši" />
		<tag k="name:se" v="Skierroleakši" />
		<tag k="natural" v="wetland" />
		<tag k="old_name:se" v="Skierulæksi" />
		<tag k="ssr:stedsnr" v="808876" />
	</node>
</osm>
