<?xml version="1.0" encoding="UTF-8"?>
<osm generator="osmapis" version="0.6">
	<node id="-808960" lat="70.5560278146" lon="30.0137791623">
		<tag k="fixme" v="consider natural=peak for the most distinct mountains in the district" />
		<tag k="name" v="Gardijåkkhaugen - Gárdočohkka" />
		<tag k="name:no" v="Gardijåkkhaugen" />
		<tag k="name:se" v="Gárdočohkka" />
		<tag k="natural" v="hill" />
		<tag k="old_name:se" v="Gardučåkka" />
		<tag k="place" v="locality" />
		<tag k="ssr:stedsnr" v="445038" />
	</node>
	<node id="-808959" lat="70.3532028168" lon="30.0283901735">
		<tag k="fixme" v="consider natural=peak for the most distinct mountains in the district" />
		<tag k="name" v="Njuvččaguroaivi" />
		<tag k="name:se" v="Njuvččaguroaivi" />
		<tag k="natural" v="hill" />
		<tag k="old_name:se" v="Njuvčaguroaivi" />
		<tag k="place" v="locality" />
		<tag k="ssr:stedsnr" v="444935" />
	</node>
	<node id="-808958" lat="70.3857750428" lon="30.0184401787">
		<tag k="name" v="Buoidejohka" />
		<tag k="name:se" v="Buoidejohka" />
		<tag k="old_name:se" v="Buoidejåkka" />
		<tag k="ssr:stedsnr" v="444891" />
		<tag k="waterway" v="river" />
	</node>
	<node id="-808957" lat="70.4476889391" lon="30.4005788789">
		<tag k="fixme" v="consider natural=peak for the most distinct mountains in the district" />
		<tag k="name" v="Raet" />
		<tag k="natural" v="hill" />
		<tag k="place" v="locality" />
		<tag k="ssr:stedsnr" v="444885" />
	</node>
	<node id="-808956" lat="70.5256083708" lon="29.9124986448">
		<tag k="name" v="Kristiandalen" />
		<tag k="natural" v="valley" />
		<tag k="place" v="locality" />
		<tag k="ssr:stedsnr" v="444428" />
	</node>
	<node id="-808955" lat="70.5669250321" lon="29.587457148">
		<tag k="name" v="Djupvasspytten" />
		<tag k="natural" v="water" />
		<tag k="ssr:stedsnr" v="444421" />
	</node>
	<node id="-808954" lat="70.5176611466" lon="30.0042569169">
		<tag k="fixme" v="consider natural=peak for the most distinct mountains in the district" />
		<tag k="name" v="Gaisa" />
		<tag k="natural" v="hill" />
		<tag k="place" v="locality" />
		<tag k="ssr:stedsnr" v="419078" />
	</node>
	<node id="-808953" lat="70.4760250407" lon="30.198070687">
		<tag k="name" v="Sandsletta" />
		<tag k="place" v="locality" />
		<tag k="ssr:stedsnr" v="263893" />
	</node>
	<node id="-808952" lat="70.6826389149" lon="29.7978682045">
		<tag k="name" v="Russekeila" />
		<tag k="natural" v="bay" />
		<tag k="ssr:stedsnr" v="263523" />
	</node>
	<node id="-808951" lat="70.6281389237" lon="29.7878737449">
		<tag k="alt_name" v="Blindvatn" />
		<tag k="name" v="Blindvatnet" />
		<tag k="natural" v="water" />
		<tag k="ssr:stedsnr" v="263483" />
	</node>
	<node id="-808950" lat="70.5369305977" lon="30.4971705352">
		<tag k="name" v="Gamvikdalen" />
		<tag k="natural" v="valley" />
		<tag k="place" v="locality" />
		<tag k="ssr:stedsnr" v="263080" />
	</node>
	<node id="-808949" lat="70.5335500404" lon="30.3973650503">
		<tag k="name" v="Syltevikvatnet" />
		<tag k="natural" v="water" />
		<tag k="ssr:stedsnr" v="263014" />
		<tag k="water" v="lake" />
	</node>
	<node id="-808948" lat="70.5053472625" lon="30.120073521">
		<tag k="alt_name:no" v="Austerelv" />
		<tag k="name" v="Austerelva - Uhc-Oardu" />
		<tag k="name:no" v="Austerelva" />
		<tag k="name:se" v="Uhc-Oardu" />
		<tag k="old_name:se" v="Ucc-Oardo" />
		<tag k="place" v="locality" />
		<tag k="ssr:stedsnr" v="263003" />
	</node>
	<node id="-808947" lat="70.4524500444" lon="30.0917596131">
		<tag k="name" v="Aslak Gamslettdalen" />
		<tag k="natural" v="valley" />
		<tag k="place" v="locality" />
		<tag k="ssr:stedsnr" v="262910" />
	</node>
	<node id="-808946" lat="70.5584333612" lon="29.590623808">
		<tag k="name" v="Djupvatnet - Goalsejávri" />
		<tag k="name:no" v="Djupvatnet" />
		<tag k="name:se" v="Goalsejávri" />
		<tag k="natural" v="water" />
		<tag k="old_name:se" v="Goalsejavri" />
		<tag k="ssr:stedsnr" v="262453" />
		<tag k="water" v="lake" />
	</node>
	<node id="-808945" lat="70.5067833688" lon="29.788554257">
		<tag k="name" v="Reindalen" />
		<tag k="natural" v="valley" />
		<tag k="place" v="locality" />
		<tag k="ssr:stedsnr" v="262036" />
	</node>
	<node id="-808944" lat="70.7077417013" lon="30.0316319885">
		<tag k="name" v="Makkaur" />
		<tag k="place" v="locality" />
		<tag k="ssr:stedsnr" v="262032" />
	</node>
	<node id="-808943" lat="70.609936153" lon="30.3087595736">
		<tag k="fixme" v="consider natural=peak for the most distinct mountains in the district" />
		<tag k="loc_name:se" v="Oardovuonklubbu" />
		<tag k="name" v="Syltefjordklubben" />
		<tag k="name:no" v="Syltefjordklubben" />
		<tag k="natural" v="hill" />
		<tag k="place" v="locality" />
		<tag k="ssr:stedsnr" v="262023" />
	</node>
	<node id="-808942" lat="70.6036917076" lon="30.3235345483">
		<tag k="name" v="Russevika" />
		<tag k="natural" v="bay" />
		<tag k="ssr:stedsnr" v="262024" />
	</node>
	<node id="-808940" lat="70.5343778156" lon="30.0096347034">
		<tag k="name" v="Finnes" />
		<tag k="natural" v="cape" />
		<tag k="ssr:stedsnr" v="213530" />
	</node>
	<node id="-808939" lat="70.5216111449" lon="29.9621430577">
		<tag k="name" v="Holman" />
		<tag k="place" v="islet" />
		<tag k="ssr:stedsnr" v="213447" />
	</node>
	<node id="-808938" lat="70.6311472557" lon="29.7154432063">
		<tag k="name" v="Foma" />
		<tag k="place" v="quarter" />
		<tag k="ssr:stedsnr" v="213329" />
	</node>
	<node id="-808937" lat="70.5544305892" lon="30.0672041184">
		<tag k="name" v="Nordfjordhøgda" />
		<tag k="natural" v="hill" />
		<tag k="place" v="locality" />
		<tag k="ssr:stedsnr" v="213261" />
	</node>
	<node id="-808936" lat="70.5274944849" lon="30.0818346584">
		<tag k="name" v="Revet" />
		<tag k="place" v="locality" />
		<tag k="seamark:type" v="rock" />
		<tag k="ssr:stedsnr" v="208570" />
	</node>
	<node id="-808935" lat="70.7003111421" lon="30.0667013949">
		<tag k="name" v="Storvatnet" />
		<tag k="natural" v="water" />
		<tag k="ssr:stedsnr" v="207486" />
		<tag k="water" v="lake" />
	</node>
	<node id="-808934" lat="70.6974055897" lon="29.9970736656">
		<tag k="name" v="Gryta" />
		<tag k="natural" v="water" />
		<tag k="ssr:stedsnr" v="207485" />
		<tag k="water" v="lake" />
	</node>
	<node id="-808933" lat="70.4896416939" lon="29.3797155311">
		<tag k="name" v="Uhcit Rávdol" />
		<tag k="name:se" v="Uhcit Rávdol" />
		<tag k="old_name:se" v="Ravdul, uccit" />
		<tag k="ssr:stedsnr" v="202964" />
		<tag k="waterway" v="river" />
	</node>
	<node id="-808932" lat="70.487733385" lon="30.6394732006">
		<tag k="fixme" v="consider natural=peak for the most distinct mountains in the district" />
		<tag k="name" v="Storflognakken" />
		<tag k="natural" v="hill" />
		<tag k="place" v="locality" />
		<tag k="ssr:stedsnr" v="202931" />
	</node>
	<node id="-808931" lat="70.4995333769" lon="30.4489372025">
		<tag k="fixme" v="consider natural=peak for the most distinct mountains in the district" />
		<tag k="name" v="Gussoaivi" />
		<tag k="name:se" v="Gussoaivi" />
		<tag k="natural" v="hill" />
		<tag k="place" v="locality" />
		<tag k="ssr:stedsnr" v="202914" />
	</node>
	<node id="-808930" lat="70.4966639313" lon="30.1662457028">
		<tag k="fixme" v="consider natural=peak for the most distinct mountains in the district" />
		<tag k="name" v="Søttendalfjellet" />
		<tag k="natural" v="hill" />
		<tag k="place" v="locality" />
		<tag k="ssr:stedsnr" v="202911" />
	</node>
	<node id="-808929" lat="70.4715833768" lon="30.0994707267">
		<tag k="name" v="Vesterdalen" />
		<tag k="natural" v="valley" />
		<tag k="place" v="locality" />
		<tag k="ssr:stedsnr" v="202902" />
	</node>
	<node id="-808928" lat="70.4871111499" lon="30.1482484823">
		<tag k="name" v="Steinelvdalen" />
		<tag k="natural" v="valley" />
		<tag k="place" v="locality" />
		<tag k="ssr:stedsnr" v="202901" />
	</node>
	<node id="-808927" lat="70.4542667107" lon="30.4460066318">
		<tag k="name" v="Telegrafhytta" />
		<tag k="place" v="isolated_dwelling" />
		<tag k="ssr:stedsnr" v="202892" />
	</node>
	<node id="-808926" lat="70.4970500375" lon="30.1305734982">
		<tag k="name" v="Austerelva - Uhcoarddojohka" />
		<tag k="name:no" v="Austerelva" />
		<tag k="name:se" v="Uhcoarddojohka" />
		<tag k="old_name:se" v="Uccoardujåkka" />
		<tag k="ssr:stedsnr" v="202578" />
		<tag k="waterway" v="river" />
	</node>
	<node id="-808925" lat="70.5043583727" lon="29.914984743">
		<tag k="alt_name:se" v="Rásjohka" />
		<tag k="name" v="Rássejohka" />
		<tag k="name:se" v="Rássejohka" />
		<tag k="old_name:se" v="Rassejåkka;Rassejohka" />
		<tag k="ssr:stedsnr" v="202575" />
		<tag k="waterway" v="river" />
	</node>
	<node id="-808924" lat="70.5616972548" lon="29.3933183439">
		<tag k="name" v="Basečearru" />
		<tag k="name:se" v="Basečearru" />
		<tag k="natural" v="plateau" />
		<tag k="old_name:se" v="Basečærro" />
		<tag k="ssr:stedsnr" v="202506" />
	</node>
	<node id="-808923" lat="70.6556778064" lon="29.7161487799">
		<tag k="fixme" v="consider natural=peak for the most distinct mountains in the district" />
		<tag k="loc_name:se" v="Hámmánoaivi" />
		<tag k="name" v="Hamnefjell" />
		<tag k="name:no" v="Hamnefjell" />
		<tag k="natural" v="hill" />
		<tag k="place" v="locality" />
		<tag k="ssr:stedsnr" v="202488" />
	</node>
	<node id="-808922" lat="70.6130028049" lon="29.7351737607">
		<tag k="alt_name" v="Perelvtoppen" />
		<tag k="fixme" v="consider natural=peak for the most distinct mountains in the district" />
		<tag k="name" v="Perselvtoppen" />
		<tag k="natural" v="hill" />
		<tag k="place" v="locality" />
		<tag k="ssr:stedsnr" v="202470" />
	</node>
	<node id="-808921" lat="70.629808367" lon="29.7632654226">
		<tag k="alt_name" v="Ekebergvika" />
		<tag k="name" v="Eikebergvika" />
		<tag k="natural" v="bay" />
		<tag k="ssr:stedsnr" v="202457" />
	</node>
	<node id="-808920" lat="70.5429611565" lon="30.5359677534">
		<tag k="name" v="Gamvikbukta" />
		<tag k="natural" v="bay" />
		<tag k="ssr:stedsnr" v="202058" />
	</node>
	<node id="-808919" lat="70.5425306022" lon="30.5867038252">
		<tag k="name" v="Skjåvika" />
		<tag k="natural" v="bay" />
		<tag k="ssr:stedsnr" v="202048" />
	</node>
	<node id="-808918" lat="70.5494722665" lon="30.6172204766">
		<tag k="name" v="Håbrandneset" />
		<tag k="natural" v="cape" />
		<tag k="ssr:stedsnr" v="202046" />
	</node>
	<node id="-808917" lat="70.5328139283" lon="30.1458123956">
		<tag k="name" v="Veidnesodden" />
		<tag k="natural" v="cape" />
		<tag k="ssr:stedsnr" v="202043" />
	</node>
	<node id="-808916" lat="70.6281889247" lon="30.1874818543">
		<tag k="name" v="Storskardvikdalen" />
		<tag k="natural" v="valley" />
		<tag k="place" v="locality" />
		<tag k="ssr:stedsnr" v="202030" />
	</node>
	<node id="-808915" lat="70.535913937" lon="30.5081371925">
		<tag k="fixme" v="consider natural=peak for the most distinct mountains in the district" />
		<tag k="name" v="Gamvikbruna" />
		<tag k="natural" v="hill" />
		<tag k="place" v="locality" />
		<tag k="ssr:stedsnr" v="202013" />
	</node>
	<node id="-808914" lat="70.5288000451" lon="30.6174732264">
		<tag k="alt_name" v="Steinsnes, yt" />
		<tag k="name" v="Ytre Steinsnes" />
		<tag k="natural" v="cape" />
		<tag k="ssr:stedsnr" v="202005" />
	</node>
	<node id="-808913" lat="70.5104417032" lon="29.8786264118">
		<tag k="name" v="Falkedalen" />
		<tag k="natural" v="valley" />
		<tag k="place" v="locality" />
		<tag k="ssr:stedsnr" v="152405" />
	</node>
	<node id="-808912" lat="70.6092639154" lon="29.577793275">
		<tag k="name" v="Bakkehøgdene" />
		<tag k="natural" v="hill" />
		<tag k="place" v="locality" />
		<tag k="ssr:stedsnr" v="151268" />
	</node>
	<node id="-808909" lat="70.6605111409" lon="29.7775570935">
		<tag k="name" v="Olabukta" />
		<tag k="natural" v="bay" />
		<tag k="ssr:stedsnr" v="146492" />
	</node>
	<node id="-808908" lat="70.6424528108" lon="30.0473291754">
		<tag k="name" v="Sandfjordelva" />
		<tag k="ssr:stedsnr" v="146486" />
		<tag k="waterway" v="stream" />
	</node>
	<node id="-808907" lat="70.6135194842" lon="30.3229901204">
		<tag k="name" v="Klubbespiret" />
		<tag k="natural" v="hill" />
		<tag k="place" v="locality" />
		<tag k="ssr:stedsnr" v="146478" />
	</node>
	<node id="-808906" lat="70.6672194723" lon="29.7013848852">
		<tag k="fixme" v="consider natural=peak for the most distinct mountains in the district" />
		<tag k="name" v="Kyst-Rubbedalshøgda" />
		<tag k="natural" v="hill" />
		<tag k="place" v="locality" />
		<tag k="ssr:stedsnr" v="145432" />
	</node>
	<node id="-808903" lat="70.5436944791" lon="30.0404791422">
		<tag k="name" v="Torelva" />
		<tag k="ssr:stedsnr" v="152525" />
		<tag k="waterway" v="stream" />
	</node>
	<node id="-808902" lat="70.4903139243" lon="29.8535236552">
		<tag k="name" v="Ásllatjávri" />
		<tag k="name:se" v="Ásllatjávri" />
		<tag k="natural" v="water" />
		<tag k="old_name:se" v="Aslatjavri" />
		<tag k="ssr:stedsnr" v="141978" />
		<tag k="water" v="lake" />
	</node>
	<node id="-808901" lat="70.4358778146" lon="29.7202848068">
		<tag k="name" v="Rahkkegorsa" />
		<tag k="name:se" v="Rahkkegorsa" />
		<tag k="natural" v="valley" />
		<tag k="old_name:se" v="Rakkegårsa" />
		<tag k="place" v="locality" />
		<tag k="ssr:stedsnr" v="141971" />
	</node>
	<node id="-808900" lat="70.408158367" lon="29.7275736753">
		<tag k="fixme" v="consider natural=peak for the most distinct mountains in the district" />
		<tag k="name" v="Jalgesoaivi" />
		<tag k="name:se" v="Jalgesoaivi" />
		<tag k="natural" v="hill" />
		<tag k="place" v="locality" />
		<tag k="ssr:stedsnr" v="141967" />
	</node>
	<node id="-808899" lat="70.3768417076" lon="29.7846236329">
		<tag k="name" v="Ruossa" />
		<tag k="name:se" v="Ruossa" />
		<tag k="natural" v="valley" />
		<tag k="place" v="locality" />
		<tag k="ssr:stedsnr" v="141962" />
	</node>
	<node id="-808898" lat="70.6719361398" lon="29.792426537">
		<tag k="name" v="Kvannvikneset" />
		<tag k="natural" v="cape" />
		<tag k="ssr:stedsnr" v="141491" />
	</node>
	<node id="-808897" lat="70.6284750303" lon="29.7124570889">
		<tag k="name" v="Holmen" />
		<tag k="natural" v="cape" />
		<tag k="ssr:stedsnr" v="141463" />
	</node>
	<node id="-808896" lat="70.5280639245" lon="29.5641821374">
		<tag k="alt_name" v="Oardo, litle" />
		<tag k="name" v="Lille Oardo" />
		<tag k="natural" v="water" />
		<tag k="ssr:stedsnr" v="141460" />
	</node>
	<node id="-808895" lat="70.5243000337" lon="29.627262673">
		<tag k="name" v="Svingvatnet" />
		<tag k="natural" v="water" />
		<tag k="ssr:stedsnr" v="141457" />
	</node>
	<node id="-808894" lat="70.5162417049" lon="29.8647486552">
		<tag k="alt_name" v="Johandalen, øvre" />
		<tag k="name" v="Øvre Johandalen" />
		<tag k="natural" v="valley" />
		<tag k="place" v="locality" />
		<tag k="ssr:stedsnr" v="141456" />
	</node>
	<node id="-808893" lat="70.579283366" lon="29.7951264819">
		<tag k="name" v="Steinfjellvatnet - Námmejávri" />
		<tag k="name:no" v="Steinfjellvatnet" />
		<tag k="name:se" v="Námmejávri" />
		<tag k="natural" v="water" />
		<tag k="old_name:se" v="Nammejavri" />
		<tag k="ssr:stedsnr" v="141452" />
	</node>
	<node id="-808892" lat="70.5115805972" lon="29.8901736331">
		<tag k="alt_name" v="Falkefjellet" />
		<tag k="fixme" v="consider natural=peak for the most distinct mountains in the district" />
		<tag k="name" v="Falkfjellet" />
		<tag k="natural" v="hill" />
		<tag k="place" v="locality" />
		<tag k="ssr:stedsnr" v="141453" />
	</node>
	<node id="-808891" lat="70.5781528166" lon="30.098265223">
		<tag k="name" v="Laksevatna" />
		<tag k="natural" v="water" />
		<tag k="ssr:stedsnr" v="141048" />
		<tag k="water" v="lake" />
	</node>
	<node id="-808890" lat="70.5767083749" lon="30.203890173">
		<tag k="loc_name" v="Sandfjordselva" />
		<tag k="name" v="Sandfjorddalselva" />
		<tag k="ssr:stedsnr" v="141047" />
		<tag k="waterway" v="stream" />
	</node>
	<node id="-808889" lat="70.6444222551" lon="30.2104957417">
		<tag k="name" v="Storskardvika" />
		<tag k="natural" v="bay" />
		<tag k="ssr:stedsnr" v="141041" />
	</node>
	<node id="-808888" lat="70.5280917027" lon="30.2553095717">
		<tag k="fixme" v="consider natural=peak for the most distinct mountains in the district" />
		<tag k="name" v="Kyst-Tavla" />
		<tag k="natural" v="hill" />
		<tag k="place" v="locality" />
		<tag k="ssr:stedsnr" v="141012" />
	</node>
	<node id="-808887" lat="70.5168139358" lon="30.505053856">
		<tag k="name" v="Stormyran" />
		<tag k="natural" v="wetland" />
		<tag k="ssr:stedsnr" v="141007" />
	</node>
	<node id="-808886" lat="70.5476472613" lon="30.4754761135">
		<tag k="name" v="Svartnesbukta" />
		<tag k="natural" v="bay" />
		<tag k="ssr:stedsnr" v="141059" />
	</node>
	<node id="-808885" lat="70.5388667024" lon="30.0307346849">
		<tag k="alt_name" v="Sommerseth" />
		<tag k="name" v="Sommarsete" />
		<tag k="place" v="isolated_dwelling" />
		<tag k="ssr:stedsnr" v="141053" />
	</node>
	<node id="-808884" lat="70.4030639316" lon="30.0728540534">
		<tag k="fixme" v="consider natural=peak for the most distinct mountains in the district" />
		<tag k="name" v="Røyskattfjellet" />
		<tag k="natural" v="hill" />
		<tag k="place" v="locality" />
		<tag k="ssr:stedsnr" v="140886" />
	</node>
	<node id="-808883" lat="70.399658382" lon="30.2626039464">
		<tag k="name" v="Juovkkaidávži" />
		<tag k="name:se" v="Juovkkaidávži" />
		<tag k="natural" v="valley" />
		<tag k="old_name:se" v="Juovkaidavži" />
		<tag k="place" v="locality" />
		<tag k="ssr:stedsnr" v="140885" />
	</node>
	<node id="-808882" lat="70.4446389373" lon="30.3850094438">
		<tag k="fixme" v="consider natural=peak for the most distinct mountains in the district" />
		<tag k="name" v="Heastačielgi" />
		<tag k="name:se" v="Heastačielgi" />
		<tag k="natural" v="hill" />
		<tag k="old_name:se" v="Hæstačielgi" />
		<tag k="place" v="locality" />
		<tag k="ssr:stedsnr" v="140884" />
	</node>
	<node id="-808881" lat="70.6193916945" lon="29.7659987393">
		<tag k="name" v="Klauvvasselva" />
		<tag k="ssr:stedsnr" v="91434" />
		<tag k="waterway" v="stream" />
	</node>
	<node id="-808880" lat="70.5090278134" lon="29.8851736385">
		<tag k="name" v="Reingjerdmyran" />
		<tag k="natural" v="wetland" />
		<tag k="ssr:stedsnr" v="91412" />
	</node>
	<node id="-808879" lat="70.6249416949" lon="29.6968015564">
		<tag k="building" v="industrial" />
		<tag k="name" v="Slippen" />
		<tag k="ssr:stedsnr" v="91406" />
	</node>
	<node id="-808878" lat="70.6197083615" lon="29.725854322">
		<tag k="fixme" v="consider natural=peak for the most distinct mountains in the district" />
		<tag k="name" v="Simaaksla" />
		<tag k="natural" v="hill" />
		<tag k="place" v="locality" />
		<tag k="ssr:stedsnr" v="91391" />
	</node>
	<node id="-808877" lat="70.6229000304" lon="29.6847710046">
		<tag k="name" v="Mariberget" />
		<tag k="natural" v="hill" />
		<tag k="place" v="locality" />
		<tag k="ssr:stedsnr" v="91343" />
	</node>
	<node id="-808876" lat="70.4562278135" lon="29.7174181612">
		<tag k="fixme" v="consider natural=peak for the most distinct mountains in the district" />
		<tag k="name" v="Krokfjellet - Roahkkoaivi" />
		<tag k="name:no" v="Krokfjellet" />
		<tag k="name:se" v="Roahkkoaivi" />
		<tag k="natural" v="hill" />
		<tag k="old_name:se" v="Roakkoaivi" />
		<tag k="place" v="locality" />
		<tag k="ssr:stedsnr" v="86983" />
	</node>
	<node id="-808875" lat="70.6340583638" lon="29.8094987305">
		<tag k="name" v="Skovik" />
		<tag k="place" v="isolated_dwelling" />
		<tag k="ssr:stedsnr" v="86518" />
	</node>
	<node id="-808874" lat="70.7039861445" lon="29.9514709245">
		<tag k="name" v="Inner-Rossmålen" />
		<tag k="natural" v="cape" />
		<tag k="ssr:stedsnr" v="85360" />
	</node>
	<node id="-808873" lat="70.7070972578" lon="30.103793058">
		<tag k="name" v="Sandstabben" />
		<tag k="natural" v="shoal" />
		<tag k="place" v="locality" />
		<tag k="ssr:stedsnr" v="85355" />
	</node>
	<node id="-808872" lat="70.616666704" lon="29.9999986167">
		<tag k="name" v="Makkaurhalvøya" />
		<tag k="natural" v="cape" />
		<tag k="ssr:stedsnr" v="85211" />
	</node>
	<node id="-808871" lat="70.4771167032" lon="29.9269930401">
		<tag k="name" v="Trangdalen - Baskkesávži" />
		<tag k="name:no" v="Trangdalen" />
		<tag k="name:se" v="Baskkesávži" />
		<tag k="natural" v="valley" />
		<tag k="old_name:se" v="Baskesavži" />
		<tag k="place" v="locality" />
		<tag k="ssr:stedsnr" v="81979" />
	</node>
	<node id="-808870" lat="70.493402819" lon="30.2861845176">
		<tag k="name" v="Gunnargamdalen" />
		<tag k="natural" v="valley" />
		<tag k="place" v="locality" />
		<tag k="ssr:stedsnr" v="81911" />
	</node>
	<node id="-808869" lat="70.4925667074" lon="30.0873596418">
		<tag k="name" v="Gamslettdalen" />
		<tag k="natural" v="valley" />
		<tag k="place" v="locality" />
		<tag k="ssr:stedsnr" v="81909" />
	</node>
	<node id="-808868" lat="70.4955528183" lon="30.145295734">
		<tag k="name" v="Søttendalen" />
		<tag k="natural" v="valley" />
		<tag k="place" v="locality" />
		<tag k="ssr:stedsnr" v="81908" />
	</node>
	<node id="-808867" lat="70.4609055963" lon="30.0445540944">
		<tag k="name" v="Steindalen" />
		<tag k="natural" v="valley" />
		<tag k="place" v="locality" />
		<tag k="ssr:stedsnr" v="81900" />
	</node>
	<node id="-808866" lat="70.4771972582" lon="30.0889762983">
		<tag k="name" v="Allmenningdalen" />
		<tag k="natural" v="valley" />
		<tag k="place" v="locality" />
		<tag k="ssr:stedsnr" v="81891" />
	</node>
	<node id="-808865" lat="70.4941333842" lon="30.5473232549">
		<tag k="name" v="Per Olsadalen" />
		<tag k="natural" v="valley" />
		<tag k="place" v="locality" />
		<tag k="ssr:stedsnr" v="81890" />
	</node>
	<node id="-808864" lat="70.7307222491" lon="29.7836987861">
		<tag k="name" v="Seibøneset" />
		<tag k="natural" v="cape" />
		<tag k="ssr:stedsnr" v="81520" />
	</node>
	<node id="-808863" lat="70.5147139155" lon="29.2593544928">
		<tag k="name" v="Oarddoskáidi" />
		<tag k="name:se" v="Oarddoskáidi" />
		<tag k="natural" v="cape" />
		<tag k="old_name:se" v="Oarduskaidi" />
		<tag k="ssr:stedsnr" v="81514" />
	</node>
	<node id="-808862" lat="70.55014726" lon="30.0785957688">
		<tag k="name" v="Nordfjord" />
		<tag k="place" v="locality" />
		<tag k="ssr:stedsnr" v="81060" />
	</node>
	<node id="-808861" lat="70.6265194866" lon="30.2759429278">
		<tag k="name" v="Stormolla" />
		<tag k="natural" v="slope" />
		<tag k="place" v="locality" />
		<tag k="ssr:stedsnr" v="81038" />
	</node>
	<node id="-808860" lat="70.5056861481" lon="30.1593957054">
		<tag k="name" v="Karielva" />
		<tag k="ssr:stedsnr" v="81009" />
		<tag k="waterway" v="stream" />
	</node>
	<node id="-808859" lat="70.4503861548" lon="30.1604373524">
		<tag k="name" v="Sløkholmdalen" />
		<tag k="natural" v="valley" />
		<tag k="place" v="locality" />
		<tag k="ssr:stedsnr" v="80890" />
	</node>
	<node id="-808858" lat="70.5373278181" lon="30.0206513529">
		<tag k="name" v="Vassbotn" />
		<tag k="natural" v="bay" />
		<tag k="ssr:stedsnr" v="30499" />
	</node>
	<node id="-808857" lat="70.5387944818" lon="30.0021069155">
		<tag k="name" v="Løkholman" />
		<tag k="natural" v="beach" />
		<tag k="place" v="locality" />
		<tag k="ssr:stedsnr" v="30494" />
	</node>
	<node id="-808856" lat="70.5006778167" lon="29.8539736456">
		<tag k="name" v="Gamsletta" />
		<tag k="place" v="locality" />
		<tag k="ssr:stedsnr" v="30402" />
	</node>
	<node id="-808855" lat="70.5358917053" lon="29.9710708259">
		<tag k="name" v="Storhaugdalen" />
		<tag k="natural" v="valley" />
		<tag k="place" v="locality" />
		<tag k="ssr:stedsnr" v="30466" />
	</node>
	<node id="-808854" lat="70.6273333621" lon="29.697662653">
		<tag k="building" v="industrial" />
		<tag k="industrial" v="factory" />
		<tag k="name" v="Neptun" />
		<tag k="ssr:stedsnr" v="30381" />
	</node>
	<node id="-808853" lat="70.6296444738" lon="29.7075432078">
		<tag k="name" v="Valen" />
		<tag k="place" v="locality" />
		<tag k="ssr:stedsnr" v="30377" />
	</node>
	<node id="-808852" lat="70.608027808" lon="29.6454987832">
		<tag k="name" v="Tverrelvdalen" />
		<tag k="natural" v="valley" />
		<tag k="place" v="locality" />
		<tag k="ssr:stedsnr" v="30260" />
	</node>
	<node id="-808850" lat="71.0333333656" lon="31.4166646838">
		<tag k="name" v="Nordbanken" />
		<tag k="place" v="locality" />
		<tag k="ssr:stedsnr" v="24417" />
	</node>
	<node id="-808849" lat="70.4751694801" lon="29.7784792277">
		<tag k="name" v="Rássejávri" />
		<tag k="name:se" v="Rássejávri" />
		<tag k="natural" v="water" />
		<tag k="old_name:se" v="Rassejavri" />
		<tag k="ssr:stedsnr" v="20986" />
		<tag k="water" v="lake" />
	</node>
	<node id="-808848" lat="70.4602417045" lon="29.5394821256">
		<tag k="name" v="Viddene - Morešveaiskáidi" />
		<tag k="name:no" v="Viddene" />
		<tag k="name:se" v="Morešveaiskáidi" />
		<tag k="natural" v="plateau" />
		<tag k="old_name:se" v="Mårešvæjskaidi" />
		<tag k="ssr:stedsnr" v="20982" />
	</node>
	<node id="-808847" lat="70.3388889368" lon="30.0124651657">
		<tag k="name" v="Njuvččagurjohka" />
		<tag k="name:se" v="Njuvččagurjohka" />
		<tag k="old_name:se" v="Njuvčagurjåkka" />
		<tag k="ssr:stedsnr" v="20945" />
		<tag k="waterway" v="stream" />
	</node>
	<node id="-808846" lat="70.7297111412" lon="29.770120995">
		<tag k="name" v="Heikabukta" />
		<tag k="natural" v="bay" />
		<tag k="ssr:stedsnr" v="20493" />
	</node>
	<node id="-808845" lat="70.6866555829" lon="29.9132875881">
		<tag k="alt_name" v="Skarbergvika" />
		<tag k="name" v="Skarvbergvika" />
		<tag k="natural" v="bay" />
		<tag k="ssr:stedsnr" v="20474" />
	</node>
	<node id="-808843" lat="70.6974500296" lon="29.9956569969">
		<tag k="name" v="Nonsvatnet" />
		<tag k="natural" v="water" />
		<tag k="ssr:stedsnr" v="20460" />
	</node>
	<node id="-808842" lat="70.6205833647" lon="29.7787265152">
		<tag k="name" v="Gatsbelhøgda - Gazzabealčohkka" />
		<tag k="name:no" v="Gatsbelhøgda" />
		<tag k="name:se" v="Gazzabealčohkka" />
		<tag k="natural" v="hill" />
		<tag k="old_name:se" v="Gazzabælčåkka" />
		<tag k="place" v="locality" />
		<tag k="ssr:stedsnr" v="20455" />
	</node>
	<node id="-808841" lat="70.5486611494" lon="30.4222650287">
		<tag k="fixme" v="consider natural=peak for the most distinct mountains in the district" />
		<tag k="name" v="Svartnesbruna" />
		<tag k="natural" v="hill" />
		<tag k="place" v="locality" />
		<tag k="ssr:stedsnr" v="20061" />
	</node>
	<node id="-808840" lat="70.5444972635" lon="30.5249121976">
		<tag k="name" v="Risvika" />
		<tag k="natural" v="bay" />
		<tag k="ssr:stedsnr" v="20049" />
	</node>
	<node id="-808839" lat="70.5340917067" lon="30.3034484253">
		<tag k="fixme" v="consider natural=peak for the most distinct mountains in the district" />
		<tag k="name" v="Romsdalsbruna" />
		<tag k="natural" v="hill" />
		<tag k="place" v="locality" />
		<tag k="ssr:stedsnr" v="20012" />
	</node>
	<node id="-808838" lat="70.5222806021" lon="30.5768732535">
		<tag k="name" v="Tårnvatnet" />
		<tag k="natural" v="water" />
		<tag k="ssr:stedsnr" v="20001" />
	</node>
	<node id="-808835" lat="70.5327399354" lon="30.0048170139">
		<tag k="name" v="Vesterelva " />
		<tag k="place" v="hamlet" />
		<tag k="ssr:stedsnr" v="989591" />
	</node>
	<node id="-808834" lat="70.5429389233" lon="30.0864402103">
		<tag k="name" v="Stormolla" />
		<tag k="natural" v="bay" />
		<tag k="ssr:stedsnr" v="394495" />
	</node>
	<node id="-808833" lat="70.517033367" lon="29.9251152863">
		<tag k="name" v="Moan" />
		<tag k="place" v="locality" />
		<tag k="ssr:stedsnr" v="394387" />
	</node>
	<node id="-808832" lat="70.6188028092" lon="29.6873237654">
		<tag k="name" v="Strømsnes" />
		<tag k="place" v="quarter" />
		<tag k="ssr:stedsnr" v="394312" />
	</node>
	<node id="-808831" lat="70.5319389313" lon="30.0419707855">
		<tag k="alt_name" v="Strømsnes" />
		<tag k="name" v="Strømsneset" />
		<tag k="natural" v="cape" />
		<tag k="ssr:stedsnr" v="390554" />
	</node>
	<node id="-808830" lat="70.6977750333" lon="30.092337502">
		<tag k="name" v="Molvik" />
		<tag k="place" v="locality" />
		<tag k="ssr:stedsnr" v="389538" />
	</node>
	<node id="-808829" lat="70.6237972517" lon="29.6994598747">
		<tag k="alt_name" v="Laukholmen" />
		<tag k="name" v="Liholmen" />
		<tag k="place" v="islet" />
		<tag k="ssr:stedsnr" v="389533" />
	</node>
	<node id="-808828" lat="70.6393528158" lon="30.236965171">
		<tag k="name" v="Storsteinneset" />
		<tag k="natural" v="cape" />
		<tag k="ssr:stedsnr" v="388407" />
	</node>
	<node id="-808827" lat="70.4686750398" lon="29.6441820725">
		<tag k="name" v="Vuovdejohka" />
		<tag k="name:se" v="Vuovdejohka" />
		<tag k="old_name:se" v="Vuovdejåkka" />
		<tag k="ssr:stedsnr" v="384968" />
		<tag k="waterway" v="stream" />
	</node>
	<node id="-808826" lat="70.4451861476" lon="29.8660930727">
		<tag k="name" v="Noaidejohka" />
		<tag k="name:se" v="Noaidejohka" />
		<tag k="old_name:se" v="Noaidejåkka" />
		<tag k="ssr:stedsnr" v="384961" />
		<tag k="waterway" v="stream" />
	</node>
	<node id="-808825" lat="70.3478305926" lon="29.8791680323">
		<tag k="name" v="Gárgašjohka" />
		<tag k="name:se" v="Gárgašjohka" />
		<tag k="old_name:se" v="Gargašjåkka" />
		<tag k="ssr:stedsnr" v="384893" />
		<tag k="waterway" v="river" />
	</node>
	<node id="-808824" lat="70.4733417131" lon="30.5892843205">
		<tag k="name" v="Finnvikdalen" />
		<tag k="natural" v="valley" />
		<tag k="place" v="locality" />
		<tag k="ssr:stedsnr" v="384878" />
	</node>
	<node id="-808823" lat="70.4652083825" lon="30.7297286876">
		<tag k="name" v="Seglkollen" />
		<tag k="natural" v="hill" />
		<tag k="place" v="locality" />
		<tag k="ssr:stedsnr" v="384905" />
	</node>
	<node id="-808822" lat="70.7083694771" lon="29.7141182491">
		<tag k="fixme" v="consider natural=peak for the most distinct mountains in the district" />
		<tag k="name" v="Båtsnæringen" />
		<tag k="natural" v="hill" />
		<tag k="place" v="locality" />
		<tag k="ssr:stedsnr" v="384474" />
	</node>
	<node id="-808821" lat="70.6382417021" lon="29.8356515062">
		<tag k="name" v="Prestelva" />
		<tag k="ssr:stedsnr" v="384458" />
		<tag k="waterway" v="stream" />
	</node>
	<node id="-808820" lat="70.6354055872" lon="29.6825960104">
		<tag k="name" v="Skoleelva" />
		<tag k="ssr:stedsnr" v="384455" />
		<tag k="waterway" v="stream" />
	</node>
	<node id="-808819" lat="70.6292361398" lon="29.6947904486">
		<tag k="loc_name:se" v="ʒáhcavuonna" />
		<tag k="name" v="Båtsfjord" />
		<tag k="name:no" v="Båtsfjord" />
		<tag k="place" v="village" />
		<tag k="ssr:stedsnr" v="384452" />
	</node>
	<node id="-808818" lat="70.5616750355" lon="30.0378208103">
		<tag k="name" v="Nordfjorddalen" />
		<tag k="natural" v="valley" />
		<tag k="place" v="locality" />
		<tag k="ssr:stedsnr" v="384047" />
	</node>
	<node id="-808817" lat="70.5638111542" lon="30.2193207079">
		<tag k="name" v="Syltefjord-Sandfjorden" />
		<tag k="natural" v="bay" />
		<tag k="ssr:stedsnr" v="384046" />
	</node>
	<node id="-808816" lat="70.5008055922" lon="30.0429929898">
		<tag k="fixme" v="consider natural=peak for the most distinct mountains in the district" />
		<tag k="name" v="Oterfjellet" />
		<tag k="natural" v="hill" />
		<tag k="place" v="locality" />
		<tag k="ssr:stedsnr" v="384007" />
	</node>
	<node id="-808815" lat="70.5137305974" lon="30.4321955718">
		<tag k="name" v="Syltevikmoan" />
		<tag k="place" v="locality" />
		<tag k="ssr:stedsnr" v="384001" />
	</node>
	<node id="-808814" lat="70.500616698" lon="29.3223266842">
		<tag k="name" v="Stuorra Oardu" />
		<tag k="name:se" v="Stuorra Oardu" />
		<tag k="old_name:se" v="Oardu, stuorra" />
		<tag k="ssr:stedsnr" v="383965" />
		<tag k="waterway" v="river" />
	</node>
	<node id="-808813" lat="70.4486389316" lon="30.3710622273">
		<tag k="name" v="Orošjohka" />
		<tag k="name:se" v="Orošjohka" />
		<tag k="old_name:se" v="Årušjåkka" />
		<tag k="ssr:stedsnr" v="383886" />
		<tag k="waterway" v="river" />
	</node>
	<node id="-808812" lat="70.6048417006" lon="29.7242154346">
		<tag k="alt_name" v="Pervatn" />
		<tag k="name" v="Pervatnet" />
		<tag k="natural" v="water" />
		<tag k="ssr:stedsnr" v="383492" />
		<tag k="water" v="lake" />
	</node>
	<node id="-808811" lat="70.515947258" lon="29.7540403769">
		<tag k="name" v="Slangedalen" />
		<tag k="natural" v="valley" />
		<tag k="place" v="locality" />
		<tag k="ssr:stedsnr" v="383472" />
	</node>
	<node id="-808810" lat="70.5123305907" lon="29.5873237842">
		<tag k="name" v="Laksnes" />
		<tag k="place" v="isolated_dwelling" />
		<tag k="ssr:stedsnr" v="383470" />
	</node>
	<node id="-808809" lat="70.5783416956" lon="29.4927210785">
		<tag k="alt_name:no" v="Buktekjølen" />
		<tag k="fixme" v="consider natural=peak for the most distinct mountains in the district" />
		<tag k="name" v="Buktkjølen - Buhkkačearru" />
		<tag k="name:no" v="Buktkjølen" />
		<tag k="name:se" v="Buhkkačearru" />
		<tag k="natural" v="hill" />
		<tag k="old_name:se" v="Bukkačærro;Bukkačearru" />
		<tag k="place" v="locality" />
		<tag k="ssr:stedsnr" v="383466" />
	</node>
	<node id="-808808" lat="70.8306139186" lon="29.9252154074">
		<tag k="name" v="Leira" />
		<tag k="place" v="locality" />
		<tag k="ssr:stedsnr" v="359619" />
	</node>
	<node id="-808807" lat="70.5545444806" lon="30.1664651815">
		<tag k="fixme" v="consider natural=peak for the most distinct mountains in the district" />
		<tag k="name" v="Daumannsmolla" />
		<tag k="natural" v="hill" />
		<tag k="place" v="locality" />
		<tag k="ssr:stedsnr" v="358084" />
	</node>
	<node id="-808806" lat="70.5503722575" lon="29.997737478">
		<tag k="fixme" v="consider natural=peak for the most distinct mountains in the district" />
		<tag k="name" v="Steinfjellet" />
		<tag k="natural" v="hill" />
		<tag k="place" v="locality" />
		<tag k="ssr:stedsnr" v="334450" />
	</node>
	<node id="-808805" lat="70.5400639225" lon="29.9843374809">
		<tag k="fixme" v="consider natural=peak for the most distinct mountains in the district" />
		<tag k="name" v="Vassbotnfjellet" />
		<tag k="natural" v="hill" />
		<tag k="place" v="locality" />
		<tag k="ssr:stedsnr" v="334419" />
	</node>
	<node id="-808804" lat="70.6340000326" lon="29.7997820541">
		<tag k="name" v="Skoviknesset" />
		<tag k="natural" v="cape" />
		<tag k="ssr:stedsnr" v="334332" />
	</node>
	<node id="-808803" lat="70.6224333638" lon="29.6932765546">
		<tag k="name" v="Håpet" />
		<tag k="place" v="quarter" />
		<tag k="ssr:stedsnr" v="334299" />
	</node>
	<node id="-808802" lat="70.6341861446" lon="29.6904682367">
		<tag k="name" v="Skolelvdalen" />
		<tag k="natural" v="valley" />
		<tag k="place" v="locality" />
		<tag k="ssr:stedsnr" v="334296" />
	</node>
	<node id="-808801" lat="70.5305555996" lon="30.6644426422">
		<tag k="name" v="Seigrunnen" />
		<tag k="natural" v="shoal" />
		<tag k="place" v="locality" />
		<tag k="ssr:stedsnr" v="330632" />
	</node>
	<node id="-808800" lat="70.5262500367" lon="30.0104430232">
		<tag k="fixme" v="consider natural=peak for the most distinct mountains in the district" />
		<tag k="name" v="Uhcagáisá" />
		<tag k="name:se" v="Uhcagáisá" />
		<tag k="natural" v="hill" />
		<tag k="place" v="locality" />
		<tag k="ssr:stedsnr" v="334408" />
	</node>
	<node id="-808799" lat="70.6480333681" lon="29.9042042429">
		<tag k="fixme" v="consider natural=peak for the most distinct mountains in the district" />
		<tag k="name" v="Rydbergneset" />
		<tag k="natural" v="hill" />
		<tag k="place" v="locality" />
		<tag k="ssr:stedsnr" v="329503" />
	</node>
	<node id="-808798" lat="70.4610111458" lon="29.6664876268">
		<tag k="name" v="Morešveairoahkki" />
		<tag k="name:se" v="Morešveairoahkki" />
		<tag k="natural" v="valley" />
		<tag k="old_name:se" v="Mårešvæjroakki" />
		<tag k="place" v="locality" />
		<tag k="ssr:stedsnr" v="323978" />
	</node>
	<node id="-808797" lat="70.4100083716" lon="29.6853737068">
		<tag k="name" v="Stuorraskáidi" />
		<tag k="name:se" v="Stuorraskáidi" />
		<tag k="natural" v="cape" />
		<tag k="old_name:se" v="Stuorraskaidi" />
		<tag k="ssr:stedsnr" v="323975" />
	</node>
	<node id="-808796" lat="70.3188028251" lon="30.0054012789">
		<tag k="name" v="Andre porten - Uhca Rohči" />
		<tag k="name:no" v="Andre porten" />
		<tag k="name:se" v="Uhca Rohči" />
		<tag k="natural" v="valley" />
		<tag k="old_name:se" v="Råčči, ucca" />
		<tag k="place" v="locality" />
		<tag k="ssr:stedsnr" v="323935" />
	</node>
	<node id="-808795" lat="70.3495778188" lon="30.1209428852">
		<tag k="fixme" v="consider natural=peak for the most distinct mountains in the district" />
		<tag k="name" v="Ovllánddeoaivi" />
		<tag k="name:se" v="Ovllánddeoaivi" />
		<tag k="natural" v="hill" />
		<tag k="old_name:se" v="Åvlandeoaivi;Ovll-Ándde-oaivi" />
		<tag k="place" v="locality" />
		<tag k="ssr:stedsnr" v="323931" />
	</node>
	<node id="-808794" lat="70.3195111569" lon="30.1163428919">
		<tag k="fixme" v="consider natural=peak for the most distinct mountains in the district" />
		<tag k="name" v="Ruoššačohkka" />
		<tag k="name:se" v="Ruoššačohkka" />
		<tag k="natural" v="hill" />
		<tag k="old_name:se" v="Ruoššačåkka" />
		<tag k="place" v="locality" />
		<tag k="ssr:stedsnr" v="323929" />
	</node>
	<node id="-808793" lat="70.495002822" lon="30.4185538932">
		<tag k="name" v="Rundhaugen" />
		<tag k="natural" v="hill" />
		<tag k="place" v="locality" />
		<tag k="ssr:stedsnr" v="323899" />
	</node>
	<node id="-808792" lat="70.6932083643" lon="29.8077487588">
		<tag k="name" v="Rubbedalsneset" />
		<tag k="natural" v="cape" />
		<tag k="ssr:stedsnr" v="323490" />
	</node>
	<node id="-808791" lat="70.6994305917" lon="29.9838903294">
		<tag k="name" v="Skipsvikhalsen" />
		<tag k="natural" v="valley" />
		<tag k="place" v="locality" />
		<tag k="ssr:stedsnr" v="323483" />
	</node>
	<node id="-808790" lat="70.6157916997" lon="29.6828599026">
		<tag k="alt_name" v="Strømvatn;Strømvatnet" />
		<tag k="fixme" v="multiple name tags, choose one and add the other to alt_name" />
		<tag k="name" v="Vatnet;Straumsnesvatnet" />
		<tag k="natural" v="water" />
		<tag k="ssr:stedsnr" v="323478" />
	</node>
	<node id="-808789" lat="70.5411166958" lon="29.4447044098">
		<tag k="name" v="Adamsvatnet - Áttájávri" />
		<tag k="name:no" v="Adamsvatnet" />
		<tag k="name:se" v="Áttájávri" />
		<tag k="natural" v="water" />
		<tag k="old_name:se" v="Addajavri" />
		<tag k="ssr:stedsnr" v="323463" />
		<tag k="water" v="lake" />
	</node>
	<node id="-808788" lat="70.5726722568" lon="29.6427987717">
		<tag k="name" v="Djupvasselva" />
		<tag k="ssr:stedsnr" v="323452" />
		<tag k="waterway" v="river" />
	</node>
	<node id="-808787" lat="70.57542503" lon="29.6738209812">
		<tag k="name" v="Storelva - Orošjohka" />
		<tag k="name:no" v="Storelva" />
		<tag k="name:se" v="Orošjohka" />
		<tag k="old_name:se" v="Årušjåkka" />
		<tag k="ssr:stedsnr" v="323115" />
		<tag k="waterway" v="river" />
	</node>
	<node id="-808786" lat="70.5458972607" lon="30.3449622889">
		<tag k="alt_name" v="Syltevika, indre" />
		<tag k="name" v="Indre Syltevika" />
		<tag k="natural" v="bay" />
		<tag k="ssr:stedsnr" v="323073" />
	</node>
	<node id="-808785" lat="70.5443694853" lon="30.0986457756">
		<tag k="name" v="Nordfjorden" />
		<tag k="natural" v="bay" />
		<tag k="ssr:stedsnr" v="323068" />
	</node>
	<node id="-808784" lat="70.5312361448" lon="30.0415152343">
		<tag k="alt_name" v="Strømmen" />
		<tag k="name" v="Straumen" />
		<tag k="natural" v="strait" />
		<tag k="ssr:stedsnr" v="323057" />
	</node>
	<node id="-808783" lat="70.7096278056" lon="30.0139875472">
		<tag k="name" v="Ytter-Rossmålen" />
		<tag k="natural" v="cape" />
		<tag k="ssr:stedsnr" v="323048" />
	</node>
	<node id="-808782" lat="70.5234778164" lon="30.3838261582">
		<tag k="name" v="Ruossagorsa" />
		<tag k="name:se" v="Ruossagorsa" />
		<tag k="natural" v="valley" />
		<tag k="old_name:se" v="Ruossagårsa" />
		<tag k="place" v="locality" />
		<tag k="ssr:stedsnr" v="323014" />
	</node>
	<node id="-808781" lat="70.4174555911" lon="29.6528431651">
		<tag k="fixme" v="consider boundary=protected_area and relevant protect_class if not nature reserve" />
		<tag k="leisure" v="nature_reserve" />
		<tag k="name" v="Varangerhalvøya nasjonalpark" />
		<tag k="ssr:stedsnr" v="284276" />
	</node>
	<node id="-808780" lat="70.5361305924" lon="29.994873602">
		<tag k="name" v="Vassbotnelva" />
		<tag k="ssr:stedsnr" v="273491" />
		<tag k="waterway" v="stream" />
	</node>
	<node id="-808779" lat="70.5498167034" lon="30.1446540833">
		<tag k="name" v="Kvalmolla" />
		<tag k="natural" v="bay" />
		<tag k="ssr:stedsnr" v="273472" />
	</node>
	<node id="-808778" lat="70.6307833692" lon="29.7747015179">
		<tag k="name" v="Kvanngrø" />
		<tag k="natural" v="bay" />
		<tag k="ssr:stedsnr" v="273391" />
	</node>
	<node id="-808777" lat="70.6283472572" lon="29.7614154235">
		<tag k="name" v="Ekebergelva" />
		<tag k="ssr:stedsnr" v="273392" />
		<tag k="waterway" v="stream" />
	</node>
	<node id="-808776" lat="70.6368500317" lon="29.7395904193">
		<tag k="name" v="Hamnneset" />
		<tag k="place" v="quarter" />
		<tag k="ssr:stedsnr" v="273389" />
	</node>
	<node id="-809215" lat="70.4541013729" lon="29.389788046">
		<tag k="fixme" v="consider tourism=alpine_hut or tourism=chalet" />
		<tag k="name" v="Helheim" />
		<tag k="ssr:stedsnr" v="972825" />
		<tag k="tourism" v="wilderness_hut" />
	</node>
	<node id="-809214" lat="70.7003166977" lon="30.0666958446">
		<tag k="name" v="Máhkirjávrrit" />
		<tag k="name:se" v="Máhkirjávrrit" />
		<tag k="natural" v="water" />
		<tag k="old_name:se" v="Makkirjavrit" />
		<tag k="ssr:stedsnr" v="967094" />
		<tag k="water" v="lake" />
	</node>
	<node id="-809213" lat="70.532875037" lon="30.0673846675">
		<tag k="name" v="Hamna" />
		<tag k="place" v="locality" />
		<tag k="ssr:stedsnr" v="941486" />
	</node>
	<node id="-809212" lat="70.6211750268" lon="29.7465126437">
		<tag k="name" v="Øvre Ekebergvatn" />
		<tag k="natural" v="water" />
		<tag k="ssr:stedsnr" v="941388" />
		<tag k="water" v="lake" />
	</node>
	<node id="-809211" lat="70.643480583" lon="29.7468765453">
		<tag k="name" v="Ursinbukta" />
		<tag k="natural" v="bay" />
		<tag k="ssr:stedsnr" v="941349" />
	</node>
	<node id="-809210" lat="70.6186583675" lon="29.6983543396">
		<tag k="name" v="Solheim" />
		<tag k="place" v="locality" />
		<tag k="ssr:stedsnr" v="941342" />
	</node>
	<node id="-809209" lat="70.6468361428" lon="29.662040479">
		<tag k="name" v="Skolelvgrenan" />
		<tag k="natural" v="slope" />
		<tag k="place" v="locality" />
		<tag k="ssr:stedsnr" v="941336" />
	</node>
	<node id="-809208" lat="70.5425972604" lon="30.0422846828">
		<tag k="name" v="Nordfjordeidet" />
		<tag k="natural" v="strait" />
		<tag k="ssr:stedsnr" v="939924" />
	</node>
	<node id="-809207" lat="70.6437722549" lon="29.7407404453">
		<tag k="name" v="Nordskogen" />
		<tag k="place" v="quarter" />
		<tag k="ssr:stedsnr" v="939777" />
	</node>
	<node id="-809206" lat="70.5408472706" lon="30.6432398879">
		<tag k="name" v="Merra" />
		<tag k="natural" v="shoal" />
		<tag k="place" v="locality" />
		<tag k="ssr:stedsnr" v="937629" />
	</node>
	<node id="-809205" lat="70.5144528181" lon="30.2271095736">
		<tag k="fixme" v="consider natural=peak for the most distinct mountains in the district" />
		<tag k="name" v="Rødbergan" />
		<tag k="natural" v="hill" />
		<tag k="place" v="locality" />
		<tag k="ssr:stedsnr" v="935457" />
	</node>
	<node id="-809204" lat="70.4831555929" lon="29.9971207895">
		<tag k="name" v="Jonnejohjávri" />
		<tag k="name:se" v="Jonnejohjávri" />
		<tag k="natural" v="water" />
		<tag k="old_name:se" v="Jånnejåkjavri" />
		<tag k="ssr:stedsnr" v="930978" />
		<tag k="water" v="lake" />
	</node>
	<node id="-809203" lat="70.4732611488" lon="29.8197542043">
		<tag k="fixme" v="consider natural=peak for the most distinct mountains in the district" />
		<tag k="name" v="Rássečohkat" />
		<tag k="name:se" v="Rássečohkat" />
		<tag k="natural" v="hill" />
		<tag k="old_name:se" v="Rassečåkkat" />
		<tag k="place" v="locality" />
		<tag k="ssr:stedsnr" v="930977" />
	</node>
	<node id="-809202" lat="70.4280861522" lon="29.9019819446">
		<tag k="fixme" v="consider natural=peak for the most distinct mountains in the district" />
		<tag k="name" v="Kjøpmannskjølen - Noiddiidčearru" />
		<tag k="name:no" v="Kjøpmannskjølen" />
		<tag k="name:se" v="Noiddiidčearru" />
		<tag k="natural" v="hill" />
		<tag k="old_name:se" v="Nåidiidčærro" />
		<tag k="place" v="locality" />
		<tag k="ssr:stedsnr" v="930971" />
	</node>
	<node id="-809201" lat="70.3220639282" lon="30.06464014">
		<tag k="name" v="Hubehytta" />
		<tag k="place" v="isolated_dwelling" />
		<tag k="ssr:stedsnr" v="930922" />
	</node>
	<node id="-809200" lat="70.4943639344" lon="30.6358343188">
		<tag k="name" v="Finnvika" />
		<tag k="natural" v="bay" />
		<tag k="ssr:stedsnr" v="930904" />
	</node>
	<node id="-809199" lat="70.496200046" lon="30.5797232341">
		<tag k="name" v="Middagsdalen" />
		<tag k="natural" v="valley" />
		<tag k="place" v="locality" />
		<tag k="ssr:stedsnr" v="930899" />
	</node>
	<node id="-809198" lat="70.5203389291" lon="30.0654874457">
		<tag k="alt_name:se" v="Jonjohka" />
		<tag k="name" v="Jonnejohka" />
		<tag k="name:se" v="Jonnejohka" />
		<tag k="old_name:se" v="Jånnejåkka" />
		<tag k="ssr:stedsnr" v="930893" />
		<tag k="waterway" v="stream" />
	</node>
	<node id="-809197" lat="70.3277667092" lon="29.9860457281">
		<tag k="name" v="Komagelva - Stuorrajohka" />
		<tag k="name:no" v="Komagelva" />
		<tag k="name:se" v="Stuorrajohka" />
		<tag k="old_name:se" v="Stuorrajåkka" />
		<tag k="ssr:stedsnr" v="930541" />
		<tag k="waterway" v="river" />
	</node>
	<node id="-809196" lat="70.6649611448" lon="29.8816542725">
		<tag k="fixme" v="consider natural=peak for the most distinct mountains in the district" />
		<tag k="name" v="Raudberga" />
		<tag k="natural" v="hill" />
		<tag k="place" v="locality" />
		<tag k="ssr:stedsnr" v="930497" />
	</node>
	<node id="-809195" lat="70.5408250339" lon="29.9751097121">
		<tag k="alt_name" v="Hursidalen" />
		<tag k="name" v="Nordhursidalen" />
		<tag k="natural" v="valley" />
		<tag k="place" v="locality" />
		<tag k="ssr:stedsnr" v="930472" />
	</node>
	<node id="-809194" lat="70.5560722567" lon="29.9592347446">
		<tag k="name" v="Storhaugen" />
		<tag k="natural" v="hill" />
		<tag k="place" v="locality" />
		<tag k="ssr:stedsnr" v="930464" />
	</node>
	<node id="-809193" lat="70.5578722571" lon="29.7035598521">
		<tag k="name" v="Storvatnet - Orošjávri" />
		<tag k="name:no" v="Storvatnet" />
		<tag k="name:se" v="Orošjávri" />
		<tag k="natural" v="water" />
		<tag k="old_name:se" v="Årušjavri" />
		<tag k="ssr:stedsnr" v="930458" />
		<tag k="water" v="lake" />
	</node>
	<node id="-809192" lat="70.5467083709" lon="30.2212901387">
		<tag k="bay" v="fjord" />
		<tag k="loc_name:se" v="Oardovuonna" />
		<tag k="name" v="Syltefjorden" />
		<tag k="name:no" v="Syltefjorden" />
		<tag k="natural" v="bay" />
		<tag k="ssr:stedsnr" v="930065" />
	</node>
	<node id="-809191" lat="70.5592083688" lon="30.1457207361">
		<tag k="name" v="Storvatnet" />
		<tag k="natural" v="water" />
		<tag k="ssr:stedsnr" v="930062" />
		<tag k="water" v="lake" />
	</node>
	<node id="-809190" lat="70.5441500422" lon="30.4193289314">
		<tag k="name" v="Kristenvatnet" />
		<tag k="natural" v="water" />
		<tag k="ssr:stedsnr" v="930055" />
	</node>
	<node id="-809189" lat="70.6859500345" lon="30.0646541671">
		<tag k="name" v="Medvatnet" />
		<tag k="natural" v="water" />
		<tag k="ssr:stedsnr" v="930047" />
		<tag k="water" v="lake" />
	</node>
	<node id="-809188" lat="70.5854305965" lon="30.3037817922">
		<tag k="name" v="Mellomneset" />
		<tag k="natural" v="cape" />
		<tag k="ssr:stedsnr" v="930031" />
	</node>
	<node id="-809187" lat="70.5359778125" lon="30.0095485983">
		<tag k="name" v="Jollnesset" />
		<tag k="natural" v="cape" />
		<tag k="ssr:stedsnr" v="880501" />
	</node>
	<node id="-809186" lat="70.5177444846" lon="29.9494486166">
		<tag k="name" v="Holman" />
		<tag k="place" v="islet" />
		<tag k="ssr:stedsnr" v="880419" />
	</node>
	<node id="-809185" lat="70.5103805876" lon="29.8545847742">
		<tag k="name" v="Johandalen" />
		<tag k="natural" v="valley" />
		<tag k="place" v="locality" />
		<tag k="ssr:stedsnr" v="880374" />
	</node>
	<node id="-809184" lat="70.6205139225" lon="29.6938293452">
		<tag k="name" v="Indrefjord" />
		<tag k="natural" v="bay" />
		<tag k="ssr:stedsnr" v="880360" />
	</node>
	<node id="-809183" lat="70.6053916926" lon="29.662062682">
		<tag k="name" v="Jovatn" />
		<tag k="natural" v="water" />
		<tag k="ssr:stedsnr" v="880136" />
	</node>
	<node id="-809181" lat="70.4078444801" lon="29.4778349001">
		<tag k="name" v="Skipskjølen - Bealjáidčearru" />
		<tag k="name:no" v="Skipskjølen" />
		<tag k="name:se" v="Bealjáidčearru" />
		<tag k="natural" v="plateau" />
		<tag k="old_name:se" v="Bælljaidčearro" />
		<tag k="ssr:stedsnr" v="875970" />
	</node>
	<node id="-809180" lat="70.3391222649" lon="30.1802039681">
		<tag k="fixme" v="consider natural=peak for the most distinct mountains in the district" />
		<tag k="name" v="Ryggfjellet - Eartnjoaivi" />
		<tag k="name:no" v="Ryggfjellet" />
		<tag k="name:se" v="Eartnjoaivi" />
		<tag k="natural" v="hill" />
		<tag k="old_name:se" v="Ærdnjoaivi" />
		<tag k="place" v="locality" />
		<tag k="ssr:stedsnr" v="875928" />
	</node>
	<node id="-809179" lat="70.5867889249" lon="30.3101401204">
		<tag k="name" v="Ytre Bukta" />
		<tag k="natural" v="bay" />
		<tag k="ssr:stedsnr" v="875517" />
	</node>
	<node id="-809178" lat="70.626797254" lon="29.7017793426">
		<tag k="alt_name" v="Indre Havn" />
		<tag k="name" v="Neptunbukta" />
		<tag k="natural" v="bay" />
		<tag k="ssr:stedsnr" v="875511" />
	</node>
	<node id="-809177" lat="70.5144500406" lon="30.2271067825">
		<tag k="name" v="Rossmålaksla" />
		<tag k="place" v="locality" />
		<tag k="ssr:stedsnr" v="874452" />
	</node>
	<node id="-809176" lat="70.5144528181" lon="30.2271095736">
		<tag k="fixme" v="consider natural=peak for the most distinct mountains in the district" />
		<tag k="name" v="Tavla" />
		<tag k="natural" v="hill" />
		<tag k="place" v="locality" />
		<tag k="ssr:stedsnr" v="874446" />
	</node>
	<node id="-809175" lat="70.4286972568" lon="29.6948598108">
		<tag k="name" v="Suoloskáidi" />
		<tag k="name:se" v="Suoloskáidi" />
		<tag k="natural" v="cape" />
		<tag k="old_name:se" v="Suoluskaidi" />
		<tag k="ssr:stedsnr" v="870977" />
	</node>
	<node id="-809174" lat="70.398300037" lon="29.5706293097">
		<tag k="fixme" v="consider tourism=alpine_hut or tourism=chalet" />
		<tag k="name" v="Heimdal" />
		<tag k="ssr:stedsnr" v="870970" />
		<tag k="tourism" v="wilderness_hut" />
	</node>
	<node id="-809173" lat="70.3206389306" lon="29.8997513229">
		<tag k="name" v="Bjørnskardet - Guovžagurra" />
		<tag k="name:no" v="Bjørnskardet" />
		<tag k="name:se" v="Guovžagurra" />
		<tag k="natural" v="valley" />
		<tag k="place" v="locality" />
		<tag k="ssr:stedsnr" v="870901" />
	</node>
	<node id="-809172" lat="70.367100269" lon="29.7668049463">
		<tag k="fixme" v="consider tourism=alpine_hut or tourism=chalet" />
		<tag k="name" v="Ragnarokk" />
		<tag k="ssr:stedsnr" v="870897" />
		<tag k="tourism" v="wilderness_hut" />
	</node>
	<node id="-809171" lat="70.4797055961" lon="30.1434623683">
		<tag k="name" v="Austerdalen" />
		<tag k="natural" v="valley" />
		<tag k="place" v="locality" />
		<tag k="ssr:stedsnr" v="870894" />
	</node>
	<node id="-809170" lat="70.4723389298" lon="30.2335901153">
		<tag k="fixme" v="consider natural=peak for the most distinct mountains in the district" />
		<tag k="name" v="Øver-Tavla - Skádjačearru" />
		<tag k="name:no" v="Øver-Tavla" />
		<tag k="name:se" v="Skádjačearru" />
		<tag k="natural" v="hill" />
		<tag k="old_name:se" v="Skaddjačærro;Skadjačearru" />
		<tag k="place" v="locality" />
		<tag k="ssr:stedsnr" v="870884" />
	</node>
	<node id="-809169" lat="70.5372083816" lon="30.5567982825">
		<tag k="fixme" v="consider natural=peak for the most distinct mountains in the district" />
		<tag k="name" v="Ovnen" />
		<tag k="natural" v="hill" />
		<tag k="place" v="locality" />
		<tag k="ssr:stedsnr" v="870013" />
	</node>
	<node id="-809168" lat="70.5444000441" lon="30.6333371286">
		<tag k="name" v="Støvlenakken" />
		<tag k="natural" v="cape" />
		<tag k="ssr:stedsnr" v="870009" />
	</node>
	<node id="-809167" lat="70.5300555969" lon="30.1899485002">
		<tag k="fixme" v="consider seamark:type=rock or natural=shoal" />
		<tag k="name" v="Tavlskjæret" />
		<tag k="place" v="islet" />
		<tag k="ssr:stedsnr" v="870007" />
	</node>
	<node id="-809166" lat="70.6100500329" lon="29.6972570967">
		<tag k="alt_name" v="Strømsnesaksla" />
		<tag k="name" v="Straumsnesaksla" />
		<tag k="natural" v="hill" />
		<tag k="place" v="locality" />
		<tag k="ssr:stedsnr" v="869501" />
	</node>
	<node id="-809165" lat="70.5114278074" lon="29.678257076">
		<tag k="name" v="Syltefjorddalen" />
		<tag k="natural" v="valley" />
		<tag k="place" v="locality" />
		<tag k="ssr:stedsnr" v="869490" />
	</node>
	<node id="-809164" lat="70.5415389238" lon="29.8303264467">
		<tag k="fixme" v="consider natural=peak for the most distinct mountains in the district" />
		<tag k="name" v="Gierdogáisá" />
		<tag k="name:se" v="Gierdogáisá" />
		<tag k="natural" v="hill" />
		<tag k="old_name:se" v="Gierdugaisa" />
		<tag k="place" v="locality" />
		<tag k="ssr:stedsnr" v="869480" />
	</node>
	<node id="-809163" lat="70.541933371" lon="30.0325680218">
		<tag k="name" v="Torvatnet" />
		<tag k="natural" v="water" />
		<tag k="ssr:stedsnr" v="869061" />
	</node>
	<node id="-809162" lat="70.6970111463" lon="30.1055097214">
		<tag k="name" v="Molvika" />
		<tag k="natural" v="bay" />
		<tag k="ssr:stedsnr" v="869051" />
	</node>
	<node id="-809161" lat="70.6550667006" lon="30.0947486">
		<tag k="name" v="Kollvatnet" />
		<tag k="natural" v="water" />
		<tag k="ssr:stedsnr" v="869046" />
	</node>
	<node id="-809160" lat="70.5711278157" lon="30.0446624872">
		<tag k="name" v="Nordfjordhøgda" />
		<tag k="natural" v="hill" />
		<tag k="place" v="locality" />
		<tag k="ssr:stedsnr" v="869043" />
	</node>
	<node id="-809159" lat="70.6187000384" lon="30.2245235197">
		<tag k="name" v="Stormolldalen" />
		<tag k="natural" v="valley" />
		<tag k="place" v="locality" />
		<tag k="ssr:stedsnr" v="869038" />
	</node>
	<node id="-809158" lat="70.5352833753" lon="30.1111707513">
		<tag k="name" v="Brattlia" />
		<tag k="natural" v="slope" />
		<tag k="place" v="locality" />
		<tag k="ssr:stedsnr" v="820479" />
	</node>
	<node id="-809157" lat="70.5294222615" lon="30.0512263448">
		<tag k="name" v="Bergodden" />
		<tag k="ssr:stedsnr" v="820468" />
		<tag k="waterway" v="stream" />
	</node>
	<node id="-809156" lat="70.538850035" lon="30.0872430026">
		<tag k="name" v="Hamnafjellet" />
		<tag k="natural" v="hill" />
		<tag k="place" v="locality" />
		<tag k="ssr:stedsnr" v="819503" />
	</node>
	<node id="-809155" lat="70.6319833626" lon="29.8224348336">
		<tag k="name" v="Prestelvhøgda" />
		<tag k="natural" v="hill" />
		<tag k="place" v="locality" />
		<tag k="ssr:stedsnr" v="819416" />
	</node>
	<node id="-809154" lat="70.640430587" lon="29.7438098606">
		<tag k="name" v="Bjørnenakbukta" />
		<tag k="natural" v="bay" />
		<tag k="ssr:stedsnr" v="819385" />
	</node>
	<node id="-809153" lat="70.6213333645" lon="29.6729932354">
		<tag k="fixme" v="consider natural=peak for the most distinct mountains in the district" />
		<tag k="name" v="Marifjell" />
		<tag k="natural" v="hill" />
		<tag k="place" v="locality" />
		<tag k="ssr:stedsnr" v="819344" />
	</node>
	<node id="-809152" lat="70.5968139213" lon="29.6486210244">
		<tag k="name" v="Storbakken" />
		<tag k="natural" v="slope" />
		<tag k="place" v="locality" />
		<tag k="ssr:stedsnr" v="819269" />
	</node>
	<node id="-809151" lat="70.6097833665" lon="29.6508376799">
		<tag k="name" v="Gattjåkkhøgda" />
		<tag k="natural" v="hill" />
		<tag k="place" v="locality" />
		<tag k="ssr:stedsnr" v="819252" />
	</node>
	<node id="-809150" lat="70.5927472534" lon="29.6505793542">
		<tag k="name" v="Lille Jovatn" />
		<tag k="natural" v="water" />
		<tag k="ssr:stedsnr" v="819146" />
	</node>
	<node id="-809148" lat="70.5483194847" lon="30.0617791196">
		<tag k="alt_name" v="Kattugleelva" />
		<tag k="name" v="Nordfjordelva" />
		<tag k="ssr:stedsnr" v="815550" />
		<tag k="waterway" v="river" />
	</node>
	<node id="-809147" lat="70.7125194769" lon="30.0421458743">
		<tag k="name" v="Lankonbåen" />
		<tag k="place" v="locality" />
		<tag k="seamark:type" v="rock" />
		<tag k="ssr:stedsnr" v="814544" />
	</node>
	<node id="-809146" lat="70.497508372" lon="29.7919209082">
		<tag k="fixme" v="multiple name tags, choose one and add the other to alt_name" />
		<tag k="name" v="Syltefjordelva;Vesterelva - Oarddojohka" />
		<tag k="name:no" v="Syltefjordelva;Vesterelva" />
		<tag k="name:se" v="Oarddojohka" />
		<tag k="old_name:se" v="Oardujåkka" />
		<tag k="ssr:stedsnr" v="809990" />
		<tag k="waterway" v="river" />
	</node>
	<node id="-809145" lat="70.4732500349" lon="29.7022987185">
		<tag k="name" v="Skogåsdalen" />
		<tag k="natural" v="valley" />
		<tag k="place" v="locality" />
		<tag k="ssr:stedsnr" v="809985" />
	</node>
	<node id="-809144" lat="70.472608361" lon="29.3384238864">
		<tag k="name" v="Rávdol" />
		<tag k="name:se" v="Rávdol" />
		<tag k="old_name:se" v="Ravdul" />
		<tag k="ssr:stedsnr" v="809952" />
		<tag k="waterway" v="river" />
	</node>
	<node id="-809143" lat="70.3447000406" lon="29.9169346712">
		<tag k="name" v="Bjørnskardhytta" />
		<tag k="place" v="isolated_dwelling" />
		<tag k="ssr:stedsnr" v="809913" />
	</node>
	<node id="-809142" lat="70.5024667014" lon="29.3514988867">
		<tag k="name" v="Delinga" />
		<tag k="place" v="isolated_dwelling" />
		<tag k="ssr:stedsnr" v="809521" />
	</node>
	<node id="-809141" lat="70.6222944811" lon="29.7269431982">
		<tag k="name" v="Sima" />
		<tag k="place" v="locality" />
		<tag k="ssr:stedsnr" v="809492" />
	</node>
	<node id="-809140" lat="70.5197639275" lon="29.693998731">
		<tag k="name" v="Skogdalen" />
		<tag k="natural" v="valley" />
		<tag k="place" v="locality" />
		<tag k="ssr:stedsnr" v="809473" />
	</node>
	<node id="-809139" lat="70.5484056013" lon="30.5068538686">
		<tag k="name" v="Gamvikneset" />
		<tag k="natural" v="cape" />
		<tag k="ssr:stedsnr" v="809071" />
	</node>
	<node id="-809138" lat="70.5452750423" lon="30.3663261837">
		<tag k="fixme" v="consider natural=peak for the most distinct mountains in the district" />
		<tag k="name" v="Munken" />
		<tag k="natural" v="hill" />
		<tag k="place" v="locality" />
		<tag k="ssr:stedsnr" v="809065" />
	</node>
	<node id="-809137" lat="70.7038305908" lon="30.034409767">
		<tag k="name" v="Litlevatnet" />
		<tag k="natural" v="water" />
		<tag k="ssr:stedsnr" v="809048" />
	</node>
	<node id="-809136" lat="70.5305250413" lon="30.3732206062">
		<tag k="name" v="Gárjohka" />
		<tag k="name:se" v="Gárjohka" />
		<tag k="old_name:se" v="Garjåkka" />
		<tag k="ssr:stedsnr" v="809012" />
		<tag k="waterway" v="stream" />
	</node>
	<node id="-809135" lat="70.5263806" lon="30.4833233216">
		<tag k="name" v="Kvalbeinvatnet" />
		<tag k="natural" v="water" />
		<tag k="ssr:stedsnr" v="809005" />
		<tag k="water" v="lake" />
	</node>
	<node id="-809134" lat="70.3614917091" lon="30.2127039606">
		<tag k="fixme" v="consider natural=peak for the most distinct mountains in the district" />
		<tag k="name" v="Suoidnelábbát" />
		<tag k="name:se" v="Suoidnelábbát" />
		<tag k="natural" v="hill" />
		<tag k="old_name:se" v="Suoidnelabbat" />
		<tag k="place" v="locality" />
		<tag k="ssr:stedsnr" v="808931" />
	</node>
	<node id="-809133" lat="70.314016709" lon="30.064545691">
		<tag k="name" v="Bajit Suovka" />
		<tag k="name:se" v="Bajit Suovka" />
		<tag k="old_name:se" v="Suovka, bajit" />
		<tag k="place" v="locality" />
		<tag k="ssr:stedsnr" v="808924" />
	</node>
	<node id="-809132" lat="70.4056389316" lon="30.3431261268">
		<tag k="fixme" v="consider natural=peak for the most distinct mountains in the district" />
		<tag k="name" v="Langryggen - Juovkkaidčearru" />
		<tag k="name:no" v="Langryggen" />
		<tag k="name:se" v="Juovkkaidčearru" />
		<tag k="natural" v="hill" />
		<tag k="old_name:se" v="Juovkaidčærro" />
		<tag k="place" v="locality" />
		<tag k="ssr:stedsnr" v="808885" />
	</node>
	<node id="-809131" lat="70.4410917135" lon="30.558434329">
		<tag k="name" v="Skierroleakši" />
		<tag k="name:se" v="Skierroleakši" />
		<tag k="natural" v="wetland" />
		<tag k="old_name:se" v="Skierulæksi" />
		<tag k="ssr:stedsnr" v="808876" />
	</node>
	<node id="-809130" lat="70.5993333691" lon="29.7658042924">
		<tag k="name" v="Andedamman" />
		<tag k="natural" v="water" />
		<tag k="ssr:stedsnr" v="808441" />
	</node>
	<node id="-809129" lat="70.6101833666" lon="29.8383514876">
		<tag k="fixme" v="consider natural=peak for the most distinct mountains in the district" />
		<tag k="name" v="Ravnnaš" />
		<tag k="name:se" v="Ravnnaš" />
		<tag k="natural" v="hill" />
		<tag k="old_name:se" v="Ravnaš" />
		<tag k="place" v="locality" />
		<tag k="ssr:stedsnr" v="808438" />
	</node>
	<node id="-809128" lat="70.3984694844" lon="30.2837456032">
		<tag k="name" v="Juovkkaidjohka" />
		<tag k="name:se" v="Juovkkaidjohka" />
		<tag k="old_name:se" v="Juovkaidjåkka" />
		<tag k="ssr:stedsnr" v="869888" />
		<tag k="waterway" v="stream" />
	</node>
	<node id="-809127" lat="70.5465555975" lon="30.5839343747">
		<tag k="fixme" v="consider seamark:type=rock or natural=shoal" />
		<tag k="name" v="Småskjæret" />
		<tag k="place" v="islet" />
		<tag k="ssr:stedsnr" v="754987" />
	</node>
	<node id="-809126" lat="70.5300972567" lon="30.0408318947">
		<tag k="alt_name" v="Gollaholmen" />
		<tag k="name" v="Holmen" />
		<tag k="place" v="islet" />
		<tag k="ssr:stedsnr" v="754590" />
	</node>
	<node id="-809125" lat="70.4834444871" lon="29.9767874754">
		<tag k="alt_name:se" v="Stuoragáisa;Gáisá" />
		<tag k="fixme" v="consider natural=peak for the most distinct mountains in the district" />
		<tag k="name" v="Steinfjellet - Suologáisá" />
		<tag k="name:no" v="Steinfjellet" />
		<tag k="name:se" v="Suologáisá" />
		<tag k="natural" v="hill" />
		<tag k="old_name:se" v="Suolugaisa" />
		<tag k="place" v="locality" />
		<tag k="ssr:stedsnr" v="753977" />
	</node>
	<node id="-809124" lat="70.6955055867" lon="29.9070042665">
		<tag k="name" v="Skarberggrunnen" />
		<tag k="natural" v="shoal" />
		<tag k="place" v="locality" />
		<tag k="ssr:stedsnr" v="753448" />
	</node>
	<node id="-809123" lat="70.6454305869" lon="29.7023293439">
		<tag k="name" v="Hamnevatnet" />
		<tag k="natural" v="water" />
		<tag k="ssr:stedsnr" v="748465" />
	</node>
	<node id="-809122" lat="70.6317472579" lon="29.8940153595">
		<tag k="name" v="Skovikhøgda" />
		<tag k="natural" v="hill" />
		<tag k="place" v="locality" />
		<tag k="ssr:stedsnr" v="748460" />
	</node>
	<node id="-809121" lat="70.6250389172" lon="29.7520820758">
		<tag k="name" v="Eikebergviksvatna" />
		<tag k="natural" v="water" />
		<tag k="ssr:stedsnr" v="748458" />
		<tag k="water" v="lake" />
	</node>
	<node id="-809120" lat="70.5634083663" lon="29.7459959618">
		<tag k="name" v="Námmejohka" />
		<tag k="name:se" v="Námmejohka" />
		<tag k="old_name:se" v="Nammejåkka" />
		<tag k="ssr:stedsnr" v="748450" />
		<tag k="waterway" v="stream" />
	</node>
	<node id="-809119" lat="70.5566500335" lon="29.5370904936">
		<tag k="name" v="Raudsandvatna" />
		<tag k="natural" v="water" />
		<tag k="ssr:stedsnr" v="748448" />
		<tag k="water" v="lake" />
	</node>
	<node id="-809118" lat="70.5455583733" lon="30.0295569238">
		<tag k="name" v="Gardijåkkmyrene - Gárdojohjeaggi" />
		<tag k="name:no" v="Gardijåkkmyrene" />
		<tag k="name:se" v="Gárdojohjeaggi" />
		<tag k="natural" v="wetland" />
		<tag k="old_name:se" v="Gardujåkjæggi" />
		<tag k="ssr:stedsnr" v="748054" />
	</node>
	<node id="-809117" lat="70.572163931" lon="30.2421818222">
		<tag k="name" v="Ytre Syltefjord" />
		<tag k="old_name" v="Syltefjord, ytre" />
		<tag k="place" v="locality" />
		<tag k="ssr:stedsnr" v="748037" />
	</node>
	<node id="-809116" lat="70.5228417064" lon="30.0554513349">
		<tag k="name" v="Jonjok - Jonnejohka" />
		<tag k="name:no" v="Jonjok" />
		<tag k="name:se" v="Jonnejohka" />
		<tag k="old_name:se" v="Jånnejåkka" />
		<tag k="place" v="locality" />
		<tag k="ssr:stedsnr" v="748021" />
	</node>
	<node id="-809115" lat="70.530780593" lon="30.2894512036">
		<tag k="name" v="Romsdalen" />
		<tag k="natural" v="valley" />
		<tag k="place" v="locality" />
		<tag k="ssr:stedsnr" v="748016" />
	</node>
	<node id="-809114" lat="70.5161055999" lon="30.6003704604">
		<tag k="alt_name" v="Kvamvikneset" />
		<tag k="name" v="Kvannvikneset" />
		<tag k="natural" v="cape" />
		<tag k="ssr:stedsnr" v="748010" />
	</node>
	<node id="-809113" lat="70.5232889363" lon="30.6153232364">
		<tag k="alt_name" v="Steinsnes, indre" />
		<tag k="name" v="Indre Steinsnes" />
		<tag k="natural" v="cape" />
		<tag k="ssr:stedsnr" v="748005" />
	</node>
	<node id="-809112" lat="70.5292389312" lon="30.5810093703">
		<tag k="name" v="Vatnan" />
		<tag k="natural" v="water" />
		<tag k="ssr:stedsnr" v="748001" />
	</node>
	<node id="-809111" lat="70.5604611467" lon="30.1114179791">
		<tag k="fixme" v="consider natural=peak for the most distinct mountains in the district" />
		<tag k="name" v="Syltefjordhøgda" />
		<tag k="natural" v="hill" />
		<tag k="place" v="locality" />
		<tag k="ssr:stedsnr" v="722093" />
	</node>
	<node id="-809110" lat="70.6342722492" lon="29.7319904358">
		<tag k="fixme" v="consider seamark:type=rock or natural=shoal" />
		<tag k="name" v="Teinskjæret" />
		<tag k="place" v="islet" />
		<tag k="ssr:stedsnr" v="698281" />
	</node>
	<node id="-809109" lat="70.6036750314" lon="29.5793210493">
		<tag k="name" v="Bakkeelva" />
		<tag k="ssr:stedsnr" v="698216" />
		<tag k="waterway" v="stream" />
	</node>
	<node id="-809108" lat="70.6148555858" lon="29.6655598902">
		<tag k="name" v="Gattjohka" />
		<tag k="name:se" v="Gattjohka" />
		<tag k="ssr:stedsnr" v="698206" />
		<tag k="waterway" v="stream" />
	</node>
	<node id="-809107" lat="70.5860611447" lon="29.6099071255">
		<tag k="name" v="Beigårdtoppen" />
		<tag k="natural" v="hill" />
		<tag k="place" v="locality" />
		<tag k="ssr:stedsnr" v="698122" />
	</node>
	<node id="-809106" lat="70.5902083668" lon="29.6398293582">
		<tag k="name" v="Beigårdskaret" />
		<tag k="natural" v="valley" />
		<tag k="place" v="locality" />
		<tag k="ssr:stedsnr" v="698121" />
	</node>
	<node id="-809105" lat="70.6352583684" lon="29.7176015547">
		<tag k="amenity" v="place_of_worship" />
		<tag k="denomination" v="lutheran" />
		<tag k="name" v="kirke Båtsfjord" />
		<tag k="religion" v="christian" />
		<tag k="ssr:stedsnr" v="697865" />
	</node>
	<node id="-809104" lat="70.5058833657" lon="29.8937014109">
		<tag k="name" v="Reingjerdan" />
		<tag k="place" v="locality" />
		<tag k="ssr:stedsnr" v="698349" />
	</node>
	<node id="-809103" lat="70.6253500277" lon="29.7121015539">
		<tag k="name" v="Sørnes" />
		<tag k="natural" v="cape" />
		<tag k="ssr:stedsnr" v="698332" />
	</node>
	<node id="-809102" lat="70.6179555839" lon="29.6890015451">
		<tag k="alt_name" v="Strømmen" />
		<tag k="name" v="Straumen" />
		<tag k="natural" v="strait" />
		<tag k="ssr:stedsnr" v="694457" />
	</node>
	<node id="-809101" lat="70.7111639262" lon="30.1339124838">
		<tag k="name" v="Lønfallet" />
		<tag k="natural" v="shoal" />
		<tag k="place" v="locality" />
		<tag k="ssr:stedsnr" v="693540" />
	</node>
	<node id="-809100" lat="70.3500417117" lon="29.9973429536">
		<tag k="name" v="Njuvččagurjávrrit" />
		<tag k="name:se" v="Njuvččagurjávrrit" />
		<tag k="natural" v="water" />
		<tag k="old_name:se" v="Njuvčagurjavrit" />
		<tag k="ssr:stedsnr" v="688908" />
	</node>
	<node id="-809099" lat="70.3471000368" lon="29.800690289">
		<tag k="name" v="Vuoččalanjohka" />
		<tag k="name:se" v="Vuoččalanjohka" />
		<tag k="old_name:se" v="Vuožžalanjåkka" />
		<tag k="ssr:stedsnr" v="688906" />
		<tag k="waterway" v="river" />
	</node>
	<node id="-809098" lat="70.4945250473" lon="30.528376064">
		<tag k="name" v="Pølsedalen" />
		<tag k="natural" v="valley" />
		<tag k="place" v="locality" />
		<tag k="ssr:stedsnr" v="688886" />
	</node>
	<node id="-809097" lat="70.5123805881" lon="29.376801653">
		<tag k="name" v="Elvestrandshøgda" />
		<tag k="natural" v="hill" />
		<tag k="place" v="locality" />
		<tag k="ssr:stedsnr" v="688508" />
	</node>
	<node id="-809096" lat="70.6955750339" lon="29.7409237787">
		<tag k="fixme" v="multiple name tags, choose one and add the other to alt_name" />
		<tag k="name" v="Rubbedalen;Austre Rubbedalen" />
		<tag k="natural" v="valley" />
		<tag k="old_name" v="Rubbedalen, austre" />
		<tag k="place" v="locality" />
		<tag k="ssr:stedsnr" v="688478" />
	</node>
	<node id="-809095" lat="70.6198805842" lon="29.7987876213">
		<tag k="name" v="Skovikvatnet" />
		<tag k="natural" v="water" />
		<tag k="ssr:stedsnr" v="688473" />
	</node>
	<node id="-809094" lat="70.6457250339" lon="29.8761820261">
		<tag k="name" v="Prestelvvatnet" />
		<tag k="natural" v="water" />
		<tag k="ssr:stedsnr" v="688468" />
	</node>
	<node id="-809093" lat="70.6260416977" lon="29.8183042792">
		<tag k="name" v="Skovikdalen" />
		<tag k="natural" v="valley" />
		<tag k="place" v="locality" />
		<tag k="ssr:stedsnr" v="688465" />
	</node>
	<node id="-809092" lat="70.6076944795" lon="29.6257154656">
		<tag k="name" v="Tverrelva" />
		<tag k="ssr:stedsnr" v="688100" />
		<tag k="waterway" v="river" />
	</node>
	<node id="-809091" lat="70.515677824" lon="30.4931538739">
		<tag k="name" v="Stormyrvatnet" />
		<tag k="natural" v="water" />
		<tag k="ssr:stedsnr" v="688007" />
		<tag k="water" v="lake" />
	</node>
	<node id="-809090" lat="70.5184667153" lon="30.598426013">
		<tag k="name" v="Kvannvikbukta" />
		<tag k="natural" v="bay" />
		<tag k="ssr:stedsnr" v="688005" />
	</node>
	<node id="-809089" lat="70.4677833666" lon="29.3560544356">
		<tag k="name" v="Rávdolskáidi" />
		<tag k="name:se" v="Rávdolskáidi" />
		<tag k="natural" v="cape" />
		<tag k="old_name:se" v="Ravdulskaidi" />
		<tag k="ssr:stedsnr" v="687943" />
	</node>
	<node id="-809088" lat="70.3928639353" lon="30.3522260996">
		<tag k="name" v="Juovkkaidláttu" />
		<tag k="name:se" v="Juovkkaidláttu" />
		<tag k="natural" v="water" />
		<tag k="old_name:se" v="Juovkaidladdo" />
		<tag k="ssr:stedsnr" v="687890" />
	</node>
	<node id="-809087" lat="70.5985805892" lon="29.6647432324">
		<tag k="name" v="Båtsfjorddalen" />
		<tag k="natural" v="valley" />
		<tag k="old_name" v="Båtsfjordalen" />
		<tag k="place" v="locality" />
		<tag k="ssr:stedsnr" v="687463" />
	</node>
	<node id="-809086" lat="70.5217000314" lon="29.7309903961">
		<tag k="name" v="Skarpdalen" />
		<tag k="natural" v="valley" />
		<tag k="place" v="locality" />
		<tag k="ssr:stedsnr" v="687439" />
	</node>
	<node id="-809085" lat="70.5396583625" lon="29.4668655218">
		<tag k="name" v="Adamstoppen - Áttáčohkka" />
		<tag k="name:no" v="Adamstoppen" />
		<tag k="name:se" v="Áttáčohkka" />
		<tag k="natural" v="hill" />
		<tag k="old_name:se" v="Addačåkka" />
		<tag k="place" v="locality" />
		<tag k="ssr:stedsnr" v="687431" />
	</node>
	<node id="-809084" lat="70.556997259" lon="30.2174068032">
		<tag k="name" v="Sandfjordneset" />
		<tag k="natural" v="cape" />
		<tag k="ssr:stedsnr" v="687055" />
	</node>
	<node id="-809083" lat="70.5411444908" lon="30.6099676904">
		<tag k="alt_name:no" v="Havningberg" />
		<tag k="fixme" v="consider place=hamlet" />
		<tag k="loc_name:se" v="Hámbiergi;Hámmanbirgi" />
		<tag k="name" v="Hamningberg" />
		<tag k="name:no" v="Hamningberg" />
		<tag k="place" v="village" />
		<tag k="ssr:stedsnr" v="687053" />
	</node>
	<node id="-809082" lat="70.5337667004" lon="30.0905346607">
		<tag k="name" v="Hamna" />
		<tag k="place" v="locality" />
		<tag k="ssr:stedsnr" v="687044" />
	</node>
	<node id="-809080" lat="70.5157389236" lon="30.080756879">
		<tag k="name" v="Litleelva" />
		<tag k="ssr:stedsnr" v="687015" />
		<tag k="waterway" v="stream" />
	</node>
	<node id="-809079" lat="70.5154889262" lon="30.1140262907">
		<tag k="alt_name" v="Oterneset" />
		<tag k="name" v="Oternesan" />
		<tag k="natural" v="cape" />
		<tag k="ssr:stedsnr" v="687014" />
	</node>
	<node id="-809078" lat="70.5352000439" lon="30.5400010618">
		<tag k="name" v="Ovnsvatnan" />
		<tag k="natural" v="water" />
		<tag k="ssr:stedsnr" v="687011" />
	</node>
	<node id="-809077" lat="70.5476056002" lon="30.3539206303">
		<tag k="fixme" v="consider tourism=alpine_hut or tourism=chalet" />
		<tag k="name" v="Indre Syltevik" />
		<tag k="ssr:stedsnr" v="666893" />
		<tag k="tourism" v="wilderness_hut" />
	</node>
	<node id="-809076" lat="70.6503305911" lon="29.8827514669">
		<tag k="fixme" v="consider natural=peak for the most distinct mountains in the district" />
		<tag k="name" v="Raudberghøgda" />
		<tag k="natural" v="hill" />
		<tag k="place" v="locality" />
		<tag k="ssr:stedsnr" v="661066" />
	</node>
	<node id="-809075" lat="70.5298694837" lon="30.0070541535">
		<tag k="name" v="Vesterelvmunningen" />
		<tag k="natural" v="bay" />
		<tag k="ssr:stedsnr" v="637545" />
	</node>
	<node id="-809074" lat="70.5391083738" lon="30.1047846418">
		<tag k="name" v="Hansemolla" />
		<tag k="natural" v="bay" />
		<tag k="ssr:stedsnr" v="637516" />
	</node>
	<node id="-809073" lat="70.5492611527" lon="30.1215624207">
		<tag k="name" v="Nordfjordlandet" />
		<tag k="natural" v="beach" />
		<tag k="place" v="locality" />
		<tag k="ssr:stedsnr" v="637517" />
	</node>
	<node id="-809072" lat="70.5325611438" lon="30.0011013705">
		<tag k="name" v="Hursielva" />
		<tag k="ssr:stedsnr" v="637490" />
		<tag k="waterway" v="stream" />
	</node>
	<node id="-809071" lat="70.5249055973" lon="30.0415596688">
		<tag k="name" v="Storbukt" />
		<tag k="natural" v="bay" />
		<tag k="ssr:stedsnr" v="637455" />
	</node>
	<node id="-809070" lat="70.6130666964" lon="29.7181209889">
		<tag k="name" v="Perelvdalen" />
		<tag k="natural" v="valley" />
		<tag k="place" v="locality" />
		<tag k="ssr:stedsnr" v="637255" />
	</node>
	<node id="-809069" lat="70.6952611405" lon="29.9707764516">
		<tag k="name" v="Rossmålsaksla" />
		<tag k="natural" v="ridge" />
		<tag k="place" v="locality" />
		<tag k="ssr:stedsnr" v="632514" />
	</node>
	<node id="-809068" lat="70.6172222528" lon="29.6847210048">
		<tag k="name" v="Maribukta" />
		<tag k="natural" v="bay" />
		<tag k="ssr:stedsnr" v="631425" />
	</node>
	<node id="-809066" lat="70.7069083615" lon="29.9787459013">
		<tag k="name" v="Mellom-Rossmålen" />
		<tag k="natural" v="cape" />
		<tag k="ssr:stedsnr" v="627492" />
	</node>
	<node id="-809064" lat="70.6372472512" lon="29.7407515252">
		<tag k="alt_name" v="Hamnneset" />
		<tag k="name" v="Hamneneset" />
		<tag k="natural" v="cape" />
		<tag k="ssr:stedsnr" v="627477" />
	</node>
	<node id="-809063" lat="70.6374805886" lon="29.6917459939">
		<tag k="name" v="Melkarn" />
		<tag k="natural" v="hill" />
		<tag k="place" v="locality" />
		<tag k="ssr:stedsnr" v="627476" />
	</node>
	<node id="-809062" lat="70.67156114" lon="29.829482053">
		<tag k="alt_name:no" v="Båtsfjord" />
		<tag k="bay" v="fjord" />
		<tag k="loc_name:se" v="Báhcavuonna" />
		<tag k="name" v="Båtsfjorden" />
		<tag k="name:no" v="Båtsfjorden" />
		<tag k="natural" v="bay" />
		<tag k="ssr:stedsnr" v="627112" />
	</node>
	<node id="-809061" lat="70.4168639238" lon="29.5169126825">
		<tag k="name" v="Transportdalen" />
		<tag k="natural" v="valley" />
		<tag k="place" v="locality" />
		<tag k="ssr:stedsnr" v="626977" />
	</node>
	<node id="-809060" lat="70.3202722666" lon="30.0890623416">
		<tag k="name" v="Hestdalen" />
		<tag k="natural" v="valley" />
		<tag k="place" v="locality" />
		<tag k="ssr:stedsnr" v="626940" />
	</node>
	<node id="-809059" lat="70.4682806011" lon="30.6817092779">
		<tag k="name" v="Storflogdalen" />
		<tag k="natural" v="valley" />
		<tag k="place" v="locality" />
		<tag k="ssr:stedsnr" v="626928" />
	</node>
	<node id="-809058" lat="70.3618444862" lon="29.8972041197">
		<tag k="fixme" v="consider natural=peak for the most distinct mountains in the district" />
		<tag k="name" v="Gárgaš" />
		<tag k="name:se" v="Gárgaš" />
		<tag k="natural" v="hill" />
		<tag k="old_name:se" v="Gargaš" />
		<tag k="place" v="locality" />
		<tag k="ssr:stedsnr" v="626912" />
	</node>
	<node id="-809057" lat="70.4604778184" lon="30.1543734732">
		<tag k="name" v="Mariedalen" />
		<tag k="natural" v="valley" />
		<tag k="place" v="locality" />
		<tag k="ssr:stedsnr" v="626901" />
	</node>
	<node id="-809056" lat="70.4552500403" lon="30.1168623868">
		<tag k="fixme" v="consider natural=peak for the most distinct mountains in the district" />
		<tag k="name" v="Mellomfjellet" />
		<tag k="natural" v="hill" />
		<tag k="place" v="locality" />
		<tag k="ssr:stedsnr" v="626898" />
	</node>
	<node id="-809055" lat="70.4687611531" lon="30.1821457008">
		<tag k="fixme" v="consider natural=peak for the most distinct mountains in the district" />
		<tag k="name" v="Steinelvdalfjellet" />
		<tag k="natural" v="hill" />
		<tag k="place" v="locality" />
		<tag k="ssr:stedsnr" v="626897" />
	</node>
	<node id="-809054" lat="70.4266861569" lon="30.4302483108">
		<tag k="name" v="Ruovddášjohka" />
		<tag k="name:se" v="Ruovddášjohka" />
		<tag k="old_name:se" v="Ruovdašjåkka" />
		<tag k="ssr:stedsnr" v="626890" />
		<tag k="waterway" v="river" />
	</node>
	<node id="-809053" lat="70.6124333699" lon="29.717643199">
		<tag k="name" v="Perelva" />
		<tag k="ssr:stedsnr" v="626502" />
		<tag k="waterway" v="stream" />
	</node>
	<node id="-809052" lat="70.5105639206" lon="29.8345292313">
		<tag k="alt_name" v="Johandalen, nedre" />
		<tag k="name" v="Nedre Johandalen" />
		<tag k="natural" v="valley" />
		<tag k="place" v="locality" />
		<tag k="ssr:stedsnr" v="626481" />
	</node>
	<node id="-809051" lat="70.6115917061" lon="30.0608958207">
		<tag k="fixme" v="consider natural=peak for the most distinct mountains in the district" />
		<tag k="name" v="Syltefjordfjellet - Máhkirčearru" />
		<tag k="name:no" v="Syltefjordfjellet" />
		<tag k="name:se" v="Máhkirčearru" />
		<tag k="natural" v="hill" />
		<tag k="old_name:se" v="Makkirčærro" />
		<tag k="place" v="locality" />
		<tag k="ssr:stedsnr" v="626128" />
	</node>
	<node id="-809050" lat="70.5130639316" lon="30.1744401585">
		<tag k="name" v="Djupdalen" />
		<tag k="natural" v="valley" />
		<tag k="place" v="locality" />
		<tag k="ssr:stedsnr" v="626127" />
	</node>
	<node id="-809049" lat="70.553680598" lon="30.4497483654">
		<tag k="loc_name" v="Svartneset" />
		<tag k="name" v="Svartnes" />
		<tag k="natural" v="cape" />
		<tag k="ssr:stedsnr" v="626085" />
	</node>
	<node id="-809048" lat="70.5450111584" lon="30.4577011209">
		<tag k="name" v="Kalkmorapet" />
		<tag k="natural" v="valley" />
		<tag k="place" v="locality" />
		<tag k="ssr:stedsnr" v="626076" />
	</node>
	<node id="-809047" lat="70.5317055939" lon="30.0062985785">
		<tag k="name" v="Vesterelv" />
		<tag k="place" v="farm" />
		<tag k="ssr:stedsnr" v="626065" />
	</node>
	<node id="-809046" lat="70.5398000374" lon="30.0480652338">
		<tag k="alt_name" v="Havnefjell" />
		<tag k="fixme" v="consider natural=peak for the most distinct mountains in the district" />
		<tag k="name" v="Hamnefjell" />
		<tag k="natural" v="hill" />
		<tag k="place" v="locality" />
		<tag k="ssr:stedsnr" v="626063" />
	</node>
	<node id="-809045" lat="70.6664833699" lon="30.1189319223">
		<tag k="fixme" v="consider natural=peak for the most distinct mountains in the district" />
		<tag k="name" v="Korsnesfjellet" />
		<tag k="natural" v="hill" />
		<tag k="place" v="locality" />
		<tag k="ssr:stedsnr" v="626060" />
	</node>
	<node id="-809044" lat="70.6425250325" lon="30.1540207781">
		<tag k="name" v="Bjørndalen" />
		<tag k="natural" v="valley" />
		<tag k="place" v="locality" />
		<tag k="ssr:stedsnr" v="626056" />
	</node>
	<node id="-809043" lat="70.5031833665" lon="29.7655875764">
		<tag k="name" v="Strupen" />
		<tag k="natural" v="valley" />
		<tag k="place" v="locality" />
		<tag k="ssr:stedsnr" v="626054" />
	</node>
	<node id="-809042" lat="70.7002889262" lon="30.0668625119">
		<tag k="name" v="Molvikvatnan - Máhkirjávrrit" />
		<tag k="name:no" v="Molvikvatnan" />
		<tag k="name:se" v="Máhkirjávrrit" />
		<tag k="natural" v="water" />
		<tag k="old_name:se" v="Makkirjavrit" />
		<tag k="ssr:stedsnr" v="626044" />
		<tag k="water" v="lake" />
	</node>
	<node id="-809041" lat="70.586858376" lon="30.3039901094">
		<tag k="fixme" v="consider natural=peak for the most distinct mountains in the district" />
		<tag k="loc_name" v="Syltefjordstauran" />
		<tag k="name" v="Stauran" />
		<tag k="natural" v="hill" />
		<tag k="place" v="locality" />
		<tag k="ssr:stedsnr" v="626032" />
	</node>
	<node id="-809040" lat="70.502000044" lon="30.5683121382">
		<tag k="alt_name" v="Sandfjorden" />
		<tag k="name" v="Sandfjord" />
		<tag k="place" v="locality" />
		<tag k="ssr:stedsnr" v="626012" />
	</node>
	<node id="-809039" lat="70.513338931" lon="30.5159232776">
		<tag k="name" v="Småelvan" />
		<tag k="ssr:stedsnr" v="626007" />
		<tag k="waterway" v="stream" />
	</node>
	<node id="-809038" lat="70.5319500336" lon="30.026659697">
		<tag k="name" v="Kvenskoran" />
		<tag k="natural" v="hill" />
		<tag k="place" v="locality" />
		<tag k="ssr:stedsnr" v="576515" />
	</node>
	<node id="-809037" lat="70.5507417045" lon="30.0857735429">
		<tag k="building" v="industrial" />
		<tag k="industrial" v="factory" />
		<tag k="name" v="Samvirkebruket" />
		<tag k="ssr:stedsnr" v="576494" />
	</node>
	<node id="-809036" lat="70.5034444795" lon="29.8572653296">
		<tag k="name" v="Solheim" />
		<tag k="place" v="locality" />
		<tag k="ssr:stedsnr" v="576402" />
	</node>
	<node id="-809035" lat="70.6325833651" lon="29.8044542978">
		<tag k="name" v="Skovikelva" />
		<tag k="ssr:stedsnr" v="576366" />
		<tag k="waterway" v="river" />
	</node>
	<node id="-809034" lat="70.4759028246" lon="30.72223981">
		<tag k="fixme" v="consider seamark:type=rock or natural=shoal" />
		<tag k="name" v="Segelkollskjæran" />
		<tag k="place" v="islet" />
		<tag k="ssr:stedsnr" v="572592" />
	</node>
	<node id="-809032" lat="70.6735611419" lon="29.8865376046">
		<tag k="name" v="Raudbergneset" />
		<tag k="natural" v="cape" />
		<tag k="ssr:stedsnr" v="571514" />
	</node>
	<node id="-809031" lat="70.7127250273" lon="29.7393376733">
		<tag k="name" v="Kolnesaksla" />
		<tag k="place" v="locality" />
		<tag k="ssr:stedsnr" v="570383" />
	</node>
	<node id="-809030" lat="70.3865389254" lon="29.7322347731">
		<tag k="fixme" v="consider natural=peak for the most distinct mountains in the district" />
		<tag k="name" v="Ruossoaivi" />
		<tag k="name:se" v="Ruossoaivi" />
		<tag k="natural" v="hill" />
		<tag k="place" v="locality" />
		<tag k="ssr:stedsnr" v="566965" />
	</node>
	<node id="-809029" lat="70.3834417074" lon="29.9113097019">
		<tag k="name" v="Sandfjordelva - Dávatjohka" />
		<tag k="name:no" v="Sandfjordelva" />
		<tag k="name:se" v="Dávatjohka" />
		<tag k="old_name:se" v="Davatjåkka" />
		<tag k="ssr:stedsnr" v="566961" />
		<tag k="waterway" v="river" />
	</node>
	<node id="-809028" lat="70.4955833782" lon="30.4943788578">
		<tag k="name" v="Kudalen" />
		<tag k="natural" v="valley" />
		<tag k="place" v="locality" />
		<tag k="ssr:stedsnr" v="566915" />
	</node>
	<node id="-809027" lat="70.6603305884" lon="29.9599903434">
		<tag k="name" v="Høgfjellvatna" />
		<tag k="natural" v="water" />
		<tag k="ssr:stedsnr" v="566488" />
		<tag k="water" v="lake" />
	</node>
	<node id="-809026" lat="70.6348305863" lon="29.8043848488">
		<tag k="name" v="Skovika" />
		<tag k="natural" v="bay" />
		<tag k="ssr:stedsnr" v="566469" />
	</node>
	<node id="-809025" lat="70.626602805" lon="29.6313071281">
		<tag k="name" v="Neptunelva" />
		<tag k="ssr:stedsnr" v="566466" />
		<tag k="waterway" v="river" />
	</node>
	<node id="-809024" lat="70.5465750371" lon="30.0113402611">
		<tag k="alt_name:se" v="Gárdjohka;Gárdijohka" />
		<tag k="name" v="Gárdojohka" />
		<tag k="name:se" v="Gárdojohka" />
		<tag k="old_name:se" v="Gardujåkka" />
		<tag k="ssr:stedsnr" v="566059" />
		<tag k="waterway" v="stream" />
	</node>
	<node id="-809023" lat="70.538488937" lon="30.6337482467">
		<tag k="name" v="Spira" />
		<tag k="natural" v="cape" />
		<tag k="ssr:stedsnr" v="566014" />
	</node>
	<node id="-809022" lat="70.5315055915" lon="30.1156596433">
		<tag k="name" v="Hamnnesodden" />
		<tag k="natural" v="cape" />
		<tag k="ssr:stedsnr" v="566010" />
	</node>
	<node id="-809021" lat="70.3776639351" lon="30.3049844718">
		<tag k="name" v="Langryggvatna" />
		<tag k="natural" v="water" />
		<tag k="ssr:stedsnr" v="565935" />
		<tag k="water" v="lake" />
	</node>
	<node id="-809020" lat="70.4557250412" lon="30.0464013263">
		<tag k="name" v="Krokdalen" />
		<tag k="natural" v="valley" />
		<tag k="place" v="locality" />
		<tag k="ssr:stedsnr" v="565895" />
	</node>
	<node id="-809019" lat="70.4366417065" lon="30.0952734989">
		<tag k="name" v="Djupdalen" />
		<tag k="natural" v="valley" />
		<tag k="place" v="locality" />
		<tag k="ssr:stedsnr" v="565884" />
	</node>
	<node id="-809018" lat="70.5869139187" lon="29.6004987965">
		<tag k="alt_name" v="Reinkalvvatn" />
		<tag k="name" v="Reinkalvvatnet" />
		<tag k="natural" v="water" />
		<tag k="ssr:stedsnr" v="565445" />
	</node>
	<node id="-809017" lat="70.5929166984" lon="29.597559926">
		<tag k="alt_name" v="Bukteelva" />
		<tag k="name" v="Buktelva" />
		<tag k="ssr:stedsnr" v="565444" />
		<tag k="waterway" v="river" />
	</node>
	<node id="-809016" lat="70.5282944775" lon="29.971554156">
		<tag k="name" v="Kristoffervatnet" />
		<tag k="natural" v="water" />
		<tag k="ssr:stedsnr" v="565428" />
	</node>
	<node id="-809015" lat="70.5198611454" lon="29.5701793399">
		<tag k="name" v="Arondalen" />
		<tag k="natural" v="valley" />
		<tag k="place" v="locality" />
		<tag k="ssr:stedsnr" v="565426" />
	</node>
	<node id="-809014" lat="70.5843805903" lon="29.7865153807">
		<tag k="fixme" v="consider natural=peak for the most distinct mountains in the district" />
		<tag k="name" v="Námmečohkka" />
		<tag k="name:se" v="Námmečohkka" />
		<tag k="natural" v="hill" />
		<tag k="old_name:se" v="Nammečåkka" />
		<tag k="place" v="locality" />
		<tag k="ssr:stedsnr" v="565423" />
	</node>
	<node id="-809013" lat="70.5706444722" lon="29.7344459665">
		<tag k="name" v="Oroščohkka" />
		<tag k="name:se" v="Oroščohkka" />
		<tag k="natural" v="hill" />
		<tag k="old_name:se" v="Åruščåkka" />
		<tag k="place" v="locality" />
		<tag k="ssr:stedsnr" v="565422" />
	</node>
	<node id="-809012" lat="70.5698833719" lon="29.8530042388">
		<tag k="fixme" v="consider natural=peak for the most distinct mountains in the district" />
		<tag k="name" v="Båtsfjordfjellet - Máhkirčearru" />
		<tag k="name:no" v="Båtsfjordfjellet" />
		<tag k="name:se" v="Máhkirčearru" />
		<tag k="natural" v="hill" />
		<tag k="old_name:se" v="Makkirčærro" />
		<tag k="place" v="locality" />
		<tag k="ssr:stedsnr" v="565421" />
	</node>
	<node id="-809011" lat="70.6513500313" lon="30.1264458083">
		<tag k="bay" v="fjord" />
		<tag k="name" v="Makkaur-Sandfjorden - Sáttovuotna" />
		<tag k="name:no" v="Makkaur-Sandfjorden" />
		<tag k="name:se" v="Sáttovuotna" />
		<tag k="natural" v="bay" />
		<tag k="old_name:se" v="Sadduvuodna" />
		<tag k="ssr:stedsnr" v="565082" />
	</node>
	<node id="-809010" lat="70.6250917014" lon="29.7516681996">
		<tag k="name" v="Nedre Ekebergvatn" />
		<tag k="natural" v="water" />
		<tag k="ssr:stedsnr" v="516381" />
		<tag k="water" v="lake" />
	</node>
	<node id="-809009" lat="70.5068111479" lon="29.8742403233">
		<tag k="name" v="Reingjerdnesset" />
		<tag k="natural" v="cape" />
		<tag k="ssr:stedsnr" v="516364" />
	</node>
	<node id="-809008" lat="70.6311778127" lon="29.725218219">
		<tag k="name" v="Storholmen" />
		<tag k="natural" v="cape" />
		<tag k="ssr:stedsnr" v="516333" />
	</node>
	<node id="-809007" lat="70.6246944744" lon="29.67314323">
		<tag k="name" v="Neptundalen" />
		<tag k="natural" v="valley" />
		<tag k="place" v="locality" />
		<tag k="ssr:stedsnr" v="516320" />
	</node>
	<node id="-809006" lat="70.588958365" lon="29.646451551">
		<tag k="name" v="Bardosenbakken" />
		<tag k="natural" v="slope" />
		<tag k="place" v="locality" />
		<tag k="ssr:stedsnr" v="516134" />
	</node>
	<node id="-809005" lat="70.6153805908" lon="29.6872182159">
		<tag k="name" v="Spira" />
		<tag k="place" v="isolated_dwelling" />
		<tag k="ssr:stedsnr" v="516127" />
	</node>
	<node id="-809003" lat="70.497508372" lon="29.7919209082">
		<tag k="name" v="Morešveaijohka" />
		<tag k="name:se" v="Morešveaijohka" />
		<tag k="old_name:se" v="Mårešvæjjåkka" />
		<tag k="ssr:stedsnr" v="513477" />
		<tag k="waterway" v="river" />
	</node>
	<node id="-809001" lat="70.540858375" lon="30.5612427278">
		<tag k="name" v="Ovnsmolla" />
		<tag k="natural" v="bay" />
		<tag k="ssr:stedsnr" v="511988" />
	</node>
	<node id="-809000" lat="70.600863916" lon="29.6945737772">
		<tag k="aeroway" v="aerodrome" />
		<tag k="alt_name:no" v="Båtsfjord" />
		<tag k="loc_name:se" v="Báhcavuona girdihámman" />
		<tag k="name" v="Båtsfjord lufthavn" />
		<tag k="name:no" v="Båtsfjord lufthavn" />
		<tag k="old_name:no" v="Båtsfjord flyplass" />
		<tag k="ssr:stedsnr" v="511947" />
	</node>
	<node id="-808999" lat="70.6539278123" lon="30.1122930325">
		<tag k="name" v="Kålfjord" />
		<tag k="place" v="isolated_dwelling" />
		<tag k="ssr:stedsnr" v="511509" />
	</node>
	<node id="-808998" lat="70.6849000335" lon="29.9085320422">
		<tag k="name" v="Skarbergneset" />
		<tag k="natural" v="cape" />
		<tag k="ssr:stedsnr" v="511495" />
	</node>
	<node id="-808997" lat="70.6344778049" lon="29.728990441">
		<tag k="fixme" v="multiple name tags, choose one and add the other to alt_name" />
		<tag k="loc_name:se" v="Hámman" />
		<tag k="name" v="Hamna;Ytre Havn" />
		<tag k="name:no" v="Hamna;Ytre Havn" />
		<tag k="natural" v="bay" />
		<tag k="ssr:stedsnr" v="511492" />
	</node>
	<node id="-808996" lat="70.6742611498" lon="30.1940235503">
		<tag k="name" v="Korsnesaksla" />
		<tag k="place" v="locality" />
		<tag k="ssr:stedsnr" v="510433" />
	</node>
	<node id="-808995" lat="70.6516083617" lon="29.7477043203">
		<tag k="name" v="Skrovnesvatna" />
		<tag k="natural" v="water" />
		<tag k="ssr:stedsnr" v="506486" />
	</node>
	<node id="-808994" lat="70.4837500331" lon="29.5401571348">
		<tag k="loc_name:fkv" v="Varenkinniemi;Varinkinniemi" />
		<tag k="name" v="Varangerhalvøya - Várnjárga" />
		<tag k="name:no" v="Varangerhalvøya" />
		<tag k="name:se" v="Várnjárga" />
		<tag k="natural" v="cape" />
		<tag k="ssr:stedsnr" v="506029" />
	</node>
	<node id="-808993" lat="70.3784417107" lon="29.9408930123">
		<tag k="name" v="Sandfjorddalen" />
		<tag k="natural" v="valley" />
		<tag k="place" v="locality" />
		<tag k="ssr:stedsnr" v="505963" />
	</node>
	<node id="-808992" lat="70.330097266" lon="30.0608623624">
		<tag k="name" v="Ovsttarjohka" />
		<tag k="name:se" v="Ovsttarjohka" />
		<tag k="old_name:se" v="Åvstarjåkka" />
		<tag k="ssr:stedsnr" v="505916" />
		<tag k="waterway" v="river" />
	</node>
	<node id="-808991" lat="70.3106639369" lon="30.1126428689">
		<tag k="name" v="Hubejohskáidi" />
		<tag k="name:se" v="Hubejohskáidi" />
		<tag k="natural" v="cape" />
		<tag k="old_name:se" v="Hubejåkskaidi" />
		<tag k="ssr:stedsnr" v="505909" />
	</node>
	<node id="-808990" lat="70.4965861581" lon="30.5453093689">
		<tag k="name" v="Gretehola" />
		<tag k="natural" v="valley" />
		<tag k="place" v="locality" />
		<tag k="ssr:stedsnr" v="505887" />
	</node>
	<node id="-808989" lat="70.4657750367" lon="30.0717846454">
		<tag k="name" v="Tobiasdalen" />
		<tag k="natural" v="valley" />
		<tag k="place" v="locality" />
		<tag k="ssr:stedsnr" v="505877" />
	</node>
	<node id="-808988" lat="70.4645278204" lon="30.1393290453">
		<tag k="name" v="Skadjasuolojohka" />
		<tag k="name:se" v="Skadjasuolojohka" />
		<tag k="old_name:se" v="Skaddjasuolujåkka" />
		<tag k="ssr:stedsnr" v="505875" />
		<tag k="waterway" v="river" />
	</node>
	<node id="-808987" lat="70.5252250328" lon="29.3191905713">
		<tag k="name" v="Tanadalen" />
		<tag k="natural" v="valley" />
		<tag k="place" v="locality" />
		<tag k="ssr:stedsnr" v="505505" />
	</node>
	<node id="-808986" lat="70.6128500317" lon="29.764584857">
		<tag k="name" v="Klauvvatnet" />
		<tag k="natural" v="water" />
		<tag k="ssr:stedsnr" v="505475" />
	</node>
	<node id="-808985" lat="70.5978222508" lon="29.6349404599">
		<tag k="name" v="Jonatoppen - Jovnnačohkka" />
		<tag k="name:no" v="Jonatoppen" />
		<tag k="name:se" v="Jovnnačohkka" />
		<tag k="natural" v="hill" />
		<tag k="old_name:se" v="Jåvnačåkka" />
		<tag k="place" v="locality" />
		<tag k="ssr:stedsnr" v="505472" />
	</node>
	<node id="-808984" lat="70.5328000297" lon="29.5114377002">
		<tag k="name" v="Evavatnet" />
		<tag k="natural" v="water" />
		<tag k="ssr:stedsnr" v="505463" />
		<tag k="water" v="lake" />
	</node>
	<node id="-808983" lat="70.5837833688" lon="29.6261987947">
		<tag k="name" v="Anneelva - Ánnejohka" />
		<tag k="name:no" v="Anneelva" />
		<tag k="name:se" v="Ánnejohka" />
		<tag k="old_name:se" v="Annejåkka" />
		<tag k="ssr:stedsnr" v="505453" />
		<tag k="waterway" v="stream" />
	</node>
	<node id="-808982" lat="70.5346500374" lon="29.9470736301">
		<tag k="name" v="Sørhursidalen" />
		<tag k="natural" v="valley" />
		<tag k="place" v="locality" />
		<tag k="ssr:stedsnr" v="505445" />
	</node>
	<node id="-808981" lat="70.5484333723" lon="30.4016511521">
		<tag k="alt_name" v="Syltevika, yt" />
		<tag k="name" v="Ytre Syltevika" />
		<tag k="natural" v="bay" />
		<tag k="ssr:stedsnr" v="505065" />
	</node>
	<node id="-808980" lat="70.5569639278" lon="30.0709485723">
		<tag k="name" v="Myrvatnet" />
		<tag k="natural" v="water" />
		<tag k="ssr:stedsnr" v="505058" />
	</node>
	<node id="-808979" lat="70.5463056012" lon="30.6121399033">
		<tag k="fixme" v="consider natural=peak for the most distinct mountains in the district" />
		<tag k="name" v="Hardbaken" />
		<tag k="natural" v="hill" />
		<tag k="place" v="locality" />
		<tag k="ssr:stedsnr" v="505053" />
	</node>
	<node id="-808978" lat="70.5514333733" lon="30.6003510382">
		<tag k="fixme" v="consider seamark:type=rock or natural=shoal" />
		<tag k="name" v="Storskjeran" />
		<tag k="place" v="islet" />
		<tag k="ssr:stedsnr" v="505050" />
	</node>
	<node id="-808977" lat="70.6751000362" lon="30.2074013176">
		<tag k="alt_name" v="Korsnes" />
		<tag k="name" v="Korsneset" />
		<tag k="natural" v="cape" />
		<tag k="ssr:stedsnr" v="505043" />
	</node>
	<node id="-808976" lat="70.5205750457" lon="30.4397539053">
		<tag k="fixme" v="consider natural=peak for the most distinct mountains in the district" />
		<tag k="name" v="Baikačearru" />
		<tag k="name:se" v="Baikačearru" />
		<tag k="natural" v="hill" />
		<tag k="old_name:se" v="Baikačærro" />
		<tag k="place" v="locality" />
		<tag k="ssr:stedsnr" v="505001" />
	</node>
	<node id="-808975" lat="70.5472972629" lon="30.0083513646">
		<tag k="name" v="Gardijåkkdalen" />
		<tag k="natural" v="valley" />
		<tag k="place" v="locality" />
		<tag k="ssr:stedsnr" v="455477" />
	</node>
	<node id="-808974" lat="70.5123889233" lon="29.9347430725">
		<tag k="name" v="Brendbakken" />
		<tag k="natural" v="slope" />
		<tag k="place" v="locality" />
		<tag k="ssr:stedsnr" v="455401" />
	</node>
	<node id="-808973" lat="70.5100250397" lon="29.8980041866">
		<tag k="name" v="Nerran" />
		<tag k="natural" v="slope" />
		<tag k="place" v="locality" />
		<tag k="ssr:stedsnr" v="455364" />
	</node>
	<node id="-808972" lat="70.6440611438" lon="29.7116182153">
		<tag k="name" v="Hamneelva" />
		<tag k="ssr:stedsnr" v="455321" />
		<tag k="waterway" v="river" />
	</node>
	<node id="-808971" lat="70.6203611469" lon="29.6787293351">
		<tag k="name" v="Marielva" />
		<tag k="ssr:stedsnr" v="455301" />
		<tag k="waterway" v="stream" />
	</node>
	<node id="-808970" lat="70.4982000292" lon="29.606868217">
		<tag k="fixme" v="consider natural=peak for the most distinct mountains in the district" />
		<tag k="name" v="Skoghøgda - Vuovdeoaivi" />
		<tag k="name:no" v="Skoghøgda" />
		<tag k="name:se" v="Vuovdeoaivi" />
		<tag k="natural" v="hill" />
		<tag k="place" v="locality" />
		<tag k="ssr:stedsnr" v="450991" />
	</node>
	<node id="-808969" lat="70.7060833664" lon="30.0936486219">
		<tag k="fixme" v="consider seamark:type=rock or natural=shoal" />
		<tag k="name" v="Molvikskjæret" />
		<tag k="place" v="islet" />
		<tag k="ssr:stedsnr" v="450529" />
	</node>
	<node id="-808967" lat="70.6837611403" lon="29.8000570686">
		<tag k="name" v="Elveneset" />
		<tag k="natural" v="cape" />
		<tag k="ssr:stedsnr" v="445508" />
	</node>
	<node id="-808966" lat="70.6713417018" lon="29.9332486969">
		<tag k="name" v="Skarvbergvikvatnet" />
		<tag k="natural" v="water" />
		<tag k="ssr:stedsnr" v="445501" />
	</node>
	<node id="-808965" lat="70.6642944789" lon="29.9436264488">
		<tag k="fixme" v="consider natural=peak for the most distinct mountains in the district" />
		<tag k="name" v="Makkaurfjella" />
		<tag k="natural" v="hill" />
		<tag k="place" v="locality" />
		<tag k="ssr:stedsnr" v="445499" />
	</node>
	<node id="-808964" lat="70.7075250279" lon="29.9897125605">
		<tag k="name" v="Rossmålvika" />
		<tag k="natural" v="bay" />
		<tag k="ssr:stedsnr" v="445492" />
	</node>
	<node id="-808963" lat="70.6857500354" lon="30.1222847168">
		<tag k="name" v="Reindalen" />
		<tag k="natural" v="valley" />
		<tag k="place" v="locality" />
		<tag k="ssr:stedsnr" v="445050" />
	</node>
	<node id="-808962" lat="70.6679722581" lon="30.0776124878">
		<tag k="name" v="Grunnvatna" />
		<tag k="natural" v="water" />
		<tag k="ssr:stedsnr" v="445048" />
	</node>
	<node id="-808961" lat="70.5775639267" lon="30.0067208295">
		<tag k="name" v="Nordfjordvatnet" />
		<tag k="natural" v="water" />
		<tag k="ssr:stedsnr" v="445041" />
	</node>
</osm>
