<?xml version="1.0" encoding="UTF-8"?>
<osm generator="osmapis" version="0.6">
	<node id="-337399" lat="58.0057583312" lon="7.49815834089">
		<tag k="name" v="Nordre Havneholmen" />
		<tag k="ssr:date" v="2016-05-11" />
		<tag k="ssr:gruppe" v="navigasjon" />
		<tag k="ssr:hovedgruppe" v="infrastruktur" />
		<tag k="ssr:stedsnr" v="954217" />
		<tag k="ssr:type" v="lanterne" />
	</node>
	<node id="-335350" lat="58.0142944467" lon="7.48987777572">
		<tag k="name" v="Ellingstønnan" />
		<tag k="ssr:date" v="2016-05-10" />
		<tag k="ssr:gruppe" v="navigasjon" />
		<tag k="ssr:hovedgruppe" v="infrastruktur" />
		<tag k="ssr:stedsnr" v="177064" />
		<tag k="ssr:type" v="lanterne" />
	</node>
	<node id="-335349" lat="57.9912750005" lon="7.55206666411">
		<tag k="name" v="Rennespynten" />
		<tag k="ssr:date" v="2016-05-10" />
		<tag k="ssr:gruppe" v="navigasjon" />
		<tag k="ssr:hovedgruppe" v="infrastruktur" />
		<tag k="ssr:stedsnr" v="177056" />
		<tag k="ssr:type" v="lanterne" />
	</node>
	<node id="-335347" lat="57.9833472265" lon="7.56131666997">
		<tag k="name" v="Vedeskjer" />
		<tag k="ssr:date" v="2016-05-10" />
		<tag k="ssr:gruppe" v="navigasjon" />
		<tag k="ssr:hovedgruppe" v="infrastruktur" />
		<tag k="ssr:stedsnr" v="165224" />
		<tag k="ssr:type" v="lanterne" />
	</node>
	<node id="-335858" lat="57.960177774" lon="7.56756944357">
		<tag k="name" v="Odknuppen" />
		<tag k="ssr:date" v="2016-05-10" />
		<tag k="ssr:gruppe" v="navigasjon" />
		<tag k="ssr:hovedgruppe" v="infrastruktur" />
		<tag k="ssr:stedsnr" v="469239" />
		<tag k="ssr:type" v="lanterne" />
	</node>
	<node id="-336850" lat="58.0258432751" lon="7.33918496834">
		<tag k="alt_name" v="Vestre Gjallaråsholmen" />
		<tag k="name" v="Gjallaråsholmen" />
		<tag k="ssr:date" v="2018-06-01" />
		<tag k="ssr:gruppe" v="navigasjon" />
		<tag k="ssr:hovedgruppe" v="infrastruktur" />
		<tag k="ssr:stedsnr" v="788653" />
		<tag k="ssr:type" v="fyrlykt" />
	</node>
	<node id="-337398" lat="58.0230111105" lon="7.46091388559">
		<tag k="alt_name" v="Malmøy, øvre" />
		<tag k="name" v="Malmø, øvre lanterne" />
		<tag k="ssr:date" v="2016-05-11" />
		<tag k="ssr:gruppe" v="navigasjon" />
		<tag k="ssr:hovedgruppe" v="infrastruktur" />
		<tag k="ssr:stedsnr" v="954209" />
		<tag k="ssr:type" v="lanterne" />
	</node>
	<node id="-335280" lat="57.9749777751" lon="7.68174999476">
		<tag k="name" v="Ballastskjeran" />
		<tag k="ssr:date" v="2016-05-10" />
		<tag k="ssr:gruppe" v="navigasjon" />
		<tag k="ssr:hovedgruppe" v="infrastruktur" />
		<tag k="ssr:stedsnr" v="146203" />
		<tag k="ssr:type" v="lanterne" />
	</node>
	<node id="-334762" lat="58.0034405182" lon="7.44941075408">
		<tag k="alt_name" v="Hatholmen;Hattholmen fyr" />
		<tag k="name" v="Hattholmen" />
		<tag k="ssr:date" v="2018-04-10" />
		<tag k="ssr:gruppe" v="navigasjon" />
		<tag k="ssr:hovedgruppe" v="infrastruktur" />
		<tag k="ssr:stedsnr" v="62" />
		<tag k="ssr:type" v="fyrstasjon" />
	</node>
	<node id="-334245" lat="58.0105611101" lon="7.56706111571">
		<tag k="name" v="Tregde, Øvre" />
		<tag k="ssr:date" v="2016-05-10" />
		<tag k="ssr:gruppe" v="navigasjon" />
		<tag k="ssr:hovedgruppe" v="infrastruktur" />
		<tag k="ssr:stedsnr" v="298084" />
		<tag k="ssr:type" v="lanterne" />
	</node>
	<node id="-336291" lat="58.010838887" lon="7.38833334069">
		<tag k="name" v="Kvistholmen" />
		<tag k="ssr:date" v="2016-05-10" />
		<tag k="ssr:gruppe" v="navigasjon" />
		<tag k="ssr:hovedgruppe" v="infrastruktur" />
		<tag k="ssr:stedsnr" v="606936" />
		<tag k="ssr:type" v="fyrlykt" />
	</node>
	<node id="-336271" lat="58.0039999975" lon="7.45463889258">
		<tag k="name" v="Bjørneskjær" />
		<tag k="ssr:date" v="2016-05-10" />
		<tag k="ssr:gruppe" v="navigasjon" />
		<tag k="ssr:hovedgruppe" v="infrastruktur" />
		<tag k="ssr:stedsnr" v="601140" />
		<tag k="ssr:type" v="lanterne" />
	</node>
	<node id="-334733" lat="58.0159987517" lon="7.59383955403">
		<tag k="name" v="Smeigetoppen" />
		<tag k="ssr:date" v="2019-05-30" />
		<tag k="ssr:gruppe" v="veg" />
		<tag k="ssr:hovedgruppe" v="infrastruktur" />
		<tag k="ssr:stedsnr" v="1011954" />
		<tag k="ssr:type" v="adressenavn" />
	</node>
	<node id="-334732" lat="58.0164174878" lon="7.59531446599">
		<tag k="name" v="Smeigegada" />
		<tag k="ssr:date" v="2019-05-30" />
		<tag k="ssr:gruppe" v="veg" />
		<tag k="ssr:hovedgruppe" v="infrastruktur" />
		<tag k="ssr:stedsnr" v="1011953" />
		<tag k="ssr:type" v="adressenavn" />
	</node>
	<node id="-334731" lat="58.0169087934" lon="7.59498204093">
		<tag k="name" v="Maulebakken" />
		<tag k="ssr:date" v="2019-05-30" />
		<tag k="ssr:gruppe" v="veg" />
		<tag k="ssr:hovedgruppe" v="infrastruktur" />
		<tag k="ssr:stedsnr" v="1011952" />
		<tag k="ssr:type" v="adressenavn" />
	</node>
	<node id="-334730" lat="57.9801540427" lon="7.59215460599">
		<tag k="name" v="Udøy Brattholmen" />
		<tag k="ssr:date" v="2019-05-30" />
		<tag k="ssr:gruppe" v="veg" />
		<tag k="ssr:hovedgruppe" v="infrastruktur" />
		<tag k="ssr:stedsnr" v="1009205" />
		<tag k="ssr:type" v="adressenavn" />
	</node>
	<node id="-334729" lat="57.9926587443" lon="7.57154668488">
		<tag k="name" v="Andholmen" />
		<tag k="ssr:date" v="2019-05-30" />
		<tag k="ssr:gruppe" v="veg" />
		<tag k="ssr:hovedgruppe" v="infrastruktur" />
		<tag k="ssr:stedsnr" v="1009204" />
		<tag k="ssr:type" v="adressenavn" />
	</node>
	<node id="-334728" lat="58.072840079" lon="7.48013305007">
		<tag k="name" v="Øvre Undal" />
		<tag k="ssr:date" v="2019-05-30" />
		<tag k="ssr:gruppe" v="veg" />
		<tag k="ssr:hovedgruppe" v="infrastruktur" />
		<tag k="ssr:stedsnr" v="985778" />
		<tag k="ssr:type" v="adressenavn" />
	</node>
	<node id="-334727" lat="57.9855889373" lon="7.57521411919">
		<tag k="name" v="Udøy" />
		<tag k="ssr:date" v="2019-05-30" />
		<tag k="ssr:gruppe" v="veg" />
		<tag k="ssr:hovedgruppe" v="infrastruktur" />
		<tag k="ssr:stedsnr" v="985774" />
		<tag k="ssr:type" v="adressenavn" />
	</node>
	<node id="-334726" lat="57.977556772" lon="7.60919976207">
		<tag k="name" v="Sæsøy" />
		<tag k="ssr:date" v="2019-05-30" />
		<tag k="ssr:gruppe" v="veg" />
		<tag k="ssr:hovedgruppe" v="infrastruktur" />
		<tag k="ssr:stedsnr" v="985766" />
		<tag k="ssr:type" v="adressenavn" />
	</node>
	<node id="-334724" lat="57.9864030763" lon="7.5959179668">
		<tag k="name" v="Prestholmen" />
		<tag k="ssr:date" v="2019-05-30" />
		<tag k="ssr:gruppe" v="veg" />
		<tag k="ssr:hovedgruppe" v="infrastruktur" />
		<tag k="ssr:stedsnr" v="985172" />
		<tag k="ssr:type" v="adressenavn" />
	</node>
	<node id="-334723" lat="58.0118995011" lon="7.41266041674">
		<tag k="name" v="Landehobde" />
		<tag k="ssr:date" v="2019-05-30" />
		<tag k="ssr:gruppe" v="veg" />
		<tag k="ssr:hovedgruppe" v="infrastruktur" />
		<tag k="ssr:stedsnr" v="985159" />
		<tag k="ssr:type" v="adressenavn" />
	</node>
	<node id="-334722" lat="58.030172936" lon="7.4782013246">
		<tag k="name" v="Kasperboden" />
		<tag k="ssr:date" v="2019-05-30" />
		<tag k="ssr:gruppe" v="veg" />
		<tag k="ssr:hovedgruppe" v="infrastruktur" />
		<tag k="ssr:stedsnr" v="985146" />
		<tag k="ssr:type" v="adressenavn" />
	</node>
	<node id="-334721" lat="58.0143469614" lon="7.3922221049">
		<tag k="name" v="Juviksodden" />
		<tag k="ssr:date" v="2019-05-30" />
		<tag k="ssr:gruppe" v="veg" />
		<tag k="ssr:hovedgruppe" v="infrastruktur" />
		<tag k="ssr:stedsnr" v="985144" />
		<tag k="ssr:type" v="adressenavn" />
	</node>
	<node id="-334720" lat="58.0151257319" lon="7.39342290547">
		<tag k="name" v="Juvika" />
		<tag k="ssr:date" v="2019-05-30" />
		<tag k="ssr:gruppe" v="veg" />
		<tag k="ssr:hovedgruppe" v="infrastruktur" />
		<tag k="ssr:stedsnr" v="985143" />
		<tag k="ssr:type" v="adressenavn" />
	</node>
	<node id="-334719" lat="58.0062320553" lon="7.36312178436">
		<tag k="name" v="Hilletunga" />
		<tag k="ssr:date" v="2019-05-30" />
		<tag k="ssr:gruppe" v="veg" />
		<tag k="ssr:hovedgruppe" v="infrastruktur" />
		<tag k="ssr:stedsnr" v="985119" />
		<tag k="ssr:type" v="adressenavn" />
	</node>
	<node id="-334718" lat="57.9990430813" lon="7.55901201448">
		<tag k="name" v="Gressholmen" />
		<tag k="ssr:date" v="2019-05-30" />
		<tag k="ssr:gruppe" v="veg" />
		<tag k="ssr:hovedgruppe" v="infrastruktur" />
		<tag k="ssr:stedsnr" v="985068" />
		<tag k="ssr:type" v="adressenavn" />
	</node>
	<node id="-334717" lat="58.0458885508" lon="7.40009013962">
		<tag k="name" v="Øygardsveien" />
		<tag k="ssr:date" v="2019-05-30" />
		<tag k="ssr:gruppe" v="veg" />
		<tag k="ssr:hovedgruppe" v="infrastruktur" />
		<tag k="ssr:stedsnr" v="985057" />
		<tag k="ssr:type" v="adressenavn" />
	</node>
	<node id="-334716" lat="58.0057039421" lon="7.59798832456">
		<tag k="name" v="Ørpholmen" />
		<tag k="ssr:date" v="2019-05-30" />
		<tag k="ssr:gruppe" v="veg" />
		<tag k="ssr:hovedgruppe" v="infrastruktur" />
		<tag k="ssr:stedsnr" v="985055" />
		<tag k="ssr:type" v="adressenavn" />
	</node>
	<node id="-334715" lat="58.013278059" lon="7.63912602948">
		<tag k="name" v="Ufredsundsholmen" />
		<tag k="ssr:date" v="2019-05-30" />
		<tag k="ssr:gruppe" v="veg" />
		<tag k="ssr:hovedgruppe" v="infrastruktur" />
		<tag k="ssr:stedsnr" v="985013" />
		<tag k="ssr:type" v="adressenavn" />
	</node>
	<node id="-334714" lat="58.0006918124" lon="7.5439053244">
		<tag k="name" v="Trettholmen" />
		<tag k="ssr:date" v="2019-05-30" />
		<tag k="ssr:gruppe" v="veg" />
		<tag k="ssr:hovedgruppe" v="infrastruktur" />
		<tag k="ssr:stedsnr" v="985010" />
		<tag k="ssr:type" v="adressenavn" />
	</node>
	<node id="-334713" lat="58.0029359598" lon="7.56308226513">
		<tag k="name" v="Trelsborg" />
		<tag k="ssr:date" v="2019-05-30" />
		<tag k="ssr:gruppe" v="veg" />
		<tag k="ssr:hovedgruppe" v="infrastruktur" />
		<tag k="ssr:stedsnr" v="985009" />
		<tag k="ssr:type" v="adressenavn" />
	</node>
	<node id="-334712" lat="58.0025193134" lon="7.55085194493">
		<tag k="name" v="Tregde Gillerholmen" />
		<tag k="ssr:date" v="2019-05-30" />
		<tag k="ssr:gruppe" v="veg" />
		<tag k="ssr:hovedgruppe" v="infrastruktur" />
		<tag k="ssr:stedsnr" v="985007" />
		<tag k="ssr:type" v="adressenavn" />
	</node>
	<node id="-334711" lat="58.0041509388" lon="7.55606664757">
		<tag k="name" v="Tregde Buøy" />
		<tag k="ssr:date" v="2019-05-30" />
		<tag k="ssr:gruppe" v="veg" />
		<tag k="ssr:hovedgruppe" v="infrastruktur" />
		<tag k="ssr:stedsnr" v="985006" />
		<tag k="ssr:type" v="adressenavn" />
	</node>
	<node id="-334710" lat="58.03045251" lon="7.44736037604">
		<tag k="name" v="Torjusheia" />
		<tag k="ssr:date" v="2019-05-30" />
		<tag k="ssr:gruppe" v="veg" />
		<tag k="ssr:hovedgruppe" v="infrastruktur" />
		<tag k="ssr:stedsnr" v="985004" />
		<tag k="ssr:type" v="adressenavn" />
	</node>
	<node id="-334709" lat="58.0180817776" lon="7.38845564513">
		<tag k="name" v="Sævika" />
		<tag k="ssr:date" v="2019-05-30" />
		<tag k="ssr:gruppe" v="veg" />
		<tag k="ssr:hovedgruppe" v="infrastruktur" />
		<tag k="ssr:stedsnr" v="984998" />
		<tag k="ssr:type" v="adressenavn" />
	</node>
	<node id="-334708" lat="58.0028009928" lon="7.52204081517">
		<tag k="name" v="Sundsholmen" />
		<tag k="ssr:date" v="2019-05-30" />
		<tag k="ssr:gruppe" v="veg" />
		<tag k="ssr:hovedgruppe" v="infrastruktur" />
		<tag k="ssr:stedsnr" v="984995" />
		<tag k="ssr:type" v="adressenavn" />
	</node>
	<node id="-334707" lat="58.006639022" lon="7.52884354743">
		<tag k="name" v="Store Kigeholmen" />
		<tag k="ssr:date" v="2019-05-30" />
		<tag k="ssr:gruppe" v="veg" />
		<tag k="ssr:hovedgruppe" v="infrastruktur" />
		<tag k="ssr:stedsnr" v="984988" />
		<tag k="ssr:type" v="adressenavn" />
	</node>
	<node id="-334706" lat="57.9977972938" lon="7.3977692926">
		<tag k="name" v="Steinsøy" />
		<tag k="ssr:date" v="2019-05-30" />
		<tag k="ssr:gruppe" v="veg" />
		<tag k="ssr:hovedgruppe" v="infrastruktur" />
		<tag k="ssr:stedsnr" v="984975" />
		<tag k="ssr:type" v="adressenavn" />
	</node>
	<node id="-334705" lat="58.0150168535" lon="7.63995868332">
		<tag k="name" v="Stangholmen" />
		<tag k="ssr:date" v="2019-05-30" />
		<tag k="ssr:gruppe" v="veg" />
		<tag k="ssr:hovedgruppe" v="infrastruktur" />
		<tag k="ssr:stedsnr" v="984973" />
		<tag k="ssr:type" v="adressenavn" />
	</node>
	<node id="-334704" lat="58.0286370384" lon="7.45584593528">
		<tag k="name" v="Skottehola" />
		<tag k="ssr:date" v="2019-05-30" />
		<tag k="ssr:gruppe" v="veg" />
		<tag k="ssr:hovedgruppe" v="infrastruktur" />
		<tag k="ssr:stedsnr" v="984956" />
		<tag k="ssr:type" v="adressenavn" />
	</node>
	<node id="-334703" lat="58.0207046974" lon="7.41926264556">
		<tag k="name" v="Skoletunet" />
		<tag k="ssr:date" v="2019-05-30" />
		<tag k="ssr:gruppe" v="veg" />
		<tag k="ssr:hovedgruppe" v="infrastruktur" />
		<tag k="ssr:stedsnr" v="984955" />
		<tag k="ssr:type" v="adressenavn" />
	</node>
	<node id="-334702" lat="58.0062524592" lon="7.57058537953">
		<tag k="name" v="Skogsøy Buøy" />
		<tag k="ssr:date" v="2019-05-30" />
		<tag k="ssr:gruppe" v="veg" />
		<tag k="ssr:hovedgruppe" v="infrastruktur" />
		<tag k="ssr:stedsnr" v="984952" />
		<tag k="ssr:type" v="adressenavn" />
	</node>
	<node id="-334701" lat="58.0302698576" lon="7.43726574245">
		<tag k="name" v="Skipsbyggergata" />
		<tag k="ssr:date" v="2019-05-30" />
		<tag k="ssr:gruppe" v="veg" />
		<tag k="ssr:hovedgruppe" v="infrastruktur" />
		<tag k="ssr:stedsnr" v="984916" />
		<tag k="ssr:type" v="adressenavn" />
	</node>
	<node id="-334700" lat="58.0089301109" lon="7.42746576393">
		<tag k="name" v="Risøy" />
		<tag k="ssr:date" v="2019-05-30" />
		<tag k="ssr:gruppe" v="veg" />
		<tag k="ssr:hovedgruppe" v="infrastruktur" />
		<tag k="ssr:stedsnr" v="984895" />
		<tag k="ssr:type" v="adressenavn" />
	</node>
	<node id="-334699" lat="58.0009893292" lon="7.5367000305">
		<tag k="name" v="Raunholmen" />
		<tag k="ssr:date" v="2019-05-30" />
		<tag k="ssr:gruppe" v="veg" />
		<tag k="ssr:hovedgruppe" v="infrastruktur" />
		<tag k="ssr:stedsnr" v="984885" />
		<tag k="ssr:type" v="adressenavn" />
	</node>
	<node id="-335722" lat="58.1084083299" lon="7.49087500319">
		<tag k="name" v="Slåttebrotet" />
		<tag k="ssr:date" v="2016-05-10" />
		<tag k="ssr:gruppe" v="veg" />
		<tag k="ssr:hovedgruppe" v="infrastruktur" />
		<tag k="ssr:stedsnr" v="449456" />
		<tag k="ssr:type" v="vegstrekning" />
	</node>
	<node id="-334697" lat="58.0211508824" lon="7.32901866721">
		<tag k="name" v="Ramsøy Hille" />
		<tag k="ssr:date" v="2019-05-30" />
		<tag k="ssr:gruppe" v="veg" />
		<tag k="ssr:hovedgruppe" v="infrastruktur" />
		<tag k="ssr:stedsnr" v="984882" />
		<tag k="ssr:type" v="adressenavn" />
	</node>
	<node id="-334696" lat="58.0316295439" lon="7.46260965664">
		<tag k="name" v="Ramsdalen" />
		<tag k="ssr:date" v="2019-05-30" />
		<tag k="ssr:gruppe" v="veg" />
		<tag k="ssr:hovedgruppe" v="infrastruktur" />
		<tag k="ssr:stedsnr" v="984881" />
		<tag k="ssr:type" v="adressenavn" />
	</node>
	<node id="-334695" lat="58.0344735921" lon="7.3344944916">
		<tag k="name" v="Melkevikheia" />
		<tag k="ssr:date" v="2019-05-30" />
		<tag k="ssr:gruppe" v="veg" />
		<tag k="ssr:hovedgruppe" v="infrastruktur" />
		<tag k="ssr:stedsnr" v="984833" />
		<tag k="ssr:type" v="adressenavn" />
	</node>
	<node id="-334694" lat="58.0040634509" lon="7.54704939278">
		<tag k="name" v="Lyngøy" />
		<tag k="ssr:date" v="2019-05-30" />
		<tag k="ssr:gruppe" v="veg" />
		<tag k="ssr:hovedgruppe" v="infrastruktur" />
		<tag k="ssr:stedsnr" v="984814" />
		<tag k="ssr:type" v="adressenavn" />
	</node>
	<node id="-334693" lat="58.0065793986" lon="7.52291625604">
		<tag k="name" v="Lille Kigeholmen" />
		<tag k="ssr:date" v="2019-05-30" />
		<tag k="ssr:gruppe" v="veg" />
		<tag k="ssr:hovedgruppe" v="infrastruktur" />
		<tag k="ssr:stedsnr" v="984803" />
		<tag k="ssr:type" v="adressenavn" />
	</node>
	<node id="-334692" lat="57.9987092575" lon="7.34964129943">
		<tag k="name" v="Letterkilsholmen" />
		<tag k="ssr:date" v="2019-05-30" />
		<tag k="ssr:gruppe" v="veg" />
		<tag k="ssr:hovedgruppe" v="infrastruktur" />
		<tag k="ssr:stedsnr" v="984801" />
		<tag k="ssr:type" v="adressenavn" />
	</node>
	<node id="-334691" lat="58.0043985863" lon="7.38484987688">
		<tag k="name" v="Langøy Hille" />
		<tag k="ssr:date" v="2019-05-30" />
		<tag k="ssr:gruppe" v="veg" />
		<tag k="ssr:hovedgruppe" v="infrastruktur" />
		<tag k="ssr:stedsnr" v="984791" />
		<tag k="ssr:type" v="adressenavn" />
	</node>
	<node id="-334690" lat="57.9993038415" lon="7.5790007651">
		<tag k="name" v="Langøy" />
		<tag k="ssr:date" v="2019-05-30" />
		<tag k="ssr:gruppe" v="veg" />
		<tag k="ssr:hovedgruppe" v="infrastruktur" />
		<tag k="ssr:stedsnr" v="984790" />
		<tag k="ssr:type" v="adressenavn" />
	</node>
	<node id="-334689" lat="58.016526897" lon="7.38276280489">
		<tag k="name" v="Lande Gillerholmen" />
		<tag k="ssr:date" v="2019-05-30" />
		<tag k="ssr:gruppe" v="veg" />
		<tag k="ssr:hovedgruppe" v="infrastruktur" />
		<tag k="ssr:stedsnr" v="984773" />
		<tag k="ssr:type" v="adressenavn" />
	</node>
	<node id="-334688" lat="58.0115011425" lon="7.62876899797">
		<tag k="name" v="Kåløy" />
		<tag k="ssr:date" v="2019-05-30" />
		<tag k="ssr:gruppe" v="veg" />
		<tag k="ssr:hovedgruppe" v="infrastruktur" />
		<tag k="ssr:stedsnr" v="984771" />
		<tag k="ssr:type" v="adressenavn" />
	</node>
	<node id="-334687" lat="58.0059073342" lon="7.39546066947">
		<tag k="name" v="Krågøy" />
		<tag k="ssr:date" v="2019-05-30" />
		<tag k="ssr:gruppe" v="veg" />
		<tag k="ssr:hovedgruppe" v="infrastruktur" />
		<tag k="ssr:stedsnr" v="984767" />
		<tag k="ssr:type" v="adressenavn" />
	</node>
	<node id="-334686" lat="58.0112980314" lon="7.55283244025">
		<tag k="name" v="Kjærran" />
		<tag k="ssr:date" v="2019-05-30" />
		<tag k="ssr:gruppe" v="veg" />
		<tag k="ssr:hovedgruppe" v="infrastruktur" />
		<tag k="ssr:stedsnr" v="984735" />
		<tag k="ssr:type" v="adressenavn" />
	</node>
	<node id="-334685" lat="58.0166761107" lon="7.49526263994">
		<tag k="name" v="Kalvvika" />
		<tag k="ssr:date" v="2019-05-30" />
		<tag k="ssr:gruppe" v="veg" />
		<tag k="ssr:hovedgruppe" v="infrastruktur" />
		<tag k="ssr:stedsnr" v="984724" />
		<tag k="ssr:type" v="adressenavn" />
	</node>
	<node id="-334684" lat="58.0047762629" lon="7.55284183629">
		<tag k="name" v="Jaktholman" />
		<tag k="ssr:date" v="2019-05-30" />
		<tag k="ssr:gruppe" v="veg" />
		<tag k="ssr:hovedgruppe" v="infrastruktur" />
		<tag k="ssr:stedsnr" v="984704" />
		<tag k="ssr:type" v="adressenavn" />
	</node>
	<node id="-334683" lat="57.9969224277" lon="7.55816668475">
		<tag k="name" v="Hårsøy" />
		<tag k="ssr:date" v="2019-05-30" />
		<tag k="ssr:gruppe" v="veg" />
		<tag k="ssr:hovedgruppe" v="infrastruktur" />
		<tag k="ssr:stedsnr" v="984701" />
		<tag k="ssr:type" v="adressenavn" />
	</node>
	<node id="-334682" lat="58.0139165279" lon="7.39726882666">
		<tag k="name" v="Høgåsen" />
		<tag k="ssr:date" v="2019-05-30" />
		<tag k="ssr:gruppe" v="veg" />
		<tag k="ssr:hovedgruppe" v="infrastruktur" />
		<tag k="ssr:stedsnr" v="984699" />
		<tag k="ssr:type" v="adressenavn" />
	</node>
	<node id="-334681" lat="58.0127474283" lon="7.36609113441">
		<tag k="name" v="Hilleneset" />
		<tag k="ssr:date" v="2019-05-30" />
		<tag k="ssr:gruppe" v="veg" />
		<tag k="ssr:hovedgruppe" v="infrastruktur" />
		<tag k="ssr:stedsnr" v="984680" />
		<tag k="ssr:type" v="adressenavn" />
	</node>
	<node id="-334680" lat="58.0167638245" lon="7.42094311747">
		<tag k="name" v="Hekkholmen" />
		<tag k="ssr:date" v="2019-05-30" />
		<tag k="ssr:gruppe" v="veg" />
		<tag k="ssr:hovedgruppe" v="infrastruktur" />
		<tag k="ssr:stedsnr" v="984678" />
		<tag k="ssr:type" v="adressenavn" />
	</node>
	<node id="-334679" lat="57.9968587018" lon="7.5376299015">
		<tag k="name" v="Hegrenesstien" />
		<tag k="ssr:date" v="2019-05-30" />
		<tag k="ssr:gruppe" v="veg" />
		<tag k="ssr:hovedgruppe" v="infrastruktur" />
		<tag k="ssr:stedsnr" v="984675" />
		<tag k="ssr:type" v="adressenavn" />
	</node>
	<node id="-334677" lat="58.0035900252" lon="7.44910666026">
		<tag k="name" v="Hattholmen" />
		<tag k="ssr:date" v="2019-05-30" />
		<tag k="ssr:gruppe" v="veg" />
		<tag k="ssr:hovedgruppe" v="infrastruktur" />
		<tag k="ssr:stedsnr" v="984654" />
		<tag k="ssr:type" v="adressenavn" />
	</node>
	<node id="-334676" lat="58.0310364839" lon="7.43531861035">
		<tag k="name" v="Hangargata" />
		<tag k="ssr:date" v="2019-05-30" />
		<tag k="ssr:gruppe" v="veg" />
		<tag k="ssr:hovedgruppe" v="infrastruktur" />
		<tag k="ssr:stedsnr" v="984652" />
		<tag k="ssr:type" v="adressenavn" />
	</node>
	<node id="-334675" lat="58.0010680681" lon="7.40354558388">
		<tag k="name" v="Gunnlaugsholmen" />
		<tag k="ssr:date" v="2019-05-30" />
		<tag k="ssr:gruppe" v="veg" />
		<tag k="ssr:hovedgruppe" v="infrastruktur" />
		<tag k="ssr:stedsnr" v="984637" />
		<tag k="ssr:type" v="adressenavn" />
	</node>
	<node id="-334672" lat="58.0203179015" lon="7.45538452233">
		<tag k="name" v="Pirhodet" />
		<tag k="ssr:date" v="2018-05-30" />
		<tag k="ssr:gruppe" v="navigasjon" />
		<tag k="ssr:hovedgruppe" v="infrastruktur" />
		<tag k="ssr:stedsnr" v="984571" />
		<tag k="ssr:type" v="lanterne" />
	</node>
	<node id="-334671" lat="58.0158056635" lon="7.63058482538">
		<tag k="name" v="Brødøy" />
		<tag k="ssr:date" v="2019-05-30" />
		<tag k="ssr:gruppe" v="veg" />
		<tag k="ssr:hovedgruppe" v="infrastruktur" />
		<tag k="ssr:stedsnr" v="984521" />
		<tag k="ssr:type" v="adressenavn" />
	</node>
	<node id="-336781" lat="58.0010361127" lon="7.60167221978">
		<tag k="name" v="Skogsøybåen" />
		<tag k="ssr:date" v="2016-05-11" />
		<tag k="ssr:gruppe" v="navigasjon" />
		<tag k="ssr:hovedgruppe" v="infrastruktur" />
		<tag k="ssr:stedsnr" v="753175" />
		<tag k="ssr:type" v="fyrlykt" />
	</node>
	<node id="-334665" lat="58.0080818218" lon="7.42352572788">
		<tag k="name" v="Bringebærholmen" />
		<tag k="ssr:date" v="2019-05-30" />
		<tag k="ssr:gruppe" v="veg" />
		<tag k="ssr:hovedgruppe" v="infrastruktur" />
		<tag k="ssr:stedsnr" v="984493" />
		<tag k="ssr:type" v="adressenavn" />
	</node>
	<node id="-334664" lat="58.0013439095" lon="7.40691757192">
		<tag k="name" v="Brattholmen Steinsøy" />
		<tag k="ssr:date" v="2019-05-30" />
		<tag k="ssr:gruppe" v="veg" />
		<tag k="ssr:hovedgruppe" v="infrastruktur" />
		<tag k="ssr:stedsnr" v="984491" />
		<tag k="ssr:type" v="adressenavn" />
	</node>
	<node id="-334663" lat="58.0023618349" lon="7.52874173745">
		<tag k="name" v="Brattholmen Skjernøy" />
		<tag k="ssr:date" v="2019-05-30" />
		<tag k="ssr:gruppe" v="veg" />
		<tag k="ssr:hovedgruppe" v="infrastruktur" />
		<tag k="ssr:stedsnr" v="984490" />
		<tag k="ssr:type" v="adressenavn" />
	</node>
	<node id="-334662" lat="58.0099529164" lon="7.48662532911">
		<tag k="name" v="Brattholmen Gismerøya" />
		<tag k="ssr:date" v="2019-05-30" />
		<tag k="ssr:gruppe" v="veg" />
		<tag k="ssr:hovedgruppe" v="infrastruktur" />
		<tag k="ssr:stedsnr" v="984489" />
		<tag k="ssr:type" v="adressenavn" />
	</node>
	<node id="-334661" lat="58.0061531035" lon="7.40931011777">
		<tag k="name" v="Bauholmen" />
		<tag k="ssr:date" v="2019-05-30" />
		<tag k="ssr:gruppe" v="veg" />
		<tag k="ssr:hovedgruppe" v="infrastruktur" />
		<tag k="ssr:stedsnr" v="984439" />
		<tag k="ssr:type" v="adressenavn" />
	</node>
	<node id="-334654" lat="57.9687576605" lon="7.49620964063">
		<tag k="loc_name" v="Ryvingen varde" />
		<tag k="name" v="Ryvingen" />
		<tag k="ssr:date" v="2018-05-23" />
		<tag k="ssr:gruppe" v="navigasjon" />
		<tag k="ssr:hovedgruppe" v="infrastruktur" />
		<tag k="ssr:stedsnr" v="984389" />
		<tag k="ssr:type" v="sjøvarde" />
	</node>
	<node id="-337212" lat="58.0089722204" lon="7.56560278324">
		<tag k="name" v="Tregde, Nedre" />
		<tag k="ssr:date" v="2016-05-11" />
		<tag k="ssr:gruppe" v="navigasjon" />
		<tag k="ssr:hovedgruppe" v="infrastruktur" />
		<tag k="ssr:stedsnr" v="905075" />
		<tag k="ssr:type" v="lanterne" />
	</node>
	<node id="-337211" lat="58.0043777763" lon="7.50750555064">
		<tag k="name" v="Skotholmen" />
		<tag k="ssr:date" v="2016-05-11" />
		<tag k="ssr:gruppe" v="navigasjon" />
		<tag k="ssr:hovedgruppe" v="infrastruktur" />
		<tag k="ssr:stedsnr" v="905073" />
		<tag k="ssr:type" v="lanterne" />
	</node>
	<node id="-334648" lat="57.9939733855" lon="7.4041130507">
		<tag k="name" v="Disken varde" />
		<tag k="ssr:date" v="2018-04-10" />
		<tag k="ssr:gruppe" v="navigasjon" />
		<tag k="ssr:hovedgruppe" v="infrastruktur" />
		<tag k="ssr:stedsnr" v="983544" />
		<tag k="ssr:type" v="sjøvarde" />
	</node>
	<node id="-334647" lat="58.0039811626" lon="7.45461107163">
		<tag k="name" v="Bjørneskjer varde" />
		<tag k="ssr:date" v="2018-04-10" />
		<tag k="ssr:gruppe" v="navigasjon" />
		<tag k="ssr:hovedgruppe" v="infrastruktur" />
		<tag k="ssr:stedsnr" v="983536" />
		<tag k="ssr:type" v="sjøvarde" />
	</node>
	<node id="-335154" lat="57.974527781" lon="7.53385554726">
		<tag k="name" v="Ellingsholmen" />
		<tag k="ssr:date" v="2016-05-10" />
		<tag k="ssr:gruppe" v="navigasjon" />
		<tag k="ssr:hovedgruppe" v="infrastruktur" />
		<tag k="ssr:stedsnr" v="105256" />
		<tag k="ssr:type" v="lanterne" />
	</node>
	<node id="-335153" lat="57.9917861138" lon="7.49713611333">
		<tag k="name" v="Madodden" />
		<tag k="ssr:date" v="2016-05-10" />
		<tag k="ssr:gruppe" v="navigasjon" />
		<tag k="ssr:hovedgruppe" v="infrastruktur" />
		<tag k="ssr:stedsnr" v="89064" />
		<tag k="ssr:type" v="fyrlykt" />
	</node>
	<node id="-334636" lat="58.022569444" lon="7.46005277523">
		<tag k="alt_name" v="Malmøy, nedre" />
		<tag k="name" v="Malmø, nedre lanterne" />
		<tag k="ssr:date" v="2016-05-10" />
		<tag k="ssr:gruppe" v="navigasjon" />
		<tag k="ssr:hovedgruppe" v="infrastruktur" />
		<tag k="ssr:stedsnr" v="408234" />
		<tag k="ssr:type" v="lanterne" />
	</node>
	<node id="-336662" lat="58.0018694458" lon="7.56834167341">
		<tag k="name" v="Saltbåene" />
		<tag k="ssr:date" v="2016-05-11" />
		<tag k="ssr:gruppe" v="navigasjon" />
		<tag k="ssr:hovedgruppe" v="infrastruktur" />
		<tag k="ssr:stedsnr" v="723158" />
		<tag k="ssr:type" v="lanterne" />
	</node>
	<node id="-336660" lat="58.0035750029" lon="7.51493333226">
		<tag k="name" v="Skjernøysundodden" />
		<tag k="ssr:date" v="2016-05-11" />
		<tag k="ssr:gruppe" v="navigasjon" />
		<tag k="ssr:hovedgruppe" v="infrastruktur" />
		<tag k="ssr:stedsnr" v="723067" />
		<tag k="ssr:type" v="lanterne" />
	</node>
	<node id="-336080" lat="57.9981500041" lon="7.54382499732">
		<tag k="name" v="Spegelaksen" />
		<tag k="old_name" v="Spekelaksen" />
		<tag k="ssr:date" v="2016-05-10" />
		<tag k="ssr:gruppe" v="navigasjon" />
		<tag k="ssr:hovedgruppe" v="infrastruktur" />
		<tag k="ssr:stedsnr" v="546043" />
		<tag k="ssr:type" v="fyrlykt" />
	</node>
	<node id="-336075" lat="57.9945722256" lon="7.56885277697">
		<tag k="name" v="Landøyholmen" />
		<tag k="ssr:date" v="2016-05-10" />
		<tag k="ssr:gruppe" v="navigasjon" />
		<tag k="ssr:hovedgruppe" v="infrastruktur" />
		<tag k="ssr:stedsnr" v="541067" />
		<tag k="ssr:type" v="lanterne" />
	</node>
	<node id="-336071" lat="57.9953250004" lon="7.5678583346">
		<tag k="name" v="Horsøy" />
		<tag k="ssr:date" v="2016-05-10" />
		<tag k="ssr:gruppe" v="navigasjon" />
		<tag k="ssr:hovedgruppe" v="infrastruktur" />
		<tag k="ssr:stedsnr" v="529222" />
		<tag k="ssr:type" v="lanterne" />
	</node>
	<node id="-334516" lat="58.1003277752" lon="7.49596389416">
		<tag k="name" v="Storkleiva" />
		<tag k="ssr:date" v="2016-05-10" />
		<tag k="ssr:gruppe" v="veg" />
		<tag k="ssr:hovedgruppe" v="infrastruktur" />
		<tag k="ssr:stedsnr" v="388500" />
		<tag k="ssr:type" v="vegstrekning" />
	</node>
	<node id="-335523" lat="57.9925333356" lon="7.50399445086">
		<tag k="name" v="Dyrstadvågen østre molo" />
		<tag k="ssr:date" v="2016-05-10" />
		<tag k="ssr:gruppe" v="navigasjon" />
		<tag k="ssr:hovedgruppe" v="infrastruktur" />
		<tag k="ssr:stedsnr" v="226814" />
		<tag k="ssr:type" v="lanterne" />
	</node>
	<node id="-334485" lat="57.9990138862" lon="7.41954166454">
		<tag k="loc_name" v="Indre Mannevær lykt" />
		<tag k="name" v="Indre Mannevær" />
		<tag k="ssr:date" v="2016-05-10" />
		<tag k="ssr:gruppe" v="navigasjon" />
		<tag k="ssr:hovedgruppe" v="infrastruktur" />
		<tag k="ssr:stedsnr" v="388183" />
		<tag k="ssr:type" v="fyrlykt" />
	</node>
	<node id="-337033" lat="58.026783332" lon="7.35110833028">
		<tag k="name" v="Gjallaråsen" />
		<tag k="ssr:date" v="2016-05-11" />
		<tag k="ssr:gruppe" v="navigasjon" />
		<tag k="ssr:hovedgruppe" v="infrastruktur" />
		<tag k="ssr:stedsnr" v="845241" />
		<tag k="ssr:type" v="fyrlykt" />
	</node>
	<node id="-334698" lat="58.0064457243" lon="7.54641130862">
		<tag k="name" v="Ramsøy Tregde" />
		<tag k="ssr:date" v="2019-05-30" />
		<tag k="ssr:gruppe" v="veg" />
		<tag k="ssr:hovedgruppe" v="infrastruktur" />
		<tag k="ssr:stedsnr" v="984883" />
		<tag k="ssr:type" v="adressenavn" />
	</node>
	<node id="-334457" lat="57.9680861108" lon="7.49158610543">
		<tag k="alt_name" v="Ryvingen fyr" />
		<tag k="name" v="Ryvingen" />
		<tag k="old_name" v="Ryvingen Fyr" />
		<tag k="ssr:date" v="2016-05-10" />
		<tag k="ssr:gruppe" v="navigasjon" />
		<tag k="ssr:hovedgruppe" v="infrastruktur" />
		<tag k="ssr:stedsnr" v="364053" />
		<tag k="ssr:type" v="fyrstasjon" />
	</node>
	<node id="-334964" lat="58.0004916675" lon="7.53416666286">
		<tag k="name" v="Torsteinholmboen" />
		<tag k="ssr:date" v="2016-05-10" />
		<tag k="ssr:gruppe" v="navigasjon" />
		<tag k="ssr:hovedgruppe" v="infrastruktur" />
		<tag k="ssr:stedsnr" v="44246" />
		<tag k="ssr:type" v="lanterne" />
	</node>
	<node id="-334963" lat="58.0029333296" lon="7.49088055901">
		<tag k="name" v="Kalkskjer" />
		<tag k="ssr:date" v="2016-05-10" />
		<tag k="ssr:gruppe" v="navigasjon" />
		<tag k="ssr:hovedgruppe" v="infrastruktur" />
		<tag k="ssr:stedsnr" v="44237" />
		<tag k="ssr:type" v="lanterne" />
	</node>
	<node id="-334442" lat="58.0027416656" lon="7.52906389086">
		<tag k="name" v="Brattholmgrunnen" />
		<tag k="ssr:date" v="2016-05-10" />
		<tag k="ssr:gruppe" v="navigasjon" />
		<tag k="ssr:hovedgruppe" v="infrastruktur" />
		<tag k="ssr:stedsnr" v="347232" />
		<tag k="ssr:type" v="lanterne" />
	</node>
	<node id="-336486" lat="58.0129931897" lon="7.66832427112">
		<tag k="loc_name" v="Tåneskjær lykt" />
		<tag k="name" v="Tåneskjær" />
		<tag k="ssr:date" v="2018-05-02" />
		<tag k="ssr:gruppe" v="navigasjon" />
		<tag k="ssr:hovedgruppe" v="infrastruktur" />
		<tag k="ssr:stedsnr" v="667095" />
		<tag k="ssr:type" v="fyrlykt" />
	</node>
	<node id="-336476" lat="57.9894916671" lon="7.56754999385">
		<tag k="name" v="Kattholmbåen" />
		<tag k="ssr:date" v="2016-05-10" />
		<tag k="ssr:gruppe" v="navigasjon" />
		<tag k="ssr:hovedgruppe" v="infrastruktur" />
		<tag k="ssr:stedsnr" v="662063" />
		<tag k="ssr:type" v="lanterne" />
	</node>
	<node id="-335944" lat="58.1252722266" lon="7.50672778247">
		<tag k="name" v="Stredebrokka" />
		<tag k="ssr:date" v="2016-05-10" />
		<tag k="ssr:gruppe" v="veg" />
		<tag k="ssr:hovedgruppe" v="infrastruktur" />
		<tag k="ssr:stedsnr" v="510511" />
		<tag k="ssr:type" v="vegstrekning" />
	</node>
	<node id="-335925" lat="58.0202722261" lon="7.44834999628">
		<tag k="name" v="Sjøsanden" />
		<tag k="ssr:date" v="2016-05-10" />
		<tag k="ssr:gruppe" v="navigasjon" />
		<tag k="ssr:hovedgruppe" v="infrastruktur" />
		<tag k="ssr:stedsnr" v="510202" />
		<tag k="ssr:type" v="fyrlykt" />
	</node>
	<node id="-337241" lat="58.0263277817" lon="7.45015556382">
		<tag k="alt_name" v="Mandal" />
		<tag k="name" v="Mandal kommune" />
		<tag k="ssr:date" v="2016-05-11" />
		<tag k="ssr:gruppe" v="administrativeIndelinger" />
		<tag k="ssr:hovedgruppe" v="offentligAdministrasjon" />
		<tag k="ssr:stedsnr" v="934142" />
		<tag k="ssr:type" v="kommune" />
	</node>
	<node id="-335362" lat="58.0001888867" lon="7.58091111391">
		<tag k="name" v="Langøy" />
		<tag k="old_name" v="Langøya" />
		<tag k="ssr:date" v="2016-05-10" />
		<tag k="ssr:gruppe" v="navigasjon" />
		<tag k="ssr:hovedgruppe" v="infrastruktur" />
		<tag k="ssr:stedsnr" v="182074" />
		<tag k="ssr:type" v="fyrlykt" />
	</node>
</osm>
