<?xml version="1.0" encoding="UTF-8"?>
<osm generator="osmapis" version="0.6">
	<node id="-157182" lat="59.6572583296" lon="10.0867222281">
		<tag k="name" v="Løkmyrdammen" />
		<tag k="natural" v="water" />
		<tag k="ssr:stedsnr" v="282840" />
	</node>
	<node id="-157175" lat="59.6819972233" lon="10.3064694357">
		<tag k="name" v="Kulpen" />
		<tag k="natural" v="water" />
		<tag k="ssr:stedsnr" v="282225" />
	</node>
	<node id="-157686" lat="59.7217305525" lon="10.1241388879">
		<tag k="name" v="Stordammen" />
		<tag k="natural" v="water" />
		<tag k="ssr:stedsnr" v="185283" />
	</node>
	<node id="-157865" lat="59.6516250037" lon="10.067550005">
		<tag k="alt_name" v="Kalveputt" />
		<tag k="name" v="Kalveputten" />
		<tag k="place" v="locality" />
		<tag k="ssr:stedsnr" v="488117" />
	</node>
	<node id="-158182" lat="59.7094527764" lon="10.1239083362">
		<tag k="name" v="Karusstjern" />
		<tag k="natural" v="water" />
		<tag k="ssr:stedsnr" v="731252" />
	</node>
	<node id="-158173" lat="59.7008750015" lon="10.1123499949">
		<tag k="name" v="Svarterudbekken" />
		<tag k="ssr:stedsnr" v="731161" />
		<tag k="waterway" v="stream" />
	</node>
	<node id="-157658" lat="59.6792361076" lon="10.1778249999">
		<tag k="name" v="Gruhølen" />
		<tag k="place" v="locality" />
		<tag k="ssr:stedsnr" v="163674" />
	</node>
	<node id="-158169" lat="59.6472388888" lon="10.0679250062">
		<tag k="name" v="Svartevannet" />
		<tag k="natural" v="water" />
		<tag k="ssr:stedsnr" v="731149" />
	</node>
	<node id="-158164" lat="59.7565250014" lon="10.2082777783">
		<tag k="name" v="Rytteråsdammen" />
		<tag k="natural" v="water" />
		<tag k="ssr:stedsnr" v="726816" />
	</node>
	<node id="-158151" lat="59.7382305547" lon="10.2308861108">
		<tag k="name" v="Furuholmen" />
		<tag k="natural" v="cape" />
		<tag k="ssr:stedsnr" v="722267" />
	</node>
	<node id="-157638" lat="59.6932472217" lon="10.1616166661">
		<tag k="name" v="Breihølen" />
		<tag k="place" v="locality" />
		<tag k="ssr:stedsnr" v="161547" />
	</node>
	<node id="-158147" lat="59.6767666671" lon="10.2258777721">
		<tag k="name" v="Mælenbekken" />
		<tag k="ssr:stedsnr" v="709731" />
		<tag k="waterway" v="stream" />
	</node>
	<node id="-157628" lat="59.6813694428" lon="10.1345305516">
		<tag k="name" v="Løkkafossen" />
		<tag k="ssr:stedsnr" v="161652" />
		<tag k="waterway" v="rapids" />
	</node>
	<node id="-157625" lat="59.6561027812" lon="10.0217305483">
		<tag k="name" v="Vesle Gravdalstjern" />
		<tag k="natural" v="water" />
		<tag k="ssr:stedsnr" v="146163" />
	</node>
	<node id="-157617" lat="59.7696999981" lon="10.1638527736">
		<tag k="name" v="Landfalltjernet" />
		<tag k="natural" v="water" />
		<tag k="ssr:stedsnr" v="125191" />
	</node>
	<node id="-157610" lat="59.6781124956" lon="10.2963332729">
		<tag k="alt_name" v="Trestikle;Trestikla" />
		<tag k="name" v="Trestiklevannet" />
		<tag k="natural" v="water" />
		<tag k="ssr:stedsnr" v="124184" />
		<tag k="water" v="lake" />
	</node>
	<node id="-157767" lat="59.6601277749" lon="10.0564777849">
		<tag k="name" v="Trytetjern" />
		<tag k="natural" v="water" />
		<tag k="ssr:stedsnr" v="246140" />
	</node>
	<node id="-157608" lat="59.7018555538" lon="10.0868111111">
		<tag k="alt_name" v="Haugsetertjern" />
		<tag k="name" v="Haugsetertjernet" />
		<tag k="natural" v="water" />
		<tag k="ssr:stedsnr" v="124172" />
	</node>
	<node id="-157600" lat="59.7615444426" lon="10.1807944435">
		<tag k="name" v="Halvorsrudbekken" />
		<tag k="ssr:stedsnr" v="119842" />
		<tag k="waterway" v="stream" />
	</node>
	<node id="-158109" lat="59.7494611104" lon="10.1292777801">
		<tag k="name" v="Pålsøya" />
		<tag k="place" v="island" />
		<tag k="ssr:stedsnr" v="690665" />
	</node>
	<node id="-158097" lat="59.7156749963" lon="10.1910805571">
		<tag k="alt_name" v="Austadtjern" />
		<tag k="name" v="Austadtjernet" />
		<tag k="natural" v="water" />
		<tag k="ssr:stedsnr" v="670277" />
	</node>
	<node id="-157353" lat="59.6648611111" lon="10.1127777799">
		<tag k="name" v="Bergevannsbekken" />
		<tag k="ssr:stedsnr" v="406709" />
		<tag k="waterway" v="stream" />
	</node>
	<node id="-158093" lat="59.6577416628" lon="10.0310805576">
		<tag k="alt_name" v="Gravdalstjerna" />
		<tag k="name" v="Gravdalstjern" />
		<tag k="natural" v="water" />
		<tag k="ssr:stedsnr" v="670125" />
	</node>
	<node id="-158090" lat="59.7393249998" lon="10.2221555618">
		<tag k="name" v="Bragernesløpet" />
		<tag k="ssr:stedsnr" v="665865" />
		<tag k="waterway" v="river" />
	</node>
	<node id="-157559" lat="59.6492222256" lon="10.0721277739">
		<tag k="name" v="Svartevannsbekken" />
		<tag k="ssr:stedsnr" v="100829" />
		<tag k="waterway" v="stream" />
	</node>
	<node id="-158066" lat="59.6656527743" lon="10.2147694445">
		<tag k="name" v="Hammersborgfossen" />
		<tag k="natural" v="waterfall" />
		<tag k="ssr:stedsnr" v="648693" />
	</node>
	<node id="-158063" lat="59.7886277797" lon="10.1619388859">
		<tag k="name" v="Brokebekk" />
		<tag k="ssr:stedsnr" v="648208" />
		<tag k="waterway" v="stream" />
	</node>
	<node id="-157547" lat="59.6570833318" lon="10.032122225">
		<tag k="name" v="Svartbekken" />
		<tag k="ssr:stedsnr" v="85140" />
		<tag k="waterway" v="stream" />
	</node>
	<node id="-158055" lat="59.6809472245" lon="10.1552416719">
		<tag k="name" v="Borgedammen" />
		<tag k="natural" v="water" />
		<tag k="ssr:stedsnr" v="646589" />
		<tag k="water" v="lake" />
	</node>
	<node id="-157534" lat="59.6748500007" lon="10.184677778">
		<tag k="name" v="Bremsa" />
		<tag k="ssr:stedsnr" v="64242" />
		<tag k="waterway" v="river" />
	</node>
	<node id="-157527" lat="59.7968499984" lon="10.118075002">
		<tag k="name" v="Goliaten" />
		<tag k="natural" v="water" />
		<tag k="ssr:stedsnr" v="64126" />
	</node>
	<node id="-158038" lat="59.7794500039" lon="10.1536944399">
		<tag k="name" v="Myrseterbekken" />
		<tag k="ssr:stedsnr" v="628655" />
		<tag k="waterway" v="stream" />
	</node>
	<node id="-158031" lat="59.7476166685" lon="10.1245083259">
		<tag k="name" v="Sølfastøya" />
		<tag k="place" v="island" />
		<tag k="ssr:stedsnr" v="609349" />
	</node>
	<node id="-158030" lat="59.7157027757" lon="10.0871250077">
		<tag k="alt_name" v="Steglevann" />
		<tag k="name" v="Steglevannet" />
		<tag k="natural" v="water" />
		<tag k="ssr:stedsnr" v="609278" />
	</node>
	<node id="-158024" lat="59.6751555559" lon="10.1062944373">
		<tag k="alt_name" v="Jonsetertjern" />
		<tag k="name" v="Jonsetertjernet" />
		<tag k="natural" v="water" />
		<tag k="ssr:stedsnr" v="609210" />
	</node>
	<node id="-158021" lat="59.6490999973" lon="10.0782749915">
		<tag k="name" v="Ormetjern" />
		<tag k="natural" v="water" />
		<tag k="ssr:stedsnr" v="609183" />
	</node>
	<node id="-158014" lat="59.7503972186" lon="10.1526916671">
		<tag k="name" v="Musøya" />
		<tag k="natural" v="cape" />
		<tag k="ssr:stedsnr" v="604797" />
	</node>
	<node id="-158003" lat="59.6647777791" lon="10.0522833349">
		<tag k="name" v="Trytetjernkulpen" />
		<tag k="natural" v="water" />
		<tag k="ssr:stedsnr" v="588834" />
		<tag k="water" v="pond" />
	</node>
	<node id="-158002" lat="59.66836111" lon="10.0840638881">
		<tag k="name" v="Grodalsbekken" />
		<tag k="ssr:stedsnr" v="588832" />
		<tag k="waterway" v="stream" />
	</node>
	<node id="-157995" lat="59.7947777762" lon="10.1239472185">
		<tag k="name" v="Det døde hav" />
		<tag k="natural" v="water" />
		<tag k="ssr:stedsnr" v="587194" />
	</node>
	<node id="-157479" lat="59.6854777753" lon="10.0894666626">
		<tag k="name" v="Viktangen" />
		<tag k="natural" v="cape" />
		<tag k="ssr:stedsnr" v="40657" />
	</node>
	<node id="-157477" lat="59.650955552" lon="10.0577388939">
		<tag k="name" v="Ormetjern" />
		<tag k="natural" v="water" />
		<tag k="ssr:stedsnr" v="39834" />
	</node>
	<node id="-157454" lat="59.7351500043" lon="10.1379250087">
		<tag k="name" v="Vannverksdammen" />
		<tag k="ssr:stedsnr" v="22536" />
		<tag k="waterway" v="dam" />
	</node>
	<node id="-157448" lat="59.7114305528" lon="10.0996000076">
		<tag k="alt_name" v="Svartkulp" />
		<tag k="name" v="Svartekulpen" />
		<tag k="natural" v="water" />
		<tag k="ssr:stedsnr" v="3288" />
	</node>
	<node id="-157956" lat="59.8022111119" lon="10.1146222211">
		<tag k="alt_name" v="Tverråsvann" />
		<tag k="loc_name" v="Tverråsvannet" />
		<tag k="name" v="Tverråstjernet" />
		<tag k="natural" v="water" />
		<tag k="ssr:stedsnr" v="610281" />
	</node>
	<node id="-157955" lat="59.7307499961" lon="10.096391672">
		<tag k="name" v="Langmyrdammen" />
		<tag k="natural" v="water" />
		<tag k="ssr:stedsnr" v="549366" />
	</node>
	<node id="-157953" lat="59.7016861153" lon="10.2050027765">
		<tag k="fixme" v="multiple name tags, choose one and add the other to alt_name" />
		<tag k="name" v="Mælsbekken;Vadbekken" />
		<tag k="ssr:stedsnr" v="549306" />
		<tag k="waterway" v="stream" />
	</node>
	<node id="-157440" lat="59.6920638847" lon="10.1627416594">
		<tag k="name" v="Verkenselva" />
		<tag k="ssr:stedsnr" v="3171" />
		<tag k="waterway" v="stream" />
	</node>
	<node id="-157439" lat="59.6881000023" lon="10.1090138806">
		<tag k="name" v="Andorsrudtjern" />
		<tag k="natural" v="water" />
		<tag k="ssr:stedsnr" v="3170" />
	</node>
	<node id="-157438" lat="59.6537388919" lon="10.0812611189">
		<tag k="alt_name" v="Dammyr" />
		<tag k="name" v="Dammyra" />
		<tag k="natural" v="water" />
		<tag k="ssr:stedsnr" v="3117" />
	</node>
	<node id="-157945" lat="59.6798499968" lon="10.0438722178">
		<tag k="name" v="Rønnehutjern" />
		<tag k="natural" v="water" />
		<tag k="ssr:stedsnr" v="549240" />
	</node>
	<node id="-157942" lat="59.6586611075" lon="10.0943972208">
		<tag k="name" v="Vesle Bergvannet" />
		<tag k="natural" v="water" />
		<tag k="ssr:stedsnr" v="549159" />
	</node>
	<node id="-157941" lat="59.6614166699" lon="10.0735833265">
		<tag k="alt_name" v="Brilletjerna" />
		<tag k="name" v="Brillene" />
		<tag k="natural" v="water" />
		<tag k="ssr:stedsnr" v="549158" />
		<tag k="water" v="lake" />
	</node>
	<node id="-157940" lat="59.6720250008" lon="10.2816805598">
		<tag k="name" v="Veslevannet" />
		<tag k="natural" v="water" />
		<tag k="ssr:stedsnr" v="549153" />
	</node>
	<node id="-157937" lat="59.740736107" lon="10.2074750059">
		<tag k="name" v="Drammenselva" />
		<tag k="ssr:stedsnr" v="548370" />
		<tag k="waterway" v="river" />
	</node>
	<node id="-157930" lat="59.7228305527" lon="10.166608339">
		<tag k="name" v="Haddelandsdammen" />
		<tag k="natural" v="water" />
		<tag k="ssr:stedsnr" v="542438" />
	</node>
	<node id="-157927" lat="59.7192055542" lon="10.1335361151">
		<tag k="name" v="Ifferts dam" />
		<tag k="natural" v="water" />
		<tag k="ssr:stedsnr" v="542334" />
	</node>
	<node id="-157401" lat="59.6701044307" lon="10.2877062403">
		<tag k="name" v="Torjevannet" />
		<tag k="natural" v="water" />
		<tag k="ssr:stedsnr" v="792148" />
	</node>
	<node id="-157897" lat="59.7050222178" lon="10.0804333335">
		<tag k="name" v="Ristjern" />
		<tag k="natural" v="water" />
		<tag k="ssr:stedsnr" v="525370" />
	</node>
	<node id="-157384" lat="59.712647221" lon="10.2274944463">
		<tag k="name" v="Engevannsbekken" />
		<tag k="ssr:stedsnr" v="891040" />
		<tag k="waterway" v="stream" />
	</node>
	<node id="-157380" lat="59.675955552" lon="10.293733329">
		<tag k="name" v="Speiderodden" />
		<tag k="natural" v="cape" />
		<tag k="ssr:stedsnr" v="890695" />
	</node>
	<node id="-157379" lat="59.6864138844" lon="10.1001555594">
		<tag k="name" v="Ormetjern" />
		<tag k="natural" v="water" />
		<tag k="ssr:stedsnr" v="890682" />
	</node>
	<node id="-157374" lat="59.6951555544" lon="10.2973527711">
		<tag k="name" v="Olla" />
		<tag k="natural" v="spring" />
		<tag k="ssr:stedsnr" v="889350" />
	</node>
	<node id="-157875" lat="59.7580611129" lon="10.2111083329">
		<tag k="alt_name" v="Kloptjern" />
		<tag k="name" v="Klopptjern" />
		<tag k="natural" v="water" />
		<tag k="ssr:stedsnr" v="489096" />
	</node>
	<node id="-157874" lat="59.7236583375" lon="10.1878833287">
		<tag k="alt_name" v="Blekktjernet;Blektjern" />
		<tag k="name" v="Blekktjern" />
		<tag k="natural" v="water" />
		<tag k="ssr:stedsnr" v="488244" />
	</node>
	<node id="-157871" lat="59.6788666647" lon="10.2214249934">
		<tag k="name" v="Steinsbekken" />
		<tag k="ssr:stedsnr" v="488213" />
		<tag k="waterway" v="stream" />
	</node>
	<node id="-158380" lat="59.6611944417" lon="10.1090361066">
		<tag k="name" v="Bomannsdammen" />
		<tag k="ssr:stedsnr" v="952696" />
		<tag k="waterway" v="dam" />
	</node>
	<node id="-157866" lat="59.6844555547" lon="10.0925249967">
		<tag k="name" v="Majordammen" />
		<tag k="natural" v="water" />
		<tag k="ssr:stedsnr" v="488162" />
	</node>
	<node id="-158377" lat="59.7893916639" lon="10.1120250009">
		<tag k="name" v="Lomtjern" />
		<tag k="natural" v="water" />
		<tag k="ssr:stedsnr" v="952211" />
	</node>
	<node id="-157351" lat="59.6788111107" lon="10.1293666683">
		<tag k="name" v="Sandvadbekken" />
		<tag k="ssr:stedsnr" v="406700" />
		<tag k="waterway" v="stream" />
	</node>
	<node id="-157855" lat="59.7539972249" lon="10.2039861166">
		<tag k="name" v="Flåren" />
		<tag k="natural" v="water" />
		<tag k="ssr:stedsnr" v="483811" />
	</node>
	<node id="-158363" lat="59.7167555517" lon="10.1405111033">
		<tag k="name" v="Hammerdammen" />
		<tag k="natural" v="water" />
		<tag k="ssr:stedsnr" v="950343" />
	</node>
	<node id="-157337" lat="59.683769441" lon="10.0722722178">
		<tag k="name" v="Rønnebubekken" />
		<tag k="ssr:stedsnr" v="404627" />
		<tag k="waterway" v="stream" />
	</node>
	<node id="-158354" lat="59.7863083305" lon="10.132574992">
		<tag k="name" v="Skinka" />
		<tag k="natural" v="water" />
		<tag k="ssr:stedsnr" v="933763" />
	</node>
	<node id="-157805" lat="59.6737499991" lon="10.0657305585">
		<tag k="name" v="Trytetjernbekken" />
		<tag k="ssr:stedsnr" v="428202" />
		<tag k="waterway" v="stream" />
	</node>
	<node id="-157815" lat="59.7765166636" lon="10.1199055608">
		<tag k="name" v="Gamledammen" />
		<tag k="natural" v="water" />
		<tag k="ssr:stedsnr" v="447714" />
	</node>
	<node id="-157302" lat="59.7125459232" lon="10.1220821472">
		<tag k="fixme" v="multiple name tags, choose one and add the other to alt_name" />
		<tag k="name" v="Dalabekken;Kulpebekken" />
		<tag k="ssr:stedsnr" v="367242" />
		<tag k="waterway" v="stream" />
	</node>
	<node id="-158324" lat="59.7623194463" lon="10.1349500034">
		<tag k="alt_name" v="Rolighetsbekken" />
		<tag k="name" v="Bera" />
		<tag k="ssr:stedsnr" v="872896" />
		<tag k="waterway" v="stream" />
	</node>
	<node id="-158322" lat="59.7874749992" lon="10.1383111175">
		<tag k="name" v="Kaffedammen" />
		<tag k="natural" v="water" />
		<tag k="ssr:stedsnr" v="872761" />
	</node>
	<node id="-157296" lat="59.6677388904" lon="10.0526000017">
		<tag k="alt_name" v="Raudekken" />
		<tag k="name" v="Raudbekken" />
		<tag k="ssr:stedsnr" v="367179" />
		<tag k="waterway" v="stream" />
	</node>
	<node id="-157295" lat="59.679011114" lon="10.3111083373">
		<tag k="alt_name" v="Mellomdam" />
		<tag k="name" v="Mellomdammen" />
		<tag k="natural" v="water" />
		<tag k="ssr:stedsnr" v="367175" />
	</node>
	<node id="-157293" lat="59.6419555529" lon="10.036777782">
		<tag k="alt_name" v="Lille Svartetjern" />
		<tag k="name" v="Vesle Svarttjern" />
		<tag k="natural" v="water" />
		<tag k="ssr:stedsnr" v="367142" />
	</node>
	<node id="-157801" lat="59.6655249989" lon="10.0991250057">
		<tag k="name" v="Gravdalsbekken" />
		<tag k="ssr:stedsnr" v="428127" />
		<tag k="waterway" v="stream" />
	</node>
	<node id="-158309" lat="59.6831666695" lon="10.0591111031">
		<tag k="name" v="Korsbekken" />
		<tag k="ssr:stedsnr" v="853215" />
		<tag k="waterway" v="stream" />
	</node>
	<node id="-158307" lat="59.6863999991" lon="10.114711113">
		<tag k="name" v="Løken" />
		<tag k="natural" v="water" />
		<tag k="ssr:stedsnr" v="853165" />
	</node>
	<node id="-158306" lat="59.6598138897" lon="10.1086194459">
		<tag k="alt_name" v="Bergvannet, store" />
		<tag k="name" v="Store Bergvannet" />
		<tag k="natural" v="water" />
		<tag k="ssr:stedsnr" v="853120" />
	</node>
	<node id="-157275" lat="59.7900555517" lon="10.119474991">
		<tag k="name" v="Setertjern" />
		<tag k="natural" v="water" />
		<tag k="ssr:stedsnr" v="345200" />
	</node>
	<node id="-157786" lat="59.71194722" lon="10.1542833266">
		<tag k="name" v="Svendsedammen" />
		<tag k="natural" v="water" />
		<tag k="ssr:stedsnr" v="421310" />
	</node>
	<node id="-157783" lat="59.7895055588" lon="10.1291333292">
		<tag k="name" v="Tjuvtjernbekken" />
		<tag k="ssr:stedsnr" v="265769" />
		<tag k="waterway" v="stream" />
	</node>
	<node id="-157769" lat="59.6807638933" lon="10.3106611078">
		<tag k="alt_name" v="Nedre dam" />
		<tag k="name" v="Nerdammen" />
		<tag k="natural" v="water" />
		<tag k="ssr:stedsnr" v="246223" />
	</node>
	<node id="-157255" lat="59.6615083367" lon="10.0101055508">
		<tag k="name" v="Gravdalsbekken" />
		<tag k="ssr:stedsnr" v="331242" />
		<tag k="waterway" v="stream" />
	</node>
	<node id="-157252" lat="59.7820333333" lon="10.1251999962">
		<tag k="name" v="Spirmyrbekken" />
		<tag k="ssr:stedsnr" v="326734" />
		<tag k="waterway" v="stream" />
	</node>
	<node id="-157760" lat="59.6479916709" lon="10.0901083408">
		<tag k="alt_name" v="Lauvkolltjern" />
		<tag k="name" v="Lauvkolltjernet" />
		<tag k="natural" v="water" />
		<tag k="ssr:stedsnr" v="245171" />
	</node>
	<node id="-157238" lat="59.6456500042" lon="10.046638892">
		<tag k="name" v="Stutauet" />
		<tag k="natural" v="water" />
		<tag k="ssr:stedsnr" v="306162" />
		<tag k="water" v="pond" />
	</node>
	<node id="-158046" lat="59.7337999979" lon="10.2233416725">
		<tag k="name" v="Strømsøløpet" />
		<tag k="natural" v="strait" />
		<tag k="ssr:stedsnr" v="632408" />
	</node>
	<node id="-157230" lat="59.7488805586" lon="10.2136416679">
		<tag k="name" v="Frydenbergdammen" />
		<tag k="natural" v="water" />
		<tag k="ssr:stedsnr" v="301806" />
	</node>
	<node id="-157220" lat="59.7097249995" lon="10.1977027746">
		<tag k="name" v="Rosentjern" />
		<tag k="natural" v="water" />
		<tag k="ssr:stedsnr" v="300349" />
	</node>
	<node id="-158242" lat="59.777475002" lon="10.1444611114">
		<tag k="alt_name" v="Myredammen" />
		<tag k="name" v="Myrdammen" />
		<tag k="natural" v="water" />
		<tag k="ssr:stedsnr" v="793153" />
	</node>
	<node id="-157214" lat="59.674852774" lon="10.1506277763">
		<tag k="name" v="Brattåsbekken" />
		<tag k="ssr:stedsnr" v="285688" />
		<tag k="waterway" v="stream" />
	</node>
	<node id="-158233" lat="59.7927333371" lon="10.1191750046">
		<tag k="name" v="Ytre Langvann" />
		<tag k="natural" v="water" />
		<tag k="ssr:stedsnr" v="787789" />
	</node>
	<node id="-157208" lat="59.7904722228" lon="10.1358111043">
		<tag k="name" v="Olletjern" />
		<tag k="natural" v="water" />
		<tag k="ssr:stedsnr" v="284182" />
	</node>
	<node id="-157713" lat="59.688658332" lon="10.0946499925">
		<tag k="name" v="Øvre Andorsrudtjern" />
		<tag k="natural" v="water" />
		<tag k="ssr:stedsnr" v="222657" />
	</node>
	<node id="-157708" lat="59.694830555" lon="10.1533583365">
		<tag k="name" v="Imjeltbekken" />
		<tag k="ssr:stedsnr" v="222529" />
		<tag k="waterway" v="stream" />
	</node>
	<node id="-157194" lat="59.6826416659" lon="10.1474861079">
		<tag k="name" v="Åserudbekken" />
		<tag k="ssr:stedsnr" v="283691" />
		<tag k="waterway" v="stream" />
	</node>
	<node id="-158217" lat="59.8027305543" lon="10.1317527841">
		<tag k="name" v="Tjuvtjern" />
		<tag k="natural" v="water" />
		<tag k="ssr:stedsnr" v="770036" />
	</node>
	<node id="-158216" lat="59.8087027761" lon="10.1073361024">
		<tag k="name" v="Ormetjern" />
		<tag k="natural" v="water" />
		<tag k="ssr:stedsnr" v="770034" />
	</node>
	<node id="-157189" lat="59.6952222239" lon="10.1465305614">
		<tag k="name" v="Sagbakkelva" />
		<tag k="ssr:stedsnr" v="283559" />
		<tag k="waterway" v="stream" />
	</node>
</osm>
