<?xml version="1.0" encoding="UTF-8"?>
<osm generator="osmapis" version="0.6">
	<node id="-157564" lat="59.6817138854" lon="10.1444166655">
		<tag k="landuse" v="meadow" />
		<tag k="name" v="Utenga" />
		<tag k="ssr:stedsnr" v="101703" />
	</node>
	<node id="-158058" lat="59.6477027819" lon="10.0478972184">
		<tag k="name" v="Høgmyrene" />
		<tag k="natural" v="wetland" />
		<tag k="ssr:stedsnr" v="646838" />
	</node>
	<node id="-157818" lat="59.6492416708" lon="10.0348555482">
		<tag k="name" v="Øvre Briskemyr" />
		<tag k="natural" v="wetland" />
		<tag k="ssr:stedsnr" v="449176" />
	</node>
	<node id="-158071" lat="59.6709722242" lon="10.1499277831">
		<tag k="name" v="Oremyra" />
		<tag k="natural" v="wetland" />
		<tag k="ssr:stedsnr" v="648715" />
	</node>
	<node id="-157557" lat="59.7059250009" lon="10.126030564">
		<tag k="name" v="Delemyr" />
		<tag k="natural" v="wetland" />
		<tag k="ssr:stedsnr" v="100335" />
	</node>
	<node id="-157555" lat="59.7060750016" lon="10.1396861155">
		<tag k="name" v="Svensrudmoen" />
		<tag k="place" v="locality" />
		<tag k="ssr:stedsnr" v="100327" />
	</node>
	<node id="-157297" lat="59.6681888894" lon="10.0693888968">
		<tag k="alt_name" v="Stormyr" />
		<tag k="name" v="Stormyra" />
		<tag k="natural" v="wetland" />
		<tag k="ssr:stedsnr" v="367182" />
	</node>
	<node id="-157736" lat="59.6786861139" lon="10.0853916651">
		<tag k="name" v="Gårdbuskogen" />
		<tag k="place" v="locality" />
		<tag k="ssr:stedsnr" v="224796" />
	</node>
	<node id="-158190" lat="59.7237333355" lon="10.1285000088">
		<tag k="name" v="Fredli" />
		<tag k="place" v="locality" />
		<tag k="ssr:stedsnr" v="750508" />
	</node>
	<node id="-158189" lat="59.7309444448" lon="10.1142277783">
		<tag k="name" v="Sørvollen" />
		<tag k="place" v="locality" />
		<tag k="ssr:stedsnr" v="750497" />
	</node>
	<node id="-157291" lat="59.7653666671" lon="10.1831361172">
		<tag k="name" v="Brunesmyra" />
		<tag k="natural" v="wetland" />
		<tag k="ssr:stedsnr" v="362815" />
	</node>
	<node id="-157674" lat="59.7096527734" lon="10.2441083244">
		<tag k="name" v="Solumhavna" />
		<tag k="place" v="locality" />
		<tag k="ssr:stedsnr" v="178442" />
	</node>
	<node id="-157929" lat="59.7117944427" lon="10.1764444523">
		<tag k="name" v="Haremyra" />
		<tag k="natural" v="wetland" />
		<tag k="ssr:stedsnr" v="542429" />
	</node>
	<node id="-157885" lat="59.7551099316" lon="10.1879194849">
		<tag k="name" v="Hamborgstrømskogen" />
		<tag k="place" v="locality" />
		<tag k="ssr:stedsnr" v="509477" />
	</node>
	<node id="-157925" lat="59.7023611141" lon="10.1769861125">
		<tag k="name" v="Sagstykket" />
		<tag k="place" v="locality" />
		<tag k="ssr:stedsnr" v="542321" />
	</node>
	<node id="-157665" lat="59.6798416635" lon="10.0837972169">
		<tag k="name" v="Smalmyr" />
		<tag k="natural" v="wetland" />
		<tag k="ssr:stedsnr" v="163701" />
	</node>
	<node id="-158176" lat="59.6674277759" lon="10.1568472297">
		<tag k="name" v="Vassmyra" />
		<tag k="natural" v="wetland" />
		<tag k="ssr:stedsnr" v="731181" />
	</node>
	<node id="-158175" lat="59.6686222247" lon="10.1708138922">
		<tag k="name" v="Fuglemyra" />
		<tag k="natural" v="wetland" />
		<tag k="ssr:stedsnr" v="731179" />
	</node>
	<node id="-157662" lat="59.6786833291" lon="10.1400166739">
		<tag k="name" v="Kjerringmyra" />
		<tag k="natural" v="wetland" />
		<tag k="ssr:stedsnr" v="163692" />
	</node>
	<node id="-157661" lat="59.6756166697" lon="10.1373194482">
		<tag k="name" v="Stormyra" />
		<tag k="natural" v="wetland" />
		<tag k="ssr:stedsnr" v="163691" />
	</node>
	<node id="-157276" lat="59.7702916652" lon="10.1737305481">
		<tag k="name" v="Svartormyra" />
		<tag k="natural" v="wetland" />
		<tag k="ssr:stedsnr" v="345206" />
	</node>
	<node id="-157605" lat="59.652458332" lon="10.0544805614">
		<tag k="alt_name" v="Stakamyr" />
		<tag k="name" v="Stakamyrane" />
		<tag k="natural" v="wetland" />
		<tag k="ssr:stedsnr" v="124113" />
	</node>
	<node id="-157784" lat="59.6514111114" lon="10.0339611145">
		<tag k="name" v="Nedre Briskemyr" />
		<tag k="natural" v="wetland" />
		<tag k="ssr:stedsnr" v="267140" />
	</node>
	<node id="-158166" lat="59.7506055573" lon="10.2133833366">
		<tag k="landuse" v="meadow" />
		<tag k="name" v="Dalejordet" />
		<tag k="ssr:stedsnr" v="726822" />
	</node>
	<node id="-157397" lat="59.6750916644" lon="10.0781916743">
		<tag k="name" v="Furumyr" />
		<tag k="natural" v="wetland" />
		<tag k="ssr:stedsnr" v="892774" />
	</node>
	<node id="-157652" lat="59.7802138852" lon="10.1566749955">
		<tag k="historic" v="shieling" />
		<tag k="name" v="Myrsetervollen" />
		<tag k="place" v="locality" />
		<tag k="ssr:stedsnr" v="163132" />
	</node>
	<node id="-158157" lat="59.7141333322" lon="10.1998861187">
		<tag k="name" v="Persmyra" />
		<tag k="natural" v="wetland" />
		<tag k="ssr:stedsnr" v="725405" />
	</node>
	<node id="-157643" lat="59.7259083375" lon="10.2403027762">
		<tag k="landuse" v="meadow" />
		<tag k="name" v="Myra" />
		<tag k="ssr:stedsnr" v="161954" />
	</node>
	<node id="-157508" lat="59.674613892" lon="10.086061118">
		<tag k="name" v="Fløyelsmyr" />
		<tag k="natural" v="wetland" />
		<tag k="ssr:stedsnr" v="42771" />
	</node>
	<node id="-158272" lat="59.64930833" lon="10.0846027755">
		<tag k="name" v="Helliksmyra" />
		<tag k="natural" v="wetland" />
		<tag k="ssr:stedsnr" v="829862" />
	</node>
	<node id="-158368" lat="59.6974388887" lon="10.1122249926">
		<tag k="name" v="Stormyra" />
		<tag k="natural" v="wetland" />
		<tag k="ssr:stedsnr" v="950576" />
	</node>
	<node id="-158269" lat="59.6876916648" lon="10.0900722155">
		<tag k="name" v="Musemyra" />
		<tag k="natural" v="wetland" />
		<tag k="ssr:stedsnr" v="829656" />
	</node>
	<node id="-157756" lat="59.7347111068" lon="10.1243666645">
		<tag k="landuse" v="quarry" />
		<tag k="name" v="Kontaktstollen" />
		<tag k="ssr:stedsnr" v="241814" />
	</node>
	<node id="-157627" lat="59.6830138905" lon="10.0680027775">
		<tag k="name" v="Setermyr" />
		<tag k="natural" v="wetland" />
		<tag k="ssr:stedsnr" v="161617" />
	</node>
	<node id="-157497" lat="59.7215500007" lon="10.2427194511">
		<tag k="name" v="Dagslett" />
		<tag k="place" v="locality" />
		<tag k="ssr:stedsnr" v="41050" />
	</node>
	<node id="-157750" lat="59.7507944488" lon="10.1988500082">
		<tag k="name" v="Huldrehagan" />
		<tag k="place" v="locality" />
		<tag k="ssr:stedsnr" v="241754" />
	</node>
	<node id="-157365" lat="59.6893083345" lon="10.281886105">
		<tag k="name" v="Piltingsmyr" />
		<tag k="natural" v="wetland" />
		<tag k="ssr:stedsnr" v="889265" />
	</node>
	<node id="-157939" lat="59.6548499973" lon="10.097447224">
		<tag k="name" v="Løkemyra" />
		<tag k="natural" v="wetland" />
		<tag k="ssr:stedsnr" v="549143" />
	</node>
	<node id="-158128" lat="59.7193333305" lon="10.0884333279">
		<tag k="name" v="Ellingmyr" />
		<tag k="natural" v="wetland" />
		<tag k="ssr:stedsnr" v="707372" />
	</node>
	<node id="-157742" lat="59.702380555" lon="10.1626972221">
		<tag k="name" v="Skallstadskogen" />
		<tag k="place" v="locality" />
		<tag k="ssr:stedsnr" v="239318" />
	</node>
	<node id="-157739" lat="59.7080111096" lon="10.1727749983">
		<tag k="name" v="Bymyra" />
		<tag k="natural" v="wetland" />
		<tag k="ssr:stedsnr" v="239312" />
	</node>
	<node id="-158378" lat="59.7947166705" lon="10.1507638939">
		<tag k="name" v="Krestoffermyra" />
		<tag k="natural" v="wetland" />
		<tag k="ssr:stedsnr" v="952215" />
	</node>
	<node id="-157737" lat="59.6786916657" lon="10.0782361101">
		<tag k="name" v="Stormyr" />
		<tag k="natural" v="wetland" />
		<tag k="ssr:stedsnr" v="224798" />
	</node>
	<node id="-157352" lat="59.6765555594" lon="10.094291674">
		<tag k="name" v="Faksåsmyrene" />
		<tag k="natural" v="wetland" />
		<tag k="ssr:stedsnr" v="406702" />
	</node>
	<node id="-158373" lat="59.6864111115" lon="10.1069027829">
		<tag k="name" v="Migemyr" />
		<tag k="natural" v="wetland" />
		<tag k="ssr:stedsnr" v="950673" />
	</node>
	<node id="-158241" lat="59.7171750031" lon="10.1705361039">
		<tag k="name" v="Gråstein" />
		<tag k="natural" v="stone" />
		<tag k="ssr:stedsnr" v="792275" />
	</node>
	<node id="-157216" lat="59.6749055516" lon="10.0546416597">
		<tag k="name" v="Sekkemyr" />
		<tag k="natural" v="wetland" />
		<tag k="ssr:stedsnr" v="285806" />
	</node>
	<node id="-157854" lat="59.7153444443" lon="10.1691916593">
		<tag k="name" v="Vollemyra" />
		<tag k="natural" v="wetland" />
		<tag k="ssr:stedsnr" v="482435" />
	</node>
	<node id="-157852" lat="59.7070388853" lon="10.1799916633">
		<tag k="name" v="Sildemyra" />
		<tag k="natural" v="wetland" />
		<tag k="ssr:stedsnr" v="482336" />
	</node>
	<node id="-157978" lat="59.6956777757" lon="10.188211119">
		<tag k="name" v="Krøttermyra" />
		<tag k="natural" v="wetland" />
		<tag k="ssr:stedsnr" v="586584" />
	</node>
	<node id="-157338" lat="59.6957944453" lon="10.0867277739">
		<tag k="name" v="Hestmyra" />
		<tag k="natural" v="wetland" />
		<tag k="ssr:stedsnr" v="404634" />
	</node>
	<node id="-157848" lat="59.672672222" lon="10.0455166743">
		<tag k="name" v="Haukelimyr" />
		<tag k="natural" v="wetland" />
		<tag k="ssr:stedsnr" v="467817" />
	</node>
	<node id="-157591" lat="59.7541722227" lon="10.1826333378">
		<tag k="name" v="Neperudjordet" />
		<tag k="place" v="locality" />
		<tag k="ssr:stedsnr" v="119788" />
	</node>
	<node id="-158102" lat="59.7792499971" lon="10.1325694509">
		<tag k="name" v="Langemyr" />
		<tag k="natural" v="wetland" />
		<tag k="ssr:stedsnr" v="671149" />
	</node>
	<node id="-157459" lat="59.7836166707" lon="10.1249805544">
		<tag k="name" v="Spirmyr" />
		<tag k="natural" v="wetland" />
		<tag k="ssr:stedsnr" v="22722" />
	</node>
	<node id="-157714" lat="59.6533666688" lon="10.0617916681">
		<tag k="name" v="Korsmyr" />
		<tag k="natural" v="wetland" />
		<tag k="ssr:stedsnr" v="222845" />
	</node>
	<node id="-157989" lat="59.7085138857" lon="10.215413885">
		<tag k="name" v="Postmyrene" />
		<tag k="natural" v="wetland" />
		<tag k="ssr:stedsnr" v="587032" />
	</node>
	<node id="-157336" lat="59.6952972204" lon="10.2033527846">
		<tag k="name" v="Lajordet" />
		<tag k="place" v="locality" />
		<tag k="ssr:stedsnr" v="404563" />
	</node>
	<node id="-157326" lat="59.6542249981" lon="10.0712055594">
		<tag k="name" v="Folabakkmyr" />
		<tag k="natural" v="wetland" />
		<tag k="ssr:stedsnr" v="403859" />
	</node>
	<node id="-158220" lat="59.7210888848" lon="10.2466666624">
		<tag k="name" v="Elimyrene" />
		<tag k="natural" v="wetland" />
		<tag k="ssr:stedsnr" v="770059" />
	</node>
	<node id="-158091" lat="59.7241305574" lon="10.2306694413">
		<tag k="landuse" v="meadow" />
		<tag k="name" v="Gustavs jorde" />
		<tag k="ssr:stedsnr" v="665871" />
	</node>
	<node id="-157191" lat="59.6803777804" lon="10.0787166709">
		<tag k="name" v="Gårbuskogen" />
		<tag k="place" v="locality" />
		<tag k="ssr:stedsnr" v="283618" />
	</node>
	<node id="-158261" lat="59.722427775" lon="10.0846750038">
		<tag k="name" v="Damstykket" />
		<tag k="place" v="locality" />
		<tag k="ssr:stedsnr" v="829357" />
	</node>
	<node id="-158232" lat="59.7617055575" lon="10.1749249933">
		<tag k="name" v="Sparavollen" />
		<tag k="place" v="locality" />
		<tag k="ssr:stedsnr" v="787786" />
	</node>
</osm>
