<?xml version="1.0" encoding="UTF-8"?>
<osm generator="osmapis" version="0.6">
	<node id="-158203" lat="59.777697226" lon="10.12382778">
		<tag k="fixme" v="consider natural=peak for the most distinct mountains in the district" />
		<tag k="name" v="Spellverpåsen" />
		<tag k="natural" v="hill" />
		<tag k="place" v="locality" />
		<tag k="ssr:stedsnr" v="690763" />
	</node>
	<node id="-157690" lat="59.7650583312" lon="10.1673500023">
		<tag k="name" v="Gamlebakken" />
		<tag k="natural" v="slope" />
		<tag k="place" v="locality" />
		<tag k="ssr:stedsnr" v="119839" />
	</node>
	<node id="-157689" lat="59.7604388931" lon="10.195938894">
		<tag k="fixme" v="consider natural=peak for the most distinct mountains in the district" />
		<tag k="name" v="Risåsen" />
		<tag k="natural" v="hill" />
		<tag k="place" v="locality" />
		<tag k="ssr:stedsnr" v="119835" />
	</node>
	<node id="-158200" lat="59.7633000035" lon="10.1403749959">
		<tag k="name" v="Ramfløya" />
		<tag k="natural" v="slope" />
		<tag k="place" v="locality" />
		<tag k="ssr:stedsnr" v="690656" />
	</node>
	<node id="-158350" lat="59.6851527802" lon="10.2146944385">
		<tag k="name" v="Steinsdalen" />
		<tag k="natural" v="valley" />
		<tag k="place" v="locality" />
		<tag k="ssr:stedsnr" v="829306" />
	</node>
	<node id="-158191" lat="59.7163388909" lon="10.119891671">
		<tag k="fixme" v="consider natural=peak for the most distinct mountains in the district" />
		<tag k="name" v="Damåsen" />
		<tag k="natural" v="hill" />
		<tag k="place" v="locality" />
		<tag k="ssr:stedsnr" v="670290" />
	</node>
	<node id="-157678" lat="59.7059361081" lon="10.1879527717">
		<tag k="name" v="Suselia" />
		<tag k="natural" v="slope" />
		<tag k="place" v="locality" />
		<tag k="ssr:stedsnr" v="118319" />
	</node>
	<node id="-157669" lat="59.6615277741" lon="10.09390834">
		<tag k="fixme" v="consider natural=peak for the most distinct mountains in the district" />
		<tag k="name" v="Vesle Bergevannsbrenna" />
		<tag k="natural" v="hill" />
		<tag k="place" v="locality" />
		<tag k="ssr:stedsnr" v="103698" />
	</node>
	<node id="-157668" lat="59.6716916693" lon="10.0973638835">
		<tag k="name" v="Bjønnkløfta" />
		<tag k="natural" v="gorge" />
		<tag k="ssr:stedsnr" v="103686" />
	</node>
	<node id="-158459" lat="59.6959361072" lon="10.1177888817">
		<tag k="name" v="Siljukollen" />
		<tag k="natural" v="hill" />
		<tag k="place" v="locality" />
		<tag k="ssr:stedsnr" v="950570" />
	</node>
	<node id="-158176" lat="59.7187527753" lon="10.1717111121">
		<tag k="name" v="Solåsen" />
		<tag k="natural" v="ridge" />
		<tag k="place" v="locality" />
		<tag k="ssr:stedsnr" v="664426" />
	</node>
	<node id="-158172" lat="59.7065166707" lon="10.1942805511">
		<tag k="name" v="Mørkedalen" />
		<tag k="natural" v="valley" />
		<tag k="place" v="locality" />
		<tag k="ssr:stedsnr" v="664313" />
	</node>
	<node id="-158171" lat="59.7057388899" lon="10.175005556">
		<tag k="name" v="Møkkahaugen" />
		<tag k="natural" v="hill" />
		<tag k="place" v="locality" />
		<tag k="ssr:stedsnr" v="664310" />
	</node>
	<node id="-158169" lat="59.7291722191" lon="10.1773944441">
		<tag k="fixme" v="consider natural=peak for the most distinct mountains in the district" />
		<tag k="name" v="Strømsåsen" />
		<tag k="natural" v="hill" />
		<tag k="place" v="locality" />
		<tag k="ssr:stedsnr" v="658252" />
	</node>
	<node id="-158372" lat="59.6720333342" lon="10.0886222163">
		<tag k="name" v="Grodalslia" />
		<tag k="natural" v="slope" />
		<tag k="place" v="locality" />
		<tag k="ssr:stedsnr" v="831752" />
	</node>
	<node id="-158166" lat="59.6700861085" lon="10.0521638896">
		<tag k="name" v="Terjevollia" />
		<tag k="natural" v="slope" />
		<tag k="place" v="locality" />
		<tag k="ssr:stedsnr" v="648784" />
	</node>
	<node id="-158161" lat="59.6768222203" lon="10.1182888863">
		<tag k="name" v="Hesteveltene" />
		<tag k="place" v="locality" />
		<tag k="ssr:stedsnr" v="648704" />
	</node>
	<node id="-158154" lat="59.7191472196" lon="10.2327277732">
		<tag k="name" v="Olamannshaug" />
		<tag k="natural" v="hill" />
		<tag k="place" v="locality" />
		<tag k="ssr:stedsnr" v="648071" />
	</node>
	<node id="-157637" lat="59.7743194438" lon="10.1127138926">
		<tag k="name" v="Hestliåsen" />
		<tag k="natural" v="slope" />
		<tag k="place" v="locality" />
		<tag k="ssr:stedsnr" v="83744" />
	</node>
	<node id="-157633" lat="59.7297722241" lon="10.1169138938">
		<tag k="name" v="Bilitt" />
		<tag k="natural" v="slope" />
		<tag k="place" v="locality" />
		<tag k="ssr:stedsnr" v="83504" />
	</node>
	<node id="-157630" lat="59.7077861122" lon="10.193930559">
		<tag k="fixme" v="consider natural=peak for the most distinct mountains in the district" />
		<tag k="name" v="Risdalsåsen" />
		<tag k="natural" v="hill" />
		<tag k="place" v="locality" />
		<tag k="ssr:stedsnr" v="64307" />
	</node>
	<node id="-157629" lat="59.7099999956" lon="10.1091500068">
		<tag k="name" v="Grimsrudbrenna" />
		<tag k="natural" v="hill" />
		<tag k="place" v="locality" />
		<tag k="ssr:stedsnr" v="64305" />
	</node>
	<node id="-157628" lat="59.7042000021" lon="10.2168166623">
		<tag k="fixme" v="consider natural=peak for the most distinct mountains in the district" />
		<tag k="name" v="Gjerpenåsen" />
		<tag k="natural" v="hill" />
		<tag k="place" v="locality" />
		<tag k="ssr:stedsnr" v="64302" />
	</node>
	<node id="-157623" lat="59.6711500041" lon="10.126102782">
		<tag k="fixme" v="consider natural=peak for the most distinct mountains in the district" />
		<tag k="name" v="Slåttsmyråsen" />
		<tag k="natural" v="hill" />
		<tag k="old_name" v="Slåsmyråsen;Slotsmyraas;Sletmyråsen" />
		<tag k="place" v="locality" />
		<tag k="ssr:stedsnr" v="64222" />
	</node>
	<node id="-157620" lat="59.6610972239" lon="10.0476222196">
		<tag k="fixme" v="consider natural=peak for the most distinct mountains in the district" />
		<tag k="name" v="Trytetjernåsen" />
		<tag k="natural" v="hill" />
		<tag k="place" v="locality" />
		<tag k="ssr:stedsnr" v="64137" />
	</node>
	<node id="-158127" lat="59.8001250004" lon="10.1260944365">
		<tag k="fixme" v="consider natural=peak for the most distinct mountains in the district" />
		<tag k="name" v="Tverråsen" />
		<tag k="natural" v="hill" />
		<tag k="place" v="locality" />
		<tag k="ssr:stedsnr" v="610153" />
	</node>
	<node id="-157613" lat="59.7636444486" lon="10.1708277792">
		<tag k="fixme" v="consider natural=peak for the most distinct mountains in the district" />
		<tag k="name" v="Grubeåsen" />
		<tag k="natural" v="hill" />
		<tag k="place" v="locality" />
		<tag k="ssr:stedsnr" v="59796" />
	</node>
	<node id="-157608" lat="59.7607194428" lon="10.1847888862">
		<tag k="name" v="Kudalen" />
		<tag k="natural" v="valley" />
		<tag k="place" v="locality" />
		<tag k="ssr:stedsnr" v="59732" />
	</node>
	<node id="-157607" lat="59.7574611148" lon="10.1915611162">
		<tag k="name" v="Raubakkene" />
		<tag k="natural" v="slope" />
		<tag k="place" v="locality" />
		<tag k="ssr:stedsnr" v="59731" />
	</node>
	<node id="-157853" lat="59.6960888897" lon="10.1043749958">
		<tag k="name" v="Hengefossdalen" />
		<tag k="natural" v="valley" />
		<tag k="place" v="locality" />
		<tag k="ssr:stedsnr" v="245196" />
	</node>
	<node id="-158111" lat="59.7629833362" lon="10.1684361132">
		<tag k="name" v="Blåsteinbakkene" />
		<tag k="natural" v="slope" />
		<tag k="place" v="locality" />
		<tag k="ssr:stedsnr" v="604831" />
	</node>
	<node id="-157592" lat="59.7159750032" lon="10.2404694377">
		<tag k="name" v="Leavind" />
		<tag k="natural" v="valley" />
		<tag k="place" v="locality" />
		<tag k="ssr:stedsnr" v="41063" />
	</node>
	<node id="-157591" lat="59.7057361114" lon="10.2788166635">
		<tag k="name" v="Rævaberget" />
		<tag k="natural" v="cliff" />
		<tag k="ssr:stedsnr" v="41056" />
	</node>
	<node id="-157590" lat="59.7212055533" lon="10.2342777775">
		<tag k="name" v="Korpeberget" />
		<tag k="natural" v="hill" />
		<tag k="place" v="locality" />
		<tag k="ssr:stedsnr" v="41052" />
	</node>
	<node id="-158101" lat="59.7225111146" lon="10.0995250054">
		<tag k="name" v="Grindebrenna" />
		<tag k="natural" v="hill" />
		<tag k="place" v="locality" />
		<tag k="ssr:stedsnr" v="603324" />
	</node>
	<node id="-157582" lat="59.6885666632" lon="10.1174555541">
		<tag k="name" v="Åsstubånnane" />
		<tag k="natural" v="ridge" />
		<tag k="place" v="locality" />
		<tag k="ssr:stedsnr" v="40700" />
	</node>
	<node id="-158093" lat="59.671488888" lon="10.0826222227">
		<tag k="name" v="Ner-Høgås" />
		<tag k="natural" v="hill" />
		<tag k="place" v="locality" />
		<tag k="ssr:stedsnr" v="588817" />
	</node>
	<node id="-158092" lat="59.6750722207" lon="10.1696166654">
		<tag k="name" v="Viulsrudlia" />
		<tag k="natural" v="slope" />
		<tag k="place" v="locality" />
		<tag k="ssr:stedsnr" v="588713" />
	</node>
	<node id="-158086" lat="59.7945611143" lon="10.1323666717">
		<tag k="name" v="Tverråsjuvet" />
		<tag k="natural" v="gorge" />
		<tag k="ssr:stedsnr" v="587192" />
	</node>
	<node id="-157570" lat="59.694280557" lon="10.1161888919">
		<tag k="name" v="Rollesletta" />
		<tag k="place" v="locality" />
		<tag k="ssr:stedsnr" v="40609" />
	</node>
	<node id="-158080" lat="59.7070750013" lon="10.2760250076">
		<tag k="name" v="Gråmerra" />
		<tag k="place" v="locality" />
		<tag k="ssr:stedsnr" v="587011" />
	</node>
	<node id="-157567" lat="59.7122888928" lon="10.1169138978">
		<tag k="name" v="Kolleruddalen" />
		<tag k="natural" v="valley" />
		<tag k="place" v="locality" />
		<tag k="ssr:stedsnr" v="39296" />
	</node>
	<node id="-158075" lat="59.6815194421" lon="10.055152778">
		<tag k="name" v="Skulkerudbakkene" />
		<tag k="natural" v="slope" />
		<tag k="place" v="locality" />
		<tag k="ssr:stedsnr" v="586637" />
	</node>
	<node id="-157759" lat="59.6725472252" lon="10.0510527755">
		<tag k="fixme" v="consider natural=peak for the most distinct mountains in the district" />
		<tag k="name" v="Rønnehuåsen" />
		<tag k="natural" v="hill" />
		<tag k="place" v="locality" />
		<tag k="ssr:stedsnr" v="163797" />
	</node>
	<node id="-157844" lat="59.7648500032" lon="10.1644944374">
		<tag k="name" v="Mysmerkleiva" />
		<tag k="natural" v="slope" />
		<tag k="place" v="locality" />
		<tag k="ssr:stedsnr" v="241785" />
	</node>
	<node id="-157555" lat="59.6854722232" lon="10.2976361191">
		<tag k="name" v="Bjønnehølet" />
		<tag k="natural" v="valley" />
		<tag k="place" v="locality" />
		<tag k="ssr:stedsnr" v="39198" />
	</node>
	<node id="-157552" lat="59.7676138862" lon="10.1399305632">
		<tag k="fixme" v="consider natural=peak for the most distinct mountains in the district" />
		<tag k="name" v="Kaståsen" />
		<tag k="natural" v="hill" />
		<tag k="place" v="locality" />
		<tag k="ssr:stedsnr" v="22734" />
	</node>
	<node id="-158060" lat="59.6877333369" lon="10.3023055494">
		<tag k="name" v="Jon Madsens dal" />
		<tag k="natural" v="valley" />
		<tag k="place" v="locality" />
		<tag k="ssr:stedsnr" v="585225" />
	</node>
	<node id="-157543" lat="59.7770000043" lon="10.1322805507">
		<tag k="name" v="Klemmehøgda" />
		<tag k="natural" v="hill" />
		<tag k="place" v="locality" />
		<tag k="ssr:stedsnr" v="4153" />
	</node>
	<node id="-157542" lat="59.7863999973" lon="10.1552250064">
		<tag k="name" v="Pintleiken" />
		<tag k="natural" v="hill" />
		<tag k="place" v="locality" />
		<tag k="ssr:stedsnr" v="4130" />
	</node>
	<node id="-157535" lat="59.6717527744" lon="10.0934888833">
		<tag k="name" v="Grodalen" />
		<tag k="natural" v="valley" />
		<tag k="place" v="locality" />
		<tag k="ssr:stedsnr" v="3200" />
	</node>
	<node id="-157534" lat="59.8091999993" lon="10.1048749928">
		<tag k="name" v="Måneskinsheia" />
		<tag k="natural" v="hill" />
		<tag k="place" v="locality" />
		<tag k="ssr:stedsnr" v="3191" />
	</node>
	<node id="-157529" lat="59.7556749994" lon="10.2046500071">
		<tag k="fixme" v="consider natural=peak for the most distinct mountains in the district" />
		<tag k="name" v="Bragernesåsen" />
		<tag k="natural" v="hill" />
		<tag k="place" v="locality" />
		<tag k="ssr:stedsnr" v="3078" />
	</node>
	<node id="-158036" lat="59.6864916685" lon="10.2900138974">
		<tag k="fixme" v="consider natural=peak for the most distinct mountains in the district" />
		<tag k="name" v="Vardåsen" />
		<tag k="natural" v="hill" />
		<tag k="place" v="locality" />
		<tag k="ssr:stedsnr" v="549239" />
	</node>
	<node id="-157326" lat="59.7166055583" lon="10.1980499993">
		<tag k="name" v="Austadmarka" />
		<tag k="natural" v="slope" />
		<tag k="place" v="locality" />
		<tag k="ssr:stedsnr" v="306267" />
	</node>
	<node id="-158025" lat="59.7577444474" lon="10.2066305593">
		<tag k="name" v="Rytteråsen" />
		<tag k="natural" v="hill" />
		<tag k="place" v="locality" />
		<tag k="ssr:stedsnr" v="544792" />
	</node>
	<node id="-158023" lat="59.7629111082" lon="10.1836722211">
		<tag k="fixme" v="consider natural=peak for the most distinct mountains in the district" />
		<tag k="name" v="Bringebærkollen" />
		<tag k="natural" v="hill" />
		<tag k="place" v="locality" />
		<tag k="ssr:stedsnr" v="544761" />
	</node>
	<node id="-158015" lat="59.6755694401" lon="10.0457666642">
		<tag k="name" v="Askedalen" />
		<tag k="natural" v="valley" />
		<tag k="place" v="locality" />
		<tag k="ssr:stedsnr" v="527797" />
	</node>
	<node id="-158013" lat="59.674175004" lon="10.1655388839">
		<tag k="name" v="Hovdalen" />
		<tag k="natural" v="valley" />
		<tag k="place" v="locality" />
		<tag k="ssr:stedsnr" v="527719" />
	</node>
	<node id="-158012" lat="59.6702472205" lon="10.0577083279">
		<tag k="name" v="Terjevollflåa" />
		<tag k="place" v="locality" />
		<tag k="ssr:stedsnr" v="527716" />
	</node>
	<node id="-158011" lat="59.6747694468" lon="10.1449444445">
		<tag k="name" v="Almedalen" />
		<tag k="natural" v="valley" />
		<tag k="place" v="locality" />
		<tag k="ssr:stedsnr" v="527713" />
	</node>
	<node id="-157993" lat="59.6801444431" lon="10.2749638829">
		<tag k="name" v="Bakkedalen" />
		<tag k="natural" v="valley" />
		<tag k="place" v="locality" />
		<tag k="ssr:stedsnr" v="525630" />
	</node>
	<node id="-157480" lat="59.6682333373" lon="10.0756999994">
		<tag k="name" v="Gampedalen" />
		<tag k="natural" v="valley" />
		<tag k="place" v="locality" />
		<tag k="ssr:stedsnr" v="892797" />
	</node>
	<node id="-157479" lat="59.6655666641" lon="10.0680333365">
		<tag k="name" v="Stormyrdalen" />
		<tag k="natural" v="valley" />
		<tag k="place" v="locality" />
		<tag k="ssr:stedsnr" v="892798" />
	</node>
	<node id="-157745" lat="59.7686055538" lon="10.1705722214">
		<tag k="fixme" v="consider natural=peak for the most distinct mountains in the district" />
		<tag k="name" v="Høgsten" />
		<tag k="natural" v="hill" />
		<tag k="place" v="locality" />
		<tag k="ssr:stedsnr" v="163173" />
	</node>
	<node id="-157476" lat="59.671413888" lon="10.1088416718">
		<tag k="name" v="Grindhøgda" />
		<tag k="natural" v="hill" />
		<tag k="place" v="locality" />
		<tag k="ssr:stedsnr" v="892690" />
	</node>
	<node id="-157475" lat="59.6719527794" lon="10.1363444356">
		<tag k="fixme" v="consider natural=peak for the most distinct mountains in the district" />
		<tag k="name" v="Gampemyråsen" />
		<tag k="natural" v="hill" />
		<tag k="place" v="locality" />
		<tag k="ssr:stedsnr" v="892687" />
	</node>
	<node id="-157471" lat="59.7193805577" lon="10.2563111024">
		<tag k="name" v="Kusletta" />
		<tag k="place" v="locality" />
		<tag k="ssr:stedsnr" v="891083" />
	</node>
	<node id="-157469" lat="59.7233611143" lon="10.2484944365">
		<tag k="name" v="Veslesletta" />
		<tag k="place" v="locality" />
		<tag k="ssr:stedsnr" v="891066" />
	</node>
	<node id="-157466" lat="59.7134722193" lon="10.2619916741">
		<tag k="name" v="Hestesletta" />
		<tag k="place" v="locality" />
		<tag k="ssr:stedsnr" v="891048" />
	</node>
	<node id="-157462" lat="59.6915138883" lon="10.0971055533">
		<tag k="name" v="Andorsrudlia" />
		<tag k="natural" v="slope" />
		<tag k="place" v="locality" />
		<tag k="ssr:stedsnr" v="890707" />
	</node>
	<node id="-157458" lat="59.6978388912" lon="10.1532472239">
		<tag k="name" v="Brennerisletta" />
		<tag k="place" v="locality" />
		<tag k="ssr:stedsnr" v="890604" />
	</node>
	<node id="-158481" lat="59.7564138901" lon="10.1919694494">
		<tag k="name" v="Leirbakkene" />
		<tag k="natural" v="slope" />
		<tag k="place" v="locality" />
		<tag k="ssr:stedsnr" v="968784" />
	</node>
	<node id="-157962" lat="59.6766277767" lon="10.1367138863">
		<tag k="fixme" v="consider natural=peak for the most distinct mountains in the district" />
		<tag k="name" v="Halvorsåsen" />
		<tag k="natural" v="hill" />
		<tag k="place" v="locality" />
		<tag k="ssr:stedsnr" v="488208" />
	</node>
	<node id="-157825" lat="59.6742250004" lon="10.1269555641">
		<tag k="name" v="Borgelia" />
		<tag k="natural" v="slope" />
		<tag k="place" v="locality" />
		<tag k="ssr:stedsnr" v="224681" />
	</node>
	<node id="-157444" lat="59.6862444415" lon="10.3046999999">
		<tag k="fixme" v="consider natural=peak for the most distinct mountains in the district" />
		<tag k="name" v="Lindebuktkollen" />
		<tag k="natural" v="hill" />
		<tag k="place" v="locality" />
		<tag k="ssr:stedsnr" v="889258" />
	</node>
	<node id="-158463" lat="59.6819722217" lon="10.1217833253">
		<tag k="name" v="Skjelsbekkbrenna" />
		<tag k="natural" v="hill" />
		<tag k="place" v="locality" />
		<tag k="ssr:stedsnr" v="950663" />
	</node>
	<node id="-158461" lat="59.685741671" lon="10.0944500081">
		<tag k="name" v="Grisebakken" />
		<tag k="natural" v="slope" />
		<tag k="place" v="locality" />
		<tag k="ssr:stedsnr" v="950629" />
	</node>
	<node id="-157436" lat="59.6780888868" lon="10.0573694505">
		<tag k="name" v="Rønnebulia" />
		<tag k="natural" v="slope" />
		<tag k="place" v="locality" />
		<tag k="ssr:stedsnr" v="406805" />
	</node>
	<node id="-157435" lat="59.666244446" lon="10.1106583317">
		<tag k="name" v="Tunga" />
		<tag k="natural" v="ridge" />
		<tag k="place" v="locality" />
		<tag k="ssr:stedsnr" v="406711" />
	</node>
	<node id="-157426" lat="59.7120194484" lon="10.2512888872">
		<tag k="name" v="Glaneren" />
		<tag k="natural" v="hill" />
		<tag k="place" v="locality" />
		<tag k="ssr:stedsnr" v="406042" />
	</node>
	<node id="-158448" lat="59.6720805556" lon="10.0233861036">
		<tag k="fixme" v="consider natural=peak for the most distinct mountains in the district" />
		<tag k="name" v="Saltåsen" />
		<tag k="natural" v="hill" />
		<tag k="place" v="locality" />
		<tag k="ssr:stedsnr" v="938222" />
	</node>
	<node id="-157934" lat="59.767497218" lon="10.164855563">
		<tag k="fixme" v="consider natural=peak for the most distinct mountains in the district" />
		<tag k="name" v="Landfallåsen" />
		<tag k="natural" v="hill" />
		<tag k="place" v="locality" />
		<tag k="ssr:stedsnr" v="466206" />
	</node>
	<node id="-157420" lat="59.6921305518" lon="10.1038777716">
		<tag k="name" v="Nilsebrenna" />
		<tag k="natural" v="hill" />
		<tag k="place" v="locality" />
		<tag k="ssr:stedsnr" v="404672" />
	</node>
	<node id="-158438" lat="59.7657086885" lon="10.1775242348">
		<tag k="fixme" v="multiple name tags, choose one and add the other to alt_name; consider natural=peak for the most distinct mountains in the district" />
		<tag k="name" v="Buståsen;Kristianåsen" />
		<tag k="natural" v="hill" />
		<tag k="place" v="locality" />
		<tag k="ssr:stedsnr" v="914186" />
	</node>
	<node id="-158437" lat="59.7099027813" lon="10.2138972268">
		<tag k="name" v="Skolterudsletta" />
		<tag k="place" v="locality" />
		<tag k="ssr:stedsnr" v="913290" />
	</node>
	<node id="-157924" lat="59.6851555528" lon="10.1035222268">
		<tag k="fixme" v="consider natural=peak for the most distinct mountains in the district" />
		<tag k="name" v="Furuvollbrenna" />
		<tag k="natural" v="hill" />
		<tag k="place" v="locality" />
		<tag k="ssr:stedsnr" v="465648" />
	</node>
	<node id="-158429" lat="59.6446222267" lon="10.0736666622">
		<tag k="fixme" v="consider natural=peak for the most distinct mountains in the district" />
		<tag k="name" v="Vidvangsåsen" />
		<tag k="natural" v="hill" />
		<tag k="place" v="locality" />
		<tag k="ssr:stedsnr" v="913178" />
	</node>
	<node id="-158428" lat="59.7247694467" lon="10.2306583419">
		<tag k="name" v="Dyranbakken" />
		<tag k="natural" v="slope" />
		<tag k="place" v="locality" />
		<tag k="ssr:stedsnr" v="908875" />
	</node>
	<node id="-157403" lat="59.6990055568" lon="10.2120499937">
		<tag k="name" v="Bikkjebakkene" />
		<tag k="natural" v="slope" />
		<tag k="place" v="locality" />
		<tag k="ssr:stedsnr" v="403253" />
	</node>
	<node id="-158415" lat="59.7795916667" lon="10.119983342">
		<tag k="fixme" v="consider natural=peak for the most distinct mountains in the district" />
		<tag k="name" v="Gamledamåsen" />
		<tag k="natural" v="hill" />
		<tag k="place" v="locality" />
		<tag k="ssr:stedsnr" v="872766" />
	</node>
	<node id="-157817" lat="59.7145527802" lon="10.2417861043">
		<tag k="fixme" v="consider natural=peak for the most distinct mountains in the district" />
		<tag k="name" v="Svenskeåsen" />
		<tag k="natural" v="hill" />
		<tag k="place" v="locality" />
		<tag k="ssr:stedsnr" v="224075" />
	</node>
	<node id="-157906" lat="59.7643777792" lon="10.1309388884">
		<tag k="name" v="Roligheten" />
		<tag k="natural" v="ridge" />
		<tag k="place" v="locality" />
		<tag k="ssr:stedsnr" v="447605" />
	</node>
	<node id="-157392" lat="59.7263805598" lon="10.0799027805">
		<tag k="name" v="Nordhaug" />
		<tag k="natural" v="hill" />
		<tag k="place" v="locality" />
		<tag k="ssr:stedsnr" v="386554" />
	</node>
	<node id="-157391" lat="59.7678750014" lon="10.1278138901">
		<tag k="alt_name" v="Seterberget" />
		<tag k="fixme" v="consider natural=peak for the most distinct mountains in the district" />
		<tag k="name" v="Seterberga" />
		<tag k="natural" v="hill" />
		<tag k="place" v="locality" />
		<tag k="ssr:stedsnr" v="386728" />
	</node>
	<node id="-157390" lat="59.7822166634" lon="10.1161972292">
		<tag k="name" v="Skipperdalen" />
		<tag k="natural" v="valley" />
		<tag k="place" v="locality" />
		<tag k="ssr:stedsnr" v="386723" />
	</node>
	<node id="-157389" lat="59.7833916685" lon="10.1306944419">
		<tag k="name" v="Heia" />
		<tag k="natural" v="hill" />
		<tag k="place" v="locality" />
		<tag k="ssr:stedsnr" v="386718" />
	</node>
	<node id="-157386" lat="59.7742888863" lon="10.1543777779">
		<tag k="name" v="Landfallbrenna" />
		<tag k="natural" v="hill" />
		<tag k="place" v="locality" />
		<tag k="ssr:stedsnr" v="368173" />
	</node>
	<node id="-158408" lat="59.6703861125" lon="10.1034916637">
		<tag k="fixme" v="consider natural=peak for the most distinct mountains in the district" />
		<tag k="name" v="Åstelja" />
		<tag k="natural" v="hill" />
		<tag k="place" v="locality" />
		<tag k="ssr:stedsnr" v="870974" />
	</node>
	<node id="-158407" lat="59.7686249968" lon="10.1163499918">
		<tag k="alt_name" v="Kjøsterudjuvet" />
		<tag k="name" v="Kjøsterudgjuvet" />
		<tag k="natural" v="gorge" />
		<tag k="ssr:stedsnr" v="854168" />
	</node>
	<node id="-157381" lat="59.7189944441" lon="10.2458972255">
		<tag k="fixme" v="consider natural=peak for the most distinct mountains in the district" />
		<tag k="name" v="Nordbykollen" />
		<tag k="natural" v="hill" />
		<tag k="place" v="locality" />
		<tag k="ssr:stedsnr" v="367225" />
	</node>
	<node id="-158404" lat="59.7223527787" lon="10.1843555608">
		<tag k="alt_name" v="Kølabotn" />
		<tag k="name" v="Kølabånn" />
		<tag k="natural" v="valley" />
		<tag k="place" v="locality" />
		<tag k="ssr:stedsnr" v="853266" />
	</node>
	<node id="-158403" lat="59.725188885" lon="10.1763944427">
		<tag k="alt_name" v="Haukåsen" />
		<tag k="fixme" v="consider natural=peak for the most distinct mountains in the district" />
		<tag k="name" v="Haukås" />
		<tag k="natural" v="hill" />
		<tag k="place" v="locality" />
		<tag k="ssr:stedsnr" v="853267" />
	</node>
	<node id="-157890" lat="59.7594472189" lon="10.1714444394">
		<tag k="name" v="Buståsen" />
		<tag k="natural" v="ridge" />
		<tag k="place" v="locality" />
		<tag k="ssr:stedsnr" v="423834" />
	</node>
	<node id="-158397" lat="59.662638893" lon="10.0352750013">
		<tag k="alt_name" v="Store Gravdalen" />
		<tag k="name" v="Store Gravdal" />
		<tag k="natural" v="valley" />
		<tag k="place" v="locality" />
		<tag k="ssr:stedsnr" v="853112" />
	</node>
	<node id="-157884" lat="59.7200638856" lon="10.1947472218">
		<tag k="fixme" v="consider natural=peak for the most distinct mountains in the district" />
		<tag k="name" v="Austadåsen" />
		<tag k="natural" v="hill" />
		<tag k="place" v="locality" />
		<tag k="ssr:stedsnr" v="421426" />
	</node>
	<node id="-157371" lat="59.756700003" lon="10.1803194483">
		<tag k="name" v="Ingeniørstupet" />
		<tag k="place" v="locality" />
		<tag k="ssr:stedsnr" v="362813" />
	</node>
	<node id="-157369" lat="59.7552916637" lon="10.2155305486">
		<tag k="fixme" v="consider natural=peak for the most distinct mountains in the district" />
		<tag k="name" v="Strøtvetåsen" />
		<tag k="natural" v="hill" />
		<tag k="place" v="locality" />
		<tag k="ssr:stedsnr" v="362808" />
	</node>
	<node id="-157879" lat="59.7079583343" lon="10.200641672">
		<tag k="name" v="Hyttehaugene" />
		<tag k="natural" v="hill" />
		<tag k="place" v="locality" />
		<tag k="ssr:stedsnr" v="421312" />
	</node>
	<node id="-158390" lat="59.7639222249" lon="10.1799694449">
		<tag k="name" v="Stiboltlysningen" />
		<tag k="place" v="locality" />
		<tag k="ssr:stedsnr" v="848799" />
	</node>
	<node id="-158389" lat="59.7581750025" lon="10.1650638915">
		<tag k="name" v="Kastanjesletta" />
		<tag k="place" v="locality" />
		<tag k="ssr:stedsnr" v="848800" />
	</node>
	<node id="-157364" lat="59.7171027811" lon="10.182516665">
		<tag k="fixme" v="consider natural=peak for the most distinct mountains in the district" />
		<tag k="name" v="Svettekollen" />
		<tag k="natural" v="hill" />
		<tag k="place" v="locality" />
		<tag k="ssr:stedsnr" v="360391" />
	</node>
	<node id="-157360" lat="59.6615194412" lon="10.0641249992">
		<tag k="fixme" v="consider natural=peak for the most distinct mountains in the district" />
		<tag k="name" v="Store-Høgås" />
		<tag k="natural" v="hill" />
		<tag k="place" v="locality" />
		<tag k="ssr:stedsnr" v="345799" />
	</node>
	<node id="-157896" lat="59.6806194449" lon="10.301549996">
		<tag k="fixme" v="consider natural=peak for the most distinct mountains in the district" />
		<tag k="name" v="Finnefjell" />
		<tag k="natural" v="hill" />
		<tag k="place" v="locality" />
		<tag k="ssr:stedsnr" v="428194" />
	</node>
	<node id="-157358" lat="59.6721916632" lon="10.1582444367">
		<tag k="fixme" v="consider natural=peak for the most distinct mountains in the district" />
		<tag k="name" v="Delåsen" />
		<tag k="natural" v="hill" />
		<tag k="place" v="locality" />
		<tag k="ssr:stedsnr" v="345693" />
	</node>
	<node id="-157352" lat="59.7965111068" lon="10.1109777696">
		<tag k="name" v="Tiuren" />
		<tag k="natural" v="hill" />
		<tag k="place" v="locality" />
		<tag k="ssr:stedsnr" v="345041" />
	</node>
	<node id="-157349" lat="59.6704245384" lon="10.2868032516">
		<tag k="name" v="Gampedalen" />
		<tag k="natural" v="valley" />
		<tag k="place" v="locality" />
		<tag k="ssr:stedsnr" v="343697" />
	</node>
	<node id="-157348" lat="59.6775833308" lon="10.2860555574">
		<tag k="fixme" v="consider natural=peak for the most distinct mountains in the district" />
		<tag k="name" v="Skalpeåsen" />
		<tag k="natural" v="hill" />
		<tag k="place" v="locality" />
		<tag k="ssr:stedsnr" v="343670" />
	</node>
	<node id="-157858" lat="59.6982611109" lon="10.2748111067">
		<tag k="alt_name" v="Kniveåsen" />
		<tag k="fixme" v="consider natural=peak for the most distinct mountains in the district" />
		<tag k="name" v="Knivåsen" />
		<tag k="natural" v="hill" />
		<tag k="place" v="locality" />
		<tag k="ssr:stedsnr" v="245211" />
	</node>
	<node id="-157856" lat="59.6948555537" lon="10.2203333299">
		<tag k="fixme" v="multiple name tags, choose one and add the other to alt_name; consider natural=peak for the most distinct mountains in the district" />
		<tag k="name" v="Blåbærkollen;Kirkåsen" />
		<tag k="natural" v="hill" />
		<tag k="place" v="locality" />
		<tag k="ssr:stedsnr" v="245204" />
	</node>
	<node id="-158365" lat="59.6490500036" lon="10.062683342">
		<tag k="fixme" v="consider natural=peak for the most distinct mountains in the district" />
		<tag k="name" v="Svartevannsåsen" />
		<tag k="natural" v="hill" />
		<tag k="place" v="locality" />
		<tag k="ssr:stedsnr" v="829863" />
	</node>
	<node id="-158363" lat="59.6553500034" lon="10.0619944361">
		<tag k="fixme" v="consider natural=peak for the most distinct mountains in the district" />
		<tag k="name" v="Bjønnåsen" />
		<tag k="natural" v="hill" />
		<tag k="place" v="locality" />
		<tag k="ssr:stedsnr" v="829858" />
	</node>
	<node id="-157827" lat="59.6724805521" lon="10.08123333">
		<tag k="name" v="Ner-Høgåslia" />
		<tag k="natural" v="slope" />
		<tag k="place" v="locality" />
		<tag k="ssr:stedsnr" v="224794" />
	</node>
	<node id="-158360" lat="59.6619472208" lon="10.1037722208">
		<tag k="fixme" v="consider natural=peak for the most distinct mountains in the district" />
		<tag k="name" v="Store Bergevannsbrenna" />
		<tag k="natural" v="hill" />
		<tag k="place" v="locality" />
		<tag k="ssr:stedsnr" v="831675" />
	</node>
	<node id="-157892" lat="59.6666833312" lon="10.0279333292">
		<tag k="fixme" v="consider natural=peak for the most distinct mountains in the district" />
		<tag k="name" v="Svarvaråsen" />
		<tag k="natural" v="hill" />
		<tag k="place" v="locality" />
		<tag k="ssr:stedsnr" v="428120" />
	</node>
	<node id="-157721" lat="59.6872305588" lon="10.1180861034">
		<tag k="name" v="Løkbrenna" />
		<tag k="natural" v="hill" />
		<tag k="place" v="locality" />
		<tag k="ssr:stedsnr" v="161663" />
	</node>
	<node id="-157332" lat="59.736988888" lon="10.1239583275">
		<tag k="name" v="Baklia" />
		<tag k="natural" v="slope" />
		<tag k="place" v="locality" />
		<tag k="ssr:stedsnr" v="326552" />
	</node>
	<node id="-157891" lat="59.6646083336" lon="10.0893583247">
		<tag k="name" v="Bjørkemyrkippen" />
		<tag k="natural" v="hill" />
		<tag k="place" v="locality" />
		<tag k="ssr:stedsnr" v="423922" />
	</node>
	<node id="-157839" lat="59.7585861135" lon="10.2028861091">
		<tag k="fixme" v="consider natural=peak for the most distinct mountains in the district" />
		<tag k="name" v="Snauåsen" />
		<tag k="natural" v="hill" />
		<tag k="place" v="locality" />
		<tag k="ssr:stedsnr" v="241743" />
	</node>
	<node id="-157838" lat="59.756099997" lon="10.202724995">
		<tag k="name" v="Slettåsen" />
		<tag k="natural" v="ridge" />
		<tag k="place" v="locality" />
		<tag k="ssr:stedsnr" v="241741" />
	</node>
	<node id="-157324" lat="59.7356166707" lon="10.1112805607">
		<tag k="name" v="Satasletta" />
		<tag k="place" v="locality" />
		<tag k="ssr:stedsnr" v="306239" />
	</node>
	<node id="-158347" lat="59.6904777794" lon="10.0756666674">
		<tag k="name" v="Heiabrenna" />
		<tag k="natural" v="hill" />
		<tag k="place" v="locality" />
		<tag k="ssr:stedsnr" v="829654" />
	</node>
	<node id="-158343" lat="59.7690861139" lon="10.1119194462">
		<tag k="name" v="Linneberga" />
		<tag k="natural" v="slope" />
		<tag k="place" v="locality" />
		<tag k="ssr:stedsnr" v="811718" />
	</node>
	<node id="-158342" lat="59.760955557" lon="10.1472583395">
		<tag k="name" v="Sletningsdalen" />
		<tag k="natural" v="valley" />
		<tag k="place" v="locality" />
		<tag k="ssr:stedsnr" v="811605" />
	</node>
	<node id="-157315" lat="59.7623638915" lon="10.1776527863">
		<tag k="fixme" v="consider natural=peak for the most distinct mountains in the district" />
		<tag k="name" v="Sparavollåsen" />
		<tag k="natural" v="hill" />
		<tag k="place" v="locality" />
		<tag k="ssr:stedsnr" v="301821" />
	</node>
	<node id="-157313" lat="59.7611305588" lon="10.1959111061">
		<tag k="name" v="Risåsknappen" />
		<tag k="natural" v="hill" />
		<tag k="place" v="locality" />
		<tag k="ssr:stedsnr" v="301813" />
	</node>
	<node id="-158335" lat="59.6707416656" lon="10.1156277716">
		<tag k="fixme" v="consider natural=peak for the most distinct mountains in the district" />
		<tag k="name" v="Svinkekollen" />
		<tag k="natural" v="hill" />
		<tag k="place" v="locality" />
		<tag k="ssr:stedsnr" v="809979" />
	</node>
	<node id="-157820" lat="59.7870749959" lon="10.1536361044">
		<tag k="name" v="Rostuleiken" />
		<tag k="natural" v="hill" />
		<tag k="place" v="locality" />
		<tag k="ssr:stedsnr" v="224165" />
	</node>
	<node id="-158330" lat="59.674352781" lon="10.302491671">
		<tag k="fixme" v="consider natural=peak for the most distinct mountains in the district" />
		<tag k="name" v="Risåsen" />
		<tag k="natural" v="hill" />
		<tag k="place" v="locality" />
		<tag k="ssr:stedsnr" v="792147" />
	</node>
	<node id="-158329" lat="59.7614138879" lon="10.1982499972">
		<tag k="fixme" v="consider natural=peak for the most distinct mountains in the district" />
		<tag k="name" v="Villåsen" />
		<tag k="natural" v="hill" />
		<tag k="place" v="locality" />
		<tag k="ssr:stedsnr" v="792074" />
	</node>
	<node id="-157816" lat="59.7231749975" lon="10.2379972142">
		<tag k="name" v="Leirbakkene" />
		<tag k="natural" v="slope" />
		<tag k="place" v="locality" />
		<tag k="ssr:stedsnr" v="224072" />
	</node>
	<node id="-157296" lat="59.6743194459" lon="10.0704611026">
		<tag k="name" v="Rødløshaugene" />
		<tag k="natural" v="hill" />
		<tag k="place" v="locality" />
		<tag k="ssr:stedsnr" v="285800" />
	</node>
	<node id="-157885" lat="59.7213861096" lon="10.1816194399">
		<tag k="name" v="Rugdefjell" />
		<tag k="natural" v="hill" />
		<tag k="place" v="locality" />
		<tag k="ssr:stedsnr" v="421427" />
	</node>
	<node id="-158315" lat="59.6708833336" lon="10.1709999971">
		<tag k="name" v="Hovåsen" />
		<tag k="natural" v="hill" />
		<tag k="place" v="locality" />
		<tag k="ssr:stedsnr" v="770706" />
	</node>
	<node id="-157802" lat="59.6827194436" lon="10.0746527768">
		<tag k="name" v="Strilekleiva" />
		<tag k="natural" v="slope" />
		<tag k="place" v="locality" />
		<tag k="ssr:stedsnr" v="222609" />
	</node>
	<node id="-158055" lat="59.6500944439" lon="10.031150003">
		<tag k="fixme" v="consider natural=peak for the most distinct mountains in the district" />
		<tag k="name" v="Steingatåsen" />
		<tag k="natural" v="hill" />
		<tag k="place" v="locality" />
		<tag k="ssr:stedsnr" v="570150" />
	</node>
	<node id="-157285" lat="59.7187666675" lon="10.2415499921">
		<tag k="name" v="Veslekollen" />
		<tag k="natural" v="hill" />
		<tag k="place" v="locality" />
		<tag k="ssr:stedsnr" v="284059" />
	</node>
	<node id="-157283" lat="59.7231361071" lon="10.2325527785">
		<tag k="name" v="Dronningsletta" />
		<tag k="place" v="locality" />
		<tag k="ssr:stedsnr" v="284048" />
	</node>
	<node id="-158306" lat="59.7189888844" lon="10.2633194514">
		<tag k="name" v="Åskollen" />
		<tag k="natural" v="hill" />
		<tag k="place" v="locality" />
		<tag k="ssr:stedsnr" v="770014" />
	</node>
	<node id="-157883" lat="59.7140222231" lon="10.1884527732">
		<tag k="name" v="Risdalen" />
		<tag k="natural" v="valley" />
		<tag k="place" v="locality" />
		<tag k="ssr:stedsnr" v="421418" />
	</node>
	<node id="-158149" lat="59.6599249965" lon="10.0822138879">
		<tag k="name" v="Løkmyrlia" />
		<tag k="natural" v="slope" />
		<tag k="place" v="locality" />
		<tag k="ssr:stedsnr" v="646831" />
	</node>
	<node id="-158300" lat="59.6883611083" lon="10.0979805629">
		<tag k="fixme" v="consider natural=peak for the most distinct mountains in the district" />
		<tag k="name" v="Andorsrudbrenna" />
		<tag k="natural" v="hill" />
		<tag k="place" v="locality" />
		<tag k="ssr:stedsnr" v="768716" />
	</node>
	<node id="-157787" lat="59.7709249968" lon="10.1311916752">
		<tag k="name" v="Kolbergdalen" />
		<tag k="natural" v="valley" />
		<tag k="place" v="locality" />
		<tag k="ssr:stedsnr" v="204712" />
	</node>
	<node id="-157273" lat="59.6890111123" lon="10.1149111122">
		<tag k="name" v="Fuglebrenna" />
		<tag k="natural" v="hill" />
		<tag k="place" v="locality" />
		<tag k="ssr:stedsnr" v="283669" />
	</node>
	<node id="-157781" lat="59.7059277772" lon="10.0886305534">
		<tag k="name" v="Øvre Hogstet" />
		<tag k="place" v="locality" />
		<tag k="ssr:stedsnr" v="185299" />
	</node>
	<node id="-157267" lat="59.6858805568" lon="10.1548083274">
		<tag k="fixme" v="consider natural=peak for the most distinct mountains in the district" />
		<tag k="name" v="Borgeåsen" />
		<tag k="natural" v="hill" />
		<tag k="place" v="locality" />
		<tag k="ssr:stedsnr" v="283548" />
	</node>
	<node id="-158307" lat="59.7137694414" lon="10.2409916712">
		<tag k="name" v="Singelhøla" />
		<tag k="natural" v="valley" />
		<tag k="place" v="locality" />
		<tag k="ssr:stedsnr" v="770016" />
	</node>
	<node id="-157776" lat="59.678174997" lon="10.0950527756">
		<tag k="fixme" v="consider natural=peak for the most distinct mountains in the district" />
		<tag k="name" v="Faksåsen" />
		<tag k="natural" v="hill" />
		<tag k="place" v="locality" />
		<tag k="ssr:stedsnr" v="185230" />
	</node>
	<node id="-157774" lat="59.6931472237" lon="10.1152972162">
		<tag k="name" v="Brannbukken" />
		<tag k="natural" v="hill" />
		<tag k="place" v="locality" />
		<tag k="ssr:stedsnr" v="185181" />
	</node>
	<node id="-157770" lat="59.7278055578" lon="10.1685055567">
		<tag k="name" v="Almedalsletta" />
		<tag k="place" v="locality" />
		<tag k="ssr:stedsnr" v="180841" />
	</node>
	<node id="-157769" lat="59.7654694416" lon="10.1766583379">
		<tag k="name" v="Gampestillingsdalen" />
		<tag k="natural" v="valley" />
		<tag k="place" v="locality" />
		<tag k="ssr:stedsnr" v="180808" />
	</node>
	<node id="-157255" lat="59.7676083342" lon="10.1744555634">
		<tag k="name" v="Stankebakken" />
		<tag k="natural" v="slope" />
		<tag k="place" v="locality" />
		<tag k="ssr:stedsnr" v="284202" />
	</node>
	<node id="-157764" lat="59.7205166659" lon="10.17522223">
		<tag k="fixme" v="consider natural=peak for the most distinct mountains in the district" />
		<tag k="name" v="Grubemyråsen" />
		<tag k="natural" v="hill" />
		<tag k="place" v="locality" />
		<tag k="ssr:stedsnr" v="178431" />
	</node>
	<node id="-157777" lat="59.7327055514" lon="10.1134416623">
		<tag k="fixme" v="multiple name tags, choose one and add the other to alt_name; consider natural=peak for the most distinct mountains in the district" />
		<tag k="name" v="Gruvåsen;Konnerudkollen" />
		<tag k="natural" v="hill" />
		<tag k="place" v="locality" />
		<tag k="ssr:stedsnr" v="185248" />
	</node>
	<node id="-158271" lat="59.7319694467" lon="10.1638861057">
		<tag k="alt_name" v="Gamlebakken" />
		<tag k="name" v="Gamlebakkane" />
		<tag k="natural" v="slope" />
		<tag k="place" v="locality" />
		<tag k="ssr:stedsnr" v="731211" />
	</node>
	<node id="-157758" lat="59.6771805513" lon="10.1545972218">
		<tag k="name" v="Brattåsen" />
		<tag k="natural" v="slope" />
		<tag k="place" v="locality" />
		<tag k="ssr:stedsnr" v="163703" />
	</node>
	<node id="-157756" lat="59.6784250032" lon="10.1093055478">
		<tag k="name" v="Gravdalsbånnane" />
		<tag k="place" v="locality" />
		<tag k="ssr:stedsnr" v="163699" />
	</node>
	<node id="-157755" lat="59.6767222216" lon="10.1258500036">
		<tag k="fixme" v="consider natural=peak for the most distinct mountains in the district" />
		<tag k="name" v="Sagåsen" />
		<tag k="natural" v="hill" />
		<tag k="place" v="locality" />
		<tag k="ssr:stedsnr" v="163696" />
	</node>
	<node id="-158046" lat="59.7064666688" lon="10.1808916653">
		<tag k="name" v="Dunkedalen" />
		<tag k="natural" v="valley" />
		<tag k="place" v="locality" />
		<tag k="ssr:stedsnr" v="549310" />
	</node>
	<node id="-157746" lat="59.7668555518" lon="10.1712777779">
		<tag k="name" v="Blåsteinbakkene" />
		<tag k="natural" v="slope" />
		<tag k="place" v="locality" />
		<tag k="ssr:stedsnr" v="163174" />
	</node>
	<node id="-158257" lat="59.7557944475" lon="10.2127194404">
		<tag k="fixme" v="consider natural=peak for the most distinct mountains in the district" />
		<tag k="name" v="Mellomåsen" />
		<tag k="natural" v="hill" />
		<tag k="place" v="locality" />
		<tag k="ssr:stedsnr" v="726815" />
	</node>
	<node id="-157734" lat="59.6434638911" lon="10.0456722162">
		<tag k="fixme" v="consider natural=peak for the most distinct mountains in the district" />
		<tag k="loc_name" v="Annevasshøgda" />
		<tag k="name" v="Annevannshøgda" />
		<tag k="natural" v="hill" />
		<tag k="place" v="locality" />
		<tag k="ssr:stedsnr" v="161840" />
	</node>
	<node id="-157732" lat="59.7013833359" lon="10.0938388974">
		<tag k="fixme" v="consider natural=peak for the most distinct mountains in the district" />
		<tag k="name" v="Haugseteråsen" />
		<tag k="natural" v="hill" />
		<tag k="place" v="locality" />
		<tag k="ssr:stedsnr" v="161565" />
	</node>
	<node id="-158237" lat="59.6756638918" lon="10.1430916579">
		<tag k="name" v="Almedalsåsen" />
		<tag k="natural" v="hill" />
		<tag k="place" v="locality" />
		<tag k="ssr:stedsnr" v="709696" />
	</node>
	<node id="-157615" lat="59.6968944404" lon="10.0892694511">
		<tag k="fixme" v="consider natural=peak for the most distinct mountains in the district" />
		<tag k="name" v="Hestmyrbrenna" />
		<tag k="natural" v="hill" />
		<tag k="place" v="locality" />
		<tag k="ssr:stedsnr" v="63207" />
	</node>
	<node id="-157718" lat="59.6631000005" lon="10.0308833411">
		<tag k="name" v="Juvet" />
		<tag k="natural" v="valley" />
		<tag k="place" v="locality" />
		<tag k="ssr:stedsnr" v="148242" />
	</node>
	<node id="-158225" lat="59.6706916682" lon="10.2936916673">
		<tag k="name" v="Nordstupet" />
		<tag k="natural" v="hill" />
		<tag k="place" v="locality" />
		<tag k="ssr:stedsnr" v="707662" />
	</node>
	<node id="-158224" lat="59.7000805552" lon="10.100441674">
		<tag k="name" v="Rausinklia" />
		<tag k="natural" v="slope" />
		<tag k="place" v="locality" />
		<tag k="ssr:stedsnr" v="707601" />
	</node>
	<node id="-157711" lat="59.7272972261" lon="10.1313722152">
		<tag k="name" v="Gomperudhøgda" />
		<tag k="natural" v="hill" />
		<tag k="place" v="locality" />
		<tag k="ssr:stedsnr" v="143527" />
	</node>
	<node id="-157708" lat="59.7561999988" lon="10.205675007">
		<tag k="name" v="Varden" />
		<tag k="natural" v="hill" />
		<tag k="place" v="locality" />
		<tag k="ssr:stedsnr" v="125087" />
	</node>
	<node id="-157705" lat="59.7130166678" lon="10.1697083295">
		<tag k="fixme" v="consider natural=peak for the most distinct mountains in the district" />
		<tag k="name" v="Hyllåsen" />
		<tag k="natural" v="hill" />
		<tag k="place" v="locality" />
		<tag k="ssr:stedsnr" v="124245" />
	</node>
	<node id="-157704" lat="59.7184250018" lon="10.2329249941">
		<tag k="alt_name" v="Kopervikdalen" />
		<tag k="name" v="Kobbervikdalen" />
		<tag k="natural" v="valley" />
		<tag k="place" v="locality" />
		<tag k="ssr:stedsnr" v="124224" />
	</node>
	<node id="-157703" lat="59.6657499967" lon="10.0349972189">
		<tag k="fixme" v="consider natural=peak for the most distinct mountains in the district" />
		<tag k="name" v="Finntomtåsen" />
		<tag k="natural" v="hill" />
		<tag k="place" v="locality" />
		<tag k="ssr:stedsnr" v="124186" />
	</node>
</osm>
