<?xml version="1.0" encoding="UTF-8"?>
<osm generator="osmapis" version="0.6">
	<node id="-157440" lat="59.7425361146" lon="10.1868277701">
		<tag k="alt_name" v="Strømsgodset" />
		<tag k="amenity" v="place_of_worship" />
		<tag k="denomination" v="lutheran" />
		<tag k="name" v="Strømsgodset kirke" />
		<tag k="religion" v="christian" />
		<tag k="ssr:stedsnr" v="883007" />
	</node>
	<node id="-157695" lat="59.7246222221" lon="10.0962694533">
		<tag k="amenity" v="community_centre" />
		<tag k="name" v="Villmarkshuset" />
		<tag k="ssr:stedsnr" v="119862" />
	</node>
	<node id="-157694" lat="59.7278194441" lon="10.1404249948">
		<tag k="name" v="Prøyserud" />
		<tag k="place" v="locality" />
		<tag k="ssr:stedsnr" v="119861" />
	</node>
	<node id="-157437" lat="59.7480472257" lon="10.2026666704">
		<tag k="amenity" v="place_of_worship" />
		<tag k="fixme" v="specify religion=*, denomination=*, building=* etc" />
		<tag k="name" v="Drammen krematorium" />
		<tag k="ssr:stedsnr" v="406856" />
	</node>
	<node id="-157849" lat="59.7418055555" lon="10.1451361093">
		<tag k="name" v="Sauringen" />
		<tag k="place" v="locality" />
		<tag k="ssr:stedsnr" v="241816" />
	</node>
	<node id="-158207" lat="59.7301247629" lon="10.2346417597">
		<tag k="alt_name" v="Tangen" />
		<tag k="amenity" v="place_of_worship" />
		<tag k="denomination" v="lutheran" />
		<tag k="name" v="Tangen kirke" />
		<tag k="religion" v="christian" />
		<tag k="ssr:stedsnr" v="701292" />
	</node>
	<node id="-157560" lat="59.6950083298" lon="10.2131666616">
		<tag k="name" v="Berget" />
		<tag k="place" v="locality" />
		<tag k="ssr:stedsnr" v="39218" />
	</node>
	<node id="-157684" lat="59.7630861129" lon="10.1258722176">
		<tag k="name" v="Aronsløkka" />
		<tag k="place" v="locality" />
		<tag k="ssr:stedsnr" v="119809" />
	</node>
	<node id="-158323" lat="59.7607499981" lon="10.208072226">
		<tag k="name" v="Solli" />
		<tag k="place" v="locality" />
		<tag k="ssr:stedsnr" v="787775" />
	</node>
	<node id="-157679" lat="59.7229916683" lon="10.148191673">
		<tag k="name" v="Torrud" />
		<tag k="place" v="locality" />
		<tag k="ssr:stedsnr" v="118327" />
	</node>
	<node id="-157422" lat="59.7694944443" lon="10.1695722195">
		<tag k="name" v="Sandtroa" />
		<tag k="place" v="locality" />
		<tag k="ssr:stedsnr" v="405187" />
	</node>
	<node id="-157421" lat="59.6870472236" lon="10.1156277747">
		<tag k="name" v="Andorsborgen" />
		<tag k="ssr:stedsnr" v="404680" />
		<tag k="tourism" v="attraction" />
	</node>
	<node id="-158273" lat="59.7206249983" lon="10.140608336">
		<tag k="amenity" v="place_of_worship" />
		<tag k="denomination" v="lutheran" />
		<tag k="name" v="Konnerud gamle kirke" />
		<tag k="old_name" v="Konnerud kirke" />
		<tag k="religion" v="christian" />
		<tag k="ssr:stedsnr" v="731227" />
	</node>
	<node id="-157923" lat="59.6827000006" lon="10.0876888957">
		<tag k="name" v="Gårbuslaget" />
		<tag k="place" v="locality" />
		<tag k="ssr:stedsnr" v="465639" />
	</node>
	<node id="-158178" lat="59.7485166631" lon="10.1895166668">
		<tag k="name" v="Lagerqvisttomta" />
		<tag k="place" v="locality" />
		<tag k="ssr:stedsnr" v="665804" />
	</node>
	<node id="-158425" lat="59.7580722212" lon="10.1944138973">
		<tag k="name" v="Waldemar Werrings utsikt" />
		<tag k="ssr:stedsnr" v="908804" />
		<tag k="tourism" v="viewpoint" />
	</node>
	<node id="-157987" lat="59.6848444419" lon="10.2493166691">
		<tag k="amenity" v="place_of_worship" />
		<tag k="fixme" v="specify religion=*, denomination=*, building=* etc" />
		<tag k="name" v="Betania" />
		<tag k="ssr:stedsnr" v="525311" />
	</node>
	<node id="-157401" lat="59.6960722214" lon="10.2435694445">
		<tag k="name" v="Korea" />
		<tag k="place" v="locality" />
		<tag k="ssr:stedsnr" v="403245" />
	</node>
	<node id="-157271" lat="59.6949361147" lon="10.1127638855">
		<tag k="name" v="Åserudgruva" />
		<tag k="place" v="locality" />
		<tag k="ssr:stedsnr" v="283561" />
	</node>
	<node id="-157398" lat="59.7520555556" lon="10.2013527747">
		<tag k="name" v="Spiralen" />
		<tag k="ssr:stedsnr" v="388481" />
		<tag k="tourism" v="attraction" />
	</node>
	<node id="-157945" lat="59.718188889" lon="10.1399027728">
		<tag k="name" v="Langeland" />
		<tag k="place" v="locality" />
		<tag k="ssr:stedsnr" v="482343" />
	</node>
	<node id="-158089" lat="59.7672194402" lon="10.1505277759">
		<tag k="name" v="Grønvold" />
		<tag k="place" v="locality" />
		<tag k="ssr:stedsnr" v="587203" />
	</node>
	<node id="-157411" lat="59.6959305561" lon="10.2833277805">
		<tag k="name" v="Bråten" />
		<tag k="place" v="locality" />
		<tag k="ssr:stedsnr" v="404248" />
	</node>
	<node id="-157304" lat="59.7547472184" lon="10.1956638846">
		<tag k="name" v="Brudesløret" />
		<tag k="place" v="locality" />
		<tag k="ssr:stedsnr" v="301769" />
	</node>
	<node id="-158157" lat="59.743386109" lon="10.1938166664">
		<tag k="amenity" v="community_centre" />
		<tag k="name" v="Union scene" />
		<tag k="ssr:stedsnr" v="648626" />
	</node>
	<node id="-158050" lat="59.7350194456" lon="10.1241805493">
		<tag k="name" v="Vaskeriet" />
		<tag k="ssr:stedsnr" v="568505" />
		<tag k="tourism" v="attraction" />
	</node>
	<node id="-158026" lat="59.7629972237" lon="10.1969388902">
		<tag k="name" v="Gråbeinleet" />
		<tag k="place" v="locality" />
		<tag k="ssr:stedsnr" v="544805" />
	</node>
	<node id="-157257" lat="59.7012361124" lon="10.2464277748">
		<tag k="name" v="Gråterud" />
		<tag k="place" v="locality" />
		<tag k="ssr:stedsnr" v="282239" />
	</node>
	<node id="-157636" lat="59.7876194438" lon="10.132797215">
		<tag k="amenity" v="place_of_worship" />
		<tag k="denomination" v="lutheran" />
		<tag k="name" v="Tverken sportskapell" />
		<tag k="religion" v="christian" />
		<tag k="ssr:stedsnr" v="83741" />
	</node>
	<node id="-158349" lat="59.6878583315" lon="10.2240111086">
		<tag k="amenity" v="community_centre" />
		<tag k="name" v="Skogvang" />
		<tag k="ssr:stedsnr" v="829299" />
	</node>
	<node id="-157933" lat="59.7950805582" lon="10.1250083362">
		<tag k="name" v="Gamle Klunken" />
		<tag k="place" v="locality" />
		<tag k="ssr:stedsnr" v="466192" />
	</node>
	<node id="-157889" lat="59.7447333296" lon="10.1997555575">
		<tag k="name" v="Høgda" />
		<tag k="place" v="locality" />
		<tag k="ssr:stedsnr" v="423812" />
	</node>
	<node id="-158144" lat="59.6988527796" lon="10.1715833334">
		<tag k="name" v="Bjønnebråtan" />
		<tag k="place" v="locality" />
		<tag k="ssr:stedsnr" v="646567" />
	</node>
	<node id="-158143" lat="59.7049666643" lon="10.1182333266">
		<tag k="name" v="Gampemyrbakk" />
		<tag k="place" v="locality" />
		<tag k="ssr:stedsnr" v="646342" />
	</node>
	<node id="-158396" lat="59.7531027755" lon="10.2017638944">
		<tag k="name" v="Spiraltoppen" />
		<tag k="ssr:stedsnr" v="853065" />
		<tag k="tourism" v="viewpoint" />
	</node>
	<node id="-157882" lat="59.7161361104" lon="10.1281527719">
		<tag k="name" v="Daløen" />
		<tag k="place" v="locality" />
		<tag k="ssr:stedsnr" v="421331" />
	</node>
	<node id="-157881" lat="59.7158777817" lon="10.1266499931">
		<tag k="name" v="Tørkopp" />
		<tag k="place" v="locality" />
		<tag k="ssr:stedsnr" v="421332" />
	</node>
	<node id="-157880" lat="59.7207138902" lon="10.1324861099">
		<tag k="amenity" v="community_centre" />
		<tag k="name" v="Folkets hus" />
		<tag k="ssr:stedsnr" v="421320" />
	</node>
	<node id="-158105" lat="59.7566361116" lon="10.1954305552">
		<tag k="name" v="Hans Hansens utsikt" />
		<tag k="ssr:stedsnr" v="604783" />
		<tag k="tourism" v="viewpoint" />
	</node>
	<node id="-158387" lat="59.7491611141" lon="10.1945583292">
		<tag k="name" v="Dampsentralen" />
		<tag k="place" v="locality" />
		<tag k="ssr:stedsnr" v="848785" />
	</node>
	<node id="-158386" lat="59.7521666711" lon="10.2008055632">
		<tag k="name" v="Nedre skanse" />
		<tag k="ssr:stedsnr" v="848772" />
		<tag k="tourism" v="attraction" />
	</node>
	<node id="-158003" lat="59.7432861145" lon="10.1839222208">
		<tag k="cemetery" v="grave" />
		<tag k="name" v="Strømsgodset kirkegård" />
		<tag k="place" v="locality" />
		<tag k="ssr:stedsnr" v="527028" />
	</node>
	<node id="-158088" lat="59.767347218" lon="10.1596138801">
		<tag k="name" v="Lunneplassen" />
		<tag k="place" v="locality" />
		<tag k="ssr:stedsnr" v="587201" />
	</node>
	<node id="-157614" lat="59.7241888909" lon="10.231258337">
		<tag k="name" v="Knipa" />
		<tag k="place" v="locality" />
		<tag k="ssr:stedsnr" v="59823" />
	</node>
	<node id="-157869" lat="59.7178277751" lon="10.2180499989">
		<tag k="alt_name" v="Fjell" />
		<tag k="amenity" v="place_of_worship" />
		<tag k="denomination" v="lutheran" />
		<tag k="name" v="Fjell kirke" />
		<tag k="religion" v="christian" />
		<tag k="ssr:stedsnr" v="263978" />
	</node>
	<node id="-157740" lat="59.7224916685" lon="10.2437499944">
		<tag k="name" v="Rugbråten" />
		<tag k="place" v="locality" />
		<tag k="ssr:stedsnr" v="163047" />
	</node>
	<node id="-158251" lat="59.753941666" lon="10.1922361174">
		<tag k="name" v="Kjerringløkka" />
		<tag k="place" v="locality" />
		<tag k="ssr:stedsnr" v="726777" />
	</node>
	<node id="-157860" lat="59.6871583346" lon="10.2222027811">
		<tag k="alt_name" v="Skoger" />
		<tag k="amenity" v="place_of_worship" />
		<tag k="denomination" v="lutheran" />
		<tag k="name" v="Skoger kirke" />
		<tag k="religion" v="christian" />
		<tag k="ssr:stedsnr" v="246206" />
	</node>
	<node id="-158371" lat="59.7678472261" lon="10.1718277851">
		<tag k="name" v="Ladningen" />
		<tag k="place" v="locality" />
		<tag k="ssr:stedsnr" v="831200" />
	</node>
	<node id="-157983" lat="59.6938166681" lon="10.2427416687">
		<tag k="name" v="Trillingen" />
		<tag k="place" v="locality" />
		<tag k="ssr:stedsnr" v="525301" />
	</node>
	<node id="-157913" lat="59.7360527804" lon="10.2084249975">
		<tag k="alt_name" v="Strømsø" />
		<tag k="amenity" v="place_of_worship" />
		<tag k="denomination" v="lutheran" />
		<tag k="name" v="Strømsø kirke" />
		<tag k="religion" v="christian" />
		<tag k="ssr:stedsnr" v="458023" />
	</node>
	<node id="-157979" lat="59.677433335" lon="10.2084861147">
		<tag k="amenity" v="place_of_worship" />
		<tag k="denomination" v="lutheran" />
		<tag k="name" v="Skoger gamle kirke" />
		<tag k="religion" v="christian" />
		<tag k="ssr:stedsnr" v="519006" />
	</node>
	<node id="-157338" lat="59.6945666627" lon="10.2806305492">
		<tag k="name" v="Skyteskivene" />
		<tag k="place" v="locality" />
		<tag k="ssr:stedsnr" v="343239" />
	</node>
	<node id="-157935" lat="59.7380833374" lon="10.1972749985">
		<tag k="name" v="Drammen museum" />
		<tag k="ssr:stedsnr" v="466615" />
		<tag k="tourism" v="museum" />
	</node>
	<node id="-158232" lat="59.7133833296" lon="10.2342388888">
		<tag k="name" v="Baserud" />
		<tag k="place" v="locality" />
		<tag k="ssr:stedsnr" v="709070" />
	</node>
	<node id="-158358" lat="59.6930999966" lon="10.1375388907">
		<tag k="name" v="Donken" />
		<tag k="place" v="locality" />
		<tag k="ssr:stedsnr" v="829600" />
	</node>
	<node id="-158233" lat="59.7865166659" lon="10.1130694395">
		<tag k="name" v="Gladbakk" />
		<tag k="place" v="locality" />
		<tag k="ssr:stedsnr" v="709201" />
	</node>
	<node id="-157715" lat="59.7541916687" lon="10.143161112">
		<tag k="alt_name" v="Åssiden" />
		<tag k="amenity" v="place_of_worship" />
		<tag k="denomination" v="lutheran" />
		<tag k="name" v="Åssiden kirke" />
		<tag k="religion" v="christian" />
		<tag k="ssr:stedsnr" v="143624" />
	</node>
	<node id="-157585" lat="59.7697166633" lon="10.1676388818">
		<tag k="name" v="Damfallet" />
		<tag k="place" v="locality" />
		<tag k="ssr:stedsnr" v="41187" />
	</node>
	<node id="-157976" lat="59.7565000011" lon="10.1133250056">
		<tag k="amenity" v="community_centre" />
		<tag k="name" v="Travkroa" />
		<tag k="ssr:stedsnr" v="508916" />
	</node>
	<node id="-158206" lat="59.7499333355" lon="10.1623527739">
		<tag k="amenity" v="place_of_worship" />
		<tag k="denomination" v="lutheran" />
		<tag k="name" v="Landfalløya kapell" />
		<tag k="religion" v="christian" />
		<tag k="ssr:stedsnr" v="701001" />
	</node>
	<node id="-157581" lat="59.6902500002" lon="10.1262861134">
		<tag k="name" v="Nedreløkka" />
		<tag k="place" v="locality" />
		<tag k="ssr:stedsnr" v="40696" />
	</node>
	<node id="-157954" lat="59.753136108" lon="10.2068555582">
		<tag k="name" v="Øvre skanse" />
		<tag k="ssr:stedsnr" v="483837" />
		<tag k="tourism" v="attraction" />
	</node>
	<node id="-158345" lat="59.717219443" lon="10.1531666604">
		<tag k="alt_name" v="Konnerud;Konnerud nye kirke" />
		<tag k="amenity" v="place_of_worship" />
		<tag k="denomination" v="lutheran" />
		<tag k="name" v="Konnerud kirke" />
		<tag k="religion" v="christian" />
		<tag k="ssr:stedsnr" v="823805" />
	</node>
	<node id="-158344" lat="59.7467083305" lon="10.2065694383">
		<tag k="alt_name" v="Bragernes" />
		<tag k="amenity" v="place_of_worship" />
		<tag k="denomination" v="lutheran" />
		<tag k="name" v="Bragernes kirke" />
		<tag k="religion" v="christian" />
		<tag k="ssr:stedsnr" v="822070" />
	</node>
	<node id="-158485" lat="59.725436113" lon="10.2484111164">
		<tag k="cemetery" v="grave" />
		<tag k="name" v="Tangen kirkegård" />
		<tag k="place" v="locality" />
		<tag k="ssr:stedsnr" v="969834" />
	</node>
	<node id="-158085" lat="59.717716668" lon="10.2498861023">
		<tag k="amenity" v="community_centre" />
		<tag k="name" v="Speiderhytta" />
		<tag k="ssr:stedsnr" v="587065" />
	</node>
	<node id="-157956" lat="59.7615916647" lon="10.1934527858">
		<tag k="name" v="Juletønna" />
		<tag k="place" v="locality" />
		<tag k="ssr:stedsnr" v="483842" />
	</node>
	<node id="-158083" lat="59.7135972249" lon="10.2525944409">
		<tag k="name" v="Solbakken" />
		<tag k="place" v="locality" />
		<tag k="ssr:stedsnr" v="587034" />
	</node>
	<node id="-157314" lat="59.761480559" lon="10.1668333375">
		<tag k="name" v="Langsletta" />
		<tag k="place" v="locality" />
		<tag k="ssr:stedsnr" v="301818" />
	</node>
</osm>
