<?xml version="1.0" encoding="UTF-8"?>
<osm generator="osmapis" version="0.6">
	<node id="-158272" lat="59.7216499973" lon="10.265711109">
		<tag k="name" v="Nøstodden" />
		<tag k="natural" v="cape" />
		<tag k="ssr:stedsnr" v="731222" />
	</node>
	<node id="-158240" lat="59.7459444455" lon="10.188036115">
		<tag k="alt_name" v="Øvresund" />
		<tag k="name" v="Øvre sund" />
		<tag k="natural" v="strait" />
		<tag k="ssr:stedsnr" v="709840" />
	</node>
	<node id="-158424" lat="59.7464333296" lon="10.1755638948">
		<tag k="name" v="Midtgrunnen" />
		<tag k="natural" v="shoal" />
		<tag k="place" v="locality" />
		<tag k="ssr:stedsnr" v="908748" />
	</node>
	<node id="-157978" lat="59.7313583373" lon="10.2482416694">
		<tag k="name" v="Tangenbanken" />
		<tag k="natural" v="shoal" />
		<tag k="place" v="locality" />
		<tag k="ssr:stedsnr" v="510710" />
	</node>
	<node id="-157496" lat="59.666666669" lon="10.3916666621">
		<tag k="bay" v="fjord" />
		<tag k="name" v="Drammensfjorden" />
		<tag k="natural" v="bay" />
		<tag k="ssr:stedsnr" v="792266" />
	</node>
	<node id="-157399" lat="59.7165916633" lon="10.2662527765">
		<tag k="alt_name" v="Langstranda" />
		<tag k="name" v="Langestrand" />
		<tag k="natural" v="beach" />
		<tag k="place" v="locality" />
		<tag k="ssr:stedsnr" v="388659" />
	</node>
	<node id="-157941" lat="59.7318666643" lon="10.2361138943">
		<tag k="name" v="Tangenrenna" />
		<tag k="natural" v="strait" />
		<tag k="ssr:stedsnr" v="482140" />
	</node>
	<node id="-158418" lat="59.7124611638" lon="10.2685446794">
		<tag k="alt_name" v="Granaholen" />
		<tag k="name" v="Granahølen" />
		<tag k="natural" v="bay" />
		<tag k="ssr:stedsnr" v="874692" />
	</node>
	<node id="-157912" lat="59.7141021747" lon="10.2705450721">
		<tag k="name" v="Solumsbukta" />
		<tag k="natural" v="bay" />
		<tag k="ssr:stedsnr" v="449658" />
	</node>
	<node id="-157997" lat="59.7453694406" lon="10.1848500022">
		<tag k="name" v="Gråmerra" />
		<tag k="natural" v="shoal" />
		<tag k="place" v="locality" />
		<tag k="ssr:stedsnr" v="526657" />
	</node>
	<node id="-157538" lat="59.7327777776" lon="10.2337638905">
		<tag k="name" v="Risgarden" />
		<tag k="natural" v="cape" />
		<tag k="ssr:stedsnr" v="3234" />
	</node>
	<node id="-157537" lat="59.7361694478" lon="10.2279777818">
		<tag k="name" v="Holmen" />
		<tag k="place" v="island" />
		<tag k="ssr:stedsnr" v="3229" />
	</node>
</osm>
