<?xml version="1.0" encoding="UTF-8"?>
<osm generator="osmapis" version="0.6">
	<node id="-158335" lat="59.7643305584" lon="10.1935499973">
		<tag k="name" v="Grinda" />
		<tag k="place" v="locality" />
		<tag k="ssr:stedsnr" v="908838" />
	</node>
	<node id="-157514" lat="59.7110027807" lon="10.1746222251">
		<tag k="highway" v="path" />
		<tag k="name" v="Kjærlighetsstien" />
		<tag k="ssr:stedsnr" v="57299" />
	</node>
	<node id="-158076" lat="59.7399166638" lon="10.1463972241">
		<tag k="bridge" v="yes" />
		<tag k="layer" v="1" />
		<tag k="name" v="Gosen" />
		<tag k="ssr:stedsnr" v="652185" />
	</node>
	<node id="-157688" lat="59.7438055575" lon="10.1599555585">
		<tag k="alt_name" v="Gulskogen" />
		<tag k="name" v="Gulskogen stasjon" />
		<tag k="railway" v="station" />
		<tag k="ssr:stedsnr" v="185358" />
		<tag k="train" v="yes" />
	</node>
	<node id="-157813" lat="59.7610722232" lon="10.1444416688">
		<tag k="highway" v="path" />
		<tag k="name" v="Ihleløypa" />
		<tag k="ssr:stedsnr" v="447597" />
	</node>
	<node id="-158227" lat="59.7179861073" lon="10.1490666625">
		<tag k="bridge" v="yes" />
		<tag k="layer" v="1" />
		<tag k="name" v="Konnerudsenteret" />
		<tag k="ssr:stedsnr" v="774219" />
	</node>
	<node id="-158120" lat="59.6941138848" lon="10.2146638846">
		<tag k="name" v="Grinda" />
		<tag k="place" v="locality" />
		<tag k="ssr:stedsnr" v="707292" />
	</node>
	<node id="-157548" lat="59.7022388863" lon="10.2570027732">
		<tag k="junction" v="yes" />
		<tag k="name" v="Eikhaug" />
		<tag k="place" v="locality" />
		<tag k="ssr:stedsnr" v="100232" />
	</node>
	<node id="-158004" lat="59.7211472192" lon="10.2270583323">
		<tag k="layer" v="-1" />
		<tag k="name" v="Kleivene" />
		<tag k="ssr:stedsnr" v="590279" />
		<tag k="tunnel" v="yes" />
	</node>
	<node id="-157669" lat="59.7313416658" lon="10.2250666664">
		<tag k="man_made" v="quay" />
		<tag k="name" v="Myrakaia" />
		<tag k="place" v="locality" />
		<tag k="ssr:stedsnr" v="176265" />
	</node>
	<node id="-157668" lat="59.7138722246" lon="10.2332805585">
		<tag k="bridge" v="yes" />
		<tag k="layer" v="1" />
		<tag k="name" v="Baserud" />
		<tag k="ssr:stedsnr" v="167211" />
	</node>
	<node id="-157410" lat="59.73542708" lon="10.2396853245">
		<tag k="landuse" v="harbour" />
		<tag k="name" v="Ballasthavna" />
		<tag k="seamark:type" v="harbour" />
		<tag k="ssr:stedsnr" v="986974" />
	</node>
	<node id="-157281" lat="59.7533277793" lon="10.1453750056">
		<tag k="bridge" v="yes" />
		<tag k="layer" v="1" />
		<tag k="name" v="Vårveien" />
		<tag k="ssr:stedsnr" v="349863" />
	</node>
	<node id="-157660" lat="59.6708027782" lon="10.1110416644">
		<tag k="highway" v="path" />
		<tag k="name" v="Gamle Gravdalsvei" />
		<tag k="ssr:stedsnr" v="163687" />
	</node>
	<node id="-158296" lat="59.7487527775" lon="10.2040277726">
		<tag k="highway" v="path" />
		<tag k="name" v="Almbumstien" />
		<tag k="ssr:stedsnr" v="848784" />
	</node>
	<node id="-157785" lat="59.7352194437" lon="10.2321277708">
		<tag k="man_made" v="quay" />
		<tag k="name" v="Holmen Øst-kaia" />
		<tag k="place" v="locality" />
		<tag k="ssr:stedsnr" v="419293" />
	</node>
	<node id="-157272" lat="59.7260138895" lon="10.2320194532">
		<tag k="highway" v="path" />
		<tag k="name" v="Fruestien" />
		<tag k="ssr:stedsnr" v="345070" />
	</node>
	<node id="-157924" lat="59.7323638857" lon="10.2231999937">
		<tag k="man_made" v="quay" />
		<tag k="name" v="Krankaia" />
		<tag k="place" v="locality" />
		<tag k="ssr:stedsnr" v="540278" />
	</node>
	<node id="-158008" lat="59.7137166675" lon="10.1600833308">
		<tag k="bridge" v="yes" />
		<tag k="layer" v="1" />
		<tag k="name" v="Svensedammen" />
		<tag k="ssr:stedsnr" v="591829" />
	</node>
	<node id="-157906" lat="59.7420472214" lon="10.2067055566">
		<tag k="man_made" v="quay" />
		<tag k="name" v="Nedre Bragernes kai" />
		<tag k="place" v="locality" />
		<tag k="ssr:stedsnr" v="526918" />
	</node>
	<node id="-158161" lat="59.7512138933" lon="10.2048111084">
		<tag k="highway" v="path" />
		<tag k="name" v="Oscarstien" />
		<tag k="ssr:stedsnr" v="726784" />
	</node>
	<node id="-158160" lat="59.7615638903" lon="10.1817722242">
		<tag k="highway" v="path" />
		<tag k="name" v="Overlia" />
		<tag k="ssr:stedsnr" v="726780" />
	</node>
	<node id="-158287" lat="59.7306500043" lon="10.2326527823">
		<tag k="alt_name" v="Tjørnekrankaia" />
		<tag k="man_made" v="quay" />
		<tag k="name" v="Tjømøkrankaia" />
		<tag k="place" v="locality" />
		<tag k="ssr:stedsnr" v="844269" />
	</node>
	<node id="-157518" lat="59.7631305566" lon="10.1802444365">
		<tag k="fixme" v="consider highway=path" />
		<tag k="highway" v="track" />
		<tag k="name" v="Thorleif Haugs vei" />
		<tag k="ssr:stedsnr" v="59755" />
	</node>
	<node id="-158285" lat="59.7426416648" lon="10.1277166727">
		<tag k="bridge" v="yes" />
		<tag k="layer" v="1" />
		<tag k="name" v="Pukerudveien" />
		<tag k="ssr:stedsnr" v="835845" />
	</node>
	<node id="-158284" lat="59.7166826485" lon="10.2219010545">
		<tag k="bridge" v="yes" />
		<tag k="layer" v="1" />
		<tag k="name" v="Fjeld" />
		<tag k="ssr:stedsnr" v="835218" />
	</node>
	<node id="-158283" lat="59.6943111124" lon="10.2490027796">
		<tag k="bridge" v="yes" />
		<tag k="layer" v="1" />
		<tag k="name" v="Eik" />
		<tag k="ssr:stedsnr" v="835207" />
	</node>
	<node id="-158282" lat="59.7314888851" lon="10.1835583415">
		<tag k="layer" v="-1" />
		<tag k="name" v="Strømsåstunnelen" />
		<tag k="ssr:stedsnr" v="832715" />
		<tag k="tunnel" v="yes" />
	</node>
	<node id="-157513" lat="59.7360472255" lon="10.2309666626">
		<tag k="man_made" v="quay" />
		<tag k="name" v="Tronstadkaia" />
		<tag k="place" v="locality" />
		<tag k="ssr:stedsnr" v="55282" />
	</node>
	<node id="-157512" lat="59.7335583308" lon="10.2214111194">
		<tag k="man_made" v="quay" />
		<tag k="name" v="Tollbukaia" />
		<tag k="place" v="locality" />
		<tag k="ssr:stedsnr" v="55280" />
	</node>
	<node id="-157511" lat="59.7299249965" lon="10.2232944509">
		<tag k="bridge" v="yes" />
		<tag k="layer" v="1" />
		<tag k="name" v="Rundtom" />
		<tag k="ssr:stedsnr" v="46849" />
	</node>
	<node id="-157510" lat="59.7415833369" lon="10.1345888802">
		<tag k="bridge" v="yes" />
		<tag k="layer" v="1" />
		<tag k="name" v="Kleggen" />
		<tag k="ssr:stedsnr" v="46214" />
	</node>
	<node id="-158149" lat="59.7392277809" lon="10.1992805559">
		<tag k="bridge" v="yes" />
		<tag k="layer" v="1" />
		<tag k="name" v="Museumsparken" />
		<tag k="ssr:stedsnr" v="713209" />
	</node>
	<node id="-158274" lat="59.7386249978" lon="10.1738833372">
		<tag k="landuse" v="industrial" />
		<tag k="name" v="Sundland trafo" />
		<tag k="power" v="plant" />
		<tag k="ssr:stedsnr" v="831008" />
	</node>
	<node id="-157304" lat="59.7438833361" lon="10.2331388973">
		<tag k="alt_name" v="Brakerøya" />
		<tag k="name" v="Brakerøya stasjon" />
		<tag k="railway" v="station" />
		<tag k="ssr:stedsnr" v="367311" />
		<tag k="train" v="yes" />
	</node>
	<node id="-158154" lat="59.7354666635" lon="10.2238638882">
		<tag k="man_made" v="quay" />
		<tag k="name" v="Holmen Syd-kaia" />
		<tag k="place" v="locality" />
		<tag k="ssr:stedsnr" v="722306" />
	</node>
	<node id="-157880" lat="59.725169447" lon="10.1279777733">
		<tag k="junction" v="yes" />
		<tag k="name" v="Skalstadkrysset" />
		<tag k="place" v="locality" />
		<tag k="ssr:stedsnr" v="508589" />
	</node>
	<node id="-158007" lat="59.7012722209" lon="10.2444722189">
		<tag k="bridge" v="yes" />
		<tag k="layer" v="1" />
		<tag k="name" v="Gråterud" />
		<tag k="ssr:stedsnr" v="591202" />
	</node>
	<node id="-158006" lat="59.7547333292" lon="10.1350277694">
		<tag k="bridge" v="yes" />
		<tag k="layer" v="1" />
		<tag k="name" v="Farmen" />
		<tag k="ssr:stedsnr" v="591199" />
	</node>
	<node id="-158005" lat="59.7086388846" lon="10.1621888863">
		<tag k="bridge" v="yes" />
		<tag k="layer" v="1" />
		<tag k="name" v="Dambråten" />
		<tag k="ssr:stedsnr" v="591190" />
	</node>
	<node id="-157236" lat="59.7257444407" lon="10.0972305531">
		<tag k="amenity" v="parking" />
		<tag k="name" v="Olsrud parkeringsplass" />
		<tag k="ssr:stedsnr" v="301840" />
	</node>
	<node id="-158385" lat="59.7307583324" lon="10.2279777808">
		<tag k="man_made" v="quay" />
		<tag k="name" v="Langbrygga" />
		<tag k="place" v="locality" />
		<tag k="ssr:stedsnr" v="965311" />
	</node>
	<node id="-158383" lat="59.7110972222" lon="10.1610694496">
		<tag k="bridge" v="yes" />
		<tag k="layer" v="1" />
		<tag k="name" v="Sletta" />
		<tag k="ssr:stedsnr" v="956841" />
	</node>
	<node id="-157358" lat="59.7121388886" lon="10.1595111043">
		<tag k="bridge" v="yes" />
		<tag k="layer" v="1" />
		<tag k="name" v="Verkselva" />
		<tag k="ssr:stedsnr" v="410839" />
	</node>
	<node id="-157357" lat="59.7377250003" lon="10.1877361169">
		<tag k="bridge" v="yes" />
		<tag k="layer" v="1" />
		<tag k="name" v="Konnerudgata" />
		<tag k="ssr:stedsnr" v="410201" />
	</node>
	<node id="-157228" lat="59.7502222183" lon="10.2072833316">
		<tag k="fixme" v="consider highway=path" />
		<tag k="highway" v="track" />
		<tag k="name" v="Wulfsbergchausséen" />
		<tag k="ssr:stedsnr" v="301804" />
	</node>
	<node id="-157227" lat="59.752383329" lon="10.2106888898">
		<tag k="highway" v="path" />
		<tag k="name" v="Køpckes vei" />
		<tag k="ssr:stedsnr" v="301801" />
	</node>
	<node id="-157738" lat="59.709199998" lon="10.1561277841">
		<tag k="bridge" v="yes" />
		<tag k="layer" v="1" />
		<tag k="name" v="Jordbrekktråkket" />
		<tag k="ssr:stedsnr" v="228209" />
	</node>
	<node id="-157480" lat="59.6754277769" lon="10.2889027837">
		<tag k="highway" v="path" />
		<tag k="name" v="Korsveien" />
		<tag k="ssr:stedsnr" v="40680" />
	</node>
	<node id="-157861" lat="59.7555277787" lon="10.2084888889">
		<tag k="highway" v="path" />
		<tag k="name" v="Oscarstien" />
		<tag k="ssr:stedsnr" v="483835" />
	</node>
	<node id="-158150" lat="59.6842136794" lon="10.2452144195">
		<tag k="bridge" v="yes" />
		<tag k="layer" v="1" />
		<tag k="name" v="Gundesølina bru" />
		<tag k="ssr:stedsnr" v="713213" />
	</node>
	<node id="-157218" lat="59.7436638894" lon="10.1150027866">
		<tag k="bridge" v="yes" />
		<tag k="layer" v="1" />
		<tag k="name" v="Langum" />
		<tag k="ssr:stedsnr" v="289197" />
	</node>
	<node id="-157509" lat="59.7430361079" lon="10.2277111173">
		<tag k="layer" v="-1" />
		<tag k="name" v="Bragernestunnelen" />
		<tag k="ssr:stedsnr" v="44114" />
		<tag k="tunnel" v="yes" />
	</node>
	<node id="-157596" lat="59.7509333297" lon="10.2070416618">
		<tag k="fixme" v="consider highway=path" />
		<tag k="highway" v="track" />
		<tag k="name" v="Overingeniør Walters vei" />
		<tag k="ssr:stedsnr" v="119827" />
	</node>
	<node id="-157595" lat="59.7504638886" lon="10.2112805511">
		<tag k="fixme" v="consider highway=path" />
		<tag k="highway" v="track" />
		<tag k="name" v="Skarveien" />
		<tag k="ssr:stedsnr" v="119825" />
	</node>
	<node id="-158153" lat="59.7331027741" lon="10.2345749932">
		<tag k="man_made" v="quay" />
		<tag k="name" v="Risgardkaia" />
		<tag k="place" v="locality" />
		<tag k="ssr:stedsnr" v="722304" />
	</node>
	<node id="-158381" lat="59.6801194459" lon="10.2490583312">
		<tag k="bridge" v="yes" />
		<tag k="layer" v="1" />
		<tag k="name" v="Sagatun" />
		<tag k="ssr:stedsnr" v="956835" />
	</node>
	<node id="-158382" lat="59.6688722189" lon="10.2393111082">
		<tag k="bridge" v="yes" />
		<tag k="layer" v="1" />
		<tag k="name" v="Unnelsrudlina" />
		<tag k="ssr:stedsnr" v="956839" />
	</node>
	<node id="-158226" lat="59.715649998" lon="10.1578999963">
		<tag k="bridge" v="yes" />
		<tag k="layer" v="1" />
		<tag k="name" v="Konneruddumpa" />
		<tag k="ssr:stedsnr" v="774217" />
	</node>
	<node id="-157583" lat="59.6843083299" lon="10.2067666636">
		<tag k="bridge" v="yes" />
		<tag k="layer" v="1" />
		<tag k="name" v="Skoger" />
		<tag k="ssr:stedsnr" v="107853" />
	</node>
	<node id="-157582" lat="59.7381083334" lon="10.2010805505">
		<tag k="bridge" v="yes" />
		<tag k="layer" v="1" />
		<tag k="name" v="Flisebekken" />
		<tag k="ssr:stedsnr" v="107189" />
	</node>
	<node id="-157581" lat="59.7576611127" lon="10.1128472309">
		<tag k="bridge" v="yes" />
		<tag k="layer" v="1" />
		<tag k="name" v="Chr. Hornsrud" />
		<tag k="ssr:stedsnr" v="107180" />
	</node>
	<node id="-158018" lat="59.7528055553" lon="10.2184111024">
		<tag k="highway" v="path" />
		<tag k="name" v="Fagerhøyveien" />
		<tag k="ssr:stedsnr" v="604819" />
	</node>
	<node id="-158089" lat="59.7403583294" lon="10.1485027743">
		<tag k="fixme" v="consider highway=path" />
		<tag k="highway" v="track" />
		<tag k="name" v="Rødtråkket" />
		<tag k="ssr:stedsnr" v="665857" />
	</node>
	<node id="-157932" lat="59.7520611127" lon="10.1985222143">
		<tag k="fixme" v="consider highway=path" />
		<tag k="highway" v="track" />
		<tag k="name" v="Thurmanns vei" />
		<tag k="ssr:stedsnr" v="544769" />
	</node>
	<node id="-157573" lat="59.7404527772" lon="10.2032500047">
		<tag k="alt_name" v="Drammen jernbanestasjon" />
		<tag k="name" v="Drammen stasjon" />
		<tag k="railway" v="station" />
		<tag k="ssr:stedsnr" v="102651" />
		<tag k="train" v="yes" />
	</node>
</osm>
