<?xml version="1.0" encoding="UTF-8"?>
<osm generator="osmapis" version="0.6">
	<node id="-157696" lat="59.7691805566" lon="10.1484749912">
		<tag k="name" v="Åsheim" />
		<tag k="place" v="isolated_dwelling" />
		<tag k="ssr:stedsnr" v="204716" />
	</node>
	<node id="-157694" lat="59.7824611155" lon="10.1442972183">
		<tag k="name" v="Skauro" />
		<tag k="place" v="farm" />
		<tag k="ssr:stedsnr" v="204701" />
	</node>
	<node id="-157693" lat="59.7569888864" lon="10.131052781">
		<tag k="amenity" v="school" />
		<tag k="name" v="Kjøsterud ungdomskole" />
		<tag k="ssr:stedsnr" v="204572" />
	</node>
	<node id="-157692" lat="59.7275777768" lon="10.2008138909">
		<tag k="name" v="Berskau" />
		<tag k="place" v="quarter" />
		<tag k="ssr:stedsnr" v="204552" />
	</node>
	<node id="-157691" lat="59.7310972189" lon="10.124572227">
		<tag k="name" v="Hornvoll" />
		<tag k="place" v="farm" />
		<tag k="ssr:stedsnr" v="204486" />
	</node>
	<node id="-157690" lat="59.7295666627" lon="10.1159500083">
		<tag k="name" v="Kikut" />
		<tag k="place" v="farm" />
		<tag k="ssr:stedsnr" v="204457" />
	</node>
	<node id="-157687" lat="59.7091111122" lon="10.1463583324">
		<tag k="alt_name" v="Svendsrud" />
		<tag k="name" v="Svensrud" />
		<tag k="place" v="farm" />
		<tag k="ssr:stedsnr" v="185293" />
	</node>
	<node id="-157683" lat="59.6830361126" lon="10.2337916714">
		<tag k="fixme" v="consider place=hamlet" />
		<tag k="name" v="Gunnarsrud" />
		<tag k="place" v="farm" />
		<tag k="ssr:stedsnr" v="185231" />
	</node>
	<node id="-157681" lat="59.6926723028" lon="10.1701798446">
		<tag k="fixme" v="consider place=hamlet" />
		<tag k="name" v="Jordbrekke" />
		<tag k="place" v="farm" />
		<tag k="ssr:stedsnr" v="185175" />
	</node>
	<node id="-157680" lat="59.6876388921" lon="10.1348499966">
		<tag k="fixme" v="consider place=hamlet" />
		<tag k="name" v="Åserud" />
		<tag k="place" v="farm" />
		<tag k="ssr:stedsnr" v="185171" />
	</node>
	<node id="-157679" lat="59.6871111096" lon="10.1261388938">
		<tag k="name" v="Andorsrud" />
		<tag k="place" v="farm" />
		<tag k="ssr:stedsnr" v="185170" />
	</node>
	<node id="-157676" lat="59.7512305574" lon="10.1281611171">
		<tag k="name" v="Berskog" />
		<tag k="place" v="farm" />
		<tag k="ssr:stedsnr" v="180221" />
	</node>
	<node id="-157675" lat="59.7269250015" lon="10.2505666721">
		<tag k="building" v="industrial" />
		<tag k="industrial" v="factory" />
		<tag k="name" v="Drammen Jernstøperi" />
		<tag k="ssr:stedsnr" v="179153" />
	</node>
	<node id="-157673" lat="59.7056083315" lon="10.2388416645">
		<tag k="name" v="Åsheim" />
		<tag k="place" v="isolated_dwelling" />
		<tag k="ssr:stedsnr" v="178435" />
	</node>
	<node id="-157671" lat="59.7226361138" lon="10.1531222192">
		<tag k="name" v="Fredholt" />
		<tag k="place" v="locality" />
		<tag k="ssr:stedsnr" v="178428" />
	</node>
	<node id="-157670" lat="59.7162388873" lon="10.1242638819">
		<tag k="name" v="Gurihaugen" />
		<tag k="place" v="isolated_dwelling" />
		<tag k="ssr:stedsnr" v="178318" />
	</node>
	<node id="-157659" lat="59.6710500022" lon="10.2399805558">
		<tag k="name" v="Nedre Unnelsrud" />
		<tag k="place" v="farm" />
		<tag k="ssr:stedsnr" v="163681" />
	</node>
	<node id="-157657" lat="59.6663555589" lon="10.2232444372">
		<tag k="name" v="Bekkheim" />
		<tag k="place" v="isolated_dwelling" />
		<tag k="ssr:stedsnr" v="163669" />
	</node>
	<node id="-157656" lat="59.7965416633" lon="10.1201083414">
		<tag k="fixme" v="consider tourism=alpine_hut or tourism=chalet" />
		<tag k="name" v="Goliaten" />
		<tag k="ssr:stedsnr" v="163512" />
		<tag k="tourism" v="wilderness_hut" />
	</node>
	<node id="-157655" lat="59.771116664" lon="10.1575722204">
		<tag k="name" v="Myrhaug" />
		<tag k="place" v="isolated_dwelling" />
		<tag k="ssr:stedsnr" v="163182" />
	</node>
	<node id="-157651" lat="59.7801305518" lon="10.164011113">
		<tag k="name" v="Granli" />
		<tag k="place" v="isolated_dwelling" />
		<tag k="ssr:stedsnr" v="163129" />
	</node>
	<node id="-157650" lat="59.7756916654" lon="10.1685222262">
		<tag k="name" v="Stupet" />
		<tag k="place" v="isolated_dwelling" />
		<tag k="ssr:stedsnr" v="163130" />
	</node>
	<node id="-157649" lat="59.7743194431" lon="10.1590361087">
		<tag k="name" v="Kveldsro" />
		<tag k="place" v="isolated_dwelling" />
		<tag k="ssr:stedsnr" v="163127" />
	</node>
	<node id="-157647" lat="59.7082333341" lon="10.2366972166">
		<tag k="name" v="Dalbo" />
		<tag k="place" v="isolated_dwelling" />
		<tag k="ssr:stedsnr" v="163041" />
	</node>
	<node id="-157646" lat="59.8012527822" lon="10.1311861173">
		<tag k="name" v="Tjuvtjernsheia" />
		<tag k="place" v="isolated_dwelling" />
		<tag k="ssr:stedsnr" v="163025" />
	</node>
	<node id="-157644" lat="59.7331638869" lon="10.2058861066">
		<tag k="alt_name" v="Strømsø sykehjem" />
		<tag k="amenity" v="nursing_home" />
		<tag k="name" v="Strømsø bo- og servicesenter" />
		<tag k="ssr:stedsnr" v="162622" />
	</node>
	<node id="-157641" lat="59.7205694478" lon="10.2661888823">
		<tag k="building" v="industrial" />
		<tag k="industrial" v="factory" />
		<tag k="name" v="Drammen glassverk" />
		<tag k="ssr:stedsnr" v="161706" />
	</node>
	<node id="-157639" lat="59.6923916689" lon="10.1549083302">
		<tag k="name" v="Søndre Imjelt" />
		<tag k="place" v="farm" />
		<tag k="ssr:stedsnr" v="161549" />
	</node>
	<node id="-157637" lat="59.7168111146" lon="10.0917111123">
		<tag k="amenity" v="cafe" />
		<tag k="name" v="Skjoldhytta" />
		<tag k="ssr:stedsnr" v="161349" />
	</node>
	<node id="-157636" lat="59.7100277781" lon="10.1283194417">
		<tag k="name" v="Rolighet" />
		<tag k="place" v="isolated_dwelling" />
		<tag k="ssr:stedsnr" v="161347" />
	</node>
	<node id="-157635" lat="59.7000055583" lon="10.2530805479">
		<tag k="name" v="Eikhagen" />
		<tag k="place" v="isolated_dwelling" />
		<tag k="ssr:stedsnr" v="161278" />
	</node>
	<node id="-157634" lat="59.7018972211" lon="10.2334972259">
		<tag k="name" v="Gjerpen" />
		<tag k="place" v="farm" />
		<tag k="ssr:stedsnr" v="161277" />
	</node>
	<node id="-157633" lat="59.7019694447" lon="10.2408555629">
		<tag k="name" v="Gunnerud" />
		<tag k="place" v="isolated_dwelling" />
		<tag k="ssr:stedsnr" v="161276" />
	</node>
	<node id="-157632" lat="59.6975944432" lon="10.2514805588">
		<tag k="name" v="Espebo" />
		<tag k="place" v="isolated_dwelling" />
		<tag k="ssr:stedsnr" v="161275" />
	</node>
	<node id="-157631" lat="59.6915027753" lon="10.3179083361">
		<tag k="name" v="Solstrand" />
		<tag k="place" v="isolated_dwelling" />
		<tag k="ssr:stedsnr" v="161272" />
	</node>
	<node id="-157630" lat="59.6898722266" lon="10.2727583301">
		<tag k="name" v="Østengen" />
		<tag k="place" v="locality" />
		<tag k="ssr:stedsnr" v="161262" />
	</node>
	<node id="-157624" lat="59.7521444404" lon="10.1249694468">
		<tag k="name" v="Berskog" />
		<tag k="place" v="farm" />
		<tag k="ssr:stedsnr" v="143585" />
	</node>
	<node id="-157622" lat="59.7249444447" lon="10.1408888941">
		<tag k="name" v="Torrudbråten" />
		<tag k="place" v="farm" />
		<tag k="ssr:stedsnr" v="143547" />
	</node>
	<node id="-157621" lat="59.7299166703" lon="10.1263805481">
		<tag k="name" v="Konnerud" />
		<tag k="place" v="farm" />
		<tag k="ssr:stedsnr" v="143538" />
	</node>
	<node id="-157620" lat="59.7332666651" lon="10.1241666586">
		<tag k="name" v="Helnora" />
		<tag k="place" v="farm" />
		<tag k="ssr:stedsnr" v="143532" />
	</node>
	<node id="-157618" lat="59.7283805515" lon="10.120355564">
		<tag k="name" v="Eskerud" />
		<tag k="place" v="farm" />
		<tag k="ssr:stedsnr" v="143515" />
	</node>
	<node id="-157615" lat="59.7035999977" lon="10.258913896">
		<tag k="alt_name" v="Loland" />
		<tag k="name" v="Låland" />
		<tag k="place" v="farm" />
		<tag k="ssr:stedsnr" v="124250" />
	</node>
	<node id="-157614" lat="59.7137249997" lon="10.1257527702">
		<tag k="name" v="Kollerud" />
		<tag k="place" v="farm" />
		<tag k="ssr:stedsnr" v="124247" />
	</node>
	<node id="-157609" lat="59.6946750026" lon="10.3014388853">
		<tag k="alt_name" v="Kollfuru" />
		<tag k="name" v="Kolfuru" />
		<tag k="place" v="farm" />
		<tag k="ssr:stedsnr" v="124183" />
	</node>
	<node id="-157607" lat="59.6909555553" lon="10.233816674">
		<tag k="name" v="Øvre Gulliksrud" />
		<tag k="place" v="farm" />
		<tag k="ssr:stedsnr" v="124170" />
	</node>
	<node id="-157606" lat="59.6858555527" lon="10.0799000055">
		<tag k="name" v="Heia" />
		<tag k="place" v="isolated_dwelling" />
		<tag k="ssr:stedsnr" v="124167" />
	</node>
	<node id="-157601" lat="59.7426305571" lon="10.2095555541">
		<tag k="name" v="Grev Wedelss plass" />
		<tag k="place" v="square" />
		<tag k="ssr:stedsnr" v="119859" />
	</node>
	<node id="-157593" lat="59.7392027744" lon="10.1914444469">
		<tag k="name" v="Marcus Thranes plass" />
		<tag k="place" v="square" />
		<tag k="ssr:stedsnr" v="119816" />
	</node>
	<node id="-157590" lat="59.7148166673" lon="10.1557333381">
		<tag k="name" v="Klemmetsrud" />
		<tag k="place" v="farm" />
		<tag k="ssr:stedsnr" v="118406" />
	</node>
	<node id="-157589" lat="59.7167472184" lon="10.1258249954">
		<tag k="name" v="Hallingrud" />
		<tag k="place" v="isolated_dwelling" />
		<tag k="ssr:stedsnr" v="118337" />
	</node>
	<node id="-157588" lat="59.7173111102" lon="10.1230194424">
		<tag k="name" v="Døleplassen" />
		<tag k="place" v="farm" />
		<tag k="ssr:stedsnr" v="118335" />
	</node>
	<node id="-157584" lat="59.7305027757" lon="10.2398500002">
		<tag k="building" v="industrial" />
		<tag k="industrial" v="factory" />
		<tag k="name" v="Drammen Slip &amp; Verksted" />
		<tag k="ssr:stedsnr" v="118125" />
	</node>
	<node id="-157580" lat="59.7461249978" lon="10.1966194441">
		<tag k="leisure" v="park" />
		<tag k="name" v="Parken" />
		<tag k="ssr:stedsnr" v="103825" />
	</node>
	<node id="-157579" lat="59.7438972251" lon="10.2045305505">
		<tag k="name" v="Bragernes torg" />
		<tag k="place" v="square" />
		<tag k="ssr:stedsnr" v="103819" />
	</node>
	<node id="-157578" lat="59.6795750024" lon="10.0648916602">
		<tag k="name" v="Rønnebuvillaen" />
		<tag k="place" v="isolated_dwelling" />
		<tag k="ssr:stedsnr" v="103793" />
	</node>
	<node id="-157575" lat="59.6661944423" lon="10.2231666731">
		<tag k="name" v="Bakken" />
		<tag k="place" v="isolated_dwelling" />
		<tag k="ssr:stedsnr" v="103673" />
	</node>
	<node id="-157572" lat="59.7693222182" lon="10.152524999">
		<tag k="name" v="Fjellheim" />
		<tag k="place" v="isolated_dwelling" />
		<tag k="ssr:stedsnr" v="102215" />
	</node>
	<node id="-157571" lat="59.7907916636" lon="10.1587694527">
		<tag k="name" v="Fjellheimen" />
		<tag k="place" v="isolated_dwelling" />
		<tag k="ssr:stedsnr" v="102209" />
	</node>
	<node id="-157570" lat="59.7854472189" lon="10.1640555552">
		<tag k="name" v="Lynghaug" />
		<tag k="place" v="isolated_dwelling" />
		<tag k="ssr:stedsnr" v="102143" />
	</node>
	<node id="-157567" lat="59.708291667" lon="10.2248083305">
		<tag k="name" v="Solgløtt" />
		<tag k="place" v="isolated_dwelling" />
		<tag k="ssr:stedsnr" v="102043" />
	</node>
	<node id="-157566" lat="59.7112361085" lon="10.2257694393">
		<tag k="name" v="Søndre Flell platå" />
		<tag k="place" v="quarter" />
		<tag k="ssr:stedsnr" v="102038" />
	</node>
	<node id="-157565" lat="59.7069583319" lon="10.2377527733">
		<tag k="name" v="Veslehøyda" />
		<tag k="place" v="isolated_dwelling" />
		<tag k="ssr:stedsnr" v="102023" />
	</node>
	<node id="-157563" lat="59.6875972204" lon="10.1236750066">
		<tag k="leisure" v="pitch" />
		<tag k="name" v="Andorsrudbakken" />
		<tag k="ssr:stedsnr" v="101666" />
	</node>
	<node id="-157562" lat="59.6878527786" lon="10.1784111114">
		<tag k="name" v="Nordre Flåtan" />
		<tag k="place" v="farm" />
		<tag k="ssr:stedsnr" v="101592" />
	</node>
	<node id="-157561" lat="59.695861108" lon="10.2045805621">
		<tag k="name" v="Mælen" />
		<tag k="place" v="farm" />
		<tag k="ssr:stedsnr" v="101585" />
	</node>
	<node id="-157558" lat="59.6955138932" lon="10.2993027814">
		<tag k="name" v="Kjærsbråten" />
		<tag k="place" v="isolated_dwelling" />
		<tag k="ssr:stedsnr" v="100341" />
	</node>
	<node id="-157556" lat="59.7115694467" lon="10.127447224">
		<tag k="name" v="Stormli" />
		<tag k="place" v="isolated_dwelling" />
		<tag k="ssr:stedsnr" v="100329" />
	</node>
	<node id="-157554" lat="59.7152333374" lon="10.124513895">
		<tag k="name" v="Bergheim" />
		<tag k="place" v="isolated_dwelling" />
		<tag k="ssr:stedsnr" v="100320" />
	</node>
	<node id="-157553" lat="59.6881583309" lon="10.2207527688">
		<tag k="name" v="Sollia" />
		<tag k="place" v="isolated_dwelling" />
		<tag k="ssr:stedsnr" v="100272" />
	</node>
	<node id="-157552" lat="59.6837472214" lon="10.2092611085">
		<tag k="name" v="Holt" />
		<tag k="place" v="farm" />
		<tag k="ssr:stedsnr" v="100273" />
	</node>
	<node id="-157551" lat="59.6915083334" lon="10.253224993">
		<tag k="name" v="Gundstad" />
		<tag k="place" v="isolated_dwelling" />
		<tag k="ssr:stedsnr" v="100266" />
	</node>
	<node id="-157550" lat="59.6863777789" lon="10.2228361059">
		<tag k="name" v="Ingvaldsåsen" />
		<tag k="place" v="farm" />
		<tag k="ssr:stedsnr" v="100257" />
	</node>
	<node id="-157549" lat="59.700544443" lon="10.2292361149">
		<tag k="name" v="Fjellhvil" />
		<tag k="place" v="isolated_dwelling" />
		<tag k="ssr:stedsnr" v="100237" />
	</node>
	<node id="-157546" lat="59.7534388883" lon="10.1164361091">
		<tag k="name" v="Fiskerud" />
		<tag k="place" v="farm" />
		<tag k="ssr:stedsnr" v="83910" />
	</node>
	<node id="-157542" lat="59.7262805537" lon="10.1265027857">
		<tag k="building" v="industrial" />
		<tag k="industrial" v="factory" />
		<tag k="name" v="TEPA" />
		<tag k="ssr:stedsnr" v="83507" />
	</node>
	<node id="-157540" lat="59.7309000018" lon="10.1052305629">
		<tag k="name" v="Solbo" />
		<tag k="place" v="farm" />
		<tag k="ssr:stedsnr" v="83503" />
	</node>
	<node id="-157539" lat="59.7844499986" lon="10.1381249971">
		<tag k="name" v="Steinkjerringa" />
		<tag k="place" v="isolated_dwelling" />
		<tag k="ssr:stedsnr" v="65122" />
	</node>
	<node id="-157535" lat="59.7141527814" lon="10.1465555567">
		<tag k="name" v="Torsberg" />
		<tag k="place" v="farm" />
		<tag k="ssr:stedsnr" v="64297" />
	</node>
	<node id="-157533" lat="59.6796999984" lon="10.2017555521">
		<tag k="name" v="Holt" />
		<tag k="place" v="farm" />
		<tag k="ssr:stedsnr" v="64239" />
	</node>
	<node id="-157532" lat="59.6860378343" lon="10.2686104953">
		<tag k="fixme" v="consider place=hamlet" />
		<tag k="name" v="Bakke" />
		<tag k="place" v="farm" />
		<tag k="ssr:stedsnr" v="64230" />
	</node>
	<node id="-157530" lat="59.674883329" lon="10.2785583384">
		<tag k="name" v="Knutestulen" />
		<tag k="place" v="isolated_dwelling" />
		<tag k="ssr:stedsnr" v="64211" />
	</node>
	<node id="-157529" lat="59.6847104654" lon="10.2095072919">
		<tag k="fixme" v="consider place=hamlet" />
		<tag k="name" v="Stein" />
		<tag k="place" v="farm" />
		<tag k="ssr:stedsnr" v="64193" />
	</node>
	<node id="-157526" lat="59.7511555537" lon="10.1377666681">
		<tag k="name" v="Myre" />
		<tag k="old_name" v="Myra" />
		<tag k="place" v="farm" />
		<tag k="ssr:stedsnr" v="64078" />
	</node>
	<node id="-157525" lat="59.6996249981" lon="10.2393416664">
		<tag k="name" v="Gunnerud" />
		<tag k="place" v="farm" />
		<tag k="ssr:stedsnr" v="63221" />
	</node>
	<node id="-157524" lat="59.6974861086" lon="10.1636472291">
		<tag k="name" v="Svingen" />
		<tag k="place" v="hamlet" />
		<tag k="ssr:stedsnr" v="63217" />
	</node>
	<node id="-157519" lat="59.7447333296" lon="10.1997555575">
		<tag k="name" v="Gamle kirkeplass" />
		<tag k="place" v="square" />
		<tag k="ssr:stedsnr" v="59774" />
	</node>
	<node id="-157517" lat="59.7521888865" lon="10.1704250055">
		<tag k="amenity" v="school" />
		<tag k="name" v="Øren skole" />
		<tag k="ssr:stedsnr" v="59751" />
	</node>
	<node id="-157507" lat="59.6746861147" lon="10.2598777852">
		<tag k="name" v="Berghall" />
		<tag k="place" v="isolated_dwelling" />
		<tag k="ssr:stedsnr" v="42709" />
	</node>
	<node id="-157506" lat="59.6769499971" lon="10.2589138921">
		<tag k="name" v="Granli" />
		<tag k="place" v="farm" />
		<tag k="ssr:stedsnr" v="42699" />
	</node>
	<node id="-157505" lat="59.6706888865" lon="10.2123583325">
		<tag k="name" v="Gata" />
		<tag k="place" v="isolated_dwelling" />
		<tag k="ssr:stedsnr" v="42655" />
	</node>
	<node id="-157504" lat="59.6665194424" lon="10.2183333282">
		<tag k="name" v="Bjørnerudkroken" />
		<tag k="place" v="hamlet" />
		<tag k="ssr:stedsnr" v="42648" />
	</node>
	<node id="-157503" lat="59.6669861105" lon="10.2172861053">
		<tag k="name" v="Nygård" />
		<tag k="place" v="farm" />
		<tag k="ssr:stedsnr" v="42644" />
	</node>
	<node id="-157502" lat="59.7879916672" lon="10.1658527733">
		<tag k="name" v="Furuhaug" />
		<tag k="place" v="isolated_dwelling" />
		<tag k="ssr:stedsnr" v="41142" />
	</node>
	<node id="-157501" lat="59.7754583344" lon="10.1652750027">
		<tag k="name" v="Granbu" />
		<tag k="place" v="isolated_dwelling" />
		<tag k="ssr:stedsnr" v="41137" />
	</node>
	<node id="-157496" lat="59.7091638886" lon="10.227419448">
		<tag k="name" v="Lynghaugen" />
		<tag k="place" v="isolated_dwelling" />
		<tag k="ssr:stedsnr" v="41046" />
	</node>
	<node id="-157495" lat="59.7335805549" lon="10.2025222255">
		<tag k="amenity" v="school" />
		<tag k="name" v="Marienlyst ungdomsskole" />
		<tag k="ssr:stedsnr" v="41007" />
	</node>
	<node id="-157494" lat="59.7691555517" lon="10.1812944513">
		<tag k="name" v="Furuheim" />
		<tag k="place" v="isolated_dwelling" />
		<tag k="ssr:stedsnr" v="41193" />
	</node>
	<node id="-157492" lat="59.7190944462" lon="10.2562138935">
		<tag k="name" v="Kopperud" />
		<tag k="place" v="isolated_dwelling" />
		<tag k="ssr:stedsnr" v="40779" />
	</node>
	<node id="-157491" lat="59.7429638897" lon="10.2356138805">
		<tag k="name" v="Brakerøya" />
		<tag k="place" v="quarter" />
		<tag k="ssr:stedsnr" v="40920" />
	</node>
	<node id="-157488" lat="59.6881666673" lon="10.1211555534">
		<tag k="name" v="Åsstuen" />
		<tag k="place" v="isolated_dwelling" />
		<tag k="ssr:stedsnr" v="40723" />
	</node>
	<node id="-157487" lat="59.6833805601" lon="10.1282944393">
		<tag k="name" v="Hemsedal" />
		<tag k="place" v="locality" />
		<tag k="ssr:stedsnr" v="40706" />
	</node>
	<node id="-157486" lat="59.6874500034" lon="10.2002111053">
		<tag k="name" v="Løyse" />
		<tag k="place" v="farm" />
		<tag k="ssr:stedsnr" v="40599" />
	</node>
	<node id="-157485" lat="59.6921027743" lon="10.171136111">
		<tag k="name" v="Jordbrekk" />
		<tag k="place" v="farm" />
		<tag k="ssr:stedsnr" v="40596" />
	</node>
	<node id="-157484" lat="59.6973388933" lon="10.1682083263">
		<tag k="name" v="Solheim" />
		<tag k="place" v="farm" />
		<tag k="ssr:stedsnr" v="40584" />
	</node>
	<node id="-157483" lat="59.6878138898" lon="10.1349805585">
		<tag k="name" v="Vestre Åserud" />
		<tag k="place" v="farm" />
		<tag k="ssr:stedsnr" v="40689" />
	</node>
	<node id="-157482" lat="59.6881138859" lon="10.1336388811">
		<tag k="name" v="Vestre Åserud" />
		<tag k="place" v="farm" />
		<tag k="ssr:stedsnr" v="40687" />
	</node>
	<node id="-157481" lat="59.6860750018" lon="10.1252944375">
		<tag k="name" v="Andorsrud" />
		<tag k="place" v="hamlet" />
		<tag k="ssr:stedsnr" v="40685" />
	</node>
	<node id="-157476" lat="59.7147527735" lon="10.0876083409">
		<tag k="name" v="Harestua" />
		<tag k="place" v="isolated_dwelling" />
		<tag k="ssr:stedsnr" v="39298" />
	</node>
	<node id="-157474" lat="59.7127055586" lon="10.1291555609">
		<tag k="name" v="Kroklia" />
		<tag k="place" v="isolated_dwelling" />
		<tag k="ssr:stedsnr" v="39295" />
	</node>
	<node id="-157473" lat="59.7144527812" lon="10.1305666744">
		<tag k="name" v="Dalen" />
		<tag k="place" v="quarter" />
		<tag k="ssr:stedsnr" v="39290" />
	</node>
	<node id="-157472" lat="59.7139499983" lon="10.1419972162">
		<tag k="name" v="Sevaldsrud" />
		<tag k="place" v="farm" />
		<tag k="ssr:stedsnr" v="39291" />
	</node>
	<node id="-157471" lat="59.6931166631" lon="10.2292305485">
		<tag k="name" v="Solli" />
		<tag k="place" v="isolated_dwelling" />
		<tag k="ssr:stedsnr" v="39234" />
	</node>
	<node id="-157469" lat="59.6942444445" lon="10.25155">
		<tag k="name" v="Nedre Eik" />
		<tag k="place" v="farm" />
		<tag k="ssr:stedsnr" v="39223" />
	</node>
	<node id="-157467" lat="59.7010944422" lon="10.2309083277">
		<tag k="name" v="Vibo" />
		<tag k="place" v="isolated_dwelling" />
		<tag k="ssr:stedsnr" v="39213" />
	</node>
	<node id="-157466" lat="59.6980111069" lon="10.2426833419">
		<tag k="name" v="Bekkely" />
		<tag k="place" v="isolated_dwelling" />
		<tag k="ssr:stedsnr" v="39210" />
	</node>
	<node id="-157465" lat="59.690250004" lon="10.2671777847">
		<tag k="name" v="Lindum" />
		<tag k="place" v="farm" />
		<tag k="ssr:stedsnr" v="39203" />
	</node>
	<node id="-157464" lat="59.6977972235" lon="10.2509722144">
		<tag k="name" v="Eikbakken" />
		<tag k="place" v="isolated_dwelling" />
		<tag k="ssr:stedsnr" v="39201" />
	</node>
	<node id="-157462" lat="59.6912527801" lon="10.3185222209">
		<tag k="name" v="Tørkopp" />
		<tag k="place" v="isolated_dwelling" />
		<tag k="ssr:stedsnr" v="28392" />
	</node>
	<node id="-157461" lat="59.7293527736" lon="10.2246027864">
		<tag k="name" v="Rundtom" />
		<tag k="place" v="suburb" />
		<tag k="ssr:stedsnr" v="26411" />
	</node>
	<node id="-157458" lat="59.7826750001" lon="10.1430666717">
		<tag k="name" v="Furubakken" />
		<tag k="place" v="farm" />
		<tag k="ssr:stedsnr" v="22720" />
	</node>
	<node id="-157457" lat="59.7814305587" lon="10.1446249953">
		<tag k="name" v="Åsro" />
		<tag k="place" v="farm" />
		<tag k="ssr:stedsnr" v="22718" />
	</node>
	<node id="-157456" lat="59.7566416693" lon="10.1239472268">
		<tag k="building" v="commercial" />
		<tag k="name" v="Ligo" />
		<tag k="ssr:stedsnr" v="22599" />
	</node>
	<node id="-157455" lat="59.7296555526" lon="10.1275583367">
		<tag k="name" v="Bråten" />
		<tag k="place" v="farm" />
		<tag k="ssr:stedsnr" v="22541" />
	</node>
	<node id="-157453" lat="59.7252277808" lon="10.0938944413">
		<tag k="name" v="Damstua" />
		<tag k="place" v="farm" />
		<tag k="ssr:stedsnr" v="22510" />
	</node>
	<node id="-157452" lat="59.7278777779" lon="10.0958388832">
		<tag k="name" v="Stubberud" />
		<tag k="place" v="farm" />
		<tag k="ssr:stedsnr" v="22507" />
	</node>
	<node id="-157449" lat="59.7419333316" lon="10.1420083417">
		<tag k="name" v="Gosen" />
		<tag k="place" v="quarter" />
		<tag k="ssr:stedsnr" v="3330" />
	</node>
	<node id="-157447" lat="59.7177777813" lon="10.0865333379">
		<tag k="name" v="Kinnerud" />
		<tag k="place" v="farm" />
		<tag k="ssr:stedsnr" v="3271" />
	</node>
	<node id="-157444" lat="59.6769555572" lon="10.200633342">
		<tag k="name" v="Vestby" />
		<tag k="place" v="farm" />
		<tag k="ssr:stedsnr" v="3220" />
	</node>
	<node id="-157441" lat="59.6942444445" lon="10.25155">
		<tag k="fixme" v="consider place=hamlet" />
		<tag k="name" v="Eik" />
		<tag k="place" v="farm" />
		<tag k="ssr:stedsnr" v="3184" />
	</node>
	<node id="-157403" lat="59.7429735341" lon="10.2067818096">
		<tag k="building" v="commercial" />
		<tag k="name" v="Magasinet Drammen" />
		<tag k="ssr:stedsnr" v="985822" />
	</node>
	<node id="-157402" lat="59.7426083556" lon="10.158381713">
		<tag k="building" v="commercial" />
		<tag k="name" v="Gulskogen senter" />
		<tag k="ssr:stedsnr" v="985820" />
	</node>
	<node id="-157400" lat="59.746544442" lon="10.2047500027">
		<tag k="amenity" v="hospital" />
		<tag k="name" v="Drammen Private Sykehus" />
		<tag k="ssr:stedsnr" v="892833" />
	</node>
	<node id="-157396" lat="59.6767444477" lon="10.2301944388">
		<tag k="name" v="Søndre Unnelsrud" />
		<tag k="place" v="farm" />
		<tag k="ssr:stedsnr" v="892722" />
	</node>
	<node id="-157393" lat="59.6656222193" lon="10.218299994">
		<tag k="name" v="Margentun" />
		<tag k="place" v="locality" />
		<tag k="ssr:stedsnr" v="892677" />
	</node>
	<node id="-157392" lat="59.7771750003" lon="10.1529388972">
		<tag k="name" v="Maristua" />
		<tag k="place" v="isolated_dwelling" />
		<tag k="ssr:stedsnr" v="891227" />
	</node>
	<node id="-157391" lat="59.7929277776" lon="10.1528055609">
		<tag k="name" v="Myrglimt" />
		<tag k="place" v="isolated_dwelling" />
		<tag k="ssr:stedsnr" v="891210" />
	</node>
	<node id="-157389" lat="59.7178750034" lon="10.2542638931">
		<tag k="leisure" v="pitch" />
		<tag k="name" v="Brønnern" />
		<tag k="ssr:stedsnr" v="891077" />
	</node>
	<node id="-157387" lat="59.7072377375" lon="10.2489885337">
		<tag k="name" v="Store Solum" />
		<tag k="place" v="farm" />
		<tag k="ssr:stedsnr" v="891056" />
	</node>
	<node id="-157386" lat="59.707427777" lon="10.2228777796">
		<tag k="leisure" v="pitch" />
		<tag k="name" v="Gjerpenkollen" />
		<tag k="ssr:stedsnr" v="891054" />
	</node>
	<node id="-157382" lat="59.7414194444" lon="10.2103472196">
		<tag k="building" v="industrial" />
		<tag k="industrial" v="factory" />
		<tag k="name" v="Aass bryggeri" />
		<tag k="ssr:stedsnr" v="890915" />
	</node>
	<node id="-157378" lat="59.6991611113" lon="10.1611472291">
		<tag k="name" v="Strømli" />
		<tag k="place" v="isolated_dwelling" />
		<tag k="ssr:stedsnr" v="890606" />
	</node>
	<node id="-157376" lat="59.6969555588" lon="10.2970138912">
		<tag k="name" v="Fjellstrand" />
		<tag k="place" v="isolated_dwelling" />
		<tag k="ssr:stedsnr" v="889361" />
	</node>
	<node id="-157375" lat="59.6974694402" lon="10.2958972154">
		<tag k="name" v="Fjordheim" />
		<tag k="place" v="isolated_dwelling" />
		<tag k="ssr:stedsnr" v="889355" />
	</node>
	<node id="-157373" lat="59.6836222181" lon="10.2305166658">
		<tag k="name" v="Moheim" />
		<tag k="place" v="isolated_dwelling" />
		<tag k="ssr:stedsnr" v="889305" />
	</node>
	<node id="-157372" lat="59.6836694447" lon="10.2253500021">
		<tag k="name" v="Eikely" />
		<tag k="place" v="isolated_dwelling" />
		<tag k="ssr:stedsnr" v="889299" />
	</node>
	<node id="-157371" lat="59.6851305578" lon="10.2513361045">
		<tag k="amenity" v="school" />
		<tag k="name" v="Skoger skole" />
		<tag k="ssr:stedsnr" v="889295" />
	</node>
	<node id="-157370" lat="59.6943083321" lon="10.2142777861">
		<tag k="name" v="Knausen" />
		<tag k="place" v="isolated_dwelling" />
		<tag k="ssr:stedsnr" v="889290" />
	</node>
	<node id="-157369" lat="59.6923916698" lon="10.2519083313">
		<tag k="name" v="Vestheim" />
		<tag k="place" v="farm" />
		<tag k="ssr:stedsnr" v="889288" />
	</node>
	<node id="-157368" lat="59.6857305524" lon="10.2239138937">
		<tag k="name" v="Smijo" />
		<tag k="place" v="isolated_dwelling" />
		<tag k="ssr:stedsnr" v="889285" />
	</node>
	<node id="-157367" lat="59.6951777742" lon="10.2297861026">
		<tag k="name" v="Solstad" />
		<tag k="place" v="isolated_dwelling" />
		<tag k="ssr:stedsnr" v="889274" />
	</node>
	<node id="-157366" lat="59.701050001" lon="10.2414444407">
		<tag k="name" v="Bekkevold" />
		<tag k="place" v="isolated_dwelling" />
		<tag k="ssr:stedsnr" v="889273" />
	</node>
	<node id="-157364" lat="59.6837305598" lon="10.2642666638">
		<tag k="name" v="Bakke" />
		<tag k="place" v="farm" />
		<tag k="ssr:stedsnr" v="889261" />
	</node>
	<node id="-157350" lat="59.6677611151" lon="10.2219277859">
		<tag k="name" v="Borgenhaug" />
		<tag k="place" v="farm" />
		<tag k="ssr:stedsnr" v="406697" />
	</node>
	<node id="-157349" lat="59.6712138883" lon="10.2367361156">
		<tag k="name" v="Solheim" />
		<tag k="place" v="isolated_dwelling" />
		<tag k="ssr:stedsnr" v="406690" />
	</node>
	<node id="-157348" lat="59.7207444446" lon="10.2299944498">
		<tag k="name" v="Garås" />
		<tag k="place" v="isolated_dwelling" />
		<tag k="ssr:stedsnr" v="406056" />
	</node>
	<node id="-157347" lat="59.7098055588" lon="10.2348361167">
		<tag k="name" v="Fagerli" />
		<tag k="place" v="isolated_dwelling" />
		<tag k="ssr:stedsnr" v="406051" />
	</node>
	<node id="-157346" lat="59.7084944457" lon="10.2365305469">
		<tag k="name" v="Grønli" />
		<tag k="place" v="isolated_dwelling" />
		<tag k="ssr:stedsnr" v="406045" />
	</node>
	<node id="-157344" lat="59.7411583298" lon="10.1688111031">
		<tag k="amenity" v="school" />
		<tag k="name" v="Gulskogen skole" />
		<tag k="ssr:stedsnr" v="406009" />
	</node>
	<node id="-157343" lat="59.7354555574" lon="10.2037111199">
		<tag k="amenity" v="sports_centre" />
		<tag k="name" v="Drammenshallen" />
		<tag k="ssr:stedsnr" v="406005" />
	</node>
	<node id="-157342" lat="59.7724583328" lon="10.1603083329">
		<tag k="name" v="Fredheim" />
		<tag k="place" v="isolated_dwelling" />
		<tag k="ssr:stedsnr" v="405190" />
	</node>
	<node id="-157335" lat="59.6959694434" lon="10.2957666743">
		<tag k="name" v="Lindhaug" />
		<tag k="place" v="isolated_dwelling" />
		<tag k="ssr:stedsnr" v="404346" />
	</node>
	<node id="-157334" lat="59.7207722241" lon="10.0917333295">
		<tag k="name" v="Finnbo" />
		<tag k="place" v="isolated_dwelling" />
		<tag k="ssr:stedsnr" v="404338" />
	</node>
	<node id="-157333" lat="59.6964166693" lon="10.2925527846">
		<tag k="name" v="Grønlien" />
		<tag k="place" v="isolated_dwelling" />
		<tag k="ssr:stedsnr" v="404256" />
	</node>
	<node id="-157332" lat="59.6925305528" lon="10.3112166687">
		<tag k="name" v="Fjordvik" />
		<tag k="place" v="isolated_dwelling" />
		<tag k="ssr:stedsnr" v="404253" />
	</node>
	<node id="-157331" lat="59.6927249957" lon="10.3087888893">
		<tag k="name" v="Lyngheim" />
		<tag k="place" v="isolated_dwelling" />
		<tag k="ssr:stedsnr" v="404251" />
	</node>
	<node id="-157327" lat="59.7255555574" lon="10.2377999997">
		<tag k="alt_name" v="Ulvekula" />
		<tag k="leisure" v="pitch" />
		<tag k="name" v="Ulvekula idrettsplass" />
		<tag k="ssr:stedsnr" v="403956" />
	</node>
	<node id="-157325" lat="59.6832250025" lon="10.2103972181">
		<tag k="name" v="Søndre Sten" />
		<tag k="place" v="farm" />
		<tag k="ssr:stedsnr" v="403278" />
	</node>
	<node id="-157324" lat="59.6880916682" lon="10.2221722302">
		<tag k="name" v="Solglimt" />
		<tag k="place" v="isolated_dwelling" />
		<tag k="ssr:stedsnr" v="403275" />
	</node>
	<node id="-157323" lat="59.6824055575" lon="10.2622277802">
		<tag k="name" v="Fagerlund" />
		<tag k="place" v="isolated_dwelling" />
		<tag k="ssr:stedsnr" v="403269" />
	</node>
	<node id="-157321" lat="59.6982916664" lon="10.2424611085">
		<tag k="name" v="Dalheim" />
		<tag k="place" v="isolated_dwelling" />
		<tag k="ssr:stedsnr" v="403246" />
	</node>
	<node id="-157316" lat="59.7717777813" lon="10.1661611105">
		<tag k="fixme" v="consider tourism=alpine_hut or tourism=chalet" />
		<tag k="name" v="Landfallhytta" />
		<tag k="ssr:stedsnr" v="387102" />
		<tag k="tourism" v="wilderness_hut" />
	</node>
	<node id="-157315" lat="59.7448055581" lon="10.1238555572">
		<tag k="name" v="Nordre Pukerud" />
		<tag k="place" v="farm" />
		<tag k="ssr:stedsnr" v="386891" />
	</node>
	<node id="-157313" lat="59.7529472239" lon="10.1464305628">
		<tag k="building" v="industrial" />
		<tag k="name" v="Fina Servicenter" />
		<tag k="ssr:stedsnr" v="386592" />
	</node>
	<node id="-157312" lat="59.7284972203" lon="10.0852888859">
		<tag k="name" v="Solhaug" />
		<tag k="place" v="farm" />
		<tag k="ssr:stedsnr" v="386561" />
	</node>
	<node id="-157307" lat="59.7267527767" lon="10.1022750059">
		<tag k="name" v="Huldrebo" />
		<tag k="place" v="farm" />
		<tag k="ssr:stedsnr" v="386501" />
	</node>
	<node id="-157306" lat="59.7252777766" lon="10.114419439">
		<tag k="name" v="Asken" />
		<tag k="place" v="farm" />
		<tag k="ssr:stedsnr" v="386485" />
	</node>
	<node id="-157303" lat="59.7005638902" lon="10.1940888809">
		<tag k="name" v="Moldbakken" />
		<tag k="place" v="locality" />
		<tag k="ssr:stedsnr" v="367251" />
	</node>
	<node id="-157301" lat="59.7229361107" lon="10.1998638931">
		<tag k="leisure" v="pitch" />
		<tag k="name" v="Drafnkollen" />
		<tag k="ssr:stedsnr" v="367228" />
	</node>
	<node id="-157299" lat="59.727002782" lon="10.091383331">
		<tag k="name" v="Stubberud" />
		<tag k="place" v="farm" />
		<tag k="ssr:stedsnr" v="367199" />
	</node>
	<node id="-157298" lat="59.6759055593" lon="10.2083222239">
		<tag k="fixme" v="consider place=hamlet" />
		<tag k="name" v="Haneval" />
		<tag k="place" v="farm" />
		<tag k="ssr:stedsnr" v="367191" />
	</node>
	<node id="-157294" lat="59.6721833294" lon="10.0287388954">
		<tag k="name" v="Skulkerud" />
		<tag k="place" v="isolated_dwelling" />
		<tag k="ssr:stedsnr" v="367173" />
	</node>
	<node id="-157292" lat="59.6939027797" lon="10.2337833268">
		<tag k="alt_name" v="Torrud" />
		<tag k="name" v="Tolerud" />
		<tag k="place" v="farm" />
		<tag k="ssr:stedsnr" v="366212" />
	</node>
	<node id="-157286" lat="59.7490583327" lon="10.1650833271">
		<tag k="name" v="Fløya" />
		<tag k="place" v="isolated_dwelling" />
		<tag k="ssr:stedsnr" v="362724" />
	</node>
	<node id="-157285" lat="59.7057305526" lon="10.2296583386">
		<tag k="name" v="Stubbhaugen" />
		<tag k="place" v="isolated_dwelling" />
		<tag k="ssr:stedsnr" v="360401" />
	</node>
	<node id="-157284" lat="59.7167166706" lon="10.153238891">
		<tag k="name" v="Solberg" />
		<tag k="place" v="farm" />
		<tag k="ssr:stedsnr" v="360395" />
	</node>
	<node id="-157280" lat="59.7493861142" lon="10.1897083367">
		<tag k="amenity" v="school" />
		<tag k="name" v="Børresens skole" />
		<tag k="ssr:stedsnr" v="345836" />
	</node>
	<node id="-157278" lat="59.676180555" lon="10.2576416743">
		<tag k="name" v="Bakkehaug" />
		<tag k="place" v="farm" />
		<tag k="ssr:stedsnr" v="345716" />
	</node>
	<node id="-157273" lat="59.7800944476" lon="10.168036114">
		<tag k="name" v="Blinken" />
		<tag k="place" v="isolated_dwelling" />
		<tag k="ssr:stedsnr" v="345152" />
	</node>
	<node id="-157270" lat="59.7420166653" lon="10.1701416702">
		<tag k="building" v="industrial" />
		<tag k="industrial" v="factory" />
		<tag k="name" v="Eidsfoss verk" />
		<tag k="ssr:stedsnr" v="345036" />
	</node>
	<node id="-157269" lat="59.7373305526" lon="10.1989388936">
		<tag k="amenity" v="school" />
		<tag k="name" v="Drammen videregående skole" />
		<tag k="ssr:stedsnr" v="344608" />
	</node>
	<node id="-157266" lat="59.6928833363" lon="10.1510333275">
		<tag k="name" v="Imjelt" />
		<tag k="place" v="farm" />
		<tag k="ssr:stedsnr" v="343598" />
	</node>
	<node id="-157265" lat="59.6986972192" lon="10.1587861123">
		<tag k="name" v="Fossan" />
		<tag k="place" v="farm" />
		<tag k="ssr:stedsnr" v="343583" />
	</node>
	<node id="-157264" lat="59.6962111081" lon="10.2978194472">
		<tag k="name" v="Solhøy" />
		<tag k="place" v="isolated_dwelling" />
		<tag k="ssr:stedsnr" v="343324" />
	</node>
	<node id="-157263" lat="59.6950055589" lon="10.3007222221">
		<tag k="name" v="Dano" />
		<tag k="place" v="isolated_dwelling" />
		<tag k="ssr:stedsnr" v="343325" />
	</node>
	<node id="-157262" lat="59.7015277738" lon="10.2840222154">
		<tag k="name" v="Åsnes" />
		<tag k="place" v="isolated_dwelling" />
		<tag k="ssr:stedsnr" v="343317" />
	</node>
	<node id="-157261" lat="59.7122138876" lon="10.1286777846">
		<tag k="name" v="Hallerud" />
		<tag k="place" v="locality" />
		<tag k="ssr:stedsnr" v="343312" />
	</node>
	<node id="-157260" lat="59.6838083369" lon="10.2515333389">
		<tag k="name" v="Moheim" />
		<tag k="place" v="isolated_dwelling" />
		<tag k="ssr:stedsnr" v="343266" />
	</node>
	<node id="-157259" lat="59.6859111146" lon="10.2682388931">
		<tag k="name" v="Bakke" />
		<tag k="place" v="farm" />
		<tag k="ssr:stedsnr" v="343250" />
	</node>
	<node id="-157258" lat="59.7005972266" lon="10.2303027765">
		<tag k="name" v="Bjerkebo" />
		<tag k="place" v="isolated_dwelling" />
		<tag k="ssr:stedsnr" v="343246" />
	</node>
	<node id="-157254" lat="59.7299222216" lon="10.2057694452">
		<tag k="name" v="Austad" />
		<tag k="place" v="quarter" />
		<tag k="ssr:stedsnr" v="330149" />
	</node>
	<node id="-157253" lat="59.7536777821" lon="10.1142555491">
		<tag k="name" v="Grønvold" />
		<tag k="place" v="farm" />
		<tag k="ssr:stedsnr" v="326917" />
	</node>
	<node id="-157250" lat="59.724725" lon="10.1345888934">
		<tag k="name" v="Blåbest" />
		<tag k="place" v="isolated_dwelling" />
		<tag k="ssr:stedsnr" v="326544" />
	</node>
	<node id="-157249" lat="59.7298277749" lon="10.0988972158">
		<tag k="name" v="Rolighet" />
		<tag k="place" v="farm" />
		<tag k="ssr:stedsnr" v="326539" />
	</node>
	<node id="-157248" lat="59.7461611091" lon="10.165299995">
		<tag k="name" v="Gulskogen" />
		<tag k="old_name" v="Skougen, gule" />
		<tag k="place" v="farm" />
		<tag k="ssr:stedsnr" v="306339" />
	</node>
	<node id="-157247" lat="59.713305554" lon="10.1574750063">
		<tag k="name" v="Nordli" />
		<tag k="place" v="farm" />
		<tag k="ssr:stedsnr" v="306277" />
	</node>
	<node id="-157246" lat="59.7156999962" lon="10.2617000038">
		<tag k="name" v="Nordby" />
		<tag k="place" v="farm" />
		<tag k="ssr:stedsnr" v="306270" />
	</node>
	<node id="-157244" lat="59.7274750032" lon="10.1551666633">
		<tag k="name" v="Gråbeinsletta" />
		<tag k="place" v="isolated_dwelling" />
		<tag k="ssr:stedsnr" v="306260" />
	</node>
	<node id="-157242" lat="59.7304888888" lon="10.1507000034">
		<tag k="name" v="Lønnerud" />
		<tag k="place" v="isolated_dwelling" />
		<tag k="ssr:stedsnr" v="306240" />
	</node>
	<node id="-157241" lat="59.6832750013" lon="10.1652805499">
		<tag k="fixme" v="consider place=hamlet" />
		<tag k="name" v="Borge" />
		<tag k="place" v="farm" />
		<tag k="ssr:stedsnr" v="306222" />
	</node>
	<node id="-157240" lat="59.6780500042" lon="10.2588083279">
		<tag k="fixme" v="multiple name tags, choose one and add the other to alt_name" />
		<tag k="name" v="Fjøset;Fredheim" />
		<tag k="place" v="farm" />
		<tag k="ssr:stedsnr" v="306209" />
	</node>
	<node id="-157239" lat="59.6966611067" lon="10.1236722304">
		<tag k="alt_name" v="Gundesøhytta" />
		<tag k="name" v="Gunsehytta" />
		<tag k="place" v="isolated_dwelling" />
		<tag k="ssr:stedsnr" v="306198" />
	</node>
	<node id="-157235" lat="59.7292833375" lon="10.140547222">
		<tag k="name" v="Lønnerud" />
		<tag k="place" v="quarter" />
		<tag k="ssr:stedsnr" v="301825" />
	</node>
	<node id="-157231" lat="59.7469527812" lon="10.2227722293">
		<tag k="leisure" v="park" />
		<tag k="name" v="Løkkebergparken" />
		<tag k="ssr:stedsnr" v="301810" />
	</node>
	<node id="-157229" lat="59.7497861124" lon="10.2251527819">
		<tag k="name" v="Toppenhaug" />
		<tag k="place" v="quarter" />
		<tag k="ssr:stedsnr" v="301807" />
	</node>
	<node id="-157226" lat="59.738627781" lon="10.1963694533">
		<tag k="name" v="Karl Gundersens plass" />
		<tag k="place" v="square" />
		<tag k="ssr:stedsnr" v="301794" />
	</node>
	<node id="-157225" lat="59.7505472199" lon="10.1764555475">
		<tag k="name" v="Hotvet" />
		<tag k="place" v="quarter" />
		<tag k="ssr:stedsnr" v="301774" />
	</node>
	<node id="-157224" lat="59.750233337" lon="10.2041166677">
		<tag k="amenity" v="cafe" />
		<tag k="name" v="Åspaviljongen" />
		<tag k="ssr:stedsnr" v="301773" />
	</node>
	<node id="-157222" lat="59.7181111072" lon="10.134336111">
		<tag k="amenity" v="nursing_home" />
		<tag k="name" v="Granstad" />
		<tag k="ssr:stedsnr" v="300365" />
	</node>
	<node id="-157221" lat="59.7189833354" lon="10.1435750046">
		<tag k="name" v="Gramsborg" />
		<tag k="place" v="quarter" />
		<tag k="ssr:stedsnr" v="300361" />
	</node>
	<node id="-157219" lat="59.7289500013" lon="10.2225944456">
		<tag k="amenity" v="school" />
		<tag k="name" v="Brandengen skole" />
		<tag k="ssr:stedsnr" v="298249" />
	</node>
	<node id="-157217" lat="59.6692416702" lon="10.0883527867">
		<tag k="name" v="Gampedalstulen" />
		<tag k="place" v="locality" />
		<tag k="ssr:stedsnr" v="285810" />
	</node>
	<node id="-157212" lat="59.6659138903" lon="10.217619452">
		<tag k="name" v="Bjørnerud" />
		<tag k="place" v="locality" />
		<tag k="ssr:stedsnr" v="285670" />
	</node>
	<node id="-157211" lat="59.7367166673" lon="10.2082194416">
		<tag k="amenity" v="school" />
		<tag k="name" v="Drammen videregående skole, Strømsø" />
		<tag k="ssr:stedsnr" v="284594" />
	</node>
	<node id="-157210" lat="59.7407944412" lon="10.1952361131">
		<tag k="name" v="Drammen godsterminal" />
		<tag k="place" v="quarter" />
		<tag k="ssr:stedsnr" v="284618" />
	</node>
	<node id="-157209" lat="59.7924333369" lon="10.1548361079">
		<tag k="name" v="Leiken" />
		<tag k="place" v="isolated_dwelling" />
		<tag k="ssr:stedsnr" v="284187" />
	</node>
	<node id="-157207" lat="59.7849666644" lon="10.1491638965">
		<tag k="name" v="Fjellro" />
		<tag k="place" v="isolated_dwelling" />
		<tag k="ssr:stedsnr" v="284147" />
	</node>
	<node id="-157206" lat="59.7768944456" lon="10.1635250031">
		<tag k="name" v="Furua" />
		<tag k="place" v="isolated_dwelling" />
		<tag k="ssr:stedsnr" v="284139" />
	</node>
	<node id="-157205" lat="59.777705556" lon="10.1590638839">
		<tag k="name" v="Lyngstua" />
		<tag k="place" v="isolated_dwelling" />
		<tag k="ssr:stedsnr" v="284136" />
	</node>
	<node id="-157203" lat="59.7155499997" lon="10.2313333384">
		<tag k="name" v="Søndre Fjell" />
		<tag k="place" v="locality" />
		<tag k="ssr:stedsnr" v="284055" />
	</node>
	<node id="-157201" lat="59.7075805533" lon="10.2296000044">
		<tag k="name" v="Gjerpen" />
		<tag k="place" v="farm" />
		<tag k="ssr:stedsnr" v="284043" />
	</node>
	<node id="-157200" lat="59.70944722" lon="10.2268611032">
		<tag k="name" v="Myra" />
		<tag k="place" v="isolated_dwelling" />
		<tag k="ssr:stedsnr" v="284032" />
	</node>
	<node id="-157197" lat="59.7351027733" lon="10.1931305558">
		<tag k="amenity" v="school" />
		<tag k="name" v="Danvik skole" />
		<tag k="ssr:stedsnr" v="284010" />
	</node>
	<node id="-157196" lat="59.7311805589" lon="10.1818222294">
		<tag k="landuse" v="winter_sports" />
		<tag k="name" v="Haukåsløypa" />
		<tag k="piste:type" v="downhill" />
		<tag k="ssr:stedsnr" v="284001" />
	</node>
	<node id="-157195" lat="59.7413944417" lon="10.2229083311">
		<tag k="building" v="commercial" />
		<tag k="name" v="CC Varehus" />
		<tag k="ssr:stedsnr" v="283920" />
	</node>
	<node id="-157193" lat="59.6915222196" lon="10.142441662">
		<tag k="name" v="Skogly" />
		<tag k="place" v="farm" />
		<tag k="ssr:stedsnr" v="283671" />
	</node>
	<node id="-157188" lat="59.688527775" lon="10.1943527752">
		<tag k="name" v="Løyse" />
		<tag k="place" v="farm" />
		<tag k="ssr:stedsnr" v="283552" />
	</node>
	<node id="-157187" lat="59.6928444444" lon="10.170752772">
		<tag k="name" v="Jordbrekk" />
		<tag k="place" v="farm" />
		<tag k="ssr:stedsnr" v="283550" />
	</node>
	<node id="-157181" lat="59.6973500013" lon="10.2961222228">
		<tag k="name" v="Askheim" />
		<tag k="place" v="isolated_dwelling" />
		<tag k="ssr:stedsnr" v="282337" />
	</node>
	<node id="-157180" lat="59.7154888897" lon="10.135366669">
		<tag k="name" v="Fagertun" />
		<tag k="place" v="isolated_dwelling" />
		<tag k="ssr:stedsnr" v="282309" />
	</node>
	<node id="-157179" lat="59.6884888869" lon="10.2228083375">
		<tag k="name" v="Granheim" />
		<tag k="place" v="isolated_dwelling" />
		<tag k="ssr:stedsnr" v="282267" />
	</node>
	<node id="-157178" lat="59.8092305568" lon="10.1151083322">
		<tag k="name" v="Fjellbu" />
		<tag k="place" v="isolated_dwelling" />
		<tag k="ssr:stedsnr" v="282249" />
	</node>
	<node id="-157177" lat="59.6986611096" lon="10.2299305607">
		<tag k="name" v="Gunnerud" />
		<tag k="place" v="farm" />
		<tag k="ssr:stedsnr" v="282245" />
	</node>
	<node id="-157173" lat="59.7142361109" lon="10.2552666627">
		<tag k="name" v="Åskollen" />
		<tag k="place" v="quarter" />
		<tag k="ssr:stedsnr" v="269404" />
	</node>
	<node id="-158395" lat="59.7542368702" lon="10.191260107">
		<tag k="name" v="Hamborgstrømpaviljonen" />
		<tag k="place" v="locality" />
		<tag k="ssr:stedsnr" v="978615" />
	</node>
	<node id="-158392" lat="59.7278194441" lon="10.1404249948">
		<tag k="name" v="Torrudbråtan" />
		<tag k="place" v="quarter" />
		<tag k="ssr:stedsnr" v="969815" />
	</node>
	<node id="-158391" lat="59.7515055561" lon="10.2103555628">
		<tag k="name" v="Høyden" />
		<tag k="place" v="locality" />
		<tag k="ssr:stedsnr" v="969789" />
	</node>
	<node id="-158390" lat="59.7456583343" lon="10.156691663">
		<tag k="leisure" v="pitch" />
		<tag k="name" v="Gulskogen idrettsanlegg" />
		<tag k="ssr:stedsnr" v="968800" />
	</node>
	<node id="-158387" lat="59.7179944448" lon="10.1240000045">
		<tag k="name" v="Demringen" />
		<tag k="place" v="isolated_dwelling" />
		<tag k="ssr:stedsnr" v="967309" />
	</node>
	<node id="-158386" lat="59.7077972214" lon="10.1513499927">
		<tag k="name" v="Skogly" />
		<tag k="place" v="locality" />
		<tag k="ssr:stedsnr" v="967293" />
	</node>
	<node id="-158384" lat="59.7474000009" lon="10.1576416737">
		<tag k="name" v="Rødskog" />
		<tag k="old_name" v="Skougen, røde" />
		<tag k="place" v="farm" />
		<tag k="ssr:stedsnr" v="962383" />
	</node>
	<node id="-158379" lat="59.6658305593" lon="10.221911108">
		<tag k="name" v="Hanneborg" />
		<tag k="place" v="isolated_dwelling" />
		<tag k="ssr:stedsnr" v="952669" />
	</node>
	<node id="-158376" lat="59.7838305582" lon="10.1539500079">
		<tag k="name" v="Fjellhygga" />
		<tag k="place" v="isolated_dwelling" />
		<tag k="ssr:stedsnr" v="952160" />
	</node>
	<node id="-158375" lat="59.7184611108" lon="10.219491662">
		<tag k="name" v="Nordre Fjell" />
		<tag k="place" v="farm" />
		<tag k="ssr:stedsnr" v="952076" />
	</node>
	<node id="-158374" lat="59.7060750034" lon="10.2285333275">
		<tag k="name" v="Fjelly" />
		<tag k="place" v="isolated_dwelling" />
		<tag k="ssr:stedsnr" v="952024" />
	</node>
	<node id="-158372" lat="59.6834249963" lon="10.1327722134">
		<tag k="name" v="Lundeby" />
		<tag k="place" v="farm" />
		<tag k="ssr:stedsnr" v="950666" />
	</node>
	<node id="-158370" lat="59.6906249971" lon="10.1329444473">
		<tag k="name" v="Engelkor" />
		<tag k="place" v="farm" />
		<tag k="ssr:stedsnr" v="950653" />
	</node>
	<node id="-158366" lat="59.6966194401" lon="10.1642222205">
		<tag k="name" v="Haugen" />
		<tag k="place" v="isolated_dwelling" />
		<tag k="ssr:stedsnr" v="950561" />
	</node>
	<node id="-158365" lat="59.6977527811" lon="10.1619861191">
		<tag k="name" v="Solbakken" />
		<tag k="place" v="farm" />
		<tag k="ssr:stedsnr" v="950557" />
	</node>
	<node id="-158364" lat="59.6987722183" lon="10.1532805636">
		<tag k="name" v="Holland" />
		<tag k="place" v="farm" />
		<tag k="ssr:stedsnr" v="950550" />
	</node>
	<node id="-158362" lat="59.6850027803" lon="10.2479555611">
		<tag k="name" v="Gunheim" />
		<tag k="place" v="isolated_dwelling" />
		<tag k="ssr:stedsnr" v="950296" />
	</node>
	<node id="-158361" lat="59.6925611095" lon="10.2292083419">
		<tag k="name" v="Solhaug" />
		<tag k="place" v="isolated_dwelling" />
		<tag k="ssr:stedsnr" v="950292" />
	</node>
	<node id="-158360" lat="59.6847305561" lon="10.2650666586">
		<tag k="name" v="Bakke" />
		<tag k="place" v="farm" />
		<tag k="ssr:stedsnr" v="950273" />
	</node>
	<node id="-158359" lat="59.6895749961" lon="10.2683944391">
		<tag k="name" v="Lindum" />
		<tag k="place" v="farm" />
		<tag k="ssr:stedsnr" v="950265" />
	</node>
	<node id="-158355" lat="59.7567305591" lon="10.1767083327">
		<tag k="name" v="Underlia" />
		<tag k="place" v="quarter" />
		<tag k="ssr:stedsnr" v="934481" />
	</node>
	<node id="-158353" lat="59.7817111149" lon="10.1264305592">
		<tag k="name" v="Rabben" />
		<tag k="place" v="farm" />
		<tag k="ssr:stedsnr" v="933759" />
	</node>
	<node id="-158352" lat="59.7518694453" lon="10.1428416652">
		<tag k="leisure" v="pitch" />
		<tag k="name" v="Åssiden idrettsanlegg" />
		<tag k="ssr:stedsnr" v="933635" />
	</node>
	<node id="-158351" lat="59.7253277764" lon="10.1178916625">
		<tag k="name" v="Eskerud" />
		<tag k="place" v="farm" />
		<tag k="ssr:stedsnr" v="933580" />
	</node>
	<node id="-158350" lat="59.7330111133" lon="10.1217222193">
		<tag k="name" v="Steinbakken" />
		<tag k="place" v="farm" />
		<tag k="ssr:stedsnr" v="933578" />
	</node>
	<node id="-158349" lat="59.7312249964" lon="10.1123444418">
		<tag k="name" v="Åsli" />
		<tag k="place" v="farm" />
		<tag k="ssr:stedsnr" v="933560" />
	</node>
	<node id="-158348" lat="59.7253805564" lon="10.1081472183">
		<tag k="name" v="Tolgen" />
		<tag k="place" v="farm" />
		<tag k="ssr:stedsnr" v="933546" />
	</node>
	<node id="-158347" lat="59.7261888921" lon="10.1103555507">
		<tag k="name" v="Frydenberg" />
		<tag k="place" v="farm" />
		<tag k="ssr:stedsnr" v="933547" />
	</node>
	<node id="-158344" lat="59.7033277817" lon="10.231338887">
		<tag k="name" v="Gjerpen" />
		<tag k="place" v="farm" />
		<tag k="ssr:stedsnr" v="913288" />
	</node>
	<node id="-158343" lat="59.6819250043" lon="10.1536888934">
		<tag k="alt_name" v="Borgehagen" />
		<tag k="name" v="Borgehagan" />
		<tag k="place" v="farm" />
		<tag k="ssr:stedsnr" v="913224" />
	</node>
	<node id="-158342" lat="59.6723527779" lon="10.193280554">
		<tag k="name" v="Sandbråtan" />
		<tag k="place" v="locality" />
		<tag k="ssr:stedsnr" v="913218" />
	</node>
	<node id="-158341" lat="59.6708861123" lon="10.0566222179">
		<tag k="name" v="Terjevollen" />
		<tag k="place" v="locality" />
		<tag k="ssr:stedsnr" v="913208" />
	</node>
	<node id="-158340" lat="59.6797249998" lon="10.2605277739">
		<tag k="name" v="Lerpe" />
		<tag k="place" v="farm" />
		<tag k="ssr:stedsnr" v="913205" />
	</node>
	<node id="-158339" lat="59.6941416664" lon="10.2670222243">
		<tag k="name" v="Godthåp" />
		<tag k="place" v="farm" />
		<tag k="ssr:stedsnr" v="913199" />
	</node>
	<node id="-158338" lat="59.6969138856" lon="10.2740305633">
		<tag k="name" v="Øvre Knive" />
		<tag k="place" v="farm" />
		<tag k="ssr:stedsnr" v="913200" />
	</node>
	<node id="-158334" lat="59.7606277811" lon="10.1194527787">
		<tag k="name" v="Fjellro" />
		<tag k="place" v="isolated_dwelling" />
		<tag k="ssr:stedsnr" v="908828" />
	</node>
	<node id="-158330" lat="59.7045861137" lon="10.2397083363">
		<tag k="name" v="Knausen" />
		<tag k="place" v="isolated_dwelling" />
		<tag k="ssr:stedsnr" v="907404" />
	</node>
	<node id="-158329" lat="59.7063444469" lon="10.2292888883">
		<tag k="name" v="Heimen" />
		<tag k="place" v="isolated_dwelling" />
		<tag k="ssr:stedsnr" v="907402" />
	</node>
	<node id="-158328" lat="59.7111499973" lon="10.1500972171">
		<tag k="name" v="Vestmannsbråten" />
		<tag k="place" v="farm" />
		<tag k="ssr:stedsnr" v="907295" />
	</node>
	<node id="-158325" lat="59.7558916665" lon="10.1113194431">
		<tag k="name" v="Kjøsterud" />
		<tag k="place" v="farm" />
		<tag k="ssr:stedsnr" v="872911" />
	</node>
	<node id="-158321" lat="59.779133337" lon="10.1410638842">
		<tag k="name" v="Ballklubbhytta" />
		<tag k="place" v="isolated_dwelling" />
		<tag k="ssr:stedsnr" v="872754" />
	</node>
	<node id="-158320" lat="59.7517138932" lon="10.1440277836">
		<tag k="amenity" v="school" />
		<tag k="name" v="Åssiden skole" />
		<tag k="ssr:stedsnr" v="872652" />
	</node>
	<node id="-158319" lat="59.7250388862" lon="10.0844111134">
		<tag k="name" v="Mostua" />
		<tag k="place" v="farm" />
		<tag k="ssr:stedsnr" v="872605" />
	</node>
	<node id="-158318" lat="59.7258833355" lon="10.1165972232">
		<tag k="name" v="Furuheim" />
		<tag k="place" v="farm" />
		<tag k="ssr:stedsnr" v="872570" />
	</node>
	<node id="-158317" lat="59.7262388928" lon="10.1056777774">
		<tag k="name" v="Grindheim" />
		<tag k="place" v="farm" />
		<tag k="ssr:stedsnr" v="872550" />
	</node>
	<node id="-158314" lat="59.7071333375" lon="10.2708888878">
		<tag k="name" v="Nedre Knive" />
		<tag k="place" v="farm" />
		<tag k="ssr:stedsnr" v="853291" />
	</node>
	<node id="-158313" lat="59.7217249961" lon="10.1444611141">
		<tag k="name" v="Konnerud" />
		<tag k="place" v="village" />
		<tag k="ssr:stedsnr" v="853274" />
	</node>
	<node id="-158310" lat="59.7391638928" lon="10.1719972272">
		<tag k="name" v="Strømsgodset" />
		<tag k="place" v="suburb" />
		<tag k="ssr:stedsnr" v="853239" />
	</node>
	<node id="-158308" lat="59.6756499956" lon="10.0369916742">
		<tag k="name" v="Plassane" />
		<tag k="place" v="isolated_dwelling" />
		<tag k="ssr:stedsnr" v="853191" />
	</node>
	<node id="-158303" lat="59.747269444" lon="10.2069472156">
		<tag k="name" v="Bragernes" />
		<tag k="place" v="suburb" />
		<tag k="ssr:stedsnr" v="852348" />
	</node>
	<node id="-158302" lat="59.6970916625" lon="10.2600749933">
		<tag k="name" v="Øvre Eik" />
		<tag k="place" v="farm" />
		<tag k="ssr:stedsnr" v="852221" />
	</node>
	<node id="-158301" lat="59.6945763671" lon="10.2057685894">
		<tag k="fixme" v="consider place=hamlet" />
		<tag k="name" v="Mælen" />
		<tag k="place" v="farm" />
		<tag k="ssr:stedsnr" v="852218" />
	</node>
	<node id="-158300" lat="59.6968749979" lon="10.1783305515">
		<tag k="name" v="Øvre Skjeldrum" />
		<tag k="place" v="farm" />
		<tag k="ssr:stedsnr" v="852216" />
	</node>
	<node id="-158299" lat="59.6955555559" lon="10.1997000072">
		<tag k="fixme" v="multiple name tags, choose one and add the other to alt_name" />
		<tag k="name" v="Bråtan;Lajordet" />
		<tag k="place" v="farm" />
		<tag k="ssr:stedsnr" v="852214" />
	</node>
	<node id="-158292" lat="59.7440611068" lon="10.219980556">
		<tag k="name" v="Brandtenborg" />
		<tag k="place" v="quarter" />
		<tag k="ssr:stedsnr" v="848819" />
	</node>
	<node id="-158289" lat="59.7048500019" lon="10.2391861154">
		<tag k="name" v="Solheim" />
		<tag k="place" v="isolated_dwelling" />
		<tag k="ssr:stedsnr" v="846421" />
	</node>
	<node id="-158288" lat="59.7217472245" lon="10.1374277778">
		<tag k="amenity" v="nursing_home" />
		<tag k="name" v="Blenteborg CP-hjem" />
		<tag k="ssr:stedsnr" v="846315" />
	</node>
	<node id="-158286" lat="59.7288194408" lon="10.2142833386">
		<tag k="amenity" v="school" />
		<tag k="name" v="Frydenhaug skole" />
		<tag k="ssr:stedsnr" v="844259" />
	</node>
	<node id="-158281" lat="59.7492555549" lon="10.1982277846">
		<tag k="amenity" v="hospital" />
		<tag k="name" v="Buskerud sykehus Vestre Viken HF" />
		<tag k="ssr:stedsnr" v="831812" />
	</node>
	<node id="-158278" lat="59.7856805588" lon="10.156899992">
		<tag k="name" v="Veslemyr" />
		<tag k="place" v="isolated_dwelling" />
		<tag k="ssr:stedsnr" v="831149" />
	</node>
	<node id="-158277" lat="59.7190027822" lon="10.227797227">
		<tag k="name" v="Solbråten" />
		<tag k="place" v="isolated_dwelling" />
		<tag k="ssr:stedsnr" v="831069" />
	</node>
	<node id="-158276" lat="59.8086194457" lon="10.1182083303">
		<tag k="name" v="Jutulen" />
		<tag k="place" v="isolated_dwelling" />
		<tag k="ssr:stedsnr" v="831033" />
	</node>
	<node id="-158275" lat="59.7420777751" lon="10.1644861073">
		<tag k="building" v="industrial" />
		<tag k="industrial" v="factory" />
		<tag k="name" v="Standard båtbyggeri" />
		<tag k="ssr:stedsnr" v="831030" />
	</node>
	<node id="-158270" lat="59.7132722206" lon="10.2535583306">
		<tag k="name" v="Skoger" />
		<tag k="place" v="quarter" />
		<tag k="ssr:stedsnr" v="829736" />
	</node>
	<node id="-158267" lat="59.6752888845" lon="10.2060611192">
		<tag k="name" v="Nordre Haneval" />
		<tag k="place" v="farm" />
		<tag k="ssr:stedsnr" v="831670" />
	</node>
	<node id="-158265" lat="59.6837055596" lon="10.1881055534">
		<tag k="name" v="Nordre Holmen" />
		<tag k="place" v="farm" />
		<tag k="ssr:stedsnr" v="829593" />
	</node>
	<node id="-158264" lat="59.6877888913" lon="10.1965999922">
		<tag k="name" v="Løyse" />
		<tag k="place" v="farm" />
		<tag k="ssr:stedsnr" v="829591" />
	</node>
	<node id="-158263" lat="59.6952250033" lon="10.1605499963">
		<tag k="name" v="Sagbakken" />
		<tag k="place" v="farm" />
		<tag k="ssr:stedsnr" v="829581" />
	</node>
	<node id="-158262" lat="59.697230553" lon="10.2962972277">
		<tag k="name" v="Fredbo" />
		<tag k="place" v="isolated_dwelling" />
		<tag k="ssr:stedsnr" v="829362" />
	</node>
	<node id="-158260" lat="59.7145416637" lon="10.0891500076">
		<tag k="name" v="Rolfebu" />
		<tag k="place" v="isolated_dwelling" />
		<tag k="ssr:stedsnr" v="829355" />
	</node>
	<node id="-158259" lat="59.7168250031" lon="10.134433328">
		<tag k="name" v="Solliberga" />
		<tag k="place" v="farm" />
		<tag k="ssr:stedsnr" v="829348" />
	</node>
	<node id="-158256" lat="59.6946416694" lon="10.2293750062">
		<tag k="name" v="Eiketun" />
		<tag k="place" v="isolated_dwelling" />
		<tag k="ssr:stedsnr" v="829272" />
	</node>
	<node id="-158254" lat="59.6968194418" lon="10.2962277836">
		<tag k="name" v="Solheim" />
		<tag k="place" v="isolated_dwelling" />
		<tag k="ssr:stedsnr" v="829252" />
	</node>
	<node id="-158249" lat="59.7252861097" lon="10.1290861024">
		<tag k="name" v="Lerkelund" />
		<tag k="place" v="farm" />
		<tag k="ssr:stedsnr" v="811529" />
	</node>
	<node id="-158248" lat="59.7257861136" lon="10.1189916695">
		<tag k="name" v="Eskerud" />
		<tag k="place" v="farm" />
		<tag k="ssr:stedsnr" v="811526" />
	</node>
	<node id="-158247" lat="59.7250861144" lon="10.117411113">
		<tag k="name" v="Hesthagen" />
		<tag k="place" v="farm" />
		<tag k="ssr:stedsnr" v="811523" />
	</node>
	<node id="-158246" lat="59.7305083322" lon="10.1298555607">
		<tag k="name" v="Gjermundrød" />
		<tag k="place" v="farm" />
		<tag k="ssr:stedsnr" v="811518" />
	</node>
	<node id="-158245" lat="59.7303305569" lon="10.1258333354">
		<tag k="name" v="Lesperud" />
		<tag k="place" v="farm" />
		<tag k="ssr:stedsnr" v="811519" />
	</node>
	<node id="-158244" lat="59.7248361121" lon="10.1327944464">
		<tag k="name" v="Skogvold" />
		<tag k="place" v="isolated_dwelling" />
		<tag k="ssr:stedsnr" v="811511" />
	</node>
	<node id="-158240" lat="59.6827888912" lon="10.1364416675">
		<tag k="name" v="Bråtan" />
		<tag k="place" v="farm" />
		<tag k="ssr:stedsnr" v="792233" />
	</node>
	<node id="-158239" lat="59.6894111131" lon="10.1740888884">
		<tag k="alt_name" v="Skallstad" />
		<tag k="name" v="Skallestad" />
		<tag k="place" v="farm" />
		<tag k="ssr:stedsnr" v="792194" />
	</node>
	<node id="-158236" lat="59.7578750043" lon="10.1417361085">
		<tag k="name" v="Åssiden" />
		<tag k="place" v="suburb" />
		<tag k="ssr:stedsnr" v="792075" />
	</node>
	<node id="-158235" lat="59.6960138894" lon="10.150780548">
		<tag k="name" v="Svarterud" />
		<tag k="place" v="farm" />
		<tag k="ssr:stedsnr" v="791206" />
	</node>
	<node id="-158229" lat="59.7223083361" lon="10.1506222146">
		<tag k="name" v="Bernås" />
		<tag k="place" v="locality" />
		<tag k="ssr:stedsnr" v="785405" />
	</node>
	<node id="-158225" lat="59.6741333341" lon="10.2584361053">
		<tag k="name" v="Kronborg" />
		<tag k="place" v="farm" />
		<tag k="ssr:stedsnr" v="770731" />
	</node>
	<node id="-158224" lat="59.6766944482" lon="10.249866671">
		<tag k="name" v="Stillerud" />
		<tag k="place" v="quarter" />
		<tag k="ssr:stedsnr" v="770728" />
	</node>
	<node id="-158221" lat="59.6655472248" lon="10.2223277735">
		<tag k="name" v="Gullaug" />
		<tag k="place" v="isolated_dwelling" />
		<tag k="ssr:stedsnr" v="770671" />
	</node>
	<node id="-158219" lat="59.7210666687" lon="10.2300416629">
		<tag k="name" v="Sletheim" />
		<tag k="place" v="isolated_dwelling" />
		<tag k="ssr:stedsnr" v="770055" />
	</node>
	<node id="-158218" lat="59.8012916677" lon="10.1276222293">
		<tag k="name" v="Lyngbu" />
		<tag k="place" v="isolated_dwelling" />
		<tag k="ssr:stedsnr" v="770041" />
	</node>
	<node id="-158213" lat="59.7738833349" lon="10.1656277696">
		<tag k="name" v="Kikut" />
		<tag k="place" v="isolated_dwelling" />
		<tag k="ssr:stedsnr" v="769181" />
	</node>
	<node id="-158211" lat="59.7684527763" lon="10.1552361177">
		<tag k="name" v="Fjellhvil" />
		<tag k="place" v="isolated_dwelling" />
		<tag k="ssr:stedsnr" v="769171" />
	</node>
	<node id="-158210" lat="59.7898722209" lon="10.1428638876">
		<tag k="name" v="Grottehytta" />
		<tag k="place" v="isolated_dwelling" />
		<tag k="ssr:stedsnr" v="769164" />
	</node>
	<node id="-158209" lat="59.7836944416" lon="10.1613583395">
		<tag k="name" v="Haugtussa" />
		<tag k="place" v="isolated_dwelling" />
		<tag k="ssr:stedsnr" v="769129" />
	</node>
	<node id="-158207" lat="59.6918555559" lon="10.1464861065">
		<tag k="name" v="Hagastua" />
		<tag k="place" v="isolated_dwelling" />
		<tag k="ssr:stedsnr" v="768698" />
	</node>
	<node id="-158206" lat="59.6833777741" lon="10.1655750035">
		<tag k="name" v="Mellom-Borge" />
		<tag k="place" v="farm" />
		<tag k="ssr:stedsnr" v="768595" />
	</node>
	<node id="-158205" lat="59.715419442" lon="10.1320222194">
		<tag k="name" v="Skogheim" />
		<tag k="place" v="isolated_dwelling" />
		<tag k="ssr:stedsnr" v="768320" />
	</node>
	<node id="-158204" lat="59.6871916676" lon="10.2251055481">
		<tag k="name" v="Ingvaldsåsen" />
		<tag k="place" v="farm" />
		<tag k="ssr:stedsnr" v="768265" />
	</node>
	<node id="-158203" lat="59.6996749972" lon="10.2290805499">
		<tag k="name" v="Trollhaugen" />
		<tag k="place" v="isolated_dwelling" />
		<tag k="ssr:stedsnr" v="768260" />
	</node>
	<node id="-158202" lat="59.6929250016" lon="10.2152222261">
		<tag k="name" v="Bjørnebo" />
		<tag k="place" v="isolated_dwelling" />
		<tag k="ssr:stedsnr" v="768258" />
	</node>
	<node id="-158201" lat="59.6957000021" lon="10.2297333287">
		<tag k="name" v="Fjellstua" />
		<tag k="place" v="isolated_dwelling" />
		<tag k="ssr:stedsnr" v="768255" />
	</node>
	<node id="-158200" lat="59.6977888892" lon="10.2509194506">
		<tag k="name" v="Eikhaug" />
		<tag k="place" v="isolated_dwelling" />
		<tag k="ssr:stedsnr" v="768251" />
	</node>
	<node id="-158199" lat="59.696588885" lon="10.2968944521">
		<tag k="name" v="Fjellheim" />
		<tag k="place" v="isolated_dwelling" />
		<tag k="ssr:stedsnr" v="768245" />
	</node>
	<node id="-158198" lat="59.6868138928" lon="10.2230305516">
		<tag k="fixme" v="consider place=hamlet" />
		<tag k="name" v="Skoger" />
		<tag k="place" v="village" />
		<tag k="ssr:stedsnr" v="753807" />
	</node>
	<node id="-158197" lat="59.7746805526" lon="10.1217388863">
		<tag k="landuse" v="winter_sports" />
		<tag k="name" v="Aronsløypa" />
		<tag k="piste:type" v="downhill" />
		<tag k="ssr:stedsnr" v="750867" />
	</node>
	<node id="-158196" lat="59.7558444425" lon="10.120613886">
		<tag k="leisure" v="pitch" />
		<tag k="name" v="Berskog idrettsplass" />
		<tag k="ssr:stedsnr" v="750602" />
	</node>
	<node id="-158195" lat="59.7545833332" lon="10.1382805533">
		<tag k="name" v="Soltun" />
		<tag k="place" v="farm" />
		<tag k="ssr:stedsnr" v="750592" />
	</node>
	<node id="-158194" lat="59.7537416648" lon="10.146311108">
		<tag k="name" v="Åssiden torg" />
		<tag k="place" v="square" />
		<tag k="ssr:stedsnr" v="750590" />
	</node>
	<node id="-158193" lat="59.7256305552" lon="10.1408083369">
		<tag k="name" v="Solvang" />
		<tag k="place" v="isolated_dwelling" />
		<tag k="ssr:stedsnr" v="750546" />
	</node>
	<node id="-158192" lat="59.7234611074" lon="10.1371055574">
		<tag k="name" v="Espeset" />
		<tag k="place" v="farm" />
		<tag k="ssr:stedsnr" v="750521" />
	</node>
	<node id="-158191" lat="59.7260305539" lon="10.1269583244">
		<tag k="name" v="Myrhagen" />
		<tag k="place" v="farm" />
		<tag k="ssr:stedsnr" v="750509" />
	</node>
	<node id="-158188" lat="59.7305583313" lon="10.1066472177">
		<tag k="name" v="Fjellheim" />
		<tag k="place" v="farm" />
		<tag k="ssr:stedsnr" v="750492" />
	</node>
	<node id="-158187" lat="59.7870095716" lon="10.1193894993">
		<tag k="alt_name" v="Kjøsterudseter;Kjøsterudsætra" />
		<tag k="historic" v="shieling" />
		<tag k="name" v="Kjøsterudsetra" />
		<tag k="place" v="locality" />
		<tag k="ssr:stedsnr" v="732151" />
	</node>
	<node id="-158186" lat="59.7513305563" lon="10.1323388877">
		<tag k="fixme" v="consider place=hamlet" />
		<tag k="name" v="Berskog" />
		<tag k="place" v="farm" />
		<tag k="ssr:stedsnr" v="732107" />
	</node>
	<node id="-158184" lat="59.7460749971" lon="10.1399555528">
		<tag k="name" v="Stormoen" />
		<tag k="place" v="farm" />
		<tag k="ssr:stedsnr" v="731334" />
	</node>
	<node id="-158183" lat="59.7472888853" lon="10.1520999991">
		<tag k="name" v="Rød" />
		<tag k="place" v="farm" />
		<tag k="ssr:stedsnr" v="731316" />
	</node>
	<node id="-158178" lat="59.7241027793" lon="10.0820638838">
		<tag k="name" v="Bråtan" />
		<tag k="place" v="isolated_dwelling" />
		<tag k="ssr:stedsnr" v="731203" />
	</node>
	<node id="-158177" lat="59.7248749985" lon="10.0972305643">
		<tag k="name" v="Dalen" />
		<tag k="place" v="farm" />
		<tag k="ssr:stedsnr" v="731197" />
	</node>
	<node id="-158174" lat="59.6975555571" lon="10.2944972298">
		<tag k="name" v="Grunnvik" />
		<tag k="place" v="farm" />
		<tag k="ssr:stedsnr" v="731168" />
	</node>
	<node id="-158172" lat="59.6865277738" lon="10.2463222227">
		<tag k="name" v="Nedre Gulliksrud" />
		<tag k="place" v="farm" />
		<tag k="ssr:stedsnr" v="731156" />
	</node>
	<node id="-158171" lat="59.6847332019" lon="10.1829787847">
		<tag k="fixme" v="consider place=hamlet" />
		<tag k="name" v="Flåtan" />
		<tag k="place" v="farm" />
		<tag k="ssr:stedsnr" v="731154" />
	</node>
	<node id="-158170" lat="59.6926947513" lon="10.1507651869">
		<tag k="fixme" v="consider place=hamlet" />
		<tag k="name" v="Imjelt" />
		<tag k="place" v="farm" />
		<tag k="ssr:stedsnr" v="731153" />
	</node>
	<node id="-158168" lat="59.7337111122" lon="10.2174333274">
		<tag k="name" v="Mads Wiels plass" />
		<tag k="place" v="square" />
		<tag k="ssr:stedsnr" v="726846" />
	</node>
	<node id="-158167" lat="59.7308194462" lon="10.1257305514">
		<tag k="name" v="Lesperud" />
		<tag k="place" v="quarter" />
		<tag k="ssr:stedsnr" v="726840" />
	</node>
	<node id="-158156" lat="59.7202111148" lon="10.1334472191">
		<tag k="name" v="Damsborg" />
		<tag k="place" v="farm" />
		<tag k="ssr:stedsnr" v="725322" />
	</node>
	<node id="-158155" lat="59.727594444" lon="10.2483333298">
		<tag k="name" v="Merket" />
		<tag k="place" v="square" />
		<tag k="ssr:stedsnr" v="725132" />
	</node>
	<node id="-158152" lat="59.7287777772" lon="10.229436117">
		<tag k="alt_name" v="Kopervik" />
		<tag k="name" v="Kobbervik" />
		<tag k="place" v="locality" />
		<tag k="ssr:stedsnr" v="722288" />
	</node>
	<node id="-158146" lat="59.6805583322" lon="10.2296944418">
		<tag k="name" v="Nordre Unnelsrud" />
		<tag k="place" v="farm" />
		<tag k="ssr:stedsnr" v="709728" />
	</node>
	<node id="-158144" lat="59.6665000019" lon="10.2222194468">
		<tag k="name" v="Nordheim" />
		<tag k="place" v="isolated_dwelling" />
		<tag k="ssr:stedsnr" v="709692" />
	</node>
	<node id="-158143" lat="59.7352555541" lon="10.2098388804">
		<tag k="alt_name" v="Strømsø ungdomsskole" />
		<tag k="amenity" v="school" />
		<tag k="name" v="Strømsø skole" />
		<tag k="ssr:stedsnr" v="709586" />
	</node>
	<node id="-158142" lat="59.7736249994" lon="10.1483277745">
		<tag k="name" v="Myrstua" />
		<tag k="place" v="isolated_dwelling" />
		<tag k="ssr:stedsnr" v="709203" />
	</node>
	<node id="-158138" lat="59.8150888887" lon="10.1029833273">
		<tag k="name" v="Thule" />
		<tag k="place" v="isolated_dwelling" />
		<tag k="ssr:stedsnr" v="709018" />
	</node>
	<node id="-158137" lat="59.7406138856" lon="10.1795027736">
		<tag k="building" v="industrial" />
		<tag k="industrial" v="factory" />
		<tag k="name" v="NSB jernbaneverksted" />
		<tag k="ssr:stedsnr" v="709007" />
	</node>
	<node id="-158136" lat="59.7447972182" lon="10.2055222148">
		<tag k="amenity" v="townhall" />
		<tag k="name" v="Drammen rådhus" />
		<tag k="ssr:stedsnr" v="708895" />
	</node>
	<node id="-158135" lat="59.683363893" lon="10.1467833293">
		<tag k="name" v="Labråten" />
		<tag k="place" v="locality" />
		<tag k="ssr:stedsnr" v="707684" />
	</node>
	<node id="-158134" lat="59.6841916638" lon="10.1343083333">
		<tag k="name" v="Enga" />
		<tag k="place" v="farm" />
		<tag k="ssr:stedsnr" v="707683" />
	</node>
	<node id="-158131" lat="59.6860777778" lon="10.180072216">
		<tag k="name" v="Nordre Flåtan" />
		<tag k="place" v="farm" />
		<tag k="ssr:stedsnr" v="707594" />
	</node>
	<node id="-158130" lat="59.7001222223" lon="10.1569500055">
		<tag k="name" v="Høyfoss" />
		<tag k="place" v="farm" />
		<tag k="ssr:stedsnr" v="707576" />
	</node>
	<node id="-158129" lat="59.6943805553" lon="10.2984972252">
		<tag k="name" v="Knatten" />
		<tag k="place" v="isolated_dwelling" />
		<tag k="ssr:stedsnr" v="707383" />
	</node>
	<node id="-158127" lat="59.7110166673" lon="10.1289944508">
		<tag k="alt_name" v="Hassebo" />
		<tag k="name" v="Hasselro" />
		<tag k="place" v="isolated_dwelling" />
		<tag k="ssr:stedsnr" v="707368" />
	</node>
	<node id="-158126" lat="59.7164388877" lon="10.1437527853">
		<tag k="name" v="Brokvoll" />
		<tag k="place" v="quarter" />
		<tag k="ssr:stedsnr" v="707363" />
	</node>
	<node id="-158125" lat="59.7146944449" lon="10.1275888819">
		<tag k="name" v="Kollerud" />
		<tag k="place" v="farm" />
		<tag k="ssr:stedsnr" v="707358" />
	</node>
	<node id="-158124" lat="59.6878166624" lon="10.2217361077">
		<tag k="name" v="Berg" />
		<tag k="place" v="isolated_dwelling" />
		<tag k="ssr:stedsnr" v="707309" />
	</node>
	<node id="-158123" lat="59.6838583301" lon="10.2604888963">
		<tag k="name" v="Fagerlund" />
		<tag k="place" v="farm" />
		<tag k="ssr:stedsnr" v="707304" />
	</node>
	<node id="-158122" lat="59.6873833302" lon="10.2563583408">
		<tag k="name" v="Lindum" />
		<tag k="place" v="farm" />
		<tag k="ssr:stedsnr" v="707300" />
	</node>
	<node id="-158121" lat="59.698888892" lon="10.2334583392">
		<tag k="name" v="Gunnerud" />
		<tag k="place" v="farm" />
		<tag k="ssr:stedsnr" v="707295" />
	</node>
	<node id="-158119" lat="59.6908999989" lon="10.3154166618">
		<tag k="name" v="Fjellvang" />
		<tag k="place" v="isolated_dwelling" />
		<tag k="ssr:stedsnr" v="707284" />
	</node>
	<node id="-158118" lat="59.6913138902" lon="10.3160527803">
		<tag k="name" v="Verven" />
		<tag k="place" v="hamlet" />
		<tag k="ssr:stedsnr" v="707283" />
	</node>
	<node id="-158113" lat="59.7362388849" lon="10.2021138938">
		<tag k="leisure" v="pitch" />
		<tag k="name" v="Marienlyst" />
		<tag k="ssr:stedsnr" v="694104" />
	</node>
	<node id="-158112" lat="59.7493611094" lon="10.2199055521">
		<tag k="name" v="Strøtvet" />
		<tag k="place" v="quarter" />
		<tag k="ssr:stedsnr" v="691517" />
	</node>
	<node id="-158110" lat="59.7871749992" lon="10.1455138801">
		<tag k="name" v="Vesleper" />
		<tag k="place" v="farm" />
		<tag k="ssr:stedsnr" v="690760" />
	</node>
	<node id="-158106" lat="59.728366664" lon="10.14633888">
		<tag k="amenity" v="school" />
		<tag k="name" v="Hallermoen skole" />
		<tag k="ssr:stedsnr" v="690594" />
	</node>
	<node id="-158105" lat="59.7238861084" lon="10.1362361063">
		<tag k="name" v="Enga" />
		<tag k="place" v="farm" />
		<tag k="ssr:stedsnr" v="690583" />
	</node>
	<node id="-158104" lat="59.7267416701" lon="10.0984861162">
		<tag k="name" v="Hagen" />
		<tag k="place" v="farm" />
		<tag k="ssr:stedsnr" v="690568" />
	</node>
	<node id="-158103" lat="59.728461113" lon="10.11507222">
		<tag k="name" v="Eskerud" />
		<tag k="place" v="farm" />
		<tag k="ssr:stedsnr" v="690566" />
	</node>
	<node id="-158101" lat="59.762386114" lon="10.1294388914">
		<tag k="amenity" v="school" />
		<tag k="name" v="Aronsløkka skole" />
		<tag k="ssr:stedsnr" v="671076" />
	</node>
	<node id="-158100" lat="59.705425" lon="10.1482249966">
		<tag k="name" v="Haugen" />
		<tag k="place" v="farm" />
		<tag k="ssr:stedsnr" v="670301" />
	</node>
	<node id="-158098" lat="59.71047222" lon="10.2344361138">
		<tag k="name" v="Danserud" />
		<tag k="place" v="isolated_dwelling" />
		<tag k="ssr:stedsnr" v="670278" />
	</node>
	<node id="-158096" lat="59.6781285471" lon="10.2644023111">
		<tag k="fixme" v="consider place=hamlet" />
		<tag k="name" v="Skalpe" />
		<tag k="place" v="farm" />
		<tag k="ssr:stedsnr" v="670216" />
	</node>
	<node id="-158095" lat="59.684802778" lon="10.2537555506">
		<tag k="name" v="Fagerheim" />
		<tag k="place" v="farm" />
		<tag k="ssr:stedsnr" v="670205" />
	</node>
	<node id="-158094" lat="59.6916861102" lon="10.2127750025">
		<tag k="alt_name" v="Torbråten" />
		<tag k="name" v="Torbråtan" />
		<tag k="place" v="farm" />
		<tag k="ssr:stedsnr" v="670203" />
	</node>
	<node id="-158088" lat="59.7287861099" lon="10.1295555595">
		<tag k="name" v="Gomperud" />
		<tag k="place" v="quarter" />
		<tag k="ssr:stedsnr" v="665849" />
	</node>
	<node id="-158087" lat="59.7474888891" lon="10.224161115">
		<tag k="leisure" v="pitch" />
		<tag k="name" v="Kjappen" />
		<tag k="ssr:stedsnr" v="665828" />
	</node>
	<node id="-158085" lat="59.7447694455" lon="10.1807888974">
		<tag k="building" v="industrial" />
		<tag k="industrial" v="factory" />
		<tag k="name" v="Lycke Konvolutt AS" />
		<tag k="ssr:stedsnr" v="665748" />
	</node>
	<node id="-158082" lat="59.7140999996" lon="10.1493277693">
		<tag k="name" v="Pettersvoll" />
		<tag k="place" v="farm" />
		<tag k="ssr:stedsnr" v="664420" />
	</node>
	<node id="-158081" lat="59.7200583317" lon="10.1458861033">
		<tag k="name" v="Ekholt" />
		<tag k="place" v="quarter" />
		<tag k="ssr:stedsnr" v="664320" />
	</node>
	<node id="-158078" lat="59.7621055527" lon="10.1251027834">
		<tag k="name" v="Aronsløkka" />
		<tag k="place" v="quarter" />
		<tag k="ssr:stedsnr" v="658642" />
	</node>
	<node id="-158075" lat="59.6685000029" lon="10.0459361083">
		<tag k="name" v="Stallane" />
		<tag k="place" v="locality" />
		<tag k="ssr:stedsnr" v="648787" />
	</node>
	<node id="-158073" lat="59.6739694411" lon="10.255019439">
		<tag k="name" v="Bærheim" />
		<tag k="place" v="farm" />
		<tag k="ssr:stedsnr" v="648733" />
	</node>
	<node id="-158072" lat="59.6770027771" lon="10.2315694438">
		<tag k="name" v="Nordre Unnelsrud" />
		<tag k="place" v="farm" />
		<tag k="ssr:stedsnr" v="648732" />
	</node>
	<node id="-158070" lat="59.6724972205" lon="10.1813361036">
		<tag k="name" v="Tollersrud" />
		<tag k="place" v="locality" />
		<tag k="ssr:stedsnr" v="648711" />
	</node>
	<node id="-158068" lat="59.6688694464" lon="10.212702786">
		<tag k="name" v="Hammersborg" />
		<tag k="place" v="farm" />
		<tag k="ssr:stedsnr" v="648698" />
	</node>
	<node id="-158064" lat="59.7396638881" lon="10.2029888971">
		<tag k="amenity" v="school" />
		<tag k="name" v="St. Halvard skole" />
		<tag k="ssr:stedsnr" v="648605" />
	</node>
	<node id="-158061" lat="59.7141138888" lon="10.2358833416">
		<tag k="name" v="Dalen" />
		<tag k="place" v="farm" />
		<tag k="ssr:stedsnr" v="648067" />
	</node>
	<node id="-158060" lat="59.7126361142" lon="10.2317583332">
		<tag k="name" v="Søndre Fjell" />
		<tag k="place" v="locality" />
		<tag k="ssr:stedsnr" v="648063" />
	</node>
	<node id="-158059" lat="59.7088638907" lon="10.2356722148">
		<tag k="name" v="Nystad" />
		<tag k="place" v="isolated_dwelling" />
		<tag k="ssr:stedsnr" v="648047" />
	</node>
	<node id="-158056" lat="59.6846388896" lon="10.127127778">
		<tag k="name" v="Øvre Furuvoll" />
		<tag k="place" v="farm" />
		<tag k="ssr:stedsnr" v="646664" />
	</node>
	<node id="-158054" lat="59.693586112" lon="10.2058666647">
		<tag k="name" v="Mælen" />
		<tag k="place" v="farm" />
		<tag k="ssr:stedsnr" v="646579" />
	</node>
	<node id="-158053" lat="59.6979388855" lon="10.165438892">
		<tag k="name" v="Springover" />
		<tag k="place" v="farm" />
		<tag k="ssr:stedsnr" v="646575" />
	</node>
	<node id="-158050" lat="59.717024996" lon="10.1384055622">
		<tag k="amenity" v="nursing_home" />
		<tag k="name" v="Eikholt senter for døvblinde" />
		<tag k="ssr:stedsnr" v="646329" />
	</node>
	<node id="-158049" lat="59.6837083354" lon="10.2335749973">
		<tag k="name" v="Nordre Gunnarsrud" />
		<tag k="place" v="farm" />
		<tag k="ssr:stedsnr" v="646300" />
	</node>
	<node id="-158048" lat="59.6889194486" lon="10.2513694402">
		<tag k="name" v="Nedre Lindum" />
		<tag k="place" v="farm" />
		<tag k="ssr:stedsnr" v="646279" />
	</node>
	<node id="-158047" lat="59.6605305532" lon="10.0270500021">
		<tag k="name" v="Damstua" />
		<tag k="place" v="isolated_dwelling" />
		<tag k="ssr:stedsnr" v="634241" />
	</node>
	<node id="-158045" lat="59.7534027751" lon="10.1195138908">
		<tag k="name" v="Bekkevoll" />
		<tag k="place" v="farm" />
		<tag k="ssr:stedsnr" v="629900" />
	</node>
	<node id="-158044" lat="59.7550833358" lon="10.1286694526">
		<tag k="building" v="commercial" />
		<tag k="name" v="Campinggården" />
		<tag k="ssr:stedsnr" v="629614" />
	</node>
	<node id="-158043" lat="59.7441111124" lon="10.1307638902">
		<tag k="name" v="Kleggen" />
		<tag k="place" v="farm" />
		<tag k="ssr:stedsnr" v="629576" />
	</node>
	<node id="-158042" lat="59.7294555513" lon="10.0871305639">
		<tag k="name" v="Endeli" />
		<tag k="place" v="farm" />
		<tag k="ssr:stedsnr" v="629567" />
	</node>
	<node id="-158041" lat="59.7320222266" lon="10.1233861127">
		<tag k="name" v="Lutevold" />
		<tag k="place" v="farm" />
		<tag k="ssr:stedsnr" v="629544" />
	</node>
	<node id="-158040" lat="59.7271638881" lon="10.1095972215">
		<tag k="name" v="Haugen" />
		<tag k="place" v="farm" />
		<tag k="ssr:stedsnr" v="629523" />
	</node>
	<node id="-158039" lat="59.7262083342" lon="10.1151388925">
		<tag k="name" v="Ryddheim" />
		<tag k="place" v="farm" />
		<tag k="ssr:stedsnr" v="629522" />
	</node>
	<node id="-158037" lat="59.7071609168" lon="10.2509837232">
		<tag k="fixme" v="consider place=hamlet" />
		<tag k="name" v="Store Solum" />
		<tag k="place" v="farm" />
		<tag k="ssr:stedsnr" v="610339" />
	</node>
	<node id="-158036" lat="59.7164250008" lon="10.2249388951">
		<tag k="name" v="Fjell" />
		<tag k="place" v="suburb" />
		<tag k="ssr:stedsnr" v="610324" />
	</node>
	<node id="-158034" lat="59.7580472242" lon="10.1135027848">
		<tag k="name" v="Kjøsterud" />
		<tag k="place" v="farm" />
		<tag k="ssr:stedsnr" v="610078" />
	</node>
	<node id="-158033" lat="59.7573194435" lon="10.1582166717">
		<tag k="name" v="Bråtan" />
		<tag k="place" v="quarter" />
		<tag k="ssr:stedsnr" v="610072" />
	</node>
	<node id="-158032" lat="59.7438910297" lon="10.2044824112">
		<tag k="name" v="Drammen" />
		<tag k="place" v="town" />
		<tag k="ssr:stedsnr" v="609364" />
	</node>
	<node id="-158029" lat="59.7272444428" lon="10.2367055474">
		<tag k="name" v="Sankt Hansberget" />
		<tag k="place" v="quarter" />
		<tag k="ssr:stedsnr" v="609266" />
	</node>
	<node id="-158028" lat="59.7292555542" lon="10.0824361108">
		<tag k="name" v="Treholt" />
		<tag k="place" v="farm" />
		<tag k="ssr:stedsnr" v="609243" />
	</node>
	<node id="-158027" lat="59.6776638895" lon="10.1700916623">
		<tag k="name" v="Viulsrud" />
		<tag k="place" v="farm" />
		<tag k="ssr:stedsnr" v="609240" />
	</node>
	<node id="-158026" lat="59.684386115" lon="10.1269749958">
		<tag k="fixme" v="consider place=hamlet" />
		<tag k="name" v="Furuvoll" />
		<tag k="place" v="farm" />
		<tag k="ssr:stedsnr" v="609230" />
	</node>
	<node id="-158025" lat="59.6671250041" lon="10.0993749923">
		<tag k="alt_name" v="Saggravdalen" />
		<tag k="name" v="Saggravdal" />
		<tag k="place" v="isolated_dwelling" />
		<tag k="ssr:stedsnr" v="609212" />
	</node>
	<node id="-158023" lat="59.6885777744" lon="10.2115777769">
		<tag k="fixme" v="multiple name tags, choose one and add the other to alt_name" />
		<tag k="name" v="Dæle;Dæle prestegård" />
		<tag k="place" v="farm" />
		<tag k="ssr:stedsnr" v="609192" />
	</node>
	<node id="-158022" lat="59.6902666684" lon="10.1424000054">
		<tag k="name" v="Gardås" />
		<tag k="place" v="isolated_dwelling" />
		<tag k="ssr:stedsnr" v="609188" />
	</node>
	<node id="-158020" lat="59.7455944424" lon="10.1707472254">
		<tag k="building" v="industrial" />
		<tag k="industrial" v="factory" />
		<tag k="name" v="Sundland papirfabrikk" />
		<tag k="ssr:stedsnr" v="605700" />
	</node>
	<node id="-158016" lat="59.7459805535" lon="10.1597444496">
		<tag k="amenity" v="nursing_home" />
		<tag k="name" v="Gulskogen pleiehjem" />
		<tag k="ssr:stedsnr" v="604812" />
	</node>
	<node id="-158015" lat="59.7501222264" lon="10.1646944506">
		<tag k="leisure" v="park" />
		<tag k="name" v="Bacheparken" />
		<tag k="ssr:stedsnr" v="604802" />
	</node>
	<node id="-158012" lat="59.7169527755" lon="10.128961109">
		<tag k="name" v="Jansholt" />
		<tag k="place" v="isolated_dwelling" />
		<tag k="ssr:stedsnr" v="603334" />
	</node>
	<node id="-158011" lat="59.7153194465" lon="10.1278583335">
		<tag k="name" v="Myrstua" />
		<tag k="place" v="isolated_dwelling" />
		<tag k="ssr:stedsnr" v="603332" />
	</node>
	<node id="-158010" lat="59.7187138874" lon="10.1374305636">
		<tag k="name" v="Gården" />
		<tag k="place" v="isolated_dwelling" />
		<tag k="ssr:stedsnr" v="603328" />
	</node>
	<node id="-157999" lat="59.6766416699" lon="10.2026472218">
		<tag k="name" v="Vestre Haneval" />
		<tag k="place" v="farm" />
		<tag k="ssr:stedsnr" v="588710" />
	</node>
	<node id="-157998" lat="59.770547218" lon="10.1672583407">
		<tag k="name" v="Brannhytta" />
		<tag k="place" v="isolated_dwelling" />
		<tag k="ssr:stedsnr" v="587205" />
	</node>
	<node id="-157992" lat="59.7235111088" lon="10.2573555541">
		<tag k="building" v="industrial" />
		<tag k="industrial" v="factory" />
		<tag k="name" v="Nøsted bruk" />
		<tag k="ssr:stedsnr" v="587056" />
	</node>
	<node id="-157990" lat="59.7115444473" lon="10.2332111185">
		<tag k="name" v="Orhaug" />
		<tag k="place" v="isolated_dwelling" />
		<tag k="ssr:stedsnr" v="587031" />
	</node>
	<node id="-157987" lat="59.7343361106" lon="10.2014277808">
		<tag k="leisure" v="pitch" />
		<tag k="name" v="Gressbanen" />
		<tag k="ssr:stedsnr" v="587009" />
	</node>
	<node id="-157986" lat="59.744230554" lon="10.2114277866">
		<tag k="building" v="civic" />
		<tag k="name" v="Drammen tinghus" />
		<tag k="ssr:stedsnr" v="586898" />
	</node>
	<node id="-157985" lat="59.7182361145" lon="10.2624916693">
		<tag k="name" v="Ask" />
		<tag k="place" v="farm" />
		<tag k="ssr:stedsnr" v="586752" />
	</node>
	<node id="-157984" lat="59.6908999962" lon="10.1406805524">
		<tag k="name" v="Galås" />
		<tag k="place" v="farm" />
		<tag k="ssr:stedsnr" v="586680" />
	</node>
	<node id="-157982" lat="59.6843611068" lon="10.1822333334">
		<tag k="name" v="Søndre Flåtan" />
		<tag k="place" v="farm" />
		<tag k="ssr:stedsnr" v="586594" />
	</node>
	<node id="-157981" lat="59.6813694468" lon="10.1934222252">
		<tag k="name" v="Søndre Holmen" />
		<tag k="place" v="farm" />
		<tag k="ssr:stedsnr" v="586593" />
	</node>
	<node id="-157980" lat="59.686747218" lon="10.193400001">
		<tag k="name" v="Løyse" />
		<tag k="place" v="farm" />
		<tag k="ssr:stedsnr" v="586592" />
	</node>
	<node id="-157979" lat="59.6942666644" lon="10.2068861144">
		<tag k="name" v="Mælen" />
		<tag k="place" v="farm" />
		<tag k="ssr:stedsnr" v="586585" />
	</node>
	<node id="-157976" lat="59.6947916643" lon="10.2996666579">
		<tag k="name" v="Veslebakken" />
		<tag k="place" v="isolated_dwelling" />
		<tag k="ssr:stedsnr" v="585324" />
	</node>
	<node id="-157975" lat="59.7136638908" lon="10.1273750039">
		<tag k="name" v="Bråten" />
		<tag k="place" v="farm" />
		<tag k="ssr:stedsnr" v="585306" />
	</node>
	<node id="-157974" lat="59.6829444449" lon="10.2336361096">
		<tag k="name" v="Søndre Gunnarsrud" />
		<tag k="place" v="farm" />
		<tag k="ssr:stedsnr" v="585262" />
	</node>
	<node id="-157973" lat="59.68117778" lon="10.2485583397">
		<tag k="name" v="Nedre Gunnarsrud" />
		<tag k="place" v="farm" />
		<tag k="ssr:stedsnr" v="585260" />
	</node>
	<node id="-157972" lat="59.6941277765" lon="10.2131694394">
		<tag k="name" v="Lyngstua" />
		<tag k="place" v="isolated_dwelling" />
		<tag k="ssr:stedsnr" v="585251" />
	</node>
	<node id="-157971" lat="59.6906611096" lon="10.2267583318">
		<tag k="name" v="Freberg" />
		<tag k="place" v="isolated_dwelling" />
		<tag k="ssr:stedsnr" v="585248" />
	</node>
	<node id="-157970" lat="59.6972583321" lon="10.2310527795">
		<tag k="name" v="Bergheim" />
		<tag k="place" v="isolated_dwelling" />
		<tag k="ssr:stedsnr" v="585241" />
	</node>
	<node id="-157969" lat="59.7000999979" lon="10.241941671">
		<tag k="name" v="Åsly" />
		<tag k="place" v="farm" />
		<tag k="ssr:stedsnr" v="585229" />
	</node>
	<node id="-157964" lat="59.7074249962" lon="10.1605249959">
		<tag k="name" v="Jordbrekkskogen" />
		<tag k="place" v="quarter" />
		<tag k="ssr:stedsnr" v="572149" />
	</node>
	<node id="-157962" lat="59.7263499955" lon="10.0897833369">
		<tag k="name" v="Stubberud" />
		<tag k="place" v="farm" />
		<tag k="ssr:stedsnr" v="568558" />
	</node>
	<node id="-157961" lat="59.7264666693" lon="10.0816888826">
		<tag k="name" v="Håkagård" />
		<tag k="place" v="farm" />
		<tag k="ssr:stedsnr" v="568559" />
	</node>
	<node id="-157960" lat="59.7267361084" lon="10.0871444383">
		<tag k="name" v="Stubberud" />
		<tag k="place" v="hamlet" />
		<tag k="ssr:stedsnr" v="568554" />
	</node>
	<node id="-157959" lat="59.7263500033" lon="10.1377194446">
		<tag k="name" v="Tufte" />
		<tag k="place" v="farm" />
		<tag k="ssr:stedsnr" v="568507" />
	</node>
	<node id="-157957" lat="59.7289333344" lon="10.0986638813">
		<tag k="name" v="Hygga" />
		<tag k="place" v="farm" />
		<tag k="ssr:stedsnr" v="568494" />
	</node>
	<node id="-157952" lat="59.7146694455" lon="10.1571166647">
		<tag k="name" v="Skjelsbekk" />
		<tag k="place" v="farm" />
		<tag k="ssr:stedsnr" v="549299" />
	</node>
	<node id="-157950" lat="59.7143805586" lon="10.1400222262">
		<tag k="alt_name" v="Veimot" />
		<tag k="name" v="Vegmo" />
		<tag k="place" v="farm" />
		<tag k="ssr:stedsnr" v="549295" />
	</node>
	<node id="-157949" lat="59.7219083352" lon="10.1644055612">
		<tag k="name" v="Skjerpholt" />
		<tag k="place" v="isolated_dwelling" />
		<tag k="ssr:stedsnr" v="549282" />
	</node>
	<node id="-157948" lat="59.7311749988" lon="10.1153666666">
		<tag k="fixme" v="consider place=hamlet" />
		<tag k="name" v="Kollen" />
		<tag k="place" v="farm" />
		<tag k="ssr:stedsnr" v="549266" />
	</node>
	<node id="-157947" lat="59.7286416705" lon="10.1034250078">
		<tag k="name" v="Holmen" />
		<tag k="place" v="isolated_dwelling" />
		<tag k="ssr:stedsnr" v="549254" />
	</node>
	<node id="-157946" lat="59.6793166704" lon="10.067813896">
		<tag k="name" v="Rønnehue" />
		<tag k="place" v="isolated_dwelling" />
		<tag k="ssr:stedsnr" v="549243" />
	</node>
	<node id="-157943" lat="59.6869551507" lon="10.1933442685">
		<tag k="fixme" v="consider place=hamlet" />
		<tag k="name" v="Løyse" />
		<tag k="place" v="farm" />
		<tag k="ssr:stedsnr" v="549201" />
	</node>
	<node id="-157938" lat="59.7478055547" lon="10.1454055567">
		<tag k="name" v="Lillemoen" />
		<tag k="place" v="farm" />
		<tag k="ssr:stedsnr" v="548386" />
	</node>
	<node id="-157936" lat="59.6926138847" lon="10.1835833401">
		<tag k="name" v="Nedre Skjeldrum" />
		<tag k="place" v="farm" />
		<tag k="ssr:stedsnr" v="548217" />
	</node>
	<node id="-157935" lat="59.7325333305" lon="10.1448194378">
		<tag k="name" v="Hallermoen" />
		<tag k="place" v="quarter" />
		<tag k="ssr:stedsnr" v="544818" />
	</node>
	<node id="-157928" lat="59.7195833329" lon="10.1375138967">
		<tag k="name" v="Jørandsrud" />
		<tag k="place" v="isolated_dwelling" />
		<tag k="ssr:stedsnr" v="542337" />
	</node>
	<node id="-157926" lat="59.7218500023" lon="10.1338916742">
		<tag k="amenity" v="school" />
		<tag k="name" v="Konnerud skole" />
		<tag k="ssr:stedsnr" v="542328" />
	</node>
	<node id="-157922" lat="59.6779722249" lon="10.2616527694">
		<tag k="name" v="Knatten" />
		<tag k="place" v="isolated_dwelling" />
		<tag k="ssr:stedsnr" v="527745" />
	</node>
	<node id="-157918" lat="59.7767277735" lon="10.1579444483">
		<tag k="name" v="Klokkerstua" />
		<tag k="place" v="isolated_dwelling" />
		<tag k="ssr:stedsnr" v="527203" />
	</node>
	<node id="-157917" lat="59.7679194418" lon="10.1537749995">
		<tag k="name" v="Fjelldokka" />
		<tag k="place" v="isolated_dwelling" />
		<tag k="ssr:stedsnr" v="527195" />
	</node>
	<node id="-157916" lat="59.79364444" lon="10.1303222286">
		<tag k="name" v="Klunken" />
		<tag k="place" v="isolated_dwelling" />
		<tag k="ssr:stedsnr" v="527191" />
	</node>
	<node id="-157913" lat="59.7081999965" lon="10.2276861182">
		<tag k="name" v="Fredtun" />
		<tag k="place" v="isolated_dwelling" />
		<tag k="ssr:stedsnr" v="527048" />
	</node>
	<node id="-157912" lat="59.7128305554" lon="10.2602972222">
		<tag k="amenity" v="school" />
		<tag k="name" v="Åskollen skole" />
		<tag k="ssr:stedsnr" v="527043" />
	</node>
	<node id="-157908" lat="59.7328638897" lon="10.1983861176">
		<tag k="amenity" v="school" />
		<tag k="name" v="Danvik folkehøgskole" />
		<tag k="ssr:stedsnr" v="527004" />
	</node>
	<node id="-157907" lat="59.7313222179" lon="10.2027972183">
		<tag k="leisure" v="park" />
		<tag k="name" v="Bikkjestykket" />
		<tag k="ssr:stedsnr" v="527003" />
	</node>
	<node id="-157904" lat="59.657769445" lon="10.0714777767">
		<tag k="name" v="Vesle Gravdal" />
		<tag k="place" v="locality" />
		<tag k="ssr:stedsnr" v="525842" />
	</node>
	<node id="-157903" lat="59.6838694463" lon="10.1299277724">
		<tag k="name" v="Haveråen" />
		<tag k="place" v="farm" />
		<tag k="ssr:stedsnr" v="525671" />
	</node>
	<node id="-157902" lat="59.690791663" lon="10.143713897">
		<tag k="name" v="Granhaug" />
		<tag k="place" v="isolated_dwelling" />
		<tag k="ssr:stedsnr" v="525669" />
	</node>
	<node id="-157899" lat="59.6970749991" lon="10.2967888897">
		<tag k="name" v="Strandvik" />
		<tag k="place" v="isolated_dwelling" />
		<tag k="ssr:stedsnr" v="525378" />
	</node>
	<node id="-157898" lat="59.7035916706" lon="10.0775611079">
		<tag k="name" v="Sagdamstua" />
		<tag k="place" v="isolated_dwelling" />
		<tag k="ssr:stedsnr" v="525373" />
	</node>
	<node id="-157896" lat="59.7004277781" lon="10.2862555578">
		<tag k="name" v="Åsheim" />
		<tag k="place" v="farm" />
		<tag k="ssr:stedsnr" v="525367" />
	</node>
	<node id="-157894" lat="59.6848444419" lon="10.2493166691">
		<tag k="name" v="Solvang" />
		<tag k="place" v="isolated_dwelling" />
		<tag k="ssr:stedsnr" v="525312" />
	</node>
	<node id="-157893" lat="59.6942666647" lon="10.2116999938">
		<tag k="name" v="Mælen" />
		<tag k="place" v="farm" />
		<tag k="ssr:stedsnr" v="525308" />
	</node>
	<node id="-157892" lat="59.6905138859" lon="10.2558166716">
		<tag k="name" v="Alfheim" />
		<tag k="place" v="farm" />
		<tag k="ssr:stedsnr" v="525304" />
	</node>
	<node id="-157882" lat="59.7563055543" lon="10.1256833265">
		<tag k="building" v="industrial" />
		<tag k="name" v="Åssiden Servicenter" />
		<tag k="ssr:stedsnr" v="508639" />
	</node>
	<node id="-157881" lat="59.7264083302" lon="10.0858916746">
		<tag k="name" v="Rasteplassen" />
		<tag k="place" v="farm" />
		<tag k="ssr:stedsnr" v="508610" />
	</node>
	<node id="-157879" lat="59.7311833337" lon="10.1156055598">
		<tag k="name" v="Nedre Kollen" />
		<tag k="place" v="farm" />
		<tag k="ssr:stedsnr" v="508569" />
	</node>
	<node id="-157878" lat="59.7266083338" lon="10.1037777721">
		<tag k="name" v="Skjønhaug" />
		<tag k="place" v="farm" />
		<tag k="ssr:stedsnr" v="508563" />
	</node>
	<node id="-157877" lat="59.7266222257" lon="10.1138222181">
		<tag k="name" v="Fjellhvil" />
		<tag k="place" v="farm" />
		<tag k="ssr:stedsnr" v="508558" />
	</node>
	<node id="-157876" lat="59.7878055515" lon="10.1342249979">
		<tag k="fixme" v="consider tourism=alpine_hut or tourism=chalet" />
		<tag k="name" v="Tverken" />
		<tag k="ssr:stedsnr" v="489145" />
		<tag k="tourism" v="wilderness_hut" />
	</node>
	<node id="-157873" lat="59.7305504292" lon="10.2356960965">
		<tag k="name" v="Tangen" />
		<tag k="place" v="village" />
		<tag k="ssr:stedsnr" v="488225" />
	</node>
	<node id="-157872" lat="59.7241999958" lon="10.1197750054">
		<tag k="name" v="Fosserud" />
		<tag k="place" v="farm" />
		<tag k="ssr:stedsnr" v="488215" />
	</node>
	<node id="-157869" lat="59.6975999964" lon="10.2088305606">
		<tag k="name" v="Hagan" />
		<tag k="place" v="farm" />
		<tag k="ssr:stedsnr" v="488180" />
	</node>
	<node id="-157868" lat="59.7008500039" lon="10.1561583384">
		<tag k="fixme" v="multiple name tags, choose one and add the other to alt_name" />
		<tag k="name" v="Hallerud;Solvang" />
		<tag k="place" v="farm" />
		<tag k="ssr:stedsnr" v="488175" />
	</node>
	<node id="-157867" lat="59.6863605174" lon="10.224186845">
		<tag k="fixme" v="consider place=hamlet" />
		<tag k="name" v="Ingulsåsen" />
		<tag k="place" v="farm" />
		<tag k="ssr:stedsnr" v="488171" />
	</node>
	<node id="-157863" lat="59.7493277767" lon="10.2145833409">
		<tag k="name" v="Frydenberg" />
		<tag k="place" v="quarter" />
		<tag k="ssr:stedsnr" v="483841" />
	</node>
	<node id="-157858" lat="59.7452722253" lon="10.1594888946">
		<tag k="amenity" v="school" />
		<tag k="name" v="Rødskog skole" />
		<tag k="ssr:stedsnr" v="483822" />
	</node>
	<node id="-157857" lat="59.7454972202" lon="10.1936611041">
		<tag k="name" v="Elveplassen" />
		<tag k="place" v="square" />
		<tag k="ssr:stedsnr" v="483820" />
	</node>
	<node id="-157856" lat="59.7455138901" lon="10.1997472182">
		<tag k="amenity" v="townhall" />
		<tag k="name" v="Fylkeshuset" />
		<tag k="ssr:stedsnr" v="483818" />
	</node>
	<node id="-157851" lat="59.709586107" lon="10.2040972186">
		<tag k="name" v="Hellashytta" />
		<tag k="place" v="isolated_dwelling" />
		<tag k="ssr:stedsnr" v="482329" />
	</node>
	<node id="-157847" lat="59.6699749985" lon="10.220374994">
		<tag k="leisure" v="pitch" />
		<tag k="name" v="Skoger golfbane" />
		<tag k="ssr:stedsnr" v="467714" />
	</node>
	<node id="-157846" lat="59.6759166679" lon="10.2083027716">
		<tag k="name" v="Østre Haneval" />
		<tag k="place" v="farm" />
		<tag k="ssr:stedsnr" v="467707" />
	</node>
	<node id="-157845" lat="59.6664666673" lon="10.2191111133">
		<tag k="name" v="Fredenhaug" />
		<tag k="place" v="isolated_dwelling" />
		<tag k="ssr:stedsnr" v="467700" />
	</node>
	<node id="-157844" lat="59.6772611114" lon="10.2610583404">
		<tag k="name" v="Skalpe" />
		<tag k="place" v="farm" />
		<tag k="ssr:stedsnr" v="466769" />
	</node>
	<node id="-157840" lat="59.7944666682" lon="10.1348944464">
		<tag k="name" v="Juvstua" />
		<tag k="place" v="isolated_dwelling" />
		<tag k="ssr:stedsnr" v="466191" />
	</node>
	<node id="-157839" lat="59.7879749968" lon="10.1675638902">
		<tag k="name" v="Fjellstup" />
		<tag k="place" v="isolated_dwelling" />
		<tag k="ssr:stedsnr" v="466138" />
	</node>
	<node id="-157838" lat="59.7966611151" lon="10.1103055529">
		<tag k="name" v="Tiuren" />
		<tag k="place" v="isolated_dwelling" />
		<tag k="ssr:stedsnr" v="466035" />
	</node>
	<node id="-157837" lat="59.7242944473" lon="10.1501583273">
		<tag k="amenity" v="nursing_home" />
		<tag k="name" v="Fredholt" />
		<tag k="ssr:stedsnr" v="466022" />
	</node>
	<node id="-157836" lat="59.7247277736" lon="10.1872833311">
		<tag k="fixme" v="consider tourism=alpine_hut or tourism=chalet" />
		<tag k="name" v="Blektjernstua" />
		<tag k="ssr:stedsnr" v="466008" />
		<tag k="tourism" v="wilderness_hut" />
	</node>
	<node id="-157834" lat="59.6836055563" lon="10.1377861062">
		<tag k="name" v="Nedre Furuvoll" />
		<tag k="place" v="farm" />
		<tag k="ssr:stedsnr" v="465692" />
	</node>
	<node id="-157833" lat="59.6897777744" lon="10.121847228">
		<tag k="name" v="Olsrud" />
		<tag k="place" v="isolated_dwelling" />
		<tag k="ssr:stedsnr" v="465680" />
	</node>
	<node id="-157830" lat="59.678238892" lon="10.2648777735">
		<tag k="name" v="Skalpe" />
		<tag k="place" v="farm" />
		<tag k="ssr:stedsnr" v="465637" />
	</node>
	<node id="-157829" lat="59.6824944484" lon="10.1651888866">
		<tag k="name" v="Vestre Borge" />
		<tag k="place" v="farm" />
		<tag k="ssr:stedsnr" v="465580" />
	</node>
	<node id="-157828" lat="59.6841250035" lon="10.2052972205">
		<tag k="name" v="Nordre Sten" />
		<tag k="place" v="farm" />
		<tag k="ssr:stedsnr" v="465579" />
	</node>
	<node id="-157827" lat="59.6989194469" lon="10.2917416643">
		<tag k="name" v="Brunsvik" />
		<tag k="place" v="isolated_dwelling" />
		<tag k="ssr:stedsnr" v="464375" />
	</node>
	<node id="-157826" lat="59.7006777793" lon="10.2856611189">
		<tag k="name" v="Nygård" />
		<tag k="place" v="farm" />
		<tag k="ssr:stedsnr" v="464369" />
	</node>
	<node id="-157825" lat="59.7123611114" lon="10.1440944363">
		<tag k="leisure" v="pitch" />
		<tag k="name" v="Konnerud stadion" />
		<tag k="ssr:stedsnr" v="464361" />
	</node>
	<node id="-157824" lat="59.7145083292" lon="10.1477944497">
		<tag k="amenity" v="sports_centre" />
		<tag k="name" v="Konnerudhallen" />
		<tag k="ssr:stedsnr" v="464354" />
	</node>
	<node id="-157823" lat="59.6990361114" lon="10.251977775">
		<tag k="fixme" v="consider place=suburb, village or hamlet" />
		<tag k="name" v="Eikhaugen" />
		<tag k="place" v="quarter" />
		<tag k="ssr:stedsnr" v="464266" />
	</node>
	<node id="-157819" lat="59.6922638856" lon="10.3109027854">
		<tag k="name" v="Lindebukt" />
		<tag k="place" v="isolated_dwelling" />
		<tag k="ssr:stedsnr" v="449657" />
	</node>
	<node id="-157817" lat="59.7535333354" lon="10.1180250069">
		<tag k="name" v="Haugen" />
		<tag k="place" v="farm" />
		<tag k="ssr:stedsnr" v="447886" />
	</node>
	<node id="-157816" lat="59.7457277755" lon="10.1258388939">
		<tag k="name" v="Pukerud" />
		<tag k="place" v="quarter" />
		<tag k="ssr:stedsnr" v="447881" />
	</node>
	<node id="-157812" lat="59.7249111073" lon="10.0808444373">
		<tag k="name" v="Åsli" />
		<tag k="place" v="farm" />
		<tag k="ssr:stedsnr" v="447549" />
	</node>
	<node id="-157811" lat="59.7240500009" lon="10.0806916664">
		<tag k="name" v="Tjernbo" />
		<tag k="place" v="isolated_dwelling" />
		<tag k="ssr:stedsnr" v="447547" />
	</node>
	<node id="-157810" lat="59.7295944424" lon="10.1192694479">
		<tag k="name" v="Kalløkka" />
		<tag k="place" v="isolated_dwelling" />
		<tag k="ssr:stedsnr" v="447495" />
	</node>
	<node id="-157809" lat="59.709888889" lon="10.1504638858">
		<tag k="name" v="Dambråtan" />
		<tag k="place" v="isolated_dwelling" />
		<tag k="ssr:stedsnr" v="428286" />
	</node>
	<node id="-157808" lat="59.7092277778" lon="10.2533500044">
		<tag k="name" v="Nordre Solum" />
		<tag k="place" v="farm" />
		<tag k="ssr:stedsnr" v="428281" />
	</node>
	<node id="-157807" lat="59.7209527765" lon="10.2133416708">
		<tag k="name" v="Galterud" />
		<tag k="place" v="quarter" />
		<tag k="ssr:stedsnr" v="428255" />
	</node>
	<node id="-157806" lat="59.7352138847" lon="10.205980564">
		<tag k="name" v="Strømsø" />
		<tag k="place" v="suburb" />
		<tag k="ssr:stedsnr" v="428245" />
	</node>
	<node id="-157803" lat="59.6905055517" lon="10.2559527752">
		<tag k="fixme" v="consider place=hamlet" />
		<tag k="name" v="Lindum" />
		<tag k="place" v="farm" />
		<tag k="ssr:stedsnr" v="428181" />
	</node>
	<node id="-157802" lat="59.6902222241" lon="10.1286500057">
		<tag k="name" v="Gloropp" />
		<tag k="place" v="farm" />
		<tag k="ssr:stedsnr" v="428171" />
	</node>
	<node id="-157795" lat="59.7518499962" lon="10.1851666746">
		<tag k="amenity" v="nursing_home" />
		<tag k="name" v="Sanitetsforeningens klinikk" />
		<tag k="ssr:stedsnr" v="423793" />
	</node>
	<node id="-157794" lat="59.7025527747" lon="10.2456944532">
		<tag k="name" v="Engene" />
		<tag k="place" v="isolated_dwelling" />
		<tag k="ssr:stedsnr" v="421433" />
	</node>
	<node id="-157782" lat="59.7764250035" lon="10.1483416684">
		<tag k="name" v="Runebo" />
		<tag k="place" v="farm" />
		<tag k="ssr:stedsnr" v="265764" />
	</node>
	<node id="-157781" lat="59.762611111" lon="10.1242972175">
		<tag k="aerialway" v="drag_lift" />
		<tag k="fixme" v="consider the other aerialway types" />
		<tag k="name" v="Drammen turheis" />
		<tag k="ssr:stedsnr" v="265650" />
	</node>
	<node id="-157780" lat="59.7576555531" lon="10.1185666743">
		<tag k="amenity" v="school" />
		<tag k="name" v="Drammen tekniske fagskole" />
		<tag k="ssr:stedsnr" v="265633" />
	</node>
	<node id="-157779" lat="59.7350916669" lon="10.1258888964">
		<tag k="name" v="Myra" />
		<tag k="place" v="farm" />
		<tag k="ssr:stedsnr" v="265546" />
	</node>
	<node id="-157778" lat="59.7258222202" lon="10.106016662">
		<tag k="name" v="Ellingsrud" />
		<tag k="place" v="farm" />
		<tag k="ssr:stedsnr" v="265529" />
	</node>
	<node id="-157776" lat="59.7009805524" lon="10.2860916653">
		<tag k="alt_name" v="Gårdbu" />
		<tag k="name" v="Gorbu" />
		<tag k="place" v="isolated_dwelling" />
		<tag k="ssr:stedsnr" v="246291" />
	</node>
	<node id="-157775" lat="59.7264972202" lon="10.1397944414">
		<tag k="name" v="Brekke" />
		<tag k="place" v="farm" />
		<tag k="ssr:stedsnr" v="246283" />
	</node>
	<node id="-157774" lat="59.7252055571" lon="10.105875007">
		<tag k="name" v="Grinderud" />
		<tag k="place" v="farm" />
		<tag k="ssr:stedsnr" v="246245" />
	</node>
	<node id="-157773" lat="59.6836269813" lon="10.1904452217">
		<tag k="fixme" v="consider place=hamlet" />
		<tag k="name" v="Holmen" />
		<tag k="place" v="farm" />
		<tag k="ssr:stedsnr" v="246243" />
	</node>
	<node id="-157772" lat="59.666811113" lon="10.2189111085">
		<tag k="name" v="Bjørnerud" />
		<tag k="place" v="farm" />
		<tag k="ssr:stedsnr" v="246230" />
	</node>
	<node id="-157771" lat="59.6697083373" lon="10.2156555637">
		<tag k="name" v="Valsbekk" />
		<tag k="place" v="farm" />
		<tag k="ssr:stedsnr" v="246229" />
	</node>
	<node id="-157770" lat="59.6777775696" lon="10.2312594963">
		<tag k="fixme" v="consider place=hamlet" />
		<tag k="name" v="Unnelsrud" />
		<tag k="place" v="farm" />
		<tag k="ssr:stedsnr" v="246224" />
	</node>
	<node id="-157765" lat="59.6965500033" lon="10.2464416675">
		<tag k="name" v="Nedre Eik" />
		<tag k="place" v="farm" />
		<tag k="ssr:stedsnr" v="245206" />
	</node>
	<node id="-157763" lat="59.6959250023" lon="10.1654888947">
		<tag k="amenity" v="school" />
		<tag k="name" v="Vestbygda skole" />
		<tag k="ssr:stedsnr" v="245200" />
	</node>
	<node id="-157762" lat="59.6990888864" lon="10.1503166602">
		<tag k="alt_name" v="Halden" />
		<tag k="name" v="Hallen" />
		<tag k="place" v="farm" />
		<tag k="ssr:stedsnr" v="245199" />
	</node>
	<node id="-157758" lat="59.7436750013" lon="10.2111583326">
		<tag k="name" v="Tinghusplassen" />
		<tag k="place" v="square" />
		<tag k="ssr:stedsnr" v="241821" />
	</node>
	<node id="-157754" lat="59.7591777746" lon="10.1843222295">
		<tag k="leisure" v="pitch" />
		<tag k="name" v="Sturla" />
		<tag k="ssr:stedsnr" v="241793" />
	</node>
	<node id="-157753" lat="59.757469443" lon="10.1706638812">
		<tag k="leisure" v="pitch" />
		<tag k="name" v="Ørenkollen" />
		<tag k="ssr:stedsnr" v="241790" />
	</node>
	<node id="-157749" lat="59.7548805517" lon="10.1928749954">
		<tag k="leisure" v="pitch" />
		<tag k="name" v="Jøssingkollen" />
		<tag k="ssr:stedsnr" v="241751" />
	</node>
	<node id="-157744" lat="59.7078555563" lon="10.2519166677">
		<tag k="name" v="Store Solum" />
		<tag k="place" v="farm" />
		<tag k="ssr:stedsnr" v="239437" />
	</node>
	<node id="-157743" lat="59.7060972257" lon="10.2384138955">
		<tag k="name" v="Holmen" />
		<tag k="place" v="isolated_dwelling" />
		<tag k="ssr:stedsnr" v="239436" />
	</node>
	<node id="-157741" lat="59.7031972211" lon="10.1667416719">
		<tag k="name" v="Fjærehytta" />
		<tag k="place" v="isolated_dwelling" />
		<tag k="ssr:stedsnr" v="239319" />
	</node>
	<node id="-157740" lat="59.7019749956" lon="10.1528222225">
		<tag k="name" v="Lorentzplassen" />
		<tag k="place" v="farm" />
		<tag k="ssr:stedsnr" v="239317" />
	</node>
	<node id="-157734" lat="59.6744222249" lon="10.1758444437">
		<tag k="name" v="Kyterud" />
		<tag k="place" v="locality" />
		<tag k="ssr:stedsnr" v="224693" />
	</node>
	<node id="-157732" lat="59.6671916707" lon="10.2222444459">
		<tag k="name" v="Karlsrud" />
		<tag k="place" v="isolated_dwelling" />
		<tag k="ssr:stedsnr" v="224676" />
	</node>
	<node id="-157731" lat="59.6713027774" lon="10.2397416657">
		<tag k="name" v="Fagertun" />
		<tag k="place" v="isolated_dwelling" />
		<tag k="ssr:stedsnr" v="224671" />
	</node>
	<node id="-157730" lat="59.6751555594" lon="10.2300805578">
		<tag k="name" v="Søndre Unnelsrud" />
		<tag k="place" v="farm" />
		<tag k="ssr:stedsnr" v="224668" />
	</node>
	<node id="-157729" lat="59.7873833312" lon="10.1636055528">
		<tag k="name" v="Skimthygga" />
		<tag k="place" v="isolated_dwelling" />
		<tag k="ssr:stedsnr" v="224164" />
	</node>
	<node id="-157727" lat="59.7809888899" lon="10.1501305488">
		<tag k="name" v="Dalro" />
		<tag k="place" v="isolated_dwelling" />
		<tag k="ssr:stedsnr" v="224157" />
	</node>
	<node id="-157726" lat="59.7167722212" lon="10.2234666666">
		<tag k="name" v="Søndre Fjell" />
		<tag k="place" v="isolated_dwelling" />
		<tag k="ssr:stedsnr" v="224074" />
	</node>
	<node id="-157723" lat="59.7398944463" lon="10.2024277693">
		<tag k="name" v="Strømsø torg" />
		<tag k="place" v="square" />
		<tag k="ssr:stedsnr" v="223629" />
	</node>
	<node id="-157722" lat="59.7087333371" lon="10.2284527774">
		<tag k="name" v="Knausen" />
		<tag k="place" v="isolated_dwelling" />
		<tag k="ssr:stedsnr" v="224060" />
	</node>
	<node id="-157721" lat="59.7100250022" lon="10.2276805621">
		<tag k="name" v="Gunheim" />
		<tag k="place" v="isolated_dwelling" />
		<tag k="ssr:stedsnr" v="224051" />
	</node>
	<node id="-157720" lat="59.8142000015" lon="10.1006361179">
		<tag k="name" v="Harastua" />
		<tag k="place" v="isolated_dwelling" />
		<tag k="ssr:stedsnr" v="224045" />
	</node>
	<node id="-157716" lat="59.7454916669" lon="10.2293916687">
		<tag k="amenity" v="school" />
		<tag k="name" v="Fjellheim skole" />
		<tag k="ssr:stedsnr" v="222890" />
	</node>
	<node id="-157715" lat="59.7444500015" lon="10.2264694378">
		<tag k="name" v="Fjellheim" />
		<tag k="place" v="isolated_dwelling" />
		<tag k="ssr:stedsnr" v="222884" />
	</node>
	<node id="-157712" lat="59.6897701453" lon="10.1248887842">
		<tag k="name" v="Syvertsløkka" />
		<tag k="place" v="farm" />
		<tag k="ssr:stedsnr" v="222652" />
	</node>
	<node id="-157711" lat="59.6888668381" lon="10.1251632823">
		<tag k="name" v="Fossen" />
		<tag k="place" v="farm" />
		<tag k="ssr:stedsnr" v="222649" />
	</node>
	<node id="-157709" lat="59.6842805549" lon="10.1662972193">
		<tag k="name" v="Nordre Borge" />
		<tag k="place" v="farm" />
		<tag k="ssr:stedsnr" v="222544" />
	</node>
	<node id="-157707" lat="59.7001027804" lon="10.2690944403">
		<tag k="name" v="Knive" />
		<tag k="place" v="quarter" />
		<tag k="ssr:stedsnr" v="222338" />
	</node>
	<node id="-157706" lat="59.6882666653" lon="10.2215027764">
		<tag k="name" v="Furulund" />
		<tag k="place" v="isolated_dwelling" />
		<tag k="ssr:stedsnr" v="222287" />
	</node>
	<node id="-157705" lat="59.6884416667" lon="10.2222027796">
		<tag k="name" v="Bergtun" />
		<tag k="place" v="isolated_dwelling" />
		<tag k="ssr:stedsnr" v="222288" />
	</node>
	<node id="-157704" lat="59.6897944426" lon="10.2261944386">
		<tag k="name" v="Ingvaldsåsen" />
		<tag k="place" v="farm" />
		<tag k="ssr:stedsnr" v="222275" />
	</node>
	<node id="-157703" lat="59.6939416703" lon="10.2139805509">
		<tag k="name" v="Furuli" />
		<tag k="place" v="isolated_dwelling" />
		<tag k="ssr:stedsnr" v="222262" />
	</node>
	<node id="-157702" lat="59.694855552" lon="10.2296666733">
		<tag k="name" v="Knatten" />
		<tag k="place" v="isolated_dwelling" />
		<tag k="ssr:stedsnr" v="222259" />
	</node>
	<node id="-157701" lat="59.6915777762" lon="10.3157444375">
		<tag k="name" v="Sjølyst" />
		<tag k="place" v="isolated_dwelling" />
		<tag k="ssr:stedsnr" v="222248" />
	</node>
	<node id="-157700" lat="59.6957000042" lon="10.2986527834">
		<tag k="name" v="Bergly" />
		<tag k="place" v="isolated_dwelling" />
		<tag k="ssr:stedsnr" v="222245" />
	</node>
	<node id="-157699" lat="59.6949444458" lon="10.2684916725">
		<tag k="name" v="Nedre Knive" />
		<tag k="place" v="farm" />
		<tag k="ssr:stedsnr" v="222233" />
	</node>
	<node id="-157698" lat="59.755347222" lon="10.115536106">
		<tag k="leisure" v="pitch" />
		<tag k="name" v="Drammen travbane" />
		<tag k="ssr:stedsnr" v="204896" />
	</node>
	<node id="-157697" lat="59.7474500031" lon="10.1114777761">
		<tag k="name" v="Langum" />
		<tag k="place" v="farm" />
		<tag k="ssr:stedsnr" v="204871" />
	</node>
</osm>
