<?xml version="1.0" encoding="UTF-8"?>
<osm generator="osmapis" version="0.6">
	<node id="-510462" lat="61.1013583311" lon="6.23349166543">
		<tag k="name" v="Stavedalen" />
		<tag k="ssr:date" v="2019-05-31" />
		<tag k="ssr:gruppe" v="veg" />
		<tag k="ssr:hovedgruppe" v="infrastruktur" />
		<tag k="ssr:stedsnr" v="666815" />
		<tag k="ssr:type" v="adressenavn" />
	</node>
	<node id="-509181" lat="61.0528500016" lon="6.93181110614">
		<tag k="name" v="Skarsvegen" />
		<tag k="ssr:date" v="2016-05-10" />
		<tag k="ssr:gruppe" v="veg" />
		<tag k="ssr:hovedgruppe" v="infrastruktur" />
		<tag k="ssr:stedsnr" v="279834" />
		<tag k="ssr:type" v="vegstrekning" />
	</node>
	<node id="-510182" lat="61.1145805558" lon="6.84074445296">
		<tag k="name" v="Sogn" />
		<tag k="ssr:date" v="2016-05-10" />
		<tag k="ssr:gruppe" v="terrengområder" />
		<tag k="ssr:hovedgruppe" v="terreng" />
		<tag k="ssr:stedsnr" v="513785" />
		<tag k="ssr:type" v="landskapsområde" />
	</node>
	<node id="-511012" lat="61.1124857639" lon="6.19020603695">
		<tag k="name" v="Ålrek" />
		<tag k="ssr:date" v="2019-05-31" />
		<tag k="ssr:gruppe" v="veg" />
		<tag k="ssr:hovedgruppe" v="infrastruktur" />
		<tag k="ssr:stedsnr" v="976416" />
		<tag k="ssr:type" v="adressenavn" />
	</node>
	<node id="-509360" lat="61.0885916688" lon="6.58521944212">
		<tag k="name" v="Vik kommune" />
		<tag k="ssr:date" v="2016-05-10" />
		<tag k="ssr:gruppe" v="administrativeIndelinger" />
		<tag k="ssr:hovedgruppe" v="offentligAdministrasjon" />
		<tag k="ssr:stedsnr" v="390008" />
		<tag k="ssr:type" v="kommune" />
	</node>
	<node id="-511009" lat="60.8816104596" lon="6.30047518531">
		<tag k="name" v="Vestlandet" />
		<tag k="ssr:date" v="2019-01-06" />
		<tag k="ssr:gruppe" v="administrativeIndelinger" />
		<tag k="ssr:hovedgruppe" v="offentligAdministrasjon" />
		<tag k="ssr:stedsnr" v="974777" />
		<tag k="ssr:type" v="annenAdministrativInndeling" />
	</node>
	<node id="-510018" lat="61.0051638918" lon="6.41257777385">
		<tag k="name" v="Osen" />
		<tag k="ssr:date" v="2019-05-31" />
		<tag k="ssr:gruppe" v="veg" />
		<tag k="ssr:hovedgruppe" v="infrastruktur" />
		<tag k="ssr:stedsnr" v="424754" />
		<tag k="ssr:type" v="adressenavn" />
	</node>
	<node id="-510128" lat="61.0381777803" lon="6.97031945181">
		<tag k="name" v="Skard" />
		<tag k="ssr:date" v="2019-05-31" />
		<tag k="ssr:gruppe" v="veg" />
		<tag k="ssr:hovedgruppe" v="infrastruktur" />
		<tag k="ssr:stedsnr" v="484885" />
		<tag k="ssr:type" v="adressenavn" />
	</node>
	<node id="-510127" lat="61.0694666686" lon="6.37978055145">
		<tag k="name" v="Geithus" />
		<tag k="ssr:date" v="2019-05-31" />
		<tag k="ssr:gruppe" v="veg" />
		<tag k="ssr:hovedgruppe" v="infrastruktur" />
		<tag k="ssr:stedsnr" v="484856" />
		<tag k="ssr:type" v="adressenavn" />
	</node>
	<node id="-510379" lat="61.0698527771" lon="6.43395276981">
		<tag k="alt_name" v="Arnafjord" />
		<tag k="name" v="Arnafjord lykt" />
		<tag k="ssr:date" v="2016-05-10" />
		<tag k="ssr:gruppe" v="navigasjon" />
		<tag k="ssr:hovedgruppe" v="infrastruktur" />
		<tag k="ssr:stedsnr" v="615563" />
		<tag k="ssr:type" v="fyrlykt" />
	</node>
	<node id="-509604" lat="61.0527722225" lon="6.30475833808">
		<tag k="name" v="Finnen" />
		<tag k="ssr:date" v="2019-05-31" />
		<tag k="ssr:gruppe" v="veg" />
		<tag k="ssr:hovedgruppe" v="infrastruktur" />
		<tag k="ssr:stedsnr" v="60877" />
		<tag k="ssr:type" v="adressenavn" />
	</node>
	<node id="-510882" lat="61.0996027799" lon="6.28058056461">
		<tag k="name" v="Hanekam" />
		<tag k="ssr:date" v="2019-05-31" />
		<tag k="ssr:gruppe" v="veg" />
		<tag k="ssr:hovedgruppe" v="infrastruktur" />
		<tag k="ssr:stedsnr" v="909885" />
		<tag k="ssr:type" v="adressenavn" />
	</node>
	<node id="-510881" lat="61.0865222251" lon="6.30481667423">
		<tag k="name" v="Kyrkjeteigen" />
		<tag k="ssr:date" v="2019-05-31" />
		<tag k="ssr:gruppe" v="veg" />
		<tag k="ssr:hovedgruppe" v="infrastruktur" />
		<tag k="ssr:stedsnr" v="909879" />
		<tag k="ssr:type" v="adressenavn" />
	</node>
	<node id="-511008" lat="61.0821721292" lon="6.58534332208">
		<tag k="name" v="Tillischgarden" />
		<tag k="ssr:date" v="2016-12-05" />
		<tag k="ssr:gruppe" v="veg" />
		<tag k="ssr:hovedgruppe" v="infrastruktur" />
		<tag k="ssr:stedsnr" v="973116" />
		<tag k="ssr:type" v="adressetilleggsnavn" />
	</node>
	<node id="-511007" lat="61.0676341911" lon="6.60344513048">
		<tag k="name" v="Neipe" />
		<tag k="ssr:date" v="2016-12-05" />
		<tag k="ssr:gruppe" v="veg" />
		<tag k="ssr:hovedgruppe" v="infrastruktur" />
		<tag k="ssr:stedsnr" v="973113" />
		<tag k="ssr:type" v="adressetilleggsnavn" />
	</node>
	<node id="-511006" lat="61.0346225417" lon="6.5724593508">
		<tag k="name" v="Undi" />
		<tag k="ssr:date" v="2016-12-05" />
		<tag k="ssr:gruppe" v="veg" />
		<tag k="ssr:hovedgruppe" v="infrastruktur" />
		<tag k="ssr:stedsnr" v="973115" />
		<tag k="ssr:type" v="adressetilleggsnavn" />
	</node>
	<node id="-511005" lat="61.0527722225" lon="6.30475833808">
		<tag k="name" v="Finnabotnen" />
		<tag k="ssr:date" v="2019-05-31" />
		<tag k="ssr:gruppe" v="veg" />
		<tag k="ssr:hovedgruppe" v="infrastruktur" />
		<tag k="ssr:stedsnr" v="970556" />
		<tag k="ssr:type" v="adressenavn" />
	</node>
	<node id="-510356" lat="61.0693499992" lon="6.408099994">
		<tag k="name" v="Husstavenes" />
		<tag k="ssr:date" v="2019-05-31" />
		<tag k="ssr:gruppe" v="veg" />
		<tag k="ssr:hovedgruppe" v="infrastruktur" />
		<tag k="ssr:stedsnr" v="605874" />
		<tag k="ssr:type" v="adressenavn" />
	</node>
	<node id="-510355" lat="61.1041416712" lon="6.21015833409">
		<tag k="name" v="Vetlesand" />
		<tag k="ssr:date" v="2019-05-31" />
		<tag k="ssr:gruppe" v="veg" />
		<tag k="ssr:hovedgruppe" v="infrastruktur" />
		<tag k="ssr:stedsnr" v="605807" />
		<tag k="ssr:type" v="adressenavn" />
	</node>
	<node id="-509710" lat="61.0456805513" lon="6.40165834133">
		<tag k="name" v="Otterskreda" />
		<tag k="ssr:date" v="2019-05-31" />
		<tag k="ssr:gruppe" v="veg" />
		<tag k="ssr:hovedgruppe" v="infrastruktur" />
		<tag k="ssr:stedsnr" v="120858" />
		<tag k="ssr:type" v="adressenavn" />
	</node>
	<node id="-509836" lat="60.9886611103" lon="6.42423888511">
		<tag k="name" v="Hellane" />
		<tag k="ssr:date" v="2019-05-31" />
		<tag k="ssr:gruppe" v="veg" />
		<tag k="ssr:hovedgruppe" v="infrastruktur" />
		<tag k="ssr:stedsnr" v="181779" />
		<tag k="ssr:type" v="adressenavn" />
	</node>
	<node id="-509959" lat="61.0835027804" lon="6.31460833697">
		<tag k="name" v="Vollaviki" />
		<tag k="ssr:date" v="2019-05-31" />
		<tag k="ssr:gruppe" v="veg" />
		<tag k="ssr:hovedgruppe" v="infrastruktur" />
		<tag k="ssr:stedsnr" v="242849" />
		<tag k="ssr:type" v="adressenavn" />
	</node>
	<node id="-509958" lat="61.0408972209" lon="6.96910833298">
		<tag k="name" v="Skardsstølen" />
		<tag k="ssr:date" v="2019-05-31" />
		<tag k="ssr:gruppe" v="veg" />
		<tag k="ssr:hovedgruppe" v="infrastruktur" />
		<tag k="ssr:stedsnr" v="242824" />
		<tag k="ssr:type" v="adressenavn" />
	</node>
	<node id="-509957" lat="60.9325972235" lon="6.44342777227">
		<tag k="name" v="Søre Skjelingen" />
		<tag k="ssr:date" v="2019-05-31" />
		<tag k="ssr:gruppe" v="veg" />
		<tag k="ssr:hovedgruppe" v="infrastruktur" />
		<tag k="ssr:stedsnr" v="242756" />
		<tag k="ssr:type" v="adressenavn" />
	</node>
	<node id="-509314" lat="61.0941277761" lon="6.29279999973">
		<tag k="name" v="Sylvarnes" />
		<tag k="ssr:date" v="2019-05-31" />
		<tag k="ssr:gruppe" v="veg" />
		<tag k="ssr:hovedgruppe" v="infrastruktur" />
		<tag k="ssr:stedsnr" v="363852" />
		<tag k="ssr:type" v="adressenavn" />
	</node>
</osm>
