<?xml version="1.0" encoding="UTF-8"?>
<osm generator="osmapis" version="0.6">
	<node id="-28150" lat="59.9398055563" lon="11.400644438">
		<tag k="name" v="Dyrskuveien" />
		<tag k="ssr:date" v="2019-05-31" />
		<tag k="ssr:gruppe" v="veg" />
		<tag k="ssr:hovedgruppe" v="infrastruktur" />
		<tag k="ssr:stedsnr" v="120685" />
		<tag k="ssr:type" v="adressenavn" />
	</node>
	<node id="-29680" lat="59.8565555536" lon="11.7677027767">
		<tag k="name" v="Gammelsætervegen" />
		<tag k="ssr:date" v="2016-05-10" />
		<tag k="ssr:gruppe" v="veg" />
		<tag k="ssr:hovedgruppe" v="infrastruktur" />
		<tag k="ssr:stedsnr" v="604231" />
		<tag k="ssr:type" v="vegstrekning" />
	</node>
	<node id="-31203" lat="59.9981138894" lon="11.7111138819">
		<tag k="name" v="Paddetjennvegen" />
		<tag k="ssr:date" v="2016-05-11" />
		<tag k="ssr:gruppe" v="veg" />
		<tag k="ssr:hovedgruppe" v="infrastruktur" />
		<tag k="ssr:stedsnr" v="950689" />
		<tag k="ssr:type" v="vegstrekning" />
	</node>
	<node id="-28635" lat="59.9544722209" lon="11.5612472152">
		<tag k="name" v="Strømstadvegen" />
		<tag k="ssr:date" v="2016-05-10" />
		<tag k="ssr:gruppe" v="veg" />
		<tag k="ssr:hovedgruppe" v="infrastruktur" />
		<tag k="ssr:stedsnr" v="238381" />
		<tag k="ssr:type" v="vegstrekning" />
	</node>
	<node id="-28121" lat="59.9213222219" lon="11.8005861178">
		<tag k="name" v="Øysjøvegen" />
		<tag k="ssr:date" v="2016-05-10" />
		<tag k="ssr:gruppe" v="veg" />
		<tag k="ssr:hovedgruppe" v="infrastruktur" />
		<tag k="ssr:stedsnr" v="119443" />
		<tag k="ssr:type" v="vegstrekning" />
	</node>
	<node id="-30168" lat="59.9897805581" lon="11.7958277868">
		<tag k="name" v="Viksjøvegen" />
		<tag k="ssr:date" v="2016-05-11" />
		<tag k="ssr:gruppe" v="veg" />
		<tag k="ssr:hovedgruppe" v="infrastruktur" />
		<tag k="ssr:stedsnr" v="709912" />
		<tag k="ssr:type" v="vegstrekning" />
	</node>
	<node id="-30167" lat="60.0070499964" lon="11.81009723">
		<tag k="name" v="Syltedalsvegen" />
		<tag k="ssr:date" v="2016-05-11" />
		<tag k="ssr:gruppe" v="veg" />
		<tag k="ssr:hovedgruppe" v="infrastruktur" />
		<tag k="ssr:stedsnr" v="709906" />
		<tag k="ssr:type" v="vegstrekning" />
	</node>
	<node id="-27604" lat="59.6912949916" lon="11.4253784626">
		<tag k="name" v="Lauvøya" />
		<tag k="ssr:date" v="2019-05-30" />
		<tag k="ssr:gruppe" v="veg" />
		<tag k="ssr:hovedgruppe" v="infrastruktur" />
		<tag k="ssr:stedsnr" v="991991" />
		<tag k="ssr:type" v="adressenavn" />
	</node>
	<node id="-27603" lat="59.6917308518" lon="11.4210341548">
		<tag k="name" v="Bokramøya" />
		<tag k="ssr:date" v="2019-05-30" />
		<tag k="ssr:gruppe" v="veg" />
		<tag k="ssr:hovedgruppe" v="infrastruktur" />
		<tag k="ssr:stedsnr" v="991990" />
		<tag k="ssr:type" v="adressenavn" />
	</node>
	<node id="-27602" lat="59.6871422294" lon="11.4259646522">
		<tag k="name" v="Kalvøya" />
		<tag k="ssr:date" v="2019-05-30" />
		<tag k="ssr:gruppe" v="veg" />
		<tag k="ssr:hovedgruppe" v="infrastruktur" />
		<tag k="ssr:stedsnr" v="991988" />
		<tag k="ssr:type" v="adressenavn" />
	</node>
	<node id="-27601" lat="59.6886505358" lon="11.4227244679">
		<tag k="name" v="Ulvøya" />
		<tag k="ssr:date" v="2019-05-30" />
		<tag k="ssr:gruppe" v="veg" />
		<tag k="ssr:hovedgruppe" v="infrastruktur" />
		<tag k="ssr:stedsnr" v="991987" />
		<tag k="ssr:type" v="adressenavn" />
	</node>
	<node id="-27600" lat="59.6897124854" lon="11.4258961159">
		<tag k="name" v="Brentøya" />
		<tag k="ssr:date" v="2019-05-30" />
		<tag k="ssr:gruppe" v="veg" />
		<tag k="ssr:hovedgruppe" v="infrastruktur" />
		<tag k="ssr:stedsnr" v="991986" />
		<tag k="ssr:type" v="adressenavn" />
	</node>
	<node id="-27599" lat="59.6899743798" lon="11.4294615183">
		<tag k="name" v="Haraøya" />
		<tag k="ssr:date" v="2019-05-30" />
		<tag k="ssr:gruppe" v="veg" />
		<tag k="ssr:hovedgruppe" v="infrastruktur" />
		<tag k="ssr:stedsnr" v="991985" />
		<tag k="ssr:type" v="adressenavn" />
	</node>
	<node id="-27598" lat="59.6842736096" lon="11.4275793246">
		<tag k="name" v="Gukiløyene" />
		<tag k="ssr:date" v="2019-05-30" />
		<tag k="ssr:gruppe" v="veg" />
		<tag k="ssr:hovedgruppe" v="infrastruktur" />
		<tag k="ssr:stedsnr" v="991984" />
		<tag k="ssr:type" v="adressenavn" />
	</node>
	<node id="-27597" lat="59.6858709375" lon="11.425830492">
		<tag k="name" v="Kattisøya" />
		<tag k="ssr:date" v="2019-05-30" />
		<tag k="ssr:gruppe" v="veg" />
		<tag k="ssr:hovedgruppe" v="infrastruktur" />
		<tag k="ssr:stedsnr" v="991981" />
		<tag k="ssr:type" v="adressenavn" />
	</node>
	<node id="-27596" lat="59.6873523263" lon="11.4323252265">
		<tag k="name" v="Geitøya" />
		<tag k="ssr:date" v="2019-05-30" />
		<tag k="ssr:gruppe" v="veg" />
		<tag k="ssr:hovedgruppe" v="infrastruktur" />
		<tag k="ssr:stedsnr" v="991980" />
		<tag k="ssr:type" v="adressenavn" />
	</node>
	<node id="-27595" lat="59.6870464882" lon="11.4288964321">
		<tag k="name" v="Skredderøya" />
		<tag k="ssr:date" v="2019-05-30" />
		<tag k="ssr:gruppe" v="veg" />
		<tag k="ssr:hovedgruppe" v="infrastruktur" />
		<tag k="ssr:stedsnr" v="991979" />
		<tag k="ssr:type" v="adressenavn" />
	</node>
	<node id="-27594" lat="59.7460360774" lon="11.4058356932">
		<tag k="name" v="Haukeli" />
		<tag k="ssr:date" v="2019-05-30" />
		<tag k="ssr:gruppe" v="veg" />
		<tag k="ssr:hovedgruppe" v="infrastruktur" />
		<tag k="ssr:stedsnr" v="991978" />
		<tag k="ssr:type" v="adressenavn" />
	</node>
	<node id="-27593" lat="59.6858297532" lon="11.4223227935">
		<tag k="name" v="Thorholmen" />
		<tag k="ssr:date" v="2019-05-30" />
		<tag k="ssr:gruppe" v="veg" />
		<tag k="ssr:hovedgruppe" v="infrastruktur" />
		<tag k="ssr:stedsnr" v="991977" />
		<tag k="ssr:type" v="adressenavn" />
	</node>
	<node id="-27592" lat="59.6749268707" lon="11.4503165679">
		<tag k="name" v="Maurnes" />
		<tag k="ssr:date" v="2019-05-30" />
		<tag k="ssr:gruppe" v="veg" />
		<tag k="ssr:hovedgruppe" v="infrastruktur" />
		<tag k="ssr:stedsnr" v="991976" />
		<tag k="ssr:type" v="adressenavn" />
	</node>
	<node id="-27591" lat="59.688941666" lon="11.4203181702">
		<tag k="name" v="Kartkiltangen" />
		<tag k="ssr:date" v="2019-05-30" />
		<tag k="ssr:gruppe" v="veg" />
		<tag k="ssr:hovedgruppe" v="infrastruktur" />
		<tag k="ssr:stedsnr" v="991975" />
		<tag k="ssr:type" v="adressenavn" />
	</node>
	<node id="-27590" lat="59.6877187498" lon="11.4271063492">
		<tag k="name" v="Kappøya" />
		<tag k="ssr:date" v="2019-05-30" />
		<tag k="ssr:gruppe" v="veg" />
		<tag k="ssr:hovedgruppe" v="infrastruktur" />
		<tag k="ssr:stedsnr" v="991973" />
		<tag k="ssr:type" v="adressenavn" />
	</node>
	<node id="-30113" lat="59.7979777808" lon="11.6542972198">
		<tag k="name" v="Nyvegen" />
		<tag k="ssr:date" v="2016-05-11" />
		<tag k="ssr:gruppe" v="veg" />
		<tag k="ssr:hovedgruppe" v="infrastruktur" />
		<tag k="ssr:stedsnr" v="707182" />
		<tag k="ssr:type" v="vegstrekning" />
	</node>
	<node id="-29636" lat="59.824108332" lon="11.3438722244">
		<tag k="name" v="Elgedalsveien" />
		<tag k="ssr:date" v="2016-05-10" />
		<tag k="ssr:gruppe" v="veg" />
		<tag k="ssr:hovedgruppe" v="infrastruktur" />
		<tag k="ssr:stedsnr" v="601717" />
		<tag k="ssr:type" v="vegstrekning" />
	</node>
	<node id="-27581" lat="59.8939743438" lon="11.5464855192">
		<tag k="name" v="Mårsvingen" />
		<tag k="ssr:date" v="2019-05-31" />
		<tag k="ssr:gruppe" v="veg" />
		<tag k="ssr:hovedgruppe" v="infrastruktur" />
		<tag k="ssr:stedsnr" v="982938" />
		<tag k="ssr:type" v="adressenavn" />
	</node>
	<node id="-27580" lat="59.8929378621" lon="11.5489807876">
		<tag k="name" v="Askedalshøgda" />
		<tag k="ssr:date" v="2019-05-31" />
		<tag k="ssr:gruppe" v="veg" />
		<tag k="ssr:hovedgruppe" v="infrastruktur" />
		<tag k="ssr:stedsnr" v="982936" />
		<tag k="ssr:type" v="adressenavn" />
	</node>
	<node id="-27579" lat="59.892679828" lon="11.5455997122">
		<tag k="name" v="Grevlingveien" />
		<tag k="ssr:date" v="2019-05-31" />
		<tag k="ssr:gruppe" v="veg" />
		<tag k="ssr:hovedgruppe" v="infrastruktur" />
		<tag k="ssr:stedsnr" v="982937" />
		<tag k="ssr:type" v="adressenavn" />
	</node>
	<node id="-27578" lat="59.8917216807" lon="11.548226064">
		<tag k="name" v="Doktortjennveien" />
		<tag k="ssr:date" v="2019-05-31" />
		<tag k="ssr:gruppe" v="veg" />
		<tag k="ssr:hovedgruppe" v="infrastruktur" />
		<tag k="ssr:stedsnr" v="982935" />
		<tag k="ssr:type" v="adressenavn" />
	</node>
	<node id="-27577" lat="59.8913287118" lon="11.5476417214">
		<tag k="name" v="Bamseveien" />
		<tag k="ssr:date" v="2019-05-31" />
		<tag k="ssr:gruppe" v="veg" />
		<tag k="ssr:hovedgruppe" v="infrastruktur" />
		<tag k="ssr:stedsnr" v="982933" />
		<tag k="ssr:type" v="adressenavn" />
	</node>
	<node id="-27576" lat="59.8919296818" lon="11.5500120077">
		<tag k="name" v="Gråbeinveien" />
		<tag k="ssr:date" v="2019-05-31" />
		<tag k="ssr:gruppe" v="veg" />
		<tag k="ssr:hovedgruppe" v="infrastruktur" />
		<tag k="ssr:stedsnr" v="982934" />
		<tag k="ssr:type" v="adressenavn" />
	</node>
	<node id="-27575" lat="59.8917454159" lon="11.5507130302">
		<tag k="name" v="Mikkelveien" />
		<tag k="ssr:date" v="2019-05-31" />
		<tag k="ssr:gruppe" v="veg" />
		<tag k="ssr:hovedgruppe" v="infrastruktur" />
		<tag k="ssr:stedsnr" v="982932" />
		<tag k="ssr:type" v="adressenavn" />
	</node>
	<node id="-27574" lat="59.8895679837" lon="11.5508857226">
		<tag k="name" v="Amund Blixruds vei" />
		<tag k="ssr:date" v="2019-05-31" />
		<tag k="ssr:gruppe" v="veg" />
		<tag k="ssr:hovedgruppe" v="infrastruktur" />
		<tag k="ssr:stedsnr" v="982930" />
		<tag k="ssr:type" v="adressenavn" />
	</node>
	<node id="-27573" lat="59.890646606" lon="11.5476073518">
		<tag k="name" v="Elgveien" />
		<tag k="ssr:date" v="2019-05-31" />
		<tag k="ssr:gruppe" v="veg" />
		<tag k="ssr:hovedgruppe" v="infrastruktur" />
		<tag k="ssr:stedsnr" v="982931" />
		<tag k="ssr:type" v="adressenavn" />
	</node>
	<node id="-27572" lat="59.8915438038" lon="11.553236339">
		<tag k="name" v="Agnesveien" />
		<tag k="ssr:date" v="2019-05-31" />
		<tag k="ssr:gruppe" v="veg" />
		<tag k="ssr:hovedgruppe" v="infrastruktur" />
		<tag k="ssr:stedsnr" v="982929" />
		<tag k="ssr:type" v="adressenavn" />
	</node>
	<node id="-29619" lat="60.0057027734" lon="11.6747388924">
		<tag k="name" v="Steinstjennvegen" />
		<tag k="ssr:date" v="2016-05-10" />
		<tag k="ssr:gruppe" v="veg" />
		<tag k="ssr:hovedgruppe" v="infrastruktur" />
		<tag k="ssr:stedsnr" v="600061" />
		<tag k="ssr:type" v="vegstrekning" />
	</node>
	<node id="-27570" lat="59.8928102859" lon="11.5546387631">
		<tag k="name" v="Røyskattveien" />
		<tag k="ssr:date" v="2019-05-31" />
		<tag k="ssr:gruppe" v="veg" />
		<tag k="ssr:hovedgruppe" v="infrastruktur" />
		<tag k="ssr:stedsnr" v="982927" />
		<tag k="ssr:type" v="adressenavn" />
	</node>
	<node id="-27569" lat="59.892285008" lon="11.5567081477">
		<tag k="name" v="Nautmyrveien" />
		<tag k="ssr:date" v="2019-05-31" />
		<tag k="ssr:gruppe" v="veg" />
		<tag k="ssr:hovedgruppe" v="infrastruktur" />
		<tag k="ssr:stedsnr" v="982926" />
		<tag k="ssr:type" v="adressenavn" />
	</node>
	<node id="-27568" lat="59.8924972563" lon="11.5559556584">
		<tag k="name" v="Bliksrudåsen" />
		<tag k="ssr:date" v="2019-05-31" />
		<tag k="ssr:gruppe" v="veg" />
		<tag k="ssr:hovedgruppe" v="infrastruktur" />
		<tag k="ssr:stedsnr" v="982925" />
		<tag k="ssr:type" v="adressenavn" />
	</node>
	<node id="-28077" lat="59.8795638847" lon="11.7532083241">
		<tag k="name" v="Bekkeholtvegen" />
		<tag k="ssr:date" v="2016-05-10" />
		<tag k="ssr:gruppe" v="veg" />
		<tag k="ssr:hovedgruppe" v="infrastruktur" />
		<tag k="ssr:stedsnr" v="116509" />
		<tag k="ssr:type" v="vegstrekning" />
	</node>
	<node id="-29603" lat="59.9019805555" lon="11.6042583256">
		<tag k="name" v="Lindtjernvegen" />
		<tag k="ssr:date" v="2016-05-10" />
		<tag k="ssr:gruppe" v="veg" />
		<tag k="ssr:hovedgruppe" v="infrastruktur" />
		<tag k="ssr:stedsnr" v="588173" />
		<tag k="ssr:type" v="vegstrekning" />
	</node>
	<node id="-27554" lat="59.8824155415" lon="11.566673986">
		<tag k="name" v="Bassengveien" />
		<tag k="ssr:date" v="2019-05-31" />
		<tag k="ssr:gruppe" v="veg" />
		<tag k="ssr:hovedgruppe" v="infrastruktur" />
		<tag k="ssr:stedsnr" v="981308" />
		<tag k="ssr:type" v="adressenavn" />
	</node>
	<node id="-27553" lat="59.7983251837" lon="11.4471329231">
		<tag k="name" v="Oddvar Kinnestads vei" />
		<tag k="ssr:date" v="2019-05-31" />
		<tag k="ssr:gruppe" v="veg" />
		<tag k="ssr:hovedgruppe" v="infrastruktur" />
		<tag k="ssr:stedsnr" v="1071640" />
		<tag k="ssr:type" v="adressenavn" />
	</node>
	<node id="-27552" lat="59.7985600066" lon="11.4478572704">
		<tag k="name" v="Else Andersens vei" />
		<tag k="ssr:date" v="2019-05-31" />
		<tag k="ssr:gruppe" v="veg" />
		<tag k="ssr:hovedgruppe" v="infrastruktur" />
		<tag k="ssr:stedsnr" v="1071639" />
		<tag k="ssr:type" v="adressenavn" />
	</node>
	<node id="-27551" lat="59.8251778696" lon="11.7032468122">
		<tag k="name" v="Sjøgløttveien" />
		<tag k="ssr:date" v="2019-05-31" />
		<tag k="ssr:gruppe" v="veg" />
		<tag k="ssr:hovedgruppe" v="infrastruktur" />
		<tag k="ssr:stedsnr" v="1071219" />
		<tag k="ssr:type" v="adressenavn" />
	</node>
	<node id="-27550" lat="59.9178371376" lon="11.4488008461">
		<tag k="name" v="Linstadveien" />
		<tag k="ssr:date" v="2019-05-31" />
		<tag k="ssr:gruppe" v="veg" />
		<tag k="ssr:hovedgruppe" v="infrastruktur" />
		<tag k="ssr:stedsnr" v="1070756" />
		<tag k="ssr:type" v="adressenavn" />
	</node>
	<node id="-27549" lat="59.8746990533" lon="11.5776307619">
		<tag k="name" v="Blåbærveien" />
		<tag k="ssr:date" v="2019-05-31" />
		<tag k="ssr:gruppe" v="veg" />
		<tag k="ssr:hovedgruppe" v="infrastruktur" />
		<tag k="ssr:stedsnr" v="1070614" />
		<tag k="ssr:type" v="adressenavn" />
	</node>
	<node id="-27548" lat="59.8799110844" lon="11.5607005097">
		<tag k="name" v="Vollakroken" />
		<tag k="ssr:date" v="2019-05-31" />
		<tag k="ssr:gruppe" v="veg" />
		<tag k="ssr:hovedgruppe" v="infrastruktur" />
		<tag k="ssr:stedsnr" v="1070610" />
		<tag k="ssr:type" v="adressenavn" />
	</node>
	<node id="-27547" lat="59.8802159226" lon="11.5580079909">
		<tag k="name" v="Vollasvingen" />
		<tag k="ssr:date" v="2019-05-31" />
		<tag k="ssr:gruppe" v="veg" />
		<tag k="ssr:hovedgruppe" v="infrastruktur" />
		<tag k="ssr:stedsnr" v="1070608" />
		<tag k="ssr:type" v="adressenavn" />
	</node>
	<node id="-28056" lat="59.8597166674" lon="11.6512499969">
		<tag k="name" v="Gamlevegen" />
		<tag k="ssr:date" v="2016-05-10" />
		<tag k="ssr:gruppe" v="veg" />
		<tag k="ssr:hovedgruppe" v="infrastruktur" />
		<tag k="ssr:stedsnr" v="102886" />
		<tag k="ssr:type" v="vegstrekning" />
	</node>
	<node id="-29071" lat="59.9853833371" lon="11.7866361172">
		<tag k="name" v="Damvegen" />
		<tag k="ssr:date" v="2016-05-10" />
		<tag k="ssr:gruppe" v="veg" />
		<tag k="ssr:hovedgruppe" v="infrastruktur" />
		<tag k="ssr:stedsnr" v="465971" />
		<tag k="ssr:type" v="vegstrekning" />
	</node>
	<node id="-28547" lat="59.8832055586" lon="11.5649083248">
		<tag k="name" v="Aurskog-Høland kommune" />
		<tag k="ssr:date" v="2016-05-10" />
		<tag k="ssr:gruppe" v="administrativeIndelinger" />
		<tag k="ssr:hovedgruppe" v="offentligAdministrasjon" />
		<tag k="ssr:stedsnr" v="207574" />
		<tag k="ssr:type" v="kommune" />
	</node>
	<node id="-27001" lat="59.9399666647" lon="11.4076027818">
		<tag k="name" v="Fossbergveien" />
		<tag k="ssr:date" v="2019-05-31" />
		<tag k="ssr:gruppe" v="veg" />
		<tag k="ssr:hovedgruppe" v="infrastruktur" />
		<tag k="ssr:stedsnr" v="302701" />
		<tag k="ssr:type" v="adressenavn" />
	</node>
	<node id="-29034" lat="59.9924861094" lon="11.6743166597">
		<tag k="name" v="Knollevegen" />
		<tag k="ssr:date" v="2016-05-10" />
		<tag k="ssr:gruppe" v="veg" />
		<tag k="ssr:hovedgruppe" v="infrastruktur" />
		<tag k="ssr:stedsnr" v="464728" />
		<tag k="ssr:type" v="vegstrekning" />
	</node>
	<node id="-27485" lat="59.9966999969" lon="11.7182444401">
		<tag k="name" v="Gamle Haugerveg" />
		<tag k="ssr:date" v="2016-05-11" />
		<tag k="ssr:gruppe" v="veg" />
		<tag k="ssr:hovedgruppe" v="infrastruktur" />
		<tag k="ssr:stedsnr" v="889684" />
		<tag k="ssr:type" v="vegstrekning" />
	</node>
	<node id="-26955" lat="59.9352805533" lon="11.7318861054">
		<tag k="name" v="Dalfossvegen" />
		<tag k="ssr:date" v="2016-05-10" />
		<tag k="ssr:gruppe" v="veg" />
		<tag k="ssr:hovedgruppe" v="infrastruktur" />
		<tag k="ssr:stedsnr" v="301395" />
		<tag k="ssr:type" v="vegstrekning" />
	</node>
	<node id="-26953" lat="59.8604166638" lon="11.7848527832">
		<tag k="name" v="Gamle Eikeheivegen" />
		<tag k="ssr:date" v="2016-05-10" />
		<tag k="ssr:gruppe" v="veg" />
		<tag k="ssr:hovedgruppe" v="infrastruktur" />
		<tag k="ssr:stedsnr" v="301207" />
		<tag k="ssr:type" v="vegstrekning" />
	</node>
	<node id="-29994" lat="59.8689111154" lon="11.5773527718">
		<tag k="name" v="Molteveien" />
		<tag k="ssr:date" v="2019-05-31" />
		<tag k="ssr:gruppe" v="veg" />
		<tag k="ssr:hovedgruppe" v="infrastruktur" />
		<tag k="ssr:stedsnr" v="666673" />
		<tag k="ssr:type" v="adressenavn" />
	</node>
	<node id="-29978" lat="59.8680972207" lon="11.8119222265">
		<tag k="name" v="Tømmerdalsvegen" />
		<tag k="ssr:date" v="2016-05-10" />
		<tag k="ssr:gruppe" v="veg" />
		<tag k="ssr:hovedgruppe" v="infrastruktur" />
		<tag k="ssr:stedsnr" v="665550" />
		<tag k="ssr:type" v="vegstrekning" />
	</node>
	<node id="-28425" lat="59.9406694465" lon="11.4050750006">
		<tag k="name" v="Banevokterveien" />
		<tag k="ssr:date" v="2019-05-31" />
		<tag k="ssr:gruppe" v="veg" />
		<tag k="ssr:hovedgruppe" v="infrastruktur" />
		<tag k="ssr:stedsnr" v="181710" />
		<tag k="ssr:type" v="adressenavn" />
	</node>
	<node id="-28424" lat="59.8719250033" lon="11.5702416745">
		<tag k="name" v="Bernhuslia" />
		<tag k="ssr:date" v="2019-05-31" />
		<tag k="ssr:gruppe" v="veg" />
		<tag k="ssr:hovedgruppe" v="infrastruktur" />
		<tag k="ssr:stedsnr" v="181705" />
		<tag k="ssr:type" v="adressenavn" />
	</node>
	<node id="-28421" lat="59.8401583354" lon="11.7381694504">
		<tag k="name" v="Skaratjernvegen" />
		<tag k="ssr:date" v="2016-05-10" />
		<tag k="ssr:gruppe" v="veg" />
		<tag k="ssr:hovedgruppe" v="infrastruktur" />
		<tag k="ssr:stedsnr" v="181182" />
		<tag k="ssr:type" v="vegstrekning" />
	</node>
	<node id="-26882" lat="60.0077666654" lon="11.8257527742">
		<tag k="name" v="Sætertjernvegen" />
		<tag k="ssr:date" v="2016-05-10" />
		<tag k="ssr:gruppe" v="veg" />
		<tag k="ssr:hovedgruppe" v="infrastruktur" />
		<tag k="ssr:stedsnr" v="285875" />
		<tag k="ssr:type" v="vegstrekning" />
	</node>
	<node id="-29427" lat="59.8719861153" lon="11.577663887">
		<tag k="name" v="Kreklingveien" />
		<tag k="ssr:date" v="2019-05-31" />
		<tag k="ssr:gruppe" v="veg" />
		<tag k="ssr:hovedgruppe" v="infrastruktur" />
		<tag k="ssr:stedsnr" v="545670" />
		<tag k="ssr:type" v="adressenavn" />
	</node>
	<node id="-30448" lat="60.0102666696" lon="11.8243694493">
		<tag k="name" v="Elgmyrvegen" />
		<tag k="ssr:date" v="2016-05-11" />
		<tag k="ssr:gruppe" v="veg" />
		<tag k="ssr:hovedgruppe" v="infrastruktur" />
		<tag k="ssr:stedsnr" v="770906" />
		<tag k="ssr:type" v="vegstrekning" />
	</node>
	<node id="-31186" lat="59.7900305546" lon="11.7810638957">
		<tag k="name" v="Heiavegen" />
		<tag k="ssr:date" v="2016-05-11" />
		<tag k="ssr:gruppe" v="veg" />
		<tag k="ssr:hovedgruppe" v="infrastruktur" />
		<tag k="ssr:stedsnr" v="950105" />
		<tag k="ssr:type" v="vegstrekning" />
	</node>
	<node id="-28898" lat="59.881000002" lon="11.7955666666">
		<tag k="name" v="Langsrudvegen" />
		<tag k="ssr:date" v="2016-05-10" />
		<tag k="ssr:gruppe" v="veg" />
		<tag k="ssr:hovedgruppe" v="infrastruktur" />
		<tag k="ssr:stedsnr" v="423535" />
		<tag k="ssr:type" v="vegstrekning" />
	</node>
	<node id="-30433" lat="59.8451472182" lon="11.8221611072">
		<tag k="name" v="Sukkerveien" />
		<tag k="ssr:date" v="2016-05-11" />
		<tag k="ssr:gruppe" v="veg" />
		<tag k="ssr:hovedgruppe" v="infrastruktur" />
		<tag k="ssr:stedsnr" v="770253" />
		<tag k="ssr:type" v="vegstrekning" />
	</node>
	<node id="-29908" lat="59.9942277811" lon="11.7621083299">
		<tag k="name" v="Sollivegen" />
		<tag k="ssr:date" v="2016-05-10" />
		<tag k="ssr:gruppe" v="veg" />
		<tag k="ssr:hovedgruppe" v="infrastruktur" />
		<tag k="ssr:stedsnr" v="648918" />
		<tag k="ssr:type" v="vegstrekning" />
	</node>
	<node id="-29894" lat="59.8502055587" lon="11.5226388933">
		<tag k="name" v="Hellebakka" />
		<tag k="ssr:date" v="2016-05-10" />
		<tag k="ssr:gruppe" v="veg" />
		<tag k="ssr:hovedgruppe" v="infrastruktur" />
		<tag k="ssr:stedsnr" v="648750" />
		<tag k="ssr:type" v="vegstrekning" />
	</node>
	<node id="-29360" lat="59.8761694412" lon="11.7724083246">
		<tag k="name" v="Urvassvegen" />
		<tag k="ssr:date" v="2016-05-10" />
		<tag k="ssr:gruppe" v="veg" />
		<tag k="ssr:hovedgruppe" v="infrastruktur" />
		<tag k="ssr:stedsnr" v="541532" />
		<tag k="ssr:type" v="vegstrekning" />
	</node>
	<node id="-27303" lat="59.9407138923" lon="11.4030027707">
		<tag k="name" v="Landhandlerveien" />
		<tag k="ssr:date" v="2019-05-31" />
		<tag k="ssr:gruppe" v="veg" />
		<tag k="ssr:hovedgruppe" v="infrastruktur" />
		<tag k="ssr:stedsnr" v="363655" />
		<tag k="ssr:type" v="adressenavn" />
	</node>
	<node id="-29339" lat="60.0132777747" lon="11.8352138922">
		<tag k="name" v="Veslebørvegen" />
		<tag k="ssr:date" v="2016-05-10" />
		<tag k="ssr:gruppe" v="veg" />
		<tag k="ssr:hovedgruppe" v="infrastruktur" />
		<tag k="ssr:stedsnr" v="527900" />
		<tag k="ssr:type" v="vegstrekning" />
	</node>
	<node id="-27588" lat="59.8833465775" lon="11.5778815663">
		<tag k="name" v="Sidesporet" />
		<tag k="ssr:date" v="2019-05-31" />
		<tag k="ssr:gruppe" v="veg" />
		<tag k="ssr:hovedgruppe" v="infrastruktur" />
		<tag k="ssr:stedsnr" v="991107" />
		<tag k="ssr:type" v="adressenavn" />
	</node>
	<node id="-27790" lat="60.0066805579" lon="11.5927916633">
		<tag k="name" v="Åsnessætervegen" />
		<tag k="ssr:date" v="2016-05-10" />
		<tag k="ssr:gruppe" v="veg" />
		<tag k="ssr:hovedgruppe" v="infrastruktur" />
		<tag k="ssr:stedsnr" v="55060" />
		<tag k="ssr:type" v="vegstrekning" />
	</node>
	<node id="-29124" lat="59.8763749988" lon="11.6932722227">
		<tag k="name" v="Myrdamvegen" />
		<tag k="ssr:date" v="2016-05-10" />
		<tag k="ssr:gruppe" v="veg" />
		<tag k="ssr:hovedgruppe" v="infrastruktur" />
		<tag k="ssr:stedsnr" v="481693" />
		<tag k="ssr:type" v="vegstrekning" />
	</node>
	<node id="-31356" lat="59.8918235168" lon="11.5619648164">
		<tag k="name" v="Holen" />
		<tag k="ssr:date" v="2019-05-31" />
		<tag k="ssr:gruppe" v="veg" />
		<tag k="ssr:hovedgruppe" v="infrastruktur" />
		<tag k="ssr:stedsnr" v="981071" />
		<tag k="ssr:type" v="adressenavn" />
	</node>
	<node id="-31353" lat="59.9182161445" lon="11.4510609383">
		<tag k="name" v="Husmannsstien" />
		<tag k="ssr:date" v="2019-05-31" />
		<tag k="ssr:gruppe" v="veg" />
		<tag k="ssr:hovedgruppe" v="infrastruktur" />
		<tag k="ssr:stedsnr" v="976061" />
		<tag k="ssr:type" v="adressenavn" />
	</node>
	<node id="-31352" lat="59.9186364549" lon="11.4497142187">
		<tag k="name" v="Klokker Moltzaus vei" />
		<tag k="ssr:date" v="2019-05-31" />
		<tag k="ssr:gruppe" v="veg" />
		<tag k="ssr:hovedgruppe" v="infrastruktur" />
		<tag k="ssr:stedsnr" v="976059" />
		<tag k="ssr:type" v="adressenavn" />
	</node>
	<node id="-31351" lat="59.9182749514" lon="11.4498307033">
		<tag k="name" v="Reveholen" />
		<tag k="ssr:date" v="2019-05-31" />
		<tag k="ssr:gruppe" v="veg" />
		<tag k="ssr:hovedgruppe" v="infrastruktur" />
		<tag k="ssr:stedsnr" v="976060" />
		<tag k="ssr:type" v="adressenavn" />
	</node>
	<node id="-31350" lat="59.9186264673" lon="11.4483178636">
		<tag k="name" v="Klokkerstuveien" />
		<tag k="ssr:date" v="2019-05-31" />
		<tag k="ssr:gruppe" v="veg" />
		<tag k="ssr:hovedgruppe" v="infrastruktur" />
		<tag k="ssr:stedsnr" v="976058" />
		<tag k="ssr:type" v="adressenavn" />
	</node>
	<node id="-31349" lat="60.5908609473" lon="9.63819281559">
		<tag k="fixme" v="multiple name tags, choose one and add the other to alt_name" />
		<tag k="name" v="Austlandet;Østlandet" />
		<tag k="ssr:date" v="2018-01-09" />
		<tag k="ssr:gruppe" v="administrativeIndelinger" />
		<tag k="ssr:hovedgruppe" v="offentligAdministrasjon" />
		<tag k="ssr:stedsnr" v="974775" />
		<tag k="ssr:type" v="annenAdministrativInndeling" />
	</node>
	<node id="-31348" lat="59.8855548439" lon="11.555230382">
		<tag k="name" v="Bakkesvingen" />
		<tag k="ssr:date" v="2019-05-31" />
		<tag k="ssr:gruppe" v="veg" />
		<tag k="ssr:hovedgruppe" v="infrastruktur" />
		<tag k="ssr:stedsnr" v="973521" />
		<tag k="ssr:type" v="adressenavn" />
	</node>
	<node id="-31347" lat="59.8850073337" lon="11.5555747718">
		<tag k="name" v="Myrvangveien" />
		<tag k="old_name" v="Myrvangtunet" />
		<tag k="ssr:date" v="2019-05-31" />
		<tag k="ssr:gruppe" v="veg" />
		<tag k="ssr:hovedgruppe" v="infrastruktur" />
		<tag k="ssr:stedsnr" v="973522" />
		<tag k="ssr:type" v="adressenavn" />
	</node>
	<node id="-31340" lat="59.9395972206" lon="11.4051222138">
		<tag k="name" v="Glenna" />
		<tag k="ssr:date" v="2019-05-31" />
		<tag k="ssr:gruppe" v="veg" />
		<tag k="ssr:hovedgruppe" v="infrastruktur" />
		<tag k="ssr:stedsnr" v="969706" />
		<tag k="ssr:type" v="adressenavn" />
	</node>
	<node id="-27224" lat="59.8823083359" lon="11.7582277831">
		<tag k="name" v="Åsvassvegen" />
		<tag k="ssr:date" v="2016-05-10" />
		<tag k="ssr:gruppe" v="veg" />
		<tag k="ssr:hovedgruppe" v="infrastruktur" />
		<tag k="ssr:stedsnr" v="359523" />
		<tag k="ssr:type" v="vegstrekning" />
	</node>
	<node id="-30805" lat="59.8800916668" lon="11.6933222188">
		<tag k="name" v="Høgdevegen" />
		<tag k="ssr:date" v="2016-05-11" />
		<tag k="ssr:gruppe" v="veg" />
		<tag k="ssr:hovedgruppe" v="infrastruktur" />
		<tag k="ssr:stedsnr" v="846688" />
		<tag k="ssr:type" v="vegstrekning" />
	</node>
	<node id="-27202" lat="60.0146277813" lon="11.812483333">
		<tag k="name" v="Bjønnmyrvegen" />
		<tag k="ssr:date" v="2016-05-10" />
		<tag k="ssr:gruppe" v="veg" />
		<tag k="ssr:hovedgruppe" v="infrastruktur" />
		<tag k="ssr:stedsnr" v="345902" />
		<tag k="ssr:type" v="vegstrekning" />
	</node>
	<node id="-27196" lat="59.9028555552" lon="11.6621138958">
		<tag k="name" v="Settevegen" />
		<tag k="ssr:date" v="2016-05-10" />
		<tag k="ssr:gruppe" v="veg" />
		<tag k="ssr:hovedgruppe" v="infrastruktur" />
		<tag k="ssr:stedsnr" v="345778" />
		<tag k="ssr:type" v="vegstrekning" />
	</node>
	<node id="-30265" lat="59.9404583344" lon="11.4008694499">
		<tag k="name" v="Kjellingmoveien" />
		<tag k="ssr:date" v="2019-05-31" />
		<tag k="ssr:gruppe" v="veg" />
		<tag k="ssr:hovedgruppe" v="infrastruktur" />
		<tag k="ssr:stedsnr" v="727704" />
		<tag k="ssr:type" v="adressenavn" />
	</node>
	<node id="-30264" lat="59.9398333373" lon="11.4030444465">
		<tag k="name" v="Bekkestubben" />
		<tag k="ssr:date" v="2019-05-31" />
		<tag k="ssr:gruppe" v="veg" />
		<tag k="ssr:hovedgruppe" v="infrastruktur" />
		<tag k="ssr:stedsnr" v="727703" />
		<tag k="ssr:type" v="adressenavn" />
	</node>
	<node id="-27571" lat="59.8926758419" lon="11.5527689898">
		<tag k="name" v="Persveien" />
		<tag k="ssr:date" v="2019-05-31" />
		<tag k="ssr:gruppe" v="veg" />
		<tag k="ssr:hovedgruppe" v="infrastruktur" />
		<tag k="ssr:stedsnr" v="982928" />
		<tag k="ssr:type" v="adressenavn" />
	</node>
	<node id="-31266" lat="59.8767250007" lon="11.6038722302">
		<tag k="name" v="Gamlevegen" />
		<tag k="ssr:date" v="2016-05-11" />
		<tag k="ssr:gruppe" v="veg" />
		<tag k="ssr:hovedgruppe" v="infrastruktur" />
		<tag k="ssr:stedsnr" v="966604" />
		<tag k="ssr:type" v="vegstrekning" />
	</node>
	<node id="-30236" lat="59.8751777766" lon="11.8077999968">
		<tag k="name" v="Grasmobanen" />
		<tag k="ssr:date" v="2019-05-31" />
		<tag k="ssr:gruppe" v="veg" />
		<tag k="ssr:hovedgruppe" v="infrastruktur" />
		<tag k="ssr:stedsnr" v="726538" />
		<tag k="ssr:type" v="adressenavn" />
	</node>
	<node id="-28699" lat="59.9429416664" lon="11.44074722">
		<tag k="name" v="Vilbergveien" />
		<tag k="ssr:date" v="2019-05-31" />
		<tag k="ssr:gruppe" v="veg" />
		<tag k="ssr:hovedgruppe" v="infrastruktur" />
		<tag k="ssr:stedsnr" v="242828" />
		<tag k="ssr:type" v="adressenavn" />
	</node>
	<node id="-28698" lat="59.8721861084" lon="11.5771250068">
		<tag k="name" v="Tranebærsvingen" />
		<tag k="ssr:date" v="2019-05-31" />
		<tag k="ssr:gruppe" v="veg" />
		<tag k="ssr:hovedgruppe" v="infrastruktur" />
		<tag k="ssr:stedsnr" v="242657" />
		<tag k="ssr:type" v="adressenavn" />
	</node>
	<node id="-28697" lat="59.872474997" lon="11.5765222243">
		<tag k="name" v="Tranebærveien" />
		<tag k="ssr:date" v="2019-05-31" />
		<tag k="ssr:gruppe" v="veg" />
		<tag k="ssr:hovedgruppe" v="infrastruktur" />
		<tag k="ssr:stedsnr" v="242656" />
		<tag k="ssr:type" v="adressenavn" />
	</node>
</osm>
