<?xml version="1.0" encoding="UTF-8"?>
<osm generator="osmapis" version="0.6">
	<node id="-410612" lat="59.2658500037" lon="10.4597249938">
		<tag k="alt_name" v="S. Slagen kirke" />
		<tag k="amenity" v="place_of_worship" />
		<tag k="denomination" v="lutheran" />
		<tag k="name" v="Søndre Slagen" />
		<tag k="religion" v="christian" />
		<tag k="ssr:stedsnr" v="731616" />
	</node>
	<node id="-409967" lat="59.2853861145" lon="10.3349888926">
		<tag k="amenity" v="community_centre" />
		<tag k="name" v="Sem menighetshus" />
		<tag k="ssr:stedsnr" v="268396" />
	</node>
	<node id="-410348" lat="59.2367916701" lon="10.4638972279">
		<tag k="alt_name" v="Husøy kapell" />
		<tag k="amenity" v="place_of_worship" />
		<tag k="denomination" v="lutheran" />
		<tag k="name" v="Husøy" />
		<tag k="religion" v="christian" />
		<tag k="ssr:stedsnr" v="669018" />
	</node>
	<node id="-409960" lat="59.3076999962" lon="10.4467666593">
		<tag k="name" v="Oseberghaugen" />
		<tag k="ssr:stedsnr" v="267781" />
		<tag k="tourism" v="attraction" />
	</node>
	<node id="-410213" lat="59.412075002" lon="10.2078583393">
		<tag k="alt_name" v="Fon kirke" />
		<tag k="amenity" v="place_of_worship" />
		<tag k="denomination" v="lutheran" />
		<tag k="name" v="Fon" />
		<tag k="religion" v="christian" />
		<tag k="ssr:stedsnr" v="488118" />
	</node>
	<node id="-410210" lat="59.2918694407" lon="10.3863166643">
		<tag k="alt_name" v="Sem kirke" />
		<tag k="amenity" v="place_of_worship" />
		<tag k="denomination" v="lutheran" />
		<tag k="name" v="Sem" />
		<tag k="religion" v="christian" />
		<tag k="ssr:stedsnr" v="487697" />
	</node>
	<node id="-410463" lat="59.2928916647" lon="10.4271027707">
		<tag k="amenity" v="place_of_worship" />
		<tag k="denomination" v="lutheran" />
		<tag k="name" v="Eik" />
		<tag k="religion" v="christian" />
		<tag k="ssr:stedsnr" v="578613" />
	</node>
	<node id="-410462" lat="59.2605805555" lon="10.360430557">
		<tag k="amenity" v="place_of_worship" />
		<tag k="denomination" v="lutheran" />
		<tag k="name" v="Vear" />
		<tag k="religion" v="christian" />
		<tag k="ssr:stedsnr" v="577507" />
	</node>
	<node id="-410461" lat="59.3730194433" lon="10.3639861141">
		<tag k="amenity" v="community_centre" />
		<tag k="name" v="Dalheim samf.hus" />
		<tag k="ssr:stedsnr" v="573709" />
	</node>
	<node id="-410844" lat="59.2615166701" lon="10.4955305489">
		<tag k="alt_name" v="Valløy;Vallø" />
		<tag k="amenity" v="place_of_worship" />
		<tag k="denomination" v="lutheran" />
		<tag k="name" v="Vallø kirke" />
		<tag k="religion" v="christian" />
		<tag k="ssr:stedsnr" v="3619" />
	</node>
	<node id="-411739" lat="59.2720130268" lon="10.4043089087">
		<tag k="name" v="Slottsfjelltårnet" />
		<tag k="ssr:stedsnr" v="987784" />
		<tag k="tourism" v="viewpoint" />
	</node>
	<node id="-411478" lat="59.3031138862" lon="10.4423777828">
		<tag k="alt_name" v="Slagen kirke" />
		<tag k="amenity" v="place_of_worship" />
		<tag k="denomination" v="lutheran" />
		<tag k="name" v="Slagen" />
		<tag k="religion" v="christian" />
		<tag k="ssr:stedsnr" v="608668" />
	</node>
	<node id="-410062" lat="59.2553027794" lon="10.5034583385">
		<tag k="name" v="Batteriet" />
		<tag k="place" v="locality" />
		<tag k="ssr:stedsnr" v="209202" />
	</node>
	<node id="-411472" lat="59.2676555534" lon="10.412063896">
		<tag k="alt_name" v="Haugar" />
		<tag k="name" v="Haugar" />
		<tag k="ssr:stedsnr" v="601281" />
		<tag k="tourism" v="museum" />
	</node>
	<node id="-410830" lat="59.3719388899" lon="10.3686111179">
		<tag k="alt_name" v="Undrumsdal krk." />
		<tag k="amenity" v="place_of_worship" />
		<tag k="denomination" v="lutheran" />
		<tag k="name" v="Undrumsdal" />
		<tag k="religion" v="christian" />
		<tag k="ssr:stedsnr" v="2574" />
	</node>
	<node id="-409919" lat="59.329663892" lon="10.4714249947">
		<tag k="amenity" v="community_centre" />
		<tag k="name" v="Rom skole" />
		<tag k="ssr:stedsnr" v="245571" />
	</node>
	<node id="-410931" lat="59.419899997" lon="10.277449998">
		<tag k="alt_name" v="Våle kirke" />
		<tag k="amenity" v="place_of_worship" />
		<tag k="denomination" v="lutheran" />
		<tag k="name" v="Våle" />
		<tag k="religion" v="christian" />
		<tag k="ssr:stedsnr" v="63142" />
	</node>
	<node id="-411676" lat="59.2690888908" lon="10.4041749916">
		<tag k="amenity" v="place_of_worship" />
		<tag k="denomination" v="lutheran" />
		<tag k="name" v="Tønsberg domkirke" />
		<tag k="religion" v="christian" />
		<tag k="ssr:stedsnr" v="845389" />
	</node>
	<node id="-411044" lat="59.3464277819" lon="10.2545888878">
		<tag k="amenity" v="place_of_worship" />
		<tag k="denomination" v="lutheran" />
		<tag k="name" v="Ramnes" />
		<tag k="religion" v="christian" />
		<tag k="ssr:stedsnr" v="124704" />
	</node>
	<node id="-410524" lat="59.3147694407" lon="10.4952694496">
		<tag k="amenity" v="community_centre" />
		<tag k="name" v="Fram ungd.lokale" />
		<tag k="ssr:stedsnr" v="876203" />
	</node>
	<node id="-411148" lat="59.3908027805" lon="10.2036416603">
		<tag k="amenity" v="place_of_worship" />
		<tag k="denomination" v="lutheran" />
		<tag k="name" v="Solberg kirke" />
		<tag k="religion" v="christian" />
		<tag k="ssr:stedsnr" v="209297" />
	</node>
	<node id="-410249" lat="59.273866665" lon="10.4365027802">
		<tag k="amenity" v="community_centre" />
		<tag k="name" v="Kilden kino" />
		<tag k="ssr:stedsnr" v="510762" />
	</node>
	<node id="-411094" lat="59.4223277769" lon="10.1327777722">
		<tag k="amenity" v="place_of_worship" />
		<tag k="denomination" v="lutheran" />
		<tag k="name" v="Vivestad" />
		<tag k="religion" v="christian" />
		<tag k="ssr:stedsnr" v="184176" />
	</node>
	<node id="-410369" lat="59.3316222234" lon="10.4241194517">
		<tag k="alt_name" v="Skibrekk" />
		<tag k="amenity" v="community_centre" />
		<tag k="name" v="Skibrekk skole" />
		<tag k="ssr:stedsnr" v="670578" />
	</node>
</osm>
