<?xml version="1.0" encoding="UTF-8"?>
<osm version="0.6" generator="osmapis">
	<node lat="59.2629694443155" lon="10.488597218586362" id="-47549">
		<tag k="man_made" v="quay" />
		<tag k="name" v="Surka" />
		<tag k="place" v="locality" />
		<tag k="ssr:stedsnr" v="25781" />
	</node>
	<node lat="59.45528611056311" lon="10.330316658108178" id="-47582">
		<tag k="landuse" v="industrial" />
		<tag k="name" v="Gunnestad transformatorstasjon" />
		<tag k="power" v="plant" />
		<tag k="ssr:stedsnr" v="27868" />
	</node>
	<node lat="59.285080556506614" lon="10.318522214250736" id="-47590">
		<tag k="bridge" v="yes" />
		<tag k="layer" v="1" />
		<tag k="name" v="Tem nordre" />
		<tag k="ssr:stedsnr" v="228573" />
	</node>
	<node lat="59.431536114506976" lon="10.310924993199764" id="-47591">
		<tag k="bridge" v="yes" />
		<tag k="layer" v="1" />
		<tag k="name" v="Meskumski" />
		<tag k="ssr:stedsnr" v="228778" />
	</node>
	<node lat="59.411474998867355" lon="10.24263054678157" id="-47605">
		<tag k="alt_name" v="Svinevold bru" />
		<tag k="bridge" v="yes" />
		<tag k="layer" v="1" />
		<tag k="name" v="Svinevoll bru" />
		<tag k="ssr:stedsnr" v="229735" />
	</node>
	<node lat="59.442944443984864" lon="10.239299999006734" id="-47635">
		<tag k="junction" v="yes" />
		<tag k="name" v="Ryk" />
		<tag k="place" v="locality" />
		<tag k="ssr:stedsnr" v="88586" />
	</node>
	<node lat="59.45894963282383" lon="10.344120077213576" id="-47645">
		<tag k="layer" v="-1" />
		<tag k="name" v="Brekketunnelen SL" />
		<tag k="ssr:stedsnr" v="105127" />
		<tag k="tunnel" v="yes" />
	</node>
	<node lat="59.23992499753347" lon="10.470083324770737" id="-47648">
		<tag k="man_made" v="quay" />
		<tag k="name" v="Husøybrygga" />
		<tag k="place" v="locality" />
		<tag k="ssr:stedsnr" v="237007" />
	</node>
	<node lat="59.26356666425203" lon="10.411474996049032" id="-47664">
		<tag k="man_made" v="quay" />
		<tag k="name" v="Sagabrygga" />
		<tag k="place" v="locality" />
		<tag k="ssr:stedsnr" v="238921" />
	</node>
	<node lat="59.3273194401959" lon="10.416069445745752" id="-47666">
		<tag k="junction" v="yes" />
		<tag k="name" v="Fridheim" />
		<tag k="place" v="locality" />
		<tag k="ssr:stedsnr" v="146756" />
	</node>
	<node lat="59.29046111157899" lon="10.34612499728056" id="-47707">
		<tag k="bridge" v="yes" />
		<tag k="layer" v="1" />
		<tag k="name" v="Auli nordre" />
		<tag k="ssr:stedsnr" v="167663" />
	</node>
	<node lat="59.30406944526097" lon="10.359916672556478" id="-47708">
		<tag k="bridge" v="yes" />
		<tag k="layer" v="1" />
		<tag k="name" v="Fyllpå" />
		<tag k="ssr:stedsnr" v="167667" />
	</node>
	<node lat="59.27357222134021" lon="10.432922221229159" id="-47709">
		<tag k="bridge" v="yes" />
		<tag k="layer" v="1" />
		<tag k="name" v="Kilen" />
		<tag k="ssr:stedsnr" v="167561" />
	</node>
	<node lat="59.31746111462902" lon="10.377072230980996" id="-47710">
		<tag k="bridge" v="yes" />
		<tag k="layer" v="1" />
		<tag k="name" v="Gulli kreaturundergang" />
		<tag k="ssr:stedsnr" v="167562" />
	</node>
	<node lat="59.31444444183394" lon="10.369688880103805" id="-47711">
		<tag k="bridge" v="yes" />
		<tag k="layer" v="1" />
		<tag k="name" v="Gulli" />
		<tag k="ssr:stedsnr" v="167563" />
	</node>
	<node lat="59.26105555464078" lon="10.415858336303684" id="-47712">
		<tag k="bridge" v="yes" />
		<tag k="layer" v="1" />
		<tag k="name" v="Tønsberg kanalbru" />
		<tag k="ssr:stedsnr" v="167566" />
	</node>
	<node lat="59.417688886462635" lon="10.278836115418786" id="-47755">
		<tag k="junction" v="yes" />
		<tag k="name" v="Kirkevoll" />
		<tag k="place" v="locality" />
		<tag k="ssr:stedsnr" v="209805" />
	</node>
	<node lat="59.35128888759475" lon="10.372272230217249" id="-47762">
		<tag k="bridge" v="yes" />
		<tag k="layer" v="1" />
		<tag k="name" v="Hem III" />
		<tag k="ssr:stedsnr" v="228750" />
	</node>
	<node lat="59.38550833430171" lon="10.258194445302316" id="-47827">
		<tag k="junction" v="yes" />
		<tag k="name" v="Fossan" />
		<tag k="place" v="locality" />
		<tag k="ssr:stedsnr" v="452591" />
	</node>
	<node lat="59.3145483198429" lon="10.369982887864618" id="-47850">
		<tag k="layer" v="-1" />
		<tag k="name" v="Gullitunnelen" />
		<tag k="ssr:stedsnr" v="295551" />
		<tag k="tunnel" v="yes" />
	</node>
	<node lat="59.30087499904752" lon="10.366902774124744" id="-47856">
		<tag k="aeroway" v="aerodrome" />
		<tag k="loc_name" v="Jarlsberg" />
		<tag k="name" v="Tønsberg flyplass, Jarlsberg" />
		<tag k="old_name" v="Jarlsberg flyplass" />
		<tag k="ssr:stedsnr" v="305680" />
	</node>
	<node lat="59.28719722095298" lon="10.406041670067573" id="-47889">
		<tag k="bridge" v="yes" />
		<tag k="layer" v="1" />
		<tag k="name" v="Kjellengveien" />
		<tag k="ssr:stedsnr" v="349565" />
	</node>
	<node lat="59.37137777988488" lon="10.36760832462411" id="-47890">
		<tag k="bridge" v="yes" />
		<tag k="layer" v="1" />
		<tag k="name" v="Undrumsdal" />
		<tag k="ssr:stedsnr" v="350717" />
	</node>
	<node lat="59.267693522169274" lon="10.403345632803228" id="-47891">
		<tag k="man_made" v="quay" />
		<tag k="name" v="Tollbodbrygga" />
		<tag k="place" v="locality" />
		<tag k="ssr:stedsnr" v="359913" />
	</node>
	<node lat="59.3674222195574" lon="10.377030551715821" id="-47930">
		<tag k="bridge" v="yes" />
		<tag k="layer" v="1" />
		<tag k="name" v="Solerød" />
		<tag k="ssr:stedsnr" v="471734" />
	</node>
	<node lat="59.38586667089298" lon="10.253986118403862" id="-47931">
		<tag k="bridge" v="yes" />
		<tag k="layer" v="1" />
		<tag k="name" v="Fossan" />
		<tag k="ssr:stedsnr" v="471711" />
	</node>
	<node lat="59.41933889334149" lon="10.254727775470764" id="-47932">
		<tag k="bridge" v="yes" />
		<tag k="layer" v="1" />
		<tag k="name" v="Bettum" />
		<tag k="ssr:stedsnr" v="471712" />
	</node>
	<node lat="59.273355553916396" lon="10.442816657929157" id="-47934">
		<tag k="barrier" v="toll_booth" />
		<tag k="name" v="Kilen" />
		<tag k="ssr:stedsnr" v="403491" />
	</node>
	<node lat="59.35406389245065" lon="10.372438880930805" id="-47935">
		<tag k="bridge" v="yes" />
		<tag k="layer" v="1" />
		<tag k="name" v="Hem II" />
		<tag k="ssr:stedsnr" v="410719" />
	</node>
	<node lat="59.396777774877705" lon="10.362336113410015" id="-47936">
		<tag k="bridge" v="yes" />
		<tag k="layer" v="1" />
		<tag k="name" v="Flår" />
		<tag k="ssr:stedsnr" v="410720" />
	</node>
	<node lat="59.41833333109231" lon="10.260197230379388" id="-47978">
		<tag k="alt_name" v="Siltvedt" />
		<tag k="junction" v="yes" />
		<tag k="name" v="Siltvet" />
		<tag k="place" v="locality" />
		<tag k="ssr:stedsnr" v="452313" />
	</node>
	<node lat="59.44768333128781" lon="10.271313889890587" id="-48048">
		<tag k="junction" v="yes" />
		<tag k="name" v="Strange" />
		<tag k="place" v="locality" />
		<tag k="ssr:stedsnr" v="512809" />
	</node>
	<node lat="59.36896388829585" lon="10.368766661522946" id="-48057">
		<tag k="bridge" v="yes" />
		<tag k="layer" v="1" />
		<tag k="name" v="Solerød" />
		<tag k="ssr:stedsnr" v="532728" />
	</node>
	<node lat="59.417530556853904" lon="10.188055553834195" id="-48080">
		<tag k="highway" v="path" />
		<tag k="name" v="Prestestien" />
		<tag k="ssr:stedsnr" v="573264" />
	</node>
	<node lat="59.385347218709185" lon="10.131511106078415" id="-48095">
		<tag k="alt_name" v="Ektvedt bru" />
		<tag k="bridge" v="yes" />
		<tag k="layer" v="1" />
		<tag k="name" v="Ektvet bru" />
		<tag k="ssr:stedsnr" v="592758" />
	</node>
	<node lat="59.3025861100507" lon="10.468938895215052" id="-48104">
		<tag k="junction" v="yes" />
		<tag k="name" v="Hassum" />
		<tag k="place" v="locality" />
		<tag k="ssr:stedsnr" v="631815" />
	</node>
	<node lat="59.4386555531991" lon="10.230308333384189" id="-48125">
		<tag k="junction" v="yes" />
		<tag k="name" v="Skjerpe" />
		<tag k="place" v="locality" />
		<tag k="ssr:stedsnr" v="633642" />
	</node>
	<node lat="59.28516111053453" lon="10.318775007702039" id="-48145">
		<tag k="bridge" v="yes" />
		<tag k="layer" v="1" />
		<tag k="name" v="Tem driftskulvert" />
		<tag k="ssr:stedsnr" v="652505" />
	</node>
	<node lat="59.41578888737479" lon="10.234647222365341" id="-48149">
		<tag k="bridge" v="yes" />
		<tag k="layer" v="1" />
		<tag k="name" v="Svinevold" />
		<tag k="ssr:stedsnr" v="653748" />
	</node>
	<node lat="59.43481667060123" lon="10.197566667320256" id="-48161">
		<tag k="junction" v="yes" />
		<tag k="name" v="Hegna" />
		<tag k="place" v="locality" />
		<tag k="ssr:stedsnr" v="695537" />
	</node>
	<node lat="59.45868430276816" lon="10.344042217213616" id="-48212">
		<tag k="layer" v="-1" />
		<tag k="name" v="Brekketunnelen NL" />
		<tag k="ssr:stedsnr" v="711136" />
		<tag k="tunnel" v="yes" />
	</node>
	<node lat="59.238702781664884" lon="10.452694450136192" id="-48213">
		<tag k="bridge" v="yes" />
		<tag k="layer" v="1" />
		<tag k="name" v="Husøy" />
		<tag k="ssr:stedsnr" v="714610" />
	</node>
	<node lat="59.331516663460555" lon="10.378838882693577" id="-48254">
		<tag k="bridge" v="yes" />
		<tag k="layer" v="1" />
		<tag k="name" v="Tveiten søndre" />
		<tag k="ssr:stedsnr" v="896557" />
	</node>
	<node lat="59.30249166839759" lon="10.358619445836021" id="-48255">
		<tag k="bridge" v="yes" />
		<tag k="layer" v="1" />
		<tag k="name" v="Fadum" />
		<tag k="ssr:stedsnr" v="896690" />
	</node>
	<node lat="59.3872777786061" lon="10.257386107584425" id="-48256">
		<tag k="bridge" v="yes" />
		<tag k="layer" v="1" />
		<tag k="name" v="Fossan bru" />
		<tag k="ssr:stedsnr" v="896754" />
	</node>
	<node lat="59.293025001300926" lon="10.347111119065834" id="-48257">
		<tag k="bridge" v="yes" />
		<tag k="layer" v="1" />
		<tag k="name" v="Bispevegen kulvert" />
		<tag k="ssr:stedsnr" v="774677" />
	</node>
	<node lat="59.28416110780623" lon="10.412816670941956" id="-48258">
		<tag k="bridge" v="yes" />
		<tag k="layer" v="1" />
		<tag k="name" v="Grevskogen" />
		<tag k="ssr:stedsnr" v="774568" />
	</node>
	<node lat="59.261672226581084" lon="10.4163416693183" id="-48293">
		<tag k="barrier" v="toll_booth" />
		<tag k="name" v="Kanalen" />
		<tag k="ssr:stedsnr" v="828480" />
	</node>
	<node lat="59.3552277782318" lon="10.37250832661379" id="-48295">
		<tag k="bridge" v="yes" />
		<tag k="layer" v="1" />
		<tag k="name" v="Hem I" />
		<tag k="ssr:stedsnr" v="836697" />
	</node>
	<node lat="59.38204444727895" lon="10.204150003735394" id="-48296">
		<tag k="bridge" v="yes" />
		<tag k="layer" v="1" />
		<tag k="name" v="Askjer" />
		<tag k="ssr:stedsnr" v="836701" />
	</node>
	<node lat="59.427416667801694" lon="10.303602784263038" id="-48364">
		<tag k="junction" v="yes" />
		<tag k="name" v="Haga" />
		<tag k="place" v="locality" />
		<tag k="ssr:stedsnr" v="877903" />
	</node>
	<node lat="59.28610277710874" lon="10.33594444805756" id="-48369">
		<tag k="bridge" v="yes" />
		<tag k="layer" v="1" />
		<tag k="name" v="Semsbyen nordre" />
		<tag k="ssr:stedsnr" v="896560" />
	</node>
	<node lat="59.25899444322724" lon="10.36082223085788" id="-48370">
		<tag k="bridge" v="yes" />
		<tag k="layer" v="1" />
		<tag k="name" v="Vear" />
		<tag k="ssr:stedsnr" v="896777" />
	</node>
	<node lat="59.24950555114974" lon="10.474425003460967" id="-48371">
		<tag k="man_made" v="quay" />
		<tag k="name" v="Husvikbrygga" />
		<tag k="place" v="locality" />
		<tag k="ssr:stedsnr" v="905004" />
	</node>
	<node lat="59.3447416672603" lon="10.257394442073164" id="-48432">
		<tag k="bridge" v="yes" />
		<tag k="layer" v="1" />
		<tag k="name" v="Kirkevold" />
		<tag k="ssr:stedsnr" v="957709" />
	</node>
	<node lat="59.420486110025955" lon="10.291861115125101" id="-48433">
		<tag k="bridge" v="yes" />
		<tag k="layer" v="1" />
		<tag k="name" v="Søbyholmen" />
		<tag k="ssr:stedsnr" v="957740" />
	</node>
	<node lat="59.260302781778435" lon="10.419319436669955" id="-48435">
		<tag k="man_made" v="quay" />
		<tag k="name" v="Kanalbrygga" />
		<tag k="place" v="locality" />
		<tag k="ssr:stedsnr" v="966392" />
	</node>
	<node lat="59.28808332976146" lon="10.333491671168218" id="-48523">
		<tag k="bridge" v="yes" />
		<tag k="layer" v="1" />
		<tag k="name" v="Aulerød" />
		<tag k="ssr:stedsnr" v="46694" />
	</node>
	<node lat="59.28109999670407" lon="10.309894436573709" id="-48524">
		<tag k="bridge" v="yes" />
		<tag k="layer" v="1" />
		<tag k="name" v="Hesby" />
		<tag k="ssr:stedsnr" v="46552" />
	</node>
	<node lat="59.293063884795174" lon="10.351025005486306" id="-48525">
		<tag k="bridge" v="yes" />
		<tag k="layer" v="1" />
		<tag k="name" v="Åsbakken" />
		<tag k="ssr:stedsnr" v="46567" />
	</node>
	<node lat="59.397645419542194" lon="10.368231166531732" id="-48526">
		<tag k="layer" v="-1" />
		<tag k="name" v="Flårtunnelen" />
		<tag k="ssr:stedsnr" v="53560" />
		<tag k="tunnel" v="yes" />
	</node>
	<node lat="59.437680555312156" lon="10.210108341968578" id="-48568">
		<tag k="alt_name" v="Bakstevoll" />
		<tag k="junction" v="yes" />
		<tag k="name" v="Bakstvål" />
		<tag k="place" v="locality" />
		<tag k="ssr:stedsnr" v="88455" />
	</node>
	<node lat="59.38213610975702" lon="10.204191663412303" id="-48571">
		<tag k="bridge" v="yes" />
		<tag k="layer" v="1" />
		<tag k="name" v="Askjer bru" />
		<tag k="ssr:stedsnr" v="88256" />
	</node>
	<node lat="59.392447226191585" lon="10.304580563357048" id="-48581">
		<tag k="junction" v="yes" />
		<tag k="name" v="Hengsrud" />
		<tag k="place" v="locality" />
		<tag k="ssr:stedsnr" v="88738" />
	</node>
	<node lat="59.28194999942715" lon="10.370752772038937" id="-48595">
		<tag k="bridge" v="yes" />
		<tag k="layer" v="1" />
		<tag k="name" v="Auli bru nedre" />
		<tag k="ssr:stedsnr" v="107658" />
	</node>
	<node lat="59.370000003816585" lon="10.213961119246184" id="-48596">
		<tag k="bridge" v="yes" />
		<tag k="layer" v="1" />
		<tag k="name" v="Dal" />
		<tag k="ssr:stedsnr" v="107731" />
	</node>
	<node lat="59.32912777376424" lon="10.330583327177782" id="-48597">
		<tag k="bridge" v="yes" />
		<tag k="layer" v="1" />
		<tag k="name" v="Bjune bru" />
		<tag k="ssr:stedsnr" v="107732" />
	</node>
	<node lat="59.43775278131291" lon="10.209513886314564" id="-48598">
		<tag k="alt_name" v="Bakstvåll" />
		<tag k="bridge" v="yes" />
		<tag k="layer" v="1" />
		<tag k="name" v="Bakstvål" />
		<tag k="ssr:stedsnr" v="107733" />
	</node>
	<node lat="59.39894721992778" lon="10.314136105250496" id="-48599">
		<tag k="bridge" v="yes" />
		<tag k="layer" v="1" />
		<tag k="name" v="Verp" />
		<tag k="ssr:stedsnr" v="107758" />
	</node>
	<node lat="59.38134722330942" lon="10.363725004538514" id="-48600">
		<tag k="bridge" v="yes" />
		<tag k="layer" v="1" />
		<tag k="name" v="Knutstad" />
		<tag k="ssr:stedsnr" v="107759" />
	</node>
	<node lat="59.38621111303386" lon="10.36385276982699" id="-48665">
		<tag k="bridge" v="yes" />
		<tag k="layer" v="1" />
		<tag k="name" v="Døvik" />
		<tag k="ssr:stedsnr" v="168712" />
	</node>
	<node lat="59.26098055927994" lon="10.41308611928652" id="-48667">
		<tag k="man_made" v="quay" />
		<tag k="name" v="Teiebrygga" />
		<tag k="place" v="locality" />
		<tag k="ssr:stedsnr" v="177923" />
	</node>
	<node lat="59.43266110759078" lon="10.314247226054153" id="-48740">
		<tag k="junction" v="yes" />
		<tag k="name" v="Meskumski" />
		<tag k="place" v="locality" />
		<tag k="ssr:stedsnr" v="209878" />
	</node>
	<node lat="59.35472777623583" lon="10.27655000236629" id="-48773">
		<tag k="alt_name" v="Bøe bru" />
		<tag k="bridge" v="yes" />
		<tag k="layer" v="1" />
		<tag k="name" v="Bø bru" />
		<tag k="ssr:stedsnr" v="270714" />
	</node>
	<node lat="59.448066666025035" lon="10.267288885985062" id="-48786">
		<tag k="junction" v="yes" />
		<tag k="name" v="Kornto" />
		<tag k="place" v="locality" />
		<tag k="ssr:stedsnr" v="270773" />
	</node>
	<node lat="59.28237870319983" lon="10.414519009704016" id="-48795">
		<tag k="barrier" v="toll_booth" />
		<tag k="name" v="Gressbanen" />
		<tag k="ssr:stedsnr" v="282514" />
	</node>
	<node lat="59.279594444212" lon="10.30927778259832" id="-48796">
		<tag k="bridge" v="yes" />
		<tag k="layer" v="1" />
		<tag k="name" v="Hesby søndre" />
		<tag k="ssr:stedsnr" v="289546" />
	</node>
	<node lat="59.345797222787" lon="10.35776943909706" id="-48797">
		<tag k="man_made" v="cairn" />
		<tag k="name" v="Undrumsås" />
		<tag k="place" v="locality" />
		<tag k="ssr:stedsnr" v="293118" />
	</node>
	<node lat="59.37478611116321" lon="10.376863890163886" id="-48798">
		<tag k="junction" v="yes" />
		<tag k="name" v="Undrumsdalskrysset" />
		<tag k="place" v="locality" />
		<tag k="ssr:stedsnr" v="295653" />
	</node>
	<node lat="59.312544441327" lon="10.367583337288705" id="-48799">
		<tag k="junction" v="yes" />
		<tag k="name" v="Gullikrysset" />
		<tag k="place" v="locality" />
		<tag k="ssr:stedsnr" v="296865" />
	</node>
	<node lat="59.2939833312677" lon="10.348808329189229" id="-48868">
		<tag k="bridge" v="yes" />
		<tag k="layer" v="1" />
		<tag k="name" v="Bispeveien" />
		<tag k="ssr:stedsnr" v="349677" />
	</node>
	<node lat="59.3374555561363" lon="10.302777776525826" id="-48924">
		<tag k="alt_name" v="Klopp" />
		<tag k="bridge" v="yes" />
		<tag k="layer" v="1" />
		<tag k="name" v="Kloppe bru" />
		<tag k="ssr:stedsnr" v="391730" />
	</node>
	<node lat="59.37221944829746" lon="10.335305558917534" id="-48925">
		<tag k="junction" v="yes" />
		<tag k="name" v="Grøum" />
		<tag k="place" v="locality" />
		<tag k="ssr:stedsnr" v="391742" />
	</node>
	<node lat="59.28942777407303" lon="10.43518889688795" id="-48936">
		<tag k="bridge" v="yes" />
		<tag k="layer" v="1" />
		<tag k="name" v="Velle" />
		<tag k="ssr:stedsnr" v="410534" />
	</node>
	<node lat="59.27282273722825" lon="10.40094450216862" id="-49033">
		<tag k="layer" v="-1" />
		<tag k="name" v="Slottsfjelltunnelen" />
		<tag k="ssr:stedsnr" v="517917" />
		<tag k="tunnel" v="yes" />
	</node>
	<node lat="59.32888889129061" lon="10.379777773571412" id="-49035">
		<tag k="bridge" v="yes" />
		<tag k="layer" v="1" />
		<tag k="name" v="Eikeberg" />
		<tag k="ssr:stedsnr" v="531667" />
	</node>
	<node lat="59.417250000190094" lon="10.278211113690393" id="-49036">
		<tag k="bridge" v="yes" />
		<tag k="layer" v="1" />
		<tag k="name" v="Kirkevoll" />
		<tag k="ssr:stedsnr" v="532705" />
	</node>
	<node lat="59.27655833420486" lon="10.364088896469003" id="-49102">
		<tag k="bridge" v="yes" />
		<tag k="layer" v="1" />
		<tag k="name" v="Hoksnes" />
		<tag k="ssr:stedsnr" v="592544" />
	</node>
	<node lat="59.35335246411587" lon="10.382043933801917" id="-49103">
		<tag k="layer" v="-1" />
		<tag k="name" v="Hemtunnelen" />
		<tag k="ssr:stedsnr" v="598529" />
		<tag k="tunnel" v="yes" />
	</node>
	<node lat="59.446025001209385" lon="10.245294448645346" id="-49165">
		<tag k="bridge" v="yes" />
		<tag k="layer" v="1" />
		<tag k="name" v="Ryk II" />
		<tag k="ssr:stedsnr" v="653756" />
	</node>
	<node lat="59.371622223852704" lon="10.32117221568844" id="-49166">
		<tag k="bridge" v="yes" />
		<tag k="layer" v="1" />
		<tag k="name" v="Dal" />
		<tag k="ssr:stedsnr" v="653726" />
	</node>
	<node lat="59.44420277718314" lon="10.103994445128638" id="-49168">
		<tag k="bridge" v="yes" />
		<tag k="layer" v="1" />
		<tag k="name" v="Lønskoll" />
		<tag k="ssr:stedsnr" v="714716" />
	</node>
	<node lat="59.37014444226619" lon="10.261138890845228" id="-49169">
		<tag k="bridge" v="yes" />
		<tag k="layer" v="1" />
		<tag k="name" v="Revetal" />
		<tag k="ssr:stedsnr" v="714717" />
	</node>
	<node lat="59.27258333379393" lon="10.408424993532613" id="-49170">
		<tag k="name" v="Tønsberg" />
		<tag k="railway" v="station" />
		<tag k="ssr:stedsnr" v="723362" />
		<tag k="train" v="yes" />
	</node>
	<node lat="59.37839444882989" lon="10.372977773173071" id="-49233">
		<tag k="bridge" v="yes" />
		<tag k="layer" v="1" />
		<tag k="name" v="Baksjuldalen" />
		<tag k="ssr:stedsnr" v="775702" />
	</node>
	<node lat="59.25940277924111" lon="10.41942499607738" id="-49234">
		<tag k="man_made" v="quay" />
		<tag k="name" v="Kanalbrygga (Nøtterøysida)" />
		<tag k="place" v="locality" />
		<tag k="ssr:stedsnr" v="784406" />
	</node>
	<node lat="59.28540282874257" lon="10.395627107905579" id="-49286">
		<tag k="barrier" v="toll_booth" />
		<tag k="name" v="Kjelle" />
		<tag k="ssr:stedsnr" v="828670" />
	</node>
	<node lat="59.29081388935125" lon="10.326366670387278" id="-49287">
		<tag k="bridge" v="yes" />
		<tag k="layer" v="1" />
		<tag k="name" v="Lensberg" />
		<tag k="ssr:stedsnr" v="835556" />
	</node>
	<node lat="59.34078055846609" lon="10.375991665466417" id="-49288">
		<tag k="bridge" v="yes" />
		<tag k="layer" v="1" />
		<tag k="name" v="Tveiten nordre" />
		<tag k="ssr:stedsnr" v="836723" />
	</node>
	<node lat="59.38782061185006" lon="10.374230229164342" id="-49290">
		<tag k="layer" v="-1" />
		<tag k="name" v="Døviktunnelen" />
		<tag k="ssr:stedsnr" v="842539" />
		<tag k="tunnel" v="yes" />
	</node>
	<node lat="59.38799444262986" lon="10.334002786121621" id="-49353">
		<tag k="junction" v="yes" />
		<tag k="name" v="Knapstad" />
		<tag k="place" v="locality" />
		<tag k="ssr:stedsnr" v="877801" />
	</node>
	<node lat="59.31792500209723" lon="10.300424995425285" id="-49382">
		<tag k="junction" v="yes" />
		<tag k="name" v="Verningen" />
		<tag k="place" v="locality" />
		<tag k="ssr:stedsnr" v="937791" />
	</node>
	<node lat="59.281524999861915" lon="10.366513895298569" id="-49395">
		<tag k="barrier" v="toll_booth" />
		<tag k="name" v="Auli" />
		<tag k="ssr:stedsnr" v="949667" />
	</node>
	<node lat="59.28011944691184" lon="10.285758327296003" id="-49396">
		<tag k="bridge" v="yes" />
		<tag k="layer" v="1" />
		<tag k="name" v="Tveitan bru" />
		<tag k="ssr:stedsnr" v="956568" />
	</node>
	<node lat="59.291883331920644" lon="10.344680564264788" id="-49397">
		<tag k="bridge" v="yes" />
		<tag k="layer" v="1" />
		<tag k="name" v="Aulielva" />
		<tag k="ssr:stedsnr" v="956675" />
	</node>
	<node lat="59.26006555851631" lon="10.422732068601245" id="-49426">
		<tag k="man_made" v="quay" />
		<tag k="name" v="Stensarmen" />
		<tag k="place" v="locality" />
		<tag k="ssr:stedsnr" v="988655" />
	</node>
	<node lat="59.28105757754767" lon="10.400998256360891" id="-50288">
		<tag k="layer" v="-1" />
		<tag k="name" v="Frodeåstunnelen" />
		<tag k="ssr:stedsnr" v="1072963" />
		<tag k="tunnel" v="yes" />
	</node>
	<node lat="58.9440068916853" lon="9.637917728815127" id="-50292">
		<tag k="name" v="Tonerhavn" />
		<tag k="place" v="locality" />
		<tag k="ssr:stedsnr" v="1074516" />
	</node>
</osm>
