<?xml version="1.0" encoding="UTF-8"?>
<<<<<<< HEAD
<osm version="0.6" generator="osmapis">
	<node lat="59.43461666534996" lon="10.103958334910262" id="-34410">
		<tag k="name" v="Kvennefossen" />
		<tag k="natural" v="waterfall" />
		<tag k="ssr:stedsnr" v="27017" />
	</node>
	<node lat="59.45309166269062" lon="10.152505556178177" id="-34413">
		<tag k="name" v="Vassbotn" />
		<tag k="natural" v="shoal" />
		<tag k="place" v="locality" />
		<tag k="ssr:stedsnr" v="27108" />
	</node>
	<node lat="59.46395277503041" lon="10.17180277617657" id="-34420">
		<tag k="name" v="Hagabukta" />
		<tag k="natural" v="bay" />
		<tag k="ssr:stedsnr" v="27580" />
	</node>
	<node lat="59.33031111378416" lon="10.348441670472644" id="-34424">
		<tag k="name" v="Rastadelva" />
		<tag k="ssr:stedsnr" v="27769" />
		<tag k="waterway" v="stream" />
	</node>
	<node lat="59.39778333043482" lon="10.060600001581593" id="-34451">
		<tag k="name" v="Merkedammen" />
		<tag k="natural" v="water" />
		<tag k="ssr:stedsnr" v="245137" />
		<tag k="water" v="lake" />
	</node>
	<node lat="59.4302972220093" lon="10.155011111011515" id="-34489">
		<tag k="name" v="Svartebekken" />
		<tag k="ssr:stedsnr" v="88909" />
		<tag k="waterway" v="stream" />
	</node>
	<node lat="59.4303055587039" lon="10.210255557518343" id="-34515">
		<tag k="alt_name" v="Storelv" />
		<tag k="name" v="Storelva" />
		<tag k="ssr:stedsnr" v="252629" />
		<tag k="waterway" v="river" />
	</node>
	<node lat="59.41501666644561" lon="10.148769453165738" id="-34522">
		<tag k="name" v="Gjøtterød-bekken" />
		<tag k="ssr:stedsnr" v="148176" />
		<tag k="waterway" v="stream" />
	</node>
	<node lat="59.4491027738671" lon="10.072416666928124" id="-34544">
		<tag k="name" v="Berganvannet" />
		<tag k="natural" v="water" />
		<tag k="ssr:stedsnr" v="184047" />
	</node>
	<node lat="59.34302499754665" lon="10.200974993602001" id="-34555">
		<tag k="name" v="Stangevannet" />
		<tag k="natural" v="water" />
		<tag k="ssr:stedsnr" v="184740" />
	</node>
	<node lat="59.38701345053556" lon="10.085610088469561" id="-34569">
		<tag k="name" v="Bjunedammene" />
		<tag k="natural" v="water" />
		<tag k="ssr:stedsnr" v="209080" />
	</node>
	<node lat="59.346136107891446" lon="10.244111110527863" id="-34600">
		<tag k="name" v="Stangebekken" />
		<tag k="ssr:stedsnr" v="270295" />
		<tag k="waterway" v="stream" />
	</node>
	<node lat="59.381950003360394" lon="10.16623333869077" id="-34602">
		<tag k="name" v="Gunnerødbekken" />
		<tag k="ssr:stedsnr" v="270319" />
		<tag k="waterway" v="stream" />
	</node>
	<node lat="59.28508888491131" lon="10.363444445057086" id="-34637">
		<tag k="name" v="Aulielva" />
		<tag k="ssr:stedsnr" v="450399" />
		<tag k="waterway" v="river" />
	</node>
	<node lat="59.30081666980746" lon="10.426855550193697" id="-34640">
		<tag k="name" v="Eikbekken" />
		<tag k="ssr:stedsnr" v="450790" />
		<tag k="waterway" v="stream" />
	</node>
	<node lat="59.434402774121864" lon="10.106211112366742" id="-34654">
		<tag k="name" v="Oholmene" />
		<tag k="place" v="locality" />
		<tag k="ssr:stedsnr" v="452011" />
	</node>
	<node lat="59.364119442084366" lon="10.19514721435139" id="-34671">
		<tag k="name" v="Gislerødbekken" />
		<tag k="ssr:stedsnr" v="452339" />
		<tag k="waterway" v="stream" />
	</node>
	<node lat="59.370541670402226" lon="10.320577782153435" id="-34692">
		<tag k="name" v="Dalselva" />
		<tag k="ssr:stedsnr" v="452742" />
		<tag k="waterway" v="stream" />
	</node>
	<node lat="59.40259166566071" lon="10.279738890685785" id="-34704">
		<tag k="name" v="Stampeelva" />
		<tag k="ssr:stedsnr" v="452837" />
		<tag k="waterway" v="stream" />
	</node>
	<node lat="59.41700277592268" lon="10.078055557950913" id="-34723">
		<tag k="name" v="Karivann" />
		<tag k="natural" v="water" />
		<tag k="ssr:stedsnr" v="270184" />
	</node>
	<node lat="59.21965555910128" lon="10.18509443812033" id="-34744">
		<tag k="alt_name" v="Storelv" />
		<tag k="name" v="Storelva" />
		<tag k="ssr:stedsnr" v="305310" />
		<tag k="waterway" v="river" />
	</node>
	<node lat="59.41008888924945" lon="10.18284166195974" id="-34746">
		<tag k="alt_name" v="Røssedalvannet" />
		<tag k="name" v="Røssdalsvannet" />
		<tag k="natural" v="water" />
		<tag k="ssr:stedsnr" v="306120" />
	</node>
	<node lat="59.36605278127015" lon="10.287308327724208" id="-34766">
		<tag k="name" v="Lefsrødbekken" />
		<tag k="ssr:stedsnr" v="330770" />
		<tag k="waterway" v="stream" />
	</node>
	<node lat="59.45250833733824" lon="10.175433335392208" id="-34816">
		<tag k="name" v="Bingen" />
		<tag k="natural" v="bay" />
		<tag k="ssr:stedsnr" v="391586" />
	</node>
	<node lat="59.43435555451737" lon="10.27663611573624" id="-34828">
		<tag k="name" v="Vålebekken" />
		<tag k="ssr:stedsnr" v="391896" />
		<tag k="waterway" v="stream" />
	</node>
	<node lat="59.328452775184466" lon="10.464736102827862" id="-34872">
		<tag k="name" v="Røråsbekken" />
		<tag k="ssr:stedsnr" v="450777" />
		<tag k="waterway" v="stream" />
	</node>
	<node lat="59.45432221834101" lon="10.182394436493988" id="-34889">
		<tag k="name" v="Nordsand" />
		<tag k="natural" v="beach" />
		<tag k="ssr:stedsnr" v="452579" />
	</node>
	<node lat="59.469163886246605" lon="10.169258331452516" id="-34891">
		<tag k="name" v="Endebukta" />
		<tag k="natural" v="bay" />
		<tag k="ssr:stedsnr" v="452703" />
	</node>
	<node lat="59.43230278042372" lon="10.15435276915497" id="-34902">
		<tag k="name" v="Svartebekk" />
		<tag k="ssr:stedsnr" v="487158" />
		<tag k="waterway" v="stream" />
	</node>
	<node lat="59.39521666623504" lon="10.070041672507287" id="-34906">
		<tag k="name" v="Merkedamselva" />
		<tag k="ssr:stedsnr" v="487221" />
		<tag k="waterway" v="stream" />
	</node>
	<node lat="59.277863886828655" lon="10.29744444432037" id="-34919">
		<tag k="name" v="Merkedamselva" />
		<tag k="ssr:stedsnr" v="489886" />
		<tag k="waterway" v="stream" />
	</node>
	<node lat="59.33605000277226" lon="10.257900001876209" id="-34933">
		<tag k="name" v="Lierengbekken" />
		<tag k="ssr:stedsnr" v="512285" />
		<tag k="waterway" v="stream" />
	</node>
	<node lat="59.45461111495639" lon="10.213027774419905" id="-34950">
		<tag k="name" v="Kalsrudbekken" />
		<tag k="ssr:stedsnr" v="513571" />
		<tag k="waterway" v="stream" />
	</node>
	<node lat="59.332644441450896" lon="10.293122215406886" id="-34952">
		<tag k="name" v="Kloppebekken" />
		<tag k="ssr:stedsnr" v="513675" />
		<tag k="waterway" v="stream" />
	</node>
	<node lat="59.352816668870254" lon="10.202516666447911" id="-34967">
		<tag k="name" v="Langvannet" />
=======
<osm generator="osmapis" version="0.6">
	<node id="-411648" lat="59.4082444413" lon="10.1515361144">
		<tag k="name" v="Kjyrrudalsbekken" />
		<tag k="ssr:stedsnr" v="816189" />
		<tag k="waterway" v="stream" />
	</node>
	<node id="-411643" lat="59.4027694402" lon="10.0958833326">
		<tag k="name" v="Vardåsbekken" />
		<tag k="ssr:stedsnr" v="816184" />
		<tag k="waterway" v="stream" />
	</node>
	<node id="-410100" lat="59.3008166698" lon="10.4268555502">
		<tag k="name" v="Eikbekken" />
		<tag k="ssr:stedsnr" v="450790" />
		<tag k="waterway" v="stream" />
	</node>
	<node id="-410097" lat="59.3284527752" lon="10.4647361028">
		<tag k="name" v="Røråsbekken" />
		<tag k="ssr:stedsnr" v="450777" />
		<tag k="waterway" v="stream" />
	</node>
	<node id="-410090" lat="59.2850888849" lon="10.3634444451">
		<tag k="name" v="Aulielva" />
		<tag k="ssr:stedsnr" v="450399" />
		<tag k="waterway" v="river" />
	</node>
	<node id="-411111" lat="59.3544972248" lon="10.1957527778">
		<tag k="name" v="Kringlevannet" />
>>>>>>> e1d4bc35ff8a6074a6f2e91616a996b547c36f15
		<tag k="natural" v="water" />
		<tag k="ssr:stedsnr" v="548764" />
	</node>
<<<<<<< HEAD
	<node lat="59.432863887294225" lon="10.091266663918697" id="-34987">
		<tag k="name" v="Brattfoss" />
		<tag k="natural" v="waterfall" />
		<tag k="ssr:stedsnr" v="573007" />
	</node>
	<node lat="59.36587499907616" lon="10.1979111092189" id="-35015">
		<tag k="name" v="Gislerød sagfoss" />
		<tag k="natural" v="waterfall" />
		<tag k="ssr:stedsnr" v="695345" />
	</node>
	<node lat="59.448355557156134" lon="10.180963887279159" id="-35023">
=======
	<node id="-411110" lat="59.3430249975" lon="10.2009749936">
		<tag k="name" v="Stangevannet" />
		<tag k="natural" v="water" />
		<tag k="ssr:stedsnr" v="184740" />
	</node>
	<node id="-410592" lat="59.4483555572" lon="10.1809638873">
>>>>>>> e1d4bc35ff8a6074a6f2e91616a996b547c36f15
		<tag k="name" v="Rødsbukta" />
		<tag k="natural" v="bay" />
		<tag k="ssr:stedsnr" v="695575" />
	</node>
<<<<<<< HEAD
	<node lat="59.43005277423378" lon="10.14339722453848" id="-35037">
		<tag k="name" v="Dalebekken" />
		<tag k="ssr:stedsnr" v="633032" />
		<tag k="waterway" v="stream" />
	</node>
	<node lat="59.4075555597322" lon="10.065100005445906" id="-35044">
		<tag k="name" v="Lånebekken" />
		<tag k="ssr:stedsnr" v="633205" />
		<tag k="waterway" v="stream" />
	</node>
	<node lat="59.40351388873143" lon="10.065238887480067" id="-35050">
		<tag k="name" v="Lånekilen" />
		<tag k="natural" v="bay" />
		<tag k="ssr:stedsnr" v="633196" />
	</node>
	<node lat="59.390894446021846" lon="10.31419167092443" id="-35063">
		<tag k="name" v="Verpelva" />
		<tag k="ssr:stedsnr" v="633794" />
		<tag k="waterway" v="stream" />
	</node>
	<node lat="59.397500002408435" lon="10.315027773766337" id="-35064">
		<tag k="name" v="Grytnesbekken" />
		<tag k="ssr:stedsnr" v="633795" />
		<tag k="waterway" v="stream" />
	</node>
	<node lat="59.42372500249466" lon="10.079508331170365" id="-35077">
		<tag k="name" v="Stokkedammen" />
		<tag k="natural" v="water" />
		<tag k="ssr:stedsnr" v="670186" />
	</node>
	<node lat="59.43654444138798" lon="10.106280559685171" id="-35084">
		<tag k="name" v="Lønsløken" />
		<tag k="ssr:stedsnr" v="695003" />
		<tag k="waterway" v="stream" />
	</node>
	<node lat="59.38347499752472" lon="10.167147226941404" id="-35092">
		<tag k="name" v="Kjønnerødvannet" />
		<tag k="natural" v="water" />
		<tag k="ssr:stedsnr" v="695321" />
	</node>
	<node lat="59.445852777652846" lon="10.182661107480964" id="-35146">
=======
	<node id="-410581" lat="59.4365444414" lon="10.1062805597">
		<tag k="name" v="Lønsløken" />
		<tag k="ssr:stedsnr" v="695003" />
		<tag k="waterway" v="stream" />
	</node>
	<node id="-411603" lat="59.4382583352" lon="10.3096000015">
		<tag k="name" v="Rostadelva" />
		<tag k="ssr:stedsnr" v="755884" />
		<tag k="waterway" v="river" />
	</node>
	<node id="-411089" lat="59.4491027739" lon="10.0724166669">
		<tag k="name" v="Berganvannet" />
		<tag k="natural" v="water" />
		<tag k="ssr:stedsnr" v="184047" />
	</node>
	<node id="-411595" lat="59.3310888867" lon="10.3325499917">
		<tag k="name" v="Vesleelv" />
		<tag k="ssr:stedsnr" v="755761" />
		<tag k="waterway" v="stream" />
	</node>
	<node id="-411589" lat="59.4706194482" lon="10.1653888822">
		<tag k="name" v="Kattholmen" />
		<tag k="place" v="islet" />
		<tag k="ssr:stedsnr" v="755695" />
	</node>
	<node id="-410562" lat="59.4691361111" lon="10.1662194372">
		<tag k="name" v="Endeøya" />
		<tag k="natural" v="cape" />
		<tag k="ssr:stedsnr" v="877726" />
	</node>
	<node id="-410560" lat="59.4287500042" lon="10.2551500059">
		<tag k="name" v="Hjalma" />
		<tag k="ssr:stedsnr" v="877663" />
		<tag k="waterway" v="river" />
	</node>
	<node id="-411579" lat="59.4458527777" lon="10.1826611075">
>>>>>>> e1d4bc35ff8a6074a6f2e91616a996b547c36f15
		<tag k="alt_name" v="Hvams-bekken" />
		<tag k="name" v="Hvamsbekken" />
		<tag k="ssr:stedsnr" v="755561" />
		<tag k="waterway" v="stream" />
	</node>
<<<<<<< HEAD
	<node lat="59.331088886716316" lon="10.332549991661498" id="-35149">
		<tag k="name" v="Vesleelv" />
		<tag k="ssr:stedsnr" v="755761" />
		<tag k="waterway" v="stream" />
	</node>
	<node lat="59.42698888908551" lon="10.089108328056662" id="-35195">
		<tag k="alt_name" v="Stokkbekken" />
		<tag k="name" v="Stokkebekken" />
		<tag k="ssr:stedsnr" v="816015" />
		<tag k="waterway" v="stream" />
	</node>
	<node lat="59.45968055403761" lon="10.152719435950909" id="-35198">
		<tag k="name" v="Bjørkøya" />
		<tag k="natural" v="cape" />
		<tag k="ssr:stedsnr" v="816126" />
	</node>
	<node lat="59.39482777693159" lon="10.260458336912192" id="-35203">
		<tag k="name" v="Vesleelv" />
		<tag k="ssr:stedsnr" v="816617" />
		<tag k="waterway" v="river" />
	</node>
	<node lat="59.460524999428245" lon="10.167983325931766" id="-35215">
		<tag k="alt_name" v="Revåvannet" />
		<tag k="name" v="Revovannet" />
		<tag k="natural" v="water" />
		<tag k="ssr:stedsnr" v="852107" />
		<tag k="water" v="lake" />
	</node>
	<node lat="59.39464166889873" lon="10.127300008407081" id="-35236">
		<tag k="name" v="Kollebekken" />
		<tag k="ssr:stedsnr" v="877069" />
		<tag k="waterway" v="stream" />
	</node>
	<node lat="59.41278333549833" lon="10.10312500137899" id="-35279">
		<tag k="name" v="Skrubbedalsbekken" />
		<tag k="ssr:stedsnr" v="937236" />
		<tag k="waterway" v="stream" />
	</node>
	<node lat="59.36352222170083" lon="10.226738893635687" id="-35283">
		<tag k="name" v="Ramneselva" />
		<tag k="ssr:stedsnr" v="937403" />
		<tag k="waterway" v="river" />
	</node>
	<node lat="59.244166663257914" lon="10.327616670932116" id="-35328">
		<tag k="name" v="Akersvannet" />
		<tag k="natural" v="water" />
		<tag k="ssr:stedsnr" v="1331" />
		<tag k="water" v="lake" />
	</node>
	<node lat="59.27608611079018" lon="10.432811110799776" id="-35359">
		<tag k="name" v="Vellebekken" />
		<tag k="ssr:stedsnr" v="25747" />
		<tag k="waterway" v="stream" />
	</node>
	<node lat="59.41409444031007" lon="10.29375832838054" id="-35372">
		<tag k="name" v="Sørbyelva" />
		<tag k="ssr:stedsnr" v="27888" />
		<tag k="waterway" v="river" />
	</node>
	<node lat="59.417136113435426" lon="10.11005278597776" id="-35377">
		<tag k="name" v="Lånebekken" />
		<tag k="ssr:stedsnr" v="27162" />
		<tag k="waterway" v="stream" />
	</node>
	<node lat="59.43328516159933" lon="10.17170823131504" id="-35389">
		<tag k="alt_name" v="Skotvedt-tjern" />
		<tag k="name" v="Skotvettjern" />
		<tag k="natural" v="water" />
		<tag k="ssr:stedsnr" v="27528" />
	</node>
	<node lat="59.38876110791691" lon="10.053644450589502" id="-35420">
		<tag k="name" v="Svartvannet" />
=======
	<node id="-410160" lat="59.3819500034" lon="10.1662333387">
		<tag k="name" v="Gunnerødbekken" />
		<tag k="ssr:stedsnr" v="270319" />
		<tag k="waterway" v="stream" />
	</node>
	<node id="-410026" lat="59.4150166664" lon="10.1487694532">
		<tag k="name" v="Gjøtterød-bekken" />
		<tag k="ssr:stedsnr" v="148176" />
		<tag k="waterway" v="stream" />
	</node>
	<node id="-410024" lat="59.4116555586" lon="10.0897694361">
		<tag k="name" v="Gravningsbekken" />
		<tag k="ssr:stedsnr" v="148154" />
		<tag k="waterway" v="stream" />
	</node>
	<node id="-410022" lat="59.3843166684" lon="10.0847388919">
		<tag k="name" v="Brånafjellbekken" />
		<tag k="ssr:stedsnr" v="148074" />
		<tag k="waterway" v="stream" />
	</node>
	<node id="-410530" lat="59.4378194426" lon="10.0943583398">
		<tag k="name" v="Obekken" />
		<tag k="ssr:stedsnr" v="877016" />
		<tag k="waterway" v="stream" />
	</node>
	<node id="-411532" lat="59.3975000024" lon="10.3150277738">
		<tag k="name" v="Grytnesbekken" />
		<tag k="ssr:stedsnr" v="633795" />
		<tag k="waterway" v="stream" />
	</node>
	<node id="-411531" lat="59.390894446" lon="10.3141916709">
		<tag k="name" v="Verpelva" />
		<tag k="ssr:stedsnr" v="633794" />
		<tag k="waterway" v="stream" />
	</node>
	<node id="-410502" lat="59.4764833324" lon="10.2140555513">
		<tag k="alt_name" v="Tørkleptjennet" />
		<tag k="name" v="Tørrklepptjernet" />
		<tag k="natural" v="water" />
		<tag k="ssr:stedsnr" v="730093" />
	</node>
	<node id="-411008" lat="59.430297222" lon="10.155011111">
		<tag k="name" v="Svartebekken" />
		<tag k="ssr:stedsnr" v="88909" />
		<tag k="waterway" v="stream" />
	</node>
	<node id="-409982" lat="59.3461361079" lon="10.2441111105">
		<tag k="name" v="Stangebekken" />
		<tag k="ssr:stedsnr" v="270295" />
		<tag k="waterway" v="stream" />
	</node>
	<node id="-410492" lat="59.4542138888" lon="10.1692083393">
		<tag k="name" v="Ørvikabekken" />
		<tag k="ssr:stedsnr" v="633557" />
		<tag k="waterway" v="stream" />
	</node>
	<node id="-410487" lat="59.4075555597" lon="10.0651000054">
		<tag k="name" v="Lånebekken" />
		<tag k="ssr:stedsnr" v="633205" />
		<tag k="waterway" v="stream" />
	</node>
	<node id="-410486" lat="59.4513861113" lon="10.0949583307">
		<tag k="name" v="Myrvollbekken" />
		<tag k="ssr:stedsnr" v="633125" />
		<tag k="waterway" v="stream" />
	</node>
	<node id="-411509" lat="59.4035138887" lon="10.0652388875">
		<tag k="name" v="Lånekilen" />
		<tag k="natural" v="bay" />
		<tag k="ssr:stedsnr" v="633196" />
	</node>
	<node id="-409970" lat="59.4170027759" lon="10.078055558">
		<tag k="name" v="Karivann" />
>>>>>>> e1d4bc35ff8a6074a6f2e91616a996b547c36f15
		<tag k="natural" v="water" />
		<tag k="ssr:stedsnr" v="63228" />
	</node>
<<<<<<< HEAD
	<node lat="59.30120555689808" lon="10.445583336739414" id="-35431">
		<tag k="name" v="Flaskefoss" />
		<tag k="natural" v="waterfall" />
		<tag k="ssr:stedsnr" v="85761" />
	</node>
	<node lat="59.385661115604144" lon="10.240644435815984" id="-35438">
=======
	<node id="-410987" lat="59.3856611156" lon="10.2406444358">
>>>>>>> e1d4bc35ff8a6074a6f2e91616a996b547c36f15
		<tag k="name" v="Firingbekken" />
		<tag k="ssr:stedsnr" v="88496" />
		<tag k="waterway" v="stream" />
	</node>
<<<<<<< HEAD
	<node lat="59.43276944068959" lon="10.128883338940813" id="-35443">
		<tag k="name" v="Kjærsløken" />
		<tag k="ssr:stedsnr" v="88017" />
		<tag k="waterway" v="stream" />
	</node>
	<node lat="59.434044444295694" lon="10.181305558173243" id="-35461">
		<tag k="alt_name" v="Hvams-fossen" />
		<tag k="name" v="Hvamsfossen" />
		<tag k="natural" v="waterfall" />
		<tag k="ssr:stedsnr" v="88458" />
	</node>
	<node lat="59.38431666838256" lon="10.084738891901196" id="-35515">
		<tag k="name" v="Brånafjellbekken" />
		<tag k="ssr:stedsnr" v="148074" />
		<tag k="waterway" v="stream" />
	</node>
	<node lat="59.41165555862902" lon="10.0897694361001" id="-35527">
		<tag k="name" v="Gravningsbekken" />
		<tag k="ssr:stedsnr" v="148154" />
		<tag k="waterway" v="stream" />
	</node>
	<node lat="59.35449722476033" lon="10.195752777784643" id="-35559">
		<tag k="name" v="Kringlevannet" />
=======
	<node id="-411497" lat="59.4300527742" lon="10.1433972245">
		<tag k="name" v="Dalebekken" />
		<tag k="ssr:stedsnr" v="633032" />
		<tag k="waterway" v="stream" />
	</node>
	<node id="-411496" lat="59.4241333339" lon="10.0947972281">
		<tag k="name" v="Rotebekk" />
		<tag k="ssr:stedsnr" v="633002" />
		<tag k="waterway" v="stream" />
	</node>
	<node id="-410981" lat="59.4340444443" lon="10.1813055582">
		<tag k="name" v="Hvams-fossen" />
		<tag k="natural" v="waterfall" />
		<tag k="ssr:stedsnr" v="88458" />
	</node>
	<node id="-409953" lat="59.4303055587" lon="10.2102555575">
		<tag k="alt_name" v="Storelv" />
		<tag k="name" v="Storelva" />
		<tag k="ssr:stedsnr" v="252629" />
		<tag k="waterway" v="river" />
	</node>
	<node id="-409936" lat="59.3012055569" lon="10.4455833367">
		<tag k="name" v="Flaskefoss" />
		<tag k="natural" v="waterfall" />
		<tag k="ssr:stedsnr" v="85761" />
	</node>
	<node id="-410954" lat="59.4327694407" lon="10.1288833389">
		<tag k="name" v="Kjærsløken" />
		<tag k="ssr:stedsnr" v="88017" />
		<tag k="waterway" v="stream" />
	</node>
	<node id="-411464" lat="59.3434638934" lon="10.3426638824">
		<tag k="name" v="Sagbekken" />
		<tag k="ssr:stedsnr" v="573781" />
		<tag k="waterway" v="stream" />
	</node>
	<node id="-410940" lat="59.3887611079" lon="10.0536444506">
		<tag k="name" v="Svartvannet" />
>>>>>>> e1d4bc35ff8a6074a6f2e91616a996b547c36f15
		<tag k="natural" v="water" />
		<tag k="ssr:stedsnr" v="184751" />
	</node>
<<<<<<< HEAD
	<node lat="59.392633332270776" lon="10.063255554288457" id="-35583">
		<tag k="name" v="Valmestadkilen" />
		<tag k="natural" v="bay" />
		<tag k="ssr:stedsnr" v="209067" />
	</node>
	<node lat="59.38914896012557" lon="10.155182290893983" id="-35630">
		<tag k="alt_name" v="Nabbernvannet" />
		<tag k="name" v="Nabbertjernet" />
=======
	<node id="-410425" lat="59.3658749991" lon="10.1979111092">
		<tag k="name" v="Gislerød sagfoss" />
		<tag k="natural" v="waterfall" />
		<tag k="ssr:stedsnr" v="695345" />
	</node>
	<node id="-409911" lat="59.3977833304" lon="10.0606000016">
		<tag k="name" v="Merkedammen" />
>>>>>>> e1d4bc35ff8a6074a6f2e91616a996b547c36f15
		<tag k="natural" v="water" />
		<tag k="ssr:stedsnr" v="305227" />
	</node>
<<<<<<< HEAD
	<node lat="59.310888892273475" lon="10.238452769652842" id="-35647">
		<tag k="name" v="Grorødvannet" />
		<tag k="natural" v="water" />
		<tag k="ssr:stedsnr" v="306828" />
	</node>
	<node lat="59.43256666591799" lon="10.209233337299613" id="-35738">
		<tag k="name" v="Bakstevollelva" />
		<tag k="ssr:stedsnr" v="391655" />
		<tag k="waterway" v="river" />
	</node>
	<node lat="59.440174998924284" lon="10.067250001585874" id="-35757">
		<tag k="alt_name" v="Damtjønn" />
		<tag k="name" v="Damtjernet" />
		<tag k="natural" v="water" />
		<tag k="ssr:stedsnr" v="427099" />
	</node>
	<node lat="59.40161666685443" lon="10.167080554018742" id="-35767">
		<tag k="alt_name" v="Krosstjønn" />
		<tag k="name" v="Krøsstjernet" />
=======
	<node id="-410421" lat="59.3834749975" lon="10.1671472269">
		<tag k="name" v="Kjønnerødvannet" />
		<tag k="natural" v="water" />
		<tag k="ssr:stedsnr" v="695321" />
	</node>
	<node id="-411441" lat="59.4328638873" lon="10.0912666639">
		<tag k="name" v="Brattfoss" />
		<tag k="natural" v="waterfall" />
		<tag k="ssr:stedsnr" v="573007" />
	</node>
	<node id="-410915" lat="59.4140944403" lon="10.2937583284">
		<tag k="name" v="Sørbyelva" />
		<tag k="ssr:stedsnr" v="27888" />
		<tag k="waterway" v="river" />
	</node>
	<node id="-409889" lat="59.4332851616" lon="10.1717082313">
		<tag k="name" v="Skotvedt-tjern" />
		<tag k="natural" v="water" />
		<tag k="ssr:stedsnr" v="27528" />
	</node>
	<node id="-409887" lat="59.4530916627" lon="10.1525055562">
		<tag k="name" v="Vassbotn" />
		<tag k="natural" v="shoal" />
		<tag k="place" v="locality" />
		<tag k="ssr:stedsnr" v="27108" />
	</node>
	<node id="-410398" lat="59.3326444415" lon="10.2931222154">
		<tag k="name" v="Kloppebekken" />
		<tag k="ssr:stedsnr" v="513675" />
		<tag k="waterway" v="stream" />
	</node>
	<node id="-409884" lat="59.4346166653" lon="10.1039583349">
		<tag k="name" v="Kvennefossen" />
		<tag k="natural" v="waterfall" />
		<tag k="ssr:stedsnr" v="27017" />
	</node>
	<node id="-410330" lat="59.4691638862" lon="10.1692583315">
		<tag k="name" v="Endebukta" />
		<tag k="natural" v="bay" />
		<tag k="ssr:stedsnr" v="452703" />
	</node>
	<node id="-411418" lat="59.3528166689" lon="10.2025166664">
		<tag k="name" v="Langvannet" />
>>>>>>> e1d4bc35ff8a6074a6f2e91616a996b547c36f15
		<tag k="natural" v="water" />
		<tag k="ssr:stedsnr" v="427244" />
	</node>
<<<<<<< HEAD
	<node lat="59.30606666568142" lon="10.335791674318669" id="-35771">
		<tag k="name" v="Aulielva" />
		<tag k="ssr:stedsnr" v="428827" />
		<tag k="waterway" v="river" />
	</node>
	<node lat="59.40531110778638" lon="10.14321110446124" id="-35789">
		<tag k="name" v="Pina" />
		<tag k="ssr:stedsnr" v="512196" />
		<tag k="waterway" v="stream" />
	</node>
	<node lat="59.415980554752615" lon="10.081147221346113" id="-35829">
=======
	<node id="-410904" lat="59.3303111138" lon="10.3484416705">
		<tag k="name" v="Rastadelva" />
		<tag k="ssr:stedsnr" v="27769" />
		<tag k="waterway" v="stream" />
	</node>
	<node id="-411405" lat="59.4159805548" lon="10.0811472213">
>>>>>>> e1d4bc35ff8a6074a6f2e91616a996b547c36f15
		<tag k="alt_name" v="Svartevann" />
		<tag k="name" v="Svarttjernet" />
		<tag k="natural" v="water" />
		<tag k="ssr:stedsnr" v="548174" />
	</node>
<<<<<<< HEAD
	<node lat="59.34346389336868" lon="10.342663882435463" id="-35874">
		<tag k="name" v="Sagbekken" />
		<tag k="ssr:stedsnr" v="573781" />
		<tag k="waterway" v="stream" />
	</node>
	<node lat="59.424133333852545" lon="10.094797228116317" id="-35916">
		<tag k="name" v="Rotebekk" />
		<tag k="ssr:stedsnr" v="633002" />
		<tag k="waterway" v="stream" />
	</node>
	<node lat="59.451386111284286" lon="10.094958330674398" id="-35918">
		<tag k="name" v="Myrvollbekken" />
		<tag k="ssr:stedsnr" v="633125" />
		<tag k="waterway" v="stream" />
	</node>
	<node lat="59.45421388881558" lon="10.16920833925975" id="-35930">
		<tag k="name" v="Ørvikabekken" />
		<tag k="ssr:stedsnr" v="633557" />
		<tag k="waterway" v="stream" />
	</node>
	<node lat="59.4712916657642" lon="10.164188883393257" id="-35956">
=======
	<node id="-410891" lat="59.463952775" lon="10.1718027762">
		<tag k="name" v="Hagabukta" />
		<tag k="natural" v="bay" />
		<tag k="ssr:stedsnr" v="27580" />
	</node>
	<node id="-410882" lat="59.4171361134" lon="10.110052786">
		<tag k="name" v="Lånebekken" />
		<tag k="ssr:stedsnr" v="27162" />
		<tag k="waterway" v="stream" />
	</node>
	<node id="-410367" lat="59.4237250025" lon="10.0795083312">
		<tag k="name" v="Stokkedammen" />
		<tag k="natural" v="water" />
		<tag k="ssr:stedsnr" v="670186" />
	</node>
	<node id="-410360" lat="59.4712916658" lon="10.1641888834">
>>>>>>> e1d4bc35ff8a6074a6f2e91616a996b547c36f15
		<tag k="name" v="Holmsvannet" />
		<tag k="natural" v="water" />
		<tag k="ssr:stedsnr" v="670102" />
		<tag k="water" v="lake" />
	</node>
<<<<<<< HEAD
	<node lat="59.4764833323878" lon="10.21405555132307" id="-35973">
		<tag k="alt_name" v="Tørkleptjennet" />
		<tag k="name" v="Tørrklepptjernet" />
=======
	<node id="-411380" lat="59.4016166669" lon="10.167080554">
		<tag k="alt_name" v="Krosstjønn" />
		<tag k="name" v="Krøsstjernet" />
>>>>>>> e1d4bc35ff8a6074a6f2e91616a996b547c36f15
		<tag k="natural" v="water" />
		<tag k="ssr:stedsnr" v="730093" />
	</node>
<<<<<<< HEAD
	<node lat="59.470619448201205" lon="10.165388882200869" id="-36024">
		<tag k="name" v="Kattholmen" />
		<tag k="place" v="islet" />
		<tag k="ssr:stedsnr" v="755695" />
	</node>
	<node lat="59.43825833516628" lon="10.309600001479843" id="-36027">
		<tag k="name" v="Rostadelva" />
		<tag k="ssr:stedsnr" v="755884" />
		<tag k="waterway" v="river" />
	</node>
	<node lat="59.40276944018267" lon="10.095883332599062" id="-36064">
		<tag k="name" v="Vardåsbekken" />
		<tag k="ssr:stedsnr" v="816184" />
		<tag k="waterway" v="stream" />
	</node>
	<node lat="59.40824444127555" lon="10.151536114428813" id="-36066">
		<tag k="name" v="Kjyrrudalsbekken" />
		<tag k="ssr:stedsnr" v="816189" />
		<tag k="waterway" v="stream" />
	</node>
	<node lat="59.34076944889303" lon="10.289163892397912" id="-36073">
		<tag k="name" v="Holebekken" />
		<tag k="ssr:stedsnr" v="816750" />
		<tag k="waterway" v="stream" />
	</node>
	<node lat="59.42916111454476" lon="10.311263880626859" id="-36081">
		<tag k="name" v="Hagaelva" />
		<tag k="ssr:stedsnr" v="816896" />
		<tag k="waterway" v="stream" />
	</node>
	<node lat="59.43871944268192" lon="10.149419447020726" id="-36096">
		<tag k="name" v="Svartangen" />
		<tag k="natural" v="water" />
		<tag k="ssr:stedsnr" v="852095" />
	</node>
	<node lat="59.43749045432038" lon="10.346401205768018" id="-36110">
		<tag k="name" v="Tangenbekken" />
		<tag k="ssr:stedsnr" v="852942" />
		<tag k="waterway" v="stream" />
	</node>
	<node lat="59.29366110678718" lon="10.408697219423829" id="-36116">
		<tag k="name" v="Syrebekk" />
		<tag k="ssr:stedsnr" v="874782" />
		<tag k="waterway" v="stream" />
	</node>
	<node lat="59.31909722208652" lon="10.443630548113955" id="-36117">
		<tag k="name" v="Slagenbekken" />
		<tag k="ssr:stedsnr" v="874783" />
		<tag k="waterway" v="stream" />
	</node>
	<node lat="59.42875000417112" lon="10.25515000586445" id="-36132">
		<tag k="name" v="Hjalma" />
		<tag k="ssr:stedsnr" v="877663" />
		<tag k="waterway" v="river" />
	</node>
	<node lat="59.437819442608514" lon="10.094358339765897" id="-36137">
		<tag k="name" v="Obekken" />
		<tag k="ssr:stedsnr" v="877016" />
		<tag k="waterway" v="stream" />
	</node>
	<node lat="59.46913611108807" lon="10.166219437224676" id="-36157">
		<tag k="name" v="Endeøya" />
		<tag k="natural" v="cape" />
		<tag k="ssr:stedsnr" v="877726" />
	</node>
	<node lat="59.44161110815904" lon="10.12476666050801" id="-36175">
		<tag k="name" v="Krøklibekken" />
		<tag k="ssr:stedsnr" v="937029" />
		<tag k="waterway" v="stream" />
	</node>
	<node lat="59.32766666483474" lon="10.37304445125106" id="-36200">
		<tag k="name" v="Tveitelva" />
		<tag k="ssr:stedsnr" v="937788" />
=======
	<node id="-411374" lat="59.4401749989" lon="10.0672500016">
		<tag k="alt_name" v="Damtjønn" />
		<tag k="name" v="Damtjernet" />
		<tag k="natural" v="water" />
		<tag k="ssr:stedsnr" v="427099" />
	</node>
	<node id="-410857" lat="59.2760861108" lon="10.4328111108">
		<tag k="name" v="Vellebekken" />
		<tag k="ssr:stedsnr" v="25747" />
		<tag k="waterway" v="stream" />
	</node>
	<node id="-410342" lat="59.4025916657" lon="10.2797388907">
		<tag k="name" v="Stampeelva" />
		<tag k="ssr:stedsnr" v="452837" />
		<tag k="waterway" v="stream" />
	</node>
	<node id="-410335" lat="59.3705416704" lon="10.3205777822">
		<tag k="name" v="Dalselva" />
		<tag k="ssr:stedsnr" v="452742" />
		<tag k="waterway" v="stream" />
	</node>
	<node id="-411354" lat="59.4343555545" lon="10.2766361157">
		<tag k="name" v="Vålebekken" />
		<tag k="ssr:stedsnr" v="391896" />
		<tag k="waterway" v="stream" />
	</node>
	<node id="-410329" lat="59.3641194421" lon="10.1951472144">
		<tag k="name" v="Gislerødbekken" />
		<tag k="ssr:stedsnr" v="452339" />
		<tag k="waterway" v="stream" />
	</node>
	<node id="-410323" lat="59.4344027741" lon="10.1062111124">
		<tag k="name" v="Oholmene" />
		<tag k="natural" v="strait" />
		<tag k="ssr:stedsnr" v="452011" />
	</node>
	<node id="-410317" lat="59.3060666657" lon="10.3357916743">
		<tag k="name" v="Aulielva" />
		<tag k="ssr:stedsnr" v="428827" />
		<tag k="waterway" v="river" />
	</node>
	<node id="-411181" lat="59.3891489601" lon="10.1551822909">
		<tag k="alt_name" v="Nabbernvannet" />
		<tag k="name" v="Nabbertjernet" />
		<tag k="natural" v="water" />
		<tag k="ssr:stedsnr" v="305227" />
	</node>
	<node id="-410821" lat="59.2441666633" lon="10.3276166709">
		<tag k="name" v="Akersvannet" />
		<tag k="natural" v="water" />
		<tag k="ssr:stedsnr" v="1331" />
		<tag k="water" v="lake" />
	</node>
	<node id="-411331" lat="59.4525083373" lon="10.1754333354">
		<tag k="name" v="Bingen" />
		<tag k="natural" v="bay" />
		<tag k="ssr:stedsnr" v="391586" />
	</node>
	<node id="-410302" lat="59.454611115" lon="10.2130277744">
		<tag k="name" v="Karlsrudbekken" />
		<tag k="ssr:stedsnr" v="513571" />
>>>>>>> e1d4bc35ff8a6074a6f2e91616a996b547c36f15
		<tag k="waterway" v="stream" />
	</node>
	<node id="-410273" lat="59.3360500028" lon="10.2579000019">
		<tag k="name" v="Lierengbekken" />
		<tag k="ssr:stedsnr" v="512285" />
		<tag k="waterway" v="stream" />
	</node>
	<node id="-410782" lat="59.3635222217" lon="10.2267388936">
		<tag k="name" v="Ramneselva" />
		<tag k="ssr:stedsnr" v="937403" />
		<tag k="waterway" v="river" />
	</node>
	<node id="-410268" lat="59.4053111078" lon="10.1432111045">
		<tag k="name" v="Pina" />
		<tag k="ssr:stedsnr" v="512196" />
		<tag k="waterway" v="stream" />
	</node>
	<node id="-410777" lat="59.4127833355" lon="10.1031250014">
		<tag k="name" v="Skrubbedalsbekken" />
		<tag k="ssr:stedsnr" v="937236" />
		<tag k="waterway" v="stream" />
	</node>
	<node id="-411246" lat="59.3660527813" lon="10.2873083277">
		<tag k="name" v="Lefsrødbekken" />
		<tag k="ssr:stedsnr" v="330770" />
		<tag k="waterway" v="stream" />
	</node>
	<node id="-410755" lat="59.3946416689" lon="10.1273000084">
		<tag k="name" v="Kollebekken" />
		<tag k="ssr:stedsnr" v="877069" />
		<tag k="waterway" v="stream" />
	</node>
	<node id="-410240" lat="59.4325666659" lon="10.2092333373">
		<tag k="name" v="Bakstevollelva" />
		<tag k="ssr:stedsnr" v="391655" />
		<tag k="waterway" v="river" />
	</node>
	<node id="-410225" lat="59.2778638868" lon="10.2974444443">
		<tag k="name" v="Merkedamselva" />
		<tag k="ssr:stedsnr" v="489886" />
		<tag k="waterway" v="stream" />
	</node>
	<node id="-410734" lat="59.4605249994" lon="10.1679833259">
		<tag k="alt_name" v="Revåvannet" />
		<tag k="name" v="Revovannet" />
		<tag k="natural" v="water" />
		<tag k="ssr:stedsnr" v="852107" />
		<tag k="water" v="lake" />
	</node>
	<node id="-410714" lat="59.3276666648" lon="10.3730444513">
		<tag k="name" v="Tveitelva" />
		<tag k="ssr:stedsnr" v="937788" />
		<tag k="waterway" v="stream" />
	</node>
	<node id="-410196" lat="59.4323027804" lon="10.1543527692">
		<tag k="name" v="Svartebekk" />
		<tag k="ssr:stedsnr" v="487158" />
		<tag k="waterway" v="stream" />
	</node>
	<node id="-411206" lat="59.3108888923" lon="10.2384527697">
		<tag k="name" v="Grorødvannet" />
		<tag k="natural" v="water" />
		<tag k="ssr:stedsnr" v="306828" />
	</node>
	<node id="-410181" lat="59.2196555591" lon="10.1850944381">
		<tag k="alt_name" v="Storelv" />
		<tag k="name" v="Storelva" />
		<tag k="ssr:stedsnr" v="305310" />
		<tag k="waterway" v="river" />
	</node>
	<node id="-410686" lat="59.4416111082" lon="10.1247666605">
		<tag k="name" v="Krøklibekken" />
		<tag k="ssr:stedsnr" v="937029" />
		<tag k="waterway" v="stream" />
	</node>
	<node id="-411193" lat="59.4100888892" lon="10.182841662">
		<tag k="alt_name" v="Røssedalvannet" />
		<tag k="name" v="Røssdalsvannet" />
		<tag k="natural" v="water" />
		<tag k="ssr:stedsnr" v="306120" />
	</node>
	<node id="-411701" lat="59.3190972221" lon="10.4436305481">
		<tag k="name" v="Slagenbekken" />
		<tag k="ssr:stedsnr" v="874783" />
		<tag k="waterway" v="stream" />
	</node>
	<node id="-411700" lat="59.2936611068" lon="10.4086972194">
		<tag k="name" v="Syrebekk" />
		<tag k="ssr:stedsnr" v="874782" />
		<tag k="waterway" v="stream" />
	</node>
	<node id="-411696" lat="59.4374904543" lon="10.3464012058">
		<tag k="name" v="Tangenbekken" />
		<tag k="ssr:stedsnr" v="852942" />
		<tag k="waterway" v="stream" />
	</node>
	<node id="-410670" lat="59.3948277769" lon="10.2604583369">
		<tag k="name" v="Vesleelv" />
		<tag k="ssr:stedsnr" v="816617" />
		<tag k="waterway" v="river" />
	</node>
	<node id="-410669" lat="59.459680554" lon="10.152719436">
		<tag k="name" v="Bjørkøya" />
		<tag k="natural" v="cape" />
		<tag k="ssr:stedsnr" v="816126" />
	</node>
	<node id="-410666" lat="59.4269888891" lon="10.0891083281">
		<tag k="alt_name" v="Stokkbekken" />
		<tag k="name" v="Stokkebekken" />
		<tag k="ssr:stedsnr" v="816015" />
		<tag k="waterway" v="stream" />
	</node>
	<node id="-411687" lat="59.4387194427" lon="10.149419447">
		<tag k="name" v="Svartangen" />
		<tag k="natural" v="water" />
		<tag k="ssr:stedsnr" v="852095" />
	</node>
	<node id="-410202" lat="59.3952166662" lon="10.0700416725">
		<tag k="name" v="Merkedamselva" />
		<tag k="ssr:stedsnr" v="487221" />
		<tag k="waterway" v="stream" />
	</node>
	<node id="-410129" lat="59.4543222183" lon="10.1823944365">
		<tag k="name" v="Nordsand" />
		<tag k="natural" v="beach" />
		<tag k="ssr:stedsnr" v="452579" />
	</node>
	<node id="-411663" lat="59.4291611145" lon="10.3112638806">
		<tag k="name" v="Hagaelva" />
		<tag k="ssr:stedsnr" v="816896" />
		<tag k="waterway" v="stream" />
	</node>
	<node id="-411659" lat="59.3407694489" lon="10.2891638924">
		<tag k="name" v="Holebekken" />
		<tag k="ssr:stedsnr" v="816750" />
		<tag k="waterway" v="stream" />
	</node>
	<node id="-411146" lat="59.3870134505" lon="10.0856100885">
		<tag k="name" v="Bjunedammene" />
		<tag k="natural" v="water" />
		<tag k="ssr:stedsnr" v="209080" />
	</node>
	<node id="-411145" lat="59.3926333323" lon="10.0632555543">
		<tag k="name" v="Valmestadkilen" />
		<tag k="natural" v="bay" />
		<tag k="ssr:stedsnr" v="209067" />
	</node>
</osm>
