<?xml version="1.0" encoding="UTF-8"?>
<osm generator="osmapis" version="0.6">
	<node id="-350208" lat="59.3500944422" lon="10.2449027743">
		<tag k="name" v="Bekkekvern" />
		<tag k="place" v="locality" />
		<tag k="ssr:stedsnr" v="512275" />
	</node>
	<node id="-350207" lat="59.4041222255" lon="10.1024111125">
		<tag k="name" v="Skilnadmyr" />
		<tag k="natural" v="wetland" />
		<tag k="ssr:stedsnr" v="512209" />
	</node>
	<node id="-350718" lat="59.338286108" lon="10.2204305491">
		<tag k="name" v="Sølvskjemyr" />
		<tag k="natural" v="wetland" />
		<tag k="ssr:stedsnr" v="937312" />
	</node>
	<node id="-350716" lat="59.4458194405" lon="10.0794972272">
		<tag k="name" v="Kjellemomyra" />
		<tag k="natural" v="wetland" />
		<tag k="ssr:stedsnr" v="937132" />
	</node>
	<node id="-350202" lat="59.4646722209" lon="10.173177781">
		<tag k="name" v="Torvmyra" />
		<tag k="natural" v="wetland" />
		<tag k="ssr:stedsnr" v="512576" />
	</node>
	<node id="-350711" lat="59.2968527774" lon="10.5108361168">
		<tag k="name" v="Skogsnaret" />
		<tag k="place" v="locality" />
		<tag k="ssr:stedsnr" v="937218" />
	</node>
	<node id="-350709" lat="59.4368722213" lon="10.0759027749">
		<tag k="name" v="Hønemyr" />
		<tag k="natural" v="wetland" />
		<tag k="ssr:stedsnr" v="937007" />
	</node>
	<node id="-350708" lat="59.4344916696" lon="10.0772027739">
		<tag k="name" v="Langemyr" />
		<tag k="natural" v="wetland" />
		<tag k="ssr:stedsnr" v="937006" />
	</node>
	<node id="-350189" lat="59.3329000025" lon="10.4551111067">
		<tag k="name" v="Romsmyra" />
		<tag k="natural" v="wetland" />
		<tag k="ssr:stedsnr" v="510795" />
	</node>
	<node id="-350692" lat="59.3904277766" lon="10.0840638842">
		<tag k="name" v="Klesteinmyr" />
		<tag k="natural" v="wetland" />
		<tag k="ssr:stedsnr" v="877067" />
	</node>
	<node id="-350686" lat="59.2861888877" lon="10.3779527825">
		<tag k="name" v="Gullkrona" />
		<tag k="place" v="locality" />
		<tag k="ssr:stedsnr" v="874409" />
	</node>
	<node id="-350172" lat="59.450452777" lon="10.094894452">
		<tag k="name" v="Myrskogen" />
		<tag k="place" v="locality" />
		<tag k="ssr:stedsnr" v="391107" />
	</node>
	<node id="-350169" lat="59.4264722244" lon="10.0817194498">
		<tag k="name" v="Furumyr" />
		<tag k="natural" v="wetland" />
		<tag k="ssr:stedsnr" v="391003" />
	</node>
	<node id="-351183" lat="59.3628388921" lon="10.28829723">
		<tag k="name" v="Bøløkkene" />
		<tag k="place" v="locality" />
		<tag k="ssr:stedsnr" v="330769" />
	</node>
	<node id="-350670" lat="59.4456055587" lon="10.0618500087">
		<tag k="alt_name" v="Langemyr" />
		<tag k="name" v="Vintermyr" />
		<tag k="natural" v="wetland" />
		<tag k="ssr:stedsnr" v="852078" />
	</node>
	<node id="-351178" lat="59.3367222254" lon="10.3096944429">
		<tag k="name" v="Sverretun" />
		<tag k="place" v="locality" />
		<tag k="ssr:stedsnr" v="330741" />
	</node>
	<node id="-350199" lat="59.4512638886" lon="10.159924999">
		<tag k="name" v="Åsen løkkene" />
		<tag k="place" v="locality" />
		<tag k="ssr:stedsnr" v="512566" />
	</node>
	<node id="-350662" lat="59.4627777739" lon="10.2251000066">
		<tag k="name" v="Borgeteigen" />
		<tag k="place" v="locality" />
		<tag k="ssr:stedsnr" v="938532" />
	</node>
	<node id="-350658" lat="59.4375222233" lon="10.3104888832">
		<tag k="landuse" v="meadow" />
		<tag k="name" v="Rostad nedre" />
		<tag k="ssr:stedsnr" v="937895" />
	</node>
	<node id="-350654" lat="59.3314083373" lon="10.3538277737">
		<tag k="name" v="Bjunemyra" />
		<tag k="place" v="locality" />
		<tag k="ssr:stedsnr" v="937792" />
	</node>
	<node id="-351164" lat="59.4057861151" lon="10.1608055549">
		<tag k="name" v="Stormyr" />
		<tag k="natural" v="wetland" />
		<tag k="ssr:stedsnr" v="330271" />
	</node>
	<node id="-350651" lat="59.3083111116" lon="10.2727666581">
		<tag k="name" v="Hestestå" />
		<tag k="place" v="locality" />
		<tag k="ssr:stedsnr" v="937786" />
	</node>
	<node id="-350650" lat="59.3247416689" lon="10.3720361178">
		<tag k="name" v="Eikebergmyra" />
		<tag k="place" v="locality" />
		<tag k="ssr:stedsnr" v="937782" />
	</node>
	<node id="-351161" lat="59.4287888872" lon="10.1006638808">
		<tag k="name" v="Skjærbenkmyr" />
		<tag k="natural" v="wetland" />
		<tag k="ssr:stedsnr" v="330035" />
	</node>
	<node id="-350640" lat="59.3188444469" lon="10.3056111129">
		<tag k="name" v="Spisshole" />
		<tag k="place" v="locality" />
		<tag k="ssr:stedsnr" v="937677" />
	</node>
	<node id="-350125" lat="59.3981694485" lon="10.174111109">
		<tag k="name" v="Hønemyr" />
		<tag k="natural" v="wetland" />
		<tag k="ssr:stedsnr" v="330303" />
	</node>
	<node id="-350634" lat="59.4391194408" lon="10.1646833292">
		<tag k="name" v="Gregershølet" />
		<tag k="place" v="locality" />
		<tag k="ssr:stedsnr" v="937546" />
	</node>
	<node id="-350113" lat="59.409016665" lon="10.2968111049">
		<tag k="landuse" v="meadow" />
		<tag k="name" v="Halsenga" />
		<tag k="ssr:stedsnr" v="270805" />
	</node>
	<node id="-351646" lat="59.2569138895" lon="10.3545444505">
		<tag k="name" v="Vearmyr" />
		<tag k="natural" v="wetland" />
		<tag k="ssr:stedsnr" v="875409" />
	</node>
	<node id="-350106" lat="59.3356777805" lon="10.3469388957">
		<tag k="name" v="Bjunemyra" />
		<tag k="place" v="locality" />
		<tag k="ssr:stedsnr" v="270752" />
	</node>
	<node id="-350104" lat="59.3365277788" lon="10.2870805526">
		<tag k="name" v="Hole ø" />
		<tag k="place" v="locality" />
		<tag k="ssr:stedsnr" v="270716" />
	</node>
	<node id="-350615" lat="59.2808305528" lon="10.4079944525">
		<tag k="name" v="Stenmalen" />
		<tag k="place" v="locality" />
		<tag k="ssr:stedsnr" v="935744" />
	</node>
	<node id="-350471" lat="59.4011333334" lon="10.0792583366">
		<tag k="name" v="Mastemyr" />
		<tag k="natural" v="wetland" />
		<tag k="ssr:stedsnr" v="877164" />
	</node>
	<node id="-351532" lat="59.3585416639" lon="10.3222083307">
		<tag k="name" v="Bøteigen" />
		<tag k="place" v="locality" />
		<tag k="ssr:stedsnr" v="755736" />
	</node>
	<node id="-350096" lat="59.4208055522" lon="10.1794444378">
		<tag k="historic" v="shieling" />
		<tag k="name" v="Fonseter" />
		<tag k="place" v="locality" />
		<tag k="ssr:stedsnr" v="270275" />
	</node>
	<node id="-350360" lat="59.4037138933" lon="10.1990333377">
		<tag k="landuse" v="meadow" />
		<tag k="name" v="Eriksengen" />
		<tag k="ssr:stedsnr" v="695326" />
	</node>
	<node id="-350017" lat="59.3196277816" lon="10.3755805597">
		<tag k="name" v="Eikebergmyrbrua" />
		<tag k="place" v="locality" />
		<tag k="ssr:stedsnr" v="236033" />
	</node>
	<node id="-350589" lat="59.4156000038" lon="10.0631805518">
		<tag k="name" v="Fuglemyr" />
		<tag k="natural" v="wetland" />
		<tag k="ssr:stedsnr" v="791176" />
	</node>
	<node id="-351095" lat="59.3812999983" lon="10.2578638882">
		<tag k="landuse" v="meadow" />
		<tag k="name" v="Bjerke" />
		<tag k="ssr:stedsnr" v="209560" />
	</node>
	<node id="-350068" lat="59.456180557" lon="10.1708972233">
		<tag k="name" v="Nordre Ørvika" />
		<tag k="place" v="locality" />
		<tag k="ssr:stedsnr" v="452584" />
	</node>
	<node id="-351091" lat="59.4277138931" lon="10.1787166664">
		<tag k="name" v="Gullåsmyr" />
		<tag k="natural" v="wetland" />
		<tag k="ssr:stedsnr" v="209531" />
	</node>
	<node id="-350354" lat="59.4540583373" lon="10.064327784">
		<tag k="name" v="Årvoldmyra" />
		<tag k="natural" v="wetland" />
		<tag k="ssr:stedsnr" v="695095" />
	</node>
	<node id="-351081" lat="59.3204277807" lon="10.4981833409">
		<tag k="landuse" v="meadow" />
		<tag k="name" v="Strandeng" />
		<tag k="ssr:stedsnr" v="209198" />
	</node>
	<node id="-350055" lat="59.3990999957" lon="10.158380554">
		<tag k="name" v="Astridmyr" />
		<tag k="natural" v="wetland" />
		<tag k="ssr:stedsnr" v="452294" />
	</node>
	<node id="-350050" lat="59.4004666705" lon="10.1611555553">
		<tag k="name" v="Lundemyr" />
		<tag k="natural" v="wetland" />
		<tag k="ssr:stedsnr" v="452262" />
	</node>
	<node id="-350048" lat="59.3361972234" lon="10.2544944396">
		<tag k="landuse" v="meadow" />
		<tag k="name" v="Lierenga" />
		<tag k="ssr:stedsnr" v="452249" />
	</node>
	<node id="-351583" lat="59.4181694456" lon="10.1822388883">
		<tag k="name" v="Fonshedde" />
		<tag k="place" v="locality" />
		<tag k="ssr:stedsnr" v="816288" />
	</node>
	<node id="-350555" lat="59.4301249978" lon="10.1082194432">
		<tag k="name" v="Hjulsmyr" />
		<tag k="natural" v="wetland" />
		<tag k="ssr:stedsnr" v="755023" />
	</node>
	<node id="-350213" lat="59.3960138894" lon="10.1877388867">
		<tag k="name" v="Myra" />
		<tag k="natural" v="wetland" />
		<tag k="ssr:stedsnr" v="512294" />
	</node>
	<node id="-350027" lat="59.261191666" lon="10.3580944472">
		<tag k="name" v="Firingsmyrene" />
		<tag k="natural" v="wetland" />
		<tag k="ssr:stedsnr" v="450389" />
	</node>
	<node id="-350534" lat="59.4203694428" lon="10.291216668">
		<tag k="name" v="Søbyholmen" />
		<tag k="place" v="locality" />
		<tag k="ssr:stedsnr" v="695808" />
	</node>
	<node id="-350529" lat="59.4418305599" lon="10.1554472175">
		<tag k="historic" v="shieling" />
		<tag k="name" v="Holtungseter" />
		<tag k="place" v="locality" />
		<tag k="ssr:stedsnr" v="695554" />
	</node>
	<node id="-351508" lat="59.3509305553" lon="10.1798444532">
		<tag k="name" v="Gampemyr" />
		<tag k="natural" v="wetland" />
		<tag k="ssr:stedsnr" v="755360" />
	</node>
	<node id="-350004" lat="59.3364805596" lon="10.2781666741">
		<tag k="name" v="Hole v" />
		<tag k="place" v="locality" />
		<tag k="ssr:stedsnr" v="209715" />
	</node>
	<node id="-351540" lat="59.410908333" lon="10.3403694418">
		<tag k="name" v="Kirkefloren" />
		<tag k="place" v="locality" />
		<tag k="ssr:stedsnr" v="755832" />
	</node>
	<node id="-350510" lat="59.4531444468" lon="10.3370499953">
		<tag k="landuse" v="meadow" />
		<tag k="name" v="Ekelund" />
		<tag k="ssr:stedsnr" v="877881" />
	</node>
	<node id="-349997" lat="59.3583111104" lon="10.190713882">
		<tag k="name" v="Rønningen" />
		<tag k="place" v="locality" />
		<tag k="ssr:stedsnr" v="209341" />
	</node>
	<node id="-351020" lat="59.3306166706" lon="10.3591138813">
		<tag k="name" v="Myra" />
		<tag k="place" v="locality" />
		<tag k="ssr:stedsnr" v="148767" />
	</node>
	<node id="-351531" lat="59.3603027804" lon="10.2771138929">
		<tag k="landuse" v="meadow" />
		<tag k="name" v="Valleplassen" />
		<tag k="ssr:stedsnr" v="755729" />
	</node>
	<node id="-349991" lat="59.4215416674" lon="10.2040944511">
		<tag k="name" v="Sulutvedt" />
		<tag k="place" v="locality" />
		<tag k="ssr:stedsnr" v="209319" />
	</node>
	<node id="-351526" lat="59.2776166679" lon="10.3226138827">
		<tag k="name" v="Lasken" />
		<tag k="place" v="locality" />
		<tag k="ssr:stedsnr" v="755673" />
	</node>
	<node id="-350501" lat="59.4752166689" lon="10.1747499957">
		<tag k="landuse" v="meadow" />
		<tag k="name" v="Nordenga" />
		<tag k="ssr:stedsnr" v="877730" />
	</node>
	<node id="-351522" lat="59.4248861106" lon="10.2159888918">
		<tag k="name" v="Myremyra" />
		<tag k="natural" v="wetland" />
		<tag k="ssr:stedsnr" v="755611" />
	</node>
	<node id="-350497" lat="59.3794694429" lon="10.2506722238">
		<tag k="name" v="Ramski" />
		<tag k="place" v="locality" />
		<tag k="ssr:stedsnr" v="877611" />
	</node>
	<node id="-351515" lat="59.4604194407" lon="10.2069833353">
		<tag k="landuse" v="meadow" />
		<tag k="name" v="Tørklephagen" />
		<tag k="ssr:stedsnr" v="755545" />
	</node>
	<node id="-350999" lat="59.404399996" lon="10.1739583296">
		<tag k="name" v="Setermyr" />
		<tag k="natural" v="wetland" />
		<tag k="ssr:stedsnr" v="148297" />
	</node>
	<node id="-350997" lat="59.4143944444" lon="10.1912638887">
		<tag k="name" v="Fonsødegardene" />
		<tag k="place" v="locality" />
		<tag k="ssr:stedsnr" v="148291" />
	</node>
	<node id="-350484" lat="59.3512472187" lon="10.1975749983">
		<tag k="name" v="Myra" />
		<tag k="natural" v="wetland" />
		<tag k="ssr:stedsnr" v="877377" />
	</node>
	<node id="-350482" lat="59.3489305587" lon="10.2112972273">
		<tag k="name" v="Nyhusmyr" />
		<tag k="natural" v="wetland" />
		<tag k="ssr:stedsnr" v="877375" />
	</node>
	<node id="-351503" lat="59.4067555553" lon="10.1691111153">
		<tag k="name" v="Vestre Fonsmyr" />
		<tag k="natural" v="wetland" />
		<tag k="ssr:stedsnr" v="755284" />
	</node>
	<node id="-349966" lat="59.4381222197" lon="10.1831999951">
		<tag k="name" v="Hvamsal" />
		<tag k="place" v="locality" />
		<tag k="ssr:stedsnr" v="148557" />
	</node>
	<node id="-351501" lat="59.4176666693" lon="10.1458527723">
		<tag k="name" v="Gjøtterødmyra" />
		<tag k="natural" v="wetland" />
		<tag k="ssr:stedsnr" v="755189" />
	</node>
	<node id="-349963" lat="59.4027027737" lon="10.0818750042">
		<tag k="name" v="Rokkemyr" />
		<tag k="natural" v="wetland" />
		<tag k="ssr:stedsnr" v="148163" />
	</node>
	<node id="-350474" lat="59.4083499999" lon="10.1629388847">
		<tag k="name" v="Langvedmyr" />
		<tag k="natural" v="wetland" />
		<tag k="ssr:stedsnr" v="877297" />
	</node>
	<node id="-349959" lat="59.3852250037" lon="10.0729194458">
		<tag k="name" v="Smalmyr" />
		<tag k="natural" v="wetland" />
		<tag k="ssr:stedsnr" v="148068" />
	</node>
	<node id="-349954" lat="59.3044611112" lon="10.4211833256">
		<tag k="name" v="Lørte" />
		<tag k="place" v="locality" />
		<tag k="ssr:stedsnr" v="146764" />
	</node>
	<node id="-351489" lat="59.3033472182" lon="10.3891999983">
		<tag k="name" v="Hestehagen" />
		<tag k="place" v="locality" />
		<tag k="ssr:stedsnr" v="753767" />
	</node>
	<node id="-351488" lat="59.3105944484" lon="10.4092944451">
		<tag k="name" v="Bruserød" />
		<tag k="place" v="locality" />
		<tag k="ssr:stedsnr" v="753765" />
	</node>
	<node id="-351482" lat="59.2656718479" lon="10.3697652772">
		<tag k="name" v="Smørbergrønningen" />
		<tag k="place" v="locality" />
		<tag k="ssr:stedsnr" v="753347" />
	</node>
	<node id="-349942" lat="59.328652778" lon="10.3295861032">
		<tag k="name" v="Åminne" />
		<tag k="place" v="locality" />
		<tag k="ssr:stedsnr" v="270746" />
	</node>
	<node id="-350449" lat="59.2687194481" lon="10.3269055523">
		<tag k="name" v="Akersmyra" />
		<tag k="natural" v="wetland" />
		<tag k="ssr:stedsnr" v="730886" />
	</node>
	<node id="-349936" lat="59.439375004" lon="10.1613000005">
		<tag k="historic" v="shieling" />
		<tag k="name" v="Kranstadseter" />
		<tag k="place" v="locality" />
		<tag k="ssr:stedsnr" v="270543" />
	</node>
	<node id="-349932" lat="59.4257500012" lon="10.2140472247">
		<tag k="name" v="Sulutvedt-myra" />
		<tag k="natural" v="wetland" />
		<tag k="ssr:stedsnr" v="270629" />
	</node>
	<node id="-351464" lat="59.4509999992" lon="10.3322444412">
		<tag k="name" v="Gauterud" />
		<tag k="place" v="locality" />
		<tag k="ssr:stedsnr" v="633883" />
	</node>
	<node id="-351460" lat="59.3782500031" lon="10.1768861087">
		<tag k="name" v="Jerpetjønn" />
		<tag k="place" v="locality" />
		<tag k="ssr:stedsnr" v="633350" />
	</node>
	<node id="-349923" lat="59.363394445" lon="10.1747055504">
		<tag k="landuse" v="meadow" />
		<tag k="name" v="Davenga" />
		<tag k="ssr:stedsnr" v="270343" />
	</node>
	<node id="-349922" lat="59.3656499966" lon="10.1862111027">
		<tag k="name" v="Langrusrønningen" />
		<tag k="place" v="locality" />
		<tag k="ssr:stedsnr" v="270341" />
	</node>
	<node id="-350465" lat="59.423405554" lon="10.0821027719">
		<tag k="name" v="Stutauemyr" />
		<tag k="natural" v="wetland" />
		<tag k="ssr:stedsnr" v="877006" />
	</node>
	<node id="-350432" lat="59.4556222265" lon="10.1895027839">
		<tag k="name" v="Petterstua" />
		<tag k="place" v="locality" />
		<tag k="ssr:stedsnr" v="633569" />
	</node>
	<node id="-350416" lat="59.3098305536" lon="10.514011106">
		<tag k="name" v="Bakkeskog" />
		<tag k="place" v="locality" />
		<tag k="ssr:stedsnr" v="723799" />
	</node>
	<node id="-350426" lat="59.3660305535" lon="10.2514972154">
		<tag k="name" v="Brotthenget" />
		<tag k="place" v="locality" />
		<tag k="ssr:stedsnr" v="633405" />
	</node>
	<node id="-350908" lat="59.3646638876" lon="10.1882305474">
		<tag k="name" v="Nyhusmyra" />
		<tag k="natural" v="wetland" />
		<tag k="ssr:stedsnr" v="88277" />
	</node>
	<node id="-350932" lat="59.3398444472" lon="10.2893249954">
		<tag k="landuse" v="meadow" />
		<tag k="name" v="Kloppenga" />
		<tag k="ssr:stedsnr" v="88681" />
	</node>
	<node id="-350931" lat="59.3363694479" lon="10.3202583416">
		<tag k="name" v="Bjune s" />
		<tag k="place" v="locality" />
		<tag k="ssr:stedsnr" v="88670" />
	</node>
	<node id="-349906" lat="59.2491694445" lon="10.3680916638">
		<tag k="name" v="Sjuestokkskogen" />
		<tag k="place" v="locality" />
		<tag k="ssr:stedsnr" v="268430" />
	</node>
	<node id="-350928" lat="59.3266750002" lon="10.2831777736">
		<tag k="landuse" v="meadow" />
		<tag k="name" v="Jarberg" />
		<tag k="ssr:stedsnr" v="88597" />
	</node>
	<node id="-349970" lat="59.4229638855" lon="10.1865888959">
		<tag k="name" v="Langemyr" />
		<tag k="place" v="locality" />
		<tag k="ssr:stedsnr" v="148655" />
	</node>
	<node id="-351438" lat="59.4126472246" lon="10.0890138865">
		<tag k="name" v="Åtemyr" />
		<tag k="natural" v="wetland" />
		<tag k="ssr:stedsnr" v="633191" />
	</node>
	<node id="-349901" lat="59.3285222226" lon="10.396341659">
		<tag k="name" v="Dammen" />
		<tag k="place" v="locality" />
		<tag k="ssr:stedsnr" v="267750" />
	</node>
	<node id="-350922" lat="59.447005552" lon="10.1631333325">
		<tag k="name" v="Vikamyra" />
		<tag k="natural" v="wetland" />
		<tag k="ssr:stedsnr" v="88479" />
	</node>
	<node id="-351432" lat="59.3372999959" lon="10.4711361022">
		<tag k="name" v="Romsrydningen" />
		<tag k="place" v="locality" />
		<tag k="ssr:stedsnr" v="631828" />
	</node>
	<node id="-350464" lat="59.4216861068" lon="10.0835361113">
		<tag k="name" v="Staurmyr" />
		<tag k="natural" v="wetland" />
		<tag k="ssr:stedsnr" v="877002" />
	</node>
	<node id="-350911" lat="59.3502333308" lon="10.2061111128">
		<tag k="name" v="Storemyr" />
		<tag k="natural" v="wetland" />
		<tag k="ssr:stedsnr" v="88308" />
	</node>
	<node id="-349886" lat="59.3807305515" lon="10.2446527731">
		<tag k="landuse" v="meadow" />
		<tag k="name" v="Kilehagen" />
		<tag k="ssr:stedsnr" v="88515" />
	</node>
	<node id="-349885" lat="59.3907944479" lon="10.2543472281">
		<tag k="name" v="Åmot" />
		<tag k="place" v="locality" />
		<tag k="ssr:stedsnr" v="88510" />
	</node>
	<node id="-350396" lat="59.3366416673" lon="10.302486115">
		<tag k="name" v="Dyrsa" />
		<tag k="place" v="locality" />
		<tag k="ssr:stedsnr" v="573693" />
	</node>
	<node id="-349883" lat="59.4214916687" lon="10.061797218">
		<tag k="name" v="Bjørndalsmyr" />
		<tag k="natural" v="wetland" />
		<tag k="ssr:stedsnr" v="88009" />
	</node>
	<node id="-350394" lat="59.4659250042" lon="10.1723861153">
		<tag k="name" v="Hagamyra" />
		<tag k="natural" v="wetland" />
		<tag k="ssr:stedsnr" v="573685" />
	</node>
	<node id="-350393" lat="59.4700194483" lon="10.2006888836">
		<tag k="name" v="Ruteig øvre" />
		<tag k="place" v="locality" />
		<tag k="ssr:stedsnr" v="573677" />
	</node>
	<node id="-350900" lat="59.3412277799" lon="10.2223972147">
		<tag k="name" v="Pyttedraget" />
		<tag k="natural" v="wetland" />
		<tag k="ssr:stedsnr" v="88239" />
	</node>
	<node id="-350897" lat="59.4129361079" lon="10.1749027806">
		<tag k="name" v="Busameia" />
		<tag k="place" v="locality" />
		<tag k="ssr:stedsnr" v="88227" />
	</node>
	<node id="-350896" lat="59.410022222" lon="10.1636361047">
		<tag k="name" v="Ørerødmyr" />
		<tag k="natural" v="wetland" />
		<tag k="ssr:stedsnr" v="88216" />
	</node>
	<node id="-350381" lat="59.409675" lon="10.1698722241">
		<tag k="name" v="Krakkemyr" />
		<tag k="natural" v="wetland" />
		<tag k="ssr:stedsnr" v="573269" />
	</node>
	<node id="-350889" lat="59.2836361116" lon="10.4204277762">
		<tag k="name" v="Byskogen" />
		<tag k="place" v="locality" />
		<tag k="ssr:stedsnr" v="86733" />
	</node>
	<node id="-350373" lat="59.431025001" lon="10.1606555553">
		<tag k="name" v="Skotvedtkreppa" />
		<tag k="place" v="locality" />
		<tag k="ssr:stedsnr" v="695531" />
	</node>
	<node id="-350371" lat="59.4269527785" lon="10.1715944399">
		<tag k="historic" v="shieling" />
		<tag k="name" v="Hvamseter" />
		<tag k="place" v="locality" />
		<tag k="ssr:stedsnr" v="695527" />
	</node>
	<node id="-351392" lat="59.3610527739" lon="10.3137027778">
		<tag k="landuse" v="meadow" />
		<tag k="name" v="Hestehagen" />
		<tag k="ssr:stedsnr" v="573718" />
	</node>
	<node id="-351389" lat="59.3350722266" lon="10.25234723">
		<tag k="name" v="Reemyra" />
		<tag k="natural" v="wetland" />
		<tag k="ssr:stedsnr" v="573422" />
	</node>
	<node id="-350362" lat="59.3598472242" lon="10.1999416685">
		<tag k="name" v="Gislerød hovet" />
		<tag k="place" v="locality" />
		<tag k="ssr:stedsnr" v="695343" />
	</node>
	<node id="-351385" lat="59.3592611154" lon="10.2323583247">
		<tag k="landuse" v="meadow" />
		<tag k="name" v="Styrseng" />
		<tag k="ssr:stedsnr" v="573358" />
	</node>
	<node id="-351384" lat="59.3471361099" lon="10.2198749978">
		<tag k="name" v="Rønningen" />
		<tag k="place" v="locality" />
		<tag k="ssr:stedsnr" v="573349" />
	</node>
	<node id="-350358" lat="59.399958331" lon="10.1620111094">
		<tag k="name" v="Stormyr" />
		<tag k="natural" v="wetland" />
		<tag k="ssr:stedsnr" v="695318" />
	</node>
	<node id="-351378" lat="59.4028444426" lon="10.0845972175">
		<tag k="name" v="Setermyr" />
		<tag k="natural" v="wetland" />
		<tag k="ssr:stedsnr" v="573156" />
	</node>
	<node id="-350351" lat="59.3909249993" lon="10.0895694507">
		<tag k="name" v="Klestein" />
		<tag k="place" v="locality" />
		<tag k="ssr:stedsnr" v="695071" />
	</node>
	<node id="-350349" lat="59.2861749963" lon="10.4093444499">
		<tag k="name" v="Grevskogen" />
		<tag k="place" v="locality" />
		<tag k="ssr:stedsnr" v="692981" />
	</node>
	<node id="-350914" lat="59.347699996" lon="10.2171277807">
		<tag k="name" v="Nyhusjorde" />
		<tag k="place" v="locality" />
		<tag k="ssr:stedsnr" v="88315" />
	</node>
	<node id="-350338" lat="59.4740638891" lon="10.171341668">
		<tag k="name" v="Damjordet" />
		<tag k="place" v="locality" />
		<tag k="ssr:stedsnr" v="513719" />
	</node>
	<node id="-350332" lat="59.348613888" lon="10.2319555616">
		<tag k="name" v="Steinmalen" />
		<tag k="place" v="locality" />
		<tag k="ssr:stedsnr" v="512271" />
	</node>
	<node id="-350330" lat="59.4110833369" lon="10.1580361078">
		<tag k="name" v="Gampemyr" />
		<tag k="place" v="locality" />
		<tag k="ssr:stedsnr" v="512254" />
	</node>
	<node id="-350840" lat="59.3133833334" lon="10.2830138901">
		<tag k="landuse" v="meadow" />
		<tag k="name" v="Sijordet" />
		<tag k="ssr:stedsnr" v="27766" />
	</node>
	<node id="-350839" lat="59.3790777784" lon="10.3019777735">
		<tag k="landuse" v="meadow" />
		<tag k="name" v="Bergseng" />
		<tag k="ssr:stedsnr" v="27755" />
	</node>
	<node id="-350057" lat="59.3403527801" lon="10.2062138867">
		<tag k="name" v="Bjønnemyr" />
		<tag k="natural" v="wetland" />
		<tag k="ssr:stedsnr" v="452368" />
	</node>
	<node id="-350836" lat="59.3639111102" lon="10.303036119">
		<tag k="name" v="Tamburhullet" />
		<tag k="place" v="locality" />
		<tag k="ssr:stedsnr" v="27747" />
	</node>
	<node id="-350322" lat="59.4339611116" lon="10.0928916701">
		<tag k="name" v="Jerpemyr" />
		<tag k="natural" v="wetland" />
		<tag k="ssr:stedsnr" v="512018" />
	</node>
	<node id="-350827" lat="59.4513972211" lon="10.2120138866">
		<tag k="name" v="Øgården" />
		<tag k="place" v="locality" />
		<tag k="ssr:stedsnr" v="27549" />
	</node>
	<node id="-350824" lat="59.3439333296" lon="10.2160666748">
		<tag k="name" v="Skytøymyr" />
		<tag k="natural" v="wetland" />
		<tag k="ssr:stedsnr" v="27286" />
	</node>
	<node id="-350823" lat="59.404522218" lon="10.1641249994">
		<tag k="name" v="Milemyr" />
		<tag k="natural" v="wetland" />
		<tag k="ssr:stedsnr" v="27280" />
	</node>
	<node id="-350814" lat="59.3837805576" lon="10.0677999943">
		<tag k="name" v="Søndre Smalmyr" />
		<tag k="natural" v="wetland" />
		<tag k="ssr:stedsnr" v="27061" />
	</node>
	<node id="-350812" lat="59.4168555511" lon="10.2255638935">
		<tag k="name" v="Hvidsten" />
		<tag k="place" v="locality" />
		<tag k="ssr:stedsnr" v="27334" />
	</node>
	<node id="-350299" lat="59.4075777766" lon="10.0687944419">
		<tag k="alt_name" v="Høymyr" />
		<tag k="name" v="Høgmyr" />
		<tag k="natural" v="wetland" />
		<tag k="ssr:stedsnr" v="670124" />
	</node>
	<node id="-350800" lat="59.2858694471" lon="10.4708138902">
		<tag k="name" v="Bekketjønnmyra" />
		<tag k="natural" v="wetland" />
		<tag k="ssr:stedsnr" v="25756" />
	</node>
	<node id="-349914" lat="59.4299305552" lon="10.1068944396">
		<tag k="name" v="Laejordet" />
		<tag k="place" v="locality" />
		<tag k="ssr:stedsnr" v="270020" />
	</node>
	<node id="-350265" lat="59.3778583339" lon="10.1693388866">
		<tag k="name" v="Myrvang" />
		<tag k="place" v="locality" />
		<tag k="ssr:stedsnr" v="452327" />
	</node>
	<node id="-351288" lat="59.3712694476" lon="10.3499277797">
		<tag k="name" v="Gretteåsen" />
		<tag k="place" v="locality" />
		<tag k="ssr:stedsnr" v="391747" />
	</node>
	<node id="-351284" lat="59.4050611099" lon="10.3046527842">
		<tag k="name" v="Serkeland øvre" />
		<tag k="place" v="locality" />
		<tag k="ssr:stedsnr" v="391845" />
	</node>
	<node id="-350257" lat="59.3066916654" lon="10.4785666738">
		<tag k="name" v="Stormyra" />
		<tag k="natural" v="wetland" />
		<tag k="ssr:stedsnr" v="450804" />
	</node>
	<node id="-350256" lat="59.2796444421" lon="10.3769305549">
		<tag k="name" v="Ilene" />
		<tag k="place" v="locality" />
		<tag k="ssr:stedsnr" v="450403" />
	</node>
	<node id="-351495" lat="59.4458583296" lon="10.1523916667">
		<tag k="historic" v="shieling" />
		<tag k="name" v="Holtungseter" />
		<tag k="place" v="locality" />
		<tag k="ssr:stedsnr" v="755119" />
	</node>
	<node id="-351271" lat="59.431172225" lon="10.1677000088">
		<tag k="historic" v="shieling" />
		<tag k="name" v="Skotvedtseter" />
		<tag k="place" v="locality" />
		<tag k="ssr:stedsnr" v="391540" />
	</node>
	<node id="-351261" lat="59.4536666657" lon="10.0684083302">
		<tag k="name" v="Oremyr" />
		<tag k="natural" v="wetland" />
		<tag k="ssr:stedsnr" v="391099" />
	</node>
	<node id="-350236" lat="59.4019444462" lon="10.3037833252">
		<tag k="landuse" v="meadow" />
		<tag k="name" v="Klevjerenga" />
		<tag k="ssr:stedsnr" v="512838" />
	</node>
	<node id="-351255" lat="59.4292555522" lon="10.149788882">
		<tag k="name" v="Jakobsmyr" />
		<tag k="natural" v="wetland" />
		<tag k="ssr:stedsnr" v="391032" />
	</node>
	<node id="-350325" lat="59.3953111088" lon="10.0714472261">
		<tag k="name" v="Oksefjellmyr" />
		<tag k="natural" v="wetland" />
		<tag k="ssr:stedsnr" v="512074" />
	</node>
	<node id="-350218" lat="59.3588027753" lon="10.2403555559">
		<tag k="landuse" v="meadow" />
		<tag k="name" v="Tufteplassen" />
		<tag k="ssr:stedsnr" v="512383" />
	</node>
	<node id="-350215" lat="59.3768416681" lon="10.2062916638">
		<tag k="name" v="Granskogen" />
		<tag k="place" v="locality" />
		<tag k="ssr:stedsnr" v="512337" />
	</node>
	<node id="-350725" lat="59.4275722246" lon="10.2111194406">
		<tag k="name" v="Sulutvedt" />
		<tag k="place" v="locality" />
		<tag k="ssr:stedsnr" v="938607" />
	</node>
	<node id="-350212" lat="59.3994805551" lon="10.2083666712">
		<tag k="name" v="Heggestad-myra" />
		<tag k="natural" v="wetland" />
		<tag k="ssr:stedsnr" v="512291" />
	</node>
	<node id="-350209" lat="59.3363249957" lon="10.2166638807">
		<tag k="name" v="Brattåsmyr" />
		<tag k="natural" v="wetland" />
		<tag k="ssr:stedsnr" v="512276" />
	</node>
</osm>
