<?xml version="1.0" encoding="UTF-8"?>
<osm version="0.6" generator="osmapis">
	<node lat="59.251999997669024" lon="10.347916663137365" id="-46958">
		<tag k="fixme" v="consider natural=peak for the most distinct mountains in the district" />
		<tag k="name" v="Helvikåsen" />
		<tag k="natural" v="hill" />
		<tag k="place" v="locality" />
		<tag k="ssr:stedsnr" v="25393" />
	</node>
	<node lat="59.42278611196841" lon="10.084736104393862" id="-46964">
		<tag k="name" v="Stutaue" />
		<tag k="place" v="locality" />
		<tag k="ssr:stedsnr" v="27003" />
	</node>
	<node lat="59.424269441750816" lon="10.068897217314898" id="-46965">
		<tag k="fixme" v="consider natural=peak for the most distinct mountains in the district" />
		<tag k="name" v="Seterås" />
		<tag k="natural" v="hill" />
		<tag k="place" v="locality" />
		<tag k="ssr:stedsnr" v="27007" />
	</node>
	<node lat="59.432311113587055" lon="10.149399995656674" id="-46967">
		<tag k="name" v="Furugrind" />
		<tag k="place" v="locality" />
		<tag k="ssr:stedsnr" v="27020" />
	</node>
	<node lat="59.43420555361384" lon="10.146622230794136" id="-46968">
		<tag k="name" v="Håkonsvingen" />
		<tag k="place" v="locality" />
		<tag k="ssr:stedsnr" v="27021" />
	</node>
	<node lat="59.44515833237979" lon="10.102736113617215" id="-46971">
		<tag k="name" v="Lønsløken" />
		<tag k="place" v="locality" />
		<tag k="ssr:stedsnr" v="27111" />
	</node>
	<node lat="59.338311107902896" lon="10.361991665218552" id="-46982">
		<tag k="fixme" v="consider natural=peak for the most distinct mountains in the district" />
		<tag k="name" v="Draghølåsen" />
		<tag k="natural" v="hill" />
		<tag k="place" v="locality" />
		<tag k="ssr:stedsnr" v="27817" />
	</node>
	<node lat="59.470147220091434" lon="10.217194447679969" id="-46986">
		<tag k="fixme" v="consider natural=peak for the most distinct mountains in the district" />
		<tag k="name" v="Elgåsen" />
		<tag k="natural" v="hill" />
		<tag k="place" v="locality" />
		<tag k="ssr:stedsnr" v="27708" />
	</node>
	<node lat="59.47469999664708" lon="10.21142222400573" id="-46987">
		<tag k="fixme" v="consider natural=peak for the most distinct mountains in the district" />
		<tag k="name" v="Tjennåsen" />
		<tag k="natural" v="hill" />
		<tag k="place" v="locality" />
		<tag k="ssr:stedsnr" v="27709" />
	</node>
	<node lat="59.3081638911506" lon="10.2767916590284" id="-46988">
		<tag k="name" v="Gulpen" />
		<tag k="natural" v="slope" />
		<tag k="place" v="locality" />
		<tag k="ssr:stedsnr" v="27767" />
	</node>
	<node lat="59.39808055284474" lon="10.313736103011193" id="-46991">
		<tag k="name" v="Verpdalen" />
		<tag k="natural" v="valley" />
		<tag k="place" v="locality" />
		<tag k="ssr:stedsnr" v="27779" />
	</node>
	<node lat="59.27319166301066" lon="10.463261102275993" id="-47016">
		<tag k="name" v="Fyllpå" />
		<tag k="place" v="locality" />
		<tag k="ssr:stedsnr" v="85703" />
	</node>
	<node lat="59.35416389022597" lon="10.188997216760978" id="-47023">
		<tag k="fixme" v="consider natural=peak for the most distinct mountains in the district" />
		<tag k="name" v="Bjønnåsen" />
		<tag k="natural" v="hill" />
		<tag k="place" v="locality" />
		<tag k="ssr:stedsnr" v="88309" />
	</node>
	<node lat="59.33693055469555" lon="10.208883329852526" id="-47024">
		<tag k="name" v="Ulehølet" />
		<tag k="natural" v="valley" />
		<tag k="place" v="locality" />
		<tag k="ssr:stedsnr" v="88312" />
	</node>
	<node lat="59.31570555673381" lon="10.267016670735934" id="-47026">
		<tag k="fixme" v="consider natural=peak for the most distinct mountains in the district" />
		<tag k="name" v="Lunnskollen" />
		<tag k="natural" v="hill" />
		<tag k="place" v="locality" />
		<tag k="ssr:stedsnr" v="88370" />
	</node>
	<node lat="59.33148889185497" lon="10.220541675316877" id="-47028">
		<tag k="fixme" v="consider natural=peak for the most distinct mountains in the district" />
		<tag k="name" v="Gordalåsen" />
		<tag k="natural" v="hill" />
		<tag k="place" v="locality" />
		<tag k="ssr:stedsnr" v="88377" />
	</node>
	<node lat="59.452602778014295" lon="10.165916658685715" id="-47036">
		<tag k="name" v="Kakebakken (Island)" />
		<tag k="natural" v="slope" />
		<tag k="place" v="locality" />
		<tag k="ssr:stedsnr" v="88478" />
	</node>
	<node lat="59.44599444813069" lon="10.157930560942097" id="-47038">
		<tag k="name" v="Trettelia" />
		<tag k="natural" v="slope" />
		<tag k="place" v="locality" />
		<tag k="ssr:stedsnr" v="88481" />
	</node>
	<node lat="59.32867777392297" lon="10.288369441893892" id="-47039">
		<tag k="fixme" v="consider natural=peak for the most distinct mountains in the district" />
		<tag k="name" v="Holeåsen" />
		<tag k="natural" v="hill" />
		<tag k="place" v="locality" />
		<tag k="ssr:stedsnr" v="88602" />
	</node>
	<node lat="59.3441305562964" lon="10.341141663182981" id="-47049">
		<tag k="fixme" v="consider natural=peak for the most distinct mountains in the district" />
		<tag k="name" v="Løkkeåsen" />
		<tag k="natural" v="hill" />
		<tag k="place" v="locality" />
		<tag k="ssr:stedsnr" v="88775" />
	</node>
	<node lat="59.348088891209024" lon="10.340316664221586" id="-47050">
		<tag k="fixme" v="consider natural=peak for the most distinct mountains in the district" />
		<tag k="name" v="Sameieåsen" />
		<tag k="natural" v="hill" />
		<tag k="place" v="locality" />
		<tag k="ssr:stedsnr" v="88784" />
	</node>
	<node lat="59.36753611205035" lon="10.242030556362462" id="-47079">
		<tag k="fixme" v="consider natural=peak for the most distinct mountains in the district" />
		<tag k="name" v="Sjøssfjell" />
		<tag k="natural" v="hill" />
		<tag k="place" v="locality" />
		<tag k="ssr:stedsnr" v="147369" />
	</node>
	<node lat="59.39813333653208" lon="10.192625001537635" id="-47084">
		<tag k="fixme" v="consider natural=peak for the most distinct mountains in the district" />
		<tag k="name" v="Høgås" />
		<tag k="natural" v="hill" />
		<tag k="place" v="locality" />
		<tag k="ssr:stedsnr" v="148317" />
	</node>
	<node lat="59.42279166830777" lon="10.184736112987169" id="-47089">
		<tag k="fixme" v="consider natural=peak for the most distinct mountains in the district" />
		<tag k="name" v="Rundmyråsen" />
		<tag k="natural" v="hill" />
		<tag k="place" v="locality" />
		<tag k="ssr:stedsnr" v="148654" />
	</node>
	<node lat="59.448194423976275" lon="10.232619322191043" id="-47099">
		<tag k="fixme" v="consider natural=peak for the most distinct mountains in the district" />
		<tag k="name" v="Ryksåsen" />
		<tag k="natural" v="hill" />
		<tag k="place" v="locality" />
		<tag k="ssr:stedsnr" v="245062" />
	</node>
	<node lat="59.40539444158765" lon="10.15783611926629" id="-47149">
		<tag k="fixme" v="consider natural=peak for the most distinct mountains in the district" />
		<tag k="name" v="Kjyrrudalsåsen" />
		<tag k="natural" v="hill" />
		<tag k="place" v="locality" />
		<tag k="ssr:stedsnr" v="209275" />
	</node>
	<node lat="59.336963891774914" lon="10.35990277649868" id="-47164">
		<tag k="fixme" v="consider natural=peak for the most distinct mountains in the district" />
		<tag k="name" v="Tybergkollen" />
		<tag k="natural" v="hill" />
		<tag k="place" v="locality" />
		<tag k="ssr:stedsnr" v="209802" />
	</node>
	<node lat="59.423772223440835" lon="10.090102771930113" id="-47187">
		<tag k="fixme" v="consider natural=peak for the most distinct mountains in the district" />
		<tag k="name" v="Brattås" />
		<tag k="natural" v="hill" />
		<tag k="place" v="locality" />
		<tag k="ssr:stedsnr" v="270002" />
	</node>
	<node lat="59.4278777743836" lon="10.092602770415782" id="-47188">
		<tag k="fixme" v="consider natural=peak for the most distinct mountains in the district" />
		<tag k="name" v="Knutehogst" />
		<tag k="natural" v="hill" />
		<tag k="place" v="locality" />
		<tag k="ssr:stedsnr" v="270011" />
	</node>
	<node lat="59.38964444206718" lon="10.129802771278351" id="-47191">
		<tag k="alt_name" v="Ektvedtåsen" />
		<tag k="fixme" v="consider natural=peak for the most distinct mountains in the district" />
		<tag k="name" v="Ektvetåsen" />
		<tag k="natural" v="hill" />
		<tag k="place" v="locality" />
		<tag k="ssr:stedsnr" v="270088" />
	</node>
	<node lat="59.401397218398664" lon="10.112472229198477" id="-47193">
		<tag k="name" v="Hesjejota" />
		<tag k="natural" v="valley" />
		<tag k="place" v="locality" />
		<tag k="ssr:stedsnr" v="270204" />
	</node>
	<node lat="59.4128444416919" lon="10.181758337518968" id="-47194">
		<tag k="name" v="Røssedal" />
		<tag k="natural" v="valley" />
		<tag k="place" v="locality" />
		<tag k="ssr:stedsnr" v="270273" />
	</node>
	<node lat="59.34139166583502" lon="10.218744449787275" id="-47196">
		<tag k="name" v="Bjørnehovdhedde" />
		<tag k="natural" v="hill" />
		<tag k="place" v="locality" />
		<tag k="ssr:stedsnr" v="270291" />
	</node>
	<node lat="59.33216388862608" lon="10.24047500667569" id="-47204">
		<tag k="fixme" v="consider natural=peak for the most distinct mountains in the district" />
		<tag k="name" v="Vardås" />
		<tag k="natural" v="hill" />
		<tag k="place" v="locality" />
		<tag k="ssr:stedsnr" v="270437" />
	</node>
	<node lat="59.28572222009169" lon="10.303966671008125" id="-47205">
		<tag k="fixme" v="consider natural=peak for the most distinct mountains in the district" />
		<tag k="name" v="Kjerringhovet" />
		<tag k="natural" v="hill" />
		<tag k="place" v="locality" />
		<tag k="ssr:stedsnr" v="270691" />
	</node>
	<node lat="59.29374999702609" lon="10.294647213452054" id="-47209">
		<tag k="fixme" v="consider natural=peak for the most distinct mountains in the district" />
		<tag k="name" v="Rygg" />
		<tag k="natural" v="hill" />
		<tag k="place" v="locality" />
		<tag k="ssr:stedsnr" v="270738" />
	</node>
	<node lat="59.32892777363164" lon="10.344383337818721" id="-47211">
		<tag k="name" v="Rønningen" />
		<tag k="natural" v="slope" />
		<tag k="place" v="locality" />
		<tag k="ssr:stedsnr" v="270749" />
	</node>
	<node lat="59.41653055220291" lon="10.296272228885405" id="-47212">
		<tag k="fixme" v="consider natural=peak for the most distinct mountains in the district" />
		<tag k="name" v="Sørbyåsen" />
		<tag k="natural" v="hill" />
		<tag k="place" v="locality" />
		<tag k="ssr:stedsnr" v="270797" />
	</node>
	<node lat="59.34876666395785" lon="10.396658337033687" id="-47215">
		<tag k="fixme" v="consider natural=peak for the most distinct mountains in the district" />
		<tag k="name" v="Uleberget" />
		<tag k="natural" v="hill" />
		<tag k="place" v="locality" />
		<tag k="ssr:stedsnr" v="271444" />
	</node>
	<node lat="59.254113886008184" lon="10.455525002358163" id="-47221">
		<tag k="name" v="Karlsebakken" />
		<tag k="natural" v="slope" />
		<tag k="place" v="locality" />
		<tag k="ssr:stedsnr" v="450770" />
	</node>
	<node lat="59.393738891417854" lon="10.107122216752243" id="-47223">
		<tag k="name" v="Sagbråten" />
		<tag k="natural" v="hill" />
		<tag k="place" v="locality" />
		<tag k="ssr:stedsnr" v="452073" />
	</node>
	<node lat="59.39596944362127" lon="10.084711109407456" id="-47225">
		<tag k="name" v="Hvamsdalen" />
		<tag k="natural" v="valley" />
		<tag k="place" v="locality" />
		<tag k="ssr:stedsnr" v="452068" />
	</node>
	<node lat="59.34584444036764" lon="10.225444444921731" id="-47229">
		<tag k="name" v="Sandgravene" />
		<tag k="place" v="locality" />
		<tag k="ssr:stedsnr" v="452266" />
	</node>
	<node lat="59.372533335518405" lon="10.179472226193848" id="-47230">
		<tag k="name" v="Hanedalen" />
		<tag k="natural" v="cliff" />
		<tag k="ssr:stedsnr" v="452330" />
	</node>
	<node lat="59.35968889169131" lon="10.213088895167111" id="-47232">
		<tag k="fixme" v="consider natural=peak for the most distinct mountains in the district" />
		<tag k="name" v="Fjelebua" />
		<tag k="natural" v="hill" />
		<tag k="place" v="locality" />
		<tag k="ssr:stedsnr" v="452345" />
	</node>
	<node lat="59.34944722490075" lon="10.200438885410922" id="-47233">
		<tag k="fixme" v="consider natural=peak for the most distinct mountains in the district" />
		<tag k="name" v="Langevannsåsen" />
		<tag k="natural" v="hill" />
		<tag k="place" v="locality" />
		<tag k="ssr:stedsnr" v="452363" />
	</node>
	<node lat="59.344411108694906" lon="10.210330549000822" id="-47235">
		<tag k="fixme" v="consider natural=peak for the most distinct mountains in the district" />
		<tag k="name" v="Nordre Brattåsen" />
		<tag k="natural" v="hill" />
		<tag k="place" v="locality" />
		<tag k="ssr:stedsnr" v="452370" />
	</node>
	<node lat="59.32644722456189" lon="10.244833339340898" id="-47236">
		<tag k="fixme" v="consider natural=peak for the most distinct mountains in the district" />
		<tag k="name" v="Høgåsen" />
		<tag k="natural" v="hill" />
		<tag k="place" v="locality" />
		<tag k="ssr:stedsnr" v="452453" />
	</node>
	<node lat="59.45833889152665" lon="10.205222216293746" id="-47244">
		<tag k="name" v="Nepebråten" />
		<tag k="natural" v="hill" />
		<tag k="place" v="locality" />
		<tag k="ssr:stedsnr" v="452555" />
	</node>
	<node lat="59.31289444419229" lon="10.353616670311224" id="-47250">
		<tag k="fixme" v="consider natural=peak for the most distinct mountains in the district" />
		<tag k="name" v="Fadumsåsen" />
		<tag k="natural" v="hill" />
		<tag k="place" v="locality" />
		<tag k="ssr:stedsnr" v="452738" />
	</node>
	<node lat="59.292561113205295" lon="10.305922225610216" id="-47252">
		<tag k="fixme" v="consider natural=peak for the most distinct mountains in the district" />
		<tag k="name" v="Hesbyåsen" />
		<tag k="natural" v="hill" />
		<tag k="place" v="locality" />
		<tag k="ssr:stedsnr" v="452746" />
	</node>
	<node lat="59.313227778009974" lon="10.312336103155173" id="-47253">
		<tag k="fixme" v="consider natural=peak for the most distinct mountains in the district" />
		<tag k="name" v="Kjærshøgda" />
		<tag k="natural" v="hill" />
		<tag k="place" v="locality" />
		<tag k="ssr:stedsnr" v="452751" />
	</node>
	<node lat="59.31791666353652" lon="10.35301944060747" id="-47255">
		<tag k="fixme" v="consider natural=peak for the most distinct mountains in the district" />
		<tag k="name" v="Svartåsen" />
		<tag k="natural" v="hill" />
		<tag k="place" v="locality" />
		<tag k="ssr:stedsnr" v="452770" />
	</node>
	<node lat="59.26744722085326" lon="10.473163893331133" id="-47261">
		<tag k="name" v="Granø" />
		<tag k="natural" v="hill" />
		<tag k="place" v="locality" />
		<tag k="ssr:stedsnr" v="298289" />
	</node>
	<node lat="59.30650555947492" lon="10.432405559368545" id="-47274">
		<tag k="name" v="Skaralia" />
		<tag k="natural" v="slope" />
		<tag k="place" v="locality" />
		<tag k="ssr:stedsnr" v="328772" />
	</node>
	<node lat="59.3009027756879" lon="10.414563881409986" id="-47275">
		<tag k="name" v="Eik vestre" />
		<tag k="place" v="locality" />
		<tag k="ssr:stedsnr" v="328786" />
	</node>
	<node lat="59.43386944321906" lon="10.08730832589881" id="-47276">
		<tag k="fixme" v="consider natural=peak for the most distinct mountains in the district" />
		<tag k="name" v="Trettestykkeåsen" />
		<tag k="natural" v="hill" />
		<tag k="place" v="locality" />
		<tag k="ssr:stedsnr" v="330019" />
	</node>
	<node lat="59.434405555180916" lon="10.094450005222175" id="-47278">
		<tag k="fixme" v="consider natural=peak for the most distinct mountains in the district" />
		<tag k="name" v="Kringleås" />
		<tag k="natural" v="hill" />
		<tag k="place" v="locality" />
		<tag k="ssr:stedsnr" v="330026" />
	</node>
	<node lat="59.41429166983652" lon="10.15936944266411" id="-47281">
		<tag k="fixme" v="consider natural=peak for the most distinct mountains in the district" />
		<tag k="name" v="Brakallåsen" />
		<tag k="natural" v="hill" />
		<tag k="place" v="locality" />
		<tag k="ssr:stedsnr" v="330273" />
	</node>
	<node lat="59.41760000082937" lon="10.165900002030556" id="-47282">
		<tag k="name" v="Myrekreppa" />
		<tag k="natural" v="hill" />
		<tag k="place" v="locality" />
		<tag k="ssr:stedsnr" v="330274" />
	</node>
	<node lat="59.412355554007966" lon="10.186250005822933" id="-47283">
		<tag k="fixme" v="consider natural=peak for the most distinct mountains in the district" />
		<tag k="name" v="Furuåsen" />
		<tag k="natural" v="hill" />
		<tag k="place" v="locality" />
		<tag k="ssr:stedsnr" v="330281" />
	</node>
	<node lat="59.34584166768831" lon="10.201649998348687" id="-47285">
		<tag k="fixme" v="consider natural=peak for the most distinct mountains in the district" />
		<tag k="name" v="Rullebruene" />
		<tag k="natural" v="hill" />
		<tag k="place" v="locality" />
		<tag k="ssr:stedsnr" v="330380" />
	</node>
	<node lat="59.43177499735086" lon="10.157752780007907" id="-47293">
		<tag k="name" v="Raukleiv" />
		<tag k="natural" v="slope" />
		<tag k="place" v="locality" />
		<tag k="ssr:stedsnr" v="331513" />
	</node>
	<node lat="59.38071944189006" lon="10.216986109468287" id="-47294">
		<tag k="fixme" v="consider natural=peak for the most distinct mountains in the district" />
		<tag k="name" v="Holtåsen" />
		<tag k="natural" v="hill" />
		<tag k="place" v="locality" />
		<tag k="ssr:stedsnr" v="331569" />
	</node>
	<node lat="59.30908055900497" lon="10.431672226773044" id="-47312">
		<tag k="name" v="Robergrønningen" />
		<tag k="natural" v="slope" />
		<tag k="place" v="locality" />
		<tag k="ssr:stedsnr" v="388757" />
	</node>
	<node lat="59.2531388916887" lon="10.34538054817969" id="-47314">
		<tag k="fixme" v="consider natural=peak for the most distinct mountains in the district" />
		<tag k="name" v="Liaåsen" />
		<tag k="natural" v="hill" />
		<tag k="place" v="locality" />
		<tag k="ssr:stedsnr" v="389421" />
	</node>
	<node lat="59.40784444088143" lon="10.062133334050966" id="-47323">
		<tag k="fixme" v="consider natural=peak for the most distinct mountains in the district" />
		<tag k="name" v="Ulaåsen" />
		<tag k="natural" v="hill" />
		<tag k="place" v="locality" />
		<tag k="ssr:stedsnr" v="391176" />
	</node>
	<node lat="59.33191110827079" lon="10.21585556354167" id="-47325">
		<tag k="fixme" v="consider natural=peak for the most distinct mountains in the district" />
		<tag k="name" v="Brattås" />
		<tag k="natural" v="hill" />
		<tag k="place" v="locality" />
		<tag k="ssr:stedsnr" v="391462" />
	</node>
	<node lat="59.363752774789084" lon="10.247500003703886" id="-47330">
		<tag k="fixme" v="consider natural=peak for the most distinct mountains in the district" />
		<tag k="name" v="Bergåsen" />
		<tag k="natural" v="hill" />
		<tag k="place" v="locality" />
		<tag k="ssr:stedsnr" v="391399" />
	</node>
	<node lat="59.42351944310217" lon="10.170875007326558" id="-47331">
		<tag k="fixme" v="consider natural=peak for the most distinct mountains in the district" />
		<tag k="name" v="Gærnås" />
		<tag k="natural" v="hill" />
		<tag k="place" v="locality" />
		<tag k="ssr:stedsnr" v="391544" />
	</node>
	<node lat="59.43836388642627" lon="10.165736111341626" id="-47332">
		<tag k="name" v="Tøllerønningen" />
		<tag k="natural" v="slope" />
		<tag k="place" v="locality" />
		<tag k="ssr:stedsnr" v="391548" />
	</node>
	<node lat="59.43996666585142" lon="10.075830552157031" id="-47379">
		<tag k="name" v="Orehølet" />
		<tag k="natural" v="valley" />
		<tag k="place" v="locality" />
		<tag k="ssr:stedsnr" v="452004" />
	</node>
	<node lat="59.43594722260237" lon="10.07012777805107" id="-47380">
		<tag k="name" v="Tronka" />
		<tag k="natural" v="slope" />
		<tag k="place" v="locality" />
		<tag k="ssr:stedsnr" v="452007" />
	</node>
	<node lat="59.391008336449694" lon="10.181422213804034" id="-47384">
		<tag k="fixme" v="consider natural=peak for the most distinct mountains in the district" />
		<tag k="name" v="Østreåsen" />
		<tag k="natural" v="hill" />
		<tag k="place" v="locality" />
		<tag k="ssr:stedsnr" v="452290" />
	</node>
	<node lat="59.41252777994036" lon="10.211416671510145" id="-47387">
		<tag k="fixme" v="consider natural=peak for the most distinct mountains in the district" />
		<tag k="name" v="Høgtopp" />
		<tag k="natural" v="hill" />
		<tag k="place" v="locality" />
		<tag k="ssr:stedsnr" v="452305" />
	</node>
	<node lat="59.29303610972744" lon="10.32183889549435" id="-47391">
		<tag k="alt_name" v="Lensberg" />
		<tag k="fixme" v="consider natural=peak for the most distinct mountains in the district" />
		<tag k="name" v="Lensbergåsen" />
		<tag k="natural" v="hill" />
		<tag k="place" v="locality" />
		<tag k="ssr:stedsnr" v="452679" />
	</node>
	<node lat="59.34138611400183" lon="10.358163882830098" id="-47393">
		<tag k="fixme" v="consider natural=peak for the most distinct mountains in the district" />
		<tag k="name" v="Undrumsåsen" />
		<tag k="natural" v="hill" />
		<tag k="place" v="locality" />
		<tag k="ssr:stedsnr" v="452810" />
	</node>
	<node lat="59.26041389207041" lon="10.364347228008754" id="-47435">
		<tag k="fixme" v="consider natural=peak for the most distinct mountains in the district" />
		<tag k="name" v="Skomakeråsen" />
		<tag k="natural" v="hill" />
		<tag k="place" v="locality" />
		<tag k="ssr:stedsnr" v="510379" />
	</node>
	<node lat="59.43086944546165" lon="10.063869444019357" id="-47444">
		<tag k="name" v="Snipedalen" />
		<tag k="natural" v="valley" />
		<tag k="place" v="locality" />
		<tag k="ssr:stedsnr" v="512132" />
	</node>
	<node lat="59.34065278190192" lon="10.230419444317546" id="-47451">
		<tag k="name" v="Breidablikk" />
		<tag k="place" v="locality" />
		<tag k="ssr:stedsnr" v="512278" />
	</node>
	<node lat="59.32490833653965" lon="10.355863887970603" id="-47454">
		<tag k="fixme" v="consider natural=peak for the most distinct mountains in the district" />
		<tag k="name" v="Gulliåsen" />
		<tag k="natural" v="hill" />
		<tag k="place" v="locality" />
		<tag k="ssr:stedsnr" v="512777" />
	</node>
	<node lat="59.42738333247012" lon="10.291488896882985" id="-47463">
		<tag k="fixme" v="consider natural=peak for the most distinct mountains in the district" />
		<tag k="name" v="Søbyåsen" />
		<tag k="natural" v="hill" />
		<tag k="place" v="locality" />
		<tag k="ssr:stedsnr" v="512889" />
	</node>
	<node lat="59.25756111408977" lon="10.37408056241382" id="-47481">
		<tag k="name" v="Geiteberget" />
		<tag k="natural" v="hill" />
		<tag k="place" v="locality" />
		<tag k="ssr:stedsnr" v="571404" />
	</node>
	<node lat="59.426891668290736" lon="10.115808340288975" id="-47484">
		<tag k="fixme" v="consider natural=peak for the most distinct mountains in the district" />
		<tag k="name" v="Lønnsåsen" />
		<tag k="natural" v="hill" />
		<tag k="place" v="locality" />
		<tag k="ssr:stedsnr" v="573012" />
	</node>
	<node lat="59.42223055506456" lon="10.110650007689726" id="-47485">
		<tag k="name" v="Bjørndalen" />
		<tag k="natural" v="valley" />
		<tag k="place" v="locality" />
		<tag k="ssr:stedsnr" v="573013" />
	</node>
	<node lat="59.34473056008037" lon="10.213602776231197" id="-47492">
		<tag k="name" v="Steintorvet" />
		<tag k="natural" v="valley" />
		<tag k="place" v="locality" />
		<tag k="ssr:stedsnr" v="573271" />
	</node>
	<node lat="59.459169447216766" lon="10.204388893236063" id="-47498">
		<tag k="name" v="Bøllene" />
		<tag k="natural" v="hill" />
		<tag k="place" v="locality" />
		<tag k="ssr:stedsnr" v="573511" />
	</node>
	<node lat="59.40335277577527" lon="10.105825004377994" id="-47510">
		<tag k="fixme" v="consider natural=peak for the most distinct mountains in the district" />
		<tag k="name" v="Vardås" />
		<tag k="natural" v="hill" />
		<tag k="place" v="locality" />
		<tag k="ssr:stedsnr" v="609141" />
	</node>
	<node lat="59.27466388803205" lon="10.418663891249109" id="-47515">
		<tag k="name" v="Nye kirkegård" />
		<tag k="place" v="locality" />
		<tag k="ssr:stedsnr" v="631741" />
	</node>
	<node lat="59.24739444153571" lon="10.4632277691176" id="-47516">
		<tag k="fixme" v="consider natural=peak for the most distinct mountains in the district" />
		<tag k="name" v="Oberståsen" />
		<tag k="natural" v="hill" />
		<tag k="place" v="locality" />
		<tag k="ssr:stedsnr" v="631996" />
	</node>
	<node lat="59.44771944550466" lon="10.137033327854116" id="-47520">
		<tag k="name" v="Trengsledalen" />
		<tag k="natural" v="valley" />
		<tag k="place" v="locality" />
		<tag k="ssr:stedsnr" v="633145" />
	</node>
	<node lat="59.39642777932791" lon="10.086425006051822" id="-47521">
		<tag k="fixme" v="consider natural=peak for the most distinct mountains in the district" />
		<tag k="name" v="Kaståsen" />
		<tag k="natural" v="hill" />
		<tag k="place" v="locality" />
		<tag k="ssr:stedsnr" v="633086" />
	</node>
	<node lat="59.38466944221063" lon="10.075019438947637" id="-47522">
		<tag k="name" v="Hyttedalen" />
		<tag k="natural" v="valley" />
		<tag k="place" v="locality" />
		<tag k="ssr:stedsnr" v="633091" />
	</node>
	<node lat="59.42061944165041" lon="10.194280559152556" id="-47526">
		<tag k="name" v="Støytan" />
		<tag k="natural" v="slope" />
		<tag k="place" v="locality" />
		<tag k="ssr:stedsnr" v="633294" />
	</node>
	<node lat="59.405225000272274" lon="10.085122216244077" id="-47529">
		<tag k="fixme" v="consider natural=peak for the most distinct mountains in the district" />
		<tag k="name" v="Seteråsen" />
		<tag k="natural" v="hill" />
		<tag k="place" v="locality" />
		<tag k="ssr:stedsnr" v="633188" />
	</node>
	<node lat="59.337916667962524" lon="10.217100003233524" id="-47532">
		<tag k="fixme" v="consider natural=peak for the most distinct mountains in the district" />
		<tag k="name" v="Sølvskjemyråsen" />
		<tag k="natural" v="hill" />
		<tag k="place" v="locality" />
		<tag k="ssr:stedsnr" v="633303" />
	</node>
	<node lat="59.43332777800669" lon="10.234838882064855" id="-47537">
		<tag k="name" v="Brannsrud" />
		<tag k="natural" v="slope" />
		<tag k="place" v="locality" />
		<tag k="ssr:stedsnr" v="633648" />
	</node>
	<node lat="59.26210277762265" lon="10.447216660123768" id="-47549">
		<tag k="name" v="Liabakken" />
		<tag k="natural" v="slope" />
		<tag k="place" v="locality" />
		<tag k="ssr:stedsnr" v="692749" />
	</node>
	<node lat="59.26076111255653" lon="10.46254722575062" id="-47550">
		<tag k="fixme" v="consider natural=peak for the most distinct mountains in the district" />
		<tag k="name" v="Skjerpåsen" />
		<tag k="natural" v="hill" />
		<tag k="place" v="locality" />
		<tag k="ssr:stedsnr" v="692750" />
	</node>
	<node lat="59.25786944041876" lon="10.451352777904647" id="-47551">
		<tag k="fixme" v="consider natural=peak for the most distinct mountains in the district" />
		<tag k="name" v="Teigenåsen" />
		<tag k="natural" v="hill" />
		<tag k="place" v="locality" />
		<tag k="ssr:stedsnr" v="692753" />
	</node>
	<node lat="59.44503333478328" lon="10.07614444543076" id="-47554">
		<tag k="name" v="Svarvarlia" />
		<tag k="natural" v="slope" />
		<tag k="place" v="locality" />
		<tag k="ssr:stedsnr" v="695097" />
	</node>
	<node lat="59.39099444192117" lon="10.06571667344658" id="-47556">
		<tag k="fixme" v="consider natural=peak for the most distinct mountains in the district" />
		<tag k="name" v="Damås" />
		<tag k="natural" v="hill" />
		<tag k="place" v="locality" />
		<tag k="ssr:stedsnr" v="695057" />
	</node>
	<node lat="59.3940055540711" lon="10.074663894836341" id="-47557">
		<tag k="fixme" v="consider natural=peak for the most distinct mountains in the district" />
		<tag k="name" v="Oksefjell" />
		<tag k="natural" v="hill" />
		<tag k="place" v="locality" />
		<tag k="ssr:stedsnr" v="695066" />
	</node>
	<node lat="59.443769444193265" lon="10.15193333483846" id="-47558">
		<tag k="name" v="Spellemannsløkka" />
		<tag k="place" v="locality" />
		<tag k="ssr:stedsnr" v="695120" />
	</node>
	<node lat="59.36815000171551" lon="10.240902785161609" id="-47561">
		<tag k="fixme" v="consider natural=peak for the most distinct mountains in the district" />
		<tag k="name" v="Sjøssfjell" />
		<tag k="natural" v="hill" />
		<tag k="place" v="locality" />
		<tag k="ssr:stedsnr" v="695391" />
	</node>
	<node lat="59.416174997179695" lon="10.262183328776072" id="-47565">
		<tag k="name" v="Skinnene" />
		<tag k="natural" v="slope" />
		<tag k="place" v="locality" />
		<tag k="ssr:stedsnr" v="695328" />
	</node>
	<node lat="59.36319444832107" lon="10.218522228605032" id="-47568">
		<tag k="name" v="Djupedal" />
		<tag k="natural" v="valley" />
		<tag k="place" v="locality" />
		<tag k="ssr:stedsnr" v="695351" />
	</node>
	<node lat="59.32284444710178" lon="10.306058334180142" id="-47576">
		<tag k="fixme" v="consider natural=peak for the most distinct mountains in the district" />
		<tag k="name" v="Kloppåsen" />
		<tag k="natural" v="hill" />
		<tag k="place" v="locality" />
		<tag k="ssr:stedsnr" v="695662" />
	</node>
	<node lat="59.3097833370607" lon="10.274027776956162" id="-47578">
		<tag k="fixme" v="consider natural=peak for the most distinct mountains in the district" />
		<tag k="name" v="Bjørnåsen" />
		<tag k="natural" v="hill" />
		<tag k="place" v="locality" />
		<tag k="ssr:stedsnr" v="695754" />
	</node>
	<node lat="59.3464527777007" lon="10.348147224014655" id="-47580">
		<tag k="fixme" v="consider natural=peak for the most distinct mountains in the district" />
		<tag k="name" v="Vestre Holtås" />
		<tag k="natural" v="hill" />
		<tag k="place" v="locality" />
		<tag k="ssr:stedsnr" v="695811" />
	</node>
	<node lat="59.25327778198336" lon="10.472797221278134" id="-47582">
		<tag k="fixme" v="consider natural=peak for the most distinct mountains in the district" />
		<tag k="name" v="Husvikåsen" />
		<tag k="natural" v="hill" />
		<tag k="place" v="locality" />
		<tag k="ssr:stedsnr" v="662004" />
	</node>
	<node lat="59.41672499794256" lon="10.168624998359485" id="-47587">
		<tag k="fixme" v="consider natural=peak for the most distinct mountains in the district" />
		<tag k="name" v="Avhogget" />
		<tag k="natural" v="hill" />
		<tag k="place" v="locality" />
		<tag k="ssr:stedsnr" v="670133" />
	</node>
	<node lat="59.4445583375483" lon="10.130125004329376" id="-47600">
		<tag k="name" v="Kølabonn" />
		<tag k="natural" v="valley" />
		<tag k="place" v="locality" />
		<tag k="ssr:stedsnr" v="695121" />
	</node>
	<node lat="59.44649722001764" lon="10.124216663914792" id="-47601">
		<tag k="name" v="Krøklidalen" />
		<tag k="natural" v="valley" />
		<tag k="place" v="locality" />
		<tag k="ssr:stedsnr" v="695122" />
	</node>
	<node lat="59.33932777583143" lon="10.23151388078899" id="-47603">
		<tag k="name" v="Hestesletta" />
		<tag k="place" v="locality" />
		<tag k="ssr:stedsnr" v="695303" />
	</node>
	<node lat="59.39744444642558" lon="10.117736111227066" id="-47607">
		<tag k="name" v="Moen" />
		<tag k="place" v="locality" />
		<tag k="ssr:stedsnr" v="695078" />
	</node>
	<node lat="59.39216388562536" lon="10.133988892364588" id="-47608">
		<tag k="fixme" v="consider natural=peak for the most distinct mountains in the district" />
		<tag k="name" v="Busteåsen" />
		<tag k="natural" v="hill" />
		<tag k="place" v="locality" />
		<tag k="ssr:stedsnr" v="695084" />
	</node>
	<node lat="59.35458055140291" lon="10.17756110710229" id="-47610">
		<tag k="name" v="Kongeroa" />
		<tag k="place" v="locality" />
		<tag k="ssr:stedsnr" v="695375" />
	</node>
	<node lat="59.29263332912377" lon="10.469238884499566" id="-47641">
		<tag k="name" v="Pyttene" />
		<tag k="place" v="locality" />
		<tag k="ssr:stedsnr" v="753712" />
	</node>
	<node lat="59.45199444010476" lon="10.074669436501715" id="-47642">
		<tag k="fixme" v="consider natural=peak for the most distinct mountains in the district" />
		<tag k="name" v="Berganåsen" />
		<tag k="natural" v="hill" />
		<tag k="place" v="locality" />
		<tag k="ssr:stedsnr" v="755104" />
	</node>
	<node lat="59.444402780839894" lon="10.078622220227125" id="-47643">
		<tag k="name" v="Kjellemoa" />
		<tag k="place" v="locality" />
		<tag k="ssr:stedsnr" v="755106" />
	</node>
	<node lat="59.37450833333991" lon="10.15408054982307" id="-47646">
		<tag k="fixme" v="consider natural=peak for the most distinct mountains in the district" />
		<tag k="name" v="Kørpefjellet" />
		<tag k="natural" v="hill" />
		<tag k="place" v="locality" />
		<tag k="ssr:stedsnr" v="755126" />
	</node>
	<node lat="59.41733611493364" lon="10.08432776960958" id="-47647">
		<tag k="fixme" v="consider natural=peak for the most distinct mountains in the district" />
		<tag k="name" v="Lånekollen" />
		<tag k="natural" v="hill" />
		<tag k="place" v="locality" />
		<tag k="ssr:stedsnr" v="755160" />
	</node>
	<node lat="59.41166666655807" lon="10.095769451290295" id="-47648">
		<tag k="fixme" v="consider natural=peak for the most distinct mountains in the district" />
		<tag k="name" v="Vardås" />
		<tag k="natural" v="hill" />
		<tag k="place" v="locality" />
		<tag k="ssr:stedsnr" v="755162" />
	</node>
	<node lat="59.41335000204614" lon="10.069338883450081" id="-47649">
		<tag k="fixme" v="consider natural=peak for the most distinct mountains in the district" />
		<tag k="name" v="Seteråsen" />
		<tag k="natural" v="hill" />
		<tag k="place" v="locality" />
		<tag k="ssr:stedsnr" v="755168" />
	</node>
	<node lat="59.39668055189935" lon="10.159558329227602" id="-47650">
		<tag k="fixme" v="consider natural=peak for the most distinct mountains in the district" />
		<tag k="name" v="Kjøkkenåsen" />
		<tag k="natural" v="hill" />
		<tag k="place" v="locality" />
		<tag k="ssr:stedsnr" v="755303" />
	</node>
	<node lat="59.34886666676645" lon="10.210319448304766" id="-47652">
		<tag k="name" v="Nyhusåsen" />
		<tag k="natural" v="hill" />
		<tag k="place" v="locality" />
		<tag k="ssr:stedsnr" v="755370" />
	</node>
	<node lat="59.45005555394472" lon="10.196324993093937" id="-47655">
		<tag k="fixme" v="consider natural=peak for the most distinct mountains in the district" />
		<tag k="name" v="Karihøgda" />
		<tag k="natural" v="hill" />
		<tag k="place" v="locality" />
		<tag k="ssr:stedsnr" v="755564" />
	</node>
	<node lat="59.32133333776898" lon="10.365363892418214" id="-47659">
		<tag k="fixme" v="consider natural=peak for the most distinct mountains in the district" />
		<tag k="name" v="Gulliåsen" />
		<tag k="natural" v="hill" />
		<tag k="place" v="locality" />
		<tag k="ssr:stedsnr" v="755769" />
	</node>
	<node lat="59.25888611496722" lon="10.364630549395617" id="-47681">
		<tag k="fixme" v="consider natural=peak for the most distinct mountains in the district" />
		<tag k="name" v="Høgås" />
		<tag k="natural" v="hill" />
		<tag k="place" v="locality" />
		<tag k="ssr:stedsnr" v="814430" />
	</node>
	<node lat="59.30206944011282" lon="10.471577784066818" id="-47682">
		<tag k="name" v="Kjelderbakken" />
		<tag k="natural" v="slope" />
		<tag k="place" v="locality" />
		<tag k="ssr:stedsnr" v="814812" />
	</node>
	<node lat="59.33603611145558" lon="10.479513889997994" id="-47684">
		<tag k="fixme" v="consider natural=peak for the most distinct mountains in the district" />
		<tag k="name" v="Rønningåsen" />
		<tag k="natural" v="hill" />
		<tag k="place" v="locality" />
		<tag k="ssr:stedsnr" v="814780" />
	</node>
	<node lat="59.30442222016111" lon="10.431566675264609" id="-47685">
		<tag k="name" v="Prestelia" />
		<tag k="natural" v="slope" />
		<tag k="place" v="locality" />
		<tag k="ssr:stedsnr" v="814788" />
	</node>
	<node lat="59.24575277588825" lon="10.356016672605273" id="-47690">
		<tag k="fixme" v="consider natural=peak for the most distinct mountains in the district" />
		<tag k="name" v="Robergåsen" />
		<tag k="natural" v="hill" />
		<tag k="place" v="locality" />
		<tag k="ssr:stedsnr" v="907132" />
	</node>
	<node lat="59.41936667076899" lon="10.165386112506825" id="-47691">
		<tag k="fixme" v="consider natural=peak for the most distinct mountains in the district" />
		<tag k="name" v="St. Hansåsen" />
		<tag k="natural" v="hill" />
		<tag k="place" v="locality" />
		<tag k="ssr:stedsnr" v="816281" />
	</node>
	<node lat="59.34605555552858" lon="10.357666664023323" id="-47698">
		<tag k="fixme" v="consider natural=peak for the most distinct mountains in the district" />
		<tag k="name" v="Signalen" />
		<tag k="natural" v="hill" />
		<tag k="place" v="locality" />
		<tag k="ssr:stedsnr" v="816827" />
	</node>
	<node lat="59.32210833504594" lon="10.355102784196692" id="-47700">
		<tag k="fixme" v="consider natural=peak for the most distinct mountains in the district" />
		<tag k="name" v="Storås" />
		<tag k="natural" v="hill" />
		<tag k="place" v="locality" />
		<tag k="ssr:stedsnr" v="816793" />
	</node>
	<node lat="59.34022222104934" lon="10.47889444635382" id="-47745">
		<tag k="name" v="Stangåsen" />
		<tag k="natural" v="hill" />
		<tag k="place" v="locality" />
		<tag k="ssr:stedsnr" v="874815" />
	</node>
	<node lat="59.27518055286399" lon="10.438669441516465" id="-47747">
		<tag k="fixme" v="consider natural=peak for the most distinct mountains in the district" />
		<tag k="name" v="Presterødåsen" />
		<tag k="natural" v="hill" />
		<tag k="place" v="locality" />
		<tag k="ssr:stedsnr" v="874759" />
	</node>
	<node lat="59.25419166414591" lon="10.371555556686578" id="-47753">
		<tag k="name" v="Utkikken" />
		<tag k="natural" v="cliff" />
		<tag k="ssr:stedsnr" v="875406" />
	</node>
	<node lat="59.25822777431622" lon="10.349000003218285" id="-47755">
		<tag k="fixme" v="consider natural=peak for the most distinct mountains in the district" />
		<tag k="name" v="Storåsen" />
		<tag k="natural" v="hill" />
		<tag k="place" v="locality" />
		<tag k="ssr:stedsnr" v="875412" />
	</node>
	<node lat="59.40541666560666" lon="10.190730556126354" id="-47764">
		<tag k="name" v="Askedalen" />
		<tag k="natural" v="valley" />
		<tag k="place" v="locality" />
		<tag k="ssr:stedsnr" v="877304" />
	</node>
	<node lat="59.40054444203253" lon="10.166191661440198" id="-47765">
		<tag k="fixme" v="consider natural=peak for the most distinct mountains in the district" />
		<tag k="name" v="Krøsstjønnåsen" />
		<tag k="natural" v="hill" />
		<tag k="place" v="locality" />
		<tag k="ssr:stedsnr" v="877308" />
	</node>
	<node lat="59.37149166236384" lon="10.190333324843655" id="-47766">
		<tag k="fixme" v="consider natural=peak for the most distinct mountains in the district" />
		<tag k="name" v="Brannåsen" />
		<tag k="natural" v="hill" />
		<tag k="place" v="locality" />
		<tag k="ssr:stedsnr" v="877355" />
	</node>
	<node lat="59.25631111076295" lon="10.350019447035905" id="-47795">
		<tag k="fixme" v="consider natural=peak for the most distinct mountains in the district" />
		<tag k="name" v="Råstadåsen" />
		<tag k="natural" v="hill" />
		<tag k="place" v="locality" />
		<tag k="ssr:stedsnr" v="935387" />
	</node>
	<node lat="59.2606305539237" lon="10.348016662360367" id="-47804">
		<tag k="fixme" v="consider natural=peak for the most distinct mountains in the district" />
		<tag k="name" v="Fløyåsen" />
		<tag k="natural" v="hill" />
		<tag k="place" v="locality" />
		<tag k="ssr:stedsnr" v="936390" />
	</node>
	<node lat="59.39032499837447" lon="10.207561111237341" id="-47813">
		<tag k="name" v="Pers-rønningen" />
		<tag k="natural" v="slope" />
		<tag k="place" v="locality" />
		<tag k="ssr:stedsnr" v="937340" />
	</node>
	<node lat="59.41848055748209" lon="10.211022226590767" id="-47814">
		<tag k="alt_name" v="Haga-berget" />
		<tag k="name" v="Hagaberget" />
		<tag k="natural" v="hill" />
		<tag k="place" v="locality" />
		<tag k="ssr:stedsnr" v="937345" />
	</node>
	<node lat="59.421274995989734" lon="10.209275006191513" id="-47815">
		<tag k="name" v="Brekka" />
		<tag k="natural" v="slope" />
		<tag k="place" v="locality" />
		<tag k="ssr:stedsnr" v="937346" />
	</node>
	<node lat="59.42155277540111" lon="10.157986118172728" id="-47819">
		<tag k="fixme" v="consider natural=peak for the most distinct mountains in the district" />
		<tag k="name" v="Hytteåsen" />
		<tag k="natural" v="hill" />
		<tag k="place" v="locality" />
		<tag k="ssr:stedsnr" v="937292" />
	</node>
	<node lat="59.33729722552949" lon="10.2107861027984" id="-47821">
		<tag k="name" v="Vardeplassen" />
		<tag k="natural" v="hill" />
		<tag k="place" v="locality" />
		<tag k="ssr:stedsnr" v="937388" />
	</node>
	<node lat="59.39030277908689" lon="10.228330550937953" id="-47823">
		<tag k="name" v="Rønningen" />
		<tag k="natural" v="slope" />
		<tag k="place" v="locality" />
		<tag k="ssr:stedsnr" v="937591" />
	</node>
	<node lat="59.340261107181625" lon="10.30036388097132" id="-47824">
		<tag k="name" v="Vaskersberget" />
		<tag k="natural" v="hill" />
		<tag k="place" v="locality" />
		<tag k="ssr:stedsnr" v="937733" />
	</node>
	<node lat="59.34480555532751" lon="10.311922224686995" id="-47826">
		<tag k="fixme" v="consider natural=peak for the most distinct mountains in the district" />
		<tag k="name" v="Kløvsåsen" />
		<tag k="natural" v="hill" />
		<tag k="place" v="locality" />
		<tag k="ssr:stedsnr" v="937738" />
	</node>
	<node lat="59.466969448357695" lon="10.185936104791416" id="-47837">
		<tag k="name" v="Dulpen" />
		<tag k="natural" v="hill" />
		<tag k="place" v="locality" />
		<tag k="ssr:stedsnr" v="938693" />
	</node>
	<node lat="59.32841666685492" lon="10.239758339274331" id="-47888">
		<tag k="fixme" v="consider natural=peak for the most distinct mountains in the district" />
		<tag k="name" v="Gullås" />
		<tag k="natural" v="hill" />
		<tag k="place" v="locality" />
		<tag k="ssr:stedsnr" v="2793" />
	</node>
	<node lat="59.25114722318585" lon="10.35791110398172" id="-47895">
		<tag k="fixme" v="consider natural=peak for the most distinct mountains in the district" />
		<tag k="name" v="Vearåsen" />
		<tag k="natural" v="hill" />
		<tag k="place" v="locality" />
		<tag k="ssr:stedsnr" v="25397" />
	</node>
	<node lat="59.25155555247926" lon="10.349375007339365" id="-47896">
		<tag k="fixme" v="consider natural=peak for the most distinct mountains in the district" />
		<tag k="name" v="Bruaåsen" />
		<tag k="natural" v="hill" />
		<tag k="place" v="locality" />
		<tag k="ssr:stedsnr" v="25398" />
	</node>
	<node lat="59.285847221829776" lon="10.385713881018262" id="-47901">
		<tag k="name" v="Farmannshaugen" />
		<tag k="natural" v="hill" />
		<tag k="place" v="locality" />
		<tag k="ssr:stedsnr" v="25985" />
	</node>
	<node lat="59.292600000471985" lon="10.395563882322085" id="-47902">
		<tag k="name" v="Tomsbakken" />
		<tag k="natural" v="slope" />
		<tag k="place" v="locality" />
		<tag k="ssr:stedsnr" v="25988" />
	</node>
	<node lat="59.39971389145684" lon="10.150733332266473" id="-47906">
		<tag k="fixme" v="consider natural=peak for the most distinct mountains in the district" />
		<tag k="name" v="Steinkleivåsen" />
		<tag k="natural" v="hill" />
		<tag k="place" v="locality" />
		<tag k="ssr:stedsnr" v="27080" />
	</node>
	<node lat="59.412780558767324" lon="10.111380547877785" id="-47913">
		<tag k="fixme" v="consider natural=peak for the most distinct mountains in the district" />
		<tag k="name" v="Hagaåsen" />
		<tag k="natural" v="hill" />
		<tag k="place" v="locality" />
		<tag k="ssr:stedsnr" v="27164" />
	</node>
	<node lat="59.45619167063653" lon="10.158941664965118" id="-47917">
		<tag k="fixme" v="consider natural=peak for the most distinct mountains in the district" />
		<tag k="name" v="Hagaåsen" />
		<tag k="natural" v="hill" />
		<tag k="place" v="locality" />
		<tag k="ssr:stedsnr" v="27565" />
	</node>
	<node lat="59.31674166302024" lon="10.284702773696091" id="-47918">
		<tag k="name" v="Ellefsrønningen" />
		<tag k="natural" v="slope" />
		<tag k="place" v="locality" />
		<tag k="ssr:stedsnr" v="27664" />
	</node>
	<node lat="59.42869999880382" lon="10.289761115612029" id="-47920">
		<tag k="fixme" v="consider natural=peak for the most distinct mountains in the district" />
		<tag k="name" v="Rånerudåsen" />
		<tag k="natural" v="hill" />
		<tag k="place" v="locality" />
		<tag k="ssr:stedsnr" v="27880" />
	</node>
	<node lat="59.36409167015738" lon="10.273088882971793" id="-47925">
		<tag k="fixme" v="consider natural=peak for the most distinct mountains in the district" />
		<tag k="name" v="Valleåsen" />
		<tag k="natural" v="hill" />
		<tag k="place" v="locality" />
		<tag k="ssr:stedsnr" v="27754" />
	</node>
	<node lat="59.34509999916767" lon="10.351591672182545" id="-47928">
		<tag k="fixme" v="consider natural=peak for the most distinct mountains in the district" />
		<tag k="name" v="Østre Holtås" />
		<tag k="natural" v="hill" />
		<tag k="place" v="locality" />
		<tag k="ssr:stedsnr" v="27830" />
	</node>
	<node lat="59.44588888569132" lon="10.11619166715906" id="-47941">
		<tag k="fixme" v="consider natural=peak for the most distinct mountains in the district" />
		<tag k="name" v="Lønskollen" />
		<tag k="natural" v="hill" />
		<tag k="place" v="locality" />
		<tag k="ssr:stedsnr" v="63086" />
	</node>
	<node lat="59.2716555545006" lon="10.477930558497452" id="-47962">
		<tag k="name" v="Løveid" />
		<tag k="place" v="locality" />
		<tag k="ssr:stedsnr" v="86757" />
	</node>
	<node lat="59.418644448704995" lon="10.125661109535423" id="-47964">
		<tag k="fixme" v="consider natural=peak for the most distinct mountains in the district" />
		<tag k="name" v="Kirkeåsen" />
		<tag k="natural" v="hill" />
		<tag k="place" v="locality" />
		<tag k="ssr:stedsnr" v="87351" />
	</node>
	<node lat="59.39336666580398" lon="10.11194165802774" id="-47973">
		<tag k="name" v="Spellemannsløkka" />
		<tag k="place" v="locality" />
		<tag k="ssr:stedsnr" v="88059" />
	</node>
	<node lat="59.40559721858464" lon="10.09411389329417" id="-47977">
		<tag k="name" v="Gampedalen" />
		<tag k="natural" v="valley" />
		<tag k="place" v="locality" />
		<tag k="ssr:stedsnr" v="88148" />
	</node>
	<node lat="59.383116668224346" lon="10.2904583297294" id="-47992">
		<tag k="name" v="Haug-Berg" />
		<tag k="natural" v="hill" />
		<tag k="place" v="locality" />
		<tag k="ssr:stedsnr" v="88744" />
	</node>
	<node lat="59.26913055343991" lon="10.317561110831043" id="-47996">
		<tag k="name" v="Hagen" />
		<tag k="natural" v="valley" />
		<tag k="place" v="locality" />
		<tag k="ssr:stedsnr" v="88624" />
	</node>
	<node lat="59.34502500330406" lon="10.307152774608639" id="-47998">
		<tag k="fixme" v="consider natural=peak for the most distinct mountains in the district" />
		<tag k="name" v="Dresleåsen" />
		<tag k="natural" v="hill" />
		<tag k="place" v="locality" />
		<tag k="ssr:stedsnr" v="88665" />
	</node>
	<node lat="59.33982777981887" lon="10.469369447962945" id="-48004">
		<tag k="name" v="Høkliåsen" />
		<tag k="natural" v="hill" />
		<tag k="place" v="locality" />
		<tag k="ssr:stedsnr" v="101987" />
	</node>
	<node lat="59.27196110746213" lon="10.40392221549219" id="-48023">
		<tag k="fixme" v="consider natural=peak for the most distinct mountains in the district" />
		<tag k="name" v="Slottsfjellet" />
		<tag k="natural" v="hill" />
		<tag k="place" v="locality" />
		<tag k="ssr:stedsnr" v="124606" />
	</node>
	<node lat="59.302144445712216" lon="10.440174991373233" id="-48032">
		<tag k="name" v="Kirkely" />
		<tag k="natural" v="valley" />
		<tag k="place" v="locality" />
		<tag k="ssr:stedsnr" v="146775" />
	</node>
	<node lat="59.26138889043614" lon="10.450536114757469" id="-48035">
		<tag k="fixme" v="consider natural=peak for the most distinct mountains in the district" />
		<tag k="name" v="Råelåsen" />
		<tag k="natural" v="hill" />
		<tag k="place" v="locality" />
		<tag k="ssr:stedsnr" v="146748" />
	</node>
	<node lat="59.44636944028365" lon="10.072352783443522" id="-48039">
		<tag k="fixme" v="consider natural=peak for the most distinct mountains in the district" />
		<tag k="name" v="Steråsen" />
		<tag k="natural" v="hill" />
		<tag k="place" v="locality" />
		<tag k="ssr:stedsnr" v="148091" />
	</node>
	<node lat="59.450969444968436" lon="10.077672221325313" id="-48040">
		<tag k="name" v="Berganlia" />
		<tag k="natural" v="slope" />
		<tag k="place" v="locality" />
		<tag k="ssr:stedsnr" v="148093" />
	</node>
	<node lat="59.444780551577836" lon="10.08388333136822" id="-48041">
		<tag k="fixme" v="consider natural=peak for the most distinct mountains in the district" />
		<tag k="name" v="Furuåsen" />
		<tag k="natural" v="hill" />
		<tag k="place" v="locality" />
		<tag k="ssr:stedsnr" v="148094" />
	</node>
	<node lat="59.42793888742429" lon="10.098936103001138" id="-48043">
		<tag k="fixme" v="consider natural=peak for the most distinct mountains in the district" />
		<tag k="name" v="Bjønnehytteåsen" />
		<tag k="natural" v="hill" />
		<tag k="place" v="locality" />
		<tag k="ssr:stedsnr" v="148020" />
	</node>
	<node lat="59.42119722332422" lon="10.164738895658331" id="-48046">
		<tag k="name" v="Holtungkreppa" />
		<tag k="natural" v="hill" />
		<tag k="place" v="locality" />
		<tag k="ssr:stedsnr" v="148295" />
	</node>
	<node lat="59.34620277684624" lon="10.226772218851563" id="-48048">
		<tag k="fixme" v="consider natural=peak for the most distinct mountains in the district" />
		<tag k="name" v="Glomsås" />
		<tag k="natural" v="hill" />
		<tag k="place" v="locality" />
		<tag k="ssr:stedsnr" v="148299" />
	</node>
	<node lat="59.26948888868082" lon="10.305002771923363" id="-48051">
		<tag k="fixme" v="consider natural=peak for the most distinct mountains in the district" />
		<tag k="name" v="Holmenåsen" />
		<tag k="natural" v="hill" />
		<tag k="place" v="locality" />
		<tag k="ssr:stedsnr" v="148695" />
	</node>
	<node lat="59.41006388782704" lon="10.105600004475656" id="-48053">
		<tag k="fixme" v="consider natural=peak for the most distinct mountains in the district" />
		<tag k="name" v="Ytre Vardås" />
		<tag k="natural" v="hill" />
		<tag k="place" v="locality" />
		<tag k="ssr:stedsnr" v="148194" />
	</node>
	<node lat="59.41087222411685" lon="10.212105557398417" id="-48057">
		<tag k="name" v="Klokkerhølet" />
		<tag k="place" v="locality" />
		<tag k="ssr:stedsnr" v="148334" />
	</node>
	<node lat="59.31964999920137" lon="10.252308324875699" id="-48059">
		<tag k="fixme" v="consider natural=peak for the most distinct mountains in the district" />
		<tag k="name" v="Rånerødkollen" />
		<tag k="natural" v="hill" />
		<tag k="place" v="locality" />
		<tag k="ssr:stedsnr" v="148438" />
	</node>
	<node lat="59.35832222042048" lon="10.305555547725618" id="-48062">
		<tag k="fixme" v="consider natural=peak for the most distinct mountains in the district" />
		<tag k="name" v="Stamnås" />
		<tag k="natural" v="hill" />
		<tag k="place" v="locality" />
		<tag k="ssr:stedsnr" v="148726" />
	</node>
	<node lat="59.436224998982375" lon="10.16457500504299" id="-48063">
		<tag k="name" v="Marenstua" />
		<tag k="natural" v="slope" />
		<tag k="place" v="locality" />
		<tag k="ssr:stedsnr" v="148553" />
	</node>
	<node lat="59.40408611214667" lon="10.310255557423282" id="-48067">
		<tag k="fixme" v="consider natural=peak for the most distinct mountains in the district" />
		<tag k="name" v="Kollsås" />
		<tag k="natural" v="hill" />
		<tag k="place" v="locality" />
		<tag k="ssr:stedsnr" v="148828" />
	</node>
	<node lat="59.277194442391405" lon="10.47804167171402" id="-48099">
		<tag k="name" v="Åsheim" />
		<tag k="natural" v="slope" />
		<tag k="place" v="locality" />
		<tag k="ssr:stedsnr" v="207727" />
	</node>
	<node lat="59.28026944058956" lon="10.450313884806457" id="-48103">
		<tag k="fixme" v="consider natural=peak for the most distinct mountains in the district" />
		<tag k="name" v="Sandeåsen" />
		<tag k="natural" v="hill" />
		<tag k="place" v="locality" />
		<tag k="ssr:stedsnr" v="207725" />
	</node>
	<node lat="59.28291110976066" lon="10.406469439718405" id="-48109">
		<tag k="fixme" v="consider natural=peak for the most distinct mountains in the district" />
		<tag k="name" v="Frodeåsen" />
		<tag k="natural" v="hill" />
		<tag k="place" v="locality" />
		<tag k="ssr:stedsnr" v="207988" />
	</node>
	<node lat="59.283202776577184" lon="10.402983327500806" id="-48110">
		<tag k="name" v="Kjellelia" />
		<tag k="natural" v="slope" />
		<tag k="place" v="locality" />
		<tag k="ssr:stedsnr" v="207990" />
	</node>
	<node lat="59.42633888726013" lon="10.065963891625687" id="-48111">
		<tag k="name" v="Kastet" />
		<tag k="natural" v="slope" />
		<tag k="place" v="locality" />
		<tag k="ssr:stedsnr" v="209006" />
	</node>
	<node lat="59.44438333135514" lon="10.149700005790368" id="-48112">
		<tag k="fixme" v="consider natural=peak for the most distinct mountains in the district" />
		<tag k="name" v="Østre Kjærsåsen" />
		<tag k="natural" v="hill" />
		<tag k="place" v="locality" />
		<tag k="ssr:stedsnr" v="209023" />
	</node>
	<node lat="59.40551666398448" lon="10.08835832998019" id="-48115">
		<tag k="name" v="Skrubbedal" />
		<tag k="natural" v="valley" />
		<tag k="place" v="locality" />
		<tag k="ssr:stedsnr" v="209163" />
	</node>
	<node lat="59.406036110258285" lon="10.069533326205672" id="-48116">
		<tag k="fixme" v="consider natural=peak for the most distinct mountains in the district" />
		<tag k="name" v="Høymyråsen" />
		<tag k="natural" v="hill" />
		<tag k="place" v="locality" />
		<tag k="ssr:stedsnr" v="209167" />
	</node>
	<node lat="59.4073722213716" lon="10.05896389684258" id="-48117">
		<tag k="name" v="Øktedalen" />
		<tag k="natural" v="valley" />
		<tag k="place" v="locality" />
		<tag k="ssr:stedsnr" v="209180" />
	</node>
	<node lat="59.37516944505298" lon="10.217241669895873" id="-48120">
		<tag k="fixme" v="consider natural=peak for the most distinct mountains in the district" />
		<tag k="name" v="Skarsåsen" />
		<tag k="natural" v="hill" />
		<tag k="place" v="locality" />
		<tag k="ssr:stedsnr" v="209344" />
	</node>
	<node lat="59.444483331663896" lon="10.140947222128345" id="-48121">
		<tag k="fixme" v="consider natural=peak for the most distinct mountains in the district" />
		<tag k="name" v="Vestre Kjærsåsen" />
		<tag k="natural" v="hill" />
		<tag k="place" v="locality" />
		<tag k="ssr:stedsnr" v="209124" />
	</node>
	<node lat="59.38597777362165" lon="10.176402769978523" id="-48122">
		<tag k="name" v="Kastet" />
		<tag k="natural" v="hill" />
		<tag k="place" v="locality" />
		<tag k="ssr:stedsnr" v="209310" />
	</node>
	<node lat="59.42161944043738" lon="10.207947213598334" id="-48124">
		<tag k="name" v="Mandalstua" />
		<tag k="natural" v="slope" />
		<tag k="place" v="locality" />
		<tag k="ssr:stedsnr" v="209320" />
	</node>
	<node lat="59.41000277530365" lon="10.26471111205001" id="-48125">
		<tag k="name" v="Rambergkollen" />
		<tag k="natural" v="hill" />
		<tag k="place" v="locality" />
		<tag k="ssr:stedsnr" v="209325" />
	</node>
	<node lat="59.3136222265178" lon="10.233583336883994" id="-48128">
		<tag k="fixme" v="consider natural=peak for the most distinct mountains in the district" />
		<tag k="name" v="Grorudåsen" />
		<tag k="natural" v="hill" />
		<tag k="place" v="locality" />
		<tag k="ssr:stedsnr" v="209338" />
	</node>
	<node lat="59.31855277601718" lon="10.275027786025175" id="-48131">
		<tag k="name" v="Larsrønningen" />
		<tag k="natural" v="slope" />
		<tag k="place" v="locality" />
		<tag k="ssr:stedsnr" v="209655" />
	</node>
	<node lat="59.31806666656034" lon="10.291138887393569" id="-48132">
		<tag k="fixme" v="consider natural=peak for the most distinct mountains in the district" />
		<tag k="name" v="Ellefsrønningsåsen" />
		<tag k="natural" v="hill" />
		<tag k="place" v="locality" />
		<tag k="ssr:stedsnr" v="209657" />
	</node>
	<node lat="59.32996944209076" lon="10.299269452804733" id="-48133">
		<tag k="fixme" v="consider natural=peak for the most distinct mountains in the district" />
		<tag k="name" v="Kloppåsen" />
		<tag k="natural" v="hill" />
		<tag k="place" v="locality" />
		<tag k="ssr:stedsnr" v="209670" />
	</node>
	<node lat="59.34891111328313" lon="10.303855556877197" id="-48139">
		<tag k="name" v="Stordal" />
		<tag k="natural" v="valley" />
		<tag k="place" v="locality" />
		<tag k="ssr:stedsnr" v="209716" />
	</node>
	<node lat="59.309163890862095" lon="10.305299993985543" id="-48143">
		<tag k="name" v="Pandedalen" />
		<tag k="natural" v="valley" />
		<tag k="place" v="locality" />
		<tag k="ssr:stedsnr" v="209757" />
	</node>
	<node lat="59.3327166702709" lon="10.36091666939353" id="-48144">
		<tag k="fixme" v="consider natural=peak for the most distinct mountains in the district" />
		<tag k="name" v="Høiås" />
		<tag k="natural" v="hill" />
		<tag k="place" v="locality" />
		<tag k="ssr:stedsnr" v="209762" />
	</node>
	<node lat="59.366447218275724" lon="10.279955561585776" id="-48146">
		<tag k="fixme" v="consider natural=peak for the most distinct mountains in the district" />
		<tag k="name" v="Lefsrødåsen" />
		<tag k="natural" v="hill" />
		<tag k="place" v="locality" />
		<tag k="ssr:stedsnr" v="209733" />
	</node>
	<node lat="59.3058777787762" lon="10.469475004145142" id="-48160">
		<tag k="fixme" v="consider natural=peak for the most distinct mountains in the district" />
		<tag k="name" v="Hassumåsen" />
		<tag k="natural" v="hill" />
		<tag k="place" v="locality" />
		<tag k="ssr:stedsnr" v="267794" />
	</node>
	<node lat="59.42093055975864" lon="10.099066672287718" id="-48165">
		<tag k="fixme" v="consider natural=peak for the most distinct mountains in the district" />
		<tag k="name" v="Høgås" />
		<tag k="natural" v="hill" />
		<tag k="place" v="locality" />
		<tag k="ssr:stedsnr" v="270025" />
	</node>
	<node lat="59.38658333448349" lon="10.066738892939712" id="-48166">
		<tag k="name" v="Kølavedhogstet" />
		<tag k="natural" v="hill" />
		<tag k="place" v="locality" />
		<tag k="ssr:stedsnr" v="270060" />
	</node>
	<node lat="59.386369442397765" lon="10.061324996299632" id="-48167">
		<tag k="fixme" v="consider natural=peak for the most distinct mountains in the district" />
		<tag k="name" v="Kotås" />
		<tag k="natural" v="hill" />
		<tag k="place" v="locality" />
		<tag k="ssr:stedsnr" v="270061" />
	</node>
	<node lat="59.4398499973133" lon="10.207505563055427" id="-48172">
		<tag k="name" v="Våle" />
		<tag k="place" v="locality" />
		<tag k="ssr:stedsnr" v="270642" />
	</node>
	<node lat="59.316533333898875" lon="10.266530547300215" id="-48173">
		<tag k="name" v="Kleivbakken" />
		<tag k="natural" v="slope" />
		<tag k="place" v="locality" />
		<tag k="ssr:stedsnr" v="270434" />
	</node>
	<node lat="59.4444361094248" lon="10.164380547740851" id="-48180">
		<tag k="fixme" v="consider natural=peak for the most distinct mountains in the district" />
		<tag k="name" v="Lianhøgås" />
		<tag k="natural" v="hill" />
		<tag k="place" v="locality" />
		<tag k="ssr:stedsnr" v="270560" />
	</node>
	<node lat="59.326033333098565" lon="10.300102769183908" id="-48187">
		<tag k="name" v="Himbergrønningen" />
		<tag k="natural" v="slope" />
		<tag k="place" v="locality" />
		<tag k="ssr:stedsnr" v="270661" />
	</node>
	<node lat="59.40254166725179" lon="10.282816665460329" id="-48198">
		<tag k="name" v="Skogsholmen" />
		<tag k="natural" v="slope" />
		<tag k="place" v="locality" />
		<tag k="ssr:stedsnr" v="270814" />
	</node>
	<node lat="59.39192499853984" lon="10.181361106896489" id="-48215">
		<tag k="fixme" v="consider natural=peak for the most distinct mountains in the district" />
		<tag k="name" v="Geitryggen" />
		<tag k="natural" v="hill" />
		<tag k="place" v="locality" />
		<tag k="ssr:stedsnr" v="305222" />
	</node>
	<node lat="59.389463891543045" lon="10.152155554969637" id="-48219">
		<tag k="fixme" v="consider natural=peak for the most distinct mountains in the district" />
		<tag k="name" v="Nabberen" />
		<tag k="natural" v="hill" />
		<tag k="place" v="locality" />
		<tag k="ssr:stedsnr" v="305243" />
	</node>
	<node lat="59.40768333211147" lon="10.087319452703374" id="-48239">
		<tag k="fixme" v="consider natural=peak for the most distinct mountains in the district" />
		<tag k="name" v="Andersmyråsen" />
		<tag k="natural" v="hill" />
		<tag k="place" v="locality" />
		<tag k="ssr:stedsnr" v="330190" />
	</node>
	<node lat="59.28952499628738" lon="10.494116665682963" id="-48241">
		<tag k="name" v="Basbergrønningen" />
		<tag k="natural" v="slope" />
		<tag k="place" v="locality" />
		<tag k="ssr:stedsnr" v="330232" />
	</node>
	<node lat="59.44472222070841" lon="10.133983330442446" id="-48242">
		<tag k="fixme" v="consider natural=peak for the most distinct mountains in the district" />
		<tag k="name" v="Krøkliåsen" />
		<tag k="natural" v="hill" />
		<tag k="place" v="locality" />
		<tag k="ssr:stedsnr" v="330155" />
	</node>
	<node lat="59.342836110022525" lon="10.223877771324572" id="-48243">
		<tag k="fixme" v="consider natural=peak for the most distinct mountains in the district" />
		<tag k="name" v="Skytøyåsen" />
		<tag k="natural" v="hill" />
		<tag k="place" v="locality" />
		<tag k="ssr:stedsnr" v="330289" />
	</node>
	<node lat="59.37568610686672" lon="10.233369447086806" id="-48245">
		<tag k="fixme" v="consider natural=peak for the most distinct mountains in the district" />
		<tag k="name" v="Bingenåsen" />
		<tag k="natural" v="hill" />
		<tag k="place" v="locality" />
		<tag k="ssr:stedsnr" v="330386" />
	</node>
	<node lat="59.40505833467157" lon="10.225894439010796" id="-48246">
		<tag k="alt_name" v="Skrikestad-hagen" />
		<tag k="name" v="Skrikestadhagen" />
		<tag k="place" v="locality" />
		<tag k="ssr:stedsnr" v="330335" />
	</node>
	<node lat="59.35785833364962" lon="10.196141661019027" id="-48248">
		<tag k="fixme" v="consider natural=peak for the most distinct mountains in the district" />
		<tag k="name" v="Jareåsen" />
		<tag k="natural" v="hill" />
		<tag k="place" v="locality" />
		<tag k="ssr:stedsnr" v="330349" />
	</node>
	<node lat="59.44866111147492" lon="10.09089999167141" id="-48257">
		<tag k="fixme" v="consider natural=peak for the most distinct mountains in the district" />
		<tag k="name" v="Lilåsen" />
		<tag k="natural" v="hill" />
		<tag k="place" v="locality" />
		<tag k="ssr:stedsnr" v="331098" />
	</node>
	<node lat="59.350908333942655" lon="10.30160000663606" id="-48258">
		<tag k="fixme" v="consider natural=peak for the most distinct mountains in the district" />
		<tag k="name" v="Skjeggestadåsen" />
		<tag k="natural" v="hill" />
		<tag k="place" v="locality" />
		<tag k="ssr:stedsnr" v="330755" />
	</node>
	<node lat="59.34414444352684" lon="10.33525000247363" id="-48262">
		<tag k="fixme" v="consider natural=peak for the most distinct mountains in the district" />
		<tag k="name" v="Hornsåsen" />
		<tag k="natural" v="hill" />
		<tag k="place" v="locality" />
		<tag k="ssr:stedsnr" v="330845" />
	</node>
	<node lat="59.44233055120881" lon="10.225436104014479" id="-48268">
		<tag k="name" v="Helgerød" />
		<tag k="place" v="locality" />
		<tag k="ssr:stedsnr" v="331635" />
	</node>
	<node lat="59.31789722357898" lon="10.285469451656008" id="-48270">
		<tag k="fixme" v="consider natural=peak for the most distinct mountains in the district" />
		<tag k="name" v="Oserødåsen" />
		<tag k="natural" v="hill" />
		<tag k="place" v="locality" />
		<tag k="ssr:stedsnr" v="331649" />
	</node>
	<node lat="59.31515833661846" lon="10.286727771467602" id="-48271">
		<tag k="fixme" v="consider natural=peak for the most distinct mountains in the district" />
		<tag k="name" v="Byåsen" />
		<tag k="natural" v="hill" />
		<tag k="place" v="locality" />
		<tag k="ssr:stedsnr" v="331652" />
	</node>
	<node lat="59.32274444228335" lon="10.27542221505548" id="-48272">
		<tag k="name" v="Grinnbakken" />
		<tag k="natural" v="slope" />
		<tag k="place" v="locality" />
		<tag k="ssr:stedsnr" v="331655" />
	</node>
	<node lat="59.32173333074088" lon="10.32108054739768" id="-48273">
		<tag k="fixme" v="consider natural=peak for the most distinct mountains in the district" />
		<tag k="name" v="Toenåsen" />
		<tag k="natural" v="hill" />
		<tag k="place" v="locality" />
		<tag k="ssr:stedsnr" v="331656" />
	</node>
	<node lat="59.412013886714334" lon="10.099694447693945" id="-48313">
		<tag k="name" v="Bånnhølet" />
		<tag k="natural" v="valley" />
		<tag k="place" v="locality" />
		<tag k="ssr:stedsnr" v="391190" />
	</node>
	<node lat="59.3842444427609" lon="10.17982778060344" id="-48314">
		<tag k="name" v="Rønningensvingen" />
		<tag k="natural" v="slope" />
		<tag k="place" v="locality" />
		<tag k="ssr:stedsnr" v="391316" />
	</node>
	<node lat="59.384988891381845" lon="10.183502780434802" id="-48315">
		<tag k="name" v="Sagbakken" />
		<tag k="natural" v="slope" />
		<tag k="place" v="locality" />
		<tag k="ssr:stedsnr" v="391318" />
	</node>
	<node lat="59.271475001642145" lon="10.344658328936495" id="-48318">
		<tag k="fixme" v="consider natural=peak for the most distinct mountains in the district" />
		<tag k="name" v="Manumåsen" />
		<tag k="natural" v="hill" />
		<tag k="place" v="locality" />
		<tag k="ssr:stedsnr" v="391693" />
	</node>
	<node lat="59.30586944819373" lon="10.274791661505375" id="-48328">
		<tag k="name" v="Skillelegda" />
		<tag k="natural" v="valley" />
		<tag k="place" v="locality" />
		<tag k="ssr:stedsnr" v="391768" />
	</node>
	<node lat="59.33112778032946" lon="10.367874994087877" id="-48330">
		<tag k="fixme" v="consider natural=peak for the most distinct mountains in the district" />
		<tag k="name" v="Høiloft" />
		<tag k="natural" v="hill" />
		<tag k="place" v="locality" />
		<tag k="ssr:stedsnr" v="391778" />
	</node>
	<node lat="59.38755555979809" lon="10.131194446765313" id="-48347">
		<tag k="fixme" v="consider natural=peak for the most distinct mountains in the district" />
		<tag k="name" v="Skjoldåsen" />
		<tag k="natural" v="hill" />
		<tag k="place" v="locality" />
		<tag k="ssr:stedsnr" v="414783" />
	</node>
	<node lat="59.31036389334334" lon="10.465199999132853" id="-48399">
		<tag k="name" v="Horgen" />
		<tag k="place" v="locality" />
		<tag k="ssr:stedsnr" v="510831" />
	</node>
	<node lat="59.23371111438702" lon="10.470847228497005" id="-48400">
		<tag k="name" v="Bloksberg" />
		<tag k="natural" v="hill" />
		<tag k="place" v="locality" />
		<tag k="ssr:stedsnr" v="511000" />
	</node>
	<node lat="59.400752774772364" lon="10.067616674396477" id="-48405">
		<tag k="fixme" v="consider natural=peak for the most distinct mountains in the district" />
		<tag k="name" v="Merkedamsåsen" />
		<tag k="natural" v="hill" />
		<tag k="place" v="locality" />
		<tag k="ssr:stedsnr" v="512174" />
	</node>
	<node lat="59.408791664396595" lon="10.219600006042468" id="-48408">
		<tag k="name" v="Kjellerhaugen" />
		<tag k="natural" v="hill" />
		<tag k="place" v="locality" />
		<tag k="ssr:stedsnr" v="512303" />
	</node>
	<node lat="59.40495277967561" lon="10.192847221786023" id="-48409">
		<tag k="fixme" v="consider natural=peak for the most distinct mountains in the district" />
		<tag k="name" v="Fonshøgås" />
		<tag k="natural" v="hill" />
		<tag k="place" v="locality" />
		<tag k="ssr:stedsnr" v="512318" />
	</node>
	<node lat="59.34884721990338" lon="10.206891669222633" id="-48417">
		<tag k="name" v="Heddeleet" />
		<tag k="natural" v="hill" />
		<tag k="place" v="locality" />
		<tag k="ssr:stedsnr" v="512363" />
	</node>
	<node lat="59.347838886982984" lon="10.228852776551905" id="-48418">
		<tag k="name" v="Tinghaugbakken" />
		<tag k="natural" v="slope" />
		<tag k="place" v="locality" />
		<tag k="ssr:stedsnr" v="512375" />
	</node>
	<node lat="59.31393237490646" lon="10.306093113622108" id="-48426">
		<tag k="fixme" v="consider natural=peak for the most distinct mountains in the district" />
		<tag k="name" v="Klepperås" />
		<tag k="natural" v="hill" />
		<tag k="place" v="locality" />
		<tag k="ssr:stedsnr" v="512772" />
	</node>
	<node lat="59.457369448760026" lon="10.18955833927172" id="-48428">
		<tag k="fixme" v="consider natural=peak for the most distinct mountains in the district" />
		<tag k="name" v="Brattsjuve" />
		<tag k="natural" v="hill" />
		<tag k="place" v="locality" />
		<tag k="ssr:stedsnr" v="512572" />
	</node>
	<node lat="59.31502778093475" lon="10.339358328217937" id="-48468">
		<tag k="fixme" v="consider natural=peak for the most distinct mountains in the district" />
		<tag k="name" v="Fresteåsen" />
		<tag k="natural" v="hill" />
		<tag k="place" v="locality" />
		<tag k="ssr:stedsnr" v="549783" />
	</node>
	<node lat="59.29210555443915" lon="10.434458341131618" id="-48474">
		<tag k="name" v="Slagendalen" />
		<tag k="natural" v="valley" />
		<tag k="place" v="locality" />
		<tag k="ssr:stedsnr" v="570986" />
	</node>
	<node lat="59.41874721907368" lon="10.100152781233502" id="-48481">
		<tag k="name" v="Åtebakkene" />
		<tag k="natural" v="slope" />
		<tag k="place" v="locality" />
		<tag k="ssr:stedsnr" v="573185" />
	</node>
	<node lat="59.409191663536724" lon="10.100986112954272" id="-48482">
		<tag k="fixme" v="consider natural=peak for the most distinct mountains in the district" />
		<tag k="name" v="Lyåsen" />
		<tag k="natural" v="hill" />
		<tag k="place" v="locality" />
		<tag k="ssr:stedsnr" v="573188" />
	</node>
	<node lat="59.33197777477432" lon="10.227744444209554" id="-48484">
		<tag k="fixme" v="consider natural=peak for the most distinct mountains in the district" />
		<tag k="name" v="Rolighetåsen" />
		<tag k="natural" v="hill" />
		<tag k="place" v="locality" />
		<tag k="ssr:stedsnr" v="573424" />
	</node>
	<node lat="59.33787499597875" lon="10.213116660007735" id="-48485">
		<tag k="fixme" v="consider natural=peak for the most distinct mountains in the district" />
		<tag k="name" v="Søndre Brattås" />
		<tag k="natural" v="hill" />
		<tag k="place" v="locality" />
		<tag k="ssr:stedsnr" v="573285" />
	</node>
	<node lat="59.39265277943491" lon="10.197155561514878" id="-48487">
		<tag k="fixme" v="consider natural=peak for the most distinct mountains in the district" />
		<tag k="name" v="Tjuveberget" />
		<tag k="natural" v="hill" />
		<tag k="place" v="locality" />
		<tag k="ssr:stedsnr" v="573288" />
	</node>
	<node lat="59.385472225789044" lon="10.235424998370602" id="-48490">
		<tag k="fixme" v="consider natural=peak for the most distinct mountains in the district" />
		<tag k="name" v="Kileåsen" />
		<tag k="natural" v="hill" />
		<tag k="place" v="locality" />
		<tag k="ssr:stedsnr" v="573536" />
	</node>
	<node lat="59.46725832886815" lon="10.216825001693833" id="-48498">
		<tag k="fixme" v="consider natural=peak for the most distinct mountains in the district" />
		<tag k="name" v="Ulåsen" />
		<tag k="natural" v="hill" />
		<tag k="place" v="locality" />
		<tag k="ssr:stedsnr" v="573671" />
	</node>
	<node lat="59.36020277591687" lon="10.281591674417012" id="-48505">
		<tag k="fixme" v="consider natural=peak for the most distinct mountains in the district" />
		<tag k="name" v="Bøåsen" />
		<tag k="natural" v="hill" />
		<tag k="place" v="locality" />
		<tag k="ssr:stedsnr" v="573711" />
	</node>
	<node lat="59.27183055398824" lon="10.355752778412958" id="-48534">
		<tag k="fixme" v="consider natural=peak for the most distinct mountains in the district" />
		<tag k="name" v="Bjellandsåsen" />
		<tag k="natural" v="hill" />
		<tag k="place" v="locality" />
		<tag k="ssr:stedsnr" v="631381" />
	</node>
	<node lat="59.25027777605937" lon="10.471005551549029" id="-48543">
		<tag k="fixme" v="consider natural=peak for the most distinct mountains in the district" />
		<tag k="name" v="Kikkut" />
		<tag k="natural" v="hill" />
		<tag k="place" v="locality" />
		<tag k="ssr:stedsnr" v="631965" />
	</node>
	<node lat="59.38773055137446" lon="10.049747224010941" id="-48546">
		<tag k="fixme" v="consider natural=peak for the most distinct mountains in the district" />
		<tag k="name" v="Lauvåsen" />
		<tag k="natural" v="hill" />
		<tag k="place" v="locality" />
		<tag k="ssr:stedsnr" v="633079" />
	</node>
	<node lat="59.43570833550781" lon="10.062450004882212" id="-48548">
		<tag k="fixme" v="consider natural=peak for the most distinct mountains in the district" />
		<tag k="name" v="Loftåsene" />
		<tag k="natural" v="hill" />
		<tag k="place" v="locality" />
		<tag k="ssr:stedsnr" v="633149" />
	</node>
	<node lat="59.28000833657181" lon="10.499727782514363" id="-48553">
		<tag k="fixme" v="consider natural=peak for the most distinct mountains in the district" />
		<tag k="name" v="Kjempeåsen" />
		<tag k="natural" v="hill" />
		<tag k="place" v="locality" />
		<tag k="ssr:stedsnr" v="633231" />
	</node>
	<node lat="59.41284999844367" lon="10.107744441525002" id="-48554">
		<tag k="name" v="Plassjordet" />
		<tag k="place" v="locality" />
		<tag k="ssr:stedsnr" v="633232" />
	</node>
	<node lat="59.380591662423925" lon="10.186386107877851" id="-48556">
		<tag k="name" v="Busterønningen" />
		<tag k="natural" v="hill" />
		<tag k="place" v="locality" />
		<tag k="ssr:stedsnr" v="633317" />
	</node>
	<node lat="59.414866665647956" lon="10.211713882956506" id="-48558">
		<tag k="fixme" v="consider natural=peak for the most distinct mountains in the district" />
		<tag k="name" v="Kjeldås" />
		<tag k="natural" v="hill" />
		<tag k="place" v="locality" />
		<tag k="ssr:stedsnr" v="633329" />
	</node>
	<node lat="59.450494447984624" lon="10.162502784347145" id="-48565">
		<tag k="name" v="Tubbil-løkka" />
		<tag k="place" v="locality" />
		<tag k="ssr:stedsnr" v="633563" />
	</node>
	<node lat="59.39308611246016" lon="10.228938884122451" id="-48567">
		<tag k="name" v="Brånalia" />
		<tag k="natural" v="slope" />
		<tag k="place" v="locality" />
		<tag k="ssr:stedsnr" v="633577" />
	</node>
	<node lat="59.46944444377958" lon="10.181158340808818" id="-48568">
		<tag k="fixme" v="consider natural=peak for the most distinct mountains in the district" />
		<tag k="name" v="Endeåsen" />
		<tag k="natural" v="hill" />
		<tag k="place" v="locality" />
		<tag k="ssr:stedsnr" v="633720" />
	</node>
	<node lat="59.33597222516663" lon="10.359786106713939" id="-48570">
		<tag k="name" v="Trengsla" />
		<tag k="natural" v="valley" />
		<tag k="place" v="locality" />
		<tag k="ssr:stedsnr" v="633775" />
	</node>
	<node lat="59.315805554900045" lon="10.338461110189941" id="-48571">
		<tag k="fixme" v="consider natural=peak for the most distinct mountains in the district" />
		<tag k="name" v="Åleborgåsen" />
		<tag k="natural" v="hill" />
		<tag k="place" v="locality" />
		<tag k="ssr:stedsnr" v="633781" />
	</node>
	<node lat="59.37657222501979" lon="10.22076388909067" id="-48584">
		<tag k="fixme" v="consider natural=peak for the most distinct mountains in the district" />
		<tag k="name" v="Brattås" />
		<tag k="natural" v="hill" />
		<tag k="place" v="locality" />
		<tag k="ssr:stedsnr" v="730193" />
	</node>
	<node lat="59.3939083293048" lon="10.09593333520579" id="-48609">
		<tag k="name" v="Sletterønningen" />
		<tag k="place" v="locality" />
		<tag k="ssr:stedsnr" v="755086" />
	</node>
	<node lat="59.43572221876599" lon="10.105247226948086" id="-48611">
		<tag k="fixme" v="consider natural=peak for the most distinct mountains in the district" />
		<tag k="name" v="Okollen" />
		<tag k="natural" v="hill" />
		<tag k="place" v="locality" />
		<tag k="ssr:stedsnr" v="755009" />
	</node>
	<node lat="59.431163887815046" lon="10.10293055813963" id="-48613">
		<tag k="name" v="Stueløkka" />
		<tag k="place" v="locality" />
		<tag k="ssr:stedsnr" v="755024" />
	</node>
	<node lat="59.31850555723229" lon="10.265822222529891" id="-48615">
		<tag k="fixme" v="consider natural=peak for the most distinct mountains in the district" />
		<tag k="name" v="Laukåsen" />
		<tag k="natural" v="hill" />
		<tag k="place" v="locality" />
		<tag k="ssr:stedsnr" v="755441" />
	</node>
	<node lat="59.37664722115946" lon="10.232608334821805" id="-48616">
		<tag k="name" v="Bingenløkka" />
		<tag k="natural" v="valley" />
		<tag k="place" v="locality" />
		<tag k="ssr:stedsnr" v="755377" />
	</node>
	<node lat="59.37711388753028" lon="10.23779721715421" id="-48617">
		<tag k="name" v="Farbakk" />
		<tag k="natural" v="slope" />
		<tag k="place" v="locality" />
		<tag k="ssr:stedsnr" v="755381" />
	</node>
	<node lat="59.43994166521805" lon="10.163341670453056" id="-48628">
		<tag k="name" v="Svenskestua" />
		<tag k="natural" v="slope" />
		<tag k="place" v="locality" />
		<tag k="ssr:stedsnr" v="755535" />
	</node>
	<node lat="59.45939444320218" lon="10.225627773392029" id="-48629">
		<tag k="fixme" v="consider natural=peak for the most distinct mountains in the district" />
		<tag k="name" v="Kalsrudåsen" />
		<tag k="natural" v="hill" />
		<tag k="place" v="locality" />
		<tag k="ssr:stedsnr" v="755544" />
	</node>
	<node lat="59.28025277673714" lon="10.42873611777088" id="-48665">
		<tag k="name" v="Trudvanglia" />
		<tag k="natural" v="slope" />
		<tag k="place" v="locality" />
		<tag k="ssr:stedsnr" v="814751" />
	</node>
	<node lat="59.40568055475072" lon="10.152424995767653" id="-48674">
		<tag k="fixme" v="consider natural=peak for the most distinct mountains in the district" />
		<tag k="name" v="Sikan" />
		<tag k="natural" v="hill" />
		<tag k="place" v="locality" />
		<tag k="ssr:stedsnr" v="816186" />
	</node>
	<node lat="59.395513891173294" lon="10.099230558096638" id="-48679">
		<tag k="name" v="Osplundbotn" />
		<tag k="natural" v="valley" />
		<tag k="place" v="locality" />
		<tag k="ssr:stedsnr" v="816091" />
	</node>
	<node lat="59.378536112517395" lon="10.234825005363232" id="-48688">
		<tag k="name" v="Jonasløkka" />
		<tag k="natural" v="slope" />
		<tag k="place" v="locality" />
		<tag k="ssr:stedsnr" v="816369" />
	</node>
	<node lat="59.425213888945464" lon="10.062797215582586" id="-48706">
		<tag k="alt_name" v="Snipene" />
		<tag k="fixme" v="consider natural=peak for the most distinct mountains in the district" />
		<tag k="name" v="Snippane" />
		<tag k="natural" v="hill" />
		<tag k="place" v="locality" />
		<tag k="ssr:stedsnr" v="852159" />
	</node>
	<node lat="59.430105555413" lon="10.084611113866785" id="-48707">
		<tag k="fixme" v="consider natural=peak for the most distinct mountains in the district" />
		<tag k="name" v="Storås" />
		<tag k="natural" v="hill" />
		<tag k="place" v="locality" />
		<tag k="ssr:stedsnr" v="852160" />
	</node>
	<node lat="59.313597221247996" lon="10.476424997008106" id="-48725">
		<tag k="name" v="Langbrekke" />
		<tag k="natural" v="hill" />
		<tag k="place" v="locality" />
		<tag k="ssr:stedsnr" v="874802" />
	</node>
	<node lat="59.40602222255096" lon="10.220599999661381" id="-48731">
		<tag k="name" v="Myrehagen" />
		<tag k="place" v="locality" />
		<tag k="ssr:stedsnr" v="877336" />
	</node>
	<node lat="59.41164166600285" lon="10.091016661403758" id="-48732">
		<tag k="name" v="Geiteryggen" />
		<tag k="natural" v="ridge" />
		<tag k="place" v="locality" />
		<tag k="ssr:stedsnr" v="877159" />
	</node>
	<node lat="59.406061112358685" lon="10.081666664174449" id="-48734">
		<tag k="fixme" v="consider natural=peak for the most distinct mountains in the district" />
		<tag k="name" v="Rokkemyråsen" />
		<tag k="natural" v="hill" />
		<tag k="place" v="locality" />
		<tag k="ssr:stedsnr" v="877165" />
	</node>
	<node lat="59.328494447649064" lon="10.248438886199407" id="-48737">
		<tag k="fixme" v="consider natural=peak for the most distinct mountains in the district" />
		<tag k="name" v="Brånan" />
		<tag k="natural" v="hill" />
		<tag k="place" v="locality" />
		<tag k="ssr:stedsnr" v="877439" />
	</node>
	<node lat="59.434974998381755" lon="10.162566674952402" id="-48738">
		<tag k="name" v="Malineløkka" />
		<tag k="place" v="locality" />
		<tag k="ssr:stedsnr" v="877533" />
	</node>
	<node lat="59.44090833295098" lon="10.190883339741761" id="-48741">
		<tag k="fixme" v="consider natural=peak for the most distinct mountains in the district" />
		<tag k="name" v="Herkjefthøgda" />
		<tag k="natural" v="hill" />
		<tag k="place" v="locality" />
		<tag k="ssr:stedsnr" v="877549" />
	</node>
	<node lat="59.35363055977911" lon="10.209430556218065" id="-48744">
		<tag k="name" v="Åttedalen" />
		<tag k="natural" v="valley" />
		<tag k="place" v="locality" />
		<tag k="ssr:stedsnr" v="877376" />
	</node>
	<node lat="59.35694444256924" lon="10.24929167517667" id="-48746">
		<tag k="name" v="Bergshaugen" />
		<tag k="natural" v="hill" />
		<tag k="place" v="locality" />
		<tag k="ssr:stedsnr" v="877381" />
	</node>
	<node lat="59.434022219962486" lon="10.157555556735243" id="-48756">
		<tag k="fixme" v="consider natural=peak for the most distinct mountains in the district" />
		<tag k="name" v="Varden" />
		<tag k="natural" v="hill" />
		<tag k="place" v="locality" />
		<tag k="ssr:stedsnr" v="877565" />
	</node>
	<node lat="59.43999166558919" lon="10.155586109642204" id="-48757">
		<tag k="name" v="Nordamerika" />
		<tag k="natural" v="valley" />
		<tag k="place" v="locality" />
		<tag k="ssr:stedsnr" v="877567" />
	</node>
	<node lat="59.44679444261926" lon="10.165363890918426" id="-48758">
		<tag k="name" v="Grinnaløkka" />
		<tag k="place" v="locality" />
		<tag k="ssr:stedsnr" v="877572" />
	</node>
	<node lat="59.45466944182388" lon="10.165597229079212" id="-48759">
		<tag k="name" v="Hagasetra" />
		<tag k="place" v="locality" />
		<tag k="ssr:stedsnr" v="877593" />
	</node>
	<node lat="59.433272217872236" lon="10.31477778361405" id="-48766">
		<tag k="name" v="Rostadbakken" />
		<tag k="natural" v="slope" />
		<tag k="place" v="locality" />
		<tag k="ssr:stedsnr" v="877897" />
	</node>
	<node lat="59.33823610710762" lon="10.440744440928986" id="-48770">
		<tag k="name" v="Langemyra" />
		<tag k="place" v="locality" />
		<tag k="ssr:stedsnr" v="935821" />
	</node>
	<node lat="59.3153027735505" lon="10.49655000080326" id="-48777">
		<tag k="name" v="Tufta" />
		<tag k="place" v="locality" />
		<tag k="ssr:stedsnr" v="937229" />
	</node>
	<node lat="59.40772221974169" lon="10.123827780804703" id="-48778">
		<tag k="alt_name" v="Byglandåsen" />
		<tag k="fixme" v="consider natural=peak for the most distinct mountains in the district" />
		<tag k="name" v="Bygglandåsen" />
		<tag k="natural" v="hill" />
		<tag k="place" v="locality" />
		<tag k="ssr:stedsnr" v="937230" />
	</node>
	<node lat="59.44441944465015" lon="10.20059444879267" id="-48781">
		<tag k="name" v="Holmenstua" />
		<tag k="natural" v="slope" />
		<tag k="place" v="locality" />
		<tag k="ssr:stedsnr" v="937562" />
	</node>
	<node lat="59.428008336009576" lon="10.066366673145023" id="-48782">
		<tag k="fixme" v="consider natural=peak for the most distinct mountains in the district" />
		<tag k="name" v="Kirjulen" />
		<tag k="natural" v="hill" />
		<tag k="place" v="locality" />
		<tag k="ssr:stedsnr" v="937161" />
	</node>
	<node lat="59.44849167061584" lon="10.198819451865443" id="-48784">
		<tag k="name" v="Karlsberg" />
		<tag k="place" v="locality" />
		<tag k="ssr:stedsnr" v="937581" />
	</node>
	<node lat="59.29739722660055" lon="10.348075003519867" id="-48788">
		<tag k="name" v="Åskollen" />
		<tag k="natural" v="hill" />
		<tag k="place" v="locality" />
		<tag k="ssr:stedsnr" v="937770" />
	</node>
	<node lat="59.424252773438646" lon="10.16436666678371" id="-48797">
		<tag k="fixme" v="consider natural=peak for the most distinct mountains in the district" />
		<tag k="name" v="Avhøgget" />
		<tag k="natural" v="hill" />
		<tag k="place" v="locality" />
		<tag k="ssr:stedsnr" v="938621" />
	</node>
	<node lat="59.31517499789238" lon="10.270247227554812" id="-48800">
		<tag k="fixme" v="consider natural=peak for the most distinct mountains in the district" />
		<tag k="name" v="Langgrindåsen" />
		<tag k="natural" v="hill" />
		<tag k="place" v="locality" />
		<tag k="ssr:stedsnr" v="938634" />
	</node>
	<node lat="59.46386111177037" lon="10.159908337766346" id="-48801">
		<tag k="name" v="Budalen" />
		<tag k="natural" v="valley" />
		<tag k="place" v="locality" />
		<tag k="ssr:stedsnr" v="938550" />
	</node>
</osm>
