<?xml version="1.0" encoding="UTF-8"?>
<osm generator="osmapis" version="0.6">
	<node id="-393214" lat="59.3710555551" lon="10.334797226">
		<tag k="name" v="Grøum" />
		<tag k="place" v="farm" />
		<tag k="ssr:stedsnr" v="633743" />
	</node>
	<node id="-393212" lat="59.4432555514" lon="10.1656833302">
		<tag k="name" v="Fjellstua" />
		<tag k="place" v="isolated_dwelling" />
		<tag k="ssr:stedsnr" v="633533" />
	</node>
	<node id="-393210" lat="59.3141277762" lon="10.2495527757">
		<tag k="name" v="Rånerød" />
		<tag k="place" v="locality" />
		<tag k="ssr:stedsnr" v="633345" />
	</node>
	<node id="-393209" lat="59.4199416672" lon="10.2409749957">
		<tag k="name" v="Borge øvre" />
		<tag k="place" v="farm" />
		<tag k="ssr:stedsnr" v="633341" />
	</node>
	<node id="-393208" lat="59.4138083329" lon="10.267663884">
		<tag k="name" v="Nåla" />
		<tag k="place" v="farm" />
		<tag k="ssr:stedsnr" v="633337" />
	</node>
	<node id="-393206" lat="59.384605553" lon="10.1623250022">
		<tag k="name" v="Kjønnerød" />
		<tag k="place" v="farm" />
		<tag k="ssr:stedsnr" v="633322" />
	</node>
	<node id="-393204" lat="59.395036111" lon="10.1781194411">
		<tag k="historic" v="shieling" />
		<tag k="name" v="Bjørnseter" />
		<tag k="place" v="locality" />
		<tag k="ssr:stedsnr" v="633313" />
	</node>
	<node id="-393202" lat="59.3565749986" lon="10.2476277768">
		<tag k="name" v="Berg mellom" />
		<tag k="place" v="farm" />
		<tag k="ssr:stedsnr" v="633401" />
	</node>
	<node id="-393194" lat="59.3839472225" lon="10.1332083413">
		<tag k="name" v="Eikenes" />
		<tag k="place" v="farm" />
		<tag k="ssr:stedsnr" v="633097" />
	</node>
	<node id="-393191" lat="59.393319445" lon="10.0573888969">
		<tag k="name" v="Rundby" />
		<tag k="place" v="locality" />
		<tag k="ssr:stedsnr" v="633083" />
	</node>
	<node id="-393187" lat="59.4326805573" lon="10.1350972299">
		<tag k="name" v="Engen" />
		<tag k="place" v="farm" />
		<tag k="ssr:stedsnr" v="633033" />
	</node>
	<node id="-393180" lat="59.3127972191" lon="10.4678222137">
		<tag k="name" v="Ollebakken" />
		<tag k="place" v="farm" />
		<tag k="ssr:stedsnr" v="631811" />
	</node>
	<node id="-393179" lat="59.3238250026" lon="10.4392527729">
		<tag k="name" v="Rom vestre" />
		<tag k="place" v="farm" />
		<tag k="ssr:stedsnr" v="631778" />
	</node>
	<node id="-393176" lat="59.3443750028" lon="10.4356583273">
		<tag k="fixme" v="consider place=hamlet" />
		<tag k="name" v="Gullerød" />
		<tag k="place" v="farm" />
		<tag k="ssr:stedsnr" v="609546" />
	</node>
	<node id="-393175" lat="59.3156445795" lon="10.4403332268">
		<tag k="name" v="Roberg" />
		<tag k="place" v="farm" />
		<tag k="ssr:stedsnr" v="609583" />
	</node>
	<node id="-393174" lat="59.3186555528" lon="10.4852166583">
		<tag k="fixme" v="consider place=hamlet" />
		<tag k="name" v="Studsrød" />
		<tag k="place" v="farm" />
		<tag k="ssr:stedsnr" v="609576" />
	</node>
	<node id="-393172" lat="59.4197166694" lon="10.2194444374">
		<tag k="alt_name" v="Myre, nordre" />
		<tag k="name" v="Nordre Myre" />
		<tag k="place" v="farm" />
		<tag k="ssr:stedsnr" v="609136" />
	</node>
	<node id="-393171" lat="59.4248166642" lon="10.235241672">
		<tag k="alt_name" v="Borge søndre" />
		<tag k="name" v="Borge" />
		<tag k="place" v="farm" />
		<tag k="ssr:stedsnr" v="609182" />
	</node>
	<node id="-393170" lat="59.4204083336" lon="10.1411166645">
		<tag k="alt_name" v="Vallemrød" />
		<tag k="name" v="Vallumrød" />
		<tag k="place" v="farm" />
		<tag k="ssr:stedsnr" v="609168" />
	</node>
	<node id="-393169" lat="59.2887527775" lon="10.3855277755">
		<tag k="alt_name" v="Jarlsberg Hovedgård" />
		<tag k="fixme" v="consider place=hamlet" />
		<tag k="name" v="Jarlsberg" />
		<tag k="place" v="farm" />
		<tag k="ssr:stedsnr" v="608689" />
	</node>
	<node id="-393168" lat="59.3124583328" lon="10.4708916709">
		<tag k="name" v="Børønningen" />
		<tag k="place" v="farm" />
		<tag k="ssr:stedsnr" v="608674" />
	</node>
	<node id="-393166" lat="59.4469500033" lon="10.3032277831">
		<tag k="alt_name" v="Håkestad søndre" />
		<tag k="name" v="Håkastad" />
		<tag k="place" v="farm" />
		<tag k="ssr:stedsnr" v="608080" />
	</node>
	<node id="-393165" lat="59.443125" lon="10.1662694386">
		<tag k="alt_name" v="Lian nordre" />
		<tag k="name" v="Lian" />
		<tag k="place" v="locality" />
		<tag k="ssr:stedsnr" v="608070" />
	</node>
	<node id="-393164" lat="59.4539999988" lon="10.3311249943">
		<tag k="name" v="Gunnestad" />
		<tag k="place" v="farm" />
		<tag k="ssr:stedsnr" v="608058" />
	</node>
	<node id="-393163" lat="59.456324999" lon="10.2624500005">
		<tag k="name" v="Solheim" />
		<tag k="place" v="farm" />
		<tag k="ssr:stedsnr" v="608056" />
	</node>
	<node id="-393162" lat="59.2648916685" lon="10.4068638819">
		<tag k="name" v="Lindahl plass" />
		<tag k="place" v="square" />
		<tag k="ssr:stedsnr" v="601337" />
	</node>
	<node id="-393158" lat="59.3366027773" lon="10.4252583363">
		<tag k="alt_name" v="Søndre Jareteigen" />
		<tag k="fixme" v="consider place=hamlet" />
		<tag k="name" v="Jareteigen S" />
		<tag k="place" v="farm" />
		<tag k="ssr:stedsnr" v="574432" />
	</node>
	<node id="-393157" lat="59.28379722" lon="10.4963333317">
		<tag k="fixme" v="consider place=suburb, village or hamlet" />
		<tag k="name" v="Skogly" />
		<tag k="place" v="quarter" />
		<tag k="ssr:stedsnr" v="574124" />
	</node>
	<node id="-393156" lat="59.421305555" lon="10.3302944464">
		<tag k="name" v="Haugan nordre" />
		<tag k="place" v="farm" />
		<tag k="ssr:stedsnr" v="573811" />
	</node>
	<node id="-393155" lat="59.4168805587" lon="10.2811416745">
		<tag k="name" v="Fjellborg" />
		<tag k="place" v="farm" />
		<tag k="ssr:stedsnr" v="573788" />
	</node>
	<node id="-393154" lat="59.3487249988" lon="10.3660916726">
		<tag k="name" v="Vold" />
		<tag k="place" v="farm" />
		<tag k="ssr:stedsnr" v="573786" />
	</node>
	<node id="-393152" lat="59.4470666696" lon="10.2825638905">
		<tag k="name" v="Holm" />
		<tag k="place" v="farm" />
		<tag k="ssr:stedsnr" v="573769" />
	</node>
	<node id="-393151" lat="59.3842388892" lon="10.2860000069">
		<tag k="name" v="Solvang" />
		<tag k="place" v="farm" />
		<tag k="ssr:stedsnr" v="573759" />
	</node>
	<node id="-393150" lat="59.3261972186" lon="10.3438444368">
		<tag k="name" v="Smaleng" />
		<tag k="place" v="farm" />
		<tag k="ssr:stedsnr" v="573756" />
	</node>
	<node id="-393149" lat="59.3752583304" lon="10.3168194526">
		<tag k="name" v="Dal søndre" />
		<tag k="place" v="farm" />
		<tag k="ssr:stedsnr" v="573729" />
	</node>
	<node id="-393148" lat="59.4357166647" lon="10.3024444416">
		<tag k="name" v="Haraldstad søndre" />
		<tag k="place" v="farm" />
		<tag k="ssr:stedsnr" v="573869" />
	</node>
	<node id="-393147" lat="59.4409416657" lon="10.2790055538">
		<tag k="name" v="Sørum nordre" />
		<tag k="place" v="farm" />
		<tag k="ssr:stedsnr" v="573862" />
	</node>
	<node id="-393146" lat="59.4268222179" lon="10.2508833247">
		<tag k="name" v="Bettum" />
		<tag k="place" v="farm" />
		<tag k="ssr:stedsnr" v="573617" />
	</node>
	<node id="-393145" lat="59.4342805557" lon="10.2140138956">
		<tag k="name" v="Bakstevold mellom" />
		<tag k="place" v="farm" />
		<tag k="ssr:stedsnr" v="573611" />
	</node>
	<node id="-393144" lat="59.426994441" lon="10.1977694433">
		<tag k="name" v="Holtung søndre" />
		<tag k="place" v="farm" />
		<tag k="ssr:stedsnr" v="573499" />
	</node>
	<node id="-393137" lat="59.4104250032" lon="10.1139888933">
		<tag k="name" v="Låne s." />
		<tag k="place" v="farm" />
		<tag k="ssr:stedsnr" v="573183" />
	</node>
	<node id="-393134" lat="59.3774388862" lon="10.1646166713">
		<tag k="name" v="Gunnerød" />
		<tag k="place" v="farm" />
		<tag k="ssr:stedsnr" v="573320" />
	</node>
	<node id="-393133" lat="59.4219472198" lon="10.2386777797">
		<tag k="name" v="Borge" />
		<tag k="place" v="farm" />
		<tag k="ssr:stedsnr" v="573319" />
	</node>
	<node id="-393128" lat="59.3962500022" lon="10.1249694517">
		<tag k="name" v="Lunderønningen" />
		<tag k="place" v="farm" />
		<tag k="ssr:stedsnr" v="573068" />
	</node>
	<node id="-393127" lat="59.3268777751" lon="10.2793694438">
		<tag k="name" v="Jarberg" />
		<tag k="place" v="quarter" />
		<tag k="ssr:stedsnr" v="572387" />
	</node>
	<node id="-393125" lat="59.3117861069" lon="10.4959000003">
		<tag k="alt_name" v="Vollen" />
		<tag k="name" v="Volden" />
		<tag k="place" v="farm" />
		<tag k="ssr:stedsnr" v="572218" />
	</node>
	<node id="-393121" lat="59.2869611108" lon="10.4144000086">
		<tag k="amenity" v="school" />
		<tag k="name" v="Greveskogen videregående skole" />
		<tag k="old_name" v="Tønsberg Gymnas" />
		<tag k="ssr:stedsnr" v="570984" />
	</node>
	<node id="-393120" lat="59.3056250008" lon="10.3898166654">
		<tag k="name" v="Hestehagen" />
		<tag k="place" v="farm" />
		<tag k="ssr:stedsnr" v="570773" />
	</node>
	<node id="-393119" lat="59.2533638924" lon="10.4556500003">
		<tag k="amenity" v="nursing_home" />
		<tag k="name" v="Nes bo- og behandlingssenter" />
		<tag k="ssr:stedsnr" v="570753" />
	</node>
	<node id="-393118" lat="59.2695111087" lon="10.4632333277">
		<tag k="leisure" v="pitch" />
		<tag k="name" v="Slagenhallen" />
		<tag k="ssr:stedsnr" v="570740" />
	</node>
	<node id="-393117" lat="59.2781888913" lon="10.3362611199">
		<tag k="fixme" v="consider place=hamlet" />
		<tag k="name" v="Vik" />
		<tag k="place" v="farm" />
		<tag k="ssr:stedsnr" v="549895" />
	</node>
	<node id="-393116" lat="59.2865175195" lon="10.3107170621">
		<tag k="alt_name" v="Nordre Hesby" />
		<tag k="fixme" v="consider place=hamlet" />
		<tag k="name" v="Hesby" />
		<tag k="place" v="farm" />
		<tag k="ssr:stedsnr" v="549842" />
	</node>
	<node id="-393115" lat="59.3109083366" lon="10.3389500071">
		<tag k="alt_name" v="Domsengen" />
		<tag k="fixme" v="consider place=hamlet" />
		<tag k="name" v="Domsenga" />
		<tag k="place" v="farm" />
		<tag k="ssr:stedsnr" v="549826" />
	</node>
	<node id="-393114" lat="59.3003861077" lon="10.3357083325">
		<tag k="alt_name" v="Låne V;Vestre Låne" />
		<tag k="fixme" v="consider place=hamlet" />
		<tag k="name" v="Låne" />
		<tag k="place" v="farm" />
		<tag k="ssr:stedsnr" v="549817" />
	</node>
	<node id="-393112" lat="59.3202333321" lon="10.2709861177">
		<tag k="name" v="Kamfjord" />
		<tag k="place" v="farm" />
		<tag k="ssr:stedsnr" v="549773" />
	</node>
	<node id="-393111" lat="59.2719916668" lon="10.4041999936">
		<tag k="name" v="Tunsberghus" />
		<tag k="place" v="locality" />
		<tag k="ssr:stedsnr" v="549645" />
	</node>
	<node id="-393110" lat="59.2623340465" lon="10.3621157026">
		<tag k="alt_name" v="Veer øde" />
		<tag k="name" v="Vear" />
		<tag k="place" v="isolated_dwelling" />
		<tag k="ssr:stedsnr" v="549638" />
	</node>
	<node id="-393109" lat="59.3314027749" lon="10.3079944483">
		<tag k="name" v="Reine" />
		<tag k="place" v="farm" />
		<tag k="ssr:stedsnr" v="548802" />
	</node>
	<node id="-393108" lat="59.3590555596" lon="10.3009305598">
		<tag k="name" v="Langemyr" />
		<tag k="place" v="farm" />
		<tag k="ssr:stedsnr" v="548769" />
	</node>
	<node id="-393106" lat="59.3568916687" lon="10.211330559">
		<tag k="alt_name" v="Fjelebua" />
		<tag k="name" v="Fjælebua" />
		<tag k="place" v="farm" />
		<tag k="ssr:stedsnr" v="548762" />
	</node>
	<node id="-393105" lat="59.3602444412" lon="10.2186805485">
		<tag k="alt_name" v="Grøtterød" />
		<tag k="name" v="Grøterud" />
		<tag k="place" v="farm" />
		<tag k="ssr:stedsnr" v="548760" />
	</node>
	<node id="-393104" lat="59.3143611102" lon="10.4056305477">
		<tag k="fixme" v="consider place=hamlet" />
		<tag k="name" v="Stuverød" />
		<tag k="place" v="farm" />
		<tag k="ssr:stedsnr" v="548617" />
	</node>
	<node id="-393102" lat="59.3243694445" lon="10.4834444506">
		<tag k="fixme" v="consider place=hamlet" />
		<tag k="name" v="Brattås" />
		<tag k="place" v="farm" />
		<tag k="ssr:stedsnr" v="548596" />
	</node>
	<node id="-393101" lat="59.3308361093" lon="10.3603333311">
		<tag k="alt_name" v="Bjune, østre" />
		<tag k="name" v="Østre Bjune" />
		<tag k="place" v="farm" />
		<tag k="ssr:stedsnr" v="548585" />
	</node>
	<node id="-393100" lat="59.3826249973" lon="10.355947219">
		<tag k="alt_name" v="Langklep søndre" />
		<tag k="name" v="Langklepp" />
		<tag k="place" v="farm" />
		<tag k="ssr:stedsnr" v="548553" />
	</node>
	<node id="-393099" lat="59.3862777816" lon="10.1070305519">
		<tag k="name" v="Eikeberg" />
		<tag k="place" v="farm" />
		<tag k="ssr:stedsnr" v="548240" />
	</node>
	<node id="-393098" lat="59.4025555538" lon="10.2073083272">
		<tag k="name" v="Heierstad" />
		<tag k="place" v="farm" />
		<tag k="ssr:stedsnr" v="548238" />
	</node>
	<node id="-393097" lat="59.40206389" lon="10.2597055631">
		<tag k="alt_name" v="Bakke, vestre" />
		<tag k="name" v="Vestre Bakke" />
		<tag k="place" v="farm" />
		<tag k="ssr:stedsnr" v="548234" />
	</node>
	<node id="-393096" lat="59.3696166647" lon="10.3321111166">
		<tag k="alt_name" v="Bjerkesti" />
		<tag k="name" v="Bjørkesti" />
		<tag k="place" v="farm" />
		<tag k="ssr:stedsnr" v="548220" />
	</node>
	<node id="-393095" lat="59.3759472237" lon="10.1636138829">
		<tag k="name" v="Gunnerød" />
		<tag k="place" v="farm" />
		<tag k="ssr:stedsnr" v="548193" />
	</node>
	<node id="-393093" lat="59.4070833303" lon="10.3075444491">
		<tag k="alt_name" v="Hals s." />
		<tag k="name" v="Hals" />
		<tag k="place" v="farm" />
		<tag k="ssr:stedsnr" v="548149" />
	</node>
	<node id="-393092" lat="59.4010555576" lon="10.0857277814">
		<tag k="alt_name" v="Tuftenseter" />
		<tag k="name" v="Tuftensetra" />
		<tag k="place" v="isolated_dwelling" />
		<tag k="ssr:stedsnr" v="548136" />
	</node>
	<node id="-393091" lat="59.4150472238" lon="10.2032916617">
		<tag k="alt_name" v="Fon, store" />
		<tag k="name" v="Store Fon" />
		<tag k="place" v="farm" />
		<tag k="ssr:stedsnr" v="548134" />
	</node>
	<node id="-393090" lat="59.4167555596" lon="10.3166055498">
		<tag k="alt_name" v="Oppsahl mellom" />
		<tag k="name" v="Oppsal" />
		<tag k="place" v="farm" />
		<tag k="ssr:stedsnr" v="548131" />
	</node>
	<node id="-393089" lat="59.4148055576" lon="10.1189250034">
		<tag k="alt_name" v="Teigen, s;Teien s." />
		<tag k="name" v="Søndre Teigen" />
		<tag k="place" v="farm" />
		<tag k="ssr:stedsnr" v="548126" />
	</node>
	<node id="-393088" lat="59.4689277768" lon="10.2191694398">
		<tag k="name" v="Borgeteigen" />
		<tag k="place" v="isolated_dwelling" />
		<tag k="ssr:stedsnr" v="548082" />
	</node>
	<node id="-393087" lat="59.4543694459" lon="10.1721083332">
		<tag k="name" v="Ørvika" />
		<tag k="place" v="farm" />
		<tag k="ssr:stedsnr" v="548066" />
	</node>
	<node id="-393086" lat="59.4591611091" lon="10.147361106">
		<tag k="alt_name" v="Langeli M." />
		<tag k="name" v="Langeli" />
		<tag k="place" v="farm" />
		<tag k="ssr:stedsnr" v="548063" />
	</node>
	<node id="-393079" lat="59.2941849548" lon="10.2866527893">
		<tag k="fixme" v="consider place=hamlet" />
		<tag k="name" v="Bekkevar" />
		<tag k="place" v="farm" />
		<tag k="ssr:stedsnr" v="428877" />
	</node>
	<node id="-393078" lat="59.354075003" lon="10.3598222234">
		<tag k="name" v="Lefsaker" />
		<tag k="place" v="farm" />
		<tag k="ssr:stedsnr" v="427583" />
	</node>
	<node id="-393077" lat="59.3855555572" lon="10.3478388887">
		<tag k="name" v="Østli" />
		<tag k="place" v="farm" />
		<tag k="ssr:stedsnr" v="427550" />
	</node>
	<node id="-393076" lat="59.2896388877" lon="10.3544249957">
		<tag k="name" v="Kjærnes" />
		<tag k="place" v="farm" />
		<tag k="ssr:stedsnr" v="427638" />
	</node>
	<node id="-393075" lat="59.42644167" lon="10.2927638935">
		<tag k="alt_name" v="Søby søndre" />
		<tag k="name" v="Søby" />
		<tag k="place" v="isolated_dwelling" />
		<tag k="ssr:stedsnr" v="427201" />
	</node>
	<node id="-393074" lat="59.4311833375" lon="10.3026250064">
		<tag k="name" v="Kurstad" />
		<tag k="place" v="farm" />
		<tag k="ssr:stedsnr" v="427200" />
	</node>
	<node id="-393073" lat="59.4149916665" lon="10.1455166591">
		<tag k="name" v="Gjøtterød" />
		<tag k="place" v="farm" />
		<tag k="ssr:stedsnr" v="427188" />
	</node>
	<node id="-393072" lat="59.4327138899" lon="10.1044027719">
		<tag k="name" v="Stokkenga" />
		<tag k="place" v="farm" />
		<tag k="ssr:stedsnr" v="427167" />
	</node>
	<node id="-393071" lat="59.4113972211" lon="10.218752776">
		<tag k="alt_name" v="Myre, s;Myre søndre" />
		<tag k="name" v="Søndre Myre" />
		<tag k="place" v="farm" />
		<tag k="ssr:stedsnr" v="427158" />
	</node>
	<node id="-393070" lat="59.3818388907" lon="10.2343638877">
		<tag k="alt_name" v="Kile v." />
		<tag k="name" v="Kile" />
		<tag k="place" v="farm" />
		<tag k="ssr:stedsnr" v="427261" />
	</node>
	<node id="-393068" lat="59.3874361119" lon="10.1966444513">
		<tag k="name" v="Sukke" />
		<tag k="place" v="farm" />
		<tag k="ssr:stedsnr" v="427236" />
	</node>
	<node id="-393067" lat="59.3606666622" lon="10.2638555591">
		<tag k="alt_name" v="Valle nordre" />
		<tag k="name" v="Valle" />
		<tag k="place" v="farm" />
		<tag k="ssr:stedsnr" v="427225" />
	</node>
	<node id="-393066" lat="59.3649027773" lon="10.2284361025">
		<tag k="name" v="Lyngås" />
		<tag k="place" v="farm" />
		<tag k="ssr:stedsnr" v="427224" />
	</node>
	<node id="-393065" lat="59.4015166646" lon="10.1158222266">
		<tag k="name" v="Bakerød" />
		<tag k="place" v="farm" />
		<tag k="ssr:stedsnr" v="427147" />
	</node>
	<node id="-393064" lat="59.4167083325" lon="10.2225944516">
		<tag k="alt_name" v="Hvidsten" />
		<tag k="name" v="Hvitstein" />
		<tag k="place" v="farm" />
		<tag k="ssr:stedsnr" v="427142" />
	</node>
	<node id="-393062" lat="59.4475749971" lon="10.3164277733">
		<tag k="name" v="Smørdal" />
		<tag k="place" v="farm" />
		<tag k="ssr:stedsnr" v="427091" />
	</node>
	<node id="-393061" lat="59.4488888865" lon="10.265838893">
		<tag k="alt_name" v="Kornto østre" />
		<tag k="name" v="Kornto" />
		<tag k="place" v="farm" />
		<tag k="ssr:stedsnr" v="427089" />
	</node>
	<node id="-393060" lat="59.4451749993" lon="10.2517499934">
		<tag k="alt_name" v="Lærum mellom" />
		<tag k="name" v="Lærum" />
		<tag k="place" v="farm" />
		<tag k="ssr:stedsnr" v="427088" />
	</node>
	<node id="-393059" lat="59.4433170288" lon="10.1983811537">
		<tag k="name" v="Hestehagen" />
		<tag k="place" v="farm" />
		<tag k="ssr:stedsnr" v="427087" />
	</node>
	<node id="-393058" lat="59.4503749973" lon="10.3406166707">
		<tag k="fixme" v="consider place=hamlet" />
		<tag k="name" v="Grettebygd" />
		<tag k="place" v="village" />
		<tag k="ssr:stedsnr" v="427075" />
	</node>
	<node id="-393057" lat="59.4539749967" lon="10.1460916727">
		<tag k="alt_name" v="Langeli S" />
		<tag k="name" v="Langeli" />
		<tag k="place" v="farm" />
		<tag k="ssr:stedsnr" v="427068" />
	</node>
	<node id="-393056" lat="59.4332861135" lon="10.1334083414">
		<tag k="fixme" v="consider place=hamlet" />
		<tag k="name" v="Øvre Vivestad" />
		<tag k="place" v="farm" />
		<tag k="ssr:stedsnr" v="424034" />
	</node>
	<node id="-393046" lat="59.3203947082" lon="10.4967125584">
		<tag k="alt_name" v="Bøengen" />
		<tag k="fixme" v="consider place=hamlet" />
		<tag k="name" v="Bøeng" />
		<tag k="place" v="farm" />
		<tag k="ssr:stedsnr" v="392848" />
	</node>
	<node id="-393042" lat="59.4489583343" lon="10.3384833315">
		<tag k="name" v="Hagalund" />
		<tag k="place" v="farm" />
		<tag k="ssr:stedsnr" v="391887" />
	</node>
	<node id="-393041" lat="59.4456194428" lon="10.342013897">
		<tag k="name" v="Fegstad" />
		<tag k="place" v="farm" />
		<tag k="ssr:stedsnr" v="391885" />
	</node>
	<node id="-393040" lat="59.4489222234" lon="10.3239555513">
		<tag k="name" v="Åsenden" />
		<tag k="place" v="farm" />
		<tag k="ssr:stedsnr" v="391880" />
	</node>
	<node id="-393038" lat="59.3629416688" lon="10.3429611187">
		<tag k="name" v="Heum" />
		<tag k="place" v="farm" />
		<tag k="ssr:stedsnr" v="391745" />
	</node>
	<node id="-393034" lat="59.4179222239" lon="10.2823249999">
		<tag k="name" v="Lien" />
		<tag k="place" v="farm" />
		<tag k="ssr:stedsnr" v="391840" />
	</node>
	<node id="-393033" lat="59.3541527745" lon="10.3754527731">
		<tag k="name" v="Hem mellem" />
		<tag k="place" v="farm" />
		<tag k="ssr:stedsnr" v="391838" />
	</node>
	<node id="-393032" lat="59.3529250038" lon="10.3744055579">
		<tag k="name" v="Hem søndre" />
		<tag k="place" v="farm" />
		<tag k="ssr:stedsnr" v="391837" />
	</node>
	<node id="-393031" lat="59.3976055595" lon="10.3265194483">
		<tag k="name" v="Grytnes østre" />
		<tag k="place" v="farm" />
		<tag k="ssr:stedsnr" v="391790" />
	</node>
	<node id="-393030" lat="59.3293472189" lon="10.3256250009">
		<tag k="name" v="Forum" />
		<tag k="place" v="farm" />
		<tag k="ssr:stedsnr" v="391787" />
	</node>
	<node id="-393029" lat="59.3278611097" lon="10.3555249935">
		<tag k="fixme" v="consider place=hamlet" />
		<tag k="name" v="Rastad" />
		<tag k="place" v="farm" />
		<tag k="ssr:stedsnr" v="391781" />
	</node>
	<node id="-393028" lat="59.3979138895" lon="10.2539361117">
		<tag k="name" v="Bakke" />
		<tag k="place" v="farm" />
		<tag k="ssr:stedsnr" v="391600" />
	</node>
	<node id="-393027" lat="59.3875305551" lon="10.2555111164">
		<tag k="name" v="Åmot" />
		<tag k="place" v="farm" />
		<tag k="ssr:stedsnr" v="391597" />
	</node>
	<node id="-393026" lat="59.4667444466" lon="10.1966361052">
		<tag k="name" v="Sag" />
		<tag k="place" v="farm" />
		<tag k="ssr:stedsnr" v="391719" />
	</node>
	<node id="-393021" lat="59.453283335" lon="10.189591671">
		<tag k="name" v="Revå" />
		<tag k="place" v="farm" />
		<tag k="ssr:stedsnr" v="391588" />
	</node>
	<node id="-393019" lat="59.3933750014" lon="10.238480556">
		<tag k="name" v="Åsknatten" />
		<tag k="place" v="isolated_dwelling" />
		<tag k="ssr:stedsnr" v="391579" />
	</node>
	<node id="-393017" lat="59.3570277802" lon="10.2429500029">
		<tag k="name" v="Tuftekroken" />
		<tag k="place" v="quarter" />
		<tag k="ssr:stedsnr" v="391397" />
	</node>
	<node id="-393016" lat="59.3523722243" lon="10.238358334">
		<tag k="name" v="Bakken" />
		<tag k="place" v="farm" />
		<tag k="ssr:stedsnr" v="391393" />
	</node>
	<node id="-393015" lat="59.3478972206" lon="10.2269166593">
		<tag k="name" v="Tinghaug" />
		<tag k="place" v="isolated_dwelling" />
		<tag k="ssr:stedsnr" v="391391" />
	</node>
	<node id="-393014" lat="59.3770555543" lon="10.1800000063">
		<tag k="name" v="Jerpetjønn" />
		<tag k="place" v="farm" />
		<tag k="ssr:stedsnr" v="391348" />
	</node>
	<node id="-393013" lat="59.3641749991" lon="10.1810194412">
		<tag k="name" v="Skjeggerød" />
		<tag k="place" v="farm" />
		<tag k="ssr:stedsnr" v="391345" />
	</node>
	<node id="-393011" lat="59.3932500023" lon="10.1408972236">
		<tag k="name" v="Hauen" />
		<tag k="place" v="farm" />
		<tag k="ssr:stedsnr" v="391091" />
	</node>
	<node id="-393010" lat="59.3621944463" lon="10.1923222291">
		<tag k="name" v="Indlagen" />
		<tag k="place" v="isolated_dwelling" />
		<tag k="ssr:stedsnr" v="391357" />
	</node>
	<node id="-393008" lat="59.4185833307" lon="10.1082805595">
		<tag k="name" v="Låne n." />
		<tag k="place" v="farm" />
		<tag k="ssr:stedsnr" v="391186" />
	</node>
	<node id="-393005" lat="59.326833337" lon="10.2717194462">
		<tag k="name" v="Haug" />
		<tag k="place" v="farm" />
		<tag k="ssr:stedsnr" v="390729" />
	</node>
	<node id="-393004" lat="59.3636194484" lon="10.2497694494">
		<tag k="name" v="Bergsåsen" />
		<tag k="place" v="quarter" />
		<tag k="ssr:stedsnr" v="390348" />
	</node>
	<node id="-393003" lat="59.3432416688" lon="10.4548916688">
		<tag k="fixme" v="consider place=hamlet" />
		<tag k="name" v="Spettås" />
		<tag k="place" v="farm" />
		<tag k="ssr:stedsnr" v="389817" />
	</node>
	<node id="-393001" lat="59.3243055527" lon="10.4780444422">
		<tag k="name" v="Grønseth" />
		<tag k="place" v="farm" />
		<tag k="ssr:stedsnr" v="388751" />
	</node>
	<node id="-393000" lat="59.2489722228" lon="10.3583805582">
		<tag k="name" v="Vearåsen" />
		<tag k="place" v="quarter" />
		<tag k="ssr:stedsnr" v="384054" />
	</node>
	<node id="-392999" lat="59.274563887" lon="10.3326666724">
		<tag k="name" v="Løkeberg" />
		<tag k="place" v="farm" />
		<tag k="ssr:stedsnr" v="367882" />
	</node>
	<node id="-392998" lat="59.3013499991" lon="10.3170611033">
		<tag k="alt_name" v="Pande" />
		<tag k="fixme" v="consider place=hamlet" />
		<tag k="name" v="Panne" />
		<tag k="place" v="farm" />
		<tag k="ssr:stedsnr" v="367802" />
	</node>
	<node id="-392997" lat="59.319411111" lon="10.3027361028">
		<tag k="name" v="Himberg" />
		<tag k="place" v="farm" />
		<tag k="ssr:stedsnr" v="367767" />
	</node>
	<node id="-392996" lat="59.2817638897" lon="10.4380583376">
		<tag k="name" v="Sundekilden" />
		<tag k="place" v="farm" />
		<tag k="ssr:stedsnr" v="367621" />
	</node>
	<node id="-392994" lat="59.454874997" lon="10.3447055554">
		<tag k="name" v="Valtersborg" />
		<tag k="place" v="farm" />
		<tag k="ssr:stedsnr" v="366949" />
	</node>
	<node id="-392993" lat="59.3242138916" lon="10.2665944358">
		<tag k="name" v="Ås" />
		<tag k="place" v="farm" />
		<tag k="ssr:stedsnr" v="366796" />
	</node>
	<node id="-392992" lat="59.325633332" lon="10.2939416716">
		<tag k="name" v="Himberg" />
		<tag k="place" v="farm" />
		<tag k="ssr:stedsnr" v="366795" />
	</node>
	<node id="-392991" lat="59.3394611143" lon="10.2390194467">
		<tag k="name" v="Re" />
		<tag k="place" v="farm" />
		<tag k="ssr:stedsnr" v="366785" />
	</node>
	<node id="-392990" lat="59.3585638855" lon="10.1787083342">
		<tag k="name" v="Mørken" />
		<tag k="place" v="farm" />
		<tag k="ssr:stedsnr" v="366761" />
	</node>
	<node id="-392989" lat="59.2951083317" lon="10.4406916631">
		<tag k="alt_name" v="Nordre Velle" />
		<tag k="fixme" v="consider place=hamlet" />
		<tag k="name" v="Velle" />
		<tag k="place" v="farm" />
		<tag k="ssr:stedsnr" v="366656" />
	</node>
	<node id="-392988" lat="59.2953000014" lon="10.5151888808">
		<tag k="alt_name" v="Karlsvika, s" />
		<tag k="name" v="Søndre Karlsvika" />
		<tag k="place" v="farm" />
		<tag k="ssr:stedsnr" v="366652" />
	</node>
	<node id="-392987" lat="59.294241669" lon="10.34918334">
		<tag k="alt_name" v="Ås" />
		<tag k="fixme" v="consider place=hamlet" />
		<tag k="name" v="Ås, s" />
		<tag k="place" v="farm" />
		<tag k="ssr:stedsnr" v="366650" />
	</node>
	<node id="-392986" lat="59.3199472258" lon="10.4700027766">
		<tag k="alt_name" v="Rørås, s;Rørås" />
		<tag k="fixme" v="consider place=hamlet" />
		<tag k="name" v="Søndre Rørås" />
		<tag k="place" v="farm" />
		<tag k="ssr:stedsnr" v="366626" />
	</node>
	<node id="-392985" lat="59.3147361137" lon="10.5056166673">
		<tag k="name" v="Åsen" />
		<tag k="place" v="farm" />
		<tag k="ssr:stedsnr" v="366623" />
	</node>
	<node id="-392984" lat="59.3153222253" lon="10.4847583355">
		<tag k="alt_name" v="Stusrød;Studsrød" />
		<tag k="name" v="Stusrøa" />
		<tag k="place" v="farm" />
		<tag k="ssr:stedsnr" v="366622" />
	</node>
	<node id="-392983" lat="59.3222111142" lon="10.3973111145">
		<tag k="alt_name" v="Brekke S" />
		<tag k="name" v="Brekke" />
		<tag k="place" v="farm" />
		<tag k="ssr:stedsnr" v="366613" />
	</node>
	<node id="-392981" lat="59.3476000027" lon="10.3776888865">
		<tag k="alt_name" v="Hem søndre" />
		<tag k="name" v="Hem" />
		<tag k="place" v="farm" />
		<tag k="ssr:stedsnr" v="366590" />
	</node>
	<node id="-392980" lat="59.3803277784" lon="10.362488889">
		<tag k="name" v="Knutstad" />
		<tag k="place" v="farm" />
		<tag k="ssr:stedsnr" v="366560" />
	</node>
	<node id="-392979" lat="59.38552778" lon="10.3627333371">
		<tag k="alt_name" v="Døvik søndre" />
		<tag k="name" v="Døvik" />
		<tag k="place" v="farm" />
		<tag k="ssr:stedsnr" v="366544" />
	</node>
	<node id="-392978" lat="59.3967499976" lon="10.3638527789">
		<tag k="name" v="Flår" />
		<tag k="place" v="farm" />
		<tag k="ssr:stedsnr" v="366537" />
	</node>
	<node id="-392977" lat="59.3957972213" lon="10.2384694513">
		<tag k="alt_name" v="Ås n." />
		<tag k="name" v="Ås" />
		<tag k="place" v="farm" />
		<tag k="ssr:stedsnr" v="366239" />
	</node>
	<node id="-392976" lat="59.3791611099" lon="10.1911083322">
		<tag k="alt_name" v="Horntvedt" />
		<tag k="name" v="Horntvet" />
		<tag k="place" v="farm" />
		<tag k="ssr:stedsnr" v="366232" />
	</node>
	<node id="-392975" lat="59.3759083313" lon="10.3048305596">
		<tag k="name" v="Gorte" />
		<tag k="place" v="farm" />
		<tag k="ssr:stedsnr" v="366196" />
	</node>
	<node id="-392974" lat="59.3709999964" lon="10.2685000023">
		<tag k="name" v="Revetal" />
		<tag k="place" v="farm" />
		<tag k="ssr:stedsnr" v="366194" />
	</node>
	<node id="-392973" lat="59.3708055527" lon="10.2168944393">
		<tag k="alt_name" v="Dal v" />
		<tag k="name" v="Dal" />
		<tag k="place" v="farm" />
		<tag k="ssr:stedsnr" v="366191" />
	</node>
	<node id="-392972" lat="59.3750805586" lon="10.1994305644">
		<tag k="name" v="Bakke" />
		<tag k="place" v="farm" />
		<tag k="ssr:stedsnr" v="366188" />
	</node>
	<node id="-392971" lat="59.4265416662" lon="10.261186108">
		<tag k="alt_name" v="Siltvedt" />
		<tag k="name" v="Siltvet" />
		<tag k="place" v="farm" />
		<tag k="ssr:stedsnr" v="366182" />
	</node>
	<node id="-392970" lat="59.4372277795" lon="10.3153194362">
		<tag k="alt_name" v="Rostad nordre" />
		<tag k="name" v="Rostad" />
		<tag k="place" v="farm" />
		<tag k="ssr:stedsnr" v="366162" />
	</node>
	<node id="-392969" lat="59.4323916667" lon="10.14298334">
		<tag k="name" v="Dalen" />
		<tag k="place" v="isolated_dwelling" />
		<tag k="ssr:stedsnr" v="366151" />
	</node>
	<node id="-392968" lat="59.4377527796" lon="10.1121361154">
		<tag k="alt_name" v="Løn, nordre;Løn nedre;Nordre Løn" />
		<tag k="fixme" v="consider place=hamlet" />
		<tag k="name" v="Nedre Løn" />
		<tag k="place" v="farm" />
		<tag k="ssr:stedsnr" v="366082" />
	</node>
	<node id="-392967" lat="59.4453083303" lon="10.2795361138">
		<tag k="alt_name" v="Holm vestre" />
		<tag k="name" v="Holm" />
		<tag k="place" v="farm" />
		<tag k="ssr:stedsnr" v="366073" />
	</node>
	<node id="-392965" lat="59.2471416684" lon="10.457858329">
		<tag k="fixme" v="consider place=hamlet" />
		<tag k="name" v="Søndre Nes" />
		<tag k="place" v="farm" />
		<tag k="ssr:stedsnr" v="365005" />
	</node>
	<node id="-392959" lat="59.4398305571" lon="10.2982222268">
		<tag k="name" v="Haslestad søndre" />
		<tag k="place" v="farm" />
		<tag k="ssr:stedsnr" v="331901" />
	</node>
	<node id="-392958" lat="59.3992333371" lon="10.257819446">
		<tag k="name" v="Bakke søndre" />
		<tag k="place" v="farm" />
		<tag k="ssr:stedsnr" v="331576" />
	</node>
	<node id="-392956" lat="59.3298583334" lon="10.3115888909">
		<tag k="name" v="Reine" />
		<tag k="place" v="farm" />
		<tag k="ssr:stedsnr" v="331659" />
	</node>
	<node id="-392951" lat="59.4359277779" lon="10.2550694532">
		<tag k="name" v="Robak" />
		<tag k="place" v="farm" />
		<tag k="ssr:stedsnr" v="331646" />
	</node>
	<node id="-392949" lat="59.4473638889" lon="10.2475750026">
		<tag k="name" v="Lærum nordre" />
		<tag k="place" v="farm" />
		<tag k="ssr:stedsnr" v="331546" />
	</node>
	<node id="-392948" lat="59.4446472191" lon="10.2091777844">
		<tag k="name" v="Kleven søndre" />
		<tag k="place" v="farm" />
		<tag k="ssr:stedsnr" v="331535" />
	</node>
	<node id="-392946" lat="59.3761444422" lon="10.3888638907">
		<tag k="name" v="Råen" />
		<tag k="place" v="farm" />
		<tag k="ssr:stedsnr" v="331383" />
	</node>
	<node id="-392943" lat="59.3306055553" lon="10.2828499964">
		<tag k="name" v="Skalberg" />
		<tag k="place" v="farm" />
		<tag k="ssr:stedsnr" v="330792" />
	</node>
	<node id="-392942" lat="59.3771722211" lon="10.2925611101">
		<tag k="name" v="Berg søndre" />
		<tag k="place" v="farm" />
		<tag k="ssr:stedsnr" v="330786" />
	</node>
	<node id="-392941" lat="59.4361888906" lon="10.2704472228">
		<tag k="name" v="Gjelstad" />
		<tag k="place" v="farm" />
		<tag k="ssr:stedsnr" v="330896" />
	</node>
	<node id="-392940" lat="59.445822223" lon="10.3353583277">
		<tag k="name" v="Fegstad" />
		<tag k="place" v="farm" />
		<tag k="ssr:stedsnr" v="330890" />
	</node>
	<node id="-392939" lat="59.4213638875" lon="10.306041662">
		<tag k="name" v="Østeng" />
		<tag k="place" v="farm" />
		<tag k="ssr:stedsnr" v="330849" />
	</node>
	<node id="-392937" lat="59.3532833309" lon="10.3751555473">
		<tag k="name" v="Hem mellom" />
		<tag k="place" v="farm" />
		<tag k="ssr:stedsnr" v="330842" />
	</node>
	<node id="-392936" lat="59.4456611117" lon="10.3037694396">
		<tag k="name" v="Vissestad" />
		<tag k="place" v="farm" />
		<tag k="ssr:stedsnr" v="330839" />
	</node>
	<node id="-392933" lat="59.3698361076" lon="10.3700222164">
		<tag k="name" v="Solerød" />
		<tag k="place" v="farm" />
		<tag k="ssr:stedsnr" v="330766" />
	</node>
	<node id="-392932" lat="59.3708166662" lon="10.3697083396">
		<tag k="name" v="Solerød nordre" />
		<tag k="place" v="farm" />
		<tag k="ssr:stedsnr" v="330764" />
	</node>
	<node id="-392931" lat="59.3533888845" lon="10.2922749988">
		<tag k="name" v="Skjeggestadfeltet" />
		<tag k="place" v="quarter" />
		<tag k="ssr:stedsnr" v="330756" />
	</node>
	<node id="-392928" lat="59.3400055599" lon="10.3117833343">
		<tag k="name" v="Skovly" />
		<tag k="place" v="farm" />
		<tag k="ssr:stedsnr" v="330739" />
	</node>
	<node id="-392927" lat="59.3241749977" lon="10.2360472277">
		<tag k="name" v="Rolighet søndre" />
		<tag k="place" v="farm" />
		<tag k="ssr:stedsnr" v="330462" />
	</node>
	<node id="-392926" lat="59.3247722253" lon="10.2656194406">
		<tag k="name" v="Bjørgum" />
		<tag k="place" v="farm" />
		<tag k="ssr:stedsnr" v="330459" />
	</node>
	<node id="-392922" lat="59.3736138852" lon="10.1695833274">
		<tag k="name" v="Plassen" />
		<tag k="place" v="farm" />
		<tag k="ssr:stedsnr" v="330341" />
	</node>
	<node id="-392920" lat="59.3507555534" lon="10.2475388973">
		<tag k="name" v="Herredshus" />
		<tag k="place" v="farm" />
		<tag k="ssr:stedsnr" v="330290" />
	</node>
	<node id="-392910" lat="59.4380444402" lon="10.0878138846">
		<tag k="name" v="Skåtan" />
		<tag k="place" v="locality" />
		<tag k="ssr:stedsnr" v="330021" />
	</node>
	<node id="-392907" lat="59.2842861097" lon="10.4003333246">
		<tag k="amenity" v="school" />
		<tag k="name" v="Kjelle ungd.skole" />
		<tag k="ssr:stedsnr" v="328985" />
	</node>
	<node id="-392906" lat="59.3083416634" lon="10.4593833385">
		<tag k="name" v="Nygård" />
		<tag k="place" v="farm" />
		<tag k="ssr:stedsnr" v="328795" />
	</node>
	<node id="-392903" lat="59.3337916625" lon="10.4657527706">
		<tag k="fixme" v="consider place=hamlet" />
		<tag k="name" v="Hallingrød" />
		<tag k="place" v="farm" />
		<tag k="ssr:stedsnr" v="328763" />
	</node>
	<node id="-392902" lat="59.3306777777" lon="10.4061833342">
		<tag k="fixme" v="consider place=hamlet" />
		<tag k="name" v="Skotte" />
		<tag k="place" v="farm" />
		<tag k="ssr:stedsnr" v="328760" />
	</node>
	<node id="-392901" lat="59.269950001" lon="10.4813611194">
		<tag k="name" v="Krøgerløkka" />
		<tag k="place" v="quarter" />
		<tag k="ssr:stedsnr" v="328747" />
	</node>
	<node id="-392900" lat="59.2807972199" lon="10.4870166595">
		<tag k="fixme" v="consider place=hamlet" />
		<tag k="name" v="Ringshaug" />
		<tag k="place" v="village" />
		<tag k="ssr:stedsnr" v="328734" />
	</node>
	<node id="-392899" lat="59.2750249994" lon="10.4356833377">
		<tag k="name" v="Presterød" />
		<tag k="place" v="farm" />
		<tag k="ssr:stedsnr" v="328727" />
	</node>
	<node id="-392898" lat="59.2760361124" lon="10.4120166614">
		<tag k="leisure" v="pitch" />
		<tag k="name" v="Gamleidretten" />
		<tag k="ssr:stedsnr" v="328723" />
	</node>
	<node id="-392897" lat="59.3075194479" lon="10.4290527693">
		<tag k="name" v="Nordre Eik" />
		<tag k="place" v="quarter" />
		<tag k="ssr:stedsnr" v="324028" />
	</node>
	<node id="-392896" lat="59.2917499987" lon="10.3194805581">
		<tag k="alt_name" v="Nedre Lensberg" />
		<tag k="fixme" v="consider place=hamlet" />
		<tag k="name" v="Lensberg" />
		<tag k="place" v="farm" />
		<tag k="ssr:stedsnr" v="306864" />
	</node>
	<node id="-392894" lat="59.3070638917" lon="10.3397805606">
		<tag k="alt_name" v="Åleborgen" />
		<tag k="fixme" v="consider place=hamlet" />
		<tag k="name" v="Åleborga" />
		<tag k="place" v="farm" />
		<tag k="ssr:stedsnr" v="306824" />
	</node>
	<node id="-392891" lat="59.2833138932" lon="10.3535750004">
		<tag k="name" v="Aulilund" />
		<tag k="place" v="farm" />
		<tag k="ssr:stedsnr" v="306588" />
	</node>
	<node id="-392890" lat="59.326052782" lon="10.3442222269">
		<tag k="name" v="Freste, nordre" />
		<tag k="place" v="farm" />
		<tag k="ssr:stedsnr" v="306565" />
	</node>
	<node id="-392889" lat="59.3262694447" lon="10.4396027822">
		<tag k="alt_name" v="Rom, vestre;Rom Vestre" />
		<tag k="fixme" v="consider place=hamlet" />
		<tag k="name" v="Vestre Rom" />
		<tag k="place" v="farm" />
		<tag k="ssr:stedsnr" v="306563" />
	</node>
	<node id="-392888" lat="59.3347361077" lon="10.3786166718">
		<tag k="name" v="Tveiten" />
		<tag k="place" v="farm" />
		<tag k="ssr:stedsnr" v="306560" />
	</node>
	<node id="-392887" lat="59.3390611154" lon="10.4764888864">
		<tag k="alt_name" v="Stang" />
		<tag k="fixme" v="consider place=hamlet" />
		<tag k="name" v="Lille Stang" />
		<tag k="place" v="farm" />
		<tag k="ssr:stedsnr" v="306557" />
	</node>
	<node id="-392886" lat="59.4306944423" lon="10.2893999925">
		<tag k="name" v="Rånarud" />
		<tag k="place" v="farm" />
		<tag k="ssr:stedsnr" v="306177" />
	</node>
	<node id="-392885" lat="59.4195666679" lon="10.1106888862">
		<tag k="name" v="Bjørndalen" />
		<tag k="place" v="farm" />
		<tag k="ssr:stedsnr" v="306165" />
	</node>
	<node id="-392884" lat="59.4083277739" lon="10.3294750025">
		<tag k="name" v="Sando" />
		<tag k="place" v="farm" />
		<tag k="ssr:stedsnr" v="306139" />
	</node>
	<node id="-392883" lat="59.4140250027" lon="10.3070194384">
		<tag k="alt_name" v="Sørby søndre" />
		<tag k="name" v="Sørby" />
		<tag k="place" v="farm" />
		<tag k="ssr:stedsnr" v="306128" />
	</node>
	<node id="-392880" lat="59.3512111103" lon="10.4179749917">
		<tag k="fixme" v="consider place=hamlet" />
		<tag k="name" v="Myre" />
		<tag k="place" v="farm" />
		<tag k="ssr:stedsnr" v="305628" />
	</node>
	<node id="-392879" lat="59.3783027775" lon="10.2697027771">
		<tag k="name" v="Sunneklepp" />
		<tag k="place" v="farm" />
		<tag k="ssr:stedsnr" v="305192" />
	</node>
	<node id="-392878" lat="59.3769833304" lon="10.2556972302">
		<tag k="name" v="Rustan" />
		<tag k="place" v="farm" />
		<tag k="ssr:stedsnr" v="305190" />
	</node>
	<node id="-392877" lat="59.3745250005" lon="10.2394861113">
		<tag k="name" v="Lunnteigen" />
		<tag k="place" v="farm" />
		<tag k="ssr:stedsnr" v="305186" />
	</node>
	<node id="-392876" lat="59.434300002" lon="10.2023361125">
		<tag k="alt_name" v="Kranstad øvre" />
		<tag k="name" v="Kranstad" />
		<tag k="place" v="farm" />
		<tag k="ssr:stedsnr" v="305164" />
	</node>
	<node id="-392875" lat="59.4390999985" lon="10.1279583306">
		<tag k="name" v="Krøkli" />
		<tag k="place" v="farm" />
		<tag k="ssr:stedsnr" v="305090" />
	</node>
	<node id="-392874" lat="59.4410861085" lon="10.3182916628">
		<tag k="name" v="Nordby" />
		<tag k="place" v="farm" />
		<tag k="ssr:stedsnr" v="305079" />
	</node>
	<node id="-392873" lat="59.4417999963" lon="10.1780027778">
		<tag k="alt_name" v="Skotvedt nordre" />
		<tag k="name" v="Skotvet" />
		<tag k="place" v="farm" />
		<tag k="ssr:stedsnr" v="305065" />
	</node>
	<node id="-392872" lat="59.3941166695" lon="10.2056861198">
		<tag k="name" v="Fostre" />
		<tag k="place" v="farm" />
		<tag k="ssr:stedsnr" v="305249" />
	</node>
	<node id="-392867" lat="59.4395388893" lon="10.2792750076">
		<tag k="name" v="Sørum søndre" />
		<tag k="place" v="farm" />
		<tag k="ssr:stedsnr" v="209871" />
	</node>
	<node id="-392866" lat="59.4239138892" lon="10.2759694359">
		<tag k="name" v="Østerud" />
		<tag k="place" v="farm" />
		<tag k="ssr:stedsnr" v="209870" />
	</node>
	<node id="-392865" lat="59.4423472248" lon="10.2695388949">
		<tag k="name" v="Sørum sag" />
		<tag k="place" v="farm" />
		<tag k="ssr:stedsnr" v="209866" />
	</node>
	<node id="-392861" lat="59.4302583304" lon="10.2438750042">
		<tag k="name" v="Huseby" />
		<tag k="place" v="farm" />
		<tag k="ssr:stedsnr" v="209652" />
	</node>
	<node id="-392860" lat="59.4272750039" lon="10.2471861056">
		<tag k="name" v="Huseby" />
		<tag k="place" v="farm" />
		<tag k="ssr:stedsnr" v="209651" />
	</node>
	<node id="-392859" lat="59.4251555567" lon="10.24634166">
		<tag k="name" v="Bettum vestre" />
		<tag k="place" v="farm" />
		<tag k="ssr:stedsnr" v="209649" />
	</node>
	<node id="-392858" lat="59.4376861144" lon="10.238802781">
		<tag k="name" v="Hjelmtvedt" />
		<tag k="place" v="farm" />
		<tag k="ssr:stedsnr" v="209646" />
	</node>
	<node id="-392857" lat="59.4370361147" lon="10.2436222247">
		<tag k="name" v="Hjelmtvedt" />
		<tag k="place" v="farm" />
		<tag k="ssr:stedsnr" v="209643" />
	</node>
	<node id="-392856" lat="59.3423277818" lon="10.3678611127">
		<tag k="fixme" v="consider place=hamlet" />
		<tag k="name" v="Undrum søndre" />
		<tag k="place" v="farm" />
		<tag k="ssr:stedsnr" v="209801" />
	</node>
	<node id="-392855" lat="59.4552472241" lon="10.3016805471">
		<tag k="name" v="Lunde" />
		<tag k="place" v="farm" />
		<tag k="ssr:stedsnr" v="209787" />
	</node>
	<node id="-392852" lat="59.2934472189" lon="10.3348027803">
		<tag k="alt_name" v="Søndre Låne" />
		<tag k="fixme" v="consider place=hamlet" />
		<tag k="name" v="Låne S" />
		<tag k="place" v="farm" />
		<tag k="ssr:stedsnr" v="209756" />
	</node>
	<node id="-392851" lat="59.3762833374" lon="10.3148861154">
		<tag k="name" v="Dal nordre" />
		<tag k="place" v="farm" />
		<tag k="ssr:stedsnr" v="209746" />
	</node>
	<node id="-392850" lat="59.2942888855" lon="10.3526444381">
		<tag k="name" v="Vestfold fylkesvegvesen" />
		<tag k="place" v="quarter" />
		<tag k="ssr:stedsnr" v="209741" />
	</node>
	<node id="-392848" lat="59.3864361111" lon="10.2300999949">
		<tag k="name" v="Bjerkevold" />
		<tag k="place" v="farm" />
		<tag k="ssr:stedsnr" v="209569" />
	</node>
	<node id="-392847" lat="59.461002782" lon="10.1857833262">
		<tag k="name" v="Store Sjuve" />
		<tag k="place" v="farm" />
		<tag k="ssr:stedsnr" v="209563" />
	</node>
	<node id="-392845" lat="59.4502166633" lon="10.1668333255">
		<tag k="name" v="Plassen" />
		<tag k="place" v="isolated_dwelling" />
		<tag k="ssr:stedsnr" v="209553" />
	</node>
	<node id="-392844" lat="59.4265083365" lon="10.1997416686">
		<tag k="name" v="Holm" />
		<tag k="place" v="isolated_dwelling" />
		<tag k="ssr:stedsnr" v="209537" />
	</node>
	<node id="-392843" lat="59.4416194425" lon="10.1661833356">
		<tag k="name" v="Lian søndre" />
		<tag k="place" v="farm" />
		<tag k="ssr:stedsnr" v="209532" />
	</node>
	<node id="-392841" lat="59.3741638883" lon="10.2670500016">
		<tag k="name" v="Revetal" />
		<tag k="place" v="farm" />
		<tag k="ssr:stedsnr" v="209394" />
	</node>
	<node id="-392840" lat="59.3583138881" lon="10.2497138889">
		<tag k="amenity" v="school" />
		<tag k="name" v="Re videregående skole" />
		<tag k="ssr:stedsnr" v="209393" />
	</node>
	<node id="-392839" lat="59.3755833344" lon="10.252713884">
		<tag k="name" v="Ramski" />
		<tag k="place" v="farm" />
		<tag k="ssr:stedsnr" v="209389" />
	</node>
	<node id="-392838" lat="59.3555999991" lon="10.2505638899">
		<tag k="name" v="Berg østre" />
		<tag k="place" v="farm" />
		<tag k="ssr:stedsnr" v="209379" />
	</node>
	<node id="-392831" lat="59.3123944406" lon="10.5142666711">
		<tag k="name" v="Essoraffineriet" />
		<tag k="place" v="quarter" />
		<tag k="ssr:stedsnr" v="209196" />
	</node>
	<node id="-392830" lat="59.312777777" lon="10.5067777784">
		<tag k="name" v="Åsen" />
		<tag k="place" v="farm" />
		<tag k="ssr:stedsnr" v="209193" />
	</node>
	<node id="-392829" lat="59.4157972256" lon="10.1480722231">
		<tag k="name" v="Enga" />
		<tag k="place" v="locality" />
		<tag k="ssr:stedsnr" v="209187" />
	</node>
	<node id="-392822" lat="59.2824944445" lon="10.4029944461">
		<tag k="name" v="Kjelle" />
		<tag k="place" v="isolated_dwelling" />
		<tag k="ssr:stedsnr" v="207987" />
	</node>
	<node id="-392821" lat="59.304977775" lon="10.4538750031">
		<tag k="fixme" v="consider place=hamlet" />
		<tag k="name" v="Bø" />
		<tag k="place" v="farm" />
		<tag k="ssr:stedsnr" v="207796" />
	</node>
	<node id="-392820" lat="59.2952638866" lon="10.4504833345">
		<tag k="name" v="Basberg" />
		<tag k="place" v="farm" />
		<tag k="ssr:stedsnr" v="207794" />
	</node>
	<node id="-392819" lat="59.3056666666" lon="10.4413083263">
		<tag k="name" v="Skjolden" />
		<tag k="place" v="farm" />
		<tag k="ssr:stedsnr" v="207786" />
	</node>
	<node id="-392818" lat="59.3002166639" lon="10.3906194383">
		<tag k="name" v="Hestehagen" />
		<tag k="place" v="farm" />
		<tag k="ssr:stedsnr" v="207784" />
	</node>
	<node id="-392817" lat="59.3266555597" lon="10.451966674">
		<tag k="name" v="Rom" />
		<tag k="place" v="farm" />
		<tag k="ssr:stedsnr" v="207774" />
	</node>
	<node id="-392816" lat="59.2530000005" lon="10.4606833352">
		<tag k="name" v="Dyet" />
		<tag k="place" v="farm" />
		<tag k="ssr:stedsnr" v="207762" />
	</node>
	<node id="-392815" lat="59.2571222222" lon="10.4743916656">
		<tag k="amenity" v="school" />
		<tag k="name" v="Husvik skole" />
		<tag k="ssr:stedsnr" v="207758" />
	</node>
	<node id="-392814" lat="59.2691055594" lon="10.4524361165">
		<tag k="name" v="Rød" />
		<tag k="place" v="isolated_dwelling" />
		<tag k="ssr:stedsnr" v="207747" />
	</node>
	<node id="-392813" lat="59.2788111102" lon="10.449638893">
		<tag k="amenity" v="school" />
		<tag k="name" v="Sandeåsen skole" />
		<tag k="ssr:stedsnr" v="207733" />
	</node>
	<node id="-392810" lat="59.2834944419" lon="10.4624583251">
		<tag k="name" v="Linnom" />
		<tag k="place" v="farm" />
		<tag k="ssr:stedsnr" v="207724" />
	</node>
	<node id="-392807" lat="59.3224361154" lon="10.3331277757">
		<tag k="name" v="Freste" />
		<tag k="place" v="farm" />
		<tag k="ssr:stedsnr" v="185778" />
	</node>
	<node id="-392806" lat="59.255583558" lon="10.3711582268">
		<tag k="fixme" v="consider place=suburb, village or hamlet" />
		<tag k="name" v="Rakkevik" />
		<tag k="place" v="quarter" />
		<tag k="ssr:stedsnr" v="185617" />
	</node>
	<node id="-392805" lat="59.2599555547" lon="10.4566611155">
		<tag k="name" v="Snippen" />
		<tag k="place" v="farm" />
		<tag k="ssr:stedsnr" v="185613" />
	</node>
	<node id="-392804" lat="59.3977333311" lon="10.2895555498">
		<tag k="name" v="Langås" />
		<tag k="place" v="farm" />
		<tag k="ssr:stedsnr" v="185218" />
	</node>
	<node id="-392803" lat="59.4007777782" lon="10.2220555584">
		<tag k="alt_name" v="Skrikestad, vestre;Skrikestad v." />
		<tag k="name" v="Vestre Skrikestad" />
		<tag k="place" v="farm" />
		<tag k="ssr:stedsnr" v="185209" />
	</node>
	<node id="-392802" lat="59.3288388904" lon="10.2251138892">
		<tag k="name" v="Gordal" />
		<tag k="place" v="isolated_dwelling" />
		<tag k="ssr:stedsnr" v="184793" />
	</node>
	<node id="-392801" lat="59.3544666711" lon="10.329374992">
		<tag k="name" v="Sperre" />
		<tag k="place" v="farm" />
		<tag k="ssr:stedsnr" v="184760" />
	</node>
	<node id="-392798" lat="59.2982083333" lon="10.5157916604">
		<tag k="alt_name" v="Karlsvika, nordre" />
		<tag k="name" v="Nordre Karlsvika" />
		<tag k="place" v="farm" />
		<tag k="ssr:stedsnr" v="184659" />
	</node>
	<node id="-392797" lat="59.30300278" lon="10.5103138875">
		<tag k="name" v="Bolsrød" />
		<tag k="place" v="locality" />
		<tag k="ssr:stedsnr" v="184640" />
	</node>
	<node id="-392796" lat="59.3035555572" lon="10.3726777833">
		<tag k="fixme" v="consider place=hamlet" />
		<tag k="name" v="Rise" />
		<tag k="place" v="farm" />
		<tag k="ssr:stedsnr" v="184634" />
	</node>
	<node id="-392795" lat="59.3042249977" lon="10.3612166624">
		<tag k="fixme" v="consider place=hamlet" />
		<tag k="name" v="Fyllpå" />
		<tag k="place" v="farm" />
		<tag k="ssr:stedsnr" v="184631" />
	</node>
	<node id="-392794" lat="59.3240361098" lon="10.45314723">
		<tag k="alt_name" v="Rom, østre;Rom Østre" />
		<tag k="fixme" v="consider place=hamlet" />
		<tag k="name" v="Østre Rom" />
		<tag k="place" v="farm" />
		<tag k="ssr:stedsnr" v="184609" />
	</node>
	<node id="-392793" lat="59.3241305529" lon="10.4335611106">
		<tag k="fixme" v="consider place=hamlet" />
		<tag k="name" v="Kaltvedt" />
		<tag k="place" v="farm" />
		<tag k="ssr:stedsnr" v="184607" />
	</node>
	<node id="-392792" lat="59.3419166625" lon="10.4197472188">
		<tag k="alt_name" v="Jareteigen N;Nordre Jareteigen" />
		<tag k="fixme" v="consider place=hamlet" />
		<tag k="name" v="Jareteigen" />
		<tag k="place" v="farm" />
		<tag k="ssr:stedsnr" v="184586" />
	</node>
	<node id="-392791" lat="59.3937333343" lon="10.3221388897">
		<tag k="name" v="Grøstad" />
		<tag k="place" v="farm" />
		<tag k="ssr:stedsnr" v="184240" />
	</node>
	<node id="-392790" lat="59.3856361147" lon="10.2252083264">
		<tag k="name" v="Hasle" />
		<tag k="place" v="farm" />
		<tag k="ssr:stedsnr" v="184231" />
	</node>
	<node id="-392789" lat="59.390533337" lon="10.1178750059">
		<tag k="name" v="Valmestad" />
		<tag k="place" v="farm" />
		<tag k="ssr:stedsnr" v="184220" />
	</node>
	<node id="-392788" lat="59.3945666671" lon="10.1157888843">
		<tag k="name" v="Tuften" />
		<tag k="place" v="farm" />
		<tag k="ssr:stedsnr" v="184215" />
	</node>
	<node id="-392787" lat="59.3637749991" lon="10.1855555609">
		<tag k="name" v="Nyhus" />
		<tag k="place" v="farm" />
		<tag k="ssr:stedsnr" v="184205" />
	</node>
	<node id="-392786" lat="59.4316527801" lon="10.1806666736">
		<tag k="alt_name" v="Ødefjell nordre" />
		<tag k="name" v="Ødefjell" />
		<tag k="place" v="farm" />
		<tag k="ssr:stedsnr" v="184193" />
	</node>
	<node id="-392785" lat="59.4313277755" lon="10.2633138887">
		<tag k="name" v="Veierud" />
		<tag k="place" v="farm" />
		<tag k="ssr:stedsnr" v="184187" />
	</node>
	<node id="-392784" lat="59.4273694426" lon="10.3059472239">
		<tag k="name" v="Haga" />
		<tag k="place" v="farm" />
		<tag k="ssr:stedsnr" v="184183" />
	</node>
	<node id="-392782" lat="59.434463888" lon="10.2556750059">
		<tag k="alt_name" v="Robak" />
		<tag k="name" v="Robakk" />
		<tag k="place" v="farm" />
		<tag k="ssr:stedsnr" v="184170" />
	</node>
	<node id="-392781" lat="59.4201611127" lon="10.3235055517">
		<tag k="alt_name" v="Malmø øvre" />
		<tag k="name" v="Malme" />
		<tag k="place" v="farm" />
		<tag k="ssr:stedsnr" v="184130" />
	</node>
	<node id="-392780" lat="59.4162916674" lon="10.2873527745">
		<tag k="name" v="Lefsaker" />
		<tag k="place" v="farm" />
		<tag k="ssr:stedsnr" v="184129" />
	</node>
	<node id="-392779" lat="59.4714277781" lon="10.1974083296">
		<tag k="alt_name" v="Ruteig nedre" />
		<tag k="name" v="Ruteig" />
		<tag k="place" v="farm" />
		<tag k="ssr:stedsnr" v="184073" />
	</node>
	<node id="-392775" lat="59.3018555513" lon="10.2929194493">
		<tag k="name" v="Tønsberg fyllplass" />
		<tag k="place" v="quarter" />
		<tag k="ssr:stedsnr" v="153930" />
	</node>
	<node id="-392773" lat="59.3804166685" lon="10.3371083366">
		<tag k="name" v="Gjerpen" />
		<tag k="place" v="farm" />
		<tag k="ssr:stedsnr" v="148790" />
	</node>
	<node id="-392772" lat="59.3885749991" lon="10.3037583408">
		<tag k="name" v="Rønningen" />
		<tag k="place" v="farm" />
		<tag k="ssr:stedsnr" v="148786" />
	</node>
	<node id="-392770" lat="59.3318222234" lon="10.378988896">
		<tag k="name" v="Tveiten" />
		<tag k="place" v="farm" />
		<tag k="ssr:stedsnr" v="148766" />
	</node>
	<node id="-392768" lat="59.4224861152" lon="10.3302472308">
		<tag k="name" v="Haugan nordre" />
		<tag k="place" v="farm" />
		<tag k="ssr:stedsnr" v="148841" />
	</node>
	<node id="-392767" lat="59.4184861113" lon="10.333836106">
		<tag k="name" v="Haugan søndre" />
		<tag k="place" v="farm" />
		<tag k="ssr:stedsnr" v="148838" />
	</node>
	<node id="-392766" lat="59.3979055594" lon="10.2783361062">
		<tag k="name" v="Haug" />
		<tag k="place" v="farm" />
		<tag k="ssr:stedsnr" v="148831" />
	</node>
	<node id="-392763" lat="59.3572777748" lon="10.361572228">
		<tag k="name" v="Lefsaker" />
		<tag k="place" v="farm" />
		<tag k="ssr:stedsnr" v="148725" />
	</node>
	<node id="-392762" lat="59.3556249961" lon="10.3620444419">
		<tag k="name" v="Lefsaker" />
		<tag k="place" v="farm" />
		<tag k="ssr:stedsnr" v="148723" />
	</node>
	<node id="-392761" lat="59.4265666627" lon="10.1694499911">
		<tag k="name" v="Hytta" />
		<tag k="place" v="isolated_dwelling" />
		<tag k="ssr:stedsnr" v="148544" />
	</node>
	<node id="-392759" lat="59.4154777794" lon="10.2386583254">
		<tag k="name" v="Svinevoll" />
		<tag k="place" v="farm" />
		<tag k="ssr:stedsnr" v="148343" />
	</node>
	<node id="-392757" lat="59.413427782" lon="10.2113388867">
		<tag k="name" v="Krakken" />
		<tag k="place" v="farm" />
		<tag k="ssr:stedsnr" v="148333" />
	</node>
	<node id="-392756" lat="59.4122472212" lon="10.2153166606">
		<tag k="name" v="Myre" />
		<tag k="place" v="locality" />
		<tag k="ssr:stedsnr" v="148331" />
	</node>
	<node id="-392755" lat="59.3835361142" lon="10.1951916613">
		<tag k="name" v="Østre Jerpetjønn" />
		<tag k="place" v="farm" />
		<tag k="ssr:stedsnr" v="148324" />
	</node>
	<node id="-392753" lat="59.377144448" lon="10.2415638812">
		<tag k="name" v="Lundteigen" />
		<tag k="place" v="farm" />
		<tag k="ssr:stedsnr" v="148382" />
	</node>
	<node id="-392752" lat="59.3455194411" lon="10.2310805528">
		<tag k="name" v="Vesle Jonstang" />
		<tag k="place" v="locality" />
		<tag k="ssr:stedsnr" v="148300" />
	</node>
	<node id="-392747" lat="59.3398611085" lon="10.2335055558">
		<tag k="name" v="Nabben" />
		<tag k="place" v="isolated_dwelling" />
		<tag k="ssr:stedsnr" v="148279" />
	</node>
	<node id="-392745" lat="59.405911112" lon="10.1320055474">
		<tag k="name" v="Lunde" />
		<tag k="place" v="farm" />
		<tag k="ssr:stedsnr" v="148181" />
	</node>
	<node id="-392738" lat="59.2792666639" lon="10.4667388875">
		<tag k="fixme" v="consider place=hamlet" />
		<tag k="name" v="Åsmundrød" />
		<tag k="place" v="farm" />
		<tag k="ssr:stedsnr" v="146736" />
	</node>
	<node id="-392737" lat="59.2903972232" lon="10.3443888808">
		<tag k="name" v="Broen" />
		<tag k="place" v="farm" />
		<tag k="ssr:stedsnr" v="146382" />
	</node>
	<node id="-392736" lat="59.4283527745" lon="10.2879916621">
		<tag k="fixme" v="consider place=suburb, village or hamlet" />
		<tag k="name" v="Rånerudåsen" />
		<tag k="place" v="quarter" />
		<tag k="ssr:stedsnr" v="146081" />
	</node>
	<node id="-392735" lat="59.2847888855" lon="10.342291659">
		<tag k="name" v="Auli" />
		<tag k="place" v="farm" />
		<tag k="ssr:stedsnr" v="124827" />
	</node>
	<node id="-392734" lat="59.3327027757" lon="10.2811500007">
		<tag k="name" v="Hole" />
		<tag k="place" v="farm" />
		<tag k="ssr:stedsnr" v="124765" />
	</node>
	<node id="-392732" lat="59.2569916678" lon="10.4463111125">
		<tag k="fixme" v="consider place=hamlet" />
		<tag k="name" v="Teigen" />
		<tag k="place" v="farm" />
		<tag k="ssr:stedsnr" v="124619" />
	</node>
	<node id="-392731" lat="59.2531507516" lon="10.4606471">
		<tag k="name" v="Nordre Nes" />
		<tag k="old_name" v="Nes" />
		<tag k="place" v="farm" />
		<tag k="ssr:stedsnr" v="124618" />
	</node>
	<node id="-392730" lat="59.2730333291" lon="10.4917749917">
		<tag k="name" v="Furulund" />
		<tag k="place" v="isolated_dwelling" />
		<tag k="ssr:stedsnr" v="124608" />
	</node>
	<node id="-392728" lat="59.2824972238" lon="10.4482166675">
		<tag k="fixme" v="consider place=hamlet" />
		<tag k="name" v="Sande" />
		<tag k="place" v="farm" />
		<tag k="ssr:stedsnr" v="124581" />
	</node>
	<node id="-392727" lat="59.2643944475" lon="10.3396833382">
		<tag k="alt_name" v="Aker gård" />
		<tag k="fixme" v="consider place=hamlet" />
		<tag k="name" v="Aker" />
		<tag k="place" v="farm" />
		<tag k="ssr:stedsnr" v="123884" />
	</node>
	<node id="-392726" lat="59.3505388906" lon="10.2738194522">
		<tag k="alt_name" v="Heian n" />
		<tag k="name" v="Heian" />
		<tag k="place" v="farm" />
		<tag k="ssr:stedsnr" v="123784" />
	</node>
	<node id="-392725" lat="59.3081305571" lon="10.3544361055">
		<tag k="name" v="Fadum" />
		<tag k="place" v="farm" />
		<tag k="ssr:stedsnr" v="123681" />
	</node>
	<node id="-392724" lat="59.301150832" lon="10.374619992">
		<tag k="name" v="Hasle" />
		<tag k="place" v="isolated_dwelling" />
		<tag k="ssr:stedsnr" v="123671" />
	</node>
	<node id="-392723" lat="59.3529916694" lon="10.3503111133">
		<tag k="name" v="Holt" />
		<tag k="place" v="farm" />
		<tag k="ssr:stedsnr" v="123622" />
	</node>
	<node id="-392722" lat="59.3773972204" lon="10.3681999991">
		<tag k="alt_name" v="Bakskjul nedre" />
		<tag k="name" v="Bakskjul" />
		<tag k="place" v="farm" />
		<tag k="ssr:stedsnr" v="123587" />
	</node>
	<node id="-392721" lat="59.3887388896" lon="10.2034361135">
		<tag k="name" v="Solberg" />
		<tag k="place" v="farm" />
		<tag k="ssr:stedsnr" v="123248" />
	</node>
	<node id="-392720" lat="59.3662250015" lon="10.2114527823">
		<tag k="name" v="Bleika" />
		<tag k="place" v="farm" />
		<tag k="ssr:stedsnr" v="123234" />
	</node>
	<node id="-392719" lat="59.370261109" lon="10.2912749926">
		<tag k="name" v="Gunhildstad" />
		<tag k="place" v="farm" />
		<tag k="ssr:stedsnr" v="123214" />
	</node>
	<node id="-392718" lat="59.4208527799" lon="10.1174805628">
		<tag k="alt_name" v="Teigen, nordre;Teien n." />
		<tag k="name" v="Nordre Teigen" />
		<tag k="place" v="farm" />
		<tag k="ssr:stedsnr" v="123189" />
	</node>
	<node id="-392717" lat="59.4400277801" lon="10.2783444392">
		<tag k="alt_name" v="Sørum mellom" />
		<tag k="name" v="Sørum" />
		<tag k="place" v="farm" />
		<tag k="ssr:stedsnr" v="123182" />
	</node>
	<node id="-392716" lat="59.4262861116" lon="10.1148055499">
		<tag k="alt_name" v="Håvet" />
		<tag k="name" v="Hovet" />
		<tag k="place" v="farm" />
		<tag k="ssr:stedsnr" v="123169" />
	</node>
	<node id="-392715" lat="59.4062138905" lon="10.2383694435">
		<tag k="name" v="Tangen" />
		<tag k="place" v="farm" />
		<tag k="ssr:stedsnr" v="123162" />
	</node>
	<node id="-392714" lat="59.4110944486" lon="10.3349583338">
		<tag k="alt_name" v="Bruserødteigen" />
		<tag k="fixme" v="consider place=hamlet" />
		<tag k="name" v="Teigen" />
		<tag k="place" v="farm" />
		<tag k="ssr:stedsnr" v="123161" />
	</node>
	<node id="-392713" lat="59.4433250037" lon="10.3067555481">
		<tag k="alt_name" v="Vissestad" />
		<tag k="name" v="Visestad" />
		<tag k="place" v="farm" />
		<tag k="ssr:stedsnr" v="123097" />
	</node>
	<node id="-392712" lat="59.4483972227" lon="10.2892972198">
		<tag k="alt_name" v="Bakke, østre;Bakke østre" />
		<tag k="name" v="Østre Bakke" />
		<tag k="place" v="farm" />
		<tag k="ssr:stedsnr" v="123095" />
	</node>
	<node id="-392711" lat="59.4449666668" lon="10.1908472234">
		<tag k="name" v="Rød" />
		<tag k="place" v="farm" />
		<tag k="ssr:stedsnr" v="123086" />
	</node>
	<node id="-392701" lat="59.3696944402" lon="10.3914472185">
		<tag k="name" v="Råen" />
		<tag k="place" v="farm" />
		<tag k="ssr:stedsnr" v="89427" />
	</node>
	<node id="-392700" lat="59.3401305569" lon="10.4279555509">
		<tag k="fixme" v="consider place=hamlet" />
		<tag k="name" v="Lestestad" />
		<tag k="place" v="farm" />
		<tag k="ssr:stedsnr" v="89420" />
	</node>
	<node id="-392699" lat="59.3275500011" lon="10.4946944462">
		<tag k="alt_name" v="Markebo" />
		<tag k="name" v="Markebu" />
		<tag k="place" v="farm" />
		<tag k="ssr:stedsnr" v="89140" />
	</node>
	<node id="-392696" lat="59.4224361076" lon="10.3027555514">
		<tag k="building" v="civic" />
		<tag k="name" v="Våle telefonsentral" />
		<tag k="ssr:stedsnr" v="88882" />
	</node>
	<node id="-392695" lat="59.4015000023" lon="10.3425111094">
		<tag k="name" v="Linneflåtten" />
		<tag k="place" v="farm" />
		<tag k="ssr:stedsnr" v="88811" />
	</node>
	<node id="-392692" lat="59.4496527739" lon="10.3049027773">
		<tag k="name" v="Håkestad nordre" />
		<tag k="place" v="farm" />
		<tag k="ssr:stedsnr" v="88767" />
	</node>
	<node id="-392691" lat="59.3799444453" lon="10.3435055526">
		<tag k="name" v="Gjerpen" />
		<tag k="place" v="farm" />
		<tag k="ssr:stedsnr" v="88750" />
	</node>
	<node id="-392690" lat="59.3829166637" lon="10.3549333296">
		<tag k="name" v="Langklep nordre" />
		<tag k="place" v="farm" />
		<tag k="ssr:stedsnr" v="88747" />
	</node>
	<node id="-392687" lat="59.3197916669" lon="10.3597833409">
		<tag k="name" v="Ødegården" />
		<tag k="place" v="farm" />
		<tag k="ssr:stedsnr" v="88730" />
	</node>
	<node id="-392686" lat="59.3103055555" lon="10.2812083337">
		<tag k="name" v="Svetterød" />
		<tag k="place" v="farm" />
		<tag k="ssr:stedsnr" v="88715" />
	</node>
	<node id="-392685" lat="59.3775972222" lon="10.3277027755">
		<tag k="name" v="Lofstad" />
		<tag k="place" v="farm" />
		<tag k="ssr:stedsnr" v="88705" />
	</node>
	<node id="-392684" lat="59.3644611151" lon="10.3379972249">
		<tag k="name" v="Heum nordre" />
		<tag k="place" v="farm" />
		<tag k="ssr:stedsnr" v="88689" />
	</node>
	<node id="-392681" lat="59.3560638854" lon="10.2634611122">
		<tag k="name" v="Valle søndre" />
		<tag k="place" v="farm" />
		<tag k="ssr:stedsnr" v="88668" />
	</node>
	<node id="-392678" lat="59.3198111067" lon="10.2706111167">
		<tag k="name" v="Kamfjord øvre" />
		<tag k="place" v="farm" />
		<tag k="ssr:stedsnr" v="88594" />
	</node>
	<node id="-392675" lat="59.390277781" lon="10.2442833332">
		<tag k="name" v="Firing m." />
		<tag k="place" v="farm" />
		<tag k="ssr:stedsnr" v="88493" />
	</node>
	<node id="-392671" lat="59.4640555591" lon="10.2030305587">
		<tag k="name" v="Tørklep" />
		<tag k="place" v="isolated_dwelling" />
		<tag k="ssr:stedsnr" v="88468" />
	</node>
	<node id="-392667" lat="59.3216111095" lon="10.2621694454">
		<tag k="name" v="Kamfjord" />
		<tag k="place" v="locality" />
		<tag k="ssr:stedsnr" v="88372" />
	</node>
	<node id="-392661" lat="59.3678527747" lon="10.1759250012">
		<tag k="name" v="Skjeggerød" />
		<tag k="place" v="farm" />
		<tag k="ssr:stedsnr" v="88285" />
	</node>
	<node id="-392660" lat="59.3662083336" lon="10.2127805605">
		<tag k="name" v="Bleika" />
		<tag k="place" v="locality" />
		<tag k="ssr:stedsnr" v="88281" />
	</node>
	<node id="-392658" lat="59.3738361081" lon="10.1637722247">
		<tag k="name" v="Gunnerød" />
		<tag k="place" v="farm" />
		<tag k="ssr:stedsnr" v="88274" />
	</node>
	<node id="-392657" lat="59.4014361131" lon="10.2223361166">
		<tag k="name" v="Skrikestad" />
		<tag k="place" v="farm" />
		<tag k="ssr:stedsnr" v="88262" />
	</node>
	<node id="-392656" lat="59.4143694406" lon="10.2205472294">
		<tag k="name" v="Hvidsten" />
		<tag k="place" v="farm" />
		<tag k="ssr:stedsnr" v="88261" />
	</node>
	<node id="-392654" lat="59.3789999989" lon="10.1870138875">
		<tag k="name" v="Jerpetjønn" />
		<tag k="place" v="farm" />
		<tag k="ssr:stedsnr" v="88252" />
	</node>
	<node id="-392653" lat="59.4001888899" lon="10.1997694452">
		<tag k="name" v="Øvre Rønningen" />
		<tag k="place" v="farm" />
		<tag k="ssr:stedsnr" v="88247" />
	</node>
	<node id="-392652" lat="59.3416805544" lon="10.2314444378">
		<tag k="name" v="Sagfossen" />
		<tag k="place" v="isolated_dwelling" />
		<tag k="ssr:stedsnr" v="88240" />
	</node>
	<node id="-392650" lat="59.3497166647" lon="10.2487388842">
		<tag k="name" v="Ramnes nordre" />
		<tag k="place" v="farm" />
		<tag k="ssr:stedsnr" v="88236" />
	</node>
	<node id="-392649" lat="59.3509555558" lon="10.2394555604">
		<tag k="name" v="Berg vestre" />
		<tag k="place" v="farm" />
		<tag k="ssr:stedsnr" v="88232" />
	</node>
	<node id="-392646" lat="59.3832555535" lon="10.1528277791">
		<tag k="name" v="Kjønnerød" />
		<tag k="place" v="locality" />
		<tag k="ssr:stedsnr" v="88060" />
	</node>
	<node id="-392644" lat="59.3913361155" lon="10.112719453">
		<tag k="name" v="Valmestad" />
		<tag k="place" v="locality" />
		<tag k="ssr:stedsnr" v="88056" />
	</node>
	<node id="-392641" lat="59.2972500017" lon="10.4290888889">
		<tag k="alt_name" v="Eik Søndre" />
		<tag k="fixme" v="consider place=hamlet" />
		<tag k="name" v="Eik" />
		<tag k="place" v="farm" />
		<tag k="ssr:stedsnr" v="86794" />
	</node>
	<node id="-392639" lat="59.3152638864" lon="10.492052779">
		<tag k="name" v="Knatten" />
		<tag k="place" v="farm" />
		<tag k="ssr:stedsnr" v="85738" />
	</node>
	<node id="-392638" lat="59.2765861138" lon="10.4789472182">
		<tag k="fixme" v="consider place=suburb, village or hamlet" />
		<tag k="name" v="Gårdbo" />
		<tag k="place" v="quarter" />
		<tag k="ssr:stedsnr" v="85700" />
	</node>
	<node id="-392637" lat="59.3330888882" lon="10.4892472214">
		<tag k="name" v="Saltkopp" />
		<tag k="place" v="isolated_dwelling" />
		<tag k="ssr:stedsnr" v="85732" />
	</node>
	<node id="-392635" lat="59.2740805513" lon="10.4504916604">
		<tag k="fixme" v="consider place=hamlet" />
		<tag k="name" v="Olsrød" />
		<tag k="place" v="farm" />
		<tag k="ssr:stedsnr" v="64664" />
	</node>
	<node id="-392634" lat="59.3516583311" lon="10.2969527826">
		<tag k="name" v="Skjeggestad" />
		<tag k="place" v="farm" />
		<tag k="ssr:stedsnr" v="63772" />
	</node>
	<node id="-392633" lat="59.3428888895" lon="10.4713972161">
		<tag k="alt_name" v="Nordre Teigen" />
		<tag k="fixme" v="consider place=hamlet" />
		<tag k="name" v="Teigen" />
		<tag k="place" v="farm" />
		<tag k="ssr:stedsnr" v="63600" />
	</node>
	<node id="-392632" lat="59.347905556" lon="10.4346277839">
		<tag k="alt_name" v="Søndre Kjær" />
		<tag k="fixme" v="consider place=hamlet" />
		<tag k="name" v="Kjær" />
		<tag k="place" v="farm" />
		<tag k="ssr:stedsnr" v="63590" />
	</node>
	<node id="-392631" lat="59.3878583299" lon="10.0653777705">
		<tag k="alt_name" v="Valmestadseter" />
		<tag k="name" v="Valmestadsetra" />
		<tag k="place" v="isolated_dwelling" />
		<tag k="ssr:stedsnr" v="63252" />
	</node>
	<node id="-392630" lat="59.3975583344" lon="10.2033944459">
		<tag k="name" v="Rønningen" />
		<tag k="place" v="farm" />
		<tag k="ssr:stedsnr" v="63237" />
	</node>
	<node id="-392628" lat="59.3786583372" lon="10.2392833419">
		<tag k="name" v="Flåteteigen" />
		<tag k="place" v="farm" />
		<tag k="ssr:stedsnr" v="63201" />
	</node>
	<node id="-392627" lat="59.370888892" lon="10.2337749985">
		<tag k="name" v="Opprann" />
		<tag k="place" v="farm" />
		<tag k="ssr:stedsnr" v="63195" />
	</node>
	<node id="-392626" lat="59.4378999991" lon="10.3358166604">
		<tag k="name" v="Klavenes" />
		<tag k="place" v="farm" />
		<tag k="ssr:stedsnr" v="63172" />
	</node>
	<node id="-392625" lat="59.434705552" lon="10.2879111143">
		<tag k="alt_name" v="Lur øvre" />
		<tag k="name" v="Lur" />
		<tag k="place" v="farm" />
		<tag k="ssr:stedsnr" v="63170" />
	</node>
	<node id="-392624" lat="59.4314916623" lon="10.3220611142">
		<tag k="alt_name" v="Torp nordre" />
		<tag k="name" v="Torp" />
		<tag k="place" v="farm" />
		<tag k="ssr:stedsnr" v="63169" />
	</node>
	<node id="-392623" lat="59.4077499959" lon="10.3358999999">
		<tag k="name" v="Grøterud" />
		<tag k="place" v="farm" />
		<tag k="ssr:stedsnr" v="63156" />
	</node>
	<node id="-392622" lat="59.4053250036" lon="10.1202277827">
		<tag k="alt_name" v="Bygland" />
		<tag k="name" v="Byggland" />
		<tag k="place" v="farm" />
		<tag k="ssr:stedsnr" v="63151" />
	</node>
	<node id="-392621" lat="59.4008111137" lon="10.0696055488">
		<tag k="name" v="Elgseter" />
		<tag k="place" v="isolated_dwelling" />
		<tag k="ssr:stedsnr" v="63148" />
	</node>
	<node id="-392619" lat="59.4144916708" lon="10.2676916605">
		<tag k="name" v="Nåla" />
		<tag k="place" v="farm" />
		<tag k="ssr:stedsnr" v="63140" />
	</node>
	<node id="-392618" lat="59.4329277758" lon="10.1595916629">
		<tag k="name" v="Sameia" />
		<tag k="place" v="isolated_dwelling" />
		<tag k="ssr:stedsnr" v="63103" />
	</node>
	<node id="-392617" lat="59.4420749977" lon="10.2951055611">
		<tag k="alt_name" v="Haslestad nordre" />
		<tag k="name" v="Haslestad" />
		<tag k="place" v="farm" />
		<tag k="ssr:stedsnr" v="63096" />
	</node>
	<node id="-392616" lat="59.4425750015" lon="10.2648638852">
		<tag k="name" v="Jonsrud" />
		<tag k="place" v="farm" />
		<tag k="ssr:stedsnr" v="63091" />
	</node>
	<node id="-392614" lat="59.3118555534" lon="10.3777888928">
		<tag k="fixme" v="consider place=hamlet" />
		<tag k="name" v="Emmerød" />
		<tag k="place" v="farm" />
		<tag k="ssr:stedsnr" v="63635" />
	</node>
	<node id="-392613" lat="59.3030250026" lon="10.3539750077">
		<tag k="alt_name" v="Fadum S;Søndre Fadum" />
		<tag k="fixme" v="consider place=hamlet" />
		<tag k="name" v="Fadum" />
		<tag k="place" v="farm" />
		<tag k="ssr:stedsnr" v="63630" />
	</node>
	<node id="-392612" lat="59.2988805587" lon="10.4076083259">
		<tag k="alt_name" v="Søndre Berg" />
		<tag k="name" v="Berg" />
		<tag k="place" v="locality" />
		<tag k="ssr:stedsnr" v="63628" />
	</node>
	<node id="-392611" lat="59.3197611149" lon="10.4503638958">
		<tag k="alt_name" v="Rom Østre;Søndre Rom" />
		<tag k="fixme" v="consider place=hamlet" />
		<tag k="name" v="Rom" />
		<tag k="place" v="farm" />
		<tag k="ssr:stedsnr" v="63625" />
	</node>
	<node id="-392610" lat="59.3197388917" lon="10.4064861085">
		<tag k="name" v="Rakkås" />
		<tag k="place" v="farm" />
		<tag k="ssr:stedsnr" v="63624" />
	</node>
	<node id="-392609" lat="59.2436972188" lon="10.3569166723">
		<tag k="name" v="Roberg" />
		<tag k="place" v="farm" />
		<tag k="ssr:stedsnr" v="57119" />
	</node>
	<node id="-392605" lat="59.318049999" lon="10.4958638806">
		<tag k="name" v="Ereppløkka" />
		<tag k="place" v="farm" />
		<tag k="ssr:stedsnr" v="28139" />
	</node>
	<node id="-392602" lat="59.4306972219" lon="10.2874833322">
		<tag k="name" v="Rånerud vestre" />
		<tag k="place" v="farm" />
		<tag k="ssr:stedsnr" v="27878" />
	</node>
	<node id="-392600" lat="59.4153694421" lon="10.3223694472">
		<tag k="name" v="Opsahl" />
		<tag k="place" v="farm" />
		<tag k="ssr:stedsnr" v="27837" />
	</node>
	<node id="-392599" lat="59.4078305524" lon="10.2787944459">
		<tag k="name" v="Kjær (Luke)" />
		<tag k="place" v="farm" />
		<tag k="ssr:stedsnr" v="27832" />
	</node>
	<node id="-392596" lat="59.4465388887" lon="10.2988111087">
		<tag k="name" v="Bakke" />
		<tag k="place" v="farm" />
		<tag k="ssr:stedsnr" v="27812" />
	</node>
	<node id="-392594" lat="59.3283083336" lon="10.3391666598">
		<tag k="name" v="Traet" />
		<tag k="place" v="locality" />
		<tag k="ssr:stedsnr" v="27772" />
	</node>
	<node id="-392588" lat="59.3722500006" lon="10.31468611">
		<tag k="name" v="Lefsrødødegården" />
		<tag k="place" v="locality" />
		<tag k="ssr:stedsnr" v="27752" />
	</node>
	<node id="-392586" lat="59.3541194439" lon="10.2911972215">
		<tag k="name" v="Bø s" />
		<tag k="place" v="farm" />
		<tag k="ssr:stedsnr" v="27735" />
	</node>
	<node id="-392585" lat="59.3367583378" lon="10.3061444513">
		<tag k="name" v="Linnestad" />
		<tag k="place" v="farm" />
		<tag k="ssr:stedsnr" v="27728" />
	</node>
	<node id="-392584" lat="59.3313444455" lon="10.2947833268">
		<tag k="name" v="Hole østre" />
		<tag k="place" v="farm" />
		<tag k="ssr:stedsnr" v="27674" />
	</node>
	<node id="-392583" lat="59.3296555557" lon="10.2766194499">
		<tag k="name" v="Jare søndre" />
		<tag k="place" v="farm" />
		<tag k="ssr:stedsnr" v="27667" />
	</node>
	<node id="-392581" lat="59.3983277807" lon="10.2351250037">
		<tag k="name" v="Ås n." />
		<tag k="place" v="farm" />
		<tag k="ssr:stedsnr" v="27588" />
	</node>
	<node id="-392577" lat="59.4385055556" lon="10.2039305586">
		<tag k="name" v="Herkjeft nedre" />
		<tag k="place" v="farm" />
		<tag k="ssr:stedsnr" v="27537" />
	</node>
	<node id="-392576" lat="59.3579833377" lon="10.2249277708">
		<tag k="name" v="Studsrød" />
		<tag k="place" v="locality" />
		<tag k="ssr:stedsnr" v="27382" />
	</node>
	<node id="-392573" lat="59.315705556" lon="10.5063111065">
		<tag k="fixme" v="consider place=hamlet" />
		<tag k="name" v="Åsen" />
		<tag k="place" v="farm" />
		<tag k="ssr:stedsnr" v="27168" />
	</node>
	<node id="-392570" lat="59.4189999997" lon="10.1432305589">
		<tag k="name" v="Teie" />
		<tag k="place" v="locality" />
		<tag k="ssr:stedsnr" v="27161" />
	</node>
	<node id="-392569" lat="59.4130499965" lon="10.1360166735">
		<tag k="name" v="Langved n." />
		<tag k="place" v="farm" />
		<tag k="ssr:stedsnr" v="27157" />
	</node>
	<node id="-392568" lat="59.3068249961" lon="10.5005888818">
		<tag k="name" v="Tverved" />
		<tag k="place" v="farm" />
		<tag k="ssr:stedsnr" v="27156" />
	</node>
	<node id="-392566" lat="59.3996805591" lon="10.1267055487">
		<tag k="name" v="Russland" />
		<tag k="place" v="locality" />
		<tag k="ssr:stedsnr" v="27069" />
	</node>
	<node id="-392564" lat="59.415833334" lon="10.233022229">
		<tag k="name" v="Vika" />
		<tag k="place" v="farm" />
		<tag k="ssr:stedsnr" v="27336" />
	</node>
	<node id="-392562" lat="59.4196916633" lon="10.2507250079">
		<tag k="name" v="Bettum" />
		<tag k="place" v="farm" />
		<tag k="ssr:stedsnr" v="27332" />
	</node>
	<node id="-392561" lat="59.4128166695" lon="10.2477694425">
		<tag k="name" v="Hotvedt" />
		<tag k="place" v="farm" />
		<tag k="ssr:stedsnr" v="27329" />
	</node>
	<node id="-392560" lat="59.3481861149" lon="10.2264472254">
		<tag k="name" v="Tinghaug" />
		<tag k="place" v="farm" />
		<tag k="ssr:stedsnr" v="26359" />
	</node>
	<node id="-392556" lat="59.3002850414" lon="10.4249077421">
		<tag k="alt_name" v="Eik Mellem" />
		<tag k="name" v="Eik mellom" />
		<tag k="place" v="locality" />
		<tag k="ssr:stedsnr" v="25802" />
	</node>
	<node id="-392555" lat="59.3283194439" lon="10.4411138875">
		<tag k="alt_name" v="Nordvestre Rom" />
		<tag k="fixme" v="consider place=hamlet" />
		<tag k="name" v="Rom vestre" />
		<tag k="place" v="farm" />
		<tag k="ssr:stedsnr" v="25794" />
	</node>
	<node id="-392554" lat="59.2592916633" lon="10.4627527788">
		<tag k="name" v="Bulowstua" />
		<tag k="place" v="isolated_dwelling" />
		<tag k="ssr:stedsnr" v="25788" />
	</node>
	<node id="-392552" lat="59.2649200287" lon="10.3996655411">
		<tag k="name" v="Kaldnes" />
		<tag k="place" v="quarter" />
		<tag k="ssr:stedsnr" v="25764" />
	</node>
	<node id="-392544" lat="59.2593916656" lon="10.3609083356">
		<tag k="name" v="Vear" />
		<tag k="place" v="village" />
		<tag k="ssr:stedsnr" v="25390" />
	</node>
	<node id="-392543" lat="59.2595638881" lon="10.3718527699">
		<tag k="alt_name" v="Rakkevig" />
		<tag k="name" v="Rakkevik" />
		<tag k="place" v="isolated_dwelling" />
		<tag k="ssr:stedsnr" v="25388" />
	</node>
	<node id="-392542" lat="59.3723916695" lon="10.2630805472">
		<tag k="fixme" v="consider place=suburb, village or hamlet" />
		<tag k="name" v="Revetal" />
		<tag k="place" v="quarter" />
		<tag k="ssr:stedsnr" v="24263" />
	</node>
	<node id="-392541" lat="59.2881249958" lon="10.4871750068">
		<tag k="name" v="Basbergrønningen" />
		<tag k="place" v="quarter" />
		<tag k="ssr:stedsnr" v="21049" />
	</node>
	<node id="-392540" lat="59.2808611124" lon="10.2902416623">
		<tag k="fixme" v="consider place=hamlet" />
		<tag k="name" v="Tveitan" />
		<tag k="place" v="farm" />
		<tag k="ssr:stedsnr" v="3857" />
	</node>
	<node id="-392539" lat="59.2822972245" lon="10.3300361162">
		<tag k="name" v="Sem" />
		<tag k="place" v="village" />
		<tag k="ssr:stedsnr" v="3854" />
	</node>
	<node id="-392538" lat="59.3047888927" lon="10.29111112">
		<tag k="fixme" v="consider place=hamlet" />
		<tag k="name" v="Taranrød" />
		<tag k="place" v="farm" />
		<tag k="ssr:stedsnr" v="3825" />
	</node>
	<node id="-392537" lat="59.3174333338" lon="10.3331277696">
		<tag k="fixme" v="multiple name tags, choose one and add the other to alt_name; consider place=hamlet" />
		<tag k="name" v="Søndre Freste;Freste S." />
		<tag k="place" v="farm" />
		<tag k="ssr:stedsnr" v="3782" />
	</node>
	<node id="-392536" lat="59.2710361152" lon="10.4448749955">
		<tag k="fixme" v="consider place=hamlet" />
		<tag k="name" v="Presterød" />
		<tag k="place" v="farm" />
		<tag k="ssr:stedsnr" v="3627" />
	</node>
	<node id="-392535" lat="59.2754749986" lon="10.3464527837">
		<tag k="fixme" v="consider place=hamlet" />
		<tag k="name" v="Manum" />
		<tag k="place" v="farm" />
		<tag k="ssr:stedsnr" v="3625" />
	</node>
	<node id="-392534" lat="59.2514999997" lon="10.3436111037">
		<tag k="alt_name" v="Råstad N" />
		<tag k="name" v="Råstad" />
		<tag k="place" v="farm" />
		<tag k="ssr:stedsnr" v="3622" />
	</node>
	<node id="-392532" lat="59.2801913389" lon="10.4605147758">
		<tag k="fixme" v="consider place=hamlet" />
		<tag k="name" v="Gauterød" />
		<tag k="place" v="farm" />
		<tag k="ssr:stedsnr" v="3607" />
	</node>
	<node id="-392530" lat="59.3372388877" lon="10.2909888855">
		<tag k="name" v="Klopp" />
		<tag k="place" v="farm" />
		<tag k="ssr:stedsnr" v="2779" />
	</node>
	<node id="-392529" lat="59.3441611118" lon="10.2318555622">
		<tag k="name" v="Lerstang" />
		<tag k="place" v="farm" />
		<tag k="ssr:stedsnr" v="2747" />
	</node>
	<node id="-392528" lat="59.3490750018" lon="10.2440611055">
		<tag k="name" v="Stange" />
		<tag k="place" v="farm" />
		<tag k="ssr:stedsnr" v="2744" />
	</node>
	<node id="-392527" lat="59.3065777743" lon="10.4610500056">
		<tag k="fixme" v="consider place=hamlet" />
		<tag k="name" v="Horgen" />
		<tag k="place" v="farm" />
		<tag k="ssr:stedsnr" v="2649" />
	</node>
	<node id="-392526" lat="59.3047111094" lon="10.3982249954">
		<tag k="alt_name" v="Berg, nordre;Berg" />
		<tag k="fixme" v="consider place=hamlet" />
		<tag k="name" v="Nordre Berg" />
		<tag k="place" v="farm" />
		<tag k="ssr:stedsnr" v="2644" />
	</node>
	<node id="-392525" lat="59.3147527738" lon="10.4500277831">
		<tag k="alt_name" v="Lie" />
		<tag k="fixme" v="consider place=hamlet" />
		<tag k="name" v="Li" />
		<tag k="place" v="farm" />
		<tag k="ssr:stedsnr" v="2635" />
	</node>
	<node id="-392524" lat="59.3243555556" lon="10.389788891">
		<tag k="fixme" v="consider place=hamlet" />
		<tag k="name" v="Sverstad" />
		<tag k="place" v="farm" />
		<tag k="ssr:stedsnr" v="2618" />
	</node>
	<node id="-392523" lat="59.3368055511" lon="10.4147000003">
		<tag k="fixme" v="consider place=hamlet" />
		<tag k="name" v="Røsland" />
		<tag k="place" v="farm" />
		<tag k="ssr:stedsnr" v="2608" />
	</node>
	<node id="-392522" lat="59.3389277813" lon="10.3484527857">
		<tag k="alt_name" v="Hundstuen" />
		<tag k="name" v="Hundstua" />
		<tag k="place" v="farm" />
		<tag k="ssr:stedsnr" v="2602" />
	</node>
	<node id="-392521" lat="59.344599996" lon="10.3700249942">
		<tag k="alt_name" v="Undrum nordre" />
		<tag k="fixme" v="consider place=hamlet" />
		<tag k="name" v="Undrum" />
		<tag k="place" v="farm" />
		<tag k="ssr:stedsnr" v="2598" />
	</node>
	<node id="-392520" lat="59.3428055588" lon="10.4547388878">
		<tag k="name" v="Bollerød" />
		<tag k="place" v="farm" />
		<tag k="ssr:stedsnr" v="2596" />
	</node>
	<node id="-392518" lat="59.3721611108" lon="10.3537888947">
		<tag k="name" v="Grette" />
		<tag k="place" v="farm" />
		<tag k="ssr:stedsnr" v="2572" />
	</node>
	<node id="-392517" lat="59.4600888933" lon="10.3386000013">
		<tag k="name" v="Granheim" />
		<tag k="place" v="isolated_dwelling" />
		<tag k="ssr:stedsnr" v="2122" />
	</node>
	<node id="-392516" lat="59.4589388852" lon="10.2097916626">
		<tag k="name" v="Grytemørk" />
		<tag k="place" v="farm" />
		<tag k="ssr:stedsnr" v="2116" />
	</node>
	<node id="-392515" lat="59.4635305589" lon="10.204558339">
		<tag k="alt_name" v="Tørklep øvre" />
		<tag k="name" v="Tørklepp" />
		<tag k="place" v="farm" />
		<tag k="ssr:stedsnr" v="2115" />
	</node>
	<node id="-392514" lat="59.4286805589" lon="10.134291671">
		<tag k="name" v="Vivestad" />
		<tag k="place" v="hamlet" />
		<tag k="ssr:stedsnr" v="2096" />
	</node>
	<node id="-392513" lat="59.4443249995" lon="10.3397555535">
		<tag k="alt_name" v="Fegstad" />
		<tag k="name" v="Ofegstad" />
		<tag k="place" v="farm" />
		<tag k="ssr:stedsnr" v="2081" />
	</node>
	<node id="-392512" lat="59.4482888909" lon="10.2710027729">
		<tag k="name" v="Strange" />
		<tag k="place" v="farm" />
		<tag k="ssr:stedsnr" v="2076" />
	</node>
	<node id="-392511" lat="59.4544000014" lon="10.265391669">
		<tag k="alt_name" v="Badski" />
		<tag k="name" v="Baski" />
		<tag k="place" v="farm" />
		<tag k="ssr:stedsnr" v="2066" />
	</node>
	<node id="-392509" lat="59.3059795225" lon="10.4395390523">
		<tag k="name" v="Lille Roberg" />
		<tag k="place" v="locality" />
		<tag k="ssr:stedsnr" v="984943" />
	</node>
	<node id="-392508" lat="59.3066484295" lon="10.4390094275">
		<tag k="fixme" v="consider place=hamlet" />
		<tag k="name" v="Østre Roberg" />
		<tag k="place" v="farm" />
		<tag k="ssr:stedsnr" v="984941" />
	</node>
	<node id="-392507" lat="59.3070961981" lon="10.441048832">
		<tag k="fixme" v="consider place=hamlet" />
		<tag k="name" v="Søndre Roberg" />
		<tag k="place" v="farm" />
		<tag k="ssr:stedsnr" v="984939" />
	</node>
	<node id="-392506" lat="59.3040208849" lon="10.444616324">
		<tag k="fixme" v="consider place=hamlet" />
		<tag k="name" v="Klokkeråsen" />
		<tag k="place" v="farm" />
		<tag k="ssr:stedsnr" v="984938" />
	</node>
	<node id="-392505" lat="59.3104157124" lon="10.4723094955">
		<tag k="fixme" v="consider place=hamlet" />
		<tag k="name" v="Nordre Bø" />
		<tag k="place" v="farm" />
		<tag k="ssr:stedsnr" v="984936" />
	</node>
	<node id="-392504" lat="59.3032692281" lon="10.4681212962">
		<tag k="name" v="Hassum" />
		<tag k="place" v="hamlet" />
		<tag k="ssr:stedsnr" v="984934" />
	</node>
	<node id="-392503" lat="59.306096157" lon="10.4666975342">
		<tag k="fixme" v="consider place=hamlet" />
		<tag k="name" v="Nordre Hassum" />
		<tag k="place" v="farm" />
		<tag k="ssr:stedsnr" v="984933" />
	</node>
	<node id="-392502" lat="59.294247409" lon="10.4704258411">
		<tag k="name" v="Ilebrekke" />
		<tag k="place" v="hamlet" />
		<tag k="ssr:stedsnr" v="984932" />
	</node>
	<node id="-392501" lat="59.2973499261" lon="10.4550229352">
		<tag k="name" v="Basberg" />
		<tag k="place" v="hamlet" />
		<tag k="ssr:stedsnr" v="984929" />
	</node>
	<node id="-392500" lat="59.2988476708" lon="10.4541456837">
		<tag k="fixme" v="consider place=hamlet" />
		<tag k="name" v="Lille Basberg" />
		<tag k="place" v="farm" />
		<tag k="ssr:stedsnr" v="984928" />
	</node>
	<node id="-392499" lat="59.2941561379" lon="10.4568971036">
		<tag k="fixme" v="consider place=hamlet" />
		<tag k="name" v="Søndre Basberg" />
		<tag k="place" v="farm" />
		<tag k="ssr:stedsnr" v="984927" />
	</node>
	<node id="-392498" lat="59.2942070531" lon="10.4405156941">
		<tag k="name" v="Velle" />
		<tag k="place" v="hamlet" />
		<tag k="ssr:stedsnr" v="984926" />
	</node>
	<node id="-392497" lat="59.2930472695" lon="10.4385417784">
		<tag k="fixme" v="consider place=hamlet" />
		<tag k="name" v="Søndre Velle" />
		<tag k="place" v="farm" />
		<tag k="ssr:stedsnr" v="984925" />
	</node>
	<node id="-392496" lat="59.2993506808" lon="10.4280006177">
		<tag k="name" v="Eik" />
		<tag k="place" v="hamlet" />
		<tag k="ssr:stedsnr" v="984921" />
	</node>
	<node id="-392495" lat="59.2708688042" lon="10.311119216">
		<tag k="name" v="Brensrød" />
		<tag k="place" v="locality" />
		<tag k="ssr:stedsnr" v="985036" />
	</node>
	<node id="-392494" lat="59.2441359819" lon="10.4750947212">
		<tag k="name" v="Jersø" />
		<tag k="place" v="locality" />
		<tag k="ssr:stedsnr" v="985035" />
	</node>
	<node id="-392493" lat="59.245658514" lon="10.5029404096">
		<tag k="name" v="Torgersøya" />
		<tag k="place" v="locality" />
		<tag k="ssr:stedsnr" v="985034" />
	</node>
	<node id="-392492" lat="59.2384888609" lon="10.4607864835">
		<tag k="name" v="Husøy" />
		<tag k="place" v="locality" />
		<tag k="ssr:stedsnr" v="985032" />
	</node>
	<node id="-392491" lat="59.2536895872" lon="10.4662544878">
		<tag k="fixme" v="consider place=hamlet" />
		<tag k="name" v="Husvik" />
		<tag k="place" v="farm" />
		<tag k="ssr:stedsnr" v="985031" />
	</node>
	<node id="-392490" lat="59.2662822863" lon="10.4415658157">
		<tag k="name" v="Nedre Råel" />
		<tag k="place" v="locality" />
		<tag k="ssr:stedsnr" v="985030" />
	</node>
	<node id="-392489" lat="59.2691791451" lon="10.4508026711">
		<tag k="fixme" v="consider place=hamlet" />
		<tag k="name" v="Øvre Råel" />
		<tag k="place" v="farm" />
		<tag k="ssr:stedsnr" v="985029" />
	</node>
	<node id="-392488" lat="59.2878865881" lon="10.469819151">
		<tag k="name" v="Bekketjønnmyra" />
		<tag k="place" v="locality" />
		<tag k="ssr:stedsnr" v="985028" />
	</node>
	<node id="-392487" lat="59.2678527072" lon="10.4638188511">
		<tag k="name" v="Ulleviksrydningen" />
		<tag k="place" v="isolated_dwelling" />
		<tag k="ssr:stedsnr" v="985027" />
	</node>
	<node id="-392486" lat="59.2596492504" lon="10.4977355256">
		<tag k="name" v="Vallø" />
		<tag k="place" v="locality" />
		<tag k="ssr:stedsnr" v="985026" />
	</node>
	<node id="-392485" lat="59.2838888166" lon="10.4937390978">
		<tag k="fixme" v="consider place=hamlet" />
		<tag k="name" v="Ringshaug" />
		<tag k="place" v="farm" />
		<tag k="ssr:stedsnr" v="985025" />
	</node>
	<node id="-392484" lat="59.3035244682" lon="10.5044883712">
		<tag k="name" v="Bolsrød" />
		<tag k="place" v="locality" />
		<tag k="ssr:stedsnr" v="985024" />
	</node>
	<node id="-392483" lat="59.3056484374" lon="10.5169059782">
		<tag k="name" v="Nordre Karlsviken" />
		<tag k="place" v="locality" />
		<tag k="ssr:stedsnr" v="984987" />
	</node>
	<node id="-392482" lat="59.3214300618" lon="10.470726497">
		<tag k="name" v="Rørås" />
		<tag k="place" v="hamlet" />
		<tag k="ssr:stedsnr" v="984983" />
	</node>
	<node id="-392481" lat="59.2603321884" lon="10.3538080035">
		<tag k="name" v="Eldre" />
		<tag k="place" v="isolated_dwelling" />
		<tag k="ssr:stedsnr" v="984820" />
	</node>
	<node id="-392478" lat="59.4234944408" lon="10.2033944523">
		<tag k="name" v="Sulutvedt øvre" />
		<tag k="place" v="farm" />
		<tag k="ssr:stedsnr" v="938623" />
	</node>
	<node id="-392475" lat="59.3927444484" lon="10.2652777747">
		<tag k="name" v="Bjerkeskaug søndre" />
		<tag k="place" v="farm" />
		<tag k="ssr:stedsnr" v="938574" />
	</node>
	<node id="-392474" lat="59.3868249976" lon="10.2548527756">
		<tag k="name" v="Fossan" />
		<tag k="place" v="farm" />
		<tag k="ssr:stedsnr" v="938571" />
	</node>
	<node id="-392473" lat="59.4454388881" lon="10.3069361163">
		<tag k="name" v="Håkestad" />
		<tag k="place" v="farm" />
		<tag k="ssr:stedsnr" v="937826" />
	</node>
	<node id="-392472" lat="59.4525694447" lon="10.2999694438">
		<tag k="name" v="Åsen" />
		<tag k="place" v="farm" />
		<tag k="ssr:stedsnr" v="937825" />
	</node>
	<node id="-392470" lat="59.3424805511" lon="10.2592916715">
		<tag k="name" v="Hagen" />
		<tag k="place" v="farm" />
		<tag k="ssr:stedsnr" v="937322" />
	</node>
	<node id="-392468" lat="59.3475083316" lon="10.2381861145">
		<tag k="name" v="Lerstang" />
		<tag k="place" v="farm" />
		<tag k="ssr:stedsnr" v="937309" />
	</node>
	<node id="-392463" lat="59.3234555597" lon="10.5130444503">
		<tag k="name" v="Esso Raffineriet Norge A/S" />
		<tag k="place" v="quarter" />
		<tag k="ssr:stedsnr" v="937225" />
	</node>
	<node id="-392461" lat="59.4005027798" lon="10.128833326">
		<tag k="name" v="Bjerkelund" />
		<tag k="place" v="farm" />
		<tag k="ssr:stedsnr" v="937214" />
	</node>
	<node id="-392457" lat="59.3142305593" lon="10.4914750062">
		<tag k="name" v="Knatten" />
		<tag k="place" v="farm" />
		<tag k="ssr:stedsnr" v="935804" />
	</node>
	<node id="-392456" lat="59.2704305526" lon="10.3573583266">
		<tag k="name" v="Bjelland" />
		<tag k="place" v="quarter" />
		<tag k="ssr:stedsnr" v="935409" />
	</node>
	<node id="-392453" lat="59.3704361127" lon="10.3363833348">
		<tag k="name" v="Grøum" />
		<tag k="place" v="farm" />
		<tag k="ssr:stedsnr" v="912218" />
	</node>
	<node id="-392448" lat="59.3648000044" lon="10.3112027802">
		<tag k="name" v="Venås s." />
		<tag k="place" v="farm" />
		<tag k="ssr:stedsnr" v="877756" />
	</node>
	<node id="-392447" lat="59.4137416681" lon="10.3353555554">
		<tag k="name" v="Bakke" />
		<tag k="place" v="farm" />
		<tag k="ssr:stedsnr" v="877845" />
	</node>
	<node id="-392446" lat="59.4171333325" lon="10.3340749975">
		<tag k="name" v="Haugan nordre" />
		<tag k="place" v="farm" />
		<tag k="ssr:stedsnr" v="877842" />
	</node>
	<node id="-392445" lat="59.3995611073" lon="10.3431500075">
		<tag k="name" v="Linneflåtten" />
		<tag k="place" v="farm" />
		<tag k="ssr:stedsnr" v="877803" />
	</node>
	<node id="-392442" lat="59.3485194428" lon="10.440780561">
		<tag k="name" v="Gullerød" />
		<tag k="place" v="farm" />
		<tag k="ssr:stedsnr" v="874821" />
	</node>
	<node id="-392440" lat="59.2717361113" lon="10.4735361161">
		<tag k="name" v="Langvald" />
		<tag k="place" v="isolated_dwelling" />
		<tag k="ssr:stedsnr" v="874766" />
	</node>
	<node id="-392438" lat="59.2735555528" lon="10.3659833287">
		<tag k="name" v="Hogsnes" />
		<tag k="place" v="village" />
		<tag k="ssr:stedsnr" v="874412" />
	</node>
	<node id="-392436" lat="59.2671583302" lon="10.3561416654">
		<tag k="name" v="Bjelland" />
		<tag k="place" v="locality" />
		<tag k="ssr:stedsnr" v="853654" />
	</node>
	<node id="-392435" lat="59.3477861093" lon="10.3252555526">
		<tag k="alt_name" v="Dal, østre;Dal ø.;Dal ø" />
		<tag k="name" v="Østre Dal" />
		<tag k="place" v="farm" />
		<tag k="ssr:stedsnr" v="852723" />
	</node>
	<node id="-392434" lat="59.3422444403" lon="10.2824416659">
		<tag k="alt_name" v="Heian s" />
		<tag k="name" v="Heian" />
		<tag k="place" v="farm" />
		<tag k="ssr:stedsnr" v="852722" />
	</node>
	<node id="-392433" lat="59.3468916666" lon="10.2204166706">
		<tag k="name" v="Skytøya" />
		<tag k="place" v="farm" />
		<tag k="ssr:stedsnr" v="852716" />
	</node>
	<node id="-392432" lat="59.3355638884" lon="10.3686055559">
		<tag k="alt_name" v="Mellem Undrum" />
		<tag k="fixme" v="consider place=hamlet" />
		<tag k="name" v="Undrum" />
		<tag k="place" v="farm" />
		<tag k="ssr:stedsnr" v="852573" />
	</node>
	<node id="-392431" lat="59.3938999966" lon="10.2786694509">
		<tag k="name" v="Tangen" />
		<tag k="place" v="farm" />
		<tag k="ssr:stedsnr" v="852255" />
	</node>
	<node id="-392430" lat="59.4174138863" lon="10.1082583273">
		<tag k="name" v="Låne" />
		<tag k="place" v="farm" />
		<tag k="ssr:stedsnr" v="852176" />
	</node>
	<node id="-392429" lat="59.4377027795" lon="10.2007305565">
		<tag k="name" v="Herkjeft" />
		<tag k="place" v="farm" />
		<tag k="ssr:stedsnr" v="852172" />
	</node>
	<node id="-392428" lat="59.434149996" lon="10.1866416702">
		<tag k="alt_name" v="Hvam søndre" />
		<tag k="name" v="Hvam" />
		<tag k="place" v="farm" />
		<tag k="ssr:stedsnr" v="852171" />
	</node>
	<node id="-392425" lat="59.4627944453" lon="10.1900805584">
		<tag k="alt_name" v="Sjuve" />
		<tag k="name" v="Sjue" />
		<tag k="place" v="farm" />
		<tag k="ssr:stedsnr" v="852113" />
	</node>
	<node id="-392424" lat="59.4618833328" lon="10.1854777766">
		<tag k="name" v="Haga" />
		<tag k="place" v="farm" />
		<tag k="ssr:stedsnr" v="852112" />
	</node>
	<node id="-392422" lat="59.3816749981" lon="10.2824333287">
		<tag k="name" v="Ormestad" />
		<tag k="place" v="farm" />
		<tag k="ssr:stedsnr" v="852205" />
	</node>
	<node id="-392420" lat="59.4424944456" lon="10.340338881">
		<tag k="name" v="Fegstad" />
		<tag k="place" v="farm" />
		<tag k="ssr:stedsnr" v="938897" />
	</node>
	<node id="-392417" lat="59.3354222204" lon="10.2885833397">
		<tag k="name" v="Hole østre" />
		<tag k="place" v="farm" />
		<tag k="ssr:stedsnr" v="938642" />
	</node>
	<node id="-392415" lat="59.4411972247" lon="10.2645111054">
		<tag k="name" v="Jonsrud" />
		<tag k="place" v="farm" />
		<tag k="ssr:stedsnr" v="938630" />
	</node>
	<node id="-392412" lat="59.3540305556" lon="10.419338896">
		<tag k="name" v="Myre" />
		<tag k="place" v="farm" />
		<tag k="ssr:stedsnr" v="938385" />
	</node>
	<node id="-392408" lat="59.4281222201" lon="10.3006250034">
		<tag k="name" v="Sørby nordre" />
		<tag k="place" v="farm" />
		<tag k="ssr:stedsnr" v="937894" />
	</node>
	<node id="-392407" lat="59.4329916651" lon="10.2703194444">
		<tag k="name" v="Gjelstad" />
		<tag k="place" v="farm" />
		<tag k="ssr:stedsnr" v="937889" />
	</node>
	<node id="-392406" lat="59.3867694446" lon="10.3427916626">
		<tag k="name" v="Fossås nordre" />
		<tag k="place" v="farm" />
		<tag k="ssr:stedsnr" v="937802" />
	</node>
	<node id="-392399" lat="59.3676250007" lon="10.3104527703">
		<tag k="name" v="Venås n." />
		<tag k="place" v="farm" />
		<tag k="ssr:stedsnr" v="937764" />
	</node>
	<node id="-392398" lat="59.3672472258" lon="10.3670222306">
		<tag k="alt_name" v="Rød" />
		<tag k="name" v="Vedvik" />
		<tag k="place" v="farm" />
		<tag k="ssr:stedsnr" v="937752" />
	</node>
	<node id="-392397" lat="59.3377444426" lon="10.2980083333">
		<tag k="name" v="Klopp ø" />
		<tag k="place" v="farm" />
		<tag k="ssr:stedsnr" v="937742" />
	</node>
	<node id="-392395" lat="59.3399722199" lon="10.3224083327">
		<tag k="name" v="Solli" />
		<tag k="place" v="farm" />
		<tag k="ssr:stedsnr" v="937737" />
	</node>
	<node id="-392393" lat="59.4139916632" lon="10.3073388886">
		<tag k="name" v="Fjell" />
		<tag k="place" v="farm" />
		<tag k="ssr:stedsnr" v="937844" />
	</node>
	<node id="-392392" lat="59.4107999967" lon="10.2814444515">
		<tag k="name" v="Brekkeåsen" />
		<tag k="place" v="farm" />
		<tag k="ssr:stedsnr" v="937835" />
	</node>
	<node id="-392389" lat="59.3894333321" lon="10.2322833253">
		<tag k="name" v="Gjevlingen" />
		<tag k="place" v="farm" />
		<tag k="ssr:stedsnr" v="937589" />
	</node>
	<node id="-392386" lat="59.4433466882" lon="10.1926321126">
		<tag k="name" v="Hestehagen" />
		<tag k="place" v="farm" />
		<tag k="ssr:stedsnr" v="937555" />
	</node>
	<node id="-392378" lat="59.3797277814" lon="10.1850583349">
		<tag k="name" v="Solheim" />
		<tag k="place" v="farm" />
		<tag k="ssr:stedsnr" v="937336" />
	</node>
	<node id="-392376" lat="59.3866666658" lon="10.125991668">
		<tag k="name" v="Holmene" />
		<tag k="place" v="locality" />
		<tag k="ssr:stedsnr" v="937099" />
	</node>
	<node id="-392374" lat="59.4418916633" lon="10.1005444454">
		<tag k="name" v="Østli" />
		<tag k="place" v="farm" />
		<tag k="ssr:stedsnr" v="937020" />
	</node>
	<node id="-392372" lat="59.4130333324" lon="10.2803111157">
		<tag k="name" v="Brekkeåsen" />
		<tag k="place" v="quarter" />
		<tag k="ssr:stedsnr" v="936344" />
	</node>
	<node id="-392371" lat="59.4406777794" lon="10.09673333">
		<tag k="name" v="O" />
		<tag k="place" v="farm" />
		<tag k="ssr:stedsnr" v="936339" />
	</node>
	<node id="-392370" lat="59.2971333377" lon="10.4152000003">
		<tag k="amenity" v="school" />
		<tag k="name" v="Kongseik skole" />
		<tag k="ssr:stedsnr" v="935788" />
	</node>
	<node id="-392369" lat="59.2971694444" lon="10.4049527722">
		<tag k="name" v="Plassen" />
		<tag k="place" v="farm" />
		<tag k="ssr:stedsnr" v="935787" />
	</node>
	<node id="-392368" lat="59.3231611106" lon="10.4498277705">
		<tag k="fixme" v="consider place=hamlet" />
		<tag k="name" v="Kroks-Rom" />
		<tag k="place" v="farm" />
		<tag k="ssr:stedsnr" v="935779" />
	</node>
	<node id="-392367" lat="59.3198527808" lon="10.3854027847">
		<tag k="alt_name" v="Østre Eikeberg" />
		<tag k="fixme" v="consider place=hamlet" />
		<tag k="name" v="Eikeberg" />
		<tag k="place" v="farm" />
		<tag k="ssr:stedsnr" v="935775" />
	</node>
	<node id="-392364" lat="59.3694416644" lon="10.3547583402">
		<tag k="name" v="Grette" />
		<tag k="place" v="farm" />
		<tag k="ssr:stedsnr" v="816754" />
	</node>
	<node id="-392362" lat="59.3501222228" lon="10.1985472156">
		<tag k="name" v="Fredli" />
		<tag k="place" v="isolated_dwelling" />
		<tag k="ssr:stedsnr" v="816358" />
	</node>
	<node id="-392361" lat="59.3843694448" lon="10.1748416591">
		<tag k="name" v="Bråten" />
		<tag k="place" v="farm" />
		<tag k="ssr:stedsnr" v="816311" />
	</node>
	<node id="-392360" lat="59.3878750031" lon="10.2536472292">
		<tag k="name" v="Nordre Fossan mølle" />
		<tag k="ssr:stedsnr" v="816622" />
		<tag k="tourism" v="hotel" />
	</node>
	<node id="-392357" lat="59.4491055554" lon="10.0892583395">
		<tag k="name" v="Orrevål" />
		<tag k="place" v="farm" />
		<tag k="ssr:stedsnr" v="816114" />
	</node>
	<node id="-392356" lat="59.4208222239" lon="10.1333638955">
		<tag k="fixme" v="consider place=hamlet" />
		<tag k="name" v="Vivestad mellom" />
		<tag k="place" v="farm" />
		<tag k="ssr:stedsnr" v="816022" />
	</node>
	<node id="-392353" lat="59.364802774" lon="10.2702416731">
		<tag k="name" v="Valleåsen" />
		<tag k="place" v="quarter" />
		<tag k="ssr:stedsnr" v="815359" />
	</node>
	<node id="-392352" lat="59.249013186" lon="10.4508991793">
		<tag k="alt_name" v="Nordre Nes;Nes Nordre" />
		<tag k="name" v="N. Nes" />
		<tag k="place" v="farm" />
		<tag k="ssr:stedsnr" v="814974" />
	</node>
	<node id="-392349" lat="59.2694722238" lon="10.3761833339">
		<tag k="name" v="Smørberg" />
		<tag k="place" v="farm" />
		<tag k="ssr:stedsnr" v="798639" />
	</node>
	<node id="-392348" lat="59.2675083365" lon="10.4076361066">
		<tag k="name" v="Tønsberg" />
		<tag k="place" v="town" />
		<tag k="ssr:stedsnr" v="792644" />
	</node>
	<node id="-392347" lat="59.274183334" lon="10.3533861167">
		<tag k="name" v="Bjelland" />
		<tag k="place" v="farm" />
		<tag k="ssr:stedsnr" v="792638" />
	</node>
	<node id="-392346" lat="59.3225000027" lon="10.3269638976">
		<tag k="name" v="Innlaget" />
		<tag k="place" v="farm" />
		<tag k="ssr:stedsnr" v="791798" />
	</node>
	<node id="-392345" lat="59.3573916639" lon="10.3422249969">
		<tag k="name" v="Amundrød" />
		<tag k="place" v="isolated_dwelling" />
		<tag k="ssr:stedsnr" v="791775" />
	</node>
	<node id="-392344" lat="59.3555305565" lon="10.3245944414">
		<tag k="alt_name" v="Bøteigen" />
		<tag k="name" v="Teigen" />
		<tag k="place" v="isolated_dwelling" />
		<tag k="ssr:stedsnr" v="791774" />
	</node>
	<node id="-392343" lat="59.3408138923" lon="10.317866668">
		<tag k="name" v="Kløv" />
		<tag k="place" v="farm" />
		<tag k="ssr:stedsnr" v="791753" />
	</node>
	<node id="-392342" lat="59.3269305529" lon="10.2332333413">
		<tag k="alt_name" v="Rolighet nedre" />
		<tag k="name" v="Rolighet" />
		<tag k="place" v="farm" />
		<tag k="ssr:stedsnr" v="791817" />
	</node>
	<node id="-392341" lat="59.3657777763" lon="10.2583444441">
		<tag k="name" v="Brår" />
		<tag k="place" v="farm" />
		<tag k="ssr:stedsnr" v="791203" />
	</node>
	<node id="-392339" lat="59.4323111127" lon="10.2479083247">
		<tag k="name" v="Huseby" />
		<tag k="place" v="farm" />
		<tag k="ssr:stedsnr" v="791167" />
	</node>
	<node id="-392337" lat="59.2880888933" lon="10.3297888859">
		<tag k="name" v="Aulerød" />
		<tag k="place" v="farm" />
		<tag k="ssr:stedsnr" v="914848" />
	</node>
	<node id="-392336" lat="59.2938194402" lon="10.3351694451">
		<tag k="name" v="Låne" />
		<tag k="place" v="farm" />
		<tag k="ssr:stedsnr" v="913861" />
	</node>
	<node id="-392335" lat="59.2884944462" lon="10.3411055567">
		<tag k="name" v="Ra" />
		<tag k="place" v="farm" />
		<tag k="ssr:stedsnr" v="913860" />
	</node>
	<node id="-392334" lat="59.3397111137" lon="10.3327166609">
		<tag k="name" v="Horn" />
		<tag k="place" v="farm" />
		<tag k="ssr:stedsnr" v="913782" />
	</node>
	<node id="-392333" lat="59.3172833365" lon="10.2324999952">
		<tag k="alt_name" v="Grorud" />
		<tag k="name" v="Grorød" />
		<tag k="place" v="farm" />
		<tag k="ssr:stedsnr" v="913774" />
	</node>
	<node id="-392332" lat="59.356280559" lon="10.2844305625">
		<tag k="alt_name" v="Bø n" />
		<tag k="name" v="Bø" />
		<tag k="place" v="farm" />
		<tag k="ssr:stedsnr" v="913756" />
	</node>
	<node id="-392331" lat="59.279044446" lon="10.3689555515">
		<tag k="leisure" v="pitch" />
		<tag k="name" v="Jarlsberg travbane" />
		<tag k="ssr:stedsnr" v="913634" />
	</node>
	<node id="-392330" lat="59.32085" lon="10.4200111127">
		<tag k="alt_name" v="Rakkås N;Nordre Rakkås" />
		<tag k="fixme" v="consider place=hamlet" />
		<tag k="name" v="Rakkås" />
		<tag k="place" v="farm" />
		<tag k="ssr:stedsnr" v="913589" />
	</node>
	<node id="-392329" lat="59.3143333346" lon="10.517141662">
		<tag k="name" v="Slagentangen" />
		<tag k="place" v="quarter" />
		<tag k="ssr:stedsnr" v="913587" />
	</node>
	<node id="-392328" lat="59.3350388908" lon="10.4683694414">
		<tag k="fixme" v="consider place=hamlet" />
		<tag k="name" v="Hallingrød" />
		<tag k="place" v="farm" />
		<tag k="ssr:stedsnr" v="913571" />
	</node>
	<node id="-392327" lat="59.3332555563" lon="10.406080553">
		<tag k="name" v="Skotte" />
		<tag k="place" v="farm" />
		<tag k="ssr:stedsnr" v="913566" />
	</node>
	<node id="-392325" lat="59.4023888915" lon="10.1867805604">
		<tag k="alt_name" v="Røssedal" />
		<tag k="name" v="Røssdalen" />
		<tag k="place" v="isolated_dwelling" />
		<tag k="ssr:stedsnr" v="913211" />
	</node>
	<node id="-392324" lat="59.3613388923" lon="10.3198333416">
		<tag k="name" v="Ødegården" />
		<tag k="place" v="locality" />
		<tag k="ssr:stedsnr" v="913194" />
	</node>
	<node id="-392323" lat="59.4236777818" lon="10.2760027797">
		<tag k="name" v="Tomt" />
		<tag k="place" v="farm" />
		<tag k="ssr:stedsnr" v="913175" />
	</node>
	<node id="-392322" lat="59.4112111072" lon="10.2641861025">
		<tag k="alt_name" v="Skinnene" />
		<tag k="name" v="Skinnane" />
		<tag k="place" v="farm" />
		<tag k="ssr:stedsnr" v="913155" />
	</node>
	<node id="-392321" lat="59.4198055587" lon="10.2861666749">
		<tag k="name" v="Bakken" />
		<tag k="place" v="farm" />
		<tag k="ssr:stedsnr" v="913133" />
	</node>
	<node id="-392320" lat="59.4063916676" lon="10.1824833285">
		<tag k="fixme" v="multiple name tags, choose one and add the other to alt_name" />
		<tag k="name" v="Setra;Røssdalsetra" />
		<tag k="place" v="isolated_dwelling" />
		<tag k="ssr:stedsnr" v="913128" />
	</node>
	<node id="-392319" lat="59.4606388869" lon="10.3314388914">
		<tag k="name" v="Syrstad" />
		<tag k="place" v="farm" />
		<tag k="ssr:stedsnr" v="913117" />
	</node>
	<node id="-392318" lat="59.4589749971" lon="10.2725694384">
		<tag k="name" v="Torgerud" />
		<tag k="place" v="farm" />
		<tag k="ssr:stedsnr" v="913115" />
	</node>
	<node id="-392317" lat="59.2875055526" lon="10.4506055631">
		<tag k="fixme" v="consider place=hamlet" />
		<tag k="name" v="Røren" />
		<tag k="place" v="farm" />
		<tag k="ssr:stedsnr" v="912672" />
	</node>
	<node id="-392316" lat="59.3091277766" lon="10.4118999924">
		<tag k="name" v="Bruserød" />
		<tag k="place" v="farm" />
		<tag k="ssr:stedsnr" v="912648" />
	</node>
	<node id="-392315" lat="59.3644972192" lon="10.366922223">
		<tag k="alt_name" v="Rød nedre" />
		<tag k="name" v="Rød" />
		<tag k="place" v="farm" />
		<tag k="ssr:stedsnr" v="912597" />
	</node>
	<node id="-392314" lat="59.3833083368" lon="10.2098777837">
		<tag k="name" v="Holt" />
		<tag k="place" v="farm" />
		<tag k="ssr:stedsnr" v="912248" />
	</node>
	<node id="-392313" lat="59.3788416705" lon="10.2914444508">
		<tag k="alt_name" v="Berg, s;Berg søndre" />
		<tag k="name" v="Søndre Berg" />
		<tag k="place" v="farm" />
		<tag k="ssr:stedsnr" v="912195" />
	</node>
	<node id="-392312" lat="59.3839444484" lon="10.2490888827">
		<tag k="alt_name" v="Firing s." />
		<tag k="name" v="Firing" />
		<tag k="place" v="farm" />
		<tag k="ssr:stedsnr" v="912190" />
	</node>
	<node id="-392311" lat="59.3721500024" lon="10.2734333351">
		<tag k="name" v="Rørås" />
		<tag k="place" v="farm" />
		<tag k="ssr:stedsnr" v="912189" />
	</node>
	<node id="-392310" lat="59.375802775" lon="10.2048083381">
		<tag k="name" v="Holt" />
		<tag k="place" v="farm" />
		<tag k="ssr:stedsnr" v="912184" />
	</node>
	<node id="-392309" lat="59.4322527789" lon="10.1955305581">
		<tag k="alt_name" v="Holtung nordre" />
		<tag k="name" v="Holtung" />
		<tag k="place" v="farm" />
		<tag k="ssr:stedsnr" v="912182" />
	</node>
	<node id="-392308" lat="59.4525416704" lon="10.2853611123">
		<tag k="name" v="Olumstad" />
		<tag k="place" v="farm" />
		<tag k="ssr:stedsnr" v="912069" />
	</node>
	<node id="-392304" lat="59.4287916623" lon="10.1381583379">
		<tag k="fixme" v="consider place=hamlet" />
		<tag k="name" v="Nedre Vivestad" />
		<tag k="place" v="farm" />
		<tag k="ssr:stedsnr" v="909029" />
	</node>
	<node id="-392302" lat="59.2586388871" lon="10.4752805601">
		<tag k="fixme" v="consider place=suburb, village or hamlet" />
		<tag k="name" v="Klopp" />
		<tag k="place" v="quarter" />
		<tag k="ssr:stedsnr" v="748039" />
	</node>
	<node id="-392300" lat="59.2651111077" lon="10.4517055598">
		<tag k="name" v="Råel" />
		<tag k="place" v="farm" />
		<tag k="ssr:stedsnr" v="731614" />
	</node>
	<node id="-392299" lat="59.4098555583" lon="10.271463882">
		<tag k="alt_name" v="Kjær søndre" />
		<tag k="name" v="Kjær" />
		<tag k="place" v="farm" />
		<tag k="ssr:stedsnr" v="731127" />
	</node>
	<node id="-392298" lat="59.4050027759" lon="10.2881416741">
		<tag k="alt_name" v="Skaug" />
		<tag k="name" v="Skog" />
		<tag k="place" v="farm" />
		<tag k="ssr:stedsnr" v="731123" />
	</node>
	<node id="-392297" lat="59.3591055559" lon="10.2263833296">
		<tag k="fixme" v="multiple name tags, choose one and add the other to alt_name" />
		<tag k="name" v="Stusrød;Studsrød n" />
		<tag k="place" v="farm" />
		<tag k="ssr:stedsnr" v="730803" />
	</node>
	<node id="-392296" lat="59.4352277782" lon="10.3229638977">
		<tag k="alt_name" v="Kaldager" />
		<tag k="name" v="Kaldåker" />
		<tag k="place" v="farm" />
		<tag k="ssr:stedsnr" v="730167" />
	</node>
	<node id="-392295" lat="59.3759629541" lon="10.3384927823">
		<tag k="name" v="Ollerød" />
		<tag k="place" v="farm" />
		<tag k="ssr:stedsnr" v="730211" />
	</node>
	<node id="-392294" lat="59.3606250006" lon="10.2756583416">
		<tag k="name" v="Hegna" />
		<tag k="place" v="farm" />
		<tag k="ssr:stedsnr" v="730209" />
	</node>
	<node id="-392293" lat="59.4486305547" lon="10.3287805545">
		<tag k="alt_name" v="Åsenden" />
		<tag k="name" v="Åsen" />
		<tag k="place" v="farm" />
		<tag k="ssr:stedsnr" v="730076" />
	</node>
	<node id="-392292" lat="59.4462499963" lon="10.2078416691">
		<tag k="alt_name" v="Kleven søndre" />
		<tag k="name" v="Kleiva" />
		<tag k="place" v="farm" />
		<tag k="ssr:stedsnr" v="730065" />
	</node>
	<node id="-392287" lat="59.4501583358" lon="10.324436108">
		<tag k="name" v="Åsenden" />
		<tag k="place" v="farm" />
		<tag k="ssr:stedsnr" v="695867" />
	</node>
	<node id="-392284" lat="59.4460833331" lon="10.2833333364">
		<tag k="name" v="Holm østre" />
		<tag k="place" v="farm" />
		<tag k="ssr:stedsnr" v="695775" />
	</node>
	<node id="-392283" lat="59.4544305519" lon="10.2864805499">
		<tag k="name" v="Olumstad" />
		<tag k="place" v="farm" />
		<tag k="ssr:stedsnr" v="695773" />
	</node>
	<node id="-392276" lat="59.3463944402" lon="10.2578611183">
		<tag k="name" v="Ramnes søndre" />
		<tag k="place" v="farm" />
		<tag k="ssr:stedsnr" v="695308" />
	</node>
	<node id="-392275" lat="59.3463638876" lon="10.2488694415">
		<tag k="name" v="Stange" />
		<tag k="place" v="farm" />
		<tag k="ssr:stedsnr" v="695305" />
	</node>
	<node id="-392268" lat="59.2917611101" lon="10.3685861074">
		<tag k="name" v="Vium" />
		<tag k="place" v="farm" />
		<tag k="ssr:stedsnr" v="692374" />
	</node>
	<node id="-392267" lat="59.339708334" lon="10.4197277727">
		<tag k="name" v="Jareteigen S" />
		<tag k="place" v="farm" />
		<tag k="ssr:stedsnr" v="878453" />
	</node>
	<node id="-392265" lat="59.4280249966" lon="10.3149444405">
		<tag k="name" v="Haugestad nordre" />
		<tag k="place" v="farm" />
		<tag k="ssr:stedsnr" v="877902" />
	</node>
	<node id="-392264" lat="59.4267694426" lon="10.3174777859">
		<tag k="name" v="Haugestad søndre" />
		<tag k="place" v="farm" />
		<tag k="ssr:stedsnr" v="877900" />
	</node>
	<node id="-392262" lat="59.4258250035" lon="10.3023888932">
		<tag k="name" v="Sørby" />
		<tag k="place" v="farm" />
		<tag k="ssr:stedsnr" v="877895" />
	</node>
	<node id="-392259" lat="59.3879083368" lon="10.3544055622">
		<tag k="name" v="Nyerrød-Bergan" />
		<tag k="place" v="farm" />
		<tag k="ssr:stedsnr" v="877799" />
	</node>
	<node id="-392258" lat="59.3249499977" lon="10.3340888945">
		<tag k="name" v="Freste" />
		<tag k="place" v="farm" />
		<tag k="ssr:stedsnr" v="877789" />
	</node>
	<node id="-392257" lat="59.3153111091" lon="10.37664722">
		<tag k="name" v="Eikeberg" />
		<tag k="place" v="farm" />
		<tag k="ssr:stedsnr" v="877788" />
	</node>
	<node id="-392256" lat="59.3587111124" lon="10.3586527847">
		<tag k="name" v="Lefsaker" />
		<tag k="place" v="farm" />
		<tag k="ssr:stedsnr" v="877743" />
	</node>
	<node id="-392255" lat="59.363358331" lon="10.3386444531">
		<tag k="name" v="Heum søndre" />
		<tag k="place" v="farm" />
		<tag k="ssr:stedsnr" v="877742" />
	</node>
	<node id="-392254" lat="59.3385388918" lon="10.2870694522">
		<tag k="name" v="Klopp v" />
		<tag k="place" v="farm" />
		<tag k="ssr:stedsnr" v="877737" />
	</node>
	<node id="-392253" lat="59.3485055513" lon="10.2790166698">
		<tag k="name" v="Heian n" />
		<tag k="place" v="farm" />
		<tag k="ssr:stedsnr" v="877736" />
	</node>
	<node id="-392250" lat="59.3275694406" lon="10.2978111083">
		<tag k="name" v="Klopp" />
		<tag k="place" v="farm" />
		<tag k="ssr:stedsnr" v="877675" />
	</node>
	<node id="-392247" lat="59.3842138876" lon="10.226933329">
		<tag k="name" v="Svingen" />
		<tag k="place" v="isolated_dwelling" />
		<tag k="ssr:stedsnr" v="877602" />
	</node>
	<node id="-392241" lat="59.4296555571" lon="10.1832833332">
		<tag k="name" v="Ødefjell søndre" />
		<tag k="place" v="farm" />
		<tag k="ssr:stedsnr" v="877548" />
	</node>
	<node id="-392240" lat="59.4326111104" lon="10.2025972307">
		<tag k="name" v="Kranstad nedre" />
		<tag k="place" v="farm" />
		<tag k="ssr:stedsnr" v="877545" />
	</node>
	<node id="-392237" lat="59.3661888913" lon="10.2466833256">
		<tag k="name" v="Bergan" />
		<tag k="place" v="isolated_dwelling" />
		<tag k="ssr:stedsnr" v="877387" />
	</node>
	<node id="-392231" lat="59.4133666706" lon="10.2383722158">
		<tag k="name" v="Hegg bruk" />
		<tag k="place" v="farm" />
		<tag k="ssr:stedsnr" v="877345" />
	</node>
	<node id="-392230" lat="59.4125416656" lon="10.2049027855">
		<tag k="name" v="Fon" />
		<tag k="place" v="farm" />
		<tag k="ssr:stedsnr" v="877341" />
	</node>
	<node id="-392226" lat="59.3370500015" lon="10.2623083312">
		<tag k="name" v="Jare nordre" />
		<tag k="place" v="farm" />
		<tag k="ssr:stedsnr" v="877301" />
	</node>
	<node id="-392224" lat="59.416716668" lon="10.1370416672">
		<tag k="name" v="Lusserin" />
		<tag k="place" v="locality" />
		<tag k="ssr:stedsnr" v="877190" />
	</node>
	<node id="-392220" lat="59.4222222226" lon="10.1155666736">
		<tag k="name" v="Nordre Teien" />
		<tag k="place" v="locality" />
		<tag k="ssr:stedsnr" v="877024" />
	</node>
	<node id="-392218" lat="59.4404388898" lon="10.0964444399">
		<tag k="name" v="Øvre O" />
		<tag k="place" v="farm" />
		<tag k="ssr:stedsnr" v="877012" />
	</node>
	<node id="-392217" lat="59.42307222" lon="10.0743000065">
		<tag k="historic" v="shieling" />
		<tag k="name" v="Bjørndalsseter" />
		<tag k="place" v="locality" />
		<tag k="ssr:stedsnr" v="877009" />
	</node>
	<node id="-392214" lat="59.3082027803" lon="10.3558138836">
		<tag k="alt_name" v="Nordre Fadum" />
		<tag k="fixme" v="consider place=hamlet" />
		<tag k="name" v="Fadum N" />
		<tag k="place" v="farm" />
		<tag k="ssr:stedsnr" v="877759" />
	</node>
	<node id="-392212" lat="59.3092187182" lon="10.5062012239">
		<tag k="alt_name" v="Korterød" />
		<tag k="name" v="Korterød" />
		<tag k="place" v="farm" />
		<tag k="ssr:stedsnr" v="876200" />
	</node>
	<node id="-392210" lat="59.2907277771" lon="10.2944249976">
		<tag k="fixme" v="consider place=hamlet" />
		<tag k="name" v="Rygg" />
		<tag k="place" v="farm" />
		<tag k="ssr:stedsnr" v="731863" />
	</node>
	<node id="-392209" lat="59.2893194455" lon="10.3067111085">
		<tag k="name" v="Hesby" />
		<tag k="place" v="farm" />
		<tag k="ssr:stedsnr" v="731861" />
	</node>
	<node id="-392208" lat="59.3114999978" lon="10.2917361116">
		<tag k="fixme" v="consider place=hamlet" />
		<tag k="name" v="Tollerød" />
		<tag k="place" v="farm" />
		<tag k="ssr:stedsnr" v="731838" />
	</node>
	<node id="-392207" lat="59.2982333333" lon="10.3240694366">
		<tag k="alt_name" v="Nedre Grette" />
		<tag k="fixme" v="consider place=hamlet" />
		<tag k="name" v="Grette" />
		<tag k="place" v="farm" />
		<tag k="ssr:stedsnr" v="731818" />
	</node>
	<node id="-392206" lat="59.3150916644" lon="10.3249361048">
		<tag k="alt_name" v="Vestre Kjær" />
		<tag k="fixme" v="consider place=hamlet" />
		<tag k="name" v="Kjær" />
		<tag k="place" v="farm" />
		<tag k="ssr:stedsnr" v="731782" />
	</node>
	<node id="-392205" lat="59.3149916644" lon="10.2515833253">
		<tag k="name" v="Rånerød" />
		<tag k="place" v="farm" />
		<tag k="ssr:stedsnr" v="731778" />
	</node>
	<node id="-392204" lat="59.2820527769" lon="10.3635083341">
		<tag k="name" v="Rønningen" />
		<tag k="place" v="farm" />
		<tag k="ssr:stedsnr" v="731595" />
	</node>
	<node id="-392203" lat="59.3186166693" lon="10.389705561">
		<tag k="fixme" v="consider place=suburb, village or hamlet" />
		<tag k="name" v="Barkåker" />
		<tag k="place" v="quarter" />
		<tag k="ssr:stedsnr" v="731562" />
	</node>
	<node id="-392202" lat="59.3277555567" lon="10.4687611135">
		<tag k="alt_name" v="Rørås" />
		<tag k="fixme" v="consider place=hamlet" />
		<tag k="name" v="Nordre Rørås" />
		<tag k="place" v="farm" />
		<tag k="ssr:stedsnr" v="731553" />
	</node>
	<node id="-392201" lat="59.3942611073" lon="10.3562861041">
		<tag k="name" v="Hasle" />
		<tag k="place" v="farm" />
		<tag k="ssr:stedsnr" v="731487" />
	</node>
	<node id="-392199" lat="59.2965499976" lon="10.5009472296">
		<tag k="fixme" v="consider place=hamlet" />
		<tag k="name" v="Skallevoll" />
		<tag k="place" v="farm" />
		<tag k="ssr:stedsnr" v="730684" />
	</node>
	<node id="-392198" lat="59.3387972264" lon="10.3456333393">
		<tag k="name" v="Holt" />
		<tag k="place" v="farm" />
		<tag k="ssr:stedsnr" v="730642" />
	</node>
	<node id="-392197" lat="59.354866671" lon="10.3736249978">
		<tag k="alt_name" v="Hem nordre" />
		<tag k="name" v="Hem" />
		<tag k="place" v="farm" />
		<tag k="ssr:stedsnr" v="730621" />
	</node>
	<node id="-392196" lat="59.370222223" lon="10.3940750024">
		<tag k="name" v="Råen" />
		<tag k="place" v="farm" />
		<tag k="ssr:stedsnr" v="730602" />
	</node>
	<node id="-392195" lat="59.3830249989" lon="10.3665388865">
		<tag k="name" v="Krokeborg" />
		<tag k="place" v="farm" />
		<tag k="ssr:stedsnr" v="730586" />
	</node>
	<node id="-392194" lat="59.3916416628" lon="10.3059805624">
		<tag k="name" v="Hengsrud" />
		<tag k="place" v="farm" />
		<tag k="ssr:stedsnr" v="730244" />
	</node>
	<node id="-392193" lat="59.4207166662" lon="10.2619333263">
		<tag k="alt_name" v="Siltvedt" />
		<tag k="name" v="Siltvet" />
		<tag k="place" v="farm" />
		<tag k="ssr:stedsnr" v="730136" />
	</node>
	<node id="-392192" lat="59.4139083315" lon="10.209930557">
		<tag k="name" v="Krakken" />
		<tag k="place" v="farm" />
		<tag k="ssr:stedsnr" v="730133" />
	</node>
	<node id="-392188" lat="59.4251000022" lon="10.2506388937">
		<tag k="name" v="Bettum" />
		<tag k="place" v="farm" />
		<tag k="ssr:stedsnr" v="730187" />
	</node>
	<node id="-392186" lat="59.3022111116" lon="10.2919916717">
		<tag k="name" v="Taranrød" />
		<tag k="place" v="farm" />
		<tag k="ssr:stedsnr" v="633773" />
	</node>
	<node id="-392185" lat="59.3407972247" lon="10.3368861069">
		<tag k="name" v="Horn" />
		<tag k="place" v="farm" />
		<tag k="ssr:stedsnr" v="633825" />
	</node>
	<node id="-392184" lat="59.424133332" lon="10.2276916608">
		<tag k="name" v="Borge" />
		<tag k="place" v="farm" />
		<tag k="ssr:stedsnr" v="633653" />
	</node>
	<node id="-392180" lat="59.4445444403" lon="10.2091972185">
		<tag k="name" v="Kleven søndre" />
		<tag k="place" v="farm" />
		<tag k="ssr:stedsnr" v="633556" />
	</node>
	<node id="-392178" lat="59.3603222178" lon="10.2540472284">
		<tag k="name" v="Berg østre" />
		<tag k="place" v="farm" />
		<tag k="ssr:stedsnr" v="633408" />
	</node>
	<node id="-392174" lat="59.4393027756" lon="10.123258336">
		<tag k="name" v="Stubben" />
		<tag k="place" v="farm" />
		<tag k="ssr:stedsnr" v="633022" />
	</node>
	<node id="-392173" lat="59.24485833" lon="10.4616888843">
		<tag k="name" v="Aldershvile" />
		<tag k="place" v="isolated_dwelling" />
		<tag k="ssr:stedsnr" v="632000" />
	</node>
	<node id="-392170" lat="59.3356749971" lon="10.4720027773">
		<tag k="name" v="Rønningen" />
		<tag k="place" v="farm" />
		<tag k="ssr:stedsnr" v="631772" />
	</node>
	<node id="-392169" lat="59.2631055544" lon="10.44303056">
		<tag k="name" v="Elverhøy" />
		<tag k="place" v="quarter" />
		<tag k="ssr:stedsnr" v="631759" />
	</node>
	<node id="-392165" lat="59.3339083339" lon="10.2680500059">
		<tag k="name" v="Jare" />
		<tag k="place" v="farm" />
		<tag k="ssr:stedsnr" v="609768" />
	</node>
	<node id="-392164" lat="59.3197194443" lon="10.323902782">
		<tag k="name" v="Toen" />
		<tag k="place" v="farm" />
		<tag k="ssr:stedsnr" v="609764" />
	</node>
	<node id="-392163" lat="59.3263000041" lon="10.3526277705">
		<tag k="name" v="Rastad" />
		<tag k="place" v="farm" />
		<tag k="ssr:stedsnr" v="609565" />
	</node>
	<node id="-392162" lat="59.2710166657" lon="10.3713333332">
		<tag k="fixme" v="consider place=hamlet" />
		<tag k="name" v="Hogsnes" />
		<tag k="place" v="farm" />
		<tag k="ssr:stedsnr" v="609629" />
	</node>
	<node id="-392161" lat="59.257268271" lon="10.362904753">
		<tag k="alt_name" v="Vear S;Søndre Veer" />
		<tag k="fixme" v="consider place=hamlet" />
		<tag k="name" v="Vear" />
		<tag k="place" v="farm" />
		<tag k="ssr:stedsnr" v="609623" />
	</node>
	<node id="-392160" lat="59.4114583377" lon="10.2885444359">
		<tag k="name" v="Brekke" />
		<tag k="place" v="farm" />
		<tag k="ssr:stedsnr" v="609158" />
	</node>
	<node id="-392159" lat="59.4066277814" lon="10.2255611119">
		<tag k="alt_name" v="Skrikestad, østre;Skrikestad nedre" />
		<tag k="name" v="Østre Skrikestad" />
		<tag k="place" v="farm" />
		<tag k="ssr:stedsnr" v="609211" />
	</node>
	<node id="-392158" lat="59.3719638853" lon="10.3462611153">
		<tag k="name" v="Liverød" />
		<tag k="place" v="farm" />
		<tag k="ssr:stedsnr" v="608595" />
	</node>
	<node id="-392157" lat="59.3783805518" lon="10.3269444429">
		<tag k="name" v="Lofstad" />
		<tag k="place" v="farm" />
		<tag k="ssr:stedsnr" v="608189" />
	</node>
	<node id="-392156" lat="59.434900003" lon="10.2701138899">
		<tag k="name" v="Gjelstad" />
		<tag k="place" v="farm" />
		<tag k="ssr:stedsnr" v="608157" />
	</node>
	<node id="-392155" lat="59.398088889" lon="10.3337583316">
		<tag k="name" v="Grøtås" />
		<tag k="place" v="farm" />
		<tag k="ssr:stedsnr" v="608219" />
	</node>
	<node id="-392149" lat="59.356733336" lon="10.2975972221">
		<tag k="name" v="Sand" />
		<tag k="place" v="farm" />
		<tag k="ssr:stedsnr" v="573705" />
	</node>
	<node id="-392148" lat="59.344919443" lon="10.2792527853">
		<tag k="name" v="Heian m" />
		<tag k="place" v="farm" />
		<tag k="ssr:stedsnr" v="573699" />
	</node>
	<node id="-392146" lat="59.4701416669" lon="10.1768416742">
		<tag k="name" v="Ende" />
		<tag k="place" v="farm" />
		<tag k="ssr:stedsnr" v="573688" />
	</node>
	<node id="-392142" lat="59.2820666657" lon="10.3159222259">
		<tag k="alt_name" v="Nedre Hesby" />
		<tag k="fixme" v="consider place=hamlet" />
		<tag k="name" v="Hesby" />
		<tag k="place" v="farm" />
		<tag k="ssr:stedsnr" v="573664" />
	</node>
	<node id="-392141" lat="59.2833250038" lon="10.3234305603">
		<tag k="leisure" v="pitch" />
		<tag k="name" v="Sem idrettspark" />
		<tag k="ssr:stedsnr" v="573662" />
	</node>
	<node id="-392140" lat="59.3889777772" lon="10.2456694411">
		<tag k="name" v="Skogly" />
		<tag k="place" v="farm" />
		<tag k="ssr:stedsnr" v="573549" />
	</node>
	<node id="-392136" lat="59.3902611071" lon="10.2013277766">
		<tag k="name" v="Tomta" />
		<tag k="place" v="locality" />
		<tag k="ssr:stedsnr" v="573286" />
	</node>
	<node id="-392134" lat="59.347163887" lon="10.2520833332">
		<tag k="name" v="Ramnes" />
		<tag k="place" v="farm" />
		<tag k="ssr:stedsnr" v="573273" />
	</node>
	<node id="-392130" lat="59.3913111074" lon="10.1169861149">
		<tag k="name" v="Kjonevollen" />
		<tag k="place" v="farm" />
		<tag k="ssr:stedsnr" v="573058" />
	</node>
	<node id="-392129" lat="59.3801583362" lon="10.3296416731">
		<tag k="name" v="Lofstad" />
		<tag k="place" v="farm" />
		<tag k="ssr:stedsnr" v="695784" />
	</node>
	<node id="-392128" lat="59.3076500035" lon="10.3440250026">
		<tag k="alt_name" v="Mellem Fadum" />
		<tag k="fixme" v="consider place=hamlet" />
		<tag k="name" v="Fadum" />
		<tag k="place" v="farm" />
		<tag k="ssr:stedsnr" v="695750" />
	</node>
	<node id="-392127" lat="59.2723749985" lon="10.321736106">
		<tag k="name" v="Langerød" />
		<tag k="place" v="village" />
		<tag k="ssr:stedsnr" v="695687" />
	</node>
	<node id="-392125" lat="59.4378472256" lon="10.1995277803">
		<tag k="name" v="Herkjeft øvre" />
		<tag k="place" v="farm" />
		<tag k="ssr:stedsnr" v="695536" />
	</node>
	<node id="-392123" lat="59.4360833374" lon="10.1776527726">
		<tag k="name" v="Skotvedt østre" />
		<tag k="place" v="farm" />
		<tag k="ssr:stedsnr" v="695528" />
	</node>
	<node id="-392121" lat="59.4373027785" lon="10.218497226">
		<tag k="name" v="Bakstevold nordre" />
		<tag k="place" v="farm" />
		<tag k="ssr:stedsnr" v="695644" />
	</node>
	<node id="-392120" lat="59.4340694411" lon="10.2215055529">
		<tag k="name" v="Bakstevold mellom" />
		<tag k="place" v="farm" />
		<tag k="ssr:stedsnr" v="695643" />
	</node>
	<node id="-392119" lat="59.4301305596" lon="10.2225833295">
		<tag k="name" v="Bakstevold lille" />
		<tag k="place" v="farm" />
		<tag k="ssr:stedsnr" v="695642" />
	</node>
	<node id="-392118" lat="59.36035833" lon="10.2506166621">
		<tag k="amenity" v="sports_centre" />
		<tag k="name" v="Ramneshallen" />
		<tag k="ssr:stedsnr" v="695398" />
	</node>
	<node id="-392108" lat="59.4074638858" lon="10.1357444434">
		<tag k="name" v="Langved s." />
		<tag k="place" v="farm" />
		<tag k="ssr:stedsnr" v="695189" />
	</node>
	<node id="-392107" lat="59.418994447" lon="10.1744249949">
		<tag k="historic" v="shieling" />
		<tag k="name" v="Myrseter" />
		<tag k="place" v="locality" />
		<tag k="ssr:stedsnr" v="695284" />
	</node>
	<node id="-392101" lat="59.2616055582" lon="10.4970138865">
		<tag k="name" v="Tau renseanlegg" />
		<tag k="place" v="quarter" />
		<tag k="ssr:stedsnr" v="694177" />
	</node>
	<node id="-392097" lat="59.2655444477" lon="10.4440638908">
		<tag k="name" v="Fagervik" />
		<tag k="place" v="quarter" />
		<tag k="ssr:stedsnr" v="692747" />
	</node>
	<node id="-392096" lat="59.2670583341" lon="10.4633888935">
		<tag k="name" v="Rønningen" />
		<tag k="place" v="farm" />
		<tag k="ssr:stedsnr" v="692746" />
	</node>
	<node id="-392093" lat="59.3097777801" lon="10.4749555635">
		<tag k="name" v="Amerika" />
		<tag k="place" v="farm" />
		<tag k="ssr:stedsnr" v="692799" />
	</node>
	<node id="-392092" lat="59.295697225" lon="10.4396611133">
		<tag k="name" v="Velle" />
		<tag k="place" v="farm" />
		<tag k="ssr:stedsnr" v="692792" />
	</node>
	<node id="-392091" lat="59.3036944481" lon="10.429897214">
		<tag k="fixme" v="consider place=hamlet" />
		<tag k="name" v="Sem prestegård" />
		<tag k="place" v="farm" />
		<tag k="ssr:stedsnr" v="692782" />
	</node>
	<node id="-392088" lat="59.4727055521" lon="10.1910416696">
		<tag k="name" v="Barkost" />
		<tag k="place" v="farm" />
		<tag k="ssr:stedsnr" v="513717" />
	</node>
	<node id="-392086" lat="59.3332500038" lon="10.2913166744">
		<tag k="name" v="Hole østre" />
		<tag k="place" v="farm" />
		<tag k="ssr:stedsnr" v="513673" />
	</node>
	<node id="-392085" lat="59.3354083327" lon="10.4743916703">
		<tag k="name" v="Saltkopp" />
		<tag k="place" v="farm" />
		<tag k="ssr:stedsnr" v="513107" />
	</node>
	<node id="-392084" lat="59.4294722217" lon="10.219472225">
		<tag k="name" v="Bakstevold nedre" />
		<tag k="place" v="farm" />
		<tag k="ssr:stedsnr" v="512658" />
	</node>
	<node id="-392082" lat="59.35053889" lon="10.2648833319">
		<tag k="alt_name" v="Ramnes" />
		<tag k="name" v="Ramnes nordre" />
		<tag k="place" v="farm" />
		<tag k="ssr:stedsnr" v="512258" />
	</node>
	<node id="-392080" lat="59.4353694454" lon="10.1868388818">
		<tag k="name" v="Hvam nordre" />
		<tag k="place" v="farm" />
		<tag k="ssr:stedsnr" v="512540" />
	</node>
	<node id="-392079" lat="59.4354777792" lon="10.201344436">
		<tag k="name" v="Haugenstua" />
		<tag k="place" v="isolated_dwelling" />
		<tag k="ssr:stedsnr" v="512535" />
	</node>
	<node id="-392075" lat="59.4275916669" lon="10.1230111117">
		<tag k="name" v="Bårnes" />
		<tag k="place" v="farm" />
		<tag k="ssr:stedsnr" v="512021" />
	</node>
	<node id="-392074" lat="59.4279749968" lon="10.1272277864">
		<tag k="name" v="Sagatun" />
		<tag k="place" v="farm" />
		<tag k="ssr:stedsnr" v="512019" />
	</node>
	<node id="-392072" lat="59.4315250039" lon="10.0754111025">
		<tag k="historic" v="shieling" />
		<tag k="name" v="Ouffsetra" />
		<tag k="place" v="locality" />
		<tag k="ssr:stedsnr" v="512003" />
	</node>
	<node id="-392071" lat="59.3167000021" lon="10.4757499924">
		<tag k="name" v="Grindbakken" />
		<tag k="place" v="farm" />
		<tag k="ssr:stedsnr" v="488603" />
	</node>
	<node id="-392070" lat="59.2520361116" lon="10.473674996">
		<tag k="name" v="Husvik" />
		<tag k="place" v="village" />
		<tag k="ssr:stedsnr" v="487008" />
	</node>
	<node id="-392069" lat="59.2761749986" lon="10.3129500068">
		<tag k="fixme" v="consider place=hamlet" />
		<tag k="name" v="Askehaug" />
		<tag k="place" v="farm" />
		<tag k="ssr:stedsnr" v="670889" />
	</node>
	<node id="-392068" lat="59.3070277765" lon="10.2971694488">
		<tag k="fixme" v="consider place=hamlet" />
		<tag k="name" v="Smedsrød" />
		<tag k="place" v="farm" />
		<tag k="ssr:stedsnr" v="670825" />
	</node>
	<node id="-392067" lat="59.3080166709" lon="10.3228694509">
		<tag k="fixme" v="consider place=hamlet" />
		<tag k="name" v="Vermeli" />
		<tag k="place" v="farm" />
		<tag k="ssr:stedsnr" v="670823" />
	</node>
	<node id="-392066" lat="59.3339194459" lon="10.334299998">
		<tag k="alt_name" v="Bjune søndre" />
		<tag k="name" v="Bjune" />
		<tag k="place" v="farm" />
		<tag k="ssr:stedsnr" v="670787" />
	</node>
	<node id="-392065" lat="59.3163305588" lon="10.3064138862">
		<tag k="name" v="Klepperås" />
		<tag k="place" v="farm" />
		<tag k="ssr:stedsnr" v="670777" />
	</node>
	<node id="-392064" lat="59.3293305583" lon="10.3236083383">
		<tag k="name" v="Førum" />
		<tag k="place" v="farm" />
		<tag k="ssr:stedsnr" v="670766" />
	</node>
	<node id="-392063" lat="59.2691250025" lon="10.4892499951">
		<tag k="name" v="Nordby" />
		<tag k="place" v="farm" />
		<tag k="ssr:stedsnr" v="670656" />
	</node>
	<node id="-392062" lat="59.2614833354" lon="10.4814277853">
		<tag k="name" v="Bogen" />
		<tag k="place" v="farm" />
		<tag k="ssr:stedsnr" v="670646" />
	</node>
	<node id="-392061" lat="59.2594388894" lon="10.3726555616">
		<tag k="name" v="Strand" />
		<tag k="place" v="farm" />
		<tag k="ssr:stedsnr" v="670640" />
	</node>
	<node id="-392060" lat="59.3199027735" lon="10.3960249924">
		<tag k="fixme" v="consider place=hamlet" />
		<tag k="name" v="Fritsø" />
		<tag k="place" v="farm" />
		<tag k="ssr:stedsnr" v="670588" />
	</node>
	<node id="-392059" lat="59.3199416648" lon="10.3792249935">
		<tag k="fixme" v="consider place=hamlet" />
		<tag k="name" v="Eikeberg" />
		<tag k="place" v="farm" />
		<tag k="ssr:stedsnr" v="670587" />
	</node>
	<node id="-392057" lat="59.3472666662" lon="10.3635750083">
		<tag k="alt_name" v="Vold" />
		<tag k="name" v="Voll" />
		<tag k="place" v="farm" />
		<tag k="ssr:stedsnr" v="670552" />
	</node>
	<node id="-392055" lat="59.4068777795" lon="10.2089249963">
		<tag k="name" v="Lislebø" />
		<tag k="place" v="farm" />
		<tag k="ssr:stedsnr" v="670155" />
	</node>
	<node id="-392054" lat="59.4103250038" lon="10.2348555636">
		<tag k="name" v="Vika" />
		<tag k="place" v="farm" />
		<tag k="ssr:stedsnr" v="670153" />
	</node>
	<node id="-392053" lat="59.4037444427" lon="10.1354305515">
		<tag k="name" v="Lunde" />
		<tag k="place" v="farm" />
		<tag k="ssr:stedsnr" v="670144" />
	</node>
	<node id="-392051" lat="59.410191664" lon="10.1429249988">
		<tag k="name" v="Orerød" />
		<tag k="place" v="farm" />
		<tag k="ssr:stedsnr" v="670127" />
	</node>
	<node id="-392048" lat="59.2950039921" lon="10.4862328069">
		<tag k="alt_name" v="Østre Brekke" />
		<tag k="fixme" v="consider place=hamlet" />
		<tag k="name" v="Brekke" />
		<tag k="place" v="farm" />
		<tag k="ssr:stedsnr" v="669636" />
	</node>
	<node id="-392047" lat="59.3704416661" lon="10.3784916727">
		<tag k="alt_name" v="Solerød nordre" />
		<tag k="name" v="Solerød" />
		<tag k="place" v="farm" />
		<tag k="ssr:stedsnr" v="669572" />
	</node>
	<node id="-392046" lat="59.3784749965" lon="10.3475999988">
		<tag k="alt_name" v="Gjerpen nedre" />
		<tag k="name" v="Gjerpen" />
		<tag k="place" v="farm" />
		<tag k="ssr:stedsnr" v="669555" />
	</node>
	<node id="-392045" lat="59.3888333298" lon="10.3331916698">
		<tag k="name" v="Knapstad" />
		<tag k="place" v="farm" />
		<tag k="ssr:stedsnr" v="669231" />
	</node>
	<node id="-392044" lat="59.3892749988" lon="10.2326499982">
		<tag k="alt_name" v="Firing v." />
		<tag k="name" v="Firing" />
		<tag k="place" v="farm" />
		<tag k="ssr:stedsnr" v="669227" />
	</node>
	<node id="-392043" lat="59.3941444471" lon="10.3063416624">
		<tag k="name" v="Tufte" />
		<tag k="place" v="farm" />
		<tag k="ssr:stedsnr" v="669226" />
	</node>
	<node id="-392042" lat="59.4010666627" lon="10.3100444473">
		<tag k="name" v="Klevjer" />
		<tag k="place" v="farm" />
		<tag k="ssr:stedsnr" v="669218" />
	</node>
	<node id="-392041" lat="59.4234055553" lon="10.1995194367">
		<tag k="alt_name" v="Sulutvedt vestre" />
		<tag k="name" v="Sulutvet" />
		<tag k="place" v="farm" />
		<tag k="ssr:stedsnr" v="669159" />
	</node>
	<node id="-392040" lat="59.4362333353" lon="10.1706527712">
		<tag k="alt_name" v="Skotvedt vestre" />
		<tag k="name" v="Skotvet" />
		<tag k="place" v="farm" />
		<tag k="ssr:stedsnr" v="669148" />
	</node>
	<node id="-392039" lat="59.4429361141" lon="10.2193611025">
		<tag k="name" v="Kongsteigen" />
		<tag k="place" v="farm" />
		<tag k="ssr:stedsnr" v="669059" />
	</node>
	<node id="-392038" lat="59.4501638922" lon="10.2105527729">
		<tag k="fixme" v="consider place=hamlet" />
		<tag k="name" v="Kalsrud" />
		<tag k="place" v="farm" />
		<tag k="ssr:stedsnr" v="669048" />
	</node>
	<node id="-392036" lat="59.3669555561" lon="10.2629083342">
		<tag k="alt_name" v="Teien" />
		<tag k="name" v="Teigen" />
		<tag k="place" v="farm" />
		<tag k="ssr:stedsnr" v="670210" />
	</node>
	<node id="-392035" lat="59.3627583297" lon="10.1963583418">
		<tag k="name" v="Gislerød" />
		<tag k="place" v="farm" />
		<tag k="ssr:stedsnr" v="670209" />
	</node>
	<node id="-392030" lat="59.3806972249" lon="10.2786027831">
		<tag k="name" v="Ormestad" />
		<tag k="place" v="farm" />
		<tag k="ssr:stedsnr" v="452834" />
	</node>
	<node id="-392029" lat="59.4196055548" lon="10.3225055533">
		<tag k="name" v="Malmø nedre" />
		<tag k="place" v="farm" />
		<tag k="ssr:stedsnr" v="452832" />
	</node>
	<node id="-392028" lat="59.4181611126" lon="10.3158444432">
		<tag k="name" v="Opsahl nordre" />
		<tag k="place" v="farm" />
		<tag k="ssr:stedsnr" v="452829" />
	</node>
	<node id="-392027" lat="59.3555277747" lon="10.374363885">
		<tag k="name" v="Hem nordre" />
		<tag k="place" v="farm" />
		<tag k="ssr:stedsnr" v="452816" />
	</node>
	<node id="-392022" lat="59.2986472208" lon="10.3795916612">
		<tag k="name" v="Seberg" />
		<tag k="place" v="farm" />
		<tag k="ssr:stedsnr" v="452737" />
	</node>
	<node id="-392021" lat="59.3753750039" lon="10.2690611152">
		<tag k="name" v="Revetal nordre" />
		<tag k="place" v="farm" />
		<tag k="ssr:stedsnr" v="452734" />
	</node>
	<node id="-392020" lat="59.3412555597" lon="10.2880944371">
		<tag k="name" v="Klopp m" />
		<tag k="place" v="farm" />
		<tag k="ssr:stedsnr" v="452716" />
	</node>
	<node id="-392013" lat="59.3910166692" lon="10.2051611051">
		<tag k="name" v="Solberg" />
		<tag k="place" v="farm" />
		<tag k="ssr:stedsnr" v="452302" />
	</node>
	<node id="-392009" lat="59.3193777808" lon="10.5054944526">
		<tag k="name" v="Haugen" />
		<tag k="place" v="farm" />
		<tag k="ssr:stedsnr" v="451214" />
	</node>
	<node id="-392004" lat="59.3021638914" lon="10.4888499951">
		<tag k="name" v="Innlaget" />
		<tag k="place" v="farm" />
		<tag k="ssr:stedsnr" v="427623" />
	</node>
	<node id="-392003" lat="59.3103677414" lon="10.5048283069">
		<tag k="fixme" v="consider place=hamlet" />
		<tag k="name" v="Korterød" />
		<tag k="place" v="farm" />
		<tag k="ssr:stedsnr" v="427613" />
	</node>
	<node id="-392002" lat="59.3137749986" lon="10.4039916655">
		<tag k="fixme" v="consider place=hamlet" />
		<tag k="name" v="Kruke" />
		<tag k="place" v="farm" />
		<tag k="ssr:stedsnr" v="427610" />
	</node>
	<node id="-392001" lat="59.3156555597" lon="10.368455554">
		<tag k="fixme" v="consider place=hamlet" />
		<tag k="name" v="Gulli" />
		<tag k="place" v="farm" />
		<tag k="ssr:stedsnr" v="427608" />
	</node>
	<node id="-392000" lat="59.3439750011" lon="10.2601055492">
		<tag k="alt_name" v="Kirkevold" />
		<tag k="name" v="Kirkevoll" />
		<tag k="place" v="farm" />
		<tag k="ssr:stedsnr" v="427720" />
	</node>
	<node id="-391999" lat="59.3691166675" lon="10.1677944486">
		<tag k="name" v="Svinsholt" />
		<tag k="place" v="farm" />
		<tag k="ssr:stedsnr" v="427222" />
	</node>
	<node id="-391998" lat="59.3671555527" lon="10.1771055471">
		<tag k="name" v="Skjeggerød" />
		<tag k="place" v="farm" />
		<tag k="ssr:stedsnr" v="427221" />
	</node>
	<node id="-391997" lat="59.3773583293" lon="10.2829027712">
		<tag k="name" v="Kjølsrud" />
		<tag k="place" v="farm" />
		<tag k="ssr:stedsnr" v="427214" />
	</node>
	<node id="-391996" lat="59.2952972257" lon="10.5151750085">
		<tag k="name" v="Karlsvik" />
		<tag k="place" v="farm" />
		<tag k="ssr:stedsnr" v="513992" />
	</node>
	<node id="-391995" lat="59.4339722217" lon="10.3398999973">
		<tag k="name" v="Klavenes" />
		<tag k="place" v="farm" />
		<tag k="ssr:stedsnr" v="513914" />
	</node>
	<node id="-391992" lat="59.3847166631" lon="10.2645527831">
		<tag k="name" v="Bjerkely" />
		<tag k="place" v="farm" />
		<tag k="ssr:stedsnr" v="513593" />
	</node>
	<node id="-391990" lat="59.341991663" lon="10.4805416623">
		<tag k="name" v="Stuebrekk" />
		<tag k="place" v="isolated_dwelling" />
		<tag k="ssr:stedsnr" v="513118" />
	</node>
	<node id="-391989" lat="59.3251999956" lon="10.4860805554">
		<tag k="name" v="Strand" />
		<tag k="place" v="farm" />
		<tag k="ssr:stedsnr" v="513112" />
	</node>
	<node id="-391988" lat="59.4161388871" lon="10.3062666687">
		<tag k="name" v="Sørby østre" />
		<tag k="place" v="farm" />
		<tag k="ssr:stedsnr" v="512840" />
	</node>
	<node id="-391986" lat="59.4168111142" lon="10.2745111136">
		<tag k="leisure" v="pitch" />
		<tag k="name" v="Bibomyra idrettsplass" />
		<tag k="ssr:stedsnr" v="512831" />
	</node>
	<node id="-391985" lat="59.351172223" lon="10.3736750013">
		<tag k="name" v="Hem søndre" />
		<tag k="place" v="farm" />
		<tag k="ssr:stedsnr" v="512826" />
	</node>
	<node id="-391983" lat="59.4533500006" lon="10.300797226">
		<tag k="name" v="Åsen" />
		<tag k="place" v="isolated_dwelling" />
		<tag k="ssr:stedsnr" v="512804" />
	</node>
	<node id="-391982" lat="59.3913111142" lon="10.3331666643">
		<tag k="name" v="Knapstad nordre" />
		<tag k="place" v="farm" />
		<tag k="ssr:stedsnr" v="512800" />
	</node>
	<node id="-391981" lat="59.3890916709" lon="10.3251916654">
		<tag k="name" v="Grøstad" />
		<tag k="place" v="farm" />
		<tag k="ssr:stedsnr" v="512799" />
	</node>
	<node id="-391980" lat="59.394694442" lon="10.3094805515">
		<tag k="name" v="Ekeberg" />
		<tag k="place" v="farm" />
		<tag k="ssr:stedsnr" v="512792" />
	</node>
	<node id="-391977" lat="59.3083833324" lon="10.2831333289">
		<tag k="name" v="Taran" />
		<tag k="place" v="isolated_dwelling" />
		<tag k="ssr:stedsnr" v="512769" />
	</node>
	<node id="-391976" lat="59.3073305551" lon="10.3493805585">
		<tag k="name" v="Gata" />
		<tag k="place" v="farm" />
		<tag k="ssr:stedsnr" v="512758" />
	</node>
	<node id="-391975" lat="59.3758722205" lon="10.2984194459">
		<tag k="name" v="Kongslund" />
		<tag k="place" v="farm" />
		<tag k="ssr:stedsnr" v="512753" />
	</node>
	<node id="-391974" lat="59.376272218" lon="10.3674083362">
		<tag k="name" v="Bakskjul øvre" />
		<tag k="place" v="farm" />
		<tag k="ssr:stedsnr" v="512750" />
	</node>
	<node id="-391973" lat="59.356324999" lon="10.3628555491">
		<tag k="name" v="Lefsaker" />
		<tag k="place" v="farm" />
		<tag k="ssr:stedsnr" v="512731" />
	</node>
	<node id="-391971" lat="59.4337722226" lon="10.2685083345">
		<tag k="name" v="Gjelstad søndre" />
		<tag k="place" v="farm" />
		<tag k="ssr:stedsnr" v="512886" />
	</node>
	<node id="-391970" lat="59.4477555568" lon="10.3425999986">
		<tag k="name" v="Grette" />
		<tag k="place" v="farm" />
		<tag k="ssr:stedsnr" v="512876" />
	</node>
	<node id="-391956" lat="59.3107472223" lon="10.4989805629">
		<tag k="name" v="Tverved" />
		<tag k="place" v="farm" />
		<tag k="ssr:stedsnr" v="512194" />
	</node>
	<node id="-391954" lat="59.3977611135" lon="10.2531055547">
		<tag k="name" v="Bakke mølle" />
		<tag k="place" v="locality" />
		<tag k="ssr:stedsnr" v="512586" />
	</node>
	<node id="-391952" lat="59.4629277796" lon="10.1841444484">
		<tag k="name" v="Sjuve" />
		<tag k="place" v="farm" />
		<tag k="ssr:stedsnr" v="512573" />
	</node>
	<node id="-391949" lat="59.3813361137" lon="10.1540555644">
		<tag k="name" v="Tronka" />
		<tag k="place" v="farm" />
		<tag k="ssr:stedsnr" v="512090" />
	</node>
	<node id="-391948" lat="59.3922222215" lon="10.1090083313">
		<tag k="name" v="Kleikås" />
		<tag k="place" v="farm" />
		<tag k="ssr:stedsnr" v="512083" />
	</node>
	<node id="-391947" lat="59.3729805538" lon="10.2979805604">
		<tag k="name" v="Hette" />
		<tag k="place" v="farm" />
		<tag k="ssr:stedsnr" v="511335" />
	</node>
	<node id="-391944" lat="59.3005333298" lon="10.449475003">
		<tag k="alt_name" v="Mellem Basberg" />
		<tag k="fixme" v="consider place=hamlet" />
		<tag k="name" v="Basberg" />
		<tag k="place" v="farm" />
		<tag k="ssr:stedsnr" v="510829" />
	</node>
	<node id="-391943" lat="59.3025333307" lon="10.4294666691">
		<tag k="name" v="Kongs-Eik" />
		<tag k="place" v="farm" />
		<tag k="ssr:stedsnr" v="510810" />
	</node>
	<node id="-391942" lat="59.3055416708" lon="10.4283527865">
		<tag k="name" v="Loftseik" />
		<tag k="place" v="quarter" />
		<tag k="ssr:stedsnr" v="510807" />
	</node>
	<node id="-391941" lat="59.3359722267" lon="10.4266166725">
		<tag k="fixme" v="consider place=hamlet" />
		<tag k="name" v="Skibrekk" />
		<tag k="place" v="farm" />
		<tag k="ssr:stedsnr" v="510797" />
	</node>
	<node id="-391939" lat="59.2820250027" lon="10.4836999917">
		<tag k="name" v="Fredheim" />
		<tag k="place" v="isolated_dwelling" />
		<tag k="ssr:stedsnr" v="510767" />
	</node>
	<node id="-391934" lat="59.4347805559" lon="10.2868111154">
		<tag k="name" v="Lur nedre" />
		<tag k="place" v="farm" />
		<tag k="ssr:stedsnr" v="391903" />
	</node>
	<node id="-391932" lat="59.2957444471" lon="10.3323138952">
		<tag k="fixme" v="consider place=hamlet" />
		<tag k="name" v="Låne mellom" />
		<tag k="place" v="farm" />
		<tag k="ssr:stedsnr" v="391770" />
	</node>
	<node id="-391930" lat="59.3727111137" lon="10.2849666666">
		<tag k="name" v="Bergstangen" />
		<tag k="place" v="farm" />
		<tag k="ssr:stedsnr" v="391765" />
	</node>
	<node id="-391927" lat="59.4436888933" lon="10.1757611191">
		<tag k="name" v="Skotvedt nordre" />
		<tag k="place" v="farm" />
		<tag k="ssr:stedsnr" v="391575" />
	</node>
	<node id="-391924" lat="59.3434972209" lon="10.2655500044">
		<tag k="name" v="Kirkevold" />
		<tag k="place" v="farm" />
		<tag k="ssr:stedsnr" v="391304" />
	</node>
	<node id="-391922" lat="59.447058329" lon="10.0925555475">
		<tag k="name" v="Kvotoa" />
		<tag k="place" v="locality" />
		<tag k="ssr:stedsnr" v="391102" />
	</node>
	<node id="-391921" lat="59.4406333334" lon="10.0874166711">
		<tag k="name" v="Øvre Orrevål" />
		<tag k="place" v="farm" />
		<tag k="ssr:stedsnr" v="391013" />
	</node>
	<node id="-391919" lat="59.2697825185" lon="10.4609011362">
		<tag k="amenity" v="school" />
		<tag k="name" v="Presterød ungd.skole" />
		<tag k="ssr:stedsnr" v="389754" />
	</node>
	<node id="-391918" lat="59.301680552" lon="10.427327781">
		<tag k="fixme" v="consider place=hamlet" />
		<tag k="name" v="Lofseik" />
		<tag k="place" v="farm" />
		<tag k="ssr:stedsnr" v="388771" />
	</node>
	<node id="-391917" lat="59.3048638885" lon="10.4133527821">
		<tag k="fixme" v="consider place=hamlet" />
		<tag k="name" v="Bruserød" />
		<tag k="place" v="farm" />
		<tag k="ssr:stedsnr" v="388760" />
	</node>
	<node id="-391913" lat="59.3397999994" lon="10.3224166703">
		<tag k="name" v="Bjune" />
		<tag k="place" v="farm" />
		<tag k="ssr:stedsnr" v="488794" />
	</node>
	<node id="-391912" lat="59.3422527778" lon="10.3060888826">
		<tag k="alt_name" v="Linnestad m" />
		<tag k="name" v="Linnestad" />
		<tag k="place" v="farm" />
		<tag k="ssr:stedsnr" v="488756" />
	</node>
	<node id="-391911" lat="59.3464277819" lon="10.2323777837">
		<tag k="name" v="Jonstang" />
		<tag k="place" v="farm" />
		<tag k="ssr:stedsnr" v="488750" />
	</node>
	<node id="-391910" lat="59.3496083319" lon="10.2322638927">
		<tag k="alt_name" v="Svinnigen" />
		<tag k="name" v="Svinningen" />
		<tag k="place" v="farm" />
		<tag k="ssr:stedsnr" v="488749" />
	</node>
	<node id="-391909" lat="59.2796000039" lon="10.4769638963">
		<tag k="fixme" v="consider place=hamlet" />
		<tag k="name" v="Lasken" />
		<tag k="place" v="farm" />
		<tag k="ssr:stedsnr" v="488620" />
	</node>
	<node id="-391908" lat="59.3241055559" lon="10.4114111111">
		<tag k="fixme" v="consider place=hamlet" />
		<tag k="name" v="Langerød" />
		<tag k="place" v="farm" />
		<tag k="ssr:stedsnr" v="488589" />
	</node>
	<node id="-391907" lat="59.398858334" lon="10.2793500009">
		<tag k="name" v="Haugtuft" />
		<tag k="place" v="farm" />
		<tag k="ssr:stedsnr" v="488197" />
	</node>
	<node id="-391906" lat="59.4019750003" lon="10.2401527799">
		<tag k="name" v="Holmane" />
		<tag k="place" v="farm" />
		<tag k="ssr:stedsnr" v="488191" />
	</node>
	<node id="-391905" lat="59.4075361075" lon="10.2579194389">
		<tag k="alt_name" v="Frellumstad nedre" />
		<tag k="name" v="Frellumstad" />
		<tag k="place" v="farm" />
		<tag k="ssr:stedsnr" v="488142" />
	</node>
	<node id="-391904" lat="59.4124055538" lon="10.3247527694">
		<tag k="name" v="Sande" />
		<tag k="place" v="farm" />
		<tag k="ssr:stedsnr" v="488139" />
	</node>
	<node id="-391903" lat="59.4203305535" lon="10.3315305531">
		<tag k="alt_name" v="Haugan nordre" />
		<tag k="name" v="Haugan" />
		<tag k="place" v="farm" />
		<tag k="ssr:stedsnr" v="488119" />
	</node>
	<node id="-391901" lat="59.4099111126" lon="10.1357944462">
		<tag k="alt_name" v="Langved m." />
		<tag k="name" v="Langved" />
		<tag k="place" v="farm" />
		<tag k="ssr:stedsnr" v="488116" />
	</node>
	<node id="-391898" lat="59.2891888913" lon="10.4718861081">
		<tag k="alt_name" v="Søndre Ilebrekke" />
		<tag k="fixme" v="consider place=hamlet" />
		<tag k="name" v="Ilebrekke" />
		<tag k="place" v="farm" />
		<tag k="ssr:stedsnr" v="487685" />
	</node>
	<node id="-391897" lat="59.3104500013" lon="10.3628000071">
		<tag k="fixme" v="consider place=hamlet" />
		<tag k="name" v="Nauen" />
		<tag k="place" v="farm" />
		<tag k="ssr:stedsnr" v="487678" />
	</node>
	<node id="-391896" lat="59.3411916706" lon="10.4652055513">
		<tag k="name" v="Høkli" />
		<tag k="place" v="farm" />
		<tag k="ssr:stedsnr" v="487641" />
	</node>
	<node id="-391895" lat="59.3473222233" lon="10.4149083311">
		<tag k="fixme" v="consider place=hamlet" />
		<tag k="name" v="Huseklepp" />
		<tag k="place" v="farm" />
		<tag k="ssr:stedsnr" v="487625" />
	</node>
	<node id="-391894" lat="59.3902583302" lon="10.2903277708">
		<tag k="alt_name" v="Berg, nordre" />
		<tag k="name" v="Nordre Berg" />
		<tag k="place" v="farm" />
		<tag k="ssr:stedsnr" v="487246" />
	</node>
	<node id="-391893" lat="59.3915583312" lon="10.3009250081">
		<tag k="alt_name" v="Ulsrud" />
		<tag k="name" v="Ulfsrud" />
		<tag k="place" v="farm" />
		<tag k="ssr:stedsnr" v="487243" />
	</node>
	<node id="-391892" lat="59.3916833313" lon="10.1324750015">
		<tag k="alt_name" v="Ektvedt s." />
		<tag k="name" v="Ektvet" />
		<tag k="place" v="farm" />
		<tag k="ssr:stedsnr" v="487225" />
	</node>
	<node id="-391890" lat="59.3824305587" lon="10.271427775">
		<tag k="name" v="Bjerke" />
		<tag k="place" v="farm" />
		<tag k="ssr:stedsnr" v="487195" />
	</node>
	<node id="-391889" lat="59.3738111154" lon="10.2937000069">
		<tag k="name" v="Lefsrød" />
		<tag k="place" v="farm" />
		<tag k="ssr:stedsnr" v="487189" />
	</node>
	<node id="-391888" lat="59.4386777756" lon="10.2386388873">
		<tag k="alt_name" v="Hjelmtvedt" />
		<tag k="name" v="Hjelmtvet" />
		<tag k="place" v="farm" />
		<tag k="ssr:stedsnr" v="487166" />
	</node>
	<node id="-391887" lat="59.4385944447" lon="10.3060805643">
		<tag k="alt_name" v="Haraldstad nordre" />
		<tag k="name" v="Haraldstad" />
		<tag k="place" v="farm" />
		<tag k="ssr:stedsnr" v="487162" />
	</node>
	<node id="-391886" lat="59.4265555556" lon="10.1703750073">
		<tag k="name" v="Myresetra" />
		<tag k="place" v="isolated_dwelling" />
		<tag k="ssr:stedsnr" v="487159" />
	</node>
	<node id="-391884" lat="59.4444416665" lon="10.1247138896">
		<tag k="name" v="Lie" />
		<tag k="place" v="farm" />
		<tag k="ssr:stedsnr" v="487061" />
	</node>
	<node id="-391883" lat="59.2604527782" lon="10.4096805532">
		<tag k="name" v="Teie" />
		<tag k="place" v="quarter" />
		<tag k="ssr:stedsnr" v="480924" />
	</node>
	<node id="-391882" lat="59.3370166685" lon="10.4710416615">
		<tag k="name" v="Romsrønningen" />
		<tag k="place" v="farm" />
		<tag k="ssr:stedsnr" v="480838" />
	</node>
	<node id="-391881" lat="59.2826750028" lon="10.4102305557">
		<tag k="alt_name" v="Tønsberg Messe og Idrettspark" />
		<tag k="leisure" v="pitch" />
		<tag k="name" v="Tønsberg messe- og idrettspark" />
		<tag k="ssr:stedsnr" v="480540" />
	</node>
	<node id="-391880" lat="59.4225138856" lon="10.304888896">
		<tag k="name" v="Sørby nordre" />
		<tag k="place" v="farm" />
		<tag k="ssr:stedsnr" v="331907" />
	</node>
	<node id="-391878" lat="59.3864722225" lon="10.1993500028">
		<tag k="name" v="Gruva" />
		<tag k="place" v="quarter" />
		<tag k="ssr:stedsnr" v="331316" />
	</node>
	<node id="-391877" lat="59.3823138868" lon="10.1792777755">
		<tag k="name" v="Kalshus" />
		<tag k="place" v="farm" />
		<tag k="ssr:stedsnr" v="331307" />
	</node>
	<node id="-391867" lat="59.4357027783" lon="10.3148972207">
		<tag k="name" v="Rostad søndre" />
		<tag k="place" v="farm" />
		<tag k="ssr:stedsnr" v="270866" />
	</node>
	<node id="-391866" lat="59.4237083334" lon="10.3016138874">
		<tag k="name" v="Sørby" />
		<tag k="place" v="farm" />
		<tag k="ssr:stedsnr" v="270864" />
	</node>
	<node id="-391865" lat="59.4267694463" lon="10.2894083421">
		<tag k="name" v="Søby nordre" />
		<tag k="place" v="farm" />
		<tag k="ssr:stedsnr" v="270863" />
	</node>
	<node id="-391862" lat="59.3983111108" lon="10.3363055479">
		<tag k="name" v="Grøtås" />
		<tag k="place" v="farm" />
		<tag k="ssr:stedsnr" v="270769" />
	</node>
	<node id="-391861" lat="59.3891555586" lon="10.3324611097">
		<tag k="name" v="Knapstad søndre" />
		<tag k="place" v="farm" />
		<tag k="ssr:stedsnr" v="270767" />
	</node>
	<node id="-391860" lat="59.387177774" lon="10.3511305545">
		<tag k="name" v="Nyerrød søndre" />
		<tag k="place" v="farm" />
		<tag k="ssr:stedsnr" v="270765" />
	</node>
	<node id="-391859" lat="59.3891805583" lon="10.3495833352">
		<tag k="name" v="Nyerrød nordre" />
		<tag k="place" v="farm" />
		<tag k="ssr:stedsnr" v="270764" />
	</node>
	<node id="-391858" lat="59.3914777775" lon="10.289758326">
		<tag k="name" v="Berg" />
		<tag k="place" v="farm" />
		<tag k="ssr:stedsnr" v="270760" />
	</node>
	<node id="-391856" lat="59.3693972251" lon="10.2940388971">
		<tag k="name" v="Gunhildstad" />
		<tag k="place" v="farm" />
		<tag k="ssr:stedsnr" v="270723" />
	</node>
	<node id="-391852" lat="59.3361444417" lon="10.3111666592">
		<tag k="name" v="Linnestad" />
		<tag k="place" v="farm" />
		<tag k="ssr:stedsnr" v="270665" />
	</node>
	<node id="-391851" lat="59.3331444436" lon="10.3063944363">
		<tag k="name" v="Reine" />
		<tag k="place" v="farm" />
		<tag k="ssr:stedsnr" v="270663" />
	</node>
	<node id="-391848" lat="59.4049750031" lon="10.2618249938">
		<tag k="name" v="Bakke" />
		<tag k="place" v="farm" />
		<tag k="ssr:stedsnr" v="270310" />
	</node>
	<node id="-391845" lat="59.3392749976" lon="10.2398138853">
		<tag k="name" v="Ramnes prestegård" />
		<tag k="place" v="isolated_dwelling" />
		<tag k="ssr:stedsnr" v="270269" />
	</node>
	<node id="-391843" lat="59.4191416653" lon="10.1044805535">
		<tag k="name" v="Synnøvetomta" />
		<tag k="place" v="locality" />
		<tag k="ssr:stedsnr" v="270203" />
	</node>
	<node id="-391839" lat="59.4389222186" lon="10.1108583363">
		<tag k="name" v="Løn" />
		<tag k="place" v="farm" />
		<tag k="ssr:stedsnr" v="269372" />
	</node>
	<node id="-391837" lat="59.2937154093" lon="10.4244271915">
		<tag k="amenity" v="school" />
		<tag k="fixme" v="multiple name tags, choose one and add the other to alt_name" />
		<tag k="name" v="Eik skole;Mortenåsen skole" />
		<tag k="ssr:stedsnr" v="267776" />
	</node>
	<node id="-391836" lat="59.3111027755" lon="10.4147111122">
		<tag k="alt_name" v="Søndre Rakås" />
		<tag k="name" v="Rakkås" />
		<tag k="place" v="locality" />
		<tag k="ssr:stedsnr" v="267769" />
	</node>
	<node id="-391835" lat="59.2740249974" lon="10.4601388842">
		<tag k="amenity" v="school" />
		<tag k="name" v="Presterød skole" />
		<tag k="ssr:stedsnr" v="267721" />
	</node>
	<node id="-391834" lat="59.4310555591" lon="10.2710249952">
		<tag k="name" v="Veierud" />
		<tag k="place" v="farm" />
		<tag k="ssr:stedsnr" v="452887" />
	</node>
	<node id="-391833" lat="59.4312944477" lon="10.2733805541">
		<tag k="name" v="Hornet" />
		<tag k="place" v="farm" />
		<tag k="ssr:stedsnr" v="452885" />
	</node>
	<node id="-391832" lat="59.3878555523" lon="10.3601138961">
		<tag k="name" v="Døvik" />
		<tag k="place" v="farm" />
		<tag k="ssr:stedsnr" v="452785" />
	</node>
	<node id="-391831" lat="59.3860194469" lon="10.2912527843">
		<tag k="name" v="Berg mellom" />
		<tag k="place" v="farm" />
		<tag k="ssr:stedsnr" v="452780" />
	</node>
	<node id="-391830" lat="59.3880944444" lon="10.2906138812">
		<tag k="name" v="Berg mellom" />
		<tag k="place" v="farm" />
		<tag k="ssr:stedsnr" v="452779" />
	</node>
	<node id="-391829" lat="59.3800722223" lon="10.3013083347">
		<tag k="name" v="Slette-Berg" />
		<tag k="place" v="farm" />
		<tag k="ssr:stedsnr" v="452772" />
	</node>
	<node id="-391827" lat="59.3298972193" lon="10.3325916708">
		<tag k="name" v="Bjune østre" />
		<tag k="place" v="farm" />
		<tag k="ssr:stedsnr" v="452762" />
	</node>
	<node id="-391825" lat="59.2902249966" lon="10.3036472301">
		<tag k="amenity" v="nursing_home" />
		<tag k="name" v="Granly sykehjem" />
		<tag k="ssr:stedsnr" v="452682" />
	</node>
	<node id="-391823" lat="59.4232861112" lon="10.2388583287">
		<tag k="name" v="Borge" />
		<tag k="place" v="farm" />
		<tag k="ssr:stedsnr" v="452649" />
	</node>
	<node id="-391822" lat="59.3893472247" lon="10.2523305545">
		<tag k="name" v="Fossan n." />
		<tag k="place" v="farm" />
		<tag k="ssr:stedsnr" v="452597" />
	</node>
	<node id="-391820" lat="59.3998833336" lon="10.2309277799">
		<tag k="name" v="Skrikestad ø." />
		<tag k="place" v="farm" />
		<tag k="ssr:stedsnr" v="452588" />
	</node>
	<node id="-391817" lat="59.4602083377" lon="10.1891888852">
		<tag k="name" v="Sjuve" />
		<tag k="place" v="farm" />
		<tag k="ssr:stedsnr" v="452576" />
	</node>
	<node id="-391815" lat="59.4467555568" lon="10.2098000047">
		<tag k="name" v="Kleven nordre" />
		<tag k="place" v="farm" />
		<tag k="ssr:stedsnr" v="452553" />
	</node>
	<node id="-391814" lat="59.4621749956" lon="10.2021888856">
		<tag k="name" v="Tørklep nedre" />
		<tag k="place" v="farm" />
		<tag k="ssr:stedsnr" v="452549" />
	</node>
	<node id="-391813" lat="59.4482527768" lon="10.2116277828">
		<tag k="name" v="Kleven" />
		<tag k="place" v="isolated_dwelling" />
		<tag k="ssr:stedsnr" v="452543" />
	</node>
	<node id="-391812" lat="59.4573888848" lon="10.2116333271">
		<tag k="name" v="Grytemark" />
		<tag k="place" v="farm" />
		<tag k="ssr:stedsnr" v="452541" />
	</node>
	<node id="-391810" lat="59.3650361148" lon="10.2673638962">
		<tag k="name" v="Tykkemark" />
		<tag k="place" v="locality" />
		<tag k="ssr:stedsnr" v="452386" />
	</node>
	<node id="-391804" lat="59.3892388864" lon="10.2021027846">
		<tag k="name" v="Guldaker" />
		<tag k="place" v="farm" />
		<tag k="ssr:stedsnr" v="452286" />
	</node>
	<node id="-391803" lat="59.3429888881" lon="10.2321333298">
		<tag k="name" v="Lerstang" />
		<tag k="place" v="locality" />
		<tag k="ssr:stedsnr" v="452272" />
	</node>
	<node id="-391800" lat="59.3384944449" lon="10.252269441">
		<tag k="name" v="Re" />
		<tag k="place" v="farm" />
		<tag k="ssr:stedsnr" v="452251" />
	</node>
	<node id="-391795" lat="59.3968000013" lon="10.0753638811">
		<tag k="historic" v="shieling" />
		<tag k="name" v="Søndre Tuftenseter" />
		<tag k="place" v="locality" />
		<tag k="ssr:stedsnr" v="452065" />
	</node>
	<node id="-391794" lat="59.2931027734" lon="10.4955027849">
		<tag k="name" v="Skallevoll" />
		<tag k="place" v="farm" />
		<tag k="ssr:stedsnr" v="451883" />
	</node>
	<node id="-391792" lat="59.3067222231" lon="10.4544305611">
		<tag k="alt_name" v="Lille Oseberg" />
		<tag k="fixme" v="consider place=hamlet" />
		<tag k="name" v="Oseberg" />
		<tag k="place" v="farm" />
		<tag k="ssr:stedsnr" v="450798" />
	</node>
	<node id="-391791" lat="59.2961833334" lon="10.4562250085">
		<tag k="fixme" v="consider place=hamlet" />
		<tag k="name" v="Haug Basberg" />
		<tag k="place" v="farm" />
		<tag k="ssr:stedsnr" v="450793" />
	</node>
	<node id="-391790" lat="59.3102861132" lon="10.4399472276">
		<tag k="name" v="Roberg" />
		<tag k="place" v="farm" />
		<tag k="ssr:stedsnr" v="450791" />
	</node>
	<node id="-391788" lat="59.299222221" lon="10.4024611147">
		<tag k="amenity" v="school" />
		<tag k="name" v="Berg arbeidsskole" />
		<tag k="ssr:stedsnr" v="450787" />
	</node>
	<node id="-391787" lat="59.3066527758" lon="10.433450004">
		<tag k="name" v="Skava" />
		<tag k="place" v="isolated_dwelling" />
		<tag k="ssr:stedsnr" v="450785" />
	</node>
	<node id="-391785" lat="59.2701305588" lon="10.4687055551">
		<tag k="name" v="Slagen bo- og servicesenter" />
		<tag k="ssr:stedsnr" v="450774" />
		<tag k="tourism" v="guest_house" />
	</node>
	<node id="-391782" lat="59.2848111072" lon="10.488005556">
		<tag k="amenity" v="school" />
		<tag k="name" v="Ringshaug skole" />
		<tag k="ssr:stedsnr" v="450755" />
	</node>
	<node id="-391781" lat="59.2763222198" lon="10.4433361074">
		<tag k="name" v="Døsserød" />
		<tag k="place" v="farm" />
		<tag k="ssr:stedsnr" v="450747" />
	</node>
	<node id="-391780" lat="59.2758750032" lon="10.4861805527">
		<tag k="name" v="Gårdbo" />
		<tag k="place" v="farm" />
		<tag k="ssr:stedsnr" v="450745" />
	</node>
	<node id="-391777" lat="59.3146527735" lon="10.419208341">
		<tag k="name" v="Rakkås" />
		<tag k="place" v="farm" />
		<tag k="ssr:stedsnr" v="245620" />
	</node>
	<node id="-391776" lat="59.3088666685" lon="10.4994055482">
		<tag k="fixme" v="consider place=hamlet" />
		<tag k="name" v="Tverved" />
		<tag k="place" v="farm" />
		<tag k="ssr:stedsnr" v="245615" />
	</node>
	<node id="-391775" lat="59.3005527763" lon="10.4678472237">
		<tag k="alt_name" v="Søndre Hassum" />
		<tag k="fixme" v="consider place=hamlet" />
		<tag k="name" v="Hassum" />
		<tag k="place" v="farm" />
		<tag k="ssr:stedsnr" v="245612" />
	</node>
	<node id="-391774" lat="59.3005527818" lon="10.4541805578">
		<tag k="alt_name" v="Nordre Basberg" />
		<tag k="fixme" v="consider place=hamlet" />
		<tag k="name" v="Basberg" />
		<tag k="place" v="farm" />
		<tag k="ssr:stedsnr" v="245610" />
	</node>
	<node id="-391773" lat="59.3708527765" lon="10.2034388822">
		<tag k="name" v="Fjærklepp" />
		<tag k="place" v="farm" />
		<tag k="ssr:stedsnr" v="245177" />
	</node>
	<node id="-391772" lat="59.4369277738" lon="10.2144194473">
		<tag k="alt_name" v="Bakstevold nordre" />
		<tag k="name" v="Bakstvål" />
		<tag k="place" v="farm" />
		<tag k="ssr:stedsnr" v="245161" />
	</node>
	<node id="-391771" lat="59.4389694444" lon="10.2689777828">
		<tag k="name" v="Jonstang" />
		<tag k="place" v="farm" />
		<tag k="ssr:stedsnr" v="245157" />
	</node>
	<node id="-391770" lat="59.4181277796" lon="10.2703305572">
		<tag k="name" v="Bibo" />
		<tag k="place" v="farm" />
		<tag k="ssr:stedsnr" v="245124" />
	</node>
	<node id="-391760" lat="59.4172638872" lon="10.3065361197">
		<tag k="name" v="Sørby mellom" />
		<tag k="place" v="farm" />
		<tag k="ssr:stedsnr" v="209817" />
	</node>
	<node id="-391757" lat="59.4314111137" lon="10.2624833287">
		<tag k="name" v="Rønningen" />
		<tag k="place" v="farm" />
		<tag k="ssr:stedsnr" v="209615" />
	</node>
	<node id="-391754" lat="59.4718027749" lon="10.1860083345">
		<tag k="name" v="Mo" />
		<tag k="place" v="farm" />
		<tag k="ssr:stedsnr" v="209707" />
	</node>
	<node id="-391753" lat="59.4665027736" lon="10.1989305484">
		<tag k="name" v="Ruteig søndre" />
		<tag k="place" v="farm" />
		<tag k="ssr:stedsnr" v="209704" />
	</node>
	<node id="-391746" lat="59.4102388902" lon="10.2581361102">
		<tag k="name" v="Frellumstad øvre" />
		<tag k="place" v="farm" />
		<tag k="ssr:stedsnr" v="209330" />
	</node>
	<node id="-391745" lat="59.419841666" lon="10.2534194373">
		<tag k="name" v="Bettum" />
		<tag k="place" v="farm" />
		<tag k="ssr:stedsnr" v="209326" />
	</node>
	<node id="-391735" lat="59.274277778" lon="10.3995111086">
		<tag k="amenity" v="university" />
		<tag k="name" v="Maritim skole" />
		<tag k="ssr:stedsnr" v="177556" />
	</node>
	<node id="-391726" lat="59.3369583363" lon="10.3674138947">
		<tag k="name" v="Undrum mellom" />
		<tag k="place" v="farm" />
		<tag k="ssr:stedsnr" v="148824" />
	</node>
	<node id="-391725" lat="59.3385527736" lon="10.3691222271">
		<tag k="name" v="Undrum søndre" />
		<tag k="place" v="farm" />
		<tag k="ssr:stedsnr" v="148821" />
	</node>
	<node id="-391724" lat="59.3396749996" lon="10.3695916707">
		<tag k="name" v="Undrum søndre" />
		<tag k="place" v="farm" />
		<tag k="ssr:stedsnr" v="148820" />
	</node>
	<node id="-391723" lat="59.3595972268" lon="10.2706249961">
		<tag k="name" v="Solheim" />
		<tag k="place" v="farm" />
		<tag k="ssr:stedsnr" v="148755" />
	</node>
	<node id="-391722" lat="59.4261833302" lon="10.2055694489">
		<tag k="name" v="Sulutvedt nedre" />
		<tag k="place" v="farm" />
		<tag k="ssr:stedsnr" v="148658" />
	</node>
	<node id="-391719" lat="59.3844861112" lon="10.2556638923">
		<tag k="name" v="Fossan søndre" />
		<tag k="place" v="farm" />
		<tag k="ssr:stedsnr" v="148576" />
	</node>
	<node id="-391718" lat="59.4282916692" lon="10.1973527801">
		<tag k="name" v="Holtung søndre" />
		<tag k="place" v="farm" />
		<tag k="ssr:stedsnr" v="148559" />
	</node>
	<node id="-391712" lat="59.4520027757" lon="10.1518444464">
		<tag k="name" v="Langeli S." />
		<tag k="place" v="farm" />
		<tag k="ssr:stedsnr" v="148115" />
	</node>
	<node id="-391708" lat="59.4393055512" lon="10.0947305576">
		<tag k="name" v="Nedre O" />
		<tag k="place" v="farm" />
		<tag k="ssr:stedsnr" v="148015" />
	</node>
	<node id="-391702" lat="59.2780333335" lon="10.4009805582">
		<tag k="name" v="Korten" />
		<tag k="place" v="quarter" />
		<tag k="ssr:stedsnr" v="146725" />
	</node>
	<node id="-391701" lat="59.2859499981" lon="10.3346555621">
		<tag k="amenity" v="prison" />
		<tag k="name" v="Sem fengsel" />
		<tag k="ssr:stedsnr" v="146374" />
	</node>
	<node id="-391700" lat="59.2913277748" lon="10.3625999955">
		<tag k="name" v="Kjærnes" />
		<tag k="place" v="locality" />
		<tag k="ssr:stedsnr" v="146372" />
	</node>
	<node id="-391695" lat="59.3185583309" lon="10.294733325">
		<tag k="name" v="Himbergåsen" />
		<tag k="place" v="farm" />
		<tag k="ssr:stedsnr" v="270892" />
	</node>
	<node id="-391691" lat="59.3732999984" lon="10.2952472192">
		<tag k="name" v="Solhaug" />
		<tag k="place" v="farm" />
		<tag k="ssr:stedsnr" v="270724" />
	</node>
	<node id="-391689" lat="59.4438250028" lon="10.2402638943">
		<tag k="name" v="Rygg nordre" />
		<tag k="place" v="farm" />
		<tag k="ssr:stedsnr" v="270548" />
	</node>
	<node id="-391688" lat="59.4438083307" lon="10.2530111173">
		<tag k="name" v="Lærum søndre" />
		<tag k="place" v="farm" />
		<tag k="ssr:stedsnr" v="270546" />
	</node>
	<node id="-391686" lat="59.4346805527" lon="10.1948222164">
		<tag k="name" v="Holtung" />
		<tag k="place" v="farm" />
		<tag k="ssr:stedsnr" v="270530" />
	</node>
	<node id="-391685" lat="59.4504805562" lon="10.3177000037">
		<tag k="name" v="Rostadteigen" />
		<tag k="place" v="farm" />
		<tag k="ssr:stedsnr" v="270783" />
	</node>
	<node id="-391682" lat="59.4305694432" lon="10.2657416633">
		<tag k="name" v="Veierud" />
		<tag k="place" v="farm" />
		<tag k="ssr:stedsnr" v="270628" />
	</node>
	<node id="-391681" lat="59.3808583325" lon="10.2095777846">
		<tag k="name" v="Holt nedre" />
		<tag k="place" v="farm" />
		<tag k="ssr:stedsnr" v="270586" />
	</node>
	<node id="-391680" lat="59.3935250028" lon="10.2371777824">
		<tag k="name" v="Tollistua" />
		<tag k="place" v="farm" />
		<tag k="ssr:stedsnr" v="270578" />
	</node>
	<node id="-391679" lat="59.3849361155" lon="10.2346555573">
		<tag k="name" v="Kile ø." />
		<tag k="place" v="farm" />
		<tag k="ssr:stedsnr" v="270576" />
	</node>
	<node id="-391676" lat="59.3701083343" lon="10.2633055516">
		<tag k="name" v="Revetal s" />
		<tag k="place" v="farm" />
		<tag k="ssr:stedsnr" v="270392" />
	</node>
	<node id="-391675" lat="59.3617277818" lon="10.1887555516">
		<tag k="name" v="Nyhus" />
		<tag k="place" v="farm" />
		<tag k="ssr:stedsnr" v="270345" />
	</node>
	<node id="-391672" lat="59.3905138931" lon="10.1981944413">
		<tag k="name" v="Solbergstua" />
		<tag k="place" v="isolated_dwelling" />
		<tag k="ssr:stedsnr" v="270298" />
	</node>
	<node id="-391668" lat="59.3844194438" lon="10.1324166736">
		<tag k="name" v="Elverheim" />
		<tag k="place" v="farm" />
		<tag k="ssr:stedsnr" v="270082" />
	</node>
	<node id="-391667" lat="59.3958527793" lon="10.1343694399">
		<tag k="name" v="Ektvedt n." />
		<tag k="place" v="farm" />
		<tag k="ssr:stedsnr" v="270078" />
	</node>
	<node id="-391664" lat="59.4324777817" lon="10.1257416684">
		<tag k="name" v="Kjær" />
		<tag k="place" v="isolated_dwelling" />
		<tag k="ssr:stedsnr" v="270016" />
	</node>
	<node id="-391663" lat="59.4265416624" lon="10.1284083348">
		<tag k="name" v="Skau" />
		<tag k="place" v="farm" />
		<tag k="ssr:stedsnr" v="270013" />
	</node>
	<node id="-391662" lat="59.3731166651" lon="10.2645805513">
		<tag k="name" v="Revetal n" />
		<tag k="place" v="farm" />
		<tag k="ssr:stedsnr" v="270390" />
	</node>
	<node id="-391661" lat="59.360697225" lon="10.2497444431">
		<tag k="leisure" v="pitch" />
		<tag k="name" v="Bergan" />
		<tag k="ssr:stedsnr" v="270387" />
	</node>
	<node id="-391660" lat="59.3570861108" lon="10.2284722192">
		<tag k="name" v="Studsrud søndre" />
		<tag k="place" v="farm" />
		<tag k="ssr:stedsnr" v="270377" />
	</node>
	<node id="-391655" lat="59.2860194472" lon="10.4325583379">
		<tag k="name" v="Trettepletten" />
		<tag k="place" v="farm" />
		<tag k="ssr:stedsnr" v="267989" />
	</node>
	<node id="-391653" lat="59.2966305547" lon="10.4689277694">
		<tag k="alt_name" v="Nordre Ilebrekke" />
		<tag k="fixme" v="consider place=hamlet" />
		<tag k="name" v="Ilebrekke" />
		<tag k="place" v="farm" />
		<tag k="ssr:stedsnr" v="267789" />
	</node>
	<node id="-391651" lat="59.2536555526" lon="10.4503888905">
		<tag k="name" v="Teigen" />
		<tag k="place" v="isolated_dwelling" />
		<tag k="ssr:stedsnr" v="267746" />
	</node>
	<node id="-391650" lat="59.3147249961" lon="10.4392388923">
		<tag k="name" v="Roberg" />
		<tag k="place" v="hamlet" />
		<tag k="ssr:stedsnr" v="267786" />
	</node>
	<node id="-391648" lat="59.3795777803" lon="10.17016389">
		<tag k="name" v="Jerpetjønn" />
		<tag k="place" v="farm" />
		<tag k="ssr:stedsnr" v="123270" />
	</node>
	<node id="-391647" lat="59.4041944465" lon="10.3027999947">
		<tag k="alt_name" v="Serkeland nedre" />
		<tag k="name" v="Serkland" />
		<tag k="place" v="farm" />
		<tag k="ssr:stedsnr" v="123260" />
	</node>
	<node id="-391646" lat="59.4020000045" lon="10.3350249915">
		<tag k="alt_name" v="Krokeberg" />
		<tag k="name" v="Krokeborg" />
		<tag k="place" v="farm" />
		<tag k="ssr:stedsnr" v="123257" />
	</node>
	<node id="-391645" lat="59.4020749999" lon="10.3179194394">
		<tag k="alt_name" v="Grytnes vestre" />
		<tag k="name" v="Grytnes" />
		<tag k="place" v="farm" />
		<tag k="ssr:stedsnr" v="123256" />
	</node>
	<node id="-391644" lat="59.2443083304" lon="10.3560972247">
		<tag k="name" v="Robergåsen" />
		<tag k="place" v="village" />
		<tag k="ssr:stedsnr" v="263013" />
	</node>
	<node id="-391640" lat="59.2842750001" lon="10.3343777782">
		<tag k="name" v="Aulerød" />
		<tag k="place" v="quarter" />
		<tag k="ssr:stedsnr" v="88633" />
	</node>
	<node id="-391635" lat="59.3866749957" lon="10.2141500056">
		<tag k="name" v="Holt n." />
		<tag k="place" v="farm" />
		<tag k="ssr:stedsnr" v="88503" />
	</node>
	<node id="-391633" lat="59.4251888901" lon="10.0777333416">
		<tag k="historic" v="shieling" />
		<tag k="name" v="Stokkeseter" />
		<tag k="place" v="locality" />
		<tag k="ssr:stedsnr" v="88007" />
	</node>
	<node id="-391631" lat="59.4010138916" lon="10.1350305533">
		<tag k="name" v="Lundberg" />
		<tag k="place" v="farm" />
		<tag k="ssr:stedsnr" v="88146" />
	</node>
	<node id="-391630" lat="59.4211666648" lon="10.1322111039">
		<tag k="amenity" v="school" />
		<tag k="name" v="Vivestad skole" />
		<tag k="ssr:stedsnr" v="88141" />
	</node>
	<node id="-391629" lat="59.3030138866" lon="10.5013805546">
		<tag k="name" v="Teigen" />
		<tag k="place" v="quarter" />
		<tag k="ssr:stedsnr" v="87173" />
	</node>
	<node id="-391628" lat="59.3124305566" lon="10.4521472296">
		<tag k="name" v="Lie" />
		<tag k="place" v="farm" />
		<tag k="ssr:stedsnr" v="86804" />
	</node>
	<node id="-391627" lat="59.2658249976" lon="10.472130548">
		<tag k="alt_name" v="Mellem Ulleviken" />
		<tag k="fixme" v="consider place=hamlet" />
		<tag k="name" v="Ullevika" />
		<tag k="place" v="farm" />
		<tag k="ssr:stedsnr" v="86761" />
	</node>
	<node id="-391621" lat="59.2566361106" lon="10.4772000003">
		<tag k="name" v="Narverød" />
		<tag k="place" v="isolated_dwelling" />
		<tag k="ssr:stedsnr" v="246651" />
	</node>
	<node id="-391620" lat="59.2664249964" lon="10.3740805622">
		<tag k="fixme" v="consider place=hamlet" />
		<tag k="name" v="Smørberg" />
		<tag k="place" v="farm" />
		<tag k="ssr:stedsnr" v="246638" />
	</node>
	<node id="-391618" lat="59.4517666643" lon="10.3451111157">
		<tag k="name" v="Grette" />
		<tag k="place" v="farm" />
		<tag k="ssr:stedsnr" v="245956" />
	</node>
	<node id="-391617" lat="59.3262388905" lon="10.2898694364">
		<tag k="name" v="Oserød" />
		<tag k="place" v="farm" />
		<tag k="ssr:stedsnr" v="245794" />
	</node>
	<node id="-391616" lat="59.3540444475" lon="10.2398277854">
		<tag k="alt_name" v="Berg vestre" />
		<tag k="name" v="Berg" />
		<tag k="place" v="farm" />
		<tag k="ssr:stedsnr" v="245745" />
	</node>
	<node id="-391615" lat="59.3205361075" lon="10.4887416621">
		<tag k="fixme" v="consider place=hamlet" />
		<tag k="name" v="Adamsrød" />
		<tag k="place" v="farm" />
		<tag k="ssr:stedsnr" v="245593" />
	</node>
	<node id="-391614" lat="59.3206916658" lon="10.3488555584">
		<tag k="name" v="Rastad" />
		<tag k="place" v="farm" />
		<tag k="ssr:stedsnr" v="245585" />
	</node>
	<node id="-391613" lat="59.3273472189" lon="10.4698499984">
		<tag k="alt_name" v="Rørås" />
		<tag k="name" v="Rørås, m" />
		<tag k="place" v="farm" />
		<tag k="ssr:stedsnr" v="245581" />
	</node>
	<node id="-391612" lat="59.3259777761" lon="10.4223194473">
		<tag k="fixme" v="consider place=hamlet" />
		<tag k="name" v="Høifødt" />
		<tag k="place" v="farm" />
		<tag k="ssr:stedsnr" v="245579" />
	</node>
	<node id="-391611" lat="59.3334397094" lon="10.4229594274">
		<tag k="fixme" v="consider place=hamlet" />
		<tag k="name" v="Sanderød" />
		<tag k="place" v="farm" />
		<tag k="ssr:stedsnr" v="245577" />
	</node>
	<node id="-391610" lat="59.3370805589" lon="10.4428249991">
		<tag k="name" v="Myra" />
		<tag k="place" v="farm" />
		<tag k="ssr:stedsnr" v="245576" />
	</node>
	<node id="-391607" lat="59.2919472218" lon="10.4630138913">
		<tag k="alt_name" v="Undeberg" />
		<tag k="fixme" v="consider place=hamlet" />
		<tag k="name" v="Unneberg" />
		<tag k="place" v="farm" />
		<tag k="ssr:stedsnr" v="245630" />
	</node>
	<node id="-391606" lat="59.3616277736" lon="10.3905972206">
		<tag k="name" v="Lillerød" />
		<tag k="place" v="farm" />
		<tag k="ssr:stedsnr" v="245547" />
	</node>
	<node id="-391605" lat="59.3750638879" lon="10.36790834">
		<tag k="name" v="Kleppan" />
		<tag k="place" v="farm" />
		<tag k="ssr:stedsnr" v="245530" />
	</node>
	<node id="-391604" lat="59.3643083343" lon="10.3100694514">
		<tag k="name" v="Venås" />
		<tag k="place" v="farm" />
		<tag k="ssr:stedsnr" v="245198" />
	</node>
	<node id="-391603" lat="59.3800805524" lon="10.3016499972">
		<tag k="alt_name" v="Rustan østre" />
		<tag k="name" v="Rustan" />
		<tag k="place" v="farm" />
		<tag k="ssr:stedsnr" v="245188" />
	</node>
	<node id="-391602" lat="59.46856111" lon="10.1779111166">
		<tag k="name" v="Ende" />
		<tag k="place" v="farm" />
		<tag k="ssr:stedsnr" v="245085" />
	</node>
	<node id="-391601" lat="59.4340388848" lon="10.1017138923">
		<tag k="name" v="Stokke" />
		<tag k="place" v="farm" />
		<tag k="ssr:stedsnr" v="245078" />
	</node>
	<node id="-391599" lat="59.4442305514" lon="10.0986194509">
		<tag k="name" v="Orrevål" />
		<tag k="place" v="farm" />
		<tag k="ssr:stedsnr" v="245067" />
	</node>
	<node id="-391598" lat="59.4518500028" lon="10.1850555547">
		<tag k="alt_name" v="Revå" />
		<tag k="name" v="Revo" />
		<tag k="place" v="farm" />
		<tag k="ssr:stedsnr" v="245064" />
	</node>
	<node id="-391597" lat="59.3384666621" lon="10.3949527846">
		<tag k="alt_name" v="Brekke, nordre;Brekke N;Vestre Brekke" />
		<tag k="fixme" v="consider place=hamlet" />
		<tag k="name" v="Nordre Brekke" />
		<tag k="place" v="farm" />
		<tag k="ssr:stedsnr" v="63607" />
	</node>
	<node id="-391592" lat="59.315463891" lon="10.4943388902">
		<tag k="name" v="Tufta" />
		<tag k="place" v="isolated_dwelling" />
		<tag k="ssr:stedsnr" v="238909" />
	</node>
	<node id="-391589" lat="59.262961113" lon="10.4429194434">
		<tag k="name" v="Nedre Råel" />
		<tag k="place" v="quarter" />
		<tag k="ssr:stedsnr" v="238333" />
	</node>
	<node id="-391588" lat="59.2677805558" lon="10.4081222198">
		<tag k="name" v="Torget" />
		<tag k="place" v="square" />
		<tag k="ssr:stedsnr" v="56303" />
	</node>
	<node id="-391582" lat="59.3751222201" lon="10.3885749938">
		<tag k="name" v="Råen" />
		<tag k="place" v="farm" />
		<tag k="ssr:stedsnr" v="28409" />
	</node>
	<node id="-391579" lat="59.3892166638" lon="10.2442972137">
		<tag k="name" v="Firing m." />
		<tag k="place" v="farm" />
		<tag k="ssr:stedsnr" v="27601" />
	</node>
	<node id="-391572" lat="59.4376861113" lon="10.1009694485">
		<tag k="name" v="O søndre" />
		<tag k="place" v="farm" />
		<tag k="ssr:stedsnr" v="27009" />
	</node>
	<node id="-391569" lat="59.3880249994" lon="10.2568138804">
		<tag k="name" v="Fossan" />
		<tag k="place" v="farm" />
		<tag k="ssr:stedsnr" v="26708" />
	</node>
	<node id="-391565" lat="59.3942694467" lon="10.2666222237">
		<tag k="name" v="Bjerkeskau" />
		<tag k="place" v="farm" />
		<tag k="ssr:stedsnr" v="2247" />
	</node>
	<node id="-391564" lat="59.3843583334" lon="10.1717166727">
		<tag k="name" v="Kjønnerød" />
		<tag k="place" v="isolated_dwelling" />
		<tag k="ssr:stedsnr" v="2246" />
	</node>
	<node id="-391563" lat="59.3947166705" lon="10.2010055573">
		<tag k="name" v="Rove" />
		<tag k="place" v="farm" />
		<tag k="ssr:stedsnr" v="2226" />
	</node>
	<node id="-391562" lat="59.3756694438" lon="10.3126027735">
		<tag k="alt_name" v="Dal vestre" />
		<tag k="name" v="Dal" />
		<tag k="place" v="farm" />
		<tag k="ssr:stedsnr" v="2205" />
	</node>
	<node id="-391561" lat="59.371874997" lon="10.3037833325">
		<tag k="name" v="Kåpe" />
		<tag k="place" v="farm" />
		<tag k="ssr:stedsnr" v="2203" />
	</node>
	<node id="-391560" lat="59.3651250041" lon="10.3364388936">
		<tag k="alt_name" v="Heum" />
		<tag k="name" v="Hem" />
		<tag k="place" v="farm" />
		<tag k="ssr:stedsnr" v="2201" />
	</node>
	<node id="-391559" lat="59.4222249982" lon="10.0713166729">
		<tag k="name" v="Bjørndalshytta" />
		<tag k="place" v="isolated_dwelling" />
		<tag k="ssr:stedsnr" v="2179" />
	</node>
	<node id="-391558" lat="59.4351499994" lon="10.232038884">
		<tag k="alt_name" v="Kringlås" />
		<tag k="name" v="Kringelås" />
		<tag k="place" v="farm" />
		<tag k="ssr:stedsnr" v="2171" />
	</node>
	<node id="-391557" lat="59.4291499973" lon="10.129674998">
		<tag k="name" v="Kjær" />
		<tag k="place" v="farm" />
		<tag k="ssr:stedsnr" v="2156" />
	</node>
	<node id="-393426" lat="59.3210756046" lon="10.4490947886">
		<tag k="name" v="Østre Rom" />
		<tag k="place" v="hamlet" />
		<tag k="ssr:stedsnr" v="984950" />
	</node>
	<node id="-393425" lat="59.3256331878" lon="10.4413128399">
		<tag k="name" v="Vestre Rom" />
		<tag k="place" v="hamlet" />
		<tag k="ssr:stedsnr" v="984949" />
	</node>
	<node id="-393424" lat="59.3249437241" lon="10.4364208537">
		<tag k="fixme" v="consider place=hamlet" />
		<tag k="name" v="Mellem Rom" />
		<tag k="place" v="farm" />
		<tag k="ssr:stedsnr" v="984948" />
	</node>
	<node id="-393423" lat="59.3221184338" lon="10.4497927826">
		<tag k="fixme" v="consider place=hamlet" />
		<tag k="name" v="Mellem Rom" />
		<tag k="place" v="farm" />
		<tag k="ssr:stedsnr" v="984947" />
	</node>
	<node id="-393421" lat="59.3193107724" lon="10.4342276255">
		<tag k="fixme" v="consider place=hamlet" />
		<tag k="name" v="Vestre Roberg" />
		<tag k="place" v="farm" />
		<tag k="ssr:stedsnr" v="984945" />
	</node>
	<node id="-393420" lat="59.3420087054" lon="10.4175938573">
		<tag k="name" v="Jareteigen" />
		<tag k="place" v="hamlet" />
		<tag k="ssr:stedsnr" v="984863" />
	</node>
	<node id="-393419" lat="59.3170388427" lon="10.3882333862">
		<tag k="name" v="Barkåker" />
		<tag k="place" v="locality" />
		<tag k="ssr:stedsnr" v="984859" />
	</node>
	<node id="-393418" lat="59.3214278201" lon="10.3798905646">
		<tag k="fixme" v="consider place=hamlet" />
		<tag k="name" v="Søndre Eikeberg" />
		<tag k="place" v="farm" />
		<tag k="ssr:stedsnr" v="984749" />
	</node>
	<node id="-393417" lat="59.3392595214" lon="10.3740714201">
		<tag k="name" v="Undrum" />
		<tag k="place" v="hamlet" />
		<tag k="ssr:stedsnr" v="984721" />
	</node>
	<node id="-393416" lat="59.2839179289" lon="10.3334103578">
		<tag k="fixme" v="consider place=hamlet" />
		<tag k="name" v="Aulerød" />
		<tag k="place" v="farm" />
		<tag k="ssr:stedsnr" v="984818" />
	</node>
	<node id="-393415" lat="59.2850402799" lon="10.3128446624">
		<tag k="name" v="Hesby" />
		<tag k="place" v="hamlet" />
		<tag k="ssr:stedsnr" v="984805" />
	</node>
	<node id="-393414" lat="59.2845487151" lon="10.3096384676">
		<tag k="fixme" v="consider place=hamlet" />
		<tag k="name" v="Mellem Hesby" />
		<tag k="place" v="farm" />
		<tag k="ssr:stedsnr" v="984783" />
	</node>
	<node id="-393413" lat="59.2902384953" lon="10.3205297915">
		<tag k="name" v="Lensberg" />
		<tag k="place" v="hamlet" />
		<tag k="ssr:stedsnr" v="984781" />
	</node>
	<node id="-393412" lat="59.2910690427" lon="10.3219540112">
		<tag k="fixme" v="consider place=hamlet" />
		<tag k="name" v="Øvre Lendsberg" />
		<tag k="place" v="farm" />
		<tag k="ssr:stedsnr" v="984780" />
	</node>
	<node id="-393411" lat="59.2992892016" lon="10.3231714303">
		<tag k="name" v="Grette" />
		<tag k="place" v="hamlet" />
		<tag k="ssr:stedsnr" v="984779" />
	</node>
	<node id="-393410" lat="59.2969826849" lon="10.3213267387">
		<tag k="fixme" v="consider place=hamlet" />
		<tag k="name" v="Øvre Grette" />
		<tag k="place" v="farm" />
		<tag k="ssr:stedsnr" v="984778" />
	</node>
	<node id="-393409" lat="59.3062031342" lon="10.3549544762">
		<tag k="name" v="Fadum" />
		<tag k="place" v="hamlet" />
		<tag k="ssr:stedsnr" v="984777" />
	</node>
	<node id="-393408" lat="59.295984486" lon="10.3554544719">
		<tag k="fixme" v="consider place=hamlet" />
		<tag k="name" v="Søndre Ås" />
		<tag k="place" v="farm" />
		<tag k="ssr:stedsnr" v="984776" />
	</node>
	<node id="-393407" lat="59.2997623689" lon="10.3605017503">
		<tag k="fixme" v="consider place=hamlet" />
		<tag k="name" v="Nordre Ås" />
		<tag k="place" v="farm" />
		<tag k="ssr:stedsnr" v="984775" />
	</node>
	<node id="-393406" lat="59.3208193455" lon="10.3809588388">
		<tag k="name" v="Eikeberg" />
		<tag k="place" v="hamlet" />
		<tag k="ssr:stedsnr" v="984751" />
	</node>
	<node id="-393399" lat="59.3021972256" lon="10.49630278">
		<tag k="name" v="Myra" />
		<tag k="place" v="farm" />
		<tag k="ssr:stedsnr" v="876197" />
	</node>
	<node id="-393395" lat="59.2593277802" lon="10.3586472305">
		<tag k="amenity" v="school" />
		<tag k="name" v="Vear skole" />
		<tag k="ssr:stedsnr" v="875398" />
	</node>
	<node id="-393393" lat="59.2479250035" lon="10.450880554">
		<tag k="amenity" v="nursing_home" />
		<tag k="name" v="Marie Treschows Minde" />
		<tag k="ssr:stedsnr" v="874945" />
	</node>
	<node id="-393391" lat="59.3049111117" lon="10.4432583411">
		<tag k="amenity" v="school" />
		<tag k="name" v="Klokkeråsen skole" />
		<tag k="ssr:stedsnr" v="874792" />
	</node>
	<node id="-393388" lat="59.3223416641" lon="10.3967083332">
		<tag k="alt_name" v="Nordre Fresje" />
		<tag k="fixme" v="consider place=hamlet" />
		<tag k="name" v="Fritsø N" />
		<tag k="place" v="farm" />
		<tag k="ssr:stedsnr" v="874777" />
	</node>
	<node id="-393387" lat="59.3309611106" lon="10.3827250008">
		<tag k="fixme" v="consider place=hamlet" />
		<tag k="name" v="Tveiten" />
		<tag k="place" v="farm" />
		<tag k="ssr:stedsnr" v="874773" />
	</node>
	<node id="-393386" lat="59.3126638925" lon="10.2765833309">
		<tag k="alt_name" v="Aslaksrød" />
		<tag k="name" v="Aslakrød" />
		<tag k="place" v="isolated_dwelling" />
		<tag k="ssr:stedsnr" v="853844" />
	</node>
	<node id="-393384" lat="59.3526333343" lon="10.2484138971">
		<tag k="name" v="Tufte" />
		<tag k="place" v="farm" />
		<tag k="ssr:stedsnr" v="852744" />
	</node>
	<node id="-393383" lat="59.3737888907" lon="10.3642861166">
		<tag k="name" v="Nordby" />
		<tag k="place" v="farm" />
		<tag k="ssr:stedsnr" v="852546" />
	</node>
	<node id="-393382" lat="59.3957833356" lon="10.3095583256">
		<tag k="name" v="Verp" />
		<tag k="place" v="farm" />
		<tag k="ssr:stedsnr" v="852244" />
	</node>
	<node id="-393381" lat="59.4159499965" lon="10.2591638854">
		<tag k="alt_name" v="Hotvedt" />
		<tag k="name" v="Hotvet" />
		<tag k="place" v="farm" />
		<tag k="ssr:stedsnr" v="852144" />
	</node>
	<node id="-393380" lat="59.4197083289" lon="10.2529416747">
		<tag k="name" v="Svinevoll" />
		<tag k="place" v="farm" />
		<tag k="ssr:stedsnr" v="852142" />
	</node>
	<node id="-393379" lat="59.4193055574" lon="10.3068749955">
		<tag k="alt_name" v="Sørby mellom" />
		<tag k="name" v="Sørby" />
		<tag k="place" v="isolated_dwelling" />
		<tag k="ssr:stedsnr" v="852135" />
	</node>
	<node id="-393378" lat="59.4151888881" lon="10.0685249935">
		<tag k="alt_name" v="Låneseter" />
		<tag k="name" v="Lånesetra" />
		<tag k="place" v="isolated_dwelling" />
		<tag k="ssr:stedsnr" v="852130" />
	</node>
	<node id="-393377" lat="59.4520444477" lon="10.0837250074">
		<tag k="name" v="Bergan" />
		<tag k="place" v="farm" />
		<tag k="ssr:stedsnr" v="852122" />
	</node>
	<node id="-393375" lat="59.4345472225" lon="10.1167527823">
		<tag k="alt_name" v="Løn øvre;Østre Løn;Løn, østre" />
		<tag k="fixme" v="consider place=hamlet" />
		<tag k="name" v="Øvre Løn" />
		<tag k="place" v="farm" />
		<tag k="ssr:stedsnr" v="852090" />
	</node>
	<node id="-393374" lat="59.4389444418" lon="10.080149998">
		<tag k="name" v="Engeroa" />
		<tag k="place" v="farm" />
		<tag k="ssr:stedsnr" v="852089" />
	</node>
	<node id="-393373" lat="59.4414999959" lon="10.2430277851">
		<tag k="alt_name" v="Rygg søndre" />
		<tag k="name" v="Ryk" />
		<tag k="place" v="farm" />
		<tag k="ssr:stedsnr" v="852080" />
	</node>
	<node id="-393372" lat="59.4489138907" lon="10.1666111195">
		<tag k="name" v="Sameieplassen" />
		<tag k="place" v="isolated_dwelling" />
		<tag k="ssr:stedsnr" v="852079" />
	</node>
	<node id="-393371" lat="59.3697916639" lon="10.2482000029">
		<tag k="name" v="Gullbrår" />
		<tag k="place" v="farm" />
		<tag k="ssr:stedsnr" v="852200" />
	</node>
	<node id="-393370" lat="59.4313416659" lon="10.219244448">
		<tag k="alt_name" v="Bakstevold mellom" />
		<tag k="name" v="Bakstvål" />
		<tag k="place" v="farm" />
		<tag k="ssr:stedsnr" v="852193" />
	</node>
	<node id="-393367" lat="59.4377527796" lon="10.1121361154">
		<tag k="name" v="Løn" />
		<tag k="place" v="hamlet" />
		<tag k="ssr:stedsnr" v="849049" />
	</node>
	<node id="-393364" lat="59.2653583292" lon="10.4806000066">
		<tag k="name" v="England" />
		<tag k="place" v="isolated_dwelling" />
		<tag k="ssr:stedsnr" v="845326" />
	</node>
	<node id="-393363" lat="59.2746972253" lon="10.4775805501">
		<tag k="name" v="Tolvsrød" />
		<tag k="place" v="suburb" />
		<tag k="ssr:stedsnr" v="840751" />
	</node>
	<node id="-393356" lat="59.4080388852" lon="10.307347219">
		<tag k="name" v="Hals n." />
		<tag k="place" v="farm" />
		<tag k="ssr:stedsnr" v="816848" />
	</node>
	<node id="-393355" lat="59.3404083312" lon="10.370158342">
		<tag k="name" v="Undrum nordre" />
		<tag k="place" v="farm" />
		<tag k="ssr:stedsnr" v="816841" />
	</node>
	<node id="-393353" lat="59.3824000043" lon="10.3378138851">
		<tag k="name" v="Gjerpen" />
		<tag k="place" v="farm" />
		<tag k="ssr:stedsnr" v="816801" />
	</node>
	<node id="-393351" lat="59.4296027813" lon="10.3210777835">
		<tag k="name" v="Torp søndre" />
		<tag k="place" v="farm" />
		<tag k="ssr:stedsnr" v="816894" />
	</node>
	<node id="-393350" lat="59.441369445" lon="10.2876777812">
		<tag k="name" v="Holm søndre" />
		<tag k="place" v="farm" />
		<tag k="ssr:stedsnr" v="816890" />
	</node>
	<node id="-393349" lat="59.4230749996" lon="10.2726111185">
		<tag k="amenity" v="nursing_home" />
		<tag k="name" v="Våle hvilehjem" />
		<tag k="ssr:stedsnr" v="816888" />
	</node>
	<node id="-393347" lat="59.4694361133" lon="10.1954194493">
		<tag k="name" v="Ruteig" />
		<tag k="place" v="farm" />
		<tag k="ssr:stedsnr" v="816732" />
	</node>
	<node id="-393346" lat="59.4348055516" lon="10.2450833259">
		<tag k="name" v="Hjelmtvedt" />
		<tag k="place" v="farm" />
		<tag k="ssr:stedsnr" v="816690" />
	</node>
	<node id="-393345" lat="59.441683332" lon="10.2375222234">
		<tag k="name" v="Rygg vestre" />
		<tag k="place" v="farm" />
		<tag k="ssr:stedsnr" v="816685" />
	</node>
	<node id="-393344" lat="59.3950888917" lon="10.2897527839">
		<tag k="name" v="Langås" />
		<tag k="place" v="farm" />
		<tag k="ssr:stedsnr" v="816797" />
	</node>
	<node id="-393343" lat="59.3987222227" lon="10.3253333328">
		<tag k="name" v="Grytnes" />
		<tag k="place" v="farm" />
		<tag k="ssr:stedsnr" v="816796" />
	</node>
	<node id="-393341" lat="59.3051638883" lon="10.3212777758">
		<tag k="name" v="Vermeli" />
		<tag k="place" v="farm" />
		<tag k="ssr:stedsnr" v="816772" />
	</node>
	<node id="-393340" lat="59.3583777777" lon="10.2804611158">
		<tag k="name" v="Bø n." />
		<tag k="place" v="farm" />
		<tag k="ssr:stedsnr" v="816757" />
	</node>
	<node id="-393339" lat="59.4201083366" lon="10.1354555506">
		<tag k="name" v="Kirkevivestad" />
		<tag k="place" v="farm" />
		<tag k="ssr:stedsnr" v="816197" />
	</node>
	<node id="-393335" lat="59.3761944407" lon="10.1620222276">
		<tag k="name" v="Gunnerød" />
		<tag k="place" v="farm" />
		<tag k="ssr:stedsnr" v="816330" />
	</node>
	<node id="-393331" lat="59.4323861087" lon="10.1320666737">
		<tag k="name" v="Haldorstuen" />
		<tag k="place" v="farm" />
		<tag k="ssr:stedsnr" v="816038" />
	</node>
	<node id="-393330" lat="59.3912361092" lon="10.1085833329">
		<tag k="name" v="Dulpen" />
		<tag k="place" v="locality" />
		<tag k="ssr:stedsnr" v="816092" />
	</node>
	<node id="-393328" lat="59.285888891" lon="10.4964833318">
		<tag k="name" v="Nordre Ringshaug" />
		<tag k="place" v="quarter" />
		<tag k="ssr:stedsnr" v="815199" />
	</node>
	<node id="-393325" lat="59.2941388922" lon="10.4543777704">
		<tag k="name" v="Haug Basberg" />
		<tag k="place" v="farm" />
		<tag k="ssr:stedsnr" v="814800" />
	</node>
	<node id="-393324" lat="59.3010972204" lon="10.4318499967">
		<tag k="name" v="Vestbakken" />
		<tag k="place" v="farm" />
		<tag k="ssr:stedsnr" v="814797" />
	</node>
	<node id="-393321" lat="59.2565194477" lon="10.4768999955">
		<tag k="name" v="Frydenlund" />
		<tag k="place" v="isolated_dwelling" />
		<tag k="ssr:stedsnr" v="814779" />
	</node>
	<node id="-393320" lat="59.2737916705" lon="10.443869449">
		<tag k="name" v="Presterød" />
		<tag k="place" v="village" />
		<tag k="ssr:stedsnr" v="814763" />
	</node>
	<node id="-393319" lat="59.293188887" lon="10.4892055555">
		<tag k="name" v="Brekke" />
		<tag k="place" v="farm" />
		<tag k="ssr:stedsnr" v="814757" />
	</node>
	<node id="-393318" lat="59.2818741592" lon="10.319440563">
		<tag k="fixme" v="consider place=hamlet" />
		<tag k="name" v="Tem" />
		<tag k="place" v="farm" />
		<tag k="ssr:stedsnr" v="792834" />
	</node>
	<node id="-393317" lat="59.3417666658" lon="10.23903056">
		<tag k="name" v="Solberg" />
		<tag k="place" v="farm" />
		<tag k="ssr:stedsnr" v="791749" />
	</node>
	<node id="-393316" lat="59.3832333307" lon="10.3447361094">
		<tag k="alt_name" v="Fossås søndre" />
		<tag k="name" v="Fossås" />
		<tag k="place" v="farm" />
		<tag k="ssr:stedsnr" v="791523" />
	</node>
	<node id="-393315" lat="59.3880499959" lon="10.3497166642">
		<tag k="name" v="Nyerrød" />
		<tag k="place" v="farm" />
		<tag k="ssr:stedsnr" v="791512" />
	</node>
	<node id="-393314" lat="59.2932805585" lon="10.4064833249">
		<tag k="name" v="Syrbekk" />
		<tag k="place" v="farm" />
		<tag k="ssr:stedsnr" v="791647" />
	</node>
	<node id="-393313" lat="59.2940166653" lon="10.4203194467">
		<tag k="name" v="Eik" />
		<tag k="place" v="village" />
		<tag k="ssr:stedsnr" v="791646" />
	</node>
	<node id="-393312" lat="59.289605558" lon="10.348080551">
		<tag k="name" v="Broen" />
		<tag k="place" v="farm" />
		<tag k="ssr:stedsnr" v="791641" />
	</node>
	<node id="-393311" lat="59.3096527765" lon="10.4529638885">
		<tag k="alt_name" v="Store Oseberg" />
		<tag k="fixme" v="consider place=hamlet" />
		<tag k="name" v="Oseberg" />
		<tag k="place" v="farm" />
		<tag k="ssr:stedsnr" v="791628" />
	</node>
	<node id="-393310" lat="59.3024972258" lon="10.4231083322">
		<tag k="alt_name" v="Eik, nordre" />
		<tag k="name" v="Nordre Eik" />
		<tag k="place" v="farm" />
		<tag k="ssr:stedsnr" v="791619" />
	</node>
	<node id="-393309" lat="59.2974972258" lon="10.3570333363">
		<tag k="name" v="Ås" />
		<tag k="place" v="hamlet" />
		<tag k="ssr:stedsnr" v="791616" />
	</node>
	<node id="-393308" lat="59.3209555572" lon="10.502308337">
		<tag k="name" v="Hytten" />
		<tag k="place" v="farm" />
		<tag k="ssr:stedsnr" v="791602" />
	</node>
	<node id="-393306" lat="59.3904527735" lon="10.2230388944">
		<tag k="name" v="Horn" />
		<tag k="place" v="farm" />
		<tag k="ssr:stedsnr" v="791246" />
	</node>
	<node id="-393305" lat="59.3989972252" lon="10.3723500076">
		<tag k="alt_name" v="Brekke nedre" />
		<tag k="name" v="Brekke" />
		<tag k="place" v="farm" />
		<tag k="ssr:stedsnr" v="791502" />
	</node>
	<node id="-393304" lat="59.4087472181" lon="10.2056388952">
		<tag k="alt_name" v="Fon lille;Fon, l" />
		<tag k="name" v="Lille Fon" />
		<tag k="place" v="farm" />
		<tag k="ssr:stedsnr" v="791129" />
	</node>
	<node id="-393303" lat="59.4418111077" lon="10.3230277823">
		<tag k="alt_name" v="Hunsal" />
		<tag k="name" v="Hundsal" />
		<tag k="place" v="farm" />
		<tag k="ssr:stedsnr" v="791088" />
	</node>
	<node id="-393302" lat="59.3826999992" lon="10.1988916718">
		<tag k="name" v="Askjer" />
		<tag k="place" v="farm" />
		<tag k="ssr:stedsnr" v="791237" />
	</node>
	<node id="-393301" lat="59.3888916656" lon="10.1649361082">
		<tag k="name" v="Botn" />
		<tag k="place" v="isolated_dwelling" />
		<tag k="ssr:stedsnr" v="791221" />
	</node>
	<node id="-393300" lat="59.3738000015" lon="10.2125138909">
		<tag k="alt_name" v="Skar" />
		<tag k="name" v="Skår" />
		<tag k="place" v="farm" />
		<tag k="ssr:stedsnr" v="791190" />
	</node>
	<node id="-393294" lat="59.267444448" lon="10.4432833272">
		<tag k="name" v="Hagen" />
		<tag k="place" v="farm" />
		<tag k="ssr:stedsnr" v="756029" />
	</node>
	<node id="-393293" lat="59.3228638862" lon="10.3375361098">
		<tag k="name" v="Freste" />
		<tag k="place" v="farm" />
		<tag k="ssr:stedsnr" v="755900" />
	</node>
	<node id="-393290" lat="59.4108499958" lon="10.3205555586">
		<tag k="name" v="Sanderud" />
		<tag k="place" v="farm" />
		<tag k="ssr:stedsnr" v="755830" />
	</node>
	<node id="-393289" lat="59.419444446" lon="10.3058055556">
		<tag k="name" v="Våle el.verk" />
		<tag k="place" v="quarter" />
		<tag k="ssr:stedsnr" v="755826" />
	</node>
	<node id="-393288" lat="59.4105055582" lon="10.2699194524">
		<tag k="name" v="Kjær" />
		<tag k="place" v="farm" />
		<tag k="ssr:stedsnr" v="755823" />
	</node>
	<node id="-393287" lat="59.4182250021" lon="10.2760194373">
		<tag k="amenity" v="school" />
		<tag k="name" v="Kirkevoll skole" />
		<tag k="ssr:stedsnr" v="755819" />
	</node>
	<node id="-393286" lat="59.3820305576" lon="10.3014527797">
		<tag k="name" v="Tei-Berg" />
		<tag k="place" v="farm" />
		<tag k="ssr:stedsnr" v="755779" />
	</node>
	<node id="-393281" lat="59.3710944482" lon="10.3643472143">
		<tag k="amenity" v="school" />
		<tag k="name" v="Solerød skole" />
		<tag k="ssr:stedsnr" v="755728" />
	</node>
	<node id="-393280" lat="59.3500611088" lon="10.272547223">
		<tag k="name" v="Solheim" />
		<tag k="place" v="farm" />
		<tag k="ssr:stedsnr" v="755712" />
	</node>
	<node id="-393279" lat="59.3429666703" lon="10.3014361192">
		<tag k="name" v="Linnestad n" />
		<tag k="place" v="farm" />
		<tag k="ssr:stedsnr" v="755699" />
	</node>
	<node id="-393276" lat="59.333769447" lon="10.2691861128">
		<tag k="alt_name" v="Jare n" />
		<tag k="name" v="Jare" />
		<tag k="place" v="farm" />
		<tag k="ssr:stedsnr" v="755648" />
	</node>
	<node id="-393275" lat="59.3260388902" lon="10.2774694373">
		<tag k="name" v="Gulsrød" />
		<tag k="place" v="farm" />
		<tag k="ssr:stedsnr" v="755639" />
	</node>
	<node id="-393274" lat="59.4220527766" lon="10.203161112">
		<tag k="name" v="Fonstraene" />
		<tag k="place" v="locality" />
		<tag k="ssr:stedsnr" v="755627" />
	</node>
	<node id="-393272" lat="59.3901027823" lon="10.2495694436">
		<tag k="name" v="Fjeld" />
		<tag k="place" v="farm" />
		<tag k="ssr:stedsnr" v="755585" />
	</node>
	<node id="-393271" lat="59.3788944402" lon="10.1801111109">
		<tag k="name" v="Solbakken" />
		<tag k="place" v="farm" />
		<tag k="ssr:stedsnr" v="755578" />
	</node>
	<node id="-393270" lat="59.4498527818" lon="10.1876499916">
		<tag k="name" v="Revå" />
		<tag k="place" v="farm" />
		<tag k="ssr:stedsnr" v="755567" />
	</node>
	<node id="-393267" lat="59.4494388856" lon="10.2645166696">
		<tag k="name" v="Kornto vestre" />
		<tag k="place" v="farm" />
		<tag k="ssr:stedsnr" v="755553" />
	</node>
	<node id="-393258" lat="59.4163138846" lon="10.2572972233">
		<tag k="amenity" v="nursing_home" />
		<tag k="name" v="Solvoll pleiehjem" />
		<tag k="ssr:stedsnr" v="755320" />
	</node>
	<node id="-393256" lat="59.3438805599" lon="10.2427527808">
		<tag k="name" v="Krekan" />
		<tag k="place" v="farm" />
		<tag k="ssr:stedsnr" v="755294" />
	</node>
	<node id="-393255" lat="59.3505666667" lon="10.2461416595">
		<tag k="building" v="commercial" />
		<tag k="name" v="Ramnes samvirkelag" />
		<tag k="ssr:stedsnr" v="755290" />
	</node>
	<node id="-393247" lat="59.4474527788" lon="10.1500111123">
		<tag k="name" v="Kjellegrind" />
		<tag k="place" v="locality" />
		<tag k="ssr:stedsnr" v="755120" />
	</node>
	<node id="-393243" lat="59.3855333299" lon="10.1306999975">
		<tag k="name" v="Smidtsrød" />
		<tag k="place" v="farm" />
		<tag k="ssr:stedsnr" v="755090" />
	</node>
	<node id="-393238" lat="59.3221707775" lon="10.4703769198">
		<tag k="alt_name" v="Mellem Rørås" />
		<tag k="fixme" v="consider place=hamlet" />
		<tag k="name" v="Rørås" />
		<tag k="place" v="farm" />
		<tag k="ssr:stedsnr" v="753762" />
	</node>
	<node id="-393236" lat="59.2859138847" lon="10.4856333393">
		<tag k="amenity" v="school" />
		<tag k="name" v="Ringshaug ungd.skole" />
		<tag k="ssr:stedsnr" v="753728" />
	</node>
	<node id="-393229" lat="59.2730333291" lon="10.4917749917">
		<tag k="name" v="Furustrand" />
		<tag k="ssr:stedsnr" v="645836" />
		<tag k="tourism" v="camp_site" />
	</node>
	<node id="-393228" lat="59.3167111154" lon="10.4871388816">
		<tag k="name" v="Tufta" />
		<tag k="place" v="farm" />
		<tag k="ssr:stedsnr" v="634099" />
	</node>
	<node id="-393226" lat="59.4257944432" lon="10.2706361055">
		<tag k="name" v="Våle prestegård" />
		<tag k="place" v="farm" />
		<tag k="ssr:stedsnr" v="633894" />
	</node>
	<node id="-393225" lat="59.3869472244" lon="10.2809250001">
		<tag k="name" v="Ormestad" />
		<tag k="place" v="farm" />
		<tag k="ssr:stedsnr" v="633850" />
	</node>
	<node id="-393224" lat="59.3909583377" lon="10.2779277867">
		<tag k="name" v="Rønningen" />
		<tag k="place" v="isolated_dwelling" />
		<tag k="ssr:stedsnr" v="633849" />
	</node>
	<node id="-393223" lat="59.3377861114" lon="10.3663111056">
		<tag k="name" v="Undrum søndre" />
		<tag k="place" v="farm" />
		<tag k="ssr:stedsnr" v="633842" />
	</node>
	<node id="-393222" lat="59.3377416648" lon="10.3755555581">
		<tag k="name" v="Tveiten" />
		<tag k="place" v="farm" />
		<tag k="ssr:stedsnr" v="633836" />
	</node>
	<node id="-393217" lat="59.4271444441" lon="10.2357944516">
		<tag k="name" v="Borge nordre" />
		<tag k="place" v="farm" />
		<tag k="ssr:stedsnr" v="633647" />
	</node>
</osm>
