<?xml version="1.0" encoding="UTF-8"?>
<osm version="0.6" generator="osmapis">
	<node id="130160766" lat="69.065637" lon="18.5159237" version="14" timestamp="2022-07-07T06:07:54Z" changeset="123301987" uid="3497659" user="NKA">
		<tag k="ele" v="68" />
		<tag k="loc_name:se" v="Beardogorži" />
		<tag k="name" v="Bardufoss" />
		<tag k="name:no" v="Bardufoss" />
		<tag k="place" v="town" />
		<tag k="population" v="1179" />
		<tag k="population:date" v="2021-01-01" />
		<tag k="postal_code" v="9325" />
		<tag k="ref:ssb_tettsted" v="8085" />
		<tag k="source:population" v="SSB - befolkning i tettstedet" />
		<tag k="ssr:stedsnr" v="274147" />
		<tag k="wikidata" v="Q676358" />
		<tag k="wikipedia" v="en:Bardufoss" />
	</node>
	<node id="130160769" lat="69.0201879" lon="18.898328" version="3" timestamp="2022-07-07T06:07:54Z" changeset="123301987" uid="3497659" user="NKA">
		<tag k="alt_name:no" v="Rundhaugen" />
		<tag k="loc_name:se" v="Sáimuvva" />
		<tag k="name" v="Rundhaug" />
		<tag k="name:no" v="Rundhaug" />
		<tag k="place" v="village" />
		<tag k="ssr:stedsnr" v="322172" />
	</node>
	<node id="130160770" lat="69.0244739" lon="19.2968575" version="7" timestamp="2022-07-07T06:07:54Z" changeset="123301987" uid="3497659" user="NKA">
		<tag k="alt_name" v="Øverbygd" />
		<tag k="name" v="Skjold" />
		<tag k="place" v="village" />
		<tag k="population" v="254" />
		<tag k="population:date" v="2021-01-01" />
		<tag k="ref:ssb_tettsted" v="8083" />
		<tag k="source:population" v="SSB - befolkning i tettstedet" />
		<tag k="ssr:stedsnr" v="213188" />
	</node>
	<node id="130160771" lat="69.1444665" lon="18.5945394" version="4" timestamp="2022-07-07T06:07:54Z" changeset="123301987" uid="3497659" user="NKA">
		<tag k="loc_name:se" v="Dávká" />
		<tag k="name" v="Olsborg" />
		<tag k="name:no" v="Olsborg" />
		<tag k="place" v="village" />
		<tag k="ssr:stedsnr" v="685548" />
	</node>
	<node id="130160772" lat="69.1226906" lon="18.6170769" version="7" timestamp="2022-07-07T06:07:54Z" changeset="123301987" uid="3497659" user="NKA">
		<tag k="name" v="Moen" />
		<tag k="place" v="village" />
		<tag k="population" v="324" />
		<tag k="population:date" v="2021-01-01" />
		<tag k="ref:ssb_tettsted" v="8081" />
		<tag k="source:population" v="SSB - befolkning i tettstedet" />
		<tag k="ssr:stedsnr" v="685784" />
	</node>
	<node id="130160775" lat="69.325119" lon="18.5397308" version="3" timestamp="2022-07-07T06:07:54Z" changeset="123301987" uid="3497659" user="NKA">
		<tag k="name" v="Målsnes" />
		<tag k="place" v="hamlet" />
		<tag k="ssr:stedsnr" v="929790" />
	</node>
	<node id="130160776" lat="69.2136087" lon="18.4703984" version="3" timestamp="2022-07-07T06:07:54Z" changeset="123301987" uid="3497659" user="NKA">
		<tag k="name" v="Karlstad" />
		<tag k="place" v="village" />
		<tag k="ssr:stedsnr" v="17741" />
	</node>
	<node id="130160777" lat="69.0168763" lon="19.4130018" version="5" timestamp="2022-07-07T06:07:54Z" changeset="123301987" uid="3497659" user="NKA">
		<tag k="name" v="Holt" />
		<tag k="place" v="village" />
		<tag k="ssr:stedsnr" v="18364" />
	</node>
	<node id="154839833" lat="69.0466724" lon="18.5049561" version="7" timestamp="2022-07-07T06:07:54Z" changeset="123301987" uid="3497659" user="NKA">
		<tag k="name" v="Heggelia" />
		<tag k="place" v="suburb" />
		<tag k="population" v="941" />
		<tag k="population:date" v="2021-01-01" />
		<tag k="ref:ssb_tettsted" v="8084" />
		<tag k="source:population" v="SSB - befolkning i tettstedet" />
		<tag k="ssr:stedsnr" v="807870" />
	</node>
	<node id="289532919" lat="69.1108349" lon="18.6090745" version="2" timestamp="2022-07-07T06:07:54Z" changeset="123301987" uid="3497659" user="NKA">
		<tag k="name" v="Fleskmoen" />
		<tag k="place" v="hamlet" />
		<tag k="ssr:stedsnr" v="574475" />
	</node>
	<node id="1720501159" lat="69.0903474" lon="18.5792958" version="5" timestamp="2022-07-07T06:07:54Z" changeset="123301987" uid="3497659" user="NKA">
		<tag k="name" v="Andslimoen" />
		<tag k="place" v="suburb" />
		<tag k="population" v="538" />
		<tag k="population:date" v="2021-01-01" />
		<tag k="ref:ssb_tettsted" v="8086" />
		<tag k="source:population" v="SSB - befolkning i tettstedet" />
		<tag k="ssr:stedsnr" v="564588" />
	</node>
	<node id="1742670374" lat="68.9458248" lon="18.9153983" version="2" timestamp="2022-07-07T06:07:54Z" changeset="123301987" uid="3497659" user="NKA">
		<tag k="name" v="Iselvmoen" />
		<tag k="place" v="hamlet" />
		<tag k="ssr:stedsnr" v="563344" />
	</node>
	<node id="1742670375" lat="68.8859665" lon="19.0491164" version="2" timestamp="2022-07-07T06:07:54Z" changeset="123301987" uid="3497659" user="NKA">
		<tag k="name" v="Jensvoll" />
		<tag k="place" v="hamlet" />
		<tag k="ssr:stedsnr" v="1077584" />
	</node>
	<node id="1989937413" lat="68.9972523" lon="19.0316194" version="3" timestamp="2022-07-07T06:07:54Z" changeset="123301987" uid="3497659" user="NKA">
		<tag k="name" v="Alapmoen" />
		<tag k="place" v="hamlet" />
		<tag k="ssr:stedsnr" v="446635" />
	</node>
	<node id="9871634284" lat="69.0256639" lon="19.5563943" version="1" timestamp="2022-07-07T06:07:54Z" changeset="123301987" uid="3497659" user="NKA">
		<tag k="name" v="Rostatun" />
		<tag k="place" v="farm" />
		<tag k="ssr:stedsnr" v="443416" />
	</node>
	<node id="9871634285" lat="68.9452333" lon="19.4889611" version="1" timestamp="2022-07-07T06:07:54Z" changeset="123301987" uid="3497659" user="NKA">
		<tag k="name" v="Daleng" />
		<tag k="place" v="farm" />
		<tag k="ssr:stedsnr" v="442286" />
	</node>
	<node id="9871634286" lat="68.9836616" lon="19.1903622" version="1" timestamp="2022-07-07T06:07:54Z" changeset="123301987" uid="3497659" user="NKA">
		<tag k="name" v="Alvheim" />
		<tag k="old_name" v="Alfheim" />
		<tag k="place" v="farm" />
		<tag k="ssr:stedsnr" v="928350" />
	</node>
	<node id="9871634287" lat="69.0258889" lon="19.4708471" version="1" timestamp="2022-07-07T06:07:54Z" changeset="123301987" uid="3497659" user="NKA">
		<tag k="alt_name:no" v="Sverresvold" />
		<tag k="loc_name:se" v="Giepmáš" />
		<tag k="name" v="Sverresvoll" />
		<tag k="name:no" v="Sverresvoll" />
		<tag k="place" v="farm" />
		<tag k="ssr:stedsnr" v="564442" />
	</node>
	<node id="9871634288" lat="69.047825" lon="18.6494972" version="1" timestamp="2022-07-07T06:07:54Z" changeset="123301987" uid="3497659" user="NKA">
		<tag k="name" v="Solbakken" />
		<tag k="place" v="farm" />
		<tag k="ssr:stedsnr" v="928198" />
	</node>
	<node id="9871634289" lat="68.9681028" lon="19.698539" version="1" timestamp="2022-07-07T06:07:54Z" changeset="123301987" uid="3497659" user="NKA">
		<tag k="name" v="Elvevoll" />
		<tag k="place" v="farm" />
		<tag k="ssr:stedsnr" v="78254" />
	</node>
	<node id="9871634290" lat="68.7791889" lon="19.7143943" version="1" timestamp="2022-07-07T06:07:54Z" changeset="123301987" uid="3497659" user="NKA">
		<tag k="name" v="Frihetsli" />
		<tag k="place" v="hamlet" />
		<tag k="ssr:stedsnr" v="382181" />
	</node>
	<node id="9871634291" lat="68.9952744" lon="19.0925248" version="1" timestamp="2022-07-07T06:07:54Z" changeset="123301987" uid="3497659" user="NKA">
		<tag k="alt_name" v="Aasland" />
		<tag k="name" v="Åsland" />
		<tag k="place" v="farm" />
		<tag k="ssr:stedsnr" v="806398" />
	</node>
	<node id="9871634292" lat="68.9430916" lon="19.492225" version="1" timestamp="2022-07-07T06:07:54Z" changeset="123301987" uid="3497659" user="NKA">
		<tag k="name" v="Oppi" />
		<tag k="place" v="farm" />
		<tag k="ssr:stedsnr" v="260230" />
	</node>
	<node id="9871634293" lat="68.9623748" lon="19.7463747" version="1" timestamp="2022-07-07T06:07:54Z" changeset="123301987" uid="3497659" user="NKA">
		<tag k="name" v="Innset" />
		<tag k="place" v="farm" />
		<tag k="ssr:stedsnr" v="321231" />
	</node>
	<node id="9871634294" lat="68.9615112" lon="19.6661999" version="1" timestamp="2022-07-07T06:07:54Z" changeset="123301987" uid="3497659" user="NKA">
		<tag k="name" v="Solheim" />
		<tag k="place" v="farm" />
		<tag k="ssr:stedsnr" v="138264" />
	</node>
	<node id="9871634295" lat="68.8274694" lon="19.0553804" version="1" timestamp="2022-07-07T06:07:54Z" changeset="123301987" uid="3497659" user="NKA">
		<tag k="historic" v="shieling" />
		<tag k="name" v="Jensvollsætra" />
		<tag k="place" v="isolated_dwelling" />
		<tag k="ssr:stedsnr" v="139286" />
	</node>
	<node id="9871634296" lat="68.9484695" lon="19.4986695" version="1" timestamp="2022-07-07T06:07:54Z" changeset="123301987" uid="3497659" user="NKA">
		<tag k="name" v="Solbakken" />
		<tag k="place" v="farm" />
		<tag k="ssr:stedsnr" v="18217" />
	</node>
	<node id="9871634297" lat="68.8698694" lon="19.0786556" version="1" timestamp="2022-07-07T06:07:54Z" changeset="123301987" uid="3497659" user="NKA">
		<tag k="alt_name" v="Tuvmoen" />
		<tag k="name" v="Tuvmo" />
		<tag k="place" v="farm" />
		<tag k="ssr:stedsnr" v="79297" />
	</node>
	<node id="9871634298" lat="68.9623862" lon="19.7498055" version="1" timestamp="2022-07-07T06:07:54Z" changeset="123301987" uid="3497659" user="NKA">
		<tag k="name" v="Berg" />
		<tag k="place" v="farm" />
		<tag k="ssr:stedsnr" v="928218" />
	</node>
	<node id="9871634299" lat="68.955225" lon="19.4826082" version="1" timestamp="2022-07-07T06:07:54Z" changeset="123301987" uid="3497659" user="NKA">
		<tag k="alt_name" v="Bjørke" />
		<tag k="name" v="Bjerke" />
		<tag k="place" v="farm" />
		<tag k="ssr:stedsnr" v="17277" />
	</node>
	<node id="9871634300" lat="68.9599007" lon="19.900037" version="1" timestamp="2022-07-07T06:07:54Z" changeset="123301987" uid="3497659" user="NKA">
		<tag k="name" v="Sætermoen" />
		<tag k="place" v="locality" />
		<tag k="ssr:stedsnr" v="1077607" />
	</node>
	<node id="9871634301" lat="68.7534057" lon="19.9190329" version="1" timestamp="2022-07-07T06:07:54Z" changeset="123301987" uid="3497659" user="NKA">
		<tag k="name" v="Malangen allmenning" />
		<tag k="place" v="locality" />
		<tag k="ssr:stedsnr" v="1077604" />
	</node>
	<node id="9871634302" lat="68.8546334" lon="19.5640333" version="1" timestamp="2022-07-07T06:07:54Z" changeset="123301987" uid="3497659" user="NKA">
		<tag k="name" v="Høgstadgård" />
		<tag k="place" v="farm" />
		<tag k="ssr:stedsnr" v="563167" />
	</node>
	<node id="9871634303" lat="68.9626194" lon="19.6795888" version="1" timestamp="2022-07-07T06:07:54Z" changeset="123301987" uid="3497659" user="NKA">
		<tag k="name" v="Heimdal" />
		<tag k="place" v="farm" />
		<tag k="ssr:stedsnr" v="867273" />
	</node>
	<node id="9871634304" lat="68.8376389" lon="19.5923418" version="1" timestamp="2022-07-07T06:07:54Z" changeset="123301987" uid="3497659" user="NKA">
		<tag k="historic" v="shieling" />
		<tag k="name" v="Berggammen" />
		<tag k="place" v="isolated_dwelling" />
		<tag k="ssr:stedsnr" v="173700" />
	</node>
	<node id="9871634305" lat="68.7928547" lon="19.6877338" version="1" timestamp="2022-07-07T06:07:54Z" changeset="123301987" uid="3497659" user="NKA">
		<tag k="name" v="Kvennstua" />
		<tag k="place" v="isolated_dwelling" />
		<tag k="ssr:stedsnr" v="354773" />
	</node>
	<node id="9871634306" lat="68.9643015" lon="19.7549561" version="1" timestamp="2022-07-07T06:07:54Z" changeset="123301987" uid="3497659" user="NKA">
		<tag k="name" v="Tverrelvmoen" />
		<tag k="place" v="hamlet" />
		<tag k="ssr:stedsnr" v="1076763" />
	</node>
	<node id="9871634307" lat="68.6235279" lon="19.8638819" version="1" timestamp="2022-07-07T06:07:54Z" changeset="123301987" uid="3497659" user="NKA">
		<tag k="alt_name" v="Hávgavuopmihytta" />
		<tag k="name" v="Havgahytta" />
		<tag k="place" v="isolated_dwelling" />
		<tag k="ssr:stedsnr" v="139064" />
	</node>
	<node id="9871634308" lat="68.9639034" lon="19.7200653" version="1" timestamp="2022-07-07T06:07:54Z" changeset="123301987" uid="3497659" user="NKA">
		<tag k="name" v="Dalhaug" />
		<tag k="place" v="farm" />
		<tag k="ssr:stedsnr" v="381272" />
	</node>
	<node id="9871634309" lat="68.9677641" lon="19.741893" version="1" timestamp="2022-07-07T06:07:54Z" changeset="123301987" uid="3497659" user="NKA">
		<tag k="name" v="Elvevoll" />
		<tag k="place" v="farm" />
		<tag k="ssr:stedsnr" v="1077597" />
	</node>
	<node id="9871634310" lat="68.9673834" lon="19.6970082" version="1" timestamp="2022-07-07T06:07:54Z" changeset="123301987" uid="3497659" user="NKA">
		<tag k="name" v="Dørum" />
		<tag k="place" v="farm" />
		<tag k="ssr:stedsnr" v="199249" />
	</node>
	<node id="9871634311" lat="68.9629329" lon="19.7275884" version="1" timestamp="2022-07-07T06:07:54Z" changeset="123301987" uid="3497659" user="NKA">
		<tag k="name" v="Haugerud" />
		<tag k="place" v="farm" />
		<tag k="ssr:stedsnr" v="867288" />
	</node>
	<node id="9871634312" lat="68.9630103" lon="19.4745284" version="1" timestamp="2022-07-07T06:07:54Z" changeset="123301987" uid="3497659" user="NKA">
		<tag k="alt_name" v="Sletten" />
		<tag k="name" v="Sletta" />
		<tag k="place" v="farm" />
		<tag k="ssr:stedsnr" v="1077606" />
	</node>
	<node id="9871634313" lat="68.9697679" lon="19.6488437" version="1" timestamp="2022-07-07T06:07:54Z" changeset="123301987" uid="3497659" user="NKA">
		<tag k="name" v="Gamnes" />
		<tag k="place" v="farm" />
		<tag k="ssr:stedsnr" v="503205" />
	</node>
	<node id="9871634314" lat="68.9713333" lon="18.9169943" version="1" timestamp="2022-07-07T06:07:54Z" changeset="123301987" uid="3497659" user="NKA">
		<tag k="name" v="Hagalia" />
		<tag k="place" v="farm" />
		<tag k="ssr:stedsnr" v="18337" />
	</node>
	<node id="9871634315" lat="68.9696361" lon="19.47465" version="1" timestamp="2022-07-07T06:07:54Z" changeset="123301987" uid="3497659" user="NKA">
		<tag k="name" v="Liatun" />
		<tag k="place" v="farm" />
		<tag k="ssr:stedsnr" v="321215" />
	</node>
	<node id="9871634316" lat="68.9962364" lon="19.1341357" version="1" timestamp="2022-07-07T06:07:54Z" changeset="123301987" uid="3497659" user="NKA">
		<tag k="name" v="Nergard" />
		<tag k="place" v="farm" />
		<tag k="ssr:stedsnr" v="138416" />
	</node>
	<node id="9871665917" lat="69.2172696" lon="18.496479" version="1" timestamp="2022-07-07T06:07:54Z" changeset="123301987" uid="3497659" user="NKA">
		<tag k="alt_name" v="Guldhav" />
		<tag k="name" v="Gullhav" />
		<tag k="place" v="hamlet" />
		<tag k="ssr:stedsnr" v="260731" />
	</node>
	<node id="9871665918" lat="69.2453111" lon="18.5493138" version="1" timestamp="2022-07-07T06:07:54Z" changeset="123301987" uid="3497659" user="NKA">
		<tag k="historic" v="shieling" />
		<tag k="name" v="Heggstadsætra" />
		<tag k="place" v="isolated_dwelling" />
		<tag k="ssr:stedsnr" v="779243" />
	</node>
	<node id="9871665919" lat="69.0117167" lon="18.9749917" version="1" timestamp="2022-07-07T06:07:54Z" changeset="123301987" uid="3497659" user="NKA">
		<tag k="name" v="Moholt" />
		<tag k="place" v="farm" />
		<tag k="ssr:stedsnr" v="79199" />
	</node>
	<node id="9871665920" lat="69.0560611" lon="18.7275499" version="1" timestamp="2022-07-07T06:07:54Z" changeset="123301987" uid="3497659" user="NKA">
		<tag k="name" v="Myrvoll" />
		<tag k="place" v="farm" />
		<tag k="ssr:stedsnr" v="443224" />
	</node>
	<node id="9871665921" lat="69.0315472" lon="18.817439" version="1" timestamp="2022-07-07T06:07:54Z" changeset="123301987" uid="3497659" user="NKA">
		<tag k="name" v="Heggebakken" />
		<tag k="place" v="farm" />
		<tag k="ssr:stedsnr" v="596322" />
	</node>
	<node id="9871665922" lat="69.0172528" lon="19.4353027" version="1" timestamp="2022-07-07T06:07:54Z" changeset="123301987" uid="3497659" user="NKA">
		<tag k="name" v="Solvang" />
		<tag k="place" v="farm" />
		<tag k="ssr:stedsnr" v="321390" />
	</node>
	<node id="9871665923" lat="69.0145083" lon="19.4543195" version="1" timestamp="2022-07-07T06:07:54Z" changeset="123301987" uid="3497659" user="NKA">
		<tag k="name" v="Fredheim" />
		<tag k="place" v="farm" />
		<tag k="ssr:stedsnr" v="382379" />
	</node>
	<node id="9871665924" lat="69.0158666" lon="19.3395666" version="1" timestamp="2022-07-07T06:07:54Z" changeset="123301987" uid="3497659" user="NKA">
		<tag k="loc_name:se" v="Roavvedállu" />
		<tag k="name" v="Øverby" />
		<tag k="name:no" v="Øverby" />
		<tag k="place" v="farm" />
		<tag k="ssr:stedsnr" v="382403" />
	</node>
	<node id="9871665925" lat="68.9883834" lon="19.1535944" version="1" timestamp="2022-07-07T06:07:54Z" changeset="123301987" uid="3497659" user="NKA">
		<tag k="alt_name" v="Tillermo, øvre;Øvre Tillermo" />
		<tag k="name" v="Tillermoen øvre" />
		<tag k="place" v="farm" />
		<tag k="ssr:stedsnr" v="260424" />
	</node>
	<node id="9871665926" lat="68.9930306" lon="19.2589388" version="1" timestamp="2022-07-07T06:07:54Z" changeset="123301987" uid="3497659" user="NKA">
		<tag k="name" v="Jutulstad" />
		<tag k="place" v="farm" />
		<tag k="ssr:stedsnr" v="79239" />
	</node>
	<node id="9871665927" lat="68.993725" lon="18.9544917" version="1" timestamp="2022-07-07T06:07:54Z" changeset="123301987" uid="3497659" user="NKA">
		<tag k="name" v="Svenborg" />
		<tag k="place" v="farm" />
		<tag k="ssr:stedsnr" v="138430" />
	</node>
	<node id="9871665928" lat="68.9652334" lon="19.4813222" version="1" timestamp="2022-07-07T06:07:54Z" changeset="123301987" uid="3497659" user="NKA">
		<tag k="alt_name" v="Slettevoll" />
		<tag k="name" v="Slettvold" />
		<tag k="place" v="farm" />
		<tag k="ssr:stedsnr" v="745261" />
	</node>
	<node id="9871665929" lat="69.0371306" lon="18.5920388" version="1" timestamp="2022-07-07T06:07:54Z" changeset="123301987" uid="3497659" user="NKA">
		<tag k="name" v="Fosshøgda" />
		<tag k="place" v="farm" />
		<tag k="ssr:stedsnr" v="79866" />
	</node>
	<node id="9871665930" lat="69.0644214" lon="18.5820592" version="1" timestamp="2022-07-07T06:07:54Z" changeset="123301987" uid="3497659" user="NKA">
		<tag k="name" v="Øvre Brannskognes" />
		<tag k="place" v="farm" />
		<tag k="ssr:stedsnr" v="302832" />
	</node>
	<node id="9871665931" lat="68.7466778" lon="19.7283334" version="1" timestamp="2022-07-07T06:07:54Z" changeset="123301987" uid="3497659" user="NKA">
		<tag k="name" v="Fossbua" />
		<tag k="place" v="isolated_dwelling" />
		<tag k="ssr:stedsnr" v="381437" />
	</node>
	<node id="9871665932" lat="68.8681666" lon="19.5509249" version="1" timestamp="2022-07-07T06:07:54Z" changeset="123301987" uid="3497659" user="NKA">
		<tag k="name" v="Grønli" />
		<tag k="place" v="farm" />
		<tag k="ssr:stedsnr" v="442185" />
	</node>
	<node id="9871665933" lat="69.0785889" lon="18.5524916" version="1" timestamp="2022-07-07T06:07:54Z" changeset="123301987" uid="3497659" user="NKA">
		<tag k="name" v="Fagerheim" />
		<tag k="place" v="farm" />
		<tag k="ssr:stedsnr" v="79583" />
	</node>
	<node id="9871665934" lat="68.8893227" lon="19.0663002" version="1" timestamp="2022-07-07T06:07:54Z" changeset="123301987" uid="3497659" user="NKA">
		<tag k="name" v="Vangen" />
		<tag k="place" v="farm" />
		<tag k="ssr:stedsnr" v="807302" />
	</node>
	<node id="9871665935" lat="68.8277833" lon="19.0527139" version="1" timestamp="2022-07-07T06:07:54Z" changeset="123301987" uid="3497659" user="NKA">
		<tag k="historic" v="shieling" />
		<tag k="name" v="Hagesætra" />
		<tag k="place" v="isolated_dwelling" />
		<tag k="ssr:stedsnr" v="321267" />
	</node>
	<node id="9871665936" lat="68.8593722" lon="19.0937584" version="1" timestamp="2022-07-07T06:07:54Z" changeset="123301987" uid="3497659" user="NKA">
		<tag k="name" v="Bjørkåsen" />
		<tag k="place" v="farm" />
		<tag k="ssr:stedsnr" v="867331" />
	</node>
	<node id="9871665937" lat="68.887775" lon="19.0680666" version="1" timestamp="2022-07-07T06:07:54Z" changeset="123301987" uid="3497659" user="NKA">
		<tag k="name" v="Fagerheim" />
		<tag k="place" v="farm" />
		<tag k="ssr:stedsnr" v="746305" />
	</node>
	<node id="9871665938" lat="68.8821139" lon="19.0571667" version="1" timestamp="2022-07-07T06:07:54Z" changeset="123301987" uid="3497659" user="NKA">
		<tag k="name" v="Berg" />
		<tag k="place" v="farm" />
		<tag k="ssr:stedsnr" v="685303" />
	</node>
	<node id="9871665939" lat="68.8994805" lon="19.5327667" version="1" timestamp="2022-07-07T06:07:54Z" changeset="123301987" uid="3497659" user="NKA">
		<tag k="name" v="Skogly" />
		<tag k="old_name" v="Skogli" />
		<tag k="place" v="farm" />
		<tag k="ssr:stedsnr" v="867239" />
	</node>
	<node id="9871665940" lat="68.8956169" lon="19.044095" version="1" timestamp="2022-07-07T06:07:54Z" changeset="123301987" uid="3497659" user="NKA">
		<tag k="alt_name" v="Austli" />
		<tag k="name" v="Østli" />
		<tag k="place" v="farm" />
		<tag k="ssr:stedsnr" v="563319" />
	</node>
	<node id="9871665941" lat="68.904125" lon="19.0168527" version="1" timestamp="2022-07-07T06:07:54Z" changeset="123301987" uid="3497659" user="NKA">
		<tag k="alt_name" v="Nedre Sandeggen;Sandeggen, nedre" />
		<tag k="name" v="Sandeggen" />
		<tag k="place" v="farm" />
		<tag k="ssr:stedsnr" v="503308" />
	</node>
	<node id="9871665942" lat="68.8814889" lon="18.8891471" version="1" timestamp="2022-07-07T06:07:54Z" changeset="123301987" uid="3497659" user="NKA">
		<tag k="historic" v="shieling" />
		<tag k="name" v="Rundhaugsætra" />
		<tag k="place" v="isolated_dwelling" />
		<tag k="ssr:stedsnr" v="624327" />
	</node>
	<node id="9871665943" lat="68.8873139" lon="19.0435195" version="1" timestamp="2022-07-07T06:07:54Z" changeset="123301987" uid="3497659" user="NKA">
		<tag k="alt_name" v="Jensvoll;Jensvoll, nedre" />
		<tag k="name" v="Nedre Jensvoll" />
		<tag k="place" v="farm" />
		<tag k="ssr:stedsnr" v="624332" />
	</node>
	<node id="9871665944" lat="68.8405417" lon="19.119714" version="1" timestamp="2022-07-07T06:07:54Z" changeset="123301987" uid="3497659" user="NKA">
		<tag k="alt_name" v="Lunvangsætra" />
		<tag k="historic" v="shieling" />
		<tag k="name" v="Lundvangsætra" />
		<tag k="place" v="isolated_dwelling" />
		<tag k="ssr:stedsnr" v="443293" />
	</node>
	<node id="9871665945" lat="68.8839528" lon="19.0680028" version="1" timestamp="2022-07-07T06:07:54Z" changeset="123301987" uid="3497659" user="NKA">
		<tag k="alt_name" v="Dal" />
		<tag k="name" v="Dahl" />
		<tag k="place" v="farm" />
		<tag k="ssr:stedsnr" v="624324" />
	</node>
	<node id="9871665946" lat="68.8762417" lon="19.0755667" version="1" timestamp="2022-07-07T06:07:54Z" changeset="123301987" uid="3497659" user="NKA">
		<tag k="alt_name" v="Heggevold" />
		<tag k="name" v="Heggevoll" />
		<tag k="place" v="farm" />
		<tag k="ssr:stedsnr" v="321298" />
	</node>
	<node id="9871665947" lat="68.905813" lon="19.0105338" version="1" timestamp="2022-07-07T06:07:54Z" changeset="123301987" uid="3497659" user="NKA">
		<tag k="name" v="Lundamo" />
		<tag k="place" v="farm" />
		<tag k="ssr:stedsnr" v="536582" />
	</node>
	<node id="9871665948" lat="68.8832444" lon="19.0563944" version="1" timestamp="2022-07-07T06:07:54Z" changeset="123301987" uid="3497659" user="NKA">
		<tag k="name" v="Asply" />
		<tag k="place" v="farm" />
		<tag k="ssr:stedsnr" v="321302" />
	</node>
	<node id="9871665949" lat="68.8773431" lon="19.0694356" version="1" timestamp="2022-07-07T06:07:54Z" changeset="123301987" uid="3497659" user="NKA">
		<tag k="name" v="Hage" />
		<tag k="place" v="farm" />
		<tag k="ssr:stedsnr" v="321301" />
	</node>
	<node id="9871665950" lat="68.8988916" lon="19.0705582" version="1" timestamp="2022-07-07T06:07:54Z" changeset="123301987" uid="3497659" user="NKA">
		<tag k="historic" v="shieling" />
		<tag k="name" v="Sandeggsætra" />
		<tag k="place" v="isolated_dwelling" />
		<tag k="ssr:stedsnr" v="354613" />
	</node>
	<node id="9871665951" lat="68.8882217" lon="19.035589" version="1" timestamp="2022-07-07T06:07:54Z" changeset="123301987" uid="3497659" user="NKA">
		<tag k="name" v="Evenstad" />
		<tag k="place" v="farm" />
		<tag k="ssr:stedsnr" v="321308" />
	</node>
	<node id="9871665952" lat="69.0217232" lon="19.6018204" version="1" timestamp="2022-07-07T06:07:54Z" changeset="123301987" uid="3497659" user="NKA">
		<tag k="name" v="Løvhell" />
		<tag k="place" v="farm" />
		<tag k="ssr:stedsnr" v="443413" />
	</node>
	<node id="9871665953" lat="68.8885509" lon="19.0579534" version="1" timestamp="2022-07-07T06:07:54Z" changeset="123301987" uid="3497659" user="NKA">
		<tag k="alt_name" v="Kirkesjord" />
		<tag k="name" v="Kirkesjorda" />
		<tag k="place" v="farm" />
		<tag k="ssr:stedsnr" v="260367" />
	</node>
	<node id="9871665954" lat="69.0420773" lon="18.5083262" version="1" timestamp="2022-07-07T06:07:54Z" changeset="123301987" uid="3497659" user="NKA">
		<tag k="name" v="Rusta" />
		<tag k="place" v="neighbourhood" />
		<tag k="ssr:stedsnr" v="328510" />
	</node>
	<node id="9871665955" lat="69.0278444" lon="18.717836" version="1" timestamp="2022-07-07T06:07:54Z" changeset="123301987" uid="3497659" user="NKA">
		<tag k="name" v="Solseth" />
		<tag k="place" v="farm" />
		<tag k="ssr:stedsnr" v="354160" />
	</node>
	<node id="9871665956" lat="69.0203278" lon="19.6006556" version="1" timestamp="2022-07-07T06:07:54Z" changeset="123301987" uid="3497659" user="NKA">
		<tag k="name" v="Granum" />
		<tag k="place" v="farm" />
		<tag k="ssr:stedsnr" v="261407" />
	</node>
	<node id="9871665957" lat="69.0251017" lon="19.5105833" version="1" timestamp="2022-07-07T06:07:54Z" changeset="123301987" uid="3497659" user="NKA">
		<tag k="name" v="Lombolnes" />
		<tag k="place" v="farm" />
		<tag k="ssr:stedsnr" v="112799" />
	</node>
	<node id="9871665958" lat="69.0148" lon="19.3491083" version="1" timestamp="2022-07-07T06:07:54Z" changeset="123301987" uid="3497659" user="NKA">
		<tag k="name" v="Nyvoll" />
		<tag k="place" v="farm" />
		<tag k="ssr:stedsnr" v="201386" />
	</node>
	<node id="9871665959" lat="69.0255306" lon="19.4953584" version="1" timestamp="2022-07-07T06:07:54Z" changeset="123301987" uid="3497659" user="NKA">
		<tag k="name" v="Bergset" />
		<tag k="place" v="farm" />
		<tag k="ssr:stedsnr" v="868411" />
	</node>
	<node id="9871665960" lat="69.0130862" lon="19.2753583" version="1" timestamp="2022-07-07T06:07:54Z" changeset="123301987" uid="3497659" user="NKA">
		<tag k="name" v="Eggum" />
		<tag k="place" v="farm" />
		<tag k="ssr:stedsnr" v="201396" />
	</node>
	<node id="9871665961" lat="69.0200829" lon="18.7984868" version="1" timestamp="2022-07-07T06:07:54Z" changeset="123301987" uid="3497659" user="NKA">
		<tag k="name" v="Langnes" />
		<tag k="place" v="farm" />
		<tag k="ssr:stedsnr" v="18172" />
	</node>
	<node id="9871665962" lat="69.0292596" lon="18.7071536" version="1" timestamp="2022-07-07T06:07:54Z" changeset="123301987" uid="3497659" user="NKA">
		<tag k="name" v="Grøtte" />
		<tag k="place" v="hamlet" />
		<tag k="ssr:stedsnr" v="79225" />
	</node>
	<node id="9871665963" lat="69.2790385" lon="18.6774279" version="1" timestamp="2022-07-07T06:07:54Z" changeset="123301987" uid="3497659" user="NKA">
		<tag k="name" v="Perhansanes" />
		<tag k="place" v="farm" />
		<tag k="ssr:stedsnr" v="694897" />
	</node>
	<node id="9871665964" lat="69.0307663" lon="18.5899778" version="1" timestamp="2022-07-07T06:07:54Z" changeset="123301987" uid="3497659" user="NKA">
		<tag k="name" v="Berglund" />
		<tag k="place" v="farm" />
		<tag k="ssr:stedsnr" v="18911" />
	</node>
	<node id="9871665965" lat="68.9944861" lon="19.5913944" version="1" timestamp="2022-07-07T06:07:54Z" changeset="123301987" uid="3497659" user="NKA">
		<tag k="name" v="Fjellheim" />
		<tag k="place" v="farm" />
		<tag k="ssr:stedsnr" v="685244" />
	</node>
	<node id="9871665966" lat="69.0095113" lon="18.9964048" version="1" timestamp="2022-07-07T06:07:54Z" changeset="123301987" uid="3497659" user="NKA">
		<tag k="name" v="Nydal" />
		<tag k="place" v="farm" />
		<tag k="ssr:stedsnr" v="900569" />
	</node>
	<node id="9871665967" lat="68.9943083" lon="19.0278612" version="1" timestamp="2022-07-07T06:07:54Z" changeset="123301987" uid="3497659" user="NKA">
		<tag k="alt_name" v="Rolvsjord" />
		<tag k="name" v="Rolfsjord" />
		<tag k="place" v="farm" />
		<tag k="ssr:stedsnr" v="78431" />
	</node>
	<node id="9871665968" lat="68.9775222" lon="19.7213166" version="1" timestamp="2022-07-07T06:07:54Z" changeset="123301987" uid="3497659" user="NKA">
		<tag k="name" v="Bjørnhaug" />
		<tag k="place" v="farm" />
		<tag k="ssr:stedsnr" v="260275" />
	</node>
	<node id="9871665969" lat="68.992271" lon="19.6737421" version="1" timestamp="2022-07-07T06:07:54Z" changeset="123301987" uid="3497659" user="NKA">
		<tag k="name" v="Lienga" />
		<tag k="place" v="farm" />
		<tag k="ssr:stedsnr" v="79234" />
	</node>
	<node id="9871665970" lat="69.0228944" lon="18.8786861" version="1" timestamp="2022-07-07T06:07:54Z" changeset="123301987" uid="3497659" user="NKA">
		<tag k="name" v="Gammelhaugen" />
		<tag k="place" v="neighbourhood" />
		<tag k="ssr:stedsnr" v="689959" />
	</node>
	<node id="9871665971" lat="68.9788265" lon="18.9144522" version="1" timestamp="2022-07-07T06:07:54Z" changeset="123301987" uid="3497659" user="NKA">
		<tag k="name" v="Rydningen" />
		<tag k="place" v="farm" />
		<tag k="ssr:stedsnr" v="321377" />
	</node>
	<node id="9871665972" lat="69.0032534" lon="19.5690926" version="1" timestamp="2022-07-07T06:07:54Z" changeset="123301987" uid="3497659" user="NKA">
		<tag k="name" v="Maristad" />
		<tag k="place" v="farm" />
		<tag k="ssr:stedsnr" v="322379" />
	</node>
	<node id="9871665973" lat="69.0305" lon="18.7037555" version="1" timestamp="2022-07-07T06:07:54Z" changeset="123301987" uid="3497659" user="NKA">
		<tag k="name" v="Furulund" />
		<tag k="place" v="farm" />
		<tag k="ssr:stedsnr" v="321222" />
	</node>
	<node id="9871665974" lat="68.9913997" lon="18.8969186" version="1" timestamp="2022-07-07T06:07:54Z" changeset="123301987" uid="3497659" user="NKA">
		<tag k="name" v="Lium" />
		<tag k="place" v="farm" />
		<tag k="ssr:stedsnr" v="78429" />
	</node>
	<node id="9871665975" lat="68.9981318" lon="19.0467443" version="1" timestamp="2022-07-07T06:07:54Z" changeset="123301987" uid="3497659" user="NKA">
		<tag k="alt_name" v="Renmelmoen" />
		<tag k="name" v="Renmælmoen" />
		<tag k="place" v="farm" />
		<tag k="ssr:stedsnr" v="381413" />
	</node>
	<node id="9871665976" lat="69.0181639" lon="18.9061251" version="1" timestamp="2022-07-07T06:07:54Z" changeset="123301987" uid="3497659" user="NKA">
		<tag k="name" v="Løvhaug" />
		<tag k="old_name" v="Lauvhaugen" />
		<tag k="place" v="farm" />
		<tag k="ssr:stedsnr" v="751568" />
	</node>
	<node id="9871665977" lat="68.9781" lon="18.9211695" version="1" timestamp="2022-07-07T06:07:54Z" changeset="123301987" uid="3497659" user="NKA">
		<tag k="name" v="Molund" />
		<tag k="place" v="farm" />
		<tag k="ssr:stedsnr" v="928374" />
	</node>
	<node id="9871665978" lat="68.9504583" lon="19.482414" version="1" timestamp="2022-07-07T06:07:54Z" changeset="123301987" uid="3497659" user="NKA">
		<tag k="name" v="Søreng" />
		<tag k="place" v="farm" />
		<tag k="ssr:stedsnr" v="503215" />
	</node>
	<node id="9871665979" lat="68.9260667" lon="20.1853221" version="1" timestamp="2022-07-07T06:07:54Z" changeset="123301987" uid="3497659" user="NKA">
		<tag k="loc_name" v="Moskanhytta" />
		<tag k="name" v="Måskohytta" />
		<tag k="place" v="isolated_dwelling" />
		<tag k="ssr:stedsnr" v="867177" />
	</node>
	<node id="9871665980" lat="68.9489694" lon="18.9154334" version="1" timestamp="2022-07-07T06:07:54Z" changeset="123301987" uid="3497659" user="NKA">
		<tag k="name" v="Olderskog" />
		<tag k="place" v="farm" />
		<tag k="ssr:stedsnr" v="807364" />
	</node>
	<node id="9871665981" lat="69.0252807" lon="18.8479169" version="1" timestamp="2022-07-07T06:07:54Z" changeset="123301987" uid="3497659" user="NKA">
		<tag k="name" v="Nordheim" />
		<tag k="place" v="farm" />
		<tag k="ssr:stedsnr" v="746187" />
	</node>
	<node id="9871665982" lat="68.9342511" lon="20.166474" version="1" timestamp="2022-07-07T06:07:54Z" changeset="123301987" uid="3497659" user="NKA">
		<tag k="name" v="Likkamo" />
		<tag k="place" v="locality" />
		<tag k="ssr:stedsnr" v="1077608" />
	</node>
	<node id="9871665983" lat="69.0108084" lon="18.7636833" version="1" timestamp="2022-07-07T06:07:54Z" changeset="123301987" uid="3497659" user="NKA">
		<tag k="name" v="Nyrud" />
		<tag k="place" v="farm" />
		<tag k="ssr:stedsnr" v="382208" />
	</node>
	<node id="9871665984" lat="69.0546139" lon="18.7238777" version="1" timestamp="2022-07-07T06:07:54Z" changeset="123301987" uid="3497659" user="NKA">
		<tag k="name" v="Lindstad" />
		<tag k="place" v="farm" />
		<tag k="ssr:stedsnr" v="564214" />
	</node>
	<node id="9871665985" lat="68.9336777" lon="18.8857806" version="1" timestamp="2022-07-07T06:07:54Z" changeset="123301987" uid="3497659" user="NKA">
		<tag k="historic" v="shieling" />
		<tag k="name" v="Rostadmosætra" />
		<tag k="place" v="isolated_dwelling" />
		<tag k="ssr:stedsnr" v="381361" />
	</node>
	<node id="9871665986" lat="68.93945" lon="18.8896695" version="1" timestamp="2022-07-07T06:07:54Z" changeset="123301987" uid="3497659" user="NKA">
		<tag k="name" v="Brunessætra" />
		<tag k="place" v="locality" />
		<tag k="ssr:stedsnr" v="381366" />
	</node>
	<node id="9871665987" lat="69.0285445" lon="18.736175" version="1" timestamp="2022-07-07T06:07:54Z" changeset="123301987" uid="3497659" user="NKA">
		<tag k="name" v="Neby" />
		<tag k="place" v="farm" />
		<tag k="ssr:stedsnr" v="321220" />
	</node>
	<node id="9871665988" lat="69.0888833" lon="19.1280167" version="1" timestamp="2022-07-07T06:07:54Z" changeset="123301987" uid="3497659" user="NKA">
		<tag k="name" v="Haugen" />
		<tag k="place" v="isolated_dwelling" />
		<tag k="ssr:stedsnr" v="261831" />
	</node>
	<node id="9871665989" lat="69.0166611" lon="18.7508193" version="1" timestamp="2022-07-07T06:07:54Z" changeset="123301987" uid="3497659" user="NKA">
		<tag k="name" v="Fagerberg" />
		<tag k="place" v="farm" />
		<tag k="ssr:stedsnr" v="261192" />
	</node>
	<node id="9871665990" lat="68.9995694" lon="18.9134751" version="1" timestamp="2022-07-07T06:07:54Z" changeset="123301987" uid="3497659" user="NKA">
		<tag k="name" v="Alapnes" />
		<tag k="place" v="farm" />
		<tag k="ssr:stedsnr" v="260461" />
	</node>
	<node id="9871665991" lat="69.0415694" lon="18.8158917" version="1" timestamp="2022-07-07T06:07:54Z" changeset="123301987" uid="3497659" user="NKA">
		<tag k="name" v="Bergestua" />
		<tag k="place" v="locality" />
		<tag k="ssr:stedsnr" v="233373" />
	</node>
	<node id="9871665992" lat="68.9428361" lon="18.8914666" version="1" timestamp="2022-07-07T06:07:54Z" changeset="123301987" uid="3497659" user="NKA">
		<tag k="name" v="Vestlisætra" />
		<tag k="place" v="isolated_dwelling" />
		<tag k="ssr:stedsnr" v="260392" />
	</node>
	<node id="9871665993" lat="69.0722" lon="18.6430555" version="1" timestamp="2022-07-07T06:07:54Z" changeset="123301987" uid="3497659" user="NKA">
		<tag k="name" v="Rognlund" />
		<tag k="place" v="farm" />
		<tag k="ssr:stedsnr" v="19853" />
	</node>
	<node id="9871665994" lat="68.9898028" lon="18.9041194" version="1" timestamp="2022-07-07T06:07:54Z" changeset="123301987" uid="3497659" user="NKA">
		<tag k="name" v="Heggenes" />
		<tag k="place" v="farm" />
		<tag k="ssr:stedsnr" v="260444" />
	</node>
	<node id="9871665995" lat="69.0763614" lon="18.5400793" version="1" timestamp="2022-07-07T06:07:54Z" changeset="123301987" uid="3497659" user="NKA">
		<tag k="name" v="Vargbakken" />
		<tag k="old_name" v="Rognmo" />
		<tag k="place" v="farm" />
		<tag k="ssr:stedsnr" v="1082011" />
	</node>
	<node id="9871665996" lat="68.9958094" lon="18.8993926" version="1" timestamp="2022-07-07T06:07:54Z" changeset="123301987" uid="3497659" user="NKA">
		<tag k="name" v="Kirkesmoen" />
		<tag k="place" v="farm" />
		<tag k="ssr:stedsnr" v="1077585" />
	</node>
	<node id="9871665997" lat="69.0578694" lon="18.7038251" version="1" timestamp="2022-07-07T06:07:54Z" changeset="123301987" uid="3497659" user="NKA">
		<tag k="alt_name" v="Motrøen" />
		<tag k="name" v="Motrøa" />
		<tag k="place" v="farm" />
		<tag k="ssr:stedsnr" v="79221" />
	</node>
	<node id="9871665998" lat="68.9952528" lon="18.8912972" version="1" timestamp="2022-07-07T06:07:54Z" changeset="123301987" uid="3497659" user="NKA">
		<tag k="alt_name" v="Færseth" />
		<tag k="name" v="Ferset" />
		<tag k="place" v="farm" />
		<tag k="ssr:stedsnr" v="563419" />
	</node>
	<node id="9871665999" lat="69.0177584" lon="18.9056333" version="1" timestamp="2022-07-07T06:07:54Z" changeset="123301987" uid="3497659" user="NKA">
		<tag k="name" v="Lauvhaugen" />
		<tag k="place" v="hamlet" />
		<tag k="ssr:stedsnr" v="200195" />
	</node>
	<node id="9871666000" lat="68.9677611" lon="18.9205805" version="1" timestamp="2022-07-07T06:07:54Z" changeset="123301987" uid="3497659" user="NKA">
		<tag k="name" v="Ryeng" />
		<tag k="place" v="farm" />
		<tag k="ssr:stedsnr" v="624395" />
	</node>
	<node id="9871666001" lat="68.9533017" lon="18.9165118" version="1" timestamp="2022-07-07T06:07:54Z" changeset="123301987" uid="3497659" user="NKA">
		<tag k="name" v="Lysgård" />
		<tag k="place" v="farm" />
		<tag k="ssr:stedsnr" v="624381" />
	</node>
	<node id="9871666002" lat="69.0210388" lon="18.8799996" version="1" timestamp="2022-07-07T06:07:54Z" changeset="123301987" uid="3497659" user="NKA">
		<tag k="name" v="Bakkehaug øvre" />
		<tag k="place" v="farm" />
		<tag k="ssr:stedsnr" v="354339" />
	</node>
	<node id="9871666003" lat="69.0182361" lon="18.893725" version="1" timestamp="2022-07-07T06:07:54Z" changeset="123301987" uid="3497659" user="NKA">
		<tag k="name" v="Elvenes" />
		<tag k="place" v="farm" />
		<tag k="ssr:stedsnr" v="536435" />
	</node>
	<node id="9871666004" lat="68.9828055" lon="18.9204278" version="1" timestamp="2022-07-07T06:07:54Z" changeset="123301987" uid="3497659" user="NKA">
		<tag k="name" v="Haugset" />
		<tag k="place" v="farm" />
		<tag k="ssr:stedsnr" v="200413" />
	</node>
	<node id="9871666005" lat="69.0139917" lon="18.8930527" version="1" timestamp="2022-07-07T06:07:54Z" changeset="123301987" uid="3497659" user="NKA">
		<tag k="alt_name" v="Kjerkesnes" />
		<tag k="name" v="Kirkesnes" />
		<tag k="place" v="farm" />
		<tag k="ssr:stedsnr" v="261205" />
	</node>
	<node id="9871666006" lat="69.0138352" lon="18.8854589" version="1" timestamp="2022-07-07T06:07:54Z" changeset="123301987" uid="3497659" user="NKA">
		<tag k="name" v="Vestvang" />
		<tag k="place" v="farm" />
		<tag k="ssr:stedsnr" v="139216" />
	</node>
	<node id="9871666007" lat="68.9625333" lon="18.9186251" version="1" timestamp="2022-07-07T06:07:54Z" changeset="123301987" uid="3497659" user="NKA">
		<tag k="alt_name" v="Nesvoll" />
		<tag k="name" v="Nesvold" />
		<tag k="place" v="farm" />
		<tag k="ssr:stedsnr" v="139397" />
	</node>
	<node id="9871666008" lat="68.9885639" lon="18.9409666" version="1" timestamp="2022-07-07T06:07:54Z" changeset="123301987" uid="3497659" user="NKA">
		<tag k="name" v="Lian" />
		<tag k="place" v="farm" />
		<tag k="ssr:stedsnr" v="685393" />
	</node>
	<node id="9871666009" lat="69.0124276" lon="18.9462529" version="1" timestamp="2022-07-07T06:07:54Z" changeset="123301987" uid="3497659" user="NKA">
		<tag k="name" v="Nordmoen" />
		<tag k="place" v="farm" />
		<tag k="ssr:stedsnr" v="746198" />
	</node>
	<node id="9871666010" lat="68.9980194" lon="19.0339055" version="1" timestamp="2022-07-07T06:07:54Z" changeset="123301987" uid="3497659" user="NKA">
		<tag k="name" v="Frostad" />
		<tag k="place" v="farm" />
		<tag k="ssr:stedsnr" v="503421" />
	</node>
	<node id="9871666011" lat="69.015325" lon="18.9653473" version="1" timestamp="2022-07-07T06:07:54Z" changeset="123301987" uid="3497659" user="NKA">
		<tag k="name" v="Asphaug" />
		<tag k="place" v="farm" />
		<tag k="ssr:stedsnr" v="686200" />
	</node>
	<node id="9871666012" lat="69.0120305" lon="18.9308611" version="1" timestamp="2022-07-07T06:07:54Z" changeset="123301987" uid="3497659" user="NKA">
		<tag k="alt_name" v="Trosdal;Tråsdahl" />
		<tag k="name" v="Tråsdal" />
		<tag k="place" v="farm" />
		<tag k="ssr:stedsnr" v="504189" />
	</node>
	<node id="9871666013" lat="69.0023694" lon="18.9691471" version="1" timestamp="2022-07-07T06:07:54Z" changeset="123301987" uid="3497659" user="NKA">
		<tag k="name" v="Malerud" />
		<tag k="place" v="farm" />
		<tag k="ssr:stedsnr" v="79170" />
	</node>
	<node id="9871666014" lat="68.9343583" lon="18.9512611" version="1" timestamp="2022-07-07T06:07:54Z" changeset="123301987" uid="3497659" user="NKA">
		<tag k="alt_name" v="Kjosvold" />
		<tag k="name" v="Kjosvoll" />
		<tag k="place" v="farm" />
		<tag k="ssr:stedsnr" v="321320" />
	</node>
	<node id="9871666015" lat="68.9955917" lon="18.9741501" version="1" timestamp="2022-07-07T06:07:54Z" changeset="123301987" uid="3497659" user="NKA">
		<tag k="name" v="Evenmoen" />
		<tag k="place" v="farm" />
		<tag k="ssr:stedsnr" v="200433" />
	</node>
	<node id="9871666016" lat="68.9339028" lon="18.9460665" version="1" timestamp="2022-07-07T06:07:54Z" changeset="123301987" uid="3497659" user="NKA">
		<tag k="alt_name" v="Bjerknes" />
		<tag k="name" v="Bjørknes" />
		<tag k="place" v="farm" />
		<tag k="ssr:stedsnr" v="78350" />
	</node>
	<node id="9871666017" lat="69.0132239" lon="19.0392512" version="1" timestamp="2022-07-07T06:07:54Z" changeset="123301987" uid="3497659" user="NKA">
		<tag k="name" v="Trangen" />
		<tag k="place" v="locality" />
		<tag k="ssr:stedsnr" v="1077907" />
	</node>
	<node id="9871666018" lat="69.0092983" lon="19.005666" version="1" timestamp="2022-07-07T06:07:54Z" changeset="123301987" uid="3497659" user="NKA">
		<tag k="alt_name" v="Nymo" />
		<tag k="name" v="Nymoen" />
		<tag k="place" v="hamlet" />
		<tag k="ssr:stedsnr" v="200189" />
	</node>
	<node id="9871666019" lat="68.9815727" lon="18.927938" version="1" timestamp="2022-07-07T06:07:54Z" changeset="123301987" uid="3497659" user="NKA">
		<tag k="alt_name" v="Elvevold" />
		<tag k="name" v="Elvevoll" />
		<tag k="place" v="farm" />
		<tag k="ssr:stedsnr" v="867414" />
	</node>
	<node id="9871666020" lat="69.0100384" lon="19.0217346" version="1" timestamp="2022-07-07T06:07:54Z" changeset="123301987" uid="3497659" user="NKA">
		<tag k="name" v="Torshaug" />
		<tag k="place" v="farm" />
		<tag k="ssr:stedsnr" v="686197" />
	</node>
	<node id="9871666021" lat="69.0094243" lon="18.9590924" version="1" timestamp="2022-07-07T06:07:54Z" changeset="123301987" uid="3497659" user="NKA">
		<tag k="name" v="Østgård" />
		<tag k="place" v="farm" />
		<tag k="ssr:stedsnr" v="625163" />
	</node>
	<node id="9871666022" lat="68.9842417" lon="18.9359222" version="1" timestamp="2022-07-07T06:07:54Z" changeset="123301987" uid="3497659" user="NKA">
		<tag k="name" v="Furuly" />
		<tag k="place" v="farm" />
		<tag k="ssr:stedsnr" v="503402" />
	</node>
	<node id="9871666023" lat="68.9771639" lon="18.9337361" version="1" timestamp="2022-07-07T06:07:54Z" changeset="123301987" uid="3497659" user="NKA">
		<tag k="alt_name" v="Bekkevoll" />
		<tag k="name" v="Lereng" />
		<tag k="place" v="farm" />
		<tag k="ssr:stedsnr" v="563386" />
	</node>
	<node id="9871666024" lat="68.9806341" lon="18.9326352" version="1" timestamp="2022-07-07T06:07:54Z" changeset="123301987" uid="3497659" user="NKA">
		<tag k="name" v="Lyngås" />
		<tag k="place" v="farm" />
		<tag k="ssr:stedsnr" v="442402" />
	</node>
	<node id="9871666025" lat="68.9217389" lon="18.9576668" version="1" timestamp="2022-07-07T06:07:54Z" changeset="123301987" uid="3497659" user="NKA">
		<tag k="name" v="Skogtun" />
		<tag k="place" v="farm" />
		<tag k="ssr:stedsnr" v="563331" />
	</node>
	<node id="9871666026" lat="69.0117695" lon="18.9388694" version="1" timestamp="2022-07-07T06:07:54Z" changeset="123301987" uid="3497659" user="NKA">
		<tag k="name" v="Storegga" />
		<tag k="place" v="farm" />
		<tag k="ssr:stedsnr" v="536806" />
	</node>
	<node id="9871666027" lat="68.9541278" lon="18.9321751" version="1" timestamp="2022-07-07T06:07:54Z" changeset="123301987" uid="3497659" user="NKA">
		<tag k="name" v="Liahell" />
		<tag k="place" v="farm" />
		<tag k="ssr:stedsnr" v="294364" />
	</node>
	<node id="9871666028" lat="69.0027611" lon="19.0140473" version="1" timestamp="2022-07-07T06:07:54Z" changeset="123301987" uid="3497659" user="NKA">
		<tag k="name" v="Alapmoskogen" />
		<tag k="place" v="farm" />
		<tag k="ssr:stedsnr" v="423687" />
	</node>
	<node id="9871666029" lat="68.9613925" lon="18.9480128" version="1" timestamp="2022-07-07T06:07:54Z" changeset="123301987" uid="3497659" user="NKA">
		<tag k="name" v="Bjørnstad" />
		<tag k="place" v="farm" />
		<tag k="ssr:stedsnr" v="260410" />
	</node>
	<node id="9871666030" lat="69.0128555" lon="18.9728083" version="1" timestamp="2022-07-07T06:07:54Z" changeset="123301987" uid="3497659" user="NKA">
		<tag k="alt_name" v="Steinsland" />
		<tag k="name" v="Stensland" />
		<tag k="place" v="farm" />
		<tag k="ssr:stedsnr" v="261204" />
	</node>
	<node id="9871666031" lat="68.9979445" lon="19.0398668" version="1" timestamp="2022-07-07T06:07:54Z" changeset="123301987" uid="3497659" user="NKA">
		<tag k="name" v="Birkelund" />
		<tag k="place" v="farm" />
		<tag k="ssr:stedsnr" v="111536" />
	</node>
	<node id="9871666032" lat="68.9492917" lon="18.9424861" version="1" timestamp="2022-07-07T06:07:54Z" changeset="123301987" uid="3497659" user="NKA">
		<tag k="alt_name" v="Dybdal" />
		<tag k="name" v="Djupdal" />
		<tag k="place" v="farm" />
		<tag k="ssr:stedsnr" v="200368" />
	</node>
	<node id="9871666033" lat="69.0302278" lon="18.9532473" version="1" timestamp="2022-07-07T06:07:54Z" changeset="123301987" uid="3497659" user="NKA">
		<tag k="historic" v="shieling" />
		<tag k="name" v="Mosætra" />
		<tag k="place" v="isolated_dwelling" />
		<tag k="ssr:stedsnr" v="51501" />
	</node>
	<node id="9871666034" lat="68.9751334" lon="19.0200583" version="1" timestamp="2022-07-07T06:07:54Z" changeset="123301987" uid="3497659" user="NKA">
		<tag k="historic" v="shieling" />
		<tag k="name" v="Alapmosetra - Állatmuvaseahtar" />
		<tag k="name:no" v="Alapmosetra" />
		<tag k="name:se" v="Állatmuvaseahtar" />
		<tag k="place" v="isolated_dwelling" />
		<tag k="ssr:stedsnr" v="78400" />
	</node>
	<node id="9871666035" lat="69.0099107" lon="19.0461618" version="1" timestamp="2022-07-07T06:07:54Z" changeset="123301987" uid="3497659" user="NKA">
		<tag k="alt_name" v="Trongen" />
		<tag k="name" v="Trangen" />
		<tag k="place" v="farm" />
		<tag k="ssr:stedsnr" v="19163" />
	</node>
	<node id="9871666036" lat="69.0347639" lon="18.9365612" version="1" timestamp="2022-07-07T06:07:54Z" changeset="123301987" uid="3497659" user="NKA">
		<tag k="historic" v="shieling" />
		<tag k="name" v="Gardsætra" />
		<tag k="place" v="isolated_dwelling" />
		<tag k="ssr:stedsnr" v="51502" />
	</node>
	<node id="9871666037" lat="68.9446333" lon="18.9431472" version="1" timestamp="2022-07-07T06:07:54Z" changeset="123301987" uid="3497659" user="NKA">
		<tag k="alt_name" v="Bergmoen" />
		<tag k="name" v="Bergmo" />
		<tag k="place" v="farm" />
		<tag k="ssr:stedsnr" v="807347" />
	</node>
	<node id="9871666038" lat="68.9524639" lon="18.9346779" version="1" timestamp="2022-07-07T06:07:54Z" changeset="123301987" uid="3497659" user="NKA">
		<tag k="name" v="Brunes" />
		<tag k="place" v="farm" />
		<tag k="ssr:stedsnr" v="928336" />
	</node>
	<node id="9871666039" lat="69.233575" lon="18.383675" version="1" timestamp="2022-07-07T06:07:54Z" changeset="123301987" uid="3497659" user="NKA">
		<tag k="name" v="Kjerrdalen" />
		<tag k="place" v="farm" />
		<tag k="ssr:stedsnr" v="79636" />
	</node>
	<node id="9871666040" lat="69.1210889" lon="18.7629222" version="1" timestamp="2022-07-07T06:07:54Z" changeset="123301987" uid="3497659" user="NKA">
		<tag k="name" v="Bergli" />
		<tag k="place" v="farm" />
		<tag k="ssr:stedsnr" v="746799" />
	</node>
	<node id="9871666041" lat="69.2400028" lon="18.3421223" version="1" timestamp="2022-07-07T06:07:54Z" changeset="123301987" uid="3497659" user="NKA">
		<tag k="name" v="Solvoll" />
		<tag k="place" v="farm" />
		<tag k="ssr:stedsnr" v="806681" />
	</node>
	<node id="9871666042" lat="69.2250861" lon="18.3294499" version="1" timestamp="2022-07-07T06:07:54Z" changeset="123301987" uid="3497659" user="NKA">
		<tag k="alt_name" v="Fuglmo Vestre" />
		<tag k="name" v="Vestre Fuglmoen" />
		<tag k="place" v="farm" />
		<tag k="ssr:stedsnr" v="901419" />
	</node>
	<node id="9871666043" lat="69.229416" lon="18.3634128" version="1" timestamp="2022-07-07T06:07:54Z" changeset="123301987" uid="3497659" user="NKA">
		<tag k="name" v="Vangen" />
		<tag k="place" v="farm" />
		<tag k="ssr:stedsnr" v="563709" />
	</node>
	<node id="9871666044" lat="69.2234246" lon="18.337408" version="1" timestamp="2022-07-07T06:07:54Z" changeset="123301987" uid="3497659" user="NKA">
		<tag k="name" v="Østre Fuglmoen" />
		<tag k="place" v="farm" />
		<tag k="ssr:stedsnr" v="1077592" />
	</node>
	<node id="9871666045" lat="69.17425" lon="18.3253361" version="1" timestamp="2022-07-07T06:07:54Z" changeset="123301987" uid="3497659" user="NKA">
		<tag k="name" v="Fredheim" />
		<tag k="place" v="isolated_dwelling" />
		<tag k="ssr:stedsnr" v="537286" />
	</node>
	<node id="9871666046" lat="69.2268814" lon="18.3603305" version="1" timestamp="2022-07-07T06:07:54Z" changeset="123301987" uid="3497659" user="NKA">
		<tag k="name" v="Pusserabben" />
		<tag k="place" v="farm" />
		<tag k="ssr:stedsnr" v="624691" />
	</node>
	<node id="9871666047" lat="69.3178584" lon="18.5430779" version="1" timestamp="2022-07-07T06:07:54Z" changeset="123301987" uid="3497659" user="NKA">
		<tag k="name" v="Målsnes" />
		<tag k="place" v="farm" />
		<tag k="ssr:stedsnr" v="416213" />
	</node>
	<node id="9871666048" lat="69.1356889" lon="18.3629944" version="1" timestamp="2022-07-07T06:07:54Z" changeset="123301987" uid="3497659" user="NKA">
		<tag k="historic" v="shieling" />
		<tag k="name" v="Lensmannssætra" />
		<tag k="place" v="isolated_dwelling" />
		<tag k="ssr:stedsnr" v="294368" />
	</node>
	<node id="9871666049" lat="69.33955" lon="18.542125" version="1" timestamp="2022-07-07T06:07:54Z" changeset="123301987" uid="3497659" user="NKA">
		<tag k="name" v="Djupvik" />
		<tag k="place" v="farm" />
		<tag k="ssr:stedsnr" v="18716" />
	</node>
	<node id="9871666050" lat="69.3516083" lon="18.5435111" version="1" timestamp="2022-07-07T06:07:54Z" changeset="123301987" uid="3497659" user="NKA">
		<tag k="name" v="Målsnes" />
		<tag k="place" v="farm" />
		<tag k="ssr:stedsnr" v="112186" />
	</node>
	<node id="9871666051" lat="69.3187722" lon="18.5436334" version="1" timestamp="2022-07-07T06:07:54Z" changeset="123301987" uid="3497659" user="NKA">
		<tag k="name" v="Sandmo" />
		<tag k="place" v="farm" />
		<tag k="ssr:stedsnr" v="18741" />
	</node>
	<node id="9871666052" lat="69.047338" lon="18.493919" version="1" timestamp="2022-07-07T06:07:54Z" changeset="123301987" uid="3497659" user="NKA">
		<tag k="name" v="Rustabakken" />
		<tag k="place" v="neighbourhood" />
		<tag k="ssr:stedsnr" v="692514" />
	</node>
	<node id="9871666053" lat="69.0446501" lon="18.6513268" version="1" timestamp="2022-07-07T06:07:54Z" changeset="123301987" uid="3497659" user="NKA">
		<tag k="name" v="Fossen" />
		<tag k="place" v="farm" />
		<tag k="ssr:stedsnr" v="685211" />
	</node>
	<node id="9871666054" lat="69.0346432" lon="18.5067541" version="1" timestamp="2022-07-07T06:07:54Z" changeset="123301987" uid="3497659" user="NKA">
		<tag k="name" v="Finnsund" />
		<tag k="place" v="quarter" />
		<tag k="ssr:stedsnr" v="443861" />
	</node>
	<node id="9871666055" lat="69.0307389" lon="18.5932638" version="1" timestamp="2022-07-07T06:07:54Z" changeset="123301987" uid="3497659" user="NKA">
		<tag k="name" v="Nytrøen" />
		<tag k="place" v="hamlet" />
		<tag k="ssr:stedsnr" v="629210" />
	</node>
	<node id="9871666056" lat="69.0073565" lon="18.8347987" version="1" timestamp="2022-07-07T06:07:54Z" changeset="123301987" uid="3497659" user="NKA">
		<tag k="alt_name" v="Løvberg" />
		<tag k="name" v="Løberg" />
		<tag k="place" v="farm" />
		<tag k="ssr:stedsnr" v="746197" />
	</node>
	<node id="9871666057" lat="69.0210528" lon="18.7904361" version="1" timestamp="2022-07-07T06:07:54Z" changeset="123301987" uid="3497659" user="NKA">
		<tag k="name" v="Lund" />
		<tag k="place" v="farm" />
		<tag k="ssr:stedsnr" v="961178" />
	</node>
	<node id="9871666058" lat="69.0018806" lon="18.8214333" version="1" timestamp="2022-07-07T06:07:54Z" changeset="123301987" uid="3497659" user="NKA">
		<tag k="historic" v="shieling" />
		<tag k="name" v="Heimsætra" />
		<tag k="place" v="isolated_dwelling" />
		<tag k="ssr:stedsnr" v="476799" />
	</node>
	<node id="9871666059" lat="69.0300468" lon="18.8240824" version="1" timestamp="2022-07-07T06:07:54Z" changeset="123301987" uid="3497659" user="NKA">
		<tag k="alt_name" v="Helstad" />
		<tag k="name" v="Hellstad" />
		<tag k="place" v="farm" />
		<tag k="ssr:stedsnr" v="79222" />
	</node>
	<node id="9871666060" lat="69.0249" lon="18.8673888" version="1" timestamp="2022-07-07T06:07:54Z" changeset="123301987" uid="3497659" user="NKA">
		<tag k="name" v="Gaustad" />
		<tag k="place" v="farm" />
		<tag k="ssr:stedsnr" v="261177" />
	</node>
	<node id="9871666061" lat="69.0174346" lon="18.6313256" version="1" timestamp="2022-07-07T06:07:54Z" changeset="123301987" uid="3497659" user="NKA">
		<tag k="alt_name" v="Istindli" />
		<tag k="name" v="Istindlia" />
		<tag k="place" v="farm" />
		<tag k="ssr:stedsnr" v="868173" />
	</node>
	<node id="9871666062" lat="69.0124278" lon="18.7640945" version="1" timestamp="2022-07-07T06:07:54Z" changeset="123301987" uid="3497659" user="NKA">
		<tag k="alt_name" v="Åsmoen" />
		<tag k="name" v="Åsmo" />
		<tag k="place" v="farm" />
		<tag k="ssr:stedsnr" v="79201" />
	</node>
	<node id="9871666063" lat="69.0108966" lon="18.6790053" version="1" timestamp="2022-07-07T06:07:54Z" changeset="123301987" uid="3497659" user="NKA">
		<tag k="name" v="Langrabbli" />
		<tag k="old_name" v="Undset;Undseth" />
		<tag k="place" v="farm" />
		<tag k="ssr:stedsnr" v="686205" />
	</node>
	<node id="9871666064" lat="69.0169306" lon="18.6338138" version="1" timestamp="2022-07-07T06:07:54Z" changeset="123301987" uid="3497659" user="NKA">
		<tag k="alt_name" v="Flismo" />
		<tag k="name" v="Flismoen" />
		<tag k="place" v="farm" />
		<tag k="ssr:stedsnr" v="200179" />
	</node>
	<node id="9871666065" lat="69.1744917" lon="18.6989888" version="1" timestamp="2022-07-07T06:07:54Z" changeset="123301987" uid="3497659" user="NKA">
		<tag k="alt_name" v="Broderstadsætra" />
		<tag k="name" v="Brorstadsætra" />
		<tag k="place" v="isolated_dwelling" />
		<tag k="ssr:stedsnr" v="806793" />
	</node>
	<node id="9871666066" lat="69.2260667" lon="18.6404193" version="1" timestamp="2022-07-07T06:07:54Z" changeset="123301987" uid="3497659" user="NKA">
		<tag k="historic" v="shieling" />
		<tag k="name" v="Olufsætra" />
		<tag k="place" v="isolated_dwelling" />
		<tag k="ssr:stedsnr" v="901332" />
	</node>
	<node id="9871666067" lat="69.1519611" lon="18.6867499" version="1" timestamp="2022-07-07T06:07:54Z" changeset="123301987" uid="3497659" user="NKA">
		<tag k="name" v="Kornelislaen" />
		<tag k="place" v="isolated_dwelling" />
		<tag k="ssr:stedsnr" v="779242" />
	</node>
	<node id="9871666068" lat="69.1682334" lon="18.5815807" version="1" timestamp="2022-07-07T06:07:54Z" changeset="123301987" uid="3497659" user="NKA">
		<tag k="name" v="Nordheim" />
		<tag k="place" v="farm" />
		<tag k="ssr:stedsnr" v="807515" />
	</node>
	<node id="9871666069" lat="69.2186056" lon="18.6810806" version="1" timestamp="2022-07-07T06:07:54Z" changeset="123301987" uid="3497659" user="NKA">
		<tag k="name" v="Nordlund" />
		<tag k="place" v="farm" />
		<tag k="ssr:stedsnr" v="504955" />
	</node>
	<node id="9871666070" lat="69.1847744" lon="18.6713228" version="1" timestamp="2022-07-07T06:07:54Z" changeset="123301987" uid="3497659" user="NKA">
		<tag k="historic" v="shieling" />
		<tag k="name" v="Kjeldstadsetra" />
		<tag k="place" v="isolated_dwelling" />
		<tag k="ssr:stedsnr" v="503958" />
	</node>
	<node id="9871666071" lat="69.1614782" lon="18.5460851" version="1" timestamp="2022-07-07T06:07:54Z" changeset="123301987" uid="3497659" user="NKA">
		<tag k="name" v="Sandbakken" />
		<tag k="place" v="farm" />
		<tag k="ssr:stedsnr" v="504533" />
	</node>
	<node id="9871666072" lat="69.2078528" lon="18.6819223" version="1" timestamp="2022-07-07T06:07:54Z" changeset="123301987" uid="3497659" user="NKA">
		<tag k="name" v="Sørlund" />
		<tag k="place" v="farm" />
		<tag k="ssr:stedsnr" v="382952" />
	</node>
	<node id="9871666073" lat="69.2079834" lon="18.6783029" version="1" timestamp="2022-07-07T06:07:54Z" changeset="123301987" uid="3497659" user="NKA">
		<tag k="name" v="Sørmoen" />
		<tag k="place" v="farm" />
		<tag k="ssr:stedsnr" v="443949" />
	</node>
	<node id="9871666074" lat="69.2474959" lon="18.5328522" version="1" timestamp="2022-07-07T06:07:54Z" changeset="123301987" uid="3497659" user="NKA">
		<tag k="name" v="Grunnes" />
		<tag k="place" v="hamlet" />
		<tag k="ssr:stedsnr" v="381687" />
	</node>
	<node id="9871666075" lat="69.1988825" lon="18.6009772" version="1" timestamp="2022-07-07T06:07:54Z" changeset="123301987" uid="3497659" user="NKA">
		<tag k="name" v="Seljehaugen" />
		<tag k="place" v="farm" />
		<tag k="ssr:stedsnr" v="381762" />
	</node>
	<node id="9871666076" lat="69.2063683" lon="18.6373642" version="1" timestamp="2022-07-07T06:07:54Z" changeset="123301987" uid="3497659" user="NKA">
		<tag k="name" v="Skavåsen" />
		<tag k="place" v="farm" />
		<tag k="ssr:stedsnr" v="261939" />
	</node>
	<node id="9871666077" lat="69.2317833" lon="18.6595444" version="1" timestamp="2022-07-07T06:07:54Z" changeset="123301987" uid="3497659" user="NKA">
		<tag k="alt_name" v="Grønvold" />
		<tag k="name" v="Grønvoll" />
		<tag k="place" v="farm" />
		<tag k="ssr:stedsnr" v="261893" />
	</node>
	<node id="9871666078" lat="69.2462555" lon="18.67545" version="1" timestamp="2022-07-07T06:07:54Z" changeset="123301987" uid="3497659" user="NKA">
		<tag k="name" v="Engvoll" />
		<tag k="place" v="farm" />
		<tag k="ssr:stedsnr" v="261887" />
	</node>
	<node id="9871666079" lat="69.2433828" lon="18.6775738" version="1" timestamp="2022-07-07T06:07:54Z" changeset="123301987" uid="3497659" user="NKA">
		<tag k="name" v="Sørelvmoen" />
		<tag k="place" v="farm" />
		<tag k="ssr:stedsnr" v="261884" />
	</node>
	<node id="9871666080" lat="69.1987278" lon="18.6538582" version="1" timestamp="2022-07-07T06:07:54Z" changeset="123301987" uid="3497659" user="NKA">
		<tag k="alt_name" v="Nilasheim" />
		<tag k="name" v="Nilsaheimen" />
		<tag k="place" v="locality" />
		<tag k="ssr:stedsnr" v="868999" />
	</node>
	<node id="9871666081" lat="69.17425" lon="18.5778805" version="1" timestamp="2022-07-07T06:07:54Z" changeset="123301987" uid="3497659" user="NKA">
		<tag k="name" v="Litleng" />
		<tag k="place" v="farm" />
		<tag k="ssr:stedsnr" v="807497" />
	</node>
	<node id="9871666082" lat="69.1851639" lon="18.5687222" version="1" timestamp="2022-07-07T06:07:54Z" changeset="123301987" uid="3497659" user="NKA">
		<tag k="name" v="Minde" />
		<tag k="place" v="farm" />
		<tag k="ssr:stedsnr" v="718527" />
	</node>
	<node id="9871666083" lat="69.1478056" lon="18.6417834" version="1" timestamp="2022-07-07T06:07:54Z" changeset="123301987" uid="3497659" user="NKA">
		<tag k="name" v="Skogly" />
		<tag k="place" v="farm" />
		<tag k="ssr:stedsnr" v="868761" />
	</node>
	<node id="9871666084" lat="69.149925" lon="18.6854307" version="1" timestamp="2022-07-07T06:07:54Z" changeset="123301987" uid="3497659" user="NKA">
		<tag k="name" v="Gabriel-Persalaen" />
		<tag k="place" v="isolated_dwelling" />
		<tag k="ssr:stedsnr" v="840245" />
	</node>
	<node id="9871666085" lat="69.2049775" lon="18.6031062" version="1" timestamp="2022-07-07T06:07:54Z" changeset="123301987" uid="3497659" user="NKA">
		<tag k="name" v="Åsnes" />
		<tag k="place" v="farm" />
		<tag k="ssr:stedsnr" v="624712" />
	</node>
	<node id="9871666086" lat="69.2102595" lon="18.6097171" version="1" timestamp="2022-07-07T06:07:54Z" changeset="123301987" uid="3497659" user="NKA">
		<tag k="name" v="Slåtteli" />
		<tag k="place" v="farm" />
		<tag k="ssr:stedsnr" v="415360" />
	</node>
	<node id="9871666087" lat="69.1654613" lon="18.5768605" version="1" timestamp="2022-07-07T06:07:54Z" changeset="123301987" uid="3497659" user="NKA">
		<tag k="alt_name" v="Broderstad" />
		<tag k="name" v="Brorstad" />
		<tag k="place" v="hamlet" />
		<tag k="ssr:stedsnr" v="504507" />
	</node>
	<node id="9871666088" lat="69.1702361" lon="18.5812805" version="1" timestamp="2022-07-07T06:07:54Z" changeset="123301987" uid="3497659" user="NKA">
		<tag k="name" v="Broderstad" />
		<tag k="place" v="farm" />
		<tag k="ssr:stedsnr" v="294500" />
	</node>
	<node id="9871666089" lat="69.2228216" lon="18.6711255" version="1" timestamp="2022-07-07T06:07:54Z" changeset="123301987" uid="3497659" user="NKA">
		<tag k="alt_name" v="Moen nedre" />
		<tag k="name" v="Nermoen" />
		<tag k="place" v="farm" />
		<tag k="ssr:stedsnr" v="293284" />
	</node>
	<node id="9871666090" lat="69.1904937" lon="18.5474118" version="1" timestamp="2022-07-07T06:07:54Z" changeset="123301987" uid="3497659" user="NKA">
		<tag k="alt_name" v="Leirbækmoen" />
		<tag k="name" v="Leirbekkmoen" />
		<tag k="place" v="farm" />
		<tag k="ssr:stedsnr" v="294505" />
	</node>
	<node id="9871666091" lat="69.1484335" lon="18.6335642" version="1" timestamp="2022-07-07T06:07:54Z" changeset="123301987" uid="3497659" user="NKA">
		<tag k="name" v="Sollia" />
		<tag k="place" v="hamlet" />
		<tag k="ssr:stedsnr" v="139732" />
	</node>
	<node id="9871666092" lat="69.2151674" lon="18.6641613" version="1" timestamp="2022-07-07T06:07:54Z" changeset="123301987" uid="3497659" user="NKA">
		<tag k="alt_name" v="Moen mellem" />
		<tag k="name" v="Mellamoen" />
		<tag k="place" v="farm" />
		<tag k="ssr:stedsnr" v="111257" />
	</node>
	<node id="9871666093" lat="69.13755" lon="18.6947723" version="1" timestamp="2022-07-07T06:07:54Z" changeset="123301987" uid="3497659" user="NKA">
		<tag k="name" v="Heggeli" />
		<tag k="place" v="farm" />
		<tag k="ssr:stedsnr" v="503760" />
	</node>
	<node id="9871666094" lat="69.1560861" lon="18.6281972" version="1" timestamp="2022-07-07T06:07:54Z" changeset="123301987" uid="3497659" user="NKA">
		<tag k="name" v="Solheim" />
		<tag k="place" v="farm" />
		<tag k="ssr:stedsnr" v="139731" />
	</node>
	<node id="9871666095" lat="69.1391532" lon="18.5822568" version="1" timestamp="2022-07-07T06:07:54Z" changeset="123301987" uid="3497659" user="NKA">
		<tag k="alt_name" v="Takholmbukt" />
		<tag k="name" v="Takholmbukta" />
		<tag k="place" v="farm" />
		<tag k="ssr:stedsnr" v="840031" />
	</node>
	<node id="9871666096" lat="69.1324389" lon="18.684625" version="1" timestamp="2022-07-07T06:07:54Z" changeset="123301987" uid="3497659" user="NKA">
		<tag k="historic" v="shieling" />
		<tag k="name" v="Aunesætra" />
		<tag k="place" v="isolated_dwelling" />
		<tag k="ssr:stedsnr" v="443774" />
	</node>
	<node id="9871666097" lat="69.1354441" lon="18.6847112" version="1" timestamp="2022-07-07T06:07:54Z" changeset="123301987" uid="3497659" user="NKA">
		<tag k="name" v="Teigen" />
		<tag k="place" v="farm" />
		<tag k="ssr:stedsnr" v="18751" />
	</node>
	<node id="9871666098" lat="69.138175" lon="18.6682473" version="1" timestamp="2022-07-07T06:07:54Z" changeset="123301987" uid="3497659" user="NKA">
		<tag k="alt_name" v="Soleng" />
		<tag k="name" v="Sørenga" />
		<tag k="place" v="farm" />
		<tag k="ssr:stedsnr" v="624798" />
	</node>
	<node id="9871666099" lat="68.9467826" lon="18.6660797" version="1" timestamp="2022-07-07T06:07:54Z" changeset="123301987" uid="3497659" user="NKA">
		<tag k="name" v="Brannskognessetra" />
		<tag k="place" v="isolated_dwelling" />
		<tag k="ssr:stedsnr" v="624378" />
	</node>
	<node id="9871666100" lat="68.9611027" lon="18.6776193" version="1" timestamp="2022-07-07T06:07:54Z" changeset="123301987" uid="3497659" user="NKA">
		<tag k="name" v="Slagstadhytta" />
		<tag k="place" v="isolated_dwelling" />
		<tag k="ssr:stedsnr" v="718927" />
	</node>
	<node id="9871666101" lat="69.1144761" lon="18.8813299" version="1" timestamp="2022-07-07T06:07:54Z" changeset="123301987" uid="3497659" user="NKA">
		<tag k="name" v="Bjørkli" />
		<tag k="place" v="hamlet" />
		<tag k="ssr:stedsnr" v="929824" />
	</node>
	<node id="9871666102" lat="68.95075" lon="18.6692972" version="1" timestamp="2022-07-07T06:07:54Z" changeset="123301987" uid="3497659" user="NKA">
		<tag k="alt_name" v="Foslisætra" />
		<tag k="name" v="Fosslisætra" />
		<tag k="place" v="isolated_dwelling" />
		<tag k="ssr:stedsnr" v="260402" />
	</node>
	<node id="9871666103" lat="69.0351389" lon="18.8013973" version="1" timestamp="2022-07-07T06:07:54Z" changeset="123301987" uid="3497659" user="NKA">
		<tag k="name" v="Skoglund" />
		<tag k="place" v="farm" />
		<tag k="ssr:stedsnr" v="685234" />
	</node>
	<node id="9871666104" lat="68.8837326" lon="18.8893685" version="1" timestamp="2022-07-07T06:07:54Z" changeset="123301987" uid="3497659" user="NKA">
		<tag k="historic" v="shieling" />
		<tag k="name" v="Sagensætra" />
		<tag k="place" v="isolated_dwelling" />
		<tag k="ssr:stedsnr" v="901339" />
	</node>
	<node id="9871666105" lat="69.1169806" lon="18.8566277" version="1" timestamp="2022-07-07T06:07:54Z" changeset="123301987" uid="3497659" user="NKA">
		<tag k="name" v="Roli" />
		<tag k="place" v="farm" />
		<tag k="ssr:stedsnr" v="79823" />
	</node>
	<node id="9871666106" lat="69.0402778" lon="18.8556944" version="1" timestamp="2022-07-07T06:07:54Z" changeset="123301987" uid="3497659" user="NKA">
		<tag k="historic" v="shieling" />
		<tag k="name" v="Båtkjossætra" />
		<tag k="place" v="isolated_dwelling" />
		<tag k="ssr:stedsnr" v="476329" />
	</node>
	<node id="9871666107" lat="69.0214" lon="18.8775694" version="1" timestamp="2022-07-07T06:07:54Z" changeset="123301987" uid="3497659" user="NKA">
		<tag k="name" v="Fagerhaug" />
		<tag k="place" v="farm" />
		<tag k="ssr:stedsnr" v="686182" />
	</node>
	<node id="9871666108" lat="69.0206083" lon="18.7384944" version="1" timestamp="2022-07-07T06:07:54Z" changeset="123301987" uid="3497659" user="NKA">
		<tag k="name" v="Myrvang" />
		<tag k="place" v="farm" />
		<tag k="ssr:stedsnr" v="807190" />
	</node>
	<node id="9871666109" lat="68.9830328" lon="18.7354495" version="1" timestamp="2022-07-07T06:07:54Z" changeset="123301987" uid="3497659" user="NKA">
		<tag k="name" v="Myklebyhytta" />
		<tag k="place" v="isolated_dwelling" />
		<tag k="ssr:stedsnr" v="293137" />
	</node>
	<node id="9871666110" lat="69.0248658" lon="18.7845991" version="1" timestamp="2022-07-07T06:07:54Z" changeset="123301987" uid="3497659" user="NKA">
		<tag k="name" v="Vesteng" />
		<tag k="place" v="farm" />
		<tag k="ssr:stedsnr" v="261188" />
	</node>
	<node id="9871666111" lat="69.032475" lon="18.8148918" version="1" timestamp="2022-07-07T06:07:54Z" changeset="123301987" uid="3497659" user="NKA">
		<tag k="name" v="Hovde" />
		<tag k="place" v="farm" />
		<tag k="ssr:stedsnr" v="200225" />
	</node>
	<node id="9871666112" lat="69.0254801" lon="18.8557344" version="1" timestamp="2022-07-07T06:07:54Z" changeset="123301987" uid="3497659" user="NKA">
		<tag k="name" v="Bakkehaug" />
		<tag k="place" v="farm" />
		<tag k="ssr:stedsnr" v="1077582" />
	</node>
	<node id="9871666113" lat="69.026171" lon="18.8359587" version="1" timestamp="2022-07-07T06:07:54Z" changeset="123301987" uid="3497659" user="NKA">
		<tag k="name" v="Skogmo" />
		<tag k="place" v="farm" />
		<tag k="ssr:stedsnr" v="1072975" />
	</node>
	<node id="9871666114" lat="69.0327084" lon="18.7450166" version="1" timestamp="2022-07-07T06:07:54Z" changeset="123301987" uid="3497659" user="NKA">
		<tag k="alt_name" v="Lillengmo;Litlengmoen" />
		<tag k="name" v="Lillengmoen" />
		<tag k="place" v="farm" />
		<tag k="ssr:stedsnr" v="200229" />
	</node>
	<node id="9871666115" lat="69.0165197" lon="18.7536899" version="1" timestamp="2022-07-07T06:07:54Z" changeset="123301987" uid="3497659" user="NKA">
		<tag k="name" v="Møkleby" />
		<tag k="place" v="farm" />
		<tag k="ssr:stedsnr" v="807208" />
	</node>
	<node id="9871666116" lat="69.0275861" lon="18.7065889" version="1" timestamp="2022-07-07T06:07:54Z" changeset="123301987" uid="3497659" user="NKA">
		<tag k="name" v="Haugland" />
		<tag k="place" v="farm" />
		<tag k="ssr:stedsnr" v="868217" />
	</node>
	<node id="9871666117" lat="69.0239782" lon="18.8435766" version="1" timestamp="2022-07-07T06:07:54Z" changeset="123301987" uid="3497659" user="NKA">
		<tag k="name" v="Engen" />
		<tag k="place" v="farm" />
		<tag k="ssr:stedsnr" v="1072972" />
	</node>
	<node id="9871666118" lat="69.0263167" lon="18.8436334" version="1" timestamp="2022-07-07T06:07:54Z" changeset="123301987" uid="3497659" user="NKA">
		<tag k="name" v="Rognlia" />
		<tag k="place" v="farm" />
		<tag k="ssr:stedsnr" v="868178" />
	</node>
	<node id="9871666119" lat="69.03855" lon="18.7790612" version="1" timestamp="2022-07-07T06:07:54Z" changeset="123301987" uid="3497659" user="NKA">
		<tag k="name" v="Grønlia" />
		<tag k="place" v="farm" />
		<tag k="ssr:stedsnr" v="868220" />
	</node>
	<node id="9871666120" lat="69.02315" lon="18.7861446" version="1" timestamp="2022-07-07T06:07:54Z" changeset="123301987" uid="3497659" user="NKA">
		<tag k="name" v="Asplund" />
		<tag k="place" v="farm" />
		<tag k="ssr:stedsnr" v="200174" />
	</node>
	<node id="9871666121" lat="69.0234236" lon="18.8533144" version="1" timestamp="2022-07-07T06:07:54Z" changeset="123301987" uid="3497659" user="NKA">
		<tag k="name" v="Jensberg" />
		<tag k="place" v="hamlet" />
		<tag k="ssr:stedsnr" v="718336" />
	</node>
	<node id="9871666122" lat="69.0440472" lon="18.7664999" version="1" timestamp="2022-07-07T06:07:54Z" changeset="123301987" uid="3497659" user="NKA">
		<tag k="name" v="Nordby" />
		<tag k="place" v="farm" />
		<tag k="ssr:stedsnr" v="564205" />
	</node>
	<node id="9871666123" lat="69.0268389" lon="18.8331861" version="1" timestamp="2022-07-07T06:07:54Z" changeset="123301987" uid="3497659" user="NKA">
		<tag k="alt_name" v="Gravrok" />
		<tag k="name" v="Gravråk" />
		<tag k="place" v="farm" />
		<tag k="ssr:stedsnr" v="564216" />
	</node>
	<node id="9871666124" lat="69.0294334" lon="18.8283973" version="1" timestamp="2022-07-07T06:07:54Z" changeset="123301987" uid="3497659" user="NKA">
		<tag k="name" v="Ranem" />
		<tag k="old_name" v="Banem" />
		<tag k="place" v="farm" />
		<tag k="ssr:stedsnr" v="625232" />
	</node>
	<node id="9871666125" lat="68.993175" lon="18.737039" version="1" timestamp="2022-07-07T06:07:54Z" changeset="123301987" uid="3497659" user="NKA">
		<tag k="name" v="Laen" />
		<tag k="place" v="isolated_dwelling" />
		<tag k="ssr:stedsnr" v="475108" />
	</node>
	<node id="9871666126" lat="69.01955" lon="18.7949694" version="1" timestamp="2022-07-07T06:07:54Z" changeset="123301987" uid="3497659" user="NKA">
		<tag k="name" v="Bråten" />
		<tag k="place" v="farm" />
		<tag k="ssr:stedsnr" v="625193" />
	</node>
	<node id="9871666127" lat="69.0272011" lon="18.8140759" version="1" timestamp="2022-07-07T06:07:54Z" changeset="123301987" uid="3497659" user="NKA">
		<tag k="name" v="Elverum" />
		<tag k="place" v="hamlet" />
		<tag k="ssr:stedsnr" v="625236" />
	</node>
	<node id="9871666128" lat="69.0350322" lon="18.7211715" version="1" timestamp="2022-07-07T06:07:54Z" changeset="123301987" uid="3497659" user="NKA">
		<tag k="alt_name" v="Flatmoen" />
		<tag k="name" v="Flatmo" />
		<tag k="place" v="farm" />
		<tag k="ssr:stedsnr" v="624252" />
	</node>
	<node id="9871666129" lat="68.9898389" lon="18.8335278" version="1" timestamp="2022-07-07T06:07:54Z" changeset="123301987" uid="3497659" user="NKA">
		<tag k="historic" v="shieling" />
		<tag k="name" v="Løvbergsætrene" />
		<tag k="place" v="isolated_dwelling" />
		<tag k="ssr:stedsnr" v="415324" />
	</node>
	<node id="9871666130" lat="69.0248201" lon="18.8437174" version="1" timestamp="2022-07-07T06:07:54Z" changeset="123301987" uid="3497659" user="NKA">
		<tag k="name" v="Engvoll" />
		<tag k="place" v="farm" />
		<tag k="ssr:stedsnr" v="536322" />
	</node>
	<node id="9871666131" lat="69.0084417" lon="18.7721084" version="1" timestamp="2022-07-07T06:07:54Z" changeset="123301987" uid="3497659" user="NKA">
		<tag k="alt_name" v="Fagermoen" />
		<tag k="name" v="Fagermo" />
		<tag k="place" v="farm" />
		<tag k="ssr:stedsnr" v="443204" />
	</node>
	<node id="9871666132" lat="69.0364444" lon="18.8599278" version="1" timestamp="2022-07-07T06:07:54Z" changeset="123301987" uid="3497659" user="NKA">
		<tag k="historic" v="shieling" />
		<tag k="name" v="Engasætra" />
		<tag k="place" v="isolated_dwelling" />
		<tag k="ssr:stedsnr" v="354350" />
	</node>
	<node id="9871666133" lat="69.0256597" lon="18.8196626" version="1" timestamp="2022-07-07T06:07:54Z" changeset="123301987" uid="3497659" user="NKA">
		<tag k="name" v="Tangen" />
		<tag k="place" v="farm" />
		<tag k="ssr:stedsnr" v="354336" />
	</node>
	<node id="9871666134" lat="69.0303676" lon="18.7071276" version="1" timestamp="2022-07-07T06:07:54Z" changeset="123301987" uid="3497659" user="NKA">
		<tag k="name" v="Vestgård" />
		<tag k="place" v="farm" />
		<tag k="ssr:stedsnr" v="293170" />
	</node>
	<node id="9871666135" lat="69.0408806" lon="18.8280916" version="1" timestamp="2022-07-07T06:07:54Z" changeset="123301987" uid="3497659" user="NKA">
		<tag k="historic" v="shieling" />
		<tag k="name" v="Bøasætra" />
		<tag k="place" v="isolated_dwelling" />
		<tag k="ssr:stedsnr" v="294340" />
	</node>
	<node id="9871666136" lat="69.0186101" lon="18.8165347" version="1" timestamp="2022-07-07T06:07:54Z" changeset="123301987" uid="3497659" user="NKA">
		<tag k="name" v="Birkeland" />
		<tag k="place" v="farm" />
		<tag k="ssr:stedsnr" v="139193" />
	</node>
	<node id="9871666137" lat="69.0339889" lon="18.8083027" version="1" timestamp="2022-07-07T06:07:54Z" changeset="123301987" uid="3497659" user="NKA">
		<tag k="name" v="Dalheim" />
		<tag k="place" v="farm" />
		<tag k="ssr:stedsnr" v="111343" />
	</node>
	<node id="9871666138" lat="69.0070555" lon="18.8417917" version="1" timestamp="2022-07-07T06:07:54Z" changeset="123301987" uid="3497659" user="NKA">
		<tag k="name" v="Sandvik" />
		<tag k="place" v="farm" />
		<tag k="ssr:stedsnr" v="19154" />
	</node>
	<node id="9871666139" lat="69.0234974" lon="18.8097685" version="1" timestamp="2022-07-07T06:07:54Z" changeset="123301987" uid="3497659" user="NKA">
		<tag k="alt_name" v="Grimsbu" />
		<tag k="name" v="Grimsbo" />
		<tag k="place" v="farm" />
		<tag k="ssr:stedsnr" v="139192" />
	</node>
	<node id="9871666140" lat="69.3545278" lon="18.5648444" version="1" timestamp="2022-07-07T06:07:54Z" changeset="123301987" uid="3497659" user="NKA">
		<tag k="name" v="Korris" />
		<tag k="place" v="hamlet" />
		<tag k="ssr:stedsnr" v="203261" />
	</node>
	<node id="9871666141" lat="68.9690667" lon="18.7879804" version="1" timestamp="2022-07-07T06:07:54Z" changeset="123301987" uid="3497659" user="NKA">
		<tag k="historic" v="shieling" />
		<tag k="name" v="Banelvdalssætra" />
		<tag k="place" v="isolated_dwelling" />
		<tag k="ssr:stedsnr" v="51917" />
	</node>
	<node id="9871666142" lat="69.227725" lon="18.2862139" version="1" timestamp="2022-07-07T06:07:54Z" changeset="123301987" uid="3497659" user="NKA">
		<tag k="name" v="Sandbakken" />
		<tag k="place" v="farm" />
		<tag k="ssr:stedsnr" v="321645" />
	</node>
	<node id="9871666143" lat="69.3555256" lon="18.5647392" version="1" timestamp="2022-07-07T06:07:54Z" changeset="123301987" uid="3497659" user="NKA">
		<tag k="name" v="Nygård" />
		<tag k="place" v="farm" />
		<tag k="ssr:stedsnr" v="446603" />
	</node>
	<node id="9871666144" lat="69.235425" lon="18.452625" version="1" timestamp="2022-07-07T06:07:54Z" changeset="123301987" uid="3497659" user="NKA">
		<tag k="name" v="Kringlemoen" />
		<tag k="place" v="farm" />
		<tag k="ssr:stedsnr" v="928644" />
	</node>
	<node id="9871666145" lat="69.2400555" lon="18.3508027" version="1" timestamp="2022-07-07T06:07:54Z" changeset="123301987" uid="3497659" user="NKA">
		<tag k="name" v="Rydeng" />
		<tag k="place" v="farm" />
		<tag k="ssr:stedsnr" v="17704" />
	</node>
	<node id="9871666146" lat="69.1880056" lon="18.4768472" version="1" timestamp="2022-07-07T06:07:54Z" changeset="123301987" uid="3497659" user="NKA">
		<tag k="historic" v="shieling" />
		<tag k="name" v="Peilen" />
		<tag k="place" v="isolated_dwelling" />
		<tag k="ssr:stedsnr" v="475780" />
	</node>
	<node id="9871666147" lat="69.1776624" lon="18.4349449" version="1" timestamp="2022-07-07T06:07:54Z" changeset="123301987" uid="3497659" user="NKA">
		<tag k="name" v="Møllerhaugen" />
		<tag k="place" v="hamlet" />
		<tag k="ssr:stedsnr" v="686732" />
	</node>
	<node id="9871666148" lat="69.2171666" lon="18.4423806" version="1" timestamp="2022-07-07T06:07:54Z" changeset="123301987" uid="3497659" user="NKA">
		<tag k="name" v="Holmsætra" />
		<tag k="place" v="farm" />
		<tag k="ssr:stedsnr" v="260735" />
	</node>
	<node id="9871666149" lat="69.1768553" lon="18.4617294" version="1" timestamp="2022-07-07T06:07:54Z" changeset="123301987" uid="3497659" user="NKA">
		<tag k="name" v="Granheim" />
		<tag k="place" v="farm" />
		<tag k="ssr:stedsnr" v="443515" />
	</node>
	<node id="9871666150" lat="69.1523056" lon="18.4592555" version="1" timestamp="2022-07-07T06:07:54Z" changeset="123301987" uid="3497659" user="NKA">
		<tag k="name" v="Sandbakksætra" />
		<tag k="place" v="isolated_dwelling" />
		<tag k="ssr:stedsnr" v="19521" />
	</node>
	<node id="9871666151" lat="69.218375" lon="18.3983361" version="1" timestamp="2022-07-07T06:07:54Z" changeset="123301987" uid="3497659" user="NKA">
		<tag k="historic" v="shieling" />
		<tag k="name" v="Litjestua" />
		<tag k="place" v="isolated_dwelling" />
		<tag k="ssr:stedsnr" v="232791" />
	</node>
	<node id="9871666152" lat="69.1410045" lon="18.3699503" version="1" timestamp="2022-07-07T06:07:54Z" changeset="123301987" uid="3497659" user="NKA">
		<tag k="name" v="Sommarro" />
		<tag k="place" v="locality" />
		<tag k="ssr:stedsnr" v="1077590" />
	</node>
	<node id="9871666153" lat="69.1957306" lon="18.4838083" version="1" timestamp="2022-07-07T06:07:54Z" changeset="123301987" uid="3497659" user="NKA">
		<tag k="name" v="Haugen" />
		<tag k="place" v="farm" />
		<tag k="ssr:stedsnr" v="564707" />
	</node>
	<node id="9871666154" lat="69.1743907" lon="18.4078057" version="1" timestamp="2022-07-07T06:07:54Z" changeset="123301987" uid="3497659" user="NKA">
		<tag k="name" v="Kvannlia" />
		<tag k="place" v="farm" />
		<tag k="ssr:stedsnr" v="807500" />
	</node>
	<node id="9871666155" lat="69.2208056" lon="18.4746001" version="1" timestamp="2022-07-07T06:07:54Z" changeset="123301987" uid="3497659" user="NKA">
		<tag k="name" v="Holmenes" />
		<tag k="place" v="farm" />
		<tag k="ssr:stedsnr" v="624689" />
	</node>
	<node id="9871666156" lat="69.22475" lon="18.4606834" version="1" timestamp="2022-07-07T06:07:54Z" changeset="123301987" uid="3497659" user="NKA">
		<tag k="name" v="Holmen" />
		<tag k="place" v="farm" />
		<tag k="ssr:stedsnr" v="563724" />
	</node>
	<node id="9871666157" lat="69.19515" lon="18.430611" version="1" timestamp="2022-07-07T06:07:54Z" changeset="123301987" uid="3497659" user="NKA">
		<tag k="name" v="Farmoen" />
		<tag k="place" v="isolated_dwelling" />
		<tag k="ssr:stedsnr" v="261709" />
	</node>
	<node id="9871666158" lat="69.235625" lon="18.4782751" version="1" timestamp="2022-07-07T06:07:54Z" changeset="123301987" uid="3497659" user="NKA">
		<tag k="name" v="Holmen" />
		<tag k="place" v="hamlet" />
		<tag k="ssr:stedsnr" v="624677" />
	</node>
	<node id="9871666159" lat="69.2199389" lon="18.3882666" version="1" timestamp="2022-07-07T06:07:54Z" changeset="123301987" uid="3497659" user="NKA">
		<tag k="historic" v="shieling" />
		<tag k="name" v="Hans-Voss-sætra" />
		<tag k="place" v="isolated_dwelling" />
		<tag k="ssr:stedsnr" v="172845" />
	</node>
	<node id="9871666160" lat="69.182325" lon="18.4459251" version="1" timestamp="2022-07-07T06:07:54Z" changeset="123301987" uid="3497659" user="NKA">
		<tag k="name" v="Bruvoll" />
		<tag k="place" v="farm" />
		<tag k="ssr:stedsnr" v="200713" />
	</node>
	<node id="9871666161" lat="69.1768028" lon="18.4639168" version="1" timestamp="2022-07-07T06:07:54Z" changeset="123301987" uid="3497659" user="NKA">
		<tag k="name" v="Myra" />
		<tag k="place" v="farm" />
		<tag k="ssr:stedsnr" v="51774" />
	</node>
	<node id="9871666162" lat="69.2346" lon="18.4770333" version="1" timestamp="2022-07-07T06:07:54Z" changeset="123301987" uid="3497659" user="NKA">
		<tag k="name" v="Sørgård" />
		<tag k="place" v="farm" />
		<tag k="ssr:stedsnr" v="79643" />
	</node>
	<node id="9871666163" lat="69.2228566" lon="18.3885096" version="1" timestamp="2022-07-07T06:07:54Z" changeset="123301987" uid="3497659" user="NKA">
		<tag k="name" v="Åsvang" />
		<tag k="place" v="farm" />
		<tag k="ssr:stedsnr" v="18637" />
	</node>
	<node id="9871666164" lat="69.2449639" lon="18.3655444" version="1" timestamp="2022-07-07T06:07:54Z" changeset="123301987" uid="3497659" user="NKA">
		<tag k="name" v="Rundmoen" />
		<tag k="place" v="farm" />
		<tag k="ssr:stedsnr" v="685649" />
	</node>
	<node id="9871666165" lat="69.241425" lon="18.4757999" version="1" timestamp="2022-07-07T06:07:54Z" changeset="123301987" uid="3497659" user="NKA">
		<tag k="name" v="Håpet" />
		<tag k="place" v="farm" />
		<tag k="ssr:stedsnr" v="745694" />
	</node>
	<node id="9871666166" lat="69.2371528" lon="18.5144806" version="1" timestamp="2022-07-07T06:07:54Z" changeset="123301987" uid="3497659" user="NKA">
		<tag k="name" v="Lunneborgmoen" />
		<tag k="place" v="farm" />
		<tag k="ssr:stedsnr" v="382662" />
	</node>
	<node id="9871666167" lat="69.2870292" lon="18.5371247" version="1" timestamp="2022-07-07T06:07:54Z" changeset="123301987" uid="3497659" user="NKA">
		<tag k="name" v="Nordnes" />
		<tag k="place" v="farm" />
		<tag k="ssr:stedsnr" v="686813" />
	</node>
	<node id="9871666168" lat="69.2404862" lon="18.4787793" version="1" timestamp="2022-07-07T06:07:54Z" changeset="123301987" uid="3497659" user="NKA">
		<tag k="name" v="Sommarbakken" />
		<tag k="place" v="farm" />
		<tag k="ssr:stedsnr" v="233031" />
	</node>
	<node id="9871666169" lat="69.2259185" lon="18.3815195" version="1" timestamp="2022-07-07T06:07:54Z" changeset="123301987" uid="3497659" user="NKA">
		<tag k="name" v="Anders-Persasætra" />
		<tag k="place" v="isolated_dwelling" />
		<tag k="ssr:stedsnr" v="382650" />
	</node>
	<node id="9871666170" lat="69.2427556" lon="18.5249001" version="1" timestamp="2022-07-07T06:07:54Z" changeset="123301987" uid="3497659" user="NKA">
		<tag k="name" v="Bjørkeli" />
		<tag k="place" v="farm" />
		<tag k="ssr:stedsnr" v="138693" />
	</node>
	<node id="9871666171" lat="69.2551556" lon="18.4579805" version="1" timestamp="2022-07-07T06:07:54Z" changeset="123301987" uid="3497659" user="NKA">
		<tag k="name" v="Myrbakksætra" />
		<tag k="place" v="locality" />
		<tag k="ssr:stedsnr" v="868807" />
	</node>
	<node id="9871666172" lat="69.2514611" lon="18.4833945" version="1" timestamp="2022-07-07T06:07:54Z" changeset="123301987" uid="3497659" user="NKA">
		<tag k="name" v="Tyttebærhaugen" />
		<tag k="place" v="farm" />
		<tag k="ssr:stedsnr" v="79830" />
	</node>
	<node id="9871666173" lat="69.2478468" lon="18.3834806" version="1" timestamp="2022-07-07T06:07:54Z" changeset="123301987" uid="3497659" user="NKA">
		<tag k="historic" v="shieling" />
		<tag k="name" v="Ol-Olsasætra" />
		<tag k="place" v="isolated_dwelling" />
		<tag k="ssr:stedsnr" v="841080" />
	</node>
	<node id="9871666174" lat="69.2452" lon="18.3791555" version="1" timestamp="2022-07-07T06:07:54Z" changeset="123301987" uid="3497659" user="NKA">
		<tag k="historic" v="shieling" />
		<tag k="name" v="Sørgårdsætra" />
		<tag k="place" v="isolated_dwelling" />
		<tag k="ssr:stedsnr" v="867672" />
	</node>
	<node id="9871666175" lat="69.2702097" lon="18.5367176" version="1" timestamp="2022-07-07T06:07:54Z" changeset="123301987" uid="3497659" user="NKA">
		<tag k="name" v="Grunnes" />
		<tag k="place" v="farm" />
		<tag k="ssr:stedsnr" v="201814" />
	</node>
	<node id="9871666176" lat="69.2333277" lon="18.311" version="1" timestamp="2022-07-07T06:07:54Z" changeset="123301987" uid="3497659" user="NKA">
		<tag k="name" v="Elvevollen" />
		<tag k="place" v="farm" />
		<tag k="ssr:stedsnr" v="807664" />
	</node>
	<node id="9871666177" lat="69.299325" lon="18.5432029" version="1" timestamp="2022-07-07T06:07:54Z" changeset="123301987" uid="3497659" user="NKA">
		<tag k="name" v="Nordstrand" />
		<tag k="place" v="farm" />
		<tag k="ssr:stedsnr" v="79806" />
	</node>
	<node id="9871666178" lat="69.2242306" lon="18.2713499" version="1" timestamp="2022-07-07T06:07:54Z" changeset="123301987" uid="3497659" user="NKA">
		<tag k="name" v="Blomli" />
		<tag k="place" v="farm" />
		<tag k="ssr:stedsnr" v="321653" />
	</node>
	<node id="9871666179" lat="69.230075" lon="18.2902721" version="1" timestamp="2022-07-07T06:07:54Z" changeset="123301987" uid="3497659" user="NKA">
		<tag k="name" v="Myrlia" />
		<tag k="place" v="farm" />
		<tag k="ssr:stedsnr" v="746647" />
	</node>
	<node id="9871666180" lat="69.226225" lon="18.2996221" version="1" timestamp="2022-07-07T06:07:54Z" changeset="123301987" uid="3497659" user="NKA">
		<tag k="name" v="Rydningen" />
		<tag k="place" v="farm" />
		<tag k="ssr:stedsnr" v="321643" />
	</node>
	<node id="9871666181" lat="69.2251243" lon="18.273799" version="1" timestamp="2022-07-07T06:07:54Z" changeset="123301987" uid="3497659" user="NKA">
		<tag k="name" v="Rydningen" />
		<tag k="place" v="farm" />
		<tag k="ssr:stedsnr" v="200672" />
	</node>
	<node id="9871666182" lat="68.9553985" lon="18.9354683" version="1" timestamp="2022-07-07T06:07:54Z" changeset="123301987" uid="3497659" user="NKA">
		<tag k="name" v="Bjørnstad" />
		<tag k="place" v="hamlet" />
		<tag k="ssr:stedsnr" v="928335" />
	</node>
	<node id="9871666183" lat="69.0393917" lon="18.909764" version="1" timestamp="2022-07-07T06:07:54Z" changeset="123301987" uid="3497659" user="NKA">
		<tag k="historic" v="shieling" />
		<tag k="name" v="Løvhaughytta" />
		<tag k="place" v="isolated_dwelling" />
		<tag k="ssr:stedsnr" v="961367" />
	</node>
	<node id="9871666184" lat="69.0529611" lon="18.7335527" version="1" timestamp="2022-07-07T06:07:54Z" changeset="123301987" uid="3497659" user="NKA">
		<tag k="name" v="Furom" />
		<tag k="place" v="farm" />
		<tag k="ssr:stedsnr" v="685220" />
	</node>
	<node id="9871666185" lat="69.0358611" lon="18.9114278" version="1" timestamp="2022-07-07T06:07:54Z" changeset="123301987" uid="3497659" user="NKA">
		<tag k="historic" v="shieling" />
		<tag k="name" v="Hannasætra" />
		<tag k="place" v="isolated_dwelling" />
		<tag k="ssr:stedsnr" v="901356" />
	</node>
	<node id="9871666186" lat="69.0225386" lon="18.8015698" version="1" timestamp="2022-07-07T06:07:54Z" changeset="123301987" uid="3497659" user="NKA">
		<tag k="name" v="Gammelgården" />
		<tag k="place" v="farm" />
		<tag k="ssr:stedsnr" v="596182" />
	</node>
	<node id="9871666187" lat="68.9210778" lon="18.9720861" version="1" timestamp="2022-07-07T06:07:54Z" changeset="123301987" uid="3497659" user="NKA">
		<tag k="name" v="Sageng" />
		<tag k="place" v="farm" />
		<tag k="ssr:stedsnr" v="503324" />
	</node>
	<node id="9871666188" lat="68.9106972" lon="18.8944806" version="1" timestamp="2022-07-07T06:07:54Z" changeset="123301987" uid="3497659" user="NKA">
		<tag k="historic" v="shieling" />
		<tag k="name" v="Bakkehaugsætra" />
		<tag k="place" v="isolated_dwelling" />
		<tag k="ssr:stedsnr" v="503318" />
	</node>
	<node id="9871666189" lat="68.9867347" lon="18.8990986" version="1" timestamp="2022-07-07T06:07:54Z" changeset="123301987" uid="3497659" user="NKA">
		<tag k="name" v="Liland" />
		<tag k="place" v="farm" />
		<tag k="ssr:stedsnr" v="321393" />
	</node>
	<node id="9871666190" lat="69.0030789" lon="18.9557707" version="1" timestamp="2022-07-07T06:07:54Z" changeset="123301987" uid="3497659" user="NKA">
		<tag k="name" v="Lilleng" />
		<tag k="place" v="farm" />
		<tag k="ssr:stedsnr" v="746163" />
	</node>
	<node id="9871666191" lat="69.254225" lon="18.675014" version="1" timestamp="2022-07-07T06:07:54Z" changeset="123301987" uid="3497659" user="NKA">
		<tag k="name" v="Åkermoen" />
		<tag k="place" v="farm" />
		<tag k="ssr:stedsnr" v="504035" />
	</node>
	<node id="9871666192" lat="69.2491753" lon="18.6805945" version="1" timestamp="2022-07-07T06:07:54Z" changeset="123301987" uid="3497659" user="NKA">
		<tag k="name" v="Skogly" />
		<tag k="place" v="farm" />
		<tag k="ssr:stedsnr" v="503866" />
	</node>
	<node id="9871666193" lat="69.2507111" lon="18.6841" version="1" timestamp="2022-07-07T06:07:54Z" changeset="123301987" uid="3497659" user="NKA">
		<tag k="name" v="Sandmoen" />
		<tag k="place" v="farm" />
		<tag k="ssr:stedsnr" v="322056" />
	</node>
	<node id="9871666194" lat="69.3104315" lon="18.5460526" version="1" timestamp="2022-07-07T06:07:54Z" changeset="123301987" uid="3497659" user="NKA">
		<tag k="name" v="Målsrud" />
		<tag k="place" v="isolated_dwelling" />
		<tag k="ssr:stedsnr" v="929803" />
	</node>
	<node id="9871666195" lat="69.0981278" lon="18.4916723" version="1" timestamp="2022-07-07T06:07:54Z" changeset="123301987" uid="3497659" user="NKA">
		<tag k="name" v="Slåtthaugen" />
		<tag k="place" v="farm" />
		<tag k="ssr:stedsnr" v="328524" />
	</node>
	<node id="9871666196" lat="69.0639619" lon="18.4971227" version="1" timestamp="2022-07-07T06:07:54Z" changeset="123301987" uid="3497659" user="NKA">
		<tag k="name" v="Rustalia" />
		<tag k="place" v="farm" />
		<tag k="ssr:stedsnr" v="935551" />
	</node>
	<node id="9871666197" lat="69.0767662" lon="18.5408651" version="1" timestamp="2022-07-07T06:07:54Z" changeset="123301987" uid="3497659" user="NKA">
		<tag k="loc_name" v="Brogestad" />
		<tag k="name" v="Borgestad" />
		<tag k="place" v="farm" />
		<tag k="ssr:stedsnr" v="443594" />
	</node>
	<node id="9871666198" lat="69.073508" lon="18.5306953" version="1" timestamp="2022-07-07T06:07:54Z" changeset="123301987" uid="3497659" user="NKA">
		<tag k="name" v="Andselv" />
		<tag k="place" v="suburb" />
		<tag k="ssr:stedsnr" v="201884" />
	</node>
	<node id="9871666199" lat="69.0555869" lon="18.4898437" version="1" timestamp="2022-07-07T06:07:54Z" changeset="123301987" uid="3497659" user="NKA">
		<tag k="name" v="Rustahøgda" />
		<tag k="place" v="quarter" />
		<tag k="ssr:stedsnr" v="145529" />
	</node>
	<node id="9871666200" lat="69.0535" lon="18.6191027" version="1" timestamp="2022-07-07T06:07:54Z" changeset="123301987" uid="3497659" user="NKA">
		<tag k="name" v="Midtgård" />
		<tag k="place" v="farm" />
		<tag k="ssr:stedsnr" v="929209" />
	</node>
	<node id="9871666201" lat="69.0729306" lon="18.5331471" version="1" timestamp="2022-07-07T06:07:54Z" changeset="123301987" uid="3497659" user="NKA">
		<tag k="name" v="Ulvestad" />
		<tag k="place" v="farm" />
		<tag k="ssr:stedsnr" v="19882" />
	</node>
	<node id="9871666202" lat="69.0591333" lon="18.7049251" version="1" timestamp="2022-07-07T06:07:54Z" changeset="123301987" uid="3497659" user="NKA">
		<tag k="name" v="Molund" />
		<tag k="place" v="farm" />
		<tag k="ssr:stedsnr" v="746219" />
	</node>
	<node id="9871666203" lat="69.0631861" lon="18.6770721" version="1" timestamp="2022-07-07T06:07:54Z" changeset="123301987" uid="3497659" user="NKA">
		<tag k="name" v="Søreng" />
		<tag k="place" v="farm" />
		<tag k="ssr:stedsnr" v="807834" />
	</node>
	<node id="9871666204" lat="69.0667806" lon="18.6468306" version="1" timestamp="2022-07-07T06:07:54Z" changeset="123301987" uid="3497659" user="NKA">
		<tag k="alt_name" v="Lermo" />
		<tag k="name" v="Leirmoen" />
		<tag k="place" v="locality" />
		<tag k="ssr:stedsnr" v="686836" />
	</node>
	<node id="9871666205" lat="69.0398028" lon="18.8636612" version="1" timestamp="2022-07-07T06:07:54Z" changeset="123301987" uid="3497659" user="NKA">
		<tag k="historic" v="shieling" />
		<tag k="name" v="Rognlisætra" />
		<tag k="place" v="isolated_dwelling" />
		<tag k="ssr:stedsnr" v="779348" />
	</node>
	<node id="9871666206" lat="69.0634701" lon="18.5576329" version="1" timestamp="2022-07-07T06:07:54Z" changeset="123301987" uid="3497659" user="NKA">
		<tag k="name" v="Nylund" />
		<tag k="place" v="farm" />
		<tag k="ssr:stedsnr" v="443884" />
	</node>
	<node id="9871666207" lat="69.0468556" lon="18.6506222" version="1" timestamp="2022-07-07T06:07:54Z" changeset="123301987" uid="3497659" user="NKA">
		<tag k="alt_name" v="Foshaugen" />
		<tag k="name" v="Fosshaugen" />
		<tag k="place" v="farm" />
		<tag k="ssr:stedsnr" v="685214" />
	</node>
	<node id="9871666208" lat="69.0430546" lon="18.7638237" version="1" timestamp="2022-07-07T06:07:54Z" changeset="123301987" uid="3497659" user="NKA">
		<tag k="name" v="Myre" />
		<tag k="place" v="farm" />
		<tag k="ssr:stedsnr" v="321230" />
	</node>
	<node id="9871666209" lat="69.0364315" lon="18.8007071" version="1" timestamp="2022-07-07T06:07:54Z" changeset="123301987" uid="3497659" user="NKA">
		<tag k="name" v="Maukdal" />
		<tag k="place" v="hamlet" />
		<tag k="ssr:stedsnr" v="443228" />
	</node>
	<node id="9871666210" lat="69.0363476" lon="18.7869067" version="1" timestamp="2022-07-07T06:07:54Z" changeset="123301987" uid="3497659" user="NKA">
		<tag k="name" v="Rismo" />
		<tag k="place" v="farm" />
		<tag k="ssr:stedsnr" v="1080017" />
	</node>
	<node id="9871666211" lat="69.0324556" lon="18.8115944" version="1" timestamp="2022-07-07T06:07:54Z" changeset="123301987" uid="3497659" user="NKA">
		<tag k="name" v="Kvammen" />
		<tag k="place" v="farm" />
		<tag k="ssr:stedsnr" v="139237" />
	</node>
	<node id="9871666212" lat="69.0659821" lon="18.578322" version="1" timestamp="2022-07-07T06:07:54Z" changeset="123301987" uid="3497659" user="NKA">
		<tag k="name" v="Brannskognes" />
		<tag k="place" v="hamlet" />
		<tag k="ssr:stedsnr" v="868876" />
	</node>
	<node id="9871666213" lat="69.0480167" lon="18.6163722" version="1" timestamp="2022-07-07T06:07:54Z" changeset="123301987" uid="3497659" user="NKA">
		<tag k="name" v="Årskog" />
		<tag k="place" v="farm" />
		<tag k="ssr:stedsnr" v="79862" />
	</node>
	<node id="9871666214" lat="69.0456076" lon="18.5939107" version="1" timestamp="2022-07-07T06:07:54Z" changeset="123301987" uid="3497659" user="NKA">
		<tag k="name" v="Fossmoen" />
		<tag k="place" v="hamlet" />
		<tag k="ssr:stedsnr" v="868842" />
	</node>
	<node id="9871666215" lat="69.0459704" lon="18.5954453" version="1" timestamp="2022-07-07T06:07:54Z" changeset="123301987" uid="3497659" user="NKA">
		<tag k="name" v="Bardufossmoen" />
		<tag k="old_name" v="Bardofossmoen" />
		<tag k="place" v="farm" />
		<tag k="ssr:stedsnr" v="1077587" />
	</node>
	<node id="9871666216" lat="69.0660108" lon="18.5716146" version="1" timestamp="2022-07-07T06:07:54Z" changeset="123301987" uid="3497659" user="NKA">
		<tag k="name" v="Brandskognes" />
		<tag k="place" v="farm" />
		<tag k="ssr:stedsnr" v="849110" />
	</node>
	<node id="9871666217" lat="69.0452028" lon="18.6700779" version="1" timestamp="2022-07-07T06:07:54Z" changeset="123301987" uid="3497659" user="NKA">
		<tag k="name" v="Bjørndal" />
		<tag k="place" v="farm" />
		<tag k="ssr:stedsnr" v="111138" />
	</node>
	<node id="9871666218" lat="69.0398804" lon="18.5933695" version="1" timestamp="2022-07-07T06:07:54Z" changeset="123301987" uid="3497659" user="NKA">
		<tag k="name" v="Haugan" />
		<tag k="place" v="farm" />
		<tag k="ssr:stedsnr" v="536958" />
	</node>
	<node id="9871666219" lat="69.1212223" lon="18.7518888" version="1" timestamp="2022-07-07T06:07:54Z" changeset="123301987" uid="3497659" user="NKA">
		<tag k="name" v="Solør" />
		<tag k="place" v="farm" />
		<tag k="ssr:stedsnr" v="929837" />
	</node>
	<node id="9871666220" lat="69.0404279" lon="18.6363069" version="1" timestamp="2022-07-07T06:07:54Z" changeset="123301987" uid="3497659" user="NKA">
		<tag k="name" v="Elvskiftnes" />
		<tag k="place" v="farm" />
		<tag k="ssr:stedsnr" v="139247" />
	</node>
	<node id="9871666221" lat="69.0751108" lon="18.5412157" version="1" timestamp="2022-07-07T06:07:54Z" changeset="123301987" uid="3497659" user="NKA">
		<tag k="name" v="Fagerlidalen" />
		<tag k="place" v="farm" />
		<tag k="ssr:stedsnr" v="747892" />
	</node>
	<node id="9871666222" lat="69.1110306" lon="18.7803945" version="1" timestamp="2022-07-07T06:07:54Z" changeset="123301987" uid="3497659" user="NKA">
		<tag k="name" v="Aspestrand" />
		<tag k="place" v="farm" />
		<tag k="ssr:stedsnr" v="929819" />
	</node>
	<node id="9871666223" lat="69.1145861" lon="18.847914" version="1" timestamp="2022-07-07T06:07:54Z" changeset="123301987" uid="3497659" user="NKA">
		<tag k="name" v="Bjørkhaug" />
		<tag k="place" v="farm" />
		<tag k="ssr:stedsnr" v="686807" />
	</node>
	<node id="9871666224" lat="69.074525" lon="18.6725084" version="1" timestamp="2022-07-07T06:07:54Z" changeset="123301987" uid="3497659" user="NKA">
		<tag k="name" v="Gammelgården" />
		<tag k="place" v="locality" />
		<tag k="ssr:stedsnr" v="718661" />
	</node>
	<node id="9871666225" lat="69.1081837" lon="18.6375049" version="1" timestamp="2022-07-07T06:07:54Z" changeset="123301987" uid="3497659" user="NKA">
		<tag k="name" v="Fredriksberg" />
		<tag k="place" v="hamlet" />
		<tag k="ssr:stedsnr" v="504819" />
	</node>
	<node id="9871666226" lat="69.1127518" lon="18.6124137" version="1" timestamp="2022-07-07T06:07:54Z" changeset="123301987" uid="3497659" user="NKA">
		<tag k="alt_name" v="Fleskmoen, nedre;Fleskmo nedre" />
		<tag k="name" v="Nedre Fleskmoen" />
		<tag k="place" v="farm" />
		<tag k="ssr:stedsnr" v="321551" />
	</node>
	<node id="9871666227" lat="69.1193088" lon="18.5817404" version="1" timestamp="2022-07-07T06:07:54Z" changeset="123301987" uid="3497659" user="NKA">
		<tag k="alt_name" v="Krokseng" />
		<tag k="name" v="Krogseng" />
		<tag k="place" v="farm" />
		<tag k="ssr:stedsnr" v="443582" />
	</node>
	<node id="9871666228" lat="69.1316278" lon="18.6008872" version="1" timestamp="2022-07-07T06:07:54Z" changeset="123301987" uid="3497659" user="NKA">
		<tag k="name" v="Nermo" />
		<tag k="place" v="farm" />
		<tag k="ssr:stedsnr" v="1085108" />
	</node>
	<node id="9871666229" lat="69.1092022" lon="18.8513974" version="1" timestamp="2022-07-07T06:07:54Z" changeset="123301987" uid="3497659" user="NKA">
		<tag k="alt_name" v="Toftåker" />
		<tag k="name" v="Toftaker" />
		<tag k="place" v="farm" />
		<tag k="ssr:stedsnr" v="261794" />
	</node>
	<node id="9871666230" lat="69.0830306" lon="18.7165083" version="1" timestamp="2022-07-07T06:07:54Z" changeset="123301987" uid="3497659" user="NKA">
		<tag k="historic" v="shieling" />
		<tag k="name" v="Lamosætra" />
		<tag k="place" v="isolated_dwelling" />
		<tag k="ssr:stedsnr" v="51162" />
	</node>
	<node id="9871666231" lat="69.0917305" lon="18.6282084" version="1" timestamp="2022-07-07T06:07:54Z" changeset="123301987" uid="3497659" user="NKA">
		<tag k="name" v="Nyberg" />
		<tag k="place" v="farm" />
		<tag k="ssr:stedsnr" v="79852" />
	</node>
	<node id="9871666232" lat="69.0827028" lon="18.5761055" version="1" timestamp="2022-07-07T06:07:54Z" changeset="123301987" uid="3497659" user="NKA">
		<tag k="name" v="Heimdal" />
		<tag k="place" v="farm" />
		<tag k="ssr:stedsnr" v="201579" />
	</node>
	<node id="9871666233" lat="69.1059574" lon="18.6131897" version="1" timestamp="2022-07-07T06:07:54Z" changeset="123301987" uid="3497659" user="NKA">
		<tag k="alt_name" v="Fleskmoen, øvre;Fleskmo øvre" />
		<tag k="name" v="Øvre Fleskmoen" />
		<tag k="place" v="farm" />
		<tag k="ssr:stedsnr" v="18543" />
	</node>
	<node id="9871666234" lat="69.0762344" lon="18.537919" version="1" timestamp="2022-07-07T06:07:54Z" changeset="123301987" uid="3497659" user="NKA">
		<tag k="name" v="Krokbekken" />
		<tag k="place" v="neighbourhood" />
		<tag k="ssr:stedsnr" v="1076302" />
	</node>
	<node id="9871666235" lat="69.0755962" lon="18.6767933" version="1" timestamp="2022-07-07T06:07:54Z" changeset="123301987" uid="3497659" user="NKA">
		<tag k="name" v="Rognmoen" />
		<tag k="place" v="hamlet" />
		<tag k="ssr:stedsnr" v="1075774" />
	</node>
	<node id="9871666236" lat="69.0877164" lon="18.5971665" version="1" timestamp="2022-07-07T06:07:54Z" changeset="123301987" uid="3497659" user="NKA">
		<tag k="name" v="Utrapet" />
		<tag k="place" v="farm" />
		<tag k="ssr:stedsnr" v="718879" />
	</node>
	<node id="9871666237" lat="69.0810292" lon="18.5647012" version="1" timestamp="2022-07-07T06:07:54Z" changeset="123301987" uid="3497659" user="NKA">
		<tag k="name" v="Fagerli" />
		<tag k="place" v="farm" />
		<tag k="ssr:stedsnr" v="1072460" />
	</node>
	<node id="9871666238" lat="69.0708056" lon="18.538589" version="1" timestamp="2022-07-07T06:07:54Z" changeset="123301987" uid="3497659" user="NKA">
		<tag k="name" v="Fagerlidal" />
		<tag k="place" v="farm" />
		<tag k="ssr:stedsnr" v="657823" />
	</node>
	<node id="9871666239" lat="69.0743562" lon="18.6773731" version="1" timestamp="2022-07-07T06:07:54Z" changeset="123301987" uid="3497659" user="NKA">
		<tag k="alt_name" v="Rognmoen, s;Rognmoen søndre" />
		<tag k="name" v="Søndre Rognmoen" />
		<tag k="place" v="farm" />
		<tag k="ssr:stedsnr" v="140857" />
	</node>
	<node id="9871666240" lat="69.11405" lon="18.623761" version="1" timestamp="2022-07-07T06:07:54Z" changeset="123301987" uid="3497659" user="NKA">
		<tag k="name" v="Klengestua" />
		<tag k="place" v="farm" />
		<tag k="ssr:stedsnr" v="840478" />
	</node>
	<node id="9871666241" lat="69.0774071" lon="18.6669596" version="1" timestamp="2022-07-07T06:07:54Z" changeset="123301987" uid="3497659" user="NKA">
		<tag k="alt_name" v="Rognmoen, nordre" />
		<tag k="name" v="Nordre Rognmoen" />
		<tag k="place" v="farm" />
		<tag k="ssr:stedsnr" v="79839" />
	</node>
	<node id="9871666242" lat="69.0802964" lon="18.5604978" version="1" timestamp="2022-07-07T06:07:54Z" changeset="123301987" uid="3497659" user="NKA">
		<tag k="name" v="Øverli" />
		<tag k="place" v="farm" />
		<tag k="ssr:stedsnr" v="139609" />
	</node>
	<node id="9871666243" lat="69.077425" lon="18.6513055" version="1" timestamp="2022-07-07T06:07:54Z" changeset="123301987" uid="3497659" user="NKA">
		<tag k="name" v="Utgård" />
		<tag k="place" v="farm" />
		<tag k="ssr:stedsnr" v="19856" />
	</node>
	<node id="9871666244" lat="69.087048" lon="18.6145609" version="1" timestamp="2022-07-07T06:07:54Z" changeset="123301987" uid="3497659" user="NKA">
		<tag k="name" v="Brannskogsand" />
		<tag k="place" v="farm" />
		<tag k="ssr:stedsnr" v="51889" />
	</node>
	<node id="9871666245" lat="69.1896568" lon="18.4979977" version="1" timestamp="2022-07-07T06:07:54Z" changeset="123301987" uid="3497659" user="NKA">
		<tag k="alt_name" v="Rossvoll, nedre;Rossvoll Nedre" />
		<tag k="name" v="Nedre Rossvoll" />
		<tag k="place" v="farm" />
		<tag k="ssr:stedsnr" v="746683" />
	</node>
	<node id="9871666246" lat="69.1645" lon="18.5176778" version="1" timestamp="2022-07-07T06:07:54Z" changeset="123301987" uid="3497659" user="NKA">
		<tag k="name" v="Lamoen" />
		<tag k="place" v="farm" />
		<tag k="ssr:stedsnr" v="929497" />
	</node>
	<node id="9871666247" lat="69.1862778" lon="18.5016222" version="1" timestamp="2022-07-07T06:07:54Z" changeset="123301987" uid="3497659" user="NKA">
		<tag k="name" v="Akervoll" />
		<tag k="place" v="farm" />
		<tag k="ssr:stedsnr" v="321706" />
	</node>
	<node id="9871666248" lat="69.1907857" lon="18.4908231" version="1" timestamp="2022-07-07T06:07:54Z" changeset="123301987" uid="3497659" user="NKA">
		<tag k="name" v="Rossvoll" />
		<tag k="place" v="hamlet" />
		<tag k="ssr:stedsnr" v="453227" />
	</node>
	<node id="9871666249" lat="69.16665" lon="18.5173" version="1" timestamp="2022-07-07T06:07:54Z" changeset="123301987" uid="3497659" user="NKA">
		<tag k="name" v="Stormoen" />
		<tag k="place" v="farm" />
		<tag k="ssr:stedsnr" v="625497" />
	</node>
	<node id="9871666250" lat="69.2012861" lon="18.4989723" version="1" timestamp="2022-07-07T06:07:54Z" changeset="123301987" uid="3497659" user="NKA">
		<tag k="name" v="Forberg" />
		<tag k="place" v="farm" />
		<tag k="ssr:stedsnr" v="321691" />
	</node>
	<node id="9871666251" lat="69.1855122" lon="18.5243183" version="1" timestamp="2022-07-07T06:07:54Z" changeset="123301987" uid="3497659" user="NKA">
		<tag k="alt_name" v="Øvervollen" />
		<tag k="name" v="Øvre Rossvoll" />
		<tag k="place" v="hamlet" />
		<tag k="ssr:stedsnr" v="451902" />
	</node>
	<node id="9871666252" lat="69.3102416" lon="18.5877973" version="1" timestamp="2022-07-07T06:07:54Z" changeset="123301987" uid="3497659" user="NKA">
		<tag k="name" v="Skog" />
		<tag k="place" v="farm" />
		<tag k="ssr:stedsnr" v="806419" />
	</node>
	<node id="9871666253" lat="69.3252806" lon="18.5699631" version="1" timestamp="2022-07-07T06:07:54Z" changeset="123301987" uid="3497659" user="NKA">
		<tag k="name" v="Eidtun" />
		<tag k="place" v="farm" />
		<tag k="ssr:stedsnr" v="950857" />
	</node>
	<node id="9871666254" lat="69.332822" lon="18.5793606" version="1" timestamp="2022-07-07T06:07:54Z" changeset="123301987" uid="3497659" user="NKA">
		<tag k="name" v="Ytre Navaren" />
		<tag k="place" v="farm" />
		<tag k="ssr:stedsnr" v="21213" />
	</node>
	<node id="9871666255" lat="69.3276941" lon="18.5722314" version="1" timestamp="2022-07-07T06:07:54Z" changeset="123301987" uid="3497659" user="NKA">
		<tag k="name" v="Navaren" />
		<tag k="place" v="hamlet" />
		<tag k="ssr:stedsnr" v="443761" />
	</node>
	<node id="9871666256" lat="69.319995" lon="18.5663696" version="1" timestamp="2022-07-07T06:07:54Z" changeset="123301987" uid="3497659" user="NKA">
		<tag k="name" v="Eidet" />
		<tag k="place" v="hamlet" />
		<tag k="ssr:stedsnr" v="404858" />
	</node>
	<node id="9871666257" lat="69.3146333" lon="18.5784749" version="1" timestamp="2022-07-07T06:07:54Z" changeset="123301987" uid="3497659" user="NKA">
		<tag k="name" v="Maritheimen" />
		<tag k="place" v="locality" />
		<tag k="ssr:stedsnr" v="416218" />
	</node>
	<node id="9871666258" lat="69.3114169" lon="18.5824593" version="1" timestamp="2022-07-07T06:07:54Z" changeset="123301987" uid="3497659" user="NKA">
		<tag k="name" v="Indre Navaren" />
		<tag k="place" v="farm" />
		<tag k="ssr:stedsnr" v="19800" />
	</node>
	<node id="9871666259" lat="69.263603" lon="18.6923359" version="1" timestamp="2022-07-07T06:07:54Z" changeset="123301987" uid="3497659" user="NKA">
		<tag k="alt_name" v="Sørelvmo" />
		<tag k="name" v="Sørelvmoen" />
		<tag k="place" v="farm" />
		<tag k="ssr:stedsnr" v="321052" />
	</node>
	<node id="9871666260" lat="69.3184546" lon="18.5670367" version="1" timestamp="2022-07-07T06:07:54Z" changeset="123301987" uid="3497659" user="NKA">
		<tag k="name" v="Eidland" />
		<tag k="place" v="farm" />
		<tag k="ssr:stedsnr" v="464879" />
	</node>
	<node id="9871666261" lat="69.2718864" lon="18.6949132" version="1" timestamp="2022-07-07T06:07:54Z" changeset="123301987" uid="3497659" user="NKA">
		<tag k="name" v="Keianes" />
		<tag k="place" v="hamlet" />
		<tag k="ssr:stedsnr" v="26859" />
	</node>
	<node id="9871666262" lat="69.2528028" lon="18.559825" version="1" timestamp="2022-07-07T06:07:54Z" changeset="123301987" uid="3497659" user="NKA">
		<tag k="name" v="Høyli" />
		<tag k="place" v="farm" />
		<tag k="ssr:stedsnr" v="746802" />
	</node>
	<node id="9871666263" lat="69.27685" lon="18.5400528" version="1" timestamp="2022-07-07T06:07:54Z" changeset="123301987" uid="3497659" user="NKA">
		<tag k="name" v="Nyset" />
		<tag k="place" v="farm" />
		<tag k="ssr:stedsnr" v="625830" />
	</node>
	<node id="9871666264" lat="69.2574166" lon="18.6932528" version="1" timestamp="2022-07-07T06:07:54Z" changeset="123301987" uid="3497659" user="NKA">
		<tag k="name" v="Nedrum" />
		<tag k="place" v="farm" />
		<tag k="ssr:stedsnr" v="503055" />
	</node>
	<node id="9871666265" lat="69.2513944" lon="18.5632304" version="1" timestamp="2022-07-07T06:07:54Z" changeset="123301987" uid="3497659" user="NKA">
		<tag k="historic" v="shieling" />
		<tag k="name" v="Estersætra" />
		<tag k="place" v="isolated_dwelling" />
		<tag k="ssr:stedsnr" v="476235" />
	</node>
	<node id="9871666266" lat="69.2589833" lon="18.6877971" version="1" timestamp="2022-07-07T06:07:54Z" changeset="123301987" uid="3497659" user="NKA">
		<tag k="alt_name" v="Løvheim" />
		<tag k="name" v="Lauvheim" />
		<tag k="place" v="farm" />
		<tag k="ssr:stedsnr" v="868046" />
	</node>
	<node id="9871666267" lat="69.2543778" lon="18.5564251" version="1" timestamp="2022-07-07T06:07:54Z" changeset="123301987" uid="3497659" user="NKA">
		<tag k="name" v="Høybu" />
		<tag k="place" v="farm" />
		<tag k="ssr:stedsnr" v="443822" />
	</node>
	<node id="9871666268" lat="69.2492173" lon="18.6856981" version="1" timestamp="2022-07-07T06:07:54Z" changeset="123301987" uid="3497659" user="NKA">
		<tag k="name" v="Molund" />
		<tag k="place" v="farm" />
		<tag k="ssr:stedsnr" v="321890" />
	</node>
	<node id="9871666269" lat="69.2527279" lon="18.6857332" version="1" timestamp="2022-07-07T06:07:54Z" changeset="123301987" uid="3497659" user="NKA">
		<tag k="name" v="Aursfjordbotn" />
		<tag k="place" v="hamlet" />
		<tag k="ssr:stedsnr" v="322042" />
	</node>
	<node id="9871666270" lat="68.9756374" lon="19.6547757" version="1" timestamp="2022-07-07T06:07:54Z" changeset="123301987" uid="3497659" user="NKA">
		<tag k="name" v="Sæternes" />
		<tag k="place" v="farm" />
		<tag k="ssr:stedsnr" v="476950" />
	</node>
	<node id="9871666271" lat="68.9786583" lon="19.6628" version="1" timestamp="2022-07-07T06:07:54Z" changeset="123301987" uid="3497659" user="NKA">
		<tag k="name" v="Heimly" />
		<tag k="place" v="farm" />
		<tag k="ssr:stedsnr" v="806227" />
	</node>
	<node id="9871666272" lat="68.9723722" lon="19.6752584" version="1" timestamp="2022-07-07T06:07:54Z" changeset="123301987" uid="3497659" user="NKA">
		<tag k="name" v="Åsvang" />
		<tag k="place" v="farm" />
		<tag k="ssr:stedsnr" v="442262" />
	</node>
	<node id="9871666273" lat="68.966825" lon="19.6911473" version="1" timestamp="2022-07-07T06:07:54Z" changeset="123301987" uid="3497659" user="NKA">
		<tag k="name" v="Fagernes" />
		<tag k="place" v="farm" />
		<tag k="ssr:stedsnr" v="381262" />
	</node>
	<node id="9871666274" lat="68.9649139" lon="19.6608" version="1" timestamp="2022-07-07T06:07:54Z" changeset="123301987" uid="3497659" user="NKA">
		<tag k="name" v="Sørmo" />
		<tag k="place" v="farm" />
		<tag k="ssr:stedsnr" v="503204" />
	</node>
	<node id="9871666275" lat="68.9750479" lon="19.6649315" version="1" timestamp="2022-07-07T06:07:54Z" changeset="123301987" uid="3497659" user="NKA">
		<tag k="alt_name" v="Rostad" />
		<tag k="name" v="Rosta" />
		<tag k="place" v="hamlet" />
		<tag k="ssr:stedsnr" v="867257" />
	</node>
	<node id="9871666276" lat="68.7612644" lon="19.7127934" version="1" timestamp="2022-07-07T06:07:54Z" changeset="123301987" uid="3497659" user="NKA">
		<tag k="alt_name" v="Vetlenesbua" />
		<tag k="loc_name" v="Vetlnesbua" />
		<tag k="name" v="Veslnesbua" />
		<tag k="place" v="isolated_dwelling" />
		<tag k="ssr:stedsnr" v="745158" />
	</node>
	<node id="9871666277" lat="68.9686889" lon="19.6862665" version="1" timestamp="2022-07-07T06:07:54Z" changeset="123301987" uid="3497659" user="NKA">
		<tag k="name" v="Sandnes" />
		<tag k="place" v="farm" />
		<tag k="ssr:stedsnr" v="503202" />
	</node>
	<node id="9871666278" lat="68.8600834" lon="19.1392443" version="1" timestamp="2022-07-07T06:07:54Z" changeset="123301987" uid="3497659" user="NKA">
		<tag k="name" v="Bjørkåssætra" />
		<tag k="place" v="locality" />
		<tag k="ssr:stedsnr" v="503283" />
	</node>
	<node id="9871666279" lat="68.9114834" lon="19.0015917" version="1" timestamp="2022-07-07T06:07:54Z" changeset="123301987" uid="3497659" user="NKA">
		<tag k="name" v="Midttun" />
		<tag k="place" v="farm" />
		<tag k="ssr:stedsnr" v="503316" />
	</node>
	<node id="9871666280" lat="68.819532" lon="19.6447053" version="1" timestamp="2022-07-07T06:07:54Z" changeset="123301987" uid="3497659" user="NKA">
		<tag k="name" v="Fiskbergbua" />
		<tag k="place" v="locality" />
		<tag k="ssr:stedsnr" v="294974" />
	</node>
	<node id="9871666281" lat="68.8738111" lon="19.5533139" version="1" timestamp="2022-07-07T06:07:54Z" changeset="123301987" uid="3497659" user="NKA">
		<tag k="name" v="Svalheim" />
		<tag k="place" v="farm" />
		<tag k="ssr:stedsnr" v="18150" />
	</node>
	<node id="9871666282" lat="69.2359333" lon="18.6819111" version="1" timestamp="2022-07-07T06:07:54Z" changeset="123301987" uid="3497659" user="NKA">
		<tag k="name" v="Moen nedre" />
		<tag k="place" v="farm" />
		<tag k="ssr:stedsnr" v="901148" />
	</node>
	<node id="9871666283" lat="69.0991081" lon="18.6271703" version="1" timestamp="2022-07-07T06:07:54Z" changeset="123301987" uid="3497659" user="NKA">
		<tag k="name" v="Bakkelund" />
		<tag k="place" v="farm" />
		<tag k="ssr:stedsnr" v="929813" />
	</node>
	<node id="9871666284" lat="69.2119609" lon="18.6562789" version="1" timestamp="2022-07-07T06:07:54Z" changeset="123301987" uid="3497659" user="NKA">
		<tag k="alt_name" v="Moen øvre" />
		<tag k="name" v="Øvermoen" />
		<tag k="place" v="farm" />
		<tag k="ssr:stedsnr" v="900297" />
	</node>
	<node id="9871666285" lat="69.2123695" lon="18.6807306" version="1" timestamp="2022-07-07T06:07:54Z" changeset="123301987" uid="3497659" user="NKA">
		<tag k="name" v="Gammalgården" />
		<tag k="place" v="farm" />
		<tag k="ssr:stedsnr" v="746937" />
	</node>
	<node id="9871666286" lat="69.2166808" lon="18.6789302" version="1" timestamp="2022-07-07T06:07:54Z" changeset="123301987" uid="3497659" user="NKA">
		<tag k="name" v="Nordheim" />
		<tag k="place" v="farm" />
		<tag k="ssr:stedsnr" v="746930" />
	</node>
	<node id="9871666287" lat="69.1621612" lon="18.5036473" version="1" timestamp="2022-07-07T06:07:54Z" changeset="123301987" uid="3497659" user="NKA">
		<tag k="name" v="Sætra" />
		<tag k="place" v="farm" />
		<tag k="ssr:stedsnr" v="382513" />
	</node>
	<node id="9871666288" lat="69.2224807" lon="18.3330743" version="1" timestamp="2022-07-07T06:07:54Z" changeset="123301987" uid="3497659" user="NKA">
		<tag k="name" v="Fuglmoen" />
		<tag k="place" v="hamlet" />
		<tag k="ssr:stedsnr" v="503647" />
	</node>
	<node id="9871666289" lat="69.2127744" lon="18.4870436" version="1" timestamp="2022-07-07T06:07:54Z" changeset="123301987" uid="3497659" user="NKA">
		<tag k="name" v="Hofstadgården" />
		<tag k="place" v="farm" />
		<tag k="ssr:stedsnr" v="233609" />
	</node>
	<node id="9871666290" lat="69.182175" lon="18.5486251" version="1" timestamp="2022-07-07T06:07:54Z" changeset="123301987" uid="3497659" user="NKA">
		<tag k="name" v="Barheim" />
		<tag k="place" v="farm" />
		<tag k="ssr:stedsnr" v="261521" />
	</node>
	<node id="9871666291" lat="69.2031417" lon="18.625725" version="1" timestamp="2022-07-07T06:07:54Z" changeset="123301987" uid="3497659" user="NKA">
		<tag k="name" v="Lian" />
		<tag k="place" v="farm" />
		<tag k="ssr:stedsnr" v="79945" />
	</node>
	<node id="9871666292" lat="69.2726033" lon="18.5044441" version="1" timestamp="2022-07-07T06:07:54Z" changeset="123301987" uid="3497659" user="NKA">
		<tag k="loc_name:se" v="Geresnjárga" />
		<tag k="name" v="Nedre Kjerresnes" />
		<tag k="name:no" v="Nedre Kjerresnes" />
		<tag k="place" v="farm" />
		<tag k="ssr:stedsnr" v="507150" />
	</node>
	<node id="9871666293" lat="69.1489361" lon="18.5543445" version="1" timestamp="2022-07-07T06:07:54Z" changeset="123301987" uid="3497659" user="NKA">
		<tag k="name" v="Dale" />
		<tag k="place" v="farm" />
		<tag k="ssr:stedsnr" v="79526" />
	</node>
	<node id="9871666294" lat="69.1791606" lon="18.5958714" version="1" timestamp="2022-07-07T06:07:54Z" changeset="123301987" uid="3497659" user="NKA">
		<tag k="name" v="Fossbakken" />
		<tag k="place" v="farm" />
		<tag k="ssr:stedsnr" v="79498" />
	</node>
	<node id="9871666295" lat="69.1880819" lon="18.5162426" version="1" timestamp="2022-07-07T06:07:54Z" changeset="123301987" uid="3497659" user="NKA">
		<tag k="name" v="Strandvoll" />
		<tag k="place" v="farm" />
		<tag k="ssr:stedsnr" v="928704" />
	</node>
	<node id="9871666296" lat="69.1824688" lon="18.5869236" version="1" timestamp="2022-07-07T06:07:54Z" changeset="123301987" uid="3497659" user="NKA">
		<tag k="name" v="Kjeldland" />
		<tag k="place" v="farm" />
		<tag k="ssr:stedsnr" v="18476" />
	</node>
	<node id="9871666297" lat="69.1344389" lon="18.6618695" version="1" timestamp="2022-07-07T06:07:54Z" changeset="123301987" uid="3497659" user="NKA">
		<tag k="name" v="Bersvensætra" />
		<tag k="place" v="isolated_dwelling" />
		<tag k="ssr:stedsnr" v="200780" />
	</node>
	<node id="9871666298" lat="69.2116556" lon="18.6630806" version="1" timestamp="2022-07-07T06:07:54Z" changeset="123301987" uid="3497659" user="NKA">
		<tag k="name" v="Sjølset" />
		<tag k="place" v="farm" />
		<tag k="ssr:stedsnr" v="929952" />
	</node>
	<node id="9871666299" lat="69.2536738" lon="18.683423" version="1" timestamp="2022-07-07T06:07:54Z" changeset="123301987" uid="3497659" user="NKA">
		<tag k="name" v="Nylund" />
		<tag k="place" v="farm" />
		<tag k="ssr:stedsnr" v="868043" />
	</node>
	<node id="9871666300" lat="69.0002661" lon="19.2702284" version="1" timestamp="2022-07-07T06:07:54Z" changeset="123301987" uid="3497659" user="NKA">
		<tag k="name" v="Årheim" />
		<tag k="place" v="farm" />
		<tag k="ssr:stedsnr" v="929371" />
	</node>
	<node id="9871666301" lat="69.1150361" lon="18.915" version="1" timestamp="2022-07-07T06:07:54Z" changeset="123301987" uid="3497659" user="NKA">
		<tag k="name" v="Steinset" />
		<tag k="place" v="farm" />
		<tag k="ssr:stedsnr" v="79797" />
	</node>
	<node id="9871666302" lat="69.0470056" lon="19.3582667" version="1" timestamp="2022-07-07T06:07:54Z" changeset="123301987" uid="3497659" user="NKA">
		<tag k="name" v="Vårtun" />
		<tag k="place" v="farm" />
		<tag k="ssr:stedsnr" v="929417" />
	</node>
	<node id="9871666303" lat="69.0130833" lon="19.3542916" version="1" timestamp="2022-07-07T06:07:54Z" changeset="123301987" uid="3497659" user="NKA">
		<tag k="name" v="Skogstad" />
		<tag k="place" v="farm" />
		<tag k="ssr:stedsnr" v="928365" />
	</node>
	<node id="9871666304" lat="69.032025" lon="19.2987278" version="1" timestamp="2022-07-07T06:07:54Z" changeset="123301987" uid="3497659" user="NKA">
		<tag k="name" v="Grindjordet" />
		<tag k="place" v="farm" />
		<tag k="ssr:stedsnr" v="746422" />
	</node>
	<node id="9871666305" lat="68.9739639" lon="19.0067193" version="1" timestamp="2022-07-07T06:07:54Z" changeset="123301987" uid="3497659" user="NKA">
		<tag k="alt_name" v="Elvevoldsætra" />
		<tag k="historic" v="shieling" />
		<tag k="name" v="Elvevollsætra" />
		<tag k="place" v="hamlet" />
		<tag k="ssr:stedsnr" v="807376" />
	</node>
	<node id="9871666306" lat="69.0099539" lon="19.2856455" version="1" timestamp="2022-07-07T06:07:54Z" changeset="123301987" uid="3497659" user="NKA">
		<tag k="name" v="Kjosnes" />
		<tag k="place" v="farm" />
		<tag k="ssr:stedsnr" v="686397" />
	</node>
	<node id="9871666307" lat="69.0058287" lon="19.0756866" version="1" timestamp="2022-07-07T06:07:54Z" changeset="123301987" uid="3497659" user="NKA">
		<tag k="name" v="Brenna" />
		<tag k="place" v="farm" />
		<tag k="ssr:stedsnr" v="686159" />
	</node>
	<node id="9871666308" lat="68.9935892" lon="19.2123999" version="1" timestamp="2022-07-07T06:07:54Z" changeset="123301987" uid="3497659" user="NKA">
		<tag k="name" v="Solberg" />
		<tag k="place" v="farm" />
		<tag k="ssr:stedsnr" v="685367" />
	</node>
	<node id="9871666309" lat="69.0045469" lon="19.0945392" version="1" timestamp="2022-07-07T06:07:54Z" changeset="123301987" uid="3497659" user="NKA">
		<tag k="name" v="Lundberg" />
		<tag k="place" v="farm" />
		<tag k="ssr:stedsnr" v="686157" />
	</node>
	<node id="9871666310" lat="68.9974139" lon="19.1600667" version="1" timestamp="2022-07-07T06:07:54Z" changeset="123301987" uid="3497659" user="NKA">
		<tag k="name" v="Nysted" />
		<tag k="place" v="farm" />
		<tag k="ssr:stedsnr" v="442411" />
	</node>
	<node id="9871666311" lat="69.0243306" lon="19.3208471" version="1" timestamp="2022-07-07T06:07:54Z" changeset="123301987" uid="3497659" user="NKA">
		<tag k="name" v="Lund" />
		<tag k="place" v="farm" />
		<tag k="ssr:stedsnr" v="504416" />
	</node>
	<node id="9871666312" lat="69.0339776" lon="19.365792" version="1" timestamp="2022-07-07T06:07:54Z" changeset="123301987" uid="3497659" user="NKA">
		<tag k="alt_name:no" v="Solvold" />
		<tag k="loc_name:se" v="Liessajeaggi" />
		<tag k="name" v="Solvoll" />
		<tag k="name:no" v="Solvoll" />
		<tag k="place" v="farm" />
		<tag k="ssr:stedsnr" v="201406" />
	</node>
	<node id="9871666313" lat="69.0109862" lon="19.288763" version="1" timestamp="2022-07-07T06:07:54Z" changeset="123301987" uid="3497659" user="NKA">
		<tag k="name" v="Aspenes" />
		<tag k="place" v="farm" />
		<tag k="ssr:stedsnr" v="321368" />
	</node>
	<node id="9871666314" lat="69.0168" lon="19.3358916" version="1" timestamp="2022-07-07T06:07:54Z" changeset="123301987" uid="3497659" user="NKA">
		<tag k="name" v="Vestby" />
		<tag k="place" v="farm" />
		<tag k="ssr:stedsnr" v="868397" />
	</node>
	<node id="9871666315" lat="69.0351528" lon="19.358225" version="1" timestamp="2022-07-07T06:07:54Z" changeset="123301987" uid="3497659" user="NKA">
		<tag k="name" v="Moeng" />
		<tag k="place" v="farm" />
		<tag k="ssr:stedsnr" v="19419" />
	</node>
	<node id="9871666316" lat="69.023075" lon="19.3170888" version="1" timestamp="2022-07-07T06:07:54Z" changeset="123301987" uid="3497659" user="NKA">
		<tag k="name" v="Bjørklund" />
		<tag k="place" v="farm" />
		<tag k="ssr:stedsnr" v="504409" />
	</node>
	<node id="9871666317" lat="69.02025" lon="19.3265166" version="1" timestamp="2022-07-07T06:07:54Z" changeset="123301987" uid="3497659" user="NKA">
		<tag k="alt_name" v="Nerdrum" />
		<tag k="name" v="Nedrum" />
		<tag k="place" v="farm" />
		<tag k="ssr:stedsnr" v="868417" />
	</node>
	<node id="9871666318" lat="69.0297275" lon="19.3077938" version="1" timestamp="2022-07-07T06:07:54Z" changeset="123301987" uid="3497659" user="NKA">
		<tag k="alt_name" v="Skilet;Skillet" />
		<tag k="name" v="Skjellet" />
		<tag k="place" v="farm" />
		<tag k="ssr:stedsnr" v="625419" />
	</node>
	<node id="9871666319" lat="69.0117944" lon="19.3241583" version="1" timestamp="2022-07-07T06:07:54Z" changeset="123301987" uid="3497659" user="NKA">
		<tag k="name" v="Skjerhaug" />
		<tag k="place" v="farm" />
		<tag k="ssr:stedsnr" v="624401" />
	</node>
	<node id="9871666320" lat="69.0290833" lon="19.3106165" version="1" timestamp="2022-07-07T06:07:54Z" changeset="123301987" uid="3497659" user="NKA">
		<tag k="name" v="Vang" />
		<tag k="place" v="farm" />
		<tag k="ssr:stedsnr" v="140424" />
	</node>
	<node id="9871666321" lat="68.9795194" lon="19.4578221" version="1" timestamp="2022-07-07T06:07:54Z" changeset="123301987" uid="3497659" user="NKA">
		<tag k="name" v="Fagerlund" />
		<tag k="place" v="farm" />
		<tag k="ssr:stedsnr" v="901845" />
	</node>
	<node id="9871666322" lat="69.02545" lon="19.4392279" version="1" timestamp="2022-07-07T06:07:54Z" changeset="123301987" uid="3497659" user="NKA">
		<tag k="name" v="Nordheim" />
		<tag k="place" v="farm" />
		<tag k="ssr:stedsnr" v="929412" />
	</node>
	<node id="9871666323" lat="68.9899861" lon="19.6038306" version="1" timestamp="2022-07-07T06:07:54Z" changeset="123301987" uid="3497659" user="NKA">
		<tag k="name" v="Eidsvoll" />
		<tag k="place" v="farm" />
		<tag k="ssr:stedsnr" v="807234" />
	</node>
	<node id="9871666324" lat="69.01715" lon="19.4369166" version="1" timestamp="2022-07-07T06:07:54Z" changeset="123301987" uid="3497659" user="NKA">
		<tag k="name" v="Vardeheim" />
		<tag k="place" v="farm" />
		<tag k="ssr:stedsnr" v="928382" />
	</node>
	<node id="9871666325" lat="69.0282167" lon="19.5111029" version="1" timestamp="2022-07-07T06:07:54Z" changeset="123301987" uid="3497659" user="NKA">
		<tag k="name" v="Bakkemo" />
		<tag k="place" v="farm" />
		<tag k="ssr:stedsnr" v="686423" />
	</node>
	<node id="9871666326" lat="69.0333583" lon="19.4416973" version="1" timestamp="2022-07-07T06:07:54Z" changeset="123301987" uid="3497659" user="NKA">
		<tag k="name" v="Bråten" />
		<tag k="place" v="farm" />
		<tag k="ssr:stedsnr" v="747419" />
	</node>
	<node id="9871666327" lat="69.02625" lon="19.5306666" version="1" timestamp="2022-07-07T06:07:54Z" changeset="123301987" uid="3497659" user="NKA">
		<tag k="alt_name" v="Kongsvoll" />
		<tag k="name" v="Kongsvold" />
		<tag k="place" v="farm" />
		<tag k="ssr:stedsnr" v="686421" />
	</node>
	<node id="9871666328" lat="69.0370528" lon="19.4404056" version="1" timestamp="2022-07-07T06:07:54Z" changeset="123301987" uid="3497659" user="NKA">
		<tag k="name" v="Dalheim" />
		<tag k="place" v="farm" />
		<tag k="ssr:stedsnr" v="686442" />
	</node>
	<node id="9871666329" lat="69.016575" lon="19.4361082" version="1" timestamp="2022-07-07T06:07:54Z" changeset="123301987" uid="3497659" user="NKA">
		<tag k="name" v="Torp" />
		<tag k="place" v="farm" />
		<tag k="ssr:stedsnr" v="503391" />
	</node>
	<node id="9871666330" lat="69.0236195" lon="19.5792388" version="1" timestamp="2022-07-07T06:07:54Z" changeset="123301987" uid="3497659" user="NKA">
		<tag k="name" v="Nyheim" />
		<tag k="place" v="farm" />
		<tag k="ssr:stedsnr" v="503383" />
	</node>
	<node id="9871666331" lat="69.0232556" lon="19.5828666" version="1" timestamp="2022-07-07T06:07:54Z" changeset="123301987" uid="3497659" user="NKA">
		<tag k="name" v="Østli" />
		<tag k="place" v="farm" />
		<tag k="ssr:stedsnr" v="382398" />
	</node>
	<node id="9871666332" lat="68.9207994" lon="19.5236637" version="1" timestamp="2022-07-07T06:07:54Z" changeset="123301987" uid="3497659" user="NKA">
		<tag k="name" v="Svestad" />
		<tag k="place" v="farm" />
		<tag k="ssr:stedsnr" v="442235" />
	</node>
	<node id="9871666333" lat="68.9881" lon="19.4479917" version="1" timestamp="2022-07-07T06:07:54Z" changeset="123301987" uid="3497659" user="NKA">
		<tag k="name" v="Melum" />
		<tag k="place" v="farm" />
		<tag k="ssr:stedsnr" v="381285" />
	</node>
	<node id="9871666334" lat="69.0125278" lon="19.460439" version="1" timestamp="2022-07-07T06:07:54Z" changeset="123301987" uid="3497659" user="NKA">
		<tag k="name" v="Holmen" />
		<tag k="place" v="farm" />
		<tag k="ssr:stedsnr" v="382377" />
	</node>
	<node id="9871666335" lat="68.9244361" lon="19.5264971" version="1" timestamp="2022-07-07T06:07:54Z" changeset="123301987" uid="3497659" user="NKA">
		<tag k="name" v="Sørli" />
		<tag k="place" v="farm" />
		<tag k="ssr:stedsnr" v="321184" />
	</node>
	<node id="9871666336" lat="69.0252111" lon="19.5625084" version="1" timestamp="2022-07-07T06:07:54Z" changeset="123301987" uid="3497659" user="NKA">
		<tag k="name" v="Vårheim" />
		<tag k="place" v="farm" />
		<tag k="ssr:stedsnr" v="322411" />
	</node>
	<node id="9871666337" lat="69.0178611" lon="19.4609916" version="1" timestamp="2022-07-07T06:07:54Z" changeset="123301987" uid="3497659" user="NKA">
		<tag k="alt_name" v="Rostadnes" />
		<tag k="name" v="Rostanes" />
		<tag k="place" v="hamlet" />
		<tag k="ssr:stedsnr" v="79386" />
	</node>
	<node id="9871666338" lat="68.9262225" lon="19.5178396" version="1" timestamp="2022-07-07T06:07:54Z" changeset="123301987" uid="3497659" user="NKA">
		<tag k="name" v="Dividalen" />
		<tag k="place" v="farm" />
		<tag k="ssr:stedsnr" v="260238" />
	</node>
	<node id="9871666339" lat="69.0168611" lon="19.4288499" version="1" timestamp="2022-07-07T06:07:54Z" changeset="123301987" uid="3497659" user="NKA">
		<tag k="name" v="Ågård" />
		<tag k="place" v="farm" />
		<tag k="ssr:stedsnr" v="79384" />
	</node>
	<node id="9871666340" lat="68.9577611" lon="19.4773417" version="1" timestamp="2022-07-07T06:07:54Z" changeset="123301987" uid="3497659" user="NKA">
		<tag k="alt_name" v="Sletta, øvre;Sletten øvre" />
		<tag k="name" v="Øvre Sletta" />
		<tag k="place" v="farm" />
		<tag k="ssr:stedsnr" v="78263" />
	</node>
	<node id="9871666341" lat="68.9169" lon="19.5316335" version="1" timestamp="2022-07-07T06:07:54Z" changeset="123301987" uid="3497659" user="NKA">
		<tag k="name" v="Luneborg" />
		<tag k="place" v="farm" />
		<tag k="ssr:stedsnr" v="18187" />
	</node>
	<node id="9871666342" lat="69.0183805" lon="19.4438584" version="1" timestamp="2022-07-07T06:07:54Z" changeset="123301987" uid="3497659" user="NKA">
		<tag k="name" v="Nordgård" />
		<tag k="place" v="farm" />
		<tag k="ssr:stedsnr" v="18368" />
	</node>
	<node id="9871666343" lat="68.9539472" lon="19.4830971" version="1" timestamp="2022-07-07T06:07:54Z" changeset="123301987" uid="3497659" user="NKA">
		<tag k="name" v="Løkstad" />
		<tag k="place" v="farm" />
		<tag k="ssr:stedsnr" v="17275" />
	</node>
	<node id="9871666344" lat="68.9678226" lon="19.4800382" version="1" timestamp="2022-07-07T06:07:54Z" changeset="123301987" uid="3497659" user="NKA">
		<tag k="alt_name" v="Sletta, nedre;Sletten nedre" />
		<tag k="name" v="Nedre Sletta" />
		<tag k="place" v="farm" />
		<tag k="ssr:stedsnr" v="17268" />
	</node>
	<node id="9871666345" lat="69.02865" lon="19.5426" version="1" timestamp="2022-07-07T06:07:54Z" changeset="123301987" uid="3497659" user="NKA">
		<tag k="name" v="Skogli" />
		<tag k="place" v="farm" />
		<tag k="ssr:stedsnr" v="929401" />
	</node>
	<node id="9871666346" lat="69.0267885" lon="19.5693156" version="1" timestamp="2022-07-07T06:07:54Z" changeset="123301987" uid="3497659" user="NKA">
		<tag k="loc_name:se" v="Skoŋga" />
		<tag k="name" v="Kongsli" />
		<tag k="name:no" v="Kongsli" />
		<tag k="place" v="farm" />
		<tag k="ssr:stedsnr" v="929403" />
	</node>
	<node id="9871666347" lat="69.0109381" lon="19.4174978" version="1" timestamp="2022-07-07T06:07:54Z" changeset="123301987" uid="3497659" user="NKA">
		<tag k="name" v="Nes" />
		<tag k="place" v="farm" />
		<tag k="ssr:stedsnr" v="200396" />
	</node>
	<node id="9871666348" lat="69.0157881" lon="19.4397417" version="1" timestamp="2022-07-07T06:07:54Z" changeset="123301987" uid="3497659" user="NKA">
		<tag k="name" v="Øvergård" />
		<tag k="place" v="farm" />
		<tag k="ssr:stedsnr" v="807406" />
	</node>
	<node id="9871666349" lat="69.0091167" lon="19.4014306" version="1" timestamp="2022-07-07T06:07:54Z" changeset="123301987" uid="3497659" user="NKA">
		<tag k="name" v="Vinsnes" />
		<tag k="place" v="farm" />
		<tag k="ssr:stedsnr" v="564406" />
	</node>
	<node id="9871666350" lat="68.9806917" lon="19.4585916" version="1" timestamp="2022-07-07T06:07:54Z" changeset="123301987" uid="3497659" user="NKA">
		<tag k="name" v="Åsheim" />
		<tag k="place" v="farm" />
		<tag k="ssr:stedsnr" v="199282" />
	</node>
	<node id="9871666351" lat="68.9438584" lon="19.5017277" version="1" timestamp="2022-07-07T06:07:54Z" changeset="123301987" uid="3497659" user="NKA">
		<tag k="name" v="Sørgård" />
		<tag k="place" v="farm" />
		<tag k="ssr:stedsnr" v="563195" />
	</node>
	<node id="9871666352" lat="68.9826611" lon="19.4506943" version="1" timestamp="2022-07-07T06:07:54Z" changeset="123301987" uid="3497659" user="NKA">
		<tag k="name" v="Blomli" />
		<tag k="place" v="farm" />
		<tag k="ssr:stedsnr" v="563257" />
	</node>
	<node id="9871666353" lat="68.9419028" lon="19.5061" version="1" timestamp="2022-07-07T06:07:54Z" changeset="123301987" uid="3497659" user="NKA">
		<tag k="name" v="Fredly" />
		<tag k="place" v="farm" />
		<tag k="ssr:stedsnr" v="624207" />
	</node>
	<node id="9871666354" lat="69.0282805" lon="19.4415556" version="1" timestamp="2022-07-07T06:07:54Z" changeset="123301987" uid="3497659" user="NKA">
		<tag k="name" v="Liland" />
		<tag k="place" v="farm" />
		<tag k="ssr:stedsnr" v="625422" />
	</node>
	<node id="9871666355" lat="69.0208584" lon="19.3993471" version="1" timestamp="2022-07-07T06:07:54Z" changeset="123301987" uid="3497659" user="NKA">
		<tag k="name" v="Fjelde" />
		<tag k="place" v="farm" />
		<tag k="ssr:stedsnr" v="261414" />
	</node>
	<node id="9871666356" lat="69.0000078" lon="19.4712138" version="1" timestamp="2022-07-07T06:07:54Z" changeset="123301987" uid="3497659" user="NKA">
		<tag k="name" v="Lillevann" />
		<tag k="place" v="farm" />
		<tag k="ssr:stedsnr" v="294826" />
	</node>
	<node id="9871666357" lat="68.9323694" lon="19.5174668" version="1" timestamp="2022-07-07T06:07:54Z" changeset="123301987" uid="3497659" user="NKA">
		<tag k="name" v="Haugli" />
		<tag k="place" v="farm" />
		<tag k="ssr:stedsnr" v="112679" />
	</node>
	<node id="9871666358" lat="68.9518804" lon="19.4780778" version="1" timestamp="2022-07-07T06:07:54Z" changeset="123301987" uid="3497659" user="NKA">
		<tag k="alt_name" v="Stenvold" />
		<tag k="name" v="Steinvoll" />
		<tag k="place" v="farm" />
		<tag k="ssr:stedsnr" v="173841" />
	</node>
	<node id="9871666359" lat="69.0257018" lon="19.5545035" version="1" timestamp="2022-07-07T06:07:54Z" changeset="123301987" uid="3497659" user="NKA">
		<tag k="name" v="Skoglund" />
		<tag k="place" v="farm" />
		<tag k="ssr:stedsnr" v="79393" />
	</node>
	<node id="9871666360" lat="68.9938472" lon="19.4328834" version="1" timestamp="2022-07-07T06:07:54Z" changeset="123301987" uid="3497659" user="NKA">
		<tag k="name" v="Åsen" />
		<tag k="place" v="farm" />
		<tag k="ssr:stedsnr" v="79243" />
	</node>
	<node id="9871666361" lat="69.01155" lon="19.4545778" version="1" timestamp="2022-07-07T06:07:54Z" changeset="123301987" uid="3497659" user="NKA">
		<tag k="name" v="Nesvik" />
		<tag k="place" v="farm" />
		<tag k="ssr:stedsnr" v="139392" />
	</node>
	<node id="9871666362" lat="69.0094194" lon="19.4149584" version="1" timestamp="2022-07-07T06:07:54Z" changeset="123301987" uid="3497659" user="NKA">
		<tag k="name" v="Moland" />
		<tag k="place" v="farm" />
		<tag k="ssr:stedsnr" v="139406" />
	</node>
	<node id="9871666363" lat="69.0596333" lon="18.625875" version="1" timestamp="2022-07-07T06:07:54Z" changeset="123301987" uid="3497659" user="NKA">
		<tag k="name" v="Haugli" />
		<tag k="place" v="farm" />
		<tag k="ssr:stedsnr" v="929842" />
	</node>
	<node id="9871666364" lat="69.0148563" lon="19.4526156" version="1" timestamp="2022-07-07T06:07:54Z" changeset="123301987" uid="3497659" user="NKA">
		<tag k="name" v="Eldnes" />
		<tag k="place" v="farm" />
		<tag k="ssr:stedsnr" v="139395" />
	</node>
	<node id="9871666365" lat="69.06385" lon="18.6293444" version="1" timestamp="2022-07-07T06:07:54Z" changeset="123301987" uid="3497659" user="NKA">
		<tag k="alt_name" v="Brumo" />
		<tag k="name" v="Brunmoen" />
		<tag k="place" v="farm" />
		<tag k="ssr:stedsnr" v="504848" />
	</node>
	<node id="9871666366" lat="69.0185677" lon="18.6255467" version="1" timestamp="2022-07-07T06:07:54Z" changeset="123301987" uid="3497659" user="NKA">
		<tag k="name" v="Raneng" />
		<tag k="place" v="farm" />
		<tag k="ssr:stedsnr" v="929185" />
	</node>
	<node id="9871666367" lat="69.0835083" lon="18.5900307" version="1" timestamp="2022-07-07T06:07:54Z" changeset="123301987" uid="3497659" user="NKA">
		<tag k="name" v="Messelt" />
		<tag k="place" v="farm" />
		<tag k="ssr:stedsnr" v="961910" />
	</node>
	<node id="9871666368" lat="69.1927497" lon="18.5267627" version="1" timestamp="2022-07-07T06:07:54Z" changeset="123301987" uid="3497659" user="NKA">
		<tag k="alt_name" v="Finbakken" />
		<tag k="name" v="Finnbakken" />
		<tag k="place" v="hamlet" />
		<tag k="ssr:stedsnr" v="928692" />
	</node>
	<node id="9871666369" lat="69.226275" lon="18.5027583" version="1" timestamp="2022-07-07T06:07:54Z" changeset="123301987" uid="3497659" user="NKA">
		<tag k="name" v="Gullhav" />
		<tag k="place" v="farm" />
		<tag k="ssr:stedsnr" v="806716" />
	</node>
	<node id="9871666370" lat="69.1868028" lon="18.555185" version="1" timestamp="2022-07-07T06:07:54Z" changeset="123301987" uid="3497659" user="NKA">
		<tag k="name" v="Aspmoen" />
		<tag k="place" v="farm" />
		<tag k="ssr:stedsnr" v="928720" />
	</node>
	<node id="9871666371" lat="69.1859541" lon="18.5846547" version="1" timestamp="2022-07-07T06:07:54Z" changeset="123301987" uid="3497659" user="NKA">
		<tag k="alt_name" v="Kjeldmoen" />
		<tag k="name" v="Kjellmoen" />
		<tag k="place" v="hamlet" />
		<tag k="ssr:stedsnr" v="694544" />
	</node>
	<node id="9871666372" lat="69.1803611" lon="18.329886" version="1" timestamp="2022-07-07T06:07:54Z" changeset="123301987" uid="3497659" user="NKA">
		<tag k="name" v="Skihytta" />
		<tag k="place" v="isolated_dwelling" />
		<tag k="ssr:stedsnr" v="779324" />
	</node>
	<node id="9871666373" lat="69.1994278" lon="18.6075722" version="1" timestamp="2022-07-07T06:07:54Z" changeset="123301987" uid="3497659" user="NKA">
		<tag k="name" v="Seljemoen" />
		<tag k="place" v="farm" />
		<tag k="ssr:stedsnr" v="503673" />
	</node>
	<node id="9871666374" lat="69.2048084" lon="18.4917" version="1" timestamp="2022-07-07T06:07:54Z" changeset="123301987" uid="3497659" user="NKA">
		<tag k="name" v="Litlevoll" />
		<tag k="place" v="farm" />
		<tag k="ssr:stedsnr" v="503656" />
	</node>
	<node id="9871666375" lat="69.245062" lon="18.5214163" version="1" timestamp="2022-07-07T06:07:54Z" changeset="123301987" uid="3497659" user="NKA">
		<tag k="name" v="Heggstad" />
		<tag k="place" v="farm" />
		<tag k="ssr:stedsnr" v="503627" />
	</node>
	<node id="9871666376" lat="69.243425" lon="18.3589277" version="1" timestamp="2022-07-07T06:07:54Z" changeset="123301987" uid="3497659" user="NKA">
		<tag k="name" v="Vestheim" />
		<tag k="place" v="farm" />
		<tag k="ssr:stedsnr" v="503615" />
	</node>
	<node id="9871666377" lat="69.0892831" lon="18.602181" version="1" timestamp="2022-07-07T06:07:54Z" changeset="123301987" uid="3497659" user="NKA">
		<tag k="name" v="Utheim" />
		<tag k="place" v="farm" />
		<tag k="ssr:stedsnr" v="382582" />
	</node>
	<node id="9871666378" lat="69.1523577" lon="18.4655247" version="1" timestamp="2022-07-07T06:07:54Z" changeset="123301987" uid="3497659" user="NKA">
		<tag k="historic" v="shieling" />
		<tag k="name" v="Sverresætra" />
		<tag k="place" v="isolated_dwelling" />
		<tag k="ssr:stedsnr" v="475823" />
	</node>
	<node id="9871666379" lat="69.1753462" lon="18.4231616" version="1" timestamp="2022-07-07T06:07:54Z" changeset="123301987" uid="3497659" user="NKA">
		<tag k="name" v="Hillestad" />
		<tag k="place" v="farm" />
		<tag k="ssr:stedsnr" v="322512" />
	</node>
	<node id="9871666380" lat="69.2641916" lon="18.5360388" version="1" timestamp="2022-07-07T06:07:54Z" changeset="123301987" uid="3497659" user="NKA">
		<tag k="name" v="Grunnes" />
		<tag k="place" v="farm" />
		<tag k="ssr:stedsnr" v="325167" />
	</node>
	<node id="9871666381" lat="69.2052834" lon="18.4479499" version="1" timestamp="2022-07-07T06:07:54Z" changeset="123301987" uid="3497659" user="NKA">
		<tag k="name" v="Vindmøllebakken" />
		<tag k="place" v="farm" />
		<tag k="ssr:stedsnr" v="321677" />
	</node>
	<node id="9871666382" lat="69.1704445" lon="18.5782392" version="1" timestamp="2022-07-07T06:07:54Z" changeset="123301987" uid="3497659" user="NKA">
		<tag k="name" v="Engstad" />
		<tag k="place" v="farm" />
		<tag k="ssr:stedsnr" v="322500" />
	</node>
	<node id="9871666383" lat="69.1729995" lon="18.4019817" version="1" timestamp="2022-07-07T06:07:54Z" changeset="123301987" uid="3497659" user="NKA">
		<tag k="name" v="Storlia" />
		<tag k="place" v="farm" />
		<tag k="ssr:stedsnr" v="261520" />
	</node>
	<node id="9871666384" lat="69.2547844" lon="18.4918793" version="1" timestamp="2022-07-07T06:07:54Z" changeset="123301987" uid="3497659" user="NKA">
		<tag k="name" v="Øvre Kjerresnes" />
		<tag k="place" v="farm" />
		<tag k="ssr:stedsnr" v="264151" />
	</node>
	<node id="9871666385" lat="69.2658497" lon="18.4949709" version="1" timestamp="2022-07-07T06:07:54Z" changeset="123301987" uid="3497659" user="NKA">
		<tag k="loc_name:se" v="Geresnjárga" />
		<tag k="name" v="Kjerresnes" />
		<tag k="name:no" v="Kjerresnes" />
		<tag k="place" v="hamlet" />
		<tag k="ssr:stedsnr" v="149996" />
	</node>
	<node id="9871666386" lat="69.2374917" lon="18.4572638" version="1" timestamp="2022-07-07T06:07:54Z" changeset="123301987" uid="3497659" user="NKA">
		<tag k="name" v="Sørknutheimen" />
		<tag k="place" v="farm" />
		<tag k="ssr:stedsnr" v="233115" />
	</node>
	<node id="9871666387" lat="69.2601945" lon="18.4322195" version="1" timestamp="2022-07-07T06:07:54Z" changeset="123301987" uid="3497659" user="NKA">
		<tag k="name" v="Alberthytta" />
		<tag k="place" v="isolated_dwelling" />
		<tag k="ssr:stedsnr" v="79832" />
	</node>
	<node id="9871666388" lat="69.1141938" lon="18.8746314" version="1" timestamp="2022-07-07T06:07:54Z" changeset="123301987" uid="3497659" user="NKA">
		<tag k="alt_name" v="Bjørklien" />
		<tag k="name" v="Bjørklia" />
		<tag k="place" v="farm" />
		<tag k="ssr:stedsnr" v="415399" />
	</node>
	<node id="9871666389" lat="69.1102139" lon="18.8936946" version="1" timestamp="2022-07-07T06:07:54Z" changeset="123301987" uid="3497659" user="NKA">
		<tag k="name" v="Bergheim" />
		<tag k="place" v="farm" />
		<tag k="ssr:stedsnr" v="476378" />
	</node>
	<node id="9871666390" lat="69.1072056" lon="18.883175" version="1" timestamp="2022-07-07T06:07:54Z" changeset="123301987" uid="3497659" user="NKA">
		<tag k="name" v="Steinmoen" />
		<tag k="place" v="farm" />
		<tag k="ssr:stedsnr" v="537368" />
	</node>
	<node id="9871666391" lat="69.1057305" lon="18.8953334" version="1" timestamp="2022-07-07T06:07:54Z" changeset="123301987" uid="3497659" user="NKA">
		<tag k="historic" v="shieling" />
		<tag k="name" v="Lauvhyttene" />
		<tag k="place" v="isolated_dwelling" />
		<tag k="ssr:stedsnr" v="415419" />
	</node>
	<node id="9871666392" lat="69.1104893" lon="18.8780302" version="1" timestamp="2022-07-07T06:07:54Z" changeset="123301987" uid="3497659" user="NKA">
		<tag k="alt_name" v="Holmesletten" />
		<tag k="name" v="Holmesletta" />
		<tag k="place" v="hamlet" />
		<tag k="ssr:stedsnr" v="18779" />
	</node>
	<node id="9871666393" lat="69.104832" lon="18.8877725" version="1" timestamp="2022-07-07T06:07:54Z" changeset="123301987" uid="3497659" user="NKA">
		<tag k="name" v="Kaldbekken" />
		<tag k="place" v="farm" />
		<tag k="ssr:stedsnr" v="40885" />
	</node>
	<node id="9871666394" lat="69.0367111" lon="18.5154945" version="1" timestamp="2022-07-07T06:07:54Z" changeset="123301987" uid="3497659" user="NKA">
		<tag k="name" v="Gammelgården" />
		<tag k="place" v="locality" />
		<tag k="ssr:stedsnr" v="900940" />
	</node>
	<node id="9871666395" lat="69.070321" lon="18.5349488" version="1" timestamp="2022-07-07T06:07:54Z" changeset="123301987" uid="3497659" user="NKA">
		<tag k="name" v="Fagerlidalen" />
		<tag k="place" v="farm" />
		<tag k="ssr:stedsnr" v="980345" />
	</node>
	<node id="9871666396" lat="69.0137972" lon="18.6421889" version="1" timestamp="2022-07-07T06:07:54Z" changeset="123301987" uid="3497659" user="NKA">
		<tag k="name" v="Barås" />
		<tag k="place" v="farm" />
		<tag k="ssr:stedsnr" v="443209" />
	</node>
	<node id="9871666397" lat="68.8453448" lon="19.1023499" version="1" timestamp="2022-07-07T06:07:54Z" changeset="123301987" uid="3497659" user="NKA">
		<tag k="historic" v="shieling" />
		<tag k="name" v="Vangsætra" />
		<tag k="place" v="isolated_dwelling" />
		<tag k="ssr:stedsnr" v="961642" />
	</node>
	<node id="9871666398" lat="68.8429389" lon="19.1166306" version="1" timestamp="2022-07-07T06:07:54Z" changeset="123301987" uid="3497659" user="NKA">
		<tag k="historic" v="shieling" />
		<tag k="name" v="Fagerheimsætra" />
		<tag k="place" v="isolated_dwelling" />
		<tag k="ssr:stedsnr" v="961491" />
	</node>
	<node id="9871666399" lat="68.8516" lon="19.1079917" version="1" timestamp="2022-07-07T06:07:54Z" changeset="123301987" uid="3497659" user="NKA">
		<tag k="historic" v="shieling" />
		<tag k="name" v="Løvlisætra" />
		<tag k="place" v="isolated_dwelling" />
		<tag k="ssr:stedsnr" v="172646" />
	</node>
	<node id="9871666400" lat="68.8403611" lon="19.1156055" version="1" timestamp="2022-07-07T06:07:54Z" changeset="123301987" uid="3497659" user="NKA">
		<tag k="name" v="Kirkesjordsætra" />
		<tag k="place" v="locality" />
		<tag k="ssr:stedsnr" v="139298" />
	</node>
	<node id="9871666401" lat="68.8431889" lon="19.1165333" version="1" timestamp="2022-07-07T06:07:54Z" changeset="123301987" uid="3497659" user="NKA">
		<tag k="name" v="Bøasætra" />
		<tag k="place" v="locality" />
		<tag k="ssr:stedsnr" v="382285" />
	</node>
	<node id="9871666402" lat="68.8968852" lon="19.0391584" version="1" timestamp="2022-07-07T06:07:54Z" changeset="123301987" uid="3497659" user="NKA">
		<tag k="name" v="Skogheim" />
		<tag k="place" v="farm" />
		<tag k="ssr:stedsnr" v="928293" />
	</node>
	<node id="9871666403" lat="68.8989667" lon="19.0051889" version="1" timestamp="2022-07-07T06:07:54Z" changeset="123301987" uid="3497659" user="NKA">
		<tag k="name" v="Sætra" />
		<tag k="place" v="isolated_dwelling" />
		<tag k="ssr:stedsnr" v="961573" />
	</node>
	<node id="9871666404" lat="68.9265945" lon="18.9659444" version="1" timestamp="2022-07-07T06:07:54Z" changeset="123301987" uid="3497659" user="NKA">
		<tag k="name" v="Nylund" />
		<tag k="place" v="farm" />
		<tag k="ssr:stedsnr" v="685326" />
	</node>
	<node id="9871666405" lat="68.9156333" lon="18.9949861" version="1" timestamp="2022-07-07T06:07:54Z" changeset="123301987" uid="3497659" user="NKA">
		<tag k="name" v="Sandstad" />
		<tag k="place" v="farm" />
		<tag k="ssr:stedsnr" v="807327" />
	</node>
	<node id="9871666406" lat="68.9028639" lon="19.0217973" version="1" timestamp="2022-07-07T06:07:54Z" changeset="123301987" uid="3497659" user="NKA">
		<tag k="alt_name" v="Skaugom" />
		<tag k="name" v="Skaugum" />
		<tag k="place" v="farm" />
		<tag k="ssr:stedsnr" v="685318" />
	</node>
	<node id="9871666407" lat="68.9220194" lon="18.9683334" version="1" timestamp="2022-07-07T06:07:54Z" changeset="123301987" uid="3497659" user="NKA">
		<tag k="name" v="Holmestrand" />
		<tag k="place" v="farm" />
		<tag k="ssr:stedsnr" v="685329" />
	</node>
	<node id="9871666408" lat="68.8929015" lon="18.8919797" version="1" timestamp="2022-07-07T06:07:54Z" changeset="123301987" uid="3497659" user="NKA">
		<tag k="historic" v="shieling" />
		<tag k="name" v="Vestvangsætra" />
		<tag k="place" v="isolated_dwelling" />
		<tag k="ssr:stedsnr" v="476345" />
	</node>
	<node id="9871666409" lat="68.89995" lon="18.900461" version="1" timestamp="2022-07-07T06:07:54Z" changeset="123301987" uid="3497659" user="NKA">
		<tag k="historic" v="shieling" />
		<tag k="name" v="Østermosætra" />
		<tag k="place" v="isolated_dwelling" />
		<tag k="ssr:stedsnr" v="685312" />
	</node>
	<node id="9871666410" lat="68.9208722" lon="18.9586445" version="1" timestamp="2022-07-07T06:07:54Z" changeset="123301987" uid="3497659" user="NKA">
		<tag k="name" v="Vestli" />
		<tag k="place" v="farm" />
		<tag k="ssr:stedsnr" v="442357" />
	</node>
	<node id="9871666411" lat="68.8724833" lon="19.0779806" version="1" timestamp="2022-07-07T06:07:54Z" changeset="123301987" uid="3497659" user="NKA">
		<tag k="name" v="Lundvang" />
		<tag k="place" v="farm" />
		<tag k="ssr:stedsnr" v="503290" />
	</node>
	<node id="9871666412" lat="68.9309667" lon="18.9609278" version="1" timestamp="2022-07-07T06:07:54Z" changeset="123301987" uid="3497659" user="NKA">
		<tag k="name" v="Rydland" />
		<tag k="place" v="farm" />
		<tag k="ssr:stedsnr" v="260382" />
	</node>
	<node id="9871666413" lat="68.9000611" lon="19.02775" version="1" timestamp="2022-07-07T06:07:54Z" changeset="123301987" uid="3497659" user="NKA">
		<tag k="alt_name" v="Sandstad" />
		<tag k="name" v="Sandberg" />
		<tag k="place" v="farm" />
		<tag k="ssr:stedsnr" v="443339" />
	</node>
	<node id="9871666414" lat="68.9106222" lon="19.0014222" version="1" timestamp="2022-07-07T06:07:54Z" changeset="123301987" uid="3497659" user="NKA">
		<tag k="name" v="Lundli" />
		<tag k="place" v="farm" />
		<tag k="ssr:stedsnr" v="79322" />
	</node>
	<node id="9871666415" lat="68.8636056" lon="19.0785529" version="1" timestamp="2022-07-07T06:07:54Z" changeset="123301987" uid="3497659" user="NKA">
		<tag k="alt_name" v="Bjørkmoen" />
		<tag k="name" v="Bjørkmo" />
		<tag k="place" v="farm" />
		<tag k="ssr:stedsnr" v="321288" />
	</node>
	<node id="9871666416" lat="68.9053645" lon="19.0163244" version="1" timestamp="2022-07-07T06:07:54Z" changeset="123301987" uid="3497659" user="NKA">
		<tag k="name" v="Kirkesdalen" />
		<tag k="place" v="farm" />
		<tag k="ssr:stedsnr" v="1077583" />
	</node>
	<node id="9871666417" lat="68.913475" lon="18.9954084" version="1" timestamp="2022-07-07T06:07:54Z" changeset="123301987" uid="3497659" user="NKA">
		<tag k="name" v="Solbakken" />
		<tag k="place" v="farm" />
		<tag k="ssr:stedsnr" v="961641" />
	</node>
	<node id="9871666418" lat="68.898375" lon="19.0763805" version="1" timestamp="2022-07-07T06:07:54Z" changeset="123301987" uid="3497659" user="NKA">
		<tag k="alt_name" v="Litlejordsætra" />
		<tag k="name" v="Vesljordsætra" />
		<tag k="place" v="locality" />
		<tag k="ssr:stedsnr" v="624339" />
	</node>
	<node id="9871666419" lat="68.9154305" lon="18.9870056" version="1" timestamp="2022-07-07T06:07:54Z" changeset="123301987" uid="3497659" user="NKA">
		<tag k="name" v="Solbø" />
		<tag k="place" v="farm" />
		<tag k="ssr:stedsnr" v="563329" />
	</node>
	<node id="9871666420" lat="69.1095583" lon="18.92245" version="1" timestamp="2022-07-07T06:07:54Z" changeset="123301987" uid="3497659" user="NKA">
		<tag k="name" v="Bjørkeng" />
		<tag k="place" v="farm" />
		<tag k="ssr:stedsnr" v="929818" />
	</node>
	<node id="9871666421" lat="68.8925416" lon="18.8931694" version="1" timestamp="2022-07-07T06:07:54Z" changeset="123301987" uid="3497659" user="NKA">
		<tag k="historic" v="shieling" />
		<tag k="name" v="Kjerkesnessætra" />
		<tag k="place" v="isolated_dwelling" />
		<tag k="ssr:stedsnr" v="624341" />
	</node>
	<node id="9871666422" lat="69.1093111" lon="18.913925" version="1" timestamp="2022-07-07T06:07:54Z" changeset="123301987" uid="3497659" user="NKA">
		<tag k="name" v="Sørås" />
		<tag k="place" v="farm" />
		<tag k="ssr:stedsnr" v="261788" />
	</node>
	<node id="9871666423" lat="69.1052611" lon="18.9135222" version="1" timestamp="2022-07-07T06:07:54Z" changeset="123301987" uid="3497659" user="NKA">
		<tag k="alt_name" v="Lillevoll" />
		<tag k="name" v="Litlevoll" />
		<tag k="place" v="farm" />
		<tag k="ssr:stedsnr" v="504877" />
	</node>
	<node id="9871666424" lat="69.1166945" lon="18.947961" version="1" timestamp="2022-07-07T06:07:54Z" changeset="123301987" uid="3497659" user="NKA">
		<tag k="name" v="Åserud" />
		<tag k="place" v="farm" />
		<tag k="ssr:stedsnr" v="564822" />
	</node>
	<node id="9871666425" lat="69.1258722" lon="18.9834417" version="1" timestamp="2022-07-07T06:07:54Z" changeset="123301987" uid="3497659" user="NKA">
		<tag k="name" v="Løvås" />
		<tag k="place" v="farm" />
		<tag k="ssr:stedsnr" v="868790" />
	</node>
	<node id="9871666426" lat="69.1291137" lon="19.0015017" version="1" timestamp="2022-07-07T06:07:54Z" changeset="123301987" uid="3497659" user="NKA">
		<tag k="alt_name" v="Oppgården" />
		<tag k="name" v="Oppgård" />
		<tag k="place" v="farm" />
		<tag k="ssr:stedsnr" v="625797" />
	</node>
	<node id="9871666427" lat="69.1451684" lon="18.9480368" version="1" timestamp="2022-07-07T06:07:54Z" changeset="123301987" uid="3497659" user="NKA">
		<tag k="historic" v="shieling" />
		<tag k="name" v="Hilbertsætra" />
		<tag k="place" v="isolated_dwelling" />
		<tag k="ssr:stedsnr" v="658382" />
	</node>
	<node id="9871666428" lat="69.1251583" lon="18.9976194" version="1" timestamp="2022-07-07T06:07:54Z" changeset="123301987" uid="3497659" user="NKA">
		<tag k="historic" v="shieling" />
		<tag k="name" v="Markussætra" />
		<tag k="place" v="isolated_dwelling" />
		<tag k="ssr:stedsnr" v="293712" />
	</node>
	<node id="9871666429" lat="69.328101" lon="18.5714591" version="1" timestamp="2022-07-07T06:07:54Z" changeset="123301987" uid="3497659" user="NKA">
		<tag k="name" v="Ytre Navaren" />
		<tag k="place" v="farm" />
		<tag k="ssr:stedsnr" v="385194" />
	</node>
	<node id="9871666430" lat="69.2858821" lon="18.5348192" version="1" timestamp="2022-07-07T06:07:54Z" changeset="123301987" uid="3497659" user="NKA">
		<tag k="name" v="Hollendernes" />
		<tag k="place" v="hamlet" />
		<tag k="ssr:stedsnr" v="939059" />
	</node>
	<node id="9871666431" lat="69.1218806" lon="18.7714054" version="1" timestamp="2022-07-07T06:07:54Z" changeset="123301987" uid="3497659" user="NKA">
		<tag k="name" v="Teiglund" />
		<tag k="place" v="farm" />
		<tag k="ssr:stedsnr" v="746792" />
	</node>
	<node id="9871666432" lat="69.3223011" lon="18.5650357" version="1" timestamp="2022-07-07T06:07:54Z" changeset="123301987" uid="3497659" user="NKA">
		<tag k="name" v="Ytre Navaren" />
		<tag k="place" v="farm" />
		<tag k="ssr:stedsnr" v="203216" />
	</node>
	<node id="9871666433" lat="69.1062444" lon="18.8307055" version="1" timestamp="2022-07-07T06:07:54Z" changeset="123301987" uid="3497659" user="NKA">
		<tag k="name" v="Nyland" />
		<tag k="place" v="farm" />
		<tag k="ssr:stedsnr" v="657387" />
	</node>
	<node id="9871666434" lat="69.1121779" lon="18.7693697" version="1" timestamp="2022-07-07T06:07:54Z" changeset="123301987" uid="3497659" user="NKA">
		<tag k="name" v="Austbø" />
		<tag k="place" v="farm" />
		<tag k="ssr:stedsnr" v="868781" />
	</node>
	<node id="9871666435" lat="69.1186777" lon="18.7735805" version="1" timestamp="2022-07-07T06:07:54Z" changeset="123301987" uid="3497659" user="NKA">
		<tag k="name" v="Lundberg" />
		<tag k="place" v="farm" />
		<tag k="ssr:stedsnr" v="625834" />
	</node>
	<node id="9871666436" lat="69.104875" lon="18.8432249" version="1" timestamp="2022-07-07T06:07:54Z" changeset="123301987" uid="3497659" user="NKA">
		<tag k="name" v="Granli" />
		<tag k="place" v="farm" />
		<tag k="ssr:stedsnr" v="504806" />
	</node>
	<node id="9871666437" lat="69.1127186" lon="18.8708489" version="1" timestamp="2022-07-07T06:07:54Z" changeset="123301987" uid="3497659" user="NKA">
		<tag k="name" v="Øvre Takelvdal" />
		<tag k="place" v="hamlet" />
		<tag k="ssr:stedsnr" v="354387" />
	</node>
	<node id="9871666438" lat="69.1063083" lon="18.8212112" version="1" timestamp="2022-07-07T06:07:54Z" changeset="123301987" uid="3497659" user="NKA">
		<tag k="name" v="Rystad" />
		<tag k="place" v="farm" />
		<tag k="ssr:stedsnr" v="443790" />
	</node>
	<node id="9871666439" lat="69.0854583" lon="19.1380833" version="1" timestamp="2022-07-07T06:07:54Z" changeset="123301987" uid="3497659" user="NKA">
		<tag k="name" v="Haugli" />
		<tag k="place" v="farm" />
		<tag k="ssr:stedsnr" v="899293" />
	</node>
	<node id="9871666440" lat="69.1149444" lon="18.7781667" version="1" timestamp="2022-07-07T06:07:54Z" changeset="123301987" uid="3497659" user="NKA">
		<tag k="alt_name" v="Vårmoen" />
		<tag k="name" v="Vårmo" />
		<tag k="place" v="farm" />
		<tag k="ssr:stedsnr" v="139820" />
	</node>
	<node id="9871666441" lat="69.0872377" lon="19.1444004" version="1" timestamp="2022-07-07T06:07:54Z" changeset="123301987" uid="3497659" user="NKA">
		<tag k="name" v="Jensenhytta" />
		<tag k="place" v="isolated_dwelling" />
		<tag k="ssr:stedsnr" v="170323" />
	</node>
	<node id="9871666442" lat="69.092763" lon="19.1093905" version="1" timestamp="2022-07-07T06:07:54Z" changeset="123301987" uid="3497659" user="NKA">
		<tag k="name" v="Elvestad" />
		<tag k="place" v="farm" />
		<tag k="ssr:stedsnr" v="807847" />
	</node>
	<node id="9871666443" lat="69.1341838" lon="19.0224709" version="1" timestamp="2022-07-07T06:07:54Z" changeset="123301987" uid="3497659" user="NKA">
		<tag k="name" v="Skogli" />
		<tag k="place" v="farm" />
		<tag k="ssr:stedsnr" v="321769" />
	</node>
	<node id="9871666444" lat="69.0620889" lon="18.6864721" version="1" timestamp="2022-07-07T06:07:54Z" changeset="123301987" uid="3497659" user="NKA">
		<tag k="name" v="Bruvoll" />
		<tag k="place" v="farm" />
		<tag k="ssr:stedsnr" v="929847" />
	</node>
	<node id="9871666445" lat="69.0839167" lon="18.6357778" version="1" timestamp="2022-07-07T06:07:54Z" changeset="123301987" uid="3497659" user="NKA">
		<tag k="name" v="Brannmodal" />
		<tag k="place" v="farm" />
		<tag k="ssr:stedsnr" v="929863" />
	</node>
	<node id="9871666446" lat="69.2572953" lon="18.7115915" version="1" timestamp="2022-07-07T06:07:54Z" changeset="123301987" uid="3497659" user="NKA">
		<tag k="name" v="Berglund" />
		<tag k="place" v="farm" />
		<tag k="ssr:stedsnr" v="686042" />
	</node>
	<node id="9871666447" lat="69.1406" lon="18.6794499" version="1" timestamp="2022-07-07T06:07:54Z" changeset="123301987" uid="3497659" user="NKA">
		<tag k="name" v="Bekkevoll" />
		<tag k="place" v="farm" />
		<tag k="ssr:stedsnr" v="807787" />
	</node>
	<node id="9871666448" lat="69.2545278" lon="18.6904723" version="1" timestamp="2022-07-07T06:07:54Z" changeset="123301987" uid="3497659" user="NKA">
		<tag k="name" v="Enga" />
		<tag k="place" v="farm" />
		<tag k="ssr:stedsnr" v="686041" />
	</node>
	<node id="9871666449" lat="69.0500485" lon="18.6858905" version="1" timestamp="2022-07-07T06:07:54Z" changeset="123301987" uid="3497659" user="NKA">
		<tag k="alt_name" v="Foslia" />
		<tag k="name" v="Fosslia" />
		<tag k="place" v="hamlet" />
		<tag k="ssr:stedsnr" v="686229" />
	</node>
	<node id="9871666450" lat="69.0497478" lon="18.7479298" version="1" timestamp="2022-07-07T06:07:54Z" changeset="123301987" uid="3497659" user="NKA">
		<tag k="name" v="Lyngstad" />
		<tag k="place" v="farm" />
		<tag k="ssr:stedsnr" v="443211" />
	</node>
	<node id="9871666451" lat="69.2264371" lon="18.6551003" version="1" timestamp="2022-07-07T06:07:54Z" changeset="123301987" uid="3497659" user="NKA">
		<tag k="name" v="Nermoen" />
		<tag k="place" v="farm" />
		<tag k="ssr:stedsnr" v="564952" />
	</node>
	<node id="9871666452" lat="69.2366465" lon="18.6856643" version="1" timestamp="2022-07-07T06:07:54Z" changeset="123301987" uid="3497659" user="NKA">
		<tag k="alt_name" v="Skjelstad" />
		<tag k="name" v="Skjellstad" />
		<tag k="place" v="farm" />
		<tag k="ssr:stedsnr" v="321903" />
	</node>
	<node id="9871666453" lat="69.0723278" lon="18.6766832" version="1" timestamp="2022-07-07T06:07:54Z" changeset="123301987" uid="3497659" user="NKA">
		<tag k="name" v="Bergset" />
		<tag k="place" v="farm" />
		<tag k="ssr:stedsnr" v="322842" />
	</node>
	<node id="9871666454" lat="69.2134667" lon="18.6850082" version="1" timestamp="2022-07-07T06:07:54Z" changeset="123301987" uid="3497659" user="NKA">
		<tag k="loc_name:se" v="Stuoragieddi" />
		<tag k="name" v="Storjorda" />
		<tag k="name:no" v="Storjorda" />
		<tag k="place" v="hamlet" />
		<tag k="ssr:stedsnr" v="686933" />
	</node>
	<node id="9871666455" lat="69.0847086" lon="18.6382435" version="1" timestamp="2022-07-07T06:07:54Z" changeset="123301987" uid="3497659" user="NKA">
		<tag k="alt_name" v="Nordre Rognmo" />
		<tag k="name" v="Nordre Rognmoen" />
		<tag k="place" v="farm" />
		<tag k="ssr:stedsnr" v="50922" />
	</node>
	<node id="9871666456" lat="69.1971174" lon="18.7212744" version="1" timestamp="2022-07-07T06:07:54Z" changeset="123301987" uid="3497659" user="NKA">
		<tag k="loc_name:se" v="Skáiddidállu" />
		<tag k="name" v="Skardalen" />
		<tag k="name:no" v="Skardalen" />
		<tag k="place" v="farm" />
		<tag k="ssr:stedsnr" v="233345" />
	</node>
	<node id="9871666457" lat="69.2274139" lon="18.6829445" version="1" timestamp="2022-07-07T06:07:54Z" changeset="123301987" uid="3497659" user="NKA">
		<tag k="name" v="Finnheimen" />
		<tag k="place" v="locality" />
		<tag k="ssr:stedsnr" v="51279" />
	</node>
	<node id="9871666458" lat="69.1952528" lon="18.7056779" version="1" timestamp="2022-07-07T06:07:54Z" changeset="123301987" uid="3497659" user="NKA">
		<tag k="name" v="Bersvendsætra" />
		<tag k="old_name" v="Bersvensætra" />
		<tag k="place" v="isolated_dwelling" />
		<tag k="ssr:stedsnr" v="201994" />
	</node>
	<node id="9871666459" lat="69.1271767" lon="18.711449" version="1" timestamp="2022-07-07T06:07:54Z" changeset="123301987" uid="3497659" user="NKA">
		<tag k="alt_name" v="Bjørklia;Bjørklien" />
		<tag k="name" v="Solli" />
		<tag k="place" v="farm" />
		<tag k="ssr:stedsnr" v="1077443" />
	</node>
	<node id="9871666460" lat="69.0901694" lon="18.7161639" version="1" timestamp="2022-07-07T06:07:54Z" changeset="123301987" uid="3497659" user="NKA">
		<tag k="historic" v="shieling" />
		<tag k="name" v="Rognmosætra" />
		<tag k="place" v="isolated_dwelling" />
		<tag k="ssr:stedsnr" v="657148" />
	</node>
	<node id="9871666461" lat="69.1121973" lon="18.7623972" version="1" timestamp="2022-07-07T06:07:54Z" changeset="123301987" uid="3497659" user="NKA">
		<tag k="alt_name" v="Kjosmoen" />
		<tag k="name" v="Kjosmo" />
		<tag k="place" v="farm" />
		<tag k="ssr:stedsnr" v="564833" />
	</node>
	<node id="9871666462" lat="69.0515778" lon="18.7387889" version="1" timestamp="2022-07-07T06:07:54Z" changeset="123301987" uid="3497659" user="NKA">
		<tag k="name" v="Liatun" />
		<tag k="place" v="farm" />
		<tag k="ssr:stedsnr" v="415124" />
	</node>
	<node id="9871666463" lat="69.0811139" lon="18.7065638" version="1" timestamp="2022-07-07T06:07:54Z" changeset="123301987" uid="3497659" user="NKA">
		<tag k="historic" v="shieling" />
		<tag k="name" v="Gorosætra" />
		<tag k="place" v="isolated_dwelling" />
		<tag k="ssr:stedsnr" v="172146" />
	</node>
	<node id="9871666464" lat="69.1977389" lon="18.6996861" version="1" timestamp="2022-07-07T06:07:54Z" changeset="123301987" uid="3497659" user="NKA">
		<tag k="name" v="Skarheimen" />
		<tag k="place" v="locality" />
		<tag k="ssr:stedsnr" v="354321" />
	</node>
	<node id="9871666465" lat="69.019725" lon="19.331439" version="1" timestamp="2022-07-07T06:07:54Z" changeset="123301987" uid="3497659" user="NKA">
		<tag k="alt_name" v="Gardmo" />
		<tag k="name" v="Garmo" />
		<tag k="place" v="farm" />
		<tag k="ssr:stedsnr" v="929395" />
	</node>
	<node id="9871666466" lat="69.1209639" lon="18.7314972" version="1" timestamp="2022-07-07T06:07:54Z" changeset="123301987" uid="3497659" user="NKA">
		<tag k="alt_name" v="Ørstad" />
		<tag k="name" v="Aurstad" />
		<tag k="place" v="farm" />
		<tag k="ssr:stedsnr" v="18809" />
	</node>
	<node id="9871666467" lat="68.9887445" lon="19.2328389" version="1" timestamp="2022-07-07T06:07:54Z" changeset="123301987" uid="3497659" user="NKA">
		<tag k="name" v="Moan" />
		<tag k="place" v="farm" />
		<tag k="ssr:stedsnr" v="807241" />
	</node>
	<node id="9871666468" lat="69.0254639" lon="19.2722583" version="1" timestamp="2022-07-07T06:07:54Z" changeset="123301987" uid="3497659" user="NKA">
		<tag k="name" v="Lunheim" />
		<tag k="place" v="farm" />
		<tag k="ssr:stedsnr" v="960632" />
	</node>
	<node id="9871666469" lat="69.0283917" lon="19.2934139" version="1" timestamp="2022-07-07T06:07:54Z" changeset="123301987" uid="3497659" user="NKA">
		<tag k="name" v="Gimle" />
		<tag k="place" v="farm" />
		<tag k="ssr:stedsnr" v="596284" />
	</node>
	<node id="9871666470" lat="68.9928389" lon="19.1327915" version="1" timestamp="2022-07-07T06:07:54Z" changeset="123301987" uid="3497659" user="NKA">
		<tag k="name" v="Skogstad" />
		<tag k="place" v="farm" />
		<tag k="ssr:stedsnr" v="685360" />
	</node>
	<node id="9871666471" lat="69.0280083" lon="19.2764416" version="1" timestamp="2022-07-07T06:07:54Z" changeset="123301987" uid="3497659" user="NKA">
		<tag k="name" v="Haug" />
		<tag k="place" v="farm" />
		<tag k="ssr:stedsnr" v="504413" />
	</node>
	<node id="9871666472" lat="69.0184449" lon="19.2788318" version="1" timestamp="2022-07-07T06:07:54Z" changeset="123301987" uid="3497659" user="NKA">
		<tag k="name" v="Skjold" />
		<tag k="place" v="farm" />
		<tag k="ssr:stedsnr" v="564433" />
	</node>
	<node id="9871666473" lat="69.0360278" lon="19.289064" version="1" timestamp="2022-07-07T06:07:54Z" changeset="123301987" uid="3497659" user="NKA">
		<tag k="name" v="Solbakken" />
		<tag k="place" v="farm" />
		<tag k="ssr:stedsnr" v="443442" />
	</node>
	<node id="9871666474" lat="69.0257139" lon="19.2738499" version="1" timestamp="2022-07-07T06:07:54Z" changeset="123301987" uid="3497659" user="NKA">
		<tag k="name" v="Dørumlia" />
		<tag k="place" v="neighbourhood" />
		<tag k="ssr:stedsnr" v="446994" />
	</node>
	<node id="9871666475" lat="68.9892645" lon="19.14347" version="1" timestamp="2022-07-07T06:07:54Z" changeset="123301987" uid="3497659" user="NKA">
		<tag k="name" v="Tillermoen" />
		<tag k="place" v="farm" />
		<tag k="ssr:stedsnr" v="392127" />
	</node>
	<node id="9871666476" lat="68.9673139" lon="19.3258667" version="1" timestamp="2022-07-07T06:07:54Z" changeset="123301987" uid="3497659" user="NKA">
		<tag k="alt_name" v="Øverbysæter" />
		<tag k="historic" v="shieling" />
		<tag k="name" v="Øverbysætra" />
		<tag k="place" v="isolated_dwelling" />
		<tag k="ssr:stedsnr" v="442274" />
	</node>
	<node id="9871666477" lat="69.0230889" lon="19.3251251" version="1" timestamp="2022-07-07T06:07:54Z" changeset="123301987" uid="3497659" user="NKA">
		<tag k="alt_name" v="Bjørgan" />
		<tag k="name" v="Bjørkan" />
		<tag k="place" v="farm" />
		<tag k="ssr:stedsnr" v="261429" />
	</node>
	<node id="9871666478" lat="68.9932806" lon="19.1296028" version="1" timestamp="2022-07-07T06:07:54Z" changeset="123301987" uid="3497659" user="NKA">
		<tag k="alt_name" v="Tillermo, nedre;Nedre Tillermo" />
		<tag k="name" v="Tillermoen nedre" />
		<tag k="old_name" v="Tillermo" />
		<tag k="place" v="farm" />
		<tag k="ssr:stedsnr" v="321387" />
	</node>
	<node id="9871666479" lat="69.0398111" lon="19.2863946" version="1" timestamp="2022-07-07T06:07:54Z" changeset="123301987" uid="3497659" user="NKA">
		<tag k="name" v="Berglund" />
		<tag k="place" v="farm" />
		<tag k="ssr:stedsnr" v="139452" />
	</node>
	<node id="9871666480" lat="69.00275" lon="19.1235694" version="1" timestamp="2022-07-07T06:07:54Z" changeset="123301987" uid="3497659" user="NKA">
		<tag k="name" v="Floli" />
		<tag k="place" v="farm" />
		<tag k="ssr:stedsnr" v="261152" />
	</node>
	<node id="9871666481" lat="69.0093056" lon="19.2775555" version="1" timestamp="2022-07-07T06:07:54Z" changeset="123301987" uid="3497659" user="NKA">
		<tag k="name" v="Solstad" />
		<tag k="place" v="farm" />
		<tag k="ssr:stedsnr" v="868388" />
	</node>
	<node id="9871666482" lat="69.0123444" lon="19.2872027" version="1" timestamp="2022-07-07T06:07:54Z" changeset="123301987" uid="3497659" user="NKA">
		<tag k="name" v="Finnsnes" />
		<tag k="place" v="farm" />
		<tag k="ssr:stedsnr" v="200392" />
	</node>
	<node id="9871666483" lat="68.99395" lon="19.1061083" version="1" timestamp="2022-07-07T06:07:54Z" changeset="123301987" uid="3497659" user="NKA">
		<tag k="name" v="Sveås" />
		<tag k="place" v="farm" />
		<tag k="ssr:stedsnr" v="867428" />
	</node>
	<node id="9871666484" lat="69.0298702" lon="19.2755478" version="1" timestamp="2022-07-07T06:07:54Z" changeset="123301987" uid="3497659" user="NKA">
		<tag k="name" v="Maukstad" />
		<tag k="place" v="farm" />
		<tag k="ssr:stedsnr" v="868429" />
	</node>
	<node id="9871666485" lat="69.017125" lon="19.2798722" version="1" timestamp="2022-07-07T06:07:54Z" changeset="123301987" uid="3497659" user="NKA">
		<tag k="name" v="Framnes" />
		<tag k="place" v="farm" />
		<tag k="ssr:stedsnr" v="718856" />
	</node>
	<node id="9871666486" lat="68.9903765" lon="19.1829126" version="1" timestamp="2022-07-07T06:07:54Z" changeset="123301987" uid="3497659" user="NKA">
		<tag k="name" v="Solbergnes" />
		<tag k="place" v="farm" />
		<tag k="ssr:stedsnr" v="867409" />
	</node>
	<node id="9871666487" lat="69.0119285" lon="19.2785503" version="1" timestamp="2022-07-07T06:07:54Z" changeset="123301987" uid="3497659" user="NKA">
		<tag k="name" v="Skjeggesnes" />
		<tag k="place" v="farm" />
		<tag k="ssr:stedsnr" v="261410" />
	</node>
	<node id="9871666488" lat="69.0323055" lon="19.2827167" version="1" timestamp="2022-07-07T06:07:54Z" changeset="123301987" uid="3497659" user="NKA">
		<tag k="name" v="Nordli" />
		<tag k="place" v="farm" />
		<tag k="ssr:stedsnr" v="625426" />
	</node>
	<node id="9871666489" lat="68.9964904" lon="19.2543194" version="1" timestamp="2022-07-07T06:07:54Z" changeset="123301987" uid="3497659" user="NKA">
		<tag k="name" v="Skjeggestad" />
		<tag k="place" v="farm" />
		<tag k="ssr:stedsnr" v="79242" />
	</node>
	<node id="9871666490" lat="68.9982334" lon="19.1175028" version="1" timestamp="2022-07-07T06:07:54Z" changeset="123301987" uid="3497659" user="NKA">
		<tag k="name" v="Øya" />
		<tag k="place" v="farm" />
		<tag k="ssr:stedsnr" v="111483" />
	</node>
	<node id="9871666491" lat="68.9863412" lon="19.1841756" version="1" timestamp="2022-07-07T06:07:54Z" changeset="123301987" uid="3497659" user="NKA">
		<tag k="alt_name" v="Kristianamo" />
		<tag k="name" v="Kristianemo" />
		<tag k="place" v="farm" />
		<tag k="ssr:stedsnr" v="78394" />
	</node>
	<node id="9871666492" lat="69.0272305" lon="19.2741471" version="1" timestamp="2022-07-07T06:07:54Z" changeset="123301987" uid="3497659" user="NKA">
		<tag k="name" v="Dørum" />
		<tag k="place" v="farm" />
		<tag k="ssr:stedsnr" v="140421" />
	</node>
	<node id="9871666493" lat="68.8846369" lon="19.0491081" version="1" timestamp="2022-07-07T06:07:54Z" changeset="123301987" uid="3497659" user="NKA">
		<tag k="alt_name" v="Jensvoll;Jensvoll, øvre" />
		<tag k="name" v="Øvre Jensvoll" />
		<tag k="place" v="farm" />
		<tag k="ssr:stedsnr" v="139328" />
	</node>
	<node id="9871666494" lat="68.8794333" lon="19.0747166" version="1" timestamp="2022-07-07T06:07:54Z" changeset="123301987" uid="3497659" user="NKA">
		<tag k="alt_name" v="Lauvli" />
		<tag k="name" v="Løvli" />
		<tag k="place" v="farm" />
		<tag k="ssr:stedsnr" v="563300" />
	</node>
	<node id="9871666495" lat="68.882475" lon="18.8811418" version="1" timestamp="2022-07-07T06:07:54Z" changeset="123301987" uid="3497659" user="NKA">
		<tag k="alt_name" v="Kjosvoldsætra" />
		<tag k="historic" v="shieling" />
		<tag k="name" v="Kjosvollsætra" />
		<tag k="place" v="isolated_dwelling" />
		<tag k="ssr:stedsnr" v="563315" />
	</node>
	<node id="9871666496" lat="68.8949972" lon="19.0125668" version="1" timestamp="2022-07-07T06:07:54Z" changeset="123301987" uid="3497659" user="NKA">
		<tag k="name" v="Skredgjerdet" />
		<tag k="place" v="isolated_dwelling" />
		<tag k="ssr:stedsnr" v="232523" />
	</node>
	<node id="9871666497" lat="68.8732666" lon="19.0705027" version="1" timestamp="2022-07-07T06:07:54Z" changeset="123301987" uid="3497659" user="NKA">
		<tag k="name" v="Heimjord" />
		<tag k="place" v="farm" />
		<tag k="ssr:stedsnr" v="563297" />
	</node>
	<node id="9871666498" lat="68.8813028" lon="19.0670167" version="1" timestamp="2022-07-07T06:07:54Z" changeset="123301987" uid="3497659" user="NKA">
		<tag k="name" v="Moeng" />
		<tag k="place" v="farm" />
		<tag k="ssr:stedsnr" v="563302" />
	</node>
	<node id="9871666499" lat="68.8828783" lon="18.8886057" version="1" timestamp="2022-07-07T06:07:54Z" changeset="123301987" uid="3497659" user="NKA">
		<tag k="historic" v="shieling" />
		<tag k="name" v="Bjørnstadsætra" />
		<tag k="place" v="isolated_dwelling" />
		<tag k="ssr:stedsnr" v="563312" />
	</node>
	<node id="9871666500" lat="68.8694" lon="19.0719583" version="1" timestamp="2022-07-07T06:07:54Z" changeset="123301987" uid="3497659" user="NKA">
		<tag k="name" v="Åsbakk" />
		<tag k="place" v="farm" />
		<tag k="ssr:stedsnr" v="79293" />
	</node>
	<node id="9871666501" lat="68.8724027" lon="18.8816333" version="1" timestamp="2022-07-07T06:07:54Z" changeset="123301987" uid="3497659" user="NKA">
		<tag k="historic" v="shieling" />
		<tag k="name" v="Håkåsætra" />
		<tag k="place" v="isolated_dwelling" />
		<tag k="ssr:stedsnr" v="415338" />
	</node>
	<node id="9871666502" lat="69.0119466" lon="19.4133968" version="1" timestamp="2022-07-07T06:07:54Z" changeset="123301987" uid="3497659" user="NKA">
		<tag k="name" v="Divimoen" />
		<tag k="place" v="farm" />
		<tag k="ssr:stedsnr" v="807388" />
	</node>
	<node id="9871666503" lat="68.8821583" lon="18.8810473" version="1" timestamp="2022-07-07T06:07:54Z" changeset="123301987" uid="3497659" user="NKA">
		<tag k="historic" v="shieling" />
		<tag k="name" v="Solheimsætra" />
		<tag k="place" v="isolated_dwelling" />
		<tag k="ssr:stedsnr" v="139325" />
	</node>
	<node id="9871666504" lat="69.2494028" lon="18.4801555" version="1" timestamp="2022-07-07T06:07:54Z" changeset="123301987" uid="3497659" user="NKA">
		<tag k="name" v="Sommarbakken" />
		<tag k="place" v="farm" />
		<tag k="ssr:stedsnr" v="806672" />
	</node>
	<node id="9871666505" lat="68.8619111" lon="19.1470278" version="1" timestamp="2022-07-07T06:07:54Z" changeset="123301987" uid="3497659" user="NKA">
		<tag k="name" v="Heimjordsætra" />
		<tag k="place" v="locality" />
		<tag k="ssr:stedsnr" v="928266" />
	</node>
	<node id="9871666506" lat="69.1820016" lon="18.569906" version="1" timestamp="2022-07-07T06:07:54Z" changeset="123301987" uid="3497659" user="NKA">
		<tag k="name" v="Kjeldstad" />
		<tag k="place" v="farm" />
		<tag k="ssr:stedsnr" v="787843" />
	</node>
	<node id="9871666507" lat="69.1138305" lon="18.8944111" version="1" timestamp="2022-07-07T06:07:54Z" changeset="123301987" uid="3497659" user="NKA">
		<tag k="name" v="Sørli" />
		<tag k="place" v="farm" />
		<tag k="ssr:stedsnr" v="807806" />
	</node>
	<node id="9871666508" lat="69.2339568" lon="18.311806" version="1" timestamp="2022-07-07T06:07:54Z" changeset="123301987" uid="3497659" user="NKA">
		<tag k="alt_name" v="Fugllien" />
		<tag k="name" v="Fugllia" />
		<tag k="place" v="hamlet" />
		<tag k="ssr:stedsnr" v="503623" />
	</node>
	<node id="9871666509" lat="69.0369908" lon="18.784577" version="1" timestamp="2022-07-07T06:07:54Z" changeset="123301987" uid="3497659" user="NKA">
		<tag k="name" v="Lundnes" />
		<tag k="place" v="farm" />
		<tag k="ssr:stedsnr" v="746231" />
	</node>
	<node id="9871666510" lat="68.9649949" lon="19.7333837" version="1" timestamp="2022-07-07T06:07:54Z" changeset="123301987" uid="3497659" user="NKA">
		<tag k="alt_name" v="Rostamo" />
		<tag k="name" v="Rostamoen" />
		<tag k="place" v="farm" />
		<tag k="ssr:stedsnr" v="503211" />
	</node>
	<node id="9871666511" lat="68.9331872" lon="19.5054321" version="1" timestamp="2022-07-07T06:07:54Z" changeset="123301987" uid="3497659" user="NKA">
		<tag k="alt_name" v="Steinvoll, øvre;Stenvold øvre" />
		<tag k="name" v="Øvre Steinvoll" />
		<tag k="place" v="farm" />
		<tag k="ssr:stedsnr" v="745235" />
	</node>
	<node id="9871666512" lat="68.9479641" lon="19.5031124" version="1" timestamp="2022-07-07T06:07:54Z" changeset="123301987" uid="3497659" user="NKA">
		<tag k="name" v="Uleberg" />
		<tag k="place" v="farm" />
		<tag k="ssr:stedsnr" v="321182" />
	</node>
	<node id="9871666513" lat="69.0265333" lon="19.3150195" version="1" timestamp="2022-07-07T06:07:54Z" changeset="123301987" uid="3497659" user="NKA">
		<tag k="loc_name:se" v="Guolban" />
		<tag k="name" v="Bjørkeng" />
		<tag k="name:no" v="Bjørkeng" />
		<tag k="place" v="farm" />
		<tag k="ssr:stedsnr" v="443437" />
	</node>
	<node id="9871666514" lat="69.2349558" lon="18.5198492" version="1" timestamp="2022-07-07T06:07:54Z" changeset="123301987" uid="3497659" user="NKA">
		<tag k="alt_name" v="Luneborg" />
		<tag k="name" v="Lunneborg" />
		<tag k="place" v="hamlet" />
		<tag k="ssr:stedsnr" v="382660" />
	</node>
	<node id="9871666515" lat="69.0115111" lon="18.9457777" version="1" timestamp="2022-07-07T06:07:54Z" changeset="123301987" uid="3497659" user="NKA">
		<tag k="name" v="Hektoen" />
		<tag k="place" v="farm" />
		<tag k="ssr:stedsnr" v="322188" />
	</node>
	<node id="9871666516" lat="68.9979861" lon="19.0302585" version="1" timestamp="2022-07-07T06:07:54Z" changeset="123301987" uid="3497659" user="NKA">
		<tag k="name" v="Skog" />
		<tag k="place" v="farm" />
		<tag k="ssr:stedsnr" v="232501" />
	</node>
	<node id="9871666517" lat="68.8906945" lon="19.0658972" version="1" timestamp="2022-07-07T06:07:54Z" changeset="123301987" uid="3497659" user="NKA">
		<tag k="name" v="Fossheim" />
		<tag k="place" v="farm" />
		<tag k="ssr:stedsnr" v="596566" />
	</node>
	<node id="9871666518" lat="69.0106945" lon="19.4089999" version="1" timestamp="2022-07-07T06:07:54Z" changeset="123301987" uid="3497659" user="NKA">
		<tag k="name" v="Odden" />
		<tag k="place" v="farm" />
		<tag k="ssr:stedsnr" v="686407" />
	</node>
	<node id="9871666519" lat="69.1948194" lon="18.7049416" version="1" timestamp="2022-07-07T06:07:54Z" changeset="123301987" uid="3497659" user="NKA">
		<tag k="historic" v="shieling" />
		<tag k="name" v="Martinsætra" />
		<tag k="place" v="isolated_dwelling" />
		<tag k="ssr:stedsnr" v="233342" />
	</node>
	<node id="9871666520" lat="69.2294031" lon="18.4661531" version="1" timestamp="2022-07-07T06:07:54Z" changeset="123301987" uid="3497659" user="NKA">
		<tag k="name" v="Pusholm" />
		<tag k="place" v="hamlet" />
		<tag k="ssr:stedsnr" v="443665" />
	</node>
	<node id="9871666521" lat="68.8982305" lon="19.0330417" version="1" timestamp="2022-07-07T06:07:54Z" changeset="123301987" uid="3497659" user="NKA">
		<tag k="name" v="Sandeggen" />
		<tag k="place" v="hamlet" />
		<tag k="ssr:stedsnr" v="685311" />
	</node>
	<node id="9871666522" lat="69.0121083" lon="19.2762611" version="1" timestamp="2022-07-07T06:07:54Z" changeset="123301987" uid="3497659" user="NKA">
		<tag k="name" v="Skaugom" />
		<tag k="place" v="farm" />
		<tag k="ssr:stedsnr" v="382400" />
	</node>
	<node id="9871666523" lat="68.9317861" lon="19.5062362" version="1" timestamp="2022-07-07T06:07:54Z" changeset="123301987" uid="3497659" user="NKA">
		<tag k="alt_name" v="Steinberg" />
		<tag k="name" v="Stenberg" />
		<tag k="place" v="farm" />
		<tag k="ssr:stedsnr" v="260247" />
	</node>
	<node id="9871666524" lat="68.9726167" lon="19.6620862" version="1" timestamp="2022-07-07T06:07:54Z" changeset="123301987" uid="3497659" user="NKA">
		<tag k="name" v="Mo" />
		<tag k="place" v="farm" />
		<tag k="ssr:stedsnr" v="260281" />
	</node>
	<node id="9871666525" lat="69.176675" lon="18.4637501" version="1" timestamp="2022-07-07T06:07:54Z" changeset="123301987" uid="3497659" user="NKA">
		<tag k="name" v="Elvelund" />
		<tag k="place" v="farm" />
		<tag k="ssr:stedsnr" v="686519" />
	</node>
	<node id="9871666526" lat="68.9773083" lon="19.4733945" version="1" timestamp="2022-07-07T06:07:54Z" changeset="123301987" uid="3497659" user="NKA">
		<tag k="alt_name" v="Steinbakken" />
		<tag k="name" v="Stenbakken" />
		<tag k="place" v="farm" />
		<tag k="ssr:stedsnr" v="806229" />
	</node>
	<node id="9871666527" lat="68.9961584" lon="18.9240749" version="1" timestamp="2022-07-07T06:07:54Z" changeset="123301987" uid="3497659" user="NKA">
		<tag k="alt_name" v="Tunes" />
		<tag k="name" v="Thunes" />
		<tag k="place" v="farm" />
		<tag k="ssr:stedsnr" v="260459" />
	</node>
	<node id="9871666528" lat="69.0089168" lon="19.4052058" version="1" timestamp="2022-07-07T06:07:54Z" changeset="123301987" uid="3497659" user="NKA">
		<tag k="alt_name" v="Messeltmoen" />
		<tag k="name" v="Messelmoen" />
		<tag k="place" v="farm" />
		<tag k="ssr:stedsnr" v="382387" />
	</node>
	<node id="9871666529" lat="68.9516972" lon="19.4823" version="1" timestamp="2022-07-07T06:07:54Z" changeset="123301987" uid="3497659" user="NKA">
		<tag k="alt_name" v="Steinvoll, nedre" />
		<tag k="name" v="Nedre Steinvoll" />
		<tag k="place" v="farm" />
		<tag k="ssr:stedsnr" v="138268" />
	</node>
	<node id="9871666530" lat="69.0093559" lon="19.4031302" version="1" timestamp="2022-07-07T06:07:54Z" changeset="123301987" uid="3497659" user="NKA">
		<tag k="alt_name" v="Nergård" />
		<tag k="name" v="Nygård" />
		<tag k="place" v="farm" />
		<tag k="ssr:stedsnr" v="746386" />
	</node>
	<node id="9871666531" lat="69.1098194" lon="18.9260916" version="1" timestamp="2022-07-07T06:07:54Z" changeset="123301987" uid="3497659" user="NKA">
		<tag k="name" v="Liatun" />
		<tag k="place" v="farm" />
		<tag k="ssr:stedsnr" v="779444" />
	</node>
	<node id="9871666532" lat="68.8620584" lon="19.5560444" version="1" timestamp="2022-07-07T06:07:54Z" changeset="123301987" uid="3497659" user="NKA">
		<tag k="name" v="Østlund" />
		<tag k="place" v="farm" />
		<tag k="ssr:stedsnr" v="78163" />
	</node>
	<node id="9871666533" lat="68.9289389" lon="18.967" version="1" timestamp="2022-07-07T06:07:54Z" changeset="123301987" uid="3497659" user="NKA">
		<tag k="name" v="Solheim" />
		<tag k="place" v="farm" />
		<tag k="ssr:stedsnr" v="503327" />
	</node>
	<node id="9871666534" lat="68.8930139" lon="19.0547167" version="1" timestamp="2022-07-07T06:07:54Z" changeset="123301987" uid="3497659" user="NKA">
		<tag k="alt_name" v="Veslejorda" />
		<tag k="name" v="Lillejord" />
		<tag k="place" v="farm" />
		<tag k="ssr:stedsnr" v="503300" />
	</node>
	<node id="9871666535" lat="68.8887166" lon="19.0429723" version="1" timestamp="2022-07-07T06:07:54Z" changeset="123301987" uid="3497659" user="NKA">
		<tag k="name" v="Østlund" />
		<tag k="place" v="farm" />
		<tag k="ssr:stedsnr" v="443330" />
	</node>
	<node id="5795524705" lat="68.9421292" lon="18.913356" version="2" timestamp="2022-01-21T07:34:53Z" changeset="116415921" uid="3497659" user="NKA" />
	<node id="5795569340" lat="68.9420858" lon="18.9131923" version="2" timestamp="2022-01-21T07:34:53Z" changeset="116415921" uid="3497659" user="NKA" />
	<node id="5795524053" lat="68.969064" lon="18.9261374" version="1" timestamp="2018-07-30T09:56:08Z" changeset="61188905" uid="8470372" user="Entur AS | Angie Torres" />
	<node id="5795599280" lat="68.9690227" lon="18.9252429" version="1" timestamp="2018-07-30T10:11:01Z" changeset="61189372" uid="8470372" user="Entur AS | Angie Torres" />
	<node id="5795553020" lat="69.0072666" lon="19.2763268" version="1" timestamp="2018-07-30T10:01:53Z" changeset="61189027" uid="8470372" user="Entur AS | Angie Torres" />
	<node id="5795586788" lat="69.0069021" lon="19.2776017" version="1" timestamp="2018-07-30T10:08:21Z" changeset="61189251" uid="8470372" user="Entur AS | Angie Torres" />
	<node id="5795556265" lat="69.0219016" lon="19.4456127" version="1" timestamp="2018-07-30T10:02:35Z" changeset="61189027" uid="8470372" user="Entur AS | Angie Torres" />
	<node id="5795590095" lat="69.021887" lon="19.4446618" version="1" timestamp="2018-07-30T10:09:03Z" changeset="61189251" uid="8470372" user="Entur AS | Angie Torres" />
	<way id="162359234" version="3" timestamp="2022-01-21T07:16:18Z" changeset="116415148" uid="3497659" user="NKA">
		<tag k="bridge" v="yes" />
		<tag k="highway" v="unclassified" />
		<tag k="layer" v="1" />
		<tag k="loc_name" v="Ryengbrua" />
		<tag k="name" v="Ryeng bru" />
		<tag k="ssr:stedsnr" v="354374" />
		<nd ref="5795524053" />
		<nd ref="5795599280" />
	</way>
	<way id="192473428" version="4" timestamp="2022-01-21T07:16:18Z" changeset="116415148" uid="3497659" user="NKA">
		<tag k="bridge" v="yes" />
		<tag k="destination:backward" v="Kirkesdalen;Alapmoen" />
		<tag k="highway" v="unclassified" />
		<tag k="layer" v="1" />
		<tag k="maxspeed" v="80" />
		<tag k="name" v="Skjeggesnesbrua" />
		<tag k="ssr:stedsnr" v="353646" />
		<tag k="surface" v="asphalt" />
		<nd ref="5795586788" />
		<nd ref="5795553020" />
	</way>
	<way id="330342205" version="6" timestamp="2022-01-21T07:16:18Z" changeset="116415148" uid="3497659" user="NKA">
		<tag k="bridge" v="yes" />
		<tag k="destination:forward" v="Rostadalen;Rostad" />
		<tag k="destination:symbol:forward" v="camping;hotel" />
		<tag k="highway" v="secondary" />
		<tag k="layer" v="1" />
		<tag k="maxspeed" v="60" />
		<tag k="name" v="Tamokbrua" />
		<tag k="old_ref" v="174" />
		<tag k="ref" v="7824" />
		<tag k="source:maxspeed" v="sign" />
		<tag k="ssr:stedsnr" v="294829" />
		<nd ref="5795590095" />
		<nd ref="5795556265" />
	</way>
	<way id="1023147760" version="1" timestamp="2022-01-21T07:34:53Z" changeset="116415921" uid="3497659" user="NKA">
		<tag k="bridge" v="yes" />
		<tag k="highway" v="unclassified" />
		<tag k="layer" v="1" />
		<tag k="name" v="Finnbrua" />
		<tag k="ssr:stedsnr" v="807352" />
		<nd ref="5795524705" />
		<nd ref="5795569340" />
	</way>
</osm>
