<?xml version="1.0" encoding="UTF-8"?>
<osm version="0.6" generator="osmapis">
	<node id="282491564" lat="67.1014386" lon="15.3935626" version="12" timestamp="2022-06-19T22:12:15Z" changeset="122595461" uid="3497659" user="NKA">
		<tag k="name" v="Rognan" />
		<tag k="name:no" v="Rognan" />
		<tag k="name:ru" v="Рогнан" />
		<tag k="name:sje" v="Rågno" />
		<tag k="name:smj" v="Rågno" />
		<tag k="place" v="town" />
		<tag k="population" v="2583" />
		<tag k="population:date" v="2021-01-01" />
		<tag k="ref:ssb_tettsted" v="7681" />
		<tag k="source:population" v="SSB - befolkning i tettstedet" />
		<tag k="ssr:stedsnr" v="866757" />
	</node>
	<node id="2398850691" lat="66.8096806" lon="15.5714599" version="2" timestamp="2022-06-19T22:12:15Z" changeset="122595461" uid="3497659" user="NKA">
		<tag k="name" v="Junkerdal" />
		<tag k="place" v="hamlet" />
		<tag k="ssr:stedsnr" v="137824" />
	</node>
	<node id="3292406229" lat="66.982958" lon="15.4417114" version="2" timestamp="2022-06-19T22:12:15Z" changeset="122595461" uid="3497659" user="NKA">
		<tag k="loc_name" v="Vássavárheima" />
		<tag k="name" v="Vassbotn" />
		<tag k="place" v="hamlet" />
		<tag k="ssr:stedsnr" v="198683" />
	</node>
	<node id="3292406257" lat="66.9893653" lon="15.4977931" version="2" timestamp="2022-06-19T22:12:15Z" changeset="122595461" uid="3497659" user="NKA">
		<tag k="loc_name:smj" v="Vássavárre" />
		<tag k="name" v="Vassbotnfjell" />
		<tag k="name:no" v="Vassbotnfjell" />
		<tag k="place" v="hamlet" />
		<tag k="ssr:stedsnr" v="927691" />
	</node>
	<node id="3292449923" lat="66.9559859" lon="15.3790947" version="2" timestamp="2022-06-19T22:12:15Z" changeset="122595461" uid="3497659" user="NKA">
		<tag k="alt_name" v="Ekornes" />
		<tag k="name" v="Ekornnes" />
		<tag k="place" v="farm" />
		<tag k="ssr:stedsnr" v="866692" />
	</node>
	<node id="3294154888" lat="66.9862388" lon="15.3182513" version="5" timestamp="2022-06-19T22:12:15Z" changeset="122595461" uid="3497659" user="NKA">
		<tag k="loc_name:smj" v="Rævkka;Revkka" />
		<tag k="name" v="Røkland - Rivvka" />
		<tag k="name:no" v="Røkland" />
		<tag k="name:sje" v="Rivvka" />
		<tag k="place" v="village" />
		<tag k="ssr:stedsnr" v="77585" />
	</node>
	<node id="3407366830" lat="67.1652555" lon="15.4887588" version="2" timestamp="2022-06-19T22:12:15Z" changeset="122595461" uid="3497659" user="NKA">
		<tag k="loc_name:smj" v="Sæsso" />
		<tag k="name" v="Setså" />
		<tag k="name:no" v="Setså" />
		<tag k="place" v="hamlet" />
		<tag k="ssr:stedsnr" v="380982" />
	</node>
	<node id="3407738992" lat="67.1373307" lon="15.4526661" version="2" timestamp="2022-06-19T22:12:15Z" changeset="122595461" uid="3497659" user="NKA">
		<tag k="loc_name:smj" v="Laŋsæhtta" />
		<tag k="name" v="Langset" />
		<tag k="name:no" v="Langset" />
		<tag k="place" v="hamlet" />
		<tag k="ssr:stedsnr" v="926761" />
	</node>
	<node id="4209755295" lat="66.8230253" lon="15.5185016" version="3" timestamp="2022-06-19T22:12:15Z" changeset="122595461" uid="3497659" user="NKA">
		<tag k="name" v="Solvågli" />
		<tag k="place" v="hamlet" />
		<tag k="ssr:stedsnr" v="623681" />
	</node>
	<node id="4212973427" lat="66.8932271" lon="15.2988557" version="2" timestamp="2022-06-19T22:12:15Z" changeset="122595461" uid="3497659" user="NKA">
		<tag k="name" v="Bleiknesmo" />
		<tag k="place" v="hamlet" />
		<tag k="ssr:stedsnr" v="16602" />
	</node>
	<node id="5685737708" lat="66.7428598" lon="15.4636352" version="4" timestamp="2022-06-19T22:12:15Z" changeset="122595461" uid="3497659" user="NKA">
		<tag k="name" v="Lønsdal - Luonos" />
		<tag k="name:no" v="Lønsdal" />
		<tag k="name:ru" v="Лёнсдаль" />
		<tag k="name:sje" v="Luonos" />
		<tag k="place" v="hamlet" />
		<tag k="ssr:stedsnr" v="755809" />
	</node>
	<node id="5837724716" lat="67.092659" lon="15.3769606" version="2" timestamp="2022-01-26T06:22:04Z" changeset="116610177" uid="3497659" user="NKA">
		<tag k="junction" v="yes" />
		<tag k="name" v="Rønningen" />
		<tag k="ssr:stedsnr" v="695706" />
	</node>
	<node id="9831791286" lat="67.0902473" lon="15.4042194" version="1" timestamp="2022-06-19T22:12:15Z" changeset="122595461" uid="3497659" user="NKA">
		<tag k="name" v="Kvalnes" />
		<tag k="place" v="farm" />
		<tag k="ssr:stedsnr" v="137751" />
	</node>
	<node id="9831791287" lat="67.0957911" lon="15.4128004" version="1" timestamp="2022-06-19T22:12:15Z" changeset="122595461" uid="3497659" user="NKA">
		<tag k="name" v="Nygård" />
		<tag k="place" v="neighbourhood" />
		<tag k="ssr:stedsnr" v="101397" />
	</node>
	<node id="9831791288" lat="67.1456691" lon="15.4535271" version="1" timestamp="2022-06-19T22:12:15Z" changeset="122595461" uid="3497659" user="NKA">
		<tag k="name" v="Stamnes" />
		<tag k="place" v="hamlet" />
		<tag k="ssr:stedsnr" v="501747" />
	</node>
	<node id="9831791289" lat="67.1208678" lon="15.3975124" version="1" timestamp="2022-06-19T22:12:15Z" changeset="122595461" uid="3497659" user="NKA">
		<tag k="loc_name:smj" v="Halsse" />
		<tag k="name" v="Hals" />
		<tag k="name:no" v="Hals" />
		<tag k="place" v="farm" />
		<tag k="ssr:stedsnr" v="501722" />
	</node>
	<node id="9831791290" lat="67.0921742" lon="15.3668066" version="1" timestamp="2022-06-19T22:12:15Z" changeset="122595461" uid="3497659" user="NKA">
		<tag k="alt_name" v="Prestegården" />
		<tag k="name" v="Fiskvåg" />
		<tag k="place" v="hamlet" />
		<tag k="ssr:stedsnr" v="320807" />
	</node>
	<node id="9831791291" lat="66.9487012" lon="15.2891929" version="1" timestamp="2022-06-19T22:12:15Z" changeset="122595461" uid="3497659" user="NKA">
		<tag k="name" v="Tømmerdal" />
		<tag k="place" v="farm" />
		<tag k="ssr:stedsnr" v="502740" />
	</node>
	<node id="9831791292" lat="67.1056889" lon="15.3502751" version="1" timestamp="2022-06-19T22:12:15Z" changeset="122595461" uid="3497659" user="NKA">
		<tag k="alt_name" v="Breidmoen;Breimo" />
		<tag k="name" v="Breimoen" />
		<tag k="place" v="farm" />
		<tag k="ssr:stedsnr" v="866765" />
	</node>
	<node id="9831791293" lat="66.82245" lon="15.5324249" version="1" timestamp="2022-06-19T22:12:15Z" changeset="122595461" uid="3497659" user="NKA">
		<tag k="name" v="Boa" />
		<tag k="place" v="farm" />
		<tag k="ssr:stedsnr" v="137643" />
	</node>
	<node id="9831791294" lat="67.0980001" lon="15.4240352" version="1" timestamp="2022-06-19T22:12:15Z" changeset="122595461" uid="3497659" user="NKA">
		<tag k="name" v="Stranda" />
		<tag k="place" v="neighbourhood" />
		<tag k="ssr:stedsnr" v="137766" />
	</node>
	<node id="9831791295" lat="67.0326042" lon="15.3637955" version="1" timestamp="2022-06-19T22:12:15Z" changeset="122595461" uid="3497659" user="NKA">
		<tag k="name" v="Brenne" />
		<tag k="place" v="hamlet" />
		<tag k="ssr:stedsnr" v="198831" />
	</node>
	<node id="9831791296" lat="66.8916044" lon="15.2947217" version="1" timestamp="2022-06-19T22:12:15Z" changeset="122595461" uid="3497659" user="NKA">
		<tag k="name" v="Fall" />
		<tag k="place" v="farm" />
		<tag k="ssr:stedsnr" v="380676" />
	</node>
	<node id="9831791297" lat="66.9081716" lon="15.3146075" version="1" timestamp="2022-06-19T22:12:15Z" changeset="122595461" uid="3497659" user="NKA">
		<tag k="name" v="Åsen" />
		<tag k="place" v="farm" />
		<tag k="ssr:stedsnr" v="331634" />
	</node>
	<node id="9831791298" lat="67.0168053" lon="15.3386394" version="1" timestamp="2022-06-19T22:12:15Z" changeset="122595461" uid="3497659" user="NKA">
		<tag k="name" v="Nyjord" />
		<tag k="place" v="farm" />
		<tag k="ssr:stedsnr" v="634576" />
	</node>
	<node id="9831791299" lat="67.1176084" lon="15.3675388" version="1" timestamp="2022-06-19T22:12:15Z" changeset="122595461" uid="3497659" user="NKA">
		<tag k="alt_name" v="Engemo" />
		<tag k="name" v="Engmoen" />
		<tag k="place" v="farm" />
		<tag k="ssr:stedsnr" v="866774" />
	</node>
	<node id="9831791300" lat="67.1249853" lon="15.4009466" version="1" timestamp="2022-06-19T22:12:15Z" changeset="122595461" uid="3497659" user="NKA">
		<tag k="alt_name" v="Langstrand" />
		<tag k="name" v="Vikran" />
		<tag k="place" v="farm" />
		<tag k="ssr:stedsnr" v="647780" />
	</node>
	<node id="9831791301" lat="67.0403265" lon="15.3901499" version="1" timestamp="2022-06-19T22:12:15Z" changeset="122595461" uid="3497659" user="NKA">
		<tag k="name" v="Lia" />
		<tag k="place" v="farm" />
		<tag k="ssr:stedsnr" v="562829" />
	</node>
	<node id="9831791302" lat="67.1142532" lon="15.3652356" version="1" timestamp="2022-06-19T22:12:15Z" changeset="122595461" uid="3497659" user="NKA">
		<tag k="name" v="Instadmyra" />
		<tag k="place" v="farm" />
		<tag k="ssr:stedsnr" v="573704" />
	</node>
	<node id="9831791303" lat="67.0764166" lon="15.3231444" version="1" timestamp="2022-06-19T22:12:15Z" changeset="122595461" uid="3497659" user="NKA">
		<tag k="name" v="Sæteren" />
		<tag k="place" v="locality" />
		<tag k="ssr:stedsnr" v="897332" />
	</node>
	<node id="9831791304" lat="67.1618027" lon="15.3925" version="1" timestamp="2022-06-19T22:12:15Z" changeset="122595461" uid="3497659" user="NKA">
		<tag k="historic" v="shieling" />
		<tag k="name" v="Blesen" />
		<tag k="place" v="isolated_dwelling" />
		<tag k="ssr:stedsnr" v="654890" />
	</node>
	<node id="9831791305" lat="66.8187455" lon="15.3957892" version="1" timestamp="2022-06-19T22:12:15Z" changeset="122595461" uid="3497659" user="NKA">
		<tag k="name" v="Fjelly" />
		<tag k="place" v="farm" />
		<tag k="ssr:stedsnr" v="209852" />
	</node>
	<node id="9831791306" lat="67.0912417" lon="15.380075" version="1" timestamp="2022-06-19T22:12:15Z" changeset="122595461" uid="3497659" user="NKA">
		<tag k="name" v="Fiskvågmoen industriområde" />
		<tag k="place" v="neighbourhood" />
		<tag k="ssr:stedsnr" v="283333" />
	</node>
	<node id="9831791307" lat="67.1628448" lon="15.4899673" version="1" timestamp="2022-06-19T22:12:15Z" changeset="122595461" uid="3497659" user="NKA">
		<tag k="name" v="Innersetså" />
		<tag k="place" v="farm" />
		<tag k="ssr:stedsnr" v="47041" />
	</node>
	<node id="9831791308" lat="67.1606992" lon="15.406447" version="1" timestamp="2022-06-19T22:12:15Z" changeset="122595461" uid="3497659" user="NKA">
		<tag k="loc_name:smj" v="Værsæhtta" />
		<tag k="name" v="Dverset" />
		<tag k="name:no" v="Dverset" />
		<tag k="place" v="hamlet" />
		<tag k="ssr:stedsnr" v="622993" />
	</node>
	<node id="9831791309" lat="67.0963139" lon="15.3902333" version="1" timestamp="2022-06-19T22:12:15Z" changeset="122595461" uid="3497659" user="NKA">
		<tag k="name" v="Høgbakken" />
		<tag k="place" v="neighbourhood" />
		<tag k="ssr:stedsnr" v="452704" />
	</node>
	<node id="9831791310" lat="67.1168167" lon="15.3932251" version="1" timestamp="2022-06-19T22:12:15Z" changeset="122595461" uid="3497659" user="NKA">
		<tag k="name" v="Finnvika" />
		<tag k="place" v="farm" />
		<tag k="ssr:stedsnr" v="622765" />
	</node>
	<node id="9831791311" lat="67.1446227" lon="15.4497651" version="1" timestamp="2022-06-19T22:12:15Z" changeset="122595461" uid="3497659" user="NKA">
		<tag k="name" v="Breivik" />
		<tag k="place" v="isolated_dwelling" />
		<tag k="ssr:stedsnr" v="407670" />
	</node>
	<node id="9831791312" lat="67.1113389" lon="15.3529666" version="1" timestamp="2022-06-19T22:12:15Z" changeset="122595461" uid="3497659" user="NKA">
		<tag k="alt_name" v="Lillebreimo;Breidmoen, l" />
		<tag k="name" v="Litle Breidmoen" />
		<tag k="place" v="farm" />
		<tag k="ssr:stedsnr" v="198774" />
	</node>
	<node id="9831791313" lat="66.9217167" lon="15.3100028" version="1" timestamp="2022-06-19T22:12:15Z" changeset="122595461" uid="3497659" user="NKA">
		<tag k="name" v="Svarven" />
		<tag k="place" v="farm" />
		<tag k="ssr:stedsnr" v="865752" />
	</node>
	<node id="9831791314" lat="66.9879368" lon="15.959313" version="1" timestamp="2022-06-19T22:12:15Z" changeset="122595461" uid="3497659" user="NKA">
		<tag k="name" v="Slakteriet" />
		<tag k="place" v="locality" />
		<tag k="ssr:stedsnr" v="169448" />
	</node>
	<node id="9831791315" lat="67.0123972" lon="15.3395285" version="1" timestamp="2022-06-19T22:12:15Z" changeset="122595461" uid="3497659" user="NKA">
		<tag k="alt_name" v="Skamoen" />
		<tag k="name" v="Skavmoen" />
		<tag k="place" v="neighbourhood" />
		<tag k="ssr:stedsnr" v="484273" />
	</node>
	<node id="9831791316" lat="67.1180722" lon="15.3856625" version="1" timestamp="2022-06-19T22:12:15Z" changeset="122595461" uid="3497659" user="NKA">
		<tag k="name" v="Bakkemo" />
		<tag k="place" v="farm" />
		<tag k="ssr:stedsnr" v="938718" />
	</node>
	<node id="9831835517" lat="66.7988305" lon="15.6912306" version="1" timestamp="2022-06-19T22:12:15Z" changeset="122595461" uid="3497659" user="NKA">
		<tag k="name" v="Skaiti - Skájdde" />
		<tag k="name:no" v="Skaiti" />
		<tag k="name:smj" v="Skájdde" />
		<tag k="place" v="hamlet" />
		<tag k="ssr:stedsnr" v="805828" />
	</node>
	<node id="9831835518" lat="67.0899806" lon="15.2777777" version="1" timestamp="2022-06-19T22:12:15Z" changeset="122595461" uid="3497659" user="NKA">
		<tag k="name" v="Jarbruvatnet" />
		<tag k="place" v="neighbourhood" />
		<tag k="ssr:stedsnr" v="544300" />
	</node>
	<node id="9831835519" lat="67.1285959" lon="15.3842512" version="1" timestamp="2022-06-19T22:12:15Z" changeset="122595461" uid="3497659" user="NKA">
		<tag k="name" v="Nes" />
		<tag k="place" v="farm" />
		<tag k="ssr:stedsnr" v="953656" />
	</node>
	<node id="9831835520" lat="67.1175063" lon="15.380954" version="1" timestamp="2022-06-19T22:12:15Z" changeset="122595461" uid="3497659" user="NKA">
		<tag k="name" v="Kalmo" />
		<tag k="place" v="farm" />
		<tag k="ssr:stedsnr" v="452718" />
	</node>
	<node id="9831835521" lat="67.1042683" lon="15.4635521" version="1" timestamp="2022-06-19T22:12:15Z" changeset="122595461" uid="3497659" user="NKA">
		<tag k="name" v="Kjærran" />
		<tag k="place" v="farm" />
		<tag k="ssr:stedsnr" v="391894" />
	</node>
	<node id="9831835522" lat="67.0668361" lon="15.2526056" version="1" timestamp="2022-06-19T22:12:15Z" changeset="122595461" uid="3497659" user="NKA">
		<tag k="name" v="Ingeborgvatnet" />
		<tag k="place" v="neighbourhood" />
		<tag k="ssr:stedsnr" v="423308" />
	</node>
	<node id="9831835523" lat="67.1852982" lon="15.3914083" version="1" timestamp="2022-06-19T22:12:15Z" changeset="122595461" uid="3497659" user="NKA">
		<tag k="name" v="Skipmannvik" />
		<tag k="place" v="farm" />
		<tag k="ssr:stedsnr" v="467644" />
	</node>
	<node id="9831835524" lat="67.12075" lon="15.3710499" version="1" timestamp="2022-06-19T22:12:15Z" changeset="122595461" uid="3497659" user="NKA">
		<tag k="name" v="Solheim" />
		<tag k="place" v="farm" />
		<tag k="ssr:stedsnr" v="319756" />
	</node>
	<node id="9831835525" lat="67.140974" lon="15.3941326" version="1" timestamp="2022-06-19T22:12:15Z" changeset="122595461" uid="3497659" user="NKA">
		<tag k="alt_name" v="Øksengård" />
		<tag k="name" v="Øksengården" />
		<tag k="place" v="hamlet" />
		<tag k="ssr:stedsnr" v="259764" />
	</node>
	<node id="9831835526" lat="66.9897529" lon="15.4813217" version="1" timestamp="2022-06-19T22:12:15Z" changeset="122595461" uid="3497659" user="NKA">
		<tag k="name" v="Vassbotnfjell" />
		<tag k="place" v="farm" />
		<tag k="ssr:stedsnr" v="229633" />
	</node>
	<node id="9831835527" lat="66.925002" lon="15.369169" version="1" timestamp="2022-06-19T22:12:15Z" changeset="122595461" uid="3497659" user="NKA">
		<tag k="alt_name" v="Kvanli gård;Kvanlien" />
		<tag k="name" v="Kvannli" />
		<tag k="place" v="farm" />
		<tag k="ssr:stedsnr" v="926735" />
	</node>
	<node id="9831835528" lat="66.9253902" lon="15.5151897" version="1" timestamp="2022-06-19T22:12:15Z" changeset="122595461" uid="3497659" user="NKA">
		<tag k="alt_name" v="Storeng, austre" />
		<tag k="name" v="Østre Storeng" />
		<tag k="place" v="hamlet" />
		<tag k="ssr:stedsnr" v="77748" />
	</node>
	<node id="9831835529" lat="66.9362223" lon="15.4329412" version="1" timestamp="2022-06-19T22:12:15Z" changeset="122595461" uid="3497659" user="NKA">
		<tag k="name" v="Jens-Orsa-hola" />
		<tag k="place" v="isolated_dwelling" />
		<tag k="ssr:stedsnr" v="776038" />
	</node>
	<node id="9831835530" lat="66.9301083" lon="15.4664084" version="1" timestamp="2022-06-19T22:12:15Z" changeset="122595461" uid="3497659" user="NKA">
		<tag k="alt_name" v="Sandbakk" />
		<tag k="name" v="Sandbakken" />
		<tag k="place" v="farm" />
		<tag k="ssr:stedsnr" v="16719" />
	</node>
	<node id="9831835531" lat="67.1282305" lon="15.4008612" version="1" timestamp="2022-06-19T22:12:15Z" changeset="122595461" uid="3497659" user="NKA">
		<tag k="name" v="Kalvika" />
		<tag k="place" v="farm" />
		<tag k="ssr:stedsnr" v="16733" />
	</node>
	<node id="9831835532" lat="67.1878831" lon="15.377611" version="1" timestamp="2022-06-19T22:12:15Z" changeset="122595461" uid="3497659" user="NKA">
		<tag k="name" v="Hjelbunes" />
		<tag k="place" v="hamlet" />
		<tag k="ssr:stedsnr" v="1074908" />
	</node>
	<node id="9831835533" lat="66.9259417" lon="15.5189749" version="1" timestamp="2022-06-19T22:12:15Z" changeset="122595461" uid="3497659" user="NKA">
		<tag k="name" v="Skogly" />
		<tag k="place" v="farm" />
		<tag k="ssr:stedsnr" v="441749" />
	</node>
	<node id="9831835534" lat="66.92325" lon="15.5058972" version="1" timestamp="2022-06-19T22:12:15Z" changeset="122595461" uid="3497659" user="NKA">
		<tag k="alt_name" v="Storeng, vestre" />
		<tag k="name" v="Vestre Storeng" />
		<tag k="old_name" v="Storeng" />
		<tag k="place" v="farm" />
		<tag k="ssr:stedsnr" v="441747" />
	</node>
	<node id="9831835535" lat="66.7887611" lon="15.7037555" version="1" timestamp="2022-06-19T22:12:15Z" changeset="122595461" uid="3497659" user="NKA">
		<tag k="name" v="Fredheim" />
		<tag k="place" v="farm" />
		<tag k="ssr:stedsnr" v="684842" />
	</node>
	<node id="9831835536" lat="67.1289495" lon="15.4057628" version="1" timestamp="2022-06-19T22:12:15Z" changeset="122595461" uid="3497659" user="NKA">
		<tag k="name" v="Tangen" />
		<tag k="place" v="farm" />
		<tag k="ssr:stedsnr" v="877699" />
	</node>
	<node id="9831835537" lat="66.9645469" lon="15.2555788" version="1" timestamp="2022-06-19T22:12:15Z" changeset="122595461" uid="3497659" user="NKA">
		<tag k="name" v="Gammelgammen" />
		<tag k="place" v="locality" />
		<tag k="ssr:stedsnr" v="229763" />
	</node>
	<node id="9831835538" lat="67.1233614" lon="15.3800558" version="1" timestamp="2022-06-19T22:12:15Z" changeset="122595461" uid="3497659" user="NKA">
		<tag k="alt_name" v="Vinkelmo" />
		<tag k="name" v="Fall" />
		<tag k="place" v="farm" />
		<tag k="ssr:stedsnr" v="755703" />
	</node>
	<node id="9831835539" lat="66.8152436" lon="15.384612" version="1" timestamp="2022-06-19T22:12:15Z" changeset="122595461" uid="3497659" user="NKA">
		<tag k="name" v="Skogvoktergården" />
		<tag k="place" v="farm" />
		<tag k="ssr:stedsnr" v="391871" />
	</node>
	<node id="9831835540" lat="67.0318973" lon="15.1934306" version="1" timestamp="2022-06-19T22:12:15Z" changeset="122595461" uid="3497659" user="NKA">
		<tag k="name" v="Trollhågen" />
		<tag k="place" v="neighbourhood" />
		<tag k="ssr:stedsnr" v="180277" />
	</node>
	<node id="9831835541" lat="66.9158627" lon="15.3153394" version="1" timestamp="2022-06-19T22:12:15Z" changeset="122595461" uid="3497659" user="NKA">
		<tag k="name" v="Indre-Russånes" />
		<tag k="place" v="farm" />
		<tag k="ssr:stedsnr" v="209584" />
	</node>
	<node id="9831835542" lat="66.7863333" lon="15.7061527" version="1" timestamp="2022-06-19T22:12:15Z" changeset="122595461" uid="3497659" user="NKA">
		<tag k="alt_name" v="Østerås" />
		<tag k="name" v="Austerås" />
		<tag k="place" v="farm" />
		<tag k="ssr:stedsnr" v="137810" />
	</node>
	<node id="9831835543" lat="67.0886306" lon="15.290261" version="1" timestamp="2022-06-19T22:12:15Z" changeset="122595461" uid="3497659" user="NKA">
		<tag k="name" v="Svartvatnet" />
		<tag k="place" v="neighbourhood" />
		<tag k="ssr:stedsnr" v="180282" />
	</node>
	<node id="9831835544" lat="66.9042756" lon="15.3151391" version="1" timestamp="2022-06-19T22:12:15Z" changeset="122595461" uid="3497659" user="NKA">
		<tag k="alt_name" v="Osbakk" />
		<tag k="name" v="Bleikosbakk" />
		<tag k="place" v="farm" />
		<tag k="ssr:stedsnr" v="77644" />
	</node>
	<node id="9831835545" lat="66.6986223" lon="15.406911" version="1" timestamp="2022-06-19T22:12:15Z" changeset="122595461" uid="3497659" user="NKA">
		<tag k="name" v="Ryphågen" />
		<tag k="place" v="isolated_dwelling" />
		<tag k="ssr:stedsnr" v="77626" />
	</node>
	<node id="9831835546" lat="66.8145806" lon="15.378911" version="1" timestamp="2022-06-19T22:12:15Z" changeset="122595461" uid="3497659" user="NKA">
		<tag k="name" v="Ankermoen" />
		<tag k="place" v="farm" />
		<tag k="ssr:stedsnr" v="16644" />
	</node>
	<node id="9831835547" lat="66.9619267" lon="15.3012804" version="1" timestamp="2022-06-19T22:12:15Z" changeset="122595461" uid="3497659" user="NKA">
		<tag k="name" v="Pedernorumhei" />
		<tag k="place" v="isolated_dwelling" />
		<tag k="ssr:stedsnr" v="209562" />
	</node>
	<node id="9831835548" lat="66.892415" lon="15.2948543" version="1" timestamp="2022-06-19T22:12:15Z" changeset="122595461" uid="3497659" user="NKA">
		<tag k="name" v="Fallmo" />
		<tag k="old_name" v="Faldmo" />
		<tag k="place" v="farm" />
		<tag k="ssr:stedsnr" v="1083462" />
	</node>
	<node id="9831835549" lat="67.1184944" lon="15.3901695" version="1" timestamp="2022-06-19T22:12:15Z" changeset="122595461" uid="3497659" user="NKA">
		<tag k="name" v="Halsmoen" />
		<tag k="place" v="hamlet" />
		<tag k="ssr:stedsnr" v="331715" />
	</node>
	<node id="9831835550" lat="67.1155677" lon="15.3618934" version="1" timestamp="2022-06-19T22:12:15Z" changeset="122595461" uid="3497659" user="NKA">
		<tag k="name" v="Skoglund" />
		<tag k="place" v="farm" />
		<tag k="ssr:stedsnr" v="88682" />
	</node>
	<node id="9831835551" lat="67.1129612" lon="15.3596889" version="1" timestamp="2022-06-19T22:12:15Z" changeset="122595461" uid="3497659" user="NKA">
		<tag k="name" v="Sleppan" />
		<tag k="place" v="farm" />
		<tag k="ssr:stedsnr" v="198775" />
	</node>
	<node id="9831835552" lat="67.1830028" lon="15.3826139" version="1" timestamp="2022-06-19T22:12:15Z" changeset="122595461" uid="3497659" user="NKA">
		<tag k="historic" v="shieling" />
		<tag k="name" v="Sæteng" />
		<tag k="place" v="isolated_dwelling" />
		<tag k="ssr:stedsnr" v="86939" />
	</node>
	<node id="9831835553" lat="67.1190166" lon="15.3775416" version="1" timestamp="2022-06-19T22:12:15Z" changeset="122595461" uid="3497659" user="NKA">
		<tag k="name" v="Kvannmo" />
		<tag k="place" v="farm" />
		<tag k="ssr:stedsnr" v="88664" />
	</node>
	<node id="9831835554" lat="66.6586472" lon="15.4090945" version="1" timestamp="2022-06-19T22:12:15Z" changeset="122595461" uid="3497659" user="NKA">
		<tag k="name" v="Semska" />
		<tag k="place" v="isolated_dwelling" />
		<tag k="ssr:stedsnr" v="562614" />
	</node>
	<node id="9831835555" lat="67.109862" lon="15.4594576" version="1" timestamp="2022-06-19T22:12:15Z" changeset="122595461" uid="3497659" user="NKA">
		<tag k="name" v="Vestre Saksenvika" />
		<tag k="place" v="farm" />
		<tag k="ssr:stedsnr" v="573634" />
	</node>
	<node id="9831835556" lat="66.744975" lon="15.7231527" version="1" timestamp="2022-06-19T22:12:15Z" changeset="122595461" uid="3497659" user="NKA">
		<tag k="name" v="Liestad" />
		<tag k="place" v="locality" />
		<tag k="ssr:stedsnr" v="573803" />
	</node>
	<node id="9831835557" lat="66.9297041" lon="15.4427546" version="1" timestamp="2022-06-19T22:12:15Z" changeset="122595461" uid="3497659" user="NKA">
		<tag k="name" v="Fossegård" />
		<tag k="place" v="farm" />
		<tag k="ssr:stedsnr" v="137704" />
	</node>
	<node id="9831835558" lat="67.0895611" lon="15.3108306" version="1" timestamp="2022-06-19T22:12:15Z" changeset="122595461" uid="3497659" user="NKA">
		<tag k="name" v="Knøvelåsen" />
		<tag k="place" v="neighbourhood" />
		<tag k="ssr:stedsnr" v="544297" />
	</node>
	<node id="9831835559" lat="66.9885" lon="15.503639" version="1" timestamp="2022-06-19T22:12:15Z" changeset="122595461" uid="3497659" user="NKA">
		<tag k="name" v="Naboheim" />
		<tag k="place" v="farm" />
		<tag k="ssr:stedsnr" v="77698" />
	</node>
	<node id="9831835560" lat="66.9849586" lon="15.4545602" version="1" timestamp="2022-06-19T22:12:15Z" changeset="122595461" uid="3497659" user="NKA">
		<tag k="name" v="Gammoen" />
		<tag k="place" v="farm" />
		<tag k="ssr:stedsnr" v="142303" />
	</node>
	<node id="9831835561" lat="66.8073" lon="15.6391082" version="1" timestamp="2022-06-19T22:12:15Z" changeset="122595461" uid="3497659" user="NKA">
		<tag k="name" v="Husmannsplass" />
		<tag k="place" v="locality" />
		<tag k="ssr:stedsnr" v="412212" />
	</node>
	<node id="9831835562" lat="66.8520663" lon="15.299051" version="1" timestamp="2022-06-19T22:12:15Z" changeset="122595461" uid="3497659" user="NKA">
		<tag k="alt_name" v="Berghulnes" />
		<tag k="name" v="Bergulnes" />
		<tag k="place" v="hamlet" />
		<tag k="ssr:stedsnr" v="744614" />
	</node>
	<node id="9831835563" lat="66.8291556" lon="15.367825" version="1" timestamp="2022-06-19T22:12:15Z" changeset="122595461" uid="3497659" user="NKA">
		<tag k="alt_name" v="Stornes, nordre;Utigarden" />
		<tag k="name" v="Nordre Stornes" />
		<tag k="place" v="farm" />
		<tag k="ssr:stedsnr" v="137634" />
	</node>
	<node id="9831835564" lat="67.0521717" lon="15.395046" version="1" timestamp="2022-06-19T22:12:15Z" changeset="122595461" uid="3497659" user="NKA">
		<tag k="alt_name" v="Libakkan" />
		<tag k="name" v="Libakken" />
		<tag k="place" v="farm" />
		<tag k="ssr:stedsnr" v="137800" />
	</node>
	<node id="9831835565" lat="67.1088046" lon="15.4565703" version="1" timestamp="2022-06-19T22:12:15Z" changeset="122595461" uid="3497659" user="NKA">
		<tag k="name" v="Saksenvika - Saksavijkka" />
		<tag k="name:no" v="Saksenvika" />
		<tag k="name:smj" v="Saksavijkka" />
		<tag k="old_name:no" v="Soksenvik" />
		<tag k="place" v="farm" />
		<tag k="ssr:stedsnr" v="1076562" />
	</node>
	<node id="9831835566" lat="67.1107359" lon="15.4666349" version="1" timestamp="2022-06-19T22:12:15Z" changeset="122595461" uid="3497659" user="NKA">
		<tag k="name" v="Austre Saksenvika" />
		<tag k="old_name" v="SAKSENVIK ØSTRE" />
		<tag k="place" v="farm" />
		<tag k="ssr:stedsnr" v="1083439" />
	</node>
	<node id="9831835567" lat="66.7969764" lon="15.7006327" version="1" timestamp="2022-06-19T22:12:15Z" changeset="122595461" uid="3497659" user="NKA">
		<tag k="name" v="Brattli" />
		<tag k="place" v="farm" />
		<tag k="ssr:stedsnr" v="441852" />
	</node>
	<node id="9831835568" lat="67.1118072" lon="15.4690987" version="1" timestamp="2022-06-19T22:12:15Z" changeset="122595461" uid="3497659" user="NKA">
		<tag k="name" v="Østre Saksenvika" />
		<tag k="old_name" v="SAKSENVIK ØSTRE" />
		<tag k="place" v="farm" />
		<tag k="ssr:stedsnr" v="1083437" />
	</node>
	<node id="9831835569" lat="67.0986611" lon="15.5329112" version="1" timestamp="2022-06-19T22:12:15Z" changeset="122595461" uid="3497659" user="NKA">
		<tag k="historic" v="shieling" />
		<tag k="name" v="Grønlisetra" />
		<tag k="old_name" v="Grønlisætra" />
		<tag k="place" v="isolated_dwelling" />
		<tag k="ssr:stedsnr" v="866785" />
	</node>
	<node id="9831835570" lat="66.8077167" lon="15.5770638" version="1" timestamp="2022-06-19T22:12:15Z" changeset="122595461" uid="3497659" user="NKA">
		<tag k="name" v="Strand" />
		<tag k="place" v="farm" />
		<tag k="ssr:stedsnr" v="441857" />
	</node>
	<node id="9831835571" lat="67.1050167" lon="15.2268389" version="1" timestamp="2022-06-19T22:12:15Z" changeset="122595461" uid="3497659" user="NKA">
		<tag k="name" v="Krokvatnet" />
		<tag k="place" v="neighbourhood" />
		<tag k="ssr:stedsnr" v="362298" />
	</node>
	<node id="9831835572" lat="66.9627656" lon="15.3143576" version="1" timestamp="2022-06-19T22:12:15Z" changeset="122595461" uid="3497659" user="NKA">
		<tag k="name" v="Storalmenningen" />
		<tag k="place" v="farm" />
		<tag k="ssr:stedsnr" v="77710" />
	</node>
	<node id="9831835573" lat="66.9134333" lon="15.358539" version="1" timestamp="2022-06-19T22:12:15Z" changeset="122595461" uid="3497659" user="NKA">
		<tag k="name" v="Bleiknesfjell-gård" />
		<tag k="place" v="locality" />
		<tag k="ssr:stedsnr" v="958443" />
	</node>
	<node id="9831835574" lat="67.1774806" lon="15.3829805" version="1" timestamp="2022-06-19T22:12:15Z" changeset="122595461" uid="3497659" user="NKA">
		<tag k="name" v="Skipmannvikfjellet" />
		<tag k="old_name" v="Skipmannvikfjell" />
		<tag k="place" v="farm" />
		<tag k="ssr:stedsnr" v="501981" />
	</node>
	<node id="9831835575" lat="67.1818191" lon="15.3788905" version="1" timestamp="2022-06-19T22:12:15Z" changeset="122595461" uid="3497659" user="NKA">
		<tag k="name" v="Skipmannvikfjell" />
		<tag k="place" v="farm" />
		<tag k="ssr:stedsnr" v="1083448" />
	</node>
	<node id="9831835576" lat="66.8990638" lon="15.3029534" version="1" timestamp="2022-06-19T22:12:15Z" changeset="122595461" uid="3497659" user="NKA">
		<tag k="name" v="Skogmo" />
		<tag k="place" v="farm" />
		<tag k="ssr:stedsnr" v="938618" />
	</node>
	<node id="9831835577" lat="66.9250058" lon="15.3205887" version="1" timestamp="2022-06-19T22:12:15Z" changeset="122595461" uid="3497659" user="NKA">
		<tag k="name" v="Russånes" />
		<tag k="place" v="quarter" />
		<tag k="ssr:stedsnr" v="927740" />
	</node>
	<node id="9831835578" lat="66.9766607" lon="15.3004798" version="1" timestamp="2022-06-19T22:12:15Z" changeset="122595461" uid="3497659" user="NKA">
		<tag k="alt_name" v="Lillealmenningen" />
		<tag k="name" v="Litlalmenningen" />
		<tag k="place" v="hamlet" />
		<tag k="ssr:stedsnr" v="927686" />
	</node>
	<node id="9831835579" lat="66.9226397" lon="15.308887" version="1" timestamp="2022-06-19T22:12:15Z" changeset="122595461" uid="3497659" user="NKA">
		<tag k="name" v="Moen" />
		<tag k="place" v="farm" />
		<tag k="ssr:stedsnr" v="816619" />
	</node>
	<node id="9831835580" lat="67.1866147" lon="15.4858899" version="1" timestamp="2022-06-19T22:12:15Z" changeset="122595461" uid="3497659" user="NKA">
		<tag k="name" v="Grytvikmoen" />
		<tag k="place" v="farm" />
		<tag k="ssr:stedsnr" v="654983" />
	</node>
	<node id="9831835581" lat="66.8604095" lon="15.3067085" version="1" timestamp="2022-06-19T22:12:15Z" changeset="122595461" uid="3497659" user="NKA">
		<tag k="alt_name" v="Kristendalneset" />
		<tag k="name" v="Kristendalnes" />
		<tag k="place" v="farm" />
		<tag k="ssr:stedsnr" v="198640" />
	</node>
	<node id="9831835582" lat="66.9069338" lon="15.3167089" version="1" timestamp="2022-06-19T22:12:15Z" changeset="122595461" uid="3497659" user="NKA">
		<tag k="name" v="Reitan" />
		<tag k="place" v="farm" />
		<tag k="ssr:stedsnr" v="816682" />
	</node>
	<node id="9831835583" lat="66.8814489" lon="15.2934572" version="1" timestamp="2022-06-19T22:12:15Z" changeset="122595461" uid="3497659" user="NKA">
		<tag k="name" v="Nøva" />
		<tag k="place" v="farm" />
		<tag k="ssr:stedsnr" v="877633" />
	</node>
	<node id="9831835584" lat="66.9812224" lon="15.3434934" version="1" timestamp="2022-06-19T22:12:15Z" changeset="122595461" uid="3497659" user="NKA">
		<tag k="name" v="Evensgård - Ajvasgárdde" />
		<tag k="name:no" v="Evensgård" />
		<tag k="name:smj" v="Ajvasgárdde" />
		<tag k="place" v="hamlet" />
		<tag k="ssr:stedsnr" v="744656" />
	</node>
	<node id="9831835585" lat="66.9151972" lon="15.3703751" version="1" timestamp="2022-06-19T22:12:15Z" changeset="122595461" uid="3497659" user="NKA">
		<tag k="historic" v="shieling" />
		<tag k="name" v="Bleiknesfjellet" />
		<tag k="place" v="isolated_dwelling" />
		<tag k="ssr:stedsnr" v="744723" />
	</node>
	<node id="9831835586" lat="66.8819889" lon="15.2804444" version="1" timestamp="2022-06-19T22:12:15Z" changeset="122595461" uid="3497659" user="NKA">
		<tag k="alt_name" v="Sagmoen" />
		<tag k="name" v="Sagmo" />
		<tag k="place" v="farm" />
		<tag k="ssr:stedsnr" v="744605" />
	</node>
	<node id="9831835587" lat="66.9909029" lon="15.4873129" version="1" timestamp="2022-06-19T22:12:15Z" changeset="122595461" uid="3497659" user="NKA">
		<tag k="name" v="Storjorda" />
		<tag k="place" v="farm" />
		<tag k="ssr:stedsnr" v="148178" />
	</node>
	<node id="9831835588" lat="66.9678611" lon="15.4111027" version="1" timestamp="2022-06-19T22:12:15Z" changeset="122595461" uid="3497659" user="NKA">
		<tag k="name" v="Siriheim" />
		<tag k="place" v="farm" />
		<tag k="ssr:stedsnr" v="684697" />
	</node>
	<node id="9831835589" lat="66.9443199" lon="15.3093219" version="1" timestamp="2022-06-19T22:12:15Z" changeset="122595461" uid="3497659" user="NKA">
		<tag k="name" v="Nordnes" />
		<tag k="place" v="hamlet" />
		<tag k="ssr:stedsnr" v="684723" />
	</node>
	<node id="9831835590" lat="67.0871861" lon="15.510036" version="1" timestamp="2022-06-19T22:12:15Z" changeset="122595461" uid="3497659" user="NKA">
		<tag k="name" v="Breivika" />
		<tag k="place" v="isolated_dwelling" />
		<tag k="ssr:stedsnr" v="148880" />
	</node>
	<node id="9831835591" lat="66.9233445" lon="15.3053722" version="1" timestamp="2022-06-19T22:12:15Z" changeset="122595461" uid="3497659" user="NKA">
		<tag k="name" v="Russåga" />
		<tag k="place" v="farm" />
		<tag k="ssr:stedsnr" v="684726" />
	</node>
	<node id="9831835592" lat="66.878209" lon="15.2908572" version="1" timestamp="2022-06-19T22:12:15Z" changeset="122595461" uid="3497659" user="NKA">
		<tag k="name" v="Einmoen" />
		<tag k="place" v="farm" />
		<tag k="ssr:stedsnr" v="938600" />
	</node>
	<node id="9831835593" lat="66.9436722" lon="15.419225" version="1" timestamp="2022-06-19T22:12:15Z" changeset="122595461" uid="3497659" user="NKA">
		<tag k="name" v="Petterheim" />
		<tag k="place" v="farm" />
		<tag k="ssr:stedsnr" v="684716" />
	</node>
	<node id="9831835594" lat="67.0419861" lon="15.3732639" version="1" timestamp="2022-06-19T22:12:15Z" changeset="122595461" uid="3497659" user="NKA">
		<tag k="name" v="Plassen" />
		<tag k="place" v="farm" />
		<tag k="ssr:stedsnr" v="938726" />
	</node>
	<node id="9831835595" lat="66.8971834" lon="15.3042445" version="1" timestamp="2022-06-19T22:12:15Z" changeset="122595461" uid="3497659" user="NKA">
		<tag k="name" v="Bleiknesmoen" />
		<tag k="place" v="farm" />
		<tag k="ssr:stedsnr" v="683604" />
	</node>
	<node id="9831835596" lat="67.0568187" lon="15.3746453" version="1" timestamp="2022-06-19T22:12:15Z" changeset="122595461" uid="3497659" user="NKA">
		<tag k="name" v="Slettvoll" />
		<tag k="place" v="farm" />
		<tag k="ssr:stedsnr" v="938720" />
	</node>
	<node id="9831835597" lat="66.9090297" lon="15.3152547" version="1" timestamp="2022-06-19T22:12:15Z" changeset="122595461" uid="3497659" user="NKA">
		<tag k="name" v="Yttereng" />
		<tag k="place" v="farm" />
		<tag k="ssr:stedsnr" v="683732" />
	</node>
	<node id="9831835598" lat="66.8852231" lon="15.2829485" version="1" timestamp="2022-06-19T22:12:15Z" changeset="122595461" uid="3497659" user="NKA">
		<tag k="name" v="Indremo" />
		<tag k="place" v="farm" />
		<tag k="ssr:stedsnr" v="634645" />
	</node>
	<node id="9831835599" lat="67.0951115" lon="15.4513459" version="1" timestamp="2022-06-19T22:12:15Z" changeset="122595461" uid="3497659" user="NKA">
		<tag k="name" v="Skogeng" />
		<tag k="place" v="farm" />
		<tag k="ssr:stedsnr" v="209855" />
	</node>
	<node id="9831835600" lat="66.9702068" lon="15.3673725" version="1" timestamp="2022-06-19T22:12:15Z" changeset="122595461" uid="3497659" user="NKA">
		<tag k="name" v="Lillenes" />
		<tag k="place" v="farm" />
		<tag k="ssr:stedsnr" v="897770" />
	</node>
	<node id="9831835601" lat="66.9422528" lon="15.4114433" version="1" timestamp="2022-06-19T22:12:15Z" changeset="122595461" uid="3497659" user="NKA">
		<tag k="name" v="Neset" />
		<tag k="place" v="farm" />
		<tag k="ssr:stedsnr" v="593070" />
	</node>
	<node id="9831835602" lat="66.9836417" lon="15.4324638" version="1" timestamp="2022-06-19T22:12:15Z" changeset="122595461" uid="3497659" user="NKA">
		<tag k="name" v="Gammelgården" />
		<tag k="place" v="farm" />
		<tag k="ssr:stedsnr" v="683679" />
	</node>
	<node id="9831835603" lat="66.9935667" lon="15.3189459" version="1" timestamp="2022-06-19T22:12:15Z" changeset="122595461" uid="3497659" user="NKA">
		<tag k="name" v="Vensmoen" />
		<tag k="place" v="neighbourhood" />
		<tag k="ssr:stedsnr" v="562568" />
	</node>
	<node id="9831835604" lat="66.9229387" lon="15.3232961" version="1" timestamp="2022-06-19T22:12:15Z" changeset="122595461" uid="3497659" user="NKA">
		<tag k="name" v="Skjelgånes" />
		<tag k="place" v="farm" />
		<tag k="ssr:stedsnr" v="816618" />
	</node>
	<node id="9831835605" lat="67.0603582" lon="15.373842" version="1" timestamp="2022-06-19T22:12:15Z" changeset="122595461" uid="3497659" user="NKA">
		<tag k="name" v="Medby" />
		<tag k="place" v="hamlet" />
		<tag k="ssr:stedsnr" v="683790" />
	</node>
	<node id="9831835606" lat="67.0732167" lon="15.3876528" version="1" timestamp="2022-06-19T22:12:15Z" changeset="122595461" uid="3497659" user="NKA">
		<tag k="name" v="Gropa" />
		<tag k="place" v="farm" />
		<tag k="ssr:stedsnr" v="805796" />
	</node>
	<node id="9831835607" lat="66.9037583" lon="15.3127639" version="1" timestamp="2022-06-19T22:12:15Z" changeset="122595461" uid="3497659" user="NKA">
		<tag k="name" v="Bådsmo" />
		<tag k="place" v="farm" />
		<tag k="ssr:stedsnr" v="513656" />
	</node>
	<node id="9831835608" lat="66.9008222" lon="15.3501695" version="1" timestamp="2022-06-19T22:12:15Z" changeset="122595461" uid="3497659" user="NKA">
		<tag k="alt_name" v="Standerdalen" />
		<tag k="name" v="Standardalen" />
		<tag k="place" v="isolated_dwelling" />
		<tag k="ssr:stedsnr" v="501610" />
	</node>
	<node id="9831835609" lat="66.8437695" lon="15.3190389" version="1" timestamp="2022-06-19T22:12:15Z" changeset="122595461" uid="3497659" user="NKA">
		<tag k="name" v="Nystadnes" />
		<tag k="place" v="farm" />
		<tag k="ssr:stedsnr" v="562654" />
	</node>
	<node id="9831835610" lat="66.8968484" lon="15.3701655" version="1" timestamp="2022-06-19T22:12:15Z" changeset="122595461" uid="3497659" user="NKA">
		<tag k="name" v="Rundvasshytta" />
		<tag k="place" v="isolated_dwelling" />
		<tag k="ssr:stedsnr" v="837163" />
	</node>
	<node id="9831835611" lat="67.0197734" lon="15.33898" version="1" timestamp="2022-06-19T22:12:15Z" changeset="122595461" uid="3497659" user="NKA">
		<tag k="name" v="Oldgård" />
		<tag k="place" v="farm" />
		<tag k="ssr:stedsnr" v="755541" />
	</node>
	<node id="9831835612" lat="67.0471361" lon="15.2779251" version="1" timestamp="2022-06-19T22:12:15Z" changeset="122595461" uid="3497659" user="NKA">
		<tag k="historic" v="shieling" />
		<tag k="name" v="Tverråmoen" />
		<tag k="place" v="isolated_dwelling" />
		<tag k="ssr:stedsnr" v="744822" />
	</node>
	<node id="9831835613" lat="67.083025" lon="15.3570334" version="1" timestamp="2022-06-19T22:12:15Z" changeset="122595461" uid="3497659" user="NKA">
		<tag k="name" v="Høyjarfallmoen" />
		<tag k="place" v="neighbourhood" />
		<tag k="ssr:stedsnr" v="695697" />
	</node>
	<node id="9831835614" lat="66.9425405" lon="15.4008047" version="1" timestamp="2022-06-19T22:12:15Z" changeset="122595461" uid="3497659" user="NKA">
		<tag k="alt_name" v="Hongdal" />
		<tag k="name" v="Hogndal" />
		<tag k="place" v="farm" />
		<tag k="ssr:stedsnr" v="744701" />
	</node>
	<node id="9831835615" lat="66.893975" lon="15.3004222" version="1" timestamp="2022-06-19T22:12:15Z" changeset="122595461" uid="3497659" user="NKA">
		<tag k="name" v="Skogeng" />
		<tag k="place" v="farm" />
		<tag k="ssr:stedsnr" v="391642" />
	</node>
	<node id="9831835616" lat="67.0112944" lon="15.3410805" version="1" timestamp="2022-06-19T22:12:15Z" changeset="122595461" uid="3497659" user="NKA">
		<tag k="name" v="Langmoen" />
		<tag k="place" v="neighbourhood" />
		<tag k="ssr:stedsnr" v="666293" />
	</node>
	<node id="9831835617" lat="66.9770704" lon="15.4203452" version="1" timestamp="2022-06-19T22:12:15Z" changeset="122595461" uid="3497659" user="NKA">
		<tag k="alt_name" v="Engan" />
		<tag k="name" v="Engen" />
		<tag k="place" v="farm" />
		<tag k="ssr:stedsnr" v="445313" />
	</node>
	<node id="9831835618" lat="66.9450064" lon="15.4225836" version="1" timestamp="2022-06-19T22:12:15Z" changeset="122595461" uid="3497659" user="NKA">
		<tag k="name" v="Myrland" />
		<tag k="place" v="farm" />
		<tag k="ssr:stedsnr" v="441730" />
	</node>
	<node id="9831835619" lat="66.8943556" lon="15.298046" version="1" timestamp="2022-06-19T22:12:15Z" changeset="122595461" uid="3497659" user="NKA">
		<tag k="alt_name" v="Skjågsletta" />
		<tag k="name" v="Leirjordfall" />
		<tag k="place" v="farm" />
		<tag k="ssr:stedsnr" v="380667" />
	</node>
	<node id="9831835620" lat="66.9068881" lon="15.3129047" version="1" timestamp="2022-06-19T22:12:15Z" changeset="122595461" uid="3497659" user="NKA">
		<tag k="name" v="Bleiknes" />
		<tag k="place" v="hamlet" />
		<tag k="ssr:stedsnr" v="683601" />
	</node>
	<node id="9831835621" lat="66.9946527" lon="15.3715972" version="1" timestamp="2022-06-19T22:12:15Z" changeset="122595461" uid="3497659" user="NKA">
		<tag k="alt_name" v="Krykken" />
		<tag k="name" v="Krykkjo" />
		<tag k="place" v="farm" />
		<tag k="ssr:stedsnr" v="380598" />
	</node>
	<node id="9831835622" lat="66.8787081" lon="15.2902134" version="1" timestamp="2022-06-19T22:12:15Z" changeset="122595461" uid="3497659" user="NKA">
		<tag k="name" v="Trollhola Ytre" />
		<tag k="place" v="farm" />
		<tag k="ssr:stedsnr" v="391630" />
	</node>
	<node id="9831835623" lat="66.8276611" lon="15.3702027" version="1" timestamp="2022-06-19T22:12:15Z" changeset="122595461" uid="3497659" user="NKA">
		<tag k="alt_name" v="Stornes;Stornes, s" />
		<tag k="name" v="Søre Stornes" />
		<tag k="place" v="farm" />
		<tag k="ssr:stedsnr" v="380695" />
	</node>
	<node id="9831835624" lat="66.9783945" lon="15.49275" version="1" timestamp="2022-06-19T22:12:15Z" changeset="122595461" uid="3497659" user="NKA">
		<tag k="alt_name" v="Sørdal" />
		<tag k="name" v="Sørdalen" />
		<tag k="place" v="farm" />
		<tag k="ssr:stedsnr" v="380724" />
	</node>
	<node id="9831835625" lat="67.0611518" lon="15.3777863" version="1" timestamp="2022-06-19T22:12:15Z" changeset="122595461" uid="3497659" user="NKA">
		<tag k="name" v="Nergården Medby" />
		<tag k="place" v="farm" />
		<tag k="ssr:stedsnr" v="573735" />
	</node>
	<node id="9831835626" lat="66.8912361" lon="15.2870917" version="1" timestamp="2022-06-19T22:12:15Z" changeset="122595461" uid="3497659" user="NKA">
		<tag k="name" v="Yttervollen" />
		<tag k="place" v="farm" />
		<tag k="ssr:stedsnr" v="513651" />
	</node>
	<node id="9831835627" lat="66.8748083" lon="15.2963111" version="1" timestamp="2022-06-19T22:12:15Z" changeset="122595461" uid="3497659" user="NKA">
		<tag k="name" v="Maritdalen" />
		<tag k="place" v="locality" />
		<tag k="ssr:stedsnr" v="270611" />
	</node>
	<node id="9831835628" lat="67.0391324" lon="15.3704166" version="1" timestamp="2022-06-19T22:12:15Z" changeset="122595461" uid="3497659" user="NKA">
		<tag k="name" v="Brennmoa" />
		<tag k="place" v="farm" />
		<tag k="ssr:stedsnr" v="331728" />
	</node>
	<node id="9831835629" lat="67.020724" lon="15.3400753" version="1" timestamp="2022-06-19T22:12:15Z" changeset="122595461" uid="3497659" user="NKA">
		<tag k="name" v="Bakken" />
		<tag k="place" v="farm" />
		<tag k="ssr:stedsnr" v="270551" />
	</node>
	<node id="9831835630" lat="66.9596896" lon="15.3106679" version="1" timestamp="2022-06-19T22:12:15Z" changeset="122595461" uid="3497659" user="NKA">
		<tag k="name" v="Innervollen" />
		<tag k="place" v="farm" />
		<tag k="ssr:stedsnr" v="513597" />
	</node>
	<node id="9831835631" lat="66.9394351" lon="15.2972862" version="1" timestamp="2022-06-19T22:12:15Z" changeset="122595461" uid="3497659" user="NKA">
		<tag k="name" v="Stolpen" />
		<tag k="place" v="farm" />
		<tag k="ssr:stedsnr" v="259712" />
	</node>
	<node id="9831835632" lat="67.0233897" lon="15.3684109" version="1" timestamp="2022-06-19T22:12:15Z" changeset="122595461" uid="3497659" user="NKA">
		<tag k="name" v="Kleiva" />
		<tag k="place" v="locality" />
		<tag k="ssr:stedsnr" v="513544" />
	</node>
	<node id="9831835633" lat="66.8896085" lon="15.2830028" version="1" timestamp="2022-06-19T22:12:15Z" changeset="122595461" uid="3497659" user="NKA">
		<tag k="name" v="Kjeldnes" />
		<tag k="place" v="farm" />
		<tag k="ssr:stedsnr" v="148643" />
	</node>
	<node id="9831835634" lat="66.9321611" lon="15.4388833" version="1" timestamp="2022-06-19T22:12:15Z" changeset="122595461" uid="3497659" user="NKA">
		<tag k="name" v="Forseng" />
		<tag k="place" v="farm" />
		<tag k="ssr:stedsnr" v="259727" />
	</node>
	<node id="9831835635" lat="66.8307018" lon="15.0724684" version="1" timestamp="2022-06-19T22:12:15Z" changeset="122595461" uid="3497659" user="NKA">
		<tag k="name" v="Siergga hytta" />
		<tag k="place" v="isolated_dwelling" />
		<tag k="ssr:stedsnr" v="958447" />
	</node>
	<node id="9831835636" lat="66.9366722" lon="15.4276943" version="1" timestamp="2022-06-19T22:12:15Z" changeset="122595461" uid="3497659" user="NKA">
		<tag k="alt_name" v="Smeli;Snelia" />
		<tag k="name" v="Sneli" />
		<tag k="place" v="farm" />
		<tag k="ssr:stedsnr" v="137699" />
	</node>
	<node id="9831835637" lat="66.9537417" lon="15.3059557" version="1" timestamp="2022-06-19T22:12:15Z" changeset="122595461" uid="3497659" user="NKA">
		<tag k="name" v="Almo" />
		<tag k="place" v="farm" />
		<tag k="ssr:stedsnr" v="81315" />
	</node>
	<node id="9831835638" lat="67.0414889" lon="15.3002889" version="1" timestamp="2022-06-19T22:12:15Z" changeset="122595461" uid="3497659" user="NKA">
		<tag k="name" v="Fjelleng" />
		<tag k="place" v="locality" />
		<tag k="ssr:stedsnr" v="441858" />
	</node>
	<node id="9831835639" lat="66.9354472" lon="15.4293917" version="1" timestamp="2022-06-19T22:12:15Z" changeset="122595461" uid="3497659" user="NKA">
		<tag k="alt_name" v="Skardet;Myreng" />
		<tag k="name" v="Skar" />
		<tag k="place" v="farm" />
		<tag k="ssr:stedsnr" v="441743" />
	</node>
	<node id="9831835640" lat="67.0653055" lon="15.3746666" version="1" timestamp="2022-06-19T22:12:15Z" changeset="122595461" uid="3497659" user="NKA">
		<tag k="alt_name" v="Nylund" />
		<tag k="name" v="Nylend" />
		<tag k="place" v="farm" />
		<tag k="ssr:stedsnr" v="441812" />
	</node>
	<node id="9831835641" lat="66.836025" lon="15.3694944" version="1" timestamp="2022-06-19T22:12:15Z" changeset="122595461" uid="3497659" user="NKA">
		<tag k="name" v="Innigarden" />
		<tag k="place" v="farm" />
		<tag k="ssr:stedsnr" v="533073" />
	</node>
	<node id="9831835642" lat="66.9794688" lon="15.4351132" version="1" timestamp="2022-06-19T22:12:15Z" changeset="122595461" uid="3497659" user="NKA">
		<tag k="name" v="Moen" />
		<tag k="place" v="farm" />
		<tag k="ssr:stedsnr" v="169659" />
	</node>
	<node id="9831835643" lat="66.9306556" lon="15.4407417" version="1" timestamp="2022-06-19T22:12:15Z" changeset="122595461" uid="3497659" user="NKA">
		<tag k="name" v="Vestre Sauvasstrand" />
		<tag k="old_name" v="Sauvasstrand;Vestre-Sauvalsstrand" />
		<tag k="place" v="farm" />
		<tag k="ssr:stedsnr" v="441753" />
	</node>
	<node id="9831835644" lat="66.9571475" lon="15.3154516" version="1" timestamp="2022-06-19T22:12:15Z" changeset="122595461" uid="3497659" user="NKA">
		<tag k="alt_name" v="Holmbakken" />
		<tag k="name" v="Helmobakk" />
		<tag k="place" v="locality" />
		<tag k="ssr:stedsnr" v="137682" />
	</node>
	<node id="9831835645" lat="66.8792418" lon="15.2639712" version="1" timestamp="2022-06-19T22:12:15Z" changeset="122595461" uid="3497659" user="NKA">
		<tag k="alt_name" v="Trettnes st." />
		<tag k="name" v="Trettnes" />
		<tag k="place" v="farm" />
		<tag k="ssr:stedsnr" v="259617" />
	</node>
	<node id="9831835646" lat="66.9396111" lon="15.1750638" version="1" timestamp="2022-06-19T22:12:15Z" changeset="122595461" uid="3497659" user="NKA">
		<tag k="name" v="Jarbu" />
		<tag k="place" v="isolated_dwelling" />
		<tag k="ssr:stedsnr" v="877982" />
	</node>
	<node id="9831835647" lat="66.8764167" lon="15.2937" version="1" timestamp="2022-06-19T22:12:15Z" changeset="122595461" uid="3497659" user="NKA">
		<tag k="alt_name" v="Gammelgården" />
		<tag k="name" v="Dalmo" />
		<tag k="place" v="hamlet" />
		<tag k="ssr:stedsnr" v="259619" />
	</node>
	<node id="9831835648" lat="66.9129194" lon="15.3119443" version="1" timestamp="2022-06-19T22:12:15Z" changeset="122595461" uid="3497659" user="NKA">
		<tag k="name" v="Moen" />
		<tag k="place" v="farm" />
		<tag k="ssr:stedsnr" v="137712" />
	</node>
	<node id="9831835649" lat="66.9878343" lon="15.3168779" version="1" timestamp="2022-06-19T22:12:15Z" changeset="122595461" uid="3497659" user="NKA">
		<tag k="name" v="Røkland - Rævkka" />
		<tag k="name:no" v="Røkland" />
		<tag k="name:smj" v="Rævkka" />
		<tag k="place" v="farm" />
		<tag k="ssr:stedsnr" v="103354" />
	</node>
	<node id="9831835650" lat="66.9901148" lon="15.3134424" version="1" timestamp="2022-06-19T22:12:15Z" changeset="122595461" uid="3497659" user="NKA">
		<tag k="name" v="Dalmobakken" />
		<tag k="place" v="farm" />
		<tag k="ssr:stedsnr" v="1076850" />
	</node>
	<node id="9831835651" lat="66.9418091" lon="15.1728934" version="1" timestamp="2022-06-19T22:12:15Z" changeset="122595461" uid="3497659" user="NKA">
		<tag k="alt_name" v="Jorbrufjell gård" />
		<tag k="name" v="Jarbrufjell" />
		<tag k="place" v="hamlet" />
		<tag k="ssr:stedsnr" v="866576" />
	</node>
	<node id="9831835652" lat="66.931736" lon="15.320118" version="1" timestamp="2022-06-19T22:12:15Z" changeset="122595461" uid="3497659" user="NKA">
		<tag k="name" v="Bjønnånes" />
		<tag k="place" v="farm" />
		<tag k="ssr:stedsnr" v="27606" />
	</node>
	<node id="9831835653" lat="67.0656472" lon="15.3740806" version="1" timestamp="2022-06-19T22:12:15Z" changeset="122595461" uid="3497659" user="NKA">
		<tag k="name" v="Nybakk" />
		<tag k="place" v="farm" />
		<tag k="ssr:stedsnr" v="331750" />
	</node>
	<node id="9831835654" lat="67.0339254" lon="15.3797545" version="1" timestamp="2022-06-19T22:12:15Z" changeset="122595461" uid="3497659" user="NKA">
		<tag k="name" v="Langvad" />
		<tag k="place" v="hamlet" />
		<tag k="ssr:stedsnr" v="319815" />
	</node>
	<node id="9831835655" lat="66.8741548" lon="15.2885263" version="1" timestamp="2022-06-19T22:12:15Z" changeset="122595461" uid="3497659" user="NKA">
		<tag k="name" v="Tretneset" />
		<tag k="place" v="farm" />
		<tag k="ssr:stedsnr" v="209603" />
	</node>
	<node id="9831835656" lat="66.9835443" lon="15.3385931" version="1" timestamp="2022-06-19T22:12:15Z" changeset="122595461" uid="3497659" user="NKA">
		<tag k="name" v="Evensgård" />
		<tag k="old_name" v="ØYVINDSGÅRD" />
		<tag k="place" v="farm" />
		<tag k="ssr:stedsnr" v="1083453" />
	</node>
	<node id="9831835657" lat="66.9786118" lon="15.3599479" version="1" timestamp="2022-06-19T22:12:15Z" changeset="122595461" uid="3497659" user="NKA">
		<tag k="name" v="Evensgård" />
		<tag k="old_name" v="EVENSGAARD" />
		<tag k="place" v="farm" />
		<tag k="ssr:stedsnr" v="1083452" />
	</node>
	<node id="9831835658" lat="67.0978787" lon="15.4128433" version="1" timestamp="2022-06-19T22:12:15Z" changeset="122595461" uid="3497659" user="NKA">
		<tag k="name" v="Skansen" />
		<tag k="place" v="neighbourhood" />
		<tag k="ssr:stedsnr" v="755873" />
	</node>
	<node id="9831835659" lat="66.8866511" lon="15.2852547" version="1" timestamp="2022-06-19T22:12:15Z" changeset="122595461" uid="3497659" user="NKA">
		<tag k="name" v="Mellamoen" />
		<tag k="place" v="farm" />
		<tag k="ssr:stedsnr" v="148641" />
	</node>
	<node id="9831835660" lat="66.9373917" lon="15.3867613" version="1" timestamp="2022-06-19T22:12:15Z" changeset="122595461" uid="3497659" user="NKA">
		<tag k="name" v="Kvannli" />
		<tag k="place" v="locality" />
		<tag k="ssr:stedsnr" v="1074907" />
	</node>
	<node id="9831835661" lat="66.7538262" lon="15.4241168" version="1" timestamp="2022-06-19T22:12:15Z" changeset="122595461" uid="3497659" user="NKA">
		<tag k="name" v="Fiskerihytta" />
		<tag k="place" v="locality" />
		<tag k="ssr:stedsnr" v="108427" />
	</node>
	<node id="9831835662" lat="67.053575" lon="15.2766778" version="1" timestamp="2022-06-19T22:12:15Z" changeset="122595461" uid="3497659" user="NKA">
		<tag k="alt_name" v="Skard" />
		<tag k="historic" v="shieling" />
		<tag k="name" v="Skar" />
		<tag k="place" v="isolated_dwelling" />
		<tag k="ssr:stedsnr" v="137795" />
	</node>
	<node id="9831835663" lat="66.8752932" lon="15.2991534" version="1" timestamp="2022-06-19T22:12:15Z" changeset="122595461" uid="3497659" user="NKA">
		<tag k="alt_name" v="Inner-Trollhola" />
		<tag k="name" v="Langsandmo" />
		<tag k="place" v="farm" />
		<tag k="ssr:stedsnr" v="866625" />
	</node>
	<node id="9831835664" lat="67.0812399" lon="15.3912433" version="1" timestamp="2022-06-19T22:12:15Z" changeset="122595461" uid="3497659" user="NKA">
		<tag k="alt_name" v="Rausand" />
		<tag k="name" v="Raudsand" />
		<tag k="place" v="hamlet" />
		<tag k="ssr:stedsnr" v="137785" />
	</node>
	<node id="9831835665" lat="66.8881196" lon="15.2823132" version="1" timestamp="2022-06-19T22:12:15Z" changeset="122595461" uid="3497659" user="NKA">
		<tag k="name" v="Langånes" />
		<tag k="place" v="farm" />
		<tag k="ssr:stedsnr" v="137609" />
	</node>
	<node id="9831835666" lat="66.8944861" lon="15.3047638" version="1" timestamp="2022-06-19T22:12:15Z" changeset="122595461" uid="3497659" user="NKA">
		<tag k="name" v="Gjeslia" />
		<tag k="place" v="farm" />
		<tag k="ssr:stedsnr" v="77653" />
	</node>
	<node id="9831835667" lat="66.9123861" lon="15.3138028" version="1" timestamp="2022-06-19T22:12:15Z" changeset="122595461" uid="3497659" user="NKA">
		<tag k="name" v="Åkerbakk" />
		<tag k="place" v="farm" />
		<tag k="ssr:stedsnr" v="865751" />
	</node>
	<node id="9831835668" lat="66.9276611" lon="15.5111223" version="1" timestamp="2022-06-19T22:12:15Z" changeset="122595461" uid="3497659" user="NKA">
		<tag k="name" v="Reinhagen" />
		<tag k="place" v="farm" />
		<tag k="ssr:stedsnr" v="926728" />
	</node>
	<node id="9831835669" lat="66.8706056" lon="15.3817791" version="1" timestamp="2022-06-19T22:12:15Z" changeset="122595461" uid="3497659" user="NKA">
		<tag k="name" v="Tieggågvasshytta" />
		<tag k="place" v="isolated_dwelling" />
		<tag k="ssr:stedsnr" v="776132" />
	</node>
	<node id="9831835670" lat="67.0186839" lon="15.3407281" version="1" timestamp="2022-06-19T22:12:15Z" changeset="122595461" uid="3497659" user="NKA">
		<tag k="loc_name:smj" v="Dráhka" />
		<tag k="name" v="Drageid" />
		<tag k="name:no" v="Drageid" />
		<tag k="place" v="hamlet" />
		<tag k="ssr:stedsnr" v="16842" />
	</node>
	<node id="9831835671" lat="66.80305" lon="15.5778668" version="1" timestamp="2022-06-19T22:12:15Z" changeset="122595461" uid="3497659" user="NKA">
		<tag k="name" v="Osvoll" />
		<tag k="place" v="farm" />
		<tag k="ssr:stedsnr" v="744821" />
	</node>
	<node id="9831835672" lat="66.9642389" lon="15.4317444" version="1" timestamp="2022-06-19T22:12:15Z" changeset="122595461" uid="3497659" user="NKA">
		<tag k="name" v="Pettermoen" />
		<tag k="place" v="farm" />
		<tag k="ssr:stedsnr" v="16695" />
	</node>
	<node id="9831835673" lat="67.1088194" lon="15.4698529" version="1" timestamp="2022-06-19T22:12:15Z" changeset="122595461" uid="3497659" user="NKA">
		<tag k="name" v="Trøa" />
		<tag k="place" v="farm" />
		<tag k="ssr:stedsnr" v="816885" />
	</node>
	<node id="9831835674" lat="66.8067167" lon="15.5612999" version="1" timestamp="2022-06-19T22:12:15Z" changeset="122595461" uid="3497659" user="NKA">
		<tag k="name" v="Bakken" />
		<tag k="place" v="farm" />
		<tag k="ssr:stedsnr" v="744653" />
	</node>
	<node id="9831835675" lat="66.9848012" lon="15.3308701" version="1" timestamp="2022-06-19T22:12:15Z" changeset="122595461" uid="3497659" user="NKA">
		<tag k="name" v="Potthus" />
		<tag k="place" v="hamlet" />
		<tag k="ssr:stedsnr" v="623703" />
	</node>
	<node id="9831835676" lat="66.8179328" lon="15.4733534" version="1" timestamp="2022-06-19T22:12:15Z" changeset="122595461" uid="3497659" user="NKA">
		<tag k="name" v="Kjernfjellet" />
		<tag k="place" v="farm" />
		<tag k="ssr:stedsnr" v="990943" />
	</node>
	<node id="9831835677" lat="66.9166666" lon="15.3638443" version="1" timestamp="2022-06-19T22:12:15Z" changeset="122595461" uid="3497659" user="NKA">
		<tag k="alt_name" v="Nordnesfjellet" />
		<tag k="historic" v="shieling" />
		<tag k="name" v="Nordnesfjell-gård" />
		<tag k="place" v="isolated_dwelling" />
		<tag k="ssr:stedsnr" v="865755" />
	</node>
	<node id="9831835678" lat="67.0005983" lon="15.3238681" version="1" timestamp="2022-06-19T22:12:15Z" changeset="122595461" uid="3497659" user="NKA">
		<tag k="name" v="Hemmoen" />
		<tag k="place" v="neighbourhood" />
		<tag k="ssr:stedsnr" v="646327" />
	</node>
	<node id="9831835679" lat="66.9818444" lon="15.489586" version="1" timestamp="2022-06-19T22:12:15Z" changeset="122595461" uid="3497659" user="NKA">
		<tag k="name" v="Solbakk" />
		<tag k="place" v="farm" />
		<tag k="ssr:stedsnr" v="744673" />
	</node>
	<node id="9831835680" lat="66.9323979" lon="15.441857" version="1" timestamp="2022-06-19T22:12:15Z" changeset="122595461" uid="3497659" user="NKA">
		<tag k="name" v="Evenesdal" />
		<tag k="place" v="hamlet" />
		<tag k="ssr:stedsnr" v="1074888" />
	</node>
	<node id="9831835681" lat="66.9618" lon="15.3846278" version="1" timestamp="2022-06-19T22:12:15Z" changeset="122595461" uid="3497659" user="NKA">
		<tag k="alt_name" v="Stormo" />
		<tag k="name" v="Stormoen" />
		<tag k="place" v="hamlet" />
		<tag k="ssr:stedsnr" v="198710" />
	</node>
	<node id="9831835682" lat="66.8348639" lon="15.3513749" version="1" timestamp="2022-06-19T22:12:15Z" changeset="122595461" uid="3497659" user="NKA">
		<tag k="alt_name" v="Mastenes" />
		<tag k="name" v="Masternes" />
		<tag k="place" v="farm" />
		<tag k="ssr:stedsnr" v="684639" />
	</node>
	<node id="9831835683" lat="66.9409945" lon="15.3996983" version="1" timestamp="2022-06-19T22:12:15Z" changeset="122595461" uid="3497659" user="NKA">
		<tag k="alt_name" v="Kvandal" />
		<tag k="name" v="Kvanndal" />
		<tag k="place" v="farm" />
		<tag k="ssr:stedsnr" v="1074906" />
	</node>
	<node id="9831835684" lat="66.8891834" lon="15.2959333" version="1" timestamp="2022-06-19T22:12:15Z" changeset="122595461" uid="3497659" user="NKA">
		<tag k="name" v="Gjerdmoen" />
		<tag k="place" v="farm" />
		<tag k="ssr:stedsnr" v="634647" />
	</node>
	<node id="9831835685" lat="66.9246584" lon="15.8713083" version="1" timestamp="2022-06-19T22:12:15Z" changeset="122595461" uid="3497659" user="NKA">
		<tag k="name" v="Skiejddehytta" />
		<tag k="old_name" v="Skieidihytta;Skiei'dihytta" />
		<tag k="place" v="isolated_dwelling" />
		<tag k="ssr:stedsnr" v="380859" />
	</node>
	<node id="9831835686" lat="67.0485861" lon="15.3810999" version="1" timestamp="2022-06-19T22:12:15Z" changeset="122595461" uid="3497659" user="NKA">
		<tag k="name" v="Myro" />
		<tag k="place" v="farm" />
		<tag k="ssr:stedsnr" v="877741" />
	</node>
	<node id="9831835687" lat="67.0556" lon="15.3924557" version="1" timestamp="2022-06-19T22:12:15Z" changeset="122595461" uid="3497659" user="NKA">
		<tag k="alt_name" v="Børåneset" />
		<tag k="name" v="Børånes" />
		<tag k="place" v="farm" />
		<tag k="ssr:stedsnr" v="866824" />
	</node>
	<node id="9831835688" lat="66.9606018" lon="15.3096831" version="1" timestamp="2022-06-19T22:12:15Z" changeset="122595461" uid="3497659" user="NKA">
		<tag k="name" v="Svemo" />
		<tag k="place" v="farm" />
		<tag k="ssr:stedsnr" v="452582" />
	</node>
	<node id="9831835689" lat="66.9790084" lon="15.4914973" version="1" timestamp="2022-06-19T22:12:15Z" changeset="122595461" uid="3497659" user="NKA">
		<tag k="name" v="Sørli" />
		<tag k="place" v="farm" />
		<tag k="ssr:stedsnr" v="501673" />
	</node>
	<node id="9831835690" lat="66.8480399" lon="15.3137879" version="1" timestamp="2022-06-19T22:12:15Z" changeset="122595461" uid="3497659" user="NKA">
		<tag k="alt_name" v="Borkamoen" />
		<tag k="name" v="Borkamo" />
		<tag k="place" v="farm" />
		<tag k="ssr:stedsnr" v="441665" />
	</node>
	<node id="9831835691" lat="66.9414795" lon="15.4140182" version="1" timestamp="2022-06-19T22:12:15Z" changeset="122595461" uid="3497659" user="NKA">
		<tag k="name" v="Kalpersanes" />
		<tag k="place" v="farm" />
		<tag k="ssr:stedsnr" v="412066" />
	</node>
	<node id="9831835692" lat="67.1091772" lon="15.4643668" version="1" timestamp="2022-06-19T22:12:15Z" changeset="122595461" uid="3497659" user="NKA">
		<tag k="loc_name:smj" v="Saksavijkka" />
		<tag k="name" v="Soksenvika" />
		<tag k="name:no" v="Soksenvika" />
		<tag k="place" v="hamlet" />
		<tag k="ssr:stedsnr" v="441778" />
	</node>
	<node id="9831835693" lat="66.9285516" lon="15.4283756" version="1" timestamp="2022-06-19T22:12:15Z" changeset="122595461" uid="3497659" user="NKA">
		<tag k="alt_name" v="Kristenlia" />
		<tag k="name" v="Elsalia" />
		<tag k="place" v="locality" />
		<tag k="ssr:stedsnr" v="622735" />
	</node>
	<node id="9831835694" lat="67.0450028" lon="15.39035" version="1" timestamp="2022-06-19T22:12:15Z" changeset="122595461" uid="3497659" user="NKA">
		<tag k="name" v="Kløkstad" />
		<tag k="place" v="farm" />
		<tag k="ssr:stedsnr" v="573716" />
	</node>
	<node id="9831835695" lat="67.07385" lon="15.3790638" version="1" timestamp="2022-06-19T22:12:15Z" changeset="122595461" uid="3497659" user="NKA">
		<tag k="name" v="Strømsnes" />
		<tag k="place" v="farm" />
		<tag k="ssr:stedsnr" v="634769" />
	</node>
	<node id="9831835696" lat="66.8091945" lon="15.5574139" version="1" timestamp="2022-06-19T22:12:15Z" changeset="122595461" uid="3497659" user="NKA">
		<tag k="name" v="Jakobsbakken" />
		<tag k="place" v="farm" />
		<tag k="ssr:stedsnr" v="320674" />
	</node>
	<node id="9831835697" lat="66.9951958" lon="15.3276244" version="1" timestamp="2022-06-19T22:12:15Z" changeset="122595461" uid="3497659" user="NKA">
		<tag k="alt_name" v="Kvæle" />
		<tag k="name" v="Kvæl" />
		<tag k="place" v="neighbourhood" />
		<tag k="ssr:stedsnr" v="562567" />
	</node>
	<node id="9831835698" lat="67.0936472" lon="15.3911417" version="1" timestamp="2022-06-19T22:12:15Z" changeset="122595461" uid="3497659" user="NKA">
		<tag k="name" v="Fiskvågmoen" />
		<tag k="place" v="neighbourhood" />
		<tag k="ssr:stedsnr" v="482495" />
	</node>
	<node id="9831835699" lat="67.1672686" lon="15.4877228" version="1" timestamp="2022-06-19T22:12:15Z" changeset="122595461" uid="3497659" user="NKA">
		<tag k="name" v="Yttersetså" />
		<tag k="place" v="farm" />
		<tag k="ssr:stedsnr" v="168050" />
	</node>
	<node id="9831835700" lat="67.094662" lon="15.4667334" version="1" timestamp="2022-06-19T22:12:15Z" changeset="122595461" uid="3497659" user="NKA">
		<tag k="name" v="Botn" />
		<tag k="place" v="hamlet" />
		<tag k="ssr:stedsnr" v="137764" />
	</node>
	<node id="9831835701" lat="66.9814544" lon="15.4925944" version="1" timestamp="2022-06-19T22:12:15Z" changeset="122595461" uid="3497659" user="NKA">
		<tag k="alt_name" v="Moen" />
		<tag k="name" v="Moan" />
		<tag k="place" v="farm" />
		<tag k="ssr:stedsnr" v="137665" />
	</node>
	<node id="9831835702" lat="66.977578" lon="15.416065" version="1" timestamp="2022-06-19T22:12:15Z" changeset="122595461" uid="3497659" user="NKA">
		<tag k="name" v="Fredheim" />
		<tag k="place" v="farm" />
		<tag k="ssr:stedsnr" v="290579" />
	</node>
	<node id="9831835703" lat="66.9379535" lon="15.2676445" version="1" timestamp="2022-06-19T22:12:15Z" changeset="122595461" uid="3497659" user="NKA">
		<tag k="name" v="Statskjell" />
		<tag k="place" v="isolated_dwelling" />
		<tag k="ssr:stedsnr" v="48100" />
	</node>
	<node id="9831835704" lat="66.9829467" lon="15.3100831" version="1" timestamp="2022-06-19T22:12:15Z" changeset="122595461" uid="3497659" user="NKA">
		<tag k="name" v="Røklandsmoen" />
		<tag k="place" v="neighbourhood" />
		<tag k="ssr:stedsnr" v="180377" />
	</node>
	<node id="9831835705" lat="66.8620389" lon="15.3135806" version="1" timestamp="2022-06-19T22:12:15Z" changeset="122595461" uid="3497659" user="NKA">
		<tag k="name" v="Lifjell" />
		<tag k="place" v="farm" />
		<tag k="ssr:stedsnr" v="137619" />
	</node>
	<node id="9831835706" lat="67.058208" lon="15.3841186" version="1" timestamp="2022-06-19T22:12:15Z" changeset="122595461" uid="3497659" user="NKA">
		<tag k="name" v="Nerholmen" />
		<tag k="place" v="farm" />
		<tag k="ssr:stedsnr" v="391750" />
	</node>
	<node id="9831835707" lat="66.8046722" lon="15.5730945" version="1" timestamp="2022-06-19T22:12:15Z" changeset="122595461" uid="3497659" user="NKA">
		<tag k="name" v="Storvoll" />
		<tag k="place" v="farm" />
		<tag k="ssr:stedsnr" v="77834" />
	</node>
	<node id="9831835708" lat="66.8200736" lon="15.391206" version="1" timestamp="2022-06-19T22:12:15Z" changeset="122595461" uid="3497659" user="NKA">
		<tag k="name" v="Storjord" />
		<tag k="place" v="hamlet" />
		<tag k="ssr:stedsnr" v="77683" />
	</node>
	<node id="9831835709" lat="66.9600333" lon="15.3060277" version="1" timestamp="2022-06-19T22:12:15Z" changeset="122595461" uid="3497659" user="NKA">
		<tag k="name" v="Yttervollen" />
		<tag k="place" v="farm" />
		<tag k="ssr:stedsnr" v="88490" />
	</node>
	<node id="9831835710" lat="67.0279472" lon="15.3587362" version="1" timestamp="2022-06-19T22:12:15Z" changeset="122595461" uid="3497659" user="NKA">
		<tag k="name" v="Sveen" />
		<tag k="place" v="farm" />
		<tag k="ssr:stedsnr" v="877550" />
	</node>
	<node id="9831835711" lat="66.9756698" lon="15.3447954" version="1" timestamp="2022-06-19T22:12:15Z" changeset="122595461" uid="3497659" user="NKA">
		<tag k="name" v="Kvitsteinen" />
		<tag k="place" v="farm" />
		<tag k="ssr:stedsnr" v="897611" />
	</node>
	<node id="9831835712" lat="66.8777306" lon="15.2886084" version="1" timestamp="2022-06-19T22:12:15Z" changeset="122595461" uid="3497659" user="NKA">
		<tag k="name" v="Sollund" />
		<tag k="place" v="isolated_dwelling" />
		<tag k="ssr:stedsnr" v="755608" />
	</node>
	<node id="9831835713" lat="67.0132528" lon="15.3357223" version="1" timestamp="2022-06-19T22:12:15Z" changeset="122595461" uid="3497659" user="NKA">
		<tag k="name" v="Pinmoen" />
		<tag k="place" v="farm" />
		<tag k="ssr:stedsnr" v="622821" />
	</node>
	<node id="9831835714" lat="67.0793867" lon="15.5177831" version="1" timestamp="2022-06-19T22:12:15Z" changeset="122595461" uid="3497659" user="NKA">
		<tag k="name" v="Botnvatnet" />
		<tag k="place" v="farm" />
		<tag k="ssr:stedsnr" v="198796" />
	</node>
	<node id="9831835715" lat="67.0206031" lon="15.3422681" version="1" timestamp="2022-06-19T22:12:15Z" changeset="122595461" uid="3497659" user="NKA">
		<tag k="name" v="Øvre Drageid" />
		<tag k="place" v="farm" />
		<tag k="ssr:stedsnr" v="816868" />
	</node>
	<node id="9831835716" lat="67.0758694" lon="15.5230723" version="1" timestamp="2022-06-19T22:12:15Z" changeset="122595461" uid="3497659" user="NKA">
		<tag k="alt_name" v="Monsnes" />
		<tag k="name" v="Monsneset" />
		<tag k="place" v="farm" />
		<tag k="ssr:stedsnr" v="198797" />
	</node>
	<node id="9831835717" lat="67.0690222" lon="15.3729251" version="1" timestamp="2022-06-19T22:12:15Z" changeset="122595461" uid="3497659" user="NKA">
		<tag k="name" v="Nestby" />
		<tag k="old_name" v="Nesby" />
		<tag k="place" v="hamlet" />
		<tag k="ssr:stedsnr" v="926794" />
	</node>
	<node id="9831835718" lat="67.0575" lon="15.4199861" version="1" timestamp="2022-06-19T22:12:15Z" changeset="122595461" uid="3497659" user="NKA">
		<tag k="alt_name" v="Båtskard" />
		<tag k="name" v="Båtskar" />
		<tag k="place" v="isolated_dwelling" />
		<tag k="ssr:stedsnr" v="622792" />
	</node>
	<node id="9831835719" lat="67.0506806" lon="15.3805667" version="1" timestamp="2022-06-19T22:12:15Z" changeset="122595461" uid="3497659" user="NKA">
		<tag k="name" v="Mobakken" />
		<tag k="place" v="farm" />
		<tag k="ssr:stedsnr" v="816753" />
	</node>
	<node id="9831835720" lat="66.8829139" lon="15.2875278" version="1" timestamp="2022-06-19T22:12:15Z" changeset="122595461" uid="3497659" user="NKA">
		<tag k="name" v="Krestaførrsletta" />
		<tag k="place" v="locality" />
		<tag k="ssr:stedsnr" v="27627" />
	</node>
	<node id="9831835721" lat="66.804928" lon="15.5769052" version="1" timestamp="2022-06-19T22:12:15Z" changeset="122595461" uid="3497659" user="NKA">
		<tag k="name" v="Søre Junkerdal" />
		<tag k="place" v="farm" />
		<tag k="ssr:stedsnr" v="1074897" />
	</node>
	<node id="9831835722" lat="67.0423195" lon="15.3899972" version="1" timestamp="2022-06-19T22:12:15Z" changeset="122595461" uid="3497659" user="NKA">
		<tag k="name" v="Moen" />
		<tag k="place" v="farm" />
		<tag k="ssr:stedsnr" v="816758" />
	</node>
	<node id="9831835723" lat="66.8108124" lon="15.5744535" version="1" timestamp="2022-06-19T22:12:15Z" changeset="122595461" uid="3497659" user="NKA">
		<tag k="name" v="Nordre Junkerdal" />
		<tag k="place" v="farm" />
		<tag k="ssr:stedsnr" v="1074896" />
	</node>
	<node id="9831835724" lat="66.8120278" lon="15.5523445" version="1" timestamp="2022-06-19T22:12:15Z" changeset="122595461" uid="3497659" user="NKA">
		<tag k="name" v="Stornesmoen" />
		<tag k="place" v="farm" />
		<tag k="ssr:stedsnr" v="866664" />
	</node>
	<node id="9831835725" lat="67.0895601" lon="15.3694934" version="1" timestamp="2022-06-19T22:12:15Z" changeset="122595461" uid="3497659" user="NKA">
		<tag k="name" v="Bakken" />
		<tag k="place" v="neighbourhood" />
		<tag k="ssr:stedsnr" v="725443" />
	</node>
	<node id="9831835726" lat="67.087725" lon="15.379086" version="1" timestamp="2022-06-19T22:12:15Z" changeset="122595461" uid="3497659" user="NKA">
		<tag k="name" v="Fiskevågmoen" />
		<tag k="place" v="neighbourhood" />
		<tag k="ssr:stedsnr" v="755674" />
	</node>
	<node id="9831835727" lat="66.8041014" lon="15.575823" version="1" timestamp="2022-06-19T22:12:15Z" changeset="122595461" uid="3497659" user="NKA">
		<tag k="name" v="Innlandet" />
		<tag k="place" v="hamlet" />
		<tag k="ssr:stedsnr" v="198834" />
	</node>
	<node id="9831835728" lat="67.0501937" lon="15.3808253" version="1" timestamp="2022-06-19T22:12:15Z" changeset="122595461" uid="3497659" user="NKA">
		<tag k="name" v="Engan" />
		<tag k="place" v="farm" />
		<tag k="ssr:stedsnr" v="695717" />
	</node>
	<node id="9831835729" lat="66.9311889" lon="15.4415417" version="1" timestamp="2022-06-19T22:12:15Z" changeset="122595461" uid="3497659" user="NKA">
		<tag k="alt_name" v="Gammelheimen" />
		<tag k="name" v="Gammelheim" />
		<tag k="place" v="farm" />
		<tag k="ssr:stedsnr" v="137703" />
	</node>
	<node id="9831835730" lat="66.9458003" lon="15.4238301" version="1" timestamp="2022-06-19T22:12:15Z" changeset="122595461" uid="3497659" user="NKA">
		<tag k="name" v="Mørenberg" />
		<tag k="place" v="farm" />
		<tag k="ssr:stedsnr" v="229036" />
	</node>
	<node id="9831835731" lat="67.0174363" lon="15.3567191" version="1" timestamp="2022-06-19T22:12:15Z" changeset="122595461" uid="3497659" user="NKA">
		<tag k="name" v="Nes" />
		<tag k="place" v="hamlet" />
		<tag k="ssr:stedsnr" v="683812" />
	</node>
	<node id="9831835732" lat="67.0420972" lon="15.37765" version="1" timestamp="2022-06-19T22:12:15Z" changeset="122595461" uid="3497659" user="NKA">
		<tag k="name" v="Innerholmen" />
		<tag k="place" v="farm" />
		<tag k="ssr:stedsnr" v="209732" />
	</node>
	<node id="9831835733" lat="67.1001028" lon="15.4020472" version="1" timestamp="2022-06-19T22:12:15Z" changeset="122595461" uid="3497659" user="NKA">
		<tag k="name" v="Myra" />
		<tag k="place" v="neighbourhood" />
		<tag k="ssr:stedsnr" v="573682" />
	</node>
	<node id="9831835734" lat="67.1676" lon="15.4785611" version="1" timestamp="2022-06-19T22:12:15Z" changeset="122595461" uid="3497659" user="NKA">
		<tag k="name" v="Muren" />
		<tag k="place" v="farm" />
		<tag k="ssr:stedsnr" v="926987" />
	</node>
	<node id="9831835735" lat="66.8007945" lon="15.5916833" version="1" timestamp="2022-06-19T22:12:15Z" changeset="122595461" uid="3497659" user="NKA">
		<tag k="alt_name" v="Røbergvollen;Raubergvollen" />
		<tag k="name" v="Raudberglivollen" />
		<tag k="place" v="farm" />
		<tag k="ssr:stedsnr" v="562841" />
	</node>
	<node id="9831835736" lat="67.0187824" lon="15.3386888" version="1" timestamp="2022-06-19T22:12:15Z" changeset="122595461" uid="3497659" user="NKA">
		<tag k="name" v="Myrvoll" />
		<tag k="place" v="farm" />
		<tag k="ssr:stedsnr" v="148561" />
	</node>
	<node id="9831835737" lat="67.0202904" lon="15.3395076" version="1" timestamp="2022-06-19T22:12:15Z" changeset="122595461" uid="3497659" user="NKA">
		<tag k="name" v="Solbakken" />
		<tag k="place" v="farm" />
		<tag k="ssr:stedsnr" v="513568" />
	</node>
	<node id="9831835738" lat="67.0255369" lon="15.3476135" version="1" timestamp="2022-06-19T22:12:15Z" changeset="122595461" uid="3497659" user="NKA">
		<tag k="name" v="Nedre Drageid" />
		<tag k="place" v="farm" />
		<tag k="ssr:stedsnr" v="148558" />
	</node>
	<node id="9831835739" lat="67.0461944" lon="15.3906777" version="1" timestamp="2022-06-19T22:12:15Z" changeset="122595461" uid="3497659" user="NKA">
		<tag k="name" v="Lieng" />
		<tag k="place" v="farm" />
		<tag k="ssr:stedsnr" v="441863" />
	</node>
	<node id="9831835740" lat="67.047113" lon="15.3817815" version="1" timestamp="2022-06-19T22:12:15Z" changeset="122595461" uid="3497659" user="NKA">
		<tag k="loc_name:smj" v="Sunbivnna" />
		<tag k="name" v="Sundby" />
		<tag k="name:no" v="Sundby" />
		<tag k="place" v="hamlet" />
		<tag k="ssr:stedsnr" v="501812" />
	</node>
	<node id="9831835741" lat="67.0575431" lon="15.3798172" version="1" timestamp="2022-06-19T22:12:15Z" changeset="122595461" uid="3497659" user="NKA">
		<tag k="name" v="Holmen" />
		<tag k="place" v="farm" />
		<tag k="ssr:stedsnr" v="88696" />
	</node>
	<node id="9831835742" lat="66.8388025" lon="15.3382244" version="1" timestamp="2022-06-19T22:12:15Z" changeset="122595461" uid="3497659" user="NKA">
		<tag k="name" v="Innerneset" />
		<tag k="place" v="farm" />
		<tag k="ssr:stedsnr" v="837089" />
	</node>
	<node id="9831835743" lat="66.9289917" lon="15.4613583" version="1" timestamp="2022-06-19T22:12:15Z" changeset="122595461" uid="3497659" user="NKA">
		<tag k="alt_name" v="Storvold" />
		<tag k="name" v="Storvollen" />
		<tag k="place" v="farm" />
		<tag k="ssr:stedsnr" v="137705" />
	</node>
	<node id="9831835744" lat="67.0860527" lon="15.3522527" version="1" timestamp="2022-06-19T22:12:15Z" changeset="122595461" uid="3497659" user="NKA">
		<tag k="name" v="Bakkeng" />
		<tag k="place" v="farm" />
		<tag k="ssr:stedsnr" v="441800" />
	</node>
	<node id="9831835745" lat="67.0576215" lon="15.3925762" version="1" timestamp="2022-06-19T22:12:15Z" changeset="122595461" uid="3497659" user="NKA">
		<tag k="name" v="Oseng" />
		<tag k="place" v="hamlet" />
		<tag k="ssr:stedsnr" v="380827" />
	</node>
	<node id="9831835746" lat="67.1186232" lon="15.3772837" version="1" timestamp="2022-06-19T22:12:15Z" changeset="122595461" uid="3497659" user="NKA">
		<tag k="name" v="Vik" />
		<tag k="place" v="farm" />
		<tag k="ssr:stedsnr" v="951792" />
	</node>
	<node id="9831835747" lat="67.0192342" lon="15.3387094" version="1" timestamp="2022-06-19T22:12:15Z" changeset="122595461" uid="3497659" user="NKA">
		<tag k="name" v="Heimgård" />
		<tag k="place" v="farm" />
		<tag k="ssr:stedsnr" v="331536" />
	</node>
	<node id="9831835748" lat="67.0181231" lon="15.3387228" version="1" timestamp="2022-06-19T22:12:15Z" changeset="122595461" uid="3497659" user="NKA">
		<tag k="name" v="Mosmyr" />
		<tag k="place" v="farm" />
		<tag k="ssr:stedsnr" v="331537" />
	</node>
	<node id="9831835749" lat="67.1208724" lon="15.3707741" version="1" timestamp="2022-06-19T22:12:15Z" changeset="122595461" uid="3497659" user="NKA">
		<tag k="name" v="Søbakken" />
		<tag k="place" v="farm" />
		<tag k="ssr:stedsnr" v="938712" />
	</node>
	<node id="9831835750" lat="67.1018444" lon="15.4259833" version="1" timestamp="2022-06-19T22:12:15Z" changeset="122595461" uid="3497659" user="NKA">
		<tag k="name" v="Saltnes" />
		<tag k="place" v="neighbourhood" />
		<tag k="ssr:stedsnr" v="950399" />
	</node>
	<node id="9831835751" lat="67.1265763" lon="15.3823856" version="1" timestamp="2022-06-19T22:12:15Z" changeset="122595461" uid="3497659" user="NKA">
		<tag k="name" v="Naushågen" />
		<tag k="place" v="locality" />
		<tag k="ssr:stedsnr" v="938662" />
	</node>
	<node id="9831835752" lat="67.017554" lon="15.3392869" version="1" timestamp="2022-06-19T22:12:15Z" changeset="122595461" uid="3497659" user="NKA">
		<tag k="name" v="Slottholm" />
		<tag k="place" v="farm" />
		<tag k="ssr:stedsnr" v="209545" />
	</node>
	<node id="9831835753" lat="67.1237922" lon="15.3868131" version="1" timestamp="2022-06-19T22:12:15Z" changeset="122595461" uid="3497659" user="NKA">
		<tag k="name" v="Risbakk" />
		<tag k="place" v="farm" />
		<tag k="ssr:stedsnr" v="755698" />
	</node>
	<node id="9831835754" lat="66.8283901" lon="15.3684277" version="1" timestamp="2022-06-19T22:12:15Z" changeset="122595461" uid="3497659" user="NKA">
		<tag k="name" v="Stornes" />
		<tag k="place" v="farm" />
		<tag k="ssr:stedsnr" v="533068" />
	</node>
	<node id="9831835755" lat="67.0768238" lon="15.3901748" version="1" timestamp="2022-06-19T22:12:15Z" changeset="122595461" uid="3497659" user="NKA">
		<tag k="name" v="Os" />
		<tag k="place" v="hamlet" />
		<tag k="ssr:stedsnr" v="137781" />
	</node>
	<node id="9831835756" lat="67.1246337" lon="15.382215" version="1" timestamp="2022-06-19T22:12:15Z" changeset="122595461" uid="3497659" user="NKA">
		<tag k="loc_name:smj" v="Luokta" />
		<tag k="name" v="Vik" />
		<tag k="name:no" v="Vik" />
		<tag k="place" v="hamlet" />
		<tag k="ssr:stedsnr" v="744734" />
	</node>
	<node id="9831835757" lat="67.1199361" lon="15.3682417" version="1" timestamp="2022-06-19T22:12:15Z" changeset="122595461" uid="3497659" user="NKA">
		<tag k="alt_name" v="Lillemo" />
		<tag k="name" v="Litlemoen" />
		<tag k="place" v="farm" />
		<tag k="ssr:stedsnr" v="683761" />
	</node>
	<node id="5837720195" lat="66.7640512" lon="15.4759835" version="2" timestamp="2019-01-31T22:11:31Z" changeset="66816586" uid="32112" user="SverigeFan" />
	<node id="5837733172" lat="66.764346" lon="15.4759298" version="1" timestamp="2018-08-17T06:47:17Z" changeset="61735132" uid="8470372" user="Entur AS | Angie Torres" />
	<node id="1721768327" lat="66.9820603" lon="15.3192779" version="4" timestamp="2018-08-17T06:49:47Z" changeset="61735223" uid="8470372" user="Entur AS | Angie Torres" />
	<node id="5837706292" lat="66.9829338" lon="15.3183674" version="2" timestamp="2022-05-18T07:47:35Z" changeset="121132018" uid="3497659" user="NKA" />
	<node id="5837716386" lat="66.98235" lon="15.3191098" version="1" timestamp="2018-08-17T06:43:24Z" changeset="61735030" uid="8470372" user="Entur AS | Angie Torres" />
	<node id="5837721315" lat="66.9822212" lon="15.3191984" version="1" timestamp="2018-08-17T06:44:34Z" changeset="61735132" uid="8470372" user="Entur AS | Angie Torres" />
	<node id="5837729061" lat="66.9824866" lon="15.31899" version="2" timestamp="2022-05-18T07:47:35Z" changeset="121132018" uid="3497659" user="NKA" />
	<node id="9751084283" lat="66.9826247" lon="15.3188413" version="1" timestamp="2022-05-18T07:47:35Z" changeset="121132018" uid="3497659" user="NKA" />
	<node id="9751084284" lat="66.9827736" lon="15.3186375" version="1" timestamp="2022-05-18T07:47:35Z" changeset="121132018" uid="3497659" user="NKA" />
	<node id="9751084285" lat="66.9832844" lon="15.3178006" version="1" timestamp="2022-05-18T07:47:35Z" changeset="121132018" uid="3497659" user="NKA" />
	<node id="5837709541" lat="66.794231" lon="15.6160114" version="2" timestamp="2021-12-05T21:10:46Z" changeset="114594992" uid="32112" user="SverigeFan" />
	<node id="5837735011" lat="66.7943794" lon="15.6156305" version="2" timestamp="2021-12-05T21:10:46Z" changeset="114594992" uid="32112" user="SverigeFan" />
	<node id="5837726837" lat="66.7767474" lon="15.631969" version="2" timestamp="2019-08-13T20:12:46Z" changeset="73323848" uid="32112" user="SverigeFan" />
	<node id="5837731435" lat="66.7770897" lon="15.632033" version="1" timestamp="2018-08-17T06:46:57Z" changeset="61735132" uid="8470372" user="Entur AS | Angie Torres" />
	<node id="4209700262" lat="66.7458891" lon="15.7428227" version="2" timestamp="2018-06-02T14:38:40Z" changeset="59487111" uid="32112" user="SverigeFan" />
	<node id="5658814942" lat="66.745803" lon="15.7427511" version="1" timestamp="2018-06-02T14:38:17Z" changeset="59487111" uid="32112" user="SverigeFan" />
	<way id="179031780" version="7" timestamp="2022-05-18T07:47:35Z" changeset="121132018" uid="3497659" user="NKA">
		<tag k="alt_name" v="Potthus brua" />
		<tag k="bridge" v="yes" />
		<tag k="bridge:structure" v="beam" />
		<tag k="highway" v="secondary" />
		<tag k="layer" v="1" />
		<tag k="maxspeed" v="80" />
		<tag k="name" v="Potthusbrua" />
		<tag k="old_ref" v="516" />
		<tag k="ref" v="7466" />
		<tag k="ssr:stedsnr" v="776582" />
		<nd ref="1721768327" />
		<nd ref="5837721315" />
		<nd ref="5837716386" />
		<nd ref="5837729061" />
		<nd ref="9751084283" />
		<nd ref="9751084284" />
		<nd ref="5837706292" />
		<nd ref="9751084285" />
	</way>
	<way id="335394623" version="4" timestamp="2022-05-18T07:47:35Z" changeset="121132018" uid="3497659" user="NKA">
		<tag k="bridge" v="yes" />
		<tag k="destination:backward" v="Trondheim" />
		<tag k="highway" v="trunk" />
		<tag k="layer" v="1" />
		<tag k="lit" v="no" />
		<tag k="maxspeed" v="80" />
		<tag k="name" v="Viskisbrua" />
		<tag k="ref" v="E 6" />
		<tag k="ssr:stedsnr" v="331823" />
		<tag k="surface" v="asphalt" />
		<tag k="width" v="7" />
		<nd ref="5837720195" />
		<nd ref="5837733172" />
	</way>
	<way id="362399173" version="4" timestamp="2022-01-24T06:56:00Z" changeset="116526664" uid="3497659" user="NKA">
		<tag k="alt_name" v="Gamforsbrua" />
		<tag k="bridge" v="yes" />
		<tag k="highway" v="service" />
		<tag k="layer" v="1" />
		<tag k="name" v="Gamfossbrua" />
		<tag k="ssr:stedsnr" v="16816" />
		<tag k="surface" v="gravel" />
		<tag k="tracktype" v="grade1" />
		<nd ref="5837731435" />
		<nd ref="5837726837" />
	</way>
	<way id="593080939" version="2" timestamp="2022-01-24T06:56:00Z" changeset="116526664" uid="3497659" user="NKA">
		<tag k="bridge" v="yes" />
		<tag k="highway" v="path" />
		<tag k="layer" v="1" />
		<tag k="name" v="Knallerdalbrua" />
		<tag k="ssr:stedsnr" v="391848" />
		<nd ref="4209700262" />
		<nd ref="5658814942" />
	</way>
	<way id="617560537" version="2" timestamp="2022-01-24T06:56:00Z" changeset="116526664" uid="3497659" user="NKA">
		<tag k="bridge" v="yes" />
		<tag k="highway" v="unclassified" />
		<tag k="layer" v="1" />
		<tag k="name" v="Tjårrisbrua" />
		<tag k="ssr:stedsnr" v="562831" />
		<nd ref="5837735011" />
		<nd ref="5837709541" />
	</way>
</osm>
