<?xml version="1.0" encoding="UTF-8"?>
<osm generator="osmapis" version="0.6">
	<node id="-811776" lat="69.7286083935" lon="30.0419565444">
		<tag k="loc_name:fkv" v="Etelä-Varankin kunta" />
		<tag k="loc_name:se" v="Mátta-Várjjaga gielda;Mátta-Várjjat" />
		<tag k="name" v="Sør-Varanger kommune" />
		<tag k="name:no" v="Sør-Varanger kommune" />
		<tag k="ssr:date" v="2018-03-14" />
		<tag k="ssr:gruppe" v="administrativeIndelinger" />
		<tag k="ssr:hovedgruppe" v="offentligAdministrasjon" />
		<tag k="ssr:stedsnr" v="268631" />
		<tag k="ssr:type" v="kommune" />
	</node>
	<node id="-811775" lat="69.9670833844" lon="29.6599929823">
		<tag k="name" v="Bugøynes molo, søre" />
		<tag k="old_name" v="Søre Bugøynes molo;Bugøynes søre molo" />
		<tag k="ssr:date" v="2016-05-10" />
		<tag k="ssr:gruppe" v="navigasjon" />
		<tag k="ssr:hovedgruppe" v="infrastruktur" />
		<tag k="ssr:stedsnr" v="268604" />
		<tag k="ssr:type" v="lanterne" />
	</node>
	<node id="-812926" lat="69.9246167204" lon="29.6297068744">
		<tag k="name" v="Kasterholman" />
		<tag k="ssr:date" v="2016-05-10" />
		<tag k="ssr:gruppe" v="navigasjon" />
		<tag k="ssr:hovedgruppe" v="infrastruktur" />
		<tag k="ssr:stedsnr" v="647270" />
		<tag k="ssr:type" v="lanterne" />
	</node>
	<node id="-811771" lat="69.557986166" lon="29.5702317705">
		<tag k="loc_name:fkv" v="Etelä-Varenki;Etelä-Varinki" />
		<tag k="name" v="Sør-Varanger" />
		<tag k="name:no" v="Sør-Varanger" />
		<tag k="ssr:date" v="2019-06-25" />
		<tag k="ssr:gruppe" v="terrengområder" />
		<tag k="ssr:hovedgruppe" v="terreng" />
		<tag k="ssr:stedsnr" v="149789" />
		<tag k="ssr:type" v="landskapsområde" />
	</node>
	<node id="-813558" lat="69.8526722854" lon="30.1308648752">
		<tag k="name" v="Trondheimsneset" />
		<tag k="ssr:date" v="2016-05-11" />
		<tag k="ssr:gruppe" v="navigasjon" />
		<tag k="ssr:hovedgruppe" v="infrastruktur" />
		<tag k="ssr:stedsnr" v="817217" />
		<tag k="ssr:type" v="fyrlykt" />
	</node>
	<node id="-811765" lat="69.1105445012" lon="29.0106958197">
		<tag k="name" v="Ylimaa" />
		<tag k="name:fkv" v="Ylimaa" />
		<tag k="ssr:date" v="2016-05-10" />
		<tag k="ssr:gruppe" v="terrengområder" />
		<tag k="ssr:hovedgruppe" v="terreng" />
		<tag k="ssr:stedsnr" v="147940" />
		<tag k="ssr:type" v="landskapsområde" />
	</node>
	<node id="-811503" lat="69.7558000618" lon="29.8241289233">
		<tag k="name" v="Steinskjernes" />
		<tag k="old_name" v="Steinkjernes" />
		<tag k="ssr:date" v="2016-05-10" />
		<tag k="ssr:gruppe" v="navigasjon" />
		<tag k="ssr:hovedgruppe" v="infrastruktur" />
		<tag k="ssr:stedsnr" v="80052" />
		<tag k="ssr:type" v="fyrlykt" />
	</node>
	<node id="-812906" lat="69.9188528234" lon="29.5027708269">
		<tag k="name" v="Bugøyfjord" />
		<tag k="ssr:date" v="2016-05-10" />
		<tag k="ssr:gruppe" v="navigasjon" />
		<tag k="ssr:hovedgruppe" v="infrastruktur" />
		<tag k="ssr:stedsnr" v="635332" />
		<tag k="ssr:type" v="fyrlykt" />
	</node>
	<node id="-811109" lat="69.5030199234" lon="30.0136250743">
		<tag k="name" v="Strand" />
		<tag k="ssr:date" v="2019-05-31" />
		<tag k="ssr:gruppe" v="veg" />
		<tag k="ssr:hovedgruppe" v="infrastruktur" />
		<tag k="ssr:stedsnr" v="1059495" />
		<tag k="ssr:type" v="adressenavn" />
	</node>
	<node id="-811108" lat="69.4166823155" lon="29.9841735841">
		<tag k="name" v="Skrøytnesveien" />
		<tag k="ssr:date" v="2019-05-31" />
		<tag k="ssr:gruppe" v="veg" />
		<tag k="ssr:hovedgruppe" v="infrastruktur" />
		<tag k="ssr:stedsnr" v="1059474" />
		<tag k="ssr:type" v="adressenavn" />
	</node>
	<node id="-811106" lat="69.4620417022" lon="30.0262752108">
		<tag k="name" v="Mostadveien" />
		<tag k="ssr:date" v="2019-05-31" />
		<tag k="ssr:gruppe" v="veg" />
		<tag k="ssr:hovedgruppe" v="infrastruktur" />
		<tag k="ssr:stedsnr" v="1059430" />
		<tag k="ssr:type" v="adressenavn" />
	</node>
	<node id="-811104" lat="69.6943132944" lon="29.3808796174">
		<tag k="name" v="Sandmoveien" />
		<tag k="ssr:date" v="2019-05-31" />
		<tag k="ssr:gruppe" v="veg" />
		<tag k="ssr:hovedgruppe" v="infrastruktur" />
		<tag k="ssr:stedsnr" v="1059428" />
		<tag k="ssr:type" v="adressenavn" />
	</node>
	<node id="-811230" lat="69.6908039681" lon="29.9932503463">
		<tag k="name" v="Bjørklibakken" />
		<tag k="ssr:date" v="2019-05-31" />
		<tag k="ssr:gruppe" v="veg" />
		<tag k="ssr:hovedgruppe" v="infrastruktur" />
		<tag k="ssr:stedsnr" v="1056655" />
		<tag k="ssr:type" v="adressenavn" />
	</node>
	<node id="-811354" lat="69.6388889725" lon="30.5666644427">
		<tag k="fixme" v="multiple name tags, choose one and add the other to alt_name" />
		<tag k="loc_name:se" v="Norga;Norgga gonagasriika" />
		<tag k="loc_name:sma" v="Nöörje;Nöörjen gånkarïjhke" />
		<tag k="loc_name:smj" v="Vuodna;Vuona gånågisrijkka" />
		<tag k="name" v="Noreg;Norge" />
		<tag k="name:en" v="Norway" />
		<tag k="name:no" v="Noreg;Norge" />
		<tag k="ssr:date" v="2019-01-15" />
		<tag k="ssr:gruppe" v="administrativeIndelinger" />
		<tag k="ssr:hovedgruppe" v="offentligAdministrasjon" />
		<tag k="ssr:stedsnr" v="26330" />
		<tag k="ssr:type" v="nasjon" />
	</node>
	<node id="-812632" lat="69.7570500558" lon="29.6997262164">
		<tag k="name" v="Skogerøypynten" />
		<tag k="ssr:date" v="2016-05-10" />
		<tag k="ssr:gruppe" v="navigasjon" />
		<tag k="ssr:hovedgruppe" v="infrastruktur" />
		<tag k="ssr:stedsnr" v="565050" />
		<tag k="ssr:type" v="fyrlykt" />
	</node>
	<node id="-813348" lat="69.9677694942" lon="29.6620263366">
		<tag k="name" v="Bugøy molo, søre" />
		<tag k="old_name" v="Søre Bugøy molo;Bugøy molo" />
		<tag k="ssr:date" v="2016-05-11" />
		<tag k="ssr:gruppe" v="navigasjon" />
		<tag k="ssr:hovedgruppe" v="infrastruktur" />
		<tag k="ssr:stedsnr" v="754618" />
		<tag k="ssr:type" v="lanterne" />
	</node>
	<node id="-812628" lat="69.8147750541" lon="29.7581539713">
		<tag k="name" v="Straumen" />
		<tag k="ssr:date" v="2016-05-10" />
		<tag k="ssr:gruppe" v="navigasjon" />
		<tag k="ssr:hovedgruppe" v="infrastruktur" />
		<tag k="ssr:stedsnr" v="565011" />
		<tag k="ssr:type" v="fyrlykt" />
	</node>
	<node id="-811278" lat="69.8774139538" lon="30.1762204076">
		<tag k="name" v="Bøkfjord" />
		<tag k="old_name" v="Bøkfjord fyr" />
		<tag k="ssr:date" v="2016-05-10" />
		<tag k="ssr:gruppe" v="navigasjon" />
		<tag k="ssr:hovedgruppe" v="infrastruktur" />
		<tag k="ssr:stedsnr" v="19055" />
		<tag k="ssr:type" v="fyrstasjon" />
	</node>
	<node id="-811088" lat="69.7169987752" lon="29.9168637673">
		<tag k="name" v="Sætra" />
		<tag k="ssr:date" v="2019-05-31" />
		<tag k="ssr:gruppe" v="veg" />
		<tag k="ssr:hovedgruppe" v="infrastruktur" />
		<tag k="ssr:stedsnr" v="1059049" />
		<tag k="ssr:type" v="adressenavn" />
	</node>
	<node id="-811214" lat="69.454194972" lon="30.0502763873">
		<tag k="name" v="Svein H. Sørensens vei" />
		<tag k="ssr:date" v="2019-12-12" />
		<tag k="ssr:gruppe" v="veg" />
		<tag k="ssr:hovedgruppe" v="infrastruktur" />
		<tag k="ssr:stedsnr" v="1074106" />
		<tag k="ssr:type" v="adressenavn" />
	</node>
	<node id="-811213" lat="69.3286313435" lon="29.332035127">
		<tag k="name" v="Nordvestbukta" />
		<tag k="ssr:date" v="2019-12-12" />
		<tag k="ssr:gruppe" v="veg" />
		<tag k="ssr:hovedgruppe" v="infrastruktur" />
		<tag k="ssr:stedsnr" v="1074105" />
		<tag k="ssr:type" v="adressenavn" />
	</node>
	<node id="-811212" lat="69.6720574692" lon="30.394064323">
		<tag k="name" v="Karpdalsveien" />
		<tag k="ssr:date" v="2019-12-12" />
		<tag k="ssr:gruppe" v="veg" />
		<tag k="ssr:hovedgruppe" v="infrastruktur" />
		<tag k="ssr:stedsnr" v="1074104" />
		<tag k="ssr:type" v="adressenavn" />
	</node>
	<node id="-811211" lat="69.6817897657" lon="30.0947600005">
		<tag k="name" v="Elvenesveien" />
		<tag k="ssr:date" v="2019-12-12" />
		<tag k="ssr:gruppe" v="veg" />
		<tag k="ssr:hovedgruppe" v="infrastruktur" />
		<tag k="ssr:stedsnr" v="1074103" />
		<tag k="ssr:type" v="adressenavn" />
	</node>
	<node id="-811210" lat="69.7690790235" lon="29.8340802491">
		<tag k="name" v="Skogerøyvegen" />
		<tag k="ssr:date" v="2019-11-21" />
		<tag k="ssr:gruppe" v="veg" />
		<tag k="ssr:hovedgruppe" v="infrastruktur" />
		<tag k="ssr:stedsnr" v="1073433" />
		<tag k="ssr:type" v="vegstrekning" />
	</node>
	<node id="-812105" lat="69.8624639478" lon="30.0956037896">
		<tag k="name" v="Kjelmsøy" />
		<tag k="old_name" v="Kjelmøya" />
		<tag k="ssr:date" v="2016-05-10" />
		<tag k="ssr:gruppe" v="navigasjon" />
		<tag k="ssr:hovedgruppe" v="infrastruktur" />
		<tag k="ssr:stedsnr" v="262068" />
		<tag k="ssr:type" v="fyrlykt" />
	</node>
	<node id="-811080" lat="69.6711996445" lon="29.9480353405">
		<tag k="name" v="Mennaveien" />
		<tag k="ssr:date" v="2019-05-31" />
		<tag k="ssr:gruppe" v="veg" />
		<tag k="ssr:hovedgruppe" v="infrastruktur" />
		<tag k="ssr:stedsnr" v="1058052" />
		<tag k="ssr:type" v="adressenavn" />
	</node>
	<node id="-812487" lat="69.9733000484" lon="29.6525041208">
		<tag k="name" v="Bugøy molo, nordre" />
		<tag k="old_name" v="Nordre Bugøy molo" />
		<tag k="ssr:date" v="2016-05-10" />
		<tag k="ssr:gruppe" v="navigasjon" />
		<tag k="ssr:hovedgruppe" v="infrastruktur" />
		<tag k="ssr:stedsnr" v="511560" />
		<tag k="ssr:type" v="lanterne" />
	</node>
	<node id="-811083" lat="69.7205004412" lon="30.0388425968">
		<tag k="name" v="Verksveien" />
		<tag k="ssr:date" v="2019-05-31" />
		<tag k="ssr:gruppe" v="veg" />
		<tag k="ssr:hovedgruppe" v="infrastruktur" />
		<tag k="ssr:stedsnr" v="1058789" />
		<tag k="ssr:type" v="adressenavn" />
	</node>
	<node id="-813110" lat="69.9652694978" lon="29.6585902064">
		<tag k="name" v="Bugøynes" />
		<tag k="ssr:date" v="2016-05-11" />
		<tag k="ssr:gruppe" v="navigasjon" />
		<tag k="ssr:hovedgruppe" v="infrastruktur" />
		<tag k="ssr:stedsnr" v="693628" />
		<tag k="ssr:type" v="fyrlykt" />
	</node>
	<node id="-811081" lat="69.6952975359" lon="29.9606098997">
		<tag k="name" v="Maggadalen" />
		<tag k="ssr:date" v="2019-05-31" />
		<tag k="ssr:gruppe" v="veg" />
		<tag k="ssr:hovedgruppe" v="infrastruktur" />
		<tag k="ssr:stedsnr" v="1058233" />
		<tag k="ssr:type" v="adressenavn" />
	</node>
	<node id="-814002" lat="68.4849327361" lon="16.2297866207">
		<tag k="fixme" v="multiple name tags, choose one and add the other to alt_name" />
		<tag k="name" v="Nord-Noreg;Nord-Norge" />
		<tag k="ssr:date" v="2017-05-18" />
		<tag k="ssr:gruppe" v="administrativeIndelinger" />
		<tag k="ssr:hovedgruppe" v="offentligAdministrasjon" />
		<tag k="ssr:stedsnr" v="976106" />
		<tag k="ssr:type" v="annenAdministrativInndeling" />
	</node>
	<node id="-812461" lat="69.7884111729" lon="30.1074259583">
		<tag k="name" v="Reinøy" />
		<tag k="old_name" v="Reinøya" />
		<tag k="ssr:date" v="2016-05-10" />
		<tag k="ssr:gruppe" v="navigasjon" />
		<tag k="ssr:hovedgruppe" v="infrastruktur" />
		<tag k="ssr:stedsnr" v="505117" />
		<tag k="ssr:type" v="fyrlykt" />
	</node>
	<node id="-811079" lat="69.6725960917" lon="29.9452797267">
		<tag k="name" v="Nils A. Mennas vei" />
		<tag k="ssr:date" v="2019-05-31" />
		<tag k="ssr:gruppe" v="veg" />
		<tag k="ssr:hovedgruppe" v="infrastruktur" />
		<tag k="ssr:stedsnr" v="1057692" />
		<tag k="ssr:type" v="adressenavn" />
	</node>
	<node id="-812708" lat="69.9733083794" lon="29.651248541">
		<tag k="name" v="Bugøynes  molo, nordre" />
		<tag k="old_name" v="Nordre Bugøynes  molo" />
		<tag k="ssr:date" v="2016-05-10" />
		<tag k="ssr:gruppe" v="navigasjon" />
		<tag k="ssr:hovedgruppe" v="infrastruktur" />
		<tag k="ssr:stedsnr" v="571592" />
		<tag k="ssr:type" v="lanterne" />
	</node>
	<node id="-813718" lat="69.8578361705" lon="30.0390705016">
		<tag k="name" v="Kjelmsøysund" />
		<tag k="old_name" v="Kjelmøysund" />
		<tag k="ssr:date" v="2016-05-11" />
		<tag k="ssr:gruppe" v="navigasjon" />
		<tag k="ssr:hovedgruppe" v="infrastruktur" />
		<tag k="ssr:stedsnr" v="869087" />
		<tag k="ssr:type" v="fyrlykt" />
	</node>
	<node id="-811084" lat="69.7237004981" lon="30.0384944852">
		<tag k="name" v="Verksbakken" />
		<tag k="ssr:date" v="2019-05-31" />
		<tag k="ssr:gruppe" v="veg" />
		<tag k="ssr:hovedgruppe" v="infrastruktur" />
		<tag k="ssr:stedsnr" v="1058791" />
		<tag k="ssr:type" v="adressenavn" />
	</node>
	<node id="-813070" lat="69.8081750733" lon="30.4181396448">
		<tag k="name" v="Jarfjord" />
		<tag k="ssr:date" v="2016-05-11" />
		<tag k="ssr:gruppe" v="navigasjon" />
		<tag k="ssr:hovedgruppe" v="infrastruktur" />
		<tag k="ssr:stedsnr" v="687114" />
		<tag k="ssr:type" v="fyrlykt" />
	</node>
	<node id="-813357" lat="69.8982556116" lon="29.7582012393">
		<tag k="name" v="Brasholmen" />
		<tag k="ssr:date" v="2016-05-11" />
		<tag k="ssr:gruppe" v="navigasjon" />
		<tag k="ssr:hovedgruppe" v="infrastruktur" />
		<tag k="ssr:stedsnr" v="756552" />
		<tag k="ssr:type" v="fyrlykt" />
	</node>
</osm>
