<?xml version="1.0" encoding="UTF-8"?>
<<<<<<< HEAD
<osm version="0.6" generator="osmapis">
	<node lat="66.11709166904765" lon="12.504733338135116" id="-6923">
		<tag k="name" v="Vikafjellet" />
		<tag k="natural" v="cliff" />
		<tag k="ssr:stedsnr" v="42115" />
	</node>
	<node lat="66.08166110926906" lon="12.559800006129207" id="-6925">
		<tag k="name" v="Urdfjellet" />
		<tag k="natural" v="cliff" />
		<tag k="ssr:stedsnr" v="44474" />
	</node>
	<node lat="66.08574722431952" lon="12.530280564066944" id="-6926">
		<tag k="name" v="Hestadmarka" />
		<tag k="natural" v="slope" />
		<tag k="place" v="locality" />
		<tag k="ssr:stedsnr" v="44491" />
	</node>
	<node lat="66.14877221922103" lon="12.379261121733396" id="-6928">
=======
<osm generator="osmapis" version="0.6">
	<node id="-147076" lat="66.028219449" lon="12.311758325">
>>>>>>> e1d4bc35ff8a6074a6f2e91616a996b547c36f15
		<tag k="fixme" v="consider natural=peak for the most distinct mountains in the district" />
		<tag k="name" v="Storåsen" />
		<tag k="natural" v="hill" />
		<tag k="place" v="locality" />
		<tag k="ssr:stedsnr" v="45310" />
	</node>
<<<<<<< HEAD
	<node lat="66.1823305581593" lon="12.505477771714036" id="-6930">
		<tag k="name" v="Gjerdet" />
=======
	<node id="-147075" lat="66.0407277767" lon="12.4336416674">
		<tag k="name" v="Hestdalen" />
		<tag k="natural" v="valley" />
>>>>>>> e1d4bc35ff8a6074a6f2e91616a996b547c36f15
		<tag k="place" v="locality" />
		<tag k="ssr:stedsnr" v="45420" />
	</node>
<<<<<<< HEAD
	<node lat="66.20121944706112" lon="12.557961105718302" id="-6932">
		<tag k="name" v="Vardbergnebben" />
=======
	<node id="-147074" lat="66.0409750014" lon="12.5630194461">
		<tag k="name" v="Tyttebærstaden" />
		<tag k="natural" v="ridge" />
>>>>>>> e1d4bc35ff8a6074a6f2e91616a996b547c36f15
		<tag k="place" v="locality" />
		<tag k="ssr:stedsnr" v="45603" />
	</node>
<<<<<<< HEAD
	<node lat="66.10041110701559" lon="12.506927784782317" id="-6935">
		<tag k="name" v="Floto" />
=======
	<node id="-147073" lat="66.0426888854" lon="12.5240361021">
		<tag k="fixme" v="consider natural=peak for the most distinct mountains in the district" />
		<tag k="name" v="Jonsokåsen" />
		<tag k="natural" v="hill" />
>>>>>>> e1d4bc35ff8a6074a6f2e91616a996b547c36f15
		<tag k="place" v="locality" />
		<tag k="ssr:stedsnr" v="46076" />
	</node>
<<<<<<< HEAD
	<node lat="66.10363610855174" lon="12.47563333828681" id="-6936">
		<tag k="name" v="Storskardet" />
		<tag k="natural" v="valley" />
=======
	<node id="-147071" lat="66.0352333338" lon="12.4307222242">
		<tag k="name" v="Nerkleiva" />
		<tag k="natural" v="ridge" />
>>>>>>> e1d4bc35ff8a6074a6f2e91616a996b547c36f15
		<tag k="place" v="locality" />
		<tag k="ssr:stedsnr" v="46083" />
	</node>
<<<<<<< HEAD
	<node lat="66.10504166691597" lon="12.486605560684366" id="-6938">
		<tag k="fixme" v="consider natural=peak for the most distinct mountains in the district" />
		<tag k="name" v="Snekkaråsen" />
		<tag k="natural" v="hill" />
=======
	<node id="-147066" lat="66.0695333368" lon="12.5721083237">
		<tag k="name" v="Høgnan" />
		<tag k="natural" v="slope" />
>>>>>>> e1d4bc35ff8a6074a6f2e91616a996b547c36f15
		<tag k="place" v="locality" />
		<tag k="ssr:stedsnr" v="46091" />
	</node>
<<<<<<< HEAD
	<node lat="66.08741111254585" lon="12.42032499588595" id="-6939">
		<tag k="fixme" v="consider natural=peak for the most distinct mountains in the district" />
		<tag k="name" v="Storhjelmhågjen" />
		<tag k="natural" v="hill" />
=======
	<node id="-147064" lat="66.1701416702" lon="12.6140972234">
		<tag k="name" v="Skjåsletta" />
>>>>>>> e1d4bc35ff8a6074a6f2e91616a996b547c36f15
		<tag k="place" v="locality" />
		<tag k="ssr:stedsnr" v="46305" />
	</node>
<<<<<<< HEAD
	<node lat="66.16728888986822" lon="12.722369437893976" id="-6940">
=======
	<node id="-147063" lat="66.2534138886" lon="12.7556444555">
>>>>>>> e1d4bc35ff8a6074a6f2e91616a996b547c36f15
		<tag k="fixme" v="consider natural=peak for the most distinct mountains in the district" />
		<tag k="name" v="Krongelvikhågjen" />
		<tag k="natural" v="hill" />
		<tag k="place" v="locality" />
		<tag k="ssr:stedsnr" v="46374" />
	</node>
<<<<<<< HEAD
	<node lat="66.06887222251073" lon="12.52928055141001" id="-6941">
		<tag k="name" v="Svarthatten" />
		<tag k="natural" v="hill" />
=======
	<node id="-147059" lat="66.1347027816" lon="12.5498249915">
		<tag k="name" v="Undsteinen" />
		<tag k="natural" v="ridge" />
>>>>>>> e1d4bc35ff8a6074a6f2e91616a996b547c36f15
		<tag k="place" v="locality" />
		<tag k="ssr:stedsnr" v="46401" />
	</node>
<<<<<<< HEAD
	<node lat="66.07141388563943" lon="12.52194444554534" id="-6942">
		<tag k="name" v="Baklia" />
		<tag k="natural" v="slope" />
		<tag k="place" v="locality" />
		<tag k="ssr:stedsnr" v="46404" />
	</node>
	<node lat="66.02862500327998" lon="12.368988900259476" id="-6943">
		<tag k="name" v="Mantelhågjen" />
=======
	<node id="-147057" lat="66.1330833309" lon="12.5388861186">
		<tag k="name" v="Røsdalsfjellet" />
		<tag k="natural" v="cliff" />
		<tag k="ssr:stedsnr" v="956910" />
	</node>
	<node id="-147056" lat="66.136330555" lon="12.3559361215">
		<tag k="name" v="Vasskleppen" />
>>>>>>> e1d4bc35ff8a6074a6f2e91616a996b547c36f15
		<tag k="natural" v="hill" />
		<tag k="place" v="locality" />
		<tag k="ssr:stedsnr" v="46735" />
	</node>
<<<<<<< HEAD
	<node lat="66.04334167064447" lon="12.352741670094726" id="-6944">
		<tag k="name" v="Mølnvikmoan" />
=======
	<node id="-147053" lat="66.1300277823" lon="12.6168944437">
		<tag k="name" v="Gjesfjordskardet" />
		<tag k="natural" v="valley" />
>>>>>>> e1d4bc35ff8a6074a6f2e91616a996b547c36f15
		<tag k="place" v="locality" />
		<tag k="ssr:stedsnr" v="46623" />
	</node>
<<<<<<< HEAD
	<node lat="66.15629444543148" lon="12.797519433573365" id="-6947">
		<tag k="name" v="Hanskjellhågjen" />
=======
	<node id="-147052" lat="66.0946277791" lon="12.5807527888">
		<tag k="name" v="Hekkelberget" />
>>>>>>> e1d4bc35ff8a6074a6f2e91616a996b547c36f15
		<tag k="natural" v="hill" />
		<tag k="place" v="locality" />
		<tag k="ssr:stedsnr" v="46923" />
	</node>
<<<<<<< HEAD
	<node lat="66.06961389010335" lon="12.412583323530054" id="-6968">
		<tag k="fixme" v="consider natural=peak for the most distinct mountains in the district" />
		<tag k="name" v="Vedhatten" />
=======
	<node id="-147050" lat="66.0895555523" lon="12.603933339">
		<tag k="name" v="Ørnhågjen" />
>>>>>>> e1d4bc35ff8a6074a6f2e91616a996b547c36f15
		<tag k="natural" v="hill" />
		<tag k="place" v="locality" />
		<tag k="ssr:stedsnr" v="105432" />
	</node>
<<<<<<< HEAD
	<node lat="66.15857221907999" lon="12.73881667583413" id="-6970">
		<tag k="fixme" v="consider natural=peak for the most distinct mountains in the district" />
		<tag k="name" v="Høgbergåsen" />
		<tag k="natural" v="hill" />
=======
	<node id="-147047" lat="66.0867972202" lon="12.4054277716">
		<tag k="name" v="Breistrandskardet" />
		<tag k="natural" v="valley" />
>>>>>>> e1d4bc35ff8a6074a6f2e91616a996b547c36f15
		<tag k="place" v="locality" />
		<tag k="ssr:stedsnr" v="106221" />
	</node>
<<<<<<< HEAD
	<node lat="66.17176666392085" lon="12.465188887008042" id="-6976">
		<tag k="name" v="Breimo" />
		<tag k="natural" v="slope" />
=======
	<node id="-147046" lat="66.0854111107" lon="12.3961444522">
		<tag k="name" v="Knudsvågjen" />
		<tag k="natural" v="valley" />
>>>>>>> e1d4bc35ff8a6074a6f2e91616a996b547c36f15
		<tag k="place" v="locality" />
		<tag k="ssr:stedsnr" v="106397" />
	</node>
<<<<<<< HEAD
	<node lat="66.09473333028771" lon="12.556983329518962" id="-6977">
		<tag k="name" v="Holandslia" />
		<tag k="natural" v="slope" />
=======
	<node id="-147044" lat="66.154299996" lon="12.7733555548">
		<tag k="name" v="Kvithello" />
		<tag k="natural" v="hill" />
>>>>>>> e1d4bc35ff8a6074a6f2e91616a996b547c36f15
		<tag k="place" v="locality" />
		<tag k="ssr:stedsnr" v="106473" />
	</node>
<<<<<<< HEAD
	<node lat="66.08281111056142" lon="12.579105555145873" id="-6978">
		<tag k="name" v="Bakken" />
=======
	<node id="-147043" lat="66.1516583316" lon="12.7844361106">
		<tag k="name" v="Båtnesmarka" />
>>>>>>> e1d4bc35ff8a6074a6f2e91616a996b547c36f15
		<tag k="natural" v="slope" />
		<tag k="place" v="locality" />
		<tag k="ssr:stedsnr" v="106475" />
	</node>
<<<<<<< HEAD
	<node lat="66.11360555955775" lon="12.56620277299149" id="-6984">
=======
	<node id="-147042" lat="66.0982333378" lon="12.4659749975">
>>>>>>> e1d4bc35ff8a6074a6f2e91616a996b547c36f15
		<tag k="fixme" v="consider natural=peak for the most distinct mountains in the district" />
		<tag k="name" v="Hatten" />
		<tag k="natural" v="hill" />
		<tag k="place" v="locality" />
		<tag k="ssr:stedsnr" v="107335" />
	</node>
<<<<<<< HEAD
	<node lat="66.1690944465541" lon="12.75369722348151" id="-6985">
=======
	<node id="-147040" lat="66.186186114" lon="12.6166611225">
>>>>>>> e1d4bc35ff8a6074a6f2e91616a996b547c36f15
		<tag k="fixme" v="consider natural=peak for the most distinct mountains in the district" />
		<tag k="name" v="Brattvikhågjen" />
		<tag k="natural" v="hill" />
		<tag k="place" v="locality" />
		<tag k="ssr:stedsnr" v="107337" />
	</node>
	<node lat="66.08839444361404" lon="12.426483341187572" id="-6986">
		<tag k="name" v="Nordhjelmhågjen" />
		<tag k="natural" v="ridge" />
		<tag k="place" v="locality" />
		<tag k="ssr:stedsnr" v="107290" />
	</node>
<<<<<<< HEAD
	<node lat="66.0630666702784" lon="12.39737776792286" id="-6987">
=======
	<node id="-147036" lat="66.1150138914" lon="12.5855027692">
>>>>>>> e1d4bc35ff8a6074a6f2e91616a996b547c36f15
		<tag k="fixme" v="consider natural=peak for the most distinct mountains in the district" />
		<tag k="name" v="Gårdsåsen" />
		<tag k="natural" v="hill" />
		<tag k="place" v="locality" />
		<tag k="ssr:stedsnr" v="107425" />
	</node>
<<<<<<< HEAD
	<node lat="66.0292944438582" lon="12.368391667059308" id="-6988">
		<tag k="name" v="Grinddalen" />
		<tag k="natural" v="valley" />
=======
	<node id="-147032" lat="66.0906138882" lon="12.365141659">
		<tag k="name" v="Bjørnstaklubben" />
		<tag k="natural" v="hill" />
>>>>>>> e1d4bc35ff8a6074a6f2e91616a996b547c36f15
		<tag k="place" v="locality" />
		<tag k="ssr:stedsnr" v="107713" />
	</node>
<<<<<<< HEAD
	<node lat="66.03766110932033" lon="12.538863879783113" id="-6989">
		<tag k="name" v="Storkløvo" />
		<tag k="natural" v="valley" />
=======
	<node id="-147005" lat="66.1033448752" lon="12.6645088762">
		<tag k="name" v="Bjørnsholten" />
		<tag k="natural" v="hill" />
>>>>>>> e1d4bc35ff8a6074a6f2e91616a996b547c36f15
		<tag k="place" v="locality" />
		<tag k="ssr:stedsnr" v="107726" />
	</node>
<<<<<<< HEAD
	<node lat="66.02903888910309" lon="12.540155560985035" id="-6990">
		<tag k="name" v="Solhaug" />
=======
	<node id="-147004" lat="66.1010550078" lon="12.6338349272">
		<tag k="fixme" v="consider natural=peak for the most distinct mountains in the district" />
		<tag k="name" v="Nordmarkfjellet" />
>>>>>>> e1d4bc35ff8a6074a6f2e91616a996b547c36f15
		<tag k="natural" v="hill" />
		<tag k="place" v="locality" />
		<tag k="ssr:stedsnr" v="107744" />
	</node>
<<<<<<< HEAD
	<node lat="66.16727500363841" lon="12.741583341259592" id="-6992">
		<tag k="fixme" v="multiple name tags, choose one and add the other to alt_name; consider natural=peak for the most distinct mountains in the district" />
		<tag k="name" v="Kleppen;Sundskleppen" />
		<tag k="natural" v="hill" />
=======
	<node id="-147001" lat="66.1090777751" lon="12.5330527813">
		<tag k="name" v="Tronga" />
		<tag k="natural" v="valley" />
>>>>>>> e1d4bc35ff8a6074a6f2e91616a996b547c36f15
		<tag k="place" v="locality" />
		<tag k="ssr:stedsnr" v="136011" />
	</node>
<<<<<<< HEAD
	<node lat="66.20264722550243" lon="12.569177779912629" id="-7000">
		<tag k="fixme" v="consider natural=peak for the most distinct mountains in the district" />
		<tag k="name" v="Dønnesfjellet" />
=======
	<node id="-147000" lat="66.1278444462" lon="12.6064555486">
		<tag k="name" v="Husfjellet" />
>>>>>>> e1d4bc35ff8a6074a6f2e91616a996b547c36f15
		<tag k="natural" v="hill" />
		<tag k="place" v="locality" />
		<tag k="ssr:stedsnr" v="136650" />
	</node>
<<<<<<< HEAD
	<node lat="66.07021944709943" lon="12.523383326577086" id="-7003">
		<tag k="fixme" v="multiple name tags, choose one and add the other to alt_name; consider natural=peak for the most distinct mountains in the district" />
		<tag k="name" v="Baklifjellet;Lifjellet" />
=======
	<node id="-146986" lat="66.1801416693" lon="12.7389833249">
		<tag k="fixme" v="consider natural=peak for the most distinct mountains in the district" />
		<tag k="name" v="Høgåsen" />
>>>>>>> e1d4bc35ff8a6074a6f2e91616a996b547c36f15
		<tag k="natural" v="hill" />
		<tag k="place" v="locality" />
		<tag k="ssr:stedsnr" v="136948" />
	</node>
<<<<<<< HEAD
	<node lat="66.11496111015721" lon="12.528952777219205" id="-7012">
		<tag k="fixme" v="consider natural=peak for the most distinct mountains in the district" />
		<tag k="name" v="Solfjellet" />
		<tag k="natural" v="hill" />
=======
	<node id="-146984" lat="66.1769611079" lon="12.7174194434">
		<tag k="name" v="Lofotåsen" />
		<tag k="natural" v="ridge" />
>>>>>>> e1d4bc35ff8a6074a6f2e91616a996b547c36f15
		<tag k="place" v="locality" />
		<tag k="ssr:stedsnr" v="258499" />
	</node>
<<<<<<< HEAD
	<node lat="66.2146083338922" lon="12.588394434597907" id="-7027">
		<tag k="name" v="Kallkleppen" />
=======
	<node id="-146983" lat="66.1786388918" lon="12.6201472334">
		<tag k="name" v="Leikhågjen" />
>>>>>>> e1d4bc35ff8a6074a6f2e91616a996b547c36f15
		<tag k="natural" v="hill" />
		<tag k="place" v="locality" />
		<tag k="ssr:stedsnr" v="258650" />
	</node>
<<<<<<< HEAD
	<node lat="66.05893332954192" lon="12.526702766892237" id="-7032">
		<tag k="name" v="Grindfjellet" />
=======
	<node id="-146973" lat="66.0271722226" lon="12.3641416609">
		<tag k="name" v="Hågjen" />
>>>>>>> e1d4bc35ff8a6074a6f2e91616a996b547c36f15
		<tag k="natural" v="hill" />
		<tag k="place" v="locality" />
		<tag k="ssr:stedsnr" v="258985" />
	</node>
<<<<<<< HEAD
	<node lat="66.20313055825089" lon="12.56710277795549" id="-7039">
		<tag k="name" v="Storskardet" />
=======
	<node id="-146971" lat="66.0288527739" lon="12.3296861088">
		<tag k="name" v="Lunken" />
>>>>>>> e1d4bc35ff8a6074a6f2e91616a996b547c36f15
		<tag k="natural" v="valley" />
		<tag k="place" v="locality" />
		<tag k="ssr:stedsnr" v="166619" />
	</node>
<<<<<<< HEAD
	<node lat="66.08359722486455" lon="12.402525002092414" id="-7041">
		<tag k="fixme" v="consider natural=peak for the most distinct mountains in the district" />
		<tag k="name" v="Kvalnesåsen" />
		<tag k="natural" v="hill" />
=======
	<node id="-146967" lat="66.1795694449" lon="12.5056611097">
		<tag k="name" v="Brekka" />
		<tag k="natural" v="slope" />
>>>>>>> e1d4bc35ff8a6074a6f2e91616a996b547c36f15
		<tag k="place" v="locality" />
		<tag k="ssr:stedsnr" v="167257" />
	</node>
<<<<<<< HEAD
	<node lat="66.09213055478622" lon="12.498761120069018" id="-7044">
		<tag k="name" v="Meiskelia" />
		<tag k="natural" v="slope" />
=======
	<node id="-146962" lat="66.1029166665" lon="12.5683805474">
		<tag k="name" v="Breiskardet" />
		<tag k="natural" v="valley" />
>>>>>>> e1d4bc35ff8a6074a6f2e91616a996b547c36f15
		<tag k="place" v="locality" />
		<tag k="ssr:stedsnr" v="167278" />
	</node>
<<<<<<< HEAD
	<node lat="66.07984999924089" lon="12.35527499823633" id="-7048">
		<tag k="name" v="Bukkbergan" />
=======
	<node id="-146961" lat="66.0957666629" lon="12.452938892">
		<tag k="name" v="Nordmyrhågjen" />
>>>>>>> e1d4bc35ff8a6074a6f2e91616a996b547c36f15
		<tag k="natural" v="ridge" />
		<tag k="place" v="locality" />
		<tag k="ssr:stedsnr" v="167318" />
	</node>
<<<<<<< HEAD
	<node lat="66.14660555336303" lon="12.397252786540044" id="-7049">
		<tag k="name" v="Engskardet" />
		<tag k="natural" v="valley" />
		<tag k="place" v="locality" />
		<tag k="ssr:stedsnr" v="167321" />
	</node>
	<node lat="66.1009138864282" lon="12.552974996501923" id="-7051">
		<tag k="name" v="Hushågjen" />
=======
	<node id="-146960" lat="66.1537499966" lon="12.7759583406">
		<tag k="name" v="Staulahågjen" />
>>>>>>> e1d4bc35ff8a6074a6f2e91616a996b547c36f15
		<tag k="natural" v="hill" />
		<tag k="place" v="locality" />
		<tag k="ssr:stedsnr" v="167362" />
	</node>
<<<<<<< HEAD
	<node lat="66.12113888775744" lon="12.652116655729419" id="-7052">
		<tag k="name" v="Hamran" />
=======
	<node id="-146958" lat="66.1158578598" lon="12.6403868086">
		<tag k="name" v="Skjånesfjellet" />
>>>>>>> e1d4bc35ff8a6074a6f2e91616a996b547c36f15
		<tag k="natural" v="hill" />
		<tag k="place" v="locality" />
		<tag k="ssr:stedsnr" v="167606" />
	</node>
<<<<<<< HEAD
	<node lat="66.16728610842145" lon="12.341683333045378" id="-7054">
		<tag k="name" v="Galtgrindhågjen" />
		<tag k="natural" v="hill" />
=======
	<node id="-146952" lat="66.2006500009" lon="12.5446555544">
		<tag k="name" v="Manngjota" />
>>>>>>> e1d4bc35ff8a6074a6f2e91616a996b547c36f15
		<tag k="place" v="locality" />
		<tag k="ssr:stedsnr" v="167710" />
	</node>
<<<<<<< HEAD
	<node lat="66.1385333309873" lon="12.363700002764093" id="-7056">
		<tag k="name" v="Arskardfloget" />
		<tag k="natural" v="cliff" />
		<tag k="ssr:stedsnr" v="167906" />
	</node>
	<node lat="66.05914999897153" lon="12.399402787177134" id="-7058">
		<tag k="name" v="Sandmoan" />
=======
	<node id="-146947" lat="66.0777249968" lon="12.5496305637">
		<tag k="name" v="Bjørndalen" />
		<tag k="natural" v="valley" />
>>>>>>> e1d4bc35ff8a6074a6f2e91616a996b547c36f15
		<tag k="place" v="locality" />
		<tag k="ssr:stedsnr" v="168417" />
	</node>
<<<<<<< HEAD
	<node lat="66.07021666410886" lon="12.48611111885403" id="-7060">
		<tag k="name" v="Reinhagen" />
		<tag k="natural" v="valley" />
=======
	<node id="-146946" lat="66.1492999972" lon="12.4007555634">
		<tag k="name" v="Skjyskardhågjen" />
		<tag k="natural" v="hill" />
>>>>>>> e1d4bc35ff8a6074a6f2e91616a996b547c36f15
		<tag k="place" v="locality" />
		<tag k="ssr:stedsnr" v="168423" />
	</node>
<<<<<<< HEAD
	<node lat="66.1761916630862" lon="12.724100008043767" id="-7061">
		<tag k="name" v="Eiaberget" />
=======
	<node id="-146939" lat="66.086508329" lon="12.5403583299">
		<tag k="name" v="Lauklia" />
>>>>>>> e1d4bc35ff8a6074a6f2e91616a996b547c36f15
		<tag k="natural" v="slope" />
		<tag k="place" v="locality" />
		<tag k="ssr:stedsnr" v="168365" />
	</node>
<<<<<<< HEAD
	<node lat="66.16365555683478" lon="12.58512500369375" id="-7063">
=======
	<node id="-146931" lat="66.1176277813" lon="12.5321333287">
>>>>>>> e1d4bc35ff8a6074a6f2e91616a996b547c36f15
		<tag k="fixme" v="consider natural=peak for the most distinct mountains in the district" />
		<tag k="name" v="Trollskardtindan" />
		<tag k="natural" v="hill" />
		<tag k="place" v="locality" />
		<tag k="ssr:stedsnr" v="168370" />
	</node>
<<<<<<< HEAD
	<node lat="66.16185277449881" lon="12.575919444128584" id="-7064">
		<tag k="name" v="Koven" />
		<tag k="natural" v="valley" />
=======
	<node id="-146922" lat="66.1365777731" lon="12.5624861204">
		<tag k="name" v="Ørntuva" />
		<tag k="natural" v="hill" />
>>>>>>> e1d4bc35ff8a6074a6f2e91616a996b547c36f15
		<tag k="place" v="locality" />
		<tag k="ssr:stedsnr" v="168377" />
	</node>
<<<<<<< HEAD
	<node lat="66.07310555784387" lon="12.543480556541574" id="-7066">
		<tag k="name" v="Smogjan" />
		<tag k="natural" v="valley" />
=======
	<node id="-146920" lat="66.149675001" lon="12.7153499904">
		<tag k="fixme" v="consider natural=peak for the most distinct mountains in the district" />
		<tag k="name" v="Kopardalsfjellet" />
		<tag k="natural" v="hill" />
>>>>>>> e1d4bc35ff8a6074a6f2e91616a996b547c36f15
		<tag k="place" v="locality" />
		<tag k="ssr:stedsnr" v="168379" />
	</node>
<<<<<<< HEAD
	<node lat="66.0439722253622" lon="12.528655554088287" id="-7067">
=======
	<node id="-146901" lat="66.0604833311" lon="12.3906833224">
>>>>>>> e1d4bc35ff8a6074a6f2e91616a996b547c36f15
		<tag k="fixme" v="consider natural=peak for the most distinct mountains in the district" />
		<tag k="name" v="Storåsen" />
		<tag k="natural" v="hill" />
		<tag k="place" v="locality" />
		<tag k="ssr:stedsnr" v="168521" />
	</node>
<<<<<<< HEAD
	<node lat="66.03835555264165" lon="12.54407499373845" id="-7068">
		<tag k="name" v="Skorpfjellet" />
		<tag k="natural" v="cliff" />
		<tag k="ssr:stedsnr" v="168522" />
	</node>
	<node lat="66.21299166604219" lon="12.59070278164805" id="-7082">
=======
	<node id="-146897" lat="66.036927774" lon="12.350602783">
		<tag k="name" v="Hestdalen" />
		<tag k="natural" v="valley" />
		<tag k="place" v="locality" />
		<tag k="ssr:stedsnr" v="775573" />
	</node>
	<node id="-146894" lat="66.1989583292" lon="12.6013722291">
		<tag k="fixme" v="consider natural=peak for the most distinct mountains in the district" />
		<tag k="name" v="Steinsvikåsen" />
		<tag k="natural" v="hill" />
		<tag k="place" v="locality" />
		<tag k="ssr:stedsnr" v="774693" />
	</node>
	<node id="-146893" lat="66.1101305523" lon="12.5524000047">
>>>>>>> e1d4bc35ff8a6074a6f2e91616a996b547c36f15
		<tag k="fixme" v="consider natural=peak for the most distinct mountains in the district" />
		<tag k="name" v="Medåsen" />
		<tag k="natural" v="hill" />
		<tag k="place" v="locality" />
		<tag k="ssr:stedsnr" v="197663" />
	</node>
<<<<<<< HEAD
	<node lat="66.09050277700157" lon="12.555261111011122" id="-7096">
		<tag k="name" v="Felia" />
		<tag k="natural" v="slope" />
=======
	<node id="-146891" lat="66.1120611122" lon="12.5937194469">
		<tag k="name" v="Kvithågjen" />
		<tag k="natural" v="hill" />
>>>>>>> e1d4bc35ff8a6074a6f2e91616a996b547c36f15
		<tag k="place" v="locality" />
		<tag k="ssr:stedsnr" v="227494" />
	</node>
<<<<<<< HEAD
	<node lat="66.20040555429627" lon="12.582800003140695" id="-7097">
=======
	<node id="-146887" lat="66.0914277744" lon="12.4354305545">
>>>>>>> e1d4bc35ff8a6074a6f2e91616a996b547c36f15
		<tag k="fixme" v="consider natural=peak for the most distinct mountains in the district" />
		<tag k="name" v="Kjerkåsen" />
		<tag k="natural" v="hill" />
		<tag k="place" v="locality" />
<<<<<<< HEAD
		<tag k="ssr:stedsnr" v="227618" />
	</node>
	<node lat="66.1021333307176" lon="12.499008339031937" id="-7100">
		<tag k="fixme" v="consider natural=peak for the most distinct mountains in the district" />
		<tag k="name" v="Storkleiva" />
=======
		<tag k="ssr:stedsnr" v="774330" />
	</node>
	<node id="-146884" lat="66.1245999966" lon="12.6166694498">
		<tag k="name" v="Sjurberget" />
		<tag k="natural" v="ridge" />
		<tag k="place" v="locality" />
		<tag k="ssr:stedsnr" v="774588" />
	</node>
	<node id="-146882" lat="66.0867222199" lon="12.4468472189">
		<tag k="name" v="Kvaløyhågjen" />
		<tag k="natural" v="ridge" />
		<tag k="place" v="locality" />
		<tag k="ssr:stedsnr" v="774278" />
	</node>
	<node id="-146880" lat="66.1555916688" lon="12.758597231">
		<tag k="name" v="Hornssommarhågan" />
>>>>>>> e1d4bc35ff8a6074a6f2e91616a996b547c36f15
		<tag k="natural" v="hill" />
		<tag k="place" v="locality" />
		<tag k="ssr:stedsnr" v="228085" />
	</node>
<<<<<<< HEAD
	<node lat="66.10221666835751" lon="12.46037222381862" id="-7101">
=======
	<node id="-146879" lat="66.079586108" lon="12.5265138797">
>>>>>>> e1d4bc35ff8a6074a6f2e91616a996b547c36f15
		<tag k="fixme" v="consider natural=peak for the most distinct mountains in the district" />
		<tag k="name" v="Harråsen" />
		<tag k="natural" v="hill" />
		<tag k="place" v="locality" />
		<tag k="ssr:stedsnr" v="228089" />
	</node>
<<<<<<< HEAD
	<node lat="66.10309722286722" lon="12.4699666775774" id="-7102">
=======
	<node id="-146852" lat="66.137972219" lon="12.6210027698">
		<tag k="alt_name" v="Gullstadfjellan;Gullstadfjellet" />
>>>>>>> e1d4bc35ff8a6074a6f2e91616a996b547c36f15
		<tag k="fixme" v="consider natural=peak for the most distinct mountains in the district" />
		<tag k="name" v="Gårdsåsen" />
		<tag k="natural" v="hill" />
		<tag k="place" v="locality" />
<<<<<<< HEAD
		<tag k="ssr:stedsnr" v="228093" />
	</node>
	<node lat="66.15168888536704" lon="12.758247230955238" id="-7103">
		<tag k="name" v="Brennhågan" />
		<tag k="natural" v="hill" />
		<tag k="place" v="locality" />
		<tag k="ssr:stedsnr" v="228202" />
	</node>
	<node lat="66.15311388951012" lon="12.746144448927469" id="-7104">
		<tag k="fixme" v="consider natural=peak for the most distinct mountains in the district" />
		<tag k="name" v="Storsteinskardsåsen" />
=======
		<tag k="ssr:stedsnr" v="743527" />
	</node>
	<node id="-146836" lat="66.0380916664" lon="12.4370749905">
		<tag k="name" v="Mølnhusmoen" />
		<tag k="place" v="locality" />
		<tag k="ssr:stedsnr" v="653626" />
	</node>
	<node id="-146833" lat="66.0469444415" lon="12.3679555585">
		<tag k="name" v="Alteret" />
		<tag k="place" v="locality" />
		<tag k="ssr:stedsnr" v="653578" />
	</node>
	<node id="-146830" lat="66.1682527755" lon="12.5390666697">
		<tag k="name" v="Klubben" />
		<tag k="natural" v="hill" />
		<tag k="place" v="locality" />
		<tag k="ssr:stedsnr" v="653411" />
	</node>
	<node id="-146829" lat="66.0605361103" lon="12.3871277687">
		<tag k="name" v="Brekkvikja" />
		<tag k="natural" v="valley" />
		<tag k="place" v="locality" />
		<tag k="ssr:stedsnr" v="653408" />
	</node>
	<node id="-146828" lat="66.177105552" lon="12.7068805565">
		<tag k="name" v="Forhågjen" />
>>>>>>> e1d4bc35ff8a6074a6f2e91616a996b547c36f15
		<tag k="natural" v="hill" />
		<tag k="place" v="locality" />
		<tag k="ssr:stedsnr" v="228203" />
	</node>
<<<<<<< HEAD
	<node lat="66.10918333586112" lon="12.567555561346666" id="-7105">
=======
	<node id="-146827" lat="66.1782277757" lon="12.6048083353">
>>>>>>> e1d4bc35ff8a6074a6f2e91616a996b547c36f15
		<tag k="fixme" v="consider natural=peak for the most distinct mountains in the district" />
		<tag k="name" v="Langåsen" />
		<tag k="natural" v="hill" />
		<tag k="place" v="locality" />
		<tag k="ssr:stedsnr" v="228403" />
	</node>
<<<<<<< HEAD
	<node lat="66.17897777353743" lon="12.731575003715502" id="-7111">
		<tag k="name" v="Høgåsskardet" />
		<tag k="natural" v="valley" />
		<tag k="place" v="locality" />
		<tag k="ssr:stedsnr" v="228384" />
	</node>
	<node lat="66.17899721818894" lon="12.723855546411594" id="-7112">
		<tag k="name" v="Tjyvkoven" />
=======
	<node id="-146826" lat="66.1047583348" lon="12.5300944403">
		<tag k="name" v="Skardet" />
		<tag k="natural" v="valley" />
		<tag k="place" v="locality" />
		<tag k="ssr:stedsnr" v="653357" />
	</node>
	<node id="-146825" lat="66.0975416626" lon="12.5428944527">
		<tag k="name" v="Strandlia" />
		<tag k="natural" v="slope" />
		<tag k="place" v="locality" />
		<tag k="ssr:stedsnr" v="653348" />
	</node>
	<node id="-146821" lat="66.1649111141" lon="12.7001666582">
		<tag k="name" v="Slettskardet" />
>>>>>>> e1d4bc35ff8a6074a6f2e91616a996b547c36f15
		<tag k="natural" v="valley" />
		<tag k="place" v="locality" />
		<tag k="ssr:stedsnr" v="228386" />
	</node>
<<<<<<< HEAD
	<node lat="66.03285278021977" lon="12.354841659474452" id="-7115">
		<tag k="name" v="Stokksteinshågjen" />
		<tag k="natural" v="hill" />
=======
	<node id="-146817" lat="66.1122111138" lon="12.5162416762">
		<tag k="name" v="Åkerdalen" />
		<tag k="natural" v="valley" />
>>>>>>> e1d4bc35ff8a6074a6f2e91616a996b547c36f15
		<tag k="place" v="locality" />
		<tag k="ssr:stedsnr" v="228682" />
	</node>
<<<<<<< HEAD
	<node lat="66.1313277783992" lon="12.516972211390858" id="-7121">
		<tag k="name" v="Skeisaksla" />
		<tag k="natural" v="ridge" />
=======
	<node id="-146814" lat="66.2092527798" lon="12.5675055557">
		<tag k="fixme" v="consider natural=peak for the most distinct mountains in the district" />
		<tag k="name" v="Skrengsåsen" />
		<tag k="natural" v="hill" />
>>>>>>> e1d4bc35ff8a6074a6f2e91616a996b547c36f15
		<tag k="place" v="locality" />
		<tag k="ssr:stedsnr" v="471939" />
	</node>
<<<<<<< HEAD
	<node lat="66.09735555384336" lon="12.419569449864373" id="-7126">
		<tag k="name" v="Skagalandet" />
=======
	<node id="-146808" lat="66.1464861131" lon="12.6959166775">
		<tag k="name" v="Lissbukleiva" />
		<tag k="natural" v="slope" />
>>>>>>> e1d4bc35ff8a6074a6f2e91616a996b547c36f15
		<tag k="place" v="locality" />
		<tag k="ssr:stedsnr" v="258536" />
	</node>
<<<<<<< HEAD
	<node lat="66.15377222586021" lon="12.3862472186222" id="-7134">
=======
	<node id="-146805" lat="66.1562194464" lon="12.7411444535">
>>>>>>> e1d4bc35ff8a6074a6f2e91616a996b547c36f15
		<tag k="fixme" v="consider natural=peak for the most distinct mountains in the district" />
		<tag k="name" v="Grønåsen" />
		<tag k="natural" v="hill" />
		<tag k="place" v="locality" />
<<<<<<< HEAD
		<tag k="ssr:stedsnr" v="288286" />
	</node>
	<node lat="66.14689166938713" lon="12.399375004335672" id="-7135">
		<tag k="name" v="Fjøshågjen" />
		<tag k="natural" v="hill" />
		<tag k="place" v="locality" />
		<tag k="ssr:stedsnr" v="288290" />
	</node>
	<node lat="66.08756389260672" lon="12.592313882775278" id="-7137">
		<tag k="name" v="Karihågjen" />
=======
		<tag k="ssr:stedsnr" v="652188" />
	</node>
	<node id="-146804" lat="66.1485333363" lon="12.7861944416">
		<tag k="name" v="Kleppen" />
		<tag k="natural" v="ridge" />
		<tag k="place" v="locality" />
		<tag k="ssr:stedsnr" v="652177" />
	</node>
	<node id="-146802" lat="66.0822805567" lon="12.5814611062">
		<tag k="name" v="Stihågjen" />
		<tag k="natural" v="hill" />
		<tag k="place" v="locality" />
		<tag k="ssr:stedsnr" v="652370" />
	</node>
	<node id="-146799" lat="66.0993916667" lon="12.5854083357">
		<tag k="name" v="Bulienden" />
		<tag k="natural" v="slope" />
		<tag k="place" v="locality" />
		<tag k="ssr:stedsnr" v="651339" />
	</node>
	<node id="-146796" lat="66.1338083374" lon="12.6178444345">
		<tag k="name" v="Bufjellet" />
>>>>>>> e1d4bc35ff8a6074a6f2e91616a996b547c36f15
		<tag k="natural" v="hill" />
		<tag k="place" v="locality" />
		<tag k="ssr:stedsnr" v="288437" />
	</node>
<<<<<<< HEAD
	<node lat="66.11786944282105" lon="12.601938898882919" id="-7141">
		<tag k="fixme" v="consider natural=peak for the most distinct mountains in the district" />
		<tag k="name" v="Kalkammen" />
=======
	<node id="-146794" lat="66.0504156792" lon="12.4493659951">
		<tag k="fixme" v="consider natural=peak for the most distinct mountains in the district" />
		<tag k="loc_name" v="Litjtinden" />
		<tag k="name" v="Hestadtinden" />
		<tag k="natural" v="hill" />
		<tag k="place" v="locality" />
		<tag k="ssr:stedsnr" v="622977" />
	</node>
	<node id="-146789" lat="66.0918555554" lon="12.6353861088">
		<tag k="name" v="Engesvikhammaren" />
>>>>>>> e1d4bc35ff8a6074a6f2e91616a996b547c36f15
		<tag k="natural" v="hill" />
		<tag k="place" v="locality" />
		<tag k="ssr:stedsnr" v="289310" />
	</node>
<<<<<<< HEAD
	<node lat="66.11258611114533" lon="12.585852783061434" id="-7142">
		<tag k="name" v="Teibærhågjen" />
=======
	<node id="-146774" lat="66.0999999981" lon="12.4512166615">
		<tag k="name" v="Nubben" />
>>>>>>> e1d4bc35ff8a6074a6f2e91616a996b547c36f15
		<tag k="natural" v="hill" />
		<tag k="place" v="locality" />
		<tag k="ssr:stedsnr" v="289314" />
	</node>
<<<<<<< HEAD
	<node lat="66.11099722433636" lon="12.5964888890981" id="-7143">
		<tag k="name" v="Sommerfjøshågjen" />
=======
	<node id="-146751" lat="66.0347111151" lon="12.3395388992">
		<tag k="fixme" v="consider natural=peak for the most distinct mountains in the district" />
		<tag k="name" v="Karipynten" />
>>>>>>> e1d4bc35ff8a6074a6f2e91616a996b547c36f15
		<tag k="natural" v="hill" />
		<tag k="place" v="locality" />
		<tag k="ssr:stedsnr" v="289336" />
	</node>
<<<<<<< HEAD
	<node lat="66.17608889062606" lon="12.594302771256377" id="-7147">
=======
	<node id="-146750" lat="66.0589361155" lon="12.5173222209">
>>>>>>> e1d4bc35ff8a6074a6f2e91616a996b547c36f15
		<tag k="fixme" v="consider natural=peak for the most distinct mountains in the district" />
		<tag k="name" v="Åkeråsen" />
		<tag k="natural" v="hill" />
		<tag k="place" v="locality" />
<<<<<<< HEAD
		<tag k="ssr:stedsnr" v="289379" />
	</node>
	<node lat="66.05428055734654" lon="12.455183341403842" id="-7148">
		<tag k="name" v="Hestlibotnet" />
=======
		<tag k="ssr:stedsnr" v="592636" />
	</node>
	<node id="-146748" lat="66.0388749988" lon="12.3336805641">
		<tag k="name" v="Trongstrupen" />
		<tag k="natural" v="valley" />
		<tag k="place" v="locality" />
		<tag k="ssr:stedsnr" v="592616" />
	</node>
	<node id="-146747" lat="66.0492888863" lon="12.5710805462">
		<tag k="name" v="Merradalen" />
>>>>>>> e1d4bc35ff8a6074a6f2e91616a996b547c36f15
		<tag k="natural" v="valley" />
		<tag k="place" v="locality" />
		<tag k="ssr:stedsnr" v="289380" />
	</node>
<<<<<<< HEAD
	<node lat="66.04034166898798" lon="12.518938884277214" id="-7149">
		<tag k="name" v="Gjertrudhågjen" />
=======
	<node id="-146746" lat="66.1215638895" lon="12.6241777691">
		<tag k="name" v="Gognstøhågjen" />
>>>>>>> e1d4bc35ff8a6074a6f2e91616a996b547c36f15
		<tag k="natural" v="hill" />
		<tag k="place" v="locality" />
		<tag k="ssr:stedsnr" v="289591" />
	</node>
<<<<<<< HEAD
	<node lat="66.03060277541209" lon="12.319369450058925" id="-7152">
		<tag k="name" v="Masternakkan" />
=======
	<node id="-146744" lat="66.1215555576" lon="12.5953194489">
		<tag k="name" v="Vassneshågan" />
>>>>>>> e1d4bc35ff8a6074a6f2e91616a996b547c36f15
		<tag k="natural" v="hill" />
		<tag k="place" v="locality" />
		<tag k="ssr:stedsnr" v="289776" />
	</node>
<<<<<<< HEAD
	<node lat="66.15097221980776" lon="12.729324993732956" id="-7154">
		<tag k="name" v="Botnhågjen" />
		<tag k="natural" v="ridge" />
=======
	<node id="-146743" lat="66.0407111113" lon="12.4660944423">
		<tag k="name" v="Brennvikhågjen" />
		<tag k="natural" v="hill" />
>>>>>>> e1d4bc35ff8a6074a6f2e91616a996b547c36f15
		<tag k="place" v="locality" />
		<tag k="ssr:stedsnr" v="289906" />
	</node>
<<<<<<< HEAD
	<node lat="66.13873610781238" lon="12.361258342514201" id="-7156">
		<tag k="name" v="Arskardhågjen" />
=======
	<node id="-146741" lat="66.1036499961" lon="12.5655305483">
		<tag k="name" v="Rismohågjen" />
>>>>>>> e1d4bc35ff8a6074a6f2e91616a996b547c36f15
		<tag k="natural" v="ridge" />
		<tag k="place" v="locality" />
		<tag k="ssr:stedsnr" v="289927" />
	</node>
<<<<<<< HEAD
	<node lat="66.1015298760398" lon="12.631621439921124" id="-7177">
		<tag k="name" v="Bjørnsmarka" />
=======
	<node id="-146740" lat="66.2531138906" lon="12.7508444552">
		<tag k="name" v="Liss-Skardhågjen" />
>>>>>>> e1d4bc35ff8a6074a6f2e91616a996b547c36f15
		<tag k="natural" v="hill" />
		<tag k="place" v="locality" />
		<tag k="ssr:stedsnr" v="469344" />
	</node>
<<<<<<< HEAD
	<node lat="66.1742722215999" lon="12.562588879638852" id="-7178">
=======
	<node id="-146739" lat="66.1636666626" lon="12.7164416654">
>>>>>>> e1d4bc35ff8a6074a6f2e91616a996b547c36f15
		<tag k="fixme" v="consider natural=peak for the most distinct mountains in the district" />
		<tag k="name" v="Bøåsen" />
		<tag k="natural" v="hill" />
		<tag k="place" v="locality" />
		<tag k="ssr:stedsnr" v="471426" />
	</node>
<<<<<<< HEAD
	<node lat="66.05444721861454" lon="12.436791669415456" id="-7180">
=======
	<node id="-146738" lat="66.1657305537" lon="12.6906194361">
>>>>>>> e1d4bc35ff8a6074a6f2e91616a996b547c36f15
		<tag k="fixme" v="consider natural=peak for the most distinct mountains in the district" />
		<tag k="name" v="Lisstinden" />
		<tag k="natural" v="hill" />
		<tag k="place" v="locality" />
		<tag k="ssr:stedsnr" v="471435" />
	</node>
<<<<<<< HEAD
	<node lat="66.16628055893716" lon="12.386238890211173" id="-7184">
		<tag k="name" v="Nordneshågjen" />
=======
	<node id="-146733" lat="66.1089027744" lon="12.461411116">
		<tag k="name" v="Storhågjen" />
>>>>>>> e1d4bc35ff8a6074a6f2e91616a996b547c36f15
		<tag k="natural" v="hill" />
		<tag k="place" v="locality" />
		<tag k="ssr:stedsnr" v="470440" />
	</node>
<<<<<<< HEAD
	<node lat="66.20247500328544" lon="12.597266667205174" id="-7187">
		<tag k="name" v="Leitebakken" />
		<tag k="natural" v="ridge" />
=======
	<node id="-146732" lat="66.1061055562" lon="12.4669583439">
		<tag k="name" v="Vardhågjen" />
		<tag k="natural" v="hill" />
>>>>>>> e1d4bc35ff8a6074a6f2e91616a996b547c36f15
		<tag k="place" v="locality" />
		<tag k="ssr:stedsnr" v="470633" />
	</node>
<<<<<<< HEAD
	<node lat="66.07743888627185" lon="12.34612222745191" id="-7192">
		<tag k="name" v="Storhågjen" />
=======
	<node id="-146730" lat="66.1883611145" lon="12.6272833323">
		<tag k="fixme" v="consider natural=peak for the most distinct mountains in the district" />
		<tag k="name" v="Vardåsen" />
>>>>>>> e1d4bc35ff8a6074a6f2e91616a996b547c36f15
		<tag k="natural" v="hill" />
		<tag k="place" v="locality" />
		<tag k="ssr:stedsnr" v="471293" />
	</node>
<<<<<<< HEAD
	<node lat="66.16309444555748" lon="12.71184166859018" id="-7193">
		<tag k="fixme" v="consider natural=peak for the most distinct mountains in the district" />
		<tag k="name" v="Liss-Kalsåsen" />
=======
	<node id="-146726" lat="66.0774277732" lon="12.5679527849">
		<tag k="name" v="Dalafjellet" />
>>>>>>> e1d4bc35ff8a6074a6f2e91616a996b547c36f15
		<tag k="natural" v="hill" />
		<tag k="place" v="locality" />
		<tag k="ssr:stedsnr" v="471349" />
	</node>
<<<<<<< HEAD
	<node lat="66.10282499759707" lon="12.527049993712218" id="-7195">
		<tag k="fixme" v="consider natural=peak for the most distinct mountains in the district" />
		<tag k="name" v="Gyltåsen" />
=======
	<node id="-146722" lat="66.1782111153" lon="12.4971027723">
		<tag k="name" v="Sørhågjen" />
>>>>>>> e1d4bc35ff8a6074a6f2e91616a996b547c36f15
		<tag k="natural" v="hill" />
		<tag k="place" v="locality" />
		<tag k="ssr:stedsnr" v="471357" />
	</node>
<<<<<<< HEAD
	<node lat="66.0693944444977" lon="12.535850007763825" id="-7196">
		<tag k="name" v="Liss-smogjet" />
		<tag k="natural" v="valley" />
=======
	<node id="-146720" lat="66.1492611111" lon="12.3930111059">
		<tag k="name" v="Hushågjen" />
		<tag k="natural" v="hill" />
>>>>>>> e1d4bc35ff8a6074a6f2e91616a996b547c36f15
		<tag k="place" v="locality" />
		<tag k="ssr:stedsnr" v="471385" />
	</node>
<<<<<<< HEAD
	<node lat="66.04231666798209" lon="12.36824444422177" id="-7197">
		<tag k="name" v="Rundten" />
		<tag k="natural" v="ridge" />
=======
	<node id="-146713" lat="66.1474666682" lon="12.699752785">
		<tag k="name" v="Storbukleiva" />
		<tag k="natural" v="slope" />
>>>>>>> e1d4bc35ff8a6074a6f2e91616a996b547c36f15
		<tag k="place" v="locality" />
		<tag k="ssr:stedsnr" v="471584" />
	</node>
<<<<<<< HEAD
	<node lat="66.13361389046061" lon="12.52275276781258" id="-7204">
		<tag k="name" v="Skeiskroken" />
=======
	<node id="-146712" lat="66.1554361134" lon="12.7183111153">
		<tag k="name" v="Breivikskardet" />
>>>>>>> e1d4bc35ff8a6074a6f2e91616a996b547c36f15
		<tag k="natural" v="valley" />
		<tag k="place" v="locality" />
		<tag k="ssr:stedsnr" v="471889" />
	</node>
<<<<<<< HEAD
	<node lat="66.12318055439204" lon="12.495244446546078" id="-7205">
		<tag k="name" v="Bersnøva" />
		<tag k="natural" v="ridge" />
=======
	<node id="-146706" lat="66.0340361158" lon="12.3404666583">
		<tag k="name" v="Skinnbrokskardet" />
		<tag k="natural" v="valley" />
>>>>>>> e1d4bc35ff8a6074a6f2e91616a996b547c36f15
		<tag k="place" v="locality" />
		<tag k="ssr:stedsnr" v="471893" />
	</node>
<<<<<<< HEAD
	<node lat="66.15503055920354" lon="12.74761388022012" id="-7206">
=======
	<node id="-146697" lat="66.1431305577" lon="12.3823944451">
>>>>>>> e1d4bc35ff8a6074a6f2e91616a996b547c36f15
		<tag k="fixme" v="consider natural=peak for the most distinct mountains in the district" />
		<tag k="name" v="Tverråsen" />
		<tag k="natural" v="hill" />
		<tag k="place" v="locality" />
		<tag k="ssr:stedsnr" v="471853" />
	</node>
<<<<<<< HEAD
	<node lat="66.18162778122431" lon="12.497116672992549" id="-7208">
		<tag k="fixme" v="consider natural=peak for the most distinct mountains in the district" />
		<tag k="name" v="Titternesåsen" />
		<tag k="natural" v="hill" />
=======
	<node id="-146677" lat="66.0379611112" lon="12.5440833422">
		<tag k="name" v="Nordkløvo" />
		<tag k="natural" v="valley" />
>>>>>>> e1d4bc35ff8a6074a6f2e91616a996b547c36f15
		<tag k="place" v="locality" />
		<tag k="ssr:stedsnr" v="348402" />
	</node>
<<<<<<< HEAD
	<node lat="66.18808333097888" lon="12.593097232621735" id="-7209">
		<tag k="name" v="Åkvikfloget" />
		<tag k="natural" v="cliff" />
		<tag k="ssr:stedsnr" v="348657" />
	</node>
	<node lat="66.10717777916963" lon="12.511669438770172" id="-7210">
=======
	<node id="-146675" lat="66.0407638845" lon="12.5228305545">
		<tag k="name" v="Helliggato" />
		<tag k="place" v="locality" />
		<tag k="ssr:stedsnr" v="532521" />
	</node>
	<node id="-146672" lat="66.0371333372" lon="12.4320111088">
		<tag k="name" v="Høgkleiva" />
		<tag k="natural" v="ridge" />
		<tag k="place" v="locality" />
		<tag k="ssr:stedsnr" v="532507" />
	</node>
	<node id="-146671" lat="66.0523583293" lon="12.4991638794">
		<tag k="name" v="Remman" />
		<tag k="natural" v="slope" />
		<tag k="place" v="locality" />
		<tag k="ssr:stedsnr" v="532502" />
	</node>
	<node id="-146664" lat="66.1639200233" lon="12.6928853031">
>>>>>>> e1d4bc35ff8a6074a6f2e91616a996b547c36f15
		<tag k="fixme" v="consider natural=peak for the most distinct mountains in the district" />
		<tag k="name" v="Langåsen" />
		<tag k="natural" v="hill" />
		<tag k="place" v="locality" />
<<<<<<< HEAD
		<tag k="ssr:stedsnr" v="349103" />
	</node>
	<node lat="66.09821111468031" lon="12.571508341026385" id="-7212">
		<tag k="name" v="Vester-Bjørnsfjellet" />
		<tag k="natural" v="cliff" />
		<tag k="ssr:stedsnr" v="349410" />
	</node>
	<node lat="66.10998610908399" lon="12.527586118924914" id="-7214">
=======
		<tag k="ssr:stedsnr" v="532327" />
	</node>
	<node id="-146662" lat="66.1203666697" lon="12.5720249894">
		<tag k="name" v="Vågsfjellet" />
		<tag k="natural" v="cliff" />
		<tag k="ssr:stedsnr" v="531949" />
	</node>
	<node id="-146661" lat="66.14296667" lon="12.7589361152">
		<tag k="name" v="Urdslia" />
		<tag k="natural" v="slope" />
		<tag k="place" v="locality" />
		<tag k="ssr:stedsnr" v="531924" />
	</node>
	<node id="-146659" lat="66.0910611071" lon="12.5964916576">
		<tag k="name" v="Dugmursfjellet" />
		<tag k="natural" v="cliff" />
		<tag k="ssr:stedsnr" v="531465" />
	</node>
	<node id="-146656" lat="66.1665527747" lon="12.3385638898">
		<tag k="name" v="Nonshågjen" />
		<tag k="natural" v="hill" />
		<tag k="place" v="locality" />
		<tag k="ssr:stedsnr" v="531707" />
	</node>
	<node id="-146655" lat="66.0902777749" lon="12.4107083362">
>>>>>>> e1d4bc35ff8a6074a6f2e91616a996b547c36f15
		<tag k="fixme" v="consider natural=peak for the most distinct mountains in the district" />
		<tag k="name" v="Brattåsen" />
		<tag k="natural" v="hill" />
		<tag k="place" v="locality" />
		<tag k="ssr:stedsnr" v="349421" />
	</node>
<<<<<<< HEAD
	<node lat="66.08830000316459" lon="12.475552767468734" id="-7217">
		<tag k="name" v="Lian" />
		<tag k="natural" v="slope" />
=======
	<node id="-146653" lat="66.0905694421" lon="12.4257527885">
		<tag k="fixme" v="consider natural=peak for the most distinct mountains in the district" />
		<tag k="name" v="Bergåsen" />
		<tag k="natural" v="hill" />
>>>>>>> e1d4bc35ff8a6074a6f2e91616a996b547c36f15
		<tag k="place" v="locality" />
		<tag k="ssr:stedsnr" v="349303" />
	</node>
<<<<<<< HEAD
	<node lat="66.09531944301794" lon="12.471588895132575" id="-7218">
		<tag k="name" v="Høglia" />
=======
	<node id="-146652" lat="66.0912138916" lon="12.4924666684">
		<tag k="name" v="Meiskelikleppen" />
>>>>>>> e1d4bc35ff8a6074a6f2e91616a996b547c36f15
		<tag k="natural" v="ridge" />
		<tag k="place" v="locality" />
		<tag k="ssr:stedsnr" v="349310" />
	</node>
<<<<<<< HEAD
	<node lat="66.0921972234912" lon="12.379280545197531" id="-7219">
		<tag k="fixme" v="consider natural=peak for the most distinct mountains in the district" />
		<tag k="name" v="Langåsen" />
		<tag k="natural" v="hill" />
		<tag k="place" v="locality" />
		<tag k="ssr:stedsnr" v="349362" />
	</node>
	<node lat="66.03109999790675" lon="12.359091671642355" id="-7222">
		<tag k="name" v="Trongskardet" />
		<tag k="natural" v="valley" />
=======
	<node id="-146647" lat="66.1028361106" lon="12.451508323">
		<tag k="fixme" v="consider natural=peak for the most distinct mountains in the district" />
		<tag k="name" v="Bjørnåsen" />
		<tag k="natural" v="hill" />
		<tag k="place" v="locality" />
		<tag k="ssr:stedsnr" v="531077" />
	</node>
	<node id="-146646" lat="66.1004583317" lon="12.5032333365">
		<tag k="name" v="Fjøshågjen" />
		<tag k="natural" v="hill" />
		<tag k="place" v="locality" />
		<tag k="ssr:stedsnr" v="531076" />
	</node>
	<node id="-146644" lat="66.1528166637" lon="12.7759527744">
		<tag k="name" v="Buskardmoen" />
		<tag k="place" v="locality" />
		<tag k="ssr:stedsnr" v="531231" />
	</node>
	<node id="-146641" lat="66.158336114" lon="12.7326166712">
		<tag k="name" v="Linvikhågjen" />
		<tag k="natural" v="hill" />
		<tag k="place" v="locality" />
		<tag k="ssr:stedsnr" v="531216" />
	</node>
	<node id="-146639" lat="66.2100277748" lon="12.5924166707">
		<tag k="name" v="Grønnli" />
		<tag k="natural" v="slope" />
		<tag k="place" v="locality" />
		<tag k="ssr:stedsnr" v="530730" />
	</node>
	<node id="-146637" lat="66.1846222232" lon="12.6255916657">
		<tag k="name" v="Hella" />
>>>>>>> e1d4bc35ff8a6074a6f2e91616a996b547c36f15
		<tag k="place" v="locality" />
		<tag k="ssr:stedsnr" v="349732" />
	</node>
<<<<<<< HEAD
	<node lat="66.06467500178616" lon="12.541119453190529" id="-7224">
		<tag k="name" v="Dalan" />
=======
	<node id="-146632" lat="66.1613888877" lon="12.6948333277">
		<tag k="name" v="Sjyskardet" />
>>>>>>> e1d4bc35ff8a6074a6f2e91616a996b547c36f15
		<tag k="natural" v="valley" />
		<tag k="place" v="locality" />
		<tag k="ssr:stedsnr" v="350557" />
	</node>
<<<<<<< HEAD
	<node lat="66.04170833026329" lon="12.430566659344851" id="-7225">
		<tag k="name" v="Hestdalsflogjet" />
		<tag k="natural" v="cliff" />
		<tag k="ssr:stedsnr" v="350565" />
	</node>
	<node lat="66.09530833480588" lon="12.382958323361423" id="-7231">
		<tag k="name" v="Klubben" />
=======
	<node id="-146628" lat="66.1329194413" lon="12.6135277691">
		<tag k="name" v="Gjesfjordkleppen" />
>>>>>>> e1d4bc35ff8a6074a6f2e91616a996b547c36f15
		<tag k="natural" v="hill" />
		<tag k="place" v="locality" />
		<tag k="ssr:stedsnr" v="379517" />
	</node>
<<<<<<< HEAD
	<node lat="66.13325277473835" lon="12.614686115347366" id="-7232">
		<tag k="name" v="Kolbeinhaugen" />
=======
	<node id="-146627" lat="66.0296694482" lon="12.5290027712">
		<tag k="name" v="Bershågjen" />
>>>>>>> e1d4bc35ff8a6074a6f2e91616a996b547c36f15
		<tag k="natural" v="hill" />
		<tag k="place" v="locality" />
		<tag k="ssr:stedsnr" v="379479" />
	</node>
<<<<<<< HEAD
	<node lat="66.04082777365555" lon="12.332994435616452" id="-7244">
		<tag k="name" v="Grønndalslægda" />
=======
	<node id="-146618" lat="66.1434972238" lon="12.750400004">
		<tag k="name" v="Laupbakkan" />
		<tag k="natural" v="slope" />
>>>>>>> e1d4bc35ff8a6074a6f2e91616a996b547c36f15
		<tag k="place" v="locality" />
		<tag k="ssr:stedsnr" v="410588" />
	</node>
<<<<<<< HEAD
	<node lat="66.04331944011065" lon="12.363069452939603" id="-7246">
		<tag k="name" v="Kamman" />
		<tag k="natural" v="ridge" />
=======
	<node id="-146614" lat="66.1504694418" lon="12.7373749965">
		<tag k="fixme" v="consider natural=peak for the most distinct mountains in the district" />
		<tag k="name" v="Grindåsen" />
		<tag k="natural" v="hill" />
>>>>>>> e1d4bc35ff8a6074a6f2e91616a996b547c36f15
		<tag k="place" v="locality" />
		<tag k="ssr:stedsnr" v="410592" />
	</node>
<<<<<<< HEAD
	<node lat="66.22525833065876" lon="12.585316660513998" id="-7249">
=======
	<node id="-146613" lat="66.2252583307" lon="12.5853166605">
>>>>>>> e1d4bc35ff8a6074a6f2e91616a996b547c36f15
		<tag k="fixme" v="consider natural=peak for the most distinct mountains in the district" />
		<tag k="name" v="Heia" />
		<tag k="natural" v="hill" />
		<tag k="place" v="locality" />
		<tag k="ssr:stedsnr" v="410752" />
	</node>
<<<<<<< HEAD
	<node lat="66.03919722030224" lon="12.40827500105975" id="-7250">
		<tag k="name" v="Storlia" />
		<tag k="natural" v="slope" />
		<tag k="place" v="locality" />
		<tag k="ssr:stedsnr" v="410615" />
	</node>
	<node lat="66.03304166877739" lon="12.331391670261906" id="-7251">
=======
	<node id="-146608" lat="66.0330416688" lon="12.3313916703">
>>>>>>> e1d4bc35ff8a6074a6f2e91616a996b547c36f15
		<tag k="name" v="Nordmarka" />
		<tag k="natural" v="slope" />
		<tag k="place" v="locality" />
		<tag k="ssr:stedsnr" v="410641" />
	</node>
<<<<<<< HEAD
	<node lat="66.15046944184321" lon="12.737374996488509" id="-7252">
		<tag k="fixme" v="consider natural=peak for the most distinct mountains in the district" />
		<tag k="name" v="Grindåsen" />
		<tag k="natural" v="hill" />
=======
	<node id="-146605" lat="66.0914861117" lon="12.6130611159">
		<tag k="name" v="Sirigrøvo" />
>>>>>>> e1d4bc35ff8a6074a6f2e91616a996b547c36f15
		<tag k="place" v="locality" />
		<tag k="ssr:stedsnr" v="410855" />
	</node>
<<<<<<< HEAD
	<node lat="66.17038055587567" lon="12.569677785832521" id="-7254">
		<tag k="name" v="Tjønnberget" />
		<tag k="natural" v="ridge" />
=======
	<node id="-146604" lat="66.0928833288" lon="12.5840472295">
		<tag k="name" v="Grønlihågjen" />
		<tag k="natural" v="hill" />
>>>>>>> e1d4bc35ff8a6074a6f2e91616a996b547c36f15
		<tag k="place" v="locality" />
		<tag k="ssr:stedsnr" v="411403" />
	</node>
<<<<<<< HEAD
	<node lat="66.09042499990142" lon="12.40035000549329" id="-7259">
		<tag k="name" v="Vedhatten" />
=======
	<node id="-146603" lat="66.1810083305" lon="12.5086277835">
		<tag k="fixme" v="consider natural=peak for the most distinct mountains in the district" />
		<tag k="name" v="Brekkåsen" />
>>>>>>> e1d4bc35ff8a6074a6f2e91616a996b547c36f15
		<tag k="natural" v="hill" />
		<tag k="place" v="locality" />
		<tag k="ssr:stedsnr" v="440542" />
	</node>
<<<<<<< HEAD
	<node lat="66.10300833280706" lon="12.443163897596884" id="-7277">
		<tag k="name" v="Bærholtan" />
=======
	<node id="-146602" lat="66.179652778" lon="12.5362999946">
		<tag k="name" v="Steinsengen" />
>>>>>>> e1d4bc35ff8a6074a6f2e91616a996b547c36f15
		<tag k="natural" v="slope" />
		<tag k="place" v="locality" />
		<tag k="ssr:stedsnr" v="463863" />
	</node>
<<<<<<< HEAD
	<node lat="66.15706666445986" lon="12.72240276775459" id="-7279">
		<tag k="name" v="Tronga" />
		<tag k="natural" v="valley" />
		<tag k="place" v="locality" />
		<tag k="ssr:stedsnr" v="470215" />
	</node>
	<node lat="66.15736110683129" lon="12.717405559175177" id="-7280">
=======
	<node id="-146600" lat="66.0594916698" lon="12.4640999928">
		<tag k="name" v="Tindbotnet" />
		<tag k="natural" v="valley" />
		<tag k="place" v="locality" />
		<tag k="ssr:stedsnr" v="410385" />
	</node>
	<node id="-146594" lat="66.1548666707" lon="12.7840249907">
		<tag k="name" v="Nonshågjen" />
		<tag k="natural" v="hill" />
		<tag k="place" v="locality" />
		<tag k="ssr:stedsnr" v="410226" />
	</node>
	<node id="-146592" lat="66.0987583371" lon="12.4612722307">
>>>>>>> e1d4bc35ff8a6074a6f2e91616a996b547c36f15
		<tag k="fixme" v="consider natural=peak for the most distinct mountains in the district" />
		<tag k="name" v="Durmålstuvo" />
		<tag k="natural" v="hill" />
		<tag k="place" v="locality" />
		<tag k="ssr:stedsnr" v="470218" />
	</node>
<<<<<<< HEAD
	<node lat="66.09294999680834" lon="12.593394437648728" id="-7284">
		<tag k="name" v="Kløfthågjen" />
		<tag k="natural" v="hill" />
=======
	<node id="-146591" lat="66.0391972203" lon="12.4082750011">
		<tag k="name" v="Storlia" />
		<tag k="natural" v="slope" />
>>>>>>> e1d4bc35ff8a6074a6f2e91616a996b547c36f15
		<tag k="place" v="locality" />
		<tag k="ssr:stedsnr" v="470419" />
	</node>
<<<<<<< HEAD
	<node lat="66.09100833553764" lon="12.633297224197866" id="-7285">
		<tag k="name" v="Medtihågjen" />
		<tag k="natural" v="hill" />
=======
	<node id="-146590" lat="66.0433194401" lon="12.3630694529">
		<tag k="name" v="Kamman" />
		<tag k="natural" v="ridge" />
>>>>>>> e1d4bc35ff8a6074a6f2e91616a996b547c36f15
		<tag k="place" v="locality" />
		<tag k="ssr:stedsnr" v="470424" />
	</node>
<<<<<<< HEAD
	<node lat="66.091794440666" lon="12.62308888950884" id="-7286">
		<tag k="name" v="Høgna" />
		<tag k="natural" v="slope" />
=======
	<node id="-146588" lat="66.0408277737" lon="12.3329944356">
		<tag k="name" v="Grønndalslægda" />
>>>>>>> e1d4bc35ff8a6074a6f2e91616a996b547c36f15
		<tag k="place" v="locality" />
		<tag k="ssr:stedsnr" v="470428" />
	</node>
<<<<<<< HEAD
	<node lat="66.06441110802295" lon="12.494999995469106" id="-7292">
		<tag k="name" v="Biradalen" />
		<tag k="natural" v="valley" />
=======
	<node id="-146587" lat="66.0384499978" lon="12.3129833381">
		<tag k="name" v="Homannshågjen" />
		<tag k="natural" v="ridge" />
>>>>>>> e1d4bc35ff8a6074a6f2e91616a996b547c36f15
		<tag k="place" v="locality" />
		<tag k="ssr:stedsnr" v="471372" />
	</node>
<<<<<<< HEAD
	<node lat="66.03028889126223" lon="12.52883055504621" id="-7298">
		<tag k="name" v="Nordli" />
=======
	<node id="-146585" lat="66.0851138921" lon="12.5812805654">
		<tag k="name" v="Småskogan" />
>>>>>>> e1d4bc35ff8a6074a6f2e91616a996b547c36f15
		<tag k="natural" v="slope" />
		<tag k="place" v="locality" />
		<tag k="ssr:stedsnr" v="471761" />
	</node>
<<<<<<< HEAD
	<node lat="66.20908055456474" lon="12.598977777573722" id="-7304">
		<tag k="fixme" v="consider natural=peak for the most distinct mountains in the district" />
		<tag k="name" v="Tomåsen" />
=======
	<node id="-146581" lat="66.0856527745" lon="12.5393888901">
		<tag k="fixme" v="consider natural=peak for the most distinct mountains in the district" />
		<tag k="name" v="Laukliåsen" />
		<tag k="natural" v="hill" />
		<tag k="place" v="locality" />
		<tag k="ssr:stedsnr" v="408523" />
	</node>
	<node id="-146580" lat="66.0980861085" lon="12.5860611114">
		<tag k="name" v="Trollhågjen" />
>>>>>>> e1d4bc35ff8a6074a6f2e91616a996b547c36f15
		<tag k="natural" v="hill" />
		<tag k="place" v="locality" />
		<tag k="ssr:stedsnr" v="501606" />
	</node>
<<<<<<< HEAD
	<node lat="66.03652222147296" lon="12.336166672268948" id="-7308">
		<tag k="name" v="Møyskrevet" />
		<tag k="natural" v="valley" />
=======
	<node id="-146562" lat="66.1803333358" lon="12.6856749919">
		<tag k="name" v="Skolpen" />
		<tag k="natural" v="hill" />
>>>>>>> e1d4bc35ff8a6074a6f2e91616a996b547c36f15
		<tag k="place" v="locality" />
		<tag k="ssr:stedsnr" v="501989" />
	</node>
<<<<<<< HEAD
	<node lat="66.03992222075871" lon="12.380591663240155" id="-7310">
=======
	<node id="-146558" lat="66.1084611079" lon="12.6357472295">
>>>>>>> e1d4bc35ff8a6074a6f2e91616a996b547c36f15
		<tag k="fixme" v="consider natural=peak for the most distinct mountains in the district" />
		<tag k="name" v="Litltinden" />
		<tag k="natural" v="hill" />
		<tag k="place" v="locality" />
		<tag k="ssr:stedsnr" v="501994" />
	</node>
<<<<<<< HEAD
	<node lat="66.15374722603278" lon="12.553044451784842" id="-7315">
		<tag k="fixme" v="consider natural=peak for the most distinct mountains in the district" />
		<tag k="name" v="Hopanfjellet" />
=======
	<node id="-146554" lat="66.0953083348" lon="12.3829583234">
		<tag k="name" v="Klubben" />
>>>>>>> e1d4bc35ff8a6074a6f2e91616a996b547c36f15
		<tag k="natural" v="hill" />
		<tag k="place" v="locality" />
		<tag k="ssr:stedsnr" v="682629" />
	</node>
<<<<<<< HEAD
	<node lat="66.16400832938169" lon="12.329230562874962" id="-7316">
		<tag k="alt_name" v="Mershaugen" />
		<tag k="name" v="Mershågjen" />
=======
	<node id="-146549" lat="66.1332527747" lon="12.6146861153">
		<tag k="name" v="Kolbeinhaugen" />
>>>>>>> e1d4bc35ff8a6074a6f2e91616a996b547c36f15
		<tag k="natural" v="hill" />
		<tag k="place" v="locality" />
		<tag k="ssr:stedsnr" v="682634" />
	</node>
<<<<<<< HEAD
	<node lat="66.14867821512132" lon="12.606531158897313" id="-7325">
		<tag k="fixme" v="multiple name tags, choose one and add the other to alt_name; consider natural=peak for the most distinct mountains in the district" />
		<tag k="name" v="Gleinsfjellet;Hågjafjellet" />
=======
	<node id="-146543" lat="66.1458166654" lon="12.7523944505">
		<tag k="fixme" v="consider natural=peak for the most distinct mountains in the district" />
		<tag k="name" v="Sandåkerfjellet" />
>>>>>>> e1d4bc35ff8a6074a6f2e91616a996b547c36f15
		<tag k="natural" v="hill" />
		<tag k="place" v="locality" />
		<tag k="ssr:stedsnr" v="682675" />
	</node>
<<<<<<< HEAD
	<node lat="66.10116666777624" lon="12.581008340306282" id="-7335">
		<tag k="name" v="Forsan" />
		<tag k="natural" v="slope" />
		<tag k="place" v="locality" />
		<tag k="ssr:stedsnr" v="683506" />
	</node>
	<node lat="66.16138888770472" lon="12.694833327719241" id="-7347">
		<tag k="name" v="Sjyskardet" />
=======
	<node id="-146542" lat="66.1497888886" lon="12.7432638812">
		<tag k="name" v="Tysvollen" />
		<tag k="natural" v="slope" />
		<tag k="place" v="locality" />
		<tag k="ssr:stedsnr" v="379187" />
	</node>
	<node id="-146537" lat="66.0417083303" lon="12.4305666593">
		<tag k="name" v="Hestdalsflogjet" />
		<tag k="natural" v="cliff" />
		<tag k="ssr:stedsnr" v="350565" />
	</node>
	<node id="-146536" lat="66.0646750018" lon="12.5411194532">
		<tag k="name" v="Dalan" />
>>>>>>> e1d4bc35ff8a6074a6f2e91616a996b547c36f15
		<tag k="natural" v="valley" />
		<tag k="place" v="locality" />
		<tag k="ssr:stedsnr" v="530303" />
	</node>
<<<<<<< HEAD
	<node lat="66.08861111004286" lon="12.358136105340414" id="-7348">
		<tag k="name" v="Klubben" />
		<tag k="natural" v="hill" />
=======
	<node id="-146527" lat="66.061747223" lon="12.3853888791">
		<tag k="name" v="Kleiva" />
		<tag k="natural" v="ridge" />
>>>>>>> e1d4bc35ff8a6074a6f2e91616a996b547c36f15
		<tag k="place" v="locality" />
		<tag k="ssr:stedsnr" v="530327" />
	</node>
<<<<<<< HEAD
	<node lat="66.2100277747689" lon="12.592416670682551" id="-7349">
		<tag k="name" v="Grønnli" />
=======
	<node id="-146521" lat="66.072205558" lon="12.5531777828">
		<tag k="name" v="Daumannslia" />
>>>>>>> e1d4bc35ff8a6074a6f2e91616a996b547c36f15
		<tag k="natural" v="slope" />
		<tag k="place" v="locality" />
		<tag k="ssr:stedsnr" v="530730" />
	</node>
<<<<<<< HEAD
	<node lat="66.18462222316758" lon="12.625591665692365" id="-7350">
		<tag k="name" v="Hella" />
=======
	<node id="-146520" lat="66.1537833301" lon="12.7274305475">
		<tag k="name" v="Botnan" />
		<tag k="natural" v="valley" />
>>>>>>> e1d4bc35ff8a6074a6f2e91616a996b547c36f15
		<tag k="place" v="locality" />
		<tag k="ssr:stedsnr" v="530690" />
	</node>
<<<<<<< HEAD
	<node lat="66.09056944214836" lon="12.425752788479207" id="-7353">
		<tag k="fixme" v="consider natural=peak for the most distinct mountains in the district" />
		<tag k="name" v="Bergåsen" />
		<tag k="natural" v="hill" />
		<tag k="place" v="locality" />
		<tag k="ssr:stedsnr" v="531315" />
	</node>
	<node lat="66.09027777494916" lon="12.410708336222463" id="-7355">
=======
	<node id="-146519" lat="66.1231305515" lon="12.6168611031">
		<tag k="name" v="Vollhågjen" />
		<tag k="natural" v="hill" />
		<tag k="place" v="locality" />
		<tag k="ssr:stedsnr" v="349583" />
	</node>
	<node id="-146516" lat="66.1140305561" lon="12.638427771">
		<tag k="name" v="Kulia" />
		<tag k="natural" v="slope" />
		<tag k="place" v="locality" />
		<tag k="ssr:stedsnr" v="349392" />
	</node>
	<node id="-146513" lat="66.0921972235" lon="12.3792805452">
>>>>>>> e1d4bc35ff8a6074a6f2e91616a996b547c36f15
		<tag k="fixme" v="consider natural=peak for the most distinct mountains in the district" />
		<tag k="name" v="Forskardåsen" />
		<tag k="natural" v="hill" />
		<tag k="place" v="locality" />
		<tag k="ssr:stedsnr" v="531325" />
	</node>
<<<<<<< HEAD
	<node lat="66.05235832928362" lon="12.49916387936721" id="-7359">
		<tag k="name" v="Remman" />
		<tag k="natural" v="slope" />
=======
	<node id="-146512" lat="66.0944694481" lon="12.5877194522">
		<tag k="name" v="Mølnhushågjen" />
		<tag k="natural" v="ridge" />
>>>>>>> e1d4bc35ff8a6074a6f2e91616a996b547c36f15
		<tag k="place" v="locality" />
		<tag k="ssr:stedsnr" v="532502" />
	</node>
<<<<<<< HEAD
	<node lat="66.03713333717724" lon="12.432011108818035" id="-7360">
		<tag k="name" v="Høgkleiva" />
		<tag k="natural" v="ridge" />
=======
	<node id="-146509" lat="66.1099861091" lon="12.5275861189">
		<tag k="fixme" v="consider natural=peak for the most distinct mountains in the district" />
		<tag k="name" v="Brattåsen" />
		<tag k="natural" v="hill" />
>>>>>>> e1d4bc35ff8a6074a6f2e91616a996b547c36f15
		<tag k="place" v="locality" />
		<tag k="ssr:stedsnr" v="532507" />
	</node>
<<<<<<< HEAD
	<node lat="66.0407638845011" lon="12.522830554515979" id="-7361">
		<tag k="name" v="Helliggato" />
=======
	<node id="-146504" lat="66.1509388902" lon="12.3919277794">
		<tag k="name" v="Lissåsen" />
		<tag k="natural" v="ridge" />
>>>>>>> e1d4bc35ff8a6074a6f2e91616a996b547c36f15
		<tag k="place" v="locality" />
		<tag k="ssr:stedsnr" v="532521" />
	</node>
<<<<<<< HEAD
	<node lat="66.15543611341313" lon="12.71831111530204" id="-7375">
		<tag k="name" v="Breivikskardet" />
		<tag k="natural" v="valley" />
=======
	<node id="-146496" lat="66.0942416678" lon="12.629461116">
		<tag k="fixme" v="multiple name tags, choose one and add the other to alt_name; consider natural=peak for the most distinct mountains in the district" />
		<tag k="name" v="Kjerkmyrhågjen;Stormarka" />
		<tag k="natural" v="hill" />
>>>>>>> e1d4bc35ff8a6074a6f2e91616a996b547c36f15
		<tag k="place" v="locality" />
		<tag k="ssr:stedsnr" v="591208" />
	</node>
<<<<<<< HEAD
	<node lat="66.14746666816194" lon="12.699752784982932" id="-7376">
		<tag k="name" v="Storbukleiva" />
		<tag k="natural" v="slope" />
=======
	<node id="-146494" lat="66.0926194485" lon="12.5563805481">
		<tag k="fixme" v="consider natural=peak for the most distinct mountains in the district" />
		<tag k="name" v="Bjørnsfjellet" />
		<tag k="natural" v="hill" />
>>>>>>> e1d4bc35ff8a6074a6f2e91616a996b547c36f15
		<tag k="place" v="locality" />
		<tag k="ssr:stedsnr" v="591213" />
	</node>
<<<<<<< HEAD
	<node lat="66.18836111453014" lon="12.627283332313478" id="-7382">
=======
	<node id="-146452" lat="66.0729416668" lon="12.4844416587">
		<tag k="alt_name" v="Ramnskardlia" />
>>>>>>> e1d4bc35ff8a6074a6f2e91616a996b547c36f15
		<tag k="fixme" v="consider natural=peak for the most distinct mountains in the district" />
		<tag k="name" v="Vardåsen" />
		<tag k="natural" v="hill" />
		<tag k="place" v="locality" />
		<tag k="ssr:stedsnr" v="591662" />
	</node>
<<<<<<< HEAD
	<node lat="66.06245555156362" lon="12.50870277987004" id="-7387">
		<tag k="name" v="Lifjellet" />
		<tag k="natural" v="cliff" />
		<tag k="ssr:stedsnr" v="592407" />
	</node>
	<node lat="66.10364999612682" lon="12.56553054831804" id="-7388">
		<tag k="name" v="Rismohågjen" />
		<tag k="natural" v="ridge" />
		<tag k="place" v="locality" />
		<tag k="ssr:stedsnr" v="592401" />
	</node>
	<node lat="66.04071111133142" lon="12.466094442298031" id="-7389">
		<tag k="name" v="Brennvikhågjen" />
=======
	<node id="-146445" lat="66.1263055585" lon="12.5272944376">
		<tag k="name" v="Kamman" />
>>>>>>> e1d4bc35ff8a6074a6f2e91616a996b547c36f15
		<tag k="natural" v="hill" />
		<tag k="place" v="locality" />
		<tag k="ssr:stedsnr" v="592555" />
	</node>
<<<<<<< HEAD
	<node lat="66.12155555764282" lon="12.595319448851445" id="-7390">
		<tag k="name" v="Vassneshågan" />
=======
	<node id="-146437" lat="66.212991666" lon="12.5907027816">
		<tag k="fixme" v="consider natural=peak for the most distinct mountains in the district" />
		<tag k="name" v="Medåsen" />
>>>>>>> e1d4bc35ff8a6074a6f2e91616a996b547c36f15
		<tag k="natural" v="hill" />
		<tag k="place" v="locality" />
		<tag k="ssr:stedsnr" v="592563" />
	</node>
<<<<<<< HEAD
	<node lat="66.0347111151094" lon="12.33953889918972" id="-7392">
=======
	<node id="-146424" lat="66.0374138852" lon="12.3335999978">
>>>>>>> e1d4bc35ff8a6074a6f2e91616a996b547c36f15
		<tag k="fixme" v="consider natural=peak for the most distinct mountains in the district" />
		<tag k="name" v="Karipynten" />
		<tag k="natural" v="hill" />
		<tag k="place" v="locality" />
		<tag k="ssr:stedsnr" v="592665" />
	</node>
<<<<<<< HEAD
	<node lat="66.09939166673497" lon="12.585408335658206" id="-7416">
		<tag k="name" v="Bulienden" />
		<tag k="natural" v="slope" />
		<tag k="place" v="locality" />
		<tag k="ssr:stedsnr" v="651339" />
	</node>
	<node lat="66.08396666588976" lon="12.574788883067518" id="-7417">
		<tag k="name" v="Jekta" />
		<tag k="natural" v="ridge" />
=======
	<node id="-146423" lat="66.0639805554" lon="12.5262361212">
		<tag k="name" v="Lomfjellet" />
		<tag k="natural" v="cliff" />
		<tag k="ssr:stedsnr" v="168582" />
	</node>
	<node id="-146419" lat="66.0409611099" lon="12.3533527771">
		<tag k="fixme" v="consider natural=peak for the most distinct mountains in the district" />
		<tag k="name" v="Vargåsen" />
		<tag k="natural" v="hill" />
>>>>>>> e1d4bc35ff8a6074a6f2e91616a996b547c36f15
		<tag k="place" v="locality" />
		<tag k="ssr:stedsnr" v="651496" />
	</node>
<<<<<<< HEAD
	<node lat="66.10981110906592" lon="12.5935750093005" id="-7419">
		<tag k="name" v="Rondushågjen" />
		<tag k="natural" v="hill" />
		<tag k="place" v="locality" />
		<tag k="ssr:stedsnr" v="652296" />
	</node>
	<node lat="66.15621944635087" lon="12.74114445345665" id="-7420">
		<tag k="fixme" v="consider natural=peak for the most distinct mountains in the district" />
		<tag k="name" v="Risåsen" />
=======
	<node id="-146415" lat="66.1659944434" lon="12.5963833245">
		<tag k="name" v="Gleinsfjellet" />
		<tag k="natural" v="cliff" />
		<tag k="ssr:stedsnr" v="168385" />
	</node>
	<node id="-146413" lat="66.1833777808" lon="12.6921555574">
		<tag k="name" v="Ørnklumpen" />
>>>>>>> e1d4bc35ff8a6074a6f2e91616a996b547c36f15
		<tag k="natural" v="hill" />
		<tag k="place" v="locality" />
		<tag k="ssr:stedsnr" v="652188" />
	</node>
<<<<<<< HEAD
	<node lat="66.0605361103364" lon="12.387127768669815" id="-7426">
		<tag k="name" v="Brekkvikja" />
=======
	<node id="-146412" lat="66.0731055578" lon="12.5434805565">
		<tag k="name" v="Smogjan" />
>>>>>>> e1d4bc35ff8a6074a6f2e91616a996b547c36f15
		<tag k="natural" v="valley" />
		<tag k="place" v="locality" />
		<tag k="ssr:stedsnr" v="653408" />
	</node>
<<<<<<< HEAD
	<node lat="66.16825277545288" lon="12.53906666971847" id="-7427">
		<tag k="name" v="Klubben" />
=======
	<node id="-146410" lat="66.1210500012" lon="12.260827778">
		<tag k="name" v="Lamøyhågjen" />
>>>>>>> e1d4bc35ff8a6074a6f2e91616a996b547c36f15
		<tag k="natural" v="hill" />
		<tag k="place" v="locality" />
		<tag k="ssr:stedsnr" v="653411" />
	</node>
<<<<<<< HEAD
	<node lat="66.04363332940198" lon="12.476905549810054" id="-7429">
		<tag k="name" v="Aspdalhumpen" />
		<tag k="natural" v="ridge" />
=======
	<node id="-146408" lat="66.0935361109" lon="12.6100055484">
		<tag k="name" v="Breilandslia" />
		<tag k="natural" v="slope" />
>>>>>>> e1d4bc35ff8a6074a6f2e91616a996b547c36f15
		<tag k="place" v="locality" />
		<tag k="ssr:stedsnr" v="653509" />
	</node>
<<<<<<< HEAD
	<node lat="66.0380916663544" lon="12.43707499054008" id="-7430">
		<tag k="name" v="Mølnhusmoen" />
=======
	<node id="-146406" lat="66.0959611127" lon="12.5840361045">
		<tag k="name" v="Bulimyrhågjen" />
		<tag k="natural" v="ridge" />
>>>>>>> e1d4bc35ff8a6074a6f2e91616a996b547c36f15
		<tag k="place" v="locality" />
		<tag k="ssr:stedsnr" v="653626" />
	</node>
<<<<<<< HEAD
	<node lat="66.07121110813907" lon="12.55521388307557" id="-7443">
		<tag k="fixme" v="consider natural=peak for the most distinct mountains in the district" />
		<tag k="name" v="Dalafjellet" />
		<tag k="natural" v="hill" />
=======
	<node id="-146405" lat="66.1037611098" lon="12.5943888888">
		<tag k="name" v="Bjørneskardet" />
		<tag k="natural" v="valley" />
>>>>>>> e1d4bc35ff8a6074a6f2e91616a996b547c36f15
		<tag k="place" v="locality" />
		<tag k="ssr:stedsnr" v="683952" />
	</node>
<<<<<<< HEAD
	<node lat="66.086736108091" lon="12.551138892476274" id="-7446">
		<tag k="name" v="Vesterfjellet" />
		<tag k="natural" v="cliff" />
		<tag k="ssr:stedsnr" v="894538" />
	</node>
	<node lat="66.08042222665394" lon="12.516924989987396" id="-7447">
		<tag k="name" v="Per-Grekksorslia" />
=======
	<node id="-146404" lat="66.1031055551" lon="12.5876583402">
		<tag k="name" v="Dalsvåghevlan" />
>>>>>>> e1d4bc35ff8a6074a6f2e91616a996b547c36f15
		<tag k="natural" v="slope" />
		<tag k="place" v="locality" />
		<tag k="ssr:stedsnr" v="894543" />
	</node>
<<<<<<< HEAD
	<node lat="66.07551111325009" lon="12.430027772852998" id="-7449">
		<tag k="fixme" v="consider natural=peak for the most distinct mountains in the district" />
		<tag k="name" v="Slåttaråsen" />
=======
	<node id="-146403" lat="66.1093833326" lon="12.6122361008">
		<tag k="name" v="Dalsvågsfjellet" />
>>>>>>> e1d4bc35ff8a6074a6f2e91616a996b547c36f15
		<tag k="natural" v="hill" />
		<tag k="place" v="locality" />
		<tag k="ssr:stedsnr" v="694716" />
	</node>
<<<<<<< HEAD
	<node lat="66.1473027804484" lon="12.714863896673302" id="-7451">
		<tag k="name" v="Tronga" />
		<tag k="natural" v="valley" />
=======
	<node id="-146402" lat="66.0921305548" lon="12.4987611201">
		<tag k="name" v="Meiskelia" />
		<tag k="natural" v="slope" />
>>>>>>> e1d4bc35ff8a6074a6f2e91616a996b547c36f15
		<tag k="place" v="locality" />
		<tag k="ssr:stedsnr" v="895222" />
	</node>
<<<<<<< HEAD
	<node lat="66.17045555764741" lon="12.375847216236796" id="-7457">
		<tag k="name" v="Havsteinfjellet" />
		<tag k="natural" v="cliff" />
		<tag k="ssr:stedsnr" v="895657" />
	</node>
	<node lat="66.10400555898309" lon="12.480044455904657" id="-7458">
=======
	<node id="-146400" lat="66.1088805534" lon="12.5039694478">
		<tag k="name" v="Øver-Dikjeåsen" />
		<tag k="natural" v="ridge" />
		<tag k="place" v="locality" />
		<tag k="ssr:stedsnr" v="167086" />
	</node>
	<node id="-146399" lat="66.0983527793" lon="12.4908249914">
>>>>>>> e1d4bc35ff8a6074a6f2e91616a996b547c36f15
		<tag k="fixme" v="consider natural=peak for the most distinct mountains in the district" />
		<tag k="name" v="Meåsen" />
		<tag k="natural" v="hill" />
		<tag k="place" v="locality" />
		<tag k="ssr:stedsnr" v="896077" />
	</node>
<<<<<<< HEAD
	<node lat="66.1695499998803" lon="12.561983331397395" id="-7460">
		<tag k="name" v="Vardhågjen" />
		<tag k="natural" v="ridge" />
		<tag k="place" v="locality" />
		<tag k="ssr:stedsnr" v="896459" />
	</node>
	<node lat="66.09804444443412" lon="12.553183334218353" id="-7468">
		<tag k="name" v="Hestadskardet" />
=======
	<node id="-146397" lat="66.2031305583" lon="12.567102778">
		<tag k="name" v="Storskardet" />
>>>>>>> e1d4bc35ff8a6074a6f2e91616a996b547c36f15
		<tag k="natural" v="valley" />
		<tag k="place" v="locality" />
		<tag k="ssr:stedsnr" v="896379" />
	</node>
<<<<<<< HEAD
	<node lat="66.16694167005363" lon="12.730500000472487" id="-7469">
		<tag k="name" v="Hammarhågjen" />
=======
	<node id="-146390" lat="66.1465944408" lon="12.7544500052">
		<tag k="fixme" v="consider natural=peak for the most distinct mountains in the district" />
		<tag k="name" v="Løkta" />
>>>>>>> e1d4bc35ff8a6074a6f2e91616a996b547c36f15
		<tag k="natural" v="hill" />
		<tag k="place" v="locality" />
		<tag k="ssr:stedsnr" v="896380" />
	</node>
<<<<<<< HEAD
	<node lat="66.17225277873119" lon="12.72857777725375" id="-7473">
		<tag k="name" v="Mikkelhågjen" />
=======
	<node id="-146380" lat="66.0702194471" lon="12.5233833266">
		<tag k="fixme" v="multiple name tags, choose one and add the other to alt_name; consider natural=peak for the most distinct mountains in the district" />
		<tag k="name" v="Baklifjellet;Lifjellet" />
>>>>>>> e1d4bc35ff8a6074a6f2e91616a996b547c36f15
		<tag k="natural" v="hill" />
		<tag k="place" v="locality" />
		<tag k="ssr:stedsnr" v="896396" />
	</node>
<<<<<<< HEAD
	<node lat="66.05564166588752" lon="12.486091660839591" id="-7476">
		<tag k="name" v="Hestlia" />
		<tag k="natural" v="slope" />
=======
	<node id="-146376" lat="66.2026472255" lon="12.5691777799">
		<tag k="fixme" v="consider natural=peak for the most distinct mountains in the district" />
		<tag k="name" v="Dønnesfjellet" />
		<tag k="natural" v="hill" />
>>>>>>> e1d4bc35ff8a6074a6f2e91616a996b547c36f15
		<tag k="place" v="locality" />
		<tag k="ssr:stedsnr" v="896411" />
	</node>
<<<<<<< HEAD
	<node lat="66.13790833151197" lon="12.306186116071379" id="-7478">
		<tag k="name" v="Trettøybakkan" />
		<tag k="natural" v="slope" />
		<tag k="place" v="locality" />
		<tag k="ssr:stedsnr" v="896928" />
	</node>
	<node lat="66.13056111491879" lon="12.618122232372869" id="-7481">
		<tag k="fixme" v="consider natural=peak for the most distinct mountains in the district" />
		<tag k="name" v="Berfjordkleppen" />
=======
	<node id="-146372" lat="66.170441668" lon="12.3473638901">
		<tag k="name" v="Varhaugen" />
>>>>>>> e1d4bc35ff8a6074a6f2e91616a996b547c36f15
		<tag k="natural" v="hill" />
		<tag k="place" v="locality" />
		<tag k="ssr:stedsnr" v="896585" />
	</node>
<<<<<<< HEAD
	<node lat="66.05416944704479" lon="12.44179445473596" id="-7486">
=======
	<node id="-146371" lat="66.1659249997" lon="12.7079499899">
		<tag k="alt_name" v="Kalvsåsen" />
>>>>>>> e1d4bc35ff8a6074a6f2e91616a996b547c36f15
		<tag k="fixme" v="consider natural=peak for the most distinct mountains in the district" />
		<tag k="name" v="Høgtuven" />
		<tag k="natural" v="hill" />
		<tag k="place" v="locality" />
		<tag k="ssr:stedsnr" v="708213" />
	</node>
<<<<<<< HEAD
	<node lat="66.08618055349713" lon="12.528811113671617" id="-7487">
		<tag k="name" v="Ravnskardslia" />
		<tag k="natural" v="slope" />
=======
	<node id="-146368" lat="66.1070805599" lon="12.5891361081">
		<tag k="name" v="Dalsvågskardet" />
		<tag k="natural" v="valley" />
>>>>>>> e1d4bc35ff8a6074a6f2e91616a996b547c36f15
		<tag k="place" v="locality" />
		<tag k="ssr:stedsnr" v="712477" />
	</node>
<<<<<<< HEAD
	<node lat="66.107819446491" lon="12.49543888036856" id="-7488">
		<tag k="name" v="Ner-Dikjeåsen" />
		<tag k="natural" v="ridge" />
=======
	<node id="-146365" lat="66.1024777792" lon="12.6138249941">
		<tag k="name" v="Breidalen" />
		<tag k="natural" v="valley" />
>>>>>>> e1d4bc35ff8a6074a6f2e91616a996b547c36f15
		<tag k="place" v="locality" />
		<tag k="ssr:stedsnr" v="713087" />
	</node>
<<<<<<< HEAD
	<node lat="66.15234444727838" lon="12.769911110217967" id="-7489">
		<tag k="name" v="Kringelhågjen" />
=======
	<node id="-146362" lat="66.1265138916" lon="12.5115277862">
		<tag k="alt_name" v="Vågsfjellan" />
		<tag k="fixme" v="consider natural=peak for the most distinct mountains in the district" />
		<tag k="name" v="Vikafjellet" />
>>>>>>> e1d4bc35ff8a6074a6f2e91616a996b547c36f15
		<tag k="natural" v="hill" />
		<tag k="place" v="locality" />
		<tag k="ssr:stedsnr" v="713229" />
	</node>
<<<<<<< HEAD
	<node lat="66.14930833419082" lon="12.753461101960422" id="-7491">
		<tag k="name" v="Auskarnasen" />
		<tag k="natural" v="ridge" />
		<tag k="place" v="locality" />
		<tag k="ssr:stedsnr" v="713201" />
	</node>
	<node lat="66.20770833429947" lon="12.583525006642455" id="-7494">
		<tag k="name" v="Sjyskardet" />
=======
	<node id="-146361" lat="66.1167916629" lon="12.5645055523">
		<tag k="alt_name" v="Hildsetskardet" />
		<tag k="name" v="Hilsetskardet" />
>>>>>>> e1d4bc35ff8a6074a6f2e91616a996b547c36f15
		<tag k="natural" v="valley" />
		<tag k="place" v="locality" />
		<tag k="ssr:stedsnr" v="713691" />
	</node>
<<<<<<< HEAD
	<node lat="66.12472499996854" lon="12.622774989221927" id="-7515">
		<tag k="name" v="Klemningshågjen" />
=======
	<node id="-146357" lat="66.0290388891" lon="12.540155561">
		<tag k="name" v="Solhaug" />
>>>>>>> e1d4bc35ff8a6074a6f2e91616a996b547c36f15
		<tag k="natural" v="hill" />
		<tag k="place" v="locality" />
		<tag k="ssr:stedsnr" v="764497" />
	</node>
<<<<<<< HEAD
	<node lat="66.1101305523009" lon="12.552400004708868" id="-7522">
		<tag k="fixme" v="consider natural=peak for the most distinct mountains in the district" />
		<tag k="name" v="Høgnan" />
		<tag k="natural" v="hill" />
=======
	<node id="-146356" lat="66.0376611093" lon="12.5388638798">
		<tag k="name" v="Storkløvo" />
		<tag k="natural" v="valley" />
>>>>>>> e1d4bc35ff8a6074a6f2e91616a996b547c36f15
		<tag k="place" v="locality" />
		<tag k="ssr:stedsnr" v="774411" />
	</node>
<<<<<<< HEAD
	<node lat="66.09517499618414" lon="12.64688333870832" id="-7523">
		<tag k="name" v="Kråkhågjen" />
		<tag k="natural" v="hill" />
=======
	<node id="-146355" lat="66.0292944439" lon="12.3683916671">
		<tag k="name" v="Grinddalen" />
		<tag k="natural" v="valley" />
>>>>>>> e1d4bc35ff8a6074a6f2e91616a996b547c36f15
		<tag k="place" v="locality" />
		<tag k="ssr:stedsnr" v="774505" />
	</node>
<<<<<<< HEAD
	<node lat="66.0876888869561" lon="12.587822232493378" id="-7524">
		<tag k="name" v="Gløsen" />
=======
	<node id="-146353" lat="66.0626833337" lon="12.5534277837">
		<tag k="name" v="Storhågjen" />
		<tag k="natural" v="ridge" />
>>>>>>> e1d4bc35ff8a6074a6f2e91616a996b547c36f15
		<tag k="place" v="locality" />
		<tag k="ssr:stedsnr" v="774511" />
	</node>
<<<<<<< HEAD
	<node lat="66.16776666309872" lon="12.323177783833202" id="-7526">
		<tag k="name" v="Matmorshågjen" />
=======
	<node id="-146349" lat="66.0902611114" lon="12.5834277824">
		<tag k="name" v="Pilten" />
>>>>>>> e1d4bc35ff8a6074a6f2e91616a996b547c36f15
		<tag k="natural" v="ridge" />
		<tag k="place" v="locality" />
		<tag k="ssr:stedsnr" v="774710" />
	</node>
<<<<<<< HEAD
	<node lat="66.16955000260874" lon="12.74816389797627" id="-7531">
		<tag k="name" v="Søndagsvikhågjen" />
=======
	<node id="-146348" lat="66.0630666703" lon="12.3973777679">
		<tag k="fixme" v="consider natural=peak for the most distinct mountains in the district" />
		<tag k="name" v="Gårdsåsen" />
>>>>>>> e1d4bc35ff8a6074a6f2e91616a996b547c36f15
		<tag k="natural" v="hill" />
		<tag k="place" v="locality" />
		<tag k="ssr:stedsnr" v="775307" />
	</node>
<<<<<<< HEAD
	<node lat="66.16403889157834" lon="12.734544451592713" id="-7532">
		<tag k="fixme" v="consider natural=peak for the most distinct mountains in the district" />
		<tag k="name" v="Oldervikåsen" />
		<tag k="natural" v="hill" />
=======
	<node id="-146346" lat="66.1761083303" lon="12.7117805532">
		<tag k="name" v="Staulhågjen" />
		<tag k="natural" v="ridge" />
>>>>>>> e1d4bc35ff8a6074a6f2e91616a996b547c36f15
		<tag k="place" v="locality" />
		<tag k="ssr:stedsnr" v="775321" />
	</node>
<<<<<<< HEAD
	<node lat="66.1665722202866" lon="12.33463611288468" id="-7542">
		<tag k="name" v="Jobonhågjen" />
		<tag k="natural" v="hill" />
=======
	<node id="-146343" lat="66.1037944415" lon="12.5095749955">
		<tag k="name" v="Liss-kleiva" />
		<tag k="natural" v="slope" />
>>>>>>> e1d4bc35ff8a6074a6f2e91616a996b547c36f15
		<tag k="place" v="locality" />
		<tag k="ssr:stedsnr" v="228717" />
	</node>
<<<<<<< HEAD
	<node lat="66.15374999660519" lon="12.775958340609984" id="-7544">
		<tag k="name" v="Staulahågjen" />
=======
	<node id="-146342" lat="66.1690944466" lon="12.7536972235">
		<tag k="fixme" v="consider natural=peak for the most distinct mountains in the district" />
		<tag k="name" v="Brattvikhågjen" />
>>>>>>> e1d4bc35ff8a6074a6f2e91616a996b547c36f15
		<tag k="natural" v="hill" />
		<tag k="place" v="locality" />
		<tag k="ssr:stedsnr" v="835228" />
	</node>
<<<<<<< HEAD
	<node lat="66.06190555112211" lon="12.527836111929071" id="-7545">
=======
	<node id="-146341" lat="66.1136055596" lon="12.566202773">
>>>>>>> e1d4bc35ff8a6074a6f2e91616a996b547c36f15
		<tag k="fixme" v="consider natural=peak for the most distinct mountains in the district" />
		<tag k="name" v="Hatten" />
		<tag k="natural" v="hill" />
		<tag k="place" v="locality" />
		<tag k="ssr:stedsnr" v="835613" />
	</node>
<<<<<<< HEAD
	<node lat="66.0288527739437" lon="12.329686108811048" id="-7549">
		<tag k="name" v="Lunken" />
		<tag k="natural" v="valley" />
=======
	<node id="-146339" lat="66.0803055532" lon="12.3515472212">
		<tag k="name" v="Gjøsjen" />
>>>>>>> e1d4bc35ff8a6074a6f2e91616a996b547c36f15
		<tag k="place" v="locality" />
		<tag k="ssr:stedsnr" v="835730" />
	</node>
<<<<<<< HEAD
	<node lat="66.0271722226263" lon="12.36414166094931" id="-7551">
		<tag k="name" v="Hågjen" />
=======
	<node id="-146338" lat="66.0883944436" lon="12.4264833412">
		<tag k="name" v="Nordhjelmhågjen" />
		<tag k="natural" v="ridge" />
		<tag k="place" v="locality" />
		<tag k="ssr:stedsnr" v="107290" />
	</node>
	<node id="-146337" lat="66.100299998" lon="12.443291662">
		<tag k="fixme" v="consider natural=peak for the most distinct mountains in the district" />
		<tag k="name" v="Hundskiten" />
>>>>>>> e1d4bc35ff8a6074a6f2e91616a996b547c36f15
		<tag k="natural" v="hill" />
		<tag k="place" v="locality" />
		<tag k="ssr:stedsnr" v="835736" />
	</node>
<<<<<<< HEAD
	<node lat="66.12576944779254" lon="12.268330551389989" id="-7555">
		<tag k="name" v="Labakkan" />
=======
	<node id="-146330" lat="66.0828111106" lon="12.5791055551">
		<tag k="name" v="Bakken" />
>>>>>>> e1d4bc35ff8a6074a6f2e91616a996b547c36f15
		<tag k="natural" v="slope" />
		<tag k="place" v="locality" />
		<tag k="ssr:stedsnr" v="835929" />
	</node>
<<<<<<< HEAD
	<node lat="66.15929999963734" lon="12.762008324241117" id="-7578">
		<tag k="alt_name" v="Røytvollan" />
		<tag k="name" v="Reitvollan" />
		<tag k="natural" v="hill" />
=======
	<node id="-146329" lat="66.0947333303" lon="12.5569833295">
		<tag k="name" v="Holandslia" />
		<tag k="natural" v="slope" />
>>>>>>> e1d4bc35ff8a6074a6f2e91616a996b547c36f15
		<tag k="place" v="locality" />
		<tag k="ssr:stedsnr" v="926187" />
	</node>
<<<<<<< HEAD
	<node lat="66.04094167074624" lon="12.346999991260805" id="-7590">
		<tag k="fixme" v="consider natural=peak for the most distinct mountains in the district" />
		<tag k="name" v="Rullaråsen" />
		<tag k="natural" v="hill" />
=======
	<node id="-146328" lat="66.1820027787" lon="12.4802166702">
		<tag k="name" v="Buøyvollen" />
>>>>>>> e1d4bc35ff8a6074a6f2e91616a996b547c36f15
		<tag k="place" v="locality" />
		<tag k="ssr:stedsnr" v="896609" />
	</node>
<<<<<<< HEAD
	<node lat="66.06587777631539" lon="12.535105550200807" id="-7592">
		<tag k="name" v="Kjørskardet" />
		<tag k="natural" v="valley" />
=======
	<node id="-146325" lat="66.1717666639" lon="12.465188887">
		<tag k="name" v="Breimo" />
		<tag k="natural" v="slope" />
>>>>>>> e1d4bc35ff8a6074a6f2e91616a996b547c36f15
		<tag k="place" v="locality" />
		<tag k="ssr:stedsnr" v="896644" />
	</node>
<<<<<<< HEAD
	<node lat="66.03964722047736" lon="12.443272218933632" id="-7593">
		<tag k="name" v="Hushågjen" />
=======
	<node id="-146324" lat="66.1067555564" lon="12.5834777693">
		<tag k="name" v="Norddyhågan" />
>>>>>>> e1d4bc35ff8a6074a6f2e91616a996b547c36f15
		<tag k="natural" v="hill" />
		<tag k="place" v="locality" />
		<tag k="ssr:stedsnr" v="896565" />
	</node>
<<<<<<< HEAD
	<node lat="66.12553611402868" lon="12.590419437014013" id="-7596">
		<tag k="name" v="Gjesfjordhågan" />
=======
	<node id="-146314" lat="66.1585722191" lon="12.7388166758">
		<tag k="fixme" v="consider natural=peak for the most distinct mountains in the district" />
		<tag k="name" v="Høgbergåsen" />
>>>>>>> e1d4bc35ff8a6074a6f2e91616a996b547c36f15
		<tag k="natural" v="hill" />
		<tag k="place" v="locality" />
		<tag k="ssr:stedsnr" v="896578" />
	</node>
<<<<<<< HEAD
	<node lat="66.12921666767056" lon="12.550769452657638" id="-7599">
		<tag k="name" v="Sandbakkan" />
		<tag k="natural" v="slope" />
		<tag k="place" v="locality" />
		<tag k="ssr:stedsnr" v="896919" />
	</node>
	<node lat="66.1554472219753" lon="12.802230547204191" id="-7600">
		<tag k="name" v="Sjyhågjen" />
=======
	<node id="-146312" lat="66.0696138901" lon="12.4125833235">
		<tag k="fixme" v="consider natural=peak for the most distinct mountains in the district" />
		<tag k="name" v="Vedhatten" />
>>>>>>> e1d4bc35ff8a6074a6f2e91616a996b547c36f15
		<tag k="natural" v="hill" />
		<tag k="place" v="locality" />
		<tag k="ssr:stedsnr" v="896921" />
	</node>
<<<<<<< HEAD
	<node lat="66.06924167010321" lon="12.49732222500671" id="-7612">
		<tag k="name" v="Tindskogen" />
=======
	<node id="-146305" lat="66.093016665" lon="12.550458333">
		<tag k="name" v="Holandsskardet" />
		<tag k="natural" v="valley" />
>>>>>>> e1d4bc35ff8a6074a6f2e91616a996b547c36f15
		<tag k="place" v="locality" />
		<tag k="ssr:stedsnr" v="926961" />
	</node>
<<<<<<< HEAD
	<node lat="66.0982333377556" lon="12.465974997549925" id="-7618">
=======
	<node id="-146283" lat="66.1701777816" lon="12.6097499934">
>>>>>>> e1d4bc35ff8a6074a6f2e91616a996b547c36f15
		<tag k="fixme" v="consider natural=peak for the most distinct mountains in the district" />
		<tag k="name" v="Møsnubben" />
		<tag k="natural" v="hill" />
		<tag k="place" v="locality" />
<<<<<<< HEAD
		<tag k="ssr:stedsnr" v="956090" />
	</node>
	<node lat="66.13002778231812" lon="12.616894443698175" id="-7620">
		<tag k="name" v="Gjesfjordskardet" />
=======
		<tag k="ssr:stedsnr" v="76580" />
	</node>
	<node id="-146268" lat="66.0283777775" lon="12.3777055564">
		<tag k="name" v="Småskardan" />
		<tag k="natural" v="valley" />
		<tag k="place" v="locality" />
		<tag k="ssr:stedsnr" v="47745" />
	</node>
	<node id="-146267" lat="66.1242444462" lon="12.5175444405">
		<tag k="name" v="Vikadalen" />
>>>>>>> e1d4bc35ff8a6074a6f2e91616a996b547c36f15
		<tag k="natural" v="valley" />
		<tag k="place" v="locality" />
		<tag k="ssr:stedsnr" v="956588" />
	</node>
<<<<<<< HEAD
	<node lat="66.13633055495433" lon="12.355936121494551" id="-7623">
		<tag k="name" v="Vasskleppen" />
=======
	<node id="-146264" lat="66.1562944454" lon="12.7975194336">
		<tag k="name" v="Hanskjellhågjen" />
>>>>>>> e1d4bc35ff8a6074a6f2e91616a996b547c36f15
		<tag k="natural" v="hill" />
		<tag k="place" v="locality" />
		<tag k="ssr:stedsnr" v="956908" />
	</node>
<<<<<<< HEAD
	<node lat="66.13308333094794" lon="12.538886118629986" id="-7624">
		<tag k="name" v="Røsdalsfjellet" />
		<tag k="natural" v="cliff" />
		<tag k="ssr:stedsnr" v="956910" />
	</node>
	<node lat="66.13470278157618" lon="12.549824991470341" id="-7626">
		<tag k="name" v="Undsteinen" />
		<tag k="natural" v="ridge" />
=======
	<node id="-146260" lat="66.0345666666" lon="12.5191638871">
		<tag k="name" v="Skorphagen" />
		<tag k="natural" v="slope" />
		<tag k="place" v="locality" />
		<tag k="ssr:stedsnr" v="46748" />
	</node>
	<node id="-146259" lat="66.0286250033" lon="12.3689889003">
		<tag k="name" v="Mantelhågjen" />
		<tag k="natural" v="hill" />
>>>>>>> e1d4bc35ff8a6074a6f2e91616a996b547c36f15
		<tag k="place" v="locality" />
		<tag k="ssr:stedsnr" v="956915" />
	</node>
<<<<<<< HEAD
	<node lat="66.1781194487096" lon="12.727500002869512" id="-7632">
		<tag k="name" v="Eian" />
=======
	<node id="-146254" lat="66.054661107" lon="12.5161388842">
		<tag k="name" v="Hannahågjen" />
		<tag k="natural" v="hill" />
>>>>>>> e1d4bc35ff8a6074a6f2e91616a996b547c36f15
		<tag k="place" v="locality" />
		<tag k="ssr:stedsnr" v="957341" />
	</node>
<<<<<<< HEAD
	<node lat="66.2534138886012" lon="12.755644455480946" id="-7634">
		<tag k="fixme" v="consider natural=peak for the most distinct mountains in the district" />
		<tag k="name" v="Storhågjen" />
		<tag k="natural" v="hill" />
=======
	<node id="-146253" lat="66.0433416706" lon="12.3527416701">
		<tag k="name" v="Mølnvikmoan" />
>>>>>>> e1d4bc35ff8a6074a6f2e91616a996b547c36f15
		<tag k="place" v="locality" />
		<tag k="ssr:stedsnr" v="957349" />
	</node>
<<<<<<< HEAD
	<node lat="66.0407277766706" lon="12.433641667352038" id="-7635">
		<tag k="name" v="Hestdalen" />
=======
	<node id="-146250" lat="66.0671638914" lon="12.4138305502">
		<tag k="name" v="Kamskardet" />
>>>>>>> e1d4bc35ff8a6074a6f2e91616a996b547c36f15
		<tag k="natural" v="valley" />
		<tag k="place" v="locality" />
		<tag k="ssr:stedsnr" v="957584" />
	</node>
<<<<<<< HEAD
	<node lat="66.02821944899536" lon="12.311758325011338" id="-7638">
		<tag k="fixme" v="consider natural=peak for the most distinct mountains in the district" />
		<tag k="name" v="Jektåsen" />
		<tag k="natural" v="hill" />
=======
	<node id="-146249" lat="66.06861111" lon="12.5112222174">
		<tag k="name" v="Lissenddalen" />
		<tag k="natural" v="valley" />
>>>>>>> e1d4bc35ff8a6074a6f2e91616a996b547c36f15
		<tag k="place" v="locality" />
		<tag k="ssr:stedsnr" v="957686" />
	</node>
<<<<<<< HEAD
	<node lat="66.16128055699119" lon="12.692661112100206" id="-7676">
		<tag k="name" v="Hamran" />
=======
	<node id="-146246" lat="66.100630552" lon="12.5098416661">
		<tag k="name" v="Hushågjen" />
>>>>>>> e1d4bc35ff8a6074a6f2e91616a996b547c36f15
		<tag k="natural" v="hill" />
		<tag k="place" v="locality" />
		<tag k="ssr:stedsnr" v="15597" />
	</node>
<<<<<<< HEAD
	<node lat="66.07192778130762" lon="12.514466657968685" id="-7684">
		<tag k="alt_name" v="Gjerdåsen" />
		<tag k="name" v="Gjelåsen" />
=======
	<node id="-146245" lat="66.1672888899" lon="12.7223694379">
		<tag k="fixme" v="consider natural=peak for the most distinct mountains in the district" />
		<tag k="name" v="Krongelvikhågjen" />
>>>>>>> e1d4bc35ff8a6074a6f2e91616a996b547c36f15
		<tag k="natural" v="hill" />
		<tag k="place" v="locality" />
		<tag k="ssr:stedsnr" v="15953" />
	</node>
<<<<<<< HEAD
	<node lat="66.04721389311106" lon="12.395775011383584" id="-7686">
=======
	<node id="-146243" lat="66.118233332" lon="12.5680083432">
>>>>>>> e1d4bc35ff8a6074a6f2e91616a996b547c36f15
		<tag k="fixme" v="consider natural=peak for the most distinct mountains in the district" />
		<tag k="name" v="Dønnmannen" />
		<tag k="natural" v="hill" />
		<tag k="place" v="locality" />
<<<<<<< HEAD
		<tag k="ssr:stedsnr" v="15997" />
	</node>
	<node lat="66.0499750019575" lon="12.574336105228722" id="-7687">
		<tag k="name" v="Skorphaugen" />
		<tag k="natural" v="hill" />
=======
		<tag k="ssr:stedsnr" v="46353" />
	</node>
	<node id="-146242" lat="66.1566194425" lon="12.3327472252">
		<tag k="name" v="Valan" />
		<tag k="place" v="locality" />
		<tag k="ssr:stedsnr" v="46336" />
	</node>
	<node id="-146241" lat="66.1130861144" lon="12.6233388833">
		<tag k="name" v="Breidalen" />
		<tag k="natural" v="valley" />
>>>>>>> e1d4bc35ff8a6074a6f2e91616a996b547c36f15
		<tag k="place" v="locality" />
		<tag k="ssr:stedsnr" v="16000" />
	</node>
<<<<<<< HEAD
	<node lat="66.09422221856786" lon="12.378813897891936" id="-7696">
=======
	<node id="-146240" lat="66.0874111125" lon="12.4203249959">
>>>>>>> e1d4bc35ff8a6074a6f2e91616a996b547c36f15
		<tag k="fixme" v="consider natural=peak for the most distinct mountains in the district" />
		<tag k="name" v="Selvikåsen" />
		<tag k="natural" v="hill" />
		<tag k="place" v="locality" />
		<tag k="ssr:stedsnr" v="38883" />
	</node>
<<<<<<< HEAD
	<node lat="66.09656388654903" lon="12.375819436703106" id="-7697">
=======
	<node id="-146239" lat="66.0881444458" lon="12.4126111112">
>>>>>>> e1d4bc35ff8a6074a6f2e91616a996b547c36f15
		<tag k="fixme" v="consider natural=peak for the most distinct mountains in the district" />
		<tag k="name" v="Fjellsvikåsen" />
		<tag k="natural" v="hill" />
		<tag k="place" v="locality" />
<<<<<<< HEAD
		<tag k="ssr:stedsnr" v="38887" />
	</node>
	<node lat="66.11143889198334" lon="12.488677771478018" id="-7698">
=======
		<tag k="ssr:stedsnr" v="46261" />
	</node>
	<node id="-146238" lat="66.0899999966" lon="12.4474749962">
		<tag k="name" v="Sarahågjen" />
		<tag k="natural" v="ridge" />
		<tag k="place" v="locality" />
		<tag k="ssr:stedsnr" v="46257" />
	</node>
	<node id="-146237" lat="66.111438892" lon="12.4886777715">
>>>>>>> e1d4bc35ff8a6074a6f2e91616a996b547c36f15
		<tag k="name" v="Bollhågjen" />
		<tag k="natural" v="hill" />
		<tag k="place" v="locality" />
		<tag k="ssr:stedsnr" v="46096" />
	</node>
<<<<<<< HEAD
	<node lat="66.10063055197013" lon="12.509841666090253" id="-7701">
		<tag k="name" v="Hushågjen" />
=======
	<node id="-146236" lat="66.1050416669" lon="12.4866055607">
		<tag k="fixme" v="consider natural=peak for the most distinct mountains in the district" />
		<tag k="name" v="Snekkaråsen" />
>>>>>>> e1d4bc35ff8a6074a6f2e91616a996b547c36f15
		<tag k="natural" v="hill" />
		<tag k="place" v="locality" />
		<tag k="ssr:stedsnr" v="46378" />
	</node>
<<<<<<< HEAD
	<node lat="66.06861110999134" lon="12.511222217445168" id="-7704">
		<tag k="name" v="Lissenddalen" />
		<tag k="natural" v="valley" />
		<tag k="place" v="locality" />
		<tag k="ssr:stedsnr" v="46393" />
	</node>
	<node lat="66.06716389138221" lon="12.413830550162439" id="-7705">
		<tag k="name" v="Kamskardet" />
		<tag k="natural" v="valley" />
=======
	<node id="-146234" lat="66.1036361086" lon="12.4756333383">
		<tag k="name" v="Storskardet" />
		<tag k="natural" v="valley" />
		<tag k="place" v="locality" />
		<tag k="ssr:stedsnr" v="46083" />
	</node>
	<node id="-146233" lat="66.100411107" lon="12.5069277848">
		<tag k="name" v="Floto" />
		<tag k="place" v="locality" />
		<tag k="ssr:stedsnr" v="46076" />
	</node>
	<node id="-146228" lat="66.2012194471" lon="12.5579611057">
		<tag k="name" v="Vardbergnebben" />
>>>>>>> e1d4bc35ff8a6074a6f2e91616a996b547c36f15
		<tag k="place" v="locality" />
		<tag k="ssr:stedsnr" v="46441" />
	</node>
<<<<<<< HEAD
	<node lat="66.08999999656267" lon="12.447474996197743" id="-7706">
		<tag k="name" v="Sarahågjen" />
		<tag k="natural" v="ridge" />
=======
	<node id="-146226" lat="66.1823305582" lon="12.5054777717">
		<tag k="name" v="Gjerdet" />
>>>>>>> e1d4bc35ff8a6074a6f2e91616a996b547c36f15
		<tag k="place" v="locality" />
		<tag k="ssr:stedsnr" v="46257" />
	</node>
<<<<<<< HEAD
	<node lat="66.08814444584284" lon="12.412611111243372" id="-7707">
=======
	<node id="-146225" lat="66.1487722192" lon="12.3792611217">
>>>>>>> e1d4bc35ff8a6074a6f2e91616a996b547c36f15
		<tag k="fixme" v="consider natural=peak for the most distinct mountains in the district" />
		<tag k="name" v="Breistrandåsen" />
		<tag k="natural" v="hill" />
		<tag k="place" v="locality" />
		<tag k="ssr:stedsnr" v="46261" />
	</node>
<<<<<<< HEAD
	<node lat="66.11308611436758" lon="12.623338883334958" id="-7708">
		<tag k="name" v="Breidalen" />
		<tag k="natural" v="valley" />
=======
	<node id="-146222" lat="66.0857472243" lon="12.5302805641">
		<tag k="name" v="Hestadmarka" />
		<tag k="natural" v="slope" />
>>>>>>> e1d4bc35ff8a6074a6f2e91616a996b547c36f15
		<tag k="place" v="locality" />
		<tag k="ssr:stedsnr" v="46326" />
	</node>
<<<<<<< HEAD
	<node lat="66.15661944253814" lon="12.332747225156226" id="-7709">
		<tag k="name" v="Valan" />
		<tag k="place" v="locality" />
		<tag k="ssr:stedsnr" v="46336" />
	</node>
	<node lat="66.11823333200572" lon="12.56800834322742" id="-7710">
=======
	<node id="-146221" lat="66.0816611093" lon="12.5598000061">
		<tag k="name" v="Urdfjellet" />
		<tag k="natural" v="cliff" />
		<tag k="ssr:stedsnr" v="44474" />
	</node>
	<node id="-146219" lat="66.0965638865" lon="12.3758194367">
>>>>>>> e1d4bc35ff8a6074a6f2e91616a996b547c36f15
		<tag k="fixme" v="consider natural=peak for the most distinct mountains in the district" />
		<tag k="name" v="Åsen" />
		<tag k="natural" v="hill" />
		<tag k="place" v="locality" />
		<tag k="ssr:stedsnr" v="46353" />
	</node>
<<<<<<< HEAD
	<node lat="66.05466110697586" lon="12.516138884217483" id="-7715">
		<tag k="name" v="Hannahågjen" />
=======
	<node id="-146218" lat="66.0942222186" lon="12.3788138979">
		<tag k="fixme" v="consider natural=peak for the most distinct mountains in the district" />
		<tag k="name" v="Selvikåsen" />
>>>>>>> e1d4bc35ff8a6074a6f2e91616a996b547c36f15
		<tag k="natural" v="hill" />
		<tag k="place" v="locality" />
		<tag k="ssr:stedsnr" v="46629" />
	</node>
<<<<<<< HEAD
	<node lat="66.03456666663398" lon="12.519163887050638" id="-7719">
		<tag k="name" v="Skorphagen" />
		<tag k="natural" v="slope" />
=======
	<node id="-146203" lat="66.0719277813" lon="12.514466658">
		<tag k="alt_name" v="Gjerdåsen" />
		<tag k="name" v="Gjelåsen" />
		<tag k="natural" v="hill" />
>>>>>>> e1d4bc35ff8a6074a6f2e91616a996b547c36f15
		<tag k="place" v="locality" />
		<tag k="ssr:stedsnr" v="46748" />
	</node>
<<<<<<< HEAD
	<node lat="66.12424444621047" lon="12.517544440473506" id="-7721">
		<tag k="name" v="Vikadalen" />
		<tag k="natural" v="valley" />
=======
	<node id="-146198" lat="66.161280557" lon="12.6926611121">
		<tag k="name" v="Hamran" />
		<tag k="natural" v="hill" />
>>>>>>> e1d4bc35ff8a6074a6f2e91616a996b547c36f15
		<tag k="place" v="locality" />
		<tag k="ssr:stedsnr" v="46947" />
	</node>
<<<<<<< HEAD
	<node lat="66.02837777751017" lon="12.377705556438082" id="-7722">
		<tag k="name" v="Småskardan" />
		<tag k="natural" v="valley" />
=======
	<node id="-146164" lat="66.1781194487" lon="12.7275000029">
		<tag k="name" v="Eian" />
>>>>>>> e1d4bc35ff8a6074a6f2e91616a996b547c36f15
		<tag k="place" v="locality" />
		<tag k="ssr:stedsnr" v="47745" />
	</node>
<<<<<<< HEAD
	<node lat="66.17017778164463" lon="12.609749993391368" id="-7727">
		<tag k="fixme" v="consider natural=peak for the most distinct mountains in the district" />
		<tag k="name" v="Sigerstadfjellet" />
=======
	<node id="-146151" lat="66.155447222" lon="12.8022305472">
		<tag k="name" v="Sjyhågjen" />
>>>>>>> e1d4bc35ff8a6074a6f2e91616a996b547c36f15
		<tag k="natural" v="hill" />
		<tag k="place" v="locality" />
		<tag k="ssr:stedsnr" v="76580" />
	</node>
<<<<<<< HEAD
	<node lat="66.09301666501936" lon="12.550458332961192" id="-7743">
		<tag k="name" v="Holandsskardet" />
		<tag k="natural" v="valley" />
=======
	<node id="-146150" lat="66.1292166677" lon="12.5507694527">
		<tag k="name" v="Sandbakkan" />
		<tag k="natural" v="slope" />
>>>>>>> e1d4bc35ff8a6074a6f2e91616a996b547c36f15
		<tag k="place" v="locality" />
		<tag k="ssr:stedsnr" v="76940" />
	</node>
	<node lat="66.17244444061068" lon="12.71347221387185" id="-7746">
		<tag k="name" v="Grøndalen" />
		<tag k="natural" v="valley" />
		<tag k="place" v="locality" />
		<tag k="ssr:stedsnr" v="229375" />
	</node>
<<<<<<< HEAD
	<node lat="66.17353888726365" lon="12.710699990511124" id="-7747">
=======
	<node id="-146148" lat="66.1305611149" lon="12.6181222324">
>>>>>>> e1d4bc35ff8a6074a6f2e91616a996b547c36f15
		<tag k="fixme" v="consider natural=peak for the most distinct mountains in the district" />
		<tag k="name" v="Strandåsen" />
		<tag k="natural" v="hill" />
		<tag k="place" v="locality" />
		<tag k="ssr:stedsnr" v="229377" />
	</node>
<<<<<<< HEAD
	<node lat="66.18200277869174" lon="12.480216670242994" id="-7750">
		<tag k="name" v="Buøyvollen" />
		<tag k="place" v="locality" />
		<tag k="ssr:stedsnr" v="106455" />
	</node>
	<node lat="66.10675555637759" lon="12.583477769318428" id="-7755">
		<tag k="name" v="Norddyhågan" />
=======
	<node id="-146146" lat="66.125536114" lon="12.590419437">
		<tag k="name" v="Gjesfjordhågan" />
>>>>>>> e1d4bc35ff8a6074a6f2e91616a996b547c36f15
		<tag k="natural" v="hill" />
		<tag k="place" v="locality" />
		<tag k="ssr:stedsnr" v="106329" />
	</node>
<<<<<<< HEAD
	<node lat="66.10029999797503" lon="12.443291661951829" id="-7758">
		<tag k="fixme" v="consider natural=peak for the most distinct mountains in the district" />
		<tag k="name" v="Hundskiten" />
=======
	<node id="-146143" lat="66.0396472205" lon="12.4432722189">
		<tag k="name" v="Hushågjen" />
>>>>>>> e1d4bc35ff8a6074a6f2e91616a996b547c36f15
		<tag k="natural" v="hill" />
		<tag k="place" v="locality" />
		<tag k="ssr:stedsnr" v="107065" />
	</node>
<<<<<<< HEAD
	<node lat="66.08030555324895" lon="12.351547221234542" id="-7760">
		<tag k="name" v="Gjøsjen" />
=======
	<node id="-146140" lat="66.1489694429" lon="12.7822249919">
		<tag k="name" v="Moan" />
>>>>>>> e1d4bc35ff8a6074a6f2e91616a996b547c36f15
		<tag k="place" v="locality" />
		<tag k="ssr:stedsnr" v="107296" />
	</node>
<<<<<<< HEAD
	<node lat="66.1037944414653" lon="12.509574995495301" id="-7762">
		<tag k="name" v="Liss-kleiva" />
=======
	<node id="-146135" lat="66.1257694478" lon="12.2683305514">
		<tag k="name" v="Labakkan" />
>>>>>>> e1d4bc35ff8a6074a6f2e91616a996b547c36f15
		<tag k="natural" v="slope" />
		<tag k="place" v="locality" />
		<tag k="ssr:stedsnr" v="107362" />
	</node>
<<<<<<< HEAD
	<node lat="66.17610833031512" lon="12.711780553189561" id="-7765">
		<tag k="name" v="Staulhågjen" />
		<tag k="natural" v="ridge" />
=======
	<node id="-146130" lat="66.0372972261" lon="12.43998888">
		<tag k="name" v="Strandhågjen" />
		<tag k="natural" v="hill" />
>>>>>>> e1d4bc35ff8a6074a6f2e91616a996b547c36f15
		<tag k="place" v="locality" />
		<tag k="ssr:stedsnr" v="107391" />
	</node>
<<<<<<< HEAD
	<node lat="66.09026111143866" lon="12.583427782436283" id="-7767">
		<tag k="name" v="Pilten" />
=======
	<node id="-146128" lat="66.0443361153" lon="12.48121111">
		<tag k="name" v="Jørginushumpen" />
>>>>>>> e1d4bc35ff8a6074a6f2e91616a996b547c36f15
		<tag k="natural" v="ridge" />
		<tag k="place" v="locality" />
		<tag k="ssr:stedsnr" v="107452" />
	</node>
<<<<<<< HEAD
	<node lat="66.06268333366182" lon="12.553427783746079" id="-7770">
		<tag k="name" v="Storhågjen" />
		<tag k="natural" v="ridge" />
=======
	<node id="-146125" lat="66.0619055511" lon="12.5278361119">
		<tag k="fixme" v="consider natural=peak for the most distinct mountains in the district" />
		<tag k="name" v="Hatten" />
		<tag k="natural" v="hill" />
>>>>>>> e1d4bc35ff8a6074a6f2e91616a996b547c36f15
		<tag k="place" v="locality" />
		<tag k="ssr:stedsnr" v="107621" />
	</node>
<<<<<<< HEAD
	<node lat="66.1167916629361" lon="12.564505552275541" id="-7773">
		<tag k="alt_name" v="Hildsetskardet" />
		<tag k="name" v="Hilsetskardet" />
		<tag k="natural" v="valley" />
=======
	<node id="-146124" lat="66.0843444422" lon="12.3861694339">
		<tag k="fixme" v="consider natural=peak for the most distinct mountains in the district" />
		<tag k="name" v="Knudsåsen" />
		<tag k="natural" v="hill" />
>>>>>>> e1d4bc35ff8a6074a6f2e91616a996b547c36f15
		<tag k="place" v="locality" />
		<tag k="ssr:stedsnr" v="136531" />
	</node>
<<<<<<< HEAD
	<node lat="66.12651389156717" lon="12.511527786215401" id="-7774">
		<tag k="alt_name" v="Vågsfjellan" />
=======
	<node id="-146115" lat="66.1448138925" lon="12.7186333406">
>>>>>>> e1d4bc35ff8a6074a6f2e91616a996b547c36f15
		<tag k="fixme" v="consider natural=peak for the most distinct mountains in the district" />
		<tag k="name" v="Vikafjellet" />
		<tag k="natural" v="hill" />
		<tag k="place" v="locality" />
<<<<<<< HEAD
		<tag k="ssr:stedsnr" v="136540" />
	</node>
	<node lat="66.10247777916203" lon="12.613824994083622" id="-7777">
		<tag k="name" v="Breidalen" />
		<tag k="natural" v="valley" />
=======
		<tag k="ssr:stedsnr" v="834260" />
	</node>
	<node id="-146102" lat="66.0692416701" lon="12.497322225">
		<tag k="name" v="Tindskogen" />
		<tag k="place" v="locality" />
		<tag k="ssr:stedsnr" v="926961" />
	</node>
	<node id="-146087" lat="66.1592999996" lon="12.7620083242">
		<tag k="alt_name" v="Røytvollan" />
		<tag k="name" v="Reitvollan" />
		<tag k="natural" v="hill" />
>>>>>>> e1d4bc35ff8a6074a6f2e91616a996b547c36f15
		<tag k="place" v="locality" />
		<tag k="ssr:stedsnr" v="136546" />
	</node>
<<<<<<< HEAD
	<node lat="66.10708055992328" lon="12.58913610809297" id="-7783">
		<tag k="name" v="Dalsvågskardet" />
		<tag k="natural" v="valley" />
=======
	<node id="-146086" lat="66.084691668" lon="12.3424027837">
		<tag k="name" v="Langvågjen" />
>>>>>>> e1d4bc35ff8a6074a6f2e91616a996b547c36f15
		<tag k="place" v="locality" />
		<tag k="ssr:stedsnr" v="136576" />
	</node>
<<<<<<< HEAD
	<node lat="66.16592499971847" lon="12.707949989850938" id="-7786">
		<tag k="alt_name" v="Kalvsåsen" />
=======
	<node id="-146070" lat="66.1640388916" lon="12.7345444516">
>>>>>>> e1d4bc35ff8a6074a6f2e91616a996b547c36f15
		<tag k="fixme" v="consider natural=peak for the most distinct mountains in the district" />
		<tag k="name" v="Kalsåsen" />
		<tag k="natural" v="hill" />
		<tag k="place" v="locality" />
		<tag k="ssr:stedsnr" v="136581" />
	</node>
<<<<<<< HEAD
	<node lat="66.17044166795522" lon="12.34736389006161" id="-7787">
		<tag k="name" v="Varhaugen" />
=======
	<node id="-146069" lat="66.1695500026" lon="12.748163898">
		<tag k="name" v="Søndagsvikhågjen" />
>>>>>>> e1d4bc35ff8a6074a6f2e91616a996b547c36f15
		<tag k="natural" v="hill" />
		<tag k="place" v="locality" />
		<tag k="ssr:stedsnr" v="136594" />
	</node>
<<<<<<< HEAD
	<node lat="66.14659444083145" lon="12.754450005216107" id="-7800">
		<tag k="fixme" v="consider natural=peak for the most distinct mountains in the district" />
		<tag k="name" v="Løkta" />
		<tag k="natural" v="hill" />
=======
	<node id="-146063" lat="66.1677666631" lon="12.3231777838">
		<tag k="name" v="Matmorshågjen" />
		<tag k="natural" v="ridge" />
>>>>>>> e1d4bc35ff8a6074a6f2e91616a996b547c36f15
		<tag k="place" v="locality" />
		<tag k="ssr:stedsnr" v="146842" />
	</node>
<<<<<<< HEAD
	<node lat="66.09835277927024" lon="12.490824991426663" id="-7807">
		<tag k="fixme" v="consider natural=peak for the most distinct mountains in the district" />
		<tag k="name" v="Lauvåsen" />
=======
	<node id="-146062" lat="66.0921388914" lon="12.5882194458">
		<tag k="name" v="Fjøshågjen" />
>>>>>>> e1d4bc35ff8a6074a6f2e91616a996b547c36f15
		<tag k="natural" v="hill" />
		<tag k="place" v="locality" />
		<tag k="ssr:stedsnr" v="167075" />
	</node>
<<<<<<< HEAD
	<node lat="66.10888055340278" lon="12.503969447787492" id="-7808">
		<tag k="name" v="Øver-Dikjeåsen" />
=======
	<node id="-146060" lat="66.0945583314" lon="12.5991250099">
		<tag k="name" v="Mariskardhågjen" />
>>>>>>> e1d4bc35ff8a6074a6f2e91616a996b547c36f15
		<tag k="natural" v="ridge" />
		<tag k="place" v="locality" />
		<tag k="ssr:stedsnr" v="167086" />
	</node>
<<<<<<< HEAD
	<node lat="66.18005277363767" lon="12.486224997376512" id="-7810">
		<tag k="name" v="Ørntuva" />
		<tag k="natural" v="hill" />
=======
	<node id="-146056" lat="66.087688887" lon="12.5878222325">
		<tag k="name" v="Gløsen" />
>>>>>>> e1d4bc35ff8a6074a6f2e91616a996b547c36f15
		<tag k="place" v="locality" />
		<tag k="ssr:stedsnr" v="166480" />
	</node>
<<<<<<< HEAD
	<node lat="66.089400000621" lon="12.543333334549692" id="-7811">
		<tag k="name" v="Finnlægret" />
		<tag k="natural" v="valley" />
=======
	<node id="-146055" lat="66.0951749962" lon="12.6468833387">
		<tag k="name" v="Kråkhågjen" />
		<tag k="natural" v="hill" />
>>>>>>> e1d4bc35ff8a6074a6f2e91616a996b547c36f15
		<tag k="place" v="locality" />
		<tag k="ssr:stedsnr" v="166497" />
	</node>
<<<<<<< HEAD
	<node lat="66.07711944882946" lon="12.534402772552896" id="-7812">
		<tag k="fixme" v="consider natural=peak for the most distinct mountains in the district" />
		<tag k="name" v="Lifjellet" />
		<tag k="natural" v="hill" />
=======
	<node id="-146054" lat="66.1849166683" lon="12.6260750098">
		<tag k="name" v="Helia" />
		<tag k="natural" v="slope" />
>>>>>>> e1d4bc35ff8a6074a6f2e91616a996b547c36f15
		<tag k="place" v="locality" />
		<tag k="ssr:stedsnr" v="166499" />
	</node>
<<<<<<< HEAD
	<node lat="66.10938333255135" lon="12.61223610081937" id="-7813">
		<tag k="name" v="Dalsvågsfjellet" />
=======
	<node id="-146049" lat="66.124725" lon="12.6227749892">
		<tag k="name" v="Klemningshågjen" />
>>>>>>> e1d4bc35ff8a6074a6f2e91616a996b547c36f15
		<tag k="natural" v="hill" />
		<tag k="place" v="locality" />
		<tag k="ssr:stedsnr" v="167335" />
	</node>
<<<<<<< HEAD
	<node lat="66.10310555511903" lon="12.587658340239644" id="-7814">
		<tag k="name" v="Dalsvåghevlan" />
=======
	<node id="-146035" lat="66.1379083315" lon="12.3061861161">
		<tag k="name" v="Trettøybakkan" />
>>>>>>> e1d4bc35ff8a6074a6f2e91616a996b547c36f15
		<tag k="natural" v="slope" />
		<tag k="place" v="locality" />
		<tag k="ssr:stedsnr" v="167348" />
	</node>
<<<<<<< HEAD
	<node lat="66.10376110984869" lon="12.594388888803715" id="-7815">
		<tag k="name" v="Bjørneskardet" />
=======
	<node id="-146031" lat="66.0658777763" lon="12.5351055502">
		<tag k="name" v="Kjørskardet" />
>>>>>>> e1d4bc35ff8a6074a6f2e91616a996b547c36f15
		<tag k="natural" v="valley" />
		<tag k="place" v="locality" />
		<tag k="ssr:stedsnr" v="167351" />
	</node>
<<<<<<< HEAD
	<node lat="66.10774721903645" lon="12.634413891864988" id="-7816">
		<tag k="name" v="Stormarkfjellet" />
=======
	<node id="-146029" lat="66.0409416707" lon="12.3469999913">
		<tag k="fixme" v="consider natural=peak for the most distinct mountains in the district" />
		<tag k="name" v="Rullaråsen" />
>>>>>>> e1d4bc35ff8a6074a6f2e91616a996b547c36f15
		<tag k="natural" v="hill" />
		<tag k="place" v="locality" />
		<tag k="ssr:stedsnr" v="167352" />
	</node>
<<<<<<< HEAD
	<node lat="66.09596111270103" lon="12.584036104485167" id="-7817">
		<tag k="name" v="Bulimyrhågjen" />
=======
	<node id="-146028" lat="66.1695499999" lon="12.5619833314">
		<tag k="name" v="Vardhågjen" />
>>>>>>> e1d4bc35ff8a6074a6f2e91616a996b547c36f15
		<tag k="natural" v="ridge" />
		<tag k="place" v="locality" />
		<tag k="ssr:stedsnr" v="167475" />
	</node>
<<<<<<< HEAD
	<node lat="66.09353611088852" lon="12.610005548389914" id="-7818">
		<tag k="name" v="Breilandslia" />
=======
	<node id="-146025" lat="66.0556416659" lon="12.4860916608">
		<tag k="name" v="Hestlia" />
>>>>>>> e1d4bc35ff8a6074a6f2e91616a996b547c36f15
		<tag k="natural" v="slope" />
		<tag k="place" v="locality" />
		<tag k="ssr:stedsnr" v="167487" />
	</node>
<<<<<<< HEAD
	<node lat="66.12105000118731" lon="12.26082777802033" id="-7822">
		<tag k="name" v="Lamøyhågjen" />
=======
	<node id="-146022" lat="66.1722527787" lon="12.7285777773">
		<tag k="name" v="Mikkelhågjen" />
>>>>>>> e1d4bc35ff8a6074a6f2e91616a996b547c36f15
		<tag k="natural" v="hill" />
		<tag k="place" v="locality" />
		<tag k="ssr:stedsnr" v="167936" />
	</node>
<<<<<<< HEAD
	<node lat="66.18337778079868" lon="12.692155557440488" id="-7823">
		<tag k="name" v="Ørnklumpen" />
=======
	<node id="-146018" lat="66.1669416701" lon="12.7305000005">
		<tag k="name" v="Hammarhågjen" />
>>>>>>> e1d4bc35ff8a6074a6f2e91616a996b547c36f15
		<tag k="natural" v="hill" />
		<tag k="place" v="locality" />
		<tag k="ssr:stedsnr" v="168382" />
	</node>
<<<<<<< HEAD
	<node lat="66.16599444336597" lon="12.596383324477953" id="-7825">
		<tag k="name" v="Gleinsfjellet" />
		<tag k="natural" v="cliff" />
		<tag k="ssr:stedsnr" v="168385" />
	</node>
	<node lat="66.03911666330414" lon="12.45032499814324" id="-7827">
		<tag k="name" v="Høghågjen" />
		<tag k="natural" v="hill" />
=======
	<node id="-146017" lat="66.0980444444" lon="12.5531833342">
		<tag k="name" v="Hestadskardet" />
		<tag k="natural" v="valley" />
>>>>>>> e1d4bc35ff8a6074a6f2e91616a996b547c36f15
		<tag k="place" v="locality" />
		<tag k="ssr:stedsnr" v="168485" />
	</node>
<<<<<<< HEAD
	<node lat="66.16630555917274" lon="12.736808339633471" id="-7829">
=======
	<node id="-146006" lat="66.104005559" lon="12.4800444559">
>>>>>>> e1d4bc35ff8a6074a6f2e91616a996b547c36f15
		<tag k="fixme" v="consider natural=peak for the most distinct mountains in the district" />
		<tag k="name" v="Meåsen" />
		<tag k="natural" v="hill" />
		<tag k="place" v="locality" />
<<<<<<< HEAD
		<tag k="ssr:stedsnr" v="168354" />
	</node>
	<node lat="66.04096110985049" lon="12.353352777127707" id="-7831">
=======
		<tag k="ssr:stedsnr" v="896077" />
	</node>
	<node id="-146005" lat="66.1704555576" lon="12.3758472162">
		<tag k="name" v="Havsteinfjellet" />
		<tag k="natural" v="cliff" />
		<tag k="ssr:stedsnr" v="895657" />
	</node>
	<node id="-145999" lat="66.0618305525" lon="12.3907944404">
>>>>>>> e1d4bc35ff8a6074a6f2e91616a996b547c36f15
		<tag k="fixme" v="consider natural=peak for the most distinct mountains in the district" />
		<tag k="name" v="Vargåsen" />
		<tag k="natural" v="hill" />
		<tag k="place" v="locality" />
		<tag k="ssr:stedsnr" v="168550" />
	</node>
<<<<<<< HEAD
	<node lat="66.03741388518688" lon="12.333599997827182" id="-7833">
		<tag k="fixme" v="consider natural=peak for the most distinct mountains in the district" />
		<tag k="name" v="Snørhallaren" />
		<tag k="natural" v="hill" />
=======
	<node id="-145996" lat="66.1473027804" lon="12.7148638967">
		<tag k="name" v="Tronga" />
		<tag k="natural" v="valley" />
>>>>>>> e1d4bc35ff8a6074a6f2e91616a996b547c36f15
		<tag k="place" v="locality" />
		<tag k="ssr:stedsnr" v="168620" />
	</node>
<<<<<<< HEAD
	<node lat="66.06398055535497" lon="12.526236121212385" id="-7836">
		<tag k="name" v="Lomfjellet" />
		<tag k="natural" v="cliff" />
		<tag k="ssr:stedsnr" v="168582" />
	</node>
	<node lat="66.02757222287147" lon="12.536886105983793" id="-7837">
		<tag k="name" v="Løvøyhatten" />
		<tag k="natural" v="ridge" />
=======
	<node id="-145992" lat="66.1788472218" lon="12.5004250073">
		<tag k="name" v="Bakken" />
		<tag k="natural" v="slope" />
>>>>>>> e1d4bc35ff8a6074a6f2e91616a996b547c36f15
		<tag k="place" v="locality" />
		<tag k="ssr:stedsnr" v="168719" />
	</node>
<<<<<<< HEAD
	<node lat="66.1263055585041" lon="12.527294437559002" id="-7846">
		<tag k="name" v="Kamman" />
		<tag k="natural" v="hill" />
=======
	<node id="-145991" lat="66.1644166643" lon="12.3412305543">
		<tag k="name" v="Lysvasstrupen" />
		<tag k="natural" v="valley" />
>>>>>>> e1d4bc35ff8a6074a6f2e91616a996b547c36f15
		<tag k="place" v="locality" />
		<tag k="ssr:stedsnr" v="197573" />
	</node>
<<<<<<< HEAD
	<node lat="66.16962222013396" lon="12.704549997231311" id="-7849">
		<tag k="fixme" v="consider natural=peak for the most distinct mountains in the district" />
		<tag k="name" v="Strandåsen" />
		<tag k="natural" v="hill" />
=======
	<node id="-145990" lat="66.0804222267" lon="12.51692499">
		<tag k="name" v="Per-Grekksorslia" />
		<tag k="natural" v="slope" />
>>>>>>> e1d4bc35ff8a6074a6f2e91616a996b547c36f15
		<tag k="place" v="locality" />
		<tag k="ssr:stedsnr" v="197618" />
	</node>
<<<<<<< HEAD
	<node lat="66.17342500272889" lon="12.701041676902179" id="-7850">
		<tag k="fixme" v="multiple name tags, choose one and add the other to alt_name; consider natural=peak for the most distinct mountains in the district" />
		<tag k="name" v="Nonsåsen;Våghågjen" />
		<tag k="natural" v="hill" />
		<tag k="place" v="locality" />
		<tag k="ssr:stedsnr" v="197619" />
	</node>
	<node lat="66.07294166684369" lon="12.484441658736273" id="-7861">
		<tag k="alt_name" v="Ramnskardlia" />
=======
	<node id="-145989" lat="66.0867361081" lon="12.5511388925">
		<tag k="name" v="Vesterfjellet" />
		<tag k="natural" v="cliff" />
		<tag k="ssr:stedsnr" v="894538" />
	</node>
	<node id="-145988" lat="66.0755111133" lon="12.4300277729">
>>>>>>> e1d4bc35ff8a6074a6f2e91616a996b547c36f15
		<tag k="fixme" v="consider natural=peak for the most distinct mountains in the district" />
		<tag k="name" v="Ravnskardsfjellet" />
		<tag k="natural" v="hill" />
		<tag k="place" v="locality" />
		<tag k="ssr:stedsnr" v="197976" />
	</node>
<<<<<<< HEAD
	<node lat="66.08245278204716" lon="12.533619441631739" id="-7872">
		<tag k="fixme" v="consider natural=peak for the most distinct mountains in the district" />
		<tag k="name" v="Myrskjååsen" />
		<tag k="natural" v="hill" />
=======
	<node id="-145982" lat="66.1011666678" lon="12.5810083403">
		<tag k="name" v="Forsan" />
		<tag k="natural" v="slope" />
>>>>>>> e1d4bc35ff8a6074a6f2e91616a996b547c36f15
		<tag k="place" v="locality" />
		<tag k="ssr:stedsnr" v="226533" />
	</node>
<<<<<<< HEAD
	<node lat="66.15897221963739" lon="12.761658329186407" id="-7874">
		<tag k="name" v="Røytvollhågjen" />
=======
	<node id="-145974" lat="66.121383331" lon="12.5878222276">
		<tag k="fixme" v="consider natural=peak for the most distinct mountains in the district" />
		<tag k="name" v="Vassfjellet" />
>>>>>>> e1d4bc35ff8a6074a6f2e91616a996b547c36f15
		<tag k="natural" v="hill" />
		<tag k="place" v="locality" />
		<tag k="ssr:stedsnr" v="227235" />
	</node>
<<<<<<< HEAD
	<node lat="66.07706388893706" lon="12.558572232225053" id="-7876">
		<tag k="name" v="Smogjan" />
=======
	<node id="-145973" lat="66.0534805543" lon="12.5072083367">
		<tag k="name" v="Nordskardet" />
>>>>>>> e1d4bc35ff8a6074a6f2e91616a996b547c36f15
		<tag k="natural" v="valley" />
		<tag k="place" v="locality" />
		<tag k="ssr:stedsnr" v="227506" />
	</node>
<<<<<<< HEAD
	<node lat="66.0799250029267" lon="12.577655554587746" id="-7877">
		<tag k="fixme" v="consider natural=peak for the most distinct mountains in the district" />
		<tag k="name" v="Nonshågjen" />
		<tag k="natural" v="hill" />
=======
	<node id="-145972" lat="66.0436333294" lon="12.4769055498">
		<tag k="name" v="Aspdalhumpen" />
		<tag k="natural" v="ridge" />
>>>>>>> e1d4bc35ff8a6074a6f2e91616a996b547c36f15
		<tag k="place" v="locality" />
		<tag k="ssr:stedsnr" v="227508" />
	</node>
<<<<<<< HEAD
	<node lat="66.114713886374" lon="12.572427772333358" id="-7882">
=======
	<node id="-145971" lat="66.1172999987" lon="12.5958027857">
>>>>>>> e1d4bc35ff8a6074a6f2e91616a996b547c36f15
		<tag k="fixme" v="consider natural=peak for the most distinct mountains in the district" />
		<tag k="name" v="Annfinnåsen" />
		<tag k="natural" v="hill" />
		<tag k="place" v="locality" />
		<tag k="ssr:stedsnr" v="228373" />
	</node>
<<<<<<< HEAD
	<node lat="66.10813055341146" lon="12.571277774443216" id="-7883">
		<tag k="fixme" v="consider natural=peak for the most distinct mountains in the district" />
		<tag k="name" v="Kjøråsen" />
		<tag k="natural" v="hill" />
		<tag k="place" v="locality" />
		<tag k="ssr:stedsnr" v="228374" />
	</node>
	<node lat="66.06438610956316" lon="12.40268055094094" id="-7884">
		<tag k="name" v="Leåsen" />
=======
	<node id="-145968" lat="66.0953027825" lon="12.4218027691">
		<tag k="name" v="Kariklubban" />
>>>>>>> e1d4bc35ff8a6074a6f2e91616a996b547c36f15
		<tag k="natural" v="ridge" />
		<tag k="place" v="locality" />
		<tag k="ssr:stedsnr" v="228458" />
	</node>
<<<<<<< HEAD
	<node lat="66.06571666488115" lon="12.39488610987437" id="-7885">
		<tag k="name" v="Alberthågjen" />
		<tag k="natural" v="ridge" />
=======
	<node id="-145965" lat="66.1206444411" lon="12.6050138779">
		<tag k="name" v="Munnarbergan" />
		<tag k="natural" v="slope" />
>>>>>>> e1d4bc35ff8a6074a6f2e91616a996b547c36f15
		<tag k="place" v="locality" />
		<tag k="ssr:stedsnr" v="228462" />
	</node>
<<<<<<< HEAD
	<node lat="66.07365277329617" lon="12.50211389079222" id="-7887">
		<tag k="name" v="Vesterendet" />
		<tag k="natural" v="ridge" />
=======
	<node id="-145964" lat="66.1098111091" lon="12.5935750093">
		<tag k="name" v="Rondushågjen" />
		<tag k="natural" v="hill" />
>>>>>>> e1d4bc35ff8a6074a6f2e91616a996b547c36f15
		<tag k="place" v="locality" />
		<tag k="ssr:stedsnr" v="228479" />
	</node>
<<<<<<< HEAD
	<node lat="66.08358888811547" lon="12.583372231107745" id="-7888">
		<tag k="name" v="Bjørsmartnensplassen" />
		<tag k="place" v="locality" />
		<tag k="ssr:stedsnr" v="228522" />
	</node>
	<node lat="66.06315000142479" lon="12.526941666628382" id="-7889">
		<tag k="name" v="Lisshatten" />
		<tag k="natural" v="ridge" />
		<tag k="place" v="locality" />
		<tag k="ssr:stedsnr" v="228662" />
	</node>
	<node lat="66.11206944153452" lon="12.497308339731685" id="-7895">
		<tag k="name" v="Junsdalen" />
		<tag k="natural" v="valley" />
		<tag k="place" v="locality" />
		<tag k="ssr:stedsnr" v="285116" />
	</node>
	<node lat="66.08029722242098" lon="12.49976111033055" id="-7896">
		<tag k="name" v="Ravnskardet" />
		<tag k="natural" v="valley" />
		<tag k="place" v="locality" />
		<tag k="ssr:stedsnr" v="288442" />
	</node>
	<node lat="66.0947472218241" lon="12.51730278563173" id="-7897">
		<tag k="name" v="Holandsstrandfjellan" />
=======
	<node id="-145963" lat="66.1419416692" lon="12.3685472273">
		<tag k="name" v="Storfjellet" />
		<tag k="natural" v="cliff" />
		<tag k="ssr:stedsnr" v="652264" />
	</node>
	<node id="-145962" lat="66.1415500025" lon="12.3749583445">
		<tag k="name" v="Hestfjellet" />
>>>>>>> e1d4bc35ff8a6074a6f2e91616a996b547c36f15
		<tag k="natural" v="cliff" />
		<tag k="ssr:stedsnr" v="288443" />
	</node>
<<<<<<< HEAD
	<node lat="66.15359722270524" lon="12.710602777040254" id="-7899">
		<tag k="name" v="Grønlidalen" />
=======
	<node id="-145961" lat="66.0794055522" lon="12.5444611138">
		<tag k="name" v="Foradalen" />
>>>>>>> e1d4bc35ff8a6074a6f2e91616a996b547c36f15
		<tag k="natural" v="valley" />
		<tag k="place" v="locality" />
		<tag k="ssr:stedsnr" v="288221" />
	</node>
<<<<<<< HEAD
	<node lat="66.09309444716428" lon="12.639769452553008" id="-7905">
		<tag k="name" v="Hidelhågjen" />
=======
	<node id="-145960" lat="66.0839666659" lon="12.5747888831">
		<tag k="name" v="Jekta" />
>>>>>>> e1d4bc35ff8a6074a6f2e91616a996b547c36f15
		<tag k="natural" v="ridge" />
		<tag k="place" v="locality" />
		<tag k="ssr:stedsnr" v="288419" />
	</node>
<<<<<<< HEAD
	<node lat="66.09213333513235" lon="12.634816664451677" id="-7906">
		<tag k="fixme" v="consider natural=peak for the most distinct mountains in the district" />
		<tag k="name" v="Hatten" />
		<tag k="natural" v="hill" />
=======
	<node id="-145951" lat="66.0443027809" lon="12.365683333">
		<tag k="name" v="Hagaskardet" />
		<tag k="natural" v="valley" />
>>>>>>> e1d4bc35ff8a6074a6f2e91616a996b547c36f15
		<tag k="place" v="locality" />
		<tag k="ssr:stedsnr" v="288421" />
	</node>
<<<<<<< HEAD
	<node lat="66.18457499700763" lon="12.348841657682433" id="-7907">
		<tag k="name" v="Lavollen" />
=======
	<node id="-145948" lat="66.1197999984" lon="12.5800055551">
		<tag k="name" v="Steinskardet" />
		<tag k="natural" v="valley" />
>>>>>>> e1d4bc35ff8a6074a6f2e91616a996b547c36f15
		<tag k="place" v="locality" />
		<tag k="ssr:stedsnr" v="288612" />
	</node>
<<<<<<< HEAD
	<node lat="66.16723333747389" lon="12.349091672154168" id="-7908">
		<tag k="name" v="Mannbergan" />
		<tag k="natural" v="slope" />
		<tag k="place" v="locality" />
		<tag k="ssr:stedsnr" v="288628" />
	</node>
	<node lat="66.16670833155969" lon="12.349269434107196" id="-7909">
		<tag k="name" v="Gognstøhågjen" />
=======
	<node id="-145945" lat="66.1639055539" lon="12.5649444537">
		<tag k="name" v="Tendrikhågjen" />
>>>>>>> e1d4bc35ff8a6074a6f2e91616a996b547c36f15
		<tag k="natural" v="hill" />
		<tag k="place" v="locality" />
		<tag k="ssr:stedsnr" v="288629" />
	</node>
<<<<<<< HEAD
	<node lat="66.18902500014492" lon="12.618280550148297" id="-7910">
=======
	<node id="-145944" lat="66.1810944415" lon="12.6079361017">
>>>>>>> e1d4bc35ff8a6074a6f2e91616a996b547c36f15
		<tag k="fixme" v="consider natural=peak for the most distinct mountains in the district" />
		<tag k="name" v="Middagshågjen" />
		<tag k="natural" v="hill" />
		<tag k="place" v="locality" />
		<tag k="ssr:stedsnr" v="288645" />
	</node>
	<node lat="66.1761861125579" lon="12.718772228610575" id="-7918">
		<tag k="name" v="Kjerkåsen" />
		<tag k="natural" v="ridge" />
		<tag k="place" v="locality" />
		<tag k="ssr:stedsnr" v="289392" />
	</node>
	<node lat="66.03989444067258" lon="12.437019454216077" id="-7921">
		<tag k="name" v="Febergan" />
		<tag k="natural" v="slope" />
		<tag k="place" v="locality" />
		<tag k="ssr:stedsnr" v="289682" />
	</node>
	<node lat="66.0356583341903" lon="12.324638883166584" id="-7922">
		<tag k="name" v="Skiftet" />
		<tag k="place" v="locality" />
		<tag k="ssr:stedsnr" v="289694" />
	</node>
<<<<<<< HEAD
	<node lat="66.1196944452026" lon="12.611519443797679" id="-7924">
=======
	<node id="-145943" lat="66.1780694471" lon="12.6121750098">
>>>>>>> e1d4bc35ff8a6074a6f2e91616a996b547c36f15
		<tag k="fixme" v="consider natural=peak for the most distinct mountains in the district" />
		<tag k="name" v="Lauvåsen" />
		<tag k="natural" v="hill" />
		<tag k="place" v="locality" />
		<tag k="ssr:stedsnr" v="289566" />
	</node>
<<<<<<< HEAD
	<node lat="66.05242777616414" lon="12.506091655903514" id="-7927">
		<tag k="name" v="Langhågjen" />
		<tag k="natural" v="ridge" />
=======
	<node id="-145942" lat="66.115174996" lon="12.6257888993">
		<tag k="name" v="Moan" />
>>>>>>> e1d4bc35ff8a6074a6f2e91616a996b547c36f15
		<tag k="place" v="locality" />
		<tag k="ssr:stedsnr" v="289570" />
	</node>
<<<<<<< HEAD
	<node lat="66.02991944073126" lon="12.329736116936765" id="-7929">
=======
	<node id="-145940" lat="66.0926750019" lon="12.4267694351">
>>>>>>> e1d4bc35ff8a6074a6f2e91616a996b547c36f15
		<tag k="fixme" v="consider natural=peak for the most distinct mountains in the district" />
		<tag k="name" v="Lunkhågjen" />
		<tag k="natural" v="hill" />
		<tag k="place" v="locality" />
		<tag k="ssr:stedsnr" v="289751" />
	</node>
<<<<<<< HEAD
	<node lat="66.03067221886425" lon="12.356305547534117" id="-7930">
		<tag k="name" v="Skardsruten" />
=======
	<node id="-145935" lat="66.2077083343" lon="12.5835250066">
		<tag k="name" v="Sjyskardet" />
>>>>>>> e1d4bc35ff8a6074a6f2e91616a996b547c36f15
		<tag k="natural" v="valley" />
		<tag k="place" v="locality" />
		<tag k="ssr:stedsnr" v="289755" />
	</node>
<<<<<<< HEAD
	<node lat="66.14453889094993" lon="12.774944454412966" id="-7931">
		<tag k="name" v="Raplidalen" />
		<tag k="natural" v="valley" />
		<tag k="place" v="locality" />
		<tag k="ssr:stedsnr" v="289939" />
	</node>
	<node lat="66.09431110678977" lon="12.35530555915044" id="-7947">
		<tag k="fixme" v="multiple name tags, choose one and add the other to alt_name" />
		<tag k="name" v="Skagaklubben;Valstadklubben" />
=======
	<node id="-145928" lat="66.1523444473" lon="12.7699111102">
		<tag k="name" v="Kringelhågjen" />
>>>>>>> e1d4bc35ff8a6074a6f2e91616a996b547c36f15
		<tag k="natural" v="hill" />
		<tag k="place" v="locality" />
		<tag k="ssr:stedsnr" v="318561" />
	</node>
<<<<<<< HEAD
	<node lat="66.11015277364997" lon="12.638513888936375" id="-7949">
		<tag k="fixme" v="consider natural=peak for the most distinct mountains in the district" />
		<tag k="name" v="Kulifjellet" />
=======
	<node id="-145927" lat="66.1543444414" lon="12.7792277698">
		<tag k="name" v="Vallahågjen" />
>>>>>>> e1d4bc35ff8a6074a6f2e91616a996b547c36f15
		<tag k="natural" v="hill" />
		<tag k="place" v="locality" />
		<tag k="ssr:stedsnr" v="318567" />
	</node>
<<<<<<< HEAD
	<node lat="66.0926194484549" lon="12.556380548136717" id="-7960">
		<tag k="fixme" v="consider natural=peak for the most distinct mountains in the district" />
		<tag k="name" v="Bjørnsfjellet" />
		<tag k="natural" v="hill" />
		<tag k="place" v="locality" />
		<tag k="ssr:stedsnr" v="319952" />
	</node>
	<node lat="66.09424166784717" lon="12.629461115957186" id="-7962">
		<tag k="fixme" v="multiple name tags, choose one and add the other to alt_name; consider natural=peak for the most distinct mountains in the district" />
		<tag k="name" v="Stormarka;Kjerkmyrhågjen" />
		<tag k="natural" v="hill" />
		<tag k="place" v="locality" />
		<tag k="ssr:stedsnr" v="319954" />
	</node>
	<node lat="66.15093889021637" lon="12.391927779440516" id="-7970">
		<tag k="name" v="Lissåsen" />
=======
	<node id="-145926" lat="66.1493083342" lon="12.753461102">
		<tag k="name" v="Auskarnasen" />
>>>>>>> e1d4bc35ff8a6074a6f2e91616a996b547c36f15
		<tag k="natural" v="ridge" />
		<tag k="place" v="locality" />
		<tag k="ssr:stedsnr" v="348301" />
	</node>
<<<<<<< HEAD
	<node lat="66.11403055609331" lon="12.63842777098754" id="-7973">
		<tag k="name" v="Kulia" />
		<tag k="natural" v="slope" />
		<tag k="place" v="locality" />
		<tag k="ssr:stedsnr" v="349392" />
	</node>
	<node lat="66.0944694481476" lon="12.58771945215835" id="-7975">
		<tag k="name" v="Mølnhushågjen" />
		<tag k="natural" v="ridge" />
		<tag k="place" v="locality" />
		<tag k="ssr:stedsnr" v="349501" />
	</node>
	<node lat="66.12313055147614" lon="12.616861103143858" id="-7977">
		<tag k="name" v="Vollhågjen" />
=======
	<node id="-145924" lat="66.06395" lon="12.5004000089">
		<tag k="fixme" v="consider natural=peak for the most distinct mountains in the district" />
		<tag k="name" v="Kjerrdalsåsen" />
>>>>>>> e1d4bc35ff8a6074a6f2e91616a996b547c36f15
		<tag k="natural" v="hill" />
		<tag k="place" v="locality" />
		<tag k="ssr:stedsnr" v="349583" />
	</node>
<<<<<<< HEAD
	<node lat="66.1537833301023" lon="12.727430547465381" id="-7981">
		<tag k="name" v="Botnan" />
		<tag k="natural" v="valley" />
		<tag k="place" v="locality" />
		<tag k="ssr:stedsnr" v="349883" />
	</node>
	<node lat="66.06174722304162" lon="12.385388879145298" id="-7985">
		<tag k="name" v="Kleiva" />
		<tag k="natural" v="ridge" />
		<tag k="place" v="locality" />
		<tag k="ssr:stedsnr" v="350373" />
	</node>
	<node lat="66.17134999866656" lon="12.600119440102677" id="-7990">
		<tag k="name" v="Vardeåsen" />
=======
	<node id="-145922" lat="66.0624555516" lon="12.5087027799">
		<tag k="name" v="Lifjellet" />
		<tag k="natural" v="cliff" />
		<tag k="ssr:stedsnr" v="592407" />
	</node>
	<node id="-145920" lat="66.1078194465" lon="12.4954388804">
		<tag k="name" v="Ner-Dikjeåsen" />
>>>>>>> e1d4bc35ff8a6074a6f2e91616a996b547c36f15
		<tag k="natural" v="ridge" />
		<tag k="place" v="locality" />
		<tag k="ssr:stedsnr" v="350332" />
	</node>
<<<<<<< HEAD
	<node lat="66.07220555799545" lon="12.553177782835174" id="-7991">
		<tag k="name" v="Daumannslia" />
=======
	<node id="-145919" lat="66.0861805535" lon="12.5288111137">
		<tag k="name" v="Ravnskardslia" />
>>>>>>> e1d4bc35ff8a6074a6f2e91616a996b547c36f15
		<tag k="natural" v="slope" />
		<tag k="place" v="locality" />
		<tag k="ssr:stedsnr" v="350339" />
	</node>
<<<<<<< HEAD
	<node lat="66.18033333576679" lon="12.685674991892233" id="-8000">
		<tag k="name" v="Skolpen" />
		<tag k="natural" v="hill" />
=======
	<node id="-145918" lat="66.0884861087" lon="12.5812833229">
		<tag k="name" v="Svarthølet" />
		<tag k="natural" v="valley" />
>>>>>>> e1d4bc35ff8a6074a6f2e91616a996b547c36f15
		<tag k="place" v="locality" />
		<tag k="ssr:stedsnr" v="379645" />
	</node>
<<<<<<< HEAD
	<node lat="66.149788888599" lon="12.743263881226875" id="-8004">
		<tag k="name" v="Tysvollen" />
=======
	<node id="-145915" lat="66.0817444417" lon="12.3505694449">
		<tag k="name" v="Sleppan" />
>>>>>>> e1d4bc35ff8a6074a6f2e91616a996b547c36f15
		<tag k="natural" v="slope" />
		<tag k="place" v="locality" />
		<tag k="ssr:stedsnr" v="379187" />
	</node>
<<<<<<< HEAD
	<node lat="66.14581666536722" lon="12.752394450457242" id="-8005">
		<tag k="fixme" v="consider natural=peak for the most distinct mountains in the district" />
		<tag k="name" v="Sandåkerfjellet" />
=======
	<node id="-145914" lat="66.054169447" lon="12.4417944547">
		<tag k="fixme" v="consider natural=peak for the most distinct mountains in the district" />
		<tag k="name" v="Høgtuven" />
		<tag k="natural" v="hill" />
		<tag k="place" v="locality" />
		<tag k="ssr:stedsnr" v="708213" />
	</node>
	<node id="-145894" lat="66.10462209" lon="12.5245079138">
		<tag k="fixme" v="multiple name tags, choose one and add the other to alt_name" />
		<tag k="name" v="Høgåsen;Kleiva" />
>>>>>>> e1d4bc35ff8a6074a6f2e91616a996b547c36f15
		<tag k="natural" v="hill" />
		<tag k="place" v="locality" />
		<tag k="ssr:stedsnr" v="379189" />
	</node>
<<<<<<< HEAD
	<node lat="66.10846110785786" lon="12.63574722948041" id="-8015">
		<tag k="fixme" v="consider natural=peak for the most distinct mountains in the district" />
		<tag k="name" v="Dalsvågfjellet" />
=======
	<node id="-145890" lat="66.1174444462" lon="12.4844777834">
		<tag k="name" v="Klubben" />
>>>>>>> e1d4bc35ff8a6074a6f2e91616a996b547c36f15
		<tag k="natural" v="hill" />
		<tag k="place" v="locality" />
		<tag k="ssr:stedsnr" v="379550" />
	</node>
<<<<<<< HEAD
	<node lat="66.0856527744701" lon="12.539388890083432" id="-8029">
=======
	<node id="-145878" lat="66.0712111081" lon="12.5552138831">
>>>>>>> e1d4bc35ff8a6074a6f2e91616a996b547c36f15
		<tag k="fixme" v="consider natural=peak for the most distinct mountains in the district" />
		<tag k="name" v="Laukliåsen" />
		<tag k="natural" v="hill" />
		<tag k="place" v="locality" />
		<tag k="ssr:stedsnr" v="408523" />
	</node>
<<<<<<< HEAD
	<node lat="66.09808610853024" lon="12.586061111411734" id="-8030">
		<tag k="name" v="Trollhågjen" />
=======
	<node id="-145850" lat="66.1640083294" lon="12.3292305629">
		<tag k="alt_name" v="Mershaugen" />
		<tag k="name" v="Mershågjen" />
>>>>>>> e1d4bc35ff8a6074a6f2e91616a996b547c36f15
		<tag k="natural" v="hill" />
		<tag k="place" v="locality" />
		<tag k="ssr:stedsnr" v="408370" />
	</node>
<<<<<<< HEAD
	<node lat="66.15491666231678" lon="12.706688891418748" id="-8032">
		<tag k="name" v="Storhågjen" />
=======
	<node id="-145849" lat="66.153747226" lon="12.5530444518">
		<tag k="fixme" v="consider natural=peak for the most distinct mountains in the district" />
		<tag k="name" v="Hopanfjellet" />
>>>>>>> e1d4bc35ff8a6074a6f2e91616a996b547c36f15
		<tag k="natural" v="hill" />
		<tag k="place" v="locality" />
		<tag k="ssr:stedsnr" v="409254" />
	</node>
<<<<<<< HEAD
	<node lat="66.14346944495604" lon="12.713958331683774" id="-8033">
		<tag k="name" v="Bersnova" />
		<tag k="natural" v="ridge" />
=======
	<node id="-145847" lat="66.1486782151" lon="12.6065311589">
		<tag k="fixme" v="multiple name tags, choose one and add the other to alt_name; consider natural=peak for the most distinct mountains in the district" />
		<tag k="name" v="Gleinsfjellet;Hågjafjellet" />
		<tag k="natural" v="hill" />
>>>>>>> e1d4bc35ff8a6074a6f2e91616a996b547c36f15
		<tag k="place" v="locality" />
		<tag k="ssr:stedsnr" v="409262" />
	</node>
<<<<<<< HEAD
	<node lat="66.08511389206855" lon="12.581280565394954" id="-8035">
		<tag k="name" v="Småskogan" />
		<tag k="natural" v="slope" />
=======
	<node id="-145836" lat="66.031538887" lon="12.3478083337">
		<tag k="fixme" v="multiple name tags, choose one and add the other to alt_name; consider natural=peak for the most distinct mountains in the district" />
		<tag k="name" v="Middagsfjellet;Åkvikfjellet" />
		<tag k="natural" v="hill" />
>>>>>>> e1d4bc35ff8a6074a6f2e91616a996b547c36f15
		<tag k="place" v="locality" />
		<tag k="ssr:stedsnr" v="409465" />
	</node>
<<<<<<< HEAD
	<node lat="66.0987583370755" lon="12.46127223070611" id="-8038">
=======
	<node id="-145835" lat="66.0991694448" lon="12.6482833276">
>>>>>>> e1d4bc35ff8a6074a6f2e91616a996b547c36f15
		<tag k="fixme" v="consider natural=peak for the most distinct mountains in the district" />
		<tag k="name" v="Breistrandåsen" />
		<tag k="natural" v="hill" />
		<tag k="place" v="locality" />
		<tag k="ssr:stedsnr" v="410080" />
	</node>
<<<<<<< HEAD
	<node lat="66.05949166982954" lon="12.46409999281416" id="-8042">
		<tag k="name" v="Tindbotnet" />
		<tag k="natural" v="valley" />
=======
	<node id="-145825" lat="66.1573611068" lon="12.7174055592">
		<tag k="fixme" v="consider natural=peak for the most distinct mountains in the district" />
		<tag k="name" v="Durmålstuvo" />
		<tag k="natural" v="hill" />
>>>>>>> e1d4bc35ff8a6074a6f2e91616a996b547c36f15
		<tag k="place" v="locality" />
		<tag k="ssr:stedsnr" v="410385" />
	</node>
<<<<<<< HEAD
	<node lat="66.15486667072167" lon="12.784024990724255" id="-8043">
		<tag k="name" v="Nonshågjen" />
		<tag k="natural" v="hill" />
=======
	<node id="-145824" lat="66.1570666645" lon="12.7224027678">
		<tag k="name" v="Tronga" />
		<tag k="natural" v="valley" />
>>>>>>> e1d4bc35ff8a6074a6f2e91616a996b547c36f15
		<tag k="place" v="locality" />
		<tag k="ssr:stedsnr" v="410226" />
	</node>
<<<<<<< HEAD
	<node lat="66.17965277800475" lon="12.536299994597561" id="-8045">
		<tag k="name" v="Steinsengen" />
=======
	<node id="-145822" lat="66.1030083328" lon="12.4431638976">
		<tag k="name" v="Bærholtan" />
>>>>>>> e1d4bc35ff8a6074a6f2e91616a996b547c36f15
		<tag k="natural" v="slope" />
		<tag k="place" v="locality" />
		<tag k="ssr:stedsnr" v="410431" />
	</node>
<<<<<<< HEAD
	<node lat="66.18100833047353" lon="12.508627783545416" id="-8046">
		<tag k="fixme" v="consider natural=peak for the most distinct mountains in the district" />
		<tag k="name" v="Brekkåsen" />
		<tag k="natural" v="hill" />
=======
	<node id="-145815" lat="66.1703805559" lon="12.5696777858">
		<tag k="name" v="Tjønnberget" />
		<tag k="natural" v="ridge" />
>>>>>>> e1d4bc35ff8a6074a6f2e91616a996b547c36f15
		<tag k="place" v="locality" />
		<tag k="ssr:stedsnr" v="410435" />
	</node>
<<<<<<< HEAD
	<node lat="66.0928833288212" lon="12.584047229487688" id="-8047">
		<tag k="name" v="Grønlihågjen" />
		<tag k="natural" v="hill" />
=======
	<node id="-145813" lat="66.143469445" lon="12.7139583317">
		<tag k="name" v="Bersnova" />
		<tag k="natural" v="ridge" />
>>>>>>> e1d4bc35ff8a6074a6f2e91616a996b547c36f15
		<tag k="place" v="locality" />
		<tag k="ssr:stedsnr" v="410461" />
	</node>
<<<<<<< HEAD
	<node lat="66.0914861116851" lon="12.613061115922529" id="-8048">
		<tag k="name" v="Sirigrøvo" />
=======
	<node id="-145812" lat="66.1549166623" lon="12.7066888914">
		<tag k="name" v="Storhågjen" />
		<tag k="natural" v="hill" />
>>>>>>> e1d4bc35ff8a6074a6f2e91616a996b547c36f15
		<tag k="place" v="locality" />
		<tag k="ssr:stedsnr" v="410465" />
	</node>
<<<<<<< HEAD
	<node lat="66.03844999776724" lon="12.312983338082192" id="-8051">
		<tag k="name" v="Homannshågjen" />
		<tag k="natural" v="ridge" />
=======
	<node id="-145807" lat="66.0399222208" lon="12.3805916632">
		<tag k="fixme" v="consider natural=peak for the most distinct mountains in the district" />
		<tag k="name" v="Litltinden" />
		<tag k="natural" v="hill" />
>>>>>>> e1d4bc35ff8a6074a6f2e91616a996b547c36f15
		<tag k="place" v="locality" />
		<tag k="ssr:stedsnr" v="410587" />
	</node>
<<<<<<< HEAD
	<node lat="66.14349722380729" lon="12.750400004025872" id="-8056">
		<tag k="name" v="Laupbakkan" />
		<tag k="natural" v="slope" />
=======
	<node id="-145805" lat="66.0365222215" lon="12.3361666723">
		<tag k="name" v="Møyskrevet" />
		<tag k="natural" v="valley" />
>>>>>>> e1d4bc35ff8a6074a6f2e91616a996b547c36f15
		<tag k="place" v="locality" />
		<tag k="ssr:stedsnr" v="410913" />
	</node>
<<<<<<< HEAD
	<node lat="66.02966944818245" lon="12.529002771179336" id="-8065">
		<tag k="name" v="Bershågjen" />
=======
	<node id="-145803" lat="66.0888749983" lon="12.5300638782">
		<tag k="fixme" v="consider natural=peak for the most distinct mountains in the district" />
		<tag k="name" v="Lifjellet" />
>>>>>>> e1d4bc35ff8a6074a6f2e91616a996b547c36f15
		<tag k="natural" v="hill" />
		<tag k="place" v="locality" />
		<tag k="ssr:stedsnr" v="411743" />
	</node>
<<<<<<< HEAD
	<node lat="66.12376388446025" lon="12.531352783962912" id="-8068">
=======
	<node id="-145800" lat="66.2090805546" lon="12.5989777776">
>>>>>>> e1d4bc35ff8a6074a6f2e91616a996b547c36f15
		<tag k="fixme" v="consider natural=peak for the most distinct mountains in the district" />
		<tag k="name" v="Ørntuva" />
		<tag k="natural" v="hill" />
		<tag k="place" v="locality" />
		<tag k="ssr:stedsnr" v="440525" />
	</node>
<<<<<<< HEAD
	<node lat="66.13295555234976" lon="12.507730562398526" id="-8099">
=======
	<node id="-145788" lat="66.1329555523" lon="12.5077305624">
>>>>>>> e1d4bc35ff8a6074a6f2e91616a996b547c36f15
		<tag k="fixme" v="multiple name tags, choose one and add the other to alt_name" />
		<tag k="name" v="Skeisaksla;Urdberget" />
		<tag k="natural" v="hill" />
		<tag k="place" v="locality" />
		<tag k="ssr:stedsnr" v="500672" />
	</node>
<<<<<<< HEAD
	<node lat="66.09916944478425" lon="12.648283327566173" id="-8102">
		<tag k="fixme" v="consider natural=peak for the most distinct mountains in the district" />
		<tag k="name" v="Snarfjellet" />
		<tag k="natural" v="hill" />
=======
	<node id="-145782" lat="66.1713499987" lon="12.6001194401">
		<tag k="name" v="Vardeåsen" />
		<tag k="natural" v="ridge" />
		<tag k="place" v="locality" />
		<tag k="ssr:stedsnr" v="350332" />
	</node>
	<node id="-145776" lat="66.0310999979" lon="12.3590916716">
		<tag k="name" v="Trongskardet" />
		<tag k="natural" v="valley" />
		<tag k="place" v="locality" />
		<tag k="ssr:stedsnr" v="349732" />
	</node>
	<node id="-145773" lat="66.0982111147" lon="12.571508341">
		<tag k="name" v="Vester-Bjørnsfjellet" />
		<tag k="natural" v="cliff" />
		<tag k="ssr:stedsnr" v="349410" />
	</node>
	<node id="-145772" lat="66.095319443" lon="12.4715888951">
		<tag k="name" v="Høglia" />
		<tag k="natural" v="ridge" />
>>>>>>> e1d4bc35ff8a6074a6f2e91616a996b547c36f15
		<tag k="place" v="locality" />
		<tag k="ssr:stedsnr" v="501523" />
	</node>
<<<<<<< HEAD
	<node lat="66.0315388870427" lon="12.347808333658943" id="-8106">
		<tag k="fixme" v="multiple name tags, choose one and add the other to alt_name; consider natural=peak for the most distinct mountains in the district" />
		<tag k="name" v="Åkvikfjellet;Middagsfjellet" />
		<tag k="natural" v="hill" />
=======
	<node id="-145771" lat="66.0883000032" lon="12.4755527675">
		<tag k="name" v="Lian" />
		<tag k="natural" v="slope" />
>>>>>>> e1d4bc35ff8a6074a6f2e91616a996b547c36f15
		<tag k="place" v="locality" />
		<tag k="ssr:stedsnr" v="501858" />
	</node>
<<<<<<< HEAD
	<node lat="66.08887499828633" lon="12.530063878193996" id="-8109">
=======
	<node id="-145770" lat="66.1071777792" lon="12.5116694388">
>>>>>>> e1d4bc35ff8a6074a6f2e91616a996b547c36f15
		<tag k="fixme" v="consider natural=peak for the most distinct mountains in the district" />
		<tag k="name" v="Lifjellet" />
		<tag k="natural" v="hill" />
		<tag k="place" v="locality" />
		<tag k="ssr:stedsnr" v="501944" />
	</node>
<<<<<<< HEAD
	<node lat="66.1329194412717" lon="12.613527769127604" id="-8115">
		<tag k="name" v="Gjesfjordkleppen" />
		<tag k="natural" v="hill" />
		<tag k="place" v="locality" />
		<tag k="ssr:stedsnr" v="521496" />
	</node>
	<node lat="66.10045833166079" lon="12.503233336477745" id="-8122">
		<tag k="name" v="Fjøshågjen" />
=======
	<node id="-145769" lat="66.188083331" lon="12.5930972326">
		<tag k="name" v="Åkvikfloget" />
		<tag k="natural" v="cliff" />
		<tag k="ssr:stedsnr" v="348657" />
	</node>
	<node id="-145768" lat="66.1816277812" lon="12.497116673">
		<tag k="fixme" v="consider natural=peak for the most distinct mountains in the district" />
		<tag k="name" v="Titternesåsen" />
>>>>>>> e1d4bc35ff8a6074a6f2e91616a996b547c36f15
		<tag k="natural" v="hill" />
		<tag k="place" v="locality" />
		<tag k="ssr:stedsnr" v="531076" />
	</node>
<<<<<<< HEAD
	<node lat="66.10283611059647" lon="12.451508322992376" id="-8123">
=======
	<node id="-145760" lat="66.1101527736" lon="12.6385138889">
>>>>>>> e1d4bc35ff8a6074a6f2e91616a996b547c36f15
		<tag k="fixme" v="consider natural=peak for the most distinct mountains in the district" />
		<tag k="name" v="Bjørnåsen" />
		<tag k="natural" v="hill" />
		<tag k="place" v="locality" />
		<tag k="ssr:stedsnr" v="531077" />
	</node>
<<<<<<< HEAD
	<node lat="66.15833611396965" lon="12.732616671195379" id="-8126">
		<tag k="name" v="Linvikhågjen" />
=======
	<node id="-145758" lat="66.0943111068" lon="12.3553055592">
		<tag k="fixme" v="multiple name tags, choose one and add the other to alt_name" />
		<tag k="name" v="Skagaklubben;Valstadklubben" />
>>>>>>> e1d4bc35ff8a6074a6f2e91616a996b547c36f15
		<tag k="natural" v="hill" />
		<tag k="place" v="locality" />
		<tag k="ssr:stedsnr" v="531216" />
	</node>
<<<<<<< HEAD
	<node lat="66.09121389159239" lon="12.492466668363205" id="-8127">
		<tag k="name" v="Meiskelikleppen" />
=======
	<node id="-145757" lat="66.1313277784" lon="12.5169722114">
		<tag k="name" v="Skeisaksla" />
>>>>>>> e1d4bc35ff8a6074a6f2e91616a996b547c36f15
		<tag k="natural" v="ridge" />
		<tag k="place" v="locality" />
		<tag k="ssr:stedsnr" v="531280" />
	</node>
<<<<<<< HEAD
	<node lat="66.15281666365216" lon="12.775952774388209" id="-8128">
		<tag k="name" v="Buskardmoen" />
=======
	<node id="-145756" lat="66.1231805544" lon="12.4952444465">
		<tag k="name" v="Bersnøva" />
		<tag k="natural" v="ridge" />
>>>>>>> e1d4bc35ff8a6074a6f2e91616a996b547c36f15
		<tag k="place" v="locality" />
		<tag k="ssr:stedsnr" v="531231" />
	</node>
<<<<<<< HEAD
	<node lat="66.09106110714691" lon="12.59649165760885" id="-8135">
		<tag k="name" v="Dugmursfjellet" />
		<tag k="natural" v="cliff" />
		<tag k="ssr:stedsnr" v="531465" />
	</node>
	<node lat="66.16655277471165" lon="12.338563889774257" id="-8136">
		<tag k="name" v="Nonshågjen" />
=======
	<node id="-145755" lat="66.1336138905" lon="12.5227527678">
		<tag k="name" v="Skeiskroken" />
		<tag k="natural" v="valley" />
		<tag k="place" v="locality" />
		<tag k="ssr:stedsnr" v="471889" />
	</node>
	<node id="-145752" lat="66.1550305592" lon="12.7476138802">
		<tag k="fixme" v="consider natural=peak for the most distinct mountains in the district" />
		<tag k="name" v="Tverråsen" />
>>>>>>> e1d4bc35ff8a6074a6f2e91616a996b547c36f15
		<tag k="natural" v="hill" />
		<tag k="place" v="locality" />
		<tag k="ssr:stedsnr" v="531707" />
	</node>
<<<<<<< HEAD
	<node lat="66.14296666997902" lon="12.758936115200763" id="-8138">
		<tag k="name" v="Urdslia" />
=======
	<node id="-145751" lat="66.0302888913" lon="12.528830555">
		<tag k="name" v="Nordli" />
>>>>>>> e1d4bc35ff8a6074a6f2e91616a996b547c36f15
		<tag k="natural" v="slope" />
		<tag k="place" v="locality" />
		<tag k="ssr:stedsnr" v="531924" />
	</node>
<<<<<<< HEAD
	<node lat="66.12036666971855" lon="12.572024989444344" id="-8139">
		<tag k="name" v="Vågsfjellet" />
		<tag k="natural" v="cliff" />
		<tag k="ssr:stedsnr" v="531949" />
	</node>
	<node lat="66.16392002330092" lon="12.692885303063111" id="-8141">
=======
	<node id="-145745" lat="66.042316668" lon="12.3682444442">
		<tag k="name" v="Rundten" />
		<tag k="natural" v="ridge" />
		<tag k="place" v="locality" />
		<tag k="ssr:stedsnr" v="471584" />
	</node>
	<node id="-145741" lat="66.0544472186" lon="12.4367916694">
>>>>>>> e1d4bc35ff8a6074a6f2e91616a996b547c36f15
		<tag k="fixme" v="consider natural=peak for the most distinct mountains in the district" />
		<tag k="name" v="Monshågjen" />
		<tag k="natural" v="hill" />
		<tag k="place" v="locality" />
		<tag k="ssr:stedsnr" v="532327" />
	</node>
<<<<<<< HEAD
	<node lat="66.03796111123408" lon="12.544083342176723" id="-8151">
		<tag k="name" v="Nordkløvo" />
		<tag k="natural" v="valley" />
=======
	<node id="-145739" lat="66.1742722216" lon="12.5625888796">
		<tag k="fixme" v="consider natural=peak for the most distinct mountains in the district" />
		<tag k="name" v="Bøåsen" />
		<tag k="natural" v="hill" />
>>>>>>> e1d4bc35ff8a6074a6f2e91616a996b547c36f15
		<tag k="place" v="locality" />
		<tag k="ssr:stedsnr" v="532706" />
	</node>
<<<<<<< HEAD
	<node lat="66.11744444624657" lon="12.484477783360404" id="-8157">
		<tag k="name" v="Klubben" />
		<tag k="natural" v="hill" />
=======
	<node id="-145738" lat="66.0693944445" lon="12.5358500078">
		<tag k="name" v="Liss-smogjet" />
		<tag k="natural" v="valley" />
>>>>>>> e1d4bc35ff8a6074a6f2e91616a996b547c36f15
		<tag k="place" v="locality" />
		<tag k="ssr:stedsnr" v="561512" />
	</node>
<<<<<<< HEAD
	<node lat="66.10462209002614" lon="12.524507913764804" id="-8165">
		<tag k="fixme" v="multiple name tags, choose one and add the other to alt_name" />
		<tag k="name" v="Kleiva;Høgåsen" />
		<tag k="natural" v="hill" />
=======
	<node id="-145735" lat="66.064411108" lon="12.4949999955">
		<tag k="name" v="Biradalen" />
		<tag k="natural" v="valley" />
>>>>>>> e1d4bc35ff8a6074a6f2e91616a996b547c36f15
		<tag k="place" v="locality" />
		<tag k="ssr:stedsnr" v="561560" />
	</node>
<<<<<<< HEAD
	<node lat="66.14313055769733" lon="12.382394445098278" id="-8170">
=======
	<node id="-145733" lat="66.1028249976" lon="12.5270499937">
>>>>>>> e1d4bc35ff8a6074a6f2e91616a996b547c36f15
		<tag k="fixme" v="consider natural=peak for the most distinct mountains in the district" />
		<tag k="name" v="Tårnet" />
		<tag k="natural" v="hill" />
		<tag k="place" v="locality" />
		<tag k="ssr:stedsnr" v="561628" />
	</node>
<<<<<<< HEAD
	<node lat="66.03403611580266" lon="12.340466658293655" id="-8199">
		<tag k="name" v="Skinnbrokskardet" />
		<tag k="natural" v="valley" />
		<tag k="place" v="locality" />
		<tag k="ssr:stedsnr" v="561990" />
	</node>
	<node lat="66.14926111108316" lon="12.393011105921415" id="-8211">
		<tag k="name" v="Hushågjen" />
=======
	<node id="-145731" lat="66.1630944456" lon="12.7118416686">
		<tag k="fixme" v="consider natural=peak for the most distinct mountains in the district" />
		<tag k="name" v="Liss-Kalsåsen" />
>>>>>>> e1d4bc35ff8a6074a6f2e91616a996b547c36f15
		<tag k="natural" v="hill" />
		<tag k="place" v="locality" />
		<tag k="ssr:stedsnr" v="591276" />
	</node>
<<<<<<< HEAD
	<node lat="66.17821111527238" lon="12.497102772326398" id="-8216">
		<tag k="name" v="Sørhågjen" />
=======
	<node id="-145730" lat="66.0774388863" lon="12.3461222275">
		<tag k="name" v="Storhågjen" />
>>>>>>> e1d4bc35ff8a6074a6f2e91616a996b547c36f15
		<tag k="natural" v="hill" />
		<tag k="place" v="locality" />
		<tag k="ssr:stedsnr" v="591395" />
	</node>
<<<<<<< HEAD
	<node lat="66.07742777317888" lon="12.567952784911878" id="-8217">
		<tag k="name" v="Dalafjellet" />
		<tag k="natural" v="hill" />
=======
	<node id="-145724" lat="66.2024750033" lon="12.5972666672">
		<tag k="name" v="Leitebakken" />
		<tag k="natural" v="ridge" />
>>>>>>> e1d4bc35ff8a6074a6f2e91616a996b547c36f15
		<tag k="place" v="locality" />
		<tag k="ssr:stedsnr" v="591489" />
	</node>
<<<<<<< HEAD
	<node lat="66.10610555624653" lon="12.466958343887097" id="-8220">
		<tag k="name" v="Vardhågjen" />
=======
	<node id="-145721" lat="66.1662805589" lon="12.3862388902">
		<tag k="name" v="Nordneshågjen" />
>>>>>>> e1d4bc35ff8a6074a6f2e91616a996b547c36f15
		<tag k="natural" v="hill" />
		<tag k="place" v="locality" />
		<tag k="ssr:stedsnr" v="592082" />
	</node>
<<<<<<< HEAD
	<node lat="66.10890277444759" lon="12.461411116049971" id="-8221">
		<tag k="name" v="Storhågjen" />
		<tag k="natural" v="hill" />
=======
	<node id="-145720" lat="66.0917944407" lon="12.6230888895">
		<tag k="name" v="Høgna" />
		<tag k="natural" v="slope" />
>>>>>>> e1d4bc35ff8a6074a6f2e91616a996b547c36f15
		<tag k="place" v="locality" />
		<tag k="ssr:stedsnr" v="592084" />
	</node>
<<<<<<< HEAD
	<node lat="66.06395000004593" lon="12.500400008855625" id="-8223">
		<tag k="fixme" v="consider natural=peak for the most distinct mountains in the district" />
		<tag k="name" v="Kjerrdalsåsen" />
=======
	<node id="-145719" lat="66.0910083355" lon="12.6332972242">
		<tag k="name" v="Medtihågjen" />
>>>>>>> e1d4bc35ff8a6074a6f2e91616a996b547c36f15
		<tag k="natural" v="hill" />
		<tag k="place" v="locality" />
		<tag k="ssr:stedsnr" v="592416" />
	</node>
<<<<<<< HEAD
	<node lat="66.16573055367927" lon="12.690619436121205" id="-8227">
		<tag k="fixme" v="consider natural=peak for the most distinct mountains in the district" />
		<tag k="name" v="Storhamran" />
=======
	<node id="-145718" lat="66.0929499968" lon="12.5933944376">
		<tag k="name" v="Kløfthågjen" />
>>>>>>> e1d4bc35ff8a6074a6f2e91616a996b547c36f15
		<tag k="natural" v="hill" />
		<tag k="place" v="locality" />
		<tag k="ssr:stedsnr" v="592367" />
	</node>
<<<<<<< HEAD
	<node lat="66.16366666256569" lon="12.716441665443266" id="-8228">
		<tag k="fixme" v="consider natural=peak for the most distinct mountains in the district" />
		<tag k="name" v="Nebban" />
=======
	<node id="-145708" lat="66.101529876" lon="12.6316214399">
		<tag k="name" v="Bjørnsmarka" />
>>>>>>> e1d4bc35ff8a6074a6f2e91616a996b547c36f15
		<tag k="natural" v="hill" />
		<tag k="place" v="locality" />
		<tag k="ssr:stedsnr" v="592373" />
	</node>
<<<<<<< HEAD
	<node lat="66.25311389057994" lon="12.750844455179827" id="-8229">
		<tag k="name" v="Liss-Skardhågjen" />
		<tag k="natural" v="hill" />
=======
	<node id="-145704" lat="66.1509722198" lon="12.7293249937">
		<tag k="name" v="Botnhågjen" />
		<tag k="natural" v="ridge" />
>>>>>>> e1d4bc35ff8a6074a6f2e91616a996b547c36f15
		<tag k="place" v="locality" />
		<tag k="ssr:stedsnr" v="592389" />
	</node>
<<<<<<< HEAD
	<node lat="66.03887499877287" lon="12.33368056408183" id="-8230">
		<tag k="name" v="Trongstrupen" />
=======
	<node id="-145702" lat="66.0306722189" lon="12.3563055475">
		<tag k="name" v="Skardsruten" />
>>>>>>> e1d4bc35ff8a6074a6f2e91616a996b547c36f15
		<tag k="natural" v="valley" />
		<tag k="place" v="locality" />
		<tag k="ssr:stedsnr" v="592616" />
	</node>
<<<<<<< HEAD
	<node lat="66.05893611548913" lon="12.517322220935696" id="-8232">
		<tag k="fixme" v="consider natural=peak for the most distinct mountains in the district" />
		<tag k="name" v="Valafjellet" />
=======
	<node id="-145694" lat="66.1109972243" lon="12.5964888891">
		<tag k="name" v="Sommerfjøshågjen" />
>>>>>>> e1d4bc35ff8a6074a6f2e91616a996b547c36f15
		<tag k="natural" v="hill" />
		<tag k="place" v="locality" />
		<tag k="ssr:stedsnr" v="592636" />
	</node>
<<<<<<< HEAD
	<node lat="66.12156388948452" lon="12.624177769119264" id="-8234">
		<tag k="name" v="Gognstøhågjen" />
=======
	<node id="-145693" lat="66.1125861111" lon="12.5858527831">
		<tag k="name" v="Teibærhågjen" />
>>>>>>> e1d4bc35ff8a6074a6f2e91616a996b547c36f15
		<tag k="natural" v="hill" />
		<tag k="place" v="locality" />
		<tag k="ssr:stedsnr" v="592584" />
	</node>
<<<<<<< HEAD
	<node lat="66.04928888626208" lon="12.571080546174835" id="-8235">
		<tag k="name" v="Merradalen" />
		<tag k="natural" v="valley" />
		<tag k="place" v="locality" />
		<tag k="ssr:stedsnr" v="592586" />
	</node>
	<node lat="66.09999999814347" lon="12.451216661455064" id="-8251">
		<tag k="name" v="Nubben" />
=======
	<node id="-145692" lat="66.1178694428" lon="12.6019388989">
		<tag k="fixme" v="consider natural=peak for the most distinct mountains in the district" />
		<tag k="name" v="Kalkammen" />
>>>>>>> e1d4bc35ff8a6074a6f2e91616a996b547c36f15
		<tag k="natural" v="hill" />
		<tag k="place" v="locality" />
		<tag k="ssr:stedsnr" v="622526" />
	</node>
<<<<<<< HEAD
	<node lat="66.05041567921002" lon="12.449365995061955" id="-8259">
		<tag k="fixme" v="consider natural=peak for the most distinct mountains in the district" />
		<tag k="loc_name" v="Litjtinden" />
		<tag k="name" v="Hestadtinden" />
		<tag k="natural" v="hill" />
=======
	<node id="-145689" lat="66.184574997" lon="12.3488416577">
		<tag k="name" v="Lavollen" />
>>>>>>> e1d4bc35ff8a6074a6f2e91616a996b547c36f15
		<tag k="place" v="locality" />
		<tag k="ssr:stedsnr" v="622977" />
	</node>
<<<<<<< HEAD
	<node lat="66.09185555539631" lon="12.635386108813146" id="-8261">
		<tag k="name" v="Engesvikhammaren" />
		<tag k="natural" v="hill" />
=======
	<node id="-145684" lat="66.1535972227" lon="12.710602777">
		<tag k="name" v="Grønlidalen" />
		<tag k="natural" v="valley" />
>>>>>>> e1d4bc35ff8a6074a6f2e91616a996b547c36f15
		<tag k="place" v="locality" />
		<tag k="ssr:stedsnr" v="622950" />
	</node>
<<<<<<< HEAD
	<node lat="66.13380833738731" lon="12.617844434460615" id="-8263">
		<tag k="name" v="Bufjellet" />
=======
	<node id="-145660" lat="66.08861111" lon="12.3581361053">
		<tag k="name" v="Klubben" />
>>>>>>> e1d4bc35ff8a6074a6f2e91616a996b547c36f15
		<tag k="natural" v="hill" />
		<tag k="place" v="locality" />
		<tag k="ssr:stedsnr" v="643515" />
	</node>
<<<<<<< HEAD
	<node lat="66.07940555220124" lon="12.544461113802738" id="-8266">
		<tag k="name" v="Foradalen" />
=======
	<node id="-145659" lat="66.1724444406" lon="12.7134722139">
		<tag k="name" v="Grøndalen" />
>>>>>>> e1d4bc35ff8a6074a6f2e91616a996b547c36f15
		<tag k="natural" v="valley" />
		<tag k="place" v="locality" />
		<tag k="ssr:stedsnr" v="651524" />
	</node>
<<<<<<< HEAD
	<node lat="66.12064444114917" lon="12.605013877860271" id="-8267">
		<tag k="name" v="Munnarbergan" />
		<tag k="natural" v="slope" />
=======
	<node id="-145655" lat="66.0631500014" lon="12.5269416666">
		<tag k="name" v="Lisshatten" />
		<tag k="natural" v="ridge" />
>>>>>>> e1d4bc35ff8a6074a6f2e91616a996b547c36f15
		<tag k="place" v="locality" />
		<tag k="ssr:stedsnr" v="652523" />
	</node>
<<<<<<< HEAD
	<node lat="66.14853333627242" lon="12.786194441586277" id="-8268">
		<tag k="name" v="Kleppen" />
=======
	<node id="-145651" lat="66.0657166649" lon="12.3948861099">
		<tag k="name" v="Alberthågjen" />
>>>>>>> e1d4bc35ff8a6074a6f2e91616a996b547c36f15
		<tag k="natural" v="ridge" />
		<tag k="place" v="locality" />
		<tag k="ssr:stedsnr" v="652177" />
	</node>
<<<<<<< HEAD
	<node lat="66.14155000248903" lon="12.37495834453335" id="-8269">
		<tag k="name" v="Hestfjellet" />
		<tag k="natural" v="cliff" />
		<tag k="ssr:stedsnr" v="652262" />
	</node>
	<node lat="66.14194166918492" lon="12.368547227267012" id="-8270">
		<tag k="name" v="Storfjellet" />
		<tag k="natural" v="cliff" />
		<tag k="ssr:stedsnr" v="652264" />
	</node>
	<node lat="66.14648611305415" lon="12.695916677529477" id="-8271">
		<tag k="name" v="Lissbukleiva" />
		<tag k="natural" v="slope" />
=======
	<node id="-145650" lat="66.0643861096" lon="12.4026805509">
		<tag k="name" v="Leåsen" />
		<tag k="natural" v="ridge" />
		<tag k="place" v="locality" />
		<tag k="ssr:stedsnr" v="228458" />
	</node>
	<node id="-145649" lat="66.0835888881" lon="12.5833722311">
		<tag k="name" v="Bjørsmartnensplassen" />
		<tag k="place" v="locality" />
		<tag k="ssr:stedsnr" v="228522" />
	</node>
	<node id="-145648" lat="66.1091833359" lon="12.5675555613">
		<tag k="fixme" v="consider natural=peak for the most distinct mountains in the district" />
		<tag k="name" v="Langåsen" />
		<tag k="natural" v="hill" />
>>>>>>> e1d4bc35ff8a6074a6f2e91616a996b547c36f15
		<tag k="place" v="locality" />
		<tag k="ssr:stedsnr" v="652199" />
	</node>
<<<<<<< HEAD
	<node lat="66.08228055672649" lon="12.581461106204845" id="-8274">
		<tag k="name" v="Stihågjen" />
=======
	<node id="-145646" lat="66.1531138895" lon="12.7461444489">
		<tag k="fixme" v="consider natural=peak for the most distinct mountains in the district" />
		<tag k="name" v="Storsteinskardsåsen" />
>>>>>>> e1d4bc35ff8a6074a6f2e91616a996b547c36f15
		<tag k="natural" v="hill" />
		<tag k="place" v="locality" />
		<tag k="ssr:stedsnr" v="652370" />
	</node>
<<<<<<< HEAD
	<node lat="66.20925277978114" lon="12.567505555720084" id="-8277">
		<tag k="fixme" v="consider natural=peak for the most distinct mountains in the district" />
		<tag k="name" v="Skrengsåsen" />
=======
	<node id="-145645" lat="66.1516888854" lon="12.758247231">
		<tag k="name" v="Brennhågan" />
>>>>>>> e1d4bc35ff8a6074a6f2e91616a996b547c36f15
		<tag k="natural" v="hill" />
		<tag k="place" v="locality" />
		<tag k="ssr:stedsnr" v="652727" />
	</node>
<<<<<<< HEAD
	<node lat="66.11221111383192" lon="12.516241676220854" id="-8279">
		<tag k="name" v="Åkerdalen" />
		<tag k="natural" v="valley" />
=======
	<node id="-145644" lat="66.2004055543" lon="12.5828000031">
		<tag k="fixme" v="consider natural=peak for the most distinct mountains in the district" />
		<tag k="name" v="Kjerkåsen" />
		<tag k="natural" v="hill" />
>>>>>>> e1d4bc35ff8a6074a6f2e91616a996b547c36f15
		<tag k="place" v="locality" />
		<tag k="ssr:stedsnr" v="653177" />
	</node>
<<<<<<< HEAD
	<node lat="66.09530278249072" lon="12.421802769149926" id="-8280">
		<tag k="name" v="Kariklubban" />
		<tag k="natural" v="ridge" />
=======
	<node id="-145642" lat="66.0799250029" lon="12.5776555546">
		<tag k="fixme" v="consider natural=peak for the most distinct mountains in the district" />
		<tag k="name" v="Nonshågjen" />
		<tag k="natural" v="hill" />
>>>>>>> e1d4bc35ff8a6074a6f2e91616a996b547c36f15
		<tag k="place" v="locality" />
		<tag k="ssr:stedsnr" v="653266" />
	</node>
<<<<<<< HEAD
	<node lat="66.16491111411591" lon="12.700166658191318" id="-8284">
		<tag k="name" v="Slettskardet" />
=======
	<node id="-145641" lat="66.0770638889" lon="12.5585722322">
		<tag k="name" v="Smogjan" />
>>>>>>> e1d4bc35ff8a6074a6f2e91616a996b547c36f15
		<tag k="natural" v="valley" />
		<tag k="place" v="locality" />
		<tag k="ssr:stedsnr" v="653337" />
	</node>
<<<<<<< HEAD
	<node lat="66.11729999866273" lon="12.595802785704935" id="-8285">
		<tag k="fixme" v="consider natural=peak for the most distinct mountains in the district" />
		<tag k="name" v="Vassbekkåsen" />
=======
	<node id="-145613" lat="66.0904249999" lon="12.4003500055">
		<tag k="name" v="Vedhatten" />
>>>>>>> e1d4bc35ff8a6074a6f2e91616a996b547c36f15
		<tag k="natural" v="hill" />
		<tag k="place" v="locality" />
		<tag k="ssr:stedsnr" v="653295" />
	</node>
<<<<<<< HEAD
	<node lat="66.09754166256825" lon="12.542894452662688" id="-8286">
		<tag k="name" v="Strandlia" />
		<tag k="natural" v="slope" />
=======
	<node id="-145612" lat="66.1237638845" lon="12.531352784">
		<tag k="fixme" v="consider natural=peak for the most distinct mountains in the district" />
		<tag k="name" v="Ørntuva" />
		<tag k="natural" v="hill" />
>>>>>>> e1d4bc35ff8a6074a6f2e91616a996b547c36f15
		<tag k="place" v="locality" />
		<tag k="ssr:stedsnr" v="653348" />
	</node>
<<<<<<< HEAD
	<node lat="66.1047583348118" lon="12.530094440283454" id="-8287">
		<tag k="name" v="Skardet" />
		<tag k="natural" v="valley" />
=======
	<node id="-145594" lat="66.1734250027" lon="12.7010416769">
		<tag k="fixme" v="multiple name tags, choose one and add the other to alt_name; consider natural=peak for the most distinct mountains in the district" />
		<tag k="name" v="Nonsåsen;Våghågjen" />
		<tag k="natural" v="hill" />
>>>>>>> e1d4bc35ff8a6074a6f2e91616a996b547c36f15
		<tag k="place" v="locality" />
		<tag k="ssr:stedsnr" v="653357" />
	</node>
<<<<<<< HEAD
	<node lat="66.17822777570318" lon="12.60480833526029" id="-8288">
=======
	<node id="-145593" lat="66.1696222201" lon="12.7045499972">
>>>>>>> e1d4bc35ff8a6074a6f2e91616a996b547c36f15
		<tag k="fixme" v="consider natural=peak for the most distinct mountains in the district" />
		<tag k="name" v="Sigerstadåsen" />
		<tag k="natural" v="hill" />
		<tag k="place" v="locality" />
		<tag k="ssr:stedsnr" v="653371" />
	</node>
<<<<<<< HEAD
	<node lat="66.1771055519635" lon="12.706880556450722" id="-8289">
		<tag k="name" v="Forhågjen" />
		<tag k="natural" v="hill" />
=======
	<node id="-145583" lat="66.1445388909" lon="12.7749444544">
		<tag k="name" v="Raplidalen" />
		<tag k="natural" v="valley" />
>>>>>>> e1d4bc35ff8a6074a6f2e91616a996b547c36f15
		<tag k="place" v="locality" />
		<tag k="ssr:stedsnr" v="653379" />
	</node>
<<<<<<< HEAD
	<node lat="66.05348055429798" lon="12.507208336701147" id="-8292">
		<tag k="name" v="Nordskardet" />
		<tag k="natural" v="valley" />
=======
	<node id="-145580" lat="66.1387361078" lon="12.3612583425">
		<tag k="name" v="Arskardhågjen" />
		<tag k="natural" v="ridge" />
>>>>>>> e1d4bc35ff8a6074a6f2e91616a996b547c36f15
		<tag k="place" v="locality" />
		<tag k="ssr:stedsnr" v="653514" />
	</node>
<<<<<<< HEAD
	<node lat="66.12138333096311" lon="12.587822227600205" id="-8293">
		<tag k="fixme" v="consider natural=peak for the most distinct mountains in the district" />
		<tag k="name" v="Vassfjellet" />
=======
	<node id="-145579" lat="66.0306027754" lon="12.3193694501">
		<tag k="name" v="Masternakkan" />
>>>>>>> e1d4bc35ff8a6074a6f2e91616a996b547c36f15
		<tag k="natural" v="hill" />
		<tag k="place" v="locality" />
		<tag k="ssr:stedsnr" v="653518" />
	</node>
<<<<<<< HEAD
	<node lat="66.04694444151697" lon="12.367955558472204" id="-8299">
		<tag k="name" v="Alteret" />
=======
	<node id="-145578" lat="66.0356583342" lon="12.3246388832">
		<tag k="name" v="Skiftet" />
>>>>>>> e1d4bc35ff8a6074a6f2e91616a996b547c36f15
		<tag k="place" v="locality" />
		<tag k="ssr:stedsnr" v="653578" />
	</node>
<<<<<<< HEAD
	<node lat="66.08174444167071" lon="12.350569444946585" id="-8303">
		<tag k="name" v="Sleppan" />
=======
	<node id="-145577" lat="66.0398944407" lon="12.4370194542">
		<tag k="name" v="Febergan" />
>>>>>>> e1d4bc35ff8a6074a6f2e91616a996b547c36f15
		<tag k="natural" v="slope" />
		<tag k="place" v="locality" />
		<tag k="ssr:stedsnr" v="712245" />
	</node>
<<<<<<< HEAD
	<node lat="66.16441666428258" lon="12.341230554345973" id="-8304">
		<tag k="name" v="Lysvasstrupen" />
		<tag k="natural" v="valley" />
=======
	<node id="-145576" lat="66.040341669" lon="12.5189388843">
		<tag k="name" v="Gjertrudhågjen" />
		<tag k="natural" v="hill" />
>>>>>>> e1d4bc35ff8a6074a6f2e91616a996b547c36f15
		<tag k="place" v="locality" />
		<tag k="ssr:stedsnr" v="712645" />
	</node>
<<<<<<< HEAD
	<node lat="66.08848610871084" lon="12.581283322888455" id="-8305">
		<tag k="name" v="Svarthølet" />
		<tag k="natural" v="valley" />
		<tag k="place" v="locality" />
		<tag k="ssr:stedsnr" v="712459" />
	</node>
	<node lat="66.15434444143241" lon="12.779227769826914" id="-8306">
		<tag k="name" v="Vallahågjen" />
=======
	<node id="-145575" lat="66.0299194407" lon="12.3297361169">
		<tag k="fixme" v="consider natural=peak for the most distinct mountains in the district" />
		<tag k="name" v="Lunkhågjen" />
>>>>>>> e1d4bc35ff8a6074a6f2e91616a996b547c36f15
		<tag k="natural" v="hill" />
		<tag k="place" v="locality" />
		<tag k="ssr:stedsnr" v="713223" />
	</node>
<<<<<<< HEAD
	<node lat="66.17884722180236" lon="12.500425007337597" id="-8311">
		<tag k="name" v="Bakken" />
		<tag k="natural" v="slope" />
=======
	<node id="-145573" lat="66.0524277762" lon="12.5060916559">
		<tag k="name" v="Langhågjen" />
		<tag k="natural" v="ridge" />
>>>>>>> e1d4bc35ff8a6074a6f2e91616a996b547c36f15
		<tag k="place" v="locality" />
		<tag k="ssr:stedsnr" v="713400" />
	</node>
<<<<<<< HEAD
	<node lat="66.09267500186219" lon="12.426769435058157" id="-8316">
=======
	<node id="-145570" lat="66.1196944452" lon="12.6115194438">
>>>>>>> e1d4bc35ff8a6074a6f2e91616a996b547c36f15
		<tag k="fixme" v="consider natural=peak for the most distinct mountains in the district" />
		<tag k="name" v="Staulåsen" />
		<tag k="natural" v="hill" />
		<tag k="place" v="locality" />
<<<<<<< HEAD
		<tag k="ssr:stedsnr" v="714253" />
	</node>
	<node lat="66.11517499602614" lon="12.625788899327791" id="-8318">
		<tag k="name" v="Moan" />
=======
		<tag k="ssr:stedsnr" v="289566" />
	</node>
	<node id="-145568" lat="66.1761861126" lon="12.7187722286">
		<tag k="name" v="Kjerkåsen" />
		<tag k="natural" v="ridge" />
		<tag k="place" v="locality" />
		<tag k="ssr:stedsnr" v="289392" />
	</node>
	<node id="-145565" lat="66.0542805573" lon="12.4551833414">
		<tag k="name" v="Hestlibotnet" />
		<tag k="natural" v="valley" />
>>>>>>> e1d4bc35ff8a6074a6f2e91616a996b547c36f15
		<tag k="place" v="locality" />
		<tag k="ssr:stedsnr" v="714266" />
	</node>
<<<<<<< HEAD
	<node lat="66.17806944711766" lon="12.612175009769208" id="-8319">
=======
	<node id="-145564" lat="66.1760888906" lon="12.5943027713">
>>>>>>> e1d4bc35ff8a6074a6f2e91616a996b547c36f15
		<tag k="fixme" v="consider natural=peak for the most distinct mountains in the district" />
		<tag k="name" v="Seljeåsen" />
		<tag k="natural" v="hill" />
		<tag k="place" v="locality" />
		<tag k="ssr:stedsnr" v="714323" />
	</node>
<<<<<<< HEAD
	<node lat="66.18109444148699" lon="12.607936101680018" id="-8320">
=======
	<node id="-145559" lat="66.1890250001" lon="12.6182805501">
>>>>>>> e1d4bc35ff8a6074a6f2e91616a996b547c36f15
		<tag k="fixme" v="consider natural=peak for the most distinct mountains in the district" />
		<tag k="name" v="Falkhøyskolten" />
		<tag k="natural" v="hill" />
		<tag k="place" v="locality" />
		<tag k="ssr:stedsnr" v="714326" />
	</node>
<<<<<<< HEAD
	<node lat="66.16390555393292" lon="12.564944453704642" id="-8321">
		<tag k="name" v="Tendrikhågjen" />
=======
	<node id="-145558" lat="66.1667083316" lon="12.3492694341">
		<tag k="name" v="Gognstøhågjen" />
>>>>>>> e1d4bc35ff8a6074a6f2e91616a996b547c36f15
		<tag k="natural" v="hill" />
		<tag k="place" v="locality" />
		<tag k="ssr:stedsnr" v="714329" />
	</node>
<<<<<<< HEAD
	<node lat="66.06183055249754" lon="12.390794440447895" id="-8322">
		<tag k="fixme" v="consider natural=peak for the most distinct mountains in the district" />
		<tag k="name" v="Vassåsen" />
		<tag k="natural" v="hill" />
		<tag k="place" v="locality" />
		<tag k="ssr:stedsnr" v="714354" />
	</node>
	<node lat="66.11979999839835" lon="12.58000555512675" id="-8326">
		<tag k="name" v="Steinskardet" />
=======
	<node id="-145557" lat="66.1672333375" lon="12.3490916722">
		<tag k="name" v="Mannbergan" />
		<tag k="natural" v="slope" />
		<tag k="place" v="locality" />
		<tag k="ssr:stedsnr" v="288628" />
	</node>
	<node id="-145556" lat="66.0947472218" lon="12.5173027856">
		<tag k="name" v="Holandsstrandfjellan" />
		<tag k="natural" v="cliff" />
		<tag k="ssr:stedsnr" v="288443" />
	</node>
	<node id="-145555" lat="66.0802972224" lon="12.4997611103">
		<tag k="name" v="Ravnskardet" />
>>>>>>> e1d4bc35ff8a6074a6f2e91616a996b547c36f15
		<tag k="natural" v="valley" />
		<tag k="place" v="locality" />
		<tag k="ssr:stedsnr" v="714469" />
	</node>
<<<<<<< HEAD
	<node lat="66.04430278085869" lon="12.365683333017015" id="-8327">
		<tag k="name" v="Hagaskardet" />
		<tag k="natural" v="valley" />
=======
	<node id="-145554" lat="66.1468916694" lon="12.3993750043">
		<tag k="name" v="Fjøshågjen" />
		<tag k="natural" v="hill" />
>>>>>>> e1d4bc35ff8a6074a6f2e91616a996b547c36f15
		<tag k="place" v="locality" />
		<tag k="ssr:stedsnr" v="714532" />
	</node>
<<<<<<< HEAD
	<node lat="66.13797221901257" lon="12.621002769809063" id="-8351">
		<tag k="alt_name" v="Gullstadfjellan;Gullstadfjellet" />
=======
	<node id="-145553" lat="66.1537722259" lon="12.3862472186">
>>>>>>> e1d4bc35ff8a6074a6f2e91616a996b547c36f15
		<tag k="fixme" v="consider natural=peak for the most distinct mountains in the district" />
		<tag k="name" v="Gulstadfjellet" />
		<tag k="natural" v="hill" />
		<tag k="place" v="locality" />
		<tag k="ssr:stedsnr" v="743527" />
	</node>
<<<<<<< HEAD
	<node lat="66.18491666826453" lon="12.626075009805437" id="-8370">
		<tag k="name" v="Helia" />
		<tag k="natural" v="slope" />
		<tag k="place" v="locality" />
		<tag k="ssr:stedsnr" v="773657" />
	</node>
	<node lat="66.07958610801201" lon="12.52651387969257" id="-8371">
		<tag k="fixme" v="consider natural=peak for the most distinct mountains in the district" />
		<tag k="name" v="Grønåsen" />
=======
	<node id="-145552" lat="66.0875638926" lon="12.5923138828">
		<tag k="name" v="Karihågjen" />
>>>>>>> e1d4bc35ff8a6074a6f2e91616a996b547c36f15
		<tag k="natural" v="hill" />
		<tag k="place" v="locality" />
		<tag k="ssr:stedsnr" v="772495" />
	</node>
<<<<<<< HEAD
	<node lat="66.1555916688052" lon="12.75859723100784" id="-8372">
		<tag k="name" v="Hornssommarhågan" />
=======
	<node id="-145551" lat="66.0921333351" lon="12.6348166645">
		<tag k="fixme" v="consider natural=peak for the most distinct mountains in the district" />
		<tag k="name" v="Hatten" />
>>>>>>> e1d4bc35ff8a6074a6f2e91616a996b547c36f15
		<tag k="natural" v="hill" />
		<tag k="place" v="locality" />
		<tag k="ssr:stedsnr" v="773249" />
	</node>
<<<<<<< HEAD
	<node lat="66.09455833136143" lon="12.599125009939906" id="-8376">
		<tag k="name" v="Mariskardhågjen" />
=======
	<node id="-145550" lat="66.0930944472" lon="12.6397694526">
		<tag k="name" v="Hidelhågjen" />
>>>>>>> e1d4bc35ff8a6074a6f2e91616a996b547c36f15
		<tag k="natural" v="ridge" />
		<tag k="place" v="locality" />
		<tag k="ssr:stedsnr" v="774474" />
	</node>
<<<<<<< HEAD
	<node lat="66.09213889143788" lon="12.58821944582087" id="-8378">
		<tag k="name" v="Fjøshågjen" />
		<tag k="natural" v="hill" />
=======
	<node id="-145545" lat="66.1120694415" lon="12.4973083397">
		<tag k="name" v="Junsdalen" />
		<tag k="natural" v="valley" />
>>>>>>> e1d4bc35ff8a6074a6f2e91616a996b547c36f15
		<tag k="place" v="locality" />
		<tag k="ssr:stedsnr" v="774487" />
	</node>
<<<<<<< HEAD
	<node lat="66.0867222199208" lon="12.44684721892278" id="-8379">
		<tag k="name" v="Kvaløyhågjen" />
=======
	<node id="-145543" lat="66.0275722229" lon="12.536886106">
		<tag k="name" v="Løvøyhatten" />
>>>>>>> e1d4bc35ff8a6074a6f2e91616a996b547c36f15
		<tag k="natural" v="ridge" />
		<tag k="place" v="locality" />
		<tag k="ssr:stedsnr" v="774278" />
	</node>
<<<<<<< HEAD
	<node lat="66.1120611122031" lon="12.59371944686805" id="-8381">
		<tag k="name" v="Kvithågjen" />
=======
	<node id="-145540" lat="66.0391166633" lon="12.4503249981">
		<tag k="name" v="Høghågjen" />
>>>>>>> e1d4bc35ff8a6074a6f2e91616a996b547c36f15
		<tag k="natural" v="hill" />
		<tag k="place" v="locality" />
		<tag k="ssr:stedsnr" v="774363" />
	</node>
<<<<<<< HEAD
	<node lat="66.09142777439949" lon="12.43543055453407" id="-8383">
		<tag k="fixme" v="consider natural=peak for the most distinct mountains in the district" />
		<tag k="name" v="Hushågjen" />
		<tag k="natural" v="hill" />
=======
	<node id="-145539" lat="66.0702166641" lon="12.4861111189">
		<tag k="name" v="Reinhagen" />
		<tag k="natural" v="valley" />
>>>>>>> e1d4bc35ff8a6074a6f2e91616a996b547c36f15
		<tag k="place" v="locality" />
		<tag k="ssr:stedsnr" v="774330" />
	</node>
<<<<<<< HEAD
	<node lat="66.12459999662843" lon="12.616669449756433" id="-8387">
		<tag k="name" v="Sjurberget" />
		<tag k="natural" v="ridge" />
		<tag k="place" v="locality" />
		<tag k="ssr:stedsnr" v="774588" />
	</node>
	<node lat="66.19895832917233" lon="12.601372229148893" id="-8388">
=======
	<node id="-145537" lat="66.059149999" lon="12.3994027872">
		<tag k="name" v="Sandmoan" />
		<tag k="place" v="locality" />
		<tag k="ssr:stedsnr" v="168417" />
	</node>
	<node id="-145536" lat="66.0383555526" lon="12.5440749937">
		<tag k="name" v="Skorpfjellet" />
		<tag k="natural" v="cliff" />
		<tag k="ssr:stedsnr" v="168522" />
	</node>
	<node id="-145535" lat="66.0439722254" lon="12.5286555541">
>>>>>>> e1d4bc35ff8a6074a6f2e91616a996b547c36f15
		<tag k="fixme" v="consider natural=peak for the most distinct mountains in the district" />
		<tag k="name" v="Steinsvikåsen" />
		<tag k="natural" v="hill" />
		<tag k="place" v="locality" />
		<tag k="ssr:stedsnr" v="774693" />
	</node>
<<<<<<< HEAD
	<node lat="66.03692777402668" lon="12.350602782957376" id="-8394">
		<tag k="name" v="Hestdalen" />
=======
	<node id="-145534" lat="66.1618527745" lon="12.5759194441">
		<tag k="name" v="Koven" />
>>>>>>> e1d4bc35ff8a6074a6f2e91616a996b547c36f15
		<tag k="natural" v="valley" />
		<tag k="place" v="locality" />
		<tag k="ssr:stedsnr" v="775573" />
	</node>
<<<<<<< HEAD
	<node lat="66.0604833311188" lon="12.39068332243736" id="-8395">
=======
	<node id="-145533" lat="66.1636555568" lon="12.5851250037">
>>>>>>> e1d4bc35ff8a6074a6f2e91616a996b547c36f15
		<tag k="fixme" v="consider natural=peak for the most distinct mountains in the district" />
		<tag k="name" v="Meåsen" />
		<tag k="natural" v="hill" />
		<tag k="place" v="locality" />
		<tag k="ssr:stedsnr" v="775383" />
	</node>
<<<<<<< HEAD
	<node lat="66.11762778134143" lon="12.532133328672321" id="-8406">
		<tag k="fixme" v="consider natural=peak for the most distinct mountains in the district" />
		<tag k="name" v="Nubban" />
		<tag k="natural" v="hill" />
=======
	<node id="-145531" lat="66.1761916631" lon="12.724100008">
		<tag k="name" v="Eiaberget" />
		<tag k="natural" v="slope" />
>>>>>>> e1d4bc35ff8a6074a6f2e91616a996b547c36f15
		<tag k="place" v="locality" />
		<tag k="ssr:stedsnr" v="804532" />
	</node>
<<<<<<< HEAD
	<node lat="66.14967500102858" lon="12.715349990439192" id="-8422">
=======
	<node id="-145530" lat="66.1663055592" lon="12.7368083396">
>>>>>>> e1d4bc35ff8a6074a6f2e91616a996b547c36f15
		<tag k="fixme" v="consider natural=peak for the most distinct mountains in the district" />
		<tag k="name" v="Kopardalsfjellet" />
		<tag k="natural" v="hill" />
		<tag k="place" v="locality" />
<<<<<<< HEAD
		<tag k="ssr:stedsnr" v="804619" />
	</node>
	<node lat="66.13657777311357" lon="12.562486120380868" id="-8424">
		<tag k="name" v="Ørntuva" />
=======
		<tag k="ssr:stedsnr" v="168354" />
	</node>
	<node id="-145528" lat="66.138533331" lon="12.3637000028">
		<tag k="name" v="Arskardfloget" />
		<tag k="natural" v="cliff" />
		<tag k="ssr:stedsnr" v="167906" />
	</node>
	<node id="-145526" lat="66.1211388878" lon="12.6521166557">
		<tag k="name" v="Hamran" />
>>>>>>> e1d4bc35ff8a6074a6f2e91616a996b547c36f15
		<tag k="natural" v="hill" />
		<tag k="place" v="locality" />
		<tag k="ssr:stedsnr" v="804629" />
	</node>
<<<<<<< HEAD
	<node lat="66.08650832903754" lon="12.540358329921947" id="-8433">
		<tag k="name" v="Lauklia" />
		<tag k="natural" v="slope" />
=======
	<node id="-145524" lat="66.1672861084" lon="12.341683333">
		<tag k="name" v="Galtgrindhågjen" />
		<tag k="natural" v="hill" />
>>>>>>> e1d4bc35ff8a6074a6f2e91616a996b547c36f15
		<tag k="place" v="locality" />
		<tag k="ssr:stedsnr" v="804945" />
	</node>
<<<<<<< HEAD
	<node lat="66.14481389246137" lon="12.718633340627933" id="-8439">
=======
	<node id="-145521" lat="66.0835972249" lon="12.4025250021">
>>>>>>> e1d4bc35ff8a6074a6f2e91616a996b547c36f15
		<tag k="fixme" v="consider natural=peak for the most distinct mountains in the district" />
		<tag k="name" v="Skjørbuåsen" />
		<tag k="natural" v="hill" />
		<tag k="place" v="locality" />
		<tag k="ssr:stedsnr" v="834260" />
	</node>
<<<<<<< HEAD
	<node lat="66.14929999717127" lon="12.400755563449097" id="-8447">
		<tag k="name" v="Skjyskardhågjen" />
=======
	<node id="-145520" lat="66.1009138864" lon="12.5529749965">
		<tag k="name" v="Hushågjen" />
>>>>>>> e1d4bc35ff8a6074a6f2e91616a996b547c36f15
		<tag k="natural" v="hill" />
		<tag k="place" v="locality" />
		<tag k="ssr:stedsnr" v="834301" />
	</node>
<<<<<<< HEAD
	<node lat="66.07772499675141" lon="12.54963056372172" id="-8450">
		<tag k="name" v="Bjørndalen" />
		<tag k="natural" v="valley" />
=======
	<node id="-145519" lat="66.107747219" lon="12.6344138919">
		<tag k="name" v="Stormarkfjellet" />
		<tag k="natural" v="hill" />
>>>>>>> e1d4bc35ff8a6074a6f2e91616a996b547c36f15
		<tag k="place" v="locality" />
		<tag k="ssr:stedsnr" v="834495" />
	</node>
<<<<<<< HEAD
	<node lat="66.20065000087837" lon="12.544655554408848" id="-8452">
		<tag k="name" v="Manngjota" />
=======
	<node id="-145517" lat="66.1466055534" lon="12.3972527865">
		<tag k="name" v="Engskardet" />
		<tag k="natural" v="valley" />
>>>>>>> e1d4bc35ff8a6074a6f2e91616a996b547c36f15
		<tag k="place" v="locality" />
		<tag k="ssr:stedsnr" v="834643" />
	</node>
<<<<<<< HEAD
	<node lat="66.09576666287097" lon="12.452938891985733" id="-8460">
		<tag k="name" v="Nordmyrhågjen" />
=======
	<node id="-145516" lat="66.0798499992" lon="12.3552749982">
		<tag k="name" v="Bukkbergan" />
>>>>>>> e1d4bc35ff8a6074a6f2e91616a996b547c36f15
		<tag k="natural" v="ridge" />
		<tag k="place" v="locality" />
		<tag k="ssr:stedsnr" v="835252" />
	</node>
	<node lat="66.11585785984282" lon="12.64038680857838" id="-8462">
		<tag k="name" v="Skjånesfjellet" />
		<tag k="natural" v="hill" />
		<tag k="place" v="locality" />
		<tag k="ssr:stedsnr" v="835319" />
	</node>
<<<<<<< HEAD
	<node lat="66.08434444216294" lon="12.38616943393867" id="-8463">
=======
	<node id="-145512" lat="66.0771194488" lon="12.5344027726">
>>>>>>> e1d4bc35ff8a6074a6f2e91616a996b547c36f15
		<tag k="fixme" v="consider natural=peak for the most distinct mountains in the district" />
		<tag k="name" v="Knudsåsen" />
		<tag k="natural" v="hill" />
		<tag k="place" v="locality" />
		<tag k="ssr:stedsnr" v="835264" />
	</node>
<<<<<<< HEAD
	<node lat="66.10291666649344" lon="12.568380547405743" id="-8468">
		<tag k="name" v="Breiskardet" />
=======
	<node id="-145511" lat="66.0894000006" lon="12.5433333345">
		<tag k="name" v="Finnlægret" />
>>>>>>> e1d4bc35ff8a6074a6f2e91616a996b547c36f15
		<tag k="natural" v="valley" />
		<tag k="place" v="locality" />
		<tag k="ssr:stedsnr" v="835374" />
	</node>
<<<<<<< HEAD
	<node lat="66.17956944493818" lon="12.505661109721462" id="-8470">
		<tag k="name" v="Brekka" />
		<tag k="natural" v="slope" />
=======
	<node id="-145510" lat="66.1800527736" lon="12.4862249974">
		<tag k="name" v="Ørntuva" />
		<tag k="natural" v="hill" />
>>>>>>> e1d4bc35ff8a6074a6f2e91616a996b547c36f15
		<tag k="place" v="locality" />
		<tag k="ssr:stedsnr" v="835445" />
	</node>
<<<<<<< HEAD
	<node lat="66.04433611532023" lon="12.481211109992161" id="-8475">
		<tag k="name" v="Jørginushumpen" />
		<tag k="natural" v="ridge" />
=======
	<node id="-145492" lat="66.1672750036" lon="12.7415833413">
		<tag k="fixme" v="multiple name tags, choose one and add the other to alt_name; consider natural=peak for the most distinct mountains in the district" />
		<tag k="name" v="Kleppen;Sundskleppen" />
		<tag k="natural" v="hill" />
>>>>>>> e1d4bc35ff8a6074a6f2e91616a996b547c36f15
		<tag k="place" v="locality" />
		<tag k="ssr:stedsnr" v="835563" />
	</node>
<<<<<<< HEAD
	<node lat="66.03729722611952" lon="12.439988880033225" id="-8477">
		<tag k="name" v="Strandhågjen" />
=======
	<node id="-145485" lat="66.2146083339" lon="12.5883944346">
		<tag k="name" v="Kallkleppen" />
>>>>>>> e1d4bc35ff8a6074a6f2e91616a996b547c36f15
		<tag k="natural" v="hill" />
		<tag k="place" v="locality" />
		<tag k="ssr:stedsnr" v="835570" />
	</node>
<<<<<<< HEAD
	<node lat="66.17863889180052" lon="12.620147233441738" id="-8483">
		<tag k="name" v="Leikhågjen" />
=======
	<node id="-145481" lat="66.0589333295" lon="12.5267027669">
		<tag k="name" v="Grindfjellet" />
>>>>>>> e1d4bc35ff8a6074a6f2e91616a996b547c36f15
		<tag k="natural" v="hill" />
		<tag k="place" v="locality" />
		<tag k="ssr:stedsnr" v="836337" />
	</node>
<<<<<<< HEAD
	<node lat="66.17696110790233" lon="12.71741944343874" id="-8484">
		<tag k="name" v="Lofotåsen" />
		<tag k="natural" v="ridge" />
=======
	<node id="-145474" lat="66.0973555538" lon="12.4195694499">
		<tag k="name" v="Skagalandet" />
>>>>>>> e1d4bc35ff8a6074a6f2e91616a996b547c36f15
		<tag k="place" v="locality" />
		<tag k="ssr:stedsnr" v="836343" />
	</node>
<<<<<<< HEAD
	<node lat="66.18014166933433" lon="12.73898332486484" id="-8486">
=======
	<node id="-145470" lat="66.1149611102" lon="12.5289527772">
>>>>>>> e1d4bc35ff8a6074a6f2e91616a996b547c36f15
		<tag k="fixme" v="consider natural=peak for the most distinct mountains in the district" />
		<tag k="name" v="Høgåsen" />
		<tag k="natural" v="hill" />
		<tag k="place" v="locality" />
<<<<<<< HEAD
		<tag k="ssr:stedsnr" v="865010" />
	</node>
	<node lat="66.14896944287302" lon="12.782224991851056" id="-8490">
		<tag k="name" v="Moan" />
		<tag k="place" v="locality" />
		<tag k="ssr:stedsnr" v="865212" />
	</node>
	<node lat="66.10105500776972" lon="12.63383492718995" id="-8503">
=======
		<tag k="ssr:stedsnr" v="258499" />
	</node>
	<node id="-145464" lat="66.0714138856" lon="12.5219444455">
		<tag k="name" v="Baklia" />
		<tag k="natural" v="slope" />
		<tag k="place" v="locality" />
		<tag k="ssr:stedsnr" v="46404" />
	</node>
	<node id="-145463" lat="66.0688722225" lon="12.5292805514">
		<tag k="name" v="Svarthatten" />
		<tag k="natural" v="hill" />
		<tag k="place" v="locality" />
		<tag k="ssr:stedsnr" v="46401" />
	</node>
	<node id="-145462" lat="66.117091669" lon="12.5047333381">
		<tag k="name" v="Vikafjellet" />
		<tag k="natural" v="cliff" />
		<tag k="ssr:stedsnr" v="42115" />
	</node>
	<node id="-145459" lat="66.1735388873" lon="12.7106999905">
>>>>>>> e1d4bc35ff8a6074a6f2e91616a996b547c36f15
		<tag k="fixme" v="consider natural=peak for the most distinct mountains in the district" />
		<tag k="name" v="Nordmarkfjellet" />
		<tag k="natural" v="hill" />
		<tag k="place" v="locality" />
		<tag k="ssr:stedsnr" v="865556" />
	</node>
<<<<<<< HEAD
	<node lat="66.10334487523805" lon="12.664508876180307" id="-8504">
		<tag k="alt_name" v="Holten" />
		<tag k="name" v="Bjørnsholten" />
=======
	<node id="-145456" lat="66.1665722203" lon="12.3346361129">
		<tag k="name" v="Jobonhågjen" />
>>>>>>> e1d4bc35ff8a6074a6f2e91616a996b547c36f15
		<tag k="natural" v="hill" />
		<tag k="place" v="locality" />
		<tag k="ssr:stedsnr" v="865568" />
	</node>
<<<<<<< HEAD
	<node lat="66.12784444623627" lon="12.606455548618296" id="-8520">
		<tag k="name" v="Husfjellet" />
		<tag k="natural" v="hill" />
		<tag k="place" v="locality" />
		<tag k="ssr:stedsnr" v="865528" />
	</node>
	<node lat="66.10907777510535" lon="12.533052781294886" id="-8521">
		<tag k="name" v="Tronga" />
=======
	<node id="-145452" lat="66.0328527802" lon="12.3548416595">
		<tag k="name" v="Stokksteinshågjen" />
		<tag k="natural" v="hill" />
		<tag k="place" v="locality" />
		<tag k="ssr:stedsnr" v="228682" />
	</node>
	<node id="-145449" lat="66.0736527733" lon="12.5021138908">
		<tag k="name" v="Vesterendet" />
		<tag k="natural" v="ridge" />
		<tag k="place" v="locality" />
		<tag k="ssr:stedsnr" v="228479" />
	</node>
	<node id="-145446" lat="66.1789972182" lon="12.7238555464">
		<tag k="name" v="Tjyvkoven" />
>>>>>>> e1d4bc35ff8a6074a6f2e91616a996b547c36f15
		<tag k="natural" v="valley" />
		<tag k="place" v="locality" />
		<tag k="ssr:stedsnr" v="865533" />
	</node>
<<<<<<< HEAD
	<node lat="66.0846916680124" lon="12.342402783656222" id="-8538">
		<tag k="name" v="Langvågjen" />
=======
	<node id="-145445" lat="66.1789777735" lon="12.7315750037">
		<tag k="name" v="Høgåsskardet" />
		<tag k="natural" v="valley" />
>>>>>>> e1d4bc35ff8a6074a6f2e91616a996b547c36f15
		<tag k="place" v="locality" />
		<tag k="ssr:stedsnr" v="955276" />
	</node>
<<<<<<< HEAD
	<node lat="66.09061388816986" lon="12.365141658997466" id="-8539">
		<tag k="name" v="Bjørnstaklubben" />
=======
	<node id="-145444" lat="66.1081305534" lon="12.5712777744">
		<tag k="fixme" v="consider natural=peak for the most distinct mountains in the district" />
		<tag k="name" v="Kjøråsen" />
>>>>>>> e1d4bc35ff8a6074a6f2e91616a996b547c36f15
		<tag k="natural" v="hill" />
		<tag k="place" v="locality" />
		<tag k="ssr:stedsnr" v="955280" />
	</node>
<<<<<<< HEAD
	<node lat="66.18618611404152" lon="12.616661122469917" id="-8543">
=======
	<node id="-145443" lat="66.1147138864" lon="12.5724277723">
>>>>>>> e1d4bc35ff8a6074a6f2e91616a996b547c36f15
		<tag k="fixme" v="consider natural=peak for the most distinct mountains in the district" />
		<tag k="name" v="Langåsen" />
		<tag k="natural" v="hill" />
		<tag k="place" v="locality" />
		<tag k="ssr:stedsnr" v="955683" />
	</node>
<<<<<<< HEAD
	<node lat="66.1516583315592" lon="12.784436110563812" id="-8545">
		<tag k="name" v="Båtnesmarka" />
		<tag k="natural" v="slope" />
=======
	<node id="-145440" lat="66.1030972229" lon="12.4699666776">
		<tag k="fixme" v="consider natural=peak for the most distinct mountains in the district" />
		<tag k="name" v="Gårdsåsen" />
		<tag k="natural" v="hill" />
>>>>>>> e1d4bc35ff8a6074a6f2e91616a996b547c36f15
		<tag k="place" v="locality" />
		<tag k="ssr:stedsnr" v="956247" />
	</node>
<<<<<<< HEAD
	<node lat="66.15429999600805" lon="12.773355554760519" id="-8546">
		<tag k="name" v="Kvithello" />
=======
	<node id="-145439" lat="66.1022166684" lon="12.4603722238">
		<tag k="fixme" v="consider natural=peak for the most distinct mountains in the district" />
		<tag k="name" v="Harråsen" />
>>>>>>> e1d4bc35ff8a6074a6f2e91616a996b547c36f15
		<tag k="natural" v="hill" />
		<tag k="place" v="locality" />
		<tag k="ssr:stedsnr" v="956249" />
	</node>
<<<<<<< HEAD
	<node lat="66.08541111068854" lon="12.396144452153976" id="-8548">
		<tag k="name" v="Knudsvågjen" />
		<tag k="natural" v="valley" />
=======
	<node id="-145438" lat="66.1021333307" lon="12.499008339">
		<tag k="fixme" v="consider natural=peak for the most distinct mountains in the district" />
		<tag k="name" v="Storkleiva" />
		<tag k="natural" v="hill" />
>>>>>>> e1d4bc35ff8a6074a6f2e91616a996b547c36f15
		<tag k="place" v="locality" />
		<tag k="ssr:stedsnr" v="956273" />
	</node>
<<<<<<< HEAD
	<node lat="66.08679722018587" lon="12.405427771590153" id="-8549">
		<tag k="name" v="Breistrandskardet" />
		<tag k="natural" v="valley" />
=======
	<node id="-145436" lat="66.090502777" lon="12.555261111">
		<tag k="name" v="Felia" />
		<tag k="natural" v="slope" />
>>>>>>> e1d4bc35ff8a6074a6f2e91616a996b547c36f15
		<tag k="place" v="locality" />
		<tag k="ssr:stedsnr" v="956278" />
	</node>
<<<<<<< HEAD
	<node lat="66.11501389136284" lon="12.585502769185922" id="-8554">
		<tag k="fixme" v="consider natural=peak for the most distinct mountains in the district" />
		<tag k="name" v="Andfinnåsen" />
=======
	<node id="-145432" lat="66.1589722196" lon="12.7616583292">
		<tag k="name" v="Røytvollhågjen" />
>>>>>>> e1d4bc35ff8a6074a6f2e91616a996b547c36f15
		<tag k="natural" v="hill" />
		<tag k="place" v="locality" />
		<tag k="ssr:stedsnr" v="956359" />
	</node>
<<<<<<< HEAD
	<node lat="66.08955555234094" lon="12.603933338951677" id="-8555">
		<tag k="name" v="Ørnhågjen" />
=======
	<node id="-145431" lat="66.082452782" lon="12.5336194416">
		<tag k="fixme" v="consider natural=peak for the most distinct mountains in the district" />
		<tag k="name" v="Myrskjååsen" />
>>>>>>> e1d4bc35ff8a6074a6f2e91616a996b547c36f15
		<tag k="natural" v="hill" />
		<tag k="place" v="locality" />
		<tag k="ssr:stedsnr" v="956497" />
	</node>
<<<<<<< HEAD
	<node lat="66.09462777911983" lon="12.580752788759854" id="-8557">
		<tag k="name" v="Hekkelberget" />
=======
	<node id="-145429" lat="66.049975002" lon="12.5743361052">
		<tag k="name" v="Skorphaugen" />
>>>>>>> e1d4bc35ff8a6074a6f2e91616a996b547c36f15
		<tag k="natural" v="hill" />
		<tag k="place" v="locality" />
		<tag k="ssr:stedsnr" v="956553" />
	</node>
	<node lat="66.03523333377392" lon="12.430722224210305" id="-8561">
		<tag k="name" v="Nerkleiva" />
		<tag k="natural" v="ridge" />
		<tag k="place" v="locality" />
		<tag k="ssr:stedsnr" v="957512" />
	</node>
<<<<<<< HEAD
	<node lat="66.04268888537939" lon="12.52403610205133" id="-8563">
=======
	<node id="-145428" lat="66.0472138931" lon="12.3957750114">
>>>>>>> e1d4bc35ff8a6074a6f2e91616a996b547c36f15
		<tag k="fixme" v="consider natural=peak for the most distinct mountains in the district" />
		<tag k="name" v="Jonsokåsen" />
		<tag k="natural" v="hill" />
		<tag k="place" v="locality" />
		<tag k="ssr:stedsnr" v="957524" />
	</node>
	<node lat="66.17014167022107" lon="12.614097223429255" id="-8564">
		<tag k="name" v="Skjåsletta" />
		<tag k="place" v="locality" />
		<tag k="ssr:stedsnr" v="957365" />
	</node>
	<node lat="66.06953333683659" lon="12.572108323737867" id="-8566">
		<tag k="name" v="Høgnan" />
		<tag k="natural" v="slope" />
		<tag k="place" v="locality" />
		<tag k="ssr:stedsnr" v="957375" />
	</node>
	<node lat="66.04097500137773" lon="12.563019446062087" id="-8568">
		<tag k="name" v="Tyttebærstaden" />
		<tag k="natural" v="ridge" />
		<tag k="place" v="locality" />
		<tag k="ssr:stedsnr" v="957526" />
	</node>
</osm>
