<?xml version="1.0" encoding="UTF-8"?>
<<<<<<< HEAD
<osm version="0.6" generator="osmapis">
	<node lat="66.0820055560753" lon="12.585305557073708" id="-7037">
		<tag k="amenity" v="ferry_terminal" />
		<tag k="name" v="Bjørn" />
		<tag k="ssr:stedsnr" v="258944" />
	</node>
	<node lat="66.10331389068465" lon="12.550169440964977" id="-7291">
		<tag k="ford" v="yes" />
		<tag k="name" v="Vaet" />
		<tag k="place" v="locality" />
		<tag k="ssr:stedsnr" v="471364" />
	</node>
	<node lat="66.16852499765454" lon="12.56305276928219" id="-7631">
=======
<osm generator="osmapis" version="0.6">
	<node id="-145567" lat="66.1694277763" lon="12.5729972171">
		<tag k="man_made" v="quay" />
		<tag k="name" v="Engevikja" />
		<tag k="place" v="locality" />
		<tag k="ssr:stedsnr" v="289439" />
	</node>
	<node id="-146167" lat="66.1685249977" lon="12.5630527693">
>>>>>>> e1d4bc35ff8a6074a6f2e91616a996b547c36f15
		<tag k="man_made" v="quay" />
		<tag k="name" v="Åkerneset" />
		<tag k="place" v="locality" />
		<tag k="ssr:stedsnr" v="957418" />
	</node>
<<<<<<< HEAD
	<node lat="66.14197791462527" lon="12.69773670183043" id="-7845">
=======
	<node id="-145489" lat="66.0820055561" lon="12.5853055571">
		<tag k="amenity" v="ferry_terminal" />
		<tag k="name" v="Bjørn" />
		<tag k="ssr:stedsnr" v="258944" />
	</node>
	<node id="-146444" lat="66.1419779146" lon="12.6977367018">
>>>>>>> e1d4bc35ff8a6074a6f2e91616a996b547c36f15
		<tag k="amenity" v="ferry_terminal" />
		<tag k="name" v="Kopardal" />
		<tag k="ssr:stedsnr" v="197568" />
	</node>
<<<<<<< HEAD
	<node lat="66.08083611203502" lon="12.363283335326521" id="-7878">
=======
	<node id="-145448" lat="66.080836112" lon="12.3632833353">
>>>>>>> e1d4bc35ff8a6074a6f2e91616a996b547c36f15
		<tag k="landuse" v="harbour" />
		<tag k="name" v="Skagasjyen" />
		<tag k="seamark:type" v="harbour" />
		<tag k="ssr:stedsnr" v="228321" />
	</node>
<<<<<<< HEAD
	<node lat="66.1694277762816" lon="12.572997217136832" id="-7916">
		<tag k="man_made" v="quay" />
		<tag k="name" v="Engevikja" />
		<tag k="place" v="locality" />
		<tag k="ssr:stedsnr" v="289439" />
=======
	<node id="-145734" lat="66.1033138907" lon="12.550169441">
		<tag k="ford" v="yes" />
		<tag k="name" v="Vaet" />
		<tag k="place" v="locality" />
		<tag k="ssr:stedsnr" v="471364" />
>>>>>>> e1d4bc35ff8a6074a6f2e91616a996b547c36f15
	</node>
</osm>
