<?xml version="1.0" encoding="UTF-8"?>
<<<<<<< HEAD
<osm version="0.6" generator="osmapis">
	<node lat="66.02904999911779" lon="12.37426665841697" id="-6907">
		<tag k="name" v="Vollan" />
		<tag k="place" v="locality" />
		<tag k="ssr:stedsnr" v="229747" />
	</node>
	<node lat="66.21340833387731" lon="12.57833334327283" id="-6933">
		<tag k="name" v="Myran" />
=======
<osm generator="osmapis" version="0.6">
	<node id="-147072" lat="66.0355361072" lon="12.4284638903">
		<tag k="name" v="Mølnskardmyro" />
		<tag k="natural" v="wetland" />
		<tag k="ssr:stedsnr" v="957513" />
	</node>
	<node id="-146966" lat="66.1800527757" lon="12.5034833373">
		<tag k="name" v="Lasken" />
		<tag k="place" v="locality" />
		<tag k="ssr:stedsnr" v="835443" />
	</node>
	<node id="-145917" lat="66.1792916639" lon="12.4773083371">
		<tag k="name" v="Titternes" />
		<tag k="place" v="locality" />
		<tag k="ssr:stedsnr" v="712443" />
	</node>
	<node id="-146595" lat="66.0836138895" lon="12.4583888893">
		<tag k="name" v="Langmyro" />
		<tag k="natural" v="wetland" />
		<tag k="ssr:stedsnr" v="410271" />
	</node>
	<node id="-147065" lat="66.171102782" lon="12.7020972134">
		<tag k="name" v="Helvetesmyra" />
		<tag k="natural" v="wetland" />
		<tag k="ssr:stedsnr" v="957374" />
	</node>
	<node id="-146806" lat="66.159369448" lon="12.7902416689">
		<tag k="name" v="Buvollen" />
		<tag k="place" v="locality" />
		<tag k="ssr:stedsnr" v="652190" />
	</node>
	<node id="-145652" lat="66.170455554" lon="12.5532666608">
		<tag k="name" v="Åkermyro" />
		<tag k="natural" v="wetland" />
		<tag k="ssr:stedsnr" v="228470" />
	</node>
	<node id="-146803" lat="66.1800666665" lon="12.5505305448">
		<tag k="name" v="Stavsengmyran" />
		<tag k="natural" v="wetland" />
		<tag k="ssr:stedsnr" v="652386" />
	</node>
	<node id="-146414" lat="66.1813444433" lon="12.7086583248">
		<tag k="name" v="Lemmetskogan" />
		<tag k="place" v="locality" />
		<tag k="ssr:stedsnr" v="168383" />
	</node>
	<node id="-146668" lat="66.0675361096" lon="12.5329166594">
		<tag k="name" v="Daumannsmyro" />
		<tag k="natural" v="wetland" />
		<tag k="ssr:stedsnr" v="532585" />
	</node>
	<node id="-146258" lat="66.0339444454" lon="12.4156999918">
		<tag k="name" v="Gråsteinmyro" />
		<tag k="natural" v="wetland" />
		<tag k="ssr:stedsnr" v="46671" />
	</node>
	<node id="-146409" lat="66.1540361092" lon="12.7334749896">
		<tag k="name" v="Stormyro" />
		<tag k="place" v="locality" />
		<tag k="ssr:stedsnr" v="167862" />
	</node>
	<node id="-146024" lat="66.0669888928" lon="12.4995638892">
		<tag k="name" v="Neplandet" />
		<tag k="place" v="locality" />
		<tag k="ssr:stedsnr" v="896404" />
	</node>
	<node id="-146020" lat="66.1624722189" lon="12.7498250078">
		<tag k="name" v="Sundsmyrån" />
		<tag k="natural" v="wetland" />
		<tag k="ssr:stedsnr" v="896387" />
	</node>
	<node id="-146658" lat="66.0962166633" lon="12.5965416585">
		<tag k="name" v="Nordmarka" />
		<tag k="place" v="locality" />
		<tag k="ssr:stedsnr" v="531463" />
	</node>
	<node id="-146528" lat="66.0723611098" lon="12.4902444518">
		<tag k="name" v="Hesthagen" />
		<tag k="natural" v="wetland" />
		<tag k="ssr:stedsnr" v="350377" />
	</node>
	<node id="-147039" lat="66.170419446" lon="12.388502777">
		<tag k="name" v="Innerjorda" />
		<tag k="place" v="locality" />
		<tag k="ssr:stedsnr" v="955675" />
	</node>
	<node id="-146525" lat="66.1750555587" lon="12.5512166651">
		<tag k="name" v="Tjeldsmyro" />
>>>>>>> e1d4bc35ff8a6074a6f2e91616a996b547c36f15
		<tag k="natural" v="wetland" />
		<tag k="ssr:stedsnr" v="45613" />
	</node>
<<<<<<< HEAD
	<node lat="66.10023055320362" lon="12.498752785672318" id="-6934">
		<tag k="name" v="Gjerdmyro" />
=======
	<node id="-146012" lat="66.0941055533" lon="12.3838583371">
		<tag k="name" v="Langåsmyra" />
>>>>>>> e1d4bc35ff8a6074a6f2e91616a996b547c36f15
		<tag k="natural" v="wetland" />
		<tag k="ssr:stedsnr" v="46075" />
	</node>
<<<<<<< HEAD
	<node lat="66.03394444541131" lon="12.415699991845797" id="-6945">
		<tag k="name" v="Gråsteinmyro" />
=======
	<node id="-147034" lat="66.1523972231" lon="12.3130416746">
		<tag k="name" v="Skillermyran" />
>>>>>>> e1d4bc35ff8a6074a6f2e91616a996b547c36f15
		<tag k="natural" v="wetland" />
		<tag k="ssr:stedsnr" v="46671" />
	</node>
<<<<<<< HEAD
	<node lat="66.18726944796418" lon="12.49724165827547" id="-6981">
		<tag k="name" v="Titternesmarka" />
		<tag k="place" v="locality" />
		<tag k="ssr:stedsnr" v="106624" />
	</node>
	<node lat="66.0562249970633" lon="12.524769441873573" id="-6991">
		<tag k="name" v="Hansåkermyro" />
=======
	<node id="-146649" lat="66.1054138866" lon="12.5242388873">
		<tag k="name" v="Dyrskardmyro" />
>>>>>>> e1d4bc35ff8a6074a6f2e91616a996b547c36f15
		<tag k="natural" v="wetland" />
		<tag k="ssr:stedsnr" v="107602" />
	</node>
<<<<<<< HEAD
	<node lat="66.1648472205415" lon="12.333441668164244" id="-7053">
		<tag k="name" v="Helvete" />
		<tag k="place" v="locality" />
		<tag k="ssr:stedsnr" v="167707" />
	</node>
	<node lat="66.15403610915287" lon="12.733474989629016" id="-7057">
		<tag k="name" v="Stormyro" />
		<tag k="place" v="locality" />
		<tag k="ssr:stedsnr" v="167862" />
	</node>
	<node lat="66.05079444906598" lon="12.367141660408073" id="-7069">
		<tag k="name" v="Hagaurda" />
		<tag k="natural" v="scree" />
		<tag k="ssr:stedsnr" v="168562" />
	</node>
	<node lat="66.09352221874862" lon="12.441841670348" id="-7098">
		<tag k="name" v="Nordmyro" />
=======
	<node id="-146008" lat="66.1510944457" lon="12.7427472116">
		<tag k="name" v="Dalmyro" />
>>>>>>> e1d4bc35ff8a6074a6f2e91616a996b547c36f15
		<tag k="natural" v="wetland" />
		<tag k="ssr:stedsnr" v="228312" />
	</node>
<<<<<<< HEAD
	<node lat="66.1001444442005" lon="12.474961110639416" id="-7099">
		<tag k="name" v="Sørvikmyran" />
=======
	<node id="-146007" lat="66.1077916701" lon="12.502627777">
		<tag k="name" v="Langåsmyro" />
>>>>>>> e1d4bc35ff8a6074a6f2e91616a996b547c36f15
		<tag k="natural" v="wetland" />
		<tag k="ssr:stedsnr" v="228084" />
	</node>
<<<<<<< HEAD
	<node lat="66.05268055614425" lon="12.518663895532347" id="-7110">
		<tag k="name" v="Viken" />
		<tag k="place" v="locality" />
		<tag k="ssr:stedsnr" v="228635" />
	</node>
	<node lat="66.15333610880168" lon="12.74195277579968" id="-7151">
		<tag k="name" v="Etiopia" />
		<tag k="place" v="locality" />
		<tag k="ssr:stedsnr" v="289897" />
	</node>
	<node lat="66.1507000019349" lon="12.794333333145296" id="-7158">
		<tag k="name" v="Båtnesmyro" />
=======
	<node id="-146261" lat="66.1433222196" lon="12.7434916773">
		<tag k="name" v="Pørksteinan" />
		<tag k="natural" v="stone" />
		<tag k="ssr:stedsnr" v="46867" />
	</node>
	<node id="-145748" lat="66.020305556" lon="12.317641677">
		<tag k="name" v="Vassåkran" />
>>>>>>> e1d4bc35ff8a6074a6f2e91616a996b547c36f15
		<tag k="natural" v="wetland" />
		<tag k="ssr:stedsnr" v="289936" />
	</node>
<<<<<<< HEAD
	<node lat="66.0203055560291" lon="12.317641676993782" id="-7200">
		<tag k="name" v="Vassåkran" />
=======
	<node id="-146642" lat="66.1579527792" lon="12.7679722246">
		<tag k="name" v="Hornsmyrån" />
>>>>>>> e1d4bc35ff8a6074a6f2e91616a996b547c36f15
		<tag k="natural" v="wetland" />
		<tag k="ssr:stedsnr" v="471707" />
	</node>
<<<<<<< HEAD
	<node lat="66.17789166390489" lon="12.54509999895778" id="-7216">
=======
	<node id="-145571" lat="66.1209305572" lon="12.6113805495">
		<tag k="name" v="Hopengmyro" />
		<tag k="natural" v="wetland" />
		<tag k="ssr:stedsnr" v="289568" />
	</node>
	<node id="-146511" lat="66.1778916639" lon="12.545099999">
>>>>>>> e1d4bc35ff8a6074a6f2e91616a996b547c36f15
		<tag k="name" v="Kræken" />
		<tag k="place" v="locality" />
		<tag k="ssr:stedsnr" v="349470" />
	</node>
<<<<<<< HEAD
	<node lat="66.03435559108988" lon="12.526176169415072" id="-7239">
		<tag k="fixme" v="multiple name tags, choose one and add the other to alt_name" />
		<tag k="name" v="Urda;Seterurda" />
		<tag k="natural" v="scree" />
		<tag k="ssr:stedsnr" v="379874" />
	</node>
	<node lat="66.17618611359173" lon="12.619252786624159" id="-7294">
=======
	<node id="-146638" lat="66.1530888906" lon="12.7176722177">
		<tag k="name" v="Lommervassmyro" />
		<tag k="natural" v="wetland" />
		<tag k="ssr:stedsnr" v="531237" />
	</node>
	<node id="-146061" lat="66.0930027809" lon="12.5997388952">
		<tag k="name" v="Innermarka" />
		<tag k="place" v="locality" />
		<tag k="ssr:stedsnr" v="774476" />
	</node>
	<node id="-146189" lat="66.0979222207" lon="12.5879444381">
		<tag k="name" v="Burlimyra" />
		<tag k="natural" v="wetland" />
		<tag k="ssr:stedsnr" v="15565" />
	</node>
	<node id="-146762" lat="66.1438277794" lon="12.550869443">
		<tag k="name" v="Vågsmyran" />
		<tag k="natural" v="wetland" />
		<tag k="ssr:stedsnr" v="621664" />
	</node>
	<node id="-145737" lat="66.1761861136" lon="12.6192527866">
>>>>>>> e1d4bc35ff8a6074a6f2e91616a996b547c36f15
		<tag k="name" v="Sigerstadstranda" />
		<tag k="place" v="locality" />
		<tag k="ssr:stedsnr" v="471376" />
	</node>
<<<<<<< HEAD
	<node lat="66.15795277921627" lon="12.76797222462571" id="-7351">
		<tag k="name" v="Hornsmyrån" />
		<tag k="natural" v="wetland" />
		<tag k="ssr:stedsnr" v="531221" />
	</node>
	<node lat="66.14897222307565" lon="12.383174998098786" id="-7379">
		<tag k="name" v="Åsan" />
		<tag k="place" v="locality" />
		<tag k="ssr:stedsnr" v="591268" />
	</node>
	<node lat="66.15936944798455" lon="12.79024166890554" id="-7421">
		<tag k="name" v="Buvollen" />
		<tag k="place" v="locality" />
		<tag k="ssr:stedsnr" v="652190" />
	</node>
	<node lat="66.18006666651064" lon="12.550530544816837" id="-7423">
		<tag k="name" v="Stavsengmyran" />
		<tag k="natural" v="wetland" />
		<tag k="ssr:stedsnr" v="652386" />
	</node>
	<node lat="66.1531670159087" lon="12.755404083983125" id="-7437">
=======
	<node id="-146809" lat="66.1512583334" lon="12.6963722212">
		<tag k="name" v="Vika" />
		<tag k="place" v="locality" />
		<tag k="ssr:stedsnr" v="652201" />
	</node>
	<node id="-145946" lat="66.0251249982" lon="12.3148472164">
		<tag k="name" v="Oksdyan" />
		<tag k="natural" v="wetland" />
		<tag k="ssr:stedsnr" v="714671" />
	</node>
	<node id="-146624" lat="66.0293555537" lon="12.3840249981">
		<tag k="name" v="Kløftingsmoan" />
		<tag k="place" v="locality" />
		<tag k="ssr:stedsnr" v="411730" />
	</node>
	<node id="-146144" lat="66.040852777" lon="12.4474027676">
		<tag k="name" v="Nordmoen" />
		<tag k="place" v="locality" />
		<tag k="ssr:stedsnr" v="896566" />
	</node>
	<node id="-146493" lat="66.0800750001" lon="12.5294611011">
		<tag k="alt_name" v="Myrskjåmyra" />
		<tag k="name" v="Myrskjåmyro" />
		<tag k="natural" v="wetland" />
		<tag k="ssr:stedsnr" v="319948" />
	</node>
	<node id="-145979" lat="66.1531670159" lon="12.755404084">
>>>>>>> e1d4bc35ff8a6074a6f2e91616a996b547c36f15
		<tag k="fixme" v="multiple name tags, choose one and add the other to alt_name" />
		<tag k="name" v="Fjellmyra;Stuvalen" />
		<tag k="natural" v="wetland" />
		<tag k="ssr:stedsnr" v="683168" />
	</node>
<<<<<<< HEAD
	<node lat="66.1077916700791" lon="12.502627777014894" id="-7459">
		<tag k="name" v="Langåsmyro" />
		<tag k="natural" v="wetland" />
		<tag k="ssr:stedsnr" v="896082" />
	</node>
	<node lat="66.1510944456713" lon="12.74274721163432" id="-7461">
		<tag k="name" v="Dalmyro" />
		<tag k="natural" v="wetland" />
		<tag k="ssr:stedsnr" v="896200" />
	</node>
	<node lat="66.09410555328341" lon="12.383858337085924" id="-7463">
		<tag k="name" v="Langåsmyra" />
		<tag k="natural" v="wetland" />
		<tag k="ssr:stedsnr" v="896313" />
	</node>
	<node lat="66.11616944213074" lon="12.60244443371631" id="-7464">
		<tag k="name" v="Ørvollmyro" />
		<tag k="natural" v="wetland" />
		<tag k="ssr:stedsnr" v="896321" />
	</node>
	<node lat="66.16761111134072" lon="12.696941664909689" id="-7466">
		<tag k="name" v="Monsmyro" />
		<tag k="natural" v="wetland" />
		<tag k="ssr:stedsnr" v="896364" />
	</node>
	<node lat="66.1624722188876" lon="12.749825007846812" id="-7471">
		<tag k="name" v="Sundsmyrån" />
=======
	<node id="-146015" lat="66.1676111113" lon="12.6969416649">
		<tag k="name" v="Monsmyro" />
		<tag k="natural" v="wetland" />
		<tag k="ssr:stedsnr" v="896364" />
	</node>
	<node id="-146232" lat="66.1002305532" lon="12.4987527857">
		<tag k="name" v="Gjerdmyro" />
		<tag k="natural" v="wetland" />
		<tag k="ssr:stedsnr" v="46075" />
	</node>
	<node id="-146742" lat="66.0651583327" lon="12.4024111221">
		<tag k="name" v="Vollan" />
		<tag k="place" v="locality" />
		<tag k="ssr:stedsnr" v="592444" />
	</node>
	<node id="-146229" lat="66.2134083339" lon="12.5783333433">
		<tag k="name" v="Myran" />
		<tag k="natural" v="wetland" />
		<tag k="ssr:stedsnr" v="45613" />
	</node>
	<node id="-145460" lat="66.0290499991" lon="12.3742666584">
		<tag k="name" v="Vollan" />
		<tag k="place" v="locality" />
		<tag k="ssr:stedsnr" v="229747" />
	</node>
	<node id="-145437" lat="66.1001444442" lon="12.4749611106">
		<tag k="name" v="Sørvikmyran" />
		<tag k="natural" v="wetland" />
		<tag k="ssr:stedsnr" v="228084" />
	</node>
	<node id="-146163" lat="66.0901083368" lon="12.3825305475">
		<tag k="name" v="Vikavassmyro" />
		<tag k="natural" v="wetland" />
		<tag k="ssr:stedsnr" v="956347" />
	</node>
	<node id="-146352" lat="66.0562249971" lon="12.5247694419">
		<tag k="name" v="Hansåkermyro" />
>>>>>>> e1d4bc35ff8a6074a6f2e91616a996b547c36f15
		<tag k="natural" v="wetland" />
		<tag k="ssr:stedsnr" v="896387" />
	</node>
<<<<<<< HEAD
	<node lat="66.06698889279885" lon="12.49956388920198" id="-7475">
		<tag k="name" v="Neplandet" />
=======
	<node id="-145455" lat="66.0526805561" lon="12.5186638955">
		<tag k="name" v="Viken" />
>>>>>>> e1d4bc35ff8a6074a6f2e91616a996b547c36f15
		<tag k="place" v="locality" />
		<tag k="ssr:stedsnr" v="896404" />
	</node>
<<<<<<< HEAD
	<node lat="66.17333055180401" lon="12.569469453375161" id="-7480">
		<tag k="name" v="Yttermyro" />
=======
	<node id="-145582" lat="66.1507000019" lon="12.7943333331">
		<tag k="name" v="Båtnesmyro" />
>>>>>>> e1d4bc35ff8a6074a6f2e91616a996b547c36f15
		<tag k="natural" v="wetland" />
		<tag k="ssr:stedsnr" v="896454" />
	</node>
<<<<<<< HEAD
	<node lat="66.15886111368418" lon="12.70858054731797" id="-7517">
		<tag k="name" v="Vollen" />
		<tag k="place" v="locality" />
		<tag k="ssr:stedsnr" v="773261" />
	</node>
	<node lat="66.14638889074625" lon="12.78208888722963" id="-7529">
		<tag k="name" v="Vikranmyrån" />
=======
	<node id="-146013" lat="66.1161694421" lon="12.6024444337">
		<tag k="name" v="Ørvollmyro" />
		<tag k="natural" v="wetland" />
		<tag k="ssr:stedsnr" v="896321" />
	</node>
	<node id="-146344" lat="66.0596472191" lon="12.5081611113">
		<tag k="name" v="Gaffelmyro" />
		<tag k="natural" v="wetland" />
		<tag k="ssr:stedsnr" v="107384" />
	</node>
	<node id="-145447" lat="66.0935222187" lon="12.4418416703">
		<tag k="name" v="Nordmyro" />
>>>>>>> e1d4bc35ff8a6074a6f2e91616a996b547c36f15
		<tag k="natural" v="wetland" />
		<tag k="ssr:stedsnr" v="774924" />
	</node>
<<<<<<< HEAD
	<node lat="66.08155000009779" lon="12.46742221244461" id="-7543">
		<tag k="name" v="Straumamarka" />
=======
	<node id="-145523" lat="66.1648472205" lon="12.3334416682">
		<tag k="name" v="Helvete" />
		<tag k="place" v="locality" />
		<tag k="ssr:stedsnr" v="167707" />
	</node>
	<node id="-145585" lat="66.1533361088" lon="12.7419527758">
		<tag k="name" v="Etiopia" />
		<tag k="place" v="locality" />
		<tag k="ssr:stedsnr" v="289897" />
	</node>
	<node id="-145572" lat="66.1230472185" lon="12.6229694448">
		<tag k="name" v="Gognstømyro" />
>>>>>>> e1d4bc35ff8a6074a6f2e91616a996b547c36f15
		<tag k="place" v="locality" />
		<tag k="ssr:stedsnr" v="835278" />
	</node>
	<node lat="66.02760277802064" lon="12.319916664483706" id="-7550">
		<tag k="name" v="Dammyro" />
		<tag k="natural" v="wetland" />
		<tag k="ssr:stedsnr" v="835731" />
	</node>
<<<<<<< HEAD
	<node lat="66.16713611138181" lon="12.71595278232357" id="-7558">
=======
	<node id="-146723" lat="66.0957555511" lon="12.6273722234">
		<tag k="name" v="Kjerkmyro" />
		<tag k="natural" v="wetland" />
		<tag k="ssr:stedsnr" v="591430" />
	</node>
	<node id="-146978" lat="66.1671361114" lon="12.7159527823">
>>>>>>> e1d4bc35ff8a6074a6f2e91616a996b547c36f15
		<tag k="name" v="Svartmyro" />
		<tag k="natural" v="wetland" />
		<tag k="ssr:stedsnr" v="836296" />
	</node>
<<<<<<< HEAD
	<node lat="66.04085277704966" lon="12.447402767579296" id="-7594">
		<tag k="name" v="Nordmoen" />
=======
	<node id="-146593" lat="66.1490972237" lon="12.7643194471">
		<tag k="name" v="Holtan" />
>>>>>>> e1d4bc35ff8a6074a6f2e91616a996b547c36f15
		<tag k="place" v="locality" />
		<tag k="ssr:stedsnr" v="896566" />
	</node>
<<<<<<< HEAD
	<node lat="66.09792222073665" lon="12.587944438124318" id="-7672">
		<tag k="name" v="Burlimyra" />
		<tag k="natural" v="wetland" />
		<tag k="ssr:stedsnr" v="15565" />
	</node>
	<node lat="66.14332221960667" lon="12.74349167731366" id="-7694">
		<tag k="name" v="Pørksteinan" />
		<tag k="natural" v="stone" />
		<tag k="ssr:stedsnr" v="46867" />
	</node>
	<node lat="66.05877778211233" lon="12.530152771679424" id="-7716">
		<tag k="name" v="Lundmyro" />
		<tag k="natural" v="wetland" />
		<tag k="ssr:stedsnr" v="46648" />
	</node>
	<node lat="66.11277777522808" lon="12.58427777993401" id="-7761">
		<tag k="name" v="Norddyan" />
=======
	<node id="-146719" lat="66.1489722231" lon="12.3831749981">
		<tag k="name" v="Åsan" />
		<tag k="place" v="locality" />
		<tag k="ssr:stedsnr" v="591268" />
	</node>
	<node id="-146974" lat="66.0288888927" lon="12.3177111064">
		<tag k="name" v="Naustmyro" />
		<tag k="natural" v="wetland" />
		<tag k="ssr:stedsnr" v="835747" />
	</node>
	<node id="-146333" lat="66.187269448" lon="12.4972416583">
		<tag k="name" v="Titternesmarka" />
		<tag k="place" v="locality" />
		<tag k="ssr:stedsnr" v="106624" />
	</node>
	<node id="-146972" lat="66.027602778" lon="12.3199166645">
		<tag k="name" v="Dammyro" />
>>>>>>> e1d4bc35ff8a6074a6f2e91616a996b547c36f15
		<tag k="natural" v="wetland" />
		<tag k="ssr:stedsnr" v="835731" />
	</node>
<<<<<<< HEAD
	<node lat="66.05964721908511" lon="12.508161111286741" id="-7763">
		<tag k="name" v="Gaffelmyro" />
		<tag k="natural" v="wetland" />
		<tag k="ssr:stedsnr" v="107384" />
	</node>
	<node lat="66.13668055724425" lon="12.637705564224863" id="-7803">
		<tag k="name" v="Ørnholten" />
		<tag k="place" v="locality" />
		<tag k="ssr:stedsnr" v="157473" />
	</node>
	<node lat="66.18134444327652" lon="12.708658324760808" id="-7824">
		<tag k="name" v="Lemmetskogan" />
=======
	<node id="-146394" lat="66.1366805572" lon="12.6377055642">
		<tag k="name" v="Ørnholten" />
		<tag k="place" v="locality" />
		<tag k="ssr:stedsnr" v="157473" />
	</node>
	<node id="-146586" lat="66.1806583296" lon="12.4908083323">
		<tag k="name" v="Åsmyra" />
		<tag k="place" v="locality" />
		<tag k="ssr:stedsnr" v="409469" />
	</node>
	<node id="-146255" lat="66.0587777821" lon="12.5301527717">
		<tag k="name" v="Lundmyro" />
		<tag k="natural" v="wetland" />
		<tag k="ssr:stedsnr" v="46648" />
	</node>
	<node id="-145814" lat="66.1745222224" lon="12.7094611028">
		<tag k="name" v="Minde" />
>>>>>>> e1d4bc35ff8a6074a6f2e91616a996b547c36f15
		<tag k="place" v="locality" />
		<tag k="ssr:stedsnr" v="168383" />
	</node>
<<<<<<< HEAD
	<node lat="66.17045555404081" lon="12.553266660787946" id="-7886">
		<tag k="name" v="Åkermyro" />
		<tag k="natural" v="wetland" />
		<tag k="ssr:stedsnr" v="228470" />
	</node>
	<node lat="66.12093055716207" lon="12.611380549549684" id="-7925">
		<tag k="name" v="Hopengmyro" />
		<tag k="natural" v="wetland" />
		<tag k="ssr:stedsnr" v="289568" />
	</node>
	<node lat="66.12304721850549" lon="12.622969444806097" id="-7926">
		<tag k="name" v="Gognstømyro" />
=======
	<node id="-146964" lat="66.0342777758" lon="12.348222212">
		<tag k="name" v="Snauremman" />
>>>>>>> e1d4bc35ff8a6074a6f2e91616a996b547c36f15
		<tag k="place" v="locality" />
		<tag k="ssr:stedsnr" v="289569" />
	</node>
<<<<<<< HEAD
	<node lat="66.08007500011223" lon="12.529461101146213" id="-7959">
		<tag k="alt_name" v="Myrskjåmyra" />
		<tag k="name" v="Myrskjåmyro" />
=======
	<node id="-146066" lat="66.1463888907" lon="12.7820888872">
		<tag k="name" v="Vikranmyrån" />
>>>>>>> e1d4bc35ff8a6074a6f2e91616a996b547c36f15
		<tag k="natural" v="wetland" />
		<tag k="ssr:stedsnr" v="319948" />
	</node>
<<<<<<< HEAD
	<node lat="66.17505555871973" lon="12.551216665069132" id="-7983">
		<tag k="name" v="Tjeldsmyro" />
		<tag k="natural" v="wetland" />
		<tag k="ssr:stedsnr" v="350368" />
	</node>
	<node lat="66.0723611097959" lon="12.490244451774574" id="-7986">
		<tag k="name" v="Hesthagen" />
=======
	<node id="-146340" lat="66.1127777752" lon="12.5842777799">
		<tag k="name" v="Norddyan" />
		<tag k="natural" v="wetland" />
		<tag k="ssr:stedsnr" v="107312" />
	</node>
	<node id="-146957" lat="66.0927527804" lon="12.4315416762">
		<tag k="name" v="Bergåsmyro" />
>>>>>>> e1d4bc35ff8a6074a6f2e91616a996b547c36f15
		<tag k="natural" v="wetland" />
		<tag k="ssr:stedsnr" v="350377" />
	</node>
<<<<<<< HEAD
	<node lat="66.18065832963494" lon="12.490808332346335" id="-8036">
		<tag k="name" v="Åsmyra" />
		<tag k="place" v="locality" />
		<tag k="ssr:stedsnr" v="409469" />
	</node>
	<node lat="66.14909722371333" lon="12.764319447121764" id="-8037">
		<tag k="name" v="Holtan" />
		<tag k="place" v="locality" />
		<tag k="ssr:stedsnr" v="410192" />
	</node>
	<node lat="66.08361388948063" lon="12.458388889330548" id="-8039">
		<tag k="name" v="Langmyro" />
		<tag k="natural" v="wetland" />
		<tag k="ssr:stedsnr" v="410271" />
	</node>
	<node lat="66.17452222244744" lon="12.709461102760136" id="-8059">
		<tag k="name" v="Minde" />
		<tag k="place" v="locality" />
		<tag k="ssr:stedsnr" v="411365" />
	</node>
	<node lat="66.02935555366143" lon="12.384024998095093" id="-8062">
		<tag k="name" v="Kløftingsmoan" />
=======
	<node id="-145930" lat="66.0880416659" lon="12.4155527817">
		<tag k="name" v="Sørmyro" />
		<tag k="natural" v="wetland" />
		<tag k="ssr:stedsnr" v="713254" />
	</node>
	<node id="-146071" lat="66.0368027795" lon="12.4257111025">
		<tag k="name" v="Hestveltet" />
		<tag k="natural" v="wetland" />
		<tag k="ssr:stedsnr" v="775493" />
	</node>
	<node id="-146566" lat="66.0343555911" lon="12.5261761694">
		<tag k="fixme" v="multiple name tags, choose one and add the other to alt_name" />
		<tag k="name" v="Seterurda;Urda" />
		<tag k="natural" v="scree" />
		<tag k="ssr:stedsnr" v="379874" />
	</node>
	<node id="-145542" lat="66.0507944491" lon="12.3671416604">
		<tag k="name" v="Hagaurda" />
		<tag k="natural" v="scree" />
		<tag k="ssr:stedsnr" v="168562" />
	</node>
	<node id="-146052" lat="66.1588611137" lon="12.7085805473">
		<tag k="name" v="Vollen" />
>>>>>>> e1d4bc35ff8a6074a6f2e91616a996b547c36f15
		<tag k="place" v="locality" />
		<tag k="ssr:stedsnr" v="411730" />
	</node>
<<<<<<< HEAD
	<node lat="66.15308889063981" lon="12.71767221771526" id="-8130">
		<tag k="name" v="Lommervassmyro" />
		<tag k="natural" v="wetland" />
		<tag k="ssr:stedsnr" v="531237" />
	</node>
	<node lat="66.10541388656601" lon="12.524238887267446" id="-8133">
		<tag k="name" v="Dyrskardmyro" />
		<tag k="natural" v="wetland" />
		<tag k="ssr:stedsnr" v="531371" />
	</node>
	<node lat="66.09621666325823" lon="12.596541658485352" id="-8134">
		<tag k="name" v="Nordmarka" />
		<tag k="place" v="locality" />
		<tag k="ssr:stedsnr" v="531463" />
	</node>
	<node lat="66.0675361096092" lon="12.532916659419609" id="-8147">
		<tag k="name" v="Daumannsmyro" />
		<tag k="natural" v="wetland" />
		<tag k="ssr:stedsnr" v="532585" />
	</node>
	<node lat="66.0957555511464" lon="12.627372223363297" id="-8208">
		<tag k="name" v="Kjerkmyro" />
		<tag k="natural" v="wetland" />
		<tag k="ssr:stedsnr" v="591430" />
	</node>
	<node lat="66.07401389025506" lon="12.512088893093617" id="-8222">
		<tag k="name" v="Gjelmyro" />
		<tag k="natural" v="wetland" />
		<tag k="ssr:stedsnr" v="592411" />
	</node>
	<node lat="66.06515833274617" lon="12.402411122077625" id="-8225">
		<tag k="name" v="Vollan" />
		<tag k="place" v="locality" />
		<tag k="ssr:stedsnr" v="592444" />
	</node>
	<node lat="66.14382777944004" lon="12.550869442976193" id="-8246">
		<tag k="name" v="Vågsmyran" />
		<tag k="natural" v="wetland" />
		<tag k="ssr:stedsnr" v="621664" />
	</node>
	<node lat="66.15125833338575" lon="12.696372221161637" id="-8272">
		<tag k="name" v="Vika" />
		<tag k="place" v="locality" />
		<tag k="ssr:stedsnr" v="652201" />
	</node>
	<node lat="66.17929166385014" lon="12.477308337069546" id="-8302">
		<tag k="name" v="Titternes" />
		<tag k="place" v="locality" />
		<tag k="ssr:stedsnr" v="712443" />
	</node>
	<node lat="66.08804166594054" lon="12.415552781656878" id="-8309">
		<tag k="name" v="Sørmyro" />
		<tag k="natural" v="wetland" />
		<tag k="ssr:stedsnr" v="713254" />
	</node>
	<node lat="66.02512499817944" lon="12.314847216352348" id="-8330">
		<tag k="name" v="Oksdyan" />
		<tag k="natural" v="wetland" />
		<tag k="ssr:stedsnr" v="714671" />
	</node>
	<node lat="66.09300278091884" lon="12.599738895189732" id="-8377">
		<tag k="name" v="Innermarka" />
		<tag k="place" v="locality" />
		<tag k="ssr:stedsnr" v="774476" />
	</node>
	<node lat="66.03680277954402" lon="12.425711102533286" id="-8393">
		<tag k="name" v="Hestveltet" />
=======
	<node id="-145923" lat="66.0740138903" lon="12.5120888931">
		<tag k="name" v="Gjelmyro" />
		<tag k="natural" v="wetland" />
		<tag k="ssr:stedsnr" v="592411" />
	</node>
	<node id="-146954" lat="66.0815500001" lon="12.4674222124">
		<tag k="name" v="Straumamarka" />
		<tag k="place" v="locality" />
		<tag k="ssr:stedsnr" v="835278" />
	</node>
	<node id="-146027" lat="66.1733305518" lon="12.5694694534">
		<tag k="name" v="Yttermyro" />
>>>>>>> e1d4bc35ff8a6074a6f2e91616a996b547c36f15
		<tag k="natural" v="wetland" />
		<tag k="ssr:stedsnr" v="775493" />
	</node>
<<<<<<< HEAD
	<node lat="66.09275278043242" lon="12.431541676214046" id="-8459">
		<tag k="name" v="Bergåsmyro" />
		<tag k="natural" v="wetland" />
		<tag k="ssr:stedsnr" v="835303" />
	</node>
	<node lat="66.1800527756765" lon="12.503483337287234" id="-8469">
		<tag k="name" v="Lasken" />
		<tag k="place" v="locality" />
		<tag k="ssr:stedsnr" v="835443" />
	</node>
	<node lat="66.03427777584979" lon="12.348222212006826" id="-8471">
		<tag k="name" v="Snauremman" />
		<tag k="place" v="locality" />
		<tag k="ssr:stedsnr" v="835667" />
	</node>
	<node lat="66.02888889265186" lon="12.317711106436354" id="-8473">
		<tag k="name" v="Naustmyro" />
		<tag k="natural" v="wetland" />
		<tag k="ssr:stedsnr" v="835747" />
	</node>
	<node lat="66.17041944602587" lon="12.388502777013011" id="-8542">
		<tag k="name" v="Innerjorda" />
		<tag k="place" v="locality" />
		<tag k="ssr:stedsnr" v="955675" />
	</node>
	<node lat="66.09010833683908" lon="12.382530547538888" id="-8551">
		<tag k="name" v="Vikavassmyro" />
		<tag k="natural" v="wetland" />
		<tag k="ssr:stedsnr" v="956347" />
	</node>
	<node lat="66.15239722305827" lon="12.313041674581829" id="-8552">
		<tag k="name" v="Skillermyran" />
		<tag k="natural" v="wetland" />
		<tag k="ssr:stedsnr" v="956351" />
	</node>
	<node lat="66.03553610717866" lon="12.428463890340192" id="-8562">
		<tag k="name" v="Mølnskardmyro" />
		<tag k="natural" v="wetland" />
		<tag k="ssr:stedsnr" v="957513" />
	</node>
	<node lat="66.17110278200671" lon="12.702097213377023" id="-8565">
		<tag k="name" v="Helvetesmyra" />
		<tag k="natural" v="wetland" />
		<tag k="ssr:stedsnr" v="957374" />
	</node>
=======
>>>>>>> e1d4bc35ff8a6074a6f2e91616a996b547c36f15
</osm>
