<?xml version="1.0" encoding="UTF-8"?>
<osm version="0.6" generator="osmapis">
	<node lat="66.197827775284" lon="12.537297222265904" id="-9187">
		<tag k="name" v="Gardsvatnet" />
		<tag k="natural" v="water" />
		<tag k="ssr:stedsnr" v="15721" />
	</node>
	<node lat="66.09026388615547" lon="12.39282777953555" id="-9235">
		<tag k="name" v="Likholmvatnet" />
		<tag k="natural" v="water" />
		<tag k="ssr:stedsnr" v="76560" />
	</node>
	<node lat="66.0764583347584" lon="12.521233332333384" id="-9241">
		<tag k="name" v="Matstuelva" />
		<tag k="ssr:stedsnr" v="105503" />
		<tag k="waterway" v="stream" />
	</node>
	<node lat="66.15102777483045" lon="12.60265554796887" id="-9285">
		<tag k="alt_name" v="Litlgleinsvatnet" />
		<tag k="name" v="Liss-Gleinsvatnet" />
		<tag k="natural" v="water" />
		<tag k="ssr:stedsnr" v="258572" />
	</node>
	<node lat="66.19339444291575" lon="12.561005558073177" id="-9287">
		<tag k="name" v="Bladvatnet" />
		<tag k="natural" v="water" />
		<tag k="ssr:stedsnr" v="258684" />
	</node>
	<node lat="66.19476944088551" lon="12.577286111855846" id="-9288">
		<tag k="name" v="Brubekken" />
		<tag k="ssr:stedsnr" v="258685" />
		<tag k="waterway" v="stream" />
	</node>
	<node lat="66.08235832921206" lon="12.55943055803417" id="-9308">
		<tag k="name" v="Fjellvatnet" />
		<tag k="natural" v="water" />
		<tag k="ssr:stedsnr" v="258941" />
	</node>
	<node lat="66.12465555875231" lon="12.59867499004871" id="-9344">
		<tag k="name" v="Berfjordvatnet" />
		<tag k="natural" v="water" />
		<tag k="ssr:stedsnr" v="197557" />
		<tag k="water" v="lake" />
	</node>
	<node lat="66.18496944614203" lon="12.688394439028702" id="-9388">
		<tag k="name" v="Lomvatnet" />
		<tag k="natural" v="water" />
		<tag k="ssr:stedsnr" v="228731" />
	</node>
	<node lat="66.05953888869219" lon="12.389919433646625" id="-9416">
		<tag k="name" v="Sandstrakelva" />
		<tag k="ssr:stedsnr" v="289429" />
		<tag k="waterway" v="stream" />
	</node>
	<node lat="66.13436110831015" lon="12.350377787524094" id="-9427">
		<tag k="name" v="Tosavatnet" />
		<tag k="natural" v="water" />
		<tag k="ssr:stedsnr" v="289925" />
	</node>
	<node lat="66.0489555557319" lon="12.434430544597781" id="-9447">
		<tag k="alt_name" v="Teistadvatnet" />
		<tag k="name" v="Teigstadvatnet" />
		<tag k="natural" v="water" />
		<tag k="ssr:stedsnr" v="319997" />
	</node>
	<node lat="66.10597221867866" lon="12.458091673230149" id="-9453">
		<tag k="name" v="Bjørnåsvatnet" />
		<tag k="natural" v="water" />
		<tag k="ssr:stedsnr" v="470080" />
	</node>
	<node lat="66.05071944229896" lon="12.407863880418343" id="-9470">
		<tag k="name" v="Grønnlivatnet" />
		<tag k="natural" v="water" />
		<tag k="ssr:stedsnr" v="471625" />
	</node>
	<node lat="66.16392500018623" lon="12.335625009421438" id="-9492">
		<tag k="name" v="Beretvatnet" />
		<tag k="natural" v="water" />
		<tag k="ssr:stedsnr" v="349711" />
	</node>
	<node lat="66.06134722364139" lon="12.537347213832856" id="-9495">
		<tag k="name" v="Grindskjærbekken" />
		<tag k="ssr:stedsnr" v="350555" />
		<tag k="waterway" v="stream" />
	</node>
	<node lat="66.15276388876347" lon="12.383511104542865" id="-9553">
		<tag k="name" v="Grønåsvannet" />
		<tag k="natural" v="water" />
		<tag k="ssr:stedsnr" v="470276" />
		<tag k="water" v="lake" />
	</node>
	<node lat="66.15001666359396" lon="12.31734722931997" id="-9555">
		<tag k="name" v="Holmvatnan" />
		<tag k="natural" v="water" />
		<tag k="ssr:stedsnr" v="470281" />
	</node>
	<node lat="66.10322500390312" lon="12.592830552965111" id="-9559">
		<tag k="name" v="Dalsvågvatnet" />
		<tag k="natural" v="water" />
		<tag k="ssr:stedsnr" v="470306" />
	</node>
	<node lat="66.0974666664099" lon="12.398163898577977" id="-9618">
		<tag k="name" v="Trollåsvatnet" />
		<tag k="natural" v="water" />
		<tag k="ssr:stedsnr" v="523861" />
	</node>
	<node lat="66.12335278102205" lon="12.600652784569805" id="-9628">
		<tag k="name" v="Vassneset" />
		<tag k="natural" v="cape" />
		<tag k="ssr:stedsnr" v="531574" />
	</node>
	<node lat="66.09457500141217" lon="12.4127388781171" id="-9655">
		<tag k="name" v="Svanvatnet" />
		<tag k="natural" v="water" />
		<tag k="ssr:stedsnr" v="592304" />
		<tag k="water" v="lake" />
	</node>
	<node lat="66.05910277751273" lon="12.522350003124304" id="-9680">
		<tag k="name" v="Hestadelva" />
		<tag k="ssr:stedsnr" v="622961" />
		<tag k="waterway" v="river" />
	</node>
	<node lat="66.08195833760088" lon="12.475783330908005" id="-9683">
		<tag k="alt_name" v="Straumavatnan" />
		<tag k="name" v="Straumavatnet" />
		<tag k="natural" v="water" />
		<tag k="ssr:stedsnr" v="622936" />
	</node>
	<node lat="66.08502500110603" lon="12.399472217112692" id="-9690">
		<tag k="name" v="Margretevatnet" />
		<tag k="natural" v="water" />
		<tag k="ssr:stedsnr" v="652210" />
	</node>
	<node lat="66.14413333595658" lon="12.31411389793954" id="-9707">
		<tag k="alt_name" v="Sjona" />
		<tag k="name" v="Storsjona" />
		<tag k="natural" v="water" />
		<tag k="ssr:stedsnr" v="682664" />
	</node>
	<node lat="66.0937055537141" lon="12.421344451111011" id="-9749">
		<tag k="name" v="Klubbvatnet" />
		<tag k="natural" v="water" />
		<tag k="ssr:stedsnr" v="896297" />
		<tag k="water" v="lake" />
	</node>
	<node lat="66.09342778027246" lon="12.455219442933098" id="-9792">
		<tag k="name" v="Flekkavatnet" />
		<tag k="natural" v="water" />
		<tag k="ssr:stedsnr" v="774267" />
	</node>
	<node lat="66.09940833485233" lon="12.524933323507991" id="-9793">
		<tag k="name" v="Buneset" />
		<tag k="natural" v="cape" />
		<tag k="ssr:stedsnr" v="774405" />
	</node>
	<node lat="66.06043889222792" lon="12.524344442078563" id="-9805">
		<tag k="name" v="Sandhølan" />
		<tag k="natural" v="water" />
		<tag k="ssr:stedsnr" v="775551" />
		<tag k="water" v="pond" />
	</node>
	<node lat="66.05505833626209" lon="12.419225011334929" id="-9832">
		<tag k="name" v="Forsvatnet" />
		<tag k="natural" v="water" />
		<tag k="ssr:stedsnr" v="836376" />
		<tag k="water" v="lake" />
	</node>
	<node lat="66.08103333168253" lon="12.540749994135695" id="-9857">
		<tag k="fixme" v="multiple name tags, choose one and add the other to alt_name" />
		<tag k="name" v="Babylonvatnet;Babylon" />
		<tag k="natural" v="water" />
		<tag k="ssr:stedsnr" v="926933" />
	</node>
	<node lat="66.07640833140677" lon="12.566652768545445" id="-9858">
		<tag k="alt_name" v="Lomtjørna" />
		<tag k="name" v="Lomvatnet" />
		<tag k="natural" v="water" />
		<tag k="ssr:stedsnr" v="926950" />
	</node>
	<node lat="66.04464999725644" lon="12.475575008837653" id="-9867">
		<tag k="name" v="Aspdalsbekken" />
		<tag k="ssr:stedsnr" v="896568" />
		<tag k="waterway" v="stream" />
	</node>
	<node lat="66.09604999723943" lon="12.497044437820545" id="-9880">
		<tag k="name" v="Olfotvatnet" />
		<tag k="natural" v="water" />
		<tag k="ssr:stedsnr" v="926517" />
		<tag k="water" v="lake" />
	</node>
	<node lat="66.13941388501155" lon="12.518452769197484" id="-9897">
		<tag k="name" v="Langneset" />
		<tag k="natural" v="cape" />
		<tag k="ssr:stedsnr" v="956911" />
	</node>
	<node lat="66.08291389292584" lon="12.528566675407147" id="-9940">
		<tag k="name" v="Finnbuvatnet" />
		<tag k="natural" v="water" />
		<tag k="ssr:stedsnr" v="15942" />
	</node>
	<node lat="66.09895277382222" lon="12.483141664263039" id="-9945">
		<tag k="name" v="Gonga" />
		<tag k="ssr:stedsnr" v="15568" />
		<tag k="waterway" v="stream" />
	</node>
	<node lat="66.05627222473034" lon="12.406583333750584" id="-9984">
		<tag k="name" v="Forsen" />
		<tag k="natural" v="waterfall" />
		<tag k="ssr:stedsnr" v="46467" />
	</node>
	<node lat="66.1932305527314" lon="12.525633327169427" id="-10003">
		<tag k="name" v="Storvatnet" />
		<tag k="natural" v="water" />
		<tag k="ssr:stedsnr" v="76684" />
		<tag k="water" v="lake" />
	</node>
	<node lat="66.07342500146564" lon="12.520255548455644" id="-10017">
		<tag k="name" v="Matstuvatnet" />
		<tag k="natural" v="water" />
		<tag k="ssr:stedsnr" v="76946" />
	</node>
	<node lat="66.09053055249271" lon="12.591708340187202" id="-10021">
		<tag k="name" v="Breidalsbekken" />
		<tag k="ssr:stedsnr" v="106432" />
		<tag k="waterway" v="stream" />
	</node>
	<node lat="66.05297500228963" lon="12.504375000991894" id="-10036">
		<tag k="name" v="Danielelva" />
		<tag k="ssr:stedsnr" v="107386" />
		<tag k="waterway" v="stream" />
	</node>
	<node lat="66.12167500333254" lon="12.602752786322156" id="-10040">
		<tag k="name" v="Sørvatnet" />
		<tag k="natural" v="bay" />
		<tag k="ssr:stedsnr" v="107544" />
	</node>
	<node lat="66.07555556000884" lon="12.452161101125318" id="-10063">
		<tag k="alt_name" v="Høllvollvatnet" />
		<tag k="name" v="Hølvollvatnet" />
		<tag k="natural" v="water" />
		<tag k="ssr:stedsnr" v="136968" />
	</node>
	<node lat="66.1859027785545" lon="12.605211119358296" id="-10067">
		<tag k="name" v="Middagsvatnet" />
		<tag k="natural" v="water" />
		<tag k="ssr:stedsnr" v="137624" />
	</node>
	<node lat="66.12303889045691" lon="12.604644438326229" id="-10091">
		<tag k="name" v="Staulhågneset" />
		<tag k="natural" v="cape" />
		<tag k="ssr:stedsnr" v="167576" />
	</node>
	<node lat="66.13667500105402" lon="12.353622214027894" id="-10093">
		<tag k="name" v="Tosavatnet" />
		<tag k="natural" v="water" />
		<tag k="ssr:stedsnr" v="167912" />
	</node>
	<node lat="66.0642500026006" lon="12.530313893423008" id="-10107">
		<tag k="name" v="Lomtjønna" />
		<tag k="natural" v="water" />
		<tag k="ssr:stedsnr" v="168579" />
	</node>
	<node lat="66.05628611538182" lon="12.502761113585237" id="-10134">
		<tag k="name" v="Hestlielva" />
		<tag k="ssr:stedsnr" v="197984" />
		<tag k="waterway" v="stream" />
	</node>
	<node lat="66.07879722481941" lon="12.522516662451348" id="-10145">
		<tag k="name" v="Matstuneset" />
		<tag k="natural" v="cape" />
		<tag k="ssr:stedsnr" v="226531" />
	</node>
	<node lat="66.08943888855197" lon="12.47003889012916" id="-10152">
		<tag k="name" v="Storstraumen" />
		<tag k="ssr:stedsnr" v="228273" />
		<tag k="waterway" v="river" />
	</node>
	<node lat="66.0814249999113" lon="12.463358325321238" id="-10153">
		<tag k="name" v="Straumaelva" />
		<tag k="ssr:stedsnr" v="228275" />
		<tag k="waterway" v="river" />
	</node>
	<node lat="66.07456111315857" lon="12.515938884496409" id="-10187">
		<tag k="name" v="Vesterbekken" />
		<tag k="ssr:stedsnr" v="289372" />
		<tag k="waterway" v="stream" />
	</node>
	<node lat="66.19121111480281" lon="12.578494446024854" id="-10224">
		<tag k="name" v="Ørjevatnet" />
		<tag k="natural" v="water" />
		<tag k="ssr:stedsnr" v="319656" />
	</node>
	<node lat="66.08995160888325" lon="12.549126427289606" id="-10233">
		<tag k="fixme" v="multiple name tags, choose one and add the other to alt_name" />
		<tag k="name" v="Skardvatnet;Felivatnet" />
		<tag k="natural" v="water" />
		<tag k="ssr:stedsnr" v="319953" />
	</node>
	<node lat="66.08835833167117" lon="12.38568332925658" id="-10243">
		<tag k="name" v="Risneset" />
		<tag k="natural" v="cape" />
		<tag k="ssr:stedsnr" v="349299" />
	</node>
	<node lat="66.13626667038488" lon="12.307530554243405" id="-10254">
		<tag k="name" v="Merkvatnet" />
		<tag k="natural" v="water" />
		<tag k="ssr:stedsnr" v="349945" />
	</node>
	<node lat="66.07287499979945" lon="12.4947805538379" id="-10259">
		<tag k="name" v="Stakendelva" />
		<tag k="ssr:stedsnr" v="350378" />
		<tag k="waterway" v="stream" />
	</node>
	<node lat="66.03667499722604" lon="12.404586119648231" id="-10267">
		<tag k="name" v="Storlielva" />
		<tag k="ssr:stedsnr" v="350494" />
		<tag k="waterway" v="stream" />
	</node>
	<node lat="66.0667833323762" lon="12.517413879947835" id="-10269">
		<tag k="name" v="Fjellvatnet" />
		<tag k="natural" v="water" />
		<tag k="ssr:stedsnr" v="350545" />
		<tag k="water" v="lake" />
	</node>
	<node lat="66.07433055172457" lon="12.480247225316479" id="-10293">
		<tag k="alt_name" v="Ramnskardvatnet;Ravndalsskardvatnet" />
		<tag k="name" v="Ravnskardsvatnet" />
		<tag k="natural" v="water" />
		<tag k="ssr:stedsnr" v="379956" />
	</node>
	<node lat="66.09815000119923" lon="12.516188899593281" id="-10313">
		<tag k="name" v="Neset" />
		<tag k="natural" v="cape" />
		<tag k="ssr:stedsnr" v="410372" />
	</node>
	<node lat="66.09649166386978" lon="12.514866674844408" id="-10373">
		<tag k="alt_name" v="Øvrolfotvatnet;Holandsstrand vd" />
		<tag k="name" v="Øver-Olfotvatnet" />
		<tag k="natural" v="water" />
		<tag k="ssr:stedsnr" v="501521" />
	</node>
	<node lat="66.10475277444901" lon="12.451383335363946" id="-10396">
		<tag k="name" v="Bærholtvatnet" />
		<tag k="natural" v="water" />
		<tag k="ssr:stedsnr" v="531084" />
	</node>
	<node lat="66.04453611552971" lon="12.431227771590757" id="-10420">
		<tag k="name" v="Hestdalsbekken" />
		<tag k="ssr:stedsnr" v="532596" />
		<tag k="waterway" v="stream" />
	</node>
	<node lat="66.16266944491241" lon="12.327458332993652" id="-10432">
		<tag k="alt_name" v="Mershågvatnet" />
		<tag k="name" v="Mershaugvatnet" />
		<tag k="natural" v="water" />
		<tag k="ssr:stedsnr" v="561585" />
	</node>
	<node lat="66.10484722209216" lon="12.558377777317563" id="-10433">
		<tag k="alt_name" v="Hilsetvatnet" />
		<tag k="name" v="Hildsetvatnet" />
		<tag k="natural" v="water" />
		<tag k="old_name" v="Holands vd" />
		<tag k="ssr:stedsnr" v="561532" />
	</node>
	<node lat="66.09305833741894" lon="12.394105566960988" id="-10434">
		<tag k="name" v="Vikavatnet" />
		<tag k="natural" v="water" />
		<tag k="ssr:stedsnr" v="561538" />
	</node>
	<node lat="66.14659999949481" lon="12.308783327814337" id="-10439">
		<tag k="name" v="Langvatnet" />
		<tag k="natural" v="water" />
		<tag k="ssr:stedsnr" v="561574" />
	</node>
	<node lat="66.13853055550598" lon="12.305255548072475" id="-10461">
		<tag k="name" v="Tyrivatnet" />
		<tag k="natural" v="water" />
		<tag k="ssr:stedsnr" v="561623" />
	</node>
	<node lat="66.19010555386332" lon="12.553325006330189" id="-10464">
		<tag k="name" v="Altervatnet" />
		<tag k="natural" v="water" />
		<tag k="ssr:stedsnr" v="561684" />
		<tag k="water" v="lake" />
	</node>
	<node lat="66.16630277997605" lon="12.747802774368752" id="-10468">
		<tag k="name" v="Sundsvatnet" />
		<tag k="natural" v="water" />
		<tag k="ssr:stedsnr" v="561801" />
	</node>
	<node lat="66.09159166405207" lon="12.479544443208695" id="-10498">
		<tag k="name" v="Sildvikja" />
		<tag k="natural" v="bay" />
		<tag k="ssr:stedsnr" v="592295" />
	</node>
	<node lat="66.02917222458176" lon="12.396863881624894" id="-10510">
		<tag k="name" v="Storelielva" />
		<tag k="ssr:stedsnr" v="592795" />
		<tag k="waterway" v="stream" />
	</node>
	<node lat="66.12663611339163" lon="12.600794439644947" id="-10566">
		<tag k="name" v="Nordvatnet" />
		<tag k="natural" v="bay" />
		<tag k="ssr:stedsnr" v="653519" />
	</node>
	<node lat="66.19498611195843" lon="12.49628888088024" id="-10585">
		<tag k="name" v="Stor-Bladvatnet" />
		<tag k="natural" v="water" />
		<tag k="ssr:stedsnr" v="713700" />
		<tag k="water" v="lake" />
	</node>
	<node lat="66.06613611510616" lon="12.511072224652075" id="-10600">
		<tag k="name" v="Dyan" />
		<tag k="natural" v="water" />
		<tag k="ssr:stedsnr" v="714536" />
	</node>
	<node lat="66.22261388825532" lon="12.584458338079035" id="-10619">
		<tag k="name" v="Nordøyvatnet" />
		<tag k="natural" v="water" />
		<tag k="ssr:stedsnr" v="743661" />
	</node>
	<node lat="66.1515416635435" lon="12.385372227228691" id="-10645">
		<tag k="name" v="Storåsvannet" />
		<tag k="natural" v="water" />
		<tag k="ssr:stedsnr" v="773317" />
		<tag k="water" v="lake" />
	</node>
	<node lat="66.15428611060477" lon="12.581038898190904" id="-10692">
		<tag k="alt_name" v="Storgleinsvatnet;Storvatnet" />
		<tag k="name" v="Stor-Gleinsvatnet" />
		<tag k="natural" v="water" />
		<tag k="ssr:stedsnr" v="804600" />
		<tag k="water" v="lake" />
	</node>
	<node lat="66.13762222553139" lon="12.51907778641453" id="-10699">
		<tag k="name" v="Skeisvatnet" />
		<tag k="natural" v="water" />
		<tag k="ssr:stedsnr" v="804644" />
		<tag k="water" v="lake" />
	</node>
	<node lat="66.07006111416422" lon="12.49503889400004" id="-10753">
		<tag k="name" v="Svartvatnet" />
		<tag k="natural" v="water" />
		<tag k="ssr:stedsnr" v="836321" />
	</node>
	<node lat="66.17053333097205" lon="12.548541675781328" id="-10757">
		<tag k="name" v="Vassvikja" />
		<tag k="natural" v="bay" />
		<tag k="ssr:stedsnr" v="836374" />
	</node>
	<node lat="66.17196111294396" lon="12.548791669046985" id="-10785">
		<tag k="name" v="Stavsengvatnet" />
		<tag k="natural" v="water" />
		<tag k="ssr:stedsnr" v="865688" />
	</node>
	<node lat="66.08907777602946" lon="12.355002787951529" id="-10812">
		<tag k="name" v="Sørvalen" />
		<tag k="natural" v="water" />
		<tag k="ssr:stedsnr" v="955282" />
		<tag k="water" v="lake" />
	</node>
	<node lat="66.11206388784859" lon="12.59006943655616" id="-10825">
		<tag k="name" v="Brubekken" />
		<tag k="ssr:stedsnr" v="956357" />
		<tag k="waterway" v="stream" />
	</node>
</osm>
