<?xml version="1.0" encoding="UTF-8"?>
<osm version="0.6" generator="osmapis">
	<node lat="66.16305556014451" lon="12.285205546087377" id="-8515">
		<tag k="name" v="Æholmen" />
		<tag k="place" v="islet" />
		<tag k="ssr:stedsnr" v="15621" />
	</node>
	<node lat="66.16826666768465" lon="12.687961118226097" id="-8516">
		<tag k="name" v="Sørvågen" />
		<tag k="natural" v="bay" />
		<tag k="ssr:stedsnr" v="15623" />
	</node>
	<node lat="66.14983055190164" lon="12.693266676089625" id="-8517">
		<tag k="name" v="Svinvika" />
		<tag k="natural" v="bay" />
		<tag k="ssr:stedsnr" v="15653" />
	</node>
	<node lat="66.20892222609264" lon="12.545125000084656" id="-8518">
		<tag k="fixme" v="multiple name tags, choose one and add the other to alt_name" />
		<tag k="name" v="Vestskredingen;Langskrengan" />
		<tag k="place" v="islet" />
		<tag k="ssr:stedsnr" v="15666" />
	</node>
	<node lat="66.17370833005613" lon="12.78684999307218" id="-8519">
		<tag k="name" v="Hornsholmen" />
		<tag k="place" v="islet" />
		<tag k="ssr:stedsnr" v="15806" />
	</node>
	<node lat="66.18540277763346" lon="12.299441666182148" id="-8520">
		<tag k="name" v="Vandvedskallen" />
		<tag k="natural" v="shoal" />
		<tag k="place" v="locality" />
		<tag k="ssr:stedsnr" v="15713" />
	</node>
	<node lat="66.23650833223941" lon="12.275199997065718" id="-8522">
		<tag k="name" v="Litlgåsøya" />
		<tag k="place" v="islet" />
		<tag k="ssr:stedsnr" v="15761" />
	</node>
	<node lat="66.23031389233924" lon="12.632127781107595" id="-8523">
		<tag k="name" v="Stifjorden" />
		<tag k="place" v="sea" />
		<tag k="ssr:stedsnr" v="15762" />
	</node>
	<node lat="66.03265555938756" lon="12.514274989677938" id="-8524">
		<tag k="fixme" v="multiple name tags, choose one and add the other to alt_name" />
		<tag k="name" v="Husholmen;Storskjæret" />
		<tag k="place" v="islet" />
		<tag k="ssr:stedsnr" v="15907" />
	</node>
	<node lat="66.1133999967536" lon="12.280752771864504" id="-8525">
		<tag k="name" v="Steinskjærgrunnen" />
		<tag k="natural" v="shoal" />
		<tag k="place" v="locality" />
		<tag k="ssr:stedsnr" v="30214" />
	</node>
	<node lat="66.21013055450979" lon="12.220944441634835" id="-8526">
		<tag k="name" v="Åsværgården" />
		<tag k="place" v="islet" />
		<tag k="ssr:stedsnr" v="31503" />
	</node>
	<node lat="66.09568888825476" lon="12.652619454311958" id="-8530">
		<tag k="name" v="Rørvikhammaren" />
		<tag k="natural" v="bay" />
		<tag k="ssr:stedsnr" v="44399" />
	</node>
	<node lat="66.08379167055901" lon="12.586483343567217" id="-8537">
		<tag k="name" v="Bjørnsvågjen" />
		<tag k="natural" v="bay" />
		<tag k="ssr:stedsnr" v="45474" />
	</node>
	<node lat="66.11075555833993" lon="12.467925003044483" id="-8543">
		<tag k="name" v="Gårdsvikja" />
		<tag k="natural" v="bay" />
		<tag k="ssr:stedsnr" v="46085" />
	</node>
	<node lat="66.14437777917439" lon="12.731291672524296" id="-8555">
		<tag k="alt_name" v="Sandåkervågen" />
		<tag k="name" v="Sandåkervågjen" />
		<tag k="natural" v="bay" />
		<tag k="ssr:stedsnr" v="76197" />
	</node>
	<node lat="66.21692778153474" lon="12.110602780907637" id="-8556">
		<tag k="name" v="Åsværet" />
		<tag k="place" v="island" />
		<tag k="ssr:stedsnr" v="76352" />
	</node>
	<node lat="66.2204111073151" lon="12.17083054519868" id="-8557">
		<tag k="name" v="Beltøya" />
		<tag k="place" v="islet" />
		<tag k="ssr:stedsnr" v="76361" />
	</node>
	<node lat="66.22759999874113" lon="12.160650004828522" id="-8558">
		<tag k="name" v="Storbåtstøøya" />
		<tag k="place" v="islet" />
		<tag k="ssr:stedsnr" v="76364" />
	</node>
	<node lat="66.21158055676494" lon="12.186625004531543" id="-8559">
		<tag k="name" v="Litlkvaløya" />
		<tag k="place" v="islet" />
		<tag k="ssr:stedsnr" v="76366" />
	</node>
	<node lat="66.20670555327312" lon="12.14216110059175" id="-8560">
		<tag k="name" v="Råsgrunnen" />
		<tag k="natural" v="shoal" />
		<tag k="place" v="locality" />
		<tag k="ssr:stedsnr" v="76369" />
	</node>
	<node lat="66.2091916627497" lon="12.19797777278175" id="-8561">
		<tag k="name" v="Kvaløyhausen" />
		<tag k="place" v="islet" />
		<tag k="ssr:stedsnr" v="76371" />
	</node>
	<node lat="66.17256666275895" lon="12.451474997729003" id="-8562">
		<tag k="name" v="Kvitingen" />
		<tag k="place" v="islet" />
		<tag k="ssr:stedsnr" v="76604" />
	</node>
	<node lat="66.15307777672817" lon="12.26394166932576" id="-8563">
		<tag k="fixme" v="consider seamark:type=rock or natural=shoal" />
		<tag k="name" v="Litlbraken" />
		<tag k="place" v="islet" />
		<tag k="ssr:stedsnr" v="76608" />
	</node>
	<node lat="66.16366571297145" lon="12.561080289040092" id="-8564">
		<tag k="name" v="Åkerøya" />
		<tag k="place" v="island" />
		<tag k="ssr:stedsnr" v="76609" />
	</node>
	<node lat="66.1315638932089" lon="12.250999995282239" id="-8565">
		<tag k="alt_name" v="Rodøya" />
		<tag k="fixme" v="consider seamark:type=rock or natural=shoal" />
		<tag k="name" v="Rotøya" />
		<tag k="place" v="islet" />
		<tag k="ssr:stedsnr" v="76612" />
	</node>
	<node lat="66.22536388631397" lon="12.562680551056266" id="-8566">
		<tag k="name" v="Utøya" />
		<tag k="place" v="island" />
		<tag k="ssr:stedsnr" v="76658" />
	</node>
	<node lat="66.21969722617901" lon="12.488691661324795" id="-8567">
		<tag k="name" v="Gardsgrunnen" />
		<tag k="natural" v="shoal" />
		<tag k="place" v="locality" />
		<tag k="ssr:stedsnr" v="76660" />
	</node>
	<node lat="66.10578531590627" lon="12.323430690216695" id="-8570">
		<tag k="name" v="Storrevholmen" />
		<tag k="place" v="islet" />
		<tag k="ssr:stedsnr" v="76566" />
	</node>
	<node lat="66.21910277981465" lon="12.24433333658562" id="-8573">
		<tag k="name" v="Lassan" />
		<tag k="natural" v="shoal" />
		<tag k="place" v="locality" />
		<tag k="ssr:stedsnr" v="92571" />
	</node>
	<node lat="66.15825833168432" lon="12.623183334289546" id="-8577">
		<tag k="name" v="Gleinsvågjen" />
		<tag k="natural" v="bay" />
		<tag k="ssr:stedsnr" v="106271" />
	</node>
	<node lat="66.15531944339095" lon="12.397136114784363" id="-8579">
		<tag k="name" v="Grindnesvågjen" />
		<tag k="natural" v="bay" />
		<tag k="ssr:stedsnr" v="106277" />
	</node>
	<node lat="66.08417778112727" lon="12.32018888498393" id="-8580">
		<tag k="fixme" v="consider seamark:type=rock or natural=shoal" />
		<tag k="name" v="Vesterdragjet" />
		<tag k="place" v="islet" />
		<tag k="ssr:stedsnr" v="106281" />
	</node>
	<node lat="66.19932777438675" lon="12.519427768724" id="-8586">
		<tag k="name" v="Langneset" />
		<tag k="natural" v="cape" />
		<tag k="ssr:stedsnr" v="106623" />
	</node>
	<node lat="66.16507499871952" lon="12.359297226504488" id="-8588">
		<tag k="name" v="Småhavsteinan" />
		<tag k="place" v="islet" />
		<tag k="ssr:stedsnr" v="106671" />
	</node>
	<node lat="66.15464166240594" lon="12.802975008148556" id="-8599">
		<tag k="name" v="Båtneset" />
		<tag k="natural" v="cape" />
		<tag k="ssr:stedsnr" v="136013" />
	</node>
	<node lat="66.19796944659122" lon="12.162391655891845" id="-8600">
		<tag k="name" v="Alteret" />
		<tag k="natural" v="shoal" />
		<tag k="place" v="locality" />
		<tag k="ssr:stedsnr" v="136404" />
	</node>
	<node lat="66.19655833525543" lon="12.152036107745833" id="-8601">
		<tag k="fixme" v="consider seamark:type=rock or natural=shoal" />
		<tag k="name" v="Storlangskjæret" />
		<tag k="place" v="islet" />
		<tag k="ssr:stedsnr" v="136407" />
	</node>
	<node lat="66.09086388477559" lon="12.342055563644314" id="-8602">
		<tag k="fixme" v="multiple name tags, choose one and add the other to alt_name" />
		<tag k="name" v="Rørholmen;Liss-Langøya" />
		<tag k="place" v="islet" />
		<tag k="ssr:stedsnr" v="136559" />
	</node>
	<node lat="66.17550000276226" lon="12.496855559272811" id="-8604">
		<tag k="name" v="Storvika" />
		<tag k="natural" v="bay" />
		<tag k="ssr:stedsnr" v="136599" />
	</node>
	<node lat="66.14677221972396" lon="12.31430833752629" id="-8605">
		<tag k="alt_name" v="Vandved" />
		<tag k="name" v="Vandve" />
		<tag k="place" v="island" />
		<tag k="ssr:stedsnr" v="136602" />
	</node>
	<node lat="66.20734999906081" lon="12.54674165732782" id="-8607">
		<tag k="alt_name" v="Langskredingen" />
		<tag k="name" v="Brandsnesøya" />
		<tag k="place" v="islet" />
		<tag k="ssr:stedsnr" v="136657" />
	</node>
	<node lat="66.22009722267661" lon="12.597699999748317" id="-8608">
		<tag k="name" v="Nordvågen" />
		<tag k="natural" v="bay" />
		<tag k="ssr:stedsnr" v="136664" />
	</node>
	<node lat="66.02138888906036" lon="12.48072223083814" id="-8610">
		<tag k="name" v="Ormsøya" />
		<tag k="place" v="island" />
		<tag k="ssr:stedsnr" v="137904" />
	</node>
	<node lat="66.15500000202182" lon="12.339999989683921" id="-8611">
		<tag k="name" v="Instøya" />
		<tag k="place" v="island" />
		<tag k="ssr:stedsnr" v="141580" />
	</node>
	<node lat="66.13337222178086" lon="12.297516663200849" id="-8612">
		<tag k="name" v="Laøya" />
		<tag k="place" v="island" />
		<tag k="ssr:stedsnr" v="146821" />
	</node>
	<node lat="66.26575555651978" lon="12.296183341193473" id="-8613">
		<tag k="name" v="Andersbakken" />
		<tag k="place" v="islet" />
		<tag k="ssr:stedsnr" v="258283" />
	</node>
	<node lat="66.25182221950844" lon="12.108047219931482" id="-8614">
		<tag k="name" v="Skinarmskoltan" />
		<tag k="natural" v="shoal" />
		<tag k="place" v="locality" />
		<tag k="ssr:stedsnr" v="258219" />
	</node>
	<node lat="66.25311666349177" lon="12.120502767704052" id="-8615">
		<tag k="name" v="Skardholmen" />
		<tag k="place" v="islet" />
		<tag k="ssr:stedsnr" v="258220" />
	</node>
	<node lat="66.14315277661537" lon="12.734947222784427" id="-8616">
		<tag k="name" v="Halsneset" />
		<tag k="natural" v="cape" />
		<tag k="ssr:stedsnr" v="258181" />
	</node>
	<node lat="66.12690833054884" lon="12.633680555600106" id="-8617">
		<tag k="alt_name" v="Tråneset" />
		<tag k="name" v="Troneset" />
		<tag k="natural" v="cape" />
		<tag k="ssr:stedsnr" v="258493" />
	</node>
	<node lat="66.21747499889378" lon="12.200475003844959" id="-8623">
		<tag k="name" v="Simonøya" />
		<tag k="place" v="islet" />
		<tag k="ssr:stedsnr" v="258356" />
	</node>
	<node lat="66.20815000341662" lon="12.163911106192236" id="-8624">
		<tag k="name" v="Steinsholman" />
		<tag k="place" v="islet" />
		<tag k="ssr:stedsnr" v="258362" />
	</node>
	<node lat="66.20648611498696" lon="12.099599995657972" id="-8625">
		<tag k="fixme" v="consider seamark:type=rock or natural=shoal" />
		<tag k="name" v="Brørn" />
		<tag k="place" v="islet" />
		<tag k="ssr:stedsnr" v="258365" />
	</node>
	<node lat="66.20497499535917" lon="12.150619454871794" id="-8626">
		<tag k="fixme" v="consider seamark:type=rock or natural=shoal" />
		<tag k="name" v="Lisslangskjæret" />
		<tag k="place" v="islet" />
		<tag k="ssr:stedsnr" v="258371" />
	</node>
	<node lat="66.24291111397602" lon="12.152686107944795" id="-8627">
		<tag k="fixme" v="consider seamark:type=rock or natural=shoal" />
		<tag k="name" v="Tarsundskjæran" />
		<tag k="place" v="islet" />
		<tag k="ssr:stedsnr" v="258398" />
	</node>
	<node lat="66.13210555850218" lon="12.374341673405528" id="-8628">
		<tag k="fixme" v="consider seamark:type=rock or natural=shoal" />
		<tag k="name" v="Myrvikskjæran" />
		<tag k="place" v="islet" />
		<tag k="ssr:stedsnr" v="258606" />
	</node>
	<node lat="66.14124166238851" lon="12.346655564260884" id="-8629">
		<tag k="name" v="Litllauvøya" />
		<tag k="place" v="islet" />
		<tag k="ssr:stedsnr" v="258615" />
	</node>
	<node lat="66.1451111138784" lon="12.483319445662843" id="-8630">
		<tag k="fixme" v="consider seamark:type=rock or natural=shoal" />
		<tag k="name" v="Kjeøyskjæran" />
		<tag k="place" v="islet" />
		<tag k="ssr:stedsnr" v="258619" />
	</node>
	<node lat="66.19622777694396" lon="12.367319448397211" id="-8632">
		<tag k="name" v="Skådskallen" />
		<tag k="natural" v="shoal" />
		<tag k="place" v="locality" />
		<tag k="ssr:stedsnr" v="258635" />
	</node>
	<node lat="66.23354444858472" lon="12.265108326585276" id="-8634">
		<tag k="name" v="Ramnøya" />
		<tag k="place" v="islet" />
		<tag k="ssr:stedsnr" v="258729" />
	</node>
	<node lat="66.06229999662688" lon="12.37830555108441" id="-8636">
		<tag k="name" v="Kausneset" />
		<tag k="natural" v="cape" />
		<tag k="ssr:stedsnr" v="258960" />
	</node>
	<node lat="66.04820833119335" lon="12.583047229591395" id="-8637">
		<tag k="name" v="Tangan" />
		<tag k="natural" v="cape" />
		<tag k="ssr:stedsnr" v="258972" />
	</node>
	<node lat="66.04967499758715" lon="12.514305565570856" id="-8640">
		<tag k="name" v="Jektholmen" />
		<tag k="place" v="islet" />
		<tag k="ssr:stedsnr" v="258998" />
	</node>
	<node lat="66.08104722004293" lon="12.411400000188015" id="-8641">
		<tag k="name" v="Litllangøya" />
		<tag k="place" v="islet" />
		<tag k="ssr:stedsnr" v="258938" />
	</node>
	<node lat="66.14413055614087" lon="12.583291669054862" id="-8648">
		<tag k="name" v="Granvågjen" />
		<tag k="natural" v="bay" />
		<tag k="ssr:stedsnr" v="167266" />
	</node>
	<node lat="66.08342222018827" lon="12.42199721897785" id="-8651">
		<tag k="name" v="Bukkholmen" />
		<tag k="place" v="islet" />
		<tag k="ssr:stedsnr" v="167308" />
	</node>
	<node lat="66.07433332927958" lon="12.32360832886335" id="-8652">
		<tag k="name" v="Korsholmen" />
		<tag k="place" v="islet" />
		<tag k="ssr:stedsnr" v="167313" />
	</node>
	<node lat="66.14987222541505" lon="12.37121389675708" id="-8653">
		<tag k="name" v="Gognstøa" />
		<tag k="natural" v="bay" />
		<tag k="ssr:stedsnr" v="167315" />
	</node>
	<node lat="66.1470083351878" lon="12.343324995534669" id="-8656">
		<tag k="name" v="Eholmen" />
		<tag k="place" v="islet" />
		<tag k="ssr:stedsnr" v="167323" />
	</node>
	<node lat="66.17259999789935" lon="12.34684445516786" id="-8661">
		<tag k="name" v="Skutneset" />
		<tag k="natural" v="cape" />
		<tag k="ssr:stedsnr" v="167725" />
	</node>
	<node lat="66.02786111057785" lon="12.38954165855931" id="-8677">
		<tag k="name" v="Breivika" />
		<tag k="natural" v="bay" />
		<tag k="ssr:stedsnr" v="197071" />
	</node>
	<node lat="66.11397222664695" lon="12.383038886478221" id="-8680">
		<tag k="name" v="Sørbuøya" />
		<tag k="place" v="islet" />
		<tag k="ssr:stedsnr" v="197562" />
	</node>
	<node lat="66.20631666748943" lon="12.217074999044113" id="-8681">
		<tag k="name" v="Litlengøya" />
		<tag k="place" v="islet" />
		<tag k="ssr:stedsnr" v="197411" />
	</node>
	<node lat="66.23885000391434" lon="12.160549990541973" id="-8682">
		<tag k="fixme" v="consider seamark:type=rock or natural=shoal" />
		<tag k="name" v="Foten" />
		<tag k="place" v="islet" />
		<tag k="ssr:stedsnr" v="197426" />
	</node>
	<node lat="66.16490555732068" lon="12.54939443618307" id="-8683">
		<tag k="bay" v="fjord" />
		<tag k="name" v="Åkervågen" />
		<tag k="natural" v="bay" />
		<tag k="ssr:stedsnr" v="197602" />
	</node>
	<node lat="66.24800555233095" lon="12.275577771710863" id="-8684">
		<tag k="name" v="Hellerøya" />
		<tag k="place" v="island" />
		<tag k="ssr:stedsnr" v="197759" />
	</node>
	<node lat="66.02967500126115" lon="12.458647228711023" id="-8685">
		<tag k="name" v="Teistadgrunnen" />
		<tag k="natural" v="shoal" />
		<tag k="place" v="locality" />
		<tag k="ssr:stedsnr" v="197916" />
	</node>
	<node lat="66.02486110959636" lon="12.497541670115622" id="-8686">
		<tag k="name" v="Lisslauvøya" />
		<tag k="place" v="island" />
		<tag k="ssr:stedsnr" v="197917" />
	</node>
	<node lat="66.19929721852274" lon="12.41240834272715" id="-8687">
		<tag k="alt_name" v="Rølvågodden" />
		<tag k="name" v="Rølvågoddan" />
		<tag k="place" v="islet" />
		<tag k="ssr:stedsnr" v="197657" />
	</node>
	<node lat="66.2184694428286" lon="12.550841672555684" id="-8690">
		<tag k="alt_name" v="Raudholmen" />
		<tag k="name" v="Rauholmen" />
		<tag k="natural" v="cape" />
		<tag k="ssr:stedsnr" v="197677" />
	</node>
	<node lat="66.25258888474994" lon="12.317630546040768" id="-8691">
		<tag k="name" v="Flatskinnholman" />
		<tag k="place" v="islet" />
		<tag k="ssr:stedsnr" v="198215" />
	</node>
	<node lat="66.25894999910248" lon="12.306591665895372" id="-8692">
		<tag k="name" v="Brattskinnholman" />
		<tag k="place" v="islet" />
		<tag k="ssr:stedsnr" v="198223" />
	</node>
	<node lat="66.17915833480092" lon="12.46152778455649" id="-8693">
		<tag k="alt_name" v="Valan" />
		<tag k="name" v="Valane" />
		<tag k="place" v="islet" />
		<tag k="ssr:stedsnr" v="198654" />
	</node>
	<node lat="66.17777222058474" lon="12.524352770508395" id="-8694">
		<tag k="name" v="Vikneset" />
		<tag k="natural" v="cape" />
		<tag k="ssr:stedsnr" v="198656" />
	</node>
	<node lat="66.02062499782039" lon="12.294822215569717" id="-8695">
		<tag k="name" v="Nordfrydholmen" />
		<tag k="place" v="islet" />
		<tag k="ssr:stedsnr" v="198919" />
	</node>
	<node lat="66.10140000115894" lon="12.416102783571795" id="-8698">
		<tag k="name" v="Sildvikja" />
		<tag k="natural" v="bay" />
		<tag k="ssr:stedsnr" v="220875" />
	</node>
	<node lat="66.15520555836041" lon="12.399941677722127" id="-8699">
		<tag k="name" v="Grindneset" />
		<tag k="natural" v="cape" />
		<tag k="ssr:stedsnr" v="227282" />
	</node>
	<node lat="66.08582221870057" lon="12.34063888795548" id="-8700">
		<tag k="name" v="Krokhamn" />
		<tag k="natural" v="cape" />
		<tag k="ssr:stedsnr" v="227287" />
	</node>
	<node lat="66.08267777682545" lon="12.603591674999151" id="-8712">
		<tag k="name" v="Lissøysundet" />
		<tag k="natural" v="strait" />
		<tag k="ssr:stedsnr" v="228496" />
	</node>
	<node lat="66.04548055278502" lon="12.520627775918328" id="-8713">
		<tag k="name" v="Gognstøvikja" />
		<tag k="natural" v="bay" />
		<tag k="ssr:stedsnr" v="228608" />
	</node>
	<node lat="66.12338888891288" lon="12.642061116555846" id="-8714">
		<tag k="fixme" v="consider seamark:type=rock or natural=shoal" />
		<tag k="name" v="Rørvikskjæret" />
		<tag k="place" v="islet" />
		<tag k="ssr:stedsnr" v="228611" />
	</node>
	<node lat="66.04285277359502" lon="12.482333339798712" id="-8719">
		<tag k="name" v="Grønnesøra" />
		<tag k="natural" v="cape" />
		<tag k="ssr:stedsnr" v="228582" />
	</node>
	<node lat="66.12815555960499" lon="12.320661107813008" id="-8724">
		<tag k="name" v="Lyngholmen" />
		<tag k="place" v="islet" />
		<tag k="ssr:stedsnr" v="228908" />
	</node>
	<node lat="66.12225277554474" lon="12.26669166183491" id="-8725">
		<tag k="name" v="Lamøyvalen" />
		<tag k="natural" v="strait" />
		<tag k="ssr:stedsnr" v="228937" />
	</node>
	<node lat="66.11961388737217" lon="12.426958324987298" id="-8728">
		<tag k="name" v="Oterholmen" />
		<tag k="place" v="islet" />
		<tag k="ssr:stedsnr" v="258505" />
	</node>
	<node lat="66.11996667051156" lon="12.344144449863503" id="-8729">
		<tag k="fixme" v="consider seamark:type=rock or natural=shoal" />
		<tag k="name" v="Flatholmen" />
		<tag k="place" v="islet" />
		<tag k="ssr:stedsnr" v="258506" />
	</node>
	<node lat="66.12170277741876" lon="12.243452778196053" id="-8730">
		<tag k="alt_name" v="Flatholman" />
		<tag k="name" v="Flatholmen" />
		<tag k="place" v="islet" />
		<tag k="ssr:stedsnr" v="258513" />
	</node>
	<node lat="66.12674166994017" lon="12.407991667866575" id="-8731">
		<tag k="fixme" v="consider seamark:type=rock or natural=shoal" />
		<tag k="name" v="Einskjæran" />
		<tag k="place" v="islet" />
		<tag k="ssr:stedsnr" v="258522" />
	</node>
	<node lat="66.14656389242612" lon="12.251255548389599" id="-8733">
		<tag k="fixme" v="multiple name tags, choose one and add the other to alt_name" />
		<tag k="name" v="Brakdrægene;Stor-Braken" />
		<tag k="place" v="island" />
		<tag k="ssr:stedsnr" v="258564" />
	</node>
	<node lat="66.14553055507402" lon="12.269005552190613" id="-8735">
		<tag k="alt_name" v="Sandflesa" />
		<tag k="name" v="Sandflæsa" />
		<tag k="place" v="islet" />
		<tag k="ssr:stedsnr" v="258567" />
	</node>
	<node lat="66.21491944704331" lon="12.561930561958674" id="-8736">
		<tag k="alt_name" v="Sørøyvågen" />
		<tag k="name" v="Sørøyvågjen" />
		<tag k="natural" v="bay" />
		<tag k="ssr:stedsnr" v="258653" />
	</node>
	<node lat="66.22042500022452" lon="12.229369447338366" id="-8737">
		<tag k="name" v="Perøyskjæret" />
		<tag k="place" v="islet" />
		<tag k="ssr:stedsnr" v="258664" />
	</node>
	<node lat="66.01259167053566" lon="12.476038900317057" id="-8738">
		<tag k="name" v="Kåsøya" />
		<tag k="place" v="islet" />
		<tag k="ssr:stedsnr" v="258908" />
	</node>
	<node lat="66.01685555818955" lon="12.480925007919431" id="-8739">
		<tag k="name" v="Æsøya" />
		<tag k="place" v="islet" />
		<tag k="ssr:stedsnr" v="258912" />
	</node>
	<node lat="66.14821111303247" lon="12.370019436149912" id="-8745">
		<tag k="name" v="Nautøya" />
		<tag k="place" v="islet" />
		<tag k="ssr:stedsnr" v="289303" />
	</node>
	<node lat="66.11735555426918" lon="12.625761121575618" id="-8746">
		<tag k="name" v="Storavikja" />
		<tag k="natural" v="bay" />
		<tag k="ssr:stedsnr" v="289308" />
	</node>
	<node lat="66.05212222551" lon="12.569044442422372" id="-8751">
		<tag k="name" v="Småtangan" />
		<tag k="natural" v="cape" />
		<tag k="ssr:stedsnr" v="289603" />
	</node>
	<node lat="66.0311833320384" lon="12.538377776786303" id="-8756">
		<tag k="name" v="Løvøyodden" />
		<tag k="natural" v="cape" />
		<tag k="ssr:stedsnr" v="289815" />
	</node>
	<node lat="66.11565833032448" lon="12.47409166107288" id="-8765">
		<tag k="fixme" v="consider seamark:type=rock or natural=shoal" />
		<tag k="name" v="Rundskarskjæret" />
		<tag k="place" v="islet" />
		<tag k="ssr:stedsnr" v="290782" />
	</node>
	<node lat="66.21993055228755" lon="12.609463885479327" id="-8766">
		<tag k="name" v="Engelsholmen" />
		<tag k="place" v="islet" />
		<tag k="ssr:stedsnr" v="291405" />
	</node>
	<node lat="66.24910555672434" lon="12.211505557218159" id="-8769">
		<tag k="name" v="Froen" />
		<tag k="place" v="islet" />
		<tag k="ssr:stedsnr" v="318403" />
	</node>
	<node lat="66.13201389197636" lon="12.333544438418622" id="-8770">
		<tag k="name" v="Hestøya" />
		<tag k="place" v="island" />
		<tag k="ssr:stedsnr" v="318612" />
	</node>
	<node lat="66.14224497778774" lon="12.493523648395467" id="-8771">
		<tag k="name" v="Kjeøya" />
		<tag k="place" v="island" />
		<tag k="ssr:stedsnr" v="318637" />
	</node>
	<node lat="66.14770833100094" lon="12.512988899565878" id="-8772">
		<tag k="name" v="Nordneset" />
		<tag k="natural" v="cape" />
		<tag k="ssr:stedsnr" v="318639" />
	</node>
	<node lat="66.12408610907973" lon="12.383716668262851" id="-8773">
		<tag k="name" v="Blanktaren" />
		<tag k="natural" v="shoal" />
		<tag k="place" v="locality" />
		<tag k="ssr:stedsnr" v="318540" />
	</node>
	<node lat="66.22766388644783" lon="12.260230549721172" id="-8774">
		<tag k="name" v="Tromsøya" />
		<tag k="place" v="islet" />
		<tag k="ssr:stedsnr" v="318726" />
	</node>
	<node lat="66.22634721981346" lon="12.265580549648705" id="-8775">
		<tag k="name" v="Blomsterholmen" />
		<tag k="place" v="islet" />
		<tag k="ssr:stedsnr" v="318728" />
	</node>
	<node lat="66.25665277631265" lon="12.263288899503575" id="-8776">
		<tag k="alt_name" v="Tostenberg" />
		<tag k="name" v="Tostenbergøya" />
		<tag k="place" v="island" />
		<tag k="ssr:stedsnr" v="319254" />
	</node>
	<node lat="66.14905733724609" lon="12.215745392912435" id="-8777">
		<tag k="fixme" v="multiple name tags, choose one and add the other to alt_name; consider seamark:type=rock or natural=shoal" />
		<tag k="name" v="Nubb;Langtarskjæret" />
		<tag k="place" v="islet" />
		<tag k="ssr:stedsnr" v="319307" />
	</node>
	<node lat="66.17725277342574" lon="12.425636115454068" id="-8778">
		<tag k="name" v="Breigrunnen" />
		<tag k="natural" v="shoal" />
		<tag k="place" v="locality" />
		<tag k="ssr:stedsnr" v="319651" />
	</node>
	<node lat="66.06326135129696" lon="12.558943471784936" id="-8779">
		<tag k="fixme" v="multiple name tags, choose one and add the other to alt_name" />
		<tag k="name" v="Storhaugneset;Storvikneset" />
		<tag k="natural" v="cape" />
		<tag k="ssr:stedsnr" v="319986" />
	</node>
	<node lat="66.04659444728209" lon="12.31408888273588" id="-8780">
		<tag k="fixme" v="consider seamark:type=rock or natural=shoal" />
		<tag k="name" v="Seiskjæret" />
		<tag k="place" v="islet" />
		<tag k="ssr:stedsnr" v="319990" />
	</node>
	<node lat="66.16746388901132" lon="12.547066677734916" id="-8785">
		<tag k="name" v="Bruvikneset" />
		<tag k="natural" v="cape" />
		<tag k="ssr:stedsnr" v="471434" />
	</node>
	<node lat="66.14053332946267" lon="12.228616659362732" id="-8788">
		<tag k="name" v="Nubbskjærdragjet" />
		<tag k="natural" v="shoal" />
		<tag k="place" v="locality" />
		<tag k="ssr:stedsnr" v="470293" />
	</node>
	<node lat="66.19074166266671" lon="12.485958330258985" id="-8794">
		<tag k="name" v="Skjåholmen" />
		<tag k="place" v="islet" />
		<tag k="ssr:stedsnr" v="470656" />
	</node>
	<node lat="66.16553610907167" lon="12.721505545627261" id="-8800">
		<tag k="name" v="Krongelvikja" />
		<tag k="natural" v="bay" />
		<tag k="ssr:stedsnr" v="471354" />
	</node>
	<node lat="66.0261750008015" lon="12.303077766997093" id="-8805">
		<tag k="name" v="Verholmvalen" />
		<tag k="natural" v="strait" />
		<tag k="ssr:stedsnr" v="471698" />
	</node>
	<node lat="66.0191472223578" lon="12.299011113541205" id="-8807">
		<tag k="name" v="Hansan" />
		<tag k="natural" v="bay" />
		<tag k="ssr:stedsnr" v="471747" />
	</node>
	<node lat="66.01561944374924" lon="12.517988892885812" id="-8808">
		<tag k="bay" v="fjord" />
		<tag k="name" v="Alstenfjorden" />
		<tag k="natural" v="bay" />
		<tag k="ssr:stedsnr" v="471753" />
	</node>
	<node lat="66.11026110752172" lon="12.484816676587215" id="-8817">
		<tag k="name" v="Sørvikabukta" />
		<tag k="natural" v="bay" />
		<tag k="ssr:stedsnr" v="349107" />
	</node>
	<node lat="66.04382499802378" lon="12.515399998937589" id="-8832">
		<tag k="name" v="Leirfjæro" />
		<tag k="natural" v="bay" />
		<tag k="ssr:stedsnr" v="350505" />
	</node>
	<node lat="66.1099027778799" lon="12.482808343250099" id="-8834">
		<tag k="name" v="Skutvikgrunnen" />
		<tag k="natural" v="shoal" />
		<tag k="place" v="locality" />
		<tag k="ssr:stedsnr" v="479890" />
	</node>
	<node lat="66.2003555588495" lon="12.082841659098664" id="-8835">
		<tag k="fixme" v="consider seamark:type=rock or natural=shoal" />
		<tag k="name" v="Auken" />
		<tag k="place" v="islet" />
		<tag k="ssr:stedsnr" v="379362" />
	</node>
	<node lat="66.12356944859617" lon="12.265858335150567" id="-8836">
		<tag k="name" v="Lamøya" />
		<tag k="place" v="island" />
		<tag k="ssr:stedsnr" v="379506" />
	</node>
	<node lat="66.12372222303264" lon="12.58231388713841" id="-8840">
		<tag k="name" v="Vassvika" />
		<tag k="natural" v="bay" />
		<tag k="ssr:stedsnr" v="379483" />
	</node>
	<node lat="66.11852778163836" lon="12.620641667062761" id="-8841">
		<tag k="alt_name" v="Kjeholmen" />
		<tag k="name" v="Kjiholmen" />
		<tag k="place" v="islet" />
		<tag k="ssr:stedsnr" v="379485" />
	</node>
	<node lat="66.16441053368061" lon="12.776125698280802" id="-8843">
		<tag k="name" v="Elholmen" />
		<tag k="place" v="islet" />
		<tag k="ssr:stedsnr" v="379767" />
	</node>
	<node lat="66.16331110728719" lon="12.801502774513663" id="-8844">
		<tag k="alt_name" v="Stakarneset" />
		<tag k="name" v="Stagarneset" />
		<tag k="natural" v="cape" />
		<tag k="ssr:stedsnr" v="379768" />
	</node>
	<node lat="66.11580000220198" lon="12.470716660163331" id="-8846">
		<tag k="fixme" v="consider seamark:type=rock or natural=shoal" />
		<tag k="name" v="Langskarskjæret" />
		<tag k="place" v="islet" />
		<tag k="ssr:stedsnr" v="407126" />
	</node>
	<node lat="66.08159444661047" lon="12.429413899771554" id="-8848">
		<tag k="name" v="Hølneset" />
		<tag k="natural" v="cape" />
		<tag k="ssr:stedsnr" v="410309" />
	</node>
	<node lat="66.14561666340637" lon="12.35355833728053" id="-8849">
		<tag k="name" v="Småvågan" />
		<tag k="natural" v="strait" />
		<tag k="ssr:stedsnr" v="410324" />
	</node>
	<node lat="66.034169442526" lon="12.542441671182717" id="-8854">
		<tag k="name" v="Seterbukta" />
		<tag k="natural" v="bay" />
		<tag k="ssr:stedsnr" v="410717" />
	</node>
	<node lat="66.1206888884059" lon="12.48216944276109" id="-8859">
		<tag k="name" v="Buøyvalen" />
		<tag k="natural" v="bay" />
		<tag k="ssr:stedsnr" v="410902" />
	</node>
	<node lat="66.17103610742082" lon="12.740974994017376" id="-8861">
		<tag k="name" v="Vangsodden" />
		<tag k="natural" v="cape" />
		<tag k="ssr:stedsnr" v="411342" />
	</node>
	<node lat="66.23394721909847" lon="12.16943888808771" id="-8862">
		<tag k="name" v="Indre Ramnøyskjæret" />
		<tag k="place" v="islet" />
		<tag k="ssr:stedsnr" v="440411" />
	</node>
	<node lat="66.24080000168249" lon="12.215588891518626" id="-8863">
		<tag k="name" v="Litlpolløya" />
		<tag k="place" v="islet" />
		<tag k="ssr:stedsnr" v="440414" />
	</node>
	<node lat="66.11137499868306" lon="12.354991662089786" id="-8867">
		<tag k="name" v="Gjæsøya" />
		<tag k="place" v="island" />
		<tag k="ssr:stedsnr" v="440554" />
	</node>
	<node lat="66.04009166562749" lon="12.393977782404077" id="-8868">
		<tag k="name" v="Dønna" />
		<tag k="place" v="island" />
		<tag k="ssr:stedsnr" v="440558" />
	</node>
	<node lat="66.1419500009433" lon="12.394508333941538" id="-8869">
		<tag k="fixme" v="consider seamark:type=rock or natural=shoal" />
		<tag k="name" v="Småskjæran" />
		<tag k="place" v="islet" />
		<tag k="ssr:stedsnr" v="440602" />
	</node>
	<node lat="66.14695555135255" lon="12.693869434248608" id="-8870">
		<tag k="name" v="Barkkaret" />
		<tag k="natural" v="bay" />
		<tag k="ssr:stedsnr" v="440609" />
	</node>
	<node lat="66.21257777364393" lon="12.607413885620188" id="-8871">
		<tag k="name" v="Smørvikja" />
		<tag k="natural" v="bay" />
		<tag k="ssr:stedsnr" v="440612" />
	</node>
	<node lat="66.21137222429273" lon="12.608419445977551" id="-8872">
		<tag k="name" v="Slåttvika" />
		<tag k="natural" v="bay" />
		<tag k="ssr:stedsnr" v="440614" />
	</node>
	<node lat="66.20686944827287" lon="12.56860277603511" id="-8873">
		<tag k="alt_name" v="Bryggevika" />
		<tag k="name" v="Bryggvikja" />
		<tag k="natural" v="bay" />
		<tag k="ssr:stedsnr" v="440617" />
	</node>
	<node lat="66.22359166945003" lon="12.568238890813303" id="-8874">
		<tag k="name" v="Utøysundet" />
		<tag k="natural" v="strait" />
		<tag k="ssr:stedsnr" v="440638" />
	</node>
	<node lat="66.2229555600792" lon="12.324997215120076" id="-8875">
		<tag k="name" v="Landvindsholman" />
		<tag k="place" v="islet" />
		<tag k="ssr:stedsnr" v="440641" />
	</node>
	<node lat="66.18161666444661" lon="12.366655546137123" id="-8876">
		<tag k="name" v="Sandholmbuøya" />
		<tag k="place" v="island" />
		<tag k="ssr:stedsnr" v="440651" />
	</node>
	<node lat="66.23158610932128" lon="12.315361106337248" id="-8877">
		<tag k="name" v="Vestredraget" />
		<tag k="place" v="islet" />
		<tag k="ssr:stedsnr" v="440698" />
	</node>
	<node lat="66.08495277754467" lon="12.531075008678373" id="-8878">
		<tag k="alt_name" v="Stakkenden" />
		<tag k="name" v="Stakkendet" />
		<tag k="natural" v="bay" />
		<tag k="ssr:stedsnr" v="440941" />
	</node>
	<node lat="66.01753333418284" lon="12.296761109922537" id="-8880">
		<tag k="name" v="Frydholmgrunnen" />
		<tag k="natural" v="shoal" />
		<tag k="place" v="locality" />
		<tag k="ssr:stedsnr" v="451724" />
	</node>
	<node lat="66.12594999840361" lon="12.638594439186873" id="-8881">
		<tag k="name" v="Pørkholmen" />
		<tag k="place" v="islet" />
		<tag k="ssr:stedsnr" v="461530" />
	</node>
	<node lat="66.117341667049" lon="12.396588887861908" id="-8882">
		<tag k="name" v="Ravnøya" />
		<tag k="place" v="islet" />
		<tag k="ssr:stedsnr" v="463862" />
	</node>
	<node lat="66.15833611422897" lon="12.353852777593758" id="-8888">
		<tag k="name" v="Småhavsteinan" />
		<tag k="place" v="island" />
		<tag k="ssr:stedsnr" v="470280" />
	</node>
	<node lat="66.07910833354862" lon="12.583861116519811" id="-8894">
		<tag k="name" v="Finnholmen" />
		<tag k="place" v="islet" />
		<tag k="ssr:stedsnr" v="470373" />
	</node>
	<node lat="66.18466944473677" lon="12.74829443931392" id="-8896">
		<tag k="name" v="Hysskjæret" />
		<tag k="natural" v="cape" />
		<tag k="ssr:stedsnr" v="470689" />
	</node>
	<node lat="66.16224721907479" lon="12.546369439831098" id="-8899">
		<tag k="name" v="Vardneset" />
		<tag k="natural" v="cape" />
		<tag k="ssr:stedsnr" v="471373" />
	</node>
	<node lat="66.04128888565545" lon="12.32287500862764" id="-8903">
		<tag k="name" v="Smedvikstranda" />
		<tag k="natural" v="beach" />
		<tag k="ssr:stedsnr" v="471576" />
	</node>
	<node lat="66.11031666995885" lon="12.263977771356663" id="-8906">
		<tag k="fixme" v="consider seamark:type=rock or natural=shoal" />
		<tag k="name" v="Ersholmskjæret" />
		<tag k="place" v="islet" />
		<tag k="ssr:stedsnr" v="500582" />
	</node>
	<node lat="66.22834167033248" lon="12.316761103410649" id="-8907">
		<tag k="fixme" v="consider seamark:type=rock or natural=shoal" />
		<tag k="name" v="Ternskjæret" />
		<tag k="place" v="islet" />
		<tag k="ssr:stedsnr" v="500778" />
	</node>
	<node lat="66.11118611520335" lon="12.65700834146565" id="-8908">
		<tag k="alt_name" v="Stigvika" />
		<tag k="name" v="Stivikja" />
		<tag k="natural" v="bay" />
		<tag k="ssr:stedsnr" v="500630" />
	</node>
	<node lat="66.13826111212413" lon="12.564569439538385" id="-8909">
		<tag k="alt_name" v="Kråkdalsvågen" />
		<tag k="bay" v="fjord" />
		<tag k="name" v="Kråkdalsvågjen" />
		<tag k="natural" v="bay" />
		<tag k="ssr:stedsnr" v="500687" />
	</node>
	<node lat="66.17575833584625" lon="12.36341943992522" id="-8911">
		<tag k="fixme" v="consider seamark:type=rock or natural=shoal" />
		<tag k="name" v="Ørnskjæran" />
		<tag k="place" v="islet" />
		<tag k="ssr:stedsnr" v="501637" />
	</node>
	<node lat="66.03680277632587" lon="12.307591665336183" id="-8915">
		<tag k="name" v="Åkviksundet" />
		<tag k="natural" v="strait" />
		<tag k="ssr:stedsnr" v="501991" />
	</node>
	<node lat="66.22007499932548" lon="12.608205556580009" id="-8917">
		<tag k="name" v="Skjåberget" />
		<tag k="natural" v="cape" />
		<tag k="ssr:stedsnr" v="506558" />
	</node>
	<node lat="66.21342777770379" lon="12.126850004640708" id="-8918">
		<tag k="fixme" v="consider seamark:type=rock or natural=shoal" />
		<tag k="name" v="Gjessnakken" />
		<tag k="place" v="islet" />
		<tag k="ssr:stedsnr" v="682384" />
	</node>
	<node lat="66.23645277348537" lon="12.20686389197471" id="-8919">
		<tag k="name" v="Tjørnøya" />
		<tag k="place" v="islet" />
		<tag k="ssr:stedsnr" v="682433" />
	</node>
	<node lat="66.24565833534675" lon="12.146455547616554" id="-8920">
		<tag k="name" v="Slynga" />
		<tag k="place" v="island" />
		<tag k="ssr:stedsnr" v="682444" />
	</node>
	<node lat="66.17304167093961" lon="12.685741665005677" id="-8924">
		<tag k="name" v="Troneset" />
		<tag k="natural" v="cape" />
		<tag k="ssr:stedsnr" v="682638" />
	</node>
	<node lat="66.03079721838758" lon="12.309419433051685" id="-8927">
		<tag k="name" v="Jektholmen" />
		<tag k="place" v="islet" />
		<tag k="ssr:stedsnr" v="683993" />
	</node>
	<node lat="66.03331388565805" lon="12.317055559123308" id="-8928">
		<tag k="name" v="Åkvikbukta" />
		<tag k="natural" v="bay" />
		<tag k="ssr:stedsnr" v="683994" />
	</node>
	<node lat="66.14353055647848" lon="12.691813890232538" id="-8929">
		<tag k="name" v="Sandvika" />
		<tag k="natural" v="bay" />
		<tag k="ssr:stedsnr" v="682583" />
	</node>
	<node lat="66.14084166262579" lon="12.453008338379734" id="-8930">
		<tag k="name" v="Sengsholmen" />
		<tag k="place" v="islet" />
		<tag k="ssr:stedsnr" v="682671" />
	</node>
	<node lat="66.15548888710663" lon="12.484788879522393" id="-8932">
		<tag k="name" v="Hundholmen" />
		<tag k="place" v="islet" />
		<tag k="ssr:stedsnr" v="682648" />
	</node>
	<node lat="66.15749119824908" lon="12.432413740411487" id="-8933">
		<tag k="alt_name" v="Volnes" />
		<tag k="name" v="Volneset" />
		<tag k="natural" v="cape" />
		<tag k="ssr:stedsnr" v="682652" />
	</node>
	<node lat="66.23475278067589" lon="12.28351943391586" id="-8934">
		<tag k="name" v="Ørnøya" />
		<tag k="place" v="islet" />
		<tag k="ssr:stedsnr" v="682768" />
	</node>
	<node lat="66.24619444756487" lon="12.283161117841939" id="-8935">
		<tag k="name" v="Risvannøya" />
		<tag k="place" v="island" />
		<tag k="ssr:stedsnr" v="682785" />
	</node>
	<node lat="66.24958611362004" lon="12.157297217500751" id="-8936">
		<tag k="name" v="Slyngen" />
		<tag k="place" v="island" />
		<tag k="ssr:stedsnr" v="683194" />
	</node>
	<node lat="66.16517499574734" lon="12.130411106580086" id="-8937">
		<tag k="name" v="Medfjordgrunnen" />
		<tag k="natural" v="shoal" />
		<tag k="place" v="locality" />
		<tag k="ssr:stedsnr" v="683293" />
	</node>
	<node lat="66.21220000416172" lon="12.143669452885488" id="-8938">
		<tag k="fixme" v="consider seamark:type=rock or natural=shoal" />
		<tag k="name" v="Sengsflua" />
		<tag k="place" v="islet" />
		<tag k="ssr:stedsnr" v="683335" />
	</node>
	<node lat="66.11564722661986" lon="12.477702769059386" id="-8939">
		<tag k="fixme" v="consider seamark:type=rock or natural=shoal" />
		<tag k="name" v="Kalvskjæran" />
		<tag k="place" v="islet" />
		<tag k="ssr:stedsnr" v="683489" />
	</node>
	<node lat="66.11324722193905" lon="12.45840278640586" id="-8940">
		<tag k="alt_name" v="Hoholmen" />
		<tag k="name" v="Hoholman" />
		<tag k="place" v="islet" />
		<tag k="ssr:stedsnr" v="683493" />
	</node>
	<node lat="66.19563611221332" lon="12.42373333619239" id="-8942">
		<tag k="alt_name" v="Ånsøya" />
		<tag k="name" v="Ånøya" />
		<tag k="place" v="islet" />
		<tag k="ssr:stedsnr" v="683600" />
	</node>
	<node lat="66.09133333482991" lon="12.358874990216702" id="-8943">
		<tag k="fixme" v="multiple name tags, choose one and add the other to alt_name" />
		<tag k="name" v="Skagavalen;Valbukta" />
		<tag k="natural" v="bay" />
		<tag k="ssr:stedsnr" v="683516" />
	</node>
	<node lat="66.1112111109435" lon="12.476063896197632" id="-8944">
		<tag k="name" v="Risneset" />
		<tag k="natural" v="cape" />
		<tag k="ssr:stedsnr" v="683518" />
	</node>
	<node lat="66.09586110886424" lon="12.286738895362538" id="-8945">
		<tag k="fixme" v="consider seamark:type=rock or natural=shoal" />
		<tag k="name" v="Revskjærbalen" />
		<tag k="place" v="islet" />
		<tag k="ssr:stedsnr" v="683526" />
	</node>
	<node lat="66.09915278195746" lon="12.394747226237168" id="-8946">
		<tag k="alt_name" v="Selvika" />
		<tag k="name" v="Selvikja" />
		<tag k="natural" v="bay" />
		<tag k="ssr:stedsnr" v="683534" />
	</node>
	<node lat="66.02831995904735" lon="12.527650464811169" id="-8948">
		<tag k="alt_name" v="Storlauvøya;Lauvøya" />
		<tag k="name" v="Løvøya" />
		<tag k="place" v="island" />
		<tag k="ssr:stedsnr" v="683894" />
	</node>
	<node lat="66.21487500225636" lon="12.628061120556675" id="-8949">
		<tag k="bay" v="fjord" />
		<tag k="name" v="Stifjorden" />
		<tag k="natural" v="bay" />
		<tag k="ssr:stedsnr" v="683848" />
	</node>
	<node lat="66.02883611283987" lon="12.462475007434014" id="-8950">
		<tag k="name" v="Dønnessundet" />
		<tag k="natural" v="strait" />
		<tag k="ssr:stedsnr" v="683910" />
	</node>
	<node lat="66.07484722651516" lon="12.330127781568528" id="-8951">
		<tag k="name" v="Kalvøya" />
		<tag k="place" v="islet" />
		<tag k="ssr:stedsnr" v="683946" />
	</node>
	<node lat="66.03602500195825" lon="12.316905565902214" id="-8968">
		<tag k="name" v="Meistervikja" />
		<tag k="natural" v="bay" />
		<tag k="ssr:stedsnr" v="532613" />
	</node>
	<node lat="66.07617222388238" lon="12.416383336791593" id="-8969">
		<tag k="name" v="Ytre Hølen" />
		<tag k="natural" v="strait" />
		<tag k="ssr:stedsnr" v="753444" />
	</node>
	<node lat="66.16999999593021" lon="12.775000010077171" id="-8971">
		<tag k="name" v="Karvika" />
		<tag k="natural" v="bay" />
		<tag k="ssr:stedsnr" v="688568" />
	</node>
	<node lat="66.1937249980325" lon="12.388516670386272" id="-8972">
		<tag k="name" v="Leiholmen" />
		<tag k="place" v="islet" />
		<tag k="ssr:stedsnr" v="692842" />
	</node>
	<node lat="66.16833333260819" lon="12.658333327493798" id="-8973">
		<tag k="bay" v="fjord" />
		<tag k="name" v="Skipsfjorden" />
		<tag k="natural" v="bay" />
		<tag k="ssr:stedsnr" v="566568" />
	</node>
	<node lat="66.2228916648989" lon="12.276330565795275" id="-8974">
		<tag k="alt_name" v="Tromsøtaren" />
		<tag k="name" v="Tromsøytaren" />
		<tag k="natural" v="shoal" />
		<tag k="place" v="locality" />
		<tag k="ssr:stedsnr" v="692856" />
	</node>
	<node lat="66.20403333021093" lon="12.618700002235157" id="-8975">
		<tag k="name" v="Steinsvikskallen" />
		<tag k="natural" v="shoal" />
		<tag k="place" v="locality" />
		<tag k="ssr:stedsnr" v="692859" />
	</node>
	<node lat="66.22629999700833" lon="12.600363885022832" id="-8976">
		<tag k="name" v="Lillebåen" />
		<tag k="natural" v="shoal" />
		<tag k="place" v="locality" />
		<tag k="ssr:stedsnr" v="571854" />
	</node>
	<node lat="66.0457138916669" lon="12.499186118590329" id="-8977">
		<tag k="name" v="Steingrunnen" />
		<tag k="natural" v="shoal" />
		<tag k="place" v="locality" />
		<tag k="ssr:stedsnr" v="572707" />
	</node>
	<node lat="66.040163892649" lon="12.316186107456735" id="-8978">
		<tag k="name" v="Homannsvikja" />
		<tag k="natural" v="bay" />
		<tag k="ssr:stedsnr" v="774630" />
	</node>
	<node lat="66.15349166278004" lon="12.209388881405689" id="-8980">
		<tag k="name" v="Langtaren" />
		<tag k="natural" v="shoal" />
		<tag k="place" v="locality" />
		<tag k="ssr:stedsnr" v="577057" />
	</node>
	<node lat="66.15347777843265" lon="12.694419439551131" id="-8983">
		<tag k="name" v="Rundneset" />
		<tag k="natural" v="cape" />
		<tag k="ssr:stedsnr" v="591216" />
	</node>
	<node lat="66.08976944746436" lon="12.336213885803463" id="-8984">
		<tag k="fixme" v="consider seamark:type=rock or natural=shoal" />
		<tag k="name" v="Langøyskjæran" />
		<tag k="place" v="islet" />
		<tag k="ssr:stedsnr" v="591257" />
	</node>
	<node lat="66.16726389000036" lon="12.47870278053279" id="-8986">
		<tag k="name" v="Ytterkåsa" />
		<tag k="natural" v="bay" />
		<tag k="ssr:stedsnr" v="591403" />
	</node>
	<node lat="66.18633611024435" lon="12.47789999220887" id="-8987">
		<tag k="name" v="Langholmen" />
		<tag k="natural" v="cape" />
		<tag k="ssr:stedsnr" v="591606" />
	</node>
	<node lat="66.08688055283746" lon="12.437249996920896" id="-8990">
		<tag k="name" v="Skjåvikja" />
		<tag k="natural" v="bay" />
		<tag k="ssr:stedsnr" v="592309" />
	</node>
	<node lat="66.17125833056353" lon="12.74935555354283" id="-8991">
		<tag k="name" v="Brattvikja" />
		<tag k="natural" v="bay" />
		<tag k="ssr:stedsnr" v="592354" />
	</node>
	<node lat="66.13282222512842" lon="12.602569433996774" id="-8997">
		<tag k="bay" v="fjord" />
		<tag k="name" v="Gjesfjorden" />
		<tag k="natural" v="bay" />
		<tag k="ssr:stedsnr" v="592565" />
	</node>
	<node lat="66.01979444739982" lon="12.473216669451746" id="-8999">
		<tag k="name" v="Tranøysundet" />
		<tag k="natural" v="strait" />
		<tag k="ssr:stedsnr" v="592802" />
	</node>
	<node lat="66.23183055180297" lon="12.125827771636699" id="-9001">
		<tag k="fixme" v="consider seamark:type=rock or natural=shoal" />
		<tag k="name" v="Brakvadtåja" />
		<tag k="place" v="islet" />
		<tag k="ssr:stedsnr" v="698402" />
	</node>
	<node lat="66.22039444326757" lon="12.129669444581012" id="-9002">
		<tag k="name" v="Litlramnøya" />
		<tag k="place" v="islet" />
		<tag k="ssr:stedsnr" v="621414" />
	</node>
	<node lat="66.23601388762842" lon="12.09732499529028" id="-9003">
		<tag k="name" v="Brunen" />
		<tag k="natural" v="shoal" />
		<tag k="place" v="locality" />
		<tag k="ssr:stedsnr" v="621424" />
	</node>
	<node lat="66.24229444483366" lon="12.235844444961801" id="-9004">
		<tag k="name" v="Risvannhaugan" />
		<tag k="place" v="islet" />
		<tag k="ssr:stedsnr" v="621765" />
	</node>
	<node lat="66.25433888903056" lon="12.140013895496022" id="-9005">
		<tag k="fixme" v="consider seamark:type=rock or natural=shoal" />
		<tag k="name" v="Kråka" />
		<tag k="place" v="islet" />
		<tag k="ssr:stedsnr" v="622214" />
	</node>
	<node lat="66.25824166359612" lon="12.206919447728929" id="-9006">
		<tag k="fixme" v="consider seamark:type=rock or natural=shoal" />
		<tag k="name" v="Stordøsen" />
		<tag k="place" v="islet" />
		<tag k="ssr:stedsnr" v="622218" />
	</node>
	<node lat="66.28235277798856" lon="12.33924445400303" id="-9007">
		<tag k="bay" v="fjord" />
		<tag k="name" v="Nordåsværfjorden" />
		<tag k="natural" v="bay" />
		<tag k="ssr:stedsnr" v="622224" />
	</node>
	<node lat="66.14274166570712" lon="12.743199990704362" id="-9008">
		<tag k="name" v="Vakkersteinvika" />
		<tag k="natural" v="bay" />
		<tag k="ssr:stedsnr" v="622177" />
	</node>
	<node lat="66.17893888437203" lon="12.442369449191725" id="-9009">
		<tag k="name" v="Hestøygalten" />
		<tag k="natural" v="shoal" />
		<tag k="place" v="locality" />
		<tag k="ssr:stedsnr" v="622665" />
	</node>
	<node lat="66.17964999885922" lon="12.32166944945729" id="-9010">
		<tag k="name" v="Korsholmen" />
		<tag k="place" v="islet" />
		<tag k="ssr:stedsnr" v="622670" />
	</node>
	<node lat="66.1890638892016" lon="12.630225005488152" id="-9011">
		<tag k="name" v="Vardhaugneset" />
		<tag k="natural" v="cape" />
		<tag k="ssr:stedsnr" v="622672" />
	</node>
	<node lat="66.03699722181032" lon="12.570291676985947" id="-9013">
		<tag k="bay" v="fjord" />
		<tag k="name" v="Ulvangen" />
		<tag k="natural" v="bay" />
		<tag k="ssr:stedsnr" v="622879" />
	</node>
	<node lat="66.07431389108567" lon="12.34441944000207" id="-9015">
		<tag k="name" v="Nautøya" />
		<tag k="place" v="island" />
		<tag k="ssr:stedsnr" v="622966" />
	</node>
	<node lat="66.01320833489625" lon="12.495636107042733" id="-9016">
		<tag k="name" v="Sjurdsholmen" />
		<tag k="place" v="islet" />
		<tag k="ssr:stedsnr" v="622919" />
	</node>
	<node lat="66.19705555209482" lon="12.40128332739369" id="-9019">
		<tag k="fixme" v="consider seamark:type=rock or natural=shoal" />
		<tag k="name" v="Leiskjæret" />
		<tag k="place" v="islet" />
		<tag k="ssr:stedsnr" v="632403" />
	</node>
	<node lat="66.08628888838523" lon="12.337594449197177" id="-9020">
		<tag k="name" v="Risøya" />
		<tag k="place" v="islet" />
		<tag k="ssr:stedsnr" v="651291" />
	</node>
	<node lat="66.09838888638957" lon="12.65709165690872" id="-9021">
		<tag k="name" v="Leirvikja" />
		<tag k="natural" v="bay" />
		<tag k="ssr:stedsnr" v="651297" />
	</node>
	<node lat="66.12003611460906" lon="12.619058327124021" id="-9030">
		<tag k="name" v="Gognstøvikja" />
		<tag k="natural" v="bay" />
		<tag k="ssr:stedsnr" v="652545" />
	</node>
	<node lat="66.17828888483534" lon="12.744088883463077" id="-9034">
		<tag k="name" v="Heimneset" />
		<tag k="natural" v="cape" />
		<tag k="ssr:stedsnr" v="653326" />
	</node>
	<node lat="66.13121388889297" lon="12.339550006845885" id="-9037">
		<tag k="name" v="Stormonessundet" />
		<tag k="natural" v="strait" />
		<tag k="ssr:stedsnr" v="653891" />
	</node>
	<node lat="66.26468333445906" lon="12.268227774669263" id="-9042">
		<tag k="name" v="Seisundholman" />
		<tag k="place" v="islet" />
		<tag k="ssr:stedsnr" v="683249" />
	</node>
	<node lat="66.21220277884964" lon="12.206986105382631" id="-9044">
		<tag k="name" v="Buøya" />
		<tag k="place" v="island" />
		<tag k="ssr:stedsnr" v="683328" />
	</node>
	<node lat="66.21719999972133" lon="12.528330553483618" id="-9045">
		<tag k="name" v="Storflesene" />
		<tag k="place" v="islet" />
		<tag k="ssr:stedsnr" v="683619" />
	</node>
	<node lat="66.1805607388511" lon="12.33955261396279" id="-9046">
		<tag k="alt_name" v="Litlvandved" />
		<tag k="name" v="Liss-Vandve" />
		<tag k="place" v="island" />
		<tag k="ssr:stedsnr" v="683661" />
	</node>
	<node lat="66.02379166701847" lon="12.504755556503248" id="-9047">
		<tag k="alt_name" v="Gjertrudholmen" />
		<tag k="name" v="Hjartrudholmen" />
		<tag k="place" v="islet" />
		<tag k="ssr:stedsnr" v="683905" />
	</node>
	<node lat="66.01839722169447" lon="12.490338886122268" id="-9048">
		<tag k="name" v="Brokholmen" />
		<tag k="place" v="islet" />
		<tag k="ssr:stedsnr" v="683907" />
	</node>
	<node lat="66.07308611139712" lon="12.318480552841436" id="-9050">
		<tag k="name" v="Korsholmen" />
		<tag k="place" v="islet" />
		<tag k="ssr:stedsnr" v="683967" />
	</node>
	<node lat="66.08314721998724" lon="12.60450833400949" id="-9060">
		<tag k="name" v="Årretholmen" />
		<tag k="place" v="islet" />
		<tag k="ssr:stedsnr" v="895445" />
	</node>
	<node lat="66.16120277690007" lon="12.348602769950093" id="-9062">
		<tag k="name" v="Hamnholmen" />
		<tag k="place" v="islet" />
		<tag k="ssr:stedsnr" v="895652" />
	</node>
	<node lat="66.17177222286567" lon="12.756083326013563" id="-9071">
		<tag k="name" v="Storvikja" />
		<tag k="natural" v="bay" />
		<tag k="ssr:stedsnr" v="896355" />
	</node>
	<node lat="66.16294722602636" lon="12.730377784921169" id="-9073">
		<tag k="name" v="Oldervikja" />
		<tag k="natural" v="bay" />
		<tag k="ssr:stedsnr" v="896378" />
	</node>
	<node lat="66.16748333364839" lon="12.764647215661173" id="-9076">
		<tag k="name" v="Karivikja" />
		<tag k="natural" v="bay" />
		<tag k="ssr:stedsnr" v="896386" />
	</node>
	<node lat="66.17022222603752" lon="12.735888887936634" id="-9078">
		<tag k="name" v="Vasskardvikja" />
		<tag k="natural" v="bay" />
		<tag k="ssr:stedsnr" v="896390" />
	</node>
	<node lat="66.16578611267175" lon="12.556272224454045" id="-9080">
		<tag k="name" v="Rørvikja" />
		<tag k="natural" v="bay" />
		<tag k="ssr:stedsnr" v="896400" />
	</node>
	<node lat="66.03585000075951" lon="12.515380561286067" id="-9088">
		<tag k="name" v="Sauvikja" />
		<tag k="natural" v="bay" />
		<tag k="ssr:stedsnr" v="896593" />
	</node>
	<node lat="66.02188333126355" lon="12.487947232945789" id="-9089">
		<tag k="name" v="Dragjet" />
		<tag k="natural" v="cape" />
		<tag k="ssr:stedsnr" v="896786" />
	</node>
	<node lat="66.13734166265287" lon="12.60445277340061" id="-9090">
		<tag k="name" v="Revet" />
		<tag k="natural" v="shoal" />
		<tag k="place" v="locality" />
		<tag k="ssr:stedsnr" v="704483" />
	</node>
	<node lat="66.1517972183027" lon="12.401275002649015" id="-9098">
		<tag k="name" v="Åborneset" />
		<tag k="natural" v="cape" />
		<tag k="ssr:stedsnr" v="713282" />
	</node>
	<node lat="66.0811972205964" lon="12.371888890409648" id="-9101">
		<tag k="name" v="Risneset" />
		<tag k="natural" v="cape" />
		<tag k="ssr:stedsnr" v="714223" />
	</node>
	<node lat="66.04388889190678" lon="12.342927778045162" id="-9102">
		<tag k="name" v="Sjåodden" />
		<tag k="natural" v="cape" />
		<tag k="ssr:stedsnr" v="714512" />
	</node>
	<node lat="66.04208055760716" lon="12.516727773021794" id="-9103">
		<tag k="name" v="Valbukta" />
		<tag k="natural" v="bay" />
		<tag k="ssr:stedsnr" v="714485" />
	</node>
	<node lat="66.01643055329899" lon="12.305216656112552" id="-9104">
		<tag k="name" v="Breivikja" />
		<tag k="natural" v="bay" />
		<tag k="ssr:stedsnr" v="714729" />
	</node>
	<node lat="66.25754722567538" lon="12.18615555403615" id="-9106">
		<tag k="name" v="Kroktaren" />
		<tag k="natural" v="shoal" />
		<tag k="place" v="locality" />
		<tag k="ssr:stedsnr" v="743229" />
	</node>
	<node lat="66.25073888519229" lon="12.211044446005598" id="-9107">
		<tag k="name" v="Vestfroen" />
		<tag k="place" v="islet" />
		<tag k="ssr:stedsnr" v="743232" />
	</node>
	<node lat="66.23341944388788" lon="12.14462221128117" id="-9108">
		<tag k="name" v="Ytre Ramnøyskjæret" />
		<tag k="place" v="islet" />
		<tag k="ssr:stedsnr" v="743409" />
	</node>
	<node lat="66.1340833345076" lon="12.597358326297353" id="-9109">
		<tag k="name" v="Gjesfjordøya" />
		<tag k="place" v="island" />
		<tag k="ssr:stedsnr" v="743528" />
	</node>
	<node lat="66.13195000128246" lon="12.316916657606576" id="-9110">
		<tag k="name" v="Laøya" />
		<tag k="place" v="islet" />
		<tag k="ssr:stedsnr" v="743614" />
	</node>
	<node lat="66.14624444718059" lon="12.621222225671001" id="-9111">
		<tag k="name" v="Hattvika" />
		<tag k="natural" v="bay" />
		<tag k="ssr:stedsnr" v="743634" />
	</node>
	<node lat="66.18003055788586" lon="12.28396666791755" id="-9112">
		<tag k="name" v="Sandflesa" />
		<tag k="place" v="islet" />
		<tag k="ssr:stedsnr" v="743685" />
	</node>
	<node lat="66.19812777492339" lon="12.457441656694474" id="-9113">
		<tag k="alt_name" v="Risøydrægene" />
		<tag k="name" v="Risøydragjet" />
		<tag k="place" v="island" />
		<tag k="ssr:stedsnr" v="743689" />
	</node>
	<node lat="66.15681666504234" lon="12.538183328463365" id="-9114">
		<tag k="name" v="Åkerøyrevet" />
		<tag k="natural" v="shoal" />
		<tag k="place" v="locality" />
		<tag k="ssr:stedsnr" v="743577" />
	</node>
	<node lat="66.15773333103621" lon="12.25779444342139" id="-9115">
		<tag k="name" v="Litlbraktaren" />
		<tag k="natural" v="shoal" />
		<tag k="place" v="locality" />
		<tag k="ssr:stedsnr" v="743601" />
	</node>
	<node lat="66.18590000292646" lon="12.73949445441177" id="-9116">
		<tag k="alt_name" v="Gjersholmen" />
		<tag k="name" v="Gjerdsholmen" />
		<tag k="natural" v="cape" />
		<tag k="ssr:stedsnr" v="743780" />
	</node>
	<node lat="66.18661111546395" lon="12.76578333406411" id="-9117">
		<tag k="alt_name" v="Koparholmen" />
		<tag k="name" v="Kobbholmen" />
		<tag k="place" v="islet" />
		<tag k="ssr:stedsnr" v="743781" />
	</node>
	<node lat="66.13242500249964" lon="12.21309999835971" id="-9118">
		<tag k="fixme" v="consider seamark:type=rock or natural=shoal" />
		<tag k="name" v="Kuflesa" />
		<tag k="place" v="islet" />
		<tag k="ssr:stedsnr" v="744288" />
	</node>
	<node lat="66.16898055618017" lon="12.286619453272944" id="-9119">
		<tag k="name" v="Nordstokkholmen" />
		<tag k="place" v="islet" />
		<tag k="ssr:stedsnr" v="744624" />
	</node>
	<node lat="66.09976667046391" lon="12.2804861110493" id="-9120">
		<tag k="name" v="Lysbotnet" />
		<tag k="natural" v="shoal" />
		<tag k="place" v="locality" />
		<tag k="ssr:stedsnr" v="760948" />
	</node>
	<node lat="66.13634722205282" lon="12.609038886484656" id="-9122">
		<tag k="name" v="Gulstadholmen" />
		<tag k="place" v="islet" />
		<tag k="ssr:stedsnr" v="764501" />
	</node>
	<node lat="66.07974722404039" lon="12.373769446614531" id="-9125">
		<tag k="name" v="Lagnesodden" />
		<tag k="natural" v="cape" />
		<tag k="ssr:stedsnr" v="774258" />
	</node>
	<node lat="66.08349444064866" lon="12.593119448781104" id="-9131">
		<tag k="name" v="Øytangen" />
		<tag k="natural" v="cape" />
		<tag k="ssr:stedsnr" v="774514" />
	</node>
	<node lat="66.18484722628472" lon="12.70409167321603" id="-9133">
		<tag k="name" v="Børsvikja" />
		<tag k="natural" v="bay" />
		<tag k="ssr:stedsnr" v="774724" />
	</node>
	<node lat="66.1363083378558" lon="12.485013885591593" id="-9134">
		<tag k="name" v="Sør-Kjeøybukta" />
		<tag k="natural" v="bay" />
		<tag k="ssr:stedsnr" v="774904" />
	</node>
	<node lat="66.16426110790883" lon="12.80151666466639" id="-9136">
		<tag k="name" v="Gregusvikja" />
		<tag k="natural" v="bay" />
		<tag k="ssr:stedsnr" v="775287" />
	</node>
	<node lat="66.13962499603305" lon="12.58331943694568" id="-9140">
		<tag k="name" v="Stamnneset" />
		<tag k="natural" v="cape" />
		<tag k="ssr:stedsnr" v="804068" />
	</node>
	<node lat="66.17853332964249" lon="12.345797212414968" id="-9141">
		<tag k="name" v="Buøya" />
		<tag k="place" v="island" />
		<tag k="ssr:stedsnr" v="804069" />
	</node>
	<node lat="66.1912138918351" lon="12.129302783210438" id="-9142">
		<tag k="fixme" v="consider seamark:type=rock or natural=shoal" />
		<tag k="name" v="Utsynningen" />
		<tag k="place" v="islet" />
		<tag k="ssr:stedsnr" v="804409" />
	</node>
	<node lat="66.22877777750189" lon="12.150249993324936" id="-9143">
		<tag k="name" v="Storramnøya" />
		<tag k="place" v="islet" />
		<tag k="ssr:stedsnr" v="804426" />
	</node>
	<node lat="66.10813055508793" lon="12.252666667713948" id="-9144">
		<tag k="name" v="Ersholman" />
		<tag k="place" v="islet" />
		<tag k="ssr:stedsnr" v="804526" />
	</node>
	<node lat="66.176713888497" lon="12.67160276944475" id="-9145">
		<tag k="name" v="Hovsbrua" />
		<tag k="natural" v="cape" />
		<tag k="ssr:stedsnr" v="804611" />
	</node>
	<node lat="66.21737221957555" lon="12.516405558705854" id="-9146">
		<tag k="fixme" v="consider seamark:type=rock or natural=shoal" />
		<tag k="name" v="Svartskjæret" />
		<tag k="place" v="islet" />
		<tag k="ssr:stedsnr" v="804675" />
	</node>
	<node lat="66.092025004342" lon="12.639241664122041" id="-9152">
		<tag k="name" v="Hidelvikja" />
		<tag k="natural" v="bay" />
		<tag k="ssr:stedsnr" v="835505" />
	</node>
	<node lat="66.04668889300407" lon="12.525977783642972" id="-9153">
		<tag k="name" v="Smebelgvikja" />
		<tag k="natural" v="bay" />
		<tag k="ssr:stedsnr" v="835596" />
	</node>
	<node lat="66.04303610986584" lon="12.335124993812135" id="-9154">
		<tag k="name" v="Skardsvikja" />
		<tag k="natural" v="bay" />
		<tag k="ssr:stedsnr" v="835600" />
	</node>
	<node lat="66.13817222401241" lon="12.372680564358534" id="-9158">
		<tag k="name" v="Murvikja" />
		<tag k="natural" v="bay" />
		<tag k="ssr:stedsnr" v="835904" />
	</node>
	<node lat="66.11939722005567" lon="12.497211114927593" id="-9159">
		<tag k="name" v="Vikabukta" />
		<tag k="natural" v="bay" />
		<tag k="ssr:stedsnr" v="835914" />
	</node>
	<node lat="66.15369999985943" lon="12.806180556910485" id="-9160">
		<tag k="name" v="Båtnesholmen" />
		<tag k="place" v="islet" />
		<tag k="ssr:stedsnr" v="835915" />
	</node>
	<node lat="66.1642277811558" lon="12.58198333313419" id="-9163">
		<tag k="name" v="Lundstøa" />
		<tag k="natural" v="bay" />
		<tag k="ssr:stedsnr" v="836335" />
	</node>
	<node lat="66.18255277784189" lon="12.727666656277345" id="-9165">
		<tag k="name" v="Innersjyen" />
		<tag k="natural" v="bay" />
		<tag k="ssr:stedsnr" v="836297" />
	</node>
	<node lat="66.12333333006995" lon="12.305477780945274" id="-9168">
		<tag k="name" v="Burøya" />
		<tag k="place" v="islet" />
		<tag k="ssr:stedsnr" v="841813" />
	</node>
	<node lat="66.26116944530858" lon="12.151247215286798" id="-9169">
		<tag k="name" v="Nordbåen" />
		<tag k="natural" v="shoal" />
		<tag k="place" v="locality" />
		<tag k="ssr:stedsnr" v="925225" />
	</node>
	<node lat="66.2178277758494" lon="12.186813897522228" id="-9171">
		<tag k="name" v="Flatøyan" />
		<tag k="place" v="islet" />
		<tag k="ssr:stedsnr" v="925399" />
	</node>
	<node lat="66.12725555236622" lon="12.399747224607085" id="-9172">
		<tag k="fixme" v="consider seamark:type=rock or natural=shoal" />
		<tag k="name" v="Skarvskjæret" />
		<tag k="place" v="islet" />
		<tag k="ssr:stedsnr" v="925566" />
	</node>
	<node lat="66.12841666973794" lon="12.280341661789564" id="-9173">
		<tag k="name" v="Buskøya" />
		<tag k="place" v="island" />
		<tag k="ssr:stedsnr" v="925568" />
	</node>
	<node lat="66.114858337161" lon="12.225099990979292" id="-9174">
		<tag k="fixme" v="consider seamark:type=rock or natural=shoal" />
		<tag k="name" v="Lissbalen" />
		<tag k="place" v="islet" />
		<tag k="ssr:stedsnr" v="925545" />
	</node>
	<node lat="66.12663332954878" lon="12.32565277514345" id="-9175">
		<tag k="fixme" v="consider seamark:type=rock or natural=shoal" />
		<tag k="name" v="Kvalholmen" />
		<tag k="place" v="islet" />
		<tag k="ssr:stedsnr" v="925556" />
	</node>
	<node lat="66.12308611126369" lon="12.305074992148606" id="-9177">
		<tag k="fixme" v="consider seamark:type=rock or natural=shoal" />
		<tag k="name" v="Burøyskjæran" />
		<tag k="place" v="islet" />
		<tag k="ssr:stedsnr" v="925573" />
	</node>
	<node lat="66.15088611169037" lon="12.359094447677606" id="-9178">
		<tag k="name" v="Korsholmen" />
		<tag k="place" v="islet" />
		<tag k="ssr:stedsnr" v="925608" />
	</node>
	<node lat="66.15588055770118" lon="12.360786112388997" id="-9179">
		<tag k="alt_name" v="Raudholmen" />
		<tag k="name" v="Rauholmen" />
		<tag k="place" v="islet" />
		<tag k="ssr:stedsnr" v="925609" />
	</node>
	<node lat="66.11778888495819" lon="12.282688890831372" id="-9180">
		<tag k="fixme" v="consider seamark:type=rock or natural=shoal" />
		<tag k="name" v="Lissburøya" />
		<tag k="place" v="islet" />
		<tag k="ssr:stedsnr" v="925558" />
	</node>
	<node lat="66.13405833316719" lon="12.439841662636566" id="-9181">
		<tag k="alt_name" v="Sørsandøya;Sandøya" />
		<tag k="name" v="Sandholman" />
		<tag k="place" v="island" />
		<tag k="ssr:stedsnr" v="925644" />
	</node>
	<node lat="66.14980555187269" lon="12.439488890877028" id="-9182">
		<tag k="alt_name" v="Stongholman" />
		<tag k="name" v="Stongholmen" />
		<tag k="place" v="islet" />
		<tag k="ssr:stedsnr" v="925662" />
	</node>
	<node lat="66.2298138898148" lon="12.278869454292112" id="-9183">
		<tag k="name" v="Svartbarden" />
		<tag k="place" v="islet" />
		<tag k="ssr:stedsnr" v="925762" />
	</node>
	<node lat="66.11564444494688" lon="12.609177778612466" id="-9185">
		<tag k="alt_name" v="Dalsvågen" />
		<tag k="bay" v="fjord" />
		<tag k="name" v="Dalsvågjen" />
		<tag k="natural" v="bay" />
		<tag k="ssr:stedsnr" v="926496" />
	</node>
	<node lat="66.17396389328637" lon="12.345069444693992" id="-9187">
		<tag k="name" v="Grindneset" />
		<tag k="natural" v="cape" />
		<tag k="ssr:stedsnr" v="926659" />
	</node>
	<node lat="66.18868333585924" lon="12.322975009413325" id="-9189">
		<tag k="fixme" v="consider seamark:type=rock or natural=shoal" />
		<tag k="name" v="Åmundsskjæran" />
		<tag k="place" v="islet" />
		<tag k="ssr:stedsnr" v="926667" />
	</node>
	<node lat="66.20142499715868" lon="12.503936117820235" id="-9190">
		<tag k="name" v="Langtaren" />
		<tag k="natural" v="shoal" />
		<tag k="place" v="locality" />
		<tag k="ssr:stedsnr" v="926678" />
	</node>
	<node lat="66.02234166433854" lon="12.465161114130462" id="-9193">
		<tag k="name" v="Tranøya" />
		<tag k="place" v="island" />
		<tag k="ssr:stedsnr" v="926900" />
	</node>
	<node lat="66.08046110747773" lon="12.33945554406868" id="-9195">
		<tag k="name" v="Sørøya" />
		<tag k="place" v="island" />
		<tag k="ssr:stedsnr" v="896305" />
	</node>
	<node lat="66.05496110730377" lon="12.531094452620033" id="-9197">
		<tag k="name" v="Vakkervikja" />
		<tag k="natural" v="bay" />
		<tag k="ssr:stedsnr" v="896617" />
	</node>
	<node lat="66.22108333674036" lon="12.596855548697617" id="-9204">
		<tag k="name" v="Nordøya" />
		<tag k="place" v="island" />
		<tag k="ssr:stedsnr" v="896772" />
	</node>
	<node lat="66.22546944347337" lon="12.206849989947552" id="-9207">
		<tag k="name" v="Haldorøyan" />
		<tag k="place" v="islet" />
		<tag k="ssr:stedsnr" v="925389" />
	</node>
	<node lat="66.2241444455828" lon="12.118275006421452" id="-9208">
		<tag k="bay" v="fjord" />
		<tag k="name" v="Gjessnakkåsa" />
		<tag k="natural" v="bay" />
		<tag k="ssr:stedsnr" v="925433" />
	</node>
	<node lat="66.1999916638532" lon="12.244922211836643" id="-9209">
		<tag k="name" v="Engøyryggen" />
		<tag k="natural" v="shoal" />
		<tag k="place" v="locality" />
		<tag k="ssr:stedsnr" v="925696" />
	</node>
	<node lat="66.21884721840306" lon="12.304211111526325" id="-9210">
		<tag k="fixme" v="consider seamark:type=rock or natural=shoal" />
		<tag k="name" v="Leiholmskjæret" />
		<tag k="place" v="islet" />
		<tag k="ssr:stedsnr" v="925698" />
	</node>
	<node lat="66.22622778179603" lon="12.55044999292502" id="-9211">
		<tag k="name" v="Tågen" />
		<tag k="natural" v="cape" />
		<tag k="ssr:stedsnr" v="925700" />
	</node>
	<node lat="66.25565555354069" lon="12.235375003366885" id="-9212">
		<tag k="alt_name" v="Austfroen" />
		<tag k="name" v="Froan" />
		<tag k="place" v="islet" />
		<tag k="ssr:stedsnr" v="926256" />
	</node>
	<node lat="66.14381944777357" lon="12.194936108209408" id="-9213">
		<tag k="name" v="Flåtaren" />
		<tag k="natural" v="shoal" />
		<tag k="place" v="locality" />
		<tag k="ssr:stedsnr" v="926308" />
	</node>
	<node lat="66.10626111371818" lon="12.391513890022098" id="-9215">
		<tag k="bay" v="fjord" />
		<tag k="name" v="Vikafjorden" />
		<tag k="natural" v="bay" />
		<tag k="ssr:stedsnr" v="926529" />
	</node>
	<node lat="66.20900277946055" lon="12.61162221817384" id="-9216">
		<tag k="name" v="Snekkvikholmen" />
		<tag k="natural" v="cape" />
		<tag k="ssr:stedsnr" v="926615" />
	</node>
	<node lat="66.04105555797364" lon="12.48653333174389" id="-9219">
		<tag k="name" v="Hestadsundet" />
		<tag k="natural" v="strait" />
		<tag k="ssr:stedsnr" v="926965" />
	</node>
	<node lat="66.01814722612674" lon="12.328338893869912" id="-9220">
		<tag k="alt_name" v="Skagavågen" />
		<tag k="name" v="Skagavågjen" />
		<tag k="natural" v="bay" />
		<tag k="ssr:stedsnr" v="937744" />
	</node>
	<node lat="66.15081111513437" lon="12.40336388685482" id="-9222">
		<tag k="name" v="Buneset" />
		<tag k="natural" v="cape" />
		<tag k="ssr:stedsnr" v="956343" />
	</node>
	<node lat="66.14458333726361" lon="12.400344447564834" id="-9223">
		<tag k="name" v="Hammarvikja" />
		<tag k="natural" v="bay" />
		<tag k="ssr:stedsnr" v="956316" />
	</node>
	<node lat="66.15574722448387" lon="12.391102770237312" id="-9225">
		<tag k="name" v="Hamran" />
		<tag k="natural" v="cape" />
		<tag k="ssr:stedsnr" v="956300" />
	</node>
	<node lat="66.17799444640913" lon="12.33945000149215" id="-9227">
		<tag k="name" v="Buøysundet" />
		<tag k="natural" v="strait" />
		<tag k="ssr:stedsnr" v="956724" />
	</node>
	<node lat="66.1230603396809" lon="12.649576779893186" id="-9228">
		<tag k="name" v="Janenget" />
		<tag k="natural" v="cape" />
		<tag k="ssr:stedsnr" v="956607" />
	</node>
	<node lat="66.0802027792582" lon="12.388491667930646" id="-9233">
		<tag k="name" v="Kvalnesvågjen" />
		<tag k="natural" v="bay" />
		<tag k="ssr:stedsnr" v="957243" />
	</node>
	<node lat="66.08093333451255" lon="12.433744436141154" id="-9234">
		<tag k="name" v="Hølvågjen" />
		<tag k="natural" v="bay" />
		<tag k="ssr:stedsnr" v="957247" />
	</node>
	<node lat="66.1651722189417" lon="12.769841666458086" id="-9239">
		<tag k="name" v="Jensvikstranda" />
		<tag k="natural" v="beach" />
		<tag k="ssr:stedsnr" v="957347" />
	</node>
	<node lat="66.2161305545724" lon="12.553991660881568" id="-9242">
		<tag k="name" v="Hellholmen" />
		<tag k="natural" v="cape" />
		<tag k="ssr:stedsnr" v="957704" />
	</node>
	<node lat="66.03625555169268" lon="12.555730558754217" id="-9243">
		<tag k="name" v="Storvikja" />
		<tag k="natural" v="bay" />
		<tag k="ssr:stedsnr" v="957716" />
	</node>
	<node lat="66.1315388851553" lon="12.492944442176112" id="-9265">
		<tag k="name" v="Skeissundet" />
		<tag k="natural" v="strait" />
		<tag k="ssr:stedsnr" v="228922" />
	</node>
	<node lat="66.15266111037236" lon="12.800261117636433" id="-9266">
		<tag k="name" v="Båtnesvågen" />
		<tag k="natural" v="bay" />
		<tag k="ssr:stedsnr" v="15182" />
	</node>
	<node lat="66.1219805545613" lon="12.409127771492246" id="-9267">
		<tag k="name" v="Ramnøya" />
		<tag k="place" v="island" />
		<tag k="ssr:stedsnr" v="15053" />
	</node>
	<node lat="66.25147222427987" lon="12.117894442719754" id="-9268">
		<tag k="name" v="Djupbåen" />
		<tag k="natural" v="shoal" />
		<tag k="place" v="locality" />
		<tag k="ssr:stedsnr" v="15219" />
	</node>
	<node lat="66.23195555895394" lon="12.171813896444027" id="-9270">
		<tag k="name" v="Herjonøya" />
		<tag k="place" v="islet" />
		<tag k="ssr:stedsnr" v="15433" />
	</node>
	<node lat="66.22619444695124" lon="12.102508344217728" id="-9271">
		<tag k="name" v="Brakvadet" />
		<tag k="place" v="islet" />
		<tag k="ssr:stedsnr" v="15441" />
	</node>
	<node lat="66.24305277688288" lon="12.117116664136917" id="-9272">
		<tag k="name" v="Flesnakken" />
		<tag k="place" v="islet" />
		<tag k="ssr:stedsnr" v="15445" />
	</node>
	<node lat="66.22727499614952" lon="12.226419450770035" id="-9273">
		<tag k="name" v="Feøysundet" />
		<tag k="natural" v="strait" />
		<tag k="ssr:stedsnr" v="15743" />
	</node>
	<node lat="66.11759166769949" lon="12.653280554094584" id="-9275">
		<tag k="name" v="Skjåneset" />
		<tag k="natural" v="cape" />
		<tag k="ssr:stedsnr" v="15546" />
	</node>
	<node lat="66.11869166688273" lon="12.478163891524451" id="-9276">
		<tag k="name" v="Raudholmen" />
		<tag k="place" v="islet" />
		<tag k="ssr:stedsnr" v="15551" />
	</node>
	<node lat="66.13604166530523" lon="12.6462472271903" id="-9277">
		<tag k="alt_name" v="Gullsneset" />
		<tag k="name" v="Gulsneset" />
		<tag k="natural" v="cape" />
		<tag k="ssr:stedsnr" v="15558" />
	</node>
	<node lat="66.12596666201512" lon="12.285788898820776" id="-9283">
		<tag k="alt_name" v="Seljøya" />
		<tag k="name" v="Seljeøya" />
		<tag k="place" v="island" />
		<tag k="ssr:stedsnr" v="15632" />
	</node>
	<node lat="66.12961111394215" lon="12.342883330764458" id="-9284">
		<tag k="name" v="Stormoneset" />
		<tag k="natural" v="cape" />
		<tag k="ssr:stedsnr" v="15635" />
	</node>
	<node lat="66.13714166929695" lon="12.393022219958617" id="-9285">
		<tag k="alt_name" v="Slapøybølet" />
		<tag k="name" v="Slapøybøla" />
		<tag k="place" v="islet" />
		<tag k="ssr:stedsnr" v="15638" />
	</node>
	<node lat="66.23013055856832" lon="12.585327773875148" id="-9288">
		<tag k="name" v="Skåka" />
		<tag k="natural" v="shoal" />
		<tag k="place" v="locality" />
		<tag k="ssr:stedsnr" v="15684" />
	</node>
	<node lat="66.03945000200534" lon="12.502208329155291" id="-9289">
		<tag k="fixme" v="consider seamark:type=rock or natural=shoal" />
		<tag k="name" v="Langskjæret" />
		<tag k="place" v="islet" />
		<tag k="ssr:stedsnr" v="15893" />
	</node>
	<node lat="66.05477778130202" lon="12.58064999977607" id="-9291">
		<tag k="name" v="Dampskipsgrunnen" />
		<tag k="natural" v="shoal" />
		<tag k="place" v="locality" />
		<tag k="ssr:stedsnr" v="15972" />
	</node>
	<node lat="66.18572221803373" lon="12.305011099649546" id="-9299">
		<tag k="name" v="Ryggen" />
		<tag k="natural" v="shoal" />
		<tag k="place" v="locality" />
		<tag k="ssr:stedsnr" v="25837" />
	</node>
	<node lat="66.13484444583983" lon="12.293077782728435" id="-9301">
		<tag k="name" v="Storskjæret" />
		<tag k="place" v="islet" />
		<tag k="ssr:stedsnr" v="46926" />
	</node>
	<node lat="66.17598611187886" lon="12.38916945527165" id="-9305">
		<tag k="name" v="Havsteinneset" />
		<tag k="natural" v="cape" />
		<tag k="ssr:stedsnr" v="45647" />
	</node>
	<node lat="66.1681305569582" lon="12.387027772077138" id="-9306">
		<tag k="name" v="Innerjordsvågjen" />
		<tag k="natural" v="bay" />
		<tag k="ssr:stedsnr" v="45649" />
	</node>
	<node lat="66.1779916658875" lon="12.748333328437086" id="-9317">
		<tag k="name" v="Jordfastholmen" />
		<tag k="place" v="islet" />
		<tag k="ssr:stedsnr" v="46355" />
	</node>
	<node lat="66.05031110770163" lon="12.560308325507263" id="-9319">
		<tag k="name" v="Nord-Hestvikja" />
		<tag k="natural" v="bay" />
		<tag k="ssr:stedsnr" v="46598" />
	</node>
	<node lat="66.1371749957449" lon="12.47311944041635" id="-9320">
		<tag k="name" v="Buøya" />
		<tag k="place" v="island" />
		<tag k="ssr:stedsnr" v="46905" />
	</node>
	<node lat="66.14114166230335" lon="12.166652784162757" id="-9329">
		<tag k="name" v="Nordflesa" />
		<tag k="place" v="islet" />
		<tag k="ssr:stedsnr" v="76340" />
	</node>
	<node lat="66.23715833492896" lon="12.118213887347313" id="-9330">
		<tag k="name" v="Litlgauva" />
		<tag k="natural" v="shoal" />
		<tag k="place" v="locality" />
		<tag k="ssr:stedsnr" v="76413" />
	</node>
	<node lat="66.15127222014267" lon="12.335683342782747" id="-9335">
		<tag k="name" v="Finnjoholmen" />
		<tag k="place" v="islet" />
		<tag k="ssr:stedsnr" v="76595" />
	</node>
	<node lat="66.1769805521747" lon="12.371469441633824" id="-9336">
		<tag k="name" v="Sandholmen" />
		<tag k="place" v="islet" />
		<tag k="ssr:stedsnr" v="76681" />
	</node>
	<node lat="66.11676944696599" lon="12.392294447758443" id="-9338">
		<tag k="name" v="Nordbuøya" />
		<tag k="place" v="islet" />
		<tag k="ssr:stedsnr" v="76527" />
	</node>
	<node lat="66.14532322893018" lon="12.380162099074502" id="-9339">
		<tag k="name" v="Slapøya" />
		<tag k="place" v="island" />
		<tag k="ssr:stedsnr" v="76630" />
	</node>
	<node lat="66.1933027758437" lon="12.434016657782701" id="-9340">
		<tag k="name" v="Rensøysundet" />
		<tag k="natural" v="strait" />
		<tag k="ssr:stedsnr" v="76634" />
	</node>
	<node lat="66.23616944507272" lon="12.318702770121488" id="-9342">
		<tag k="name" v="Krøkjongelholmen" />
		<tag k="place" v="islet" />
		<tag k="ssr:stedsnr" v="76733" />
	</node>
	<node lat="66.02082222526649" lon="12.500233339070876" id="-9343">
		<tag k="name" v="Hestholmen" />
		<tag k="place" v="islet" />
		<tag k="ssr:stedsnr" v="76906" />
	</node>
	<node lat="66.19066388700449" lon="12.451566665516232" id="-9344">
		<tag k="name" v="Nebbsundet" />
		<tag k="natural" v="strait" />
		<tag k="ssr:stedsnr" v="76687" />
	</node>
	<node lat="66.19783055660476" lon="12.467663882677082" id="-9345">
		<tag k="name" v="Laukøya" />
		<tag k="place" v="islet" />
		<tag k="ssr:stedsnr" v="76689" />
	</node>
	<node lat="66.19769722329137" lon="12.497950004887386" id="-9346">
		<tag k="name" v="Litllangneset" />
		<tag k="natural" v="cape" />
		<tag k="ssr:stedsnr" v="76690" />
	</node>
	<node lat="66.03240000327055" lon="12.496377781069475" id="-9347">
		<tag k="name" v="Lissbukkholmen" />
		<tag k="place" v="islet" />
		<tag k="ssr:stedsnr" v="76878" />
	</node>
	<node lat="66.0424361120544" lon="12.512238884097473" id="-9348">
		<tag k="alt_name" v="Koppnesodden" />
		<tag k="name" v="Kobbnesodden" />
		<tag k="natural" v="cape" />
		<tag k="ssr:stedsnr" v="76990" />
	</node>
	<node lat="66.07812499903287" lon="12.377138878823397" id="-9350">
		<tag k="name" v="Småholman" />
		<tag k="place" v="islet" />
		<tag k="ssr:stedsnr" v="76944" />
	</node>
	<node lat="66.1331916666806" lon="12.391383333335195" id="-9354">
		<tag k="name" v="Bølgrunna" />
		<tag k="natural" v="shoal" />
		<tag k="place" v="locality" />
		<tag k="ssr:stedsnr" v="86832" />
	</node>
	<node lat="66.14164444074292" lon="12.718077778771987" id="-9357">
		<tag k="name" v="Langneset" />
		<tag k="natural" v="cape" />
		<tag k="ssr:stedsnr" v="106244" />
	</node>
	<node lat="66.01811944461504" lon="12.478886121043232" id="-9365">
		<tag k="name" v="Ormsøysundet" />
		<tag k="natural" v="strait" />
		<tag k="ssr:stedsnr" v="107767" />
	</node>
	<node lat="66.13229721776959" lon="12.56815556036897" id="-9378">
		<tag k="name" v="Kammarksøya" />
		<tag k="place" v="islet" />
		<tag k="ssr:stedsnr" v="136525" />
	</node>
	<node lat="66.11954166749277" lon="12.320369437932905" id="-9382">
		<tag k="name" v="Burøygrunnen" />
		<tag k="natural" v="shoal" />
		<tag k="place" v="locality" />
		<tag k="ssr:stedsnr" v="136542" />
	</node>
	<node lat="66.13311389009488" lon="12.319113894576722" id="-9384">
		<tag k="name" v="Lamøya" />
		<tag k="place" v="islet" />
		<tag k="ssr:stedsnr" v="136622" />
	</node>
	<node lat="66.14996944161365" lon="12.68325555709567" id="-9385">
		<tag k="name" v="Breivikgalten" />
		<tag k="natural" v="shoal" />
		<tag k="place" v="locality" />
		<tag k="ssr:stedsnr" v="136640" />
	</node>
	<node lat="66.1953277793707" lon="12.44101111857766" id="-9386">
		<tag k="name" v="Rensøya" />
		<tag k="place" v="islet" />
		<tag k="ssr:stedsnr" v="136642" />
	</node>
	<node lat="66.18868332947845" lon="12.235072231543743" id="-9387">
		<tag k="name" v="Horsrevet" />
		<tag k="natural" v="shoal" />
		<tag k="place" v="locality" />
		<tag k="ssr:stedsnr" v="136645" />
	</node>
	<node lat="66.22606666461562" lon="12.165577772819265" id="-9388">
		<tag k="name" v="Brattbåtstøøya" />
		<tag k="place" v="islet" />
		<tag k="ssr:stedsnr" v="136390" />
	</node>
	<node lat="66.16562222007404" lon="12.61664445122273" id="-9390">
		<tag k="alt_name" v="Gleinsvika" />
		<tag k="name" v="Gleinsvikja" />
		<tag k="natural" v="bay" />
		<tag k="ssr:stedsnr" v="136578" />
	</node>
	<node lat="66.1683944463699" lon="12.301841664703062" id="-9394">
		<tag k="name" v="Kjærflesa" />
		<tag k="place" v="islet" />
		<tag k="ssr:stedsnr" v="136596" />
	</node>
	<node lat="66.23001389026037" lon="12.553786114943152" id="-9395">
		<tag k="name" v="Drengholman" />
		<tag k="place" v="islet" />
		<tag k="ssr:stedsnr" v="136744" />
	</node>
	<node lat="66.05842777606799" lon="12.54399166137847" id="-9398">
		<tag k="name" v="Grindskjærneset" />
		<tag k="natural" v="cape" />
		<tag k="ssr:stedsnr" v="136970" />
	</node>
	<node lat="66.26258611167147" lon="12.298152783097411" id="-9399">
		<tag k="name" v="Ringholmen" />
		<tag k="place" v="islet" />
		<tag k="ssr:stedsnr" v="137235" />
	</node>
	<node lat="66.15930277804821" lon="12.28750555160087" id="-9400">
		<tag k="alt_name" v="Sørstokkholmen" />
		<tag k="name" v="Stokkholmen" />
		<tag k="place" v="islet" />
		<tag k="ssr:stedsnr" v="137557" />
	</node>
	<node lat="66.17973055422596" lon="12.627083334416307" id="-9402">
		<tag k="name" v="Vaskarneset" />
		<tag k="natural" v="cape" />
		<tag k="ssr:stedsnr" v="137626" />
	</node>
	<node lat="66.17302500313623" lon="12.317569452648655" id="-9403">
		<tag k="fixme" v="consider seamark:type=rock or natural=shoal" />
		<tag k="name" v="Bakarskjæran" />
		<tag k="place" v="islet" />
		<tag k="ssr:stedsnr" v="137632" />
	</node>
	<node lat="66.19924999640014" lon="12.087169450447899" id="-9404">
		<tag k="fixme" v="consider seamark:type=rock or natural=shoal" />
		<tag k="name" v="Tåja" />
		<tag k="place" v="islet" />
		<tag k="ssr:stedsnr" v="145622" />
	</node>
	<node lat="66.12256388845715" lon="12.426238878962806" id="-9405">
		<tag k="name" v="Ramnøygrunnen" />
		<tag k="natural" v="shoal" />
		<tag k="place" v="locality" />
		<tag k="ssr:stedsnr" v="146252" />
	</node>
	<node lat="66.2194583369605" lon="12.219430554036512" id="-9408">
		<tag k="name" v="Jensøya" />
		<tag k="place" v="islet" />
		<tag k="ssr:stedsnr" v="152591" />
	</node>
	<node lat="66.08545833597283" lon="12.350750008782041" id="-9412">
		<tag k="name" v="Klubbneset" />
		<tag k="natural" v="cape" />
		<tag k="ssr:stedsnr" v="166293" />
	</node>
	<node lat="66.17622221800065" lon="12.489663883244939" id="-9415">
		<tag k="name" v="Vestervågjen" />
		<tag k="natural" v="bay" />
		<tag k="ssr:stedsnr" v="166479" />
	</node>
	<node lat="66.13757221825827" lon="12.299533326123173" id="-9426">
		<tag k="name" v="Koknesvalen" />
		<tag k="natural" v="strait" />
		<tag k="ssr:stedsnr" v="167654" />
	</node>
	<node lat="66.1720555556532" lon="12.69090832844441" id="-9432">
		<tag k="name" v="Sørvågjen" />
		<tag k="natural" v="bay" />
		<tag k="ssr:stedsnr" v="168388" />
	</node>
	<node lat="66.16890833539507" lon="12.691305554724696" id="-9434">
		<tag k="name" v="Monsvikja" />
		<tag k="natural" v="bay" />
		<tag k="ssr:stedsnr" v="168341" />
	</node>
	<node lat="66.04350277490593" lon="12.339786100243957" id="-9436">
		<tag k="name" v="Bekkevikja" />
		<tag k="natural" v="bay" />
		<tag k="ssr:stedsnr" v="168548" />
	</node>
	<node lat="66.0354027793623" lon="12.314744445217995" id="-9438">
		<tag k="fixme" v="consider seamark:type=rock or natural=shoal" />
		<tag k="name" v="Kattskjæret" />
		<tag k="place" v="islet" />
		<tag k="ssr:stedsnr" v="168552" />
	</node>
	<node lat="66.02383055261969" lon="12.532555556968564" id="-9444">
		<tag k="fixme" v="consider seamark:type=rock or natural=shoal" />
		<tag k="name" v="Øyvollskjæret" />
		<tag k="place" v="islet" />
		<tag k="ssr:stedsnr" v="168722" />
	</node>
	<node lat="66.21556944861213" lon="12.161102769765403" id="-9447">
		<tag k="name" v="Vederjæveren" />
		<tag k="place" v="islet" />
		<tag k="ssr:stedsnr" v="197389" />
	</node>
	<node lat="66.22156388955757" lon="12.186552786865775" id="-9448">
		<tag k="name" v="Adrianskjæret" />
		<tag k="place" v="islet" />
		<tag k="ssr:stedsnr" v="197391" />
	</node>
	<node lat="66.22954166786943" lon="12.195391666530817" id="-9449">
		<tag k="name" v="Litlmannøya" />
		<tag k="place" v="islet" />
		<tag k="ssr:stedsnr" v="197397" />
	</node>
	<node lat="66.11909838178768" lon="12.291911682878359" id="-9450">
		<tag k="fixme" v="consider seamark:type=rock or natural=shoal" />
		<tag k="name" v="Storburøya" />
		<tag k="place" v="islet" />
		<tag k="ssr:stedsnr" v="197563" />
	</node>
	<node lat="66.1581750922745" lon="12.743195155300928" id="-9453">
		<tag k="name" v="Løkta" />
		<tag k="place" v="island" />
		<tag k="ssr:stedsnr" v="197612" />
	</node>
	<node lat="66.1673722249262" lon="12.312661113801038" id="-9454">
		<tag k="name" v="Kattholmen" />
		<tag k="place" v="islet" />
		<tag k="ssr:stedsnr" v="197617" />
	</node>
	<node lat="66.13170278022073" lon="12.28475556001862" id="-9457">
		<tag k="name" v="Austøya" />
		<tag k="place" v="island" />
		<tag k="ssr:stedsnr" v="197630" />
	</node>
	<node lat="66.14046388612226" lon="12.409302782698507" id="-9458">
		<tag k="fixme" v="consider seamark:type=rock or natural=shoal" />
		<tag k="name" v="Stongholmskjæret" />
		<tag k="place" v="islet" />
		<tag k="ssr:stedsnr" v="197647" />
	</node>
	<node lat="66.22277222651871" lon="12.228336109260379" id="-9459">
		<tag k="name" v="Feøyan" />
		<tag k="place" v="island" />
		<tag k="ssr:stedsnr" v="197742" />
	</node>
	<node lat="66.22878333014617" lon="12.337050009002565" id="-9460">
		<tag k="name" v="Litlåsværet" />
		<tag k="place" v="island" />
		<tag k="ssr:stedsnr" v="197744" />
	</node>
	<node lat="66.23410555250081" lon="12.247372217912067" id="-9461">
		<tag k="name" v="Trogøyskjæran" />
		<tag k="place" v="island" />
		<tag k="ssr:stedsnr" v="197755" />
	</node>
	<node lat="66.21846111149509" lon="12.524322211572954" id="-9462">
		<tag k="name" v="Litlflesene" />
		<tag k="place" v="islet" />
		<tag k="ssr:stedsnr" v="197681" />
	</node>
	<node lat="66.22738333236617" lon="12.588788881591261" id="-9463">
		<tag k="name" v="Nordøyneset" />
		<tag k="natural" v="cape" />
		<tag k="ssr:stedsnr" v="197683" />
	</node>
	<node lat="66.22772222605279" lon="12.548255546949399" id="-9464">
		<tag k="name" v="Utøybarden" />
		<tag k="natural" v="cape" />
		<tag k="ssr:stedsnr" v="197686" />
	</node>
	<node lat="66.21725555670433" lon="12.238774993419314" id="-9465">
		<tag k="fixme" v="consider seamark:type=rock or natural=shoal" />
		<tag k="name" v="Engholmdrægene" />
		<tag k="place" v="islet" />
		<tag k="ssr:stedsnr" v="197693" />
	</node>
	<node lat="66.07704167097245" lon="12.351702785303276" id="-9466">
		<tag k="alt_name" v="Skagavågen" />
		<tag k="name" v="Skagavågjen" />
		<tag k="natural" v="strait" />
		<tag k="ssr:stedsnr" v="197965" />
	</node>
	<node lat="66.14122221973717" lon="12.766986107344994" id="-9469">
		<tag k="name" v="Dalken" />
		<tag k="natural" v="cape" />
		<tag k="ssr:stedsnr" v="198156" />
	</node>
	<node lat="66.18752222327626" lon="12.446130562914911" id="-9470">
		<tag k="name" v="Nebbåen" />
		<tag k="place" v="locality" />
		<tag k="seamark:type" v="rock" />
		<tag k="ssr:stedsnr" v="207265" />
	</node>
	<node lat="66.18993055448293" lon="12.433269444310755" id="-9471">
		<tag k="name" v="Rensøygalten" />
		<tag k="natural" v="shoal" />
		<tag k="place" v="locality" />
		<tag k="ssr:stedsnr" v="207841" />
	</node>
	<node lat="66.15024444732688" lon="12.68545000405655" id="-9472">
		<tag k="name" v="Skallen" />
		<tag k="natural" v="shoal" />
		<tag k="place" v="locality" />
		<tag k="ssr:stedsnr" v="207858" />
	</node>
	<node lat="66.22896388457124" lon="12.58805278408532" id="-9473">
		<tag k="name" v="Utøysund" />
		<tag k="natural" v="bay" />
		<tag k="ssr:stedsnr" v="207862" />
	</node>
	<node lat="66.11055278124377" lon="12.445305545314483" id="-9474">
		<tag k="name" v="Hoholmtaren" />
		<tag k="natural" v="shoal" />
		<tag k="place" v="locality" />
		<tag k="ssr:stedsnr" v="209726" />
	</node>
	<node lat="66.09783611345176" lon="12.297294452618853" id="-9475">
		<tag k="name" v="Langtaren" />
		<tag k="natural" v="shoal" />
		<tag k="place" v="locality" />
		<tag k="ssr:stedsnr" v="209731" />
	</node>
	<node lat="66.24354166711124" lon="12.13760554701105" id="-9477">
		<tag k="name" v="Vinterbåen" />
		<tag k="natural" v="shoal" />
		<tag k="place" v="locality" />
		<tag k="ssr:stedsnr" v="213423" />
	</node>
	<node lat="66.17582499975644" lon="12.501141663321054" id="-9481">
		<tag k="name" v="Titternessjyen" />
		<tag k="natural" v="bay" />
		<tag k="ssr:stedsnr" v="227418" />
	</node>
	<node lat="66.24078055513432" lon="12.138452778474653" id="-9496">
		<tag k="name" v="Lønnfallet" />
		<tag k="natural" v="shoal" />
		<tag k="place" v="locality" />
		<tag k="ssr:stedsnr" v="274360" />
	</node>
	<node lat="66.2240222234386" lon="12.231050010891686" id="-9497">
		<tag k="name" v="Andøya" />
		<tag k="place" v="islet" />
		<tag k="ssr:stedsnr" v="274535" />
	</node>
	<node lat="66.13206111242177" lon="12.632322230135264" id="-9498">
		<tag k="name" v="Steinfagervikja" />
		<tag k="natural" v="bay" />
		<tag k="ssr:stedsnr" v="278556" />
	</node>
	<node lat="66.13505555235426" lon="12.644119445379701" id="-9499">
		<tag k="name" v="Melkarvikja" />
		<tag k="natural" v="bay" />
		<tag k="ssr:stedsnr" v="278558" />
	</node>
	<node lat="66.13889999942906" lon="12.635838881796994" id="-9500">
		<tag k="name" v="Guroreva" />
		<tag k="natural" v="bay" />
		<tag k="ssr:stedsnr" v="278560" />
	</node>
	<node lat="66.1414555601923" lon="12.512602768870195" id="-9506">
		<tag k="name" v="Kvernan" />
		<tag k="natural" v="cape" />
		<tag k="ssr:stedsnr" v="288229" />
	</node>
	<node lat="66.10131388470663" lon="12.660499991586835" id="-9509">
		<tag k="name" v="Juvikja" />
		<tag k="natural" v="bay" />
		<tag k="ssr:stedsnr" v="288268" />
	</node>
	<node lat="66.08894444138213" lon="12.605452770650935" id="-9510">
		<tag k="name" v="Vakkersteinsvikja" />
		<tag k="natural" v="bay" />
		<tag k="ssr:stedsnr" v="288417" />
	</node>
	<node lat="66.07449444583902" lon="12.337430550066038" id="-9517">
		<tag k="name" v="Steingården" />
		<tag k="natural" v="cape" />
		<tag k="ssr:stedsnr" v="289289" />
	</node>
	<node lat="66.15037777942082" lon="12.350250005902147" id="-9518">
		<tag k="name" v="Randinaholmen" />
		<tag k="place" v="islet" />
		<tag k="ssr:stedsnr" v="289297" />
	</node>
	<node lat="66.04376389278544" lon="12.336819443205169" id="-9525">
		<tag k="name" v="Ytterneset" />
		<tag k="natural" v="cape" />
		<tag k="ssr:stedsnr" v="289622" />
	</node>
	<node lat="66.04319722300365" lon="12.34471666131191" id="-9526">
		<tag k="name" v="Heimervikja" />
		<tag k="natural" v="bay" />
		<tag k="ssr:stedsnr" v="289624" />
	</node>
	<node lat="66.14231388856494" lon="12.43485555649564" id="-9540">
		<tag k="fixme" v="consider seamark:type=rock or natural=shoal" />
		<tag k="name" v="Menspika" />
		<tag k="place" v="islet" />
		<tag k="ssr:stedsnr" v="294855" />
	</node>
	<node lat="66.12064999657942" lon="12.465863882168968" id="-9541">
		<tag k="name" v="Grimsøya" />
		<tag k="place" v="island" />
		<tag k="ssr:stedsnr" v="318530" />
	</node>
	<node lat="66.14328888439132" lon="12.292347230965904" id="-9546">
		<tag k="alt_name" v="Krusøyan" />
		<tag k="name" v="Krusøya" />
		<tag k="place" v="island" />
		<tag k="ssr:stedsnr" v="318622" />
	</node>
	<node lat="66.14293055426101" lon="12.44758889724475" id="-9547">
		<tag k="alt_name" v="Nordsandøya" />
		<tag k="name" v="Nord-Sandøya" />
		<tag k="place" v="islet" />
		<tag k="ssr:stedsnr" v="318632" />
	</node>
	<node lat="66.23469999758306" lon="12.183624997526953" id="-9548">
		<tag k="name" v="Litlgrenøya" />
		<tag k="place" v="islet" />
		<tag k="ssr:stedsnr" v="318353" />
	</node>
	<node lat="66.23760833621242" lon="12.144944448163525" id="-9549">
		<tag k="fixme" v="consider seamark:type=rock or natural=shoal" />
		<tag k="name" v="Fotskjæran" />
		<tag k="place" v="islet" />
		<tag k="ssr:stedsnr" v="318386" />
	</node>
	<node lat="66.2135888848727" lon="12.531963898699987" id="-9552">
		<tag k="name" v="Tverrtaren" />
		<tag k="natural" v="shoal" />
		<tag k="place" v="locality" />
		<tag k="ssr:stedsnr" v="318670" />
	</node>
	<node lat="66.11485555888206" lon="12.655111102669258" id="-9554">
		<tag k="alt_name" v="Galstadvika;Gardstadvika" />
		<tag k="name" v="Galstadvikja" />
		<tag k="natural" v="bay" />
		<tag k="ssr:stedsnr" v="318562" />
	</node>
	<node lat="66.16323888799661" lon="12.568788899809196" id="-9556">
		<tag k="name" v="Kuneset" />
		<tag k="natural" v="cape" />
		<tag k="ssr:stedsnr" v="318572" />
	</node>
	<node lat="66.23325833778193" lon="12.22985554735516" id="-9560">
		<tag k="name" v="Stortrogøya" />
		<tag k="place" v="islet" />
		<tag k="ssr:stedsnr" v="318742" />
	</node>
	<node lat="66.21101388936034" lon="12.551972220305903" id="-9563">
		<tag k="alt_name" v="Nordskredingen" />
		<tag k="name" v="Nordskrengan" />
		<tag k="place" v="islet" />
		<tag k="ssr:stedsnr" v="319628" />
	</node>
	<node lat="66.02183055339732" lon="12.36291110288304" id="-9564">
		<tag k="name" v="Småholman" />
		<tag k="place" v="islet" />
		<tag k="ssr:stedsnr" v="319903" />
	</node>
	<node lat="66.22166666990836" lon="12.6083333317358" id="-9569">
		<tag k="name" v="Naustneset" />
		<tag k="natural" v="cape" />
		<tag k="ssr:stedsnr" v="324554" />
	</node>
	<node lat="66.15440000318351" lon="12.277949993005679" id="-9570">
		<tag k="fixme" v="multiple name tags, choose one and add the other to alt_name" />
		<tag k="name" v="Liss-Braken;Tvibåan" />
		<tag k="natural" v="shoal" />
		<tag k="place" v="locality" />
		<tag k="ssr:stedsnr" v="328837" />
	</node>
	<node lat="66.1905777734378" lon="12.457883332796474" id="-9571">
		<tag k="name" v="Store Langneset" />
		<tag k="natural" v="cape" />
		<tag k="ssr:stedsnr" v="328846" />
	</node>
	<node lat="66.19270555314597" lon="12.40522778766079" id="-9572">
		<tag k="name" v="Sandholman" />
		<tag k="place" v="islet" />
		<tag k="ssr:stedsnr" v="328847" />
	</node>
	<node lat="66.1153111151006" lon="12.369486122516319" id="-9574">
		<tag k="name" v="Gjesøya" />
		<tag k="place" v="islet" />
		<tag k="ssr:stedsnr" v="341884" />
	</node>
	<node lat="66.14202222137321" lon="12.715211112105079" id="-9575">
		<tag k="name" v="Langnesvikja" />
		<tag k="natural" v="bay" />
		<tag k="ssr:stedsnr" v="348245" />
	</node>
	<node lat="66.15550555911956" lon="12.333116664976844" id="-9578">
		<tag k="name" v="Innstøyvalen" />
		<tag k="natural" v="bay" />
		<tag k="ssr:stedsnr" v="349380" />
	</node>
	<node lat="66.03198610764395" lon="12.502277770724623" id="-9582">
		<tag k="fixme" v="consider seamark:type=rock or natural=shoal" />
		<tag k="name" v="Rødskjæret" />
		<tag k="place" v="islet" />
		<tag k="ssr:stedsnr" v="349568" />
	</node>
	<node lat="66.0211666648876" lon="12.351758337455355" id="-9584">
		<tag k="name" v="Krungelvikja" />
		<tag k="natural" v="bay" />
		<tag k="ssr:stedsnr" v="349738" />
	</node>
	<node lat="66.02965277430174" lon="12.314641675985811" id="-9585">
		<tag k="name" v="Hommelvikja" />
		<tag k="natural" v="bay" />
		<tag k="ssr:stedsnr" v="349746" />
	</node>
	<node lat="66.2175666654795" lon="12.60984167023898" id="-9586">
		<tag k="name" v="Kvassneset" />
		<tag k="natural" v="cape" />
		<tag k="ssr:stedsnr" v="349751" />
	</node>
	<node lat="66.06162500392" lon="12.3730499998854" id="-9590">
		<tag k="name" v="Klausnesodden" />
		<tag k="natural" v="cape" />
		<tag k="ssr:stedsnr" v="350372" />
	</node>
	<node lat="66.18279444270982" lon="12.730611117537823" id="-9594">
		<tag k="name" v="Leirvikja" />
		<tag k="natural" v="bay" />
		<tag k="ssr:stedsnr" v="350313" />
	</node>
	<node lat="66.18264167081227" lon="12.676069442440209" id="-9599">
		<tag k="name" v="Jordfastvikja" />
		<tag k="natural" v="bay" />
		<tag k="ssr:stedsnr" v="350341" />
	</node>
	<node lat="66.17147500398953" lon="12.681008335915514" id="-9600">
		<tag k="name" v="Tronesvikja" />
		<tag k="natural" v="bay" />
		<tag k="ssr:stedsnr" v="350343" />
	</node>
	<node lat="66.22067221995232" lon="12.558466667618694" id="-9604">
		<tag k="name" v="Flæsen" />
		<tag k="natural" v="cape" />
		<tag k="ssr:stedsnr" v="350675" />
	</node>
	<node lat="66.04719166491343" lon="12.54220555729377" id="-9608">
		<tag k="name" v="Breivika" />
		<tag k="natural" v="bay" />
		<tag k="ssr:stedsnr" v="379054" />
	</node>
	<node lat="66.06772221824448" lon="12.565574993912032" id="-9609">
		<tag k="name" v="Kvitneset" />
		<tag k="natural" v="cape" />
		<tag k="ssr:stedsnr" v="379056" />
	</node>
	<node lat="66.13364167011923" lon="12.193430563531813" id="-9612">
		<tag k="fixme" v="consider seamark:type=rock or natural=shoal" />
		<tag k="name" v="Ertnflesa" />
		<tag k="place" v="islet" />
		<tag k="ssr:stedsnr" v="379325" />
	</node>
	<node lat="66.22715555684356" lon="12.186988878399514" id="-9613">
		<tag k="name" v="Stormannøya" />
		<tag k="place" v="islet" />
		<tag k="ssr:stedsnr" v="379343" />
	</node>
	<node lat="66.21380833219001" lon="12.165663884291282" id="-9614">
		<tag k="name" v="Flatøya" />
		<tag k="place" v="islet" />
		<tag k="ssr:stedsnr" v="379351" />
	</node>
	<node lat="66.24894444838405" lon="12.157088887869065" id="-9615">
		<tag k="name" v="Slyngehovudet" />
		<tag k="place" v="islet" />
		<tag k="ssr:stedsnr" v="379393" />
	</node>
	<node lat="66.17271666361742" lon="12.38249999561736" id="-9616">
		<tag k="name" v="Havstein" />
		<tag k="place" v="island" />
		<tag k="ssr:stedsnr" v="379568" />
	</node>
	<node lat="66.10904999994912" lon="12.332527782232184" id="-9619">
		<tag k="name" v="Engholmen" />
		<tag k="place" v="islet" />
		<tag k="ssr:stedsnr" v="379543" />
	</node>
	<node lat="66.10808055698423" lon="12.686016658245277" id="-9620">
		<tag k="fixme" v="consider seamark:type=rock or natural=shoal" />
		<tag k="name" v="Svensskjæret" />
		<tag k="place" v="islet" />
		<tag k="ssr:stedsnr" v="379547" />
	</node>
	<node lat="66.02002777835766" lon="12.51646387971389" id="-9622">
		<tag k="name" v="Lauvøygalten" />
		<tag k="natural" v="shoal" />
		<tag k="place" v="locality" />
		<tag k="ssr:stedsnr" v="379901" />
	</node>
	<node lat="66.07363740989395" lon="12.580179476802039" id="-9625">
		<tag k="name" v="Holten" />
		<tag k="natural" v="beach" />
		<tag k="ssr:stedsnr" v="379944" />
	</node>
	<node lat="66.08084721992495" lon="12.609222222724242" id="-9626">
		<tag k="name" v="Litløygrunnen" />
		<tag k="natural" v="shoal" />
		<tag k="place" v="locality" />
		<tag k="ssr:stedsnr" v="379951" />
	</node>
	<node lat="66.04849166496842" lon="12.583655547798765" id="-9628">
		<tag k="name" v="Nesan" />
		<tag k="natural" v="cape" />
		<tag k="ssr:stedsnr" v="380000" />
	</node>
	<node lat="66.25381389013951" lon="12.338313889796114" id="-9629">
		<tag k="alt_name" v="Skinnarøybåan" />
		<tag k="name" v="Skinnbåan" />
		<tag k="natural" v="shoal" />
		<tag k="place" v="locality" />
		<tag k="ssr:stedsnr" v="380254" />
	</node>
	<node lat="66.25524166409039" lon="12.276427781493828" id="-9630">
		<tag k="name" v="Lassøya" />
		<tag k="place" v="islet" />
		<tag k="ssr:stedsnr" v="380255" />
	</node>
	<node lat="66.05464400582402" lon="12.580743772546073" id="-9631">
		<tag k="fixme" v="consider seamark:type=rock or natural=shoal" />
		<tag k="name" v="Dampskipsskjæret" />
		<tag k="place" v="islet" />
		<tag k="ssr:stedsnr" v="389434" />
	</node>
	<node lat="66.08584999926242" lon="12.45358334318381" id="-9633">
		<tag k="name" v="Indre Hølen" />
		<tag k="natural" v="strait" />
		<tag k="ssr:stedsnr" v="396958" />
	</node>
	<node lat="66.16108055189423" lon="12.782811119952626" id="-9637">
		<tag k="name" v="Leiro" />
		<tag k="natural" v="shoal" />
		<tag k="place" v="locality" />
		<tag k="ssr:stedsnr" v="409250" />
	</node>
	<node lat="66.08829166524417" lon="12.462799995566424" id="-9646">
		<tag k="name" v="Innerhølvågjen" />
		<tag k="natural" v="bay" />
		<tag k="ssr:stedsnr" v="410274" />
	</node>
	<node lat="66.03600000052312" lon="12.443911121682786" id="-9655">
		<tag k="name" v="Buneset" />
		<tag k="natural" v="cape" />
		<tag k="ssr:stedsnr" v="410536" />
	</node>
	<node lat="66.17491666657156" lon="12.342038885928233" id="-9658">
		<tag k="name" v="Grindnessundet" />
		<tag k="natural" v="strait" />
		<tag k="ssr:stedsnr" v="410698" />
	</node>
	<node lat="66.17178333029528" lon="12.345033342085282" id="-9659">
		<tag k="name" v="Vandvevågjen" />
		<tag k="natural" v="bay" />
		<tag k="ssr:stedsnr" v="410701" />
	</node>
	<node lat="66.13566666501335" lon="12.291099990657878" id="-9661">
		<tag k="name" v="Soløya" />
		<tag k="natural" v="cape" />
		<tag k="ssr:stedsnr" v="410911" />
	</node>
	<node lat="66.11918888893192" lon="12.2616083230957" id="-9664">
		<tag k="name" v="Auken" />
		<tag k="place" v="islet" />
		<tag k="ssr:stedsnr" v="410925" />
	</node>
	<node lat="66.17693888840708" lon="12.728427769317177" id="-9666">
		<tag k="name" v="Eianbukta" />
		<tag k="natural" v="bay" />
		<tag k="ssr:stedsnr" v="411331" />
	</node>
	<node lat="66.02156388883122" lon="12.497741670053058" id="-9669">
		<tag k="name" v="Liss-Løvøysundet" />
		<tag k="natural" v="strait" />
		<tag k="ssr:stedsnr" v="411738" />
	</node>
	<node lat="66.03125277330464" lon="12.524150007235175" id="-9670">
		<tag k="name" v="Løvøysundet" />
		<tag k="natural" v="strait" />
		<tag k="ssr:stedsnr" v="411739" />
	</node>
	<node lat="66.13246667004981" lon="12.488313899200804" id="-9672">
		<tag k="name" v="Hestøya" />
		<tag k="place" v="island" />
		<tag k="ssr:stedsnr" v="440069" />
	</node>
	<node lat="66.08679444654699" lon="12.349530558711807" id="-9673">
		<tag k="name" v="Storøya" />
		<tag k="place" v="island" />
		<tag k="ssr:stedsnr" v="440078" />
	</node>
	<node lat="66.20295555886412" lon="12.520777776142742" id="-9675">
		<tag k="alt_name" v="Sjøskjeret;Sjyskjeret" />
		<tag k="fixme" v="consider seamark:type=rock or natural=shoal" />
		<tag k="name" v="Sjøskjæret" />
		<tag k="place" v="islet" />
		<tag k="ssr:stedsnr" v="440625" />
	</node>
	<node lat="66.20897222409194" lon="12.536611116850715" id="-9676">
		<tag k="fixme" v="consider seamark:type=rock or natural=shoal" />
		<tag k="name" v="Skredingsskjæret" />
		<tag k="place" v="islet" />
		<tag k="ssr:stedsnr" v="440626" />
	</node>
	<node lat="66.20514722579972" lon="12.266241672797188" id="-9677">
		<tag k="name" v="Risøybåen" />
		<tag k="natural" v="shoal" />
		<tag k="place" v="locality" />
		<tag k="ssr:stedsnr" v="440628" />
	</node>
	<node lat="66.23693333264083" lon="12.262808335260774" id="-9678">
		<tag k="name" v="Storgåsøya" />
		<tag k="place" v="islet" />
		<tag k="ssr:stedsnr" v="440712" />
	</node>
	<node lat="66.23789721870278" lon="12.602488894562939" id="-9679">
		<tag k="name" v="Utøybåen" />
		<tag k="natural" v="shoal" />
		<tag k="place" v="locality" />
		<tag k="ssr:stedsnr" v="440714" />
	</node>
	<node lat="66.22309999724284" lon="12.179066666162623" id="-9680">
		<tag k="name" v="Bursøya" />
		<tag k="place" v="islet" />
		<tag k="ssr:stedsnr" v="440377" />
	</node>
	<node lat="66.22840555191918" lon="12.176441667903237" id="-9681">
		<tag k="name" v="Storgrenøya" />
		<tag k="place" v="island" />
		<tag k="ssr:stedsnr" v="440378" />
	</node>
	<node lat="66.20980833522941" lon="12.214691656649777" id="-9682">
		<tag k="name" v="Storengøya" />
		<tag k="place" v="islet" />
		<tag k="ssr:stedsnr" v="440383" />
	</node>
	<node lat="66.16599444014797" lon="12.500777771447511" id="-9684">
		<tag k="name" v="Stavsengøya" />
		<tag k="place" v="island" />
		<tag k="ssr:stedsnr" v="440583" />
	</node>
	<node lat="66.14332500015985" lon="12.678455549637084" id="-9685">
		<tag k="alt_name" v="Kopardalsskjæret" />
		<tag k="fixme" v="consider seamark:type=rock or natural=shoal" />
		<tag k="name" v="Ytterskjæret" />
		<tag k="place" v="islet" />
		<tag k="ssr:stedsnr" v="440585" />
	</node>
	<node lat="66.18626666389613" lon="12.461816667681992" id="-9686">
		<tag k="alt_name" v="Purkholmen" />
		<tag k="name" v="Pørkholmen" />
		<tag k="place" v="islet" />
		<tag k="ssr:stedsnr" v="440662" />
	</node>
	<node lat="66.1725638857604" lon="12.766422232553182" id="-9688">
		<tag k="name" v="Sundsøya" />
		<tag k="place" v="islet" />
		<tag k="ssr:stedsnr" v="440766" />
	</node>
	<node lat="66.06430277991089" lon="12.36067221677492" id="-9689">
		<tag k="bay" v="fjord" />
		<tag k="name" v="Skagafjorden" />
		<tag k="natural" v="bay" />
		<tag k="ssr:stedsnr" v="440956" />
	</node>
	<node lat="66.06785277559607" lon="12.299861111045379" id="-9690">
		<tag k="name" v="Gjeva" />
		<tag k="place" v="islet" />
		<tag k="ssr:stedsnr" v="440966" />
	</node>
	<node lat="66.11460555306992" lon="12.277402772875227" id="-9692">
		<tag k="fixme" v="consider seamark:type=rock or natural=shoal" />
		<tag k="name" v="Steinskjæran" />
		<tag k="place" v="islet" />
		<tag k="ssr:stedsnr" v="500600" />
	</node>
	<node lat="66.24331944046823" lon="12.16110833512048" id="-9694">
		<tag k="fixme" v="consider seamark:type=rock or natural=shoal" />
		<tag k="name" v="Leiholmen" />
		<tag k="place" v="islet" />
		<tag k="ssr:stedsnr" v="500447" />
	</node>
	<node lat="66.24139444208654" lon="12.083224992974946" id="-9695">
		<tag k="name" v="Storgauva" />
		<tag k="natural" v="shoal" />
		<tag k="place" v="locality" />
		<tag k="ssr:stedsnr" v="500463" />
	</node>
	<node lat="66.24302500051104" lon="12.185652781690496" id="-9696">
		<tag k="name" v="Indreslynga" />
		<tag k="place" v="islet" />
		<tag k="ssr:stedsnr" v="500471" />
	</node>
	<node lat="66.24683889232634" lon="12.169988894918651" id="-9697">
		<tag k="name" v="Høgslynga" />
		<tag k="place" v="islet" />
		<tag k="ssr:stedsnr" v="500472" />
	</node>
	<node lat="66.24340833183551" lon="12.12259445157896" id="-9698">
		<tag k="name" v="Gåsflesa" />
		<tag k="place" v="islet" />
		<tag k="ssr:stedsnr" v="500476" />
	</node>
	<node lat="66.16422777435686" lon="12.688633329582728" id="-9700">
		<tag k="name" v="Skjellvikja" />
		<tag k="natural" v="bay" />
		<tag k="ssr:stedsnr" v="500639" />
	</node>
	<node lat="66.1670388922287" lon="12.63579166724894" id="-9701">
		<tag k="name" v="Gleinskallen" />
		<tag k="natural" v="shoal" />
		<tag k="place" v="locality" />
		<tag k="ssr:stedsnr" v="500644" />
	</node>
	<node lat="66.1288138875304" lon="12.275491659714318" id="-9702">
		<tag k="name" v="Slapøyværet" />
		<tag k="place" v="island" />
		<tag k="ssr:stedsnr" v="500665" />
	</node>
	<node lat="66.2541194409127" lon="12.203944441165994" id="-9703">
		<tag k="fixme" v="consider seamark:type=rock or natural=shoal" />
		<tag k="name" v="Åmundsskjæret" />
		<tag k="place" v="islet" />
		<tag k="ssr:stedsnr" v="500667" />
	</node>
	<node lat="66.13484444383965" lon="12.296111117308138" id="-9704">
		<tag k="name" v="Breisundet" />
		<tag k="natural" v="strait" />
		<tag k="ssr:stedsnr" v="500668" />
	</node>
	<node lat="66.14460277965968" lon="12.785466677755222" id="-9706">
		<tag k="name" v="Vikran" />
		<tag k="natural" v="bay" />
		<tag k="ssr:stedsnr" v="501176" />
	</node>
	<node lat="66.19235277565019" lon="12.373238895625317" id="-9709">
		<tag k="fixme" v="consider seamark:type=rock or natural=shoal" />
		<tag k="name" v="Ellingoddan" />
		<tag k="place" v="islet" />
		<tag k="ssr:stedsnr" v="501600" />
	</node>
	<node lat="66.20194722012067" lon="12.606472224679546" id="-9710">
		<tag k="alt_name" v="Steinsvika" />
		<tag k="name" v="Steinsvikja" />
		<tag k="natural" v="bay" />
		<tag k="ssr:stedsnr" v="501654" />
	</node>
	<node lat="66.19525277715302" lon="12.492452780619502" id="-9711">
		<tag k="name" v="Langneset" />
		<tag k="natural" v="cape" />
		<tag k="ssr:stedsnr" v="501661" />
	</node>
	<node lat="66.03707500235181" lon="12.504788892841399" id="-9714">
		<tag k="name" v="Stongholmen" />
		<tag k="place" v="islet" />
		<tag k="ssr:stedsnr" v="501872" />
	</node>
	<node lat="66.080616670772" lon="12.307130564013969" id="-9718">
		<tag k="name" v="Lyngøyskolten" />
		<tag k="natural" v="shoal" />
		<tag k="place" v="locality" />
		<tag k="ssr:stedsnr" v="512751" />
	</node>
	<node lat="66.24796944895198" lon="12.13042221775469" id="-9720">
		<tag k="name" v="Kvalpen" />
		<tag k="natural" v="shoal" />
		<tag k="place" v="locality" />
		<tag k="ssr:stedsnr" v="516392" />
	</node>
	<node lat="66.12444444206751" lon="12.648566662869536" id="-9722">
		<tag k="name" v="Skjånesskjæran" />
		<tag k="natural" v="bay" />
		<tag k="ssr:stedsnr" v="521501" />
	</node>
	<node lat="66.10846666797958" lon="12.663813899947522" id="-9724">
		<tag k="name" v="Stigrunnen" />
		<tag k="natural" v="shoal" />
		<tag k="place" v="locality" />
		<tag k="ssr:stedsnr" v="530359" />
	</node>
	<node lat="66.16659444080359" lon="12.355783339462853" id="-9725">
		<tag k="name" v="Brørn" />
		<tag k="place" v="islet" />
		<tag k="ssr:stedsnr" v="530681" />
	</node>
	<node lat="66.17602777387616" lon="12.385805565743736" id="-9726">
		<tag k="name" v="Åkerneset" />
		<tag k="natural" v="cape" />
		<tag k="ssr:stedsnr" v="530682" />
	</node>
	<node lat="66.19506944810504" lon="12.46454721898021" id="-9727">
		<tag k="name" v="Nesvikja" />
		<tag k="natural" v="bay" />
		<tag k="ssr:stedsnr" v="530638" />
	</node>
	<node lat="66.15742222045327" lon="12.702605549259205" id="-9735">
		<tag k="name" v="Stranda" />
		<tag k="natural" v="beach" />
		<tag k="ssr:stedsnr" v="531234" />
	</node>
	<node lat="66.08239444104618" lon="12.412638897420884" id="-9737">
		<tag k="name" v="Storlangøya" />
		<tag k="place" v="island" />
		<tag k="ssr:stedsnr" v="531263" />
	</node>
	<node lat="66.18555277401943" lon="12.757980557236982" id="-9743">
		<tag k="name" v="Oddan" />
		<tag k="natural" v="cape" />
		<tag k="ssr:stedsnr" v="531717" />
	</node>
	<node lat="66.16726666988332" lon="12.726919448935163" id="-9748">
		<tag k="name" v="Kalvhagen" />
		<tag k="natural" v="cape" />
		<tag k="ssr:stedsnr" v="532333" />
	</node>
	<node lat="66.0381861117613" lon="12.51798333091294" id="-9750">
		<tag k="name" v="Demma" />
		<tag k="natural" v="bay" />
		<tag k="ssr:stedsnr" v="532516" />
	</node>
	<node lat="66.03463055398701" lon="12.517441659617903" id="-9751">
		<tag k="name" v="Kleivvikja" />
		<tag k="natural" v="bay" />
		<tag k="ssr:stedsnr" v="532518" />
	</node>
	<node lat="66.06426944652237" lon="12.559458323232986" id="-9752">
		<tag k="name" v="Storvikja" />
		<tag k="natural" v="bay" />
		<tag k="ssr:stedsnr" v="532584" />
	</node>
	<node lat="66.04765277613602" lon="12.547466661319442" id="-9755">
		<tag k="name" v="Amundvikja" />
		<tag k="natural" v="bay" />
		<tag k="ssr:stedsnr" v="532537" />
	</node>
	<node lat="66.04564722036783" lon="12.355752769656982" id="-9756">
		<tag k="name" v="Hagakallen" />
		<tag k="natural" v="cape" />
		<tag k="ssr:stedsnr" v="532564" />
	</node>
	<node lat="66.0279611074381" lon="12.517891658801895" id="-9758">
		<tag k="name" v="Hesthagen" />
		<tag k="natural" v="cape" />
		<tag k="ssr:stedsnr" v="532751" />
	</node>
	<node lat="66.15984999856666" lon="12.548183335058384" id="-9759">
		<tag k="name" v="Langneset" />
		<tag k="natural" v="cape" />
		<tag k="ssr:stedsnr" v="561049" />
	</node>
	<node lat="66.23186666697472" lon="12.205902785649343" id="-9760">
		<tag k="name" v="Burøya" />
		<tag k="place" v="islet" />
		<tag k="ssr:stedsnr" v="561353" />
	</node>
	<node lat="66.21469166766303" lon="12.142463887793973" id="-9761">
		<tag k="name" v="Sengsøya" />
		<tag k="place" v="islet" />
		<tag k="ssr:stedsnr" v="561366" />
	</node>
	<node lat="66.1177833305837" lon="12.253680548972243" id="-9762">
		<tag k="fixme" v="consider seamark:type=rock or natural=shoal" />
		<tag k="name" v="Lamøyskjæret" />
		<tag k="place" v="islet" />
		<tag k="ssr:stedsnr" v="561507" />
	</node>
	<node lat="66.11856388583261" lon="12.304086106329299" id="-9764">
		<tag k="fixme" v="consider seamark:type=rock or natural=shoal" />
		<tag k="name" v="Garnskjæret" />
		<tag k="place" v="islet" />
		<tag k="ssr:stedsnr" v="561515" />
	</node>
	<node lat="66.13426110895561" lon="12.587588893369952" id="-9765">
		<tag k="alt_name" v="Vågsvågen" />
		<tag k="name" v="Vågsvågjen" />
		<tag k="natural" v="bay" />
		<tag k="ssr:stedsnr" v="561521" />
	</node>
	<node lat="66.10039444533422" lon="12.40115276812381" id="-9770">
		<tag k="fixme" v="consider seamark:type=rock or natural=shoal" />
		<tag k="name" v="Selvågsskjæret" />
		<tag k="place" v="islet" />
		<tag k="ssr:stedsnr" v="561559" />
	</node>
	<node lat="66.16868333358958" lon="12.675680550457908" id="-9772">
		<tag k="name" v="Tarholmen" />
		<tag k="place" v="islet" />
		<tag k="ssr:stedsnr" v="561569" />
	</node>
	<node lat="66.14186389230427" lon="12.33705277333118" id="-9775">
		<tag k="alt_name" v="Litlkalvøya" />
		<tag k="name" v="Liss-Kvaløya" />
		<tag k="place" v="islet" />
		<tag k="ssr:stedsnr" v="561626" />
	</node>
	<node lat="66.14740000109163" lon="12.621441676011747" id="-9777">
		<tag k="name" v="Gullstadhatten" />
		<tag k="natural" v="cape" />
		<tag k="ssr:stedsnr" v="561634" />
	</node>
	<node lat="66.2016027749827" lon="12.540649999130483" id="-9778">
		<tag k="name" v="Bryggevika" />
		<tag k="natural" v="bay" />
		<tag k="ssr:stedsnr" v="561647" />
	</node>
	<node lat="66.21720833613882" lon="12.567202774481622" id="-9780">
		<tag k="name" v="Skipholmen" />
		<tag k="place" v="islet" />
		<tag k="ssr:stedsnr" v="561654" />
	</node>
	<node lat="66.22180277923106" lon="12.57119444355397" id="-9781">
		<tag k="name" v="Sørøya" />
		<tag k="place" v="island" />
		<tag k="ssr:stedsnr" v="561655" />
	</node>
	<node lat="66.22348888740233" lon="12.599097229448786" id="-9782">
		<tag k="fixme" v="consider seamark:type=rock or natural=shoal" />
		<tag k="name" v="Nordøyskjæret" />
		<tag k="place" v="islet" />
		<tag k="ssr:stedsnr" v="561661" />
	</node>
	<node lat="66.22587499850506" lon="12.309491669616275" id="-9783">
		<tag k="name" v="Storøyskjæret" />
		<tag k="place" v="islet" />
		<tag k="ssr:stedsnr" v="561662" />
	</node>
	<node lat="66.16351111253942" lon="12.259802783653479" id="-9784">
		<tag k="name" v="Medskallan" />
		<tag k="natural" v="shoal" />
		<tag k="place" v="locality" />
		<tag k="ssr:stedsnr" v="561671" />
	</node>
	<node lat="66.23056944302823" lon="12.288472211865539" id="-9787">
		<tag k="fixme" v="consider seamark:type=rock or natural=shoal" />
		<tag k="name" v="Svartbardskjæran" />
		<tag k="place" v="islet" />
		<tag k="ssr:stedsnr" v="561732" />
	</node>
	<node lat="66.15457500023983" lon="12.42760555140172" id="-9788">
		<tag k="name" v="Volnestangen" />
		<tag k="natural" v="cape" />
		<tag k="ssr:stedsnr" v="561595" />
	</node>
	<node lat="66.14439722160327" lon="12.687808339300489" id="-9789">
		<tag k="alt_name" v="Stamnneset" />
		<tag k="name" v="Stamneset" />
		<tag k="natural" v="cape" />
		<tag k="ssr:stedsnr" v="561597" />
	</node>
	<node lat="66.12778503136249" lon="12.24390417900449" id="-9791">
		<tag k="fixme" v="consider seamark:type=rock or natural=shoal" />
		<tag k="name" v="Rodskjæran" />
		<tag k="place" v="islet" />
		<tag k="ssr:stedsnr" v="561604" />
	</node>
	<node lat="66.1316694429634" lon="12.47655277534174" id="-9792">
		<tag k="name" v="Bukkholman" />
		<tag k="place" v="islet" />
		<tag k="ssr:stedsnr" v="561613" />
	</node>
	<node lat="66.14160833107839" lon="12.290655564568285" id="-9793">
		<tag k="name" v="Havsundet" />
		<tag k="natural" v="strait" />
		<tag k="ssr:stedsnr" v="561617" />
	</node>
	<node lat="66.18055555533877" lon="12.456641670234566" id="-9796">
		<tag k="alt_name" v="Hestøya" />
		<tag k="name" v="Hestøyan" />
		<tag k="place" v="islet" />
		<tag k="ssr:stedsnr" v="561678" />
	</node>
	<node lat="66.18076388531576" lon="12.523713889660957" id="-9797">
		<tag k="alt_name" v="Djupvågen" />
		<tag k="name" v="Juvågjen" />
		<tag k="natural" v="bay" />
		<tag k="ssr:stedsnr" v="561680" />
	</node>
	<node lat="66.1885527757106" lon="12.34150000197726" id="-9799">
		<tag k="name" v="Laukøya" />
		<tag k="place" v="islet" />
		<tag k="ssr:stedsnr" v="561694" />
	</node>
	<node lat="66.23456666796785" lon="12.34643055044381" id="-9800">
		<tag k="fixme" v="consider seamark:type=rock or natural=shoal" />
		<tag k="name" v="Ertnskjæran" />
		<tag k="place" v="islet" />
		<tag k="ssr:stedsnr" v="561735" />
	</node>
	<node lat="66.24691111424708" lon="12.252472232878537" id="-9801">
		<tag k="name" v="Kvitmåsøya" />
		<tag k="place" v="island" />
		<tag k="ssr:stedsnr" v="561741" />
	</node>
	<node lat="66.04004166717972" lon="12.54211111813304" id="-9803">
		<tag k="name" v="Skorpa" />
		<tag k="place" v="island" />
		<tag k="ssr:stedsnr" v="561878" />
	</node>
	<node lat="66.00809722653055" lon="12.45673611169288" id="-9804">
		<tag k="name" v="Grønnholmen" />
		<tag k="place" v="islet" />
		<tag k="ssr:stedsnr" v="561896" />
	</node>
	<node lat="66.0803722183298" lon="12.327508325366116" id="-9807">
		<tag k="name" v="Slåttarøyan" />
		<tag k="place" v="islet" />
		<tag k="ssr:stedsnr" v="561944" />
	</node>
	<node lat="66.05607221888135" lon="12.569958325334369" id="-9808">
		<tag k="name" v="Nordholmen" />
		<tag k="place" v="islet" />
		<tag k="ssr:stedsnr" v="561971" />
	</node>
	<node lat="66.05949444545568" lon="12.552077768296773" id="-9809">
		<tag k="name" v="Kuholmen" />
		<tag k="place" v="islet" />
		<tag k="ssr:stedsnr" v="561972" />
	</node>
	<node lat="66.23876666620419" lon="12.331575005930466" id="-9810">
		<tag k="fixme" v="consider seamark:type=rock or natural=shoal" />
		<tag k="name" v="Skjenkskjæran" />
		<tag k="place" v="islet" />
		<tag k="ssr:stedsnr" v="570599" />
	</node>
	<node lat="66.06995277412895" lon="12.301561112376156" id="-9811">
		<tag k="name" v="Tallerken" />
		<tag k="natural" v="shoal" />
		<tag k="place" v="locality" />
		<tag k="ssr:stedsnr" v="572730" />
	</node>
	<node lat="66.09892499557174" lon="12.38558333810128" id="-9812">
		<tag k="name" v="Hammerneset" />
		<tag k="natural" v="cape" />
		<tag k="ssr:stedsnr" v="576280" />
	</node>
	<node lat="66.03253055862598" lon="12.540788891571752" id="-9813">
		<tag k="name" v="Lauvøysundet" />
		<tag k="natural" v="strait" />
		<tag k="ssr:stedsnr" v="578197" />
	</node>
	<node lat="66.17687500213081" lon="12.461922212228012" id="-9815">
		<tag k="name" v="Krutingan" />
		<tag k="place" v="islet" />
		<tag k="ssr:stedsnr" v="591440" />
	</node>
	<node lat="66.18081944724152" lon="12.469922213060116" id="-9816">
		<tag k="name" v="Buøya" />
		<tag k="place" v="island" />
		<tag k="ssr:stedsnr" v="591449" />
	</node>
	<node lat="66.08385833515605" lon="12.44591665732429" id="-9819">
		<tag k="name" v="Ytterhølvågjen" />
		<tag k="natural" v="bay" />
		<tag k="ssr:stedsnr" v="591235" />
	</node>
	<node lat="66.08332500004856" lon="12.582408340619736" id="-9821">
		<tag k="name" v="Vika" />
		<tag k="natural" v="bay" />
		<tag k="ssr:stedsnr" v="591390" />
	</node>
	<node lat="66.19766389083068" lon="12.500983341916195" id="-9824">
		<tag k="name" v="Straumvågjen" />
		<tag k="natural" v="strait" />
		<tag k="ssr:stedsnr" v="591629" />
	</node>
	<node lat="66.17677777699888" lon="12.68313334197334" id="-9830">
		<tag k="name" v="Finnvikja" />
		<tag k="natural" v="bay" />
		<tag k="ssr:stedsnr" v="592427" />
	</node>
	<node lat="66.05726389090734" lon="12.534277779033347" id="-9837">
		<tag k="name" v="Jektvikja" />
		<tag k="natural" v="bay" />
		<tag k="ssr:stedsnr" v="592620" />
	</node>
	<node lat="66.02577777467313" lon="12.300844434767876" id="-9839">
		<tag k="name" v="Verholmen" />
		<tag k="place" v="islet" />
		<tag k="ssr:stedsnr" v="592741" />
	</node>
	<node lat="66.0267888874087" lon="12.395441659973345" id="-9843">
		<tag k="name" v="Liss-Breivikja" />
		<tag k="natural" v="bay" />
		<tag k="ssr:stedsnr" v="592792" />
	</node>
	<node lat="66.15055833284501" lon="12.80186944682416" id="-9845">
		<tag k="name" v="Langneset" />
		<tag k="natural" v="cape" />
		<tag k="ssr:stedsnr" v="592930" />
	</node>
	<node lat="66.24765000059921" lon="12.199738883508898" id="-9846">
		<tag k="fixme" v="consider seamark:type=rock or natural=shoal" />
		<tag k="name" v="Åmundsskjæret" />
		<tag k="place" v="islet" />
		<tag k="ssr:stedsnr" v="621426" />
	</node>
	<node lat="66.22299721886675" lon="12.511602785955258" id="-9847">
		<tag k="fixme" v="consider seamark:type=rock or natural=shoal" />
		<tag k="name" v="Gardsgrunnskjæran" />
		<tag k="place" v="islet" />
		<tag k="ssr:stedsnr" v="621695" />
	</node>
	<node lat="66.22121388750101" lon="12.305300003268602" id="-9848">
		<tag k="name" v="Leiholmen" />
		<tag k="place" v="islet" />
		<tag k="ssr:stedsnr" v="621697" />
	</node>
	<node lat="66.14898888634961" lon="12.46228610414727" id="-9849">
		<tag k="name" v="Sandholmgrunnen" />
		<tag k="natural" v="shoal" />
		<tag k="place" v="locality" />
		<tag k="ssr:stedsnr" v="621637" />
	</node>
	<node lat="66.14401388923388" lon="12.350461111244567" id="-9851">
		<tag k="name" v="Storlauvøya" />
		<tag k="place" v="islet" />
		<tag k="ssr:stedsnr" v="621656" />
	</node>
	<node lat="66.23408333739984" lon="12.330427788733719" id="-9853">
		<tag k="name" v="Austredraget" />
		<tag k="place" v="islet" />
		<tag k="ssr:stedsnr" v="621753" />
	</node>
	<node lat="66.22093611527411" lon="12.213702772490326" id="-9854">
		<tag k="name" v="Bukkøya" />
		<tag k="place" v="islet" />
		<tag k="ssr:stedsnr" v="622345" />
	</node>
	<node lat="66.20178889200663" lon="12.145527768266103" id="-9855">
		<tag k="name" v="Steffobåen" />
		<tag k="natural" v="shoal" />
		<tag k="place" v="locality" />
		<tag k="ssr:stedsnr" v="622357" />
	</node>
	<node lat="66.1911000009279" lon="12.162311112471526" id="-9856">
		<tag k="name" v="Lønnfallet" />
		<tag k="natural" v="shoal" />
		<tag k="place" v="locality" />
		<tag k="ssr:stedsnr" v="622361" />
	</node>
	<node lat="66.19459444837824" lon="12.432358338205647" id="-9859">
		<tag k="name" v="Kyllholmen" />
		<tag k="place" v="islet" />
		<tag k="ssr:stedsnr" v="622614" />
	</node>
	<node lat="66.20355832882744" lon="12.450172229080351" id="-9860">
		<tag k="name" v="Rensøystabben" />
		<tag k="natural" v="shoal" />
		<tag k="place" v="locality" />
		<tag k="ssr:stedsnr" v="622632" />
	</node>
	<node lat="66.2152166665453" lon="12.544761119829536" id="-9861">
		<tag k="name" v="Hellholmen" />
		<tag k="place" v="islet" />
		<tag k="ssr:stedsnr" v="622641" />
	</node>
	<node lat="66.16907049072172" lon="12.77062981588071" id="-9862">
		<tag k="name" v="Klubbholmen" />
		<tag k="place" v="islet" />
		<tag k="ssr:stedsnr" v="622775" />
	</node>
	<node lat="66.16670825037592" lon="12.7732791321015" id="-9863">
		<tag k="name" v="Buholmen" />
		<tag k="place" v="islet" />
		<tag k="ssr:stedsnr" v="622778" />
	</node>
	<node lat="66.07314166479463" lon="12.579786110112233" id="-9864">
		<tag k="name" v="Holten" />
		<tag k="natural" v="cape" />
		<tag k="ssr:stedsnr" v="622975" />
	</node>
	<node lat="66.08119722562938" lon="12.592624992638315" id="-9870">
		<tag k="name" v="Øysundet" />
		<tag k="natural" v="strait" />
		<tag k="ssr:stedsnr" v="651423" />
	</node>
	<node lat="66.09623889174368" lon="12.652897216383993" id="-9871">
		<tag k="name" v="Reinvikja" />
		<tag k="natural" v="bay" />
		<tag k="ssr:stedsnr" v="651425" />
	</node>
	<node lat="66.18481388850795" lon="12.682630553392384" id="-9881">
		<tag k="name" v="Meskardbukta" />
		<tag k="natural" v="bay" />
		<tag k="ssr:stedsnr" v="652681" />
	</node>
	<node lat="66.17246666852428" lon="12.374524990622621" id="-9884">
		<tag k="name" v="Mikkelstøberget" />
		<tag k="natural" v="cape" />
		<tag k="ssr:stedsnr" v="652622" />
	</node>
	<node lat="66.0848527820626" lon="12.421269439434983" id="-9887">
		<tag k="name" v="Kobbvågjen" />
		<tag k="natural" v="bay" />
		<tag k="ssr:stedsnr" v="653271" />
	</node>
	<node lat="66.03761944520517" lon="12.454119434020999" id="-9896">
		<tag k="name" v="Melkarvikja" />
		<tag k="natural" v="bay" />
		<tag k="ssr:stedsnr" v="653494" />
	</node>
	<node lat="66.03447222192062" lon="12.447111110221662" id="-9897">
		<tag k="fixme" v="consider seamark:type=rock or natural=shoal" />
		<tag k="name" v="Buskjæret" />
		<tag k="place" v="islet" />
		<tag k="ssr:stedsnr" v="653497" />
	</node>
	<node lat="66.03177500366442" lon="12.424588887528579" id="-9901">
		<tag k="name" v="Oldervikja" />
		<tag k="natural" v="bay" />
		<tag k="ssr:stedsnr" v="653523" />
	</node>
	<node lat="66.04745833282311" lon="12.533858344011046" id="-9902">
		<tag k="name" v="Tjønnvikja" />
		<tag k="natural" v="bay" />
		<tag k="ssr:stedsnr" v="653557" />
	</node>
	<node lat="66.05859999652017" lon="12.540533328496686" id="-9904">
		<tag k="name" v="Grindskjærbukta" />
		<tag k="natural" v="bay" />
		<tag k="ssr:stedsnr" v="653570" />
	</node>
	<node lat="66.05800555393938" lon="12.543991671837382" id="-9906">
		<tag k="fixme" v="consider seamark:type=rock or natural=shoal" />
		<tag k="name" v="Grindskjæret" />
		<tag k="place" v="islet" />
		<tag k="ssr:stedsnr" v="653581" />
	</node>
	<node lat="66.02646388489711" lon="12.520158340439407" id="-9907">
		<tag k="name" v="Fjøsvikja" />
		<tag k="natural" v="bay" />
		<tag k="ssr:stedsnr" v="653772" />
	</node>
	<node lat="66.08155833206985" lon="12.329186112077222" id="-9913">
		<tag k="fixme" v="consider seamark:type=rock or natural=shoal" />
		<tag k="name" v="Verskjæran" />
		<tag k="place" v="islet" />
		<tag k="ssr:stedsnr" v="713287" />
	</node>
	<node lat="66.08079166526262" lon="12.440950000178198" id="-9916">
		<tag k="name" v="Hølvollbukta" />
		<tag k="natural" v="bay" />
		<tag k="ssr:stedsnr" v="713266" />
	</node>
	<node lat="66.19674999762499" lon="12.483852781408485" id="-9918">
		<tag k="name" v="Skarpneset" />
		<tag k="natural" v="cape" />
		<tag k="ssr:stedsnr" v="713696" />
	</node>
	<node lat="66.07641944551503" lon="12.338425003702236" id="-9923">
		<tag k="name" v="Brenneset" />
		<tag k="natural" v="cape" />
		<tag k="ssr:stedsnr" v="714260" />
	</node>
	<node lat="66.05925833365421" lon="12.381230560098762" id="-9929">
		<tag k="name" v="Galten" />
		<tag k="natural" v="shoal" />
		<tag k="place" v="locality" />
		<tag k="ssr:stedsnr" v="714356" />
	</node>
	<node lat="66.16835277467385" lon="12.535149991105992" id="-9930">
		<tag k="name" v="Klubbenvågjen" />
		<tag k="natural" v="bay" />
		<tag k="ssr:stedsnr" v="714362" />
	</node>
	<node lat="66.03918333770093" lon="12.4654333274863" id="-9931">
		<tag k="name" v="Brennvikja" />
		<tag k="natural" v="bay" />
		<tag k="ssr:stedsnr" v="714454" />
	</node>
	<node lat="66.15829999646387" lon="12.799169451494395" id="-9940">
		<tag k="name" v="Nordstranda" />
		<tag k="natural" v="beach" />
		<tag k="ssr:stedsnr" v="743197" />
	</node>
	<node lat="66.22973055868572" lon="12.229694440562046" id="-9943">
		<tag k="name" v="Litltrogøya" />
		<tag k="place" v="islet" />
		<tag k="ssr:stedsnr" v="743741" />
	</node>
	<node lat="66.24914444234527" lon="12.314641658256075" id="-9944">
		<tag k="name" v="Flatskinnarøyholman" />
		<tag k="place" v="islet" />
		<tag k="ssr:stedsnr" v="743745" />
	</node>
	<node lat="66.2386111070674" lon="12.332072219517443" id="-9945">
		<tag k="fixme" v="consider seamark:type=rock or natural=shoal" />
		<tag k="name" v="Sengsskjæran" />
		<tag k="place" v="islet" />
		<tag k="ssr:stedsnr" v="743747" />
	</node>
	<node lat="66.0872416633971" lon="12.333230554808926" id="-9948">
		<tag k="name" v="Langøya" />
		<tag k="place" v="islet" />
		<tag k="ssr:stedsnr" v="743551" />
	</node>
	<node lat="66.15680555586573" lon="12.55163333592662" id="-9949">
		<tag k="bay" v="fjord" />
		<tag k="name" v="Lundstøa" />
		<tag k="natural" v="bay" />
		<tag k="ssr:stedsnr" v="743569" />
	</node>
	<node lat="66.14603333198399" lon="12.220816666361422" id="-9950">
		<tag k="fixme" v="consider seamark:type=rock or natural=shoal" />
		<tag k="name" v="Nubbskjæran" />
		<tag k="place" v="islet" />
		<tag k="ssr:stedsnr" v="743573" />
	</node>
	<node lat="66.19244444653896" lon="12.342861118469166" id="-9951">
		<tag k="alt_name" v="Nilsolsaskjeret;Nils Olsaskjeret" />
		<tag k="name" v="Nilsolsaskjæret" />
		<tag k="place" v="islet" />
		<tag k="ssr:stedsnr" v="743642" />
	</node>
	<node lat="66.21195277358966" lon="12.231311109507372" id="-9952">
		<tag k="fixme" v="multiple name tags, choose one and add the other to alt_name; consider seamark:type=rock or natural=shoal" />
		<tag k="name" v="Leiholmen;Leiholmskjæret" />
		<tag k="place" v="islet" />
		<tag k="ssr:stedsnr" v="743655" />
	</node>
	<node lat="66.12380000183089" lon="12.247761122291482" id="-9954">
		<tag k="name" v="Flatøya" />
		<tag k="place" v="islet" />
		<tag k="ssr:stedsnr" v="743522" />
	</node>
	<node lat="66.14131944767422" lon="12.690741668061097" id="-9955">
		<tag k="fixme" v="multiple name tags, choose one and add the other to alt_name; consider seamark:type=rock or natural=shoal" />
		<tag k="name" v="Bryggeskjæret;Heimeskjæret" />
		<tag k="place" v="islet" />
		<tag k="ssr:stedsnr" v="743524" />
	</node>
	<node lat="66.13362777868575" lon="12.579300002149484" id="-9958">
		<tag k="name" v="Vågsøya" />
		<tag k="place" v="islet" />
		<tag k="ssr:stedsnr" v="743621" />
	</node>
	<node lat="66.14254999764907" lon="12.261188887633626" id="-9959">
		<tag k="name" v="Sandholmen" />
		<tag k="place" v="islet" />
		<tag k="ssr:stedsnr" v="743623" />
	</node>
	<node lat="66.16160833666773" lon="12.780138894277728" id="-9960">
		<tag k="name" v="Munkvika" />
		<tag k="natural" v="bay" />
		<tag k="ssr:stedsnr" v="743801" />
	</node>
	<node lat="66.16236111153054" lon="12.726052768858107" id="-9961">
		<tag k="name" v="Sundsstraumen" />
		<tag k="natural" v="bay" />
		<tag k="ssr:stedsnr" v="743802" />
	</node>
	<node lat="66.08145555302208" lon="12.409197226447995" id="-9963">
		<tag k="name" v="Storlangøya" />
		<tag k="place" v="islet" />
		<tag k="ssr:stedsnr" v="743935" />
	</node>
	<node lat="66.05821111455988" lon="12.380927780848578" id="-9966">
		<tag k="name" v="Breivika" />
		<tag k="natural" v="bay" />
		<tag k="ssr:stedsnr" v="743955" />
	</node>
	<node lat="66.08208333392881" lon="12.589741659573166" id="-9967">
		<tag k="name" v="Bjørnsøya" />
		<tag k="place" v="island" />
		<tag k="ssr:stedsnr" v="743959" />
	</node>
	<node lat="66.26732499760139" lon="12.298505550876348" id="-9968">
		<tag k="name" v="Andersbakktaren" />
		<tag k="natural" v="shoal" />
		<tag k="place" v="locality" />
		<tag k="ssr:stedsnr" v="744212" />
	</node>
	<node lat="66.1833444418331" lon="12.675780559214493" id="-9969">
		<tag k="name" v="Jordfastholmen" />
		<tag k="place" v="islet" />
		<tag k="ssr:stedsnr" v="744621" />
	</node>
	<node lat="66.17328888622393" lon="12.291308335762086" id="-9970">
		<tag k="name" v="Frydholmen" />
		<tag k="place" v="islet" />
		<tag k="ssr:stedsnr" v="744634" />
	</node>
	<node lat="66.18806944823729" lon="12.334061102214948" id="-9972">
		<tag k="name" v="Beinvarden" />
		<tag k="place" v="islet" />
		<tag k="ssr:stedsnr" v="744648" />
	</node>
	<node lat="66.07244721935724" lon="12.391358342596886" id="-9974">
		<tag k="name" v="Ternskjærgrunnen" />
		<tag k="natural" v="shoal" />
		<tag k="place" v="locality" />
		<tag k="ssr:stedsnr" v="755731" />
	</node>
	<node lat="66.23926944098552" lon="12.192294438231555" id="-9975">
		<tag k="fixme" v="consider seamark:type=rock or natural=shoal" />
		<tag k="name" v="Porkskjæran" />
		<tag k="place" v="islet" />
		<tag k="ssr:stedsnr" v="759375" />
	</node>
	<node lat="66.15612777543757" lon="12.478975006104957" id="-9988">
		<tag k="bay" v="fjord" />
		<tag k="name" v="Hundholmkåsa" />
		<tag k="natural" v="bay" />
		<tag k="ssr:stedsnr" v="774328" />
	</node>
	<node lat="66.08477499656877" lon="12.42513888224189" id="-9991">
		<tag k="name" v="Klubben" />
		<tag k="natural" v="cape" />
		<tag k="ssr:stedsnr" v="774334" />
	</node>
	<node lat="66.07892500098343" lon="12.36299444040799" id="-9992">
		<tag k="name" v="Kiholmen" />
		<tag k="place" v="islet" />
		<tag k="ssr:stedsnr" v="774344" />
	</node>
	<node lat="66.12905619470916" lon="12.245947185914835" id="-9995">
		<tag k="fixme" v="consider seamark:type=rock or natural=shoal" />
		<tag k="name" v="Rotøyskjæret" />
		<tag k="place" v="islet" />
		<tag k="ssr:stedsnr" v="774927" />
	</node>
	<node lat="66.16780833432242" lon="12.545411116795988" id="-10002">
		<tag k="name" v="Bøsjyen" />
		<tag k="natural" v="bay" />
		<tag k="ssr:stedsnr" v="775392" />
	</node>
	<node lat="66.16826666233177" lon="12.528058330537064" id="-10003">
		<tag k="name" v="Langfarskjæret" />
		<tag k="natural" v="cape" />
		<tag k="ssr:stedsnr" v="775394" />
	</node>
	<node lat="66.16710555445493" lon="12.568919451718877" id="-10004">
		<tag k="name" v="Valodden" />
		<tag k="natural" v="cape" />
		<tag k="ssr:stedsnr" v="775397" />
	</node>
	<node lat="66.01977777436504" lon="12.484391666347623" id="-10006">
		<tag k="name" v="Æsøyodden" />
		<tag k="natural" v="cape" />
		<tag k="ssr:stedsnr" v="775737" />
	</node>
	<node lat="66.14336110960544" lon="12.438427774216596" id="-10007">
		<tag k="name" v="Meinspikja" />
		<tag k="natural" v="shoal" />
		<tag k="place" v="locality" />
		<tag k="ssr:stedsnr" v="779568" />
	</node>
	<node lat="66.08405833440393" lon="12.334800009168218" id="-10008">
		<tag k="fixme" v="consider seamark:type=rock or natural=shoal" />
		<tag k="name" v="Slåttskjæran" />
		<tag k="place" v="islet" />
		<tag k="ssr:stedsnr" v="780791" />
	</node>
	<node lat="66.01841666941631" lon="12.31043333132806" id="-10010">
		<tag k="name" v="Skagen" />
		<tag k="natural" v="cape" />
		<tag k="ssr:stedsnr" v="804867" />
	</node>
	<node lat="66.12828055329345" lon="12.626277779408666" id="-10011">
		<tag k="alt_name" v="Berfjorden" />
		<tag k="name" v="Berfjordvågjen" />
		<tag k="natural" v="bay" />
		<tag k="ssr:stedsnr" v="804527" />
	</node>
	<node lat="66.1288972251457" lon="12.46623612209506" id="-10013">
		<tag k="fixme" v="consider seamark:type=rock or natural=shoal" />
		<tag k="name" v="Ternskjæret" />
		<tag k="place" v="islet" />
		<tag k="ssr:stedsnr" v="804547" />
	</node>
	<node lat="66.12382777808475" lon="12.451444448748543" id="-10014">
		<tag k="name" v="Lyngøya" />
		<tag k="place" v="islet" />
		<tag k="ssr:stedsnr" v="804549" />
	</node>
	<node lat="66.23233055913184" lon="12.321313896350304" id="-10015">
		<tag k="fixme" v="consider seamark:type=rock or natural=shoal" />
		<tag k="name" v="Jomatsaskjæret" />
		<tag k="place" v="islet" />
		<tag k="ssr:stedsnr" v="804736" />
	</node>
	<node lat="66.1627999976628" lon="12.197088899132495" id="-10016">
		<tag k="name" v="Breigrunnen" />
		<tag k="natural" v="shoal" />
		<tag k="place" v="locality" />
		<tag k="ssr:stedsnr" v="804348" />
	</node>
	<node lat="66.19580000424754" lon="12.176724997886952" id="-10017">
		<tag k="bay" v="fjord" />
		<tag k="name" v="Kvaløykåsa" />
		<tag k="natural" v="bay" />
		<tag k="ssr:stedsnr" v="804392" />
	</node>
	<node lat="66.20188333768021" lon="12.089119450184803" id="-10018">
		<tag k="name" v="Moholmen" />
		<tag k="place" v="island" />
		<tag k="ssr:stedsnr" v="804396" />
	</node>
	<node lat="66.17859166477285" lon="12.13507223150268" id="-10019">
		<tag k="fixme" v="multiple name tags, choose one and add the other to alt_name" />
		<tag k="name" v="Søråsværfjorden;Åsværfjorden" />
		<tag k="place" v="sea" />
		<tag k="ssr:stedsnr" v="804401" />
	</node>
	<node lat="66.08835278122051" lon="12.446333328265544" id="-10020">
		<tag k="alt_name" v="Øyvågen" />
		<tag k="bay" v="fjord" />
		<tag k="name" v="Øyvågjen" />
		<tag k="natural" v="bay" />
		<tag k="ssr:stedsnr" v="804564" />
	</node>
	<node lat="66.10082499946877" lon="12.29318334317463" id="-10022">
		<tag k="fixme" v="consider seamark:type=rock or natural=shoal" />
		<tag k="name" v="Revskjæran" />
		<tag k="place" v="islet" />
		<tag k="ssr:stedsnr" v="804573" />
	</node>
	<node lat="66.10083333718873" lon="12.314999997036537" id="-10023">
		<tag k="fixme" v="consider seamark:type=rock or natural=shoal" />
		<tag k="name" v="Lissrevholmen" />
		<tag k="place" v="islet" />
		<tag k="ssr:stedsnr" v="804581" />
	</node>
	<node lat="66.10318611524785" lon="12.42648888128885" id="-10024">
		<tag k="fixme" v="consider seamark:type=rock or natural=shoal" />
		<tag k="name" v="Sildvikskjæret" />
		<tag k="place" v="islet" />
		<tag k="ssr:stedsnr" v="804582" />
	</node>
	<node lat="66.15827778093696" lon="12.70085834034846" id="-10025">
		<tag k="name" v="Breivika" />
		<tag k="natural" v="bay" />
		<tag k="ssr:stedsnr" v="804598" />
	</node>
	<node lat="66.1638972196425" lon="12.408952770112391" id="-10027">
		<tag k="bay" v="fjord" />
		<tag k="name" v="Kverva" />
		<tag k="natural" v="bay" />
		<tag k="ssr:stedsnr" v="804602" />
	</node>
	<node lat="66.13767500249364" lon="12.2462027743504" id="-10031">
		<tag k="name" v="Buøya" />
		<tag k="place" v="islet" />
		<tag k="ssr:stedsnr" v="804631" />
	</node>
	<node lat="66.14147222243625" lon="12.331308342511214" id="-10032">
		<tag k="name" v="Storkalvøya" />
		<tag k="place" v="island" />
		<tag k="ssr:stedsnr" v="804639" />
	</node>
	<node lat="66.1879694433202" lon="12.476675009160454" id="-10034">
		<tag k="alt_name" v="Rølvåg" />
		<tag k="bay" v="fjord" />
		<tag k="name" v="Rølvågjen" />
		<tag k="natural" v="bay" />
		<tag k="ssr:stedsnr" v="804697" />
	</node>
	<node lat="66.07684721825797" lon="12.411544453748958" id="-10037">
		<tag k="fixme" v="consider seamark:type=rock or natural=shoal" />
		<tag k="name" v="Ternskjæret" />
		<tag k="place" v="islet" />
		<tag k="ssr:stedsnr" v="804970" />
	</node>
	<node lat="66.07260833366485" lon="12.331825004174725" id="-10038">
		<tag k="name" v="Helløya" />
		<tag k="place" v="islet" />
		<tag k="ssr:stedsnr" v="804971" />
	</node>
	<node lat="66.19441944653873" lon="12.281797217506488" id="-10041">
		<tag k="name" v="Boltøygrunna" />
		<tag k="natural" v="shoal" />
		<tag k="place" v="locality" />
		<tag k="ssr:stedsnr" v="814404" />
	</node>
	<node lat="66.15454167030954" lon="12.541041674736908" id="-10042">
		<tag k="alt_name" v="Mikkelsholmen" />
		<tag k="name" v="Mikjelsholmen" />
		<tag k="place" v="islet" />
		<tag k="ssr:stedsnr" v="814848" />
	</node>
	<node lat="66.20105833071149" lon="12.497808341820393" id="-10043">
		<tag k="name" v="Svartbalbåen" />
		<tag k="natural" v="shoal" />
		<tag k="place" v="locality" />
		<tag k="ssr:stedsnr" v="814851" />
	</node>
	<node lat="66.221988886438" lon="12.225377771241476" id="-10044">
		<tag k="name" v="Perøya" />
		<tag k="place" v="islet" />
		<tag k="ssr:stedsnr" v="820555" />
	</node>
	<node lat="66.14453888564618" lon="12.603677769574672" id="-10046">
		<tag k="name" v="Straumen" />
		<tag k="natural" v="strait" />
		<tag k="ssr:stedsnr" v="834273" />
	</node>
	<node lat="66.15322500179911" lon="12.62620556238342" id="-10047">
		<tag k="fixme" v="consider seamark:type=rock or natural=shoal" />
		<tag k="name" v="Geitskjæret" />
		<tag k="place" v="islet" />
		<tag k="ssr:stedsnr" v="834274" />
	</node>
	<node lat="66.15704166584186" lon="12.626425008906713" id="-10048">
		<tag k="name" v="Gleinsneset" />
		<tag k="natural" v="cape" />
		<tag k="ssr:stedsnr" v="834276" />
	</node>
	<node lat="66.15319722135709" lon="12.400052777467721" id="-10050">
		<tag k="name" v="Skjåneset" />
		<tag k="natural" v="cape" />
		<tag k="ssr:stedsnr" v="834279" />
	</node>
	<node lat="66.1986027737065" lon="12.519958324137095" id="-10057">
		<tag k="name" v="Straumvågjen" />
		<tag k="natural" v="bay" />
		<tag k="ssr:stedsnr" v="834637" />
	</node>
	<node lat="66.16555555497195" lon="12.349677788513683" id="-10060">
		<tag k="name" v="Gognstøvikja" />
		<tag k="natural" v="bay" />
		<tag k="ssr:stedsnr" v="834671" />
	</node>
	<node lat="66.16836667062857" lon="12.393708333371015" id="-10061">
		<tag k="name" v="Nordneset" />
		<tag k="natural" v="cape" />
		<tag k="ssr:stedsnr" v="834676" />
	</node>
	<node lat="66.17377499926363" lon="12.375680552455057" id="-10062">
		<tag k="name" v="Mikkelstøa" />
		<tag k="natural" v="bay" />
		<tag k="ssr:stedsnr" v="834677" />
	</node>
	<node lat="66.07907221860607" lon="12.322755557825333" id="-10064">
		<tag k="fixme" v="consider seamark:type=rock or natural=shoal" />
		<tag k="name" v="Kvalskjæret" />
		<tag k="place" v="islet" />
		<tag k="ssr:stedsnr" v="835290" />
	</node>
	<node lat="66.11462499561509" lon="12.60436389266662" id="-10070">
		<tag k="name" v="Holmen" />
		<tag k="place" v="islet" />
		<tag k="ssr:stedsnr" v="835326" />
	</node>
	<node lat="66.03535277592631" lon="12.321475008966377" id="-10078">
		<tag k="name" v="Kvitneset" />
		<tag k="natural" v="cape" />
		<tag k="ssr:stedsnr" v="835673" />
	</node>
	<node lat="66.02954166415678" lon="12.309594435743165" id="-10080">
		<tag k="name" v="Jektholmstranda" />
		<tag k="natural" v="beach" />
		<tag k="ssr:stedsnr" v="835749" />
	</node>
	<node lat="66.03464722056643" lon="12.438902769274357" id="-10082">
		<tag k="fixme" v="consider seamark:type=rock or natural=shoal" />
		<tag k="name" v="Olaskjæret" />
		<tag k="place" v="islet" />
		<tag k="ssr:stedsnr" v="835568" />
	</node>
	<node lat="66.18557777354833" lon="12.760805564099758" id="-10084">
		<tag k="name" v="Koparholmsundet" />
		<tag k="natural" v="strait" />
		<tag k="ssr:stedsnr" v="835725" />
	</node>
	<node lat="66.16658055650272" lon="12.55110834089793" id="-10085">
		<tag k="fixme" v="consider seamark:type=rock or natural=shoal" />
		<tag k="name" v="Åkerskjæret" />
		<tag k="place" v="islet" />
		<tag k="ssr:stedsnr" v="836380" />
	</node>
	<node lat="66.16288888480491" lon="12.794647228291268" id="-10088">
		<tag k="name" v="Selvikja" />
		<tag k="natural" v="bay" />
		<tag k="ssr:stedsnr" v="836268" />
	</node>
	<node lat="66.12184444210952" lon="12.47941388010592" id="-10094">
		<tag k="name" v="Buøya" />
		<tag k="place" v="island" />
		<tag k="ssr:stedsnr" v="865062" />
	</node>
	<node lat="66.198149995924" lon="12.118580565485258" id="-10095">
		<tag k="bay" v="fjord" />
		<tag k="name" v="Råsa" />
		<tag k="natural" v="bay" />
		<tag k="ssr:stedsnr" v="865084" />
	</node>
	<node lat="66.2558222210701" lon="12.151113895602307" id="-10097">
		<tag k="name" v="Kråkungen" />
		<tag k="natural" v="shoal" />
		<tag k="place" v="locality" />
		<tag k="ssr:stedsnr" v="865234" />
	</node>
	<node lat="66.15313333663786" lon="12.162583332242699" id="-10098">
		<tag k="name" v="Øksningsskallen" />
		<tag k="natural" v="shoal" />
		<tag k="place" v="locality" />
		<tag k="ssr:stedsnr" v="865366" />
	</node>
	<node lat="66.15078055476096" lon="12.199230564278002" id="-10099">
		<tag k="name" v="Eremiasskolten" />
		<tag k="natural" v="shoal" />
		<tag k="place" v="locality" />
		<tag k="ssr:stedsnr" v="865367" />
	</node>
	<node lat="66.22280000151032" lon="12.146966659303345" id="-10100">
		<tag k="name" v="Båvarden" />
		<tag k="place" v="islet" />
		<tag k="ssr:stedsnr" v="865387" />
	</node>
	<node lat="66.22355278168483" lon="12.162102771109508" id="-10101">
		<tag k="name" v="Litlbrattbåtstøøya" />
		<tag k="place" v="islet" />
		<tag k="ssr:stedsnr" v="865391" />
	</node>
	<node lat="66.20993055607157" lon="12.174675010455214" id="-10102">
		<tag k="name" v="Svenningen" />
		<tag k="place" v="islet" />
		<tag k="ssr:stedsnr" v="865394" />
	</node>
	<node lat="66.21321666815464" lon="12.193591674591497" id="-10103">
		<tag k="name" v="Storkvaløya" />
		<tag k="place" v="islet" />
		<tag k="ssr:stedsnr" v="865396" />
	</node>
	<node lat="66.20396666934046" lon="12.098202778164477" id="-10104">
		<tag k="fixme" v="consider seamark:type=rock or natural=shoal" />
		<tag k="name" v="Storskjæran" />
		<tag k="place" v="islet" />
		<tag k="ssr:stedsnr" v="865407" />
	</node>
	<node lat="66.22335277855163" lon="12.101758336850194" id="-10105">
		<tag k="fixme" v="consider seamark:type=rock or natural=shoal" />
		<tag k="name" v="Brakvadnakken" />
		<tag k="place" v="islet" />
		<tag k="ssr:stedsnr" v="865436" />
	</node>
	<node lat="66.23789166877403" lon="12.215597229461624" id="-10106">
		<tag k="name" v="Storpolløya" />
		<tag k="place" v="islet" />
		<tag k="ssr:stedsnr" v="865437" />
	</node>
	<node lat="66.12826110916187" lon="12.420944437237328" id="-10107">
		<tag k="fixme" v="consider seamark:type=rock or natural=shoal" />
		<tag k="name" v="Fiskskjæret" />
		<tag k="place" v="islet" />
		<tag k="ssr:stedsnr" v="865547" />
	</node>
	<node lat="66.11161944105045" lon="12.447880545237952" id="-10111">
		<tag k="fixme" v="consider seamark:type=rock or natural=shoal" />
		<tag k="name" v="Hoholmskjæret" />
		<tag k="place" v="islet" />
		<tag k="ssr:stedsnr" v="865571" />
	</node>
	<node lat="66.14638055480721" lon="12.347549993387759" id="-10113">
		<tag k="alt_name" v="Purkholmen" />
		<tag k="name" v="Porkholmen" />
		<tag k="place" v="islet" />
		<tag k="ssr:stedsnr" v="865592" />
	</node>
	<node lat="66.1509333304557" lon="12.690508337150495" id="-10114">
		<tag k="name" v="Klubben" />
		<tag k="natural" v="cape" />
		<tag k="ssr:stedsnr" v="865593" />
	</node>
	<node lat="66.17642500093712" lon="12.688952783334429" id="-10115">
		<tag k="alt_name" v="Hovsvågen" />
		<tag k="name" v="Hovsvågjen" />
		<tag k="natural" v="bay" />
		<tag k="ssr:stedsnr" v="865604" />
	</node>
	<node lat="66.15433333496941" lon="12.34395276889326" id="-10116">
		<tag k="alt_name" v="Sæterøya" />
		<tag k="name" v="Seterbuøya" />
		<tag k="place" v="islet" />
		<tag k="ssr:stedsnr" v="865609" />
	</node>
	<node lat="66.13153611232839" lon="12.302541676218715" id="-10117">
		<tag k="name" v="Trettøya" />
		<tag k="place" v="island" />
		<tag k="ssr:stedsnr" v="865615" />
	</node>
	<node lat="66.22021110946773" lon="12.519561102177354" id="-10118">
		<tag k="fixme" v="consider seamark:type=rock or natural=shoal" />
		<tag k="name" v="Grønskjæret" />
		<tag k="place" v="islet" />
		<tag k="ssr:stedsnr" v="865672" />
	</node>
	<node lat="66.1870166684971" lon="12.690541671582086" id="-10122">
		<tag k="fixme" v="consider seamark:type=rock or natural=shoal" />
		<tag k="name" v="Breiskjæret" />
		<tag k="place" v="islet" />
		<tag k="ssr:stedsnr" v="865702" />
	</node>
	<node lat="66.18872222501062" lon="12.341474996283" id="-10123">
		<tag k="alt_name" v="Hansøya" />
		<tag k="name" v="Handsøya" />
		<tag k="place" v="islet" />
		<tag k="ssr:stedsnr" v="865706" />
	</node>
	<node lat="66.19121111513302" lon="12.443127778092151" id="-10124">
		<tag k="name" v="Risøya" />
		<tag k="place" v="island" />
		<tag k="ssr:stedsnr" v="865710" />
	</node>
	<node lat="66.11522777538934" lon="12.362480546295586" id="-10125">
		<tag k="fixme" v="consider seamark:type=rock or natural=shoal" />
		<tag k="name" v="Gjæsøyskjæran" />
		<tag k="place" v="islet" />
		<tag k="ssr:stedsnr" v="865523" />
	</node>
	<node lat="66.22816388893773" lon="12.326352788039664" id="-10128">
		<tag k="name" v="Storøya" />
		<tag k="place" v="island" />
		<tag k="ssr:stedsnr" v="865736" />
	</node>
	<node lat="66.18938055918953" lon="12.744588893255582" id="-10129">
		<tag k="name" v="Stabben" />
		<tag k="natural" v="shoal" />
		<tag k="place" v="locality" />
		<tag k="ssr:stedsnr" v="865761" />
	</node>
	<node lat="66.17314999900772" lon="12.743461119235542" id="-10130">
		<tag k="alt_name" v="Sundsvågen" />
		<tag k="name" v="Sundsvågjen" />
		<tag k="natural" v="bay" />
		<tag k="ssr:stedsnr" v="865783" />
	</node>
	<node lat="66.033807072831" lon="12.508294655261738" id="-10131">
		<tag k="fixme" v="multiple name tags, choose one and add the other to alt_name" />
		<tag k="name" v="Storbukkholmen;Bukkholmen" />
		<tag k="place" v="islet" />
		<tag k="ssr:stedsnr" v="865882" />
	</node>
	<node lat="66.07939444509012" lon="12.39139165978954" id="-10132">
		<tag k="alt_name" v="Kvarneset" />
		<tag k="name" v="Kvalneset" />
		<tag k="natural" v="cape" />
		<tag k="ssr:stedsnr" v="865938" />
	</node>
	<node lat="66.08292499639221" lon="12.32214999682752" id="-10133">
		<tag k="name" v="Lyngøya" />
		<tag k="place" v="islet" />
		<tag k="ssr:stedsnr" v="865950" />
	</node>
	<node lat="66.08201388511955" lon="12.601508340868484" id="-10134">
		<tag k="alt_name" v="Litløya" />
		<tag k="name" v="Lissøya" />
		<tag k="place" v="islet" />
		<tag k="ssr:stedsnr" v="865966" />
	</node>
	<node lat="66.13601910297572" lon="12.435170217523215" id="-10136">
		<tag k="name" v="Teistholmen" />
		<tag k="place" v="islet" />
		<tag k="ssr:stedsnr" v="874647" />
	</node>
	<node lat="66.12161110742225" lon="12.388830544286344" id="-10138">
		<tag k="name" v="Buøyskolten" />
		<tag k="natural" v="shoal" />
		<tag k="place" v="locality" />
		<tag k="ssr:stedsnr" v="875288" />
	</node>
	<node lat="66.09018611180193" lon="12.32308888942339" id="-10139">
		<tag k="name" v="Skagarevet" />
		<tag k="natural" v="shoal" />
		<tag k="place" v="locality" />
		<tag k="ssr:stedsnr" v="876738" />
	</node>
	<node lat="66.07189721874335" lon="12.346972228233808" id="-10140">
		<tag k="name" v="Nautøygrunnen" />
		<tag k="natural" v="shoal" />
		<tag k="place" v="locality" />
		<tag k="ssr:stedsnr" v="876744" />
	</node>
	<node lat="66.111025001059" lon="12.484402767593663" id="-10141">
		<tag k="name" v="Åkervikgrunnen" />
		<tag k="natural" v="shoal" />
		<tag k="place" v="locality" />
		<tag k="ssr:stedsnr" v="937755" />
	</node>
	<node lat="66.11670000030868" lon="12.488436106314337" id="-10143">
		<tag k="name" v="Vikavågjen" />
		<tag k="natural" v="bay" />
		<tag k="ssr:stedsnr" v="953110" />
	</node>
	<node lat="66.08810833178669" lon="12.600830546009364" id="-10162">
		<tag k="name" v="Kuvikja" />
		<tag k="natural" v="bay" />
		<tag k="ssr:stedsnr" v="956498" />
	</node>
	<node lat="66.03382778118457" lon="12.495211115202167" id="-10164">
		<tag k="fixme" v="consider seamark:type=rock or natural=shoal" />
		<tag k="name" v="Skarvskjæran" />
		<tag k="place" v="islet" />
		<tag k="ssr:stedsnr" v="957494" />
	</node>
	<node lat="66.03631388723204" lon="12.452747221878592" id="-10165">
		<tag k="fixme" v="consider seamark:type=rock or natural=shoal" />
		<tag k="name" v="Melkarskjæret" />
		<tag k="place" v="islet" />
		<tag k="ssr:stedsnr" v="957497" />
	</node>
</osm>
