<?xml version="1.0" encoding="UTF-8"?>
<osm generator="osmapis" version="0.6">
	<node id="-650360" lat="66.1584861139" lon="12.3393083267">
		<tag k="amenity" v="community_centre" />
		<tag k="name" v="Sjøtun" />
		<tag k="ssr:stedsnr" v="289301" />
	</node>
	<node id="-651154" lat="66.1545472248" lon="12.33028334">
		<tag k="amenity" v="place_of_worship" />
		<tag k="denomination" v="lutheran" />
		<tag k="name" v="Vandve" />
		<tag k="religion" v="christian" />
		<tag k="ssr:stedsnr" v="440579" />
	</node>
	<node id="-650765" lat="66.1740083359" lon="12.7299777763">
		<tag k="amenity" v="community_centre" />
		<tag k="name" v="Klubben" />
		<tag k="ssr:stedsnr" v="46382" />
	</node>
	<node id="-650766" lat="66.1625222221" lon="12.5584416573">
		<tag k="amenity" v="community_centre" />
		<tag k="name" v="Nerstua" />
		<tag k="ssr:stedsnr" v="46392" />
	</node>
	<node id="-651245" lat="66.123938892" lon="12.5151861075">
		<tag k="alt_name" v="Nordvik" />
		<tag k="amenity" v="place_of_worship" />
		<tag k="denomination" v="lutheran" />
		<tag k="name" v="Nordvik  kirke" />
		<tag k="religion" v="christian" />
		<tag k="ssr:stedsnr" v="500604" />
	</node>
	<node id="-651016" lat="66.2037361104" lon="12.5874888858">
		<tag k="alt_name" v="Dønnes" />
		<tag k="amenity" v="place_of_worship" />
		<tag k="denomination" v="lutheran" />
		<tag k="name" v="Dønnes kirke" />
		<tag k="religion" v="christian" />
		<tag k="ssr:stedsnr" v="197664" />
	</node>
	<node id="-651590" lat="66.0542666646" lon="12.5180333284">
		<tag k="alt_name" v="Hestad kapell" />
		<tag k="amenity" v="place_of_worship" />
		<tag k="denomination" v="lutheran" />
		<tag k="name" v="Hestad" />
		<tag k="religion" v="christian" />
		<tag k="ssr:stedsnr" v="683981" />
	</node>
</osm>
