<?xml version="1.0" encoding="UTF-8"?>
<osm version="0.6" generator="osmapis">
	<node lat="66.15172221950617" lon="12.542219439052372" id="-15102">
		<tag k="name" v="Hopan" />
		<tag k="place" v="farm" />
		<tag k="ssr:stedsnr" v="15602" />
	</node>
	<node lat="66.07737777354033" lon="12.450225005478094" id="-15115">
		<tag k="name" v="Vatnmo" />
		<tag k="place" v="farm" />
		<tag k="ssr:stedsnr" v="288246" />
	</node>
	<node lat="66.15046861820613" lon="12.397443680474996" id="-15121">
		<tag k="name" v="Haugen nedre" />
		<tag k="place" v="farm" />
		<tag k="ssr:stedsnr" v="45308" />
	</node>
	<node lat="66.15778611366468" lon="12.775444438415857" id="-15123">
		<tag k="name" v="Nyheim" />
		<tag k="place" v="farm" />
		<tag k="ssr:stedsnr" v="45225" />
	</node>
	<node lat="66.15762500420585" lon="12.7916249991856" id="-15140">
		<tag k="name" v="Teigen" />
		<tag k="place" v="farm" />
		<tag k="ssr:stedsnr" v="46921" />
	</node>
	<node lat="66.14638611543867" lon="12.721880546149459" id="-15142">
		<tag k="name" v="Ekran" />
		<tag k="place" v="farm" />
		<tag k="ssr:stedsnr" v="76210" />
	</node>
	<node lat="66.18157499965278" lon="12.700269433698722" id="-15156">
		<tag k="alt_name" v="Børsvika" />
		<tag k="name" v="Børdsvikja" />
		<tag k="place" v="isolated_dwelling" />
		<tag k="ssr:stedsnr" v="76663" />
	</node>
	<node lat="66.0352472180436" lon="12.55108333810634" id="-15159">
		<tag k="alt_name" v="Sætra" />
		<tag k="name" v="Setra" />
		<tag k="place" v="locality" />
		<tag k="ssr:stedsnr" v="76869" />
	</node>
	<node lat="66.14055555454517" lon="12.297541659306628" id="-15166">
		<tag k="name" v="Solhaug" />
		<tag k="place" v="farm" />
		<tag k="ssr:stedsnr" v="106276" />
	</node>
	<node lat="66.14269722393341" lon="12.295638881449463" id="-15169">
		<tag k="name" v="Havsundet" />
		<tag k="place" v="farm" />
		<tag k="ssr:stedsnr" v="106284" />
	</node>
	<node lat="66.18936666651496" lon="12.474413897792623" id="-15173">
		<tag k="name" v="Nausttofta" />
		<tag k="place" v="farm" />
		<tag k="ssr:stedsnr" v="106615" />
	</node>
	<node lat="66.1910222261328" lon="12.61723889984016" id="-15177">
		<tag k="name" v="Alfheim" />
		<tag k="place" v="farm" />
		<tag k="ssr:stedsnr" v="106681" />
	</node>
	<node lat="66.11013308373025" lon="12.516359680697477" id="-15191">
		<tag k="fixme" v="consider place=hamlet" />
		<tag k="name" v="Solfjell" />
		<tag k="place" v="farm" />
		<tag k="ssr:stedsnr" v="136565" />
	</node>
	<node lat="66.16131388790164" lon="12.342913894065234" id="-15208">
		<tag k="name" v="Bergly" />
		<tag k="place" v="farm" />
		<tag k="ssr:stedsnr" v="258584" />
	</node>
	<node lat="66.03953798963315" lon="12.522294119075031" id="-15223">
		<tag k="alt_name" v="Skorpen" />
		<tag k="fixme" v="consider place=hamlet" />
		<tag k="name" v="Skorpa" />
		<tag k="place" v="farm" />
		<tag k="ssr:stedsnr" v="258887" />
	</node>
	<node lat="66.11389444305357" lon="12.49423611578695" id="-15232">
		<tag k="name" v="Kulvikja" />
		<tag k="place" v="hamlet" />
		<tag k="ssr:stedsnr" v="164107" />
	</node>
	<node lat="66.19468333732378" lon="12.50420000070651" id="-15234">
		<tag k="name" v="Nordheim" />
		<tag k="place" v="farm" />
		<tag k="ssr:stedsnr" v="166635" />
	</node>
	<node lat="66.15610833525245" lon="12.60581110145835" id="-15237">
		<tag k="name" v="Vestermyra" />
		<tag k="place" v="farm" />
		<tag k="ssr:stedsnr" v="167277" />
	</node>
	<node lat="66.05627499608119" lon="12.386913879338783" id="-15253">
		<tag k="name" v="Kroken" />
		<tag k="place" v="locality" />
		<tag k="ssr:stedsnr" v="168418" />
	</node>
	<node lat="66.16156944217065" lon="12.554002783620904" id="-15256">
		<tag k="name" v="Halvbakken" />
		<tag k="place" v="isolated_dwelling" />
		<tag k="ssr:stedsnr" v="168368" />
	</node>
	<node lat="66.16611666497248" lon="12.563555559965353" id="-15259">
		<tag k="name" v="Hauan" />
		<tag k="place" v="quarter" />
		<tag k="ssr:stedsnr" v="168378" />
	</node>
	<node lat="66.06339166462053" lon="12.551136100219997" id="-15264">
		<tag k="name" v="Bråtland" />
		<tag k="place" v="farm" />
		<tag k="ssr:stedsnr" v="168573" />
	</node>
	<node lat="66.13018959875907" lon="12.605456481519873" id="-15267">
		<tag k="fixme" v="consider place=hamlet" />
		<tag k="name" v="Gjesfjorden" />
		<tag k="place" v="farm" />
		<tag k="ssr:stedsnr" v="197558" />
	</node>
	<node lat="66.1985083349053" lon="12.532702782673693" id="-15284">
		<tag k="alt_name" v="Strømmen" />
		<tag k="name" v="Straumen" />
		<tag k="place" v="farm" />
		<tag k="ssr:stedsnr" v="267850" />
	</node>
	<node lat="66.14290833801707" lon="12.303924989696789" id="-15289">
		<tag k="name" v="Valheim" />
		<tag k="place" v="farm" />
		<tag k="ssr:stedsnr" v="227293" />
	</node>
	<node lat="66.17159444797822" lon="12.37213889451184" id="-15303">
		<tag k="name" v="Rønningen" />
		<tag k="place" v="farm" />
		<tag k="ssr:stedsnr" v="228634" />
	</node>
	<node lat="66.19976111388324" lon="12.609033324574161" id="-15308">
		<tag k="name" v="Solheim" />
		<tag k="place" v="farm" />
		<tag k="ssr:stedsnr" v="228703" />
	</node>
	<node lat="66.22226666258528" lon="12.594452780782648" id="-15311">
		<tag k="name" v="Nordvoll" />
		<tag k="place" v="farm" />
		<tag k="ssr:stedsnr" v="228788" />
	</node>
	<node lat="66.09489722117216" lon="12.591755562240376" id="-15330">
		<tag k="name" v="Lundgård" />
		<tag k="place" v="farm" />
		<tag k="ssr:stedsnr" v="288403" />
	</node>
	<node lat="66.20945833213658" lon="12.608408329260158" id="-15332">
		<tag k="name" v="Snekkvikja" />
		<tag k="place" v="farm" />
		<tag k="ssr:stedsnr" v="288606" />
	</node>
	<node lat="66.16296666794972" lon="12.55339999285007" id="-15340">
		<tag k="name" v="Remman" />
		<tag k="place" v="farm" />
		<tag k="ssr:stedsnr" v="289376" />
	</node>
	<node lat="66.14523610762186" lon="12.724961101087237" id="-15347">
		<tag k="name" v="Nerekran" />
		<tag k="place" v="farm" />
		<tag k="ssr:stedsnr" v="289903" />
	</node>
	<node lat="66.12192243859819" lon="12.50673864273853" id="-15351">
		<tag k="fixme" v="consider place=hamlet" />
		<tag k="name" v="Nordvikja" />
		<tag k="place" v="farm" />
		<tag k="ssr:stedsnr" v="289934" />
	</node>
	<node lat="66.19680278142906" lon="12.614938895275001" id="-15355">
		<tag k="name" v="Åkvika" />
		<tag k="place" v="farm" />
		<tag k="ssr:stedsnr" v="300908" />
	</node>
	<node lat="66.10954444062382" lon="12.4974694436927" id="-15356">
		<tag k="name" v="Skjøråsen" />
		<tag k="place" v="quarter" />
		<tag k="ssr:stedsnr" v="467097" />
	</node>
	<node lat="66.07798055163015" lon="12.577791675718649" id="-15370">
		<tag k="name" v="Sørbjørn" />
		<tag k="place" v="farm" />
		<tag k="ssr:stedsnr" v="468339" />
	</node>
	<node lat="66.17871944086791" lon="12.486752772299793" id="-15379">
		<tag k="name" v="Solvang" />
		<tag k="place" v="farm" />
		<tag k="ssr:stedsnr" v="470445" />
	</node>
	<node lat="66.18081666297097" lon="12.46792499975556" id="-15380">
		<tag k="name" v="Lyngheim" />
		<tag k="place" v="locality" />
		<tag k="ssr:stedsnr" v="470447" />
	</node>
	<node lat="66.19289722151198" lon="12.484652766692076" id="-15383">
		<tag k="name" v="Lomshågjen" />
		<tag k="place" v="farm" />
		<tag k="ssr:stedsnr" v="470657" />
	</node>
	<node lat="66.22347499650208" lon="12.58097222425681" id="-15384">
		<tag k="name" v="Stakkstøa" />
		<tag k="place" v="farm" />
		<tag k="ssr:stedsnr" v="470756" />
	</node>
	<node lat="66.0874166652237" lon="12.372366656354309" id="-15385">
		<tag k="name" v="Grindstad" />
		<tag k="place" v="farm" />
		<tag k="ssr:stedsnr" v="471258" />
	</node>
	<node lat="66.12961111372785" lon="12.306000008302327" id="-15397">
		<tag k="name" v="Nordøya" />
		<tag k="place" v="farm" />
		<tag k="ssr:stedsnr" v="471881" />
	</node>
	<node lat="66.15163888472392" lon="12.73066666573352" id="-15401">
		<tag k="name" v="Nordmyra" />
		<tag k="place" v="farm" />
		<tag k="ssr:stedsnr" v="471857" />
	</node>
	<node lat="66.09845833512415" lon="12.528849992671" id="-15407">
		<tag k="name" v="Stranda" />
		<tag k="place" v="farm" />
		<tag k="ssr:stedsnr" v="349417" />
	</node>
	<node lat="66.17829722294539" lon="12.508166668559294" id="-15409">
		<tag k="name" v="Tuvhågjen" />
		<tag k="place" v="farm" />
		<tag k="ssr:stedsnr" v="349466" />
	</node>
	<node lat="66.18919722320364" lon="12.628227778302167" id="-15415">
		<tag k="name" v="Jeppvikja" />
		<tag k="place" v="farm" />
		<tag k="ssr:stedsnr" v="349725" />
	</node>
	<node lat="66.03466944484977" lon="12.515127785456105" id="-15421">
		<tag k="alt_name" v="Husvika;Skorpen" />
		<tag k="name" v="Husvikja" />
		<tag k="place" v="isolated_dwelling" />
		<tag k="ssr:stedsnr" v="355005" />
	</node>
	<node lat="66.12886944473426" lon="12.543094454259005" id="-15427">
		<tag k="name" v="Kammarka" />
		<tag k="place" v="farm" />
		<tag k="ssr:stedsnr" v="379480" />
	</node>
	<node lat="66.14892499685041" lon="12.572888895941256" id="-15430">
		<tag k="name" v="Torud" />
		<tag k="place" v="farm" />
		<tag k="ssr:stedsnr" v="379603" />
	</node>
	<node lat="66.16001944440768" lon="12.77582499186885" id="-15435">
		<tag k="name" v="Trøa" />
		<tag k="place" v="farm" />
		<tag k="ssr:stedsnr" v="409247" />
	</node>
	<node lat="66.0553222220644" lon="12.515522227979352" id="-15439">
		<tag k="name" v="Fjellvang" />
		<tag k="place" v="farm" />
		<tag k="ssr:stedsnr" v="410591" />
	</node>
	<node lat="66.05024166976936" lon="12.50089999406318" id="-15441">
		<tag k="name" v="Dalmo" />
		<tag k="place" v="farm" />
		<tag k="ssr:stedsnr" v="410540" />
	</node>
	<node lat="66.16126944483115" lon="12.701302786026032" id="-15472">
		<tag k="name" v="Breivikgården" />
		<tag k="place" v="farm" />
		<tag k="ssr:stedsnr" v="470212" />
	</node>
	<node lat="66.17944722086375" lon="12.544313877729278" id="-15483">
		<tag k="name" v="Vang" />
		<tag k="place" v="farm" />
		<tag k="ssr:stedsnr" v="470385" />
	</node>
	<node lat="66.0390999990822" lon="12.453930562969013" id="-15489">
		<tag k="name" v="Teigstadvollen" />
		<tag k="place" v="farm" />
		<tag k="ssr:stedsnr" v="471515" />
	</node>
	<node lat="66.04953889112359" lon="12.498736105847145" id="-15490">
		<tag k="name" v="Bakkajord" />
		<tag k="place" v="farm" />
		<tag k="ssr:stedsnr" v="471530" />
	</node>
	<node lat="66.19047499751503" lon="12.617911109667176" id="-15500">
		<tag k="fixme" v="multiple name tags, choose one and add the other to alt_name" />
		<tag k="name" v="Mellomvika;Møllovikja" />
		<tag k="place" v="farm" />
		<tag k="ssr:stedsnr" v="501641" />
	</node>
	<node lat="66.09679364606268" lon="12.520525544260288" id="-15501">
		<tag k="fixme" v="consider place=hamlet" />
		<tag k="name" v="Holandsstranda" />
		<tag k="place" v="farm" />
		<tag k="ssr:stedsnr" v="501517" />
	</node>
	<node lat="66.1759611093958" lon="12.695680552344111" id="-15511">
		<tag k="fixme" v="multiple name tags, choose one and add the other to alt_name" />
		<tag k="name" v="Hovsvågen;Nersjyen" />
		<tag k="place" v="farm" />
		<tag k="ssr:stedsnr" v="682636" />
	</node>
	<node lat="66.04008255077729" lon="12.447344516609611" id="-15514">
		<tag k="alt_name" v="Teistad" />
		<tag k="fixme" v="consider place=hamlet" />
		<tag k="name" v="Teigstad" />
		<tag k="place" v="farm" />
		<tag k="ssr:stedsnr" v="683992" />
	</node>
	<node lat="66.17643969021222" lon="12.5366278539795" id="-15535">
		<tag k="alt_name" v="Stavsengvika" />
		<tag k="fixme" v="consider place=hamlet" />
		<tag k="name" v="Stavsengvikja" />
		<tag k="place" v="farm" />
		<tag k="ssr:stedsnr" v="683643" />
	</node>
	<node lat="66.15671389033761" lon="12.780313886129411" id="-15546">
		<tag k="name" v="Gården" />
		<tag k="place" v="farm" />
		<tag k="ssr:stedsnr" v="531222" />
	</node>
	<node lat="66.14920555368285" lon="12.396544452983756" id="-15548">
		<tag k="name" v="Bakken" />
		<tag k="place" v="farm" />
		<tag k="ssr:stedsnr" v="531323" />
	</node>
	<node lat="66.14719444171587" lon="12.728688885163482" id="-15551">
		<tag k="name" v="Andgården" />
		<tag k="place" v="farm" />
		<tag k="ssr:stedsnr" v="531874" />
	</node>
	<node lat="66.07311666689434" lon="12.577252771474093" id="-15552">
		<tag k="name" v="Sjøbakk" />
		<tag k="place" v="farm" />
		<tag k="ssr:stedsnr" v="532373" />
	</node>
	<node lat="66.19413063502192" lon="12.617624768251595" id="-15558">
		<tag k="name" v="Åkvika" />
		<tag k="place" v="farm" />
		<tag k="ssr:stedsnr" v="543888" />
	</node>
	<node lat="66.17367499635141" lon="12.722583325943654" id="-15580">
		<tag k="name" v="Strømsneset" />
		<tag k="place" v="farm" />
		<tag k="ssr:stedsnr" v="592404" />
	</node>
	<node lat="66.02883055846945" lon="12.523997213357228" id="-15588">
		<tag k="name" v="Vangen" />
		<tag k="place" v="isolated_dwelling" />
		<tag k="ssr:stedsnr" v="592803" />
	</node>
	<node lat="66.08786388944998" lon="12.590744447730536" id="-15606">
		<tag k="alt_name" v="Myren" />
		<tag k="name" v="Myra" />
		<tag k="place" v="farm" />
		<tag k="ssr:stedsnr" v="622942" />
	</node>
	<node lat="66.15410833293646" lon="12.790997222144723" id="-15616">
		<tag k="name" v="Sørvollen" />
		<tag k="place" v="farm" />
		<tag k="ssr:stedsnr" v="652191" />
	</node>
	<node lat="66.13870555300002" lon="12.552622220777314" id="-15619">
		<tag k="name" v="Nyheim" />
		<tag k="place" v="farm" />
		<tag k="ssr:stedsnr" v="652882" />
	</node>
	<node lat="66.13021111558949" lon="12.556963884401538" id="-15626">
		<tag k="alt_name" v="Kjellneset" />
		<tag k="fixme" v="consider place=hamlet" />
		<tag k="name" v="Kjellsneset" />
		<tag k="place" v="farm" />
		<tag k="ssr:stedsnr" v="682568" />
	</node>
	<node lat="66.1365916681944" lon="12.555366670290546" id="-15628">
		<tag k="name" v="Våg" />
		<tag k="place" v="hamlet" />
		<tag k="ssr:stedsnr" v="682659" />
	</node>
	<node lat="66.15608055520447" lon="12.309608330238154" id="-15639">
		<tag k="name" v="Strand" />
		<tag k="place" v="isolated_dwelling" />
		<tag k="ssr:stedsnr" v="692621" />
	</node>
	<node lat="66.15692500419058" lon="12.70730833407908" id="-15644">
		<tag k="name" v="Granheim" />
		<tag k="place" v="farm" />
		<tag k="ssr:stedsnr" v="895220" />
	</node>
	<node lat="66.1614972198727" lon="12.601180547530744" id="-15646">
		<tag k="name" v="Nyrud" />
		<tag k="place" v="farm" />
		<tag k="ssr:stedsnr" v="895248" />
	</node>
	<node lat="66.08712499829623" lon="12.364972224321194" id="-15647">
		<tag k="name" v="Vollbakken" />
		<tag k="place" v="quarter" />
		<tag k="ssr:stedsnr" v="895265" />
	</node>
	<node lat="66.16340000122112" lon="12.347375009188085" id="-15649">
		<tag k="name" v="Jektvikja" />
		<tag k="place" v="farm" />
		<tag k="ssr:stedsnr" v="895648" />
	</node>
	<node lat="66.14890555368318" lon="12.739466662687482" id="-15656">
		<tag k="name" v="Moen" />
		<tag k="place" v="farm" />
		<tag k="ssr:stedsnr" v="896201" />
	</node>
	<node lat="66.17341944068872" lon="12.565141676454278" id="-15673">
		<tag k="name" v="Lundvang" />
		<tag k="place" v="farm" />
		<tag k="ssr:stedsnr" v="896444" />
	</node>
	<node lat="66.02969166817945" lon="12.523908341980993" id="-15679">
		<tag k="name" v="Sildheim" />
		<tag k="place" v="isolated_dwelling" />
		<tag k="ssr:stedsnr" v="896788" />
	</node>
	<node lat="66.16053055490957" lon="12.698794434109011" id="-15684">
		<tag k="name" v="Sjøveien" />
		<tag k="place" v="farm" />
		<tag k="ssr:stedsnr" v="713231" />
	</node>
	<node lat="66.16539167013353" lon="12.340619443750802" id="-15687">
		<tag k="name" v="Bakkely" />
		<tag k="place" v="farm" />
		<tag k="ssr:stedsnr" v="713708" />
	</node>
	<node lat="66.14900833671062" lon="12.729077788406668" id="-15693">
		<tag k="fixme" v="consider place=hamlet" />
		<tag k="name" v="Sandåker" />
		<tag k="place" v="farm" />
		<tag k="ssr:stedsnr" v="743205" />
	</node>
	<node lat="66.14386666322456" lon="12.395183342091144" id="-15712">
		<tag k="name" v="Engen" />
		<tag k="place" v="farm" />
		<tag k="ssr:stedsnr" v="774326" />
	</node>
	<node lat="66.09149721977646" lon="12.589586103586866" id="-15735">
		<tag k="alt_name" v="Bjørnsgård" />
		<tag k="name" v="Bjørngården" />
		<tag k="place" v="farm" />
		<tag k="ssr:stedsnr" v="815716" />
	</node>
	<node lat="66.16405555220652" lon="12.549888885775061" id="-15750">
		<tag k="name" v="Nordvikja" />
		<tag k="place" v="farm" />
		<tag k="ssr:stedsnr" v="836333" />
	</node>
	<node lat="66.03781944438079" lon="12.441561115506918" id="-15755">
		<tag k="name" v="Teigstad" />
		<tag k="place" v="farm" />
		<tag k="ssr:stedsnr" v="837134" />
	</node>
	<node lat="66.12732499859773" lon="12.300702777009333" id="-15764">
		<tag k="name" v="Sørøya" />
		<tag k="place" v="farm" />
		<tag k="ssr:stedsnr" v="925570" />
	</node>
	<node lat="66.11043441741595" lon="12.56115953011462" id="-15774">
		<tag k="alt_name" v="Hildset" />
		<tag k="fixme" v="consider place=hamlet" />
		<tag k="name" v="Hilset" />
		<tag k="place" v="farm" />
		<tag k="ssr:stedsnr" v="926547" />
	</node>
	<node lat="66.17390555638312" lon="12.544838878616773" id="-15776">
		<tag k="fixme" v="consider place=hamlet" />
		<tag k="name" v="Stavseng" />
		<tag k="place" v="village" />
		<tag k="ssr:stedsnr" v="926648" />
	</node>
	<node lat="66.049547225001" lon="12.502333329724634" id="-15791">
		<tag k="name" v="Elvmo" />
		<tag k="place" v="farm" />
		<tag k="ssr:stedsnr" v="896580" />
	</node>
	<node lat="66.20538333128177" lon="12.589933322165892" id="-15805">
		<tag k="name" v="Dønnes" />
		<tag k="place" v="hamlet" />
		<tag k="ssr:stedsnr" v="926622" />
	</node>
	<node lat="66.1835694399286" lon="12.533002784760477" id="-15809">
		<tag k="name" v="Juvågjen" />
		<tag k="place" v="farm" />
		<tag k="ssr:stedsnr" v="955642" />
	</node>
	<node lat="66.17708333749205" lon="12.559636103685035" id="-15823">
		<tag k="name" v="Skardet" />
		<tag k="place" v="farm" />
		<tag k="ssr:stedsnr" v="957405" />
	</node>
	<node lat="66.17229444658732" lon="12.570377768453621" id="-15824">
		<tag k="name" v="Stuåsen" />
		<tag k="place" v="quarter" />
		<tag k="ssr:stedsnr" v="957414" />
	</node>
	<node lat="66.17198437443557" lon="12.572298506208352" id="-15837">
		<tag k="fixme" v="consider place=hamlet" />
		<tag k="name" v="Åker" />
		<tag k="place" v="farm" />
		<tag k="ssr:stedsnr" v="990041" />
	</node>
	<node lat="66.18184820838724" lon="12.715414239388316" id="-15838">
		<tag k="fixme" v="consider place=hamlet" />
		<tag k="name" v="Hov" />
		<tag k="place" v="farm" />
		<tag k="ssr:stedsnr" v="990337" />
	</node>
	<node lat="66.15096948529408" lon="12.388757434176293" id="-15839">
		<tag k="fixme" v="consider place=hamlet" />
		<tag k="name" v="Slapøya" />
		<tag k="place" v="farm" />
		<tag k="ssr:stedsnr" v="990339" />
	</node>
	<node lat="66.18552318306642" lon="12.343546431335062" id="-15840">
		<tag k="fixme" v="consider place=hamlet" />
		<tag k="name" v="Liss-Vandve" />
		<tag k="place" v="farm" />
		<tag k="ssr:stedsnr" v="990347" />
	</node>
	<node lat="66.12261501728075" lon="12.411023087706063" id="-15841">
		<tag k="name" v="Ramnøya" />
		<tag k="place" v="locality" />
		<tag k="ssr:stedsnr" v="990348" />
	</node>
	<node lat="66.13940730362597" lon="12.495895214973345" id="-15842">
		<tag k="fixme" v="consider place=hamlet" />
		<tag k="name" v="Kjeøya" />
		<tag k="place" v="farm" />
		<tag k="ssr:stedsnr" v="990350" />
	</node>
	<node lat="66.10002783726364" lon="12.513886246536833" id="-15887">
		<tag k="fixme" v="consider place=hamlet" />
		<tag k="name" v="Olfoten" />
		<tag k="place" v="farm" />
		<tag k="ssr:stedsnr" v="15570" />
	</node>
	<node lat="66.12690240157313" lon="12.614452671765243" id="-15888">
		<tag k="alt_name" v="Berfjord" />
		<tag k="fixme" v="consider place=hamlet" />
		<tag k="name" v="Berfjorden" />
		<tag k="place" v="farm" />
		<tag k="ssr:stedsnr" v="15583" />
	</node>
	<node lat="66.13543055243848" lon="12.510591656225374" id="-15893">
		<tag k="alt_name" v="Skeissjøen" />
		<tag k="name" v="Skeissjyen" />
		<tag k="place" v="farm" />
		<tag k="ssr:stedsnr" v="15639" />
	</node>
	<node lat="66.13924166906261" lon="12.558841667910563" id="-15894">
		<tag k="fixme" v="consider place=hamlet" />
		<tag k="name" v="Våg" />
		<tag k="place" v="farm" />
		<tag k="ssr:stedsnr" v="15643" />
	</node>
	<node lat="66.17999250422277" lon="12.624532517969657" id="-15901">
		<tag k="fixme" v="consider place=hamlet" />
		<tag k="name" v="Sigerstad" />
		<tag k="place" v="farm" />
		<tag k="ssr:stedsnr" v="16623" />
	</node>
	<node lat="66.17129444860305" lon="12.620366668804584" id="-15902">
		<tag k="name" v="Kleivan" />
		<tag k="place" v="farm" />
		<tag k="ssr:stedsnr" v="16624" />
	</node>
	<node lat="66.17113611015988" lon="12.568347222025379" id="-15903">
		<tag k="fixme" v="consider place=hamlet" />
		<tag k="name" v="Åker" />
		<tag k="place" v="village" />
		<tag k="ssr:stedsnr" v="16625" />
	</node>
	<node lat="66.17439441959135" lon="12.55694650367382" id="-15904">
		<tag k="alt_name" v="Nedrebø" />
		<tag k="name" v="Nerbø" />
		<tag k="place" v="farm" />
		<tag k="ssr:stedsnr" v="16627" />
	</node>
	<node lat="66.18877222516122" lon="12.466600004028571" id="-15905">
		<tag k="name" v="Klumpan" />
		<tag k="place" v="farm" />
		<tag k="ssr:stedsnr" v="16638" />
	</node>
	<node lat="66.05408611171414" lon="12.514188889037873" id="-15930">
		<tag k="name" v="Solheim" />
		<tag k="place" v="farm" />
		<tag k="ssr:stedsnr" v="46650" />
	</node>
	<node lat="66.06638888516694" lon="12.559977770025757" id="-15931">
		<tag k="name" v="Nysted" />
		<tag k="place" v="farm" />
		<tag k="ssr:stedsnr" v="46659" />
	</node>
	<node lat="66.12282500138632" lon="12.559966660048826" id="-15933">
		<tag k="alt_name" v="Litlvika" />
		<tag k="fixme" v="consider place=hamlet" />
		<tag k="name" v="Vågsvikja" />
		<tag k="place" v="farm" />
		<tag k="ssr:stedsnr" v="46943" />
	</node>
	<node lat="66.09257222077295" lon="12.355899989427725" id="-15938">
		<tag k="name" v="Valstad" />
		<tag k="place" v="farm" />
		<tag k="ssr:stedsnr" v="76574" />
	</node>
	<node lat="66.1633944469323" lon="12.613863880680908" id="-15939">
		<tag k="name" v="Gleinsvik" />
		<tag k="place" v="farm" />
		<tag k="ssr:stedsnr" v="76579" />
	</node>
	<node lat="66.16704444075242" lon="12.695066671027252" id="-15941">
		<tag k="name" v="Skjelvikmoen" />
		<tag k="place" v="farm" />
		<tag k="ssr:stedsnr" v="76589" />
	</node>
	<node lat="66.20982185324365" lon="12.561063807803054" id="-15948">
		<tag k="name" v="Skredingan" />
		<tag k="place" v="farm" />
		<tag k="ssr:stedsnr" v="76643" />
	</node>
	<node lat="66.15988055557084" lon="12.697347217866277" id="-15966">
		<tag k="name" v="Sjyhågjen" />
		<tag k="place" v="farm" />
		<tag k="ssr:stedsnr" v="106258" />
	</node>
	<node lat="66.23008888634976" lon="12.780122213191385" id="-15967">
		<tag k="name" v="Solvoll" />
		<tag k="place" v="farm" />
		<tag k="ssr:stedsnr" v="106262" />
	</node>
	<node lat="66.18131975113774" lon="12.519320143993914" id="-15969">
		<tag k="name" v="Sletten" />
		<tag k="place" v="farm" />
		<tag k="ssr:stedsnr" v="106407" />
	</node>
	<node lat="66.19142644542556" lon="12.483502552004994" id="-15970">
		<tag k="name" v="Nordstad" />
		<tag k="place" v="farm" />
		<tag k="ssr:stedsnr" v="106662" />
	</node>
	<node lat="66.17789444374401" lon="12.68804999528959" id="-15979">
		<tag k="name" v="Bortersjyen" />
		<tag k="place" v="farm" />
		<tag k="ssr:stedsnr" v="107396" />
	</node>
	<node lat="66.05978888485328" lon="12.539419436039221" id="-15982">
		<tag k="name" v="Grindvollen" />
		<tag k="place" v="farm" />
		<tag k="ssr:stedsnr" v="107600" />
	</node>
	<node lat="66.03641666906977" lon="12.322827777007772" id="-15984">
		<tag k="name" v="Solstrand" />
		<tag k="place" v="farm" />
		<tag k="ssr:stedsnr" v="107659" />
	</node>
	<node lat="66.12509166841738" lon="12.48958889135109" id="-15988">
		<tag k="alt_name" v="Leirvika" />
		<tag k="name" v="Leirvikja" />
		<tag k="place" v="farm" />
		<tag k="ssr:stedsnr" v="136541" />
	</node>
	<node lat="66.08693332929192" lon="12.426330552696614" id="-16014">
		<tag k="name" v="Øyvågen" />
		<tag k="place" v="farm" />
		<tag k="ssr:stedsnr" v="148746" />
	</node>
	<node lat="66.0872055564775" lon="12.358405559606929" id="-16018">
		<tag k="name" v="Ivarstøa" />
		<tag k="place" v="farm" />
		<tag k="ssr:stedsnr" v="166292" />
	</node>
	<node lat="66.05044999921165" lon="12.505174999801346" id="-16047">
		<tag k="name" v="Elvheim" />
		<tag k="place" v="farm" />
		<tag k="ssr:stedsnr" v="168496" />
	</node>
	<node lat="66.02586667054527" lon="12.4954611044926" id="-16052">
		<tag k="name" v="Sandvalen" />
		<tag k="place" v="locality" />
		<tag k="ssr:stedsnr" v="168748" />
	</node>
	<node lat="66.08849999797857" lon="12.45373889758341" id="-16083">
		<tag k="name" v="Hølhaugen" />
		<tag k="place" v="farm" />
		<tag k="ssr:stedsnr" v="209737" />
	</node>
	<node lat="66.09045833390023" lon="12.440499994023796" id="-16092">
		<tag k="name" v="Nordgården" />
		<tag k="place" v="farm" />
		<tag k="ssr:stedsnr" v="228249" />
	</node>
	<node lat="66.06953888719023" lon="12.405052770036292" id="-16111">
		<tag k="name" v="Myrland" />
		<tag k="place" v="farm" />
		<tag k="ssr:stedsnr" v="287457" />
	</node>
	<node lat="66.13976389315891" lon="12.298388884778138" id="-16115">
		<tag k="name" v="Holmen" />
		<tag k="place" v="farm" />
		<tag k="ssr:stedsnr" v="288260" />
	</node>
	<node lat="66.1072361135986" lon="12.479972227983192" id="-16126">
		<tag k="alt_name" v="Mevikja;Meviken" />
		<tag k="fixme" v="consider place=hamlet" />
		<tag k="name" v="Medvika" />
		<tag k="place" v="farm" />
		<tag k="ssr:stedsnr" v="289075" />
	</node>
	<node lat="66.172152781173" lon="12.722613887493864" id="-16127">
		<tag k="name" v="Sundsvågjen" />
		<tag k="place" v="locality" />
		<tag k="ssr:stedsnr" v="289357" />
	</node>
	<node lat="66.04014166454186" lon="12.468625003386524" id="-16136">
		<tag k="name" v="Brennvikja" />
		<tag k="place" v="farm" />
		<tag k="ssr:stedsnr" v="289561" />
	</node>
	<node lat="66.05801110960454" lon="12.533063899241697" id="-16141">
		<tag k="name" v="Veslero" />
		<tag k="place" v="farm" />
		<tag k="ssr:stedsnr" v="289646" />
	</node>
	<node lat="66.13766111389506" lon="12.302099999963412" id="-16145">
		<tag k="name" v="Øygård" />
		<tag k="place" v="farm" />
		<tag k="ssr:stedsnr" v="289946" />
	</node>
	<node lat="66.16911646299901" lon="12.340008637906998" id="-16149">
		<tag k="alt_name" v="Vandved;Vandve gård" />
		<tag k="fixme" v="consider place=hamlet" />
		<tag k="name" v="Vandve" />
		<tag k="place" v="farm" />
		<tag k="ssr:stedsnr" v="318588" />
	</node>
	<node lat="66.14842777876297" lon="12.695969436709241" id="-16150">
		<tag k="name" v="Aspås" />
		<tag k="place" v="farm" />
		<tag k="ssr:stedsnr" v="318600" />
	</node>
	<node lat="66.13479409186942" lon="12.519054226842217" id="-16151">
		<tag k="fixme" v="consider place=hamlet" />
		<tag k="name" v="Skei" />
		<tag k="place" v="farm" />
		<tag k="ssr:stedsnr" v="318617" />
	</node>
	<node lat="66.13794444087992" lon="12.530311099759844" id="-16152">
		<tag k="name" v="Sommarås" />
		<tag k="place" v="farm" />
		<tag k="ssr:stedsnr" v="318618" />
	</node>
	<node lat="66.1573333357543" lon="12.610399994020906" id="-16164">
		<tag k="fixme" v="consider place=hamlet" />
		<tag k="name" v="Glein" />
		<tag k="place" v="village" />
		<tag k="ssr:stedsnr" v="318586" />
	</node>
	<node lat="66.19257825208695" lon="12.586642791757637" id="-16166">
		<tag k="name" v="Åsvoll" />
		<tag k="place" v="farm" />
		<tag k="ssr:stedsnr" v="319671" />
	</node>
	<node lat="66.20907222585757" lon="12.591997214817935" id="-16168">
		<tag k="name" v="Røytvollen" />
		<tag k="place" v="farm" />
		<tag k="ssr:stedsnr" v="319617" />
	</node>
	<node lat="66.20852778198856" lon="12.56157500310716" id="-16169">
		<tag k="alt_name" v="Brandsneset" />
		<tag k="name" v="Brandsnes" />
		<tag k="place" v="hamlet" />
		<tag k="ssr:stedsnr" v="319622" />
	</node>
	<node lat="66.21924999857525" lon="12.598988895905817" id="-16180">
		<tag k="name" v="Nordøyvågen" />
		<tag k="place" v="farm" />
		<tag k="ssr:stedsnr" v="329989" />
	</node>
	<node lat="66.11185277511755" lon="12.564986108353892" id="-16187">
		<tag k="name" v="Bakken" />
		<tag k="place" v="farm" />
		<tag k="ssr:stedsnr" v="349399" />
	</node>
	<node lat="66.16986111141063" lon="12.72808610011845" id="-16202">
		<tag k="name" v="Gården" />
		<tag k="place" v="farm" />
		<tag k="ssr:stedsnr" v="350326" />
	</node>
	<node lat="66.16335833214936" lon="12.613461105257489" id="-16205">
		<tag k="name" v="Moen" />
		<tag k="place" v="farm" />
		<tag k="ssr:stedsnr" v="350340" />
	</node>
	<node lat="66.0531944455316" lon="12.513375000095538" id="-16209">
		<tag k="name" v="Sletten" />
		<tag k="place" v="farm" />
		<tag k="ssr:stedsnr" v="350516" />
	</node>
	<node lat="66.1516277818175" lon="12.699133325567079" id="-16224">
		<tag k="name" v="Nymoen" />
		<tag k="place" v="farm" />
		<tag k="ssr:stedsnr" v="379582" />
	</node>
	<node lat="66.11076389112311" lon="12.504638896590372" id="-16225">
		<tag k="name" v="Risnes" />
		<tag k="place" v="farm" />
		<tag k="ssr:stedsnr" v="379539" />
	</node>
	<node lat="66.03676111276629" lon="12.437383344205445" id="-16230">
		<tag k="alt_name" v="Teigstadvikja" />
		<tag k="name" v="Teistadvika" />
		<tag k="place" v="farm" />
		<tag k="ssr:stedsnr" v="379982" />
	</node>
	<node lat="66.07799722171913" lon="12.432730556471276" id="-16231">
		<tag k="alt_name" v="Engan" />
		<tag k="name" v="Enga" />
		<tag k="place" v="farm" />
		<tag k="ssr:stedsnr" v="379931" />
	</node>
	<node lat="66.0495138845001" lon="12.571222225531514" id="-16239">
		<tag k="name" v="Skorptangen" />
		<tag k="place" v="farm" />
		<tag k="ssr:stedsnr" v="390679" />
	</node>
	<node lat="66.10527499541477" lon="12.475077787912173" id="-16241">
		<tag k="name" v="Aasen Sørviken" />
		<tag k="place" v="farm" />
		<tag k="ssr:stedsnr" v="407267" />
	</node>
	<node lat="66.15547222028032" lon="12.61956110878634" id="-16247">
		<tag k="name" v="Klipa" />
		<tag k="place" v="isolated_dwelling" />
		<tag k="ssr:stedsnr" v="409279" />
	</node>
	<node lat="66.17399353484444" lon="12.461210008085189" id="-16257">
		<tag k="name" v="Breivika" />
		<tag k="place" v="farm" />
		<tag k="ssr:stedsnr" v="410421" />
	</node>
	<node lat="66.1663694441367" lon="12.342338897201513" id="-16263">
		<tag k="amenity" v="school" />
		<tag k="name" v="Vandve skole" />
		<tag k="ssr:stedsnr" v="410679" />
	</node>
	<node lat="66.12802777909774" lon="12.300977772588976" id="-16267">
		<tag k="name" v="Nygård" />
		<tag k="place" v="farm" />
		<tag k="ssr:stedsnr" v="410884" />
	</node>
	<node lat="66.15550833551765" lon="12.79855277605487" id="-16270">
		<tag k="name" v="Bortigården" />
		<tag k="place" v="farm" />
		<tag k="ssr:stedsnr" v="410920" />
	</node>
	<node lat="66.21563611360611" lon="12.57234445270357" id="-16274">
		<tag k="name" v="Hammarvik" />
		<tag k="place" v="hamlet" />
		<tag k="ssr:stedsnr" v="411683" />
	</node>
	<node lat="66.10428888630007" lon="12.49071944613124" id="-16300">
		<tag k="name" v="Gjerdet" />
		<tag k="place" v="farm" />
		<tag k="ssr:stedsnr" v="500627" />
	</node>
	<node lat="66.11288207408664" lon="12.604661826386291" id="-16306">
		<tag k="fixme" v="consider place=hamlet" />
		<tag k="name" v="Dalsvåg" />
		<tag k="place" v="farm" />
		<tag k="ssr:stedsnr" v="500637" />
	</node>
	<node lat="66.09008400883506" lon="12.606034665729902" id="-16323">
		<tag k="alt_name" v="Breidlandet" />
		<tag k="name" v="Breiland" />
		<tag k="place" v="hamlet" />
		<tag k="ssr:stedsnr" v="501947" />
	</node>
	<node lat="66.07647777840056" lon="12.58242221174113" id="-16324">
		<tag k="fixme" v="multiple name tags, choose one and add the other to alt_name" />
		<tag k="name" v="Finnstranda;Stranden" />
		<tag k="place" v="farm" />
		<tag k="ssr:stedsnr" v="501952" />
	</node>
	<node lat="66.07866666464311" lon="12.580094445835703" id="-16327">
		<tag k="name" v="Hestvika" />
		<tag k="place" v="farm" />
		<tag k="ssr:stedsnr" v="512755" />
	</node>
	<node lat="66.08145707947675" lon="12.583457244286388" id="-16331">
		<tag k="fixme" v="consider place=hamlet" />
		<tag k="name" v="Bjørn" />
		<tag k="place" v="village" />
		<tag k="ssr:stedsnr" v="528930" />
	</node>
	<node lat="66.09720277380694" lon="12.469852776903835" id="-16339">
		<tag k="name" v="Korsmo" />
		<tag k="place" v="farm" />
		<tag k="ssr:stedsnr" v="531067" />
	</node>
	<node lat="66.14683055600082" lon="12.576802781659643" id="-16346">
		<tag k="name" v="Hilstad" />
		<tag k="place" v="farm" />
		<tag k="ssr:stedsnr" v="531264" />
	</node>
	<node lat="66.15451388489791" lon="12.795555546002731" id="-16354">
		<tag k="name" v="Rundten" />
		<tag k="place" v="farm" />
		<tag k="ssr:stedsnr" v="531918" />
	</node>
	<node lat="66.04653333539291" lon="12.490413883264674" id="-16357">
		<tag k="name" v="Nyrud" />
		<tag k="place" v="farm" />
		<tag k="ssr:stedsnr" v="532494" />
	</node>
	<node lat="66.08386944878035" lon="12.365966668839027" id="-16377">
		<tag k="fixme" v="consider place=hamlet" />
		<tag k="name" v="Skaga" />
		<tag k="place" v="farm" />
		<tag k="ssr:stedsnr" v="561539" />
	</node>
	<node lat="66.21838889125962" lon="12.596633324924309" id="-16387">
		<tag k="name" v="Nordøyvågen" />
		<tag k="place" v="hamlet" />
		<tag k="ssr:stedsnr" v="561653" />
	</node>
	<node lat="66.18240702478076" lon="12.717514324294967" id="-16393">
		<tag k="alt_name" v="Hov" />
		<tag k="name" v="Vågen" />
		<tag k="place" v="farm" />
		<tag k="ssr:stedsnr" v="561672" />
	</node>
	<node lat="66.17837499959802" lon="12.56811943770479" id="-16394">
		<tag k="name" v="Øvrebø" />
		<tag k="place" v="farm" />
		<tag k="ssr:stedsnr" v="561673" />
	</node>
	<node lat="66.14564166925531" lon="12.711005559110816" id="-16398">
		<tag k="alt_name" v="Kjellsvikja" />
		<tag k="name" v="Kjellsvika" />
		<tag k="place" v="farm" />
		<tag k="ssr:stedsnr" v="561598" />
	</node>
	<node lat="66.14287499875022" lon="12.323447213338355" id="-16402">
		<tag k="fixme" v="multiple name tags, choose one and add the other to alt_name" />
		<tag k="name" v="Risneset;Skogstad" />
		<tag k="place" v="farm" />
		<tag k="ssr:stedsnr" v="561620" />
	</node>
	<node lat="66.09204444518173" lon="12.459613881792412" id="-16414">
		<tag k="fixme" v="multiple name tags, choose one and add the other to alt_name" />
		<tag k="name" v="Flekkan;Almvik" />
		<tag k="place" v="farm" />
		<tag k="ssr:stedsnr" v="561935" />
	</node>
	<node lat="66.19114166811842" lon="12.479063892863662" id="-16433">
		<tag k="name" v="Bakken" />
		<tag k="place" v="farm" />
		<tag k="ssr:stedsnr" v="591633" />
	</node>
	<node lat="66.02558888819924" lon="12.535108331938538" id="-16450">
		<tag k="name" v="Øyvollen" />
		<tag k="place" v="farm" />
		<tag k="ssr:stedsnr" v="592774" />
	</node>
	<node lat="66.15841944403458" lon="12.434813888426008" id="-16458">
		<tag k="alt_name" v="Volneset" />
		<tag k="fixme" v="consider place=hamlet" />
		<tag k="name" v="Volnes" />
		<tag k="place" v="farm" />
		<tag k="ssr:stedsnr" v="621642" />
	</node>
	<node lat="66.10555000082384" lon="12.660988884012616" id="-16466">
		<tag k="alt_name" v="Hangbjørn" />
		<tag k="name" v="Nordbjørn" />
		<tag k="place" v="locality" />
		<tag k="ssr:stedsnr" v="622529" />
	</node>
	<node lat="66.04658333635103" lon="12.36302500519999" id="-16474">
		<tag k="name" v="Hagen" />
		<tag k="place" v="locality" />
		<tag k="ssr:stedsnr" v="622991" />
	</node>
	<node lat="66.06457777958369" lon="12.396961109041088" id="-16476">
		<tag k="fixme" v="consider place=hamlet" />
		<tag k="name" v="Sandstrak" />
		<tag k="place" v="farm" />
		<tag k="ssr:stedsnr" v="622959" />
	</node>
	<node lat="66.1549861147299" lon="12.60530833100646" id="-16487">
		<tag k="name" v="Monshågjen" />
		<tag k="place" v="farm" />
		<tag k="ssr:stedsnr" v="652230" />
	</node>
	<node lat="66.21339722220797" lon="12.605022221648095" id="-16490">
		<tag k="name" v="Mannvikja" />
		<tag k="place" v="hamlet" />
		<tag k="ssr:stedsnr" v="652720" />
	</node>
	<node lat="66.08045833405909" lon="12.343652771572925" id="-16497">
		<tag k="name" v="Neset" />
		<tag k="place" v="farm" />
		<tag k="ssr:stedsnr" v="653275" />
	</node>
	<node lat="66.16916388616545" lon="12.719324995222294" id="-16498">
		<tag k="name" v="Ryddheim" />
		<tag k="place" v="farm" />
		<tag k="ssr:stedsnr" v="653336" />
	</node>
	<node lat="66.06519444688509" lon="12.555350007747" id="-16512">
		<tag k="name" v="Storvik" />
		<tag k="place" v="farm" />
		<tag k="ssr:stedsnr" v="653594" />
	</node>
	<node lat="66.14938888868649" lon="12.32635554583177" id="-16523">
		<tag k="name" v="Setermoen" />
		<tag k="place" v="farm" />
		<tag k="ssr:stedsnr" v="713316" />
	</node>
	<node lat="66.17039444769989" lon="12.335947214065353" id="-16529">
		<tag k="name" v="Partan" />
		<tag k="place" v="hamlet" />
		<tag k="ssr:stedsnr" v="713702" />
	</node>
	<node lat="66.21616389292213" lon="12.604350007076464" id="-16530">
		<tag k="name" v="Sandvikja" />
		<tag k="place" v="farm" />
		<tag k="ssr:stedsnr" v="713761" />
	</node>
	<node lat="66.06169722510849" lon="12.54294443979312" id="-16544">
		<tag k="name" v="Stenberg" />
		<tag k="place" v="farm" />
		<tag k="ssr:stedsnr" v="714543" />
	</node>
	<node lat="66.14702499585962" lon="12.737108336963308" id="-16546">
		<tag k="name" v="Kronborg" />
		<tag k="place" v="farm" />
		<tag k="ssr:stedsnr" v="714857" />
	</node>
	<node lat="66.14802221921846" lon="12.734919434451461" id="-16547">
		<tag k="name" v="Nerstua" />
		<tag k="place" v="farm" />
		<tag k="ssr:stedsnr" v="714859" />
	</node>
	<node lat="66.15917354325366" lon="12.788941866527823" id="-16550">
		<tag k="fixme" v="consider place=hamlet" />
		<tag k="name" v="Horn" />
		<tag k="place" v="farm" />
		<tag k="ssr:stedsnr" v="743198" />
	</node>
	<node lat="66.10160555743995" lon="12.516691672587756" id="-16555">
		<tag k="name" v="Vollen" />
		<tag k="place" v="farm" />
		<tag k="ssr:stedsnr" v="743535" />
	</node>
	<node lat="66.13812443453381" lon="12.612891256895194" id="-16565">
		<tag k="alt_name" v="Gullstad" />
		<tag k="fixme" v="consider place=hamlet" />
		<tag k="name" v="Gulstad" />
		<tag k="place" v="farm" />
		<tag k="ssr:stedsnr" v="743525" />
	</node>
	<node lat="66.08549722434583" lon="12.448386121219427" id="-16573">
		<tag k="alt_name" v="Hølen" />
		<tag k="fixme" v="consider place=hamlet" />
		<tag k="name" v="Høla" />
		<tag k="place" v="farm" />
		<tag k="ssr:stedsnr" v="743938" />
	</node>
	<node lat="66.09221463278605" lon="12.632141921905918" id="-16574">
		<tag k="alt_name" v="Engesvik" />
		<tag k="fixme" v="consider place=hamlet" />
		<tag k="name" v="Engesvika" />
		<tag k="place" v="farm" />
		<tag k="ssr:stedsnr" v="743947" />
	</node>
	<node lat="66.19039166507794" lon="12.626058339076254" id="-16580">
		<tag k="alt_name" v="Vardavika" />
		<tag k="name" v="Valvikja" />
		<tag k="place" v="farm" />
		<tag k="ssr:stedsnr" v="744644" />
	</node>
	<node lat="66.19268611560895" lon="12.489763879112626" id="-16590">
		<tag k="name" v="Remman" />
		<tag k="place" v="farm" />
		<tag k="ssr:stedsnr" v="773631" />
	</node>
	<node lat="66.0960944446764" lon="12.47207499217758" id="-16595">
		<tag k="name" v="Korsmo" />
		<tag k="place" v="farm" />
		<tag k="ssr:stedsnr" v="774294" />
	</node>
	<node lat="66.13845832923371" lon="12.299169447417126" id="-16605">
		<tag k="name" v="Inner Havsund" />
		<tag k="place" v="farm" />
		<tag k="ssr:stedsnr" v="774929" />
	</node>
	<node lat="66.16895277938896" lon="12.731480546413277" id="-16606">
		<tag k="name" v="Vollen" />
		<tag k="place" v="farm" />
		<tag k="ssr:stedsnr" v="775327" />
	</node>
	<node lat="66.16432500397792" lon="12.554205550369586" id="-16607">
		<tag k="name" v="Vakkervollan" />
		<tag k="place" v="farm" />
		<tag k="ssr:stedsnr" v="775335" />
	</node>
	<node lat="66.21274721833768" lon="12.565924993765442" id="-16614">
		<tag k="alt_name" v="Skardtun" />
		<tag k="name" v="Skartun" />
		<tag k="place" v="farm" />
		<tag k="ssr:stedsnr" v="775693" />
	</node>
	<node lat="66.19798333527635" lon="12.612916663126335" id="-16618">
		<tag k="name" v="Åkvika" />
		<tag k="place" v="farm" />
		<tag k="ssr:stedsnr" v="785912" />
	</node>
	<node lat="66.13502777983648" lon="12.542111113578576" id="-16638">
		<tag k="alt_name" v="Rødsdalen" />
		<tag k="name" v="Røsdalen" />
		<tag k="place" v="farm" />
		<tag k="ssr:stedsnr" v="804626" />
	</node>
	<node lat="66.2012694445596" lon="12.54885554895618" id="-16644">
		<tag k="alt_name" v="Torsvikberget" />
		<tag k="name" v="Torsvikjaberget" />
		<tag k="place" v="farm" />
		<tag k="ssr:stedsnr" v="804699" />
	</node>
	<node lat="66.17166490188644" lon="12.729488151369894" id="-16645">
		<tag k="fixme" v="consider place=hamlet" />
		<tag k="name" v="Sund" />
		<tag k="place" v="farm" />
		<tag k="ssr:stedsnr" v="804791" />
	</node>
	<node lat="66.15731111113908" lon="12.60855277572695" id="-16658">
		<tag k="name" v="Teian" />
		<tag k="place" v="farm" />
		<tag k="ssr:stedsnr" v="834277" />
	</node>
	<node lat="66.08421944865775" lon="12.363500003597169" id="-16660">
		<tag k="name" v="Lynghaugen" />
		<tag k="place" v="farm" />
		<tag k="ssr:stedsnr" v="834285" />
	</node>
	<node lat="66.15038742946523" lon="12.396041223276516" id="-16661">
		<tag k="name" v="Haugen øvre" />
		<tag k="place" v="farm" />
		<tag k="ssr:stedsnr" v="834298" />
	</node>
	<node lat="66.15001111008189" lon="12.387949994881602" id="-16663">
		<tag k="name" v="Remman" />
		<tag k="place" v="farm" />
		<tag k="ssr:stedsnr" v="834303" />
	</node>
	<node lat="66.14741388514149" lon="12.388744441262867" id="-16664">
		<tag k="name" v="Floten" />
		<tag k="place" v="farm" />
		<tag k="ssr:stedsnr" v="834304" />
	</node>
	<node lat="66.14386667131144" lon="12.300566656926366" id="-16672">
		<tag k="name" v="Merkebakken" />
		<tag k="place" v="farm" />
		<tag k="ssr:stedsnr" v="835289" />
	</node>
	<node lat="66.14932777651315" lon="12.55183612118388" id="-16676">
		<tag k="name" v="Innerhopan" />
		<tag k="place" v="farm" />
		<tag k="ssr:stedsnr" v="835254" />
	</node>
	<node lat="66.10646111501214" lon="12.570700002916837" id="-16680">
		<tag k="name" v="Breimo" />
		<tag k="place" v="farm" />
		<tag k="ssr:stedsnr" v="835379" />
	</node>
	<node lat="66.16020555924094" lon="12.793908342371735" id="-16681">
		<tag k="name" v="Moen" />
		<tag k="place" v="farm" />
		<tag k="ssr:stedsnr" v="835921" />
	</node>
	<node lat="66.1127305581875" lon="12.577286101943454" id="-16682">
		<tag k="name" v="Myrstad" />
		<tag k="place" v="farm" />
		<tag k="ssr:stedsnr" v="835358" />
	</node>
	<node lat="66.17127777750181" lon="12.559211100684182" id="-16695">
		<tag k="name" v="Nygård" />
		<tag k="place" v="farm" />
		<tag k="ssr:stedsnr" v="836386" />
	</node>
	<node lat="66.18115833571393" lon="12.72059444279418" id="-16702">
		<tag k="alt_name" v="Hov" />
		<tag k="name" v="Haugen" />
		<tag k="place" v="farm" />
		<tag k="ssr:stedsnr" v="865011" />
	</node>
	<node lat="66.10021627176985" lon="12.554429096724064" id="-16717">
		<tag k="fixme" v="consider place=hamlet" />
		<tag k="name" v="Holand" />
		<tag k="place" v="farm" />
		<tag k="ssr:stedsnr" v="865553" />
	</node>
	<node lat="66.10898611410693" lon="12.49049999010427" id="-16721">
		<tag k="alt_name" v="Solfjellsjyen" />
		<tag k="fixme" v="consider place=hamlet" />
		<tag k="name" v="Solfjellsjøen" />
		<tag k="place" v="village" />
		<tag k="ssr:stedsnr" v="865581" />
	</node>
	<node lat="66.17942222052278" lon="12.501333324608892" id="-16729">
		<tag k="fixme" v="consider place=hamlet" />
		<tag k="name" v="Titternes" />
		<tag k="place" v="farm" />
		<tag k="ssr:stedsnr" v="865694" />
	</node>
	<node lat="66.20210000084886" lon="12.554538888069699" id="-16746">
		<tag k="alt_name" v="Torsvik" />
		<tag k="name" v="Torsvikja" />
		<tag k="place" v="farm" />
		<tag k="ssr:stedsnr" v="874861" />
	</node>
	<node lat="66.09357777769323" lon="12.365858329426539" id="-16751">
		<tag k="fixme" v="multiple name tags, choose one and add the other to alt_name" />
		<tag k="name" v="Valen;Skagavalen" />
		<tag k="place" v="farm" />
		<tag k="ssr:stedsnr" v="941273" />
	</node>
	<node lat="66.20728333308108" lon="12.602547231097281" id="-16756">
		<tag k="name" v="Vonheim" />
		<tag k="place" v="farm" />
		<tag k="ssr:stedsnr" v="955652" />
	</node>
	<node lat="66.21718055628664" lon="12.579638887779689" id="-16759">
		<tag k="name" v="Heimland" />
		<tag k="place" v="farm" />
		<tag k="ssr:stedsnr" v="955730" />
	</node>
	<node lat="66.14789999615384" lon="12.543349994395744" id="-16762">
		<tag k="name" v="Kveldro" />
		<tag k="place" v="farm" />
		<tag k="ssr:stedsnr" v="956269" />
	</node>
	<node lat="66.0861222212405" lon="12.370397230619393" id="-16765">
		<tag k="name" v="Øvergården" />
		<tag k="place" v="farm" />
		<tag k="ssr:stedsnr" v="956281" />
	</node>
	<node lat="66.05196110782703" lon="12.508133334458137" id="-16775">
		<tag k="name" v="Fredheim" />
		<tag k="place" v="farm" />
		<tag k="ssr:stedsnr" v="957501" />
	</node>
	<node lat="66.17953055738911" lon="12.714786106469933" id="-16782">
		<tag k="name" v="Hovsgården" />
		<tag k="place" v="farm" />
		<tag k="ssr:stedsnr" v="957378" />
	</node>
	<node lat="66.1647536643858" lon="12.560796713725745" id="-16789">
		<tag k="fixme" v="consider place=hamlet" />
		<tag k="name" v="Åkerøya" />
		<tag k="place" v="farm" />
		<tag k="ssr:stedsnr" v="990315" />
	</node>
	<node lat="66.17645037448976" lon="12.562974886732574" id="-16790">
		<tag k="fixme" v="consider place=hamlet" />
		<tag k="name" v="Bø" />
		<tag k="place" v="farm" />
		<tag k="ssr:stedsnr" v="990317" />
	</node>
	<node lat="66.17439915597399" lon="12.539015007282307" id="-16791">
		<tag k="fixme" v="consider place=hamlet" />
		<tag k="name" v="Stavseng" />
		<tag k="place" v="farm" />
		<tag k="ssr:stedsnr" v="990318" />
	</node>
	<node lat="66.20511499951412" lon="12.584754666795194" id="-16792">
		<tag k="fixme" v="consider place=hamlet" />
		<tag k="name" v="Dønnes" />
		<tag k="place" v="farm" />
		<tag k="ssr:stedsnr" v="990334" />
	</node>
	<node lat="66.1545900569012" lon="12.609370980891908" id="-16793">
		<tag k="fixme" v="consider place=hamlet" />
		<tag k="name" v="Glein" />
		<tag k="place" v="farm" />
		<tag k="ssr:stedsnr" v="990335" />
	</node>
	<node lat="66.08728623454269" lon="12.587666268438074" id="-16794">
		<tag k="fixme" v="consider place=hamlet" />
		<tag k="name" v="Bjørn" />
		<tag k="place" v="farm" />
		<tag k="ssr:stedsnr" v="990370" />
	</node>
	<node lat="66.02076693710792" lon="12.481060292191197" id="-16795">
		<tag k="name" v="Ormsøya" />
		<tag k="place" v="locality" />
		<tag k="ssr:stedsnr" v="990375" />
	</node>
	<node lat="66.02385086327737" lon="12.496765304598485" id="-16796">
		<tag k="fixme" v="consider place=hamlet" />
		<tag k="name" v="Lisslauvøya" />
		<tag k="place" v="farm" />
		<tag k="ssr:stedsnr" v="990376" />
	</node>
	<node lat="66.03511259469582" lon="12.328479931285964" id="-16868">
		<tag k="fixme" v="consider place=hamlet" />
		<tag k="name" v="Åkvika" />
		<tag k="place" v="farm" />
		<tag k="ssr:stedsnr" v="1082848" />
	</node>
	<node lat="66.19692963721762" lon="12.613544597178924" id="-16869">
		<tag k="fixme" v="consider place=hamlet" />
		<tag k="name" v="Åkvika" />
		<tag k="place" v="farm" />
		<tag k="ssr:stedsnr" v="1082849" />
	</node>
</osm>
