<?xml version="1.0" encoding="UTF-8"?>
<osm version="0.6" generator="osmapis">
	<node id="336120566" lat="69.6690882" lon="19.8048465" version="3" timestamp="2022-07-08T04:32:34Z" changeset="123342203" uid="3497659" user="NKA">
		<tag k="name" v="Svensby - Bávttit" />
		<tag k="name:no" v="Svensby" />
		<tag k="name:ru" v="Свенсби" />
		<tag k="name:se" v="Bávttit" />
		<tag k="place" v="hamlet" />
		<tag k="ssr:stedsnr" v="79220" />
	</node>
	<node id="1849662773" lat="69.4413019" lon="20.1540066" version="6" timestamp="2022-07-08T04:32:34Z" changeset="123342203" uid="3497659" user="NKA">
		<tag k="alt_name:no" v="Furuflata" />
		<tag k="name" v="Furuflaten - Vuošvággi - Vuosvankka" />
		<tag k="name:fkv" v="Vuosvankka" />
		<tag k="name:no" v="Furuflaten" />
		<tag k="name:se" v="Vuošvággi" />
		<tag k="place" v="village" />
		<tag k="population" v="248" />
		<tag k="population:date" v="2021-01-01" />
		<tag k="ref:ssb_tettsted" v="8151" />
		<tag k="source:population" v="SSB - befolkning i tettstedet" />
		<tag k="ssr:stedsnr" v="139249" />
	</node>
	<node id="1989918444" lat="69.5762575" lon="20.2190704" version="9" timestamp="2022-07-08T04:32:34Z" changeset="123342203" uid="3497659" user="NKA">
		<tag k="alt_name:se" v="Muotki" />
		<tag k="description" v="This was name=Lyngen, the name of the fiord." />
		<tag k="loc_name:fkv" v="Muotka" />
		<tag k="loc_name:se" v="Ivgomuotki" />
		<tag k="name" v="Lyngseidet" />
		<tag k="name:fi" v="Yykeänmuotka" />
		<tag k="name:no" v="Lyngseidet" />
		<tag k="name:ru" v="Лингсеидет" />
		<tag k="name:se" v="Ivgumuotki" />
		<tag k="place" v="village" />
		<tag k="population" v="766" />
		<tag k="population:date" v="2021-01-01" />
		<tag k="ref:ssb_tettsted" v="8152" />
		<tag k="source:population" v="SSB - befolkning i tettstedet" />
		<tag k="ssr:stedsnr" v="503944" />
		<tag k="wikidata" v="Q787028" />
		<tag k="wikipedia" v="no:Lyngseidet" />
	</node>
	<node id="4422691295" lat="69.6791734" lon="20.2635473" version="2" timestamp="2022-07-08T04:32:34Z" changeset="123342203" uid="3497659" user="NKA">
		<tag k="name" v="Koppangen - Gohppi" />
		<tag k="name:no" v="Koppangen" />
		<tag k="name:se" v="Gohppi" />
		<tag k="place" v="hamlet" />
		<tag k="ssr:stedsnr" v="928016" />
	</node>
	<node id="4422691296" lat="69.6131869" lon="19.8805947" version="2" timestamp="2022-07-08T04:32:34Z" changeset="123342203" uid="3497659" user="NKA">
		<tag k="alt_name:no" v="Storsteinnes" />
		<tag k="name" v="Storsteinneset - Biehtárnjárga" />
		<tag k="name:no" v="Storsteinneset" />
		<tag k="name:se" v="Biehtárnjárga" />
		<tag k="place" v="hamlet" />
		<tag k="ssr:stedsnr" v="139974" />
	</node>
	<node id="4687581231" lat="69.6261639" lon="20.3417713" version="2" timestamp="2022-07-08T04:32:34Z" changeset="123342203" uid="3497659" user="NKA">
		<tag k="alt_name:no" v="Elvejord" />
		<tag k="name" v="Elvejorda - Vátnejohka" />
		<tag k="name:no" v="Elvejorda" />
		<tag k="name:se" v="Vátnejohka" />
		<tag k="place" v="hamlet" />
		<tag k="ssr:stedsnr" v="322975" />
	</node>
	<node id="5353236177" lat="69.7567822" lon="19.9252194" version="2" timestamp="2022-01-26T06:08:00Z" changeset="116609992" uid="3497659" user="NKA">
		<tag k="junction" v="yes" />
		<tag k="name" v="Botnkrysset" />
		<tag k="ssr:stedsnr" v="238030" />
	</node>
	<node id="5355307387" lat="69.7876286" lon="19.9539192" version="2" timestamp="2022-01-26T06:08:00Z" changeset="116609992" uid="3497659" user="NKA">
		<tag k="junction" v="yes" />
		<tag k="name" v="Wilhelmsenkrysset" />
		<tag k="ssr:stedsnr" v="420073" />
	</node>
	<node id="9873590192" lat="69.9016114" lon="20.1789811" version="1" timestamp="2022-07-08T04:32:34Z" changeset="123342203" uid="3497659" user="NKA">
		<tag k="name" v="Sandneset" />
		<tag k="place" v="hamlet" />
		<tag k="ssr:stedsnr" v="747754" />
	</node>
	<node id="9873590193" lat="69.9091032" lon="20.1613259" version="1" timestamp="2022-07-08T04:32:34Z" changeset="123342203" uid="3497659" user="NKA">
		<tag k="name" v="Hamneneset" />
		<tag k="place" v="hamlet" />
		<tag k="ssr:stedsnr" v="808749" />
	</node>
	<node id="9873590194" lat="69.5442583" lon="20.2196666" version="1" timestamp="2022-07-08T04:32:34Z" changeset="123342203" uid="3497659" user="NKA">
		<tag k="alt_name" v="Litleng" />
		<tag k="name" v="Lilleng" />
		<tag k="place" v="farm" />
		<tag k="ssr:stedsnr" v="564894" />
	</node>
	<node id="9873590195" lat="69.5787111" lon="20.2590111" version="1" timestamp="2022-07-08T04:32:34Z" changeset="123342203" uid="3497659" user="NKA">
		<tag k="alt_name" v="Sommarset" />
		<tag k="name" v="Sommarsetet" />
		<tag k="place" v="farm" />
		<tag k="ssr:stedsnr" v="443966" />
	</node>
	<node id="9873590196" lat="69.5428686" lon="20.2450875" version="1" timestamp="2022-07-08T04:32:34Z" changeset="123342203" uid="3497659" user="NKA">
		<tag k="name" v="Bukta" />
		<tag k="place" v="farm" />
		<tag k="ssr:stedsnr" v="451051" />
	</node>
	<node id="9873590197" lat="69.7150528" lon="20.264864" version="1" timestamp="2022-07-08T04:32:34Z" changeset="123342203" uid="3497659" user="NKA">
		<tag k="name" v="Strupen" />
		<tag k="place" v="locality" />
		<tag k="ssr:stedsnr" v="574498" />
	</node>
	<node id="9873590198" lat="69.8735278" lon="20.0776085" version="1" timestamp="2022-07-08T04:32:34Z" changeset="123342203" uid="3497659" user="NKA">
		<tag k="name" v="Haldibakk" />
		<tag k="place" v="farm" />
		<tag k="ssr:stedsnr" v="846670" />
	</node>
	<node id="9873590199" lat="69.4378001" lon="20.1431138" version="1" timestamp="2022-07-08T04:32:34Z" changeset="123342203" uid="3497659" user="NKA">
		<tag k="alt_name" v="Forlat;Forladt" />
		<tag k="name" v="Forlatt" />
		<tag k="place" v="farm" />
		<tag k="ssr:stedsnr" v="382238" />
	</node>
	<node id="9873590200" lat="69.8092194" lon="20.019189" version="1" timestamp="2022-07-08T04:32:34Z" changeset="123342203" uid="3497659" user="NKA">
		<tag k="name" v="Reinsmo" />
		<tag k="place" v="farm" />
		<tag k="ssr:stedsnr" v="808670" />
	</node>
	<node id="9873590201" lat="69.8146305" lon="20.0239499" version="1" timestamp="2022-07-08T04:32:34Z" changeset="123342203" uid="3497659" user="NKA">
		<tag k="name" v="Reinelva" />
		<tag k="place" v="farm" />
		<tag k="ssr:stedsnr" v="565684" />
	</node>
	<node id="9873590202" lat="69.6796493" lon="19.7737363" version="1" timestamp="2022-07-08T04:32:34Z" changeset="123342203" uid="3497659" user="NKA">
		<tag k="name" v="Ullsnes - Ulsnjárga" />
		<tag k="name:no" v="Ullsnes" />
		<tag k="name:se" v="Ulsnjárga" />
		<tag k="place" v="farm" />
		<tag k="ssr:stedsnr" v="322218" />
	</node>
	<node id="9873590203" lat="69.7789" lon="19.878636" version="1" timestamp="2022-07-08T04:32:34Z" changeset="123342203" uid="3497659" user="NKA">
		<tag k="alt_name" v="Løpvik" />
		<tag k="name" v="Laupvika" />
		<tag k="place" v="hamlet" />
		<tag k="ssr:stedsnr" v="808630" />
	</node>
	<node id="9873590204" lat="69.427975" lon="20.153175" version="1" timestamp="2022-07-08T04:32:34Z" changeset="123342203" uid="3497659" user="NKA">
		<tag k="name" v="Juv" />
		<tag k="place" v="farm" />
		<tag k="ssr:stedsnr" v="321261" />
	</node>
	<node id="9873590205" lat="69.4246417" lon="20.1580168" version="1" timestamp="2022-07-08T04:32:34Z" changeset="123342203" uid="3497659" user="NKA">
		<tag k="name" v="Solberg" />
		<tag k="place" v="farm" />
		<tag k="ssr:stedsnr" v="564258" />
	</node>
	<node id="9873590206" lat="69.4383415" lon="20.137146" version="1" timestamp="2022-07-08T04:32:34Z" changeset="123342203" uid="3497659" user="NKA">
		<tag k="name" v="Øvergård" />
		<tag k="place" v="farm" />
		<tag k="ssr:stedsnr" v="301071" />
	</node>
	<node id="9873590207" lat="69.7845743" lon="19.9088776" version="1" timestamp="2022-07-08T04:32:34Z" changeset="123342203" uid="3497659" user="NKA">
		<tag k="alt_name:no" v="Lattervik" />
		<tag k="name" v="Lattervika - Láhttárluokta" />
		<tag k="name:no" v="Lattervika" />
		<tag k="name:se" v="Láhttárluokta" />
		<tag k="place" v="hamlet" />
		<tag k="ssr:stedsnr" v="626651" />
	</node>
	<node id="9873590208" lat="69.6744917" lon="20.3669861" version="1" timestamp="2022-07-08T04:32:34Z" changeset="123342203" uid="3497659" user="NKA">
		<tag k="name" v="Hamna" />
		<tag k="place" v="locality" />
		<tag k="ssr:stedsnr" v="423007" />
	</node>
	<node id="9873590209" lat="69.9206667" lon="20.1622833" version="1" timestamp="2022-07-08T04:32:34Z" changeset="123342203" uid="3497659" user="NKA">
		<tag k="name" v="Slettvoll" />
		<tag k="place" v="farm" />
		<tag k="ssr:stedsnr" v="383740" />
	</node>
	<node id="9873590210" lat="69.6133538" lon="20.3358563" version="1" timestamp="2022-07-08T04:32:34Z" changeset="123342203" uid="3497659" user="NKA">
		<tag k="alt_name:no" v="Skinnelv" />
		<tag k="name" v="Skinnelva - Náhkkejohka" />
		<tag k="name:no" v="Skinnelva" />
		<tag k="name:se" v="Náhkkejohka" />
		<tag k="place" v="hamlet" />
		<tag k="ssr:stedsnr" v="322971" />
	</node>
	<node id="9873590211" lat="69.6773431" lon="20.3571228" version="1" timestamp="2022-07-08T04:32:34Z" changeset="123342203" uid="3497659" user="NKA">
		<tag k="name" v="Årøyholmen" />
		<tag k="place" v="locality" />
		<tag k="ssr:stedsnr" v="209036" />
	</node>
	<node id="9873590212" lat="69.639965" lon="20.3292642" version="1" timestamp="2022-07-08T04:32:34Z" changeset="123342203" uid="3497659" user="NKA">
		<tag k="alt_name:no" v="Årøybukt" />
		<tag k="name" v="Årøybukta - Luoktabahta" />
		<tag k="name:no" v="Årøybukta" />
		<tag k="name:se" v="Luoktabahta" />
		<tag k="place" v="hamlet" />
		<tag k="ssr:stedsnr" v="322034" />
	</node>
	<node id="9873590213" lat="69.5443706" lon="20.2603243" version="1" timestamp="2022-07-08T04:32:34Z" changeset="123342203" uid="3497659" user="NKA">
		<tag k="name" v="Nedre Storberget" />
		<tag k="place" v="farm" />
		<tag k="ssr:stedsnr" v="694039" />
	</node>
	<node id="9873590214" lat="69.8080927" lon="19.974481" version="1" timestamp="2022-07-08T04:32:34Z" changeset="123342203" uid="3497659" user="NKA">
		<tag k="name" v="Solheim" />
		<tag k="place" v="hamlet" />
		<tag k="ssr:stedsnr" v="80683" />
	</node>
	<node id="9873590215" lat="69.8077861" lon="20.0179834" version="1" timestamp="2022-07-08T04:32:34Z" changeset="123342203" uid="3497659" user="NKA">
		<tag k="name" v="Stakkenes" />
		<tag k="place" v="farm" />
		<tag k="ssr:stedsnr" v="323687" />
	</node>
	<node id="9873590216" lat="69.8512325" lon="20.0531975" version="1" timestamp="2022-07-08T04:32:34Z" changeset="123342203" uid="3497659" user="NKA">
		<tag k="name" v="Hesjebukta" />
		<tag k="place" v="hamlet" />
		<tag k="ssr:stedsnr" v="383708" />
	</node>
	<node id="9873608517" lat="69.5873073" lon="20.0356892" version="1" timestamp="2022-07-08T04:32:34Z" changeset="123342203" uid="3497659" user="NKA">
		<tag k="name" v="Heimkjær" />
		<tag k="place" v="farm" />
		<tag k="ssr:stedsnr" v="503917" />
	</node>
	<node id="9873608518" lat="69.9165586" lon="20.1881061" version="1" timestamp="2022-07-08T04:32:34Z" changeset="123342203" uid="3497659" user="NKA">
		<tag k="name" v="Haugnes" />
		<tag k="place" v="farm" />
		<tag k="ssr:stedsnr" v="504740" />
	</node>
	<node id="9873608519" lat="69.5949" lon="20.3049361" version="1" timestamp="2022-07-08T04:32:34Z" changeset="123342203" uid="3497659" user="NKA">
		<tag k="name" v="Nyhus" />
		<tag k="place" v="farm" />
		<tag k="ssr:stedsnr" v="79993" />
	</node>
	<node id="9873608520" lat="69.8373472" lon="19.987186" version="1" timestamp="2022-07-08T04:32:34Z" changeset="123342203" uid="3497659" user="NKA">
		<tag k="name" v="Soleng" />
		<tag k="place" v="farm" />
		<tag k="ssr:stedsnr" v="361058" />
	</node>
	<node id="9873608521" lat="69.8114069" lon="19.9785222" version="1" timestamp="2022-07-08T04:32:34Z" changeset="123342203" uid="3497659" user="NKA">
		<tag k="alt_name" v="Øren" />
		<tag k="name" v="Øra" />
		<tag k="place" v="farm" />
		<tag k="ssr:stedsnr" v="361016" />
	</node>
	<node id="9873608522" lat="69.6490417" lon="19.8224668" version="1" timestamp="2022-07-08T04:32:34Z" changeset="123342203" uid="3497659" user="NKA">
		<tag k="name" v="Tindevangen" />
		<tag k="place" v="neighbourhood" />
		<tag k="ssr:stedsnr" v="484846" />
	</node>
	<node id="9873608523" lat="69.8266528" lon="19.989075" version="1" timestamp="2022-07-08T04:32:34Z" changeset="123342203" uid="3497659" user="NKA">
		<tag k="name" v="Solvang" />
		<tag k="place" v="farm" />
		<tag k="ssr:stedsnr" v="262662" />
	</node>
	<node id="9873608524" lat="69.84515" lon="20.3570722" version="1" timestamp="2022-07-08T04:32:34Z" changeset="123342203" uid="3497659" user="NKA">
		<tag k="name" v="Rappgammen" />
		<tag k="place" v="locality" />
		<tag k="ssr:stedsnr" v="929700" />
	</node>
	<node id="9873608525" lat="69.9259134" lon="20.1625726" version="1" timestamp="2022-07-08T04:32:34Z" changeset="123342203" uid="3497659" user="NKA">
		<tag k="name" v="Mo" />
		<tag k="place" v="hamlet" />
		<tag k="ssr:stedsnr" v="444715" />
	</node>
	<node id="9873608526" lat="69.8417112" lon="19.9771971" version="1" timestamp="2022-07-08T04:32:34Z" changeset="123342203" uid="3497659" user="NKA">
		<tag k="name" v="Vengsteingård" />
		<tag k="place" v="farm" />
		<tag k="ssr:stedsnr" v="268702" />
	</node>
	<node id="9873608527" lat="69.8342277" lon="20.0375777" version="1" timestamp="2022-07-08T04:32:34Z" changeset="123342203" uid="3497659" user="NKA">
		<tag k="name" v="Nymo" />
		<tag k="place" v="farm" />
		<tag k="ssr:stedsnr" v="262661" />
	</node>
	<node id="9873608528" lat="69.5423889" lon="20.2420417" version="1" timestamp="2022-07-08T04:32:34Z" changeset="123342203" uid="3497659" user="NKA">
		<tag k="name" v="Vindset" />
		<tag k="place" v="farm" />
		<tag k="ssr:stedsnr" v="443935" />
	</node>
	<node id="9873608529" lat="69.5964583" lon="20.2745778" version="1" timestamp="2022-07-08T04:32:34Z" changeset="123342203" uid="3497659" user="NKA">
		<tag k="name" v="Fjellbu" />
		<tag k="place" v="farm" />
		<tag k="ssr:stedsnr" v="564992" />
	</node>
	<node id="9873608530" lat="69.5879361" lon="20.0809167" version="1" timestamp="2022-07-08T04:32:34Z" changeset="123342203" uid="3497659" user="NKA">
		<tag k="name" v="Høgstad" />
		<tag k="place" v="farm" />
		<tag k="ssr:stedsnr" v="382951" />
	</node>
	<node id="9873608531" lat="69.7838666" lon="19.9276028" version="1" timestamp="2022-07-08T04:32:34Z" changeset="123342203" uid="3497659" user="NKA">
		<tag k="name" v="Skoghaug" />
		<tag k="place" v="farm" />
		<tag k="ssr:stedsnr" v="177073" />
	</node>
	<node id="9873608532" lat="69.6178382" lon="19.8677277" version="1" timestamp="2022-07-08T04:32:34Z" changeset="123342203" uid="3497659" user="NKA">
		<tag k="name" v="Heimtun" />
		<tag k="place" v="farm" />
		<tag k="ssr:stedsnr" v="504979" />
	</node>
	<node id="9873608533" lat="69.6557139" lon="19.8226083" version="1" timestamp="2022-07-08T04:32:34Z" changeset="123342203" uid="3497659" user="NKA">
		<tag k="alt_name" v="Berg, yt" />
		<tag k="name" v="Ytre Berg" />
		<tag k="place" v="farm" />
		<tag k="ssr:stedsnr" v="686046" />
	</node>
	<node id="9873608534" lat="69.8888811" lon="20.1654913" version="1" timestamp="2022-07-08T04:32:34Z" changeset="123342203" uid="3497659" user="NKA">
		<tag k="name" v="Storvollen" />
		<tag k="place" v="farm" />
		<tag k="ssr:stedsnr" v="140683" />
	</node>
	<node id="9873608535" lat="69.7589722" lon="19.9905555" version="1" timestamp="2022-07-08T04:32:34Z" changeset="123342203" uid="3497659" user="NKA">
		<tag k="name" v="Finnheimen" />
		<tag k="place" v="locality" />
		<tag k="ssr:stedsnr" v="663015" />
	</node>
	<node id="9873608536" lat="69.6217413" lon="19.8464913" version="1" timestamp="2022-07-08T04:32:34Z" changeset="123342203" uid="3497659" user="NKA">
		<tag k="alt_name:no" v="Beinsnes;Bensnes" />
		<tag k="name" v="Bentsnes - Dáktenjárga" />
		<tag k="name:no" v="Bentsnes" />
		<tag k="name:se" v="Dáktenjárga" />
		<tag k="place" v="hamlet" />
		<tag k="ssr:stedsnr" v="382981" />
	</node>
	<node id="9873608537" lat="69.7322658" lon="19.8526987" version="1" timestamp="2022-07-08T04:32:34Z" changeset="123342203" uid="3497659" user="NKA">
		<tag k="alt_name:no" v="Jægervatn" />
		<tag k="name" v="Jægervatnet - Jávremohkki" />
		<tag k="name:no" v="Jægervatnet" />
		<tag k="name:se" v="Jávremohkki" />
		<tag k="place" v="hamlet" />
		<tag k="ssr:stedsnr" v="330851" />
	</node>
	<node id="9873608538" lat="69.6632944" lon="19.8159361" version="1" timestamp="2022-07-08T04:32:34Z" changeset="123342203" uid="3497659" user="NKA">
		<tag k="name" v="Stakkeng" />
		<tag k="place" v="farm" />
		<tag k="ssr:stedsnr" v="239306" />
	</node>
	<node id="9873608539" lat="69.8242513" lon="19.947805" version="1" timestamp="2022-07-08T04:32:34Z" changeset="123342203" uid="3497659" user="NKA">
		<tag k="name" v="Ravik" />
		<tag k="place" v="hamlet" />
		<tag k="ssr:stedsnr" v="140703" />
	</node>
	<node id="9873608540" lat="69.714006" lon="19.8017075" version="1" timestamp="2022-07-08T04:32:34Z" changeset="123342203" uid="3497659" user="NKA">
		<tag k="alt_name" v="Ytre Bakkeby;Bakkeby, yt" />
		<tag k="name" v="Bakkeby" />
		<tag k="place" v="farm" />
		<tag k="ssr:stedsnr" v="261189" />
	</node>
	<node id="9873608541" lat="69.5893182" lon="20.2841705" version="1" timestamp="2022-07-08T04:32:34Z" changeset="123342203" uid="3497659" user="NKA">
		<tag k="name" v="Nygård" />
		<tag k="place" v="farm" />
		<tag k="ssr:stedsnr" v="421967" />
	</node>
	<node id="9873608542" lat="69.7278277" lon="19.8713778" version="1" timestamp="2022-07-08T04:32:34Z" changeset="123342203" uid="3497659" user="NKA">
		<tag k="name" v="Augustheimen" />
		<tag k="place" v="locality" />
		<tag k="ssr:stedsnr" v="57124" />
	</node>
	<node id="9873608543" lat="69.7364" lon="19.8474278" version="1" timestamp="2022-07-08T04:32:34Z" changeset="123342203" uid="3497659" user="NKA">
		<tag k="name" v="Solli" />
		<tag k="place" v="farm" />
		<tag k="ssr:stedsnr" v="504072" />
	</node>
	<node id="9873608544" lat="69.6644917" lon="20.2703888" version="1" timestamp="2022-07-08T04:32:34Z" changeset="123342203" uid="3497659" user="NKA">
		<tag k="name" v="Skogli" />
		<tag k="place" v="farm" />
		<tag k="ssr:stedsnr" v="625048" />
	</node>
	<node id="9873608545" lat="69.6976917" lon="19.7915001" version="1" timestamp="2022-07-08T04:32:34Z" changeset="123342203" uid="3497659" user="NKA">
		<tag k="name" v="Nyrud" />
		<tag k="place" v="farm" />
		<tag k="ssr:stedsnr" v="79230" />
	</node>
	<node id="9873608546" lat="69.6543605" lon="20.2768654" version="1" timestamp="2022-07-08T04:32:34Z" changeset="123342203" uid="3497659" user="NKA">
		<tag k="name" v="Lunde" />
		<tag k="place" v="farm" />
		<tag k="ssr:stedsnr" v="625059" />
	</node>
	<node id="9873608547" lat="69.8139028" lon="19.9304138" version="1" timestamp="2022-07-08T04:32:34Z" changeset="123342203" uid="3497659" user="NKA">
		<tag k="name" v="Ytterdalen" />
		<tag k="place" v="locality" />
		<tag k="ssr:stedsnr" v="88130" />
	</node>
	<node id="9873608548" lat="69.7859923" lon="19.9073713" version="1" timestamp="2022-07-08T04:32:34Z" changeset="123342203" uid="3497659" user="NKA">
		<tag k="name" v="Lattervikskjæret" />
		<tag k="place" v="farm" />
		<tag k="ssr:stedsnr" v="86267" />
	</node>
	<node id="9873608549" lat="69.6446861" lon="20.3245945" version="1" timestamp="2022-07-08T04:32:34Z" changeset="123342203" uid="3497659" user="NKA">
		<tag k="name" v="Nordberg" />
		<tag k="place" v="farm" />
		<tag k="ssr:stedsnr" v="625026" />
	</node>
	<node id="9873608550" lat="69.8779027" lon="20.0806971" version="1" timestamp="2022-07-08T04:32:34Z" changeset="123342203" uid="3497659" user="NKA">
		<tag k="name" v="Båtnes" />
		<tag k="place" v="hamlet" />
		<tag k="ssr:stedsnr" v="939597" />
	</node>
	<node id="9873608551" lat="69.6988972" lon="19.8953029" version="1" timestamp="2022-07-08T04:32:34Z" changeset="123342203" uid="3497659" user="NKA">
		<tag k="name" v="Kristofferstua" />
		<tag k="place" v="isolated_dwelling" />
		<tag k="ssr:stedsnr" v="794065" />
	</node>
	<node id="9873608552" lat="69.6179978" lon="19.8538093" version="1" timestamp="2022-07-08T04:32:34Z" changeset="123342203" uid="3497659" user="NKA">
		<tag k="name" v="Haugen" />
		<tag k="place" v="farm" />
		<tag k="ssr:stedsnr" v="201981" />
	</node>
	<node id="9873608553" lat="69.8050833" lon="20.0132666" version="1" timestamp="2022-07-08T04:32:34Z" changeset="123342203" uid="3497659" user="NKA">
		<tag k="name" v="Veidal" />
		<tag k="place" v="hamlet" />
		<tag k="ssr:stedsnr" v="444670" />
	</node>
	<node id="9873608554" lat="69.72895" lon="19.8473111" version="1" timestamp="2022-07-08T04:32:34Z" changeset="123342203" uid="3497659" user="NKA">
		<tag k="name" v="Bergly" />
		<tag k="place" v="farm" />
		<tag k="ssr:stedsnr" v="564092" />
	</node>
	<node id="9873608555" lat="69.727425" lon="19.8399418" version="1" timestamp="2022-07-08T04:32:34Z" changeset="123342203" uid="3497659" user="NKA">
		<tag k="name" v="Bjørklund" />
		<tag k="place" v="farm" />
		<tag k="ssr:stedsnr" v="564091" />
	</node>
	<node id="9873608556" lat="69.7299723" lon="19.8613973" version="1" timestamp="2022-07-08T04:32:34Z" changeset="123342203" uid="3497659" user="NKA">
		<tag k="name" v="Sævnes" />
		<tag k="place" v="farm" />
		<tag k="ssr:stedsnr" v="545760" />
	</node>
	<node id="9873608557" lat="69.4600081" lon="20.204344" version="1" timestamp="2022-07-08T04:32:34Z" changeset="123342203" uid="3497659" user="NKA">
		<tag k="alt_name:no" v="Sandvik" />
		<tag k="loc_name:no" v="Hietalahti" />
		<tag k="name" v="Sandvika - Čuđeluokta" />
		<tag k="name:no" v="Sandvika" />
		<tag k="name:se" v="Čuđeluokta" />
		<tag k="place" v="farm" />
		<tag k="ssr:stedsnr" v="261245" />
	</node>
	<node id="9873608558" lat="69.892743" lon="20.1048657" version="1" timestamp="2022-07-08T04:32:34Z" changeset="123342203" uid="3497659" user="NKA">
		<tag k="name" v="Eidstranda" />
		<tag k="place" v="hamlet" />
		<tag k="ssr:stedsnr" v="444748" />
	</node>
	<node id="9873608559" lat="69.928225" lon="20.1939139" version="1" timestamp="2022-07-08T04:32:34Z" changeset="123342203" uid="3497659" user="NKA">
		<tag k="name" v="Seljestad" />
		<tag k="place" v="farm" />
		<tag k="ssr:stedsnr" v="261690" />
	</node>
	<node id="9873608560" lat="69.4987389" lon="20.2096083" version="1" timestamp="2022-07-08T04:32:34Z" changeset="123342203" uid="3497659" user="NKA">
		<tag k="name" v="Langgård" />
		<tag k="place" v="farm" />
		<tag k="ssr:stedsnr" v="966584" />
	</node>
	<node id="9873608561" lat="69.6418389" lon="20.3286277" version="1" timestamp="2022-07-08T04:32:34Z" changeset="123342203" uid="3497659" user="NKA">
		<tag k="name" v="Nygård" />
		<tag k="place" v="farm" />
		<tag k="ssr:stedsnr" v="239074" />
	</node>
	<node id="9873608562" lat="69.7251861" lon="19.8295972" version="1" timestamp="2022-07-08T04:32:34Z" changeset="123342203" uid="3497659" user="NKA">
		<tag k="name" v="Fredheim" />
		<tag k="place" v="farm" />
		<tag k="ssr:stedsnr" v="178214" />
	</node>
	<node id="9873608563" lat="69.7349361" lon="19.8728473" version="1" timestamp="2022-07-08T04:32:34Z" changeset="123342203" uid="3497659" user="NKA">
		<tag k="name" v="Skogen" />
		<tag k="place" v="farm" />
		<tag k="ssr:stedsnr" v="139113" />
	</node>
	<node id="9873608564" lat="69.6176842" lon="19.870756" version="1" timestamp="2022-07-08T04:32:34Z" changeset="123342203" uid="3497659" user="NKA">
		<tag k="name" v="Forsvegen" />
		<tag k="place" v="farm" />
		<tag k="ssr:stedsnr" v="909870" />
	</node>
	<node id="9873608565" lat="69.6686179" lon="19.8066996" version="1" timestamp="2022-07-08T04:32:34Z" changeset="123342203" uid="3497659" user="NKA">
		<tag k="name" v="Gamslett" />
		<tag k="place" v="farm" />
		<tag k="ssr:stedsnr" v="876047" />
	</node>
	<node id="9873608566" lat="69.6699722" lon="19.8032055" version="1" timestamp="2022-07-08T04:32:34Z" changeset="123342203" uid="3497659" user="NKA">
		<tag k="name" v="Solheim" />
		<tag k="place" v="farm" />
		<tag k="ssr:stedsnr" v="846235" />
	</node>
	<node id="9873608567" lat="69.7074458" lon="19.7947429" version="1" timestamp="2022-07-08T04:32:34Z" changeset="123342203" uid="3497659" user="NKA">
		<tag k="name" v="Gammelgard" />
		<tag k="place" v="isolated_dwelling" />
		<tag k="ssr:stedsnr" v="625191" />
	</node>
	<node id="9873608568" lat="69.4968666" lon="20.2022832" version="1" timestamp="2022-07-08T04:32:34Z" changeset="123342203" uid="3497659" user="NKA">
		<tag k="name" v="Skogvang" />
		<tag k="place" v="farm" />
		<tag k="ssr:stedsnr" v="504262" />
	</node>
	<node id="9873608569" lat="69.5853463" lon="20.1465873" version="1" timestamp="2022-07-08T04:32:34Z" changeset="123342203" uid="3497659" user="NKA">
		<tag k="name" v="Kobbenes" />
		<tag k="place" v="farm" />
		<tag k="ssr:stedsnr" v="602677" />
	</node>
	<node id="9873608570" lat="69.733375" lon="19.8660222" version="1" timestamp="2022-07-08T04:32:34Z" changeset="123342203" uid="3497659" user="NKA">
		<tag k="name" v="Vangen" />
		<tag k="place" v="farm" />
		<tag k="ssr:stedsnr" v="807118" />
	</node>
	<node id="9873608571" lat="69.5901466" lon="20.0132348" version="1" timestamp="2022-07-08T04:32:34Z" changeset="123342203" uid="3497659" user="NKA">
		<tag k="name" v="Tytebærvik" />
		<tag k="place" v="farm" />
		<tag k="ssr:stedsnr" v="602099" />
	</node>
	<node id="9873608572" lat="69.620975" lon="19.8434193" version="1" timestamp="2022-07-08T04:32:34Z" changeset="123342203" uid="3497659" user="NKA">
		<tag k="alt_name" v="Breidvoll" />
		<tag k="name" v="Breivoll" />
		<tag k="place" v="farm" />
		<tag k="ssr:stedsnr" v="746981" />
	</node>
	<node id="9873608573" lat="69.58735" lon="20.2642555" version="1" timestamp="2022-07-08T04:32:34Z" changeset="123342203" uid="3497659" user="NKA">
		<tag k="name" v="Berge" />
		<tag k="place" v="farm" />
		<tag k="ssr:stedsnr" v="79942" />
	</node>
	<node id="9873608574" lat="69.8155114" lon="19.9815659" version="1" timestamp="2022-07-08T04:32:34Z" changeset="123342203" uid="3497659" user="NKA">
		<tag k="name" v="Rydningen" />
		<tag k="place" v="farm" />
		<tag k="ssr:stedsnr" v="444666" />
	</node>
	<node id="9873608575" lat="69.5909868" lon="20.2848723" version="1" timestamp="2022-07-08T04:32:34Z" changeset="123342203" uid="3497659" user="NKA">
		<tag k="name" v="Kalfaret" />
		<tag k="place" v="farm" />
		<tag k="ssr:stedsnr" v="87208" />
	</node>
	<node id="9873608576" lat="69.6531456" lon="19.8225451" version="1" timestamp="2022-07-08T04:32:34Z" changeset="123342203" uid="3497659" user="NKA">
		<tag k="name" v="Toften" />
		<tag k="place" v="farm" />
		<tag k="ssr:stedsnr" v="261057" />
	</node>
	<node id="9873608577" lat="69.8300111" lon="20.0357889" version="1" timestamp="2022-07-08T04:32:34Z" changeset="123342203" uid="3497659" user="NKA">
		<tag k="name" v="Rabben" />
		<tag k="place" v="farm" />
		<tag k="ssr:stedsnr" v="444647" />
	</node>
	<node id="9873608578" lat="69.4447657" lon="20.1470771" version="1" timestamp="2022-07-08T04:32:34Z" changeset="123342203" uid="3497659" user="NKA">
		<tag k="alt_name" v="Lyngsdal;Dalen" />
		<tag k="name" v="Lyngsdalen" />
		<tag k="place" v="farm" />
		<tag k="ssr:stedsnr" v="443255" />
	</node>
	<node id="9873608579" lat="69.6471334" lon="20.310864" version="1" timestamp="2022-07-08T04:32:34Z" changeset="123342203" uid="3497659" user="NKA">
		<tag k="name" v="Marvoll" />
		<tag k="place" v="farm" />
		<tag k="ssr:stedsnr" v="139059" />
	</node>
	<node id="9873608580" lat="69.7052528" lon="19.9285334" version="1" timestamp="2022-07-08T04:32:34Z" changeset="123342203" uid="3497659" user="NKA">
		<tag k="historic" v="shieling" />
		<tag k="name" v="Sætra" />
		<tag k="place" v="isolated_dwelling" />
		<tag k="ssr:stedsnr" v="734123" />
	</node>
	<node id="9873608581" lat="69.5407834" lon="20.2319472" version="1" timestamp="2022-07-08T04:32:34Z" changeset="123342203" uid="3497659" user="NKA">
		<tag k="name" v="Sommarsetet" />
		<tag k="place" v="locality" />
		<tag k="ssr:stedsnr" v="57771" />
	</node>
	<node id="9873608582" lat="69.8189455" lon="19.984531" version="1" timestamp="2022-07-08T04:32:34Z" changeset="123342203" uid="3497659" user="NKA">
		<tag k="name" v="Haugjord" />
		<tag k="place" v="farm" />
		<tag k="ssr:stedsnr" v="687670" />
	</node>
	<node id="9873608583" lat="69.619275" lon="19.8661582" version="1" timestamp="2022-07-08T04:32:34Z" changeset="123342203" uid="3497659" user="NKA">
		<tag k="name" v="Høgtun" />
		<tag k="place" v="farm" />
		<tag k="ssr:stedsnr" v="746979" />
	</node>
	<node id="9873608584" lat="69.4481191" lon="20.1559024" version="1" timestamp="2022-07-08T04:32:34Z" changeset="123342203" uid="3497659" user="NKA">
		<tag k="name" v="Lanes" />
		<tag k="place" v="farm" />
		<tag k="ssr:stedsnr" v="503219" />
	</node>
	<node id="9873608585" lat="69.8908327" lon="20.1608346" version="1" timestamp="2022-07-08T04:32:34Z" changeset="123342203" uid="3497659" user="NKA">
		<tag k="name" v="Straumen" />
		<tag k="place" v="hamlet" />
		<tag k="ssr:stedsnr" v="262778" />
	</node>
	<node id="9873608586" lat="69.9313987" lon="20.1332487" version="1" timestamp="2022-07-08T04:32:34Z" changeset="123342203" uid="3497659" user="NKA">
		<tag k="name" v="Arneng" />
		<tag k="place" v="farm" />
		<tag k="ssr:stedsnr" v="929712" />
	</node>
	<node id="9873608587" lat="69.5466003" lon="20.2182186" version="1" timestamp="2022-07-08T04:32:34Z" changeset="123342203" uid="3497659" user="NKA">
		<tag k="name" v="Ringstad" />
		<tag k="place" v="farm" />
		<tag k="ssr:stedsnr" v="299761" />
	</node>
	<node id="9873608588" lat="69.8933829" lon="20.1796738" version="1" timestamp="2022-07-08T04:32:34Z" changeset="123342203" uid="3497659" user="NKA">
		<tag k="name" v="Lenangsstraumen" />
		<tag k="place" v="hamlet" />
		<tag k="ssr:stedsnr" v="756069" />
	</node>
	<node id="9873608589" lat="69.7998202" lon="19.9666104" version="1" timestamp="2022-07-08T04:32:34Z" changeset="123342203" uid="3497659" user="NKA">
		<tag k="name" v="Sørstad" />
		<tag k="place" v="farm" />
		<tag k="ssr:stedsnr" v="119004" />
	</node>
	<node id="9873608590" lat="69.5432324" lon="20.2438646" version="1" timestamp="2022-07-08T04:32:34Z" changeset="123342203" uid="3497659" user="NKA">
		<tag k="loc_name:fkv" v="Ala-Karineimi" />
		<tag k="name" v="Karnes - Gárnjárga" />
		<tag k="name:no" v="Karnes" />
		<tag k="name:se" v="Gárnjárga" />
		<tag k="place" v="hamlet" />
		<tag k="ssr:stedsnr" v="271522" />
	</node>
	<node id="9873608591" lat="69.7824245" lon="19.9048815" version="1" timestamp="2022-07-08T04:32:34Z" changeset="123342203" uid="3497659" user="NKA">
		<tag k="name" v="Mellomvoll" />
		<tag k="place" v="farm" />
		<tag k="ssr:stedsnr" v="330046" />
	</node>
	<node id="9873608592" lat="69.8068389" lon="19.9241279" version="1" timestamp="2022-07-08T04:32:34Z" changeset="123342203" uid="3497659" user="NKA">
		<tag k="name" v="Innerdalen" />
		<tag k="place" v="locality" />
		<tag k="ssr:stedsnr" v="268156" />
	</node>
	<node id="9873608593" lat="69.616375" lon="20.3445028" version="1" timestamp="2022-07-08T04:32:34Z" changeset="123342203" uid="3497659" user="NKA">
		<tag k="name" v="Skogset" />
		<tag k="place" v="farm" />
		<tag k="ssr:stedsnr" v="686980" />
	</node>
	<node id="9873608594" lat="69.7029596" lon="19.7953976" version="1" timestamp="2022-07-08T04:32:34Z" changeset="123342203" uid="3497659" user="NKA">
		<tag k="alt_name" v="Indre Bakkeby;Bakkeby, in" />
		<tag k="name" v="Bakkeby" />
		<tag k="place" v="farm" />
		<tag k="ssr:stedsnr" v="686184" />
	</node>
	<node id="9873608595" lat="69.9298472" lon="20.1256805" version="1" timestamp="2022-07-08T04:32:34Z" changeset="123342203" uid="3497659" user="NKA">
		<tag k="name" v="Arnenga" />
		<tag k="place" v="locality" />
		<tag k="ssr:stedsnr" v="119893" />
	</node>
	<node id="9873608596" lat="69.6631667" lon="20.2720057" version="1" timestamp="2022-07-08T04:32:34Z" changeset="123342203" uid="3497659" user="NKA">
		<tag k="name" v="Brattås" />
		<tag k="place" v="farm" />
		<tag k="ssr:stedsnr" v="868045" />
	</node>
	<node id="9873608597" lat="69.623825" lon="20.2649112" version="1" timestamp="2022-07-08T04:32:34Z" changeset="123342203" uid="3497659" user="NKA">
		<tag k="name" v="Várduhytta" />
		<tag k="place" v="isolated_dwelling" />
		<tag k="ssr:stedsnr" v="868976" />
	</node>
	<node id="9873608598" lat="69.5403333" lon="20.2448971" version="1" timestamp="2022-07-08T04:32:34Z" changeset="123342203" uid="3497659" user="NKA">
		<tag k="name" v="Karnes" />
		<tag k="place" v="farm" />
		<tag k="ssr:stedsnr" v="868884" />
	</node>
	<node id="9873608599" lat="69.6567389" lon="19.8215029" version="1" timestamp="2022-07-08T04:32:34Z" changeset="123342203" uid="3497659" user="NKA">
		<tag k="name" v="Svensby" />
		<tag k="place" v="farm" />
		<tag k="ssr:stedsnr" v="663283" />
	</node>
	<node id="9873608600" lat="69.5240417" lon="20.2335251" version="1" timestamp="2022-07-08T04:32:34Z" changeset="123342203" uid="3497659" user="NKA">
		<tag k="name" v="Mellomjord" />
		<tag k="place" v="farm" />
		<tag k="ssr:stedsnr" v="504926" />
	</node>
	<node id="9873608601" lat="69.5577212" lon="20.2111129" version="1" timestamp="2022-07-08T04:32:34Z" changeset="123342203" uid="3497659" user="NKA">
		<tag k="alt_name:no" v="Karnes" />
		<tag k="loc_name:se" v="Finnavuolli" />
		<tag k="name" v="Ytre Karnes" />
		<tag k="name:no" v="Ytre Karnes" />
		<tag k="place" v="farm" />
		<tag k="ssr:stedsnr" v="746888" />
	</node>
	<node id="9873608602" lat="69.5912024" lon="20.2772141" version="1" timestamp="2022-07-08T04:32:34Z" changeset="123342203" uid="3497659" user="NKA">
		<tag k="alt_name:no" v="Rotenvika;Rottenvik" />
		<tag k="loc_name:fkv" v="Kuotsavuopio;Mätälahti" />
		<tag k="name" v="Rottenvika - Guohcavuohppi" />
		<tag k="name:no" v="Rottenvika" />
		<tag k="name:se" v="Guohcavuohppi" />
		<tag k="place" v="hamlet" />
		<tag k="ssr:stedsnr" v="746944" />
	</node>
	<node id="9873608603" lat="69.9157115" lon="20.1614763" version="1" timestamp="2022-07-08T04:32:34Z" changeset="123342203" uid="3497659" user="NKA">
		<tag k="name" v="Tangen" />
		<tag k="place" v="farm" />
		<tag k="ssr:stedsnr" v="504741" />
	</node>
	<node id="9873608604" lat="69.5590528" lon="20.0952888" version="1" timestamp="2022-07-08T04:32:34Z" changeset="123342203" uid="3497659" user="NKA">
		<tag k="name" v="Gjerdvassbu" />
		<tag k="place" v="isolated_dwelling" />
		<tag k="ssr:stedsnr" v="746900" />
	</node>
	<node id="9873608605" lat="69.5936255" lon="20.2993092" version="1" timestamp="2022-07-08T04:32:34Z" changeset="123342203" uid="3497659" user="NKA">
		<tag k="name" v="Skog" />
		<tag k="place" v="farm" />
		<tag k="ssr:stedsnr" v="685945" />
	</node>
	<node id="9873608606" lat="69.7378028" lon="19.8499361" version="1" timestamp="2022-07-08T04:32:34Z" changeset="123342203" uid="3497659" user="NKA">
		<tag k="name" v="Solvoll" />
		<tag k="place" v="farm" />
		<tag k="ssr:stedsnr" v="261098" />
	</node>
	<node id="9873608607" lat="69.5850143" lon="20.2650962" version="1" timestamp="2022-07-08T04:32:34Z" changeset="123342203" uid="3497659" user="NKA">
		<tag k="name" v="Sjåberg" />
		<tag k="place" v="hamlet" />
		<tag k="ssr:stedsnr" v="564967" />
	</node>
	<node id="9873608608" lat="69.5893111" lon="20.2962028" version="1" timestamp="2022-07-08T04:32:34Z" changeset="123342203" uid="3497659" user="NKA">
		<tag k="name" v="Nyberg" />
		<tag k="place" v="farm" />
		<tag k="ssr:stedsnr" v="139939" />
	</node>
	<node id="9873608609" lat="69.6711333" lon="20.268739" version="1" timestamp="2022-07-08T04:32:34Z" changeset="123342203" uid="3497659" user="NKA">
		<tag k="name" v="Sommarsetet" />
		<tag k="place" v="locality" />
		<tag k="ssr:stedsnr" v="423108" />
	</node>
	<node id="9873608610" lat="69.8385615" lon="19.9879448" version="1" timestamp="2022-07-08T04:32:34Z" changeset="123342203" uid="3497659" user="NKA">
		<tag k="name" v="Styrmannstøa" />
		<tag k="place" v="hamlet" />
		<tag k="ssr:stedsnr" v="262747" />
	</node>
	<node id="9873608611" lat="69.821725" lon="19.9857806" version="1" timestamp="2022-07-08T04:32:34Z" changeset="123342203" uid="3497659" user="NKA">
		<tag k="name" v="Torheim" />
		<tag k="place" v="farm" />
		<tag k="ssr:stedsnr" v="383667" />
	</node>
	<node id="9873608612" lat="69.8041453" lon="19.9710206" version="1" timestamp="2022-07-08T04:32:34Z" changeset="123342203" uid="3497659" user="NKA">
		<tag k="name" v="Grindvoll" />
		<tag k="place" v="farm" />
		<tag k="ssr:stedsnr" v="786021" />
	</node>
	<node id="9873608613" lat="69.8248777" lon="19.9477417" version="1" timestamp="2022-07-08T04:32:34Z" changeset="123342203" uid="3497659" user="NKA">
		<tag k="name" v="Sørvoll" />
		<tag k="place" v="farm" />
		<tag k="ssr:stedsnr" v="299895" />
	</node>
	<node id="9873608614" lat="69.5943778" lon="20.314289" version="1" timestamp="2022-07-08T04:32:34Z" changeset="123342203" uid="3497659" user="NKA">
		<tag k="name" v="Sommarsetet" />
		<tag k="place" v="locality" />
		<tag k="ssr:stedsnr" v="967940" />
	</node>
	<node id="9873608615" lat="69.5268556" lon="20.22075" version="1" timestamp="2022-07-08T04:32:34Z" changeset="123342203" uid="3497659" user="NKA">
		<tag k="name" v="Hansnes" />
		<tag k="place" v="farm" />
		<tag k="ssr:stedsnr" v="261897" />
	</node>
	<node id="9873608616" lat="69.5193216" lon="20.236273" version="1" timestamp="2022-07-08T04:32:34Z" changeset="123342203" uid="3497659" user="NKA">
		<tag k="name" v="Nerberg" />
		<tag k="place" v="farm" />
		<tag k="ssr:stedsnr" v="269042" />
	</node>
	<node id="9873608617" lat="69.4406977" lon="20.1454749" version="1" timestamp="2022-07-08T04:32:34Z" changeset="123342203" uid="3497659" user="NKA">
		<tag k="name" v="Hamnvik" />
		<tag k="place" v="farm" />
		<tag k="ssr:stedsnr" v="1077334" />
	</node>
	<node id="9873608618" lat="69.6350834" lon="19.8235335" version="1" timestamp="2022-07-08T04:32:34Z" changeset="123342203" uid="3497659" user="NKA">
		<tag k="name" v="Kvitstein" />
		<tag k="place" v="farm" />
		<tag k="ssr:stedsnr" v="57259" />
	</node>
	<node id="9873608619" lat="69.7975085" lon="19.9648799" version="1" timestamp="2022-07-08T04:32:34Z" changeset="123342203" uid="3497659" user="NKA">
		<tag k="name" v="Skoglund" />
		<tag k="place" v="farm" />
		<tag k="ssr:stedsnr" v="687697" />
	</node>
	<node id="9873608620" lat="69.9474528" lon="20.2220862" version="1" timestamp="2022-07-08T04:32:34Z" changeset="123342203" uid="3497659" user="NKA">
		<tag k="alt_name" v="Russelven;Russelv" />
		<tag k="name" v="Russelva" />
		<tag k="place" v="hamlet" />
		<tag k="ssr:stedsnr" v="747648" />
	</node>
	<node id="9873608621" lat="69.4431833" lon="20.1122251" version="1" timestamp="2022-07-08T04:32:34Z" changeset="123342203" uid="3497659" user="NKA">
		<tag k="name" v="Trangen" />
		<tag k="place" v="locality" />
		<tag k="ssr:stedsnr" v="624268" />
	</node>
	<node id="9873608622" lat="69.7616861" lon="19.8471138" version="1" timestamp="2022-07-08T04:32:34Z" changeset="123342203" uid="3497659" user="NKA">
		<tag k="name" v="Lyngmo" />
		<tag k="place" v="farm" />
		<tag k="ssr:stedsnr" v="687645" />
	</node>
	<node id="9873608623" lat="69.5955834" lon="20.2792973" version="1" timestamp="2022-07-08T04:32:34Z" changeset="123342203" uid="3497659" user="NKA">
		<tag k="name" v="Fjellstad" />
		<tag k="place" v="farm" />
		<tag k="ssr:stedsnr" v="685988" />
	</node>
	<node id="9873608624" lat="69.9207601" lon="20.1880246" version="1" timestamp="2022-07-08T04:32:34Z" changeset="123342203" uid="3497659" user="NKA">
		<tag k="name" v="Steinvollen" />
		<tag k="place" v="locality" />
		<tag k="ssr:stedsnr" v="58868" />
	</node>
	<node id="9873608625" lat="69.502225" lon="20.2015334" version="1" timestamp="2022-07-08T04:32:34Z" changeset="123342203" uid="3497659" user="NKA">
		<tag k="name" v="Skogmo" />
		<tag k="place" v="farm" />
		<tag k="ssr:stedsnr" v="504878" />
	</node>
	<node id="9873608626" lat="69.5410167" lon="20.2453056" version="1" timestamp="2022-07-08T04:32:34Z" changeset="123342203" uid="3497659" user="NKA">
		<tag k="alt_name" v="Karnes" />
		<tag k="name" v="Indre Karnes" />
		<tag k="place" v="farm" />
		<tag k="ssr:stedsnr" v="564929" />
	</node>
	<node id="9873608627" lat="69.9068444" lon="20.1538778" version="1" timestamp="2022-07-08T04:32:34Z" changeset="123342203" uid="3497659" user="NKA">
		<tag k="name" v="Fagervoll" />
		<tag k="place" v="farm" />
		<tag k="ssr:stedsnr" v="929731" />
	</node>
	<node id="9873608628" lat="69.4959257" lon="20.1737569" version="1" timestamp="2022-07-08T04:32:34Z" changeset="123342203" uid="3497659" user="NKA">
		<tag k="loc_name:no" v="Kvalvikgruben" />
		<tag k="name" v="Várivuolli" />
		<tag k="name:se" v="Várivuolli" />
		<tag k="place" v="farm" />
		<tag k="ssr:stedsnr" v="1075831" />
	</node>
	<node id="9873608629" lat="69.582748" lon="20.1559731" version="1" timestamp="2022-07-08T04:32:34Z" changeset="123342203" uid="3497659" user="NKA">
		<tag k="loc_name:fkv" v="Muotkalahti" />
		<tag k="name" v="Kjosen - Muotkevuotna" />
		<tag k="name:no" v="Kjosen" />
		<tag k="name:se" v="Muotkevuotna" />
		<tag k="place" v="hamlet" />
		<tag k="ssr:stedsnr" v="624937" />
	</node>
	<node id="9873608630" lat="69.4969861" lon="20.1796861" version="1" timestamp="2022-07-08T04:32:34Z" changeset="123342203" uid="3497659" user="NKA">
		<tag k="name" v="Fjellheim" />
		<tag k="place" v="farm" />
		<tag k="ssr:stedsnr" v="443300" />
	</node>
	<node id="9873608631" lat="69.8749972" lon="20.0792723" version="1" timestamp="2022-07-08T04:32:34Z" changeset="123342203" uid="3497659" user="NKA">
		<tag k="name" v="Skogvang" />
		<tag k="place" v="farm" />
		<tag k="ssr:stedsnr" v="25444" />
	</node>
	<node id="9873608632" lat="69.5809513" lon="20.1500434" version="1" timestamp="2022-07-08T04:32:34Z" changeset="123342203" uid="3497659" user="NKA">
		<tag k="alt_name" v="Sollien" />
		<tag k="name" v="Sollia" />
		<tag k="place" v="farm" />
		<tag k="ssr:stedsnr" v="868924" />
	</node>
	<node id="9873608633" lat="69.431175" lon="20.1533499" version="1" timestamp="2022-07-08T04:32:34Z" changeset="123342203" uid="3497659" user="NKA">
		<tag k="name" v="Grønås" />
		<tag k="place" v="farm" />
		<tag k="ssr:stedsnr" v="624289" />
	</node>
	<node id="9873608634" lat="69.4380306" lon="20.1535555" version="1" timestamp="2022-07-08T04:32:34Z" changeset="123342203" uid="3497659" user="NKA">
		<tag k="name" v="Enebakken" />
		<tag k="place" v="farm" />
		<tag k="ssr:stedsnr" v="139253" />
	</node>
	<node id="9873608635" lat="69.9140392" lon="20.1881518" version="1" timestamp="2022-07-08T04:32:34Z" changeset="123342203" uid="3497659" user="NKA">
		<tag k="name" v="Hæsa" />
		<tag k="place" v="farm" />
		<tag k="ssr:stedsnr" v="80749" />
	</node>
	<node id="9873608636" lat="69.433625" lon="20.1521499" version="1" timestamp="2022-07-08T04:32:34Z" changeset="123342203" uid="3497659" user="NKA">
		<tag k="name" v="Indre Hamnvik" />
		<tag k="place" v="farm" />
		<tag k="ssr:stedsnr" v="624261" />
	</node>
	<node id="9873608637" lat="69.5917727" lon="20.3018664" version="1" timestamp="2022-07-08T04:32:34Z" changeset="123342203" uid="3497659" user="NKA">
		<tag k="alt_name:no" v="Kvitberg" />
		<tag k="loc_name:fkv" v="Autelusniemi;Valkeapahta" />
		<tag k="name" v="Kviteberg - Ávdoluotnjárga" />
		<tag k="name:no" v="Kviteberg" />
		<tag k="name:se" v="Ávdoluotnjárga" />
		<tag k="place" v="hamlet" />
		<tag k="ssr:stedsnr" v="747392" />
	</node>
	<node id="9873608638" lat="69.4378875" lon="20.1335781" version="1" timestamp="2022-07-08T04:32:34Z" changeset="123342203" uid="3497659" user="NKA">
		<tag k="name" v="Grønvoll" />
		<tag k="place" v="farm" />
		<tag k="ssr:stedsnr" v="443247" />
	</node>
	<node id="9873608639" lat="69.8176139" lon="20.0267304" version="1" timestamp="2022-07-08T04:32:34Z" changeset="123342203" uid="3497659" user="NKA">
		<tag k="name" v="Reindal" />
		<tag k="place" v="farm" />
		<tag k="ssr:stedsnr" v="80666" />
	</node>
	<node id="9873608640" lat="69.617825" lon="19.859511" version="1" timestamp="2022-07-08T04:32:34Z" changeset="123342203" uid="3497659" user="NKA">
		<tag k="alt_name" v="Nesbukt" />
		<tag k="name" v="Gramberg" />
		<tag k="place" v="farm" />
		<tag k="ssr:stedsnr" v="79984" />
	</node>
	<node id="9873608641" lat="69.5372" lon="20.2169278" version="1" timestamp="2022-07-08T04:32:34Z" changeset="123342203" uid="3497659" user="NKA">
		<tag k="name" v="Oksvik" />
		<tag k="old_name" v="Oksevik" />
		<tag k="place" v="farm" />
		<tag k="ssr:stedsnr" v="79919" />
	</node>
	<node id="9873608642" lat="69.5019528" lon="20.208414" version="1" timestamp="2022-07-08T04:32:34Z" changeset="123342203" uid="3497659" user="NKA">
		<tag k="name" v="Bergvoll" />
		<tag k="place" v="farm" />
		<tag k="ssr:stedsnr" v="724490" />
	</node>
	<node id="9873608643" lat="69.6746199" lon="19.7894501" version="1" timestamp="2022-07-08T04:32:34Z" changeset="123342203" uid="3497659" user="NKA">
		<tag k="name" v="Holmen" />
		<tag k="place" v="farm" />
		<tag k="ssr:stedsnr" v="322216" />
	</node>
	<node id="9873608644" lat="69.583804" lon="20.115071" version="1" timestamp="2022-07-08T04:32:34Z" changeset="123342203" uid="3497659" user="NKA">
		<tag k="name" v="Rørnes" />
		<tag k="place" v="farm" />
		<tag k="ssr:stedsnr" v="27855" />
	</node>
	<node id="9873608645" lat="69.672775" lon="20.3367805" version="1" timestamp="2022-07-08T04:32:34Z" changeset="123342203" uid="3497659" user="NKA">
		<tag k="alt_name" v="Sommarset" />
		<tag k="name" v="Sommarsetet" />
		<tag k="place" v="isolated_dwelling" />
		<tag k="ssr:stedsnr" v="746052" />
	</node>
	<node id="9873608646" lat="69.8248833" lon="19.9477972" version="1" timestamp="2022-07-08T04:32:34Z" changeset="123342203" uid="3497659" user="NKA">
		<tag k="name" v="Seljevoll" />
		<tag k="place" v="farm" />
		<tag k="ssr:stedsnr" v="724916" />
	</node>
	<node id="9873608647" lat="69.9310366" lon="20.1937734" version="1" timestamp="2022-07-08T04:32:34Z" changeset="123342203" uid="3497659" user="NKA">
		<tag k="name" v="Rismo" />
		<tag k="place" v="farm" />
		<tag k="ssr:stedsnr" v="58833" />
	</node>
	<node id="9873608648" lat="69.9150914" lon="20.1591797" version="1" timestamp="2022-07-08T04:32:34Z" changeset="123342203" uid="3497659" user="NKA">
		<tag k="name" v="Futnes" />
		<tag k="place" v="farm" />
		<tag k="ssr:stedsnr" v="868701" />
	</node>
	<node id="9873608649" lat="69.8910083" lon="20.181564" version="1" timestamp="2022-07-08T04:32:34Z" changeset="123342203" uid="3497659" user="NKA">
		<tag k="name" v="Mettun" />
		<tag k="place" v="farm" />
		<tag k="ssr:stedsnr" v="201735" />
	</node>
	<node id="9873608650" lat="69.9047" lon="20.151064" version="1" timestamp="2022-07-08T04:32:34Z" changeset="123342203" uid="3497659" user="NKA">
		<tag k="name" v="Høgnes" />
		<tag k="place" v="farm" />
		<tag k="ssr:stedsnr" v="422853" />
	</node>
	<node id="9873608651" lat="69.8848218" lon="20.1836358" version="1" timestamp="2022-07-08T04:32:34Z" changeset="123342203" uid="3497659" user="NKA">
		<tag k="name" v="Nyheim" />
		<tag k="place" v="farm" />
		<tag k="ssr:stedsnr" v="565704" />
	</node>
	<node id="9873608652" lat="69.9047889" lon="20.1534334" version="1" timestamp="2022-07-08T04:32:34Z" changeset="123342203" uid="3497659" user="NKA">
		<tag k="name" v="Høgset" />
		<tag k="place" v="farm" />
		<tag k="ssr:stedsnr" v="625751" />
	</node>
	<node id="9873608653" lat="69.9254112" lon="20.1912027" version="1" timestamp="2022-07-08T04:32:34Z" changeset="123342203" uid="3497659" user="NKA">
		<tag k="name" v="Slettnes" />
		<tag k="place" v="farm" />
		<tag k="ssr:stedsnr" v="504727" />
	</node>
	<node id="9873608654" lat="69.9321223" lon="20.1976944" version="1" timestamp="2022-07-08T04:32:34Z" changeset="123342203" uid="3497659" user="NKA">
		<tag k="name" v="Berglund" />
		<tag k="place" v="farm" />
		<tag k="ssr:stedsnr" v="201703" />
	</node>
	<node id="9873608655" lat="69.4867678" lon="20.1844341" version="1" timestamp="2022-07-08T04:32:34Z" changeset="123342203" uid="3497659" user="NKA">
		<tag k="alt_name:no" v="Pollen" />
		<tag k="loc_name:fkv" v="Voivuono" />
		<tag k="name" v="Lyngspollen - Vuoivuotna" />
		<tag k="name:no" v="Lyngspollen" />
		<tag k="name:se" v="Vuoivuotna" />
		<tag k="place" v="hamlet" />
		<tag k="ssr:stedsnr" v="322280" />
	</node>
	<node id="9873608656" lat="69.9360278" lon="20.2008663" version="1" timestamp="2022-07-08T04:32:34Z" changeset="123342203" uid="3497659" user="NKA">
		<tag k="name" v="Lund" />
		<tag k="place" v="hamlet" />
		<tag k="ssr:stedsnr" v="20756" />
	</node>
	<node id="9873608657" lat="69.8836972" lon="20.1866362" version="1" timestamp="2022-07-08T04:32:34Z" changeset="123342203" uid="3497659" user="NKA">
		<tag k="name" v="Fjelldal" />
		<tag k="place" v="farm" />
		<tag k="ssr:stedsnr" v="19682" />
	</node>
	<node id="9873608658" lat="69.5432333" lon="20.2550362" version="1" timestamp="2022-07-08T04:32:34Z" changeset="123342203" uid="3497659" user="NKA">
		<tag k="alt_name" v="Jordamo" />
		<tag k="name" v="Joramo" />
		<tag k="place" v="farm" />
		<tag k="ssr:stedsnr" v="382945" />
	</node>
	<node id="9873608659" lat="69.8887" lon="20.1815749" version="1" timestamp="2022-07-08T04:32:34Z" changeset="123342203" uid="3497659" user="NKA">
		<tag k="name" v="Yttergård" />
		<tag k="place" v="farm" />
		<tag k="ssr:stedsnr" v="665872" />
	</node>
	<node id="9873608660" lat="69.8133508" lon="19.9810229" version="1" timestamp="2022-07-08T04:32:34Z" changeset="123342203" uid="3497659" user="NKA">
		<tag k="alt_name:no" v="Øra" />
		<tag k="name" v="Lenangsøyra - Gárgu" />
		<tag k="name:no" v="Lenangsøyra" />
		<tag k="name:se" v="Gárgu" />
		<tag k="place" v="hamlet" />
		<tag k="ssr:stedsnr" v="201635" />
	</node>
	<node id="9873608661" lat="69.7886723" lon="19.9555085" version="1" timestamp="2022-07-08T04:32:34Z" changeset="123342203" uid="3497659" user="NKA">
		<tag k="name" v="Svingen" />
		<tag k="place" v="farm" />
		<tag k="ssr:stedsnr" v="929606" />
	</node>
	<node id="9873608662" lat="69.5674658" lon="20.2227796" version="1" timestamp="2022-07-08T04:32:34Z" changeset="123342203" uid="3497659" user="NKA">
		<tag k="alt_name" v="Jensvollen" />
		<tag k="name" v="Jensvoll" />
		<tag k="place" v="neighbourhood" />
		<tag k="ssr:stedsnr" v="261949" />
	</node>
	<node id="9873608663" lat="69.8260777" lon="20.03415" version="1" timestamp="2022-07-08T04:32:34Z" changeset="123342203" uid="3497659" user="NKA">
		<tag k="name" v="Bjørndal" />
		<tag k="place" v="farm" />
		<tag k="ssr:stedsnr" v="201636" />
	</node>
	<node id="9873608664" lat="69.621825" lon="19.855264" version="1" timestamp="2022-07-08T04:32:34Z" changeset="123342203" uid="3497659" user="NKA">
		<tag k="name" v="Bjørkheim" />
		<tag k="place" v="farm" />
		<tag k="ssr:stedsnr" v="868971" />
	</node>
	<node id="9873608665" lat="69.5476501" lon="20.2193331" version="1" timestamp="2022-07-08T04:32:34Z" changeset="123342203" uid="3497659" user="NKA">
		<tag k="name" v="Bergås" />
		<tag k="place" v="farm" />
		<tag k="ssr:stedsnr" v="238762" />
	</node>
	<node id="9873608666" lat="69.58955" lon="20.1099166" version="1" timestamp="2022-07-08T04:32:34Z" changeset="123342203" uid="3497659" user="NKA">
		<tag k="name" v="Gardfjell" />
		<tag k="place" v="farm" />
		<tag k="ssr:stedsnr" v="200942" />
	</node>
	<node id="9873608667" lat="69.5923889" lon="20.2963139" version="1" timestamp="2022-07-08T04:32:34Z" changeset="123342203" uid="3497659" user="NKA">
		<tag k="name" v="Sommarsetet" />
		<tag k="place" v="locality" />
		<tag k="ssr:stedsnr" v="663955" />
	</node>
	<node id="9873608668" lat="69.5083139" lon="20.1932307" version="1" timestamp="2022-07-08T04:32:34Z" changeset="123342203" uid="3497659" user="NKA">
		<tag k="name" v="Øvergård" />
		<tag k="place" v="farm" />
		<tag k="ssr:stedsnr" v="79861" />
	</node>
	<node id="9873608669" lat="69.6110194" lon="19.8970361" version="1" timestamp="2022-07-08T04:32:34Z" changeset="123342203" uid="3497659" user="NKA">
		<tag k="name" v="Risvoll" />
		<tag k="place" v="farm" />
		<tag k="ssr:stedsnr" v="201967" />
	</node>
	<node id="9873608670" lat="69.8278389" lon="19.9898778" version="1" timestamp="2022-07-08T04:32:34Z" changeset="123342203" uid="3497659" user="NKA">
		<tag k="name" v="Nylund" />
		<tag k="place" v="farm" />
		<tag k="ssr:stedsnr" v="119055" />
	</node>
	<node id="9873608671" lat="69.5627265" lon="20.219557" version="1" timestamp="2022-07-08T04:32:34Z" changeset="123342203" uid="3497659" user="NKA">
		<tag k="loc_name:fkv" v="Ala-Kariniemi" />
		<tag k="name" v="Karnes - Finnavuolli" />
		<tag k="name:no" v="Karnes" />
		<tag k="name:se" v="Finnavuolli" />
		<tag k="place" v="quarter" />
		<tag k="ssr:stedsnr" v="27774" />
	</node>
	<node id="9873608672" lat="69.5810844" lon="20.2671582" version="1" timestamp="2022-07-08T04:32:34Z" changeset="123342203" uid="3497659" user="NKA">
		<tag k="name" v="Mortensnes" />
		<tag k="place" v="farm" />
		<tag k="ssr:stedsnr" v="564966" />
	</node>
	<node id="9873608673" lat="69.7521993" lon="19.8387943" version="1" timestamp="2022-07-08T04:32:34Z" changeset="123342203" uid="3497659" user="NKA">
		<tag k="name" v="Selnes - Sálljanjárga" />
		<tag k="name:no" v="Selnes" />
		<tag k="name:se" v="Sálljanjárga" />
		<tag k="place" v="farm" />
		<tag k="ssr:stedsnr" v="990660" />
	</node>
	<node id="9873608674" lat="69.7869944" lon="19.9090138" version="1" timestamp="2022-07-08T04:32:34Z" changeset="123342203" uid="3497659" user="NKA">
		<tag k="name" v="Berglund" />
		<tag k="place" v="farm" />
		<tag k="ssr:stedsnr" v="845094" />
	</node>
	<node id="9873608675" lat="69.752318" lon="19.8398794" version="1" timestamp="2022-07-08T04:32:34Z" changeset="123342203" uid="3497659" user="NKA">
		<tag k="name" v="Selnes" />
		<tag k="place" v="farm" />
		<tag k="ssr:stedsnr" v="512882" />
	</node>
	<node id="9873608676" lat="69.6203333" lon="19.8464723" version="1" timestamp="2022-07-08T04:32:34Z" changeset="123342203" uid="3497659" user="NKA">
		<tag k="name" v="Engen" />
		<tag k="place" v="farm" />
		<tag k="ssr:stedsnr" v="724315" />
	</node>
	<node id="9873608677" lat="69.4939621" lon="20.1978278" version="1" timestamp="2022-07-08T04:32:34Z" changeset="123342203" uid="3497659" user="NKA">
		<tag k="name" v="Fredheim" />
		<tag k="place" v="farm" />
		<tag k="ssr:stedsnr" v="1081323" />
	</node>
	<node id="9873608678" lat="69.5449945" lon="20.2371806" version="1" timestamp="2022-07-08T04:32:34Z" changeset="123342203" uid="3497659" user="NKA">
		<tag k="alt_name" v="Olderen" />
		<tag k="name" v="Oldran" />
		<tag k="place" v="farm" />
		<tag k="ssr:stedsnr" v="504947" />
	</node>
	<node id="9873608679" lat="69.8196694" lon="20.026904" version="1" timestamp="2022-07-08T04:32:34Z" changeset="123342203" uid="3497659" user="NKA">
		<tag k="alt_name:no" v="Sørlenangen" />
		<tag k="name" v="Sør-Lenangen - Siskkit Ittarvuotna" />
		<tag k="name:no" v="Sør-Lenangen" />
		<tag k="name:se" v="Siskkit Ittarvuotna" />
		<tag k="place" v="hamlet" />
		<tag k="ssr:stedsnr" v="201638" />
	</node>
	<node id="9873608680" lat="69.4766864" lon="20.1982061" version="1" timestamp="2022-07-08T04:32:34Z" changeset="123342203" uid="3497659" user="NKA">
		<tag k="name" v="Flatvollen" />
		<tag k="place" v="farm" />
		<tag k="ssr:stedsnr" v="504280" />
	</node>
	<node id="9873608681" lat="69.5088199" lon="20.2065851" version="1" timestamp="2022-07-08T04:32:34Z" changeset="123342203" uid="3497659" user="NKA">
		<tag k="name" v="Elvebakken - Johkagáddi" />
		<tag k="name:no" v="Elvebakken" />
		<tag k="name:se" v="Johkagáddi" />
		<tag k="place" v="hamlet" />
		<tag k="ssr:stedsnr" v="201864" />
	</node>
	<node id="9873608682" lat="69.6952833" lon="19.9277918" version="1" timestamp="2022-07-08T04:32:34Z" changeset="123342203" uid="3497659" user="NKA">
		<tag k="name" v="Stortind" />
		<tag k="place" v="farm" />
		<tag k="ssr:stedsnr" v="855065" />
	</node>
	<node id="9873608683" lat="69.5414398" lon="20.2428598" version="1" timestamp="2022-07-08T04:32:34Z" changeset="123342203" uid="3497659" user="NKA">
		<tag k="loc_name:no" v="Indre Karnes" />
		<tag k="name" v="Gárnjárga" />
		<tag k="name:se" v="Gárnjárga" />
		<tag k="place" v="farm" />
		<tag k="ssr:stedsnr" v="1075879" />
	</node>
	<node id="9873608684" lat="69.8272222" lon="19.9586167" version="1" timestamp="2022-07-08T04:32:34Z" changeset="123342203" uid="3497659" user="NKA">
		<tag k="name" v="Gråstein" />
		<tag k="place" v="farm" />
		<tag k="ssr:stedsnr" v="784913" />
	</node>
	<node id="9873608685" lat="69.8869331" lon="20.164521" version="1" timestamp="2022-07-08T04:32:34Z" changeset="123342203" uid="3497659" user="NKA">
		<tag k="name" v="Storvoll" />
		<tag k="place" v="hamlet" />
		<tag k="ssr:stedsnr" v="878679" />
	</node>
	<node id="9873608686" lat="69.5776927" lon="20.2145585" version="1" timestamp="2022-07-08T04:32:34Z" changeset="123342203" uid="3497659" user="NKA">
		<tag k="loc_name:no" v="Lyngseidet" />
		<tag k="name" v="Muotki" />
		<tag k="name:se" v="Muotki" />
		<tag k="place" v="farm" />
		<tag k="ssr:stedsnr" v="1075815" />
	</node>
	<node id="9873608687" lat="69.7793917" lon="19.8838723" version="1" timestamp="2022-07-08T04:32:34Z" changeset="123342203" uid="3497659" user="NKA">
		<tag k="name" v="Sandberg" />
		<tag k="place" v="farm" />
		<tag k="ssr:stedsnr" v="846128" />
	</node>
	<node id="9873608688" lat="69.4942964" lon="20.2177052" version="1" timestamp="2022-07-08T04:32:34Z" changeset="123342203" uid="3497659" user="NKA">
		<tag k="name" v="Ørnes - Sieiddinjárga" />
		<tag k="name:no" v="Ørnes" />
		<tag k="name:se" v="Sieiddinjárga" />
		<tag k="place" v="hamlet" />
		<tag k="ssr:stedsnr" v="868260" />
	</node>
	<node id="9873608689" lat="69.6390139" lon="19.8202222" version="1" timestamp="2022-07-08T04:32:34Z" changeset="123342203" uid="3497659" user="NKA">
		<tag k="name" v="Sandnes" />
		<tag k="place" v="farm" />
		<tag k="ssr:stedsnr" v="443035" />
	</node>
	<node id="9873608690" lat="69.5610312" lon="20.2196963" version="1" timestamp="2022-07-08T04:32:34Z" changeset="123342203" uid="3497659" user="NKA">
		<tag k="alt_name" v="Solhov, ytre" />
		<tag k="name" v="Ytre Solhov" />
		<tag k="place" v="neighbourhood" />
		<tag k="ssr:stedsnr" v="503881" />
	</node>
	<node id="9873608691" lat="69.6322389" lon="19.826961" version="1" timestamp="2022-07-08T04:32:34Z" changeset="123342203" uid="3497659" user="NKA">
		<tag k="name" v="Leirbakken" />
		<tag k="place" v="farm" />
		<tag k="ssr:stedsnr" v="564032" />
	</node>
	<node id="9873608692" lat="69.5988028" lon="20.3151751" version="1" timestamp="2022-07-08T04:32:34Z" changeset="123342203" uid="3497659" user="NKA">
		<tag k="loc_name:se" v="Sovttaluokta" />
		<tag k="name" v="Seljevik" />
		<tag k="name:no" v="Seljevik" />
		<tag k="place" v="farm" />
		<tag k="ssr:stedsnr" v="443993" />
	</node>
	<node id="9873608693" lat="69.9187611" lon="20.1913139" version="1" timestamp="2022-07-08T04:32:34Z" changeset="123342203" uid="3497659" user="NKA">
		<tag k="name" v="Vangen" />
		<tag k="place" v="farm" />
		<tag k="ssr:stedsnr" v="625740" />
	</node>
	<node id="9873608694" lat="69.7674112" lon="19.9195471" version="1" timestamp="2022-07-08T04:32:34Z" changeset="123342203" uid="3497659" user="NKA">
		<tag k="name" v="Storjorda" />
		<tag k="place" v="locality" />
		<tag k="ssr:stedsnr" v="626661" />
	</node>
	<node id="9873608695" lat="69.8325609" lon="20.0394953" version="1" timestamp="2022-07-08T04:32:34Z" changeset="123342203" uid="3497659" user="NKA">
		<tag k="alt_name" v="Gammelgard;Gammelgård" />
		<tag k="name" v="Gammelgården" />
		<tag k="place" v="farm" />
		<tag k="ssr:stedsnr" v="140650" />
	</node>
	<node id="9873608696" lat="69.8130579" lon="19.9798932" version="1" timestamp="2022-07-08T04:32:34Z" changeset="123342203" uid="3497659" user="NKA">
		<tag k="name" v="Elvebakken" />
		<tag k="place" v="farm" />
		<tag k="ssr:stedsnr" v="543008" />
	</node>
	<node id="9873608697" lat="69.7851183" lon="19.9091987" version="1" timestamp="2022-07-08T04:32:34Z" changeset="123342203" uid="3497659" user="NKA">
		<tag k="name" v="Teigstad" />
		<tag k="place" v="farm" />
		<tag k="ssr:stedsnr" v="451042" />
	</node>
	<node id="9873608698" lat="69.8233054" lon="19.9490712" version="1" timestamp="2022-07-08T04:32:34Z" changeset="123342203" uid="3497659" user="NKA">
		<tag k="alt_name:no" v="Ravik" />
		<tag k="name" v="Ravika - Ráluokta" />
		<tag k="name:no" v="Ravika" />
		<tag k="name:se" v="Ráluokta" />
		<tag k="place" v="farm" />
		<tag k="ssr:stedsnr" v="543046" />
	</node>
	<node id="9873608699" lat="69.5781861" lon="20.2516638" version="1" timestamp="2022-07-08T04:32:34Z" changeset="123342203" uid="3497659" user="NKA">
		<tag k="name" v="Heimstad" />
		<tag k="place" v="farm" />
		<tag k="ssr:stedsnr" v="382966" />
	</node>
	<node id="9873608700" lat="69.8245942" lon="19.9885799" version="1" timestamp="2022-07-08T04:32:34Z" changeset="123342203" uid="3497659" user="NKA">
		<tag k="name" v="Lenangen Søndre" />
		<tag k="place" v="farm" />
		<tag k="ssr:stedsnr" v="301044" />
	</node>
	<node id="9873608701" lat="69.759725" lon="19.8463557" version="1" timestamp="2022-07-08T04:32:34Z" changeset="123342203" uid="3497659" user="NKA">
		<tag k="name" v="Kviteberg" />
		<tag k="place" v="farm" />
		<tag k="ssr:stedsnr" v="201609" />
	</node>
	<node id="9873608702" lat="69.5123031" lon="20.2162826" version="1" timestamp="2022-07-08T04:32:34Z" changeset="123342203" uid="3497659" user="NKA">
		<tag k="name" v="Kjeldebakken" />
		<tag k="place" v="farm" />
		<tag k="ssr:stedsnr" v="973237" />
	</node>
	<node id="9873608703" lat="69.8318768" lon="19.9895604" version="1" timestamp="2022-07-08T04:32:34Z" changeset="123342203" uid="3497659" user="NKA">
		<tag k="name" v="Kvalnes" />
		<tag k="place" v="farm" />
		<tag k="ssr:stedsnr" v="179060" />
	</node>
	<node id="9873608704" lat="69.5197108" lon="20.2145569" version="1" timestamp="2022-07-08T04:32:34Z" changeset="123342203" uid="3497659" user="NKA">
		<tag k="name" v="Solhaug" />
		<tag k="place" v="hamlet" />
		<tag k="ssr:stedsnr" v="625886" />
	</node>
	<node id="9873608705" lat="69.7667194" lon="19.986514" version="1" timestamp="2022-07-08T04:32:34Z" changeset="123342203" uid="3497659" user="NKA">
		<tag k="loc_name:se" v="Vuotnabahsiida" />
		<tag k="name" v="Botn" />
		<tag k="name:no" v="Botn" />
		<tag k="place" v="farm" />
		<tag k="ssr:stedsnr" v="201605" />
	</node>
	<node id="9873608706" lat="69.9232639" lon="20.1630999" version="1" timestamp="2022-07-08T04:32:34Z" changeset="123342203" uid="3497659" user="NKA">
		<tag k="name" v="Heimly" />
		<tag k="place" v="farm" />
		<tag k="ssr:stedsnr" v="625744" />
	</node>
	<node id="9873608707" lat="69.5117597" lon="20.2247414" version="1" timestamp="2022-07-08T04:32:34Z" changeset="123342203" uid="3497659" user="NKA">
		<tag k="name" v="Kjeldnes" />
		<tag k="place" v="farm" />
		<tag k="ssr:stedsnr" v="976763" />
	</node>
	<node id="9873608708" lat="69.9180126" lon="20.1612318" version="1" timestamp="2022-07-08T04:32:34Z" changeset="123342203" uid="3497659" user="NKA">
		<tag k="name" v="Nygårdstranda" />
		<tag k="place" v="hamlet" />
		<tag k="ssr:stedsnr" v="564713" />
	</node>
	<node id="9873608709" lat="69.4738" lon="20.2327138" version="1" timestamp="2022-07-08T04:32:34Z" changeset="123342203" uid="3497659" user="NKA">
		<tag k="alt_name" v="Forrahamn" />
		<tag k="name" v="Forhamna" />
		<tag k="place" v="farm" />
		<tag k="ssr:stedsnr" v="929262" />
	</node>
	<node id="9873608710" lat="69.9173889" lon="20.1623417" version="1" timestamp="2022-07-08T04:32:34Z" changeset="123342203" uid="3497659" user="NKA">
		<tag k="name" v="Teigen" />
		<tag k="place" v="farm" />
		<tag k="ssr:stedsnr" v="261704" />
	</node>
	<node id="9873608711" lat="69.7968274" lon="19.9648718" version="1" timestamp="2022-07-08T04:32:34Z" changeset="123342203" uid="3497659" user="NKA">
		<tag k="name" v="Solli" />
		<tag k="place" v="farm" />
		<tag k="ssr:stedsnr" v="784089" />
	</node>
	<node id="9873608712" lat="69.520946" lon="20.1400083" version="1" timestamp="2022-07-08T04:32:34Z" changeset="123342203" uid="3497659" user="NKA">
		<tag k="name" v="Kvalvikhytta" />
		<tag k="place" v="isolated_dwelling" />
		<tag k="ssr:stedsnr" v="322888" />
	</node>
	<node id="9873608713" lat="69.9208015" lon="20.190289" version="1" timestamp="2022-07-08T04:32:34Z" changeset="123342203" uid="3497659" user="NKA">
		<tag k="alt_name:no" v="Nordlenangen" />
		<tag k="loc_name:fkv" v="Itarivuono" />
		<tag k="name" v="Nord-Lenangen - Davit Ittarvuotna" />
		<tag k="name:no" v="Nord-Lenangen" />
		<tag k="name:se" v="Davit Ittarvuotna" />
		<tag k="place" v="hamlet" />
		<tag k="ssr:stedsnr" v="322717" />
	</node>
	<node id="9873608714" lat="69.5270125" lon="20.2081119" version="1" timestamp="2022-07-08T04:32:34Z" changeset="123342203" uid="3497659" user="NKA">
		<tag k="name" v="Rastejord" />
		<tag k="place" v="farm" />
		<tag k="ssr:stedsnr" v="694129" />
	</node>
	<node id="9873608715" lat="69.7242278" lon="19.8234001" version="1" timestamp="2022-07-08T04:32:34Z" changeset="123342203" uid="3497659" user="NKA">
		<tag k="name" v="Skoglund" />
		<tag k="place" v="farm" />
		<tag k="ssr:stedsnr" v="382020" />
	</node>
	<node id="9873608716" lat="69.8855916" lon="20.1645221" version="1" timestamp="2022-07-08T04:32:34Z" changeset="123342203" uid="3497659" user="NKA">
		<tag k="name" v="Molund" />
		<tag k="place" v="farm" />
		<tag k="ssr:stedsnr" v="19686" />
	</node>
	<node id="9873608717" lat="69.5463916" lon="20.2597722" version="1" timestamp="2022-07-08T04:32:34Z" changeset="123342203" uid="3497659" user="NKA">
		<tag k="name" v="Solvang" />
		<tag k="place" v="farm" />
		<tag k="ssr:stedsnr" v="504945" />
	</node>
	<node id="9873608718" lat="69.8141166" lon="19.9772139" version="1" timestamp="2022-07-08T04:32:34Z" changeset="123342203" uid="3497659" user="NKA">
		<tag k="name" v="Lenangen Søndre" />
		<tag k="place" v="farm" />
		<tag k="ssr:stedsnr" v="604012" />
	</node>
	<node id="9873608719" lat="69.6493051" lon="20.295009" version="1" timestamp="2022-07-08T04:32:34Z" changeset="123342203" uid="3497659" user="NKA">
		<tag k="name" v="Drabeng" />
		<tag k="place" v="hamlet" />
		<tag k="ssr:stedsnr" v="382062" />
	</node>
	<node id="9873608720" lat="69.7924917" lon="19.9618278" version="1" timestamp="2022-07-08T04:32:34Z" changeset="123342203" uid="3497659" user="NKA">
		<tag k="name" v="Broderstad" />
		<tag k="place" v="farm" />
		<tag k="ssr:stedsnr" v="504632" />
	</node>
	<node id="9873608721" lat="69.6165028" lon="19.8600766" version="1" timestamp="2022-07-08T04:32:34Z" changeset="123342203" uid="3497659" user="NKA">
		<tag k="name" v="Elvenes" />
		<tag k="place" v="farm" />
		<tag k="ssr:stedsnr" v="421327" />
	</node>
	<node id="9873608722" lat="69.5484861" lon="20.2197972" version="1" timestamp="2022-07-08T04:32:34Z" changeset="123342203" uid="3497659" user="NKA">
		<tag k="name" v="Kilakken" />
		<tag k="place" v="farm" />
		<tag k="ssr:stedsnr" v="87240" />
	</node>
	<node id="9873608723" lat="69.5124138" lon="20.2142" version="1" timestamp="2022-07-08T04:32:34Z" changeset="123342203" uid="3497659" user="NKA">
		<tag k="name" v="Heimly" />
		<tag k="place" v="farm" />
		<tag k="ssr:stedsnr" v="322876" />
	</node>
	<node id="9873608724" lat="69.5324528" lon="20.2168516" version="1" timestamp="2022-07-08T04:32:34Z" changeset="123342203" uid="3497659" user="NKA">
		<tag k="name" v="Oksvik - Goalsevuohppi" />
		<tag k="name:no" v="Oksvik" />
		<tag k="name:se" v="Goalsevuohppi" />
		<tag k="place" v="hamlet" />
		<tag k="ssr:stedsnr" v="1078730" />
	</node>
	<node id="9873608725" lat="69.5249097" lon="20.2090346" version="1" timestamp="2022-07-08T04:32:34Z" changeset="123342203" uid="3497659" user="NKA">
		<tag k="name" v="Mellomjord" />
		<tag k="place" v="farm" />
		<tag k="ssr:stedsnr" v="177596" />
	</node>
	<node id="9873608726" lat="69.5790064" lon="20.2360535" version="1" timestamp="2022-07-08T04:32:34Z" changeset="123342203" uid="3497659" user="NKA">
		<tag k="name" v="Stigen" />
		<tag k="place" v="neighbourhood" />
		<tag k="ssr:stedsnr" v="815757" />
	</node>
	<node id="9873608727" lat="69.5011473" lon="20.2089185" version="1" timestamp="2022-07-08T04:32:34Z" changeset="123342203" uid="3497659" user="NKA">
		<tag k="name" v="Kvalvik - Hoammaluokta" />
		<tag k="name:no" v="Kvalvik" />
		<tag k="name:se" v="Hoammaluokta" />
		<tag k="place" v="hamlet" />
		<tag k="ssr:stedsnr" v="929252" />
	</node>
	<node id="9873608728" lat="69.4747" lon="20.2008055" version="1" timestamp="2022-07-08T04:32:34Z" changeset="123342203" uid="3497659" user="NKA">
		<tag k="name" v="Høgås" />
		<tag k="place" v="farm" />
		<tag k="ssr:stedsnr" v="807287" />
	</node>
	<node id="9873608729" lat="69.5045719" lon="20.2074163" version="1" timestamp="2022-07-08T04:32:34Z" changeset="123342203" uid="3497659" user="NKA">
		<tag k="name" v="Vollen - Boalagieddi" />
		<tag k="name:no" v="Vollen" />
		<tag k="name:se" v="Boalagieddi" />
		<tag k="place" v="hamlet" />
		<tag k="ssr:stedsnr" v="783494" />
	</node>
	<node id="9873608730" lat="69.763725" lon="19.847564" version="1" timestamp="2022-07-08T04:32:34Z" changeset="123342203" uid="3497659" user="NKA">
		<tag k="name" v="Nordheim" />
		<tag k="place" v="farm" />
		<tag k="ssr:stedsnr" v="687643" />
	</node>
	<node id="9873608731" lat="69.432075" lon="20.1522112" version="1" timestamp="2022-07-08T04:32:34Z" changeset="123342203" uid="3497659" user="NKA">
		<tag k="name" v="Vollnes" />
		<tag k="place" v="farm" />
		<tag k="ssr:stedsnr" v="685279" />
	</node>
	<node id="9873608732" lat="69.8254807" lon="19.9883026" version="1" timestamp="2022-07-08T04:32:34Z" changeset="123342203" uid="3497659" user="NKA">
		<tag k="name" v="Haugli" />
		<tag k="place" v="farm" />
		<tag k="ssr:stedsnr" v="908057" />
	</node>
	<node id="9873608733" lat="69.6422801" lon="19.8174824" version="1" timestamp="2022-07-08T04:32:34Z" changeset="123342203" uid="3497659" user="NKA">
		<tag k="alt_name" v="Berg, in" />
		<tag k="name" v="Indre Berg" />
		<tag k="place" v="hamlet" />
		<tag k="ssr:stedsnr" v="624177" />
	</node>
	<node id="9873608734" lat="69.5885548" lon="20.0224135" version="1" timestamp="2022-07-08T04:32:34Z" changeset="123342203" uid="3497659" user="NKA">
		<tag k="name" v="Tjørnberg" />
		<tag k="place" v="hamlet" />
		<tag k="ssr:stedsnr" v="18937" />
	</node>
	<node id="9873608735" lat="69.8237103" lon="20.0318339" version="1" timestamp="2022-07-08T04:32:34Z" changeset="123342203" uid="3497659" user="NKA">
		<tag k="name" v="Solstad" />
		<tag k="place" v="farm" />
		<tag k="ssr:stedsnr" v="201637" />
	</node>
	<node id="9873608736" lat="69.6810083" lon="19.7731334" version="1" timestamp="2022-07-08T04:32:34Z" changeset="123342203" uid="3497659" user="NKA">
		<tag k="name" v="Sletten" />
		<tag k="place" v="farm" />
		<tag k="ssr:stedsnr" v="542275" />
	</node>
	<node id="9873608737" lat="69.5878419" lon="20.0791521" version="1" timestamp="2022-07-08T04:32:34Z" changeset="123342203" uid="3497659" user="NKA">
		<tag k="alt_name" v="Urda" />
		<tag k="name" v="Ura" />
		<tag k="place" v="farm" />
		<tag k="ssr:stedsnr" v="18945" />
	</node>
	<node id="9873608738" lat="69.7680013" lon="20.2996099" version="1" timestamp="2022-07-08T04:32:34Z" changeset="123342203" uid="3497659" user="NKA">
		<tag k="name" v="Reindalen" />
		<tag k="place" v="locality" />
		<tag k="ssr:stedsnr" v="1078358" />
	</node>
	<node id="9873608739" lat="69.906885" lon="20.3486747" version="1" timestamp="2022-07-08T04:32:34Z" changeset="123342203" uid="3497659" user="NKA">
		<tag k="name" v="Ytre Gamvik" />
		<tag k="place" v="locality" />
		<tag k="ssr:stedsnr" v="1078360" />
	</node>
	<node id="9873608740" lat="69.8579308" lon="20.3584011" version="1" timestamp="2022-07-08T04:32:34Z" changeset="123342203" uid="3497659" user="NKA">
		<tag k="name" v="Gamvik Indre" />
		<tag k="place" v="locality" />
		<tag k="ssr:stedsnr" v="1078359" />
	</node>
	<node id="9873608741" lat="69.5233139" lon="20.2146279" version="1" timestamp="2022-07-08T04:32:34Z" changeset="123342203" uid="3497659" user="NKA">
		<tag k="name" v="Bakkehaug" />
		<tag k="place" v="farm" />
		<tag k="ssr:stedsnr" v="261901" />
	</node>
	<node id="9873608742" lat="69.6395074" lon="20.3315536" version="1" timestamp="2022-07-08T04:32:34Z" changeset="123342203" uid="3497659" user="NKA">
		<tag k="loc_name:no" v="Årøybukta" />
		<tag k="name" v="Luoktabahta" />
		<tag k="name:se" v="Luoktabahta" />
		<tag k="place" v="farm" />
		<tag k="ssr:stedsnr" v="1075806" />
	</node>
	<node id="9873608743" lat="69.6924277" lon="19.7878003" version="1" timestamp="2022-07-08T04:32:34Z" changeset="123342203" uid="3497659" user="NKA">
		<tag k="name" v="Ullsnesvik" />
		<tag k="place" v="farm" />
		<tag k="ssr:stedsnr" v="807227" />
	</node>
	<node id="9873608744" lat="69.5472861" lon="20.2610751" version="1" timestamp="2022-07-08T04:32:34Z" changeset="123342203" uid="3497659" user="NKA">
		<tag k="name" v="Kuberget" />
		<tag k="place" v="farm" />
		<tag k="ssr:stedsnr" v="929942" />
	</node>
	<node id="9873608745" lat="69.6115722" lon="20.3359584" version="1" timestamp="2022-07-08T04:32:34Z" changeset="123342203" uid="3497659" user="NKA">
		<tag k="name" v="Sommarsetet" />
		<tag k="place" v="locality" />
		<tag k="ssr:stedsnr" v="906993" />
	</node>
	<node id="9873608746" lat="69.6490292" lon="19.8227451" version="1" timestamp="2022-07-08T04:32:34Z" changeset="123342203" uid="3497659" user="NKA">
		<tag k="name" v="Øverjord" />
		<tag k="place" v="farm" />
		<tag k="ssr:stedsnr" v="443051" />
	</node>
	<node id="9873608747" lat="69.6150405" lon="20.3345343" version="1" timestamp="2022-07-08T04:32:34Z" changeset="123342203" uid="3497659" user="NKA">
		<tag k="loc_name:no" v="Skinnelva" />
		<tag k="name" v="Náhkkejohka" />
		<tag k="name:se" v="Náhkkejohka" />
		<tag k="place" v="farm" />
		<tag k="ssr:stedsnr" v="1075798" />
	</node>
	<node id="9873608748" lat="69.6299222" lon="20.3361862" version="1" timestamp="2022-07-08T04:32:34Z" changeset="123342203" uid="3497659" user="NKA">
		<tag k="name" v="Solheim" />
		<tag k="place" v="farm" />
		<tag k="ssr:stedsnr" v="908107" />
	</node>
	<node id="9873608749" lat="69.5923917" lon="20.3128529" version="1" timestamp="2022-07-08T04:32:34Z" changeset="123342203" uid="3497659" user="NKA">
		<tag k="name" v="Bjørkli" />
		<tag k="place" v="farm" />
		<tag k="ssr:stedsnr" v="321925" />
	</node>
	<node id="9873608750" lat="69.6617361" lon="20.26955" version="1" timestamp="2022-07-08T04:32:34Z" changeset="123342203" uid="3497659" user="NKA">
		<tag k="alt_name" v="Fastdal" />
		<tag k="name" v="Fastdalen" />
		<tag k="place" v="hamlet" />
		<tag k="ssr:stedsnr" v="807052" />
	</node>
	<node id="9873608751" lat="69.8249" lon="19.9541721" version="1" timestamp="2022-07-08T04:32:34Z" changeset="123342203" uid="3497659" user="NKA">
		<tag k="name" v="Slettli" />
		<tag k="place" v="farm" />
		<tag k="ssr:stedsnr" v="784906" />
	</node>
	<node id="9873608752" lat="69.9234222" lon="20.1898862" version="1" timestamp="2022-07-08T04:32:34Z" changeset="123342203" uid="3497659" user="NKA">
		<tag k="name" v="Myrvoll" />
		<tag k="place" v="farm" />
		<tag k="ssr:stedsnr" v="868678" />
	</node>
	<node id="9873608753" lat="69.8383862" lon="20.0440332" version="1" timestamp="2022-07-08T04:32:34Z" changeset="123342203" uid="3497659" user="NKA">
		<tag k="name" v="Nordset" />
		<tag k="place" v="farm" />
		<tag k="ssr:stedsnr" v="747710" />
	</node>
	<node id="9873608754" lat="69.8934344" lon="20.1779366" version="1" timestamp="2022-07-08T04:32:34Z" changeset="123342203" uid="3497659" user="NKA">
		<tag k="name" v="Andersnes" />
		<tag k="place" v="farm" />
		<tag k="ssr:stedsnr" v="929734" />
	</node>
	<node id="9873608755" lat="69.646375" lon="20.3228223" version="1" timestamp="2022-07-08T04:32:34Z" changeset="123342203" uid="3497659" user="NKA">
		<tag k="name" v="Bergstad" />
		<tag k="place" v="farm" />
		<tag k="ssr:stedsnr" v="868030" />
	</node>
	<node id="9873608756" lat="69.5729108" lon="20.1983077" version="1" timestamp="2022-07-08T04:32:34Z" changeset="123342203" uid="3497659" user="NKA">
		<tag k="alt_name" v="Parakjorden" />
		<tag k="name" v="Parakjorda" />
		<tag k="place" v="farm" />
		<tag k="ssr:stedsnr" v="1078251" />
	</node>
	<node id="9873608757" lat="69.8329151" lon="19.9900465" version="1" timestamp="2022-07-08T04:32:34Z" changeset="123342203" uid="3497659" user="NKA">
		<tag k="name" v="Lyngmo" />
		<tag k="place" v="farm" />
		<tag k="ssr:stedsnr" v="847067" />
	</node>
	<node id="9873608758" lat="69.4831072" lon="20.1753235" version="1" timestamp="2022-07-08T04:32:34Z" changeset="123342203" uid="3497659" user="NKA">
		<tag k="name" v="Pollen - Vuoivuotna" />
		<tag k="name:no" v="Pollen" />
		<tag k="name:se" v="Vuoivuotna" />
		<tag k="place" v="farm" />
		<tag k="ssr:stedsnr" v="1075837" />
	</node>
</osm>
