<?xml version="1.0" encoding="UTF-8"?>
<osm generator="osmapis" version="0.6">
	<node id="-124815" lat="61.4200071927" lon="9.87312791493">
		<tag k="historic" v="shieling" />
		<tag k="name" v="Nordgard Heggesætra" />
		<tag k="place" v="locality" />
		<tag k="ssr:stedsnr" v="974338" />
	</node>
	<node id="-124813" lat="61.5175611154" lon="9.80278054748">
		<tag k="name" v="Langslåa" />
		<tag k="place" v="neighbourhood" />
		<tag k="ssr:stedsnr" v="968921" />
	</node>
	<node id="-124812" lat="61.5609805552" lon="10.0270277866">
		<tag k="name" v="Bekken" />
		<tag k="place" v="locality" />
		<tag k="ssr:stedsnr" v="962994" />
	</node>
	<node id="-124810" lat="61.5413138901" lon="9.83444722174">
		<tag k="historic" v="shieling" />
		<tag k="name" v="Vollasætra" />
		<tag k="place" v="locality" />
		<tag k="ssr:stedsnr" v="962944" />
	</node>
	<node id="-124805" lat="61.5734500042" lon="9.82037222765">
		<tag k="name" v="Timmerhaugen" />
		<tag k="place" v="isolated_dwelling" />
		<tag k="ssr:stedsnr" v="962925" />
	</node>
	<node id="-124804" lat="61.5720361137" lon="9.95019166153">
		<tag k="name" v="Pallstugu" />
		<tag k="place" v="locality" />
		<tag k="ssr:stedsnr" v="962851" />
	</node>
	<node id="-124800" lat="61.5580055523" lon="9.93866944073">
		<tag k="name" v="Haugan" />
		<tag k="place" v="farm" />
		<tag k="ssr:stedsnr" v="962835" />
	</node>
	<node id="-124799" lat="61.5565027734" lon="9.93949721961">
		<tag k="amenity" v="townhall" />
		<tag k="name" v="Sør-Fron kommunehus" />
		<tag k="ssr:stedsnr" v="962828" />
	</node>
	<node id="-124797" lat="61.5668333316" lon="9.96665833257">
		<tag k="name" v="Hardbakken" />
		<tag k="place" v="isolated_dwelling" />
		<tag k="ssr:stedsnr" v="962814" />
	</node>
	<node id="-124796" lat="61.5683333344" lon="9.96539722297">
		<tag k="name" v="Asplund" />
		<tag k="place" v="farm" />
		<tag k="ssr:stedsnr" v="962813" />
	</node>
	<node id="-124795" lat="61.5606444447" lon="9.9672777857">
		<tag k="name" v="Rostad" />
		<tag k="place" v="isolated_dwelling" />
		<tag k="ssr:stedsnr" v="962808" />
	</node>
	<node id="-124790" lat="61.4243916661" lon="9.52939166914">
		<tag k="name" v="Flåtålykkja" />
		<tag k="place" v="isolated_dwelling" />
		<tag k="ssr:stedsnr" v="962555" />
	</node>
	<node id="-124788" lat="61.5768333329" lon="9.90783055592">
		<tag k="name" v="Øvre Rudi" />
		<tag k="place" v="farm" />
		<tag k="ssr:stedsnr" v="962549" />
	</node>
	<node id="-124785" lat="61.7239027817" lon="9.94550834282">
		<tag k="historic" v="shieling" />
		<tag k="name" v="Gammelsteig" />
		<tag k="place" v="locality" />
		<tag k="ssr:stedsnr" v="962508" />
	</node>
	<node id="-124774" lat="61.59384722" lon="9.93855555489">
		<tag k="name" v="Veslsætra" />
		<tag k="place" v="isolated_dwelling" />
		<tag k="ssr:stedsnr" v="962301" />
	</node>
	<node id="-124771" lat="61.5294027809" lon="10.0082972154">
		<tag k="name" v="Stavnhaugen" />
		<tag k="place" v="farm" />
		<tag k="ssr:stedsnr" v="962291" />
	</node>
	<node id="-124769" lat="61.5402222184" lon="9.92836389274">
		<tag k="name" v="Kyrkjeeng" />
		<tag k="place" v="isolated_dwelling" />
		<tag k="ssr:stedsnr" v="962237" />
	</node>
	<node id="-124768" lat="61.5331750022" lon="9.97232499314">
		<tag k="name" v="Øvre Fosse" />
		<tag k="place" v="farm" />
		<tag k="ssr:stedsnr" v="962232" />
	</node>
	<node id="-124767" lat="61.5449277801" lon="9.87902777414">
		<tag k="name" v="Steinalykkja" />
		<tag k="place" v="locality" />
		<tag k="ssr:stedsnr" v="962233" />
	</node>
	<node id="-124766" lat="61.5319583373" lon="9.94712778573">
		<tag k="name" v="Søre Isumlia" />
		<tag k="place" v="farm" />
		<tag k="ssr:stedsnr" v="962231" />
	</node>
	<node id="-124762" lat="61.53912778" lon="9.97753888656">
		<tag k="name" v="Haverstadlykkja" />
		<tag k="place" v="isolated_dwelling" />
		<tag k="ssr:stedsnr" v="962203" />
	</node>
	<node id="-124757" lat="61.5797722259" lon="9.89963888042">
		<tag k="name" v="Ryssland" />
		<tag k="place" v="hamlet" />
		<tag k="ssr:stedsnr" v="962157" />
	</node>
	<node id="-124751" lat="61.5058388873" lon="9.99336110176">
		<tag k="historic" v="shieling" />
		<tag k="name" v="Prestkvea" />
		<tag k="place" v="locality" />
		<tag k="ssr:stedsnr" v="962114" />
	</node>
	<node id="-124748" lat="61.5170611106" lon="9.9844000008">
		<tag k="name" v="Øvre Rusta" />
		<tag k="place" v="locality" />
		<tag k="ssr:stedsnr" v="962096" />
	</node>
	<node id="-124747" lat="61.5588888857" lon="9.85863056466">
		<tag k="name" v="Østen" />
		<tag k="place" v="isolated_dwelling" />
		<tag k="ssr:stedsnr" v="962094" />
	</node>
	<node id="-124746" lat="61.5596111117" lon="9.86359722746">
		<tag k="name" v="Jørn" />
		<tag k="place" v="farm" />
		<tag k="ssr:stedsnr" v="962092" />
	</node>
	<node id="-124745" lat="61.5775694419" lon="9.86114167431">
		<tag k="name" v="Hampelykkja" />
		<tag k="place" v="isolated_dwelling" />
		<tag k="ssr:stedsnr" v="962089" />
	</node>
	<node id="-124744" lat="61.5302916676" lon="9.95403054693">
		<tag k="name" v="Ringstad" />
		<tag k="place" v="isolated_dwelling" />
		<tag k="ssr:stedsnr" v="962038" />
	</node>
	<node id="-124742" lat="61.5663638868" lon="9.80343332989">
		<tag k="name" v="Sveinson" />
		<tag k="place" v="farm" />
		<tag k="ssr:stedsnr" v="961974" />
	</node>
	<node id="-124736" lat="61.5506611109" lon="10.0308500084">
		<tag k="name" v="Sygard Forr" />
		<tag k="place" v="farm" />
		<tag k="ssr:stedsnr" v="949606" />
	</node>
	<node id="-124735" lat="61.5397388913" lon="10.0184194487">
		<tag k="name" v="Gautøyen" />
		<tag k="place" v="locality" />
		<tag k="ssr:stedsnr" v="949592" />
	</node>
	<node id="-124733" lat="61.5365611146" lon="10.0541388809">
		<tag k="name" v="Stromlia" />
		<tag k="place" v="isolated_dwelling" />
		<tag k="ssr:stedsnr" v="949586" />
	</node>
	<node id="-124732" lat="61.5341944432" lon="10.0065888968">
		<tag k="name" v="Nordre Hegge" />
		<tag k="place" v="farm" />
		<tag k="ssr:stedsnr" v="949569" />
	</node>
	<node id="-124730" lat="61.5057083316" lon="9.78481111953">
		<tag k="fixme" v="consider place=hamlet" />
		<tag k="name" v="Gålå" />
		<tag k="place" v="village" />
		<tag k="ssr:stedsnr" v="920940" />
	</node>
	<node id="-124727" lat="61.5215250038" lon="9.9128027869">
		<tag k="historic" v="shieling" />
		<tag k="name" v="Veslsætra" />
		<tag k="place" v="locality" />
		<tag k="ssr:stedsnr" v="920922" />
	</node>
	<node id="-124724" lat="61.5390805568" lon="9.82703611703">
		<tag k="alt_name" v="Baukholstulen" />
		<tag k="name" v="Baukålsstulen" />
		<tag k="old_name" v="Baukålstulen" />
		<tag k="place" v="hamlet" />
		<tag k="ssr:stedsnr" v="920909" />
	</node>
	<node id="-124723" lat="61.554352059" lon="10.0385649141">
		<tag k="alt_name" v="Forrålykkja" />
		<tag k="fixme" v="consider place=hamlet" />
		<tag k="name" v="Forålykkja" />
		<tag k="place" v="farm" />
		<tag k="ssr:stedsnr" v="920809" />
	</node>
	<node id="-124721" lat="61.5804583352" lon="9.93924722721">
		<tag k="name" v="Bergheim" />
		<tag k="place" v="farm" />
		<tag k="ssr:stedsnr" v="920618" />
	</node>
	<node id="-124720" lat="61.5807466791" lon="9.90160874363">
		<tag k="alt_name" v="Tåkåstad" />
		<tag k="name" v="Nordgard Tåkåstad" />
		<tag k="place" v="farm" />
		<tag k="ssr:stedsnr" v="920580" />
	</node>
	<node id="-124719" lat="61.57567249" lon="9.86904510602">
		<tag k="fixme" v="consider place=hamlet" />
		<tag k="name" v="Heggerud" />
		<tag k="place" v="farm" />
		<tag k="ssr:stedsnr" v="920561" />
	</node>
	<node id="-124718" lat="61.5770083313" lon="9.88262777955">
		<tag k="alt_name" v="Kjorstad" />
		<tag k="name" v="Sygard Kjorstad" />
		<tag k="place" v="farm" />
		<tag k="ssr:stedsnr" v="920559" />
	</node>
	<node id="-124709" lat="61.4715194405" lon="9.46466665808">
		<tag k="name" v="Brennsætra" />
		<tag k="place" v="isolated_dwelling" />
		<tag k="ssr:stedsnr" v="919397" />
	</node>
	<node id="-124705" lat="61.4922796782" lon="9.7528068324">
		<tag k="alt_name" v="Vallen" />
		<tag k="historic" v="shieling" />
		<tag k="name" v="Valsætrin" />
		<tag k="place" v="locality" />
		<tag k="ssr:stedsnr" v="919248" />
	</node>
	<node id="-124703" lat="61.3966277785" lon="9.41977221388">
		<tag k="name" v="Svarttjønnholet" />
		<tag k="place" v="isolated_dwelling" />
		<tag k="ssr:stedsnr" v="918526" />
	</node>
	<node id="-124698" lat="61.419310181" lon="9.87331311907">
		<tag k="historic" v="shieling" />
		<tag k="name" v="Busætra" />
		<tag k="place" v="locality" />
		<tag k="ssr:stedsnr" v="918369" />
	</node>
	<node id="-124693" lat="61.5758472212" lon="9.8929083373">
		<tag k="alt_name" v="Grytting søndre;Gryting søndre" />
		<tag k="name" v="Sygard Grytting" />
		<tag k="place" v="farm" />
		<tag k="ssr:stedsnr" v="907046" />
	</node>
	<node id="-124692" lat="61.5602138865" lon="10.0477777755">
		<tag k="amenity" v="school" />
		<tag k="name" v="Bergdal skule" />
		<tag k="ssr:stedsnr" v="902998" />
	</node>
	<node id="-124691" lat="61.5563888932" lon="10.0459416739">
		<tag k="name" v="Kolobekken" />
		<tag k="place" v="farm" />
		<tag k="ssr:stedsnr" v="902997" />
	</node>
	<node id="-124690" lat="61.5571583363" lon="10.0062861205">
		<tag k="name" v="Brattråket" />
		<tag k="place" v="farm" />
		<tag k="ssr:stedsnr" v="902992" />
	</node>
	<node id="-124689" lat="61.5394694471" lon="9.76464723146">
		<tag k="name" v="Nyland" />
		<tag k="place" v="isolated_dwelling" />
		<tag k="ssr:stedsnr" v="902979" />
	</node>
	<node id="-124686" lat="61.5776805572" lon="10.0396250044">
		<tag k="name" v="Nedre Ommundlia" />
		<tag k="place" v="farm" />
		<tag k="ssr:stedsnr" v="902958" />
	</node>
	<node id="-124685" lat="61.5739777804" lon="9.95406112004">
		<tag k="name" v="Fallet" />
		<tag k="place" v="isolated_dwelling" />
		<tag k="ssr:stedsnr" v="902892" />
	</node>
	<node id="-124684" lat="61.5716138932" lon="9.94852778369">
		<tag k="name" v="Bennstugu" />
		<tag k="place" v="isolated_dwelling" />
		<tag k="ssr:stedsnr" v="902889" />
	</node>
	<node id="-124683" lat="61.5662277754" lon="9.95453333081">
		<tag k="name" v="Nordgard Bjørke" />
		<tag k="place" v="farm" />
		<tag k="ssr:stedsnr" v="902863" />
	</node>
	<node id="-124682" lat="61.5704388929" lon="9.95322499803">
		<tag k="name" v="Ommundgardshågån" />
		<tag k="place" v="farm" />
		<tag k="ssr:stedsnr" v="902859" />
	</node>
	<node id="-124681" lat="61.5632833362" lon="9.949733328">
		<tag k="name" v="Rønningen" />
		<tag k="place" v="isolated_dwelling" />
		<tag k="ssr:stedsnr" v="902846" />
	</node>
	<node id="-124678" lat="61.6863472212" lon="9.9551611069">
		<tag k="building" v="industrial" />
		<tag k="name" v="Fiskesaga" />
		<tag k="ssr:stedsnr" v="902754" />
	</node>
	<node id="-124671" lat="61.551866671" lon="9.94796666495">
		<tag k="name" v="Reiret" />
		<tag k="place" v="isolated_dwelling" />
		<tag k="ssr:stedsnr" v="902608" />
	</node>
	<node id="-124669" lat="61.5909583294" lon="10.0227027827">
		<tag k="name" v="Liberg" />
		<tag k="place" v="isolated_dwelling" />
		<tag k="ssr:stedsnr" v="902597" />
	</node>
	<node id="-124662" lat="61.626911108" lon="9.89318332491">
		<tag k="historic" v="shieling" />
		<tag k="name" v="Haugsjordsætra" />
		<tag k="place" v="locality" />
		<tag k="ssr:stedsnr" v="902441" />
	</node>
	<node id="-124654" lat="61.5305027777" lon="10.0339111179">
		<tag k="name" v="Nørdre Heggelia" />
		<tag k="place" v="isolated_dwelling" />
		<tag k="ssr:stedsnr" v="902340" />
	</node>
	<node id="-124650" lat="61.538627775" lon="9.98447222573">
		<tag k="name" v="Bålet" />
		<tag k="place" v="farm" />
		<tag k="ssr:stedsnr" v="902210" />
	</node>
	<node id="-124649" lat="61.5788138857" lon="9.88784167185">
		<tag k="name" v="Nordgard Kjorstad" />
		<tag k="place" v="farm" />
		<tag k="ssr:stedsnr" v="902182" />
	</node>
	<node id="-124648" lat="61.5817333338" lon="9.90466943628">
		<tag k="name" v="Tåkåstadbakken" />
		<tag k="place" v="farm" />
		<tag k="ssr:stedsnr" v="902175" />
	</node>
	<node id="-124647" lat="61.5583083345" lon="9.87909723077">
		<tag k="name" v="Tjøstelson" />
		<tag k="place" v="locality" />
		<tag k="ssr:stedsnr" v="902172" />
	</node>
	<node id="-124645" lat="61.5787083355" lon="9.90924999092">
		<tag k="name" v="Øvre Bakstad" />
		<tag k="place" v="isolated_dwelling" />
		<tag k="ssr:stedsnr" v="902171" />
	</node>
	<node id="-124644" lat="61.5540583344" lon="9.93416110574">
		<tag k="leisure" v="pitch" />
		<tag k="name" v="Flatmoen" />
		<tag k="ssr:stedsnr" v="902169" />
	</node>
	<node id="-124642" lat="61.5883916628" lon="9.89266945099">
		<tag k="name" v="Stensrudsætra" />
		<tag k="place" v="isolated_dwelling" />
		<tag k="ssr:stedsnr" v="902132" />
	</node>
	<node id="-124638" lat="61.569097219" lon="9.84662222449">
		<tag k="amenity" v="school" />
		<tag k="name" v="Harpefoss skule" />
		<tag k="ssr:stedsnr" v="902113" />
	</node>
	<node id="-124630" lat="61.5257611069" lon="9.96081389227">
		<tag k="name" v="Nordpå" />
		<tag k="place" v="isolated_dwelling" />
		<tag k="ssr:stedsnr" v="902048" />
	</node>
	<node id="-124628" lat="61.5219138914" lon="9.95923611631">
		<tag k="amenity" v="school" />
		<tag k="name" v="Tofte skule" />
		<tag k="ssr:stedsnr" v="902015" />
	</node>
	<node id="-124625" lat="61.5614111151" lon="9.82104166603">
		<tag k="name" v="Vådalen" />
		<tag k="place" v="isolated_dwelling" />
		<tag k="ssr:stedsnr" v="901948" />
	</node>
	<node id="-124622" lat="61.5188277752" lon="9.77006666772">
		<tag k="alt_name" v="Toppastrand" />
		<tag k="name" v="Toppastranda" />
		<tag k="place" v="neighbourhood" />
		<tag k="ssr:stedsnr" v="860938" />
	</node>
	<node id="-124621" lat="61.5378697595" lon="9.94006722367">
		<tag k="fixme" v="consider place=hamlet" />
		<tag k="name" v="Isum" />
		<tag k="place" v="farm" />
		<tag k="ssr:stedsnr" v="860907" />
	</node>
	<node id="-124620" lat="61.560872226" lon="10.030811112">
		<tag k="name" v="Ospa" />
		<tag k="place" v="farm" />
		<tag k="ssr:stedsnr" v="860826" />
	</node>
	<node id="-124619" lat="61.6167083312" lon="9.97784444902">
		<tag k="name" v="Frydalen" />
		<tag k="place" v="locality" />
		<tag k="ssr:stedsnr" v="860785" />
	</node>
	<node id="-124618" lat="61.5769805555" lon="9.93610277979">
		<tag k="alt_name" v="Korstad" />
		<tag k="name" v="Nordgard Korstad" />
		<tag k="place" v="farm" />
		<tag k="ssr:stedsnr" v="860667" />
	</node>
	<node id="-124617" lat="61.5648237735" lon="9.82234201383">
		<tag k="alt_name" v="Vade;Vaet" />
		<tag k="fixme" v="consider place=hamlet" />
		<tag k="name" v="Vadet" />
		<tag k="place" v="farm" />
		<tag k="ssr:stedsnr" v="860644" />
	</node>
	<node id="-124616" lat="61.5803611101" lon="9.81815555088">
		<tag k="name" v="Sandvoll" />
		<tag k="place" v="farm" />
		<tag k="ssr:stedsnr" v="860612" />
	</node>
	<node id="-124614" lat="61.7562777782" lon="9.97932499103">
		<tag k="fixme" v="consider tourism=alpine_hut or tourism=chalet" />
		<tag k="name" v="Eldåbu" />
		<tag k="ssr:stedsnr" v="860585" />
		<tag k="tourism" v="wilderness_hut" />
	</node>
	<node id="-124613" lat="61.6003972258" lon="9.92849722109">
		<tag k="name" v="Auglestad" />
		<tag k="place" v="farm" />
		<tag k="ssr:stedsnr" v="860584" />
	</node>
	<node id="-124611" lat="61.548903216" lon="9.97881496225">
		<tag k="alt_name" v="Jetlund" />
		<tag k="fixme" v="consider place=hamlet" />
		<tag k="name" v="Hjetlund" />
		<tag k="place" v="farm" />
		<tag k="ssr:stedsnr" v="859799" />
	</node>
	<node id="-124610" lat="61.5361423942" lon="10.0464475767">
		<tag k="fixme" v="consider place=hamlet" />
		<tag k="name" v="Bakke" />
		<tag k="place" v="farm" />
		<tag k="ssr:stedsnr" v="859793" />
	</node>
	<node id="-124609" lat="61.6599129563" lon="9.94619391814">
		<tag k="alt_name" v="Nysætrin" />
		<tag k="historic" v="shieling" />
		<tag k="name" v="Nysætra" />
		<tag k="place" v="locality" />
		<tag k="ssr:stedsnr" v="859682" />
	</node>
	<node id="-124596" lat="61.4524527796" lon="9.73924999608">
		<tag k="alt_name" v="Nordigard Gryttingsætra" />
		<tag k="historic" v="shieling" />
		<tag k="name" v="Gryttingsætra" />
		<tag k="place" v="locality" />
		<tag k="ssr:stedsnr" v="858301" />
	</node>
	<node id="-124588" lat="61.5492305586" lon="10.0460222244">
		<tag k="building" v="commercial" />
		<tag k="name" v="Fryatun" />
		<tag k="ssr:stedsnr" v="847672" />
	</node>
	<node id="-124585" lat="61.5032555588" lon="9.78878610509">
		<tag k="historic" v="shieling" />
		<tag k="name" v="Hauglandsætra" />
		<tag k="place" v="locality" />
		<tag k="ssr:stedsnr" v="842586" />
	</node>
	<node id="-124584" lat="61.5597666634" lon="10.0269611092">
		<tag k="name" v="Steberglykkja" />
		<tag k="place" v="farm" />
		<tag k="ssr:stedsnr" v="842000" />
	</node>
	<node id="-124583" lat="61.5585777781" lon="10.0223027697">
		<tag k="name" v="Kleiva" />
		<tag k="place" v="isolated_dwelling" />
		<tag k="ssr:stedsnr" v="841999" />
	</node>
	<node id="-124582" lat="61.5312972207" lon="9.76766389235">
		<tag k="fixme" v="consider tourism=alpine_hut or tourism=chalet" />
		<tag k="name" v="Livoll ungdomssenter" />
		<tag k="ssr:stedsnr" v="841955" />
		<tag k="tourism" v="wilderness_hut" />
	</node>
	<node id="-124581" lat="61.5677194427" lon="9.81555000662">
		<tag k="name" v="Grisibu" />
		<tag k="place" v="farm" />
		<tag k="ssr:stedsnr" v="841921" />
	</node>
	<node id="-124580" lat="61.5643972258" lon="9.87697500474">
		<tag k="name" v="Jodalen" />
		<tag k="place" v="locality" />
		<tag k="ssr:stedsnr" v="841859" />
	</node>
	<node id="-124579" lat="61.5735583366" lon="9.91696944359">
		<tag k="name" v="Roven" />
		<tag k="place" v="isolated_dwelling" />
		<tag k="ssr:stedsnr" v="841855" />
	</node>
	<node id="-124578" lat="61.5679555587" lon="9.91487499548">
		<tag k="name" v="Fronheim" />
		<tag k="place" v="isolated_dwelling" />
		<tag k="ssr:stedsnr" v="841850" />
	</node>
	<node id="-124576" lat="61.5576777754" lon="9.9425527763">
		<tag k="name" v="Nordre Prestlykkja" />
		<tag k="place" v="farm" />
		<tag k="ssr:stedsnr" v="841831" />
	</node>
	<node id="-124575" lat="61.5536111138" lon="9.95646387984">
		<tag k="name" v="Bergmoen" />
		<tag k="place" v="isolated_dwelling" />
		<tag k="ssr:stedsnr" v="841824" />
	</node>
	<node id="-124574" lat="61.5712361139" lon="9.95459723049">
		<tag k="name" v="Søre Kvikstadhågån" />
		<tag k="place" v="isolated_dwelling" />
		<tag k="ssr:stedsnr" v="841821" />
	</node>
	<node id="-124573" lat="61.5702749965" lon="9.94669722039">
		<tag k="alt_name" v="Ommundgard Øvertun" />
		<tag k="fixme" v="consider place=hamlet" />
		<tag k="name" v="Ommungard" />
		<tag k="place" v="farm" />
		<tag k="ssr:stedsnr" v="841819" />
	</node>
	<node id="-124572" lat="61.5633833321" lon="9.97406111798">
		<tag k="name" v="Jørnstugu" />
		<tag k="place" v="isolated_dwelling" />
		<tag k="ssr:stedsnr" v="841809" />
	</node>
	<node id="-124565" lat="61.550927776" lon="9.96126944145">
		<tag k="name" v="Søre Vangen" />
		<tag k="place" v="isolated_dwelling" />
		<tag k="ssr:stedsnr" v="841594" />
	</node>
	<node id="-124564" lat="61.5532083323" lon="9.9471055636">
		<tag k="name" v="Strandstugu" />
		<tag k="place" v="isolated_dwelling" />
		<tag k="ssr:stedsnr" v="841573" />
	</node>
	<node id="-124547" lat="61.4908861119" lon="10.0242166758">
		<tag k="name" v="Olstadbua" />
		<tag k="place" v="isolated_dwelling" />
		<tag k="ssr:stedsnr" v="841346" />
	</node>
	<node id="-124535" lat="61.5585444446" lon="9.90172500337">
		<tag k="name" v="Skreddarstugu" />
		<tag k="place" v="farm" />
		<tag k="ssr:stedsnr" v="841199" />
	</node>
	<node id="-124534" lat="61.5750666673" lon="9.87546111894">
		<tag k="name" v="Torehaugen" />
		<tag k="place" v="farm" />
		<tag k="ssr:stedsnr" v="841196" />
	</node>
	<node id="-124533" lat="61.5591083376" lon="9.89281110733">
		<tag k="name" v="Trassro" />
		<tag k="place" v="locality" />
		<tag k="ssr:stedsnr" v="841188" />
	</node>
	<node id="-124532" lat="61.5588944469" lon="9.88271389816">
		<tag k="name" v="Haug" />
		<tag k="place" v="isolated_dwelling" />
		<tag k="ssr:stedsnr" v="841184" />
	</node>
	<node id="-124531" lat="61.5595138874" lon="9.8795916697">
		<tag k="name" v="Skreddarlia" />
		<tag k="place" v="farm" />
		<tag k="ssr:stedsnr" v="841183" />
	</node>
	<node id="-124530" lat="61.5779583298" lon="9.90983334075">
		<tag k="name" v="Nedre Bakstad" />
		<tag k="place" v="farm" />
		<tag k="ssr:stedsnr" v="841178" />
	</node>
	<node id="-124529" lat="61.5811833362" lon="9.93175833589">
		<tag k="name" v="Person" />
		<tag k="place" v="isolated_dwelling" />
		<tag k="ssr:stedsnr" v="841174" />
	</node>
	<node id="-124524" lat="61.5672361152" lon="9.85301666732">
		<tag k="name" v="Rønningen" />
		<tag k="place" v="farm" />
		<tag k="ssr:stedsnr" v="841126" />
	</node>
	<node id="-124523" lat="61.5628444466" lon="9.86966110529">
		<tag k="name" v="Øvre Øygarden" />
		<tag k="place" v="farm" />
		<tag k="ssr:stedsnr" v="841125" />
	</node>
	<node id="-124522" lat="61.5732166638" lon="9.84695833008">
		<tag k="name" v="Steindalen" />
		<tag k="place" v="isolated_dwelling" />
		<tag k="ssr:stedsnr" v="841122" />
	</node>
	<node id="-124519" lat="61.5596499991" lon="9.86107500532">
		<tag k="name" v="Jenshus" />
		<tag k="place" v="farm" />
		<tag k="ssr:stedsnr" v="841098" />
	</node>
	<node id="-124515" lat="61.5313416686" lon="9.9748138909">
		<tag k="name" v="Nedre Fossehågån" />
		<tag k="place" v="farm" />
		<tag k="ssr:stedsnr" v="841068" />
	</node>
	<node id="-124514" lat="61.5250388876" lon="9.96631944001">
		<tag k="name" v="Ringen" />
		<tag k="place" v="isolated_dwelling" />
		<tag k="ssr:stedsnr" v="841061" />
	</node>
	<node id="-124513" lat="61.5270583337" lon="9.9646361106">
		<tag k="name" v="Ommundheimen" />
		<tag k="place" v="isolated_dwelling" />
		<tag k="ssr:stedsnr" v="841060" />
	</node>
	<node id="-124512" lat="61.5242305575" lon="9.94216943781">
		<tag k="name" v="Sveinsonslykkja" />
		<tag k="place" v="locality" />
		<tag k="ssr:stedsnr" v="841019" />
	</node>
	<node id="-124508" lat="61.5509888872" lon="10.0302611045">
		<tag k="name" v="Øvre Søre Forr" />
		<tag k="place" v="farm" />
		<tag k="ssr:stedsnr" v="828621" />
	</node>
	<node id="-124505" lat="61.4554555516" lon="9.5327305625">
		<tag k="name" v="Bingsbua" />
		<tag k="place" v="isolated_dwelling" />
		<tag k="ssr:stedsnr" v="811176" />
	</node>
	<node id="-124504" lat="61.7310293954" lon="9.98824643269">
		<tag k="historic" v="shieling" />
		<tag k="name" v="Eldåsæter" />
		<tag k="place" v="locality" />
		<tag k="ssr:stedsnr" v="799962" />
	</node>
	<node id="-124502" lat="61.5133562602" lon="9.95872296849">
		<tag k="fixme" v="consider place=hamlet" />
		<tag k="name" v="Hovdlia" />
		<tag k="place" v="farm" />
		<tag k="ssr:stedsnr" v="799944" />
	</node>
	<node id="-124500" lat="61.5119250011" lon="9.90589999553">
		<tag k="historic" v="shieling" />
		<tag k="name" v="Haustsætra" />
		<tag k="place" v="locality" />
		<tag k="ssr:stedsnr" v="799942" />
	</node>
	<node id="-124497" lat="61.5543583323" lon="9.91782499147">
		<tag k="alt_name" v="Fevollen" />
		<tag k="name" v="Øvre Fevollen" />
		<tag k="place" v="farm" />
		<tag k="ssr:stedsnr" v="799908" />
	</node>
	<node id="-124496" lat="61.5197539934" lon="9.97885747715">
		<tag k="alt_name" v="Holoen" />
		<tag k="fixme" v="consider place=hamlet" />
		<tag k="name" v="Holo" />
		<tag k="place" v="farm" />
		<tag k="ssr:stedsnr" v="799874" />
	</node>
	<node id="-124495" lat="61.5272163369" lon="10.0296721737">
		<tag k="fixme" v="consider place=hamlet" />
		<tag k="name" v="Heggelihaugen" />
		<tag k="place" v="farm" />
		<tag k="ssr:stedsnr" v="799861" />
	</node>
	<node id="-124494" lat="61.5270361095" lon="10.0118277788">
		<tag k="fixme" v="consider place=hamlet" />
		<tag k="name" v="Søre Lia" />
		<tag k="place" v="village" />
		<tag k="ssr:stedsnr" v="799860" />
	</node>
	<node id="-124493" lat="61.5609305561" lon="10.0004222261">
		<tag k="name" v="Haugen" />
		<tag k="place" v="farm" />
		<tag k="ssr:stedsnr" v="799828" />
	</node>
	<node id="-124492" lat="61.5866589614" lon="10.0310227338">
		<tag k="alt_name" v="Hogan;Gråvåhaugen;Latopp" />
		<tag k="fixme" v="consider place=hamlet" />
		<tag k="name" v="Hågån" />
		<tag k="place" v="farm" />
		<tag k="ssr:stedsnr" v="799811" />
	</node>
	<node id="-124491" lat="61.5626935281" lon="9.89347357524">
		<tag k="fixme" v="consider place=hamlet" />
		<tag k="name" v="Hytta" />
		<tag k="place" v="farm" />
		<tag k="ssr:stedsnr" v="799622" />
	</node>
	<node id="-124490" lat="61.5647251619" lon="9.83675481585">
		<tag k="name" v="Nørdre Uppigard Skurdal" />
		<tag k="place" v="hamlet" />
		<tag k="ssr:stedsnr" v="799616" />
	</node>
	<node id="-124489" lat="61.5810521824" lon="9.84514805903">
		<tag k="fixme" v="consider place=hamlet" />
		<tag k="name" v="Solbrå" />
		<tag k="place" v="farm" />
		<tag k="ssr:stedsnr" v="799607" />
	</node>
	<node id="-124488" lat="61.8834749963" lon="10.0504305532">
		<tag k="name" v="Musvolsætra" />
		<tag k="place" v="isolated_dwelling" />
		<tag k="ssr:stedsnr" v="799600" />
	</node>
	<node id="-124487" lat="61.575952782" lon="9.8149333425">
		<tag k="alt_name" v="Øvre Svartlykkja" />
		<tag k="name" v="Svartlykkja" />
		<tag k="place" v="farm" />
		<tag k="ssr:stedsnr" v="799582" />
	</node>
	<node id="-124484" lat="61.5914250024" lon="9.94393333571">
		<tag k="name" v="Korsmo" />
		<tag k="place" v="farm" />
		<tag k="ssr:stedsnr" v="799555" />
	</node>
	<node id="-124480" lat="61.5360803811" lon="10.0315637376">
		<tag k="fixme" v="consider place=hamlet" />
		<tag k="name" v="Underdalen" />
		<tag k="place" v="farm" />
		<tag k="ssr:stedsnr" v="798767" />
	</node>
	<node id="-124473" lat="61.4493999984" lon="9.49642776905">
		<tag k="name" v="Slettesætra" />
		<tag k="place" v="isolated_dwelling" />
		<tag k="ssr:stedsnr" v="797425" />
	</node>
	<node id="-124470" lat="61.4345333352" lon="9.88776111147">
		<tag k="alt_name" v="Kantlia, øvre" />
		<tag k="name" v="Øvre Kantlia" />
		<tag k="place" v="isolated_dwelling" />
		<tag k="ssr:stedsnr" v="797330" />
	</node>
	<node id="-124463" lat="61.4619722212" lon="9.72652777416">
		<tag k="alt_name" v="Gjersetsætrin" />
		<tag k="historic" v="shieling" />
		<tag k="name" v="Gjelsætrin" />
		<tag k="place" v="locality" />
		<tag k="ssr:stedsnr" v="797270" />
	</node>
	<node id="-124461" lat="61.5449638914" lon="10.0475249917">
		<tag k="name" v="Nyheim" />
		<tag k="place" v="farm" />
		<tag k="ssr:stedsnr" v="786698" />
	</node>
	<node id="-124459" lat="61.5264916682" lon="9.7696138921">
		<tag k="historic" v="shieling" />
		<tag k="name" v="Bergemillom" />
		<tag k="place" v="locality" />
		<tag k="ssr:stedsnr" v="781637" />
	</node>
	<node id="-124458" lat="61.5037055562" lon="9.78764722236">
		<tag k="historic" v="shieling" />
		<tag k="name" v="Rønnsætra" />
		<tag k="place" v="locality" />
		<tag k="ssr:stedsnr" v="781586" />
	</node>
	<node id="-124454" lat="61.5652722242" lon="9.80916667239">
		<tag k="name" v="Karlheimen" />
		<tag k="place" v="locality" />
		<tag k="ssr:stedsnr" v="780967" />
	</node>
	<node id="-124453" lat="61.5543305568" lon="9.81178333882">
		<tag k="name" v="Haugabaukhol" />
		<tag k="place" v="farm" />
		<tag k="ssr:stedsnr" v="780961" />
	</node>
	<node id="-124450" lat="61.5973999958" lon="10.0070361138">
		<tag k="name" v="Skeiesætra" />
		<tag k="place" v="locality" />
		<tag k="ssr:stedsnr" v="780910" />
	</node>
	<node id="-124448" lat="61.4370083327" lon="9.72693611575">
		<tag k="name" v="Kjorstadbua" />
		<tag k="place" v="isolated_dwelling" />
		<tag k="ssr:stedsnr" v="780837" />
	</node>
	<node id="-124446" lat="61.5684083303" lon="9.91277500542">
		<tag k="name" v="Jordmorstugu" />
		<tag k="place" v="isolated_dwelling" />
		<tag k="ssr:stedsnr" v="780831" />
	</node>
	<node id="-124445" lat="61.570305556" lon="9.91918054966">
		<tag k="name" v="Frøningheimen" />
		<tag k="place" v="isolated_dwelling" />
		<tag k="ssr:stedsnr" v="780823" />
	</node>
	<node id="-124444" lat="61.5599796948" lon="9.94664946049">
		<tag k="fixme" v="consider place=hamlet" />
		<tag k="name" v="Prestgarden" />
		<tag k="place" v="farm" />
		<tag k="ssr:stedsnr" v="780817" />
	</node>
	<node id="-124442" lat="61.5707750027" lon="9.95575833024">
		<tag k="name" v="Bjørkehågån" />
		<tag k="place" v="farm" />
		<tag k="ssr:stedsnr" v="780802" />
	</node>
	<node id="-124440" lat="61.42048056" lon="9.55235833104">
		<tag k="name" v="Malmplassen" />
		<tag k="place" v="locality" />
		<tag k="ssr:stedsnr" v="780763" />
	</node>
	<node id="-124431" lat="61.5527277772" lon="9.96876944941">
		<tag k="name" v="Søre Berge" />
		<tag k="place" v="farm" />
		<tag k="ssr:stedsnr" v="780539" />
	</node>
	<node id="-124430" lat="61.5495333292" lon="9.94446943821">
		<tag k="name" v="Heimlund" />
		<tag k="place" v="farm" />
		<tag k="ssr:stedsnr" v="780524" />
	</node>
	<node id="-124429" lat="61.5499472201" lon="9.9462638961">
		<tag k="name" v="Stensberg" />
		<tag k="place" v="farm" />
		<tag k="ssr:stedsnr" v="780523" />
	</node>
	<node id="-124422" lat="61.4767611135" lon="9.44457222887">
		<tag k="name" v="Bjørkli" />
		<tag k="place" v="farm" />
		<tag k="ssr:stedsnr" v="780480" />
	</node>
	<node id="-124412" lat="61.5071750037" lon="9.884033339">
		<tag k="name" v="Liubakken" />
		<tag k="place" v="isolated_dwelling" />
		<tag k="ssr:stedsnr" v="780342" />
	</node>
	<node id="-124409" lat="61.6126138893" lon="9.96412777493">
		<tag k="historic" v="shieling" />
		<tag k="name" v="Beitdokksætra" />
		<tag k="place" v="locality" />
		<tag k="ssr:stedsnr" v="780314" />
	</node>
	<node id="-124408" lat="61.5794944414" lon="9.94385000291">
		<tag k="name" v="Toppen" />
		<tag k="place" v="isolated_dwelling" />
		<tag k="ssr:stedsnr" v="780305" />
	</node>
	<node id="-124407" lat="61.529349997" lon="10.0259861139">
		<tag k="name" v="Kjerringlykkja" />
		<tag k="place" v="farm" />
		<tag k="ssr:stedsnr" v="780303" />
	</node>
	<node id="-124405" lat="61.5500805521" lon="9.91048611439">
		<tag k="name" v="Sveiphaugen" />
		<tag k="place" v="isolated_dwelling" />
		<tag k="ssr:stedsnr" v="780249" />
	</node>
	<node id="-124403" lat="61.5362138926" lon="9.96659167295">
		<tag k="name" v="Vassrud" />
		<tag k="place" v="farm" />
		<tag k="ssr:stedsnr" v="780233" />
	</node>
	<node id="-124400" lat="61.5370361094" lon="9.99099445091">
		<tag k="name" v="Bakkom" />
		<tag k="place" v="farm" />
		<tag k="ssr:stedsnr" v="780203" />
	</node>
	<node id="-124398" lat="61.5561055587" lon="9.88751111246">
		<tag k="name" v="Storbakken" />
		<tag k="place" v="locality" />
		<tag k="ssr:stedsnr" v="780191" />
	</node>
	<node id="-124397" lat="61.5540583323" lon="9.89730833447">
		<tag k="name" v="Flisdokka" />
		<tag k="place" v="locality" />
		<tag k="ssr:stedsnr" v="780189" />
	</node>
	<node id="-124396" lat="61.560716663" lon="9.88100834059">
		<tag k="name" v="Kong" />
		<tag k="place" v="isolated_dwelling" />
		<tag k="ssr:stedsnr" v="780182" />
	</node>
	<node id="-124395" lat="61.5632361147" lon="9.88959444627">
		<tag k="name" v="Steinalykkja" />
		<tag k="place" v="locality" />
		<tag k="ssr:stedsnr" v="780183" />
	</node>
	<node id="-124394" lat="61.56569722" lon="9.92172778191">
		<tag k="name" v="Øvre Jota" />
		<tag k="place" v="isolated_dwelling" />
		<tag k="ssr:stedsnr" v="780178" />
	</node>
	<node id="-124390" lat="61.5665972256" lon="9.86846666788">
		<tag k="name" v="Strand" />
		<tag k="place" v="farm" />
		<tag k="ssr:stedsnr" v="780113" />
	</node>
	<node id="-124389" lat="61.5620361127" lon="9.86986945039">
		<tag k="name" v="Øygarden" />
		<tag k="place" v="isolated_dwelling" />
		<tag k="ssr:stedsnr" v="780109" />
	</node>
	<node id="-124388" lat="61.5790833356" lon="9.85910555956">
		<tag k="name" v="Stensrud" />
		<tag k="place" v="isolated_dwelling" />
		<tag k="ssr:stedsnr" v="780100" />
	</node>
	<node id="-124387" lat="61.5282916638" lon="9.96195556214">
		<tag k="name" v="Erstad" />
		<tag k="place" v="farm" />
		<tag k="ssr:stedsnr" v="780051" />
	</node>
	<node id="-124386" lat="61.5260805566" lon="9.98775555601">
		<tag k="name" v="Klufta" />
		<tag k="place" v="locality" />
		<tag k="ssr:stedsnr" v="780004" />
	</node>
	<node id="-124383" lat="61.548683331" lon="10.0409194416">
		<tag k="name" v="Nedre Vollberg" />
		<tag k="place" v="isolated_dwelling" />
		<tag k="ssr:stedsnr" v="767639" />
	</node>
	<node id="-124382" lat="61.5504972232" lon="10.0431000041">
		<tag k="name" v="Midtlykkja" />
		<tag k="place" v="isolated_dwelling" />
		<tag k="ssr:stedsnr" v="767637" />
	</node>
	<node id="-124381" lat="61.5335758422" lon="9.99787355856">
		<tag k="fixme" v="consider place=hamlet" />
		<tag k="name" v="Ånekre" />
		<tag k="place" v="farm" />
		<tag k="ssr:stedsnr" v="767617" />
	</node>
	<node id="-124377" lat="61.7496888913" lon="9.96091110707">
		<tag k="alt_name" v="Nysteig" />
		<tag k="fixme" v="multiple name tags, choose one and add the other to alt_name" />
		<tag k="historic" v="shieling" />
		<tag k="name" v="Eldåsætra;Nysteg" />
		<tag k="place" v="locality" />
		<tag k="ssr:stedsnr" v="739503" />
	</node>
	<node id="-124376" lat="61.5631252748" lon="9.8180679521">
		<tag k="alt_name" v="Baukhol" />
		<tag k="fixme" v="consider place=hamlet" />
		<tag k="name" v="Baukål" />
		<tag k="place" v="farm" />
		<tag k="ssr:stedsnr" v="738903" />
	</node>
	<node id="-124375" lat="61.5234338589" lon="9.99750559811">
		<tag k="alt_name" v="Prestlykkja" />
		<tag k="name" v="Været" />
		<tag k="place" v="locality" />
		<tag k="ssr:stedsnr" v="738874" />
	</node>
	<node id="-124374" lat="61.5368083342" lon="10.0201555491">
		<tag k="name" v="Svea" />
		<tag k="place" v="farm" />
		<tag k="ssr:stedsnr" v="738840" />
	</node>
	<node id="-124372" lat="61.726000001" lon="9.93937776916">
		<tag k="historic" v="shieling" />
		<tag k="name" v="Dalseggsætra" />
		<tag k="place" v="locality" />
		<tag k="ssr:stedsnr" v="738689" />
	</node>
	<node id="-124370" lat="61.5749055511" lon="9.90816388845">
		<tag k="alt_name" v="Rudi" />
		<tag k="name" v="Nedre Rudi" />
		<tag k="place" v="farm" />
		<tag k="ssr:stedsnr" v="738621" />
	</node>
	<node id="-124369" lat="61.5796387733" lon="9.93088993003">
		<tag k="fixme" v="consider place=hamlet" />
		<tag k="name" v="Ånne" />
		<tag k="place" v="farm" />
		<tag k="ssr:stedsnr" v="738620" />
	</node>
	<node id="-124367" lat="61.5660249963" lon="9.95704167543">
		<tag k="alt_name" v="Bjørke" />
		<tag k="name" v="Sygard Bjørke" />
		<tag k="place" v="farm" />
		<tag k="ssr:stedsnr" v="738584" />
	</node>
	<node id="-124366" lat="61.5880444457" lon="9.8917361164">
		<tag k="name" v="Veslsætra" />
		<tag k="place" v="farm" />
		<tag k="ssr:stedsnr" v="738569" />
	</node>
	<node id="-124363" lat="61.5991611088" lon="9.93228056143">
		<tag k="name" v="Myrvang" />
		<tag k="place" v="farm" />
		<tag k="ssr:stedsnr" v="738539" />
	</node>
	<node id="-124361" lat="61.5897999959" lon="9.94659999204">
		<tag k="name" v="Myrvoll" />
		<tag k="place" v="farm" />
		<tag k="ssr:stedsnr" v="738523" />
	</node>
	<node id="-124348" lat="61.4270861153" lon="9.94651388283">
		<tag k="name" v="Sjøsjålia" />
		<tag k="place" v="neighbourhood" />
		<tag k="ssr:stedsnr" v="725921" />
	</node>
	<node id="-124347" lat="61.5476222207" lon="10.0458138826">
		<tag k="name" v="Fryaheim" />
		<tag k="place" v="isolated_dwelling" />
		<tag k="ssr:stedsnr" v="725606" />
	</node>
	<node id="-124346" lat="61.5559444416" lon="10.0078749999">
		<tag k="name" v="Bergom" />
		<tag k="place" v="locality" />
		<tag k="ssr:stedsnr" v="720987" />
	</node>
	<node id="-124345" lat="61.5557861112" lon="10.0051722231">
		<tag k="name" v="Rudlandslykkja" />
		<tag k="place" v="locality" />
		<tag k="ssr:stedsnr" v="720986" />
	</node>
	<node id="-124341" lat="61.5688638879" lon="9.89288888192">
		<tag k="name" v="Nedre Grytting" />
		<tag k="place" v="farm" />
		<tag k="ssr:stedsnr" v="720880" />
	</node>
	<node id="-124340" lat="61.5687000038" lon="9.91178889486">
		<tag k="name" v="Heljestugu" />
		<tag k="place" v="farm" />
		<tag k="ssr:stedsnr" v="720879" />
	</node>
	<node id="-124339" lat="61.5543750032" lon="9.96159999852">
		<tag k="name" v="Reiret" />
		<tag k="place" v="isolated_dwelling" />
		<tag k="ssr:stedsnr" v="720864" />
	</node>
	<node id="-124333" lat="61.4488027811" lon="9.49668610929">
		<tag k="name" v="Sandbulykkja" />
		<tag k="place" v="locality" />
		<tag k="ssr:stedsnr" v="720623" />
	</node>
	<node id="-124332" lat="61.5042416642" lon="9.78622222582">
		<tag k="historic" v="shieling" />
		<tag k="name" v="Bruasætra" />
		<tag k="place" v="locality" />
		<tag k="ssr:stedsnr" v="720591" />
	</node>
	<node id="-124329" lat="61.4209638855" lon="9.53350000162">
		<tag k="name" v="Malmplassen" />
		<tag k="place" v="isolated_dwelling" />
		<tag k="ssr:stedsnr" v="720586" />
	</node>
	<node id="-124328" lat="61.5023805549" lon="9.78148889611">
		<tag k="historic" v="shieling" />
		<tag k="name" v="Grønndokka" />
		<tag k="place" v="locality" />
		<tag k="ssr:stedsnr" v="720583" />
	</node>
	<node id="-124318" lat="61.5361055586" lon="9.96321111245">
		<tag k="name" v="Skarset" />
		<tag k="place" v="farm" />
		<tag k="ssr:stedsnr" v="720247" />
	</node>
	<node id="-124316" lat="61.5607365571" lon="9.90048757853">
		<tag k="fixme" v="consider place=hamlet" />
		<tag k="name" v="Vollen" />
		<tag k="place" v="farm" />
		<tag k="ssr:stedsnr" v="720179" />
	</node>
	<node id="-124314" lat="61.4897055515" lon="9.74671110596">
		<tag k="historic" v="shieling" />
		<tag k="name" v="Sygard Kjorstadsætra" />
		<tag k="place" v="locality" />
		<tag k="ssr:stedsnr" v="720153" />
	</node>
	<node id="-124311" lat="61.5112583334" lon="9.95577777053">
		<tag k="name" v="Nerjordet" />
		<tag k="place" v="farm" />
		<tag k="ssr:stedsnr" v="720029" />
	</node>
	<node id="-124310" lat="61.5583861155" lon="9.81145833286">
		<tag k="name" v="Dalsbaukhol" />
		<tag k="place" v="farm" />
		<tag k="ssr:stedsnr" v="719957" />
	</node>
	<node id="-124308" lat="61.5423666698" lon="9.81841666663">
		<tag k="historic" v="shieling" />
		<tag k="name" v="Kristenlykkja" />
		<tag k="place" v="locality" />
		<tag k="ssr:stedsnr" v="719935" />
	</node>
	<node id="-124305" lat="61.5680222202" lon="9.82466944166">
		<tag k="name" v="Steinom" />
		<tag k="place" v="locality" />
		<tag k="ssr:stedsnr" v="719929" />
	</node>
	<node id="-124302" lat="61.5603583373" lon="9.8222944504">
		<tag k="name" v="Larsheimen" />
		<tag k="place" v="farm" />
		<tag k="ssr:stedsnr" v="719908" />
	</node>
	<node id="-124301" lat="61.6713305514" lon="9.94365556103">
		<tag k="historic" v="shieling" />
		<tag k="name" v="Hamnekvehaugen" />
		<tag k="place" v="locality" />
		<tag k="ssr:stedsnr" v="719639" />
	</node>
	<node id="-124298" lat="61.5760251402" lon="9.92199157007">
		<tag k="fixme" v="consider place=hamlet" />
		<tag k="name" v="Holen" />
		<tag k="place" v="farm" />
		<tag k="ssr:stedsnr" v="719147" />
	</node>
	<node id="-124297" lat="61.5891916675" lon="9.89293056318">
		<tag k="name" v="Nystugusætra" />
		<tag k="place" v="locality" />
		<tag k="ssr:stedsnr" v="719119" />
	</node>
	<node id="-124295" lat="61.5675361121" lon="9.83025556066">
		<tag k="name" v="Nordre Krokom" />
		<tag k="place" v="locality" />
		<tag k="ssr:stedsnr" v="719105" />
	</node>
	<node id="-124294" lat="61.571394445" lon="9.87224999981">
		<tag k="name" v="Slettvollen" />
		<tag k="place" v="locality" />
		<tag k="ssr:stedsnr" v="719094" />
	</node>
	<node id="-124293" lat="61.5628055513" lon="9.86621666478">
		<tag k="name" v="Granrud" />
		<tag k="place" v="isolated_dwelling" />
		<tag k="ssr:stedsnr" v="719092" />
	</node>
	<node id="-124284" lat="61.5326138912" lon="10.0131499956">
		<tag k="name" v="Leirholen" />
		<tag k="place" v="farm" />
		<tag k="ssr:stedsnr" v="706596" />
	</node>
	<node id="-124283" lat="61.5521825709" lon="9.99827101756">
		<tag k="fixme" v="consider place=hamlet" />
		<tag k="name" v="Rudland" />
		<tag k="place" v="farm" />
		<tag k="ssr:stedsnr" v="678796" />
	</node>
	<node id="-124282" lat="61.5676457109" lon="9.8632612867">
		<tag k="fixme" v="consider place=hamlet" />
		<tag k="name" v="Barlund" />
		<tag k="place" v="farm" />
		<tag k="ssr:stedsnr" v="678603" />
	</node>
	<node id="-124281" lat="61.5647750007" lon="9.93470000301">
		<tag k="alt_name" v="Listad" />
		<tag k="name" v="Øvre Listad" />
		<tag k="place" v="farm" />
		<tag k="ssr:stedsnr" v="678590" />
	</node>
	<node id="-124280" lat="61.5678582406" lon="9.94489053415">
		<tag k="fixme" v="consider place=hamlet" />
		<tag k="name" v="Kvikstad" />
		<tag k="place" v="farm" />
		<tag k="ssr:stedsnr" v="678588" />
	</node>
	<node id="-124278" lat="61.5262333377" lon="9.75073333506">
		<tag k="alt_name" v="Heggeslåa, s" />
		<tag k="historic" v="shieling" />
		<tag k="name" v="Søre Heggeslåa" />
		<tag k="place" v="locality" />
		<tag k="ssr:stedsnr" v="677925" />
	</node>
	<node id="-124277" lat="61.5545290435" lon="9.95258322306">
		<tag k="fixme" v="consider place=hamlet" />
		<tag k="name" v="Bakken" />
		<tag k="place" v="farm" />
		<tag k="ssr:stedsnr" v="677903" />
	</node>
	<node id="-124276" lat="61.5582250007" lon="9.95663054882">
		<tag k="alt_name" v="Grov" />
		<tag k="name" v="Stor-grov" />
		<tag k="place" v="farm" />
		<tag k="ssr:stedsnr" v="677902" />
	</node>
	<node id="-124275" lat="61.5602111116" lon="9.81893055834">
		<tag k="name" v="Nylund" />
		<tag k="place" v="farm" />
		<tag k="ssr:stedsnr" v="677895" />
	</node>
	<node id="-124274" lat="61.5556750024" lon="9.87853055233">
		<tag k="name" v="Toppen" />
		<tag k="place" v="farm" />
		<tag k="ssr:stedsnr" v="677892" />
	</node>
	<node id="-124273" lat="61.5334833322" lon="10.0447666614">
		<tag k="name" v="Træet" />
		<tag k="place" v="farm" />
		<tag k="ssr:stedsnr" v="677854" />
	</node>
	<node id="-124272" lat="61.5279694464" lon="10.0019222186">
		<tag k="name" v="Litræet" />
		<tag k="place" v="isolated_dwelling" />
		<tag k="ssr:stedsnr" v="677838" />
	</node>
	<node id="-124271" lat="61.5507545801" lon="10.0283313639">
		<tag k="name" v="Nordgard Forr" />
		<tag k="place" v="farm" />
		<tag k="ssr:stedsnr" v="677831" />
	</node>
	<node id="-124269" lat="61.6689638876" lon="9.93574721432">
		<tag k="historic" v="shieling" />
		<tag k="name" v="Blomstulen" />
		<tag k="place" v="locality" />
		<tag k="ssr:stedsnr" v="677694" />
	</node>
	<node id="-124268" lat="61.6708500002" lon="9.94568888132">
		<tag k="alt_name" v="Skomakarsætra" />
		<tag k="historic" v="shieling" />
		<tag k="name" v="Skomakersætra" />
		<tag k="place" v="locality" />
		<tag k="ssr:stedsnr" v="677682" />
	</node>
	<node id="-124267" lat="61.5885361133" lon="9.90620554834">
		<tag k="name" v="Veneng" />
		<tag k="place" v="farm" />
		<tag k="ssr:stedsnr" v="677582" />
	</node>
	<node id="-124265" lat="61.5779749966" lon="9.86117499359">
		<tag k="fixme" v="consider place=hamlet" />
		<tag k="name" v="Harpefoss" />
		<tag k="place" v="village" />
		<tag k="ssr:stedsnr" v="677564" />
	</node>
	<node id="-124263" lat="61.6032527764" lon="9.92456388657">
		<tag k="alt_name" v="Lyngstad" />
		<tag k="name" v="Lyngheim" />
		<tag k="place" v="farm" />
		<tag k="ssr:stedsnr" v="677535" />
	</node>
	<node id="-124262" lat="61.5919916686" lon="9.90931667568">
		<tag k="name" v="Killand" />
		<tag k="place" v="farm" />
		<tag k="ssr:stedsnr" v="677521" />
	</node>
	<node id="-124254" lat="61.4394211229" lon="9.49219990495">
		<tag k="name" v="Espedalen fjellhotell" />
		<tag k="old_name" v="Espedalen fjellstue" />
		<tag k="ssr:stedsnr" v="676432" />
		<tag k="tourism" v="hotel" />
	</node>
	<node id="-124249" lat="61.4059111133" lon="9.92427499887">
		<tag k="historic" v="shieling" />
		<tag k="name" v="Ulbergsætra" />
		<tag k="place" v="locality" />
		<tag k="ssr:stedsnr" v="675397" />
	</node>
	<node id="-124248" lat="61.4292861068" lon="9.94453332605">
		<tag k="historic" v="shieling" />
		<tag k="name" v="Sjøsjålia" />
		<tag k="place" v="locality" />
		<tag k="ssr:stedsnr" v="675367" />
	</node>
	<node id="-124244" lat="61.4859055523" lon="9.44375000074">
		<tag k="name" v="Dyrtjønnfeltet" />
		<tag k="place" v="neighbourhood" />
		<tag k="ssr:stedsnr" v="664926" />
	</node>
	<node id="-124241" lat="61.5571194449" lon="10.0444416746">
		<tag k="name" v="Tolstad" />
		<tag k="place" v="farm" />
		<tag k="ssr:stedsnr" v="659993" />
	</node>
	<node id="-124240" lat="61.558697222" lon="10.0160166721">
		<tag k="name" v="Midtre Stakston" />
		<tag k="place" v="farm" />
		<tag k="ssr:stedsnr" v="659989" />
	</node>
	<node id="-124239" lat="61.5572222247" lon="9.99477222988">
		<tag k="name" v="Nordre Strype" />
		<tag k="place" v="farm" />
		<tag k="ssr:stedsnr" v="659963" />
	</node>
	<node id="-124236" lat="61.5738277765" lon="9.91408332669">
		<tag k="name" v="Dalhaug" />
		<tag k="place" v="farm" />
		<tag k="ssr:stedsnr" v="659870" />
	</node>
	<node id="-124235" lat="61.5683222246" lon="9.9130222252">
		<tag k="name" v="Jørnstugu" />
		<tag k="place" v="farm" />
		<tag k="ssr:stedsnr" v="659868" />
	</node>
	<node id="-124233" lat="61.4456722212" lon="9.72596388662">
		<tag k="historic" v="shieling" />
		<tag k="name" v="Nigard Rolstadsætra" />
		<tag k="place" v="locality" />
		<tag k="ssr:stedsnr" v="659861" />
	</node>
	<node id="-124232" lat="61.5586083354" lon="9.95310278434">
		<tag k="name" v="Steinrakle" />
		<tag k="place" v="isolated_dwelling" />
		<tag k="ssr:stedsnr" v="659857" />
	</node>
	<node id="-124231" lat="61.5580333376" lon="9.9417555495">
		<tag k="name" v="Kyrkjestugu" />
		<tag k="place" v="farm" />
		<tag k="ssr:stedsnr" v="659853" />
	</node>
	<node id="-124230" lat="61.5563722211" lon="9.94473054879">
		<tag k="name" v="Prestgardshaugen" />
		<tag k="place" v="farm" />
		<tag k="ssr:stedsnr" v="659852" />
	</node>
	<node id="-124227" lat="61.5615388866" lon="9.9504166585">
		<tag k="name" v="Gardbu" />
		<tag k="place" v="isolated_dwelling" />
		<tag k="ssr:stedsnr" v="659841" />
	</node>
	<node id="-124218" lat="61.4491555582" lon="9.49759722702">
		<tag k="name" v="Skrukkslette" />
		<tag k="place" v="locality" />
		<tag k="ssr:stedsnr" v="659617" />
	</node>
	<node id="-124212" lat="61.5508361154" lon="9.94184167614">
		<tag k="name" v="Bjørkdokk" />
		<tag k="place" v="farm" />
		<tag k="ssr:stedsnr" v="659586" />
	</node>
	<node id="-124206" lat="61.5006333316" lon="9.7845472189">
		<tag k="historic" v="shieling" />
		<tag k="name" v="Uppigard Rolstadsætra" />
		<tag k="place" v="locality" />
		<tag k="ssr:stedsnr" v="659564" />
	</node>
	<node id="-124202" lat="61.4285444429" lon="9.7822138889">
		<tag k="historic" v="shieling" />
		<tag k="name" v="Odenrudsætra" />
		<tag k="place" v="locality" />
		<tag k="ssr:stedsnr" v="659482" />
	</node>
	<node id="-124201" lat="61.4301249993" lon="9.78106111028">
		<tag k="historic" v="shieling" />
		<tag k="name" v="Skarstadsætra" />
		<tag k="place" v="locality" />
		<tag k="ssr:stedsnr" v="659481" />
	</node>
	<node id="-124192" lat="61.5938805585" lon="9.94123056066">
		<tag k="name" v="Veslsæterhaugen" />
		<tag k="place" v="locality" />
		<tag k="ssr:stedsnr" v="659333" />
	</node>
	<node id="-124190" lat="61.5750333322" lon="9.94838610443">
		<tag k="name" v="Nørstegardshågån" />
		<tag k="place" v="farm" />
		<tag k="ssr:stedsnr" v="659321" />
	</node>
	<node id="-124189" lat="61.5293173452" lon="9.99964655159">
		<tag k="fixme" v="consider place=hamlet" />
		<tag k="name" v="Øverli" />
		<tag k="place" v="farm" />
		<tag k="ssr:stedsnr" v="659312" />
	</node>
	<node id="-124188" lat="61.5385361074" lon="9.97125554993">
		<tag k="name" v="Skolmhaugen" />
		<tag k="place" v="farm" />
		<tag k="ssr:stedsnr" v="659255" />
	</node>
	<node id="-124186" lat="61.5391388885" lon="9.98319999427">
		<tag k="name" v="Elvsrud" />
		<tag k="place" v="farm" />
		<tag k="ssr:stedsnr" v="659221" />
	</node>
	<node id="-124184" lat="61.5407111081" lon="9.97511388892">
		<tag k="name" v="Konglum" />
		<tag k="place" v="farm" />
		<tag k="ssr:stedsnr" v="659211" />
	</node>
	<node id="-124183" lat="61.5620972218" lon="9.89431110966">
		<tag k="name" v="Nordvollen" />
		<tag k="place" v="farm" />
		<tag k="ssr:stedsnr" v="659193" />
	</node>
	<node id="-124182" lat="61.5817027745" lon="9.92694444068">
		<tag k="name" v="Øvre Dalsegg" />
		<tag k="place" v="farm" />
		<tag k="ssr:stedsnr" v="659176" />
	</node>
	<node id="-124181" lat="61.5557027763" lon="9.87297776933">
		<tag k="name" v="Rønningen" />
		<tag k="place" v="farm" />
		<tag k="ssr:stedsnr" v="659137" />
	</node>
	<node id="-124180" lat="61.5575916669" lon="9.86790276995">
		<tag k="name" v="Rønnshaugen" />
		<tag k="place" v="farm" />
		<tag k="ssr:stedsnr" v="659113" />
	</node>
	<node id="-124179" lat="61.5764111145" lon="9.86228611406">
		<tag k="amenity" v="school" />
		<tag k="name" v="Sør-Fron ungdomsskule" />
		<tag k="ssr:stedsnr" v="659106" />
	</node>
	<node id="-124178" lat="61.572280558" lon="9.87024723083">
		<tag k="name" v="Voll" />
		<tag k="place" v="farm" />
		<tag k="ssr:stedsnr" v="659107" />
	</node>
	<node id="-124176" lat="61.5907222262" lon="9.84049443829">
		<tag k="name" v="Øvre Skar" />
		<tag k="place" v="isolated_dwelling" />
		<tag k="ssr:stedsnr" v="659089" />
	</node>
	<node id="-124173" lat="61.5284222204" lon="9.98255277266">
		<tag k="name" v="Nedre Bue" />
		<tag k="place" v="isolated_dwelling" />
		<tag k="ssr:stedsnr" v="659077" />
	</node>
	<node id="-124172" lat="61.5292416671" lon="9.97352777931">
		<tag k="name" v="Søre Fossehågån" />
		<tag k="place" v="farm" />
		<tag k="ssr:stedsnr" v="659073" />
	</node>
	<node id="-124171" lat="61.5201219568" lon="9.93712620611">
		<tag k="fixme" v="consider place=hamlet" />
		<tag k="name" v="Borolia" />
		<tag k="place" v="farm" />
		<tag k="ssr:stedsnr" v="659027" />
	</node>
	<node id="-124169" lat="61.5254027779" lon="9.99046112036">
		<tag k="name" v="Jordet" />
		<tag k="place" v="farm" />
		<tag k="ssr:stedsnr" v="659004" />
	</node>
	<node id="-124167" lat="61.5588722228" lon="9.81607222338">
		<tag k="name" v="Korsstugu" />
		<tag k="place" v="locality" />
		<tag k="ssr:stedsnr" v="658911" />
	</node>
	<node id="-124165" lat="61.5650139026" lon="9.82768058722">
		<tag k="fixme" v="consider place=hamlet" />
		<tag k="name" v="Torgerhaugen" />
		<tag k="place" v="farm" />
		<tag k="ssr:stedsnr" v="658906" />
	</node>
	<node id="-124164" lat="61.4375416678" lon="9.61353056272">
		<tag k="historic" v="shieling" />
		<tag k="name" v="Notstulen" />
		<tag k="place" v="locality" />
		<tag k="ssr:stedsnr" v="658769" />
	</node>
	<node id="-124160" lat="61.5760249958" lon="9.90786944957">
		<tag k="name" v="Rudihaugen" />
		<tag k="place" v="isolated_dwelling" />
		<tag k="ssr:stedsnr" v="658167" />
	</node>
	<node id="-124156" lat="61.53646389" lon="9.99629166666">
		<tag k="name" v="Olstadhågån" />
		<tag k="place" v="isolated_dwelling" />
		<tag k="ssr:stedsnr" v="645610" />
	</node>
	<node id="-124155" lat="61.5330111103" lon="10.020547218">
		<tag k="name" v="Heggely" />
		<tag k="place" v="isolated_dwelling" />
		<tag k="ssr:stedsnr" v="645609" />
	</node>
	<node id="-124154" lat="61.5333607627" lon="10.037966539">
		<tag k="fixme" v="consider place=hamlet" />
		<tag k="name" v="Sønstelia" />
		<tag k="place" v="farm" />
		<tag k="ssr:stedsnr" v="645605" />
	</node>
	<node id="-124152" lat="61.4174250043" lon="9.44627499571">
		<tag k="name" v="Tonebu" />
		<tag k="place" v="isolated_dwelling" />
		<tag k="ssr:stedsnr" v="629183" />
	</node>
	<node id="-124150" lat="61.5645714202" lon="10.0470141929">
		<tag k="alt_name" v="Bergdal" />
		<tag k="fixme" v="consider place=hamlet" />
		<tag k="name" v="Berdal" />
		<tag k="place" v="farm" />
		<tag k="ssr:stedsnr" v="617799" />
	</node>
	<node id="-124149" lat="61.5618694415" lon="10.032577787">
		<tag k="name" v="Kampen" />
		<tag k="place" v="farm" />
		<tag k="ssr:stedsnr" v="617796" />
	</node>
	<node id="-124148" lat="61.5722550984" lon="9.94231903025">
		<tag k="alt_name" v="Nøstegard;Nørstgard" />
		<tag k="fixme" v="consider place=hamlet" />
		<tag k="name" v="Nørdstegard" />
		<tag k="place" v="farm" />
		<tag k="ssr:stedsnr" v="617628" />
	</node>
	<node id="-124147" lat="61.5001000005" lon="9.87962222127">
		<tag k="historic" v="shieling" />
		<tag k="name" v="Sveiphuslykkja" />
		<tag k="place" v="locality" />
		<tag k="ssr:stedsnr" v="616959" />
	</node>
	<node id="-124146" lat="61.5106444446" lon="9.9503250008">
		<tag k="alt_name" v="Øvre Hovda" />
		<tag k="name" v="Hovde" />
		<tag k="place" v="farm" />
		<tag k="ssr:stedsnr" v="616955" />
	</node>
	<node id="-124145" lat="61.5230305531" lon="9.94577221325">
		<tag k="name" v="Tofte" />
		<tag k="place" v="farm" />
		<tag k="ssr:stedsnr" v="616950" />
	</node>
	<node id="-124142" lat="61.5549999988" lon="9.96243332795">
		<tag k="alt_name" v="Vesle-Grov" />
		<tag k="name" v="Veslgrov" />
		<tag k="place" v="farm" />
		<tag k="ssr:stedsnr" v="616911" />
	</node>
	<node id="-124141" lat="61.5619805558" lon="9.80977221582">
		<tag k="name" v="Øyvindsrud" />
		<tag k="place" v="farm" />
		<tag k="ssr:stedsnr" v="616903" />
	</node>
	<node id="-124140" lat="61.5575472211" lon="9.9213916588">
		<tag k="alt_name" v="Akslevollen" />
		<tag k="name" v="Vollen" />
		<tag k="place" v="farm" />
		<tag k="ssr:stedsnr" v="616893" />
	</node>
	<node id="-124139" lat="61.5302368152" lon="10.0395071634">
		<tag k="name" v="Sørlia" />
		<tag k="place" v="locality" />
		<tag k="ssr:stedsnr" v="616852" />
	</node>
	<node id="-124138" lat="61.5299242292" lon="9.99418565335">
		<tag k="alt_name" v="Li" />
		<tag k="fixme" v="consider place=hamlet" />
		<tag k="name" v="Nerli" />
		<tag k="place" v="farm" />
		<tag k="ssr:stedsnr" v="616849" />
	</node>
	<node id="-124137" lat="61.5374057748" lon="10.0032675147">
		<tag k="alt_name" v="Olstad" />
		<tag k="name" v="Søre Olstad" />
		<tag k="place" v="farm" />
		<tag k="ssr:stedsnr" v="616837" />
	</node>
	<node id="-124136" lat="61.5342584291" lon="10.0318411037">
		<tag k="fixme" v="consider place=hamlet" />
		<tag k="name" v="Fjellsrud" />
		<tag k="place" v="farm" />
		<tag k="ssr:stedsnr" v="616836" />
	</node>
	<node id="-124135" lat="61.6440350452" lon="9.95156326887">
		<tag k="historic" v="shieling" />
		<tag k="name" v="Jensås" />
		<tag k="place" v="locality" />
		<tag k="ssr:stedsnr" v="616728" />
	</node>
	<node id="-124134" lat="61.8833527749" lon="10.0167388837">
		<tag k="name" v="Gammelsætra" />
		<tag k="place" v="isolated_dwelling" />
		<tag k="ssr:stedsnr" v="616584" />
	</node>
	<node id="-124133" lat="61.5821722238" lon="9.92924722036">
		<tag k="alt_name" v="Dalsegg" />
		<tag k="name" v="Søre Dalsegghågån" />
		<tag k="place" v="farm" />
		<tag k="ssr:stedsnr" v="616579" />
	</node>
	<node id="-124132" lat="61.8668583307" lon="10.1019083314">
		<tag k="alt_name" v="Fagerlisætra" />
		<tag k="historic" v="shieling" />
		<tag k="name" v="Fagerli" />
		<tag k="place" v="locality" />
		<tag k="ssr:stedsnr" v="616576" />
	</node>
	<node id="-124131" lat="61.6018361141" lon="9.92616388062">
		<tag k="name" v="Sæter" />
		<tag k="place" v="farm" />
		<tag k="ssr:stedsnr" v="616535" />
	</node>
	<node id="-124130" lat="61.5905805569" lon="9.84258888969">
		<tag k="alt_name" v="Skar" />
		<tag k="name" v="Skard" />
		<tag k="place" v="isolated_dwelling" />
		<tag k="ssr:stedsnr" v="616524" />
	</node>
	<node id="-124128" lat="61.5919361069" lon="9.91075000109">
		<tag k="name" v="Kiltun" />
		<tag k="place" v="farm" />
		<tag k="ssr:stedsnr" v="616517" />
	</node>
	<node id="-124126" lat="61.4768944461" lon="10.0100277837">
		<tag k="historic" v="shieling" />
		<tag k="name" v="Åsen" />
		<tag k="place" v="locality" />
		<tag k="ssr:stedsnr" v="615589" />
	</node>
	<node id="-124125" lat="61.4963583346" lon="9.97162499637">
		<tag k="historic" v="shieling" />
		<tag k="name" v="Bjørnstulen" />
		<tag k="place" v="locality" />
		<tag k="ssr:stedsnr" v="615510" />
	</node>
	<node id="-124117" lat="61.4718249984" lon="9.4498805608">
		<tag k="name" v="Ruten fjellstue" />
		<tag k="ssr:stedsnr" v="615380" />
		<tag k="tourism" v="hotel" />
	</node>
	<node id="-124116" lat="61.4621694465" lon="9.45465555651">
		<tag k="alt_name" v="Bokkholt" />
		<tag k="name" v="Bokkholtsætra" />
		<tag k="place" v="isolated_dwelling" />
		<tag k="ssr:stedsnr" v="615370" />
	</node>
	<node id="-124113" lat="61.4458307987" lon="9.7195844623">
		<tag k="historic" v="shieling" />
		<tag k="name" v="Håkåsætrin" />
		<tag k="place" v="locality" />
		<tag k="ssr:stedsnr" v="615307" />
	</node>
	<node id="-124111" lat="61.4531055535" lon="9.87162776964">
		<tag k="name" v="Lauvåsen" />
		<tag k="place" v="isolated_dwelling" />
		<tag k="ssr:stedsnr" v="615274" />
	</node>
	<node id="-124110" lat="61.4941611069" lon="9.88754166925">
		<tag k="name" v="Sveiphuslykkja" />
		<tag k="place" v="isolated_dwelling" />
		<tag k="ssr:stedsnr" v="615234" />
	</node>
	<node id="-124108" lat="61.4272111122" lon="9.77563889122">
		<tag k="historic" v="shieling" />
		<tag k="name" v="Årstulen" />
		<tag k="place" v="locality" />
		<tag k="ssr:stedsnr" v="614312" />
	</node>
	<node id="-124104" lat="61.4859055523" lon="9.44375000074">
		<tag k="name" v="Gålåvatnet hyttetun" />
		<tag k="place" v="neighbourhood" />
		<tag k="ssr:stedsnr" v="603929" />
	</node>
	<node id="-124103" lat="61.5550388875" lon="10.0431694402">
		<tag k="name" v="Nystugu" />
		<tag k="place" v="isolated_dwelling" />
		<tag k="ssr:stedsnr" v="598995" />
	</node>
	<node id="-124100" lat="61.5953333339" lon="9.99956666618">
		<tag k="historic" v="shieling" />
		<tag k="name" v="Strypsætra" />
		<tag k="place" v="locality" />
		<tag k="ssr:stedsnr" v="598942" />
	</node>
	<node id="-124098" lat="61.5592694482" lon="9.81907222485">
		<tag k="name" v="Myrstugu" />
		<tag k="place" v="isolated_dwelling" />
		<tag k="ssr:stedsnr" v="598912" />
	</node>
	<node id="-124096" lat="61.5621888866" lon="9.88557778128">
		<tag k="name" v="Skinne" />
		<tag k="place" v="farm" />
		<tag k="ssr:stedsnr" v="598852" />
	</node>
	<node id="-124092" lat="61.5560083309" lon="9.94874721539">
		<tag k="name" v="Oppheim" />
		<tag k="place" v="farm" />
		<tag k="ssr:stedsnr" v="598835" />
	</node>
	<node id="-124091" lat="61.565163889" lon="9.9729833334">
		<tag k="name" v="Håmmåren" />
		<tag k="place" v="isolated_dwelling" />
		<tag k="ssr:stedsnr" v="598830" />
	</node>
	<node id="-124090" lat="61.5616333349" lon="9.94840000052">
		<tag k="name" v="Sole" />
		<tag k="place" v="isolated_dwelling" />
		<tag k="ssr:stedsnr" v="598823" />
	</node>
	<node id="-124087" lat="61.4320666703" lon="9.63467500699">
		<tag k="name" v="Mikkelsbua" />
		<tag k="place" v="locality" />
		<tag k="ssr:stedsnr" v="598759" />
	</node>
	<node id="-124083" lat="61.4388416626" lon="9.49770000783">
		<tag k="name" v="Øvre Verket" />
		<tag k="place" v="locality" />
		<tag k="ssr:stedsnr" v="598618" />
	</node>
	<node id="-124077" lat="61.5528166699" lon="9.9380861188">
		<tag k="name" v="Øvre Prestmoen" />
		<tag k="place" v="farm" />
		<tag k="ssr:stedsnr" v="598581" />
	</node>
	<node id="-124075" lat="61.5000250031" lon="9.78505278191">
		<tag k="historic" v="shieling" />
		<tag k="name" v="Heggerudsætra" />
		<tag k="place" v="locality" />
		<tag k="ssr:stedsnr" v="598558" />
	</node>
	<node id="-124074" lat="61.4981000018" lon="9.78426666904">
		<tag k="historic" v="shieling" />
		<tag k="name" v="Baukholsætra" />
		<tag k="place" v="locality" />
		<tag k="ssr:stedsnr" v="598555" />
	</node>
	<node id="-124070" lat="61.7320555566" lon="9.99067222942">
		<tag k="historic" v="shieling" />
		<tag k="name" v="Nordgard Bjørkesætra" />
		<tag k="place" v="locality" />
		<tag k="ssr:stedsnr" v="598533" />
	</node>
	<node id="-124065" lat="61.5284944425" lon="10.0047666642">
		<tag k="name" v="Ånekrelykkja" />
		<tag k="place" v="farm" />
		<tag k="ssr:stedsnr" v="598302" />
	</node>
	<node id="-124064" lat="61.5297666681" lon="10.0009777829">
		<tag k="name" v="Fagerheim" />
		<tag k="place" v="isolated_dwelling" />
		<tag k="ssr:stedsnr" v="598298" />
	</node>
	<node id="-124063" lat="61.4200333319" lon="9.93026111177">
		<tag k="name" v="Tapptjønnfeltet" />
		<tag k="place" v="neighbourhood" />
		<tag k="ssr:stedsnr" v="598272" />
	</node>
	<node id="-124058" lat="61.5585972222" lon="9.8913750036">
		<tag k="name" v="Karlstad" />
		<tag k="place" v="isolated_dwelling" />
		<tag k="ssr:stedsnr" v="598175" />
	</node>
	<node id="-124056" lat="61.587338891" lon="9.90557778206">
		<tag k="name" v="Tåkåstadlykkja" />
		<tag k="place" v="locality" />
		<tag k="ssr:stedsnr" v="598150" />
	</node>
	<node id="-124055" lat="61.4944138851" lon="9.75116389501">
		<tag k="historic" v="shieling" />
		<tag k="name" v="Oppigard Kjorstadsætra" />
		<tag k="place" v="locality" />
		<tag k="ssr:stedsnr" v="598137" />
	</node>
	<node id="-124050" lat="61.5663472193" lon="9.85445277327">
		<tag k="alt_name" v="Kveinnhaugen" />
		<tag k="name" v="Kvernhaugen" />
		<tag k="place" v="farm" />
		<tag k="ssr:stedsnr" v="598109" />
	</node>
	<node id="-124048" lat="61.5822638887" lon="9.82360000016">
		<tag k="name" v="Harland" />
		<tag k="place" v="farm" />
		<tag k="ssr:stedsnr" v="598096" />
	</node>
	<node id="-124047" lat="61.5782055582" lon="9.85929722067">
		<tag k="name" v="Stormoen" />
		<tag k="place" v="farm" />
		<tag k="ssr:stedsnr" v="598092" />
	</node>
	<node id="-124045" lat="61.5314861102" lon="9.98497778087">
		<tag k="name" v="Grindstugu" />
		<tag k="place" v="farm" />
		<tag k="ssr:stedsnr" v="598057" />
	</node>
	<node id="-124044" lat="61.5212694423" lon="9.93899444003">
		<tag k="name" v="Nordgard Flåtå" />
		<tag k="place" v="isolated_dwelling" />
		<tag k="ssr:stedsnr" v="598023" />
	</node>
	<node id="-124042" lat="61.5202814146" lon="9.96187129267">
		<tag k="name" v="Nigard Tofte" />
		<tag k="place" v="farm" />
		<tag k="ssr:stedsnr" v="598011" />
	</node>
	<node id="-124041" lat="61.5186695408" lon="9.97492174609">
		<tag k="name" v="Ringdal" />
		<tag k="place" v="locality" />
		<tag k="ssr:stedsnr" v="598008" />
	</node>
	<node id="-124031" lat="61.5358805527" lon="10.0239222218">
		<tag k="name" v="Åbakken" />
		<tag k="place" v="farm" />
		<tag k="ssr:stedsnr" v="584668" />
	</node>
	<node id="-124030" lat="61.5370222228" lon="10.0191388975">
		<tag k="name" v="Nordre Sveen" />
		<tag k="place" v="farm" />
		<tag k="ssr:stedsnr" v="584666" />
	</node>
	<node id="-124029" lat="61.5345777754" lon="10.0130277786">
		<tag k="name" v="Søre Hegge" />
		<tag k="place" v="farm" />
		<tag k="ssr:stedsnr" v="584656" />
	</node>
	<node id="-124023" lat="61.5926749962" lon="9.99937778306">
		<tag k="historic" v="shieling" />
		<tag k="name" v="Stebergsætrin" />
		<tag k="place" v="locality" />
		<tag k="ssr:stedsnr" v="556773" />
	</node>
	<node id="-124022" lat="61.5835611144" lon="9.92407222214">
		<tag k="name" v="Dalsegghågån" />
		<tag k="place" v="farm" />
		<tag k="ssr:stedsnr" v="556612" />
	</node>
	<node id="-124021" lat="61.6017583366" lon="9.92720555235">
		<tag k="name" v="Kvarvet" />
		<tag k="place" v="hamlet" />
		<tag k="ssr:stedsnr" v="556584" />
	</node>
	<node id="-124020" lat="61.5992805516" lon="9.92472500455">
		<tag k="alt_name" v="Auglkvarv" />
		<tag k="name" v="Auglekvarv" />
		<tag k="place" v="farm" />
		<tag k="ssr:stedsnr" v="556580" />
	</node>
	<node id="-124004" lat="61.4624416684" lon="9.84852777895">
		<tag k="name" v="Bjørkåsen" />
		<tag k="place" v="isolated_dwelling" />
		<tag k="ssr:stedsnr" v="554311" />
	</node>
	<node id="-123998" lat="61.4157305541" lon="9.92497222678">
		<tag k="alt_name" v="Fagerhøy fjellskole" />
		<tag k="amenity" v="school" />
		<tag k="name" v="Fagerhøy" />
		<tag k="ssr:stedsnr" v="553311" />
	</node>
	<node id="-123995" lat="61.5428972258" lon="10.0465944478">
		<tag k="name" v="Rønningen" />
		<tag k="place" v="farm" />
		<tag k="ssr:stedsnr" v="543657" />
	</node>
	<node id="-123994" lat="61.5602249978" lon="10.0304111083">
		<tag k="name" v="Søre Ospa" />
		<tag k="place" v="farm" />
		<tag k="ssr:stedsnr" v="538995" />
	</node>
	<node id="-123993" lat="61.5576083355" lon="9.99973055523">
		<tag k="name" v="Søre Skeie" />
		<tag k="place" v="farm" />
		<tag k="ssr:stedsnr" v="538993" />
	</node>
	<node id="-123992" lat="61.5584444449" lon="9.99668056353">
		<tag k="name" v="Nordre Skeie" />
		<tag k="place" v="farm" />
		<tag k="ssr:stedsnr" v="538991" />
	</node>
	<node id="-123991" lat="61.5587500005" lon="10.0172944513">
		<tag k="name" v="Søre Stakston" />
		<tag k="place" v="isolated_dwelling" />
		<tag k="ssr:stedsnr" v="538988" />
	</node>
	<node id="-123990" lat="61.5917722182" lon="10.0224583311">
		<tag k="historic" v="shieling" />
		<tag k="name" v="Guribergsætra" />
		<tag k="place" v="locality" />
		<tag k="ssr:stedsnr" v="538958" />
	</node>
	<node id="-123987" lat="61.5692083357" lon="9.9187388881">
		<tag k="name" v="Solekra" />
		<tag k="place" v="isolated_dwelling" />
		<tag k="ssr:stedsnr" v="538863" />
	</node>
	<node id="-123986" lat="61.5609250019" lon="9.93745000831">
		<tag k="building" v="industrial" />
		<tag k="name" v="Sør-Fron Auto" />
		<tag k="ssr:stedsnr" v="538856" />
	</node>
	<node id="-123984" lat="61.5590972264" lon="9.9488972279">
		<tag k="amenity" v="school" />
		<tag k="name" v="Midtbygda skule" />
		<tag k="ssr:stedsnr" v="538830" />
	</node>
	<node id="-123977" lat="61.4483388896" lon="9.49544999682">
		<tag k="historic" v="shieling" />
		<tag k="name" v="Slette" />
		<tag k="place" v="locality" />
		<tag k="ssr:stedsnr" v="538629" />
	</node>
	<node id="-123976" lat="61.5529694475" lon="9.95228333673">
		<tag k="name" v="Doktorgården" />
		<tag k="place" v="farm" />
		<tag k="ssr:stedsnr" v="538626" />
	</node>
	<node id="-123964" lat="61.5366861124" lon="9.97917777682">
		<tag k="amenity" v="nursing_home" />
		<tag k="name" v="Lidarheim" />
		<tag k="ssr:stedsnr" v="538203" />
	</node>
	<node id="-123963" lat="61.5331583338" lon="9.98725278688">
		<tag k="name" v="Høgset" />
		<tag k="place" v="isolated_dwelling" />
		<tag k="ssr:stedsnr" v="538201" />
	</node>
	<node id="-123962" lat="61.5418583303" lon="9.98787221914">
		<tag k="name" v="Bukkholet" />
		<tag k="place" v="isolated_dwelling" />
		<tag k="ssr:stedsnr" v="538200" />
	</node>
	<node id="-123961" lat="61.5401166657" lon="9.97608611228">
		<tag k="name" v="Nordre Hundorpvollen" />
		<tag k="place" v="isolated_dwelling" />
		<tag k="ssr:stedsnr" v="538199" />
	</node>
	<node id="-123960" lat="61.5572805589" lon="9.87551388265">
		<tag k="name" v="Skriubakken" />
		<tag k="place" v="farm" />
		<tag k="ssr:stedsnr" v="538191" />
	</node>
	<node id="-123958" lat="61.5065444451" lon="9.97110555819">
		<tag k="name" v="Djupdalsbakken" />
		<tag k="place" v="isolated_dwelling" />
		<tag k="ssr:stedsnr" v="538131" />
	</node>
	<node id="-123956" lat="61.5263583294" lon="9.9665305545">
		<tag k="name" v="Tofthågån" />
		<tag k="place" v="farm" />
		<tag k="ssr:stedsnr" v="538064" />
	</node>
	<node id="-123955" lat="61.5247472257" lon="9.96722778513">
		<tag k="name" v="Simastugu" />
		<tag k="place" v="farm" />
		<tag k="ssr:stedsnr" v="538063" />
	</node>
	<node id="-123954" lat="61.5275277736" lon="9.95714167007">
		<tag k="name" v="Kjelstad" />
		<tag k="place" v="isolated_dwelling" />
		<tag k="ssr:stedsnr" v="538059" />
	</node>
	<node id="-123953" lat="61.5117472227" lon="9.95185833083">
		<tag k="name" v="Nedre Hovda" />
		<tag k="place" v="isolated_dwelling" />
		<tag k="ssr:stedsnr" v="538030" />
	</node>
	<node id="-123952" lat="61.5228138892" lon="9.98116388345">
		<tag k="name" v="Skulmesterhaugen" />
		<tag k="place" v="farm" />
		<tag k="ssr:stedsnr" v="538010" />
	</node>
	<node id="-123951" lat="61.5731833348" lon="9.81281388805">
		<tag k="name" v="Reinhuslykkja" />
		<tag k="place" v="isolated_dwelling" />
		<tag k="ssr:stedsnr" v="537974" />
	</node>
	<node id="-123950" lat="61.5665126435" lon="9.80514030128">
		<tag k="fixme" v="consider place=hamlet" />
		<tag k="name" v="Brenna" />
		<tag k="place" v="farm" />
		<tag k="ssr:stedsnr" v="537969" />
	</node>
	<node id="-123949" lat="61.5597611088" lon="9.80673333324">
		<tag k="name" v="Baukhol" />
		<tag k="place" v="farm" />
		<tag k="ssr:stedsnr" v="537961" />
	</node>
	<node id="-123948" lat="61.572094442" lon="9.81888611916">
		<tag k="name" v="Solheim" />
		<tag k="place" v="farm" />
		<tag k="ssr:stedsnr" v="537927" />
	</node>
	<node id="-123946" lat="61.5622944443" lon="9.95893889238">
		<tag k="name" v="Nordgard Seggelstad" />
		<tag k="place" v="farm" />
		<tag k="ssr:stedsnr" v="537800" />
	</node>
	<node id="-123937" lat="61.7239916659" lon="9.94045556129">
		<tag k="name" v="Nørdre Eldåa" />
		<tag k="place" v="locality" />
		<tag k="ssr:stedsnr" v="537491" />
	</node>
	<node id="-123930" lat="61.5847194408" lon="9.94114165741">
		<tag k="name" v="Dammensberg" />
		<tag k="place" v="isolated_dwelling" />
		<tag k="ssr:stedsnr" v="537304" />
	</node>
	<node id="-123929" lat="61.5315083356" lon="10.0147527834">
		<tag k="name" v="Rundlykkja" />
		<tag k="place" v="farm" />
		<tag k="ssr:stedsnr" v="537290" />
	</node>
	<node id="-123928" lat="61.5615333332" lon="9.84822778253">
		<tag k="name" v="Holten" />
		<tag k="place" v="isolated_dwelling" />
		<tag k="ssr:stedsnr" v="537110" />
	</node>
	<node id="-123927" lat="61.5698972218" lon="9.83845000247">
		<tag k="name" v="Øvre Nigard Skurdal" />
		<tag k="place" v="farm" />
		<tag k="ssr:stedsnr" v="537104" />
	</node>
	<node id="-123926" lat="61.5678694413" lon="9.83301111684">
		<tag k="name" v="Steinlykkjehaugen" />
		<tag k="place" v="isolated_dwelling" />
		<tag k="ssr:stedsnr" v="537101" />
	</node>
	<node id="-123925" lat="61.5686305548" lon="9.85395556316">
		<tag k="name" v="Barhaug" />
		<tag k="place" v="isolated_dwelling" />
		<tag k="ssr:stedsnr" v="537090" />
	</node>
	<node id="-123924" lat="61.5603833343" lon="9.86349999089">
		<tag k="name" v="Jakop" />
		<tag k="place" v="isolated_dwelling" />
		<tag k="ssr:stedsnr" v="537085" />
	</node>
	<node id="-123923" lat="61.5790833356" lon="9.85910555956">
		<tag k="name" v="Brua" />
		<tag k="place" v="isolated_dwelling" />
		<tag k="ssr:stedsnr" v="537082" />
	</node>
	<node id="-123918" lat="61.5430138882" lon="10.0060666728">
		<tag k="name" v="Haverstadvollen" />
		<tag k="place" v="farm" />
		<tag k="ssr:stedsnr" v="524598" />
	</node>
	<node id="-123913" lat="61.5241673309" lon="9.75954213464">
		<tag k="alt_name" v="Gålåstranda" />
		<tag k="historic" v="shieling" />
		<tag k="name" v="Gålåstrandin" />
		<tag k="place" v="locality" />
		<tag k="ssr:stedsnr" v="495928" />
	</node>
	<node id="-123911" lat="61.5325916637" lon="9.94181111053">
		<tag k="alt_name" v="Nordre Isumlia" />
		<tag k="name" v="Lia" />
		<tag k="place" v="farm" />
		<tag k="ssr:stedsnr" v="495921" />
	</node>
	<node id="-123909" lat="61.5523722262" lon="9.93231667406">
		<tag k="alt_name" v="Moen" />
		<tag k="name" v="Oemoen" />
		<tag k="place" v="farm" />
		<tag k="ssr:stedsnr" v="495909" />
	</node>
	<node id="-123908" lat="61.5563722211" lon="9.8694416677">
		<tag k="name" v="Gutu" />
		<tag k="place" v="farm" />
		<tag k="ssr:stedsnr" v="495901" />
	</node>
	<node id="-123907" lat="61.5100125095" lon="9.96848366305">
		<tag k="name" v="Djupdalen" />
		<tag k="place" v="hamlet" />
		<tag k="ssr:stedsnr" v="495894" />
	</node>
	<node id="-123906" lat="61.523490037" lon="9.98966160201">
		<tag k="fixme" v="consider place=hamlet" />
		<tag k="name" v="Kolobekken" />
		<tag k="place" v="farm" />
		<tag k="ssr:stedsnr" v="495861" />
	</node>
	<node id="-123905" lat="61.5256500044" lon="10.0255611113">
		<tag k="name" v="Plassen" />
		<tag k="place" v="farm" />
		<tag k="ssr:stedsnr" v="495852" />
	</node>
	<node id="-123904" lat="61.5387666693" lon="10.0281055483">
		<tag k="name" v="Kvernes" />
		<tag k="place" v="farm" />
		<tag k="ssr:stedsnr" v="495840" />
	</node>
	<node id="-123903" lat="61.5584527796" lon="9.99664444791">
		<tag k="alt_name" v="Nordre Skeie" />
		<tag k="name" v="Skeie" />
		<tag k="place" v="farm" />
		<tag k="ssr:stedsnr" v="495827" />
	</node>
	<node id="-123902" lat="61.5564749989" lon="9.99766666649">
		<tag k="alt_name" v="Søre Strype" />
		<tag k="name" v="Strype" />
		<tag k="place" v="farm" />
		<tag k="ssr:stedsnr" v="495828" />
	</node>
	<node id="-123901" lat="61.5879152706" lon="10.0333372242">
		<tag k="alt_name" v="Guriberg" />
		<tag k="fixme" v="consider place=hamlet" />
		<tag k="name" v="Guriberget" />
		<tag k="place" v="farm" />
		<tag k="ssr:stedsnr" v="495814" />
	</node>
	<node id="-123900" lat="61.563025206" lon="9.8524588064">
		<tag k="fixme" v="consider place=hamlet" />
		<tag k="name" v="Suleng" />
		<tag k="place" v="farm" />
		<tag k="ssr:stedsnr" v="495616" />
	</node>
	<node id="-123899" lat="61.5699814834" lon="9.93039956962">
		<tag k="fixme" v="consider place=hamlet" />
		<tag k="name" v="Stokke" />
		<tag k="place" v="farm" />
		<tag k="ssr:stedsnr" v="495612" />
	</node>
	<node id="-123898" lat="61.565280552" lon="9.83526944257">
		<tag k="name" v="Holom" />
		<tag k="place" v="farm" />
		<tag k="ssr:stedsnr" v="495607" />
	</node>
	<node id="-123897" lat="61.6129499983" lon="9.96393055714">
		<tag k="historic" v="shieling" />
		<tag k="name" v="Frydalen" />
		<tag k="place" v="locality" />
		<tag k="ssr:stedsnr" v="495492" />
	</node>
	<node id="-123887" lat="61.4301749988" lon="9.67761667523">
		<tag k="alt_name" v="Risaslettet" />
		<tag k="loc_name" v="Riasletta" />
		<tag k="name" v="Riarslettin" />
		<tag k="place" v="isolated_dwelling" />
		<tag k="ssr:stedsnr" v="493337" />
	</node>
	<node id="-123885" lat="61.4231506824" lon="9.75555168624">
		<tag k="alt_name" v="Kristensætrin" />
		<tag k="historic" v="shieling" />
		<tag k="name" v="Kristensætra" />
		<tag k="place" v="locality" />
		<tag k="ssr:stedsnr" v="493327" />
	</node>
	<node id="-123883" lat="61.4743642708" lon="9.94284291129">
		<tag k="historic" v="shieling" />
		<tag k="name" v="Nysætrin" />
		<tag k="place" v="locality" />
		<tag k="ssr:stedsnr" v="493319" />
	</node>
	<node id="-123879" lat="61.5482527748" lon="10.0464194419">
		<tag k="name" v="Aurset" />
		<tag k="place" v="isolated_dwelling" />
		<tag k="ssr:stedsnr" v="482645" />
	</node>
	<node id="-123878" lat="61.4683416625" lon="9.4597249955">
		<tag k="name" v="Dalseter Høyfjellshotell" />
		<tag k="old_name" v="Dalseter Høgfjellshotell" />
		<tag k="ssr:stedsnr" v="452090" />
		<tag k="tourism" v="hotel" />
	</node>
	<node id="-123874" lat="61.5556305528" lon="9.95005555941">
		<tag k="amenity" v="nursing_home" />
		<tag k="name" v="Sofienberg" />
		<tag k="ssr:stedsnr" v="445541" />
	</node>
	<node id="-123869" lat="61.561808332" lon="9.96043889599">
		<tag k="alt_name" v="Seggelstad" />
		<tag k="name" v="Sygard Seggelstad" />
		<tag k="place" v="farm" />
		<tag k="ssr:stedsnr" v="435902" />
	</node>
	<node id="-123868" lat="61.5575812403" lon="9.8851702129">
		<tag k="fixme" v="consider place=hamlet" />
		<tag k="name" v="Lia" />
		<tag k="place" v="farm" />
		<tag k="ssr:stedsnr" v="435897" />
	</node>
	<node id="-123867" lat="61.5329375605" lon="10.0034433385">
		<tag k="alt_name" v="Stavne" />
		<tag k="fixme" v="consider place=hamlet" />
		<tag k="name" v="Stamne" />
		<tag k="place" v="farm" />
		<tag k="ssr:stedsnr" v="435859" />
	</node>
	<node id="-123866" lat="61.5628527804" lon="9.97535277645">
		<tag k="alt_name" v="Beitdokka" />
		<tag k="name" v="Beitdokken" />
		<tag k="place" v="farm" />
		<tag k="ssr:stedsnr" v="435798" />
	</node>
	<node id="-123865" lat="61.6764918306" lon="9.95061905293">
		<tag k="historic" v="shieling" />
		<tag k="name" v="Furusætra" />
		<tag k="place" v="locality" />
		<tag k="ssr:stedsnr" v="435711" />
	</node>
	<node id="-123864" lat="61.5721277758" lon="9.95255277178">
		<tag k="fixme" v="consider place=hamlet" />
		<tag k="name" v="Øverbygda" />
		<tag k="place" v="village" />
		<tag k="ssr:stedsnr" v="435659" />
	</node>
	<node id="-123863" lat="61.568063891" lon="9.80391111285">
		<tag k="name" v="Nordli" />
		<tag k="place" v="farm" />
		<tag k="ssr:stedsnr" v="435625" />
	</node>
	<node id="-123862" lat="61.5711831294" lon="9.82771724849">
		<tag k="alt_name" v="Renshus" />
		<tag k="fixme" v="consider place=hamlet" />
		<tag k="name" v="Reinshus" />
		<tag k="place" v="farm" />
		<tag k="ssr:stedsnr" v="435623" />
	</node>
	<node id="-123861" lat="61.5557750003" lon="9.79422777908">
		<tag k="name" v="Asmundstad" />
		<tag k="place" v="farm" />
		<tag k="ssr:stedsnr" v="435614" />
	</node>
	<node id="-123860" lat="61.5832249968" lon="9.8961972135">
		<tag k="name" v="Kroken" />
		<tag k="place" v="farm" />
		<tag k="ssr:stedsnr" v="435603" />
	</node>
	<node id="-123854" lat="61.4510249999" lon="9.49724166154">
		<tag k="name" v="Lohaugen" />
		<tag k="place" v="isolated_dwelling" />
		<tag k="ssr:stedsnr" v="433416" />
	</node>
	<node id="-123843" lat="61.4004500017" lon="9.94311945318">
		<tag k="fixme" v="multiple name tags, choose one and add the other to alt_name" />
		<tag k="historic" v="shieling" />
		<tag k="name" v="Hovesætra;Nordre Hovesætra" />
		<tag k="place" v="locality" />
		<tag k="ssr:stedsnr" v="432330" />
	</node>
	<node id="-123840" lat="61.4848111127" lon="9.7654333307">
		<tag k="name" v="Saltsletta" />
		<tag k="place" v="neighbourhood" />
		<tag k="ssr:stedsnr" v="422921" />
	</node>
	<node id="-123837" lat="61.4985194479" lon="9.78765277587">
		<tag k="historic" v="shieling" />
		<tag k="name" v="Skurdalshaugsætra" />
		<tag k="place" v="locality" />
		<tag k="ssr:stedsnr" v="417613" />
	</node>
	<node id="-123835" lat="61.5545111155" lon="10.0362194363">
		<tag k="name" v="Bjørkli" />
		<tag k="place" v="farm" />
		<tag k="ssr:stedsnr" v="416996" />
	</node>
	<node id="-123834" lat="61.5557916624" lon="9.8059861018">
		<tag k="name" v="Klanken" />
		<tag k="place" v="locality" />
		<tag k="ssr:stedsnr" v="416964" />
	</node>
	<node id="-123831" lat="61.5689777799" lon="9.82829443676">
		<tag k="name" v="Nedre Monshaugen" />
		<tag k="place" v="farm" />
		<tag k="ssr:stedsnr" v="416918" />
	</node>
	<node id="-123830" lat="61.5566222225" lon="9.81641944058">
		<tag k="name" v="Stubbrud" />
		<tag k="place" v="locality" />
		<tag k="ssr:stedsnr" v="416908" />
	</node>
	<node id="-123827" lat="61.4438388863" lon="9.7147944428">
		<tag k="historic" v="shieling" />
		<tag k="name" v="Nordgard Kjorstadsætra" />
		<tag k="place" v="locality" />
		<tag k="ssr:stedsnr" v="416834" />
	</node>
	<node id="-123823" lat="61.5602138866" lon="9.94980834118">
		<tag k="leisure" v="pitch" />
		<tag k="name" v="Gardlausbakken" />
		<tag k="ssr:stedsnr" v="416796" />
	</node>
	<node id="-123813" lat="61.5522083358" lon="9.95115555033">
		<tag k="name" v="Veslhove" />
		<tag k="place" v="isolated_dwelling" />
		<tag k="ssr:stedsnr" v="416567" />
	</node>
	<node id="-123810" lat="61.7577583331" lon="9.97913611396">
		<tag k="name" v="Vesleldålægret" />
		<tag k="place" v="locality" />
		<tag k="ssr:stedsnr" v="416515" />
	</node>
	<node id="-123804" lat="61.5764138875" lon="9.94362778411">
		<tag k="name" v="Søre Korstadhågån" />
		<tag k="place" v="farm" />
		<tag k="ssr:stedsnr" v="416297" />
	</node>
	<node id="-123803" lat="61.576075003" lon="9.93761110392">
		<tag k="name" v="Nigard Korstad" />
		<tag k="place" v="farm" />
		<tag k="ssr:stedsnr" v="416293" />
	</node>
	<node id="-123802" lat="61.5311000019" lon="10.0119805485">
		<tag k="name" v="Langlykkja" />
		<tag k="place" v="farm" />
		<tag k="ssr:stedsnr" v="416291" />
	</node>
	<node id="-123801" lat="61.4038500042" lon="9.92800833772">
		<tag k="historic" v="shieling" />
		<tag k="name" v="Hovesætra" />
		<tag k="place" v="locality" />
		<tag k="ssr:stedsnr" v="416266" />
	</node>
	<node id="-123797" lat="61.5401694487" lon="9.98599444447">
		<tag k="name" v="Snekkerplassen" />
		<tag k="place" v="farm" />
		<tag k="ssr:stedsnr" v="416181" />
	</node>
	<node id="-123796" lat="61.5402611147" lon="9.98281387981">
		<tag k="name" v="Søre Isumvollen" />
		<tag k="place" v="farm" />
		<tag k="ssr:stedsnr" v="416179" />
	</node>
	<node id="-123795" lat="61.5569166625" lon="9.87759165836">
		<tag k="name" v="Ospa" />
		<tag k="place" v="farm" />
		<tag k="ssr:stedsnr" v="416173" />
	</node>
	<node id="-123794" lat="61.5789472215" lon="9.88621944268">
		<tag k="name" v="Uppigard Kjorstad" />
		<tag k="place" v="farm" />
		<tag k="ssr:stedsnr" v="416172" />
	</node>
	<node id="-123793" lat="61.5779138928" lon="9.89027500776">
		<tag k="name" v="Nigard Kjorstad" />
		<tag k="place" v="farm" />
		<tag k="ssr:stedsnr" v="416157" />
	</node>
	<node id="-123792" lat="61.5823527763" lon="9.90198055347">
		<tag k="name" v="Nybakken" />
		<tag k="place" v="isolated_dwelling" />
		<tag k="ssr:stedsnr" v="416141" />
	</node>
	<node id="-123786" lat="61.5682211775" lon="9.82696814846">
		<tag k="name" v="Øvre Monshaugen" />
		<tag k="place" v="farm" />
		<tag k="ssr:stedsnr" v="416111" />
	</node>
	<node id="-123785" lat="61.5693694422" lon="9.86549166156">
		<tag k="name" v="Veslstranda" />
		<tag k="place" v="isolated_dwelling" />
		<tag k="ssr:stedsnr" v="416103" />
	</node>
	<node id="-123784" lat="61.564636114" lon="9.86656389701">
		<tag k="name" v="Øygarden" />
		<tag k="place" v="locality" />
		<tag k="ssr:stedsnr" v="416099" />
	</node>
	<node id="-123783" lat="61.5773499966" lon="9.86459444985">
		<tag k="name" v="Tamburstugu" />
		<tag k="place" v="farm" />
		<tag k="ssr:stedsnr" v="416081" />
	</node>
	<node id="-123778" lat="61.5219500003" lon="9.98225556283">
		<tag k="name" v="Øygardshaugen" />
		<tag k="place" v="farm" />
		<tag k="ssr:stedsnr" v="416007" />
	</node>
	<node id="-123777" lat="61.5212388875" lon="9.98866110627">
		<tag k="name" v="Odenhaugen" />
		<tag k="place" v="locality" />
		<tag k="ssr:stedsnr" v="416001" />
	</node>
	<node id="-123776" lat="61.5717277816" lon="9.81253611815">
		<tag k="name" v="Eggen" />
		<tag k="place" v="farm" />
		<tag k="ssr:stedsnr" v="415983" />
	</node>
	<node id="-123775" lat="61.5715916677" lon="9.8081361116">
		<tag k="name" v="Myrom" />
		<tag k="place" v="farm" />
		<tag k="ssr:stedsnr" v="415982" />
	</node>
	<node id="-123774" lat="61.4419083311" lon="9.61856667537">
		<tag k="name" v="Gammellegret" />
		<tag k="place" v="locality" />
		<tag k="ssr:stedsnr" v="415813" />
	</node>
	<node id="-123770" lat="61.5292555589" lon="9.82965555089">
		<tag k="historic" v="shieling" />
		<tag k="name" v="Kirstislåa" />
		<tag k="old_name" v="Kristislåa" />
		<tag k="place" v="locality" />
		<tag k="ssr:stedsnr" v="253917" />
	</node>
	<node id="-123767" lat="61.5371304887" lon="9.9537314897">
		<tag k="fixme" v="consider place=hamlet" />
		<tag k="name" v="Skarstad" />
		<tag k="place" v="farm" />
		<tag k="ssr:stedsnr" v="253902" />
	</node>
	<node id="-123765" lat="61.5431727235" lon="9.92224361103">
		<tag k="fixme" v="consider place=hamlet" />
		<tag k="name" v="Muriteigen" />
		<tag k="place" v="farm" />
		<tag k="ssr:stedsnr" v="253900" />
	</node>
	<node id="-123763" lat="61.6104694424" lon="9.97133333913">
		<tag k="historic" v="shieling" />
		<tag k="name" v="Storlykkja" />
		<tag k="place" v="locality" />
		<tag k="ssr:stedsnr" v="253797" />
	</node>
	<node id="-123762" lat="61.5907499956" lon="10.0278666753">
		<tag k="alt_name" v="Gurihaug" />
		<tag k="name" v="Gurihaugen" />
		<tag k="place" v="farm" />
		<tag k="ssr:stedsnr" v="253790" />
	</node>
	<node id="-123761" lat="61.5673249972" lon="9.82905000547">
		<tag k="name" v="Monshaugen" />
		<tag k="place" v="farm" />
		<tag k="ssr:stedsnr" v="253629" />
	</node>
	<node id="-123759" lat="61.5750984003" lon="9.89030873824">
		<tag k="alt_name" v="Gryting" />
		<tag k="name" v="Grytting" />
		<tag k="place" v="hamlet" />
		<tag k="ssr:stedsnr" v="253594" />
	</node>
	<node id="-123758" lat="61.5367204442" lon="9.98647723678">
		<tag k="fixme" v="consider place=hamlet" />
		<tag k="name" v="Haverstad" />
		<tag k="place" v="farm" />
		<tag k="ssr:stedsnr" v="252792" />
	</node>
	<node id="-123744" lat="61.4184805578" lon="9.49199443731">
		<tag k="historic" v="shieling" />
		<tag k="name" v="Venlisætra" />
		<tag k="place" v="locality" />
		<tag k="ssr:stedsnr" v="251423" />
	</node>
	<node id="-123740" lat="61.4743500018" lon="9.89673611095">
		<tag k="alt_name" v="Toftsætrin" />
		<tag k="historic" v="shieling" />
		<tag k="name" v="Toftsætra" />
		<tag k="place" v="locality" />
		<tag k="ssr:stedsnr" v="251341" />
	</node>
	<node id="-123738" lat="61.4612277802" lon="9.73829167373">
		<tag k="alt_name" v="Sygard Tåkåstadsætra" />
		<tag k="historic" v="shieling" />
		<tag k="name" v="Tåkåstadsætra" />
		<tag k="old_name" v="Gryttingsætra" />
		<tag k="place" v="locality" />
		<tag k="ssr:stedsnr" v="251320" />
	</node>
	<node id="-123734" lat="61.4141555527" lon="9.9186527752">
		<tag k="name" v="Storhaugsætrin" />
		<tag k="place" v="isolated_dwelling" />
		<tag k="ssr:stedsnr" v="250333" />
	</node>
	<node id="-123731" lat="61.5151638846" lon="9.78132777054">
		<tag k="name" v="Gålålia" />
		<tag k="place" v="neighbourhood" />
		<tag k="ssr:stedsnr" v="240925" />
	</node>
	<node id="-123730" lat="61.5556416658" lon="10.0416500086">
		<tag k="name" v="Nysted" />
		<tag k="place" v="farm" />
		<tag k="ssr:stedsnr" v="235000" />
	</node>
	<node id="-123726" lat="61.5559638916" lon="9.94221943781">
		<tag k="name" v="Vangen" />
		<tag k="place" v="farm" />
		<tag k="ssr:stedsnr" v="234860" />
	</node>
	<node id="-123724" lat="61.5538277772" lon="9.95032499328">
		<tag k="name" v="Hamborg" />
		<tag k="place" v="farm" />
		<tag k="ssr:stedsnr" v="234852" />
	</node>
	<node id="-123723" lat="61.5579333306" lon="9.96883056361">
		<tag k="name" v="Innistugu Alme" />
		<tag k="place" v="farm" />
		<tag k="ssr:stedsnr" v="234817" />
	</node>
	<node id="-123722" lat="61.5576777796" lon="9.96971943898">
		<tag k="name" v="Nordgard Alme" />
		<tag k="place" v="farm" />
		<tag k="ssr:stedsnr" v="234815" />
	</node>
	<node id="-123711" lat="61.5837416646" lon="10.0350472151">
		<tag k="fixme" v="consider place=hamlet" />
		<tag k="name" v="Djupdalen" />
		<tag k="place" v="farm" />
		<tag k="ssr:stedsnr" v="234946" />
	</node>
	<node id="-123710" lat="61.5470027766" lon="9.77816388642">
		<tag k="name" v="Frøningsvarpet" />
		<tag k="place" v="locality" />
		<tag k="ssr:stedsnr" v="234944" />
	</node>
	<node id="-123709" lat="61.5601527813" lon="9.81562222507">
		<tag k="name" v="Elvestad" />
		<tag k="place" v="farm" />
		<tag k="ssr:stedsnr" v="234927" />
	</node>
	<node id="-123707" lat="61.5632666693" lon="9.82514722593">
		<tag k="name" v="Davidhaugen" />
		<tag k="place" v="farm" />
		<tag k="ssr:stedsnr" v="234922" />
	</node>
	<node id="-123706" lat="61.5530500041" lon="9.95403055149">
		<tag k="name" v="Vangen" />
		<tag k="place" v="isolated_dwelling" />
		<tag k="ssr:stedsnr" v="234600" />
	</node>
	<node id="-123705" lat="61.5483333347" lon="9.95316944575">
		<tag k="name" v="Jeriko" />
		<tag k="place" v="isolated_dwelling" />
		<tag k="ssr:stedsnr" v="234598" />
	</node>
	<node id="-123702" lat="61.5508388875" lon="9.94366667317">
		<tag k="name" v="Haugstad" />
		<tag k="place" v="isolated_dwelling" />
		<tag k="ssr:stedsnr" v="234565" />
	</node>
	<node id="-123701" lat="61.50129444" lon="9.78280000722">
		<tag k="historic" v="shieling" />
		<tag k="name" v="Hyttsætra" />
		<tag k="place" v="locality" />
		<tag k="ssr:stedsnr" v="234552" />
	</node>
	<node id="-123698" lat="61.7249361101" lon="9.93486944643">
		<tag k="name" v="Nordgard" />
		<tag k="place" v="locality" />
		<tag k="ssr:stedsnr" v="234510" />
	</node>
	<node id="-123688" lat="61.6392138913" lon="9.95463054707">
		<tag k="historic" v="shieling" />
		<tag k="name" v="Jensås" />
		<tag k="place" v="locality" />
		<tag k="ssr:stedsnr" v="234395" />
	</node>
	<node id="-123683" lat="61.6010305542" lon="9.92652500098">
		<tag k="name" v="Åseng" />
		<tag k="place" v="isolated_dwelling" />
		<tag k="ssr:stedsnr" v="234328" />
	</node>
	<node id="-123677" lat="61.5313861093" lon="9.99979444805">
		<tag k="name" v="Kaprelshaugen" />
		<tag k="place" v="isolated_dwelling" />
		<tag k="ssr:stedsnr" v="234308" />
	</node>
	<node id="-123676" lat="61.5804388916" lon="9.93644722798">
		<tag k="name" v="Vadet" />
		<tag k="place" v="farm" />
		<tag k="ssr:stedsnr" v="234309" />
	</node>
	<node id="-123671" lat="61.5352666692" lon="9.97550832462">
		<tag k="name" v="Nedre Fosse" />
		<tag k="place" v="farm" />
		<tag k="ssr:stedsnr" v="234239" />
	</node>
	<node id="-123665" lat="61.5640861086" lon="9.88923333857">
		<tag k="name" v="Uppigardshytta" />
		<tag k="place" v="locality" />
		<tag k="ssr:stedsnr" v="234168" />
	</node>
	<node id="-123664" lat="61.5660277794" lon="9.92606667416">
		<tag k="amenity" v="nursing_home" />
		<tag k="name" v="Sørheim pleiehjem" />
		<tag k="ssr:stedsnr" v="234163" />
	</node>
	<node id="-123663" lat="61.5770638927" lon="9.91627778607">
		<tag k="name" v="Smedstad" />
		<tag k="place" v="farm" />
		<tag k="ssr:stedsnr" v="234158" />
	</node>
	<node id="-123662" lat="61.5793472192" lon="9.92327777802">
		<tag k="name" v="Søre Dalsegg" />
		<tag k="place" v="farm" />
		<tag k="ssr:stedsnr" v="234155" />
	</node>
	<node id="-123657" lat="61.5770805527" lon="9.8675361057">
		<tag k="name" v="Grøntuva" />
		<tag k="place" v="farm" />
		<tag k="ssr:stedsnr" v="234086" />
	</node>
	<node id="-123656" lat="61.5775388872" lon="9.86308333686">
		<tag k="name" v="Nystugu" />
		<tag k="place" v="isolated_dwelling" />
		<tag k="ssr:stedsnr" v="234085" />
	</node>
	<node id="-123652" lat="61.5256472249" lon="9.9689555576">
		<tag k="name" v="Troa" />
		<tag k="place" v="farm" />
		<tag k="ssr:stedsnr" v="234051" />
	</node>
	<node id="-123651" lat="61.5306444428" lon="9.96390833902">
		<tag k="name" v="Øverjordet" />
		<tag k="place" v="isolated_dwelling" />
		<tag k="ssr:stedsnr" v="234047" />
	</node>
	<node id="-123650" lat="61.5312027763" lon="9.94853611789">
		<tag k="name" v="Isumhaugen" />
		<tag k="place" v="farm" />
		<tag k="ssr:stedsnr" v="234043" />
	</node>
	<node id="-123649" lat="61.5230861087" lon="9.93815833268">
		<tag k="name" v="Kroken" />
		<tag k="place" v="isolated_dwelling" />
		<tag k="ssr:stedsnr" v="234026" />
	</node>
	<node id="-123648" lat="61.5238777774" lon="9.94667222082">
		<tag k="name" v="Flata" />
		<tag k="place" v="isolated_dwelling" />
		<tag k="ssr:stedsnr" v="234021" />
	</node>
	<node id="-123646" lat="61.5216388914" lon="9.96326388245">
		<tag k="name" v="Utistugu Tofte" />
		<tag k="place" v="farm" />
		<tag k="ssr:stedsnr" v="234008" />
	</node>
	<node id="-123644" lat="61.569548602" lon="9.80797343745">
		<tag k="fixme" v="consider place=hamlet" />
		<tag k="name" v="Grensa" />
		<tag k="place" v="farm" />
		<tag k="ssr:stedsnr" v="233984" />
	</node>
	<node id="-123643" lat="61.5687305578" lon="9.8125305483">
		<tag k="name" v="Morka" />
		<tag k="place" v="farm" />
		<tag k="ssr:stedsnr" v="233980" />
	</node>
	<node id="-123638" lat="61.5210399062" lon="9.94075033506">
		<tag k="alt_name" v="Sygard Flåtå" />
		<tag k="fixme" v="consider place=hamlet" />
		<tag k="name" v="Flåtå" />
		<tag k="place" v="farm" />
		<tag k="ssr:stedsnr" v="192932" />
	</node>
	<node id="-123630" lat="61.5734055562" lon="9.90033333025">
		<tag k="alt_name" v="Rolstad" />
		<tag k="name" v="Uppigard Rolstad" />
		<tag k="place" v="farm" />
		<tag k="ssr:stedsnr" v="192650" />
	</node>
	<node id="-123623" lat="61.3339333377" lon="9.3427666723">
		<tag k="fixme" v="consider tourism=alpine_hut or tourism=chalet" />
		<tag k="name" v="Skriurusten" />
		<tag k="ssr:stedsnr" v="190507" />
		<tag k="tourism" v="wilderness_hut" />
	</node>
	<node id="-123618" lat="61.4418277798" lon="9.83486111881">
		<tag k="alt_name" v="Bjønnhaugen" />
		<tag k="historic" v="shieling" />
		<tag k="name" v="Bjørnhaugen" />
		<tag k="place" v="locality" />
		<tag k="ssr:stedsnr" v="190340" />
	</node>
	<node id="-123612" lat="61.4526611125" lon="9.70882778579">
		<tag k="name" v="Stokkesætra" />
		<tag k="place" v="isolated_dwelling" />
		<tag k="ssr:stedsnr" v="190303" />
	</node>
	<node id="-123607" lat="61.4626361109" lon="9.72144723155">
		<tag k="historic" v="shieling" />
		<tag k="name" v="Sygard Gryttingsætra" />
		<tag k="place" v="locality" />
		<tag k="ssr:stedsnr" v="174865" />
	</node>
	<node id="-123605" lat="61.4096249972" lon="9.74256110357">
		<tag k="building" v="industrial" />
		<tag k="name" v="Svanåsaga" />
		<tag k="ssr:stedsnr" v="174823" />
	</node>
	<node id="-123601" lat="61.5492250007" lon="9.95856388326">
		<tag k="name" v="Nordre Hove" />
		<tag k="place" v="farm" />
		<tag k="ssr:stedsnr" v="174636" />
	</node>
	<node id="-123592" lat="61.5567861149" lon="9.92137500508">
		<tag k="name" v="Nedre Fevollen" />
		<tag k="place" v="isolated_dwelling" />
		<tag k="ssr:stedsnr" v="174191" />
	</node>
	<node id="-123591" lat="61.5723888866" lon="9.80943054626">
		<tag k="name" v="Veslelykkja" />
		<tag k="place" v="isolated_dwelling" />
		<tag k="ssr:stedsnr" v="173977" />
	</node>
	<node id="-123590" lat="61.5682305532" lon="9.81977221685">
		<tag k="name" v="Bergom" />
		<tag k="place" v="locality" />
		<tag k="ssr:stedsnr" v="173933" />
	</node>
	<node id="-123589" lat="61.5720444461" lon="9.81706389144">
		<tag k="name" v="Hafellmillom" />
		<tag k="place" v="isolated_dwelling" />
		<tag k="ssr:stedsnr" v="173929" />
	</node>
	<node id="-123588" lat="61.574255557" lon="9.89829722576">
		<tag k="name" v="Nordgard Rolstad" />
		<tag k="place" v="farm" />
		<tag k="ssr:stedsnr" v="173848" />
	</node>
	<node id="-123587" lat="61.5680666659" lon="9.90956667158">
		<tag k="name" v="Øvre Breivegen" />
		<tag k="place" v="farm" />
		<tag k="ssr:stedsnr" v="173845" />
	</node>
	<node id="-123586" lat="61.5669500023" lon="9.91025277007">
		<tag k="name" v="Nedre Breivegen" />
		<tag k="place" v="farm" />
		<tag k="ssr:stedsnr" v="173844" />
	</node>
	<node id="-123585" lat="61.5549444437" lon="9.94156944171">
		<tag k="name" v="Nygård" />
		<tag k="place" v="farm" />
		<tag k="ssr:stedsnr" v="173832" />
	</node>
	<node id="-123584" lat="61.5625138868" lon="9.94205554754">
		<tag k="name" v="Søre Listad" />
		<tag k="place" v="farm" />
		<tag k="ssr:stedsnr" v="173828" />
	</node>
	<node id="-123583" lat="61.5567694416" lon="9.93708332583">
		<tag k="name" v="Klokkargarden" />
		<tag k="place" v="farm" />
		<tag k="ssr:stedsnr" v="173824" />
	</node>
	<node id="-123581" lat="61.5745000007" lon="9.95103610596">
		<tag k="name" v="Melgardshågån" />
		<tag k="place" v="farm" />
		<tag k="ssr:stedsnr" v="173858" />
	</node>
	<node id="-123580" lat="61.572455557" lon="9.95278055957">
		<tag k="name" v="Nordre Kvikstadhågån" />
		<tag k="place" v="isolated_dwelling" />
		<tag k="ssr:stedsnr" v="173854" />
	</node>
	<node id="-123577" lat="61.5700944435" lon="9.9574861082">
		<tag k="name" v="Gunderstugu" />
		<tag k="place" v="isolated_dwelling" />
		<tag k="ssr:stedsnr" v="173808" />
	</node>
	<node id="-123576" lat="61.5659472242" lon="9.97008611208">
		<tag k="name" v="Pynten" />
		<tag k="place" v="isolated_dwelling" />
		<tag k="ssr:stedsnr" v="173805" />
	</node>
	<node id="-123575" lat="61.5612083345" lon="9.97857221356">
		<tag k="name" v="Nordre Almehågån" />
		<tag k="place" v="farm" />
		<tag k="ssr:stedsnr" v="173802" />
	</node>
	<node id="-123559" lat="61.4791083358" lon="9.99100277118">
		<tag k="historic" v="shieling" />
		<tag k="name" v="Åsavarpet" />
		<tag k="place" v="locality" />
		<tag k="ssr:stedsnr" v="173438" />
	</node>
	<node id="-123552" lat="61.5384472213" lon="9.95040555781">
		<tag k="leisure" v="pitch" />
		<tag k="name" v="Børrebakken" />
		<tag k="ssr:stedsnr" v="173227" />
	</node>
	<node id="-123551" lat="61.5365583294" lon="9.97720555674">
		<tag k="building" v="industrial" />
		<tag k="name" v="Isum Mølle" />
		<tag k="ssr:stedsnr" v="173222" />
	</node>
	<node id="-123546" lat="61.5350527815" lon="9.98256388294">
		<tag k="amenity" v="school" />
		<tag k="name" v="Liene skule" />
		<tag k="ssr:stedsnr" v="173193" />
	</node>
	<node id="-123539" lat="61.5670138889" lon="9.84660555193">
		<tag k="name" v="Sygard Skurdal" />
		<tag k="place" v="farm" />
		<tag k="ssr:stedsnr" v="173098" />
	</node>
	<node id="-123538" lat="61.5695933865" lon="9.83493797046">
		<tag k="fixme" v="consider place=hamlet" />
		<tag k="name" v="Skurdalshaugen" />
		<tag k="place" v="farm" />
		<tag k="ssr:stedsnr" v="173095" />
	</node>
	<node id="-123537" lat="61.5797749992" lon="9.85613055437">
		<tag k="name" v="Kjorstadmoen" />
		<tag k="place" v="isolated_dwelling" />
		<tag k="ssr:stedsnr" v="173075" />
	</node>
	<node id="-123533" lat="61.586197223" lon="9.86559165779">
		<tag k="name" v="Heggesletta" />
		<tag k="place" v="isolated_dwelling" />
		<tag k="ssr:stedsnr" v="173054" />
	</node>
	<node id="-123532" lat="61.5250666629" lon="9.96456945009">
		<tag k="name" v="Søre Tofthågån" />
		<tag k="place" v="isolated_dwelling" />
		<tag k="ssr:stedsnr" v="173044" />
	</node>
	<node id="-123531" lat="61.5303583344" lon="9.95288054853">
		<tag k="name" v="Ringstad" />
		<tag k="place" v="isolated_dwelling" />
		<tag k="ssr:stedsnr" v="173036" />
	</node>
	<node id="-123526" lat="61.550291666" lon="10.0375722176">
		<tag k="name" v="Øvre Forr" />
		<tag k="place" v="farm" />
		<tag k="ssr:stedsnr" v="160609" />
	</node>
	<node id="-123525" lat="61.5518500014" lon="10.0517027858">
		<tag k="name" v="Enden" />
		<tag k="place" v="isolated_dwelling" />
		<tag k="ssr:stedsnr" v="160596" />
	</node>
	<node id="-123522" lat="61.5363194453" lon="10.021769438">
		<tag k="name" v="Søre Sveen" />
		<tag k="place" v="farm" />
		<tag k="ssr:stedsnr" v="160582" />
	</node>
	<node id="-123521" lat="61.5339527777" lon="10.0225000034">
		<tag k="name" v="Heggehaugen" />
		<tag k="place" v="isolated_dwelling" />
		<tag k="ssr:stedsnr" v="160579" />
	</node>
	<node id="-123520" lat="61.5349000024" lon="10.0091305587">
		<tag k="name" v="Nordre Hegge" />
		<tag k="place" v="farm" />
		<tag k="ssr:stedsnr" v="160573" />
	</node>
	<node id="-123517" lat="61.5445222185" lon="9.81137777305">
		<tag k="historic" v="shieling" />
		<tag k="name" v="Veslsætra" />
		<tag k="place" v="locality" />
		<tag k="ssr:stedsnr" v="131935" />
	</node>
	<node id="-123516" lat="61.5314357875" lon="9.96162881883">
		<tag k="alt_name" v="Rudi" />
		<tag k="name" v="Søre Rudi" />
		<tag k="place" v="farm" />
		<tag k="ssr:stedsnr" v="131936" />
	</node>
	<node id="-123515" lat="61.5552666691" lon="9.94072221994">
		<tag k="name" v="Hundorp" />
		<tag k="place" v="village" />
		<tag k="ssr:stedsnr" v="131931" />
	</node>
	<node id="-123514" lat="61.5652277772" lon="9.91385833026">
		<tag k="name" v="Orvoll" />
		<tag k="place" v="farm" />
		<tag k="ssr:stedsnr" v="131917" />
	</node>
	<node id="-123513" lat="61.5165563356" lon="9.97581096273">
		<tag k="fixme" v="consider place=hamlet" />
		<tag k="name" v="Nyhus" />
		<tag k="place" v="farm" />
		<tag k="ssr:stedsnr" v="131910" />
	</node>
	<node id="-123512" lat="61.5303666676" lon="10.0317722141">
		<tag k="alt_name" v="Heggelia søre" />
		<tag k="name" v="Heggelia" />
		<tag k="place" v="farm" />
		<tag k="ssr:stedsnr" v="131877" />
	</node>
	<node id="-123511" lat="61.5355122617" lon="9.97381664399">
		<tag k="fixme" v="consider place=hamlet" />
		<tag k="name" v="Fosse" />
		<tag k="place" v="farm" />
		<tag k="ssr:stedsnr" v="131874" />
	</node>
	<node id="-123510" lat="61.5300140087" lon="9.98867498117">
		<tag k="fixme" v="consider place=hamlet" />
		<tag k="name" v="Erlandsrud" />
		<tag k="place" v="farm" />
		<tag k="ssr:stedsnr" v="131873" />
	</node>
	<node id="-123509" lat="61.5548959554" lon="9.98680873388">
		<tag k="fixme" v="consider place=hamlet" />
		<tag k="name" v="Steig" />
		<tag k="place" v="farm" />
		<tag k="ssr:stedsnr" v="131851" />
	</node>
	<node id="-123505" lat="61.5720185979" lon="9.92304115301">
		<tag k="fixme" v="consider place=hamlet" />
		<tag k="name" v="Brandrud" />
		<tag k="place" v="farm" />
		<tag k="ssr:stedsnr" v="131618" />
	</node>
	<node id="-123503" lat="61.5875222256" lon="9.89278611915">
		<tag k="name" v="Nyborg" />
		<tag k="place" v="farm" />
		<tag k="ssr:stedsnr" v="131566" />
	</node>
	<node id="-123502" lat="61.8864111086" lon="10.1127111191">
		<tag k="name" v="Fagervoll" />
		<tag k="place" v="isolated_dwelling" />
		<tag k="ssr:stedsnr" v="131554" />
	</node>
	<node id="-123501" lat="61.6338999976" lon="9.9560250062">
		<tag k="historic" v="shieling" />
		<tag k="name" v="Tverrset" />
		<tag k="place" v="locality" />
		<tag k="ssr:stedsnr" v="131503" />
	</node>
	<node id="-123498" lat="61.4612944418" lon="9.97850834133">
		<tag k="historic" v="shieling" />
		<tag k="name" v="Vendalen" />
		<tag k="place" v="locality" />
		<tag k="ssr:stedsnr" v="130543" />
	</node>
	<node id="-123496" lat="61.4035888903" lon="9.92920554723">
		<tag k="historic" v="shieling" />
		<tag k="name" v="Vidmesætra" />
		<tag k="place" v="locality" />
		<tag k="ssr:stedsnr" v="129357" />
	</node>
	<node id="-123493" lat="61.4103749981" lon="9.93879443864">
		<tag k="alt_name" v="Gardtjørnlia" />
		<tag k="name" v="Gartjønnlia" />
		<tag k="place" v="isolated_dwelling" />
		<tag k="ssr:stedsnr" v="129331" />
	</node>
	<node id="-123491" lat="61.4105238151" lon="9.71150204866">
		<tag k="alt_name" v="Børkdalsætrin" />
		<tag k="historic" v="shieling" />
		<tag k="name" v="Børkdalen" />
		<tag k="old_name" v="Bjørkdalsætrin" />
		<tag k="place" v="locality" />
		<tag k="ssr:stedsnr" v="129328" />
	</node>
	<node id="-123484" lat="61.3589611142" lon="9.45794999883">
		<tag k="name" v="Krusgrav" />
		<tag k="place" v="locality" />
		<tag k="ssr:stedsnr" v="129445" />
	</node>
	<node id="-123482" lat="61.5437361111" lon="10.044055558">
		<tag k="name" v="Rønningen" />
		<tag k="place" v="farm" />
		<tag k="ssr:stedsnr" v="118637" />
	</node>
	<node id="-123476" lat="61.5595722212" lon="9.88342776933">
		<tag k="name" v="Grindhaugen" />
		<tag k="place" v="isolated_dwelling" />
		<tag k="ssr:stedsnr" v="113856" />
	</node>
	<node id="-123474" lat="61.561487264" lon="9.88385239529">
		<tag k="fixme" v="consider place=hamlet" />
		<tag k="name" v="Skinnehaugen" />
		<tag k="place" v="farm" />
		<tag k="ssr:stedsnr" v="113851" />
	</node>
	<node id="-123473" lat="61.5737138902" lon="9.90074167295">
		<tag k="name" v="Nigard Rolstad" />
		<tag k="place" v="farm" />
		<tag k="ssr:stedsnr" v="113849" />
	</node>
	<node id="-123470" lat="61.5715666674" lon="9.91378333446">
		<tag k="name" v="Jensbakken" />
		<tag k="place" v="isolated_dwelling" />
		<tag k="ssr:stedsnr" v="113846" />
	</node>
	<node id="-123469" lat="61.5576083345" lon="9.95047499701">
		<tag k="fixme" v="consider place=hamlet" />
		<tag k="name" v="Nerbygda" />
		<tag k="place" v="village" />
		<tag k="ssr:stedsnr" v="113839" />
	</node>
	<node id="-123468" lat="61.5534888869" lon="9.95390833749">
		<tag k="name" v="Kasjetten" />
		<tag k="place" v="isolated_dwelling" />
		<tag k="ssr:stedsnr" v="113836" />
	</node>
	<node id="-123467" lat="61.5583916679" lon="9.96208334214">
		<tag k="name" v="Brekka" />
		<tag k="place" v="isolated_dwelling" />
		<tag k="ssr:stedsnr" v="113829" />
	</node>
	<node id="-123466" lat="61.5624166702" lon="9.96968055222">
		<tag k="name" v="Almelykkja" />
		<tag k="place" v="isolated_dwelling" />
		<tag k="ssr:stedsnr" v="113819" />
	</node>
	<node id="-123464" lat="61.5594694442" lon="9.95263054882">
		<tag k="name" v="Gardlaus" />
		<tag k="place" v="farm" />
		<tag k="ssr:stedsnr" v="113812" />
	</node>
	<node id="-123462" lat="61.431913891" lon="9.63466110651">
		<tag k="name" v="Gammelbua" />
		<tag k="place" v="locality" />
		<tag k="ssr:stedsnr" v="113770" />
	</node>
	<node id="-123461" lat="61.7019611108" lon="9.95359999987">
		<tag k="building" v="industrial" />
		<tag k="name" v="Frysaga" />
		<tag k="ssr:stedsnr" v="113720" />
	</node>
	<node id="-123457" lat="61.5484722264" lon="9.9665944411">
		<tag k="amenity" v="school" />
		<tag k="name" v="Gudbrandsdal folkehøgskule" />
		<tag k="ssr:stedsnr" v="113575" />
	</node>
	<node id="-123455" lat="61.4397055579" lon="9.49386667486">
		<tag k="building" v="industrial" />
		<tag k="name" v="Håmmårstugu" />
		<tag k="ssr:stedsnr" v="113545" />
	</node>
	<node id="-123448" lat="61.418888888" lon="9.87428332788">
		<tag k="historic" v="shieling" />
		<tag k="name" v="Buesætra" />
		<tag k="place" v="locality" />
		<tag k="ssr:stedsnr" v="113451" />
	</node>
	<node id="-123447" lat="61.4258833351" lon="9.78021388886">
		<tag k="historic" v="shieling" />
		<tag k="name" v="Vadetsætra" />
		<tag k="place" v="locality" />
		<tag k="ssr:stedsnr" v="113448" />
	</node>
	<node id="-123438" lat="61.5807861115" lon="9.93474443686">
		<tag k="name" v="Øvre Ånnehaugen" />
		<tag k="place" v="farm" />
		<tag k="ssr:stedsnr" v="113308" />
	</node>
	<node id="-123436" lat="61.5296666623" lon="10.0264861165">
		<tag k="name" v="Jota" />
		<tag k="place" v="isolated_dwelling" />
		<tag k="ssr:stedsnr" v="113305" />
	</node>
	<node id="-123431" lat="61.5413694441" lon="9.92195834204">
		<tag k="name" v="Muriteiglykkja" />
		<tag k="place" v="farm" />
		<tag k="ssr:stedsnr" v="113245" />
	</node>
	<node id="-123430" lat="61.5432416695" lon="9.91822499787">
		<tag k="name" v="Muriteighågån" />
		<tag k="place" v="farm" />
		<tag k="ssr:stedsnr" v="113244" />
	</node>
	<node id="-123428" lat="61.5409027807" lon="9.96916666816">
		<tag k="name" v="Ekre" />
		<tag k="place" v="farm" />
		<tag k="ssr:stedsnr" v="113216" />
	</node>
	<node id="-123426" lat="61.5396333339" lon="9.97630554888">
		<tag k="name" v="Nersnippen" />
		<tag k="place" v="isolated_dwelling" />
		<tag k="ssr:stedsnr" v="113205" />
	</node>
	<node id="-123425" lat="61.5363805543" lon="9.98719444503">
		<tag k="name" v="Søre Haverstad" />
		<tag k="place" v="farm" />
		<tag k="ssr:stedsnr" v="113201" />
	</node>
	<node id="-123424" lat="61.5602611102" lon="9.89315555507">
		<tag k="name" v="Brennlykkja" />
		<tag k="place" v="locality" />
		<tag k="ssr:stedsnr" v="113167" />
	</node>
	<node id="-123422" lat="61.5757027795" lon="9.91397778132">
		<tag k="name" v="Dalmo" />
		<tag k="place" v="isolated_dwelling" />
		<tag k="ssr:stedsnr" v="113157" />
	</node>
	<node id="-123421" lat="61.5856944405" lon="9.90838889042">
		<tag k="name" v="Rusta" />
		<tag k="place" v="isolated_dwelling" />
		<tag k="ssr:stedsnr" v="113133" />
	</node>
	<node id="-123417" lat="61.5659388848" lon="9.84256944485">
		<tag k="name" v="Nordgard Skurdal" />
		<tag k="place" v="farm" />
		<tag k="ssr:stedsnr" v="113114" />
	</node>
	<node id="-123415" lat="61.5682861077" lon="9.83506943982">
		<tag k="building" v="industrial" />
		<tag k="name" v="Saga" />
		<tag k="ssr:stedsnr" v="113107" />
	</node>
	<node id="-123414" lat="61.567158337" lon="9.83139444536">
		<tag k="name" v="Søre Krokom" />
		<tag k="place" v="locality" />
		<tag k="ssr:stedsnr" v="113104" />
	</node>
	<node id="-123413" lat="61.5108555586" lon="9.97549166705">
		<tag k="name" v="Nordre Steindalen" />
		<tag k="place" v="locality" />
		<tag k="ssr:stedsnr" v="113093" />
	</node>
	<node id="-123412" lat="61.559158334" lon="9.87299721322">
		<tag k="name" v="Knappen" />
		<tag k="place" v="isolated_dwelling" />
		<tag k="ssr:stedsnr" v="113092" />
	</node>
	<node id="-123406" lat="61.5264027778" lon="9.95970833673">
		<tag k="name" v="Erlandsheimen" />
		<tag k="place" v="farm" />
		<tag k="ssr:stedsnr" v="113047" />
	</node>
	<node id="-123405" lat="61.5223416705" lon="9.95738333991">
		<tag k="name" v="Tofthaugen" />
		<tag k="place" v="farm" />
		<tag k="ssr:stedsnr" v="113015" />
	</node>
	<node id="-123404" lat="61.5215527787" lon="9.96226944596">
		<tag k="name" v="Uppigard Tofte" />
		<tag k="place" v="farm" />
		<tag k="ssr:stedsnr" v="113010" />
	</node>
	<node id="-123403" lat="61.5713833297" lon="9.8052611068">
		<tag k="name" v="Myromslykkja" />
		<tag k="place" v="isolated_dwelling" />
		<tag k="ssr:stedsnr" v="112972" />
	</node>
	<node id="-123398" lat="61.5492250035" lon="10.0431638958">
		<tag k="name" v="Øvre Vollberg" />
		<tag k="place" v="isolated_dwelling" />
		<tag k="ssr:stedsnr" v="99692" />
	</node>
	<node id="-123397" lat="61.5525916629" lon="10.0382194535">
		<tag k="loc_name" v="Morkelykkja" />
		<tag k="name" v="Morkjelykkja" />
		<tag k="place" v="farm" />
		<tag k="ssr:stedsnr" v="99691" />
	</node>
	<node id="-123396" lat="61.5497222221" lon="10.0140388896">
		<tag k="name" v="Søristugu Forr" />
		<tag k="place" v="farm" />
		<tag k="ssr:stedsnr" v="99682" />
	</node>
	<node id="-123395" lat="61.5347611104" lon="10.025752778">
		<tag k="name" v="Underdalshaugen" />
		<tag k="place" v="farm" />
		<tag k="ssr:stedsnr" v="99678" />
	</node>
	<node id="-123393" lat="61.4921527799" lon="9.74883055188">
		<tag k="historic" v="shieling" />
		<tag k="loc_name" v="Solbråseter" />
		<tag k="name" v="Solbråsætra" />
		<tag k="place" v="locality" />
		<tag k="ssr:stedsnr" v="85723" />
	</node>
	<node id="-123392" lat="61.7499583364" lon="9.96014167391">
		<tag k="historic" v="shieling" />
		<tag k="name" v="Eldåsætra" />
		<tag k="place" v="locality" />
		<tag k="ssr:stedsnr" v="83096" />
	</node>
	<node id="-123389" lat="61.5030367017" lon="9.95038978876">
		<tag k="historic" v="shieling" />
		<tag k="name" v="Helgåsen" />
		<tag k="place" v="locality" />
		<tag k="ssr:stedsnr" v="71957" />
	</node>
	<node id="-123385" lat="61.5142740204" lon="9.97640713196">
		<tag k="fixme" v="consider place=hamlet" />
		<tag k="name" v="Steindalen" />
		<tag k="place" v="farm" />
		<tag k="ssr:stedsnr" v="71895" />
	</node>
	<node id="-123384" lat="61.5015166678" lon="9.99093055025">
		<tag k="alt_name" v="Bålsætrin" />
		<tag k="historic" v="shieling" />
		<tag k="name" v="Bålsætra" />
		<tag k="place" v="locality" />
		<tag k="ssr:stedsnr" v="71885" />
	</node>
	<node id="-123383" lat="61.5171777295" lon="9.98228504156">
		<tag k="fixme" v="consider place=hamlet" />
		<tag k="name" v="Rusta" />
		<tag k="place" v="farm" />
		<tag k="ssr:stedsnr" v="71863" />
	</node>
	<node id="-123382" lat="61.5288694414" lon="9.9852749986">
		<tag k="alt_name" v="Bue" />
		<tag k="name" v="Øvre Bue" />
		<tag k="place" v="farm" />
		<tag k="ssr:stedsnr" v="71847" />
	</node>
	<node id="-123379" lat="61.5595230137" lon="9.93573390979">
		<tag k="fixme" v="consider place=hamlet" />
		<tag k="name" v="Oden" />
		<tag k="place" v="farm" />
		<tag k="ssr:stedsnr" v="71660" />
	</node>
	<node id="-123376" lat="61.5617499992" lon="9.82630000475">
		<tag k="name" v="Haug" />
		<tag k="place" v="farm" />
		<tag k="ssr:stedsnr" v="70866" />
	</node>
	<node id="-123375" lat="61.5573333293" lon="9.85525000207">
		<tag k="name" v="Slåa" />
		<tag k="place" v="farm" />
		<tag k="ssr:stedsnr" v="70860" />
	</node>
	<node id="-123374" lat="61.5556055524" lon="9.88487499099">
		<tag k="alt_name" v="Øverlia" />
		<tag k="name" v="Øverli" />
		<tag k="place" v="farm" />
		<tag k="ssr:stedsnr" v="70858" />
	</node>
	<node id="-123372" lat="61.5570027734" lon="9.80208333047">
		<tag k="alt_name" v="Enget" />
		<tag k="name" v="Enge" />
		<tag k="old_name" v="Enga" />
		<tag k="place" v="farm" />
		<tag k="ssr:stedsnr" v="70582" />
	</node>
	<node id="-123371" lat="61.6890388933" lon="9.9568499929">
		<tag k="alt_name" v="Hovdesæter" />
		<tag k="historic" v="shieling" />
		<tag k="name" v="Hovdsætra" />
		<tag k="place" v="locality" />
		<tag k="ssr:stedsnr" v="70660" />
	</node>
	<node id="-123367" lat="61.4240805563" lon="9.52806945241">
		<tag k="name" v="Botnen" />
		<tag k="place" v="isolated_dwelling" />
		<tag k="ssr:stedsnr" v="69444" />
	</node>
	<node id="-123366" lat="61.4193999962" lon="9.54479167578">
		<tag k="name" v="Økelsrud" />
		<tag k="place" v="farm" />
		<tag k="ssr:stedsnr" v="69440" />
	</node>
	<node id="-123365" lat="61.4598027737" lon="9.48630000105">
		<tag k="name" v="Haugasætra" />
		<tag k="place" v="isolated_dwelling" />
		<tag k="ssr:stedsnr" v="69404" />
	</node>
	<node id="-123357" lat="61.4990044297" lon="9.78370648432">
		<tag k="historic" v="shieling" />
		<tag k="name" v="Gålåsætrin" />
		<tag k="place" v="locality" />
		<tag k="ssr:stedsnr" v="69262" />
	</node>
	<node id="-123352" lat="61.4050249977" lon="9.74096388428">
		<tag k="name" v="Ulbergbua" />
		<tag k="place" v="isolated_dwelling" />
		<tag k="ssr:stedsnr" v="68385" />
	</node>
	<node id="-123349" lat="61.4128555577" lon="9.94160278549">
		<tag k="historic" v="shieling" />
		<tag k="name" v="Ånekresætra" />
		<tag k="place" v="locality" />
		<tag k="ssr:stedsnr" v="68336" />
	</node>
	<node id="-123346" lat="61.4081055514" lon="9.73618611032">
		<tag k="alt_name" v="Svanvollen" />
		<tag k="name" v="Svanvollan" />
		<tag k="place" v="isolated_dwelling" />
		<tag k="ssr:stedsnr" v="68324" />
	</node>
	<node id="-123341" lat="61.5585249997" lon="10.0033583307">
		<tag k="name" v="Ringen" />
		<tag k="place" v="farm" />
		<tag k="ssr:stedsnr" v="52941" />
	</node>
	<node id="-123335" lat="61.5623903812" lon="9.87866813462">
		<tag k="fixme" v="consider place=hamlet" />
		<tag k="name" v="Joe" />
		<tag k="place" v="farm" />
		<tag k="ssr:stedsnr" v="52851" />
	</node>
	<node id="-123334" lat="61.4476027798" lon="9.71784166317">
		<tag k="historic" v="shieling" />
		<tag k="name" v="Brandrudsætra" />
		<tag k="place" v="locality" />
		<tag k="ssr:stedsnr" v="52837" />
	</node>
	<node id="-123333" lat="61.5547027766" lon="9.94772776888">
		<tag k="name" v="Prestlykkja" />
		<tag k="place" v="farm" />
		<tag k="ssr:stedsnr" v="52821" />
	</node>
	<node id="-123326" lat="61.5530333334" lon="9.96563889653">
		<tag k="name" v="Nordre Berge" />
		<tag k="place" v="isolated_dwelling" />
		<tag k="ssr:stedsnr" v="52570" />
	</node>
	<node id="-123323" lat="61.5491777818" lon="9.9420527767">
		<tag k="name" v="Rykkhus" />
		<tag k="place" v="locality" />
		<tag k="ssr:stedsnr" v="52545" />
	</node>
	<node id="-123321" lat="61.4996944484" lon="9.78885554866">
		<tag k="name" v="Wadahl Høgfjellshotell" />
		<tag k="ssr:stedsnr" v="52535" />
		<tag k="tourism" v="hotel" />
	</node>
	<node id="-123319" lat="61.5016722234" lon="9.78951111938">
		<tag k="historic" v="shieling" />
		<tag k="name" v="Tåkåstadsætra" />
		<tag k="place" v="locality" />
		<tag k="ssr:stedsnr" v="52527" />
	</node>
	<node id="-123313" lat="61.4321305594" lon="9.79477221657">
		<tag k="historic" v="shieling" />
		<tag k="name" v="Årstulhøgda" />
		<tag k="place" v="locality" />
		<tag k="ssr:stedsnr" v="52432" />
	</node>
	<node id="-123312" lat="61.4850166667" lon="10.0048666699">
		<tag k="name" v="Storbråtån" />
		<tag k="place" v="isolated_dwelling" />
		<tag k="ssr:stedsnr" v="52321" />
	</node>
	<node id="-123305" lat="61.6114861085" lon="9.96630555717">
		<tag k="historic" v="shieling" />
		<tag k="name" v="Rolvsbakksætra" />
		<tag k="place" v="locality" />
		<tag k="ssr:stedsnr" v="52296" />
	</node>
	<node id="-123300" lat="61.5494555557" lon="9.91580832825">
		<tag k="name" v="Brettingen" />
		<tag k="place" v="isolated_dwelling" />
		<tag k="ssr:stedsnr" v="52235" />
	</node>
	<node id="-123299" lat="61.5325972193" lon="9.94923611541">
		<tag k="name" v="Flaksrud" />
		<tag k="place" v="isolated_dwelling" />
		<tag k="ssr:stedsnr" v="52227" />
	</node>
	<node id="-123298" lat="61.5417250042" lon="9.97016388248">
		<tag k="building" v="commercial" />
		<tag k="name" v="Årbogen" />
		<tag k="ssr:stedsnr" v="52208" />
	</node>
	<node id="-123296" lat="61.5372638927" lon="9.97818610343">
		<tag k="amenity" v="nursing_home" />
		<tag k="name" v="Lidarende" />
		<tag k="ssr:stedsnr" v="52199" />
	</node>
	<node id="-123295" lat="61.5382444482" lon="9.97848334249">
		<tag k="name" v="Lauvstad" />
		<tag k="place" v="isolated_dwelling" />
		<tag k="ssr:stedsnr" v="52197" />
	</node>
	<node id="-123294" lat="61.5393472231" lon="9.98016667109">
		<tag k="name" v="Haverstadlykkja" />
		<tag k="place" v="farm" />
		<tag k="ssr:stedsnr" v="52195" />
	</node>
	<node id="-123293" lat="61.535733334" lon="9.98397500446">
		<tag k="name" v="Nordre Haverstad" />
		<tag k="place" v="farm" />
		<tag k="ssr:stedsnr" v="52193" />
	</node>
	<node id="-123292" lat="61.5351027759" lon="9.99026945192">
		<tag k="name" v="Sletten" />
		<tag k="place" v="farm" />
		<tag k="ssr:stedsnr" v="52187" />
	</node>
	<node id="-123290" lat="61.5586029679" lon="9.9316201057">
		<tag k="fixme" v="consider place=hamlet" />
		<tag k="name" v="Odenrud" />
		<tag k="place" v="farm" />
		<tag k="ssr:stedsnr" v="52152" />
	</node>
	<node id="-123289" lat="61.565680556" lon="9.91570555804">
		<tag k="building" v="industrial" />
		<tag k="industrial" v="factory" />
		<tag k="name" v="Fron Ysteri" />
		<tag k="ssr:stedsnr" v="52146" />
	</node>
	<node id="-123288" lat="61.5657722196" lon="9.90697221769">
		<tag k="name" v="Listadvollen" />
		<tag k="place" v="isolated_dwelling" />
		<tag k="ssr:stedsnr" v="52145" />
	</node>
	<node id="-123281" lat="61.5592638901" lon="9.85681388465">
		<tag k="name" v="Bekken" />
		<tag k="place" v="farm" />
		<tag k="ssr:stedsnr" v="52108" />
	</node>
	<node id="-123280" lat="61.5598861104" lon="9.85470833737">
		<tag k="name" v="Sulengshaugen" />
		<tag k="place" v="farm" />
		<tag k="ssr:stedsnr" v="52106" />
	</node>
	<node id="-123279" lat="61.5633277794" lon="9.84682221616">
		<tag k="name" v="Sørjordet" />
		<tag k="place" v="farm" />
		<tag k="ssr:stedsnr" v="52104" />
	</node>
	<node id="-123276" lat="61.5148777743" lon="9.97736943548">
		<tag k="name" v="Forråerma" />
		<tag k="place" v="locality" />
		<tag k="ssr:stedsnr" v="52080" />
	</node>
	<node id="-123275" lat="61.5297777789" lon="9.97146666661">
		<tag k="name" v="Nordre Fossehågån" />
		<tag k="place" v="farm" />
		<tag k="ssr:stedsnr" v="52055" />
	</node>
	<node id="-123274" lat="61.5299861139" lon="9.97463888614">
		<tag k="name" v="Midtre Fossehågån" />
		<tag k="place" v="farm" />
		<tag k="ssr:stedsnr" v="52053" />
	</node>
	<node id="-123273" lat="61.5293757531" lon="9.96746506031">
		<tag k="fixme" v="consider place=hamlet" />
		<tag k="name" v="Fauske" />
		<tag k="place" v="farm" />
		<tag k="ssr:stedsnr" v="52049" />
	</node>
	<node id="-123270" lat="61.5229869554" lon="9.9854308868">
		<tag k="fixme" v="consider place=hamlet" />
		<tag k="name" v="Øygarden" />
		<tag k="place" v="farm" />
		<tag k="ssr:stedsnr" v="52007" />
	</node>
	<node id="-123269" lat="61.5649555589" lon="9.81312778203">
		<tag k="name" v="Dundrud" />
		<tag k="place" v="farm" />
		<tag k="ssr:stedsnr" v="51973" />
	</node>
	<node id="-123268" lat="61.5639916702" lon="9.80160277813">
		<tag k="name" v="Skansgård" />
		<tag k="place" v="farm" />
		<tag k="ssr:stedsnr" v="51967" />
	</node>
	<node id="-123266" lat="61.578883337" lon="9.93752223107">
		<tag k="name" v="Rolfsbakken" />
		<tag k="place" v="farm" />
		<tag k="ssr:stedsnr" v="51367" />
	</node>
	<node id="-123262" lat="61.5342666711" lon="10.0225472207">
		<tag k="name" v="Heggelykkja" />
		<tag k="place" v="farm" />
		<tag k="ssr:stedsnr" v="39573" />
	</node>
	<node id="-123261" lat="61.5351083345" lon="10.0165138961">
		<tag k="name" v="Heggestugu" />
		<tag k="place" v="isolated_dwelling" />
		<tag k="ssr:stedsnr" v="39565" />
	</node>
	<node id="-123260" lat="61.5346250042" lon="10.0099638808">
		<tag k="name" v="Nordre Hegge" />
		<tag k="place" v="farm" />
		<tag k="ssr:stedsnr" v="39561" />
	</node>
	<node id="-123254" lat="61.5357638874" lon="9.96556110832">
		<tag k="fixme" v="consider place=hamlet" />
		<tag k="name" v="Nørdre Lia" />
		<tag k="place" v="village" />
		<tag k="ssr:stedsnr" v="10913" />
	</node>
	<node id="-123253" lat="61.536400003" lon="9.85395556001">
		<tag k="alt_name" v="Gammelsætrin" />
		<tag k="historic" v="shieling" />
		<tag k="name" v="Gamalsætra" />
		<tag k="place" v="locality" />
		<tag k="ssr:stedsnr" v="10909" />
	</node>
	<node id="-123252" lat="61.5496805564" lon="9.95949444665">
		<tag k="alt_name" v="Hove" />
		<tag k="name" v="Nedre Hove" />
		<tag k="place" v="farm" />
		<tag k="ssr:stedsnr" v="10904" />
	</node>
	<node id="-123251" lat="61.5455472234" lon="9.81597221301">
		<tag k="historic" v="shieling" />
		<tag k="name" v="Trelleborg" />
		<tag k="place" v="locality" />
		<tag k="ssr:stedsnr" v="10899" />
	</node>
	<node id="-123250" lat="61.5603992554" lon="9.90385715397">
		<tag k="fixme" v="consider place=hamlet" />
		<tag k="name" v="Haugland" />
		<tag k="place" v="farm" />
		<tag k="ssr:stedsnr" v="10894" />
	</node>
	<node id="-123247" lat="61.551747363" lon="10.007361018">
		<tag k="fixme" v="consider place=hamlet" />
		<tag k="name" v="Steberg" />
		<tag k="place" v="farm" />
		<tag k="ssr:stedsnr" v="10833" />
	</node>
	<node id="-123246" lat="61.5354784122" lon="10.0108640224">
		<tag k="name" v="Hegge" />
		<tag k="place" v="hamlet" />
		<tag k="ssr:stedsnr" v="10830" />
	</node>
	<node id="-123245" lat="61.5399452421" lon="9.99503120005">
		<tag k="fixme" v="consider place=hamlet" />
		<tag k="name" v="Graffer" />
		<tag k="place" v="farm" />
		<tag k="ssr:stedsnr" v="10827" />
	</node>
	<node id="-123244" lat="61.5571055547" lon="9.97133333658">
		<tag k="name" v="Nigard Alme" />
		<tag k="place" v="farm" />
		<tag k="ssr:stedsnr" v="10819" />
	</node>
	<node id="-123243" lat="61.5709333354" lon="9.83900277432">
		<tag k="alt_name" v="Skordal" />
		<tag k="name" v="Nedre Nigard Skurdal" />
		<tag k="place" v="farm" />
		<tag k="ssr:stedsnr" v="10621" />
	</node>
	<node id="-123242" lat="61.6048361077" lon="9.9600416577">
		<tag k="historic" v="shieling" />
		<tag k="name" v="Standarstulen" />
		<tag k="place" v="locality" />
		<tag k="ssr:stedsnr" v="10544" />
	</node>
	<node id="-123241" lat="61.5902361088" lon="9.90261943713">
		<tag k="name" v="Åsen" />
		<tag k="place" v="farm" />
		<tag k="ssr:stedsnr" v="10525" />
	</node>
	<node id="-123240" lat="61.5942499961" lon="9.93507499544">
		<tag k="name" v="Bjørli" />
		<tag k="place" v="farm" />
		<tag k="ssr:stedsnr" v="10522" />
	</node>
	<node id="-123228" lat="61.4610611067" lon="9.458688887">
		<tag k="name" v="Rytvika" />
		<tag k="place" v="isolated_dwelling" />
		<tag k="ssr:stedsnr" v="8415" />
	</node>
	<node id="-123227" lat="61.463102778" lon="9.44777500326">
		<tag k="name" v="Veslevollen" />
		<tag k="place" v="isolated_dwelling" />
		<tag k="ssr:stedsnr" v="8413" />
	</node>
	<node id="-123223" lat="61.4296388851" lon="9.88717222711">
		<tag k="alt_name" v="Kantlia, midtre;Kantlia" />
		<tag k="historic" v="shieling" />
		<tag k="name" v="Midtre Kantlia" />
		<tag k="place" v="locality" />
		<tag k="ssr:stedsnr" v="8357" />
	</node>
	<node id="-123216" lat="61.4968277758" lon="9.9559527752">
		<tag k="alt_name" v="Helgåsbakken" />
		<tag k="historic" v="shieling" />
		<tag k="name" v="Helgåsbakksætra" />
		<tag k="place" v="locality" />
		<tag k="ssr:stedsnr" v="8290" />
	</node>
	<node id="-123204" lat="61.5489155034" lon="9.96314016619">
		<tag k="fixme" v="consider place=hamlet" />
		<tag k="name" v="Hundorp" />
		<tag k="place" v="farm" />
		<tag k="ssr:stedsnr" v="985465" />
	</node>
	<node id="-123203" lat="61.537617942" lon="9.82653864907">
		<tag k="historic" v="shieling" />
		<tag k="name" v="Baukålsstulen" />
		<tag k="place" v="locality" />
		<tag k="ssr:stedsnr" v="985491" />
	</node>
	<node id="-123202" lat="61.5686279438" lon="9.82818246062">
		<tag k="fixme" v="consider place=hamlet" />
		<tag k="name" v="Monshaugen" />
		<tag k="place" v="farm" />
		<tag k="ssr:stedsnr" v="985490" />
	</node>
	<node id="-123201" lat="61.5740603054" lon="9.85277264972">
		<tag k="fixme" v="consider place=hamlet" />
		<tag k="name" v="Brua" />
		<tag k="place" v="farm" />
		<tag k="ssr:stedsnr" v="985485" />
	</node>
	<node id="-123200" lat="61.558731002" lon="9.92087707932">
		<tag k="fixme" v="multiple name tags, choose one and add the other to alt_name" />
		<tag k="name" v="Fevollen;Klinkenberg" />
		<tag k="place" v="locality" />
		<tag k="ssr:stedsnr" v="985477" />
	</node>
	<node id="-123199" lat="61.5321169094" lon="9.95815512415">
		<tag k="name" v="Rudi" />
		<tag k="place" v="hamlet" />
		<tag k="ssr:stedsnr" v="985476" />
	</node>
	<node id="-123198" lat="61.521009349" lon="9.97614381774">
		<tag k="name" v="Dalen" />
		<tag k="place" v="locality" />
		<tag k="ssr:stedsnr" v="985469" />
	</node>
	<node id="-123197" lat="61.5231760577" lon="9.98055689225">
		<tag k="name" v="Bakken" />
		<tag k="place" v="locality" />
		<tag k="ssr:stedsnr" v="985468" />
	</node>
	<node id="-123196" lat="61.5276962592" lon="9.98407161185">
		<tag k="name" v="Bue" />
		<tag k="place" v="hamlet" />
		<tag k="ssr:stedsnr" v="985467" />
	</node>
	<node id="-123195" lat="61.5377138455" lon="10.0020007591">
		<tag k="fixme" v="consider place=hamlet" />
		<tag k="name" v="Olstad" />
		<tag k="place" v="farm" />
		<tag k="ssr:stedsnr" v="985466" />
	</node>
	<node id="-123194" lat="61.5487945927" lon="9.95888109795">
		<tag k="fixme" v="consider place=hamlet" />
		<tag k="name" v="Hove" />
		<tag k="place" v="farm" />
		<tag k="ssr:stedsnr" v="985464" />
	</node>
	<node id="-123193" lat="61.5532297697" lon="9.96672389594">
		<tag k="fixme" v="consider place=hamlet" />
		<tag k="name" v="Berge" />
		<tag k="place" v="farm" />
		<tag k="ssr:stedsnr" v="985463" />
	</node>
	<node id="-123192" lat="61.5637363493" lon="9.93725258483">
		<tag k="name" v="Listad" />
		<tag k="place" v="hamlet" />
		<tag k="ssr:stedsnr" v="985461" />
	</node>
	<node id="-123191" lat="61.5778604327" lon="9.88736214539">
		<tag k="name" v="Kjorstad" />
		<tag k="place" v="hamlet" />
		<tag k="ssr:stedsnr" v="985460" />
	</node>
	<node id="-123190" lat="61.5724879662" lon="9.90036894714">
		<tag k="name" v="Rolstad" />
		<tag k="place" v="hamlet" />
		<tag k="ssr:stedsnr" v="985459" />
	</node>
	<node id="-123189" lat="61.5811953323" lon="9.90265197951">
		<tag k="name" v="Tåkåstad" />
		<tag k="place" v="hamlet" />
		<tag k="ssr:stedsnr" v="985458" />
	</node>
	<node id="-123188" lat="61.5756692729" lon="9.9092530829">
		<tag k="fixme" v="consider place=hamlet" />
		<tag k="name" v="Rudi" />
		<tag k="place" v="farm" />
		<tag k="ssr:stedsnr" v="985457" />
	</node>
	<node id="-123187" lat="61.5802657938" lon="9.92405012921">
		<tag k="name" v="Dalsegg" />
		<tag k="place" v="hamlet" />
		<tag k="ssr:stedsnr" v="985421" />
	</node>
	<node id="-123186" lat="61.5763671065" lon="9.93598560502">
		<tag k="name" v="Korstad" />
		<tag k="place" v="hamlet" />
		<tag k="ssr:stedsnr" v="985420" />
	</node>
	<node id="-123185" lat="61.5654510786" lon="9.9562237549">
		<tag k="name" v="Bjørke" />
		<tag k="place" v="hamlet" />
		<tag k="ssr:stedsnr" v="985419" />
	</node>
	<node id="-123184" lat="61.5613171229" lon="9.95938928058">
		<tag k="name" v="Seggelstad" />
		<tag k="place" v="hamlet" />
		<tag k="ssr:stedsnr" v="985417" />
	</node>
	<node id="-123183" lat="61.5565226788" lon="9.96948160321">
		<tag k="name" v="Alme" />
		<tag k="place" v="hamlet" />
		<tag k="ssr:stedsnr" v="985377" />
	</node>
	<node id="-123182" lat="61.5497673802" lon="10.030039851">
		<tag k="name" v="Forr" />
		<tag k="place" v="hamlet" />
		<tag k="ssr:stedsnr" v="985376" />
	</node>
	<node id="-123181" lat="61.565051938" lon="9.83990222898">
		<tag k="name" v="Skordal" />
		<tag k="place" v="hamlet" />
		<tag k="ssr:stedsnr" v="985063" />
	</node>
	<node id="-123176" lat="61.5365562552" lon="10.0536181415">
		<tag k="name" v="Stromlia" />
		<tag k="place" v="locality" />
		<tag k="ssr:stedsnr" v="888608" />
	</node>
	<node id="-123175" lat="61.5334555559" lon="10.0287694367">
		<tag k="name" v="Nymoen" />
		<tag k="place" v="isolated_dwelling" />
		<tag k="ssr:stedsnr" v="888606" />
	</node>
	<node id="-123171" lat="61.5736194436" lon="9.88662499941">
		<tag k="alt_name" v="Grytting nordre;Gryting nordre" />
		<tag k="name" v="Nordgard Grytting" />
		<tag k="place" v="farm" />
		<tag k="ssr:stedsnr" v="477899" />
	</node>
	<node id="-123163" lat="61.4257055591" lon="9.50823056">
		<tag k="name" v="Gråndalen" />
		<tag k="place" v="locality" />
		<tag k="ssr:stedsnr" v="477647" />
	</node>
	<node id="-123158" lat="61.5477722224" lon="9.95995555656">
		<tag k="name" v="Gosen" />
		<tag k="place" v="isolated_dwelling" />
		<tag k="ssr:stedsnr" v="477621" />
	</node>
	<node id="-123157" lat="61.5083305575" lon="9.78416388685">
		<tag k="name" v="Gålå Høgfjellshotell" />
		<tag k="old_name" v="Golå Høgfjellshotell" />
		<tag k="ssr:stedsnr" v="477604" />
		<tag k="tourism" v="hotel" />
	</node>
	<node id="-123152" lat="61.7270500032" lon="9.98901388638">
		<tag k="historic" v="shieling" />
		<tag k="name" v="Sygard Dalseggsætra" />
		<tag k="place" v="locality" />
		<tag k="ssr:stedsnr" v="477572" />
	</node>
	<node id="-123149" lat="61.4266777795" lon="9.77222777365">
		<tag k="historic" v="shieling" />
		<tag k="name" v="Holumsætra" />
		<tag k="place" v="locality" />
		<tag k="ssr:stedsnr" v="477523" />
	</node>
	<node id="-123145" lat="61.5765750006" lon="9.95130278271">
		<tag k="name" v="Kinnberget" />
		<tag k="place" v="isolated_dwelling" />
		<tag k="ssr:stedsnr" v="477338" />
	</node>
	<node id="-123144" lat="61.5272523072" lon="10.0004250192">
		<tag k="alt_name" v="Listuen" />
		<tag k="fixme" v="consider place=hamlet" />
		<tag k="name" v="Listugu" />
		<tag k="place" v="farm" />
		<tag k="ssr:stedsnr" v="477336" />
	</node>
	<node id="-123143" lat="61.5776750045" lon="9.94118611325">
		<tag k="name" v="Nedre Korstadhågån" />
		<tag k="place" v="isolated_dwelling" />
		<tag k="ssr:stedsnr" v="477335" />
	</node>
	<node id="-123142" lat="61.5291388849" lon="10.0061055606">
		<tag k="name" v="Skoglykkja" />
		<tag k="place" v="farm" />
		<tag k="ssr:stedsnr" v="477334" />
	</node>
	<node id="-123141" lat="61.5755249958" lon="9.94668055319">
		<tag k="name" v="Holdbrekka" />
		<tag k="place" v="farm" />
		<tag k="ssr:stedsnr" v="477333" />
	</node>
	<node id="-123140" lat="61.5277027818" lon="10.0076777829">
		<tag k="name" v="Korgelykkja" />
		<tag k="place" v="isolated_dwelling" />
		<tag k="ssr:stedsnr" v="477327" />
	</node>
	<node id="-123139" lat="61.5576027778" lon="10.0093611153">
		<tag k="name" v="Fjellstad" />
		<tag k="place" v="isolated_dwelling" />
		<tag k="ssr:stedsnr" v="477994" />
	</node>
	<node id="-123133" lat="61.5357861122" lon="9.97874721429">
		<tag k="name" v="Kleiva" />
		<tag k="place" v="isolated_dwelling" />
		<tag k="ssr:stedsnr" v="477207" />
	</node>
	<node id="-123132" lat="61.5447249972" lon="9.99551665758">
		<tag k="name" v="Hundorpvollen" />
		<tag k="place" v="farm" />
		<tag k="ssr:stedsnr" v="477198" />
	</node>
	<node id="-123131" lat="61.5398583291" lon="9.97814445221">
		<tag k="name" v="Moen" />
		<tag k="place" v="farm" />
		<tag k="ssr:stedsnr" v="477197" />
	</node>
	<node id="-123129" lat="61.558005559" lon="9.8768472287">
		<tag k="name" v="Opphaug" />
		<tag k="place" v="isolated_dwelling" />
		<tag k="ssr:stedsnr" v="477190" />
	</node>
	<node id="-123127" lat="61.5591472258" lon="9.88880277759">
		<tag k="name" v="Grind" />
		<tag k="place" v="farm" />
		<tag k="ssr:stedsnr" v="477183" />
	</node>
	<node id="-123126" lat="61.5598749959" lon="9.88458611278">
		<tag k="name" v="Midtlia" />
		<tag k="place" v="farm" />
		<tag k="ssr:stedsnr" v="477179" />
	</node>
	<node id="-123123" lat="61.5684666667" lon="9.83378610913">
		<tag k="fixme" v="consider place=hamlet" />
		<tag k="name" v="Maurhaugen" />
		<tag k="place" v="farm" />
		<tag k="ssr:stedsnr" v="477118" />
	</node>
	<node id="-123121" lat="61.5626111086" lon="9.85956111375">
		<tag k="name" v="Søreng" />
		<tag k="place" v="farm" />
		<tag k="ssr:stedsnr" v="477104" />
	</node>
	<node id="-123120" lat="61.5750527759" lon="9.86486944808">
		<tag k="name" v="Grøntuva pensjonat" />
		<tag k="ssr:stedsnr" v="477088" />
		<tag k="tourism" v="hotel" />
	</node>
	<node id="-123115" lat="61.5247472183" lon="9.94165000871">
		<tag k="name" v="Vesl-lykkja" />
		<tag k="place" v="locality" />
		<tag k="ssr:stedsnr" v="477021" />
	</node>
	<node id="-123114" lat="61.5228805561" lon="9.96389166489">
		<tag k="name" v="Smiuhaugen" />
		<tag k="place" v="isolated_dwelling" />
		<tag k="ssr:stedsnr" v="477002" />
	</node>
	<node id="-123111" lat="61.5701944453" lon="9.81675833301">
		<tag k="name" v="Brennhaugen" />
		<tag k="place" v="farm" />
		<tag k="ssr:stedsnr" v="476941" />
	</node>
	<node id="-123110" lat="61.5654126068" lon="9.83462713774">
		<tag k="fixme" v="consider place=hamlet" />
		<tag k="name" v="Holom" />
		<tag k="place" v="farm" />
		<tag k="ssr:stedsnr" v="476935" />
	</node>
	<node id="-123109" lat="61.5644972237" lon="9.818186114">
		<tag k="name" v="Svensenlykkja" />
		<tag k="place" v="isolated_dwelling" />
		<tag k="ssr:stedsnr" v="476927" />
	</node>
	<node id="-123103" lat="61.541158333" lon="9.92422221355">
		<tag k="amenity" v="school" />
		<tag k="name" v="Muriteigskulen" />
		<tag k="ssr:stedsnr" v="477256" />
	</node>
	<node id="-123099" lat="61.5378083306" lon="10.0166972151">
		<tag k="name" v="Nedre Hegge" />
		<tag k="place" v="isolated_dwelling" />
		<tag k="ssr:stedsnr" v="403614" />
	</node>
	<node id="-123096" lat="61.5008749957" lon="9.8609500053">
		<tag k="historic" v="shieling" />
		<tag k="name" v="Isumsætra" />
		<tag k="place" v="locality" />
		<tag k="ssr:stedsnr" v="374948" />
	</node>
	<node id="-123095" lat="61.5133999964" lon="9.86307500374">
		<tag k="historic" v="shieling" />
		<tag k="name" v="Ekkerhaugsætra" />
		<tag k="place" v="locality" />
		<tag k="ssr:stedsnr" v="374949" />
	</node>
	<node id="-123094" lat="61.5206429729" lon="9.96379411935">
		<tag k="name" v="Tofte" />
		<tag k="place" v="hamlet" />
		<tag k="ssr:stedsnr" v="374941" />
	</node>
	<node id="-123093" lat="61.528475004" lon="9.95707500126">
		<tag k="name" v="Morka" />
		<tag k="place" v="farm" />
		<tag k="ssr:stedsnr" v="374915" />
	</node>
	<node id="-123091" lat="61.533644808" lon="10.0356212528">
		<tag k="alt_name" v="Sønstelia" />
		<tag k="name" v="Sønsteli" />
		<tag k="place" v="farm" />
		<tag k="ssr:stedsnr" v="374870" />
	</node>
	<node id="-123090" lat="61.5576750005" lon="10.0129527721">
		<tag k="name" v="Stakkston" />
		<tag k="place" v="farm" />
		<tag k="ssr:stedsnr" v="374827" />
	</node>
	<node id="-123089" lat="61.5589166699" lon="9.98468610975">
		<tag k="name" v="Kleppen" />
		<tag k="place" v="farm" />
		<tag k="ssr:stedsnr" v="374825" />
	</node>
	<node id="-123088" lat="61.5771666642" lon="10.0354361112">
		<tag k="name" v="Ommundlia" />
		<tag k="place" v="farm" />
		<tag k="ssr:stedsnr" v="374799" />
	</node>
	<node id="-123086" lat="61.5749805583" lon="9.9161611054">
		<tag k="name" v="Rostad" />
		<tag k="place" v="farm" />
		<tag k="ssr:stedsnr" v="374602" />
	</node>
	<node id="-123085" lat="61.5614349872" lon="9.87173195478">
		<tag k="fixme" v="consider place=hamlet" />
		<tag k="name" v="Rønn" />
		<tag k="place" v="farm" />
		<tag k="ssr:stedsnr" v="374586" />
	</node>
	<node id="-123084" lat="61.5704666628" lon="9.89128611907">
		<tag k="alt_name" v="Hammarstad;Hammerstad" />
		<tag k="name" v="Håmårstad" />
		<tag k="place" v="farm" />
		<tag k="ssr:stedsnr" v="374585" />
	</node>
	<node id="-123083" lat="61.5688083795" lon="9.94028532902">
		<tag k="name" v="Melgard" />
		<tag k="place" v="hamlet" />
		<tag k="ssr:stedsnr" v="374582" />
	</node>
	<node id="-123082" lat="61.5688055573" lon="9.96160000408">
		<tag k="name" v="Haugsjordet" />
		<tag k="place" v="farm" />
		<tag k="ssr:stedsnr" v="374573" />
	</node>
	<node id="-123081" lat="61.5956166654" lon="9.9387388934">
		<tag k="name" v="Breistad" />
		<tag k="place" v="farm" />
		<tag k="ssr:stedsnr" v="374515" />
	</node>
	<node id="-123080" lat="61.544927554" lon="9.91740689093">
		<tag k="fixme" v="consider place=hamlet" />
		<tag k="name" v="Sveipe" />
		<tag k="place" v="farm" />
		<tag k="ssr:stedsnr" v="373903" />
	</node>
	<node id="-123075" lat="61.4567749998" lon="9.48721389282">
		<tag k="name" v="Kopparslåa" />
		<tag k="place" v="isolated_dwelling" />
		<tag k="ssr:stedsnr" v="372409" />
	</node>
	<node id="-123066" lat="61.4840807195" lon="9.94428371083">
		<tag k="alt_name" v="Heggesætrin" />
		<tag k="historic" v="shieling" />
		<tag k="name" v="Heggesætra" />
		<tag k="place" v="locality" />
		<tag k="ssr:stedsnr" v="372323" />
	</node>
	<node id="-123062" lat="61.4087777766" lon="9.94247499263">
		<tag k="historic" v="shieling" />
		<tag k="name" v="Svellesætra" />
		<tag k="place" v="locality" />
		<tag k="ssr:stedsnr" v="371346" />
	</node>
	<node id="-123058" lat="61.5579138888" lon="10.0136638884">
		<tag k="name" v="Fremre Stakston" />
		<tag k="place" v="farm" />
		<tag k="ssr:stedsnr" v="355986" />
	</node>
	<node id="-123057" lat="61.5588416687" lon="9.80610278655">
		<tag k="name" v="Vestre Baukhol" />
		<tag k="place" v="farm" />
		<tag k="ssr:stedsnr" v="355966" />
	</node>
	<node id="-123053" lat="61.5709527762" lon="9.81461110458">
		<tag k="name" v="Brenndalen" />
		<tag k="place" v="farm" />
		<tag k="ssr:stedsnr" v="355928" />
	</node>
	<node id="-123052" lat="61.5631111155" lon="9.83971389315">
		<tag k="name" v="Søre Uppigard Skurdal" />
		<tag k="place" v="farm" />
		<tag k="ssr:stedsnr" v="355919" />
	</node>
	<node id="-123049" lat="61.5627777778" lon="9.93962222451">
		<tag k="name" v="Nedre Listad" />
		<tag k="place" v="farm" />
		<tag k="ssr:stedsnr" v="355822" />
	</node>
	<node id="-123044" lat="61.5585833322" lon="9.99265278472">
		<tag k="name" v="Bergset" />
		<tag k="place" v="farm" />
		<tag k="ssr:stedsnr" v="355771" />
	</node>
	<node id="-123042" lat="61.5468027808" lon="9.96319444056">
		<tag k="name" v="Nedre Hundorp" />
		<tag k="place" v="farm" />
		<tag k="ssr:stedsnr" v="355569" />
	</node>
	<node id="-123041" lat="61.5471527808" lon="9.96341111961">
		<tag k="building" v="commercial" />
		<tag k="name" v="Hundorp Landhandleri" />
		<tag k="ssr:stedsnr" v="355568" />
	</node>
	<node id="-123040" lat="61.546655556" lon="9.96430834171">
		<tag k="name" v="Sundstugu" />
		<tag k="place" v="isolated_dwelling" />
		<tag k="ssr:stedsnr" v="355566" />
	</node>
	<node id="-123038" lat="61.5505638895" lon="9.9475277728">
		<tag k="name" v="Bjørklund" />
		<tag k="place" v="isolated_dwelling" />
		<tag k="ssr:stedsnr" v="355543" />
	</node>
	<node id="-123032" lat="61.7297194469" lon="9.98635832489">
		<tag k="name" v="Søre Eldåa" />
		<tag k="place" v="locality" />
		<tag k="ssr:stedsnr" v="355513" />
	</node>
	<node id="-123026" lat="61.5358805523" lon="9.95855556035">
		<tag k="name" v="Skarstadhaugen" />
		<tag k="place" v="locality" />
		<tag k="ssr:stedsnr" v="355252" />
	</node>
	<node id="-123025" lat="61.5320833296" lon="9.95174999942">
		<tag k="name" v="Haugli" />
		<tag k="place" v="farm" />
		<tag k="ssr:stedsnr" v="355251" />
	</node>
	<node id="-123023" lat="61.5338361128" lon="9.9862777844">
		<tag k="name" v="Soer" />
		<tag k="place" v="isolated_dwelling" />
		<tag k="ssr:stedsnr" v="355212" />
	</node>
	<node id="-123022" lat="61.5329166663" lon="9.98381667239">
		<tag k="name" v="Klufta" />
		<tag k="place" v="isolated_dwelling" />
		<tag k="ssr:stedsnr" v="355213" />
	</node>
	<node id="-123019" lat="61.5790055541" lon="9.90643610839">
		<tag k="name" v="Sygard Tåkåstad" />
		<tag k="place" v="farm" />
		<tag k="ssr:stedsnr" v="355177" />
	</node>
	<node id="-123010" lat="61.5279416694" lon="9.97361666381">
		<tag k="name" v="Målarbakken" />
		<tag k="place" v="farm" />
		<tag k="ssr:stedsnr" v="355057" />
	</node>
	<node id="-123009" lat="61.5306083346" lon="9.96063888495">
		<tag k="name" v="Rudilykkja" />
		<tag k="place" v="isolated_dwelling" />
		<tag k="ssr:stedsnr" v="355048" />
	</node>
	<node id="-123008" lat="61.5302111074" lon="9.95698334257">
		<tag k="name" v="Rudihågan" />
		<tag k="place" v="farm" />
		<tag k="ssr:stedsnr" v="355043" />
	</node>
	<node id="-123007" lat="61.526369445" lon="9.99152777703">
		<tag k="name" v="Erlandsrudlykkja" />
		<tag k="place" v="farm" />
		<tag k="ssr:stedsnr" v="355004" />
	</node>
	<node id="-123006" lat="61.5255166655" lon="9.98474444871">
		<tag k="name" v="Buhågen" />
		<tag k="place" v="isolated_dwelling" />
		<tag k="ssr:stedsnr" v="355003" />
	</node>
	<node id="-122999" lat="61.6385416659" lon="9.96870000755">
		<tag k="alt_name" v="Melgardsfrydalen" />
		<tag k="historic" v="shieling" />
		<tag k="name" v="Frydalen" />
		<tag k="place" v="locality" />
		<tag k="ssr:stedsnr" v="313995" />
	</node>
	<node id="-122998" lat="61.5209916646" lon="10.0396472302">
		<tag k="historic" v="shieling" />
		<tag k="name" v="Stulen" />
		<tag k="place" v="locality" />
		<tag k="ssr:stedsnr" v="313871" />
	</node>
	<node id="-122997" lat="61.5334337969" lon="9.98042566403">
		<tag k="fixme" v="consider place=hamlet" />
		<tag k="name" v="Svelle" />
		<tag k="place" v="farm" />
		<tag k="ssr:stedsnr" v="313851" />
	</node>
	<node id="-122996" lat="61.5329555531" lon="9.99104999443">
		<tag k="name" v="Lostad" />
		<tag k="place" v="farm" />
		<tag k="ssr:stedsnr" v="313849" />
	</node>
	<node id="-122995" lat="61.5486916676" lon="10.0450472311">
		<tag k="fixme" v="consider place=hamlet" />
		<tag k="name" v="Frya" />
		<tag k="place" v="village" />
		<tag k="ssr:stedsnr" v="313843" />
	</node>
	<node id="-122994" lat="61.5801805527" lon="9.92139165815">
		<tag k="alt_name" v="Dalsegg" />
		<tag k="name" v="Nordre Dalsegg" />
		<tag k="place" v="farm" />
		<tag k="ssr:stedsnr" v="313828" />
	</node>
	<node id="-122992" lat="61.8878777749" lon="10.0970166597">
		<tag k="name" v="Rondesjå" />
		<tag k="place" v="isolated_dwelling" />
		<tag k="ssr:stedsnr" v="313565" />
	</node>
	<node id="-122991" lat="61.5741500029" lon="9.82855556395">
		<tag k="name" v="Bjørkly" />
		<tag k="place" v="farm" />
		<tag k="ssr:stedsnr" v="313562" />
	</node>
	<node id="-122990" lat="61.5983249992" lon="9.85937223111">
		<tag k="name" v="Skardsætra" />
		<tag k="place" v="isolated_dwelling" />
		<tag k="ssr:stedsnr" v="313531" />
	</node>
	<node id="-122989" lat="61.5926999997" lon="9.94095000837">
		<tag k="name" v="Bergli" />
		<tag k="place" v="farm" />
		<tag k="ssr:stedsnr" v="313527" />
	</node>
	<node id="-122986" lat="61.4404750014" lon="9.42104167556">
		<tag k="historic" v="shieling" />
		<tag k="name" v="Fredriksætra" />
		<tag k="place" v="locality" />
		<tag k="ssr:stedsnr" v="312432" />
	</node>
	<node id="-122982" lat="61.4734500013" lon="9.45826944942">
		<tag k="historic" v="shieling" />
		<tag k="name" v="Øvre Dalssætra" />
		<tag k="place" v="locality" />
		<tag k="ssr:stedsnr" v="312381" />
	</node>
	<node id="-122981" lat="61.4714083357" lon="9.4180861091">
		<tag k="name" v="Hamrom" />
		<tag k="place" v="locality" />
		<tag k="ssr:stedsnr" v="312376" />
	</node>
	<node id="-122976" lat="61.4166929062" lon="9.54276247387">
		<tag k="fixme" v="consider place=hamlet" />
		<tag k="name" v="Langvegg" />
		<tag k="place" v="farm" />
		<tag k="ssr:stedsnr" v="311458" />
	</node>
	<node id="-122971" lat="61.5026972247" lon="9.91692222784">
		<tag k="alt_name" v="Hovdlisætrin" />
		<tag k="historic" v="shieling" />
		<tag k="name" v="Hovdlisætra" />
		<tag k="place" v="locality" />
		<tag k="ssr:stedsnr" v="313953" />
	</node>
	<node id="-122968" lat="61.5527331532" lon="9.9036004652">
		<tag k="fixme" v="consider place=hamlet" />
		<tag k="name" v="Ulberg" />
		<tag k="place" v="farm" />
		<tag k="ssr:stedsnr" v="313914" />
	</node>
	<node id="-122967" lat="61.4000416677" lon="9.45255000356">
		<tag k="name" v="Agnsjøbua" />
		<tag k="place" v="isolated_dwelling" />
		<tag k="ssr:stedsnr" v="302429" />
	</node>
	<node id="-122964" lat="61.5695861154" lon="9.81971388574">
		<tag k="name" v="Dokka" />
		<tag k="place" v="farm" />
		<tag k="ssr:stedsnr" v="295941" />
	</node>
	<node id="-122963" lat="61.5696694438" lon="9.96009444947">
		<tag k="name" v="Solbakken" />
		<tag k="place" v="farm" />
		<tag k="ssr:stedsnr" v="295852" />
	</node>
	<node id="-122962" lat="61.5599333349" lon="9.98164999236">
		<tag k="name" v="Nordre Kleppen" />
		<tag k="place" v="farm" />
		<tag k="ssr:stedsnr" v="295822" />
	</node>
	<node id="-122961" lat="61.4126416659" lon="9.73160555175">
		<tag k="building" v="industrial" />
		<tag k="name" v="Gammelsaga" />
		<tag k="ssr:stedsnr" v="295813" />
	</node>
	<node id="-122957" lat="61.5516333345" lon="9.96033055578">
		<tag k="name" v="Hovevangen" />
		<tag k="place" v="isolated_dwelling" />
		<tag k="ssr:stedsnr" v="295626" />
	</node>
	<node id="-122955" lat="61.5491083299" lon="9.94568334245">
		<tag k="name" v="Nedre Stensberg" />
		<tag k="place" v="farm" />
		<tag k="ssr:stedsnr" v="295600" />
	</node>
	<node id="-122953" lat="61.4148164568" lon="9.52776164627">
		<tag k="historic" v="shieling" />
		<tag k="name" v="Gravskarlia" />
		<tag k="place" v="locality" />
		<tag k="ssr:stedsnr" v="295572" />
	</node>
	<node id="-122947" lat="61.4549055552" lon="9.86754723154">
		<tag k="name" v="Lauvåsen Fjellstue" />
		<tag k="ssr:stedsnr" v="295467" />
		<tag k="tourism" v="hotel" />
	</node>
	<node id="-122944" lat="61.611083336" lon="9.96838610339">
		<tag k="historic" v="shieling" />
		<tag k="name" v="Almehågåsætra" />
		<tag k="place" v="locality" />
		<tag k="ssr:stedsnr" v="295327" />
	</node>
	<node id="-122942" lat="61.5771861151" lon="9.94211945241">
		<tag k="name" v="Midtre Korstadhågån" />
		<tag k="place" v="farm" />
		<tag k="ssr:stedsnr" v="295318" />
	</node>
	<node id="-122941" lat="61.5783083309" lon="9.94081111641">
		<tag k="name" v="Øvre Korstadhågån" />
		<tag k="place" v="farm" />
		<tag k="ssr:stedsnr" v="295316" />
	</node>
	<node id="-122940" lat="61.5514805524" lon="9.933700009">
		<tag k="name" v="Nedre Prestmoen" />
		<tag k="place" v="farm" />
		<tag k="ssr:stedsnr" v="295262" />
	</node>
	<node id="-122939" lat="61.5371305599" lon="9.96540554795">
		<tag k="name" v="Ekkerhaugen" />
		<tag k="place" v="locality" />
		<tag k="ssr:stedsnr" v="295250" />
	</node>
	<node id="-122938" lat="61.5416777746" lon="9.97926388441">
		<tag k="name" v="Nervoll" />
		<tag k="place" v="farm" />
		<tag k="ssr:stedsnr" v="295206" />
	</node>
	<node id="-122936" lat="61.564947218" lon="9.92216111405">
		<tag k="name" v="Nedre Jota" />
		<tag k="place" v="isolated_dwelling" />
		<tag k="ssr:stedsnr" v="295171" />
	</node>
	<node id="-122934" lat="61.5668138876" lon="9.92367499893">
		<tag k="name" v="Dalbjønnhus" />
		<tag k="place" v="locality" />
		<tag k="ssr:stedsnr" v="295169" />
	</node>
	<node id="-122933" lat="61.5642249975" lon="9.93096666524">
		<tag k="name" v="Listadhaugen" />
		<tag k="place" v="isolated_dwelling" />
		<tag k="ssr:stedsnr" v="295168" />
	</node>
	<node id="-122932" lat="61.4936888901" lon="9.75416945222">
		<tag k="historic" v="shieling" />
		<tag k="name" v="Nedre Rudisætra" />
		<tag k="place" v="locality" />
		<tag k="ssr:stedsnr" v="295145" />
	</node>
	<node id="-122931" lat="61.5859361122" lon="9.88876110907">
		<tag k="name" v="Lundstad" />
		<tag k="place" v="isolated_dwelling" />
		<tag k="ssr:stedsnr" v="295143" />
	</node>
	<node id="-122930" lat="61.5600611128" lon="9.85368611649">
		<tag k="name" v="Sulengshaugen" />
		<tag k="place" v="isolated_dwelling" />
		<tag k="ssr:stedsnr" v="295126" />
	</node>
	<node id="-122928" lat="61.5666972261" lon="9.82815277509">
		<tag k="name" v="Øvre Krokom" />
		<tag k="place" v="locality" />
		<tag k="ssr:stedsnr" v="295114" />
	</node>
	<node id="-122927" lat="61.5709836275" lon="9.86048779473">
		<tag k="alt_name" v="Stranda" />
		<tag k="name" v="Klokkarstranda" />
		<tag k="place" v="locality" />
		<tag k="ssr:stedsnr" v="295108" />
	</node>
	<node id="-122926" lat="61.5579305577" lon="9.86452776875">
		<tag k="name" v="Morka" />
		<tag k="place" v="locality" />
		<tag k="ssr:stedsnr" v="295099" />
	</node>
	<node id="-122925" lat="61.5601944473" lon="9.86785277379">
		<tag k="name" v="Håmmåren" />
		<tag k="place" v="farm" />
		<tag k="ssr:stedsnr" v="295094" />
	</node>
	<node id="-122924" lat="61.576738889" lon="9.85585555028">
		<tag k="name" v="Skogly" />
		<tag k="place" v="isolated_dwelling" />
		<tag k="ssr:stedsnr" v="295091" />
	</node>
	<node id="-122923" lat="61.5680611134" lon="9.85722777807">
		<tag k="name" v="Solhaug" />
		<tag k="place" v="farm" />
		<tag k="ssr:stedsnr" v="295083" />
	</node>
	<node id="-122921" lat="61.497483336" lon="9.97853611556">
		<tag k="historic" v="shieling" />
		<tag k="name" v="Elselarssætra" />
		<tag k="place" v="locality" />
		<tag k="ssr:stedsnr" v="295068" />
	</node>
	<node id="-122920" lat="61.5280055574" lon="9.96547778454">
		<tag k="name" v="Fauskehågån" />
		<tag k="place" v="farm" />
		<tag k="ssr:stedsnr" v="295062" />
	</node>
	<node id="-122918" lat="61.6238426436" lon="9.95525747878">
		<tag k="alt_name" v="Holsæter" />
		<tag k="historic" v="shieling" />
		<tag k="name" v="Holsætra" />
		<tag k="place" v="locality" />
		<tag k="ssr:stedsnr" v="295404" />
	</node>
	<node id="-122917" lat="61.5215361088" lon="9.99056944285">
		<tag k="name" v="Kolobekkhaugen" />
		<tag k="place" v="isolated_dwelling" />
		<tag k="ssr:stedsnr" v="295001" />
	</node>
	<node id="-122916" lat="61.5735833314" lon="9.81342222886">
		<tag k="name" v="Granrud" />
		<tag k="place" v="isolated_dwelling" />
		<tag k="ssr:stedsnr" v="294980" />
	</node>
	<node id="-122915" lat="61.5726722187" lon="9.81006111149">
		<tag k="name" v="Rannstad" />
		<tag k="place" v="farm" />
		<tag k="ssr:stedsnr" v="294978" />
	</node>
	<node id="-122913" lat="61.5562111116" lon="9.8110888903">
		<tag k="name" v="Søre Baukhol" />
		<tag k="place" v="farm" />
		<tag k="ssr:stedsnr" v="294972" />
	</node>
	<node id="-122911" lat="61.5152527751" lon="9.95723889438">
		<tag k="name" v="Hovdlistugu" />
		<tag k="place" v="locality" />
		<tag k="ssr:stedsnr" v="295033" />
	</node>
	<node id="-122906" lat="61.5509194427" lon="10.0428833359">
		<tag k="name" v="Øvre Midtlykkja" />
		<tag k="place" v="isolated_dwelling" />
		<tag k="ssr:stedsnr" v="282620" />
	</node>
	<node id="-122903" lat="61.533658332" lon="10.0243472236">
		<tag k="name" v="Elvrom" />
		<tag k="place" v="isolated_dwelling" />
		<tag k="ssr:stedsnr" v="282611" />
	</node>
	<node id="-122902" lat="61.5371055525" lon="10.0003555507">
		<tag k="name" v="Nordre Olstad" />
		<tag k="place" v="farm" />
		<tag k="ssr:stedsnr" v="282608" />
	</node>
	<node id="-122901" lat="61.5508833291" lon="10.0803333327">
		<tag k="name" v="Hagestugua" />
		<tag k="place" v="farm" />
		<tag k="ssr:stedsnr" v="282604" />
	</node>
</osm>
