<?xml version="1.0" encoding="UTF-8"?>
<osm generator="osmapis" version="0.6">
	<node id="-124288" lat="61.8658972231" lon="10.0373249979">
		<tag k="name" v="Vulufjell statsalmenning" />
		<tag k="place" v="locality" />
		<tag k="ssr:stedsnr" v="717324" />
	</node>
	<node id="-124057" lat="61.5593444443" lon="9.92166667039">
		<tag k="fixme" v="specify shooting=range, clay_pigeon etc" />
		<tag k="leisure" v="pitch" />
		<tag k="name" v="Klinkenberg" />
		<tag k="sport" v="shooting" />
		<tag k="ssr:stedsnr" v="598165" />
	</node>
	<node id="-123921" lat="61.8866750017" lon="10.0456444455">
		<tag k="name" v="Sør-Fron Atnedal almenning" />
		<tag k="place" v="locality" />
		<tag k="ssr:stedsnr" v="535330" />
	</node>
	<node id="-124814" lat="61.5879154393" lon="9.8285120527">
		<tag k="fixme" v="multiple name tags, choose one and add the other to alt_name; consider boundary=protected_area and relevant protect_class if not nature reserve" />
		<tag k="leisure" v="nature_reserve" />
		<tag k="name" v="Solbrålia og Stordalsberget naturreservat;Solbrålia naturreservat" />
		<tag k="ssr:stedsnr" v="971439" />
	</node>
	<node id="-124817" lat="61.903404261" lon="10.0926333026">
		<tag k="fixme" v="consider boundary=protected_area and relevant protect_class if not nature reserve" />
		<tag k="leisure" v="nature_reserve" />
		<tag k="name" v="Atnsjømyrene naturreservat" />
		<tag k="ssr:stedsnr" v="976179" />
	</node>
	<node id="-123841" lat="61.5420666696" lon="9.88484722551">
		<tag k="fixme" v="consider boundary=protected_area and relevant protect_class if not nature reserve" />
		<tag k="leisure" v="nature_reserve" />
		<tag k="name" v="Ulbergsåa naturreservat" />
		<tag k="ssr:stedsnr" v="424446" />
	</node>
</osm>
