<?xml version="1.0" encoding="UTF-8"?>
<osm generator="osmapis" version="0.6">
	<node id="-124416" lat="61.4405555521" lon="9.8148416621">
		<tag k="name" v="Breimyrin" />
		<tag k="natural" v="wetland" />
		<tag k="ssr:stedsnr" v="780421" />
	</node>
	<node id="-124415" lat="61.6230472257" lon="9.97145278218">
		<tag k="historic" v="shieling" />
		<tag k="name" v="Øygarden" />
		<tag k="place" v="locality" />
		<tag k="ssr:stedsnr" v="780388" />
	</node>
	<node id="-123562" lat="61.7115722202" lon="9.96136110246">
		<tag k="name" v="Storrandbakkmyra" />
		<tag k="natural" v="wetland" />
		<tag k="ssr:stedsnr" v="173464" />
	</node>
	<node id="-124410" lat="61.5237472185" lon="10.0081444423">
		<tag k="name" v="Merrasteinan" />
		<tag k="natural" v="stone" />
		<tag k="ssr:stedsnr" v="780317" />
	</node>
	<node id="-123893" lat="61.4371249963" lon="9.43295832404">
		<tag k="name" v="Fredriksætermyra" />
		<tag k="natural" v="wetland" />
		<tag k="ssr:stedsnr" v="494404" />
	</node>
	<node id="-123378" lat="61.7548249959" lon="9.9973583403">
		<tag k="alt_name" v="Vesledalslægeret" />
		<tag k="historic" v="shieling" />
		<tag k="name" v="Vesldalslægeret" />
		<tag k="place" v="locality" />
		<tag k="ssr:stedsnr" v="71445" />
	</node>
	<node id="-124399" lat="61.5424749994" lon="9.98261110443">
		<tag k="name" v="Haverstadvollen" />
		<tag k="place" v="locality" />
		<tag k="ssr:stedsnr" v="780196" />
	</node>
	<node id="-123873" lat="61.7254249959" lon="10.0169416681">
		<tag k="name" v="Stormyra" />
		<tag k="natural" v="wetland" />
		<tag k="ssr:stedsnr" v="435976" />
	</node>
	<node id="-123354" lat="61.4066500041" lon="9.47608333827">
		<tag k="name" v="Venlimyrin" />
		<tag k="natural" v="wetland" />
		<tag k="ssr:stedsnr" v="69504" />
	</node>
	<node id="-123555" lat="61.5866416668" lon="9.93856944006">
		<tag k="name" v="Dammensbergmyra" />
		<tag k="natural" v="wetland" />
		<tag k="ssr:stedsnr" v="173303" />
	</node>
	<node id="-123640" lat="61.5449722184" lon="10.0239999957">
		<tag k="name" v="Sygardsøya" />
		<tag k="place" v="locality" />
		<tag k="ssr:stedsnr" v="221601" />
	</node>
	<node id="-124237" lat="61.5733638859" lon="9.95017778581">
		<tag k="name" v="Melgardslykkja" />
		<tag k="place" v="locality" />
		<tag k="ssr:stedsnr" v="659880" />
	</node>
	<node id="-123340" lat="61.5769472258" lon="10.0083916734">
		<tag k="name" v="Beithaugskogen" />
		<tag k="place" v="locality" />
		<tag k="ssr:stedsnr" v="52936" />
	</node>
	<node id="-124362" lat="61.5958249969" lon="9.89722500805">
		<tag k="alt_name" v="Kilmorka" />
		<tag k="name" v="Kilemorka" />
		<tag k="place" v="locality" />
		<tag k="ssr:stedsnr" v="738528" />
	</node>
	<node id="-123331" lat="61.6935777791" lon="9.95645556067">
		<tag k="name" v="Hovdmorka" />
		<tag k="place" v="locality" />
		<tag k="ssr:stedsnr" v="52703" />
	</node>
	<node id="-123329" lat="61.5198833363" lon="9.76634166857">
		<tag k="name" v="Rolstadstrandin" />
		<tag k="place" v="locality" />
		<tag k="ssr:stedsnr" v="52587" />
	</node>
	<node id="-123432" lat="61.4443916669" lon="9.96872221383">
		<tag k="name" v="Gråsteinan" />
		<tag k="natural" v="stone" />
		<tag k="ssr:stedsnr" v="113262" />
	</node>
	<node id="-123320" lat="61.5016972259" lon="9.78017777422">
		<tag k="historic" v="shieling" />
		<tag k="name" v="Gudshaugen" />
		<tag k="place" v="locality" />
		<tag k="ssr:stedsnr" v="52532" />
	</node>
	<node id="-123316" lat="61.4809111108" lon="9.45212499454">
		<tag k="name" v="Sletthamna" />
		<tag k="place" v="locality" />
		<tag k="ssr:stedsnr" v="52494" />
	</node>
	<node id="-123314" lat="61.4091083348" lon="9.76478611561">
		<tag k="name" v="Svanvollen" />
		<tag k="natural" v="wetland" />
		<tag k="ssr:stedsnr" v="52434" />
	</node>
	<node id="-123825" lat="61.5625444477" lon="9.93789722554">
		<tag k="name" v="Ringjarbakken" />
		<tag k="place" v="locality" />
		<tag k="ssr:stedsnr" v="416822" />
	</node>
	<node id="-124336" lat="61.6505055579" lon="9.97282499286">
		<tag k="historic" v="shieling" />
		<tag k="name" v="Jørnstulen" />
		<tag k="place" v="locality" />
		<tag k="ssr:stedsnr" v="720671" />
	</node>
	<node id="-123805" lat="61.5863805519" lon="9.9540916661">
		<tag k="name" v="Raudmyra" />
		<tag k="natural" v="wetland" />
		<tag k="ssr:stedsnr" v="416302" />
	</node>
	<node id="-123122" lat="61.5678583343" lon="9.82603055317">
		<tag k="name" v="Storsteinan" />
		<tag k="natural" v="stone" />
		<tag k="ssr:stedsnr" v="477115" />
	</node>
	<node id="-123306" lat="61.613969447" lon="9.97076667037">
		<tag k="historic" v="shieling" />
		<tag k="name" v="Brekkesætra" />
		<tag k="place" v="locality" />
		<tag k="ssr:stedsnr" v="52297" />
	</node>
	<node id="-123548" lat="61.5198194459" lon="9.9317583395">
		<tag k="name" v="Bergseng" />
		<tag k="place" v="locality" />
		<tag k="ssr:stedsnr" v="173204" />
	</node>
	<node id="-123814" lat="61.4511722219" lon="9.48116944093">
		<tag k="name" v="Brånån" />
		<tag k="place" v="locality" />
		<tag k="ssr:stedsnr" v="416570" />
	</node>
	<node id="-124323" lat="61.6248194402" lon="9.94684166198">
		<tag k="historic" v="shieling" />
		<tag k="name" v="Hovsæter" />
		<tag k="place" v="locality" />
		<tag k="ssr:stedsnr" v="720414" />
	</node>
	<node id="-123297" lat="61.5203527755" lon="9.92806111796">
		<tag k="name" v="Halvorlykkja" />
		<tag k="place" v="locality" />
		<tag k="ssr:stedsnr" v="52205" />
	</node>
	<node id="-124317" lat="61.5433888882" lon="9.9739027805">
		<tag k="name" v="Sundsgården" />
		<tag k="place" v="locality" />
		<tag k="ssr:stedsnr" v="720226" />
	</node>
	<node id="-124315" lat="61.4916972215" lon="9.75286110724">
		<tag k="name" v="Rudilandet" />
		<tag k="place" v="locality" />
		<tag k="ssr:stedsnr" v="720158" />
	</node>
	<node id="-123799" lat="61.5514222246" lon="9.91146665951">
		<tag k="name" v="Brettingsbakken" />
		<tag k="place" v="locality" />
		<tag k="ssr:stedsnr" v="416229" />
	</node>
	<node id="-123286" lat="61.4939472252" lon="9.71037778252">
		<tag k="name" v="Sørpa" />
		<tag k="natural" v="wetland" />
		<tag k="ssr:stedsnr" v="52126" />
	</node>
	<node id="-123459" lat="61.5230194429" lon="9.80888610496">
		<tag k="name" v="Langmyra" />
		<tag k="natural" v="wetland" />
		<tag k="ssr:stedsnr" v="113582" />
	</node>
	<node id="-124303" lat="61.4545638886" lon="9.55940555817">
		<tag k="name" v="Balstarsteinan" />
		<tag k="natural" v="stone" />
		<tag k="ssr:stedsnr" v="719769" />
	</node>
	<node id="-123789" lat="61.5001388861" lon="9.95888610322">
		<tag k="name" v="Kleivlykkja" />
		<tag k="place" v="locality" />
		<tag k="ssr:stedsnr" v="416120" />
	</node>
	<node id="-124299" lat="61.5808694432" lon="9.90757500251">
		<tag k="name" v="Bakstadlykkja" />
		<tag k="place" v="locality" />
		<tag k="ssr:stedsnr" v="719155" />
	</node>
	<node id="-123287" lat="61.5877555554" lon="9.90801388383">
		<tag k="name" v="Bakstadlykkja" />
		<tag k="place" v="locality" />
		<tag k="ssr:stedsnr" v="52127" />
	</node>
	<node id="-123272" lat="61.5133722255" lon="9.95181666573">
		<tag k="name" v="Beitet" />
		<tag k="place" v="locality" />
		<tag k="ssr:stedsnr" v="52019" />
	</node>
	<node id="-124806" lat="61.5701027743" lon="10.0426138939">
		<tag k="name" v="Bergdalshågån" />
		<tag k="place" v="locality" />
		<tag k="ssr:stedsnr" v="962934" />
	</node>
	<node id="-123781" lat="61.5881749985" lon="9.8493611143">
		<tag k="historic" v="shieling" />
		<tag k="name" v="Gjerdumssletta" />
		<tag k="place" v="locality" />
		<tag k="ssr:stedsnr" v="416068" />
	</node>
	<node id="-124292" lat="61.5745500038" lon="9.82666388156">
		<tag k="name" v="Raumyra" />
		<tag k="place" v="locality" />
		<tag k="ssr:stedsnr" v="719086" />
	</node>
	<node id="-124291" lat="61.577247222" lon="9.82760278491">
		<tag k="name" v="Torslykkja" />
		<tag k="place" v="locality" />
		<tag k="ssr:stedsnr" v="719085" />
	</node>
	<node id="-123712" lat="61.5638805552" lon="10.0220888923">
		<tag k="name" v="Båsmyra" />
		<tag k="natural" v="wetland" />
		<tag k="ssr:stedsnr" v="234948" />
	</node>
	<node id="-122943" lat="61.5769777804" lon="9.98043611107">
		<tag k="name" v="Seggelstadmyra" />
		<tag k="natural" v="wetland" />
		<tag k="ssr:stedsnr" v="295322" />
	</node>
	<node id="-124791" lat="61.4836055584" lon="9.81604722542">
		<tag k="landuse" v="quarry" />
		<tag k="name" v="Rolstadgruva" />
		<tag k="ssr:stedsnr" v="962572" />
	</node>
	<node id="-124789" lat="61.4774388851" lon="9.78933611622">
		<tag k="name" v="Triltåsfeltet" />
		<tag k="place" v="locality" />
		<tag k="ssr:stedsnr" v="962552" />
	</node>
	<node id="-123760" lat="61.5824499979" lon="9.86952499895">
		<tag k="name" v="Lundin" />
		<tag k="place" v="locality" />
		<tag k="ssr:stedsnr" v="253607" />
	</node>
	<node id="-124783" lat="61.4734638862" lon="9.93777500225">
		<tag k="name" v="Geitsteinen" />
		<tag k="natural" v="stone" />
		<tag k="ssr:stedsnr" v="962483" />
	</node>
	<node id="-124270" lat="61.6409999958" lon="9.90857499692">
		<tag k="name" v="Tronomyra" />
		<tag k="natural" v="wetland" />
		<tag k="ssr:stedsnr" v="677726" />
	</node>
	<node id="-124261" lat="61.6148777769" lon="9.91172500848">
		<tag k="name" v="Torvmyra" />
		<tag k="natural" v="wetland" />
		<tag k="ssr:stedsnr" v="677491" />
	</node>
	<node id="-124765" lat="61.5421527799" lon="9.98596667002">
		<tag k="name" v="Smørøsja" />
		<tag k="place" v="locality" />
		<tag k="ssr:stedsnr" v="962212" />
	</node>
	<node id="-124764" lat="61.5434277739" lon="9.97610278595">
		<tag k="name" v="Nordre Fossevollen" />
		<tag k="place" v="locality" />
		<tag k="ssr:stedsnr" v="962210" />
	</node>
	<node id="-124761" lat="61.536824996" lon="9.99335000926">
		<tag k="name" v="Myra" />
		<tag k="place" v="locality" />
		<tag k="ssr:stedsnr" v="962197" />
	</node>
	<node id="-124760" lat="61.5533722207" lon="9.89232500541">
		<tag k="name" v="Øygarden" />
		<tag k="place" v="locality" />
		<tag k="ssr:stedsnr" v="962179" />
	</node>
	<node id="-123220" lat="61.4169527815" lon="9.6147805481">
		<tag k="landuse" v="quarry" />
		<tag k="name" v="Jørstadgruva" />
		<tag k="ssr:stedsnr" v="8336" />
	</node>
	<node id="-124752" lat="61.4775444427" lon="9.73160833734">
		<tag k="name" v="Storslåa" />
		<tag k="place" v="locality" />
		<tag k="ssr:stedsnr" v="962127" />
	</node>
	<node id="-123727" lat="61.559916665" lon="9.93828332676">
		<tag k="name" v="Myra" />
		<tag k="place" v="locality" />
		<tag k="ssr:stedsnr" v="234868" />
	</node>
	<node id="-124750" lat="61.5709166692" lon="9.84634445111">
		<tag k="name" v="Jota" />
		<tag k="place" v="locality" />
		<tag k="ssr:stedsnr" v="962107" />
	</node>
	<node id="-124749" lat="61.5659333327" lon="9.86302778012">
		<tag k="name" v="Lurhaugen" />
		<tag k="place" v="locality" />
		<tag k="ssr:stedsnr" v="962097" />
	</node>
	<node id="-124234" lat="61.5689527819" lon="9.92732778654">
		<tag k="name" v="Stokkejordet" />
		<tag k="place" v="locality" />
		<tag k="ssr:stedsnr" v="659866" />
	</node>
	<node id="-123020" lat="61.555419441" lon="9.90306666724">
		<tag k="alt_name" v="Kveinnhuslykkja" />
		<tag k="name" v="Kvernhuslykkja" />
		<tag k="place" v="locality" />
		<tag k="ssr:stedsnr" v="355191" />
	</node>
	<node id="-123717" lat="61.6623138905" lon="9.95987222672">
		<tag k="name" v="Ommundgardsvollen" />
		<tag k="place" v="locality" />
		<tag k="ssr:stedsnr" v="234677" />
	</node>
	<node id="-124225" lat="61.6539444407" lon="9.95073610545">
		<tag k="name" v="Nigardsmyra" />
		<tag k="natural" v="wetland" />
		<tag k="ssr:stedsnr" v="659676" />
	</node>
	<node id="-124224" lat="61.6453472211" lon="9.97179722277">
		<tag k="historic" v="shieling" />
		<tag k="name" v="Arvesletta" />
		<tag k="place" v="locality" />
		<tag k="ssr:stedsnr" v="659673" />
	</node>
	<node id="-124223" lat="61.6552444404" lon="9.91786666493">
		<tag k="name" v="Saulegan" />
		<tag k="place" v="locality" />
		<tag k="ssr:stedsnr" v="659667" />
	</node>
	<node id="-124219" lat="61.5101083332" lon="9.80270833316">
		<tag k="name" v="Torvmyra" />
		<tag k="natural" v="wetland" />
		<tag k="ssr:stedsnr" v="659618" />
	</node>
	<node id="-124217" lat="61.5458777741" lon="9.94266111397">
		<tag k="name" v="Hovevollan" />
		<tag k="place" v="locality" />
		<tag k="ssr:stedsnr" v="659616" />
	</node>
	<node id="-123456" lat="61.4769722181" lon="9.85288888514">
		<tag k="name" v="Stormyra" />
		<tag k="natural" v="wetland" />
		<tag k="ssr:stedsnr" v="113565" />
	</node>
	<node id="-123697" lat="61.4665444441" lon="9.96295277046">
		<tag k="name" v="Torgeirsteinen" />
		<tag k="natural" v="stone" />
		<tag k="ssr:stedsnr" v="234477" />
	</node>
	<node id="-123695" lat="61.4468888845" lon="9.9451166664">
		<tag k="name" v="Sjøsjålia" />
		<tag k="place" v="locality" />
		<tag k="ssr:stedsnr" v="234470" />
	</node>
	<node id="-124205" lat="61.7271888873" lon="9.98339167213">
		<tag k="name" v="Måsåplassen" />
		<tag k="place" v="locality" />
		<tag k="ssr:stedsnr" v="659547" />
	</node>
	<node id="-123177" lat="61.5509944441" lon="10.038480553">
		<tag k="name" v="Arbeidslykkja" />
		<tag k="place" v="locality" />
		<tag k="ssr:stedsnr" v="888627" />
	</node>
	<node id="-123687" lat="61.6364805554" lon="9.95562221757">
		<tag k="name" v="Bjønnmyra" />
		<tag k="natural" v="wetland" />
		<tag k="ssr:stedsnr" v="234394" />
	</node>
	<node id="-124198" lat="61.5060527823" lon="9.89093610534">
		<tag k="name" v="Amundsteinen" />
		<tag k="natural" v="stone" />
		<tag k="ssr:stedsnr" v="659381" />
	</node>
	<node id="-123682" lat="61.4960361125" lon="9.99789166258">
		<tag k="name" v="Langtjønnmyra" />
		<tag k="natural" v="wetland" />
		<tag k="ssr:stedsnr" v="234326" />
	</node>
	<node id="-124191" lat="61.5799333365" lon="9.96626388522">
		<tag k="name" v="Teppingsmyra" />
		<tag k="natural" v="wetland" />
		<tag k="ssr:stedsnr" v="659324" />
	</node>
	<node id="-123166" lat="61.422244443" lon="9.57806666346">
		<tag k="landuse" v="quarry" />
		<tag k="name" v="Evansgruva" />
		<tag k="ssr:stedsnr" v="477814" />
	</node>
	<node id="-124185" lat="61.5386555526" lon="9.99332499237">
		<tag k="name" v="Grafferhaugen" />
		<tag k="place" v="locality" />
		<tag k="ssr:stedsnr" v="659216" />
	</node>
	<node id="-124279" lat="61.7442222227" lon="10.0219555556">
		<tag k="name" v="Mikkelsmyrin" />
		<tag k="natural" v="wetland" />
		<tag k="ssr:stedsnr" v="677952" />
	</node>
	<node id="-123524" lat="61.5479166657" lon="10.001777787">
		<tag k="name" v="Liuenga" />
		<tag k="place" v="locality" />
		<tag k="ssr:stedsnr" v="160594" />
	</node>
	<node id="-123667" lat="61.5436944428" lon="9.98427500633">
		<tag k="name" v="Viervollen" />
		<tag k="place" v="locality" />
		<tag k="ssr:stedsnr" v="234188" />
	</node>
	<node id="-123666" lat="61.5560083351" lon="9.88320555203">
		<tag k="name" v="Gurilykkja" />
		<tag k="place" v="locality" />
		<tag k="ssr:stedsnr" v="234184" />
	</node>
	<node id="-124175" lat="61.5856388858" lon="9.84432778621">
		<tag k="name" v="Kolbotn" />
		<tag k="place" v="locality" />
		<tag k="ssr:stedsnr" v="659086" />
	</node>
	<node id="-124174" lat="61.527063893" lon="9.98692500933">
		<tag k="name" v="Bulykkja" />
		<tag k="place" v="locality" />
		<tag k="ssr:stedsnr" v="659080" />
	</node>
	<node id="-123437" lat="61.4369000039" lon="9.36816389346">
		<tag k="name" v="Snubbmyrin" />
		<tag k="natural" v="wetland" />
		<tag k="ssr:stedsnr" v="113307" />
	</node>
	<node id="-123659" lat="61.4809000001" lon="9.75163888834">
		<tag k="name" v="Triltmyra" />
		<tag k="natural" v="wetland" />
		<tag k="ssr:stedsnr" v="234131" />
	</node>
	<node id="-123146" lat="61.601386113" lon="9.97553611156">
		<tag k="name" v="Kleppsletta" />
		<tag k="place" v="locality" />
		<tag k="ssr:stedsnr" v="477349" />
	</node>
	<node id="-124161" lat="61.7112555588" lon="9.93884999205">
		<tag k="name" v="Eldåbakken" />
		<tag k="place" v="locality" />
		<tag k="ssr:stedsnr" v="658497" />
	</node>
	<node id="-123170" lat="61.564327775" lon="9.93939443634">
		<tag k="name" v="Kyrkjeåkeren" />
		<tag k="place" v="locality" />
		<tag k="ssr:stedsnr" v="477870" />
	</node>
	<node id="-123134" lat="61.5416472192" lon="9.97738610988">
		<tag k="name" v="Pinvollen" />
		<tag k="place" v="locality" />
		<tag k="ssr:stedsnr" v="477225" />
	</node>
	<node id="-123645" lat="61.6277277746" lon="9.95968610553">
		<tag k="name" v="Holslykkja" />
		<tag k="place" v="locality" />
		<tag k="ssr:stedsnr" v="234420" />
	</node>
	<node id="-123130" lat="61.543011107" lon="9.98547499387">
		<tag k="name" v="Allemannsvollen" />
		<tag k="place" v="locality" />
		<tag k="ssr:stedsnr" v="477192" />
	</node>
	<node id="-123263" lat="61.5494833311" lon="10.0213777694">
		<tag k="name" v="Myra" />
		<tag k="place" v="locality" />
		<tag k="ssr:stedsnr" v="39580" />
	</node>
	<node id="-124664" lat="61.630677776" lon="9.9721916757">
		<tag k="name" v="Segelstad-frydalen" />
		<tag k="place" v="locality" />
		<tag k="ssr:stedsnr" v="902475" />
	</node>
	<node id="-124663" lat="61.6270333325" lon="9.96879166603">
		<tag k="name" v="Ånnefrydalen" />
		<tag k="place" v="locality" />
		<tag k="ssr:stedsnr" v="902476" />
	</node>
	<node id="-124660" lat="61.4910694416" lon="10.0248694374">
		<tag k="name" v="Torsbråtån" />
		<tag k="place" v="locality" />
		<tag k="ssr:stedsnr" v="902377" />
	</node>
	<node id="-123635" lat="61.5413749961" lon="9.79899721865">
		<tag k="name" v="Langmyra" />
		<tag k="natural" v="wetland" />
		<tag k="ssr:stedsnr" v="192917" />
	</node>
	<node id="-124658" lat="61.6008305577" lon="9.89421944569">
		<tag k="name" v="Langmyra" />
		<tag k="natural" v="wetland" />
		<tag k="ssr:stedsnr" v="902357" />
	</node>
	<node id="-124656" lat="61.5861833349" lon="9.93656667505">
		<tag k="name" v="Teppingsmyra" />
		<tag k="natural" v="wetland" />
		<tag k="ssr:stedsnr" v="902352" />
	</node>
	<node id="-123119" lat="61.5804027787" lon="9.86770833516">
		<tag k="name" v="Breilegan" />
		<tag k="place" v="locality" />
		<tag k="ssr:stedsnr" v="477086" />
	</node>
	<node id="-123117" lat="61.5823972199" lon="9.83408333946">
		<tag k="name" v="Nordgardsvollen" />
		<tag k="place" v="locality" />
		<tag k="ssr:stedsnr" v="477072" />
	</node>
	<node id="-123686" lat="61.4905805567" lon="10.0187250035">
		<tag k="name" v="Einbråtån" />
		<tag k="place" v="locality" />
		<tag k="ssr:stedsnr" v="234346" />
	</node>
	<node id="-123105" lat="61.7098361104" lon="9.96699999174">
		<tag k="name" v="Storrandbakk" />
		<tag k="place" v="locality" />
		<tag k="ssr:stedsnr" v="476497" />
	</node>
	<node id="-124639" lat="61.5068472226" lon="9.96264722894">
		<tag k="name" v="Djupdalsmorka" />
		<tag k="place" v="locality" />
		<tag k="ssr:stedsnr" v="902114" />
	</node>
	<node id="-124637" lat="61.5708972266" lon="9.83356388653">
		<tag k="name" v="Lykkjebakken" />
		<tag k="place" v="locality" />
		<tag k="ssr:stedsnr" v="902110" />
	</node>
	<node id="-124636" lat="61.5934388926" lon="9.86430000596">
		<tag k="name" v="Sigridmyra" />
		<tag k="natural" v="wetland" />
		<tag k="ssr:stedsnr" v="902076" />
	</node>
	<node id="-124632" lat="61.5897805525" lon="9.83822222265">
		<tag k="historic" v="shieling" />
		<tag k="name" v="Nedre Skar" />
		<tag k="place" v="locality" />
		<tag k="ssr:stedsnr" v="902068" />
	</node>
	<node id="-123092" lat="61.5313500012" lon="9.89642500612">
		<tag k="name" v="Stormorka" />
		<tag k="place" v="locality" />
		<tag k="ssr:stedsnr" v="374913" />
	</node>
	<node id="-124627" lat="61.5234638893" lon="9.9508166703">
		<tag k="name" v="Kleivhaugen" />
		<tag k="place" v="locality" />
		<tag k="ssr:stedsnr" v="902014" />
	</node>
	<node id="-124706" lat="61.4461277755" lon="9.95096943786">
		<tag k="name" v="Stormyra" />
		<tag k="natural" v="wetland" />
		<tag k="ssr:stedsnr" v="919285" />
	</node>
	<node id="-123100" lat="61.546655554" lon="10.0162333341">
		<tag k="name" v="Nordgardsøy" />
		<tag k="place" v="locality" />
		<tag k="ssr:stedsnr" v="403618" />
	</node>
	<node id="-124097" lat="61.6046833314" lon="10.0047749919">
		<tag k="name" v="Kolbotn" />
		<tag k="place" v="locality" />
		<tag k="ssr:stedsnr" v="598870" />
	</node>
	<node id="-123593" lat="61.5548694462" lon="9.90250000918">
		<tag k="name" v="Huselykkja" />
		<tag k="place" v="locality" />
		<tag k="ssr:stedsnr" v="174212" />
	</node>
	<node id="-123060" lat="61.5238555575" lon="9.78664722077">
		<tag k="name" v="Langslåa" />
		<tag k="place" v="locality" />
		<tag k="ssr:stedsnr" v="356639" />
	</node>
	<node id="-123570" lat="61.8815277796" lon="10.0954555621">
		<tag k="name" v="Heggerusta" />
		<tag k="place" v="locality" />
		<tag k="ssr:stedsnr" v="173519" />
	</node>
	<node id="-123031" lat="61.7117555586" lon="9.97010833634">
		<tag k="name" v="Kolbotn" />
		<tag k="place" v="locality" />
		<tag k="ssr:stedsnr" v="355467" />
	</node>
	<node id="-124586" lat="61.4806416636" lon="9.81842222147">
		<tag k="name" v="Båtmyra" />
		<tag k="natural" v="wetland" />
		<tag k="ssr:stedsnr" v="842593" />
	</node>
	<node id="-123045" lat="61.4202777757" lon="9.57280000013">
		<tag k="landuse" v="quarry" />
		<tag k="name" v="Stangsgruva" />
		<tag k="ssr:stedsnr" v="355773" />
	</node>
	<node id="-124068" lat="61.6005500026" lon="9.8895361172">
		<tag k="name" v="Skjørpingstulen" />
		<tag k="place" v="locality" />
		<tag k="ssr:stedsnr" v="598319" />
	</node>
	<node id="-124067" lat="61.4910611139" lon="9.99759445159">
		<tag k="name" v="Salbråtån" />
		<tag k="place" v="locality" />
		<tag k="ssr:stedsnr" v="598309" />
	</node>
	<node id="-123554" lat="61.4978666639" lon="9.99970834128">
		<tag k="name" v="Karusmyra" />
		<tag k="natural" v="wetland" />
		<tag k="ssr:stedsnr" v="173304" />
	</node>
	<node id="-124060" lat="61.543572222" lon="9.98119444993">
		<tag k="name" v="Vollykkja" />
		<tag k="place" v="locality" />
		<tag k="ssr:stedsnr" v="598225" />
	</node>
	<node id="-123547" lat="61.513661115" lon="9.92227777146">
		<tag k="name" v="Haugaveslsætra" />
		<tag k="place" v="locality" />
		<tag k="ssr:stedsnr" v="173201" />
	</node>
	<node id="-124567" lat="61.6548777814" lon="9.92244166533">
		<tag k="name" v="Kulegan" />
		<tag k="place" v="locality" />
		<tag k="ssr:stedsnr" v="841637" />
	</node>
	<node id="-123542" lat="61.6299805595" lon="9.95817777642">
		<tag k="name" v="Rudlands-kusårn" />
		<tag k="place" v="locality" />
		<tag k="ssr:stedsnr" v="173398" />
	</node>
	<node id="-124053" lat="61.5930666702" lon="9.90446666656">
		<tag k="name" v="Sygardskile" />
		<tag k="place" v="locality" />
		<tag k="ssr:stedsnr" v="598133" />
	</node>
	<node id="-124052" lat="61.5915277764" lon="9.90535277155">
		<tag k="name" v="Kilberget" />
		<tag k="place" v="locality" />
		<tag k="ssr:stedsnr" v="598132" />
	</node>
	<node id="-123027" lat="61.6189583356" lon="9.97537778203">
		<tag k="historic" v="shieling" />
		<tag k="name" v="Korstad-frydalen" />
		<tag k="place" v="locality" />
		<tag k="ssr:stedsnr" v="355395" />
	</node>
	<node id="-124049" lat="61.5768916711" lon="9.81965000625">
		<tag k="name" v="Midtlykkja" />
		<tag k="place" v="locality" />
		<tag k="ssr:stedsnr" v="598101" />
	</node>
	<node id="-124559" lat="61.902113888" lon="10.0935111064">
		<tag k="name" v="Atnsjømyrene" />
		<tag k="natural" v="wetland" />
		<tag k="ssr:stedsnr" v="841558" />
	</node>
	<node id="-124558" lat="61.7511777775" lon="9.96708333147">
		<tag k="name" v="Merramyra" />
		<tag k="natural" v="wetland" />
		<tag k="ssr:stedsnr" v="841550" />
	</node>
	<node id="-124556" lat="61.7110500009" lon="9.96933334062">
		<tag k="name" v="Veslrandbakk" />
		<tag k="place" v="locality" />
		<tag k="ssr:stedsnr" v="841490" />
	</node>
	<node id="-124043" lat="61.5176333368" lon="9.95009722768">
		<tag k="name" v="Heståsletta" />
		<tag k="place" v="locality" />
		<tag k="ssr:stedsnr" v="598013" />
	</node>
	<node id="-124551" lat="61.6370166693" lon="9.96945278526">
		<tag k="name" v="Nørdstgards-frydalen" />
		<tag k="place" v="locality" />
		<tag k="ssr:stedsnr" v="841429" />
	</node>
	<node id="-124548" lat="61.48439167" lon="10.0070027763">
		<tag k="name" v="Torvmyra" />
		<tag k="natural" v="wetland" />
		<tag k="ssr:stedsnr" v="841364" />
	</node>
	<node id="-124034" lat="61.5864305574" lon="9.97791110413">
		<tag k="loc_name" v="Storlon" />
		<tag k="name" v="Langmyra" />
		<tag k="natural" v="wetland" />
		<tag k="ssr:stedsnr" v="592285" />
	</node>
	<node id="-124032" lat="61.5484444403" lon="10.0012222231">
		<tag k="name" v="Forråfetten" />
		<tag k="place" v="locality" />
		<tag k="ssr:stedsnr" v="584676" />
	</node>
	<node id="-124543" lat="61.5986888924" lon="9.95018889496">
		<tag k="name" v="Breislåa" />
		<tag k="place" v="locality" />
		<tag k="ssr:stedsnr" v="841334" />
	</node>
	<node id="-123002" lat="61.5487694454" lon="9.99809167308">
		<tag k="name" v="Jetlundsfetten" />
		<tag k="place" v="locality" />
		<tag k="ssr:stedsnr" v="342588" />
	</node>
	<node id="-123001" lat="61.5487583375" lon="10.0030583256">
		<tag k="name" v="Hakkemett" />
		<tag k="place" v="locality" />
		<tag k="ssr:stedsnr" v="342587" />
	</node>
	<node id="-124536" lat="61.511863887" lon="9.8874194394">
		<tag k="name" v="Stabbursteinan" />
		<tag k="natural" v="stone" />
		<tag k="ssr:stedsnr" v="841228" />
	</node>
	<node id="-124017" lat="61.8932999984" lon="10.0681888912">
		<tag k="name" v="Djupbekkmyrin" />
		<tag k="natural" v="wetland" />
		<tag k="ssr:stedsnr" v="555513" />
	</node>
	<node id="-124527" lat="61.5879611098" lon="9.90316944939">
		<tag k="name" v="Sygardslykkja" />
		<tag k="place" v="locality" />
		<tag k="ssr:stedsnr" v="841137" />
	</node>
	<node id="-124526" lat="61.4765111105" lon="9.74761110261">
		<tag k="name" v="Dalsmunnin" />
		<tag k="natural" v="wetland" />
		<tag k="ssr:stedsnr" v="841135" />
	</node>
	<node id="-123291" lat="61.559402775" lon="9.89690556104">
		<tag k="name" v="Brenna" />
		<tag k="place" v="locality" />
		<tag k="ssr:stedsnr" v="52163" />
	</node>
	<node id="-123154" lat="61.4860416702" lon="9.78470278377">
		<tag k="name" v="Gråsteinsmyra" />
		<tag k="natural" v="wetland" />
		<tag k="ssr:stedsnr" v="477591" />
	</node>
	<node id="-124520" lat="61.5644166663" lon="9.8715916636">
		<tag k="name" v="Grinnmillom" />
		<tag k="place" v="locality" />
		<tag k="ssr:stedsnr" v="841103" />
	</node>
	<node id="-124518" lat="61.5780972244" lon="9.82046388355">
		<tag k="name" v="Pålslykkja" />
		<tag k="place" v="locality" />
		<tag k="ssr:stedsnr" v="841095" />
	</node>
	<node id="-124517" lat="61.5823694453" lon="9.81630833675">
		<tag k="name" v="Hardvollan" />
		<tag k="place" v="locality" />
		<tag k="ssr:stedsnr" v="841092" />
	</node>
	<node id="-124006" lat="61.4770916676" lon="9.7889722309">
		<tag k="alt_name" v="Triltåsfeltet" />
		<tag k="name" v="Triltåsen" />
		<tag k="old_name" v="Trilåsen" />
		<tag k="place" v="locality" />
		<tag k="ssr:stedsnr" v="554326" />
	</node>
	<node id="-123400" lat="61.4770111122" lon="9.45713332926">
		<tag k="name" v="Årstalsfuru" />
		<tag k="place" v="locality" />
		<tag k="ssr:stedsnr" v="112447" />
	</node>
	<node id="-124773" lat="61.5793916669" lon="9.97382500085">
		<tag k="name" v="Stokkmyra" />
		<tag k="natural" v="wetland" />
		<tag k="ssr:stedsnr" v="962300" />
	</node>
	<node id="-123996" lat="61.5833055538" lon="9.89146667174">
		<tag k="name" v="Sygardskroken" />
		<tag k="place" v="locality" />
		<tag k="ssr:stedsnr" v="552146" />
	</node>
	<node id="-124507" lat="61.5464444467" lon="10.03978333">
		<tag k="name" v="Storteigen" />
		<tag k="place" v="locality" />
		<tag k="ssr:stedsnr" v="828608" />
	</node>
	<node id="-124687" lat="61.5488305562" lon="9.78032777569">
		<tag k="name" v="Mysusmørsteinen" />
		<tag k="natural" v="stone" />
		<tag k="ssr:stedsnr" v="902960" />
	</node>
	<node id="-123479" lat="61.5666694476" lon="9.832275">
		<tag k="name" v="Holomshågån" />
		<tag k="place" v="locality" />
		<tag k="ssr:stedsnr" v="113913" />
	</node>
	<node id="-123465" lat="61.5633999993" lon="9.96898055103">
		<tag k="name" v="Einkåvåbakken" />
		<tag k="place" v="locality" />
		<tag k="ssr:stedsnr" v="113817" />
	</node>
	<node id="-123035" lat="61.7477166671" lon="9.9579888944">
		<tag k="name" v="Telarm Dokka" />
		<tag k="place" v="locality" />
		<tag k="ssr:stedsnr" v="355522" />
	</node>
	<node id="-123460" lat="61.4275583363" lon="9.50123333906">
		<tag k="name" v="Gulliksvollen" />
		<tag k="place" v="locality" />
		<tag k="ssr:stedsnr" v="113590" />
	</node>
	<node id="-124483" lat="61.5921500039" lon="9.95651944426">
		<tag k="loc_name" v="Storlon" />
		<tag k="name" v="Langmyra" />
		<tag k="natural" v="wetland" />
		<tag k="ssr:stedsnr" v="799552" />
	</node>
	<node id="-123968" lat="61.4298166691" lon="9.96182222133">
		<tag k="name" v="Tverråbakken" />
		<tag k="place" v="locality" />
		<tag k="ssr:stedsnr" v="538275" />
	</node>
	<node id="-123967" lat="61.54360278" lon="9.97880554794">
		<tag k="name" v="Søre Fossevollen" />
		<tag k="place" v="locality" />
		<tag k="ssr:stedsnr" v="538211" />
	</node>
	<node id="-123966" lat="61.5169166668" lon="9.92826110405">
		<tag k="name" v="Flåtålykkja" />
		<tag k="place" v="locality" />
		<tag k="ssr:stedsnr" v="538206" />
	</node>
	<node id="-123965" lat="61.5110805541" lon="9.89153611383">
		<tag k="name" v="Rismyra" />
		<tag k="natural" v="wetland" />
		<tag k="ssr:stedsnr" v="538205" />
	</node>
	<node id="-124808" lat="61.5696944462" lon="10.0011055567">
		<tag k="name" v="Kringlåtmyra" />
		<tag k="natural" v="wetland" />
		<tag k="ssr:stedsnr" v="962941" />
	</node>
	<node id="-123410" lat="61.576727776" lon="9.83616666372">
		<tag k="name" v="Hardvollsmorka" />
		<tag k="place" v="locality" />
		<tag k="ssr:stedsnr" v="113082" />
	</node>
	<node id="-122937" lat="61.5753249973" lon="9.8987583366">
		<tag k="name" v="Kyrkjeåkeren" />
		<tag k="place" v="locality" />
		<tag k="ssr:stedsnr" v="295175" />
	</node>
	<node id="-123959" lat="61.5597861103" lon="9.8758583365">
		<tag k="name" v="Barlundsrønningen" />
		<tag k="place" v="locality" />
		<tag k="ssr:stedsnr" v="538180" />
	</node>
	<node id="-123446" lat="61.6368222199" lon="9.94920000677">
		<tag k="name" v="Veslmorka" />
		<tag k="place" v="locality" />
		<tag k="ssr:stedsnr" v="113389" />
	</node>
	<node id="-123444" lat="61.6047194453" lon="9.89658332957">
		<tag k="name" v="Stormyra" />
		<tag k="natural" v="wetland" />
		<tag k="ssr:stedsnr" v="113328" />
	</node>
	<node id="-123442" lat="61.6128500024" lon="9.9424861174">
		<tag k="name" v="Torvmyra" />
		<tag k="natural" v="wetland" />
		<tag k="ssr:stedsnr" v="113324" />
	</node>
	<node id="-123439" lat="61.5303305528" lon="10.01970555">
		<tag k="name" v="Bråtan" />
		<tag k="place" v="locality" />
		<tag k="ssr:stedsnr" v="113310" />
	</node>
	<node id="-123741" lat="61.4505333336" lon="9.96314445369">
		<tag k="name" v="Merramyra" />
		<tag k="natural" v="wetland" />
		<tag k="ssr:stedsnr" v="251358" />
	</node>
	<node id="-124338" lat="61.5638916666" lon="9.94315000305">
		<tag k="name" v="Åkerlykkja" />
		<tag k="place" v="locality" />
		<tag k="ssr:stedsnr" v="720851" />
	</node>
	<node id="-123944" lat="61.6415583305" lon="9.94729166061">
		<tag k="name" v="Øverstøa" />
		<tag k="place" v="locality" />
		<tag k="ssr:stedsnr" v="537625" />
	</node>
	<node id="-123947" lat="61.5694583345" lon="9.95767222183">
		<tag k="name" v="Hågåjordet" />
		<tag k="place" v="locality" />
		<tag k="ssr:stedsnr" v="537803" />
	</node>
	<node id="-124452" lat="61.5738833324" lon="10.0145222198">
		<tag k="name" v="Månåsæter" />
		<tag k="place" v="locality" />
		<tag k="ssr:stedsnr" v="780921" />
	</node>
	<node id="-123824" lat="61.5648444434" lon="9.94466945073">
		<tag k="name" v="Einsida" />
		<tag k="place" v="locality" />
		<tag k="ssr:stedsnr" v="416801" />
	</node>
	<node id="-123933" lat="61.4914333306" lon="10.0034055542">
		<tag k="name" v="Tribråtån" />
		<tag k="place" v="locality" />
		<tag k="ssr:stedsnr" v="537316" />
	</node>
	<node id="-123931" lat="61.502997224" lon="10.0040027816">
		<tag k="name" v="Hestmyra" />
		<tag k="natural" v="wetland" />
		<tag k="ssr:stedsnr" v="537306" />
	</node>
	<node id="-123418" lat="61.5075388924" lon="9.98255833827">
		<tag k="name" v="Bessmorsteinen" />
		<tag k="natural" v="stone" />
		<tag k="ssr:stedsnr" v="113115" />
	</node>
	<node id="-124439" lat="61.4107361116" lon="9.7388750026">
		<tag k="historic" v="shieling" />
		<tag k="name" v="Lebbvollen" />
		<tag k="place" v="locality" />
		<tag k="ssr:stedsnr" v="780761" />
	</node>
	<node id="-123411" lat="61.5786527755" lon="9.82151944643">
		<tag k="name" v="Nedre Svartlykkja" />
		<tag k="place" v="locality" />
		<tag k="ssr:stedsnr" v="113088" />
	</node>
	<node id="-124434" lat="61.6416999988" lon="9.96913332845">
		<tag k="historic" v="shieling" />
		<tag k="name" v="Stubbrudsletta" />
		<tag k="place" v="locality" />
		<tag k="ssr:stedsnr" v="780585" />
	</node>
	<node id="-123309" lat="61.4504472229" lon="9.99941666805">
		<tag k="name" v="Grøndokk" />
		<tag k="natural" v="wetland" />
		<tag k="ssr:stedsnr" v="52307" />
	</node>
	<node id="-124424" lat="61.4843277785" lon="9.4290222185">
		<tag k="name" v="Dyrtjønnmyra" />
		<tag k="natural" v="wetland" />
		<tag k="ssr:stedsnr" v="780485" />
	</node>
</osm>
