<?xml version="1.0" encoding="UTF-8"?>
<osm generator="osmapis" version="0.6">
	<node id="-26240" lat="59.8797114011" lon="10.5415304279">
		<tag k="name" v="Kalvøygrunnen lanterne" />
		<tag k="ssr:date" v="2018-07-20" />
		<tag k="ssr:gruppe" v="navigasjon" />
		<tag k="ssr:hovedgruppe" v="infrastruktur" />
		<tag k="ssr:stedsnr" v="67062" />
		<tag k="ssr:type" v="fyrlykt" />
	</node>
	<node id="-26362" lat="59.8652642314" lon="10.5559983011">
		<tag k="alt_name" v="Brønnøya nordøstre pynt" />
		<tag k="name" v="Brønnøya NØ lanterne" />
		<tag k="ssr:date" v="2018-07-20" />
		<tag k="ssr:gruppe" v="navigasjon" />
		<tag k="ssr:hovedgruppe" v="infrastruktur" />
		<tag k="ssr:stedsnr" v="236047" />
		<tag k="ssr:type" v="fyrlykt" />
	</node>
	<node id="-26811" lat="60.5908609473" lon="9.63819281559">
		<tag k="fixme" v="multiple name tags, choose one and add the other to alt_name" />
		<tag k="name" v="Austlandet;Østlandet" />
		<tag k="ssr:date" v="2018-01-09" />
		<tag k="ssr:gruppe" v="administrativeIndelinger" />
		<tag k="ssr:hovedgruppe" v="offentligAdministrasjon" />
		<tag k="ssr:stedsnr" v="974775" />
		<tag k="ssr:type" v="annenAdministrativInndeling" />
	</node>
	<node id="-26810" lat="59.8193519085" lon="10.3629374592">
		<tag k="name" v="Rosenhaven" />
		<tag k="ssr:date" v="2019-05-31" />
		<tag k="ssr:gruppe" v="veg" />
		<tag k="ssr:hovedgruppe" v="infrastruktur" />
		<tag k="ssr:stedsnr" v="974428" />
		<tag k="ssr:type" v="adressenavn" />
	</node>
	<node id="-26190" lat="59.7869128099" lon="10.4326075119">
		<tag k="name" v="Fyrstikken" />
		<tag k="ssr:date" v="2019-05-31" />
		<tag k="ssr:gruppe" v="veg" />
		<tag k="ssr:hovedgruppe" v="infrastruktur" />
		<tag k="ssr:stedsnr" v="1067686" />
		<tag k="ssr:type" v="adressenavn" />
	</node>
	<node id="-26189" lat="59.7873665785" lon="10.4334928672">
		<tag k="name" v="Kalosjen" />
		<tag k="ssr:date" v="2019-05-31" />
		<tag k="ssr:gruppe" v="veg" />
		<tag k="ssr:hovedgruppe" v="infrastruktur" />
		<tag k="ssr:stedsnr" v="1067682" />
		<tag k="ssr:type" v="adressenavn" />
	</node>
	<node id="-26316" lat="59.8569109587" lon="10.5609250432">
		<tag k="name" v="Hareholmen lanterne" />
		<tag k="ssr:date" v="2018-07-20" />
		<tag k="ssr:gruppe" v="navigasjon" />
		<tag k="ssr:hovedgruppe" v="infrastruktur" />
		<tag k="ssr:stedsnr" v="175027" />
		<tag k="ssr:type" v="fyrlykt" />
	</node>
	<node id="-26187" lat="59.8495179167" lon="10.5251076527">
		<tag k="name" v="Spannslokket" />
		<tag k="ssr:date" v="2019-05-31" />
		<tag k="ssr:gruppe" v="veg" />
		<tag k="ssr:hovedgruppe" v="infrastruktur" />
		<tag k="ssr:stedsnr" v="1067674" />
		<tag k="ssr:type" v="adressenavn" />
	</node>
	<node id="-26188" lat="59.7875509423" lon="10.4347871626">
		<tag k="name" v="Meierigangen" />
		<tag k="ssr:date" v="2019-05-31" />
		<tag k="ssr:gruppe" v="veg" />
		<tag k="ssr:hovedgruppe" v="infrastruktur" />
		<tag k="ssr:stedsnr" v="1067681" />
		<tag k="ssr:type" v="adressenavn" />
	</node>
	<node id="-26181" lat="59.8138974225" lon="10.4844113289">
		<tag k="name" v="Nordstrandbakken" />
		<tag k="ssr:date" v="2019-07-03" />
		<tag k="ssr:gruppe" v="veg" />
		<tag k="ssr:hovedgruppe" v="infrastruktur" />
		<tag k="ssr:stedsnr" v="1072086" />
		<tag k="ssr:type" v="adressenavn" />
	</node>
	<node id="-26180" lat="59.8260417088" lon="10.3833347898">
		<tag k="name" v="Skansesvingen" />
		<tag k="old_name" v="Skansen" />
		<tag k="ssr:date" v="2019-12-02" />
		<tag k="ssr:gruppe" v="veg" />
		<tag k="ssr:hovedgruppe" v="infrastruktur" />
		<tag k="ssr:stedsnr" v="1068929" />
		<tag k="ssr:type" v="adressenavn" />
	</node>
	<node id="-26179" lat="59.7874896666" lon="10.4329939284">
		<tag k="name" v="Ullvaren" />
		<tag k="ssr:date" v="2019-05-31" />
		<tag k="ssr:gruppe" v="veg" />
		<tag k="ssr:hovedgruppe" v="infrastruktur" />
		<tag k="ssr:stedsnr" v="1067718" />
		<tag k="ssr:type" v="adressenavn" />
	</node>
	<node id="-26178" lat="59.7870896101" lon="10.4355014027">
		<tag k="name" v="Heggedal torg" />
		<tag k="ssr:date" v="2019-05-31" />
		<tag k="ssr:gruppe" v="veg" />
		<tag k="ssr:hovedgruppe" v="infrastruktur" />
		<tag k="ssr:stedsnr" v="1067715" />
		<tag k="ssr:type" v="adressenavn" />
	</node>
	<node id="-26177" lat="59.8695259467" lon="10.483021453">
		<tag k="name" v="Kabelfaret" />
		<tag k="ssr:date" v="2019-05-31" />
		<tag k="ssr:gruppe" v="veg" />
		<tag k="ssr:hovedgruppe" v="infrastruktur" />
		<tag k="ssr:stedsnr" v="1067472" />
		<tag k="ssr:type" v="adressenavn" />
	</node>
	<node id="-26176" lat="59.8688136904" lon="10.4837452409">
		<tag k="name" v="Bergerekra" />
		<tag k="ssr:date" v="2019-05-31" />
		<tag k="ssr:gruppe" v="veg" />
		<tag k="ssr:hovedgruppe" v="infrastruktur" />
		<tag k="ssr:stedsnr" v="1067468" />
		<tag k="ssr:type" v="adressenavn" />
	</node>
	<node id="-26175" lat="59.8677768425" lon="10.4846617076">
		<tag k="name" v="Vekslerfaret" />
		<tag k="ssr:date" v="2019-05-31" />
		<tag k="ssr:gruppe" v="veg" />
		<tag k="ssr:hovedgruppe" v="infrastruktur" />
		<tag k="ssr:stedsnr" v="1067465" />
		<tag k="ssr:type" v="adressenavn" />
	</node>
	<node id="-26174" lat="59.8686768519" lon="10.4839338247">
		<tag k="name" v="Thorvald Olsens gate" />
		<tag k="ssr:date" v="2019-05-31" />
		<tag k="ssr:gruppe" v="veg" />
		<tag k="ssr:hovedgruppe" v="infrastruktur" />
		<tag k="ssr:stedsnr" v="1067462" />
		<tag k="ssr:type" v="adressenavn" />
	</node>
	<node id="-26173" lat="59.8703539327" lon="10.4807113304">
		<tag k="name" v="Elvetangen" />
		<tag k="ssr:date" v="2019-05-31" />
		<tag k="ssr:gruppe" v="veg" />
		<tag k="ssr:hovedgruppe" v="infrastruktur" />
		<tag k="ssr:stedsnr" v="1067456" />
		<tag k="ssr:type" v="adressenavn" />
	</node>
	<node id="-26172" lat="59.8335515072" lon="10.411750049">
		<tag k="name" v="Haresporet" />
		<tag k="ssr:date" v="2019-05-31" />
		<tag k="ssr:gruppe" v="veg" />
		<tag k="ssr:hovedgruppe" v="infrastruktur" />
		<tag k="ssr:stedsnr" v="1067448" />
		<tag k="ssr:type" v="adressenavn" />
	</node>
	<node id="-26171" lat="59.8685625611" lon="10.4826784974">
		<tag k="name" v="Transistorfaret" />
		<tag k="ssr:date" v="2019-05-31" />
		<tag k="ssr:gruppe" v="veg" />
		<tag k="ssr:hovedgruppe" v="infrastruktur" />
		<tag k="ssr:stedsnr" v="1067441" />
		<tag k="ssr:type" v="adressenavn" />
	</node>
	<node id="-26170" lat="59.8685339042" lon="10.4815537976">
		<tag k="name" v="Satellittfaret" />
		<tag k="old_name" v="Sattelittfaret" />
		<tag k="ssr:date" v="2019-05-31" />
		<tag k="ssr:gruppe" v="veg" />
		<tag k="ssr:hovedgruppe" v="infrastruktur" />
		<tag k="ssr:stedsnr" v="1067436" />
		<tag k="ssr:type" v="adressenavn" />
	</node>
	<node id="-26169" lat="59.8725597178" lon="10.539000894">
		<tag k="name" v="Sigrids vei" />
		<tag k="ssr:date" v="2019-05-31" />
		<tag k="ssr:gruppe" v="veg" />
		<tag k="ssr:hovedgruppe" v="infrastruktur" />
		<tag k="ssr:stedsnr" v="1067768" />
		<tag k="ssr:type" v="adressenavn" />
	</node>
	<node id="-26807" lat="59.7893249963" lon="10.4984250043">
		<tag k="alt_name" v="Tajet" />
		<tag k="name" v="Tajet lykt" />
		<tag k="ssr:date" v="2016-05-11" />
		<tag k="ssr:gruppe" v="navigasjon" />
		<tag k="ssr:hovedgruppe" v="infrastruktur" />
		<tag k="ssr:stedsnr" v="964055" />
		<tag k="ssr:type" v="fyrlykt" />
	</node>
	<node id="-26163" lat="59.8317750026" lon="10.526330547">
		<tag k="name" v="Bjørkøygrunnen" />
		<tag k="ssr:date" v="2016-05-10" />
		<tag k="ssr:gruppe" v="navigasjon" />
		<tag k="ssr:hovedgruppe" v="infrastruktur" />
		<tag k="ssr:stedsnr" v="478033" />
		<tag k="ssr:type" v="fyrlykt" />
	</node>
	<node id="-26693" lat="59.888472224" lon="10.5510194449">
		<tag k="name" v="Nedre Høvikodden" />
		<tag k="ssr:date" v="2016-05-11" />
		<tag k="ssr:gruppe" v="navigasjon" />
		<tag k="ssr:hovedgruppe" v="infrastruktur" />
		<tag k="ssr:stedsnr" v="782032" />
		<tag k="ssr:type" v="fyrlykt" />
	</node>
	<node id="-26266" lat="59.8373333317" lon="10.4359388961">
		<tag k="alt_name" v="Asker" />
		<tag k="name" v="Asker kommune" />
		<tag k="ssr:date" v="2016-05-10" />
		<tag k="ssr:gruppe" v="administrativeIndelinger" />
		<tag k="ssr:hovedgruppe" v="offentligAdministrasjon" />
		<tag k="ssr:stedsnr" v="84872" />
		<tag k="ssr:type" v="kommune" />
	</node>
	<node id="-26118" lat="59.8889805576" lon="10.5512027868">
		<tag k="name" v="Øvre Høvikodden" />
		<tag k="ssr:date" v="2016-05-10" />
		<tag k="ssr:gruppe" v="navigasjon" />
		<tag k="ssr:hovedgruppe" v="infrastruktur" />
		<tag k="ssr:stedsnr" v="357033" />
		<tag k="ssr:type" v="fyrlykt" />
	</node>
</osm>
