<?xml version="1.0" encoding="UTF-8"?>
<osm version="0.6" generator="osmapis">
	<node id="656299322" lat="60.7579046" lon="4.7374139" version="3" timestamp="2022-08-23T05:24:22Z" changeset="125252284" uid="3497659" user="NKA">
		<tag k="name" v="Stormark" />
		<tag k="place" v="hamlet" />
		<tag k="ssr:stedsnr" v="554201" />
	</node>
	<node id="6219460045" lat="60.781694" lon="4.7143292" version="5" timestamp="2022-08-23T05:24:22Z" changeset="125252284" uid="3497659" user="NKA">
		<tag k="name" v="Fedje" />
		<tag k="place" v="village" />
		<tag k="population" v="401" />
		<tag k="population:date" v="2021-01-01" />
		<tag k="ref:ssb_tettsted" v="5261" />
		<tag k="source:population" v="SSB - befolkning i tettstedet" />
		<tag k="ssr:stedsnr" v="85061" />
	</node>
	<node id="9971409844" lat="60.7765112" lon="4.705603" version="1" timestamp="2022-08-23T05:24:22Z" changeset="125252284" uid="3497659" user="NKA">
		<tag k="name" v="Træsneset" />
		<tag k="place" v="farm" />
		<tag k="ssr:stedsnr" v="810089" />
	</node>
	<node id="9971409845" lat="60.775474" lon="4.729491" version="1" timestamp="2022-08-23T05:24:22Z" changeset="125252284" uid="3497659" user="NKA">
		<tag k="name" v="Husa" />
		<tag k="place" v="farm" />
		<tag k="ssr:stedsnr" v="931093" />
	</node>
	<node id="9971409846" lat="60.7838521" lon="4.69642" version="1" timestamp="2022-08-23T05:24:22Z" changeset="125252284" uid="3497659" user="NKA">
		<tag k="name" v="Hesteneset" />
		<tag k="place" v="farm" />
		<tag k="ssr:stedsnr" v="385018" />
	</node>
	<node id="9971409847" lat="60.7824037" lon="4.7207125" version="1" timestamp="2022-08-23T05:24:22Z" changeset="125252284" uid="3497659" user="NKA">
		<tag k="name" v="Nedst-Tangen" />
		<tag k="place" v="locality" />
		<tag k="ssr:stedsnr" v="748088" />
	</node>
	<node id="9971409848" lat="60.783253" lon="4.7182634" version="1" timestamp="2022-08-23T05:24:22Z" changeset="125252284" uid="3497659" user="NKA">
		<tag k="name" v="Nord-Tangen" />
		<tag k="place" v="locality" />
		<tag k="ssr:stedsnr" v="749061" />
	</node>
	<node id="9971409850" lat="60.7829305" lon="4.7153242" version="1" timestamp="2022-08-23T05:24:22Z" changeset="125252284" uid="3497659" user="NKA">
		<tag k="name" v="Brotet" />
		<tag k="place" v="locality" />
		<tag k="ssr:stedsnr" v="20085" />
	</node>
	<node id="9971409851" lat="60.7802254" lon="4.7040358" version="1" timestamp="2022-08-23T05:24:22Z" changeset="125252284" uid="3497659" user="NKA">
		<tag k="name" v="Kremmarholmen" />
		<tag k="place" v="farm" />
		<tag k="ssr:stedsnr" v="506094" />
	</node>
	<node id="9971409852" lat="60.7847485" lon="4.702176" version="1" timestamp="2022-08-23T05:24:22Z" changeset="125252284" uid="3497659" user="NKA">
		<tag k="name" v="Kongestølen" />
		<tag k="place" v="farm" />
		<tag k="ssr:stedsnr" v="931070" />
	</node>
	<node id="9971409853" lat="60.75385" lon="4.7183287" version="1" timestamp="2022-08-23T05:24:22Z" changeset="125252284" uid="3497659" user="NKA">
		<tag k="name" v="Fjellheim" />
		<tag k="place" v="farm" />
		<tag k="ssr:stedsnr" v="749057" />
	</node>
	<node id="9971409854" lat="60.7835972" lon="4.721901" version="1" timestamp="2022-08-23T05:24:22Z" changeset="125252284" uid="3497659" user="NKA">
		<tag k="name" v="Berge" />
		<tag k="place" v="locality" />
		<tag k="ssr:stedsnr" v="931089" />
	</node>
	<node id="9971409856" lat="60.7799355" lon="4.7169178" version="1" timestamp="2022-08-23T05:24:22Z" changeset="125252284" uid="3497659" user="NKA">
		<tag k="name" v="Kopper" />
		<tag k="place" v="locality" />
		<tag k="ssr:stedsnr" v="384117" />
	</node>
	<node id="9971409857" lat="60.7830698" lon="4.7172627" version="1" timestamp="2022-08-23T05:24:22Z" changeset="125252284" uid="3497659" user="NKA">
		<tag k="name" v="Børen" />
		<tag k="place" v="locality" />
		<tag k="ssr:stedsnr" v="810097" />
	</node>
	<node id="9971409858" lat="60.7819674" lon="4.7138009" version="1" timestamp="2022-08-23T05:24:22Z" changeset="125252284" uid="3497659" user="NKA">
		<tag k="name" v="Stuberg" />
		<tag k="place" v="locality" />
		<tag k="ssr:stedsnr" v="506099" />
	</node>
	<node id="9971409859" lat="60.7815105" lon="4.7136247" version="1" timestamp="2022-08-23T05:24:22Z" changeset="125252284" uid="3497659" user="NKA">
		<tag k="name" v="Muren" />
		<tag k="place" v="locality" />
		<tag k="ssr:stedsnr" v="384106" />
	</node>
	<node id="9971409860" lat="60.7730427" lon="4.7245531" version="1" timestamp="2022-08-23T05:24:22Z" changeset="125252284" uid="3497659" user="NKA">
		<tag k="name" v="Nygård" />
		<tag k="place" v="farm" />
		<tag k="ssr:stedsnr" v="688065" />
	</node>
	<node id="9971409861" lat="60.7824775" lon="4.7157025" version="1" timestamp="2022-08-23T05:24:22Z" changeset="125252284" uid="3497659" user="NKA">
		<tag k="name" v="Vika" />
		<tag k="place" v="locality" />
		<tag k="ssr:stedsnr" v="324081" />
	</node>
	<node id="9971409862" lat="60.7809297" lon="4.7127537" version="1" timestamp="2022-08-23T05:24:22Z" changeset="125252284" uid="3497659" user="NKA">
		<tag k="name" v="Eide" />
		<tag k="place" v="locality" />
		<tag k="ssr:stedsnr" v="870099" />
	</node>
	<node id="9971409863" lat="60.7824305" lon="4.7267394" version="1" timestamp="2022-08-23T05:24:22Z" changeset="125252284" uid="3497659" user="NKA">
		<tag k="name" v="Rognsvågen" />
		<tag k="place" v="farm" />
		<tag k="ssr:stedsnr" v="446078" />
	</node>
	<node id="9971409864" lat="60.7818957" lon="4.7181352" version="1" timestamp="2022-08-23T05:24:22Z" changeset="125252284" uid="3497659" user="NKA">
		<tag k="name" v="Opphaugen" />
		<tag k="place" v="locality" />
		<tag k="ssr:stedsnr" v="385097" />
	</node>
	<node id="9971409865" lat="60.7818526" lon="4.7130004" version="1" timestamp="2022-08-23T05:24:22Z" changeset="125252284" uid="3497659" user="NKA">
		<tag k="name" v="Steinborg" />
		<tag k="place" v="locality" />
		<tag k="ssr:stedsnr" v="81086" />
	</node>
	<node id="9971409866" lat="60.7780257" lon="4.6971149" version="1" timestamp="2022-08-23T05:24:22Z" changeset="125252284" uid="3497659" user="NKA">
		<tag k="name" v="Langedalen" />
		<tag k="place" v="farm" />
		<tag k="ssr:stedsnr" v="810005" />
	</node>
	<node id="9971409867" lat="60.7804632" lon="4.7121727" version="1" timestamp="2022-08-23T05:24:22Z" changeset="125252284" uid="3497659" user="NKA">
		<tag k="name" v="Uthaugen" />
		<tag k="place" v="locality" />
		<tag k="ssr:stedsnr" v="446089" />
	</node>
	<node id="9971409868" lat="60.7815988" lon="4.7168822" version="1" timestamp="2022-08-23T05:24:22Z" changeset="125252284" uid="3497659" user="NKA">
		<tag k="name" v="Grenda" />
		<tag k="place" v="locality" />
		<tag k="ssr:stedsnr" v="21090" />
	</node>
	<node id="9971409869" lat="60.783248" lon="4.7164974" version="1" timestamp="2022-08-23T05:24:22Z" changeset="125252284" uid="3497659" user="NKA">
		<tag k="name" v="Børhaugen" />
		<tag k="place" v="locality" />
		<tag k="ssr:stedsnr" v="627093" />
	</node>
	<node id="9971409870" lat="60.782325" lon="4.701537" version="1" timestamp="2022-08-23T05:24:22Z" changeset="125252284" uid="3497659" user="NKA">
		<tag k="name" v="Sulen" />
		<tag k="place" v="farm" />
		<tag k="ssr:stedsnr" v="583071" />
	</node>
	<node id="9971409871" lat="60.7784404" lon="4.7130884" version="1" timestamp="2022-08-23T05:24:22Z" changeset="125252284" uid="3497659" user="NKA">
		<tag k="name" v="Husa" />
		<tag k="place" v="locality" />
		<tag k="ssr:stedsnr" v="384114" />
	</node>
	<node id="9971409872" lat="60.7777361" lon="4.7375259" version="1" timestamp="2022-08-23T05:24:22Z" changeset="125252284" uid="3497659" user="NKA">
		<tag k="name" v="Midt-Tangen" />
		<tag k="place" v="farm" />
		<tag k="ssr:stedsnr" v="566077" />
	</node>
	<node id="9971409873" lat="60.7870734" lon="4.7104742" version="1" timestamp="2022-08-23T05:24:22Z" changeset="125252284" uid="3497659" user="NKA">
		<tag k="name" v="Skotholmen" />
		<tag k="place" v="farm" />
		<tag k="ssr:stedsnr" v="21083" />
	</node>
	<node id="9971409874" lat="60.785258" lon="4.7074496" version="1" timestamp="2022-08-23T05:24:22Z" changeset="125252284" uid="3497659" user="NKA">
		<tag k="name" v="Mulen" />
		<tag k="place" v="farm" />
		<tag k="ssr:stedsnr" v="157003" />
	</node>
	<node id="9971409875" lat="60.7860105" lon="4.7143851" version="1" timestamp="2022-08-23T05:24:22Z" changeset="125252284" uid="3497659" user="NKA">
		<tag k="name" v="Moldøyna" />
		<tag k="place" v="farm" />
		<tag k="ssr:stedsnr" v="20078" />
	</node>
</osm>
