<?xml version="1.0" encoding="UTF-8"?>
<osm generator="osmapis" version="0.6">
	<node id="-170109" lat="67.8808250003" lon="15.198741669">
		<tag k="cemetery" v="grave" />
		<tag k="name" v="Dalmoen" />
		<tag k="place" v="locality" />
		<tag k="ssr:stedsnr" v="400894" />
	</node>
	<node id="-170229" lat="67.9361333307" lon="14.9794861196">
		<tag k="amenity" v="place_of_worship" />
		<tag k="denomination" v="lutheran" />
		<tag k="name" v="Steigen" />
		<tag k="religion" v="christian" />
		<tag k="ssr:stedsnr" v="562195" />
	</node>
	<node id="-168338" lat="67.7611250026" lon="15.2272027825">
		<tag k="amenity" v="place_of_worship" />
		<tag k="denomination" v="lutheran" />
		<tag k="name" v="Nordfold" />
		<tag k="religion" v="christian" />
		<tag k="ssr:stedsnr" v="502691" />
	</node>
	<node id="-167683" lat="67.9200388881" lon="15.1387166676">
		<tag k="alt_name" v="Frumoa" />
		<tag k="amenity" v="place_of_worship" />
		<tag k="denomination" v="lutheran" />
		<tag k="name" v="Frumoen" />
		<tag k="religion" v="christian" />
		<tag k="ssr:stedsnr" v="260169" />
	</node>
	<node id="-168368" lat="67.7382444491" lon="14.8063694373">
		<tag k="amenity" v="place_of_worship" />
		<tag k="denomination" v="lutheran" />
		<tag k="name" v="Leiranger" />
		<tag k="religion" v="christian" />
		<tag k="ssr:stedsnr" v="508753" />
	</node>
	<node id="-167983" lat="68.0147377982" lon="15.1918208488">
		<tag k="name" v="Fjetterstad" />
		<tag k="place" v="locality" />
		<tag k="ssr:stedsnr" v="442888" />
	</node>
	<node id="-169224" lat="67.8977083375" lon="15.197169441">
		<tag k="amenity" v="place_of_worship" />
		<tag k="denomination" v="lutheran" />
		<tag k="name" v="Bogen" />
		<tag k="religion" v="christian" />
		<tag k="ssr:stedsnr" v="17856" />
	</node>
	<node id="-169478" lat="67.7343666707" lon="15.3198638812">
		<tag k="cemetery" v="grave" />
		<tag k="name" v="Rødsandmoen gravplass" />
		<tag k="place" v="locality" />
		<tag k="ssr:stedsnr" v="116357" />
	</node>
	<node id="-170630" lat="67.7374027785" lon="14.8081972145">
		<tag k="cemetery" v="grave" />
		<tag k="name" v="Kjerkgården" />
		<tag k="place" v="locality" />
		<tag k="ssr:stedsnr" v="784974" />
	</node>
</osm>
