<?xml version="1.0" encoding="UTF-8"?>
<<<<<<< HEAD
<osm version="0.6" generator="osmapis">
	<node lat="67.81121389299543" lon="15.753600003481967" id="-7997">
		<tag k="name" v="Bumarka" />
		<tag k="place" v="locality" />
		<tag k="ssr:stedsnr" v="238542" />
	</node>
	<node lat="67.92963055422312" lon="15.483361099963314" id="-8013">
		<tag k="name" v="Snøsmyran" />
		<tag k="natural" v="wetland" />
		<tag k="ssr:stedsnr" v="56302" />
	</node>
	<node lat="67.8790833328416" lon="15.215002781224428" id="-8086">
		<tag k="name" v="Svartskogen" />
=======
<osm generator="osmapis" version="0.6">
	<node id="-182272" lat="67.9616861148" lon="15.0610416772">
		<tag k="name" v="Gråsteinmyra" />
		<tag k="natural" v="wetland" />
		<tag k="ssr:stedsnr" v="806198" />
	</node>
	<node id="-180309" lat="67.8248805562" lon="15.8235138962">
		<tag k="name" v="Naustmyra" />
		<tag k="natural" v="wetland" />
		<tag k="ssr:stedsnr" v="905389" />
	</node>
	<node id="-179189" lat="67.811213893" lon="15.7536000035">
		<tag k="name" v="Bumarka" />
		<tag k="place" v="locality" />
		<tag k="ssr:stedsnr" v="238542" />
	</node>
	<node id="-179179" lat="67.9296305542" lon="15.4833611">
		<tag k="name" v="Snøsmyran" />
		<tag k="natural" v="wetland" />
		<tag k="ssr:stedsnr" v="56302" />
	</node>
	<node id="-181221" lat="67.8855972203" lon="15.1749305435">
		<tag k="name" v="Skuggbenken" />
		<tag k="natural" v="scree" />
		<tag k="ssr:stedsnr" v="157900" />
	</node>
	<node id="-182522" lat="67.7543999991" lon="15.1273694381">
		<tag k="name" v="Olaura" />
		<tag k="natural" v="scree" />
		<tag k="ssr:stedsnr" v="965716" />
	</node>
	<node id="-179674" lat="67.8020027817" lon="14.8182944425">
		<tag k="name" v="Vardhågmyra" />
		<tag k="natural" v="wetland" />
		<tag k="ssr:stedsnr" v="298924" />
	</node>
	<node id="-180185" lat="67.7838472252" lon="14.873847216">
		<tag k="name" v="Svemyra" />
		<tag k="natural" v="wetland" />
		<tag k="ssr:stedsnr" v="723910" />
	</node>
	<node id="-181720" lat="67.8832277785" lon="15.1156000054">
		<tag k="name" v="Kjerringvassmyra" />
		<tag k="natural" v="wetland" />
		<tag k="ssr:stedsnr" v="400936" />
	</node>
	<node id="-179665" lat="67.8073555515" lon="15.0408277669">
		<tag k="name" v="Bjønndalsmyra" />
		<tag k="natural" v="wetland" />
		<tag k="ssr:stedsnr" v="461994" />
	</node>
	<node id="-181709" lat="67.9359222178" lon="15.1935583317">
		<tag k="name" v="Sørslettskogen" />
>>>>>>> e1d4bc35ff8a6074a6f2e91616a996b547c36f15
		<tag k="place" v="locality" />
		<tag k="ssr:stedsnr" v="96906" />
	</node>
<<<<<<< HEAD
	<node lat="67.78463333149287" lon="15.295238882156205" id="-8095">
		<tag k="name" v="Mølnvika" />
=======
	<node id="-181705" lat="67.795902774" lon="15.0328638864">
		<tag k="name" v="Saursfjordbogen" />
>>>>>>> e1d4bc35ff8a6074a6f2e91616a996b547c36f15
		<tag k="place" v="locality" />
		<tag k="ssr:stedsnr" v="97862" />
	</node>
<<<<<<< HEAD
	<node lat="67.93840277552997" lon="14.970083331921485" id="-8109">
		<tag k="alt_name" v="Vestjorden" />
		<tag k="name" v="Vestjorda" />
		<tag k="place" v="locality" />
		<tag k="ssr:stedsnr" v="117675" />
	</node>
	<node lat="67.66881389165354" lon="15.38456389252951" id="-8137">
=======
	<node id="-182213" lat="67.8262055554" lon="14.7960722264">
		<tag k="name" v="Hesteigan" />
		<tag k="place" v="locality" />
		<tag k="ssr:stedsnr" v="783538" />
	</node>
	<node id="-179651" lat="67.7331083319" lon="15.1443027858">
		<tag k="name" v="Mikkelsteinmyra" />
		<tag k="natural" v="wetland" />
		<tag k="ssr:stedsnr" v="461791" />
	</node>
	<node id="-179646" lat="67.9290305558" lon="15.2311333424">
		<tag k="name" v="Lågen" />
		<tag k="natural" v="wetland" />
		<tag k="ssr:stedsnr" v="461325" />
	</node>
	<node id="-180157" lat="67.8098111071" lon="15.7715638845">
		<tag k="name" v="Fjellvegura" />
		<tag k="natural" v="scree" />
		<tag k="ssr:stedsnr" v="723481" />
	</node>
	<node id="-181180" lat="67.6688138917" lon="15.3845638925">
>>>>>>> e1d4bc35ff8a6074a6f2e91616a996b547c36f15
		<tag k="name" v="Helldalisen" />
		<tag k="natural" v="glacier" />
		<tag k="ssr:stedsnr" v="138840" />
	</node>
<<<<<<< HEAD
	<node lat="67.88559722034262" lon="15.17493054350105" id="-8158">
		<tag k="name" v="Skuggbenken" />
		<tag k="natural" v="scree" />
		<tag k="ssr:stedsnr" v="157900" />
	</node>
	<node lat="67.81839722039054" lon="15.299533337919314" id="-8219">
		<tag k="landuse" v="meadow" />
		<tag k="name" v="Øvereng" />
		<tag k="ssr:stedsnr" v="260775" />
	</node>
	<node lat="67.81843611545644" lon="15.09840555547779" id="-8254">
		<tag k="name" v="Saursfjordmyran" />
		<tag k="natural" v="wetland" />
		<tag k="ssr:stedsnr" v="198977" />
	</node>
	<node lat="67.76535832954995" lon="15.04518334329941" id="-8312">
=======
	<node id="-180152" lat="67.7951111121" lon="14.9283444564">
		<tag k="name" v="Marenskogan" />
		<tag k="place" v="locality" />
		<tag k="ssr:stedsnr" v="723594" />
	</node>
	<node id="-179123" lat="67.7653583295" lon="15.0451833433">
>>>>>>> e1d4bc35ff8a6074a6f2e91616a996b547c36f15
		<tag k="name" v="Kjølosen" />
		<tag k="natural" v="stone" />
		<tag k="ssr:stedsnr" v="218983" />
	</node>
<<<<<<< HEAD
	<node lat="67.94304166858949" lon="15.012191669216389" id="-8347">
		<tag k="name" v="Nonsmyran" />
=======
	<node id="-181681" lat="67.6488638877" lon="15.0388444335">
		<tag k="name" v="Klekksreiret" />
		<tag k="place" v="locality" />
		<tag k="ssr:stedsnr" v="381797" />
	</node>
	<node id="-180656" lat="67.7927388882" lon="15.0790444515">
		<tag k="name" v="Ressmålskrågmyra" />
>>>>>>> e1d4bc35ff8a6074a6f2e91616a996b547c36f15
		<tag k="natural" v="wetland" />
		<tag k="ssr:stedsnr" v="259218" />
	</node>
<<<<<<< HEAD
	<node lat="67.84233610940969" lon="15.153150007096322" id="-8356">
		<tag k="name" v="Skjelvareidmyran" />
		<tag k="natural" v="wetland" />
		<tag k="ssr:stedsnr" v="259819" />
	</node>
	<node lat="67.78976666788449" lon="15.302541663669382" id="-8396">
		<tag k="name" v="Stranda" />
=======
	<node id="-179613" lat="67.8423361094" lon="15.1531500071">
		<tag k="name" v="Skjelvareidmyran" />
		<tag k="natural" v="wetland" />
		<tag k="ssr:stedsnr" v="259819" />
	</node>
	<node id="-181675" lat="67.8111555531" lon="15.2966638861">
		<tag k="landuse" v="meadow" />
		<tag k="name" v="Medeng" />
		<tag k="ssr:stedsnr" v="381765" />
	</node>
	<node id="-181154" lat="67.8851444418" lon="15.6658916544">
		<tag k="name" v="Tomasjorda" />
>>>>>>> e1d4bc35ff8a6074a6f2e91616a996b547c36f15
		<tag k="place" v="locality" />
		<tag k="ssr:stedsnr" v="279785" />
	</node>
<<<<<<< HEAD
	<node lat="67.92903055577746" lon="15.231133342360437" id="-8405">
		<tag k="name" v="Lågen" />
=======
	<node id="-179104" lat="67.8023111104" lon="15.0062138945">
		<tag k="name" v="Momyra" />
>>>>>>> e1d4bc35ff8a6074a6f2e91616a996b547c36f15
		<tag k="natural" v="wetland" />
		<tag k="ssr:stedsnr" v="461325" />
	</node>
<<<<<<< HEAD
	<node lat="67.73310833191837" lon="15.144302785795741" id="-8412">
		<tag k="name" v="Mikkelsteinmyra" />
		<tag k="natural" v="wetland" />
		<tag k="ssr:stedsnr" v="461791" />
	</node>
	<node lat="67.80735555153757" lon="15.040827766854399" id="-8416">
		<tag k="name" v="Bjønndalsmyra" />
		<tag k="natural" v="wetland" />
		<tag k="ssr:stedsnr" v="461994" />
	</node>
	<node lat="67.79176110832526" lon="14.943077781296518" id="-8427">
		<tag k="name" v="Andershågmyra" />
=======
	<node id="-180638" lat="67.9277694478" lon="15.2409194473">
		<tag k="name" v="Brennan" />
		<tag k="place" v="locality" />
		<tag k="ssr:stedsnr" v="947329" />
	</node>
	<node id="-179101" lat="67.950783337" lon="15.2163583424">
		<tag k="name" v="Strandåkran" />
		<tag k="place" v="locality" />
		<tag k="ssr:stedsnr" v="218452" />
	</node>
	<node id="-179605" lat="67.9430416686" lon="15.0121916692">
		<tag k="name" v="Nonsmyran" />
>>>>>>> e1d4bc35ff8a6074a6f2e91616a996b547c36f15
		<tag k="natural" v="wetland" />
		<tag k="ssr:stedsnr" v="298594" />
	</node>
<<<<<<< HEAD
	<node lat="67.80200278172474" lon="14.818294442473313" id="-8430">
		<tag k="name" v="Vardhågmyra" />
		<tag k="natural" v="wetland" />
		<tag k="ssr:stedsnr" v="298924" />
	</node>
	<node lat="67.92583888755112" lon="15.229955558288498" id="-8494">
		<tag k="name" v="Langskogan" />
=======
	<node id="-180624" lat="67.8704833345" lon="15.1995333434">
		<tag k="name" v="Limahalsen" />
>>>>>>> e1d4bc35ff8a6074a6f2e91616a996b547c36f15
		<tag k="place" v="locality" />
		<tag k="ssr:stedsnr" v="339319" />
	</node>
<<<<<<< HEAD
	<node lat="67.80953888698276" lon="15.76258610555211" id="-8530">
		<tag k="name" v="Hellarmoura" />
		<tag k="natural" v="scree" />
		<tag k="ssr:stedsnr" v="480512" />
	</node>
	<node lat="67.88682222626247" lon="14.989216661887278" id="-8572">
		<tag k="name" v="Lysmyra" />
=======
	<node id="-180619" lat="67.7934638904" lon="14.9706722232">
		<tag k="landuse" v="meadow" />
		<tag k="name" v="Linekra" />
		<tag k="ssr:stedsnr" v="946508" />
	</node>
	<node id="-180618" lat="67.7955361135" lon="14.9682500094">
		<tag k="name" v="Stormyra" />
>>>>>>> e1d4bc35ff8a6074a6f2e91616a996b547c36f15
		<tag k="natural" v="wetland" />
		<tag k="ssr:stedsnr" v="380864" />
	</node>
<<<<<<< HEAD
	<node lat="67.93592221782376" lon="15.193558331656703" id="-8598">
		<tag k="name" v="Sørslettskogen" />
=======
	<node id="-180616" lat="67.9459722245" lon="14.9709555504">
		<tag k="name" v="Vollmoa" />
>>>>>>> e1d4bc35ff8a6074a6f2e91616a996b547c36f15
		<tag k="place" v="locality" />
		<tag k="ssr:stedsnr" v="400731" />
	</node>
	<node lat="67.78780277987603" lon="15.284677789337422" id="-8631">
		<tag k="name" v="Olakmyra" />
		<tag k="natural" v="wetland" />
		<tag k="ssr:stedsnr" v="441700" />
	</node>
	<node lat="67.92590277975165" lon="15.208908331056904" id="-8655">
		<tag k="name" v="Langmyra" />
		<tag k="natural" v="wetland" />
		<tag k="ssr:stedsnr" v="442213" />
	</node>
<<<<<<< HEAD
	<node lat="67.6888611126562" lon="14.80570554971939" id="-8731">
=======
	<node id="-179775" lat="67.6888611127" lon="14.8057055497">
>>>>>>> e1d4bc35ff8a6074a6f2e91616a996b547c36f15
		<tag k="name" v="Mellomurda" />
		<tag k="natural" v="scree" />
		<tag k="ssr:stedsnr" v="502210" />
	</node>
<<<<<<< HEAD
	<node lat="67.8070805550949" lon="15.04322500777555" id="-8769">
		<tag k="name" v="Skyttmyra" />
		<tag k="natural" v="wetland" />
		<tag k="ssr:stedsnr" v="502980" />
	</node>
	<node lat="67.78646944686447" lon="15.292416659388547" id="-8848">
		<tag k="name" v="Stormyra" />
=======
	<node id="-181112" lat="67.9384027755" lon="14.9700833319">
		<tag k="alt_name" v="Vestjorden" />
		<tag k="name" v="Vestjorda" />
		<tag k="place" v="locality" />
		<tag k="ssr:stedsnr" v="117675" />
	</node>
	<node id="-181621" lat="67.8868222263" lon="14.9892166619">
		<tag k="name" v="Lysmyra" />
>>>>>>> e1d4bc35ff8a6074a6f2e91616a996b547c36f15
		<tag k="natural" v="wetland" />
		<tag k="ssr:stedsnr" v="521812" />
	</node>
<<<<<<< HEAD
	<node lat="67.79955833453194" lon="15.342836120381609" id="-8900">
		<tag k="name" v="Langteigen" />
=======
	<node id="-181108" lat="67.7619055567" lon="15.1291611206">
		<tag k="name" v="Prestnesøyra" />
>>>>>>> e1d4bc35ff8a6074a6f2e91616a996b547c36f15
		<tag k="place" v="locality" />
		<tag k="ssr:stedsnr" v="601299" />
	</node>
<<<<<<< HEAD
	<node lat="67.80275833487742" lon="15.217361117269016" id="-8904">
		<tag k="name" v="Limyren" />
		<tag k="natural" v="wetland" />
		<tag k="ssr:stedsnr" v="601697" />
	</node>
	<node lat="67.69073610839831" lon="14.83147499280104" id="-8937">
		<tag k="alt_name" v="Breidskardurda" />
		<tag k="name" v="Breiskardurda" />
		<tag k="natural" v="scree" />
		<tag k="ssr:stedsnr" v="623230" />
	</node>
	<node lat="67.77938611301686" lon="15.025730544366274" id="-9030">
		<tag k="name" v="Einvollmyra" />
=======
	<node id="-180589" lat="67.8790083293" lon="15.0526666564">
		<tag k="name" v="Åsmarka" />
		<tag k="place" v="locality" />
		<tag k="ssr:stedsnr" v="806839" />
	</node>
	<node id="-182124" lat="67.881074999" lon="15.1158277788">
		<tag k="name" v="Storora" />
		<tag k="natural" v="scree" />
		<tag k="ssr:stedsnr" v="643936" />
	</node>
	<node id="-182122" lat="67.9699472206" lon="15.0837083411">
		<tag k="name" v="Lysmyran" />
		<tag k="natural" v="wetland" />
		<tag k="ssr:stedsnr" v="643869" />
	</node>
	<node id="-181609" lat="67.6691527734" lon="14.8966333364">
		<tag k="name" v="Kvanntomyra" />
>>>>>>> e1d4bc35ff8a6074a6f2e91616a996b547c36f15
		<tag k="natural" v="wetland" />
		<tag k="ssr:stedsnr" v="683960" />
	</node>
<<<<<<< HEAD
	<node lat="67.79511111207717" lon="14.928344456418188" id="-9109">
		<tag k="name" v="Marenskogan" />
		<tag k="place" v="locality" />
		<tag k="ssr:stedsnr" v="723594" />
	</node>
	<node lat="67.81035833352313" lon="15.782805565291245" id="-9177">
		<tag k="name" v="Tverrelvskogen" />
=======
	<node id="-179553" lat="67.9259027798" lon="15.2089083311">
		<tag k="name" v="Langmyra" />
		<tag k="natural" v="wetland" />
		<tag k="ssr:stedsnr" v="442213" />
	</node>
	<node id="-180053" lat="67.7966111155" lon="15.2843638885">
		<tag k="name" v="Hammarelvteigen" />
>>>>>>> e1d4bc35ff8a6074a6f2e91616a996b547c36f15
		<tag k="place" v="locality" />
		<tag k="ssr:stedsnr" v="905497" />
	</node>
<<<<<<< HEAD
	<node lat="67.93380277437738" lon="14.976911115402654" id="-9235">
		<tag k="name" v="Myra" />
=======
	<node id="-181074" lat="67.7846333315" lon="15.2952388822">
		<tag k="name" v="Mølnvika" />
>>>>>>> e1d4bc35ff8a6074a6f2e91616a996b547c36f15
		<tag k="place" v="locality" />
		<tag k="ssr:stedsnr" v="823175" />
	</node>
	<node lat="67.80552778071053" lon="15.29832500124294" id="-9310">
		<tag k="landuse" v="meadow" />
		<tag k="name" v="Grimeng" />
		<tag k="ssr:stedsnr" v="927706" />
	</node>
<<<<<<< HEAD
	<node lat="67.88125000287117" lon="14.985055562912727" id="-9338">
=======
	<node id="-180554" lat="67.8812500029" lon="14.9850555629">
>>>>>>> e1d4bc35ff8a6074a6f2e91616a996b547c36f15
		<tag k="alt_name" v="Skjellsmyra" />
		<tag k="name" v="Skjelmyra" />
		<tag k="natural" v="wetland" />
		<tag k="ssr:stedsnr" v="927839" />
	</node>
<<<<<<< HEAD
	<node lat="67.79273888819743" lon="15.079044451503727" id="-9355">
		<tag k="name" v="Ressmålskrågmyra" />
		<tag k="natural" v="wetland" />
		<tag k="ssr:stedsnr" v="886061" />
	</node>
	<node lat="67.82488055618747" lon="15.823513896153472" id="-9370">
		<tag k="name" v="Naustmyra" />
		<tag k="natural" v="wetland" />
		<tag k="ssr:stedsnr" v="905389" />
	</node>
	<node lat="67.88113333770464" lon="14.901616664319809" id="-9380">
		<tag k="name" v="Olbogmyra" />
=======
	<node id="-179510" lat="67.6924222182" lon="15.3868000039">
		<tag k="name" v="Storurda" />
		<tag k="natural" v="scree" />
		<tag k="ssr:stedsnr" v="441830" />
	</node>
	<node id="-181553" lat="67.8773194404" lon="14.886902776">
		<tag k="name" v="Teigan" />
		<tag k="place" v="locality" />
		<tag k="ssr:stedsnr" v="359578" />
	</node>
	<node id="-179504" lat="67.7878027799" lon="15.2846777893">
		<tag k="name" v="Olakmyra" />
>>>>>>> e1d4bc35ff8a6074a6f2e91616a996b547c36f15
		<tag k="natural" v="wetland" />
		<tag k="ssr:stedsnr" v="906602" />
	</node>
<<<<<<< HEAD
	<node lat="67.73639166403677" lon="15.181316658323405" id="-9410">
		<tag k="name" v="Stormyra" />
=======
	<node id="-179496" lat="67.9517916623" lon="15.1159194542">
		<tag k="name" v="Stormyran" />
>>>>>>> e1d4bc35ff8a6074a6f2e91616a996b547c36f15
		<tag k="natural" v="wetland" />
		<tag k="ssr:stedsnr" v="927218" />
	</node>
<<<<<<< HEAD
	<node lat="67.9507972186074" lon="15.046588879373244" id="-9417">
		<tag k="name" v="Bømyran" />
		<tag k="natural" v="wetland" />
		<tag k="ssr:stedsnr" v="927262" />
	</node>
	<node lat="67.92519999932618" lon="15.223375007518271" id="-9421">
		<tag k="name" v="Stormyra" />
		<tag k="natural" v="wetland" />
		<tag k="ssr:stedsnr" v="927564" />
	</node>
	<node lat="67.79553611345767" lon="14.968250009418627" id="-9441">
		<tag k="name" v="Stormyra" />
=======
	<node id="-181533" lat="67.8923722235" lon="15.1631472145">
		<tag k="name" v="Oterhola" />
		<tag k="place" v="locality" />
		<tag k="ssr:stedsnr" v="339978" />
	</node>
	<node id="-180186" lat="67.7824416626" lon="14.8777638907">
		<tag k="name" v="Tingvalmyra" />
		<tag k="natural" v="wetland" />
		<tag k="ssr:stedsnr" v="723912" />
	</node>
	<node id="-180505" lat="67.8055277807" lon="15.2983250012">
		<tag k="landuse" v="meadow" />
		<tag k="name" v="Grimeng" />
		<tag k="ssr:stedsnr" v="927706" />
	</node>
	<node id="-180503" lat="67.871638891" lon="15.1517027718">
		<tag k="name" v="Storvollen" />
>>>>>>> e1d4bc35ff8a6074a6f2e91616a996b547c36f15
		<tag k="natural" v="wetland" />
		<tag k="ssr:stedsnr" v="946506" />
	</node>
<<<<<<< HEAD
	<node lat="67.79346389039415" lon="14.970672223204275" id="-9442">
		<tag k="landuse" v="meadow" />
		<tag k="name" v="Linekra" />
		<tag k="ssr:stedsnr" v="946508" />
	</node>
	<node lat="67.8046527780768" lon="15.481955544597405" id="-9475">
		<tag k="name" v="Kyrksteinen" />
=======
	<node id="-181521" lat="67.7607555519" lon="15.2028138948">
		<tag k="name" v="Steinkjerka" />
>>>>>>> e1d4bc35ff8a6074a6f2e91616a996b547c36f15
		<tag k="natural" v="stone" />
		<tag k="ssr:stedsnr" v="16685" />
	</node>
<<<<<<< HEAD
	<node lat="67.79788055440602" lon="14.945836110008125" id="-9501">
		<tag k="name" v="Leirosdalsmyra" />
=======
	<node id="-180491" lat="67.9251999993" lon="15.2233750075">
		<tag k="name" v="Stormyra" />
>>>>>>> e1d4bc35ff8a6074a6f2e91616a996b547c36f15
		<tag k="natural" v="wetland" />
		<tag k="ssr:stedsnr" v="16998" />
	</node>
<<<<<<< HEAD
	<node lat="67.7404527789995" lon="15.071866674707753" id="-9510">
		<tag k="name" v="Trolldalsmyran" />
=======
	<node id="-179461" lat="67.7917611083" lon="14.9430777813">
		<tag k="name" v="Andershågmyra" />
>>>>>>> e1d4bc35ff8a6074a6f2e91616a996b547c36f15
		<tag k="natural" v="wetland" />
		<tag k="ssr:stedsnr" v="17190" />
	</node>
<<<<<<< HEAD
	<node lat="67.96806389130822" lon="14.990063897084605" id="-9533">
		<tag k="name" v="Søvet" />
		<tag k="natural" v="wetland" />
		<tag k="ssr:stedsnr" v="17245" />
	</node>
	<node lat="67.89109166807694" lon="15.152733340282023" id="-9574">
		<tag k="name" v="Øvringan" />
=======
	<node id="-181508" lat="67.9258388876" lon="15.2299555583">
		<tag k="name" v="Langskogan" />
>>>>>>> e1d4bc35ff8a6074a6f2e91616a996b547c36f15
		<tag k="place" v="locality" />
		<tag k="ssr:stedsnr" v="36984" />
	</node>
<<<<<<< HEAD
	<node lat="67.89105277652106" lon="15.145877770692543" id="-9576">
		<tag k="name" v="Munnerhola" />
		<tag k="place" v="locality" />
		<tag k="ssr:stedsnr" v="36987" />
	</node>
	<node lat="67.80296388563035" lon="15.025544444374955" id="-9580">
		<tag k="name" v="Skyttmyra" />
=======
	<node id="-180476" lat="67.9507972186" lon="15.0465888794">
		<tag k="name" v="Bømyran" />
>>>>>>> e1d4bc35ff8a6074a6f2e91616a996b547c36f15
		<tag k="natural" v="wetland" />
		<tag k="ssr:stedsnr" v="36492" />
	</node>
<<<<<<< HEAD
	<node lat="67.82075833442283" lon="15.8138027807802" id="-9595">
		<tag k="name" v="Oddmyran" />
=======
	<node id="-182011" lat="67.6907361084" lon="14.8314749928">
		<tag k="name" v="Breidskardurda" />
>>>>>>> e1d4bc35ff8a6074a6f2e91616a996b547c36f15
		<tag k="natural" v="scree" />
		<tag k="ssr:stedsnr" v="55456" />
	</node>
<<<<<<< HEAD
	<node lat="67.83070833575725" lon="15.791205563495772" id="-9597">
		<tag k="name" v="Nordmelelvura" />
		<tag k="natural" v="scree" />
		<tag k="ssr:stedsnr" v="55458" />
	</node>
	<node lat="67.72823889015588" lon="15.153897229195698" id="-9662">
		<tag k="alt_name" v="Breidvikmyran" />
		<tag k="name" v="Breivikmyran" />
		<tag k="natural" v="wetland" />
		<tag k="ssr:stedsnr" v="78215" />
	</node>
	<node lat="67.97051389352774" lon="14.9749638806285" id="-9669">
		<tag k="name" v="Stranda" />
		<tag k="place" v="locality" />
		<tag k="ssr:stedsnr" v="78234" />
	</node>
	<node lat="67.76190555672729" lon="15.129161120571613" id="-9748">
		<tag k="name" v="Prestnesøyra" />
		<tag k="place" v="locality" />
		<tag k="ssr:stedsnr" v="117744" />
	</node>
	<node lat="67.92811666838271" lon="15.002669441635103" id="-9774">
		<tag k="name" v="Fjellstad" />
=======
	<node id="-179450" lat="67.8271083297" lon="15.8418750098">
		<tag k="name" v="Hans-Myra" />
		<tag k="natural" v="wetland" />
		<tag k="ssr:stedsnr" v="298360" />
	</node>
	<node id="-179449" lat="67.804094446" lon="15.8327916784">
		<tag k="name" v="Svabergmyran" />
		<tag k="natural" v="wetland" />
		<tag k="ssr:stedsnr" v="298356" />
	</node>
	<node id="-182005" lat="67.9207166654" lon="15.2166861067">
		<tag k="name" v="Sjømyra" />
		<tag k="natural" v="wetland" />
		<tag k="ssr:stedsnr" v="623193" />
	</node>
	<node id="-180466" lat="67.736391664" lon="15.1813166583">
		<tag k="name" v="Stormyra" />
		<tag k="natural" v="wetland" />
		<tag k="ssr:stedsnr" v="927218" />
	</node>
	<node id="-182225" lat="67.9081388877" lon="15.5380027696">
		<tag k="name" v="Malågan" />
		<tag k="natural" v="wetland" />
		<tag k="ssr:stedsnr" v="784496" />
	</node>
	<node id="-182499" lat="67.7813" lon="15.7225944439">
		<tag k="name" v="Nondagsisen" />
		<tag k="natural" v="glacier" />
		<tag k="ssr:stedsnr" v="867311" />
	</node>
	<node id="-181975" lat="67.7929805541" lon="14.9201250044">
		<tag k="name" v="Saursmyra" />
		<tag k="natural" v="wetland" />
		<tag k="ssr:stedsnr" v="622981" />
	</node>
	<node id="-182475" lat="67.8906166659" lon="14.9988083296">
		<tag k="name" v="Skånlandsmarka" />
>>>>>>> e1d4bc35ff8a6074a6f2e91616a996b547c36f15
		<tag k="place" v="locality" />
		<tag k="ssr:stedsnr" v="138165" />
	</node>
<<<<<<< HEAD
	<node lat="67.88514444184432" lon="15.665891654383215" id="-9799">
		<tag k="name" v="Tomasjorda" />
=======
	<node id="-182474" lat="67.704533331" lon="15.4107444472">
		<tag k="name" v="Helldaløyra" />
>>>>>>> e1d4bc35ff8a6074a6f2e91616a996b547c36f15
		<tag k="place" v="locality" />
		<tag k="ssr:stedsnr" v="138520" />
	</node>
<<<<<<< HEAD
	<node lat="67.80929166657066" lon="15.804788881332625" id="-9857">
		<tag k="name" v="Dorthemyra" />
		<tag k="natural" v="wetland" />
		<tag k="ssr:stedsnr" v="177501" />
	</node>
	<node lat="67.7835666709534" lon="15.128772213654665" id="-9893">
		<tag k="name" v="Lysmyran" />
=======
	<node id="-179909" lat="67.809538887" lon="15.7625861056">
		<tag k="name" v="Hellarmoura" />
		<tag k="natural" v="scree" />
		<tag k="ssr:stedsnr" v="480512" />
	</node>
	<node id="-181955" lat="67.8027583349" lon="15.2173611173">
		<tag k="name" v="Limyren" />
>>>>>>> e1d4bc35ff8a6074a6f2e91616a996b547c36f15
		<tag k="natural" v="wetland" />
		<tag k="ssr:stedsnr" v="198944" />
	</node>
<<<<<<< HEAD
	<node lat="67.79925277869366" lon="14.921880563888578" id="-9906">
		<tag k="alt_name" v="Brannhågmyra" />
		<tag k="name" v="Brannhaugmyra" />
		<tag k="natural" v="wetland" />
		<tag k="ssr:stedsnr" v="198999" />
	</node>
	<node lat="67.80231111040418" lon="15.006213894476332" id="-9972">
		<tag k="name" v="Momyra" />
		<tag k="natural" v="wetland" />
		<tag k="ssr:stedsnr" v="218521" />
	</node>
	<node lat="67.95078333699996" lon="15.216358342413942" id="-9976">
		<tag k="name" v="Strandåkran" />
		<tag k="place" v="locality" />
		<tag k="ssr:stedsnr" v="218452" />
	</node>
	<node lat="67.78468889070825" lon="15.047969441818951" id="-10008">
=======
	<node id="-181947" lat="67.7995583345" lon="15.3428361204">
		<tag k="name" v="Langteigen" />
		<tag k="place" v="locality" />
		<tag k="ssr:stedsnr" v="601299" />
	</node>
	<node id="-181945" lat="67.8088138892" lon="15.777558344">
		<tag k="name" v="Neversteinen" />
		<tag k="natural" v="scree" />
		<tag k="ssr:stedsnr" v="601463" />
	</node>
	<node id="-179384" lat="67.7846888907" lon="15.0479694418">
>>>>>>> e1d4bc35ff8a6074a6f2e91616a996b547c36f15
		<tag k="name" v="Kovhågmyran" />
		<tag k="natural" v="wetland" />
		<tag k="ssr:stedsnr" v="279993" />
	</node>
<<<<<<< HEAD
	<node lat="67.80409444595534" lon="15.832791678363245" id="-10017">
		<tag k="name" v="Svabergmyran" />
=======
	<node id="-180407" lat="67.7584194448" lon="15.1248333327">
		<tag k="name" v="Sjymyra" />
>>>>>>> e1d4bc35ff8a6074a6f2e91616a996b547c36f15
		<tag k="natural" v="wetland" />
		<tag k="ssr:stedsnr" v="298356" />
	</node>
<<<<<<< HEAD
	<node lat="67.8271083296674" lon="15.84187500976681" id="-10018">
		<tag k="name" v="Hans-Myra" />
		<tag k="natural" v="wetland" />
		<tag k="ssr:stedsnr" v="298360" />
	</node>
	<node lat="67.89237222351093" lon="15.163147214525365" id="-10130">
		<tag k="name" v="Oterhola" />
		<tag k="place" v="locality" />
		<tag k="ssr:stedsnr" v="339978" />
	</node>
	<node lat="67.76075555192263" lon="15.202813894827075" id="-10138">
		<tag k="name" v="Steinkjerka" />
=======
	<node id="-182448" lat="67.6628166679" lon="15.1183027883">
		<tag k="name" v="Åslunden" />
		<tag k="place" v="locality" />
		<tag k="ssr:stedsnr" v="866745" />
	</node>
	<node id="-179375" lat="67.7897666679" lon="15.3025416637">
		<tag k="name" v="Stranda" />
		<tag k="place" v="locality" />
		<tag k="ssr:stedsnr" v="279785" />
	</node>
	<node id="-180905" lat="67.8307083358" lon="15.7912055635">
		<tag k="name" v="Nordmelelvura" />
		<tag k="natural" v="scree" />
		<tag k="ssr:stedsnr" v="55458" />
	</node>
	<node id="-180903" lat="67.8207583344" lon="15.8138027808">
		<tag k="name" v="Oddmyran" />
		<tag k="natural" v="scree" />
		<tag k="ssr:stedsnr" v="55456" />
	</node>
	<node id="-180382" lat="67.8811333377" lon="14.9016166643">
		<tag k="name" v="Olbogmyra" />
		<tag k="natural" v="wetland" />
		<tag k="ssr:stedsnr" v="906602" />
	</node>
	<node id="-179869" lat="67.8134083378" lon="15.7920694429">
		<tag k="name" v="Kvernsteinen" />
>>>>>>> e1d4bc35ff8a6074a6f2e91616a996b547c36f15
		<tag k="natural" v="stone" />
		<tag k="ssr:stedsnr" v="339867" />
	</node>
<<<<<<< HEAD
	<node lat="67.87731944040681" lon="14.886902776044135" id="-10160">
		<tag k="name" v="Teigan" />
		<tag k="place" v="locality" />
		<tag k="ssr:stedsnr" v="359578" />
	</node>
	<node lat="67.66915277343334" lon="14.896633336424612" id="-10201">
		<tag k="name" v="Kvanntomyra" />
=======
	<node id="-181913" lat="67.8049027757" lon="15.0209944554">
		<tag k="name" v="Tverrelvmyra" />
		<tag k="natural" v="wetland" />
		<tag k="ssr:stedsnr" v="582532" />
	</node>
	<node id="-180884" lat="67.8029638856" lon="15.0255444444">
		<tag k="name" v="Skyttmyra" />
>>>>>>> e1d4bc35ff8a6074a6f2e91616a996b547c36f15
		<tag k="natural" v="wetland" />
		<tag k="ssr:stedsnr" v="380819" />
	</node>
<<<<<<< HEAD
	<node lat="67.97643904311444" lon="15.073131401970738" id="-10235">
		<tag k="alt_name" v="Sannan" />
		<tag k="name" v="Sandan" />
		<tag k="natural" v="scree" />
=======
	<node id="-179340" lat="67.9281166684" lon="15.0026694416">
		<tag k="name" v="Fjellstad" />
>>>>>>> e1d4bc35ff8a6074a6f2e91616a996b547c36f15
		<tag k="place" v="locality" />
		<tag k="ssr:stedsnr" v="381249" />
	</node>
<<<<<<< HEAD
	<node lat="67.81115555314275" lon="15.296663886051844" id="-10243">
		<tag k="landuse" v="meadow" />
		<tag k="name" v="Medeng" />
		<tag k="ssr:stedsnr" v="381765" />
	</node>
	<node lat="67.64886388765716" lon="15.038844433507148" id="-10257">
		<tag k="name" v="Klekksreiret" />
=======
	<node id="-180875" lat="67.8910527765" lon="15.1458777707">
		<tag k="name" v="Munnerhola" />
>>>>>>> e1d4bc35ff8a6074a6f2e91616a996b547c36f15
		<tag k="place" v="locality" />
		<tag k="ssr:stedsnr" v="381797" />
	</node>
<<<<<<< HEAD
	<node lat="67.7959027740241" lon="15.032863886421401" id="-10275">
		<tag k="name" v="Saursfjordbogen" />
=======
	<node id="-180873" lat="67.8910916681" lon="15.1527333403">
		<tag k="name" v="Øvringan" />
>>>>>>> e1d4bc35ff8a6074a6f2e91616a996b547c36f15
		<tag k="place" v="locality" />
		<tag k="ssr:stedsnr" v="400555" />
	</node>
<<<<<<< HEAD
	<node lat="67.88322777845495" lon="15.115600005402577" id="-10284">
		<tag k="name" v="Kjerringvassmyra" />
=======
	<node id="-179841" lat="67.8070805551" lon="15.0432250078">
		<tag k="name" v="Skyttmyra" />
>>>>>>> e1d4bc35ff8a6074a6f2e91616a996b547c36f15
		<tag k="natural" v="wetland" />
		<tag k="ssr:stedsnr" v="400936" />
	</node>
<<<<<<< HEAD
	<node lat="67.95179166232991" lon="15.115919454165509" id="-10310">
		<tag k="name" v="Stormyran" />
		<tag k="natural" v="wetland" />
		<tag k="ssr:stedsnr" v="441226" />
	</node>
	<node lat="67.69242221819462" lon="15.386800003871091" id="-10326">
		<tag k="name" v="Storurda" />
		<tag k="natural" v="scree" />
		<tag k="ssr:stedsnr" v="441830" />
	</node>
	<node lat="67.70138055221999" lon="15.613591659634096" id="-10433">
=======
	<node id="-180244" lat="67.779386113" lon="15.0257305444">
		<tag k="name" v="Einvollmyra" />
		<tag k="natural" v="wetland" />
		<tag k="ssr:stedsnr" v="683960" />
	</node>
	<node id="-179821" lat="67.7013805522" lon="15.6135916596">
>>>>>>> e1d4bc35ff8a6074a6f2e91616a996b547c36f15
		<tag k="name" v="Tennsteinen" />
		<tag k="natural" v="stone" />
		<tag k="ssr:stedsnr" v="502832" />
	</node>
<<<<<<< HEAD
	<node lat="67.87584444294853" lon="15.07059443373113" id="-10468">
		<tag k="name" v="Kjemman" />
=======
	<node id="-179300" lat="67.8183972204" lon="15.2995333379">
		<tag k="landuse" v="meadow" />
		<tag k="name" v="Øvereng" />
		<tag k="ssr:stedsnr" v="260775" />
	</node>
	<node id="-182371" lat="67.6785194409" lon="14.9796611217">
		<tag k="loc_name" v="Finnhusmyra" />
		<tag k="name" v="Finnesmyra" />
>>>>>>> e1d4bc35ff8a6074a6f2e91616a996b547c36f15
		<tag k="natural" v="wetland" />
		<tag k="ssr:stedsnr" v="521932" />
	</node>
<<<<<<< HEAD
	<node lat="67.79661111549235" lon="15.284363888451852" id="-10482">
		<tag k="name" v="Hammarelvteigen" />
=======
	<node id="-180321" lat="67.8103583335" lon="15.7828055653">
		<tag k="name" v="Tverrelvskogen" />
>>>>>>> e1d4bc35ff8a6074a6f2e91616a996b547c36f15
		<tag k="place" v="locality" />
		<tag k="ssr:stedsnr" v="541351" />
	</node>
<<<<<<< HEAD
	<node lat="67.80490277570709" lon="15.020994455355227" id="-10615">
		<tag k="name" v="Tverrelvmyra" />
		<tag k="natural" v="wetland" />
		<tag k="ssr:stedsnr" v="582532" />
	</node>
	<node lat="67.80881388922626" lon="15.777558344005206" id="-10644">
		<tag k="name" v="Neversteinen" />
		<tag k="natural" v="scree" />
		<tag k="ssr:stedsnr" v="601463" />
	</node>
	<node lat="67.71571111452226" lon="15.105180552094028" id="-10658">
		<tag k="name" v="Fjellmyra" />
=======
	<node id="-182457" lat="67.6835666671" lon="14.7857777737">
		<tag k="name" v="Storurda" />
		<tag k="natural" v="scree" />
		<tag k="ssr:stedsnr" v="866778" />
	</node>
	<node id="-180812" lat="67.9680638913" lon="14.9900638971">
		<tag k="name" v="Søvet" />
>>>>>>> e1d4bc35ff8a6074a6f2e91616a996b547c36f15
		<tag k="natural" v="wetland" />
		<tag k="ssr:stedsnr" v="601627" />
	</node>
<<<<<<< HEAD
	<node lat="67.79298055414827" lon="14.920125004363259" id="-10666">
		<tag k="name" v="Saursmyra" />
		<tag k="natural" v="wetland" />
		<tag k="ssr:stedsnr" v="622981" />
	</node>
	<node lat="67.92071666535796" lon="15.21668610673287" id="-10686">
		<tag k="name" v="Sjømyra" />
=======
	<node id="-180799" lat="67.740452779" lon="15.0718666747">
		<tag k="name" v="Trolldalsmyran" />
>>>>>>> e1d4bc35ff8a6074a6f2e91616a996b547c36f15
		<tag k="natural" v="wetland" />
		<tag k="ssr:stedsnr" v="623193" />
	</node>
<<<<<<< HEAD
	<node lat="67.96994722062284" lon="15.083708341065712" id="-10762">
		<tag k="name" v="Lysmyran" />
=======
	<node id="-180141" lat="67.7157111145" lon="15.1051805521">
		<tag k="name" v="Fjellmyra" />
		<tag k="natural" v="wetland" />
		<tag k="ssr:stedsnr" v="601627" />
	</node>
	<node id="-180283" lat="67.7657416684" lon="15.0586111123">
		<tag k="name" v="Geithola" />
>>>>>>> e1d4bc35ff8a6074a6f2e91616a996b547c36f15
		<tag k="natural" v="wetland" />
		<tag k="ssr:stedsnr" v="643869" />
	</node>
<<<<<<< HEAD
	<node lat="67.88107499895763" lon="15.115827778799323" id="-10764">
		<tag k="name" v="Storora" />
		<tag k="natural" v="scree" />
		<tag k="ssr:stedsnr" v="643936" />
	</node>
	<node lat="67.81340833783163" lon="15.79206944294186" id="-10775">
		<tag k="name" v="Kvernsteinen" />
		<tag k="natural" v="stone" />
		<tag k="ssr:stedsnr" v="662476" />
	</node>
	<node lat="67.80981110708332" lon="15.771563884510252" id="-10798">
		<tag k="name" v="Fjellvegura" />
		<tag k="natural" v="scree" />
		<tag k="ssr:stedsnr" v="723481" />
	</node>
	<node lat="67.78384722521876" lon="14.873847215977394" id="-10823">
		<tag k="name" v="Svemyra" />
=======
	<node id="-182324" lat="67.9338027744" lon="14.9769111154">
		<tag k="name" v="Myra" />
		<tag k="place" v="locality" />
		<tag k="ssr:stedsnr" v="823175" />
	</node>
	<node id="-180273" lat="67.8662583354" lon="15.1772361107">
		<tag k="name" v="Nepreita" />
		<tag k="place" v="locality" />
		<tag k="ssr:stedsnr" v="886679" />
	</node>
	<node id="-181294" lat="67.7992527787" lon="14.9218805639">
		<tag k="alt_name" v="Brannhågmyra" />
		<tag k="name" v="Brannhaugmyra" />
		<tag k="natural" v="wetland" />
		<tag k="ssr:stedsnr" v="198999" />
	</node>
	<node id="-181287" lat="67.8184361155" lon="15.0984055555">
		<tag k="name" v="Saursfjordmyran" />
>>>>>>> e1d4bc35ff8a6074a6f2e91616a996b547c36f15
		<tag k="natural" v="wetland" />
		<tag k="ssr:stedsnr" v="723910" />
	</node>
<<<<<<< HEAD
	<node lat="67.7824416625597" lon="14.877763890704568" id="-10824">
		<tag k="name" v="Tingvalmyra" />
=======
	<node id="-181284" lat="67.783566671" lon="15.1287722137">
		<tag k="name" v="Lysmyran" />
>>>>>>> e1d4bc35ff8a6074a6f2e91616a996b547c36f15
		<tag k="natural" v="wetland" />
		<tag k="ssr:stedsnr" v="723912" />
	</node>
<<<<<<< HEAD
	<node lat="67.82620555536965" lon="14.796072226364121" id="-10914">
		<tag k="name" v="Hesteigan" />
=======
	<node id="-179232" lat="67.8790833328" lon="15.2150027812">
		<tag k="name" v="Svartskogen" />
>>>>>>> e1d4bc35ff8a6074a6f2e91616a996b547c36f15
		<tag k="place" v="locality" />
		<tag k="ssr:stedsnr" v="783538" />
	</node>
<<<<<<< HEAD
	<node lat="67.7584194448019" lon="15.124833332733548" id="-10924">
		<tag k="name" v="Sjymyra" />
=======
	<node id="-180763" lat="67.7978805544" lon="14.94583611">
		<tag k="name" v="Leirosdalsmyra" />
>>>>>>> e1d4bc35ff8a6074a6f2e91616a996b547c36f15
		<tag k="natural" v="wetland" />
		<tag k="ssr:stedsnr" v="784744" />
	</node>
<<<<<<< HEAD
	<node lat="67.90813888765078" lon="15.538002769580398" id="-10927">
		<tag k="name" v="Malågan" />
		<tag k="natural" v="wetland" />
		<tag k="ssr:stedsnr" v="784496" />
	</node>
	<node lat="67.87163889103205" lon="15.151702771843429" id="-10960">
		<tag k="name" v="Storvollen" />
=======
	<node id="-179220" lat="67.9705138935" lon="14.9749638806">
		<tag k="name" v="Stranda" />
		<tag k="place" v="locality" />
		<tag k="ssr:stedsnr" v="78234" />
	</node>
	<node id="-180752" lat="67.8046527781" lon="15.4819555446">
		<tag k="name" v="Kyrksteinen" />
		<tag k="natural" v="stone" />
		<tag k="ssr:stedsnr" v="16685" />
	</node>
	<node id="-179213" lat="67.7282388902" lon="15.1538972292">
		<tag k="alt_name" v="Breidvikmyran" />
		<tag k="name" v="Breivikmyran" />
>>>>>>> e1d4bc35ff8a6074a6f2e91616a996b547c36f15
		<tag k="natural" v="wetland" />
		<tag k="ssr:stedsnr" v="805830" />
	</node>
<<<<<<< HEAD
	<node lat="67.96168611475017" lon="15.06104167723864" id="-10993">
		<tag k="name" v="Gråsteinmyra" />
=======
	<node id="-181771" lat="67.8758444429" lon="15.0705944337">
		<tag k="name" v="Kjemman" />
>>>>>>> e1d4bc35ff8a6074a6f2e91616a996b547c36f15
		<tag k="natural" v="wetland" />
		<tag k="ssr:stedsnr" v="806198" />
	</node>
<<<<<<< HEAD
	<node lat="67.87900832932007" lon="15.05266665638238" id="-11054">
		<tag k="name" v="Åsmarka" />
		<tag k="place" v="locality" />
		<tag k="ssr:stedsnr" v="806839" />
	</node>
	<node lat="67.67851944086729" lon="14.979661121669434" id="-11094">
		<tag k="loc_name" v="Finnhusmyra" />
		<tag k="name" v="Finnesmyra" />
=======
	<node id="-181765" lat="67.7864694469" lon="15.2924166594">
		<tag k="name" v="Stormyra" />
		<tag k="natural" v="wetland" />
		<tag k="ssr:stedsnr" v="521812" />
	</node>
	<node id="-181250" lat="67.8092916666" lon="15.8047888813">
		<tag k="name" v="Dorthemyra" />
>>>>>>> e1d4bc35ff8a6074a6f2e91616a996b547c36f15
		<tag k="natural" v="wetland" />
		<tag k="ssr:stedsnr" v="845567" />
	</node>
<<<<<<< HEAD
	<node lat="67.66281666787728" lon="15.11830278829192" id="-11152">
		<tag k="name" v="Åslunden" />
		<tag k="place" v="locality" />
		<tag k="ssr:stedsnr" v="866745" />
	</node>
	<node lat="67.68356666707535" lon="14.785777773748787" id="-11161">
		<tag k="name" v="Storurda" />
		<tag k="natural" v="scree" />
		<tag k="ssr:stedsnr" v="866778" />
	</node>
	<node lat="67.70453333099377" lon="15.410744447185891" id="-11187">
		<tag k="name" v="Helldaløyra" />
		<tag k="place" v="locality" />
		<tag k="ssr:stedsnr" v="866860" />
	</node>
	<node lat="67.89061666588145" lon="14.99880832960998" id="-11188">
		<tag k="name" v="Skånlandsmarka" />
		<tag k="place" v="locality" />
		<tag k="ssr:stedsnr" v="866861" />
	</node>
	<node lat="67.7813000000102" lon="15.72259444393859" id="-11221">
		<tag k="name" v="Nondagsisen" />
		<tag k="natural" v="glacier" />
		<tag k="ssr:stedsnr" v="867311" />
	</node>
	<node lat="67.86625833540523" lon="15.177236110668666" id="-11254">
		<tag k="name" v="Nepreita" />
		<tag k="place" v="locality" />
		<tag k="ssr:stedsnr" v="886679" />
	</node>
	<node lat="67.76574166843814" lon="15.058611112344204" id="-11263">
		<tag k="name" v="Geithola" />
		<tag k="natural" v="wetland" />
		<tag k="ssr:stedsnr" v="886978" />
	</node>
	<node lat="67.94597222449715" lon="14.970955550353725" id="-11275">
		<tag k="name" v="Vollmoa" />
		<tag k="place" v="locality" />
		<tag k="ssr:stedsnr" v="946466" />
	</node>
	<node lat="67.87048333448627" lon="15.199533343374286" id="-11278">
		<tag k="name" v="Limahalsen" />
		<tag k="place" v="locality" />
		<tag k="ssr:stedsnr" v="946642" />
	</node>
	<node lat="67.92776944782061" lon="15.240919447320568" id="-11290">
		<tag k="name" v="Brennan" />
		<tag k="place" v="locality" />
		<tag k="ssr:stedsnr" v="947329" />
	</node>
	<node lat="67.75439999914288" lon="15.127369438131195" id="-11304">
		<tag k="name" v="Olaura" />
		<tag k="natural" v="scree" />
		<tag k="ssr:stedsnr" v="965716" />
	</node>
=======
>>>>>>> e1d4bc35ff8a6074a6f2e91616a996b547c36f15
</osm>
