<?xml version="1.0" encoding="UTF-8"?>
<<<<<<< HEAD
<osm version="0.6" generator="osmapis">
	<node lat="67.8922916681941" lon="15.134241676352035" id="-7979">
		<tag k="name" v="Lappstø" />
		<tag k="place" v="locality" />
		<tag k="ssr:stedsnr" v="36974" />
	</node>
	<node lat="67.71468611040562" lon="15.039972219804643" id="-8259">
=======
<osm generator="osmapis" version="0.6">
	<node id="-181798" lat="67.8119833307" lon="15.779277769">
		<tag k="highway" v="path" />
		<tag k="name" v="Fjellvegen" />
		<tag k="ssr:stedsnr" v="541504" />
	</node>
	<node id="-180124" lat="67.720444442" lon="14.8567916565">
		<tag k="highway" v="path" />
		<tag k="name" v="Knefallet" />
		<tag k="ssr:stedsnr" v="581126" />
	</node>
	<node id="-181785" lat="67.9674555543" lon="14.9937416546">
		<tag k="aeroway" v="airstrip" />
		<tag k="name" v="Engeløy flyplass, Grådussan" />
		<tag k="ssr:stedsnr" v="527879" />
	</node>
	<node id="-179415" lat="67.7146861104" lon="15.0399722198">
>>>>>>> e1d4bc35ff8a6074a6f2e91616a996b547c36f15
		<tag k="highway" v="path" />
		<tag k="name" v="Hellgata" />
		<tag k="ssr:stedsnr" v="199202" />
	</node>
<<<<<<< HEAD
	<node lat="67.75035833344248" lon="15.180666659403146" id="-8689">
		<tag k="junction" v="yes" />
		<tag k="name" v="Korsvegen" />
=======
	<node id="-179926" lat="67.7360499979" lon="14.9144638974">
		<tag k="highway" v="path" />
		<tag k="name" v="Dyrstigen" />
		<tag k="ssr:stedsnr" v="502144" />
	</node>
	<node id="-180403" lat="67.9105472205" lon="15.1309638878">
		<tag k="man_made" v="quay" />
		<tag k="name" v="Vikhamn" />
>>>>>>> e1d4bc35ff8a6074a6f2e91616a996b547c36f15
		<tag k="place" v="locality" />
		<tag k="ssr:stedsnr" v="461877" />
	</node>
	<node lat="67.96745555427167" lon="14.993741654619708" id="-8858">
		<tag k="aeroway" v="airstrip" />
		<tag k="name" v="Engeløy flyplass, Grådussan" />
		<tag k="ssr:stedsnr" v="527879" />
	</node>
<<<<<<< HEAD
	<node lat="67.8119833307249" lon="15.77927776898674" id="-8865">
=======
	<node id="-179218" lat="67.7261305534" lon="14.8990472112">
>>>>>>> e1d4bc35ff8a6074a6f2e91616a996b547c36f15
		<tag k="highway" v="path" />
		<tag k="name" v="Fjellvegen" />
		<tag k="ssr:stedsnr" v="541504" />
	</node>
<<<<<<< HEAD
	<node lat="67.73872221904742" lon="15.145616676196035" id="-8890">
		<tag k="highway" v="path" />
		<tag k="name" v="Djupdalsvegen" />
		<tag k="ssr:stedsnr" v="582803" />
	</node>
	<node lat="67.89494722568763" lon="15.15518889297089" id="-8972">
		<tag k="name" v="Naustberget" />
		<tag k="place" v="locality" />
		<tag k="ssr:stedsnr" v="703994" />
	</node>
	<node lat="67.79579722441203" lon="14.673558345456803" id="-8988">
		<tag k="name" v="Måløyleia" />
=======
	<node id="-181219" lat="67.7468527752" lon="14.9989361078">
		<tag k="highway" v="path" />
		<tag k="name" v="Høystien" />
		<tag k="ssr:stedsnr" v="157883" />
	</node>
	<node id="-180520" lat="67.8318638863" lon="15.0071472157">
		<tag k="man_made" v="tower" />
		<tag k="name" v="Tvsender" />
		<tag k="ssr:stedsnr" v="927760" />
		<tag k="tower:type" v="communications" />
	</node>
	<node id="-180204" lat="67.9282194489" lon="15.4686888887">
		<tag k="junction" v="yes" />
		<tag k="name" v="Skranstadkrysset" />
>>>>>>> e1d4bc35ff8a6074a6f2e91616a996b547c36f15
		<tag k="place" v="locality" />
		<tag k="ssr:stedsnr" v="640004" />
	</node>
<<<<<<< HEAD
	<node lat="67.91054722050323" lon="15.130963887792621" id="-9213">
		<tag k="man_made" v="quay" />
		<tag k="name" v="Vikhamn" />
=======
	<node id="-180107" lat="67.8949472257" lon="15.155188893">
		<tag k="name" v="Naustberget" />
>>>>>>> e1d4bc35ff8a6074a6f2e91616a996b547c36f15
		<tag k="place" v="locality" />
		<tag k="ssr:stedsnr" v="764901" />
	</node>
	<node lat="67.72828055878398" lon="14.89672500844291" id="-9222">
		<tag k="highway" v="path" />
		<tag k="name" v="Steinvegen" />
		<tag k="ssr:stedsnr" v="784564" />
	</node>
<<<<<<< HEAD
	<node lat="67.83186388626544" lon="15.00714721573773" id="-9424">
		<tag k="man_made" v="tower" />
		<tag k="name" v="Tvsender" />
		<tag k="ssr:stedsnr" v="927760" />
		<tag k="tower:type" v="communications" />
	</node>
	<node lat="67.72613055342973" lon="14.899047211176716" id="-9667">
		<tag k="highway" v="path" />
		<tag k="name" v="Fjellvegen" />
		<tag k="ssr:stedsnr" v="78228" />
	</node>
	<node lat="67.74685277523119" lon="14.998936107785283" id="-9837">
=======
	<node id="-180872" lat="67.8922916682" lon="15.1342416764">
		<tag k="name" v="Lappstø" />
		<tag k="place" v="locality" />
		<tag k="ssr:stedsnr" v="36974" />
	</node>
	<node id="-181564" lat="67.7291749955" lon="14.7994000061">
		<tag k="highway" v="path" />
		<tag k="name" v="Steingården" />
		<tag k="ssr:stedsnr" v="363816" />
	</node>
	<node id="-180198" lat="67.7957972244" lon="14.6735583455">
		<tag k="name" v="Måløyleia" />
		<tag k="place" v="locality" />
		<tag k="ssr:stedsnr" v="640004" />
	</node>
	<node id="-181924" lat="67.738722219" lon="15.1456166762">
		<tag k="highway" v="path" />
		<tag k="name" v="Djupdalsvegen" />
		<tag k="ssr:stedsnr" v="582803" />
	</node>
	<node id="-182230" lat="67.7282805588" lon="14.8967250084">
>>>>>>> e1d4bc35ff8a6074a6f2e91616a996b547c36f15
		<tag k="highway" v="path" />
		<tag k="name" v="Steinvegen" />
		<tag k="ssr:stedsnr" v="784564" />
	</node>
<<<<<<< HEAD
	<node lat="67.72917499549452" lon="14.799400006055766" id="-10180">
		<tag k="highway" v="path" />
		<tag k="name" v="Steingården" />
		<tag k="ssr:stedsnr" v="363816" />
	</node>
	<node lat="67.73604999786333" lon="14.91446389737044" id="-10402">
		<tag k="highway" v="path" />
		<tag k="name" v="Dyrstigen" />
		<tag k="ssr:stedsnr" v="502144" />
	</node>
	<node lat="67.72044444200257" lon="14.85679165654864" id="-10606">
		<tag k="highway" v="path" />
		<tag k="name" v="Knefallet" />
		<tag k="ssr:stedsnr" v="581126" />
	</node>
	<node lat="67.9282194489025" lon="15.468688888656215" id="-10773">
		<tag k="junction" v="yes" />
		<tag k="name" v="Skranstadkrysset" />
		<tag k="place" v="locality" />
		<tag k="ssr:stedsnr" v="662279" />
=======
	<node id="-179656" lat="67.7503583334" lon="15.1806666594">
		<tag k="junction" v="yes" />
		<tag k="name" v="Korsvegen" />
		<tag k="place" v="locality" />
		<tag k="ssr:stedsnr" v="461877" />
>>>>>>> e1d4bc35ff8a6074a6f2e91616a996b547c36f15
	</node>
</osm>
