<?xml version="1.0" encoding="UTF-8"?>
<<<<<<< HEAD
<osm version="0.6" generator="osmapis">
	<node lat="67.78118333431323" lon="15.03988332500836" id="-7927">
		<tag k="name" v="Myklebostadelva" />
		<tag k="ssr:stedsnr" v="16959" />
		<tag k="waterway" v="river" />
	</node>
	<node lat="67.94185277766445" lon="15.668394432226599" id="-7933">
		<tag k="name" v="Forselva" />
		<tag k="ssr:stedsnr" v="17208" />
		<tag k="waterway" v="river" />
	</node>
	<node lat="67.79296388605408" lon="15.766124996846175" id="-7942">
		<tag k="name" v="Tollknivelva" />
		<tag k="ssr:stedsnr" v="17310" />
		<tag k="waterway" v="stream" />
	</node>
	<node lat="67.75724444740467" lon="15.52794443447328" id="-7946">
		<tag k="name" v="Røyrvikelva" />
		<tag k="ssr:stedsnr" v="17720" />
		<tag k="waterway" v="stream" />
	</node>
	<node lat="67.82219166549925" lon="15.46752498980054" id="-7947">
		<tag k="name" v="Bjørsvikelva" />
		<tag k="ssr:stedsnr" v="17750" />
		<tag k="waterway" v="stream" />
	</node>
	<node lat="67.93430000152982" lon="15.28549722139072" id="-7970">
		<tag k="name" v="Mølnelva" />
		<tag k="ssr:stedsnr" v="36507" />
		<tag k="waterway" v="stream" />
	</node>
	<node lat="67.88394166688013" lon="15.06019443710117" id="-7977">
		<tag k="name" v="Sandneset" />
		<tag k="natural" v="cape" />
		<tag k="ssr:stedsnr" v="36923" />
	</node>
	<node lat="67.77253611566168" lon="15.23929999776891" id="-7983">
		<tag k="name" v="Kalvdalelva" />
		<tag k="ssr:stedsnr" v="36880" />
		<tag k="waterway" v="stream" />
	</node>
	<node lat="67.82105833052675" lon="15.378827787048875" id="-7993">
		<tag k="name" v="Andersnes" />
		<tag k="natural" v="cape" />
		<tag k="ssr:stedsnr" v="238246" />
	</node>
	<node lat="67.72128333440656" lon="14.911055556575558" id="-7998">
		<tag k="name" v="Skarelva" />
		<tag k="ssr:stedsnr" v="238552" />
		<tag k="waterway" v="stream" />
	</node>
	<node lat="67.72197222286808" lon="15.149836120275268" id="-8004">
		<tag k="name" v="Breivikelva" />
		<tag k="ssr:stedsnr" v="238662" />
		<tag k="waterway" v="stream" />
	</node>
	<node lat="67.70791388963856" lon="15.09746943386227" id="-8019">
		<tag k="name" v="Bustielva" />
		<tag k="ssr:stedsnr" v="56671" />
		<tag k="waterway" v="stream" />
	</node>
	<node lat="67.84363889078195" lon="15.032313882335261" id="-8027">
		<tag k="name" v="Kløftelva" />
		<tag k="ssr:stedsnr" v="56987" />
		<tag k="waterway" v="stream" />
	</node>
	<node lat="67.90406388960173" lon="15.568663888034697" id="-8039">
		<tag k="alt_name" v="Malågvatnet" />
		<tag k="name" v="Malåvatnet" />
		<tag k="natural" v="water" />
		<tag k="ssr:stedsnr" v="77548" />
		<tag k="water" v="lake" />
	</node>
	<node lat="67.77327222634611" lon="15.125949990663708" id="-8050">
		<tag k="name" v="Skyttelva" />
		<tag k="ssr:stedsnr" v="77915" />
		<tag k="waterway" v="river" />
	</node>
	<node lat="67.79838888499539" lon="15.6703527708173" id="-8066">
		<tag k="name" v="Skjelelva" />
		<tag k="ssr:stedsnr" v="78206" />
		<tag k="waterway" v="stream" />
	</node>
	<node lat="67.8666277765987" lon="15.26163611610615" id="-8075">
		<tag k="alt_name" v="Breiddalsvatnan" />
		<tag k="name" v="Breidalsvatnan" />
		<tag k="natural" v="water" />
		<tag k="ssr:stedsnr" v="78504" />
		<tag k="water" v="lake" />
	</node>
	<node lat="67.66693611297909" lon="15.597172224088748" id="-8080">
		<tag k="name" v="Litlvatnet" />
		<tag k="natural" v="water" />
		<tag k="ssr:stedsnr" v="78855" />
	</node>
	<node lat="67.65919167110438" lon="15.582394443553628" id="-8081">
		<tag k="name" v="Langvatnet" />
		<tag k="natural" v="water" />
		<tag k="ssr:stedsnr" v="78858" />
	</node>
	<node lat="67.83688888889792" lon="15.800491659540254" id="-8100">
		<tag k="name" v="Nordskjellelva" />
		<tag k="ssr:stedsnr" v="116479" />
		<tag k="waterway" v="stream" />
	</node>
	<node lat="67.82128055834876" lon="15.787444447842269" id="-8101">
		<tag k="name" v="Nordmelelvan" />
		<tag k="ssr:stedsnr" v="116483" />
		<tag k="waterway" v="stream" />
	</node>
	<node lat="67.8672805538953" lon="15.160355558196198" id="-8115">
		<tag k="alt_name" v="Furevatnet" />
		<tag k="fixme" v="multiple name tags, choose one and add the other to alt_name" />
		<tag k="name" v="Lilandsvatnet;Førvatnet" />
		<tag k="natural" v="water" />
		<tag k="ssr:stedsnr" v="137822" />
	</node>
	<node lat="67.65428055888135" lon="15.234180561863225" id="-8139">
		<tag k="name" v="Durmålsvatnet" />
		<tag k="natural" v="water" />
		<tag k="ssr:stedsnr" v="138848" />
	</node>
	<node lat="67.8119666708437" lon="15.283813880509486" id="-8142">
		<tag k="name" v="Laksåvatnet" />
		<tag k="natural" v="water" />
		<tag k="ssr:stedsnr" v="138744" />
		<tag k="water" v="lake" />
	</node>
	<node lat="67.91940000326872" lon="15.051322232171005" id="-8161">
		<tag k="name" v="Sandvågelva" />
		<tag k="ssr:stedsnr" v="158650" />
		<tag k="waterway" v="stream" />
	</node>
	<node lat="67.79739444254366" lon="15.209983325223286" id="-8170">
		<tag k="name" v="Gjerdneset" />
		<tag k="natural" v="cape" />
		<tag k="ssr:stedsnr" v="258942" />
	</node>
	<node lat="67.92373333134805" lon="15.509549993052921" id="-8181">
		<tag k="name" v="Slettheivatnet" />
		<tag k="natural" v="water" />
		<tag k="ssr:stedsnr" v="259545" />
	</node>
	<node lat="67.78735555557533" lon="15.282699989482166" id="-8185">
		<tag k="name" v="Mølnelva" />
		<tag k="ssr:stedsnr" v="259678" />
		<tag k="waterway" v="stream" />
	</node>
	<node lat="67.80017500451328" lon="15.566819434747908" id="-8188">
		<tag k="name" v="Revvatnan" />
		<tag k="natural" v="water" />
		<tag k="ssr:stedsnr" v="259696" />
		<tag k="water" v="lake" />
	</node>
	<node lat="67.81936944639955" lon="15.012811117555906" id="-8194">
		<tag k="alt_name" v="Bjørndalsvatnet, store" />
		<tag k="name" v="Store Bjørndalsvatnet" />
		<tag k="natural" v="water" />
		<tag k="ssr:stedsnr" v="259792" />
	</node>
	<node lat="67.81263055497142" lon="15.788222209995045" id="-8214">
		<tag k="name" v="Tverrelva" />
		<tag k="ssr:stedsnr" v="260242" />
		<tag k="waterway" v="stream" />
	</node>
	<node lat="67.93528333237398" lon="15.594594455642792" id="-8226">
		<tag k="name" v="Jordbærelva" />
		<tag k="ssr:stedsnr" v="177469" />
		<tag k="waterway" v="stream" />
	</node>
	<node lat="67.79596944358607" lon="15.050341671711971" id="-8232">
		<tag k="name" v="Mjølnelva" />
		<tag k="ssr:stedsnr" v="177668" />
		<tag k="waterway" v="stream" />
	</node>
	<node lat="67.82388333423663" lon="14.886569441459125" id="-8250">
		<tag k="name" v="Lundvatnet" />
		<tag k="natural" v="water" />
		<tag k="ssr:stedsnr" v="198770" />
		<tag k="water" v="lake" />
	</node>
	<node lat="67.95769722159956" lon="14.997802771553879" id="-8260">
		<tag k="name" v="Dragarelva" />
		<tag k="ssr:stedsnr" v="199205" />
		<tag k="waterway" v="stream" />
	</node>
	<node lat="67.69012222021132" lon="14.97493611678405" id="-8265">
		<tag k="alt_name" v="Flekkosvatnan, nedre" />
		<tag k="loc_name" v="Første Flekkosvatnet" />
		<tag k="name" v="Nedre Flekkosvatnan" />
		<tag k="natural" v="water" />
		<tag k="ssr:stedsnr" v="199256" />
	</node>
	<node lat="67.88258610918191" lon="15.027774989062982" id="-8285">
		<tag k="fixme" v="multiple name tags, choose one and add the other to alt_name" />
		<tag k="name" v="Gynnelvatnet;Markvatnet" />
		<tag k="natural" v="water" />
		<tag k="ssr:stedsnr" v="199865" />
		<tag k="water" v="lake" />
	</node>
	<node lat="67.68840555200846" lon="15.002194432500445" id="-8290">
		<tag k="name" v="Flekkoselvfossen" />
		<tag k="natural" v="waterfall" />
		<tag k="ssr:stedsnr" v="210529" />
	</node>
	<node lat="67.77073888470753" lon="15.248047230416104" id="-8303">
		<tag k="name" v="Hestvikneselva" />
		<tag k="ssr:stedsnr" v="218892" />
		<tag k="waterway" v="stream" />
	</node>
	<node lat="67.76756944722985" lon="15.180727777314171" id="-8308">
		<tag k="name" v="Storkroken" />
		<tag k="natural" v="bay" />
		<tag k="ssr:stedsnr" v="218910" />
	</node>
	<node lat="67.80392499828785" lon="15.747247221044335" id="-8321">
		<tag k="name" v="Futmoelva" />
		<tag k="ssr:stedsnr" v="237490" />
		<tag k="waterway" v="stream" />
	</node>
	<node lat="67.75377222456335" lon="15.113969437713665" id="-8330">
		<tag k="name" v="Møllelva" />
		<tag k="ssr:stedsnr" v="238735" />
		<tag k="waterway" v="stream" />
	</node>
	<node lat="67.78735833093852" lon="15.203019454906288" id="-8331">
		<tag k="name" v="Sandneset" />
		<tag k="natural" v="cape" />
		<tag k="ssr:stedsnr" v="238738" />
	</node>
	<node lat="67.68972777718777" lon="14.891830552130717" id="-8342">
		<tag k="name" v="Synstelvvatnet" />
		<tag k="natural" v="water" />
		<tag k="ssr:stedsnr" v="259202" />
		<tag k="water" v="lake" />
	</node>
	<node lat="67.81068611413946" lon="15.154913877895254" id="-8353">
		<tag k="alt_name" v="Øverdalvatnet" />
		<tag k="name" v="Øverdalsvatnet" />
		<tag k="natural" v="water" />
		<tag k="ssr:stedsnr" v="259973" />
	</node>
	<node lat="67.68390000158402" lon="15.457797223998366" id="-8363">
		<tag k="name" v="Sandnes" />
		<tag k="natural" v="cape" />
		<tag k="ssr:stedsnr" v="259843" />
	</node>
	<node lat="67.67334166682464" lon="15.680463877976644" id="-8364">
		<tag k="name" v="Tennvatnet" />
		<tag k="natural" v="water" />
		<tag k="ssr:stedsnr" v="259845" />
		<tag k="water" v="lake" />
	</node>
	<node lat="68.00596388632407" lon="15.174197213690086" id="-8367">
		<tag k="name" v="Nordosen" />
		<tag k="natural" v="bay" />
		<tag k="ssr:stedsnr" v="259863" />
	</node>
	<node lat="67.94425278087037" lon="15.66213333653691" id="-8377">
		<tag k="name" v="Heielva" />
		<tag k="ssr:stedsnr" v="260601" />
		<tag k="waterway" v="stream" />
	</node>
	<node lat="68.01073333243302" lon="15.200369437628567" id="-8378">
		<tag k="name" v="Førstevatnet" />
		<tag k="natural" v="water" />
		<tag k="ssr:stedsnr" v="260903" />
	</node>
	<node lat="67.76249166366728" lon="15.191391660085856" id="-8409">
		<tag k="name" v="Lomtjønna" />
		<tag k="natural" v="water" />
		<tag k="ssr:stedsnr" v="461887" />
	</node>
	<node lat="67.71774444246043" lon="15.017266657740588" id="-8458">
		<tag k="name" v="Nonselva" />
		<tag k="ssr:stedsnr" v="320190" />
		<tag k="waterway" v="river" />
	</node>
	<node lat="67.83384444461635" lon="15.818725005541317" id="-8459">
		<tag k="name" v="Langodden" />
		<tag k="natural" v="cape" />
		<tag k="ssr:stedsnr" v="320191" />
	</node>
	<node lat="67.81389444398697" lon="15.734086114355737" id="-8462">
		<tag k="name" v="Tverrelva" />
		<tag k="ssr:stedsnr" v="320459" />
		<tag k="waterway" v="stream" />
	</node>
	<node lat="67.8219694490708" lon="15.293613886472187" id="-8477">
		<tag k="alt_name" v="Stokkvasselv" />
		<tag k="name" v="Stokkvasselva" />
		<tag k="ssr:stedsnr" v="320733" />
		<tag k="waterway" v="stream" />
	</node>
	<node lat="67.78294722225803" lon="15.29611944403175" id="-8497">
		<tag k="name" v="Mølnvikelva" />
		<tag k="ssr:stedsnr" v="339852" />
		<tag k="waterway" v="stream" />
	</node>
	<node lat="67.71958055725595" lon="15.37702777495085" id="-8504">
		<tag k="name" v="Endneselva" />
		<tag k="ssr:stedsnr" v="359322" />
		<tag k="waterway" v="stream" />
	</node>
	<node lat="67.81415555217856" lon="15.711500009629178" id="-8528">
		<tag k="name" v="Storelva" />
		<tag k="ssr:stedsnr" v="480507" />
		<tag k="waterway" v="stream" />
	</node>
	<node lat="67.81194444875561" lon="15.74325555061516" id="-8529">
		<tag k="name" v="Eldhuselva" />
		<tag k="ssr:stedsnr" v="480510" />
		<tag k="waterway" v="stream" />
	</node>
	<node lat="67.67416666412596" lon="14.958316658516306" id="-8534">
		<tag k="name" v="Trettvikelva" />
		<tag k="ssr:stedsnr" v="480533" />
		<tag k="waterway" v="stream" />
	</node>
	<node lat="67.68581110845867" lon="15.321352783592147" id="-8538">
		<tag k="name" v="Brattfjordelva" />
		<tag k="ssr:stedsnr" v="480736" />
		<tag k="waterway" v="stream" />
	</node>
	<node lat="67.74055278000786" lon="14.975586117189836" id="-8553">
		<tag k="name" v="Gyllsetelva" />
		<tag k="ssr:stedsnr" v="380174" />
		<tag k="waterway" v="stream" />
	</node>
	<node lat="67.84986944934023" lon="15.069208323486796" id="-8561">
		<tag k="name" v="Nonsvatnet" />
		<tag k="natural" v="water" />
		<tag k="ssr:stedsnr" v="380804" />
		<tag k="water" v="lake" />
	</node>
	<node lat="67.83767777539438" lon="15.20172500732882" id="-8567">
		<tag k="alt_name" v="Andrevatnet" />
		<tag k="name" v="Mellavatnet" />
		<tag k="natural" v="water" />
		<tag k="ssr:stedsnr" v="380776" />
		<tag k="water" v="lake" />
	</node>
	<node lat="67.93438056000794" lon="15.215299992220752" id="-8596">
		<tag k="name" v="Moelva" />
		<tag k="ssr:stedsnr" v="400576" />
		<tag k="waterway" v="stream" />
	</node>
	<node lat="67.7350694406777" lon="15.147911105416075" id="-8599">
		<tag k="name" v="Slipstolelva" />
		<tag k="ssr:stedsnr" v="400794" />
		<tag k="waterway" v="river" />
	</node>
	<node lat="67.66743888681852" lon="14.914975003665536" id="-8635">
		<tag k="name" v="Myrelva" />
		<tag k="ssr:stedsnr" v="441814" />
		<tag k="waterway" v="stream" />
	</node>
	<node lat="67.73701388944238" lon="15.59434721648545" id="-8637">
		<tag k="name" v="Martnesvikvatnet" />
		<tag k="natural" v="water" />
		<tag k="ssr:stedsnr" v="441869" />
	</node>
	<node lat="67.808302775251" lon="15.758702776465856" id="-8657">
		<tag k="name" v="Storelva" />
		<tag k="ssr:stedsnr" v="442240" />
		<tag k="waterway" v="river" />
	</node>
	<node lat="67.8282750010171" lon="15.47620278342606" id="-8669">
		<tag k="name" v="Elvkrokan" />
		<tag k="natural" v="cape" />
		<tag k="ssr:stedsnr" v="442754" />
	</node>
	<node lat="67.74013055835285" lon="15.484355550163187" id="-8672">
		<tag k="name" v="Øvervatnet" />
		<tag k="natural" v="water" />
		<tag k="ssr:stedsnr" v="442807" />
	</node>
	<node lat="67.75889444297698" lon="15.473044441505387" id="-8693">
		<tag k="name" v="Durmålstjernet" />
		<tag k="natural" v="water" />
		<tag k="ssr:stedsnr" v="480306" />
	</node>
	<node lat="67.9318777746947" lon="15.593936099966024" id="-8701">
		<tag k="name" v="Moelva" />
		<tag k="ssr:stedsnr" v="480456" />
		<tag k="waterway" v="stream" />
	</node>
	<node lat="67.79796388975342" lon="14.954538877439413" id="-8704">
		<tag k="name" v="Langhola" />
		<tag k="natural" v="water" />
		<tag k="ssr:stedsnr" v="480622" />
		<tag k="water" v="lake" />
	</node>
	<node lat="67.79972499883897" lon="15.011200007876893" id="-8727">
		<tag k="alt_name" v="Bjønndalselva" />
		<tag k="fixme" v="multiple name tags, choose one and add the other to alt_name" />
		<tag k="name" v="Saurselva;Bjørndalselva" />
		<tag k="ssr:stedsnr" v="501996" />
		<tag k="waterway" v="river" />
	</node>
	<node lat="67.72787500373971" lon="15.104055565710294" id="-8735">
		<tag k="alt_name" v="Vallevatnet" />
		<tag k="name" v="Vallvatnet" />
		<tag k="natural" v="water" />
		<tag k="ssr:stedsnr" v="502175" />
		<tag k="water" v="lake" />
	</node>
	<node lat="67.72589999931371" lon="14.987627769038342" id="-8737">
		<tag k="name" v="Galtvatnet" />
		<tag k="natural" v="water" />
		<tag k="ssr:stedsnr" v="502181" />
	</node>
	<node lat="67.86981110844218" lon="15.25788610116303" id="-8742">
		<tag k="alt_name" v="Breiddalselva" />
		<tag k="name" v="Breidalselva" />
		<tag k="ssr:stedsnr" v="502503" />
		<tag k="waterway" v="stream" />
	</node>
	<node lat="67.7739722190589" lon="15.25715277814121" id="-8756">
		<tag k="name" v="Grytvikelva" />
		<tag k="ssr:stedsnr" v="502708" />
		<tag k="waterway" v="stream" />
	</node>
	<node lat="67.80044722094048" lon="15.549836110819633" id="-8757">
		<tag k="alt_name" v="Reva, l" />
		<tag k="name" v="Litle Reva" />
		<tag k="ssr:stedsnr" v="502713" />
		<tag k="waterway" v="stream" />
	</node>
	<node lat="67.74696389307549" lon="15.48249721926513" id="-8762">
		<tag k="name" v="Nervatnet" />
		<tag k="natural" v="water" />
		<tag k="ssr:stedsnr" v="502790" />
	</node>
	<node lat="67.77410555838215" lon="15.11461112087263" id="-8763">
		<tag k="name" v="Lagmannsoselva" />
		<tag k="old_name" v="Lamansoselva" />
		<tag k="ssr:stedsnr" v="502925" />
		<tag k="waterway" v="stream" />
	</node>
	<node lat="67.70726666948413" lon="15.342705548191107" id="-8773">
		<tag k="name" v="Småvatnan" />
		<tag k="natural" v="water" />
		<tag k="ssr:stedsnr" v="502876" />
	</node>
	<node lat="67.82608333009321" lon="15.080980551463252" id="-8793">
		<tag k="fixme" v="multiple name tags, choose one and add the other to alt_name" />
		<tag k="name" v="Lappjordelva;Trolldalselva" />
		<tag k="ssr:stedsnr" v="684172" />
		<tag k="waterway" v="river" />
	</node>
	<node lat="67.93785278062451" lon="15.054511117676839" id="-8803">
		<tag k="name" v="Trollvatnan" />
		<tag k="natural" v="water" />
		<tag k="ssr:stedsnr" v="684231" />
		<tag k="water" v="lake" />
	</node>
	<node lat="67.93329444593567" lon="15.283324988232277" id="-8812">
		<tag k="name" v="Lågen" />
		<tag k="natural" v="water" />
		<tag k="ssr:stedsnr" v="684558" />
	</node>
	<node lat="67.80351666400124" lon="15.527083327165391" id="-8819">
		<tag k="name" v="Djupvikvatnet" />
		<tag k="natural" v="water" />
		<tag k="ssr:stedsnr" v="684693" />
	</node>
	<node lat="67.82125832922682" lon="15.035772216268459" id="-8823">
		<tag k="alt_name" v="Bjørndalsvatnet, l" />
		<tag k="fixme" v="multiple name tags, choose one and add the other to alt_name" />
		<tag k="name" v="Bjønndalsvatnet;Litl Bjørndalsvatnet" />
		<tag k="natural" v="water" />
		<tag k="ssr:stedsnr" v="684780" />
	</node>
	<node lat="67.66988611298311" lon="15.283519455713396" id="-8828">
		<tag k="name" v="Trollvatnet" />
		<tag k="natural" v="water" />
		<tag k="ssr:stedsnr" v="684846" />
		<tag k="water" v="lake" />
	</node>
	<node lat="67.86820555369549" lon="14.967127767903891" id="-8830">
		<tag k="fixme" v="multiple name tags, choose one and add the other to alt_name" />
		<tag k="name" v="Hasselbakkelva;Laukbakkelva" />
		<tag k="ssr:stedsnr" v="684854" />
		<tag k="waterway" v="stream" />
	</node>
	<node lat="67.82063610729212" lon="15.125486114515878" id="-8845">
		<tag k="name" v="Stuvatnet" />
		<tag k="natural" v="water" />
		<tag k="ssr:stedsnr" v="684975" />
	</node>
	<node lat="67.8664472246051" lon="15.12745555153137" id="-8846">
		<tag k="name" v="Melkneset" />
		<tag k="natural" v="cape" />
		<tag k="ssr:stedsnr" v="521582" />
	</node>
	<node lat="67.64607777451525" lon="15.479899998242622" id="-8863">
		<tag k="name" v="Sentjernan" />
		<tag k="natural" v="water" />
		<tag k="ssr:stedsnr" v="541325" />
	</node>
	<node lat="67.83805555987902" lon="15.153622225472507" id="-8885">
		<tag k="name" v="Kattdalselva" />
		<tag k="ssr:stedsnr" v="582052" />
		<tag k="waterway" v="stream" />
	</node>
	<node lat="67.74381666946714" lon="15.157997226514455" id="-8897">
		<tag k="name" v="Fjelldalelva" />
		<tag k="ssr:stedsnr" v="582797" />
		<tag k="waterway" v="stream" />
	</node>
	<node lat="67.81430278034732" lon="15.72106944195269" id="-8941">
		<tag k="name" v="Vikelva" />
		<tag k="ssr:stedsnr" v="623481" />
		<tag k="waterway" v="stream" />
	</node>
	<node lat="67.85681944264321" lon="15.48731111282106" id="-8944">
		<tag k="name" v="Lommervatnet" />
		<tag k="natural" v="water" />
		<tag k="ssr:stedsnr" v="623523" />
	</node>
	<node lat="67.90791944222474" lon="15.47614167596392" id="-8946">
		<tag k="name" v="Skranstadvatnet" />
		<tag k="natural" v="water" />
		<tag k="ssr:stedsnr" v="623566" />
		<tag k="water" v="lake" />
	</node>
	<node lat="67.78390277511282" lon="15.228861113144461" id="-8949">
		<tag k="name" v="Litlvatnet" />
=======
<osm generator="osmapis" version="0.6">
	<node id="-180221" lat="67.7476027739" lon="15.137505553">
		<tag k="name" v="Skoglivatnet" />
		<tag k="natural" v="water" />
		<tag k="ssr:stedsnr" v="906762" />
	</node>
	<node id="-182268" lat="67.849669443" lon="15.5812555657">
		<tag k="name" v="Storvikodden" />
		<tag k="natural" v="cape" />
		<tag k="ssr:stedsnr" v="806180" />
	</node>
	<node id="-180218" lat="67.6945583299" lon="15.0568527667">
		<tag k="name" v="Håsandelva" />
		<tag k="ssr:stedsnr" v="662666" />
		<tag k="waterway" v="stream" />
	</node>
	<node id="-180213" lat="67.7810027738" lon="15.1922777665">
		<tag k="name" v="Gamhågelva" />
		<tag k="ssr:stedsnr" v="662737" />
		<tag k="waterway" v="stream" />
	</node>
	<node id="-182253" lat="67.8281805546" lon="15.109208326">
		<tag k="name" v="Snøselva" />
		<tag k="ssr:stedsnr" v="805739" />
		<tag k="waterway" v="stream" />
	</node>
	<node id="-182250" lat="68.0034722239" lon="15.1678611067">
		<tag k="name" v="Sørosen" />
		<tag k="natural" v="bay" />
		<tag k="ssr:stedsnr" v="805852" />
	</node>
	<node id="-182248" lat="67.8474777795" lon="15.193930558">
		<tag k="name" v="Holmåkelva" />
		<tag k="ssr:stedsnr" v="805797" />
		<tag k="waterway" v="stream" />
	</node>
	<node id="-182243" lat="67.803888887" lon="15.4898250043">
		<tag k="name" v="Storvikelva" />
		<tag k="ssr:stedsnr" v="805702" />
		<tag k="waterway" v="stream" />
	</node>
	<node id="-180194" lat="67.8923361136" lon="15.0291194501">
		<tag k="name" v="Røyrneset" />
		<tag k="natural" v="cape" />
		<tag k="ssr:stedsnr" v="299592" />
	</node>
	<node id="-182241" lat="67.8058222209" lon="15.6516083268">
		<tag k="name" v="Hopvatnet" />
		<tag k="natural" v="water" />
		<tag k="ssr:stedsnr" v="805699" />
		<tag k="water" v="lake" />
	</node>
	<node id="-182228" lat="67.8123361094" lon="15.7478472204">
		<tag k="name" v="Hammarelva" />
		<tag k="ssr:stedsnr" v="784535" />
		<tag k="waterway" v="stream" />
	</node>
	<node id="-182224" lat="67.9316583346" lon="15.7000694464">
		<tag k="name" v="Rein-Perodden" />
		<tag k="natural" v="cape" />
		<tag k="ssr:stedsnr" v="784424" />
	</node>
	<node id="-182222" lat="67.6739694465" lon="15.3174638819">
		<tag k="name" v="Rønna" />
		<tag k="ssr:stedsnr" v="784415" />
		<tag k="waterway" v="stream" />
	</node>
	<node id="-182208" lat="67.7275138915" lon="14.878213897">
		<tag k="name" v="Naustelva" />
		<tag k="ssr:stedsnr" v="764822" />
		<tag k="waterway" v="stream" />
	</node>
	<node id="-180149" lat="67.800988885" lon="15.3439249931">
		<tag k="name" v="Gulbrandelva" />
		<tag k="ssr:stedsnr" v="723324" />
		<tag k="waterway" v="stream" />
	</node>
	<node id="-180148" lat="67.6568527769" lon="15.4639722199">
		<tag k="name" v="Tverrelva" />
		<tag k="ssr:stedsnr" v="723321" />
		<tag k="waterway" v="stream" />
	</node>
	<node id="-180147" lat="67.8901277759" lon="15.3652388992">
		<tag k="name" v="Stordalsodden" />
		<tag k="natural" v="cape" />
		<tag k="ssr:stedsnr" v="723243" />
	</node>
	<node id="-180142" lat="67.7447166654" lon="15.0088972111">
		<tag k="name" v="Gråsteinelva" />
		<tag k="ssr:stedsnr" v="601586" />
		<tag k="waterway" v="stream" />
	</node>
	<node id="-180138" lat="67.9378138844" lon="15.6955527808">
		<tag k="name" v="Kvanntobukta" />
		<tag k="natural" v="bay" />
		<tag k="ssr:stedsnr" v="601372" />
	</node>
	<node id="-182177" lat="67.6529055595" lon="15.4677361086">
		<tag k="name" v="Lappvasselva" />
		<tag k="ssr:stedsnr" v="745931" />
		<tag k="waterway" v="river" />
	</node>
	<node id="-182176" lat="68.0135555524" lon="15.1950472303">
		<tag k="name" v="Mølnelva" />
		<tag k="ssr:stedsnr" v="745895" />
		<tag k="waterway" v="stream" />
	</node>
	<node id="-180125" lat="67.8380555599" lon="15.1536222255">
		<tag k="name" v="Kattdalselva" />
		<tag k="ssr:stedsnr" v="582052" />
		<tag k="waterway" v="stream" />
	</node>
	<node id="-180118" lat="67.7796666702" lon="15.2745611109">
		<tag k="name" v="Skjellelva" />
		<tag k="ssr:stedsnr" v="704852" />
		<tag k="waterway" v="stream" />
	</node>
	<node id="-182165" lat="67.8329277816" lon="15.7826833293">
		<tag k="alt_name" v="Heimerskjellelva" />
		<tag k="name" v="Heimarskilelva" />
		<tag k="ssr:stedsnr" v="745479" />
		<tag k="waterway" v="stream" />
	</node>
	<node id="-180111" lat="67.936477782" lon="15.151552768">
		<tag k="name" v="Ramselva" />
		<tag k="ssr:stedsnr" v="704697" />
		<tag k="waterway" v="stream" />
	</node>
	<node id="-182134" lat="67.8231222203" lon="14.8415777794">
		<tag k="alt_name" v="Nordskotvatnet, øvre" />
		<tag k="name" v="Øvre Nordskotvatnet" />
		<tag k="natural" v="water" />
		<tag k="ssr:stedsnr" v="744751" />
	</node>
	<node id="-180082" lat="67.8691944474" lon="15.3108250083">
		<tag k="name" v="Hattvatnet" />
		<tag k="natural" v="water" />
		<tag k="ssr:stedsnr" v="562511" />
	</node>
	<node id="-180079" lat="67.9476611139" lon="15.1038055668">
		<tag k="name" v="Skagstadvatnet" />
		<tag k="natural" v="water" />
		<tag k="ssr:stedsnr" v="562211" />
	</node>
	<node id="-182123" lat="67.7699722259" lon="15.2257027891">
		<tag k="name" v="Tverrelva" />
		<tag k="ssr:stedsnr" v="643872" />
		<tag k="waterway" v="stream" />
	</node>
	<node id="-180052" lat="67.6460777745" lon="15.4798999982">
		<tag k="name" v="Sentjernan" />
		<tag k="natural" v="water" />
		<tag k="ssr:stedsnr" v="541325" />
	</node>
	<node id="-180036" lat="67.8206361073" lon="15.1254861145">
		<tag k="name" v="Stuvatnet" />
		<tag k="natural" v="water" />
		<tag k="ssr:stedsnr" v="684975" />
	</node>
	<node id="-180022" lat="67.8682055537" lon="14.9671277679">
		<tag k="fixme" v="multiple name tags, choose one and add the other to alt_name" />
		<tag k="name" v="Hasselbakkelva;Laukbakkelva" />
		<tag k="ssr:stedsnr" v="684854" />
		<tag k="waterway" v="stream" />
	</node>
	<node id="-180020" lat="67.669886113" lon="15.2835194557">
		<tag k="name" v="Trollvatnet" />
		<tag k="natural" v="water" />
		<tag k="ssr:stedsnr" v="684846" />
		<tag k="water" v="lake" />
	</node>
	<node id="-180017" lat="67.6845277794" lon="14.9323361182">
		<tag k="name" v="Laukvikvatnet" />
		<tag k="natural" v="water" />
		<tag k="ssr:stedsnr" v="684802" />
	</node>
	<node id="-182063" lat="67.8943916662" lon="15.05250556">
		<tag k="name" v="Skånlandselva" />
		<tag k="ssr:stedsnr" v="623876" />
		<tag k="waterway" v="stream" />
	</node>
	<node id="-182062" lat="67.6545638919" lon="15.4286583284">
		<tag k="name" v="Kvitvatnet" />
		<tag k="natural" v="water" />
		<tag k="ssr:stedsnr" v="623871" />
		<tag k="water" v="lake" />
	</node>
	<node id="-180010" lat="67.8212583292" lon="15.0357722163">
		<tag k="alt_name" v="Bjørndalsvatnet, l" />
		<tag k="fixme" v="multiple name tags, choose one and add the other to alt_name" />
		<tag k="name" v="Bjønndalsvatnet;Litl Bjørndalsvatnet" />
		<tag k="natural" v="water" />
		<tag k="ssr:stedsnr" v="684780" />
	</node>
	<node id="-182056" lat="67.6833833352" lon="15.2645722125">
		<tag k="fixme" v="multiple name tags, choose one and add the other to alt_name" />
		<tag k="name" v="Trollelva;Trollvasselva" />
		<tag k="ssr:stedsnr" v="623843" />
		<tag k="waterway" v="stream" />
	</node>
	<node id="-180004" lat="67.803516664" lon="15.5270833272">
		<tag k="name" v="Djupvikvatnet" />
		<tag k="natural" v="water" />
		<tag k="ssr:stedsnr" v="684693" />
	</node>
	<node id="-182051" lat="67.8452916623" lon="15.095333334">
		<tag k="name" v="Rundvatnet" />
		<tag k="natural" v="water" />
		<tag k="ssr:stedsnr" v="623821" />
	</node>
	<node id="-182050" lat="67.8485777741" lon="15.0898111014">
		<tag k="name" v="Sagelva" />
		<tag k="ssr:stedsnr" v="623805" />
		<tag k="waterway" v="stream" />
	</node>
	<node id="-182047" lat="67.82463889" lon="14.8364305626">
		<tag k="alt_name" v="Nordskotvatnet, midtre" />
		<tag k="name" v="Midtre Nordskotvatnet" />
		<tag k="natural" v="water" />
		<tag k="ssr:stedsnr" v="623796" />
	</node>
	<node id="-179996" lat="67.9332944459" lon="15.2833249882">
		<tag k="name" v="Lågen" />
		<tag k="natural" v="water" />
		<tag k="ssr:stedsnr" v="684558" />
	</node>
	<node id="-182043" lat="67.8256027743" lon="15.6355916556">
		<tag k="name" v="Svartvatnet" />
		<tag k="natural" v="water" />
		<tag k="ssr:stedsnr" v="623742" />
	</node>
	<node id="-182042" lat="67.7965083327" lon="15.239586103">
		<tag k="name" v="Einangtjørna" />
		<tag k="natural" v="water" />
		<tag k="ssr:stedsnr" v="623733" />
	</node>
	<node id="-179991" lat="67.8344027746" lon="15.0488138825">
		<tag k="name" v="Trolldalsvatnet" />
		<tag k="natural" v="water" />
		<tag k="ssr:stedsnr" v="684749" />
	</node>
	<node id="-179986" lat="67.7986444486" lon="15.2797388953">
		<tag k="alt_name" v="Røyteelva" />
		<tag k="name" v="Røyrjetelva" />
		<tag k="ssr:stedsnr" v="684714" />
		<tag k="waterway" v="stream" />
	</node>
	<node id="-179985" lat="67.7970777734" lon="15.2935222197">
		<tag k="alt_name" v="Vasshovudet" />
		<tag k="name" v="Vasshauet" />
		<tag k="natural" v="beach" />
		<tag k="ssr:stedsnr" v="684713" />
	</node>
	<node id="-182032" lat="67.9079194422" lon="15.476141676">
		<tag k="name" v="Skranstadvatnet" />
		<tag k="natural" v="water" />
		<tag k="ssr:stedsnr" v="623566" />
		<tag k="water" v="lake" />
	</node>
	<node id="-182030" lat="67.908211107" lon="15.5407694466">
		<tag k="alt_name" v="Malågelva" />
		<tag k="name" v="Malåga" />
		<tag k="ssr:stedsnr" v="623553" />
		<tag k="waterway" v="stream" />
	</node>
	<node id="-182027" lat="67.8805249997" lon="15.4769833333">
		<tag k="name" v="Gongskardvatnet" />
		<tag k="natural" v="water" />
		<tag k="ssr:stedsnr" v="623536" />
	</node>
	<node id="-182026" lat="67.8852861144" lon="15.5039361181">
		<tag k="name" v="Straumfjordvatnet" />
		<tag k="natural" v="water" />
		<tag k="ssr:stedsnr" v="623534" />
		<tag k="water" v="lake" />
	</node>
	<node id="-182024" lat="67.8568194426" lon="15.4873111128">
		<tag k="name" v="Lommervatnet" />
		<tag k="natural" v="water" />
		<tag k="ssr:stedsnr" v="623523" />
	</node>
	<node id="-182020" lat="67.8056888851" lon="15.8280333401">
		<tag k="name" v="Sørkvanntelva" />
		<tag k="ssr:stedsnr" v="623492" />
		<tag k="waterway" v="river" />
	</node>
	<node id="-182019" lat="67.8143027803" lon="15.721069442">
		<tag k="name" v="Vikelva" />
		<tag k="ssr:stedsnr" v="623481" />
		<tag k="waterway" v="stream" />
	</node>
	<node id="-179969" lat="67.8260833301" lon="15.0809805515">
		<tag k="fixme" v="multiple name tags, choose one and add the other to alt_name" />
		<tag k="name" v="Lappjordelva;Trolldalselva" />
		<tag k="ssr:stedsnr" v="684172" />
		<tag k="waterway" v="river" />
	</node>
	<node id="-179964" lat="67.7089194425" lon="15.0742027876">
		<tag k="name" v="Seglsteinelva" />
		<tag k="ssr:stedsnr" v="684249" />
		<tag k="waterway" v="river" />
	</node>
	<node id="-182004" lat="67.7417666654" lon="15.0346805514">
		<tag k="name" v="Pøyla" />
		<tag k="place" v="locality" />
		<tag k="ssr:stedsnr" v="623192" />
	</node>
	<node id="-179949" lat="67.7950444425" lon="14.9867222323">
		<tag k="name" v="Omunddalselva" />
		<tag k="ssr:stedsnr" v="683999" />
		<tag k="waterway" v="stream" />
	</node>
	<node id="-179944" lat="67.8490027778" lon="15.2558638945">
		<tag k="loc_name" v="Tverrelvvatnan" />
		<tag k="name" v="Norddalsvatnan" />
		<tag k="natural" v="water" />
		<tag k="ssr:stedsnr" v="502756" />
		<tag k="water" v="lake" />
	</node>
	<node id="-179940" lat="67.8004472209" lon="15.5498361108">
		<tag k="alt_name" v="Reva, l" />
		<tag k="name" v="Litle Reva" />
		<tag k="ssr:stedsnr" v="502713" />
		<tag k="waterway" v="stream" />
	</node>
	<node id="-179939" lat="67.7739722191" lon="15.2571527781">
		<tag k="name" v="Grytvikelva" />
		<tag k="ssr:stedsnr" v="502708" />
		<tag k="waterway" v="stream" />
	</node>
	<node id="-179937" lat="67.8698111084" lon="15.2578861012">
		<tag k="alt_name" v="Breiddalselva" />
		<tag k="name" v="Breidalselva" />
		<tag k="ssr:stedsnr" v="502503" />
		<tag k="waterway" v="stream" />
	</node>
	<node id="-179931" lat="67.8717861121" lon="15.1909555519">
		<tag k="name" v="Mølnelva" />
		<tag k="ssr:stedsnr" v="502156" />
		<tag k="waterway" v="stream" />
	</node>
	<node id="-179908" lat="67.8119444488" lon="15.7432555506">
		<tag k="name" v="Eldhuselva" />
		<tag k="ssr:stedsnr" v="480510" />
		<tag k="waterway" v="stream" />
	</node>
	<node id="-179907" lat="67.8141555522" lon="15.7115000096">
		<tag k="name" v="Storelva" />
		<tag k="ssr:stedsnr" v="480507" />
		<tag k="waterway" v="stream" />
	</node>
	<node id="-179905" lat="67.7979638898" lon="14.9545388774">
		<tag k="name" v="Langhola" />
		<tag k="natural" v="water" />
		<tag k="ssr:stedsnr" v="480622" />
		<tag k="water" v="lake" />
	</node>
	<node id="-181952" lat="67.6911916672" lon="15.0293416727">
		<tag k="name" v="Bjørnbærelva" />
		<tag k="ssr:stedsnr" v="601678" />
		<tag k="waterway" v="stream" />
	</node>
	<node id="-179902" lat="67.9318777747" lon="15.5939361">
		<tag k="name" v="Moelva" />
		<tag k="ssr:stedsnr" v="480456" />
		<tag k="waterway" v="stream" />
	</node>
	<node id="-179900" lat="67.758894443" lon="15.4730444415">
		<tag k="name" v="Durmålstjernet" />
		<tag k="natural" v="water" />
		<tag k="ssr:stedsnr" v="480306" />
	</node>
	<node id="-179887" lat="67.7972444405" lon="14.9523611008">
		<tag k="name" v="Agnettfossen" />
		<tag k="natural" v="waterfall" />
		<tag k="ssr:stedsnr" v="662633" />
	</node>
	<node id="-179881" lat="67.6800555544" lon="14.9940055588">
		<tag k="name" v="Flekkoselva" />
		<tag k="ssr:stedsnr" v="662528" />
		<tag k="waterway" v="river" />
	</node>
	<node id="-179880" lat="67.6650500031" lon="14.9286222273">
		<tag k="loc_name" v="Laukvikelva;Mølnelva" />
		<tag k="name" v="Storelva" />
		<tag k="ssr:stedsnr" v="662522" />
		<tag k="waterway" v="river" />
	</node>
	<node id="-179878" lat="67.8025472196" lon="15.7101277704">
		<tag k="name" v="Hanelva" />
		<tag k="ssr:stedsnr" v="662499" />
		<tag k="waterway" v="stream" />
	</node>
	<node id="-179877" lat="67.7891444414" lon="15.7773555566">
		<tag k="name" v="Salhuseidet" />
		<tag k="natural" v="strait" />
		<tag k="ssr:stedsnr" v="662494" />
	</node>
	<node id="-181923" lat="67.7438166695" lon="15.1579972265">
		<tag k="name" v="Fjelldalelva" />
		<tag k="ssr:stedsnr" v="582797" />
		<tag k="waterway" v="stream" />
	</node>
	<node id="-181912" lat="67.8063000016" lon="15.0218972216">
		<tag k="name" v="Tverrelva" />
		<tag k="ssr:stedsnr" v="582531" />
		<tag k="waterway" v="stream" />
	</node>
	<node id="-179861" lat="67.6674388868" lon="14.9149750037">
		<tag k="name" v="Myrelva" />
		<tag k="ssr:stedsnr" v="441814" />
		<tag k="waterway" v="stream" />
	</node>
	<node id="-181894" lat="67.8272222245" lon="15.3708305615">
		<tag k="alt_name" v="Sløelv" />
		<tag k="name" v="Sløelva" />
		<tag k="ssr:stedsnr" v="563775" />
		<tag k="waterway" v="river" />
	</node>
	<node id="-181893" lat="67.8537833363" lon="15.4570194555">
		<tag k="name" v="Lommerelva" />
		<tag k="ssr:stedsnr" v="563765" />
		<tag k="waterway" v="river" />
	</node>
	<node id="-181888" lat="67.8143333344" lon="15.7385361068">
		<tag k="fixme" v="multiple name tags, choose one and add the other to alt_name" />
		<tag k="name" v="Gardselva;Mølnelva" />
		<tag k="ssr:stedsnr" v="563451" />
		<tag k="waterway" v="stream" />
	</node>
	<node id="-181886" lat="67.7028805594" lon="14.9107138983">
		<tag k="name" v="Heimstelvvatnet" />
		<tag k="natural" v="water" />
		<tag k="ssr:stedsnr" v="563238" />
		<tag k="water" v="lake" />
	</node>
	<node id="-179834" lat="67.7741055584" lon="15.1146111209">
		<tag k="name" v="Lagmannsoselva" />
		<tag k="old_name" v="Lamansoselva" />
		<tag k="ssr:stedsnr" v="502925" />
		<tag k="waterway" v="stream" />
	</node>
	<node id="-181881" lat="67.7122694413" lon="14.9322833244">
		<tag k="alt_name" v="Vannerelvvatnet" />
		<tag k="name" v="Vanderelvvatnet" />
		<tag k="natural" v="water" />
		<tag k="ssr:stedsnr" v="563189" />
		<tag k="water" v="lake" />
	</node>
	<node id="-179828" lat="67.7072666695" lon="15.3427055482">
		<tag k="name" v="Småvatnan" />
		<tag k="natural" v="water" />
		<tag k="ssr:stedsnr" v="502876" />
	</node>
	<node id="-179824" lat="67.6760916656" lon="15.3232722269">
		<tag k="alt_name" v="Brattfjordvannet" />
		<tag k="name" v="Brattfjordvatnet" />
		<tag k="natural" v="water" />
		<tag k="ssr:stedsnr" v="502841" />
		<tag k="water" v="lake" />
	</node>
	<node id="-181862" lat="67.8387472422" lon="15.1587961693">
		<tag k="name" v="Forsen" />
		<tag k="natural" v="waterfall" />
		<tag k="ssr:stedsnr" v="562797" />
	</node>
	<node id="-181861" lat="67.6780805586" lon="14.9458527769">
		<tag k="name" v="Skavikelva" />
		<tag k="ssr:stedsnr" v="562795" />
		<tag k="waterway" v="stream" />
	</node>
	<node id="-181860" lat="67.841263885" lon="15.0007472188">
		<tag k="fixme" v="multiple name tags, choose one and add the other to alt_name" />
		<tag k="name" v="Juvikvatnet;Strandtindvatnet" />
		<tag k="natural" v="water" />
		<tag k="ssr:stedsnr" v="562794" />
	</node>
	<node id="-179810" lat="67.7469638931" lon="15.4824972193">
		<tag k="name" v="Nervatnet" />
		<tag k="natural" v="water" />
		<tag k="ssr:stedsnr" v="502790" />
	</node>
	<node id="-181857" lat="67.7485722237" lon="15.4486166646">
		<tag k="name" v="Innerelva" />
		<tag k="ssr:stedsnr" v="562777" />
		<tag k="waterway" v="stream" />
	</node>
	<node id="-181856" lat="67.7483499976" lon="15.4664555497">
		<tag k="name" v="Durmålstjørna" />
		<tag k="natural" v="water" />
		<tag k="ssr:stedsnr" v="562775" />
	</node>
	<node id="-181854" lat="67.8121527808" lon="14.8152500103">
		<tag k="name" v="Sørskotvatnet" />
		<tag k="natural" v="water" />
		<tag k="ssr:stedsnr" v="562764" />
	</node>
	<node id="-181851" lat="67.8447166647" lon="15.2038277822">
		<tag k="alt_name" v="Førstevatnet" />
		<tag k="name" v="Langvatnet" />
		<tag k="natural" v="water" />
		<tag k="ssr:stedsnr" v="562742" />
		<tag k="water" v="lake" />
	</node>
	<node id="-181850" lat="67.8344972243" lon="15.2072527893">
		<tag k="alt_name" v="Tredjevatnet" />
		<tag k="name" v="Innervatnet" />
		<tag k="natural" v="water" />
		<tag k="old_name" v="Holmvågvatnet" />
		<tag k="ssr:stedsnr" v="562741" />
		<tag k="water" v="lake" />
	</node>
	<node id="-181848" lat="67.7602416636" lon="15.5786000053">
		<tag k="name" v="Martnesvikelva" />
		<tag k="ssr:stedsnr" v="562670" />
		<tag k="waterway" v="stream" />
	</node>
	<node id="-179796" lat="67.8438333296" lon="15.3672110985">
		<tag k="name" v="Rønelva" />
		<tag k="ssr:stedsnr" v="502766" />
		<tag k="waterway" v="stream" />
	</node>
	<node id="-181843" lat="67.9014277766" lon="15.3532583308">
		<tag k="alt_name" v="Lomtjørna" />
		<tag k="name" v="Lomtjønna" />
		<tag k="natural" v="water" />
		<tag k="ssr:stedsnr" v="562542" />
	</node>
	<node id="-181841" lat="67.8998861114" lon="15.3628833444">
		<tag k="name" v="Sennvatnet" />
		<tag k="natural" v="water" />
		<tag k="ssr:stedsnr" v="562533" />
	</node>
	<node id="-179791" lat="67.8869694418" lon="15.511549987">
		<tag k="name" v="Storvikodden" />
		<tag k="natural" v="cape" />
		<tag k="ssr:stedsnr" v="502512" />
	</node>
	<node id="-179788" lat="67.849927777" lon="15.5723750111">
		<tag k="name" v="Storvatnet" />
		<tag k="natural" v="water" />
		<tag k="ssr:stedsnr" v="502497" />
		<tag k="water" v="lake" />
	</node>
	<node id="-181831" lat="67.8834111073" lon="15.11260277">
		<tag k="name" v="Kjerringvatnet" />
		<tag k="natural" v="water" />
		<tag k="ssr:stedsnr" v="562859" />
	</node>
	<node id="-181830" lat="67.8896861113" lon="15.0913055515">
		<tag k="name" v="Skjenaustvatnet" />
		<tag k="natural" v="water" />
		<tag k="ssr:stedsnr" v="562858" />
	</node>
	<node id="-179778" lat="67.7018361074" lon="14.9497111012">
		<tag k="alt_name" v="Flekkosvatnan, øvre" />
		<tag k="loc_name" v="Tredje Flekkosvatnet" />
		<tag k="name" v="Øvre Flekkosvatnan" />
		<tag k="natural" v="water" />
		<tag k="ssr:stedsnr" v="502219" />
		<tag k="water" v="lake" />
	</node>
	<node id="-179773" lat="67.7385777767" lon="15.0338722198">
		<tag k="alt_name" v="Mellamelva" />
		<tag k="name" v="Mellomelva" />
		<tag k="ssr:stedsnr" v="502200" />
		<tag k="waterway" v="river" />
	</node>
	<node id="-179768" lat="67.7258999993" lon="14.987627769">
		<tag k="name" v="Galtvatnet" />
		<tag k="natural" v="water" />
		<tag k="ssr:stedsnr" v="502181" />
	</node>
	<node id="-179766" lat="67.7278750037" lon="15.1040555657">
		<tag k="name" v="Vallevatnet" />
		<tag k="natural" v="water" />
		<tag k="ssr:stedsnr" v="502175" />
		<tag k="water" v="lake" />
	</node>
	<node id="-181810" lat="67.7474861086" lon="15.0827499884">
		<tag k="name" v="Røyrneselva" />
		<tag k="ssr:stedsnr" v="541746" />
		<tag k="waterway" v="stream" />
	</node>
	<node id="-179754" lat="67.737083337" lon="15.0113388876">
		<tag k="name" v="Sagelva" />
		<tag k="ssr:stedsnr" v="502160" />
		<tag k="waterway" v="stream" />
	</node>
	<node id="-181800" lat="67.8138222216" lon="15.7139833209">
		<tag k="name" v="Storelvneselva" />
		<tag k="ssr:stedsnr" v="541528" />
		<tag k="waterway" v="stream" />
	</node>
	<node id="-181797" lat="67.6877527792" lon="15.6616972177">
		<tag k="name" v="Stavfjordelva" />
		<tag k="ssr:stedsnr" v="541497" />
		<tag k="waterway" v="river" />
	</node>
	<node id="-181793" lat="67.9239888893" lon="15.5754444464">
		<tag k="name" v="Nordelva" />
		<tag k="ssr:stedsnr" v="541474" />
		<tag k="waterway" v="stream" />
	</node>
	<node id="-179744" lat="67.7997249988" lon="15.0112000079">
		<tag k="alt_name" v="Bjønndalselva" />
		<tag k="fixme" v="multiple name tags, choose one and add the other to alt_name" />
		<tag k="name" v="Bjørndalselva;Saurselva" />
		<tag k="ssr:stedsnr" v="501996" />
		<tag k="waterway" v="river" />
	</node>
	<node id="-181789" lat="67.6701500012" lon="15.320786108">
		<tag k="name" v="Finnlægret" />
		<tag k="natural" v="cape" />
		<tag k="ssr:stedsnr" v="541396" />
	</node>
	<node id="-179739" lat="67.7973500017" lon="15.2171888864">
		<tag k="fixme" v="multiple name tags, choose one and add the other to alt_name" />
		<tag k="name" v="Allmenningsvatnet;Nordfoldvatnet" />
		<tag k="natural" v="water" />
		<tag k="ssr:stedsnr" v="501941" />
		<tag k="water" v="lake" />
	</node>
	<node id="-179738" lat="67.7993638917" lon="15.2092249995">
		<tag k="name" v="Langneset" />
		<tag k="natural" v="cape" />
		<tag k="ssr:stedsnr" v="501939" />
	</node>
	<node id="-179733" lat="67.7940138862" lon="15.5272111123">
		<tag k="name" v="Storreva" />
		<tag k="ssr:stedsnr" v="380720" />
		<tag k="waterway" v="stream" />
	</node>
	<node id="-179717" lat="67.7195805573" lon="15.377027775">
		<tag k="name" v="Endneselva" />
		<tag k="ssr:stedsnr" v="359322" />
		<tag k="waterway" v="stream" />
	</node>
	<node id="-181760" lat="67.8664472246" lon="15.1274555515">
		<tag k="name" v="Melkneset" />
		<tag k="natural" v="cape" />
		<tag k="ssr:stedsnr" v="521582" />
	</node>
	<node id="-179700" lat="67.6858111085" lon="15.3213527836">
		<tag k="name" v="Brattfjordelva" />
		<tag k="ssr:stedsnr" v="480736" />
		<tag k="waterway" v="stream" />
	</node>
	<node id="-179690" lat="67.6741666641" lon="14.9583166585">
		<tag k="name" v="Trettvikelva" />
		<tag k="ssr:stedsnr" v="480533" />
		<tag k="waterway" v="stream" />
	</node>
	<node id="-179793" lat="67.8403638879" lon="15.7816694432">
		<tag k="name" v="Skilelva" />
		<tag k="ssr:stedsnr" v="502446" />
		<tag k="waterway" v="stream" />
	</node>
	<node id="-181723" lat="67.8932861081" lon="15.1643916592">
		<tag k="name" v="Oterelva" />
		<tag k="ssr:stedsnr" v="400987" />
		<tag k="waterway" v="stream" />
	</node>
	<node id="-181718" lat="67.8858083373" lon="15.2106611111">
		<tag k="name" v="Storelva" />
		<tag k="ssr:stedsnr" v="400920" />
		<tag k="waterway" v="river" />
	</node>
	<node id="-181710" lat="67.7350694407" lon="15.1479111054">
		<tag k="name" v="Slipstolelva" />
		<tag k="ssr:stedsnr" v="400794" />
		<tag k="waterway" v="river" />
	</node>
	<node id="-179659" lat="67.7624916637" lon="15.1913916601">
		<tag k="name" v="Lomtjønna" />
		<tag k="natural" v="water" />
		<tag k="ssr:stedsnr" v="461887" />
	</node>
	<node id="-181706" lat="67.93438056" lon="15.2152999922">
		<tag k="name" v="Moelva" />
		<tag k="ssr:stedsnr" v="400576" />
		<tag k="waterway" v="stream" />
	</node>
	<node id="-181698" lat="67.7957583338" lon="15.1011777832">
		<tag k="name" v="Vatnet" />
		<tag k="natural" v="water" />
		<tag k="ssr:stedsnr" v="400065" />
	</node>
	<node id="-181685" lat="67.6795972207" lon="15.5507166565">
		<tag k="name" v="Vinkfjordelva" />
		<tag k="ssr:stedsnr" v="381849" />
		<tag k="waterway" v="river" />
	</node>
	<node id="-179628" lat="67.812630555" lon="15.78822221">
		<tag k="name" v="Tverrelva" />
		<tag k="ssr:stedsnr" v="260242" />
		<tag k="waterway" v="stream" />
	</node>
	<node id="-179621" lat="67.6733416668" lon="15.680463878">
		<tag k="name" v="Tennvatnet" />
		<tag k="natural" v="water" />
		<tag k="ssr:stedsnr" v="259845" />
		<tag k="water" v="lake" />
	</node>
	<node id="-179620" lat="67.6839000016" lon="15.457797224">
		<tag k="name" v="Sandnes" />
		<tag k="natural" v="cape" />
		<tag k="ssr:stedsnr" v="259843" />
	</node>
	<node id="-181660" lat="67.7278861119" lon="15.034258322">
		<tag k="name" v="Åsjordvatnet" />
		<tag k="natural" v="water" />
		<tag k="ssr:stedsnr" v="381233" />
		<tag k="water" v="lake" />
	</node>
	<node id="-181652" lat="67.8280638859" lon="15.2598611205">
		<tag k="alt_name" v="Vassbotnelv" />
		<tag k="name" v="Vassbotnelva" />
		<tag k="ssr:stedsnr" v="381197" />
		<tag k="waterway" v="stream" />
	</node>
	<node id="-179600" lat="67.6897277772" lon="14.8918305521">
		<tag k="name" v="Synstelvvatnet" />
>>>>>>> e1d4bc35ff8a6074a6f2e91616a996b547c36f15
		<tag k="natural" v="water" />
		<tag k="ssr:stedsnr" v="259202" />
		<tag k="water" v="lake" />
	</node>
<<<<<<< HEAD
	<node lat="67.84857777414237" lon="15.089811101396242" id="-8953">
		<tag k="name" v="Sagelva" />
		<tag k="ssr:stedsnr" v="623805" />
		<tag k="waterway" v="stream" />
	</node>
	<node lat="67.84529166230281" lon="15.095333334043813" id="-8954">
		<tag k="name" v="Rundvatnet" />
		<tag k="natural" v="water" />
		<tag k="ssr:stedsnr" v="623821" />
	</node>
	<node lat="67.654563891886" lon="15.428658328402527" id="-8957">
		<tag k="name" v="Kvitvatnet" />
		<tag k="natural" v="water" />
		<tag k="ssr:stedsnr" v="623871" />
		<tag k="water" v="lake" />
	</node>
	<node lat="67.89439166620119" lon="15.052505560025761" id="-8958">
		<tag k="name" v="Skånlandselva" />
		<tag k="ssr:stedsnr" v="623876" />
		<tag k="waterway" v="stream" />
	</node>
	<node lat="67.99211388927294" lon="15.093927788076913" id="-8977">
		<tag k="name" v="Allvatnet" />
		<tag k="natural" v="water" />
		<tag k="ssr:stedsnr" v="704132" />
	</node>
	<node lat="67.9364777820498" lon="15.151552767975755" id="-8981">
		<tag k="name" v="Ramselva" />
		<tag k="ssr:stedsnr" v="704697" />
		<tag k="waterway" v="stream" />
	</node>
	<node lat="67.77966667024091" lon="15.274561110873094" id="-8986">
		<tag k="name" v="Skjellelva" />
		<tag k="ssr:stedsnr" v="704852" />
		<tag k="waterway" v="stream" />
	</node>
	<node lat="67.78914444144293" lon="15.77735555663983" id="-9006">
		<tag k="name" v="Salhuseidet" />
		<tag k="place" v="locality" />
		<tag k="ssr:stedsnr" v="662494" />
	</node>
	<node lat="67.80254721959511" lon="15.710127770351194" id="-9007">
		<tag k="name" v="Hanelva" />
		<tag k="ssr:stedsnr" v="662499" />
		<tag k="waterway" v="stream" />
	</node>
	<node lat="67.79724444046855" lon="14.95236110076036" id="-9009">
		<tag k="name" v="Agnettfossen" />
		<tag k="natural" v="waterfall" />
		<tag k="ssr:stedsnr" v="662633" />
	</node>
	<node lat="67.79504444248838" lon="14.986722232315401" id="-9031">
		<tag k="name" v="Omunddalselva" />
		<tag k="ssr:stedsnr" v="683999" />
		<tag k="waterway" v="stream" />
	</node>
	<node lat="67.7089194424758" lon="15.074202787560278" id="-9039">
		<tag k="name" v="Seglsteinelva" />
		<tag k="ssr:stedsnr" v="684249" />
		<tag k="waterway" v="river" />
	</node>
	<node lat="67.79707777343052" lon="15.293522219709535" id="-9064">
		<tag k="alt_name" v="Vasshovudet" />
		<tag k="name" v="Vasshauet" />
		<tag k="natural" v="beach" />
		<tag k="ssr:stedsnr" v="684713" />
	</node>
	<node lat="67.79864444863613" lon="15.279738895291512" id="-9065">
		<tag k="alt_name" v="Røyteelva" />
		<tag k="name" v="Røyrjetelva" />
		<tag k="ssr:stedsnr" v="684714" />
		<tag k="waterway" v="stream" />
	</node>
	<node lat="67.83440277461561" lon="15.048813882512505" id="-9068">
		<tag k="name" v="Trolldalsvatnet" />
		<tag k="natural" v="water" />
		<tag k="ssr:stedsnr" v="684749" />
	</node>
	<node lat="67.68452777940321" lon="14.932336118243756" id="-9073">
		<tag k="name" v="Laukvikvatnet" />
		<tag k="natural" v="water" />
		<tag k="ssr:stedsnr" v="684802" />
	</node>
	<node lat="67.65685277691463" lon="15.46397221989908" id="-9099">
		<tag k="name" v="Tverrelva" />
		<tag k="ssr:stedsnr" v="723321" />
		<tag k="waterway" v="stream" />
	</node>
	<node lat="67.80098888499165" lon="15.343924993069983" id="-9100">
		<tag k="name" v="Gulbrandelva" />
		<tag k="ssr:stedsnr" v="723324" />
		<tag k="waterway" v="stream" />
	</node>
	<node lat="67.9206694442299" lon="15.517905555313467" id="-9126">
		<tag k="name" v="Vassvikvatnet" />
		<tag k="natural" v="water" />
		<tag k="ssr:stedsnr" v="744519" />
	</node>
	<node lat="67.93593055584186" lon="15.073902775306284" id="-9149">
		<tag k="name" v="Vassdalsvatnet" />
		<tag k="natural" v="water" />
		<tag k="ssr:stedsnr" v="745174" />
	</node>
	<node lat="67.83292778160195" lon="15.782683329326094" id="-9151">
		<tag k="alt_name" v="Heimerskjellelva" />
		<tag k="name" v="Heimarskilelva" />
		<tag k="ssr:stedsnr" v="745479" />
		<tag k="waterway" v="stream" />
	</node>
	<node lat="67.92284722425957" lon="15.478427767261108" id="-9169">
		<tag k="name" v="Slettheielva" />
		<tag k="ssr:stedsnr" v="905289" />
		<tag k="waterway" v="stream" />
	</node>
	<node lat="67.69337500022411" lon="15.459119446235414" id="-9173">
		<tag k="name" v="Vikelva" />
		<tag k="ssr:stedsnr" v="905348" />
		<tag k="waterway" v="river" />
	</node>
	<node lat="67.67520555848145" lon="15.327625006089015" id="-9174">
		<tag k="name" v="Rønna" />
		<tag k="ssr:stedsnr" v="905365" />
		<tag k="waterway" v="stream" />
	</node>
	<node lat="67.81302777578114" lon="15.73557776632907" id="-9178">
		<tag k="name" v="Mellaelven" />
		<tag k="natural" v="cape" />
		<tag k="ssr:stedsnr" v="905520" />
	</node>
	<node lat="67.7755444481845" lon="15.013172223506215" id="-9229">
		<tag k="name" v="Øyra" />
		<tag k="natural" v="cape" />
		<tag k="ssr:stedsnr" v="910834" />
	</node>
	<node lat="67.78957221970582" lon="14.928241666969136" id="-9276">
		<tag k="fixme" v="multiple name tags, choose one and add the other to alt_name" />
		<tag k="name" v="Sundelva;Leirosdalselva" />
		<tag k="ssr:stedsnr" v="926999" />
		<tag k="waterway" v="river" />
	</node>
	<node lat="67.79729444312238" lon="14.916363885478074" id="-9277">
		<tag k="alt_name" v="Lomstjørna" />
		<tag k="name" v="Lomstjønna" />
		<tag k="natural" v="water" />
		<tag k="ssr:stedsnr" v="927000" />
	</node>
	<node lat="67.95591111081109" lon="15.028816662857217" id="-9285">
		<tag k="name" v="Storelva" />
		<tag k="ssr:stedsnr" v="927179" />
		<tag k="waterway" v="river" />
	</node>
	<node lat="67.88009444564483" lon="14.942980557753954" id="-9286">
		<tag k="name" v="Tverrelva" />
		<tag k="ssr:stedsnr" v="927182" />
		<tag k="waterway" v="river" />
	</node>
	<node lat="67.8158666645792" lon="15.805252782649985" id="-9304">
		<tag k="alt_name" v="Lomtjørna" />
		<tag k="name" v="Lomtjønna" />
		<tag k="natural" v="water" />
		<tag k="ssr:stedsnr" v="927480" />
	</node>
	<node lat="67.80244166657712" lon="15.706908330418942" id="-9308">
		<tag k="name" v="Djupdalselva" />
		<tag k="ssr:stedsnr" v="927693" />
		<tag k="waterway" v="stream" />
	</node>
	<node lat="67.84712499520239" lon="15.544650009181765" id="-9313">
		<tag k="name" v="Rypvikodden" />
		<tag k="natural" v="cape" />
		<tag k="ssr:stedsnr" v="927735" />
	</node>
	<node lat="67.85231944280815" lon="15.233413884255564" id="-9315">
		<tag k="name" v="Tverrelva" />
		<tag k="ssr:stedsnr" v="927741" />
		<tag k="waterway" v="stream" />
	</node>
	<node lat="67.83793888611655" lon="15.347844450779187" id="-9317">
		<tag k="name" v="Sløelvvatnan" />
		<tag k="natural" v="water" />
		<tag k="ssr:stedsnr" v="927750" />
	</node>
	<node lat="67.8872611127992" lon="15.00335556513923" id="-9325">
		<tag k="name" v="Trongsundet" />
		<tag k="natural" v="strait" />
		<tag k="ssr:stedsnr" v="927877" />
	</node>
	<node lat="67.7678722220446" lon="15.176252787590444" id="-9346">
		<tag k="fixme" v="multiple name tags, choose one and add the other to alt_name" />
		<tag k="name" v="Botnelva;Marhaugelva" />
		<tag k="ssr:stedsnr" v="927942" />
		<tag k="waterway" v="river" />
	</node>
	<node lat="67.74228055340092" lon="15.045944455345674" id="-9374">
		<tag k="name" v="Gårdselva" />
		<tag k="ssr:stedsnr" v="905704" />
		<tag k="waterway" v="stream" />
	</node>
	<node lat="67.80966944157981" lon="15.26309721130352" id="-9377">
		<tag k="name" v="Finnjordelva" />
		<tag k="ssr:stedsnr" v="905726" />
		<tag k="waterway" v="stream" />
	</node>
	<node lat="67.77536666878342" lon="15.170244452502326" id="-9379">
		<tag k="name" v="Tverrelva" />
		<tag k="ssr:stedsnr" v="905752" />
		<tag k="waterway" v="stream" />
	</node>
	<node lat="67.74760277388502" lon="15.137505552980931" id="-9381">
		<tag k="name" v="Skoglivatnet" />
		<tag k="natural" v="water" />
		<tag k="ssr:stedsnr" v="906762" />
	</node>
	<node lat="67.83908888542274" lon="15.20002498903324" id="-9383">
		<tag k="name" v="Holmåkvatnan" />
		<tag k="natural" v="water" />
		<tag k="ssr:stedsnr" v="910312" />
		<tag k="water" v="lake" />
	</node>
	<node lat="67.97673055563031" lon="15.213011105685792" id="-9407">
		<tag k="name" v="Vassdalsvatnet" />
		<tag k="natural" v="water" />
		<tag k="ssr:stedsnr" v="927213" />
	</node>
	<node lat="67.96642499741642" lon="15.063597215053333" id="-9411">
		<tag k="name" v="Innerelva" />
		<tag k="ssr:stedsnr" v="927219" />
		<tag k="waterway" v="stream" />
	</node>
	<node lat="67.86358611466211" lon="15.513569435678244" id="-9420">
		<tag k="name" v="Botnen" />
		<tag k="natural" v="bay" />
		<tag k="ssr:stedsnr" v="927514" />
	</node>
	<node lat="67.83032499977443" lon="15.22870555707603" id="-9423">
		<tag k="fixme" v="multiple name tags, choose one and add the other to alt_name" />
		<tag k="name" v="Holmåkvatnet;Skarvatnet;Fjerdevatnet;Øvervatnet" />
		<tag k="natural" v="water" />
		<tag k="ssr:stedsnr" v="927759" />
		<tag k="water" v="lake" />
	</node>
	<node lat="67.99217499693418" lon="15.097827780964142" id="-9453">
		<tag k="name" v="Møllnvatnet" />
		<tag k="natural" v="water" />
		<tag k="ssr:stedsnr" v="947130" />
	</node>
	<node lat="67.83403055648414" lon="15.810536106383935" id="-9461">
		<tag k="name" v="Førrnes" />
		<tag k="natural" v="cape" />
		<tag k="ssr:stedsnr" v="965496" />
	</node>
	<node lat="67.82118610987052" lon="15.140905557959552" id="-9485">
		<tag k="alt_name" v="Mannslagarvatnet" />
		<tag k="name" v="Mannslagervatnet" />
		<tag k="natural" v="water" />
		<tag k="ssr:stedsnr" v="16748" />
	</node>
	<node lat="67.67193611164753" lon="14.815013882555952" id="-9486">
		<tag k="name" v="Brennsundelva" />
		<tag k="ssr:stedsnr" v="16766" />
		<tag k="waterway" v="river" />
	</node>
	<node lat="67.80076944451096" lon="15.045822218901426" id="-9499">
		<tag k="name" v="Bogelva" />
		<tag k="ssr:stedsnr" v="16994" />
		<tag k="waterway" v="stream" />
	</node>
	<node lat="67.76554999824211" lon="15.081841674564014" id="-9524">
		<tag k="name" v="Djuposelva" />
		<tag k="ssr:stedsnr" v="17941" />
		<tag k="waterway" v="stream" />
	</node>
	<node lat="67.97659999785942" lon="15.186436117849494" id="-9532">
		<tag k="name" v="Jørnvatnet" />
		<tag k="natural" v="water" />
		<tag k="ssr:stedsnr" v="17238" />
	</node>
	<node lat="67.89429444290927" lon="15.664074989943963" id="-9545">
		<tag k="name" v="Forsanelva" />
		<tag k="ssr:stedsnr" v="17534" />
		<tag k="waterway" v="river" />
	</node>
	<node lat="67.91854999811522" lon="15.22125555546139" id="-9548">
		<tag k="name" v="Forrvikranelva" />
		<tag k="ssr:stedsnr" v="17573" />
		<tag k="waterway" v="stream" />
	</node>
	<node lat="67.88791944804822" lon="15.002216667219265" id="-9555">
		<tag k="name" v="Røyrneset" />
		<tag k="natural" v="cape" />
		<tag k="ssr:stedsnr" v="17880" />
	</node>
	<node lat="67.674394442818" lon="15.466602781032131" id="-9562">
		<tag k="name" v="Rotneset" />
		<tag k="natural" v="cape" />
		<tag k="ssr:stedsnr" v="17754" />
	</node>
	<node lat="67.81141388642041" lon="15.50381388951464" id="-9563">
		<tag k="name" v="Tennvatnan" />
		<tag k="natural" v="water" />
		<tag k="ssr:stedsnr" v="17762" />
		<tag k="water" v="lake" />
	</node>
	<node lat="67.82566111192932" lon="15.281499993689314" id="-9565">
		<tag k="name" v="Stokkvasseidet" />
		<tag k="place" v="locality" />
		<tag k="ssr:stedsnr" v="17773" />
	</node>
	<node lat="67.8190083377385" lon="15.138874990179819" id="-9573">
		<tag k="name" v="Øverdalselva" />
		<tag k="ssr:stedsnr" v="36397" />
		<tag k="waterway" v="stream" />
	</node>
	<node lat="67.76448610779288" lon="15.513511121720036" id="-9593">
		<tag k="name" v="Svardalselva" />
		<tag k="ssr:stedsnr" v="55323" />
		<tag k="waterway" v="stream" />
	</node>
	<node lat="67.7969444434273" lon="15.282541660110118" id="-9600">
		<tag k="name" v="Hammarelva" />
		<tag k="ssr:stedsnr" v="56344" />
		<tag k="waterway" v="stream" />
	</node>
	<node lat="67.80880833178486" lon="14.952383335094034" id="-9610">
		<tag k="name" v="Leirosdalsfossen" />
		<tag k="natural" v="waterfall" />
		<tag k="ssr:stedsnr" v="56627" />
	</node>
	<node lat="67.8673527775015" lon="15.14198055602002" id="-9638">
		<tag k="name" v="Litlvatnet" />
		<tag k="natural" v="water" />
		<tag k="ssr:stedsnr" v="77836" />
	</node>
	<node lat="67.81906388564981" lon="15.193333330334147" id="-9649">
		<tag k="alt_name" v="Tindvatnet, l" />
		<tag k="name" v="Litl Tindvatnet" />
		<tag k="natural" v="water" />
		<tag k="ssr:stedsnr" v="77968" />
	</node>
	<node lat="67.80346110841793" lon="14.880902785504961" id="-9651">
		<tag k="name" v="Svartdalsvatnet" />
		<tag k="natural" v="water" />
		<tag k="ssr:stedsnr" v="77979" />
	</node>
	<node lat="67.71489722584471" lon="14.91176387878715" id="-9659">
		<tag k="alt_name" v="Vannerelva" />
		<tag k="name" v="Vanderelva" />
		<tag k="ssr:stedsnr" v="78199" />
		<tag k="waterway" v="stream" />
	</node>
	<node lat="67.72140000409424" lon="15.064100000478586" id="-9665">
		<tag k="name" v="Fuglevatnet" />
		<tag k="natural" v="water" />
		<tag k="ssr:stedsnr" v="78222" />
		<tag k="water" v="lake" />
	</node>
	<node lat="67.81673055197486" lon="14.872933339068107" id="-9675">
		<tag k="name" v="Storelva" />
		<tag k="ssr:stedsnr" v="78186" />
		<tag k="waterway" v="river" />
	</node>
	<node lat="67.8177527823921" lon="15.338741659780572" id="-9688">
		<tag k="name" v="Litlvatnet" />
		<tag k="natural" v="water" />
		<tag k="ssr:stedsnr" v="78735" />
	</node>
	<node lat="67.8414611133908" lon="15.31558888710725" id="-9689">
		<tag k="name" v="Stokkvatnet" />
		<tag k="natural" v="water" />
		<tag k="ssr:stedsnr" v="78739" />
		<tag k="water" v="lake" />
	</node>
	<node lat="67.72992221970951" lon="14.801544451125645" id="-9709">
		<tag k="name" v="Tårnvikelva" />
		<tag k="ssr:stedsnr" v="97536" />
		<tag k="waterway" v="stream" />
	</node>
	<node lat="67.89127222371347" lon="15.15044999215677" id="-9718">
		<tag k="name" v="Gardselva" />
		<tag k="ssr:stedsnr" v="97990" />
		<tag k="waterway" v="river" />
	</node>
	<node lat="67.9346916667395" lon="15.512091664548617" id="-9727">
		<tag k="name" v="Steinelva" />
		<tag k="ssr:stedsnr" v="116441" />
		<tag k="waterway" v="stream" />
	</node>
	<node lat="67.6580472191938" lon="15.47031389572506" id="-9730">
		<tag k="name" v="Botnelva" />
		<tag k="ssr:stedsnr" v="116298" />
		<tag k="waterway" v="river" />
	</node>
	<node lat="67.71329167028287" lon="15.114102784941396" id="-9745">
		<tag k="name" v="Vallelva" />
		<tag k="ssr:stedsnr" v="117648" />
		<tag k="waterway" v="stream" />
	</node>
	<node lat="67.8348444487018" lon="15.359741667043732" id="-9754">
		<tag k="name" v="Svartvatnet" />
		<tag k="natural" v="water" />
		<tag k="ssr:stedsnr" v="138757" />
	</node>
	<node lat="67.83970277359887" lon="15.113199998066136" id="-9760">
		<tag k="name" v="Snøsvatnet" />
		<tag k="natural" v="water" />
		<tag k="ssr:stedsnr" v="137777" />
	</node>
	<node lat="67.83507222319089" lon="14.91252501103077" id="-9775">
		<tag k="name" v="Ersvikvatnet" />
		<tag k="natural" v="water" />
		<tag k="ssr:stedsnr" v="137728" />
	</node>
	<node lat="67.82623055656873" lon="14.803941671379025" id="-9776">
		<tag k="name" v="Lomtjørna" />
		<tag k="natural" v="water" />
		<tag k="ssr:stedsnr" v="137738" />
	</node>
	<node lat="67.73319444922838" lon="14.8223999926426" id="-9797">
		<tag k="name" v="Litlvatnet" />
		<tag k="natural" v="water" />
		<tag k="ssr:stedsnr" v="138183" />
	</node>
	<node lat="67.89529444510077" lon="15.635499992422785" id="-9801">
		<tag k="name" v="Malåelva" />
		<tag k="ssr:stedsnr" v="138533" />
		<tag k="waterway" v="river" />
	</node>
	<node lat="67.89398888904591" lon="15.356125000317757" id="-9802">
		<tag k="name" v="Balkjostjørna" />
		<tag k="natural" v="water" />
		<tag k="ssr:stedsnr" v="138537" />
	</node>
	<node lat="67.76082222005246" lon="15.485800009770106" id="-9805">
		<tag k="fixme" v="multiple name tags, choose one and add the other to alt_name" />
		<tag k="name" v="Sagelva;Mølnelva" />
		<tag k="ssr:stedsnr" v="138701" />
		<tag k="waterway" v="stream" />
	</node>
	<node lat="67.87480555940193" lon="15.015763885324832" id="-9820">
		<tag k="name" v="Åsvatna" />
		<tag k="natural" v="water" />
		<tag k="ssr:stedsnr" v="138823" />
	</node>
	<node lat="67.89190000350804" lon="14.954619453480863" id="-9848">
		<tag k="alt_name" v="Trollvatnet, l;Litltrollvatnet" />
		<tag k="name" v="Litl Trollvatnet" />
		<tag k="natural" v="water" />
		<tag k="ssr:stedsnr" v="163852" />
	</node>
	<node lat="67.64176111140536" lon="15.48989443610946" id="-9851">
		<tag k="name" v="Lappvasskartjønna" />
		<tag k="natural" v="water" />
		<tag k="ssr:stedsnr" v="173297" />
	</node>
	<node lat="67.88960277508536" lon="15.3757055559274" id="-9852">
		<tag k="name" v="Sanden" />
		<tag k="natural" v="beach" />
		<tag k="ssr:stedsnr" v="177300" />
	</node>
	<node lat="67.72070832997983" lon="15.14155554925863" id="-9867">
		<tag k="name" v="Mengdalelva" />
		<tag k="ssr:stedsnr" v="177693" />
		<tag k="waterway" v="stream" />
	</node>
	<node lat="67.83027222180537" lon="15.140986105017811" id="-9873">
		<tag k="name" v="Skjelvareidelva" />
		<tag k="ssr:stedsnr" v="198739" />
		<tag k="waterway" v="river" />
	</node>
	<node lat="67.85110833359717" lon="14.960122224719667" id="-9876">
		<tag k="fixme" v="multiple name tags, choose one and add the other to alt_name" />
		<tag k="name" v="Neselva;Kvanndalselva" />
		<tag k="ssr:stedsnr" v="198776" />
		<tag k="waterway" v="stream" />
	</node>
	<node lat="67.85723610936675" lon="15.17611943956152" id="-9879">
		<tag k="alt_name" v="Skjelelva" />
		<tag k="name" v="Skjellelva" />
		<tag k="ssr:stedsnr" v="198790" />
		<tag k="waterway" v="stream" />
	</node>
	<node lat="67.79612777715728" lon="14.899650001808132" id="-9903">
		<tag k="name" v="Sundselva" />
		<tag k="ssr:stedsnr" v="198989" />
		<tag k="waterway" v="river" />
	</node>
	<node lat="67.73010277377689" lon="14.819730565692566" id="-9921">
		<tag k="name" v="Storvatnet" />
		<tag k="natural" v="water" />
		<tag k="ssr:stedsnr" v="199228" />
	</node>
	<node lat="67.83896388747944" lon="15.825008333268364" id="-9927">
		<tag k="name" v="Makkvatnet - Suoksavuomjávrre" />
		<tag k="name:no" v="Makkvatnet" />
		<tag k="name:smj" v="Suoksavuomjávrre" />
		<tag k="natural" v="water" />
		<tag k="old_name:smj" v="Suoksavuomejávri" />
		<tag k="ssr:stedsnr" v="199433" />
		<tag k="water" v="lake" />
	</node>
	<node lat="67.7722361135976" lon="15.196894439112231" id="-9929">
		<tag k="name" v="Storelva" />
		<tag k="ssr:stedsnr" v="199191" />
		<tag k="waterway" v="river" />
	</node>
	<node lat="67.8064999990017" lon="15.69129443877489" id="-9932">
		<tag k="name" v="Gardsneset" />
		<tag k="natural" v="cape" />
		<tag k="ssr:stedsnr" v="199199" />
	</node>
	<node lat="67.83420833678214" lon="15.702463895193148" id="-9939">
		<tag k="name" v="Kalvtindvatnan" />
		<tag k="natural" v="water" />
		<tag k="ssr:stedsnr" v="199751" />
		<tag k="water" v="lake" />
	</node>
	<node lat="67.74224721814184" lon="15.480808341751326" id="-9953">
		<tag k="name" v="Vesterbotnen" />
		<tag k="natural" v="bay" />
		<tag k="ssr:stedsnr" v="199796" />
	</node>
	<node lat="67.8783277798264" lon="15.00390277195696" id="-9956">
		<tag k="name" v="Sandnes" />
		<tag k="natural" v="cape" />
		<tag k="ssr:stedsnr" v="199828" />
	</node>
	<node lat="67.66813889120743" lon="15.466655558683128" id="-9957">
		<tag k="name" v="Forheiodden" />
		<tag k="natural" v="cape" />
		<tag k="ssr:stedsnr" v="199841" />
	</node>
	<node lat="67.86855555576209" lon="15.128180544147655" id="-10002">
		<tag k="name" v="Innerpollen" />
		<tag k="natural" v="water" />
		<tag k="ssr:stedsnr" v="279597" />
		<tag k="water" v="lake" />
	</node>
	<node lat="67.89127777472048" lon="15.110449999180641" id="-10005">
		<tag k="name" v="Litlskarelva" />
		<tag k="ssr:stedsnr" v="279938" />
		<tag k="waterway" v="stream" />
	</node>
	<node lat="67.89233611362317" lon="15.029119450136292" id="-10012">
		<tag k="name" v="Røyrneset" />
		<tag k="natural" v="cape" />
		<tag k="ssr:stedsnr" v="299592" />
	</node>
	<node lat="67.93901389301622" lon="15.595550001086416" id="-10014">
		<tag k="name" v="Skjellelva" />
		<tag k="ssr:stedsnr" v="298406" />
		<tag k="waterway" v="stream" />
	</node>
	<node lat="67.81413055749432" lon="15.802702780647564" id="-10021">
		<tag k="name" v="Sleipelva" />
		<tag k="ssr:stedsnr" v="298456" />
		<tag k="waterway" v="stream" />
	</node>
	<node lat="67.80319999575791" lon="15.786788896515409" id="-10022">
		<tag k="name" v="Mellaelven" />
		<tag k="natural" v="cape" />
		<tag k="ssr:stedsnr" v="298460" />
	</node>
	<node lat="67.96091666939427" lon="15.051819447996056" id="-10039">
		<tag k="name" v="Skardselva" />
		<tag k="ssr:stedsnr" v="320194" />
		<tag k="waterway" v="stream" />
	</node>
	<node lat="67.73807499989879" lon="15.461116660499286" id="-10045">
		<tag k="name" v="Andtjørna" />
		<tag k="natural" v="water" />
		<tag k="ssr:stedsnr" v="319824" />
	</node>
	<node lat="67.78102500330965" lon="15.147733341625974" id="-10050">
		<tag k="alt_name" v="Hellågelva" />
		<tag k="name" v="Hellåelva" />
		<tag k="ssr:stedsnr" v="319965" />
		<tag k="waterway" v="river" />
	</node>
	<node lat="67.70616388734454" lon="15.025294454867625" id="-10067">
		<tag k="name" v="Galtvatnet" />
		<tag k="natural" v="water" />
		<tag k="ssr:stedsnr" v="320254" />
	</node>
	<node lat="67.94456666418506" lon="15.153705556658164" id="-10070">
		<tag k="name" v="Trollvatnet" />
		<tag k="natural" v="water" />
		<tag k="ssr:stedsnr" v="320261" />
	</node>
	<node lat="67.79371944134267" lon="15.300663890413267" id="-10090">
		<tag k="name" v="Laksåga" />
		<tag k="ssr:stedsnr" v="320676" />
		<tag k="waterway" v="stream" />
	</node>
	<node lat="67.84175555343889" lon="15.58042499875413" id="-10092">
		<tag k="name" v="Storvika" />
		<tag k="natural" v="bay" />
		<tag k="ssr:stedsnr" v="320753" />
	</node>
	<node lat="67.65696666823197" lon="15.553575005257215" id="-10104">
		<tag k="name" v="Vinkfjordvatnan" />
		<tag k="natural" v="water" />
		<tag k="ssr:stedsnr" v="320849" />
		<tag k="water" v="lake" />
	</node>
	<node lat="67.88643333637964" lon="15.109930564131904" id="-10107">
		<tag k="alt_name" v="Litlskardvatnet" />
		<tag k="name" v="Litlskarvatnet" />
		<tag k="natural" v="water" />
		<tag k="ssr:stedsnr" v="320871" />
	</node>
	<node lat="67.89010277826492" lon="15.026569436173915" id="-10108">
		<tag k="name" v="Storholmen" />
		<tag k="place" v="islet" />
		<tag k="ssr:stedsnr" v="320872" />
	</node>
	<node lat="67.8899500022308" lon="15.020116667761153" id="-10109">
		<tag k="name" v="Skånlandsvatnet" />
		<tag k="natural" v="water" />
		<tag k="ssr:stedsnr" v="320878" />
	</node>
	<node lat="67.87300833428164" lon="15.249513888101244" id="-10136">
		<tag k="name" v="Nyvoldelva" />
		<tag k="ssr:stedsnr" v="339859" />
		<tag k="waterway" v="stream" />
	</node>
	<node lat="67.88095555717365" lon="15.122444456231463" id="-10144">
		<tag k="name" v="Otergreina" />
		<tag k="ssr:stedsnr" v="339916" />
		<tag k="waterway" v="stream" />
	</node>
	<node lat="67.80489444276338" lon="15.729083340824577" id="-10164">
		<tag k="name" v="Mølnelva" />
		<tag k="ssr:stedsnr" v="359524" />
		<tag k="waterway" v="stream" />
	</node>
	<node lat="67.7435916681422" lon="15.037405553045566" id="-10175">
		<tag k="name" v="Åsjordelva" />
		<tag k="ssr:stedsnr" v="359698" />
		<tag k="waterway" v="stream" />
	</node>
	<node lat="67.79484444244584" lon="15.138994438911213" id="-10187">
		<tag k="name" v="Øverdalsvatnet" />
		<tag k="natural" v="water" />
		<tag k="ssr:stedsnr" v="379932" />
	</node>
	<node lat="67.79401388624487" lon="15.527211112253338" id="-10197">
		<tag k="name" v="Storreva" />
		<tag k="ssr:stedsnr" v="380720" />
		<tag k="waterway" v="stream" />
	</node>
	<node lat="67.80259722584272" lon="15.689611110741177" id="-10198">
		<tag k="name" v="Haneelva" />
		<tag k="ssr:stedsnr" v="380736" />
		<tag k="waterway" v="stream" />
	</node>
	<node lat="67.79968611445244" lon="15.218241674408338" id="-10199">
		<tag k="name" v="Almenningsvatnet" />
		<tag k="natural" v="water" />
		<tag k="ssr:stedsnr" v="380738" />
	</node>
	<node lat="67.8048333307855" lon="15.231074988798406" id="-10200">
		<tag k="name" v="Einangen" />
		<tag k="place" v="locality" />
		<tag k="ssr:stedsnr" v="380750" />
	</node>
	<node lat="67.91978333145609" lon="15.164222226548503" id="-10225">
		<tag k="name" v="Bergselva" />
		<tag k="ssr:stedsnr" v="381148" />
		<tag k="waterway" v="stream" />
	</node>
	<node lat="67.72788611194328" lon="15.0342583220338" id="-10231">
		<tag k="name" v="Åsjordvatnet" />
		<tag k="natural" v="water" />
		<tag k="ssr:stedsnr" v="381233" />
		<tag k="water" v="lake" />
	</node>
	<node lat="67.8280638859111" lon="15.259861120541606" id="-10238">
		<tag k="alt_name" v="Vassbotnelv" />
		<tag k="name" v="Vassbotnelva" />
		<tag k="ssr:stedsnr" v="381197" />
		<tag k="waterway" v="stream" />
	</node>
	<node lat="67.84930833349344" lon="15.517041674067828" id="-10244">
		<tag k="name" v="Storvasseidet" />
		<tag k="place" v="locality" />
		<tag k="ssr:stedsnr" v="381769" />
	</node>
	<node lat="67.67959722072774" lon="15.550716656523832" id="-10252">
		<tag k="name" v="Vinkfjordelva" />
		<tag k="ssr:stedsnr" v="381849" />
		<tag k="waterway" v="river" />
	</node>
	<node lat="67.79575833375488" lon="15.10117778321145" id="-10270">
		<tag k="name" v="Vatnet" />
		<tag k="natural" v="water" />
		<tag k="ssr:stedsnr" v="400065" />
	</node>
	<node lat="67.88580833726499" lon="15.210661111066017" id="-10277">
		<tag k="name" v="Storelva" />
		<tag k="ssr:stedsnr" v="400920" />
		<tag k="waterway" v="river" />
	</node>
	<node lat="67.89328610808154" lon="15.164391659150592" id="-10278">
		<tag k="name" v="Oterelva" />
		<tag k="ssr:stedsnr" v="400987" />
		<tag k="waterway" v="stream" />
	</node>
	<node lat="67.74463055972602" lon="14.955519445468536" id="-10314">
		<tag k="name" v="Juvikelva" />
		<tag k="ssr:stedsnr" v="441168" />
		<tag k="waterway" v="stream" />
	</node>
	<node lat="67.8925944452775" lon="15.369563884467132" id="-10318">
		<tag k="fixme" v="multiple name tags, choose one and add the other to alt_name" />
		<tag k="loc_name" v="Djupingsvatnet" />
		<tag k="name" v="Storvatnet;Dypingsvatnet" />
		<tag k="natural" v="water" />
		<tag k="ssr:stedsnr" v="441526" />
		<tag k="water" v="lake" />
	</node>
	<node lat="67.69689166940674" lon="15.393594445988509" id="-10331">
		<tag k="alt_name" v="Helldalelva" />
		<tag k="name" v="Iselva" />
		<tag k="ssr:stedsnr" v="441846" />
		<tag k="waterway" v="stream" />
	</node>
	<node lat="67.8070305542181" lon="15.193844452475883" id="-10335">
		<tag k="name" v="Vassbotnelva" />
		<tag k="ssr:stedsnr" v="441974" />
		<tag k="waterway" v="stream" />
	</node>
	<node lat="67.85400833624868" lon="15.494741666998756" id="-10343">
		<tag k="name" v="Storvasselva" />
		<tag k="ssr:stedsnr" v="442216" />
		<tag k="waterway" v="river" />
	</node>
	<node lat="67.66643889092799" lon="15.46166110717958" id="-10360">
		<tag k="name" v="Nerelva" />
		<tag k="ssr:stedsnr" v="442577" />
		<tag k="waterway" v="stream" />
	</node>
	<node lat="67.67343055966687" lon="15.474919438815677" id="-10364">
		<tag k="name" v="Lappvatnet" />
		<tag k="natural" v="water" />
		<tag k="ssr:stedsnr" v="442855" />
		<tag k="water" v="lake" />
	</node>
	<node lat="67.66711944713603" lon="15.333855562072822" id="-10366">
		<tag k="name" v="Finnlægerelva" />
		<tag k="ssr:stedsnr" v="442864" />
		<tag k="waterway" v="stream" />
	</node>
	<node lat="67.73857777666555" lon="15.033872219812407" id="-10374">
		<tag k="alt_name" v="Mellamelva" />
		<tag k="name" v="Mellomelva" />
		<tag k="ssr:stedsnr" v="502200" />
		<tag k="waterway" v="river" />
	</node>
	<node lat="67.70183610740119" lon="14.94971110118259" id="-10377">
		<tag k="alt_name" v="Flekkosvatnan, øvre" />
		<tag k="loc_name" v="Tredje Flekkosvatnet" />
		<tag k="name" v="Øvre Flekkosvatnan" />
		<tag k="natural" v="water" />
		<tag k="ssr:stedsnr" v="502219" />
		<tag k="water" v="lake" />
	</node>
	<node lat="67.84992777702996" lon="15.572375011098314" id="-10379">
		<tag k="name" v="Storvatnet" />
		<tag k="natural" v="water" />
		<tag k="ssr:stedsnr" v="502497" />
		<tag k="water" v="lake" />
	</node>
	<node lat="67.79936389166006" lon="15.209224999494346" id="-10385">
		<tag k="name" v="Langneset" />
		<tag k="natural" v="cape" />
		<tag k="ssr:stedsnr" v="501939" />
	</node>
	<node lat="67.79735000173598" lon="15.217188886419926" id="-10386">
		<tag k="fixme" v="multiple name tags, choose one and add the other to alt_name" />
		<tag k="name" v="Allmenningsvatnet;Nordfoldvatnet" />
		<tag k="natural" v="water" />
		<tag k="ssr:stedsnr" v="501941" />
		<tag k="water" v="lake" />
	</node>
	<node lat="67.84900277778407" lon="15.255863894469774" id="-10395">
		<tag k="loc_name" v="Tverrelvvatnan" />
		<tag k="name" v="Norddalsvatnan" />
		<tag k="natural" v="water" />
		<tag k="ssr:stedsnr" v="502756" />
		<tag k="water" v="lake" />
	</node>
	<node lat="67.84383332964232" lon="15.367211098462693" id="-10398">
		<tag k="name" v="Rønelva" />
		<tag k="ssr:stedsnr" v="502766" />
		<tag k="waterway" v="stream" />
	</node>
	<node lat="67.8717861120554" lon="15.190955551921585" id="-10407">
		<tag k="name" v="Mølnelva" />
		<tag k="ssr:stedsnr" v="502156" />
		<tag k="waterway" v="stream" />
	</node>
	<node lat="67.73708333696193" lon="15.011338887604518" id="-10408">
		<tag k="name" v="Sagelva" />
		<tag k="ssr:stedsnr" v="502160" />
		<tag k="waterway" v="stream" />
	</node>
	<node lat="67.84036388786612" lon="15.781669443203722" id="-10416">
		<tag k="name" v="Skilelva" />
		<tag k="ssr:stedsnr" v="502446" />
		<tag k="waterway" v="stream" />
	</node>
	<node lat="67.92064722266713" lon="15.469586111971324" id="-10420">
		<tag k="name" v="Innerelva" />
		<tag k="ssr:stedsnr" v="502561" />
		<tag k="waterway" v="stream" />
	</node>
	<node lat="67.88696944176733" lon="15.51154998698723" id="-10423">
		<tag k="name" v="Storvikodden" />
		<tag k="natural" v="cape" />
		<tag k="ssr:stedsnr" v="502512" />
	</node>
	<node lat="67.67609166563948" lon="15.32327222693861" id="-10436">
		<tag k="alt_name" v="Brattfjordvannet" />
		<tag k="name" v="Brattfjordvatnet" />
		<tag k="natural" v="water" />
		<tag k="ssr:stedsnr" v="502841" />
		<tag k="water" v="lake" />
	</node>
	<node lat="67.67015000116027" lon="15.320786108034167" id="-10479">
		<tag k="name" v="Finnlægret" />
		<tag k="natural" v="cape" />
		<tag k="ssr:stedsnr" v="541396" />
	</node>
	<node lat="67.9239888893412" lon="15.57544444641203" id="-10481">
		<tag k="name" v="Nordelva" />
		<tag k="ssr:stedsnr" v="541474" />
		<tag k="waterway" v="stream" />
	</node>
	<node lat="67.68775277917092" lon="15.661697217704889" id="-10486">
		<tag k="name" v="Stavfjordelva" />
		<tag k="ssr:stedsnr" v="541497" />
		<tag k="waterway" v="river" />
	</node>
	<node lat="67.813822221572" lon="15.713983320890113" id="-10489">
		<tag k="name" v="Storelvneselva" />
		<tag k="ssr:stedsnr" v="541528" />
		<tag k="waterway" v="stream" />
	</node>
	<node lat="67.74748610857476" lon="15.082749988427077" id="-10499">
		<tag k="name" v="Røyrneselva" />
		<tag k="ssr:stedsnr" v="541746" />
		<tag k="waterway" v="stream" />
	</node>
	<node lat="67.94766111394307" lon="15.10380556681025" id="-10518">
		<tag k="name" v="Skagstadvatnet" />
		<tag k="natural" v="water" />
		<tag k="ssr:stedsnr" v="562211" />
	</node>
	<node lat="67.8998861114349" lon="15.362883344426836" id="-10528">
		<tag k="name" v="Sennvatnet" />
=======
	<node id="-181643" lat="67.9197833315" lon="15.1642222265">
		<tag k="name" v="Bergselva" />
		<tag k="ssr:stedsnr" v="381148" />
		<tag k="waterway" v="stream" />
	</node>
	<node id="-179587" lat="67.6671194471" lon="15.3338555621">
		<tag k="name" v="Finnlægerelva" />
		<tag k="ssr:stedsnr" v="442864" />
		<tag k="waterway" v="stream" />
	</node>
	<node id="-179585" lat="67.6734305597" lon="15.4749194388">
		<tag k="name" v="Lappvatnet" />
		<tag k="natural" v="water" />
		<tag k="ssr:stedsnr" v="442855" />
		<tag k="water" v="lake" />
	</node>
	<node id="-179581" lat="67.7401305584" lon="15.4843555502">
		<tag k="name" v="Øvervatnet" />
		<tag k="natural" v="water" />
		<tag k="ssr:stedsnr" v="442807" />
	</node>
	<node id="-179575" lat="67.828275001" lon="15.4762027834">
		<tag k="name" v="Elvkrokan" />
		<tag k="natural" v="cape" />
		<tag k="ssr:stedsnr" v="442754" />
	</node>
	<node id="-179572" lat="67.6664388909" lon="15.4616611072">
		<tag k="name" v="Nerelva" />
		<tag k="ssr:stedsnr" v="442577" />
		<tag k="waterway" v="stream" />
	</node>
	<node id="-179558" lat="67.8083027753" lon="15.7587027765">
		<tag k="name" v="Storelva" />
		<tag k="ssr:stedsnr" v="442240" />
		<tag k="waterway" v="river" />
	</node>
	<node id="-181605" lat="67.8498694493" lon="15.0692083235">
		<tag k="name" v="Nonsvatnet" />
		<tag k="natural" v="water" />
		<tag k="ssr:stedsnr" v="380804" />
		<tag k="water" v="lake" />
	</node>
	<node id="-179554" lat="67.8540083362" lon="15.494741667">
		<tag k="name" v="Storvasselva" />
		<tag k="ssr:stedsnr" v="442216" />
		<tag k="waterway" v="river" />
	</node>
	<node id="-181600" lat="67.8376777754" lon="15.2017250073">
		<tag k="alt_name" v="Andrevatnet" />
		<tag k="name" v="Mellavatnet" />
		<tag k="natural" v="water" />
		<tag k="ssr:stedsnr" v="380776" />
		<tag k="water" v="lake" />
	</node>
	<node id="-181597" lat="67.8048333308" lon="15.2310749888">
		<tag k="name" v="Einangen" />
		<tag k="natural" v="strait" />
		<tag k="ssr:stedsnr" v="380750" />
	</node>
	<node id="-181596" lat="67.7996861145" lon="15.2182416744">
		<tag k="name" v="Almenningsvatnet" />
		<tag k="natural" v="water" />
		<tag k="ssr:stedsnr" v="380738" />
	</node>
	<node id="-181595" lat="67.8025972258" lon="15.6896111107">
		<tag k="name" v="Haneelva" />
		<tag k="ssr:stedsnr" v="380736" />
		<tag k="waterway" v="stream" />
	</node>
	<node id="-181582" lat="67.74055278" lon="14.9755861172">
		<tag k="name" v="Gyllsetelva" />
		<tag k="ssr:stedsnr" v="380174" />
		<tag k="waterway" v="stream" />
	</node>
	<node id="-179524" lat="67.8070305542" lon="15.1938444525">
		<tag k="name" v="Vassbotnelva" />
		<tag k="ssr:stedsnr" v="441974" />
		<tag k="waterway" v="stream" />
	</node>
	<node id="-181568" lat="67.7948444424" lon="15.1389944389">
		<tag k="name" v="Øverdalsvatnet" />
		<tag k="natural" v="water" />
		<tag k="ssr:stedsnr" v="379932" />
	</node>
	<node id="-179517" lat="67.7370138894" lon="15.5943472165">
		<tag k="name" v="Martnesvikvatnet" />
		<tag k="natural" v="water" />
		<tag k="ssr:stedsnr" v="441869" />
	</node>
	<node id="-179515" lat="67.6968916694" lon="15.393594446">
		<tag k="alt_name" v="Helldalelva" />
		<tag k="name" v="Iselva" />
		<tag k="ssr:stedsnr" v="441846" />
		<tag k="waterway" v="stream" />
	</node>
	<node id="-181558" lat="67.7435916681" lon="15.037405553">
		<tag k="name" v="Åsjordelva" />
		<tag k="ssr:stedsnr" v="359698" />
		<tag k="waterway" v="stream" />
	</node>
	<node id="-179500" lat="67.8925944453" lon="15.3695638845">
		<tag k="fixme" v="multiple name tags, choose one and add the other to alt_name" />
		<tag k="loc_name" v="Djupingsvatnet" />
		<tag k="name" v="Dypingsvatnet;Storvatnet" />
		<tag k="natural" v="water" />
		<tag k="ssr:stedsnr" v="441526" />
		<tag k="water" v="lake" />
	</node>
	<node id="-181544" lat="67.8048944428" lon="15.7290833408">
		<tag k="name" v="Mølnelva" />
		<tag k="ssr:stedsnr" v="359524" />
		<tag k="waterway" v="stream" />
	</node>
	<node id="-179491" lat="67.7446305597" lon="14.9555194455">
		<tag k="name" v="Juvikelva" />
		<tag k="ssr:stedsnr" v="441168" />
		<tag k="waterway" v="stream" />
	</node>
	<node id="-181527" lat="67.8809555572" lon="15.1224444562">
		<tag k="name" v="Otergreina" />
		<tag k="ssr:stedsnr" v="339916" />
		<tag k="waterway" v="stream" />
	</node>
	<node id="-179478" lat="67.7675694472" lon="15.1807277773">
		<tag k="name" v="Storkroken" />
		<tag k="natural" v="bay" />
		<tag k="ssr:stedsnr" v="218910" />
	</node>
	<node id="-181519" lat="67.8730083343" lon="15.2495138881">
		<tag k="name" v="Nyvoldelva" />
		<tag k="ssr:stedsnr" v="339859" />
		<tag k="waterway" v="stream" />
	</node>
	<node id="-181518" lat="67.7829472223" lon="15.296119444">
		<tag k="name" v="Mølnvikelva" />
		<tag k="ssr:stedsnr" v="339852" />
		<tag k="waterway" v="stream" />
	</node>
	<node id="-179457" lat="67.8031999958" lon="15.7867888965">
		<tag k="name" v="Mellaelven" />
		<tag k="natural" v="cape" />
		<tag k="ssr:stedsnr" v="298460" />
	</node>
	<node id="-179456" lat="67.8141305575" lon="15.8027027806">
		<tag k="name" v="Sleipelva" />
		<tag k="ssr:stedsnr" v="298456" />
		<tag k="waterway" v="stream" />
	</node>
	<node id="-179453" lat="67.939013893" lon="15.5955500011">
		<tag k="name" v="Skjellelva" />
		<tag k="ssr:stedsnr" v="298406" />
		<tag k="waterway" v="stream" />
	</node>
	<node id="-181485" lat="67.8899500022" lon="15.0201166678">
		<tag k="name" v="Skånlandsvatnet" />
		<tag k="natural" v="water" />
		<tag k="ssr:stedsnr" v="320878" />
	</node>
	<node id="-181484" lat="67.8901027783" lon="15.0265694362">
		<tag k="name" v="Storholmen" />
		<tag k="place" v="islet" />
		<tag k="ssr:stedsnr" v="320872" />
	</node>
	<node id="-181483" lat="67.8864333364" lon="15.1099305641">
		<tag k="alt_name" v="Litlskardvatnet" />
		<tag k="name" v="Litlskarvatnet" />
		<tag k="natural" v="water" />
		<tag k="ssr:stedsnr" v="320871" />
	</node>
	<node id="-181480" lat="67.6569666682" lon="15.5535750053">
		<tag k="name" v="Vinkfjordvatnan" />
		<tag k="natural" v="water" />
		<tag k="ssr:stedsnr" v="320849" />
		<tag k="water" v="lake" />
	</node>
	<node id="-179421" lat="67.7301027738" lon="14.8197305657">
		<tag k="name" v="Storvatnet" />
		<tag k="natural" v="water" />
		<tag k="ssr:stedsnr" v="199228" />
	</node>
	<node id="-179416" lat="67.9576972216" lon="14.9978027716">
		<tag k="name" v="Dragarelva" />
		<tag k="ssr:stedsnr" v="199205" />
		<tag k="waterway" v="stream" />
	</node>
	<node id="-181460" lat="67.8417555534" lon="15.5804249988">
		<tag k="name" v="Storvika" />
		<tag k="natural" v="bay" />
		<tag k="ssr:stedsnr" v="320753" />
	</node>
	<node id="-181458" lat="67.8219694491" lon="15.2936138865">
		<tag k="alt_name" v="Stokkvasselv" />
		<tag k="name" v="Stokkvasselva" />
		<tag k="ssr:stedsnr" v="320733" />
		<tag k="waterway" v="stream" />
	</node>
	<node id="-181453" lat="67.7937194413" lon="15.3006638904">
		<tag k="name" v="Laksåga" />
		<tag k="ssr:stedsnr" v="320676" />
		<tag k="waterway" v="stream" />
	</node>
	<node id="-179404" lat="67.8302722218" lon="15.140986105">
		<tag k="name" v="Skjelvareidelva" />
		<tag k="ssr:stedsnr" v="198739" />
		<tag k="waterway" v="river" />
	</node>
	<node id="-179399" lat="67.7959694436" lon="15.0503416717">
		<tag k="name" v="Mjølnelva" />
		<tag k="ssr:stedsnr" v="177668" />
		<tag k="waterway" v="stream" />
	</node>
	<node id="-179390" lat="67.9352833324" lon="15.5945944556">
		<tag k="name" v="Jordbærelva" />
		<tag k="ssr:stedsnr" v="177469" />
		<tag k="waterway" v="stream" />
	</node>
	<node id="-179386" lat="67.8919000035" lon="14.9546194535">
		<tag k="alt_name" v="Trollvatnet, l;Litltrollvatnet" />
		<tag k="name" v="Litl Trollvatnet" />
		<tag k="natural" v="water" />
		<tag k="ssr:stedsnr" v="163852" />
	</node>
	<node id="-181432" lat="67.813894444" lon="15.7340861144">
		<tag k="name" v="Tverrelva" />
		<tag k="ssr:stedsnr" v="320459" />
		<tag k="waterway" v="stream" />
	</node>
	<node id="-181431" lat="67.9445666642" lon="15.1537055567">
		<tag k="name" v="Trollvatnet" />
		<tag k="natural" v="water" />
		<tag k="ssr:stedsnr" v="320261" />
	</node>
	<node id="-179381" lat="67.8912777747" lon="15.1104499992">
		<tag k="name" v="Litlskarelva" />
		<tag k="ssr:stedsnr" v="279938" />
		<tag k="waterway" v="stream" />
	</node>
	<node id="-181428" lat="67.7061638873" lon="15.0252944549">
		<tag k="name" v="Galtvatnet" />
		<tag k="natural" v="water" />
		<tag k="ssr:stedsnr" v="320254" />
	</node>
	<node id="-179373" lat="67.8685555558" lon="15.1281805441">
		<tag k="name" v="Innerpollen" />
		<tag k="natural" v="water" />
		<tag k="ssr:stedsnr" v="279597" />
		<tag k="water" v="lake" />
	</node>
	<node id="-181417" lat="67.9609166694" lon="15.051819448">
		<tag k="name" v="Skardselva" />
		<tag k="ssr:stedsnr" v="320194" />
		<tag k="waterway" v="stream" />
	</node>
	<node id="-181416" lat="67.8338444446" lon="15.8187250055">
		<tag k="name" v="Langodden" />
		<tag k="natural" v="cape" />
		<tag k="ssr:stedsnr" v="320191" />
	</node>
	<node id="-181415" lat="67.7177444425" lon="15.0172666577">
		<tag k="name" v="Nonselva" />
		<tag k="ssr:stedsnr" v="320190" />
		<tag k="waterway" v="river" />
	</node>
	<node id="-182127" lat="67.6844944414" lon="15.0249694429">
		<tag k="name" v="Stamsvikelva" />
		<tag k="ssr:stedsnr" v="744169" />
		<tag k="waterway" v="river" />
	</node>
	<node id="-179803" lat="67.9206472227" lon="15.469586112">
		<tag k="name" v="Innerelva" />
		<tag k="ssr:stedsnr" v="502561" />
		<tag k="waterway" v="stream" />
	</node>
	<node id="-179341" lat="67.7331944492" lon="14.8223999926">
		<tag k="name" v="Litlvatnet" />
		<tag k="natural" v="water" />
		<tag k="ssr:stedsnr" v="138183" />
	</node>
	<node id="-181378" lat="67.7810250033" lon="15.1477333416">
		<tag k="alt_name" v="Hellågelva" />
		<tag k="name" v="Hellåelva" />
		<tag k="ssr:stedsnr" v="319965" />
		<tag k="waterway" v="river" />
	</node>
	<node id="-179327" lat="67.8397027736" lon="15.1131999981">
		<tag k="name" v="Snøsvatnet" />
		<tag k="natural" v="water" />
		<tag k="ssr:stedsnr" v="137777" />
	</node>
	<node id="-181372" lat="67.7380749999" lon="15.4611166605">
		<tag k="name" v="Andtjørna" />
		<tag k="natural" v="water" />
		<tag k="ssr:stedsnr" v="319824" />
	</node>
	<node id="-179321" lat="67.8672805539" lon="15.1603555582">
		<tag k="alt_name" v="Furevatnet" />
		<tag k="fixme" v="multiple name tags, choose one and add the other to alt_name" />
		<tag k="name" v="Lilandsvatnet;Førvatnet" />
		<tag k="natural" v="water" />
		<tag k="ssr:stedsnr" v="137822" />
	</node>
	<node id="-181367" lat="67.688405552" lon="15.0021944325">
		<tag k="name" v="Flekkoselvfossen" />
		<tag k="natural" v="waterfall" />
		<tag k="ssr:stedsnr" v="210529" />
	</node>
	<node id="-181355" lat="67.8825861092" lon="15.0277749891">
		<tag k="fixme" v="multiple name tags, choose one and add the other to alt_name" />
		<tag k="name" v="Gynnelvatnet;Markvatnet" />
		<tag k="natural" v="water" />
		<tag k="ssr:stedsnr" v="199865" />
		<tag k="water" v="lake" />
	</node>
	<node id="-179305" lat="68.0107333324" lon="15.2003694376">
		<tag k="name" v="Førstevatnet" />
		<tag k="natural" v="water" />
		<tag k="ssr:stedsnr" v="260903" />
	</node>
	<node id="-181349" lat="67.6681388912" lon="15.4666555587">
		<tag k="name" v="Forheiodden" />
		<tag k="natural" v="cape" />
		<tag k="ssr:stedsnr" v="199841" />
	</node>
	<node id="-181348" lat="67.8783277798" lon="15.003902772">
		<tag k="name" v="Sandnes" />
		<tag k="natural" v="cape" />
		<tag k="ssr:stedsnr" v="199828" />
	</node>
	<node id="-179295" lat="67.9442527809" lon="15.6621333365">
		<tag k="name" v="Heielva" />
		<tag k="ssr:stedsnr" v="260601" />
		<tag k="waterway" v="stream" />
	</node>
	<node id="-181341" lat="67.7422472181" lon="15.4808083418">
		<tag k="name" v="Vesterbotnen" />
		<tag k="natural" v="bay" />
		<tag k="ssr:stedsnr" v="199796" />
	</node>
	<node id="-181336" lat="67.8342083368" lon="15.7024638952">
		<tag k="name" v="Kalvtindvatnan" />
		<tag k="natural" v="water" />
		<tag k="ssr:stedsnr" v="199751" />
		<tag k="water" v="lake" />
	</node>
	<node id="-179277" lat="67.8106861141" lon="15.1549138779">
		<tag k="alt_name" v="Øverdalvatnet" />
		<tag k="name" v="Øverdalsvatnet" />
		<tag k="natural" v="water" />
		<tag k="ssr:stedsnr" v="259973" />
	</node>
	<node id="-181321" lat="67.8389638875" lon="15.8250083333">
		<tag k="name" v="Makkvatnet - Suoksavuomjávrre" />
		<tag k="name:no" v="Makkvatnet" />
		<tag k="name:smj" v="Suoksavuomjávrre" />
		<tag k="natural" v="water" />
		<tag k="old_name:smj" v="Suoksavuomejávri" />
		<tag k="ssr:stedsnr" v="199433" />
		<tag k="water" v="lake" />
	</node>
	<node id="-181320" lat="67.806499999" lon="15.6912944388">
		<tag k="name" v="Gardsneset" />
		<tag k="natural" v="cape" />
		<tag k="ssr:stedsnr" v="199199" />
	</node>
	<node id="-179271" lat="68.0059638863" lon="15.1741972137">
		<tag k="name" v="Nordosen" />
		<tag k="natural" v="bay" />
		<tag k="ssr:stedsnr" v="259863" />
	</node>
	<node id="-181317" lat="67.7722361136" lon="15.1968944391">
		<tag k="name" v="Storelva" />
		<tag k="ssr:stedsnr" v="199191" />
		<tag k="waterway" v="river" />
	</node>
	<node id="-179268" lat="67.8193694464" lon="15.0128111176">
		<tag k="alt_name" v="Bjørndalsvatnet, store" />
		<tag k="name" v="Store Bjørndalsvatnet" />
		<tag k="natural" v="water" />
		<tag k="ssr:stedsnr" v="259792" />
	</node>
	<node id="-180406" lat="67.7973944478" lon="15.2180472249">
		<tag k="name" v="Einangstranda" />
		<tag k="natural" v="beach" />
		<tag k="ssr:stedsnr" v="784736" />
	</node>
	<node id="-179263" lat="67.8001750045" lon="15.5668194347">
		<tag k="name" v="Revvatnan" />
		<tag k="natural" v="water" />
		<tag k="ssr:stedsnr" v="259696" />
		<tag k="water" v="lake" />
	</node>
	<node id="-179260" lat="67.7873555556" lon="15.2826999895">
		<tag k="name" v="Mølnelva" />
		<tag k="ssr:stedsnr" v="259678" />
		<tag k="waterway" v="stream" />
	</node>
	<node id="-181304" lat="67.6901222202" lon="14.9749361168">
		<tag k="alt_name" v="Flekkosvatnan, nedre" />
		<tag k="loc_name" v="Første Flekkosvatnet" />
		<tag k="name" v="Nedre Flekkosvatnan" />
		<tag k="natural" v="water" />
		<tag k="ssr:stedsnr" v="199256" />
	</node>
	<node id="-179254" lat="67.9237333313" lon="15.5095499931">
		<tag k="name" v="Slettheivatnet" />
		<tag k="natural" v="water" />
		<tag k="ssr:stedsnr" v="259545" />
	</node>
	<node id="-181291" lat="67.7961277772" lon="14.8996500018">
		<tag k="name" v="Sundselva" />
		<tag k="ssr:stedsnr" v="198989" />
		<tag k="waterway" v="river" />
	</node>
	<node id="-179239" lat="67.7973944425" lon="15.2099833252">
		<tag k="name" v="Gjerdneset" />
		<tag k="natural" v="cape" />
		<tag k="ssr:stedsnr" v="258942" />
	</node>
	<node id="-181282" lat="67.8572361094" lon="15.1761194396">
		<tag k="alt_name" v="Skjelelva" />
		<tag k="name" v="Skjellelva" />
		<tag k="ssr:stedsnr" v="198790" />
		<tag k="waterway" v="stream" />
	</node>
	<node id="-181270" lat="67.8511083336" lon="14.9601222247">
		<tag k="fixme" v="multiple name tags, choose one and add the other to alt_name" />
		<tag k="name" v="Kvanndalselva;Neselva" />
		<tag k="ssr:stedsnr" v="198776" />
		<tag k="waterway" v="stream" />
	</node>
	<node id="-181269" lat="67.8238833342" lon="14.8865694415">
		<tag k="name" v="Lundvatnet" />
		<tag k="natural" v="water" />
		<tag k="ssr:stedsnr" v="198770" />
		<tag k="water" v="lake" />
	</node>
	<node id="-179216" lat="67.7214000041" lon="15.0641000005">
		<tag k="name" v="Fuglevatnet" />
		<tag k="natural" v="water" />
		<tag k="ssr:stedsnr" v="78222" />
		<tag k="water" v="lake" />
	</node>
	<node id="-179210" lat="67.798388885" lon="15.6703527708">
		<tag k="name" v="Skjelelva" />
		<tag k="ssr:stedsnr" v="78206" />
		<tag k="waterway" v="stream" />
	</node>
	<node id="-181252" lat="67.72070833" lon="15.1415555493">
		<tag k="name" v="Mengdalelva" />
		<tag k="ssr:stedsnr" v="177693" />
		<tag k="waterway" v="stream" />
	</node>
	<node id="-179202" lat="67.7873583309" lon="15.2030194549">
		<tag k="name" v="Sandneset" />
		<tag k="natural" v="cape" />
		<tag k="ssr:stedsnr" v="238738" />
	</node>
	<node id="-179201" lat="67.7537722246" lon="15.1139694377">
		<tag k="name" v="Møllelva" />
		<tag k="ssr:stedsnr" v="238735" />
		<tag k="waterway" v="stream" />
	</node>
	<node id="-181247" lat="67.8896027751" lon="15.3757055559">
		<tag k="name" v="Sanden" />
		<tag k="natural" v="beach" />
		<tag k="ssr:stedsnr" v="177300" />
	</node>
	<node id="-179197" lat="67.7219722229" lon="15.1498361203">
		<tag k="name" v="Breivikelva" />
		<tag k="ssr:stedsnr" v="238662" />
		<tag k="waterway" v="stream" />
	</node>
	<node id="-179190" lat="67.7212833344" lon="14.9110555566">
		<tag k="name" v="Skarelva" />
		<tag k="ssr:stedsnr" v="238552" />
		<tag k="waterway" v="stream" />
	</node>
	<node id="-181237" lat="67.6417611114" lon="15.4898944361">
		<tag k="name" v="Lappvasskartjønna" />
		<tag k="natural" v="water" />
		<tag k="ssr:stedsnr" v="173297" />
	</node>
	<node id="-179182" lat="67.8210583305" lon="15.378827787">
		<tag k="name" v="Andersnes" />
		<tag k="natural" v="cape" />
		<tag k="ssr:stedsnr" v="238246" />
	</node>
	<node id="-181229" lat="67.9194000033" lon="15.0513222322">
		<tag k="name" v="Sandvågelva" />
		<tag k="ssr:stedsnr" v="158650" />
		<tag k="waterway" v="stream" />
	</node>
	<node id="-179173" lat="67.8039249983" lon="15.747247221">
		<tag k="name" v="Futmoelva" />
		<tag k="ssr:stedsnr" v="237490" />
		<tag k="waterway" v="stream" />
	</node>
	<node id="-179169" lat="67.7644861078" lon="15.5135111217">
		<tag k="name" v="Svardalselva" />
		<tag k="ssr:stedsnr" v="55323" />
		<tag k="waterway" v="stream" />
	</node>
	<node id="-179145" lat="67.8221916655" lon="15.4675249898">
		<tag k="name" v="Bjørsvikelva" />
		<tag k="ssr:stedsnr" v="17750" />
		<tag k="waterway" v="stream" />
	</node>
	<node id="-179144" lat="67.7572444474" lon="15.5279444345">
		<tag k="name" v="Røyrvikelva" />
		<tag k="ssr:stedsnr" v="17720" />
		<tag k="waterway" v="stream" />
	</node>
	<node id="-179141" lat="67.9418527777" lon="15.6683944322">
		<tag k="name" v="Forselva" />
		<tag k="ssr:stedsnr" v="17208" />
		<tag k="waterway" v="river" />
	</node>
	<node id="-179140" lat="67.7929638861" lon="15.7661249968">
		<tag k="name" v="Tollknivelva" />
		<tag k="ssr:stedsnr" v="17310" />
		<tag k="waterway" v="stream" />
	</node>
	<node id="-181182" lat="67.6542805589" lon="15.2341805619">
		<tag k="name" v="Durmålsvatnet" />
		<tag k="natural" v="water" />
		<tag k="ssr:stedsnr" v="138848" />
	</node>
	<node id="-181177" lat="67.8748055594" lon="15.0157638853">
		<tag k="name" v="Åsvatna" />
		<tag k="natural" v="water" />
		<tag k="ssr:stedsnr" v="138823" />
	</node>
	<node id="-181169" lat="67.8348444487" lon="15.359741667">
		<tag k="name" v="Svartvatnet" />
		<tag k="natural" v="water" />
		<tag k="ssr:stedsnr" v="138757" />
	</node>
	<node id="-181167" lat="67.8119666708" lon="15.2838138805">
		<tag k="name" v="Laksåvatnet" />
		<tag k="natural" v="water" />
		<tag k="ssr:stedsnr" v="138744" />
		<tag k="water" v="lake" />
	</node>
	<node id="-179117" lat="67.7707388847" lon="15.2480472304">
		<tag k="name" v="Hestvikneselva" />
		<tag k="ssr:stedsnr" v="218892" />
		<tag k="waterway" v="stream" />
	</node>
	<node id="-181164" lat="67.7608222201" lon="15.4858000098">
		<tag k="fixme" v="multiple name tags, choose one and add the other to alt_name" />
		<tag k="name" v="Mølnelva;Sagelva" />
		<tag k="ssr:stedsnr" v="138701" />
		<tag k="waterway" v="stream" />
	</node>
	<node id="-181157" lat="67.893988889" lon="15.3561250003">
		<tag k="name" v="Balkjostjørna" />
		<tag k="natural" v="water" />
		<tag k="ssr:stedsnr" v="138537" />
	</node>
	<node id="-181156" lat="67.8952944451" lon="15.6354999924">
		<tag k="name" v="Malåelva" />
		<tag k="ssr:stedsnr" v="138533" />
		<tag k="waterway" v="river" />
	</node>
	<node id="-181121" lat="67.8262305566" lon="14.8039416714">
		<tag k="name" v="Lomtjørna" />
		<tag k="natural" v="water" />
		<tag k="ssr:stedsnr" v="137738" />
	</node>
	<node id="-181120" lat="67.8350722232" lon="14.912525011">
		<tag k="name" v="Ersvikvatnet" />
		<tag k="natural" v="water" />
		<tag k="ssr:stedsnr" v="137728" />
	</node>
	<node id="-181110" lat="67.7132916703" lon="15.1141027849">
		<tag k="name" v="Vallelva" />
		<tag k="ssr:stedsnr" v="117648" />
		<tag k="waterway" v="stream" />
	</node>
	<node id="-181095" lat="67.8212805583" lon="15.7874444478">
		<tag k="name" v="Nordmelelvan" />
		<tag k="ssr:stedsnr" v="116483" />
		<tag k="waterway" v="stream" />
	</node>
	<node id="-181094" lat="67.8368888889" lon="15.8004916595">
		<tag k="name" v="Nordskjellelva" />
		<tag k="ssr:stedsnr" v="116479" />
		<tag k="waterway" v="stream" />
	</node>
	<node id="-181091" lat="67.9346916667" lon="15.5120916645">
		<tag k="name" v="Steinelva" />
		<tag k="ssr:stedsnr" v="116441" />
		<tag k="waterway" v="stream" />
	</node>
	<node id="-181090" lat="67.6580472192" lon="15.4703138957">
		<tag k="name" v="Botnelva" />
		<tag k="ssr:stedsnr" v="116298" />
		<tag k="waterway" v="river" />
	</node>
	<node id="-181081" lat="67.8912722237" lon="15.1504499922">
		<tag k="name" v="Gardselva" />
		<tag k="ssr:stedsnr" v="97990" />
		<tag k="waterway" v="river" />
	</node>
	<node id="-181066" lat="67.7299222197" lon="14.8015444511">
		<tag k="name" v="Tårnvikelva" />
		<tag k="ssr:stedsnr" v="97536" />
		<tag k="waterway" v="stream" />
	</node>
	<node id="-181049" lat="67.6591916711" lon="15.5823944436">
		<tag k="name" v="Langvatnet" />
		<tag k="natural" v="water" />
		<tag k="ssr:stedsnr" v="78858" />
	</node>
	<node id="-181048" lat="67.666936113" lon="15.5971722241">
		<tag k="name" v="Litlvatnet" />
		<tag k="natural" v="water" />
		<tag k="ssr:stedsnr" v="78855" />
	</node>
	<node id="-181041" lat="67.8414611134" lon="15.3155888871">
		<tag k="name" v="Stokkvatnet" />
		<tag k="natural" v="water" />
		<tag k="ssr:stedsnr" v="78739" />
		<tag k="water" v="lake" />
	</node>
	<node id="-181040" lat="67.8177527824" lon="15.3387416598">
		<tag k="name" v="Litlvatnet" />
		<tag k="natural" v="water" />
		<tag k="ssr:stedsnr" v="78735" />
	</node>
	<node id="-181028" lat="67.8666277766" lon="15.2616361161">
		<tag k="name" v="Breiddalsvatnan" />
		<tag k="natural" v="water" />
		<tag k="ssr:stedsnr" v="78504" />
		<tag k="water" v="lake" />
	</node>
	<node id="-181027" lat="67.7148972258" lon="14.9117638788">
		<tag k="alt_name" v="Vannerelva" />
		<tag k="name" v="Vanderelva" />
		<tag k="ssr:stedsnr" v="78199" />
		<tag k="waterway" v="stream" />
	</node>
	<node id="-181024" lat="67.816730552" lon="14.8729333391">
		<tag k="name" v="Storelva" />
		<tag k="ssr:stedsnr" v="78186" />
		<tag k="waterway" v="river" />
	</node>
	<node id="-180997" lat="67.8034611084" lon="14.8809027855">
		<tag k="name" v="Svartdalsvatnet" />
		<tag k="natural" v="water" />
		<tag k="ssr:stedsnr" v="77979" />
	</node>
	<node id="-180995" lat="67.8190638856" lon="15.1933333303">
		<tag k="alt_name" v="Tindvatnet, l" />
		<tag k="name" v="Litl Tindvatnet" />
		<tag k="natural" v="water" />
		<tag k="ssr:stedsnr" v="77968" />
	</node>
	<node id="-180993" lat="67.7732722263" lon="15.1259499907">
		<tag k="name" v="Skyttelva" />
		<tag k="ssr:stedsnr" v="77915" />
		<tag k="waterway" v="river" />
	</node>
	<node id="-180985" lat="67.8673527775" lon="15.141980556">
		<tag k="name" v="Litlvatnet" />
		<tag k="natural" v="water" />
		<tag k="ssr:stedsnr" v="77836" />
	</node>
	<node id="-180960" lat="67.9040638896" lon="15.568663888">
		<tag k="alt_name" v="Malågvatnet" />
		<tag k="name" v="Malåvatnet" />
		<tag k="natural" v="water" />
		<tag k="ssr:stedsnr" v="77548" />
		<tag k="water" v="lake" />
	</node>
	<node id="-180939" lat="67.8436388908" lon="15.0323138823">
		<tag k="name" v="Kløftelva" />
		<tag k="ssr:stedsnr" v="56987" />
		<tag k="waterway" v="stream" />
	</node>
	<node id="-180925" lat="67.7079138896" lon="15.0974694339">
		<tag k="name" v="Bustielva" />
		<tag k="ssr:stedsnr" v="56671" />
		<tag k="waterway" v="stream" />
	</node>
	<node id="-180923" lat="67.8088083318" lon="14.9523833351">
		<tag k="name" v="Leirosdalsfossen" />
		<tag k="natural" v="waterfall" />
		<tag k="ssr:stedsnr" v="56627" />
	</node>
	<node id="-180909" lat="67.7969444434" lon="15.2825416601">
		<tag k="name" v="Hammarelva" />
		<tag k="ssr:stedsnr" v="56344" />
		<tag k="waterway" v="stream" />
	</node>
	<node id="-182044" lat="67.8308916691" lon="15.5804999898">
		<tag k="name" v="Skjelelva" />
		<tag k="ssr:stedsnr" v="623747" />
		<tag k="waterway" v="stream" />
	</node>
	<node id="-180894" lat="67.8839416669" lon="15.0601944371">
		<tag k="name" v="Sandneset" />
		<tag k="natural" v="cape" />
		<tag k="ssr:stedsnr" v="36923" />
	</node>
	<node id="-180885" lat="67.9343000015" lon="15.2854972214">
		<tag k="name" v="Mølnelva" />
		<tag k="ssr:stedsnr" v="36507" />
		<tag k="waterway" v="stream" />
	</node>
	<node id="-180879" lat="67.8190083377" lon="15.1388749902">
		<tag k="name" v="Øverdalselva" />
		<tag k="ssr:stedsnr" v="36397" />
		<tag k="waterway" v="stream" />
	</node>
	<node id="-182039" lat="67.7839027751" lon="15.2288611131">
		<tag k="name" v="Litlvatnet" />
		<tag k="natural" v="water" />
		<tag k="ssr:stedsnr" v="623708" />
	</node>
	<node id="-180867" lat="67.7725361157" lon="15.2392999978">
		<tag k="name" v="Kalvdalelva" />
		<tag k="ssr:stedsnr" v="36880" />
		<tag k="waterway" v="stream" />
	</node>
	<node id="-180858" lat="67.7655499982" lon="15.0818416746">
		<tag k="name" v="Djuposelva" />
		<tag k="ssr:stedsnr" v="17941" />
		<tag k="waterway" v="stream" />
	</node>
	<node id="-180850" lat="67.9185499981" lon="15.2212555555">
		<tag k="name" v="Forrvikranelva" />
		<tag k="ssr:stedsnr" v="17573" />
		<tag k="waterway" v="stream" />
	</node>
	<node id="-180847" lat="67.8942944429" lon="15.6640749899">
		<tag k="name" v="Forsanelva" />
		<tag k="ssr:stedsnr" v="17534" />
		<tag k="waterway" v="river" />
	</node>
	<node id="-180843" lat="67.887919448" lon="15.0022166672">
		<tag k="name" v="Røyrneset" />
		<tag k="natural" v="cape" />
		<tag k="ssr:stedsnr" v="17880" />
	</node>
	<node id="-180826" lat="67.8256611119" lon="15.2814999937">
		<tag k="name" v="Stokkvasseidet" />
		<tag k="natural" v="strait" />
		<tag k="ssr:stedsnr" v="17773" />
	</node>
	<node id="-180824" lat="67.8114138864" lon="15.5038138895">
		<tag k="name" v="Tennvatnan" />
		<tag k="natural" v="water" />
		<tag k="ssr:stedsnr" v="17762" />
		<tag k="water" v="lake" />
	</node>
	<node id="-180823" lat="67.6743944428" lon="15.466602781">
		<tag k="name" v="Rotneset" />
		<tag k="natural" v="cape" />
		<tag k="ssr:stedsnr" v="17754" />
	</node>
	<node id="-180811" lat="67.9765999979" lon="15.1864361178">
		<tag k="name" v="Jørnvatnet" />
		<tag k="natural" v="water" />
		<tag k="ssr:stedsnr" v="17238" />
	</node>
	<node id="-180766" lat="67.6719361116" lon="14.8150138826">
		<tag k="name" v="Brennsundelva" />
		<tag k="ssr:stedsnr" v="16766" />
		<tag k="waterway" v="river" />
	</node>
	<node id="-180765" lat="67.8211861099" lon="15.140905558">
		<tag k="alt_name" v="Mannslagarvatnet" />
		<tag k="name" v="Mannslagervatnet" />
>>>>>>> e1d4bc35ff8a6074a6f2e91616a996b547c36f15
		<tag k="natural" v="water" />
		<tag k="ssr:stedsnr" v="16748" />
	</node>
<<<<<<< HEAD
	<node lat="67.86919444738477" lon="15.310825008303258" id="-10532">
		<tag k="name" v="Hattvatnet" />
		<tag k="natural" v="water" />
		<tag k="ssr:stedsnr" v="562511" />
	</node>
	<node lat="67.90142777663203" lon="15.353258330802724" id="-10534">
		<tag k="alt_name" v="Lomtjørna" />
		<tag k="name" v="Lomtjønna" />
		<tag k="natural" v="water" />
		<tag k="ssr:stedsnr" v="562542" />
	</node>
	<node lat="67.76024166362843" lon="15.578600005305798" id="-10539">
		<tag k="name" v="Martnesvikelva" />
		<tag k="ssr:stedsnr" v="562670" />
		<tag k="waterway" v="stream" />
	</node>
	<node lat="67.83449722434116" lon="15.207252789297169" id="-10541">
		<tag k="alt_name" v="Tredjevatnet;Tredje Holmåkvatnet" />
		<tag k="name" v="Innervatnet" />
		<tag k="natural" v="water" />
		<tag k="old_name" v="Holmvågvatnet" />
		<tag k="ssr:stedsnr" v="562741" />
		<tag k="water" v="lake" />
	</node>
	<node lat="67.84471666469067" lon="15.203827782214764" id="-10542">
		<tag k="alt_name" v="Førstevatnet" />
		<tag k="name" v="Langvatnet" />
		<tag k="natural" v="water" />
		<tag k="ssr:stedsnr" v="562742" />
		<tag k="water" v="lake" />
	</node>
	<node lat="67.74834999764987" lon="15.466455549658411" id="-10543">
		<tag k="name" v="Durmålstjørna" />
		<tag k="natural" v="water" />
		<tag k="ssr:stedsnr" v="562775" />
	</node>
	<node lat="67.74857222367679" lon="15.448616664599461" id="-10544">
		<tag k="name" v="Innerelva" />
		<tag k="ssr:stedsnr" v="562777" />
		<tag k="waterway" v="stream" />
	</node>
	<node lat="67.84126388501392" lon="15.000747218782575" id="-10547">
		<tag k="fixme" v="multiple name tags, choose one and add the other to alt_name" />
		<tag k="name" v="Juvikvatnet;Strandtindvatnet" />
		<tag k="natural" v="water" />
		<tag k="ssr:stedsnr" v="562794" />
	</node>
	<node lat="67.67808055861337" lon="14.945852776851565" id="-10548">
		<tag k="name" v="Skavikelva" />
		<tag k="ssr:stedsnr" v="562795" />
		<tag k="waterway" v="stream" />
	</node>
	<node lat="67.83874724217517" lon="15.158796169346175" id="-10549">
		<tag k="name" v="Forsen" />
		<tag k="natural" v="waterfall" />
		<tag k="ssr:stedsnr" v="562797" />
	</node>
	<node lat="67.81215278084592" lon="14.815250010277214" id="-10558">
		<tag k="name" v="Sørskotvatnet" />
		<tag k="natural" v="water" />
		<tag k="ssr:stedsnr" v="562764" />
	</node>
	<node lat="67.88968611133815" lon="15.091305551474262" id="-10564">
		<tag k="name" v="Skjenaustvatnet" />
		<tag k="natural" v="water" />
		<tag k="ssr:stedsnr" v="562858" />
	</node>
	<node lat="67.88341110734663" lon="15.112602769961718" id="-10565">
		<tag k="name" v="Kjerringvatnet" />
		<tag k="natural" v="water" />
		<tag k="ssr:stedsnr" v="562859" />
	</node>
	<node lat="67.7122694412549" lon="14.93228332435976" id="-10584">
		<tag k="alt_name" v="Vannerelvvatnet" />
		<tag k="name" v="Vanderelvvatnet" />
		<tag k="natural" v="water" />
		<tag k="ssr:stedsnr" v="563189" />
		<tag k="water" v="lake" />
	</node>
	<node lat="67.70288055938114" lon="14.910713898319884" id="-10591">
		<tag k="name" v="Heimstelvvatnet" />
		<tag k="natural" v="water" />
		<tag k="ssr:stedsnr" v="563238" />
		<tag k="water" v="lake" />
	</node>
	<node lat="67.81433333437388" lon="15.738536106786603" id="-10594">
		<tag k="fixme" v="multiple name tags, choose one and add the other to alt_name" />
		<tag k="name" v="Gardselva;Mølnelva" />
		<tag k="ssr:stedsnr" v="563451" />
		<tag k="waterway" v="stream" />
	</node>
	<node lat="67.82722222446552" lon="15.37083056145076" id="-10598">
		<tag k="alt_name" v="Sløelv" />
		<tag k="name" v="Sløelva" />
		<tag k="ssr:stedsnr" v="563775" />
		<tag k="waterway" v="river" />
	</node>
	<node lat="67.85378333633282" lon="15.457019455467318" id="-10599">
		<tag k="name" v="Lommerelva" />
		<tag k="ssr:stedsnr" v="563765" />
		<tag k="waterway" v="river" />
	</node>
	<node lat="67.8063000016044" lon="15.021897221615632" id="-10614">
		<tag k="name" v="Tverrelva" />
		<tag k="ssr:stedsnr" v="582531" />
		<tag k="waterway" v="stream" />
	</node>
	<node lat="67.74297222338903" lon="15.191847221661568" id="-10617">
		<tag k="name" v="Mølnosen" />
		<tag k="natural" v="bay" />
		<tag k="ssr:stedsnr" v="582971" />
	</node>
	<node lat="67.93781388441397" lon="15.695552780832317" id="-10642">
		<tag k="name" v="Kvanntobukta" />
		<tag k="natural" v="bay" />
		<tag k="ssr:stedsnr" v="601372" />
	</node>
	<node lat="67.74471666538201" lon="15.008897211146898" id="-10646">
		<tag k="name" v="Gråsteinelva" />
		<tag k="ssr:stedsnr" v="601586" />
		<tag k="waterway" v="stream" />
	</node>
	<node lat="67.69119166716247" lon="15.029341672707515" id="-10647">
		<tag k="name" v="Bjørnbærelva" />
		<tag k="ssr:stedsnr" v="601678" />
		<tag k="waterway" v="stream" />
	</node>
	<node lat="67.74176666544739" lon="15.034680551433045" id="-10685">
		<tag k="name" v="Pøyla" />
		<tag k="place" v="locality" />
		<tag k="ssr:stedsnr" v="623192" />
	</node>
	<node lat="67.82463888998724" lon="14.836430562554098" id="-10695">
		<tag k="alt_name" v="Nordskotvatnet, midtre" />
		<tag k="name" v="Midtre Nordskotvatnet" />
		<tag k="natural" v="water" />
		<tag k="ssr:stedsnr" v="623796" />
	</node>
	<node lat="67.80568888507347" lon="15.828033340086558" id="-10702">
		<tag k="name" v="Sørkvanntelva" />
		<tag k="ssr:stedsnr" v="623492" />
		<tag k="waterway" v="river" />
	</node>
	<node lat="67.79650833265865" lon="15.239586103003381" id="-10708">
		<tag k="name" v="Einangtjørna" />
		<tag k="natural" v="water" />
		<tag k="ssr:stedsnr" v="623733" />
	</node>
	<node lat="67.82560277425955" lon="15.635591655595656" id="-10709">
		<tag k="name" v="Svartvatnet" />
		<tag k="natural" v="water" />
		<tag k="ssr:stedsnr" v="623742" />
	</node>
	<node lat="67.83089166907182" lon="15.58049998977234" id="-10710">
		<tag k="name" v="Skjelelva" />
		<tag k="ssr:stedsnr" v="623747" />
		<tag k="waterway" v="stream" />
	</node>
	<node lat="67.88528611435444" lon="15.503936118058132" id="-10711">
		<tag k="name" v="Straumfjordvatnet" />
		<tag k="natural" v="water" />
		<tag k="ssr:stedsnr" v="623534" />
		<tag k="water" v="lake" />
	</node>
	<node lat="67.88052499971728" lon="15.476983333260844" id="-10712">
		<tag k="name" v="Gongskardvatnet" />
		<tag k="natural" v="water" />
		<tag k="ssr:stedsnr" v="623536" />
	</node>
	<node lat="67.90821110696095" lon="15.540769446584957" id="-10715">
		<tag k="alt_name" v="Malågelva" />
		<tag k="name" v="Malåga" />
		<tag k="ssr:stedsnr" v="623553" />
		<tag k="waterway" v="stream" />
	</node>
	<node lat="67.68338333517934" lon="15.26457221253803" id="-10720">
		<tag k="fixme" v="multiple name tags, choose one and add the other to alt_name" />
		<tag k="name" v="Trollelva;Trollvasselva" />
		<tag k="ssr:stedsnr" v="623843" />
		<tag k="waterway" v="stream" />
	</node>
	<node lat="67.76997222590096" lon="15.225702789052345" id="-10763">
		<tag k="name" v="Tverrelva" />
		<tag k="ssr:stedsnr" v="643872" />
		<tag k="waterway" v="stream" />
	</node>
	<node lat="67.6650500031343" lon="14.928622227340059" id="-10771">
		<tag k="loc_name" v="Laukvikelva;Mølnelva" />
		<tag k="name" v="Storelva" />
		<tag k="ssr:stedsnr" v="662522" />
		<tag k="waterway" v="river" />
	</node>
	<node lat="67.68005555441131" lon="14.994005558757594" id="-10772">
		<tag k="name" v="Flekkoselva" />
		<tag k="ssr:stedsnr" v="662528" />
		<tag k="waterway" v="river" />
	</node>
	<node lat="67.69455832990883" lon="15.05685276668457" id="-10780">
		<tag k="name" v="Håsandelva" />
		<tag k="ssr:stedsnr" v="662666" />
		<tag k="waterway" v="stream" />
	</node>
	<node lat="67.78100277379072" lon="15.192277766489779" id="-10788">
		<tag k="name" v="Gamhågelva" />
		<tag k="ssr:stedsnr" v="662737" />
		<tag k="waterway" v="stream" />
	</node>
	<node lat="67.89012777587816" lon="15.365238899177582" id="-10796">
		<tag k="name" v="Stordalsodden" />
		<tag k="natural" v="cape" />
		<tag k="ssr:stedsnr" v="723243" />
	</node>
	<node lat="67.68449444143604" lon="15.024969442858144" id="-10827">
		<tag k="name" v="Stamsvikelva" />
		<tag k="ssr:stedsnr" v="744169" />
		<tag k="waterway" v="river" />
	</node>
	<node lat="67.91934166475406" lon="15.683736119494679" id="-10830">
		<tag k="name" v="Forsvatnet" />
		<tag k="natural" v="water" />
		<tag k="ssr:stedsnr" v="744521" />
		<tag k="water" v="lake" />
	</node>
	<node lat="67.82312222027349" lon="14.841577779377433" id="-10837">
		<tag k="alt_name" v="Nordskotvatnet, øvre" />
		<tag k="name" v="Øvre Nordskotvatnet" />
		<tag k="natural" v="water" />
		<tag k="ssr:stedsnr" v="744751" />
	</node>
	<node lat="67.73926388559624" lon="15.53798888132944" id="-10838">
		<tag k="name" v="Røyrvikvatnet" />
		<tag k="natural" v="water" />
		<tag k="ssr:stedsnr" v="744757" />
	</node>
	<node lat="67.84297500140235" lon="14.961616668757792" id="-10839">
		<tag k="name" v="Kvanndalsvatnet" />
		<tag k="natural" v="water" />
		<tag k="ssr:stedsnr" v="744759" />
	</node>
	<node lat="67.85045277751097" lon="15.046963897106655" id="-10841">
		<tag k="alt_name" v="Trolltjørna" />
		<tag k="name" v="Trolltjønna" />
		<tag k="natural" v="water" />
		<tag k="ssr:stedsnr" v="744766" />
	</node>
	<node lat="67.69496389267839" lon="14.960575003301742" id="-10867">
		<tag k="alt_name" v="Flekkosvatnan, midtre" />
		<tag k="loc_name" v="Andre Flekkosvatnet" />
		<tag k="name" v="Midtre Flekkosvatnan" />
		<tag k="natural" v="water" />
		<tag k="ssr:stedsnr" v="745263" />
	</node>
	<node lat="67.93803611157175" lon="15.64281110778687" id="-10872">
		<tag k="name" v="Tverrelva" />
		<tag k="ssr:stedsnr" v="745565" />
		<tag k="waterway" v="stream" />
	</node>
	<node lat="68.01355555243643" lon="15.195047230254193" id="-10878">
		<tag k="name" v="Mølnelva" />
		<tag k="ssr:stedsnr" v="745895" />
		<tag k="waterway" v="stream" />
	</node>
	<node lat="67.6529055595273" lon="15.467736108586697" id="-10879">
		<tag k="name" v="Lappvasselva" />
		<tag k="ssr:stedsnr" v="745931" />
		<tag k="waterway" v="river" />
	</node>
	<node lat="67.7275138915053" lon="14.878213896995486" id="-10906">
		<tag k="name" v="Naustelva" />
		<tag k="ssr:stedsnr" v="764822" />
		<tag k="waterway" v="stream" />
	</node>
	<node lat="67.67396944646187" lon="15.31746388185362" id="-10920">
		<tag k="name" v="Rønna" />
		<tag k="ssr:stedsnr" v="784415" />
		<tag k="waterway" v="stream" />
	</node>
	<node lat="67.79739444781495" lon="15.21804722493643" id="-10923">
		<tag k="name" v="Einangstranda" />
		<tag k="natural" v="beach" />
		<tag k="ssr:stedsnr" v="784736" />
	</node>
	<node lat="67.9316583346176" lon="15.700069446357228" id="-10926">
		<tag k="name" v="Rein-Perodden" />
		<tag k="natural" v="cape" />
		<tag k="ssr:stedsnr" v="784424" />
	</node>
	<node lat="67.81233610942385" lon="15.747847220412018" id="-10930">
		<tag k="name" v="Hammarelva" />
		<tag k="ssr:stedsnr" v="784535" />
		<tag k="waterway" v="stream" />
	</node>
	<node lat="67.91548610998088" lon="15.49372499153998" id="-10937">
		<tag k="name" v="Tverrelvvatnet" />
		<tag k="natural" v="water" />
		<tag k="ssr:stedsnr" v="805559" />
	</node>
	<node lat="67.80582222093068" lon="15.651608326804201" id="-10942">
		<tag k="name" v="Hopvatnet" />
		<tag k="natural" v="water" />
		<tag k="ssr:stedsnr" v="805699" />
		<tag k="water" v="lake" />
	</node>
	<node lat="67.80388888697107" lon="15.489825004262972" id="-10944">
		<tag k="name" v="Storvikelva" />
		<tag k="ssr:stedsnr" v="805702" />
		<tag k="waterway" v="stream" />
	</node>
	<node lat="67.82818055464267" lon="15.109208325973166" id="-10952">
		<tag k="name" v="Snøselva" />
		<tag k="ssr:stedsnr" v="805739" />
		<tag k="waterway" v="stream" />
	</node>
	<node lat="67.84747777945294" lon="15.193930558038257" id="-10958">
		<tag k="name" v="Holmåkelva" />
		<tag k="ssr:stedsnr" v="805797" />
		<tag k="waterway" v="stream" />
	</node>
	<node lat="68.0034722238597" lon="15.167861106729381" id="-10961">
		<tag k="name" v="Sørosen" />
		<tag k="natural" v="bay" />
		<tag k="ssr:stedsnr" v="805852" />
	</node>
	<node lat="67.78997777916054" lon="15.171655566750745" id="-10964">
		<tag k="name" v="Stengvatnet" />
		<tag k="natural" v="water" />
		<tag k="ssr:stedsnr" v="805956" />
	</node>
	<node lat="67.84966944298067" lon="15.581255565659928" id="-10976">
		<tag k="name" v="Storvikodden" />
		<tag k="natural" v="cape" />
		<tag k="ssr:stedsnr" v="806180" />
	</node>
	<node lat="67.92371389108679" lon="15.094011108764638" id="-10987">
		<tag k="fixme" v="multiple name tags, choose one and add the other to alt_name" />
		<tag k="name" v="Mølnelva;Myklebostelva" />
		<tag k="ssr:stedsnr" v="806130" />
		<tag k="waterway" v="stream" />
	</node>
	<node lat="67.69561666514892" lon="14.841999991941295" id="-11009">
		<tag k="name" v="Vassdalsvatnet" />
		<tag k="natural" v="water" />
		<tag k="ssr:stedsnr" v="806244" />
	</node>
	<node lat="67.70528055650301" lon="14.88411666811437" id="-11013">
		<tag k="name" v="Heimstelva" />
		<tag k="ssr:stedsnr" v="806256" />
		<tag k="waterway" v="stream" />
	</node>
	<node lat="67.70407777617098" lon="14.996516662335397" id="-11014">
		<tag k="name" v="Stamsvikvatnan" />
		<tag k="natural" v="water" />
		<tag k="ssr:stedsnr" v="806258" />
		<tag k="water" v="lake" />
	</node>
	<node lat="67.70387222069733" lon="14.885122221486396" id="-11015">
		<tag k="name" v="Synstelva" />
		<tag k="ssr:stedsnr" v="806260" />
		<tag k="waterway" v="stream" />
	</node>
	<node lat="67.87311667022622" lon="15.503455557931293" id="-11021">
		<tag k="name" v="Trengselodden" />
		<tag k="natural" v="cape" />
		<tag k="ssr:stedsnr" v="806509" />
	</node>
	<node lat="67.90253610852822" lon="15.343494442035134" id="-11024">
		<tag k="name" v="Mølnelva" />
		<tag k="ssr:stedsnr" v="806527" />
		<tag k="waterway" v="stream" />
	</node>
	<node lat="67.79110278108794" lon="15.587633344140112" id="-11031">
		<tag k="name" v="Mølnelva" />
		<tag k="ssr:stedsnr" v="806721" />
		<tag k="waterway" v="stream" />
	</node>
	<node lat="67.66743332864061" lon="15.320819454567841" id="-11043">
		<tag k="fixme" v="multiple name tags, choose one and add the other to alt_name" />
		<tag k="name" v="Botnelva;Boltenelva" />
		<tag k="ssr:stedsnr" v="806856" />
		<tag k="waterway" v="stream" />
	</node>
	<node lat="67.84692777822357" lon="15.21527778476496" id="-11071">
		<tag k="alt_name" v="Lofttjørna" />
		<tag k="name" v="Lofttjønna" />
		<tag k="natural" v="water" />
		<tag k="ssr:stedsnr" v="825797" />
	</node>
	<node lat="67.80946388642437" lon="15.746188879956577" id="-11092">
		<tag k="name" v="Jensholmen" />
		<tag k="natural" v="cape" />
		<tag k="ssr:stedsnr" v="845549" />
	</node>
	<node lat="67.79324166309452" lon="15.217486119145057" id="-11099">
		<tag k="name" v="Einangbukta" />
		<tag k="natural" v="bay" />
		<tag k="ssr:stedsnr" v="845748" />
	</node>
	<node lat="67.78270555397897" lon="15.129449987963529" id="-11106">
		<tag k="alt_name" v="Knedalstjørna" />
		<tag k="name" v="Knedalstjønna" />
		<tag k="natural" v="water" />
		<tag k="ssr:stedsnr" v="865900" />
	</node>
	<node lat="67.80334722040176" lon="15.08674167317323" id="-11108">
		<tag k="name" v="Saursfjordelva" />
		<tag k="ssr:stedsnr" v="865996" />
		<tag k="waterway" v="river" />
	</node>
	<node lat="67.87125555664605" lon="15.251563888176774" id="-11137">
		<tag k="name" v="Steinslandsvatnet" />
		<tag k="natural" v="water" />
		<tag k="ssr:stedsnr" v="866480" />
	</node>
	<node lat="67.87874721921403" lon="15.272897231432959" id="-11138">
		<tag k="name" v="Moelva" />
		<tag k="ssr:stedsnr" v="866498" />
		<tag k="waterway" v="stream" />
	</node>
	<node lat="67.89529166774676" lon="15.343874988099577" id="-11144">
		<tag k="name" v="Langvatnet" />
		<tag k="natural" v="water" />
		<tag k="ssr:stedsnr" v="866515" />
	</node>
	<node lat="67.82519444638147" lon="14.817599996104166" id="-11158">
		<tag k="alt_name" v="Nordskotvatnet, nedre" />
		<tag k="name" v="Nedre Nordskotvatnet" />
		<tag k="natural" v="water" />
		<tag k="ssr:stedsnr" v="866771" />
	</node>
	<node lat="67.79591666421304" lon="15.582919435896759" id="-11166">
		<tag k="name" v="Mølnvatnet" />
		<tag k="natural" v="water" />
		<tag k="ssr:stedsnr" v="866673" />
	</node>
	<node lat="67.67781110706296" lon="14.951916656884219" id="-11175">
		<tag k="name" v="Dyrdammen" />
		<tag k="natural" v="water" />
		<tag k="ssr:stedsnr" v="866794" />
	</node>
	<node lat="67.84302499737822" lon="15.192816659603421" id="-11176">
		<tag k="name" v="Litlvatnet" />
		<tag k="natural" v="water" />
		<tag k="ssr:stedsnr" v="866805" />
	</node>
	<node lat="67.89529444150071" lon="14.967661107072955" id="-11182">
		<tag k="alt_name" v="Trollvatnet, store;Stortrollvatnet" />
		<tag k="name" v="Store Trollvatnet" />
		<tag k="natural" v="water" />
		<tag k="ssr:stedsnr" v="866843" />
	</node>
	<node lat="67.81715832939604" lon="15.198905547799788" id="-11195">
		<tag k="alt_name" v="Tindvatnet, store" />
		<tag k="name" v="Store Tindvatnet" />
		<tag k="natural" v="water" />
		<tag k="ssr:stedsnr" v="866976" />
	</node>
	<node lat="67.76998611376062" lon="15.070583341480123" id="-11197">
		<tag k="name" v="Kvanntoselva" />
		<tag k="ssr:stedsnr" v="866925" />
		<tag k="waterway" v="stream" />
	</node>
	<node lat="67.78930555917047" lon="15.64209999032651" id="-11204">
		<tag k="name" v="Mølnelva" />
		<tag k="ssr:stedsnr" v="867223" />
		<tag k="waterway" v="stream" />
	</node>
	<node lat="67.92264167077012" lon="15.170541673794924" id="-11212">
		<tag k="name" v="Vadet" />
		<tag k="place" v="locality" />
		<tag k="ssr:stedsnr" v="867165" />
	</node>
	<node lat="67.78755277631247" lon="15.774316676887018" id="-11220">
		<tag k="name" v="Salhuselva" />
		<tag k="ssr:stedsnr" v="867308" />
		<tag k="waterway" v="river" />
	</node>
	<node lat="67.8239333358604" lon="15.783369438882119" id="-11223">
		<tag k="name" v="Kaldelva" />
		<tag k="ssr:stedsnr" v="867508" />
		<tag k="waterway" v="stream" />
	</node>
	<node lat="67.94713610962852" lon="15.628811121481649" id="-11227">
		<tag k="alt_name" v="Skjellelva" />
		<tag k="name" v="Skjelelva" />
		<tag k="ssr:stedsnr" v="867604" />
		<tag k="waterway" v="stream" />
	</node>
	<node lat="67.82520833433895" lon="15.5775333397793" id="-11228">
		<tag k="fixme" v="multiple name tags, choose one and add the other to alt_name" />
		<tag k="name" v="Skjelvatnan;Storvikvatnan" />
		<tag k="natural" v="water" />
		<tag k="ssr:stedsnr" v="867743" />
		<tag k="water" v="lake" />
	</node>
	<node lat="67.87436667006997" lon="15.11700833659221" id="-11251">
		<tag k="name" v="Holmosen" />
		<tag k="natural" v="bay" />
		<tag k="ssr:stedsnr" v="886574" />
	</node>
	<node lat="67.74555833622313" lon="15.163569440041059" id="-11257">
		<tag k="name" v="Djupdalselva" />
		<tag k="ssr:stedsnr" v="886788" />
		<tag k="waterway" v="stream" />
	</node>
	<node lat="67.69361111116271" lon="14.95972221581702" id="-11266">
		<tag k="name" v="Flekkosvatnan" />
		<tag k="natural" v="water" />
		<tag k="ssr:stedsnr" v="936626" />
		<tag k="water" v="lake" />
	</node>
	<node lat="67.79518610689239" lon="15.024255564718619" id="-11277">
		<tag k="name" v="Skjellelva" />
		<tag k="ssr:stedsnr" v="946522" />
		<tag k="waterway" v="river" />
	</node>
	<node lat="67.74506388709608" lon="15.190774994966153" id="-11286">
		<tag k="name" v="Storosen" />
		<tag k="natural" v="bay" />
		<tag k="ssr:stedsnr" v="946969" />
	</node>
	<node lat="67.77370000017659" lon="15.150736104184382" id="-11306">
		<tag k="name" v="Hola" />
		<tag k="natural" v="cape" />
		<tag k="ssr:stedsnr" v="966769" />
=======
	<node id="-180761" lat="67.8007694445" lon="15.0458222189">
		<tag k="name" v="Bogelva" />
		<tag k="ssr:stedsnr" v="16994" />
		<tag k="waterway" v="stream" />
	</node>
	<node id="-180755" lat="67.7811833343" lon="15.039883325">
		<tag k="name" v="Myklebostadelva" />
		<tag k="ssr:stedsnr" v="16959" />
		<tag k="waterway" v="river" />
	</node>
	<node id="-181676" lat="67.8493083335" lon="15.5170416741">
		<tag k="name" v="Storvasseidet" />
		<tag k="natural" v="strait" />
		<tag k="ssr:stedsnr" v="381769" />
	</node>
	<node id="-180710" lat="67.7737000002" lon="15.1507361042">
		<tag k="name" v="Hola" />
		<tag k="natural" v="cape" />
		<tag k="ssr:stedsnr" v="966769" />
	</node>
	<node id="-180685" lat="67.8390888854" lon="15.200024989">
		<tag k="name" v="Holmåkvatnan" />
		<tag k="natural" v="water" />
		<tag k="ssr:stedsnr" v="910312" />
		<tag k="water" v="lake" />
	</node>
	<node id="-180682" lat="67.7422805534" lon="15.0459444553">
		<tag k="name" v="Gårdselva" />
		<tag k="ssr:stedsnr" v="905704" />
		<tag k="waterway" v="stream" />
	</node>
	<node id="-180675" lat="67.8130277758" lon="15.7355777663">
		<tag k="name" v="Mellaelven" />
		<tag k="natural" v="cape" />
		<tag k="ssr:stedsnr" v="905520" />
	</node>
	<node id="-180674" lat="67.6752055585" lon="15.3276250061">
		<tag k="name" v="Rønna" />
		<tag k="ssr:stedsnr" v="905365" />
		<tag k="waterway" v="stream" />
	</node>
	<node id="-180660" lat="67.8743666701" lon="15.1170083366">
		<tag k="name" v="Holmosen" />
		<tag k="natural" v="bay" />
		<tag k="ssr:stedsnr" v="886574" />
	</node>
	<node id="-180633" lat="67.7450638871" lon="15.190774995">
		<tag k="name" v="Storosen" />
		<tag k="natural" v="bay" />
		<tag k="ssr:stedsnr" v="946969" />
	</node>
	<node id="-180630" lat="67.9921749969" lon="15.097827781">
		<tag k="name" v="Møllnvatnet" />
		<tag k="natural" v="water" />
		<tag k="ssr:stedsnr" v="947130" />
	</node>
	<node id="-180620" lat="67.7951861069" lon="15.0242555647">
		<tag k="name" v="Skjellelva" />
		<tag k="ssr:stedsnr" v="946522" />
		<tag k="waterway" v="river" />
	</node>
	<node id="-180596" lat="67.6936111112" lon="14.9597222158">
		<tag k="name" v="Flekkosvatnan" />
		<tag k="natural" v="water" />
		<tag k="ssr:stedsnr" v="936626" />
		<tag k="water" v="lake" />
	</node>
	<node id="-180580" lat="67.767872222" lon="15.1762527876">
		<tag k="fixme" v="multiple name tags, choose one and add the other to alt_name" />
		<tag k="name" v="Botnelva;Marhaugelva" />
		<tag k="ssr:stedsnr" v="927942" />
		<tag k="waterway" v="river" />
	</node>
	<node id="-180572" lat="67.8731166702" lon="15.5034555579">
		<tag k="name" v="Trengselodden" />
		<tag k="natural" v="cape" />
		<tag k="ssr:stedsnr" v="806509" />
	</node>
	<node id="-180568" lat="67.8872611128" lon="15.0033555651">
		<tag k="name" v="Trongsundet" />
		<tag k="natural" v="strait" />
		<tag k="ssr:stedsnr" v="927877" />
	</node>
	<node id="-180538" lat="67.6956166651" lon="14.8419999919">
		<tag k="name" v="Vassdalsvatnet" />
		<tag k="natural" v="water" />
		<tag k="ssr:stedsnr" v="806244" />
	</node>
	<node id="-180519" lat="67.8303249998" lon="15.2287055571">
		<tag k="fixme" v="multiple name tags, choose one and add the other to alt_name" />
		<tag k="name" v="Holmåkvatnet;Skarvatnet;Fjerdevatnet;Øvervatnet" />
		<tag k="natural" v="water" />
		<tag k="ssr:stedsnr" v="927759" />
		<tag k="water" v="lake" />
	</node>
	<node id="-180518" lat="67.8379388861" lon="15.3478444508">
		<tag k="name" v="Sløelvvatnan" />
		<tag k="natural" v="water" />
		<tag k="ssr:stedsnr" v="927750" />
	</node>
	<node id="-180513" lat="67.7899777792" lon="15.1716555668">
		<tag k="name" v="Stengvatnet" />
		<tag k="natural" v="water" />
		<tag k="ssr:stedsnr" v="805956" />
	</node>
	<node id="-180510" lat="67.8523194428" lon="15.2334138843">
		<tag k="name" v="Tverrelva" />
		<tag k="ssr:stedsnr" v="927741" />
		<tag k="waterway" v="stream" />
	</node>
	<node id="-180508" lat="67.8471249952" lon="15.5446500092">
		<tag k="name" v="Rypvikodden" />
		<tag k="natural" v="cape" />
		<tag k="ssr:stedsnr" v="927735" />
	</node>
	<node id="-180501" lat="67.8024416666" lon="15.7069083304">
		<tag k="name" v="Djupdalselva" />
		<tag k="ssr:stedsnr" v="927693" />
		<tag k="waterway" v="stream" />
	</node>
	<node id="-180497" lat="67.91548611" lon="15.4937249915">
		<tag k="name" v="Tverrelvvatnet" />
		<tag k="natural" v="water" />
		<tag k="ssr:stedsnr" v="805559" />
	</node>
	<node id="-180485" lat="67.8635861147" lon="15.5135694357">
		<tag k="name" v="Botnen" />
		<tag k="natural" v="bay" />
		<tag k="ssr:stedsnr" v="927514" />
	</node>
	<node id="-182531" lat="67.8761249979" lon="15.0348583403">
		<tag k="name" v="Åsvatnet" />
		<tag k="natural" v="water" />
		<tag k="ssr:stedsnr" v="966616" />
		<tag k="water" v="lake" />
	</node>
	<node id="-180480" lat="67.8158666646" lon="15.8052527826">
		<tag k="alt_name" v="Lomtjørna" />
		<tag k="name" v="Lomtjønna" />
		<tag k="natural" v="water" />
		<tag k="ssr:stedsnr" v="927480" />
	</node>
	<node id="-182517" lat="67.8340305565" lon="15.8105361064">
		<tag k="name" v="Førrnes" />
		<tag k="natural" v="cape" />
		<tag k="ssr:stedsnr" v="965496" />
	</node>
	<node id="-180467" lat="67.9664249974" lon="15.0635972151">
		<tag k="name" v="Innerelva" />
		<tag k="ssr:stedsnr" v="927219" />
		<tag k="waterway" v="stream" />
	</node>
	<node id="-180463" lat="67.9767305556" lon="15.2130111057">
		<tag k="name" v="Vassdalsvatnet" />
		<tag k="natural" v="water" />
		<tag k="ssr:stedsnr" v="927213" />
	</node>
	<node id="-182506" lat="67.8252083343" lon="15.5775333398">
		<tag k="fixme" v="multiple name tags, choose one and add the other to alt_name" />
		<tag k="name" v="Skjelvatnan;Storvikvatnan" />
		<tag k="natural" v="water" />
		<tag k="ssr:stedsnr" v="867743" />
		<tag k="water" v="lake" />
	</node>
	<node id="-182505" lat="67.9471361096" lon="15.6288111215">
		<tag k="alt_name" v="Skjellelva" />
		<tag k="name" v="Skjelelva" />
		<tag k="ssr:stedsnr" v="867604" />
		<tag k="waterway" v="stream" />
	</node>
	<node id="-182501" lat="67.8239333359" lon="15.7833694389">
		<tag k="name" v="Kaldelva" />
		<tag k="ssr:stedsnr" v="867508" />
		<tag k="waterway" v="stream" />
	</node>
	<node id="-180452" lat="67.8800944456" lon="14.9429805578">
		<tag k="name" v="Tverrelva" />
		<tag k="ssr:stedsnr" v="927182" />
		<tag k="waterway" v="river" />
	</node>
	<node id="-180451" lat="67.9559111108" lon="15.0288166629">
		<tag k="name" v="Storelva" />
		<tag k="ssr:stedsnr" v="927179" />
		<tag k="waterway" v="river" />
	</node>
	<node id="-182498" lat="67.7875527763" lon="15.7743166769">
		<tag k="name" v="Salhuselva" />
		<tag k="ssr:stedsnr" v="867308" />
		<tag k="waterway" v="river" />
	</node>
	<node id="-182492" lat="67.7893055592" lon="15.6420999903">
		<tag k="name" v="Mølnelva" />
		<tag k="ssr:stedsnr" v="867223" />
		<tag k="waterway" v="stream" />
	</node>
	<node id="-182485" lat="67.8171583294" lon="15.1989055478">
		<tag k="alt_name" v="Tindvatnet, store" />
		<tag k="name" v="Store Tindvatnet" />
		<tag k="natural" v="water" />
		<tag k="ssr:stedsnr" v="866976" />
	</node>
	<node id="-182480" lat="67.7699861138" lon="15.0705833415">
		<tag k="name" v="Kvanntoselva" />
		<tag k="ssr:stedsnr" v="866925" />
		<tag k="waterway" v="stream" />
	</node>
	<node id="-182469" lat="67.8952944415" lon="14.9676611071">
		<tag k="alt_name" v="Trollvatnet, store;Stortrollvatnet" />
		<tag k="name" v="Store Trollvatnet" />
		<tag k="natural" v="water" />
		<tag k="ssr:stedsnr" v="866843" />
	</node>
	<node id="-182463" lat="67.8430249974" lon="15.1928166596">
		<tag k="name" v="Litlvatnet" />
		<tag k="natural" v="water" />
		<tag k="ssr:stedsnr" v="866805" />
	</node>
	<node id="-182462" lat="67.6778111071" lon="14.9519166569">
		<tag k="name" v="Dyrdammen" />
		<tag k="natural" v="water" />
		<tag k="ssr:stedsnr" v="866794" />
	</node>
	<node id="-180413" lat="67.7972944431" lon="14.9163638855">
		<tag k="alt_name" v="Lomstjørna" />
		<tag k="name" v="Lomstjønna" />
		<tag k="natural" v="water" />
		<tag k="ssr:stedsnr" v="927000" />
	</node>
	<node id="-180412" lat="67.7895722197" lon="14.928241667">
		<tag k="fixme" v="multiple name tags, choose one and add the other to alt_name" />
		<tag k="name" v="Leirosdalselva;Sundelva" />
		<tag k="ssr:stedsnr" v="926999" />
		<tag k="waterway" v="river" />
	</node>
	<node id="-182454" lat="67.8251944464" lon="14.8175999961">
		<tag k="alt_name" v="Nordskotvatnet, nedre" />
		<tag k="name" v="Nedre Nordskotvatnet" />
		<tag k="natural" v="water" />
		<tag k="ssr:stedsnr" v="866771" />
	</node>
	<node id="-182439" lat="67.7959166642" lon="15.5829194359">
		<tag k="name" v="Mølnvatnet" />
		<tag k="natural" v="water" />
		<tag k="ssr:stedsnr" v="866673" />
	</node>
	<node id="-180386" lat="67.7755444482" lon="15.0131722235">
		<tag k="name" v="Øyra" />
		<tag k="natural" v="cape" />
		<tag k="ssr:stedsnr" v="910834" />
	</node>
	<node id="-182429" lat="67.8952916677" lon="15.3438749881">
		<tag k="name" v="Langvatnet" />
		<tag k="natural" v="water" />
		<tag k="ssr:stedsnr" v="866515" />
	</node>
	<node id="-182426" lat="67.8787472192" lon="15.2728972314">
		<tag k="name" v="Moelva" />
		<tag k="ssr:stedsnr" v="866498" />
		<tag k="waterway" v="stream" />
	</node>
	<node id="-182425" lat="67.8712555566" lon="15.2515638882">
		<tag k="name" v="Steinslandsvatnet" />
		<tag k="natural" v="water" />
		<tag k="ssr:stedsnr" v="866480" />
	</node>
	<node id="-182422" lat="67.9226416708" lon="15.1705416738">
		<tag k="name" v="Vadet" />
		<tag k="place" v="locality" />
		<tag k="ssr:stedsnr" v="867165" />
	</node>
	<node id="-180371" lat="67.9380361116" lon="15.6428111078">
		<tag k="name" v="Tverrelva" />
		<tag k="ssr:stedsnr" v="745565" />
		<tag k="waterway" v="stream" />
	</node>
	<node id="-180366" lat="67.6949638927" lon="14.9605750033">
		<tag k="alt_name" v="Flekkosvatnan, midtre" />
		<tag k="loc_name" v="Andre Flekkosvatnet" />
		<tag k="name" v="Midtre Flekkosvatnan" />
		<tag k="natural" v="water" />
		<tag k="ssr:stedsnr" v="745263" />
	</node>
	<node id="-182409" lat="67.8033472204" lon="15.0867416732">
		<tag k="name" v="Saursfjordelva" />
		<tag k="ssr:stedsnr" v="865996" />
		<tag k="waterway" v="river" />
	</node>
	<node id="-180356" lat="67.9359305558" lon="15.0739027753">
		<tag k="name" v="Vassdalsvatnet" />
		<tag k="natural" v="water" />
		<tag k="ssr:stedsnr" v="745174" />
	</node>
	<node id="-182398" lat="67.782705554" lon="15.129449988">
		<tag k="alt_name" v="Knedalstjørna" />
		<tag k="name" v="Knedalstjønna" />
		<tag k="natural" v="water" />
		<tag k="ssr:stedsnr" v="865900" />
	</node>
	<node id="-180345" lat="67.8504527775" lon="15.0469638971">
		<tag k="alt_name" v="Trolltjørna" />
		<tag k="name" v="Trolltjønna" />
		<tag k="natural" v="water" />
		<tag k="ssr:stedsnr" v="744766" />
	</node>
	<node id="-180343" lat="67.8429750014" lon="14.9616166688">
		<tag k="name" v="Kvanndalsvatnet" />
		<tag k="natural" v="water" />
		<tag k="ssr:stedsnr" v="744759" />
	</node>
	<node id="-180342" lat="67.7392638856" lon="15.5379888813">
		<tag k="name" v="Røyrvikvatnet" />
		<tag k="natural" v="water" />
		<tag k="ssr:stedsnr" v="744757" />
	</node>
	<node id="-180340" lat="67.9193416648" lon="15.6837361195">
		<tag k="name" v="Forsvatnet" />
		<tag k="natural" v="water" />
		<tag k="ssr:stedsnr" v="744521" />
		<tag k="water" v="lake" />
	</node>
	<node id="-180339" lat="67.9206694442" lon="15.5179055553">
		<tag k="name" v="Vassvikvatnet" />
		<tag k="natural" v="water" />
		<tag k="ssr:stedsnr" v="744519" />
	</node>
	<node id="-180335" lat="67.7753666688" lon="15.1702444525">
		<tag k="name" v="Tverrelva" />
		<tag k="ssr:stedsnr" v="905752" />
		<tag k="waterway" v="stream" />
	</node>
	<node id="-182380" lat="67.7932416631" lon="15.2174861191">
		<tag k="name" v="Einangbukta" />
		<tag k="natural" v="bay" />
		<tag k="ssr:stedsnr" v="845748" />
	</node>
	<node id="-180330" lat="67.8096694416" lon="15.2630972113">
		<tag k="name" v="Finnjordelva" />
		<tag k="ssr:stedsnr" v="905726" />
		<tag k="waterway" v="stream" />
	</node>
	<node id="-182369" lat="67.8094638864" lon="15.74618888">
		<tag k="name" v="Jensholmen" />
		<tag k="natural" v="cape" />
		<tag k="ssr:stedsnr" v="845549" />
	</node>
	<node id="-180317" lat="67.6933750002" lon="15.4591194462">
		<tag k="name" v="Vikelva" />
		<tag k="ssr:stedsnr" v="905348" />
		<tag k="waterway" v="river" />
	</node>
	<node id="-180311" lat="67.9228472243" lon="15.4784277673">
		<tag k="name" v="Slettheielva" />
		<tag k="ssr:stedsnr" v="905289" />
		<tag k="waterway" v="stream" />
	</node>
	<node id="-180296" lat="67.9921138893" lon="15.0939277881">
		<tag k="name" v="Allvatnet" />
		<tag k="natural" v="water" />
		<tag k="ssr:stedsnr" v="704132" />
	</node>
	<node id="-182340" lat="67.8469277782" lon="15.2152777848">
		<tag k="alt_name" v="Lofttjørna" />
		<tag k="name" v="Lofttjønna" />
		<tag k="natural" v="water" />
		<tag k="ssr:stedsnr" v="825797" />
	</node>
	<node id="-180275" lat="67.7455583362" lon="15.16356944">
		<tag k="name" v="Djupdalselva" />
		<tag k="ssr:stedsnr" v="886788" />
		<tag k="waterway" v="stream" />
	</node>
	<node id="-182311" lat="67.6674333286" lon="15.3208194546">
		<tag k="fixme" v="multiple name tags, choose one and add the other to alt_name" />
		<tag k="name" v="Boltenelva;Botnelva" />
		<tag k="ssr:stedsnr" v="806856" />
		<tag k="waterway" v="stream" />
	</node>
	<node id="-182300" lat="67.7911027811" lon="15.5876333441">
		<tag k="name" v="Mølnelva" />
		<tag k="ssr:stedsnr" v="806721" />
		<tag k="waterway" v="stream" />
	</node>
	<node id="-181935" lat="67.7429722234" lon="15.1918472217">
		<tag k="name" v="Mølnosen" />
		<tag k="natural" v="bay" />
		<tag k="ssr:stedsnr" v="582971" />
	</node>
	<node id="-182289" lat="67.9025361085" lon="15.343494442">
		<tag k="name" v="Mølnelva" />
		<tag k="ssr:stedsnr" v="806527" />
		<tag k="waterway" v="stream" />
	</node>
	<node id="-180239" lat="67.9378527806" lon="15.0545111177">
		<tag k="name" v="Trollvatnan" />
		<tag k="natural" v="water" />
		<tag k="ssr:stedsnr" v="684231" />
		<tag k="water" v="lake" />
	</node>
	<node id="-182283" lat="67.7038722207" lon="14.8851222215">
		<tag k="name" v="Synstelva" />
		<tag k="ssr:stedsnr" v="806260" />
		<tag k="waterway" v="stream" />
	</node>
	<node id="-182282" lat="67.7040777762" lon="14.9965166623">
		<tag k="name" v="Stamsvikvatnan" />
		<tag k="natural" v="water" />
		<tag k="ssr:stedsnr" v="806258" />
		<tag k="water" v="lake" />
	</node>
	<node id="-182281" lat="67.7052805565" lon="14.8841166681">
		<tag k="name" v="Heimstelva" />
		<tag k="ssr:stedsnr" v="806256" />
		<tag k="waterway" v="stream" />
	</node>
	<node id="-182275" lat="67.9237138911" lon="15.0940111088">
		<tag k="fixme" v="multiple name tags, choose one and add the other to alt_name" />
		<tag k="name" v="Myklebostelva;Mølnelva" />
		<tag k="ssr:stedsnr" v="806130" />
		<tag k="waterway" v="stream" />
>>>>>>> e1d4bc35ff8a6074a6f2e91616a996b547c36f15
	</node>
	<node lat="67.87612499786935" lon="15.034858340319733" id="-11320">
		<tag k="name" v="Åsvatnet" />
		<tag k="natural" v="water" />
		<tag k="ssr:stedsnr" v="966616" />
		<tag k="water" v="lake" />
	</node>
</osm>
