<?xml version="1.0" encoding="UTF-8"?>
<osm version="0.6" generator="osmapis">
	<node lat="67.76336111513795" lon="15.15064166142344" id="-19084">
		<tag k="alt_name" v="Botnen" />
		<tag k="name" v="Botn" />
		<tag k="place" v="hamlet" />
		<tag k="ssr:stedsnr" v="17951" />
	</node>
	<node lat="67.80840277949142" lon="14.844630566212425" id="-19086">
		<tag k="name" v="Lund" />
		<tag k="place" v="hamlet" />
		<tag k="ssr:stedsnr" v="26629" />
	</node>
	<node lat="67.90041666463033" lon="15.06173611177149" id="-19094">
		<tag k="name" v="Tjuskåkeren" />
		<tag k="place" v="farm" />
		<tag k="ssr:stedsnr" v="36674" />
	</node>
	<node lat="67.69490277715046" lon="15.464322227214216" id="-19105">
		<tag k="name" v="Bakkan" />
		<tag k="place" v="isolated_dwelling" />
		<tag k="ssr:stedsnr" v="237367" />
	</node>
	<node lat="67.80684999766633" lon="14.82952499109615" id="-19127">
		<tag k="name" v="Stokkmyra" />
		<tag k="place" v="farm" />
		<tag k="ssr:stedsnr" v="238956" />
	</node>
	<node lat="67.74468055271777" lon="15.016161105837298" id="-19136">
		<tag k="name" v="Daleng" />
		<tag k="place" v="isolated_dwelling" />
		<tag k="ssr:stedsnr" v="56623" />
	</node>
	<node lat="67.73106388911012" lon="14.78245278495445" id="-19152">
		<tag k="alt_name" v="Bjørsvika" />
		<tag k="name" v="Bjørkvik" />
		<tag k="place" v="farm" />
		<tag k="ssr:stedsnr" v="77162" />
	</node>
	<node lat="67.7978499997997" lon="15.640577774437622" id="-19159">
		<tag k="name" v="Røyrnes" />
		<tag k="place" v="farm" />
		<tag k="ssr:stedsnr" v="77699" />
	</node>
	<node lat="67.66563888907554" lon="14.78157501030808" id="-19160">
		<tag k="name" v="Brennsund" />
		<tag k="place" v="farm" />
		<tag k="ssr:stedsnr" v="77802" />
	</node>
	<node lat="67.95956944058103" lon="15.019461110054333" id="-19184">
		<tag k="name" v="Lyngmoen" />
		<tag k="place" v="farm" />
		<tag k="ssr:stedsnr" v="78205" />
	</node>
	<node lat="67.9152310130341" lon="15.342036855178995" id="-19196">
		<tag k="fixme" v="consider place=hamlet" />
		<tag k="name" v="Dyping" />
		<tag k="place" v="farm" />
		<tag k="ssr:stedsnr" v="78550" />
	</node>
	<node lat="67.76432778136513" lon="15.228536102592106" id="-19212">
		<tag k="name" v="Bakken" />
		<tag k="place" v="quarter" />
		<tag k="ssr:stedsnr" v="97783" />
	</node>
	<node lat="67.74425832926259" lon="15.011261111728748" id="-19221">
		<tag k="name" v="Skogmo" />
		<tag k="place" v="isolated_dwelling" />
		<tag k="ssr:stedsnr" v="116612" />
	</node>
	<node lat="67.66626944605753" lon="14.944277777933271" id="-19225">
		<tag k="name" v="Solvold" />
		<tag k="place" v="farm" />
		<tag k="ssr:stedsnr" v="116519" />
	</node>
	<node lat="67.91485278218465" lon="15.323088891043072" id="-19230">
		<tag k="name" v="Kveldro" />
		<tag k="place" v="farm" />
		<tag k="ssr:stedsnr" v="137528" />
	</node>
	<node lat="67.82661388570347" lon="15.13963332669725" id="-19231">
		<tag k="name" v="Lia" />
		<tag k="place" v="farm" />
		<tag k="ssr:stedsnr" v="137746" />
	</node>
	<node lat="67.87140810179709" lon="15.045102161531405" id="-19233">
		<tag k="alt_name" v="Underås" />
		<tag k="fixme" v="consider place=hamlet" />
		<tag k="name" v="Underåsen" />
		<tag k="place" v="farm" />
		<tag k="ssr:stedsnr" v="137817" />
	</node>
	<node lat="67.77365000414085" lon="15.174638886003388" id="-19235">
		<tag k="alt_name" v="Marhaugmo" />
		<tag k="name" v="Marhaugmoen" />
		<tag k="place" v="farm" />
		<tag k="ssr:stedsnr" v="137894" />
	</node>
	<node lat="67.95481232240449" lon="15.183110291248736" id="-19240">
		<tag k="fixme" v="consider place=hamlet" />
		<tag k="name" v="Hammar" />
		<tag k="place" v="farm" />
		<tag k="ssr:stedsnr" v="138220" />
	</node>
	<node lat="67.72363137126575" lon="14.886897088816207" id="-19241">
		<tag k="alt_name" v="Brennvik" />
		<tag k="fixme" v="consider place=hamlet" />
		<tag k="name" v="Brennvika" />
		<tag k="place" v="farm" />
		<tag k="ssr:stedsnr" v="138223" />
	</node>
	<node lat="67.88089999965278" lon="15.23214723119621" id="-19252">
		<tag k="alt_name" v="Myra" />
		<tag k="name" v="Myre" />
		<tag k="place" v="farm" />
		<tag k="ssr:stedsnr" v="138516" />
	</node>
	<node lat="67.81329167076348" lon="15.270447216564106" id="-19262">
		<tag k="alt_name" v="Finnjord" />
		<tag k="name" v="Finnjorda" />
		<tag k="place" v="farm" />
		<tag k="ssr:stedsnr" v="138746" />
	</node>
	<node lat="67.83943962170737" lon="14.810659833441575" id="-19263">
		<tag k="fixme" v="consider place=hamlet" />
		<tag k="name" v="Nordskot" />
		<tag k="place" v="farm" />
		<tag k="ssr:stedsnr" v="147608" />
	</node>
	<node lat="67.72009166535459" lon="14.818125003005818" id="-19269">
		<tag k="name" v="Selvik" />
		<tag k="place" v="farm" />
		<tag k="ssr:stedsnr" v="157065" />
	</node>
	<node lat="67.92006111050695" lon="15.195977774244959" id="-19271">
		<tag k="name" v="Opphaug" />
		<tag k="place" v="farm" />
		<tag k="ssr:stedsnr" v="157605" />
	</node>
	<node lat="67.93428888973858" lon="15.558644454189901" id="-19272">
		<tag k="name" v="Gullvik" />
		<tag k="place" v="farm" />
		<tag k="ssr:stedsnr" v="157608" />
	</node>
	<node lat="67.95372222504692" lon="15.025566658696233" id="-19273">
		<tag k="name" v="Fjellmo" />
		<tag k="place" v="farm" />
		<tag k="ssr:stedsnr" v="157502" />
	</node>
	<node lat="67.878574998737" lon="15.063274991643853" id="-19279">
		<tag k="name" v="Myrvang" />
		<tag k="place" v="farm" />
		<tag k="ssr:stedsnr" v="157921" />
	</node>
	<node lat="67.79292123863753" lon="14.98523444439878" id="-19290">
		<tag k="alt_name" v="Saure" />
		<tag k="fixme" v="consider place=hamlet" />
		<tag k="name" v="Saur" />
		<tag k="place" v="farm" />
		<tag k="ssr:stedsnr" v="258945" />
	</node>
	<node lat="67.97041666438196" lon="15.254619448069244" id="-19301">
		<tag k="name" v="Grønvika" />
		<tag k="place" v="farm" />
		<tag k="ssr:stedsnr" v="259582" />
	</node>
	<node lat="67.75831389020397" lon="15.702224989560042" id="-19303">
		<tag k="name" v="Skytvika" />
		<tag k="place" v="farm" />
		<tag k="ssr:stedsnr" v="259675" />
	</node>
	<node lat="67.7889305546811" lon="15.295599998349696" id="-19305">
		<tag k="name" v="Strandlemmen" />
		<tag k="place" v="farm" />
		<tag k="ssr:stedsnr" v="259681" />
	</node>
	<node lat="67.97468333151657" lon="15.244063895047873" id="-19315">
		<tag k="name" v="Vikmarka" />
		<tag k="place" v="farm" />
		<tag k="ssr:stedsnr" v="259597" />
	</node>
	<node lat="67.79813055629506" lon="14.810855566130812" id="-19319">
		<tag k="name" v="Båtberget" />
		<tag k="place" v="farm" />
		<tag k="ssr:stedsnr" v="259986" />
	</node>
	<node lat="67.75978610887714" lon="15.697255547979061" id="-19325">
		<tag k="name" v="Sandvik" />
		<tag k="place" v="farm" />
		<tag k="ssr:stedsnr" v="165083" />
	</node>
	<node lat="67.92202499953332" lon="15.008724999835968" id="-19326">
		<tag k="name" v="Skoglund" />
		<tag k="place" v="farm" />
		<tag k="ssr:stedsnr" v="260168" />
	</node>
	<node lat="67.91928889378593" lon="15.172799990343032" id="-19328">
		<tag k="fixme" v="consider place=hamlet" />
		<tag k="name" v="Ålstad" />
		<tag k="place" v="village" />
		<tag k="ssr:stedsnr" v="260172" />
	</node>
	<node lat="67.96214444359482" lon="15.021324988229447" id="-19332">
		<tag k="name" v="Sandan" />
		<tag k="place" v="farm" />
		<tag k="ssr:stedsnr" v="260233" />
	</node>
	<node lat="67.75357499882966" lon="15.434238877192147" id="-19343">
		<tag k="name" v="Skar" />
		<tag k="place" v="isolated_dwelling" />
		<tag k="ssr:stedsnr" v="177363" />
	</node>
	<node lat="67.7535361148091" lon="15.428533338780651" id="-19344">
		<tag k="name" v="Fredly" />
		<tag k="place" v="isolated_dwelling" />
		<tag k="ssr:stedsnr" v="177372" />
	</node>
	<node lat="67.77441944050895" lon="15.167111110583496" id="-19359">
		<tag k="name" v="Lilleeng" />
		<tag k="place" v="farm" />
		<tag k="ssr:stedsnr" v="177778" />
	</node>
	<node lat="67.96806388673318" lon="15.032152783519141" id="-19380">
		<tag k="fixme" v="consider place=hamlet" />
		<tag k="name" v="Bø" />
		<tag k="place" v="village" />
		<tag k="ssr:stedsnr" v="199209" />
	</node>
	<node lat="67.72274616294968" lon="14.821437926212695" id="-19381">
		<tag k="fixme" v="consider place=hamlet" />
		<tag k="name" v="Tro" />
		<tag k="place" v="farm" />
		<tag k="ssr:stedsnr" v="199217" />
	</node>
	<node lat="67.78934444654647" lon="15.302902779929246" id="-19389">
		<tag k="alt_name" v="Kvalporen" />
		<tag k="name" v="Kvalsporen" />
		<tag k="place" v="farm" />
		<tag k="ssr:stedsnr" v="199707" />
	</node>
	<node lat="67.7886305568909" lon="15.62528055991604" id="-19391">
		<tag k="alt_name" v="Hopen, austre" />
		<tag k="name" v="Austre Hopen" />
		<tag k="place" v="farm" />
		<tag k="ssr:stedsnr" v="199717" />
	</node>
	<node lat="67.97848888718036" lon="15.265708340743165" id="-19398">
		<tag k="name" v="Grønvikdalen" />
		<tag k="place" v="farm" />
		<tag k="ssr:stedsnr" v="199628" />
	</node>
	<node lat="67.89866944563161" lon="15.19245832569065" id="-19401">
		<tag k="alt_name" v="Bogen" />
		<tag k="name" v="Leirvikbogen" />
		<tag k="place" v="village" />
		<tag k="ssr:stedsnr" v="199855" />
	</node>
	<node lat="67.77183610983002" lon="15.037686104277313" id="-19411">
		<tag k="fixme" v="consider place=hamlet" />
		<tag k="name" v="Leirangerfjord" />
		<tag k="place" v="village" />
		<tag k="ssr:stedsnr" v="216387" />
	</node>
	<node lat="67.75436944695107" lon="15.194566658154688" id="-19425">
		<tag k="name" v="Osbakk" />
		<tag k="place" v="farm" />
		<tag k="ssr:stedsnr" v="218903" />
	</node>
	<node lat="67.79346110798417" lon="15.039641658926126" id="-19428">
		<tag k="name" v="Solbakken" />
		<tag k="place" v="farm" />
		<tag k="ssr:stedsnr" v="218972" />
	</node>
	<node lat="67.7639750014252" lon="15.49003055703969" id="-19435">
		<tag k="name" v="Mølnvika" />
		<tag k="place" v="isolated_dwelling" />
		<tag k="ssr:stedsnr" v="237335" />
	</node>
	<node lat="67.81178333208939" lon="15.738908327623927" id="-19444">
		<tag k="name" v="Solheim" />
		<tag k="place" v="isolated_dwelling" />
		<tag k="ssr:stedsnr" v="238537" />
	</node>
	<node lat="67.86541944182049" lon="14.978405557533282" id="-19446">
		<tag k="name" v="Laupbakk" />
		<tag k="place" v="farm" />
		<tag k="ssr:stedsnr" v="238682" />
	</node>
	<node lat="67.68604166497376" lon="15.251472230008153" id="-19448">
		<tag k="name" v="Bakken" />
		<tag k="place" v="farm" />
		<tag k="ssr:stedsnr" v="238704" />
	</node>
	<node lat="67.73888333719415" lon="14.842161113682538" id="-19459">
		<tag k="alt_name" v="Steinsvika" />
		<tag k="name" v="Steinsvik" />
		<tag k="place" v="farm" />
		<tag k="ssr:stedsnr" v="259175" />
	</node>
	<node lat="67.73611921323942" lon="14.851033957825022" id="-19460">
		<tag k="fixme" v="consider place=hamlet" />
		<tag k="name" v="Grubstad" />
		<tag k="place" v="farm" />
		<tag k="ssr:stedsnr" v="259176" />
	</node>
	<node lat="67.89619722257773" lon="15.28119721857324" id="-19467">
		<tag k="name" v="Åkerneset" />
		<tag k="place" v="farm" />
		<tag k="ssr:stedsnr" v="259518" />
	</node>
	<node lat="67.88970148702506" lon="15.1884595490901" id="-19480">
		<tag k="alt_name" v="Leirvik" />
		<tag k="fixme" v="consider place=hamlet" />
		<tag k="name" v="Leirvika" />
		<tag k="place" v="farm" />
		<tag k="ssr:stedsnr" v="259838" />
	</node>
	<node lat="67.9761608383726" lon="15.098180642414752" id="-19490">
		<tag k="fixme" v="consider place=hamlet" />
		<tag k="name" v="Mjelde" />
		<tag k="place" v="farm" />
		<tag k="ssr:stedsnr" v="260055" />
	</node>
	<node lat="67.91397165778837" lon="15.137247611746387" id="-19493">
		<tag k="fixme" v="consider place=hamlet" />
		<tag k="name" v="Vik" />
		<tag k="place" v="farm" />
		<tag k="ssr:stedsnr" v="260201" />
	</node>
	<node lat="67.79021111469737" lon="14.981058336996805" id="-19511">
		<tag k="name" v="Nyborg" />
		<tag k="place" v="farm" />
		<tag k="ssr:stedsnr" v="279522" />
	</node>
	<node lat="67.95293055952574" lon="15.149750001689965" id="-19522">
		<tag k="name" v="Solvik" />
		<tag k="place" v="farm" />
		<tag k="ssr:stedsnr" v="461246" />
	</node>
	<node lat="67.97031666465166" lon="15.01297222786496" id="-19526">
		<tag k="name" v="Skjeret" />
		<tag k="place" v="isolated_dwelling" />
		<tag k="ssr:stedsnr" v="461501" />
	</node>
	<node lat="67.76662777564572" lon="15.15493056543318" id="-19533">
		<tag k="name" v="Austgård" />
		<tag k="place" v="farm" />
		<tag k="ssr:stedsnr" v="461894" />
	</node>
	<node lat="67.94072499617565" lon="14.973350004596133" id="-19534">
		<tag k="name" v="Vollen" />
		<tag k="place" v="locality" />
		<tag k="ssr:stedsnr" v="461976" />
	</node>
	<node lat="67.82425278114695" lon="15.38626388222144" id="-19536">
		<tag k="name" v="Lundeng" />
		<tag k="place" v="farm" />
		<tag k="ssr:stedsnr" v="298222" />
	</node>
	<node lat="67.80280555663111" lon="15.36724166151383" id="-19537">
		<tag k="name" v="Stevik" />
		<tag k="place" v="farm" />
		<tag k="ssr:stedsnr" v="298236" />
	</node>
	<node lat="67.80021111204732" lon="15.35183333131005" id="-19540">
		<tag k="name" v="Reitan" />
		<tag k="place" v="farm" />
		<tag k="ssr:stedsnr" v="298297" />
	</node>
	<node lat="67.72860555344916" lon="15.29339999288947" id="-19543">
		<tag k="name" v="Bergmo" />
		<tag k="place" v="isolated_dwelling" />
		<tag k="ssr:stedsnr" v="298384" />
	</node>
	<node lat="67.86496111344375" lon="14.942472213414643" id="-19557">
		<tag k="alt_name" v="Hasselbakk" />
		<tag k="name" v="Hasselbakken" />
		<tag k="place" v="farm" />
		<tag k="ssr:stedsnr" v="299607" />
	</node>
	<node lat="67.9203944487063" lon="15.083313888910165" id="-19565">
		<tag k="alt_name" v="Mølleskog, vestre" />
		<tag k="name" v="Vestre Mølleskog" />
		<tag k="place" v="farm" />
		<tag k="ssr:stedsnr" v="320131" />
	</node>
	<node lat="67.93015278072919" lon="14.996613892816514" id="-19567">
		<tag k="name" v="Vinjen" />
		<tag k="place" v="farm" />
		<tag k="ssr:stedsnr" v="320151" />
	</node>
	<node lat="67.91649491466205" lon="15.53284392237192" id="-19579">
		<tag k="alt_name" v="Vassvik" />
		<tag k="fixme" v="consider place=hamlet" />
		<tag k="name" v="Vassvika" />
		<tag k="place" v="farm" />
		<tag k="ssr:stedsnr" v="320540" />
	</node>
	<node lat="67.97428610980141" lon="15.236252780005186" id="-19584">
		<tag k="alt_name" v="Yttervika" />
		<tag k="name" v="Ytterlia" />
		<tag k="place" v="farm" />
		<tag k="ssr:stedsnr" v="320603" />
	</node>
	<node lat="67.86938376465613" lon="15.182088630928307" id="-19593">
		<tag k="fixme" v="consider place=hamlet" />
		<tag k="name" v="Fure" />
		<tag k="place" v="farm" />
		<tag k="ssr:stedsnr" v="320842" />
	</node>
	<node lat="67.68472777498289" lon="15.02341111009274" id="-19601">
		<tag k="fixme" v="consider place=hamlet" />
		<tag k="name" v="Stamsvika" />
		<tag k="place" v="village" />
		<tag k="ssr:stedsnr" v="320801" />
	</node>
	<node lat="67.68274444565228" lon="15.025319444473292" id="-19620">
		<tag k="loc_name" v="Lagården" />
		<tag k="name" v="Lagård" />
		<tag k="place" v="farm" />
		<tag k="ssr:stedsnr" v="346259" />
	</node>
	<node lat="67.67916822991613" lon="14.997734069539735" id="-19621">
		<tag k="fixme" v="consider place=hamlet" />
		<tag k="name" v="Flekkos" />
		<tag k="place" v="farm" />
		<tag k="ssr:stedsnr" v="346261" />
	</node>
	<node lat="67.93032222039729" lon="15.460294440511241" id="-19622">
		<tag k="alt_name" v="Skramstad" />
		<tag k="name" v="Skranstad" />
		<tag k="place" v="hamlet" />
		<tag k="ssr:stedsnr" v="359308" />
	</node>
	<node lat="67.71709166389097" lon="15.382280562308022" id="-19624">
		<tag k="name" v="Myrvoll" />
		<tag k="place" v="isolated_dwelling" />
		<tag k="ssr:stedsnr" v="359326" />
	</node>
	<node lat="67.76150555463734" lon="15.224483321828409" id="-19629">
		<tag k="name" v="Klokkargården" />
		<tag k="place" v="farm" />
		<tag k="ssr:stedsnr" v="359718" />
	</node>
	<node lat="67.68672499591248" lon="15.326438891018778" id="-19630">
		<tag k="name" v="Birgit" />
		<tag k="place" v="isolated_dwelling" />
		<tag k="ssr:stedsnr" v="359726" />
	</node>
	<node lat="67.77012222277195" lon="15.160472221877404" id="-19631">
		<tag k="name" v="Nyrud" />
		<tag k="place" v="farm" />
		<tag k="ssr:stedsnr" v="359751" />
	</node>
	<node lat="67.7256083359196" lon="15.292819437155316" id="-19635">
		<tag k="name" v="Vinkenes" />
		<tag k="place" v="farm" />
		<tag k="ssr:stedsnr" v="363634" />
	</node>
	<node lat="67.72730555335019" lon="15.292486102164567" id="-19644">
		<tag k="name" v="Eian" />
		<tag k="place" v="isolated_dwelling" />
		<tag k="ssr:stedsnr" v="480425" />
	</node>
	<node lat="67.66660833236479" lon="14.938947230377694" id="-19650">
		<tag k="name" v="Mælvoll" />
		<tag k="place" v="farm" />
		<tag k="ssr:stedsnr" v="480525" />
	</node>
	<node lat="67.76342499638884" lon="15.135825001712758" id="-19659">
		<tag k="name" v="Skogly" />
		<tag k="place" v="isolated_dwelling" />
		<tag k="ssr:stedsnr" v="480741" />
	</node>
	<node lat="67.81511111469845" lon="14.783591667716719" id="-19662">
		<tag k="name" v="Myra" />
		<tag k="place" v="farm" />
		<tag k="ssr:stedsnr" v="480555" />
	</node>
	<node lat="67.91201666503768" lon="15.339599999529876" id="-19679">
		<tag k="name" v="Sjøvoll" />
		<tag k="place" v="farm" />
		<tag k="ssr:stedsnr" v="380580" />
	</node>
	<node lat="67.75641389216882" lon="15.201708329776608" id="-19694">
		<tag k="name" v="Bergvollen" />
		<tag k="place" v="farm" />
		<tag k="ssr:stedsnr" v="380873" />
	</node>
	<node lat="67.98073349680695" lon="15.092745197467407" id="-19699">
		<tag k="alt_name" v="Eide" />
		<tag k="fixme" v="consider place=hamlet" />
		<tag k="name" v="Eidet" />
		<tag k="place" v="farm" />
		<tag k="ssr:stedsnr" v="381062" />
	</node>
	<node lat="67.93630555831886" lon="14.983183326162022" id="-19712">
		<tag k="alt_name" v="Stegen;Steigen" />
		<tag k="name" v="Stegen øvre" />
		<tag k="old_name" v="Steigen  øvre" />
		<tag k="place" v="farm" />
		<tag k="ssr:stedsnr" v="398194" />
	</node>
	<node lat="67.7275361082371" lon="14.80861111965606" id="-19721">
		<tag k="name" v="Auvika" />
		<tag k="place" v="farm" />
		<tag k="ssr:stedsnr" v="400807" />
	</node>
	<node lat="67.78916666978016" lon="14.887613878233411" id="-19739">
		<tag k="name" v="Sund" />
		<tag k="place" v="farm" />
		<tag k="ssr:stedsnr" v="440945" />
	</node>
	<node lat="67.74038333732588" lon="15.029474996441994" id="-19744">
		<tag k="name" v="Fossheim" />
		<tag k="place" v="farm" />
		<tag k="ssr:stedsnr" v="441202" />
	</node>
	<node lat="67.8910631770549" lon="15.282693860902679" id="-19748">
		<tag k="alt_name" v="Stensland" />
		<tag k="name" v="Steinsland" />
		<tag k="place" v="hamlet" />
		<tag k="ssr:stedsnr" v="441538" />
	</node>
	<node lat="67.79542777726904" lon="15.30398334390325" id="-19750">
		<tag k="name" v="Moen" />
		<tag k="place" v="farm" />
		<tag k="ssr:stedsnr" v="441724" />
	</node>
	<node lat="67.66956389004281" lon="14.765616671858469" id="-19752">
		<tag k="alt_name" v="Breidvika" />
		<tag k="name" v="Breivika" />
		<tag k="place" v="farm" />
		<tag k="ssr:stedsnr" v="441802" />
	</node>
	<node lat="67.86270000479705" lon="15.036644435843542" id="-19753">
		<tag k="alt_name" v="Kvanndalsmoa" />
		<tag k="name" v="Kvanndalsmoen" />
		<tag k="place" v="locality" />
		<tag k="ssr:stedsnr" v="441803" />
	</node>
	<node lat="67.80660278045596" lon="14.833347222527031" id="-19774">
		<tag k="name" v="Lund" />
		<tag k="place" v="farm" />
		<tag k="ssr:stedsnr" v="442210" />
	</node>
	<node lat="67.72843333249658" lon="15.163472217346829" id="-19776">
		<tag k="name" v="Lyngeng" />
		<tag k="place" v="farm" />
		<tag k="ssr:stedsnr" v="442237" />
	</node>
	<node lat="67.7306669018016" lon="14.883454699993194" id="-19780">
		<tag k="fixme" v="consider place=hamlet" />
		<tag k="name" v="Hustoft" />
		<tag k="place" v="farm" />
		<tag k="ssr:stedsnr" v="442245" />
	</node>
	<node lat="67.80843601523725" lon="15.743785595132671" id="-19787">
		<tag k="fixme" v="consider place=hamlet" />
		<tag k="name" v="Vatnøyra" />
		<tag k="place" v="farm" />
		<tag k="ssr:stedsnr" v="442485" />
	</node>
	<node lat="67.88013611029025" lon="14.886127778440834" id="-19794">
		<tag k="name" v="Vikran" />
		<tag k="place" v="farm" />
		<tag k="ssr:stedsnr" v="442851" />
	</node>
	<node lat="67.93799999964932" lon="15.21766944215979" id="-19804">
		<tag k="name" v="Nystad" />
		<tag k="place" v="farm" />
		<tag k="ssr:stedsnr" v="461576" />
	</node>
	<node lat="67.8996944446106" lon="15.194494438982593" id="-19810">
		<tag k="name" v="Nordmarka" />
		<tag k="place" v="farm" />
		<tag k="ssr:stedsnr" v="461878" />
	</node>
	<node lat="67.80151944822619" lon="15.360580551037131" id="-19816">
		<tag k="name" v="Indregården" />
		<tag k="place" v="hamlet" />
		<tag k="ssr:stedsnr" v="480278" />
	</node>
	<node lat="67.72032500264665" lon="15.278169449274207" id="-19819">
		<tag k="name" v="Haugen" />
		<tag k="place" v="farm" />
		<tag k="ssr:stedsnr" v="480709" />
	</node>
	<node lat="67.77533889196386" lon="15.172780555497441" id="-19830">
		<tag k="name" v="Tramoa" />
		<tag k="place" v="farm" />
		<tag k="ssr:stedsnr" v="480763" />
	</node>
	<node lat="67.72169721836444" lon="15.288655560691229" id="-19833">
		<tag k="name" v="Osbakkan" />
		<tag k="place" v="farm" />
		<tag k="ssr:stedsnr" v="501830" />
	</node>
	<node lat="67.91878610999993" lon="15.035208322498317" id="-19849">
		<tag k="name" v="Nygård" />
		<tag k="place" v="farm" />
		<tag k="ssr:stedsnr" v="502116" />
	</node>
	<node lat="67.7087722189316" lon="15.10025278438864" id="-19852">
		<tag k="name" v="Langstranda" />
		<tag k="place" v="farm" />
		<tag k="ssr:stedsnr" v="502225" />
	</node>
	<node lat="67.72376944827104" lon="14.808311113149065" id="-19859">
		<tag k="alt_name" v="Grindvik" />
		<tag k="name" v="Hammarvollen" />
		<tag k="place" v="farm" />
		<tag k="ssr:stedsnr" v="502193" />
	</node>
	<node lat="67.96167777601866" lon="15.037055543013539" id="-19860">
		<tag k="name" v="Bø" />
		<tag k="place" v="farm" />
		<tag k="ssr:stedsnr" v="502194" />
	</node>
	<node lat="67.75677222470696" lon="15.436736113802006" id="-19869">
		<tag k="fixme" v="consider place=hamlet" />
		<tag k="name" v="Stavnes" />
		<tag k="place" v="farm" />
		<tag k="ssr:stedsnr" v="502693" />
	</node>
	<node lat="67.79172777607964" lon="15.300566668846225" id="-19870">
		<tag k="name" v="Snehaug" />
		<tag k="place" v="farm" />
		<tag k="ssr:stedsnr" v="502699" />
	</node>
	<node lat="67.69528888482942" lon="15.470302774255304" id="-19873">
		<tag k="name" v="Lassvika" />
		<tag k="place" v="farm" />
		<tag k="ssr:stedsnr" v="502823" />
	</node>
	<node lat="67.79372500214728" lon="15.316858332760436" id="-19879">
		<tag k="alt_name" v="Kjærran" />
		<tag k="name" v="Kjerran" />
		<tag k="place" v="farm" />
		<tag k="ssr:stedsnr" v="502726" />
	</node>
	<node lat="68.03682586794565" lon="15.22749766131271" id="-19884">
		<tag k="fixme" v="consider place=hamlet" />
		<tag k="name" v="Øksnes" />
		<tag k="place" v="farm" />
		<tag k="ssr:stedsnr" v="502927" />
	</node>
	<node lat="67.77001944507127" lon="15.044761116107939" id="-19885">
		<tag k="name" v="Stormyra" />
		<tag k="place" v="farm" />
		<tag k="ssr:stedsnr" v="502928" />
	</node>
	<node lat="67.7597750019235" lon="15.211302783916373" id="-19894">
		<tag k="name" v="Kjølen" />
		<tag k="place" v="farm" />
		<tag k="ssr:stedsnr" v="502884" />
	</node>
	<node lat="67.87549276827737" lon="15.087415845053737" id="-19901">
		<tag k="alt_name" v="Innerskotsfjord;in Skotsfjord, østre;indre Skotsfjord, østre;Skotsfjord;Indre Skotsfjord" />
		<tag k="name" v="Østre Innerskotsfjord" />
		<tag k="place" v="farm" />
		<tag k="ssr:stedsnr" v="684829" />
	</node>
	<node lat="67.87545555392252" lon="15.082466670256045" id="-19902">
		<tag k="alt_name" v="indre Skotsfjord, vestre" />
		<tag k="name" v="Vestre Innerskotsfjord" />
		<tag k="old_name" v="in Skotsfjord, vestre" />
		<tag k="place" v="farm" />
		<tag k="ssr:stedsnr" v="684830" />
	</node>
	<node lat="67.9215611075599" lon="15.053352773517627" id="-19909">
		<tag k="alt_name" v="Sandvågen, øvre" />
		<tag k="name" v="Øvre Sandvåg" />
		<tag k="place" v="farm" />
		<tag k="ssr:stedsnr" v="684129" />
	</node>
	<node lat="67.9231388882334" lon="15.017166667298495" id="-19910">
		<tag k="name" v="Breidablikk" />
		<tag k="place" v="isolated_dwelling" />
		<tag k="ssr:stedsnr" v="684131" />
	</node>
	<node lat="67.92152787102067" lon="15.109760817337994" id="-19911">
		<tag k="name" v="Myklebostad" />
		<tag k="place" v="hamlet" />
		<tag k="ssr:stedsnr" v="684136" />
	</node>
	<node lat="67.91554722189663" lon="15.035083334272207" id="-19920">
		<tag k="name" v="Nygård" />
		<tag k="place" v="locality" />
		<tag k="ssr:stedsnr" v="684185" />
	</node>
	<node lat="67.73406265614419" lon="14.884606372061056" id="-19921">
		<tag k="alt_name" v="Skålvold" />
		<tag k="fixme" v="consider place=hamlet" />
		<tag k="name" v="Skålvoll" />
		<tag k="place" v="farm" />
		<tag k="ssr:stedsnr" v="684191" />
	</node>
	<node lat="67.94124781399466" lon="14.96411817883322" id="-19925">
		<tag k="alt_name" v="Vestjorden;Vestjord" />
		<tag k="name" v="Vestjorda" />
		<tag k="place" v="farm" />
		<tag k="ssr:stedsnr" v="684234" />
	</node>
	<node lat="67.70844166520611" lon="15.117172223060628" id="-19927">
		<tag k="name" v="Vika" />
		<tag k="place" v="farm" />
		<tag k="ssr:stedsnr" v="684242" />
	</node>
	<node lat="67.93273333322236" lon="15.274238880341157" id="-19933">
		<tag k="name" v="Nygård" />
		<tag k="place" v="farm" />
		<tag k="ssr:stedsnr" v="684562" />
	</node>
	<node lat="67.82651944023492" lon="15.387536112892706" id="-19937">
		<tag k="alt_name" v="Saga" />
		<tag k="name" v="Sagen" />
		<tag k="place" v="farm" />
		<tag k="ssr:stedsnr" v="684722" />
	</node>
	<node lat="67.78863889333925" lon="15.608633322883561" id="-19938">
		<tag k="alt_name" v="Hopen, vestre" />
		<tag k="name" v="Vestre Hopen" />
		<tag k="place" v="farm" />
		<tag k="ssr:stedsnr" v="684688" />
	</node>
	<node lat="67.82009722517559" lon="15.108808339754649" id="-19944">
		<tag k="name" v="Furulund" />
		<tag k="place" v="farm" />
		<tag k="ssr:stedsnr" v="684781" />
	</node>
	<node lat="67.75615708266847" lon="15.113892292745742" id="-19961">
		<tag k="alt_name" v="Simonstrand" />
		<tag k="fixme" v="consider place=hamlet" />
		<tag k="name" v="Simonstranda" />
		<tag k="place" v="farm" />
		<tag k="ssr:stedsnr" v="684883" />
	</node>
	<node lat="67.89953610878229" lon="15.198661112187912" id="-19969">
		<tag k="name" v="Nordhøgda" />
		<tag k="place" v="quarter" />
		<tag k="ssr:stedsnr" v="521870" />
	</node>
	<node lat="67.72875000271408" lon="15.181397229153125" id="-19979">
		<tag k="name" v="Lundmo" />
		<tag k="place" v="isolated_dwelling" />
		<tag k="ssr:stedsnr" v="528277" />
	</node>
	<node lat="67.69813888731689" lon="15.076366675996452" id="-19980">
		<tag k="name" v="Nystad" />
		<tag k="place" v="farm" />
		<tag k="ssr:stedsnr" v="528773" />
	</node>
	<node lat="67.75383611010268" lon="15.420775000811918" id="-19984">
		<tag k="name" v="Hamnviken" />
		<tag k="place" v="isolated_dwelling" />
		<tag k="ssr:stedsnr" v="541384" />
	</node>
	<node lat="67.8722222265644" lon="15.048958337257448" id="-19987">
		<tag k="name" v="Åsen" />
		<tag k="place" v="farm" />
		<tag k="ssr:stedsnr" v="541616" />
	</node>
	<node lat="67.74405277876677" lon="15.01975556103835" id="-19988">
		<tag k="name" v="Åsheim" />
		<tag k="place" v="isolated_dwelling" />
		<tag k="ssr:stedsnr" v="541623" />
	</node>
	<node lat="67.78924482394488" lon="15.615843457278876" id="-19996">
		<tag k="name" v="Hopen" />
		<tag k="place" v="hamlet" />
		<tag k="ssr:stedsnr" v="693337" />
	</node>
	<node lat="67.7628277772552" lon="15.229041671507469" id="-20016">
		<tag k="name" v="Elvegård" />
		<tag k="place" v="quarter" />
		<tag k="ssr:stedsnr" v="582789" />
	</node>
	<node lat="67.76392777742846" lon="15.025574997109198" id="-20018">
		<tag k="name" v="Osvold" />
		<tag k="place" v="farm" />
		<tag k="ssr:stedsnr" v="582902" />
	</node>
	<node lat="67.69842500043688" lon="15.07546944169202" id="-20027">
		<tag k="name" v="Nystad" />
		<tag k="place" v="farm" />
		<tag k="ssr:stedsnr" v="606416" />
	</node>
	<node lat="67.9297994105816" lon="15.263260603720207" id="-20033">
		<tag k="alt_name" v="Røtnes" />
		<tag k="fixme" v="consider place=hamlet" />
		<tag k="name" v="Søre Røtnes" />
		<tag k="place" v="farm" />
		<tag k="ssr:stedsnr" v="701444" />
	</node>
	<node lat="67.7777305577113" lon="15.158177782455933" id="-20042">
		<tag k="name" v="Sveum" />
		<tag k="place" v="farm" />
		<tag k="ssr:stedsnr" v="622913" />
	</node>
	<node lat="67.79189722379391" lon="15.01261388028177" id="-20043">
		<tag k="alt_name" v="Norheim" />
		<tag k="name" v="Nordheim" />
		<tag k="place" v="farm" />
		<tag k="ssr:stedsnr" v="622945" />
	</node>
	<node lat="67.96992221896522" lon="15.022433335036503" id="-20056">
		<tag k="alt_name" v="Sjøvollen" />
		<tag k="name" v="Sjyvollen" />
		<tag k="place" v="farm" />
		<tag k="ssr:stedsnr" v="623218" />
	</node>
	<node lat="67.7984416643008" lon="15.298827766334755" id="-20071">
		<tag k="name" v="Nyvoll" />
		<tag k="place" v="farm" />
		<tag k="ssr:stedsnr" v="623729" />
	</node>
	<node lat="67.96423888998275" lon="15.047838879210806" id="-20083">
		<tag k="name" v="Bøsanden" />
		<tag k="place" v="farm" />
		<tag k="ssr:stedsnr" v="703533" />
	</node>
	<node lat="67.837933330942" lon="14.90053888195577" id="-20115">
		<tag k="name" v="Ersvika" />
		<tag k="place" v="locality" />
		<tag k="ssr:stedsnr" v="641428" />
	</node>
	<node lat="67.7548194442561" lon="15.445836102770052" id="-20123">
		<tag k="name" v="Frumoen" />
		<tag k="place" v="isolated_dwelling" />
		<tag k="ssr:stedsnr" v="662338" />
	</node>
	<node lat="67.72169444787731" lon="15.289886119158849" id="-20138">
		<tag k="name" v="Vinkenes vestre" />
		<tag k="place" v="farm" />
		<tag k="ssr:stedsnr" v="667642" />
	</node>
	<node lat="67.80168505041769" lon="15.356835696016642" id="-20181">
		<tag k="fixme" v="consider place=hamlet" />
		<tag k="name" v="Alvnes" />
		<tag k="place" v="farm" />
		<tag k="ssr:stedsnr" v="684706" />
	</node>
	<node lat="67.79366388734233" lon="15.297013896102069" id="-20183">
		<tag k="name" v="Dalbrott" />
		<tag k="place" v="farm" />
		<tag k="ssr:stedsnr" v="684711" />
	</node>
	<node lat="67.67988611137375" lon="14.989575001631703" id="-20192">
		<tag k="name" v="Sveen" />
		<tag k="place" v="farm" />
		<tag k="ssr:stedsnr" v="684799" />
	</node>
	<node lat="67.92528285515667" lon="15.195858952696863" id="-20213">
		<tag k="name" v="Nyhaug" />
		<tag k="place" v="farm" />
		<tag k="ssr:stedsnr" v="704725" />
	</node>
	<node lat="67.76692499787711" lon="15.242558338243418" id="-20214">
		<tag k="name" v="Kjærran" />
		<tag k="place" v="farm" />
		<tag k="ssr:stedsnr" v="704760" />
	</node>
	<node lat="67.66208333142481" lon="15.463319437015038" id="-20216">
		<tag k="name" v="Skogheim" />
		<tag k="place" v="isolated_dwelling" />
		<tag k="ssr:stedsnr" v="704858" />
	</node>
	<node lat="67.75925000413748" lon="15.131347232909656" id="-20230">
		<tag k="name" v="Pålnes" />
		<tag k="place" v="isolated_dwelling" />
		<tag k="ssr:stedsnr" v="723718" />
	</node>
	<node lat="67.76483888738538" lon="15.139550010471618" id="-20232">
		<tag k="name" v="Heimtun" />
		<tag k="place" v="isolated_dwelling" />
		<tag k="ssr:stedsnr" v="723724" />
	</node>
	<node lat="67.79708333533394" lon="15.305663887679904" id="-20247">
		<tag k="name" v="Vebakken" />
		<tag k="place" v="farm" />
		<tag k="ssr:stedsnr" v="744696" />
	</node>
	<node lat="67.73958611433753" lon="15.185936111670873" id="-20264">
		<tag k="name" v="Tingvoll" />
		<tag k="place" v="farm" />
		<tag k="ssr:stedsnr" v="745204" />
	</node>
	<node lat="67.74503888674718" lon="15.022547221005697" id="-20267">
		<tag k="alt_name" v="Gråsteinhaugen" />
		<tag k="name" v="Gråsteinhågen" />
		<tag k="place" v="farm" />
		<tag k="ssr:stedsnr" v="745217" />
	</node>
	<node lat="67.93891763467232" lon="15.524154178128738" id="-20275">
		<tag k="fixme" v="consider place=hamlet" />
		<tag k="name" v="Svartfjell" />
		<tag k="place" v="farm" />
		<tag k="ssr:stedsnr" v="745571" />
	</node>
	<node lat="67.91753055785797" lon="15.403472219065904" id="-20296">
		<tag k="name" v="Fredly" />
		<tag k="place" v="farm" />
		<tag k="ssr:stedsnr" v="905489" />
	</node>
	<node lat="67.6830555533078" lon="14.767061121246794" id="-20320">
		<tag k="name" v="Låtavik" />
		<tag k="place" v="locality" />
		<tag k="ssr:stedsnr" v="761518" />
	</node>
	<node lat="67.76838611172485" lon="15.156244433593592" id="-20338">
		<tag k="name" v="Solvang" />
		<tag k="place" v="farm" />
		<tag k="ssr:stedsnr" v="783749" />
	</node>
	<node lat="67.86118656019923" lon="14.919152817628847" id="-20346">
		<tag k="fixme" v="consider place=hamlet" />
		<tag k="name" v="Ytterskotsfjorden" />
		<tag k="place" v="farm" />
		<tag k="ssr:stedsnr" v="784698" />
	</node>
	<node lat="67.74603888886512" lon="15.041525003341597" id="-20363">
		<tag k="name" v="Breiveien" />
		<tag k="place" v="farm" />
		<tag k="ssr:stedsnr" v="825979" />
	</node>
	<node lat="67.66742777824926" lon="14.952127785801954" id="-20365">
		<tag k="name" v="Nyjord" />
		<tag k="place" v="isolated_dwelling" />
		<tag k="ssr:stedsnr" v="832282" />
	</node>
	<node lat="67.72487650743844" lon="15.290645790409389" id="-20383">
		<tag k="fixme" v="consider place=hamlet" />
		<tag k="name" v="Vinknes" />
		<tag k="place" v="farm" />
		<tag k="ssr:stedsnr" v="926834" />
	</node>
	<node lat="67.77398610791286" lon="15.161447214597146" id="-20388">
		<tag k="alt_name" v="Russvoll" />
		<tag k="name" v="Russvollen" />
		<tag k="place" v="farm" />
		<tag k="ssr:stedsnr" v="926902" />
	</node>
	<node lat="67.74336462223832" lon="15.049412383041181" id="-20407">
		<tag k="alt_name" v="Åsjord" />
		<tag k="fixme" v="consider place=hamlet" />
		<tag k="name" v="Åsjorda" />
		<tag k="place" v="farm" />
		<tag k="ssr:stedsnr" v="927183" />
	</node>
	<node lat="67.74990277764185" lon="14.991386103884523" id="-20408">
		<tag k="name" v="Øvre" />
		<tag k="place" v="farm" />
		<tag k="ssr:stedsnr" v="927186" />
	</node>
	<node lat="67.93849704633308" lon="15.197744086453525" id="-20413">
		<tag k="fixme" v="consider place=hamlet" />
		<tag k="name" v="Storsæter" />
		<tag k="place" v="farm" />
		<tag k="ssr:stedsnr" v="927238" />
	</node>
	<node lat="67.6986666687886" lon="15.075258326404773" id="-20414">
		<tag k="fixme" v="multiple name tags, choose one and add the other to alt_name; consider place=hamlet" />
		<tag k="name" v="Ytter-Seglstein;Ytter-Seglstein" />
		<tag k="place" v="farm" />
		<tag k="ssr:stedsnr" v="927243" />
	</node>
	<node lat="67.73534740831371" lon="14.867922892845176" id="-20417">
		<tag k="fixme" v="consider place=hamlet" />
		<tag k="name" v="Skjelstad" />
		<tag k="place" v="farm" />
		<tag k="ssr:stedsnr" v="927191" />
	</node>
	<node lat="67.7412333336432" lon="14.918030566576428" id="-20418">
		<tag k="alt_name" v="Engen" />
		<tag k="name" v="Storenget" />
		<tag k="place" v="farm" />
		<tag k="ssr:stedsnr" v="927194" />
	</node>
	<node lat="67.81054928872733" lon="15.742070356742738" id="-20423">
		<tag k="fixme" v="consider place=hamlet" />
		<tag k="name" v="Hopvatnet" />
		<tag k="place" v="farm" />
		<tag k="ssr:stedsnr" v="927479" />
	</node>
	<node lat="67.8149222202252" lon="15.455311114776386" id="-20432">
		<tag k="alt_name" v="Bjørsvika, nordre" />
		<tag k="fixme" v="multiple name tags, choose one and add the other to alt_name" />
		<tag k="name" v="Bjørsvika;Nordre Bjørsvika" />
		<tag k="place" v="farm" />
		<tag k="ssr:stedsnr" v="927724" />
	</node>
	<node lat="67.67211944809134" lon="14.95758889510999" id="-20439">
		<tag k="alt_name" v="Vikan indre" />
		<tag k="name" v="Vikan" />
		<tag k="place" v="farm" />
		<tag k="ssr:stedsnr" v="927807" />
	</node>
	<node lat="67.86726666986812" lon="14.975691666570848" id="-20443">
		<tag k="name" v="Laukbakken" />
		<tag k="place" v="farm" />
		<tag k="ssr:stedsnr" v="927795" />
	</node>
	<node lat="67.66406388636739" lon="14.930016675184568" id="-20449">
		<tag k="name" v="Myra" />
		<tag k="place" v="locality" />
		<tag k="ssr:stedsnr" v="927815" />
	</node>
	<node lat="67.70261389285847" lon="15.412230563064432" id="-20453">
		<tag k="name" v="Kjerran" />
		<tag k="place" v="farm" />
		<tag k="ssr:stedsnr" v="927827" />
	</node>
	<node lat="67.68735833068123" lon="15.304875004194507" id="-20456">
		<tag k="name" v="Makkleira" />
		<tag k="place" v="farm" />
		<tag k="ssr:stedsnr" v="927836" />
	</node>
	<node lat="67.6885666645774" lon="15.657988898427972" id="-20459">
		<tag k="fixme" v="consider place=hamlet" />
		<tag k="name" v="Stavfjorden" />
		<tag k="place" v="farm" />
		<tag k="ssr:stedsnr" v="927840" />
	</node>
	<node lat="67.86219154616495" lon="14.856397938923749" id="-20461">
		<tag k="fixme" v="consider place=hamlet" />
		<tag k="name" v="Kvalnes" />
		<tag k="place" v="farm" />
		<tag k="ssr:stedsnr" v="927843" />
	</node>
	<node lat="67.7620230089217" lon="15.035663155213133" id="-20468">
		<tag k="name" v="Sommarosen" />
		<tag k="place" v="farm" />
		<tag k="ssr:stedsnr" v="927946" />
	</node>
	<node lat="67.7369888862394" lon="14.82381945116485" id="-20482">
		<tag k="name" v="Lillegrenda" />
		<tag k="place" v="hamlet" />
		<tag k="ssr:stedsnr" v="886905" />
	</node>
	<node lat="67.70460555369112" lon="15.404894442262995" id="-20489">
		<tag k="name" v="Indre Helldalen" />
		<tag k="place" v="farm" />
		<tag k="ssr:stedsnr" v="905306" />
	</node>
	<node lat="67.74411388566377" lon="15.03021388136909" id="-20493">
		<tag k="name" v="Furumo" />
		<tag k="place" v="isolated_dwelling" />
		<tag k="ssr:stedsnr" v="905619" />
	</node>
	<node lat="67.81148055247691" lon="14.704777768885199" id="-20513">
		<tag k="name" v="Skipvollen" />
		<tag k="place" v="farm" />
		<tag k="ssr:stedsnr" v="927104" />
	</node>
	<node lat="67.90222422449708" lon="15.07803081713387" id="-20522">
		<tag k="name" v="Skånland" />
		<tag k="place" v="farm" />
		<tag k="ssr:stedsnr" v="927175" />
	</node>
	<node lat="67.72104944668283" lon="15.150155998919889" id="-20526">
		<tag k="alt_name" v="Breidvika;Breidvik;Breivik" />
		<tag k="fixme" v="consider place=hamlet" />
		<tag k="name" v="Breivika" />
		<tag k="place" v="farm" />
		<tag k="ssr:stedsnr" v="927206" />
	</node>
	<node lat="67.68575936087858" lon="15.03315293437372" id="-20534">
		<tag k="name" v="Langnes" />
		<tag k="place" v="farm" />
		<tag k="ssr:stedsnr" v="927227" />
	</node>
	<node lat="67.93188333270082" lon="15.553675000779556" id="-20563">
		<tag k="name" v="Haugen" />
		<tag k="place" v="farm" />
		<tag k="ssr:stedsnr" v="946604" />
	</node>
	<node lat="67.97142500098616" lon="15.114724990530018" id="-20564">
		<tag k="name" v="Fagerheim" />
		<tag k="place" v="farm" />
		<tag k="ssr:stedsnr" v="946711" />
	</node>
	<node lat="67.89676111398941" lon="15.285633334521773" id="-20570">
		<tag k="name" v="Steinsland" />
		<tag k="place" v="farm" />
		<tag k="ssr:stedsnr" v="946931" />
	</node>
	<node lat="67.77155555510637" lon="15.0422361070052" id="-20577">
		<tag k="name" v="Pinstranda" />
		<tag k="place" v="hamlet" />
		<tag k="ssr:stedsnr" v="947943" />
	</node>
	<node lat="67.76182553777001" lon="15.030342736215767" id="-20584">
		<tag k="name" v="Sommernes" />
		<tag k="place" v="farm" />
		<tag k="ssr:stedsnr" v="972827" />
	</node>
	<node lat="67.70231926537464" lon="15.086113975297776" id="-20585">
		<tag k="name" v="Seglstein" />
		<tag k="place" v="hamlet" />
		<tag k="ssr:stedsnr" v="972829" />
	</node>
	<node lat="67.7028782148346" lon="15.088067237457066" id="-20586">
		<tag k="name" v="Inner-Seglstein" />
		<tag k="place" v="farm" />
		<tag k="ssr:stedsnr" v="972839" />
	</node>
	<node lat="67.68272969384957" lon="15.53876085247831" id="-20587">
		<tag k="name" v="Vinkfjorden" />
		<tag k="place" v="farm" />
		<tag k="ssr:stedsnr" v="973008" />
	</node>
	<node lat="67.84827352148419" lon="15.170416196662087" id="-20588">
		<tag k="name" v="Skjelvareid" />
		<tag k="place" v="farm" />
		<tag k="ssr:stedsnr" v="974899" />
	</node>
	<node lat="67.85195360732557" lon="15.177626966178897" id="-20589">
		<tag k="name" v="Skjelvareid" />
		<tag k="place" v="farm" />
		<tag k="ssr:stedsnr" v="974900" />
	</node>
	<node lat="67.92359540489947" lon="15.555323271771284" id="-20599">
		<tag k="alt_name" v="Straumfjorden, store;Storstraumfjord" />
		<tag k="fixme" v="consider place=hamlet" />
		<tag k="name" v="Store Straumfjorden" />
		<tag k="old_name" v="Straumfjorden" />
		<tag k="place" v="farm" />
		<tag k="ssr:stedsnr" v="16529" />
	</node>
	<node lat="67.83154115899939" lon="15.147642181710529" id="-20603">
		<tag k="name" v="Frydenlund" />
		<tag k="place" v="farm" />
		<tag k="ssr:stedsnr" v="16740" />
	</node>
	<node lat="67.6777305561674" lon="14.976730553222914" id="-20608">
		<tag k="name" v="Vollen" />
		<tag k="place" v="farm" />
		<tag k="ssr:stedsnr" v="16786" />
	</node>
	<node lat="67.91330278248464" lon="15.17458888323808" id="-20628">
		<tag k="name" v="Hillbrannen" />
		<tag k="place" v="farm" />
		<tag k="ssr:stedsnr" v="17180" />
	</node>
	<node lat="67.7478166632724" lon="15.176033328244765" id="-20633">
		<tag k="name" v="Skoglund" />
		<tag k="place" v="farm" />
		<tag k="ssr:stedsnr" v="17197" />
	</node>
	<node lat="67.81475277388402" lon="14.705436103967083" id="-20636">
		<tag k="name" v="Sanden" />
		<tag k="place" v="farm" />
		<tag k="ssr:stedsnr" v="17032" />
	</node>
	<node lat="67.97433610800941" lon="15.110319434046497" id="-20639">
		<tag k="alt_name" v="Myrvold" />
		<tag k="name" v="Myrvoll" />
		<tag k="place" v="farm" />
		<tag k="ssr:stedsnr" v="17042" />
	</node>
	<node lat="67.92000555399034" lon="15.060594440856025" id="-20647">
		<tag k="alt_name" v="Einmoen" />
		<tag k="name" v="Einmoa" />
		<tag k="place" v="farm" />
		<tag k="ssr:stedsnr" v="17141" />
	</node>
	<node lat="67.7217777783861" lon="15.17130833996356" id="-20650">
		<tag k="name" v="Solstrand" />
		<tag k="place" v="farm" />
		<tag k="ssr:stedsnr" v="17230" />
	</node>
	<node lat="67.9295499990611" lon="15.259363891835056" id="-20669">
		<tag k="name" v="Knausen" />
		<tag k="place" v="farm" />
		<tag k="ssr:stedsnr" v="17583" />
	</node>
	<node lat="67.97548889084895" lon="15.293744439160655" id="-20672">
		<tag k="alt_name" v="Oksøya, øvre" />
		<tag k="name" v="Øvre Oksøya" />
		<tag k="place" v="farm" />
		<tag k="ssr:stedsnr" v="17629" />
	</node>
	<node lat="67.88424377376997" lon="15.096429032210818" id="-20673">
		<tag k="alt_name" v="Skyttmark" />
		<tag k="fixme" v="multiple name tags, choose one and add the other to alt_name; consider place=hamlet" />
		<tag k="name" v="Skotsfjordmarka;Skyttmarka" />
		<tag k="place" v="farm" />
		<tag k="ssr:stedsnr" v="17872" />
	</node>
	<node lat="67.96721388842737" lon="15.022238896918406" id="-20697">
		<tag k="name" v="Vollen" />
		<tag k="place" v="farm" />
		<tag k="ssr:stedsnr" v="36445" />
	</node>
	<node lat="67.76355209468741" lon="15.234281788984154" id="-20701">
		<tag k="name" v="Gjerdbakken" />
		<tag k="place" v="farm" />
		<tag k="ssr:stedsnr" v="36777" />
	</node>
	<node lat="67.91897777656102" lon="15.188602777661494" id="-20704">
		<tag k="name" v="Elvegård" />
		<tag k="place" v="farm" />
		<tag k="ssr:stedsnr" v="36745" />
	</node>
	<node lat="67.76479721985267" lon="15.028605548395147" id="-20707">
		<tag k="name" v="Myrhaug" />
		<tag k="place" v="farm" />
		<tag k="ssr:stedsnr" v="36895" />
	</node>
	<node lat="67.69621666584723" lon="15.459174990329343" id="-20714">
		<tag k="name" v="Lappvassvik" />
		<tag k="place" v="isolated_dwelling" />
		<tag k="ssr:stedsnr" v="55340" />
	</node>
	<node lat="67.79006546429873" lon="14.885478777521387" id="-20729">
		<tag k="fixme" v="consider place=hamlet" />
		<tag k="name" v="Sund" />
		<tag k="place" v="farm" />
		<tag k="ssr:stedsnr" v="56625" />
	</node>
	<node lat="67.68586944464806" lon="15.240897222583197" id="-20733">
		<tag k="name" v="Nyheim" />
		<tag k="place" v="farm" />
		<tag k="ssr:stedsnr" v="56730" />
	</node>
	<node lat="67.83346111296066" lon="14.812255557980365" id="-20754">
		<tag k="name" v="Dalen" />
		<tag k="place" v="farm" />
		<tag k="ssr:stedsnr" v="77773" />
	</node>
	<node lat="67.75703888561824" lon="15.20476943362793" id="-20768">
		<tag k="alt_name" v="Øyjorda" />
		<tag k="name" v="Øyjord" />
		<tag k="place" v="farm" />
		<tag k="ssr:stedsnr" v="77868" />
	</node>
	<node lat="67.90041181956506" lon="15.077509184498721" id="-20791">
		<tag k="fixme" v="consider place=hamlet" />
		<tag k="name" v="Skånland" />
		<tag k="place" v="farm" />
		<tag k="ssr:stedsnr" v="78168" />
	</node>
	<node lat="67.83607222111196" lon="14.814074999429472" id="-20794">
		<tag k="name" v="Nordskot" />
		<tag k="place" v="farm" />
		<tag k="ssr:stedsnr" v="78182" />
	</node>
	<node lat="67.96427777573042" lon="15.05569443774062" id="-20799">
		<tag k="name" v="Sanden" />
		<tag k="place" v="farm" />
		<tag k="ssr:stedsnr" v="78238" />
	</node>
	<node lat="67.96466191374702" lon="15.125143590603118" id="-20800">
		<tag k="name" v="Skagstad" />
		<tag k="place" v="farm" />
		<tag k="ssr:stedsnr" v="78242" />
	</node>
	<node lat="67.93212777486754" lon="15.268733327728295" id="-20801">
		<tag k="name" v="Bakkehaug" />
		<tag k="place" v="farm" />
		<tag k="ssr:stedsnr" v="78560" />
	</node>
	<node lat="67.94277962816749" lon="15.225903406668072" id="-20803">
		<tag k="fixme" v="consider place=hamlet" />
		<tag k="name" v="Hakvåg" />
		<tag k="place" v="farm" />
		<tag k="ssr:stedsnr" v="78571" />
	</node>
	<node lat="67.95278694569015" lon="15.656126740819847" id="-20804">
		<tag k="fixme" v="consider place=hamlet" />
		<tag k="name" v="Forsan" />
		<tag k="place" v="farm" />
		<tag k="ssr:stedsnr" v="78578" />
	</node>
	<node lat="67.8627000017938" lon="15.21868055460783" id="-20822">
		<tag k="name" v="Bakken" />
		<tag k="place" v="isolated_dwelling" />
		<tag k="ssr:stedsnr" v="95380" />
	</node>
	<node lat="67.93730000436825" lon="14.978911106133243" id="-20828">
		<tag k="name" v="Vollbakkan" />
		<tag k="place" v="farm" />
		<tag k="ssr:stedsnr" v="97533" />
	</node>
	<node lat="67.936622224806" lon="15.215127787552644" id="-20833">
		<tag k="name" v="Nordmo" />
		<tag k="place" v="farm" />
		<tag k="ssr:stedsnr" v="97553" />
	</node>
	<node lat="67.79433888958062" lon="15.04500278818338" id="-20837">
		<tag k="name" v="Solvoll" />
		<tag k="place" v="farm" />
		<tag k="ssr:stedsnr" v="97976" />
	</node>
	<node lat="67.7686638881135" lon="15.249894433347" id="-20842">
		<tag k="name" v="Hestvik" />
		<tag k="place" v="farm" />
		<tag k="ssr:stedsnr" v="103221" />
	</node>
	<node lat="67.72875277423765" lon="15.29581389268518" id="-20846">
		<tag k="name" v="Volden" />
		<tag k="place" v="isolated_dwelling" />
		<tag k="ssr:stedsnr" v="116360" />
	</node>
	<node lat="67.72182777904239" lon="15.281166662509905" id="-20851">
		<tag k="name" v="Moen" />
		<tag k="place" v="farm" />
		<tag k="ssr:stedsnr" v="116695" />
	</node>
	<node lat="67.72374722033169" lon="15.291236098579471" id="-20852">
		<tag k="loc_name" v="Bortigarden" />
		<tag k="name" v="Vinkenes midtre" />
		<tag k="place" v="farm" />
		<tag k="ssr:stedsnr" v="116696" />
	</node>
	<node lat="67.68687777396514" lon="15.312727765852093" id="-20853">
		<tag k="name" v="Fredheim" />
		<tag k="place" v="isolated_dwelling" />
		<tag k="ssr:stedsnr" v="116716" />
	</node>
	<node lat="67.77103610711326" lon="15.159602779748385" id="-20860">
		<tag k="name" v="Åsen" />
		<tag k="place" v="farm" />
		<tag k="ssr:stedsnr" v="116734" />
	</node>
	<node lat="67.76547777420559" lon="15.13751666470603" id="-20869">
		<tag k="name" v="Bjørkåsen" />
		<tag k="place" v="isolated_dwelling" />
		<tag k="ssr:stedsnr" v="117748" />
	</node>
	<node lat="67.82341944452466" lon="15.070294446344594" id="-20870">
		<tag k="name" v="Skihytta" />
		<tag k="place" v="isolated_dwelling" />
		<tag k="ssr:stedsnr" v="117754" />
	</node>
	<node lat="67.69005125175697" lon="15.053685683005138" id="-20873">
		<tag k="fixme" v="consider place=hamlet" />
		<tag k="name" v="Håsand" />
		<tag k="place" v="farm" />
		<tag k="ssr:stedsnr" v="137187" />
	</node>
	<node lat="67.91557481464157" lon="15.39241583982959" id="-20877">
		<tag k="alt_name" v="Mortenstrand" />
		<tag k="fixme" v="consider place=hamlet" />
		<tag k="name" v="Mortenstranda" />
		<tag k="place" v="farm" />
		<tag k="ssr:stedsnr" v="137531" />
	</node>
	<node lat="67.80146388692798" lon="15.365805565725926" id="-20878">
		<tag k="name" v="Indregården" />
		<tag k="place" v="farm" />
		<tag k="ssr:stedsnr" v="137677" />
	</node>
	<node lat="67.91980625318965" lon="15.185137875401919" id="-20891">
		<tag k="fixme" v="consider place=hamlet" />
		<tag k="name" v="Haug" />
		<tag k="place" v="farm" />
		<tag k="ssr:stedsnr" v="138149" />
	</node>
	<node lat="67.92250833345237" lon="15.102997220435192" id="-20893">
		<tag k="name" v="Sigden" />
		<tag k="place" v="farm" />
		<tag k="ssr:stedsnr" v="138154" />
	</node>
	<node lat="67.66134631868971" lon="15.198933587207556" id="-20901">
		<tag k="fixme" v="consider place=hamlet" />
		<tag k="name" v="Mulen" />
		<tag k="place" v="farm" />
		<tag k="ssr:stedsnr" v="138047" />
	</node>
	<node lat="67.92349444410151" lon="15.03034999753699" id="-20909">
		<tag k="name" v="Gjerde" />
		<tag k="place" v="farm" />
		<tag k="ssr:stedsnr" v="138137" />
	</node>
	<node lat="67.92472638617674" lon="15.019705544230257" id="-20910">
		<tag k="fixme" v="consider place=hamlet" />
		<tag k="name" v="Laskestad" />
		<tag k="place" v="farm" />
		<tag k="ssr:stedsnr" v="138139" />
	</node>
	<node lat="67.93946110915016" lon="14.975902776972896" id="-20913">
		<tag k="name" v="Vollen" />
		<tag k="place" v="farm" />
		<tag k="ssr:stedsnr" v="138248" />
	</node>
	<node lat="67.7035162919275" lon="15.089526944785367" id="-20914">
		<tag k="fixme" v="consider place=hamlet" />
		<tag k="name" v="Inner-Seglstein" />
		<tag k="old_name" v="Seglstein;Seglstein, nordre;Segelstein;Nordre Seglstein" />
		<tag k="place" v="farm" />
		<tag k="ssr:stedsnr" v="138250" />
	</node>
	<node lat="67.69565833729771" lon="15.070691660712713" id="-20915">
		<tag k="name" v="Solbakken" />
		<tag k="place" v="farm" />
		<tag k="ssr:stedsnr" v="138253" />
	</node>
	<node lat="67.92917392932459" lon="15.45669721492773" id="-20924">
		<tag k="fixme" v="consider place=hamlet" />
		<tag k="name" v="Skranstad" />
		<tag k="place" v="farm" />
		<tag k="ssr:stedsnr" v="138575" />
	</node>
	<node lat="67.7919555542617" lon="15.29867499728561" id="-20927">
		<tag k="name" v="Solhaug" />
		<tag k="place" v="farm" />
		<tag k="ssr:stedsnr" v="138709" />
	</node>
	<node lat="67.89807778109642" lon="15.080308324932737" id="-20933">
		<tag k="name" v="Elvdalen" />
		<tag k="place" v="farm" />
		<tag k="ssr:stedsnr" v="138858" />
	</node>
	<node lat="67.96418055389364" lon="15.02760832858994" id="-20950">
		<tag k="name" v="Megarden" />
		<tag k="place" v="farm" />
		<tag k="ssr:stedsnr" v="157453" />
	</node>
	<node lat="67.7647472253931" lon="15.242013900224078" id="-20967">
		<tag k="name" v="Holmen" />
		<tag k="place" v="farm" />
		<tag k="ssr:stedsnr" v="158787" />
	</node>
	<node lat="67.79091111083228" lon="15.217202777068364" id="-20984">
		<tag k="name" v="Grottheim" />
		<tag k="place" v="farm" />
		<tag k="ssr:stedsnr" v="177745" />
	</node>
	<node lat="67.81318888471438" lon="14.781997231850776" id="-20986">
		<tag k="name" v="Ytre Sørskot" />
		<tag k="place" v="farm" />
		<tag k="ssr:stedsnr" v="177580" />
	</node>
	<node lat="67.79781111332682" lon="14.806991656873745" id="-20992">
		<tag k="name" v="Båtberg" />
		<tag k="place" v="farm" />
		<tag k="ssr:stedsnr" v="177953" />
	</node>
	<node lat="67.83339922832087" lon="15.15145445605484" id="-20994">
		<tag k="name" v="Rognlia" />
		<tag k="place" v="farm" />
		<tag k="ssr:stedsnr" v="198743" />
	</node>
	<node lat="67.75878611269675" lon="15.208494437027014" id="-21003">
		<tag k="name" v="Nygården" />
		<tag k="place" v="isolated_dwelling" />
		<tag k="ssr:stedsnr" v="199877" />
	</node>
	<node lat="67.72693055442426" lon="15.289694439870656" id="-21012">
		<tag k="name" v="Bogen" />
		<tag k="place" v="farm" />
		<tag k="ssr:stedsnr" v="198853" />
	</node>
	<node lat="67.80354166937222" lon="14.79249998920521" id="-21022">
		<tag k="alt_name" v="Halsøy" />
		<tag k="name" v="Halsøya" />
		<tag k="place" v="farm" />
		<tag k="ssr:stedsnr" v="198988" />
	</node>
	<node lat="67.80103333260321" lon="15.075327778384446" id="-21024">
		<tag k="alt_name" v="Furumoen" />
		<tag k="name" v="Furumo" />
		<tag k="place" v="farm" />
		<tag k="ssr:stedsnr" v="198994" />
	</node>
	<node lat="67.79204999654246" lon="15.05535278158869" id="-21025">
		<tag k="alt_name" v="Saursfjord" />
		<tag k="fixme" v="consider place=hamlet" />
		<tag k="name" v="Saursfjorden" />
		<tag k="place" v="village" />
		<tag k="ssr:stedsnr" v="198995" />
	</node>
	<node lat="67.72947897498085" lon="14.770904144708263" id="-21033">
		<tag k="alt_name" v="Helnessund" />
		<tag k="fixme" v="consider place=hamlet" />
		<tag k="name" v="Helnes" />
		<tag k="place" v="farm" />
		<tag k="ssr:stedsnr" v="199179" />
	</node>
	<node lat="67.94373178179609" lon="14.962861540062892" id="-21044">
		<tag k="alt_name" v="Steigberg" />
		<tag k="fixme" v="consider place=hamlet" />
		<tag k="name" v="Steigberget" />
		<tag k="place" v="farm" />
		<tag k="ssr:stedsnr" v="199238" />
	</node>
	<node lat="67.8654308842699" lon="15.113131020700763" id="-21048">
		<tag k="fixme" v="consider place=hamlet" />
		<tag k="name" v="Liland" />
		<tag k="place" v="farm" />
		<tag k="ssr:stedsnr" v="199189" />
	</node>
	<node lat="67.91770278001788" lon="15.063438896211101" id="-21051">
		<tag k="name" v="Kvalvika" />
		<tag k="place" v="farm" />
		<tag k="ssr:stedsnr" v="199196" />
	</node>
	<node lat="67.80480555793714" lon="15.83825833631948" id="-21053">
		<tag k="name" v="Lapplægeret" />
		<tag k="place" v="locality" />
		<tag k="ssr:stedsnr" v="199467" />
	</node>
	<node lat="67.85346944294128" lon="15.219022222102945" id="-21066">
		<tag k="name" v="Vangen" />
		<tag k="place" v="farm" />
		<tag k="ssr:stedsnr" v="199498" />
	</node>
	<node lat="67.6955042800666" lon="15.342222378422107" id="-21075">
		<tag k="alt_name" v="Brattfjord" />
		<tag k="fixme" v="consider place=hamlet" />
		<tag k="name" v="Brattfjorden" />
		<tag k="place" v="farm" />
		<tag k="ssr:stedsnr" v="199827" />
	</node>
	<node lat="67.76667778126546" lon="15.040308326812829" id="-21080">
		<tag k="alt_name" v="Litlosen" />
		<tag k="name" v="Lilleosen" />
		<tag k="place" v="farm" />
		<tag k="ssr:stedsnr" v="199922" />
	</node>
	<node lat="67.75886944349618" lon="15.134494452377478" id="-21084">
		<tag k="name" v="Heimdal" />
		<tag k="place" v="farm" />
		<tag k="ssr:stedsnr" v="199942" />
	</node>
	<node lat="67.67078333465233" lon="14.74892778162886" id="-21108">
		<tag k="name" v="Klokkvika" />
		<tag k="place" v="locality" />
		<tag k="ssr:stedsnr" v="276497" />
	</node>
	<node lat="67.95805556015236" lon="15.01695276932362" id="-21118">
		<tag k="name" v="Russeleiren" />
		<tag k="place" v="farm" />
		<tag k="ssr:stedsnr" v="279533" />
	</node>
	<node lat="67.86610277328113" lon="14.867763894905321" id="-21143">
		<tag k="name" v="Moen" />
		<tag k="place" v="farm" />
		<tag k="ssr:stedsnr" v="298543" />
	</node>
	<node lat="67.68515000353104" lon="15.248299998180876" id="-21147">
		<tag k="name" v="Nygård" />
		<tag k="place" v="farm" />
		<tag k="ssr:stedsnr" v="298676" />
	</node>
	<node lat="67.7502083313357" lon="15.072205554377165" id="-21152">
		<tag k="name" v="Røyrnes" />
		<tag k="place" v="farm" />
		<tag k="ssr:stedsnr" v="299662" />
	</node>
	<node lat="67.96101388495934" lon="15.12678056557958" id="-21160">
		<tag k="alt_name" v="Osbakkan" />
		<tag k="name" v="Osbakken" />
		<tag k="place" v="farm" />
		<tag k="ssr:stedsnr" v="320198" />
	</node>
	<node lat="67.96185277649693" lon="15.129913892429803" id="-21161">
		<tag k="name" v="Osen" />
		<tag k="place" v="farm" />
		<tag k="ssr:stedsnr" v="320199" />
	</node>
	<node lat="67.72241429012283" lon="14.837642094686402" id="-21163">
		<tag k="fixme" v="consider place=hamlet" />
		<tag k="name" v="Skår" />
		<tag k="place" v="farm" />
		<tag k="ssr:stedsnr" v="320219" />
	</node>
	<node lat="67.78969722369463" lon="14.968755548320761" id="-21166">
		<tag k="name" v="Myrset" />
		<tag k="place" v="farm" />
		<tag k="ssr:stedsnr" v="319956" />
	</node>
	<node lat="67.78004440863741" lon="14.85071705525315" id="-21169">
		<tag k="alt_name" v="Alpøy" />
		<tag k="fixme" v="consider place=hamlet" />
		<tag k="name" v="Alpøya" />
		<tag k="place" v="farm" />
		<tag k="ssr:stedsnr" v="319961" />
	</node>
	<node lat="67.74362222597075" lon="15.05302221241298" id="-21180">
		<tag k="name" v="Moen" />
		<tag k="place" v="farm" />
		<tag k="ssr:stedsnr" v="320179" />
	</node>
	<node lat="67.69761666851555" lon="15.06574444519986" id="-21184">
		<tag k="name" v="Ramstad" />
		<tag k="place" v="farm" />
		<tag k="ssr:stedsnr" v="320243" />
	</node>
	<node lat="67.91119444270552" lon="15.33295556503348" id="-21201">
		<tag k="name" v="Nordli" />
		<tag k="place" v="farm" />
		<tag k="ssr:stedsnr" v="320530" />
	</node>
	<node lat="67.9297818085707" lon="15.242294339354808" id="-21203">
		<tag k="fixme" v="consider place=hamlet" />
		<tag k="name" v="Grønning" />
		<tag k="place" v="farm" />
		<tag k="ssr:stedsnr" v="320561" />
	</node>
	<node lat="67.93307222059964" lon="15.245577773975464" id="-21204">
		<tag k="fixme" v="multiple name tags, choose one and add the other to alt_name" />
		<tag k="name" v="Røtnes;Sjøhaug" />
		<tag k="place" v="farm" />
		<tag k="ssr:stedsnr" v="320562" />
	</node>
	<node lat="67.77247221977474" lon="15.258416675012677" id="-21208">
		<tag k="name" v="Grytvika" />
		<tag k="place" v="farm" />
		<tag k="ssr:stedsnr" v="320654" />
	</node>
	<node lat="67.7925709406719" lon="15.306932271134283" id="-21211">
		<tag k="fixme" v="consider place=hamlet" />
		<tag k="name" v="Lakså" />
		<tag k="place" v="farm" />
		<tag k="ssr:stedsnr" v="320678" />
	</node>
	<node lat="67.73565555908911" lon="14.864572217584215" id="-21255">
		<tag k="name" v="Indre Grubstad" />
		<tag k="place" v="farm" />
		<tag k="ssr:stedsnr" v="339775" />
	</node>
	<node lat="67.75296389198121" lon="15.191266679132728" id="-21260">
		<tag k="name" v="Myhre" />
		<tag k="place" v="farm" />
		<tag k="ssr:stedsnr" v="339872" />
	</node>
	<node lat="67.8605222196476" lon="15.216924995276795" id="-21265">
		<tag k="name" v="Tranen" />
		<tag k="place" v="isolated_dwelling" />
		<tag k="ssr:stedsnr" v="339924" />
	</node>
	<node lat="67.89395277624193" lon="15.122488899462914" id="-21266">
		<tag k="name" v="Plassen" />
		<tag k="place" v="farm" />
		<tag k="ssr:stedsnr" v="339925" />
	</node>
	<node lat="67.93562222288527" lon="15.210922226643033" id="-21268">
		<tag k="name" v="Solbakken" />
		<tag k="place" v="farm" />
		<tag k="ssr:stedsnr" v="340564" />
	</node>
	<node lat="67.69658055689047" lon="15.45467222105549" id="-21275">
		<tag k="name" v="Daljord" />
		<tag k="place" v="isolated_dwelling" />
		<tag k="ssr:stedsnr" v="359384" />
	</node>
	<node lat="67.6651694461928" lon="14.932016677664668" id="-21286">
		<tag k="alt_name" v="Elvemoen" />
		<tag k="name" v="Elvmoen" />
		<tag k="place" v="farm" />
		<tag k="ssr:stedsnr" v="359534" />
	</node>
	<node lat="67.71949444188063" lon="14.8929111133831" id="-21287">
		<tag k="name" v="Leitet" />
		<tag k="place" v="locality" />
		<tag k="ssr:stedsnr" v="359541" />
	</node>
	<node lat="67.71879722216727" lon="15.14121389498519" id="-21292">
		<tag k="name" v="Slottet" />
		<tag k="place" v="isolated_dwelling" />
		<tag k="ssr:stedsnr" v="359673" />
	</node>
	<node lat="67.91174166629978" lon="15.384233341641908" id="-21314">
		<tag k="name" v="Gamman" />
		<tag k="place" v="farm" />
		<tag k="ssr:stedsnr" v="380589" />
	</node>
	<node lat="67.97464444066358" lon="15.239661106983592" id="-21315">
		<tag k="name" v="Mevika" />
		<tag k="place" v="farm" />
		<tag k="ssr:stedsnr" v="380656" />
	</node>
	<node lat="67.8959275940671" lon="15.11305253771792" id="-21328">
		<tag k="fixme" v="consider place=hamlet" />
		<tag k="name" v="Skjenaust" />
		<tag k="place" v="farm" />
		<tag k="ssr:stedsnr" v="380850" />
	</node>
	<node lat="67.72138610824457" lon="15.375708322111176" id="-21330">
		<tag k="name" v="Nyhamn" />
		<tag k="place" v="isolated_dwelling" />
		<tag k="ssr:stedsnr" v="380853" />
	</node>
	<node lat="67.91725832975132" lon="15.186247214332514" id="-21338">
		<tag k="name" v="Haug" />
		<tag k="place" v="farm" />
		<tag k="ssr:stedsnr" v="381181" />
	</node>
	<node lat="67.80942266369011" lon="14.790543799829763" id="-21340">
		<tag k="fixme" v="consider place=hamlet" />
		<tag k="name" v="Sørskot" />
		<tag k="place" v="farm" />
		<tag k="ssr:stedsnr" v="381189" />
	</node>
	<node lat="67.92109444254044" lon="15.091733335300535" id="-21346">
		<tag k="alt_name" v="Mølleskog, østre" />
		<tag k="name" v="Østre Mølleskog" />
		<tag k="place" v="farm" />
		<tag k="ssr:stedsnr" v="381155" />
	</node>
	<node lat="67.7241861092257" lon="15.152758328586419" id="-21349">
		<tag k="alt_name" v="Granhei" />
		<tag k="name" v="Granheim" />
		<tag k="place" v="farm" />
		<tag k="ssr:stedsnr" v="381217" />
	</node>
	<node lat="67.95415555912369" lon="15.141141659998524" id="-21350">
		<tag k="name" v="Holmvegen" />
		<tag k="place" v="farm" />
		<tag k="ssr:stedsnr" v="381222" />
	</node>
	<node lat="67.7327256862734" lon="15.190618106687191" id="-21354">
		<tag k="alt_name" v="Sandset vestre" />
		<tag k="fixme" v="consider place=hamlet" />
		<tag k="name" v="Sandset" />
		<tag k="place" v="farm" />
		<tag k="ssr:stedsnr" v="381245" />
	</node>
	<node lat="67.97094999989838" lon="15.209611099258234" id="-21356">
		<tag k="name" v="Skardsvåg" />
		<tag k="place" v="isolated_dwelling" />
		<tag k="ssr:stedsnr" v="381251" />
	</node>
	<node lat="67.68502499852913" lon="15.319052788159503" id="-21371">
		<tag k="name" v="Vangen" />
		<tag k="place" v="isolated_dwelling" />
		<tag k="ssr:stedsnr" v="381847" />
	</node>
	<node lat="67.79005000450358" lon="15.003744434715365" id="-21393">
		<tag k="name" v="Osmo" />
		<tag k="place" v="isolated_dwelling" />
		<tag k="ssr:stedsnr" v="400524" />
	</node>
	<node lat="67.96297087003938" lon="15.12554431087509" id="-21401">
		<tag k="fixme" v="consider place=hamlet" />
		<tag k="name" v="Skagstad" />
		<tag k="place" v="farm" />
		<tag k="ssr:stedsnr" v="400858" />
	</node>
	<node lat="67.67323157579294" lon="14.962193193806936" id="-21409">
		<tag k="loc_name" v="Ytter-Skjenken" />
		<tag k="name" v="Skjenken" />
		<tag k="place" v="farm" />
		<tag k="ssr:stedsnr" v="407288" />
	</node>
	<node lat="67.9361696555931" lon="14.975087598878781" id="-21411">
		<tag k="name" v="Steigen - Stájggo" />
		<tag k="name:no" v="Steigen" />
		<tag k="name:smj" v="Stájggo" />
		<tag k="place" v="hamlet" />
		<tag k="ssr:stedsnr" v="419652" />
	</node>
	<node lat="67.8095750025756" lon="15.75117498842786" id="-21412">
		<tag k="name" v="Åsheim" />
		<tag k="place" v="isolated_dwelling" />
		<tag k="ssr:stedsnr" v="420554" />
	</node>
	<node lat="67.77021389157693" lon="15.166630567828085" id="-21418">
		<tag k="name" v="Åsheim" />
		<tag k="place" v="farm" />
		<tag k="ssr:stedsnr" v="420761" />
	</node>
	<node lat="67.66704166567797" lon="14.94630278737086" id="-21423">
		<tag k="name" v="Nyheim" />
		<tag k="place" v="farm" />
		<tag k="ssr:stedsnr" v="424425" />
	</node>
	<node lat="67.7746472203457" lon="15.01608610288681" id="-21425">
		<tag k="fixme" v="multiple name tags, choose one and add the other to alt_name" />
		<tag k="name" v="Myklebostad;Leinesfjorden" />
		<tag k="place" v="village" />
		<tag k="ssr:stedsnr" v="440967" />
	</node>
	<node lat="67.79542222234387" lon="14.98243054519835" id="-21428">
		<tag k="name" v="Alvely" />
		<tag k="place" v="farm" />
		<tag k="ssr:stedsnr" v="440998" />
	</node>
	<node lat="67.9489138918085" lon="15.200891673084794" id="-21432">
		<tag k="name" v="Gjerdvika" />
		<tag k="place" v="farm" />
		<tag k="ssr:stedsnr" v="441233" />
	</node>
	<node lat="67.90203031836799" lon="15.329905894326934" id="-21436">
		<tag k="alt_name" v="Pollen" />
		<tag k="fixme" v="consider place=hamlet" />
		<tag k="name" v="Dypingspollen" />
		<tag k="place" v="farm" />
		<tag k="ssr:stedsnr" v="441547" />
	</node>
	<node lat="67.68526944362812" lon="15.251627788350502" id="-21441">
		<tag k="alt_name" v="Slåttvika" />
		<tag k="name" v="Slåttvik" />
		<tag k="place" v="farm" />
		<tag k="ssr:stedsnr" v="441840" />
	</node>
	<node lat="67.66433963257528" lon="14.934864443956897" id="-21445">
		<tag k="alt_name" v="Laukvik" />
		<tag k="fixme" v="consider place=hamlet" />
		<tag k="name" v="Laukvika" />
		<tag k="place" v="farm" />
		<tag k="ssr:stedsnr" v="441825" />
	</node>
	<node lat="67.69630602784125" lon="15.454044237154298" id="-21447">
		<tag k="alt_name" v="Sandbakk" />
		<tag k="fixme" v="consider place=hamlet" />
		<tag k="name" v="Sandbakken" />
		<tag k="place" v="farm" />
		<tag k="ssr:stedsnr" v="441833" />
	</node>
	<node lat="67.68920555917023" lon="15.285922211713611" id="-21450">
		<tag k="alt_name" v="Forneset" />
		<tag k="name" v="Furuneset" />
		<tag k="place" v="farm" />
		<tag k="ssr:stedsnr" v="441843" />
	</node>
	<node lat="67.87840516563774" lon="14.895425596503216" id="-21454">
		<tag k="fixme" v="consider place=hamlet" />
		<tag k="name" v="Holkestad" />
		<tag k="place" v="farm" />
		<tag k="ssr:stedsnr" v="441883" />
	</node>
	<node lat="67.9995361075562" lon="15.113452774616304" id="-21459">
		<tag k="name" v="Solstrand" />
		<tag k="place" v="farm" />
		<tag k="ssr:stedsnr" v="442062" />
	</node>
	<node lat="67.72688332942293" lon="15.182675004111877" id="-21465">
		<tag k="alt_name" v="Litlevika" />
		<tag k="name" v="Lillevik" />
		<tag k="place" v="farm" />
		<tag k="ssr:stedsnr" v="442229" />
	</node>
	<node lat="67.91990833271161" lon="15.123838898517956" id="-21469">
		<tag k="name" v="Myra" />
		<tag k="place" v="farm" />
		<tag k="ssr:stedsnr" v="442160" />
	</node>
	<node lat="67.96392499655371" lon="15.0500611203262" id="-21474">
		<tag k="name" v="Øvrevoll" />
		<tag k="place" v="farm" />
		<tag k="ssr:stedsnr" v="442256" />
	</node>
	<node lat="67.65616944428996" lon="15.056197229342043" id="-21478">
		<tag k="alt_name" v="Hjartøya, nordre" />
		<tag k="name" v="Nordre Hjartøya" />
		<tag k="place" v="farm" />
		<tag k="ssr:stedsnr" v="442797" />
	</node>
	<node lat="67.8719972203946" lon="15.247194433526678" id="-21501">
		<tag k="alt_name" v="Nyvold" />
		<tag k="name" v="Nyvoll" />
		<tag k="place" v="farm" />
		<tag k="ssr:stedsnr" v="502501" />
	</node>
	<node lat="67.99437208913933" lon="15.119567898894363" id="-21510">
		<tag k="name" v="Brunes" />
		<tag k="place" v="farm" />
		<tag k="ssr:stedsnr" v="502053" />
	</node>
	<node lat="67.92308713752246" lon="14.99739741204829" id="-21512">
		<tag k="fixme" v="consider place=hamlet" />
		<tag k="name" v="Våg" />
		<tag k="place" v="farm" />
		<tag k="ssr:stedsnr" v="502124" />
	</node>
	<node lat="67.91569949680336" lon="15.171224590247538" id="-21523">
		<tag k="fixme" v="consider place=hamlet" />
		<tag k="name" v="Ålstad" />
		<tag k="place" v="farm" />
		<tag k="ssr:stedsnr" v="502145" />
	</node>
	<node lat="67.92558192695053" lon="15.196302012022997" id="-21529">
		<tag k="name" v="Myrhaug" />
		<tag k="place" v="locality" />
		<tag k="ssr:stedsnr" v="502161" />
	</node>
	<node lat="67.74303303764759" lon="14.920301367576416" id="-21532">
		<tag k="fixme" v="consider place=hamlet" />
		<tag k="name" v="Fløstrand" />
		<tag k="place" v="farm" />
		<tag k="ssr:stedsnr" v="502164" />
	</node>
	<node lat="67.9616111129688" lon="15.043988887706783" id="-21534">
		<tag k="alt_name" v="Skardet" />
		<tag k="name" v="Skaret" />
		<tag k="place" v="farm" />
		<tag k="ssr:stedsnr" v="502171" />
	</node>
	<node lat="67.95267485290739" lon="15.14419028439999" id="-21535">
		<tag k="alt_name" v="Lillesæter" />
		<tag k="fixme" v="consider place=hamlet" />
		<tag k="name" v="Litlesæter" />
		<tag k="place" v="farm" />
		<tag k="ssr:stedsnr" v="502233" />
	</node>
	<node lat="67.92491388702909" lon="15.277611100252102" id="-21539">
		<tag k="alt_name" v="Gongstå" />
		<tag k="name" v="Gangstø" />
		<tag k="place" v="farm" />
		<tag k="ssr:stedsnr" v="502553" />
	</node>
	<node lat="67.68642222679327" lon="15.325852767932163" id="-21554">
		<tag k="name" v="Nyheim" />
		<tag k="place" v="farm" />
		<tag k="ssr:stedsnr" v="502833" />
	</node>
	<node lat="67.88716822455609" lon="15.03486910532764" id="-21559">
		<tag k="alt_name" v="Gynnelmarka;Gynnelsmark" />
		<tag k="fixme" v="consider place=hamlet" />
		<tag k="name" v="Gynnelsmarka" />
		<tag k="place" v="farm" />
		<tag k="ssr:stedsnr" v="502868" />
	</node>
	<node lat="67.77355226328648" lon="15.176874979935917" id="-21560">
		<tag k="alt_name" v="Marhaug" />
		<tag k="fixme" v="consider place=hamlet" />
		<tag k="name" v="Marhaugen" />
		<tag k="place" v="farm" />
		<tag k="ssr:stedsnr" v="502935" />
	</node>
	<node lat="67.73148333115783" lon="14.886163899575086" id="-21570">
		<tag k="name" v="Jensvoll" />
		<tag k="place" v="farm" />
		<tag k="ssr:stedsnr" v="519442" />
	</node>
	<node lat="67.89850000426367" lon="15.093027783848594" id="-21585">
		<tag k="name" v="Gamtoften" />
		<tag k="place" v="locality" />
		<tag k="ssr:stedsnr" v="521744" />
	</node>
	<node lat="67.77313611361696" lon="15.263919443877201" id="-21595">
		<tag k="name" v="Kleiva" />
		<tag k="place" v="quarter" />
		<tag k="ssr:stedsnr" v="522827" />
	</node>
	<node lat="67.68828611037213" lon="15.653874989444205" id="-21605">
		<tag k="name" v="Nygård" />
		<tag k="place" v="isolated_dwelling" />
		<tag k="ssr:stedsnr" v="541494" />
	</node>
	<node lat="67.81113611528298" lon="15.742897230113543" id="-21610">
		<tag k="name" v="Kjellbakk" />
		<tag k="place" v="isolated_dwelling" />
		<tag k="ssr:stedsnr" v="541533" />
	</node>
	<node lat="67.81079166841766" lon="15.746161110764794" id="-21611">
		<tag k="name" v="Nygård" />
		<tag k="place" v="isolated_dwelling" />
		<tag k="ssr:stedsnr" v="541540" />
	</node>
	<node lat="67.66507499659504" lon="14.93986944483011" id="-21612">
		<tag k="name" v="Solheim" />
		<tag k="place" v="farm" />
		<tag k="ssr:stedsnr" v="541543" />
	</node>
	<node lat="67.6885777740126" lon="15.295849995274521" id="-21616">
		<tag k="name" v="Åsen" />
		<tag k="place" v="isolated_dwelling" />
		<tag k="ssr:stedsnr" v="541732" />
	</node>
	<node lat="67.73127778153207" lon="15.174430563135811" id="-21634">
		<tag k="name" v="Solvang" />
		<tag k="place" v="farm" />
		<tag k="ssr:stedsnr" v="562188" />
	</node>
	<node lat="67.88686944382225" lon="15.251827787294154" id="-21646">
		<tag k="alt_name" v="Steinslandsmoen" />
		<tag k="fixme" v="multiple name tags, choose one and add the other to alt_name" />
		<tag k="name" v="Moen;Stenslandsmoen" />
		<tag k="place" v="farm" />
		<tag k="ssr:stedsnr" v="562525" />
	</node>
	<node lat="67.88382175503816" lon="15.241915229639135" id="-21647">
		<tag k="alt_name" v="Vindsnes" />
		<tag k="fixme" v="consider place=hamlet" />
		<tag k="name" v="Vinsnes" />
		<tag k="place" v="farm" />
		<tag k="ssr:stedsnr" v="562528" />
	</node>
	<node lat="67.85502499785338" lon="15.444874991812197" id="-21651">
		<tag k="name" v="Lommeren" />
		<tag k="place" v="farm" />
		<tag k="ssr:stedsnr" v="562499" />
	</node>
	<node lat="67.91801666609548" lon="15.548838898506014" id="-21658">
		<tag k="name" v="Nygård" />
		<tag k="place" v="farm" />
		<tag k="ssr:stedsnr" v="562564" />
	</node>
	<node lat="67.84768044759373" lon="15.167918873995594" id="-21671">
		<tag k="fixme" v="consider place=hamlet" />
		<tag k="name" v="Skjelvareid" />
		<tag k="place" v="farm" />
		<tag k="ssr:stedsnr" v="562805" />
	</node>
	<node lat="68.00040832988932" lon="15.187100003962756" id="-21674">
		<tag k="name" v="Lund" />
		<tag k="place" v="farm" />
		<tag k="ssr:stedsnr" v="562814" />
	</node>
	<node lat="67.64574722010491" lon="15.079627774283418" id="-21677">
		<tag k="alt_name" v="Søre Hjartøya" />
		<tag k="name" v="Innergården" />
		<tag k="place" v="farm" />
		<tag k="ssr:stedsnr" v="562762" />
	</node>
	<node lat="67.86153610903159" lon="14.924433340595678" id="-21680">
		<tag k="alt_name" v="Skotsfjord, yt" />
		<tag k="name" v="Ytre Skotsfjord" />
		<tag k="place" v="farm" />
		<tag k="ssr:stedsnr" v="562833" />
	</node>
	<node lat="67.89289627335343" lon="15.151168456282427" id="-21683">
		<tag k="fixme" v="consider place=hamlet" />
		<tag k="name" v="Dypvik" />
		<tag k="place" v="farm" />
		<tag k="ssr:stedsnr" v="562856" />
	</node>
	<node lat="67.80962777979491" lon="14.845283334228501" id="-21690">
		<tag k="alt_name" v="Lund" />
		<tag k="name" v="Lund indre" />
		<tag k="place" v="farm" />
		<tag k="ssr:stedsnr" v="562975" />
	</node>
	<node lat="67.916000002688" lon="15.194958322600813" id="-21709">
		<tag k="name" v="Monsholmen" />
		<tag k="place" v="farm" />
		<tag k="ssr:stedsnr" v="563164" />
	</node>
	<node lat="67.70186667025382" lon="15.084536101202382" id="-21710">
		<tag k="name" v="Elvestad" />
		<tag k="place" v="farm" />
		<tag k="ssr:stedsnr" v="563234" />
	</node>
	<node lat="67.71863889072085" lon="15.166927778742943" id="-21712">
		<tag k="name" v="Sommernes" />
		<tag k="place" v="farm" />
		<tag k="ssr:stedsnr" v="563249" />
	</node>
	<node lat="67.94772642157987" lon="15.593121772725079" id="-21713">
		<tag k="fixme" v="consider place=hamlet" />
		<tag k="name" v="Sirines" />
		<tag k="place" v="farm" />
		<tag k="ssr:stedsnr" v="563572" />
	</node>
	<node lat="67.76228055790874" lon="15.230205564054014" id="-21722">
		<tag k="fixme" v="consider place=hamlet" />
		<tag k="name" v="Nordfold" />
		<tag k="place" v="village" />
		<tag k="ssr:stedsnr" v="572438" />
	</node>
	<node lat="67.72765555649568" lon="14.770188894695531" id="-21734">
		<tag k="name" v="Neset" />
		<tag k="place" v="quarter" />
		<tag k="ssr:stedsnr" v="582530" />
	</node>
	<node lat="67.93079444287706" lon="15.207658328299484" id="-21742">
		<tag k="name" v="Solvang" />
		<tag k="place" v="farm" />
		<tag k="ssr:stedsnr" v="582587" />
	</node>
	<node lat="67.85528430727827" lon="15.200829758068503" id="-21744">
		<tag k="name" v="Holmvaag" />
		<tag k="place" v="farm" />
		<tag k="ssr:stedsnr" v="582877" />
	</node>
	<node lat="67.76448333374178" lon="15.224844440775575" id="-21748">
		<tag k="name" v="Øvergården" />
		<tag k="place" v="quarter" />
		<tag k="ssr:stedsnr" v="582787" />
	</node>
	<node lat="67.75475555798123" lon="15.418755547940536" id="-21754">
		<tag k="name" v="Tobvik" />
		<tag k="place" v="isolated_dwelling" />
		<tag k="ssr:stedsnr" v="588799" />
	</node>
	<node lat="67.68509444273558" lon="15.249716672764693" id="-21769">
		<tag k="name" v="Engen" />
		<tag k="place" v="farm" />
		<tag k="ssr:stedsnr" v="601688" />
	</node>
	<node lat="67.68909722545199" lon="15.290333340890477" id="-21771">
		<tag k="name" v="Bakkemo" />
		<tag k="place" v="isolated_dwelling" />
		<tag k="ssr:stedsnr" v="601707" />
	</node>
	<node lat="67.69161389149829" lon="15.339655556903693" id="-21772">
		<tag k="name" v="Lien" />
		<tag k="place" v="isolated_dwelling" />
		<tag k="ssr:stedsnr" v="601711" />
	</node>
	<node lat="67.7634916664654" lon="15.132105547703631" id="-21773">
		<tag k="name" v="Prestnes" />
		<tag k="place" v="isolated_dwelling" />
		<tag k="ssr:stedsnr" v="601722" />
	</node>
	<node lat="67.71647777593465" lon="15.388036119376565" id="-21785">
		<tag k="name" v="Myrlund" />
		<tag k="place" v="isolated_dwelling" />
		<tag k="ssr:stedsnr" v="622841" />
	</node>
	<node lat="67.9266833342457" lon="15.00644166287911" id="-21798">
		<tag k="fixme" v="consider place=hamlet" />
		<tag k="name" v="Solheim" />
		<tag k="place" v="village" />
		<tag k="ssr:stedsnr" v="623152" />
	</node>
	<node lat="67.74967682711025" lon="14.978275466671077" id="-21803">
		<tag k="alt_name" v="Gylset" />
		<tag k="fixme" v="consider place=hamlet" />
		<tag k="name" v="Gyllset" />
		<tag k="place" v="farm" />
		<tag k="ssr:stedsnr" v="623189" />
	</node>
	<node lat="67.82398679510797" lon="15.137829952590545" id="-21808">
		<tag k="fixme" v="consider place=hamlet" />
		<tag k="name" v="Knedalen" />
		<tag k="place" v="farm" />
		<tag k="ssr:stedsnr" v="623195" />
	</node>
	<node lat="67.85242033342651" lon="14.950472099454414" id="-21817">
		<tag k="name" v="Kvanndalen" />
		<tag k="place" v="locality" />
		<tag k="ssr:stedsnr" v="623799" />
	</node>
	<node lat="67.76198055576101" lon="15.027038899943774" id="-21821">
		<tag k="name" v="Sommernes" />
		<tag k="place" v="farm" />
		<tag k="ssr:stedsnr" v="623938" />
	</node>
	<node lat="67.88152778156551" lon="15.204125006680453" id="-21840">
		<tag k="name" v="Ospdalen" />
		<tag k="place" v="farm" />
		<tag k="ssr:stedsnr" v="623841" />
	</node>
	<node lat="67.91585278199385" lon="14.888336106617388" id="-21856">
		<tag k="name" v="Lauvøya" />
		<tag k="place" v="farm" />
		<tag k="ssr:stedsnr" v="640179" />
	</node>
	<node lat="67.74971111442994" lon="14.968405545329688" id="-21872">
		<tag k="name" v="Solheim" />
		<tag k="place" v="farm" />
		<tag k="ssr:stedsnr" v="642869" />
	</node>
	<node lat="67.76453333118178" lon="15.141063876267125" id="-21873">
		<tag k="name" v="Vangen" />
		<tag k="place" v="farm" />
		<tag k="ssr:stedsnr" v="642870" />
	</node>
	<node lat="67.7376694406046" lon="14.79220554843228" id="-21879">
		<tag k="name" v="Lysnakken" />
		<tag k="place" v="quarter" />
		<tag k="ssr:stedsnr" v="643665" />
	</node>
	<node lat="67.70532777968654" lon="15.399024999234735" id="-21889">
		<tag k="name" v="Ytre Heldal" />
		<tag k="place" v="farm" />
		<tag k="ssr:stedsnr" v="662294" />
	</node>
	<node lat="67.69710833346218" lon="15.452249989244685" id="-21895">
		<tag k="name" v="Leirebubakk" />
		<tag k="place" v="isolated_dwelling" />
		<tag k="ssr:stedsnr" v="662352" />
	</node>
	<node lat="67.74286666641692" lon="15.024224993497308" id="-21899">
		<tag k="name" v="Smolåsen" />
		<tag k="place" v="isolated_dwelling" />
		<tag k="ssr:stedsnr" v="662625" />
	</node>
	<node lat="67.69308888932919" lon="15.341708337005926" id="-21908">
		<tag k="name" v="Myrvoll" />
		<tag k="place" v="isolated_dwelling" />
		<tag k="ssr:stedsnr" v="662735" />
	</node>
	<node lat="67.82486388674438" lon="15.138697222626023" id="-21912">
		<tag k="alt_name" v="Stenbakken" />
		<tag k="name" v="Steinbakken" />
		<tag k="place" v="farm" />
		<tag k="ssr:stedsnr" v="662746" />
	</node>
	<node lat="67.88644999914686" lon="15.034038881115599" id="-21916">
		<tag k="name" v="Marka" />
		<tag k="place" v="farm" />
		<tag k="ssr:stedsnr" v="723569" />
	</node>
	<node lat="67.68969721939416" lon="15.65813889576824" id="-21918">
		<tag k="name" v="Steinmo" />
		<tag k="place" v="isolated_dwelling" />
		<tag k="ssr:stedsnr" v="723474" />
	</node>
	<node lat="67.68569444272504" lon="15.243608344097803" id="-21938">
		<tag k="name" v="Sletten" />
		<tag k="place" v="farm" />
		<tag k="ssr:stedsnr" v="723691" />
	</node>
	<node lat="67.68561110911921" lon="15.245519434136812" id="-21939">
		<tag k="name" v="Bjerkli" />
		<tag k="place" v="farm" />
		<tag k="ssr:stedsnr" v="723693" />
	</node>
	<node lat="67.68942499754517" lon="15.288544436634034" id="-21941">
		<tag k="name" v="Myrvoll" />
		<tag k="place" v="isolated_dwelling" />
		<tag k="ssr:stedsnr" v="723709" />
	</node>
	<node lat="67.68621110842278" lon="15.323483337678416" id="-21942">
		<tag k="name" v="Solvoll" />
		<tag k="place" v="isolated_dwelling" />
		<tag k="ssr:stedsnr" v="723712" />
	</node>
	<node lat="67.81254166403292" lon="14.788649998669511" id="-21954">
		<tag k="name" v="Sørskot" />
		<tag k="place" v="farm" />
		<tag k="ssr:stedsnr" v="744745" />
	</node>
	<node lat="67.99741978708387" lon="15.183913331385929" id="-21976">
		<tag k="name" v="Lund" />
		<tag k="place" v="farm" />
		<tag k="ssr:stedsnr" v="745067" />
	</node>
	<node lat="67.96348888662786" lon="15.035966655531437" id="-21985">
		<tag k="alt_name" v="Austgården" />
		<tag k="name" v="Austgarden" />
		<tag k="place" v="farm" />
		<tag k="ssr:stedsnr" v="745254" />
	</node>
	<node lat="67.73796388706764" lon="15.202402780557385" id="-21986">
		<tag k="name" v="Åbornes" />
		<tag k="place" v="hamlet" />
		<tag k="ssr:stedsnr" v="745255" />
	</node>
	<node lat="67.93302498261708" lon="15.549757580530065" id="-21992">
		<tag k="alt_name" v="Straumfjorden, l;Lille Straumfjord" />
		<tag k="fixme" v="consider place=hamlet" />
		<tag k="name" v="Litl Straumfjorden" />
		<tag k="place" v="farm" />
		<tag k="ssr:stedsnr" v="745557" />
	</node>
	<node lat="67.93249722606986" lon="15.236880558601376" id="-21994">
		<tag k="alt_name" v="Røtnes, øvre" />
		<tag k="name" v="Øvre Røtnes" />
		<tag k="place" v="farm" />
		<tag k="ssr:stedsnr" v="745566" />
	</node>
	<node lat="67.66563889093725" lon="14.780344440724226" id="-22005">
		<tag k="name" v="Brennsundgårdan" />
		<tag k="place" v="hamlet" />
		<tag k="ssr:stedsnr" v="761459" />
	</node>
	<node lat="67.9060583323577" lon="15.331419441530754" id="-22017">
		<tag k="name" v="Sandbakken" />
		<tag k="place" v="isolated_dwelling" />
		<tag k="ssr:stedsnr" v="764375" />
	</node>
	<node lat="67.89941944523281" lon="15.103247217339888" id="-22025">
		<tag k="name" v="Hamn" />
		<tag k="place" v="farm" />
		<tag k="ssr:stedsnr" v="764736" />
	</node>
	<node lat="67.72968888750967" lon="14.787974988348283" id="-22028">
		<tag k="name" v="Åkervik" />
		<tag k="place" v="quarter" />
		<tag k="ssr:stedsnr" v="764755" />
	</node>
	<node lat="67.81272500212225" lon="14.78983055375958" id="-22036">
		<tag k="name" v="Fjellheim" />
		<tag k="place" v="isolated_dwelling" />
		<tag k="ssr:stedsnr" v="783553" />
	</node>
	<node lat="67.80239721766378" lon="15.356586114669767" id="-22064">
		<tag k="name" v="Mellomgården" />
		<tag k="place" v="farm" />
		<tag k="ssr:stedsnr" v="805701" />
	</node>
	<node lat="67.79405277376766" lon="15.310294453692443" id="-22066">
		<tag k="name" v="Fredheim" />
		<tag k="place" v="farm" />
		<tag k="ssr:stedsnr" v="805706" />
	</node>
	<node lat="67.76507222371127" lon="15.148244450468969" id="-22072">
		<tag k="alt_name" v="Lapphaugen" />
		<tag k="name" v="Lapphågen" />
		<tag k="old_name" v="Myrvolden" />
		<tag k="place" v="farm" />
		<tag k="ssr:stedsnr" v="805922" />
	</node>
	<node lat="67.85148888707946" lon="15.177194442167902" id="-22080">
		<tag k="name" v="Skjeret" />
		<tag k="place" v="farm" />
		<tag k="ssr:stedsnr" v="805799" />
	</node>
	<node lat="67.8088611115001" lon="14.848088889317905" id="-22087">
		<tag k="alt_name" v="Gjeldsenga" />
		<tag k="name" v="Gjelsenga" />
		<tag k="place" v="farm" />
		<tag k="ssr:stedsnr" v="805982" />
	</node>
	<node lat="67.73699444073948" lon="14.798244442131567" id="-22091">
		<tag k="fixme" v="consider place=hamlet" />
		<tag k="name" v="Leines" />
		<tag k="place" v="village" />
		<tag k="ssr:stedsnr" v="806154" />
	</node>
	<node lat="67.95489722467276" lon="15.00194723085697" id="-22099">
		<tag k="name" v="Breidablikk" />
		<tag k="place" v="farm" />
		<tag k="ssr:stedsnr" v="806193" />
	</node>
	<node lat="67.92732777328159" lon="14.984188892646667" id="-22107">
		<tag k="alt_name" v="Steinmo" />
		<tag k="name" v="Steinmoen" />
		<tag k="place" v="isolated_dwelling" />
		<tag k="ssr:stedsnr" v="806115" />
	</node>
	<node lat="67.72546111018742" lon="15.178347232463187" id="-22115">
		<tag k="name" v="Otersteinan" />
		<tag k="place" v="farm" />
		<tag k="ssr:stedsnr" v="806200" />
	</node>
	<node lat="67.93122834115847" lon="14.983569199203028" id="-22123">
		<tag k="fixme" v="consider place=hamlet" />
		<tag k="name" v="Korsaksla" />
		<tag k="place" v="farm" />
		<tag k="ssr:stedsnr" v="806141" />
	</node>
	<node lat="67.82132475598115" lon="15.42215521602209" id="-22128">
		<tag k="fixme" v="consider place=hamlet" />
		<tag k="name" v="Nøtnes" />
		<tag k="place" v="farm" />
		<tag k="ssr:stedsnr" v="806745" />
	</node>
	<node lat="67.71027221800013" lon="15.121849997003556" id="-22131">
		<tag k="name" v="Haugan" />
		<tag k="place" v="farm" />
		<tag k="ssr:stedsnr" v="806246" />
	</node>
	<node lat="67.85462777748505" lon="15.2192527690037" id="-22140">
		<tag k="name" v="Solbakken" />
		<tag k="place" v="farm" />
		<tag k="ssr:stedsnr" v="806493" />
	</node>
	<node lat="67.86963611344342" lon="15.240686108764667" id="-22141">
		<tag k="name" v="Nordmarka" />
		<tag k="place" v="farm" />
		<tag k="ssr:stedsnr" v="806499" />
	</node>
	<node lat="67.9500888863563" lon="15.228266654125362" id="-22149">
		<tag k="name" v="Asplund" />
		<tag k="place" v="farm" />
		<tag k="ssr:stedsnr" v="806574" />
	</node>
	<node lat="67.69212777647817" lon="15.34074166009869" id="-22160">
		<tag k="name" v="Skoglund" />
		<tag k="place" v="farm" />
		<tag k="ssr:stedsnr" v="806846" />
	</node>
	<node lat="67.86781704622422" lon="14.998168913507302" id="-22165">
		<tag k="alt_name" v="Finnvik" />
		<tag k="fixme" v="consider place=hamlet" />
		<tag k="name" v="Finnvika" />
		<tag k="place" v="farm" />
		<tag k="ssr:stedsnr" v="806861" />
	</node>
	<node lat="67.67509722496497" lon="14.969950008413107" id="-22171">
		<tag k="name" v="Kroksvoll" />
		<tag k="place" v="farm" />
		<tag k="ssr:stedsnr" v="806817" />
	</node>
	<node lat="67.97105277445294" lon="15.02432222961422" id="-22188">
		<tag k="name" v="Stranda" />
		<tag k="place" v="locality" />
		<tag k="ssr:stedsnr" v="825437" />
	</node>
	<node lat="67.73653055680502" lon="14.785547221298943" id="-22191">
		<tag k="name" v="Myran" />
		<tag k="place" v="quarter" />
		<tag k="ssr:stedsnr" v="825638" />
	</node>
	<node lat="67.75161667017744" lon="15.151116673287781" id="-22194">
		<tag k="name" v="Kjerstenfjell" />
		<tag k="place" v="locality" />
		<tag k="ssr:stedsnr" v="825886" />
	</node>
	<node lat="67.72188888865851" lon="15.170802780444273" id="-22200">
		<tag k="name" v="Trettvik" />
		<tag k="place" v="isolated_dwelling" />
		<tag k="ssr:stedsnr" v="832274" />
	</node>
	<node lat="67.7172027788165" lon="15.137138883793785" id="-22201">
		<tag k="name" v="Lappvik" />
		<tag k="place" v="farm" />
		<tag k="ssr:stedsnr" v="832276" />
	</node>
	<node lat="67.75363055976736" lon="15.417313892290672" id="-22202">
		<tag k="name" v="Nyheim" />
		<tag k="place" v="isolated_dwelling" />
		<tag k="ssr:stedsnr" v="844350" />
	</node>
	<node lat="67.81131666526757" lon="15.738774999922303" id="-22212">
		<tag k="name" v="Lofthus" />
		<tag k="place" v="isolated_dwelling" />
		<tag k="ssr:stedsnr" v="845546" />
	</node>
	<node lat="67.76025833453788" lon="15.218483335385024" id="-22219">
		<tag k="name" v="Sjøstrand" />
		<tag k="place" v="farm" />
		<tag k="ssr:stedsnr" v="845744" />
	</node>
	<node lat="67.68997777476646" lon="15.28543611711595" id="-22221">
		<tag k="name" v="Skola" />
		<tag k="place" v="isolated_dwelling" />
		<tag k="ssr:stedsnr" v="845752" />
	</node>
	<node lat="67.91192777374096" lon="15.37978333133598" id="-22224">
		<tag k="name" v="Høydal" />
		<tag k="place" v="farm" />
		<tag k="ssr:stedsnr" v="866533" />
	</node>
	<node lat="67.77553114633244" lon="15.160766322314535" id="-22225">
		<tag k="fixme" v="consider place=hamlet" />
		<tag k="name" v="Tverrhaug" />
		<tag k="place" v="farm" />
		<tag k="ssr:stedsnr" v="865898" />
	</node>
	<node lat="67.77919722489065" lon="15.00613610460413" id="-22243">
		<tag k="name" v="Vikran" />
		<tag k="place" v="farm" />
		<tag k="ssr:stedsnr" v="865975" />
	</node>
	<node lat="67.72265377698592" lon="14.845988105028086" id="-22248">
		<tag k="alt_name" v="Levik" />
		<tag k="fixme" v="consider place=hamlet" />
		<tag k="name" v="Levika" />
		<tag k="place" v="farm" />
		<tag k="ssr:stedsnr" v="866185" />
	</node>
	<node lat="67.74910040384906" lon="15.055713993933992" id="-22254">
		<tag k="alt_name" v="Ospenes;Aspenes" />
		<tag k="fixme" v="consider place=hamlet" />
		<tag k="name" v="Ospnes" />
		<tag k="place" v="farm" />
		<tag k="ssr:stedsnr" v="866148" />
	</node>
	<node lat="67.94583611401198" lon="15.227652772334453" id="-22262">
		<tag k="alt_name" v="Stranda" />
		<tag k="name" v="Stranden" />
		<tag k="place" v="farm" />
		<tag k="ssr:stedsnr" v="866569" />
	</node>
	<node lat="67.90754836578067" lon="15.52135969179004" id="-22264">
		<tag k="fixme" v="consider place=hamlet" />
		<tag k="name" v="Straumfjordvatnet" />
		<tag k="place" v="farm" />
		<tag k="ssr:stedsnr" v="866512" />
	</node>
	<node lat="67.91453888898508" lon="15.344066669503347" id="-22268">
		<tag k="name" v="Haugen" />
		<tag k="place" v="farm" />
		<tag k="ssr:stedsnr" v="866528" />
	</node>
	<node lat="67.8356873816573" lon="15.157704681242649" id="-22272">
		<tag k="name" v="Fossheim" />
		<tag k="place" v="farm" />
		<tag k="ssr:stedsnr" v="866741" />
	</node>
	<node lat="67.76837777730054" lon="15.24826666621251" id="-22285">
		<tag k="name" v="Hestvikneset" />
		<tag k="place" v="farm" />
		<tag k="ssr:stedsnr" v="866650" />
	</node>
	<node lat="67.76225555809475" lon="15.692825006114013" id="-22286">
		<tag k="fixme" v="consider place=hamlet" />
		<tag k="name" v="Ånderbakken" />
		<tag k="place" v="farm" />
		<tag k="ssr:stedsnr" v="866661" />
	</node>
	<node lat="67.87110555727934" lon="15.021694437928536" id="-22301">
		<tag k="name" v="Sollia" />
		<tag k="place" v="farm" />
		<tag k="ssr:stedsnr" v="866836" />
	</node>
	<node lat="67.70418888079298" lon="15.400163638837165" id="-22307">
		<tag k="fixme" v="consider place=hamlet" />
		<tag k="name" v="Helldalen" />
		<tag k="place" v="farm" />
		<tag k="ssr:stedsnr" v="866859" />
	</node>
	<node lat="67.75992500146181" lon="15.025083340237119" id="-22312">
		<tag k="name" v="Laukvika" />
		<tag k="place" v="farm" />
		<tag k="ssr:stedsnr" v="866933" />
	</node>
	<node lat="67.91701671508645" lon="15.151828688037208" id="-22320">
		<tag k="fixme" v="consider place=hamlet" />
		<tag k="name" v="Berg" />
		<tag k="place" v="farm" />
		<tag k="ssr:stedsnr" v="867193" />
	</node>
	<node lat="67.91913889240833" lon="15.04924722286417" id="-22332">
		<tag k="alt_name" v="Sandvåg" />
		<tag k="name" v="Sandvågen" />
		<tag k="place" v="farm" />
		<tag k="ssr:stedsnr" v="867154" />
	</node>
	<node lat="67.9652833311765" lon="15.022141659066707" id="-22336">
		<tag k="name" v="Klokkargarden" />
		<tag k="place" v="farm" />
		<tag k="ssr:stedsnr" v="867244" />
	</node>
	<node lat="67.71085555664216" lon="15.111233336531404" id="-22338">
		<tag k="name" v="Osen" />
		<tag k="place" v="farm" />
		<tag k="ssr:stedsnr" v="867274" />
	</node>
	<node lat="67.71123657325876" lon="15.114846907123443" id="-22340">
		<tag k="fixme" v="consider place=hamlet" />
		<tag k="name" v="Valle" />
		<tag k="place" v="farm" />
		<tag k="ssr:stedsnr" v="867290" />
	</node>
	<node lat="67.930327776133" lon="15.269255562600287" id="-22345">
		<tag k="alt_name" v="Mevold" />
		<tag k="name" v="Mevoll" />
		<tag k="place" v="farm" />
		<tag k="ssr:stedsnr" v="867585" />
	</node>
	<node lat="67.81128610888835" lon="15.46349444988162" id="-22352">
		<tag k="alt_name" v="Bjørsvika, s" />
		<tag k="name" v="Søre Bjørsvika" />
		<tag k="place" v="farm" />
		<tag k="ssr:stedsnr" v="867752" />
	</node>
	<node lat="67.81649444414272" lon="15.42610277457698" id="-22353">
		<tag k="name" v="Skaøyra" />
		<tag k="place" v="farm" />
		<tag k="ssr:stedsnr" v="867758" />
	</node>
	<node lat="67.6823802505482" lon="15.540935375951616" id="-22354">
		<tag k="fixme" v="consider place=hamlet" />
		<tag k="name" v="Vinkfjorden" />
		<tag k="place" v="farm" />
		<tag k="ssr:stedsnr" v="867843" />
	</node>
	<node lat="67.73432222285824" lon="14.77797499726074" id="-22360">
		<tag k="name" v="Nygård" />
		<tag k="place" v="farm" />
		<tag k="ssr:stedsnr" v="883046" />
	</node>
	<node lat="67.87316944427216" lon="15.197272220780071" id="-22364">
		<tag k="name" v="Furemo" />
		<tag k="place" v="locality" />
		<tag k="ssr:stedsnr" v="884013" />
	</node>
	<node lat="67.91866666685019" lon="15.40835554424576" id="-22366">
		<tag k="name" v="Sommarset" />
		<tag k="place" v="locality" />
		<tag k="ssr:stedsnr" v="884342" />
	</node>
	<node lat="67.91935277731" lon="15.055661102948678" id="-22375">
		<tag k="name" v="Svartberget" />
		<tag k="place" v="farm" />
		<tag k="ssr:stedsnr" v="886673" />
	</node>
	<node lat="67.76144166746185" lon="15.218941656717295" id="-22378">
		<tag k="name" v="Hamre" />
		<tag k="place" v="isolated_dwelling" />
		<tag k="ssr:stedsnr" v="886784" />
	</node>
	<node lat="67.75079166641724" lon="15.185522213694634" id="-22381">
		<tag k="name" v="Vangen" />
		<tag k="place" v="farm" />
		<tag k="ssr:stedsnr" v="886879" />
	</node>
	<node lat="67.79068055771727" lon="15.04627500717473" id="-22383">
		<tag k="name" v="Sjyvegen" />
		<tag k="place" v="farm" />
		<tag k="ssr:stedsnr" v="886971" />
	</node>
	<node lat="67.96197500271377" lon="15.02808333609663" id="-22396">
		<tag k="name" v="Bjønnhågen" />
		<tag k="place" v="farm" />
		<tag k="ssr:stedsnr" v="946454" />
	</node>
	<node lat="67.75019166658083" lon="15.177399996766688" id="-22403">
		<tag k="name" v="Hulderheimen" />
		<tag k="place" v="farm" />
		<tag k="ssr:stedsnr" v="946873" />
	</node>
	<node lat="67.92915277485102" lon="15.246397229866602" id="-22413">
		<tag k="name" v="Nymo" />
		<tag k="place" v="farm" />
		<tag k="ssr:stedsnr" v="947333" />
	</node>
	<node lat="67.68643333284284" lon="15.315200002263163" id="-22427">
		<tag k="name" v="Elveheim" />
		<tag k="place" v="isolated_dwelling" />
		<tag k="ssr:stedsnr" v="966738" />
	</node>
	<node lat="67.6893722184447" lon="15.656219449177389" id="-22439">
		<tag k="name" v="Elvebakk" />
		<tag k="place" v="isolated_dwelling" />
		<tag k="ssr:stedsnr" v="966510" />
	</node>
	<node lat="67.95602352694686" lon="15.177572307545683" id="-22451">
		<tag k="name" v="Hammar" />
		<tag k="place" v="farm" />
		<tag k="ssr:stedsnr" v="972347" />
	</node>
	<node lat="67.99665757753961" lon="15.11483961870948" id="-22452">
		<tag k="fixme" v="consider place=hamlet" />
		<tag k="name" v="Brunneset" />
		<tag k="place" v="farm" />
		<tag k="ssr:stedsnr" v="972286" />
	</node>
	<node lat="68.0012067107738" lon="15.103947482139507" id="-22453">
		<tag k="name" v="Brunes" />
		<tag k="place" v="farm" />
		<tag k="ssr:stedsnr" v="972301" />
	</node>
	<node lat="67.85877520772297" lon="15.218936465132733" id="-22454">
		<tag k="fixme" v="consider place=hamlet" />
		<tag k="name" v="Holmåk" />
		<tag k="place" v="farm" />
		<tag k="ssr:stedsnr" v="972358" />
	</node>
	<node lat="67.86984006975652" lon="15.240966458026342" id="-22455">
		<tag k="name" v="Holmvåg" />
		<tag k="place" v="farm" />
		<tag k="ssr:stedsnr" v="972359" />
	</node>
	<node lat="67.858221593641" lon="15.208470155131547" id="-22456">
		<tag k="name" v="Holmvåg" />
		<tag k="place" v="farm" />
		<tag k="ssr:stedsnr" v="972360" />
	</node>
	<node lat="67.9563415888993" lon="15.648030576370363" id="-22457">
		<tag k="name" v="Forsan" />
		<tag k="place" v="farm" />
		<tag k="ssr:stedsnr" v="972468" />
	</node>
	<node lat="67.76414475912652" lon="15.234729718072527" id="-22458">
		<tag k="fixme" v="consider place=hamlet" />
		<tag k="name" v="Nordfolda" />
		<tag k="place" v="farm" />
		<tag k="ssr:stedsnr" v="972546" />
	</node>
	<node lat="67.76483876963233" lon="15.040626335984248" id="-22459">
		<tag k="fixme" v="consider place=hamlet" />
		<tag k="name" v="Sommarnes" />
		<tag k="place" v="farm" />
		<tag k="ssr:stedsnr" v="972824" />
	</node>
	<node lat="67.70395342834728" lon="15.095340721210912" id="-22460">
		<tag k="name" v="Inner-Seglstein" />
		<tag k="place" v="farm" />
		<tag k="ssr:stedsnr" v="983231" />
	</node>
	<node lat="67.80686485425127" lon="14.8345548829647" id="-22461">
		<tag k="fixme" v="consider place=hamlet" />
		<tag k="name" v="Lund" />
		<tag k="place" v="farm" />
		<tag k="ssr:stedsnr" v="991287" />
	</node>
	<node lat="67.80374824617992" lon="14.827232532870777" id="-22462">
		<tag k="name" v="Sjybakkan" />
		<tag k="old_name" v="Bakketun" />
		<tag k="place" v="farm" />
		<tag k="ssr:stedsnr" v="991288" />
	</node>
	<node lat="67.81818723664273" lon="15.127536653158844" id="-22627">
		<tag k="fixme" v="consider place=hamlet" />
		<tag k="name" v="Knedalsåsen" />
		<tag k="place" v="farm" />
		<tag k="ssr:stedsnr" v="1076269" />
	</node>
	<node lat="67.91082719575094" lon="15.379258136627856" id="-22628">
		<tag k="fixme" v="consider place=hamlet" />
		<tag k="name" v="Gamman" />
		<tag k="place" v="farm" />
		<tag k="ssr:stedsnr" v="1076270" />
	</node>
	<node lat="67.93222303835469" lon="15.232744422993974" id="-22629">
		<tag k="fixme" v="consider place=hamlet" />
		<tag k="name" v="Nordre Røtnes" />
		<tag k="place" v="farm" />
		<tag k="ssr:stedsnr" v="1076271" />
	</node>
	<node lat="67.9249583534788" lon="15.178290158294665" id="-22630">
		<tag k="alt_name" v="Kalvedalen" />
		<tag k="name" v="Kalvdalen" />
		<tag k="place" v="locality" />
		<tag k="ssr:stedsnr" v="1076272" />
	</node>
	<node lat="67.67847413095815" lon="14.99635542666139" id="-22672">
		<tag k="name" v="Stien" />
		<tag k="place" v="farm" />
		<tag k="ssr:stedsnr" v="1074946" />
	</node>
	<node lat="67.82349309482235" lon="15.127764841872489" id="-22758">
		<tag k="name" v="Myrvoll" />
		<tag k="place" v="farm" />
		<tag k="ssr:stedsnr" v="1075277" />
	</node>
	<node lat="67.82857365354029" lon="15.135142987308795" id="-22759">
		<tag k="name" v="Furulund" />
		<tag k="place" v="farm" />
		<tag k="ssr:stedsnr" v="1075278" />
	</node>
	<node lat="67.68625128973285" lon="15.020819917976125" id="-22764">
		<tag k="name" v="Stranden" />
		<tag k="place" v="farm" />
		<tag k="ssr:stedsnr" v="1075307" />
	</node>
	<node lat="67.84719754979456" lon="15.168352580150557" id="-22798">
		<tag k="name" v="Bjørkheim" />
		<tag k="place" v="farm" />
		<tag k="ssr:stedsnr" v="1075253" />
	</node>
	<node lat="67.68398763831462" lon="15.021706386848548" id="-22832">
		<tag k="name" v="Skoglund" />
		<tag k="place" v="farm" />
		<tag k="ssr:stedsnr" v="1075359" />
	</node>
	<node lat="67.68447751682773" lon="15.026018702945738" id="-22835">
		<tag k="name" v="Lillejord" />
		<tag k="place" v="farm" />
		<tag k="ssr:stedsnr" v="1075362" />
	</node>
	<node lat="67.68417963982245" lon="15.02862583153633" id="-22836">
		<tag k="name" v="Hauglund" />
		<tag k="place" v="farm" />
		<tag k="ssr:stedsnr" v="1075363" />
	</node>
	<node lat="67.68493114008882" lon="15.02824391974926" id="-22837">
		<tag k="name" v="Nyland" />
		<tag k="place" v="farm" />
		<tag k="ssr:stedsnr" v="1075366" />
	</node>
	<node lat="67.73667344143648" lon="14.808231173941111" id="-22856">
		<tag k="fixme" v="consider place=hamlet" />
		<tag k="name" v="Leines" />
		<tag k="place" v="farm" />
		<tag k="ssr:stedsnr" v="1076012" />
	</node>
	<node lat="67.76114102857659" lon="15.1474308128003" id="-22857">
		<tag k="fixme" v="consider place=hamlet" />
		<tag k="name" v="Botn" />
		<tag k="place" v="farm" />
		<tag k="ssr:stedsnr" v="1076242" />
	</node>
	<node lat="67.75981584895423" lon="15.13958052483236" id="-22858">
		<tag k="fixme" v="consider place=hamlet" />
		<tag k="name" v="Nedre Botn" />
		<tag k="place" v="farm" />
		<tag k="ssr:stedsnr" v="1076243" />
	</node>
	<node lat="67.76151770884772" lon="15.024852950462929" id="-22859">
		<tag k="alt_name" v="Sommernes" />
		<tag k="fixme" v="consider place=hamlet" />
		<tag k="name" v="Sommarnes" />
		<tag k="place" v="farm" />
		<tag k="ssr:stedsnr" v="1076244" />
	</node>
	<node lat="67.79477053414487" lon="15.056033340585143" id="-22860">
		<tag k="fixme" v="consider place=hamlet" />
		<tag k="name" v="Saursfjord" />
		<tag k="place" v="farm" />
		<tag k="ssr:stedsnr" v="1076245" />
	</node>
	<node lat="67.81297631306063" lon="14.699484711238615" id="-22861">
		<tag k="name" v="Måløya" />
		<tag k="place" v="locality" />
		<tag k="ssr:stedsnr" v="1076247" />
	</node>
	<node lat="67.73080432740858" lon="14.595041474714455" id="-22862">
		<tag k="name" v="Husøya" />
		<tag k="place" v="locality" />
		<tag k="ssr:stedsnr" v="1076248" />
	</node>
	<node lat="67.8382781017397" lon="14.764249931586576" id="-22863">
		<tag k="name" v="Grøtøya" />
		<tag k="place" v="locality" />
		<tag k="ssr:stedsnr" v="1076249" />
	</node>
	<node lat="67.85375086498865" lon="14.979839026707598" id="-22864">
		<tag k="name" v="Kvanndalsstranda" />
		<tag k="place" v="locality" />
		<tag k="ssr:stedsnr" v="1076250" />
	</node>
	<node lat="67.87614322449816" lon="15.084661332617726" id="-22865">
		<tag k="fixme" v="consider place=hamlet" />
		<tag k="name" v="Innerskotsfjord" />
		<tag k="place" v="farm" />
		<tag k="ssr:stedsnr" v="1076251" />
	</node>
	<node lat="67.89701671232491" lon="15.18812591277048" id="-22866">
		<tag k="fixme" v="consider place=hamlet" />
		<tag k="name" v="Leirvikbogen" />
		<tag k="place" v="farm" />
		<tag k="ssr:stedsnr" v="1076252" />
	</node>
	<node lat="67.67577140736532" lon="14.723208164676972" id="-22867">
		<tag k="name" v="Vettøya" />
		<tag k="place" v="locality" />
		<tag k="ssr:stedsnr" v="1076366" />
	</node>
	<node lat="67.85519865419882" lon="15.519134128657507" id="-22868">
		<tag k="name" v="Storvasseidet" />
		<tag k="place" v="locality" />
		<tag k="ssr:stedsnr" v="1076368" />
	</node>
	<node lat="67.93505343048132" lon="14.9526853142781" id="-22869">
		<tag k="fixme" v="consider place=hamlet" />
		<tag k="name" v="Burøya" />
		<tag k="place" v="farm" />
		<tag k="ssr:stedsnr" v="1076277" />
	</node>
	<node lat="67.91495460756576" lon="14.937047285391664" id="-22870">
		<tag k="alt_name" v="Røsøy" />
		<tag k="fixme" v="consider place=hamlet" />
		<tag k="name" v="Røssøya" />
		<tag k="place" v="farm" />
		<tag k="ssr:stedsnr" v="1076278" />
	</node>
	<node lat="67.91106634393333" lon="14.87674505814353" id="-22871">
		<tag k="fixme" v="consider place=hamlet" />
		<tag k="name" v="Lauvøya" />
		<tag k="place" v="farm" />
		<tag k="ssr:stedsnr" v="1076279" />
	</node>
	<node lat="67.96482018490478" lon="15.032155252687168" id="-22872">
		<tag k="name" v="Bø" />
		<tag k="place" v="hamlet" />
		<tag k="ssr:stedsnr" v="1076280" />
	</node>
	<node lat="67.99483324693863" lon="15.115592935209756" id="-22873">
		<tag k="fixme" v="consider place=hamlet" />
		<tag k="name" v="Brunes" />
		<tag k="place" v="farm" />
		<tag k="ssr:stedsnr" v="1076281" />
	</node>
	<node lat="67.99878349740722" lon="15.183823302853705" id="-22874">
		<tag k="fixme" v="consider place=hamlet" />
		<tag k="name" v="Lund" />
		<tag k="place" v="farm" />
		<tag k="ssr:stedsnr" v="1076282" />
	</node>
	<node lat="67.68430067397894" lon="15.023566825657138" id="-22875">
		<tag k="fixme" v="consider place=hamlet" />
		<tag k="name" v="Stamsvika" />
		<tag k="place" v="farm" />
		<tag k="ssr:stedsnr" v="1076320" />
	</node>
	<node lat="67.81441997306419" lon="15.457013637867341" id="-22876">
		<tag k="name" v="Bjørsvika" />
		<tag k="place" v="hamlet" />
		<tag k="ssr:stedsnr" v="1076351" />
	</node>
	<node lat="67.65157485592948" lon="15.081500664010028" id="-22877">
		<tag k="name" v="Hjartøya" />
		<tag k="place" v="hamlet" />
		<tag k="ssr:stedsnr" v="1076352" />
	</node>
	<node lat="67.66883639244887" lon="14.775807219660315" id="-22878">
		<tag k="fixme" v="consider place=hamlet" />
		<tag k="name" v="Brennsund" />
		<tag k="place" v="farm" />
		<tag k="ssr:stedsnr" v="1076353" />
	</node>
	<node lat="67.83563513396712" lon="14.774175575061085" id="-22880">
		<tag k="name" v="Mannshausen II" />
		<tag k="place" v="farm" />
		<tag k="ssr:stedsnr" v="1081671" />
	</node>
</osm>
