<?xml version="1.0" encoding="UTF-8"?>
<osm generator="osmapis" version="0.6">
	<node id="-264444" lat="60.630277778" lon="8.56115555003">
		<tag k="name" v="Ål kommune" />
		<tag k="ssr:date" v="2019-12-27" />
		<tag k="ssr:gruppe" v="administrativeIndelinger" />
		<tag k="ssr:hovedgruppe" v="offentligAdministrasjon" />
		<tag k="ssr:stedsnr" v="449885" />
		<tag k="ssr:type" v="kommune" />
	</node>
	<node id="-266359" lat="60.6143178079" lon="8.74795518816">
		<tag k="name" v="Karistigen" />
		<tag k="ssr:date" v="2020-03-05" />
		<tag k="ssr:gruppe" v="veg" />
		<tag k="ssr:hovedgruppe" v="infrastruktur" />
		<tag k="ssr:stedsnr" v="1075829" />
		<tag k="ssr:type" v="adressenavn" />
	</node>
	<node id="-266358" lat="60.5355007647" lon="8.48896943499">
		<tag k="name" v="Tranemyrvegen" />
		<tag k="ssr:date" v="2020-03-05" />
		<tag k="ssr:gruppe" v="veg" />
		<tag k="ssr:hovedgruppe" v="infrastruktur" />
		<tag k="ssr:stedsnr" v="1075828" />
		<tag k="ssr:type" v="adressenavn" />
	</node>
	<node id="-266357" lat="60.8424974589" lon="8.24073537895">
		<tag k="name" v="Jonsstølen" />
		<tag k="ssr:date" v="2020-03-05" />
		<tag k="ssr:gruppe" v="veg" />
		<tag k="ssr:hovedgruppe" v="infrastruktur" />
		<tag k="ssr:stedsnr" v="1075827" />
		<tag k="ssr:type" v="adressenavn" />
	</node>
	<node id="-266356" lat="60.7120179146" lon="8.7560958003">
		<tag k="name" v="Syningen hyttefelt" />
		<tag k="ssr:date" v="2020-02-20" />
		<tag k="ssr:gruppe" v="veg" />
		<tag k="ssr:hovedgruppe" v="infrastruktur" />
		<tag k="ssr:stedsnr" v="1075418" />
		<tag k="ssr:type" v="adressenavn" />
	</node>
	<node id="-266355" lat="60.7609077755" lon="8.52568798152">
		<tag k="name" v="Hellebuvegen" />
		<tag k="ssr:date" v="2020-02-20" />
		<tag k="ssr:gruppe" v="veg" />
		<tag k="ssr:hovedgruppe" v="infrastruktur" />
		<tag k="ssr:stedsnr" v="1075417" />
		<tag k="ssr:type" v="adressenavn" />
	</node>
	<node id="-266354" lat="60.7609006666" lon="8.53390963751">
		<tag k="name" v="Haugestølvegen" />
		<tag k="ssr:date" v="2020-02-20" />
		<tag k="ssr:gruppe" v="veg" />
		<tag k="ssr:hovedgruppe" v="infrastruktur" />
		<tag k="ssr:stedsnr" v="1075419" />
		<tag k="ssr:type" v="adressenavn" />
	</node>
	<node id="-266350" lat="59.9116896876" lon="10.7581882267">
		<tag k="name" v="Viken fylke" />
		<tag k="ssr:date" v="2020-01-13" />
		<tag k="ssr:gruppe" v="administrativeIndelinger" />
		<tag k="ssr:hovedgruppe" v="offentligAdministrasjon" />
		<tag k="ssr:stedsnr" v="1074403" />
		<tag k="ssr:type" v="fylke" />
	</node>
	<node id="-266349" lat="60.6577480733" lon="8.75922036458">
		<tag k="name" v="Stølsvegen " />
		<tag k="ssr:date" v="2019-12-27" />
		<tag k="ssr:gruppe" v="veg" />
		<tag k="ssr:hovedgruppe" v="infrastruktur" />
		<tag k="ssr:stedsnr" v="1073259" />
		<tag k="ssr:type" v="vegstrekning" />
	</node>
	<node id="-266184" lat="60.6241527815" lon="8.55730555772">
		<tag k="name" v="Kolbotnvegen" />
		<tag k="ssr:date" v="2019-12-27" />
		<tag k="ssr:gruppe" v="veg" />
		<tag k="ssr:hovedgruppe" v="infrastruktur" />
		<tag k="ssr:stedsnr" v="809786" />
		<tag k="ssr:type" v="adressenavn" />
	</node>
	<node id="-266343" lat="60.8322117429" lon="8.31565648697">
		<tag k="name" v="Bjørkehovda" />
		<tag k="ssr:date" v="2019-12-27" />
		<tag k="ssr:gruppe" v="veg" />
		<tag k="ssr:hovedgruppe" v="infrastruktur" />
		<tag k="ssr:stedsnr" v="1032704" />
		<tag k="ssr:type" v="adressenavn" />
	</node>
	<node id="-266342" lat="60.6351458559" lon="8.39190241599">
		<tag k="name" v="Stokksennhalle" />
		<tag k="ssr:date" v="2019-12-27" />
		<tag k="ssr:gruppe" v="veg" />
		<tag k="ssr:hovedgruppe" v="infrastruktur" />
		<tag k="ssr:stedsnr" v="1032781" />
		<tag k="ssr:type" v="adressenavn" />
	</node>
</osm>
